ESTACION,ANO,MES,DIA,HORA,MINUTO,PARTE
41850,2023,03,31,00,00,AAXX 31004 41850 31950 00000 10190 20170 39986 40087 70500 333 59012 70000=
41850,2023,03,31,06,00,AAXX 31064 41850 32457 60605 10282 20140 30017 40115 82510 333 56990 58012 70000 82616 86459=
41850,2023,03,31,12,00,AAXX 31124 41850 31450 70000 10254 20200 39983 40082 70522 83510 333 10286 56990 58026 70000 83616 87459=
41850,2023,03,31,18,00,AAXX 31184 41850 11450 60000 10204 20180 39976 40076 60055 70596 82510 333 56990 59012 70046 82616 86458=
41850,2023,04,01,00,00,AAXX 01004 41850 11456 80902 10188 20180 39992 40093 69944 72996 8452/ 333 56999 58006 70050 84615 88458=
41850,2023,04,01,06,00,AAXX 01064 41850 32458 33002 10275 20170 30001 40099 82430 333 56990 59016 70050 82616 83362=
41850,2023,04,01,12,00,AAXX 01124 41850 11450 30000 10221 20200 39960 40060 60205 70596 82530 333 10289 56990 59023 70254 82616 83362=
41850,2023,04,01,18,00,AAXX 01184 41850 NIL=
41850,2023,04,02,00,00,AAXX 02004 41850 31430 20000 10170 20170 39966 40067 70511 82500 333 56900 59026 70276 82615=
41850,2023,04,02,06,00,AAXX 02064 41850 32457 41402 10257 20180 39985 40084 84400 333 56900 59016 70276 83616=
41850,2023,04,02,12,00,AAXX 02124 41850 31457 22403 10257 20160 39936 40035 82400 333 10289 56900 59024 70072 81616=
41850,2023,04,02,18,00,AAXX 02184 41850 31950 20202 10200 20180 39946 40048 70511 82030 333 59040 70000 82362=
41850,2023,04,03,00,00,AAXX 03004 41850 31956 00000 10168 20160 39947 40048 70500 333 59019 70000=
41850,2023,04,03,06,00,AAXX 03064 41850 32958 01804 10278 20170 39975 40072 333 59018 70000=
41850,2023,04,03,12,00,AAXX 03124 41850 31950 00903 10277 20190 39945 40043 70500 333 10311 58009 70000=
41850,2023,04,03,18,00,AAXX 03184 41850 NIL=
41850,2023,04,04,00,00,AAXX 04004 41850 31930 01304 10198 20170 39962 40062 70500 333 58015 70000=
41850,2023,04,04,06,00,AAXX 04064 41850 32956 00902 10273 20170 39979 40078 333 58004 70000=
41850,2023,04,04,12,00,AAXX 04124 41850 31450 40000 10275 20200 39944 40042 70522 84500 333 10296 56900 59001 70000 84618=
41850,2023,04,04,18,00,AAXX 04184 41850 31930 00000 10218 20210 39961 40061 70500 333 58001 70000=
41850,2023,04,05,00,00,AAXX 05004 41850 31930 01802 10192 20190 39952 40053 70500 333 59010 70000=
41850,2023,04,05,06,00,AAXX 05064 41850 32957 01302 10280 20190 39973 40071 333 59006 70000=
41850,2023,04,05,12,00,AAXX 05124 41850 32956 00000 10295 20170 39935 40033 333 10317 59009 70000=
41850,2023,04,05,18,00,AAXX 05184 41850 31930 01804 10205 20190 39961 40061 70500 333 58000 70000=
41850,2023,04,06,00,00,AAXX 06004 41850 31930 00903 10200 20190 39977 40078 70500 333 58025 70000=
41850,2023,04,06,06,00,AAXX 06064 41850 32956 01306 10286 20180 30003 40101 333 58030 70000=
41850,2023,04,06,12,00,AAXX 06124 41850 31950 00000 10290 20190 39974 40072 70500 333 10318 58039 70000=
41850,2023,04,06,18,00,AAXX 06184 41850 31930 01305 10218 20210 30002 40102 70500 333 58041 70000=
41851,2023,03,31,00,00,AAXX 31004 41851 31945 00901 10195 20180 30026 40090 70500 333 59017 70000=
41851,2023,03,31,06,00,AAXX 31064 41851 32450 80901 10268 20190 30058 40121 8252/ 333 56999 58011 70000 82618 88458=
41851,2023,03,31,12,00,AAXX 31124 41851 32450 80000 10260 20200 30019 40082 8352/ 333 10285 56999 58022 70000 83618 88458=
41851,2023,03,31,18,00,AAXX 31184 41851 32450 81801 10225 20210 30037 40101 8352/ 333 56999 58016 70000 83618 88458=
41851,2023,04,01,00,00,AAXX 01004 41851 11450 80403 10190 20170 30023 40087 60084 70296 8352/ 333 56999 59003 70083 83618 88458=
41851,2023,04,01,06,00,AAXX 01064 41851 32450 30401 10257 20180 30042 40105 82530 333 56990 59016 70083 82618=
41851,2023,04,01,12,00,AAXX 01124 41851 31450 50000 10265 20210 39998 40061 71722 83930 333 10289 56990 59021 70083 82618 81930 83362=
41851,2023,04,01,18,00,AAXX 01184 41851 11350 80904 10180 20170 30015 40080 60247 71396 8432/ 333 56299 59022 70318 81709 83617 81930 88457=
41851,2023,04,02,00,00,AAXX 02004 41851 11350 80902 10183 20170 30004 40069 60015 70296 8462/ 333 56399 59019 70249 81709 83617 88457=
41851,2023,04,02,06,00,AAXX 02064 41851 32450 51802 10256 20170 30024 40087 82530 333 56990 59018 70249 82618 83362=
41851,2023,04,02,12,00,AAXX 02124 41851 32450 31801 10260 20180 39973 40036 83400 333 10281 56900 59025 70249 82618=
41851,2023,04,02,18,00,AAXX 02184 41851 32950 00000 10200 20190 39991 40055 333 59024 70014=
41851,2023,04,03,00,00,AAXX 03004 41851 31440 50000 10180 20170 39988 40053 70520 82520 333 56990 59016 70000 82618 85459=
41851,2023,04,03,06,00,AAXX 03064 41851 32450 12302 10287 20180 30011 40073 81500 333 56900 59013 70000 81618=
41851,2023,04,03,12,00,AAXX 03124 41851 32950 00000 10280 20190 39985 40047 333 10306 58012 70000=
41851,2023,04,03,18,00,AAXX 03184 41851 32450 60902 10210 20190 30011 40075 83510 333 56690 58020 70000 83618 85458=
41851,2023,04,04,00,00,AAXX 04004 41851 32450 20902 10192 20180 30007 40071 82500 333 56900 58019 70000 82618=
41851,2023,04,04,06,00,AAXX 04064 41851 32450 60901 10274 20190 30029 40092 83510 333 56990 58018 70000 83618 85459=
41851,2023,04,04,12,00,AAXX 04124 41851 32950 00000 10275 20210 39984 40046 333 10299 59001 70000=
41851,2023,04,04,18,00,AAXX 04184 41851 32450 30902 10219 20200 30006 40070 83500 333 56900 59005 70000 83618=
41851,2023,04,05,00,00,AAXX 05004 41851 11450 20000 10194 20180 39996 40060 69975 70162 82500 333 56900 59011 70007 82618=
41851,2023,04,05,06,00,AAXX 05064 41851 32450 20000 10284 20210 30015 40077 82500 333 56900 59014 70000 82618=
41851,2023,04,05,12,00,AAXX 05124 41851 32950 00000 10285 20200 39981 40043 333 10312 59003 70007=
41851,2023,04,05,18,00,AAXX 05184 41851 32950 00000 10205 20190 30018 40082 333 58012 70007=
41851,2023,04,06,00,00,AAXX 06004 41851 32950 00000 10179 20170 30028 40093 333 58032 70000=
41851,2023,04,06,06,00,AAXX 06064 41851 32950 00901 10285 20200 30053 40116 333 58038 70000=
41851,2023,04,06,12,00,AAXX 06124 41851 32950 00000 10290 20160 39993 40055 333 10320 58012 70000=
41851,2023,04,06,18,00,AAXX 06184 41851 31930 02301 10202 20180 30020 40084 70500 333 58002 70000=
41856,2023,03,31,00,00,AAXX 31004 41856 31930 20901 10210 20190 30053 40089 70511 82030 333 56090 59015 70000 82362=
41856,2023,03,31,06,00,AAXX 31064 41856 32450 60901 10280 20200 30084 40120 82520 333 56990 58009 70000 82618 84458=
41856,2023,03,31,12,00,AAXX 31124 41856 32440 81802 10260 20200 30048 40084 8452/ 333 10292 56999 58024 70000 84618 88458=
41856,2023,03,31,18,00,AAXX 31184 41856 32930 20000 10219 20210 30072 40108 82030 333 56090 58025 70000 82362=
41856,2023,04,01,00,00,AAXX 01004 41856 11330 82302 10214 20200 30060 40096 60029 79196 8692/ 333 56699 58007 70016 84708 85614 88456 81930=
41856,2023,04,01,06,00,AAXX 01064 41856 11450 50502 10252 20190 30072 40108 60019 70162 82520 333 56990 59012 70022 82618 85458=
41856,2023,04,01,12,00,AAXX 01124 41856 32440 30000 10264 20190 30026 40061 82430 333 10290 56990 59022 70022 81618 83362=
41856,2023,04,01,18,00,AAXX 01184 41856 11320 80903 10185 20180 30060 40097 60214 79799 8692/ 333 56699 59012 70232 84708 85614 88456 82930=
41856,2023,04,02,00,00,AAXX 02004 41856 11430 30000 10180 20180 30030 40067 60087 72996 81520 333 56990 59030 70292 81618 83458=
41856,2023,04,02,06,00,AAXX 02064 41856 32450 51802 10265 20190 30050 40085 83430 333 56990 59022 70286 81618 83825 85362=
41856,2023,04,02,12,00,AAXX 02124 41856 32950 22301 10262 20180 30004 40039 82030 333 10292 56090 59022 70286 82362=
41856,2023,04,02,18,00,AAXX 02184 41856 31940 02101 10209 20190 30022 40058 70500 333 59038 70076=
41856,2023,04,03,00,00,AAXX 03004 41856 31930 21201 10193 20180 30017 40053 70500 82030 333 56090 59013 70000 82362=
41856,2023,04,03,06,00,AAXX 03064 41856 32950 01701 10291 20200 30042 40077 333 59008 70000=
41856,2023,04,03,12,00,AAXX 03124 41856 32950 00000 10292 20190 30016 40051 333 10312 58012 70000=
41856,2023,04,03,18,00,AAXX 03184 41856 32930 21402 10216 20210 30040 40076 82030 333 56090 58018 70000 82362=
41856,2023,04,04,00,00,AAXX 04004 41856 32440 61402 10190 20170 30038 40075 82520 333 56990 58021 70000 82618 86458=
41856,2023,04,04,06,00,AAXX 04064 41856 32450 61402 10252 20190 30060 40096 82520 333 56990 58018 70000 82618 86458=
41856,2023,04,04,12,00,AAXX 04124 41856 32950 00000 10280 20210 30014 40049 333 10295 59002 70000=
41856,2023,04,04,18,00,AAXX 04184 41856 31940 01101 10222 20200 30035 40071 70500 333 59005 70000=
41856,2023,04,05,00,00,AAXX 05004 41856 31940 00701 10193 20170 30023 40059 70500 333 59015 70000=
41856,2023,04,05,06,00,AAXX 05064 41856 32950 01802 10271 20210 30044 40079 333 59016 70000=
41856,2023,04,05,12,00,AAXX 05124 41856 32956 00000 10284 20150 30016 40051 333 10326 58002 70000=
41856,2023,04,05,18,00,AAXX 05184 41856 31940 00000 10214 20190 30043 40079 70500 333 58008 70000=
41856,2023,04,06,00,00,AAXX 06004 41856 31930 00000 10181 20170 30060 40097 70500 333 58037 70000=
41856,2023,04,06,06,00,AAXX 06064 41856 32456 41602 10303 20200 30078 40113 84420 333 56990 58034 70000 81618=
41856,2023,04,06,12,00,AAXX 06124 41856 32956 00000 10290 20180 30044 40079 333 10333 58028 70000=
41856,2023,04,06,18,00,AAXX 06184 41856 32930 00000 10200 20190 30072 40108 70500 333 58029 70000=
41858,2023,03,31,00,00,AAXX 31004 41858 01415 80305 10222 20200 30039 40085 74442 8452/ 333 59022 70000 84614 88458==
41858,2023,03,31,03,00,AAXX 31034 41858 01425 30506 10250 20200 30077 40123 71042 83500 333 20210 58003 70000 83618==
41858,2023,03,31,06,00,AAXX 31064 41858 01450 60905 10282 20200 30074 40123 70542 84520 333 58011 70000 84615 85458==
41858,2023,03,31,09,00,AAXX 31094 41858 01450 70908 10290 20190 30048 40093 70522 84520 333 58018 70000 84615 86458==
41858,2023,03,31,12,00,AAXX 31124 41858 01450 80905 10268 20200 30035 40081 70522 8452/ 333 10295 58023 70000 84615 88458==
41858,2023,03,31,18,00,AAXX 31184 41858 01440 50000 10235 20220 30061 40107 70522 83530 333 58010 70000 83615 85362==
41858,2023,03,31,21,00,AAXX 31214 41858 01430 80506 10214 20200 30039 40085 79522 8592/ 333 59006 70220 84615 88458 82930==
41858,2023,04,01,00,00,AAXX 01004 41858 01430 83606 10204 20180 30032 40078 70596 8452/ 333 59007 70220 84615 88458==
41858,2023,04,01,03,00,AAXX 01034 41858 01440 40000 10240 20190 30065 40111 70522 82520 333 20194 59012 70220 82616 84458==
41858,2023,04,01,06,00,AAXX 01064 41858 01440 60000 10295 20190 30058 40103 70522 84520 333 59019 70220 84616 86458==
41858,2023,04,01,09,00,AAXX 01094 41858 01450 60000 10292 20180 30029 40074 70522 84520 333 59019 70220 84616 86458==
41858,2023,04,01,12,00,AAXX 01124 41858 01445 31206 10270 20200 30017 40062 70521 83500 333 10304 59018 70220 83618==
41858,2023,04,01,15,00,AAXX 01154 41858 01440 21605 10240 20220 30032 40078 70511 82500 333 59016 70220 82615==
41858,2023,04,01,18,00,AAXX 01184 41858 01420 81609 10180 20180 30042 40089 79562 8592/ 333 59016 70180 84614 88458 82930==
41858,2023,04,02,00,00,AAXX 02004 41858 01420 80905 10180 20170 30030 40077 79596 8492/ 333 59009 70210 84614 88458==
41858,2023,04,02,03,00,AAXX 02034 41858 01440 31505 10224 20180 30050 40096 70522 83500 333 10175 59015 70230 83618==
41858,2023,04,02,06,00,AAXX 02064 41858 01450 61505 10280 20200 30044 40090 70522 84520 333 59014 70230 84615 85458==
41858,2023,04,02,09,00,AAXX 02094 41858 01450 62706 10288 20190 30010 40055 70522 83520 333 59019 70230 83616 86458==
41858,2023,04,02,12,00,AAXX 02124 41858 01940 01806 10250 20180 39996 40042 70520 333 10295 59021 70230==
41858,2023,04,02,15,00,AAXX 02154 41858 01940 00000 10232 20200 30012 40058 70520 333 59020 70230==
41858,2023,04,02,18,00,AAXX 02184 41858 01935 01205 10222 20200 30034 40081 70500 333 59008 70050==
41858,2023,04,02,21,00,AAXX 02214 41858 01930 01806 10216 20200 30023 40069 70500 333 59007 70020==
41858,2023,04,03,00,00,AAXX 03004 41858 01915 00000 10210 20190 30008 40054 71000 333 59017 70000==
41858,2023,04,03,03,00,AAXX 03034 41858 01930 02106 10262 20190 30033 40079 70540 333 20195 59017 70000==
41858,2023,04,03,06,00,AAXX 03064 41858 01550 22408 10310 20170 30035 40080 70540 82100 333 70000 82825==
41858,2023,04,03,09,00,AAXX 03094 41858 01550 22110 10325 20180 30011 40055 70500 82100 333 58001 70000 82825==
41858,2023,04,03,12,00,AAXX 03124 41858 01950 00000 10296 20200 30005 40050 70500 333 10326 58009 70000==
41858,2023,04,03,15,00,AAXX 03154 41858 01940 01205 10242 20190 30023 40069 70500 333 58011 70000==
41858,2023,04,03,18,00,AAXX 03184 41858 01940 01205 10225 20200 30050 40096 70500 333 58016 70000==
41858,2023,04,03,21,00,AAXX 03214 41858 01930 01205 10210 20190 30044 40090 70500 333 58021 70000==
41858,2023,04,04,00,00,AAXX 04004 41858 01930 00908 10204 20180 30031 40077 70500 333 58023 70000==
41858,2023,04,04,03,00,AAXX 04034 41858 01935 51806 10234 20180 30048 40094 70520 83520 333 10195 58015 70000 83618 85458==
41858,2023,04,04,06,00,AAXX 04064 41858 01935 50906 10270 20190 30049 40095 70522 83520 333 58014 70000 83618 85458==
41858,2023,04,04,09,00,AAXX 04094 41858 01950 01805 10302 20190 30017 40062 70510 333 58006 70000==
41858,2023,04,04,12,00,AAXX 04124 41858 01940 03605 10284 20210 30002 40047 70500 333 10307 59003 70000==
41858,2023,04,04,15,00,AAXX 04154 41858 01935 00505 10255 20220 30021 40067 70500 333 59002 70000==
41858,2023,04,04,18,00,AAXX 04184 41858 01930 03606 10230 20210 30030 40076 70500 333 59020 70000==
41858,2023,04,04,21,00,AAXX 04214 41858 01930 00504 10220 20200 30010 40056 70500 333 59034 70000==
41858,2023,04,05,00,00,AAXX 05004 41858 01930 00505 10206 20190 30015 40061 70500 333 59016 70000==
41858,2023,04,05,03,00,AAXX 05034 41858 01940 00306 10250 20200 30038 40084 70500 333 20198 59010 70000==
41858,2023,04,05,06,00,AAXX 05064 41858 01950 02108 10300 20220 30036 40081 70500 333 59013 70000==
41858,2023,04,05,09,00,AAXX 05094 41858 01956 02008 10330 20180 30007 40051 70500 333 59010 70000==
41858,2023,04,05,12,00,AAXX 05124 41858 01950 01805 10295 20190 30003 40050 70500 333 10335 59003 70000==
41858,2023,04,05,15,00,AAXX 05154 41858 01935 01605 10245 20210 30030 40076 70500 333 58009 70000==
41858,2023,04,05,18,00,AAXX 05184 41858 01940 01908 10224 20200 30040 40087 70500 333 58010 70000==
41858,2023,04,05,21,00,AAXX 05214 41858 01925 00905 10212 20190 30045 40091 71000 333 58035 70000==
41858,2023,04,06,00,00,AAXX 06004 41858 01920 00605 10202 20190 30050 40095 71000 333 58035 70000==
41858,2023,04,06,03,00,AAXX 06034 41858 01425 50805 10240 20200 30074 40121 71022 85800 333 20190 58036 70000 83615 83825==
41858,2023,04,06,06,00,AAXX 06064 41858 01950 01805 10304 20180 30070 40115 70520 333 58034 70000==
41858,2023,04,06,09,00,AAXX 06094 41858 01956 01806 10345 20140 30042 40086 70500 333 58035 70000==
41858,2023,04,06,12,00,AAXX 06124 41858 01956 01806 10305 20160 30033 40078 70500 333 10364 58027 70000==
41858,2023,04,06,15,00,AAXX 06154 41858 01950 00606 10280 20160 30055 40101 70500 333 58025 70000==
41858,2023,04,06,18,00,AAXX 06184 41858 01940 00606 10225 20180 30061 40107 70500 333 58021 70000==
41858,2023,04,06,21,00,AAXX 06214 41858 01930 00505 10212 20170 30062 40108 70500 333 58017 70000==
41859,2023,03,31,00,00,AAXX 31004 41859 02430 50501 10215 20210 30052 40090 83520 333 59012 70000 83618 85458==
41859,2023,03,31,03,00,AAXX 31034 41859 02450 40502 10250 20190 30086 40124 82520 333 20210 58003 70000 82618 84458==
41859,2023,03,31,06,00,AAXX 31064 41859 02450 81302 10280 20190 30086 40123 8562/ 333 58011 70000 83710 85618 88458==
41859,2023,03,31,09,00,AAXX 31094 41859 02445 81301 10286 20210 30057 40094 8562/ 333 58021 70000 83710 84618 88458==
41859,2023,03,31,12,00,AAXX 31124 41859 02440 82301 10266 20210 30047 40084 8562/ 333 10288 58026 70000 83710 84618 88458==
41859,2023,03,31,15,00,AAXX 31154 41859 02430 80000 10250 20220 30059 40096 8461/ 333 58011 70000 82710 84618 88458==
41859,2023,03,31,18,00,AAXX 31184 41859 02430 50000 10235 20220 30072 40110 82530 333 58022 70000 82618 84362==
41859,2023,03,31,21,00,AAXX 31214 41859 02430 80502 10230 20210 30067 40105 8562/ 333 58020 70000 82710 84618 88458==
41859,2023,04,01,00,00,AAXX 01004 41859 02330 80502 10208 20200 30053 40091 8562/ 333 58001 70120 83709 85616 88457==
41859,2023,04,01,03,00,AAXX 01034 41859 02450 60502 10226 20190 30069 40107 83510 333 20205 59017 70120 83618 86458==
41859,2023,04,01,06,00,AAXX 01064 41859 02450 70502 10271 20180 30069 40106 84620 333 59017 70120 82710 83618 87458==
41859,2023,04,01,09,00,AAXX 01094 41859 02450 80501 10281 20190 30036 40073 8462/ 333 59021 70120 82710 84618 88458==
41859,2023,04,01,12,00,AAXX 01124 41859 02445 40000 10278 20200 30024 40061 82520 333 10295 59023 70120 82618 84458==
41859,2023,04,01,15,00,AAXX 01154 41859 02930 00000 10234 20210 30042 40080 333 59017 70120==
41859,2023,04,01,18,00,AAXX 01184 41859 01323 80512 10181 20170 30052 40090 79520 8692/ 333 59020 70250 84708 85616 88456 81930==
41859,2023,04,01,21,00,AAXX 01214 41859 01430 80502 10188 20180 30044 40082 70296 8562/ 333 59023 70406 83710 84618 88458==
41859,2023,04,02,00,00,AAXX 02004 41859 01430 80000 10187 20180 30030 40068 70296 8562/ 333 70332 83710 84618 88458==
41859,2023,04,02,03,00,AAXX 02034 41859 02450 70000 10221 20190 30060 40098 85620 333 20177 59009 70332 82710 83618 87458==
41859,2023,04,02,06,00,AAXX 02064 41859 02450 61802 10262 20210 30052 40089 84620 333 59017 70332 82710 83618 86458==
41859,2023,04,02,09,00,AAXX 02094 41859 02450 52703 10286 20170 30018 40055 83520 333 59018 70332 83618 85458==
41859,2023,04,02,12,00,AAXX 02124 41859 02950 02301 10271 20190 30004 40041 333 10290 59020 70332==
41859,2023,04,02,15,00,AAXX 02154 41859 02930 00000 10229 20200 30025 40063 333 59017 70332==
41859,2023,04,02,18,00,AAXX 02184 41859 02930 00000 10226 20190 30023 40061 333 59029 70082==
41859,2023,04,02,21,00,AAXX 02214 41859 32430 70502 10211 20200 30010 40048 84620 333 56290 59020 70000 82710 83618 86458=
41859,2023,04,03,00,00,AAXX 03004 41859 02430 70502 10211 20200 30010 40048 84620 333 59020 70000 82710 83618 86458==
41859,2023,04,03,03,00,AAXX 03034 41859 02450 70502 10257 20210 30044 40081 84620 333 20208 59016 70000 82710 83618 86458==
41859,2023,04,03,06,00,AAXX 03064 41859 32450 32302 10301 20180 30043 40080 83500 333 56900 59009 70000 83618=
41859,2023,04,03,09,00,AAXX 03094 41859 02556 12703 10306 20180 30017 40053 81100 333 59001 70000 81828==
41859,2023,04,03,12,00,AAXX 03124 41859 02950 02702 10300 20190 30015 40052 333 10314 58011 70000==
41859,2023,04,03,15,00,AAXX 03154 41859 02930 00000 10251 20200 30032 40069 333 58007 70000==
41859,2023,04,03,18,00,AAXX 03184 41859 02430 51302 10235 20220 30036 40073 83520 333 58013 70000 83618 85458==
41859,2023,04,03,21,00,AAXX 03214 41859 02430 71802 10213 20200 30030 40068 84620 333 58018 70000 82710 83618 86458==
41859,2023,04,04,00,00,AAXX 04004 41859 02430 80503 10198 20190 30035 40073 8562/ 333 58025 70000 82710 84618 88458==
41859,2023,04,04,03,00,AAXX 04034 41859 02450 70501 10223 20180 30058 40096 84620 333 20194 59002 70000 82710 83618 87458==
41859,2023,04,04,06,00,AAXX 04064 41859 02450 70502 10270 20210 30056 40093 84620 333 59013 70000 82710 83618 86458==
41859,2023,04,04,09,00,AAXX 04094 41859 02450 50502 10298 20220 30029 40066 82530 333 58012 70000 82618 84362==
41859,2023,04,04,12,00,AAXX 04124 41859 02950 00000 10302 20220 30017 40054 333 10310 58002 70000==
41859,2023,04,04,15,00,AAXX 04154 41859 02930 00902 10260 20230 30029 40066 333 59003 70000==
41859,2023,04,04,18,00,AAXX 04184 41859 02430 40502 10240 20220 30032 40070 82530 333 59004 70000 82618 84362==
41859,2023,04,04,21,00,AAXX 04214 41859 02430 40502 10230 20200 30027 40065 82530 333 59003 70000 82618 84362==
41859,2023,04,05,00,00,AAXX 05004 41859 02430 50502 10210 20190 30020 40058 82530 333 59015 70000 82618 85362==
41859,2023,04,05,03,00,AAXX 05034 41859 02450 80502 10234 20190 30047 40085 8562/ 333 20206 59011 70000 82710 83618 88458==
41859,2023,04,05,06,00,AAXX 05064 41859 02450 40502 10286 20220 30046 40083 82510 333 59010 70000 82618 84458==
41859,2023,04,05,09,00,AAXX 05094 41859 02956 02704 10326 20140 30014 40051 333 59015 70000==
41859,2023,04,05,12,00,AAXX 05124 41859 02950 02702 10308 20160 30013 40049 333 10327 59004 70000==
41859,2023,04,05,15,00,AAXX 05154 41859 02930 00000 10248 20200 30038 40075 333 58009 70000==
41859,2023,04,05,18,00,AAXX 05184 41859 02930 02301 10236 20180 30048 40086 333 58016 70000==
41859,2023,04,05,21,00,AAXX 05214 41859 02930 01301 10224 20190 30043 40081 333 58016 70000==
41859,2023,04,06,00,00,AAXX 06004 41859 02930 01301 10208 20200 30056 40094 333 58036 70000==
41859,2023,04,06,03,00,AAXX 06034 41859 02450 72302 10248 20210 30083 40121 84620 333 20205 58036 70000 82710 84618 87458==
41859,2023,04,06,06,00,AAXX 06064 41859 02450 51802 10308 20200 30078 40115 82510 333 58032 70000 82618 85458==
41859,2023,04,06,09,00,AAXX 06094 41859 02956 02302 10335 20090 30050 40086 333 58035 70000==
41859,2023,04,06,12,00,AAXX 06124 41859 02950 00000 10316 20150 30042 40079 333 10337 58029 70000==
41859,2023,04,06,15,00,AAXX 06154 41859 32930 00000 10240 20170 30067 40105 333 58029 70000=
41859,2023,04,06,18,00,AAXX 06184 41859 02430 41702 10233 20160 30072 40110 82520 333 58024 70000 82618 84458==
41859,2023,04,06,21,00,AAXX 06214 41859 02430 41701 10212 20180 30070 40108 82520 333 58027 70000 82618 84458==
41863,2023,03,31,00,00,AAXX 31004 41863 01950 01301 10220 20210 30043 40087 70500 333 59015 70000==
41863,2023,03,31,03,00,AAXX 31034 41863 01950 00902 10250 20220 30081 40124 70500 333 20216 58007 70000==
41863,2023,03,31,06,00,AAXX 31064 41863 02456 50902 10275 20210 30077 40120 83520 333 58012 70000 83618 85458==
41863,2023,03,31,09,00,AAXX 31094 41863 02456 80903 10277 20210 30052 40095 8452/ 333 58018 70000 84618 88458==
41863,2023,03,31,12,00,AAXX 31124 41863 02450 80902 10265 20220 30035 40078 8452/ 333 10277 58022 70000 84618 88458==
41863,2023,03,31,15,00,AAXX 31154 41863 02950 31701 10241 20220 30052 40095 80002 333 58010 70000 83074==
41863,2023,03,31,18,00,AAXX 31184 41863 02950 00000 10230 20210 30064 40107 333 58026 70000==
41863,2023,03,31,21,00,AAXX 31214 41863 02440 82703 10214 20200 30048 40092 8452/ 333 58016 70000 84618 88458==
41863,2023,04,01,00,00,AAXX 01004 41863 21450 83604 10201 20190 30037 40081 70262 8452/ 333 59006 60035 70034 84618 88458==
41863,2023,04,01,03,00,AAXX 01034 41863 02456 52703 10240 20190 30075 40118 83520 333 20195 59006 70034 83618 85458==
41863,2023,04,01,06,00,AAXX 01064 41863 02557 20903 10285 20190 30059 40101 82400 333 59018 70034 82620==
41863,2023,04,01,09,00,AAXX 01094 41863 02457 51301 10286 20200 30029 40071 83520 333 59023 70034 83618 85458==
41863,2023,04,01,12,00,AAXX 01124 41863 02557 21301 10258 20190 30017 40060 82400 333 10290 59017 70034 82620==
41863,2023,04,01,15,00,AAXX 01154 41863 02556 20000 10230 20200 30028 40071 82400 333 59024 70034 82620==
41863,2023,04,01,18,00,AAXX 01184 41863 01440 80903 10188 20180 30046 40090 72996 8592/ 333 59018 70380 83617 88458 81930==
41863,2023,04,02,00,00,AAXX 02004 41863 02456 80902 10183 20170 30035 40079 8552/ 333 59013 70412 85618 88458==
41863,2023,04,02,03,00,AAXX 02034 41863 02957 03601 10220 20190 30052 40096 333 20175 59023 70378==
41863,2023,04,02,06,00,AAXX 02064 41863 02557 31302 10272 20180 30044 40087 83400 333 59015 70378 83620==
41863,2023,04,02,09,00,AAXX 02094 41863 02457 52304 10292 20200 30016 40058 83520 333 59013 70378 83618 85458==
41863,2023,04,02,12,00,AAXX 02124 41863 02556 22302 10280 20180 39998 40040 82400 333 10295 59019 70378 82620==
41863,2023,04,02,15,00,AAXX 02154 41863 02450 20000 10230 20200 30017 40060 82400 333 59017 70378 82620==
41863,2023,04,02,18,00,AAXX 02184 41863 02550 32303 10216 20200 30018 40061 83400 333 59028 70000 83620==
41863,2023,04,02,21,00,AAXX 02214 41863 02950 01802 10214 20190 30000 40043 333 59035 70000==
41863,2023,04,03,00,00,AAXX 03004 41863 02450 51803 10210 20190 30006 40049 83520 333 59020 70000 83618 85458==
41863,2023,04,03,03,00,AAXX 03034 41863 02957 02304 10250 20170 30035 40078 333 20203 59017 70000==
41863,2023,04,03,06,00,AAXX 03064 41863 02957 03104 10303 20160 30037 40079 333 59007 70000==
41863,2023,04,03,09,00,AAXX 03094 41863 02957 02704 10325 20160 30011 40053 333 59005 70000==
41863,2023,04,03,12,00,AAXX 03124 41863 02956 02702 10305 20160 30006 40048 333 10325 59008 70000==
41863,2023,04,03,15,00,AAXX 03154 41863 01950 00000 10245 20200 30024 40063 70500 333 58007 70000==
41863,2023,04,03,18,00,AAXX 03184 41863 01/50 31802 10232 20190 30024 40067 70500 83030 333 58006 70000 83362==
41863,2023,04,03,21,00,AAXX 03214 41863 01950 01302 10220 20200 30023 40066 70500 333 58023 70000==
41863,2023,04,04,00,00,AAXX 04004 41863 01950 00904 10215 20210 30027 40070 70500 333 58021 70000==
41863,2023,04,04,03,00,AAXX 04034 41863 01450 81303 10223 20190 30043 40087 70520 8552/ 333 20208 58008 70000 85618 88458==
41863,2023,04,04,06,00,AAXX 04064 41863 02956 01302 10270 20200 30050 40093 333 58013 70000==
41863,2023,04,04,09,00,AAXX 04094 41863 02957 00901 10310 20210 30018 40060 333 58007 70000==
41863,2023,04,04,12,00,AAXX 04124 41863 02956 00901 10294 20220 30004 40046 333 10310 59002 70000==
41863,2023,04,04,15,00,AAXX 04154 41863 01950 00000 10250 20230 30021 40064 70500 333 59003 70000==
41863,2023,04,04,18,00,AAXX 04184 41863 01950 00901 10240 20220 30022 40065 70500 333 59002 70000==
41863,2023,04,04,21,00,AAXX 04214 41863 01950 01301 10225 20220 30020 40063 70500 333 59003 70000==
41863,2023,04,05,00,00,AAXX 05004 41863 01950 00901 10207 20200 30017 40060 70500 333 59010 70000==
41863,2023,04,05,03,00,AAXX 05034 41863 02956 00902 10258 20210 30040 40083 333 20202 59003 70000==
41863,2023,04,05,06,00,AAXX 05064 41863 02957 02701 10300 20200 30040 40082 333 59010 70000==
41863,2023,04,05,09,00,AAXX 05094 41863 02957 02705 10325 20130 30011 40053 333 59007 70000==
41863,2023,04,05,12,00,AAXX 05124 41863 02956 02701 10301 20160 30007 40049 333 10326 58003 70000==
41863,2023,04,05,15,00,AAXX 05154 41863 02956 01301 10248 20200 30024 40067 333 58003 70000==
41863,2023,04,05,18,00,AAXX 05184 41863 02956 00000 10222 20170 30041 40084 333 58019 70000==
41863,2023,04,05,21,00,AAXX 05214 41863 01950 01301 10208 20180 30045 40089 70500 333 58025 70000==
41863,2023,04,06,00,00,AAXX 06004 41863 01950 01301 10194 20170 30048 40092 70500 333 58031 70000==
41863,2023,04,06,06,00,AAXX 06064 41863 02957 02303 10319 20130 30070 40112 333 58030 70000==
41863,2023,04,06,09,00,AAXX 06094 41863 02957 00000 10346 20100 30041 40083 333 58030 70000==
41863,2023,04,06,12,00,AAXX 06124 41863 02957 00901 10290 20180 30037 40079 333 10346 58030 70000==
41863,2023,04,06,15,00,AAXX 06154 41863 02950 00000 10230 20180 30058 40101 333 58034 70000==
41863,2023,04,06,18,00,AAXX 06184 41863 02950 00000 10215 20180 30063 40107 333 58022 70000==
41863,2023,04,06,21,00,AAXX 06214 41863 02950 00901 10210 20170 30057 40101 333 58012 70000==
41881,2023,03,31,00,00,AAXX 31004 41881 32451 40000 10206 20200 30066 40086 84500 333 56900 59007 70162 84616=
41881,2023,03,31,06,00,AAXX 31064 41881 32456 50000 10265 20220 30103 40123 83520 333 56990 58017 70162 83620 85460=
41881,2023,03,31,12,00,AAXX 31124 41881 32456 80000 10240 20217 30054 40074 8552/ 333 10272 56999 58020 70162 85618 88459=
41881,2023,03,31,18,00,AAXX 31184 41881 32450 33601 10213 20200 30074 40094 83500 333 56900 58037 70000 83620=
41881,2023,04,01,00,00,AAXX 01004 41881 11356 80501 10205 20200 30047 40067 60105 70296 8562/ 333 56299 59018 70102 83610 85458 81930=
41881,2023,04,01,06,00,AAXX 01064 41881 32456 43601 10266 20200 30083 40103 84500 333 56900 59020 70102 84616=
41881,2023,04,01,12,00,AAXX 01124 41881 32456 23601 10260 20210 30044 40064 82500 333 10285 56900 59010 70102 82620=
41881,2023,04,01,18,00,AAXX 01184 41881 32450 51802 10220 20200 30058 40078 83520 333 56990 59016 70102 83620 85460=
41881,2023,04,02,00,00,AAXX 02004 41881 32450 33601 10190 20180 30052 40073 83500 333 56900 58005 70000 83620=
41881,2023,04,02,06,00,AAXX 02064 41881 32457 22602 10275 20200 30067 40087 82500 333 56900 59016 70000 82620=
41881,2023,04,02,12,00,AAXX 02124 41881 32956 00000 10274 20200 30024 40044 333 10297 59020 70000=
41881,2023,04,02,18,00,AAXX 02184 41881 32950 01701 10221 20200 30041 40062 333 59017 70000=
41881,2023,04,03,00,00,AAXX 03004 41881 31940 00000 10201 20200 30035 40056 70500 333 59017 70000=
41881,2023,04,03,06,00,AAXX 03064 41881 32958 02803 10305 20160 30061 40081 333 59006 70000=
41881,2023,04,03,12,00,AAXX 03124 41881 32958 01601 10280 20200 30033 40052 333 10330 58009 70000=
41881,2023,04,03,18,00,AAXX 03184 41881 NIL=
41881,2023,04,04,00,00,AAXX 04004 41881 32956 02702 10204 20190 30039 40059 333 58004 70000=
41881,2023,04,04,06,00,AAXX 04064 41881 32957 00000 10305 20190 30066 40086 333 58005 70000=
41881,2023,04,04,12,00,AAXX 04124 41881 32956 00000 10305 20230 30025 40045 83500 333 10340 56900 59008 70000 83620=
41881,2023,04,04,18,00,AAXX 04184 41881 32950 00000 10232 20210 30041 40061 333 59008 70000=
41881,2023,04,05,00,00,AAXX 05004 41881 31940 00000 10221 20220 30035 40055 70500 333 59004 70000=
41881,2023,04,05,06,00,AAXX 05064 41881 32957 02301 10315 20230 30060 40080 333 59006 70000=
41881,2023,04,05,12,00,AAXX 05124 41881 32950 00000 10295 20220 30032 40052 333 10330 58007 70000=
41881,2023,04,05,18,00,AAXX 05184 41881 32950 00000 10237 20210 30051 40071 333 58010 70000=
41881,2023,04,06,00,00,AAXX 06004 41881 31940 03502 10190 20190 30072 40092 70500 333 58037 70000=
41881,2023,04,06,06,00,AAXX 06064 41881 32957 01801 10325 20150 30096 40116 333 58036 70000=
41881,2023,04,06,12,00,AAXX 06124 41881 32956 03601 10300 20200 30060 40080 333 10340 58028 70000=
41881,2023,04,06,18,00,AAXX 06184 41881 32950 01801 10210 20190 30088 40109 333 58037 70000=
41883,2023,03,31,00,00,AAXX 31004 41883 02330 80000 10208 20200 30067 40088 8562/ 333 59008 70280 85709 88458==
41883,2023,03,31,03,00,AAXX 31034 41883 02350 80602 10224 20200 30097 40118 8562/ 333 20204 58001 70280 85709 88458==
41883,2023,03,31,06,00,AAXX 31064 41883 02356 80000 10254 20200 30109 40129 8562/ 333 58022 70280 82709 84616 88458==
41883,2023,03,31,09,00,AAXX 31094 41883 02450 80502 10254 20200 30077 40097 8562/ 333 58021 70280 83710 84618 88458==
41883,2023,03,31,12,00,AAXX 31124 41883 01450 80000 10246 20220 30061 40081 70262 8462/ 333 10264 58026 70003 82710 83618 88458==
41883,2023,03,31,15,00,AAXX 31154 41883 02430 40902 10234 20210 30072 40093 82510 333 58018 70283 82616 84459==
41883,2023,03,31,18,00,AAXX 31184 41883 02430 60902 10220 20210 30086 40107 83510 333 58025 70019 83616 86459==
41883,2023,03,31,21,00,AAXX 31214 41883 02430 81802 10220 20210 30081 40102 8552/ 333 58016 70003 85616 88459==
41883,2023,04,01,00,00,AAXX 01004 41883 01330 82302 10220 20210 30059 40080 76162 8572/ 333 59009 70010 85709 88458==
41883,2023,04,01,03,00,AAXX 01034 41883 02456 63103 10250 20220 30093 40113 82620 333 20215 59004 70013 82616 86459==
41883,2023,04,01,06,00,AAXX 01064 41883 02456 60000 10275 20200 30081 40101 82620 333 59028 70013 82616 86362==
41883,2023,04,01,09,00,AAXX 01094 41883 02456 60000 10280 20180 30056 40076 82530 333 59021 70013 82616 85362==
41883,2023,04,01,12,00,AAXX 01124 41883 02/60 31802 10266 20200 30046 40066 83030 333 10290 59015 70013 83362==
41883,2023,04,01,15,00,AAXX 01154 41883 02930 00000 10244 20210 30062 40082 333 59010 70010==
41883,2023,04,01,18,00,AAXX 01184 41883 02430 40000 10234 20120 30058 40079 82520 333 59028 70010 82618 84458==
41883,2023,04,01,21,00,AAXX 01214 41883 02/30 20902 10206 20170 30047 40068 82030 333 59034 70010 82362==
41883,2023,04,02,00,00,AAXX 02004 41883 02430 60000 10196 20180 30051 40072 82520 333 59008 70000 82618 86458==
41883,2023,04,02,03,00,AAXX 02034 41883 02456 61302 10238 20200 30075 40095 83510 333 20195 59018 70000 83615 86458==
41883,2023,04,02,06,00,AAXX 02064 41883 02/56 32702 10281 20190 30066 40086 83010 333 59015 70000 83458==
41883,2023,04,02,09,00,AAXX 02094 41883 02/56 22704 10300 20160 30034 40054 82030 333 59022 70000 82362==
41883,2023,04,02,12,00,AAXX 02124 41883 02956 02302 10285 20190 30027 40047 333 10305 59019 70000==
41883,2023,04,02,15,00,AAXX 02154 41883 02930 01802 10254 20190 30042 40062 333 59020 70000==
41883,2023,04,02,18,00,AAXX 02184 41883 02430 40000 10242 20190 30044 40064 82530 333 59014 70000 82616 83362==
41883,2023,04,02,21,00,AAXX 02214 41883 02430 40000 10230 20200 30033 40054 82530 333 59014 70000 82616 83362==
41883,2023,04,03,00,00,AAXX 03004 41883 02430 80000 10218 20200 30033 40054 8552/ 333 59018 70000 85616 88458==
41883,2023,04,03,03,00,AAXX 03034 41883 02956 02702 10260 20190 30059 40079 333 20212 59016 70000==
41883,2023,04,03,06,00,AAXX 03064 41883 02956 02702 10314 20140 30066 40086 333 58000 70000==
41883,2023,04,03,09,00,AAXX 03094 41883 02956 01802 10324 20130 30040 40060 333 58006 70000==
41883,2023,04,03,12,00,AAXX 03124 41883 02950 01802 10304 20160 30036 40056 333 10329 58009 70000==
41883,2023,04,03,15,00,AAXX 03154 41883 02930 01302 10270 20180 30054 40074 333 58012 70000==
41883,2023,04,03,18,00,AAXX 03184 41883 02/30 10902 10245 20210 30055 40075 81030 333 58011 70000 81362==
41883,2023,04,03,21,00,AAXX 03214 41883 02930 03602 10232 20220 30039 40060 333 58006 70000==
41883,2023,04,04,00,00,AAXX 04004 41883 02940 01802 10225 20220 30048 40069 333 58015 70000==
41883,2023,04,04,03,00,AAXX 04034 41883 02950 00000 10274 20200 30068 40088 333 20216 58009 70000==
41883,2023,04,04,06,00,AAXX 04064 41883 02450 62302 10312 20180 30066 40086 82520 333 58000 70000 82618 86458==
41883,2023,04,04,09,00,AAXX 04094 41883 02956 02702 10336 20160 30044 40064 333 58004 70000==
41883,2023,04,04,12,00,AAXX 04124 41883 02456 62302 10328 20170 30028 40048 83510 333 10340 59008 70000 83616 86459==
41883,2023,04,04,15,00,AAXX 04154 41883 02930 00000 10280 20200 30043 40063 333 59011 70000==
41883,2023,04,04,18,00,AAXX 04184 41883 02930 00000 10264 20210 30044 40064 333 59011 70000==
41883,2023,04,04,21,00,AAXX 04214 41883 02930 00000 10250 20220 30039 40059 333 58000 70000==
41883,2023,04,05,00,00,AAXX 05004 41883 02930 01802 10250 20230 30037 40057 333 58011 70000==
41883,2023,04,05,03,00,AAXX 05034 41883 02956 01803 10280 20230 30060 40080 333 20247 59008 70000==
41883,2023,04,05,06,00,AAXX 05064 41883 02956 02702 10325 20200 30059 40079 333 59007 70000==
41883,2023,04,05,09,00,AAXX 05094 41883 02956 02304 10338 20160 30038 40058 333 59006 70000==
41883,2023,04,05,12,00,AAXX 05124 41883 02950 00000 10316 20170 30033 40053 333 10340 58005 70000==
41883,2023,04,05,15,00,AAXX 05154 41883 02930 02702 10270 20180 30061 40081 333 58018 70000==
41883,2023,04,05,18,00,AAXX 05184 41883 02930 00000 10254 20190 30068 40088 333 58024 70000==
41883,2023,04,05,21,00,AAXX 05214 41883 02430 60902 10240 20200 30066 40086 83510 333 58027 70000 83616 86459==
41883,2023,04,06,00,00,AAXX 06004 41883 02430 80902 10228 20210 30067 40088 8552/ 333 58030 70000 85616 88459==
41883,2023,04,06,03,00,AAXX 06034 41883 02456 60902 10256 20230 30101 40121 82520 333 20220 58041 70000 82616 86459==
41883,2023,04,06,06,00,AAXX 06064 41883 02956 02304 10325 20130 30096 40116 333 58037 70000==
41883,2023,04,06,09,00,AAXX 06094 41883 02956 02704 10340 20070 30071 40091 333 58033 70000==
41883,2023,04,06,12,00,AAXX 06124 41883 02960 00000 10320 20120 30061 40081 333 10347 58028 70000==
41883,2023,04,06,15,00,AAXX 06154 41883 02930 00000 10264 20160 30084 40104 333 58023 70000==
41883,2023,04,06,18,00,AAXX 06184 41883 02930 00000 10248 20150 30085 40105 333 58017 70000==
41883,2023,04,06,21,00,AAXX 06214 41883 02930 00000 10234 20150 30077 40098 333 58011 70000==
41886,2023,03,31,00,00,AAXX 31004 41886 01456 80000 10200 20190 30077 40098 70292 8252/ 333 59007 70058 82618 88460==
41886,2023,03,31,03,00,AAXX 31034 41886 02/57 60000 10232 20190 30109 40130 86040 333 20200 58005 70058 86363==
41886,2023,03,31,06,00,AAXX 31064 41886 02457 70000 10265 20180 30109 40130 82510 333 58015 70058 82618 87460==
41886,2023,03,31,09,00,AAXX 31094 41886 02456 80000 10268 20190 30086 40107 8532/ 333 58020 70058 83616 88460 81930==
41886,2023,03,31,12,00,AAXX 31124 41886 01450 80000 10250 20220 30068 40089 76162 8532/ 333 10274 58020 70002 83616 88458 81930==
41886,2023,03,31,15,00,AAXX 31154 41886 02450 60000 10236 20220 30082 40103 83370 333 58015 70060 82618 85460 81930==
41886,2023,03,31,18,00,AAXX 31184 41886 02450 80000 10228 20220 30084 40105 8431/ 333 58010 70060 83618 88460 81930==
41886,2023,03,31,21,00,AAXX 31214 41886 02440 80000 10220 20220 30069 40090 8442/ 333 58006 70002 83618 88460==
41886,2023,04,01,00,00,AAXX 01004 41886 01456 80000 10220 20220 30082 40103 79562 8592/ 333 58005 70020 83616 88458 81930==
41886,2023,04,01,03,00,AAXX 01034 41886 01/57 30000 10240 20210 30093 40114 70196 83030 333 20219 59016 70042 83365==
41886,2023,04,01,06,00,AAXX 01064 41886 11456 70000 10268 20200 30089 40110 60026 70392 84470 333 59020 70042 83618 85460==
41886,2023,04,01,09,00,AAXX 01094 41886 02456 70000 10266 20220 30061 40081 84470 333 59025 70042 83618 86460==
41886,2023,04,01,12,00,AAXX 01124 41886 02456 70000 10253 20210 30051 40071 84470 333 10270 59017 70040 83618 86460==
41886,2023,04,01,15,00,AAXX 01154 41886 02450 70000 10240 20220 30068 40088 84470 333 59014 70040 83618 86460==
41886,2023,04,01,18,00,AAXX 01184 41886 02450 70000 10230 20210 30069 40089 84470 333 59015 70040 83616 86460==
41886,2023,04,02,00,00,AAXX 02004 41886 02440 80000 10210 20200 30065 40085 8352/ 333 59006 70040 83616 88460==
41886,2023,04,02,03,00,AAXX 02034 41886 02450 80000 10243 20190 30083 40103 8352/ 333 20190 59010 70018 83618 88460==
41886,2023,04,02,06,00,AAXX 02064 41886 02456 60000 10283 20200 30070 40090 84470 333 59019 70018 83618 85460==
41886,2023,04,02,09,00,AAXX 02094 41886 02456 62704 10297 20200 30034 40054 84470 333 59025 70018 83618 85460==
41886,2023,04,02,12,00,AAXX 02124 41886 02956 00000 10270 20200 30034 40054 333 10300 59017 70018==
41886,2023,04,02,15,00,AAXX 02154 41886 02950 00000 10240 20210 30050 40070 333 59018 70018==
41886,2023,04,02,21,00,AAXX 02214 41886 01940 00000 10215 20200 30052 40072 70500 333 59013 70018==
41886,2023,04,03,00,00,AAXX 03004 41886 01940 00000 10205 20200 30042 40062 70500 333 59019 70000==
41886,2023,04,03,03,00,AAXX 03034 41886 01950 00000 10250 20220 30073 40093 70500 333 20201 59010 70000==
41886,2023,04,03,06,00,AAXX 03064 41886 01956 00000 10292 20200 30072 40092 70500 333 58002 70000==
41886,2023,04,03,09,00,AAXX 03094 41886 02457 10000 10310 20220 30042 40062 81500 333 58008 70000 81618==
41886,2023,04,03,12,00,AAXX 03124 41886 02956 00000 10280 20230 30046 40066 333 10310 58012 70000==
41886,2023,04,03,15,00,AAXX 03154 41886 01950 00000 10245 20230 30066 40087 70500 333 58016 70000==
41886,2023,04,03,18,00,AAXX 03184 41886 01950 00000 10234 20220 30064 40085 70500 333 58008 70000==
41886,2023,04,03,21,00,AAXX 03214 41886 01950 00000 10224 20210 30061 40082 70500 333 58009 70000==
41886,2023,04,04,00,00,AAXX 04004 41886 01/50 10000 10211 20200 30060 40081 70500 81040 333 58018 70000 81365==
41886,2023,04,04,03,00,AAXX 04034 41886 01950 00000 10242 20220 30077 40098 70500 333 20210 58004 70000==
41886,2023,04,04,06,00,AAXX 04064 41886 02456 70000 10306 20230 30072 40092 82570 333 58000 70000 82618 86460==
41886,2023,04,04,09,00,AAXX 04094 41886 02457 60000 10330 20200 30048 40068 83470 333 58006 70000 82618 85460==
41886,2023,04,04,12,00,AAXX 04124 41886 02956 00000 10303 20230 30036 40056 333 10333 59010 70000==
41886,2023,04,04,15,00,AAXX 04154 41886 01950 00000 10265 20250 30053 40073 70500 333 59013 70000==
41886,2023,04,04,18,00,AAXX 04184 41886 01950 00000 10240 20220 30052 40073 70500 333 59012 70000==
41886,2023,04,04,21,00,AAXX 04213 41886 01950 00000 10235 20230 30037 40058 70500 333 59024 70000==
41886,2023,04,05,00,00,AAXX 05004 41886 01950 00000 10233 20220 30044 40065 70500 333 59016 70000==
41886,2023,04,05,03,00,AAXX 05034 41886 01450 80000 10265 20250 30068 40088 70520 8352/ 333 20230 59009 70000 83618 88460==
41886,2023,04,05,06,00,AAXX 05064 41886 02457 30000 10315 20240 30066 40086 83400 333 59006 70000 83618==
41886,2023,04,05,09,00,AAXX 05093 41886 02458 30000 10333 20210 30039 40059 83400 333 59009 70000 83618==
41886,2023,04,05,12,00,AAXX 05124 41886 02457 30000 10295 20200 30041 40061 83400 333 10338 58005 70000 83618==
41886,2023,04,05,15,00,AAXX 05154 41886 02/50 30000 10256 20190 30073 40094 83030 333 58020 70000 83365==
41886,2023,04,05,18,00,AAXX 05184 41886 02/50 30000 10228 20210 30081 40102 83030 333 58029 70000 83365==
41886,2023,04,05,21,00,AAXX 05214 41886 02/50 30000 10220 20200 30069 40090 83030 333 58032 70000 83365==
41886,2023,04,06,00,00,AAXX 06004 41886 02456 80000 10232 20210 30089 40110 8542/ 333 58045 70000 84616 88460==
41886,2023,04,06,03,00,AAXX 06034 41886 02456 80000 10260 20230 30109 40130 8542/ 333 20220 58041 70000 83617 88460==
41886,2023,04,06,06,00,AAXX 06064 41886 02456 60000 10302 20230 30104 40124 85470 333 58038 70000 83618 85460==
41886,2023,04,06,09,00,AAXX 06094 41886 02458 20000 10330 20190 30075 40095 82400 333 58036 70000 81618==
41886,2023,04,06,12,00,AAXX 06124 41886 02957 00000 10305 20210 30069 40089 333 10336 58028 70000==
41886,2023,04,06,15,00,AAXX 06154 41886 02950 00000 10235 20220 30090 40111 333 58017 70000==
41886,2023,04,06,18,00,AAXX 06184 41886 02450 20000 10240 20220 30093 40114 82500 333 58012 70000 82618==
41886,2023,04,06,21,00,AAXX 06214 41886 02950 00000 10230 20210 30092 40113 333 58023 70000==
41888,2023,03,31,00,00,AAXX 31004 41888 11930 40903 10195 20180 30089 40099 69906 70196 82510 333 56909 59005 79999 82618 84080=
41888,2023,03,31,06,00,AAXX 31064 41888 32450 70904 10260 20180 30116 40126 82530 333 56990 58014 79999 82618 87365=
41888,2023,03,31,12,00,AAXX 31124 41888 11450 80000 10256 20220 30077 40087 69904 76122 8392/ 333 10285 56999 58021 79999 83618 81930 88460=
41888,2023,03,31,18,00,AAXX 31184 41888 32450 60000 10221 20210 30091 40101 82530 333 56990 58016 79999 82618 86362=
41888,2023,04,01,00,00,AAXX 01004 41888 31440 81202 10215 20215 30068 40078 70522 8332/ 333 56999 59021 79999 83618 81930 88460=
41888,2023,04,01,06,00,AAXX 01064 41888 11456 71803 10260 20210 30092 40102 60046 70262 83370 333 56990 59024 70035 83618 81930 86360=
41888,2023,04,01,12,00,AAXX 01124 41888 32456 71401 10250 20210 30060 40070 83570 333 10265 56990 59017 70035 83618 86460=
41888,2023,04,01,18,00,AAXX 01184 41888 32450 40902 10225 20220 30073 40083 82510 333 56990 59018 70035 82618 84460=
41888,2023,04,02,00,00,AAXX 02004 41888 11450 61403 10186 20180 30062 40072 60018 70262 83510 333 56990 59006 70048 83618 86460=
41888,2023,04,02,06,00,AAXX 02064 41888 32456 60604 10255 20210 30077 40087 82310 333 56990 59015 70013 82616 81930 86460=
41888,2023,04,02,12,00,AAXX 02124 41888 11956 20901 10250 20200 30039 40049 60075 70196 82030 333 10283 56090 59021 70081 82364=
41888,2023,04,02,18,00,AAXX 02184 41888 32950 00901 10205 20200 30062 40072 333 59011 70081=
41888,2023,04,03,00,00,AAXX 03004 41888 32950 00901 10194 20180 30045 40055 333 59017 70068=
41888,2023,04,03,06,00,AAXX 03064 41888 32457 60905 10264 20210 30082 40092 84410 333 56990 58005 70068 83618 86460=
41888,2023,04,03,12,00,AAXX 03124 41888 32957 00901 10260 20210 30051 40061 333 10286 58012 70000=
41888,2023,04,03,18,00,AAXX 03184 41888 32950 00903 10220 20200 30075 40085 333 58013 70000=
41888,2023,04,04,00,00,AAXX 04004 41888 32950 20906 10204 20190 30059 40069 82500 333 56900 58014 70000 82618=
41888,2023,04,04,06,00,AAXX 04064 41888 32456 70902 10293 20220 30082 40092 84310 333 56990 58000 70000 83618 81930 87460=
41888,2023,04,04,12,00,AAXX 04124 41888 NIL=
41888,2023,04,04,18,00,AAXX 04184 41888 32950 00902 10232 20210 30063 40073 333 59012 70000=
41888,2023,04,05,00,00,AAXX 05004 41888 31440 70903 10230 20220 30048 40058 70521 82510 333 56990 59011 70000 82618 87460=
41888,2023,04,05,06,00,AAXX 05064 41888 32456 60901 10288 20250 30071 40081 83510 333 56990 59011 70000 83618 86460=
41888,2023,04,05,12,00,AAXX 05124 41888 32457 13301 10296 20200 30045 40055 81200 333 10332 56900 58001 70000 81824=
41888,2023,04,05,18,00,AAXX 05184 41888 32450 50902 10221 20210 30088 40098 82530 333 56990 58025 70000 82618 85365=
41888,2023,04,06,00,00,AAXX 06004 41888 31340 80907 10222 20210 30090 40100 70522 8462/ 333 56999 58042 70000 82708 84616 88458=
41888,2023,04,06,06,00,AAXX 06064 41888 32457 61203 10294 20230 30111 40121 84410 333 56990 58040 70000 83618 86460=
41888,2023,04,06,12,00,AAXX 06124 41888 32957 00901 10292 20230 30075 40085 333 10324 58030 70000=
41888,2023,04,06,18,00,AAXX 06184 41888 31940 20901 10234 20220 30100 40110 70510 82030 333 56090 58012 70000 82365=
41891,2023,03,31,00,00,AAXX 31004 41891 11430 60000 10218 20170 30067 40106 60016 70596 83340 333 58001 70010 83615 85365 81930==
41891,2023,03,31,03,00,AAXX 31034 41891 01445 61304 10240 20160 30092 40131 70522 83340 333 20215 58006 70010 83615 85365 81930==
41891,2023,03,31,06,00,AAXX 31064 41891 01450 61405 10270 20160 30086 40125 70522 83370 333 58011 70010 83615 85460 81930==
41891,2023,03,31,09,00,AAXX 31094 41891 01950 02703 10304 20150 30056 40094 70511 333 58015 70010==
41891,2023,03,31,12,00,AAXX 31124 41891 01440 80000 10270 20170 30050 40088 70521 8532/ 333 10310 58020 70010 81710 84615 88459 81930==
41891,2023,03,31,15,00,AAXX 31154 41891 01325 80302 10245 20220 30060 40099 76122 8632/ 333 58013 70012 86708 88458 81925==
41891,2023,03,31,18,00,AAXX 31184 41891 11430 80502 10235 20200 30058 40097 69926 70562 8532/ 333 58009 70012 81710 84615 88458 81930==
41891,2023,03,31,21,00,AAXX 31214 41891 01430 80602 10228 20200 30050 40089 70522 8532/ 333 59008 70002 81710 84615 88458 81930==
41891,2023,04,01,00,00,AAXX 01004 41891 01430 80902 10227 20190 30043 40082 70522 8532/ 333 59024 70002 81710 84615 88459 81930==
41891,2023,04,01,03,00,AAXX 01034 41891 01320 81804 10220 20200 30079 40118 79596 8632/ 333 20220 59013 70072 86708 88458 81925==
41891,2023,04,01,06,00,AAXX 01064 41891 21440 71302 10250 20200 30071 40110 72996 84370 333 59015 60077 70076 84615 86460 81930==
41891,2023,04,01,09,00,AAXX 01094 41891 41430 60904 10254 20180 30037 40076 70522 85370 333 59019 84615 81710 86460==
41891,2023,04,01,12,00,AAXX 01124 41891 01430 60906 10240 20210 30035 40074 70522 85370 333 10262 59030 70072 81710 84616 86460 81930==
41891,2023,04,01,15,00,AAXX 01154 41891 41430 41002 10232 20210 30051 40090 59009 70070 84365==
41891,2023,04,01,18,00,AAXX 01184 41891 41430 41002 10220 20210 30047 40087 59011 70070 88458==
41891,2023,04,01,21,00,AAXX 01214 41891 01430 81002 10200 20180 30037 40077 70522 8532/ 333 59013 70070 81710 83616 88458 81930==
41891,2023,04,02,00,00,AAXX 02004 41891 01430 82502 10188 20180 30042 40082 76096 8632/ 333 59001 70340 83710 82616 88458 81930==
41891,2023,04,02,03,00,AAXX 02034 41891 01440 80502 10220 20180 30069 40108 70562 8532/ 333 20188 59010 70340 82710 84615 88459 81930==
41891,2023,04,02,06,00,AAXX 02064 41891 11440 70503 10254 20180 30054 40093 60001 70562 84370 333 59017 70336 84615 86460 81930==
41891,2023,04,02,09,00,AAXX 02094 41891 01450 70503 10280 20190 30015 40053 70522 84370 333 59015 70336 84615 86460 81930==
41891,2023,04,02,12,00,AAXX 02124 41891 01440 40503 10250 20200 30014 40052 70522 84370 333 10292 59021 70336 83615 86460 81930==
41891,2023,04,02,15,00,AAXX 02154 41891 01430 71502 10210 20170 30036 40075 70511 84370 333 59015 70336 84615 86460 81930==
41891,2023,04,02,18,00,AAXX 02184 41891 01430 81502 10205 20180 30036 40075 70521 8532/ 333 59011 70336 81710 84615 88459 81930==
41891,2023,04,02,21,00,AAXX 02214 41891 11430 81004 10197 20190 30032 40071 60123 70596 8532/ 333 56999 59010 70120 82710 84615 81930 88459=
41891,2023,04,03,00,00,AAXX 03004 41891 01430 81004 10197 20190 30032 40071 70596 8532/ 333 59010 70120 82710 84615 88459 81930==
41891,2023,04,03,03,00,AAXX 03034 41891 01435 80906 10210 20180 30064 40103 70522 8532/ 333 20197 59005 70120 81710 84615 88459 81930==
41891,2023,04,03,06,00,AAXX 03064 41891 11440 70908 10238 20170 30063 40102 69912 70562 84370 333 58009 70121 84615 86460 81930==
41891,2023,04,03,09,00,AAXX 03094 41891 01450 40906 10270 20190 30034 40072 70533 84370 333 58019 70121 84615 86460 81930==
41891,2023,04,03,12,00,AAXX 03124 41891 01450 40904 10254 20190 30028 40066 70522 84370 333 10272 58014 70121 83615 86460 81930==
41891,2023,04,03,15,00,AAXX 03154 41891 01430 41002 10230 20200 30051 40090 70522 83310 333 58015 70121 82616 86460 81930==
41891,2023,04,03,18,00,AAXX 03184 41891 01430 41002 10220 20210 30046 40085 70521 82530 333 58010 70121 81616 83365==
41891,2023,04,03,21,00,AAXX 03214 41891 01430 81002 10220 20180 30048 40088 70522 8532/ 333 58021 70067 81710 83616 88460 81930==
41891,2023,04,04,00,00,AAXX 04004 41891 01430 81103 10220 20180 30046 40086 70522 8532/ 333 58014 70001 82710 82616 88460 81930==
41891,2023,04,04,03,00,AAXX 04034 41891 01430 82304 10230 20210 30068 40107 72162 8532/ 333 20210 58004 70011 82710 84615 88459 81930==
41891,2023,04,04,06,00,AAXX 04064 41891 11440 70902 10278 20210 30062 40100 60011 70562 84370 333 59001 70010 84615 86460 81930==
41891,2023,04,04,09,00,AAXX 04094 41891 01450 70902 10280 20210 30034 40072 70522 84370 333 58000 70010 84615 86460 81930==
41891,2023,04,04,12,00,AAXX 04124 41891 01440 30902 10270 20200 30026 40064 70522 82370 333 10290 59002 70010 82615 86360 81930==
41891,2023,04,04,15,00,AAXX 04154 41891 01430 80902 10247 20220 30042 40081 70511 8532/ 333 59009 70010 81710 84615 88459 81930==
41891,2023,04,04,18,00,AAXX 04184 41891 01320 83206 10220 20200 30036 40075 79522 8632/ 333 59010 70130 86708 88458 81925==
41891,2023,04,04,21,00,AAXX 04214 41891 01320 80903 10214 20200 30030 40069 79599 8632/ 333 59018 70698 86708 88458 81925==
41891,2023,04,05,00,00,AAXX 05004 41891 21420 81503 10212 20200 30036 40075 70596 8532/ 333 59010 60648 70780 82710 84615 88459 81930==
41891,2023,04,05,03,00,AAXX 05034 41891 01430 80908 10220 20200 30057 40096 70522 8532/ 333 20205 59011 70770 82710 84615 88459 81930==
41891,2023,04,05,06,00,AAXX 05064 41891 21435 70907 10218 20200 30051 40090 71796 84370 333 59011 60057 70816 84615 86460 81930==
41891,2023,04,05,09,00,AAXX 05094 41891 01450 30907 10260 20210 30028 40067 70522 82370 333 59006 70816 82615 83460 81930==
41891,2023,04,05,12,00,AAXX 05124 41891 41440 30902 10244 20200 30030 40067 70522 82370 333 10265 58004 82615 83460 81930==
41891,2023,04,05,15,00,AAXX 05154 41891 01430 50604 10222 20190 30062 40101 70596 83310 333 58020 70831 82710 85459 81930==
41891,2023,04,05,18,00,AAXX 05184 41891 11430 40604 10220 20200 30063 40102 60026 70596 83310 333 58027 70705 81710 84459 81930==
41891,2023,04,05,21,00,AAXX 05214 41891 01430 80804 10218 20210 30067 40106 70522 8532/ 333 58037 70143 83708 81616 88458 81928==
41891,2023,04,06,00,00,AAXX 06004 41891 01430 80804 10217 20210 30071 40110 70522 8632/ 333 58035 70061 84708 81616 88458 81928==
41891,2023,04,06,03,00,AAXX 06034 41891 01440 70904 10253 20210 30094 40133 70522 84370 333 20213 58037 70061 84615 86460 81930==
41891,2023,04,06,06,00,AAXX 06064 41891 01445 61303 10293 20220 30088 40126 70522 83370 333 58037 70015 83615 85460 81930==
41891,2023,04,06,09,00,AAXX 06094 41891 01450 61303 10315 20220 30057 40095 70522 83370 333 58029 70015 83615 85460 81930==
41891,2023,04,06,12,00,AAXX 06124 41891 01445 31303 10310 20210 30050 40088 70522 83370 333 10322 58020 70015 82615 83460 81930==
41891,2023,04,06,15,00,AAXX 06154 41891 31940 00602 10245 20230 30075 40114 70500 333 58013 70000=
41891,2023,04,06,18,00,AAXX 06184 41891 01430 60904 10235 20210 30073 40112 70510 83370 333 58010 70000 83615 85460 81930==
41891,2023,04,06,21,00,AAXX 06214 41891 01430 60903 10218 20200 30070 40109 70522 83340 333 58003 70000 83615 85365 81930==
41895,2023,03,31,00,00,AAXX 31004 41895 02450 80901 10220 20200 30066 40088 8452/ 333 58006 70000 84615 88458==
41895,2023,03,31,03,00,AAXX 31034 41895 02456 80901 10244 20210 30091 40114 8452/ 333 20210 58010 70000 84615 88458==
41895,2023,03,31,06,00,AAXX 31064 41895 01450 80902 10230 20230 30097 40120 76162 8452/ 333 58026 70020 84615 88458==
41895,2023,03,31,09,00,AAXX 31094 41895 01450 83102 10230 20220 30071 40093 70262 8452/ 333 58033 70033 84615 88458==
41895,2023,03,31,12,00,AAXX 31124 41895 11450 60501 10240 20230 30047 40070 60016 70162 83520 333 10250 58023 70033 83615 86458==
41895,2023,03,31,15,00,AAXX 31154 41895 02950 00901 10224 20210 30074 40097 333 58024 70033==
41895,2023,03,31,18,00,AAXX 31184 41895 02950 00000 10220 20220 30077 40100 333 58021 70033==
41895,2023,03,31,21,00,AAXX 31214 41895 01440 82303 10210 20210 30075 40098 79596 8532/ 333 58020 70053 84615 88458 81930==
41895,2023,04,01,00,00,AAXX 01004 41895 21450 80902 10210 20210 30052 40075 70596 8452/ 333 59014 60048 70069 84615 88458==
41895,2023,04,01,03,00,AAXX 01034 41895 01450 83101 10230 20210 30092 40115 70522 8452/ 333 20205 58001 70069 84615 88458==
41895,2023,04,01,06,00,AAXX 01064 41895 02456 81303 10265 20230 30080 40102 8352/ 333 59017 70049 83616 88458==
41895,2023,04,01,09,00,AAXX 01094 41895 02456 50901 10296 20190 30048 40070 83510 333 59023 70036 83616 85458==
41895,2023,04,01,12,00,AAXX 01124 41895 02950 00000 10267 20210 30039 40061 333 10302 59008 70036==
41895,2023,04,01,15,00,AAXX 01154 41895 02450 60000 10234 20210 30061 40084 84520 333 59013 70036 84615 86458==
41895,2023,04,01,18,00,AAXX 01184 41895 NIL=
41895,2023,04,02,00,00,AAXX 02004 41895 02450 40000 10204 20190 30043 40066 84500 333 59032 70016 84616==
41895,2023,04,02,03,00,AAXX 02034 41895 02957 02302 10237 20180 30066 40089 333 20192 59026 70000==
41895,2023,04,02,06,00,AAXX 02064 41895 02557 22304 10302 20180 30063 40085 82100 333 59017 70000 82825==
41895,2023,04,02,09,00,AAXX 02094 41895 01450 60902 10234 20220 30033 40055 79596 85320 333 59015 70054 84615 86458 81930==
41895,2023,04,02,12,00,AAXX 02124 41895 21956 00000 10240 20220 30026 40048 70096 333 10320 59013 60068 70062==
41895,2023,04,02,15,00,AAXX 02154 41895 02950 01301 10225 20220 30041 40063 333 59020 70062==
41895,2023,04,02,18,00,AAXX 02184 41895 02450 21301 10220 20210 30045 40068 82500 333 59021 70062 82617==
41895,2023,04,02,21,00,AAXX 02214 41895 02950 02301 10210 20210 30031 40054 333 59021 70062==
41895,2023,04,03,00,00,AAXX 03004 41895 02950 02301 10200 20200 30036 40059 333 59005 70062==
41895,2023,04,03,03,00,AAXX 03034 41895 02957 02303 10254 20190 30061 40083 333 20197 59005 70062==
41895,2023,04,03,06,00,AAXX 03064 41895 02957 02704 10320 20150 30060 40082 333 59003 70062==
41895,2023,04,03,09,00,AAXX 03094 41895 02456 33102 10335 20150 30037 40059 83500 333 58004 70008 83616==
41895,2023,04,03,12,00,AAXX 03124 41895 02950 00000 10300 20200 30026 40048 333 10340 58000 70000==
41895,2023,04,03,15,00,AAXX 03154 41895 02950 01301 10245 20210 30046 40069 333 58005 70000==
41895,2023,04,03,18,00,AAXX 03184 41895 02950 01301 10220 20200 30049 40072 333 58004 70000==
41895,2023,04,03,21,00,AAXX 03214 41895 02950 00000 10215 20200 30038 40061 333 58007 70000==
41895,2023,04,04,00,00,AAXX 04004 41895 02950 02304 10215 20210 30047 40070 333 58011 70000==
41895,2023,04,04,03,00,AAXX 04034 41895 02/57 32703 10272 20210 30065 40087 83030 333 20210 58004 70000 83362==
41895,2023,04,04,06,00,AAXX 04064 41895 02957 02708 10346 20170 30060 40081 333 58000 70000==
41895,2023,04,04,09,00,AAXX 04094 41895 02957 02108 10366 20120 30052 40073 333 58015 70000==
41895,2023,04,04,12,00,AAXX 04124 41895 02957 00000 10313 20180 30025 40047 333 10368 59001 70000==
41895,2023,04,04,15,00,AAXX 04154 41895 02956 00000 10253 20200 30038 40061 333 59008 70000==
41895,2023,04,04,18,00,AAXX 04184 41895 02956 01804 10251 20230 30038 40061 333 59011 70000==
41895,2023,04,04,21,00,AAXX 04214 41895 02956 00000 10253 20250 30025 40048 333 59013 70000==
41895,2023,04,05,00,00,AAXX 05004 41895 02956 00000 10237 20230 30035 40058 333 59012 70000==
41895,2023,04,05,03,00,AAXX 05034 41895 02957 02302 10280 20230 30057 40079 333 20235 59008 70000==
41895,2023,04,05,06,00,AAXX 05064 41895 02957 02707 10338 20150 30061 40082 333 58001 70000==
41895,2023,04,05,09,00,AAXX 05094 41895 02957 02306 10357 20120 30032 40054 333 58000 70000==
41895,2023,04,05,12,00,AAXX 05124 41895 02956 03102 10327 20130 30031 40053 333 10361 58006 70000==
41895,2023,04,05,15,00,AAXX 05154 41895 02950 00000 10240 20200 30056 40078 333 58018 70000==
41895,2023,04,05,18,00,AAXX 05184 41895 02950 00000 10235 20200 30062 40085 333 58024 70000==
41895,2023,04,05,21,00,AAXX 05214 41895 02950 00000 10210 20190 30061 40084 333 58036 70000==
41895,2023,04,06,00,00,AAXX 06004 41895 02950 00000 10198 20190 30055 40078 333 58020 70000==
41895,2023,04,06,03,00,AAXX 06034 41895 02957 02303 10274 20150 30095 40117 333 20195 58038 70000==
41895,2023,04,06,06,00,AAXX 06064 41895 02958 02703 10347 20070 30091 40113 333 58030 70000==
41895,2023,04,06,09,00,AAXX 06094 41895 02958 02702 10366 20080 30056 40077 333 58024 70000==
41895,2023,04,06,12,00,AAXX 06124 41895 02956 00000 10328 20160 30051 40073 333 10368 58020 70000==
41895,2023,04,06,15,00,AAXX 06154 41895 02950 00000 10245 20180 30082 40105 333 58026 70000==
41895,2023,04,06,18,00,AAXX 06184 41895 02950 01301 10235 20190 30083 40106 333 58021 70000==
41895,2023,04,06,21,00,AAXX 06214 41895 02950 01801 10230 20160 30078 40101 333 58017 70000==
41897,2023,03,31,00,00,AAXX 31004 41897 31930 51601 10202 20190 30072 40086 85030 333 56090 59013 70260 85362=
41897,2023,03,31,12,00,AAXX 31124 41897 11435 80601 10238 20230 30069 40082 60016 70592 8352/ 333 10245 56999 58029 70270 83615 87459=
41897,2023,03,31,18,00,AAXX 31184 41897 31930 30000 10220 20210 30091 40104 70521 83030 333 56090 58029 70010 83360=
41897,2023,04,01,00,00,AAXX 01004 41897 NIL=
41897,2023,04,01,06,00,AAXX 01064 41897 32450 51502 10263 20210 30090 40103 82530 333 56990 59022 70080 82617 85362=
41897,2023,04,01,12,00,AAXX 01124 41897 32940 01802 10245 20230 30053 40066 333 10280 59016 70070=
41897,2023,04,01,18,00,AAXX 01184 41897 NIL=
41897,2023,04,02,00,00,AAXX 02004 41897 31430 00901 10212 20210 30057 40070 70520 82510 56990 59012 70000 82617 86458=
41897,2023,04,02,06,00,AAXX 02064 41897 32956 01802 10290 20200 30070 40082 333 59020 70000=
41897,2023,04,02,12,00,AAXX 02124 41897 31940 00000 10252 20210 30035 40048 70500 333 10295 59018 70000=
41897,2023,04,02,18,00,AAXX 02184 41897 31930 01802 10225 20220 30052 40068 70500 333 59023 70000=
41897,2023,04,03,00,00,AAXX 03004 41897 31930 00903 10200 20190 30037 40050 70500 333 59019 70000=
41897,2023,04,03,06,00,AAXX 03064 41897 31956 03602 10300 20160 30074 40086 333 58004 70000=
41897,2023,04,03,12,00,AAXX 03124 41897 32950 00501 10275 20230 30044 40057 333 10325 58009 70000=
41897,2023,04,03,18,00,AAXX 03184 41897 31935 01801 10230 20210 30057 40071 70500 333 58005 70000=
41897,2023,04,04,00,00,AAXX 04004 41897 31935 01801 10205 20200 30051 40064 70500 333 58014 70000=
41897,2023,04,04,06,00,AAXX 04064 41897 31450 31802 10330 20220 30071 40084 70500 81530 333 56990 58003 70000 81618 83362=
41897,2023,04,04,12,00,AAXX 04124 41897 32956 00000 10300 20260 30035 40048 333 10352 59009 70000=
41897,2023,04,04,18,00,AAXX 04184 41897 32950 01801 10252 20230 30049 40063 333 59008 70000=
41897,2023,04,05,00,00,AAXX 05004 41897 31930 01801 10245 20240 30049 40063 70500 333 59002 70000=
41897,2023,04,05,06,00,AAXX 05064 41897 31960 00000 10328 20220 30065 40078 70500 333 59006 70000=
41897,2023,04,05,12,00,AAXX 05124 41897 32956 00000 10295 20230 30038 40051 333 10350 58003 70000=
41897,2023,04,05,18,00,AAXX 05184 41897 32950 00000 10230 20210 30076 40090 333 58027 70000=
41897,2023,04,06,00,00,AAXX 06004 41897 31906 00000 10225 20220 30087 40101 74000 333 58038 70000=
41897,2023,04,06,06,00,AAXX 06064 41897 31950 03601 10324 20160 30099 40112 70540 58034 70000=
41897,2023,04,06,12,00,AAXX 06124 41897 32956 00000 10286 20230 30068 40081 333 10335 58030 70000=
41897,2023,04,06,18,00,AAXX 06184 41897 32950 00000 10226 20200 30092 40106 333 58016 70000=
41902,2023,03,31,00,00,AAXX 31004 41902 11440 81002 10188 20180 30084 40093 60408 70296 8632/ 333 56999 59023 70400 83710 86415 81925 88458=
41902,2023,03,31,12,00,AAXX 31124 41902 31950 83202 10262 20200 30081 40090 70522 333 8632/ 20312 56999 58021 70400 83710 86415 81925 88458=
41902,2023,03,31,18,00,AAXX 31184 41902 31430 80000 10220 20210 30091 40100 70522 8442/ 333 56499 58020 70400 84615 88458=
41902,2023,04,01,00,00,AAXX 01004 41902 31420 83002 10207 20200 30085 40094 79592 8632/ 333 56999 58001 70000 83710 86415 81925 88458=
41902,2023,04,01,06,00,AAXX 01064 41902 NIL=
41902,2023,04,01,12,00,AAXX 01124 41902 NIL=
41902,2023,04,01,18,00,AAXX 01184 41902 NIL=
41902,2023,04,02,00,00,AAXX 02004 41902 31415 83501 10220 20220 30065 40073 71044 8692/ 333 56999 59020 70132 84612 81925 88458=
41902,2023,04,02,12,00,AAXX 02124 41902 32450 60502 10253 20200 30042 40050 82530 333 20310 56990 59025 70004 82616 86362=
41902,2023,04,03,00,00,AAXX 03004 41902 31415 80501 10205 20190 30049 40057 71044 8692/ 56999 59016 70004 84612 81925 88458=
41902,2023,04,03,06,00,AAXX 03064 41902 32456 63602 10295 20250 30072 40081 70222 82530 333 56990 59011 70000 82616 86362=
41902,2023,04,03,12,00,AAXX 03124 41902 31940 03603 10275 20230 30052 40061 70522 333 20315 58010 70000=
41902,2023,04,03,18,00,AAXX 03184 41902 31930 00303 10232 20220 30083 40092 70500 333 58026 70000=
41902,2023,04,04,00,00,AAXX 04004 41902 31415 41403 10222 20210 30063 40072 71022 82530 333 56990 58014 70000 82614 83362=
41902,2023,04,04,06,00,AAXX 04064 41902 32456 40302 10302 20230 30078 40086 82530 333 56990 58006 70000 82614 83362=
41902,2023,04,04,12,00,AAXX 04124 41902 32450 41801 10305 20260 30048 40056 82530 333 20325 56990 59004 70000 82614 83362=
41902,2023,04,04,18,00,AAXX 04184 41902 NIL=
41902,2023,04,05,06,00,AAXX 05064 41902 32456 42402 10312 20240 30066 40075 82530 333 56990 59012 70000 82614 83362=
41902,2023,04,05,12,00,AAXX 05124 41902 32456 41902 10307 20260 30048 40056 82530 333 20332 56990 58000 70000 82614 83362=
41902,2023,04,05,18,00,AAXX 05184 41902 31430 80000 10232 20220 30080 40089 70522 8692/ 333 56999 58033 70000 84612 81925 88458=
41902,2023,04,06,12,00,AAXX 06124 41902 32440 41301 10280 20200 30064 40072 81530 333 10332 56990 58016 70000 81614 83362=
41907,2023,03,31,00,00,AAXX 31004 41907 01340 70000 10200 20200 30068 40083 70292 86610 333 59003 70000 81709 85615 87458==
41907,2023,03,31,03,00,AAXX 31034 41907 02/50 70502 10255 20210 30096 40111 87030 333 20195 58010 70000 87360==
41907,2023,03,31,06,00,AAXX 31064 41907 02450 81802 10286 20200 30100 40115 8552/ 333 58027 70000 85615 88458==
41907,2023,03,31,09,00,AAXX 31094 41907 01340 80902 10260 20230 30073 40088 76162 8672/ 333 58035 70004 85709 88458==
41907,2023,03,31,12,00,AAXX 31124 41907 21440 73602 10250 20230 30055 40070 70162 85510 333 10302 58032 69968 70006 85615 86458==
41907,2023,03,31,15,00,AAXX 31154 41907 02440 20000 10228 20220 30074 40089 82500 333 58024 70006 82615==
41907,2023,03,31,18,00,AAXX 31184 41907 02340 80000 10224 20210 30081 40096 8662/ 333 58017 70006 82709 85615 88458==
41907,2023,03,31,21,00,AAXX 31214 41907 01340 82706 10210 20200 30067 40082 71322 8632/ 333 59004 70006 83709 85615 88458 81930==
41907,2023,04,01,00,00,AAXX 01004 41907 21340 80000 10200 20190 30053 40068 70296 8662/ 333 59015 60147 70150 83709 85615 88458==
41907,2023,04,01,03,00,AAXX 01034 41907 02450 70000 10190 30094 40109 84570 333 20194 59002 70150 84615 85458==
41907,2023,04,01,06,00,AAXX 01064 41907 02450 70000 10275 20200 30082 40097 85510 333 59017 70000 85615 87458==
41907,2023,04,01,09,00,AAXX 01094 41907 02450 71302 10285 20210 30055 40070 83530 333 59018 70146 83615 87360==
41907,2023,04,01,12,00,AAXX 01124 41907 02/50 21802 10262 20200 30043 40058 82030 333 10290 58012 70144 82362==
41907,2023,04,01,15,00,AAXX 01154 41907 02340 80000 10235 20220 30064 40079 8662/ 333 59010 70144 81702 85615 88458==
41907,2023,04,01,18,00,AAXX 01184 41907 02340 80000 10220 20210 30075 40090 8662/ 333 59006 70144 81709 85615 88458==
41907,2023,04,01,21,00,AAXX 01214 41907 02340 80000 10210 20200 30070 40085 8662/ 333 59003 70144 81709 85615 88458==
41907,2023,04,02,00,00,AAXX 02004 41907 02440 71302 10200 20200 30062 40077 85510 333 58009 70000 86615 87458==
41907,2023,04,02,03,00,AAXX 02034 41907 02950 02702 10250 20170 30070 40085 333 20198 59024 70000==
41907,2023,04,02,06,00,AAXX 02064 41907 02956 02302 10295 20200 30065 40080 333 59017 70000==
41907,2023,04,02,09,00,AAXX 02094 41907 02456 62702 10320 20160 30027 40041 86800 333 59028 70000 84615 83825==
41907,2023,04,02,12,00,AAXX 02124 41907 01450 70000 10240 20210 30026 40041 70396 85510 333 10320 59017 70005 85615 86458==
41907,2023,04,02,15,00,AAXX 02154 41907 02940 00000 10230 20210 30041 40056 333 59023 70005==
41907,2023,04,02,18,00,AAXX 02184 41907 02/40 40000 10212 20200 30044 40059 84030 333 59031 70005 84360==
41907,2023,04,02,21,00,AAXX 02214 41907 32940 02302 10205 20200 30035 40050 333 59027 70005=
41907,2023,04,03,00,00,AAXX 03004 41907 02940 02302 10205 20200 30035 40050 333 59027 70005==
41907,2023,04,03,03,00,AAXX 03034 41907 02950 02703 10270 20190 30063 40078 333 20203 59007 70005==
41907,2023,04,03,06,00,AAXX 03064 41907 02956 03103 10325 20130 30064 40078 333 59001 70005==
41907,2023,04,03,09,00,AAXX 03094 41907 02456 22705 10340 20110 30036 40051 82500 333 58009 70005 82615==
41907,2023,04,03,12,00,AAXX 03124 41907 02450 60000 10315 20180 30029 40044 85530 333 10342 58003 70000 85615==
41907,2023,04,03,15,00,AAXX 03154 41907 02940 00000 10250 20200 30046 40061 333 58005 70000==
41907,2023,04,03,18,00,AAXX 03184 41907 02940 00000 10220 20200 30061 40076 333 58017 70000==
41907,2023,04,03,21,00,AAXX 03214 41907 02440 30000 10205 20200 30053 40068 83500 333 58017 70000 83615==
41907,2023,04,04,00,00,AAXX 04004 41907 02940 00000 10224 20200 30054 40069 333 58034 70000==
41907,2023,04,04,03,00,AAXX 04034 41907 02450 32703 10275 20230 30066 40081 82530 333 20195 58003 70000 82615 83362==
41907,2023,04,04,06,00,AAXX 04064 41907 02956 02304 10345 20150 30060 40075 333 59004 70000==
41907,2023,04,04,09,00,AAXX 04094 41907 02456 52703 10362 20130 30035 40049 82530 333 59001 70000 82615 83362==
41907,2023,04,04,12,00,AAXX 04124 41907 02950 02702 10325 20170 30026 40040 333 10365 59003 70000==
41907,2023,04,04,15,00,AAXX 04154 41907 02940 00000 10262 20200 30041 40056 333 59005 70000==
41907,2023,04,04,18,00,AAXX 04184 41907 02940 01806 10275 20240 30040 40055 333 59021 70000==
41907,2023,04,04,21,00,AAXX 04214 41907 02440 62703 10264 20240 30033 40048 83510 333 59020 70000 83615 85458==
41907,2023,04,05,00,00,AAXX 05004 41907 02340 80000 10252 20240 30036 40051 8662/ 333 59018 70000 82709 84615 88458==
41907,2023,04,05,03,00,AAXX 05034 41907 02950 02702 10282 20220 30059 40073 333 20250 59007 70000==
41907,2023,04,05,06,00,AAXX 05064 41907 02956 03106 10345 20150 30058 40072 333 59002 70000==
41907,2023,04,05,09,00,AAXX 05094 41907 02956 02702 10355 20180 30032 40046 333 59003 70000==
41907,2023,04,05,12,00,AAXX 05124 41907 02950 02302 10325 20140 30030 40044 333 10360 58004 70000==
41907,2023,04,05,15,00,AAXX 05154 41907 02940 00000 10240 20210 30050 40065 333 58009 70000==
41907,2023,04,05,18,00,AAXX 05184 41907 02940 00000 10230 20220 30065 40080 333 58025 70000==
41907,2023,04,05,21,00,AAXX 05214 41907 02940 00000 10225 20210 30055 40070 333 58022 70000==
41907,2023,04,06,00,00,AAXX 06004 41907 01940 00000 10205 20205 30060 40075 70500 333 58024 70000==
41907,2023,04,06,03,00,AAXX 06034 41907 02950 00000 10290 20170 30094 40109 333 20200 58035 70000==
41907,2023,04,06,06,00,AAXX 06064 41907 02956 03105 10348 20040 30095 40101 333 58037 70000==
41907,2023,04,06,09,00,AAXX 06094 41907 02956 03104 10363 20020 30063 40077 333 58031 70000==
41907,2023,04,06,12,00,AAXX 06124 41907 02950 00000 10305 20160 30057 40072 333 10365 58027 70000==
41907,2023,04,06,15,00,AAXX 06154 41907 02940 00000 10250 20180 30084 40099 333 58034 70000==
41907,2023,04,06,18,00,AAXX 06184 41907 02/40 50000 10225 20180 30084 40099 85030 333 58019 70000 85360==
41907,2023,04,06,21,00,AAXX 06214 41907 02940 00000 10213 20160 30079 40094 333 58024 70000==
41909,2023,03,31,00,00,AAXX 31004 41909 21440 80000 10194 20180 30076 40088 70296 8592/ 333 59010 60589 70640 84708 83615 88458 81930==
41909,2023,03,31,03,00,AAXX 31034 41909 02456 80000 10224 20190 30109 40121 8452/ 333 20185 58008 70640 84615 88458==
41909,2023,03,31,06,00,AAXX 31064 41909 02456 60902 10270 20190 30112 40123 83520 333 58032 70640 83615 86458==
41909,2023,03,31,09,00,AAXX 31094 41909 02450 80901 10286 20200 30084 40095 8532/ 333 58022 70640 83708 85615 88458 81930==
41909,2023,03,31,12,00,AAXX 31124 41909 02350 80901 10250 20220 30068 40079 8532/ 333 10292 58026 70630 84708 85615 88458 81930==
41909,2023,03,31,15,00,AAXX 31154 41909 02940 00000 10235 20210 30081 40093 333 58014 70620==
41909,2023,03,31,18,00,AAXX 31184 41909 02940 00000 10230 20210 30087 40099 333 58025 70580==
41909,2023,04,01,00,00,AAXX 01004 41909 01940 80000 10202 20190 30081 40093 70596 8592/ 333 58005 70210 84708 85615 88458 81930==
41909,2023,04,01,03,00,AAXX 01034 41909 01956 00901 10230 20200 30111 40123 70196 333 20198 58002 70220==
41909,2023,04,01,06,00,AAXX 01064 41909 11456 81801 10264 20180 30093 40105 60016 70396 8452/ 333 59019 70220 84615 88458==
41909,2023,04,01,09,00,AAXX 01094 41909 02456 70000 10270 20190 30064 40075 84570 333 59020 70220 84615 86460==
41909,2023,04,01,12,00,AAXX 01124 41909 02456 60000 10258 20210 30053 40064 83530 333 10273 59015 70220 83615 84362==
41909,2023,04,01,15,00,AAXX 01154 41909 02/50 20000 10235 20220 30072 40084 82030 333 59009 70220 82365==
41909,2023,04,01,18,00,AAXX 01184 41909 01940 00000 10230 20210 30070 40082 70520 333 59017 70220==
41909,2023,04,02,00,00,AAXX 02004 41909 01935 00000 10224 20210 30066 40078 70500 333 59015 70220==
41909,2023,04,02,03,00,AAXX 02034 41909 01440 81802 10234 20210 30083 40095 70542 8452/ 333 20212 59028 70000 84615 88458==
41909,2023,04,02,06,00,AAXX 02064 41909 02956 00000 10284 20190 30076 40087 333 59017 70000==
41909,2023,04,02,09,00,AAXX 02094 41909 02456 42702 10309 20180 30043 40054 82530 333 59021 70000 82615 83360==
41909,2023,04,02,12,00,AAXX 02124 41909 01450 60000 10239 20190 30037 40049 72911 83320 333 10312 59016 70000 82615 85458 81930==
41909,2023,04,02,15,00,AAXX 02154 41909 02940 00000 10226 20180 30060 40072 333 59012 70000==
41909,2023,04,02,18,00,AAXX 02184 41909 02940 02302 10224 20180 30052 40064 333 59018 70000==
41909,2023,04,02,21,00,AAXX 02214 41909 02940 00000 10214 20190 30042 40054 333 59024 70000==
41909,2023,04,03,00,00,AAXX 03004 41909 01940 00000 10209 20190 30044 40056 70500 333 59018 70000==
41909,2023,04,03,03,00,AAXX 03034 41909 02956 01802 10264 20190 30071 40082 333 20206 59012 70000==
41909,2023,04,03,06,00,AAXX 03064 41909 02956 03202 10311 20160 30075 40086 333 59001 70000==
41909,2023,04,03,09,00,AAXX 03094 41909 02956 02702 10329 20100 30049 40060 333 58006 70000==
41909,2023,04,03,12,00,AAXX 03124 41909 02956 00000 10298 20210 30045 40056 333 10334 58008 70000==
41909,2023,04,03,15,00,AAXX 03154 41909 02940 00000 10254 20210 30066 40077 333 58006 70000==
41909,2023,04,03,18,00,AAXX 03184 41909 02940 00000 10240 20220 30062 40074 333 58010 70000==
41909,2023,04,03,21,00,AAXX 03214 41909 02940 00000 10225 20210 30056 40068 333 58014 70000==
41909,2023,04,04,00,00,AAXX 04004 41909 02950 00000 10219 20190 30058 40070 333 58014 70000==
41909,2023,04,04,03,00,AAXX 04034 41909 02956 01802 10264 20220 30079 40090 333 20218 58008 70000==
41909,2023,04,04,06,00,AAXX 04064 41909 02456 52302 10320 20220 30076 40087 82530 333 58001 70000 82615 85360==
41909,2023,04,04,09,00,AAXX 04094 41909 02456 50000 10345 20200 30052 40063 82530 333 58003 70000 82615 85360==
41909,2023,04,04,12,00,AAXX 04124 41909 02956 00000 10320 20240 30037 40048 333 10350 58000 70000==
41909,2023,04,04,15,00,AAXX 04154 41909 02940 00000 10279 20220 30052 40063 333 59014 70000==
41909,2023,04,04,18,00,AAXX 04184 41909 02940 00000 10260 20230 30050 40061 333 59012 70000==
41909,2023,04,04,21,00,AAXX 04213 41909 02940 00000 10255 20240 30048 40059 333 59008 70000==
41909,2023,04,05,00,00,AAXX 05004 41909 02440 80000 10255 20240 30045 40056 8452/ 333 59013 70000 84615 88458==
41909,2023,04,05,03,00,AAXX 05034 41909 02450 82302 10284 20240 30069 40080 8452/ 333 20250 59010 70000 84615 88458==
41909,2023,04,05,06,00,AAXX 05064 41909 02956 02302 10321 20220 30068 40079 333 59008 70000==
41909,2023,04,05,09,00,AAXX 05093 41909 02456 51801 10350 20150 30045 40056 82530 333 59007 70000 82618 85360==
41909,2023,04,05,12,00,AAXX 05124 41909 02956 00000 10317 20200 30042 40053 333 10350 58005 70000==
41909,2023,04,05,15,00,AAXX 05154 41909 02940 00000 10264 20200 30071 40082 333 58019 70000==
41909,2023,04,05,18,00,AAXX 05184 41909 02940 00000 10250 20190 30078 40089 333 58028 70000==
41909,2023,04,05,21,00,AAXX 05214 41909 02940 00000 10246 20210 30078 40089 333 58030 70000==
41909,2023,04,06,00,00,AAXX 06004 41909 01950 00000 10244 20230 30080 40091 70500 333 58035 70000==
41909,2023,04,06,03,00,AAXX 06034 41909 02956 02302 10284 20230 30106 40117 333 20235 58037 70000==
41909,2023,04,06,06,00,AAXX 06064 41909 02956 02302 10324 20180 30104 40115 333 58036 70000==
41909,2023,04,06,09,00,AAXX 06094 41909 02957 02202 10346 20100 30078 40089 333 58033 70000==
41909,2023,04,06,12,00,AAXX 06124 41909 02956 00000 10320 20160 30070 40081 333 10353 58028 70000==
41909,2023,04,06,15,00,AAXX 06154 41909 02950 00000 10245 20180 30093 40165 333 58022 70000==
41909,2023,04,06,18,00,AAXX 06184 41909 02945 00000 10224 20180 30093 40105 333 58015 70000==
41909,2023,04,06,21,00,AAXX 06214 41909 02/40 30000 10228 20190 30092 40104 83030 333 58014 70000 83365==
41915,2023,03,31,00,00,AAXX 31004 41915 21450 33601 10190 20170 30081 40107 70196 81532 333 59008 60258 70255 81616==
41915,2023,03,31,03,00,AAXX 31034 41915 02/56 30000 10230 20180 30104 40130 83030 333 20184 58006 70252 83362==
41915,2023,03,31,06,00,AAXX 31064 41915 02/56 33402 10288 20170 30097 40123 83030 333 58012 70252 83362==
41915,2023,03,31,09,00,AAXX 31094 41915 02556 32902 10300 20170 30069 40094 81231 333 58012 70252 81822==
41915,2023,03,31,12,00,AAXX 31124 41915 02456 73102 10275 20210 30062 40087 83570 333 10315 58017 70252 83616 86458==
41915,2023,03,31,15,00,AAXX 31154 41915 02450 70901 10245 20220 30072 40097 84470 333 58006 70252 83616 86458==
41915,2023,03,31,18,00,AAXX 31184 41915 02445 70000 10225 20220 30073 40099 84470 333 58008 70252 83616 86458==
41915,2023,03,31,21,00,AAXX 31214 41915 01440 60000 10222 20210 30064 40092 70522 333 59023 70064 83616 88458==
41915,2023,04,01,00,00,AAXX 01004 41915 02440 80000 10220 20210 30064 40089 8547/ 333 59017 70000 84616 88458==
41915,2023,04,01,03,00,AAXX 01034 41915 01456 71302 10210 20200 30085 40111 70196 85470 333 20200 59019 70208 84616 86458==
41915,2023,04,01,06,00,AAXX 01064 41915 11/56 61302 10275 20200 30081 40106 60216 70196 86030 333 59016 70208 86362==
41915,2023,04,01,09,00,AAXX 01094 41915 02456 70000 10260 20200 30057 40082 85470 333 59012 70208 84616 86458==
41915,2023,04,01,12,00,AAXX 01124 41915 02456 71302 10250 20220 30052 40077 84470 333 10280 59010 70208 83616 86458==
41915,2023,04,01,15,00,AAXX 01154 41915 02450 70000 10219 20210 30063 40088 84470 333 59009 70208 83616 85458==
41915,2023,04,01,18,00,AAXX 01184 41915 02445 50000 10205 20200 30062 40087 83470 333 59011 70208 83616 84458==
41915,2023,04,02,00,00,AAXX 02004 41915 02445 50000 10204 20190 30058 40084 84470 333 59009 70208 83616 84458==
41915,2023,04,02,03,00,AAXX 02034 41915 02456 41002 10246 20210 30079 40104 84430 333 20200 59006 70000 83616==
41915,2023,04,02,06,00,AAXX 02064 41915 02456 52802 10290 20180 30059 40084 85400 333 59022 70000 84616==
41915,2023,04,02,09,00,AAXX 02094 41915 02456 42702 10300 20210 30036 40061 84400 333 59021 70000 84616==
41915,2023,04,02,12,00,AAXX 02124 41915 01450 80000 10222 20170 30034 40059 71722 333 10310 59028 70100 82710 85616 88458 81928==
41915,2023,04,02,15,00,AAXX 02154 41915 01440 82702 10212 20200 30051 40077 71796 8672/ 333 59012 70075 83710 84616 88458 81928==
41915,2023,04,02,18,00,AAXX 02184 41915 21440 80000 10206 20200 30050 40076 70596 8442/ 333 59012 60035 70100 84616 88458==
41915,2023,04,02,21,00,AAXX 02214 41915 01440 82801 10204 20190 30047 40072 71792 8632/ 333 59011 70100 82710 85616 88458 81928==
41915,2023,04,03,00,00,AAXX 03004 41915 21450 80000 10191 20180 30047 40073 79596 8632/ 333 59015 60237 70331 82710 85616 88458 81928==
41915,2023,04,03,03,00,AAXX 03034 41915 01456 81001 10220 20200 30076 40102 70296 8642/ 333 20188 59003 70335 85616 88458==
41915,2023,04,03,06,00,AAXX 03064 41915 11456 50000 10290 20220 30065 40090 69946 70196 85400 333 58006 70335 84616==
41915,2023,04,03,09,00,AAXX 03094 41915 02556 12302 10302 20210 30042 40067 81200 333 58006 70335 81825==
41915,2023,04,03,12,00,AAXX 03124 41915 02956 03601 10280 20210 30045 40071 333 10308 58011 70325==
41915,2023,04,03,15,00,AAXX 03154 41915 02950 00501 10235 20220 30062 40087 333 58011 70260==
41915,2023,04,03,18,00,AAXX 03184 41915 02450 10901 10230 20210 30064 40090 81400 333 58014 70235 81618==
41915,2023,04,03,21,00,AAXX 03214 41915 02450 30000 10210 20200 30053 40082 82430 333 58009 70235 82616==
41915,2023,04,04,00,00,AAXX 04004 41915 02450 80000 10220 20210 30060 40085 8662/ 333 58013 70004 83712 84615 88458==
41915,2023,04,04,03,00,AAXX 04034 41915 02456 71803 10263 20220 30081 40106 85520 333 20205 59005 70000 85616 86458==
41915,2023,04,04,06,00,AAXX 04064 41915 02456 61804 10310 20210 30069 40093 85410 333 58004 70000 84616 84458==
41915,2023,04,04,09,00,AAXX 04094 41915 02456 52302 10323 20200 30041 40066 84430 333 59001 70000 83616 83362==
41915,2023,04,04,12,00,AAXX 04124 41915 01456 33602 10280 20220 30040 40065 71792 83300 333 10330 59005 70000 82616 81925==
41915,2023,04,04,15,00,AAXX 04154 41915 01450 40502 10247 20200 30062 40088 70392 83330 333 58000 70000 82616 81930==
41915,2023,04,04,18,00,AAXX 04184 41915 01450 40000 10227 20210 30050 40075 70292 83330 333 59014 70000 82616 81930==
41915,2023,04,04,21,00,AAXX 04214 41915 02950 50000 10251 20230 30048 40073 84410 333 59008 70000 84616 85458==
41915,2023,04,05,00,00,AAXX 05004 41915 02956 40000 10253 20230 30050 40078 84410 333 59010 70000 84616 84458==
41915,2023,04,05,03,00,AAXX 05034 41915 02456 11804 10289 20240 30069 40094 81500 333 20227 59012 70000 81616==
41915,2023,04,05,06,00,AAXX 05064 41915 02456 61604 10314 20220 30058 40063 84410 333 58011 70000 83616 83458==
41915,2023,04,05,09,00,AAXX 05093 41915 02456 41801 10285 20220 30060 40085 83410 333 59019 70000 83616 84482==
41915,2023,04,05,12,00,AAXX 05124 41915 02956 01501 10262 20220 30043 40068 333 10318 58003 70000==
41915,2023,04,05,15,00,AAXX 05154 41915 01440 80000 10241 20210 30072 40098 76100 8672/ 333 58010 70002 83710 83616 88458==
41915,2023,04,05,18,00,AAXX 05184 41915 21445 80000 10202 20190 30078 40104 70296 8542/ 333 58028 60177 70172 84616 88458==
41915,2023,04,05,21,00,AAXX 05214 41915 02440 81802 10205 20200 30073 40099 8542/ 333 58025 70172 85616 88458==
41915,2023,04,06,00,00,AAXX 06004 41915 02450 80000 10215 20210 30082 40108 8662/ 333 58032 70172 83712 84615 88458==
41915,2023,04,06,03,00,AAXX 06034 41915 02956 00000 10264 20220 30107 40132 333 20201 58032 70172==
41915,2023,04,06,06,00,AAXX 06064 41915 02456 42802 10318 20240 30095 40120 84500 333 58037 70172 84616==
41915,2023,04,06,09,00,AAXX 06094 41915 02456 33102 10307 20230 30073 40098 82330 333 58033 70172 82616 81930==
41915,2023,04,06,12,00,AAXX 06124 41915 02456 10000 10301 20250 30065 40089 81430 333 10335 58022 70172 81616==
41915,2023,04,06,15,00,AAXX 06154 41915 02950 00000 10245 20240 30089 40114 333 58017 70170==
41915,2023,04,06,18,00,AAXX 06184 41915 01945 00000 10225 20220 30090 40116 70500 333 58018 70000==
41915,2023,04,06,21,00,AAXX 06214 41915 01935 00000 10216 20210 30083 40109 70500 333 58010 70000==
41923,2023,03,31,00,00,AAXX 31004 41923 21440 40000 10196 20190 30080 40090 70596 82530 333 59018 60278 70283 82615 83360==
41923,2023,03,31,03,00,AAXX 31034 41923 01450 63602 10250 20190 30114 40123 70522 82430 333 20192 59002 70283 81616 85360==
41923,2023,03,31,06,00,AAXX 31064 41923 01450 50000 10298 20180 30111 40121 70522 82530 333 58013 70283 82616 84360==
41923,2023,03,31,09,00,AAXX 31094 41923 01350 70000 10312 20180 30083 40093 70522 85370 333 58016 70283 82708 84615 85459 81928==
41923,2023,03,31,12,00,AAXX 31124 41923 01345 70000 10278 20210 30076 40086 72162 85370 333 10316 58021 70000 82708 84615 85459 81928==
41923,2023,03,31,15,00,AAXX 31154 41923 01340 50000 10260 20220 30083 40093 70522 83630 333 58003 70270 81709 83616==
41923,2023,03,31,18,00,AAXX 31184 41923 01335 70000 10250 20220 30089 40098 70522 85670 333 58021 70270 82709 84615 86459==
41923,2023,03,31,21,00,AAXX 31214 41923 01325 80000 10220 20200 30092 40102 76162 8632/ 333 70006 85026 83708 84614 88458==
41923,2023,04,01,00,00,AAXX 01004 41923 01325 83203 10204 20190 30099 40109 79196 8732/ 333 58019 70150 84708 85614 88458 81928==
41923,2023,04,01,03,00,AAXX 01034 41923 01/40 20000 10242 20190 30101 40110 70562 82030 333 20199 59013 70162 82362==
41923,2023,04,01,06,00,AAXX 01064 41923 11350 80000 10282 20180 30089 40099 60016 70562 8632/ 333 59022 70162 83708 85614 88458 81928==
41923,2023,04,01,09,00,AAXX 01094 41923 01345 71802 10267 20210 30070 40080 70522 85370 333 59013 70162 82709 84615 86458 81930==
41923,2023,04,01,12,00,AAXX 01124 41923 01340 70000 10255 20210 30062 40072 70522 84670 333 10288 59014 70162 82709 83615 85458==
41923,2023,04,01,15,00,AAXX 01154 41923 01340 71802 10243 20210 30074 40083 70522 85370 333 59009 70162 82709 84615 86458 81930==
41923,2023,04,01,18,00,AAXX 01184 41923 01440 31802 10231 20210 30077 40086 70520 81530 333 59012 70162 81616 83360==
41923,2023,04,01,21,00,AAXX 01214 41923 01340 80000 10230 20210 30062 40071 70522 8562/ 333 59030 70156 82709 84615 88458==
41923,2023,04,02,00,00,AAXX 02004 41923 01340 70000 10228 20210 30070 40079 70522 85670 333 59029 70012 82709 83615 85458==
41923,2023,04,02,03,00,AAXX 02034 41923 01/50 20000 10276 20200 30085 40095 70520 82030 333 20222 59016 70000 82360==
41923,2023,04,02,06,00,AAXX 02064 41923 01450 32702 10302 20190 30077 40087 70500 82430 333 59012 70000 81616==
41923,2023,04,02,09,00,AAXX 02094 41923 02/56 32203 10314 20170 30046 40056 83030 333 59024 70000 83365==
41923,2023,04,02,12,00,AAXX 02124 41923 01440 32002 10295 20180 30036 40046 70511 81530 333 10320 59026 70000 81615 83365==
41923,2023,04,02,15,00,AAXX 02154 41923 01440 50000 10234 20180 30062 40071 70596 82530 333 59012 70002 82615 85365==
41923,2023,04,02,18,00,AAXX 02184 41923 11440 50000 10248 20230 30060 40069 69921 70596 82530 333 59017 70002 82615 85365==
41923,2023,04,02,21,00,AAXX 02214 41923 01440 50000 10243 20220 30050 40059 70522 82530 333 59012 70002 82615 85382==
41923,2023,04,03,00,00,AAXX 03004 41923 01435 83004 10238 20230 30053 40062 70522 8532/ 333 59018 70002 85614 88460 81930==
41923,2023,04,03,03,00,AAXX 03034 41923 02/56 22403 10284 20220 30080 40090 82030 333 20231 59005 70002 82365==
41923,2023,04,03,06,00,AAXX 03064 41923 02/56 22404 10327 20120 30078 40088 82030 333 58001 70002 82365==
41923,2023,04,03,09,00,AAXX 03094 41923 02/56 22602 10336 20100 30054 40064 82030 333 58008 70002 82360==
41923,2023,04,03,12,00,AAXX 03124 41923 02/50 20000 10312 20110 30051 40061 82030 333 10338 58015 70002 82360==
41923,2023,04,03,15,00,AAXX 03154 41923 02/50 20000 10262 20160 30071 40081 82030 333 58009 70000 82360==
41923,2023,04,03,18,00,AAXX 03184 41923 02945 00000 10248 20170 30069 40078 333 58009 70000==
41923,2023,04,03,21,00,AAXX 03214 41923 01440 50000 10248 20210 30058 40067 70520 82530 333 58008 70000 82616 85360==
41923,2023,04,04,00,00,AAXX 04004 41923 01340 70000 10246 20220 30071 40080 70522 85670 333 58018 70000 82709 83615 85458==
41923,2023,04,04,03,00,AAXX 04034 41923 01450 51202 10284 20220 30090 40100 70522 82530 333 20242 58010 70000 82616 84360==
41923,2023,04,04,06,00,AAXX 04064 41923 02456 61503 10322 20230 30082 40092 83530 333 58004 70000 82616 85360==
41923,2023,04,04,09,00,AAXX 04094 41923 02456 61903 10330 20220 30054 40064 85330 333 58000 70000 83615 83824 81930==
41923,2023,04,04,12,00,AAXX 04124 41923 02456 11902 10320 20200 30046 40056 81500 333 10340 59005 70000 81616==
41923,2023,04,04,15,00,AAXX 04154 41923 02950 00000 10300 20220 30064 40074 333 59007 70000==
41923,2023,04,04,18,00,AAXX 04184 41923 02940 01804 10298 20240 30060 40070 333 59009 70000==
41923,2023,04,04,21,00,AAXX 04214 41923 02340 51803 10290 20240 30043 40053 85600 333 59015 70000 82709 83615==
41923,2023,04,05,00,00,AAXX 05004 41923 02340 71803 10270 20240 30055 40065 85370 333 59016 70000 82709 84615 85458 81930==
41923,2023,04,05,03,00,AAXX 05034 41923 01350 70000 10276 20250 30080 40090 70522 85370 333 20264 59010 70000 83709 84615 85458 81930==
41923,2023,04,05,06,00,AAXX 05064 41923 02456 61902 10320 20220 30075 40085 85430 333 59008 70000 83615 83824==
41923,2023,04,05,09,00,AAXX 05094 41923 02450 20000 10342 20200 30048 40058 82430 333 59006 70000 82615==
41923,2023,04,05,12,00,AAXX 05124 41923 02/50 20000 10315 20220 30050 40060 82030 333 10347 58004 70000 82362==
41923,2023,04,05,15,00,AAXX 05154 41923 01/40 20000 10290 20230 30079 40089 70500 82030 333 58015 70000 82362==
41923,2023,04,05,18,00,AAXX 05184 41923 01340 70000 10278 20250 30083 40093 70520 86370 333 58023 70000 83708 84614 85459 81929==
41923,2023,04,05,21,00,AAXX 05214 41923 01335 60000 10271 20250 30070 40080 70522 85670 333 58027 70000 82708 84614==
41923,2023,04,06,00,00,AAXX 06004 41923 01330 50000 10265 20250 30089 40098 70522 83630 333 58034 70000 81708 83614==
41923,2023,04,06,03,00,AAXX 06034 41923 01/45 12203 10291 20240 30112 40122 70520 81030 333 20263 58032 70000 81362==
41923,2023,04,06,06,00,AAXX 06064 41923 02456 21402 10336 20200 30105 40115 82400 333 58030 70000 82615==
41923,2023,04,06,09,00,AAXX 06094 41923 02956 02204 10354 20090 30083 40092 333 58034 70000==
41923,2023,04,06,12,00,AAXX 06124 41923 02950 03402 10326 20070 30076 40086 333 10358 58026 70000==
41923,2023,04,06,15,00,AAXX 06154 41923 02/45 20000 10258 20120 30099 40108 82030 333 58020 70000 82362==
41923,2023,04,06,18,00,AAXX 06184 41923 01940 00000 10250 20170 30101 40110 70500 333 58018 70000==
41923,2023,04,06,21,00,AAXX 06214 41923 01/40 20000 10262 20220 30094 40103 70500 82030 333 58024 70000 82360==
41926,2023,03,31,00,00,AAXX 31004 41926 02450 60000 10218 20200 30068 40081 83510 333 59011 70000 83616 85459==
41926,2023,03,31,03,00,AAXX 31034 41926 02/50 31803 10262 20210 30095 40109 83030 333 20218 58004 70000 83362==
41926,2023,03,31,06,00,AAXX 31064 41926 02456 62703 10295 20210 30101 40115 84570 333 58020 70000 84616 85459==
41926,2023,03,31,09,00,AAXX 31094 41926 41450 80000 10275 20220 30076 40089 76122 8452/ 333 58026 84616 88458==
41926,2023,03,31,12,00,AAXX 31124 41926 21450 60000 10275 20220 30060 40074 70162 83510 333 10300 58028 60005 83616 85459==
41926,2023,03,31,15,00,AAXX 31154 41926 42450 40000 10240 20220 30075 40089 84500 333 58028 84616==
41926,2023,03,31,18,00,AAXX 31184 41926 42450 40000 10235 20230 30079 40092 84500 333 58007 84616==
41926,2023,03,31,21,00,AAXX 31214 41926 01450 82703 10200 20190 30073 40086 79796 8592/ 333 58010 70022 84615 88458 82928==
41926,2023,04,01,00,00,AAXX 01004 41926 21450 80000 10195 20190 30071 40085 70296 8532/ 333 58003 60079 70072 84615 88459 81930==
41926,2023,04,01,03,00,AAXX 01034 41926 02350 80000 10212 20200 30098 40111 8562/ 333 20195 58003 70072 82708 83615 88458==
41926,2023,04,01,06,00,AAXX 01064 41926 02350 80000 10260 20190 30090 40104 8562/ 333 59010 70072 82708 83615 88458==
41926,2023,04,01,09,00,AAXX 01094 41926 02456 61801 10280 20200 30063 40076 83310 333 59013 70072 82618 85459 81930==
41926,2023,04,01,12,00,AAXX 01124 41926 02450 30000 10260 20210 30053 40066 83500 333 10284 59007 70072 83618==
41926,2023,04,01,15,00,AAXX 01154 41926 02940 00000 10223 20210 30067 40080 333 59008 70072==
41926,2023,04,01,18,00,AAXX 01184 41926 02440 61801 10228 20210 30061 40071 82510 333 59018 70072 82618 86459==
41926,2023,04,02,00,00,AAXX 02004 41926 01940 00000 10215 20210 30059 40072 70500 333 59014 70050==
41926,2023,04,02,03,00,AAXX 02034 41926 02950 01801 10254 20180 30077 40090 333 20200 59021 70000==
41926,2023,04,02,06,00,AAXX 02064 41926 02456 10000 10310 20180 30067 40080 81500 333 59023 70000 81618==
41926,2023,04,02,09,00,AAXX 02094 41926 02956 02702 10318 20160 30038 40051 333 59025 70000==
41926,2023,04,02,12,00,AAXX 02124 41926 02950 00000 10298 20180 30029 40042 333 10334 59024 70000==
41926,2023,04,02,15,00,AAXX 02154 41926 02950 00000 10237 20200 30046 40060 333 59021 70000==
41926,2023,04,02,18,00,AAXX 02184 41926 02950 00000 10222 20200 30046 40059 333 59015 70000==
41926,2023,04,02,21,00,AAXX 02214 41926 01940 00000 10212 20200 30045 40059 70500 333 59014 70000==
41926,2023,04,03,00,00,AAXX 03004 41926 01940 00000 10205 20200 30044 40058 70500 333 59013 70000==
41926,2023,04,03,03,00,AAXX 03034 41926 01956 00000 10270 20190 30073 40086 70500 333 20204 59004 70000==
41926,2023,04,03,06,00,AAXX 03064 41926 02957 00000 10332 20110 30072 40085 333 58005 70000==
41926,2023,04,03,09,00,AAXX 03094 41926 02457 22702 10348 20120 30046 40059 82500 333 58008 70000 82618==
41926,2023,04,03,12,00,AAXX 03124 41926 02456 20000 10315 20160 30040 40053 82500 333 10355 58011 70000 82618==
41926,2023,04,03,15,00,AAXX 03154 41926 02956 00000 10244 20180 30048 40061 333 58002 70000==
41926,2023,04,03,18,00,AAXX 03184 41926 01950 00000 10232 20180 30050 40064 70500 333 58004 70000==
41926,2023,04,03,21,00,AAXX 03214 41926 01940 00000 10230 20190 30051 40065 70500 333 58006 70000==
41926,2023,04,04,00,00,AAXX 04004 41926 01930 00000 10223 20210 30052 40065 71000 333 58008 70000==
41926,2023,04,04,03,00,AAXX 04034 41926 01/56 22302 10280 20240 30079 40093 70540 82030 333 20206 58006 70000 82362==
41926,2023,04,04,06,00,AAXX 04064 41926 01/57 22302 10342 20200 30071 40084 70240 82030 333 59001 70000 82362==
41926,2023,04,04,09,00,AAXX 04094 41926 02957 02303 10365 20140 30041 40054 333 59005 70000==
41926,2023,04,04,12,00,AAXX 04124 41926 02956 00000 10323 20190 30038 40051 333 10370 59002 70000==
41926,2023,04,04,15,00,AAXX 04154 41926 02956 02302 10283 20230 30046 40059 333 59002 70000==
41926,2023,04,04,18,00,AAXX 04184 41926 01950 02302 10265 20250 30046 40059 70500 333 59004 70000==
41926,2023,04,04,21,00,AAXX 04214 41926 01950 00000 10245 20230 30048 40061 70500 333 59003 70000==
41926,2023,04,05,00,00,AAXX 05004 41926 01940 00000 10237 20230 30047 40061 70500 333 59005 70000==
41926,2023,04,05,03,00,AAXX 05034 41926 02456 20000 10280 20230 30068 40081 82500 333 20235 59011 70000 82618==
41926,2023,04,05,06,00,AAXX 05064 41926 02957 03101 10338 20180 30066 40080 333 59005 70000==
41926,2023,04,05,09,00,AAXX 05094 41926 02957 03204 10353 20100 30042 40055 333 58001 70000==
41926,2023,04,05,12,00,AAXX 05124 41926 02956 00000 10320 20140 30038 40051 333 10370 58000 70000==
41926,2023,04,05,15,00,AAXX 05154 41926 02956 00000 10245 20190 30059 40073 333 58013 70000==
41926,2023,04,05,18,00,AAXX 05184 41926 01950 00000 10240 20210 30064 40077 70500 333 58018 70000==
41926,2023,04,05,21,00,AAXX 05214 41926 01950 00000 10215 20200 30068 40082 70500 333 58020 70000==
41926,2023,04,06,00,00,AAXX 06004 41926 01/40 30000 10190 20180 30079 40093 70500 83030 333 58032 70000 83362==
41926,2023,04,06,03,00,AAXX 06034 41926 02956 00000 10285 20170 30103 40116 333 20190 58035 70000==
41926,2023,04,06,06,00,AAXX 06064 41926 02957 03102 10358 20060 30102 40115 333 58036 70000==
41926,2023,04,06,09,00,AAXX 06094 41926 02957 03202 10370 20050 30077 40090 333 58035 70000==
41926,2023,04,06,12,00,AAXX 06124 41926 02956 00000 10320 20180 30063 40076 333 10375 58025 70000==
41926,2023,04,06,15,00,AAXX 06154 41926 01950 00000 10235 20200 30095 40109 70500 333 58036 70000==
41926,2023,04,06,18,00,AAXX 06184 41926 01950 00000 10220 20190 30093 40106 70500 333 58029 70000==
41926,2023,04,06,21,00,AAXX 06214 41926 01950 00000 10212 20190 30087 40101 70500 333 58019 70000==
41927,2023,03,31,00,00,AAXX 31004 41927 31950 61601 10208 20200 30058 40072 70192 83510 333 56490 59016 70000 83617 85459=
41927,2023,03,31,06,00,AAXX 31064 41927 32456 81601 10286 20200 30089 40103 8452/ 333 56499 58011 70000 84616 88458=
41927,2023,03,31,12,00,AAXX 31124 41927 11456 81602 10248 20230 30050 40065 60034 70296 8452/ 333 10300 56499 58019 70031 84616 88458=
41927,2023,03,31,18,00,AAXX 31184 41927 32450 30000 10220 20210 30071 40086 83500 333 56400 58016 70031 83618=
41927,2023,04,01,00,00,AAXX 01004 41927 11450 80000 10193 20180 30064 40079 60377 70296 8452/ 333 56499 58006 70399 84616 88458=
41927,2023,04,01,06,00,AAXX 01064 41927 32456 81801 10253 20190 30084 40098 8452/ 333 56499 59005 70399 84616 88458=
41927,2023,04,01,12,00,AAXX 01124 41927 32457 31801 10260 20190 30056 40070 83500 333 10276 56400 58006 70368 83618=
41927,2023,04,01,18,00,AAXX 01184 41927 32450 61601 10216 20210 30069 40084 83510 333 56490 59002 70368 83617 85459=
41927,2023,04,02,00,00,AAXX 02004 41927 32956 00000 10210 20200 30063 40078 333 59001 70000=
41927,2023,04,02,06,00,AAXX 02064 41927 32958 02301 10293 20190 30065 40079 333 59019 70000=
41927,2023,04,02,12,00,AAXX 02124 41927 32957 02802 10260 20180 30023 40037 333 10318 59033 70000=
41927,2023,04,02,18,00,AAXX 02184 41927 32956 02801 20218 20200 30051 40065 333 59018 70000=
41927,2023,04,03,00,00,AAXX 03004 41927 32956 00000 10207 20200 30049 40064 333 59014 70000=
41927,2023,04,03,06,00,AAXX 03064 41927 32958 02803 10318 20130 30065 40079 333 58000 70000=
41927,2023,04,03,12,00,AAXX 03124 41927 32957 02801 10316 20160 30033 40047 333 10342 58010 70000=
41927,2023,04,03,18,00,AAXX 03184 41927 32956 01601 10236 20210 30061 40075 333 58010 70000=
41927,2023,04,04,00,00,AAXX 04004 41927 32956 00000 10220 20210 30048 40063 333 59001 70000=
41927,2023,04,04,06,00,AAXX 04064 41927 32958 01703 10330 20180 30068 40082 333 58003 70000=
41927,2023,04,04,12,00,AAXX 04124 41927 32957 02301 10330 20220 30026 40040 333 10360 59007 70000=
41927,2023,04,04,18,00,AAXX 04184 41927 32956 01801 10270 20230 30043 40057 333 59018 70000=
41927,2023,04,05,00,00,AAXX 05004 41927 32456 50000 10250 20240 30031 40046 83510 333 56490 59017 70000 83617 84459=
41927,2023,04,05,06,00,AAXX 05064 41927 32958 02801 10330 20180 30058 40072 333 59010 70000=
41927,2023,04,05,12,00,AAXX 05124 41927 32957 00000 10320 20160 30039 40053 333 10365 58013 70000=
41927,2023,04,05,18,00,AAXX 05184 41927 32956 00000 10235 20200 30063 40078 333 58020 70000=
41927,2023,04,06,00,00,AAXX 06004 41927 32456 20000 10215 20210 30069 40083 82500 333 56400 58038 70000 82618=
41927,2023,04,06,06,00,AAXX 06064 41927 32958 03401 10348 20060 30095 40109 333 58037 70000=
41927,2023,04,06,12,00,AAXX 06124 41927 32957 00000 10305 20190 30063 40077 333 10370 58024 70000=
41927,2023,04,06,18,00,AAXX 06184 41927 32956 00000 10230 20200 30088 40103 333 58025 70000=
41929,2023,03,31,00,00,AAXX 31004 41929 02956 00000 10205 20200 30067 40076 333 59020 70000==
41929,2023,03,31,03,00,AAXX 31034 41929 02456 61802 10252 20200 30107 40116 83530 333 20200 58005 70000 83618 85365==
41929,2023,03,31,06,00,AAXX 31064 41929 02456 61402 10290 20200 30110 40119 83530 333 58013 70000 83618 85365==
41929,2023,03,31,09,00,AAXX 31094 41929 02456 80000 10297 20220 30078 40087 8451/ 333 58016 70000 84618 88462==
41929,2023,03,31,12,00,AAXX 31124 41929 01456 60000 10265 20240 30071 40080 72122 83530 333 10303 58029 70002 83618 83365==
41929,2023,03,31,15,00,AAXX 31154 41929 02/56 50000 10245 20230 30075 40084 85030 333 58006 70002 85365==
41929,2023,03,31,18,00,AAXX 31184 41929 02/56 50000 10237 20230 30085 40094 85030 333 58019 70002 85365==
41929,2023,03,31,21,00,AAXX 31214 41929 01456 80000 10222 20210 30087 40097 71322 8431/ 333 58021 70002 83618 88462 81930==
41929,2023,04,01,00,00,AAXX 01004 41929 21456 80000 10207 20200 30088 40098 72996 8451/ 333 58021 60137 70134 84618 88462==
41929,2023,04,01,03,00,AAXX 01034 41929 02456 20903 10250 20200 30099 40108 81540 333 20203 59008 70134 81618==
41929,2023,04,01,06,00,AAXX 01064 41929 02456 71802 10270 20200 30087 40096 83510 333 59023 70134 83618 86462==
41929,2023,04,01,09,00,AAXX 01094 41929 02456 71803 10270 20210 30069 40078 83570 333 59009 70134 83618 85462==
41929,2023,04,01,12,00,AAXX 01124 41929 02456 60000 10258 20210 30059 40068 83530 333 10282 59012 70132 83618 83365==
41929,2023,04,01,15,00,AAXX 01154 41929 02/56 50000 10237 20220 30063 40072 85030 333 59012 70132 85365==
41929,2023,04,01,18,00,AAXX 01184 41929 02/56 30000 10225 20220 30071 40080 83030 333 59014 70132 83365==
41929,2023,04,02,00,00,AAXX 02004 41929 02/56 30000 10219 20210 30065 40074 83030 333 59022 70132 83365==
41929,2023,04,02,03,00,AAXX 02034 41929 02456 13202 10270 20210 30083 40092 81500 333 20206 59016 70000 81618==
41929,2023,04,02,06,00,AAXX 02064 41929 02956 03202 10300 20210 30076 40085 333 59011 70000==
41929,2023,04,02,09,00,AAXX 02094 41929 02457 22703 10327 20160 30045 40054 82400 333 59024 70000 81618==
41929,2023,04,02,12,00,AAXX 02124 41929 02456 20000 10305 20190 30042 40051 82500 333 10329 59017 70000 82618==
41929,2023,04,02,15,00,AAXX 02154 41929 02956 00000 10235 20210 30052 40061 333 59011 70000==
41929,2023,04,02,18,00,AAXX 02184 41929 02/56 30000 10225 20210 30054 40063 83030 333 59017 70000 83365==
41929,2023,04,02,21,00,AAXX 02214 41929 02/56 20000 10225 20220 30045 40054 82030 333 59020 70000 82365==
41929,2023,04,03,03,00,AAXX 03034 41929 02956 02302 10286 20210 30075 40084 333 20220 59008 70000==
41929,2023,04,03,06,00,AAXX 03064 41929 02956 02302 10352 20100 30081 40090 333 59005 70000==
41929,2023,04,03,09,00,AAXX 03094 41929 02958 03102 10345 20150 30046 40055 333 58001 70000==
41929,2023,04,03,12,00,AAXX 03124 41929 02/56 20000 10320 20150 30044 40053 82030 333 10347 58002 70000 82365==
41929,2023,04,03,15,00,AAXX 03154 41929 02956 00000 10245 20190 30059 40068 333 58007 70000==
41929,2023,04,03,18,00,AAXX 03184 41929 02956 00000 10223 20190 30063 40072 333 58009 70000==
41929,2023,04,03,21,00,AAXX 03214 41929 02/56 30000 10233 20210 30059 40068 83030 333 58014 70000 83365==
41929,2023,04,04,00,00,AAXX 04004 41929 02456 60000 10242 20230 30057 40066 83530 333 58020 70000 83618 83365==
41929,2023,04,04,03,00,AAXX 04034 41929 02456 63202 10285 20240 30087 40096 83530 333 20215 58012 70000 83618 84365==
41929,2023,04,04,06,00,AAXX 04064 41929 02956 03202 10334 20220 30080 40089 333 59001 70000==
41929,2023,04,04,09,00,AAXX 04094 41929 02458 22702 10358 20140 30046 40055 82400 333 58000 70000 81618==
41929,2023,04,04,12,00,AAXX 04124 41929 02956 00000 10332 20200 30036 40045 333 10360 59008 70000==
41929,2023,04,04,15,00,AAXX 04154 41929 02956 00000 10272 20230 30054 40063 333 59005 70000==
41929,2023,04,04,18,00,AAXX 04184 41929 NIL=
41929,2023,04,04,21,00,AAXX 04213 41929 02/56 42301 10252 20230 30048 40057 84030 333 59011 70000 84365==
41929,2023,04,05,00,00,AAXX 05004 41929 02456 72303 10258 20250 30037 40046 83570 333 59020 70000 83618 85462==
41929,2023,04,05,03,00,AAXX 05034 41929 02456 52303 10298 20250 30069 40078 82530 333 20254 59018 70000 82618 83365==
41929,2023,04,05,06,00,AAXX 05064 41929 02457 43104 10330 20240 30071 40080 82430 333 59009 70000 81618 83365==
41929,2023,04,05,09,00,AAXX 05093 41929 02458 23102 10355 20200 30046 40055 82400 333 58000 70000 81618==
41929,2023,04,05,12,00,AAXX 05124 41929 02956 00000 10323 20200 30044 40053 333 10357 58008 70000==
41929,2023,04,05,15,00,AAXX 05154 41929 02956 00000 10265 20230 30068 40077 333 58014 70000==
41929,2023,04,05,18,00,AAXX 05184 41929 02956 00000 10262 20240 30076 40085 333 58016 70000==
41929,2023,04,05,21,00,AAXX 05214 41929 02/56 40000 10260 20250 30076 40085 84030 333 58028 70000 84365==
41929,2023,04,06,00,00,AAXX 06004 41929 02/56 50000 10257 20250 30075 40084 85030 333 58038 70000 85365==
41929,2023,04,06,03,00,AAXX 06034 41929 02956 03202 10300 20250 30105 40114 333 20250 58036 70000==
41929,2023,04,06,06,00,AAXX 06064 41929 02956 02302 10354 20130 30103 40112 333 58032 70000==
41929,2023,04,06,09,00,AAXX 06094 41929 02959 03104 10363 20040 30079 40088 333 58033 70000==
41929,2023,04,06,12,00,AAXX 06124 41929 02956 00000 10320 20160 30066 40075 333 10365 58022 70000==
41929,2023,04,06,15,00,AAXX 06154 41929 02956 00000 10245 20190 30086 40095 333 58018 70000==
41929,2023,04,06,18,00,AAXX 06184 41929 02/56 30000 10228 20180 30098 40107 83030 333 58022 70000 83365==
41929,2023,04,06,21,00,AAXX 06214 41929 02/56 40000 10234 20220 30096 40105 84030 333 58020 70000 84365==
41933,2023,03,31,00,00,AAXX 31004 41933 21450 60000 10195 20190 30086 40095 70196 84520 333 59005 60305 70300 84618 86458==
41933,2023,03,31,03,00,AAXX 31034 41933 02456 51203 10248 20200 30107 40116 83530 333 20192 58002 70300 83616 85362==
41933,2023,03,31,06,00,AAXX 31064 41933 02456 52002 10288 20210 30108 40116 82530 333 58003 70300 82616 85362==
41933,2023,03,31,09,00,AAXX 31094 41933 02456 50000 10300 20200 30082 40091 82530 333 58015 70300 82616 85362==
41933,2023,03,31,12,00,AAXX 31124 41933 02450 60000 10275 20220 30073 40082 84520 333 10306 58019 70300 84616 86480==
41933,2023,03,31,15,00,AAXX 31154 41933 02450 50000 10251 20240 30081 40089 83510 333 58004 70300 83618 85459==
41933,2023,03,31,18,00,AAXX 31184 41933 01440 50000 10235 20230 30086 40095 70522 83510 333 58021 70300 83618 85459==
41933,2023,03,31,21,00,AAXX 31214 41933 01440 60000 10234 20220 30075 40083 70522 83520 333 58002 70100 83618 86458==
41933,2023,04,01,00,00,AAXX 01004 41933 01330 83404 10226 20200 30087 40096 76196 8692/ 333 58001 70030 83708 84615 88456 81925==
41933,2023,04,01,03,00,AAXX 01034 41933 01450 70902 10240 20210 30102 40111 70196 84530 333 20195 59005 70120 84616 85363==
41933,2023,04,01,06,00,AAXX 01064 41933 11450 80000 10250 20210 30089 40098 60096 70396 8351/ 333 59019 70120 83616 88458==
41933,2023,04,01,09,00,AAXX 01094 41933 01450 81802 10246 20220 30070 40079 72162 8352/ 333 59012 70122 83614 88458==
41933,2023,04,01,12,00,AAXX 01124 41933 21450 61803 10243 20220 30063 40072 70162 82520 333 10257 59010 69928 70122 82616 85458==
41933,2023,04,01,15,00,AAXX 01154 41933 01/50 40000 10225 20220 30076 40085 70522 84030 333 59005 70122 84362==
41933,2023,04,01,18,00,AAXX 01184 41933 01/40 40000 10220 20210 30082 40091 70522 84030 333 59004 70122 84362==
41933,2023,04,02,00,00,AAXX 02004 41933 01/40 40000 10220 20210 30086 40095 70522 84030 333 58011 70122 84362==
41933,2023,04,02,03,00,AAXX 02034 41933 01450 20000 10255 20230 30086 40095 70520 82500 333 20205 59016 70002 82618==
41933,2023,04,02,06,00,AAXX 02064 41933 02456 52905 10290 20210 30077 40086 85400 333 59012 70002 82618 83827==
41933,2023,04,02,09,00,AAXX 02094 41933 02456 32703 10308 20180 30045 40053 83500 333 59025 70000 83618==
41933,2023,04,02,12,00,AAXX 02124 41933 02950 00000 10280 20210 30041 40049 333 10308 59022 70000==
41933,2023,04,02,15,00,AAXX 02154 41933 01450 31802 10244 20220 30061 40069 71300 83300 333 59015 70000 82614 81930==
41933,2023,04,02,18,00,AAXX 02184 41933 01950 00000 10230 20220 30067 40076 70510 333 59015 70000==
41933,2023,04,02,21,00,AAXX 02214 41933 01450 21802 10237 20220 30051 40060 70500 82500 333 59035 70000 82618==
41933,2023,04,03,00,00,AAXX 03004 41933 01450 21802 10222 20210 30053 40062 70500 82500 333 59025 70000 82618==
41933,2023,04,03,03,00,AAXX 03034 41933 02456 52202 10275 20240 30081 40090 85400 333 20216 59005 70000 83618 83828==
41933,2023,04,03,06,00,AAXX 03064 41933 02457 52204 10309 20210 30075 40083 85400 333 59002 70000 83618 83828==
41933,2023,04,03,09,00,AAXX 03094 41933 02457 52604 10315 20190 30056 40064 85400 333 58011 70000 82618 83827==
41933,2023,04,03,12,00,AAXX 03124 41933 02456 20000 10300 20170 30053 40062 82500 333 10322 58012 70000 82618==
41933,2023,04,03,15,00,AAXX 03154 41933 02950 00000 10255 20230 30069 40078 333 58008 70000==
41933,2023,04,03,18,00,AAXX 03184 41933 NIL=
41933,2023,04,03,21,00,AAXX 03214 41933 02950 00000 10242 20230 30057 40066 333 58006 70000==
41933,2023,04,04,00,00,AAXX 04004 41933 01440 81802 10246 20240 30067 40076 70500 8251/ 333 58014 70000 82616 88458==
41933,2023,04,04,03,00,AAXX 04034 41933 01450 61804 10275 20250 30099 40107 70522 82510 333 20232 58018 70000 82616 86458==
41933,2023,04,04,06,00,AAXX 04064 41933 02456 51805 10312 20230 30085 40094 85400 333 58010 70000 83616 83827==
41933,2023,04,04,09,00,AAXX 04094 41933 02456 51804 10315 20240 30055 40064 85400 333 59001 70000 83618 83828==
41933,2023,04,04,12,00,AAXX 04124 41933 02550 30000 10295 20240 30049 40058 83200 333 10323 59004 70000 83828==
41933,2023,04,04,15,00,AAXX 04154 41933 01950 01702 10255 20220 30070 40079 70500 333 58001 70000==
41933,2023,04,04,18,00,AAXX 04184 41933 01450 51604 10260 20240 30068 40077 70520 85400 333 59001 70000 83618 83828==
41933,2023,04,04,21,00,AAXX 04213 41933 01450 50000 10260 20240 30063 40072 70520 85400 333 58006 70000 83618 83827==
41933,2023,04,05,00,00,AAXX 05004 41933 02450 61502 10260 20240 30056 40065 85430 333 59011 70000 82616 83828==
41933,2023,04,05,03,00,AAXX 05034 41933 02456 61804 10278 20250 30082 40091 84520 333 20252 59017 70000 84614 86458==
41933,2023,04,05,06,00,AAXX 05064 41933 21456 51803 10310 20240 30074 40083 70162 85400 333 59011 60005 83614 83825==
41933,2023,04,05,09,00,AAXX 05093 41933 42456 51802 10320 20250 30044 40053 85400 333 59011 83616 83828==
41933,2023,04,05,12,00,AAXX 05124 41933 42450 51803 10285 20230 30043 40052 85400 333 10326 59006 83616 83828==
41933,2023,04,05,15,00,AAXX 05154 41933 41450 60000 10254 20230 30083 40091 72122 83510 333 58013 83616 86458==
41933,2023,04,05,18,00,AAXX 05184 41933 21450 60000 10244 20230 30081 40090 70262 83510 333 58013 60005 83616 86458==
41933,2023,04,05,21,00,AAXX 05214 41933 42450 60000 10245 20240 30077 40086 83510 333 58014 83616 86458==
41933,2023,04,06,00,00,AAXX 06004 41933 42450 70000 10249 20240 30089 40097 8452/ 333 58033 84616 88458==
41933,2023,04,06,03,00,AAXX 06034 41933 42450 72202 10274 20250 30111 40120 84510 333 20240 58029 84616 86458==
41933,2023,04,06,06,00,AAXX 06064 41933 42456 41802 10320 20250 30105 40114 84400 333 58031 82616==
41933,2023,04,06,09,00,AAXX 06094 41933 42457 21802 10330 20190 30078 40087 82500 333 58034 82618==
41933,2023,04,06,12,00,AAXX 06124 41933 42956 20000 10284 20180 30075 40084 80001 333 10339 58032 82074==
41933,2023,04,06,15,00,AAXX 06154 41933 02950 00000 10240 20210 30093 40101 333 58010 70000==
41933,2023,04,06,21,00,AAXX 06214 41933 01440 60000 10222 20200 30099 40108 70522 84510 333 58022 70000 84616 86458==
41936,2023,03,31,00,00,AAXX 31004 41936 41/18 21204 10234 20210 30073 40080 70511 81030 333 59006 81362==
41936,2023,03,31,03,00,AAXX 31034 41936 41430 42103 10254 20210 30097 40104 70521 81530 333 20232 58001 81615 84362==
41936,2023,03,31,06,00,AAXX 31064 41936 01340 72104 10292 20220 30106 40104 70521 81630 333 58015 70000 81710 82615 86362==
41936,2023,03,31,09,00,AAXX 31094 41936 41330 81003 10280 20230 30081 40088 70596 83630 333 58025 83710 83615 87362==
41936,2023,03,31,12,00,AAXX 31124 41936 01430 61703 10274 20220 30067 40075 70596 83530 333 10298 58031 70000 83615 85362==
41936,2023,03,31,15,00,AAXX 31154 41936 41930 32103 10248 20230 30073 40080 70521 333 58015 83030 83362==
41936,2023,03,31,18,00,AAXX 31184 41936 41/25 40000 10238 20230 30077 40084 70522 84030 333 58003 84362==
41936,2023,03,31,21,00,AAXX 31214 41936 01310 80706 10236 20230 30077 40084 79596 333 58014 70005 85706 83615 87360 81930==
41936,2023,04,01,00,00,AAXX 01004 41936 02320 70703 10204 20190 30068 40075 59012 86362 333 70200==
41936,2023,04,01,03,00,AAXX 01034 41936 01440 51703 10232 20200 30096 40103 70522 83530 333 20198 59001 70200 83615 84362==
41936,2023,04,01,06,00,AAXX 01064 41936 01440 71203 10280 20200 30094 40101 70522 83430 333 59012 70200 83615 86362==
41936,2023,04,01,09,00,AAXX 01094 41936 01440 72103 10264 20210 30067 40074 70522 83430 333 59014 70200 83615 86362==
41936,2023,04,01,12,00,AAXX 01124 41936 01440 52003 10256 20220 30058 40065 70522 82530 333 10282 59010 70200 82615 85362==
41936,2023,04,01,15,00,AAXX 01154 41936 01/40 20000 10234 20220 30073 40080 70522 82030 333 58000 70200 82362==
41936,2023,04,01,18,00,AAXX 01184 41936 01/30 50000 10224 20210 30076 40083 70521 85030 333 59001 70200 85362==
41936,2023,04,01,21,00,AAXX 01214 41936 01/30 40000 10216 20210 30066 40073 70511 84030 333 59011 70150 84362==
41936,2023,04,02,00,00,AAXX 02004 41936 01/20 30000 10200 20190 30073 40080 70511 83030 333 58005 70000 83362==
41936,2023,04,02,03,00,AAXX 02034 41936 01/20 12603 10254 20190 30087 40094 70511 81030 333 20196 59009 70000 81362==
41936,2023,04,02,06,00,AAXX 02064 41936 01950 03403 10300 20210 30081 40088 70500 333 59013 70000==
41936,2023,04,02,09,00,AAXX 02094 41936 01460 13406 10330 20190 30044 40051 70511 81500 333 59023 70000 81615==
41936,2023,04,02,12,00,AAXX 02124 41936 01960 00000 10310 20210 30039 40046 70510 333 10334 59019 70000==
41936,2023,04,02,15,00,AAXX 02154 41936 01950 00000 10260 20210 30055 40062 70500 333 59018 70000==
41936,2023,04,02,18,00,AAXX 02184 41936 01950 01903 10236 20200 30052 40059 70500 333 70000==
41936,2023,04,02,21,00,AAXX 02214 41936 01940 00000 10230 20200 30046 40053 70500 333 59024 70000==
41936,2023,04,03,00,00,AAXX 03004 41936 01920 00000 10216 20210 30055 40062 70500 333 59018 70000==
41936,2023,04,03,03,00,AAXX 03034 41936 01925 02605 10272 20220 30075 40082 70511 333 20214 59012 70000==
41936,2023,04,03,06,00,AAXX 03064 41936 01950 02705 10334 20140 30079 40086 70500 333 59002 70000==
41936,2023,04,03,09,00,AAXX 03094 41936 01970 02206 10350 20160 30046 40053 70500 333 58002 70000==
41936,2023,04,03,12,00,AAXX 03124 41936 01970 00000 10310 20190 30051 40058 70500 333 10352 58012 70000==
41936,2023,04,03,15,00,AAXX 03154 41936 01950 00000 10250 20200 30062 40069 70500 333 58007 70000==
41936,2023,04,03,18,00,AAXX 03184 41936 01950 02304 10242 20210 30066 40073 70500 333 58014 70000==
41936,2023,04,03,21,00,AAXX 03214 41936 01930 02608 10244 20230 30052 40059 70500 333 58006 70000==
41936,2023,04,04,00,00,AAXX 04004 41936 41312 52508 10250 20240 30063 40070 70522 85600 333 58008 85708==
41936,2023,04,04,03,00,AAXX 04034 41936 01312 32409 10282 20240 30083 40090 70522 83600 333 20234 58008 70000==
41936,2023,04,04,06,00,AAXX 04064 41936 01/50 22510 10340 20250 30072 40079 70521 82030 333 59007 70000 82362==
41936,2023,04,04,09,00,AAXX 04094 41936 01450 42307 10360 20230 30050 40057 70521 82530 333 58004 70000 82618 82825 82362==
41936,2023,04,04,12,00,AAXX 04124 41936 01960 02303 10328 20230 30041 40048 70522 333 10362 59010 70000==
41936,2023,04,04,15,00,AAXX 04154 41936 01950 02303 10286 20250 30060 40067 70520 333 59002 70000==
41936,2023,04,04,18,00,AAXX 04184 41936 01450 42406 10274 20250 30059 40066 70520 82530 333 59007 70000 82615 83362==
41936,2023,04,04,21,00,AAXX 04214 41936 01430 12106 10266 20250 30041 40048 70521 81500 333 59011 70000 81615==
41936,2023,04,05,00,00,AAXX 05004 41936 01418 22403 10262 20250 30042 40049 70511 82500 333 59021 70000 82615==
41936,2023,04,05,03,00,AAXX 05034 41936 01420 32704 10294 20250 30070 40077 70521 333 10250 59013 70000 83600 83712==
41936,2023,04,05,06,00,AAXX 05064 41936 01440 13206 10330 20230 30070 40077 70522 81500 333 59002 70000 81615==
41936,2023,04,05,09,00,AAXX 05094 41936 01950 02606 10356 20210 30047 40053 70500 333 59004 70000==
41936,2023,04,05,12,00,AAXX 05124 41936 01950 03203 10332 20180 30046 40052 70500 333 10285 40085 58004 70000==
41936,2023,04,05,15,00,AAXX 05154 41936 01950 00000 10260 20220 30065 40072 70500 333 58005 70000==
41936,2023,04,05,18,00,AAXX 05184 41936 01950 00000 10242 20220 30075 40082 70500 333 58016 70000==
41936,2023,04,05,21,00,AAXX 05214 41936 01950 00000 10242 20220 30075 40082 70500 333 58016 70000==
41936,2023,04,06,00,00,AAXX 06004 41936 41410 30000 10240 20220 30080 40088 70510 82501 333 58039 82615==
41936,2023,04,06,03,00,AAXX 06034 41936 01410 22804 10290 20210 30105 40112 70511 82500 333 20238 58035 70000 82618==
41936,2023,04,06,06,00,AAXX 06064 41936 01/40 13406 10350 20170 30104 40111 70511 81030 333 58038 70000 81362==
41936,2023,04,06,09,00,AAXX 06094 41936 01950 03407 10370 20130 30081 40088 70511 333 58035 70000==
41936,2023,04,06,12,00,AAXX 06124 41936 01950 00000 10330 20180 30068 40075 70500 333 10372 58023 70000==
41936,2023,04,06,15,00,AAXX 06154 41936 01/50 20000 10256 20200 30087 40095 70510 82030 333 58013 70000 82362==
41936,2023,04,06,18,00,AAXX 06184 41936 01/50 20000 10244 20200 30093 40100 70511 82030 333 58018 70000 82362==
41936,2023,04,06,21,00,AAXX 06214 41936 01/50 20000 10236 20200 30090 40097 70511 82030 333 58017 70000 82362==
41938,2023,03,31,00,00,AAXX 31004 41938 32956 31801 10210 20190 30078 40082 83071 333 56099 59016 79999 83460=
41938,2023,03,31,06,00,AAXX 31064 41938 32956 61501 10285 20230 30108 40112 86071 333 56099 58011 79999 85460=
41938,2023,03,31,12,00,AAXX 31124 41938 32456 40000 10275 20240 30077 40081 82531 333 10292 56999 58024 79999 82618=
41938,2023,03,31,18,00,AAXX 31184 41938 32450 40000 10243 20230 30080 40084 83511 333 56999 58006 79999 83618=
41938,2023,04,01,00,00,AAXX 01004 41938 11450 40000 10210 20190 30085 40089 60284 70296 83510 333 56990 58005 70284 83618=
41938,2023,04,01,06,00,AAXX 01064 41938 32450 70000 10242 20210 30105 40109 84511 333 56999 59003 70284 84618 85459=
41938,2023,04,01,12,00,AAXX 01124 41938 31450 62002 10252 20220 30070 40074 70522 82570 333 10263 56490 59007 70284 82616 83460 85362=
41938,2023,04,01,18,00,AAXX 01184 41938 31940 20000 10220 20210 30077 40081 70521 82030 333 56060 59003 70284 82362=
41938,2023,04,02,00,00,AAXX 02004 41938 31908 40000 10216 20210 30072 40076 74021 84070 333 56090 59013 70000 81460 83362=
41938,2023,04,02,06,00,AAXX 02064 41938 31458 23003 10290 20200 30080 40084 70342 82400 333 56600 59025 70000 82617=
41938,2023,04,02,12,00,AAXX 02124 41938 NIL=
41938,2023,04,02,18,00,AAXX 02184 41938 32950 02201 10242 20220 30058 40062 333 59019 70000=
41938,2023,04,03,00,00,AAXX 03004 41938 31430 12001 10242 20230 30061 40065 70500 81500 333 56600 59011 70000 81618=
41938,2023,04,03,06,00,AAXX 03064 41938 32956 02702 10320 20160 30077 40081 333 59003 70000=
41938,2023,04,03,12,00,AAXX 03124 41938 32956 00000 10288 20220 30060 40064 333 10337 58013 70000=
41938,2023,04,03,18,00,AAXX 03184 41938 31950 01802 10255 20240 30068 40072 70500 333 58010 70000=
41938,2023,04,04,00,00,AAXX 04004 41938 31420 32001 10248 20240 30067 40071 71020 83500 333 56500 58006 70000 83617=
41938,2023,04,04,06,00,AAXX 04064 41938 32456 42204 10322 20230 30083 40087 81510 333 56590 58006 70000 81617 84460=
41938,2023,04,04,12,00,AAXX 04124 41938 32956 00000 10318 20220 30056 40060 333 10340 59004 70000=
41938,2023,04,04,18,00,AAXX 04184 41938 32456 32003 10268 20250 30066 40070 81570 333 56590 59002 70000 81617 83460=
41938,2023,04,05,00,00,AAXX 05004 41938 31450 62003 10265 20250 30058 40062 70522 82510 333 56590 59009 70000 82617 85460=
41938,2023,04,05,06,00,AAXX 05064 41938 32456 52203 10320 20240 30074 40078 82410 333 56590 59009 70000 82618 84460=
41938,2023,04,05,12,00,AAXX 05124 41938 31950 10000 10310 20240 30054 40058 70521 81030 333 10345 56090 59002 70000 81362=
41938,2023,04,05,18,00,AAXX 05184 41938 31950 02301 10270 20260 30081 40085 70500 333 58015 70000=
41938,2023,04,06,00,00,AAXX 06004 41938 31408 82301 10260 20250 30083 40087 74021 8552/ 333 56599 58025 70000 85616 88460=
41938,2023,04,06,06,00,AAXX 06064 41938 31450 12504 10332 20190 30109 40113 70542 81500 333 56600 58035 70000 81618=
41938,2023,04,06,12,00,AAXX 06124 41938 32956 30000 10287 20190 30077 40081 80001 333 10355 56009 58020 70000 83082=
41938,2023,04,06,18,00,AAXX 06184 41938 31950 30000 10245 20230 30098 40102 70500 83010 333 56090 58017 70000 83460=
41939,2023,03,31,00,00,AAXX 31004 41939 02956 00000 10208 20190 30092 40100 333 59088 70000==
41939,2023,03,31,03,00,AAXX 31034 41939 02457 40000 10250 20200 30118 40126 82530 333 20203 58004 70000 82618 83365==
41939,2023,03,31,06,00,AAXX 31064 41939 02458 50000 10290 20220 30117 40125 83530 333 58017 70000 83617 83364==
41939,2023,03,31,09,00,AAXX 31094 41939 02458 50000 10300 20210 30085 40093 83530 333 58014 70000 83617 83364==
41939,2023,03,31,12,00,AAXX 31124 41939 NIL=
41939,2023,03,31,15,00,AAXX 31154 41939 02950 00000 10250 20230 30084 40092 333 58017 70000==
41939,2023,03,31,18,00,AAXX 31184 41939 02950 00000 10235 20230 30092 40100 333 58012 70000==
41939,2023,03,31,21,00,AAXX 31214 41939 02450 80000 10220 20210 30110 40118 8352/ 333 58018 70000 83617 88459==
41939,2023,04,01,00,00,AAXX 01004 41939 21456 80000 10210 20190 30092 40100 76196 8352/ 333 58000 60777 70770 83617 88459==
41939,2023,04,01,03,00,AAXX 01034 41939 02457 80000 10227 20210 30107 40115 8352/ 333 20200 59011 70770 83617 88459==
41939,2023,04,01,06,00,AAXX 01064 41939 02456 80000 10250 20220 30097 40105 8352/ 333 59020 70770 83617 88459==
41939,2023,04,01,09,00,AAXX 01094 41939 02456 70000 10254 20220 30079 40087 83510 333 59006 70770 83617 87459==
41939,2023,04,01,12,00,AAXX 01124 41939 02456 80000 10233 20180 30082 40090 8352/ 333 10260 59002 70770 83618 88459==
41939,2023,04,01,13,00,AAXX 01134 41939 02456 80000 10233 20180 30082 40090 8352/ 333 10260 59002 70770 83618 88459==
41939,2023,04,01,15,00,AAXX 01154 41939 02950 00000 10228 20220 30065 40073 333 59019 70770==
41939,2023,04,01,18,00,AAXX 01184 41939 02950 00000 10220 20210 30080 40088 333 59012 70770==
41939,2023,04,02,00,00,AAXX 02004 41939 02950 00000 10220 20210 30100 40108 333 59010 70770==
41939,2023,04,02,03,00,AAXX 02034 41939 02958 00000 10265 30094 40102 333 20211 59013 70000==
41939,2023,04,02,06,00,AAXX 02064 41939 02458 10000 10305 20210 30081 40089 81500 333 59016 70000 81618==
41939,2023,04,02,09,00,AAXX 02094 41939 02459 10000 10312 20190 30057 40065 81500 333 59022 70000 81618==
41939,2023,04,02,12,00,AAXX 02124 41939 02956 00000 10290 20220 30049 40057 333 10315 59020 70000==
41939,2023,04,02,15,00,AAXX 02154 41939 02456 40000 10260 20230 30055 40063 82530 333 59010 70000 82617 83365==
41939,2023,04,02,18,00,AAXX 02184 41939 02450 40000 10235 20220 30065 40073 82530 333 59015 70000 82618 83365==
41939,2023,04,02,21,00,AAXX 02214 41939 02950 00000 10235 20220 30082 40090 333 59018 70000==
41939,2023,04,03,00,00,AAXX 03004 41939 01950 00000 10243 20240 30062 40070 70500 333 59015 70000==
41939,2023,04,03,03,00,AAXX 03034 41939 02458 10000 10280 20240 30087 40095 81500 333 20223 59007 70000 81618==
41939,2023,04,03,06,00,AAXX 03064 41939 02458 10000 10325 20200 30080 40088 81500 333 59001 70000 81618==
41939,2023,04,03,09,00,AAXX 03094 41939 02959 00000 10322 20160 30058 40066 333 58001 70000==
41939,2023,04,03,12,00,AAXX 03124 41939 02956 00000 10270 20160 30062 40070 333 10335 58002 70000==
41939,2023,04,03,15,00,AAXX 03154 41939 02950 00000 10240 20200 30067 40075 333 58012 70000==
41939,2023,04,03,18,00,AAXX 03184 41939 02950 00000 10233 20210 30075 40083 333 58010 70000==
41939,2023,04,03,21,00,AAXX 03214 41939 02950 00000 10240 20230 30070 40078 333 59012 70000==
41939,2023,04,04,00,00,AAXX 04004 41939 02950 00000 10250 20240 30076 40084 333 58014 70000==
41939,2023,04,04,03,00,AAXX 04034 41939 02457 50000 10286 20250 30101 40109 83530 333 20225 58014 70000 83617 83364==
41939,2023,04,04,06,00,AAXX 04064 41939 02458 10000 10329 20230 30085 40093 81500 333 58005 70000 81618==
41939,2023,04,04,09,00,AAXX 04094 41939 02458 10000 10335 20240 30067 40075 81500 333 58009 70000 81618==
41939,2023,04,04,12,00,AAXX 04124 41939 02956 00000 10283 20170 30170 40178 333 10337 58000 70000==
41939,2023,04,04,15,00,AAXX 04154 41939 02950 00000 10275 20240 30058 40066 333 59009 70000==
41939,2023,04,04,18,00,AAXX 04184 41939 02950 00000 10267 20240 30065 40073 333 59010 70000==
41939,2023,04,04,21,00,AAXX 04214 41939 02950 00000 10263 20240 30053 40061 333 59017 70000==
41939,2023,04,05,00,00,AAXX 05004 41939 02956 00000 10257 20250 30049 40057 333 59027 70000==
41939,2023,04,05,03,00,AAXX 05034 41939 02458 60000 10285 20240 30066 40074 83510 333 20252 59035 70000 83618 85459==
41939,2023,04,05,06,00,AAXX 05064 41939 02458 60000 10310 20220 30060 40068 83510 333 59030 70000 83618 85459==
41939,2023,04,05,09,00,AAXX 05093 41939 02458 30000 10334 20240 30054 40062 83500 333 59013 70000 83618==
41939,2023,04,05,12,00,AAXX 05124 41939 02457 30000 10310 20260 30059 40067 82530 333 10334 59004 70000 82618==
41939,2023,04,05,15,00,AAXX 05154 41939 02456 40000 10270 20260 30077 40085 82530 333 58019 70000 82618 83364==
41939,2023,04,05,18,00,AAXX 05184 41939 NIL=
41939,2023,04,05,21,00,AAXX 05214 41939 02450 60000 10265 20260 30080 40088 83510 333 58027 70000 83618 85459==
41939,2023,04,06,00,00,AAXX 06004 41939 02456 80000 10263 20250 30084 40092 8352/ 333 58035 70000 83618 88459==
41939,2023,04,06,03,00,AAXX 06034 41939 02458 80000 10285 20250 30096 40104 8352/ 333 20258 58030 70000 83618 88459==
41939,2023,04,06,06,00,AAXX 06064 41939 02458 20000 10335 20230 30107 40114 82530 333 58047 70000 82618==
41939,2023,04,06,09,00,AAXX 06094 41939 02458 20000 10345 20190 30089 40097 82430 333 58035 70000 81618==
41939,2023,04,06,12,00,AAXX 06124 41939 02956 00000 10304 20190 30092 40100 333 10350 58030 70000==
41939,2023,04,06,15,00,AAXX 06154 41939 02950 00000 10255 20240 30093 40101 333 58016 70000==
41939,2023,04,06,18,00,AAXX 06184 41939 02950 00000 10250 20230 30097 40105 333 58022 70000==
41939,2023,04,06,21,00,AAXX 06214 41939 02450 40000 10230 20220 30110 40118 82530 333 58017 70000 82617 83364==
41941,2023,03,31,00,00,AAXX 31004 41941 21440 70403 10197 20197 30091 40097 70196 85420 333 59007 60158 70420 84616 87458==
41941,2023,03,31,03,00,AAXX 31034 41941 02450 70403 10250 20210 30115 40120 85420 333 20194 58002 70420 84615 87458==
41941,2023,03,31,06,00,AAXX 31064 41941 41440 80904 10280 20220 30112 40118 58011 70420 88456==
41941,2023,03,31,09,00,AAXX 31094 41941 02440 80903 10290 20220 30084 40089 8632/ 333 58012 70420 85614 88456 81928==
41941,2023,03,31,12,00,AAXX 31124 41941 02440 80000 10275 20240 30083 40088 8632/ 333 10310 58022 70420 85614 88456 81928==
41941,2023,03,31,15,00,AAXX 31154 41941 02440 80000 10250 20250 30089 40095 8632/ 333 58009 70270 85614 88456 81928==
41941,2023,03,31,18,00,AAXX 31184 41941 02440 70000 10242 20240 30095 40101 85420 333 58008 70150 84615 87458==
41941,2023,03,31,21,00,AAXX 31214 41941 02440 80000 10234 20220 30100 40106 8632/ 333 58016 70000 85615 88458 81928==
41941,2023,04,01,00,00,AAXX 01004 41941 21340 83103 10210 20210 30106 40112 79596 8792/ 333 58015 60307 70300 82708 84612 88456 81925==
41941,2023,04,01,03,00,AAXX 01034 41941 01440 80903 10220 20220 30106 40112 72996 8632/ 333 20208 59009 70370 85614 88457 81928==
41941,2023,04,01,06,00,AAXX 01064 41941 11440 83603 10255 20220 30094 40099 60076 70196 8632/ 333 59018 70370 85614 88456 81928==
41941,2023,04,01,09,00,AAXX 01094 41941 02440 80403 10252 20220 30074 40079 8632/ 333 59010 70370 85614 88456 81928==
41941,2023,04,01,12,00,AAXX 01124 41941 02440 80403 10250 20220 30074 40079 8632/ 333 10256 59009 70370 85614 88456 81928==
41941,2023,04,01,15,00,AAXX 01154 41941 02440 80000 10235 20230 30081 40087 8632/ 333 59002 70370 85614 88456 81928==
41941,2023,04,01,18,00,AAXX 01184 41941 NIL=
41941,2023,04,02,00,00,AAXX 02004 41941 02440 70000 10220 20210 30080 40086 85420 333 59020 70370 84615 87458==
41941,2023,04,02,03,00,AAXX 02034 41941 02456 40000 10285 20220 30095 40101 84400 333 20218 59011 70000 83616==
41941,2023,04,02,06,00,AAXX 02064 41941 02450 62602 10300 20140 30084 40090 85420 333 59010 70000 84616 86458==
41941,2023,04,02,09,00,AAXX 02094 41941 02456 62603 10315 20210 30051 40056 85420 333 59023 70000 84616 86458==
41941,2023,04,02,12,00,AAXX 02124 41941 02450 60000 10290 20220 30049 40054 85420 333 10325 59025 70000 84616 86458==
41941,2023,04,02,15,00,AAXX 02154 41941 02440 40000 10260 20230 30070 40075 84400 333 59011 70000 83616==
41941,2023,04,02,18,00,AAXX 02184 41941 02440 42603 10245 20230 30073 40079 84400 333 59015 70000 83616==
41941,2023,04,02,21,00,AAXX 02214 41941 02440 40000 10240 20220 30060 40066 84400 333 59020 70000 83616==
41941,2023,04,03,00,00,AAXX 03004 41941 02450 82603 10245 20245 30065 40071 8632/ 333 59010 70000 85616 88458 81930==
41941,2023,04,03,03,00,AAXX 03034 41941 02456 62603 10295 20250 30089 40095 85420 333 20240 59006 70000 84616 86458==
41941,2023,04,03,06,00,AAXX 03064 41941 02456 62602 10325 20230 30084 40089 85420 333 58000 70000 84616 86458==
41941,2023,04,03,09,00,AAXX 03094 41941 02456 22603 10345 20180 30059 40065 82500 333 58008 70000 82618==
41941,2023,04,03,12,00,AAXX 03124 41941 02450 20000 10300 20190 30056 40062 82500 333 10350 58007 70000 82618==
41941,2023,04,03,15,00,AAXX 03154 41941 02940 00000 10250 20210 30079 40084 333 58009 70000==
41941,2023,04,03,18,00,AAXX 03184 41941 NIL=
41941,2023,04,03,21,00,AAXX 03214 41941 02940 00000 10242 20220 30080 40085 333 58020 70000==
41941,2023,04,04,00,00,AAXX 04004 41941 02450 62603 10242 20240 30076 40081 85420 333 58011 70000 84616 86458==
41941,2023,04,04,03,00,AAXX 04034 41941 02456 62003 10292 20240 30097 40103 85420 333 20240 58008 70000 84616 86458==
41941,2023,04,04,06,00,AAXX 04064 41941 02456 61804 10328 20250 30095 40101 85420 333 58011 70000 84616 86458==
41941,2023,04,04,09,00,AAXX 04094 41941 02456 31803 10335 20240 30067 40073 83500 333 58008 70000 83618==
41941,2023,04,04,12,00,AAXX 04124 41941 02450 31802 10313 20240 30053 40059 83500 333 10345 59003 70000 83618==
41941,2023,04,04,15,00,AAXX 04154 41941 02940 01802 10286 20250 30072 40078 333 59007 70000==
41941,2023,04,04,18,00,AAXX 04184 41941 NIL=
41941,2023,04,04,21,00,AAXX 04214 41941 02940 01803 10270 20250 30064 40070 333 59016 70000==
41941,2023,04,05,00,00,AAXX 05004 41941 02450 61804 10265 20260 30054 40060 85420 333 59022 70000 84616 86458==
41941,2023,04,05,03,00,AAXX 05034 41941 02450 81803 10285 20260 30090 40096 8632/ 333 20264 59007 70000 85616 88458 81930==
41941,2023,04,05,06,00,AAXX 05064 41941 02456 61802 10325 20260 30082 40087 8632/ 333 59013 70000 85616 88458 81930==
41941,2023,04,05,09,00,AAXX 05094 41941 02456 61802 10335 20260 30054 40059 85420 333 59008 70000 84616 86458==
41941,2023,04,05,12,00,AAXX 05124 41941 02450 61802 10317 20206 30059 40065 85420 333 10340 58006 70000 84616 86458==
41941,2023,04,05,15,00,AAXX 05154 41941 02440 61803 10274 20230 30091 40096 85420 333 58019 70000 84616 86458==
41941,2023,04,05,18,00,AAXX 05184 41941 NIL=
41941,2023,04,05,21,00,AAXX 05214 41941 02440 61802 10270 20250 30087 40092 85420 333 58023 70000 84616 86458==
41941,2023,04,06,00,00,AAXX 06004 41941 02450 61803 10270 20260 30085 40091 85420 333 58031 70000 84616 86458==
41941,2023,04,06,03,00,AAXX 06034 41941 02456 60000 10284 20250 30097 40096 85420 333 20261 58001 70000 84616 86458==
41941,2023,04,06,06,00,AAXX 06064 41941 02457 41804 10324 20250 30104 40109 84500 333 58022 70000 84616==
41941,2023,04,06,09,00,AAXX 06094 41941 01450 82703 10245 20240 30082 40088 72996 8792/ 333 58028 70130 85612 88456 82925==
41941,2023,04,06,12,00,AAXX 06124 41941 21450 50000 10285 20250 30076 40082 70196 85500 333 10345 58017 60138 70130 85616==
41941,2023,04,06,15,00,AAXX 06154 41941 01450 80000 10265 20230 30101 40106 71322 8632/ 333 58010 70130 85615 88458 81928==
41941,2023,04,06,21,00,AAXX 06214 41941 02440 70000 10240 20230 30092 40097 85420 333 58007 70130 84616 87458==
41943,2023,03,31,00,00,AAXX 31004 41943 02430 81802 10200 20180 30088 40096 82530 333 58002 70060 82618 83362==
41943,2023,03,31,03,00,AAXX 31034 41943 02430 70902 10245 20180 30110 40118 84520 333 20198 59003 70060 84615 86458==
41943,2023,03,31,06,00,AAXX 31064 41943 02430 72103 10300 20250 30111 40119 84520 333 58008 70060 84616 86458==
41943,2023,03,31,09,00,AAXX 31094 41943 02430 80000 10300 20250 30080 40087 8662/ 333 58008 70060 83710 84615 88458==
41943,2023,03,31,12,00,AAXX 31124 41943 02430 80000 10290 20250 30073 40080 8662/ 333 10310 58009 70060 83710 84615 88458==
41943,2023,03,31,15,00,AAXX 31154 41943 02430 80000 10253 20230 30085 40093 8662/ 333 58008 70060 83710 84615 88458==
41943,2023,03,31,18,00,AAXX 31184 41943 02430 80000 10234 20220 30090 40098 8662/ 333 58022 70060 83710 84615 88458==
41943,2023,03,31,21,00,AAXX 31214 41943 02430 80000 10230 20220 30087 40095 8662/ 333 58022 70060 83710 84615 88458==
41943,2023,04,01,00,00,AAXX 01004 41943 01430 80000 10210 20200 30067 40075 70522 8662/ 333 59021 70000 83710 84615 88458==
41943,2023,04,01,03,00,AAXX 01034 41943 01430 80000 10220 20200 30112 40120 70266 8762/ 333 20210 58002 70370 84710 84615 88458==
41943,2023,04,01,06,00,AAXX 01064 41943 02430 80000 10250 20210 30098 40105 8772/ 333 59013 70370 84710 84615 88458==
41943,2023,04,01,09,00,AAXX 01094 41943 02330 80000 10244 20210 30081 40088 8762/ 333 58001 70370 84710 84614 88458==
41943,2023,04,01,12,00,AAXX 01124 41943 02330 80000 10234 20210 30068 40075 8662/ 333 10254 59005 70370 83710 84614 88458==
41943,2023,04,01,15,00,AAXX 01154 41943 02430 60000 10228 20210 30078 40085 83520 333 59007 70370 83616 85458==
41943,2023,04,01,18,00,AAXX 01184 41943 02430 60000 10224 20200 30084 40091 83520 333 59006 70370 83616 85458==
41943,2023,04,01,21,00,AAXX 01214 41943 02430 60000 10214 20190 30078 40085 83520 333 59009 70370 83616 85458==
41943,2023,04,02,00,00,AAXX 02004 41943 02430 50000 10206 20200 30072 40080 83520 333 58005 70370 83616 84458==
41943,2023,04,02,03,00,AAXX 02034 41943 02435 50000 10254 20200 30091 40098 83520 333 20202 59021 70000 83616 84458==
41943,2023,04,02,06,00,AAXX 02064 41943 02435 50000 10294 20170 30085 40092 83520 333 59016 70000 83616 84458==
41943,2023,04,02,09,00,AAXX 02094 41943 02435 52302 10306 20180 30054 40061 83530 333 59027 70000 83616 84362==
41943,2023,04,02,12,00,AAXX 02124 41943 02935 00000 10280 20200 30047 40054 333 10314 59021 70000==
41943,2023,04,02,15,00,AAXX 02154 41943 02930 00000 10250 20210 30064 40071 333 59014 70000==
41943,2023,04,02,18,00,AAXX 02184 41943 02930 00000 10238 20210 30072 40079 333 59012 70000==
41943,2023,04,02,21,00,AAXX 02214 41943 32930 00000 10230 20220 30059 40066 333 59013 70000=
41943,2023,04,03,00,00,AAXX 03004 41943 02930 00000 10230 20220 30059 40066 333 59013 70000==
41943,2023,04,03,03,00,AAXX 03034 41943 02435 61302 10247 20210 30089 40096 83520 333 20210 59002 70000 83616 85458==
41943,2023,04,03,06,00,AAXX 03064 41943 02435 60000 10302 20210 30083 40090 83520 333 59002 70000 83616 85458==
41943,2023,04,03,09,00,AAXX 03094 41943 02435 62302 10320 20170 30058 40065 83520 333 58004 70000 85458==
41943,2023,04,03,12,00,AAXX 03124 41943 02435 50000 10278 20260 30052 40059 83520 333 10324 58005 70000 83616 84456==
41943,2023,04,03,15,00,AAXX 03154 41943 02930 00000 10246 20210 30081 40088 333 58017 70000==
41943,2023,04,03,18,00,AAXX 03184 41943 02930 00000 10235 20210 30080 40087 333 58008 70000==
41943,2023,04,03,21,00,AAXX 03214 41943 02930 00000 10230 20210 30071 40084 333 58010 70000==
41943,2023,04,04,00,00,AAXX 04004 41943 02930 00000 10224 20210 30075 40082 333 58016 70000==
41943,2023,04,04,03,00,AAXX 04034 41943 02435 60000 10236 20180 30100 40107 83520 333 20222 58011 70000 83616 84458==
41943,2023,04,04,06,00,AAXX 04064 41943 02440 51803 10320 20210 30092 40099 83520 333 58009 70000 83616 84458==
41943,2023,04,04,09,00,AAXX 04094 41943 02440 42304 10332 20210 30067 40074 84400 333 58009 70000 81618 83825==
41943,2023,04,04,12,00,AAXX 04124 41943 02940 02303 10305 20240 30056 40063 333 10332 58004 70000==
41943,2023,04,04,15,00,AAXX 04154 41943 02930 02302 10270 20250 30083 40090 333 58002 70000==
41943,2023,04,04,18,00,AAXX 04184 41943 02930 00000 10262 20240 30076 40083 333 59004 70000==
41943,2023,04,04,21,00,AAXX 04214 41943 02930 00000 10254 20240 30074 40082 333 59003 70000==
41943,2023,04,05,00,00,AAXX 05004 41943 02930 00000 10245 20230 30069 40076 333 58006 70000==
41943,2023,04,05,03,00,AAXX 05034 41943 02440 61803 10295 20250 30089 40096 83520 333 20242 59011 70000 83616 86458==
41943,2023,04,05,06,00,AAXX 05064 41943 02440 81804 10324 20230 30083 40090 8662/ 333 59009 70000 83710 84615 88458==
41943,2023,04,05,09,00,AAXX 05094 41943 02440 61802 10306 20240 30056 40063 84520 333 59011 70000 84616 85458==
41943,2023,04,05,12,00,AAXX 05124 41943 02440 61802 10280 20220 30067 40074 84520 333 10325 58011 70000 84616 84458==
41943,2023,04,05,15,00,AAXX 05154 41943 42930 00000 10254 20210 30090 40097 58007==
41943,2023,04,05,18,00,AAXX 05184 41943 02930 00000 10230 20220 30088 40095 333 58012 70000==
41943,2023,04,05,21,00,AAXX 05214 41943 02430 50000 10232 20210 30092 40099 83520 333 58018 70000 83616 84458==
41943,2023,04,06,00,00,AAXX 06004 41943 02930 00000 10234 20210 30095 40102 8762/ 333 58026 70000 84710 83614 88458==
41943,2023,04,06,03,00,AAXX 06034 41943 01440 60000 10288 20240 30118 40125 73520 333 20232 58029 70000 83616 85458==
41943,2023,04,06,06,00,AAXX 06064 41943 02440 61802 10318 20230 30110 40117 83520 333 58027 70000 83616 84458==
41943,2023,04,06,09,00,AAXX 06094 41943 02440 51802 10348 20210 30085 40092 83620 333 58029 70000 83616 84458==
41943,2023,04,06,12,00,AAXX 06124 41943 02435 60000 10294 20210 30078 40085 84520 333 10355 58011 70000 83616 85458==
41943,2023,04,06,15,00,AAXX 06154 41943 32430 00000 10254 20230 30103 40110 333 59013 70000=
41943,2023,04,06,18,00,AAXX 06184 41943 02930 00000 10232 20220 30103 40110 333 58015 70000==
41943,2023,04,06,21,00,AAXX 06214 41943 02430 40000 10214 20200 30103 40110 82530 333 58011 70000 82618 83362==
41944,2023,03,31,12,00,AAXX 31124 41944 NIL=
41944,2023,03,31,18,00,AAXX 31184 41944 NIL=
41944,2023,04,01,00,00,AAXX 01004 41944 NIL=
41944,2023,04,01,06,00,AAXX 01064 41944 NIL=
41944,2023,04,01,12,00,AAXX 01124 41944 NIL=
41944,2023,04,01,18,00,AAXX 01184 41944 NIL=
41944,2023,04,02,12,00,AAXX 02124 41944 NIL=
41944,2023,04,03,12,00,AAXX 03124 41944 NIL=
41944,2023,04,03,18,00,AAXX 03184 41944 NIL=
41944,2023,04,04,00,00,AAXX 04004 41944 NIL=
41944,2023,04,04,06,00,AAXX 04064 41944 NIL=
41944,2023,04,04,12,00,AAXX 04124 41944 NIL=
41944,2023,04,04,18,00,AAXX 04184 41944 NIL=
41944,2023,04,05,12,00,AAXX 05124 41944 NIL=
41944,2023,04,05,18,00,AAXX 05184 41944 NIL=
41946,2023,03,31,00,00,AAXX 31004 41946 11456 30000 10233 20200 30082 40086 69926 70196 83500 333 58001 70012 83618==
41946,2023,03,31,03,00,AAXX 31034 41946 02456 70000 10264 20220 30111 40116 82570 333 20226 58009 70012 82618 85460==
41946,2023,03,31,06,00,AAXX 31064 41946 01456 80000 10277 20230 30109 40114 71722 8592/ 333 58021 70012 83618 88459 81928==
41946,2023,03,31,09,00,AAXX 31094 41946 02456 60000 10286 20220 30082 40087 83370 333 58026 70012 82618 84459 81929==
41946,2023,03,31,12,00,AAXX 31124 41946 02/56 60000 10272 20220 30068 40073 85071 333 10287 58020 70012 83459 83360==
41946,2023,03,31,15,00,AAXX 31154 41946 02456 30000 10250 20230 30087 40092 83500 333 58005 70012 83618==
41946,2023,03,31,18,00,AAXX 31183 41946 02456 60000 10248 20230 30084 40089 82570 333 58005 70002 82618 85460==
41946,2023,03,31,21,00,AAXX 31214 41946 01350 82204 10215 20210 30074 40079 79592 8692/ 333 58005 70030 81709 83617 88459 81927==
41946,2023,04,01,00,00,AAXX 01004 41946 22456 70000 10213 20200 30080 40085 82570 333 59002 60217 70210 82618 85460==
41946,2023,04,01,03,00,AAXX 01034 41946 02456 80000 10222 20200 30109 40114 8252/ 333 20206 59002 70210 82618 88460==
41946,2023,04,01,06,00,AAXX 01064 41946 02456 80000 10263 20210 30104 40109 8252/ 333 59005 70210 82618 88460==
41946,2023,04,01,09,00,AAXX 01094 41946 02456 80000 10266 20220 30075 40080 8152/ 333 59007 70210 81618 88460==
41946,2023,04,01,12,00,AAXX 01124 41946 02456 60000 10258 20210 30069 40073 81570 333 10267 58001 70210 81618 84362==
41946,2023,04,01,15,00,AAXX 01154 41946 02556 20000 10234 20220 30079 40084 82100 333 59008 70210 82825==
41946,2023,04,01,18,00,AAXX 01184 41946 01/50 30000 10224 20210 30084 40089 70520 83030 333 58000 70210 83360==
41946,2023,04,02,00,00,AAXX 02004 41946 01/50 30000 10220 20210 30069 40074 70500 83030 333 59005 70180 83362==
41946,2023,04,02,03,00,AAXX 02034 41946 02956 00000 10260 20210 30087 40091 333 20208 59022 70000==
41946,2023,04,02,06,00,AAXX 02064 41946 02557 10000 10300 20210 30078 40083 81500 333 59026 70000 81620==
41946,2023,04,02,09,00,AAXX 02094 41946 42957 01801 10320 20180 30049 40054==
41946,2023,04,02,12,00,AAXX 02124 41946 02956 00000 10320 20180 30049 40054 333 10320 59028 70000==
41946,2023,04,02,15,00,AAXX 02154 41946 02956 00000 10250 20220 30062 40066 333 59017 70000==
41946,2023,04,02,18,00,AAXX 02184 41946 02956 00000 10258 20240 30061 40065 333 59023 70000==
41946,2023,04,02,21,00,AAXX 02214 41946 01940 00000 10249 20240 30053 40057 70500 333 59016 70000==
41946,2023,04,03,00,00,AAXX 03004 41946 01420 40000 10240 20230 30063 40067 71000 82530 333 59002 70000 82618==
41946,2023,04,03,03,00,AAXX 03033 41946 02956 02201 10260 20230 30087 40092 333 20230 58000 70000==
41946,2023,04,03,09,00,AAXX 03094 41946 02557 20000 10342 20120 30058 40062 82500 333 58009 70000 82620==
41946,2023,04,03,12,00,AAXX 03124 41946 02957 00000 10322 20160 30055 40059 333 10344 58014 70000==
41946,2023,04,03,15,00,AAXX 03154 41946 02956 00000 10262 20220 30072 40077 333 58010 70000==
41946,2023,04,03,18,00,AAXX 03184 41946 02956 00000 10270 20230 30070 40075 333 58009 70000==
41946,2023,04,03,21,00,AAXX 03214 41946 02956 00000 10263 20240 30063 40067 333 58010 70000==
41946,2023,04,04,00,00,AAXX 04004 41946 02956 00000 10260 20240 30067 40071 333 58004 70000==
41946,2023,04,04,03,00,AAXX 04034 41946 02556 41802 10295 20250 30092 40096 84500 333 20255 58005 70000 84620==
41946,2023,04,04,06,00,AAXX 04064 41946 02957 01802 10330 20230 30079 40083 333 58002 70000==
41946,2023,04,04,09,00,AAXX 04094 41946 02557 10000 10346 20230 30063 40067 81500 333 58005 70000 81620==
41946,2023,04,04,12,00,AAXX 04124 41946 02956 00000 10320 20230 30052 40056 333 10348 59003 70000==
41946,2023,04,04,15,00,AAXX 04154 41946 02956 01803 10286 20250 30070 40075 333 59002 70000==
41946,2023,04,04,18,00,AAXX 04184 41946 02/56 62202 10280 20260 30077 40082 86020 333 58007 70000 86459==
41946,2023,04,04,21,00,AAXX 04213 41946 02456 62002 10277 20250 30061 40066 83530 333 59002 70000 83618 85360==
41946,2023,04,05,00,00,AAXX 05004 41946 02356 52204 10273 20250 30050 40054 85600 333 59017 70000 82710 84617==
41946,2023,04,05,03,00,AAXX 05034 41946 02556 42202 10300 20250 30082 40087 84500 333 20267 59010 70000 84620==
41946,2023,04,05,06,00,AAXX 05064 41946 42556 40000 10330 20230 30077 40081 84400 333 59002 83620==
41946,2023,04,05,09,00,AAXX 05093 41946 02557 10000 10348 20220 30052 40056 81500 333 59011 70000 81620==
41946,2023,04,05,12,00,AAXX 05124 41946 02556 10000 10315 20260 30049 40053 81500 333 10348 59003 70000 81620==
41946,2023,04,05,15,00,AAXX 05154 41946 02956 00000 10269 20230 30081 40085 333 58011 70000==
41946,2023,04,05,18,00,AAXX 05184 41946 02956 00000 10272 20250 30085 40090 333 58008 70000==
41946,2023,04,05,21,00,AAXX 05214 41946 01940 00000 10266 20260 30077 40082 70500 333 58016 70000==
41946,2023,04,06,00,00,AAXX 06004 41946 01920 10000 10260 20250 30089 40093 71000 80001 333 58039 70000 81080==
41946,2023,04,06,03,00,AAXX 06034 41946 01956 00000 10300 20230 30111 40115 70140 333 20255 58029 70000==
41946,2023,04,06,06,00,AAXX 06064 41946 02957 00000 10350 20200 30105 40110 333 58028 70000==
41946,2023,04,06,09,00,AAXX 06094 41946 02957 00000 10361 20140 30084 40089 333 58032 70000==
41946,2023,04,06,12,00,AAXX 06124 41946 02956 00000 10320 20200 30076 40080 333 10362 58027 70000==
41946,2023,04,06,15,00,AAXX 06154 41946 02956 00000 10267 30094 40099 333 58013 70000==
41946,2023,04,06,18,00,AAXX 06184 41946 02956 00000 10276 20260 30099 40104 333 58014 70000==
41946,2023,04,06,21,00,AAXX 06214 41946 02956 00000 10267 20260 30090 40095 333 58013 70000==
41947,2023,03,31,00,00,AAXX 31004 41947 11450 61402 10240 20220 30088 40090 69966 70296 83570 333 58000 70006 83618 86458==
41947,2023,03,31,03,00,AAXX 31034 41947 02456 70000 10260 20210 30106 40108 83570 333 20228 58006 70006 83618 85459==
41947,2023,03,31,06,00,AAXX 31064 41947 02456 80000 10283 20210 30107 40109 8352/ 333 58016 70006 83618 88459==
41947,2023,03,31,09,00,AAXX 31094 41947 02456 71502 10295 20230 30083 40085 84470 333 58009 70006 83618 86459==
41947,2023,03,31,12,00,AAXX 31124 41947 02456 50000 10282 20230 30073 40075 82570 333 10297 58007 70006 82618 84459==
41947,2023,03,31,15,00,AAXX 31154 41947 02/56 30000 10255 20240 30084 40086 83030 333 58000 70006 83362==
41947,2023,03,31,18,00,AAXX 31184 41947 02456 70000 10253 20240 30088 40090 83510 333 59002 70006 83618 87459==
41947,2023,03,31,21,00,AAXX 31214 41947 01350 83202 10252 20240 30077 40080 79522 8592/ 333 59011 70006 82709 84616 88459 81928==
41947,2023,04,01,00,00,AAXX 01004 41947 21450 80502 10218 20210 30079 40081 70296 8432/ 333 59009 60197 70190 83618 88458 81928==
41947,2023,04,01,03,00,AAXX 01034 41947 02456 80000 10230 20210 30096 40099 8352/ 333 20210 59009 70190 83618 88459==
41947,2023,04,01,06,00,AAXX 01064 41947 02456 70000 10250 20220 30096 40099 83570 333 59010 70190 83618 84459==
41947,2023,04,01,09,00,AAXX 01094 41947 02456 80000 10260 20220 30072 40074 8352/ 333 59011 70190 83618 88459==
41947,2023,04,01,12,00,AAXX 01124 41947 02456 80000 10263 20210 30065 40068 8352/ 333 10277 59007 70190 83618 88459==
41947,2023,04,01,15,00,AAXX 01154 41947 02450 30000 10245 20230 30077 40079 83500 333 59007 70190 83618==
41947,2023,04,01,18,00,AAXX 01184 41947 02450 60000 10235 20210 30081 40083 82570 333 59007 70190 82618 85459==
41947,2023,04,02,00,00,AAXX 02004 41947 02450 20000 10230 20220 30064 40066 82500 333 59014 70184 82618==
41947,2023,04,02,03,00,AAXX 02034 41947 02956 00000 10265 20200 30081 40084 333 20220 59013 70000==
41947,2023,04,02,06,00,AAXX 02064 41947 02456 40000 10290 20210 30079 40082 84500 333 59017 70000 84618==
41947,2023,04,02,09,00,AAXX 02094 41947 02956 00000 10320 20200 30048 40050 333 59024 70000==
41947,2023,04,02,12,00,AAXX 02124 41947 02956 00000 10307 20210 30041 40043 333 10325 59025 70000==
41947,2023,04,02,15,00,AAXX 02154 41947 02950 00000 10270 20220 30052 40054 333 59019 70000==
41947,2023,04,02,18,00,AAXX 02184 41947 02950 00000 10260 20220 30064 40066 333 59017 70000==
41947,2023,04,02,21,00,AAXX 02214 41947 02950 00000 10250 20230 30051 40053 333 59013 70000==
41947,2023,04,03,00,00,AAXX 03004 41947 02450 40000 10240 20240 30054 40056 82530 333 59014 70000 82618 83362==
41947,2023,04,03,03,00,AAXX 03034 41947 02956 00000 10295 20230 30078 40081 333 20235 59003 70000==
41947,2023,04,03,06,00,AAXX 03064 41947 02956 00000 10330 20160 30078 40081 333 59001 70000==
41947,2023,04,03,09,00,AAXX 03094 41947 02957 03202 10342 20140 30060 40062 333 58012 70000==
41947,2023,04,03,12,00,AAXX 03124 41947 02956 00000 10325 20190 30060 40062 333 10345 58019 70000==
41947,2023,04,03,15,00,AAXX 03154 41947 02950 01802 10280 20210 30085 40087 333 58032 70000==
41947,2023,04,03,18,00,AAXX 03184 41947 02950 01802 10270 20210 30084 40086 333 58020 70000==
41947,2023,04,03,21,00,AAXX 03214 41947 02950 01802 10260 20230 30075 40077 333 58024 70000==
41947,2023,04,04,00,00,AAXX 04004 41947 02950 00000 10254 20240 30070 40072 333 58002 70000==
41947,2023,04,04,03,00,AAXX 04034 41947 02456 62302 10290 20250 30086 40088 84530 333 20250 58007 70000 84618==
41947,2023,04,04,06,00,AAXX 04064 41947 02456 42304 10334 20240 30083 40085 84500 333 58004 70000 84618==
41947,2023,04,04,09,00,AAXX 04094 41947 02457 32504 10352 20210 30058 40060 83400 333 59002 70000 82618==
41947,2023,04,04,12,00,AAXX 04124 41947 02456 12103 10324 20230 30048 40050 81500 333 10355 59012 70000 81618==
41947,2023,04,04,15,00,AAXX 04154 41947 02456 22305 10286 20260 30070 40073 82500 333 59014 70000 82618==
41947,2023,04,04,18,00,AAXX 04184 41947 02456 82303 10276 20260 30072 40074 8352/ 333 59014 70000 83618 88459==
41947,2023,04,04,21,00,AAXX 04214 41947 02456 62303 10272 20260 30050 40052 83520 333 59025 70000 83618 86459==
41947,2023,04,05,00,00,AAXX 05004 41947 02456 52303 10270 20260 30052 40054 85500 333 59018 70000 85618==
41947,2023,04,05,03,00,AAXX 05034 41947 02456 62304 10300 20250 30075 40077 84530 333 20265 59011 70000 84618==
41947,2023,04,05,06,00,AAXX 05064 41947 02456 62702 10330 20240 30073 40076 84530 333 59009 70000 84618==
41947,2023,04,05,09,00,AAXX 05093 41947 02956 00000 10345 20300 30048 40051 333 59009 70000==
41947,2023,04,05,12,00,AAXX 05124 41947 02956 00000 10330 20230 30042 40044 333 10347 59006 70000==
41947,2023,04,05,15,00,AAXX 05154 41947 02950 00000 10280 20250 30072 40075 333 59002 70000==
41947,2023,04,05,18,00,AAXX 05184 41947 02950 00000 10270 20250 30091 40094 333 58020 70000==
41947,2023,04,05,21,00,AAXX 05214 41947 02950 00000 10265 20260 30085 40087 333 58035 70000==
41947,2023,04,06,00,00,AAXX 06004 41947 02950 00000 10262 20260 30080 40082 333 58028 70000==
41947,2023,04,06,03,00,AAXX 06034 41947 02956 00000 10305 20240 30105 40108 333 20255 59031 70000==
41947,2023,04,06,06,00,AAXX 06064 41947 02956 00000 10340 20200 30102 40105 333 58029 70000==
41947,2023,04,06,09,00,AAXX 06094 41947 02957 00000 10364 20120 30070 40072 333 58021 70000==
41947,2023,04,06,12,00,AAXX 06124 41947 02957 00000 10335 20180 30070 40072 333 10365 58026 70000==
41947,2023,04,06,15,00,AAXX 06154 41947 02950 00000 10275 20200 30089 40091 333 58016 70000==
41947,2023,04,06,18,00,AAXX 06184 41947 02950 00000 10268 20220 30098 40100 333 58006 70000==
41947,2023,04,06,21,00,AAXX 06214 41947 02950 00000 10260 20240 30084 40086 333 58001 70000==
41950,2023,03,31,00,00,AAXX 31004 41950 01350 80000 10215 20210 30086 40089 70522 8562/ 333 59007 70020 82708 84616 88458==
41950,2023,03,31,03,00,AAXX 31034 41950 02450 51202 10260 20200 30115 40118 82531 333 20213 59001 70020 82617 83362==
41950,2023,03,31,06,00,AAXX 31064 41950 02450 60000 10285 20220 30116 40119 83570 333 58008 70020 83617 85459==
41950,2023,03,31,09,00,AAXX 31094 41950 02450 71802 10307 20230 30083 40086 83570 333 58015 70020 83617 86459==
41950,2023,03,31,12,00,AAXX 31124 41950 02350 80000 10284 20230 30078 40081 8562/ 333 10307 58018 70020 82708 84616 88458==
41950,2023,03,31,15,00,AAXX 31154 41950 02950 20000 10248 20240 30091 40094 82500 333 58003 70000 82617==
41950,2023,03,31,18,00,AAXX 31184 41950 02950 60000 10240 20230 30093 40096 83570 333 58008 70000 83616 84459==
41950,2023,03,31,21,00,AAXX 31214 41950 02450 80000 10240 20240 30085 40087 8562/ 333 58002 70000 82708 84616 88458==
41950,2023,04,01,00,00,AAXX 01004 41950 01340 83605 10212 20200 30090 40093 79591 8562/ 333 58004 70070 82708 84616 88458 81925==
41950,2023,04,01,03,00,AAXX 01034 41950 01350 80000 10224 20210 30107 40110 70266 8562/ 333 20206 59008 70084 82708 84616 88458==
41950,2023,04,01,06,00,AAXX 01064 41950 11350 80000 10247 20220 30102 40104 60016 70262 8562/ 333 59014 70084 82708 84616 88458==
41950,2023,04,01,09,00,AAXX 01094 41950 02350 80000 10257 20210 30085 40087 8562/ 333 58002 70084 82708 84516 88458==
41950,2023,04,01,12,00,AAXX 01124 41950 02350 80000 10253 20220 30074 40076 333 10263 59004 70084 82708 84616 88458==
41950,2023,04,01,15,00,AAXX 01154 41950 02450 60000 10237 20220 30081 40083 82530 333 59010 70084 82617 85362==
41950,2023,04,01,18,00,AAXX 01184 41950 02950 00000 10219 20210 30084 40086 333 59009 70084==
41950,2023,04,01,21,00,AAXX 01214 41950 02450 30000 10220 20210 30073 40075 82530 333 59012 70084 82617==
41950,2023,04,02,00,00,AAXX 02004 41950 02450 70000 10227 20227 30071 40073 83570 333 59019 70012 83617 85459==
41950,2023,04,02,03,00,AAXX 02034 41950 02450 20000 10263 20200 30097 40099 82500 333 20205 59010 70000 82617==
41950,2023,04,02,06,00,AAXX 02064 41950 02450 50000 10307 20210 30089 40092 84431 333 59013 70000 83617==
41950,2023,04,02,09,00,AAXX 02094 41950 02450 33202 10322 20180 30055 40058 83400 333 59030 70000 83617==
41950,2023,04,02,12,00,AAXX 02124 41950 02450 30000 10290 20200 30049 40052 82530 333 10324 59025 70000 82617==
41950,2023,04,02,15,00,AAXX 02154 41950 02950 00000 10250 20200 30068 40070 333 59013 70000==
41950,2023,04,02,18,00,AAXX 02184 41950 02950 00000 10233 20210 30067 40069 333 59017 70000==
41950,2023,04,02,21,00,AAXX 02214 41950 31435 10000 10237 20237 30064 40066 70510 81500 333 56700 59007 70000 81617=
41950,2023,04,03,00,00,AAXX 03004 41950 01435 10000 10237 20237 30064 40066 70510 81500 333 59007 70000 81617==
41950,2023,04,03,03,00,AAXX 03034 41950 01445 42302 10288 20250 30088 40091 70511 84400 333 20225 59009 70000 83618==
41950,2023,04,03,06,00,AAXX 03064 41950 02450 32004 10326 20210 30087 40089 83400 333 59002 70000 83617==
41950,2023,04,03,09,00,AAXX 03094 41950 02450 42802 10340 20130 30059 40061 84400 333 58004 70000 83617==
41950,2023,04,03,12,00,AAXX 03124 41950 02950 00000 10289 20180 30062 40064 333 10343 58013 70000==
41950,2023,04,03,15,00,AAXX 03154 41950 02950 00000 10247 20220 30082 40085 333 58014 70000==
41950,2023,04,03,18,00,AAXX 03184 41950 02950 00000 10250 20250 30080 40082 333 58013 70000==
41950,2023,04,03,21,00,AAXX 03214 41950 02350 81802 10253 20250 30075 40077 8562/ 333 58013 70000 82708 84616 88458==
41950,2023,04,04,00,00,AAXX 04004 41950 02350 80000 10258 20250 30077 40079 8562/ 333 58013 70000 82708 84616 88458==
41950,2023,04,04,03,00,AAXX 04034 41950 02450 51807 10290 20250 30101 40103 83570 333 20240 59013 70000 83616 84459==
41950,2023,04,04,06,00,AAXX 04064 41950 02450 41805 10325 20230 30093 40096 83530 333 58006 70000 83616==
41950,2023,04,04,09,00,AAXX 04094 41950 02450 41803 10340 20220 30062 40064 84400 333 58003 70000 83617==
41950,2023,04,04,12,00,AAXX 04124 41950 02450 30000 10306 20250 30059 40061 83400 333 10343 59003 70000 82617==
41950,2023,04,04,15,00,AAXX 04154 41950 02950 00000 10270 20250 30078 40080 333 59004 70000==
41950,2023,04,04,18,00,AAXX 04184 41950 02950 00000 10260 20250 30077 40080 333 59003 70000==
41950,2023,04,04,21,00,AAXX 04214 41950 02450 50000 10262 20250 30060 40063 83510 333 59015 70000 83617 85459==
41950,2023,04,05,00,00,AAXX 05004 41950 02350 80000 10260 20250 30063 40066 8562/ 333 59014 70000 82708 84616 88458==
41950,2023,04,05,03,00,AAXX 05034 41950 02450 51805 10297 20250 30085 40087 83570 333 20255 59018 70000 83616 84459==
41950,2023,04,05,06,00,AAXX 05064 41950 02450 61905 10317 20250 30085 40088 83570 333 59008 70000 83616 84459==
41950,2023,04,05,09,00,AAXX 05094 41950 02456 22102 10340 20230 30056 40058 82400 333 59006 70000 82617==
41950,2023,04,05,12,00,AAXX 05124 41950 02450 10000 10307 20250 30062 40064 81400 333 10348 59003 70000 81617==
41950,2023,04,05,15,00,AAXX 05154 41950 02950 01802 10284 20260 30088 40091 333 58010 70000==
41950,2023,04,05,18,00,AAXX 05184 41950 02950 00000 10270 20260 30091 40094 333 58014 70000==
41950,2023,04,05,21,00,AAXX 05214 41950 02950 00000 10263 20250 30085 40087 333 58025 70000==
41950,2023,04,06,00,00,AAXX 06004 41950 02350 80000 10263 20250 30085 40087 8562/ 333 58022 70000 82708 84616 88458==
41950,2023,04,06,03,00,AAXX 06034 41950 02350 50000 10290 20240 30119 40121 85600 333 20260 58034 70000 81708 84616==
41950,2023,04,06,06,00,AAXX 06064 41950 02456 40000 10332 20230 30113 40116 84400 333 58028 70000 84616==
41950,2023,04,06,09,00,AAXX 06094 41950 02456 20000 10357 20160 30091 40094 82400 333 58035 70000 82616==
41950,2023,04,06,12,00,AAXX 06124 41950 02950 00000 10313 20190 30081 40084 333 10358 58019 70000==
41950,2023,04,06,15,00,AAXX 06154 41950 02950 00000 10280 20210 30101 40104 333 58013 70000==
41950,2023,04,06,18,00,AAXX 06184 41950 02450 10000 10261 20240 30105 40107 81500 333 58014 70000 81617==
41950,2023,04,06,21,00,AAXX 06214 41950 02450 20000 10253 20240 30102 40104 82500 333 58017 70000 82617==
41951,2023,03,31,00,00,AAXX 31004 41951 02440 81303 10216 20210 30080 40085 8452/ 333 59011 70010 84618 88458==
41951,2023,03,31,03,00,AAXX 31034 41951 02450 61304 10260 20210 30101 40106 82510 333 20214 59005 70010 82618 84459==
41951,2023,03,31,06,00,AAXX 31064 41951 02456 51102 10295 20230 30112 40117 82510 333 58009 70010 82618 84459==
41951,2023,03,31,09,00,AAXX 31094 41951 02450 71202 10300 20220 30091 40096 83510 333 58020 70010 83618 86459==
41951,2023,03,31,12,00,AAXX 31124 41951 02450 61202 10280 20240 30082 40087 83510 333 10307 58022 70000 83618 85459==
41951,2023,03,31,15,00,AAXX 31154 41951 02450 50000 10248 20240 30085 40090 82510 333 59002 70000 82618 84459==
41951,2023,03,31,18,00,AAXX 31184 41951 01430 60000 10242 20230 30087 40092 70520 83510 333 58006 70000 83618 85459==
41951,2023,03,31,21,00,AAXX 31214 41951 01430 60000 10236 20230 30088 40093 70522 83510 333 58007 70000 83618 85459==
41951,2023,04,01,00,00,AAXX 01004 41951 01330 81304 10208 20200 30094 40099 79596 8692/ 333 58014 70270 82708 84618 88458 82925==
41951,2023,04,01,03,00,AAXX 01034 41951 01340 80000 10230 20220 30098 40103 70262 8462/ 333 20204 59003 70275 81706 84618 88458==
41951,2023,04,01,06,00,AAXX 01064 41951 01340 81202 10258 20220 30099 40104 70262 8562/ 333 58008 70008 81709 88458==
41951,2023,04,01,09,00,AAXX 01094 41951 01340 81303 10253 20220 30080 40085 76122 8672/ 333 59011 70276 82708 84618 88458==
41951,2023,04,01,12,00,AAXX 01124 41951 21340 80000 10248 20230 30069 40074 70262 8562/ 333 10265 59013 69915 70276 81709 84618 88458==
41951,2023,04,01,15,00,AAXX 01154 41951 02340 80000 10233 20230 30081 40086 8562/ 333 59004 70276 81709 84618 88458==
41951,2023,04,01,18,00,AAXX 01184 41951 01440 30000 10223 20210 30081 40086 70520 83500 333 59006 70276 83618==
41951,2023,04,02,00,00,AAXX 02004 41951 01440 50000 10216 20216 30070 40075 70522 82510 333 59024 70009 82618 84459==
41951,2023,04,02,03,00,AAXX 02034 41951 02456 32202 10272 20190 30088 40093 83500 333 20204 59010 70001 83618==
41951,2023,04,02,06,00,AAXX 02064 41951 02456 52703 10312 20200 30086 40091 82510 333 59013 70001 82618 84459==
41951,2023,04,02,09,00,AAXX 02094 41951 02456 31202 10307 20210 30054 40059 83500 333 59026 70000 83618==
41951,2023,04,02,12,00,AAXX 02124 41951 02456 31002 10282 20240 30054 40059 83500 333 10318 59015 70000 83618==
41951,2023,04,02,15,00,AAXX 02154 41951 02450 20000 10245 20230 30067 40072 82500 333 59014 70000 82618==
41951,2023,04,02,18,00,AAXX 02184 41951 02450 20000 10240 20230 30068 40073 82500 333 59013 70000 82618==
41951,2023,04,02,21,00,AAXX 02214 41951 02950 00000 10234 20220 30065 40070 333 59012 70000==
41951,2023,04,03,00,00,AAXX 03004 41951 02450 30000 10238 20238 30063 40068 83500 333 59007 70000 83618==
41951,2023,04,03,03,00,AAXX 03034 41951 02456 62206 10292 20250 30083 40088 83510 333 20224 59005 70000 83618 85459==
41951,2023,04,03,06,00,AAXX 03064 41951 02456 42904 10320 20220 30082 40087 84400 333 59004 70000 82618 83825==
41951,2023,04,03,09,00,AAXX 03094 41951 02456 41304 10338 20190 30061 40066 84400 333 58007 70000 82618 83825==
41951,2023,04,03,12,00,AAXX 03124 41951 02456 20000 10284 20210 30063 40067 82500 333 10342 58009 70000 82618==
41951,2023,04,03,15,00,AAXX 03154 41951 02950 00000 10258 20230 30082 40087 333 58015 70000==
41951,2023,04,03,18,00,AAXX 03184 41951 02450 21302 10258 20250 30074 40079 82500 333 58006 70000 82618==
41951,2023,04,03,21,00,AAXX 03214 41951 02450 41302 10260 20250 30072 40077 84400 333 58007 70000 82618 83825==
41951,2023,04,04,00,00,AAXX 04004 41951 02450 61302 10262 20250 30075 40080 83510 333 58012 70000 83618 85459==
41951,2023,04,04,03,00,AAXX 04034 41951 02456 62205 10293 20250 30093 40098 83510 333 20245 58010 70000 83618 85459==
41951,2023,04,04,06,00,AAXX 04064 41951 02456 52206 10336 20240 30088 40093 85400 333 58006 70000 82618 84825==
41951,2023,04,04,09,00,AAXX 04094 41951 02456 51906 10340 20230 30063 40068 82510 333 58002 70000 82618 84459==
41951,2023,04,04,12,00,AAXX 04124 41951 02456 31303 10310 20250 30061 40066 83500 333 10347 59002 70000 83618==
41951,2023,04,04,15,00,AAXX 04154 41951 02950 02702 10272 20250 30080 40085 333 59002 70000==
41951,2023,04,04,18,00,AAXX 04184 41951 02450 31802 10262 20250 30078 40083 83500 333 58004 70000 83618==
41951,2023,04,04,21,00,AAXX 04214 41951 02450 20000 10258 20250 30088 40093 82500 333 58016 70000 82618==
41951,2023,04,05,00,00,AAXX 05004 41951 02950 00000 10256 20256 30111 40116 333 58036 70000==
41951,2023,04,05,03,00,AAXX 05034 41951 02456 61804 10296 20260 30080 40085 83510 333 20250 59013 70000 83618 85459==
41951,2023,04,05,06,00,AAXX 05064 41951 02456 61303 10332 20250 30080 40085 83510 333 59008 70000 83618 85459==
41951,2023,04,05,09,00,AAXX 05094 41951 02456 61609 10312 20240 30058 40063 83510 333 59005 70000 83618 85459==
41951,2023,04,05,12,00,AAXX 05124 41951 02456 31203 10287 20240 30061 40065 83500 333 10336 58000 70000 83618==
41951,2023,04,05,15,00,AAXX 05154 41951 02450 31802 10268 20250 30088 40093 83500 333 58008 70000 83618==
41951,2023,04,05,18,00,AAXX 05184 41951 02950 00000 10263 20260 30087 40092 333 58009 70000==
41951,2023,04,05,21,00,AAXX 05214 41951 02450 50000 10264 20250 30089 40094 82510 333 58022 70000 82618 84459==
41951,2023,04,06,00,00,AAXX 06004 41951 02440 80000 10266 20266 30090 40095 8452/ 333 58026 70000 84618 88459==
41951,2023,04,06,03,00,AAXX 06034 41951 02456 60000 10300 20260 30111 40116 83510 333 20255 58031 70000 83618 85459==
41951,2023,04,06,06,00,AAXX 06064 41951 02456 52403 10331 20250 30110 40115 82510 333 58030 70000 82618 84459==
41951,2023,04,06,09,00,AAXX 06094 41951 02456 60302 10330 20250 30084 40089 83510 333 58026 70000 83618 85459==
41951,2023,04,06,12,00,AAXX 06124 41951 02456 20000 10307 20260 30079 40084 82500 333 10340 58018 70000 82618==
41951,2023,04,06,15,00,AAXX 06154 41951 02950 00000 10264 20220 30103 40108 333 58015 70000==
41951,2023,04,06,18,00,AAXX 06184 41951 02450 30000 10247 20240 30104 40109 83500 333 58017 70000 83618==
41951,2023,04,06,21,00,AAXX 06214 41951 01940 00000 10244 20230 30103 40108 70500 333 58014 70000==
41953,2023,03,31,00,00,AAXX 31004 41953 21440 60902 10202 20200 30094 40099 70162 82570 333 59004 60045 70040 82618 84458==
41953,2023,03,31,03,00,AAXX 31034 41953 02450 30902 10264 20190 30115 40120 82530 333 20200 59002 70040 82618==
41953,2023,03,31,06,00,AAXX 31064 41953 02450 71302 10304 20220 30112 40117 83510 333 58007 70040 83616 86458==
41953,2023,03,31,09,00,AAXX 31094 41953 02450 61302 10303 20210 30091 40096 83570 333 58019 70040 83616 84458==
41953,2023,03,31,12,00,AAXX 31124 41953 02440 80000 10274 20240 30079 40084 8352/ 333 10313 58011 70040 83616 88458==
41953,2023,03,31,15,00,AAXX 31154 41953 02430 30000 10255 20240 30089 40094 83500 333 58002 70040 83618==
41953,2023,03,31,18,00,AAXX 31184 41953 02430 30000 10250 20230 30091 40096 83500 333 58003 70040 83618==
41953,2023,03,31,21,00,AAXX 31214 41953 02430 83104 10235 20230 30092 40097 8452/ 333 58001 70040 84616 88458==
41953,2023,04,01,00,00,AAXX 01004 41953 01430 83108 10224 20210 30096 40101 79792 8692/ 333 58002 70060 84614 88458 82925==
41953,2023,04,01,03,00,AAXX 01034 41953 01440 80506 10232 20210 30107 40112 70296 8532/ 333 20218 59008 70140 84615 88458 81930==
41953,2023,04,01,06,00,AAXX 01064 41953 11440 80502 10246 20180 30102 40107 60086 70296 8452/ 333 59010 70140 84616 88458==
41953,2023,04,01,09,00,AAXX 01094 41953 02440 81302 10254 20210 30084 40089 8452/ 333 59007 70140 84616 88458==
41953,2023,04,01,12,00,AAXX 01124 41953 02440 81301 10236 20220 30075 40080 8352/ 333 10255 59004 70140 83616 88458==
41953,2023,04,01,15,00,AAXX 01154 41953 02430 40000 10228 20220 30082 40087 82530 333 59007 70140 82618 83362==
41953,2023,04,01,18,00,AAXX 01184 41953 42430 40000 10224 20210 30086 40091 83530==
41953,2023,04,02,00,00,AAXX 02004 41953 01430 80000 10222 20220 30083 40088 70522 8352/ 333 59009 70140 83616 88458==
41953,2023,04,02,03,00,AAXX 02034 41953 01550 20000 10290 20210 30095 40100 70521 82100 333 20210 59012 70000 82825==
41953,2023,04,02,06,00,AAXX 02064 41953 02450 42206 10306 20200 30091 40096 84400 333 59011 70000 83618==
41953,2023,04,02,09,00,AAXX 02094 41953 02450 40000 10315 20210 30057 40062 84400 333 59027 70000 83618==
41953,2023,04,02,12,00,AAXX 02124 41953 02950 01305 10275 20230 30054 40059 333 10320 59021 70000==
41953,2023,04,02,15,00,AAXX 02154 41953 02940 01804 10250 20240 30070 40075 333 59012 70000==
41953,2023,04,02,18,00,AAXX 02184 41953 02930 01804 10245 20240 30075 40080 333 59011 70000==
41953,2023,04,02,21,00,AAXX 02214 41953 02930 00000 10234 20220 30076 40081 333 59007 70000==
41953,2023,04,03,00,00,AAXX 03004 41953 02940 00000 10230 20230 30064 40069 333 59014 70000==
41953,2023,04,03,03,00,AAXX 03034 41953 02450 40000 10300 20250 30090 40095 84400 333 20228 59005 70000 83618==
41953,2023,04,03,06,00,AAXX 03064 41953 02450 41803 10330 20230 30085 40090 84400 333 59006 70000 82618 83825==
41953,2023,04,03,09,00,AAXX 03094 41953 02450 32702 10330 20200 30070 40075 83400 333 58013 70000 82618==
41953,2023,04,03,12,00,AAXX 03124 41953 02450 30000 10300 20220 30067 40072 83400 333 10332 58013 70000 82618==
41953,2023,04,03,15,00,AAXX 03154 41953 02940 01302 10250 20230 30082 40087 333 58012 70000==
41953,2023,04,03,18,00,AAXX 03184 41953 01930 00000 10254 20230 30085 40090 70510 333 58010 70000 80000==
41953,2023,04,03,21,00,AAXX 03214 41953 01430 31801 10242 20230 30083 40088 70511 83500 333 58007 70000 83618==
41953,2023,04,04,00,00,AAXX 04004 41953 01/40 30000 10246 20240 30084 40089 70511 83030 333 58020 70000 83362==
41953,2023,04,04,03,00,AAXX 04034 41953 01450 31802 10306 20250 30102 40107 70511 83400 333 20240 58012 70000 82618==
41953,2023,04,04,06,00,AAXX 04064 41953 01450 43103 10333 20240 30097 40102 70521 84400 333 58012 70000 83618==
41953,2023,04,04,09,00,AAXX 04094 41953 01450 40000 10340 20250 30069 40074 70522 84400 333 59001 70000 83616==
41953,2023,04,04,12,00,AAXX 04124 41953 01450 30000 10310 20250 30061 40066 70521 83400 333 10340 59006 70000 82616==
41953,2023,04,04,15,00,AAXX 04154 41953 01440 40000 10270 20250 30082 40087 70522 82520 333 58000 70000 82616 84458==
41953,2023,04,04,18,00,AAXX 04184 41953 01440 60000 10260 20250 30080 40085 70522 82520 333 59005 70000 82616 86458==
41953,2023,04,04,21,00,AAXX 04214 41953 01440 60000 10254 20240 30075 40080 70522 82520 333 59008 70000 82616 86458==
41953,2023,04,05,00,00,AAXX 05004 41953 01440 80000 10255 20250 30069 40074 70522 8352/ 333 59015 70000 83616 88458==
41953,2023,04,05,03,00,AAXX 05034 41953 01450 62304 10300 20250 30091 40096 70522 83616 333 20250 59011 70000 83616 84458==
41953,2023,04,05,06,00,AAXX 05064 41953 01450 62003 10325 20260 30087 40092 70522 83520 333 59010 70000 83616 86458==
41953,2023,04,05,09,00,AAXX 05093 41953 01450 50000 10280 20230 30060 40065 70522 83420 333 59009 70000 82616 85458==
41953,2023,04,05,12,00,AAXX 05124 41953 21450 50000 10280 20260 30065 40070 70562 82520 333 10330 58004 60025 70020 82616 85458==
41953,2023,04,05,15,00,AAXX 05154 41953 01440 50000 10250 20230 30091 40096 70522 82520 333 58009 70020 82616 85458==
41953,2023,04,05,18,00,AAXX 05184 41953 01440 50000 10245 20240 30091 40096 70522 82520 333 58011 70020 82616 85458==
41953,2023,04,05,21,00,AAXX 05214 41953 01440 50000 10240 20230 30083 40088 70522 82520 333 58008 70020 82616 85458==
41953,2023,04,06,00,00,AAXX 06004 41953 01430 80000 10250 20250 30099 40104 70522 8352/ 333 58030 70020 83616 88458==
41953,2023,04,06,03,00,AAXX 06034 41953 01450 50000 10295 20260 30121 40126 70522 82520 333 20240 58030 70020 82616 85458==
41953,2023,04,06,06,00,AAXX 06064 41953 01450 50000 10330 20240 30115 40120 70522 82520 333 58028 70020 82616 85458==
41953,2023,04,06,09,00,AAXX 06094 41953 01450 42703 10348 20210 30090 40095 70522 84400 333 58030 70020 83616==
41953,2023,04,06,12,00,AAXX 06124 41953 01450 41303 10260 20210 30085 40090 70522 82520 333 10350 58020 70000 82616 84458==
41953,2023,04,06,15,00,AAXX 06154 41953 01440 50000 10240 20220 30104 40109 70522 82520 333 58013 70000 82616 85458==
41953,2023,04,06,18,00,AAXX 06184 41953 01440 50000 10235 20230 30107 40112 70522 82520 333 58016 70000 82616 85458==
41953,2023,04,06,21,00,AAXX 06214 41953 01440 50000 10230 20220 30100 40105 70500 82520 333 58017 70000 82616 85458==
41955,2023,03,31,12,00,AAXX 31124 41955 NIL=
41955,2023,03,31,18,00,AAXX 31184 41955 NIL=
41955,2023,04,01,00,00,AAXX 01004 41955 NIL=
41955,2023,04,01,06,00,AAXX 01064 41955 NIL=
41955,2023,04,01,12,00,AAXX 01124 41955 NIL=
41955,2023,04,01,18,00,AAXX 01184 41955 NIL=
41955,2023,04,02,12,00,AAXX 02124 41955 NIL=
41955,2023,04,03,12,00,AAXX 03124 41955 NIL=
41955,2023,04,03,18,00,AAXX 03184 41955 NIL=
41955,2023,04,04,00,00,AAXX 04004 41955 NIL=
41955,2023,04,04,06,00,AAXX 04064 41955 NIL=
41955,2023,04,04,12,00,AAXX 04124 41955 NIL=
41955,2023,04,04,18,00,AAXX 04184 41955 NIL=
41955,2023,04,05,12,00,AAXX 05124 41955 NIL=
41955,2023,04,05,18,00,AAXX 05184 41955 NIL=
41958,2023,03,31,00,00,AAXX 31004 41958 31440 80000 10230 20210 30071 40073 60046 70296 8592/ 333 56999 59006 70058 84616 81929 88458=
41958,2023,03,31,06,00,AAXX 31064 41958 32450 80000 10272 20230 30109 40111 8532/ 333 56999 58012 70058 84616 81930 88458=
41958,2023,03,31,09,00,AAXX 31094 41958 32456 81801 10338 20210 30094 40096 8452/ 333 56999 58028 70058 84616 88458=
41958,2023,03,31,12,00,AAXX 31124 41958 32450 60000 10272 20240 30073 40075 83510 333 10340 56990 58025 70058 83616 85459=
41958,2023,03,31,15,00,AAXX 31154 41958 32450 60000 10255 20240 30084 40086 83510 333 56990 58011 70058 83616 85459=
41958,2023,03,31,18,00,AAXX 31184 41958 32440 60000 10250 20250 30085 40087 83510 333 56990 58002 70038 84616 85459=
41958,2023,03,31,21,00,AAXX 31214 41958 32440 80000 10240 20240 30073 40075 8432/ 333 56999 58014 70030 84616 88458=
41958,2023,04,01,00,00,AAXX 01004 41958 31430 83502 10220 20220 30087 40089 79322 8592/ 333 56999 58016 70030 84616 81929 88458=
41958,2023,04,01,03,00,AAXX 01034 41958 32450 80000 10230 20220 30100 40102 8452/ 333 20216 56999 59001 70030 84616 88458=
41958,2023,04,01,06,00,AAXX 01064 41958 32450 73301 10260 20220 30098 40100 85370 333 56790 59011 70030 84616 81930 86459=
41958,2023,04,01,09,00,AAXX 01094 41958 32450 71502 10270 20220 30066 40068 85370 333 56390 59028 70030 84616 81930 86459=
41958,2023,04,01,12,00,AAXX 01124 41958 32450 70000 10260 20220 30065 40067 85370 333 10280 59008 70030 84616 81930 86459=
41958,2023,04,01,15,00,AAXX 01154 41958 32940 52501 10240 20210 30076 40078 85030 333 56090 59008 70030 85362=
41958,2023,04,01,18,00,AAXX 01184 41958 32940 30000 10236 20220 30079 40081 83030 333 56090 59006 70030 83362=
41958,2023,04,02,00,00,AAXX 02004 41958 32940 52502 10216 20210 30066 40068 85030 333 56090 59021 70000 85362=
41958,2023,04,02,03,00,AAXX 02034 41958 32450 30000 10270 20210 30086 40088 83500 333 20215 56500 59014 70000 83617=
41958,2023,04,02,06,00,AAXX 02064 41958 32458 31801 10318 20220 30079 40081 83500 333 56500 59019 70000 83617=
41958,2023,04,02,09,00,AAXX 02094 41958 32458 30901 10322 20210 30054 40056 83500 333 56500 59012 70000 83617=
41958,2023,04,02,12,00,AAXX 02124 41958 32956 20000 10294 20210 30042 40044 82030 333 10330 56090 59023 70000 82362=
41958,2023,04,02,15,00,AAXX 02154 41958 32950 21801 10250 20230 30056 40058 82030 333 56090 59020 70000 82362=
41958,2023,04,02,18,00,AAXX 02184 41958 32940 01801 10240 20220 30062 40064 333 59017 70000=
41958,2023,04,02,21,00,AAXX 02214 41958 32440 30000 10244 20240 30048 40050 83500 333 56900 59006 70000 83617=
41958,2023,04,03,00,00,AAXX 03004 41958 32440 30000 10246 20246 30059 40061 83500 333 56500 59007 70000 83617=
41958,2023,04,03,03,00,AAXX 03034 41958 32457 32702 10296 20250 30080 40082 83500 333 20240 56500 59006 70000 83617=
41958,2023,04,03,06,00,AAXX 03064 41958 32458 30000 10330 20220 30082 40084 83500 333 56500 58003 70000 83617=
41958,2023,04,03,09,00,AAXX 03094 41958 32558 12702 10348 20200 30054 40056 81100 333 56600 58000 70000 81825=
41958,2023,04,03,12,00,AAXX 03124 41958 32956 20000 10304 20160 30054 40056 82030 333 10350 56090 58012 70000 82362=
41958,2023,04,03,15,00,AAXX 03154 41958 32950 01803 10278 20240 30071 40073 333 58015 70000=
41958,2023,04,03,18,00,AAXX 03184 41958 32940 01803 10272 20230 30077 40079 333 58015 70000=
41958,2023,04,03,21,00,AAXX 03214 41958 32440 32702 10254 20240 30060 40062 83500 333 56600 58012 70000 83617=
41958,2023,04,04,00,00,AAXX 04004 41958 32440 22502 10252 20250 30067 40069 82500 333 56500 58008 70000 82617=
41958,2023,04,04,03,00,AAXX 04034 41958 32456 33302 10292 20260 30088 40090 83500 333 20250 56500 58008 70000 83617=
41958,2023,04,04,06,00,AAXX 04064 41958 32557 12902 10348 20250 30084 40086 81100 333 56700 58002 70000 81825=
41958,2023,04,04,09,00,AAXX 04094 41958 32458 52502 10348 20250 30057 40059 85400 333 56500 58003 70000 83617=
41958,2023,04,04,12,00,AAXX 04124 41958 32956 02502 10314 20240 30049 40051 333 10350 59005 70000=
41958,2023,04,04,15,00,AAXX 04154 41958 32950 02502 10276 20260 30069 40071 333 59002 70000=
41958,2023,04,04,18,00,AAXX 04184 41958 32940 02502 10272 20250 30072 40074 333 59005 70000=
41958,2023,04,04,21,00,AAXX 04214 41958 32440 22502 10264 20250 30044 40046 82500 333 56500 59016 70000 82617=
41958,2023,04,05,00,00,AAXX 05004 41958 32950 12702 10262 20250 30052 40054 81030 333 56090 59036 70000 81362=
41958,2023,04,05,03,00,AAXX 05034 41958 32457 42503 10300 20260 30075 40077 84400 333 20257 56500 59013 70000 83617=
41958,2023,04,05,06,00,AAXX 05064 41958 32458 32703 10350 20260 30077 40079 83400 333 56500 59007 70000 82617=
41958,2023,04,05,09,00,AAXX 05093 41958 32958 02701 10348 20260 30052 40054 333 59005 70000=
41958,2023,04,05,12,00,AAXX 05124 41958 32956 00000 10316 20240 30051 40053 333 10351 58002 70000=
41958,2023,04,05,15,00,AAXX 05154 41958 32950 01803 10286 20270 30074 40076 333 58005 70000=
41958,2023,04,05,18,00,AAXX 05184 41958 32940 01804 10282 20260 30079 40081 333 58007 70000=
41958,2023,04,05,21,00,AAXX 05214 41958 32440 20000 10264 20250 30072 40074 82500 333 56500 58028 70000 82617=
41958,2023,04,06,00,00,AAXX 06004 41958 32950 02502 10262 20260 30085 40087 333 58033 70000=
41958,2023,04,06,03,00,AAXX 06034 41958 32957 03302 10302 20270 30108 40110 333 20258 58033 70000=
41958,2023,04,06,06,00,AAXX 06064 41958 32458 20000 10347 20240 30107 40109 82500 333 56900 58030 70000 82617=
41958,2023,04,06,09,00,AAXX 06094 41958 32958 03601 10364 20160 30084 40086 333 58032 70000=
41958,2023,04,06,12,00,AAXX 06124 41958 32956 00000 10313 20180 30073 40075 333 10366 58022 70000=
41958,2023,04,06,15,00,AAXX 06154 41958 32950 00000 10278 20260 30094 40096 333 58020 70000=
41958,2023,04,06,18,00,AAXX 06184 41958 32440 31801 10267 20267 30098 40100 83500 333 56900 58019 70000 83617=
41958,2023,04,06,21,00,AAXX 06214 41958 31940 00000 10265 20265 30087 40089 70500 333 58015 70000=
41960,2023,03,31,00,00,AAXX 31004 41960 02450 73002 10234 20220 30083 40085 86410 333 59011 70058 84617 83822 87459==
41960,2023,03,31,03,00,AAXX 31034 41960 02450 50901 10260 20230 30116 40118 84430 333 20228 58002 70058 83618 85363==
41960,2023,03,31,06,00,AAXX 31064 41960 01450 71502 10277 20250 30115 40116 70396 85470 333 58010 70003 83618 85459==
41960,2023,03,31,09,00,AAXX 31094 41960 02450 61802 10292 20240 30091 40092 84470 333 58016 70009 83618 85459==
41960,2023,03,31,12,00,AAXX 31124 41960 02450 30000 10270 20270 30081 40083 82430 333 10294 58016 70003 81618 83363==
41960,2023,03,31,15,00,AAXX 31154 41960 02450 40000 10240 20230 30090 40091 83430 333 58004 70003 82618 84363==
41960,2023,03,31,18,00,AAXX 31184 41960 02450 80000 10236 20236 30094 40096 8542/ 333 58003 70003 84617 88459==
41960,2023,03,31,21,00,AAXX 31214 41960 02440 82902 10240 20240 30095 40097 8542/ 333 58007 70003 84617 83822 88458==
41960,2023,04,01,00,00,AAXX 01004 41960 01320 82708 10245 20245 30095 40097 79522 8692/ 333 58012 70004 82709 84615 88458 82928==
41960,2023,04,01,03,00,AAXX 01034 41960 01430 80000 10223 20220 30092 40094 76196 8632/ 333 20215 59024 70053 84616 88459 81930==
41960,2023,04,01,06,00,AAXX 01064 41960 21450 83301 10269 20230 30102 40104 70296 85410 333 59013 60058 70050 84617 88459==
41960,2023,04,01,09,00,AAXX 01094 41960 01440 81802 10255 20250 30086 40088 76196 8532/ 333 59005 70056 84617 88459 81930==
41960,2023,04,01,12,00,AAXX 01124 41960 21440 70000 10249 20230 30076 40078 70196 85470 333 10273 59005 69988 70058 84618 86459==
41960,2023,04,01,15,00,AAXX 01154 41960 02430 40000 10227 20227 30089 40091 84400 333 59001 70058 83618==
41960,2023,04,01,18,00,AAXX 01184 41960 02430 30000 10220 20220 30090 40092 83400 333 59004 70058 82618==
41960,2023,04,02,00,00,AAXX 02004 41960 02440 40000 10220 20220 30084 40085 83470 333 59011 70058 82618 83460==
41960,2023,04,02,03,00,AAXX 02034 41960 02957 02602 10266 20200 30101 40103 333 20213 58009 70008==
41960,2023,04,02,06,00,AAXX 02064 41960 02458 31801 10303 20220 30091 40093 83400 333 59011 70008 82618==
41960,2023,04,02,09,00,AAXX 02094 41960 02458 31601 10323 20200 30061 40063 83400 333 59025 70002 82618==
41960,2023,04,02,12,00,AAXX 02124 41960 02456 31801 10274 20220 30059 40061 82401 333 10326 59017 70000 81618 83080==
41960,2023,04,02,15,00,AAXX 02154 41960 02940 00000 10235 20220 30075 40077 333 59014 70000==
41960,2023,04,02,18,00,AAXX 02184 41960 02930 00000 10235 20220 30071 40073 333 59019 70000==
41960,2023,04,02,21,00,AAXX 02214 41960 02940 00000 10236 20230 30072 40074 333 59012 70000==
41960,2023,04,03,00,00,AAXX 03004 41960 01930 01701 10237 20237 30070 40072 71000 333 59006 70000==
41960,2023,04,03,03,00,AAXX 03034 41960 02456 62304 10290 20250 30094 40096 84410 333 20230 59007 70000 83618 86459==
41960,2023,04,03,06,00,AAXX 03064 41960 02456 61802 10314 20220 30091 40093 84410 333 58000 70000 83618 86459==
41960,2023,04,03,09,00,AAXX 03094 41960 02458 42603 10340 20190 30067 40069 84400 333 58006 70000 83618==
41960,2023,04,03,12,00,AAXX 03124 41960 02956 01801 10299 20210 30066 40067 333 10344 58007 70000==
41960,2023,04,03,15,00,AAXX 03154 41960 02940 00000 10254 20230 30084 40086 333 58009 70000==
41960,2023,04,03,18,00,AAXX 03184 41960 01930 00000 10254 20240 30084 40086 70500 333 58013 70000==
41960,2023,04,03,21,00,AAXX 03214 41960 01920 00000 10250 20250 30083 40085 71000 333 58011 70000==
41960,2023,04,04,00,00,AAXX 04004 41960 01903 01801 10248 20248 30082 40084 74742 89/// 333 58012 70000==
41960,2023,04,04,03,00,AAXX 04034 41960 01440 62403 10293 20250 30106 40107 70542 84410 333 20245 58012 70000 83618 86459==
41960,2023,04,04,06,00,AAXX 04064 41960 01458 41806 10332 20250 30096 40098 70142 84400 333 58005 70000 83618==
41960,2023,04,04,09,00,AAXX 04094 41960 02458 31808 10335 20260 30073 40075 83400 333 58006 70000 82618==
41960,2023,04,04,12,00,AAXX 04124 41960 02956 01801 10300 20250 30068 40070 333 10340 58002 70000==
41960,2023,04,04,15,00,AAXX 04154 41960 02940 02203 10268 20260 30085 40087 333 58001 70000==
41960,2023,04,04,18,00,AAXX 04184 41960 02930 00000 10260 20250 30084 40085 333 58000 70000==
41960,2023,04,04,21,00,AAXX 04214 41960 02940 00000 10255 20255 30075 40077 333 59008 70000==
41960,2023,04,05,00,00,AAXX 05004 41960 02440 20000 10250 20250 30069 40071 82400 333 58013 70000 81618==
41960,2023,04,05,03,00,AAXX 05034 41960 02450 41806 10297 20260 30088 40090 84410 333 20245 59018 70000 83618==
41960,2023,04,05,06,00,AAXX 05064 41960 02456 61802 10320 20260 30090 40092 84410 333 59006 70000 83617 86459==
41960,2023,04,05,09,00,AAXX 05094 41960 01440 51903 10307 20280 30063 40065 76122 84310 333 59010 70003 85459 81930==
41960,2023,04,05,12,00,AAXX 05124 41960 21450 31801 10300 20260 30067 40069 70162 83400 333 10337 59001 69965 70006 82618==
41960,2023,04,05,15,00,AAXX 05154 41960 02940 01801 10276 20270 30094 40096 333 58009 70006==
41960,2023,04,05,18,00,AAXX 05184 41960 02930 00000 10266 20260 30095 40097 333 58011 70006==
41960,2023,04,05,21,00,AAXX 05214 41960 01920 00000 10262 20260 30097 40099 71000 333 58022 70006==
41960,2023,04,06,00,00,AAXX 06004 41960 01904 00000 10258 20258 30096 40097 74542 89/// 333 58027 70006==
41960,2023,04,06,03,00,AAXX 06034 41960 01450 63001 10283 20260 30122 40124 70542 84410 333 20252 58034 70006 83618 86459==
41960,2023,04,06,06,00,AAXX 06064 41960 01456 31802 10324 20240 30119 40121 70142 83400 333 58029 70006 82618==
41960,2023,04,06,09,00,AAXX 06094 41960 02459 33602 10350 20190 30091 40093 83400 333 58028 70003 82618==
41960,2023,04,06,12,00,AAXX 06124 41960 02956 00000 10317 20250 30086 40087 333 10352 58019 70000==
41960,2023,04,06,15,00,AAXX 06154 41960 02940 00000 10275 20260 30106 40108 333 58012 70000==
41960,2023,04,06,18,00,AAXX 06184 41960 02930 00000 10260 20250 30110 40112 333 58015 70000==
41960,2023,04,06,21,00,AAXX 06214 41960 02440 30000 10256 20256 30112 40114 83400 333 58015 70000 82618==
41963,2023,03,31,03,00,AAXX 31034 41963 02457 60207 10257 20230 30119 40122 83510 333 20246 58007 70000 83618 85460==
41963,2023,03,31,06,00,AAXX 31064 41963 02457 61701 10280 20230 30112 40115 83510 333 58027 70000 83618 85460==
41963,2023,03,31,09,00,AAXX 31094 41963 01457 50000 10305 20230 30082 40085 70196 83510 333 58004 70020 83618 84460==
41963,2023,03,31,12,00,AAXX 31124 41963 01457 60000 10270 20250 30078 40081 75196 83520 333 10310 58008 70025 83618 85460==
41963,2023,03,31,18,00,AAXX 31184 41963 NIL=
41963,2023,03,31,21,00,AAXX 31214 41963 01440 50000 10244 20240 30082 40085 70522 83510 333 59012 70025 83618 84460==
41963,2023,04,01,00,00,AAXX 01004 41963 NIL=
41963,2023,04,01,03,00,AAXX 01034 41963 01457 73603 10230 20220 30102 40104 72166 83520 333 20210 59017 70155 83618 86458==
41963,2023,04,01,06,00,AAXX 01064 41963 21457 70203 10260 20220 30090 40093 70262 83520 333 59022 60138 70155 83618 86460==
41963,2023,04,01,09,00,AAXX 01094 41963 02457 70000 10300 20230 30094 40097 83520 333 58012 70135 83618 86458==
41963,2023,04,01,12,00,AAXX 01124 41963 21457 50000 10240 20220 30070 40073 70162 83510 333 10303 59008 60035 70160 83618 84460==
41963,2023,04,01,18,00,AAXX 01184 41963 NIL=
41963,2023,04,02,00,00,AAXX 02004 41963 02456 70000 10220 20220 30075 40078 83520 333 59007 70160 83618 86458==
41963,2023,04,02,03,00,AAXX 02034 41963 02957 03402 10290 20190 30090 40093 333 20205 59012 70030==
41963,2023,04,02,09,00,AAXX 02094 41963 02457 31703 10290 20220 30063 40066 83500 333 59031 70030 83618==
41963,2023,04,02,12,00,AAXX 02124 41963 02/57 31802 10270 20230 30061 40064 83030 333 10297 59009 70000 83365==
41963,2023,04,02,15,00,AAXX 02154 41963 02957 01801 10250 20230 30076 40079 333 59012 70000==
41963,2023,04,02,21,00,AAXX 02214 41963 02956 00000 10244 20240 30060 40063 333 59015 70000==
41963,2023,04,03,03,00,AAXX 03034 41963 02457 33403 10305 20250 30094 40097 83500 333 20200 58004 70000 83618==
41963,2023,04,03,06,00,AAXX 03064 41963 02457 33402 10310 20250 30081 40084 83500 333 58001 70000 83618==
41963,2023,04,03,09,00,AAXX 03094 41963 02457 53403 10320 20230 30066 40068 83510 333 58003 70000 83618 84460==
41963,2023,04,03,12,00,AAXX 03124 41963 02457 30000 10275 20240 30067 40070 83500 333 10324 58006 70000 83618==
41963,2023,04,03,18,00,AAXX 03184 41963 NIL=
41963,2023,04,03,21,00,AAXX 03214 41963 02956 00000 10240 20240 30083 40086 333 58023 70000==
41963,2023,04,04,00,00,AAXX 04004 41963 NIL=
41963,2023,04,04,03,00,AAXX 04034 41963 02457 51803 10305 20260 30106 40108 83510 333 20235 58012 70000 83618 84460==
41963,2023,04,04,06,00,AAXX 04064 41963 02458 31804 10325 20240 30083 40086 83500 333 58002 70000 83618==
41963,2023,04,04,09,00,AAXX 04094 41963 02458 32005 10325 20250 30075 40078 83500 333 58009 70000 83618==
41963,2023,04,04,12,00,AAXX 04124 41963 02957 01803 10295 20250 30069 40071 333 10327 58002 70000==
41963,2023,04,04,15,00,AAXX 04154 41963 02956 01801 10255 20250 30086 40088 333 59002 70000==
41963,2023,04,04,18,00,AAXX 04184 41963 02956 01801 10254 20250 30090 40092 333 59004 70000==
41963,2023,04,04,21,00,AAXX 04214 41963 02956 00000 10252 20250 30072 40075 333 59011 70000==
41963,2023,04,05,03,00,AAXX 05034 41963 02457 51804 10303 20250 30085 40088 83510 333 20245 59021 70000 83618 84460==
41963,2023,04,05,09,00,AAXX 05094 41963 02457 61804 10304 20250 30066 40068 83520 333 59009 70000 83618 85460==
41963,2023,04,05,12,00,AAXX 05124 41963 NIL=
41963,2023,04,05,18,00,AAXX 05184 41963 NIL=
41963,2023,04,05,21,00,AAXX 05214 41963 01940 00000 10241 20240 30083 40086 70500 333 58011 70340==
41963,2023,04,06,03,00,AAXX 06034 41963 01940 00000 10242 20240 30079 40082 70500 333 58011 70340==
41963,2023,04,06,09,00,AAXX 06094 41963 02457 31801 10324 20240 30094 40097 83500 333 58028 70340 83618==
41963,2023,04,06,18,00,AAXX 06184 41963 02956 00000 10240 20240 30114 40117 333 58014 70000==
41963,2023,04,06,21,00,AAXX 06214 41963 01940 00000 10240 20240 30104 40107 70500 333 58021 70000==
41964,2023,03,31,00,00,AAXX 31004 41964 01350 81403 10222 20200 30091 40094 76122 8532/ 333 59002 70004 83709 83617 88458 81928==
41964,2023,03,31,03,00,AAXX 31034 41964 02456 71405 10248 20210 30108 40110 83511 333 20212 59001 70368 83618 84460 83080==
41964,2023,03,31,09,00,AAXX 31094 41964 02456 71802 10305 20240 30077 40080 83510 333 58008 70004 83617 86459==
41964,2023,03,31,12,00,AAXX 31124 41964 02456 70000 10288 20250 30075 40078 83510 333 58012 70004 83618 86460==
41964,2023,03,31,15,00,AAXX 31154 41964 02950 30000 10250 20240 30085 40088 83500 333 59006 70004 83618==
41964,2023,03,31,18,00,AAXX 31184 41964 NIL=
41964,2023,03,31,21,00,AAXX 31214 41964 02450 80000 10244 20240 30078 40081 8432/ 333 59012 70004 83618 88460 81928==
41964,2023,04,01,00,00,AAXX 01004 41964 01350 80000 10242 20240 30073 40076 79522 8632/ 333 59018 70002 83709 84617 88458 81927==
41964,2023,04,01,03,00,AAXX 01034 41964 01356 80000 10223 20222 30102 40104 72996 8562/ 333 20205 59006 70120 83709 83618 88459==
41964,2023,04,01,06,00,AAXX 01064 41964 22356 80201 10241 20230 30098 40100 59019 88460 333 60128==
41964,2023,04,01,09,00,AAXX 01094 41964 01356 80000 10260 20240 30082 40085 76122 8672/ 333 58005 70121 83709 83617 88458==
41964,2023,04,01,12,00,AAXX 01124 41964 21456 50000 10235 20220 30068 40070 70162 83510 333 10267 59007 60018 70126 83618 84460==
41964,2023,04,01,13,00,AAXX 01134 41964 21456 50000 10235 20220 30068 40070 70162 83510 333 10267 59007 60018 70126 83618 84460==
41964,2023,04,01,18,00,AAXX 01184 41964 NIL=
41964,2023,04,02,00,00,AAXX 02004 41964 02450 82303 10232 20230 30077 40079 8562/ 333 58004 70123 85617 88459==
41964,2023,04,02,03,00,AAXX 02034 41964 02956 02202 10285 20200 30091 40093 333 20200 59011 70005==
41964,2023,04,02,06,00,AAXX 02064 41964 02456 52901 10300 20220 30083 40085 83510 333 59015 70005 83618 84460==
41964,2023,04,02,09,00,AAXX 02094 41964 02457 12303 10294 20220 30059 40061 81500 333 59023 70004 81618==
41964,2023,04,02,12,00,AAXX 02124 41964 02457 12201 10305 20230 30056 40058 81500 333 59012 70004 81618==
41964,2023,04,02,15,00,AAXX 02154 41964 02456 50000 10265 20240 30064 40067 83500 333 59014 70000 83618 84460==
41964,2023,04,02,21,00,AAXX 02214 41964 02456 50000 10251 20230 30067 40070 83510 333 59017 70000 83510 83618 84460==
41964,2023,04,03,00,00,AAXX 03004 41964 02456 50000 10239 20220 30066 40069 83310 333 59011 70000 83618 83460 81928==
41964,2023,04,03,03,00,AAXX 03034 41964 02456 71403 10282 20230 30087 40090 85610 333 20228 59004 70000 85617 84460==
41964,2023,04,03,06,00,AAXX 03064 41964 02456 73201 10310 20260 30082 40085 85610 333 59001 70000 85618 84460==
41964,2023,04,03,09,00,AAXX 03094 41964 02/57 42304 10300 20190 30062 40064 84010 333 58003 70000 84460==
41964,2023,04,03,12,00,AAXX 03124 41964 NIL=
41964,2023,04,03,15,00,AAXX 03154 41964 02956 00000 10247 20230 30081 40083 333 58017 70000==
41964,2023,04,03,18,00,AAXX 03184 41964 NIL=
41964,2023,04,03,21,00,AAXX 03214 41964 02450 60000 10250 20240 30083 40085 84510 333 58016 70000 84618 84460==
41964,2023,04,04,00,00,AAXX 04004 41964 02456 81402 10260 20257 30083 40085 8562/ 333 58017 70000 85618 88459==
41964,2023,04,04,03,00,AAXX 04034 41964 02457 71603 10293 20260 30099 40102 84510 333 20226 58012 70000 84618 85460==
41964,2023,04,04,06,00,AAXX 04064 41964 NIL=
41964,2023,04,04,09,00,AAXX 04094 41964 02457 21905 10310 20260 30070 40072 82500 333 58008 70000 82618==
41964,2023,04,04,12,00,AAXX 04124 41964 NIL=
41964,2023,04,04,15,00,AAXX 04154 41964 02456 51903 10276 20270 30085 40087 83510 333 58004 70000 83618 84460==
41964,2023,04,04,18,00,AAXX 04184 41964 NIL=
41964,2023,04,04,21,00,AAXX 04214 41964 02450 40000 10270 20260 30079 40081 82510 333 59004 70000 82618 83460==
41964,2023,04,05,00,00,AAXX 05004 41964 02456 21802 10272 20260 30072 40074 82500 333 59011 70000 82618==
41964,2023,04,05,03,00,AAXX 05034 41964 02457 61805 10300 20260 30088 40090 85510 333 20258 59011 70000 85618 83460==
41964,2023,04,05,06,00,AAXX 05064 41964 02457 61904 10305 20260 30096 40098 85510 333 58003 70000 85618 83460==
41964,2023,04,05,09,00,AAXX 05093 41964 02458 71504 10302 20260 30060 40063 86410 333 59010 70000 85618 84460==
41964,2023,04,05,12,00,AAXX 05124 41964 01458 51601 10252 20240 30067 40069 70196 83410 333 10312 59005 70004 82618 83460==
41964,2023,04,05,15,00,AAXX 05154 41964 02456 20000 10245 20240 30097 40099 82500 333 59012 70004 82618==
41964,2023,04,05,18,00,AAXX 05184 41964 02456 30000 10246 20246 30085 40087 83500 333 58000 70004 83618==
41964,2023,04,05,21,00,AAXX 05214 41964 01450 30000 10242 20242 30089 40091 70511 82510 333 58010 70004 82618 83460==
41964,2023,04,06,00,00,AAXX 06004 41964 01550 60000 10249 20249 30089 40092 70511 82210 333 58017 70004 82826 86460==
41964,2023,04,06,03,00,AAXX 06034 41964 02456 60000 10300 20260 30113 40115 84510 333 20238 58025 70004 84618 84460==
41964,2023,04,06,06,00,AAXX 06064 41964 02557 51402 10327 20260 30108 40110 85400 333 58012 70004 83620 83825==
41964,2023,04,06,09,00,AAXX 06094 41964 02557 42102 10337 20260 30084 40087 84400 333 58024 70004 83620==
41964,2023,04,06,12,00,AAXX 06124 41964 01557 50000 10260 20240 30081 40083 72122 83430 333 10338 58014 70006 82620 83362==
41964,2023,04,06,15,00,AAXX 06154 41964 02456 20000 10240 20240 30097 40099 82500 333 58000 70006 82618==
41964,2023,04,06,18,00,AAXX 06184 41964 02456 10000 10238 20238 30096 40099 81500 333 58011 70006 81618==
41964,2023,04,06,21,00,AAXX 06214 41964 01/50 20000 10220 20220 30098 40101 70511 82010 333 58009 70006 82460==
41965,2023,03,31,03,00,AAXX 31034 41965 01440 70000 10260 20180 30114 40122 70542 84610 333 20205 58010 70000 83618 86460==
41965,2023,03,31,12,00,AAXX 31124 41965 NIL=
41965,2023,03,31,15,00,AAXX 31154 41965 01440 70000 10260 20190 30089 40097 70542 84610 333 58008 70000 82618 84460==
41965,2023,03,31,18,00,AAXX 31184 41965 NIL=
41965,2023,04,01,00,00,AAXX 01004 41965 NIL=
41965,2023,04,01,06,00,AAXX 01064 41965 21450 80000 10250 20180 30090 40098 70596 8432/ 333 59005 60438 70430 81710 83618 88460 81928==
41965,2023,04,01,12,00,AAXX 01124 41965 01440 80000 10255 20180 30085 40093 70542 84610 333 59005 70430 83618 88460==
41965,2023,04,01,18,00,AAXX 01184 41965 NIL=
41965,2023,04,02,00,00,AAXX 02004 41965 01940 00000 10200 20180 30089 40097 70540 333 59010 70430==
41965,2023,04,02,03,00,AAXX 02034 41965 01940 00000 10250 20160 30094 40102 70540 333 20193 59014 70000==
41965,2023,04,02,06,00,AAXX 02064 41965 01950 01402 10300 20180 30091 40099 70540 333 59006 70000==
41965,2023,04,02,12,00,AAXX 02124 41965 01940 00000 10260 20170 30085 40093 70540 333 10305 59003 70000==
41965,2023,04,03,03,00,AAXX 03034 41965 01440 70000 10260 20170 30091 40099 70542 84310 333 20223 59003 70000 82618 86460 81928==
41965,2023,04,03,12,00,AAXX 03124 41965 01940 60000 10260 20170 30085 40093 70542 84410 333 10313 58000 70000 83618 84460==
41965,2023,04,03,18,00,AAXX 03184 41965 NIL=
41965,2023,04,03,21,00,AAXX 03214 41965 01940 00000 10240 20210 30084 40092 70540 333 59005 70000==
41965,2023,04,04,00,00,AAXX 04004 41965 NIL=
41965,2023,04,04,03,00,AAXX 04034 41965 01440 70000 10260 20170 30094 40102 70542 84610 333 20220 58003 70000 83618 86460==
41965,2023,04,04,06,00,AAXX 04064 41965 01450 50000 10300 20230 30090 40098 70542 84410 333 59001 70000 82618 84460==
41965,2023,04,04,12,00,AAXX 04124 41965 NIL=
41965,2023,04,04,18,00,AAXX 04184 41965 NIL=
41965,2023,04,05,03,00,AAXX 05034 41965 01440 70000 10260 20220 30096 40104 70542 83310 333 20250 58002 70000 82618 84460 81928==
41965,2023,04,05,12,00,AAXX 05124 41965 NIL=
41965,2023,04,05,18,00,AAXX 05184 41965 NIL=
41965,2023,04,06,03,00,AAXX 06034 41965 01440 80000 10280 20220 30102 40110 70542 84310 333 20215 58018 70420 83618 88460 81928==
41965,2023,04,06,06,00,AAXX 06064 41965 01450 51402 10330 20210 30104 40113 70542 84410 333 58020 70420 82618 84460==
41965,2023,04,06,12,00,AAXX 06124 41965 01450 50000 10330 20190 30090 40098 70542 84610 333 58010 70420 82618 84460==
41966,2023,03,31,00,00,AAXX 31004 41966 21430 71803 10200 20190 30038 40119 72996 83510 333 58011 60187 70180 83616 86460==
41966,2023,03,31,03,00,AAXX 31034 41966 02450 51301 10255 20210 30056 40135 82510 333 20190 58013 70180 82616 84460==
41966,2023,03,31,06,00,AAXX 31064 41966 02450 50000 10305 20110 30043 40121 82510 333 58005 70180 82616 84460==
41966,2023,03,31,09,00,AAXX 31094 41966 02450 70000 10302 20140 30014 40092 83510 333 59004 70180 83616 86460==
41966,2023,03,31,12,00,AAXX 31124 41966 02440 70501 10280 20200 30011 40090 82510 333 10310 58003 70180 82616 86460==
41966,2023,03,31,18,00,AAXX 31184 41966 NIL=
41966,2023,03,31,21,00,AAXX 31214 41966 02420 60000 10240 20230 30009 40089 82510 333 59022 70180 82616 85460==
41966,2023,04,01,00,00,AAXX 01004 41966 02430 60901 10230 20220 30009 40089 82510 333 59030 70000 82616 85460==
41966,2023,04,01,03,00,AAXX 01034 41966 01350 81301 10250 20240 30050 40129 72196 8472/ 333 20220 59006 70390 82709 83615 88460==
41966,2023,04,01,06,00,AAXX 01064 41966 21350 80000 10252 20230 30048 40127 70296 8472/ 333 58006 60398 70394 82709 83616 88460==
41966,2023,04,01,09,00,AAXX 01094 41966 02450 70000 10270 20190 30018 40097 83510 333 58005 70390 83616 86460==
41966,2023,04,01,12,00,AAXX 01124 41966 21430 71802 10230 20200 39999 40076 70262 83520 333 10275 59011 60017 70400 83616 86460==
41966,2023,04,01,15,00,AAXX 01154 41966 02420 71501 10220 20210 30007 40087 83510 333 59014 70400 83616 86460==
41966,2023,04,01,18,00,AAXX 01184 41966 NIL=
41966,2023,04,02,00,00,AAXX 02004 41966 02430 70901 10200 20190 30014 40095 83510 333 58006 70400 83616 86460==
41966,2023,04,02,03,00,AAXX 02034 41966 02450 50000 10260 20170 30029 40108 82510 333 20186 59021 70010 82616 84460==
41966,2023,04,02,06,00,AAXX 02064 41966 02450 41501 10300 20140 30022 40100 82510 333 59027 70010 82616 83460==
41966,2023,04,02,09,00,AAXX 02094 41966 02450 41301 10312 20060 39994 40072 82510 333 59025 70010 82616 83460==
41966,2023,04,02,12,00,AAXX 02124 41966 02440 41501 10270 20160 39994 40073 82510 333 10318 59006 70000 82616 83460==
41966,2023,04,02,15,00,AAXX 02154 41966 02430 41801 10255 20200 30000 40079 82510 333 59008 70000 82616 83460==
41966,2023,04,02,21,00,AAXX 02214 41966 02420 40000 10230 20200 30006 40086 82510 333 59004 70000 82616 83460==
41966,2023,04,03,00,00,AAXX 03004 41966 02440 60000 10225 20200 30005 40085 82510 333 59010 70000 82616 85460==
41966,2023,04,03,06,00,AAXX 03064 41966 02450 51301 10300 20150 30024 40102 82510 333 58002 70000 82616 84460==
41966,2023,04,03,09,00,AAXX 03094 41966 02450 50801 10312 20140 30010 40088 82510 333 58016 70000 82616 84460==
41966,2023,04,03,12,00,AAXX 03124 41966 NIL=
41966,2023,04,03,15,00,AAXX 03154 41966 02420 40000 10250 20220 30009 40089 82510 333 58010 70000 82616 83460==
41966,2023,04,03,18,00,AAXX 03184 41966 NIL=
41966,2023,04,03,21,00,AAXX 03214 41966 02450 40000 10230 20210 30011 40091 82510 333 58005 70000 82616 83460==
41966,2023,04,04,00,00,AAXX 04004 41966 02440 40000 10235 20220 30020 40099 82510 333 58014 70000 82616 83460==
41966,2023,04,04,03,00,AAXX 04034 41966 02450 51301 10296 20200 30042 40120 82510 333 20220 58007 70000 82616 84460==
41966,2023,04,04,06,00,AAXX 04064 41966 02450 41801 10315 20150 30032 40109 82510 333 58007 70000 82616 83460==
41966,2023,04,04,09,00,AAXX 04094 41966 02450 42201 10320 20150 30011 40089 82510 333 58001 70000 82616 83460==
41966,2023,04,04,12,00,AAXX 04124 41966 02440 41801 10285 20200 30002 40080 82510 333 10325 58001 70000 82616 83460==
41966,2023,04,04,15,00,AAXX 04154 41966 02430 41801 10260 20220 30008 40087 82510 333 59002 70000 82616 83460==
41966,2023,04,04,18,00,AAXX 04184 41966 NIL=
41966,2023,04,04,21,00,AAXX 04214 41966 02420 40000 10254 20220 39997 40077 82510 333 59014 70000 82616 83460==
41966,2023,04,05,00,00,AAXX 05004 41966 02440 60000 10250 20220 39997 40077 82510 333 59022 70000 82616 85460==
41966,2023,04,05,03,00,AAXX 05034 41966 02450 61802 10280 20210 30027 40106 82510 333 20242 59014 70000 82616 85460==
41966,2023,04,05,09,00,AAXX 05094 41966 02450 60000 10280 20150 39999 40078 82510 333 59011 70000 82616 85460==
41966,2023,04,05,12,00,AAXX 05124 41966 21440 61801 10235 20190 30007 40087 70262 83510 333 10310 58007 60027 70016 83616 85460==
41966,2023,04,05,18,00,AAXX 05184 41966 NIL=
41966,2023,04,05,21,00,AAXX 05214 41966 02420 40000 10222 20210 30010 40090 82510 333 58013 70016 82616 83460==
41966,2023,04,06,00,00,AAXX 06004 41966 02440 40000 10240 20230 30016 40096 82510 333 58019 70016 82616 83460==
41966,2023,04,06,03,00,AAXX 06034 41966 02/50 30502 10298 20220 30045 40124 83030 333 20210 58018 70016 83362==
41966,2023,04,06,06,00,AAXX 06064 41966 42550 33601 10330 20170 30048 40126 82130 333 58019 82826 83362==
41966,2023,04,06,09,00,AAXX 06094 41966 02550 30501 10340 20070 30016 40093 82130 333 58015 70016 82616 83362==
41966,2023,04,06,12,00,AAXX 06124 41966 02/40 30000 10280 20190 30014 40092 83030 333 10345 58005 70000 83362==
41966,2023,04,06,15,00,AAXX 06154 41966 02430 41201 10265 20220 30017 40096 82510 333 59004 70000 82616 83460==
41966,2023,04,06,21,00,AAXX 06214 41966 02420 30000 10230 20210 30029 40109 82510 333 58019 70000 82616 83460==
41977,2023,03,31,00,00,AAXX 31004 41977 01350 80504 10265 20260 30070 40108 70522 8562/ 333 59010 70000 82710 83616 88460==
41977,2023,03,31,06,00,AAXX 31064 41977 41356 80502 10280 20230 30082 40120 70562 8562/ 333 20250 58003 82710 83616 88460==
41977,2023,03,31,09,00,AAXX 31094 41977 41456 80000 10305 20220 30072 40109 70522 8562/ 333 58003 82710 83617 88458==
41977,2023,03,31,12,00,AAXX 31124 41977 41456 70000 10290 20240 30069 40107 70522 84610 333 10325 58020 84617 86460==
41977,2023,03,31,15,00,AAXX 31154 41977 41456 70000 10255 20250 30072 40111 70522 84610 333 59005 84618 86460==
41977,2023,03,31,18,00,AAXX 31184 41977 41456 50000 10247 20247 30070 40108 70522 82570 333 58001 82618 84459==
41977,2023,03,31,21,00,AAXX 31214 41977 41456 60000 10247 20247 30067 40105 58002 79999 84365==
41977,2023,04,01,00,00,AAXX 01004 41977 41350 80000 10250 20240 30058 40096 70522 8562/ 333 59014 83710 84618 88459==
41977,2023,04,01,03,00,AAXX 01034 41977 01250 80000 10220 20220 30101 40140 79596 8632/ 333 20210 58000 70350 84708 88458 82925==
41977,2023,04,01,06,00,AAXX 01064 41977 21350 80506 10235 20220 30084 40122 70296 333 59007 60368 70360 85682 82710 84617 88459==
41977,2023,04,01,09,00,AAXX 01094 41977 02450 80000 10267 20230 30076 40114 8562/ 333 58004 70360 82710 84617 88458==
41977,2023,04,01,12,00,AAXX 01124 41977 21350 80000 10230 20210 30060 40098 70261 8562/ 333 10280 59009 60025 70380 82710 84618 88460==
41977,2023,04,01,18,00,AAXX 01184 41977 02450 70000 10215 20210 30071 40110 85670 333 58001 70380 82710 84616 85460==
41977,2023,04,02,00,00,AAXX 02004 41977 02450 50000 10213 20200 30050 40089 83570 333 59017 70380 83618 84460==
41977,2023,04,02,03,00,AAXX 02034 41977 01450 40000 10270 20220 30080 40119 70561 82530 333 20205 59021 70030 82618 84365==
41977,2023,04,02,06,00,AAXX 02064 41977 11456 42304 10300 20200 30066 40103 60016 70562 333 70020 82530 82618 84365==
41977,2023,04,02,09,00,AAXX 02094 41977 01456 42405 10300 20190 30057 40095 70522 82530 333 59018 70030 82618 84365==
41977,2023,04,02,12,00,AAXX 02124 41977 01956 02904 10276 20220 30051 40089 70520 333 10314 59009 70010==
41977,2023,04,02,18,00,AAXX 02184 41977 01456 80000 10250 20230 30076 40115 70522 8662/ 333 58004 70010 82710==
41977,2023,04,03,00,00,AAXX 03004 41977 01350 60000 10218 20210 30039 40087 70596 85670 333 59031 70100 82710 86017 85459==
41977,2023,04,03,06,00,AAXX 03064 41977 01450 71804 10308 20230 30070 40108 70522 333 58004 70100 84618 86363==
41977,2023,04,03,09,00,AAXX 03094 41977 01456 62306 10305 20240 30063 40101 70522 83530 333 58006 70100 83618 85365==
41977,2023,04,03,12,00,AAXX 03124 41977 01456 42003 10280 20230 30072 40111 70522 82530 333 10322 58021 70100 82618 84365==
41977,2023,04,03,15,00,AAXX 03154 41977 01950 00000 10245 20220 30069 40107 70520 333 58008 70100==
41977,2023,04,03,18,00,AAXX 03184 41977 01950 00000 10245 20230 30072 40110 70520 333 59004 70000==
41977,2023,04,03,21,00,AAXX 03214 41977 01450 30000 10244 20230 30067 40105 70511 83500 333 58003 70100 83618==
41977,2023,04,04,00,00,AAXX 04004 41977 01350 62302 10244 20230 30069 40107 70521 85620 333 58020 70000 82710 83616 86460==
41977,2023,04,04,03,00,AAXX 04034 41977 01450 62304 10290 20210 30087 40125 70522 83570 333 20236 58011 70000 83617 85460==
41977,2023,04,04,06,00,AAXX 04064 41977 01450 71305 10300 20250 30093 40131 70522 333 58023 70000 84610 82710 84617 85460==
41977,2023,04,04,09,00,AAXX 04094 41977 01456 61805 10302 20240 30071 40108 70522 83570 333 58008 70000 83618 85460==
41977,2023,04,04,12,00,AAXX 04124 41977 01456 41902 10290 20240 30071 40109 70522 82530 333 10345 59001 70000 82618 84365==
41977,2023,04,04,15,00,AAXX 04154 41977 01456 41902 10278 20260 30070 40108 70522 82530 333 58001 70000 82618 84365==
41977,2023,04,04,18,00,AAXX 04184 41977 01456 60000 10270 20260 30065 40103 70522 84610 333 59004 70000 84617 85459==
41977,2023,04,04,21,00,AAXX 04214 41977 01456 70000 10285 20260 30050 40087 70522 84610 333 59017 70000 84617 85460==
41977,2023,04,05,00,00,AAXX 05004 41977 01450 70000 10253 20250 30055 40093 70522 84610 333 59014 70000 82710 84617 85460==
41977,2023,04,05,09,00,AAXX 05094 41977 02356 81805 10298 20250 30068 40106 8562/ 333 59003 70000 82710 84616 88458==
41977,2023,04,05,12,00,AAXX 05124 41977 01440 81805 10250 20230 30071 40109 79660 8562/ 333 10330 58000 70000 82710 84616 88458==
41977,2023,04,05,15,00,AAXX 05154 41977 41950 00000 10250 20230 30079 40117 70520 333 58009==
41977,2023,04,05,18,00,AAXX 05184 41977 41450 30000 10245 20230 30081 40119 70521 82530 333 58016 82618 83362==
41977,2023,04,05,21,00,AAXX 05214 41977 41450 60000 10250 20240 30077 40115 70522 84510 333 58027 84616 85460==
41977,2023,04,06,00,00,AAXX 06004 41977 41350 70000 10250 20240 30073 40111 70522 86610 333 58018 82710 84615 86460==
41977,2023,04,06,03,00,AAXX 06034 41977 41456 60000 10300 20250 30095 40133 70522 83530 333 20240 58018 83618 85365==
41977,2023,04,06,09,00,AAXX 06094 41977 41456 32703 10330 20230 30082 40120 70522 82530 333 58014 82618 83362==
41977,2023,04,06,12,00,AAXX 06124 41977 01456 22603 10307 20250 30081 40113 70521 82530 333 10347 58009 70000 82618 83360==
41977,2023,04,06,15,00,AAXX 06154 41977 01456 22602 10254 20230 30078 40117 70522 82530 333 59001 70000 82618 83360==
41977,2023,04,06,18,00,AAXX 06184 41977 01956 00000 10245 20240 30081 40120 70520 333 58000 70000==
41977,2023,04,06,21,00,AAXX 06214 41977 01956 00000 10235 20230 30072 40110 70522 333 59005 70000==
41978,2023,03,31,00,00,AAXX 31004 41978 01440 83521 10277 20250 30094 40100 70522 8452/ 333 59003 70000 84616 88459 82929==
41978,2023,03,31,03,00,AAXX 31034 41978 01450 81111 10233 20190 30114 40120 70296 8432/ 333 20210 58000 70098 84616 88460 81929==
41978,2023,03,31,06,00,AAXX 31064 41978 11456 62306 10318 20180 30109 40115 60106 70196 83520 333 58002 70098 83617 85460==
41978,2023,03,31,09,00,AAXX 31094 41978 02460 61906 10299 20220 30084 40090 83520 333 58007 70098 83617 85460==
41978,2023,03,31,12,00,AAXX 31124 41978 01450 62703 10288 20230 30075 40081 70522 83520 333 10320 58007 70098 83617 85460==
41978,2023,03,31,15,00,AAXX 31154 41978 01/50 30000 10272 20240 30091 40097 70521 83030 333 58007 70098 83360==
41978,2023,03,31,18,00,AAXX 31184 41978 01450 40000 10268 20250 30084 40091 70521 82530 333 58003 70098 82618 84360==
41978,2023,03,31,21,00,AAXX 31214 41978 41450 40000 10260 20240 30070 40077 70521 82530 333 59017 82618 84360==
41978,2023,04,01,00,00,AAXX 01004 41978 01432 70000 10248 20240 30073 40080 70522 83570 333 59021 70098 83614 86359==
41978,2023,04,01,03,00,AAXX 01034 41978 01428 82806 10217 20210 30127 40133 79596 8432/ 333 20212 58013 70270 83612 88458 81928==
41978,2023,04,01,06,00,AAXX 01064 41978 21440 81008 10226 20220 30101 40107 70296 8432/ 333 59008 60288 70280 83616 88458 81928==
41978,2023,04,01,09,00,AAXX 01094 41978 01445 70000 10267 20210 30078 40084 70522 83520 333 59009 70280 83616 86460 81928==
41978,2023,04,01,12,00,AAXX 01124 41978 21445 61103 10232 20210 30065 40071 72122 84320 333 10272 59010 60057 70330 83616 86460 81928==
41978,2023,04,01,15,00,AAXX 01154 41978 02450 60000 10221 20200 30082 40088 84520 333 59009 70330 84616 86460==
41978,2023,04,01,18,00,AAXX 01184 41978 02450 60000 10218 20210 30083 40090 84520 333 59001 70330 84616 86460==
41978,2023,04,01,21,00,AAXX 01214 41978 02450 60000 10219 20210 30079 40085 84520 333 70330 84616 86460==
41978,2023,04,02,00,00,AAXX 02004 41978 02450 60000 10220 20210 30077 40084 84520 333 58004 70330 84616 86460==
41978,2023,04,02,03,00,AAXX 02034 41978 02450 61603 10252 20196 30100 40106 83530 333 20211 59027 70080 83615 86360==
41978,2023,04,02,06,00,AAXX 02064 41978 11456 32306 10300 20200 30087 40094 60026 70196 83530 333 59014 70070 83616==
41978,2023,04,02,09,00,AAXX 02094 41978 02/56 32412 10300 20190 30063 40069 83030 333 59016 70070 83360==
41978,2023,04,02,12,00,AAXX 02124 41978 02/50 32110 10276 20200 30060 40067 83030 333 10302 59005 70020 83360==
41978,2023,04,02,15,00,AAXX 02154 41978 02/50 32112 10262 20210 30075 40081 83030 333 59007 70020 83360==
41978,2023,04,02,18,00,AAXX 02184 41978 02450 21806 10252 20220 30072 40079 82500 333 59007 70020 82618==
41978,2023,04,02,21,00,AAXX 02214 41978 81712 11440 10222 20210 30065 40072 60354 76322 8432/ 333 56999 59007 70370 83616 81928 88458=
41978,2023,04,03,00,00,AAXX 03004 41978 01712 11440 10222 20210 30065 40072 76322 8432/ 333 59007 70350 83616 88458 81928==
41978,2023,04,03,03,00,AAXX 03034 41978 01456 31608 10270 20210 30094 40101 70162 83500 333 20202 59006 70354 83618==
41978,2023,04,03,06,00,AAXX 03064 41978 11556 32012 10310 20220 30091 40097 60006 70162 83400 333 58004 70354 83820==
41978,2023,04,03,09,00,AAXX 03094 41978 02556 42011 10306 20240 30068 40074 81120 333 58005 70354 81828 83460==
41978,2023,04,03,12,00,AAXX 03124 41978 02456 41707 10273 20220 30071 40077 82520 333 10311 58011 70354 82617 83460==
41978,2023,04,03,15,00,AAXX 03154 41978 02450 40000 10262 20210 30085 40092 82520 333 58010 70354 82617 83460==
41978,2023,04,03,18,00,AAXX 03184 41978 02450 41807 10250 20220 30084 40091 82520 333 58012 70354 82617 83460==
41978,2023,04,03,21,00,AAXX 03214 41978 02450 40000 10244 20210 30075 40081 82520 333 58013 70354 82617 83460==
41978,2023,04,04,00,00,AAXX 04004 41978 02450 41706 10243 20210 30085 40091 82520 333 58013 79904 82617 83460==
41978,2023,04,04,03,00,AAXX 04034 41978 02450 41505 10288 20240 30090 40096 82520 333 20240 70000 82617 83460==
41978,2023,04,04,06,00,AAXX 04064 41978 02456 61812 10314 20210 30104 40110 84520 333 70000 85013 84616 86460==
41978,2023,04,04,09,00,AAXX 04094 41978 02556 31910 10316 20260 30078 40084 83200 333 58010 70000 83828==
41978,2023,04,04,12,00,AAXX 04124 41978 333 10318 58001 70000 82828==
41978,2023,04,04,15,00,AAXX 04154 41978 01545 11808 10275 20260 30089 40095 70511 81200 333 58004 70000 81828==
41978,2023,04,04,18,00,AAXX 04184 41978 01445 31704 10268 20250 30082 40088 70511 83500 333 59002 70000 83617==
41978,2023,04,04,21,00,AAXX 04214 41978 01440 31704 10260 20250 30069 40075 70511 83500 333 59006 70000 83617==
41978,2023,04,05,00,00,AAXX 05004 41978 01431 51705 10256 20250 30078 40084 70521 82501 333 59007 70000 82617 85080==
41978,2023,04,05,03,00,AAXX 05034 41978 02450 31711 10294 20240 30095 40102 83500 333 20253 58005 70000 83618==
41978,2023,04,05,06,00,AAXX 05064 41978 02450 51811 10313 20240 30098 40104 83520 333 59006 70000 83618 83460==
41978,2023,04,05,09,00,AAXX 05094 41978 02456 51915 10309 20210 30071 40077 82520 333 59007 70000 82618 84460==
41978,2023,04,05,12,00,AAXX 05124 41978 01450 72110 10289 20260 30073 40080 71796 84320 333 10314 58001 70000 84616 86460 82928==
41978,2023,04,05,15,00,AAXX 05154 41978 42456 51604 10252 20230 30095 40101 83520 333 58006 83618 85360==
41978,2023,04,05,18,00,AAXX 05184 41978 41/56 50000 10251 20230 30092 40098 70292 85030 333 58010 85360==
41978,2023,04,05,21,00,AAXX 05214 41978 41/50 50000 10250 20240 30087 40093 70522 85030 333 58018 85360==
41978,2023,04,06,00,00,AAXX 06004 41978 41450 60000 10250 20240 30096 40102 70522 83530 333 58018 83618 85360==
41978,2023,04,06,03,00,AAXX 06034 41978 41450 41507 10292 20240 30118 40125 70521 82520 333 20245 58023 82616 83460==
41978,2023,04,06,06,00,AAXX 06064 41978 41450 42710 10310 20240 30112 40119 70522 82520 333 58014 82616 83460==
41978,2023,04,06,09,00,AAXX 06094 41978 41450 42708 10320 20240 30089 40095 70522 82520 333 58018 82616 83460==
41978,2023,04,06,12,00,AAXX 06124 41978 01450 23007 10306 20250 30083 40089 70521 82500 333 10324 58010 70000 82618==
41978,2023,04,06,15,00,AAXX 06154 41978 01450 10000 10277 20230 30096 40103 70511 81500 333 58001 70000 81618==
41978,2023,04,06,18,00,AAXX 06184 41978 01450 10000 10261 20230 30101 40108 70511 81500 333 59008 70000 81618==
41978,2023,04,06,21,00,AAXX 06214 41978 01450 10000 10245 20230 30102 40108 70511 81500 333 58012 70000 81618==
41980,2023,03,31,00,00,AAXX 31004 41980 31340 83605 10222 20180 39994 40108 71721 8732/ 333 56999 59002 70000 84709 85613 88456 81928=
41980,2023,03,31,12,00,AAXX 31124 41980 32940 30000 10290 20210 39974 40085 83030 333 10343 56090 58006 70040 83362=
41980,2023,03,31,18,00,AAXX 31184 41980 NIL=
41980,2023,04,01,00,00,AAXX 01004 41980 NIL=
41980,2023,04,01,06,00,AAXX 01064 41980 NIL=
41980,2023,04,01,12,00,AAXX 01124 41980 11440 80000 10218 20200 39967 40081 60083 76122 8572/ 333 10263 56999 59007 70270 82710 84615 88457=
41980,2023,04,01,18,00,AAXX 01184 41980 NIL=
41980,2023,04,02,12,00,AAXX 02124 41980 32940 00000 10274 20180 39957 40069 333 10313 59010 70020=
41980,2023,04,03,12,00,AAXX 03124 41980 32940 00000 10274 20220 39969 40080 333 10317 59005 70050=
41980,2023,04,03,18,00,AAXX 03184 41980 NIL=
41980,2023,04,04,00,00,AAXX 04004 41980 NIL=
41980,2023,04,04,06,00,AAXX 04064 41980 NIL=
41980,2023,04,04,12,00,AAXX 04124 41980 32950 00000 10285 20230 39970 40081 333 10328 58001 70000=
41980,2023,04,04,18,00,AAXX 04184 41980 NIL=
41980,2023,04,05,12,00,AAXX 05124 41980 32440 80000 10286 20230 39978 40090 8562/ 333 10330 56999 58008 70000 82710 84615 88458=
41980,2023,04,05,18,00,AAXX 05184 41980 NIL=
41980,2023,04,06,12,00,AAXX 06124 41980 32950 00000 10310 20179 30081 40991 333 10353 58003 70000=
41984,2023,03,31,00,00,AAXX 31004 41984 02440 60000 10246 20220 30070 40072 83510 333 59008 70000 83618 85458==
41984,2023,03,31,03,00,AAXX 31034 41984 02456 60000 10284 20250 30098 40100 83510 333 20238 58005 70000 83618 85458==
41984,2023,03,31,06,00,AAXX 31064 41984 02457 80000 10292 20260 30100 40102 8352/ 333 58009 70000 83618 88458==
41984,2023,03,31,09,00,AAXX 31094 41984 02457 81702 10310 20260 30075 40077 8352/ 333 58014 70000 83618 88458==
41984,2023,03,31,12,00,AAXX 31124 41984 01456 80000 10242 20230 30068 40070 70296 8352/ 333 10316 58014 70090 83618 88458==
41984,2023,03,31,15,00,AAXX 31154 41984 42440 50000 10240 20230 30078 40080 83510 333 58004 83618 85458==
41984,2023,03,31,18,00,AAXX 31184 41984 42440 50000 10244 20230 30076 40078 83510 333 58000 83618 85458==
41984,2023,04,01,00,00,AAXX 01004 41984 01340 80000 10252 20250 30072 40075 79596 8693/ 333 58003 70010 83707 84615 88456 81925==
41984,2023,04,01,03,00,AAXX 01034 41984 01456 80000 10242 20230 30090 40092 70296 8352/ 333 20220 59008 70080 83618 88458==
41984,2023,04,01,06,00,AAXX 01064 41984 11457 80000 10280 20240 30085 40087 60076 70296 8352/ 333 59015 70080 83618 88458==
41984,2023,04,01,09,00,AAXX 01094 41984 01456 80000 10230 20220 30070 40072 70296 8352/ 333 59005 70300 83618 88458==
41984,2023,04,01,12,00,AAXX 01124 41984 11456 80000 10250 20230 30060 40062 60226 70296 8352/ 333 10315 59008 70300 83618 88458==
41984,2023,04,01,15,00,AAXX 01154 41984 02440 20000 10227 20227 30073 40075 82500 333 59005 70300 82618==
41984,2023,04,01,18,00,AAXX 01184 41984 02440 20000 10227 20227 30073 40075 82500 333 59003 70300 82618==
41984,2023,04,02,00,00,AAXX 02004 41984 02440 80000 10220 20220 30070 40072 8352/ 333 59004 70300 83618 88458==
41984,2023,04,02,03,00,AAXX 02034 41984 02457 50000 10280 20220 30080 40082 82530 333 20205 59010 70290 82618 83362==
41984,2023,04,02,06,00,AAXX 02064 41984 02457 50000 10303 20240 30076 40078 82530 333 59009 70290 82618 83362==
41984,2023,04,02,09,00,AAXX 02094 41984 02457 50000 10305 20260 30049 40051 83510 333 59021 70070 83618 85458==
41984,2023,04,02,12,00,AAXX 02124 41984 01456 20000 10265 20230 30045 40047 70191 82500 333 10328 59015 70070 82618==
41984,2023,04,02,15,00,AAXX 02154 41984 02440 20000 10253 20250 30058 40060 82500 333 59015 70070 82618==
41984,2023,04,02,18,00,AAXX 02184 41984 02440 20000 10257 20257 30062 40064 82500 333 59011 70070 82618==
41984,2023,04,02,21,00,AAXX 02214 41984 02440 20000 10258 20250 30058 40060 82500 333 59012 70070 82618==
41984,2023,04,03,00,00,AAXX 03004 41984 02456 30000 10260 20250 30046 40048 83500 333 59012 70000 83618==
41984,2023,04,03,03,00,AAXX 03034 41984 02457 52703 10295 20260 30080 40082 82530 333 20243 58000 70000 82618 83362==
41984,2023,04,03,06,00,AAXX 03064 41984 02457 52302 10320 20240 30074 40077 82530 333 59002 70000 82618 83362==
41984,2023,04,03,09,00,AAXX 03094 41984 02457 80000 10303 20250 30054 40056 8352/ 333 58005 70000 83618 88458==
41984,2023,04,03,12,00,AAXX 03124 41984 02456 50000 10290 20220 30055 40057 83510 333 10340 58008 70000 83618 85458==
41984,2023,04,03,15,00,AAXX 03154 41984 02440 20000 10265 20260 30070 40072 82500 333 58012 70000 82618==
41984,2023,04,03,18,00,AAXX 03184 41984 02440 20000 10258 20250 30071 40073 82500 333 58009 70000 82618==
41984,2023,04,03,21,00,AAXX 03214 41984 01440 20000 10254 20240 30068 40070 70500 82500 333 58010 70000 82618==
41984,2023,04,04,00,00,AAXX 04004 41984 01450 20000 10250 20240 30066 40068 70500 82500 333 58020 70000 82618==
41984,2023,04,04,03,00,AAXX 04034 41984 02457 22302 10310 20250 30087 40089 82500 333 20245 58007 70000 82618==
41984,2023,04,04,06,00,AAXX 04064 41984 02457 22304 10322 20240 30088 40090 82500 333 58014 70000 82618==
41984,2023,04,04,09,00,AAXX 04094 41984 02457 22703 10317 20250 30065 40067 82500 333 58011 70000 82618==
41984,2023,04,04,12,00,AAXX 04124 41984 02456 22302 10290 20250 30058 40060 82500 333 10328 58007 70000 82618==
41984,2023,04,04,15,00,AAXX 04154 41984 02940 02702 10272 20250 30072 40074 333 58002 70000==
41984,2023,04,04,18,00,AAXX 04184 41984 02940 00000 10268 20250 30071 40073 333 58000 70000==
41984,2023,04,05,03,00,AAXX 05034 41984 02457 31804 10301 20250 30073 40075 83500 333 20263 59014 70000 83618==
41984,2023,04,05,06,00,AAXX 05064 41984 02457 32203 10314 20250 30080 40082 83500 333 59008 70000 83618==
41984,2023,04,05,09,00,AAXX 05094 41984 02457 52202 10322 20260 30052 40054 83510 333 59013 70000 83618 85458==
41984,2023,04,05,12,00,AAXX 05124 41984 02456 82202 10293 20260 30055 40057 8352/ 333 10327 59008 70000 83618 88458==
41984,2023,04,05,15,00,AAXX 05154 41984 02440 20000 10277 20260 30078 40080 82500 333 58006 70000 82618==
41984,2023,04,05,18,00,AAXX 05184 41984 02940 00000 10268 20260 30080 40082 333 58009 70000==
41984,2023,04,06,00,00,AAXX 06004 41984 02956 00000 10250 20250 30072 40074 333 58027 70000==
41984,2023,04,06,03,00,AAXX 06034 41984 02457 20000 10300 20250 30101 40103 82500 333 20250 58028 70000 82618==
41984,2023,04,06,06,00,AAXX 06064 41984 02457 20000 10331 20250 30101 40103 82500 333 58021 70000 82618==
41984,2023,04,06,09,00,AAXX 06094 41984 02957 00000 10334 20250 30082 40084 333 58030 70000==
41984,2023,04,06,12,00,AAXX 06124 41984 02956 00000 10300 20240 30074 40076 333 10350 58021 70000==
41984,2023,04,06,15,00,AAXX 06154 41984 02940 00000 10270 20260 30091 40093 333 58013 70000==
41984,2023,04,06,18,00,AAXX 06184 41984 02940 00000 10259 20259 30094 40097 333 58014 70000==
41984,2023,04,06,21,00,AAXX 06214 41984 01940 00000 10257 20257 30091 40093 70500 333 58016 70000==
41989,2023,03,31,03,00,AAXX 31034 41989 01450 31403 10250 20210 30105 40108 70162 82530 333 20220 59009 70190 82618 83362==
41989,2023,03,31,06,00,AAXX 31064 41989 21450 51804 10290 20220 30116 40120 70362 83530 333 58002 60198 70190 83618 84362==
41989,2023,03,31,09,00,AAXX 31094 41989 02450 41703 10305 20230 30084 40087 82500 333 58002 70190 82618 84362==
41989,2023,03,31,12,00,AAXX 31124 41989 NIL=
41989,2023,03,31,18,00,AAXX 31184 41989 NIL=
41989,2023,04,01,00,00,AAXX 01004 41989 NIL=
41989,2023,04,01,03,00,AAXX 01034 41989 01440 61806 10255 20230 30100 40103 70362 83530 333 20225 59005 70110 83618 83362==
41989,2023,04,01,06,00,AAXX 01064 41989 11450 31704 10268 20220 30105 40108 60116 70162 83500 333 59011 70110 83618==
41989,2023,04,01,09,00,AAXX 01094 41989 02450 61404 10282 20230 30073 40077 82570 333 59011 70110 82618 84460==
41989,2023,04,01,12,00,AAXX 01124 41989 21450 51302 10237 20230 30065 40058 70162 82570 333 10291 59008 60055 70160 82618 83362==
41989,2023,04,01,13,00,AAXX 01134 41989 21450 51302 10237 20230 30065 40058 70162 82570 333 10291 59008 60055 70160 82618 83362==
41989,2023,04,01,15,00,AAXX 01154 41989 02440 50000 10233 20210 30078 40082 82570 333 59011 70160 82618 83460==
41989,2023,04,01,18,00,AAXX 01184 41989 NIL=
41989,2023,04,02,03,00,AAXX 02034 41989 01450 21303 10262 20230 30098 40141 70162 82500 333 20215 59008 70080 82618==
41989,2023,04,02,06,00,AAXX 02064 41989 11450 21803 10280 20220 30100 40103 60036 70162 83500 333 59005 70080 82618==
41989,2023,04,02,09,00,AAXX 02094 41989 02450 11704 10300 20200 30070 40073 81500 333 59003 70080 81618==
41989,2023,04,02,12,00,AAXX 02124 41989 02450 21803 10268 20230 30062 40065 82500 333 10305 59003 70030 82618==
41989,2023,04,02,15,00,AAXX 02154 41989 42450 21403 10250 20220 30084 40087 82500 333 58007 82618==
41989,2023,04,02,18,00,AAXX 02184 41989 02440 23202 10245 20230 30091 40095 82500 333 58008 70030 82618==
41989,2023,04,03,03,00,AAXX 03034 41989 02450 31803 10260 20210 30106 40109 83500 333 20217 58008 70040 83618==
41989,2023,04,03,09,00,AAXX 03094 41989 02450 31402 10315 20230 30080 40083 83500 333 59020 70040 83618==
41989,2023,04,03,12,00,AAXX 03124 41989 NIL=
41989,2023,04,03,15,00,AAXX 03154 41989 02440 20000 10247 20220 30074 40077 82500 333 59010 70040 82618==
41989,2023,04,03,18,00,AAXX 03184 41989 02440 20000 10240 20210 30083 40086 82500 333 58008 70040 83618==
41989,2023,04,03,21,00,AAXX 03214 41989 02440 30000 10230 20210 30079 40082 82530 333 59010 70040 82618 83362==
41989,2023,04,04,00,00,AAXX 04004 41989 02440 20000 10224 20200 30078 40081 82500 333 59001 70000 82618==
41989,2023,04,04,03,00,AAXX 04034 41989 02450 41303 10276 20230 30096 40100 82530 333 20218 59010 70000 82618 84362==
41989,2023,04,04,06,00,AAXX 04064 41989 NIL=
41989,2023,04,04,09,00,AAXX 04094 41989 02450 21304 10307 20260 30082 40085 82500 333 58002 70000 82618==
41989,2023,04,04,12,00,AAXX 04124 41989 NIL=
41989,2023,04,04,18,00,AAXX 04184 41989 NIL=
41989,2023,04,04,21,00,AAXX 04214 41989 02940 01804 10270 20250 30058 40060 333 59010 70000==
41989,2023,04,05,00,00,AAXX 05004 41989 02456 21804 10270 20250 30049 40051 82500 333 59017 70000 82618==
41989,2023,04,05,03,00,AAXX 05034 41989 02450 41803 10275 20220 30099 40102 84500 333 20205 58003 70000 84618==
41989,2023,04,05,06,00,AAXX 05064 41989 02450 21304 10320 20250 30101 40104 82500 333 59005 70000 82618==
41989,2023,04,05,12,00,AAXX 05124 41989 NIL=
41989,2023,04,05,18,00,AAXX 05184 41989 NIL=
41989,2023,04,06,06,00,AAXX 06064 41989 02450 41803 10317 20220 30106 40110 84500 333 58003 70000 84618==
41989,2023,04,06,09,00,AAXX 06094 41989 02450 21305 10315 20250 30078 40081 82500 333 58002 70000 82618==
41989,2023,04,06,12,00,AAXX 06124 41989 02450 11403 10295 20250 30074 40077 82500 333 10320 58001 70000 81618==
41992,2023,03,31,00,00,AAXX 31004 41992 01420 60000 10250 20240 30096 40098 70521 84530 333 59008 70000 84615 86362==
41992,2023,03,31,03,00,AAXX 31034 41992 01930 00000 10300 20240 30121 40123 70500 333 20245 58008 70000==
41992,2023,03,31,06,00,AAXX 31064 41992 01430 60000 10310 20250 30113 40115 70592 84520 333 58002 70000 84616 86460==
41992,2023,03,31,09,00,AAXX 31094 41992 01/30 23603 10320 20240 30089 40091 70522 82030 333 58005 70000 82362==
41992,2023,03,31,12,00,AAXX 31124 41992 01/30 20000 10296 20230 30079 40081 70521 82030 333 10333 58002 70000 82362==
41992,2023,03,31,15,00,AAXX 31154 41992 01925 00000 10277 20230 30096 40098 70500 333 58006 70000==
41992,2023,03,31,18,00,AAXX 31184 41992 01925 00000 10267 20240 30100 40102 70500 333 58008 70000==
41992,2023,03,31,21,00,AAXX 31214 41992 01425 50000 10262 20240 30080 40082 70521 84530 333 59006 70000 84616 85362==
41992,2023,04,01,00,00,AAXX 01004 41992 01420 60000 10254 20230 30086 40088 70522 84530 333 59010 70000 84615 86362==
41992,2023,04,01,03,00,AAXX 01034 41992 01315 83610 10242 20220 30116 40118 79521 8592/ 333 20242 59005 70050 83707 85613 88458 81925==
41992,2023,04,01,06,00,AAXX 01064 41992 21435 33602 10284 20190 30102 40104 70596 82530 333 59011 60055 70050 82616 83362==
41992,2023,04,01,09,00,AAXX 01094 41992 01430 62405 10320 20200 30080 40082 70522 84530 333 59009 70050 84616 86362==
41992,2023,04,01,12,00,AAXX 01124 41992 21325 82110 10245 20230 30082 40084 75196 8592/ 333 10325 58003 60055 70100 82708 84613 88458 81925==
41992,2023,04,01,15,00,AAXX 01154 41992 01420 42405 10240 20190 30086 40088 70555 84500 333 59010 70100 84616==
41992,2023,04,01,18,00,AAXX 01184 41992 01425 40000 10230 20210 30089 40091 70511 84500 333 59011 70100 84616==
41992,2023,04,01,21,00,AAXX 01214 41992 01420 40000 10225 20210 30081 40083 70511 84500 333 58001 70100 84616==
41992,2023,04,02,00,00,AAXX 02004 41992 01420 80000 10230 20210 30082 40084 70522 8532/ 333 59004 70100 84616 88460 81925==
41992,2023,04,02,03,00,AAXX 02034 41992 01430 30000 10238 20190 30106 40108 70596 82530 333 20225 59010 70120 82616 83362==
41992,2023,04,02,06,00,AAXX 02064 41992 11430 40000 10288 20210 30099 40101 60076 70596 82530 333 59003 70120 82616 84362==
41992,2023,04,02,09,00,AAXX 02094 41992 01430 40000 10290 20220 30072 40074 70530 84500 333 59008 70120 84616==
41992,2023,04,02,12,00,AAXX 02124 41992 01/30 30000 10270 20210 30070 40072 70511 83030 333 10305 59012 70070 83362==
41992,2023,04,02,15,00,AAXX 02154 41992 01425 52104 10260 20230 30088 40090 70521 83530 333 58002 70070 83616 85362==
41992,2023,04,02,18,00,AAXX 02184 41992 01425 30000 10243 20220 30083 40085 70521 82530 333 59006 70070 82616 83362==
41992,2023,04,02,21,00,AAXX 02214 41992 11315 82105 10230 20210 30074 40076 60097 76162 8432/ 333 56999 59008 70160 84615 81925 88458=
41992,2023,04,03,00,00,AAXX 03004 41992 21315 82105 10230 20210 30074 40076 76162 8432/ 333 59008 60097 70160 84615 88458 81925==
41992,2023,04,03,03,00,AAXX 03034 41992 01425 62103 10250 20210 30109 40111 70565 83520 333 20225 58003 70180 83616 86460==
41992,2023,04,03,06,00,AAXX 03064 41992 01/30 60000 10300 20230 30102 40104 70562 86030 333 58003 70180 86362==
41992,2023,04,03,09,00,AAXX 03094 41992 01/30 22103 10298 20220 30079 40081 70521 82030 333 58007 70180 82362==
41992,2023,04,03,12,00,AAXX 03124 41992 01/30 22102 10272 20230 30082 40084 70521 82030 333 10305 58012 70180 82362==
41992,2023,04,03,15,00,AAXX 03154 41992 01420 62104 10260 20230 30092 40094 70522 84530 333 58004 70180 84616 86362==
41992,2023,04,03,18,00,AAXX 03184 41992 01925 00000 10244 20220 30092 40094 70521 333 58009 70180==
41992,2023,04,03,21,00,AAXX 03214 41992 01420 52102 10238 20220 30082 40084 70522 83530 333 58011 70180 83616 86362==
41992,2023,04,04,00,00,AAXX 04004 41992 01420 62102 10235 20220 30086 40088 70522 84530 333 58012 70090 84616 86362==
41992,2023,04,04,03,00,AAXX 04034 41992 01/30 22103 10292 20240 30116 40118 70521 82030 333 20232 58007 70000 82362==
41992,2023,04,04,06,00,AAXX 04064 41992 01/35 22103 10308 20250 30110 40112 70521 82030 333 58008 70000 82362==
41992,2023,04,04,09,00,AAXX 04094 41992 01430 32104 10322 20240 30086 40088 70521 82530 333 58007 70000 82616 83362==
41992,2023,04,04,12,00,AAXX 04124 41992 01430 32103 10290 20240 30079 40081 70521 82530 333 10325 59003 70000 82616 83362==
41992,2023,04,04,15,00,AAXX 04154 41992 01925 00000 10270 20250 30098 40100 70510 333 58006 70000==
41992,2023,04,04,18,00,AAXX 04184 41992 01425 40000 10265 20250 30092 40094 70511 84500 333 58000 70000==
41992,2023,04,04,21,00,AAXX 04214 41992 01425 40000 10260 20240 30087 40089 70511 84500 333 58005 70000 84616==
41992,2023,04,05,00,00,AAXX 05004 41992 01425 30000 10255 20240 30088 40090 70511 83500 333 59002 70000 83616==
41992,2023,04,05,03,00,AAXX 05034 41992 01/30 20000 10297 20250 30108 40110 70511 82030 333 20255 59008 70000 82362==
41992,2023,04,05,06,00,AAXX 05064 41992 01430 32103 10308 20250 30106 40108 70511 82530 333 59004 70000 82616 83362==
41992,2023,04,05,09,00,AAXX 05094 41992 01530 22104 10310 20240 30081 40083 70511 82100 333 59013 70000 82825==
41992,2023,04,05,12,00,AAXX 05124 41992 01430 40000 10290 20240 30081 40083 70511 84500 333 10320 58002 70000 84616==
41992,2023,04,05,15,00,AAXX 05154 41992 01925 00000 10275 20250 30102 40104 70500 333 58004 70000==
41992,2023,04,05,18,00,AAXX 05184 41992 01425 30000 10272 20240 30098 40100 70510 83500 333 58006 70000==
41992,2023,04,05,21,00,AAXX 05214 41992 01420 40000 10265 20250 30089 40091 70521 83530 333 58002 70000 83616 84362==
41992,2023,04,06,00,00,AAXX 06004 41992 01420 60000 10255 20240 30096 40098 70522 84530 333 58008 70000 84616 86362==
41992,2023,04,06,03,00,AAXX 06034 41992 01530 20000 10300 20240 30124 40126 70521 82100 333 20248 58016 70000 82825==
41992,2023,04,06,06,00,AAXX 06064 41992 01430 30000 10325 20250 30118 40120 70521 83500 333 58012 70000 83616==
41992,2023,04,06,09,00,AAXX 06094 41992 01930 02105 10328 20250 30092 40094 70511 333 58011 70000==
41992,2023,04,06,12,00,AAXX 06124 41992 01930 02104 10300 20220 30088 40090 70510 333 10335 58007 70000==
41992,2023,04,06,15,00,AAXX 06154 41992 01925 02102 10277 20240 30103 40105 70500 333 58001 70000==
41992,2023,04,06,18,00,AAXX 06184 41992 01925 00000 10254 20230 30101 40103 70500 333 58003 70000==
41992,2023,04,06,21,00,AAXX 06214 41992 01925 00000 10252 20230 30095 40097 70500 333 58006 70000==
41998,2023,03,31,03,00,AAXX 31034 41998 02456 60000 10294 20220 30091 40097 83470 333 20207 59012 70000 82618 83458==
41998,2023,03,31,09,00,AAXX 31094 41998 02956 02902 10308 20240 30099 40105 333 59006 70000==
41998,2023,03,31,12,00,AAXX 31124 41998 02956 00000 10283 20230 30101 40107 333 10328 59007 70000==
41998,2023,03,31,18,00,AAXX 31184 41998 NIL=
41998,2023,04,01,00,00,AAXX 01004 41998 NIL=
41998,2023,04,01,03,00,AAXX 01034 41998 02456 60000 10252 20210 30095 40101 83470 333 20200 58004 70000 82618 83458==
41998,2023,04,01,06,00,AAXX 01064 41998 NIL=
41998,2023,04,01,12,00,AAXX 01124 41998 02456 60000 10288 20230 30084 40090 83470 333 10330 59017 70000 82618 83458==
41998,2023,04,01,18,00,AAXX 01184 41998 NIL=
41998,2023,04,02,06,00,AAXX 02064 41998 11456 70000 10288 20210 30093 40099 60086 70262 83470 333 58005 70080 82618 86458==
41998,2023,04,02,09,00,AAXX 02094 41998 02456 71601 10280 20210 30071 40077 83470 333 59003 70080 82618 86458==
41998,2023,04,02,12,00,AAXX 02124 41998 02456 70000 10270 20240 30074 40080 83470 333 10300 59010 70000 82618 83458==
41998,2023,04,03,09,00,AAXX 03094 41998 02456 20602 10304 20220 30075 40081 82400 333 58004 70070 82618==
41998,2023,04,03,12,00,AAXX 03124 41998 02456 20000 10274 20230 30084 40090 82400 333 10310 58010 70070 82618==
41998,2023,04,03,18,00,AAXX 03184 41998 NIL=
41998,2023,04,04,00,00,AAXX 04004 41998 NIL=
41998,2023,04,04,06,00,AAXX 04064 41998 02456 60000 10258 20210 30099 40105 83470 333 20193 58004 70000 82618 83458==
41998,2023,04,04,09,00,AAXX 04094 41998 02456 41202 10308 20240 30085 40091 82470 333 58010 70000 82618 83458==
41998,2023,04,04,12,00,AAXX 04124 41998 02456 40000 10276 20240 30090 40096 82470 333 10323 58006 70000 82618 83458==
41998,2023,04,04,18,00,AAXX 04184 41998 NIL=
41998,2023,04,05,03,00,AAXX 05034 41998 02956 00000 10266 20230 30102 40108 333 20200 58003 70000==
41998,2023,04,05,06,00,AAXX 05064 41998 02456 52802 10316 20240 30103 40109 83470 333 59002 70000 82618 83458==
41998,2023,04,05,12,00,AAXX 05124 41998 02456 50000 10281 20240 30092 40098 82470 333 10318 58002 70000 82618 83458==
41998,2023,04,05,18,00,AAXX 05184 41998 NIL=
41998,2023,04,06,06,00,AAXX 06064 41998 02456 50000 10273 20220 30110 40116 83470 333 20220 58008 70000 82618 83458==
41998,2023,04,06,09,00,AAXX 06094 41998 02456 51002 10312 20240 30089 40095 83470 333 58004 70000 82618 83458==
41998,2023,04,06,12,00,AAXX 06124 41998 02456 50000 10278 20230 30096 40102 83470 333 10328 58004 70000 82618 83458==
