ESTACION,ANO,MES,DIA,HORA,MINUTO,PARTE
41850,2024,08,16,00,00,AAXX 16004 41850 31950 00000 10255 20250 39933 40031 70510 333 59002 70100=
41850,2024,08,16,06,00,AAXX 16064 41850 32457 21302 10330 20240 39939 40035 82500 333 56900 58003 70100 82618=
41850,2024,08,16,12,00,AAXX 16124 41850 32456 20000 10322 20270 39909 40005 82500 333 10346 56900 59003 70100 82618=
41850,2024,08,16,18,00,AAXX 16184 41850 31945 00000 10288 20280 39941 40038 70510 333 59005 70000=
41850,2024,08,17,00,00,AAXX 17004 41850 31950 00000 10275 20275 39940 40037 70500 333 59007 70000=
41850,2024,08,17,03,00,AAXX 17034 41850 NIL=
41850,2024,08,17,06,00,AAXX 17064 41850 32457 60000 10332 20260 39935 40031 82510 333 56990 59004 70000 82618 86458=
41850,2024,08,17,12,00,AAXX 17124 41850 32456 70000 10332 20280 39917 40013 82510 333 10354 56990 58008 70000 82616 87458=
41850,2024,08,17,18,00,AAXX 17184 41850 11425 80000 10254 20240 39930 40028 60448 71096 8352/ 333 56999 59011 70440 83616 88458=
41850,2024,08,18,00,00,AAXX 18004 41850 31925 20000 10252 20250 39948 40047 71020 82030 333 56090 58008 70440 82360=
41850,2024,08,18,06,00,AAXX 18064 41850 32457 40000 10334 20250 39957 40054 82430 333 56990 58022 70440 81618 84360=
41850,2024,08,18,12,00,AAXX 18124 41850 32456 40000 10320 20270 39929 40025 82530 333 10350 56990 58012 70440 82618 84360=
41850,2024,08,18,18,00,AAXX 18184 41850 NIL=
41850,2024,08,19,00,00,AAXX 19004 41850 31425 40000 10272 20260 39937 40035 71021 81530 333 56990 59011 70000 81618 84360=
41850,2024,08,19,06,00,AAXX 19064 41850 32457 42702 10328 20260 39944 40040 82530 333 56990 59013 70000 82618 84360=
41850,2024,08,19,12,00,AAXX 19124 41850 11350 82709 10270 20250 39921 40018 60054 79596 8532/ 333 10343 56999 59008 70050 84707 81928 88457=
41850,2024,08,19,18,00,AAXX 19184 41850 31430 81809 10265 20260 39953 40051 70522 8352/ 333 56999 58003 70050 83618 88458=
41850,2024,08,20,00,00,AAXX 20004 41850 31440 80000 10260 20250 39935 40033 70522 8352/ 333 56999 59002 70050 83618 88458=
41850,2024,08,20,06,00,AAXX 20064 41850 32457 81304 10305 20250 39957 40053 8352/ 333 56999 58013 70050 83618 88448=
41850,2024,08,20,12,00,AAXX 20124 41850 31450 82707 10282 20230 39938 40035 70522 8352/ 333 10323 56999 58017 70000 83618 88458=
41850,2024,08,20,18,00,AAXX 20184 41850 31430 80903 10272 20220 39978 40076 70522 8352/ 333 56999 58025 70000 83618 88458=
41850,2024,08,21,00,00,AAXX 21004 41850 11440 80902 10254 20230 39950 40048 60064 70562 8352/ 333 56999 58015 70060 83618 88458=
41850,2024,08,21,06,00,AAXX 21064 41850 32456 62702 10315 20240 39966 40062 83510 333 56990 58009 70060 83618 86458=
41850,2024,08,21,12,00,AAXX 21124 41850 32456 31303 10295 20260 39933 40030 84500 333 10337 56900 59005 70060 84618=
41850,2024,08,21,18,00,AAXX 21184 41850 11430 80000 10266 20260 39964 40062 60026 70562 8352/ 333 56999 59014 70080 83618 88458=
41850,2024,08,22,00,00,AAXX 22004 41850 31430 82702 10265 20260 39947 40045 70522 8252/ 333 56999 59003 70020 82618 88458=
41850,2024,08,22,06,00,AAXX 22064 41850 32457 30000 10330 20240 39951 40047 83500 333 56900 70020 83618=
41850,2024,08,22,12,00,AAXX 22124 41850 32456 61803 10290 20250 39927 40024 83510 333 10346 56990 59006 70020 83618 86458=
41850,2024,08,22,18,00,AAXX 22184 41850 31430 81302 10271 20260 39964 40062 70522 8352/ 333 56999 58000 70000 83618 88458=
41851,2024,08,16,00,00,AAXX 16004 41851 32450 60000 10256 20250 39965 40028 83510 333 56990 59009 70042 83618 85459=
41851,2024,08,16,06,00,AAXX 16064 41851 32450 51302 10330 20250 39976 40037 82510 333 56990 58003 70042 82618 84449=
41851,2024,08,16,12,00,AAXX 16124 41851 32450 30000 10333 20260 39942 40003 83500 333 10350 56900 59008 70000 83618=
41851,2024,08,16,18,00,AAXX 16184 41851 32450 10000 10295 20290 39978 40040 81500 333 56900 59005 70000 81618=
41851,2024,08,17,00,00,AAXX 17004 41851 32450 30000 10285 20280 39972 40034 83500 333 56900 58007 70000 83618=
41851,2024,08,17,03,00,AAXX 17034 41851 32450 50000 10330 20270 39979 40040 83510 333 56990 58003 70000 83618 84459=
41851,2024,08,17,12,00,AAXX 17124 41851 32450 71303 10315 20270 39957 40018 83520 333 10360 56990 58015 70000 83618 85458=
41851,2024,08,17,18,00,AAXX 17184 41851 11450 83501 10275 20270 39994 40056 69965 70362 8352/ 333 56999 58016 70006 83618 88458=
41851,2024,08,18,00,00,AAXX 18004 41851 32450 50000 10265 20260 39983 40046 83510 333 56990 58011 70006 83618 84459=
41851,2024,08,18,06,00,AAXX 18064 41851 11350 80000 10275 20260 39996 40058 60074 79520 8432/ 333 56499 58017 70071 81710 83616 81930 88457=
41851,2024,08,18,12,00,AAXX 18124 41851 31450 31801 10313 20250 39965 40026 70292 83500 333 10335 56900 58008 70071 83618=
41851,2024,08,18,18,00,AAXX 18184 41851 32450 30902 10278 20260 39993 40055 83500 333 56900 59001 70065 83618=
41851,2024,08,19,00,00,AAXX 19004 41851 32450 30000 10274 20260 39971 40033 83500 333 56900 59012 70065 83618=
41851,2024,08,19,06,00,AAXX 19064 41851 32450 50901 10328 20270 39979 40040 82510 333 56990 59017 70000 82618 84459=
41851,2024,08,19,12,00,AAXX 19124 41851 11350 81302 10280 20250 39959 40021 60034 79522 8432/ 333 10340 56999 59006 70033 81710 83616 81930 88457=
41851,2024,08,19,18,00,AAXX 19184 41851 31450 51301 10268 20260 39984 40047 70292 83530 333 56990 59009 70033 83618 83362=
41851,2024,08,20,00,00,AAXX 20004 41851 32450 30000 10264 20250 39971 40033 89530 333 56990 58000 70033 82618=
41851,2024,08,20,06,00,AAXX 20064 41851 32450 50905 10310 20240 39990 40052 83510 333 56990 59011 70033 83618 84459=
41851,2024,08,20,12,00,AAXX 20124 41851 32350 80920 10278 20230 39974 40036 8462/ 333 10312 56299 58015 70000 81709 83617 88457 90620 91020=
41851,2024,08,20,18,00,AAXX 20184 41851 32450 80904 10263 20230 30006 40069 8352/ 333 56999 58022 70000 83617 88457=
41851,2024,08,21,00,00,AAXX 21004 41851 32450 80901 10254 20240 39993 40056 82530 333 56990 58022 70000 82618 84362=
41851,2024,08,21,06,00,AAXX 21064 41851 32450 61203 10315 20270 39998 40059 83520 333 56290 58008 70000 83618 86458=
41851,2024,08,21,12,00,AAXX 21124 41851 32450 71502 10306 20250 39969 40030 83520 333 10325 56990 59005 70000 83617 87458=
41851,2024,08,21,18,00,AAXX 21184 41851 32450 71501 10273 20250 39999 40062 83520 333 56990 59007 70000 83618 87458=
41851,2024,08,22,00,00,AAXX 22004 41851 32450 70000 10265 20250 39983 40046 83520 333 56290 59010 70000 83617 87457=
41851,2024,08,22,06,00,AAXX 22064 41851 32450 60901 10310 20260 39986 40048 83520 333 56990 59012 70000 83617 86458=
41851,2024,08,22,12,00,AAXX 22124 41851 31350 81502 10298 20260 39969 40031 71722 8492/ 333 10336 56399 58000 70000 81709 83617 81930 88457=
41851,2024,08,22,18,00,AAXX 22184 41851 11450 81502 10268 20250 39999 40062 69956 70296 8352/ 333 56999 58000 70005 83617 88457=
41856,2024,08,16,00,00,AAXX 16004 41856 32940 00000 10261 20250 39990 40025 333 59015 70000=
41856,2024,08,16,06,00,AAXX 16064 41856 32956 31402 10340 20260 39999 40033 83030 333 56090 58000 70000 83362=
41856,2024,08,16,12,00,AAXX 16124 41856 32956 31401 10316 20290 39969 40004 83030 333 10365 56090 59009 70000 83362=
41856,2024,08,16,18,00,AAXX 16184 41856 32930 21401 10290 20280 30003 40038 82030 333 56090 58000 70000 82362=
41856,2024,08,17,00,00,AAXX 17004 41856 32940 21301 10277 20270 30000 40035 82030 333 56090 58010 70000 82362=
41856,2024,08,17,03,00,AAXX 17034 41856 32950 21801 10337 20270 30005 40039 82030 333 56090 58006 70000 82362=
41856,2024,08,17,12,00,AAXX 17124 41856 32450 41303 10280 20240 39982 40017 83430 333 10355 56990 58013 70000 82618 83362=
41856,2024,08,17,18,00,AAXX 17184 41856 32430 50000 10275 20260 30015 40050 83430 333 56990 58012 70000 82618 84362=
41856,2024,08,18,00,00,AAXX 18004 41856 32440 50000 10265 20260 30008 40043 83430 333 56990 58008 70000 82618 84362=
41856,2024,08,18,06,00,AAXX 18064 41856 11450 81801 10280 20260 30022 40057 60054 70362 8452/ 333 56999 58017 70054 84618 88457=
41856,2024,08,18,12,00,AAXX 18124 41856 32450 30000 10315 20250 39989 40024 82430 333 10330 56990 58007 70054 81618 83362=
41856,2024,08,18,18,00,AAXX 18184 41856 32930 20000 10278 20270 30018 40053 82030 333 56090 58003 70054 82030=
41856,2024,08,19,00,00,AAXX 19004 41856 11440 50000 10265 20260 39997 40032 60014 70262 83430 333 56990 59009 70064 82618 85362=
41856,2024,08,19,06,00,AAXX 19064 41856 32456 50901 10325 20260 30004 40039 83430 333 56990 59018 70010 81618 83825 85362=
41856,2024,08,19,12,00,AAXX 19124 41856 11440 50501 10275 20260 39987 40022 60114 70162 83530 333 10338 56990 59002 70120 83618 85362=
41856,2024,08,19,18,00,AAXX 19184 41856 32930 30501 10265 20260 30005 40040 83030 333 56090 59013 70120 83362=
41856,2024,08,20,00,00,AAXX 20004 41856 32440 80501 10260 20250 39993 40028 8562/ 333 56299 59004 70110 83710 85618 88458=
41856,2024,08,20,06,00,AAXX 20064 41856 32450 80906 10280 20230 30013 40048 8562/ 333 56299 58009 70110 83710 85618 88458=
41856,2024,08,20,12,00,AAXX 20124 41856 11340 80705 10254 20240 39992 40028 60079 76166 8672/ 333 10304 56299 58005 70068 84708 84616 88456=
41856,2024,08,20,18,00,AAXX 20184 41856 32420 80905 10260 20240 30032 40068 8442/ 333 56999 58027 70068 83618 88458=
41856,2024,08,21,00,00,AAXX 21004 41856 11330 80601 10255 20250 30011 40046 60119 70266 8672/ 333 56299 58018 70174 83710 84618 88458=
41856,2024,08,21,06,00,AAXX 21064 41856 32450 61204 10295 20260 30023 40058 83430 333 56290 58010 70174 82618 85362=
41856,2024,08,21,12,00,AAXX 21124 41856 32450 40401 10293 20250 39996 40031 81530 333 10310 56290 58004 70106 81618 84362=
41856,2024,08,21,18,00,AAXX 21184 41856 32940 60000 10266 20250 30026 40061 86030 333 56020 58006 70106 86362=
41856,2024,08,22,00,00,AAXX 22004 41856 32440 80000 10260 20250 30009 40044 8442/ 333 56299 59002 70000 83618 88458=
41856,2024,08,22,06,00,AAXX 22064 41856 32450 81301 10310 20250 30012 40047 8442/ 333 56199 59011 70000 82618 88458=
41856,2024,08,22,12,00,AAXX 22124 41856 32450 81602 10280 20240 39996 40021 8452/ 333 10320 56999 58000 70000 83618 88458=
41856,2024,08,22,18,00,AAXX 22184 41856 32440 81602 10263 20240 30028 40064 8452/ 333 56999 58002 70000 83618 88458=
41858,2024,08,16,00,00,AAXX 16004 41858 21/50 30000 10268 20250 39980 40025 70596 83040 333 59012 60125 70170 83362==
41858,2024,08,16,03,00,AAXX 16034 41858 01450 60000 10295 20270 39992 40037 70522 84520 333 20252 59004 70170 84616 86458==
41858,2024,08,16,06,00,AAXX 16064 41858 01456 40000 10332 20250 39989 40033 70522 83520 333 58003 70170 83616==
41858,2024,08,16,09,00,AAXX 16094 41858 01450 51804 10340 20260 39969 40013 70522 84520 333 59003 70170 84616 85458==
41858,2024,08,16,12,00,AAXX 16124 41858 01450 40000 10332 20260 39961 40005 70522 82520 333 10345 59006 70170 82618 84458==
41858,2024,08,16,15,00,AAXX 16154 41858 01/40 30000 10306 20280 39990 40034 70521 83040 333 58000 70170 83362==
41858,2024,08,16,18,00,AAXX 16184 41858 01/40 30000 10298 20270 30000 40045 70511 83040 333 58004 70120 83362==
41858,2024,08,16,21,00,AAXX 16214 41858 01/40 31802 10286 20270 39996 40041 70511 83040 333 58009 70000 83362==
41858,2024,08,17,00,00,AAXX 17004 41858 01/40 30000 10288 20270 39992 40037 70511 83040 333 58012 70000 83362==
41858,2024,08,17,03,00,AAXX 17034 41858 01450 20000 10320 20260 30005 40049 70500 82500 333 20280 58013 70000 82618==
41858,2024,08,17,06,00,AAXX 17064 41858 01456 50000 10348 20260 39995 40039 70520 84520 333 58006 70000 84616 83458==
41858,2024,08,17,09,00,AAXX 17094 41858 01950 50000 10350 20270 39976 40020 70522 85800 333 58007 70000 83618 83825==
41858,2024,08,17,12,00,AAXX 17124 41858 01450 70000 10292 20240 39978 40023 70522 84520 333 10360 58017 70000 84615 86458==
41858,2024,08,17,15,00,AAXX 17154 41858 01450 70000 10280 20240 30004 40049 70522 84520 333 58014 70000 84615 86458==
41858,2024,08,17,18,00,AAXX 17184 41858 01440 60000 10276 20250 30020 40065 70522 84520 333 58020 70000 84615 86458==
41858,2024,08,17,21,00,AAXX 17214 41858 01440 80000 10278 20260 39998 40043 70522 8452/ 333 58002 70000 84615 88458==
41858,2024,08,18,00,00,AAXX 18004 41858 01440 60000 10280 20260 30002 40047 70522 83520 333 58010 70000 83615 85458==
41858,2024,08,18,03,00,AAXX 18034 41858 01450 40000 10310 20260 30018 40063 70522 82530 333 20272 58013 70000 82618==
41858,2024,08,18,06,00,AAXX 18064 41858 01450 60000 10328 20260 30014 40058 70522 84520 333 58019 70000 84616 86458==
41858,2024,08,18,09,00,AAXX 18094 41858 01550 50605 10320 20260 39986 40030 70522 83230 333 58010 70000 83825 85362==
41858,2024,08,18,12,00,AAXX 18124 41858 02/56 60905 10318 20260 39981 40025 84040 333 10340 58003 70000 84362==
41858,2024,08,18,15,00,AAXX 18154 41858 01550 40000 10305 20260 39999 40044 71322 82340 333 59005 70000 82825 84362 81930==
41858,2024,08,18,18,00,AAXX 18184 41858 NIL=
41858,2024,08,18,21,00,AAXX 18214 41858 01/40 30000 10284 20250 39992 40037 70511 83030 333 59006 70000 83362==
41858,2024,08,19,00,00,AAXX 19004 41858 01/40 30000 10280 20260 39988 40033 70511 83030 333 59014 70000 83362==
41858,2024,08,19,03,00,AAXX 19034 41858 01450 50905 10304 20250 30004 40049 70522 83520 333 20272 59014 70000 83615 85458==
41858,2024,08,19,06,00,AAXX 19064 41858 01450 50905 10330 20250 39998 40042 70522 85800 333 59016 70000 83615 83825==
41858,2024,08,19,09,00,AAXX 19094 41858 01550 30905 10340 20260 39973 40017 70520 83200 333 59013 70000 83825==
41858,2024,08,19,12,00,AAXX 19124 41858 01450 60905 10300 20260 39974 40019 70522 83520 333 10340 59007 70000 83615 86458==
41858,2024,08,19,15,00,AAXX 19154 41858 01450 40000 10280 20250 30001 40046 70522 82530 333 58002 70000 82618==
41858,2024,08,19,18,00,AAXX 19184 41858 01440 20000 10270 20250 30013 40058 70521 82500 333 58005 70000 82618==
41858,2024,08,19,21,00,AAXX 19214 41858 01440 40000 10272 20250 39995 40040 70522 82520 333 58003 70000 83458==
41858,2024,08,20,00,00,AAXX 20004 41858 01440 40000 10275 20260 39990 40035 70522 82530 333 58002 70000 82618 83362==
41858,2024,08,20,03,00,AAXX 20034 41858 01550 30909 10300 20240 39999 40044 70522 83200 333 20262 59005 70000 83825==
41858,2024,08,20,06,00,AAXX 20064 41858 01550 30914 10320 20230 30006 40050 70522 83200 333 58008 70000 83825==
41858,2024,08,20,09,00,AAXX 20094 41858 01450 80910 10298 20230 39994 40039 70522 8452/ 333 58021 70000 84616 88458==
41858,2024,08,20,12,00,AAXX 20124 41858 01440 80910 10290 20230 39984 40029 70522 8452/ 333 10320 58010 70000 84615 88458==
41858,2024,08,20,15,00,AAXX 20154 41858 01440 80910 10274 20230 30008 40053 70522 8452/ 333 58007 70000 84615 88458==
41858,2024,08,20,18,00,AAXX 20184 41858 01440 80905 10270 20240 30023 40068 70522 8452/ 333 59010 70000 84615 88459==
41858,2024,08,20,21,00,AAXX 20214 41858 01450 80908 10268 20250 30005 40050 70522 8452/ 333 58010 70000 84615 88458==
41858,2024,08,21,00,00,AAXX 21004 41858 01350 80908 10265 20250 30000 40045 70522 8562/ 333 58010 70000 83708 85614 88458==
41858,2024,08,21,03,00,AAXX 21034 41858 01450 80905 10280 20250 30022 40067 70522 8452/ 333 20255 58023 70000 84616 88458==
41858,2024,08,21,06,00,AAXX 21064 41858 01450 80905 10300 20250 30014 40059 70522 8452/ 333 58008 70000 84616 88458==
41858,2024,08,21,09,00,AAXX 21094 41858 01450 80904 10315 20260 39994 40038 70522 8452/ 333 58000 70000 84616 88458==
41858,2024,08,21,12,00,AAXX 21124 41858 21450 80000 10310 20260 39988 40032 70562 83520 333 10320 58004 60017 70012 83618 85458==
41858,2024,08,21,15,00,AAXX 21154 41858 01/40 20000 10300 20260 30007 40052 70521 82030 333 59001 70012 82362==
41858,2024,08,21,18,00,AAXX 21184 41858 01/40 30000 10288 20260 30022 40067 70511 83030 333 59001 70012 83362==
41858,2024,08,21,21,00,AAXX 21214 41858 01440 40000 10280 20260 39998 40043 70521 82520 333 59007 70012 82618 84458==
41858,2024,08,22,00,00,AAXX 22004 41858 01430 40000 10268 20250 30000 40045 70522 82520 333 58000 70012 82618 84458==
41858,2024,08,22,03,00,AAXX 22034 41858 01440 40000 10310 20250 30009 40054 70522 83520 333 20258 59013 70012 83618 83458==
41858,2024,08,22,06,00,AAXX 22064 41858 01440 60905 10324 20250 30001 40045 70522 84520 333 59013 70012 84616 86458==
41858,2024,08,22,09,00,AAXX 22094 41858 01450 71210 10310 20250 39979 40023 70522 84520 333 59015 70012 84615 86458==
41858,2024,08,22,12,00,AAXX 22124 41858 21450 60905 10290 20250 39985 40030 70562 84520 333 10335 59003 69985 70008 84615 85458==
41858,2024,08,22,15,00,AAXX 22154 41858 01450 60908 10280 20250 30009 40054 70522 83520 333 58002 70008 83615 86458==
41858,2024,08,22,18,00,AAXX 22184 41858 01440 60906 10275 20250 30015 40060 70522 83520 333 59007 70008 83615 86458==
41858,2024,08,22,21,00,AAXX 22214 41858 01440 80905 10272 20250 30006 40051 70522 8452/ 333 58008 70008 84615 88458==
41859,2024,08,16,00,00,AAXX 16004 41859 02440 40502 10273 20250 39988 40025 82530 333 59016 70000 82618 84362==
41859,2024,08,16,03,00,AAXX 16034 41859 02450 40000 10321 20250 30002 40038 82530 333 20267 58002 70000 82618 84362==
41859,2024,08,16,06,00,AAXX 16064 41859 02450 41302 10338 20260 39996 40033 82540 333 58000 70000 82618 84362==
41859,2024,08,16,09,00,AAXX 16094 41859 02456 40000 10346 20240 39974 40011 82510 333 59003 70000 82618 84458==
41859,2024,08,16,12,00,AAXX 16124 41859 02450 40000 10338 20250 39967 40004 82530 333 10360 59010 70000 82618 84362==
41859,2024,08,16,15,00,AAXX 16154 41859 02430 30000 10312 20270 39995 40031 82530 333 59005 70000 82618 83362==
41859,2024,08,16,18,00,AAXX 16184 41859 02430 30000 10300 20270 39962 49998 82530 333 59046 70000 82618 83362==
41859,2024,08,16,21,00,AAXX 16214 41859 02430 30000 10290 20270 39953 49989 82530 333 59030 70000 82618 83362==
41859,2024,08,17,00,00,AAXX 17004 41859 02440 50000 10285 20280 39950 49986 82530 333 59038 70000 82618 85362==
41859,2024,08,17,03,00,AAXX 17034 41859 02450 50000 10339 20250 30003 40039 82530 333 20281 58001 70000 82618 85362==
41859,2024,08,17,06,00,AAXX 17064 41859 02450 80000 10341 20250 30003 40039 8562/ 333 58007 70000 82710 83618 88458==
41859,2024,08,17,09,00,AAXX 17094 41859 02450 70502 10359 20260 39981 40018 85410 333 58007 70000 82618 83825 87458==
41859,2024,08,17,12,00,AAXX 17124 41859 02440 81302 10291 20250 39986 40023 8562/ 333 10360 58019 70000 83710 84618 88458==
41859,2024,08,17,15,00,AAXX 17154 41859 02430 81301 10284 20260 30012 40049 8562/ 333 58017 70000 82710 83618 88458==
41859,2024,08,17,18,00,AAXX 17184 41859 02430 80000 10286 20270 30016 40053 8562/ 333 58054 70000 82710 83618 88458==
41859,2024,08,17,21,00,AAXX 17214 41859 02430 80501 10280 20260 30010 40047 8562/ 333 58057 70000 82710 84618 88458==
41859,2024,08,18,00,00,AAXX 18004 41859 02435 83601 10274 20260 30010 40047 8351/ 333 58060 70000 83618 88458==
41859,2024,08,18,03,00,AAXX 18034 41859 02450 83602 10311 20250 30026 40062 8352/ 333 20270 58023 70000 83618 88458==
41859,2024,08,18,06,00,AAXX 18064 41859 01350 80000 10286 20270 30025 40062 76162 8672/ 333 58022 70030 82708 83616 88457==
41859,2024,08,18,09,00,AAXX 18094 41859 02450 50902 10320 20250 39992 40028 83430 333 58011 70030 81618 82828 85362==
41859,2024,08,18,12,00,AAXX 18124 41859 02/50 40902 10326 20250 39990 40026 84030 333 10330 58004 70030 84362==
41859,2024,08,18,15,00,AAXX 18154 41859 02430 50000 10300 20260 30008 40044 82530 333 59004 70030 82618 85362==
41859,2024,08,18,18,00,AAXX 18184 41859 01430 60502 10286 20270 30018 40055 70162 84620 333 58002 70004 82710 83618 86458==
41859,2024,08,18,21,00,AAXX 18214 41859 02430 40501 10280 20260 30003 40040 82530 333 59007 70034 82618 84362==
41859,2024,08,19,00,00,AAXX 19004 41859 02/50 20302 10276 20260 39996 40033 82030 333 59014 70034 82362==
41859,2024,08,19,03,00,AAXX 19034 41859 02950 50902 10309 20250 30014 40050 82530 333 20270 59012 70004 82618 85362==
41859,2024,08,19,06,00,AAXX 19064 41859 01450 80000 10303 20260 30007 40034 72122 8562/ 333 59018 70034 83710 84618 88458==
41859,2024,08,19,09,00,AAXX 19094 41859 NIL=
41859,2024,08,19,12,00,AAXX 19124 41859 01450 70000 10290 20260 39983 40020 72162 85620 333 10340 59007 70002 82710 84618 87458==
41859,2024,08,19,15,00,AAXX 19154 41859 02430 60000 10279 20260 30002 40039 83520 333 59006 70036 83618 86458==
41859,2024,08,19,18,00,AAXX 19184 41859 02430 60000 10275 20260 30007 40044 83520 333 59011 70032 83618 86458==
41859,2024,08,19,21,00,AAXX 19214 41859 02430 60000 10272 20250 39992 40029 83520 333 59011 70032 83618 86458==
41859,2024,08,20,00,00,AAXX 20004 41859 02430 60000 10270 20250 39990 40027 83520 333 59006 70032 83618 86458==
41859,2024,08,20,03,00,AAXX 20034 41859 02450 60504 10306 20240 30008 40044 83520 333 20265 59006 70032 83618 86458==
41859,2024,08,20,06,00,AAXX 20064 41859 02450 70506 10311 20230 30013 40049 85620 333 58006 70002 82710 84618 88458==
41859,2024,08,20,09,00,AAXX 20094 41859 01440 80508 10282 20230 39997 40034 76162 8672/ 333 58018 70002 84710 85618 88458==
41859,2024,08,20,12,00,AAXX 20124 41859 21340 80508 10270 20250 39990 40027 76162 8672/ 333 10312 58007 60009 84708 85616 88456==
41859,2024,08,20,15,00,AAXX 20154 41859 42430 80508 10270 20240 30015 40052 8562/ 333 58013 84710 85618 88458==
41859,2024,08,20,18,00,AAXX 20184 41859 42430 80508 10266 20250 30029 40066 8562/ 333 58022 84710 85618 88458==
41859,2024,08,20,21,00,AAXX 20214 41859 01330 80504 10260 20250 30015 40052 76162 8672/ 333 58023 70068 84708 85616 88456==
41859,2024,08,21,00,00,AAXX 21004 41859 21435 80504 10254 20250 30009 40046 70262 8562/ 333 58019 60078 70068 84710 85618 88458==
41859,2024,08,21,03,00,AAXX 21034 41859 02450 80000 10287 20260 30029 40066 8562/ 333 20249 58021 70068 82710 83618 88458==
41859,2024,08,21,06,00,AAXX 21064 41859 02450 80502 10311 20250 30024 40060 8562/ 333 58011 70068 82710 83618 88458==
41859,2024,08,21,09,00,AAXX 21094 41859 01450 60502 10310 20260 30000 40036 72162 84430 333 58003 70068 82618 83828 86362==
41859,2024,08,21,12,00,AAXX 21124 41859 21450 50502 10305 20260 39997 40033 70162 84430 333 10313 58007 60005 70068 81618 83828 85362==
41859,2024,08,21,15,00,AAXX 21154 41859 02/30 40000 10280 20260 30020 40057 84030 333 58005 70068 84362==
41859,2024,08,21,18,00,AAXX 21184 41859 02430 40502 10275 20260 30025 40062 82530 333 59004 70068 82618 84362==
41859,2024,08,21,21,00,AAXX 21214 41859 42430 40502 10270 20260 30014 40051 82530 333 59001 82618 84362==
41859,2024,08,22,00,00,AAXX 22004 41859 42440 40000 10265 20260 30007 40044 82530 333 59002 82618 84362==
41859,2024,08,22,03,00,AAXX 22034 41859 42450 40000 10309 20260 30016 40052 82530 333 20258 59013 82618 84362==
41859,2024,08,22,06,00,AAXX 22064 41859 42950 70502 10331 20250 30009 40045 84620 333 59015 82710 83618 87458==
41859,2024,08,22,09,00,AAXX 22094 41859 01340 80000 10278 20260 39991 40028 76122 8572/ 333 59009 70046 83709 85616 88456==
41859,2024,08,22,12,00,AAXX 22124 41859 21450 80000 10290 20250 39982 40019 70262 8562/ 333 10332 59015 60055 70054 83710 84618 88458==
41859,2024,08,22,15,00,AAXX 22154 41859 02430 81303 10275 20250 30010 40047 8562/ 333 59010 70054 83710 84618 88458==
41859,2024,08,22,18,00,AAXX 22184 41859 01430 80000 10270 20250 30022 40059 72122 8562/ 333 59003 70002 83710 84618 88458==
41859,2024,08,22,21,00,AAXX 22214 41859 01330 80000 10260 20250 30016 40053 76162 8572/ 333 58002 70086 83709 84616 88457==
41863,2024,08,16,00,00,AAXX 16004 41863 02/50 40502 10272 20250 39982 40025 84030 333 59011 70002 84362==
41863,2024,08,16,03,00,AAXX 16034 41863 02457 81301 10300 20260 39996 40038 8552/ 333 20266 59001 70002 85618 88458==
41863,2024,08,16,06,00,AAXX 16064 41863 02457 61301 10330 20260 39999 40041 83520 333 58006 70002 83618 86458==
41863,2024,08,16,09,00,AAXX 16094 41863 02457 41702 10345 20270 39969 40010 85400 333 58000 70002 82618 83825==
41863,2024,08,16,12,00,AAXX 16124 41863 02557 20000 10335 20260 39963 40004 82100 333 10347 59004 70002 82825==
41863,2024,08,16,15,00,AAXX 16154 41863 02957 00000 10298 20280 39991 40033 333 58000 70002==
41863,2024,08,16,18,00,AAXX 16184 41863 02957 00000 10292 20280 39995 40037 333 59005 70000==
41863,2024,08,16,21,00,AAXX 16214 41863 02957 00000 10286 20280 39992 40034 333 58001 70000==
41863,2024,08,17,00,00,AAXX 17004 41863 02957 00000 10284 20270 39995 40037 333 58013 70000==
41863,2024,08,17,03,00,AAXX 17034 41863 02957 00000 10325 20280 30006 40048 333 20276 58010 70000==
41863,2024,08,17,06,00,AAXX 17064 41863 02457 50000 10343 20270 30000 40041 85400 333 58001 70000 83618 85828==
41863,2024,08,17,09,00,AAXX 17094 41863 02457 50502 10360 20250 39976 40017 85400 333 58007 70000 83618 85828==
41863,2024,08,17,12,00,AAXX 17124 41863 02456 81802 10292 20250 39976 40018 8552/ 333 10362 58013 70000 85618 88458==
41863,2024,08,17,15,00,AAXX 17154 41863 02456 51302 10285 20250 30003 40045 85500 333 58012 70000 85618==
41863,2024,08,17,18,00,AAXX 17184 41863 02456 80502 10283 20260 30019 40061 8552/ 333 58024 70000 85618 88458==
41863,2024,08,17,21,00,AAXX 17214 41863 02456 80000 10280 20260 30015 40057 8552/ 333 58023 70000 85618 88458==
41863,2024,08,18,00,00,AAXX 18004 41863 02456 50000 10275 20270 30004 40046 83530 333 58009 70000 83618 85362==
41863,2024,08,18,03,00,AAXX 18034 41863 02457 50000 10323 20250 30020 40062 82530 333 20270 58014 70000 82618 85362==
41863,2024,08,18,06,00,AAXX 18064 41863 02356 80903 10325 20260 30017 40059 8562/ 333 58017 70000 82710 85618 88458==
41863,2024,08,18,09,00,AAXX 18094 41863 02557 30904 10340 20260 39987 40028 83400 333 58011 70000 83620==
41863,2024,08,18,12,00,AAXX 18124 41863 02957 20904 10328 20260 39980 40022 80002 333 10345 58004 70000 82074==
41863,2024,08,18,15,00,AAXX 18154 41863 02950 00000 10296 20270 30001 40043 333 59002 70000==
41863,2024,08,18,18,00,AAXX 18184 41863 02950 00000 10295 20280 30010 40052 80002 333 59009 70000 82074==
41863,2024,08,18,21,00,AAXX 18214 41863 02550 20901 10290 20270 39995 40037 82400 333 58020 70000 82620==
41863,2024,08,19,00,00,AAXX 19004 41863 02/50 20901 10280 20260 39990 40032 82030 333 59014 70000 82365==
41863,2024,08,19,03,00,AAXX 19034 41863 02556 40904 10305 20260 30006 40048 84400 333 20272 59014 70000 84620==
41863,2024,08,19,06,00,AAXX 19064 41863 02457 80902 10322 20250 39997 40039 8552/ 333 59020 70000 85618 88458==
41863,2024,08,19,09,00,AAXX 19094 41863 02557 61201 10342 20250 39972 40013 84400 333 59015 70000 84620==
41863,2024,08,19,12,00,AAXX 19124 41863 02457 51301 10310 20240 39971 40013 83520 333 10342 59009 70000 83618 85458==
41863,2024,08,19,15,00,AAXX 19154 41863 02950 20501 10287 20260 30000 40042 82300 333 59001 70000 82362==
41863,2024,08,19,18,00,AAXX 19184 41863 02950 40501 10276 20260 30002 40044 84300 333 59008 70000 84362==
41863,2024,08,19,21,00,AAXX 19214 41863 02950 30501 10273 20250 39996 40039 83300 333 58001 70000 83362==
41863,2024,08,20,00,00,AAXX 20004 41863 02/50 20000 10264 20250 39990 40033 82030 333 58000 70000 82362==
41863,2024,08,20,03,00,AAXX 20034 41863 02456 70505 10303 20250 39999 40041 84520 333 20259 59007 70000 83618 87458==
41863,2024,08,20,06,00,AAXX 20064 41863 02457 50501 10335 20240 30006 40047 85400 333 58009 70000 83618 85828==
41863,2024,08,20,09,00,AAXX 20094 41863 02457 60905 10305 20230 39989 40031 83520 333 58017 70000 83618 86458==
41863,2024,08,20,12,00,AAXX 20124 41863 02457 80905 10287 20230 39987 40029 8452/ 333 10335 58016 70000 84618 88458==
41863,2024,08,20,15,00,AAXX 20154 41863 02457 80505 10273 20240 30012 40055 8452/ 333 58012 70000 84618 88458==
41863,2024,08,20,18,00,AAXX 20184 41863 02456 80605 10270 20240 30021 40064 8452/ 333 58019 70000 84616 88458==
41863,2024,08,20,21,00,AAXX 20214 41863 02456 80903 10266 20250 30009 40052 8452/ 333 58015 70000 84616 88458==
41863,2024,08,21,00,00,AAXX 21004 41863 02456 80303 10263 20240 30004 40047 8452/ 333 58014 70000 84616 88458==
41863,2024,08,21,03,00,AAXX 21034 41863 02456 60903 10285 20260 30022 40064 84520 333 20258 58023 70000 84618 86458==
41863,2024,08,21,06,00,AAXX 21064 41863 02457 70905 10318 20260 30017 40059 84520 333 58011 70000 84618 87458==
41863,2024,08,21,09,00,AAXX 21094 41863 02457 61303 10325 20260 39995 40037 86400 333 58006 70000 84618 86825==
41863,2024,08,21,12,00,AAXX 21124 41863 02456 70902 10300 20250 39990 40032 85520 333 10326 58003 70000 85618 87458==
41863,2024,08,21,15,00,AAXX 21154 41863 02/56 40000 10285 20270 30009 40051 84030 333 59003 70000 84362==
41863,2024,08,21,18,00,AAXX 21184 41863 02/56 40000 10275 20260 30018 40060 84030 333 59003 70000 84362==
41863,2024,08,21,21,00,AAXX 21214 41863 02956 00000 10270 20250 30012 40055 333 58003 70000==
41863,2024,08,22,00,00,AAXX 22004 41863 02/56 30000 10265 20260 39999 40042 83030 333 59005 70000 83362==
41863,2024,08,22,03,00,AAXX 22034 41863 02457 51304 10307 20260 30010 40052 83530 333 20261 59012 70000 83618 85362==
41863,2024,08,22,06,00,AAXX 22064 41863 02457 60903 10330 20260 30003 40045 83520 333 59014 70000 83618 86458==
41863,2024,08,22,09,00,AAXX 22094 41863 01450 80903 10305 20280 39980 40022 76322 8552/ 333 59015 70020 85617 88458==
41863,2024,08,22,12,00,AAXX 22124 41863 01556 61801 10290 20260 39980 40022 70166 83420 333 10340 59010 70074 83620 85458==
41863,2024,08,22,15,00,AAXX 22154 41863 02450 60905 10281 20250 30011 40053 84420 333 58002 74617 85458==
41863,2024,08,22,18,00,AAXX 22184 41863 02450 80903 10270 20260 30014 40057 8552/ 333 59004 70074 85617 88458==
41863,2024,08,22,21,00,AAXX 22214 41863 02450 80905 10270 20250 30008 40051 8552/ 333 59004 70074 85617 88458==
41881,2024,08,16,00,00,AAXX 16004 41881 32456 60802 10275 20270 30001 40021 83520 333 56990 59016 70000 83618 86460=
41881,2024,08,16,06,00,AAXX 16064 41881 32457 60901 10300 20250 30020 40040 83520 333 56290 58008 70000 83618 86460=
41881,2024,08,16,12,00,AAXX 16124 41881 32457 40901 10325 20270 39986 40005 84500 333 10336 56900 59001 70000 84615=
41881,2024,08,16,18,00,AAXX 16184 41881 32450 40801 10294 20270 30021 40041 84500 333 56900 58000 70000 84618=
41881,2024,08,17,00,00,AAXX 17004 41881 32456 60901 10278 20270 30015 40035 83520 333 56990 58014 70000 83618 86460=
41881,2024,08,17,03,00,AAXX 17034 41881 32458 50901 10335 20270 30022 40041 83520 333 56990 58002 70000 83615 85458=
41881,2024,08,17,12,00,AAXX 17124 41881 11450 70801 10260 20240 39997 40017 60047 70362 84520 333 10355 56490 58011 70040 84618 87459=
41881,2024,08,17,18,00,AAXX 17184 41881 32450 60801 10280 20260 30033 40053 83520 333 56990 58012 70040 83618 86458=
41881,2024,08,18,00,00,AAXX 18004 41881 32456 60901 10270 20260 30027 40047 83520 333 56990 58012 70040 83618 86458=
41881,2024,08,18,06,00,AAXX 18064 41881 32456 70902 10308 20250 30032 40052 84520 333 56290 58010 70040 84618 87459=
41881,2024,08,18,12,00,AAXX 18124 41881 32456 50602 10314 20250 39996 40015 83520 333 10327 56990 59001 70000 83618 85459=
41881,2024,08,18,18,00,AAXX 18184 41881 32450 60802 10276 20260 30028 40048 83520 333 56990 59005 70000 83618 86459=
41881,2024,08,19,00,00,AAXX 19004 41881 32456 80902 10273 20260 30006 40026 8552/ 333 56290 59021 70000 85617 88459=
41881,2024,08,19,06,00,AAXX 19064 41881 32457 70903 10311 20260 30019 40038 84520 333 56290 59013 70000 84618 87459=
41881,2024,08,19,12,00,AAXX 19124 41881 11456 60901 10292 20260 39988 40008 60024 70162 83520 333 10322 56290 59008 70024 83618 86459=
41881,2024,08,19,18,00,AAXX 19184 41881 32450 20501 10272 20260 30025 40045 82500 333 56900 59003 70024 82618=
41881,2024,08,20,00,00,AAXX 20004 41881 32456 33601 10265 20260 30008 40028 83500 333 56900 58002 70024 83618=
41881,2024,08,20,06,00,AAXX 20064 41881 32456 70502 10290 20240 30025 40044 84520 333 56190 58006 70024 84618 87459=
41881,2024,08,20,12,00,AAXX 20124 41881 32456 70503 10280 20250 30004 40023 84520 333 10300 56190 58016 70000 84618 87459=
41881,2024,08,20,18,00,AAXX 20184 41881 32450 63601 10263 20250 30041 40061 83520 333 56990 58016 70000 83618 86459=
41881,2024,08,21,00,00,AAXX 21004 41881 32456 63601 10256 20250 30033 40053 83520 333 56990 58026 70000 83618 86459=
41881,2024,08,21,06,00,AAXX 21064 41881 11457 60901 10295 20260 30037 40057 60033 70162 83520 333 56990 58012 70028 83618 86459=
41881,2024,08,21,12,00,AAXX 21124 41881 32456 70902 10285 20270 30011 40031 84520 333 10310 56190 58007 70028 84618 87459=
41881,2024,08,21,18,00,AAXX 21184 41881 32450 40901 10270 20260 30038 40058 84500 333 56900 59002 70028 84618=
41881,2024,08,22,00,00,AAXX 22004 41881 32456 40901 10263 20260 30033 40053 84500 333 56900 58000 70028 84618=
41881,2024,08,22,06,00,AAXX 22064 41881 32456 70801 10317 20250 30026 40045 84520 333 56990 59011 70000 84618 87459=
41881,2024,08,22,12,00,AAXX 22124 41881 11456 80902 10274 20260 39999 40019 60077 70262 8552/ 333 10320 56299 59012 70070 85616 88458=
41881,2024,08,22,18,00,AAXX 22184 41881 32450 80901 10260 20250 30030 40050 8552/ 333 56299 59008 70070 85616 88458=
41883,2024,08,16,00,00,AAXX 16004 41883 21440 80000 10270 20250 30005 40025 70262 8552/ 333 59015 60028 70020 85616 88459==
41883,2024,08,16,03,00,AAXX 16034 41883 02450 80000 10280 20260 30017 40037 8552/ 333 20265 59001 70020 85616 88459==
41883,2024,08,16,06,00,AAXX 16064 41883 02456 80000 10310 20260 30013 40033 8552/ 333 59001 70020 85616 88459==
41883,2024,08,16,09,00,AAXX 16094 41883 02456 60000 10322 20260 39992 40012 83520 333 58000 70020 83616 86459==
41883,2024,08,16,12,00,AAXX 16124 41883 02556 40502 10325 20280 39985 40005 81130 333 10338 59001 70020 81828 83362==
41883,2024,08,16,15,00,AAXX 16154 41883 02430 60000 10300 20260 30015 40035 83520 333 58005 70020 83616 86459==
41883,2024,08,16,18,00,AAXX 16184 41883 02430 80000 10290 20260 30017 40037 8552/ 333 58000 70020 85616 88459==
41883,2024,08,16,21,00,AAXX 16214 41883 02430 80000 10290 20260 30013 40033 8552/ 333 58017 70020 85616 88459==
41883,2024,08,17,00,00,AAXX 17004 41883 02440 80000 10280 20270 30014 40034 8552/ 333 58009 70000 85616 88459==
41883,2024,08,17,03,00,AAXX 17034 41883 02450 81302 10310 20260 30027 40047 8452/ 333 20275 58010 70000 84618 88458==
41883,2024,08,17,06,00,AAXX 17064 41883 02450 61302 10334 20250 30019 40039 83520 333 58006 70000 83618 86458==
41883,2024,08,17,09,00,AAXX 17094 41883 02450 80000 10340 20260 30002 40022 8552/ 333 58010 70000 85616 88459==
41883,2024,08,17,12,00,AAXX 17124 41883 01450 80000 10290 20270 30005 40025 70262 8552/ 333 10345 58020 70040 85616 88458==
41883,2024,08,17,15,00,AAXX 17154 41883 02930 30000 10280 20260 30025 40045 80001 333 58010 70040 83080==
41883,2024,08,17,18,00,AAXX 17184 41883 02/30 30000 10278 20270 30028 40048 83030 333 58011 70040 83362==
41883,2024,08,17,21,00,AAXX 17214 41883 42/30 30000 10276 20260 30018 40038 83030 333 40040 58004 83362==
41883,2024,08,18,00,00,AAXX 18004 41883 02450 80903 10275 20260 30019 40039 8552/ 333 58005 70040 85616 88459==
41883,2024,08,18,03,00,AAXX 18034 41883 02456 81302 10290 20260 30036 40056 8552/ 333 20268 58009 70040 85615 88458==
41883,2024,08,18,06,00,AAXX 18064 41883 02456 70902 10314 20250 30031 40051 84520 333 58012 70040 84616 87459==
41883,2024,08,18,09,00,AAXX 18094 41883 02456 70502 10314 20260 30004 40024 84520 333 58002 70040 84618 86458==
41883,2024,08,18,12,00,AAXX 18124 41883 42450 60502 10310 20260 39998 40018 82520 333 10324 59007 82618 86458==
41883,2024,08,18,15,00,AAXX 18154 41883 01430 80000 10280 20260 30020 40040 70362 8552/ 333 59005 70042 85616 88459==
41883,2024,08,18,18,00,AAXX 18184 41883 11430 80000 10278 20260 30030 40050 69926 70262 8552/ 333 58002 70042 85616 88459==
41883,2024,08,18,21,00,AAXX 18214 41883 02330 81302 10272 20260 30020 40040 8562/ 333 58002 70042 85710 88459==
41883,2024,08,19,00,00,AAXX 19004 41883 02340 80902 10268 20260 30007 40027 8562/ 333 59012 70002 85710 88459==
41883,2024,08,19,03,00,AAXX 19034 41883 02356 71302 10290 20260 30026 40046 85620 333 20265 59010 70002 85710 87459==
41883,2024,08,19,06,00,AAXX 19064 41883 21456 60904 10310 20260 30019 40039 70162 84510 333 59012 60045 70042 84616 86459==
41883,2024,08,19,09,00,AAXX 19094 41883 02456 60902 10324 20250 39994 40014 84510 333 59010 70044 84616 86459==
41883,2024,08,19,12,00,AAXX 19124 41883 02456 60902 10305 20260 39988 40008 84510 333 10325 70044 84616 86459==
41883,2024,08,19,15,00,AAXX 19154 41883 02430 60000 10286 20270 30013 40033 82520 333 59007 70042 82618 86458==
41883,2024,08,19,18,00,AAXX 19184 41883 02430 80902 10278 20260 30015 40035 8452/ 333 59015 70042 84618 88458==
41883,2024,08,19,21,00,AAXX 19214 41883 02430 80000 10274 20250 30009 40029 8452/ 333 59011 70046 84618 88458==
41883,2024,08,20,00,00,AAXX 20004 41883 01350 80000 10266 20260 30005 40025 76162 8572/ 333 59002 70052 83709 84615 88456==
41883,2024,08,20,03,00,AAXX 20034 41883 01456 80902 10295 20270 30012 40032 70262 8552/ 333 20265 70062 85616 88459==
41883,2024,08,20,06,00,AAXX 20064 41883 21450 80000 10295 20260 30017 40037 70262 8552/ 333 59002 60015 70020 85616 88459==
41883,2024,08,20,09,00,AAXX 20094 41883 02456 80000 10310 20260 30000 40020 8552/ 333 58006 70020 85616 88459==
41883,2024,08,20,12,00,AAXX 20124 41883 02450 80000 10290 20250 39999 40019 8552/ 333 10315 58011 70020 85616 88459==
41883,2024,08,20,15,00,AAXX 20154 41883 02430 80000 10280 20240 30023 40043 8552/ 333 58010 70020 85616 88459==
41883,2024,08,20,18,00,AAXX 20184 41883 02430 80000 10280 20260 30041 40061 8552/ 333 58010 70020 85616 88459==
41883,2024,08,20,21,00,AAXX 20214 41883 02430 80000 10280 20260 30032 40052 8552/ 333 58023 70016 85616 88459==
41883,2024,08,21,00,00,AAXX 21004 41883 02450 80000 10270 20250 30012 40032 8552/ 333 58007 70010 85616 88459==
41883,2024,08,21,03,00,AAXX 21034 41883 02450 80000 10286 20270 30038 40058 8562/ 333 20262 58026 70000 82710 84618 88458==
41883,2024,08,21,06,00,AAXX 21064 41883 01450 80000 10294 20260 30034 40054 76122 8572/ 333 58017 70004 83709 84615 88456==
41883,2024,08,21,09,00,AAXX 21094 41883 02356 83604 10300 20260 30010 40030 8562/ 333 58010 70004 85710 88459==
41883,2024,08,21,12,00,AAXX 21124 41883 02456 60902 10294 20250 30005 40025 83510 333 10312 58006 70004 83616 86459==
41883,2024,08,21,15,00,AAXX 21154 41883 02330 81303 10280 20260 30028 40048 8562/ 333 58005 70004 85709 88458==
41883,2024,08,21,18,00,AAXX 21184 41883 02330 80902 10276 20260 30035 40055 8642/ 333 59006 70004 85709 88458==
41883,2024,08,21,21,00,AAXX 21214 41883 02330 80902 10274 20260 30031 40051 8562/ 333 59001 70004 85709 88458==
41883,2024,08,22,00,00,AAXX 22004 41883 02330 80000 10270 20260 30023 40043 8562/ 333 58011 70004 85709 88458==
41883,2024,08,22,03,00,AAXX 22034 41883 02456 60502 10290 20260 30031 40051 84530 333 20265 59007 70004 84616 86362==
41883,2024,08,22,06,00,AAXX 22064 41883 02456 70902 10310 20250 30025 40045 85520 333 59009 70000 85615 87458==
41883,2024,08,22,09,00,AAXX 22094 41883 01350 81302 10270 20260 30000 40020 76162 8572/ 333 59010 70330 83709 84615 88456==
41883,2024,08,22,12,00,AAXX 22124 41883 21450 80000 10280 20260 30001 40021 70262 8562/ 333 10310 59004 60338 70334 82710 84618 88458==
41883,2024,08,22,15,00,AAXX 22154 41883 02330 80902 10265 20250 30029 40049 8562/ 333 58001 70334 85709 88458==
41883,2024,08,22,18,00,AAXX 22184 41883 02330 80904 10268 20250 30035 40055 8562/ 333 58000 70334 85709 88458==
41883,2024,08,22,21,00,AAXX 22214 41883 01330 81302 10270 20250 30029 40049 70262 8562/ 333 59002 70370 85709 88458==
41886,2024,08,16,00,00,AAXX 16004 41886 21440 80000 10258 20258 30011 40032 76196 8572/ 333 59016 60419 70414 83710 84615 88458==
41886,2024,08,16,03,00,AAXX 16034 41886 41456 51202 10290 20254 30020 40040 59008 70420 84462==
41886,2024,08,16,06,00,AAXX 16064 41886 11457 70000 10320 20260 30016 40036 60016 70362 83520 333 59004 70420 83618 86462==
41886,2024,08,16,09,00,AAXX 16094 41886 02457 70000 10326 20260 39994 40014 83570 333 59004 70420 83618 85460==
41886,2024,08,16,12,00,AAXX 16124 41886 02456 60000 10310 20260 39995 40015 83570 333 10327 58004 70420 83618 85460==
41886,2024,08,16,15,00,AAXX 16154 41886 02456 60000 10292 20260 30018 40038 83570 333 59002 70420 83618 85460==
41886,2024,08,16,18,00,AAXX 16184 41886 02456 60000 10285 20260 30025 40045 83570 333 58006 70420 83618 85460==
41886,2024,08,16,21,00,AAXX 16214 41886 02450 80000 10280 20260 30023 40043 8352/ 333 58007 70120 83618 88460==
41886,2024,08,17,00,00,AAXX 17004 41886 02450 80000 10274 20260 30018 40039 8352/ 333 58007 70006 83618 88460==
41886,2024,08,17,03,00,AAXX 17034 41886 02456 80000 10300 20250 30031 40051 8352/ 333 20273 58011 70000 83618 88460==
41886,2024,08,17,06,00,AAXX 17064 41886 02456 60000 10314 20250 30028 40048 83570 333 58012 70000 83618 85460==
41886,2024,08,17,09,00,AAXX 17094 41886 02456 61803 10320 20250 30011 40031 83530 333 58017 70000 83618 85363==
41886,2024,08,17,12,00,AAXX 17124 41886 02556 60000 10298 20240 30005 40025 81170 333 10328 58010 70000 81825 85460==
41886,2024,08,17,15,00,AAXX 17154 41886 02540 60000 10290 20260 30032 40052 81170 333 58014 70000 81825 85363==
41886,2024,08,17,18,00,AAXX 17184 41886 02440 71804 10288 20260 30028 40048 84470 333 58003 70000 82618 85460==
41886,2024,08,17,21,00,AAXX 17214 41886 02440 80000 10284 20240 30028 40048 8442/ 333 58005 70000 83618 88460==
41886,2024,08,18,00,00,AAXX 18004 41886 02456 80000 10280 20250 30025 40045 8542/ 333 58007 70000 84618 88460==
41886,2024,08,18,03,00,AAXX 18034 41886 02456 80000 10290 20260 30035 40055 8342/ 333 20275 58004 70000 82618 88460==
41886,2024,08,18,06,00,AAXX 18064 41886 02450 80000 10287 20280 39930 49950 8251/ 333 59024 70024 82618 88460==
41886,2024,08,18,09,00,AAXX 18094 41886 02457 60000 10330 20250 30006 40026 85540 333 59005 70000 85618==
41886,2024,08,18,12,00,AAXX 18124 41886 21456 70000 10300 20260 30010 40030 70362 82440 333 10332 58005 69925 70002 81618 86362==
41886,2024,08,18,15,00,AAXX 18154 41886 02450 70000 10290 20270 30028 40048 82540 333 59004 70002 82618 86362==
41886,2024,08,18,18,00,AAXX 18184 41886 NIL=
41886,2024,08,18,21,00,AAXX 18214 41886 02450 80000 10275 20270 30032 40052 8452/ 333 59004 70002 84616 88458==
41886,2024,08,19,00,00,AAXX 19004 41886 01350 80000 10268 20260 30017 40037 72122 8572/ 333 59008 70006 82710 84616 88458==
41886,2024,08,19,03,00,AAXX 19034 41886 02456 80906 10280 20250 30031 40052 8552/ 333 20265 59004 70008 85616 88458==
41886,2024,08,19,06,00,AAXX 19064 41886 02456 80906 10292 20250 30024 40044 8552/ 333 59009 70008 85616 88458==
41886,2024,08,19,09,00,AAXX 19094 41886 02456 80906 10290 20250 30002 40022 8552/ 333 59004 70008 85616 88458==
41886,2024,08,19,12,00,AAXX 19124 41886 11456 60902 10270 20250 39991 40011 60122 70162 82570 333 10297 59019 70129 82618 85460==
41886,2024,08,19,15,00,AAXX 19154 41886 01440 80404 10262 20250 30010 40031 76162 8552/ 333 59018 70153 85616 88458==
41886,2024,08,19,18,00,AAXX 19184 41886 21330 80908 10260 20250 30013 40034 76162 8632/ 333 59017 60059 70181 84709 85615 88457 81928==
41886,2024,08,19,21,00,AAXX 19214 41886 01450 80000 10258 20250 30004 40025 70262 8532/ 333 59028 70203 85616 88458 81930==
41886,2024,08,20,00,00,AAXX 20004 41886 11450 80000 10255 20255 39996 40017 60026 70262 8532/ 333 59021 70197 85616 88458 81930==
41886,2024,08,20,03,00,AAXX 20034 41886 01330 82802 10258 20258 30010 40031 76166 8672/ 333 20255 59021 70227 84709 85615 88457==
41886,2024,08,20,06,00,AAXX 20064 41886 21456 82304 10280 20260 30022 40042 70262 8452/ 333 59002 60048 70233 84616 88458==
41886,2024,08,20,09,00,AAXX 20094 41886 02456 81804 10301 20260 30006 40026 8452/ 333 58004 70233 84616 88458==
41886,2024,08,20,12,00,AAXX 20124 41886 21350 80000 10271 20260 30014 40035 79696 8532/ 333 10309 58023 60347 70450 83709 84615 88457 81928==
41886,2024,08,20,15,00,AAXX 20154 41886 01340 80000 10260 20260 30042 40063 79799 8692/ 333 58032 70846 84708 84613 88456 82927==
41886,2024,08,20,18,00,AAXX 20184 41886 21340 80000 10260 20260 30045 40066 79699 8532/ 333 58032 60589 70978 83709 84614 88458 81928==
41886,2024,08,20,21,00,AAXX 20214 41886 01340 80000 10263 20260 30032 40053 79599 8592/ 333 58028 71196 83709 84614 88456 81928==
41886,2024,08,21,00,00,AAXX 21004 41886 21340 80000 10266 20266 30024 40045 79599 8692/ 333 58028 60439 71386 83708 84613 88456 81928==
41886,2024,08,21,03,00,AAXX 21034 41886 01350 80000 10267 20260 30044 40065 76196 8572/ 333 20257 58034 71806 83709 84614 88456==
41886,2024,08,21,06,00,AAXX 21064 41886 21350 80000 10270 20260 30041 40062 70296 8662/ 333 58019 60465 71810 83709 84614 88456==
41886,2024,08,21,09,00,AAXX 21094 41886 01350 80000 10270 20260 30019 40040 76122 8572/ 333 58013 71660 83709 84615 88458==
41886,2024,08,21,12,00,AAXX 21124 41886 01350 80000 10270 20260 30016 40037 70262 8572/ 333 10285 58002 70050 82710 84615 88458==
41886,2024,08,21,15,00,AAXX 21154 41886 02450 80000 10269 20260 30042 40063 8352/ 333 58000 71100 83615 88458==
41886,2024,08,21,18,00,AAXX 21184 41886 02450 80000 10267 20260 30039 40060 8352/ 333 59006 70940 83615 88458==
41886,2024,08,21,21,00,AAXX 21214 41886 02450 80000 10264 20260 30036 40057 8352/ 333 58004 70700 83615 88458==
41886,2024,08,22,00,00,AAXX 22004 41886 11350 80000 10260 20260 30022 40043 60142 76262 8572/ 333 59002 70650 83709 84615 88458==
41886,2024,08,22,03,00,AAXX 22034 41886 01456 80000 10270 20250 30034 40055 70262 8352/ 333 20256 59010 70200 83618 88460==
41886,2024,08,22,06,00,AAXX 22064 41886 11350 80000 10270 20260 30033 40054 60046 76062 8672/ 333 59008 70230 82710 84615 88458==
41886,2024,08,22,09,00,AAXX 22094 41886 01350 81304 10260 20250 30012 40033 76166 8672/ 333 59007 70470 83709 85615 88457==
41886,2024,08,22,12,00,AAXX 22124 41886 21350 81302 10262 20250 30020 40041 70262 8472/ 333 10272 58004 60289 70502 82710 83616 88458==
41886,2024,08,22,15,00,AAXX 22154 41886 01350 80000 10266 20260 30042 40063 70262 8572/ 333 58000 70466 82710 85616 88458==
41886,2024,08,22,18,00,AAXX 22184 41886 11350 80902 10265 20250 30047 40068 69946 70262 8572/ 333 58008 70466 82710 85616 88458==
41888,2024,08,16,00,00,AAXX 16004 41888 11450 80903 10260 20250 30022 40032 60189 76162 8352/ 333 56999 59013 70180 83616 88459=
41888,2024,08,16,06,00,AAXX 16064 41888 32456 60901 10305 20260 30025 40035 83510 333 56990 59001 70180 83618 86460=
41888,2024,08,16,12,00,AAXX 16124 41888 32457 50902 10305 20260 30002 40012 82470 333 10316 56990 58004 70180 82618 83460=
41888,2024,08,16,18,00,AAXX 16184 41888 32456 60903 10290 20260 30033 40043 83510 333 56990 58005 70180 83618 86460=
41888,2024,08,17,00,00,AAXX 17004 41888 32456 70902 10286 20250 30028 40038 83570 333 56990 58008 70060 83618 86460=
41888,2024,08,17,03,00,AAXX 17034 41888 NIL=
41888,2024,08,17,06,00,AAXX 17064 41888 32457 61003 10310 20260 30032 40042 83370 56990 58007 70000 82618 81930 85460=
41888,2024,08,17,12,00,AAXX 17124 41888 32456 70901 10290 20240 30013 40023 81501 333 10330 56909 58011 70000 81618 87460=
41888,2024,08,17,18,00,AAXX 17184 41888 32440 50906 10284 20230 30037 40047 82530 333 56990 58004 70000 82618 85365=
41888,2024,08,18,00,00,AAXX 18004 41888 32450 80901 10270 20260 30031 40041 8251/ 333 56999 58003 70000 82618 88460=
41888,2024,08,18,06,00,AAXX 18064 41888 32457 60903 10308 20270 30040 40050 82510 333 56990 58008 70000 82618 88460=
41888,2024,08,18,12,00,AAXX 18124 41888 32456 70902 10300 20240 30020 40030 82510 333 10335 56990 58007 70000 82618 87460=
41888,2024,08,18,18,00,AAXX 18184 41888 32440 81302 10280 20250 30046 40056 8351/ 333 56999 58009 70000 83618 88460=
41888,2024,08,19,00,00,AAXX 19004 41888 11450 80902 10266 20250 30023 40033 60025 70262 8352/ 333 56999 59008 70017 83618 88460=
41888,2024,08,19,06,00,AAXX 19064 41888 32456 80902 10285 20260 30032 40042 8251/ 333 56999 59008 70017 82618 88460=
41888,2024,08,19,12,00,AAXX 19124 41888 11457 70902 10280 20240 39998 40008 69975 70162 83510 333 10292 56990 59022 70024 83618 87460=
41888,2024,08,19,18,00,AAXX 19184 41888 11440 80906 10255 20250 30018 40028 60023 76062 8452/ 333 56999 59028 70042 84617 88459=
41888,2024,08,20,00,00,AAXX 20004 41888 11340 80902 10225 20255 30003 40023 60259 76166 8532/ 333 56999 59020 70275 81709 83615 81928 88459=
41888,2024,08,20,06,00,AAXX 20064 41888 11456 80904 10268 20260 30029 40039 60033 76165 8352/ 333 56999 59003 70307 83616 88459=
41888,2024,08,20,12,00,AAXX 20124 41888 11456 80906 10272 20250 30021 40031 60053 79566 8532/ 333 10290 56999 58023 70355 81710 83616 81928 88459=
41888,2024,08,21,00,00,AAXX 21004 41888 11450 81302 10262 20260 30032 40042 60188 70196 8352/ 333 56999 58029 70630 83618 88460=
41888,2024,08,21,06,00,AAXX 21064 41888 11456 80902 10265 20260 30047 40057 60059 76162 8352/ 333 56999 58018 70648 83618 88460=
41888,2024,08,21,12,00,AAXX 21124 41888 32456 80902 10265 20250 30026 40036 8352/ 333 10276 56999 58005 70600 83618 88460=
41888,2024,08,21,18,00,AAXX 21184 41888 32440 80902 10262 20250 30046 40056 8252/ 333 56999 58004 70230 82618 88460=
41888,2024,08,22,00,00,AAXX 22004 41888 11450 80501 10254 20240 30025 40035 60047 76162 8532/ 333 56999 59007 70090 81710 83616 81930 88460=
41888,2024,08,22,06,00,AAXX 22064 41888 11456 80904 10265 20260 30042 40052 60043 76062 8532/ 333 56999 59005 70080 81710 83616 81928 88460=
41888,2024,08,22,12,00,AAXX 22124 41888 11450 80904 10260 20250 30028 40038 60059 76166 8532/ 333 10275 56299 58002 70133 81710 83615 81927 88459=
41888,2024,08,22,18,00,AAXX 22184 41888 11440 80902 10265 20260 30060 40070 69938 70262 8352/ 333 56999 58014 70136 83618 88460=
41891,2024,08,16,00,00,AAXX 16004 41891 21440 81004 10257 20257 39997 40035 70596 8532/ 333 59017 60179 70610 81710 83616 88458 81928==
41891,2024,08,16,03,00,AAXX 16034 41891 01440 60000 10280 20260 30005 40043 70522 84320 333 20247 59012 70610 83616 85458 81930==
41891,2024,08,16,06,00,AAXX 16064 41891 11340 80000 10290 20250 39998 40036 60002 76162 8572/ 333 59005 70610 82708 83615 88458 81930==
41891,2024,08,16,09,00,AAXX 16094 41891 01440 80303 10300 20270 39975 40013 70562 8532/ 333 58000 70610 82710 84615 88458 81930==
41891,2024,08,16,12,00,AAXX 16124 41891 11440 82903 10295 20270 39982 40020 60001 70562 8532/ 333 10316 58018 70610 82710 84615 88458 81930==
41891,2024,08,16,15,00,AAXX 16154 41891 01330 80000 10262 20250 30001 40039 71796 8532/ 333 58007 70731 82708 84615 88456 81930==
41891,2024,08,16,18,00,AAXX 16184 41891 21430 80000 10260 20260 30005 40043 70596 8432/ 333 59011 60138 70296 84616 88458 81930==
41891,2024,08,16,21,00,AAXX 16214 41891 01430 80000 10260 20250 30002 40040 70522 8432/ 333 59004 70196 84616 88458 81930==
41891,2024,08,17,00,00,AAXX 17004 41891 01440 80000 10264 20250 30001 40039 70522 8432/ 333 58004 70126 84616 88458 81930==
41891,2024,08,17,03,00,AAXX 17034 41891 01440 60802 10282 20015 40053 70563 84320 333 20257 58010 70136 83616 85458 81930==
41891,2024,08,17,06,00,AAXX 17064 41891 11440 80000 10290 20260 30014 40052 60016 70562 8432/ 333 58016 70136 83616 88458 81930==
41891,2024,08,17,09,00,AAXX 17094 41891 01330 80904 10272 20250 39991 40029 76166 8632/ 333 58016 70156 85708 88456 81925==
41891,2024,08,17,12,00,AAXX 17124 41891 01340 80203 10278 20260 39981 40019 76066 8532/ 333 10294 59001 70166 85708 88458 81926==
41891,2024,08,17,15,00,AAXX 17154 41891 01435 80503 10270 20260 30015 40053 72162 8532/ 333 58014 70047 82710 84615 88458 81930==
41891,2024,08,17,18,00,AAXX 17184 41891 01320 81002 10270 20260 30017 40055 76162 8632/ 333 58012 70006 86708 88458 81925==
41891,2024,08,17,21,00,AAXX 17214 41891 01430 80903 10268 20260 30007 40045 70562 8532/ 333 58005 70052 82710 84615 88458 81930==
41891,2024,08,18,00,00,AAXX 18004 41891 11440 80903 10265 20260 30009 40047 69961 70562 8532/ 333 58008 70052 82710 84615 88458 81930==
41891,2024,08,18,03,00,AAXX 18034 41891 01440 60902 10292 20260 30017 40055 70522 83330 333 20263 58002 70042 83616 85362 81930==
41891,2024,08,18,06,00,AAXX 18064 41891 01450 50902 10322 20240 30011 40048 70522 83330 333 59003 70042 83616 84362 81930==
41891,2024,08,18,09,00,AAXX 18094 41891 01450 63303 10348 20250 39976 40014 70522 84370 333 59015 70022 83616 84365 81930==
41891,2024,08,18,12,00,AAXX 18124 41891 01450 82503 10300 20260 39997 40035 70522 8532/ 333 10360 58016 70012 81710 83616 88458 81928==
41891,2024,08,18,15,00,AAXX 18154 41891 01440 50000 10290 20250 30019 40056 70522 84370 333 58004 70010 83616 85365 81930==
41891,2024,08,18,18,00,AAXX 18184 41891 01320 80000 10265 20250 30028 40066 76166 8632/ 333 58011 70030 85708 88458 81925==
41891,2024,08,19,00,00,AAXX 19004 41891 21320 80000 10255 20250 30006 40044 76166 8632/ 333 59003 60099 70120 86708 88456 81925==
41891,2024,08,19,03,00,AAXX 19034 41891 01320 80000 10258 20250 30019 40057 72166 8632/ 333 20250 58002 70294 83708 84615 88458 81930==
41891,2024,08,19,06,00,AAXX 19064 41891 21330 80904 10280 20240 30013 40051 70562 8532/ 333 58002 60178 70294 83708 84615 88458 81930==
41891,2024,08,19,09,00,AAXX 19094 41891 01440 81303 10281 20240 39991 40029 70522 8352/ 333 58015 70294 84616 88457 81930==
41891,2024,08,19,12,00,AAXX 19124 41891 21340 80000 10276 20260 39984 40022 70562 8532/ 333 10300 59013 60015 70294 82708 84615 88456 81930==
41891,2024,08,19,15,00,AAXX 19154 41891 41330 80908 10253 20240 30007 40045 76166 8632/ 333 59012 85708 88456 81926==
41891,2024,08,19,18,00,AAXX 19184 41891 21330 80915 10248 20248 30001 40039 76366 8632/ 333 59027 60759 71014 86708 88456 81925==
41891,2024,08,19,21,00,AAXX 19214 41891 01330 81015 10248 20248 39980 40018 76366 8632/ 333 59030 71534 86708 88456 81925==
41891,2024,08,20,00,00,AAXX 20004 41891 21330 81810 10248 20248 39994 40032 76366 86708 333 59012 61159 72084 86708 88456 81926==
41891,2024,08,20,03,00,AAXX 20034 41891 01330 80000 10250 20250 30014 40052 72166 8632/ 333 20245 59005 72140 83708 84615 88458 81925==
41891,2024,08,20,06,00,AAXX 20064 41891 21330 80000 10255 20250 30020 40058 72166 8632/ 333 58007 60309 72210 83708 84615 88458 81925==
41891,2024,08,20,09,00,AAXX 20094 41891 01435 81006 10266 20250 30006 40044 70562 8532/ 333 58015 72220 82710 84615 88458 81930==
41891,2024,08,20,12,00,AAXX 20124 41891 01430 81003 10260 20250 30014 40052 72162 8532/ 333 10272 58030 72214 82710 84615 88458 81930==
41891,2024,08,20,15,00,AAXX 20154 41891 01430 80000 10260 20250 30034 40073 70522 8532/ 333 58027 72064 84615 88456 81930==
41891,2024,08,20,18,00,AAXX 20184 41891 01430 80000 10257 20250 30038 40077 70562 8532/ 333 58037 70030 84615 88456 81930==
41891,2024,08,20,21,00,AAXX 20214 41891 01330 80902 10253 20240 30036 40075 70522 8532/ 333 58056 70889 82708 84615 88456 81930==
41891,2024,08,21,00,00,AAXX 21004 41891 21330 80000 10255 20250 30026 40065 70562 8532/ 333 58032 60035 70367 82708 84615 88456 81930==
41891,2024,08,21,03,00,AAXX 21034 41891 01325 81003 10260 20250 30044 40083 76122 8632/ 333 20250 58030 70169 86708 88456 81925==
41891,2024,08,21,06,00,AAXX 21064 41891 21325 80904 10260 20250 30036 40075 76562 8632/ 333 58016 61448 70211 86708 88458 81925==
41891,2024,08,21,09,00,AAXX 21094 41891 01320 80000 10255 20250 30014 40052 76166 8632/ 333 58008 70347 86708 88456 81925==
41891,2024,08,21,12,00,AAXX 21124 41891 21320 80000 10257 20250 30006 40044 76166 8632/ 333 10278 59008 60129 70353 86708 88458 81925==
41891,2024,08,21,15,00,AAXX 21154 41891 01320 80903 10257 20250 30023 40061 76066 8632/ 333 59011 70323 86708 88458 81925==
41891,2024,08,21,18,00,AAXX 21184 41891 01430 81202 10259 20250 30026 40064 70562 8532/ 333 59012 70298 82710 84615 88458 81930==
41891,2024,08,21,21,00,AAXX 21214 41891 01320 80903 10255 20250 30008 40046 76166 8632/ 333 59028 70418 86708 88458 81925==
41891,2024,08,22,00,00,AAXX 22004 41891 21320 80904 10252 20240 30006 40044 76166 8632/ 333 59020 60189 70450 86708 88458 81925==
41891,2024,08,22,03,00,AAXX 22034 41891 01325 80902 10257 20257 30028 40067 76166 8632/ 333 20252 59016 70430 86708 88458 81925==
41891,2024,08,22,06,00,AAXX 22064 41891 21325 80902 10267 20260 30027 40065 76166 8632/ 333 59009 60029 70328 86708 88458 81925==
41891,2024,08,22,09,00,AAXX 22094 41891 01330 80804 10280 20240 30006 40044 76166 8632/ 333 59008 70228 85708 88458 81928==
41891,2024,08,22,12,00,AAXX 22124 41891 21330 81004 10272 20260 30008 40046 70562 8532/ 333 10290 58002 60018 70218 84710 88458 81928==
41891,2024,08,22,15,00,AAXX 22154 41891 01430 60204 10265 20250 30032 40070 70522 85320 333 58009 70212 83616 85458 81930==
41891,2024,08,22,18,00,AAXX 22184 41891 01430 70000 10264 20240 30038 40077 70522 85320 333 58012 70212 84616 85458 81930==
41891,2024,08,22,21,00,AAXX 22214 41891 01430 80000 10262 20240 30026 40065 70522 8532/ 333 58018 70092 84710 88458 81930==
41895,2024,08,16,00,00,AAXX 16004 41895 02450 61801 10278 20270 39999 40021 84520 333 59019 70000 84616 86458==
41895,2024,08,16,03,00,AAXX 16034 41895 02457 50502 10310 20260 30014 40036 82501 333 20268 58000 70000 82616 84074==
41895,2024,08,16,06,00,AAXX 16064 41895 02450 80904 10324 20270 30011 40033 8452/ 333 59002 70000 84615 88458==
41895,2024,08,16,09,00,AAXX 16094 41895 02457 40902 10346 20260 39986 40007 84800 333 59002 70000 82616 83825==
41895,2024,08,16,12,00,AAXX 16124 41895 02456 50901 10323 20270 39982 40004 82501 333 10352 59003 70000 82616 84074==
41895,2024,08,16,15,00,AAXX 16154 41895 02450 50903 10290 20260 30011 40033 82501 333 59003 70000 82616 84074==
41895,2024,08,16,18,00,AAXX 16184 41895 02450 50000 10275 20270 30021 40043 83401 333 58007 70000 82616 84074==
41895,2024,08,16,21,00,AAXX 16214 41895 02450 50901 10275 20270 30011 40033 83401 333 58004 70000 82616 84074==
41895,2024,08,17,00,00,AAXX 17004 41895 02456 50000 10275 20270 30013 40035 82501 333 58017 70000 82616 84074==
41895,2024,08,17,03,00,AAXX 17034 41895 02457 43604 10317 20260 30026 40048 84800 333 20267 58012 70000 82616 83825==
41895,2024,08,17,06,00,AAXX 17064 41895 02457 40504 10340 20260 30019 40041 84800 333 58008 70000 82616 83825==
41895,2024,08,17,09,00,AAXX 17094 41895 02457 50503 10347 20260 39995 40017 84401 333 58009 70000 82616 83074==
41895,2024,08,17,12,00,AAXX 17124 41895 02450 80903 10308 20270 39995 40017 8452/ 333 10352 58013 70000 84615 88458==
41895,2024,08,17,15,00,AAXX 17154 41895 02550 30901 10288 20260 30020 40042 83100 333 58009 70000 83825==
41895,2024,08,17,18,00,AAXX 17184 41895 02550 40901 10278 20260 30027 40049 84100 333 58006 70000 84825==
41895,2024,08,17,21,00,AAXX 17214 41895 02450 70503 10280 20260 30015 40037 84520 333 58004 70000 84616 87458==
41895,2024,08,18,00,00,AAXX 18004 41895 02450 80505 10280 20260 30014 40037 8452/ 333 58001 70000 84615 88458==
41895,2024,08,18,03,00,AAXX 18034 41895 02356 80503 10288 20260 30034 40056 8562/ 333 20268 58008 70000 82710 83615 88458==
41895,2024,08,18,06,00,AAXX 18064 41895 02457 70504 10305 20260 30027 40049 84570 333 58008 70000 84615 86458==
41895,2024,08,18,09,00,AAXX 18094 41895 01458 70903 10294 20270 30003 40025 72122 85370 333 58008 70002 83615 85362 81930==
41895,2024,08,18,12,00,AAXX 18124 41895 21456 60000 10305 20260 39996 40018 70162 84520 333 10320 58001 69925 70002 84616 86458==
41895,2024,08,18,15,00,AAXX 18154 41895 01450 70000 10272 20260 30020 40042 72162 84520 333 58000 70074 84616 87458==
41895,2024,08,18,18,00,AAXX 18184 41895 21450 60000 10275 20275 30023 40045 70162 84520 333 59004 60075 70074 84616 86458==
41895,2024,08,18,21,00,AAXX 18214 41895 02450 63601 10273 20260 30014 40036 84520 333 59002 70074 84616 86458==
41895,2024,08,19,00,00,AAXX 19004 41895 01456 70501 10270 20260 30004 40026 70362 84520 333 59010 70002 84616 87458==
41895,2024,08,19,03,00,AAXX 19034 41895 02457 70502 10292 20260 30021 40043 85470 333 20265 59013 70076 84615 85458==
41895,2024,08,19,06,00,AAXX 19064 41895 01450 80903 10275 20260 30016 40038 76122 8552/ 333 59011 70020 85615 88458==
41895,2024,08,19,09,00,AAXX 19094 41895 01458 60903 10321 20270 39986 40008 70162 85301 333 59017 70100 82615 83820 81930==
41895,2024,08,19,12,00,AAXX 19124 41895 11456 50902 10307 20260 39984 40006 60016 70162 82501 333 10328 59012 70100 82616 84074==
41895,2024,08,19,15,00,AAXX 19154 41895 02450 50901 10280 20250 30018 40040 82501 333 59002 70028 82616 84074==
41895,2024,08,19,18,00,AAXX 19184 41895 02450 40000 10265 20260 30017 40039 84800 333 59006 70028 82616 83825==
41895,2024,08,19,21,00,AAXX 19214 41895 02450 80901 10265 20260 30014 40036 8452/ 333 58000 70028 84615 88458==
41895,2024,08,20,00,00,AAXX 20004 41895 02450 70000 10265 20260 30010 40032 84570 333 58006 70026 84615 86458==
41895,2024,08,20,03,00,AAXX 20034 41895 02456 43602 10306 20260 30017 40039 84400 333 20260 59004 70026 82616 83820==
41895,2024,08,20,06,00,AAXX 20064 41895 02456 63102 10320 20260 30021 40043 84410 333 58005 70008 83616 86458==
41895,2024,08,20,09,00,AAXX 20094 41895 01450 83603 10316 20260 39998 40020 70362 8542/ 333 58012 70006 84616 88458==
41895,2024,08,20,12,00,AAXX 20124 41895 21456 73602 10295 20260 30001 40023 70162 84520 333 10322 58017 60015 70006 84616 87458==
41895,2024,08,20,15,00,AAXX 20154 41895 02450 80000 10283 20250 30032 40054 8452/ 333 58014 70006 84616 88458==
41895,2024,08,20,18,00,AAXX 20184 41895 02450 63602 10276 20260 30032 40054 84520 333 58015 70006 84616 86458==
41895,2024,08,20,21,00,AAXX 20214 41895 02450 83601 10271 20260 30025 40047 8452/ 333 58011 70006 84616 88458==
41895,2024,08,21,00,00,AAXX 21004 41895 02456 80000 10268 20260 30023 40045 8452/ 333 58013 70006 84616 88458==
41895,2024,08,21,03,00,AAXX 21034 41895 02450 82703 10284 20260 30038 40060 8452/ 333 20262 58021 70006 84615 88458==
41895,2024,08,21,06,00,AAXX 21064 41895 02450 83102 10304 20260 30034 40056 8532/ 333 58013 70006 84615 88458 81930==
41895,2024,08,21,09,00,AAXX 21094 41895 02450 83601 10322 20270 30009 40031 8532/ 333 58011 70000 84615 88458 81930==
41895,2024,08,21,12,00,AAXX 21124 41895 02450 83601 10300 20260 30004 40026 8452/ 333 10324 58003 70000 84615 88458==
41895,2024,08,21,15,00,AAXX 21154 41895 02450 80000 10289 20280 30025 40047 8452/ 333 59007 70000 84615 88458==
41895,2024,08,21,18,00,AAXX 21184 41895 02450 80501 10280 20270 30029 40052 8452/ 333 59003 70000 84615 88458==
41895,2024,08,21,21,00,AAXX 21214 41895 02450 80502 10276 20270 30021 40043 8452/ 333 59004 70000 84615 88458==
41895,2024,08,22,00,00,AAXX 22004 41895 02450 80502 10274 20260 30014 40036 8452/ 333 59009 70000 84615 88458==
41895,2024,08,22,03,00,AAXX 22034 41895 01450 70000 10294 20260 30031 40053 70522 84520 333 20270 59007 70000 84615 87458==
41895,2024,08,22,06,00,AAXX 22064 41895 02/57 51802 10325 20250 30023 40045 80030 333 59011 70000 82615 83820==
41895,2024,08,22,09,00,AAXX 22094 41895 02457 70000 10324 20260 39994 40016 85370 333 59015 70000 83615 85458 81930==
41895,2024,08,22,12,00,AAXX 22124 41895 01450 80902 10285 20280 30001 40023 70362 8437/ 333 10338 59003 70002 84615 88458 81930==
41895,2024,08,22,15,00,AAXX 22154 41895 01450 81302 10277 20270 30024 40046 70262 8452/ 333 59001 70004 84615 88458==
41895,2024,08,22,18,00,AAXX 22184 41895 21450 80902 10271 20260 30024 40046 76162 8452/ 333 59005 60047 70042 84615 88458==
41895,2024,08,22,21,00,AAXX 22214 41895 01450 81302 10265 20265 30015 40037 76166 8452/ 333 59006 70142 84615 88458==
41897,2024,08,16,00,00,AAXX 16004 41897 32440 60602 10275 20270 30009 40022 82530 333 56990 59017 70000 82617 86362=
41897,2024,08,16,06,00,AAXX 16064 41897 NIL=
41897,2024,08,16,12,00,AAXX 16124 41897 32450 31802 10305 20260 39996 40009 81530 333 10336 56990 58003 70000 81618 83362=
41897,2024,08,16,18,00,AAXX 16184 41897 32940 01802 10285 20260 30023 40036 333 58001 70000=
41897,2024,08,17,00,00,AAXX 17004 41897 NIL=
41897,2024,08,17,03,00,AAXX 17034 41897 NIL=
41897,2024,08,17,12,00,AAXX 17124 41897 11450 50902 10286 20260 30044 40057 60135 70362 82530 333 10335 56990 58060 70130 82618 85362=
41897,2024,08,17,18,00,AAXX 17184 41897 32940 00902 10278 20250 30037 40045 333 58014 70130=
41897,2024,08,18,00,00,AAXX 18004 41897 32440 60604 10276 20250 30021 40034 82510 333 56990 58000 70130 82616 86458=
41897,2024,08,18,06,00,AAXX 18064 41897 32450 82202 10295 20250 30030 40043 8432/ 333 56999 59005 70000 81710 83620 88460=
41897,2024,08,18,12,00,AAXX 18124 41897 11450 82202 10280 20250 30010 40023 60064 79122 8432/ 333 10305 56999 58008 70060 81710 83620 81930 88460=
41897,2024,08,18,18,00,AAXX 18184 41897 32450 80000 10280 20260 30032 40045 8432/ 333 56999 58008 70060 81710 83620 81930 88460=
41897,2024,08,19,00,00,AAXX 19004 41897 32450 80000 10270 20260 30015 40028 8432/ 333 56999 59007 70060 81710 83620 81930 88460=
41897,2024,08,19,06,00,AAXX 19064 41897 32450 81402 10285 20260 30022 40035 8462/ 333 56999 59008 70060 81710 83620 88460=
41897,2024,08,19,12,00,AAXX 19124 41897 32450 61402 10290 20260 30005 40008 84312 333 10306 56990 59020 70000 82620 84460=
41897,2024,08,20,00,00,AAXX 20004 41897 11450 81402 10265 20260 30014 40027 60016 70262 8462/ 333 56999 59001 70010 71010 83620 88460=
41897,2024,08,20,06,00,AAXX 20064 41897 32450 61402 10315 20270 30022 40035 84610 333 56990 58000 70010 82620 84460=
41897,2024,08,20,12,00,AAXX 20124 41897 32450 81402 10290 20260 30010 40023 84310 333 10320 56990 58005 70010 71710 83620 88460=
41897,2024,08,20,18,00,AAXX 20184 41897 11450 80000 10265 20260 30042 40055 60083 79596 8432/ 333 56999 58015 70090 81710 83620 81930 88460=
41897,2024,08,21,00,00,AAXX 21004 41897 11450 80000 10265 20260 30023 40036 60106 70296 8432/ 333 56999 58009 70180 81710 83620 81930 88460=
41897,2024,08,21,06,00,AAXX 21064 41897 11450 80000 10300 20270 30037 40050 60048 70266 84621 333 56990 58015 70220 81708 83618 88458=
41897,2024,08,21,12,00,AAXX 21124 41897 11450 80000 10285 20260 30025 40038 60046 70266 8462/ 333 10305 56999 58020 70260 81708 83618 88458=
41897,2024,08,21,18,00,AAXX 21184 41897 32450 80000 10275 20260 30035 40048 8462/ 333 56999 58000 70180 81708 83618 88458=
41897,2024,08,22,00,00,AAXX 22004 41897 32450 80000 10270 20260 30023 40036 8462/ 333 56999 58002 70080 81708 83618 88458=
41897,2024,08,22,06,00,AAXX 22064 41897 32450 80000 10300 20250 30032 40045 8462/ 333 56999 59007 70040 81708 83618 81928 88458=
41897,2024,08,22,12,00,AAXX 22124 41897 11335 80301 10267 20260 30007 40020 60157 76162 8562/ 333 10310 56999 59013 70150 83707 85612 88458=
41897,2024,08,22,18,00,AAXX 22184 41897 11325 80601 10263 20260 30038 40051 60429 76366 8572/ 333 56999 59002 70570 83707 85612 88458=
41902,2024,08,16,00,00,AAXX 16004 41902 NIL=
41902,2024,08,16,06,00,AAXX 16064 41902 NIL=
41902,2024,08,16,12,00,AAXX 16124 41902 11450 70502 10288 20270 30007 40016 60025 71796 83520 333 10320 56990 58005 70082 83615 87459=
41902,2024,08,16,18,00,AAXX 16184 41902 11440 70602 10280 20260 30029 40037 60016 70222 83520 333 56990 58007 70065 83615 87459=
41902,2024,08,17,00,00,AAXX 17004 41902 32450 73602 10270 20250 30024 40032 83520 333 56990 58005 70045 83615 87459=
41902,2024,08,17,03,00,AAXX 17034 41902 NIL=
41902,2024,08,17,12,00,AAXX 17124 41902 32450 73604 10285 20260 30017 40025 83520 333 10332 56990 58010 70003 83615 87459=
41902,2024,08,17,18,00,AAXX 17184 41902 11440 83607 10280 20260 30028 40036 60026 70292 8352/ 333 56999 59001 70020 83612 88458=
41902,2024,08,18,00,00,AAXX 18004 41902 32450 80508 10274 20250 30028 40036 8352/ 333 56999 58004 70020 83612 88458=
41902,2024,08,18,06,00,AAXX 18064 41902 NIL=
41902,2024,08,18,18,00,AAXX 18184 41902 32440 80502 10280 20260 30043 40051 8352/ 333 56999 58015 70000 83612 88458=
41902,2024,08,19,00,00,AAXX 19004 41902 11350 83605 10268 20260 30024 40033 60024 71762 8672/ 333 56399 59004 70015 82707 84612 88458=
41902,2024,08,19,06,00,AAXX 19064 41902 11356 80507 10284 20250 30026 40035 60016 70262 8672/ 333 56399 59006 70020 82707 84612 88458=
41902,2024,08,19,12,00,AAXX 19124 41902 11330 80908 10262 20250 39991 40000 60063 76362 8672/ 333 10287 56399 59034 70080 84708 84612 88458=
41902,2024,08,20,00,00,AAXX 20004 41902 11330 80901 10261 20250 30004 40013 60023 76362 8672/ 333 56299 59020 70115 83708 84612 88458=
41902,2024,08,20,06,00,AAXX 20064 41902 11450 61701 10296 20250 30026 40034 60046 70262 83530 333 56490 58000 70150 83614 85362=
41902,2024,08,20,12,00,AAXX 20124 41902 32440 61702 10286 20270 30020 40028 82530 333 10296 56490 58029 70090 82614 85362=
41902,2024,08,21,00,00,AAXX 21004 41902 11330 80906 10266 20260 30028 40036 60169 76366 8672/ 333 56299 58024 70200 83708 84612 88458=
41902,2024,08,21,06,00,AAXX 21064 41902 11330 80902 10262 20250 30042 40051 60129 76366 8672/ 333 56299 58016 70280 83708 84612 88458=
41902,2024,08,21,12,00,AAXX 21124 41902 11330 80902 10265 20260 30019 40028 60016 70262 8672/ 333 10268 56299 59001 70290 83708 84612 88458=
41902,2024,08,21,18,00,AAXX 21184 41902 32330 81301 10263 20250 30033 40042 8462/ 333 56399 59005 70290 82710 83614 88458=
41902,2024,08,22,00,00,AAXX 22004 41902 11330 80000 10260 20260 30018 40027 60014 72162 8462/ 333 56999 59010 70140 82710 83614 88459=
41902,2024,08,22,06,00,AAXX 22064 41902 11330 81701 10284 20250 30025 40034 60024 76322 8462/ 333 56499 59017 70040 82710 83612 88459=
41902,2024,08,22,12,00,AAXX 22124 41902 11330 81702 10266 20250 30019 40028 60096 70262 8462/ 333 10284 56499 58000 70120 82710 83614 88458=
41902,2024,08,22,18,00,AAXX 22184 41902 NIL=
41907,2024,08,16,00,00,AAXX 16004 41907 02440 80000 10275 20270 30002 40016 8552/ 333 59019 70000 85615 88458==
41907,2024,08,16,03,00,AAXX 16034 41907 02450 70000 10310 20260 30016 40031 83530 333 20270 59002 70000 83616 86362==
41907,2024,08,16,06,00,AAXX 16064 41907 02456 31802 10335 20260 30011 40025 83800 333 59004 70000 82615==
41907,2024,08,16,09,00,AAXX 16094 41907 02456 40902 10340 20260 39988 40002 84800 333 59005 70000 82615 83825==
41907,2024,08,16,12,00,AAXX 16124 41907 02450 70903 10315 20270 39988 40002 84570 333 10315 58002 70000 84615 85458==
41907,2024,08,16,15,00,AAXX 16154 41907 02/40 30000 10285 20260 30014 40029 83030 333 59002 70000 83362==
41907,2024,08,16,18,00,AAXX 16184 41907 02/40 30000 10278 20260 30023 40037 83030 333 58001 70000 83362==
41907,2024,08,16,21,00,AAXX 16214 41907 02/40 30000 10275 20270 30020 40034 83030 333 58005 70000 83362==
41907,2024,08,17,00,00,AAXX 17004 41907 02/40 30000 10273 20260 30014 40029 83030 333 58012 70000 83362==
41907,2024,08,17,03,00,AAXX 17034 41907 02450 51302 10320 20260 30029 40043 85800 333 20266 58013 70000 82615 83825==
41907,2024,08,17,06,00,AAXX 17064 41907 02456 51302 10335 20260 30022 40036 85800 333 58011 70000 82615 83825==
41907,2024,08,17,09,00,AAXX 17094 41907 02456 40502 10340 20240 39999 40013 84800 333 58011 70000 83615==
41907,2024,08,17,12,00,AAXX 17124 41907 01450 50000 10290 20270 30000 40015 70362 83501 333 10349 58012 70005 83615 83080==
41907,2024,08,17,15,00,AAXX 17154 41907 02940 00000 10280 20250 30025 40040 333 58011 70005==
41907,2024,08,17,18,00,AAXX 17184 41907 02440 50000 10268 20250 30028 40043 83530 333 58005 70005 83615 83362==
41907,2024,08,17,21,00,AAXX 17214 41907 02440 83602 10273 20250 30015 40030 8552/ 333 59005 70005 85615 88458==
41907,2024,08,18,00,00,AAXX 18004 41907 02345 80502 10276 20260 30010 40025 8662/ 333 59004 70005 83709 85615 88458==
41907,2024,08,18,03,00,AAXX 18034 41907 02350 80903 10285 20250 30030 40045 8662/ 333 20267 58001 70005 83709 85615 88458==
41907,2024,08,18,06,00,AAXX 18064 41907 01350 80902 10282 20260 30027 40042 72122 8662/ 333 58005 70010 83709 85615 88458==
41907,2024,08,18,09,00,AAXX 18094 41907 01350 80902 10295 20270 30003 40018 70262 8662/ 333 58004 70030 83709 85615 88458==
41907,2024,08,18,12,00,AAXX 18124 41907 12350 80000 10295 20270 30000 40014 60026 8662/ 333 10302 58000 70030 83709 85615 88458==
41907,2024,08,18,15,00,AAXX 18154 41907 02340 80000 10280 20260 30019 40034 8662/ 333 59006 70030 83709 85615 88458==
41907,2024,08,18,18,00,AAXX 18184 41907 02340 80000 10277 20270 30026 40041 8662/ 333 59002 70030 83709 85615 88458==
41907,2024,08,18,21,00,AAXX 18214 41907 02340 80000 10275 20270 30020 40035 8662/ 333 58005 70030 83709 85615 88458==
41907,2024,08,19,00,00,AAXX 19004 41907 02340 80000 10273 20260 30004 40019 8662/ 333 59006 70030 83709 85615 88458==
41907,2024,08,19,03,00,AAXX 19034 41907 02350 80000 10285 20260 30020 40034 8662/ 333 20270 59010 70030 83709 85615 88458==
41907,2024,08,19,06,00,AAXX 19064 41907 02360 81302 10306 20260 30017 40031 8662/ 333 59010 70020 83709 85615 88458==
41907,2024,08,19,09,00,AAXX 19094 41907 02450 51803 10315 20270 39990 40004 85800 333 59013 70000 84615==
41907,2024,08,19,12,00,AAXX 19124 41907 02450 51303 10300 20250 39987 40002 84510 333 10321 59013 70000 84615==
41907,2024,08,19,15,00,AAXX 19154 41907 02440 40000 10275 20260 30019 40034 84500 333 58000 70000 84615==
41907,2024,08,19,18,00,AAXX 19184 41907 02440 60000 10266 20260 30020 40034 83510 333 59006 70000 83615 85458==
41907,2024,08,19,21,00,AAXX 19214 41907 02340 80000 10264 20250 30014 40029 8662/ 333 59006 70000 83709 85615 88458==
41907,2024,08,20,00,00,AAXX 20004 41907 02340 80000 10262 20250 30011 40026 8662/ 333 59007 70000 83709 85615 88458==
41907,2024,08,20,03,00,AAXX 20034 41907 02450 60000 10300 20250 30020 40035 86800 333 20260 58000 70000 83615 83825==
41907,2024,08,20,06,00,AAXX 20064 41907 01450 63102 10290 20260 30026 40040 72162 85810 333 58009 70010 83615 85458==
41907,2024,08,20,09,00,AAXX 20094 41907 01450 70000 10297 20270 30001 40016 72122 85810 333 58011 70026 84615 87458==
41907,2024,08,20,12,00,AAXX 20124 41907 21350 80000 10282 20260 30002 40016 70362 8662/ 333 10330 58015 60025 70026 82709 84615 88458==
41907,2024,08,20,15,00,AAXX 20154 41907 02340 80000 10280 20260 30026 40041 8662/ 333 58007 70026 82709 84615 88458==
41907,2024,08,20,18,00,AAXX 20184 41907 02340 80000 10276 20270 30035 40050 8662/ 333 58015 70026 82709 85615 88458==
41907,2024,08,20,21,00,AAXX 20214 41907 02440 80000 10267 20260 30024 40039 8552/ 333 58010 70026 85615 88458==
41907,2024,08,21,00,00,AAXX 21004 41907 02440 80000 10265 20260 30019 40033 8552/ 333 58008 70026 85615 88458==
41907,2024,08,21,03,00,AAXX 21034 41907 02450 72702 10285 20260 30039 40053 85510 333 20265 58019 70026 85615 87458==
41907,2024,08,21,06,00,AAXX 21064 41907 02350 83102 10295 20260 30038 40053 8662/ 333 58012 70016 82709 85615 88458==
41907,2024,08,21,09,00,AAXX 21094 41907 02350 82702 10308 20270 30012 40026 8652/ 333 58011 70000 82709 85615 88458==
41907,2024,08,21,12,00,AAXX 21124 41907 02350 80000 10300 20270 30007 40022 8662/ 333 10320 58005 70000 83709 85615 88458==
41907,2024,08,21,15,00,AAXX 21154 41907 02340 80000 10290 20280 30029 40043 8662/ 333 58003 70000 83709 85615 88458==
41907,2024,08,21,18,00,AAXX 21184 41907 02340 80000 10285 20280 30035 40049 8662/ 333 58000 70000 83709 85615 88458==
41907,2024,08,21,21,00,AAXX 21214 41907 02340 80000 10279 20270 30026 40041 8662/ 333 58002 70000 83709 85615 88458==
41907,2024,08,22,00,00,AAXX 22004 41907 02340 80000 10271 20270 30021 40036 8662/ 333 58002 70000 83709 85615 88458==
41907,2024,08,22,03,00,AAXX 22034 41907 02350 80000 10295 20290 30034 40049 8662/ 333 20267 58014 70000 83709 85615 88458==
41907,2024,08,22,06,00,AAXX 22064 41907 02350 80000 10312 20260 30027 40041 8662/ 333 59011 70000 83709 85615 88458==
41907,2024,08,22,09,00,AAXX 22094 41907 02350 80000 10328 20260 39997 40011 8662/ 333 59011 70000 82709 85615 88458==
41907,2024,08,22,12,00,AAXX 22124 41907 01350 80000 10280 20270 39998 40012 72162 8662/ 333 10331 59009 70110 85709 88458==
41907,2024,08,22,15,00,AAXX 22154 41907 01330 80000 10265 20260 30027 40042 79562 8692/ 333 59002 70290 85709 89230 88458==
41907,2024,08,22,18,00,AAXX 22184 41907 21330 81302 10263 20260 30032 40047 76595 8672/ 333 59003 61019 71120 85708 88457==
41907,2024,08,22,21,00,AAXX 22214 41907 01330 80000 10263 20260 30028 40043 76566 8672/ 333 58002 71430 85708 88457==
41909,2024,08,16,00,00,AAXX 16004 41909 01350 80000 10254 20240 30009 40020 72996 8572/ 333 59015 70310 84708 88458==
41909,2024,08,16,03,00,AAXX 16034 41909 02456 60000 10314 20250 30023 40034 83530 333 20234 59003 70310 83615 85360==
41909,2024,08,16,06,00,AAXX 16064 41909 02456 61802 10318 30030 40031 83830 333 58001 70310 82615 85360==
41909,2024,08,16,09,00,AAXX 16094 41909 02456 60000 10324 20250 39996 40007 83530 333 58000 70310 83615 86360==
41909,2024,08,16,12,00,AAXX 16124 41909 01456 61801 10294 20260 39995 40006 70262 83530 333 10328 58003 70050 82615 85360==
41909,2024,08,16,15,00,AAXX 16154 41909 02940 00000 10282 20260 30015 40026 333 59004 70360==
41909,2024,08,16,18,00,AAXX 16184 41909 02440 30000 10278 20260 30027 40038 81530 333 59001 70360 81615 83365==
41909,2024,08,16,21,00,AAXX 16214 41909 02430 60000 10274 20250 30016 40027 83530 333 58000 70360 82615 85360==
41909,2024,08,17,00,00,AAXX 17004 41909 02450 80000 10270 20250 30018 40029 8552/ 333 58009 70050 84615 88460==
41909,2024,08,17,03,00,AAXX 17034 41909 02456 50101 10300 20250 30030 40041 83830 333 20250 58007 70050 82615 85360==
41909,2024,08,17,06,00,AAXX 17064 41909 02456 50501 10312 20260 30026 40037 83530 333 58006 70050 83614 85360==
41909,2024,08,17,09,00,AAXX 17094 41909 02456 80000 10310 20250 30006 40017 8552/ 333 58010 70050 84615 88458==
41909,2024,08,17,12,00,AAXX 17124 41909 02450 60902 10295 20250 30002 40019 83532 333 10320 58007 70000 83615 84365==
41909,2024,08,17,15,00,AAXX 17154 41909 02440 60000 10284 20240 30030 40041 83530 333 58015 70000 82615 84365==
41909,2024,08,17,18,00,AAXX 17184 41909 02440 60000 10274 20240 30034 40045 83530 333 58007 70000 82615 84362==
41909,2024,08,17,21,00,AAXX 17214 41909 02440 60000 10273 20240 30031 40042 83530 333 58015 70000 82615 84362==
41909,2024,08,18,00,00,AAXX 18004 41909 01450 80902 10265 20250 30016 40027 76162 8572/ 333 59002 70010 84608 88458==
41909,2024,08,18,03,00,AAXX 18034 41909 01450 80000 10280 20250 30033 40044 76162 8572/ 333 20246 58003 70040 84617 88458==
41909,2024,08,18,06,00,AAXX 18064 41909 01450 80000 10290 20260 30031 40042 70262 8572/ 333 58005 70030 84708 88458==
41909,2024,08,18,09,00,AAXX 18094 41909 02456 71302 10303 20260 30006 40017 84370 333 58000 70040 84614 86460 81930==
41909,2024,08,18,12,00,AAXX 18124 41909 21456 51303 10290 20260 30005 40016 70196 82530 333 10315 58003 60117 70152 82615 84365==
41909,2024,08,18,15,00,AAXX 18154 41909 02440 60000 10280 20260 30027 40038 83530 333 59003 70152 83615 84365==
41909,2024,08,18,18,00,AAXX 18184 41909 41340 81802 10275 20260 30033 40044 59001 70152 88460==
41909,2024,08,19,00,00,AAXX 19004 41909 02350 81304 10270 20250 30008 40019 8562/ 333 59008 70142 83708 83614 88458==
41909,2024,08,19,03,00,AAXX 19034 41909 02456 81304 10280 20250 30026 40037 8552/ 333 20252 59007 70112 85614 88460==
41909,2024,08,19,06,00,AAXX 19064 41909 02456 71304 10306 20260 30019 40030 84570 333 59012 70112 84614 86460==
41909,2024,08,19,09,00,AAXX 19094 41909 01356 80902 10279 20250 39997 40008 72122 8562/ 333 59009 70122 83708 88458==
41909,2024,08,19,12,00,AAXX 19124 41909 NIL=
41909,2024,08,19,15,00,AAXX 19154 41909 02340 80000 10268 20250 30014 40025 8562/ 333 59013 70010 84708 88458==
41909,2024,08,19,18,00,AAXX 19184 41909 02340 80000 10264 20240 30015 40026 8562/ 333 59018 70010 84708 88458==
41909,2024,08,19,21,00,AAXX 19214 41909 02340 80000 10262 20240 30011 40022 8562/ 333 58005 70010 84708 88458==
41909,2024,08,20,00,00,AAXX 20004 41909 21350 80000 10260 20250 30009 40020 75152 8572/ 333 58001 69967 70016 84708 88458==
41909,2024,08,20,03,00,AAXX 20034 41909 01356 60000 10293 20250 30020 40031 70152 84630 333 20242 59006 70018 83708 85360==
41909,2024,08,20,06,00,AAXX 20064 41909 11356 60000 10317 20260 30027 40038 69926 70252 82630 333 58008 70018 83708 85360==
41909,2024,08,20,09,00,AAXX 20094 41909 02350 81301 10320 20240 30007 40018 8462/ 333 58010 70008 83708 88460==
41909,2024,08,20,12,00,AAXX 20124 41909 01350 81301 10275 20260 30009 40020 79522 8592/ 333 10332 58017 70270 84708 88458 81930==
41909,2024,08,20,15,00,AAXX 20154 41909 01330 81301 10277 20260 30036 40047 70296 8562/ 333 58022 70298 84708 88458==
41909,2024,08,20,18,00,AAXX 20184 41909 01330 81301 10278 20270 30042 40053 79596 8592/ 333 58027 70308 84708 88458 81930==
41909,2024,08,20,21,00,AAXX 20214 41909 01330 81301 10270 20260 30031 40042 76196 8672/ 333 58020 70488 85708 88458==
41909,2024,08,21,00,00,AAXX 21004 41909 01350 81301 10266 20260 30022 40044 72196 8672/ 333 58013 70532 85708 88458==
41909,2024,08,21,03,00,AAXX 21034 41909 02356 60000 10280 20260 30044 40055 84630 333 20245 58024 70530 83708 85360==
41909,2024,08,21,06,00,AAXX 21064 41909 02356 60000 10292 20260 30041 40052 84630 333 58014 70530 83708 85360==
41909,2024,08,21,09,00,AAXX 21094 41909 02346 80000 10310 20260 30017 40028 8672/ 333 58010 70530 83508 88458==
41909,2024,08,21,12,00,AAXX 21124 41909 02450 80000 10284 20260 30010 40021 8672/ 333 10312 58001 70260 85708 88458==
41909,2024,08,21,15,00,AAXX 21154 41909 02440 80000 10275 20260 30031 40042 8562/ 333 59005 70240 85708 88458==
41909,2024,08,21,18,00,AAXX 21184 41909 02440 80000 10270 20260 30042 40053 8562/ 333 58000 70230 85708 88458==
41909,2024,08,21,21,00,AAXX 21214 41909 02440 80000 10265 20260 30028 40039 8562/ 333 59003 70050 85708 88458==
41909,2024,08,22,00,00,AAXX 22004 41909 01350 80000 10264 20250 30024 40035 70262 8462/ 333 58002 70020 83708 88458==
41909,2024,08,22,03,00,AAXX 22034 41909 01350 80000 10270 20250 30034 40045 70262 8462/ 333 20246 58010 70030 83708 88458==
41909,2024,08,22,06,00,AAXX 22064 41909 11356 81802 10290 20260 30032 40043 69916 70262 8462/ 333 59009 70030 83708 88458==
41909,2024,08,22,09,00,AAXX 22094 41909 02356 60000 10300 20260 30005 40016 8562/ 333 59012 70030 83708 83614 88460==
41909,2024,08,22,12,00,AAXX 22124 41909 21350 80000 10285 20250 30008 40019 70262 8562/ 333 10306 59002 60037 70062 83708 83614 88458==
41909,2024,08,22,15,00,AAXX 22154 41909 02440 80000 10272 20250 30039 40050 8552/ 333 58008 70062 85615 88460==
41909,2024,08,22,18,00,AAXX 22184 41909 02340 80000 10270 20250 30045 40056 8562/ 333 58003 70062 83708 83614 88460==
41909,2024,08,22,21,00,AAXX 22214 41909 02440 80000 10270 20250 30029 40040 8552/ 333 58001 70062 85615 88460==
41915,2024,08,16,00,00,AAXX 16004 41915 01456 80902 10260 20260 30011 40036 72162 8662/ 333 58011 70060 83710 85616 88458==
41915,2024,08,16,03,00,AAXX 16034 41915 02456 80000 10285 20260 30019 40044 8452/ 333 20258 59012 70060 84615 88458==
41915,2024,08,16,06,00,AAXX 16064 41915 01456 70000 10302 20250 30011 40036 76122 84420 333 59002 70000 84615 87458==
41915,2024,08,16,09,00,AAXX 16094 41915 01356 40000 10284 20250 39986 40011 71792 84900 333 58003 70060 83709 81925==
41915,2024,08,16,12,00,AAXX 16124 41915 01350 80000 10274 20260 39994 40019 76196 8472/ 333 10320 45399 58016 70010 83709 88458==
41915,2024,08,16,15,00,AAXX 16154 41915 02450 80000 10266 20260 30014 40039 8561/ 333 58000 70062 83712 84615 88458==
41915,2024,08,16,18,00,AAXX 16184 41915 02450 80000 10264 20250 30013 40038 8562/ 333 59005 70058 83710 84615 88458==
41915,2024,08,16,21,00,AAXX 16214 41915 01440 80501 10260 20250 30010 40035 70262 8662/ 333 59006 70050 84710 84615 88458==
41915,2024,08,17,00,00,AAXX 17004 41915 01450 80501 10255 20250 30012 40037 72166 8562/ 333 58001 70092 83710 84615 88458==
41915,2024,08,17,03,00,AAXX 17034 41915 01350 80000 10268 20260 30023 40048 76166 8572/ 333 20250 58004 70106 83709 83615 88458==
41915,2024,08,17,06,00,AAXX 17064 41915 21350 80903 10273 20260 30021 40046 76366 8572/ 333 58010 60039 70126 83709 83615 88458==
41915,2024,08,17,09,00,AAXX 17094 41915 01456 80000 10275 20260 30000 40025 76166 8672/ 333 58014 70136 82710 85616 88458==
41915,2024,08,17,12,00,AAXX 17124 41915 21456 80000 10270 20250 39995 40020 70262 8642/ 333 10288 58001 60018 70128 85616 88458==
41915,2024,08,17,15,00,AAXX 17154 41915 02456 80000 10268 20260 30023 40048 8542/ 333 58009 70128 82615 83820 88458==
41915,2024,08,18,00,00,AAXX 18004 41915 02456 50000 10260 20250 30021 40050 85500 333 58009 70044 85415==
41915,2024,08,18,03,00,AAXX 18034 41915 02456 70602 10294 20250 30030 40055 85570 333 20257 58007 70030 85616 85458==
41915,2024,08,18,06,00,AAXX 18064 41915 02456 80000 10310 20260 30031 40056 8552/ 333 58010 70010 85616 88458==
41915,2024,08,18,09,00,AAXX 18094 41915 01456 71303 10296 20270 30006 40030 70162 85470 333 58006 70064 84615 85458==
41915,2024,08,18,12,00,AAXX 18124 41915 11456 71301 10285 20260 30011 40036 60066 70262 85670 333 10315 58016 70064 83712 83615 85458==
41915,2024,08,18,15,00,AAXX 18154 41915 02440 80000 10270 20250 30038 40063 8552/ 333 59016 70064 85616 88417==
41915,2024,08,18,18,00,AAXX 18184 41915 NIL=
41915,2024,08,19,00,00,AAXX 19004 41915 01450 81902 10255 20250 30017 40042 76162 8772/ 333 59004 70020 83710 85615 88458==
41915,2024,08,19,03,00,AAXX 19034 41915 01450 80902 10272 20250 30030 40056 70262 8672/ 333 20254 58000 70106 83710 84615 88458==
41915,2024,08,19,06,00,AAXX 19064 41915 01456 81302 10282 20260 30026 40051 72065 8672/ 333 59005 70106 83710 84615 88458==
41915,2024,08,19,09,00,AAXX 19094 41915 02350 80000 10264 20250 39995 40020 8692/ 333 59011 70066 84708 88458 81930==
41915,2024,08,19,12,00,AAXX 19124 41915 21350 80000 10260 20250 39993 40018 76566 8632/ 333 10286 59018 60229 70264 84708 88458 81930==
41915,2024,08,19,15,00,AAXX 19154 41915 01350 81004 10260 20250 30013 40038 76566 8632/ 333 59025 70494 84708 88458 81930==
41915,2024,08,19,21,00,AAXX 19214 41915 01350 80903 10254 20240 30009 40034 76566 8632/ 333 59022 71304 83708 88458 81930==
41915,2024,08,20,00,00,AAXX 20004 41915 21350 80000 10254 20240 30009 40034 76566 8632/ 333 59008 60649 71542 83708 88458 81930==
41915,2024,08,20,03,00,AAXX 20034 41915 01350 81006 10263 20240 30033 40058 72166 8572/ 333 20250 58003 71575 83708 83820 88458==
41915,2024,08,20,06,00,AAXX 20064 41915 01350 81405 10274 20250 30023 40048 70266 8472/ 333 59003 71613 83709 88458==
41915,2024,08,20,09,00,AAXX 20094 41915 02456 81303 10278 20260 30019 40044 8662/ 333 58024 71589 82710 85616 88458==
41915,2024,08,20,12,00,AAXX 20124 41915 02456 81302 10274 20250 30019 40044 86628 333 10290 58026 71391 82710 85615 88458==
41915,2024,08,20,15,00,AAXX 20154 41915 02456 40000 10270 20250 30047 40072 84400 333 58034 71161 83615==
41915,2024,08,20,21,00,AAXX 20214 41915 41356 80000 10266 20250 30035 40060 58029 70341 88458==
41915,2024,08,21,00,00,AAXX 21004 41915 22350 80000 10262 20250 30031 40056 58022 88458 333 60147==
41915,2024,08,21,03,00,AAXX 21034 41915 01450 80000 10260 20250 30050 40075 79596 8732/ 333 20257 58017 70388 84710 85616 88458 81928==
41915,2024,08,21,06,00,AAXX 21064 41915 21350 81304 10250 20240 30048 40073 76396 8772/ 333 60459 84708 85615 88457==
41915,2024,08,21,09,00,AAXX 21094 41915 01350 81004 10250 20240 30023 40048 76366 8572/ 333 58004 70688 84708 88457==
41915,2024,08,21,12,00,AAXX 21124 41915 21350 80000 10260 20240 30013 40038 70266 8472/ 333 10267 59006 60148 70731 84709 88458==
41915,2024,08,21,18,00,AAXX 21184 41915 21340 80000 10256 20250 30035 40065 76362 8772/ 333 59008 60217 70939 84708 85615 88482==
41915,2024,08,21,21,00,AAXX 21214 41915 01340 81302 10254 20250 30025 40050 76366 8772/ 333 59010 71131 84708 85616 88458==
41915,2024,08,22,00,00,AAXX 22004 41915 21456 81302 10250 20250 30022 40047 76166 8772/ 333 59009 60369 71161 84710 85616 88458==
41915,2024,08,22,03,00,AAXX 22034 41915 01450 81802 10256 20250 30037 40062 76166 8672/ 333 20245 59013 70961 85710 83615 88458==
41915,2024,08,22,06,00,AAXX 22064 41915 21456 81802 10267 20250 30037 40062 76166 8672/ 333 59011 60029 70735 83710 84615 88458==
41915,2024,08,22,09,00,AAXX 22094 41915 02356 80000 10280 20250 30021 40046 8572/ 333 59002 70635 83709 84615 88458==
41915,2024,08,22,12,00,AAXX 22124 41915 02356 80000 10270 20250 30027 40052 8362/ 333 10284 58014 70592 83709 88458==
41915,2024,08,22,15,00,AAXX 22154 41915 02450 80000 10265 20250 30041 40066 8662/ 333 58002 70592 84710 84615 88458==
41915,2024,08,22,18,00,AAXX 22184 41915 NIL=
41915,2024,08,22,21,00,AAXX 22214 41915 01450 80000 10258 20250 30041 40066 70262 8562/ 333 58016 70194 83710 84615 88458==
41923,2024,08,16,00,00,AAXX 16004 41923 02340 80000 10282 20260 30016 40026 8632/ 333 59016 70000 82709 84615 88458 81930==
41923,2024,08,16,03,00,AAXX 16034 41923 02350 60000 10314 20250 30027 40037 84670 333 20280 59008 70000 82709 83615 85458==
41923,2024,08,16,06,00,AAXX 16064 41923 02350 60000 10322 20250 30020 40030 84670 333 59004 70000 82709 83615 85458==
41923,2024,08,16,09,00,AAXX 16094 41923 01340 80000 10286 20270 30001 40011 76196 8532/ 333 59001 70122 83709 84615 88458 81930==
41923,2024,08,16,12,00,AAXX 16124 41923 21345 70000 10291 20250 39997 40007 70196 84670 333 10332 58000 60128 70124 82709 83615 86458==
41923,2024,08,16,15,00,AAXX 16154 41923 02340 80000 10281 20250 30020 40030 8462/ 333 59006 70124 82709 83615 88458==
41923,2024,08,16,18,00,AAXX 16184 41923 02340 60000 10278 20250 30030 40040 84630 333 58004 70124 81709 83615 82360==
41923,2024,08,16,21,00,AAXX 16214 41923 02340 60000 10271 20240 30018 40028 84630 333 59005 70124 81709 83615 85360==
41923,2024,08,17,00,00,AAXX 17004 41923 21340 70000 10267 20240 30021 40031 70362 84670 333 58005 60005 70124 81709 83615 86458==
41923,2024,08,17,03,00,AAXX 17034 41923 02345 50000 10300 20250 30030 40040 84630 333 20265 58003 70124 81709 83615==
41923,2024,08,17,06,00,AAXX 17064 41923 02350 70604 10323 20240 30027 40037 85370 333 58007 70124 82709 84615 86458 81930==
41923,2024,08,17,09,00,AAXX 17094 41923 01445 81204 10288 20230 30005 40015 72122 8532/ 333 58004 70002 85615 88459 81930==
41923,2024,08,17,12,00,AAXX 17124 41923 21440 81202 10269 20250 30003 40013 72162 8532/ 333 10327 58006 69987 70008 85615 88459 81930==
41923,2024,08,17,15,00,AAXX 17154 41923 02440 80000 10274 20240 30033 40043 8532/ 333 58013 70008 85615 88459 81930==
41923,2024,08,17,18,00,AAXX 17184 41923 21330 82403 10256 20250 30024 40034 76162 8632/ 333 59006 60057 70056 83708 84613 88458 81928==
41923,2024,08,17,21,00,AAXX 17214 41923 01330 82703 10255 20255 30020 40030 76366 8632/ 333 58002 70304 86707 88458 81925==
41923,2024,08,18,00,00,AAXX 18004 41923 21330 80902 10258 20250 30019 40029 70266 8532/ 333 59002 60388 70438 81710 84614 88459 81930==
41923,2024,08,18,03,00,AAXX 18034 41923 02440 81202 10272 20250 30036 40046 8532/ 333 20254 58006 70438 85615 88459 81930==
41923,2024,08,18,06,00,AAXX 18064 41923 02445 81803 10299 20260 30033 40043 8532/ 333 58006 70438 85615 88459 81930==
41923,2024,08,18,09,00,AAXX 18094 41923 01450 61803 10300 20260 30012 40022 70162 84430 333 58007 70438 83615 84360==
41923,2024,08,18,12,00,AAXX 18124 41923 11350 71304 10290 20250 30011 40021 60006 70362 84670 333 10310 58008 70430 82709 83615 85458==
41923,2024,08,18,15,00,AAXX 18154 41923 02450 50000 10280 20250 30034 40044 82530 333 58001 70430 82615 84360==
41923,2024,08,18,18,00,AAXX 18184 41923 02345 70000 10280 20260 30036 40046 84670 333 58012 70382 82709 83615 85458==
41923,2024,08,18,21,00,AAXX 18214 41923 02340 81303 10274 20250 30019 40029 8562/ 333 59001 70134 83709 84614 88458==
41923,2024,08,19,00,00,AAXX 19004 41923 21340 81303 10264 20240 30009 40019 72162 8562/ 333 59010 60037 70032 83709 84614 88458==
41923,2024,08,19,03,00,AAXX 19034 41923 01330 81303 10264 20250 30025 40035 76166 8632/ 333 20262 59011 70036 83709 84614 88458 81930==
41923,2024,08,19,06,00,AAXX 19064 41923 21340 80000 10270 20250 30019 40029 76166 8672/ 333 59014 60019 70042 83709 84614 88458==
41923,2024,08,19,09,00,AAXX 19094 41923 01340 80000 10270 20250 39997 40007 70262 8632/ 333 59015 70044 83709 84615 88458 81930==
41923,2024,08,19,12,00,AAXX 19124 41923 01340 80000 10275 20250 39993 40003 70262 86327 333 10280 59018 70044 83709 84615 88458 81930==
41923,2024,08,19,15,00,AAXX 19154 41923 02340 80000 10269 20250 30017 40027 8532/ 333 59017 70044 82709 84615 88458 81930==
41923,2024,08,19,18,00,AAXX 19184 41923 02340 80000 10264 20250 30019 40029 8532/ 333 59017 70044 82709 84615 88458 81930==
41923,2024,08,19,21,00,AAXX 19214 41923 02340 80000 10264 20250 30015 40025 8532/ 333 59004 70044 82709 84615 88458 81930==
41923,2024,08,20,00,00,AAXX 20004 41923 02340 70000 10264 20250 30014 40024 84670 333 58005 70012 81709 83615 86458==
41923,2024,08,20,03,00,AAXX 20034 41923 02340 70000 10286 20260 30031 40041 85670 333 20262 58006 70008 82709 84615 86458==
41923,2024,08,20,06,00,AAXX 20064 41923 02345 72102 10307 20260 30035 40045 85670 333 58016 70002 82709 84615 86458==
41923,2024,08,20,09,00,AAXX 20094 41923 42456 61802 10321 20260 30017 40027 83530 333 58020 83615 86365==
41923,2024,08,20,12,00,AAXX 20124 41923 02440 61802 10302 20250 30017 40027 83530 333 10324 58027 70000 83615 86365==
41923,2024,08,20,15,00,AAXX 20154 41923 01340 80000 10285 20270 30045 40055 72122 8532/ 333 58028 70004 81710 84614 88459 81930==
41923,2024,08,20,18,00,AAXX 20184 41923 21440 80000 10285 20270 30050 40060 70262 8532/ 333 58031 69945 70004 85615 88459 81930==
41923,2024,08,20,21,00,AAXX 20214 41923 01330 82402 10278 20270 30041 40051 76166 8632/ 333 58026 70050 83708 84613 88458 81928==
41923,2024,08,21,00,00,AAXX 21004 41923 21330 80000 10275 20270 30029 40039 70262 8532/ 333 58015 60068 70062 81710 84614 88459 81930==
41923,2024,08,21,03,00,AAXX 21034 41923 01335 80000 10275 20260 30054 40064 70262 8532/ 333 20261 58023 70062 82709 84614 88459 81930==
41923,2024,08,21,06,00,AAXX 21064 41923 02330 81802 10286 20270 30049 40059 8632/ 333 58014 70062 83708 84613 88458 81928==
41923,2024,08,21,09,00,AAXX 21094 41923 01340 80000 10279 20270 30025 40035 70262 8632/ 333 58008 70300 82709 84615 88458 81930==
41923,2024,08,21,12,00,AAXX 21124 41923 01335 80000 10275 20270 30021 40031 76162 333 10287 58001 70332 83708 84614 88458 81930==
41923,2024,08,21,15,00,AAXX 21154 41923 01340 80000 10269 20269 30034 40044 70562 8532/ 333 59011 70328 82709 84615 88458 81930==
41923,2024,08,21,18,00,AAXX 21184 41923 01330 80000 10268 20268 30042 40052 76162 8632/ 333 59008 70344 83708 84614 88458 81930==
41923,2024,08,21,21,00,AAXX 21214 41923 01330 80000 10267 20267 30029 40039 79196 8632/ 333 59012 70378 84708 85614 88458 81928==
41923,2024,08,22,00,00,AAXX 22004 41923 21335 80000 10265 20265 30021 40031 76196 8532/ 333 59008 60139 70430 83709 84615 88458 81930==
41923,2024,08,22,03,00,AAXX 22034 41923 01335 80000 10269 20269 30041 40051 72162 8632/ 333 20263 59013 70450 83709 84615 88458 81930==
41923,2024,08,22,06,00,AAXX 22064 41923 01340 80000 10274 20250 30040 40050 79596 8692/ 333 59009 70452 83709 84615 88458 81930==
41923,2024,08,22,09,00,AAXX 22094 41923 01350 80904 10270 20250 30016 40026 70266 8632/ 333 59009 70210 83709 84615 88458 81930==
41923,2024,08,22,12,00,AAXX 22124 41923 11350 81303 10270 20250 30017 40027 69986 70262 8562/ 333 10280 59004 70178 83709 84615 88458==
41923,2024,08,22,15,00,AAXX 22154 41923 01340 80000 10268 20250 30048 40058 76162 8532/ 333 58014 70202 83709 84614 88458 81930==
41923,2024,08,22,18,00,AAXX 22184 41923 21340 80000 10267 20260 30054 40064 70262 8562/ 333 58012 60028 70186 83709 84615 88458==
41923,2024,08,22,21,00,AAXX 22214 41923 02340 80000 10266 20260 30039 40049 8562/ 333 58010 70106 83709 84615 88458==
41926,2024,08,16,00,00,AAXX 16004 41926 02450 40000 10270 20270 30001 40015 82502 333 59027 70044 82618 83080==
41926,2024,08,16,03,00,AAXX 16034 41926 02450 70000 10300 20270 30015 40028 84510 333 20270 59006 70044 84616 86459==
41926,2024,08,16,06,00,AAXX 16064 41926 02450 51802 10340 20260 30009 40022 84530 333 59006 70044 84616 84362==
41926,2024,08,16,09,00,AAXX 16094 41926 02450 61802 10350 20270 39988 40001 84510 333 59003 70044 84616 86459==
41926,2024,08,16,12,00,AAXX 16124 41926 02450 60000 10295 20260 39991 40004 83510 333 10352 58001 70044 83616 86459==
41926,2024,08,16,15,00,AAXX 16154 41926 02450 40000 10280 20260 30015 40029 82530 333 59004 70000 82618 83362==
41926,2024,08,16,18,00,AAXX 16184 41926 02450 40000 10275 20270 30024 40038 82530 333 58003 70000 82618 83362==
41926,2024,08,16,21,00,AAXX 16214 41926 02450 40000 10272 20260 30012 40026 82510 333 58015 70000 82618 84459==
41926,2024,08,17,00,00,AAXX 17004 41926 02450 60000 10268 20268 30015 40029 82510 333 58014 70000 82618 86459==
41926,2024,08,17,03,00,AAXX 17034 41926 02456 50000 10305 20260 30028 40041 83510 333 20268 58013 70000 83618 85459==
41926,2024,08,17,06,00,AAXX 17064 41926 02456 50000 10340 20250 30023 40036 84430 333 58014 70000 82618 83820==
41926,2024,08,17,09,00,AAXX 17094 41926 02456 40000 10352 20250 39996 40009 84400 333 58008 70000 83618 83820==
41926,2024,08,17,12,00,AAXX 17124 41926 02450 50000 10296 20270 39994 40007 84410 333 10360 58003 70050 82618 83828==
41926,2024,08,17,15,00,AAXX 17154 41926 02450 50000 10278 20240 30028 40042 83510 333 58013 70050 83618 85459==
41926,2024,08,17,18,00,AAXX 17184 41926 02450 50000 10264 20240 30026 40040 82610 333 58002 70050 82618 85459==
41926,2024,08,17,21,00,AAXX 17214 41926 02450 60000 10268 20250 30018 40032 83510 333 58006 70050 83618 85459==
41926,2024,08,18,00,00,AAXX 18004 41926 02450 60000 10272 20240 30006 40020 83510 333 59009 70050 83618 86459==
41926,2024,08,18,03,00,AAXX 18034 41926 01450 60000 10272 20260 30023 40037 70262 83510 333 10262 59005 70120 83618 86459==
41926,2024,08,18,06,00,AAXX 18064 41926 01450 80000 10273 20260 30026 40040 76166 8472/ 333 58003 70138 81709 83617 88458==
41926,2024,08,18,09,00,AAXX 18094 41926 01450 80000 10288 20270 30001 40014 70262 8472/ 333 58005 70158 81709 83617 88458==
41926,2024,08,18,12,00,AAXX 18124 41926 01450 50000 10277 20270 39999 40012 70162 82510 333 10292 58005 70152 82618 85459==
41926,2024,08,18,15,00,AAXX 18154 41926 01450 50000 10262 20250 30018 40032 70262 82510 333 59010 70304 82618 85459==
41926,2024,08,18,18,00,AAXX 18184 41926 11450 60000 10267 20267 30020 40034 60156 70362 83510 333 59006 70304 83618 85459==
41926,2024,08,18,21,00,AAXX 18214 41926 02450 60000 10266 20260 30011 40025 83510 333 59007 70304 83618 85459==
41926,2024,08,19,00,00,AAXX 19004 41926 01450 70000 10266 20260 30002 40016 70362 84510 333 59004 70030 84617 86459==
41926,2024,08,19,03,00,AAXX 19034 41926 01456 70000 10272 20260 30016 40029 76122 84510 333 20262 59007 70276 84615 87459==
41926,2024,08,19,06,00,AAXX 19064 41926 21450 80000 10300 20270 30015 40028 70362 8452/ 333 59011 60018 70258 84615 88458==
41926,2024,08,19,09,00,AAXX 19094 41926 02450 50000 10303 20260 39992 40005 82510 333 59009 70238 82617 85459==
41926,2024,08,19,12,00,AAXX 19124 41926 02450 50000 10300 20260 39987 40000 82502 333 10325 59012 70194 82617 84080==
41926,2024,08,19,15,00,AAXX 19154 41926 02450 40000 10290 20260 30023 40036 81502 333 58005 70042 81618 83080==
41926,2024,08,19,18,00,AAXX 19184 41926 02450 60000 10280 20260 30020 40033 82510 333 58000 70042 82618 86459==
41926,2024,08,19,21,00,AAXX 19214 41926 02450 60000 10270 20260 30017 40031 82510 333 58006 70042 82618 86459==
41926,2024,08,20,00,00,AAXX 20004 41926 02450 50000 10256 20250 30013 40027 81502 333 58011 70012 81618 84080==
41926,2024,08,20,03,00,AAXX 20034 41926 02456 50000 10290 20260 30024 40037 82502 333 20256 58008 70000 82618 85080==
41926,2024,08,20,06,00,AAXX 20064 41926 02456 60000 10328 20270 30028 40041 84401 333 58013 70000 83618 83822==
41926,2024,08,20,09,00,AAXX 20094 41926 41456 70000 10300 20280 30004 40017 72162 83510 333 58012 83617 87459==
41926,2024,08,20,12,00,AAXX 20124 41926 21456 81803 10290 20260 30006 40019 70362 8452/ 333 10337 58019 60075 70070 84616 88458==
41926,2024,08,20,18,00,AAXX 20184 41926 21450 80000 10270 20260 30034 40048 76162 8452/ 333 58014 60227 70294 84616 88458==
41926,2024,08,20,21,00,AAXX 20214 41926 01450 80000 10270 20260 30032 40046 70262 8352/ 333 58015 70344 83617 88458==
41926,2024,08,21,00,00,AAXX 21004 41926 01450 70000 10266 20260 30030 40044 70162 83510 333 58017 70344 83617 87459==
41926,2024,08,21,03,00,AAXX 21034 41926 02450 70000 10280 20260 30046 40059 84510 333 20265 58022 70344 84615 87459==
41926,2024,08,21,06,00,AAXX 21064 41926 02456 70000 10313 20260 30040 40053 84510 333 58012 70344 84615 87459==
41926,2024,08,21,09,00,AAXX 21094 41926 02456 70000 10328 20270 30011 40024 84510 333 58007 70274 84616 87459==
41926,2024,08,21,12,00,AAXX 21124 41926 02456 60000 10310 20290 30008 40021 82510 333 10333 58002 70274 82618 86459==
41926,2024,08,21,15,00,AAXX 21154 41926 02450 60000 10295 20280 30033 40046 82510 333 59003 70110 82618 86459==
41926,2024,08,21,18,00,AAXX 21184 41926 02450 50000 10285 20280 30036 40049 81510 333 58002 70050 81618 84459==
41926,2024,08,21,21,00,AAXX 21214 41926 02450 70000 10275 20270 30032 40045 82510 333 58000 70000 82617 87459==
41926,2024,08,22,00,00,AAXX 22004 41926 21450 80000 10264 20250 30024 40038 70362 8352/ 333 59006 60025 70020 83617 88458==
41926,2024,08,22,03,00,AAXX 22034 41926 02450 80000 10284 20270 30037 40050 8452/ 333 20264 59009 70020 84616 88458==
41926,2024,08,22,06,00,AAXX 22064 41926 02450 70000 10315 20260 30028 40041 84510 333 59012 70020 84616 87459==
41926,2024,08,22,09,00,AAXX 22094 41926 02450 70000 10320 20250 39998 40011 84510 333 59013 70020 84615 87459==
41926,2024,08,22,12,00,AAXX 22124 41926 02450 60000 10285 20270 30000 40013 83510 333 10328 59008 70020 83616 86459==
41926,2024,08,22,15,00,AAXX 22154 41926 02450 60000 10280 20260 30027 40041 83510 333 59006 70020 83616 86459==
41926,2024,08,22,18,00,AAXX 22184 41926 21340 80000 10260 20260 30033 40047 76396 8672/ 333 59003 60097 70110 83708 84614 88458==
41926,2024,08,22,21,00,AAXX 22214 41926 01340 80000 10260 20260 30017 40031 70262 8672/ 333 59015 70130 82708 84615 88458==
41927,2024,08,16,00,00,AAXX 16004 41927 NIL=
41927,2024,08,16,06,00,AAXX 16064 41927 NIL=
41927,2024,08,16,12,00,AAXX 16124 41927 32456 61801 10294 20260 39986 40001 83510 333 10324 56490 58000 70000 83617 85459=
41927,2024,08,17,00,00,AAXX 17004 41927 NIL=
41927,2024,08,17,03,00,AAXX 17034 41927 NIL=
41927,2024,08,17,06,00,AAXX 17064 41927 32958 01802 10318 20240 30023 40037 333 58007 70000=
41927,2024,08,17,12,00,AAXX 17124 41927 11457 41801 10302 20240 39998 40013 60015 70162 82510 333 10326 56490 58012 70010 83618 84459=
41927,2024,08,18,00,00,AAXX 18004 41927 11450 81802 10264 20250 30008 40023 60044 70213 8452/ 333 56499 59008 70054 84616 88458=
41927,2024,08,18,06,00,AAXX 18064 41927 NIL=
41927,2024,08,18,12,00,AAXX 18124 41927 32456 81802 10292 20260 39998 40013 8452/ 333 10294 56499 58000 70074 84616 88458=
41927,2024,08,18,18,00,AAXX 18184 41927 32450 61801 10278 20270 30023 40038 83510 333 56490 59005 70074 83517 85459=
41927,2024,08,19,00,00,AAXX 19004 41927 32450 81802 10264 20250 30004 40019 8452/ 333 56499 59004 70000 84616 88458=
41927,2024,08,19,06,00,AAXX 19064 41927 32456 80401 10286 20260 30016 40031 8452/ 333 56199 59007 70000 84616 88458=
41927,2024,08,19,12,00,AAXX 19124 41927 32456 61303 10290 20250 39988 40009 84470 333 10305 56390 59010 70000 83617 84459=
41927,2024,08,19,18,00,AAXX 19184 41927 32456 50000 10268 20260 30019 40034 82510 333 56490 59004 70000 82617 85459=
41927,2024,08,20,00,00,AAXX 20004 41927 32456 72201 10260 20250 30011 40026 83510 333 56590 58007 70000 83617 87459=
41927,2024,08,20,06,00,AAXX 20064 41927 32458 51801 10317 20250 30026 40041 85400 333 56400 58010 70000 82618 83825=
41927,2024,08,20,12,00,AAXX 20124 41927 11456 61802 10275 20270 30010 40025 60229 72162 83510 333 10325 56490 58022 70220 83617 85459=
41927,2024,08,20,18,00,AAXX 20184 41927 11330 82701 10260 20250 30038 40053 60213 79596 8692/ 333 56699 58019 70428 82707 83615 82929 88459=
41927,2024,08,21,00,00,AAXX 21004 41927 11456 70000 10262 20250 30022 40037 60898 70196 83510 333 56590 58011 71318 83617 87459=
41927,2024,08,21,06,00,AAXX 21064 41927 32457 61801 10300 20250 30037 40052 83570 333 56490 58011 71318 83617 84459=
41927,2024,08,21,12,00,AAXX 21124 41927 11457 83402 10305 20280 30009 40024 69985 70362 8532/ 333 10312 56799 59001 71106 84617 81930 88458=
41927,2024,08,21,18,00,AAXX 21184 41927 32456 50000 10275 20270 30037 40052 82510 333 56490 59001 70898 82618 85459=
41927,2024,08,22,00,00,AAXX 22004 41927 11450 81801 10270 20260 30021 40036 69984 72122 8452/ 333 56499 59001 70016 84617 88458=
41927,2024,08,22,06,00,AAXX 22064 41927 32457 71701 10304 20250 30027 40042 83510 333 56390 59010 70016 83618 87459=
41927,2024,08,22,12,00,AAXX 22124 41927 32456 80000 10295 20280 39997 40012 8532/ 333 10315 56499 59012 70008 84617 81930 88458=
41927,2024,08,22,18,00,AAXX 22184 41927 11450 71701 10270 20260 30036 40051 60356 71396 84310 333 56490 59001 70353 83617 81930 87459=
41929,2024,08,16,00,00,AAXX 16004 41929 02456 81302 10282 20260 30016 40025 8351/ 333 59009 70000 83618 88462==
41929,2024,08,16,03,00,AAXX 16034 41929 02456 71304 10305 20260 30023 40032 83570 333 20274 59009 70000 83618 86462==
41929,2024,08,16,06,00,AAXX 16064 41929 02456 60902 10330 20250 30020 40029 83530 333 59005 70000 83618 86365==
41929,2024,08,16,09,00,AAXX 16094 41929 01456 80000 10281 20260 30000 40009 79596 8592/ 333 59001 70042 84618 88460 81930==
41929,2024,08,16,12,00,AAXX 16124 41929 21456 70000 10295 20280 39996 40005 70196 85510 333 10348 58001 60058 70047 83618 87462==
41929,2024,08,16,15,00,AAXX 16154 41929 02456 70000 10284 20260 30019 40028 83510 333 59007 70047 83618==
41929,2024,08,16,18,00,AAXX 16184 41929 02456 60204 10281 20260 30027 40036 83510 333 58001 70047 83618 85462==
41929,2024,08,16,21,00,AAXX 16214 41929 02456 60904 10281 20260 30023 40032 83510 333 58002 70047 83618 85462==
41929,2024,08,17,00,00,AAXX 17004 41929 02456 80000 10273 20260 30018 40027 8351/ 333 58002 70047 83618 88462==
41929,2024,08,17,03,00,AAXX 17034 41929 02456 50903 10306 20260 30032 40041 83540 333 20266 58009 70047 83618 84365==
41929,2024,08,17,06,00,AAXX 17064 41929 02456 70903 10332 20250 30027 40036 83570 333 58007 70047 85618 86462==
41929,2024,08,17,09,00,AAXX 17094 41929 01457 31004 10320 20250 30000 40010 70162 81530 333 58000 70007 81618==
41929,2024,08,17,12,00,AAXX 17124 41929 01456 80906 10280 20250 30003 40013 76062 8532/ 333 10345 58007 70004 85617 88460==
41929,2024,08,17,15,00,AAXX 17154 41929 02456 80604 10274 20250 30031 40041 8552/ 333 58012 70004 85617 88460==
41929,2024,08,17,18,00,AAXX 17184 41929 01456 80703 10270 20250 30020 40030 76162 8552/ 333 59007 70020 85617 88460==
41929,2024,08,17,21,00,AAXX 17214 41929 01450 80905 10264 20250 30008 40018 76366 8552/ 333 59015 70074 85616 88458==
41929,2024,08,18,00,00,AAXX 18004 41929 21450 81006 10264 20250 30009 40019 76366 8552/ 333 59009 60079 70144 85616 88458==
41929,2024,08,18,03,00,AAXX 18034 41929 01456 81803 10280 20260 30029 40038 70262 8351/ 333 20260 59003 70258 83618 88462==
41929,2024,08,18,06,00,AAXX 18064 41929 01456 70904 10310 20260 30026 40035 70162 83510 333 59001 70260 83618 87462==
41929,2024,08,18,09,00,AAXX 18094 41929 01456 70903 10290 20270 30006 40016 76162 84570 333 58006 70268 84617 84460==
41929,2024,08,18,12,00,AAXX 18124 41929 21456 70903 10290 20260 30005 40015 70162 83510 333 10320 58002 60015 70266 83617 84462==
41929,2024,08,18,15,00,AAXX 18154 41929 01456 70902 10280 20260 30026 40036 76166 83520 333 59005 70270 83616 85458==
41929,2024,08,18,18,00,AAXX 18184 41929 NIL=
41929,2024,08,19,00,00,AAXX 19004 41929 21450 80904 10270 20260 30002 40012 76366 8552/ 333 59007 60109 70270 85617 88460==
41929,2024,08,19,03,00,AAXX 19034 41929 01456 80903 10268 20260 30020 40029 76166 8552/ 333 20260 59009 70170 85617 88460==
41929,2024,08,19,06,00,AAXX 19064 41929 21456 80906 10290 20250 30018 40027 70262 8551/ 333 59008 60018 70168 85618 88462==
41929,2024,08,19,09,00,AAXX 19094 41929 02456 80904 10284 20250 39995 40005 8552/ 333 59011 70158 85617 88460==
41929,2024,08,19,12,00,AAXX 19124 41929 02456 80802 10280 20260 39992 40002 8552/ 333 10295 59013 70158 85617 88460==
41929,2024,08,19,15,00,AAXX 19154 41929 02456 80902 10280 20260 30020 40030 8552/ 333 59006 70154 85617 88460==
41929,2024,08,19,18,00,AAXX 19184 41929 02456 80902 10274 20250 30030 40040 8552/ 333 58002 70114 85617 88460==
41929,2024,08,19,21,00,AAXX 19214 41929 02456 40902 10270 20260 30012 40033 82510 333 58014 70114 82617 84460==
41929,2024,08,20,00,00,AAXX 20004 41929 02456 43002 10266 20250 30014 40024 81570 333 58012 70014 81617 83460==
41929,2024,08,20,03,00,AAXX 20034 41929 02456 60902 10302 20250 30030 40039 83530 333 20260 58010 70000 83618 85365==
41929,2024,08,20,06,00,AAXX 20064 41929 01456 82302 10294 20260 30038 40047 76122 8352/ 333 58020 70010 83618 88462==
41929,2024,08,20,09,00,AAXX 20094 41929 01456 61002 10324 20260 30012 40022 70162 84430 333 58015 70010 82618 83365==
41929,2024,08,20,12,00,AAXX 20124 41929 02456 62302 10300 20270 30015 40025 84470 333 10326 58013 70010 82618 83460==
41929,2024,08,20,15,00,AAXX 20154 41929 02456 61802 10290 20270 30041 40051 83530 333 58011 70010 83618 83365==
41929,2024,08,20,18,00,AAXX 20184 41929 01456 80000 10284 20260 30046 40056 70362 8451/ 333 58016 70020 84617 88460==
41929,2024,08,20,21,00,AAXX 20214 41929 02456 80000 10280 20260 30028 40038 8351/ 333 58016 70030 83617 88460==
41929,2024,08,21,00,00,AAXX 21004 41929 02456 80000 10280 20260 30026 40036 8351/ 333 58012 70030 83617 88460==
41929,2024,08,21,06,00,AAXX 21064 41929 02456 80000 10300 20260 30046 40056 8652/ 333 58008 70030 86617 88460==
41929,2024,08,21,09,00,AAXX 21094 41929 02456 80000 10314 20260 30018 40028 8652/ 333 58006 70030 86617 88460==
41929,2024,08,21,12,00,AAXX 21124 41929 01456 80000 10295 20280 30017 40027 70262 8652/ 333 10315 58002 70010 86617 88460==
41929,2024,08,21,15,00,AAXX 21154 41929 01450 80000 10285 20280 30038 40048 76362 8652/ 333 59003 70084 86617 88458==
41929,2024,08,21,18,00,AAXX 21184 41929 21450 80000 10275 20270 30042 40052 76196 8652/ 333 59004 60127 70140 86617 88458==
41929,2024,08,21,21,00,AAXX 21214 41929 01450 80903 10275 20270 30027 40037 79599 8692/ 333 59001 70330 85617 88458 81928==
41929,2024,08,22,00,00,AAXX 22004 41929 21450 80000 10265 20260 30024 40034 79599 8692/ 333 59002 60459 70580 85617 88458 81928==
41929,2024,08,22,03,00,AAXX 22034 41929 01456 80000 10270 20260 30041 40050 76162 8352/ 333 20259 59005 70598 83618 88462==
41929,2024,08,22,06,00,AAXX 22064 41929 21456 80000 10294 20270 30380 40047 70262 8352/ 333 59008 60028 70598 83618 88462==
41929,2024,08,22,09,00,AAXX 22094 41929 02456 81704 10274 20250 30011 40021 8552/ 333 59007 70598 85617 88460==
41929,2024,08,22,12,00,AAXX 22124 41929 02456 80000 10280 20260 30016 40026 8552/ 333 10300 59001 70588 85617 88460==
41929,2024,08,22,18,00,AAXX 22184 41929 01456 80000 10260 20250 30048 40058 79596 8692/ 333 58007 70090 85617 88460 81928==
41933,2024,08,16,00,00,AAXX 16004 41933 02440 30000 10265 20260 30019 40028 82530 333 59011 70000 82618 83362==
41933,2024,08,16,03,00,AAXX 16034 41933 02450 61702 10305 20260 30021 40030 84430 333 20264 59022 70000 82618 83826 85362==
41933,2024,08,16,06,00,AAXX 16064 41933 02456 71802 10304 20250 30021 40030 84510 333 59004 70000 84618 87458==
41933,2024,08,16,09,00,AAXX 16094 41933 02456 61802 10290 20250 39998 40006 8452/ 333 59007 70000 84618 88458==
41933,2024,08,16,12,00,AAXX 16124 41933 02456 71502 10282 20240 39997 40005 84510 333 10312 58000 70000 84618 87459==
41933,2024,08,16,15,00,AAXX 16154 41933 41350 80000 10270 20250 30015 40024 76162 8572/ 333 59025 82709 84615 88458==
41933,2024,08,16,18,00,AAXX 16184 41933 21350 81702 10265 20250 30027 40036 76166 8572/ 333 58001 69919 70001 82709 84615 88458==
41933,2024,08,16,21,00,AAXX 16214 41933 02450 70000 10260 20240 30013 40022 83520 333 59011 70001 83618 87458==
41933,2024,08,17,00,00,AAXX 17004 41933 02450 70000 10257 20250 30011 40020 83520 333 59008 70001 83618 87458==
41933,2024,08,17,03,00,AAXX 17034 41933 01356 80504 10260 20250 30022 40030 76162 8672/ 333 20255 58001 70031 84708 85614 88456==
41933,2024,08,17,06,00,AAXX 17064 41933 21350 80503 10255 20255 30018 40027 76162 8672/ 333 59003 60299 70291 84708 85614 88456==
41933,2024,08,17,09,00,AAXX 17094 41933 01350 80505 10255 20250 39999 40007 76166 8672/ 333 58001 70351 84708 85614 88456==
41933,2024,08,17,12,00,AAXX 17124 41933 21350 80503 10260 20250 30003 40011 76166 8672/ 333 10265 58006 60079 70361 84708 85614 88456==
41933,2024,08,17,15,00,AAXX 17154 41933 01340 81203 10260 20250 30027 40035 76166 8672/ 333 58012 70417 83709 84615 88456==
41933,2024,08,17,18,00,AAXX 17184 41933 21450 71504 10261 20250 30025 40033 70162 84520 333 59002 60089 70438 84618 87458==
41933,2024,08,17,21,00,AAXX 17214 41933 01450 81502 10256 20250 30015 40024 72162 8452/ 333 58002 70458 84616 88457==
41933,2024,08,18,00,00,AAXX 18004 41933 21450 80000 10256 20250 30017 40026 70262 8452/ 333 58006 60028 70458 84616 88457==
41933,2024,08,18,03,00,AAXX 18034 41933 02450 70000 10275 20260 30041 40050 83520 333 20254 47458 58019 70428 83618==
41933,2024,08,18,06,00,AAXX 18064 41933 02450 60000 10285 20260 30035 40043 82520 333 58017 70168 82618 86458==
41933,2024,08,18,09,00,AAXX 18094 41933 02450 61702 10295 20260 30013 40021 82520 333 58014 70108 82618 86458==
41933,2024,08,18,12,00,AAXX 18124 41933 02450 60000 10280 20260 30015 40023 82520 333 10300 58012 70098 82618 86458==
41933,2024,08,18,15,00,AAXX 18154 41933 01330 81302 10266 20260 30038 40046 76162 8672/ 333 58011 70072 84708 85614 88456==
41933,2024,08,18,18,00,AAXX 18184 41933 21330 80902 10260 20250 30044 40053 76162 8672/ 333 58019 60059 70070 84708 85614 88456==
41933,2024,08,18,21,00,AAXX 18214 41933 01330 80902 10255 20255 30029 40038 76166 8672/ 333 58014 70270 84708 85614 88456==
41933,2024,08,19,00,00,AAXX 19004 41933 21340 81702 10255 20255 30018 40027 76166 8672/ 333 58001 60509 70550 84708 85614 88456==
41933,2024,08,19,03,00,AAXX 19034 41933 01340 81202 10255 20250 30022 40032 76166 8672/ 333 59019 70606 83709 84615 88456==
41933,2024,08,19,06,00,AAXX 19064 41933 21320 81502 10255 20250 30015 40024 76366 8672/ 333 59020 60449 70988 84708 85614 88456==
41933,2024,08,19,09,00,AAXX 19094 41933 01340 82107 10250 20250 39984 49992 76196 8572/ 333 59029 71678 83709 84615 88457==
41933,2024,08,19,12,00,AAXX 19124 41933 21340 82102 10265 20260 39989 49997 76166 8572/ 333 10266 59026 60769 71750 83709 84615 88457==
41933,2024,08,19,15,00,AAXX 19154 41933 01330 81702 10263 20260 30012 40020 76166 8672/ 333 59026 72080 84708 85614 88456==
41933,2024,08,19,18,00,AAXX 19184 41933 21330 82302 10262 20260 30022 40030 76166 8672/ 333 59022 60389 72080 84708 85614 88456==
41933,2024,08,19,21,00,AAXX 19214 41933 01330 82302 10260 20260 30020 40028 76166 8672/ 333 59009 71890 84708 85614 88456==
41933,2024,08,20,00,00,AAXX 20004 41933 21340 82302 10265 20260 30021 40029 76166 8672/ 333 58003 60059 71630 84708 85614 88456==
41933,2024,08,20,03,00,AAXX 20034 41933 01350 82303 10265 20260 30033 40042 76166 8672/ 333 20254 58011 71654 84708 85614 88456==
41933,2024,08,20,06,00,AAXX 20064 41933 21350 82302 10265 20260 30043 40052 76166 8672/ 333 58028 60189 71372 84708 85614 88456==
41933,2024,08,20,09,00,AAXX 20094 41933 01450 82302 10275 20260 30032 40041 70262 8562/ 333 58048 70682 83710 84618 88458==
41933,2024,08,20,12,00,AAXX 20124 41933 11450 82302 10276 20260 30031 40040 60006 70262 8562/ 333 10284 58042 70610 83710 84618 88458==
41933,2024,08,20,15,00,AAXX 20154 41933 01450 72102 10270 20250 30055 40063 72122 84510 333 58043 70280 84618 87458==
41933,2024,08,20,18,00,AAXX 20184 41933 01340 80000 10265 20260 30057 40065 79562 8692/ 333 58035 70300 83709 84615 88457 81925==
41933,2024,08,20,21,00,AAXX 20214 41933 01340 81802 10264 20250 30047 40055 76196 8572/ 333 58027 70452 83709 84615 88457==
41933,2024,08,21,00,00,AAXX 21004 41933 21340 81803 10270 20260 30032 40040 76196 8572/ 333 58011 60319 70560 83709 84615 88457==
41933,2024,08,21,03,00,AAXX 21034 41933 01340 82003 10275 20270 30055 40063 76196 8572/ 333 58002 70520 83709 84615 88457==
41933,2024,08,21,06,00,AAXX 21064 41933 21340 81802 10260 20250 30057 40066 79596 8692/ 333 58014 60419 70790 83709 84615 88456 81925==
41933,2024,08,21,09,00,AAXX 21094 41933 01340 81802 10255 20250 30031 40040 76196 8572/ 333 59001 70800 83709 84615 88457==
41933,2024,08,21,12,00,AAXX 21124 41933 21340 80000 10260 20250 30024 40033 76196 8572/ 333 10275 59007 60029 70810 83709 84615 88457==
41933,2024,08,21,15,00,AAXX 21154 41933 01330 82302 10260 20260 30044 40053 79596 8692/ 333 59011 71310 84708 85614 88456 81929==
41933,2024,08,21,18,00,AAXX 21184 41933 21330 82302 10260 20260 30043 40052 79596 8692/ 333 59014 60909 71640 84708 85614 88456 81929==
41933,2024,08,21,21,00,AAXX 21214 41933 01330 82302 10258 20258 30033 40042 79596 8692/ 333 59014 71708 84708 85614 88456 81929==
41933,2024,08,22,00,00,AAXX 22004 41933 21340 82302 10257 20257 30028 40037 79596 8692/ 333 59004 60559 71880 84708 85614 88456 81929==
41933,2024,08,22,03,00,AAXX 22034 41933 01350 82302 10255 20255 30049 40058 79596 8692/ 333 20254 59006 72200 84708 85614 88456 81929==
41933,2024,08,22,06,00,AAXX 22064 41933 21350 82302 10250 20250 30055 40064 79596 8692/ 333 59002 60419 71880 84708 85614 88456 81929==
41933,2024,08,22,09,00,AAXX 22094 41933 01350 81302 10255 20250 30026 40035 76196 8672/ 333 59005 71950 84708 85614 88456==
41933,2024,08,22,12,00,AAXX 22124 41933 21450 81302 10260 20240 30021 40030 70296 8562/ 333 10262 59003 60088 71940 84618 88458==
41933,2024,08,22,15,00,AAXX 22154 41933 02430 80000 10260 20240 30053 40062 8562/ 333 58009 71440 83710 84618 88458==
41933,2024,08,22,18,00,AAXX 22184 41933 02430 80000 10262 20240 30053 40062 8562/ 333 58010 71040 83710 84618 88458==
41933,2024,08,22,21,00,AAXX 22214 41933 02430 80000 10262 20240 30051 40060 8562/ 333 58018 70790 83710 85618 88458==
41936,2024,08,16,00,00,AAXX 16004 41936 01418 41103 10276 20270 30010 40017 70522 83630 333 59008 70000 82615 83362==
41936,2024,08,16,03,00,AAXX 16034 41936 01430 41003 10316 20270 30018 40025 70522 84630 333 59008 70000 81710 83615==
41936,2024,08,16,06,00,AAXX 16064 41936 11440 60903 10314 20270 30016 40023 60002 70562 85630 333 59004 82710 83615 85362==
41936,2024,08,16,09,00,AAXX 16094 41936 41340 72104 10326 20280 39994 40001 70522 84630 333 59002 83708 83615 85362==
41936,2024,08,16,12,00,AAXX 16124 41936 01330 70000 10274 20260 39990 49997 72996 84630 333 10330 59008 70060 83708 83615 86362==
41936,2024,08,16,15,00,AAXX 16154 41936 01430 50903 10278 20260 30015 40022 70522 83630 333 59003 70060 81710 83615==
41936,2024,08,16,18,00,AAXX 16184 41936 01430 50000 10274 20250 30024 40031 70522 83630 333 59002 70060 81710 83615==
41936,2024,08,16,21,00,AAXX 16214 41936 01430 50000 10270 20260 30016 40023 70522 83630 333 58010 70060 81710 83615==
41936,2024,08,17,00,00,AAXX 17004 41936 41416 40903 10266 20260 30015 40022 70522 83830 333 58005 83615 83362==
41936,2024,08,17,03,00,AAXX 17034 41936 01440 30503 10300 20260 30026 40033 70522 82530 333 20264 58008 70060 82615 83362==
41936,2024,08,17,06,00,AAXX 17064 41936 01450 40203 10328 20260 30024 40031 70522 82530 333 58008 70060 82615 84362==
41936,2024,08,17,09,00,AAXX 17094 41936 01440 50407 10314 20250 39996 40003 70522 84630 333 58002 70060 81710 83615==
41936,2024,08,17,12,00,AAXX 17124 41936 11440 40508 10314 20250 39994 40001 60001 70562 83830 333 10344 58004 83615 83362==
41936,2024,08,17,15,00,AAXX 17154 41936 41440 50805 10290 20260 30030 40037 70562 84630 333 58015 81710 83615==
41936,2024,08,17,18,00,AAXX 17184 41936 41430 50505 10280 20260 30020 40027 70522 84630 333 59004 81710 83615==
41936,2024,08,17,21,00,AAXX 17214 41936 41420 50605 10270 20260 30014 40021 70522 84630 333 59002 81710 83615==
41936,2024,08,18,00,00,AAXX 18004 41936 01312 83503 10262 20256 30006 40013 76162 8562/ 333 59009 70040 84708 83615 88460==
41936,2024,08,18,03,00,AAXX 18034 41936 01316 80706 10276 20270 30012 40019 76166 8572/ 333 20260 59014 70070 84707 83615 88460==
41936,2024,08,18,06,00,AAXX 18064 41936 21310 80603 10270 20260 30016 40023 76366 8672/ 333 59008 60339 70370 85706 83615 88460==
41936,2024,08,18,09,00,AAXX 18094 41936 01312 80703 10280 20270 30000 40007 76166 8672/ 333 58004 70630 84707 83615 88460==
41936,2024,08,18,12,00,AAXX 18124 41936 01420 61103 10286 20270 39997 40004 70566 85630 333 10286 58003 70000 83710 83615 86362==
41936,2024,08,18,15,00,AAXX 18154 41936 01320 71603 10282 20260 30010 40017 70522 85630 333 59020 70630 83708 83615 86362==
41936,2024,08,18,18,00,AAXX 18184 41936 01320 70000 10274 20250 30020 40027 70522 84630 333 58000 70630 83708 83615 86362==
41936,2024,08,18,21,00,AAXX 18214 41936 01320 70604 10270 20260 39996 40003 71722 85930 333 59018 70630 83708 83615 86362 81930==
41936,2024,08,19,00,00,AAXX 19004 41936 11316 80000 10266 20260 39994 40001 60002 79596 8593/ 333 59012 70590 84708 83615 88460 81930==
41936,2024,08,19,03,00,AAXX 19034 41936 01312 80403 10270 20260 30013 40020 76196 8572/ 333 20260 58001 70580 84707 83615 88460==
41936,2024,08,19,06,00,AAXX 19064 41936 21316 80604 10280 20270 30014 40021 76196 8572/ 333 59002 60089 70340 84708 83615 88460==
41936,2024,08,19,09,00,AAXX 19094 41936 01430 70703 10294 20270 39991 49998 70562 85630 333 59009 70080 83710 83615 87362==
41936,2024,08,19,12,00,AAXX 19124 41936 11440 50605 10298 20280 39990 49997 60001 70522 84630 333 10306 59007 70080 82710 83615 85362==
41936,2024,08,19,15,00,AAXX 19154 41936 01440 41103 10284 20260 30020 40027 70522 82830 333 58010 70080 81615 84362==
41936,2024,08,19,18,00,AAXX 19184 41936 01435 50000 10280 20260 30023 40030 70522 82830 333 58003 70080 82615 84362==
41936,2024,08,19,21,00,AAXX 19214 41936 01430 50000 10270 20250 30010 40017 70522 82830 333 58014 70080 82615 84362==
41936,2024,08,20,00,00,AAXX 20004 41936 01416 50000 10264 20250 30015 40022 70522 82830 333 58021 70080 82615 84362==
41936,2024,08,20,03,00,AAXX 20034 41936 01430 60303 10290 20260 30028 40035 70522 84630 333 20262 58015 70060 81710 83615 85362==
41936,2024,08,20,06,00,AAXX 20064 41936 41440 62206 10322 20260 30033 40040 70522 84630 333 58019 82710 83615 85362==
41936,2024,08,20,09,00,AAXX 20094 41936 01440 41908 10336 20270 30012 40019 70522 83830 333 58021 70000 83615 83362==
41936,2024,08,20,12,00,AAXX 20124 41936 01430 52604 10300 20270 30008 40015 70522 83630 333 10340 58021 70000 81710 83615 85362==
41936,2024,08,20,15,00,AAXX 20154 41936 01430 51803 10292 20270 30036 40043 70522 83630 333 58016 70000 81710 83615 85362==
41936,2024,08,20,18,00,AAXX 20184 41936 01430 51803 10288 20270 30039 40046 70522 83630 333 58016 70000 81710 83615 85362==
41936,2024,08,20,21,00,AAXX 20214 41936 01430 52104 10280 20270 30031 40038 70522 83630 333 58021 70000 81710 83615 85362==
41936,2024,08,21,00,00,AAXX 21004 41936 01416 52404 10274 20260 30029 40036 70522 83630 333 58014 70000 81710 83615 85362==
41936,2024,08,21,03,00,AAXX 21034 41936 01416 52506 10272 20280 30050 40057 70522 83630 333 20272 58022 70000 82710 83615 85362==
41936,2024,08,21,06,00,AAXX 21064 41936 41416 62904 10310 20280 30040 40047 70562 83630 333 58007 84710 83615 85362==
41936,2024,08,21,09,00,AAXX 21094 41936 41425 62403 20270 30018 40025 70522 84630 333 58006 82710 83615 85362==
41936,2024,08,21,12,00,AAXX 21124 41936 41430 52503 10318 20270 30010 40017 70522 83630 333 10328 58002 81710 85362==
41936,2024,08,21,15,00,AAXX 21154 41936 41430 52803 10300 20280 30032 40039 70522 83630 333 59004 81710 85362==
41936,2024,08,21,18,00,AAXX 21184 41936 41430 62403 10288 20270 30036 40043 70522 83630 333 59003 82710 85362==
41936,2024,08,21,21,00,AAXX 21214 41936 41430 52403 10274 20250 30020 40027 70522 83630 333 59011 82710 85362==
41936,2024,08,22,00,00,AAXX 22004 41936 41416 82305 10270 20250 30030 40037 71792 8592/ 333 58001 84708 83615 88460 81930==
41936,2024,08,22,03,00,AAXX 22034 41936 41412 72503 10300 20270 30036 40043 70592 84630 333 59014 83710 83615 87362==
41936,2024,08,22,06,00,AAXX 22064 41936 01310 72404 10304 20270 30031 40038 70592 85630 333 59009 70000 83708 83615 87362==
41936,2024,08,22,09,00,AAXX 22094 41936 01310 71804 10310 20280 30009 40016 71792 85930 333 59009 70000 83708 83615 87362 81930==
41936,2024,08,22,12,00,AAXX 22124 41936 01312 72403 10294 20260 30004 40011 70592 85630 333 10312 59006 70000 83708 83615 87362==
41936,2024,08,22,15,00,AAXX 22154 41936 01314 81703 10280 20260 30032 40039 79596 8692/ 333 58000 70010 85707 83615 88460 81930==
41936,2024,08,22,18,00,AAXX 22184 41936 21312 80000 10256 20250 30041 40048 79596 8692/ 333 58005 60429 70420 85706 83615 88460 81930==
41936,2024,08,22,21,00,AAXX 22214 41936 01314 80000 10260 20250 30026 40033 76196 8672/ 333 58006 70450 85707 83615 88460==
41938,2024,08,16,00,00,AAXX 16004 41938 31450 70000 10270 20260 30016 40020 70521 84570 333 56290 59012 79999 84616 85362=
41938,2024,08,16,06,00,AAXX 16064 41938 11457 61204 10320 20260 30016 40020 69904 70162 84432 333 56299 59010 79999 82617 83825=
41938,2024,08,16,12,00,AAXX 16124 41938 32456 70302 10294 20250 39997 40001 81472 333 10326 56199 59006 79999 81617 83460 85078=
41938,2024,08,16,18,00,AAXX 16184 41938 32456 30302 10273 20250 30019 40023 81501 333 56109 59008 79999 81617 83080=
41938,2024,08,17,00,00,AAXX 17004 41938 32456 60000 10261 20250 30014 40018 81531 333 56199 59002 79999 81617 85080=
41938,2024,08,17,03,00,AAXX 17034 41938 32457 53604 10320 20250 30022 40026 83411 333 56199 58006 70000 82617=
41938,2024,08,17,12,00,AAXX 17124 41938 11456 40000 10282 20260 30000 40004 69924 70262 84400 333 10325 56400 58003 70002 83618=
41938,2024,08,17,18,00,AAXX 17184 41938 11450 60000 10260 20250 30015 40019 60087 76166 84510 333 56990 59004 70077 84618 84459=
41938,2024,08,18,00,00,AAXX 18004 41938 11450 70000 10260 20250 39997 40001 60029 76166 84510 333 56990 59017 70100 84618 85459=
41938,2024,08,18,06,00,AAXX 18064 41938 11450 70000 10275 20275 30017 40021 60089 76166 84510 333 56990 59005 70182 84618 85459=
41938,2024,08,18,12,00,AAXX 18124 41938 11456 71801 10278 20270 30003 40007 60036 70362 83310 333 10286 56390 58003 70208 82617 81926 86460=
41938,2024,08,18,18,00,AAXX 18184 41938 32450 81801 10270 20260 30021 40024 8352/ 333 56999 58006 70133 83616 88458=
41938,2024,08,19,00,00,AAXX 19004 41938 11450 80901 10266 20260 39995 49999 60039 76162 8332/ 333 56299 59002 70140 83616 81926 88458=
41938,2024,08,19,06,00,AAXX 19064 41938 11450 80501 10275 20260 30009 40013 69993 76162 8332/ 333 56199 59008 70067 83616 81926 88458=
41938,2024,08,19,12,00,AAXX 19124 41938 11456 70201 10278 20270 39997 40001 69946 70162 82510 333 10276 56190 59006 70043 82616 86460=
41938,2024,08,19,18,00,AAXX 19184 41938 32450 82001 10268 20250 30020 40024 69924 72122 8252/ 333 56599 59001 70045 82616 88458=
41938,2024,08,20,00,00,AAXX 20004 41938 11450 82701 10270 20260 30016 40019 69948 70262 8332/ 333 56699 58021 70019 82616 81926 88458=
41938,2024,08,20,06,00,AAXX 20064 41938 11456 82301 10283 20260 30038 40042 69926 70262 8352/ 333 56599 59029 70012 83617 88458=
41938,2024,08,20,12,00,AAXX 20124 41938 11456 72001 10287 20270 30021 40025 69906 70262 81512 333 10300 56599 58024 70008 81618 84460 85079=
41938,2024,08,20,18,00,AAXX 20184 41938 32450 82002 10283 20260 30046 40050 8352/ 333 56599 58026 70006 83617 88459=
41938,2024,08,21,00,00,AAXX 21004 41938 11335 82202 10275 20275 30035 40039 60083 76162 8672/ 333 56599 58019 70082 81709 85615 88459=
41938,2024,08,21,06,00,AAXX 21064 41938 11445 82501 10290 20280 30045 40049 60031 70596 8432/ 333 56699 58007 70108 83618 81929 88459=
41938,2024,08,21,12,00,AAXX 21124 41938 32450 70000 10300 20280 30025 40029 84510 333 10305 56990 58004 70108 84618 84459=
41938,2024,08,21,18,00,AAXX 21184 41938 32450 40000 10282 20270 30035 40039 84500 333 56900 59011 70108 84618=
41938,2024,08,22,00,00,AAXX 22004 41938 32450 40000 10277 20270 30017 40021 84500 333 56900 59018 70028 84618=
41938,2024,08,22,06,00,AAXX 22064 41938 11450 80000 10268 20260 30037 40041 60029 76166 8452/ 333 56999 59008 70022 84618 88459=
41938,2024,08,22,12,00,AAXX 22124 41938 11440 81803 10271 20260 30017 40021 60016 71762 8592/ 333 10287 56499 59008 70032 84616 81930 88459=
41938,2024,08,22,18,00,AAXX 22184 41938 11456 80000 10268 20268 30042 40046 60045 70296 8452/ 333 56999 58007 70069 84616 88459=
41939,2024,08,16,00,00,AAXX 16004 41939 02456 60000 10268 20260 30020 40028 83510 333 59025 70000 83618 85459==
41939,2024,08,16,03,00,AAXX 16034 41939 02458 60000 10293 20260 30042 40050 83510 333 20263 59001 70000 83618 85459==
41939,2024,08,16,06,00,AAXX 16064 41939 02458 70000 10304 20250 30025 40033 83510 333 59002 70000 83617 87459==
41939,2024,08,16,09,00,AAXX 16094 41939 02459 40000 10312 20250 30002 40010 82530 333 59004 70000 82618 83364==
41939,2024,08,16,12,00,AAXX 16124 41939 02457 60000 10297 20260 39996 40004 83510 333 10320 59008 70000 83618 85459==
41939,2024,08,16,15,00,AAXX 16154 41939 02440 40000 10288 20260 30016 40024 82530 333 59016 70000 82618==
41939,2024,08,16,18,00,AAXX 16184 41939 02440 20000 10277 20260 30029 40037 82500 333 59017 70000 82618==
41939,2024,08,16,21,00,AAXX 16214 41939 02450 30000 10270 20250 30030 40038 82530 333 59005 70000 82618==
41939,2024,08,17,00,00,AAXX 17004 41939 02456 30000 10265 20280 30023 40031 82560 333 58003 70000 82618==
41939,2024,08,17,03,00,AAXX 17034 41939 02459 30000 10302 20240 30029 40037 82530 333 20258 59013 70000 82618==
41939,2024,08,17,06,00,AAXX 17064 41939 02459 70503 10298 20250 30025 40033 83510 333 58000 70000 83618 85459==
41939,2024,08,17,09,00,AAXX 17094 41939 01458 80000 10268 20250 30003 40011 76122 8352/ 333 59003 70040 83616 88459==
41939,2024,08,17,12,00,AAXX 17124 41939 21350 80000 10260 20250 39996 40004 76162 8472/ 333 10305 58000 60079 70066 81710 83616 88458==
41939,2024,08,17,15,00,AAXX 17154 41939 01340 80000 10262 20250 30023 40031 76166 8472/ 333 58007 70109 81710 83616 88458==
41939,2024,08,17,18,00,AAXX 17184 41939 21330 80000 10258 20250 30038 40046 76166 8472/ 333 58009 60089 70145 81710 83616 88458==
41939,2024,08,17,21,00,AAXX 17214 41939 01456 80000 10260 20260 30025 40033 76162 8352/ 333 59005 70193 83616 88482==
41939,2024,08,18,00,00,AAXX 18004 41939 21456 80000 10262 20260 30027 40035 76162 8352/ 333 58004 60129 70269 83616 88458==
41939,2024,08,18,03,00,AAXX 18034 41939 01458 80000 10268 20260 30032 40040 76166 8452/ 333 20258 58003 70329 84615 88458==
41939,2024,08,18,06,00,AAXX 18064 41939 21456 80000 10297 20270 30027 40035 70262 8352/ 333 58002 60069 70333 83615 88458==
41939,2024,08,18,09,00,AAXX 18094 41939 01456 70000 10288 20270 30011 40019 70162 82510 333 58008 70301 82616 87460==
41939,2024,08,18,12,00,AAXX 18124 41939 11456 80000 10280 20260 30011 40018 69986 70362 8352/ 333 10305 58015 70275 83617 88459==
41939,2024,08,18,15,00,AAXX 18154 41939 02450 60000 10277 20260 30033 40041 83510 333 58010 70232 83617 86459==
41939,2024,08,18,18,00,AAXX 18184 41939 02450 80000 10272 20260 30046 40054 8352/ 333 58008 70196 83617 88459==
41939,2024,08,18,21,00,AAXX 18214 41939 01330 80000 10266 20260 30010 40018 76162 8472/ 333 59015 70351 81710 83616 88458==
41939,2024,08,19,00,00,AAXX 19004 41939 21450 80000 10270 20260 30005 40013 70262 8452/ 333 59022 60257 70325 84616 88459==
41939,2024,08,19,03,00,AAXX 19034 41939 01356 80000 10265 20260 30010 40018 76162 8472/ 333 20261 59022 70389 81710 83616 88458==
41939,2024,08,19,06,00,AAXX 19064 41939 21456 80000 10288 20250 30008 40016 72166 8352/ 333 59019 60219 70471 83616 88459==
41939,2024,08,19,09,00,AAXX 19094 41939 02456 80000 10282 20260 39993 40001 8352/ 333 59018 70463 83616 88459==
41939,2024,08,19,12,00,AAXX 19124 41939 02457 80000 10280 20260 39995 40103 8352/ 333 10290 59016 70463 83617 88459==
41939,2024,08,19,15,00,AAXX 19154 41939 02456 80000 10275 20260 30020 40028 8352/ 333 59013 70463 83617 88459==
41939,2024,08,19,18,00,AAXX 19184 41939 02456 80000 10270 20260 30032 40040 8352/ 333 59014 70463 83617 88459==
41939,2024,08,20,00,00,AAXX 20004 41939 01450 80000 10266 20260 30025 40033 70262 8352/ 333 58015 70483 83616 88459==
41939,2024,08,20,03,00,AAXX 20034 41939 02457 80000 10280 20270 30042 40050 8352/ 333 20260 58032 70230 83617 88459==
41939,2024,08,20,06,00,AAXX 20064 41939 02456 70000 10290 20270 30043 40051 82510 333 58035 70020 82617 87459==
41939,2024,08,20,09,00,AAXX 20094 41939 02457 60000 10307 20270 30023 40030 82510 333 58030 70020 82617 86460==
41939,2024,08,20,12,00,AAXX 20124 41939 02456 60000 10298 20270 30023 40031 83510 333 10310 58028 70020 83618 88459==
41939,2024,08,20,15,00,AAXX 20154 41939 02440 60000 10288 20270 30035 40043 83510 333 58015 70020 83618 88459==
41939,2024,08,20,18,00,AAXX 20184 41939 02440 80000 10280 20260 30046 40054 8352/ 333 58014 70020 83617 88459==
41939,2024,08,20,21,00,AAXX 20214 41939 02450 80000 10270 20260 30056 40064 8352/ 333 58031 70000 83617 88459==
41939,2024,08,21,00,00,AAXX 21004 41939 02456 80000 10280 20270 30037 40045 8352/ 333 58013 70000 83617 88459==
41939,2024,08,21,03,00,AAXX 21034 41939 01458 80000 10275 20270 30057 40065 72162 8372/ 333 20264 58015 70300 82709 88459==
41939,2024,08,21,06,00,AAXX 21064 41939 21440 80000 10285 20280 30049 40057 70462 8352/ 333 58006 60308 70300 83616 88459==
41939,2024,08,21,09,00,AAXX 21094 41939 01450 80000 10290 20280 30027 40035 70422 8252/ 333 58004 70300 82616 88459==
41939,2024,08,21,12,00,AAXX 21124 41939 02456 80000 10295 20290 30024 40032 8352/ 333 10300 58001 70300 83617 88459==
41939,2024,08,21,15,00,AAXX 21154 41939 02480 80000 10285 30040 40048 8352/ 333 58005 70300 83617 88459==
41939,2024,08,21,18,00,AAXX 21184 41939 02450 80000 10280 20270 30050 40058 8352/ 333 58004 70300 83617 88459==
41939,2024,08,21,21,00,AAXX 21214 41939 01440 80000 10275 20270 30039 40047 70262 8452/ 333 59017 70318 84617 88459==
41939,2024,08,22,00,00,AAXX 22004 41939 11456 80000 10277 20270 30031 40039 60026 70262 8452/ 333 59006 70318 84617 88459==
41939,2024,08,22,03,00,AAXX 22034 41939 02457 80000 10285 20280 30048 40056 8352/ 333 20272 59009 70018 83618 88459==
41939,2024,08,22,06,00,AAXX 22064 41939 01450 80000 10288 20280 30043 40051 76162 8352/ 333 59006 70020 83616 88459==
41939,2024,08,22,09,00,AAXX 22094 41939 02450 80000 10275 20260 30021 40029 8352/ 333 59006 70038 83617 88460==
41939,2024,08,22,12,00,AAXX 22124 41939 NIL=
41939,2024,08,22,15,00,AAXX 22154 41939 02456 80000 10270 20260 30045 40053 8352/ 333 58005 70038 83617 88459==
41939,2024,08,22,18,00,AAXX 22184 41939 02456 80000 10265 20260 30058 40066 8352/ 333 58008 70038 83617 88459==
41939,2024,08,22,21,00,AAXX 22214 41939 02456 80000 10268 20250 30044 40052 8352/ 333 58005 70020 83617 88459==
41941,2024,08,16,00,00,AAXX 16004 41941 02450 71802 10277 20270 30025 40030 85420 333 59011 70000 84616 87458==
41941,2024,08,16,03,00,AAXX 16034 41941 02456 71802 10310 20260 30029 40034 85420 333 20274 59016 70000 84616 87458==
41941,2024,08,16,06,00,AAXX 16064 41941 02456 71302 10295 20270 30023 40028 85820 333 59004 70000 83616 83828 87458==
41941,2024,08,16,09,00,AAXX 16094 41941 02456 81802 10294 20260 30002 40007 8662/ 333 59009 70000 83708 84613 88458==
41941,2024,08,16,12,00,AAXX 16124 41941 02456 70902 10283 20260 39999 40004 85420 333 10307 59008 70000 83614 83826 87458==
41941,2024,08,16,15,00,AAXX 16154 41941 02456 70000 10275 20260 30018 40023 84520 333 59006 70000 84616 87458==
41941,2024,08,16,18,00,AAXX 16184 41941 01340 81802 10270 20250 30021 40027 76162 8672/ 333 59011 70010 83708 84613 88458==
41941,2024,08,16,21,00,AAXX 16214 41941 01450 61802 10265 20260 30016 40022 70162 84520 333 59008 70020 84614 86458==
41941,2024,08,17,00,00,AAXX 17004 41941 11456 61803 10260 20250 30012 40018 60016 70262 83521 333 59013 70020 83614 87458==
41941,2024,08,17,03,00,AAXX 17034 41941 02456 73104 10280 20240 30021 40027 85320 333 20260 59008 70020 84614 87458 81930==
41941,2024,08,17,06,00,AAXX 17064 41941 21350 83104 10260 20250 30017 40022 76166 8672/ 333 59006 60077 70090 83708 83616 88456==
41941,2024,08,17,12,00,AAXX 17124 41941 21350 83103 10260 20250 30000 40006 76366 8672/ 333 10285 58001 60249 70335 83708 83614 88456==
41941,2024,08,17,15,00,AAXX 17154 41941 01350 83102 10262 20250 30019 40024 76166 8672/ 333 58001 70389 83708 83614 88456==
41941,2024,08,17,18,00,AAXX 17184 41941 21350 83102 10262 20250 30020 40025 76166 8672/ 333 59001 60109 70429 83708 83614 88456==
41941,2024,08,17,21,00,AAXX 17214 41941 01350 83102 10265 20260 30022 40027 70262 8672/ 333 58006 70439 83708 83614 88456==
41941,2024,08,18,00,00,AAXX 18004 41941 11350 83102 10265 20260 30022 40027 60026 70262 8662/ 333 58010 70439 83708 83615 88457==
41941,2024,08,18,03,00,AAXX 18034 41941 02456 60000 10280 20270 30039 40045 84520 333 20256 58018 70439 84616 86458==
41941,2024,08,18,06,00,AAXX 18064 41941 02456 71802 10300 20280 30028 40034 85420 333 58011 70369 84616 87458==
41941,2024,08,18,09,00,AAXX 18094 41941 01456 71803 10298 20290 39996 40001 70262 85420 333 59007 70289 84616 87458==
41941,2024,08,18,12,00,AAXX 18124 41941 11450 81803 10286 20270 30010 40015 60016 70362 8632/ 333 10302 58010 70134 85616 88458 81928==
41941,2024,08,18,15,00,AAXX 18154 41941 02440 71802 10284 20260 30026 40032 85420 333 58005 70080 84616 87458==
41941,2024,08,18,18,00,AAXX 18184 41941 01440 81802 10276 20270 30038 40044 72992 8792/ 333 58018 70030 85616 88458 82928==
41941,2024,08,19,00,00,AAXX 19004 41941 21450 81805 10260 20260 30022 40028 70296 8792/ 333 58000 60288 70290 85612 88456==
41941,2024,08,19,03,00,AAXX 19034 41941 01440 81802 10260 20260 30022 40028 79596 8792/ 333 59017 70550 85612 88456 82924==
41941,2024,08,19,06,00,AAXX 19064 41941 21310 82102 10260 20260 30005 40011 79596 8792/ 333 59023 60379 70660 83707 84612 88482 81924==
41941,2024,08,19,09,00,AAXX 19094 41941 01350 80000 10278 20270 39991 49997 70262 8662/ 333 59027 70680 83708 84614 88458==
41941,2024,08,19,12,00,AAXX 19124 41941 01350 80000 10272 20260 39995 40000 70262 8662/ 333 10281 59015 70690 83708 84614 88458==
41941,2024,08,19,15,00,AAXX 19154 41941 02450 80000 10270 20270 30019 40025 8662/ 333 58009 70690 83708 84612 88458==
41941,2024,08,19,18,00,AAXX 19184 41941 01350 80000 10265 20265 30022 40028 70262 8662/ 333 59016 70040 83708 84612 88482==
41941,2024,08,19,21,00,AAXX 19214 41941 02350 80000 10270 20270 30017 40023 8662/ 333 59008 70450 83708 84612 88458==
41941,2024,08,20,00,00,AAXX 20004 41941 02350 80000 10270 20270 30019 40025 8662/ 333 59003 70450 83708 84612 88458==
41941,2024,08,20,03,00,AAXX 20034 41941 01350 80000 10272 20260 30036 40042 72122 8662/ 333 20257 58014 70194 83708 84612 88458==
41941,2024,08,20,06,00,AAXX 20064 41941 12350 80000 10285 20270 30044 40050 60046 8662/ 333 58039 70084 83708 84612 88458==
41941,2024,08,20,09,00,AAXX 20094 41941 02350 81803 10290 20270 30029 40035 8662/ 333 58038 70054 83708 84612 88458==
41941,2024,08,20,12,00,AAXX 20124 41941 02450 81803 10290 20270 30028 40034 8632/ 333 10305 58033 70044 85616 88458 81930==
41941,2024,08,20,15,00,AAXX 20154 41941 02440 61803 10280 20270 30054 40060 85420 333 58035 70044 84616 86458==
41941,2024,08,20,18,00,AAXX 20184 41941 21440 81803 10275 20270 30065 40071 72162 8632/ 333 58043 60095 70094 85616 88458 81930==
41941,2024,08,20,21,00,AAXX 20214 41941 01330 81803 10274 20270 30058 40064 76566 8672/ 333 58041 70264 82708 84612 88456 81924==
41941,2024,08,21,00,00,AAXX 21004 41941 21450 81802 10280 20280 30039 40045 70266 8632/ 333 58020 60218 70299 85614 88456 81925==
41941,2024,08,21,03,00,AAXX 21034 41941 01440 80806 10276 20276 30059 40065 79596 8692/ 333 20265 58023 70585 85614 88456 81925==
41941,2024,08,21,06,00,AAXX 21064 41941 21340 81802 10266 20266 30052 40058 79596 8692/ 333 58008 60429 70715 82708 84614 88456 81925==
41941,2024,08,21,09,00,AAXX 21094 41941 01340 81802 10270 20260 30036 40042 70296 8662/ 333 58007 70800 82708 84615 88457==
41941,2024,08,21,12,00,AAXX 21124 41941 01340 80000 10275 20275 30032 40038 79596 8692/ 333 10276 58004 70820 82708 84614 88456 81925==
41941,2024,08,21,15,00,AAXX 21154 41941 01340 80000 10270 20260 30046 40052 79596 8692/ 333 59008 70950 82708 84613 88456 81925==
41941,2024,08,21,18,00,AAXX 21184 41941 21340 80000 10270 20260 30049 40055 79596 8692/ 333 59016 60709 71650 82708 84612 88456 81925==
41941,2024,08,21,21,00,AAXX 21214 41941 01440 81802 10272 20270 30036 40042 76196 8692/ 333 59022 71410 85614 88456 81925==
41941,2024,08,22,00,00,AAXX 22004 41941 21440 80000 10275 20275 30028 40034 76196 8692/ 333 59011 60049 71395 85614 88456 81925==
41941,2024,08,22,03,00,AAXX 22034 41941 01440 80000 10266 20266 30046 40052 79596 8692/ 333 20265 59013 71315 85614 88456 81925==
41941,2024,08,22,06,00,AAXX 22064 41941 21340 81803 10260 20260 30050 40056 79596 8692/ 333 59002 60229 71197 83707 84612 88456 81928==
41941,2024,08,22,09,00,AAXX 22094 41941 01350 81802 10264 20250 30025 40031 70296 8662/ 333 59011 71122 83708 85613 88458==
41941,2024,08,22,12,00,AAXX 22124 41941 11350 81802 10270 20260 30020 40026 60016 70296 8662/ 333 10274 59012 71102 83708 85612 88458==
41941,2024,08,22,15,00,AAXX 22154 41941 02350 81803 10267 20260 30047 40053 8662/ 333 58001 70972 83708 84614 88458==
41941,2024,08,22,18,00,AAXX 22184 41941 02350 80902 10268 20268 30052 40058 8662/ 333 58003 70272 83708 84614 88458==
41941,2024,08,22,21,00,AAXX 22214 41941 02350 81302 10260 20260 30046 40052 8662/ 333 58010 70252 83708 84614 88458==
41943,2024,08,16,00,00,AAXX 16004 41943 02440 40000 10260 20250 30018 40025 82530 333 59017 70000 82616 83362==
41943,2024,08,16,03,00,AAXX 16034 41943 02445 51802 10290 20240 30029 40036 83530 333 20260 59012 70000 83616 83362==
41943,2024,08,16,06,00,AAXX 16064 41943 01435 81701 10270 20250 30023 40030 76162 8662/ 333 59008 70010 83710 84615 88457==
41943,2024,08,16,09,00,AAXX 16094 41943 01435 81702 10270 20250 30007 40014 76162 8662/ 333 59001 70020 84710 83614 88456==
41943,2024,08,16,12,00,AAXX 16124 41943 21330 81702 10260 20250 30000 40007 76166 8772/ 333 10300 59006 60049 70046 84709 85615 88457==
41943,2024,08,16,15,00,AAXX 16154 41943 01330 81701 10255 20250 30022 40029 76166 8672/ 333 59016 70078 83709 84615 88456==
41943,2024,08,16,18,00,AAXX 16184 41943 21330 81702 10254 20250 30025 40032 76166 8672/ 333 59006 60079 70118 83709 84615 88456==
41943,2024,08,16,21,00,AAXX 16214 41943 01330 81602 10250 20240 30014 40021 76366 8672/ 333 59008 70482 84709 85614 88456==
41943,2024,08,17,00,00,AAXX 17004 41943 21330 81702 10245 20240 30001 40008 76366 8672/ 333 59017 60689 70798 84709 85614 88457==
41943,2024,08,17,03,00,AAXX 17034 41943 01330 81702 10245 20240 30007 40014 76366 8672/ 333 20245 59007 71038 84709 85414 88456==
41943,2024,08,17,06,00,AAXX 17064 41943 21330 80903 10255 20250 30010 40017 72166 8662/ 333 59013 60289 71072 83709 85614 88456==
41943,2024,08,17,09,00,AAXX 17094 41943 01330 81703 10260 20250 39995 49992 72166 8772/ 333 59012 71092 84709 84613 88456==
41943,2024,08,17,12,00,AAXX 17124 41943 01330 81702 10255 20250 30002 40009 72166 8672/ 333 10275 58002 71126 83709 84614 88456==
41943,2024,08,17,15,00,AAXX 17154 41943 01330 81802 10255 20250 30028 40035 76366 8772/ 333 58006 71166 84709 85614 88456==
41943,2024,08,17,18,00,AAXX 17184 41943 21330 80903 10255 20250 30036 40043 70262 8662/ 333 58011 60078 71126 83709 84615 88458==
41943,2024,08,17,21,00,AAXX 17214 41943 02435 81801 10253 20240 30029 40036 8662/ 333 58015 70762 83710 84615 88458==
41943,2024,08,18,00,00,AAXX 18004 41943 01330 81701 10250 20240 30023 40030 72162 8662/ 333 58022 70020 83709 84615 88458==
41943,2024,08,18,03,00,AAXX 18034 41943 01435 81203 10265 20250 30039 40046 70262 8662/ 333 20240 58032 70286 83710 84615 88457==
41943,2024,08,18,06,00,AAXX 18064 41943 11440 81802 10280 20250 30036 40043 60016 70262 86610 333 58026 70192 83710 84615 88457==
41943,2024,08,18,09,00,AAXX 18094 41943 02440 81602 10282 20240 30020 40027 8662/ 333 58025 70162 83710 84615 88457==
41943,2024,08,18,12,00,AAXX 18124 41943 01330 81802 10268 20260 30019 40026 70262 8672/ 333 10288 58017 70030 84709 85614 88456==
41943,2024,08,18,15,00,AAXX 18154 41943 02430 61502 10265 20250 30033 40040 8662/ 333 58005 70058 83710 84615 88457==
41943,2024,08,18,18,00,AAXX 18184 41943 21330 81702 10260 20250 30046 40053 72162 8672/ 333 58010 60027 70082 83710 84614 88456==
41943,2024,08,18,21,00,AAXX 18214 41943 01330 81202 10255 20250 30026 40033 76366 8672/ 333 59003 70469 83709 84614 88456==
41943,2024,08,19,00,00,AAXX 19004 41943 21330 80902 10248 20240 30020 40027 70266 8672/ 333 59003 60559 70610 83709 84614 88457==
41943,2024,08,19,03,00,AAXX 19034 41943 01330 81702 10250 20240 30030 40037 76366 8772/ 333 20248 59009 70736 84709 85614 88456==
41943,2024,08,19,06,00,AAXX 19064 41943 21325 81602 10252 20240 30023 40030 76366 8772/ 333 59013 60649 71238 84708 85614 88456==
41943,2024,08,19,09,00,AAXX 19094 41943 01330 81802 10265 20260 39998 40005 70262 8662/ 333 59022 71752 83709 84614 88457==
41943,2024,08,19,12,00,AAXX 19124 41943 11330 81902 10260 20250 30001 40008 60172 72162 8662/ 333 10270 59018 71742 83709 84614 88457==
41943,2024,08,19,15,00,AAXX 19154 41943 01330 81802 10268 20260 30023 40030 72162 8662/ 333 59010 71762 83709 84614 88456==
41943,2024,08,19,18,00,AAXX 19184 41943 01330 81803 10270 20250 30030 40037 76166 8672/ 333 59016 71865 84709 85614 88457==
41943,2024,08,19,21,00,AAXX 19214 41943 01330 81903 10260 20250 30027 40034 76366 8672/ 333 58001 71783 84708 85614 88456==
41943,2024,08,20,00,00,AAXX 20004 41943 21330 81802 10255 20255 30026 40033 76366 8772/ 333 58006 60549 71861 84708 85614 88456==
41943,2024,08,20,03,00,AAXX 20034 41943 01325 81903 10255 20255 30042 40049 76366 8772/ 333 20250 58012 72001 84708 85614 88456==
41943,2024,08,20,06,00,AAXX 20064 41943 21330 81802 10255 20250 30050 40057 76166 8672/ 333 58027 60559 71769 83709 84614 88457==
41943,2024,08,20,09,00,AAXX 20094 41943 01435 81702 10270 20260 30034 40041 70262 8662/ 333 58036 71271 83710 84615 88457==
41943,2024,08,20,12,00,AAXX 20124 41943 01435 71801 10270 20250 30036 40043 72162 85520 333 10275 58035 71265 85615 86457==
41943,2024,08,20,15,00,AAXX 20154 41943 01435 81701 10260 20250 30062 40069 70362 8662/ 333 58039 71261 83710 84615 88457==
41943,2024,08,20,18,00,AAXX 20184 41943 01325 81802 10255 20250 30067 40074 79596 8692/ 333 58037 71222 83708 84614 88457 81928==
41943,2024,08,20,21,00,AAXX 20214 41943 02430 81703 10260 20250 30056 40063 8662/ 333 58029 70917 83710 84615 88457==
41943,2024,08,21,00,00,AAXX 21004 41943 21330 81903 10270 20260 30048 40055 70262 8672/ 333 58022 60297 70968 83709 85614 88457==
41943,2024,08,21,03,00,AAXX 21034 41943 01330 81903 10276 20270 30060 40067 72162 8662/ 333 20252 58018 70752 83709 84615 88457==
41943,2024,08,21,06,00,AAXX 21064 41943 01325 81802 10257 20257 30065 40072 76366 8772/ 333 58015 71002 84708 85614 88457==
41943,2024,08,21,09,00,AAXX 21094 41943 01325 81802 10255 20255 30042 40049 79596 8792/ 333 58008 72586 85708 84612 88456 82925==
41943,2024,08,21,12,00,AAXX 21124 41943 21325 81802 10250 20250 30027 40034 79999 8792/ 333 10280 59009 62159 73124 84708 84612 88456 82922==
41943,2024,08,21,15,00,AAXX 21154 41943 NIL=
41943,2024,08,22,00,00,AAXX 22004 41943 NIL=
41943,2024,08,22,03,00,AAXX 22034 41943 NIL=
41943,2024,08,22,09,00,AAXX 22094 41943 NIL=
41943,2024,08,22,12,00,AAXX 22124 41943 NIL=
41943,2024,08,22,18,00,AAXX 22184 41943 NIL=
41944,2024,08,16,00,00,AAXX 16004 41944 NIL=
41944,2024,08,16,06,00,AAXX 16064 41944 NIL=
41944,2024,08,16,12,00,AAXX 16124 41944 NIL=
41944,2024,08,17,00,00,AAXX 17004 41944 NIL=
41944,2024,08,17,03,00,AAXX 17034 41944 NIL=
41944,2024,08,17,12,00,AAXX 17124 41944 NIL=
41944,2024,08,18,06,00,AAXX 18064 41944 NIL=
41944,2024,08,18,18,00,AAXX 18184 41944 NIL=
41944,2024,08,19,06,00,AAXX 19064 41944 NIL=
41944,2024,08,19,12,00,AAXX 19124 41944 NIL=
41944,2024,08,20,06,00,AAXX 20064 41944 NIL=
41944,2024,08,20,12,00,AAXX 20124 41944 NIL=
41944,2024,08,21,00,00,AAXX 21004 41944 NIL=
41944,2024,08,21,06,00,AAXX 21064 41944 NIL=
41944,2024,08,22,00,00,AAXX 22004 41944 NIL=
41944,2024,08,22,12,00,AAXX 22124 41944 NIL=
41944,2024,08,22,18,00,AAXX 22184 41944 NIL=
41946,2024,08,16,00,00,AAXX 16004 41946 02456 60402 10284 20270 30013 40018 86400 333 59017 70060 84618 83820==
41946,2024,08,16,03,00,AAXX 16034 41946 02556 50000 10308 20270 30024 40028 85400 333 20280 59013 70060 83620 83822==
41946,2024,08,16,06,00,AAXX 16064 41946 01456 73603 10300 20270 30024 40029 76122 85420 333 59008 70000 84618 86459==
41946,2024,08,16,09,00,AAXX 16094 41946 01456 70000 10286 20270 30005 40010 72162 85420 333 58000 70040 84618 86459==
41946,2024,08,16,12,00,AAXX 16124 41946 01456 70000 10293 20260 30003 40008 70262 85420 333 10330 59006 70040 84618 86459==
41946,2024,08,16,15,00,AAXX 16154 41946 02456 50000 10285 20280 30028 40033 82520 333 59004 70040 82618 85459==
41946,2024,08,16,18,00,AAXX 16184 41946 02456 50000 10280 20270 30031 40036 82520 333 59001 70040 82618 85459==
41946,2024,08,16,21,00,AAXX 16214 41946 02456 60000 10280 20270 30028 40033 82520 333 58008 70040 82618 86459==
41946,2024,08,17,00,00,AAXX 17004 41946 02456 60000 10278 20270 30024 40029 82520 333 58011 70040 82618 86459==
41946,2024,08,17,03,00,AAXX 17034 41946 02456 60000 10305 20290 30038 40043 82520 333 20275 58014 70040 82618 86459==
41946,2024,08,17,06,00,AAXX 17064 41946 02456 40000 10335 20270 30034 40038 84400 333 58010 70040 83618==
41946,2024,08,17,09,00,AAXX 17094 41946 02557 33404 10349 20240 39999 40003 83400 333 59006 70000 82620==
41946,2024,08,17,12,00,AAXX 17124 41946 02556 60505 10318 20250 30002 40006 82170 333 10352 59001 70000 82825 84459==
41946,2024,08,17,15,00,AAXX 17154 41946 02/56 63602 10293 20250 30036 40041 86070 333 58008 70000 83459 84360==
41946,2024,08,17,18,00,AAXX 17184 41946 02456 73502 10282 20250 30032 40037 83520 333 58001 70000 83618 86459==
41946,2024,08,17,21,00,AAXX 17214 41946 02456 73403 10274 20250 30023 40028 84420 333 59005 70000 83618 86459==
41946,2024,08,18,00,00,AAXX 18004 41946 11350 82803 10266 20260 30016 40021 69942 76062 8572/ 333 59008 70004 82710 84617 88458==
41946,2024,08,18,03,00,AAXX 18034 41946 01350 80000 10270 20260 30061 40026 76166 8752/ 333 20260 59017 70074 82710 84617 88458==
41946,2024,08,18,06,00,AAXX 18064 41946 01350 80906 10280 20270 30014 40019 76062 8572/ 333 59020 70104 82709 84617 88458==
41946,2024,08,18,09,00,AAXX 18094 41946 01350 80405 10272 20250 30005 40010 76166 8572/ 333 58006 70206 82709 83617 88458==
41946,2024,08,18,12,00,AAXX 18124 41946 21350 80105 10278 20270 30004 40009 76166 8672/ 333 10281 58002 60119 70212 83709 84617 88458==
41946,2024,08,18,15,00,AAXX 18154 41946 01456 80000 10276 20270 30022 40027 71362 8432/ 333 59014 70244 83618 88459 81928==
41946,2024,08,18,18,00,AAXX 18184 41946 01350 80000 10273 20270 30020 40025 76162 8572/ 333 59012 70298 82709 83617 88458==
41946,2024,08,18,21,00,AAXX 18214 41946 01350 81804 10272 20270 30005 40010 79596 8692/ 333 59018 70558 82709 83617 88458 81928==
41946,2024,08,19,00,00,AAXX 19004 41946 21456 82606 10270 20270 30009 40014 72196 8532/ 333 59007 60329 70614 84618 88459 81928==
41946,2024,08,19,03,00,AAXX 19034 41946 01350 80000 10270 20270 30025 40030 79596 8592/ 333 20265 59004 70614 82709 84617 88459 81928==
41946,2024,08,19,06,00,AAXX 19064 41946 21456 82603 10280 20270 30024 40029 72196 8532/ 333 58010 60429 70934 84617 88459 81928==
41946,2024,08,19,09,00,AAXX 19094 41946 01356 80000 10278 20270 30002 40007 76196 8572/ 333 59003 71012 82709 83618 88459==
41946,2024,08,19,12,00,AAXX 19124 41946 21456 80000 10286 20280 30005 40010 72196 8532/ 333 10287 58001 60199 71012 84618 88459 81928==
41946,2024,08,19,15,00,AAXX 19154 41946 02456 80000 10277 20270 30032 40037 8252/ 333 58010 70980 82618 88459==
41946,2024,08,19,18,00,AAXX 19184 41946 02456 80000 10275 20280 30034 40039 8252/ 333 58014 70926 82618 88459==
41946,2024,08,20,00,00,AAXX 20004 41946 02456 80000 10272 20270 30029 40034 8252/ 333 58020 70606 82618 88459==
41946,2024,08,20,03,00,AAXX 20034 41946 01456 80000 10280 20270 30044 40049 70262 8252/ 333 20265 58019 70536 82618 88460==
41946,2024,08,20,06,00,AAXX 20064 41946 11456 80000 10300 20270 30047 40052 60006 70262 8452/ 333 58023 70186 84618 88460==
41946,2024,08,20,09,00,AAXX 20094 41946 02456 81804 10302 20270 30027 40032 8452/ 333 58025 70006 84618 88459==
41946,2024,08,20,12,00,AAXX 20124 41946 42556 60000 10294 20270 30020 40024 83570 333 10306 58015 83620 84459==
41946,2024,08,20,15,00,AAXX 20154 41946 42/56 81902 10291 20280 30047 40052 8802/ 333 58015 88460==
41946,2024,08,20,18,00,AAXX 20184 41946 42456 62001 10286 20280 30056 40061 83520 333 58022 83618 85459==
41946,2024,08,20,21,00,AAXX 20214 41946 42456 70000 10284 20270 30045 40050 84520 333 58019 84618 87459==
41946,2024,08,21,00,00,AAXX 21004 41946 21/56 32601 10282 20270 30038 40043 70162 83030 333 58009 60025 70012 83362==
41946,2024,08,21,03,00,AAXX 21034 41946 02456 82106 10300 20280 30060 40065 8452/ 333 20265 58016 70012 84618 88460==
41946,2024,08,21,06,00,AAXX 21064 41946 02456 72607 10320 20270 30055 40060 84510 333 58008 70012 84618 86460==
41946,2024,08,21,09,00,AAXX 21094 41946 02456 82803 10322 20280 30027 40031 8352/ 333 58000 70012 83618 88459==
41946,2024,08,21,12,00,AAXX 21124 41946 01456 80000 10317 20280 30028 40032 71722 8492/ 333 10325 58008 70012 83618 88459 81928==
41946,2024,08,21,15,00,AAXX 21154 41946 01456 82205 10299 20270 30048 40053 71799 8592/ 333 58001 70012 84618 88459 81928==
41946,2024,08,21,18,00,AAXX 21184 41946 01456 82306 10287 20270 30054 40059 70292 8432/ 333 59002 70012 83618 88459 81928==
41946,2024,08,21,21,00,AAXX 21214 41946 02456 80000 10286 20280 30035 40040 8252/ 333 59010 70012 82618 88459==
41946,2024,08,22,00,00,AAXX 22004 41946 02456 80000 10283 20270 30036 40041 8352/ 333 59002 70000 83618 88459==
41946,2024,08,22,03,00,AAXX 22034 41946 02456 80000 10300 20270 30052 40057 8452/ 333 20275 59008 70000 84618 88460==
41946,2024,08,22,06,00,AAXX 22064 41946 02456 80000 10315 20280 30043 40048 8452/ 333 59012 70000 84618 88460==
41946,2024,08,22,09,00,AAXX 22094 41946 01350 80000 10280 20270 30021 40026 79596 8592/ 333 59010 70120 81710 84617 88459 81928==
41946,2024,08,22,12,00,AAXX 22124 41946 21350 80000 10280 20270 30018 40023 79596 8592/ 333 10320 59010 60149 70140 81710 84617 88459 81928==
41946,2024,08,22,15,00,AAXX 22154 41946 02456 80000 10285 20270 30044 40049 8452/ 333 59004 70140 84618 88460==
41946,2024,08,22,18,00,AAXX 22184 41946 01450 80000 10280 20270 30052 40057 72122 8452/ 333 59002 70040 84618 88459==
41946,2024,08,22,21,00,AAXX 22214 41946 01340 80000 10258 20260 30039 40044 79596 8592/ 333 58004 70580 81710 84617 88459 81928==
41947,2024,08,16,00,00,AAXX 16004 41947 02456 60000 10275 20270 30016 40018 83570 333 59016 70000 83618 85459==
41947,2024,08,16,03,00,AAXX 16034 41947 02456 71402 10315 20270 30031 40033 83570 333 20270 59006 70000 83618 85459==
41947,2024,08,16,06,00,AAXX 16064 41947 02456 70000 10328 20260 30023 40025 83570 333 59008 70000 83618 85458==
41947,2024,08,16,09,00,AAXX 16094 41947 02456 50000 10310 20260 30002 40004 83570 333 59006 70000 83618 84458==
41947,2024,08,16,12,00,AAXX 16124 41947 02456 50000 10306 20280 39996 49998 83570 333 10328 59013 70000 83618 84458==
41947,2024,08,16,15,00,AAXX 16154 41947 02450 30000 10290 20270 30027 40029 83500 333 59006 70000 83618==
41947,2024,08,16,18,00,AAXX 16184 41947 02450 30000 10285 20280 30030 40032 83500 333 59005 70000 83618==
41947,2024,08,16,21,00,AAXX 16214 41947 02450 20000 10280 20260 30027 40029 82500 333 58004 70000 82618==
41947,2024,08,17,00,00,AAXX 17004 41947 02456 20000 10272 20260 30026 40028 82500 333 58010 70000 82618==
41947,2024,08,17,03,00,AAXX 17034 41947 02456 60000 10310 20250 30034 40037 86400 333 20268 58004 70000 83618 83820==
41947,2024,08,17,06,00,AAXX 17064 41947 02456 60000 10330 20250 30029 40032 86400 333 58007 70000 83618 83820==
41947,2024,08,17,09,00,AAXX 17094 41947 02456 60503 10330 20260 39999 40001 83470 333 59003 70000 82618 84459==
41947,2024,08,17,12,00,AAXX 17124 41947 01456 60503 10285 20260 30003 40005 70262 82410 333 10350 58007 70060 81618 85459==
41947,2024,08,17,15,00,AAXX 17154 41947 02456 60000 10277 20260 30034 40036 83570 333 58007 70060 83618 84459==
41947,2024,08,17,18,00,AAXX 17184 41947 01350 83602 10272 20260 30029 40031 75122 8572/ 333 58002 70000 82710 84616 88458==
41947,2024,08,17,21,00,AAXX 17214 41947 01340 82702 10268 20260 30018 40020 76166 8572/ 333 59009 70080 82709 84615 88458==
41947,2024,08,18,00,00,AAXX 18004 41947 21340 82702 10265 20265 30012 40014 76166 8572/ 333 59014 60049 70100 82709 84615 88458==
41947,2024,08,18,03,00,AAXX 18034 41947 02350 80000 10270 20260 30027 40030 8472/ 333 20260 59007 70134 81708 83617 88458==
41947,2024,08,18,06,00,AAXX 18064 41947 21450 80000 10290 20260 30025 40028 70262 8352/ 333 59004 60089 70180 83618 88458==
41947,2024,08,18,09,00,AAXX 18094 41947 01456 80000 10288 20260 30008 40010 70262 8462/ 333 59009 70190 82710 83617 88458==
41947,2024,08,18,12,00,AAXX 18124 41947 01340 80000 10275 20270 30004 40006 76166 8572/ 333 10305 58001 70230 83707 84614 88458==
41947,2024,08,18,15,00,AAXX 18154 41947 01330 80000 10275 20270 30026 40028 76166 8572/ 333 58008 70200 83707 84612 88458==
41947,2024,08,18,18,00,AAXX 18184 41947 01340 80000 10273 20270 30023 40025 76166 8572/ 333 58006 70025 83709 84615 88458==
41947,2024,08,18,21,00,AAXX 18214 41947 01330 80000 10272 20270 39998 40000 76166 8572/ 333 59020 70275 83708 83614 88458==
41947,2024,08,19,00,00,AAXX 19004 41947 21350 80000 10270 20260 30000 40002 76166 8572/ 333 59012 60079 70295 83707 84614 88458==
41947,2024,08,19,03,00,AAXX 19034 41947 01350 80000 10278 20278 30017 40019 76166 8672/ 333 20265 59011 70295 82708 84614 88458==
41947,2024,08,19,06,00,AAXX 19064 41947 21350 80000 10275 20270 30019 40021 76166 8672/ 333 59007 60059 70261 82708 84614 88458==
41947,2024,08,19,09,00,AAXX 19094 41947 01450 80000 10282 20270 30000 40002 70262 8452/ 333 59008 70253 84617 88458==
41947,2024,08,19,12,00,AAXX 19124 41947 11456 70000 10290 20270 30002 40004 69926 70162 84470 333 10290 59002 70153 83618 86459==
41947,2024,08,19,15,00,AAXX 19154 41947 02450 80000 10280 20270 30031 40033 8352/ 333 58005 70143 83618 88459==
41947,2024,08,19,18,00,AAXX 19184 41947 02450 50000 10277 20270 30031 40033 82510 333 58008 70118 82618 85459==
41947,2024,08,19,21,00,AAXX 19214 41947 02450 80000 10275 20270 30028 40031 8352/ 333 58031 70088 83618 88458==
41947,2024,08,20,00,00,AAXX 20004 41947 21350 80000 10270 20270 30026 40028 76162 8472/ 333 58026 60077 70120 81710 83616 88458==
41947,2024,08,20,03,00,AAXX 20034 41947 01350 80000 10275 20270 30044 40046 76122 8672/ 333 20266 58027 70088 82708 84614 88458==
41947,2024,08,20,06,00,AAXX 20064 41947 21356 80000 10280 20260 30050 40052 70262 8662/ 333 58031 60015 70080 82710 84616 88458==
41947,2024,08,20,09,00,AAXX 20094 41947 02456 80000 10295 20280 30027 40029 8562/ 333 58027 70078 82710 83616 88458==
41947,2024,08,20,12,00,AAXX 20124 41947 02456 50000 10295 20280 30025 40027 83570 333 10310 58023 70078 83618 84458==
41947,2024,08,20,15,00,AAXX 20154 41947 02450 21801 10290 20270 30053 40055 82500 333 58022 70078 82618==
41947,2024,08,20,18,00,AAXX 20184 41947 02450 22102 10285 20280 30057 40059 82500 333 58026 70078 82618==
41947,2024,08,20,21,00,AAXX 20214 41947 02450 80000 10285 20280 30048 40050 8352/ 333 58020 70078 83618 88458==
41947,2024,08,21,00,00,AAXX 21004 41947 01350 80000 10282 20260 30041 40043 76122 8572/ 333 58015 70020 83618 88458==
41947,2024,08,21,03,00,AAXX 21034 41947 01450 80000 10298 20280 30059 40062 70262 8452/ 333 20268 58016 70016 84617 88458==
41947,2024,08,21,06,00,AAXX 21064 41947 11450 80000 10310 20280 30054 40057 69926 70262 8352/ 333 58005 70016 83617 88458==
41947,2024,08,21,09,00,AAXX 21094 41947 02450 80000 10315 20280 30032 40034 8352/ 333 58005 70012 83618 88458==
41947,2024,08,21,12,00,AAXX 21124 41947 21450 80000 10310 20270 30023 40025 70262 8352/ 333 10316 59002 60015 70018 83618 88458==
41947,2024,08,21,15,00,AAXX 21154 41947 02450 80000 10295 20280 30043 40045 8352/ 333 59010 70018 83618 88458==
41947,2024,08,21,18,00,AAXX 21184 41947 02450 80000 10280 20260 30054 40056 8352/ 333 59003 70018 83618 88458==
41947,2024,08,21,21,00,AAXX 21214 41947 02450 80000 10280 20270 30044 40046 8252/ 333 59004 70018 82618 88458==
41947,2024,08,22,00,00,AAXX 22004 41947 02456 80000 10280 20270 30034 40036 8352/ 333 59007 70008 83618 88458==
41947,2024,08,22,03,00,AAXX 22034 41947 01350 80000 10298 20290 30049 40052 76162 8472/ 333 20275 59010 70016 81708 83616 88458==
41947,2024,08,22,06,00,AAXX 22064 41947 21450 80000 10290 20270 30042 40045 70262 8352/ 333 59012 60015 70016 83618 88458==
41947,2024,08,22,09,00,AAXX 22094 41947 02450 80000 10298 20290 30019 40021 8462/ 333 59013 70016 81710 83617 88458==
41947,2024,08,22,12,00,AAXX 22124 41947 21450 80000 10272 20270 30018 40020 79562 8632/ 333 10305 59005 60157 70160 82708 84615 88458 81928==
41947,2024,08,22,15,00,AAXX 22154 41947 01450 80000 10274 20270 30047 40049 76166 8452/ 333 58004 70320 84616 88458==
41947,2024,08,22,18,00,AAXX 22184 41947 21450 80000 10272 20270 30057 40059 76166 8452/ 333 58003 60229 70380 84616 88458==
41947,2024,08,22,21,00,AAXX 22214 41947 01450 80000 10262 20260 30042 40044 76166 8452/ 333 58008 70530 84616 88458==
41950,2024,08,16,00,00,AAXX 16004 41950 01330 80000 10265 20265 30016 40018 76122 8572/ 333 59019 70070 82708 84616 88458==
41950,2024,08,16,03,00,AAXX 16034 41950 01350 80000 10282 20260 30026 40028 70262 8562/ 333 20263 59011 70072 82708 84616 88458==
41950,2024,08,16,06,00,AAXX 16064 41950 01340 80000 10280 20260 30026 40028 76162 8562/ 333 59002 70082 82708 84616 88458==
41950,2024,08,16,09,00,AAXX 16094 41950 01340 80000 10274 20260 39998 40000 76166 8572/ 333 59012 70206 82708 84616 88458==
41950,2024,08,16,12,00,AAXX 16124 41950 21340 80000 10274 20260 39996 49998 76166 8572/ 333 10306 59011 60139 70216 82707 84616 88458==
41950,2024,08,16,15,00,AAXX 16154 41950 01350 80000 10264 20250 30016 40018 70262 8562/ 333 59016 70232 82708 84616 88458==
41950,2024,08,16,18,00,AAXX 16184 41950 01340 80000 10264 20260 30022 40025 76162 8572/ 333 59006 70246 82708 84616 88458==
41950,2024,08,16,21,00,AAXX 16214 41950 01340 80000 10254 20250 30012 40015 76166 8562/ 333 59010 70326 82708 84616 88458==
41950,2024,08,17,00,00,AAXX 17004 41950 01350 80000 10256 20256 30012 40015 70262 8562/ 333 59004 70288 82708 84616 88458==
41950,2024,08,17,03,00,AAXX 17034 41950 02350 83202 10277 20250 30022 40025 8662/ 333 20253 59004 70284 82708 85616 88458==
41950,2024,08,17,06,00,AAXX 17064 41950 01350 83202 10280 20270 30017 40020 72152 8632/ 333 59009 70030 82708 84616 88458 81928==
41950,2024,08,17,09,00,AAXX 17094 41950 01340 83402 10265 20265 39990 49993 76166 8572/ 333 59008 70208 82708 84616 88458==
41950,2024,08,17,12,00,AAXX 17124 41950 01340 80000 10263 20260 39991 49994 76165 8572/ 333 10284 59005 70208 82708 84616 88458==
41950,2024,08,17,15,00,AAXX 17154 41950 01340 82402 10264 20260 30019 40022 75166 8572/ 333 58003 70216 82708 84616 88458==
41950,2024,08,17,18,00,AAXX 17184 41950 21350 82102 10264 20260 30021 40024 70265 8562/ 333 59001 60028 70202 82708 84616 88458==
41950,2024,08,17,21,00,AAXX 17214 41950 02350 80000 10265 20265 30013 40016 8562/ 333 58001 70122 82708 84616 88458==
41950,2024,08,18,00,00,AAXX 18004 41950 21340 80000 10263 20260 30015 40018 76162 8572/ 333 58003 60107 74616 82707 88458==
41950,2024,08,18,03,00,AAXX 18034 41950 01340 80000 10269 20269 30029 40032 76166 8572/ 333 20256 58007 70242 82708 84616 88458==
41950,2024,08,18,06,00,AAXX 18064 41950 21350 80000 10314 20260 30026 40028 70262 8662/ 333 58009 60068 70222 82708 84616 88458==
41950,2024,08,18,09,00,AAXX 18094 41950 02350 70000 10293 20270 30013 40015 84370 333 58023 70192 81708 84616 86459 81928==
41950,2024,08,18,12,00,AAXX 18124 41950 01350 70000 10287 20260 30008 40010 72162 84670 333 10315 58011 70002 81708 84616 86459==
41950,2024,08,18,15,00,AAXX 18154 41950 02350 80000 10280 20260 30034 40036 8562/ 333 58015 70160 82708 84616 88458==
41950,2024,08,18,18,00,AAXX 18184 41950 02350 80000 10278 20270 30032 40034 8532/ 333 58011 70160 82708 84616 88458 81928==
41950,2024,08,18,21,00,AAXX 18214 41950 02350 80000 10270 20260 30001 40004 8562/ 333 59012 70160 82708 84616 88458==
41950,2024,08,19,00,00,AAXX 19004 41950 01335 81402 10262 20262 39999 40002 76362 8672/ 333 59016 70140 83707 84616 88458==
41950,2024,08,19,03,00,AAXX 19034 41950 01330 81903 10262 20262 30004 40007 79566 8692/ 333 20259 59025 70720 82708 84616 81928==
41950,2024,08,19,06,00,AAXX 19064 41950 21330 82102 10269 20269 30012 40015 76196 8572/ 333 59014 60739 70872 82708 84616 88458==
41950,2024,08,19,09,00,AAXX 19094 41950 01340 80000 10282 20260 39997 40000 76166 8572/ 333 59016 70882 82708 84616 88458==
41950,2024,08,19,12,00,AAXX 19124 41950 21350 80000 10280 20260 39997 40000 70262 8562/ 333 10285 59011 60019 70886 82708 84616 88458==
41950,2024,08,19,15,00,AAXX 19154 41950 02350 80000 10274 20260 30026 40029 8562/ 333 59008 70884 82708 84616 88458==
41950,2024,08,19,18,00,AAXX 19184 41950 02350 80000 10270 20270 30027 40030 8562/ 333 59005 70884 82708 84616 88458==
41950,2024,08,19,21,00,AAXX 19214 41950 02350 80000 10268 20268 30023 40026 8662/ 333 58022 70884 82708 84616 88458==
41950,2024,08,20,00,00,AAXX 20004 41950 01330 81802 10266 20266 30025 40028 79596 8692/ 333 58026 70120 82708 84616 88458 81928==
41950,2024,08,20,03,00,AAXX 20034 41950 01330 80000 10266 20266 30047 40050 76196 8562/ 333 20258 58043 70342 82708 84616 88458==
41950,2024,08,20,06,00,AAXX 20064 41950 21330 80000 10275 20270 30047 40050 76196 8572/ 333 58035 60069 70202 82708 84616 88458==
41950,2024,08,20,09,00,AAXX 20094 41950 01350 71802 10300 20270 30026 40028 70162 85670 333 58029 70193 81708 84616 86459==
41950,2024,08,20,12,00,AAXX 20124 41950 11350 81802 10286 20270 30028 40030 69916 70362 8562/ 333 10301 58031 70189 82708 84616 88458==
41950,2024,08,20,15,00,AAXX 20154 41950 02350 70000 10282 20260 30056 40058 84610 333 58030 70189 81708 83617 87459==
41950,2024,08,20,18,00,AAXX 20184 41950 01330 81803 10264 20260 30067 40070 79592 8592/ 333 58040 70140 82708 84616 88458 81928==
41950,2024,08,20,21,00,AAXX 20214 41950 01350 80000 10278 20278 30041 40044 70262 8562/ 333 58018 70365 82708 84616 88458==
41950,2024,08,21,00,00,AAXX 21004 41950 11350 80000 10280 20280 30043 40046 60046 70262 8562/ 333 58018 70241 82708 84616 88458==
41950,2024,08,21,03,00,AAXX 21034 41950 01350 82102 10285 20280 30052 40054 72922 8532/ 333 20255 58005 70211 82708 84616 88458 81928==
41950,2024,08,21,06,00,AAXX 21064 41950 01350 80000 10275 20275 30055 40058 70296 8532/ 333 58008 70251 82708 84616 88458 81928==
41950,2024,08,21,09,00,AAXX 21094 41950 01350 81802 10294 20270 30029 40031 70262 8562/ 333 58003 70292 82708 84616 88458==
41950,2024,08,21,12,00,AAXX 21124 41950 11350 80000 10288 20280 30020 40022 60046 70262 8562/ 333 10295 59008 70292 82708 84616 88458==
41950,2024,08,21,15,00,AAXX 21154 41950 01350 82102 10282 20280 30041 40043 71396 8632/ 333 59015 70392 82708 84616 88458 81928==
41950,2024,08,21,18,00,AAXX 21184 41950 11350 82102 10284 20270 30049 40051 60106 70296 8632/ 333 59018 70256 82708 84616 88458 81928==
41950,2024,08,21,21,00,AAXX 21214 41950 02350 80000 10283 20270 30036 40038 8562/ 333 59005 70216 82708 84616 88458==
41950,2024,08,22,00,00,AAXX 22004 41950 02350 80000 10282 20270 30031 40033 8562/ 333 59012 70216 82708 84616 88458==
41950,2024,08,22,03,00,AAXX 22034 41950 02350 80000 10287 20280 30050 40052 8532/ 333 20265 59002 70202 82708 84616 88458==
41950,2024,08,22,06,00,AAXX 22064 41950 21335 81402 10274 20270 30050 40053 79596 8692/ 333 59005 60087 70226 83707 84616 88458 81928==
41950,2024,08,22,09,00,AAXX 22094 41950 01340 81202 10260 20260 30023 40026 79596 8592/ 333 59006 70704 82708 84616 88458 81928==
41950,2024,08,22,12,00,AAXX 22124 41950 01350 80000 10268 20268 30022 40025 72196 8562/ 333 10290 58002 70720 82708 84616 88458==
41950,2024,08,22,15,00,AAXX 22154 41950 02350 80000 10268 20268 30049 40052 8562/ 333 58008 70620 82708 84616 88458==
41950,2024,08,22,18,00,AAXX 22184 41950 02350 80000 10265 20265 30054 40057 8562/ 333 58005 70620 82708 84616 88458==
41950,2024,08,22,21,00,AAXX 22214 41950 02350 80000 10264 20260 30042 40045 8562/ 333 58005 70620 82708 84616 88458==
41951,2024,08,16,00,00,AAXX 16004 41951 01340 80000 10262 20260 30009 40013 72162 8662/ 333 59017 70180 82706 84616 88458==
41951,2024,08,16,03,00,AAXX 16034 41951 02340 81302 10278 20270 30019 40024 8662/ 333 20255 59021 70180 82706 84616 88458==
41951,2024,08,16,06,00,AAXX 16064 41951 21330 81302 10273 20270 30012 40017 76162 8672/ 333 59013 60067 70242 82706 84616 88458==
41951,2024,08,16,09,00,AAXX 16094 41951 01330 81502 10270 20270 39992 49997 76166 8672/ 333 59011 70317 82706 84616 88458==
41951,2024,08,16,12,00,AAXX 16124 41951 21330 81302 10270 20270 39984 49989 76166 8672/ 333 10280 59014 60129 70357 82706 84616 88458==
41951,2024,08,16,15,00,AAXX 16154 41951 01330 81303 10266 20266 30012 40017 76166 8672/ 333 59021 70511 82706 84616 88458==
41951,2024,08,16,18,00,AAXX 16184 41951 21330 80506 10264 20260 39992 49997 76366 8672/ 333 59031 60219 70563 82706 84616 88458==
41951,2024,08,16,21,00,AAXX 16214 41951 01330 80504 10262 20260 39994 49999 72166 8662/ 333 59020 70655 82706 84616 88458==
41951,2024,08,17,00,00,AAXX 17004 41951 21340 83104 10263 20250 39998 40003 72166 8662/ 333 59011 60098 70475 82706 84616 88458==
41951,2024,08,17,03,00,AAXX 17034 41951 01340 83105 10280 20250 30008 40013 70262 8662/ 333 20254 59011 70483 82706 84616 88458==
41951,2024,08,17,06,00,AAXX 17064 41951 01330 82903 10268 20268 30006 40011 76062 8672/ 333 59006 70431 82706 84616 88458==
41951,2024,08,17,09,00,AAXX 17094 41951 01340 80000 10270 20260 39986 49991 70266 8662/ 333 59006 70364 82708 84618 88458==
41951,2024,08,17,12,00,AAXX 17124 41951 11340 82502 10265 20265 39982 49987 69986 70262 8662/ 333 10282 59002 70324 82708 84618 88458==
41951,2024,08,17,15,00,AAXX 17154 41951 01340 81402 10266 20266 30019 40024 72162 8662/ 333 58007 70208 82708 84618 88458==
41951,2024,08,17,18,00,AAXX 17184 41951 21340 70000 10266 20266 30023 40028 70162 84610 333 58030 60048 70156 81708 83618 86459==
41951,2024,08,17,21,00,AAXX 17214 41951 02340 80000 10265 20265 30015 40020 8562/ 333 58021 70064 81708 84618 88458==
41951,2024,08,18,00,00,AAXX 18004 41951 02340 80000 10264 20260 30009 40014 8562/ 333 58011 70064 81708 84618 88458==
41951,2024,08,18,03,00,AAXX 18034 41951 02340 81302 10293 20260 30024 40029 8562/ 333 20258 58016 70056 81708 84618 88458==
41951,2024,08,18,06,00,AAXX 18064 41951 02456 61302 10308 20260 30022 40027 83510 333 58016 70046 83618 85459==
41951,2024,08,18,09,00,AAXX 18094 41951 02340 80000 10296 20270 30012 40017 8562/ 333 58026 70038 81708 84618 88458==
41951,2024,08,18,12,00,AAXX 18124 41951 21450 71302 10288 20260 30003 40008 70162 83510 333 10315 58021 69985 70046 83618 86459==
41951,2024,08,18,15,00,AAXX 18154 41951 01330 81003 10272 20270 30034 40039 76322 8672/ 333 58015 70060 82706 84616 88458==
41951,2024,08,18,18,00,AAXX 18184 41951 01340 80000 10270 20270 30029 40034 71396 8632/ 333 58006 70359 81708 84618 88458 81929==
41951,2024,08,18,21,00,AAXX 18214 41951 02340 80000 10272 20270 30016 40021 8662/ 333 58001 70359 82706 84616 88458==
41951,2024,08,19,00,00,AAXX 19004 41951 21330 81302 10266 20266 39999 40004 76362 8672/ 333 59010 60067 70419 82706 84616 88458==
41951,2024,08,19,03,00,AAXX 19034 41951 01330 81302 10264 20260 30009 40014 76596 8672/ 333 20255 59015 70609 82706 84616 88458==
41951,2024,08,19,06,00,AAXX 19064 41951 01330 82902 10276 20276 30012 40017 76296 8672/ 333 59010 70719 82706 84616 88458==
41951,2024,08,19,09,00,AAXX 19094 41951 01340 82202 10275 20275 39996 40001 70266 8562/ 333 59016 70866 82706 84616 88458==
41951,2024,08,19,12,00,AAXX 19124 41951 01330 81802 10268 20260 39989 49994 72196 8662/ 333 10278 59014 71050 82706 84616 88458==
41951,2024,08,19,15,00,AAXX 19154 41951 01330 80000 10268 20268 30032 40037 76396 8672/ 333 59002 71124 82706 84616 88458==
41951,2024,08,19,18,00,AAXX 19184 41951 01340 81403 10273 20260 30022 40027 72196 8662/ 333 59007 70927 82706 84616 88458==
41951,2024,08,19,21,00,AAXX 19214 41951 02340 81402 10272 20270 30019 40024 8662/ 333 58003 70927 82706 84616 88458==
41951,2024,08,20,00,00,AAXX 20004 41951 21330 82202 10262 20260 30016 40021 76396 8672/ 333 58017 60397 71253 82706 84616 88458==
41951,2024,08,20,03,00,AAXX 20034 41951 01330 80000 10263 20260 30038 40043 76596 8672/ 333 20258 58029 71329 82706 84616 88458==
41951,2024,08,20,06,00,AAXX 20064 41951 21340 80000 10273 20270 30036 40041 72196 8562/ 333 58027 60319 71265 81708 84618 88458==
41951,2024,08,20,09,00,AAXX 20094 41951 02450 72202 10293 20270 30022 40027 83510 333 58026 71118 83618 86459==
41951,2024,08,20,12,00,AAXX 20124 41951 02340 80000 10290 20270 30024 40029 8562/ 333 10298 58035 70926 81708 84618 88458==
41951,2024,08,20,15,00,AAXX 20154 41951 02340 80000 10278 20270 30056 40061 8562/ 333 58024 70800 81708 84618 88458==
41951,2024,08,20,18,00,AAXX 20184 41951 11330 81302 10278 20270 30062 40067 60012 79562 8692/ 333 58040 70710 82706 84616 88458 82925==
41951,2024,08,20,21,00,AAXX 20214 41951 01340 81302 10276 20270 30049 40054 72196 8662/ 333 58030 70742 82706 84618 88458==
41951,2024,08,21,00,00,AAXX 21004 41951 21340 81403 10280 20280 30035 40040 70296 8662/ 333 58019 60038 70356 82706 84616 88458==
41951,2024,08,21,03,00,AAXX 21034 41951 01340 81804 10286 20280 30051 40056 72122 8662/ 333 20258 58013 70095 82706 84616 88458==
41951,2024,08,21,06,00,AAXX 21064 41951 01330 80000 10277 20277 30054 40059 76062 8672/ 333 58018 70079 82706 84616 88458==
41951,2024,08,21,09,00,AAXX 21094 41951 01340 80000 10296 20280 30030 40035 72196 8662/ 333 58008 70107 82706 84616 88458==
41951,2024,08,21,12,00,AAXX 21124 41951 01340 82202 10289 20280 30016 40021 70296 8662/ 333 10298 59008 70112 82706 84616 88458==
41951,2024,08,21,15,00,AAXX 21154 41951 01330 80000 10286 20280 30042 40047 76196 8672/ 333 59014 70136 82706 84616 88458==
41951,2024,08,21,18,00,AAXX 21184 41951 21340 81302 10288 20280 30044 40049 71396 8632/ 333 59018 60025 70124 81708 84618 88458 81929==
41951,2024,08,21,21,00,AAXX 21214 41951 02340 81302 10285 20280 30035 40040 8562/ 333 59014 70092 81708 84618 88458==
41951,2024,08,22,00,00,AAXX 22004 41951 02340 82202 10284 20270 30021 40026 8562/ 333 59014 70092 81708 84618 88458==
41951,2024,08,22,03,00,AAXX 22034 41951 02340 81302 10287 20280 30045 40050 8562/ 333 20269 59006 70087 81708 84618 88458==
41951,2024,08,22,06,00,AAXX 22064 41951 01330 80502 10262 20250 30049 40054 79596 8692/ 333 59005 70100 82706 84616 88458 82925==
41951,2024,08,22,09,00,AAXX 22094 41951 01340 80000 10272 20260 30026 40031 72196 8662/ 333 59001 70337 82706 84616 88458==
41951,2024,08,22,12,00,AAXX 22124 41951 01340 82202 10272 20270 30016 40021 70296 8662/ 333 10292 58000 70367 82706 84616 88458==
41951,2024,08,22,15,00,AAXX 22154 41951 02340 80000 10268 20268 30052 40057 8562/ 333 58010 70343 81708 84618 88458==
41951,2024,08,22,18,00,AAXX 22184 41951 01340 80000 10272 20270 30054 40059 76322 8672/ 333 58010 70070 82706 84616 88458==
41951,2024,08,22,21,00,AAXX 22214 41951 01330 80000 10270 20270 30043 40048 76362 8672/ 333 58008 70459 82706 84616 88458==
41953,2024,08,16,00,00,AAXX 16004 41953 02440 81301 10272 20250 30018 40023 8352/ 333 59018 70000 83616 88458==
41953,2024,08,16,03,00,AAXX 16034 41953 02440 81205 10280 20250 30030 40035 8452/ 333 20270 59022 70000 84616 88458==
41953,2024,08,16,06,00,AAXX 16064 41953 01440 81304 10262 20260 30024 40029 76162 8452/ 333 59010 70060 84614 88458==
41953,2024,08,16,09,00,AAXX 16094 41953 01440 81304 10270 20270 30004 40009 76166 8452/ 333 59008 70120 84614 88458==
41953,2024,08,16,12,00,AAXX 16124 41953 21440 81306 10262 20262 39995 40000 76166 8452/ 333 10280 59016 60249 70300 84614 88457==
41953,2024,08,16,15,00,AAXX 16154 41953 01430 80508 10256 20256 30021 40026 76166 8452/ 333 59019 70580 84614 88458==
41953,2024,08,16,18,00,AAXX 16184 41953 21430 80506 10255 20255 30026 40031 76166 8452/ 333 59018 60359 70650 84614 88456==
41953,2024,08,16,21,00,AAXX 16214 41953 01430 80507 10252 20252 30003 40008 76366 8452/ 333 59036 70870 84614 88458==
41953,2024,08,17,00,00,AAXX 17004 41953 21440 80508 10250 20250 39997 40002 76366 8452/ 333 59021 60419 71060 84614 88458==
41953,2024,08,17,03,00,AAXX 17034 41953 01440 80510 10265 20260 30004 40009 70266 8452/ 333 20248 59026 71170 84615 88458==
41953,2024,08,17,06,00,AAXX 17064 41953 02445 80904 10266 20260 30003 40008 8452/ 333 59021 71130 84616 88458==
41953,2024,08,17,09,00,AAXX 17094 41953 02445 81006 10276 20260 39990 49995 8452/ 333 59014 71070 84616 88458==
41953,2024,08,17,12,00,AAXX 17124 41953 21430 80902 10262 20260 39997 40002 76162 8452/ 333 10278 58002 60097 70980 84614 88456==
41953,2024,08,17,15,00,AAXX 17154 41953 01425 81304 10264 20260 30027 40032 76166 8452/ 333 58006 70770 84614 88456==
41953,2024,08,17,18,00,AAXX 17184 41953 21425 81304 10260 20260 30032 40037 70266 8352/ 333 58006 60098 70820 83616 88458==
41953,2024,08,17,21,00,AAXX 17214 41953 02420 81302 10262 20250 30028 40033 8352/ 333 58025 70500 83616 88458==
41953,2024,08,18,00,00,AAXX 18004 41953 02435 81302 10264 20260 30025 40030 8352/ 333 58028 70310 83616 88458==
41953,2024,08,18,03,00,AAXX 18034 41953 01440 81302 10268 20260 30038 40043 76162 8452/ 333 20258 58034 70240 84614 88456==
41953,2024,08,18,06,00,AAXX 18064 41953 21440 81303 10274 20260 30035 40040 76166 8452/ 333 58032 60089 70260 84614 88458==
41953,2024,08,18,09,00,AAXX 18094 41953 01440 81305 10290 20250 30019 40024 70266 8452/ 333 58029 70290 84615 88458==
41953,2024,08,18,12,00,AAXX 18124 41953 01440 81304 10268 20260 30019 40024 76166 8452/ 333 10293 58022 70250 84614 88458==
41953,2024,08,18,15,00,AAXX 18154 41953 01430 81304 10270 20260 30045 40050 70262 8452/ 333 58018 70190 84614 88458==
41953,2024,08,18,18,00,AAXX 18184 41953 11430 81305 10266 20269 30049 40054 60016 70262 8452/ 333 58018 70170 84615 88458==
41953,2024,08,18,21,00,AAXX 18214 41953 01430 80508 10265 20260 30029 40034 76162 8452/ 333 58001 70360 84614 88458==
41953,2024,08,19,00,00,AAXX 19004 41953 21440 80506 10260 20260 30020 40025 76166 8452/ 333 59005 60329 70490 84614 88458==
41953,2024,08,19,03,00,AAXX 19034 41953 01440 80405 10262 20260 30028 40033 76166 8452/ 333 20258 59010 70690 84614 88458==
41953,2024,08,19,06,00,AAXX 19064 41953 21340 81005 10265 20265 30017 40022 76366 8672/ 333 59018 60559 70960 85710 85614 88456==
41953,2024,08,19,09,00,AAXX 19094 41953 01440 81703 10276 20270 39998 40003 76166 8452/ 333 59021 71000 84615 88456==
41953,2024,08,19,12,00,AAXX 19124 41953 21430 81802 10276 20276 30001 40006 71796 8632/ 333 10278 59018 60098 70970 84616 88458 81930==
41953,2024,08,19,15,00,AAXX 19154 41953 01420 81802 10268 20268 30026 40031 79596 8632/ 333 59019 71030 84614 88456 81928==
41953,2024,08,19,18,00,AAXX 19184 41953 21420 81802 10266 20266 30031 40036 79596 8632/ 333 59018 60129 71080 84614 88458 81930==
41953,2024,08,19,21,00,AAXX 19214 41953 01310 81804 10264 20264 30030 40035 76566 8672/ 333 58001 71440 85708 85614 88456==
41953,2024,08,20,00,00,AAXX 20004 41953 21320 82003 10262 20262 30028 40033 76566 8672/ 333 58008 60989 71740 85708 85614 88456==
41953,2024,08,20,03,00,AAXX 20034 41953 01430 82001 10268 20268 30039 40044 76166 8452/ 333 20260 58011 71600 84614 88456==
41953,2024,08,20,06,00,AAXX 20064 41953 21430 80000 10265 20265 30051 40056 76166 8452/ 333 58034 60209 71390 84615 88457==
41953,2024,08,20,09,00,AAXX 20094 41953 01440 80000 10277 20270 30037 40042 70262 8452/ 333 58039 71330 84615 88458==
41953,2024,08,20,12,00,AAXX 20124 41953 12440 80000 10278 20270 30038 40043 60016 8452/ 333 10278 58037 71310 83616 88458==
41953,2024,08,20,15,00,AAXX 20154 41953 02430 81302 10276 20270 30065 40070 8352/ 333 58039 71240 84616 88458==
41953,2024,08,20,18,00,AAXX 20184 41953 02430 81303 10275 20270 30071 40076 8352/ 333 58040 71190 83616 88458==
41953,2024,08,20,21,00,AAXX 20214 41953 02430 81805 10275 20270 30054 40059 8452/ 333 58024 70640 84615 88458==
41953,2024,08,21,00,00,AAXX 21004 41953 21430 81804 10276 20270 30049 40054 70262 8452/ 333 58021 60047 70250 84615 88458==
41953,2024,08,21,03,00,AAXX 21034 41953 01440 80000 10266 20266 30065 40070 76166 8452/ 333 20258 58026 70370 84614 88458==
41953,2024,08,21,06,00,AAXX 21064 41953 21440 80000 10255 20255 30062 40067 76366 8452/ 333 58011 60669 70710 84613 88456==
41953,2024,08,21,09,00,AAXX 21094 41953 01430 80503 10266 20260 30058 40063 79596 8692/ 333 58021 71030 84613 88456 81925==
41953,2024,08,21,12,00,AAXX 21124 41953 21430 81304 10270 20270 30032 40037 70296 8452/ 333 10272 59006 60747 71440 84614 88456==
41953,2024,08,21,15,00,AAXX 21154 41953 02430 81305 10274 20260 30044 40049 8452/ 333 59021 71440 84616 88458==
41953,2024,08,21,18,00,AAXX 21184 41953 02430 81304 10268 20260 30057 40062 8452/ 333 59014 71440 84615 88458==
41953,2024,08,21,21,00,AAXX 21214 41953 01430 81304 10275 20270 30034 40039 70262 8452/ 333 59020 71510 84616 88458==
41953,2024,08,22,00,00,AAXX 22004 41953 11440 80000 10274 20270 30031 40036 60076 70262 8352/ 333 59018 71470 83616 88458==
41953,2024,08,22,03,00,AAXX 22034 41953 01440 81205 10257 20257 30059 40064 76122 8452/ 333 20255 59006 71330 84614 88458==
41953,2024,08,22,06,00,AAXX 22064 41953 21440 81303 10250 20250 30058 40063 76362 8452/ 333 59004 60627 71430 84614 88456==
41953,2024,08,22,09,00,AAXX 22094 41953 01430 80000 10255 20255 30031 40036 70262 8452/ 333 59027 71210 84615 88458==
41953,2024,08,22,12,00,AAXX 22124 41953 11430 81302 10265 20260 30013 40018 60116 70262 8452/ 333 10266 59001 70800 84616 88458==
41953,2024,08,22,15,00,AAXX 22154 41953 02425 81305 10268 20260 30056 40061 8352/ 333 58012 70800 83616 88458==
41953,2024,08,22,18,00,AAXX 22184 41953 02425 81304 10266 20260 30058 40063 8352/ 333 58001 70800 83616 88458==
41953,2024,08,22,21,00,AAXX 22214 41953 02425 81306 10265 20260 30055 40060 8352/ 333 58021 70730 83616 88458==
41955,2024,08,16,00,00,AAXX 16004 41955 NIL=
41955,2024,08,16,06,00,AAXX 16064 41955 NIL=
41955,2024,08,16,12,00,AAXX 16124 41955 NIL=
41955,2024,08,17,00,00,AAXX 17004 41955 NIL=
41955,2024,08,17,03,00,AAXX 17034 41955 NIL=
41955,2024,08,17,12,00,AAXX 17124 41955 NIL=
41955,2024,08,18,06,00,AAXX 18064 41955 NIL=
41955,2024,08,18,18,00,AAXX 18184 41955 NIL=
41955,2024,08,19,06,00,AAXX 19064 41955 NIL=
41955,2024,08,19,12,00,AAXX 19124 41955 NIL=
41955,2024,08,20,06,00,AAXX 20064 41955 NIL=
41955,2024,08,20,12,00,AAXX 20124 41955 NIL=
41955,2024,08,21,00,00,AAXX 21004 41955 NIL=
41955,2024,08,21,06,00,AAXX 21064 41955 NIL=
41955,2024,08,22,00,00,AAXX 22004 41955 NIL=
41955,2024,08,22,12,00,AAXX 22124 41955 NIL=
41955,2024,08,22,18,00,AAXX 22184 41955 NIL=
41958,2024,08,16,00,00,AAXX 16004 41958 32450 60701 10276 20270 30010 40012 81570 333 56990 59017 70000 81617 85459=
41958,2024,08,16,03,00,AAXX 16034 41958 32457 61101 10290 20280 30025 40027 84470 333 20270 56390 59009 70000 83616 85459=
41958,2024,08,16,06,00,AAXX 16064 41958 32458 50902 10320 20260 30022 40024 85431 333 56299 59009 70000 83616 85362=
41958,2024,08,16,09,00,AAXX 16094 41958 21458 50901 10304 20260 39998 40000 70262 81530 333 56990 59009 6992/ 70002 81617 85362=
41958,2024,08,16,12,00,AAXX 16124 41958 11456 50000 10298 20270 39991 49993 69926 70262 83530 333 10322 56990 59017 70002 83616 85362=
41958,2024,08,16,15,00,AAXX 16154 41958 32950 20901 10280 20260 30022 40024 80001 333 56009 59004 70002 82080=
41958,2024,08,16,18,00,AAXX 16184 41958 32440 30901 10278 20270 30028 40030 83500 333 56200 59004 70002 83616=
41958,2024,08,16,21,00,AAXX 16214 41958 32440 10000 10276 20260 30015 40017 81500 333 56100 58009 70002 81617=
41958,2024,08,17,00,00,AAXX 17004 41958 32450 30301 10274 20250 30020 40022 81501 333 56109 58010 70002 81617 83080=
41958,2024,08,17,03,00,AAXX 17034 41958 32458 53302 10332 20260 30025 40028 85401 333 56909 58003 70002 84616=
41958,2024,08,17,09,00,AAXX 17094 41958 32458 43302 10350 20270 39998 40000 84400 333 56900 58000 70000 83616=
41958,2024,08,17,12,00,AAXX 17124 41958 32456 60000 10294 20250 39997 49999 82570 333 10352 56990 58006 70000 82617 85459=
41958,2024,08,17,15,00,AAXX 17154 41958 31550 30000 10280 20250 30031 40033 81101 333 56909 58009 70000 81825 81930 83080=
41958,2024,08,17,18,00,AAXX 17184 41958 32440 60000 10280 20250 30029 40031 83570 333 56990 58001 70000 83616 85459=
41958,2024,08,17,21,00,AAXX 17214 41958 32440 80000 10270 20260 30011 40013 8542/ 333 56699 59004 70000 84616 88459=
41958,2024,08,18,00,00,AAXX 18004 41958 11340 82701 10268 20260 30013 40015 69924 76122 8532/ 333 56699 59018 70002 82708 84616 81930 88458=
41958,2024,08,18,03,00,AAXX 18034 41958 32350 80000 10294 20270 30025 40027 8562/ 333 20265 56699 59006 70002 82708 84616 88458=
41958,2024,08,18,06,00,AAXX 18064 41958 32450 81502 10302 20270 30024 40027 8532/ 333 56999 59001 70002 84616 81930 88458=
41958,2024,08,18,09,00,AAXX 18094 41958 21456 80000 10292 20280 30003 40005 72162 8532/ 333 56699 58005 6002/ 70022 84616 81930 88458=
41958,2024,08,18,12,00,AAXX 18124 41958 11456 80000 10280 20270 30001 40003 60053 70262 8532/ 333 10315 56499 58004 70054 84616 81930 88458=
41958,2024,08,18,15,00,AAXX 18154 41958 32450 81501 10276 20270 30021 40023 8542/ 333 56399 59010 70054 84616 88458=
41958,2024,08,18,18,00,AAXX 18184 41958 11440 81501 10272 20270 30022 40025 60042 76262 8542/ 333 56399 59007 70096 84616 88458=
41958,2024,08,18,21,00,AAXX 18214 41958 21340 82701 10272 20270 39997 49999 76166 8532/ 333 56699 59014 6018/ 70278 82708 84615 81930 88458=
41958,2024,08,19,00,00,AAXX 19004 41958 11340 82702 10274 20270 39999 40001 60239 76196 8532/ 333 56699 59014 70322 83707 84614 81930 88458=
41958,2024,08,19,03,00,AAXX 19034 41958 21350 82703 10274 20260 30015 40017 76196 8532/ 333 20269 56699 59010 6996/ 70328 83707 84614 81930 88458=
41958,2024,08,19,06,00,AAXX 19064 41958 11340 82703 10270 20270 30017 40019 60629 79596 8692/ 333 56699 59007 70938 83707 84614 82930 88458=
41958,2024,08,19,09,00,AAXX 19094 41958 21450 82801 10290 20280 39990 49993 70296 8532/ 333 56699 59013 6002/ 70940 84616 81930 88458=
41958,2024,08,19,12,00,AAXX 19124 41958 11450 80000 10282 20270 39998 40000 60026 70296 8532/ 333 10292 56699 59003 70908 84616 81930 88459=
41958,2024,08,19,15,00,AAXX 19154 41958 32440 80000 10275 20270 30027 40029 8532/ 333 56999 58006 70908 84616 81930 88459=
41958,2024,08,19,18,00,AAXX 19184 41958 32440 82701 10277 20270 30032 40034 8532/ 333 56699 58010 70866 84616 81930 88459=
41958,2024,08,20,00,00,AAXX 20004 41958 11440 82701 10265 20265 30021 40023 60289 76196 8592/ 333 56699 58022 70918 84616 81930 88459=
41958,2024,08,20,06,00,AAXX 20064 41958 11456 83201 10285 20280 30046 40048 60269 76196 8532/ 333 56699 58029 70564 82708 84616 81930 88459=
41958,2024,08,20,09,00,AAXX 20094 41958 32457 80000 10300 20270 30029 40031 8542/ 333 56999 58039 70542 84616 88459=
41958,2024,08,20,12,00,AAXX 20124 41958 32456 81601 10300 20280 30022 40024 8542/ 333 10309 56499 58024 70542 84616 88459=
41958,2024,08,20,15,00,AAXX 20154 41958 21440 81601 10280 20280 30051 40053 76162 8542/ 333 56499 58024 6007/ 70616 82708 84616 88459=
41958,2024,08,20,18,00,AAXX 20184 41958 11430 80000 10270 20270 30056 40058 60089 76166 8542/ 333 56499 58024 70620 84616 88459=
41958,2024,08,20,21,00,AAXX 20214 41958 21440 80000 10274 20260 30039 40041 76196 8592/ 333 56499 58020 6001/ 70530 84616 82930 88459=
41958,2024,08,21,00,00,AAXX 21004 41958 11440 83201 10276 20270 30041 40043 60039 76196 8592/ 333 56499 58020 70372 82708 84616 82930 88459=
41958,2024,08,21,03,00,AAXX 21034 41958 21450 83201 10273 20270 30057 40059 76196 8592/ 333 20260 56499 58015 6009/ 70224 84616 82930 88459=
41958,2024,08,21,06,00,AAXX 21064 41958 11457 82201 10310 20290 30054 40056 60098 70296 8532/ 333 56999 58008 70204 84616 81930 88459=
41958,2024,08,21,09,00,AAXX 21094 41958 32457 80000 10314 20280 30031 40033 8532/ 333 56999 58002 70204 84616 81930 88459=
41958,2024,08,21,12,00,AAXX 21124 41958 11450 80000 10308 20300 30019 40021 69924 76196 8592/ 333 10318 56999 59003 70206 84616 82930 88459=
41958,2024,08,21,15,00,AAXX 21154 41958 21430 80000 10280 20280 30043 40045 79596 8592/ 333 56999 59008 6003/ 70162 84616 82930 88459=
41958,2024,08,21,18,00,AAXX 21184 41958 11430 80000 10283 20280 30048 40050 60038 70296 8532/ 333 56999 59008 70158 84616 81930 88459=
41958,2024,08,21,21,00,AAXX 21214 41958 32430 80000 10283 20280 30030 40032 8542/ 333 56999 59009 70148 84616 88459=
41958,2024,08,22,00,00,AAXX 22004 41958 32450 80000 10282 20280 30032 40034 8542/ 333 56999 59009 70126 84616 88459=
41958,2024,08,22,03,00,AAXX 22034 41958 32456 80000 10290 20280 30051 40054 8542/ 333 20274 56999 59006 70038 84616 88459=
41958,2024,08,22,06,00,AAXX 22064 41958 32457 83201 10305 20290 30042 40044 8542/ 333 56999 59012 70032 84616 88459=
41958,2024,08,22,09,00,AAXX 22094 41958 32457 80000 10307 20290 30020 40022 8532/ 333 56999 59011 70032 84616 82930 88459=
41958,2024,08,22,12,00,AAXX 22124 41958 32450 80000 10302 20280 30012 40014 8532/ 333 10310 56999 59007 70030 84616 82930 88459=
41958,2024,08,22,15,00,AAXX 22154 41958 32450 80000 10283 20270 30044 40046 8532/ 333 56999 58001 70000 84616 81930 88459=
41958,2024,08,22,18,00,AAXX 22184 41958 32430 80000 10280 20270 30046 40048 8542/ 333 56999 59002 70000 84616 88459=
41958,2024,08,22,21,00,AAXX 22214 41958 21430 80000 10268 20268 30033 40036 79596 8592/ 333 56999 58003 6034/ 70340 84616 82930 88459=
41960,2024,08,16,00,00,AAXX 16004 41960 21430 80000 10263 20263 30015 40016 76162 8542/ 333 59018 60157 70152 83618 88458==
41960,2024,08,16,03,00,AAXX 16034 41960 01350 80000 10270 20270 30028 40029 76166 8672/ 333 20262 59011 70314 82707 84616 88458==
41960,2024,08,16,06,00,AAXX 16064 41960 21340 81802 10267 20267 30016 40017 76366 8672/ 333 59019 60279 70419 82708 84615 88458==
41960,2024,08,16,09,00,AAXX 16094 41960 01320 80504 10263 20263 39991 49992 76366 8672/ 333 59019 70645 83707 84612 88458==
41960,2024,08,16,12,00,AAXX 16124 41960 21320 81802 10267 20267 39990 49992 76366 8672/ 333 10277 59020 60279 70685 83707 84615 88456==
41960,2024,08,16,15,00,AAXX 16154 41960 01440 80000 10269 20269 30012 40013 70266 8542/ 333 59019 70699 84617 88458==
41960,2024,08,16,18,00,AAXX 16184 41960 01440 81802 10263 20263 30019 40021 72162 8542/ 333 59013 70765 84617 88458==
41960,2024,08,16,21,00,AAXX 16214 41960 01320 83202 10260 20260 30016 40018 76166 8672/ 333 59009 70835 82708 84615 88458==
41960,2024,08,17,00,00,AAXX 17004 41960 21330 73003 10258 20258 30014 40016 72166 86610 333 59001 60129 70683 82709 84615 87459==
41960,2024,08,17,03,00,AAXX 17034 41960 02450 72701 10276 20260 30026 40029 85410 333 20254 59002 70541 83618 87459==
41960,2024,08,17,06,00,AAXX 17064 41960 02450 82903 10296 20260 30021 40022 8662/ 333 58005 70466 82708 84618 88459==
41960,2024,08,17,09,00,AAXX 17094 41960 01330 83404 10270 20260 30001 40002 76166 8672/ 333 58010 70268 82708 84615 88458==
41960,2024,08,17,12,00,AAXX 17124 41960 21450 80000 10282 20250 39998 49999 70262 8542/ 333 10302 58008 60038 70232 84618 88459==
41960,2024,08,17,15,00,AAXX 17154 41960 02450 80000 10275 20270 30030 40032 8542/ 333 58018 70218 84618 88459==
41960,2024,08,17,18,00,AAXX 17184 41960 02450 80000 10275 20270 30029 40030 8452/ 333 58010 70152 84618 88459==
41960,2024,08,17,21,00,AAXX 17214 41960 02440 80000 10268 20268 30023 40025 8542/ 333 58007 70082 83618 88458==
41960,2024,08,18,00,00,AAXX 18004 41960 01420 80000 10267 20267 30017 40019 76162 8542/ 333 58003 70020 83617 88458==
41960,2024,08,18,03,00,AAXX 18034 41960 01450 60000 10290 20280 30031 40032 70162 85410 333 20260 58005 70067 83618 86459==
41960,2024,08,18,06,00,AAXX 18064 41960 NIL=
41960,2024,08,18,09,00,AAXX 18094 41960 02450 51502 10312 20260 30014 40015 85410 333 58013 70045 83618 83822==
41960,2024,08,18,12,00,AAXX 18124 41960 02450 81801 10292 20260 30005 40007 8352/ 333 10324 58007 70041 83618 88458==
41960,2024,08,18,15,00,AAXX 18154 41960 02450 80000 10282 20260 30033 40034 8542/ 333 58003 70041 84618 88458==
41960,2024,08,18,18,00,AAXX 18184 41960 NIL=
41960,2024,08,18,21,00,AAXX 18214 41960 01330 80000 10272 20270 30020 40021 76166 8672/ 333 59003 70091 82708 84615 88458==
41960,2024,08,19,00,00,AAXX 19004 41960 21330 80000 10270 20270 30007 40009 59010 70181 88458 333 60169==
41960,2024,08,19,03,00,AAXX 19034 41960 01340 81801 10270 20270 30019 40020 76196 8672/ 333 20260 59012 70251 82707 84615 88458==
41960,2024,08,19,06,00,AAXX 19064 41960 21456 81802 10290 20280 30020 40021 70296 8452/ 333 59009 60118 70261 84618 88459==
41960,2024,08,19,09,00,AAXX 19094 41960 01450 81803 10308 20270 30001 40003 71722 8692/ 333 59013 70261 84618 83822 88459 81929==
41960,2024,08,19,12,00,AAXX 19124 41960 01450 31803 10290 20270 30004 40006 71792 8592/ 333 10314 59001 70261 84618 88458 81926==
41960,2024,08,19,15,00,AAXX 19154 41960 01320 82702 10269 20269 30029 40030 79796 8692/ 333 59004 70569 82708 84615 88458==
41960,2024,08,19,18,00,AAXX 19184 41960 21330 80000 10269 20269 40035 79596 8692/ 333 58001 60759 71015 82707 84614 88458==
41960,2024,08,19,21,00,AAXX 19214 41960 01220 80000 10268 20268 30030 40032 76396 8672/ 333 58010 71065 83706 84612 88458==
41960,2024,08,20,00,00,AAXX 20004 41960 21220 80000 10268 20268 30025 40027 76196 8672/ 333 58018 60179 71025 83706 84617 88458==
41960,2024,08,20,03,00,AAXX 20034 41960 01220 81801 10265 20265 30051 40053 79596 8692/ 333 20257 58032 71539 82707 84614 88458 81929==
41960,2024,08,20,06,00,AAXX 20064 41960 21440 81602 10277 20270 30051 40053 72196 8542/ 333 58031 60659 71567 84617 88458==
41960,2024,08,20,09,00,AAXX 20094 41960 01440 81801 10293 20270 30033 40035 70262 8542/ 333 58032 71569 83618 88459==
41960,2024,08,20,12,00,AAXX 20124 41960 11450 81801 10288 20270 30038 40039 69926 70262 8352/ 333 10295 58034 71569 83618 88458==
41960,2024,08,20,15,00,AAXX 20154 41960 02450 80000 10279 20270 30060 40061 8542/ 333 58031 70815 84618 88459==
41960,2024,08,20,18,00,AAXX 20184 41960 01330 81802 10282 20280 30067 40068 79596 8692/ 333 58031 70070 82708 84616 88458 81928==
41960,2024,08,20,21,00,AAXX 20214 41960 01340 81802 10280 20280 30059 40060 71796 8592/ 333 58029 70795 82708 84616 88459 81928==
41960,2024,08,21,00,00,AAXX 21004 41960 01320 81802 10278 20278 30051 40052 79596 8692/ 333 58026 70747 83708 85614 88458 81928==
41960,2024,08,21,03,00,AAXX 21034 41960 01340 81804 10285 20280 30059 40061 79596 8692/ 333 20260 58008 70229 83707 84615 88458 81925==
41960,2024,08,21,06,00,AAXX 21064 41960 21456 81802 10290 20280 30055 40056 70296 8542/ 333 58004 60108 70199 83618 88458==
41960,2024,08,21,09,00,AAXX 21094 41960 02450 80000 10304 20280 30034 40035 8542/ 333 58001 70197 84618 88459==
41960,2024,08,21,15,00,AAXX 21154 41960 02450 80000 10290 20280 30052 40053 8542/ 333 59008 70197 84618 88459==
41960,2024,08,21,18,00,AAXX 21184 41960 02450 80000 10290 20270 30054 40055 8542/ 333 59013 70125 84618 88459==
41960,2024,08,21,21,00,AAXX 21214 41960 02450 80000 10285 20285 30046 40047 8542/ 333 59013 70117 83618 88459==
41960,2024,08,22,00,00,AAXX 22004 41960 02450 80000 10282 20270 30037 40038 8442/ 333 59014 70100 82618 88459==
41960,2024,08,22,03,00,AAXX 22034 41960 02456 80000 10296 20280 30056 40058 8542/ 333 20268 59003 70014 83618 88459==
41960,2024,08,22,06,00,AAXX 22064 41960 21350 81802 10270 20270 30049 40051 76162 8672/ 333 59006 60077 70070 82708 84616 88458==
41960,2024,08,22,09,00,AAXX 22094 41960 01440 81803 10288 20270 30030 40031 71762 8692/ 333 59004 70082 84616 83822 88458 81928==
41960,2024,08,22,12,00,AAXX 22124 41960 21440 81801 10280 20270 30025 40026 70296 8452/ 333 10295 59003 60015 70082 84618 88458==
41960,2024,08,22,15,00,AAXX 22154 41960 02450 80000 10275 20270 30049 40050 8542/ 333 59003 70082 84618 88459==
41960,2024,08,22,18,00,AAXX 22184 41960 01450 80000 10275 20270 30054 40055 71322 8532/ 333 58000 70082 84618 88459 81930==
41960,2024,08,22,21,00,AAXX 22214 41960 01320 80000 10270 20270 30050 40052 79522 8592/ 333 58004 70094 82708 84615 88458 82928==
41963,2024,08,16,00,00,AAXX 16004 41963 02456 70000 10276 20270 30027 40030 83570 333 59016 70000 83616 85458==
41963,2024,08,16,03,00,AAXX 16034 41963 01350 81402 10270 20260 30033 40036 76166 8572/ 333 20265 59018 70090 82710 83616 88458==
41963,2024,08,16,06,00,AAXX 16064 41963 21350 81403 10270 20260 30025 40028 76166 8572/ 333 59013 60309 70300 82710 83615 88458==
41963,2024,08,16,09,00,AAXX 16094 41963 01350 80000 10260 20260 30007 40010 76366 8472/ 333 59015 70930 82708 83614 88458==
41963,2024,08,16,12,00,AAXX 16124 41963 21357 80000 10270 20260 30007 40010 70262 8472/ 333 10272 59013 60668 70960 82709 83614 88458==
41963,2024,08,16,15,00,AAXX 16154 41963 01330 81305 10265 20265 30021 40024 76366 8572/ 333 59027 71200 82708 83613 88457==
41963,2024,08,16,21,00,AAXX 16214 41963 01330 82103 10260 20260 30020 40023 72162 8572/ 333 59016 71390 82708 83613 88457==
41963,2024,08,17,00,00,AAXX 17004 41963 11256 82804 10255 20255 30015 40018 60346 76162 8572/ 333 59012 71590 82706 83613 88457==
41963,2024,08,17,03,00,AAXX 17034 41963 01250 82103 10262 20260 30024 40027 76062 8572/ 333 20250 59009 71510 82707 83612 88457==
41963,2024,08,17,06,00,AAXX 17064 41963 01357 81604 10272 20260 30018 40021 70262 8572/ 333 59007 71330 82708 83613 88457==
41963,2024,08,17,09,00,AAXX 17094 41963 01357 81803 10285 20270 30001 40004 70262 8471/ 333 59006 70720 82710 83614 88458==
41963,2024,08,17,12,00,AAXX 17124 41963 01357 80000 10270 20270 30007 40010 72962 8472/ 333 10287 58000 70780 82709 83614 88457==
41963,2024,08,17,15,00,AAXX 17154 41963 01330 81402 10260 20260 30034 40037 76162 8472/ 333 58013 70580 82709 83614 88457==
41963,2024,08,17,21,00,AAXX 17214 41963 02330 80000 10255 20255 30039 40042 8472/ 333 58019 70480 82709 83614 88457==
41963,2024,08,18,00,00,AAXX 18004 41963 01356 80000 10262 20262 30031 40034 76062 8572/ 333 58016 70010 82709 83614 88457==
41963,2024,08,18,03,00,AAXX 18034 41963 01357 80000 10274 20260 30054 40057 70262 8572/ 333 20254 58030 70300 82709 83614 88457==
41963,2024,08,18,06,00,AAXX 18064 41963 11457 71603 10293 20270 30040 40043 60026 70162 84570 333 58022 70270 84615 84458==
41963,2024,08,18,09,00,AAXX 18094 41963 01357 80000 10280 20270 30027 40030 76062 8472/ 333 58009 70290 82710 83615 88458==
41963,2024,08,18,12,00,AAXX 18124 41963 01357 81803 10274 20260 30032 40035 70262 8472/ 333 10300 58025 70230 82709 83614 88458==
41963,2024,08,18,18,00,AAXX 18184 41963 NIL=
41963,2024,08,19,00,00,AAXX 19004 41963 01356 80000 10265 20265 30033 40036 76162 8472/ 333 58002 70390 82708 83614 88457==
41963,2024,08,19,03,00,AAXX 19034 41963 01250 81802 10265 20265 30034 40037 76166 8472/ 333 20258 59020 70490 82707 83613 88457==
41963,2024,08,19,06,00,AAXX 19064 41963 21250 82103 10275 20275 30028 40031 76366 8472/ 333 59012 60269 70630 82707 83613 88457==
41963,2024,08,19,09,00,AAXX 19094 41963 01357 81804 10286 20280 30018 40021 70262 8472/ 333 59009 70640 82709 83613 88457==
41963,2024,08,19,12,00,AAXX 19124 41963 01357 72104 10274 20260 30017 40020 72162 84770 333 10287 59015 70640 82709 83614 84458==
41963,2024,08,19,21,00,AAXX 19214 41963 02340 81802 10264 20264 30034 40037 8472/ 333 59006 70560 82710 83614 88458==
41963,2024,08,20,00,00,AAXX 20004 41963 01340 80000 10263 20260 30042 40045 76062 8472/ 333 59010 70660 82709 83614 88458==
41963,2024,08,20,03,00,AAXX 20034 41963 01250 82102 10280 20280 30059 40062 76162 8572/ 333 20260 58025 70380 82707 88457==
41963,2024,08,20,06,00,AAXX 20064 41963 21256 80000 10270 20270 30063 40066 76166 8572/ 333 58035 60459 70650 82708 83613 88457==
41963,2024,08,20,09,00,AAXX 20094 41963 21256 80000 10270 20270 30063 40066 76166 8572/ 333 58035 60459 70650 82708 83613 88457==
41963,2024,08,20,12,00,AAXX 20124 41963 01350 80000 10270 20270 30047 40050 72196 8472/ 333 10280 58030 71020 82709 83614 88458==
41963,2024,08,20,15,00,AAXX 20154 41963 01340 80000 10266 20266 30074 40077 70262 8472/ 333 58032 71290 82710 83614 88458==
41963,2024,08,20,21,00,AAXX 20214 41963 02340 80000 10274 20260 30070 40073 8472/ 333 58036 71250 82710 83614 88458==
41963,2024,08,21,00,00,AAXX 21004 41963 02457 80000 10280 20270 30060 40063 8341/ 333 58023 71250 83616 88458==
41963,2024,08,21,03,00,AAXX 21034 41963 01357 82104 10292 20270 30075 40078 71722 8432/ 333 20253 58016 71210 82709 83614 88459 81928==
41963,2024,08,21,06,00,AAXX 21064 41963 11356 81803 10293 20280 30065 40068 60012 76096 8472/ 333 58002 70810 82709 83614 88458==
41963,2024,08,21,09,00,AAXX 21094 41963 01357 80000 10280 20270 30048 40051 70262 8472/ 333 58001 70840 82709 83614 88458==
41963,2024,08,21,12,00,AAXX 21124 41963 11357 82002 10282 20260 30041 40044 60126 70262 8472/ 333 10300 59006 70480 82710 83615 88458==
41963,2024,08,21,15,00,AAXX 21154 41963 02340 80000 10283 20270 30059 40062 8472/ 333 59015 70170 82710 83615 88458==
41963,2024,08,21,21,00,AAXX 21214 41963 01440 80000 10277 20270 30047 40050 70262 8462/ 333 59020 70140 84615 88458==
41963,2024,08,22,00,00,AAXX 22004 41963 11457 80000 10284 20270 30049 40052 60016 70262 8462/ 333 59011 70140 84615 88458==
41963,2024,08,22,03,00,AAXX 22034 41963 01456 82402 10275 20270 30067 40070 79596 8462/ 333 20270 59008 70140 84614 88458 81928==
41963,2024,08,22,06,00,AAXX 22064 41963 21356 80000 10260 20260 30064 40067 76196 8472/ 333 59001 60087 70210 82709 83614 88458==
41963,2024,08,22,09,00,AAXX 22094 41963 02456 80000 10274 20260 30037 40040 8467/ 333 59011 70110 84614 85458==
41963,2024,08,22,12,00,AAXX 22124 41963 01457 81802 10274 20260 30037 40040 70262 8467/ 333 10275 59004 70110 84615 85458==
41963,2024,08,22,18,00,AAXX 22184 41963 01340 81804 10266 20260 30065 40068 76022 8472/ 333 58010 70030 82710 83615 88458==
41964,2024,08,16,00,00,AAXX 16004 41964 02356 81202 10275 20260 30011 40014 8662/ 333 59019 70004 82708 85616 88458==
41964,2024,08,16,03,00,AAXX 16034 41964 01340 81102 10268 20266 30023 40025 76166 8672/ 333 20261 59015 70020 84708 84616 88458==
41964,2024,08,16,06,00,AAXX 16064 41964 21350 81804 10275 20270 30026 40029 76166 8432/ 333 59006 60059 70056 83617 88458 81928==
41964,2024,08,16,09,00,AAXX 16094 41964 01340 81903 10270 20250 30005 40008 76166 8432/ 333 59017 70080 83617 88458 81928==
41964,2024,08,16,12,00,AAXX 16124 41964 21356 80000 10275 20270 39993 49996 70262 8662/ 333 10278 59017 60048 70100 82708 85616 88458==
41964,2024,08,16,15,00,AAXX 16154 41964 01320 81804 10257 20257 30017 40019 76566 8772/ 333 59015 70596 86707 85614 88456==
41964,2024,08,16,18,00,AAXX 16184 41964 21320 81606 10255 20255 30021 40023 76766 8772/ 333 59007 61369 71456 86707 85613 88456==
41964,2024,08,16,21,00,AAXX 16214 41964 01220 81608 10254 20254 30003 40005 76566 8772/ 333 59020 71706 86706 85613 88456==
41964,2024,08,17,00,00,AAXX 17004 41964 21220 82206 10262 20262 39985 49987 76366 8772/ 333 59026 60439 71870 86706 85613 88456==
41964,2024,08,17,03,00,AAXX 17034 41964 01350 81404 10266 20264 30004 40007 70262 8662/ 333 20248 59019 71886 84709 83616 88459==
41964,2024,08,17,06,00,AAXX 17064 41964 11350 81802 10278 20270 30002 40005 60026 70262 8352/ 333 59024 71850 83618 88458==
41964,2024,08,17,09,00,AAXX 17094 41964 02450 81401 10285 20270 39997 49999 8352/ 333 59008 71826 83618 88460==
41964,2024,08,17,12,00,AAXX 17124 41964 01325 81204 10267 20267 39996 49998 79722 8792/ 333 10291 58003 70150 86707 84613 88456 81928==
41964,2024,08,17,15,00,AAXX 17154 41964 01325 81603 10260 20260 30031 40033 79596 8792/ 333 58014 71526 86707 84613 88456 81928==
41964,2024,08,17,18,00,AAXX 17184 41964 01325 81502 10260 20260 30033 40035 79296 8732/ 333 58012 70814 86707 84613 88456 81928==
41964,2024,08,17,21,00,AAXX 17214 41964 01325 81404 10260 20260 30026 40028 76396 8732/ 333 58023 70734 86707 84614 88457 81928==
41964,2024,08,18,00,00,AAXX 18004 41964 21330 81602 10266 20266 30020 40022 76196 8772/ 333 58035 60309 70688 86707 84613 88457==
41964,2024,08,18,03,00,AAXX 18034 41964 01335 81404 10267 20265 30034 40036 76166 8772/ 333 20249 58030 70686 85707 84614 88458==
41964,2024,08,18,06,00,AAXX 18064 41964 21340 81803 10272 20270 30036 40038 75165 8432/ 333 58034 60029 70696 83618 88458 81928==
41964,2024,08,18,09,00,AAXX 18094 41964 01340 81902 10280 20260 30038 40040 75165 8432/ 333 58041 70700 83618 88458 81928==
41964,2024,08,18,12,00,AAXX 18124 41964 01356 81802 10276 20270 30017 40019 70265 8662/ 333 10286 58021 70560 83709 85616 88458==
41964,2024,08,18,15,00,AAXX 18154 41964 01340 81603 10271 20271 30041 40043 76162 8672/ 333 58010 70504 85707 85615 88457==
41964,2024,08,18,18,00,AAXX 18184 41964 21340 81603 10270 20270 30038 40040 79562 8632/ 333 58005 60039 70372 85707 84615 88458 81928==
41964,2024,08,18,21,00,AAXX 18214 41964 01325 81502 10259 20259 30027 40029 76396 8772/ 333 58001 70402 86707 84614 88456==
41964,2024,08,19,00,00,AAXX 19004 41964 21325 80000 10260 20260 30019 40021 76396 8772/ 333 59001 60529 70588 86707 85614 88456==
41964,2024,08,19,03,00,AAXX 19034 41964 01330 81904 10268 20266 30028 40030 76366 8772/ 333 20251 59006 70702 85707 84615 88458==
41964,2024,08,19,06,00,AAXX 19064 41964 21340 81805 10270 20260 30027 40029 76166 8432/ 333 59009 60289 70842 83617 88456 81928==
41964,2024,08,19,09,00,AAXX 19094 41964 01340 81903 10270 20260 30016 40018 76166 8432/ 333 59022 70928 83617 88458 81928==
41964,2024,08,19,12,00,AAXX 19124 41964 21330 81603 10275 20275 30007 40009 76366 8772/ 333 10278 59010 60309 71128 86707 84614 88456==
41964,2024,08,19,15,00,AAXX 19154 41964 01356 82105 10277 20270 30032 40034 70262 8662/ 333 59009 71136 82708 85616 88458==
41964,2024,08,19,18,00,AAXX 19184 41964 01330 82108 10277 20270 30032 40034 76162 8772/ 333 59006 71150 86707 84615 88457==
41964,2024,08,20,00,00,AAXX 20004 41964 21356 81807 10277 20270 30026 40028 70262 8662/ 333 58007 60058 70684 83708 85616 88458==
41964,2024,08,20,03,00,AAXX 20034 41964 01350 82306 10284 20270 30046 40048 71762 8632/ 333 20259 58018 70572 84708 84617 88459 81928==
41964,2024,08,20,06,00,AAXX 20064 41964 01350 82003 10266 20266 30055 40057 76196 8532/ 333 58028 70712 83707 83616 88456 81928==
41964,2024,08,20,09,00,AAXX 20094 41964 02350 81802 10271 20240 30031 40033 8532/ 333 58015 70944 83707 83616 88456==
41964,2024,08,20,12,00,AAXX 20124 41964 21330 82102 10260 20260 30039 40041 76366 8732/ 333 10284 58032 60809 71210 86707 84616 88457 81928==
41964,2024,08,20,15,00,AAXX 20154 41964 01330 81802 10268 20268 30063 40065 76366 8772/ 333 58031 71340 86707 84616 88457==
41964,2024,08,20,18,00,AAXX 20184 41964 21356 81604 10280 20280 30064 40066 72196 8732/ 333 58032 60189 71338 83707 85616 88458 81928==
41964,2024,08,20,21,00,AAXX 20214 41964 02356 81802 10278 20278 30058 40060 8662/ 333 58029 71298 83708 85617 88458==
41964,2024,08,21,00,00,AAXX 21004 41964 21356 82103 10280 20280 30051 40053 70262 8562/ 333 58025 69965 71290 82709 85617 88460==
41964,2024,08,21,03,00,AAXX 21034 41964 02356 81406 10290 20280 30063 40065 8562/ 333 20253 58017 71274 83709 84617 88459==
41964,2024,08,21,06,00,AAXX 21064 41964 NIL=
41964,2024,08,21,09,00,AAXX 21094 41964 02450 81903 10276 20270 30048 40050 8452/ 333 58017 70982 84618 88460==
41964,2024,08,21,12,00,AAXX 21124 41964 01350 81401 10285 20280 30033 40035 70262 8662/ 333 10296 59006 70512 83709 84617 88459==
41964,2024,08,21,15,00,AAXX 21154 41964 01350 82303 10283 20270 30051 40053 72122 8662/ 333 59012 70366 83709 84617 88459==
41964,2024,08,22,00,00,AAXX 22004 41964 NIL=
41964,2024,08,22,03,00,AAXX 22034 41964 01325 81003 10255 20254 30062 40064 79596 8632/ 333 20249 59001 70580 85707 84615 88458 81928==
41964,2024,08,22,06,00,AAXX 22064 41964 21340 81801 10260 20250 30057 40059 76196 8432/ 333 59002 60239 70730 82707 83614 88457 81928==
41964,2024,08,22,12,00,AAXX 22124 41964 21456 81402 10270 20260 30031 40033 70296 8462/ 333 10271 59002 60048 70468 82710 83618 88460==
41964,2024,08,22,15,00,AAXX 22154 41964 01325 81204 10265 20270 30057 40059 76322 8772/ 333 58006 70728 85707 84614 88458==
41964,2024,08,22,18,00,AAXX 22184 41964 NIL=
41965,2024,08,16,00,00,AAXX 16004 41965 02440 81402 10265 20240 30014 40023 8461/ 333 59022 70000 83618 88460==
41965,2024,08,16,03,00,AAXX 16034 41965 01440 80000 10270 20240 30029 40038 76122 8461/ 333 20260 59010 70020 81710 83618 88456==
41965,2024,08,16,06,00,AAXX 16064 41965 NIL=
41965,2024,08,16,09,00,AAXX 16094 41965 01440 81402 10270 20240 39998 40007 76166 8461/ 333 59011 70070 81710 83618 88460==
41965,2024,08,16,12,00,AAXX 16124 41965 21440 81402 10265 20240 30000 40009 70262 8461/ 333 10299 59011 60068 70090 81710 83618 88460==
41965,2024,08,16,15,00,AAXX 16154 41965 01430 80000 10265 20250 30025 40034 76162 8461/ 333 59007 70180 81710 83618 88456==
41965,2024,08,16,21,00,AAXX 16214 41965 01430 80000 10258 20240 30029 40038 76166 8461/ 333 59006 70910 81710 83618 88456==
41965,2024,08,17,00,00,AAXX 17004 41965 21430 81801 10266 20240 39997 40006 76166 8361/ 333 59017 60719 71250 81710 83618 88456==
41965,2024,08,17,03,00,AAXX 17034 41965 01430 80000 10260 20240 30013 40022 76162 8461/ 333 20248 59016 71280 81710 83618 88456==
41965,2024,08,17,06,00,AAXX 17064 41965 21430 81402 10270 20250 30012 40021 70262 8461/ 333 59004 60099 71310 83618 88460==
41965,2024,08,17,09,00,AAXX 17094 41965 01440 81402 10275 20240 39998 40007 76162 8461/ 333 58000 71330 81710 83618 88456==
41965,2024,08,17,12,00,AAXX 17124 41965 21430 81403 10260 20240 30004 40013 76166 8461/ 333 10280 58004 60169 71340 81710 83618 88456==
41965,2024,08,17,21,00,AAXX 17214 41965 01430 81801 10260 20240 30037 40046 76166 8461/ 333 58008 71180 81710 83618 88456==
41965,2024,08,18,00,00,AAXX 18004 41965 21430 81402 10255 20240 30026 40035 76166 8461/ 333 58029 60519 71080 81710 83618 88456==
41965,2024,08,18,03,00,AAXX 18034 41965 01440 81303 10260 20240 30039 40048 70262 8461/ 333 20245 58026 71060 81710 83618 88456==
41965,2024,08,18,06,00,AAXX 18064 41965 21450 81403 10275 20240 30033 40042 70262 8461/ 333 58021 60058 71040 83618 88456==
41965,2024,08,18,09,00,AAXX 18094 41965 02450 81402 10278 20240 30022 40031 8461/ 333 58024 70910 83618 88460==
41965,2024,08,18,12,00,AAXX 18124 41965 02440 81802 10267 20240 30020 40029 8461/ 333 10281 58016 70880 81710 83618 88460==
41965,2024,08,18,15,00,AAXX 18154 41965 02430 81402 10262 20240 30045 40055 8461/ 333 58011 70750 83618 88460==
41965,2024,08,18,18,00,AAXX 18184 41965 NIL=
41965,2024,08,19,00,00,AAXX 19004 41965 21440 81402 10255 20240 30023 40032 76166 8461/ 333 59003 60689 71060 81710 83618 88456==
41965,2024,08,19,03,00,AAXX 19034 41965 01430 81304 10255 20240 30032 40041 76266 8461/ 333 20250 59007 71260 81710 83618 88456==
41965,2024,08,19,06,00,AAXX 19064 41965 NIL=
41965,2024,08,19,09,00,AAXX 19094 41965 01440 81404 10270 20230 30006 40015 76166 8461/ 333 59016 71460 81710 83618 88456==
41965,2024,08,19,12,00,AAXX 19124 41965 21430 82303 10265 20250 30007 40016 76166 8461/ 333 10272 59013 60239 71600 81710 83618 88456==
41965,2024,08,19,15,00,AAXX 19154 41965 01430 80000 10265 20250 30023 40034 76162 8461/ 333 59023 71690 83618 88456==
41965,2024,08,19,21,00,AAXX 19214 41965 21430 80000 10260 20240 30015 40034 76166 8461/ 333 58033 60189 71490 81710 81710 83618 88356==
41965,2024,08,20,00,00,AAXX 20004 41965 02430 81403 10265 20250 30028 40047 8461/ 333 58005 70770 81710 83618 88460==
41965,2024,08,20,03,00,AAXX 20034 41965 02430 81302 10280 20250 30050 40059 8461/ 333 20253 58018 70640 83618 88460==
41965,2024,08,20,06,00,AAXX 20064 41965 21430 80000 10255 20240 30053 40042 76162 8461/ 333 58024 60397 70800 81710 83618 88456==
41965,2024,08,20,09,00,AAXX 20094 41965 01430 81802 10265 20250 30036 40045 76366 8461/ 333 58030 71370 81710 83618 88456==
41965,2024,08,20,12,00,AAXX 20124 41965 21430 82303 10258 20240 30045 40054 79596 8461/ 333 10293 58038 61329 71890 81710 83618 88456==
41965,2024,08,20,15,00,AAXX 20154 41965 01430 81404 10255 20240 30064 40073 76366 8461/ 333 58041 71990 81710 83618 88456==
41965,2024,08,20,21,00,AAXX 20214 41965 02430 81802 10253 20240 30067 40076 8461/ 333 58050 71930 83618 88460==
41965,2024,08,21,00,00,AAXX 21004 41965 02440 81803 10270 20250 30054 40063 8461/ 333 58026 71930 81710 83618 88460==
41965,2024,08,21,03,00,AAXX 21034 41965 02440 81402 10285 20250 30069 40078 8641/ 333 20250 58019 71930 83618 88460==
41965,2024,08,21,06,00,AAXX 21064 41965 02440 80000 10290 20250 30060 40069 8461/ 333 58007 71540 83618 88460==
41965,2024,08,21,09,00,AAXX 21094 41965 01440 81802 10268 20240 30040 40049 76166 8461/ 333 58004 71120 81710 83618 88456==
41965,2024,08,21,12,00,AAXX 21124 41965 21430 81401 10294 20250 30036 40045 59009 70460 88460 333 60248==
41965,2024,08,21,15,00,AAXX 21154 41965 02430 80000 10265 20250 30054 40063 8461/ 333 59010 70310 83618 88460==
41965,2024,08,21,21,00,AAXX 21214 41965 01430 81402 10260 20240 30058 40067 76166 8461/ 333 59009 70570 81710 83618 88456==
41965,2024,08,22,00,00,AAXX 22004 41965 21430 81801 10275 20260 30039 40048 70262 8461/ 333 59015 60138 70570 81710 83618 88460==
41965,2024,08,22,03,00,AAXX 22034 41965 01430 80000 10240 20220 30060 40069 76396 8461/ 333 20260 59009 71240 81710 83618 88456==
41965,2024,08,22,06,00,AAXX 22064 41965 21430 80000 10240 20220 30059 40068 76366 8461/ 333 59001 60809 71370 81710 83618 88456==
41965,2024,08,22,09,00,AAXX 22094 41965 01440 81802 10260 20240 30028 40037 70266 8461/ 333 59012 71180 83618 88456==
41965,2024,08,22,12,00,AAXX 22124 41965 11430 81702 10264 20240 30032 40041 60056 70262 8461/ 333 10261 59004 71180 83618 88460==
41965,2024,08,22,15,00,AAXX 22154 41965 02430 80000 10260 20230 30057 40066 8461/ 333 58003 71180 83618 88460==
41965,2024,08,22,18,00,AAXX 22184 41965 NIL=
41966,2024,08,16,00,00,AAXX 16004 41966 02440 61301 10265 20260 39958 40037 83510 333 59016 70010 83616 85460==
41966,2024,08,16,03,00,AAXX 16034 41966 02450 61501 10285 20250 39958 40036 83510 333 20254 59018 70010 83616 85460==
41966,2024,08,16,06,00,AAXX 16064 41966 01350 81801 10280 20260 39961 40039 76162 8472/ 333 59004 70010 82709 83615 88460==
41966,2024,08,16,09,00,AAXX 16094 41966 01350 81701 10280 20270 39941 40019 76166 8472/ 333 59006 70040 82709 83615 88460==
41966,2024,08,16,12,00,AAXX 16124 41966 21340 81801 10275 20270 39948 40026 76166 8472/ 333 10293 59004 60039 70040 82709 83615 88460==
41966,2024,08,16,15,00,AAXX 16154 41966 01430 81701 10270 20260 39953 40032 72166 8352/ 333 59016 70046 83616 88460==
41966,2024,08,16,18,00,AAXX 16184 41966 01320 81701 10250 20240 39955 40034 76266 8472/ 333 59018 70146 82709 83615 88460==
41966,2024,08,16,21,00,AAXX 16214 41966 01320 81601 10250 20240 39952 40031 76366 8472/ 333 59018 70496 82709 83615 88460==
41966,2024,08,17,00,00,AAXX 17004 41966 21330 81602 10250 20240 39950 40029 76366 8472/ 333 59008 60519 70660 82709 83615 88460==
41966,2024,08,17,03,00,AAXX 17034 41966 01330 81302 10250 20240 39965 40044 76366 8472/ 333 20243 58008 71176 82709 83615 88460==
41966,2024,08,17,06,00,AAXX 17064 41966 21330 81802 10250 20240 39963 40042 76366 8472/ 333 58003 60689 71326 82709 83615 88460==
41966,2024,08,17,09,00,AAXX 17094 41966 01340 81601 10265 20250 39946 40024 72166 8462/ 333 58005 71456 82709 83615 88460==
41966,2024,08,17,12,00,AAXX 17124 41966 21330 81701 10270 20250 39958 40037 70262 8462/ 333 10278 58011 60158 71456 82709 83615 88460==
41966,2024,08,17,15,00,AAXX 17154 41966 02320 81601 10270 20250 39960 40039 8462/ 333 58007 71440 82616 83616 88460==
41966,2024,08,17,18,00,AAXX 17184 41966 01320 81501 10260 20250 39966 40045 72122 8462/ 333 58011 70006 82709 83615 88460==
41966,2024,08,17,21,00,AAXX 17214 41966 02320 81701 10255 20250 39954 40033 8462/ 333 58002 70996 82709 83615 88460==
41966,2024,08,18,00,00,AAXX 18004 41966 02340 81301 10255 20250 39963 40042 8462/ 333 58013 70832 82709 83615 88460==
41966,2024,08,18,03,00,AAXX 18034 41966 02340 81201 10260 20250 39965 40044 8462/ 333 20248 58000 70316 82709 83615 88460==
41966,2024,08,18,06,00,AAXX 18064 41966 21340 81901 10267 20260 39974 40052 76162 8472/ 333 58010 60057 70206 82709 83616 88460==
41966,2024,08,18,12,00,AAXX 18124 41966 21330 81501 10265 20260 39966 40044 72166 8462/ 333 10273 58007 60029 70078 82709 83615 88460==
41966,2024,08,18,18,00,AAXX 18184 41966 NIL=
41966,2024,08,19,00,00,AAXX 19004 41966 01330 80802 10248 20240 39963 40042 76162 8472/ 333 58000 70110 82709 83615 88460==
41966,2024,08,19,03,00,AAXX 19034 41966 01330 81502 10255 20250 39983 40062 76166 8472/ 333 20245 58018 70432 82709 83616 88460==
41966,2024,08,19,06,00,AAXX 19064 41966 21330 81502 10258 20250 39978 40057 76366 8472/ 333 58005 60499 70626 82709 83616 88460==
41966,2024,08,19,09,00,AAXX 19094 41966 01340 81801 10260 20250 39953 40032 72166 8472/ 333 59009 70674 82709 83615 88460==
41966,2024,08,19,12,00,AAXX 19124 41966 21330 81502 10263 20240 39954 40033 70262 8462/ 333 10267 59011 60068 70664 82709 83615 88460==
41966,2024,08,19,15,00,AAXX 19154 41966 02320 81801 10260 20250 39959 40037 8462/ 333 59008 70664 82709 83615 88460==
41966,2024,08,19,21,00,AAXX 19214 41966 02320 81501 10255 20230 39971 40050 8462/ 333 58016 70664 82709 83615 88460==
41966,2024,08,20,00,00,AAXX 20004 41966 01330 80902 10260 20230 39971 40050 76122 8472/ 333 58008 70006 82709 83615 88460==
41966,2024,08,20,03,00,AAXX 20034 41966 01440 61301 10285 20260 39998 40076 70162 83510 333 20245 58014 70312 83616 85460==
41966,2024,08,20,06,00,AAXX 20064 41966 01320 81902 10260 20250 39995 40074 76366 8472/ 333 58017 70562 82709 83616 88460==
41966,2024,08,20,09,00,AAXX 20094 41966 01330 81502 10270 20260 39975 40054 76166 8472/ 333 58022 70672 82709 83616 88460==
41966,2024,08,20,12,00,AAXX 20124 41966 21330 81602 10268 20260 39975 40054 76366 8472/ 333 10295 58021 60279 70772 82709 83616 88460==
41966,2024,08,20,21,00,AAXX 20214 41966 02420 61201 10265 20260 39992 40071 83510 333 58021 70812 83616 85460==
41966,2024,08,21,00,00,AAXX 21004 41966 02440 61301 10260 20240 39993 40072 83510 333 58022 70806 83616 85460==
41966,2024,08,21,03,00,AAXX 21034 41966 02450 61401 10290 20260 30010 40088 83510 333 20252 58012 70804 83616 85460==
41966,2024,08,21,06,00,AAXX 21064 41966 01340 81502 10282 20260 30000 40078 76162 8362/ 333 58004 70020 82709 83616 88460==
41966,2024,08,21,09,00,AAXX 21094 41966 01340 81802 10272 20250 39983 40062 72162 8362/ 333 58008 70259 82709 83616 88460==
41966,2024,08,21,12,00,AAXX 21124 41966 01330 81401 10260 20250 39978 40057 76262 8472/ 333 10310 58003 70339 82709 83615 88460==
41966,2024,08,21,15,00,AAXX 21154 41966 01320 81501 10260 20250 39994 40073 70262 8472/ 333 58010 70309 82709 83615 88460==
41966,2024,08,21,21,00,AAXX 21214 41966 01320 81701 10255 20250 39992 40071 76366 8472/ 333 58006 70674 82709 83615 88460==
41966,2024,08,22,00,00,AAXX 22004 41966 21330 80902 10250 20240 39981 40060 76366 8472/ 333 59012 60409 70859 82709 83615 88460==
41966,2024,08,22,03,00,AAXX 22034 41966 01330 81302 10250 20240 30009 40088 76566 8472/ 333 20240 58000 71569 82709 83615 88460==
41966,2024,08,22,06,00,AAXX 22064 41966 21330 81201 10255 20250 39996 40075 76366 8472/ 333 59003 60949 71775 82709 83615 88460==
41966,2024,08,22,09,00,AAXX 22094 41966 01340 81501 10273 20260 39973 40052 72166 8472/ 333 59010 71710 82709 83615 88460==
41966,2024,08,22,12,00,AAXX 22124 41966 21440 71301 10270 20250 39978 40057 70162 83510 333 10282 58000 60038 71530 83616 86460==
41966,2024,08,22,15,00,AAXX 22154 41966 02430 71501 10268 20250 39993 40072 83510 333 59001 71520 83616 86460==
41966,2024,08,22,18,00,AAXX 22184 41966 NIL=
41977,2024,08,16,00,00,AAXX 16004 41977 02456 80000 10267 20260 30001 40039 8452/ 333 59023 70000 84618 88460==
41977,2024,08,16,03,00,AAXX 16034 41977 01330 80000 10270 20270 30017 40055 76162 8672/ 333 20265 59010 70010 84707 88458==
41977,2024,08,16,06,00,AAXX 16064 41977 21330 81303 10279 20270 30009 40047 76162 8572/ 333 59007 60039 70032 84707 88458==
41977,2024,08,16,09,00,AAXX 16094 41977 01330 81802 10271 20260 39990 40028 76162 8572/ 333 59005 70062 84707 88458==
41977,2024,08,16,12,00,AAXX 16124 41977 21330 81802 10270 20260 39982 40019 76162 8572/ 333 10283 59018 60059 70082 84707 88458==
41977,2024,08,16,15,00,AAXX 16154 41977 01330 81303 10262 20260 30012 40050 76166 8672/ 333 59011 70192 84707 88458==
41977,2024,08,16,18,00,AAXX 16184 41977 21330 81304 10257 20257 30011 40049 76366 8772/ 333 59003 60229 70306 83708 84614 88458==
41977,2024,08,16,21,00,AAXX 16214 41977 02330 81305 10256 20256 39989 40027 8772/ 333 59013 70706 83708 85614 88458==
41977,2024,08,17,00,00,AAXX 17004 41977 21330 81804 10258 20258 39991 40029 76366 8772/ 333 59010 60719 71016 83708 85612 88458==
41977,2024,08,17,03,00,AAXX 17034 41977 01430 81902 10260 20260 30002 40040 76166 8572/ 333 20250 59015 71032 83709 83615 88458==
41977,2024,08,17,06,00,AAXX 17064 41977 21450 80000 10266 20250 39999 40037 70262 8472/ 333 59010 60048 71024 83709 88460==
41977,2024,08,17,09,00,AAXX 17094 41977 01450 80000 10270 20260 39989 40027 70262 8472/ 333 59001 71004 83709 88460==
41977,2024,08,17,12,00,AAXX 17124 41977 21440 80901 10273 20260 39995 40033 70262 8472/ 333 10273 58013 60028 70994 83709 88460==
41977,2024,08,17,15,00,AAXX 17154 41977 01330 81802 10263 20260 30027 40065 79566 8692/ 333 58015 70904 84707 88458 81928==
41977,2024,08,17,18,00,AAXX 17184 41977 21330 81304 10260 20260 30026 40064 72196 8672/ 333 58015 60239 70998 83708 84614 88458==
41977,2024,08,17,21,00,AAXX 17214 41977 01330 81805 10260 20260 30010 40048 76162 8772/ 333 58021 70658 83708 85614 88458==
41977,2024,08,18,00,00,AAXX 18004 41977 21330 81305 10261 20260 30015 40053 76362 8772/ 333 58024 60107 70388 83708 85614 88458==
41977,2024,08,18,03,00,AAXX 18034 41977 01330 81303 10262 20262 30029 40067 76366 8772/ 333 20250 58027 70448 84707 88458==
41977,2024,08,18,06,00,AAXX 18064 41977 21350 81803 10268 20260 30027 40067 75166 8672/ 333 58028 60109 70450 83709 88458==
41977,2024,08,18,12,00,AAXX 18124 41977 21330 82201 10270 20260 30013 40051 76162 8672/ 333 10273 58018 60078 70504 84707 88458==
41977,2024,08,18,15,00,AAXX 18154 41977 01440 80000 10265 20265 30034 40072 76162 8472/ 333 58007 70494 84709 88458==
41977,2024,08,18,18,00,AAXX 18184 41977 21450 80000 10261 20250 30030 40068 70262 8452/ 333 58004 60015 70286 84616 88460==
41977,2024,08,19,00,00,AAXX 19004 41977 21320 80000 10256 20256 30014 40052 76166 8572/ 333 59001 60829 71012 85707 88457==
41977,2024,08,19,03,00,AAXX 19034 41977 01330 81803 10260 20260 30025 40063 76566 8772/ 333 20252 59004 71182 85707 88458==
41977,2024,08,19,06,00,AAXX 19064 41977 21330 81803 10260 20260 30021 40059 76366 8672/ 333 59006 60329 71232 84707 88458==
41977,2024,08,19,09,00,AAXX 19094 41977 01330 81801 10272 20260 30005 40043 76166 8672/ 333 59007 71188 84707 88458==
41977,2024,08,19,12,00,AAXX 19124 41977 21330 81501 10272 20270 30003 40041 76166 8672/ 333 10273 59010 60048 71198 84707 88458==
41977,2024,08,19,15,00,AAXX 19154 41977 02356 81803 10275 20270 30025 40063 8562/ 333 59009 71188 81710 85616 88458==
41977,2024,08,19,18,00,AAXX 19184 41977 02450 81305 10270 20260 30029 40067 8452/ 333 59001 71188 84615 88458==
41977,2024,08,19,21,00,AAXX 19214 41977 01340 81104 10262 20260 30017 40055 76162 8672/ 333 59002 70908 82708 84615 88458==
41977,2024,08,20,00,00,AAXX 20004 41977 21340 81304 10263 20260 30023 40061 76162 8772/ 333 58009 60087 70442 83708 84614 88458==
41977,2024,08,20,03,00,AAXX 20034 41977 01330 80000 10280 20270 30037 40075 76162 8572/ 333 20255 58012 70196 84707 88457==
41977,2024,08,20,06,00,AAXX 20064 41977 21330 82103 10267 20260 30042 40080 76166 8572/ 333 58021 60639 70746 84707 88457==
41977,2024,08,20,09,00,AAXX 20094 41977 01330 81801 10280 20270 30023 40061 76166 8572/ 333 58018 70756 84707 88457==
41977,2024,08,20,12,00,AAXX 20124 41977 21330 82101 10276 20270 30027 40065 76166 8672/ 333 10286 58024 60059 70756 84707 88457==
41977,2024,08,20,15,00,AAXX 20154 41977 01330 81302 10273 20273 30054 40092 76166 8672/ 333 58029 70800 84707 88458==
41977,2024,08,20,18,00,AAXX 20184 41977 21430 71304 10275 20270 30060 40098 70162 84570 333 58031 60058 70810 84615 85460==
41977,2024,08,20,21,00,AAXX 20214 41977 01330 81503 10272 20270 30042 40080 70362 8672/ 333 58025 70794 82708 84615 88458==
41977,2024,08,21,00,00,AAXX 21004 41977 01340 81803 10270 20270 30047 40085 72162 8672/ 333 58024 70760 82708 84615 88458==
41977,2024,08,21,03,00,AAXX 21034 41977 01330 81302 10283 20270 30057 40095 76162 8672/ 333 20256 58020 70770 84707 88458==
41977,2024,08,21,06,00,AAXX 21064 41977 01330 82303 10275 20275 30051 40089 76362 8672/ 333 58009 70246 84707 88458==
41977,2024,08,21,12,00,AAXX 21124 41977 21330 82202 10268 20268 30029 40067 76166 8672/ 333 10290 58002 60309 70496 84707 88458==
41977,2024,08,21,18,00,AAXX 21184 41977 21456 80000 10267 20267 30041 40079 70262 8372/ 333 59019 60209 70656 82709 88460==
41977,2024,08,22,00,00,AAXX 22004 41977 NIL=
41977,2024,08,22,03,00,AAXX 22034 41977 01320 80000 10255 20255 30052 40090 76566 8672/ 333 20250 59005 71592 85707 88457==
41977,2024,08,22,06,00,AAXX 22064 41977 21320 81302 10257 20257 30044 40082 76366 8672/ 333 59013 61339 71910 85707 88458==
41977,2024,08,22,09,00,AAXX 22094 41977 01320 81801 10258 20258 30019 40057 76366 8672/ 333 59013 71820 85707 88457==
41977,2024,08,22,12,00,AAXX 22124 41977 21340 81802 10271 20270 30021 40059 76162 8572/ 333 10275 59008 60098 71700 83707 83615 88457==
41977,2024,08,22,15,00,AAXX 22154 41977 02456 51301 10268 20268 30044 40082 83530 333 58001 71574 83617 85363==
41977,2024,08,22,18,00,AAXX 22184 41977 01350 80000 10263 20263 30049 40087 75152 8672/ 333 58008 70004 83707 88458==
41977,2024,08,22,21,00,AAXX 22214 41977 01440 81302 10260 20260 30032 40070 70252 8452/ 333 58008 71466 84615 88458==
41978,2024,08,16,00,00,AAXX 16004 41978 42450 81105 10268 20260 30017 40023 8432/ 333 59023 83616 89460 81928==
41978,2024,08,16,03,00,AAXX 16034 41978 01456 81106 10268 20260 30027 40035 76062 8432/ 333 20262 59013 70010 83615 88459 81925==
41978,2024,08,16,06,00,AAXX 16064 41978 01457 81308 10276 20270 30023 40029 76062 8432/ 333 59009 70038 84615 88459 81925==
41978,2024,08,16,09,00,AAXX 16094 41978 01456 81207 10271 20260 30001 40008 76166 8432/ 333 59012 70058 84614 88459 81925==
41978,2024,08,16,12,00,AAXX 16124 41978 21456 81307 10261 20261 30000 40007 76166 8432/ 333 10280 59017 60069 70098 84614 88459 81925==
41978,2024,08,16,15,00,AAXX 16154 41978 01457 81205 10262 20250 30029 40036 76166 8432/ 333 59011 70168 83615 88459 81926==
41978,2024,08,16,18,00,AAXX 16184 41978 21356 81209 10256 20250 30024 40030 76166 8432/ 333 59006 60199 70290 83709 88458 81925==
41978,2024,08,16,21,00,AAXX 16214 41978 01350 81907 10252 30012 40018 76366 8492/ 333 59007 70620 83709 88458 81925==
41978,2024,08,17,00,00,AAXX 17004 41978 21332 82012 10252 20252 30009 40015 76166 8432/ 333 59008 60679 70960 83708 88458 81920==
41978,2024,08,17,03,00,AAXX 17034 41978 01350 81705 10260 20260 30022 40028 79566 8432/ 333 20250 59007 71034 83708 88458 81926==
41978,2024,08,17,06,00,AAXX 17064 41978 21456 81608 10269 20260 30023 40030 72196 8432/ 333 58000 60109 71026 83616 88460 81928==
41978,2024,08,17,09,00,AAXX 17094 41978 01457 81507 10274 20250 30006 40012 70362 8432/ 333 58005 71020 83615 88459 81926==
41978,2024,08,17,12,00,AAXX 17124 41978 01457 81610 10277 20260 30010 40016 76162 8432/ 333 10276 58010 70986 83615 88459 81926==
41978,2024,08,17,15,00,AAXX 17154 41978 01457 81509 10273 20260 30037 40044 71792 8432/ 333 58008 70916 83614 88459 81925==
41978,2024,08,17,18,00,AAXX 17184 41978 21457 81407 10270 20260 30042 40049 71796 8432/ 333 58018 69977 70801 83614 88459 81925==
41978,2024,08,17,21,00,AAXX 17214 41978 01457 81407 10268 20260 30036 40043 76196 8432/ 333 58024 70571 83614 88459 81925==
41978,2024,08,18,00,00,AAXX 18004 41978 21435 81308 10256 20256 30028 40035 76196 8432/ 333 60179 70301 84614 88459 81925==
41978,2024,08,18,03,00,AAXX 18034 41978 01340 81206 10263 20260 30038 40044 76166 8432/ 333 20255 58016 70293 83708 88458 81926==
41978,2024,08,18,06,00,AAXX 18064 41978 21450 81706 10268 20260 30040 40047 76166 8432/ 333 58017 60129 70313 83614 88459 81926==
41978,2024,08,18,09,00,AAXX 18094 41978 01350 81507 10277 20270 30027 40033 76166 8432/ 333 58021 70339 83709 88458 81928==
41978,2024,08,18,12,00,AAXX 18124 41978 21450 81406 10272 20250 30027 40033 70266 8432/ 333 10278 58017 60049 70335 83616 88459 81929==
41978,2024,08,18,15,00,AAXX 18154 41978 01457 81306 10267 20260 30050 40056 76122 8432/ 333 58013 70341 83615 88459 81928==
41978,2024,08,18,18,00,AAXX 18184 41978 21457 81205 10264 20250 30049 40055 70362 8432/ 333 58007 69965 70334 83616 88459 81928==
41978,2024,08,18,21,00,AAXX 18214 41978 01350 81308 10258 20250 30033 40039 76166 8432/ 333 58007 70634 83709 88458 81926==
41978,2024,08,19,00,00,AAXX 19004 41978 21432 81308 10254 20254 30026 40033 76166 8432/ 333 58005 60729 70886 83708 88458 81925==
41978,2024,08,19,03,00,AAXX 19034 41978 01340 81707 10258 20258 30043 40050 76166 8432/ 333 20251 58005 71120 83709 88458 81920==
41978,2024,08,19,06,00,AAXX 19064 41978 21340 81615 10260 20260 30038 40045 79566 8492/ 333 58015 60479 71240 83708 88458 81920==
41978,2024,08,19,09,00,AAXX 19094 41978 01457 81604 10273 20260 30014 40020 72196 8432/ 333 59013 71226 84616 88459 81928==
41978,2024,08,19,12,00,AAXX 19124 41978 12457 81508 10274 20260 30017 40023 60036 8432/ 333 10278 59010 71224 84616 88459 81929==
41978,2024,08,19,15,00,AAXX 19154 41978 02457 81312 10273 20260 30041 40047 8432/ 333 59009 71218 83616 88459 81929==
41978,2024,08,19,18,00,AAXX 19184 41978 02457 81312 10270 20260 30042 40048 8432/ 333 59007 71218 83616 88459 81929==
41978,2024,08,19,21,00,AAXX 19214 41978 02457 81410 10267 20260 30037 40043 8432/ 333 58004 70818 83616 88459 81929==
41978,2024,08,20,00,00,AAXX 20004 41978 21456 81315 10264 20260 30034 40040 76162 8432/ 333 58008 60137 70626 84614 88458 81928==
41978,2024,08,20,03,00,AAXX 20034 41978 01440 82007 10288 20270 30053 40060 76166 8432/ 333 20255 59010 70366 84614 88459 81925==
41978,2024,08,20,06,00,AAXX 20064 41978 01316 82116 10272 20272 30062 40069 76562 8532/ 333 58024 70756 84709 88459 81925==
41978,2024,08,20,09,00,AAXX 20094 41978 01335 81910 10279 20270 30037 40044 76566 8532/ 333 58023 71130 84709 88458 81920==
41978,2024,08,20,12,00,AAXX 20124 41978 01340 82010 10274 20260 30044 40051 76566 8532/ 333 10290 58027 71190 84709 88458 81920==
41978,2024,08,20,15,00,AAXX 20154 41978 01450 71705 10278 20270 30068 40075 72166 84320 333 58027 71238 83616 87460 81928==
41978,2024,08,20,18,00,AAXX 20184 41978 21456 71507 10276 20270 30074 40080 70262 84320 333 58032 60058 71238 83616 87460 81928==
41978,2024,08,20,21,00,AAXX 20214 41978 02456 71606 10274 20270 30059 40065 84320 333 58022 71238 83616 87460 81928==
41978,2024,08,21,00,00,AAXX 21004 41978 21340 81406 10272 20270 30064 40070 76162 8432/ 333 58030 60037 71134 83709 88459 81926==
41978,2024,08,21,03,00,AAXX 21034 41978 01456 81707 10291 20270 30077 40083 76162 8432/ 333 20261 58024 71108 83615 88460 81928==
41978,2024,08,21,06,00,AAXX 21064 41978 01440 82216 10288 20280 30067 40074 76162 8432/ 333 58005 70580 83615 88459 81925==
41978,2024,08,21,09,00,AAXX 21094 41978 01435 82209 10284 20270 30048 40055 76162 8532/ 333 58011 70220 84612 88459 81925==
41978,2024,08,21,12,00,AAXX 21124 41978 01440 81307 10274 20274 30042 40049 76162 8532/ 333 10294 59002 70240 84612 88459 81925==
41978,2024,08,21,15,00,AAXX 21154 41978 01440 81310 10267 20267 30057 40064 76166 8532/ 333 59011 70312 84612 88458 81925==
41978,2024,08,21,18,00,AAXX 21184 41978 21440 81608 10264 20264 30060 40067 76166 8532/ 333 59014 60369 70552 84612 88458 81925==
41978,2024,08,21,21,00,AAXX 21214 41978 01440 81608 10264 20264 30046 40053 76166 8532/ 333 59013 70752 84612 88458 81925==
41978,2024,08,22,00,00,AAXX 22004 41978 21440 81610 10270 20270 30044 40051 76166 8532/ 333 59020 60369 70886 84612 88458 81925==
41978,2024,08,22,03,00,AAXX 22034 41978 01314 82707 10253 20250 30071 40077 79596 8632/ 333 20252 59006 71418 83708 88458 81920==
41978,2024,08,22,06,00,AAXX 22064 41978 21335 81504 10258 20258 30063 40070 79596 8632/ 333 59004 60729 71566 85706 88458 81920==
41978,2024,08,22,09,00,AAXX 22094 41978 01456 81605 10260 20250 30031 40038 76196 8532/ 333 59017 71588 84612 88459 81925==
41978,2024,08,22,12,00,AAXX 22124 41978 21457 71203 10272 20260 30037 40043 70296 84320 333 10263 59005 60088 71518 83616 87460 81929==
41978,2024,08,22,15,00,AAXX 22154 41978 02456 71206 10270 20260 30060 40067 83520 333 58006 71398 83616 87460==
41978,2024,08,22,18,00,AAXX 22184 41978 01450 81909 10267 20260 30066 40072 72162 8432/ 333 58006 70040 83614 88459 81925==
41978,2024,08,22,21,00,AAXX 22214 41978 02450 81709 10266 20260 30057 40064 8432/ 333 58011 70998 83614 88459 81925==
41980,2024,08,16,00,00,AAXX 16004 41980 32450 60000 10357 20250 39925 40037 83510 333 56990 59015 70000 83617 83458=
41980,2024,08,16,06,00,AAXX 16064 41980 NIL=
41980,2024,08,16,12,00,AAXX 16124 41980 32340 80000 10260 20250 39910 40022 60082 8462/ 333 10277 56999 59009 70090 81710 83617 88458=
41980,2024,08,17,00,00,AAXX 17004 41980 NIL=
41980,2024,08,17,03,00,AAXX 17034 41980 NIL=
41980,2024,08,17,12,00,AAXX 17124 41980 32340 80504 10264 20240 39921 40033 60818 8462/ 333 10270 56499 58011 71430 82708 83617 88458=
41980,2024,08,18,00,00,AAXX 18004 41980 11340 81804 10251 20240 39933 40046 60144 76362 8472/ 333 56499 58017 71040 82708 83617 88457=
41980,2024,08,18,06,00,AAXX 18064 41980 NIL=
41980,2024,08,18,12,00,AAXX 18124 41980 21340 80000 10260 20250 39932 40044 60168 70262 8362/ 333 10274 56999 58011 70540 81710 83617 88457=
41980,2024,08,18,18,00,AAXX 18184 41980 NIL=
41980,2024,08,19,00,00,AAXX 19004 41980 11340 81803 10252 20240 39934 40047 60074 76162 8472/ 333 56499 59001 70470 82608 83617 88457=
41980,2024,08,19,06,00,AAXX 19064 41980 NIL=
41980,2024,08,19,12,00,AAXX 19124 41980 32340 81802 10264 20250 39923 40035 60350 8462/ 333 10272 56499 59009 70850 82708 83616 88456=
41980,2024,08,20,00,00,AAXX 20004 41980 32450 81804 10265 20240 39942 40054 83510 333 56490 58008 70780 83617 84658=
41980,2024,08,20,06,00,AAXX 20064 41980 NIL=
41980,2024,08,20,12,00,AAXX 20124 41980 32450 80000 10280 20260 39947 40058 8462/ 333 10303 56999 58023 70000 81710 83617 88458=
41980,2024,08,21,00,00,AAXX 21004 41980 32450 60000 10264 20240 39966 40077 83520 333 56990 58024 70000 83616 86459=
41980,2024,08,21,06,00,AAXX 21064 41980 NIL=
41980,2024,08,21,12,00,AAXX 21124 41980 11340 81802 10260 20250 39950 40061 60383 76566 8662/ 333 10298 56499 58003 70380 83709 84616 88456=
41980,2024,08,22,00,00,AAXX 22004 41980 11340 81802 10250 20240 39956 40068 60509 76566 8662/ 333 56499 59010 70880 83709 84614 88456=
41980,2024,08,22,12,00,AAXX 22124 41980 11450 80000 10262 20240 39942 40054 70262 8452/ 333 10270 56499 59008 70840 84616 88458=
41980,2024,08,22,18,00,AAXX 22184 41980 NIL=
41984,2024,08,16,00,00,AAXX 16004 41984 21330 80000 10266 20266 30001 40003 76166 8452/ 333 59020 60089 70220 84614 88458==
41984,2024,08,16,03,00,AAXX 16034 41984 01330 80000 10268 20268 30013 40015 76166 8672/ 333 20260 59019 70240 82708 84614 88458==
41984,2024,08,16,06,00,AAXX 16064 41984 21330 80000 10270 20260 30011 40013 76166 8672/ 333 59013 60139 70250 82708 84614 88458==
41984,2024,08,16,09,00,AAXX 16094 41984 01340 82202 10273 20260 30081 49983 76166 8672/ 333 59021 70320 83707 84615 88456==
41984,2024,08,16,12,00,AAXX 16124 41984 21340 80000 10278 20270 39981 49983 76166 8672/ 333 10285 59019 60089 70330 83707 84615 88456==
41984,2024,08,16,18,00,AAXX 16184 41984 02440 80000 10275 20270 30011 40013 8352/ 333 59012 70290 83618 88458==
41984,2024,08,16,21,00,AAXX 16214 41984 01420 80000 10270 20260 30011 40013 76122 8672/ 333 58002 70260 83708 84616 88458==
41984,2024,08,17,00,00,AAXX 17004 41984 21330 80000 10266 20266 30010 40012 76162 8672/ 333 58009 60047 70250 83708 84614 88458==
41984,2024,08,17,03,00,AAXX 17034 41984 02456 63301 10290 20260 30017 40019 84510 333 20260 58004 70210 84616 86459==
41984,2024,08,17,06,00,AAXX 17064 41984 02456 73002 10315 20270 30015 40017 85410 333 58004 70120 84616 87459==
41984,2024,08,17,12,00,AAXX 17124 41984 NIL=
41984,2024,08,17,15,00,AAXX 17154 41984 02340 80000 10264 20260 30016 40018 8672/ 333 58012 70670 83707 84615 88456==
41984,2024,08,17,18,00,AAXX 17184 41984 21440 80000 10266 20266 30020 40022 70296 8372/ 333 58009 60229 70680 83618 88458==
41984,2024,08,17,21,00,AAXX 17214 41984 01325 80000 10266 20266 30016 40018 76166 8672/ 333 58005 70690 82708 84616 88458==
41984,2024,08,18,00,00,AAXX 18004 41984 21330 80000 10266 20266 30012 40014 76166 8672/ 333 58002 60069 70700 83708 84614 88458==
41984,2024,08,18,03,00,AAXX 18034 41984 01350 80000 10294 20270 30018 40020 70266 8672/ 333 20253 58001 70720 82708 84616 88458==
41984,2024,08,18,06,00,AAXX 18064 41984 21456 82302 10303 20260 30021 40023 70266 8542/ 333 58006 60049 70740 84616 88458==
41984,2024,08,18,09,00,AAXX 18094 41984 02456 51803 10310 20270 30006 40008 83510 333 58021 70740 83618 85458==
41984,2024,08,18,12,00,AAXX 18124 41984 02450 81803 10294 20270 39999 40001 8352/ 333 10315 58002 70320 83618 88458==
41984,2024,08,18,18,00,AAXX 18184 41984 02440 50000 10280 20270 30031 40033 83510 333 58011 70100 83618 85458==
41984,2024,08,19,06,00,AAXX 19064 41984 NIL=
41984,2024,08,19,12,00,AAXX 19124 41984 21450 80000 10291 20270 39990 49992 70266 8352/ 333 10309 59009 60058 70400 83618 88458==
41984,2024,08,19,18,00,AAXX 19184 41984 01440 80000 10282 20270 30023 40025 70262 8352/ 333 59008 70010 83618 88458==
41984,2024,08,20,06,00,AAXX 20064 41984 01325 82302 10263 20263 30044 40046 79596 8692/ 333 20258 58024 70650 82708 84614 88458 81930==
41984,2024,08,20,12,00,AAXX 20124 41984 NIL=
41984,2024,08,20,21,00,AAXX 20214 41984 01425 80000 10283 20280 30047 40049 76166 8672/ 333 58022 70610 81708 84614 88458==
41984,2024,08,21,00,00,AAXX 21004 41984 21340 82304 10280 20270 30042 40044 76166 8672/ 333 58018 60069 70590 82708 84614 88458==
41984,2024,08,21,03,00,AAXX 21034 41984 01340 82306 10280 20270 30052 40054 79566 8692/ 333 20255 58008 70220 84614 88458 81930==
41984,2024,08,21,06,00,AAXX 21064 41984 21350 82306 10310 20280 30053 40055 70296 8542/ 333 58011 60078 70170 84616 88458==
41984,2024,08,21,21,00,AAXX 21214 41984 02430 80000 10288 20280 30038 40040 8542/ 333 59009 70090 84616 88458==
41984,2024,08,22,00,00,AAXX 22004 41984 21340 80000 10280 20270 30029 40031 76162 8672/ 333 59013 60097 70160 82708 84614 88458==
41984,2024,08,22,03,00,AAXX 22034 41984 01325 80000 10258 20258 30056 40058 79596 8692/ 333 20255 58004 70330 84614 88458 82928==
41984,2024,08,22,06,00,AAXX 22064 41984 21335 80000 10268 20268 30044 40046 76166 8542/ 333 59009 60299 70380 84614 88458==
41984,2024,08,22,12,00,AAXX 22124 41984 21450 80000 10273 20270 30013 40015 76166 8672/ 333 10284 59006 60039 70410 83707 84615 88456==
41984,2024,08,22,18,00,AAXX 22184 41984 01340 80000 10271 20270 30040 40042 76162 8672/ 333 59003 70070 83707 84615 88456==
41984,2024,08,22,21,00,AAXX 22214 41984 01320 80000 10265 20265 30041 40043 76166 8672/ 333 58003 70540 83708 84614 88458==
41989,2024,08,16,00,00,AAXX 16004 41989 01430 81704 10260 20250 30036 40039 76322 8572/ 333 59012 70050 82708 83614 88456==
41989,2024,08,16,03,00,AAXX 16034 41989 01450 51802 10278 20250 30045 40048 72162 83530 333 20248 59013 70090 83618 83362==
41989,2024,08,16,06,00,AAXX 16064 41989 NIL=
41989,2024,08,16,09,00,AAXX 16094 41989 01440 61704 10260 20240 30036 40039 72162 84430 333 58006 70180 83618 84362==
41989,2024,08,16,12,00,AAXX 16124 41989 NIL=
41989,2024,08,16,15,00,AAXX 16154 41989 02440 51706 10270 20250 30035 40039 84430 333 59015 70250 83618 84362==
41989,2024,08,16,21,00,AAXX 16214 41989 01430 61406 10262 20250 30026 40029 72122 84470 333 58015 70300 83618 84362==
41989,2024,08,17,00,00,AAXX 17004 41989 01440 61804 10268 20260 30021 40025 72162 84430 333 59005 70450 83618 85362==
41989,2024,08,17,03,00,AAXX 17034 41989 01330 81403 10262 20250 30036 40040 76366 8572/ 333 10260 59009 71260 82708 83614 88456==
41989,2024,08,17,06,00,AAXX 17064 41989 01440 61806 10268 20260 30039 40042 72162 83530 333 59012 71050 83618 83362==
41989,2024,08,17,09,00,AAXX 17094 41989 02450 51404 10272 20250 30025 40028 83570 333 59011 71320 83618 84362==
41989,2024,08,17,12,00,AAXX 17124 41989 02450 61803 10275 20260 30016 40019 84470 333 10279 59009 71250 83618 84460==
41989,2024,08,17,15,00,AAXX 17154 41989 02450 61704 10268 20250 30032 40035 82570 333 59003 71250 82618 84362==
41989,2024,08,17,18,00,AAXX 17184 41989 02450 51305 10266 20250 30041 40044 82570 333 59008 71250 82618 83362==
41989,2024,08,17,21,00,AAXX 17214 41989 02450 51803 10265 20250 30039 40042 82570 333 58008 71200 82618 83460==
41989,2024,08,18,00,00,AAXX 18004 41989 01330 81304 10263 20260 30030 40033 76262 8572/ 333 58008 70200 82710 83614 88458==
41989,2024,08,18,03,00,AAXX 18034 41989 01330 81806 10264 20250 30041 40044 76166 8572/ 333 20260 58005 70490 82710 83614 88456==
41989,2024,08,18,06,00,AAXX 18064 41989 NIL=
41989,2024,08,18,09,00,AAXX 18094 41989 02450 61804 10287 20270 30026 40029 82570 333 58001 70520 82618 84460==
41989,2024,08,18,12,00,AAXX 18124 41989 01440 71803 10272 20260 30017 40020 72122 83570 333 10290 58001 70020 83618 85460==
41989,2024,08,18,18,00,AAXX 18184 41989 NIL=
41989,2024,08,19,06,00,AAXX 19064 41989 NIL=
41989,2024,08,19,12,00,AAXX 19124 41989 11450 71304 10271 20250 30014 40017 60046 70262 83570 333 10280 59003 71060 82618 85460==
41989,2024,08,20,00,00,AAXX 20004 41989 01440 61803 10286 20260 30050 40053 72122 83570 333 58010 70010 83618 84460==
41989,2024,08,20,03,00,AAXX 20034 41989 01450 61802 10277 20250 30056 40059 70262 83530 333 20256 59010 70350 83618 83362==
41989,2024,08,20,06,00,AAXX 20064 41989 NIL=
41989,2024,08,20,09,00,AAXX 20094 41989 01450 51806 10300 20270 30046 40050 70262 83530 333 58025 70600 83618 84362==
41989,2024,08,20,12,00,AAXX 20124 41989 NIL=
41989,2024,08,20,21,00,AAXX 20214 41989 02440 51702 10278 20250 30068 40071 83573 333 58014 70080 83618 83460==
41989,2024,08,21,00,00,AAXX 21004 41989 01440 61403 10274 20260 30061 40064 70362 83570 333 58011 70030 83618 84460==
41989,2024,08,21,06,00,AAXX 21064 41989 NIL=
41989,2024,08,21,15,00,AAXX 21154 41989 01340 81406 10270 20260 30069 40072 76122 8572/ 333 58002 70110 82708 83614 88456==
41989,2024,08,22,00,00,AAXX 22004 41989 01450 81804 10265 20260 30059 40062 76162 8572/ 333 59002 70550 82708 83614 88456==
41989,2024,08,22,03,00,AAXX 22034 41989 01450 81402 10284 20270 30069 40068 78162 8572/ 333 20259 59008 70400 83614 88456==
41989,2024,08,22,06,00,AAXX 22064 41989 01330 81703 10259 20260 30058 40061 73632 8572/ 333 59022 70580 82708 83614 88456==
41989,2024,08,22,09,00,AAXX 22094 41989 01440 61804 10275 20260 30048 40051 72162 84470 333 59006 70840 83618 84460==
41989,2024,08,22,12,00,AAXX 22124 41989 NIL=
41989,2024,08,22,18,00,AAXX 22184 41989 NIL=
41992,2024,08,16,00,00,AAXX 16004 41992 21420 81202 10258 20250 30030 40032 76166 8592/ 333 59018 60159 70150 84615 88458 81925==
41992,2024,08,16,03,00,AAXX 16034 41992 01320 81810 10263 20260 30037 40039 76365 8532/ 333 20255 59018 70270 83707 85613 88458 81925==
41992,2024,08,16,06,00,AAXX 16064 41992 21320 81804 10260 20250 30031 40033 76365 8532/ 333 59014 60189 70330 83707 85613 88458 81925==
41992,2024,08,16,09,00,AAXX 16094 41992 01420 81505 10265 20260 30013 40015 76166 8592/ 333 59016 70390 84615 88458 81925==
41992,2024,08,16,12,00,AAXX 16124 41992 21420 81506 10265 20260 30017 40019 75166 8592/ 333 10265 59011 60079 70400 84615 88458 81925==
41992,2024,08,16,15,00,AAXX 16154 41992 01425 80000 10260 20240 30039 40041 70522 8432/ 333 59009 70400 83616 88460 81925==
41992,2024,08,16,18,00,AAXX 16184 41992 01415 80000 10260 20260 30037 40039 76322 8592/ 333 59007 70050 84614 88458 81925==
41992,2024,08,16,21,00,AAXX 16214 41992 01415 81505 10278 20270 30024 40026 76166 8592/ 333 59006 70440 84615 88458 81925==
41992,2024,08,17,00,00,AAXX 17004 41992 21420 81505 10270 20260 30031 40033 75166 8592/ 333 58001 60049 70340 84615 88458 81925==
41992,2024,08,17,03,00,AAXX 17034 41992 01320 81806 10270 20260 30042 40044 76155 8592/ 333 20255 58005 70240 83708 85614 88458 81925==
41992,2024,08,17,06,00,AAXX 17064 41992 21320 82103 10272 20250 30037 40039 76165 8592/ 333 58006 60079 70230 83708 85614 88458 81925==
41992,2024,08,17,09,00,AAXX 17094 41992 01420 81804 10280 20260 30022 40024 75166 8592/ 333 58009 70180 84615 88458 81925==
41992,2024,08,17,12,00,AAXX 17124 41992 21425 81505 10270 20250 30026 40028 70565 8592/ 333 10285 58011 60015 70170 84615 88458 81925==
41992,2024,08,17,15,00,AAXX 17154 41992 01425 81502 10266 20250 30052 40054 70522 8532/ 333 58013 70170 84615 88458 81925==
41992,2024,08,17,18,00,AAXX 17184 41992 01320 82102 10262 20250 30053 40055 76122 8692/ 333 58016 70030 82708 85614 88458 81925==
41992,2024,08,17,21,00,AAXX 17214 41992 01315 81506 10265 20265 30035 40037 76566 8692/ 333 58011 70810 82709 84614 88458 81925==
41992,2024,08,18,00,00,AAXX 18004 41992 21320 81505 10260 20260 30041 40043 76366 8692/ 333 58010 61299 71400 82708 84613 88456 81925==
41992,2024,08,18,03,00,AAXX 18034 41992 01320 81604 10263 20260 30055 40057 76166 8692/ 333 20253 58013 71940 83707 85613 88458 81925==
41992,2024,08,18,06,00,AAXX 18064 41992 21320 81705 10270 20260 30053 40055 76166 8692/ 333 58016 60589 71910 83707 85613 88458 81925==
41992,2024,08,18,09,00,AAXX 18094 41992 01420 81805 10270 20260 30043 40045 76166 8592/ 333 58017 71920 84614 88458 81925==
41992,2024,08,18,12,00,AAXX 18124 41992 21420 80000 10265 20260 30038 40040 76166 8592/ 333 10275 58012 60049 71940 84614 88458 81925==
41992,2024,08,18,15,00,AAXX 18154 41992 01320 80000 10263 20250 30057 40059 75155 8432/ 333 58005 71940 84614 88458 81925==
41992,2024,08,18,18,00,AAXX 18184 41992 21420 80000 10264 20250 30060 40062 75155 8432/ 333 58007 60009 71910 84614 88458 81925==
41992,2024,08,18,21,00,AAXX 18214 41992 01315 80904 10255 20255 30033 40035 76366 8692/ 333 59002 71500 82708 84613 88456 81925==
41992,2024,08,19,00,00,AAXX 19004 41992 22320 81505 10258 20255 30050 40052 8692/ 333 58009 60799 71410 82708 84613 88456 81925==
41992,2024,08,19,03,00,AAXX 19034 41992 01315 81703 10250 20250 30057 40059 79566 8692/ 333 20250 58002 71220 83707 85613 88458 81925==
41992,2024,08,19,06,00,AAXX 19064 41992 21320 81604 10258 20258 30055 40057 76196 8692/ 333 58002 60729 71550 83737 85613 88458 81925==
41992,2024,08,19,09,00,AAXX 19094 41992 01320 82105 10265 20260 30032 40034 76166 8692/ 333 59011 71660 82708 84613 88458 81925==
41992,2024,08,19,12,00,AAXX 19124 41992 21320 82104 10266 20250 30032 40034 75165 8692/ 333 10268 59006 60149 71650 82708 84614 88458 81925==
41992,2024,08,19,15,00,AAXX 19154 41992 01420 80000 10270 20250 30058 40060 75155 8592/ 333 58001 71650 84614 88458 81925==
41992,2024,08,19,18,00,AAXX 19184 41992 01420 80000 10268 20260 30060 40062 75152 8592/ 333 58000 71650 84614 88458 81925==
41992,2024,08,19,21,00,AAXX 19214 41992 01320 81805 10268 20260 30047 40049 75166 8692/ 333 58014 71370 82708 84614 88458 81925==
41992,2024,08,20,00,00,AAXX 20004 41992 21420 80905 10264 20260 30052 40054 75165 8592/ 333 58002 60019 70870 84615 88458 81925==
41992,2024,08,20,03,00,AAXX 20034 41992 01430 41705 10300 20270 30069 40071 70522 83330 333 20247 58012 70500 82616 84362 81925==
41992,2024,08,20,06,00,AAXX 20064 41992 11430 71705 10300 20270 30072 40074 60006 70552 84330 333 58017 70150 83616 87362 81925==
41992,2024,08,20,09,00,AAXX 20094 41992 01430 71508 10300 20270 30053 40055 70522 85920 333 58021 70020 84615 87460 81925==
41992,2024,08,20,12,00,AAXX 20124 41992 01430 71506 10287 20270 30053 40055 70522 84530 333 10308 58021 70010 84616 87362==
41992,2024,08,20,15,00,AAXX 20154 41992 01420 82104 10276 20260 30077 40079 70552 8532/ 333 58019 70010 84615 88458 81925==
41992,2024,08,20,18,00,AAXX 20184 41992 21420 81803 10280 20260 30086 40088 70552 8532/ 333 58026 60005 70010 84615 88458 81925==
41992,2024,08,20,21,00,AAXX 20214 41992 41420 81505 10278 20270 30066 40068 70522 8592/ 333 58019 84615 88458 81925==
41992,2024,08,21,00,00,AAXX 21004 41992 01420 81505 10276 20270 30073 40075 75122 8592/ 333 59021 70000 84615 88458 81925==
41992,2024,08,21,03,00,AAXX 21034 41992 01425 61503 10295 20280 30085 40087 70565 84330 333 20273 58016 70030 83616 86362 81925==
41992,2024,08,21,06,00,AAXX 21064 41992 01430 60000 10310 20270 30078 40080 70565 83330 333 58006 70050 82616 86362 81925==
41992,2024,08,21,09,00,AAXX 21094 41992 01425 80000 10282 20250 30060 40062 75122 8492/ 333 58007 70050 83614 88458 81925==
41992,2024,08,21,12,00,AAXX 21124 41992 11425 80000 10278 20260 30056 40058 60001 70552 8432/ 333 10320 58003 70050 83616 88460 81925==
41992,2024,08,21,15,00,AAXX 21154 41992 01420 80000 10268 20260 30072 40074 75162 8432/ 333 59005 70080 84614 88458 81925==
41992,2024,08,21,18,00,AAXX 21184 41992 21320 81804 10270 20260 30075 40077 76365 8432/ 333 59011 60209 70250 82707 84613 88458 81925==
41992,2024,08,21,21,00,AAXX 21214 41992 01315 81808 10268 20268 30052 40054 76566 8692/ 333 59014 71050 82708 84613 88456 81925==
41992,2024,08,22,00,00,AAXX 22004 41992 21320 81808 10262 20260 30058 40060 76566 8692/ 333 59015 61379 71620 82708 84613 88456 81925==
41992,2024,08,22,03,00,AAXX 22034 41992 01320 80000 10262 20260 30063 40065 76166 8692/ 333 20250 59002 72140 83708 85613 88458 81925==
41992,2024,08,22,06,00,AAXX 22064 41992 21320 82103 10264 20250 30072 40074 76166 8692/ 333 59006 60789 72350 83708 85613 88458 81925==
41992,2024,08,22,09,00,AAXX 22094 41992 01320 81505 10270 20260 30046 40048 76166 8692/ 333 59014 72480 82708 84613 88458 81925==
41992,2024,08,22,12,00,AAXX 22124 41992 21320 81804 10262 20250 30046 40048 76366 8692/ 333 10270 59010 60409 72750 83708 85613 88456 81925==
41992,2024,08,22,15,00,AAXX 22154 41992 01420 81503 10265 20260 30071 40073 76166 8592/ 333 59001 72730 84614 88458 81925==
41992,2024,08,22,18,00,AAXX 22184 41992 21420 80000 10265 20260 30076 40078 71062 8432/ 333 58001 60018 72560 83616 88460 81925==
41992,2024,08,22,21,00,AAXX 22214 41992 01315 81502 10252 20250 30064 40066 76166 8692/ 333 58012 72030 82708 84613 88458 81925==
41998,2024,08,16,00,00,AAXX 16004 41998 NIL=
41998,2024,08,16,03,00,AAXX 16034 41998 01456 80000 10280 20260 30040 40046 76166 8442/ 333 20265 59008 70300 83616 88456==
41998,2024,08,16,06,00,AAXX 16064 41998 21456 80000 10282 20260 30043 40049 76166 8442/ 333 58006 60319 70530 83616 88456==
41998,2024,08,16,12,00,AAXX 16124 41998 21456 80000 10268 20260 30024 40030 70262 8442/ 333 10287 59002 60108 70560 83616 88456==
41998,2024,08,17,00,00,AAXX 17004 41998 NIL=
41998,2024,08,17,03,00,AAXX 17034 41998 01456 80000 10280 20260 30037 40043 76166 8442/ 333 20264 59008 70560 83616 88456==
41998,2024,08,17,09,00,AAXX 17094 41998 21456 80000 10276 20250 30027 40033 76366 8442/ 333 59016 60349 70590 83616 88456==
41998,2024,08,17,12,00,AAXX 17124 41998 21456 80000 10277 20260 30032 40038 70262 8442/ 333 10287 58008 60168 70650 83616 88456==
41998,2024,08,18,06,00,AAXX 18064 41998 NIL=
41998,2024,08,18,09,00,AAXX 18094 41998 01456 81901 10273 20260 30043 40049 76166 8442/ 333 58016 70430 83616 88456==
41998,2024,08,18,12,00,AAXX 18124 41998 21456 80000 10268 20260 30047 40053 76166 8442/ 333 10283 58015 60109 70470 83616 88456==
41998,2024,08,18,18,00,AAXX 18184 41998 NIL=
41998,2024,08,19,00,00,AAXX 19004 41998 21456 80000 10261 20250 30043 40049 76366 8442/ 333 58000 60179 70590 83616 88456==
41998,2024,08,19,06,00,AAXX 19064 41998 NIL=
41998,2024,08,19,09,00,AAXX 19094 41998 01456 81701 10271 20250 30026 40032 76166 8442/ 333 59017 70670 83616 88456==
41998,2024,08,19,12,00,AAXX 19124 41998 21456 80000 10268 20260 30029 40035 76166 8442/ 333 10285 59018 60099 70640 83616 88456==
41998,2024,08,20,00,00,AAXX 20004 41998 21456 80000 10265 20260 30057 40063 76166 8442/ 333 58014 60079 70500 83616 88456==
41998,2024,08,20,06,00,AAXX 20064 41998 NIL=
41998,2024,08,20,12,00,AAXX 20124 41998 02456 80000 10282 20250 30025 40031 8442/ 333 10306 59004 70160 83618 88458==
41998,2024,08,21,00,00,AAXX 21004 41998 NIL=
41998,2024,08,21,06,00,AAXX 21064 41998 NIL=
41998,2024,08,21,12,00,AAXX 21124 41998 11456 80000 10277 20250 30024 40030 60036 70262 8442/ 333 10312 59001 70030 83616 84458==
41998,2024,08,21,18,00,AAXX 21184 41998 21456 80000 10270 20250 30112 40118 76166 8442/ 333 58007 60139 70160 83616 88456==
41998,2024,08,22,00,00,AAXX 22004 41998 21456 80000 10269 20260 30117 40123 76366 8442/ 333 58006 60169 70350 83616 88456==
41998,2024,08,22,03,00,AAXX 22034 41998 01456 80000 10278 20260 30086 40092 76366 8442/ 333 20264 58001 70500 83616 88456==
41998,2024,08,22,06,00,AAXX 22064 41998 21445 70000 10290 20260 30051 40057 72166 84470 333 59034 60215 70560 83618 83458==
41998,2024,08,22,09,00,AAXX 22094 41998 01456 81603 10284 20260 30047 40053 76166 8442/ 333 59009 70570 83616 88456==
41998,2024,08,22,12,00,AAXX 22124 41998 21456 80000 10281 20260 30049 40055 70262 8442/ 333 10293 59025 60058 70570 83618 88458==
41998,2024,08,22,18,00,AAXX 22184 41998 NIL=
