ESTACION,ANO,MES,DIA,HORA,MINUTO,PARTE
41850,2024,09,27,00,00,AAXX 27004 41850 11330 80000 10235 20230 39994 40093 60679 76566 8572/ 333 56999 58019 71735 82707 84615 88457=
41850,2024,09,27,06,00,AAXX 27064 41850 11340 81302 10237 20230 30007 40106 60639 76166 8572/ 333 56999 58006 72105 82707 84615 88457=
41850,2024,09,27,12,00,AAXX 27124 41850 11340 80000 10225 20220 39990 40090 60659 76166 8572/ 333 10241 56999 58004 72275 82707 84615 88458=
41850,2024,09,27,18,00,AAXX 27184 41850 11330 81803 10227 20220 30009 40109 60036 70562 8562/ 333 56999 59005 71980 82707 84615 88458=
41850,2024,09,28,00,00,AAXX 28004 41850 11330 80000 10221 20220 39988 40088 60529 76366 8572/ 333 56999 59006 71830 82707 84615 88457=
41850,2024,09,28,06,00,AAXX 28064 41850 11350 80000 10245 20240 30002 40101 60026 70562 8572/ 333 56999 59005 71220 82707 84616 88458=
41850,2024,09,28,12,00,AAXX 28124 41850 11340 81302 10235 20230 39980 40079 60287 72166 8572/ 333 10261 56999 59010 70850 82707 84616 88457=
41850,2024,09,28,18,00,AAXX 28184 41850 31430 80000 10230 20230 30001 40101 70522 8252/ 333 56999 59008 70820 82617 88457=
41850,2024,09,29,00,00,AAXX 29004 41850 31440 80000 10226 20220 39975 40075 70522 8352/ 333 56999 59013 70300 83617 88448=
41850,2024,09,29,06,00,AAXX 29064 41850 32456 60000 10304 20240 39989 40086 83510 333 56990 59013 70280 83618 86458=
41850,2024,09,29,18,00,AAXX 29184 41850 31430 80000 10251 20240 39977 40076 70522 8252/ 333 56999 59024 70000 82618 88458=
41850,2024,09,30,00,00,AAXX 30004 41850 31430 41302 10248 20240 39970 40068 70511 82510 333 56990 59005 70000 82618 84458=
41850,2024,09,30,06,00,AAXX 30064 41850 32456 81805 10308 20250 39973 40069 8352/ 333 56999 59016 70000 83618 88458=
41850,2024,09,30,12,00,AAXX 30124 41850 31450 80902 10300 20260 39931 40028 70522 8352/ 333 10342 56999 59030 70000 83618 88458=
41850,2024,09,30,18,00,AAXX 30184 41850 31430 82303 10273 20260 39953 40051 70522 8252/ 333 56999 59024 70000 82616 88457=
41850,2024,10,01,00,00,AAXX 01004 41850 31440 80902 10264 20250 39934 40032 70522 8252/ 333 56999 59036 70000 82617 88457=
41850,2024,10,01,06,00,AAXX 01064 41850 32456 60902 10307 20260 39955 40051 82510 333 56990 59018 70000 82618 86458=
41850,2024,10,01,12,00,AAXX 01124 41850 31450 82303 10300 20270 39917 40013 70522 8352/ 333 10328 56999 59014 70000 83618 88458=
41850,2024,10,01,18,00,AAXX 01184 41850 31430 81803 10280 20260 39950 40047 70522 8352/ 333 56999 59003 70000 83618 88448=
41850,2024,10,02,00,00,AAXX 02004 41850 11430 80000 10255 20250 39942 40040 60066 70562 8352/ 333 56999 58008 70060 83618 88458=
41850,2024,10,02,06,00,AAXX 02064 41850 32456 80000 10290 20250 39954 40051 8352/ 333 56999 59001 70060 83619 88458=
41850,2024,10,02,12,00,AAXX 02124 41850 32456 60000 10293 20250 39918 40015 82530 333 10320 56990 58001 70060 82616 86360=
41850,2024,10,02,18,00,AAXX 02184 41850 NIL=
41850,2024,10,03,00,00,AAXX 03004 41850 31435 60000 10261 20250 39937 40036 70522 82510 333 56990 59005 70000 82616 86458=
41850,2024,10,03,06,00,AAXX 03064 41850 32456 70000 10302 20230 39954 40051 82510 333 56990 58000 70000 82616 87458=
41850,2024,10,03,12,00,AAXX 03124 41850 31440 80000 10260 20240 39937 40036 70522 8252/ 333 10314 56999 58019 70000 82616 88458=
41850,2024,10,03,18,00,AAXX 03184 41850 NIL=
41851,2024,09,27,00,00,AAXX 27004 41851 11350 80902 10240 20230 30032 40096 60309 76166 8472/ 333 56299 58009 71399 82708 84616 88456=
41851,2024,09,27,06,00,AAXX 27064 41851 11350 80902 10246 20246 30049 40112 60289 76166 8472/ 333 56299 58010 71264 82708 84616 88456=
41851,2024,09,27,12,00,AAXX 27124 41851 11350 80901 10240 20240 30027 40091 60209 76166 8472/ 333 10250 56299 58003 70997 82708 84616 88456=
41851,2024,09,27,18,00,AAXX 27184 41851 11350 80702 10238 20238 30039 40103 60189 70296 8462/ 333 56299 59009 70955 81708 84616 88456=
41851,2024,09,28,00,00,AAXX 28004 41851 11350 80901 10240 20230 30023 40086 60077 72162 8462/ 333 56299 59009 70728 81708 84616 88456=
41851,2024,09,28,06,00,AAXX 28064 41851 11350 80704 10260 20240 30037 40100 60208 70262 8462/ 333 56299 59012 70643 81708 84616 88456=
41851,2024,09,28,12,00,AAXX 28124 41851 11350 80000 10256 20250 30017 40080 69965 70262 8462/ 333 10275 56299 59010 70449 81708 84616 88456=
41851,2024,09,28,18,00,AAXX 28184 41851 11350 80000 10244 20240 30028 40092 60046 70262 8462/ 333 56299 59011 70306 81708 84616 88456=
41851,2024,09,29,00,00,AAXX 29004 41851 32350 80000 10245 20240 30017 40080 8462/ 333 56299 59006 70238 81708 84616 88456=
41851,2024,09,29,06,00,AAXX 29064 41851 32450 50000 10315 20250 30025 40087 82530 333 56990 59012 70043 82618 84362=
41851,2024,09,29,12,00,AAXX 29124 41851 32450 80000 10292 20250 39999 40061 8352/ 333 10320 56999 59018 70037 83618 88458=
41851,2024,09,29,18,00,AAXX 29184 41851 32450 50000 10265 20260 30015 40078 82510 333 56990 59013 70000 82618 85458=
41851,2024,09,30,00,00,AAXX 30004 41851 31940 00000 10264 20260 30011 40074 70520 333 59006 70000=
41851,2024,09,30,06,00,AAXX 30064 41851 32450 60902 10328 20260 30007 40068 82530 333 56990 59018 70000 82618 85362=
41851,2024,09,30,12,00,AAXX 30124 41851 32450 50901 10300 20270 39971 40033 82530 333 10355 56990 59028 70000 82618 84362=
41851,2024,09,30,18,00,AAXX 30184 41851 32950 00000 10278 20270 39983 40045 333 59032 70000=
41851,2024,10,01,00,00,AAXX 01004 41851 32950 00000 10265 20260 39979 40042 333 59032 70000=
41851,2024,10,01,06,00,AAXX 01064 41851 32450 81801 10316 20260 39990 40051 8352/ 333 56999 59017 70000 83618 88458=
41851,2024,10,01,12,00,AAXX 01124 41851 32450 60000 10300 20270 39957 40019 82510 333 10330 56990 59014 70000 82618 85458=
41851,2024,10,01,18,00,AAXX 01184 41851 31350 81201 10270 20260 39986 40049 8432/ 333 56399 58003 70000 81708 84616 81929 88456=
41851,2024,10,02,00,00,AAXX 02004 41851 11450 80000 10255 20250 39976 40039 60073 70296 8352/ 333 56999 59003 70072 83618 88458=
41851,2024,10,02,06,00,AAXX 02064 41851 32450 80901 10319 20270 39982 40043 8352/ 333 56999 59008 70072 83618 88458=
41851,2024,10,02,12,00,AAXX 02124 41851 11450 80000 10295 20280 39954 40016 60278 70362 8352/ 333 10330 56999 59003 70337 83618 88458=
41851,2024,10,02,18,00,AAXX 02184 41851 32950 00000 10276 20270 39977 40039 333 59009 70337=
41851,2024,10,03,00,00,AAXX 03004 41851 32450 80901 10260 20240 39976 40039 8352/ 333 56999 58000 70265 83618 88458=
41851,2024,10,03,06,00,AAXX 03064 41851 32350 80903 10294 20240 39986 40048 8462/ 333 56299 58004 70265 81708 84616 88456=
41851,2024,10,03,12,00,AAXX 03124 41851 11450 80901 10265 20250 39966 40028 60076 70262 8352/ 333 10315 56999 58012 70075 83618 88458=
41851,2024,10,03,18,00,AAXX 03184 41851 32450 80903 10255 20250 39992 40055 8352/ 333 56999 58015 70075 83618 88458=
41856,2024,09,27,00,00,AAXX 27004 41856 11330 80502 10243 20240 30062 40098 60058 70262 8572/ 333 56299 58020 70927 83710 84618 88458=
41856,2024,09,27,06,00,AAXX 27064 41856 11440 80502 10255 20250 30075 40111 60037 72162 8542/ 333 56299 58009 70527 84618 88458=
41856,2024,09,27,12,00,AAXX 27124 41856 11320 80502 10240 20240 30056 40092 60107 79196 8692/ 333 10275 56299 58002 70484 83708 85614 88456 81930=
41856,2024,09,27,18,00,AAXX 27184 41856 11430 80000 10242 20240 30066 40102 60107 8662/ 333 56299 59021 70276 83709 85615 88457=
41856,2024,09,28,00,00,AAXX 28004 41856 11430 80000 10240 20240 30052 40088 60044 70262 8662/ 333 56499 59010 70264 83709 85615 88457=
41856,2024,09,28,06,00,AAXX 28064 41856 11340 80502 10255 20250 30064 40100 60024 76162 8672/ 333 56199 59011 70249 83708 85614 88456=
41856,2024,09,28,12,00,AAXX 28124 41856 32430 80000 10260 20240 30039 40075 8662/ 333 10315 56199 59017 70149 83709 85615 88457=
41856,2024,09,28,18,00,AAXX 28184 41856 32430 80000 10255 20250 30053 40089 8662/ 333 56199 59013 70051 83709 85615 88457=
41856,2024,09,29,00,00,AAXX 29004 41856 31430 80000 10250 20250 30040 40076 70522 8662/ 333 56199 59012 70015 83709 85615 88457=
41856,2024,09,29,06,00,AAXX 29064 41856 32450 62201 10304 20250 30051 40086 83420 333 56990 59013 70000 82618 86458=
41856,2024,09,29,12,00,AAXX 29124 41856 32450 40000 10292 20260 30024 40059 83430 333 10322 56990 59015 70000 82618 84362=
41856,2024,09,29,18,00,AAXX 29184 41856 31430 40000 10270 20260 30040 40075 70522 83430 333 56990 59013 70000 82618 84362=
41856,2024,09,30,00,00,AAXX 30004 41856 31930 31801 10260 20250 30038 40074 70511 83030 333 56090 58002 70000 83362=
41856,2024,09,30,06,00,AAXX 30064 41856 32450 42302 10322 20250 30035 40070 83430 333 56990 59016 70000 82618 84362=
41856,2024,09,30,12,00,AAXX 30124 41856 32450 40000 10310 20270 39998 40033 83430 333 10345 56990 59026 70000 82618 84362=
41856,2024,09,30,18,00,AAXX 30184 41856 31430 41801 10280 20270 30013 40048 70522 83430 333 56990 59027 70000 82618 84362=
41856,2024,10,01,00,00,AAXX 01004 41856 31940 40000 10265 20260 30001 40036 70522 84030 333 56090 59037 70000 84362=
41856,2024,10,01,06,00,AAXX 01064 41856 32950 41801 10320 20260 30019 40054 83430 333 56990 59016 70000 82618 84362=
41856,2024,10,01,12,00,AAXX 01124 41856 32440 40000 10304 20260 39985 40020 83430 333 10337 56990 59013 70000 82618 83362=
41856,2024,10,01,18,00,AAXX 01184 41856 32440 60000 10281 20260 30012 40047 84430 333 56990 59001 70000 83618 84458=
41856,2024,10,02,00,00,AAXX 02004 41856 11330 81301 10254 20254 30003 40039 60117 79596 8562/ 333 56999 58002 70111 82710 84616 88456 81930=
41856,2024,10,02,06,00,AAXX 02064 41856 11450 51101 10313 20260 30007 40042 60036 70196 84430 333 56990 59012 70139 83618 83458=
41856,2024,10,02,12,00,AAXX 02124 41856 31940 40000 10294 20270 39981 40016 70522 84030 333 10336 56090 59004 70139 83362=
41856,2024,10,02,18,00,AAXX 02184 41856 31940 40000 10283 20270 30010 40045 70522 84030 333 56090 59002 70139 83362=
41856,2024,10,03,00,00,AAXX 03004 41856 32440 81302 10260 20250 39998 40033 8542/ 333 56999 59005 70028 84618 88458=
41856,2024,10,03,06,00,AAXX 03064 41856 32450 81602 10264 20230 30018 40053 8562/ 333 56999 58011 70000 82710 84618 88458=
41856,2024,10,03,12,00,AAXX 03124 41856 11450 80903 10265 20250 39993 40028 60116 70262 8352/ 333 10295 56999 58012 70112 82618 88458=
41856,2024,10,03,18,00,AAXX 03184 41856 32430 80802 10250 20230 30013 40049 8352/ 333 56999 58003 70112 82618 88457=
41858,2024,09,27,00,00,AAXX 27004 41858 01330 80906 10250 20240 30046 40092 76166 8572/ 333 58016 71832 84708 85614 88458==
41858,2024,09,27,03,00,AAXX 27034 41858 01340 80905 10255 20250 30068 40114 76166 8572/ 333 20242 58017 71500 83708 84614 88458==
41858,2024,09,27,06,00,AAXX 27064 41858 21335 80905 10258 20250 30065 40111 76166 8572/ 333 58008 60109 71242 83708 84614 88458==
41858,2024,09,27,09,00,AAXX 27094 41858 01320 80905 10265 20260 30033 40078 76366 8572/ 333 59001 71078 83708 84615 88458==
41858,2024,09,27,12,00,AAXX 27124 41858 11330 80905 10256 20250 30043 40089 60236 76166 8572/ 333 10265 58001 70820 83708 84615 88458==
41858,2024,09,27,15,00,AAXX 27154 41858 01325 80000 10240 20230 30062 40108 76166 8572/ 333 59005 70846 83708 84615 88458==
41858,2024,09,27,18,00,AAXX 27184 41858 01325 80000 10238 20230 30058 40104 70562 8572/ 333 59009 70726 83708 84615 88458==
41858,2024,09,28,00,00,AAXX 28004 41858 01330 80000 10250 20240 30042 40088 76162 8572/ 333 59004 70060 83708 84615 88458==
41858,2024,09,28,03,00,AAXX 28034 41858 01440 80000 10270 20260 30060 40106 70562 8452/ 333 20242 59008 70572 84615 88458==
41858,2024,09,28,06,00,AAXX 28064 41858 11440 70000 10310 20270 30050 40095 60016 70562 84520 333 59015 70528 84615 86458==
41858,2024,09,28,09,00,AAXX 28094 41858 01450 80906 10290 20260 30026 40071 70562 8452/ 333 59007 70482 84615 88458==
41858,2024,09,28,12,00,AAXX 28124 41858 11440 80000 10266 20260 30034 40080 60046 70562 8452/ 333 10325 59009 70342 84615 88458==
41858,2024,09,28,15,00,AAXX 28154 41858 01440 80905 10260 20240 30050 40096 70562 8452/ 333 59012 70152 84514 88458==
41858,2024,09,28,18,00,AAXX 28184 41858 01440 80000 10254 20240 30056 40102 70562 8452/ 333 59002 70010 84615 84582==
41858,2024,09,28,21,00,AAXX 28214 41858 01315 80000 10258 20250 30032 40078 71022 8572/ 333 59010 70062 83708 85614 88458==
41858,2024,09,29,00,00,AAXX 29004 41858 01305 80000 10258 20250 30032 40078 71022 8572/ 333 59010 70062 83708 85614 88458==
41858,2024,09,29,03,00,AAXX 29033 41858 01440 70000 10274 20250 30054 40100 70542 84520 333 20240 59006 70052 84615 86458==
41858,2024,09,29,06,00,AAXX 29064 41858 01450 50000 10310 20250 30045 40090 70542 85800 333 59005 70052 83618 83825==
41858,2024,09,29,09,00,AAXX 29094 41858 01450 62405 10324 20260 30023 40067 70522 83520 333 59003 70048 83616 86458==
41858,2024,09,29,15,00,AAXX 29154 41858 01440 40000 10290 20270 30033 40078 70522 82520 333 59017 70000 82615 84458==
41858,2024,09,29,18,00,AAXX 29184 41858 01440 40000 10284 20260 30043 40089 70522 82520 333 59013 70000 82615 84458==
41858,2024,09,29,21,00,AAXX 29214 41858 01/25 40000 10274 20250 30028 40074 71022 84030 333 59010 70000 84362==
41858,2024,09,30,00,00,AAXX 30004 41858 01408 60000 10272 20260 30031 40077 74242 83520 333 59001 70000 83615 85458==
41858,2024,09,30,03,00,AAXX 30034 41858 01425 60000 10295 20280 30046 40091 71042 83520 333 20260 59008 70000 83616 86458==
41858,2024,09,30,06,00,AAXX 30064 41858 01440 61805 10330 20260 30029 40073 70542 84520 333 59016 70000 84616 86458==
41858,2024,09,30,09,00,AAXX 30094 41858 01450 52806 10344 20260 39999 40043 70522 83520 333 59024 70000 83616 85458==
41858,2024,09,30,12,00,AAXX 30124 41858 01450 42104 10322 20270 39993 40037 70522 82520 333 10346 59027 70000 82618 84458==
41858,2024,09,30,15,00,AAXX 30154 41858 01440 40000 10300 20270 30011 40056 70522 82520 333 59022 70000 82615 84458==
41858,2024,09,30,18,00,AAXX 30184 41858 01440 40000 10284 20260 30014 40059 70522 82520 333 59029 70000 82615 84458==
41858,2024,09,30,21,00,AAXX 30214 41858 01/30 40000 10278 20260 39991 40036 70522 84030 333 59037 70000 84362==
41858,2024,10,01,00,00,AAXX 01004 41858 01415 60000 10275 20270 39994 40039 71022 83520 333 59037 70000 83615 85458==
41858,2024,10,01,03,00,AAXX 01034 41858 01440 62405 10298 20270 30021 40066 70522 83520 333 20270 59025 70000 83615 86458==
41858,2024,10,01,06,00,AAXX 01064 41858 01450 62705 10322 20270 30012 40056 70522 83820 333 59012 70000 83815 86458==
41858,2024,10,01,09,00,AAXX 01094 41858 01450 62702 10342 20260 39976 40020 70522 84520 333 59023 70000 84616 86458==
41858,2024,10,01,12,00,AAXX 01124 41858 01450 61802 10322 20270 39977 40021 70522 83520 333 10348 59016 70000 83618 86458==
41858,2024,10,01,15,00,AAXX 01154 41858 01440 80000 10302 20270 30001 40046 70522 8452/ 333 59010 70000 84616 88458==
41858,2024,10,01,18,00,AAXX 01184 41858 01440 82702 10294 20260 30006 40051 70522 8452/ 333 59008 70000 84616 88458==
41858,2024,10,01,21,00,AAXX 01214 41858 01435 80000 10284 20260 39991 40036 70522 8452/ 333 58000 70000 84616 88458==
41858,2024,10,02,00,00,AAXX 02004 41858 01430 80000 10274 20260 39993 40038 70522 8452/ 333 59001 70000 84616 88458==
41858,2024,10,02,03,00,AAXX 02034 41858 01440 80905 10292 20260 30013 40056 70522 8452/ 333 20268 59008 70000 84615 88458==
41858,2024,10,02,06,00,AAXX 02064 41858 01540 60605 10314 20260 30002 40047 70522 83140 333 59010 70000 83825 85362==
41858,2024,10,02,09,00,AAXX 02094 41858 01550 52705 10345 20270 39973 40016 70522 83230 333 59003 70000 83825 84362==
41858,2024,10,02,12,00,AAXX 02124 41858 01440 70302 10296 20260 39972 40016 70522 83520 333 10350 59005 70000 83615 87458==
41858,2024,10,02,15,00,AAXX 02154 41858 01440 60000 10292 20270 30000 40045 70522 83520 333 59001 70000 83616 86458==
41858,2024,10,02,18,00,AAXX 02184 41858 01440 60000 10288 20280 30003 40048 70522 83520 333 59003 70000 83616 86458==
41858,2024,10,03,00,00,AAXX 03004 41858 01440 60000 10270 20250 39991 40036 70522 84520 333 59002 70000 84616 86458==
41858,2024,10,03,03,00,AAXX 03034 41858 01440 80905 10277 20260 30013 40058 72122 8452/ 333 20265 58000 70002 84615 88458==
41858,2024,10,03,06,00,AAXX 03064 41858 21440 80905 10276 20260 30001 40046 72162 8452/ 333 59001 60187 70180 84615 88458==
41858,2024,10,03,09,00,AAXX 03094 41858 01450 80905 10270 20250 39983 40028 70562 8452/ 333 58010 70192 84615 88458==
41858,2024,10,03,12,00,AAXX 03124 41858 11450 80905 10272 20240 39983 40028 60016 70562 8452/ 333 10295 58011 70192 84615 88458==
41858,2024,10,03,15,00,AAXX 03154 41858 01450 80905 10266 20250 30006 40051 70522 8452/ 333 58006 70192 84615 88458==
41858,2024,10,03,18,00,AAXX 03184 41858 01950 60905 10260 20240 30012 40058 70522 83520 333 58009 70192 83615 86458==
41858,2024,10,03,21,00,AAXX 03214 41858 01350 80906 10260 20240 30000 40046 70522 8562/ 333 58012 70192 83708 85614 88458==
41859,2024,09,27,00,00,AAXX 27004 41859 01330 80000 10245 20245 30058 40095 76366 8572/ 333 58025 71300 83708 85616 88456==
41859,2024,09,27,03,00,AAXX 27034 41859 01340 80000 10252 20250 30078 40115 76166 8572/ 333 20250 58015 70900 83708 85616 88458==
41859,2024,09,27,06,00,AAXX 27064 41859 21340 80902 10257 20257 30074 40111 76166 8572/ 333 58007 60039 70744 83708 85616 88456==
41859,2024,09,27,09,00,AAXX 27094 41859 01340 80503 10260 20260 30044 40081 76166 8572/ 333 58000 70820 83708 85616 88456==
41859,2024,09,27,12,00,AAXX 27124 41859 21330 80000 10252 20250 30054 40091 76196 8672/ 333 10275 58002 60319 70826 84708 85616 88456==
41859,2024,09,27,15,00,AAXX 27154 41859 01430 80501 10247 20247 30070 40107 72162 8562/ 333 59003 70648 83710 84618 88458==
41859,2024,09,27,18,00,AAXX 27184 41859 11430 80902 10250 20250 30065 40102 60042 70262 8562/ 333 59010 70504 83710 84618 88458==
41859,2024,09,27,21,00,AAXX 27214 41859 01330 80901 10247 20247 30055 40092 76166 8672/ 333 59003 70412 83708 85616 88456==
41859,2024,09,28,00,00,AAXX 28004 41859 01430 80501 10244 20240 30051 40088 72162 8562/ 333 59004 70410 83710 84618 88458==
41859,2024,09,28,03,00,AAXX 28034 41859 01450 80502 10276 20270 30069 40106 70162 8562/ 333 20240 59009 70420 83710 84618 88458==
41859,2024,09,28,06,00,AAXX 28064 41859 11450 80502 10298 20270 30061 40098 60026 70362 8562/ 333 59013 70404 83710 84618 88458==
41859,2024,09,28,09,00,AAXX 28094 41859 01440 80504 10284 20240 30035 40072 70262 8562/ 333 59009 70292 83710 84618 88458==
41859,2024,09,28,12,00,AAXX 28124 41859 01440 80502 10270 20250 30036 40073 70262 8562/ 333 10312 59018 70104 83710 84618 88458==
41859,2024,09,28,15,00,AAXX 28154 41859 01330 80502 10254 20250 30056 40093 76162 8672/ 333 59014 70142 84708 85616 88456==
41859,2024,09,28,18,00,AAXX 28184 41859 21330 80502 10256 20256 30055 40092 70262 8562/ 333 59010 60079 70136 84708 85616 88456==
41859,2024,09,28,21,00,AAXX 28214 41859 02430 80000 10256 20256 30040 40077 8562/ 333 59015 70116 83710 84618 88458==
41859,2024,09,29,00,00,AAXX 29004 41859 02430 80000 10256 20256 30041 40078 8562/ 333 59010 70104 83710 84618 88458==
41859,2024,09,29,03,00,AAXX 29034 41859 02450 80000 10275 20260 30061 40098 8562/ 333 20250 59008 70082 83710 84618 88458==
41859,2024,09,29,06,00,AAXX 29064 41859 02450 60000 10300 20250 30052 40089 84620 333 59009 70082 82710 83618 86458==
41859,2024,09,29,09,00,AAXX 29094 41859 02450 51802 10315 20270 30030 40066 83430 333 59005 70074 81618 82828 85362==
41859,2024,09,29,12,00,AAXX 29124 41859 02440 60000 10296 20280 30027 40063 83530 333 10315 59009 70070 83618 86362==
41859,2024,09,29,15,00,AAXX 29154 41859 02440 60000 10296 20280 30027 40063 83530 333 10315 59009 70070 83618 86362==
41859,2024,09,29,18,00,AAXX 29184 41859 02430 80000 10276 20270 30041 40078 8462/ 333 59014 70000 82710 84618 88458==
41859,2024,09,29,21,00,AAXX 29214 41859 02430 80000 10266 20260 30036 40073 8562/ 333 59004 70000 82710 84618 88458==
41859,2024,09,30,00,00,AAXX 30004 41859 01430 81802 10270 20260 30039 40076 70522 8562/ 333 59002 70000 83710 85618 88458==
41859,2024,09,30,03,00,AAXX 30034 41859 01450 81802 10293 20270 30052 40089 70522 8562/ 333 20262 59009 70000 83710 85618 88458==
41859,2024,09,30,06,00,AAXX 30064 41859 02450 81802 10328 20260 30036 40072 8562/ 333 59016 70000 83710 85618 88458==
41859,2024,09,30,09,00,AAXX 30094 41859 41450 72701 10335 20270 30005 40042 70162 84620 333 59025 82710 84618 87458==
41859,2024,09,30,12,00,AAXX 30124 41859 11440 62702 10310 20280 30001 40037 60006 70162 83530 333 10337 59026 83618 86362==
41859,2024,09,30,15,00,AAXX 30154 41859 42/30 30000 10294 20270 30019 40056 83030 333 59023 83362==
41859,2024,09,30,18,00,AAXX 30184 41859 42430 83101 10285 20280 30012 40049 8562/ 333 59029 82710 84618 88458==
41859,2024,09,30,21,00,AAXX 30214 41859 42430 80000 10277 20270 30004 40041 8562/ 333 59032 82710 84618 88458==
41859,2024,10,01,00,00,AAXX 01004 41859 41430 80000 10272 20260 30002 40039 70522 8562/ 333 59037 82710 84618 88458==
41859,2024,10,01,03,00,AAXX 01034 41859 41450 80000 10293 20260 30030 40067 70522 8562/ 333 20265 59022 82710 84618 88458==
41859,2024,10,01,06,00,AAXX 01064 41859 42450 60000 10321 20260 30024 40060 84620 333 59012 82710 83618 86458==
41859,2024,10,01,09,00,AAXX 01094 41859 02450 70000 10330 20260 39985 40021 84470 333 59020 70000 83618 86458==
41859,2024,10,01,12,00,AAXX 01124 41859 02450 80000 10313 20260 39985 40021 8562/ 333 10337 59016 70000 82710 84618 88458==
41859,2024,10,01,15,00,AAXX 01154 41859 02430 80000 10295 20280 30009 40045 8562/ 333 59010 70000 82710 84618 88458==
41859,2024,10,01,18,00,AAXX 01184 41859 02430 80000 10287 20280 30012 40049 8562/ 333 58000 70000 82710 84618 88458==
41859,2024,10,01,21,00,AAXX 01214 41859 02430 80000 10280 20270 30003 40040 8562/ 333 59001 70000 82710 84618 88458==
41859,2024,10,02,00,00,AAXX 02004 41859 02430 80000 10275 20275 30002 40039 8562/ 333 58000 70000 82710 84618 88458==
41859,2024,10,02,03,00,AAXX 02034 41859 02450 80000 10284 20250 30019 40056 8562/ 333 20266 59011 70000 82710 84618 88458==
41859,2024,10,02,06,00,AAXX 02064 41859 02450 60000 10329 20260 30008 40044 84620 333 59016 70000 82710 83618 86458==
41859,2024,10,02,09,00,AAXX 02094 41859 02450 60502 10330 20260 39979 40015 84620 333 59006 70000 82710 83618 86458==
41859,2024,10,02,12,00,AAXX 02124 41859 02440 83602 10307 20270 39979 40015 8562/ 333 10335 59006 70000 83710 84618 88458==
41859,2024,10,02,15,00,AAXX 02154 41859 01430 80000 10275 20270 30005 40042 70262 8562/ 333 59004 70130 83710 84618 88458==
41859,2024,10,02,18,00,AAXX 02184 41859 11430 80000 10280 20270 30002 40039 60136 70262 8562/ 333 59010 70130 83710 84618 88458==
41859,2024,10,02,21,00,AAXX 02214 41859 02430 80502 10270 20260 39995 40032 8562/ 333 59008 70130 83710 84618 88458==
41859,2024,10,03,00,00,AAXX 03004 41859 02430 80502 10268 20260 39995 40032 8562/ 333 59007 70130 83710 84618 88458==
41859,2024,10,03,03,00,AAXX 03034 41859 01350 80000 10279 20260 30022 40059 76122 8572/ 333 20265 58003 70138 83708 84616 88457==
41859,2024,10,03,06,00,AAXX 03064 41859 01350 80000 10290 20270 30012 40049 76162 8572/ 333 58004 70206 83708 84616 88457==
41859,2024,10,03,09,00,AAXX 03094 41859 01450 80902 10266 20260 39987 40024 72166 8562/ 333 58008 70258 82710 84618 88458==
41859,2024,10,03,12,00,AAXX 03124 41859 11430 80902 10270 20250 39992 40029 60066 70262 8562/ 333 10295 58013 70258 82710 84618 88458==
41859,2024,10,03,15,00,AAXX 03154 41859 02430 80502 10267 20250 30017 40054 8562/ 333 58012 70128 82710 84618 88458==
41859,2024,10,03,18,00,AAXX 03184 41859 02430 80503 10260 20240 30013 40050 8562/ 333 58011 70128 83710 84618 88458==
41859,2024,10,03,21,00,AAXX 03214 41859 02430 80503 10260 20240 30008 40049 8562/ 333 58013 70128 83710 84618 88458==
41863,2024,09,27,00,00,AAXX 27004 41863 21340 80902 10250 20240 30051 40094 76166 8572/ 333 58023 60079 71973 83708 85614 88456==
41863,2024,09,27,03,00,AAXX 27034 41863 01350 80902 10256 20250 30068 40111 76166 8572/ 333 20240 58012 71533 83708 85614 88456==
41863,2024,09,27,06,00,AAXX 27064 41863 11456 81301 10270 20260 30063 40106 60046 70266 8552/ 333 58007 71283 85618 88458==
41863,2024,09,27,09,00,AAXX 27094 41863 01350 83602 10268 20260 30034 40077 76162 8672/ 333 58003 71547 83708 86614 88456==
41863,2024,09,27,12,00,AAXX 27124 41863 21450 80902 10255 20250 30043 40086 72162 8552/ 333 10273 58001 60359 71031 85617 88458==
41863,2024,09,27,15,00,AAXX 27154 41863 01350 80502 10252 20250 30062 40105 76162 8572/ 333 59002 71053 83708 85615 88456==
41863,2024,09,27,18,00,AAXX 27184 41863 21350 80902 10250 20240 30056 40099 76162 8572/ 333 59004 60039 70488 83708 85615 88456==
41863,2024,09,27,21,00,AAXX 27214 41863 01350 80902 10248 20240 30045 40088 76166 8572/ 333 70464 83708 85615 88456==
41863,2024,09,28,00,00,AAXX 28004 41863 21450 81802 10257 20250 30042 40085 72162 8562/ 333 59009 60059 70464 82710 85617 88458==
41863,2024,09,28,03,00,AAXX 28034 41863 01450 81803 10285 20270 30061 40103 70262 8552/ 333 20243 59007 70444 85617 88458==
41863,2024,09,28,06,00,AAXX 28064 41863 11456 71802 10305 20270 30053 40095 60026 70162 85520 333 59010 70444 85617 87458==
41863,2024,09,28,09,00,AAXX 28094 41863 02456 80503 10296 20280 30026 40068 8552/ 333 59008 70180 85617 88458==
41863,2024,09,28,12,00,AAXX 28124 41863 01450 80504 10271 20250 30029 40072 71792 8592/ 333 10320 59014 70096 83710 84617 88458 81930==
41863,2024,09,28,15,00,AAXX 28154 41863 01450 80902 10261 20250 30051 40094 70296 8552/ 333 59011 70334 85618 88458==
41863,2024,09,28,18,00,AAXX 28184 41863 11456 80000 10260 20250 30048 40091 60266 70296 8552/ 333 59008 70326 85617 88458==
41863,2024,09,28,21,00,AAXX 28214 41863 02450 80902 10260 20250 30024 40067 8552/ 333 59021 70310 85617 88458==
41863,2024,09,29,00,00,AAXX 29004 41863 02450 81802 10256 20256 30036 40079 8552/ 333 59006 70280 85617 88458==
41863,2024,09,29,03,00,AAXX 29034 41863 02456 81802 10268 20260 30057 40100 8552/ 333 20251 59004 70260 85618 88458==
41863,2024,09,29,06,00,AAXX 29064 41863 02457 61301 10300 20250 30047 40089 84510 333 59006 70260 84618 86458==
41863,2024,09,29,09,00,AAXX 29094 41863 02457 62702 10315 20260 30030 40072 84510 333 58004 70260 84618 86458==
41863,2024,09,29,15,00,AAXX 29154 41863 02/50 52301 10283 20270 30035 40078 85030 333 59016 70000 85362==
41863,2024,09,29,18,00,AAXX 29184 41863 02450 82301 10276 20270 30037 40080 8552/ 333 59011 70000 85617 88458==
41863,2024,09,29,21,00,AAXX 29214 41863 02450 62301 10273 20260 30028 40071 84520 333 58004 70000 84618 86458==
41863,2024,09,30,00,00,AAXX 30004 41863 02450 50000 10265 20260 30033 40076 83520 333 59003 70000 83618 85458==
41863,2024,09,30,03,00,AAXX 30034 41863 02456 60901 10300 20260 30047 40089 84510 333 20260 59010 70000 84618 86458==
41863,2024,09,30,06,00,AAXX 30064 41863 02457 62903 10322 20270 30024 40066 84510 333 59023 70000 84618 86458==
41863,2024,09,30,09,00,AAXX 30094 41863 02457 52702 10335 20270 30000 40041 83520 333 59030 70000 83618 85458==
41863,2024,09,30,12,00,AAXX 30124 41863 02456 52702 10310 20270 39994 40036 83520 333 10335 59027 70000 83618 85458==
41863,2024,09,30,15,00,AAXX 30154 41863 02950 00000 10288 20260 30012 40054 333 59027 70000==
41863,2024,09,30,18,00,AAXX 30184 41863 02950 02701 10285 20280 30010 40052 333 59027 70000==
41863,2024,09,30,21,00,AAXX 30214 41863 02940 00000 10282 20270 30007 40049 333 59021 70000==
41863,2024,10,01,00,00,AAXX 01004 41863 02950 02701 10276 20270 39995 40037 333 59038 70000==
41863,2024,10,01,03,00,AAXX 01034 41863 02457 33102 10298 20260 30024 40066 83500 333 20268 59023 70000 83618==
41863,2024,10,01,06,00,AAXX 01064 41863 02457 62304 10325 20260 30015 40057 83520 333 59009 70000 83618 86458==
41863,2024,10,01,09,00,AAXX 01094 41863 02457 63102 10325 20270 39980 40022 84520 333 59020 70000 84618 86458==
41863,2024,10,01,12,00,AAXX 01124 41863 02456 60000 10308 20280 39979 40021 84520 333 10326 59015 70000 84618 86458==
41863,2024,10,01,15,00,AAXX 01154 41863 02/50 30000 10287 20280 30003 40045 83030 333 59009 70000 83362==
41863,2024,10,01,18,00,AAXX 01184 41863 02450 60000 10284 20270 30005 40047 84520 333 59005 70000 84618 86458==
41863,2024,10,01,21,00,AAXX 01214 41863 01450 80000 10277 20270 39993 40035 70362 8552/ 333 59014 70110 85618 88458==
41863,2024,10,02,00,00,AAXX 02004 41863 11450 80000 10265 20260 39996 40039 60116 70262 8552/ 333 58001 70110 85618 88458==
41863,2024,10,02,03,00,AAXX 02034 41863 02456 80901 10293 20260 30016 40058 8552/ 333 20258 59008 70110 85618 88458==
41863,2024,10,02,06,00,AAXX 02064 41863 02457 63102 10326 20270 39999 40041 83510 333 59016 70110 83618 86458==
41863,2024,10,02,09,00,AAXX 02094 41863 02456 73602 10338 20270 39974 40015 83520 333 59006 70110 83618 87458==
41863,2024,10,02,12,00,AAXX 02124 41863 02456 80000 10310 20270 39975 40017 8452/ 333 10343 58004 70000 84618 88458==
41863,2024,10,02,15,00,AAXX 02154 41863 02456 60000 10288 20280 30000 40042 83520 333 59003 70110 83618 86458==
41863,2024,10,02,18,00,AAXX 02184 41863 02456 80000 10282 20260 39995 40037 8452/ 333 59010 70110 84618 88458==
41863,2024,10,02,21,00,AAXX 02214 41863 02456 80000 10279 20270 39981 40023 8452/ 333 59012 70000 84618 88458==
41863,2024,10,03,00,00,AAXX 03004 41863 02456 80502 10270 20250 39991 40034 8452/ 333 59005 70000 84616 88458==
41863,2024,10,03,03,00,AAXX 03034 41863 02456 80903 10275 20260 30015 40057 8452/ 333 20266 59001 70000 84617 88458==
41863,2024,10,03,06,00,AAXX 03064 41863 01356 80903 10290 20260 30003 40045 70262 8562/ 333 58004 70020 82709 85617 88456==
41863,2024,10,03,09,00,AAXX 03094 41863 02456 80902 10266 20290 39986 40029 8552/ 333 58012 70016 85617 88458==
41863,2024,10,03,12,00,AAXX 03124 41863 02450 80901 10271 20250 39986 40029 8552/ 333 10300 58011 70016 85617 88458==
41863,2024,10,03,15,00,AAXX 03154 41863 02450 80000 10266 20250 30008 40051 8552/ 333 58008 70016 85617 88458==
41863,2024,10,03,18,00,AAXX 03184 41863 02950 00903 10257 20250 30006 40049 333 58011 70000==
41863,2024,10,03,21,00,AAXX 03214 41863 02450 30505 10256 20250 39998 40041 83600 333 58017 70016 83710==
41881,2024,09,27,00,00,AAXX 27004 41881 11350 80902 10246 20246 30068 40088 60034 76162 8562/ 333 56299 58015 71015 83708 85612 88458=
41881,2024,09,27,06,00,AAXX 27064 41881 32357 80904 10286 20260 30082 40101 8562/ 333 56299 58013 70825 84709 85615 88458=
41881,2024,09,27,12,00,AAXX 27124 41881 11340 81801 10263 20260 30067 40087 60119 79596 8592/ 333 10295 56499 58013 70640 84708 85614 82930 88458=
41881,2024,09,27,18,00,AAXX 27184 41881 NIL=
41881,2024,09,28,00,00,AAXX 28004 41881 11340 81703 10260 20250 30067 40087 60014 76162 8562/ 333 56499 59001 70120 84708 85614 88458=
41881,2024,09,28,06,00,AAXX 28064 41881 11457 62701 10305 20260 30078 40098 60028 83520 333 56390 59004 70140 83615 86458=
41881,2024,09,28,12,00,AAXX 28124 41881 11450 60000 10285 20280 30047 40067 60113 70362 83520 333 10335 56390 59020 70110 83615 86458=
41881,2024,09,28,18,00,AAXX 28184 41881 11340 80901 10260 20260 30074 40094 60063 70262 8562/ 333 56499 59008 70170 84710 85614 88458=
41881,2024,09,29,00,00,AAXX 29004 41881 32450 60901 10265 20260 30066 40086 83520 333 56390 59001 70160 83615 86458=
41881,2024,09,29,06,00,AAXX 29064 41881 32456 80201 10297 20270 30072 40092 85528 333 56199 59006 70140 85616 88458=
41881,2024,09,29,12,00,AAXX 29124 41881 32456 72701 10300 20280 30044 40064 84520 333 10328 56990 59003 70060 84617 87459=
41881,2024,09,29,18,00,AAXX 29184 41881 31440 40000 10277 20277 30057 40077 70522 84500 333 56900 59017 70000 84618=
41881,2024,09,30,00,00,AAXX 30004 41881 31435 70000 10270 20270 30058 40078 70522 84520 333 56990 59008 70000 84618 87459=
41881,2024,09,30,06,00,AAXX 30064 41881 32456 72301 10320 20270 30055 40075 84520 333 56990 59017 70000 84618 87459=
41881,2024,09,30,12,00,AAXX 30124 41881 32456 51801 10294 20270 30022 40041 83520 333 10340 56990 59022 70000 83618 85459=
41881,2024,09,30,18,00,AAXX 30184 41881 32450 71601 10273 20260 30035 40055 84520 333 56990 59022 70000 84618 87459=
41881,2024,10,01,00,00,AAXX 01004 41881 31940 82301 10270 20260 30020 40040 70522 8552/ 333 56999 59038 70000 85618 88459=
41881,2024,10,01,06,00,AAXX 01064 41881 32456 63601 10320 20270 30040 40060 83520 333 56990 59015 70000 83618 86459=
41881,2024,10,01,12,00,AAXX 01124 41881 32456 50000 10305 20290 30005 40025 83520 333 10330 56990 59017 70000 83618 85459=
41881,2024,10,01,18,00,AAXX 01184 41881 32450 32301 10283 20270 30034 40054 83500 333 56900 59001 70000 83618=
41881,2024,10,02,00,00,AAXX 02004 41881 31440 72601 10274 20260 30025 40045 70522 84520 333 56990 58025 70000 84618 87459=
41881,2024,10,02,06,00,AAXX 02064 41881 32456 70502 10315 20270 30020 40040 84520 333 56990 59020 70000 83618 87460=
41881,2024,10,02,12,00,AAXX 02124 41881 11456 80000 10284 20260 39997 40017 60034 70262 8552/ 333 10325 56999 59008 70025 85615 88458=
41881,2024,10,02,18,00,AAXX 02184 41881 32450 70901 10272 20270 30013 40033 84520 333 56990 59021 70025 84616 87459=
41881,2024,10,03,00,00,AAXX 03004 41881 32350 80501 10270 20270 30005 40025 8562/ 333 56199 59020 70025 84709 85615 88458=
41881,2024,10,03,06,00,AAXX 03064 41881 32457 70902 10285 20250 30015 40035 84520 333 56290 59005 70025 84616 87459=
41881,2024,10,03,12,00,AAXX 03124 41881 11450 80503 10260 20250 30002 40021 60021 76162 8552/ 333 10290 56199 58005 70058 85615 88458=
41881,2024,10,03,18,00,AAXX 03184 41881 32450 80801 10253 20250 30019 40039 8552/ 333 56990 58006 70058 85615 88458=
41883,2024,09,27,00,00,AAXX 27004 41883 41430 80000 10254 20240 30069 40089 58019 70900 88459==
41883,2024,09,27,03,00,AAXX 27034 41883 01340 80902 10266 20260 30091 40111 76166 8572/ 333 20250 58014 70780 85709 88458==
41883,2024,09,27,06,00,AAXX 27064 41883 21350 71302 10288 20270 30086 40106 70162 85620 333 58011 60038 70646 85709 87458==
41883,2024,09,27,09,00,AAXX 27094 41883 02456 70902 10305 20260 30056 40076 85820 333 58002 70540 83616 83828 87459==
41883,2024,09,27,12,00,AAXX 27124 41883 21440 80000 10268 20250 30067 40087 76162 8552/ 333 10317 58007 69947 70384 85616 88459==
41883,2024,09,27,15,00,AAXX 27154 41883 01330 80000 10260 20250 30081 40101 76166 8572/ 333 59007 70084 85709 88458==
41883,2024,09,27,18,00,AAXX 27184 41883 11330 80000 10260 20250 30080 40100 60031 70262 8562/ 333 59004 70066 85709 88458==
41883,2024,09,27,21,00,AAXX 27214 41883 41330 80000 10266 20260 30073 40093 58004 70062 88458==
41883,2024,09,28,00,00,AAXX 28004 41883 02340 80000 10268 20260 30067 40087 8562/ 333 59006 70062 85709 88458==
41883,2024,09,28,03,00,AAXX 28034 41883 01456 41802 10298 20270 30086 40106 70162 84400 333 20257 59005 70048 82616 83882==
41883,2024,09,28,06,00,AAXX 28064 41883 11456 41802 10318 20260 30073 40093 69966 70262 84400 333 59013 70042 82616 83828==
41883,2024,09,28,09,00,AAXX 28094 41883 02456 61802 10331 20270 30051 40071 83510 333 59005 70042 83616 86459==
41883,2024,09,28,12,00,AAXX 28124 41883 01330 80000 10296 20280 30045 40065 76122 8572/ 333 10333 59022 70030 85709 88458==
41883,2024,09,28,15,00,AAXX 28154 41883 01330 80000 10286 20280 30077 40097 70262 8552/ 333 59003 70054 85615 88458==
41883,2024,09,28,18,00,AAXX 28184 41883 11330 80000 10280 20270 30073 40093 60016 70262 8562/ 333 59007 70052 85709 88458==
41883,2024,09,28,21,00,AAXX 28214 41883 02330 80000 10274 20260 30068 40088 8562/ 333 59005 70052 85709 88458==
41883,2024,09,29,00,00,AAXX 29004 41883 02330 80000 10276 20270 30057 40077 8562/ 333 59010 70052 85709 88458==
41883,2024,09,29,03,00,AAXX 29034 41883 01350 80000 10280 20270 30077 40097 70296 8562/ 333 20270 59009 70132 85709 88458==
41883,2024,09,29,06,00,AAXX 29064 41883 01356 80000 10304 20270 30071 40091 70296 8562/ 333 59002 70090 85709 88458==
41883,2024,09,29,09,00,AAXX 29094 41883 02456 72302 10313 20270 30050 40070 84520 333 59001 70132 84615 87458==
41883,2024,09,29,12,00,AAXX 29124 41883 02440 70000 10300 20280 30046 40066 84520 333 10315 58001 70100 84615 87458==
41883,2024,09,29,15,00,AAXX 29154 41883 02430 80000 10288 20280 30062 40082 8552/ 333 59015 70086 85616 88459==
41883,2024,09,29,18,00,AAXX 29184 41883 02430 80000 10280 20270 30061 40081 8552/ 333 59012 70086 85616 88459==
41883,2024,09,29,21,00,AAXX 29214 41883 02430 80000 10278 20270 30052 40072 8522/ 333 58566 70086 88459==
41883,2024,09,30,00,00,AAXX 30004 41883 02430 60000 10272 20260 30057 40077 82530 333 58000 70086 82616 86362==
41883,2024,09,30,03,00,AAXX 30034 41883 02/56 31802 10302 20270 30073 40093 83030 333 20266 59004 70000 83362==
41883,2024,09,30,06,00,AAXX 30064 41883 02456 62302 10328 20270 30056 40076 84810 333 59015 70000 83616 86459==
41883,2024,09,30,09,00,AAXX 30094 41883 02456 62302 10325 20280 30025 40045 83530 333 59025 70000 83616 86362==
41883,2024,09,30,12,00,AAXX 30124 41883 02430 60000 10310 20270 30022 40042 83520 333 10330 59024 70000 83616 86459==
41883,2024,09,30,15,00,AAXX 30154 41883 02430 70000 10286 20270 30039 40059 83520 333 59023 70000 83616 87459==
41883,2024,09,30,18,00,AAXX 30184 41883 02430 80000 10280 20260 30033 40053 8552/ 333 59028 70000 85616 88459==
41883,2024,09,30,21,00,AAXX 30214 41883 02430 80000 10276 20260 30027 40047 8552/ 333 59025 70000 85616 88459==
41883,2024,10,01,00,00,AAXX 01004 41883 02330 80000 10274 20250 30022 40042 8562/ 333 59035 70000 85710 88459==
41883,2024,10,01,03,00,AAXX 01034 41883 02456 80000 10292 20270 30050 40070 8552/ 333 20270 59023 70000 85616 88459==
41883,2024,10,01,06,00,AAXX 01064 41883 02456 82702 10325 20280 30036 40056 8552/ 333 59020 70000 85616 88459==
41883,2024,10,01,09,00,AAXX 01094 41883 02456 60000 10330 20260 30005 40025 83510 333 59020 70000 83616 86459==
41883,2024,10,01,12,00,AAXX 01124 41883 02450 60000 10305 20270 30003 40023 83510 333 10333 59019 70000 83616 86459==
41883,2024,10,01,15,00,AAXX 01154 41883 02430 80000 10298 20280 30025 40045 8552/ 333 59014 70000 85615 88458==
41883,2024,10,01,18,00,AAXX 01184 41883 02430 80000 10296 20280 30033 40053 8552/ 333 58000 70000 85615 85458==
41883,2024,10,01,21,00,AAXX 01214 41883 02430 80000 10290 20280 30028 40048 8552/ 333 58001 70000 85615 88458==
41883,2024,10,02,00,00,AAXX 02004 41883 02430 70000 10280 20270 30017 40037 85520 333 59005 70000 85615 87458==
41883,2024,10,02,03,00,AAXX 02034 41883 41350 81302 10290 20280 30036 40056 72164 8562/ 333 20276 59014 85709 88458==
41883,2024,10,02,06,00,AAXX 02064 41883 01456 81802 10330 20270 30020 40040 70262 8552/ 333 59016 70000 85616 88458==
41883,2024,10,02,09,00,AAXX 02094 41883 42456 62702 10330 20260 39993 40013 84810 333 59012 83616 86459==
41883,2024,10,02,12,00,AAXX 02124 41883 42440 71302 10308 20270 30000 40020 84520 333 10336 59003 84616 87459==
41883,2024,10,02,15,00,AAXX 02154 41883 42430 70000 10288 20270 30020 40040 84520 333 59005 84616 87459==
41883,2024,10,02,18,00,AAXX 02184 41883 02430 80000 10284 20260 30012 40032 8552/ 333 59021 70000 85616 88459==
41883,2024,10,02,21,00,AAXX 02214 41883 42430 80000 10282 20270 30005 40025 8552/ 333 59023 85616 88459==
41883,2024,10,03,00,00,AAXX 03004 41883 01430 80902 10278 20270 30007 40027 70262 8552/ 333 59010 70060 85616 88459==
41883,2024,10,03,03,00,AAXX 03034 41883 02356 80502 10276 20260 30030 40050 8562/ 333 20272 59006 70060 85709 88458==
41883,2024,10,03,06,00,AAXX 03064 41883 02356 80902 10296 20270 30018 40038 8562/ 333 59002 70060 85709 88458==
41883,2024,10,03,09,00,AAXX 03094 41883 01350 80000 10282 20260 39995 40015 76166 8572/ 333 58002 70120 85709 88459==
41883,2024,10,03,12,00,AAXX 03124 41883 21330 80902 10274 20260 39998 40018 70266 8562/ 333 10298 59002 60069 70122 85709 88459==
41883,2024,10,03,15,00,AAXX 03154 41883 02330 80000 10268 20260 30019 40039 8562/ 333 59001 70122 85709 88458==
41883,2024,10,03,18,00,AAXX 03184 41883 02330 80000 10265 20260 30020 40040 8562/ 333 58008 70122 85709 88458==
41883,2024,10,03,21,00,AAXX 03214 41883 02330 82702 10262 20250 30014 40034 8562/ 333 58009 70122 85709 88458==
41886,2024,09,27,00,00,AAXX 27004 41886 01340 80000 10250 20250 30079 40100 70266 8662/ 333 58014 70354 83708 84613 88456==
41886,2024,09,27,03,00,AAXX 27034 41886 02456 70000 10285 20260 30102 40123 82570 333 20250 58014 70304 82616 84460 85362==
41886,2024,09,27,06,00,AAXX 27064 41886 02457 70904 10304 20250 30099 40119 83570 333 58011 70264 83616 84460 85362==
41886,2024,09,27,09,00,AAXX 27094 41886 01350 80000 10254 20240 30069 40089 76062 8632/ 333 58001 70286 82710 84616 88458 81930==
41886,2024,09,27,12,00,AAXX 27124 41886 01450 80000 10277 20260 30070 40090 70262 8352/ 333 10314 59007 70090 83616 88458==
41886,2024,09,27,15,00,AAXX 27154 41886 02450 80000 10273 20260 30090 40110 8352/ 333 59010 70130 83616 88458==
41886,2024,09,27,18,00,AAXX 27184 41886 NIL=
41886,2024,09,27,21,00,AAXX 27214 41886 02450 30000 10265 20260 30086 40106 83500 333 58001 70100 83616==
41886,2024,09,28,00,00,AAXX 28004 41886 01950 00000 10264 20260 30077 40097 70510 333 59001 70090==
41886,2024,09,28,03,00,AAXX 28034 41886 02456 80000 10292 20270 30096 40117 8352/ 333 20260 59006 70090 83618 88460==
41886,2024,09,28,06,00,AAXX 28064 41886 21457 71301 10325 20260 30083 40103 70162 83510 333 59016 69965 70096 83618 87460==
41886,2024,09,28,09,00,AAXX 28094 41886 02456 80402 10300 20270 30060 40080 8432/ 333 59009 70016 83616 88458 81930==
41886,2024,09,28,12,00,AAXX 28124 41886 02450 70000 10280 20260 30057 40078 83520 333 10327 59013 70006 83618 87460==
41886,2024,09,28,15,00,AAXX 28154 41886 01450 70000 10276 20270 30077 40098 71322 83320 333 59013 70006 83617 87460 81930==
41886,2024,09,28,18,00,AAXX 28184 41886 01440 80000 10276 20270 30075 40096 70296 8432/ 333 59017 70020 84616 88458 81930==
41886,2024,09,29,00,00,AAXX 29004 41886 02450 82503 10280 20270 30058 40079 8452/ 333 59019 70024 84616 88458==
41886,2024,09,29,03,00,AAXX 29033 41886 01450 82702 10290 20270 30081 40102 71792 8432/ 333 20275 59015 70024 84616 88458 81930==
41886,2024,09,29,06,00,AAXX 29064 41886 01450 82704 10282 20270 30076 40097 72192 8452/ 333 59007 70006 84616 88458==
41886,2024,09,29,09,00,AAXX 29094 41886 01456 80000 10310 20280 30053 40073 70522 8451/ 333 59007 70026 84618 88460==
41886,2024,09,29,12,00,AAXX 29124 41886 01450 80000 10280 20260 30048 40069 70562 8532/ 333 10310 59009 70006 83618 88460 81930==
41886,2024,09,29,18,00,AAXX 29184 41886 01/06 60000 10278 20270 30064 40085 74242 86070 333 59011 70012 85365==
41886,2024,09,29,21,00,AAXX 29214 41886 01906 00000 10274 20270 30060 40081 74344 89/// 333 59006 70012==
41886,2024,09,30,00,00,AAXX 30004 41886 01906 00000 10270 20270 30060 40081 74344 89/// 333 58002 70012==
41886,2024,09,30,03,00,AAXX 30034 41886 01440 80000 10290 20270 30083 40104 70542 8352/ 333 20270 58002 70012 83618 88460==
41886,2024,09,30,06,00,AAXX 30064 41886 01456 70000 10317 20270 30063 40083 70542 83510 333 59013 70006 83618 87460==
41886,2024,09,30,09,00,AAXX 30094 41886 02456 81802 10320 20270 30030 40050 8351/ 333 59023 70006 83618 88460==
41886,2024,09,30,12,00,AAXX 30124 41886 01450 80000 10300 20280 30032 40052 70522 8251/ 333 10325 59016 70000 82618 88460==
41886,2024,09,30,15,00,AAXX 30154 41886 01450 80000 10290 20280 30045 40065 70522 8252/ 333 59020 70000 82618 88460==
41886,2024,09,30,18,00,AAXX 30184 41886 01450 80000 10280 20270 30039 40060 70522 8252/ 333 59025 70000 82618 88460==
41886,2024,09,30,21,00,AAXX 30214 41886 01450 80000 10280 20270 30038 40059 70522 8252/ 333 59022 70000 82618 88460==
41886,2024,10,01,00,00,AAXX 01004 41886 01450 80000 10266 20260 30031 40052 70522 8352/ 333 59029 70000 83618 88460==
41886,2024,10,01,03,00,AAXX 01034 41886 01450 80000 10281 20260 30058 40079 70522 8352/ 333 20265 59025 70000 83618 88460==
41886,2024,10,01,06,00,AAXX 01064 41886 01450 80000 10317 20260 30039 40059 70522 8352/ 333 59024 70000 83618 88462==
41886,2024,10,01,09,00,AAXX 01094 41886 02450 80000 10322 20270 30004 40024 8351/ 333 59026 70000 83618 88462==
41886,2024,10,01,12,00,AAXX 01124 41886 02450 80000 10310 20280 30010 40030 8351/ 333 10330 59022 70000 83618 88460==
41886,2024,10,01,15,00,AAXX 01154 41886 01450 70000 10287 20280 30030 40050 70522 82510 333 59015 70000 82618 86460==
41886,2024,10,01,18,00,AAXX 01184 41886 01450 70000 10282 20270 30037 40058 70592 83510 333 59002 70000 83618 87460==
41886,2024,10,01,21,00,AAXX 01214 41886 01450 80000 10275 20270 30027 40047 70362 8352/ 333 59004 70156 83618 88460==
41886,2024,10,02,00,00,AAXX 02004 41886 11420 80000 10272 20270 30023 40050 60166 71062 8432/ 333 59008 70156 83616 88458 81930==
41886,2024,10,02,03,00,AAXX 02034 41886 01450 70000 10310 20260 30038 40058 70542 83510 333 20270 59020 70156 83618 87460==
41886,2024,10,02,06,00,AAXX 02064 41886 01457 60000 10340 20260 30017 40037 70141 82470 333 59022 70156 82618 85460==
41886,2024,10,02,09,00,AAXX 02094 41886 02457 60000 10336 20260 39990 40010 83470 333 59014 70156 82618 85462==
41886,2024,10,02,12,00,AAXX 02124 41886 02450 80000 10311 20280 39992 40012 8257/ 333 10344 59018 70156 82618 87462==
41886,2024,10,02,15,00,AAXX 02154 41886 01440 80000 10300 20270 30021 40041 71322 8432/ 333 59008 70156 83617 88462 81930==
41886,2024,10,02,18,00,AAXX 02184 41886 02440 80000 10286 20280 30021 40042 8352/ 333 59016 70156 83617 88460==
41886,2024,10,02,21,00,AAXX 02214 41886 02440 80000 10272 20260 30018 40039 8452/ 333 59009 70000 84616 88458==
41886,2024,10,03,00,00,AAXX 03004 41886 01440 81802 10266 20260 30015 40036 76162 8572/ 333 59008 70030 83710 84615 88458==
41886,2024,10,03,03,00,AAXX 03034 41886 01350 80000 10275 20260 30037 40058 72166 8572/ 333 20262 59001 70040 82710 85616 88458==
41886,2024,10,03,06,00,AAXX 03064 41886 21356 81102 10295 20270 30024 40044 70262 8572/ 333 58007 60018 70040 82710 85616 88458==
41886,2024,10,03,09,00,AAXX 03094 41886 02456 80000 10280 20260 30002 40022 8352/ 333 58012 70040 83618 88460==
41886,2024,10,03,12,00,AAXX 03124 41886 02450 80000 10274 20250 30006 40026 8352/ 333 10299 58014 70040 83618 88460==
41886,2024,10,03,15,00,AAXX 03154 41886 01350 80000 10270 20260 30031 40051 76062 8572/ 333 58010 70090 82710 84616 88458==
41886,2024,10,03,18,00,AAXX 03184 41886 NIL=
41886,2024,10,03,21,00,AAXX 03214 41886 01350 80000 10270 20260 30032 40052 76166 8572/ 333 58014 70320 82710 84616 88458==
41888,2024,09,27,00,00,AAXX 27004 41888 11456 80901 10254 20250 30092 40102 76162 8472/ 333 56299 58006 70268 81710 83616 88460=
41888,2024,09,27,06,00,AAXX 27064 41888 NIL=
41888,2024,09,27,12,00,AAXX 27124 41888 11456 80901 10264 20240 30037 40085 60037 70265 8351/ 333 10300 56999 59012 70072 83618 88460=
41888,2024,09,27,18,00,AAXX 27184 41888 32440 60000 10264 20260 30093 40103 82510 333 56990 59008 70044 82618 86460=
41888,2024,09,28,00,00,AAXX 28004 41888 32450 61801 10260 20260 30086 40096 82530 333 56990 59006 70036 82618 86365=
41888,2024,09,28,06,00,AAXX 28064 41888 11450 80902 10275 20260 30094 40104 60174 71722 8532/ 333 56999 59010 70198 84616 81930 88459=
41888,2024,09,28,12,00,AAXX 28124 41888 32456 70901 10270 20260 30064 40074 83401 333 10300 56909 59011 70166 82618 87080=
41888,2024,09,28,18,00,AAXX 28184 41888 NIL=
41888,2024,09,29,00,00,AAXX 29004 41888 11450 82301 10272 20270 30067 40077 60046 70296 8342/ 333 56999 59019 70366 82618 88460=
41888,2024,09,29,06,00,AAXX 29064 41888 11456 83101 10275 20260 30081 40091 60035 70296 8252/ 333 56999 59013 70225 82618 88460=
41888,2024,09,29,18,00,AAXX 29184 41888 31420 80901 10271 20270 30071 40081 71022 8252/ 333 56999 59011 70065 82618 88460=
41888,2024,09,30,00,00,AAXX 30004 41888 31430 80901 10270 20270 30067 40077 71042 8252/ 333 56999 58000 70025 82618 88460=
41888,2024,09,30,06,00,AAXX 30064 41888 31456 42703 10330 20260 30067 40077 70122 84400 333 56900 59014 70000 81618 83822=
41888,2024,09,30,12,00,AAXX 30124 41888 32956 32704 10300 20270 30029 40039 83030 333 10335 56090 59026 70000 84365=
41888,2024,09,30,18,00,AAXX 30184 41888 31940 60901 10280 20270 30043 40053 70522 86010 333 56090 59028 70000 86460=
41888,2024,10,01,00,00,AAXX 01004 41888 31440 81801 10274 20260 30037 40047 70522 8252/ 333 56999 59030 70000 82618 88460=
41888,2024,10,01,06,00,AAXX 01064 41888 31456 82701 10310 20260 30045 40055 70222 8251/ 333 56999 59022 70000 82618 88460=
41888,2024,10,01,12,00,AAXX 01124 41888 32456 80901 10290 20270 30017 40027 8252/ 333 10325 56999 59012 70000 82618 88460=
41888,2024,10,02,00,00,AAXX 02004 41888 31440 80000 10270 20270 30028 40038 70522 8252/ 333 56999 59009 70000 82618 88460=
41888,2024,10,02,06,00,AAXX 02064 41888 32557 20901 10334 20250 30023 40033 82200 56900 59022 70000 82825=
41888,2024,10,02,12,00,AAXX 02124 41888 32456 80000 10306 20270 39998 40008 8251/ 333 10345 56999 59019 70000 82618 88460=
41888,2024,10,02,18,00,AAXX 02184 41888 32440 80901 10275 20260 30027 40029 8352/ 333 56999 59019 70000 83618 88460=
41888,2024,10,03,00,00,AAXX 03004 41888 11440 80901 10262 20240 30024 40034 60013 76162 8452/ 333 56999 59004 70010 84617 88459=
41888,2024,10,03,12,00,AAXX 03124 41888 11440 80904 10268 20260 30015 40025 60059 76166 8532/ 333 10285 56999 58017 70071 81710 83616 81930 88459=
41888,2024,10,03,18,00,AAXX 03184 41888 11440 80906 10265 20260 30042 40052 70262 8452/ 333 56999 58015 70397 84618 88460=
41891,2024,09,27,00,00,AAXX 27004 41891 01430 80603 10258 20250 30060 40099 70522 8532/ 333 58009 70036 82710 84615 88458 81930==
41891,2024,09,27,03,00,AAXX 27034 41891 41435 80802 10272 20255 30084 40122 58009 70026 88458==
41891,2024,09,27,06,00,AAXX 27064 41891 01435 60902 10315 20250 30076 40113 70522 83340 333 58010 70026 83615 85365 81930==
41891,2024,09,27,09,00,AAXX 27094 41891 01450 50000 10317 20250 30045 40082 70522 83301 333 59004 70026 83616 83074 81930==
41891,2024,09,27,12,00,AAXX 27124 41891 01440 40000 10297 20250 30044 40082 70522 83301 333 10320 59005 70006 83616 81930==
41891,2024,09,27,15,00,AAXX 27154 41891 01430 60000 10283 20250 30068 40106 70522 83430 333 59011 70004 82618 85362==
41891,2024,09,27,18,00,AAXX 27184 41891 01430 60000 10270 20250 30066 40104 70522 83430 333 59008 70000 82618 85362==
41891,2024,09,27,21,00,AAXX 27214 41891 01330 80000 10269 20260 30064 40102 70562 8532/ 333 58008 70020 82708 84616 88458 81930==
41891,2024,09,28,00,00,AAXX 28004 41891 11330 80000 10268 20260 30060 40098 60026 70562 8532/ 333 58000 70020 82708 84616 88458 81930==
41891,2024,09,28,03,00,AAXX 28034 41891 01440 82703 10287 20260 30078 40116 70522 8532/ 333 20268 59006 70020 82710 84615 88458 81930==
41891,2024,09,28,06,00,AAXX 28064 41891 01440 70303 10296 20270 30068 40106 70522 84370 333 59008 70020 84615 86460 81930==
41891,2024,09,28,09,00,AAXX 28094 41891 01445 73002 10320 20250 30040 40078 70522 84370 333 59005 70020 84615 86460 81930==
41891,2024,09,28,12,00,AAXX 28124 41891 21435 80903 10261 20250 30046 40085 72196 8532/ 333 10330 58002 60187 70202 82710 84615 88458 81930==
41891,2024,09,28,15,00,AAXX 28154 41891 01435 80000 10265 20260 30062 40100 70522 8532/ 333 59006 70202 84615 88458 81928==
41891,2024,09,28,18,00,AAXX 28184 41891 01430 80000 10260 20250 30059 40097 70562 8452/ 333 59007 70130 84615 88458 81928==
41891,2024,09,28,21,00,AAXX 28214 41891 01430 80000 10263 20250 30031 40070 70522 8532/ 333 59033 70312 84615 88458 81928==
41891,2024,09,29,00,00,AAXX 29004 41891 01330 80000 10265 20260 30036 40075 71722 8592/ 333 59024 70010 83708 84615 88458 81928==
41891,2024,09,29,03,00,AAXX 29034 41891 01330 82205 10261 20250 30052 40091 76366 8532/ 333 20260 59026 70482 83707 84615 88456 81928==
41891,2024,09,29,06,00,AAXX 29064 41891 21320 82208 10258 20258 30059 40098 79596 8592/ 333 59009 60969 71282 83707 84614 88482 81928==
41891,2024,09,29,09,00,AAXX 29094 41891 01320 80904 10268 20260 30033 40071 79596 8632/ 333 59007 71398 86708 88458 81925==
41891,2024,09,29,12,00,AAXX 29124 41891 21430 80000 10272 20260 30034 40072 70596 8532/ 333 10268 59012 60118 71216 81710 84615 88460 81930==
41891,2024,09,29,15,00,AAXX 29154 41891 01430 80902 10265 20260 30054 40092 70522 8532/ 333 59008 71218 82710 84615 88458 81930==
41891,2024,09,29,18,00,AAXX 29184 41891 01430 81203 10263 20260 30047 40086 70522 8532/ 333 59012 71088 82710 84615 88458 81930==
41891,2024,09,29,21,00,AAXX 29214 41891 01320 80000 10260 20260 30043 40082 76162 8632/ 333 58012 71238 86708 88457 81925==
41891,2024,09,30,00,00,AAXX 30004 41891 21320 80000 10265 20260 30041 40079 70522 8532/ 333 58005 60067 71228 82710 84615 88458 81930==
41891,2024,09,30,03,00,AAXX 30034 41891 01330 80000 10280 20260 30060 40098 70522 8532/ 333 20252 58008 70106 82708 83615 88458 81930==
41891,2024,09,30,06,00,AAXX 30064 41891 01450 50000 10325 20270 30041 40079 70522 84310 333 59018 70268 83615 83458 81928==
41891,2024,09,30,09,00,AAXX 30094 41891 01450 62102 10315 20270 30006 40043 70522 84330 333 59027 70152 83615 85365 81930==
41891,2024,09,30,12,00,AAXX 30124 41891 01435 81803 10300 20270 30004 40042 70522 8532/ 333 10333 59030 70150 82708 84615 88458 81930==
41891,2024,09,30,15,00,AAXX 30154 41891 01430 80000 10288 20270 30021 40059 70522 8532/ 333 59033 70150 84618 88458 81930==
41891,2024,09,30,18,00,AAXX 30184 41891 01330 80000 10283 20270 30015 40053 76122 8532/ 333 59032 70020 82708 84615 88456 81930==
41891,2024,09,30,21,00,AAXX 30214 41891 01320 82205 10260 20250 30008 40046 79596 8592/ 333 59035 70680 83707 84614 88482 81928==
41891,2024,10,01,00,00,AAXX 01004 41891 21320 80000 10256 20256 30002 40040 79596 8592/ 333 59039 61409 71420 83707 84614 88482 81928==
41891,2024,10,01,03,00,AAXX 01034 41891 01330 80000 10264 20250 30039 40078 76196 8632/ 333 20256 59021 71640 86708 88458 81925==
41891,2024,10,01,06,00,AAXX 01064 41891 11330 80000 10280 20260 30019 40057 60226 70562 8532/ 333 59022 71640 82710 84615 88458 81930==
41891,2024,10,01,09,00,AAXX 01094 41891 01435 80303 10285 20260 39988 40026 70522 8532/ 333 59018 71640 82710 84615 88458 81930==
41891,2024,10,01,12,00,AAXX 01124 41891 01430 80903 10275 20260 39995 40033 70522 8532/ 333 10300 59009 71640 82710 84615 88458 81930==
41891,2024,10,01,15,00,AAXX 01154 41891 01930 00000 10265 20260 30012 40050 70520 333 59009 71640==
41891,2024,10,01,18,00,AAXX 01184 41891 01430 60000 10265 20260 30017 40055 70520 82520 333 58002 71620 82616 85458==
41891,2024,10,01,21,00,AAXX 01214 41891 01430 50000 10263 20250 30012 40050 70522 82520 333 58004 71020 82616 84458==
41891,2024,10,02,00,00,AAXX 02004 41891 01430 60000 10261 20250 39996 40034 70522 82530 333 59045 70220 82616 85362==
41891,2024,10,02,03,00,AAXX 02034 41891 01440 70000 10289 20260 30012 40050 70522 83530 333 20257 59027 70000 83618 85362==
41891,2024,10,02,06,00,AAXX 02064 41891 01450 30000 10332 20240 39994 40031 70521 82530 333 59025 70000 82618==
41891,2024,10,02,09,00,AAXX 02094 41891 01450 50000 10337 20240 39964 40001 70522 82530 333 59024 70000 82616 85365==
41891,2024,10,02,12,00,AAXX 02124 41891 01440 60000 10302 20270 39973 40011 70522 83530 333 10346 59022 70000 83616 85365==
41891,2024,10,02,15,00,AAXX 02154 41891 01430 81803 10282 20260 30000 40038 70522 8532/ 333 59012 70000 82710 84615 88458 81930==
41891,2024,10,02,18,00,AAXX 02184 41891 01430 81203 10275 20260 30006 40044 70522 8532/ 333 59011 70000 82710 84615 88458 81930==
41891,2024,10,02,21,00,AAXX 02214 41891 01430 81803 10270 20260 39996 40034 70522 8532/ 333 59016 70000 82710 84615 88458 81930==
41891,2024,10,03,00,00,AAXX 03004 41891 01430 82103 10265 20260 39999 40037 70522 8532/ 333 58003 70000 82710 84615 88458 81930==
41891,2024,10,03,03,00,AAXX 03034 41891 41440 80000 10280 20260 30019 40057 76162 8532/ 333 20264 58007 82709 84615 88458 81930==
41891,2024,10,03,06,00,AAXX 03064 41891 21445 80902 10270 20250 30010 40048 70562 8532/ 333 58016 60019 70010 82708 84615 88458 81930==
41891,2024,10,03,09,00,AAXX 03094 41891 01440 80705 10272 20240 39988 40026 70562 8532/ 333 58024 70010 82710 84615 88458 81930==
41891,2024,10,03,12,00,AAXX 03124 41891 NIL=
41891,2024,10,03,15,00,AAXX 03154 41891 01430 80000 10257 20250 30026 40064 70562 8532/ 333 58026 70050 82710 84615 88458 81930==
41891,2024,10,03,18,00,AAXX 03184 41891 11430 80000 10260 20250 30024 40062 60016 70562 8532/ 333 58018 70050 82710 84616 88458 81930==
41891,2024,10,03,21,00,AAXX 03214 41891 01330 80000 10255 20250 30023 40061 70562 8532/ 333 58027 70075 82708 84616 88456 81930==
41895,2024,09,27,00,00,AAXX 27004 41895 01450 80904 10256 20256 30066 40088 70262 8452/ 333 58026 70007 84615 88458==
41895,2024,09,27,03,00,AAXX 27034 41895 02357 80902 10280 20260 30085 40107 8562/ 333 20255 58018 70363 82710 84615 88458==
41895,2024,09,27,06,00,AAXX 27064 41895 02458 70502 10313 20270 30078 40100 83430 333 58015 70362 82615 86362==
41895,2024,09,27,09,00,AAXX 27094 41895 01456 80000 10265 20260 30052 40074 79596 8592/ 333 58008 70480 83615 88458 81930==
41895,2024,09,27,12,00,AAXX 27124 41895 01450 80901 10263 20260 30058 40081 72196 8592/ 333 10316 58005 70300 83615 88458 81930==
41895,2024,09,27,15,00,AAXX 27154 41895 02450 80501 10258 20258 30077 40100 8552/ 333 59002 70336 85614 88458==
41895,2024,09,27,18,00,AAXX 27184 41895 02450 80000 10258 20258 30074 40096 8452/ 333 58000 70311 84616 88458==
41895,2024,09,28,00,00,AAXX 28004 41895 02450 81802 10266 20266 30069 40091 8452/ 333 58003 70304 84616 88458==
41895,2024,09,28,03,00,AAXX 28034 41895 02457 81302 10291 20270 30084 40106 8532/ 333 20255 59001 70304 84615 88458 81930==
41895,2024,09,28,06,00,AAXX 28064 41895 02458 61802 10320 20270 30072 40094 84420 333 59006 70304 82615 83820==
41895,2024,09,28,09,00,AAXX 28094 41895 02558 31802 10332 20270 30045 40067 82230 333 59007 70184 82825==
41895,2024,09,28,12,00,AAXX 28124 41895 02450 50000 10306 20290 30045 40067 83520 333 10340 59013 70000 83616 85458==
41895,2024,09,28,15,00,AAXX 28154 41895 02450 70000 10290 20280 30065 40087 84520 333 59012 70000 84615 87458==
41895,2024,09,28,18,00,AAXX 28184 41895 NIL=
41895,2024,09,28,21,00,AAXX 28214 41895 02450 82302 10282 20280 30061 40083 8452/ 333 59001 70000 84615 88458==
41895,2024,09,29,00,00,AAXX 29004 41895 02450 82301 10280 20280 30057 40079 8452/ 333 59012 70000 84615 88458==
41895,2024,09,29,03,00,AAXX 29033 41895 02450 82301 10300 20280 30075 40097 8452/ 333 20277 59009 70000 84615 88458==
41895,2024,09,29,06,00,AAXX 29064 41895 02450 82304 10330 20280 30067 40089 8452/ 333 59005 70000 84615 88458==
41895,2024,09,29,09,00,AAXX 29094 41895 02450 83102 10326 20290 30048 40070 8452/ 333 58003 70000 84616 88458==
41895,2024,09,29,12,00,AAXX 29124 41895 02450 81802 10300 20290 30049 40071 8452/ 333 10340 59004 70000 84616 88458==
41895,2024,09,29,15,00,AAXX 29154 41895 02450 50000 10280 20270 30063 40085 83520 333 59002 70000 83616 85458==
41895,2024,09,29,18,00,AAXX 29184 41895 02450 50000 10275 20270 30059 40081 83520 333 59026 70000 83616 85458==
41895,2024,09,29,21,00,AAXX 29214 41895 02450 52701 10273 20260 30060 40082 83520 333 59001 70000 83616 85458==
41895,2024,09,30,00,00,AAXX 30004 41895 02450 52701 10270 20270 30061 40083 83520 333 58004 70000 83616 85458==
41895,2024,09,30,03,00,AAXX 30034 41895 01456 41802 10302 20270 30073 40095 70522 82510 333 20266 59002 70000 82616 84458==
41895,2024,09,30,06,00,AAXX 30064 41895 01456 62302 10326 20290 30058 40080 70522 83412 333 59009 70000 82616 85458==
41895,2024,09,30,09,00,AAXX 30094 41895 01/56 62302 10340 20280 30025 40046 70522 85012 333 59023 70000 85458==
41895,2024,09,30,12,00,AAXX 30124 41895 01450 80502 10280 30024 40046 79592 8532/ 333 10342 59025 70070 84615 88458 81930==
41895,2024,09,30,15,00,AAXX 30154 41895 01450 83604 10277 20277 30045 40068 79292 8532/ 333 59018 70074 84615 88458 81930==
41895,2024,09,30,18,00,AAXX 30184 41895 21450 80000 10270 20270 30038 40061 70296 8532/ 333 59021 60025 70090 84615 88458 81930==
41895,2024,09,30,21,00,AAXX 30214 41895 02450 81801 10268 20268 30022 40044 8452/ 333 59038 70090 84616 88458==
41895,2024,10,01,00,00,AAXX 01004 41895 01450 82702 10273 20270 30024 40047 70522 8452/ 333 59037 70090 84616 88458==
41895,2024,10,01,03,00,AAXX 01034 41895 01450 72702 10295 20290 30049 40071 70522 83570 333 20261 59024 70074 83615 84458 85362==
41895,2024,10,01,06,00,AAXX 01064 41895 02457 70000 10332 20290 30033 40055 85420 333 59025 70090 82615 83820 85458==
41895,2024,10,01,09,00,AAXX 01094 41895 02457 82701 10320 20290 30005 40026 8532/ 333 59020 70090 84615 88458 81925==
41895,2024,10,01,12,00,AAXX 01124 41895 02450 80000 10298 20290 30004 40026 8452/ 333 10335 59020 70016 84615 88458==
41895,2024,10,01,15,00,AAXX 01154 41895 02450 60000 10286 20280 30025 40047 83520 333 59020 70016 83616 86458==
41895,2024,10,01,18,00,AAXX 01184 41895 02450 60000 10280 20280 30031 40053 83520 333 59007 70000 83616 86458==
41895,2024,10,01,21,00,AAXX 01214 41895 01450 80000 10278 20278 30020 40042 70522 8452/ 333 59002 70000 84615 88458==
41895,2024,10,02,00,00,AAXX 02004 41895 01440 80000 10276 20276 30014 40036 70522 8452/ 333 59010 70000 84615 88458==
41895,2024,10,02,03,00,AAXX 02034 41895 01450 72902 10305 20280 30035 40057 70592 84520 333 20270 59014 70000 83615 85458==
41895,2024,10,02,06,00,AAXX 02064 41895 01450 83602 10305 20270 30023 40045 70592 8452/ 333 59010 70000 84615 88458==
41895,2024,10,02,09,00,AAXX 02094 41895 01456 73301 10324 20270 39997 40019 70522 83520 333 59008 70000 83615 86458==
41895,2024,10,02,12,00,AAXX 02124 41895 01450 80000 10295 20280 39999 40021 70522 8452/ 333 10327 59005 70000 84615 88458==
41895,2024,10,02,15,00,AAXX 02154 41895 01450 82701 10280 20270 30021 40043 70522 8452/ 333 59004 70000 84615 88458==
41895,2024,10,02,18,00,AAXX 02184 41895 01450 82701 10278 20270 30016 40038 70522 83520 333 59015 70000 83615 85458==
41895,2024,10,02,21,00,AAXX 02214 41895 01450 83102 10276 20270 30013 40035 70522 8452/ 333 59007 70000 84616 88458==
41895,2024,10,03,00,00,AAXX 03004 41895 01450 83102 10274 20260 30009 40031 70522 8452/ 333 59005 70000 84615 88458==
41895,2024,10,03,03,00,AAXX 03034 41895 01450 80000 10256 20256 30028 40050 79596 8532/ 333 20250 59007 70268 84615 88458 81928==
41895,2024,10,03,06,00,AAXX 03064 41895 21450 80902 10276 20270 30014 40036 70296 8532/ 333 59009 60288 70278 84615 88458 81930==
41895,2024,10,03,09,00,AAXX 03094 41895 01450 80000 10270 20260 39994 40016 79592 8532/ 333 59003 70304 84615 88458 81928==
41895,2024,10,03,12,00,AAXX 03124 41895 21450 70000 10275 20270 39996 40019 70196 84520 333 10302 59003 60045 70314 83615 85458==
41895,2024,10,03,15,00,AAXX 03154 41895 02450 70000 10267 20267 30020 40043 84520 333 59001 70314 83615 85458==
41895,2024,10,03,18,00,AAXX 03184 41895 02450 70000 10267 20267 30019 40041 84520 333 58003 70314 83615 85458==
41895,2024,10,03,21,00,AAXX 03214 41895 02450 80502 10264 20260 30014 40036 8452/ 333 58001 70314 84616 88458==
41897,2024,09,27,00,00,AAXX 27004 41897 11440 80902 10255 20250 30078 40092 60029 76166 8372/ 333 56999 58014 70230 83707 88456=
41897,2024,09,27,06,00,AAXX 27064 41897 32450 51802 10295 20250 30088 40101 82530 333 56990 58010 70140 82617 85362=
41897,2024,09,27,12,00,AAXX 27124 41897 11440 81804 10260 20250 30075 40089 60039 76166 8372/ 333 10320 56999 58009 70070 83707 88456=
41897,2024,09,27,18,00,AAXX 27184 41897 11440 81802 10260 20250 30093 40107 60059 76166 8372/ 333 56999 58001 70100 83707 88456=
41897,2024,09,28,00,00,AAXX 28004 41897 32440 31802 10266 20260 30077 40090 81510 333 56990 59001 70080 81618 83362=
41897,2024,09,28,06,00,AAXX 28064 41897 32450 31802 10320 20260 30079 40092 60058 70262 81530 333 56990 59009 70130 81618 83362=
41897,2024,09,28,12,00,AAXX 28124 41897 32450 31802 10305 20270 30055 40068 81510 333 10340 56990 59020 70100 81618 83828=
41897,2024,09,28,18,00,AAXX 28184 41897 NIL=
41897,2024,09,29,00,00,AAXX 29004 41897 32440 81802 10278 20270 30065 40078 8252/ 333 56999 59012 70050 82617 88458=
41897,2024,09,29,06,00,AAXX 29064 41897 32450 81802 10320 20270 30075 40088 8352/ 333 56999 59004 70000 83617 88458=
41897,2024,09,29,18,00,AAXX 29184 41897 31450 80000 10275 20270 30067 40080 70522 84310 333 56990 59009 70020 83618 88458=
41897,2024,09,30,00,00,AAXX 30004 41897 31420 50000 10270 20270 30066 40079 71042 84410 333 56990 58001 70020 82618 84458=
41897,2024,09,30,06,00,AAXX 30064 41897 32450 71402 10315 20270 30066 40079 84310 333 56990 59009 70020 82620 86460=
41897,2024,09,30,12,00,AAXX 30124 41897 31450 81403 10310 20270 30034 40047 71722 8432/ 333 10336 56999 59020 70000 81710 83620 81930 88460=
41897,2024,09,30,18,00,AAXX 30184 41897 11450 82203 10265 20260 30046 40059 60034 70296 8432/ 333 56999 59010 70030 81710 83620 81930 88460=
41897,2024,10,01,00,00,AAXX 01004 41897 31440 80000 10265 20260 30032 40045 70522 8432/ 333 56999 59030 70030 81710 83620 81930 88460=
41897,2024,10,01,06,00,AAXX 01064 41897 31450 80000 10320 20270 30038 40051 84310 333 56990 59027 70030 81710 83620 81930 88460=
41897,2024,10,01,12,00,AAXX 01124 41897 31440 60000 10310 20270 30012 40025 84310 333 10335 56990 59022 70030 83620 81930 88460=
41897,2024,10,01,18,00,AAXX 01184 41897 31440 60000 10290 20280 30032 40045 84310 333 56990 59018 70000 82620 81930 86460=
41897,2024,10,02,00,00,AAXX 02004 41897 31408 60000 10280 20270 30024 40037 74444 84310 333 56990 59006 70000 82620 81930 86460=
41897,2024,10,02,06,00,AAXX 02064 41897 32450 61402 10310 20260 30027 40040 84310 333 56990 59011 70000 82620 81930 86460=
41897,2024,10,02,12,00,AAXX 02124 41897 31450 61402 10300 20270 30002 40015 70522 84310 333 10320 56990 59008 70000 82620 81930 86460=
41897,2024,10,02,18,00,AAXX 02184 41897 31440 80000 10290 20280 30008 40021 71322 84310 333 56990 59008 70000 82620 81930 88460=
41897,2024,10,03,00,00,AAXX 03004 41897 11430 80000 10265 20260 30015 40028 60497 79596 8432/ 333 56999 59008 70490 81710 83620 81930 88460=
41897,2024,10,03,06,00,AAXX 03064 41897 11450 80000 10285 20260 30022 40035 60097 70296 8432/ 333 56999 59008 70580 81710 83620 81930 88460=
41897,2024,10,03,12,00,AAXX 03124 41897 11440 70901 10312 20260 30004 40017 60134 70262 83520 333 10312 56990 58001 70710 83616 87459=
41897,2024,10,03,18,00,AAXX 03184 41897 31440 71501 10265 20260 30026 40039 70521 83520 333 56990 58004 70710 83616 87459=
41902,2024,09,27,00,00,AAXX 27004 41902 32430 60000 10256 20250 30080 40089 83530 333 56990 58015 70410 83614 85362=
41902,2024,09,27,06,00,AAXX 27064 41902 32450 50901 10322 20260 30088 40096 82530 333 56990 58004 70180 82614 84362=
41902,2024,09,27,12,00,AAXX 27124 41902 11430 60901 10276 20260 30069 40077 60027 70262 83430 333 10338 56990 59005 70030 82614 85362=
41902,2024,09,27,18,00,AAXX 27184 41902 NIL=
41902,2024,09,28,00,00,AAXX 28004 41902 32430 30000 10272 20260 30071 40080 83500 333 56900 59009 70020 83614=
41902,2024,09,28,06,00,AAXX 28064 41902 32450 31701 10321 20260 30083 40092 83400 333 56900 59005 70020 82614=
41902,2024,09,28,12,00,AAXX 28124 41902 11450 71801 10302 20260 30060 40068 60086 70262 83520 333 10322 56990 59009 70080 83615 87459=
41902,2024,09,28,18,00,AAXX 28184 41902 NIL=
41902,2024,09,29,00,00,AAXX 29004 41902 32440 82002 10272 20260 30066 40074 8532/ 333 56999 59005 70080 83615 81928 88458=
41902,2024,09,29,06,00,AAXX 29064 41902 32456 20901 10356 20280 30024 40032 82400 333 56900 58000 70000 82616=
41902,2024,09,29,18,00,AAXX 29184 41902 11430 81802 10278 20278 30066 40074 60067 70296 8352/ 333 56999 59006 70060 83615 88458=
41902,2024,09,30,00,00,AAXX 30004 41902 31430 72201 10272 20270 30063 40071 70522 83520 333 56990 59003 70060 83615 87459=
41902,2024,09,30,06,00,AAXX 30064 41902 31430 71801 10300 20280 30067 40075 70544 83510 333 56990 59009 70060 83615 87459=
41902,2024,09,30,12,00,AAXX 30124 41902 31430 62202 10296 20280 30029 40037 70544 82570 333 10312 56990 59024 70060 82615 86460=
41902,2024,09,30,18,00,AAXX 30184 41902 31430 81802 10284 20270 30044 40052 70544 8352/ 333 56999 59028 70000 83615 88458=
41902,2024,10,01,00,00,AAXX 01004 41902 31430 82201 10267 20260 30031 40040 70544 8352/ 333 56999 59032 70000 83615 88458=
41902,2024,10,01,06,00,AAXX 01064 41902 31440 73602 10325 20280 30044 40052 70544 83510 333 56990 59023 70000 83615 87459=
41902,2024,10,01,12,00,AAXX 01124 41902 31440 70502 10295 20280 30022 40030 70544 83520 333 10334 56990 59007 70000 83615 87459=
41902,2024,10,01,18,00,AAXX 01184 41902 31430 80501 10280 20270 30040 40049 71792 8592/ 333 56999 59004 70000 83615 81928 88458=
41902,2024,10,02,00,00,AAXX 02004 41902 31440 73601 10278 20270 30029 40037 70522 83520 333 56990 59002 70000 83615 87459=
41902,2024,10,02,06,00,AAXX 02064 41902 31450 60502 10326 20270 30021 40030 70244 82530 333 56990 59023 70000 82615 86362=
41902,2024,10,02,12,00,AAXX 02124 41902 NIL=
41902,2024,10,02,18,00,AAXX 02184 41902 11440 82802 10267 20260 30026 40035 60047 71796 8352/ 333 56999 59014 70040 83612 88458=
41902,2024,10,03,00,00,AAXX 03004 41902 11340 80502 10264 20250 30025 40034 60059 72162 8462/ 333 56299 59004 70090 83710 84612 88458=
41902,2024,10,03,12,00,AAXX 03124 41902 11350 81804 10272 20250 30014 40023 60059 70562 8462/ 333 10280 56299 59015 70170 83710 84612 88458=
41902,2024,10,03,18,00,AAXX 03184 41902 NIL=
41907,2024,09,27,00,00,AAXX 27004 41907 02440 71302 10260 20250 30075 40090 84510 333 58026 70316 84615 85458==
41907,2024,09,27,03,00,AAXX 27034 41907 02350 80000 10280 20260 30089 40103 8672/ 333 20255 58017 70202 85709 88458==
41907,2024,09,27,06,00,AAXX 27064 41907 02350 81302 10310 20260 30082 40097 8672/ 333 58011 70132 85709 88458==
41907,2024,09,27,09,00,AAXX 27094 41907 01350 80000 10290 20270 30054 40069 7662/ 333 58003 70186 83709 85615 88458==
41907,2024,09,27,12,00,AAXX 27124 41907 01330 80000 10260 20250 30065 40079 72196 8632/ 333 10327 58007 70222 83709 85615 88458 81930==
41907,2024,09,27,15,00,AAXX 27154 41907 02330 80000 10262 20250 30079 40094 8662/ 333 59004 70222 82709 85615 88458==
41907,2024,09,27,18,00,AAXX 27184 41907 02330 80000 10262 20250 30080 40095 8662/ 333 59003 70222 82709 85615 88458==
41907,2024,09,27,21,00,AAXX 27214 41907 02330 80000 10266 20260 30073 40087 8662/ 333 59002 70222 83709 85615 88458==
41907,2024,09,28,00,00,AAXX 28004 41907 02330 80000 10270 20260 30072 40087 8672/ 333 58002 70222 85709 88458==
41907,2024,09,28,03,00,AAXX 28034 41907 02450 51302 10295 20270 30090 40104 82510 333 20265 58001 70222 82615 84458==
41907,2024,09,28,06,00,AAXX 28064 41907 02450 51302 10320 20270 30076 40091 82510 333 59006 70222 82615 84458==
41907,2024,09,28,09,00,AAXX 28094 41907 02456 61302 10340 20270 30050 40065 85810 333 59004 70130 82615 84825 85458==
41907,2024,09,28,12,00,AAXX 28124 41907 02450 70000 10320 20270 30053 40067 85510 333 10342 59012 70000 85615 86458==
41907,2024,09,28,15,00,AAXX 28154 41907 02440 70000 10297 20270 30077 40092 85510 333 59002 70000 85615 86458==
41907,2024,09,28,18,00,AAXX 28184 41907 02440 70000 10288 20280 30070 40085 85510 333 59010 70000 85615 86458==
41907,2024,09,28,21,00,AAXX 28214 41907 02340 80000 10280 20270 30062 40077 8562/ 333 59013 70000 82709 84615 88458==
41907,2024,09,29,00,00,AAXX 29004 41907 02340 82302 10276 20270 30065 40080 8662/ 333 59007 70000 82709 85615 88458==
41907,2024,09,29,03,00,AAXX 29034 41907 02350 81302 10295 20280 30081 40096 8662/ 333 20272 59009 70000 82709 85615 88458==
41907,2024,09,29,06,00,AAXX 29064 41907 02456 70000 10325 20270 30072 40086 84510 333 59004 70000 84615 85458==
41907,2024,09,29,09,00,AAXX 29094 41907 01350 82704 10328 20270 30050 40064 71722 8692/ 333 58000 70000 85709 88458 81930==
41907,2024,09,29,12,00,AAXX 29124 41907 21450 80000 10280 20260 30048 40062 71796 8592/ 333 10338 59005 60025 70020 85615 88458 81930==
41907,2024,09,29,15,00,AAXX 29154 41907 02340 80000 10275 20270 30067 40082 8662/ 333 59010 70020 82709 85615 88458==
41907,2024,09,29,18,00,AAXX 29184 41907 02340 80000 10270 20260 30065 40079 8662/ 333 59005 70020 82709 85615 88458==
41907,2024,09,29,21,00,AAXX 29214 41907 02440 60000 10270 20260 30057 40071 83510 333 59005 70020 83615 85458==
41907,2024,09,30,00,00,AAXX 30004 41907 02/40 30000 10270 20260 30062 40077 83030 333 59003 70020 83362==
41907,2024,09,30,03,00,AAXX 30034 41907 02450 60000 10300 20270 30075 40090 83510 333 20268 59006 70020 83615 86458==
41907,2024,09,30,06,00,AAXX 30064 41907 02456 60000 10325 20260 30062 40077 84510 333 59010 70020 84615 86458==
41907,2024,09,30,09,00,AAXX 30094 41907 02450 70000 10335 20280 30031 40050 84510 333 59019 70020 84615 87458==
41907,2024,09,30,12,00,AAXX 30124 41907 02440 80000 10315 20290 30030 40045 8552/ 333 10338 59018 70000 85615 88458==
41907,2024,09,30,15,00,AAXX 30154 41907 01340 80000 10280 20260 30045 40060 71322 8532/ 333 59022 70000 85615 88458 81930==
41907,2024,09,30,18,00,AAXX 30184 41907 01330 80000 10265 20260 30044 40059 72995 8632/ 333 59021 70170 83709 85615 88458 81930==
41907,2024,09,30,21,00,AAXX 30214 41907 02330 80000 10270 20260 30432 40047 8662/ 333 59025 70170 83709 85615 88458==
41907,2024,10,01,00,00,AAXX 01004 41907 02330 80000 10275 20270 30025 40040 8662/ 333 59037 70170 83709 85615 88458==
41907,2024,10,01,03,00,AAXX 01034 41907 02450 60000 10300 20280 30052 40067 83510 333 20264 59023 70170 83615 86458==
41907,2024,10,01,06,00,AAXX 01064 41907 02450 73102 10330 20280 30039 40054 85810 333 59023 70170 83615 87458==
41907,2024,10,01,09,00,AAXX 01094 41907 02450 73102 10317 20270 30003 40018 85810 333 59028 70170 83615 87458==
41907,2024,10,01,12,00,AAXX 01124 41907 02450 70000 10302 20280 30008 40022 85510 333 10336 59020 70170 85615 87458==
41907,2024,10,01,15,00,AAXX 01154 41907 02440 70000 10290 20280 30028 40043 85510 333 59017 70170 85615 87458==
41907,2024,10,01,18,00,AAXX 01184 41907 02340 80000 10286 20280 30034 40048 8662/ 333 59010 70000 82709 85615 88458==
41907,2024,10,01,21,00,AAXX 01214 41907 02340 80000 10280 20280 30024 40039 8662/ 333 59008 70000 82709 85615 88458==
41907,2024,10,02,00,00,AAXX 02004 41907 01430 50000 10277 20277 30017 40032 70522 83510 333 59008 70000 83615 85458==
41907,2024,10,02,03,00,AAXX 02034 41907 02450 50000 10300 20260 30037 40051 83510 333 20275 59017 70000 83615 85458==
41907,2024,10,02,06,00,AAXX 02064 41907 01340 82702 10260 20260 30032 40046 79192 8672/ 333 59007 70060 85709 88458==
41907,2024,10,02,09,00,AAXX 02094 41907 01450 70000 10300 20260 39999 40014 70162 83510 333 59004 70069 83615 87458==
41907,2024,10,02,12,00,AAXX 02124 41907 11450 60000 10295 20280 30001 40016 69956 70162 82510 333 10325 59007 70069 82615 86458==
41907,2024,10,02,15,00,AAXX 02154 41907 02440 80000 10285 20280 30021 40036 8552/ 333 59007 70069 85615 88458==
41907,2024,10,02,18,00,AAXX 02184 41907 02440 80000 10280 20270 30019 40034 8552/ 333 59015 70069 85615 88458==
41907,2024,10,02,21,00,AAXX 02214 41907 02340 80000 10275 20270 30012 40027 8662/ 333 59012 70069 82709 85615 88458==
41907,2024,10,03,00,00,AAXX 03004 41907 01330 80000 10265 20250 30006 40021 79592 8692/ 333 59011 70010 84709 88458 81930==
41907,2024,10,03,03,00,AAXX 03034 41907 01330 80000 10265 20260 30031 40045 76191 8672/ 333 20258 59006 70136 85709 88458==
41907,2024,10,03,06,00,AAXX 03064 41907 21330 80000 10280 20260 30017 40032 72196 8662/ 333 59015 60089 70092 85709 88458==
41907,2024,10,03,09,00,AAXX 03094 41907 02340 80000 10280 20260 39996 40011 8662/ 333 59003 70087 85709 88458==
41907,2024,10,03,12,00,AAXX 03124 41907 02440 80000 10280 20260 39997 40012 8552/ 333 10293 59004 70087 85615 88458==
41907,2024,10,03,15,00,AAXX 03154 41907 01440 60000 10262 20260 30023 40038 70162 83510 333 58002 70237 83615 86458==
41907,2024,10,03,18,00,AAXX 03184 41907 11340 80000 10262 20250 30020 40034 60156 70362 8662/ 333 58001 70237 85615 88458==
41907,2024,10,03,21,00,AAXX 03214 41907 01330 80000 10263 20260 30016 40031 76266 8672/ 333 58004 70437 85709 88458==
41909,2024,09,27,00,00,AAXX 27004 41909 21350 80000 10254 20240 30078 40089 70262 8562/ 333 58020 60018 70572 84708 88458==
41909,2024,09,27,03,00,AAXX 27034 41909 01456 60000 10281 20260 30099 40110 70162 82510 333 20240 58015 70374 82615 86458==
41909,2024,09,27,06,00,AAXX 27064 41909 11456 51802 10304 20260 30096 40107 60016 70162 82530 333 58014 70284 82615 85360==
41909,2024,09,27,09,00,AAXX 27094 41909 01356 81301 10294 20250 30069 40080 79522 8592/ 333 58004 70164 84708 88458 81930==
41909,2024,09,27,12,00,AAXX 27124 41909 21350 80000 10265 20250 30070 40081 70296 8562/ 333 10320 59001 60145 70214 84708 88458==
41909,2024,09,27,15,00,AAXX 27154 41909 01330 81801 10265 20250 30091 40103 72122 8572/ 333 59003 70200 84708 88458==
41909,2024,09,27,18,00,AAXX 27184 41909 11330 80000 10264 20250 30086 40098 60016 70262 8562/ 333 59010 70170 84708 88458==
41909,2024,09,27,21,00,AAXX 27214 41909 02430 50000 10265 20250 30080 40092 82530 333 59004 70160 82615 85360==
41909,2024,09,28,00,00,AAXX 28004 41909 02/50 51801 10265 20250 30075 40087 85030 333 59003 70160 85360==
41909,2024,09,28,03,00,AAXX 28034 41909 02456 51302 10291 20260 30097 40108 82530 333 20254 59002 70150 82615 85360==
41909,2024,09,28,06,00,AAXX 28064 41909 02456 51804 10321 20260 30086 40097 82530 333 59010 70150 82615 85360==
41909,2024,09,28,09,00,AAXX 28094 41909 02456 50000 10335 20240 30058 40069 82530 333 59011 70140 82615 85360==
41909,2024,09,28,12,00,AAXX 28124 41909 02350 80000 10312 20260 30056 40067 8562/ 333 10340 59014 70010 84708 88458==
41909,2024,09,28,15,00,AAXX 28154 41909 02340 50000 10295 20270 30081 40092 82530 333 59010 70000 82615 85360==
41909,2024,09,28,18,00,AAXX 28184 41909 02340 50000 10285 20270 30077 40088 82530 333 59006 70000 82615 85360==
41909,2024,09,28,21,00,AAXX 28214 41909 02340 50000 10280 20260 30074 40085 82530 333 59009 70000 82615 85360==
41909,2024,09,29,00,00,AAXX 29004 41909 02350 80000 10280 20260 30063 40074 8562/ 333 59012 70000 84708 88458==
41909,2024,09,29,03,00,AAXX 29033 41909 02356 80000 10291 20270 30085 40096 8562/ 333 20270 59012 70000 84708 88458==
41909,2024,09,29,06,00,AAXX 29064 41909 02356 81802 10313 20260 30079 40090 8562/ 333 59007 70000 84708 88458==
41909,2024,09,29,09,00,AAXX 29094 41909 01345 81303 10320 20270 30056 40067 79522 8692/ 333 59002 70014 86708 88458 81928==
41909,2024,09,29,12,00,AAXX 29124 41909 21440 80000 10285 20270 30049 40060 70296 8552/ 333 10325 59007 60055 70050 85614 88460==
41909,2024,09,29,15,00,AAXX 29154 41909 02440 40000 10285 20260 30073 40084 82530 333 59008 70050 82615 83365==
41909,2024,09,29,18,00,AAXX 29184 41909 01440 80000 10277 20270 30066 40077 70521 8552/ 333 59011 70050 85615 88460==
41909,2024,09,29,21,00,AAXX 29214 41909 01440 80000 10274 20260 30060 40071 70522 8552/ 333 59014 70050 85614 88460==
41909,2024,09,30,00,00,AAXX 30004 41909 01450 80000 10272 20260 30062 40073 70522 8552/ 333 59001 70050 85615 88460==
41909,2024,09,30,03,00,AAXX 30034 41909 02456 61801 10294 20260 30079 40090 82510 333 20264 59006 70050 82615 86458==
41909,2024,09,30,06,00,AAXX 30064 41909 02456 61801 10313 20270 30069 40080 83510 333 59010 70050 83615 86458==
41909,2024,09,30,09,00,AAXX 30094 41909 02356 80000 10322 20260 30036 40047 8462/ 333 59020 70036 83708 88458==
41909,2024,09,30,12,00,AAXX 30124 41909 02450 60000 10312 20270 30031 40042 82510 333 10326 59018 70000 82615 85458==
41909,2024,09,30,15,00,AAXX 30154 41909 02440 60000 10300 20280 30048 40059 82530 333 59025 70000 82615 85360==
41909,2024,09,30,18,00,AAXX 30184 41909 02440 60000 10292 20270 30050 40061 82530 333 59016 70000 82615 85360==
41909,2024,09,30,21,00,AAXX 30214 41909 01340 81802 10264 20240 30031 40042 70392 8562/ 333 59029 70000 84708 88458==
41909,2024,10,01,00,00,AAXX 01004 41909 01340 80000 10266 20250 30024 40035 70292 8562/ 333 59038 70000 84708 88458==
41909,2024,10,01,03,00,AAXX 01034 41909 02456 60000 10299 20270 30058 40069 82510 333 20250 59021 70000 82615 86458==
41909,2024,10,01,06,00,AAXX 01064 41909 02456 60000 10325 20270 30042 40053 82510 333 59027 70000 82615 86458==
41909,2024,10,01,09,00,AAXX 01094 41909 01356 80000 10312 20270 30012 40023 72922 8492/ 333 59024 70010 83708 88458 81930==
41909,2024,10,01,12,00,AAXX 01124 41909 21350 80000 10308 20280 30011 40022 70296 8562/ 333 10340 59020 60015 70010 84708 88458==
41909,2024,10,01,15,00,AAXX 01154 41909 02430 80000 10298 20280 30033 40044 8552/ 333 59015 70010 84614 88460==
41909,2024,10,01,18,00,AAXX 01184 41909 02430 80000 10288 20270 30037 40048 8552/ 333 59013 70010 84614 88460==
41909,2024,10,01,21,00,AAXX 01214 41909 02330 80000 10284 20260 30027 40038 8462/ 333 59004 70010 83708 88458==
41909,2024,10,02,00,00,AAXX 02004 41909 01350 80000 10280 20260 30023 40034 71722 8592/ 333 59001 70010 83708 88458 81930==
41909,2024,10,02,03,00,AAXX 02034 41909 02456 60000 10280 20260 30042 40053 82510 333 20265 59016 70010 82615 86458==
41909,2024,10,02,06,00,AAXX 02064 41909 02456 60000 10330 20250 30025 40039 82510 333 59017 70010 82615 86458==
41909,2024,10,02,09,00,AAXX 02094 41909 02456 80000 10339 20240 39994 40006 8552/ 333 59018 70000 85615 88458==
41909,2024,10,02,12,00,AAXX 02124 41909 02450 80000 10298 20260 39998 40009 8552/ 333 10345 59013 70000 85615 88458==
41909,2024,10,02,15,00,AAXX 02154 41909 01440 80000 10292 20280 30022 40033 76122 8562/ 333 59011 70010 85615 88458==
41909,2024,10,02,18,00,AAXX 02184 41909 21340 80000 10288 20280 30026 40037 79596 8492/ 333 59011 60037 70030 83708 88458 81930==
41909,2024,10,02,21,00,AAXX 02214 41909 01340 80000 10272 20260 30028 40039 70296 8492/ 333 58001 70040 83708 88458 81930==
41909,2024,10,03,00,00,AAXX 03004 41909 21350 80000 10264 20250 30012 40023 76166 8562/ 333 59011 60027 70050 84708 88458==
41909,2024,10,03,03,00,AAXX 03034 41909 01350 80000 10269 20260 30035 40046 76166 8562/ 333 20255 59007 70070 84708 88458==
41909,2024,10,03,06,00,AAXX 03064 41909 21356 80901 10290 20250 30022 40033 72166 8362/ 333 59003 60059 70100 83708 88460==
41909,2024,10,03,09,00,AAXX 03094 41909 02456 80000 10290 20250 39999 40010 8552/ 333 58005 70100 85614 88460==
41909,2024,10,03,12,00,AAXX 03124 41909 01345 81301 10261 20250 30005 40016 72162 8562/ 333 10295 58007 70010 83708 83614 88460==
41909,2024,10,03,15,00,AAXX 03154 41909 01330 81304 10260 20250 30029 40040 76122 8672/ 333 58007 70118 83708 84614 88458==
41909,2024,10,03,18,00,AAXX 03184 41909 21320 81304 10257 20250 30025 40036 79596 8692/ 333 59001 60117 70194 86708 88458 81930==
41909,2024,10,03,21,00,AAXX 03214 41909 01320 81802 10256 20256 30018 40030 79596 8692/ 333 59010 70314 86707 88458 81928==
41915,2024,09,27,00,00,AAXX 27004 41915 02456 70000 10250 20240 30078 40104 84512 333 58015 70071 84616 85458==
41915,2024,09,27,06,00,AAXX 27064 41915 02456 60502 10322 20240 30085 40114 83430 333 58005 70071 82616 84362==
41915,2024,09,27,09,00,AAXX 27094 41915 02456 40901 10334 20250 30059 40084 84430 333 59001 70071 83616==
41915,2024,09,27,12,00,AAXX 27124 41915 02450 30000 10292 20270 30059 40084 83300 333 10345 59007 70010 82616 81928==
41915,2024,09,27,15,00,AAXX 27154 41915 01450 50000 10265 20260 30085 40111 70362 83520 333 59010 70013 83616 84458==
41915,2024,09,27,18,00,AAXX 27184 41915 NIL=
41915,2024,09,28,00,00,AAXX 28004 41915 02450 70000 10258 20258 30076 40102 81532 333 59002 70013 81616 83362 85080==
41915,2024,09,28,03,00,AAXX 28034 41915 02456 70000 10294 20250 30098 40123 84411 333 20252 58002 70013 83616 84458==
41915,2024,09,28,06,00,AAXX 28064 41915 02456 62203 10314 20240 30082 40107 84410 333 59007 70013 83616 84458==
41915,2024,09,28,09,00,AAXX 28094 41915 02456 70000 10324 20240 30057 40082 85411 333 58002 70013 84616 85458==
41915,2024,09,28,12,00,AAXX 28124 41915 02450 50000 10294 20260 30054 40079 84330 333 10315 59005 70013 83616 81928==
41915,2024,09,28,15,00,AAXX 28154 41915 02440 50000 10280 20260 30067 40092 84430 333 59018 70000 83616 83362==
41915,2024,09,28,18,00,AAXX 28184 41915 01440 41002 10274 20260 30074 40099 71322 84300 333 59008 70000 83616 81928==
41915,2024,09,28,21,00,AAXX 28214 41915 02440 41802 10264 20250 30065 40090 333 58013 70000 83616 81928==
41915,2024,09,29,00,00,AAXX 29004 41915 02456 81802 10270 20260 30058 40083 8552/ 333 59018 70000 85616 88458==
41915,2024,09,29,03,00,AAXX 29033 41915 02456 81802 10290 20260 30083 40108 8552/ 333 20260 59015 70000 85616 88458==
41915,2024,09,29,06,00,AAXX 29064 41915 02456 80000 10300 20270 30070 40095 8552/ 333 59012 70000 85616 88458==
41915,2024,09,29,09,00,AAXX 29094 41915 02456 82202 10310 20260 30047 40072 8542/ 333 59010 70000 84616 88458==
41915,2024,09,29,15,00,AAXX 29154 41915 01440 80000 10285 20280 30068 40093 71322 8632/ 333 58001 70000 85616 88458 81928==
41915,2024,09,29,18,00,AAXX 29184 41915 02440 80000 10280 20270 30061 40086 8532/ 333 59013 70000 84616 88458 81928==
41915,2024,09,29,21,00,AAXX 29214 41915 01440 80000 10270 20260 30050 40075 71799 8632/ 333 58015 70116 85616 88458 81928==
41915,2024,09,30,00,00,AAXX 30004 41915 11450 80000 10270 20260 30049 40074 60126 71799 8632/ 333 59009 70116 85616 88458 81928==
41915,2024,09,30,03,00,AAXX 30034 41915 01456 71802 10305 20280 30072 40097 70192 84510 333 20266 59009 70116 84615 87460==
41915,2024,09,30,06,00,AAXX 30064 41915 01456 61802 10320 20270 30062 40087 70192 84470 333 59008 70116 83616 84460==
41915,2024,09,30,09,00,AAXX 30094 41915 02456 31803 10320 20270 30029 40054 81570 333 59018 70116 81616==
41915,2024,09,30,12,00,AAXX 30124 41915 02950 10000 10296 20280 30024 40049 80002 333 10326 59022 70116 81080==
41915,2024,09,30,15,00,AAXX 30154 41915 02450 61301 10280 20270 30040 40065 83510 333 59028 70116 83616 86460==
41915,2024,10,01,00,00,AAXX 01004 41915 01450 80000 10270 30030 40055 70522 8452/ 333 59019 70000 84615 88458==
41915,2024,10,01,03,00,AAXX 01034 41915 01456 81301 10290 20270 30050 40075 70292 8431/ 333 20265 59022 70000 84615 88460 81928==
41915,2024,10,01,06,00,AAXX 01064 41915 02456 72702 10320 20270 30033 40058 84410 333 59029 70000 83616 87460==
41915,2024,10,01,09,00,AAXX 01094 41915 02456 70000 10320 20270 39998 40023 83410 333 59031 70000 83616 87460==
41915,2024,10,01,12,00,AAXX 01124 41915 02450 70000 10290 20280 30010 40035 83510 333 10324 59014 70000 83616 87460==
41915,2024,10,01,15,00,AAXX 01154 41915 02950 20000 10275 20270 30004 40049 80002 333 59016 70000 82080==
41915,2024,10,01,21,00,AAXX 01214 41915 01450 80000 10266 20260 30015 40040 70500 8352/ 333 59016 70000 83616 88458==
41915,2024,10,02,00,00,AAXX 02004 41915 01440 80000 10266 20266 30013 40038 70522 8252/ 333 59017 70000 82616 88458==
41915,2024,10,02,03,00,AAXX 02034 41915 02456 21201 10302 20270 30026 40051 82500 333 20265 59024 70000 82616==
41915,2024,10,02,06,00,AAXX 02064 41915 02456 62802 10328 20270 30008 40033 85430 333 58025 70000 84616 83362==
41915,2024,10,02,09,00,AAXX 02094 41915 02456 70000 10332 20260 39978 40003 85471 333 59020 70000 84616 84458==
41915,2024,10,02,12,00,AAXX 02124 41915 01440 81302 10300 20260 39994 40019 71722 8632/ 333 10350 59016 70000 85616 88458 81928==
41915,2024,10,02,15,00,AAXX 02154 41915 01440 80000 10260 20250 30017 40042 76196 8632/ 333 58007 70090 83710 85616 88457 81928==
41915,2024,10,02,18,00,AAXX 02184 41915 21440 80000 10256 20250 30019 40044 70296 8632/ 333 58004 60108 70100 85616 88458 81928==
41915,2024,10,02,21,00,AAXX 02214 41915 01440 81302 10256 20250 30008 40033 70262 8632/ 333 59007 70110 85616 88458 81928==
41915,2024,10,03,00,00,AAXX 03004 41915 01456 71002 10257 20257 30015 40040 70162 85470 333 58002 70116 84616 85458==
41915,2024,10,03,03,00,AAXX 03034 41915 02456 81301 10277 20260 30034 40059 8542/ 333 20255 58008 70116 84615 88458==
41915,2024,10,03,06,00,AAXX 03064 41915 02456 81302 10296 20250 30020 40045 8542/ 333 58012 70116 84615 88458==
41915,2024,10,03,09,00,AAXX 03094 41915 02456 81802 10282 20250 30000 40025 8542/ 333 58022 70116 84615 88458==
41915,2024,10,03,12,00,AAXX 03124 41915 02450 60000 10268 20250 30008 40033 83510 333 10306 58016 70116 83616 86459==
41915,2024,10,03,15,00,AAXX 03154 41915 02450 80000 10265 20260 30037 40063 8452/ 333 58020 70026 84615 88458==
41915,2024,10,03,18,00,AAXX 03184 41915 NIL=
41915,2024,10,03,21,00,AAXX 03214 41915 02450 81302 10258 20250 30029 40055 8352/ 333 58021 70006 83616 88458==
41923,2024,09,27,00,00,AAXX 27004 41923 11330 80000 10256 20250 30088 40097 69926 70266 8632/ 333 58020 70070 82709 84615 88458 81930==
41923,2024,09,27,03,00,AAXX 27034 41923 02340 70000 10296 20260 30106 40116 84670 333 20246 58012 70678 82709 83615 86458==
41923,2024,09,27,06,00,AAXX 27064 41923 21330 81802 10306 20250 30097 40107 76166 8632/ 333 58005 60037 70294 83709 84615 88458 81930==
41923,2024,09,27,09,00,AAXX 27094 41923 01340 70000 10278 20250 30074 40084 72196 84370 333 58005 70344 81709 83615 85458 81930==
41923,2024,09,27,12,00,AAXX 27124 41923 21340 80000 10280 20260 30075 40085 70396 8462/ 333 10312 59002 60088 70120 82709 83615 88458==
41923,2024,09,27,15,00,AAXX 27154 41923 02440 40000 10270 20250 30096 40106 81530 333 59005 70112 81615 84360==
41923,2024,09,27,18,00,AAXX 27184 41923 02440 40000 10266 20260 30094 40104 81530 333 59006 70110 81615 84360==
41923,2024,09,27,21,00,AAXX 27214 41923 02440 30000 10264 20250 30081 40091 81530 333 59003 70108 81615 83360==
41923,2024,09,28,00,00,AAXX 28004 41923 01440 30000 10263 20260 30086 40096 70500 81530 333 59002 70108 81615 83360==
41923,2024,09,28,03,00,AAXX 28034 41923 02450 41802 10300 20260 30105 40115 84400 333 20261 59001 70108 83615==
41923,2024,09,28,06,00,AAXX 28064 41923 02456 41802 10328 20250 30091 40101 84800 333 59006 70080 81615 83424==
41923,2024,09,28,09,00,AAXX 28094 41923 02456 51802 10342 20240 30067 40077 84430 333 59007 70000 82616 83824==
41923,2024,09,28,12,00,AAXX 28124 41923 02450 61802 10312 20260 30065 40075 84430 333 10343 59010 70000 82616 85365==
41923,2024,09,28,15,00,AAXX 28154 41923 02440 50000 10294 20250 30090 40100 83430 333 59006 70000 82615 84360==
41923,2024,09,28,18,00,AAXX 28184 41923 02440 60000 10289 20260 30088 40098 82530 333 59006 70000 82616 85360==
41923,2024,09,28,21,00,AAXX 28214 41923 02340 70000 10285 20270 30079 40089 84670 333 59002 70000 81709 83615 86458==
41923,2024,09,29,00,00,AAXX 29004 41923 01340 80000 10282 20260 30074 40084 70522 8562/ 333 59012 70000 82709 83615 88458==
41923,2024,09,29,03,00,AAXX 29034 41923 01350 72903 10300 20270 30096 40106 72122 84670 333 20280 59009 70001 82709 83615 85458==
41923,2024,09,29,06,00,AAXX 29064 41923 21350 72902 10326 20270 30083 40093 70262 85370 333 59008 69915 70001 82709 84615 85458 81930==
41923,2024,09,29,09,00,AAXX 29094 41923 02340 82703 10326 20270 30059 40069 8632/ 333 58008 70001 83709 84615 88458 81930==
41923,2024,09,29,12,00,AAXX 29124 41923 02340 70000 10314 20260 30057 40067 84670 333 10338 58008 70001 82709 84615 86458==
41923,2024,09,29,15,00,AAXX 29154 41923 01335 80000 10290 20270 30080 40090 72996 8632/ 333 58010 70001 83709 84615 88458 81930==
41923,2024,09,29,18,00,AAXX 29184 41923 21335 70000 10290 20260 30071 40081 70196 84670 333 58017 60008 70001 82709 84615 86458==
41923,2024,09,29,21,00,AAXX 29214 41923 02335 70000 10288 20270 30063 40073 84670 333 58016 70001 82709 84615 86458==
41923,2024,09,30,00,00,AAXX 30004 41923 01335 80000 10288 20270 30070 40080 70522 8562/ 333 58004 70001 82709 83615 88458==
41923,2024,09,30,03,00,AAXX 30034 41923 01335 80000 10288 20280 30090 40100 72122 8562/ 333 20286 58006 70014 82709 83615 88458==
41923,2024,09,30,06,00,AAXX 30064 41923 21340 80000 10304 20270 30075 40085 70262 8562/ 333 58008 60015 70014 82709 83615 88458==
41923,2024,09,30,09,00,AAXX 30094 41923 01440 70000 10317 20270 30045 40055 70522 84370 333 59014 70014 83615 85458 81930==
41923,2024,09,30,12,00,AAXX 30124 41923 01440 60000 10302 20270 30038 40048 70522 81531 333 10318 59019 70014 81616 84360==
41923,2024,09,30,15,00,AAXX 30154 41923 02440 60000 10296 20280 30056 40066 82530 333 59024 70014 82616 85360==
41923,2024,09,30,18,00,AAXX 30184 41923 01440 70000 10292 20270 30053 40063 71322 83330 333 59018 70014 83615 85360 81930==
41923,2024,09,30,21,00,AAXX 30214 41923 01330 80000 10262 20250 30035 40045 79196 8632/ 333 59028 70133 83709 84614 88458 81930==
41923,2024,10,01,00,00,AAXX 01004 41923 21440 40000 10262 20250 30039 40049 70196 81530 333 59031 60128 70134 81615 84360==
41923,2024,10,01,03,00,AAXX 01034 41923 01450 51802 10302 20260 30062 40072 70522 81530 333 20261 59028 70120 81616 85360==
41923,2024,10,01,06,00,AAXX 01064 41923 02456 50000 10328 20270 30048 40058 82430 333 59027 70120 81616 84360==
41923,2024,10,01,09,00,AAXX 01094 41923 01340 80000 10350 20260 30009 40019 72122 8632/ 333 59036 70013 83708 84614 88458 81930==
41923,2024,10,01,12,00,AAXX 01124 41923 21340 80000 10292 20250 30020 40030 79596 8692/ 333 10352 59018 60017 70134 83708 84614 88458 81930==
41923,2024,10,01,15,00,AAXX 01154 41923 01340 80000 10288 20270 30039 40049 72196 8632/ 333 59017 70136 83708 84614 88458 81930==
41923,2024,10,01,18,00,AAXX 01184 41923 21440 70000 10284 20260 30040 40050 70196 83570 333 59013 69918 70136 83615 86458==
41923,2024,10,01,21,00,AAXX 01214 41923 01435 70000 10278 20260 30022 40032 70522 83570 333 59013 70017 83615 86458==
41923,2024,10,02,00,00,AAXX 02004 41923 01430 50000 10272 20260 30028 40038 70522 81530 333 59011 70016 81616 85360==
41923,2024,10,02,03,00,AAXX 02034 41923 01335 80000 10292 20260 30043 40053 70522 8562/ 333 20271 59019 70016 82709 83615 88458==
41923,2024,10,02,06,00,AAXX 02064 41923 02340 80000 10332 20250 30022 40032 8632/ 333 59026 70016 83708 84614 88458 81930==
41923,2024,10,02,09,00,AAXX 02094 41923 01440 82702 10318 20260 39998 40008 70262 8532/ 333 59011 70006 85615 88459 81930==
41923,2024,10,02,12,00,AAXX 02124 41923 21330 82702 10300 20260 30004 40014 76062 8632/ 333 10335 59016 60007 70002 83708 84614 88459 81928==
41923,2024,10,02,15,00,AAXX 02154 41923 01330 80000 10263 20260 30033 40043 79596 8692/ 333 59006 70276 86707 88458 81925==
41923,2024,10,02,18,00,AAXX 02184 41923 21330 80000 10268 20268 30027 40037 79596 8692/ 333 59013 60329 70324 83708 84613 88458 81928==
41923,2024,10,02,21,00,AAXX 02214 41923 01330 80000 10265 20265 30020 40030 76396 8632/ 333 59002 70376 86707 88458 81925==
41923,2024,10,03,00,00,AAXX 03004 41923 21330 80000 10262 20260 30018 40028 76396 8632/ 333 59010 60119 70436 86707 88458 81925==
41923,2024,10,03,03,00,AAXX 03034 41923 01330 80000 10260 20260 30038 40048 76366 8632/ 333 20257 59005 70524 83708 84613 88458 81928==
41923,2024,10,03,06,00,AAXX 03064 41923 21340 81802 10274 20250 30029 40039 70266 8532/ 333 58007 60098 70528 81710 84614 88459 81930==
41923,2024,10,03,09,00,AAXX 03094 41923 01330 81803 10270 20250 30007 40017 76166 8532/ 333 58009 70548 82709 84614 88458 81930==
41923,2024,10,03,12,00,AAXX 03124 41923 21340 81802 10270 20250 30012 40022 76166 8532/ 333 10280 58008 60039 70554 82709 84614 88458 81930==
41923,2024,10,03,15,00,AAXX 03154 41923 02340 70000 10274 20250 30039 40049 84670 333 58006 70278 82709 83615 85458==
41923,2024,10,03,18,00,AAXX 03184 41923 02440 70000 10274 20250 30037 40047 84670 333 58010 70230 82709 83615 85458==
41923,2024,10,03,21,00,AAXX 03214 41923 02340 70000 10273 20250 30027 40037 85670 333 58007 70178 83709 83615 85458==
41926,2024,09,27,00,00,AAXX 27004 41926 02450 80000 10252 20240 30071 40085 8452/ 333 58020 70119 84615 88459==
41926,2024,09,27,03,00,AAXX 27034 41926 02450 80000 10275 20270 30091 40105 8452/ 333 20252 58019 70071 84615 88459==
41926,2024,09,27,06,00,AAXX 27064 41926 02450 70000 10320 20260 30082 40095 83570 333 58010 70046 83616 84459==
41926,2024,09,27,09,00,AAXX 27094 41926 02450 70000 10318 20250 30054 40067 84510 333 58003 70036 84615 86459==
41926,2024,09,27,12,00,AAXX 27124 41926 21450 80000 10275 20260 30062 40076 70362 8452/ 333 10330 58008 60075 70084 84615 88458==
41926,2024,09,27,15,00,AAXX 27154 41926 02450 80000 10269 20260 30081 40095 8452/ 333 59005 70074 84615 88458==
41926,2024,09,27,18,00,AAXX 27184 41926 02450 80000 10265 20260 30078 40092 8452/ 333 58001 70070 84615 88458==
41926,2024,09,27,21,00,AAXX 27214 41926 02450 60000 10265 20260 30072 40086 83510 333 59002 70070 83616 85459==
41926,2024,09,28,00,00,AAXX 28004 41926 02450 50000 10265 20265 30075 40089 83430 333 58004 70070 82618 83362==
41926,2024,09,28,03,00,AAXX 28034 41926 02456 40000 10302 20260 30091 40104 84400 333 20264 58000 70070 82618 83822==
41926,2024,09,28,06,00,AAXX 28064 41926 02456 50000 10320 20270 30078 40091 85400 333 59004 70070 83618 83822==
41926,2024,09,28,09,00,AAXX 28094 41926 02456 50000 10336 20270 30053 40066 85400 333 59001 70070 82618 83828==
41926,2024,09,28,12,00,AAXX 28124 41926 02450 20000 10310 20260 30055 40068 82500 333 10343 59007 70000 82618==
41926,2024,09,28,15,00,AAXX 28154 41926 02450 50000 10287 20280 30079 40093 83510 333 59002 70000 83618 85459==
41926,2024,09,28,18,00,AAXX 28184 41926 02450 80000 10278 20270 30076 40090 8352/ 333 59002 70000 83618 88458==
41926,2024,09,28,21,00,AAXX 28214 41926 02450 80000 10278 20270 30070 40084 8352/ 333 59002 70000 83618 88458==
41926,2024,09,29,00,00,AAXX 29004 41926 02450 80000 10278 20270 30065 40079 8352/ 333 59010 70000 83618 88458==
41926,2024,09,29,03,00,AAXX 29033 41926 02450 30000 10308 20280 30084 40097 83500 333 20273 59007 70000 83618==
41926,2024,09,29,06,00,AAXX 29064 41926 02450 30000 10336 20280 30073 40086 82510 333 59005 70000 82618==
41926,2024,09,29,09,00,AAXX 29094 41926 02/50 50000 10345 20280 30052 40065 85010 333 59001 70000 85459==
41926,2024,09,29,15,00,AAXX 29154 41926 02450 80000 10278 20260 30073 40087 8252/ 333 59006 70000 82618 88458==
41926,2024,09,29,18,00,AAXX 29184 41926 02450 80000 10276 20270 30066 40080 8252/ 333 59010 70000 82618 88458==
41926,2024,09,29,21,00,AAXX 29214 41926 02450 50000 10276 20270 30064 40078 82510 333 59006 70000 82618 83459==
41926,2024,09,30,00,00,AAXX 30004 41926 02/50 30000 10278 20270 30064 40078 83010 333 59001 70000 83459==
41926,2024,09,30,03,00,AAXX 30034 41926 01950 40000 10294 20270 30079 40093 70510 80002 333 20274 59005 70000 84080==
41926,2024,09,30,06,00,AAXX 30064 41926 02450 50000 10342 20270 30064 40077 83410 333 59009 70000 82618 84459==
41926,2024,09,30,09,00,AAXX 30094 41926 02456 60000 10345 20270 30033 40046 83410 333 59019 70000 82618 85459==
41926,2024,09,30,12,00,AAXX 30124 41926 02450 70000 10322 20290 30027 40040 83510 333 10355 59028 70000 83618 87459==
41926,2024,09,30,15,00,AAXX 30154 41926 01450 70000 10300 20270 30045 40058 71322 84310 333 59028 70000 83616 87459 81930==
41926,2024,09,30,18,00,AAXX 30184 41926 01450 80000 10282 20260 30044 40057 71796 8532/ 333 59022 70030 84615 88458 81930==
41926,2024,09,30,21,00,AAXX 30214 41926 02450 70000 10280 20260 30041 40054 83510 333 59023 70030 83617 87459==
41926,2024,10,01,00,00,AAXX 01004 41926 01440 60000 10275 20260 30034 40048 70522 82510 333 59030 70030 82618 86459==
41926,2024,10,01,03,00,AAXX 01034 41926 01450 80000 10295 20290 30051 40064 70522 8352/ 333 20273 59028 70030 83618 88458==
41926,2024,10,01,06,00,AAXX 01064 41926 01450 80000 10330 20280 30041 40054 76122 8452/ 333 59023 70000 84615 88458==
41926,2024,10,01,09,00,AAXX 01094 41926 01450 80000 10307 20290 30008 40021 71792 8532/ 333 59025 70030 84616 88458 81930==
41926,2024,10,01,12,00,AAXX 01124 41926 02450 70000 10292 20260 30011 40024 83510 333 10338 59016 70030 83617 87459==
41926,2024,10,01,15,00,AAXX 01154 41926 01450 60000 10282 20270 30032 40045 70522 81510 333 59013 70030 81618 86459==
41926,2024,10,01,18,00,AAXX 01184 41926 41450 60000 10280 20260 30034 40047 70522 82510 333 59010 82618 86459==
41926,2024,10,01,21,00,AAXX 01214 41926 41450 60000 10275 20270 30032 40045 70522 82510 333 59009 82618 86459==
41926,2024,10,02,00,00,AAXX 02004 41926 41440 60000 10273 20270 30026 40040 70522 82510 333 59008 82618 86459==
41926,2024,10,02,03,00,AAXX 02034 41926 01350 83105 10295 20260 30044 40057 79522 8492/ 333 20272 59007 70020 83708 83615 88458 81930==
41926,2024,10,02,06,00,AAXX 02064 41926 21350 80000 10290 20270 30033 40047 71796 8492/ 333 59008 60175 70166 82708 83615 88458 81930==
41926,2024,10,02,09,00,AAXX 02094 41926 01456 60000 10302 20270 30008 40015 70162 83510 333 59006 70186 83617 86459==
41926,2024,10,02,12,00,AAXX 02124 41926 11450 60000 10282 20260 30006 40019 60026 70262 82510 333 10318 59005 70186 82618 86459==
41926,2024,10,02,15,00,AAXX 02154 41926 02450 60000 10275 20260 30024 40037 82510 333 59008 70186 82618 86459==
41926,2024,10,02,18,00,AAXX 02184 41926 01450 60000 10273 20250 30022 40036 70522 82510 333 59012 70186 82618 86459==
41926,2024,10,02,21,00,AAXX 02214 41926 01450 70000 10272 20260 30018 40032 70522 83510 333 59014 70186 83617 87459==
41926,2024,10,03,00,00,AAXX 03004 41926 01440 70000 10270 20260 30012 40026 70522 83510 333 59014 70186 83617 87459==
41926,2024,10,03,03,00,AAXX 03034 41926 01340 80000 10247 20240 30033 40047 79762 8952/ 333 20247 59011 70636 83708 84615 88458 81930==
41926,2024,10,03,06,00,AAXX 03064 41926 21350 80000 10260 20250 30019 40033 76196 8572/ 333 59014 60549 70556 83708 84615 88458==
41926,2024,10,03,09,00,AAXX 03094 41926 01350 80000 10280 20260 39996 40010 70262 8572/ 333 59006 70546 82708 84615 88458==
41926,2024,10,03,12,00,AAXX 03124 41926 11350 80000 10275 20260 30002 40016 60016 70262 8572/ 333 10285 59004 70546 82708 84615 88458==
41926,2024,10,03,15,00,AAXX 03154 41926 02450 80000 10265 20260 30027 40041 8352/ 333 58003 70546 83615 88458==
41926,2024,10,03,18,00,AAXX 03184 41926 02450 80000 10265 20260 30026 40040 8452/ 333 58004 70546 84615 88458==
41926,2024,10,03,21,00,AAXX 03214 41926 02450 80000 10263 20250 30024 40038 8452/ 333 58006 70546 84615 88458==
41927,2024,09,27,00,00,AAXX 27004 41927 32450 81802 10256 20256 30086 40101 8452/ 333 56499 58035 70082 84616 88458=
41927,2024,09,27,06,00,AAXX 27064 41927 32456 81801 10302 20260 30086 40101 8452/ 333 56499 58014 70000 84616 88458=
41927,2024,09,27,12,00,AAXX 27124 41927 11456 81802 10284 20260 30060 40075 60024 8452/ 333 10320 56499 59002 70020 84616 88458=
41927,2024,09,27,18,00,AAXX 27184 41927 NIL=
41927,2024,09,28,00,00,AAXX 28004 41927 32450 61802 10257 20257 30074 40089 83510 333 56490 59012 70130 83617 85459=
41927,2024,09,28,06,00,AAXX 28064 41927 32457 61802 10324 20260 30078 40093 83510 333 56490 59008 70130 83617 85459=
41927,2024,09,28,12,00,AAXX 28124 41927 32957 01802 10310 20260 30054 40069 333 10336 59002 70110=
41927,2024,09,28,18,00,AAXX 28184 41927 NIL=
41927,2024,09,29,00,00,AAXX 29004 41927 31450 61802 10274 20260 30070 40085 83510 333 56490 59004 70000 83617 85459=
41927,2024,09,29,06,00,AAXX 29064 41927 32457 71801 10330 20270 30076 40091 83510 333 56490 59002 70000 83617 86459=
41927,2024,09,29,18,00,AAXX 29184 41927 NIL=
41927,2024,09,30,00,00,AAXX 30004 41927 32956 00000 10270 20260 30064 40079 333 59006 70000=
41927,2024,09,30,06,00,AAXX 30064 41927 32457 61801 10324 20250 30068 40083 83510 333 56490 59008 70000 83617 85459=
41927,2024,09,30,12,00,AAXX 30124 41927 32456 70000 10312 20290 30031 40046 83510 333 10335 56490 59019 70000 83617 87459=
41927,2024,09,30,18,00,AAXX 30184 41927 11450 83202 10274 20260 30050 40065 60115 71396 8432/ 333 56799 59022 70110 83616 81930 88459=
41927,2024,10,01,00,00,AAXX 01004 41927 32457 70000 10266 20260 30028 40043 83510 333 56590 59036 70110 83617 87459=
41927,2024,10,01,06,00,AAXX 01064 41927 32457 60000 10320 20270 30042 40057 84410 333 56690 59026 70110 83617 85459=
41927,2024,10,01,12,00,AAXX 01124 41927 11456 60000 10285 20270 30009 40024 60036 70196 83510 333 10332 56590 59022 70136 83617 85459=
41927,2024,10,01,18,00,AAXX 01184 41927 32456 70000 10272 20260 30039 40054 83510 333 56690 59011 70026 83617 87459=
41927,2024,10,02,00,00,AAXX 02004 41927 31950 30000 10268 20260 30019 40034 70510 83030 333 56090 59009 70026 83362=
41927,2024,10,02,06,00,AAXX 02064 41927 11340 80000 10265 20260 30025 40040 60124 79596 8592/ 333 56699 59017 70146 82707 83615 81929 88458=
41927,2024,10,02,12,00,AAXX 02124 41927 11456 62701 10290 20270 30002 40017 69966 70296 83510 333 10317 56690 59007 70126 83617 86459=
41927,2024,10,02,18,00,AAXX 02184 41927 31450 40000 10275 20270 30017 40032 70521 82510 333 56690 59022 70126 82617 84459=
41927,2024,10,03,00,00,AAXX 03004 41927 11440 83101 10260 20260 30011 40026 60114 79596 8692/ 333 56699 59008 70234 85615 81929 88458=
41927,2024,10,03,06,00,AAXX 03064 41927 11456 80000 20283 20260 30017 40032 60088 70296 8452/ 333 56499 59008 70198 84617 88458=
41927,2024,10,03,12,00,AAXX 03124 41927 11456 80000 10267 20260 30000 40015 60328 70262 8452/ 333 10283 56599 59002 70510 84617 88458=
41927,2024,10,03,18,00,AAXX 03184 41927 NIL=
41929,2024,09,27,00,00,AAXX 27004 41929 21450 80000 10265 20260 30080 40089 72166 8452/ 333 58016 60239 70444 84616==
41929,2024,09,27,03,00,AAXX 27034 41929 02456 61402 10300 20260 30104 40113 83570 333 20255 58019 70320 83618 85462==
41929,2024,09,27,06,00,AAXX 27064 41929 02457 51802 10324 20250 30095 40104 82540 333 58012 70316 82618 85365==
41929,2024,09,27,09,00,AAXX 27094 41929 01456 61803 10287 20260 30082 40081 70362 83430 333 58006 70264 82617 84363==
41929,2024,09,27,12,00,AAXX 27124 41929 11456 80000 10282 20260 30071 40080 60021 70362 8451/ 333 10325 58003 70248 84617 88460==
41929,2024,09,27,15,00,AAXX 27154 41929 02/56 40000 10275 20270 30093 40102 84030 333 59004 70248 84365==
41929,2024,09,27,18,00,AAXX 27184 41929 NIL=
41929,2024,09,28,00,00,AAXX 28004 41929 02456 60000 10268 20260 30079 40088 83530 333 59001 70018 83617 83362==
41929,2024,09,28,03,00,AAXX 28034 41929 02456 51402 10296 20270 30104 40113 85440 333 20264 58000 70018 82618 83825==
41929,2024,09,28,06,00,AAXX 28064 41929 02457 42002 10328 20260 30090 40099 84440 333 59005 70018 83618==
41929,2024,09,28,09,00,AAXX 28094 41929 02457 52302 10332 20250 30064 40073 83430 333 59008 70000 82618 83365==
41929,2024,09,28,12,00,AAXX 28124 41929 02/57 50000 10315 20270 30064 40073 85030 333 10337 59007 70000 85365==
41929,2024,09,28,15,00,AAXX 28154 41929 02/56 30000 10295 20280 30085 40094 83030 333 59008 70000 83365==
41929,2024,09,28,18,00,AAXX 28184 41929 01/56 22302 10285 20280 30082 70092 82030 333 59010 70000 82365==
41929,2024,09,28,21,00,AAXX 28214 41929 02/56 30000 10283 20270 30076 40085 83030 333 59010 70000 83365==
41929,2024,09,29,00,00,AAXX 29004 41929 02456 50000 10280 20270 30070 40079 83530 333 59009 70000 83616 83365==
41929,2024,09,29,03,00,AAXX 29034 41929 02456 82702 10308 20270 30094 40103 8452/ 333 20275 59010 70000 83618 88462==
41929,2024,09,29,06,00,AAXX 29064 41929 02456 82002 10326 20280 30083 40092 8351/ 333 59007 70000 83618 88462==
41929,2024,09,29,09,00,AAXX 29094 41929 02457 60000 10335 20270 30061 40070 83530 333 59003 70000 83618 83365==
41929,2024,09,29,12,00,AAXX 29124 41929 02450 70000 10292 20250 30055 40069 83310 333 10348 58000 70000 83618 86459 81930==
41929,2024,09,29,15,00,AAXX 29154 41929 01456 80000 10292 20280 30078 40087 72122 8452/ 333 59007 70002 84616 88458==
41929,2024,09,29,18,00,AAXX 29184 41929 21456 80000 10287 20280 30072 40081 70262 8451/ 333 59010 69925 70002 84616 88459==
41929,2024,09,29,21,00,AAXX 29214 41929 02456 80000 10279 20270 30070 40079 8452/ 333 59006 70002 84616 88458==
41929,2024,09,30,00,00,AAXX 30004 41929 21456 80000 10270 20260 30068 40077 79596 8592/ 333 59002 60087 70078 84616 88458 81930==
41929,2024,09,30,03,00,AAXX 30034 41929 02456 81802 10304 20280 30091 40100 8352/ 333 20267 59003 70078 83618 88462==
41929,2024,09,30,06,00,AAXX 30064 41929 02456 80000 10320 20280 30076 40085 333 59007 70078 83618 88462==
41929,2024,09,30,09,00,AAXX 30094 41929 02456 80000 10328 20280 30041 40051 83510 333 59020 70078 83616 88460==
41929,2024,09,30,12,00,AAXX 30124 41929 02456 80000 10312 20290 30039 40049 8352/ 333 10335 59016 70078 83616 88458==
41929,2024,09,30,15,00,AAXX 30154 41929 02456 80000 10300 20290 30057 40067 8352/ 333 59021 70076 83616 88458==
41929,2024,09,30,18,00,AAXX 30184 41929 01456 83603 10294 20280 30055 40065 71796 8592/ 333 59017 70076 84616 88458 82930==
41929,2024,09,30,21,00,AAXX 30214 41929 01450 81802 10281 20270 30040 40050 70596 8352/ 333 59030 70112 83616 88458==
41929,2024,10,01,00,00,AAXX 01004 41929 11450 80000 10276 20270 30040 40050 60046 70596 8352/ 333 59028 70036 83616 88458==
41929,2024,10,01,03,00,AAXX 01034 41929 02456 80000 10300 20280 30064 40073 8351/ 333 20260 59027 70036 83618 88462==
41929,2024,10,01,06,00,AAXX 01064 41929 02457 83202 10330 20280 30046 40055 8351/ 333 59030 70036 83618 88462==
41929,2024,10,01,09,00,AAXX 01094 41929 01456 80000 10314 20280 30009 40018 71722 8591/ 333 59032 70042 83618 88462 81930==
41929,2024,10,01,12,00,AAXX 01124 41929 21456 80000 10300 20290 30018 40027 70262 8351/ 333 10350 59021 60065 70096 83618 88462==
41929,2024,10,01,15,00,AAXX 01154 41929 02456 80000 10290 20280 30036 40046 8351/ 333 59021 70096 83617 88460==
41929,2024,10,01,21,00,AAXX 01214 41929 02456 80000 10280 20270 30032 40042 8351/ 333 59018 70060 83617 88460==
41929,2024,10,02,00,00,AAXX 02004 41929 01450 60000 10280 20270 30028 40038 70522 83510 333 58012 70060 83617 86460==
41929,2024,10,02,03,00,AAXX 02034 41929 02456 80000 10310 20280 30046 40056 8352/ 333 20275 59018 70060 83617 88460==
41929,2024,10,02,06,00,AAXX 02064 41929 02456 63003 10340 20290 30026 40036 83510 333 59020 70060 83617 85460==
41929,2024,10,02,09,00,AAXX 02094 41929 02457 62702 10333 20270 30000 40009 83530 333 59009 70054 83617 83363==
41929,2024,10,02,12,00,AAXX 02124 41929 02456 80000 10303 20270 30007 40016 8451/ 333 10342 59011 70000 84617 88460==
41929,2024,10,02,15,00,AAXX 02154 41929 01456 80000 10295 20280 30031 40040 70292 8451/ 333 59005 70000 84618 88462==
41929,2024,10,02,18,00,AAXX 02184 41929 21456 80000 10292 20280 30026 40035 76196 8452/ 333 58004 60037 70000 84616 88459==
41929,2024,10,03,00,00,AAXX 03004 41929 21456 80000 10272 20260 30019 40028 76196 8452/ 333 59009 60579 70598 84616 88459==
41929,2024,10,03,03,00,AAXX 03034 41929 01456 80000 10275 20270 30037 40046 70262 84528 333 20262 59009 70164 84616 88459==
41929,2024,10,03,06,00,AAXX 03064 41929 01456 81802 10280 20270 30026 40035 76166 8451/ 333 58000 70624 84618 88462==
41929,2024,10,03,09,00,AAXX 03094 41929 01356 80000 10280 20270 30006 40016 76166 8672/ 333 58006 70634 83708 84616 88458==
41929,2024,10,03,12,00,AAXX 03124 41929 21456 80000 10280 20270 30010 40020 70262 8452/ 333 10285 58003 60015 70634 84617 88458==
41929,2024,10,03,15,00,AAXX 03154 41929 01456 81805 10280 20270 30028 40037 71322 84310 333 59003 70634 83618 87462 81930==
41929,2024,10,03,18,00,AAXX 03184 41929 NIL=
41929,2024,10,03,21,00,AAXX 03214 41929 02456 60000 10275 20260 30029 40038 83510 333 58006 70240 83618 86462==
41933,2024,09,27,00,00,AAXX 27004 41933 02440 40902 10252 20240 30091 40099 82520 333 58026 70140 82618 84458==
41933,2024,09,27,03,00,AAXX 27034 41933 02456 21703 10300 20250 30110 40118 82500 333 20250 58021 70140 82618==
41933,2024,09,27,06,00,AAXX 27064 41933 02456 51802 10322 20250 30089 40098 84840 333 59002 70140 82618 83828==
41933,2024,09,27,09,00,AAXX 27094 41933 02456 51802 10315 20250 30063 40071 84840 333 59004 70010 82618 83828==
41933,2024,09,27,12,00,AAXX 27124 41933 21450 40000 10275 20250 30075 40083 70162 82520 333 10332 58000 60025 82618 84458==
41933,2024,09,27,15,00,AAXX 27154 41933 02440 40000 10275 20260 30099 40107 82520 333 59006 70020 82618 84458==
41933,2024,09,27,18,00,AAXX 27184 41933 02440 40000 10272 20250 30105 40113 82520 333 58000 70020 82618 84458==
41933,2024,09,27,21,00,AAXX 27214 41933 02440 80000 10271 20260 30099 40108 8462/ 333 58001 70020 82710 84618 88458==
41933,2024,09,28,00,00,AAXX 28004 41933 02440 81702 10270 20260 30094 40102 8562/ 333 58003 70020 82710 84618 88458==
41933,2024,09,28,03,00,AAXX 28034 41933 02456 52302 10300 20260 30110 40118 82520 333 20265 58000 70020 82618 85458==
41933,2024,09,28,06,00,AAXX 28064 41933 02456 32302 10322 20250 30097 40105 82530 333 58008 70020 82618 83362==
41933,2024,09,28,09,00,AAXX 28094 41933 02456 42303 10330 20250 30072 40080 82520 333 58009 70020 82618 84458==
41933,2024,09,28,12,00,AAXX 28124 41933 01450 50000 10300 20270 30069 40077 70361 82520 333 10336 59006 70010 82618 85458==
41933,2024,09,28,15,00,AAXX 28154 41933 02450 20000 10290 20270 30093 40101 82500 333 59006 70010 82618==
41933,2024,09,28,18,00,AAXX 28184 41933 02440 20000 10285 20270 30098 40106 82500 333 59007 70010 82618==
41933,2024,09,28,21,00,AAXX 28214 41933 02440 80000 10282 20260 30088 40096 8562/ 333 59011 70010 82710 84618 88458==
41933,2024,09,29,00,00,AAXX 29004 41933 02450 82302 10280 20260 30081 40089 8462/ 333 58013 70010 82710 84618 88458==
41933,2024,09,29,03,00,AAXX 29033 41933 02456 32702 10295 20270 30101 40109 82530 333 20276 59009 70010 82618 83362==
41933,2024,09,29,06,00,AAXX 29064 41933 02456 42703 10325 20270 30086 40094 82530 333 59011 70010 82618 84362==
41933,2024,09,29,09,00,AAXX 29094 41933 02456 52703 10330 20280 30061 40069 82520 333 59011 70010 82618 85458==
41933,2024,09,29,12,00,AAXX 29124 41933 01450 52702 10290 20260 30061 40069 72122 82520 333 10336 59008 70010 82618 85458==
41933,2024,09,29,15,00,AAXX 29154 41933 02450 50000 10285 20270 30082 40090 82520 333 59011 70010 82618 85458==
41933,2024,09,29,18,00,AAXX 29184 41933 02440 50000 10278 20260 30080 40088 82520 333 59018 70010 82618 85458==
41933,2024,09,29,21,00,AAXX 29214 41933 02440 52302 10280 20270 30076 40084 82520 333 59012 70010 82618 85458==
41933,2024,09,30,00,00,AAXX 30004 41933 02440 52304 10282 20270 30073 40081 82520 333 59008 70010 82618 85458==
41933,2024,09,30,03,00,AAXX 30034 41933 02450 80000 10290 20270 30079 40088 8452/ 333 20277 59022 70010 84616 88458==
41933,2024,09,30,06,00,AAXX 30064 41933 02450 83202 10298 20270 30069 40078 8452/ 333 59017 70010 84618 88458==
41933,2024,09,30,09,00,AAXX 30094 41933 02450 80000 10309 20270 30042 40051 8452/ 333 59019 70010 84616 88458==
41933,2024,09,30,12,00,AAXX 30124 41933 02450 40000 10295 20280 30042 40051 82520 333 10310 59019 70000 82618 84458==
41933,2024,09,30,15,00,AAXX 30154 41933 02450 50000 10283 20260 30060 40068 83520 333 59022 70000 83618 85458==
41933,2024,09,30,18,00,AAXX 30184 41933 02450 50000 10280 20260 30064 40072 83520 333 59016 70000 83618 85458==
41933,2024,09,30,21,00,AAXX 30214 41933 02450 20000 10275 20260 30053 40061 82500 333 59023 70000 82618==
41933,2024,10,01,00,00,AAXX 01004 41933 02450 20000 10270 20250 30043 40051 82500 333 59030 70000 82618==
41933,2024,10,01,03,00,AAXX 01034 41933 02450 60000 10286 20250 30070 40078 83520 333 20268 59009 70000 83618 86458==
41933,2024,10,01,06,00,AAXX 01064 41933 02456 50000 10330 20270 30045 40053 82520 333 59024 70000 82618 85458==
41933,2024,10,01,09,00,AAXX 01094 41933 02456 50000 10330 20270 30011 40019 82520 333 59031 70000 82618 85458==
41933,2024,10,01,12,00,AAXX 01124 41933 02450 80000 10315 20280 30019 40027 8562/ 333 10345 59023 70000 82710 84618 88458==
41933,2024,10,01,15,00,AAXX 01154 41933 01450 80000 10280 20260 30043 40051 70292 8562/ 333 59017 70020 82710 84618 88458==
41933,2024,10,01,18,00,AAXX 01184 41933 21450 80000 10270 20250 30038 40046 70296 8562/ 333 59026 60098 70090 82710 84618 88458==
41933,2024,10,01,21,00,AAXX 01214 41933 02440 80000 10268 20260 30032 40040 8562/ 333 59021 70090 82710 84618 88458==
41933,2024,10,02,00,00,AAXX 02004 41933 02440 80000 10266 20260 30026 40034 8562/ 333 59017 70090 82710 84618 88458==
41933,2024,10,02,03,00,AAXX 02034 41933 02450 60000 10285 20260 30043 40051 83520 333 20264 59027 70090 83618 86458==
41933,2024,10,02,06,00,AAXX 02064 41933 02456 80000 10330 20270 30021 40029 8562/ 333 59024 70090 82710 84618 88458==
41933,2024,10,02,09,00,AAXX 02094 41933 01456 80000 10286 20270 39996 40004 76162 8672/ 333 59015 70130 82710 84618 88458==
41933,2024,10,02,12,00,AAXX 02124 41933 21440 80000 10256 20250 30010 40018 76162 8672/ 333 10335 59009 60059 70140 83710 84618 88458==
41933,2024,10,02,15,00,AAXX 02154 41933 01440 80000 10262 20240 30038 40046 70262 8562/ 333 59005 70130 82710 84618 88458==
41933,2024,10,02,18,00,AAXX 02184 41933 NIL=
41933,2024,10,02,21,00,AAXX 02214 41933 01340 82302 10254 20240 30034 40039 76166 8672/ 333 59001 70190 84708 85616 88456==
41933,2024,10,03,00,00,AAXX 03004 41933 21350 82303 10251 20240 30024 40032 76166 8672/ 333 59002 60249 70300 84708 85616 88456==
41933,2024,10,03,03,00,AAXX 03034 41933 01350 82302 10265 20250 30045 40053 76166 8672/ 333 20250 58002 70318 84708 85616 88456==
41933,2024,10,03,06,00,AAXX 03064 41933 21450 82102 10261 20250 30027 40035 76166 8572/ 333 58006 60339 70628 82709 84616 88457==
41933,2024,10,03,09,00,AAXX 03094 41933 01456 70000 10274 20250 30009 40007 70162 84510 333 58013 70590 84618 87458==
41933,2024,10,03,12,00,AAXX 03124 41933 01450 80000 10275 20260 30019 40027 70362 8562/ 333 10280 58019 70580 82710 84618 88458==
41933,2024,10,03,15,00,AAXX 03154 41933 02450 60000 10265 20250 30048 40056 83520 333 58010 70570 83618 86458==
41933,2024,10,03,18,00,AAXX 03184 41933 02440 60000 10263 20250 30046 40054 83520 333 58010 70570 83618 86458==
41933,2024,10,03,21,00,AAXX 03214 41933 02440 81302 10259 20240 30043 40051 8562/ 333 58012 70340 82710 84618 88458==
41936,2024,09,27,00,00,AAXX 27004 41936 21316 71503 10250 20240 30072 40079 70562 85730 333 58024 60019 70240 83710 83615 87362==
41936,2024,09,27,03,00,AAXX 27034 41936 01430 61708 10294 20250 30094 40101 70522 84630 333 20242 58018 70230 82710 83615 85362==
41936,2024,09,27,06,00,AAXX 27064 41936 11430 71708 10300 20280 30091 40098 60001 76166 84720 333 58010 70080 84708 83615 87462==
41936,2024,09,27,09,00,AAXX 27094 41936 01440 41908 10326 20270 30060 40067 70562 82830 333 59001 70060 82615 84362==
41936,2024,09,27,12,00,AAXX 27124 41936 01330 61903 10280 20260 30068 40075 70596 84630 333 10330 58005 70100 82708 83615 86362==
41936,2024,09,27,15,00,AAXX 27154 41936 01430 72004 10278 20260 30085 40092 70522 84630 333 58015 70110 82710 83615 86362==
41936,2024,09,27,18,00,AAXX 27184 41936 01430 62003 10276 20260 30085 40092 70522 83630 333 58000 70110 82710 83615 85362==
41936,2024,09,27,21,00,AAXX 27214 41936 01430 61903 10274 20260 30078 40085 70522 83630 333 58019 70100 81710 83615 85362==
41936,2024,09,28,00,00,AAXX 28004 41936 01416 41803 10270 20260 30076 40083 70522 82830 333 58004 70100 82615 83362==
41936,2024,09,28,03,00,AAXX 28034 41936 01450 42508 10304 20250 30099 40106 70511 82830 333 20268 58005 70100 82615 83362==
41936,2024,09,28,06,00,AAXX 28064 41936 01450 42307 10332 20250 30083 40090 70511 82830 333 59007 70100 82615 83362==
41936,2024,09,28,09,00,AAXX 28094 41936 02440 42408 10344 20260 30059 40066 333 59001 70100 82615 83362==
41936,2024,09,28,12,00,AAXX 28124 41936 11440 51804 10304 20290 30060 40067 60022 70562 83630 333 10348 59008 70020 82710 83615==
41936,2024,09,28,15,00,AAXX 28154 41936 01/40 31904 10294 20270 30083 40090 70522 83030 333 59002 70020 83362==
41936,2024,09,28,18,00,AAXX 28184 41936 01/40 32103 10284 20260 30083 40090 70511 83030 333 59002 70020 83262==
41936,2024,09,28,21,00,AAXX 28214 41936 01/30 32303 10276 20270 30068 40075 70511 83030 333 59010 70020 83362==
41936,2024,09,29,00,00,AAXX 29004 41936 01416 42503 10270 20260 30068 40075 70511 82830 333 59008 70020 82615 83362==
41936,2024,09,29,03,00,AAXX 29034 41936 01420 42410 10302 20280 30090 40097 70522 82830 333 20240 59009 70020 82615 83362==
41936,2024,09,29,06,00,AAXX 29064 41936 01440 42605 10338 20280 30080 40087 70521 83830 333 59003 70020 83615==
41936,2024,09,29,09,00,AAXX 29094 41936 01430 42505 10348 20270 30058 40065 70521 83830 333 59001 70020 83615 83362==
41936,2024,09,29,12,00,AAXX 29124 41936 01440 42403 10322 20280 30055 40062 70521 82830 333 10350 59005 70000 81615 83362==
41936,2024,09,29,15,00,AAXX 29154 41936 01440 50000 10304 20280 30075 40082 70522 83630 333 59008 70000 81710 83615==
41936,2024,09,29,18,00,AAXX 29184 41936 01430 50000 10296 20290 30077 40084 70522 83630 333 59006 70000 81710 83615==
41936,2024,09,29,21,00,AAXX 29214 41936 01425 50000 10276 20270 30066 40073 70522 83630 333 59002 70000 81710 83615==
41936,2024,09,30,00,00,AAXX 30004 41936 01412 60000 10282 20270 30069 40076 70522 84630 333 58001 70000 82710 83615 85362==
41936,2024,09,30,03,00,AAXX 30034 41936 01416 42505 10310 20280 30088 40095 70511 82830 333 20278 59001 70000 82615 83362==
41936,2024,09,30,06,00,AAXX 30064 41936 01440 42607 10352 20280 30067 40074 70511 82830 333 59013 70000 82615 83362==
41936,2024,09,30,09,00,AAXX 30094 41936 01440 52604 10350 20270 30041 40047 70511 83630 333 59024 70000 82710 83615==
41936,2024,09,30,12,00,AAXX 30124 41936 41430 41903 10332 20290 30033 40040 70511 82830 333 10362 59022 82615 83362==
41936,2024,09,30,15,00,AAXX 30154 41936 41430 52403 10308 20290 30053 40060 70522 83630 333 59022 81610 83362==
41936,2024,09,30,18,00,AAXX 30184 41936 41430 52403 10302 20290 30046 40053 70522 83630 333 59031 81710 84362==
41936,2024,09,30,21,00,AAXX 30214 41936 01420 70000 10290 20280 30032 40039 79629 85630 333 59034 70010 83710 83615 86362==
41936,2024,10,01,00,00,AAXX 01004 41936 11412 50000 10278 20270 30032 40039 60012 70596 83630 333 59037 70010 81710 83615==
41936,2024,10,01,03,00,AAXX 01034 41936 01409 51803 10304 20290 30056 40063 74642 83630 333 20276 59032 70010 81710 83615==
41936,2024,10,01,06,00,AAXX 01064 41936 01416 51804 10340 20290 30041 40048 70522 83630 333 59026 70010 81710 83615==
41936,2024,10,01,09,00,AAXX 01094 41936 42310 83307 10310 20260 30016 40023 59024 88460==
41936,2024,10,01,12,00,AAXX 01124 41936 21312 73004 10290 20270 30014 40021 70596 85630 333 10354 59016 60027 83708 83615 87362==
41936,2024,10,01,15,00,AAXX 01154 41936 41420 60000 10286 20270 30033 40040 70522 84630 333 59020 81710 83615 85362==
41936,2024,10,01,18,00,AAXX 01184 41936 01420 60000 10282 20260 30038 40045 70522 84630 333 59008 70030 81710 83615 85362==
41936,2024,10,01,21,00,AAXX 01214 41936 01416 60000 10280 20270 30029 40036 70522 84630 333 59003 70020 81710 83615 85362==
41936,2024,10,02,00,00,AAXX 02004 41936 01410 50000 10278 20270 30020 40027 70522 84630 333 59012 70020 81710 83615==
41936,2024,10,02,03,00,AAXX 02034 41936 01416 53404 10318 20280 30040 40047 70522 82830 333 20274 59016 70020 82615 84362==
41936,2024,10,02,06,00,AAXX 02064 41936 42316 80304 10294 20280 30036 40043 59005 88460==
41936,2024,10,02,09,00,AAXX 02094 41936 01425 73104 10318 20270 30011 40018 70596 83630 333 59005 70020 81710 83615 86362==
41936,2024,10,02,12,00,AAXX 02124 41936 11430 73203 10306 20280 30006 40013 60001 70596 84630 333 10320 59008 82710 83615 86362==
41936,2024,10,02,15,00,AAXX 02154 41936 41430 73303 10290 20270 30029 40036 70522 84630 333 59004 82710 83615 86362==
41936,2024,10,02,18,00,AAXX 02184 41936 41420 73003 10286 20270 30024 40031 70522 84630 333 59014 82710 83615 86362==
41936,2024,10,02,21,00,AAXX 02214 41936 41416 72903 10284 20260 30018 40025 70522 84630 333 59011 82710 83615 86362==
41936,2024,10,03,00,00,AAXX 03004 41936 41410 73003 10280 20270 30018 40025 70522 85630 333 59002 83708 83615 87362==
41936,2024,10,03,03,00,AAXX 03034 41936 41312 80504 10280 20260 30033 40040 70522 8563/ 333 20278 59007 83708 83615 88362==
41936,2024,10,03,06,00,AAXX 03064 41936 01418 70705 10294 20260 30022 40029 72196 84630 333 59014 70000 82710 83615 87362==
41936,2024,10,03,09,00,AAXX 03094 41936 41420 70522 10310 20270 30002 40009 70522 84630 333 59009 82710 83615 86362==
41936,2024,10,03,12,00,AAXX 03124 41936 41412 72204 10290 20270 30001 40008 70522 85630 333 10314 59005 83708 83615 87362==
41936,2024,10,03,15,00,AAXX 03154 41936 41314 70000 10270 20250 30026 40033 70592 84630 333 59003 82708 83615 86362==
41936,2024,10,03,18,00,AAXX 03184 41936 11314 70000 10264 20250 30028 40035 60002 70596 84630 333 58004 82708 83615 86362==
41936,2024,10,03,21,00,AAXX 03214 41936 41412 60000 10264 20250 30018 40025 70522 83630 333 58000 81710 83615 85362==
41938,2024,09,27,00,00,AAXX 27004 41938 11350 80000 10255 20255 30089 40093 60149 76166 8572/ 333 56399 58028 70428 81709 84616 88459=
41938,2024,09,27,06,00,AAXX 27064 41938 11450 50000 10277 20270 30099 40103 60074 76162 84510 333 56990 58019 70444 84618=
41938,2024,09,27,12,00,AAXX 27124 41938 11450 40000 10272 20250 30083 40087 60114 70162 84400 333 10292 56400 58013 70334 83618=
41938,2024,09,27,18,00,AAXX 27184 41938 32450 40000 10265 20260 30090 40094 84500 333 56900 58001 70320 84618=
41938,2024,09,28,00,00,AAXX 28004 41938 11450 40000 10265 20260 30089 40093 69924 70262 83510 333 56990 58000 70182 84618=
41938,2024,09,28,06,00,AAXX 28064 41938 NIL=
41938,2024,09,28,12,00,AAXX 28124 41938 32456 51801 10301 20260 30068 40072 81511 333 20334 56499 59015 70002 81618 83460=
41938,2024,09,28,18,00,AAXX 28184 41938 32956 01801 10280 20270 30088 40092 333 59002 70002=
41938,2024,09,29,00,00,AAXX 29004 41938 32456 42001 10278 20270 30074 40078 81511 333 56499 59015 70000 81618 83460=
41938,2024,09,29,06,00,AAXX 29064 41938 32456 52003 10328 20260 30086 40090 83401 333 56509 59001 70000 82618 83082=
41938,2024,09,29,12,00,AAXX 29124 41938 31450 70000 10308 20280 30062 40066 70522 81511 333 10338 56699 59006 70000 81618 86460=
41938,2024,09,29,18,00,AAXX 29184 41938 31950 42301 10290 20270 30074 40078 70521 83011 333 56099 59014 70000 83460=
41938,2024,09,30,00,00,AAXX 30004 41938 31450 60000 10281 20270 30069 40073 70521 81411 333 56799 59005 70000 81618 85460=
41938,2024,09,30,06,00,AAXX 30064 41938 32456 72701 10335 20270 30077 40081 82411 333 56699 59009 70000 81618 86460=
41938,2024,09,30,12,00,AAXX 30124 41938 31440 80000 10304 20250 30042 40046 71792 8592/ 333 10347 56699 59020 70000 82618 83824 81929 88459=
41938,2024,09,30,18,00,AAXX 30184 41938 31445 80000 10298 20290 30049 40053 71392 8392/ 333 56999 59025 70000 81618 83825 81930 88460=
41938,2024,10,01,00,00,AAXX 01004 41938 11430 80000 10270 20260 30039 40043 60025 70596 8332/ 333 56999 59030 70018 81618 81930 88460=
41938,2024,10,01,06,00,AAXX 01064 41938 31450 72502 10342 20280 30046 40050 70522 84410 333 56690 59031 70018 82618 83825 86460=
41938,2024,10,01,12,00,AAXX 01124 41938 11450 80000 10290 20270 30023 40027 69904 72192 8332/ 333 10345 56799 59019 70018 83617 81927 88460=
41938,2024,10,01,18,00,AAXX 01184 41938 31450 80000 10285 20280 30036 40040 70522 8152/ 333 56999 59013 70018 81618 88460=
41938,2024,10,02,00,00,AAXX 02004 41938 31920 53001 10275 20270 30026 40030 71021 85070 333 56090 59013 79999 84460=
41938,2024,10,02,06,00,AAXX 02064 41938 31450 73004 10333 20260 30031 40035 70521 86410 333 56790 59015 79999 83618 83824 86460=
41938,2024,10,02,12,00,AAXX 02124 41938 32456 40000 10296 20280 30007 40011 81510 333 56990 59016 70000 81618 84460=
41938,2024,10,02,18,00,AAXX 02184 41938 11430 80000 10284 20270 30024 40028 60029 76162 8332/ 333 56999 59012 70015 83616 81926 88458=
41938,2024,10,03,00,00,AAXX 03004 41938 11430 80000 10269 20260 30017 40021 69956 71762 8492/ 333 56799 59009 70020 83616 81926 88458=
41938,2024,10,03,06,00,AAXX 03064 41938 11456 81802 10260 20260 30028 40032 60379 70296 8252/ 333 56999 59003 70386 82616 88458=
41938,2024,10,03,12,00,AAXX 03124 41938 32450 40000 10270 20260 30017 40021 84510 333 10278 56990 58010 70386 84618=
41938,2024,10,03,18,00,AAXX 03184 41938 32450 60000 10268 20260 30027 40031 84510 333 56990 58003 70371 84618 84459=
41939,2024,09,27,00,00,AAXX 27004 41939 02456 80000 10268 20268 30086 40094 8352/ 333 58002 70424 83617 88459==
41939,2024,09,27,03,00,AAXX 27034 41939 02457 80000 10280 20260 30102 40110 8352/ 333 20253 58012 70194 83618 88459==
41939,2024,09,27,06,00,AAXX 27064 41939 02458 50000 10335 20260 30102 40110 83510 333 58018 70164 83617 85459==
41939,2024,09,27,09,00,AAXX 27094 41939 01457 60000 10277 20260 30080 40088 70262 83510 333 58002 70076 83617 86459==
41939,2024,09,27,12,00,AAXX 27124 41939 11457 60000 10280 20260 30080 40088 60056 70262 83510 333 10335 58003 70050 83617 86459==
41939,2024,09,27,15,00,AAXX 27154 41939 02456 60000 10270 20250 30112 40120 83510 333 58011 70050 83617 86459==
41939,2024,09,27,18,00,AAXX 27184 41939 NIL=
41939,2024,09,27,21,00,AAXX 27214 41939 02456 10000 10265 20260 30102 40110 81500 333 58002 70050 81618==
41939,2024,09,28,00,00,AAXX 28004 41939 02457 10000 10265 20260 30096 40104 81500 333 58010 70050 81618==
41939,2024,09,28,03,00,AAXX 28034 41939 02458 40000 10303 20260 30112 40120 82530 333 20260 58010 70050 82618 83363==
41939,2024,09,28,06,00,AAXX 28064 41939 02460 40000 10330 20260 30090 40098 82539 333 59012 70050 82618 83364==
41939,2024,09,28,09,00,AAXX 28094 41939 02460 40000 10332 20270 30078 40086 82530 333 59002 70000 82618 83365==
41939,2024,09,28,12,00,AAXX 28124 41939 02456 50000 10323 20280 30082 40090 83510 333 10333 58005 70000 83618 85459==
41939,2024,09,28,15,00,AAXX 28154 41939 02950 00000 10298 20270 30092 40100 333 58008 70000==
41939,2024,09,28,18,00,AAXX 28184 41939 02950 00000 10285 20270 30112 40120 333 59004 70000==
41939,2024,09,28,21,00,AAXX 28214 41939 02456 40000 10275 20260 30088 40096 82530 333 59014 70000 82618 83365==
41939,2024,09,29,00,00,AAXX 29004 41939 02456 40000 10273 20260 30092 40100 82530 333 59004 70000 82618 83364==
41939,2024,09,29,03,00,AAXX 29033 41939 02458 50000 10298 20280 30102 40110 83530 333 20270 59010 70000 83617 83364==
41939,2024,09,29,06,00,AAXX 29064 41939 02458 50000 10320 20280 30080 40088 82530 333 59010 70000 82618 84360==
41939,2024,09,29,09,00,AAXX 29094 41939 02458 50000 10333 20270 30067 40075 83530 333 59011 70000 83618 83362==
41939,2024,09,29,15,00,AAXX 29154 41939 02456 60000 10295 20290 30085 40093 83510 333 59007 70000 83618 86460==
41939,2024,09,29,18,00,AAXX 29184 41939 02456 60000 10288 20280 30096 40104 83510 333 59016 70000 83618 86460==
41939,2024,09,29,21,00,AAXX 29214 41939 02450 60000 10285 20280 30083 40091 83510 333 59005 70000 83618 85459==
41939,2024,09,30,00,00,AAXX 30004 41939 02456 60000 10280 20270 30075 40083 83510 333 59017 70000 83618 88459==
41939,2024,09,30,03,00,AAXX 30034 41939 02458 50000 10300 20270 30090 40098 82510 333 20278 59012 70000 82618 85459==
41939,2024,09,30,06,00,AAXX 30064 41939 02458 50000 10324 20280 30068 40076 83530 333 59012 70000 83618 83360==
41939,2024,09,30,09,00,AAXX 30094 41939 02457 60000 10327 20290 30044 40052 83510 333 59023 70000 83617 86459==
41939,2024,09,30,12,00,AAXX 30124 41939 02457 60000 10300 20280 30045 40053 83510 333 10337 59019 70000 83617 86459==
41939,2024,09,30,15,00,AAXX 30154 41939 02456 50000 10293 20280 30064 40072 83530 333 59021 70000 83617 83364==
41939,2024,09,30,18,00,AAXX 30184 41939 02456 60000 10285 20280 30076 40084 83510 333 59020 70000 83617 86459==
41939,2024,09,30,21,00,AAXX 30214 41939 01450 80000 10260 20250 30050 40058 76166 8352/ 333 59033 70138 83616 88459==
41939,2024,10,01,00,00,AAXX 01004 41939 21450 80000 10265 20260 30048 40056 70262 8352/ 333 59027 60299 70288 83616 88459==
41939,2024,10,01,03,00,AAXX 01034 41939 02457 80000 10280 20270 30071 40079 8352/ 333 20248 59019 70288 83618 88459==
41939,2024,10,01,06,00,AAXX 01064 41939 02457 50000 10327 20280 30048 40056 83410 333 59020 70288 82618 85459==
41939,2024,10,01,09,00,AAXX 01094 41939 02457 40000 10342 20290 30025 40033 82530 333 59019 70288 82618 83362==
41939,2024,10,01,12,00,AAXX 01124 41939 02456 80000 10295 20270 30027 40035 8352/ 333 10342 59018 70290 83617 88459==
41939,2024,10,01,15,00,AAXX 01154 41939 02440 80000 10290 20280 30048 40056 8352/ 333 59016 70290 83617 88459==
41939,2024,10,01,18,00,AAXX 01184 41939 02440 80000 10285 20280 30056 40064 8352/ 333 59020 70290 83617 88459==
41939,2024,10,01,21,00,AAXX 01214 41939 02456 40000 10283 20270 30038 40046 82530 333 59012 70150 82617 83365==
41939,2024,10,02,00,00,AAXX 02004 41939 02456 40000 10280 20270 30031 40039 82530 333 59017 70000 82617 83365==
41939,2024,10,02,03,00,AAXX 02034 41939 02458 50000 10292 20280 30052 40060 83530 333 20275 59019 70000 83617 83365==
41939,2024,10,02,06,00,AAXX 02064 41939 02458 40000 10330 20260 30028 40036 82530 333 59020 70000 82618 83360==
41939,2024,10,02,09,00,AAXX 02094 41939 02458 40000 10328 20270 30003 40011 82530 333 59022 70000 82618 83362==
41939,2024,10,02,12,00,AAXX 02124 41939 01450 80000 10295 20290 30013 40021 76122 8352/ 333 10341 59014 70010 83616 88459==
41939,2024,10,02,15,00,AAXX 02154 41939 01450 80000 10280 20270 30040 40048 76166 8352/ 333 59008 70060 83616 88459==
41939,2024,10,02,18,00,AAXX 02184 41939 21450 80000 10275 20270 30050 40058 76166 8352/ 333 59006 60099 70100 83616 88459==
41939,2024,10,02,21,00,AAXX 02214 41939 01440 80000 10263 20260 30030 40038 76166 8452/ 333 59008 70298 84616 88459==
41939,2024,10,03,00,00,AAXX 03004 41939 21450 80000 10258 20258 30020 40028 76166 8452/ 333 59011 60329 70421 84616 88459==
41939,2024,10,03,03,00,AAXX 03034 41939 01457 80000 10265 20260 30034 40042 76166 8352/ 333 20251 59018 70442 83616 88459==
41939,2024,10,03,06,00,AAXX 03064 41939 21450 80000 10270 20250 30012 40020 76621 8352/ 333 59016 60019 70452 83616 88459==
41939,2024,10,03,09,00,AAXX 03094 41939 01450 80000 10275 20260 30016 40024 76162 8352/ 333 58013 70486 83616 88459==
41939,2024,10,03,12,00,AAXX 03124 41939 21456 80000 10280 20260 30017 40025 70262 8352/ 333 10283 58004 60038 70476 83617 88459==
41939,2024,10,03,15,00,AAXX 03154 41939 02456 70000 10270 20250 30040 40048 83510 333 58000 70426 83617 86459==
41939,2024,10,03,18,00,AAXX 03184 41939 02456 70000 10268 20260 30056 40064 83510 333 58006 70386 83617 86459==
41939,2024,10,03,21,00,AAXX 03214 41939 02456 70000 10265 20260 30040 40048 83510 333 58010 70188 83617 87459==
41941,2024,09,27,00,00,AAXX 27004 41941 02350 80000 10255 20250 30088 40094 8662/ 333 58016 70192 82708 84614 88456 81925==
41941,2024,09,27,03,00,AAXX 27034 41941 02456 60000 10300 20260 30098 40104 85420 333 20254 58005 70182 84616 86458==
41941,2024,09,27,06,00,AAXX 27064 41941 02456 61802 10305 20270 30105 40110 85420 333 58018 70020 84616 86458==
41941,2024,09,27,09,00,AAXX 27094 41941 02456 60000 10306 20260 30078 40084 85420 333 58002 70020 84616 86458==
41941,2024,09,27,12,00,AAXX 27124 41941 02456 60000 10285 20270 30087 40092 85420 333 10322 58009 70000 84616 86458==
41941,2024,09,27,15,00,AAXX 27154 41941 02450 50000 10280 20260 30098 40103 84420 333 58003 70000 83616 85458==
41941,2024,09,27,18,00,AAXX 27184 41941 NIL=
41941,2024,09,27,21,00,AAXX 27214 41941 02440 61802 10268 20268 30093 40098 85420 333 58003 70000 84616 86458==
41941,2024,09,28,00,00,AAXX 28004 41941 01450 61802 10266 20266 30088 40094 72122 85420 333 58000 70020 84616 86458==
41941,2024,09,28,03,00,AAXX 28034 41941 02456 61802 10290 20260 30108 40113 85420 333 20264 58010 70020 84616 86458==
41941,2024,09,28,06,00,AAXX 28064 41941 02456 61803 10332 20260 30093 40098 85420 333 59012 70020 84616 86458==
41941,2024,09,28,09,00,AAXX 28094 41941 01450 80000 10280 20260 30064 40070 72162 8692/ 333 59014 70090 85612 88456 81924==
41941,2024,09,28,12,00,AAXX 28124 41941 21456 50000 10300 20260 30068 40074 70262 8632/ 333 10345 59019 60078 70090 85616 88458 81928==
41941,2024,09,28,15,00,AAXX 28154 41941 02440 71802 10285 20280 30086 40091 85420 333 59012 70090 84616 87458==
41941,2024,09,28,18,00,AAXX 28184 41941 02440 71802 10280 20270 30088 40093 85420 333 59008 70090 84616 87458==
41941,2024,09,28,21,00,AAXX 28214 41941 02440 71802 10270 20270 30082 40088 85420 333 59011 70090 84616 87458==
41941,2024,09,29,00,00,AAXX 29004 41941 02450 81803 10275 20270 30068 40074 8632/ 333 59020 70070 85616 88458 81928==
41941,2024,09,29,03,00,AAXX 29033 41941 02456 71802 10315 20270 30085 40090 85420 333 20268 59023 70070 84616 87458==
41941,2024,09,29,06,00,AAXX 29064 41941 02456 71803 10335 20270 30086 40092 85420 333 59007 70070 84616 87458==
41941,2024,09,29,15,00,AAXX 29154 41941 02450 60000 10300 20290 30075 40080 85420 333 59011 70000 84616 86458==
41941,2024,09,29,18,00,AAXX 29184 41941 02440 60000 10290 20280 30079 40084 85420 333 59009 70000 84616 86458==
41941,2024,09,29,21,00,AAXX 29214 41941 02440 60000 10286 20280 30078 40083 85420 333 59004 70000 84616 86458==
41941,2024,09,30,00,00,AAXX 30004 41941 02450 60000 10285 20280 30078 40083 85420 333 58010 70000 84616 86458==
41941,2024,09,30,03,00,AAXX 30034 41941 02450 60000 10302 20280 30096 40101 85420 333 20282 58010 70000 84616 86458==
41941,2024,09,30,06,00,AAXX 30064 41941 02456 83103 10320 20280 30075 40080 8552/ 333 59011 70000 85616 88458==
41941,2024,09,30,12,00,AAXX 30124 41941 21456 60000 10297 20280 30041 40046 70196 83520 333 10332 59024 60005 83616 85458==
41941,2024,09,30,15,00,AAXX 30154 41941 42450 60000 10290 20280 30059 40065 83520 333 59016 83616 86458==
41941,2024,09,30,18,00,AAXX 30184 41941 42450 61303 10285 20280 30053 40058 84520 333 59026 84616 86458==
41941,2024,09,30,21,00,AAXX 30214 41941 01310 81303 10258 20250 30039 40045 79596 8692/ 333 59039 70070 82707 84612 88456 81928==
41941,2024,10,01,00,00,AAXX 01004 41941 21450 81802 10260 20250 30041 40047 70296 8552/ 333 59037 60098 70090 85614 88458==
41941,2024,10,01,03,00,AAXX 01034 41941 01450 80000 10282 20270 30066 40072 76122 8552/ 333 20252 59030 70100 85614 88458==
41941,2024,10,01,06,00,AAXX 01064 41941 22456 63602 10335 20290 30043 40048 85420 333 59032 60015 70100 84616 86458==
41941,2024,10,01,09,00,AAXX 01094 41941 02450 83602 10335 20290 30020 40024 8632/ 333 59029 70100 85616 88458 81928==
41941,2024,10,01,12,00,AAXX 01124 41941 02440 70000 10310 20270 30018 40023 85420 333 10347 59022 70100 84616 87458==
41941,2024,10,01,15,00,AAXX 01154 41941 01420 80000 10292 20280 30043 40048 72996 8792/ 333 59016 70110 85612 88456 82924==
41941,2024,10,01,18,00,AAXX 01184 41941 21440 70000 10288 20280 30042 40047 70196 85420 333 59011 60018 70110 84616 87458==
41941,2024,10,01,21,00,AAXX 01214 41941 02440 70000 10284 20280 30032 40037 85420 333 59007 70040 84616 87458==
41941,2024,10,02,00,00,AAXX 02004 41941 02450 80000 10276 20276 30016 40022 8632/ 333 59025 70020 85616 88458 81928==
41941,2024,10,02,03,00,AAXX 02034 41941 02456 63602 10312 20290 30038 40043 85420 333 20275 59028 70010 84616 86458==
41941,2024,10,02,06,00,AAXX 02064 41941 02450 83602 10326 20280 30026 40031 8632/ 333 59017 70010 85616 88458 81928==
41941,2024,10,02,09,00,AAXX 02094 41941 01450 80000 10303 20280 30003 40009 72996 8692/ 333 59016 70020 85614 88456 81925==
41941,2024,10,02,12,00,AAXX 02124 41941 21440 81803 10270 20260 30011 40017 79196 8692/ 333 10336 59008 60047 70052 85614 88456 81925==
41941,2024,10,02,15,00,AAXX 02154 41941 01440 80000 10266 20266 30035 40041 72996 8692/ 333 59008 70087 85614 88456 81925==
41941,2024,10,02,18,00,AAXX 02184 41941 21430 80000 10260 20260 30033 40039 79596 8692/ 333 59009 60419 70449 85614 88456 81925==
41941,2024,10,02,21,00,AAXX 02214 41941 01330 80000 10257 20257 30024 40030 76566 8672/ 333 59008 70484 82708 84612 88456 81924==
41941,2024,10,03,00,00,AAXX 03004 41941 21340 80000 10255 20255 30020 40026 76166 8672/ 333 58004 60099 70534 82708 84612 88456 88456==
41941,2024,10,03,03,00,AAXX 03034 41941 01340 80000 10259 20259 30045 40051 76366 8672/ 333 20254 58007 70774 82708 84612 88456 81924==
41941,2024,10,03,06,00,AAXX 03064 41941 21356 80000 10265 20265 30034 40040 72166 8662/ 333 58008 60309 70836 82708 84612 88457==
41941,2024,10,03,09,00,AAXX 03094 41941 02456 81802 10278 20260 30012 40018 8552/ 333 58009 70826 85614 88457==
41941,2024,10,03,12,00,AAXX 03124 41941 02450 81302 10272 20250 30016 40022 8552/ 333 10282 58005 70794 85614 88457==
41941,2024,10,03,15,00,AAXX 03154 41941 02450 60000 10270 20260 30042 40048 84520 333 58007 70744 84614 86458==
41941,2024,10,03,18,00,AAXX 03184 41941 02450 70000 10270 20260 30040 40046 85520 333 58007 70387 85614 87458==
41941,2024,10,03,21,00,AAXX 03214 41941 02440 81802 10268 20260 30033 40039 8662/ 333 58009 70332 83708 84612 88458==
41943,2024,09,27,00,00,AAXX 27004 41943 01435 30000 10255 20250 30094 40101 70511 81530 333 58012 70000 81616 83362==
41943,2024,09,27,03,00,AAXX 27034 41943 01445 21701 10295 20260 30110 40117 70511 81531 333 20250 58016 70000 81616==
41943,2024,09,27,06,00,AAXX 27064 41943 02450 41903 10325 20230 30101 40108 83401 333 58010 70000 81616 83828==
41943,2024,09,27,09,00,AAXX 27094 41943 02445 52304 10302 20240 30077 40084 83630 333 58004 70000 83616 84362==
41943,2024,09,27,12,00,AAXX 27124 41943 02435 62302 10290 20250 30072 40079 83510 333 10327 59004 70000 83616 85458==
41943,2024,09,27,15,00,AAXX 27154 41943 02430 71802 10274 20260 30100 40107 84520 333 59004 70000 84615 86458==
41943,2024,09,27,18,00,AAXX 27184 41943 02430 71802 10274 20260 30100 40107 84520 333 59001 70000 83710 84614 88458==
41943,2024,09,27,21,00,AAXX 27214 41943 02330 80000 10262 20250 30099 40106 8662/ 333 58005 70000 83710 84614 88458==
41943,2024,09,28,00,00,AAXX 28004 41943 02335 80000 10258 20250 30090 40097 86643 333 59001 70000 83710 84614 88458==
41943,2024,09,28,03,00,AAXX 28034 41943 02440 60000 10304 20250 30111 40118 83510 333 20256 58001 70000 83616 84458==
41943,2024,09,28,06,00,AAXX 28064 41943 02440 61802 10314 20240 30103 40110 83520 333 58002 70000 83616 84458==
41943,2024,09,28,09,00,AAXX 28094 41943 02440 61802 10342 20230 30080 40087 83520 333 58003 70000 83616 84458==
41943,2024,09,28,12,00,AAXX 28124 41943 02435 61804 10298 20260 30072 40079 83520 333 10345 58000 70000 83616 84458==
41943,2024,09,28,15,00,AAXX 28154 41943 02430 71802 10282 20260 30091 40098 83520 333 59009 70000 83616 87458==
41943,2024,09,28,18,00,AAXX 28184 41943 02330 81802 10274 20250 30099 40106 8662/ 333 58001 70000 83710 84614 88458==
41943,2024,09,28,21,00,AAXX 28214 41943 02330 80000 10270 20250 30090 40097 8662/ 333 59009 70000 83710 84614 88458==
41943,2024,09,29,00,00,AAXX 29004 41943 02330 80000 10268 20260 30078 40085 8662/ 333 59012 70000 83710 84614 88458==
41943,2024,09,29,03,00,AAXX 29034 41943 02440 71802 10292 20260 30103 40110 84520 333 20266 59008 70000 83616 86458==
41943,2024,09,29,06,00,AAXX 29064 41943 02440 61802 10340 20250 30092 40099 83520 333 59011 70000 83616 85458==
41943,2024,09,29,09,00,AAXX 29094 41943 02440 61803 10344 20240 30066 40071 83520 333 59016 70000 83616 85458==
41943,2024,09,29,12,00,AAXX 29124 41943 02435 61802 10304 20250 30062 40069 83520 333 10346 59010 70000 83616 85458==
41943,2024,09,29,15,00,AAXX 29154 41943 02430 71802 10286 20270 30086 40093 84520 333 59005 70000 84615 87458==
41943,2024,09,29,18,00,AAXX 29184 41943 02430 81802 10280 20260 30082 40089 8662/ 333 59017 70000 83710 84615 88458==
41943,2024,09,29,21,00,AAXX 29214 41943 02330 80000 10278 20270 30074 40081 8662/ 333 59016 70000 83710 84614 88458==
41943,2024,09,30,00,00,AAXX 30004 41943 02330 80000 10277 20270 30068 40075 8662/ 333 59010 70000 83710 84616 88458==
41943,2024,09,30,03,00,AAXX 30034 41943 02330 82302 10304 20260 30093 40100 8662/ 333 20276 59010 70000 83710 84614 88458==
41943,2024,09,30,06,00,AAXX 30064 41943 02440 62302 10330 20250 30080 40087 84520 333 59012 70000 84616 85458==
41943,2024,09,30,09,00,AAXX 30094 41943 01330 81802 10290 20260 30054 40061 70362 8662/ 333 59010 70050 83710 84614 88458==
41943,2024,09,30,12,00,AAXX 30124 41943 11330 81802 10284 20260 30044 40051 60056 70262 8662/ 333 10332 59018 70050 83710 84614 88458==
41943,2024,09,30,15,00,AAXX 30154 41943 02330 81802 10272 20250 30060 40067 8662/ 333 59026 70050 83710 84614 88458==
41943,2024,09,30,18,00,AAXX 30184 41943 02330 81802 10270 20250 30067 40074 8662/ 333 59015 70050 83710 84614 88458==
41943,2024,09,30,21,00,AAXX 30214 41943 02330 80000 10266 20260 30058 40065 8662/ 333 59016 70050 83710 84613 88458==
41943,2024,10,01,00,00,AAXX 01004 41943 21330 80000 10262 20260 30042 40049 70262 8662/ 333 59026 60105 70150 83710 84613 88458==
41943,2024,10,01,03,00,AAXX 01034 41943 02330 81302 10286 20270 30067 40074 8662/ 333 20260 59027 70150 83710 84613 88458==
41943,2024,10,01,06,00,AAXX 01064 41943 01456 81802 10308 20260 30048 40055 70522 8662/ 333 59032 70150 83710 84615 88458==
41943,2024,10,01,09,00,AAXX 01094 41943 01435 80000 10328 20270 30012 40019 70522 8662/ 333 59042 70150 83710 84615 88458==
41943,2024,10,01,12,00,AAXX 01124 41943 21430 80000 10283 20260 30020 40027 70262 8662/ 333 10343 59024 60075 70170 83710 84615 88458==
41943,2024,10,01,15,00,AAXX 01154 41943 02430 80000 10280 20270 30042 40049 8662/ 333 59018 70170 83710 84615 88458==
41943,2024,10,01,18,00,AAXX 01184 41943 02430 80000 10275 20270 30044 40051 8662/ 333 59023 70170 83710 84615 88458==
41943,2024,10,01,21,00,AAXX 01214 41943 02430 80000 10268 20260 30033 40040 8662/ 333 59025 70170 83710 84615 88458==
41943,2024,10,02,00,00,AAXX 02004 41943 01430 80000 10270 20270 30024 40031 70522 8662/ 333 59018 70070 83710 84615 88458==
41943,2024,10,02,03,00,AAXX 02034 41943 01435 80000 10290 20260 30042 40049 70522 8662/ 333 20268 59025 70070 83710 84615 88458==
41943,2024,10,02,06,00,AAXX 02064 41943 01430 80000 10325 20270 30021 40028 70522 8662/ 333 59027 70070 83710 84615 88458==
41943,2024,10,02,09,00,AAXX 02094 41943 01330 80000 10257 20250 30010 40017 76166 8772/ 333 59002 70100 84709 84614 88456==
41943,2024,10,02,12,00,AAXX 02124 41943 21430 80000 10260 20250 30011 40018 70266 8662/ 333 10340 59009 60038 70030 83710 84615 88458==
41943,2024,10,02,15,00,AAXX 02154 41943 01330 80000 10255 20250 30038 40045 76166 8772/ 333 59004 70050 84709 84614 88456==
41943,2024,10,02,18,00,AAXX 02184 41943 21330 80000 10250 20240 30037 40044 76166 8772/ 333 59007 60089 70110 84709 84614 88456==
41943,2024,10,02,21,00,AAXX 02214 41943 01330 80000 10248 20240 30028 40035 76066 8772/ 333 59005 70510 84709 84614 88456==
41943,2024,10,03,00,00,AAXX 03004 41943 21330 80000 10248 20240 30024 40031 70266 8762/ 333 58000 60438 70540 84709 84615 88456==
41943,2024,10,03,03,00,AAXX 03034 41943 02330 80000 10260 20250 30049 40056 8762/ 333 20245 58007 70540 84709 84615 88456==
41943,2024,10,03,06,00,AAXX 03064 41943 21330 81802 10254 20240 30046 40053 76166 8772/ 333 58025 60047 70580 84709 84614 88456==
41943,2024,10,03,09,00,AAXX 03094 41943 02430 81805 10280 20260 30017 40024 8662/ 333 58007 70550 83710 84615 88458==
41943,2024,10,03,12,00,AAXX 03124 41943 02430 81802 10270 20250 30023 40030 8662/ 333 10288 58012 70558 83710 84615 88458==
41943,2024,10,03,15,00,AAXX 03154 41943 02430 61304 10265 20250 30048 40055 83520 333 58010 70550 83616 85458==
41943,2024,10,03,18,00,AAXX 03184 41943 02430 81502 10262 20250 30053 40060 8662/ 333 58016 70470 83710 84615 88458==
41943,2024,10,03,21,00,AAXX 03214 41943 02430 81302 10255 20240 30047 40054 8662/ 333 58019 70070 83710 84615 88458==
41944,2024,09,27,06,00,AAXX 27064 41944 NIL=
41944,2024,09,27,12,00,AAXX 27124 41944 NIL=
41944,2024,09,27,18,00,AAXX 27184 41944 NIL=
41944,2024,09,28,06,00,AAXX 28064 41944 NIL=
41944,2024,09,28,18,00,AAXX 28184 41944 NIL=
41944,2024,09,29,00,00,AAXX 29004 41944 NIL=
41944,2024,09,29,06,00,AAXX 29064 41944 NIL=
41944,2024,09,29,18,00,AAXX 29184 41944 NIL=
41944,2024,09,30,06,00,AAXX 30064 41944 NIL=
41944,2024,09,30,12,00,AAXX 30124 41944 NIL=
41944,2024,10,01,06,00,AAXX 01064 41944 NIL=
41944,2024,10,01,12,00,AAXX 01124 41944 NIL=
41944,2024,10,02,00,00,AAXX 02004 41944 NIL=
41944,2024,10,02,06,00,AAXX 02064 41944 NIL=
41944,2024,10,02,12,00,AAXX 02124 41944 NIL=
41944,2024,10,02,18,00,AAXX 02184 41944 NIL=
41944,2024,10,03,18,00,AAXX 03184 41944 NIL=
41946,2024,09,27,00,00,AAXX 27004 41946 21456 60000 10261 20260 30087 40092 72162 83370 333 58025 60049 70532 82618 85459 81928==
41946,2024,09,27,03,00,AAXX 27034 41946 02456 71405 10291 20270 30106 40111 82570 333 20251 58017 70512 82618 85459==
41946,2024,09,27,06,00,AAXX 27064 41946 02457 51004 10316 20270 30099 40104 81520 333 58013 70352 81618 84460==
41946,2024,09,27,09,00,AAXX 27094 41946 02456 60000 10326 20260 30071 40075 83370 333 58003 70324 82618 85459 81928==
41946,2024,09,27,12,00,AAXX 27124 41946 01350 80000 10266 20260 30079 40084 76166 8572/ 333 10328 58005 70170 82709 84616 88458==
41946,2024,09,27,15,00,AAXX 27154 41946 01456 80000 10280 20270 30099 40104 70262 8452/ 333 58002 70224 84618 88460==
41946,2024,09,27,18,00,AAXX 27184 41946 11456 50000 10280 20270 30094 40099 60016 70162 82570 333 59003 70220 82618 85459==
41946,2024,09,27,21,00,AAXX 27214 41946 02456 50000 10276 20270 30085 40090 82570 333 58001 70190 82618 85459==
41946,2024,09,28,00,00,AAXX 28004 41946 02456 50000 10276 20270 30094 40099 82570 333 58007 70180 82618 85459==
41946,2024,09,28,03,00,AAXX 28034 41946 02456 51804 10308 20270 30115 40120 82570 333 20257 58009 70180 82618 85459==
41946,2024,09,28,06,00,AAXX 28064 41946 02456 60000 10328 20260 30095 40100 83370 333 59004 70180 82618 85459 81928==
41946,2024,09,28,09,00,AAXX 28094 41946 02557 41904 10337 20260 30070 40074 84400 333 59001 70180 82620 83822==
41946,2024,09,28,12,00,AAXX 28124 41946 02456 61803 10310 20270 30073 40077 83401 333 10340 59006 70010 82618 84080==
41946,2024,09,28,15,00,AAXX 28154 41946 02/56 30000 10300 20270 30094 40099 83030 333 59005 70000 83362==
41946,2024,09,28,18,00,AAXX 28184 41946 02556 31901 10291 20270 30097 40102 83800 333 58003 70000 82620==
41946,2024,09,28,21,00,AAXX 28214 41946 02556 40000 10290 20280 30084 40089 82530 333 59001 70000 82620 83362==
41946,2024,09,29,00,00,AAXX 29004 41946 02456 62204 10288 20280 30079 40083 86400 333 59015 70000 85618 83822==
41946,2024,09,29,03,00,AAXX 29034 41946 02456 61810 10310 20270 30107 40112 86400 333 20280 59008 70000 84618 83820==
41946,2024,09,29,06,00,AAXX 29064 41946 02456 51810 10335 20270 30094 40098 83401 333 59001 70000 82618 83080==
41946,2024,09,29,09,00,AAXX 29094 41946 02557 52605 10340 20270 30068 40072 84401 333 59002 70000 83620==
41946,2024,09,29,12,00,AAXX 29124 41946 02456 81804 10320 20280 30069 40074 8152/ 333 10344 59004 70000 81618 88460==
41946,2024,09,29,15,00,AAXX 29154 41946 02/56 41804 10304 20270 30089 40094 84010 333 59005 70000 84460==
41946,2024,09,29,18,00,AAXX 29184 41946 02456 42205 10297 20280 30082 40087 81501 333 59015 70000 81618 83080==
41946,2024,09,29,21,00,AAXX 29214 41946 02456 10000 10294 20280 30072 40077 81500 333 59012 70000 81618==
41946,2024,09,30,00,00,AAXX 30004 41946 02456 12205 10289 20280 30080 40085 81500 333 58001 70000 81618==
41946,2024,09,30,03,00,AAXX 30034 41946 02456 52608 10320 20280 30099 40104 83501 333 20285 59008 70000 83618 83080==
41946,2024,09,30,06,00,AAXX 30064 41946 02456 51804 10345 20270 30080 40084 84470 333 59014 70000 83618 83460==
41946,2024,09,30,09,00,AAXX 30094 41946 02456 51806 10352 20270 30049 40053 84470 333 59019 70000 83618 83460==
41946,2024,09,30,12,00,AAXX 30124 41946 01456 50000 10315 20280 30047 40052 72122 84470 333 10353 59022 70001 83618 83460==
41946,2024,09,30,15,00,AAXX 30154 41946 02456 50000 10310 20290 30064 40069 83570 333 59025 70001 83618 83460==
41946,2024,09,30,18,00,AAXX 30184 41946 02456 81808 10302 20280 30060 40065 8252/ 333 59022 70001 82618 88460==
41946,2024,09,30,21,00,AAXX 30214 41946 02456 80000 10300 20290 30044 40049 8252/ 333 59028 70001 82618 88460==
41946,2024,10,01,00,00,AAXX 01004 41946 02456 80000 10298 20290 30048 40053 8252/ 333 59032 70001 82618 88460==
41946,2024,10,01,03,00,AAXX 01034 41946 02456 71805 10320 20290 30069 40074 83510 333 20292 59030 70001 83618 85460==
41946,2024,10,01,06,00,AAXX 01064 41946 02456 70000 10345 20270 30056 40061 83402 333 59024 70001 82618 85080==
41946,2024,10,01,09,00,AAXX 01094 41946 01556 60000 10332 20270 30019 40023 70193 83320 333 59030 70001 82620 84459 81929==
41946,2024,10,01,12,00,AAXX 01124 41946 01/56 60000 10314 20280 30026 40031 70292 86010 333 10355 59021 70000 86460==
41946,2024,10,01,15,00,AAXX 01154 41946 02/56 80000 10303 20280 30044 40049 8802/ 333 59020 70000 88459==
41946,2024,10,01,18,00,AAXX 01184 41946 02456 63102 10300 20290 30047 40052 83420 333 59013 70000 82618 85459==
41946,2024,10,01,21,00,AAXX 01214 41946 02/56 60000 10294 20280 30034 40039 86070 333 59010 70000 83459 84360==
41946,2024,10,02,00,00,AAXX 02004 41946 02556 53401 10288 20280 30027 40032 83502 333 59021 70000 83620 84080==
41946,2024,10,02,03,00,AAXX 02034 41946 02456 70000 10315 20270 30056 40061 83510 333 20284 59013 70000 83618 87460==
41946,2024,10,02,06,00,AAXX 02064 41946 02456 72605 10315 20270 30043 40048 83510 333 59013 70000 83618 87460==
41946,2024,10,02,09,00,AAXX 02094 41946 02456 82705 10316 20280 30015 40019 8432/ 333 59004 70000 83618 88459 81928==
41946,2024,10,02,12,00,AAXX 02124 41946 02456 82704 10300 20270 30018 40023 8352/ 333 10320 59008 70000 83618 88459==
41946,2024,10,02,15,00,AAXX 02154 41946 02456 82704 10294 20270 30042 40047 8352/ 333 59002 70000 83618 88459==
41946,2024,10,02,18,00,AAXX 02184 41946 02456 82604 10289 20270 30039 40044 8452/ 333 59008 70000 84618 88459==
41946,2024,10,02,21,00,AAXX 02214 41946 02456 80000 10287 20270 30019 40024 8352/ 333 59015 70000 83618 88459==
41946,2024,10,03,00,00,AAXX 03004 41946 02456 80000 10286 20270 30028 40033 8352/ 333 58001 70000 83618 88459==
41946,2024,10,03,03,00,AAXX 03034 41946 02456 80000 10300 20270 30048 40053 8352/ 333 20280 59008 70000 83618 88460==
41946,2024,10,03,06,00,AAXX 03064 41946 02456 80000 10315 20280 30030 40035 8432/ 333 59013 70000 83618 88460 81928==
41946,2024,10,03,09,00,AAXX 03094 41946 02456 80404 10303 20270 30011 40016 8432/ 333 59004 70000 83618 88460 81928==
41946,2024,10,03,12,00,AAXX 03124 41946 21350 81804 10270 20260 30018 40023 76196 8672/ 333 10322 58000 60037 70030 83707 85616 88458==
41946,2024,10,03,15,00,AAXX 03154 41946 01456 80000 10270 20260 30041 40046 72162 8352/ 333 59001 70040 83618 88460==
41946,2024,10,03,18,00,AAXX 03184 41946 21456 80000 10275 20270 30039 40044 70262 8352/ 333 58000 60018 70040 83618 88458==
41946,2024,10,03,21,00,AAXX 03214 41946 02456 80000 10278 20270 30032 40037 8352/ 333 58013 70040 83618 88458==
41947,2024,09,27,00,00,AAXX 27004 41947 21450 60000 10262 20260 30089 40091 70166 83570 333 58026 60119 70477 83618 85458==
41947,2024,09,27,03,00,AAXX 27034 41947 02456 70000 10300 20270 30106 40109 83570 333 20248 58017 70475 83618 86458==
41947,2024,09,27,06,00,AAXX 27064 41947 02450 80000 10305 20270 30100 40103 8352/ 333 58012 70285 83618 88458==
41947,2024,09,27,09,00,AAXX 27094 41947 02456 72103 10316 20280 30073 40075 84470 333 59002 70175 82618 83820 85459==
41947,2024,09,27,12,00,AAXX 27124 41947 02456 71802 10295 20270 30079 40081 83470 333 10320 59003 70165 82618 85459==
41947,2024,09,27,15,00,AAXX 27154 41947 02456 21803 10288 20270 30098 40100 82500 333 59002 70135 82618==
41947,2024,09,27,18,00,AAXX 27184 41947 02956 00000 10280 20270 30096 40098 333 59001 70110==
41947,2024,09,27,21,00,AAXX 27214 41947 02/56 20000 10276 20270 30089 40091 82030 333 59004 70060 82362==
41947,2024,09,28,00,00,AAXX 28004 41947 02456 50000 10270 20260 30092 40094 83530 333 58003 70000 83618 83362==
41947,2024,09,28,03,00,AAXX 28034 41947 02456 60000 10305 20270 30113 40116 86400 333 20265 58007 70000 83618 83820==
41947,2024,09,28,06,00,AAXX 28064 41947 02456 40000 10340 20260 30093 40096 84400 333 59017 70000 81618 83820==
41947,2024,09,28,09,00,AAXX 28094 41947 02456 31803 10328 20270 30073 40075 83500 333 58000 70000 83618==
41947,2024,09,28,12,00,AAXX 28124 41947 02356 80000 10308 20270 30067 40069 8532/ 333 10345 59002 70000 82708 83618 88458 81930==
41947,2024,09,28,15,00,AAXX 28154 41947 02950 00000 10290 20280 30089 40091 333 59009 70000==
41947,2024,09,28,18,00,AAXX 28184 41947 02950 00000 10285 20280 30098 40100 333 58002 70000==
41947,2024,09,28,21,00,AAXX 28214 41947 02950 00000 10280 20270 30093 40095 333 58004 70000==
41947,2024,09,29,00,00,AAXX 29004 41947 02450 50000 10283 20280 30084 40086 82510 333 59008 70000 82618 85459==
41947,2024,09,29,03,00,AAXX 29033 41947 02456 70000 10315 20280 30106 40109 83570 333 20280 59007 70000 83618 86458==
41947,2024,09,29,06,00,AAXX 29064 41947 02456 50000 10342 20270 30093 40096 85400 333 58000 70000 82618 83820==
41947,2024,09,29,09,00,AAXX 29094 41947 02456 22302 10355 20270 30068 40070 82500 333 59005 70000 82618==
41947,2024,09,29,12,00,AAXX 29124 41947 42456 40000 10325 20280 30068 40070 82530 333 10360 82618 83362==
41947,2024,09,29,15,00,AAXX 29154 41947 02450 20000 10308 20290 30086 40088 82500 333 59003 70000 82618==
41947,2024,09,29,18,00,AAXX 29184 41947 02450 20000 10300 20280 30086 40088 82500 333 59006 70000==
41947,2024,09,29,21,00,AAXX 29214 41947 02950 00000 10292 20260 30082 40084 333 59011 70000==
41947,2024,09,30,00,00,AAXX 30004 41947 02950 00000 10288 20270 30077 40079 333 59007 70000==
41947,2024,09,30,03,00,AAXX 30034 41947 02456 50000 10320 20270 30097 40099 83530 333 20283 59010 70000 83618 83362==
41947,2024,09,30,06,00,AAXX 30064 41947 02456 62802 10345 20280 30081 40083 83570 333 59013 70000 83618 85458==
41947,2024,09,30,09,00,AAXX 30094 41947 02456 32802 10358 20270 30046 40048 83500 333 59022 70000 83618==
41947,2024,09,30,12,00,AAXX 30124 41947 02456 60000 10335 20280 30049 40051 83570 333 10362 59019 70000 83618 85458==
41947,2024,09,30,15,00,AAXX 30154 41947 02450 20000 10310 20290 30061 40063 82500 333 59025 70000 82618==
41947,2024,09,30,18,00,AAXX 30184 41947 02450 30000 10305 20290 30057 40059 83500 333 59035 70000 83618==
41947,2024,09,30,21,00,AAXX 30214 41947 02450 30000 10300 20290 30053 40055 83500 333 59029 70000 83618==
41947,2024,10,01,00,00,AAXX 01004 41947 02450 50000 10295 20290 30049 40051 83570 333 59028 70000 83618 85458==
41947,2024,10,01,03,00,AAXX 01034 41947 02450 80000 10310 20300 30068 40070 8352/ 333 20290 59029 70000 83618 88458==
41947,2024,10,01,06,00,AAXX 01064 41947 02456 70000 10355 20290 30051 40053 84570 333 59030 70000 84618 85458==
41947,2024,10,01,09,00,AAXX 01094 41947 02456 60000 10350 20280 30018 40020 83570 333 59028 70000 83618 84459==
41947,2024,10,01,12,00,AAXX 01124 41947 02456 80000 10305 20290 30027 40029 8352/ 333 10360 59022 70000 83618 88459==
41947,2024,10,01,15,00,AAXX 01154 41947 02456 80000 10302 20270 30046 40048 8352/ 333 59017 70000 83618 88459==
41947,2024,10,01,18,00,AAXX 01184 41947 02456 80000 10295 20290 30046 40048 8352/ 333 59011 70000 83618 88459==
41947,2024,10,01,21,00,AAXX 01214 41947 02450 30000 10288 20280 30037 40039 83500 333 59016 70000 83618==
41947,2024,10,02,00,00,AAXX 02004 41947 02450 40000 10282 20270 30033 40035 82530 333 59016 70000 82618 83362==
41947,2024,10,02,03,00,AAXX 02034 41947 02456 70000 10325 20280 30051 40054 83570 333 20276 59016 70000 83618 86458==
41947,2024,10,02,06,00,AAXX 02064 41947 02456 70000 10340 20260 30038 40040 83570 333 59013 70000 83618 86458==
41947,2024,10,02,09,00,AAXX 02094 41947 02456 80000 10310 20270 30012 40014 8352/ 333 59006 70000 83618 88459==
41947,2024,10,02,12,00,AAXX 02124 41947 02450 80000 10305 20280 30013 40015 8432/ 333 10342 59014 70000 83618 88458 81930==
41947,2024,10,02,15,00,AAXX 02154 41947 02450 80000 10300 20270 30040 40042 8352/ 333 59006 70000 83618 88458==
41947,2024,10,02,18,00,AAXX 02184 41947 21330 80000 10290 20280 30037 40039 76162 8572/ 333 59009 60017 70010 83708 84614 88458==
41947,2024,10,02,21,00,AAXX 02214 41947 02450 80000 10288 20270 30027 40029 8352/ 333 59010 70010 83618 88458==
41947,2024,10,03,00,00,AAXX 03004 41947 02450 80000 10285 20280 30026 40028 8352/ 333 59007 70010 83618 88458==
41947,2024,10,03,03,00,AAXX 03034 41947 01350 80000 10292 20290 30046 40048 76122 8472/ 333 20282 59006 70012 81709 83617 88458==
41947,2024,10,03,06,00,AAXX 03064 41947 21350 80000 10270 20270 30032 40034 76162 8572/ 333 59006 60139 70136 82708 84615 88458==
41947,2024,10,03,09,00,AAXX 03094 41947 02450 80000 10290 20280 30014 40016 8452/ 333 58002 70136 84616 88458==
41947,2024,10,03,12,00,AAXX 03124 41947 02450 80000 10290 20280 30016 40018 8452/ 333 10295 58003 70136 84616 88458==
41947,2024,10,03,15,00,AAXX 03154 41947 01450 60000 10275 20270 30039 40041 70196 83570 333 59001 70156 83618 85458==
41947,2024,10,03,18,00,AAXX 03184 41947 11450 60000 10275 20270 30046 40048 60026 70296 83530 333 58009 70146 83618 84362==
41947,2024,10,03,21,00,AAXX 03214 41947 02450 50000 10274 20270 30042 40044 82530 333 58011 70146 82618 83362==
41950,2024,09,27,00,00,AAXX 27004 41950 02450 50000 10265 20265 30089 40092 83331 333 58023 70228 82616 83080 81928==
41950,2024,09,27,03,00,AAXX 27034 41950 02450 40000 10300 20250 30110 40112 83530 333 20255 58016 70122 83617==
41950,2024,09,27,06,00,AAXX 27064 41950 01335 81802 10270 20250 30107 40109 76122 8572/ 333 58014 70040 82707 84616 88458==
41950,2024,09,27,09,00,AAXX 27094 41950 01450 50000 10312 20260 30075 40077 70162 84401 333 59005 70114 83617==
41950,2024,09,27,12,00,AAXX 27124 41950 11450 60000 10286 20270 30083 40085 60056 70362 83531 333 10323 58005 70092 83617 83362==
41950,2024,09,27,15,00,AAXX 27154 41950 02/50 20000 10275 20270 30102 40104 82030 333 58004 70092 82362==
41950,2024,09,27,18,00,AAXX 27184 41950 02/50 20000 10270 20270 30099 40101 82030 333 58001 70092 82362==
41950,2024,09,27,21,00,AAXX 27214 41950 02450 30000 10270 20270 30092 40094 82530 333 58002 70092 82617==
41950,2024,09,28,00,00,AAXX 28004 41950 02450 40000 10268 20268 30095 40097 85330 333 58006 70092 83617==
41950,2024,09,28,03,00,AAXX 28034 41950 02450 40000 10304 20260 30113 40115 83401 333 20264 58003 70092 83617==
41950,2024,09,28,06,00,AAXX 28064 41950 01340 70000 10288 20270 30103 40105 76121 85710 333 59004 70020 82708 84616 87459==
41950,2024,09,28,09,00,AAXX 28094 41950 01450 50000 10307 20260 30078 40080 70162 84430 333 58003 70052 83617 83362==
41950,2024,09,28,12,00,AAXX 28124 41950 11450 40000 10300 20270 30077 40079 60046 70162 83501 333 10330 59006 70052 83617==
41950,2024,09,28,15,00,AAXX 28154 41950 02/50 10000 10284 20260 30095 40097 81030 333 59007 70052 81362==
41950,2024,09,28,18,00,AAXX 28184 41950 02950 00000 10278 20270 30093 40095 333 59006 70052==
41950,2024,09,28,21,00,AAXX 28214 41950 02450 10000 10275 20270 30084 40086 81500 333 59008 70052 81617==
41950,2024,09,29,00,00,AAXX 29004 41950 02450 30000 10272 20270 30087 40089 82501 333 59008 70052 82617==
41950,2024,09,29,03,00,AAXX 29034 41950 02450 50000 10307 20270 30105 40107 84431 333 20267 59007 70052 83617==
41950,2024,09,29,06,00,AAXX 29064 41950 02450 50000 10336 20260 30093 40096 84401 333 59010 70036 83617==
41950,2024,09,29,09,00,AAXX 29094 41950 02450 60000 10340 20260 30063 40065 84411 333 59015 70000 83617 84459==
41950,2024,09,29,12,00,AAXX 29124 41950 02450 60000 10308 20270 30066 40068 83431 333 10350 59011 70000 82617 84080==
41950,2024,09,29,15,00,AAXX 29154 41950 02450 30000 10293 20280 30087 40089 82500 333 59008 70000 82617==
41950,2024,09,29,18,00,AAXX 29184 41950 02450 20000 10290 20280 30082 40084 82500 333 59011 70000 82617==
41950,2024,09,29,21,00,AAXX 29214 41950 02/50 20000 10284 20280 30077 40079 82030 333 59007 70000 82362==
41950,2024,09,30,00,00,AAXX 30004 41950 02450 20000 10277 20277 30075 40077 82500 333 59012 70000 82617==
41950,2024,09,30,03,00,AAXX 30034 41950 02450 52102 10305 20290 30095 40097 84431 333 20275 59010 70000 83616 83080==
41950,2024,09,30,06,00,AAXX 30064 41950 02450 60000 10338 20280 30077 40079 86300 333 59016 70000 84617 83825 81928==
41950,2024,09,30,09,00,AAXX 30094 41950 02450 40000 10346 20270 30047 40049 84400 333 59016 70000 83617==
41950,2024,09,30,12,00,AAXX 30124 41950 02350 70000 10310 20280 30047 40049 84670 333 10351 59019 70000 81708 84616 86459==
41950,2024,09,30,15,00,AAXX 30154 41950 02350 80000 10300 20280 30063 40065 8562/ 333 59024 70000 82708 84616 88458==
41950,2024,09,30,18,00,AAXX 30184 41950 02350 82102 10298 20290 30057 40059 8562/ 333 59025 70000 82708 84616 88458==
41950,2024,09,30,21,00,AAXX 30214 41950 02350 80000 10295 20290 30049 40051 8562/ 333 59028 70000 82708 84616 88458==
41950,2024,10,01,00,00,AAXX 01004 41950 02350 80000 10289 20280 30044 40046 8562/ 333 59031 70000 82708 84616 88458==
41950,2024,10,01,03,00,AAXX 01034 41950 02350 80000 10307 20290 30069 40071 8462/ 333 20285 59026 70000 81708 84616 88458==
41950,2024,10,01,06,00,AAXX 01064 41950 02450 60000 10340 20280 30050 40052 84410 333 59027 70000 83617 86459==
41950,2024,10,01,09,00,AAXX 01094 41950 02350 70000 10315 20270 30018 40020 85310 333 59029 70000 81708 84616 87459 81928==
41950,2024,10,01,12,00,AAXX 01124 41950 01350 80000 10298 20270 30025 40027 71792 8692/ 333 10352 59022 70000 82708 84616 88458 81928==
41950,2024,10,01,15,00,AAXX 01154 41950 02350 80000 10290 20270 30049 40051 8562/ 333 59014 70000 82708 84616 88458==
41950,2024,10,01,18,00,AAXX 01184 41950 01350 80000 10286 20280 30045 40047 71392 8532/ 333 59012 70000 82708 84616 88458 81928==
41950,2024,10,01,21,00,AAXX 01214 41950 02350 80000 10282 20270 30032 40034 8562/ 333 59017 70000 82708 84616 88458==
41950,2024,10,02,00,00,AAXX 02004 41950 01340 80000 10278 20278 30027 40029 70522 8532/ 333 59017 70000 82708 84616 88458 81928==
41950,2024,10,02,03,00,AAXX 02034 41950 02350 80000 10300 20280 30049 40051 8632/ 333 20275 59020 70000 82708 84616 88458 81928==
41950,2024,10,02,06,00,AAXX 02064 41950 02350 80000 10323 20270 30033 40035 8532/ 333 59017 70000 81708 84616 88458 81928==
41950,2024,10,02,09,00,AAXX 02094 41950 01350 80000 10326 20280 30005 40007 71722 8562/ 333 59013 70000 82708 84616 88458 81928==
41950,2024,10,02,12,00,AAXX 02124 41950 21330 80000 10260 20260 30016 40018 79596 8692/ 333 10335 59009 60127 70000 82708 84616 88458 81928==
41950,2024,10,02,15,00,AAXX 02154 41950 01330 80000 10273 20270 30042 40044 76166 8572/ 333 59007 70162 82708 84616 88458==
41950,2024,10,02,18,00,AAXX 02184 41950 21330 80000 10275 20275 30034 40036 76166 8572/ 333 59011 60099 70206 82708 84616 88458==
41950,2024,10,02,21,00,AAXX 02214 41950 01330 80000 10260 20260 30026 40028 76166 8572/ 333 59006 70236 82708 84616 88458==
41950,2024,10,03,00,00,AAXX 03004 41950 21330 80000 10255 20255 30031 40033 79566 8692/ 333 58004 60089 70288 82708 84616 88458 81928==
41950,2024,10,03,03,00,AAXX 03034 41950 01330 80000 10255 20255 30052 40054 79596 8692/ 333 20252 58003 70440 82708 84616 88458 81928==
41950,2024,10,03,06,00,AAXX 03064 41950 21340 80000 10274 20270 30037 40039 76196 8572/ 333 58004 60199 70480 82708 84616 88458==
41950,2024,10,03,09,00,AAXX 03094 41950 02350 81502 10295 20270 30015 40017 8562/ 333 58010 70480 82708 84616 88458==
41950,2024,10,03,12,00,AAXX 03124 41950 02350 80000 10280 20260 30018 40020 8562/ 333 10295 58002 70360 82708 84616 88458==
41950,2024,10,03,15,00,AAXX 03154 41950 02350 80000 10270 20250 30045 40047 8562/ 333 58003 70318 82708 84616 88458==
41950,2024,10,03,18,00,AAXX 03184 41950 02350 80000 10272 20260 30045 40047 8562/ 333 58011 70274 82708 84616 88458==
41950,2024,10,03,21,00,AAXX 03214 41950 02350 80000 10270 20260 30036 40038 8562/ 333 58010 70244 82708 84616 88458==
41951,2024,09,27,00,00,AAXX 27004 41951 01440 60000 10264 20260 30082 40087 70522 83510 333 58022 70117 83618 85459==
41951,2024,09,27,03,00,AAXX 27034 41951 02456 51302 10306 20280 30100 40104 82510 333 20256 58017 70082 82618 84459==
41951,2024,09,27,06,00,AAXX 27064 41951 11340 80000 10294 20270 30102 40107 60012 72162 8662/ 333 58017 70087 82706 84616 88458==
41951,2024,09,27,09,00,AAXX 27094 41951 01456 62202 10318 20260 30070 40075 70162 83510 333 59002 70055 83618 85459==
41951,2024,09,27,12,00,AAXX 27124 41951 11456 60000 10298 20260 30065 40070 60046 70262 83510 333 10327 59003 70050 83618 85459==
41951,2024,09,27,15,00,AAXX 27154 41951 02450 20000 10276 20276 30102 40107 82500 333 58004 70050 82618==
41951,2024,09,27,18,00,AAXX 27184 41951 02450 60000 10272 20270 30098 40103 83510 333 58002 70050 83618 85459==
41951,2024,09,27,21,00,AAXX 27214 41951 01440 50000 10268 20268 30092 40097 70522 82510 333 58003 70050 82618 84459==
41951,2024,09,28,00,00,AAXX 28004 41951 01440 50000 10264 20260 30084 40089 70522 82510 333 58002 70050 82618 84459==
41951,2024,09,28,03,00,AAXX 28034 41951 02456 51302 10322 20270 30107 40112 82510 333 20260 58007 70050 82618 84459==
41951,2024,09,28,06,00,AAXX 28064 41951 02456 61302 10328 20260 30090 40095 83510 333 59012 70000 83618 85459==
41951,2024,09,28,09,00,AAXX 28094 41951 02450 70000 10328 20270 30074 40079 83510 333 58004 70000 83618 86459==
41951,2024,09,28,12,00,AAXX 28124 41951 21450 50000 10300 20280 30066 40071 70162 82510 333 10342 58001 60035 70026 82618 84459==
41951,2024,09,28,15,00,AAXX 28154 41951 02950 00000 10285 20280 30094 40099 333 59008 70026==
41951,2024,09,28,18,00,AAXX 28184 41951 02950 00000 10278 20278 30090 40095 333 59008 70026==
41951,2024,09,28,21,00,AAXX 28214 41951 01440 20000 10274 20270 30086 40091 70500 82500 333 59006 70026 82618==
41951,2024,09,29,00,00,AAXX 29004 41951 01440 30000 10270 20270 30078 40083 70500 83500 333 59006 70026 83618==
41951,2024,09,29,03,00,AAXX 29033 41951 02456 52202 10306 20270 30098 40103 82510 333 20265 59009 70026 82618 84459==
41951,2024,09,29,06,00,AAXX 29064 41951 02456 52204 10348 20270 30086 40091 85400 333 59004 70026 83618 83825==
41951,2024,09,29,09,00,AAXX 29094 41951 02456 63103 10348 20270 30063 40068 83510 333 59011 70026 83618 85459==
41951,2024,09,29,12,00,AAXX 29124 41951 01450 60000 10295 20290 30059 40064 70262 83510 333 10353 59007 70030 83618 85458==
41951,2024,09,29,15,00,AAXX 29154 41951 02450 30000 10288 20280 30081 40086 83500 333 59013 70034 83618==
41951,2024,09,29,18,00,AAXX 29184 41951 02440 70000 10288 20288 30077 40082 83510 333 59013 70034 83618 86459==
41951,2024,09,29,21,00,AAXX 29214 41951 02440 60000 10284 20280 30071 40076 83510 333 59015 70034 83618 85459==
41951,2024,09,30,00,00,AAXX 30004 41951 02440 70000 10279 20279 30069 40073 83510 333 59009 70034 83618 86459==
41951,2024,09,30,03,00,AAXX 30034 41951 02456 62803 10305 20290 30089 40094 83510 333 20276 59009 70034 83618 85459==
41951,2024,09,30,06,00,AAXX 30064 41951 02456 60000 10340 20270 30072 40077 83510 333 59014 70034 83618 85459==
41951,2024,09,30,09,00,AAXX 30094 41951 02456 60000 10350 20270 30043 40048 83510 333 59020 70034 83618 85459==
41951,2024,09,30,12,00,AAXX 30124 41951 01340 80000 10300 20290 30035 40040 70392 8562/ 333 10353 59024 70000 81708 84618 88458==
41951,2024,09,30,15,00,AAXX 30154 41951 01340 80000 10298 20260 30060 40065 71322 8632/ 333 59021 70000 81708 84618 88458 81928==
41951,2024,09,30,18,00,AAXX 30184 41951 02340 80000 10290 20280 30058 40063 8562/ 333 59019 70000 81708 84618 88458==
41951,2024,09,30,21,00,AAXX 30214 41951 02340 80000 10286 20280 30047 40052 8562/ 333 59024 70000 81708 84618 88458==
41951,2024,10,01,00,00,AAXX 01004 41951 01340 80000 10266 20266 30039 40043 72162 8562/ 333 59030 70007 81708 84618 88458==
41951,2024,10,01,03,00,AAXX 01034 41951 02456 80000 10298 20280 30063 40068 8562/ 333 20260 59026 70007 81708 84618 88458==
41951,2024,10,01,06,00,AAXX 01064 41951 02456 60000 10344 20270 30041 40046 83510 333 59031 70007 83618 85459==
41951,2024,10,01,09,00,AAXX 01094 41951 02450 70000 10340 20300 30015 40020 83510 333 59028 70007 83618 85459==
41951,2024,10,01,12,00,AAXX 01124 41951 01340 80000 10285 20280 30016 40020 71796 8692/ 333 10353 59019 70090 82706 84616 88458 82925==
41951,2024,10,01,15,00,AAXX 01154 41951 02340 80000 10283 20270 30043 40048 8562/ 333 59017 70095 81708 84618 88458==
41951,2024,10,01,18,00,AAXX 01184 41951 02340 80000 10287 20287 30038 40043 8562/ 333 59020 70095 81708 84618 88458==
41951,2024,10,01,21,00,AAXX 01214 41951 01340 80000 10282 20280 30028 40032 70522 8562/ 333 59019 70095 81708 84618 88458==
41951,2024,10,02,00,00,AAXX 02004 41951 01340 80000 10278 20278 30019 40023 70522 8562/ 333 59020 70088 81708 84618 88458==
41951,2024,10,02,03,00,AAXX 02034 41951 02340 80000 10304 20280 30043 40048 8562/ 333 20274 59020 70088 81708 84618 88458==
41951,2024,10,02,06,00,AAXX 02064 41951 21450 70000 10322 20270 30023 40028 70162 83510 333 59018 69925 70090 83618 86459==
41951,2024,10,02,09,00,AAXX 02094 41951 01330 80000 10292 20270 30005 40010 79522 8692/ 333 59010 70110 82706 84616 88458 82925==
41951,2024,10,02,12,00,AAXX 02124 41951 21340 82202 10270 20270 30007 40012 76396 8672/ 333 10330 59009 60147 70142 82706 84616 88458==
41951,2024,10,02,15,00,AAXX 02154 41951 01330 80000 10272 20270 30035 40040 76062 8672/ 333 59008 70346 82706 84616 88458==
41951,2024,10,02,18,00,AAXX 02184 41951 01330 80000 10268 20268 30034 40039 76062 8672/ 333 59004 70359 82706 84616 88458==
41951,2024,10,02,21,00,AAXX 02214 41951 01340 80000 10264 20260 30026 40031 70262 8662/ 333 59002 70377 82706 84616 88458==
41951,2024,10,03,00,00,AAXX 03004 41951 01330 82203 10258 20250 30022 40027 76062 8672/ 333 58003 70392 82706 84616 88458==
41951,2024,10,03,03,00,AAXX 03034 41951 01330 81802 10256 20256 30042 40047 76366 8672/ 333 20245 59001 70722 82706 84616 88458==
41951,2024,10,03,06,00,AAXX 03064 41951 21340 81302 10283 20260 30035 40040 70262 8562/ 333 58012 60348 70734 81708 84618 88458==
41951,2024,10,03,09,00,AAXX 03094 41951 02450 71303 10300 20260 30013 40018 83510 333 58008 70714 83618 86459==
41951,2024,10,03,12,00,AAXX 03124 41951 02450 70000 10280 20260 30012 40017 83510 333 10312 58005 70594 83618 86459==
41951,2024,10,03,15,00,AAXX 03154 41951 02340 80000 10277 20270 30045 40050 8562/ 333 58010 70478 81708 84618 88458==
41951,2024,10,03,18,00,AAXX 03184 41951 02340 80000 10277 20270 30042 40047 8562/ 333 58008 70377 81708 84618 88458==
41951,2024,10,03,21,00,AAXX 03214 41951 02440 70000 10272 20270 30036 40041 83510 333 58010 70359 83618 85459==
41953,2024,09,27,00,00,AAXX 27004 41953 02440 80000 10260 20250 30092 40097 8352/ 333 58017 70320 83616 88458==
41953,2024,09,27,03,00,AAXX 27034 41953 02450 51303 10315 20260 30111 40116 83510 333 20260 58016 70160 83616 85458==
41953,2024,09,27,06,00,AAXX 27064 41953 02450 51303 10315 20260 30105 40110 83510 333 58010 70080 83616 85458==
41953,2024,09,27,09,00,AAXX 27094 41953 01450 80000 10280 20260 30080 40085 72162 8352/ 333 58003 70080 83616 88458==
41953,2024,09,27,12,00,AAXX 27124 41953 21450 80000 10285 20280 30082 40087 70262 8352/ 333 10326 58004 60085 70080 83616 88458==
41953,2024,09,27,15,00,AAXX 27154 41953 02440 60000 10275 20270 30103 40108 83510 333 59002 70080 83616 86458==
41953,2024,09,27,18,00,AAXX 27184 41953 02440 60000 10275 20270 30102 40107 83510 333 59001 70080 83616 86458==
41953,2024,09,27,21,00,AAXX 27214 41953 02440 60000 10270 20260 30095 40100 83510 333 58000 70080 83616 86458==
41953,2024,09,28,00,00,AAXX 28004 41953 02440 60000 10270 20260 30095 40100 83510 333 58003 70080 83616 86458==
41953,2024,09,28,03,00,AAXX 28034 41953 02450 40000 10320 20260 30115 40120 84400 333 20270 58004 70080 83616==
41953,2024,09,28,06,00,AAXX 28064 41953 21450 43103 10328 20250 30105 40110 70262 84400 333 58000 60045 70120 83616==
41953,2024,09,28,09,00,AAXX 28094 41953 02450 40000 10335 20260 30076 40081 84400 333 59004 70040 83618==
41953,2024,09,28,12,00,AAXX 28124 41953 02440 30000 10300 20270 30077 40082 83500 333 10340 59005 70040 83618==
41953,2024,09,28,15,00,AAXX 28154 41953 02435 20000 10282 20260 30088 40093 82500 333 59015 70040 82618==
41953,2024,09,28,18,00,AAXX 28184 41953 02440 20000 10278 20270 30094 40099 82500 333 59008 70040 82618==
41953,2024,09,28,21,00,AAXX 28214 41953 02435 20000 10277 20270 30088 40091 82500 333 59007 70040 82618==
41953,2024,09,29,00,00,AAXX 29004 41953 02440 20000 10275 20270 30086 40091 82500 333 59009 70040 82618==
41953,2024,09,29,03,00,AAXX 29033 41953 02450 40000 10310 20260 30107 40112 84400 333 20273 59008 70040 83618==
41953,2024,09,29,06,00,AAXX 29064 41953 02450 51701 10336 20270 30093 40098 85400 333 59012 70000 83616 83825==
41953,2024,09,29,09,00,AAXX 29094 41953 02450 50000 10338 20270 30068 40073 85400 333 59008 70000 83616 83825==
41953,2024,09,29,15,00,AAXX 29154 41953 02430 20000 10294 20280 30089 40094 82500 333 58001 70000 82618==
41953,2024,09,29,18,00,AAXX 29184 41953 02430 20000 10286 20280 30095 40100 82500 333 58001 70000 82618==
41953,2024,09,29,21,00,AAXX 29214 41953 02430 50000 10284 20270 30087 40093 82510 333 59001 70000 82618 84458==
41953,2024,09,30,00,00,AAXX 30004 41953 02440 70000 10280 20270 30083 40088 83510 333 59003 70000 83616 86458==
41953,2024,09,30,03,00,AAXX 30034 41953 02450 60000 10316 20270 30096 40101 84410 333 20279 59011 70000 83616 85458==
41953,2024,09,30,06,00,AAXX 30064 41953 02450 60000 10346 20270 30080 40085 83510 333 59013 70000 83616 85458==
41953,2024,09,30,09,00,AAXX 30094 41953 01440 80503 10280 20260 30050 40055 72162 8532/ 333 59018 70110 84615 88458 81925==
41953,2024,09,30,12,00,AAXX 30124 41953 21440 80000 10286 20280 30049 40054 70262 8352/ 333 10348 59019 60118 70110 83616 88458==
41953,2024,09,30,15,00,AAXX 30154 41953 02430 80000 10280 20270 30067 40072 8352/ 333 59022 70110 83616 88458==
41953,2024,09,30,18,00,AAXX 30184 41953 02430 80000 10278 20270 30069 40074 8352/ 333 59026 70110 83616 88458==
41953,2024,09,30,21,00,AAXX 30214 41953 02430 80000 10260 20250 30054 40059 8352/ 333 59033 70110 83616 88458==
41953,2024,10,01,00,00,AAXX 01004 41953 01440 80000 10256 20250 30048 40053 70262 8352/ 333 59035 70060 83616 88458==
41953,2024,10,01,03,00,AAXX 01034 41953 02445 60000 10300 20250 30070 40075 83510 333 20254 59026 70170 83616 85458==
41953,2024,10,01,06,00,AAXX 01064 41953 02450 80000 10328 20260 30052 40057 8352/ 333 59028 70170 83616 88458==
41953,2024,10,01,09,00,AAXX 01094 41953 02450 70000 10338 20260 30016 40021 83510 333 59034 70000 83616 86458==
41953,2024,10,01,12,00,AAXX 01124 41953 02430 80000 10310 20280 30025 40030 8352/ 333 10340 59024 70060 83616 88458==
41953,2024,10,01,15,00,AAXX 01154 41953 01425 80000 10286 20280 30044 40049 79522 8632/ 333 59023 70080 85615 88458 81930==
41953,2024,10,01,18,00,AAXX 01184 41953 21425 80000 10278 20270 30049 40054 70296 8352/ 333 59020 60035 70090 83616 88458==
41953,2024,10,01,21,00,AAXX 01214 41953 02425 80000 10280 20270 30039 40044 8352/ 333 59015 70090 83616 88458==
41953,2024,10,02,00,00,AAXX 02004 41953 01410 70000 10282 20270 30026 40031 74242 83510 333 59022 70030 83616 86458==
41953,2024,10,02,03,00,AAXX 02034 41953 01430 80501 10310 20270 30045 40050 71042 8352/ 333 20277 59025 70030 83616 88458==
41953,2024,10,02,06,00,AAXX 02064 41953 02440 83103 10326 20270 30031 40036 8352/ 333 59021 70030 83616 88458==
41953,2024,10,02,09,00,AAXX 02094 41953 01435 81304 10260 20260 30013 40018 79596 8692/ 333 59003 70710 84614 88456 81925==
41953,2024,10,02,12,00,AAXX 02124 41953 21430 80000 10260 20250 30018 40023 70296 8532/ 333 10330 59007 60807 70830 84615 88458 81925==
41953,2024,10,02,15,00,AAXX 02154 41953 01420 81304 10250 20250 30045 40050 76166 8452/ 333 58001 70960 84614 88458==
41953,2024,10,02,18,00,AAXX 02184 41953 21420 81304 10250 20250 30047 40052 76166 8452/ 333 59002 60269 71060 84614 88458==
41953,2024,10,02,21,00,AAXX 02214 41953 01420 81304 10258 20250 30035 40040 70262 8352/ 333 59004 71080 83615 88458==
41953,2024,10,03,00,00,AAXX 03004 41953 11430 80000 10260 20260 30030 40035 60026 70262 8352/ 333 58004 71080 83616 88458==
41953,2024,10,03,03,00,AAXX 03034 41953 01440 80000 10260 20260 30051 40056 70262 8452/ 333 20248 58006 71150 84615 88458==
41953,2024,10,03,06,00,AAXX 03064 41953 01445 80000 10270 20260 30044 40049 70266 8352/ 333 58013 71160 83616 88458==
41953,2024,10,03,09,00,AAXX 03094 41953 02445 81303 10290 20260 30019 40024 8352/ 333 58006 70480 83616 88458==
41953,2024,10,03,12,00,AAXX 03124 41953 02435 81302 10276 20260 30025 40030 8352/ 333 10296 58007 70360 83616 88458==
41953,2024,10,03,15,00,AAXX 03154 41953 02430 81303 10272 20260 30050 40055 8352/ 333 58005 70210 83616 88458==
41953,2024,10,03,18,00,AAXX 03184 41953 NIL=
41953,2024,10,03,21,00,AAXX 03214 41953 02430 81302 10268 20260 30047 40052 8352/ 333 58012 70080 83616 88458==
41955,2024,09,27,06,00,AAXX 27064 41955 NIL=
41955,2024,09,27,12,00,AAXX 27124 41955 NIL=
41955,2024,09,27,18,00,AAXX 27184 41955 NIL=
41955,2024,09,28,06,00,AAXX 28064 41955 NIL=
41955,2024,09,28,18,00,AAXX 28184 41955 NIL=
41955,2024,09,29,00,00,AAXX 29004 41955 NIL=
41955,2024,09,29,06,00,AAXX 29064 41955 NIL=
41955,2024,09,29,18,00,AAXX 29184 41955 NIL=
41955,2024,09,30,06,00,AAXX 30064 41955 NIL=
41955,2024,09,30,12,00,AAXX 30124 41955 NIL=
41955,2024,10,01,06,00,AAXX 01064 41955 NIL=
41955,2024,10,01,12,00,AAXX 01124 41955 NIL=
41955,2024,10,02,00,00,AAXX 02004 41955 NIL=
41955,2024,10,02,06,00,AAXX 02064 41955 NIL=
41955,2024,10,02,12,00,AAXX 02124 41955 NIL=
41955,2024,10,02,18,00,AAXX 02184 41955 NIL=
41955,2024,10,03,18,00,AAXX 03184 41955 NIL=
41958,2024,09,27,00,00,AAXX 27004 41958 11450 81701 10265 20265 30085 40087 60026 70162 83410 333 56490 58025 70876 83616 85459=
41958,2024,09,27,03,00,AAXX 27034 41958 32457 31703 10306 20280 30102 40104 83400 333 20250 56400 58021 70876 83616=
41958,2024,09,27,06,00,AAXX 27064 41958 32450 81703 10298 20280 30100 40102 8542/ 333 56499 58012 70760 84616 88458=
41958,2024,09,27,09,00,AAXX 27094 41958 32457 51701 10326 20280 30071 40073 83410 333 56490 58001 70150 83616 84459=
41958,2024,09,27,12,00,AAXX 27124 41958 32450 31701 10295 20270 30078 40080 83400 333 10327 56400 58005 70130 83616=
41958,2024,09,27,15,00,AAXX 27154 41958 32950 00000 10280 20270 30098 40100 333 58005 70120=
41958,2024,09,27,18,00,AAXX 27184 41958 32940 01702 10277 20270 30093 40095 333 59003 70020=
41958,2024,09,27,21,00,AAXX 27214 41958 32940 01701 10275 20275 30091 40093 333 58001 70000=
41958,2024,09,28,00,00,AAXX 28004 41958 32450 31702 10272 20270 30087 40089 83400 333 56400 58002 70000 83616=
41958,2024,09,28,03,00,AAXX 28034 41958 32450 80000 10317 20280 30111 40113 8542/ 333 20269 56999 58009 70000 84646 88458=
41958,2024,09,28,06,00,AAXX 28064 41958 32457 40000 10334 20270 30095 40097 84400 333 56900 59005 70000 83617=
41958,2024,09,28,09,00,AAXX 28094 41958 32457 51501 10320 20280 30071 40073 82401 333 56909 58000 70000 81617 85080=
41958,2024,09,28,12,00,AAXX 28124 41958 32456 51801 10294 20270 30074 40077 81501 333 10345 56909 59004 70000 81617 85080=
41958,2024,09,28,15,00,AAXX 28154 41958 32950 00000 10282 20270 30093 40095 333 59005 70000=
41958,2024,09,28,18,00,AAXX 28184 41958 32940 00000 10280 20270 30096 40098 333 58003 70000=
41958,2024,09,28,21,00,AAXX 28214 41958 32440 30000 10278 20278 30082 40084 83500 333 56500 59009 70000 83616=
41958,2024,09,29,00,00,AAXX 29004 41958 32450 52501 10276 20276 30084 40087 85430 333 56590 59003 70000 84616=
41958,2024,09,29,03,00,AAXX 29033 41958 32457 12701 10316 20290 30105 40107 81500 333 20270 56500 59006 70000 81617=
41958,2024,09,29,06,00,AAXX 29064 41958 32458 32501 10354 20280 30089 40091 83400 333 56500 59006 70000 82617=
41958,2024,09,29,09,00,AAXX 29094 41958 32558 40000 10350 20270 30065 40067 81101 333 56909 59006 70000 81825 84080=
41958,2024,09,29,15,00,AAXX 29154 41958 32950 00000 10288 20280 30085 40088 333 59008 70000=
41958,2024,09,29,18,00,AAXX 29184 41958 32940 00000 10284 20270 30080 40082 333 59016 70000=
41958,2024,09,29,21,00,AAXX 29214 41958 32940 00000 10280 20280 30077 40079 333 59005 70000=
41958,2024,09,30,00,00,AAXX 30004 41958 32950 00000 10278 20278 30080 40082 333 59004 70000=
41958,2024,09,30,03,00,AAXX 30034 41958 32457 30000 10330 20290 30095 40097 83400 333 20275 56500 59010 70000 82617=
41958,2024,09,30,06,00,AAXX 30064 41958 32458 20000 10356 20280 30078 40080 82400 333 56500 59011 70000 81617=
41958,2024,09,30,09,00,AAXX 30094 41958 32558 10000 10362 20290 30048 40050 81100 333 56900 59017 70000 81825=
41958,2024,09,30,12,00,AAXX 30124 41958 32956 10000 10316 20300 30044 40046 80001 333 10364 56009 59024 70000 81080=
41958,2024,09,30,15,00,AAXX 30154 41958 32950 00000 10300 20290 30062 40064 333 59023 70000=
41958,2024,09,30,18,00,AAXX 30184 41958 32940 00000 10294 20280 30058 40060 333 59022 70000=
41958,2024,09,30,21,00,AAXX 30214 41958 32940 00000 10292 20290 30045 40047 333 59032 70000=
41958,2024,10,01,00,00,AAXX 01004 41958 31450 10000 10290 20290 30047 40049 81500 333 56400 59033 70000 81617=
41958,2024,10,01,03,00,AAXX 01034 41958 32457 12701 10336 20300 30067 40069 81500 333 20285 56500 59028 70000 81617=
41958,2024,10,01,06,00,AAXX 01064 41958 32558 12701 10356 20290 30050 40052 81100 333 56500 59028 70000 81825=
41958,2024,10,01,09,00,AAXX 01094 41958 31456 80000 10332 20300 30018 40020 71720 8592/ 333 56999 59030 70000 83616 81930 88459=
41958,2024,10,01,12,00,AAXX 01124 41958 31450 80000 10300 20280 30020 40022 70292 8532/ 333 10363 56999 59024 70000 83616 81930 88459=
41958,2024,10,01,15,00,AAXX 01154 41958 31440 80000 10298 20290 30043 40045 71722 8592/ 333 56999 59013 70000 83616 81930 88459=
41958,2024,10,01,18,00,AAXX 01184 41958 31440 80000 10294 20280 30043 40045 70292 8542/ 333 56999 59015 70000 84616 88459=
41958,2024,10,01,21,00,AAXX 01214 41958 32440 80000 10282 20280 30026 40028 8342/ 333 56999 59019 70000 82617 88459=
41958,2024,10,02,00,00,AAXX 02004 41958 32450 70000 10280 20280 30028 40030 82570 333 56990 59019 70000 82617 86459=
41958,2024,10,02,03,00,AAXX 02034 41958 32457 70000 10316 20280 30045 40047 83510 333 20275 56990 59022 70000 83617 87459=
41958,2024,10,02,06,00,AAXX 02064 41958 32457 80000 10332 20280 30035 40037 8542/ 333 56999 59015 70000 84616 88459=
41958,2024,10,02,09,00,AAXX 02094 41958 21456 80000 10290 20280 30012 40014 70262 8532/ 333 56999 59006 6005/ 70046 84616 81930 88459=
41958,2024,10,02,12,00,AAXX 02124 41958 11450 70000 10296 20290 30014 40016 60058 70162 85310 333 10333 56990 59006 70046 84616 81930 87459=
41958,2024,10,02,15,00,AAXX 02154 41958 21440 80000 10284 20270 30036 40038 76162 8542/ 333 56999 59007 6003/ 70072 84616 88459=
41958,2024,10,02,18,00,AAXX 02184 41958 11440 80000 10282 20280 30035 40037 60058 71366 8532/ 333 56999 59008 70100 84616 81930 88459=
41958,2024,10,02,21,00,AAXX 02214 41958 31412 80000 10280 20280 30021 40023 71022 8542/ 333 56999 59005 70100 84616 88459=
41958,2024,10,03,00,00,AAXX 03004 41958 31412 80000 10280 20280 30023 40025 71022 8532/ 333 56999 59005 70100 84616 81930 88459=
41958,2024,10,03,03,00,AAXX 03034 41958 31435 80000 10288 20270 30042 40045 70522 8532/ 333 20270 56999 59003 70100 84616 81930 88459=
41958,2024,10,03,06,00,AAXX 03064 41958 32456 81601 10298 20280 30031 40033 8532/ 333 56999 59004 70100 84616 81930 88459=
41958,2024,10,03,09,00,AAXX 03094 41958 32458 81801 10299 20260 30011 40013 8532/ 333 56999 59001 70054 84616 81930 88459=
41958,2024,10,03,12,00,AAXX 03124 41958 32450 81601 10282 20260 30012 40014 8532/ 333 10302 56999 59002 70054 84616 81930 88459=
41958,2024,10,03,15,00,AAXX 03154 41958 32440 81802 10277 20270 30037 40039 8532/ 333 56999 58001 70028 84616 81930 88459=
41958,2024,10,03,18,00,AAXX 03184 41958 32430 81603 10277 20270 30040 40042 8532/ 333 56999 58005 70000 84616 81930 88459=
41958,2024,10,03,21,00,AAXX 03214 41958 32430 81602 10274 20260 30030 40032 8542/ 333 56999 58009 70000 84616 88459=
41960,2024,09,27,00,00,AAXX 27004 41960 01440 30000 10260 20260 30093 40095 70522 83440 333 58020 70446 82618==
41960,2024,09,27,03,00,AAXX 27034 41960 01456 40000 10310 20270 30109 40110 70362 82530 333 20256 58019 70088 82618 83362==
41960,2024,09,27,06,00,AAXX 27064 41960 01456 61802 10300 20270 30101 40102 72162 85410 333 58013 70096 83618 84459==
41960,2024,09,27,09,00,AAXX 27094 41960 02457 51803 10328 20280 30080 40082 85400 333 58003 70030 83618==
41960,2024,09,27,12,00,AAXX 27124 41960 02456 60000 10295 20270 30081 40082 85410 333 10332 58008 70030 83618 85458==
41960,2024,09,27,15,00,AAXX 27154 41960 02450 70000 10280 20270 30100 40102 85410 333 58001 70030 83618 87459==
41960,2024,09,27,18,00,AAXX 27184 41960 02450 20000 10275 20275 30100 40102 82500 333 58001 70030 82618==
41960,2024,09,27,21,00,AAXX 27214 41960 02450 20000 10272 20270 30097 40099 82400 333 58002 70030 81618==
41960,2024,09,28,00,00,AAXX 28004 41960 02450 30000 10268 20268 30095 40097 83400 333 58002 70030 82618==
41960,2024,09,28,03,00,AAXX 28034 41960 02456 30000 10308 20270 30114 40116 83401 333 20265 58005 70008 82618==
41960,2024,09,28,06,00,AAXX 28064 41960 02456 51802 10332 20250 30102 40104 85401 333 58001 70000 83618 83825==
41960,2024,09,28,09,00,AAXX 28094 41960 02456 51802 10325 20280 30082 40084 85471 333 58002 70000 83618 83460==
41960,2024,09,28,12,00,AAXX 28124 41960 02450 50000 10306 20270 30077 40079 85471 333 10337 59004 70000 83618 83460==
41960,2024,09,28,15,00,AAXX 28154 41960 02450 30000 10288 20280 30094 40096 83400 333 59006 70000 82618==
41960,2024,09,28,18,00,AAXX 28184 41960 02950 00000 10278 20270 30098 40100 333 59002 70000==
41960,2024,09,28,21,00,AAXX 28214 41960 02450 20000 10275 20275 30092 40094 82400 333 59005 70000 81618==
41960,2024,09,29,00,00,AAXX 29004 41960 01440 30000 10273 20273 30085 40087 70500 82440 333 59010 70000 81618 83363==
41960,2024,09,29,03,00,AAXX 29034 41960 02456 51803 10316 20280 30107 40109 85400 333 20280 59007 70000 83618==
41960,2024,09,29,06,00,AAXX 29064 41960 02456 61802 10316 20280 30105 40106 85410 333 58003 70000 83618 85459==
41960,2024,09,29,09,00,AAXX 29094 41960 01456 51802 10344 20280 30070 40072 71722 85911 333 59012 70000 83618 83460 81929==
41960,2024,09,29,12,00,AAXX 29124 41960 01450 60000 10300 20270 30068 40070 70392 83510 333 10350 59009 70000 83618 85458==
41960,2024,09,29,15,00,AAXX 29154 41960 02450 30000 10293 20280 30087 40089 83500 333 59007 70000 83618==
41960,2024,09,29,18,00,AAXX 29184 41960 02450 60000 10285 20280 30086 40088 84410 333 59012 70000 83618 86459==
41960,2024,09,29,21,00,AAXX 29214 41960 02450 40000 10282 20280 30082 40084 83410 333 59010 70000 82618 84460==
41960,2024,09,30,00,00,AAXX 30004 41960 02450 20000 10280 20280 30080 40082 82400 333 59005 70000 81618==
41960,2024,09,30,03,00,AAXX 30034 41960 02456 31802 10310 20280 30103 40105 83400 333 20275 59004 70000 82618==
41960,2024,09,30,06,00,AAXX 30064 41960 02457 51804 10340 20270 30099 40100 85400 333 59006 70000 82618 83825==
41960,2024,09,30,09,00,AAXX 30094 41960 02457 20000 10352 20260 30052 40053 82400 333 59018 70000 81618==
41960,2024,09,30,12,00,AAXX 30124 41960 02456 40000 10325 20290 30046 40047 83511 333 10358 59022 70000 83618==
41960,2024,09,30,15,00,AAXX 30154 41960 01450 70000 10303 20280 30060 40062 71322 85310 333 59027 70000 83618 87459 81930==
41960,2024,09,30,18,00,AAXX 30184 41960 02450 80000 10297 20290 30061 40063 8542/ 333 59025 70000 84617 88459==
41960,2024,09,30,21,00,AAXX 30214 41960 01440 50000 10292 20290 30054 40056 70521 83410 333 59028 70000 82618 85459==
41960,2024,10,01,00,00,AAXX 01004 41960 01/40 20000 10288 20288 30049 40051 70521 82030 333 59031 70000 82363==
41960,2024,10,01,03,00,AAXX 01034 41960 02456 60000 10310 20280 30074 40076 83510 333 20284 59029 70000 83618 86459==
41960,2024,10,01,06,00,AAXX 01064 41960 02457 61801 10348 20290 30069 40071 83510 333 59030 70000 83618 86459==
41960,2024,10,01,09,00,AAXX 01094 41960 01440 70903 10293 20270 30025 40027 79592 86910 333 59027 70018 84617 87459 82928==
41960,2024,10,01,12,00,AAXX 01124 41960 21440 60000 10290 20280 30025 40027 70196 84410 333 10360 59021 60025 70024 83618 86459==
41960,2024,10,01,15,00,AAXX 01154 41960 02450 60000 10289 20280 30046 40048 84410 333 59014 70024 83618 86459==
41960,2024,10,01,18,00,AAXX 01184 41960 02450 70000 10285 20280 30043 40045 84410 333 59018 70024 83618 87459==
41960,2024,10,01,21,00,AAXX 01214 41960 01440 50000 10285 20280 30036 40038 70522 83410 333 59018 70024 82618 85460==
41960,2024,10,02,00,00,AAXX 02004 41960 01/40 40000 10285 20285 30029 40031 70521 84070 333 59020 70024 82460 83362==
41960,2024,10,02,03,00,AAXX 02034 41960 01450 60000 10300 20290 30044 40046 70522 82510 333 20280 59030 70024 82618 85459==
41960,2024,10,02,06,00,AAXX 02064 41960 02456 70000 10316 20280 30035 40037 83410 333 59034 70024 82618 86459==
41960,2024,10,02,09,00,AAXX 02094 41960 01450 71802 10330 20290 30010 40012 70522 86310 333 59015 70006 84616 83822 87459 81930==
41960,2024,10,02,12,00,AAXX 02124 41960 01340 81801 10282 20270 30017 40019 79562 8692/ 333 10335 59008 70020 83707 84616 88456 81926==
41960,2024,10,02,15,00,AAXX 02154 41960 01420 80000 10277 20277 30043 40045 76166 8542/ 333 59003 70073 84616 88458==
41960,2024,10,02,18,00,AAXX 02184 41960 21320 80000 10279 20279 30041 40043 76166 8672/ 333 59002 60079 70089 82708 84615 88458==
41960,2024,10,02,21,00,AAXX 02214 41960 01430 81801 10270 20270 30036 40037 76166 8642/ 333 58000 70113 84616 83822 88458==
41960,2024,10,03,00,00,AAXX 03004 41960 21430 81802 10262 20250 30029 40030 76166 8542/ 333 58000 60069 70151 83616 83822 88459==
41960,2024,10,03,03,00,AAXX 03034 41960 01350 81802 10255 20255 30048 40049 76196 8672/ 333 20254 58004 70443 82708 84616 88458 81925==
41960,2024,10,03,06,00,AAXX 03064 41960 21456 81801 10286 20280 30041 40043 70296 8542/ 333 58006 60318 70457 84618 88459==
41960,2024,10,03,09,00,AAXX 03094 41960 02450 80000 10290 20270 30020 40021 8642/ 333 58010 70461 84617 83822 88459==
41960,2024,10,03,12,00,AAXX 03124 41960 11440 80000 10275 20260 30019 40020 69946 70262 8452/ 333 10295 58002 70446 84618 88458==
41960,2024,10,03,15,00,AAXX 03154 41960 02450 70000 10272 20260 30045 40046 85410 333 58002 70388 83618 87459==
41960,2024,10,03,18,00,AAXX 03184 41960 01440 80000 10270 20270 30049 40050 70522 333 58008 70372 84617 88459==
41960,2024,10,03,21,00,AAXX 03214 41960 01440 50000 10260 20260 30044 40045 70522 83410 333 58008 70348 83617 85459==
41963,2024,09,27,00,00,AAXX 27004 41963 01430 20000 10271 20270 30088 40091 70511 82500 333 58006 70470 82618==
41963,2024,09,27,03,00,AAXX 27034 41963 01356 31803 10290 20270 30103 40105 70362 82500 333 20268 58020 70100 83618==
41963,2024,09,27,06,00,AAXX 27064 41963 11457 31804 10315 20260 30100 40103 60106 70262 83500 333 58014 70100 83618==
41963,2024,09,27,09,00,AAXX 27094 41963 02457 31802 10320 20260 30076 40078 333 58011 70100 82618 83828==
41963,2024,09,27,12,00,AAXX 27124 41963 02450 21801 10290 20270 30083 40085 82500 333 10322 58011 70100 82618==
41963,2024,09,27,15,00,AAXX 27154 41963 01930 01801 10280 20270 30100 40102 70510 333 58002 70100==
41963,2024,09,27,18,00,AAXX 27184 41963 NIL=
41963,2024,09,27,21,00,AAXX 27214 41963 01930 00000 10275 20275 30103 40105 70500 333 58003 70100==
41963,2024,09,28,00,00,AAXX 28004 41963 01430 20000 10270 20270 30090 40093 70510 82500 333 58002 70100 82618==
41963,2024,09,28,03,00,AAXX 28034 41963 02457 31801 10315 20270 30110 40113 83800 333 20265 58007 70000 82618 83828==
41963,2024,09,28,06,00,AAXX 28064 41963 02456 51801 10315 20270 30101 40104 82510 333 58001 70000 82618 85458==
41963,2024,09,28,09,00,AAXX 28094 41963 02457 51802 10320 20270 30080 40082 82510 333 58004 70000 82618 85458==
41963,2024,09,28,12,00,AAXX 28124 41963 02440 20000 10295 20290 30068 40070 82500 333 10330 59015 70000 82618==
41963,2024,09,28,15,00,AAXX 28154 41963 01930 00000 10280 20270 30068 40070 70500 333 59003 70000==
41963,2024,09,28,18,00,AAXX 28184 41963 NIL=
41963,2024,09,28,21,00,AAXX 28214 41963 01930 00000 10271 20271 30098 40101 70500 333 59005 70000==
41963,2024,09,29,00,00,AAXX 29004 41963 01930 00000 10268 20268 30093 40095 70500 333 58003 70000==
41963,2024,09,29,03,00,AAXX 29033 41963 02456 51801 10320 20270 30100 40103 82510 333 20264 58010 70000==
41963,2024,09,29,06,00,AAXX 29064 41963 02457 21801 10335 20270 30088 40090 82500 333 59013 70000 82618==
41963,2024,09,29,15,00,AAXX 29154 41963 01930 00000 10290 20270 30086 40088 70500 333 59009 70000==
41963,2024,09,29,18,00,AAXX 29184 41963 NIL=
41963,2024,09,29,21,00,AAXX 29214 41963 01930 00000 10290 20290 30090 40092 70500 333 58008 70000==
41963,2024,09,30,00,00,AAXX 30004 41963 01930 00000 10283 20283 30090 40093 70500 333 59003 70000==
41963,2024,09,30,03,00,AAXX 30034 41963 02456 41803 10310 20280 30096 40099 82510 333 20278 59004 70000 82618 84458==
41963,2024,09,30,06,00,AAXX 30064 41963 02457 51802 10335 20280 30078 40080 82510 333 59010 70000 82618 85458==
41963,2024,09,30,09,00,AAXX 30094 41963 02456 61801 10330 20270 30054 40057 82510 333 59013 70000 82618 86458==
41963,2024,09,30,12,00,AAXX 30124 41963 02440 61802 10312 20280 30043 40045 82510 333 10350 59019 70000 82618 86458==
41963,2024,09,30,15,00,AAXX 30154 41963 01330 81801 10280 20270 30067 40080 79617 8492/ 333 59019 70060 82708 83615 88458 82926==
41963,2024,09,30,21,00,AAXX 30214 41963 01930 80000 10272 20272 30073 40076 70522 8372/ 333 59017 70060 82708 83615 88458==
41963,2024,10,01,00,00,AAXX 01004 41963 01330 81801 10268 20268 30073 40076 70562 8372/ 333 59017 70020 82708 83615 88458==
41963,2024,10,01,03,00,AAXX 01034 41963 01450 53601 10310 20280 30072 40074 70162 82510 333 20262 59024 70100 82618 85458==
41963,2024,10,01,06,00,AAXX 01064 41963 11356 50000 10335 20280 30048 40050 60026 70262 82510 333 59030 70100 82618 85458==
41963,2024,10,01,09,00,AAXX 01094 41963 42456 61801 10330 20270 30022 40024 82510 333 59030 82618 86458==
41963,2024,10,01,12,00,AAXX 01124 41963 02450 60000 10310 20280 30030 40033 82510 333 10340 59013 70100 82618 86458==
41963,2024,10,01,15,00,AAXX 01154 41963 01330 80000 10285 20285 30047 40050 71796 8492/ 333 59020 70050 82708 83615 88458 82926==
41963,2024,10,01,21,00,AAXX 01214 41963 01330 80000 10280 20280 30050 40053 70522 8372/ 333 59023 70050 82708 83615 88458==
41963,2024,10,02,00,00,AAXX 02004 41963 01330 80000 10278 20278 30047 40050 70522 8372/ 333 59026 70030 82708 83615 88458==
41963,2024,10,02,03,00,AAXX 02034 41963 02350 80000 10315 20300 30047 40050 8372/ 333 20275 59025 70010 82708 83615 88458==
41963,2024,10,02,06,00,AAXX 02064 41963 02350 83601 10310 20290 30035 40037 8372/ 333 59013 70010 82708 83615 88458==
41963,2024,10,02,09,00,AAXX 02094 41963 01340 81801 10290 20290 30015 40018 76196 8492/ 333 59007 70100 82708 83615 88458 82926==
41963,2024,10,02,12,00,AAXX 02124 41963 21330 80000 10270 20270 30016 40019 76196 8372/ 333 10320 59014 60159 70160 82708 83615 88458==
41963,2024,10,02,15,00,AAXX 02154 41963 01330 81801 10262 20262 30040 40043 76166 8372/ 333 59007 70220 82708 83615 88458==
41963,2024,10,02,18,00,AAXX 02184 41963 NIL=
41963,2024,10,02,21,00,AAXX 02214 41963 01330 80000 10258 20285 30044 40047 76166 8372/ 333 59006 70300 82708 83615 88458==
41963,2024,10,03,00,00,AAXX 03004 41963 21330 80000 10252 20252 30038 40041 76166 8372/ 333 59009 60089 70350 82708 83615 88458==
41963,2024,10,03,03,00,AAXX 03034 41963 01340 81801 10250 20250 30046 40049 76166 8372/ 333 59001 70640 82708 83615 88458==
41963,2024,10,03,06,00,AAXX 03064 41963 21350 81801 10270 20250 30047 40050 70262 8372/ 333 58012 60318 70640 82708 83615 88458==
41963,2024,10,03,09,00,AAXX 03094 41963 02456 51803 10290 20260 30017 40020 82510 333 58002 70570 82618 85458==
41963,2024,10,03,12,00,AAXX 03124 41963 01440 51802 10280 20270 30027 40030 70522 82510 333 10300 58011 70510 82618 85458==
41963,2024,10,03,15,00,AAXX 03154 41963 02330 81802 10270 20260 30049 40052 8372/ 333 58009 70460 82708 83615 88458==
41963,2024,10,03,18,00,AAXX 03184 41963 NIL=
41963,2024,10,03,21,00,AAXX 03214 41963 01330 81801 10262 20262 30052 40055 70522 8372/ 333 59008 70360 82708 83615 88458==
41964,2024,09,27,00,00,AAXX 27004 41964 02557 40000 10264 20250 30082 40084 81132 333 58016 70000 81825 83362==
41964,2024,09,27,03,00,AAXX 27034 41964 02457 41602 10318 20260 30106 40108 84401 333 20258 58017 70000 83619==
41964,2024,09,27,06,00,AAXX 27064 41964 02457 41803 10325 20280 30102 40104 84500 333 58009 70000 84619==
41964,2024,09,27,09,00,AAXX 27094 41964 02457 21902 10321 20270 30076 40079 82500 333 58007 70000 82619==
41964,2024,09,27,12,00,AAXX 27124 41964 02457 40000 10291 20270 30077 40080 83402 333 10326 58007 70000 82618 83078==
41964,2024,09,27,15,00,AAXX 27154 41964 02957 20000 10280 20270 30096 40098 80002 333 59001 70000 82078==
41964,2024,09,27,18,00,AAXX 27184 41964 02456 20000 10276 20270 30097 40099 82500 333 58002 70000 82618==
41964,2024,09,27,21,00,AAXX 27214 41964 02456 30000 10268 20260 30091 40093 82530 333 58003 70000 82618==
41964,2024,09,28,00,00,AAXX 28004 41964 02557 50000 10266 20260 30089 40091 82232 333 58007 70000 82825 83362==
41964,2024,09,28,03,00,AAXX 28034 41964 02457 51401 10317 20260 30106 40108 84310 333 20260 58000 70000 83619 81930==
41964,2024,09,28,06,00,AAXX 28064 41964 02457 41803 10328 20270 30099 40101 84500 333 59003 70000 84619==
41964,2024,09,28,09,00,AAXX 28094 41964 02457 61801 10315 20270 30080 40083 83510 333 58004 70000 84618 85460==
41964,2024,09,28,12,00,AAXX 28124 41964 02557 40000 10296 20270 30070 40073 81142 333 10330 59007 70000 81825 83078==
41964,2024,09,28,15,00,AAXX 28154 41964 02457 10000 10280 20270 30090 40092 81500 333 59006 70000 81618==
41964,2024,09,28,18,00,AAXX 28184 41964 02456 10000 10274 20274 30092 40094 81500 333 59005 70000 81618==
41964,2024,09,28,21,00,AAXX 28214 41964 02556 10000 10270 20270 30086 40088 81100 333 59005 70000 81825==
41964,2024,09,29,00,00,AAXX 29004 41964 02557 40000 10269 20269 30076 40078 82102 333 59013 70000 82825 83078==
41964,2024,09,29,03,00,AAXX 29033 41964 01557 40000 10302 20280 30099 40101 72121 84100 333 20262 59007 70002 82825==
41964,2024,09,29,06,00,AAXX 29064 41964 NIL=
41964,2024,09,29,09,00,AAXX 29094 41964 21457 41804 10330 20270 30088 40090 70262 84500 333 59011 69925 70002 84619==
41964,2024,09,29,15,00,AAXX 29154 41964 02456 10000 10288 20280 30083 40086 81500 333 59007 70002 81618==
41964,2024,09,29,18,00,AAXX 29184 41964 02456 30000 10284 20270 30078 40081 81530 333 59014 70002 81618 83362==
41964,2024,09,29,21,00,AAXX 29214 41964 02456 50000 10281 20281 30076 40079 83430 333 59010 70002 82618 83362==
41964,2024,09,30,00,00,AAXX 30004 41964 02457 60000 10282 20282 30069 40072 85442 333 59007 70002 84618 83362==
41964,2024,09,30,03,00,AAXX 30034 41964 02457 31702 10314 20260 30089 40092 83400 333 20276 59010 70000 82618==
41964,2024,09,30,06,00,AAXX 30064 41964 02457 41803 10338 20270 30073 40075 84500 333 59015 70000 84619==
41964,2024,09,30,09,00,AAXX 30094 41964 42457 71801 10310 20270 30051 40053 59027 86460==
41964,2024,09,30,12,00,AAXX 30124 41964 02457 80000 10292 20270 30047 40049 8452/ 333 10345 59016 70000 84618 88460==
41964,2024,09,30,15,00,AAXX 30154 41964 01456 70000 10287 20280 30063 40065 71322 84310 333 59020 70000 84618 86460 81930==
41964,2024,09,30,18,00,AAXX 30184 41964 02456 70000 10285 20280 30055 40057 83510 333 59023 70000 83618 87460==
41964,2024,09,30,21,00,AAXX 30214 41964 01456 80000 10283 20283 30047 40049 71322 8432/ 333 59029 70000 84618 88460 81930==
41964,2024,10,01,00,00,AAXX 01004 41964 01450 80000 10282 20282 30039 40041 70522 8532/ 333 59030 70000 84618 88460 81930==
41964,2024,10,01,03,00,AAXX 01034 41964 01456 70000 10307 20290 30062 40065 70196 83520 333 20267 59027 70230 83618 86460==
41964,2024,10,01,06,00,AAXX 01064 41964 11457 60000 10330 20270 30047 40049 60236 70196 83510 333 59026 70230 83618 85460==
41964,2024,10,01,09,00,AAXX 01094 41964 02457 70000 10331 20280 30015 40017 83510 333 59036 70230 83618 87460==
41964,2024,10,01,12,00,AAXX 01124 41964 02457 70000 10305 20290 30018 40020 83510 333 10341 59029 70230 83618 87460==
41964,2024,10,01,15,00,AAXX 01154 41964 02456 80000 10293 20280 30038 40040 8452/ 333 59025 70230 84618 88460==
41964,2024,10,01,18,00,AAXX 01184 41964 01456 80000 10291 20291 30036 40038 71322 8432/ 333 59019 70230 84618 88460 81930==
41964,2024,10,01,21,00,AAXX 01214 41964 01456 80000 10286 20286 30031 40033 71322 8532/ 333 59016 70230 85618 88460 81930==
41964,2024,10,02,00,00,AAXX 02004 41964 02456 80000 10283 20270 30024 40026 8532/ 333 59015 70230 84618 88458 81930==
41964,2024,10,02,03,00,AAXX 02034 41964 02456 80000 10315 20280 30039 40041 8352/ 333 20276 59023 70000 83618 88460==
41964,2024,10,02,06,00,AAXX 02064 41964 NIL=
41964,2024,10,02,09,00,AAXX 02094 41964 01450 81801 10255 20240 30009 40012 76196 8432/ 333 59006 70402 84616 88456 81928==
41964,2024,10,02,12,00,AAXX 02124 41964 21330 80000 10256 20255 30011 40013 76196 8772/ 333 10319 59007 60459 70452 84707 84616 88458==
41964,2024,10,02,15,00,AAXX 02154 41964 01325 80000 10257 20256 30038 40041 76366 8772/ 333 58000 70558 85707 85615 88457==
41964,2024,10,02,18,00,AAXX 02184 41964 21250 80000 10259 20250 30047 40049 76166 8772/ 333 58011 60439 70884 85707 85615 88457==
41964,2024,10,03,03,00,AAXX 03034 41964 01330 82303 10249 20240 30052 40054 76362 8772/ 333 20243 58013 70992 85707 84616 88458==
41964,2024,10,03,09,00,AAXX 03094 41964 02456 61901 10288 20260 30027 40029 83510 333 58018 70670 83618 85460==
41964,2024,10,03,12,00,AAXX 03124 41964 02356 80000 10278 20270 30022 40024 8562/ 333 10292 58011 70620 83709 83617 88459==
41964,2024,10,03,15,00,AAXX 03154 41964 02356 81404 10280 20260 30046 40048 8562/ 333 58008 70514 84707 83617 88459==
41964,2024,10,03,18,00,AAXX 03184 41964 NIL=
41964,2024,10,03,21,00,AAXX 03214 41964 02450 50000 10276 20250 30048 40050 83510 333 58010 70148 83618 84460==
41965,2024,09,27,03,00,AAXX 27034 41965 02440 50000 10325 20200 30109 40119 84610 333 59004 70000 83618 84460==
41965,2024,09,27,06,00,AAXX 27064 41965 02450 31303 10333 20200 30104 40113 83600 333 59012 70000 83618 84460==
41965,2024,09,27,09,00,AAXX 27094 41965 02460 31403 10320 20180 30079 40088 83600 333 59009 70000 83618 84460==
41965,2024,09,27,12,00,AAXX 27124 41965 02440 30000 10290 20210 30077 40086 83600 333 59005 70000 83618 84460==
41965,2024,09,27,15,00,AAXX 27154 41965 42440 30000 10275 20210 30100 40109 59024 84460==
41965,2024,09,27,18,00,AAXX 27184 41965 NIL=
41965,2024,09,28,00,00,AAXX 28004 41965 02430 50000 10200 20200 30096 40105 84610 333 59025 70000 83618 84460==
41965,2024,09,28,03,00,AAXX 28034 41965 02450 51009 10305 20210 30111 40120 84310 333 58016 70000 83618 84460==
41965,2024,09,28,06,00,AAXX 28064 41965 02460 51402 10325 20220 30101 40110 84310 333 59003 70000 83618 84460==
41965,2024,09,28,09,00,AAXX 28094 41965 02450 63102 10315 20315 30076 40085 84310 333 59003 70000 83618 84460==
41965,2024,09,28,12,00,AAXX 28124 41965 02440 51702 10290 20210 30073 40082 84310 333 59004 70000 83618 84460==
41965,2024,09,28,15,00,AAXX 28154 41965 02440 50000 10270 20210 30091 40100 84310 333 59009 70000 83618 84460==
41965,2024,09,28,18,00,AAXX 28184 41965 NIL=
41965,2024,09,29,00,00,AAXX 29004 41965 02440 50000 10260 20210 30082 40091 84610 333 59014 70000 83618 84460==
41965,2024,09,29,03,00,AAXX 29033 41965 02450 51005 10320 20210 30104 40113 84310 333 59007 70000 83618 84460==
41965,2024,09,29,06,00,AAXX 29064 41965 02456 50000 10330 20220 30086 40095 84610 333 59015 70000 83618 84460==
41965,2024,09,29,09,00,AAXX 29094 41965 02456 61403 10300 20210 30069 40078 84610 333 59007 70000 83618 84460==
41965,2024,09,29,12,00,AAXX 29124 41965 02440 50000 10288 20220 30067 40076 84610 333 10334 59006 70000 83618 84460==
41965,2024,09,29,15,00,AAXX 29154 41965 02440 50000 10275 20230 30087 40096 84610 333 59004 70000 83618 84460==
41965,2024,09,29,18,00,AAXX 29184 41965 NIL=
41965,2024,09,29,21,00,AAXX 29214 41965 02430 60000 10276 20230 30066 40075 84610 333 59031 70000 83618 84460==
41965,2024,09,30,00,00,AAXX 30004 41965 02440 70000 10280 20230 30078 40087 84610 333 59004 70000 83618 86460==
41965,2024,09,30,03,00,AAXX 30034 41965 02450 63201 10308 20230 30092 40101 84610 333 20255 59012 70000 83618 84460==
41965,2024,09,30,06,00,AAXX 30064 41965 02456 53501 10335 20230 30052 40061 84610 333 59034 70000 83618 84460==
41965,2024,09,30,09,00,AAXX 30094 41965 01450 80902 10285 20220 30050 40059 70296 8431/ 333 59019 70020 81710 83618 88460==
41965,2024,09,30,12,00,AAXX 30124 41965 21440 80000 10275 20220 30052 40061 70296 8431/ 333 10343 59015 60025 70020 83618 88460==
41965,2024,09,30,15,00,AAXX 30154 41965 02430 72601 10270 20210 30062 40071 84310 333 59025 70020 83618 86460==
41965,2024,09,30,18,00,AAXX 30184 41965 01430 60000 10266 20220 30058 40067 70542 84310 333 59021 70020 83618 84460==
41965,2024,09,30,21,00,AAXX 30214 41965 01430 70000 10265 20210 30051 40060 70542 84310 333 59015 70020 83618 84460==
41965,2024,10,01,00,00,AAXX 01004 41965 01440 80000 10275 20230 30045 40054 70542 8431/ 333 59033 70020 81710 83618 88460==
41965,2024,10,01,03,00,AAXX 01034 41965 01450 70000 10296 20230 30067 40076 70296 84310 333 20266 59025 70050 83618 86460==
41965,2024,10,01,06,00,AAXX 01064 41965 11456 62201 10320 20230 30041 40050 60036 70296 84310 333 59011 70050 83618 84460==
41965,2024,10,01,09,00,AAXX 01094 41965 02456 60000 10325 20230 30012 40021 84310 333 59038 70030 83618 84460==
41965,2024,10,01,12,00,AAXX 01124 41965 01440 60000 10295 20240 30021 40030 70542 84310 333 10340 59031 70030 83618 84460==
41965,2024,10,01,15,00,AAXX 01154 41965 01435 50000 10276 20220 30041 40050 70242 84310 333 59021 70030 83618 84460==
41965,2024,10,01,21,00,AAXX 01214 41965 01430 50000 10272 20220 30029 40038 70542 84310 333 59022 70030 83618 84460==
41965,2024,10,02,00,00,AAXX 02004 41965 01440 60000 10270 20210 30019 40028 70542 84310 333 59026 70030 83618 84460==
41965,2024,10,02,03,00,AAXX 02034 41965 01450 80000 10310 20230 30042 40051 70542 8431/ 333 20265 59025 70000 83618 88460==
41965,2024,10,02,06,00,AAXX 02064 41965 01450 81402 10310 20220 30024 40033 70522 8431/ 333 59017 70000 83618 84460==
41965,2024,10,02,09,00,AAXX 02094 41965 01440 83501 10270 20300 30010 40019 72166 8431/ 333 59011 70280 83618 84460==
41965,2024,10,02,12,00,AAXX 02124 41965 21440 81402 10256 20210 30016 40025 76166 8431/ 333 10310 59005 60329 70320 81710 83618 88456==
41965,2024,10,02,15,00,AAXX 02154 41965 01430 81302 10250 20200 30041 40050 76166 8431/ 333 58000 70380 81710 83618 88456==
41965,2024,10,02,18,00,AAXX 02184 41965 NIL=
41965,2024,10,03,03,00,AAXX 03034 41965 21440 81402 10255 20200 30046 40055 70262 8431/ 333 58027 60048 70051 83618 88460==
41965,2024,10,03,06,00,AAXX 03064 41965 21450 81402 10260 20200 30045 40054 70266 8431/ 333 58021 60247 70750 81710 83618 88456==
41965,2024,10,03,09,00,AAXX 03094 41965 41450 82202 10295 20210 30016 40025 58006 70470 88460==
41965,2024,10,03,12,00,AAXX 03124 41965 02440 80000 10274 20210 30023 40033 8431/ 333 10300 58008 70430 83618 88460==
41965,2024,10,03,15,00,AAXX 03154 41965 02430 80000 10265 20200 30052 40061 8431/ 333 58011 70410 83618 88460==
41965,2024,10,03,18,00,AAXX 03184 41965 NIL=
41965,2024,10,03,21,00,AAXX 03214 41965 02430 81402 10260 20190 30043 40052 84310 333 58014 70280 83618 84460==
41966,2024,09,27,00,00,AAXX 27004 41966 02440 61201 10260 20250 30036 40115 82510 333 58016 70000 82616 85460==
41966,2024,09,27,03,00,AAXX 27034 41966 02450 41501 10300 20240 30045 40124 82510 333 20248 58010 70000 82616 83460==
41966,2024,09,27,06,00,AAXX 27064 41966 02550 41601 10325 20230 30036 40113 82130 333 58011 70000 82826 83362==
41966,2024,09,27,09,00,AAXX 27094 41966 02550 41501 10330 20220 30007 40084 82130 333 58003 70000 82616 83362==
41966,2024,09,27,12,00,AAXX 27124 41966 02540 41201 10295 20250 30019 40097 82130 333 10335 58015 70000 82826 83362==
41966,2024,09,27,15,00,AAXX 27154 41966 02530 41501 10285 20260 30021 40099 82130 333 58012 70000 82826 83362==
41966,2024,09,27,18,00,AAXX 27184 41966 NIL=
41966,2024,09,28,00,00,AAXX 28004 41966 02440 41501 10265 20250 30037 40116 82510 333 58001 70000 82616 83460==
41966,2024,09,28,03,00,AAXX 28034 41966 02550 41401 10295 20240 30051 40130 82130 333 20255 58006 70000 82826 83362==
41966,2024,09,28,06,00,AAXX 28064 41966 02550 41301 10336 20200 30053 40131 82130 333 58018 70000 82826 83362==
41966,2024,09,28,09,00,AAXX 28094 41966 01450 60902 10295 20270 30022 40100 70366 83510 333 58016 70198 83616 85460==
41966,2024,09,28,12,00,AAXX 28124 41966 21440 41201 10280 20260 30012 40091 70162 82510 333 10340 59006 60208 70198 82616 83460==
41966,2024,09,28,15,00,AAXX 28154 41966 02420 41501 10276 20260 30018 40097 82510 333 59002 70198 82616 83460==
41966,2024,09,28,18,00,AAXX 28184 41966 NIL=
41966,2024,09,28,21,00,AAXX 28214 41966 02420 51301 10265 20260 30023 40102 83510 333 59009 70198 83616 84460==
41966,2024,09,29,00,00,AAXX 29004 41966 02440 50901 10260 20250 30021 40100 82510 333 59016 70198 82616 84460==
41966,2024,09,29,03,00,AAXX 29034 41966 02550 51201 10300 20260 30041 40119 82130 333 20250 59011 70198 82826 84362==
41966,2024,09,29,06,00,AAXX 29064 41966 02450 51802 10325 20260 30026 40103 82510 333 59028 70198 82616 84460==
41966,2024,09,29,09,00,AAXX 29094 41966 01340 71801 10285 20260 30007 40085 76162 83710 333 59015 70024 82709 83616 85460==
41966,2024,09,29,15,00,AAXX 29154 41966 02430 51801 10270 20250 30026 40105 82510 333 58008 70030 82616 84460==
41966,2024,09,29,18,00,AAXX 29184 41966 NIL=
41966,2024,09,29,21,00,AAXX 29214 41966 02420 51201 10270 20250 30021 40100 82510 333 59002 70030 82616 84460==
41966,2024,09,30,00,00,AAXX 30004 41966 02440 51201 10270 20250 30012 40091 82510 333 59009 70030 82616 84460==
41966,2024,09,30,03,00,AAXX 30034 41966 02450 52101 10310 20270 30029 40108 82510 333 20263 59011 70030 82616 84460==
41966,2024,09,30,06,00,AAXX 30064 41966 02450 51801 10325 20260 30012 40089 82510 333 59014 70030 82616 84460==
41966,2024,09,30,09,00,AAXX 30094 41966 01320 81201 10270 20265 39990 40068 79562 8472/ 333 59017 70396 82709 83616 88460 81925==
41966,2024,09,30,12,00,AAXX 30124 41966 NIL=
41966,2024,09,30,15,00,AAXX 30154 41966 02420 71601 10270 20260 39996 40075 83510 333 59030 70400 83616 86460==
41966,2024,09,30,18,00,AAXX 30184 41966 02420 61201 10270 20260 30003 40082 83510 333 59025 70400 83616 85460==
41966,2024,09,30,21,00,AAXX 30214 41966 02440 61201 10266 20260 30002 40081 83510 333 59019 70400 83616 85460==
41966,2024,10,01,00,00,AAXX 01004 41966 02430 61201 10265 20260 39989 40067 83510 333 59024 70400 83616 85460==
41966,2024,10,01,03,00,AAXX 01034 41966 02440 61501 10285 20260 30003 40081 83510 333 20255 59027 70400 83616 85460==
41966,2024,10,01,06,00,AAXX 01064 41966 21440 60000 10320 20240 39983 40060 70262 83510 333 59029 69955 70405 83616 85460==
41966,2024,10,01,09,00,AAXX 01094 41966 01430 71201 10290 20270 39953 40031 70362 83510 333 59037 70075 83616 86460==
41966,2024,10,01,12,00,AAXX 01124 41966 11430 70000 10280 20260 39959 40031 60066 70262 83510 333 20325 59030 70060 83616 86460==
41966,2024,10,01,15,00,AAXX 01154 41966 02429 61301 10277 20270 39971 40049 82510 333 70065 82616 85460==
41966,2024,10,01,21,00,AAXX 01214 41966 02420 61501 10265 20260 39974 40053 83510 333 59018 70065 83616 85460==
41966,2024,10,02,00,00,AAXX 02004 41966 02440 61501 10268 20260 39959 40039 83510 333 59030 70065 83616 85460==
41966,2024,10,02,03,00,AAXX 02034 41966 02450 51601 10310 20280 39978 40056 82510 333 20260 59025 70065 82616 84460==
41966,2024,10,02,06,00,AAXX 02064 41966 02450 61201 10312 20270 39957 40034 82510 333 59026 70060 82616 85460==
41966,2024,10,02,09,00,AAXX 02094 41966 02450 81501 10280 20250 39944 40022 8452/ 333 59009 70000 83616 88460==
41966,2024,10,02,12,00,AAXX 02124 41966 21330 81602 10270 20270 39953 40032 76162 8472/ 333 10320 59005 60037 70025 82709 83616 88460==
41966,2024,10,02,15,00,AAXX 02154 41966 01330 81501 10250 20250 39981 40060 76166 8472/ 333 58011 70115 82709 83616 88460==
41966,2024,10,02,18,00,AAXX 02184 41966 NIL=
41966,2024,10,02,21,00,AAXX 02214 41966 02420 71201 10255 20250 39976 40055 83510 333 58002 70140 83616 86460==
41966,2024,10,03,00,00,AAXX 03004 41966 02430 71201 10260 20250 39961 40039 83510 333 58002 70140 83616 86460==
41966,2024,10,03,03,00,AAXX 03034 41966 02440 61301 10275 20240 39991 40070 83510 333 20248 58014 70140 83616 85460==
41966,2024,10,03,06,00,AAXX 03064 41966 02450 81801 10280 20250 39984 40062 8452/ 333 58028 70140 83616 88460==
41966,2024,10,03,09,00,AAXX 03094 41966 02450 61801 10290 20230 39966 40044 82510 333 58022 70140 82616 85460==
41966,2024,10,03,12,00,AAXX 03124 41966 02440 51501 10280 20250 39959 40037 82510 333 10305 58005 70115 82616 84460==
41966,2024,10,03,15,00,AAXX 03154 41966 02430 51601 10278 20240 39982 40060 82510 333 58000 70025 82616 84460==
41966,2024,10,03,18,00,AAXX 03184 41966 NIL=
41966,2024,10,03,21,00,AAXX 03214 41966 02420 51201 10260 20240 39981 40060 82510 333 58005 70000 82616 84460==
41977,2024,09,27,00,00,AAXX 27004 41977 02456 70000 10259 20250 30074 40112 84510 333 58017 70000 84618 87460==
41977,2024,09,27,03,00,AAXX 27034 41977 02457 61302 10315 20250 30095 40132 83411 333 20253 58014 70000 82617 84460 85080==
41977,2024,09,27,06,00,AAXX 27064 41977 02457 52102 10332 20240 30085 40123 83430 333 58008 70000 82617 85363==
41977,2024,09,27,09,00,AAXX 27094 41977 02457 32204 10320 20250 30063 40101 82430 333 58010 70000 82618 83363==
41977,2024,09,27,12,00,AAXX 27124 41977 02457 41904 10295 20260 30061 40099 84500 333 10326 59005 70000 84618==
41977,2024,09,27,15,00,AAXX 27154 41977 02450 52103 10288 20270 30089 40126 83530 333 58008 70000 83618 85362==
41977,2024,09,27,18,00,AAXX 27184 41977 02450 62103 10280 20260 30085 40123 83531 333 58015 70000 83618 86362==
41977,2024,09,27,21,00,AAXX 27214 41977 02450 70000 10274 20250 30074 40112 84570 333 58015 70000 84617 85460==
41977,2024,09,28,00,00,AAXX 28004 41977 02450 70000 10272 20260 30081 40119 83531 333 58007 70000 83618 86362==
41977,2024,09,28,03,00,AAXX 28034 41977 02456 20000 10309 20250 30096 40134 82500 333 20263 58001 70000 82618==
41977,2024,09,28,06,00,AAXX 28064 41977 02456 22503 10324 20240 30082 40120 82500 333 59013 70000 82618==
41977,2024,09,28,09,00,AAXX 28094 41977 02456 50000 10313 20250 30068 40106 83530 333 58005 70000 83617 85363==
41977,2024,09,28,12,00,AAXX 28124 41977 02440 22601 10298 20260 30066 40104 82500 333 10330 58005 70000 82618==
41977,2024,09,28,15,00,AAXX 28154 41977 02456 30000 10279 20270 30078 40116 81530 333 59011 70000 81618 83365==
41977,2024,09,28,18,00,AAXX 28184 41977 01450 30000 10273 20260 30083 40121 70511 81530 333 59002 70000 81617 83365==
41977,2024,09,28,21,00,AAXX 28214 41977 01450 60000 10274 20260 30079 40117 70522 83530 333 58005 70000 83616 86363==
41977,2024,09,29,00,00,AAXX 29004 41977 01350 80000 10275 20260 30074 40111 70522 8562/ 333 59007 70000 82710 85615 88458==
41977,2024,09,29,03,00,AAXX 29034 41977 01457 50000 10315 20280 30088 40126 70166 84410 333 20265 59008 70090 83616 85460==
41977,2024,09,29,06,00,AAXX 29064 41977 11457 52103 10327 20260 30076 40113 60096 70262 84430 333 59006 70090 83616 85363==
41977,2024,09,29,09,00,AAXX 29094 41977 02457 32604 10325 20260 30054 40091 82430 333 59014 70090 82618 83363==
41977,2024,09,29,12,00,AAXX 29124 41977 02458 62105 10303 20260 30071 40077 83401 333 10333 59008 70004 81618 83828 85080==
41977,2024,09,29,15,00,AAXX 29154 41977 02456 30000 10292 20270 30074 40112 83500 333 59004 70090 83618==
41977,2024,09,29,18,00,AAXX 29184 41977 02456 70000 10286 20280 30065 40103 84510 333 59018 70090 83618 87460==
41977,2024,09,29,21,00,AAXX 29214 41977 02456 70000 10280 20270 30051 40089 84510 333 59028 70090 84618 87460==
41977,2024,09,30,00,00,AAXX 30004 41977 01456 80000 10279 20279 30057 40094 70392 8532/ 333 59017 70090 83618 88460 81930==
41977,2024,09,30,03,00,AAXX 30034 41977 02456 72902 10304 20260 30081 40119 85370 333 20276 59007 70000 84618 85460 81928==
41977,2024,09,30,06,00,AAXX 30064 41977 02456 63103 10332 20270 30067 40104 84431 333 59009 70000 83618 85362==
41977,2024,09,30,09,00,AAXX 30094 41977 02456 51301 10328 20250 30038 40075 83530 333 59016 70000 83618 85363==
41977,2024,09,30,12,00,AAXX 30124 41977 01440 81401 10281 20270 30037 40074 70362 8532/ 333 10333 59020 70070 83618 88460 81930==
41977,2024,09,30,15,00,AAXX 30154 41977 01450 60000 10278 20270 30056 40094 70522 81510 333 59018 70070 81618 86460==
41977,2024,09,30,18,00,AAXX 30184 41977 01350 70000 10276 20270 30045 40083 70522 84370 333 59020 70070 81710 84616 86459 81928==
41977,2024,09,30,21,00,AAXX 30214 41977 01450 70000 10276 20270 30041 40078 70522 84570 333 59010 70070 84618 86459==
41977,2024,10,01,00,00,AAXX 01004 41977 01450 70000 10276 20270 30034 40071 70522 84570 333 59023 70070 84618 86459==
41977,2024,10,01,03,00,AAXX 01034 41977 01450 60000 10303 20220 30053 40091 70522 83510 333 20270 59028 70070 83618 86460==
41977,2024,10,01,06,00,AAXX 01064 41977 01450 80000 10314 20260 30027 40064 70522 8451/ 333 59040 70070 84618 88460==
41977,2024,10,01,09,00,AAXX 01094 41977 01450 80000 10322 20270 30007 40044 70522 8451/ 333 59031 70070 84618 88460==
41977,2024,10,01,12,00,AAXX 01124 41977 01450 80000 10280 20270 30008 40046 70522 8451/ 333 10325 59029 70000 84618 88460==
41977,2024,10,01,15,00,AAXX 01154 41977 01450 70000 10279 20270 30029 40066 70522 83510 333 59027 70000 83618 87459==
41977,2024,10,01,18,00,AAXX 01184 41977 01440 70000 10278 20278 30026 40063 71022 83510 333 59019 70000 83618 87459==
41977,2024,10,01,21,00,AAXX 01214 41977 01340 80000 10276 20276 30016 40053 71022 8562/ 333 59025 70000 81710 85616 88458==
41977,2024,10,02,00,00,AAXX 02004 41977 01340 80000 10275 20275 30008 40045 71022 8562/ 333 59026 70000 82710 85616 88458==
41977,2024,10,02,03,00,AAXX 02034 41977 01450 70902 10310 20270 30029 40066 70522 84470 333 20270 59024 70000 83618 85460==
41977,2024,10,02,06,00,AAXX 02064 41977 01350 82702 10292 20270 30013 40050 79522 8692/ 333 59014 70000 82708 84615 88458 81928==
41977,2024,10,02,12,00,AAXX 02124 41977 21450 81903 10252 20250 30004 40042 76196 8857/ 333 10318 59004 60159 70150 83710 84615 88458==
41977,2024,10,02,15,00,AAXX 02154 41977 01330 80000 10249 20249 30028 40067 76166 8572/ 333 59001 70286 84708 88458==
41977,2024,10,02,18,00,AAXX 02184 41977 21340 80000 10249 20249 30022 40060 76166 8472/ 333 59004 60219 70358 84708 88458==
41977,2024,10,02,21,00,AAXX 02214 41977 01340 80000 10246 20246 30007 40045 76166 8472/ 333 59009 70382 84707 88458==
41977,2024,10,03,00,00,AAXX 03004 41977 21340 80000 10247 20247 30015 40053 76166 8472/ 333 58007 60109 70462 84707 88458==
41977,2024,10,03,03,00,AAXX 03034 41977 01340 81302 10257 20250 30042 40080 75366 8572/ 333 20245 59013 70472 83709 88458==
41977,2024,10,03,06,00,AAXX 03064 41977 11456 71802 10281 20250 30030 40068 60016 70165 83510 333 58017 70472 83617 87459==
41977,2024,10,03,09,00,AAXX 03094 41977 02456 71802 10295 20250 30013 40051 84510 333 58017 70362 84617 87460==
41977,2024,10,03,12,00,AAXX 03124 41977 02456 71302 10280 20250 30009 40047 83570 333 10298 58005 70322 83618 86459==
41977,2024,10,03,15,00,AAXX 03154 41977 02456 81804 10268 20250 30040 40078 8452/ 333 58012 70186 84617 88458==
41977,2024,10,03,18,00,AAXX 03184 41977 02450 81803 10264 20240 30040 40077 8452/ 333 58018 70114 84617 88458==
41977,2024,10,03,21,00,AAXX 03214 41977 02450 80000 10260 20240 30029 40069 8452/ 333 58022 70090 84617 88458==
41978,2024,09,27,00,00,AAXX 27004 41978 01450 60503 10276 20270 30092 40099 70522 83530 333 58016 70000 83617 86360==
41978,2024,09,27,03,00,AAXX 27034 41978 01457 41706 10310 20260 30112 40119 70522 82520 333 20266 58016 70000 82618 83460==
41978,2024,09,27,06,00,AAXX 27064 41978 02458 42008 10324 20250 30103 40109 82520 333 58011 70000 82618 83460==
41978,2024,09,27,09,00,AAXX 27094 41978 02558 32111 10327 20250 30081 40087 83800 333 58009 70000 86320==
41978,2024,09,27,12,00,AAXX 27124 41978 02458 62007 10296 20260 30086 40092 83520 333 10328 58010 70000 83618 86460==
41978,2024,09,27,15,00,AAXX 27154 41978 02556 42202 10292 20260 30104 40110 82120 333 58000 70000 82828 83460==
41978,2024,09,27,18,00,AAXX 27184 41978 01450 81102 10267 20260 30100 40107 76162 8432/ 333 58003 70100 83614 88459 81928==
41978,2024,09,27,21,00,AAXX 27214 41978 01450 71302 10268 20260 30086 40092 70162 84320 333 59002 70158 83616 86460 81928==
41978,2024,09,28,00,00,AAXX 28004 41978 11456 61102 10268 20260 30096 40102 60066 70162 83520 333 58004 70158 83618 86460==
41978,2024,09,28,03,00,AAXX 28034 41978 02458 41905 10306 20260 30114 40121 82520 333 20262 58002 70158 82618 83460==
41978,2024,09,28,06,00,AAXX 28064 41978 02458 42108 10317 20260 30103 40109 82520 333 58000 70158 82618 83460==
41978,2024,09,28,09,00,AAXX 28094 41978 02458 42208 10323 20240 30081 40087 84400 333 58000 70158 81618 83828==
41978,2024,09,28,12,00,AAXX 28124 41978 02558 51904 10300 20250 30079 40085 81101 333 10327 59007 70158 81828 85080==
41978,2024,09,28,15,00,AAXX 28154 41978 02458 22103 10287 20260 30096 40103 82500 333 59008 70158 82618==
41978,2024,09,28,18,00,AAXX 28184 41978 02458 20000 10282 20260 30098 40104 82500 333 59002 70058 82618==
41978,2024,09,28,21,00,AAXX 28214 41978 02457 50000 10277 20260 30084 40090 82530 333 59002 70000 82618 84360==
41978,2024,09,29,00,00,AAXX 29004 41978 02557 50000 10270 20260 30086 40093 82130 333 59010 70000 82828 84360==
41978,2024,09,29,03,00,AAXX 29034 41978 01458 60804 10294 20270 30109 40116 70362 83530 333 20266 58002 70004 83618 85360==
41978,2024,09,29,06,00,AAXX 29064 41978 11458 62208 10318 20270 30097 40103 69946 70262 83530 333 59006 70004 83618 86360==
41978,2024,09,29,09,00,AAXX 29094 41978 02458 41908 10330 20250 30073 40079 84300 333 59008 70004 81618 83828 81930==
41978,2024,09,29,12,00,AAXX 29124 41978 NIL=
41978,2024,09,29,15,00,AAXX 29154 41978 02458 62003 10296 20280 30095 40101 83401 333 59001 70004 83617 85080==
41978,2024,09,29,18,00,AAXX 29184 41978 02458 71403 10290 20270 30084 40090 83420 333 59014 70004 83617 86460==
41978,2024,09,29,21,00,AAXX 29214 41978 02458 71403 10286 20280 30076 40082 83420 333 59008 70004 83617 86060==
41978,2024,09,30,00,00,AAXX 30004 41978 01456 70904 10280 20270 30080 40086 70522 83420 333 59006 70004 83617 86060==
41978,2024,09,30,03,00,AAXX 30034 41978 02456 72805 10305 20270 30097 40103 84320 333 20276 59012 70000 83618 87460 81930==
41978,2024,09,30,06,00,AAXX 30064 41978 02457 52606 10322 20250 30082 40088 83420 333 59015 70000 82618 84460==
41978,2024,09,30,09,00,AAXX 30094 41978 02456 72510 10324 20260 30046 40052 83320 333 59030 70000 83618 87260 81930==
41978,2024,09,30,12,00,AAXX 30124 41978 01440 81108 10283 20270 30052 40059 76162 8432/ 333 10339 59019 70070 83615 88459 81925==
41978,2024,09,30,15,00,AAXX 30154 41978 01456 80000 10278 20260 30070 40077 70262 8432/ 333 59025 70080 84615 88459 81925==
41978,2024,09,30,18,00,AAXX 30184 41978 11456 80000 10277 20260 30060 40067 60016 70262 8432/ 333 59024 70080 84617 88460 81928==
41978,2024,09,30,21,00,AAXX 30214 41978 02456 80000 10274 20260 30038 40045 8432/ 333 59038 70080 84617 88460 81928==
41978,2024,10,01,00,00,AAXX 01004 41978 01440 80902 10273 20260 30047 40054 70522 8432/ 333 59033 70080 84617 88460 81928==
41978,2024,10,01,03,00,AAXX 01034 41978 01456 61303 10297 20270 30071 40077 70522 84320 333 20272 59026 70080 83618 86460 81930==
41978,2024,10,01,06,00,AAXX 01064 41978 01456 62703 10316 20270 30049 40055 70522 83520 333 59033 70080 83617 86460==
41978,2024,10,01,09,00,AAXX 01094 41978 01450 72505 10318 20270 30017 40023 70522 84320 333 59029 70080 83618 87460 81930==
41978,2024,10,01,12,00,AAXX 01124 41978 01450 71102 10287 20270 30024 40030 70522 84320 333 10320 59028 70010 83618 86460 81930==
41978,2024,10,01,15,00,AAXX 01154 41978 01440 70904 10283 20260 30044 40051 70522 84520 333 59026 70000 83617 87460 81928==
41978,2024,10,01,18,00,AAXX 01184 41978 01437 71104 10280 20260 30039 40046 70522 84320 333 59021 70000 83617 87460 81928==
41978,2024,10,01,21,00,AAXX 01214 41978 01436 71304 10278 20260 30034 40041 70522 84320 333 59004 70000 83617 87460 81928==
41978,2024,10,02,00,00,AAXX 02004 41978 01435 81403 10272 20260 30022 40029 72122 8432/ 333 59025 70030 83616 88460 81928==
41978,2024,10,02,03,00,AAXX 02034 41978 01450 70904 10305 20260 30047 40053 70522 84320 333 20261 59024 70050 83617 87460 81930==
41978,2024,10,02,06,00,AAXX 02064 41978 01316 81906 10280 20270 30033 40039 79522 8432/ 333 59016 70100 84607 88457 81928==
41978,2024,10,02,09,00,AAXX 02094 41978 01440 81606 10280 20270 30008 40014 79596 8432/ 333 59009 70360 86414 88458 81926==
41978,2024,10,02,12,00,AAXX 02124 41978 21456 81303 10251 20251 30019 40025 76196 8432/ 333 10308 59005 60759 70900 86415 88459 81928==
41978,2024,10,02,15,00,AAXX 02154 41978 01340 81304 10250 20250 30048 40055 76166 8432/ 333 58004 71118 83708 88458 81926==
41978,2024,10,02,18,00,AAXX 02184 41978 21340 81302 10250 20250 30043 40049 76166 8342/ 333 58004 60329 71222 83708 88458 81926==
41978,2024,10,02,21,00,AAXX 02214 41978 01450 81202 10250 20250 30018 40024 70266 8432/ 333 59016 71252 83615 88459 81928==
41978,2024,10,03,00,00,AAXX 03004 41978 11456 81603 10250 20250 30033 40040 60036 70262 8432/ 333 58011 71202 83615 88459 81928==
41978,2024,10,03,03,00,AAXX 03034 41978 01456 81707 10258 20250 30056 40063 70262 8432/ 333 20242 58009 71212 83616 88459 81928==
41978,2024,10,03,06,00,AAXX 03064 41978 11457 71208 10284 20250 30046 40053 60016 70262 8432/ 333 58013 71112 83616 88460 81930==
41978,2024,10,03,09,00,AAXX 03094 41978 02457 72005 10300 20250 30020 40026 84320 333 58012 70902 83616 87460 81930==
41978,2024,10,03,12,00,AAXX 03124 41978 02457 71505 10282 20250 30028 40035 84320 333 10304 58009 70362 83616 87460 81930==
41978,2024,10,03,15,00,AAXX 03154 41978 02457 61304 10270 20250 30058 40064 83520 333 58010 70144 83616 86460==
41978,2024,10,03,18,00,AAXX 03184 41978 02457 61404 10266 20250 30054 40061 83520 333 58011 70040 83617 86460==
41978,2024,10,03,21,00,AAXX 03214 41978 02457 61305 10262 20250 30047 40053 83520 333 58029 70010 83617 86460==
41980,2024,09,27,00,00,AAXX 27004 41980 11450 60000 10252 20240 39993 40106 60026 70362 83510 333 56990 58019 70020 83617 83458=
41980,2024,09,27,06,00,AAXX 27064 41980 NIL=
41980,2024,09,27,12,00,AAXX 27124 41980 32450 60000 10275 20260 39985 40097 82510 333 10336 56990 58002 70020 82617 83458=
41980,2024,09,27,18,00,AAXX 27184 41980 NIL=
41980,2024,09,28,00,00,AAXX 28004 41980 11450 30000 10248 20250 39995 40108 60045 70162 81130 333 56990 58003 70040 81827=
41980,2024,09,28,06,00,AAXX 28064 41980 NIL=
41980,2024,09,28,12,00,AAXX 28124 41980 32450 30000 10281 20250 39977 40089 82510 333 10322 56990 59008 70040 82618=
41980,2024,09,28,18,00,AAXX 28184 41980 NIL=
41980,2024,09,29,00,00,AAXX 29004 41980 32550 30000 10260 20250 39994 40107 81130 333 56990 59001 70000 81824=
41980,2024,09,29,06,00,AAXX 29064 41980 NIL=
41980,2024,09,29,18,00,AAXX 29184 41980 NIL=
41980,2024,09,30,00,00,AAXX 30004 41980 32450 60000 10260 20260 39981 40094 83510 333 56990 59013 70030 83617 83450=
41980,2024,09,30,06,00,AAXX 30064 41980 NIL=
41980,2024,09,30,12,00,AAXX 30124 41980 11340 80000 10265 20260 39955 40067 60024 76162 8472/ 333 10321 56999 59017 70050 81710 83616 88456=
41980,2024,10,01,00,00,AAXX 01004 41980 11450 60000 10255 20250 39947 40059 60016 76201 83510 333 56990 59034 70060 83617 84458=
41980,2024,10,01,06,00,AAXX 01064 41980 NIL=
41980,2024,10,01,12,00,AAXX 01124 41980 11340 80000 10268 20260 39927 40039 60104 70265 8462/ 333 10325 56999 59028 70110 81710 83616 88456=
41980,2024,10,02,00,00,AAXX 02004 41980 31440 70000 10258 20258 39924 40035 70522 83520 333 56990 59023 70100 83618 87459=
41980,2024,10,02,06,00,AAXX 02064 41980 NIL=
41980,2024,10,02,12,00,AAXX 02124 41980 11340 80000 10242 20230 39929 40042 60329 76166 8662/ 333 10300 56999 58002 70320 83709 84614 88456=
41980,2024,10,02,18,00,AAXX 02184 41980 NIL=
41980,2024,10,03,00,00,AAXX 03004 41980 11440 60000 10240 20230 39944 40057 60209 72162 83520 333 56990 58018 70520 83616 86459=
41980,2024,10,03,12,00,AAXX 03124 41980 32450 60000 10268 20250 39935 40046 83520 333 10295 56890 58006 70200 83616 86459=
41980,2024,10,03,18,00,AAXX 03184 41980 NIL=
41984,2024,09,27,00,00,AAXX 27004 41984 01440 60000 10262 20260 30081 40083 76162 85410 333 58021 70020 84616 86459==
41984,2024,09,27,03,00,AAXX 27034 41984 02456 61403 10315 20270 30101 40103 86400 333 20256 58024 70090 83618 83823==
41984,2024,09,27,06,00,AAXX 27064 41984 02458 61906 10328 20270 30094 40096 86400 333 58019 70080 83618 83823==
41984,2024,09,27,09,00,AAXX 27094 41984 02458 61804 10324 20270 30075 40077 86400 333 58013 70020 83618 83823==
41984,2024,09,27,12,00,AAXX 27124 41984 02440 51803 10295 20270 30075 40077 85400 333 10333 58008 70020 82618 83823==
41984,2024,09,27,15,00,AAXX 27154 41984 02930 00000 10280 20270 30095 40097 333 58012 70020==
41984,2024,09,27,18,00,AAXX 27184 41984 02930 00000 10270 20260 30090 40092 333 58000 70020==
41984,2024,09,27,21,00,AAXX 27214 41984 02930 00000 10265 20260 30089 40091 333 58004 70000==
41984,2024,09,28,00,00,AAXX 28004 41984 02940 00000 10262 20260 30086 40088 333 58005 70000==
41984,2024,09,28,03,00,AAXX 28034 41984 02958 52103 10325 20260 30104 40106 85400 333 20260 58003 70000 84618==
41984,2024,09,28,06,00,AAXX 28064 41984 02458 62303 10330 20270 30094 40096 86400 333 58000 70000 83618 83823==
41984,2024,09,28,09,00,AAXX 28094 41984 02458 62103 10335 20270 30083 40085 86400 333 58008 70000 83618 83823==
41984,2024,09,28,12,00,AAXX 28124 41984 02440 32302 10300 20270 30073 40075 83400 333 10343 59002 70000 82618==
41984,2024,09,28,15,00,AAXX 28154 41984 02930 00000 10280 20270 30090 40092 333 59005 70000==
41984,2024,09,28,18,00,AAXX 28184 41984 02956 00000 10271 20260 30093 40095 333 58003 70000==
41984,2024,09,28,21,00,AAXX 28214 41984 02930 00000 10272 20260 30087 40089 333 59002 70000==
41984,2024,09,29,00,00,AAXX 29004 41984 02440 40000 10274 20250 30078 40080 84400 333 59008 70000 83618==
41984,2024,09,29,03,00,AAXX 29033 41984 02456 80000 10300 20270 30099 40101 8442/ 333 20270 59005 70000 83616 88459==
41984,2024,09,29,06,00,AAXX 29064 41984 02458 62304 10340 20280 30092 40094 86400 333 59002 70000 83618 83823==
41984,2024,09,29,09,00,AAXX 29094 41984 02458 42304 10344 20260 30068 40070 84400 333 59015 70000 83618==
41984,2024,09,29,12,00,AAXX 29124 41984 02440 62302 10305 20270 30067 40069 84410 333 10350 59006 70000 83618 86459==
41984,2024,09,29,15,00,AAXX 29154 41984 02430 40000 10290 20280 30082 40084 84400 333 59008 70000 83618==
41984,2024,09,29,18,00,AAXX 29184 41984 02430 40000 10286 20280 30080 40082 84400 333 59013 70000 83618==
41984,2024,09,29,21,00,AAXX 29214 41984 02930 00000 10280 20270 30075 40077 333 59012 70000==
41984,2024,09,30,00,00,AAXX 30004 41984 02940 00000 10275 20270 30071 40073 333 59007 70000==
41984,2024,09,30,03,00,AAXX 30034 41984 02456 62802 10320 20270 30088 40090 84410 333 20270 59011 70000 83618 86459==
41984,2024,09,30,06,00,AAXX 30064 41984 02458 62303 10350 20270 30071 40073 86400 333 59021 70000 83618 83823==
41984,2024,09,30,09,00,AAXX 30094 41984 02458 62304 10350 20280 30050 40052 84410 333 59018 70000 83618 86459==
41984,2024,09,30,12,00,AAXX 30124 41984 02/50 20000 10308 20290 30029 40041 82031 333 10360 59028 70000 82362==
41984,2024,09,30,15,00,AAXX 30154 41984 02/40 20000 10297 20290 30056 40058 82030 333 59026 70000 82362==
41984,2024,09,30,18,00,AAXX 30184 41984 02440 30000 10295 20290 30054 40056 82530 333 59026 70000 82618==
41984,2024,10,01,03,00,AAXX 01034 41984 02450 40000 10322 20290 30055 40057 83530 333 20280 59033 70000 83617==
41984,2024,10,01,06,00,AAXX 01064 41984 02456 50000 10342 20290 30035 40041 83510 333 59032 70000 83617 84458==
41984,2024,10,01,09,00,AAXX 01094 41984 01345 81307 10337 20290 30016 40018 79522 8592/ 333 59034 70020 82708 84617 88456 81925==
41984,2024,10,01,12,00,AAXX 01124 41984 22450 40000 10277 20270 30013 40015 84530 333 10350 59054 60175 70170 84617==
41984,2024,10,01,15,00,AAXX 01154 41984 02445 30000 10277 20270 30032 40034 84530 333 59050 70170 83617==
41984,2024,10,02,00,00,AAXX 02004 41984 01440 30000 10278 20278 30015 40017 70521 82530 333 59019 70170 82617==
41984,2024,10,02,03,00,AAXX 02034 41984 01440 80000 10296 20290 30034 40036 70521 333 20270 59021 70170 83617 88458==
41984,2024,10,02,06,00,AAXX 02064 41984 02456 80000 10318 20280 30028 40030 8452/ 333 59011 70170 84618 88459==
41984,2024,10,02,09,00,AAXX 02094 41984 02456 70000 10326 20290 39999 40001 84520 333 59017 70157 84618 87458==
41984,2024,10,02,12,00,AAXX 02124 41984 02456 40000 10288 20260 30002 40004 83530 333 10335 59011 70000 83618==
41984,2024,10,02,15,00,AAXX 02154 41984 01340 80000 10283 20270 30029 40031 75355 8572/ 333 59003 70010 81708 84617 88456==
41984,2024,10,02,18,00,AAXX 02184 41984 21340 80000 10280 20280 30027 40029 75352 8572/ 333 59003 60029 70024 81708 84617 88458==
41984,2024,10,02,21,00,AAXX 02214 41984 01335 80000 10275 20275 30025 40027 75352 8572/ 333 58009 70044 81708 84617 88456==
41984,2024,10,03,00,00,AAXX 03004 41984 21340 80000 10260 20260 30018 40020 70265 8562/ 333 59003 60119 70134 81708 84617 88458==
41984,2024,10,03,03,00,AAXX 03034 41984 01345 80000 10275 20270 30034 40036 70252 8562/ 333 20252 58000 70144 81708 84617 88458==
41984,2024,10,03,06,00,AAXX 03064 41984 21345 80000 10285 20260 30028 40030 76165 8572/ 333 58000 60209 70334 81708 84617 88458==
41984,2024,10,03,09,00,AAXX 03094 41984 01340 81301 10275 20260 30019 40021 75162 8572/ 333 58020 70342 81708 84617 88458==
41984,2024,10,03,12,00,AAXX 03124 41984 21450 70000 10270 20250 30008 40010 70165 84570 333 10290 58006 69988 70342 84618 84458==
41984,2024,10,03,15,00,AAXX 03154 41984 02440 50000 10270 20270 30030 40032 83510 333 58001 70332 83618 84458==
41984,2024,10,03,18,00,AAXX 03184 41984 02440 70000 10275 20260 30035 40037 83520 333 58008 70318 83618 87458==
41984,2024,10,03,21,00,AAXX 03214 41984 02440 60000 10275 20270 30030 40032 83510 333 58005 70298 83618 85458==
41989,2024,09,27,00,00,AAXX 27004 41989 02450 21302 10266 20260 30087 40091 82618 333 58005 70000 82618==
41989,2024,09,27,03,00,AAXX 27034 41989 02456 21804 10308 20260 30105 40108 82500 333 20262 58015 70000 82618==
41989,2024,09,27,06,00,AAXX 27064 41989 02456 41805 10328 20270 30099 40103 83530 333 58007 70000 83618==
41989,2024,09,27,09,00,AAXX 27094 41989 02456 51405 10305 20270 30082 40085 83570 333 59001 70000 83618 83362==
41989,2024,09,27,12,00,AAXX 27124 41989 02450 41703 10298 20260 30075 40078 82530 333 10330 58002 70000 82618 84362==
41989,2024,09,27,15,00,AAXX 27154 41989 02450 51302 10283 20260 30099 40102 83530 333 58001 70000 83618 84362==
41989,2024,09,27,18,00,AAXX 27184 41989 NIL=
41989,2024,09,27,21,00,AAXX 27214 41989 02450 30000 10275 20260 30102 40106 83500 333 59002 70000 83618==
41989,2024,09,28,00,00,AAXX 28004 41989 02450 20000 10270 20260 30096 40099 82500 333 58009 70000 82618==
41989,2024,09,28,03,00,AAXX 28034 41989 02456 31804 10314 20260 30114 40017 83500 333 20265 58009 70000 83618==
41989,2024,09,28,06,00,AAXX 28064 41989 02456 21405 10314 20260 30105 40108 82500 333 58006 70000 82618==
41989,2024,09,28,09,00,AAXX 28094 41989 02456 21403 10321 20250 30079 40082 82500 333 59003 70000 82618==
41989,2024,09,28,12,00,AAXX 28124 41989 02459 41703 10302 20260 30071 40074 82530 333 10327 59003 70000 82618 84362==
41989,2024,09,28,15,00,AAXX 28154 41989 02450 20000 10286 20275 30093 40096 82500 333 59006 70000 82618==
41989,2024,09,28,18,00,AAXX 28184 41989 NIL=
41989,2024,09,28,21,00,AAXX 28214 41989 02450 30000 10278 20260 30096 40100 83500 333 59006 70000 83618==
41989,2024,09,29,00,00,AAXX 29004 41989 02450 30000 10373 20260 30086 40089 83500 333 59010 70000 83618==
41989,2024,09,29,03,00,AAXX 29033 41989 01450 41802 10298 20260 30106 40109 72121 82530 333 20267 59008 70020 82618 84362==
41989,2024,09,29,06,00,AAXX 29064 41989 01450 61302 10287 20270 30102 40105 72162 83570 333 59003 70090 83618 83460==
41989,2024,09,29,09,00,AAXX 29094 41989 02456 31702 10312 20260 30072 40075 83500 333 59007 70090 83618==
41989,2024,09,29,15,00,AAXX 29154 41989 02450 31703 10285 20280 30094 40097 83500 333 58001 70090 83618==
41989,2024,09,29,18,00,AAXX 29184 41989 NIL=
41989,2024,09,30,00,00,AAXX 30004 41989 02450 41403 10280 20260 30085 40088 82530 333 59001 70090 82618 83362==
41989,2024,09,30,03,00,AAXX 30034 41989 02450 51802 10295 20260 30100 40104 83530 333 20269 59002 70070 83618 83362==
41989,2024,09,30,06,00,AAXX 30064 41989 02456 31804 10327 20260 30082 40085 83500 333 59019 70000 83618==
41989,2024,09,30,09,00,AAXX 30094 41989 02450 51803 10315 20270 30056 40059 83530 333 59016 70000 83618 84362==
41989,2024,09,30,12,00,AAXX 30124 41989 02450 51803 10300 20250 30049 40052 82530 333 10338 59013 70000 82618 83362==
41989,2024,09,30,15,00,AAXX 30154 41989 02450 40000 10295 20280 30065 40069 83570 333 59029 70000 83618 83362==
41989,2024,09,30,21,00,AAXX 30214 41989 01440 50000 10280 20260 30069 40073 70362 82570 333 59021 70080 82618 83362==
41989,2024,10,01,00,00,AAXX 01004 41989 11440 20000 10277 20270 30055 40059 60086 70562 82500 333 59030 70080 82618==
41989,2024,10,01,03,00,AAXX 01034 41989 02456 61802 10302 20270 30072 40076 82570 333 20272 59028 70080 82618 84460==
41989,2024,10,01,06,00,AAXX 01064 41989 02450 51703 10330 20270 30055 40058 82530 333 59028 70080 82618 83362==
41989,2024,10,01,09,00,AAXX 01094 41989 02456 61302 10326 20280 30023 40026 83579 333 59033 70080 83618 83362==
41989,2024,10,01,12,00,AAXX 01124 41989 02450 71802 10306 20280 30012 40015 82570 333 10332 59037 70080 82618 84460==
41989,2024,10,01,15,00,AAXX 01154 41989 02450 51804 10290 20270 30044 40047 83530 333 59024 70080 83618 83362==
41989,2024,10,02,00,00,AAXX 02004 41989 21440 61403 10268 20260 30033 40036 70162 83570 333 59022 60075 70070 83618 84482==
41989,2024,10,02,03,00,AAXX 02034 41989 02450 61804 10288 20260 30041 40045 83530 333 20260 59020 70080 83618 83362==
41989,2024,10,02,06,00,AAXX 02064 41989 11450 72302 10290 20260 30032 40035 60016 70362 82570 333 59023 70080 82618 85460==
41989,2024,10,02,09,00,AAXX 02094 41989 41350 81704 10280 20260 30021 40024 76162 8572/ 333 59002 82708 83614 88456==
41989,2024,10,02,12,00,AAXX 02124 41989 01340 81403 10240 20230 30014 40017 76162 8572/ 333 58002 70190 83708 83614 88456==
41989,2024,10,02,15,00,AAXX 02154 41989 01330 81802 10248 20240 30027 40030 76166 8572/ 333 59017 70180 82710 83614 88456==
41989,2024,10,02,18,00,AAXX 02184 41989 NIL=
41989,2024,10,02,21,00,AAXX 02214 41989 01440 71302 10242 20230 30030 40033 70162 83570 333 59009 70330 83618 84460==
41989,2024,10,03,00,00,AAXX 03004 41989 11440 61804 10248 20240 30035 40038 60046 70162 82570 333 58002 70330 82618 84460==
41989,2024,10,03,03,00,AAXX 03034 41989 02450 71803 10282 20260 30048 40051 83570 333 20240 58007 70320 83618 85460==
41989,2024,10,03,06,00,AAXX 03064 41989 01450 61804 10283 20260 30051 40054 70162 83530 333 58019 70000 83618 84362==
41989,2024,10,03,09,00,AAXX 03094 41989 02456 51304 10298 20250 30022 40025 82570 333 58001 70028 82618 83362==
41989,2024,10,03,12,00,AAXX 03124 41989 02450 51803 10285 20250 30015 40018 83570 333 10302 58002 70210 83618 83362==
41989,2024,10,03,15,00,AAXX 03154 41989 02450 51803 10265 20250 30055 40058 83530 333 58018 70120 83618 84362==
41989,2024,10,03,18,00,AAXX 03184 41989 NIL=
41992,2024,09,27,00,00,AAXX 27004 41992 01425 60000 10270 20250 30090 40092 70522 84530 333 58012 70000 84615 86360==
41992,2024,09,27,03,00,AAXX 27034 41992 02440 41505 10305 20250 30119 40121 82501 333 20263 58016 70000 82616 84080==
41992,2024,09,27,06,00,AAXX 27064 41992 01440 62104 10318 20250 30113 40115 70522 84530 333 58014 70000 84616 86362==
41992,2024,09,27,09,00,AAXX 27094 41992 01440 41808 10315 20270 30088 40090 70521 82501 333 58012 70000 82616 84080==
41992,2024,09,27,12,00,AAXX 27124 41992 01430 60000 10290 20260 30090 40092 70522 84530 333 10325 58010 70000 84616 86362==
41992,2024,09,27,15,00,AAXX 27154 41992 01425 30000 10288 20260 30111 40113 70521 83500 333 58003 70000 83616==
41992,2024,09,27,18,00,AAXX 27184 41992 01425 20000 10272 20260 30107 40109 70521 82500 333 58004 70000 82616==
41992,2024,09,27,21,00,AAXX 27214 41992 01425 20000 10268 20260 30093 40095 70522 82500 333 58003 70000 82616==
41992,2024,09,28,00,00,AAXX 28004 41992 01425 20000 10265 20260 30100 40102 71022 82500 333 58006 70000 82616==
41992,2024,09,28,03,00,AAXX 28034 41992 01435 40000 10300 20260 30123 40125 70562 82530 333 20260 58004 70010 82616 84362==
41992,2024,09,28,06,00,AAXX 28064 41992 11445 30000 10324 20250 30109 40111 60016 70562 81530 333 59004 70010 81616 83362==
41992,2024,09,28,09,00,AAXX 28094 41992 01440 42106 10325 20250 30088 40090 70522 82530 333 58000 70010 82616 84362==
41992,2024,09,28,12,00,AAXX 28124 41992 01430 62102 10295 20260 30089 40091 70522 84530 333 10330 59001 70010 84616 86362==
41992,2024,09,28,15,00,AAXX 28154 41992 01425 62102 10280 20260 30101 40103 70522 84530 333 59010 70010 84616 86362==
41992,2024,09,28,18,00,AAXX 28184 41992 01425 60000 10275 20270 30103 40105 70522 84530 333 59004 70010 84615 86362==
41992,2024,09,28,21,00,AAXX 28214 41992 01420 60000 10272 20260 30081 40083 70522 84530 333 59012 70010 84615 86362==
41992,2024,09,29,00,00,AAXX 29004 41992 01420 61502 10270 20260 30090 40092 71022 84520 333 59010 70010 84615 86460==
41992,2024,09,29,03,00,AAXX 29034 41992 01435 30000 10317 20270 30115 40117 70521 83500 333 20265 59008 70000 83616==
41992,2024,09,29,06,00,AAXX 29064 41992 01435 40000 10328 20270 30101 40103 70521 82530 333 59008 70000 82616 84362==
41992,2024,09,29,09,00,AAXX 29094 41992 01425 80000 10290 20260 30081 40083 76166 8592/ 333 59007 70030 84614 88458 81925==
41992,2024,09,29,12,00,AAXX 29124 41992 21430 60000 10295 20270 30079 40081 70562 82530 333 10335 59010 60038 70030 82616 86362==
41992,2024,09,29,15,00,AAXX 29154 41992 01425 60000 10288 20270 30099 40101 70522 84520 333 59002 70030 84615 86460==
41992,2024,09,29,18,00,AAXX 29184 41992 01425 60000 10276 20260 30091 40093 70522 84520 333 59012 70030 84615 86460==
41992,2024,09,29,21,00,AAXX 29214 41992 01425 60000 10275 20260 30080 40082 70522 84520 333 59001 70030 84615 86460==
41992,2024,09,30,00,00,AAXX 30004 41992 01425 61502 10270 20250 30086 40088 75122 84530 333 59004 70000 84615 86360==
41992,2024,09,30,03,00,AAXX 30034 41992 01435 50000 10308 20270 30105 40107 70552 83530 333 20268 59010 70030 83616 85362==
41992,2024,09,30,06,00,AAXX 30064 41992 11440 41805 10330 20270 30088 40090 60006 70552 84400 333 59013 70030 81616 83825==
41992,2024,09,30,09,00,AAXX 30094 41992 01430 62702 10300 20250 30060 40062 70522 84520 333 59020 70030 84615 86460==
41992,2024,09,30,12,00,AAXX 30124 41992 41430 62702 10300 20250 30058 40060 70522 84530 333 10333 59021 84615 86360==
41992,2024,09,30,15,00,AAXX 30154 41992 41425 40000 10288 20280 30078 40080 71021 82520 333 59021 82616 84460==
41992,2024,09,30,18,00,AAXX 30184 41992 41425 80000 10288 20280 30067 40069 71022 8432/ 333 59024 83616 88460 81925==
41992,2024,09,30,21,00,AAXX 30214 41992 01420 80302 10280 20260 30048 40050 72162 8492/ 333 59032 70060 83615 88460 81925==
41992,2024,10,01,00,00,AAXX 01004 41992 21420 80000 10270 20260 30052 40054 71762 8592/ 333 59034 60065 70060 84615 88460 81925==
41992,2024,10,01,03,00,AAXX 01034 41992 01430 40000 10305 20280 30077 40079 70522 82530 333 20268 59028 70060 82616 84362==
41992,2024,10,01,06,00,AAXX 01064 41992 01430 60000 10328 20280 30053 40055 70521 83530 333 59035 70060 83616 86362==
41992,2024,10,01,09,00,AAXX 01094 41992 01430 82402 10308 20270 30020 40022 70522 8452/ 333 59040 70060 84615 88460==
41992,2024,10,01,12,00,AAXX 01124 41992 01425 82702 10300 20270 30036 40038 71722 8592/ 333 10332 59022 70060 84615 88460 81925==
41992,2024,10,01,15,00,AAXX 01154 41992 01425 60000 10292 20270 30047 40049 70521 84520 333 59031 70060 84616 86460==
41992,2024,10,01,18,00,AAXX 01184 41992 01420 80000 10278 20250 30055 40057 71792 8592/ 333 59012 70060 84615 88460 81925==
41992,2024,10,01,21,00,AAXX 01214 41992 01420 80000 10275 20260 30028 40030 70522 8592/ 333 59020 70000 84615 88460 81925==
41992,2024,10,02,00,00,AAXX 02004 41992 01420 80000 10270 20250 30030 40032 71792 8592/ 333 59022 70000 84615 88460 81925==
41992,2024,10,02,03,00,AAXX 02034 41992 01325 80000 10276 20270 30057 40059 75196 8592/ 333 20262 59020 70130 82708 85614 88458 81925==
41992,2024,10,02,06,00,AAXX 02064 41992 11430 62102 10290 20260 30045 40047 60136 70595 84520 333 59008 70130 84616 86460==
41992,2024,10,02,09,00,AAXX 02094 41992 01425 81810 10280 20260 30017 40019 76122 8592/ 333 59003 70130 84614 88458 81925==
41992,2024,10,02,12,00,AAXX 02124 41992 21315 81810 10254 20240 30029 40031 76562 8692/ 333 10295 59007 60367 70490 83707 88458 81925==
41992,2024,10,02,15,00,AAXX 02154 41992 01315 81504 10242 20230 30060 40062 76566 8692/ 333 58013 70960 83707 85612 88458 81925==
41992,2024,10,02,18,00,AAXX 02184 41992 21315 81502 10240 20230 30050 40052 76566 8692/ 333 59005 60609 71090 83707 85612 88458 81925==
41992,2024,10,02,21,00,AAXX 02214 41992 01320 80000 10250 20240 30033 40035 76166 8692/ 333 58005 71130 82708 84613 88458 81925==
41992,2024,10,03,00,00,AAXX 03004 41992 21320 81502 10245 20240 30040 40042 75166 8692/ 333 58014 60059 70114 82708 84613 88458 81925==
41992,2024,10,03,03,00,AAXX 03034 41992 41320 80000 10258 20250 30069 40071 76165 8692/ 333 20238 58012 82708 84613 88458 81925==
41992,2024,10,03,06,00,AAXX 03064 41992 21430 71503 10285 20250 30055 40057 70565 84320 333 58010 60028 71030 84615 87460 81925==
41992,2024,10,03,09,00,AAXX 03094 41992 01430 81703 10295 20250 30031 40033 70522 8452/ 333 58014 71030 84615 88460==
41992,2024,10,03,12,00,AAXX 03124 41992 01430 80000 10270 20240 30042 40044 70522 8452/ 333 10300 58013 70670 84615 88460==
41992,2024,10,03,15,00,AAXX 03154 41992 01425 80000 10255 20240 30067 40069 70522 8432/ 333 58007 70200 83616 88460 81925==
41992,2024,10,03,18,00,AAXX 03184 41992 01425 80000 10250 20230 30063 40065 70522 8432/ 333 58013 70070 83616 88460 81925==
41992,2024,10,03,21,00,AAXX 03214 41992 01425 80000 10255 20240 30054 40056 70522 8452/ 333 58021 70030 84615 88460==
41998,2024,09,27,03,00,AAXX 27034 41998 02456 40009 10298 20270 30093 40099 82470 333 20270 58029 70000 81618==
41998,2024,09,27,06,00,AAXX 27064 41998 NIL=
41998,2024,09,27,09,00,AAXX 27094 41998 02456 61902 10304 20260 30061 40067 83470 333 59003 70000 82618 83458==
41998,2024,09,27,12,00,AAXX 27124 41998 02456 40000 10291 20260 30065 40071 82470 333 10324 59001 70000 81618 83458==
41998,2024,09,27,18,00,AAXX 27184 41998 NIL=
41998,2024,09,28,00,00,AAXX 28004 41998 02456 40000 10290 20270 30075 40081 83470 333 59011 70000 81618==
41998,2024,09,28,03,00,AAXX 28034 41998 02456 40000 10305 20270 30091 40097 83470 333 59002 70000 81618==
41998,2024,09,28,06,00,AAXX 28064 41998 NIL=
41998,2024,09,28,09,00,AAXX 28094 41998 02456 41601 10316 20270 30073 40079 83470 333 58012 70000 81618==
41998,2024,09,28,12,00,AAXX 28124 41998 02456 40000 10294 20260 30076 40082 82470 333 10330 58011 70000 81618==
41998,2024,09,28,18,00,AAXX 28184 41998 NIL=
41998,2024,09,29,00,00,AAXX 29004 41998 02456 50000 10270 20260 30083 40089 82470 333 58008 70000 81618 83458==
41998,2024,09,29,03,00,AAXX 29033 41998 02456 60000 10295 20262 30085 40091 83470 333 59005 70000 81618 83458==
41998,2024,09,29,06,00,AAXX 29064 41998 NIL=
41998,2024,09,29,09,00,AAXX 29094 41998 02456 21902 10324 20250 30074 40080 82400 333 58001 70000 81618==
41998,2024,09,29,18,00,AAXX 29184 41998 NIL=
41998,2024,09,30,03,00,AAXX 30034 41998 02456 60000 10313 20266 30089 40095 83470 333 58005 70080 82618 83458==
41998,2024,09,30,06,00,AAXX 30064 41998 NIL=
41998,2024,09,30,09,00,AAXX 30094 41998 02456 61802 10304 20270 30078 40084 82470 333 58004 70080 82618 83458==
41998,2024,09,30,12,00,AAXX 30124 41998 02456 60000 10292 20260 30084 40090 83470 333 10322 58006 70080 82618 83458==
41998,2024,10,01,03,00,AAXX 01034 41998 02456 60000 10318 20270 30052 40058 83470 333 59035 70060 82618 83458==
41998,2024,10,01,06,00,AAXX 01064 41998 21456 80000 10325 20260 30043 40049 72162 83479 333 59027 60045 70100 82618 83458==
41998,2024,10,01,09,00,AAXX 01094 41998 02456 82102 10284 20250 30081 40087 8442/ 333 58003 70100 83618 88458==
41998,2024,10,01,12,00,AAXX 01124 41998 02456 80000 10288 20260 30088 40092 8442/ 333 10309 58004 70100 83618 88458==
41998,2024,10,02,00,00,AAXX 02004 41998 01456 80000 10290 20260 30066 40072 79621 8342/ 333 59008 70160 82618 88458 81929==
41998,2024,10,02,03,00,AAXX 02034 41998 02456 80000 10300 20268 30024 40030 8442/ 333 20266 59028 70040 83618 88458==
41998,2024,10,02,06,00,AAXX 02064 41998 NIL=
41998,2024,10,02,09,00,AAXX 02094 41998 02456 82201 10288 20270 30014 40020 8442/ 333 59027 70070 83618 88458==
41998,2024,10,02,12,00,AAXX 02124 41998 02456 80000 10283 20260 30016 40022 8442/ 333 10305 59032 70070 83618 88456==
41998,2024,10,02,18,00,AAXX 02184 41998 NIL=
41998,2024,10,03,00,00,AAXX 03004 41998 21456 80000 10280 20260 30052 40058 76166 8442/ 333 58017 60219 70520 83616 88456==
41998,2024,10,03,03,00,AAXX 03034 41998 01450 80000 20263 30045 40051 76166 8442/ 333 58021 70570 83616 88456==
41998,2024,10,03,09,00,AAXX 03094 41998 01456 81902 10278 20260 30010 40016 76166 8442/ 333 59004 70660 83618 88458==
41998,2024,10,03,12,00,AAXX 03124 41998 21456 80000 10271 20250 30013 40019 76166 8442/ 333 10288 59003 60109 70700 83618 88458==
41998,2024,10,03,18,00,AAXX 03184 41998 NIL=
