ESTACION,ANO,MES,DIA,HORA,MINUTO,PARTE
41850,2023,04,21,00,00,AAXX 21003 41850 31930 01306 10220 20190 39903 40002 70500 333 59002 70000=
41850,2023,04,21,06,00,AAXX 21064 41850 32456 30503 10297 20220 39938 40035 83500 333 56900 58010 70000 83618=
41850,2023,04,21,12,00,AAXX 21124 41850 31950 00000 10297 20240 39904 40001 70500 333 10311 58025 70000=
41850,2023,04,21,18,00,AAXX 21184 41850 11430 80910 10252 20230 39929 40028 60035 70562 8252/ 333 56999 58028 70030 82616 88457=
41850,2023,04,22,00,00,AAXX 22004 41850 11440 81805 10192 20180 39940 40041 60156 70522 8252/ 333 56999 58037 70180 82616 88457=
41850,2023,04,22,06,00,AAXX 22064 41850 32956 00904 10286 20180 39954 40052 333 58019 70180=
41850,2023,04,22,12,00,AAXX 22124 41850 31450 21302 10288 20220 39929 40027 70511 82500 333 10322 56900 58025 70180 82618=
41850,2023,04,22,18,00,AAXX 22184 41850 31930 01303 10238 20210 39947 40046 70500 333 58018 70150=
41850,2023,04,23,00,00,AAXX 23004 41850 31930 01808 10197 20160 39963 40064 70500 333 58023 70000=
41850,2023,04,23,06,00,AAXX 23064 41850 32956 01803 10285 20180 39981 40079 333 58027 70000=
41850,2023,04,23,12,00,AAXX 23124 41850 32457 31203 10250 20170 39981 40081 82510 333 10287 56990 58052 70000 82616 83362=
41850,2023,04,23,18,00,AAXX 23184 41850 31456 21202 10182 20160 39998 40099 70512 82500 333 56900 58051 70000 82616=
41850,2023,04,24,00,00,AAXX 24004 41850 31950 00000 10176 20175 30020 40121 70500 333 58057 70000=
41850,2023,04,24,06,00,AAXX 24064 41850 32458 30902 10286 20170 30037 40136 81630 333 56990 58056 70000 81616 83362=
41850,2023,04,24,12,00,AAXX 24124 41850 32957 00000 10268 20190 39996 40095 333 10294 58015 70000=
41850,2023,04,24,18,00,AAXX 24184 41850 31950 00000 10210 20180 30015 40116 70500 333 58020 70000=
41850,2023,04,25,00,00,AAXX 25004 41850 31450 60000 10202 20190 30020 40121 70521 82520 333 56990 58000 70000 82616 85458=
41850,2023,04,25,06,00,AAXX 25064 41850 32458 21502 10288 20190 30027 40126 81530 333 56990 59010 70000 81616=
41850,2023,04,25,12,00,AAXX 25124 41850 32457 30000 10297 20200 39977 40075 82530 333 10320 56990 59019 70000 82616 83362=
41850,2023,04,25,18,00,AAXX 25184 41850 NIL=
41850,2023,04,26,00,00,AAXX 26004 41850 31450 30000 10195 20190 39992 40093 70510 81530 333 56990 59028 70000 81616 83362=
41850,2023,04,26,06,00,AAXX 26064 41850 32958 32102 10322 20170 39998 40095 83030 333 56090 59029 70000 83362=
41850,2023,04,26,12,00,AAXX 26124 41850 32457 21802 10314 20190 39957 40054 82500 333 10345 56900 59020 70000 82616=
41850,2023,04,26,18,00,AAXX 26184 41850 31950 00000 10228 20210 39980 40081 70510 333 59022 70000=
41850,2023,04,27,00,00,AAXX 27004 41850 31950 00000 10190 20190 39983 40085 70500 333 59009 70000=
41850,2023,04,27,06,00,AAXX 27064 41850 32457 60902 10307 20190 30000 40097 82530 333 56990 58002 70000 82616 86362=
41850,2023,04,27,12,00,AAXX 27124 41850 31456 60000 10307 20220 39958 40055 70522 83430 333 10334 56990 58001 70000 82616 83825 86362=
41850,2023,04,27,18,00,AAXX 27184 41850 31950 00000 10217 20190 30010 40112 70520 333 58021 70000=
41851,2023,04,21,00,00,AAXX 21004 41851 32450 61801 10250 20220 39958 40021 82520 333 56990 58005 70000 82618 86458=
41851,2023,04,21,06,00,AAXX 21064 41851 32450 81802 10320 20230 39979 40040 8352/ 333 56999 58011 70000 83618 88458=
41851,2023,04,21,12,00,AAXX 21124 41851 32450 61801 10325 20250 39951 40012 83510 333 56990 58022 70000 83618 85459=
41851,2023,04,21,18,00,AAXX 21184 41851 32450 81802 10215 20180 39975 40039 8352/ 333 56999 58026 70000 83618 88458=
41851,2023,04,22,00,00,AAXX 22004 41851 32450 81802 10205 20190 30000 40064 8352/ 333 56999 58042 70000 83618 88458=
41851,2023,04,22,06,00,AAXX 22064 41851 32950 01802 10310 20190 30004 40066 333 58025 70000=
41851,2023,04,22,12,00,AAXX 22124 41851 32950 00000 10296 20230 39966 40028 333 10330 58022 70000=
41851,2023,04,22,18,00,AAXX 22184 41851 32950 02302 10240 20210 39991 40054 333 58016 70000=
41851,2023,04,23,00,00,AAXX 23004 41851 32450 80503 10205 20160 30014 40078 8452/ 333 56999 58014 70000 84618 88458=
41851,2023,04,23,06,00,AAXX 23064 41851 32450 81802 10255 20180 30037 40100 8452/ 333 56999 58033 70000 84618 88458=
41851,2023,04,23,12,00,AAXX 23124 41851 32450 80901 10232 20180 30015 40078 8352/ 333 10260 56999 58049 70000 83618 88458=
41851,2023,04,23,18,00,AAXX 23184 41851 32450 20901 10195 20190 30046 40110 82500 333 56900 58055 70000 82618=
41851,2023,04,24,00,00,AAXX 24004 41851 32450 20901 10181 20170 30058 40123 82500 333 56900 58044 70000 82618=
41851,2023,04,24,06,00,AAXX 24064 41851 32450 10901 10311 20160 30073 40135 81500 333 56900 58036 70000 81618=
41851,2023,04,24,12,00,AAXX 24124 41851 32450 30000 10295 20170 30000 40062 81530 333 10330 56990 59015 70000 81618 83362=
41851,2023,04,24,18,00,AAXX 24184 41851 32930 00000 10220 20200 30019 40083 333 59027 70000=
41851,2023,04,25,00,00,AAXX 25004 41851 32430 70000 10210 20200 30013 40077 83570 333 56990 59045 70000 83618 86458=
41851,2023,04,25,06,00,AAXX 25064 41851 32450 82301 10300 20180 30023 40085 8352/ 333 56999 59050 70000 83618 88458=
41851,2023,04,25,12,00,AAXX 25124 41851 32450 42301 10303 20170 39972 40034 81530 333 10340 56990 59028 70000 81618 83362=
41851,2023,04,25,18,00,AAXX 25184 41851 32930 00000 10215 20210 39986 40050 333 59033 70000=
41851,2023,04,26,00,00,AAXX 26004 41851 32430 30000 10200 20200 39980 40044 81530 333 56990 59033 70000 81618 83362=
41851,2023,04,26,06,00,AAXX 26064 41851 32450 62101 10330 20180 39990 40051 82570 333 56990 59033 70000 82618 85458=
41851,2023,04,26,12,00,AAXX 26124 41851 32950 00000 10315 20220 39996 40057 333 10350 58024 70000=
41851,2023,04,26,18,00,AAXX 26184 41851 32950 01802 10238 20210 30021 40084 333 58035 70000=
41851,2023,04,27,00,00,AAXX 27004 41851 31940 00000 10200 20190 30025 40089 70500 333 58045 70000=
41851,2023,04,27,06,00,AAXX 27064 41851 32950 01801 10332 20210 30037 40099 333 58047 70000=
41851,2023,04,27,12,00,AAXX 27124 41851 32450 30000 10306 20220 39993 40055 83500 333 10344 56900 59003 70000 83618=
41851,2023,04,27,18,00,AAXX 27184 41851 31940 00000 10245 20220 30031 40094 70510 333 58010 70000=
41856,2023,04,21,00,00,AAXX 21004 41856 32430 50502 10250 20230 39990 40026 84520 333 56990 58004 70000 82618 85458=
41856,2023,04,21,06,00,AAXX 21064 41856 32950 50502 10315 20280 30005 40040 84520 333 56990 58012 70000 82618 85458=
41856,2023,04,21,12,00,AAXX 21124 41856 31440 80503 10290 20230 39972 40007 71792 8592/ 333 10335 56699 58021 70000 83710 84616 88456 81930=
41856,2023,04,21,18,00,AAXX 21184 41856 32930 00502 10235 20170 30011 40047 333 58034 70000=
41856,2023,04,22,00,00,AAXX 22004 41856 32440 83603 10210 20190 30023 40059 8562/ 333 56699 58033 70000 83710 85617 88458=
41856,2023,04,22,06,00,AAXX 22064 41856 32956 11303 10305 20180 30031 40066 81030 333 56090 58026 70000 81362=
41856,2023,04,22,12,00,AAXX 22124 41856 32950 00000 10310 20210 39991 40026 333 10335 58019 70000=
41856,2023,04,22,18,00,AAXX 22184 41856 32930 00501 10240 20210 30018 40054 333 58007 70000=
41856,2023,04,23,00,00,AAXX 23004 41856 31430 83603 10232 20210 30039 40075 71791 8592/ 333 56699 58016 70000 83710 85616 88457 81930=
41856,2023,04,23,06,00,AAXX 23064 41856 32440 80502 10226 20180 30065 40101 8562/ 333 56699 58034 70000 82710 85615 88456=
41856,2023,04,23,12,00,AAXX 23124 41856 32450 80502 10225 20190 30038 40074 8452/ 333 10236 56999 58047 70000 84615 88458=
41856,2023,04,23,18,00,AAXX 23184 41856 32930 80501 10200 20180 30075 40111 8452/ 333 56999 58057 70000 84615 88458=
41856,2023,04,24,00,00,AAXX 24004 41856 32940 40000 10190 20180 30085 40122 84030 333 56090 58046 70000 84362=
41856,2023,04,24,06,00,AAXX 24064 41856 32956 00502 10285 20180 30099 40134 333 58034 70000=
41856,2023,04,24,12,00,AAXX 24124 41856 32956 30000 10284 20170 30058 40093 83030 333 10316 56090 58020 70000 83362=
41856,2023,04,24,18,00,AAXX 24184 41856 32940 30701 10224 20200 30083 40119 83030 333 56090 58008 70000 83362=
41856,2023,04,25,00,00,AAXX 25004 41856 32940 30000 10210 20200 30084 40120 83030 333 56090 59001 70000 83362=
41856,2023,04,25,06,00,AAXX 25064 41856 32956 01302 10314 20180 30086 40120 333 59013 70000=
41856,2023,04,25,12,00,AAXX 25124 41856 32956 00000 10310 20190 30038 40073 333 10340 59020 70000=
41856,2023,04,25,18,00,AAXX 25184 41856 31940 00000 10222 20200 30057 40093 70500 333 59026 70000=
41856,2023,04,26,00,00,AAXX 26004 41856 31925 00000 10201 20190 30058 40094 70500 333 59026 70000=
41856,2023,04,26,06,00,AAXX 26064 41856 32956 41402 10340 20190 30060 40095 84030 333 56090 59026 70000 83362=
41856,2023,04,26,12,00,AAXX 26124 41856 31450 31801 10316 20210 30024 40059 71791 83900 333 10347 56900 59014 70000 81618 83825 81930=
41856,2023,04,26,18,00,AAXX 26184 41856 32930 00000 10228 20210 30042 40091 333 59015 70000=
41856,2023,04,27,00,00,AAXX 27004 41856 31930 10000 10210 20200 30051 40087 70510 81030 333 56090 59007 70000 81362=
41856,2023,04,27,06,00,AAXX 27064 41856 32956 00000 10334 20190 30063 40098 333 58003 70000=
41856,2023,04,27,12,00,AAXX 27124 41856 32450 60000 10314 20230 30021 40056 83430 333 10352 56990 59003 70000 82618 86362=
41856,2023,04,27,18,00,AAXX 27184 41856 32430 61803 10245 20210 30064 40100 83530 333 56990 58022 70000 83618 86362=
41858,2023,04,21,00,00,AAXX 21004 41858 01420 80505 10262 20230 39976 40022 71022 8452/ 333 58011 70000 84616 88458==
41858,2023,04,21,03,00,AAXX 21034 41858 01440 80908 10272 20220 39999 40045 70522 8452/ 333 20246 58017 70000 84615 88458==
41858,2023,04,21,06,00,AAXX 21064 41858 01450 51807 10305 20190 39997 40042 70522 83520 333 59015 70000 83615 85458==
41858,2023,04,21,09,00,AAXX 21094 41858 01450 51808 10340 20240 39969 40013 70522 83520 333 58028 70000 83615 85459==
41858,2023,04,21,12,00,AAXX 21124 41858 01440 42105 10325 20270 39960 40001 70522 82520 333 10344 58018 70000 82615 84458==
41858,2023,04,21,15,00,AAXX 21154 41858 01/35 40505 10275 20240 39991 40036 70511 84010 333 58023 70000==
41858,2023,04,21,18,00,AAXX 21184 41858 01/30 30906 10255 20230 30000 40046 70511 83010 333 58032 70000==
41858,2023,04,21,21,00,AAXX 21214 41858 01425 63605 10240 20210 39996 40042 71022 83520 333 58031 70000 83616 86458==
41858,2023,04,22,00,00,AAXX 22004 41858 01420 83608 10230 20210 39999 40045 76122 8552/ 333 58023 70004 85615 88458==
41858,2023,04,22,03,00,AAXX 22034 41858 01/50 30506 10275 20200 30027 40072 70522 83030 333 20220 58028 70004 83362==
41858,2023,04,22,06,00,AAXX 22064 41858 01950 00910 10305 20200 30027 40072 70520 333 58030 70004==
41858,2023,04,22,09,00,AAXX 22094 41858 01/50 21508 10330 20190 39998 40042 70520 82040 333 58029 70004 82362==
41858,2023,04,22,12,00,AAXX 22124 41858 42/56 21805 10320 20160 39982 40027 82040 333 10340 58022==
41858,2023,04,22,15,00,AAXX 22154 41858 01940 00000 10268 20210 30000 40045 70500 333 58009 70004==
41858,2023,04,22,18,00,AAXX 22184 41858 01935 00000 10250 20210 30012 40058 70500 333 58012 70004==
41858,2023,04,23,00,00,AAXX 23004 41858 01435 40508 10224 20180 30036 40083 70522 83520 333 58037 70000 83616 84458==
41858,2023,04,23,01,00,AAXX 23014 41858 01435 40508 10224 20180 30036 40083 70522 83520 333 58037 70000 83616 84458==
41858,2023,04,23,03,00,AAXX 23034 41858 01450 80606 10230 20180 30049 40095 70500 8452/ 333 20214 58022 70000 84616 88458==
41858,2023,04,23,06,00,AAXX 23064 41858 01450 80906 10290 20190 30058 40103 70522 8452/ 333 58031 70000 84615 88458==
41858,2023,04,23,09,00,AAXX 23094 41858 41440 80508 10245 20190 30044 40090 76022 8452/ 333 58046 84615 88458==
41858,2023,04,23,12,00,AAXX 23124 41858 01440 60505 10234 20190 30033 40079 70562 84520 333 10250 58051 70002 84616 86458==
41858,2023,04,23,15,00,AAXX 23154 41858 01/35 30605 10217 20200 30054 40100 70520 83030 333 58054 70002 83362==
41858,2023,04,23,18,00,AAXX 23184 41858 01/30 50305 10210 20190 30062 40108 70522 85030 333 58050 70002 85362==
41858,2023,04,23,21,00,AAXX 23214 41858 01/40 40306 10205 20190 30069 40115 70522 84030 333 58048 70002 84362==
41858,2023,04,24,00,00,AAXX 24004 41858 01/40 40606 10200 20180 30074 40121 70522 84030 333 58036 70002 84362==
41858,2023,04,24,03,00,AAXX 24034 41858 01/40 30506 10260 20180 30097 40143 70500 83020 333 20190 58048 70002 83458==
41858,2023,04,24,06,00,AAXX 24064 41858 01450 53605 10300 20170 30090 40135 70500 82520 333 58032 70002 82618 85458==
41858,2023,04,24,12,00,AAXX 24124 41858 01450 40305 10300 20190 30049 40094 70522 82530 333 10324 58016 70000 82615 84362==
41858,2023,04,24,15,00,AAXX 24154 41858 01950 01205 10250 20200 30071 40117 70500 333 58017 70000==
41858,2023,04,24,18,00,AAXX 24184 41858 01940 00000 10244 20200 30072 40120 70500 333 58012 70000==
41858,2023,04,24,21,00,AAXX 24214 41858 01940 00000 10240 20200 30066 40112 70500 333 59003 70000==
41858,2023,04,25,00,00,AAXX 25004 41858 01/40 40000 10226 20210 30077 40123 70522 84030 333 58003 70000 84362==
41858,2023,04,25,03,00,AAXX 25034 41858 01450 50305 10270 20190 30092 40138 70522 83520 333 20214 59005 70000 83615 85459==
41858,2023,04,25,06,00,AAXX 25064 41858 01/50 40306 10320 20180 30081 40126 70522 84030 333 59009 70000 84362==
41858,2023,04,25,09,00,AAXX 25094 41858 01/50 22506 10335 20200 30049 40093 70511 82030 333 59019 70000 83262==
41858,2023,04,25,12,00,AAXX 25124 41858 01950 03604 10325 20200 30031 40075 70500 333 10368 59019 70000==
41858,2023,04,25,15,00,AAXX 25154 41858 01950 03604 10265 20210 30047 40093 70500 333 59024 70000==
41858,2023,04,25,18,00,AAXX 25184 41858 01940 03605 10244 20210 30056 40102 70500 333 59018 70000==
41858,2023,04,25,21,00,AAXX 25214 41858 01935 00000 10236 20200 30050 40096 70500 333 59016 70000==
41858,2023,04,26,00,00,AAXX 26004 41858 01/30 41204 10220 20200 30053 40099 70522 84040 333 59024 70000 83462==
41858,2023,04,26,03,00,AAXX 26034 41858 01950 01205 10295 20220 30062 40107 70510 333 20210 59030 70000==
41858,2023,04,26,06,00,AAXX 26064 41858 01550 32605 10335 20200 30053 40097 70510 83200 333 59020 70000 83825==
41858,2023,04,26,09,00,AAXX 26094 41858 01/50 32105 10352 20190 30019 40063 70511 83020 333 59030 70000 83825==
41858,2023,04,26,12,00,AAXX 26124 41858 01/50 31804 10330 20210 30014 40058 70511 83020 333 10354 59017 70000 83825==
41858,2023,04,26,15,00,AAXX 26154 41858 01950 01505 10266 20220 30029 40074 70500 333 59017 70000==
41858,2023,04,26,18,00,AAXX 26184 41858 01950 01505 10260 20220 30035 40081 70500 333 59021 70000==
41858,2023,04,26,21,00,AAXX 26214 41858 01925 01505 10236 20220 30041 40087 71000 333 59009 70000==
41858,2023,04,27,00,00,AAXX 27004 41858 01/20 20905 10222 20200 30044 40090 71020 82040 333 59009 70000 82362==
41858,2023,04,27,03,00,AAXX 27034 41858 01940 00308 10290 20220 30060 40105 70500 333 20213 59002 70000==
41858,2023,04,27,06,00,AAXX 27064 41858 01950 00306 10340 20220 30054 40098 70500 333 58001 70000==
41858,2023,04,27,09,00,AAXX 27094 41858 01440 83005 10325 20220 30031 40075 70522 8452/ 333 58012 70000 84615 88458==
41858,2023,04,27,12,00,AAXX 27124 41858 01440 61808 10314 20220 30012 40057 70522 83520 333 10340 59002 70000 83618 86458==
41858,2023,04,27,15,00,AAXX 27154 41858 01435 61804 10270 20230 30035 40081 70522 83520 333 58006 70000 83618 86458==
41858,2023,04,27,18,00,AAXX 27184 41858 01435 61805 10256 20240 30049 40095 70522 84520 333 58014 70000 84618 86458==
41858,2023,04,27,21,00,AAXX 27214 41858 01430 61805 10234 20200 30054 40100 70522 83520 333 58013 70000 83618 86458==
41859,2023,04,21,00,00,AAXX 21004 41859 02440 80903 10270 20240 39977 40014 8562/ 333 58000 70000 82710 84618 88458==
41859,2023,04,21,03,00,AAXX 21034 41859 02450 80902 10280 20230 30009 40046 8561/ 333 20256 58012 70000 82710 83618 88458==
41859,2023,04,21,06,00,AAXX 21064 41859 02450 81803 10330 20250 30005 40041 8562/ 333 58014 70000 82710 83618 88458==
41859,2023,04,21,09,00,AAXX 21094 41859 02450 81802 10335 20260 39975 40011 8562/ 333 58022 70000 82710 83618 88458==
41859,2023,04,21,12,00,AAXX 21124 41859 02440 80000 10325 20260 39970 40006 8562/ 333 10342 58033 70000 82710 83618 88458==
41859,2023,04,21,15,00,AAXX 21154 41859 02430 81303 10277 20250 30005 40042 8562/ 333 58042 70000 82710 83618 88458==
41859,2023,04,21,18,00,AAXX 21184 41859 02430 50503 10252 20200 30013 40050 82520 333 58039 70000 82618 85458==
41859,2023,04,21,21,00,AAXX 21214 41859 02430 51302 10238 20210 30011 40048 82520 333 58039 70000 82618 85458==
41859,2023,04,22,00,00,AAXX 22004 41859 02440 83602 10230 20210 30023 40061 8562/ 333 58046 70000 82710 84618 88458==
41859,2023,04,22,03,00,AAXX 22034 41859 02/50 30902 10272 20200 30035 40072 83030 333 20228 58026 70000 83362==
41859,2023,04,22,06,00,AAXX 22064 41859 02950 01303 10301 20200 30033 40070 333 58028 70000==
41859,2023,04,22,09,00,AAXX 22094 41859 02956 02202 10335 20200 30003 40039 333 58028 70000==
41859,2023,04,22,12,00,AAXX 22124 41859 02950 00000 10320 20200 39994 40030 333 10337 58024 70000==
41859,2023,04,22,15,00,AAXX 22154 41859 02430 80902 10282 20200 30008 40045 8352/ 333 58003 70000 83618 88458==
41859,2023,04,22,18,00,AAXX 22184 41859 02430 80502 10261 20220 30018 40055 8562/ 333 58005 70000 82710 83618 88458==
41859,2023,04,22,21,00,AAXX 22214 41859 02430 80502 10256 20230 30024 40061 8562/ 333 58013 70000 82710 84618 88458==
41859,2023,04,23,00,00,AAXX 23004 41859 02435 83604 10248 20210 30040 40077 8562/ 333 58017 70000 83710 84618 88458==
41859,2023,04,23,03,00,AAXX 23034 41859 02440 80902 10232 20160 30059 40097 8562/ 333 20220 58024 70000 83710 84618 88458==
41859,2023,04,23,06,00,AAXX 23064 41859 02450 80903 10240 20180 30066 40104 8562/ 333 58033 70000 83710 84618 88458==
41859,2023,04,23,09,00,AAXX 23094 41859 02445 80902 10245 20200 30056 40093 8562/ 333 58053 70000 83710 84618 88458==
41859,2023,04,23,12,00,AAXX 23124 41859 21440 80506 10234 20200 30032 40070 70262 8562/ 333 10336 58038 60007 83710 84618 88458==
41859,2023,04,23,15,00,AAXX 23154 41859 42/30 30503 10221 20200 30065 40103 83030 333 58057 83362==
41859,2023,04,23,18,00,AAXX 23184 41859 42430 80503 10215 20190 30072 40110 8562/ 333 58054 82710 83618 88458==
41859,2023,04,23,21,00,AAXX 23214 41859 42430 53603 10210 20190 30075 40113 83530 333 58051 83618 85362==
41859,2023,04,24,00,00,AAXX 24004 41859 42440 43603 10205 20200 30082 40120 82530 333 58042 82618 84362==
41859,2023,04,24,03,00,AAXX 24034 41859 42950 00903 10251 20190 30104 40142 333 20200 58045==
41859,2023,04,24,06,00,AAXX 24064 41859 42956 00902 10297 20190 30097 40134 333 58031==
41859,2023,04,24,09,00,AAXX 24094 41859 42456 40502 10320 20190 30071 40108 82530 333 58015 82618 84362==
41859,2023,04,24,12,00,AAXX 24124 41859 02440 70000 10298 20190 30057 40094 84610 333 10322 58025 70000 82710 83618 87458==
41859,2023,04,24,15,00,AAXX 24154 41859 02430 70000 10263 20210 30077 40114 84610 333 58012 70000 82710 83618 87458==
41859,2023,04,24,18,00,AAXX 24184 41859 02430 72301 10244 20210 30080 40118 84610 333 58008 70000 82710 83618 87458==
41859,2023,04,24,21,00,AAXX 24214 41859 02430 83102 10235 20220 30081 40119 8562/ 333 58006 70000 82710 84618 88458==
41859,2023,04,25,00,00,AAXX 25004 41859 02440 83601 10225 20220 30084 40122 8562/ 333 58002 70000 82710 84618 88458==
41859,2023,04,25,03,00,AAXX 25034 41859 02450 40000 10288 20200 30094 40131 82520 333 20223 59010 70000 82618 84458==
41859,2023,04,25,06,00,AAXX 25064 41859 02450 40000 10323 20200 30087 40124 82520 333 59010 70000 82618 84458==
41859,2023,04,25,09,00,AAXX 25094 41859 02956 01301 10341 20180 30052 40088 333 59019 70000==
41859,2023,04,25,12,00,AAXX 25124 41859 02950 00000 10316 20190 30036 40073 333 10344 59021 70000==
41859,2023,04,25,15,00,AAXX 25154 41859 02930 00000 10270 20220 30055 40092 333 59022 70000==
41859,2023,04,25,18,00,AAXX 25184 41859 02930 00000 10254 20210 30054 40091 333 59026 70000==
41859,2023,04,25,21,00,AAXX 25214 41859 02930 00000 10242 20210 30046 40084 333 59035 70000==
41859,2023,04,26,00,00,AAXX 26004 41859 02435 80000 10226 20210 30058 40096 8462/ 333 59026 70000 82710 84612 88458==
41859,2023,04,26,03,00,AAXX 26034 41859 02950 00000 10308 20200 30070 40107 333 20224 59024 70000==
41859,2023,04,26,06,00,AAXX 26064 41859 02450 70000 10334 20190 30061 40097 84620 333 59026 70000 82710 84618 87458==
41859,2023,04,26,09,00,AAXX 26094 41859 02950 01302 10346 20220 30032 40068 333 59020 70000==
41859,2023,04,26,12,00,AAXX 26124 41859 01450 51303 10296 20190 30028 40065 71821 83430 333 10348 59008 70000 82618 83828 85362==
41859,2023,04,26,15,00,AAXX 26154 41859 02430 20000 10271 20200 30036 40073 82500 333 59019 70000 82618==
41859,2023,04,26,18,00,AAXX 26184 41859 02430 20000 10249 20210 30045 40082 82500 333 59009 70000 82618==
41859,2023,04,26,21,00,AAXX 26214 41859 02930 00000 10241 20210 30048 40086 333 59002 70000==
41859,2023,04,27,00,00,AAXX 27004 41859 02930 00000 10233 20200 30051 40089 333 59007 70000==
41859,2023,04,27,03,00,AAXX 27034 41859 02950 00902 10290 20220 30069 40106 333 20230 59001 70000==
41859,2023,04,27,06,00,AAXX 27064 41859 02950 00000 10334 20210 30064 40100 333 58003 70000==
41859,2023,04,27,09,00,AAXX 27094 41859 02450 82301 10337 20210 30037 40073 8562/ 333 58005 70000 82710 83618 88458==
41859,2023,04,27,12,00,AAXX 27124 41859 02440 82302 10304 20220 30021 40058 8562/ 333 10351 59007 70000 82710 83618 88458==
41859,2023,04,27,15,00,AAXX 27154 41859 02430 52302 10278 20230 30047 40084 82530 333 58011 70000 82618 85362==
41859,2023,04,27,18,00,AAXX 27184 41859 02430 81802 10255 20230 30063 40100 8562/ 333 58018 70000 82710 84618 88458==
41859,2023,04,27,21,00,AAXX 27214 41859 02430 81802 10235 20210 30060 40098 8562/ 333 58012 70000 82710 84618 88458==
41863,2023,04,21,00,00,AAXX 21003 41863 02950 00901 10241 20220 39965 40008 333 58002 70000==
41863,2023,04,21,03,00,AAXX 21034 41863 02450 80905 10285 20240 30001 40043 8552/ 333 20236 58015 70000 85618 88458==
41863,2023,04,21,06,00,AAXX 21064 41863 02/56 52705 10310 20250 30001 40043 85020 333 58021 70000 85458==
41863,2023,04,21,09,00,AAXX 21094 41863 02456 51803 10340 20240 39969 40010 83520 333 58024 70000 83618 85458==
41863,2023,04,21,12,00,AAXX 21124 41863 02456 52703 10322 20200 39963 40005 83520 333 10350 58030 70000 83618 85458==
41863,2023,04,21,15,00,AAXX 21154 41863 02/50 32701 10271 20230 39993 40036 83020 333 58035 70000 83458==
41863,2023,04,21,18,00,AAXX 21184 41863 02450 52702 10260 20240 39994 40037 83520 333 58026 70000 83618 85458==
41863,2023,04,21,21,00,AAXX 21214 41863 02450 62703 10248 20230 39999 40042 84520 333 58043 70000 84618 85458==
41863,2023,04,22,00,00,AAXX 22004 41863 02450 80504 10235 20220 39999 40042 8552/ 333 58034 70000 85618 88458==
41863,2023,04,22,03,00,AAXX 22034 41863 02557 20903 10290 20210 30030 40072 82400 333 20227 58029 70000 82620==
41863,2023,04,22,06,00,AAXX 22064 41863 02957 01803 10305 20210 30030 40072 333 58029 70000==
41863,2023,04,22,09,00,AAXX 22094 41863 02957 00902 10335 20170 39990 40031 333 58021 70000==
41863,2023,04,22,12,00,AAXX 22124 41863 02957 01302 10320 20250 39984 40026 333 10335 58021 70000==
41863,2023,04,22,15,00,AAXX 22154 41863 02950 00000 10268 20200 30003 40046 333 58010 70000==
41863,2023,04,22,18,00,AAXX 22184 41863 02450 30902 10263 20200 30011 40054 82500 333 58017 70000 83618==
41863,2023,04,22,21,00,AAXX 22214 41863 02450 20000 10246 20180 30021 40064 82500 333 58022 70000 82618==
41863,2023,04,23,00,00,AAXX 23004 41863 02450 50902 10232 20150 30031 40074 83520 333 58032 70000 83618 85458==
41863,2023,04,23,03,00,AAXX 23034 41863 02456 81302 10237 20180 30050 40093 8552/ 333 20222 58020 70000 85618 88458==
41863,2023,04,23,06,00,AAXX 23064 41863 02456 51303 10245 20190 30056 40099 8552/ 333 58026 70000 85618 88458==
41863,2023,04,23,09,00,AAXX 23094 41863 02456 83603 10240 20190 30037 40080 8552/ 333 58047 70000==
41863,2023,04,23,12,00,AAXX 23124 41863 02456 60902 10235 20200 30033 40076 83520 333 10280 58049 70000 83618 86458==
41863,2023,04,23,15,00,AAXX 23154 41863 02950 00903 10216 20200 30054 40098 333 58051 70000==
41863,2023,04,23,18,00,AAXX 23184 41863 02950 00902 10211 20190 30064 40108 333 58053 70000==
41863,2023,04,23,21,00,AAXX 23214 41863 02450 50903 10207 20200 30057 40101 82520 333 58026 70000 82618 85458==
41863,2023,04,24,00,00,AAXX 24004 41863 02450 70903 10200 20190 30074 40118 83520 333 58043 70000 83618 87458==
41863,2023,04,24,03,00,AAXX 24034 41863 02456 50502 10256 20190 30097 40140 82520 333 20195 58047 70000 82618 85458==
41863,2023,04,24,06,00,AAXX 24064 41863 NIL=
41863,2023,04,24,09,00,AAXX 24094 41863 02/57 30502 10315 20180 30064 40106 83030 333 58027 70000 83365==
41863,2023,04,24,12,00,AAXX 24124 41863 02957 30000 10306 20200 30048 40090 80002 333 10315 58015 70000 83074==
41863,2023,04,24,15,00,AAXX 24154 41863 02/50 20901 10256 20220 30072 40115 82030 333 58018 70000 82362==
41863,2023,04,24,18,00,AAXX 24184 41863 02950 20902 10241 20200 30078 40121 82400 333 58014 70000 82620==
41863,2023,04,24,21,00,AAXX 24214 41863 02550 20000 10230 20210 30065 40108 82400 333 58008 70000 82620==
41863,2023,04,25,00,00,AAXX 25004 41863 02/50 50000 10226 20210 30079 40123 85030 333 58005 70000 85362==
41863,2023,04,25,03,00,AAXX 25034 41863 02/56 50901 10265 20220 30093 40136 85030 333 20215 59004 70000 85362==
41863,2023,04,25,06,00,AAXX 25064 41863 02/57 53601 10310 20180 30084 40126 85030 333 59009 70000 85362==
41863,2023,04,25,09,00,AAXX 25094 41863 02557 23601 10336 20190 30052 40094 82400 333 59012 70000 82620==
41863,2023,04,25,12,00,AAXX 25124 41863 02957 03601 10319 20190 30032 40074 333 10337 59016 70000==
41863,2023,04,25,15,00,AAXX 25154 41863 02956 00000 10256 20210 30051 40094 333 59021 70000==
41863,2023,04,25,18,00,AAXX 25184 41863 02950 00000 10240 20210 30050 40093 333 59028 70000==
41863,2023,04,25,21,00,AAXX 25214 41863 02950 20000 10234 20210 30051 40094 333 59014 70000 82362==
41863,2023,04,26,00,00,AAXX 26004 41863 02956 30000 10214 20190 30052 40096 333 59027 70000 83362==
41863,2023,04,26,03,00,AAXX 26034 41863 02/57 20501 10302 20200 30062 40104 82030 333 20210 59031 70000 82362==
41863,2023,04,26,06,00,AAXX 26064 41863 02/57 31801 10333 20190 30055 40097 83030 333 59029 70000 83362==
41863,2023,04,26,09,00,AAXX 26094 41863 02957 01804 10352 20180 30022 40063 333 59030 70000==
41863,2023,04,26,12,00,AAXX 26124 41863 02956 01804 10326 20200 30016 40058 333 10352 59016 70000==
41863,2023,04,26,15,00,AAXX 26154 41863 02956 01801 10267 20200 30030 40073 333 59021 70000==
41863,2023,04,26,18,00,AAXX 26184 41863 02950 00000 10240 20200 30036 40079 333 59014 70000==
41863,2023,04,26,21,00,AAXX 26214 41863 02950 00000 10230 20200 30041 40084 333 59010 70000==
41863,2023,04,27,00,00,AAXX 27004 41863 02956 00000 10222 20200 30045 40089 333 59007 70000==
41863,2023,04,27,03,00,AAXX 27034 41863 02957 00903 10300 20190 30063 40105 333 20210 58001 70000==
41863,2023,04,27,06,00,AAXX 27064 41863 02957 01303 10332 20200 30057 40099 333 58002 70000==
41863,2023,04,27,09,00,AAXX 27094 41863 02456 62701 10320 20210 30035 40077 83520 333 58013 70000 83618 86458==
41863,2023,04,27,12,00,AAXX 27124 41863 02456 51801 10306 20220 30016 40058 82520 333 58000 70000 82618 85458==
41863,2023,04,27,15,00,AAXX 27154 41863 02450 51801 10270 20220 30039 40082 82520 333 58009 70000 82618 85458==
41863,2023,04,27,18,00,AAXX 27184 41863 02950 00902 10250 20210 30056 40099 333 58020 70000==
41863,2023,04,27,21,00,AAXX 27214 41863 02950 00000 10236 20200 30053 40096 333 58012 70000==
41881,2023,04,21,00,00,AAXX 21004 41881 32457 61504 10275 20270 39990 40010 83520 333 56990 59005 70000 83620 86460=
41881,2023,04,21,06,00,AAXX 21064 41881 32957 02304 10345 20190 30018 40037 333 58021 70000=
41881,2023,04,21,12,00,AAXX 21124 41881 32956 60000 10310 20250 30001 40021 83520 333 10350 56990 58045 70000 83620 86460=
41881,2023,04,21,18,00,AAXX 21184 41881 32450 20902 10250 20230 30019 40039 82500 333 56900 58045 70000 83620=
41881,2023,04,22,00,00,AAXX 22004 41881 32450 60902 10220 20210 30024 40044 83520 333 56990 58034 70000 83620 86460=
41881,2023,04,22,06,00,AAXX 22064 41881 32957 00000 10307 20210 30049 40068 333 58031 70000=
41881,2023,04,22,12,00,AAXX 22124 41881 32956 20000 10300 20210 30009 40029 82500 333 10345 56900 58008 70000 82620=
41881,2023,04,22,18,00,AAXX 22184 41881 32950 60901 10245 20230 30032 40052 83520 333 56990 58013 70000 83620 86460=
41881,2023,04,23,00,00,AAXX 23004 41881 32450 60000 10235 20220 30039 40059 83520 333 56990 58015 70000 83620 86460=
41881,2023,04,23,06,00,AAXX 23064 41881 32456 70902 10250 20240 30075 40096 84520 333 56390 58026 70000 84620 87460=
41881,2023,04,23,12,00,AAXX 23124 41881 32456 60502 10255 20210 30047 40067 83520 333 10300 56990 58030 70000 83620 86460=
41881,2023,04,23,18,00,AAXX 23184 41881 32450 60501 10216 20200 30079 40100 83520 333 56990 58047 70000 83620 86460=
41881,2023,04,24,00,00,AAXX 24004 41881 32450 60501 10200 20200 30099 40119 83520 333 56990 58060 70000 83620 86460=
41881,2023,04,24,06,00,AAXX 24064 41881 32957 03601 10310 20190 30109 40128 333 58034 70000=
41881,2023,04,24,12,00,AAXX 24124 41881 32456 70901 10285 20220 30077 40099 84520 333 10330 56390 58030 70000 84620 87460=
41881,2023,04,24,18,00,AAXX 24184 41881 32450 63601 10220 20200 30088 40109 83520 333 56990 58009 70000 83620 86460=
41881,2023,04,25,00,00,AAXX 25004 41881 32456 60501 10202 20200 30083 40104 83520 333 56990 59016 70000 83620 86460=
41881,2023,04,25,06,00,AAXX 25064 41881 32458 22103 10322 20180 30101 40121 82500 333 56900 59008 70000 82620=
41881,2023,04,25,12,00,AAXX 25124 41881 32458 52202 10302 20190 30054 40074 82501 333 10347 56909 59023 70000 82620 84082=
41881,2023,04,25,18,00,AAXX 25184 41881 NIL=
41881,2023,04,26,00,00,AAXX 26004 41881 32456 40000 10210 20210 30074 40094 82501 333 56909 59009 70000 82620 83082=
41881,2023,04,26,06,00,AAXX 26064 41881 32458 72202 10325 20210 30079 40099 84520 333 56990 59022 70000 84620 87460=
41881,2023,04,26,12,00,AAXX 26124 41881 31450 80000 10287 20230 30045 40065 71792 8592/ 10352 333 56499 59009 70000 85617 81930 88459=
41881,2023,04,26,18,00,AAXX 26184 41881 32950 00000 10222 20210 30055 40075 333 59012 70000=
41881,2023,04,27,00,00,AAXX 27004 41881 32950 00000 10217 20210 30068 40088 333 59006 70000=
41881,2023,04,27,06,00,AAXX 27064 41881 32957 02701 10335 20230 30077 40096 333 59002 70000=
41881,2023,04,27,12,00,AAXX 27124 41881 11456 70000 10272 20230 30044 40064 60042 70196 84520 333 10345 56990 59001 70035 84620 87460=
41881,2023,04,27,18,00,AAXX 27184 41881 32450 42701 10226 20210 30086 40107 82501 333 56909 58031 70035 82620 83082=
41883,2023,04,21,00,00,AAXX 21004 41883 02340 81302 10288 20270 39989 40009 8562/ 333 59006 70000 82709 85615 88459==
41883,2023,04,21,03,00,AAXX 21034 41883 02356 81304 10280 20230 30024 40044 8562/ 333 20270 58010 70000 85710 88459==
41883,2023,04,21,06,00,AAXX 21064 41883 02456 61304 10333 20250 30020 40040 83510 333 58017 70000 83616 86459==
41883,2023,04,21,09,00,AAXX 21094 41883 02456 42304 10356 20210 30004 40023 82510 333 58035 70000 82616 84459==
41883,2023,04,21,12,00,AAXX 21124 41883 02456 80000 10328 20220 39993 40013 8552/ 333 10360 58038 70000 85616 88459==
41883,2023,04,21,15,00,AAXX 21154 41883 02430 81304 10274 20220 30023 40043 8552/ 333 58051 70000 85616 88458==
41883,2023,04,21,18,00,AAXX 21184 41883 02430 81303 10254 20210 30020 40040 8552/ 333 58030 70000 85616 88458==
41883,2023,04,21,21,00,AAXX 21214 41883 02930 00903 10244 20210 30014 40034 333 58031 70000==
41883,2023,04,22,00,00,AAXX 22004 41883 02430 81802 10230 20210 30033 40053 8552/ 333 58015 70000 85615 88458==
41883,2023,04,22,03,00,AAXX 22034 41883 41456 61302 10264 20210 30039 40059 70162 83510 333 20223 58015 83615 86458==
41883,2023,04,22,06,00,AAXX 22064 41883 11456 31302 10308 20210 30047 40067 60006 70162 83500 333 58027 83615==
41883,2023,04,22,09,00,AAXX 22094 41883 42956 42702 10345 20170 30019 40039 80001 333 58015 84080==
41883,2023,04,22,12,00,AAXX 22124 41883 42956 00000 10315 20200 30008 40028 333 10346 58015==
41883,2023,04,22,15,00,AAXX 22154 41883 02930 00000 10280 20210 30021 40041 333 59002 70000==
41883,2023,04,22,18,00,AAXX 22184 41883 42930 00000 10274 20200 30031 40051 333 58011==
41883,2023,04,22,21,00,AAXX 22214 41883 42430 60000 10268 20210 30029 40049 83510 333 58015 83616 86459==
41883,2023,04,23,00,00,AAXX 23004 41883 42340 80000 10264 20220 30044 40064 8562/ 333 58011 85710 88459==
41883,2023,04,23,03,00,AAXX 23034 41883 02356 80000 10272 20220 30075 40095 8562/ 333 20246 58036 70000 85710 88459==
41883,2023,04,23,06,00,AAXX 23064 41883 02356 80903 10270 20190 30079 40099 8562/ 333 58032 70000 85710 88459==
41883,2023,04,23,09,00,AAXX 23094 41883 02456 60902 10304 20200 30057 40077 83530 333 58038 70000 83615 86362==
41883,2023,04,23,12,00,AAXX 23124 41883 02/40 50903 10270 20210 30052 40072 85030 333 10305 58044 70000 85362==
41883,2023,04,23,15,00,AAXX 23154 41883 02930 00905 10245 20200 30070 40090 333 58050 70000==
41883,2023,04,23,18,00,AAXX 23184 41883 02430 80504 10235 20200 30085 40106 8552/ 333 58054 70000 85616 88459==
41883,2023,04,23,21,00,AAXX 23214 41883 02430 80504 10230 20210 30078 40099 8552/ 333 58049 70000 85616 88459==
41883,2023,04,24,00,00,AAXX 24004 41883 02/40 30000 10218 20200 30096 40117 83030 333 58052 70000 83362==
41883,2023,04,24,03,00,AAXX 24034 41883 02956 00000 10258 20190 30116 40136 333 20214 58041 70000==
41883,2023,04,24,06,00,AAXX 24064 41883 02956 00502 10310 20160 30108 40128 333 58029 70000==
41883,2023,04,24,09,00,AAXX 24094 41883 02/56 30000 10326 20180 30086 40106 83010 333 58029 70000 83459==
41883,2023,04,24,12,00,AAXX 24124 41883 02456 60000 10314 20190 30071 40091 83510 333 10335 58019 70000 83616 86459==
41883,2023,04,24,15,00,AAXX 24154 41883 01330 83103 10242 20210 30093 40114 72162 8562/ 333 58023 70020 85709 88458==
41883,2023,04,24,18,00,AAXX 24184 41883 11330 80000 10240 20210 30093 40114 60026 70262 8562/ 333 58008 70020 85709 88458==
41883,2023,04,24,21,00,AAXX 24214 41883 02330 80000 10236 20220 30086 40107 8562/ 333 58008 70000 85709 88458==
41883,2023,04,25,00,00,AAXX 25004 41883 02440 60000 10228 20210 30100 40121 83510 333 58004 70020 83615 86458==
41883,2023,04,25,03,00,AAXX 25034 41883 02/56 12704 10294 20200 30109 40129 81030 333 20225 58002 70020 81362==
41883,2023,04,25,06,00,AAXX 25064 41883 02556 12302 10330 20160 30099 40119 81100 333 59009 70020 81828==
41883,2023,04,25,09,00,AAXX 25094 41883 02956 22702 10340 20170 30071 40091 80001 333 59015 70020 82080==
41883,2023,04,25,12,00,AAXX 25124 41883 02/56 30000 10324 20170 30053 40073 83030 333 10342 59018 70020 83362==
41883,2023,04,25,15,00,AAXX 25154 41883 02930 00000 10280 20200 30072 40092 333 59021 70000==
41883,2023,04,25,18,00,AAXX 25184 41883 02930 00000 10262 20210 30073 40093 333 59020 70000==
41883,2023,04,25,21,00,AAXX 25214 41883 02930 00000 10252 20210 30071 40091 333 59015 70000==
41883,2023,04,26,00,00,AAXX 26004 41883 02930 00000 10240 20220 30071 40091 333 59029 70000==
41883,2023,04,26,03,00,AAXX 26034 41883 02450 40902 10314 20190 30087 40107 82510 333 20232 59022 70000 82618 84458==
41883,2023,04,26,06,00,AAXX 26064 41883 02450 42302 10340 20200 30081 40101 82510 333 59018 70000 82618 84458==
41883,2023,04,26,09,00,AAXX 26094 41883 02/56 32702 10348 20180 30047 40067 83030 333 59024 70000 83362==
41883,2023,04,26,12,00,AAXX 26124 41883 01456 81802 10320 20200 30047 40067 71792 8592/ 333 10355 59006 70000 85616 88459 82930==
41883,2023,04,26,15,00,AAXX 26154 41883 02/30 40000 10276 20210 30055 40075 84030 333 59017 70000 84362==
41883,2023,04,26,18,00,AAXX 26184 41883 02930 00000 10262 20210 30054 40074 333 59019 70000==
41883,2023,04,26,21,00,AAXX 26214 41883 02930 00000 10256 20210 30047 40067 333 59024 70000==
41883,2023,04,27,00,00,AAXX 27004 41883 02940 00000 10248 20220 30069 40089 333 59002 70000==
41883,2023,04,27,03,00,AAXX 27034 41883 02956 00000 10300 20210 30085 40105 333 20245 59002 70000==
41883,2023,04,27,06,00,AAXX 27064 41883 02956 00000 10340 20210 30076 40096 333 59005 70000==
41883,2023,04,27,09,00,AAXX 27094 41883 02450 80000 10324 20230 30057 40077 8352/ 333 58010 70000 83618 88458==
41883,2023,04,27,12,00,AAXX 27124 41883 01450 80000 10290 20170 30047 40067 70292 8462/ 333 10348 58000 70000 82710 83618 88458==
41883,2023,04,27,15,00,AAXX 27154 41883 02/30 31805 10254 20190 30072 40092 83030 333 58017 70000 83362==
41883,2023,04,27,18,00,AAXX 27184 41883 02/30 21304 10240 20200 30079 40100 82030 333 58025 70000 82362==
41883,2023,04,27,21,00,AAXX 27214 41883 02930 00902 10232 20200 30078 40099 333 58031 70000==
41886,2023,04,21,00,00,AAXX 21004 41886 02456 80903 10230 20200 30023 40044 8532/ 333 58007 70078 84617 88460 81930==
41886,2023,04,21,03,00,AAXX 21034 41886 02456 80000 10270 20220 30033 40053 8442/ 333 20224 58004 70078 83618 88460==
41886,2023,04,21,06,00,AAXX 21064 41886 02456 80901 10300 20250 30033 40053 8441/ 333 58022 70078 83618 88460==
41886,2023,04,21,09,00,AAXX 21094 41886 02957 60000 10294 20240 30011 40031 84410 333 58031 70078 83618 85460==
41886,2023,04,21,12,00,AAXX 21124 41886 02456 60905 10270 20220 30009 40029 84410 333 10310 58044 70078 83618 85460==
41886,2023,04,21,15,00,AAXX 21154 41886 02450 60904 10240 20210 30035 40055 84410 333 58070 70068 83618 85460==
41886,2023,04,21,18,00,AAXX 21184 41886 NIL=
41886,2023,04,21,21,00,AAXX 21214 41886 02/40 40000 10220 20210 30035 40055 84030 333 58040 70000 84365==
41886,2023,04,22,00,00,AAXX 22004 41886 02/50 40000 10210 20200 30038 40058 84030 333 58015 70000 84365==
41886,2023,04,22,03,00,AAXX 22034 41886 02956 00000 10270 20200 30059 40079 333 20210 58026 70000==
41886,2023,04,22,06,00,AAXX 22064 41886 02957 00000 10310 20210 30053 40073 333 58020 70000==
41886,2023,04,22,09,00,AAXX 22094 41886 02958 00000 10330 20220 30025 40045 333 58014 70000==
41886,2023,04,22,12,00,AAXX 22124 41886 02957 00000 10300 20230 30013 40033 333 10333 58004 70000==
41886,2023,04,22,15,00,AAXX 22154 41886 02956 00000 10274 20230 30030 40050 333 59005 70000==
41886,2023,04,22,18,00,AAXX 22184 41886 02950 00000 10260 20240 30038 40058 333 58000 70000==
41886,2023,04,22,21,00,AAXX 22214 41886 02940 00000 10250 20230 30036 40056 333 58002 70000==
41886,2023,04,23,00,00,AAXX 23004 41886 02950 00000 10247 20230 30054 40074 333 58001 70000==
41886,2023,04,23,03,00,AAXX 23034 41886 02456 50000 10252 20210 30072 40092 84410 333 20245 58013 70000 83618 84460==
41886,2023,04,23,06,00,AAXX 23064 41886 02456 60904 10260 20210 30083 40103 84410 333 58030 70000 83618 85460==
41886,2023,04,23,09,00,AAXX 23094 41886 02456 80000 10257 20210 30074 40094 8352/ 333 58049 70000 83618 88460==
41886,2023,04,23,12,00,AAXX 23124 41886 02456 60903 10240 20210 30066 40086 84410 333 10278 58053 70000 83618 85460==
41886,2023,04,23,15,00,AAXX 23154 41886 02450 80000 10225 20190 30073 40093 8352/ 333 58043 70000 83618 88460==
41886,2023,04,23,18,00,AAXX 23184 41886 02450 80000 10220 20200 30088 40108 8352/ 333 58050 70000 83618 88460==
41886,2023,04,23,21,00,AAXX 23214 41886 02440 80000 10215 20190 30084 40104 8352/ 333 58048 70000 83618 88460==
41886,2023,04,24,00,00,AAXX 24004 41886 02450 80000 10210 20200 30089 40109 8352/ 333 58045 70000 83618 88460==
41886,2023,04,24,03,00,AAXX 24034 41886 02/56 50000 10270 20190 30116 40136 85030 333 20204 58044 70000 85365==
41886,2023,04,24,06,00,AAXX 24064 41886 02957 00000 10312 20180 30125 40145 333 58042 70000==
41886,2023,04,24,09,00,AAXX 24094 41886 02958 00000 10326 20180 30087 40107 333 58013 70000==
41886,2023,04,24,12,00,AAXX 24124 41886 02957 00000 10297 20210 30077 40097 333 10334 58011 70000==
41886,2023,04,24,15,00,AAXX 24154 41886 02456 70000 10260 20210 30090 40110 83510 333 58017 70000 83618 86460==
41886,2023,04,24,18,00,AAXX 24183 41886 02450 80000 10245 20220 30089 40109 8352/ 333 58001 70000 83618 88460==
41886,2023,04,24,21,00,AAXX 24214 41886 02440 50000 10230 20220 30086 40106 83510 333 58002 70000 83618 84460==
41886,2023,04,25,00,00,AAXX 25004 41886 02950 00000 10224 20210 30097 40117 333 58002 70000==
41886,2023,04,25,03,00,AAXX 25034 41886 02956 00000 10290 20210 30115 40135 333 20223 59001 70000==
41886,2023,04,25,06,00,AAXX 25064 41886 02457 50000 10330 20200 30099 40119 84430 333 59026 70000 83618 85365==
41886,2023,04,25,09,00,AAXX 25094 41886 02458 60000 10335 20190 30072 40092 84470 333 59015 70000 83618 86460==
41886,2023,04,25,12,00,AAXX 25124 41886 02457 20000 10312 20220 30054 40074 82400 333 10340 59023 70000 82618==
41886,2023,04,25,15,00,AAXX 25154 41886 02956 00000 10270 20210 30075 40095 333 59015 70000==
41886,2023,04,25,18,00,AAXX 25184 41886 02950 00000 10253 20220 30075 40096 333 59014 70000==
41886,2023,04,25,21,00,AAXX 25214 41886 01/50 30000 10235 20220 30075 40096 70510 83030 333 59011 70000 83365==
41886,2023,04,26,00,00,AAXX 26004 41886 01/40 30000 10223 20210 30074 40095 70511 83030 333 59023 70000 83365==
41886,2023,04,26,03,00,AAXX 26034 41886 02/56 30000 10303 20220 30092 40112 83030 333 20222 59023 70000 83365==
41886,2023,04,26,06,00,AAXX 26064 41886 02457 80000 10333 20190 30082 40102 8351/ 333 59017 70000 83618 88460==
41886,2023,04,26,09,00,AAXX 26094 41886 02458 50000 10350 20180 30056 40076 82570 333 59016 70000 82618 84460==
41886,2023,04,26,12,00,AAXX 26124 41886 02456 70000 10315 20230 30046 40066 83520 333 10350 59008 70000 83618 87460==
41886,2023,04,26,15,00,AAXX 26154 41886 02950 00000 10272 20240 30058 40078 333 59017 70000==
41886,2023,04,26,18,00,AAXX 26184 41886 02950 00000 10252 20230 30061 40082 333 59014 70000==
41886,2023,04,26,21,00,AAXX 26214 41886 01940 00000 10243 20220 30066 40087 70500 333 59009 70000==
41886,2023,04,27,00,00,AAXX 27004 41886 01940 00000 10235 20220 30070 40091 70500 333 59004 70000==
41886,2023,04,27,03,00,AAXX 27034 41886 02956 00000 10305 20220 30090 40110 333 20235 59002 70000==
41886,2023,04,27,06,00,AAXX 27064 41886 02457 20000 10342 20220 30084 40104 82500 333 58002 70000 82618==
41886,2023,04,27,09,00,AAXX 27094 41886 02457 80000 10350 20200 30053 40073 8251/ 333 59003 70000 82618 88460==
41886,2023,04,27,12,00,AAXX 27124 41886 01450 82306 10280 20160 30056 40076 79596 8532/ 333 10352 58010 70001 84616 88458 81930==
41886,2023,04,27,15,00,AAXX 27154 41886 01450 81802 10246 20190 30076 40097 70296 8351/ 333 58018 70001 83618 88460==
41886,2023,04,27,18,00,AAXX 27184 41886 11450 60000 10235 20210 30088 40109 60006 70196 82510 333 58027 70001 82618 86460==
41886,2023,04,27,21,00,AAXX 27214 41886 02950 00000 10225 20210 30087 40108 333 58021 70001==
41888,2023,04,21,00,00,AAXX 21003 41888 32460 80907 10216 20190 30021 40031 70292 8432/ 333 56999 58001 70428 83616 81930 88458=
41888,2023,04,21,06,00,AAXX 21064 41888 32457 80905 10284 20230 30041 40051 8351/ 333 56999 58022 70428 83618 88460=
41888,2023,04,21,12,00,AAXX 21124 41888 32457 50905 10259 20220 30016 40026 82530 333 10290 56990 58043 70428 82618 85365=
41888,2023,04,21,18,00,AAXX 21184 41888 32450 81206 10225 20200 30037 40047 8352/ 333 56999 58032 70000 83618 88458=
41888,2023,04,22,00,00,AAXX 22004 41888 32456 30601 10210 20200 30039 40049 81530 333 56990 58018 70000 81618 83365=
41888,2023,04,22,06,00,AAXX 22064 41888 32458 20901 10303 20190 30055 40065 82030 333 56090 58014 70000 82365=
41888,2023,04,22,12,00,AAXX 22124 41888 32956 00000 10298 20230 30021 40031 333 10334 58005 70000=
41888,2023,04,22,18,00,AAXX 22184 41888 32950 00901 10250 20230 30044 40054 333 58007 70000=
41888,2023,04,23,00,00,AAXX 23004 41888 32450 40901 10237 20220 30060 40070 82470 333 56990 58021 70000 82618 83460=
41888,2023,04,23,06,00,AAXX 23064 41888 32457 80903 10237 20200 30086 40096 8332/ 333 56999 58031 70000 82618 81930 88460=
41888,2023,04,23,12,00,AAXX 23124 41888 32457 80905 10233 20190 30076 40086 8432/ 333 10271 56999 58055 70000 83618 81930 88460=
41888,2023,04,23,18,00,AAXX 23184 41888 32456 30902 10207 20200 30093 40103 83400 333 56900 58049 70000 83618=
41888,2023,04,24,00,00,AAXX 24004 41888 32450 70902 10205 20200 30102 40112 83470 333 56990 58042 70000 83618 86460=
41888,2023,04,24,06,00,AAXX 24064 41888 32957 00903 10306 20190 30116 40126 333 58030 70000=
41888,2023,04,24,12,00,AAXX 24124 41888 32956 72301 10290 20210 30079 40089 82510 333 10290 56990 59003 70000 82618 87460=
41888,2023,04,25,00,00,AAXX 25004 41888 31940 50000 10225 20210 30103 40113 70522 85030 333 56090 59001 70000 85365=
41888,2023,04,25,06,00,AAXX 25064 41888 32957 22302 10320 20200 30106 40116 80001 333 56009 59010 70000 82080=
41888,2023,04,25,12,00,AAXX 25124 41888 32958 03102 10306 20230 30060 40070 333 10345 59019 70000=
41888,2023,04,25,18,00,AAXX 25184 41888 32940 00000 10246 20220 30078 40088 333 59017 70000=
41888,2023,04,26,00,00,AAXX 26004 41888 32940 12901 10220 20200 30078 40088 81030 333 56090 59025 70000 81365=
41888,2023,04,26,06,00,AAXX 26064 41888 32956 60000 10320 20200 30086 40096 86010 333 56090 59020 70000 86460=
41888,2023,04,26,12,00,AAXX 26124 41888 32457 70000 10300 20250 30053 40063 82510 333 10345 56990 59007 70000 82618 87460=
41888,2023,04,26,18,00,AAXX 26184 41888 32940 00000 10250 20230 30065 40075 333 59013 70000=
41888,2023,04,27,00,00,AAXX 27004 41888 31940 00000 10230 20210 30078 40088 70500 333 58000 70000=
41888,2023,04,27,06,00,AAXX 27064 41888 32958 00904 10330 20210 30090 40100 333 58004 70000=
41888,2023,04,27,12,00,AAXX 27124 41888 11450 82703 10300 20260 30057 40067 69914 76021 8352/ 333 10356 56999 58004 70001 83616 88459=
41888,2023,04,27,18,00,AAXX 27184 41888 NIL=
41891,2023,04,21,00,00,AAXX 21004 41891 11430 80804 10235 20190 30006 40045 60006 70562 8632/ 333 58002 82708 83616 88458 81928==
41891,2023,04,21,03,00,AAXX 21034 41891 01320 80908 10214 20190 30027 40066 79596 8632/ 333 20209 58010 70072 86708 88458 81925==
41891,2023,04,21,06,00,AAXX 21064 41891 21320 81305 10224 20210 30026 40065 79596 8632/ 333 58023 60109 70096 86708 88458 81925==
41891,2023,04,21,09,00,AAXX 21094 41891 01330 81308 10238 20200 39999 40037 79617 8632/ 333 58031 70106 86708 88458 81925==
41891,2023,04,21,12,00,AAXX 21124 41891 21330 81808 10230 20200 30004 40044 79617 8632/ 333 10252 58051 60018 70106 86708 88458 81925==
41891,2023,04,21,15,00,AAXX 21154 41891 01430 80906 10220 20180 30032 40071 71799 8632/ 333 58045 70106 82708 83618 88458 81928==
41891,2023,04,21,18,00,AAXX 21184 41891 01420 80902 10217 20170 30018 40057 71799 8632/ 333 58027 70106 82708 83616 88458 81928==
41891,2023,04,21,21,00,AAXX 21214 41891 01430 80904 10218 20180 30013 40052 70522 8532/ 333 58027 70106 81710 84615 88460 81930==
41891,2023,04,22,00,00,AAXX 22004 41891 01430 80904 10220 20180 30007 40046 70522 83340 333 58001 70106 83615 85365 81930==
41891,2023,04,22,03,00,AAXX 22034 41891 01945 00906 10274 20180 30041 40079 70510 333 20214 58014 70034==
41891,2023,04,22,06,00,AAXX 22064 41891 01450 10902 10304 20190 30026 40064 70510 81500 333 58000 70010 81615==
41891,2023,04,22,09,00,AAXX 22094 41891 01450 42403 10330 20190 30005 40043 70521 81530 333 58006 70000 81616 84365==
41891,2023,04,22,12,00,AAXX 22124 41891 01440 53603 10310 20210 39994 40032 70521 84330 333 10342 59010 70000 83616 85365 81930==
41891,2023,04,22,15,00,AAXX 22154 41891 01430 30803 10275 20210 30013 40051 70521 81530 333 59019 70000 81616 83365==
41891,2023,04,22,18,00,AAXX 22184 41891 01430 30505 10265 20210 30023 40061 70521 84370 333 58005 70000 83616 86365 81930==
41891,2023,04,22,21,00,AAXX 22214 41891 01430 60903 10250 20220 30021 40059 70522 84370 333 58008 70000 83616 86365 81930==
41891,2023,04,23,00,00,AAXX 23004 41891 01430 61203 10235 20210 30036 40074 70522 84370 333 59029 70000 83616 86460 81930==
41891,2023,04,23,03,00,AAXX 23034 41891 42440 80902 10260 20230 30053 40092 58012 88459==
41891,2023,04,23,06,00,AAXX 23064 41891 21320 83612 10208 20200 30086 40125 79596 8632/ 333 58060 60517 70510 86707 88458 81925==
41891,2023,04,23,09,00,AAXX 23094 41891 01435 80906 10230 20180 30046 40085 71796 8532/ 333 58041 70528 82710 84615 88459 81930==
41891,2023,04,23,12,00,AAXX 23124 41891 11435 83204 10226 20190 30056 40095 60026 70596 8532/ 333 10278 58062 70528 81710 84615 88459 81930==
41891,2023,04,23,15,00,AAXX 23154 41891 01430 80902 10220 20200 30056 40095 70522 8532/ 333 58043 70528 81710 84615 88459 81930==
41891,2023,04,23,18,00,AAXX 23184 41891 01430 60902 10215 20200 30059 40098 70522 84370 333 58036 70528 83616 84460 81930==
41891,2023,04,23,21,00,AAXX 23214 41891 01430 60902 10210 20190 30068 40107 70522 84370 333 58047 70528 83616 84460 81930==
41891,2023,04,24,00,00,AAXX 24004 41891 01430 50902 10205 20180 30072 40111 70522 84330 333 58036 70528 83616 85365 81930==
41891,2023,04,24,03,00,AAXX 24034 41891 01450 31302 10263 20170 30091 40130 70511 81530 333 20204 58038 70528 81615 83365==
41891,2023,04,24,06,00,AAXX 24064 41891 01450 32302 10310 20170 30090 40128 70511 81530 333 58004 70018 81615 83365==
41891,2023,04,24,09,00,AAXX 24094 41891 01450 30303 10330 20180 30063 40101 70511 81530 333 58017 70000 81636 83365==
41891,2023,04,24,12,00,AAXX 24124 41891 01430 83603 10307 20230 30055 40093 70521 8532/ 333 10345 59001 70000 84616 88460 81930==
41891,2023,04,24,15,00,AAXX 24154 41891 01430 80303 10270 20220 30072 40110 70522 8532/ 333 58016 70000 84616 88460 81930==
41891,2023,04,24,18,00,AAXX 24184 41891 01430 80903 10250 20200 30068 40106 70522 8532/ 333 58009 70000 84616 88460 81930==
41891,2023,04,24,21,00,AAXX 24214 41891 01430 80903 10240 20200 30066 40104 70522 8532/ 333 59002 70000 84616 88460 81930==
41891,2023,04,25,00,00,AAXX 25004 41891 01430 73303 10227 20200 30071 40110 70522 84330 333 59001 70000 83616 87365 81930==
41891,2023,04,25,03,00,AAXX 25034 41891 01450 30902 10293 20200 30092 40130 70522 81530 333 20227 58001 70000 81615 83365==
41891,2023,04,25,06,00,AAXX 25064 41891 01550 10904 10320 20180 30080 40118 70521 81100 333 59010 70000 81825==
41891,2023,04,25,09,00,AAXX 25094 41891 01450 12708 10344 20210 30050 40087 70511 81500 333 59013 70000 81615==
41891,2023,04,25,12,00,AAXX 25124 41891 01450 12702 10322 20220 30028 40065 70511 81500 333 10352 59033 70000 81615==
41891,2023,04,25,15,00,AAXX 25154 41891 01930 00000 10275 20220 30050 40088 70500 333 59022 70000==
41891,2023,04,25,18,00,AAXX 25184 41891 01430 40000 10253 20210 30048 40087 70510 82530 333 59020 70000 82615 83365==
41891,2023,04,25,21,00,AAXX 25214 41891 01430 60902 10242 20200 30051 40090 70522 84370 333 59015 70000 83616 84460 81930==
41891,2023,04,26,00,00,AAXX 26004 41891 01435 60502 10235 20210 30053 40092 70522 84370 333 59018 70000 83616 84460 81930==
41891,2023,04,26,03,00,AAXX 26034 41891 01450 10902 10294 20180 30070 40108 70511 81500 333 20234 59022 70000 81615==
41891,2023,04,26,06,00,AAXX 26064 41891 01450 42704 10324 20170 30057 40095 70511 82530 333 59023 70000 82615 83365==
41891,2023,04,26,09,00,AAXX 26094 41891 01450 42704 10333 20180 30030 40067 70521 82530 333 59030 70000 82615 83365==
41891,2023,04,26,12,00,AAXX 26124 41891 01450 42702 10315 20230 30026 40064 70521 82530 333 10354 59002 70000 82615 83382==
41891,2023,04,26,15,00,AAXX 26154 41891 01430 62702 10270 20210 30040 40078 70522 84370 333 59010 70000 83615 86460 81930==
41891,2023,04,26,18,00,AAXX 26184 41891 01430 40603 10260 20210 30038 40077 70521 82530 333 59010 70000 82615 83365==
41891,2023,04,26,21,00,AAXX 26214 41891 01430 10802 10250 20210 30042 40081 70511 81500 333 59009 70000 81615==
41891,2023,04,27,00,00,AAXX 27004 41891 01440 10904 10240 20210 30055 40094 70511 81500 333 58002 70000 81615==
41891,2023,04,27,03,00,AAXX 27034 41891 01440 11802 10290 20190 30072 40110 70511 81500 333 20239 58002 70000 81615==
41891,2023,04,27,06,00,AAXX 27064 41891 01950 00904 10330 20200 30062 40100 70511 333 58005 70000==
41891,2023,04,27,09,00,AAXX 27094 41891 01950 02702 10350 20210 30028 40065 70500 333 59002 70000==
41891,2023,04,27,12,00,AAXX 27124 41891 01450 82702 10320 20210 30028 40065 70521 8532/ 333 10358 58002 70000 84615 88460 81930==
41891,2023,04,27,15,00,AAXX 27154 41891 01315 82508 10205 20200 30079 40118 79596 8532/ 333 58039 70567 86708 88458 81928==
41891,2023,04,27,18,00,AAXX 27184 41891 21315 82008 10220 20200 30068 40107 79596 8532/ 333 58030 60577 86708 88458 81928==
41891,2023,04,27,21,00,AAXX 27214 41891 01430 80902 10218 20200 30066 40105 70522 8532/ 333 58024 70570 81710 84615 88459 81930==
41895,2023,04,21,00,00,AAXX 21004 41895 01950 01702 10279 20270 39992 40014 70500 333 58016 70000==
41895,2023,04,21,03,00,AAXX 21034 41895 02/56 41803 10303 20260 30014 40036 85030 333 20273 58008 70000 85362==
41895,2023,04,21,06,00,AAXX 21064 41895 02/57 41703 10374 20270 30016 40038 84020 333 58019 70000 84459==
41895,2023,04,21,09,00,AAXX 21094 41895 02/57 62303 10379 20240 39993 40015 86040 333 58034 70000 86459==
41895,2023,04,21,12,00,AAXX 21124 41895 02/56 62405 10333 20140 39993 40015 86020 333 10384 58040 70000 86459==
41895,2023,04,21,18,00,AAXX 21184 41895 02950 00502 10260 20180 30005 40027 333 58023 70000==
41895,2023,04,21,21,00,AAXX 21214 41895 02950 00502 10250 20220 30001 40023 333 58025 70000==
41895,2023,04,22,00,00,AAXX 22004 41895 02950 30502 10240 20220 30017 40039 80001 333 58025 70000 83074==
41895,2023,04,22,03,00,AAXX 22034 41895 02457 30504 10290 20200 30042 40064 83500 333 20237 58028 70000 83616==
41895,2023,04,22,06,00,AAXX 22064 41895 02957 00503 10340 20280 30042 40064 333 58026 70000==
41895,2023,04,22,09,00,AAXX 22094 41895 02957 31202 10363 20220 30012 40033 80001 333 58019 70000 83074==
41895,2023,04,22,12,00,AAXX 22124 41895 02957 20000 10331 20210 30003 40025 80001 333 10375 58010 70000 82074==
41895,2023,04,22,15,00,AAXX 22154 41895 02956 00000 10271 20220 30017 40039 333 58010 70000==
41895,2023,04,22,18,00,AAXX 22184 41895 NIL=
41895,2023,04,22,21,00,AAXX 22214 41895 02456 83103 10256 20200 30032 40054 8352/ 333 58031 70000 83618 88459==
41895,2023,04,23,00,00,AAXX 23004 41895 02456 82104 10249 20190 30044 40066 8352/ 333 58027 70000 83618 88459==
41895,2023,04,23,03,00,AAXX 23034 41895 41450 82702 10266 20190 30066 40089 72122 8452/ 333 20245 58024 84615 88458==
41895,2023,04,23,06,00,AAXX 23064 41895 11450 82303 10290 20170 30067 40090 60006 70262 8452/ 333 58025 84616 88458==
41895,2023,04,23,09,00,AAXX 23094 41895 42456 31304 10334 20170 30045 40067 83500 333 58033 83616==
41895,2023,04,23,12,00,AAXX 23124 41895 42456 60505 10305 20200 30038 40060 83520 333 10335 58025 83616 86458==
41895,2023,04,23,15,00,AAXX 23154 41895 42450 60903 10270 20210 30060 40082 83520 333 58043 83616 86458==
41895,2023,04,23,18,00,AAXX 23184 41895 42450 60901 10250 20210 30065 40088 83520 333 58030 83616 86458==
41895,2023,04,23,21,00,AAXX 23214 41895 42950 00502 10230 20210 30074 40097 333 58042==
41895,2023,04,24,00,00,AAXX 24004 41895 42950 03601 10220 20200 30081 40104 333 58037==
41895,2023,04,24,03,00,AAXX 24034 41895 02957 00502 10284 20190 30109 40131 333 20218 58043 70000==
41895,2023,04,24,06,00,AAXX 24064 41895 02958 30505 10324 20160 30095 40117 80001 333 58028 70000 83074==
41895,2023,04,24,09,00,AAXX 24094 41895 02457 50503 10340 20190 30072 40093 83510 333 58027 70000 83616 85458==
41895,2023,04,24,12,00,AAXX 24124 41895 01450 81804 10263 20210 30077 40099 79592 8532/ 333 10344 58039 70040 84615 88458 82928==
41895,2023,04,24,15,00,AAXX 24154 41895 01440 81304 10212 20212 30096 40119 79596 8532/ 333 58036 70354 84613 88458 81930==
41895,2023,04,24,18,00,AAXX 24184 41895 21450 80504 10215 20215 30078 40101 70296 8452/ 333 58013 60318 70354 84615 88458==
41895,2023,04,24,21,00,AAXX 24214 41895 02450 60502 10215 20215 30082 40105 83520 333 58008 70354 83616 86458==
41895,2023,04,25,00,00,AAXX 25004 41895 02450 50000 10215 20215 30101 40124 83520 333 58020 70354 83616 85458==
41895,2023,04,25,03,00,AAXX 25034 41895 02/57 41802 10250 20230 30110 40132 84030 333 20200 58001 70354 84362==
41895,2023,04,25,06,00,AAXX 25064 41895 02958 01803 10314 20200 30099 40121 333 58004 70354==
41895,2023,04,25,09,00,AAXX 25094 41895 02958 01802 10339 20180 30072 40093 333 58000 70354==
41895,2023,04,25,12,00,AAXX 25124 41895 02/57 40000 10311 20210 30051 40073 84030 333 10345 59026 70312 84362==
41895,2023,04,25,15,00,AAXX 25154 41895 02957 00602 10261 20240 30063 40086 333 59033 70312==
41895,2023,04,25,18,00,AAXX 25184 41895 02956 00000 10240 20230 30064 40086 333 59014 70000==
41895,2023,04,25,21,00,AAXX 25214 41895 01950 00000 10234 20220 30064 40087 70500 333 59018 70000==
41895,2023,04,26,00,00,AAXX 26004 41895 01950 00000 10228 20228 30067 40090 70500 333 59034 70000==
41895,2023,04,26,03,00,AAXX 26034 41895 02957 00902 10292 20220 30082 40105 333 20226 59028 70000==
41895,2023,04,26,06,00,AAXX 26064 41895 02/57 62303 10334 20200 30076 40098 83031 333 59023 70000 83362 84074==
41895,2023,04,26,09,00,AAXX 26094 41895 02/57 21302 10364 20210 30043 40065 82030 333 59029 70000 82363==
41895,2023,04,26,12,00,AAXX 26124 41895 01450 80504 10245 20240 30050 40073 71792 8532/ 333 10365 59001 70000 84615 88458 81930==
41895,2023,04,26,15,00,AAXX 26154 41895 02950 01302 10250 20210 30053 40076 333 59010 70000==
41895,2023,04,26,18,00,AAXX 26184 41895 02450 20000 10240 20220 30052 40074 82500 333 59012 70000 82617==
41895,2023,04,26,21,00,AAXX 26214 41895 02950 20000 10235 20230 30049 40071 80001 333 59014 70000 82074==
41895,2023,04,27,00,00,AAXX 27004 41895 02950 20000 10230 20220 30062 40085 80001 333 59005 70000 82074==
41895,2023,04,27,03,00,AAXX 27034 41895 02957 00502 10290 20230 30076 40099 333 20225 59006 70000==
41895,2023,04,27,06,00,AAXX 27064 41895 02/57 31803 10348 20240 30071 40092 83030 333 59005 70000 83362==
41895,2023,04,27,09,00,AAXX 27094 41895 01450 82305 10278 20230 30054 40077 71792 8532/ 333 58011 70000 84615 88458 81928==
41895,2023,04,27,12,00,AAXX 27124 41895 01450 81303 10273 20220 30040 40063 70292 8452/ 333 10353 59010 70000 84615 88458==
41895,2023,04,27,15,00,AAXX 27154 41895 02450 61302 10238 20210 30064 40086 84520 333 58011 70000 84616 86458==
41895,2023,04,27,18,00,AAXX 27184 41895 NIL=
41895,2023,04,27,21,00,AAXX 27214 41895 02950 01802 10220 20200 30067 40090 333 58018 70000==
41897,2023,04,21,00,00,AAXX 21003 41897 31940 01802 10275 20270 39994 40006 70500 333 58002 70000=
41897,2023,04,21,06,00,AAXX 21064 41897 31450 31803 10340 20260 30026 40039 70500 81510 333 56990 58017 70000 81618 83458=
41897,2023,04,21,12,00,AAXX 21124 41897 31450 00000 10315 20260 30002 40015 70500 81510 333 10360 56990 58039 70000 81618 83458=
41897,2023,04,21,18,00,AAXX 21184 41897 NIL=
41897,2023,04,22,00,00,AAXX 22004 41897 31940 00902 10220 20210 30045 40058 70500 333 58051 70000=
41897,2023,04,22,06,00,AAXX 22064 41897 31956 03602 10330 20190 30051 40064 70500 333 58025 70000=
41897,2023,04,22,12,00,AAXX 22124 41897 31950 00502 10300 20210 30014 40027 70500 333 10340 58012 70000=
41897,2023,04,22,18,00,AAXX 22184 41897 NIL=
41897,2023,04,23,00,00,AAXX 23004 41897 31440 62701 10250 20180 30052 40065 70520 82510 333 56990 58007 70000 82617 86458=
41897,2023,04,23,06,00,AAXX 23064 41897 31450 73602 10280 20200 30083 40096 70522 83510 333 56990 58032 70000 83617 87458=
41897,2023,04,23,12,00,AAXX 23124 41897 31450 30902 10260 20210 30057 40070 70520 81530 333 10290 56990 58043 70000 81618 83362=
41897,2023,04,24,00,00,AAXX 24004 41897 31940 00902 10205 20200 30037 40051 70500 333 58015 70000=
41897,2023,04,24,06,00,AAXX 24064 41897 31956 00901 10310 20200 30112 40124 70500 333 58029 70000=
41897,2023,04,24,12,00,AAXX 24124 41897 11440 61802 10230 20210 30088 40101 60014 70162 82510 333 10325 56990 58031 70010 82617 86458=
41897,2023,04,24,18,00,AAXX 24184 41897 11440 63602 10220 20200 30100 40113 60028 70262 82510 333 56990 58028 70030 82618 86458=
41897,2023,04,25,00,00,AAXX 25004 41897 32940 02701 10215 20210 30105 40119 333 58068 70000=
41897,2023,04,25,06,00,AAXX 25064 41897 32956 03602 10315 20210 30117 40130 333 58005 70030=
41897,2023,04,25,12,00,AAXX 25124 41897 32956 20000 10307 20230 30060 40073 82030 333 10336 56090 59028 70020 82362=
41897,2023,04,25,18,00,AAXX 25184 41897 31945 00000 10235 20220 30075 40088 70500 333 59025 70000=
41897,2023,04,26,00,00,AAXX 26004 41897 31930 00000 10220 20210 30080 40093 70500 333 59025 70000=
41897,2023,04,26,06,00,AAXX 26064 41897 32956 22001 10325 20190 30088 40101 82030 333 56090 59029 70000 82362=
41897,2023,04,26,12,00,AAXX 26124 41897 31450 81501 10300 20240 30053 40066 71790 8592/ 333 10345 56999 59007 70000 83616 81925 88458=
41897,2023,04,26,18,00,AAXX 26184 41897 31940 00000 10235 20220 30062 40075 70510 333 59013 70000=
41897,2023,04,27,00,00,AAXX 27004 41897 31930 00901 10225 20220 30073 40086 70500 333 59007 70000=
41897,2023,04,27,06,00,AAXX 27064 41897 31950 01803 10330 20220 30083 40095 70500 333 59005 70000=
41897,2023,04,27,12,00,AAXX 27124 41897 11950 31803 10242 20200 30056 40070 60024 70196 83030 333 10340 56090 58003 70020 83362=
41897,2023,04,27,18,00,AAXX 27184 41897 31940 01803 10217 20200 30086 40099 70511 333 58024 70020=
41902,2023,04,21,00,00,AAXX 21004 41902 32430 60902 10232 20210 30017 40026 83510 333 56290 58002 70000 83614 85459=
41902,2023,04,21,06,00,AAXX 21064 41902 32440 40904 10320 20270 30029 40037 82530 333 56990 58014 70000 82614 83362=
41902,2023,04,21,12,00,AAXX 21124 41902 11430 60906 10236 20220 30012 40021 60115 71796 84910 333 10328 56290 58035 70110 83614 82928 86459=
41902,2023,04,21,18,00,AAXX 21184 41902 NIL=
41902,2023,04,22,00,00,AAXX 22004 41902 31425 50502 10211 20200 30035 40043 71044 82530 333 56990 58018 70110 82614 84362=
41902,2023,04,22,06,00,AAXX 22064 41902 31450 10501 10320 20210 30054 40063 70240 81030 333 56090 58025 70110 81362=
41902,2023,04,22,12,00,AAXX 22124 41902 32450 50000 10308 20250 30020 40028 85030 333 10336 56090 58008 70000 85362=
41902,2023,04,22,18,00,AAXX 22184 41902 NIL=
41902,2023,04,23,00,00,AAXX 23004 41902 31925 50502 10240 20220 30051 40060 71044 85030 333 56090 58016 70000 85362=
41902,2023,04,23,06,00,AAXX 23064 41902 31456 70505 10290 20180 30074 40083 70344 83520 333 56990 58020 70000 83614 87459=
41902,2023,04,23,12,00,AAXX 23124 41902 32456 60503 10235 20220 30070 40078 82530 333 10312 56990 58050 70000 82615 86362=
41902,2023,04,23,18,00,AAXX 23184 41902 31930 00502 10208 20200 30081 40090 70540 333 58037 70000=
41902,2023,04,24,00,00,AAXX 24004 41902 31425 23602 10204 20190 30087 40096 71044 82500 333 56900 58036 70000 82616=
41902,2023,04,24,06,00,AAXX 24064 41902 32957 23602 10317 20170 30109 40118 82030 333 56090 58035 70000 82362=
41902,2023,04,24,12,00,AAXX 24124 41902 31440 72701 10296 20210 30077 40086 70522 83520 333 10345 56990 58007 70000 83615 87459=
41902,2023,04,24,18,00,AAXX 24184 41902 11430 52701 10248 20220 30094 40103 69906 70162 82530 333 56990 58013 79999 82615 85362=
41902,2023,04,25,00,00,AAXX 25004 41902 31925 22701 10222 20210 30096 40105 71044 82030 333 56090 59009 79999 82362=
41902,2023,04,25,06,00,AAXX 25064 41902 31457 22701 10336 20200 30099 40107 70344 82500 333 56900 59010 79999 82616=
41902,2023,04,25,12,00,AAXX 25124 41902 31440 40000 10306 20240 30060 40068 70500 81530 333 10354 56990 59017 79999 81616 84362=
41902,2023,04,25,18,00,AAXX 25184 41902 31940 02701 10254 20210 30073 40082 70544 333 59021 70000=
41902,2023,04,26,00,00,AAXX 26004 41902 31925 32701 10230 20220 30078 40087 71044 83030 333 56090 59018 70000 83362=
41902,2023,04,26,06,00,AAXX 26064 41902 31456 63601 10346 20190 30080 40088 70344 82530 333 56990 59029 70000 82616 86362=
41902,2023,04,26,12,00,AAXX 26124 41902 31440 62802 10290 20230 30055 40063 70500 82530 333 10360 56990 59005 70000 82616 86362=
41902,2023,04,26,18,00,AAXX 26184 41902 NIL=
41902,2023,04,27,00,00,AAXX 27004 41902 31425 23201 10235 20230 30077 40086 71044 82500 333 56900 59001 70000 82616=
41902,2023,04,27,06,00,AAXX 27064 41902 31960 02201 10355 20200 30085 40093 70144 333 58005 70000=
41902,2023,04,27,12,00,AAXX 27124 41902 31430 82301 10314 20270 30054 40062 71722 8532/ 333 20362 56999 59001 70000 84612 81930 88458=
41902,2023,04,27,18,00,AAXX 27184 41902 11420 80502 10230 20210 30084 40092 60026 70544 8532/ 333 56999 58020 70020 84612 81930 88458=
41907,2023,04,21,00,00,AAXX 21004 41907 02940 01802 10276 20270 39989 40003 333 58005 70000==
41907,2023,04,21,03,00,AAXX 21034 41907 02950 71802 10320 20250 30002 40016 333 20275 59006 70000 85615 87458==
41907,2023,04,21,06,00,AAXX 21064 41907 02450 73102 10355 20240 30019 40033 85510 333 58021 70000 85615 87458==
41907,2023,04,21,09,00,AAXX 21094 41907 02456 73102 10376 20150 39993 40007 84570 333 58028 70000 84615 85458==
41907,2023,04,21,12,00,AAXX 21124 41907 02350 82703 10345 20130 39995 40009 8662/ 333 10380 58042 70000 82709 85615 88458==
41907,2023,04,21,15,00,AAXX 21154 41907 02440 82702 10320 20140 30001 40015 85520 333 58025 70000 85615 88458==
41907,2023,04,21,18,00,AAXX 21184 41907 02440 80000 10265 20220 30018 40033 8552/ 333 58029 70000 85615 88458==
41907,2023,04,21,21,00,AAXX 21214 41907 02440 80000 10250 20200 30015 40030 8552/ 333 58032 70000 85615 88458==
41907,2023,04,22,00,00,AAXX 22004 41907 02440 30000 10220 20190 30013 40028 83500 333 58024 70000 83615==
41907,2023,04,22,03,00,AAXX 22034 41907 02/56 23602 10290 20220 30040 40055 82030 333 20218 58039 70000 82362==
41907,2023,04,22,06,00,AAXX 22064 41907 02956 00000 10338 20170 30039 40053 333 58020 70000==
41907,2023,04,22,09,00,AAXX 22094 41907 02956 63602 10355 20160 30015 40029 80001 333 58022 70000 86080==
41907,2023,04,22,12,00,AAXX 22124 41907 02956 20000 10330 20200 30002 40017 80001 333 10360 58007 70000 82080==
41907,2023,04,22,15,00,AAXX 22154 41907 02940 00000 10270 20210 30008 40022 333 58007 70000==
41907,2023,04,22,18,00,AAXX 22184 41907 02440 80000 10261 20210 30024 40039 8552/ 333 58006 70000 85615 88458==
41907,2023,04,22,21,00,AAXX 22214 41907 02440 80000 10248 20210 30018 40033 8552/ 333 58003 70000 85615 88458==
41907,2023,04,23,00,00,AAXX 23004 41907 02440 80000 10235 20210 30029 40044 8552/ 333 58016 70000 85615 88458==
41907,2023,04,23,03,00,AAXX 23034 41907 02450 82302 10272 20170 30071 40086 8451/ 333 20230 58031 70000 84615 88458==
41907,2023,04,23,06,00,AAXX 23064 41907 02350 82702 10286 20170 30072 40087 8562/ 333 58033 70000 82709 84615 88458==
41907,2023,04,23,09,00,AAXX 23094 41907 02/56 51802 10330 20150 30049 40063 85030 333 58034 70000 85360==
41907,2023,04,23,12,00,AAXX 23124 41907 02450 71303 10295 20190 30042 40057 85510 333 10338 58040 70000 85615 87458==
41907,2023,04,23,15,00,AAXX 23154 41907 02440 81304 10260 20210 30063 40078 8452/ 333 58005 70000 84615 88458==
41907,2023,04,23,18,00,AAXX 23184 41907 02340 80902 10245 20210 30073 40088 8562/ 333 58049 70000 82709 84615 88458==
41907,2023,04,23,21,00,AAXX 23214 41907 02440 41302 10225 20210 30069 40084 82530 333 58051 70000 82615 83362==
41907,2023,04,24,00,00,AAXX 24004 41907 02950 41302 10210 20200 30085 40100 333 58056 70000 84080==
41907,2023,04,24,03,00,AAXX 24034 41907 02950 01303 10282 20190 30111 40125 333 20210 58040 70000==
41907,2023,04,24,06,00,AAXX 24064 41907 02950 01502 10335 20180 30095 40110 83800 333 58023 70000 82615==
41907,2023,04,24,09,00,AAXX 24094 41907 02450 62302 10335 20180 30074 40088 85830 333 58025 70000 83615 83825==
41907,2023,04,24,12,00,AAXX 24124 41907 01340 81302 10240 20210 30074 40089 70396 8662/ 333 10344 58032 70000 83709 85615 88458==
41907,2023,04,24,15,00,AAXX 24154 41907 42340 82302 10235 20200 30095 40110 8662/ 333 58032 83709 85615 88458==
41907,2023,04,24,18,00,AAXX 24184 41907 42340 83102 10230 20200 30081 40096 8662/ 333 58008 83709 85615 88458==
41907,2023,04,24,21,00,AAXX 24214 41907 42340 80000 10212 20190 30092 40107 8662/ 333 58023 83709 85615 88458==
41907,2023,04,25,00,00,AAXX 25004 41907 42450 23602 10200 20190 30099 40115 82500 333 58014 82615==
41907,2023,04,25,03,00,AAXX 25034 41907 42/50 40000 10280 20200 30106 40121 84030 333 20200 59003 84360==
41907,2023,04,25,06,00,AAXX 25064 41907 42956 01302 10327 20180 30096 40110 333 58001==
41907,2023,04,25,09,00,AAXX 25094 41907 42456 23101 10342 20190 30071 40085 82500 333 59003 82615==
41907,2023,04,25,12,00,AAXX 25124 41907 42/50 50000 10325 20190 30055 40069 85030 333 10352 59019==
41907,2023,04,25,15,00,AAXX 25154 41907 02940 00000 10258 20210 30065 40080 333 59030 70000==
41907,2023,04,25,18,00,AAXX 25184 41907 02940 00000 10235 20220 30069 40084 333 59012 70000==
41907,2023,04,25,21,00,AAXX 25214 41907 02940 00000 10220 20210 30067 40082 333 59025 70000==
41907,2023,04,26,00,00,AAXX 26004 41907 02950 70000 10217 20210 30071 40086 80001 333 59028 70000 87080==
41907,2023,04,26,03,00,AAXX 26034 41907 02950 01301 10315 20200 30083 40098 333 20213 59023 70000==
41907,2023,04,26,06,00,AAXX 26064 41907 02450 61802 10350 20190 30075 40089 83510 333 59021 70000 83615 85458==
41907,2023,04,26,09,00,AAXX 26094 41907 02450 42202 10366 20190 30045 40059 84800 333 59026 70000 82615 83825==
41907,2023,04,26,12,00,AAXX 26124 41907 01340 80000 10315 20210 30038 40052 71721 8692/ 333 10368 59017 70000 83709 85615 88458 81930==
41907,2023,04,26,15,00,AAXX 26154 41907 01940 00000 10233 20190 30055 40075 70196 333 59010 70170==
41907,2023,04,26,18,00,AAXX 26184 41907 11940 00000 10230 20210 30052 40067 60176 70096 333 59017 70170==
41907,2023,04,26,21,00,AAXX 26214 41907 02940 00000 10226 20210 30052 40067 333 59014 70170==
41907,2023,04,27,00,00,AAXX 27004 41907 01950 00000 10222 20210 30051 40066 70500 333 59020 70170==
41907,2023,04,27,03,00,AAXX 27034 41907 02950 00000 10302 20220 30081 40095 333 20215 59002 70170==
41907,2023,04,27,06,00,AAXX 27064 41907 02956 02302 10350 20210 30070 40084 333 59005 70170==
41907,2023,04,27,09,00,AAXX 27094 41907 01330 80000 10300 20260 30053 40068 79590 8692/ 333 58008 70170 84709 82615 88458 81930==
41907,2023,04,27,12,00,AAXX 27124 41907 21450 41802 10237 20220 30050 40065 70196 84500 333 10365 58012 60117 70128 84315==
41907,2023,04,27,15,00,AAXX 27154 41907 02440 81802 10225 20210 30068 40083 8552/ 333 58013 70110 85615 88458==
41907,2023,04,27,18,00,AAXX 27184 41907 02940 02202 10222 20210 30073 40088 333 58021 70110==
41907,2023,04,27,21,00,AAXX 27214 41907 02940 00000 10213 20200 30067 40082 333 58015 70110==
41909,2023,04,21,00,00,AAXX 21003 41909 02456 60000 10256 20240 30006 40017 83530 333 59004 70000 83615 85360==
41909,2023,04,21,03,00,AAXX 21034 41909 02456 41302 10308 20250 30029 40040 82530 333 10258 58003 70000 82615 83360==
41909,2023,04,21,06,00,AAXX 21064 41909 02456 41802 10350 20240 30027 40039 82530 333 58017 70000 82615 83360==
41909,2023,04,21,09,00,AAXX 21094 41909 02456 61802 10355 20250 30000 40012 83510 333 58018 70000 83615 85458==
41909,2023,04,21,12,00,AAXX 21124 41909 02456 60000 10349 20250 39997 40009 83370 333 10365 58023 70000 82615 85458 81930==
41909,2023,04,21,15,00,AAXX 21154 41909 02430 61301 10267 20230 30029 40040 83530 333 58043 70000 83615 85360==
41909,2023,04,21,18,00,AAXX 21184 41909 02430 61301 10250 20220 30024 40035 83530 333 58022 70000 83615 85360==
41909,2023,04,21,21,00,AAXX 21214 41909 02940 00000 10240 20210 30027 40038 333 58032 70000==
41909,2023,04,22,00,00,AAXX 22004 41909 02956 00000 10228 20200 30040 40052 333 58034 70000==
41909,2023,04,22,03,00,AAXX 22034 41909 02956 00000 10284 20220 30050 40061 333 20222 58021 70000==
41909,2023,04,22,06,00,AAXX 22064 41909 02956 00000 10327 20230 30050 40061 333 58023 70000==
41909,2023,04,22,09,00,AAXX 22094 41909 02456 60000 10353 20190 30027 40039 83530 333 58027 70000 83615 84360==
41909,2023,04,22,12,00,AAXX 22124 41909 02456 50000 10335 20190 30012 40023 82530 333 10355 58015 70000 82615 84360==
41909,2023,04,22,15,00,AAXX 22154 41909 02940 00000 10284 20220 30027 40038 333 59002 70000==
41909,2023,04,22,18,00,AAXX 22184 41909 02940 00000 10275 20230 30038 40049 333 58014 70000==
41909,2023,04,22,21,00,AAXX 22214 41909 02940 00000 10260 20230 30051 40062 333 58024 70000==
41909,2023,04,23,00,00,AAXX 23004 41909 02456 60000 10256 20230 30051 40062 82530 333 58011 70000 83615 84362==
41909,2023,04,23,03,00,AAXX 23034 41909 02450 81802 10270 20230 30082 40093 8352/ 333 20252 58032 70000 82615 88458==
41909,2023,04,23,06,00,AAXX 23064 41909 02450 82302 10294 20170 30079 40090 8352/ 333 58029 70000 83615 88458==
41909,2023,04,23,09,00,AAXX 23094 41909 02350 81801 10280 20210 30070 40081 8562/ 333 58043 70000 84708 85615 88458==
41909,2023,04,23,12,00,AAXX 23124 41909 02450 81802 10264 20200 30063 40074 8452/ 333 10305 58051 70000 84615 88458==
41909,2023,04,23,15,00,AAXX 23154 41909 02440 51801 10238 20200 30070 40082 82530 333 58043 70000 82615 84360==
41909,2023,04,23,18,00,AAXX 23184 41909 02440 51801 10230 20200 30083 40095 82530 333 58045 70000 82615 84360==
41909,2023,04,23,21,00,AAXX 23214 41909 02940 00000 10220 20210 30088 40100 333 58037 70000==
41909,2023,04,24,00,00,AAXX 24004 41909 02956 00000 10216 20200 30090 40102 333 58039 70000==
41909,2023,04,24,03,00,AAXX 24034 41909 02956 00501 10270 20190 30119 40130 333 20210 58037 70000==
41909,2023,04,24,06,00,AAXX 24064 41909 02956 00501 10317 20180 30106 40117 333 58027 70000==
41909,2023,04,24,09,00,AAXX 24094 41909 02456 21802 10331 20170 30088 40099 82500 333 58018 70000 82618==
41909,2023,04,24,12,00,AAXX 24124 41909 01456 80902 10240 20210 30083 40095 72990 8532/ 333 10336 58020 70002 84615 88458 81930==
41909,2023,04,24,15,00,AAXX 24154 41909 02440 82702 10244 20210 30101 40113 8352/ 333 58031 70002 83615 88458==
41909,2023,04,24,18,00,AAXX 24184 41909 02440 82702 10239 20220 30094 40106 8352/ 333 58011 70002 83615 88458==
41909,2023,04,24,21,00,AAXX 24214 41909 02440 20000 10234 20210 30091 40103 82500 333 58003 70002 82618==
41909,2023,04,25,00,00,AAXX 25004 41909 02456 10000 10229 20210 30105 40117 81500 333 58015 70002 81618==
41909,2023,04,25,03,00,AAXX 25034 41909 02956 00501 10274 20200 30116 40127 333 20222 59003 70000==
41909,2023,04,25,06,00,AAXX 25064 41909 02956 02301 10324 20180 30106 40117 333 58000 70002==
41909,2023,04,25,09,00,AAXX 25094 41909 02456 20000 10344 20150 30081 40092 82530 333 59007 70002 82615==
41909,2023,04,25,12,00,AAXX 25124 41909 02456 20000 10322 20210 30058 40069 82500 333 10347 59025 70000 82618==
41909,2023,04,25,15,00,AAXX 25154 41909 02940 00000 10267 20220 30076 40087 333 59025 70000==
41909,2023,04,25,18,00,AAXX 25184 41909 02940 00000 10255 20220 30080 40091 333 59014 70000==
41909,2023,04,25,21,00,AAXX 25214 41909 02940 00000 10245 20230 30082 40093 333 59009 70000==
41909,2023,04,26,00,00,AAXX 26004 41909 02456 20000 10234 20220 30080 40092 82500 333 59025 70000 82615==
41909,2023,04,26,03,00,AAXX 26034 41909 02956 00000 10304 20180 30094 40105 333 20230 59022 70000==
41909,2023,04,26,06,00,AAXX 26064 41909 02456 60000 10339 20190 30086 40097 82510 333 59020 70000 82616 86458==
41909,2023,04,26,09,00,AAXX 26094 41909 02957 03101 10350 20170 30055 40066 333 59026 70000==
41909,2023,04,26,12,00,AAXX 26124 41909 02456 50000 10332 20200 30050 40061 82530 333 10360 59008 70000 82615 84365==
41909,2023,04,26,15,00,AAXX 26154 41909 01945 00000 10285 20230 30064 40075 70192 333 59012 70000==
41909,2023,04,26,18,00,AAXX 26184 41909 01940 00000 10264 20210 30060 40071 70092 333 59020 70000==
41909,2023,04,26,21,00,AAXX 26214 41909 02940 00000 10256 20220 30058 40069 333 59024 70000==
41909,2023,04,27,00,00,AAXX 27004 41909 02950 00000 10242 20220 30073 40085 333 59007 70000==
41909,2023,04,27,03,00,AAXX 27034 41909 02956 00000 10304 20210 30092 40103 333 20240 59002 70000==
41909,2023,04,27,06,00,AAXX 27064 41909 02956 00000 10344 20190 30088 40099 333 58002 70000==
41909,2023,04,27,09,00,AAXX 27094 41909 02456 80000 10350 20190 30058 40069 8352/ 333 58003 70000 83615 88458==
41909,2023,04,27,12,00,AAXX 27124 41909 01350 81801 10253 20210 30066 40078 72920 8592/ 333 10365 58016 70040 83708 85615 88458 81930==
41909,2023,04,27,15,00,AAXX 27154 41909 02330 81801 10230 20200 30079 40091 8532/ 333 58015 70040 85615 88458 81930==
41909,2023,04,27,18,00,AAXX 27184 41909 02940 01801 10227 20210 30085 40097 333 58025 70040==
41909,2023,04,27,21,00,AAXX 27214 41909 02940 00000 10220 20200 30085 40097 333 58027 70040==
41915,2023,04,21,00,00,AAXX 21003 41915 02450 80501 10232 20200 30013 40039 8562/ 333 58002 70013 82712 85615 88458==
41915,2023,04,21,03,00,AAXX 21034 41915 02456 83403 10252 20210 30038 40063 8552/ 333 20222 58012 70013 85616 88458==
41915,2023,04,21,06,00,AAXX 21064 41915 02456 70604 10295 20220 30028 40053 85570 333 58017 70013 85616 86458==
41915,2023,04,21,09,00,AAXX 21094 41915 01440 80503 10262 20210 30016 40041 79599 8592/ 333 58041 70025 85615 88458 81925==
41915,2023,04,21,12,00,AAXX 21124 41915 21450 81302 10215 20210 30015 40040 71796 8592/ 333 10302 58047 60077 70081 85615 88458 81925==
41915,2023,04,21,15,00,AAXX 21154 41915 01440 81302 10212 20190 30032 40058 71796 8692/ 333 58042 70101 85616 88458 81925==
41915,2023,04,21,18,00,AAXX 21184 41915 21440 80000 10209 20200 30027 40052 70296 8552/ 333 58017 60028 70102 85616 88458==
41915,2023,04,21,21,00,AAXX 21214 41915 02440 53601 10212 20200 30025 40050 82520 333 58025 70089 82616 85458==
41915,2023,04,22,00,00,AAXX 22004 41915 02450 23601 10210 20200 30031 40056 81530 333 58018 70089 81616==
41915,2023,04,22,03,00,AAXX 22034 41915 02956 00000 10278 20200 30049 40074 333 20207 58011 70089==
41915,2023,04,22,06,00,AAXX 22064 41915 02956 02702 10315 20190 30037 40061 333 58009 70089==
41915,2023,04,22,09,00,AAXX 22094 41915 02956 02502 10330 20200 30017 40042 333 58001 70077==
41915,2023,04,22,12,00,AAXX 22124 41915 02956 00000 10306 20220 30008 40033 333 10340 59007 70021==
41915,2023,04,22,15,00,AAXX 22154 41915 02950 02701 10270 20220 30026 40051 333 59006 70001==
41915,2023,04,22,18,00,AAXX 22184 41915 02950 00000 10250 20210 30032 40057 333 59005 70000==
41915,2023,04,22,21,00,AAXX 22214 41915 02945 20000 10225 20200 30032 40057 81530 333 58007 70000 81616==
41915,2023,04,23,00,00,AAXX 23004 41915 02950 20000 10230 20200 30049 40075 81530 333 59018 70000 81616==
41915,2023,04,23,03,00,AAXX 23034 41915 02450 80000 10270 20230 30072 40098 8552/ 333 20221 58023 70000 85616 88458==
41915,2023,04,23,06,00,AAXX 23064 41915 22456 83402 10265 20210 30069 40095 8632/ 333 58032 60177 70170 85616 88458 81928==
41915,2023,04,23,09,00,AAXX 23094 41915 02956 83502 10241 20200 30077 40102 8642/ 333 58060 70170 85616 88458==
41915,2023,04,23,12,00,AAXX 23124 41915 02450 70502 10235 20210 30058 40083 85470 333 10280 58050 70170 84615 85458==
41915,2023,04,23,15,00,AAXX 23154 41915 02450 70000 10221 20200 30067 40092 85470 333 58041 70170 84616 85458==
41915,2023,04,23,18,00,AAXX 23184 41915 02450 50000 10202 20190 30071 40097 83420 333 58039 70170 82616 84458==
41915,2023,04,23,21,00,AAXX 23214 41915 01940 00000 10195 20195 30074 40100 70520 333 58042 70170==
41915,2023,04,24,00,00,AAXX 24004 41915 01904 00000 10196 20196 30085 40111 74440 333 58036 70170==
41915,2023,04,24,03,00,AAXX 24034 41915 01956 03602 10264 20200 30106 40131 70240 333 20184 58034 70170==
41915,2023,04,24,06,00,AAXX 24064 41915 01456 12202 10320 20180 30099 40124 70341 81501 333 58030 70000 81617==
41915,2023,04,24,09,00,AAXX 24094 41915 02456 32601 10336 20150 30079 40103 82501 333 58002 70000 82616 83080==
41915,2023,04,24,12,00,AAXX 24124 41915 02456 60000 10297 20230 30065 40090 85420 333 10344 58007 70000 84616 86458==
41915,2023,04,24,15,00,AAXX 24154 41915 02450 50000 10257 20240 30082 40108 84420 333 58015 70000 83616 85458==
41915,2023,04,24,18,00,AAXX 24184 41915 02450 50000 10257 20240 30082 40108 84420 333 58015 70000 83616 85458==
41915,2023,04,24,21,00,AAXX 24214 41915 02450 60000 10233 20220 30088 40113 85420 333 58014 70000 84616 86458==
41915,2023,04,25,00,00,AAXX 25004 41915 02450 40000 10218 20210 30086 40111 83401 333 58001 70000 82616 84080==
41915,2023,04,25,03,00,AAXX 25034 41915 02956 03401 10300 20200 30104 40129 333 20215 59001 70000==
41915,2023,04,25,06,00,AAXX 25064 41915 02456 12802 10330 20160 30093 40118 81400 333 59006 70000 81616==
41915,2023,04,25,09,00,AAXX 25094 41915 02958 12802 10340 20170 30059 40083 81101 333 59020 70000 81825==
41915,2023,04,25,12,00,AAXX 25124 41915 02956 10000 10316 20230 30049 40074 80001 333 10348 59016 70000 81080==
41915,2023,04,25,15,00,AAXX 25154 41915 02950 00000 10252 20230 30068 40093 333 59014 70000==
41915,2023,04,25,18,00,AAXX 25184 41915 02950 00000 10243 20230 30069 40095 333 59017 70000==
41915,2023,04,25,21,00,AAXX 25214 41915 01940 00000 10226 20220 30066 40092 70500 333 59022 70000==
41915,2023,04,26,00,00,AAXX 26004 41915 01940 10000 10220 20210 30074 40099 70510 80002 333 59012 70000 81080==
41915,2023,04,26,03,00,AAXX 26034 41915 02956 00000 10288 20220 30084 40109 333 20216 59020 70000==
41915,2023,04,26,06,00,AAXX 26064 41915 02456 20000 10342 20180 30074 40099 81501 333 59019 70000 81616==
41915,2023,04,26,09,00,AAXX 26094 41915 02456 21601 10340 20340 30047 40071 81501 333 59012 70000 81616==
41915,2023,04,26,12,00,AAXX 26124 41915 02456 10000 10305 20230 30042 40067 81500 333 10351 59007 70000 81616==
41915,2023,04,26,15,00,AAXX 26154 41915 02956 00000 10245 20230 30056 40082 333 59012 70000==
41915,2023,04,26,18,00,AAXX 26184 41915 02950 00000 10235 20220 30052 40078 333 59017 70000==
41915,2023,04,26,21,00,AAXX 26214 41915 02950 00000 10223 20210 30049 40074 333 59017 70000==
41915,2023,04,27,00,00,AAXX 27004 41915 01950 00000 10220 20210 30058 40083 70500 333 59016 70000==
41915,2023,04,27,03,00,AAXX 27034 41915 02956 00201 10304 20200 30085 40110 333 20217 58001 70000==
41915,2023,04,27,06,00,AAXX 27064 41915 02456 13602 10346 20190 30074 40098 81500 333 58000 70000 81617==
41915,2023,04,27,09,00,AAXX 27094 41915 02458 11801 10354 20170 30044 40068 81430 333 59003 70000 81616==
41915,2023,04,27,12,00,AAXX 27124 41915 02450 80000 10302 20240 30042 40067 8432/ 333 10366 58000 70000 83616 88458 81928==
41915,2023,04,27,15,00,AAXX 27154 41915 01440 81803 10263 20160 30081 40107 70299 8531/ 333 58025 70000 84615 88458 81928==
41915,2023,04,27,18,00,AAXX 27184 41915 01440 80502 10245 20200 30086 40112 70292 8531/ 333 58034 70000 85615 88458 81928==
41915,2023,04,27,21,00,AAXX 27214 41915 02950 00000 10217 20206 30072 40097 333 58023 70000==
41923,2023,04,21,00,00,AAXX 21004 41923 01/35 21803 10286 20260 30015 40025 70510 82030 333 59003 70000 82362==
41923,2023,04,21,03,00,AAXX 21034 41923 02450 21703 10320 20250 30037 40047 81530 333 20284 58005 70000 81616==
41923,2023,04,21,06,00,AAXX 21064 41923 02356 51802 10352 20240 30038 40048 84630 333 58020 70000 81708 84615==
41923,2023,04,21,09,00,AAXX 21094 41923 02456 61802 10353 20230 30008 40018 84430 333 58018 70000 82616 85360==
41923,2023,04,21,12,00,AAXX 21124 41923 01340 71803 10293 20210 39994 40004 79522 85970 333 10360 58013 70000 82709 83615 86458 81930==
41923,2023,04,21,15,00,AAXX 21154 41923 41340 60602 10262 20180 30038 40048 70196 84670 333 58043 82709 83615 86458==
41923,2023,04,21,18,00,AAXX 21184 41923 11340 60000 10265 20190 30026 40036 60006 70296 84670 333 58005 82709 83615 85458==
41923,2023,04,21,21,00,AAXX 21214 41923 42340 60000 10249 20200 30030 40040 84670 333 58014 82709 83615 85458==
41923,2023,04,22,00,00,AAXX 22004 41923 41/40 30000 10236 20210 30041 40050 70500 82031 333 58026 82360==
41923,2023,04,22,03,00,AAXX 22034 41923 42950 00000 10299 20210 30060 40070 333 20234 58023==
41923,2023,04,22,06,00,AAXX 22064 41923 42/56 22102 10346 20200 30054 40064 82030 333 58016 82360==
41923,2023,04,22,09,00,AAXX 22094 41923 42350 62402 10354 20170 30028 40038 84670 333 58020 82709 83615 85458==
41923,2023,04,22,12,00,AAXX 22124 41923 01340 72102 10296 20210 30019 40029 79522 85970 333 10362 58025 70010 82709 83615 86458 81930==
41923,2023,04,22,15,00,AAXX 22154 41923 01340 60000 10278 20220 30031 40041 70196 81670 333 59007 70014 82703 83615 85458==
41923,2023,04,22,18,00,AAXX 22184 41923 11/40 30000 10278 20220 30043 40053 60006 70196 83030 333 58017 70014 83360==
41923,2023,04,22,21,00,AAXX 22214 41923 01/40 30000 10276 20220 30047 40057 70500 83030 333 58017 70014 83360==
41923,2023,04,23,00,00,AAXX 23004 41923 01335 73303 10280 20200 30056 40066 70522 85670 333 58015 70014 82709 84615 85459==
41923,2023,04,23,03,00,AAXX 23034 41923 01340 82703 10288 20160 30086 40096 76222 8632/ 333 20232 58026 70014 83708 85615 88458 81930==
41923,2023,04,23,06,00,AAXX 23064 41923 21340 82104 10294 20140 30081 40091 76062 8632/ 333 58027 60007 70014 83708 85615 88458 81930==
41923,2023,04,23,09,00,AAXX 23094 41923 01440 83302 10281 20170 30075 40085 70562 8532/ 333 58047 70014 85614 88460 81930==
41923,2023,04,23,12,00,AAXX 23124 41923 21440 80302 10264 20180 30071 40081 70562 8532/ 333 10303 58051 60005 85614 88460 81930==
41923,2023,04,23,15,00,AAXX 23154 41923 41940 00902 10245 20210 30082 40091 70521 333 58051==
41923,2023,04,23,18,00,AAXX 23184 41923 41940 00602 10230 20200 30086 40096 70500 333 58043==
41923,2023,04,23,21,00,AAXX 23214 41923 41940 00000 10225 20200 30090 40100 70500 333 58043==
41923,2023,04,24,00,00,AAXX 24004 41923 41940 00000 10218 20200 30098 40108 70500 333 58042==
41923,2023,04,24,03,00,AAXX 24034 41923 42956 00302 10283 20180 30123 40133 333 20215 58037==
41923,2023,04,24,06,00,AAXX 24064 41923 42/56 22703 10336 20170 30114 40124 82030 333 58033 82365==
41923,2023,04,24,09,00,AAXX 24094 41923 02456 62402 10343 20150 30093 40103 84430 333 58018 70000 82616 83824 85360==
41923,2023,04,24,12,00,AAXX 24124 41923 01350 82102 10282 20190 30088 40098 76122 8532/ 333 10351 58017 70000 82709 84615 88458 81930==
41923,2023,04,24,15,00,AAXX 24154 41923 41345 60000 10278 20180 30095 40105 70162 84630 333 58013 82709 83615 85360==
41923,2023,04,24,18,00,AAXX 24184 41923 11/40 30000 10254 20180 30100 40109 60006 70162 83030 333 58014 83360==
41923,2023,04,24,21,00,AAXX 24214 41923 41/40 20000 10254 20180 30104 40113 70500 82030 333 58014 82360==
41923,2023,04,25,00,00,AAXX 25004 41923 41/40 20000 10252 20190 30109 40118 70500 82030 333 58011 82360==
41923,2023,04,25,03,00,AAXX 25034 41923 42/56 20000 10302 20190 30120 40130 82030 333 20242 59003 82360==
41923,2023,04,25,06,00,AAXX 25064 41923 42/56 32404 10344 20140 30106 40116 83030 333 59008 83360==
41923,2023,04,25,09,00,AAXX 25094 41923 42/56 22403 10351 20170 30080 40090 82030 333 59013 82362==
41923,2023,04,25,12,00,AAXX 25124 41923 42450 52402 10325 20170 30064 40074 83431 333 10352 59024 82616 83360==
41923,2023,04,25,15,00,AAXX 25154 41923 02/50 20000 10302 20190 30084 40094 82030 333 59011 70000 82362==
41923,2023,04,25,18,00,AAXX 25184 41923 02956 00000 10280 20180 30082 40092 333 59018 70000==
41923,2023,04,25,21,00,AAXX 25214 41923 02/45 20000 10263 20190 30084 40094 82030 333 59020 70000 82360==
41923,2023,04,26,00,00,AAXX 26004 41923 01/40 40000 10245 20210 30085 40094 70510 83031 333 59024 70000 83360==
41923,2023,04,26,03,00,AAXX 26034 41923 02/40 20000 10327 20180 30099 40109 82031 333 20244 59021 70000 82362==
41923,2023,04,26,06,00,AAXX 26064 41923 02456 50603 10360 20170 30088 40098 84430 333 59018 70000 82615 83360==
41923,2023,04,26,09,00,AAXX 26094 41923 02456 53303 10370 20120 30057 40067 82530 333 59023 70000 82615 85365==
41923,2023,04,26,12,00,AAXX 26124 41923 01/50 22702 10341 20130 30053 40063 70511 82030 333 10375 59011 70000 82365==
41923,2023,04,26,15,00,AAXX 26154 41923 01440 83302 10302 20150 30059 40069 70522 8532/ 333 59025 70000 85614 88460 81930==
41923,2023,04,26,18,00,AAXX 26184 41923 01440 50000 10295 20180 30064 40074 70522 82530 333 59018 70000 82615 85365==
41923,2023,04,26,21,00,AAXX 26214 41923 01940 00000 10275 20200 30072 40082 70500 333 59012 70000==
41923,2023,04,27,00,00,AAXX 27004 41923 01940 00000 10271 20190 30081 40091 70500 333 59004 70000==
41923,2023,04,27,03,00,AAXX 27034 41923 02956 01803 10332 20180 30097 40107 333 20264 59002 70000==
41923,2023,04,27,06,00,AAXX 27064 41923 02956 01802 10360 20190 30089 40099 333 58001 70000==
41923,2023,04,27,09,00,AAXX 27094 41923 02450 52102 10370 20170 30055 40065 82530 333 59002 70000 82615 85360==
41923,2023,04,27,12,00,AAXX 27124 41923 01340 82408 10232 20200 30097 40107 79592 8692/ 333 10373 58044 70010 83709 84615 88458 81930==
41923,2023,04,27,15,00,AAXX 27154 41923 01340 62202 10242 20200 30093 40102 70196 84670 333 58034 70028 82709 83615 85458==
41923,2023,04,27,18,00,AAXX 27184 41923 11340 60000 10248 20190 30085 40094 60016 70296 84670 333 58021 70028 82709 83615 85458==
41923,2023,04,27,21,00,AAXX 27214 41923 01/40 30000 10240 20190 30091 40100 70520 83030 333 58019 70028 83360==
41926,2023,04,21,00,00,AAXX 21003 41926 01950 00000 10270 20260 30099 40112 70500 333 58003 70000==
41926,2023,04,21,03,00,AAXX 21034 41926 02456 70000 10310 20260 30027 40040 83570 333 20270 58011 70000 83618 85459==
41926,2023,04,21,06,00,AAXX 21064 41926 02457 62703 10380 20100 30018 40031 84530 333 58015 70000 84618 84362==
41926,2023,04,21,09,00,AAXX 21094 41926 02457 72503 10380 20140 30006 40019 83570 333 58031 70000 83618 85459==
41926,2023,04,21,12,00,AAXX 21124 41926 02456 72703 10335 20130 30004 40017 83510 333 10395 58040 70000 83618 86459==
41926,2023,04,21,15,00,AAXX 21154 41926 02450 42702 10305 20160 30017 40030 84500 333 58034 70000 84618==
41926,2023,04,21,18,00,AAXX 21184 41926 02450 31802 10290 20160 30010 40023 83500 333 58007 70000 83618==
41926,2023,04,21,21,00,AAXX 21214 41926 01950 00000 10260 20170 30018 40031 70500 333 58022 70000==
41926,2023,04,22,00,00,AAXX 22004 41926 01950 00000 10220 20180 30031 40044 70500 333 58032 70000==
41926,2023,04,22,03,00,AAXX 22034 41926 02950 00000 10300 20210 30036 40050 333 20218 58009 70000==
41926,2023,04,22,06,00,AAXX 22064 41926 02/57 22702 10360 20190 30043 40056 82030 333 58025 70000 82362==
41926,2023,04,22,09,00,AAXX 22094 41926 02457 60000 10365 20160 30020 40033 83570 333 58014 70000 83618 85459==
41926,2023,04,22,12,00,AAXX 22124 41926 02/56 30000 10340 20170 30009 40022 83030 333 10375 58005 70000 83362==
41926,2023,04,22,15,00,AAXX 22154 41926 02/50 30000 10285 20210 30029 40042 83030 333 58012 70000 83362==
41926,2023,04,22,18,00,AAXX 22184 41926 02450 62705 10280 20150 30041 40055 84510 333 58031 70000 84618 86459==
41926,2023,04,22,21,00,AAXX 22214 41926 02450 60000 10260 20170 30044 40058 84510 333 58026 70000 84618 86459==
41926,2023,04,23,00,00,AAXX 23004 41926 02450 60000 10240 20180 30051 40064 84510 333 58020 70000 84618 86459==
41926,2023,04,23,03,00,AAXX 23034 41926 02450 72502 10280 20170 30080 40093 84510 333 20240 58049 70000 84618 86459==
41926,2023,04,23,06,00,AAXX 23064 41926 02456 62302 10310 20160 30073 40086 83510 333 58030 70000 83616 85459==
41926,2023,04,23,09,00,AAXX 23094 41926 02456 63101 10325 20150 30055 40068 83510 333 58035 70000 83618 85459==
41926,2023,04,23,12,00,AAXX 23124 41926 02450 53102 10304 20180 30045 40059 82510 333 10344 58036 70000 82618 85459==
41926,2023,04,23,15,00,AAXX 23154 41926 02450 51802 10270 20190 30061 40074 82510 333 58032 70000 82618 85459==
41926,2023,04,23,18,00,AAXX 23184 41926 02450 61803 10248 20200 30083 40096 83510 333 58042 70000 83618 86459==
41926,2023,04,23,21,00,AAXX 23214 41926 02/50 30000 10230 20200 30082 40095 83010 333 58038 70000 83459==
41926,2023,04,24,00,00,AAXX 24004 41926 02950 00000 10218 20210 30083 40097 333 58032 70000==
41926,2023,04,24,03,00,AAXX 24034 41926 02956 00000 10290 20200 30112 40125 333 20218 58032 70000==
41926,2023,04,24,06,00,AAXX 24064 41926 02456 31802 10335 20190 30103 40116 83500 333 58030 70000 83618==
41926,2023,04,24,09,00,AAXX 24094 41926 41450 81804 10230 20200 30099 40113 79520 8332/ 333 58044 82618 88458 81930==
41926,2023,04,24,12,00,AAXX 24124 41926 21450 30000 10245 20210 30074 40088 70196 81510 333 10346 58029 60075 70070 81618 83459==
41926,2023,04,24,15,00,AAXX 24154 41926 02/50 30000 10234 20200 30098 40111 83010 333 58037 70070 83459==
41926,2023,04,24,18,00,AAXX 24184 41926 02/50 20000 10220 20200 30088 40102 82010 333 58005 70070 82459==
41926,2023,04,24,21,00,AAXX 24214 41926 01950 00000 10210 20200 30096 40110 70500 333 58014 70070==
41926,2023,04,25,00,00,AAXX 25004 41926 01950 20000 10205 20200 30096 40110 70500 82500 333 58013 70070 82618==
41926,2023,04,25,03,00,AAXX 25034 41926 02456 63301 10233 20210 30116 40130 82530 333 20205 58004 70000 82618 86362==
41926,2023,04,25,06,00,AAXX 25064 41926 02456 50000 10322 20190 30106 40120 82530 333 58003 70070 82618 85362==
41926,2023,04,25,09,00,AAXX 25094 41926 02/57 31802 10333 20180 30074 40088 83030 333 59025 70070 83362==
41926,2023,04,25,12,00,AAXX 25124 41926 02456 50000 10310 20220 30055 40068 81530 333 10347 59019 70000 81618 84362==
41926,2023,04,25,15,00,AAXX 25154 41926 02/50 10000 10260 20240 30070 40083 81030 333 59028 70000 81362==
41926,2023,04,25,18,00,AAXX 25184 41926 02950 00000 10235 20220 30068 40068 333 59030 70000==
41926,2023,04,25,21,00,AAXX 25214 41926 01950 00000 10230 20210 30066 40079 70500 333 59030 70000==
41926,2023,04,26,00,00,AAXX 26004 41926 01/40 50000 10222 20210 30069 40083 70520 85030 333 59027 70000 85362==
41926,2023,04,26,03,00,AAXX 26034 41926 02956 20000 10302 20220 30092 40105 80001 333 20222 59024 70000 82080==
41926,2023,04,26,06,00,AAXX 26064 41926 02456 62702 10346 20170 30084 40097 83510 333 59022 70000 83618 86459==
41926,2023,04,26,09,00,AAXX 26094 41926 02457 60000 10350 20180 30050 40063 84310 333 59024 70000 83618 86459 81930==
41926,2023,04,26,12,00,AAXX 26124 41926 02456 50000 10315 20230 30047 40060 81510 333 10368 59008 70000 81618 85459==
41926,2023,04,26,15,00,AAXX 26154 41926 01450 81803 10237 20220 30063 40077 79596 8432/ 333 59007 70034 83616 88458 81930==
41926,2023,04,26,18,00,AAXX 26184 41926 21/50 50000 10230 20220 30056 40069 70196 85030 333 59012 60038 70034 85362==
41926,2023,04,26,21,00,AAXX 26214 41926 01950 00000 10220 20210 30059 40072 70500 333 59007 70034==
41926,2023,04,27,00,00,AAXX 27004 41926 01950 00000 10218 20210 30062 40075 70500 333 59007 70034==
41926,2023,04,27,03,00,AAXX 27034 41926 02956 02301 10290 20240 30087 40100 333 20215 59005 70034==
41926,2023,04,27,06,00,AAXX 27064 41926 02956 30000 10343 20190 30081 40094 80001 333 59003 70034 83080==
41926,2023,04,27,09,00,AAXX 27094 41926 01450 83308 10262 20180 30058 40071 71722 8432/ 333 58008 70034 83617 88458 81930==
41926,2023,04,27,12,00,AAXX 27124 41926 21450 60000 10224 20210 30055 40068 70196 83310 333 10364 58008 60127 70154 82618 81930==
41926,2023,04,27,15,00,AAXX 27154 41926 02450 61802 10224 20210 30076 40090 82510 333 58013 70120 82618 86459==
41926,2023,04,27,18,00,AAXX 27184 41926 01940 00000 10215 20210 30076 40089 70520 333 58020 70120==
41926,2023,04,27,21,00,AAXX 27214 41926 01940 00000 10212 20200 30077 40091 70500 333 58018 70120==
41927,2023,04,21,00,00,AAXX 21003 41927 32956 01701 10278 20270 39989 40003 333 59006 70000=
41927,2023,04,21,06,00,AAXX 21064 41927 32957 22201 10345 20230 30016 40029 82030 333 56090 58016 70000 82362=
41927,2023,04,21,12,00,AAXX 21124 41927 32456 62701 10340 20250 39977 49991 83510 333 10380 56690 58014 70000 83617 85459=
41927,2023,04,21,18,00,AAXX 21184 41927 32456 50000 10290 20270 30009 40024 83510 333 56490 58017 70000 83617 84459=
41927,2023,04,22,00,00,AAXX 22004 41927 32456 21802 10240 20230 30009 40024 82500 333 56400 58020 70000 82618=
41927,2023,04,22,06,00,AAXX 22064 41927 32958 01402 10340 20190 30034 40048 333 58018 70000=
41927,2023,04,22,12,00,AAXX 22124 41927 32957 00000 10330 20230 39999 40013 333 10372 58022 70000=
41927,2023,04,22,18,00,AAXX 22184 41927 NIL=
41927,2023,04,23,00,00,AAXX 23004 41927 32456 61802 10245 20240 30025 40040 83510 333 56490 58016 70000 83617 85459=
41927,2023,04,23,06,00,AAXX 23064 41927 32456 72501 10284 20160 30069 40084 83510 333 56590 58035 70000 83617 87459=
41927,2023,04,23,12,00,AAXX 23124 41927 32457 61901 10280 20180 30054 40068 83510 333 10317 56490 58055 70000 83618 86459=
41927,2023,04,24,00,00,AAXX 24004 41927 32956 01801 10215 20210 30080 40095 333 58055 70000=
41927,2023,04,24,06,00,AAXX 24064 41927 32958 01801 10335 20180 30101 40115 333 58032 70000=
41927,2023,04,24,12,00,AAXX 24124 41927 11457 51503 10230 20210 30079 40093 60077 70196 82510 333 10350 56390 58025 70068 82618 85459=
41927,2023,04,24,18,00,AAXX 24183 41927 32456 61701 10230 20210 30096 40111 83510 333 56490 58031 70068 83617 86458=
41927,2023,04,25,00,00,AAXX 25004 41927 31950 31801 10208 20200 30093 40107 70520 83030 333 56090 58013 70068 83362=
41927,2023,04,25,06,00,AAXX 25064 41927 32957 02601 10315 20190 30100 40114 333 59001 70068=
41927,2023,04,25,12,00,AAXX 25124 41927 32957 40000 10315 20200 30059 40073 82031 333 10338 56099 59020 70000 82362=
41927,2023,04,25,18,00,AAXX 25184 41927 32956 00000 10250 20230 30075 40090 333 59021 70000=
41927,2023,04,26,06,00,AAXX 26064 41927 32958 40000 10335 20200 30083 40097 84010 333 56090 59017 70000 84459=
41927,2023,04,26,12,00,AAXX 26124 41927 32457 41601 10316 20240 30042 40056 82510 333 10357 56490 59017 70000 82618 84459=
41927,2023,04,26,18,00,AAXX 26184 41927 NIL=
41927,2023,04,27,00,00,AAXX 27004 41927 32956 00000 10228 20220 30054 40069 333 59018 70000=
41927,2023,04,27,06,00,AAXX 27064 41927 32958 01801 10360 20190 30072 40086 333 59011 70000=
41927,2023,04,27,12,00,AAXX 27124 41927 11457 50000 10223 20180 30053 40068 60117 70196 83510 333 10380 56490 58006 70114 83617 84459=
41927,2023,04,27,18,00,AAXX 27184 41927 32450 51601 10216 20200 30085 40099 83510 333 56490 58022 70114 83617 84459=
41929,2023,04,21,00,00,AAXX 21003 41929 02/56 31802 10278 20260 39996 40005 83010 333 59006 70000 83462==
41929,2023,04,21,03,00,AAXX 21034 41929 02456 61402 10310 20260 30028 40037 83510 333 20271 59004 70000 83618 85462==
41929,2023,04,21,06,00,AAXX 21064 41929 02456 41802 10342 20250 30030 40039 84500 333 58016 70000 84618==
41929,2023,04,21,09,00,AAXX 21094 41929 02457 51804 10367 20270 30002 40011 82510 333 58017 70000 82618 85462==
41929,2023,04,21,12,00,AAXX 21124 41929 02456 52703 10340 20220 39999 40008 82510 333 10370 58030 70000 82618 85462==
41929,2023,04,21,15,00,AAXX 21154 41929 02456 51802 10278 20210 30031 40040 82510 333 58045 70000 82618 85462==
41929,2023,04,21,18,00,AAXX 21184 41929 02/56 31303 10259 20220 30019 40028 83010 333 58013 70000 83462==
41929,2023,04,21,21,00,AAXX 21214 41929 02956 01604 10259 20220 30019 40028 333 58013 70000==
41929,2023,04,22,00,00,AAXX 22004 41929 02956 00000 10235 20220 30031 40040 333 58035 70000==
41929,2023,04,22,03,00,AAXX 22034 41929 02957 00000 10298 20230 30049 40058 333 20225 58021 70000==
41929,2023,04,22,06,00,AAXX 22064 41929 02959 01804 10356 20190 30048 40057 333 58018 70000==
41929,2023,04,22,09,00,AAXX 22094 41929 02958 01804 10359 20200 30027 40036 333 58025 70000==
41929,2023,04,22,12,00,AAXX 22124 41929 02457 41803 10350 20210 30010 40019 84410 333 10368 58011 70000 83618==
41929,2023,04,22,15,00,AAXX 22154 41929 02956 00000 10288 20230 30026 40035 333 59005 70000==
41929,2023,04,22,18,00,AAXX 22184 41929 02/56 40000 10258 20230 30038 40048 84010 333 58020 70000 84462==
41929,2023,04,22,21,00,AAXX 22214 41929 02456 51804 10258 20230 30039 40048 82510 333 58020 70000 82618 84462==
41929,2023,04,23,00,00,AAXX 23004 41929 02456 83102 10258 20200 30044 40053 8351/ 333 58013 70000 83618 88462==
41929,2023,04,23,03,00,AAXX 23034 41929 02/56 53203 10278 20200 30085 40094 85010 333 20252 58036 70000 85462==
41929,2023,04,23,06,00,AAXX 23064 41929 01456 81802 10268 20210 30085 40094 76122 8352/ 333 58037 70002 83618 88462==
41929,2023,04,23,09,00,AAXX 23094 41929 02456 80000 10272 20200 30069 40078 8351/ 333 58042 70002 83618 88462==
41929,2023,04,23,12,00,AAXX 23124 41929 02456 83602 10280 20200 30061 40070 8351/ 333 10282 58051 70002 83618 88462==
41929,2023,04,23,15,00,AAXX 23154 41929 02/56 42702 10246 20210 30071 40080 84010 333 58045 70002 84462==
41929,2023,04,23,18,00,AAXX 23184 41929 02956 00902 10230 20210 30084 40093 333 58045 70002==
41929,2023,04,23,21,00,AAXX 23214 41929 02956 02803 10230 20210 30084 40093 333 58045 70002==
41929,2023,04,24,00,00,AAXX 24004 41929 02956 00000 10215 20210 30086 40096 333 58042 70002==
41929,2023,04,24,03,00,AAXX 24034 41929 02956 02302 10285 20210 30119 40128 333 20208 58034 70000==
41929,2023,04,24,06,00,AAXX 24064 41929 02456 23202 10335 20180 30110 40119 82500 333 58025 70000 82618==
41929,2023,04,24,09,00,AAXX 24094 41929 02458 50000 10343 20180 30088 40097 85410 333 58019 70000 82618 85462==
41929,2023,04,24,12,00,AAXX 24124 41929 02456 73403 10255 20210 30080 40089 83410 333 10352 58019 70000 82618 86462==
41929,2023,04,24,15,00,AAXX 24154 41929 02456 50000 10244 20210 30092 40101 82510 333 58021 70000 82618 85462==
41929,2023,04,24,18,00,AAXX 24184 41929 02956 00000 10231 20220 30094 40103 333 58010 70000==
41929,2023,04,24,21,00,AAXX 24214 41929 02956 00000 10231 20220 30094 40101 333 58010 70000==
41929,2023,04,25,00,00,AAXX 25004 41929 02/56 30000 10222 20210 30100 40110 83080 333 58014 70000 83365==
41929,2023,04,25,03,00,AAXX 25034 41929 02956 00000 10298 20200 30125 40134 333 20214 58006 70000==
41929,2023,04,25,06,00,AAXX 25064 41929 02/58 33202 10340 20190 30107 40116 83030 333 58003 70000 83365==
41929,2023,04,25,09,00,AAXX 25094 41929 42558 32503 10355 20180 30077 40086 83100 333 59011 83825==
41929,2023,04,25,12,00,AAXX 25124 41929 02/57 43302 10328 20210 30059 40068 84010 333 10356 59021 70000 84462==
41929,2023,04,25,15,00,AAXX 25154 41929 02956 00000 10270 20220 30076 40085 333 59016 70000==
41929,2023,04,25,18,00,AAXX 25184 41929 NIL=
41929,2023,04,25,21,00,AAXX 25214 41929 02956 00000 10245 20230 30073 40082 333 59021 70000==
41929,2023,04,26,00,00,AAXX 26004 41929 02956 40000 10225 20220 30076 40085 81510 333 59024 70000 84462==
41929,2023,04,26,03,00,AAXX 26034 41929 02956 30000 10320 20210 30094 40103 333 20221 59031 70000 83462==
41929,2023,04,26,06,00,AAXX 26064 41929 02956 21302 10350 20190 30087 40096 82500 333 59020 70000 82618==
41929,2023,04,26,09,00,AAXX 26094 41929 02558 33603 10362 20170 30057 40066 83100 333 59020 70000 83825==
41929,2023,04,26,12,00,AAXX 26124 41929 02456 40000 10337 20200 30048 40057 84400 333 10365 59011 70000 82618==
41929,2023,04,26,15,00,AAXX 26154 41929 02956 00000 10285 20230 30063 40072 333 59013 70000==
41929,2023,04,26,18,00,AAXX 26184 41929 02956 00000 10260 20210 30059 40068 333 59014 70000==
41929,2023,04,26,21,00,AAXX 26214 41929 02956 00000 10260 20210 30059 40068 333 59014 70000==
41929,2023,04,27,00,00,AAXX 27004 41929 02956 00000 10235 20220 30067 40076 333 59009 70000==
41929,2023,04,27,03,00,AAXX 27034 41929 02956 00000 10312 20210 30096 40105 333 20230 58002 70000==
41929,2023,04,27,06,00,AAXX 27064 41929 02959 00000 10360 20210 30088 40097 333 58001 70000==
41929,2023,04,27,09,00,AAXX 27094 41929 02958 61304 10355 20210 30054 40063 82510 333 59003 70000 82618 86462==
41929,2023,04,27,12,00,AAXX 27124 41929 01456 83504 10223 20210 30094 40103 79596 8592/ 333 10365 58046 70280 84616 88460 81930==
41929,2023,04,27,15,00,AAXX 27154 41929 01456 81705 10230 20210 30056 40065 79596 8592/ 333 59007 70322 84615 88459 81930==
41929,2023,04,27,18,00,AAXX 27184 41929 21/56 30000 10223 20210 30084 40094 70196 83010 333 58025 60048 70322 83462==
41929,2023,04,27,21,00,AAXX 27214 41929 02/56 30000 10223 20210 30084 40094 83010 333 58025 70322 83462==
41933,2023,04,21,00,00,AAXX 21003 41933 01440 70000 10270 20260 30016 40024 70522 84520 333 59008 70000 84616 87458==
41933,2023,04,21,03,00,AAXX 21034 41933 01450 41803 10306 20270 30033 40042 70522 84400 333 20270 59003 70000 83618==
41933,2023,04,21,06,00,AAXX 21064 41933 01450 71805 10330 20260 30034 40042 70521 83510 333 58013 70000 83616 86458==
41933,2023,04,21,09,00,AAXX 21094 41933 01450 71804 10326 20270 30005 40013 70522 83510 333 58007 70000 83616 84458==
41933,2023,04,21,12,00,AAXX 21124 41933 02350 80906 10266 20190 30024 40032 8672/ 333 10336 58037 70000 83709 84615 88457==
41933,2023,04,21,15,00,AAXX 21154 41933 01440 80911 10215 20190 30036 40045 70296 8672/ 333 58033 70130 83708 84615 88457==
41933,2023,04,21,18,00,AAXX 21184 41933 11440 61802 10212 20190 30039 40047 60136 70196 84520 333 58021 70130 84616 86458==
41933,2023,04,21,21,00,AAXX 21214 41933 02440 60000 10215 20210 30028 40037 84520 333 58023 70130 84616 86458==
41933,2023,04,22,00,00,AAXX 22004 41933 02440 60000 10216 20210 30028 40037 84520 333 58012 70130 84616 86458==
41933,2023,04,22,03,00,AAXX 22034 41933 01950 00000 10285 20220 30053 40061 70500 333 20206 58020 70000==
41933,2023,04,22,06,00,AAXX 22064 41933 02456 22002 10330 20230 30049 40058 82500 333 58015 70130 82618==
41933,2023,04,22,09,00,AAXX 22094 41933 02456 51802 10340 20210 30026 40034 82503 333 58020 70130 82618 84074==
41933,2023,04,22,12,00,AAXX 22124 41933 02/56 50000 10324 20230 30012 40020 82032 333 10350 59012 70130 82362 84074==
41933,2023,04,22,15,00,AAXX 22154 41933 01950 00000 10280 20240 30031 40039 70500 333 59005 70000==
41933,2023,04,22,18,00,AAXX 22184 41933 01450 41801 10264 20230 30042 40051 70520 82510 333 58003 70000 82616 84458==
41933,2023,04,22,21,00,AAXX 22214 41933 01430 50000 10258 20250 30039 40048 71022 82530 333 58011 70000 82616 84362==
41933,2023,04,23,00,00,AAXX 23004 41933 01420 40000 10254 20240 30053 40062 71022 82540 333 58025 70000 82616 84362==
41933,2023,04,23,03,00,AAXX 23034 41933 01450 50000 10285 20260 30083 40091 70522 82530 333 20252 58030 70000 82616 85362==
41933,2023,04,23,06,00,AAXX 23064 41933 02457 72702 10310 20150 30076 40085 84510 333 58027 70000 84616 87458==
41933,2023,04,23,09,00,AAXX 23094 41933 02457 51602 10295 20190 30069 40078 82530 333 58043 70000 82618 85362==
41933,2023,04,23,12,00,AAXX 23124 41933 02456 50000 10275 20200 30063 40072 82530 333 10315 58051 70000 82618 85362==
41933,2023,04,23,15,00,AAXX 23154 41933 41450 30000 10250 20220 30068 40077 70162 83500 333 58037 83618==
41933,2023,04,23,18,00,AAXX 23184 41933 11950 00000 10233 20200 30077 40086 60006 70161 333 58035==
41933,2023,04,23,21,00,AAXX 23214 41933 42950 00000 10216 20210 30077 40085 333 58038==
41933,2023,04,24,00,00,AAXX 24004 41933 41940 30502 10212 20200 30088 40097 70500 80001 333 58035 83074==
41933,2023,04,24,03,00,AAXX 24034 41933 41950 00000 10282 20190 30124 40132 70500 333 20210 58041==
41933,2023,04,24,06,00,AAXX 24064 41933 42956 32702 10330 20170 30108 40117 80001 333 58032 83074==
41933,2023,04,24,09,00,AAXX 24094 41933 42/57 32702 10336 20170 30090 40098 82042 333 58021 82362==
41933,2023,04,24,12,00,AAXX 24124 41933 42/57 30000 10310 20190 30075 40084 82032 333 10344 58012 82362==
41933,2023,04,24,15,00,AAXX 24154 41933 02956 00000 10260 20220 30092 40100 333 58024 70000==
41933,2023,04,24,18,00,AAXX 24184 41933 02956 00000 10255 20220 30097 40105 333 58020 70000==
41933,2023,04,24,21,00,AAXX 24214 41933 01940 00000 10245 20230 30098 40106 70500 333 58021 70000==
41933,2023,04,25,00,00,AAXX 25004 41933 01435 20000 10235 20220 30100 40108 70500 82500 333 58012 70000 82618==
41933,2023,04,25,06,00,AAXX 25064 41933 02956 32703 10335 20170 30105 40113 80001 333 58003 70000 83074==
41933,2023,04,25,09,00,AAXX 25094 41933 02457 22702 10344 20170 30068 40077 81540 333 59022 70000 81618==
41933,2023,04,25,12,00,AAXX 25124 41933 02957 30000 10312 20190 30056 40064 80001 333 10357 59019 70000 83080==
41933,2023,04,25,15,00,AAXX 25154 41933 02956 00000 10270 20210 30076 40085 333 59016 70000==
41933,2023,04,25,18,00,AAXX 25184 41933 01950 00000 10254 20220 30079 40088 70500 333 59018 70000==
41933,2023,04,25,21,00,AAXX 25214 41933 02940 20000 10258 20240 30073 40081 80001 333 59025 70000 82080==
41933,2023,04,26,00,00,AAXX 26004 41933 02935 30000 10235 20230 30081 40089 80001 333 59019 70000 83080==
41933,2023,04,26,03,00,AAXX 26034 41933 02956 31601 10318 20200 30092 40100 80001 333 20230 59033 70000 83074==
41933,2023,04,26,06,00,AAXX 26064 41933 02956 20902 10350 20170 30082 40090 80001 333 59023 70000 82074==
41933,2023,04,26,09,00,AAXX 26094 41933 02957 23102 10360 20120 30058 40066 80001 333 59014 70000 82074==
41933,2023,04,26,12,00,AAXX 26124 41933 02956 23201 10327 20160 30052 40060 80001 333 10368 59004 70000 82074==
41933,2023,04,26,15,00,AAXX 26154 41933 02950 00000 10265 20210 30061 40070 333 59015 70000==
41933,2023,04,26,18,00,AAXX 26184 41933 02940 00000 10245 20220 30064 40072 333 59015 70000==
41933,2023,04,26,21,00,AAXX 26214 41933 01940 00000 10232 20220 30066 40075 70500 333 59007 70000==
41933,2023,04,27,00,00,AAXX 27004 41933 01940 00000 10225 20225 30068 40077 70500 333 59013 70000==
41933,2023,04,27,03,00,AAXX 27034 41933 01950 03202 10310 20200 30093 40101 70500 333 20224 58001 70000==
41933,2023,04,27,06,00,AAXX 27064 41933 02456 52602 10350 20190 30081 40089 82530 333 59001 70000 82618 85362==
41933,2023,04,27,09,00,AAXX 27094 41933 02456 10000 10360 20180 30052 40060 81500 333 59006 70000 81618==
41933,2023,04,27,12,00,AAXX 27124 41933 02450 80000 10324 20210 30054 40062 8352/ 333 10365 58002 70000 83616 88458==
41933,2023,04,27,15,00,AAXX 27154 41933 01330 81303 10220 20210 30093 40101 76196 8672/ 333 58032 70052 83707 84612 88457==
41933,2023,04,27,18,00,AAXX 27184 41933 21450 83602 10224 20200 30067 40076 70296 8552/ 333 58003 60058 70052 85614 88458==
41933,2023,04,27,21,00,AAXX 27214 41933 01440 60000 10222 20210 30071 40080 70522 83520 333 58005 70052 83616 86458==
41936,2023,04,21,00,00,AAXX 21004 41936 01925 01603 10284 20260 30003 40010 70500 333 59012 70000==
41936,2023,04,21,03,00,AAXX 21034 41936 01/16 32005 10306 20280 30023 40030 70512 83030 333 20276 58002 70000 83362==
41936,2023,04,21,06,00,AAXX 21064 41936 01/30 22608 10380 20200 30029 40036 70512 82030 333 58016 70000 82362==
41936,2023,04,21,09,00,AAXX 21094 41936 01440 53203 10390 20140 30009 40016 70522 82530 333 58015 70000 82615 84362==
41936,2023,04,21,12,00,AAXX 21124 41936 01340 73003 10330 20230 30011 40018 70522 83730 333 10402 58041 70000 82708 85362==
41936,2023,04,21,15,00,AAXX 21154 41936 01940 62605 10296 20180 30023 40030 70522 83530 333 58028 70000 83615 85362==
41936,2023,04,21,18,00,AAXX 21184 41936 01/40 40000 10270 20180 30014 40021 70522 84030 333 58021 70000 84362==
41936,2023,04,21,21,00,AAXX 21214 41936 01/40 20903 10250 20190 30008 40015 70512 82030 333 58021 70000 82362==
41936,2023,04,22,00,00,AAXX 22004 41936 01920 02404 10232 20220 30041 40048 70511 333 58038 70000==
41936,2023,04,22,03,00,AAXX 22034 41936 01918 02306 10296 20220 30045 40052 70510 333 20230 58022 70000==
41936,2023,04,22,06,00,AAXX 22064 41936 01950 13106 10368 20190 30045 40052 70510 333 58019 70000 81362==
41936,2023,04,22,09,00,AAXX 22094 41936 01950 22705 10376 20160 30025 40032 70511 333 58016 70000 82362==
41936,2023,04,22,12,00,AAXX 22124 41936 42950 22705 10380 20190 30014 40021 58003 82362==
41936,2023,04,22,15,00,AAXX 22154 41936 01/50 22903 10278 20220 30027 40034 70511 82030 333 58004 70000 82362==
41936,2023,04,22,18,00,AAXX 22184 41936 01450 62709 10278 20200 30046 40053 70522 83530 333 58032 70000 83615 85362==
41936,2023,04,22,21,00,AAXX 22214 41936 01430 63003 10260 20190 30038 40045 70522 83530 333 58030 70000 83615 85362==
41936,2023,04,23,00,00,AAXX 23004 41936 01330 82703 10244 20190 30051 40058 70522 82630 333 58010 70000 82710 83615 86362==
41936,2023,04,23,03,00,AAXX 23034 41936 41320 82604 10252 20210 30081 40094 76122 82630 333 20244 58042 82710 83615 86362==
41936,2023,04,23,06,00,AAXX 23064 41936 41320 82403 10270 20190 30075 40082 70562 82630 333 58031 82710 83615 86362==
41936,2023,04,23,09,00,AAXX 23094 41936 41330 81603 10320 20190 30060 40067 70562 82630 333 58035 82710 83615 86362==
41936,2023,04,23,12,00,AAXX 23124 41936 41330 81208 10286 20210 30065 40072 70522 82630 333 10324 58051 82710 83615 86362==
41936,2023,04,23,15,00,AAXX 23154 41936 41330 81405 10256 20200 30071 40078 70522 82630 333 58035 82710 83615 86362==
41936,2023,04,23,18,00,AAXX 23184 41936 41330 70000 10232 20200 30082 40089 70522 83730 333 58036 82708 85362==
41936,2023,04,23,21,00,AAXX 23214 41936 41330 70000 10226 20200 30075 40082 70522 83730 333 58036 82708 85362==
41936,2023,04,24,00,00,AAXX 24004 41936 41/10 10000 10214 20200 30090 40097 70511 82030 333 58039 82362==
41936,2023,04,24,03,00,AAXX 24034 41936 01925 00603 10284 20190 30115 40122 70510 333 20210 58028 70000==
41936,2023,04,24,06,00,AAXX 24064 41936 01/50 32407 10338 20190 30108 40115 70510 83030 333 58033 70000 83362==
41936,2023,04,24,09,00,AAXX 24094 41936 01320 82616 10250 20230 30102 40109 79596 85730 333 58042 70070 85708 83615 87360 81930==
41936,2023,04,24,12,00,AAXX 24124 41936 01/50 20404 10262 20240 30079 40085 70596 82030 333 10343 58013 70070 82362==
41936,2023,04,24,15,00,AAXX 24154 41936 01/50 30000 10228 20220 30104 40111 70511 83030 333 58034 70070 83362==
41936,2023,04,24,18,00,AAXX 24184 41936 01/50 30403 10220 20210 30101 40108 70511 83030 333 58019 70070 83362==
41936,2023,04,24,21,00,AAXX 24214 41936 01930 00203 10214 20200 30089 40096 70511 333 58015 70070==
41936,2023,04,25,00,00,AAXX 25004 41936 01914 00000 10212 20200 30106 40114 70510 333 58017 70070==
41936,2023,04,25,03,00,AAXX 25034 41936 01925 00403 10280 20200 30116 40123 70500 333 20208 58001 70070==
41936,2023,04,25,06,00,AAXX 25064 41936 01950 23605 10332 20190 30107 40114 70511 333 59001 70070 82030 82362==
41936,2023,04,25,09,00,AAXX 25094 41936 01950 12604 10348 20200 30082 40089 70511 80001 333 59020 70070 81180==
41936,2023,04,25,12,00,AAXX 25124 41936 01/50 52603 10320 20200 30066 40073 70522 85030 333 10350 59012 70000 85362==
41936,2023,04,25,15,00,AAXX 25154 41936 01950 10000 10268 20230 30069 40077 70520 333 59035 70000 81030 81362==
41936,2023,04,25,18,00,AAXX 25184 41936 01950 10000 10254 20220 30075 40083 70511 333 59025 70000 81030 81362==
41936,2023,04,25,21,00,AAXX 25214 41936 01940 10000 10246 20220 30067 40075 70511 333 59021 70000 81030 81362==
41936,2023,04,26,00,00,AAXX 26004 41936 01914 10000 10230 20220 30079 40086 70511 333 59028 70000 81030 81362==
41936,2023,04,26,03,00,AAXX 26034 41936 31920 40403 10304 20230 30094 40101 70511 84030 333 20226 56090 59022 70000 84362=
41936,2023,04,26,06,00,AAXX 26064 41936 01950 22604 10350 20210 30086 40092 70511 82530 333 59022 70000 82618==
41936,2023,04,26,09,00,AAXX 26094 41936 01950 22004 10368 20190 30061 40067 70511 82530 333 59027 70000 82618==
41936,2023,04,26,12,00,AAXX 26124 41936 01950 11804 10330 20210 30050 40057 70511 333 10370 59016 70000 81362==
41936,2023,04,26,15,00,AAXX 26154 41936 01450 41803 10284 20200 30068 40075 70511 82830 333 59002 70000 82615 83362==
41936,2023,04,26,18,00,AAXX 26184 41936 01/40 20000 10252 20220 30063 40070 70592 82030 333 59013 70000 82362==
41936,2023,04,26,21,00,AAXX 26214 41936 01/40 10000 10238 20220 30056 40063 70592 81030 333 59020 70000 81362==
41936,2023,04,27,00,00,AAXX 27004 41936 01/16 10000 10232 20220 30074 40081 70511 81030 333 59005 70000 81362==
41936,2023,04,27,03,00,AAXX 27034 41936 01/20 11704 10304 20240 30093 40100 70511 81030 333 20230 59001 70000 81362==
41936,2023,04,27,06,00,AAXX 27064 41936 41/50 23105 10352 20210 30086 40093 70511 82030 333 58001 82362==
41936,2023,04,27,09,00,AAXX 27094 41936 01/50 22407 10384 20180 30045 40052 70511 82030 333 59015 70000 82362==
41936,2023,04,27,12,00,AAXX 27124 41936 41320 80405 10226 20220 30072 40079 79596 82730 333 10386 58022 82708 87360 81930==
41936,2023,04,27,15,00,AAXX 27154 41936 01320 81806 10230 20220 30087 40096 71796 83930 333 58021 70040 83708 83615 87360 81930==
41936,2023,04,27,18,00,AAXX 27184 41936 01935 60000 10230 20220 30082 40089 70596 82630 333 58019 70090 82708 82615 83560==
41936,2023,04,27,21,00,AAXX 27214 41936 01/35 20000 10224 20210 30071 40078 70592 82030 333 58015 70090 83260==
41938,2023,04,21,00,00,AAXX 21003 41938 31920 02103 10275 20270 30012 40016 71021 333 59004 70000=
41938,2023,04,21,06,00,AAXX 21064 41938 31450 12203 10334 20260 30035 40039 70521 81500 333 56500 58014 70000 81617=
41938,2023,04,21,12,00,AAXX 21124 41938 32456 40000 10320 20170 30012 40016 82511 333 10360 56999 58019 70000 82618=
41938,2023,04,21,18,00,AAXX 21184 41938 32450 40000 10278 20200 30030 40034 82510 333 56990 58017 70000 82618 83459=
41938,2023,04,22,00,00,AAXX 22004 41938 31930 00000 10275 20270 30012 40016 70500 333 59004 70000=
41938,2023,04,22,06,00,AAXX 22064 41938 32956 12303 10303 20190 30046 40050 80001 333 56009 58011 70000 81080=
41938,2023,04,22,12,00,AAXX 22124 41938 32956 10000 10310 20230 30022 40026 80001 333 10365 56009 58010 70000 81080=
41938,2023,04,22,18,00,AAXX 22184 41938 32950 00000 10257 20240 30039 40043 333 58009 70000=
41938,2023,04,23,00,00,AAXX 23004 41938 32950 00000 10250 20230 30053 40057 333 58010 70000=
41938,2023,04,23,06,00,AAXX 23064 41938 32450 70000 10259 20220 30076 40080 84510 333 56990 58030 70000 84618 84459=
41938,2023,04,23,12,00,AAXX 23124 41938 32450 60000 10267 20210 30063 40067 84510 333 10315 56990 58041 70000 84618 83459=
41938,2023,04,23,18,00,AAXX 23184 41938 32950 00000 10230 20200 30081 40085 333 58042 70000=
41938,2023,04,24,00,00,AAXX 24004 41938 31920 00000 10215 20210 30073 40087 333 59022 70000=
41938,2023,04,24,06,00,AAXX 24064 41938 31950 22302 10335 20200 30107 40110 70510 80001 333 56009 58031 70000 82080=
41938,2023,04,24,12,00,AAXX 24124 41938 11956 33303 10285 20220 30079 40083 69903 70196 83070 333 10340 56090 58016 79999 81460 83362=
41938,2023,04,24,18,00,AAXX 24184 41938 31950 03001 10229 20210 30100 40104 70500 333 58019 79999=
41938,2023,04,25,00,00,AAXX 25004 41938 31913 23001 10214 20190 30106 40110 71021 81031 333 56099 58011 79999 81362=
41938,2023,04,25,06,00,AAXX 25064 41938 32956 23002 10334 20190 30108 40112 81031 333 56099 58001 79999 81362=
41938,2023,04,25,12,00,AAXX 25124 41938 32956 32701 10302 20220 30070 40074 83010 333 10352 56090 59009 70000 83460=
41938,2023,04,25,18,00,AAXX 25184 41938 32950 13001 10247 20230 30079 40083 81010 333 56090 59021 70000 81460=
41938,2023,04,26,00,00,AAXX 26004 41938 31920 30000 10225 20220 30080 40084 71010 83010 333 56090 59026 70000 83460=
41938,2023,04,26,06,00,AAXX 26064 41938 32956 13001 10350 20200 30089 40093 81010 333 56090 59019 70000 81460=
41938,2023,04,26,12,00,AAXX 26124 41938 32956 40000 10320 20220 30063 40067 82011 333 10360 56099 59007 70000 82460 83082=
41938,2023,04,26,18,00,AAXX 26184 41938 32950 02201 10253 20220 30069 40073 333 59010 70000=
41938,2023,04,27,00,00,AAXX 27004 41938 31912 00000 10230 20220 30074 40078 71000 333 59006 70000=
41938,2023,04,27,06,00,AAXX 27064 41938 32956 42201 10352 20190 30084 40088 84070 333 56090 59005 70000 83460=
41938,2023,04,27,12,00,AAXX 27124 41938 11450 80308 10230 20190 30068 40072 69904 79592 8592/ 333 10372 56899 58005 79999 83617 81930 88458=
41938,2023,04,27,18,00,AAXX 27184 41938 11940 20000 10227 20220 30088 40092 60078 70596 81031 333 56099 58019 70066 81362=
41939,2023,04,21,00,00,AAXX 21004 41939 02956 00000 10275 20260 30018 40026 333 59004 70000==
41939,2023,04,21,03,00,AAXX 21034 41939 02960 00000 10315 20270 30046 40054 333 20270 58011 70000==
41939,2023,04,21,06,00,AAXX 21064 41939 02460 40000 10335 20270 30041 40049 83530 333 58021 70000 83618==
41939,2023,04,21,09,00,AAXX 21094 41939 02460 30000 10342 20260 30020 40028 82530 333 58023 70000 82618==
41939,2023,04,21,12,00,AAXX 21124 41939 02456 30000 10323 20260 30010 40018 83500 333 10362 58026 70000 83618==
41939,2023,04,21,15,00,AAXX 21154 41939 02450 60000 10288 20250 30024 40032 83510 333 58028 70000 83618 85459==
41939,2023,04,21,18,00,AAXX 21184 41939 02450 60000 10280 20250 30030 40038 83510 333 58030 70000 83618 85459==
41939,2023,04,21,21,00,AAXX 21214 41939 02956 00000 10237 20220 30038 40046 333 58012 70000==
41939,2023,04,22,00,00,AAXX 22004 41939 02956 00000 10235 20220 30047 40055 333 58029 70000==
41939,2023,04,22,03,00,AAXX 22034 41939 02958 00000 10295 20230 30060 40068 333 20230 58014 70000==
41939,2023,04,22,06,00,AAXX 22064 41939 02/58 30000 10350 20210 30052 40059 83030 333 58011 70000 83362==
41939,2023,04,22,09,00,AAXX 22094 41939 02/59 10000 10352 20210 30031 40039 81030 333 58011 70000 81362==
41939,2023,04,22,12,00,AAXX 22124 41939 02456 60000 10320 20210 30035 40043 83510 333 10357 58015 70000 83618 85459==
41939,2023,04,22,15,00,AAXX 22154 41939 02450 60000 10288 20250 30026 40034 83510 333 58002 70000 83618 85459==
41939,2023,04,22,18,00,AAXX 22184 41939 02450 30000 10276 20250 30030 40038 83500 333 58000 70000 83618==
41939,2023,04,22,21,00,AAXX 22214 41939 02450 60000 10260 20220 30040 40048 83510 333 58002 70000 83618 85459==
41939,2023,04,23,00,00,AAXX 23004 41939 02456 80000 10248 20210 30053 40061 8352/ 333 58006 70000 83618 88459==
41939,2023,04,23,03,00,AAXX 23034 41939 02458 80000 10285 20230 30069 40077 8352/ 333 20228 58009 70000 83618 88459==
41939,2023,04,23,06,00,AAXX 23064 41939 02457 80000 10275 20200 30082 40090 8251/ 333 58030 70000 82616 88459==
41939,2023,04,23,09,00,AAXX 23094 41939 02457 60000 10290 20200 30079 40087 81510 333 58048 70000 81618 86460==
41939,2023,04,23,12,00,AAXX 23124 41939 02456 60000 10284 20200 30082 40090 83510 333 10293 58050 70000 83618 85459==
41939,2023,04,23,15,00,AAXX 23154 41939 02950 00000 10253 20190 30086 40094 333 58040 70000==
41939,2023,04,23,18,00,AAXX 23184 41939 02950 00000 10245 20220 30090 40098 333 58032 70000==
41939,2023,04,23,21,00,AAXX 23214 41939 02950 00000 10235 20230 30090 40098 333 58050 70000==
41939,2023,04,24,00,00,AAXX 24004 41939 01456 50000 10223 20210 30092 40100 70511 83530 333 58039 70000 83618 83365==
41939,2023,04,24,03,00,AAXX 24034 41939 02958 00000 10268 20240 30109 40117 333 20214 58040 70000==
41939,2023,04,24,06,00,AAXX 24064 41939 02458 10000 10335 20200 30115 40123 81500 333 58033 70000 81618==
41939,2023,04,24,09,00,AAXX 24094 41939 02459 20000 10335 20190 30097 40105 82500 333 58018 70000 82618==
41939,2023,04,24,12,00,AAXX 24124 41939 02457 20000 10287 20220 30083 40091 82530 333 10347 58001 70000 82618==
41939,2023,04,24,15,00,AAXX 24154 41939 02456 30000 10250 20230 30107 40115 82530 333 58021 70000 82618==
41939,2023,04,24,21,00,AAXX 24214 41939 02950 00000 10235 20230 30108 40116 333 58018 70000==
41939,2023,04,25,00,00,AAXX 25004 41939 02956 00000 10225 20220 30107 40115 333 58015 70000==
41939,2023,04,25,03,00,AAXX 25034 41939 02958 00000 10290 20250 30119 40127 333 20213 58010 70000==
41939,2023,04,25,06,00,AAXX 25064 41939 02950 00000 10338 20220 30110 40118 333 58005 70000==
41939,2023,04,25,09,00,AAXX 25094 41939 02960 00000 10345 20200 30079 40087 333 59018 70000==
41939,2023,04,25,12,00,AAXX 25124 41939 02457 30000 10308 20240 30070 40077 82530 333 10350 59013 70000 82618==
41939,2023,04,25,15,00,AAXX 25154 41939 02456 40000 10270 20230 30086 40094 82530 333 59021 70000 82618 83365==
41939,2023,04,25,18,00,AAXX 25184 41939 02456 40000 10260 20230 30092 40100 82530 333 59018 70000 82618 83365==
41939,2023,04,25,21,00,AAXX 25214 41939 02950 00000 10248 20230 30086 40094 333 59022 70000==
41939,2023,04,26,00,00,AAXX 26004 41939 02956 00000 10235 20220 30081 40089 333 59026 70000==
41939,2023,04,26,03,00,AAXX 26034 41939 02958 00000 10285 20250 30092 40100 333 20225 59027 70000==
41939,2023,04,26,06,00,AAXX 26064 41939 02958 00000 10350 20190 30085 40093 81500 333 59025 70000 81618==
41939,2023,04,26,09,00,AAXX 26094 41939 02/59 10000 10353 20200 30066 40074 81030 333 59013 70000 81362==
41939,2023,04,26,12,00,AAXX 26124 41939 02457 20000 10320 20240 30060 40067 82530 333 10360 59010 70000 82618==
41939,2023,04,26,15,00,AAXX 26154 41939 02946 00000 10270 20230 30076 40084 333 59010 70000==
41939,2023,04,26,18,00,AAXX 26184 41939 02956 00000 10260 20230 30083 40091 333 59009 70000==
41939,2023,04,26,21,00,AAXX 26214 41939 02956 00000 10234 20220 30092 40100 333 58006 70000==
41939,2023,04,27,00,00,AAXX 27004 41939 02956 00000 10232 20220 30085 40093 333 58004 70000==
41939,2023,04,27,03,00,AAXX 27034 41939 02958 00000 10280 20250 30110 40118 333 20228 58018 70000==
41939,2023,04,27,06,00,AAXX 27064 41939 02959 00000 10350 20180 30092 40100 333 58007 70000==
41939,2023,04,27,09,00,AAXX 27094 41939 02959 00000 10366 20200 30056 40064 333 58010 70000==
41939,2023,04,27,12,00,AAXX 27124 41939 01456 83008 10255 20200 30110 40118 71791 8532/ 333 10370 58050 70000 84616 88458 81929==
41939,2023,04,27,15,00,AAXX 27154 41939 01440 80000 10220 20210 30094 40102 79295 8352/ 333 58018 70382 83617 88459==
41939,2023,04,27,18,00,AAXX 27184 41939 21440 80000 10210 20200 30090 40098 70292 8352/ 333 58007 60429 70416 83617 88459==
41939,2023,04,27,21,00,AAXX 27214 41939 02450 30000 10215 20210 30095 40103 83500 333 58003 70416 83618==
41941,2023,04,21,00,00,AAXX 21003 41941 02450 60000 10281 20260 30015 40020 85420 333 59004 70000 84616 86458==
41941,2023,04,21,03,00,AAXX 21034 41941 02456 61804 10320 20270 30043 40049 85420 333 20278 58002 70000 84616 86458==
41941,2023,04,21,06,00,AAXX 21064 41941 02456 81804 10322 20260 30043 40049 85420 333 58010 70000 85616 88458 81930==
41941,2023,04,21,09,00,AAXX 21094 41941 02456 61803 10335 20270 30020 40025 85420 333 58015 70000 84616 86458==
41941,2023,04,21,12,00,AAXX 21124 41941 02456 71803 10320 20270 30015 40021 85420 333 10345 58009 70000 84616 87458==
41941,2023,04,21,15,00,AAXX 21154 41941 02450 71803 10245 20220 30045 40051 85420 333 58037 70000 84616 87458==
41941,2023,04,21,18,00,AAXX 21184 41941 NIL=
41941,2023,04,21,21,00,AAXX 21214 41941 02440 70000 10235 20230 30042 40049 85420 333 58026 70000 84616 87458==
41941,2023,04,22,00,00,AAXX 22004 41941 02450 60000 10232 20210 30041 40047 85420 333 58026 70000 84616 86458==
41941,2023,04,22,03,00,AAXX 22034 41941 02456 60000 10324 20260 30049 40055 85420 333 20230 58006 70000 84616 86458==
41941,2023,04,22,06,00,AAXX 22064 41941 02958 01803 10345 20220 30053 40058 333 58010 70000==
41941,2023,04,22,09,00,AAXX 22094 41941 02458 61804 10352 20210 30036 40042 85420 333 58016 70000 84616 86458==
41941,2023,04,22,12,00,AAXX 22124 41941 02456 80000 10300 20240 30026 40032 8632/ 333 10360 58011 70000 85616 88458 81930==
41941,2023,04,22,18,00,AAXX 22184 41941 NIL=
41941,2023,04,22,21,00,AAXX 22214 41941 02440 70000 10280 20250 30042 40048 85420 333 59006 78458 84616==
41941,2023,04,23,00,00,AAXX 23004 41941 02450 73605 10276 20260 30054 40059 85420 333 58013 70000 84616 87458==
41941,2023,04,23,03,00,AAXX 23034 41941 02456 70904 10310 20170 30088 40094 85420 333 20220 58039 70000 84616 87458==
41941,2023,04,23,06,00,AAXX 23064 41941 02456 83604 10305 20180 30040 40045 8632/ 333 59013 70000 85615 88458 81930==
41941,2023,04,23,09,00,AAXX 23094 41941 02456 83606 10285 20200 30080 40086 8632/ 333 58044 70000 85615 88458 81928==
41941,2023,04,23,12,00,AAXX 23124 41941 02456 70000 10280 20210 30068 40073 85420 333 10317 58042 70000 84616 87458==
41941,2023,04,23,15,00,AAXX 23154 41941 02450 60000 10250 20220 30076 40082 85420 333 58039 70000 84616 86458==
41941,2023,04,23,21,00,AAXX 23214 41941 02440 60000 10243 20220 30063 40069 85420 333 58025 70000 84616 86458==
41941,2023,04,24,00,00,AAXX 24004 41941 02450 63603 10220 20210 30095 40101 85420 333 58041 70000 84615 86458==
41941,2023,04,24,03,00,AAXX 24034 41941 02456 60000 10265 20220 30112 40118 85420 333 20218 58024 70000 84616 86458==
41941,2023,04,24,06,00,AAXX 24064 41941 02457 53603 10327 20210 30121 40126 85500 333 58031 70000 85616==
41941,2023,04,24,09,00,AAXX 24094 41941 02958 03604 10337 20170 30098 40103 333 58018 70000==
41941,2023,04,24,12,00,AAXX 24124 41941 02456 70000 10310 20220 30087 40092 85420 333 10348 58020 70000 84616 87458==
41941,2023,04,24,15,00,AAXX 24154 41941 02450 62304 10270 20230 30097 40102 85420 333 58021 70000 84616 86458==
41941,2023,04,24,21,00,AAXX 24214 41941 02440 60000 10250 20240 30093 40098 85420 333 58030 70000 84616 86458==
41941,2023,04,25,00,00,AAXX 25004 41941 02440 60903 10240 20220 30093 40098 85420 333 58004 70000 84616 86458==
41941,2023,04,25,03,00,AAXX 25034 41941 02457 51403 10305 20220 30123 40128 85500 333 20240 58011 70000 85615==
41941,2023,04,25,06,00,AAXX 25064 41941 02458 53604 10335 20210 30113 40118 85500 333 59008 70000 85615==
41941,2023,04,25,09,00,AAXX 25094 41941 02958 03606 10350 20180 30087 40093 333 59010 70000==
41941,2023,04,25,12,00,AAXX 25124 41941 02456 60000 10318 20220 30073 40078 85420 333 10355 59014 70000 84616 86458==
41941,2023,04,25,15,00,AAXX 25154 41941 02450 60000 10295 20220 30085 40090 85420 333 59012 70000 84616 86458==
41941,2023,04,25,18,00,AAXX 25184 41941 02940 00000 10275 20240 30084 40089 333 59019 70000==
41941,2023,04,25,21,00,AAXX 25214 41941 02940 00000 10265 20240 30081 40087 333 59012 70000==
41941,2023,04,26,00,00,AAXX 26004 41941 02450 50000 10252 20230 30087 40092 85500 333 59012 70000 85615==
41941,2023,04,26,03,00,AAXX 26034 41941 02456 63603 10325 20220 30103 40108 85420 333 20250 59020 70000 84616 86458==
41941,2023,04,26,06,00,AAXX 26064 41941 02456 63603 10345 20210 30092 40098 85420 333 59021 70000 84616 86458==
41941,2023,04,26,09,00,AAXX 26094 41941 02456 33603 10355 20200 30064 40069 83500 333 59023 70000 83618==
41941,2023,04,26,12,00,AAXX 26124 41941 02450 30000 10315 20240 30060 40065 83500 333 10365 59013 70000 83618==
41941,2023,04,26,15,00,AAXX 26154 41941 02440 30000 10285 20230 30073 40078 83500 333 59012 70000 83618==
41941,2023,04,26,18,00,AAXX 26184 41941 02440 30000 10273 20230 30070 40075 83500 333 59014 70000 83618==
41941,2023,04,26,21,00,AAXX 26214 41941 02440 30000 10262 20230 30066 40072 83500 333 59015 70000 83618==
41941,2023,04,27,00,00,AAXX 27004 41941 02950 00000 10257 20240 30089 40094 333 58002 70000==
41941,2023,04,27,03,00,AAXX 27034 41941 02956 03103 10317 20230 30103 40108 333 20255 58000 70000==
41941,2023,04,27,06,00,AAXX 27064 41941 02958 03103 10350 20210 30093 40099 333 58001 70000==
41941,2023,04,27,09,00,AAXX 27094 41941 02958 00904 10365 20210 30064 40070 333 58000 70000==
41941,2023,04,27,12,00,AAXX 27124 41941 NIL=
41941,2023,04,27,15,00,AAXX 27153 41941 01440 83102 10215 20215 30116 40122 79596 8792/ 333 58044 70240 85612 88456 82923==
41941,2023,04,27,18,00,AAXX 27184 41941 NIL=
41941,2023,04,27,21,00,AAXX 27214 41941 02440 70000 10212 20210 30087 40092 85420 333 58021 70250 84616 87458==
41943,2023,04,21,00,00,AAXX 21004 41943 01430 61802 10270 20260 30017 40024 70522 83520 333 59014 70000 83616 85458==
41943,2023,04,21,03,00,AAXX 21034 41943 01440 51804 10312 20260 30041 40048 70522 83520 333 20270 59004 70000 83618 85458==
41943,2023,04,21,06,00,AAXX 21064 41943 01440 72308 10333 20240 30044 40051 70522 84520 333 58011 70000 84616 86458==
41943,2023,04,21,09,00,AAXX 21094 41943 01440 61803 10328 20260 30021 40028 70522 84520 333 58013 70000 84616 85458==
41943,2023,04,21,12,00,AAXX 21124 41943 01440 52303 10310 20250 30013 40020 70522 84420 333 10340 58017 70000 83616 84458==
41943,2023,04,21,15,00,AAXX 21154 41943 01330 81804 10274 20250 30062 40070 76166 8772/ 333 58050 70010 84709 84614 88456==
41943,2023,04,21,18,00,AAXX 21184 41943 21430 81802 10270 20250 30043 40050 70262 8662/ 333 58024 60015 70010 83710 84615 88458==
41943,2023,04,21,21,00,AAXX 21214 41943 02430 81802 10268 20260 30039 40046 8662/ 333 58015 70010 83710 84615 88458==
41943,2023,04,22,00,00,AAXX 22004 41943 01430 80000 10220 20210 30037 40045 70522 8662/ 333 58020 70010 83710 84615 88458==
41943,2023,04,22,03,00,AAXX 22034 41943 01940 01802 10297 20220 30062 40069 70500 333 20220 58021 70010==
41943,2023,04,22,06,00,AAXX 22064 41943 01940 02105 10345 20230 30054 40061 70500 333 58021 70010==
41943,2023,04,22,09,00,AAXX 22094 41943 01440 41804 10352 20200 30032 40039 70522 82530 333 58011 70010 82618 83362==
41943,2023,04,22,12,00,AAXX 22124 41943 01430 82506 10320 20190 30022 40029 70522 8662/ 333 10360 58009 70010 83710 84615 88458==
41943,2023,04,22,15,00,AAXX 22154 41943 01430 62302 10276 20230 30035 40042 70522 83520 333 59027 70000 83616 85458==
41943,2023,04,22,18,00,AAXX 22184 41943 01430 62102 10265 20230 30054 40061 70522 83520 333 58011 70000 83616 85458==
41943,2023,04,22,21,00,AAXX 22214 41943 01430 72102 10263 20220 30051 40058 70522 84520 333 58012 70000 84616 86458==
41943,2023,04,23,00,00,AAXX 23004 41943 01430 80000 10255 20250 30060 40067 70522 8662/ 333 58023 70000 83710 84615 88458==
41943,2023,04,23,03,00,AAXX 23034 41943 01430 70000 10300 20230 30086 40093 70522 84520 333 20250 58024 70000 84616 86458==
41943,2023,04,23,06,00,AAXX 23064 41943 01435 72706 10330 20180 30073 40080 70522 84520 333 58019 70000 84616 85458==
41943,2023,04,23,09,00,AAXX 23094 41943 01435 73104 10310 20150 30070 40077 70522 84520 333 58038 70000 84616 85458==
41943,2023,04,23,12,00,AAXX 23124 41943 01430 82702 10285 20200 30067 40074 70522 8662/ 333 10338 58045 70000 83710 84615 88458==
41943,2023,04,23,15,00,AAXX 23154 41943 01430 82502 10255 20190 30072 40079 70522 8662/ 333 58037 70000 83710 84615 88458==
41943,2023,04,23,18,00,AAXX 23184 41943 01430 82502 10245 20220 30074 40081 70522 8662/ 333 58020 70000 83710 84615 88458==
41943,2023,04,23,21,00,AAXX 23214 41943 01430 82502 10240 20220 30072 40079 70522 8662/ 333 58021 70000 83710 84615 88458==
41943,2023,04,24,00,00,AAXX 24004 41943 01430 50000 10205 20200 30094 40101 70522 83520 333 58034 70000 83616 84458==
41943,2023,04,24,03,00,AAXX 24034 41943 01940 02702 10280 20190 30115 40122 70500 333 20205 58029 70000==
41943,2023,04,24,06,00,AAXX 24064 41943 01440 43104 10340 20140 30115 40122 70522 82530 333 58042 70000 83618 83362==
41943,2023,04,24,09,00,AAXX 24094 41943 02440 43104 10350 20160 30091 40099 82530 333 58021 70000 82618 83362==
41943,2023,04,24,12,00,AAXX 24124 41943 01430 83102 10320 20170 30076 40083 70522 8662/ 333 10355 58009 70000 83701 84615 88458==
41943,2023,04,24,15,00,AAXX 24154 41943 01930 00000 10265 20220 30096 40103 70500 333 58024 70000==
41943,2023,04,24,18,00,AAXX 24184 41943 01430 40000 10240 20210 30102 40109 70522 82530 333 58024 70000 82618 83362==
41943,2023,04,24,21,00,AAXX 24214 41943 01430 40000 10232 20210 30098 40105 70522 82530 333 58026 70000 82618 83362==
41943,2023,04,25,00,00,AAXX 25004 41943 01430 50000 10220 20210 30102 40109 70522 83530 333 58008 70000 83618 84362==
41943,2023,04,25,03,00,AAXX 25034 41943 01935 00000 10305 20210 30118 40125 70500 333 20220 58003 70000==
41943,2023,04,25,06,00,AAXX 25064 41943 01940 03102 10330 20200 30108 40115 70500 333 59007 70000==
41943,2023,04,25,09,00,AAXX 25094 41943 02940 03102 10365 20170 30080 40087 333 59011 70000==
41943,2023,04,25,12,00,AAXX 25124 41943 02940 00000 10328 20210 30063 40070 333 10367 59028 70000==
41943,2023,04,25,15,00,AAXX 25154 41943 02930 00000 10278 20200 30080 40087 333 59016 70000==
41943,2023,04,25,18,00,AAXX 25184 41943 02930 00000 10266 20210 30082 40089 333 59020 70000==
41943,2023,04,25,21,00,AAXX 25214 41943 02930 00000 10244 20220 30082 40089 333 59016 70000==
41943,2023,04,26,00,00,AAXX 26004 41943 02935 00000 10230 20210 30083 40090 333 59011 70000==
41943,2023,04,26,03,00,AAXX 26034 41943 02940 03602 10310 20190 30099 40106 333 20228 59019 70000==
41943,2023,04,26,06,00,AAXX 26064 41943 02940 03602 10344 20170 30092 40099 333 59016 70000==
41943,2023,04,26,09,00,AAXX 26094 41943 02940 03102 10360 20170 30062 40069 333 59018 70000==
41943,2023,04,26,12,00,AAXX 26124 41943 02940 00000 10330 20190 30052 40059 333 10366 59011 70000==
41943,2023,04,26,15,00,AAXX 26154 41943 02930 00000 10277 20200 30068 40075 333 59012 70000==
41943,2023,04,26,18,00,AAXX 26184 41943 NIL=
41943,2023,04,26,21,00,AAXX 26214 41943 02930 00000 10240 20210 30078 40085 333 59004 70000==
41943,2023,04,27,00,00,AAXX 27004 41943 02935 00000 10224 20200 30078 40085 333 59005 70000==
41943,2023,04,27,03,00,AAXX 27034 41943 02940 03102 10312 20200 30099 40106 333 20222 58000 70000==
41943,2023,04,27,06,00,AAXX 27064 41943 02940 00000 10352 20180 30086 40093 333 59006 70000==
41943,2023,04,27,09,00,AAXX 27094 41943 02940 00000 10365 20170 30058 40066 333 59004 70000==
41943,2023,04,27,12,00,AAXX 27124 41943 02940 00000 10338 20200 30051 40058 333 10380 59001 70000==
41943,2023,04,27,15,00,AAXX 27154 41943 01330 83104 10228 20180 30103 40110 76162 8772/ 333 58035 70010 83710 84613 88458==
41943,2023,04,27,18,00,AAXX 27184 41943 21330 83102 10224 20180 30077 40084 70262 8672/ 333 59001 60025 70020 83610 84614 88458==
41943,2023,04,27,21,00,AAXX 27214 41943 02430 43102 10218 20200 30082 40089 84500 333 58004 70020 84616==
41944,2023,04,21,00,00,AAXX 21003 41944 NIL=
41944,2023,04,21,06,00,AAXX 21064 41944 NIL=
41944,2023,04,21,12,00,AAXX 21124 41944 NIL=
41944,2023,04,21,18,00,AAXX 21184 41944 NIL=
41944,2023,04,22,18,00,AAXX 22184 41944 NIL=
41944,2023,04,23,00,00,AAXX 23004 41944 NIL=
41944,2023,04,23,06,00,AAXX 23064 41944 NIL=
41944,2023,04,23,12,00,AAXX 23124 41944 NIL=
41944,2023,04,24,06,00,AAXX 24064 41944 NIL=
41944,2023,04,24,12,00,AAXX 24124 41944 NIL=
41944,2023,04,25,06,00,AAXX 25064 41944 NIL=
41944,2023,04,25,12,00,AAXX 25124 41944 NIL=
41944,2023,04,25,18,00,AAXX 25184 41944 NIL=
41944,2023,04,26,06,00,AAXX 26064 41944 NIL=
41944,2023,04,26,12,00,AAXX 26124 41944 NIL=
41944,2023,04,26,18,00,AAXX 26184 41944 NIL=
41944,2023,04,27,06,00,AAXX 27064 41944 NIL=
41944,2023,04,27,12,00,AAXX 27124 41944 NIL=
41944,2023,04,27,18,00,AAXX 27184 41944 NIL=
41946,2023,04,21,00,00,AAXX 21003 41946 01420 60000 10282 20270 30010 40014 71010 82570 333 58000 70000 82618 85460==
41946,2023,04,21,03,00,AAXX 21034 41946 02456 41801 10310 20280 30038 40042 82530 333 20279 58007 70000 82618==
41946,2023,04,21,06,00,AAXX 21064 41946 02957 30000 10366 20240 30039 40044 80001 333 58016 70000 83080==
41946,2023,04,21,09,00,AAXX 21094 41946 02556 62703 10374 20170 30018 40023 83420 333 58028 70000 82620 85459==
41946,2023,04,21,12,00,AAXX 21124 41946 02/56 60000 10320 20160 30018 40023 83032 333 10377 58028 70000 83362 84080==
41946,2023,04,21,15,00,AAXX 21154 41946 02956 30000 10290 20190 30031 40036 80001 333 58023 70000==
41946,2023,04,21,18,00,AAXX 21184 41946 02956 30000 10270 20210 30033 40037 80001 333 58023 70000 83080==
41946,2023,04,21,21,00,AAXX 21214 41946 02956 00000 10260 20240 30044 40048 333 58041 70000==
41946,2023,04,22,00,00,AAXX 22004 41946 02960 00000 10256 20240 30047 40051 333 58037 70000==
41946,2023,04,22,03,00,AAXX 22034 41946 02956 00000 10320 20260 30054 40058 333 20246 58016 70000==
41946,2023,04,22,06,00,AAXX 22064 41946 02456 31802 10350 20160 30054 40059 83500 333 58015 70000 83618==
41946,2023,04,22,09,00,AAXX 22094 41946 02456 62701 10366 20140 30032 40037 83501 333 58014 70000 83618 83080==
41946,2023,04,22,12,00,AAXX 22124 41946 02456 50000 10324 20190 30023 40028 82530 333 10372 58005 70000 82618 83362==
41946,2023,04,22,15,00,AAXX 22154 41946 02556 20000 10277 20220 30040 40044 82100 333 58009 70000 82825==
41946,2023,04,22,18,00,AAXX 22184 41946 02956 00000 10277 20210 30054 40058 333 58021 70000==
41946,2023,04,22,21,00,AAXX 22214 41946 02/56 50000 10264 20190 30052 40057 85070 333 58008 70000 83459 83360==
41946,2023,04,23,00,00,AAXX 23004 41946 01456 72602 10256 20210 30050 40055 76120 83520 333 58000 70000 83618 86459==
41946,2023,04,23,03,00,AAXX 23033 41946 41456 80000 10260 20210 30090 40094 76162 8352/ 333 20252 58036 83618 88459==
41946,2023,04,23,06,00,AAXX 23064 41946 21456 60000 10318 20170 30079 40083 70162 83520 333 58025 60009 70002 83618 85459==
41946,2023,04,23,09,00,AAXX 23094 41946 02456 70000 10327 20170 30065 40069 333 58033 70002 83618 86459==
41946,2023,04,23,12,00,AAXX 23124 41946 02456 30000 10302 20190 30056 40060 83500 333 10328 58033 70002 83618==
41946,2023,04,23,15,00,AAXX 23154 41946 02556 30000 10258 20210 30075 40080 83400 333 58035 70000 82620==
41946,2023,04,23,18,00,AAXX 23184 41946 02956 00000 10243 20220 30085 40089 333 58031 70002==
41946,2023,04,23,21,00,AAXX 23214 41946 02956 00000 10234 20210 30083 40087 333 58031 70000==
41946,2023,04,24,00,00,AAXX 24004 41946 01/50 30000 10226 20210 30093 40098 70500 82031 333 58043 70002 82362==
41946,2023,04,24,03,00,AAXX 24034 41946 02956 00000 10298 20210 30119 40123 333 20222 58029 70002==
41946,2023,04,24,06,00,AAXX 24064 41946 02956 30000 10330 20200 30112 40117 80001 333 58033 70000 83080==
41946,2023,04,24,09,00,AAXX 24094 41946 01456 80000 10236 20220 30109 40114 79596 8492/ 333 58044 70014 83618 88459 81929==
41946,2023,04,24,12,00,AAXX 24124 41946 21956 40000 10270 20220 30083 40088 70196 82130 333 10336 58027 60018 70014 82825 83362==
41946,2023,04,24,15,00,AAXX 24154 41946 02956 00000 10236 20220 30111 40116 333 58036 70014==
41946,2023,04,24,18,00,AAXX 24183 41946 02956 30000 10235 20210 30112 40117 80001 333 58027 70014==
41946,2023,04,24,21,00,AAXX 24214 41946 41/56 30000 10220 20210 30106 40111 58023 70014 83080==
41946,2023,04,25,00,00,AAXX 25004 41946 01950 30000 10218 20210 30110 40114 70500 80001 333 58017 70014 83080==
41946,2023,04,25,03,00,AAXX 25033 41946 02956 20000 10295 20210 30131 40136 80001 333 20210 58012 70014 82080==
41946,2023,04,25,06,00,AAXX 25064 41946 02957 00000 10330 20210 30113 40117 333 58001 70014==
41946,2023,04,25,09,00,AAXX 25094 41946 02456 50000 10334 20180 30087 40092 82501 333 59022 70000 82618 83080==
41946,2023,04,25,12,00,AAXX 25124 41946 02456 60000 10312 20220 30071 40075 82520 333 10340 59012 70000 82618 84460==
41946,2023,04,25,15,00,AAXX 25154 41946 02/56 30000 10276 20240 30083 40088 83010 333 59028 70000 83459==
41946,2023,04,25,18,00,AAXX 25184 41946 02/56 60000 10260 20240 30086 40090 86020 333 59026 70000 86459==
41946,2023,04,25,21,00,AAXX 25214 41946 02/56 30000 10253 20240 30083 40087 83030 333 59023 70000 83362==
41946,2023,04,26,00,00,AAXX 26004 41946 01950 30000 10242 20230 30085 40089 70520 80001 333 59025 70000 83080==
41946,2023,04,26,03,00,AAXX 26034 41946 02/56 50000 10310 20240 30097 40101 85070 333 20210 59034 70000 83460 83362==
41946,2023,04,26,06,00,AAXX 26064 41946 02456 60000 10340 20210 30090 40095 84410 333 59023 70000 83618 84460==
41946,2023,04,26,09,00,AAXX 26094 41946 02456 60000 10350 20200 30063 40067 84410 333 59024 70000 83618 84460==
41946,2023,04,26,12,00,AAXX 26124 41946 02556 20000 10320 20220 30053 40057 82100 333 10352 59018 70000 82825==
41946,2023,04,26,15,00,AAXX 26154 41946 02956 00000 10290 20220 30069 40073 333 59014 70000==
41946,2023,04,26,18,00,AAXX 26184 41946 02956 00000 10285 20240 30067 40072 333 59019 70000==
41946,2023,04,26,21,00,AAXX 26214 41946 02956 00000 10260 20240 30069 40074 333 59014 70000==
41946,2023,04,27,00,00,AAXX 27004 41946 01950 00000 10254 20240 30073 40078 70500 333 59012 70000==
41946,2023,04,27,03,00,AAXX 27034 41946 02956 30000 10310 20250 30093 40097 80001 333 20247 59004 70000 83080==
41946,2023,04,27,06,00,AAXX 27064 41946 02557 10000 10350 20230 30090 40094 81500 333 58000 70000 81620==
41946,2023,04,27,09,00,AAXX 27094 41946 02957 01703 10364 20170 30053 40057 333 59010 70000==
41946,2023,04,27,12,00,AAXX 27124 41946 01350 80505 10226 20220 30072 40077 79596 8692/ 333 10366 58019 70230 83709 84616 88457 81928==
41946,2023,04,27,15,00,AAXX 27153 41946 01350 80000 10236 20230 30100 40105 79596 8592/ 333 58031 70340 82709 83617 88459 81929==
41946,2023,04,27,18,00,AAXX 27184 41946 01956 00000 10239 20230 30091 40096 70196 333 58024 70342==
41946,2023,04,27,21,00,AAXX 27214 41946 01940 00000 10236 20230 30084 40088 70500 333 58015 70342==
41947,2023,04,21,00,00,AAXX 21003 41947 02950 00000 10282 20270 30100 40102 333 59013 70000==
41947,2023,04,21,03,00,AAXX 21034 41947 02456 81802 10293 20270 30033 40036 8352/ 333 20278 58008 70000 83618 88459==
41947,2023,04,21,06,00,AAXX 21064 41947 02456 62304 10358 20240 30035 40037 83570 333 58017 70000 83618 85459==
41947,2023,04,21,09,00,AAXX 21094 41947 02456 62303 10380 20150 30019 40022 83570 333 58029 70000 83618 85459==
41947,2023,04,21,12,00,AAXX 21124 41947 02456 62302 10330 20150 30015 40017 83370 333 10382 58030 70000 83618 85459 81930==
41947,2023,04,21,15,00,AAXX 21154 41947 02450 62302 10300 20190 30033 40036 83570 333 58037 70000 83618 85459==
41947,2023,04,21,18,00,AAXX 21184 41947 02450 60000 10270 20200 30036 40039 83570 333 59065 70000 83618 85459==
41947,2023,04,21,21,00,AAXX 21214 41947 02950 00000 10255 20230 30034 40037 333 59064 70000==
41947,2023,04,22,00,00,AAXX 22004 41947 02950 00000 10250 20230 30032 40034 333 59068 70000==
41947,2023,04,22,03,00,AAXX 22034 41947 02956 01802 10310 20240 30046 40049 333 20245 58013 70000==
41947,2023,04,22,06,00,AAXX 22064 41947 02956 01802 10365 20170 30041 40044 333 58007 70000==
41947,2023,04,22,09,00,AAXX 22094 41947 02957 02804 10376 20230 30033 40035 333 58013 70000==
41947,2023,04,22,12,00,AAXX 22124 41947 02956 00000 10328 20220 30018 40020 333 10378 58003 70000==
41947,2023,04,22,15,00,AAXX 22154 41947 02950 00000 10288 20220 30040 40042 333 58006 70000==
41947,2023,04,22,18,00,AAXX 22184 41947 02950 00000 10270 20220 30049 40051 333 58012 70000==
41947,2023,04,23,00,00,AAXX 23004 41947 02450 80000 10260 20180 30063 40065 8352/ 333 58031 70000 83618 88458==
41947,2023,04,23,03,00,AAXX 23034 41947 02450 80000 10265 20170 30086 40089 8352/ 333 20250 58040 70000 83618 88458==
41947,2023,04,23,06,00,AAXX 23064 41947 02456 70000 10280 20200 30068 40071 333 58027 70000 83618 86458==
41947,2023,04,23,09,00,AAXX 23094 41947 02450 71802 10330 20180 30068 40070 83570 333 58035 70000 83618 86458==
41947,2023,04,23,12,00,AAXX 23124 41947 02456 60902 10292 20210 30068 40070 83570 333 10332 58050 70000 83618 84458==
41947,2023,04,23,15,00,AAXX 23154 41947 02450 21802 10260 20210 30080 40082 82500 333 58040 70000 82618==
41947,2023,04,23,18,00,AAXX 23184 41947 02950 01801 10245 20220 30083 40085 333 58034 70000==
41947,2023,04,23,21,00,AAXX 23214 41947 02950 00000 10235 20220 30097 40099 333 58047 70000==
41947,2023,04,24,00,00,AAXX 24004 41947 01950 00000 10228 20220 30099 40101 70500 333 58036 70000==
41947,2023,04,24,03,00,AAXX 24034 41947 02956 00000 10300 20210 30116 40118 333 20220 58029 70000==
41947,2023,04,24,06,00,AAXX 24064 41947 02/57 20000 10343 20190 30110 40112 82030 333 58041 70000 82362==
41947,2023,04,24,09,00,AAXX 24094 41947 01456 82803 10268 20240 30111 40113 79596 8592/ 333 58043 79996 83618 88456 81925==
41947,2023,04,24,12,00,AAXX 24124 41947 21457 20000 10292 20220 30082 40084 70196 82500 333 10344 58014 60015 70010 82618==
41947,2023,04,24,15,00,AAXX 24154 41947 02950 00000 10250 20240 30096 40098 333 58017 70010==
41947,2023,04,25,00,00,AAXX 25004 41947 02950 00000 10225 20220 30117 40119 333 58018 70010==
41947,2023,04,25,03,00,AAXX 25034 41947 02956 00000 10295 20190 30118 40120 333 20216 58002 70010==
41947,2023,04,25,06,00,AAXX 25064 41947 02/56 20000 10335 20200 30109 40112 82030 333 58000 70010 82362==
41947,2023,04,25,09,00,AAXX 25094 41947 02456 40000 10348 20210 30084 40086 83530 333 59027 70004 83618==
41947,2023,04,25,12,00,AAXX 25124 41947 02456 40000 10320 20210 30068 40070 84400 333 10350 58022 70000 82618 83825==
41947,2023,04,25,15,00,AAXX 25154 41947 02450 30000 10280 20230 30082 40084 83500 333 59021 70000 83618==
41947,2023,04,25,18,00,AAXX 25184 41947 02950 00000 10262 20240 30087 40089 333 59021 70000==
41947,2023,04,25,21,00,AAXX 25214 41947 02950 00000 10256 20250 30085 40087 333 59027 70000==
41947,2023,04,26,00,00,AAXX 26004 41947 01950 00000 10240 20240 30084 40086 70500 333 59037 70000==
41947,2023,04,26,03,00,AAXX 26034 41947 02456 40000 10315 20220 30092 40095 84500 333 20236 59025 70000 84618==
41947,2023,04,26,06,00,AAXX 26064 41947 02957 00000 10340 20210 30083 40089 333 59026 70000==
41947,2023,04,26,09,00,AAXX 26094 41947 02457 40000 10360 20190 30063 40065 84400 333 59021 70000 83618==
41947,2023,04,26,12,00,AAXX 26124 41947 02/57 40000 10338 20190 30057 40059 82031 333 10365 59011 70000 82362==
41947,2023,04,26,15,00,AAXX 26154 41947 02956 00000 10292 20240 30073 40076 333 59008 70000==
41947,2023,04,26,18,00,AAXX 26184 41947 02956 00000 10275 20240 30065 40068 333 59022 70000==
41947,2023,04,26,21,00,AAXX 26214 41947 02956 00000 10258 20240 30068 40070 333 59017 70000==
41947,2023,04,27,00,00,AAXX 27004 41947 02956 00000 10247 20240 30078 40080 333 59006 70000==
41947,2023,04,27,03,00,AAXX 27034 41947 02957 00000 10315 20240 30092 40095 333 20245 58000 70000==
41947,2023,04,27,06,00,AAXX 27064 41947 02958 00000 10363 20190 30086 40089 333 58003 70000==
41947,2023,04,27,09,00,AAXX 27094 41947 02958 01802 10373 20160 30054 40056 333 59009 70000==
41947,2023,04,27,12,00,AAXX 27124 41947 01350 83306 10242 20230 30077 40079 79521 8592/ 333 10375 58020 70006 82710 84614 88458 81928==
41947,2023,04,27,15,00,AAXX 27154 41947 01350 81303 10237 20220 30095 40097 72996 8532/ 333 58021 70060 82710 84616 88458 81930==
41947,2023,04,27,18,00,AAXX 27184 41947 21/56 30000 10242 20220 30085 40087 70196 83030 333 58009 60058 70060 83362==
41947,2023,04,27,21,00,AAXX 27214 41947 02956 00000 10236 20230 30089 40091 333 58021 70060==
41950,2023,04,21,00,00,AAXX 21004 41950 02950 00000 10282 20260 30019 40021 82500 333 59006 70000 82617==
41950,2023,04,21,03,00,AAXX 21034 41950 02456 61802 10305 20270 30046 40049 82570 333 20280 58007 70000 82616 85459 85362==
41950,2023,04,21,06,00,AAXX 21064 41950 02350 71804 10326 20260 30044 40047 85670 333 59014 70000 81708 85658==
41950,2023,04,21,09,00,AAXX 21094 41950 02450 61802 10337 20270 30020 40023 83570 333 58016 70000 83616 85459==
41950,2023,04,21,12,00,AAXX 21124 41950 02450 60000 10315 20280 30018 40021 83570 333 10344 58018 70000 83616 85459==
41950,2023,04,21,15,00,AAXX 21154 41950 02450 60000 10290 20280 30040 40043 83510 333 58027 70000 83617 85459==
41950,2023,04,21,18,00,AAXX 21184 41950 02450 20000 10257 20220 30035 40037 82500 333 58015 70000 82617==
41950,2023,04,21,21,00,AAXX 21214 41950 02450 20000 10242 20220 30036 40038 82500 333 58017 70000 82617==
41950,2023,04,22,00,00,AAXX 22004 41950 02450 10000 10233 20230 30043 40045 81501 333 58024 70000 81617==
41950,2023,04,22,03,00,AAXX 22034 41950 02950 02102 10302 20230 30063 40065 333 20280 58017 70000==
41950,2023,04,22,06,00,AAXX 22064 41950 02456 12105 10345 20210 30056 40058 81500 333 58012 70000 81618==
41950,2023,04,22,09,00,AAXX 22094 41950 02450 61803 10348 20210 30032 40035 83570 333 58012 70000 83617 85456==
41950,2023,04,22,12,00,AAXX 22124 41950 01450 41802 10300 20250 30024 40027 70196 82530 333 10355 58006 70010 82617 83362==
41950,2023,04,22,15,00,AAXX 22154 41950 02950 00000 10286 20260 30045 40047 333 58005 70012==
41950,2023,04,22,18,00,AAXX 22184 41950 02950 00000 10270 20260 30049 40051 333 58014 70000==
41950,2023,04,22,21,00,AAXX 22214 41950 02950 02702 10252 20230 30052 40055 333 58016 70000==
41950,2023,04,23,00,00,AAXX 23004 41950 02350 80000 10235 20230 30060 40063 8532/ 333 59003 70012 82708 84616 88458 81928==
41950,2023,04,23,03,00,AAXX 23034 41950 02350 80000 10282 20190 30092 40094 8562/ 333 20234 58029 70012 82708 84616 88458==
41950,2023,04,23,06,00,AAXX 23064 41950 02350 80000 10289 20190 30085 40087 8562/ 333 58029 70012 82708 84616 88458==
41950,2023,04,23,09,00,AAXX 23094 41950 02350 60000 10298 20210 30074 40076 84670 333 58042 70012 81708 84616 86459==
41950,2023,04,23,12,00,AAXX 23124 41950 02350 80000 10267 20200 30071 40073 8562/ 333 10299 58047 70000 82708 84616 88458==
41950,2023,04,23,15,00,AAXX 23154 41950 02950 00000 10237 20220 30081 40084 333 58036 70000==
41950,2023,04,23,18,00,AAXX 23184 41950 02950 00000 10222 20210 30087 40090 333 58038 70000==
41950,2023,04,23,21,00,AAXX 23214 41950 02950 00000 10218 20218 30090 40093 333 58038 70000==
41950,2023,04,24,00,00,AAXX 24004 41950 01445 30000 10213 20210 30093 40096 70510 82501 333 58033 70000 82616==
41950,2023,04,24,03,00,AAXX 24034 41950 02450 30000 10288 20230 30128 40131 82501 333 20207 58036 70000 82617==
41950,2023,04,24,06,00,AAXX 24064 41950 02450 30000 10332 20170 30119 40122 82501 333 58034 70000 82617==
41950,2023,04,24,09,00,AAXX 24094 41950 02450 70000 10337 20190 30103 40106 83510 333 58029 70000 83616 87459==
41950,2023,04,24,12,00,AAXX 24124 41950 02450 50000 10298 20220 30078 40080 83511 333 10345 58007 70000 83616 84459==
41950,2023,04,24,15,00,AAXX 24154 41950 02950 00000 10252 20220 30105 40107 333 58024 70000==
41950,2023,04,24,18,00,AAXX 24184 41950 02950 00000 10232 20220 30105 40107 333 58018 70000==
41950,2023,04,24,21,00,AAXX 24214 41950 02950 00000 10222 20210 30104 40107 333 58014 70000==
41950,2023,04,25,00,00,AAXX 25004 41950 01940 20000 10215 20210 30109 40112 70500 80001 333 58016 70000 82080==
41950,2023,04,25,03,00,AAXX 25034 41950 02950 13302 10302 20190 30129 40131 80001 333 20210 58001 70000 81080==
41950,2023,04,25,06,00,AAXX 25064 41950 02950 23602 10332 20170 30113 40116 80001 333 59006 70000 82080==
41950,2023,04,25,09,00,AAXX 25094 41950 02/50 20000 10350 20190 30087 40090 82031 333 59016 70000 82362==
41950,2023,04,25,12,00,AAXX 25124 41950 02450 60000 10307 20230 30070 40073 82571 333 10353 59008 70000 82616 84459==
41950,2023,04,25,15,00,AAXX 25154 41950 02450 60000 10264 20230 30087 40089 83571 333 59018 70000 83616 84459==
41950,2023,04,25,18,00,AAXX 25184 41950 02450 40000 10252 20240 30085 40087 82530 333 59020 70000 82617 84362==
41950,2023,04,25,21,00,AAXX 25214 41950 02450 40000 10232 20230 30084 40086 82530 333 59020 70000 82617 83362==
41950,2023,04,26,00,00,AAXX 26004 41950 01940 00000 10230 20230 30088 40091 70520 333 59021 70000==
41950,2023,04,26,03,00,AAXX 26034 41950 02956 10000 10316 20230 30106 40108 80001 333 20227 59023 70000 81080==
41950,2023,04,26,06,00,AAXX 26064 41950 02956 20000 10345 20180 30093 40096 81531 333 59020 70000 81617==
41950,2023,04,26,09,00,AAXX 26094 41950 02456 20000 10353 20180 30070 40073 82530 333 59017 70000 82617==
41950,2023,04,26,12,00,AAXX 26124 41950 02450 60000 10317 20210 30065 40068 83570 333 10356 59005 70000 83616 85459==
41950,2023,04,26,15,00,AAXX 26154 41950 02950 00000 10265 20220 30075 40077 333 59012 70000==
41950,2023,04,26,18,00,AAXX 26184 41950 02950 00000 10251 20220 30067 40069 333 59018 70000==
41950,2023,04,26,21,00,AAXX 26214 41950 02950 00000 10234 20220 30067 40070 333 59017 70000==
41950,2023,04,27,00,00,AAXX 27004 41950 01940 00000 10229 20229 30082 40084 70500 333 59006 70000==
41950,2023,04,27,03,00,AAXX 27034 41950 02950 00000 10312 20230 30107 40109 333 20225 58001 70000==
41950,2023,04,27,06,00,AAXX 27064 41950 02450 20000 10348 20190 30099 40102 81530 333 58006 70000 81617==
41950,2023,04,27,09,00,AAXX 27094 41950 02450 20000 10350 20190 30063 40066 82500 333 59007 70000 82617==
41950,2023,04,27,12,00,AAXX 27124 41950 01350 80000 10315 20230 30062 40065 71721 8692/ 333 10364 59003 70000 82708 84616 88458 81928==
41950,2023,04,27,15,00,AAXX 27154 41950 01350 81202 10225 20220 30114 40116 79596 8592/ 333 58039 70070 82708 84615 88458 81928==
41950,2023,04,27,18,00,AAXX 27184 41950 21350 80000 10230 20220 30087 40089 70296 8532/ 333 58020 60088 70080 82708 84616 88458 81928==
41950,2023,04,27,21,00,AAXX 27214 41950 NIL=
41951,2023,04,21,00,00,AAXX 21004 41951 02950 01302 10284 20260 30017 40022 333 59007 70000==
41951,2023,04,21,03,00,AAXX 21034 41951 02450 71504 10320 20270 30040 40045 83510 333 20276 58001 70000 83618 85459==
41951,2023,04,21,06,00,AAXX 21064 41951 02450 81504 10325 20270 30041 40046 8452/ 333 58009 70000 84618 88459==
41951,2023,04,21,09,00,AAXX 21094 41951 02456 61205 10330 20270 30013 40018 83510 333 58011 70000 83618 85459==
41951,2023,04,21,12,00,AAXX 21124 41951 02456 71403 10308 20280 30005 40010 83510 333 10335 58013 70000 83618 85459==
41951,2023,04,21,15,00,AAXX 21154 41951 02440 81304 10295 20280 30018 40023 8452/ 333 58012 70000 84618 88459==
41951,2023,04,21,18,00,AAXX 21184 41951 NIL=
41951,2023,04,21,21,00,AAXX 21214 41951 02440 80000 10264 20250 30024 40029 8452/ 333 58019 70000 84618 88458==
41951,2023,04,22,00,00,AAXX 22004 41951 02450 30000 10240 20240 30033 40038 83500 333 58016 70000 83618==
41951,2023,04,22,03,00,AAXX 22034 41951 02956 01802 10305 20260 30050 40054 333 20238 58010 70000==
41951,2023,04,22,06,00,AAXX 22064 41951 02456 52203 10355 20220 30047 40052 82510 333 58006 70000 82618 84459==
41951,2023,04,22,09,00,AAXX 22094 41951 02456 51803 10358 20230 30029 40034 82510 333 58016 70000 82618 84459==
41951,2023,04,22,12,00,AAXX 22124 41951 02456 61702 10322 20260 30022 40027 83510 333 10362 58017 70000 83618 85459==
41951,2023,04,22,15,00,AAXX 22154 41951 02450 51502 10298 20270 30039 40044 82510 333 58019 70000 82618 84459==
41951,2023,04,22,18,00,AAXX 22184 41951 02450 30000 10284 20270 30029 40034 83500 333 58014 70000 83618==
41951,2023,04,22,21,00,AAXX 22214 41951 02440 60000 10268 20250 30047 40051 83510 333 58023 70000 83618 85459==
41951,2023,04,23,00,00,AAXX 23004 41951 02440 80000 10248 20220 30055 40060 8452/ 333 58022 70000 84618 88459==
41951,2023,04,23,01,00,AAXX 23014 41951 02440 80000 10248 20220 30055 40060 8452/ 333 58022 70000 84618 88459==
41951,2023,04,23,03,00,AAXX 23034 41951 02450 73102 10300 20200 30083 40088 83510 333 20242 58033 70000 83618 86459==
41951,2023,04,23,06,00,AAXX 23064 41951 02456 62703 10300 20190 30079 40083 83510 333 58032 70000 83618 85459==
41951,2023,04,23,09,00,AAXX 23094 41951 02450 82703 10298 20220 30065 40069 8452/ 333 58036 70000 84618 88459==
41951,2023,04,23,12,00,AAXX 23124 41951 02450 60000 10270 20200 30063 40067 83510 333 10304 58041 70000 83618 85459==
41951,2023,04,23,15,00,AAXX 23154 41951 02450 50000 10260 20210 30075 40079 82510 333 58036 70000 83618 84459==
41951,2023,04,23,18,00,AAXX 23184 41951 02450 30000 10236 20210 30069 40073 83500 333 58040 70000 83618==
41951,2023,04,23,21,00,AAXX 23214 41951 02450 50000 10230 20220 30079 40084 82510 333 58032 70000 82618 84459==
41951,2023,04,24,00,00,AAXX 24004 41951 01450 50000 10226 20220 30089 40094 70522 82510 333 58034 70000 82618 84459==
41951,2023,04,24,03,00,AAXX 24034 41951 02956 00000 10307 20230 30114 40119 333 20214 58031 70000==
41951,2023,04,24,06,00,AAXX 24064 41951 02456 33602 10335 20210 30107 40112 83500 333 58028 70000 83618==
41951,2023,04,24,09,00,AAXX 24094 41951 02450 70502 10336 20210 30090 40095 83510 333 58022 70000 83618 85459==
41951,2023,04,24,12,00,AAXX 24124 41951 02456 60000 10303 20230 30078 40083 83510 333 10340 58015 70000 83618 85459==
41951,2023,04,24,15,00,AAXX 24154 41951 02950 00000 10276 20260 30091 40096 333 58016 70000==
41951,2023,04,24,18,00,AAXX 24184 41951 02950 00000 10265 20260 30083 40088 333 58019 70000==
41951,2023,04,24,21,00,AAXX 24214 41951 02950 00000 10224 20210 30107 40112 333 58028 70000==
41951,2023,04,25,00,00,AAXX 25004 41951 02450 30000 10226 20220 30106 40111 83500 333 58017 70000 83618==
41951,2023,04,25,03,00,AAXX 25034 41951 02956 03103 10310 20210 30114 40119 333 20218 58000 70000==
41951,2023,04,25,06,00,AAXX 25064 41951 02956 03103 10342 20210 30100 40105 333 59007 70000==
41951,2023,04,25,09,00,AAXX 25094 41951 02456 33303 10346 20220 30077 40082 83500 333 59013 70000 83618==
41951,2023,04,25,12,00,AAXX 25124 41951 02456 30000 10300 20240 30061 40066 83500 333 10348 59017 70000 83618==
41951,2023,04,25,15,00,AAXX 25154 41951 02950 00000 10262 20240 30085 40090 333 59019 70000==
41951,2023,04,25,18,00,AAXX 25184 41951 02450 50000 10243 20230 30080 40085 82510 333 59013 70000 82618 84459==
41951,2023,04,25,21,00,AAXX 25214 41951 01950 00000 10238 20230 30080 40085 70500 333 59027 70000==
41951,2023,04,26,00,00,AAXX 26004 41951 01950 00000 10235 20235 30080 40085 70500 333 59026 70000==
41951,2023,04,26,03,00,AAXX 26034 41951 02956 03102 10318 20220 30097 40102 333 20230 59017 70000==
41951,2023,04,26,06,00,AAXX 26064 41951 02456 33502 10350 20180 30084 40089 83500 333 59016 70000 83618==
41951,2023,04,26,09,00,AAXX 26094 41951 02956 03102 10356 20180 30063 40068 333 59014 70000==
41951,2023,04,26,12,00,AAXX 26124 41951 02456 60000 10307 20240 30055 40060 83510 333 10362 59017 70000 83618 85459==
41951,2023,04,26,15,00,AAXX 26154 41951 02950 00000 10265 20240 30075 40080 333 59010 70000==
41951,2023,04,26,18,00,AAXX 26184 41951 02950 00000 10252 20230 30069 40074 333 59011 70000==
41951,2023,04,27,00,00,AAXX 27004 41951 01950 00000 10235 20235 30077 40082 70500 333 59003 70000==
41951,2023,04,27,03,00,AAXX 27034 41951 02956 02703 10308 20240 30096 40101 333 20230 59001 70000==
41951,2023,04,27,06,00,AAXX 27064 41951 02956 00302 10348 20250 30092 40097 333 58008 70000==
41951,2023,04,27,09,00,AAXX 27094 41951 02956 02602 10364 20190 30061 40065 333 58001 70000==
41951,2023,04,27,12,00,AAXX 27124 41951 02440 80000 10310 20250 30057 40062 8452/ 333 10370 58002 70000 84618 88459==
41951,2023,04,27,15,00,AAXX 27154 41951 01330 82801 10232 20230 30117 40122 71396 8632/ 333 58042 70114 82708 84618 88458 81929==
41951,2023,04,27,18,00,AAXX 27184 41951 21340 82802 10238 20238 30084 40092 70296 8562/ 333 58015 60128 70119 81709 84618 88458==
41951,2023,04,27,21,00,AAXX 27214 41951 02440 60000 10233 20230 30086 40091 83510 333 58012 70119 83618 85459==
41953,2023,04,21,00,00,AAXX 21004 41953 02950 01801 10278 20270 30028 40033 333 59008 70000==
41953,2023,04,21,03,00,AAXX 21034 41953 02450 31805 10322 20270 30045 40050 83500 333 20275 59002 70000 83618==
41953,2023,04,21,06,00,AAXX 21064 41953 02450 71804 10332 20270 30040 40045 83570 333 58010 70000 83618 85458==
41953,2023,04,21,09,00,AAXX 21094 41953 02450 82306 10324 20290 30025 40030 8352/ 333 58010 70000 83616 88458==
41953,2023,04,21,12,00,AAXX 21124 41953 02450 60000 10308 20270 30026 40031 83570 333 10334 58026 70000 83616 84458==
41953,2023,04,21,15,00,AAXX 21154 41953 02430 80405 10220 20210 30057 40060 8632/ 333 58042 70010 84615 88458 81930==
41953,2023,04,21,18,00,AAXX 21184 41953 NIL=
41953,2023,04,21,21,00,AAXX 21214 41953 02430 30404 10226 20220 30043 40048 83500 333 58022 70010 83616==
41953,2023,04,22,00,00,AAXX 22004 41953 02440 30000 10228 20220 30040 40045 83500 333 58012 70010 83616==
41953,2023,04,22,03,00,AAXX 22034 41953 02950 01303 10310 20250 30065 40070 333 20220 58020 70010==
41953,2023,04,22,06,00,AAXX 22064 41953 02456 41302 10350 20230 30058 40063 84400 333 58015 70000 82618==
41953,2023,04,22,09,00,AAXX 22094 41953 02456 61803 10348 20250 30038 40043 85430 333 58013 70000 83616 84362==
41953,2023,04,22,12,00,AAXX 22124 41953 02450 50000 10305 20260 30027 40032 83530 333 10362 58001 70010 83618 83362==
41953,2023,04,22,15,00,AAXX 22154 41953 02940 00000 10276 20260 30041 40046 333 59016 70000==
41953,2023,04,22,18,00,AAXX 22184 41953 02940 00000 10272 20260 30044 40049 333 59014 70000==
41953,2023,04,22,21,00,AAXX 22214 41953 02940 00000 10264 20250 30031 40036 333 59012 70000==
41953,2023,04,23,00,00,AAXX 23004 41953 02440 30000 10256 20256 30060 40065 83500 333 58020 70000 83618==
41953,2023,04,23,03,00,AAXX 23034 41953 02440 80000 10288 20250 30086 40091 8352/ 333 20255 58021 70000 83616 88482==
41953,2023,04,23,06,00,AAXX 23064 41953 02440 83102 10310 20210 30082 40087 8452/ 333 58024 70000 84616 88458==
41953,2023,04,23,09,00,AAXX 23094 41953 02440 83105 10290 20190 30077 40082 8452/ 333 58039 70000 84616 88458==
41953,2023,04,23,12,00,AAXX 23124 41953 02440 60000 10274 20200 30071 40076 83570 333 10314 58044 70000 83616 84458==
41953,2023,04,23,15,00,AAXX 23154 41953 02430 83604 10265 20250 30077 40082 8452/ 333 58036 70000 85616 88458==
41953,2023,04,23,18,00,AAXX 23184 41953 02430 83603 10260 20260 30080 40085 8452/ 333 58036 70000 84616 88458==
41953,2023,04,23,21,00,AAXX 23214 41953 02430 33103 10234 20220 30081 40086 83500 333 58050 70000 83616==
41953,2023,04,24,00,00,AAXX 24004 41953 01940 03103 10225 20220 30097 40102 70520 333 58037 70000==
41953,2023,04,24,03,00,AAXX 24034 41953 01950 00000 10305 20210 30123 40128 70500 333 20223 58037 70000==
41953,2023,04,24,06,00,AAXX 24064 41953 02456 32703 10334 20170 30115 40120 83400 333 58033 70000 82618==
41953,2023,04,24,09,00,AAXX 24094 41953 02456 52703 10336 20180 30094 40099 82530 333 58017 70000 82618 84362==
41953,2023,04,24,12,00,AAXX 24124 41953 02450 83602 10306 20230 30079 40084 8452/ 333 10348 58008 70000 84616 88458==
41953,2023,04,24,15,00,AAXX 24154 41953 02940 00000 10260 20230 30100 40105 333 58023 70000==
41953,2023,04,24,21,00,AAXX 24214 41953 02940 00000 10242 20220 30103 40108 333 58022 70000==
41953,2023,04,25,00,00,AAXX 25004 41953 02440 23101 10236 20220 30105 40110 81530 333 58008 70000 81618==
41953,2023,04,25,03,00,AAXX 25034 41953 02450 43101 10306 20210 30128 40133 82530 333 20235 58005 70000 82618 83362==
41953,2023,04,25,06,00,AAXX 25064 41953 02950 03104 10340 20180 30110 40115 333 59005 70000==
41953,2023,04,25,09,00,AAXX 25094 41953 02950 03102 10350 20170 30077 40082 333 59017 70000==
41953,2023,04,25,12,00,AAXX 25124 41953 02950 03603 10315 20210 30067 40073 333 10354 59011 70000==
41953,2023,04,25,15,00,AAXX 25154 41953 02940 03104 10280 20230 30081 40086 333 59019 70000==
41953,2023,04,25,18,00,AAXX 25184 41953 02940 03103 10260 20230 30091 40096 333 59013 70000==
41953,2023,04,25,21,00,AAXX 25214 41953 02940 00000 10250 20230 30090 40095 333 59013 70000==
41953,2023,04,26,00,00,AAXX 26004 41953 02940 00000 10242 20230 30089 40094 333 59016 70000==
41953,2023,04,26,03,00,AAXX 26034 41953 02950 03102 10308 20230 30105 40110 333 20238 59023 70000==
41953,2023,04,26,06,00,AAXX 26064 41953 02/56 22702 10348 20190 30093 40098 82030 333 59017 70000 82362==
41953,2023,04,26,09,00,AAXX 26094 41953 02/56 23102 10356 20180 30073 40078 82030 333 59004 70000 82362==
41953,2023,04,26,12,00,AAXX 26124 41953 02450 60000 10326 20200 30060 40065 83570 333 10360 59008 70000 83616 84458==
41953,2023,04,26,15,00,AAXX 26154 41953 02940 00000 10280 20230 30074 40079 333 59007 70000==
41953,2023,04,26,18,00,AAXX 26184 41953 02940 00000 10272 20230 30079 40084 333 59012 70000==
41953,2023,04,26,21,00,AAXX 26214 41953 02940 00000 10258 20230 30081 40086 333 59009 70000==
41953,2023,04,27,00,00,AAXX 27004 41953 02950 00000 10244 20230 30087 40092 333 59002 70000==
41953,2023,04,27,03,00,AAXX 27034 41953 02950 00000 10306 20230 30103 40108 333 20240 59002 70000==
41953,2023,04,27,06,00,AAXX 27064 41953 02950 00000 10352 20240 30091 40096 333 59002 70000==
41953,2023,04,27,09,00,AAXX 27094 41953 02450 23103 10360 20240 30064 40069 82500 333 59009 70000 82618==
41953,2023,04,27,12,00,AAXX 27124 41953 02450 80000 10323 20240 30058 40063 8452/ 333 10361 59002 70000 84616 88458==
41953,2023,04,27,15,00,AAXX 27154 41953 01430 83105 10226 20220 30119 40124 79522 8692/ 333 58045 70010 84614 88458 82925==
41953,2023,04,27,18,00,AAXX 27184 41953 21430 83103 10230 20220 30091 40097 70296 8532/ 333 58012 60015 70020 84615 88458 81930==
41953,2023,04,27,21,00,AAXX 27214 41953 02430 83103 10226 20220 30089 40094 8452/ 333 58008 70020 84616 88458==
41955,2023,04,21,00,00,AAXX 21003 41955 NIL=
41955,2023,04,21,06,00,AAXX 21064 41955 NIL=
41955,2023,04,21,12,00,AAXX 21124 41955 NIL=
41955,2023,04,21,18,00,AAXX 21184 41955 NIL=
41955,2023,04,22,18,00,AAXX 22184 41955 NIL=
41955,2023,04,23,00,00,AAXX 23004 41955 NIL=
41955,2023,04,23,06,00,AAXX 23064 41955 NIL=
41955,2023,04,23,12,00,AAXX 23124 41955 NIL=
41955,2023,04,24,06,00,AAXX 24064 41955 NIL=
41955,2023,04,24,12,00,AAXX 24124 41955 NIL=
41955,2023,04,25,06,00,AAXX 25064 41955 NIL=
41955,2023,04,25,12,00,AAXX 25124 41955 NIL=
41955,2023,04,25,18,00,AAXX 25184 41955 NIL=
41955,2023,04,26,06,00,AAXX 26064 41955 NIL=
41955,2023,04,26,12,00,AAXX 26124 41955 NIL=
41955,2023,04,26,18,00,AAXX 26184 41955 NIL=
41955,2023,04,27,06,00,AAXX 27064 41955 NIL=
41955,2023,04,27,12,00,AAXX 27124 41955 NIL=
41955,2023,04,27,18,00,AAXX 27184 41955 NIL=
41958,2023,04,21,00,00,AAXX 21003 41958 32440 81701 10284 20270 30018 40020 8452/ 333 56999 58000 70000 84616 88458=
41958,2023,04,21,03,00,AAXX 21034 41958 32450 81703 10300 20290 30036 40038 8452/ 333 20280 56999 58001 70000 84616 88458=
41958,2023,04,21,06,00,AAXX 21064 41958 32957 01702 10348 20280 30042 40044 333 58011 70000=
41958,2023,04,21,09,00,AAXX 21094 41958 32456 80000 10362 20250 30013 40015 8452/ 333 56999 58016 70000 84616 88458=
41958,2023,04,21,12,00,AAXX 21124 41958 32450 82803 10330 20290 30021 40023 8452/ 333 10372 56999 58033 70000 84616 88458=
41958,2023,04,21,15,00,AAXX 21154 41958 32450 80000 10295 20220 30032 40034 8452/ 333 56999 58022 70000 84616 88458=
41958,2023,04,21,18,00,AAXX 21184 41958 NIL=
41958,2023,04,21,21,00,AAXX 21214 41958 32440 30000 10290 20280 30025 40027 83500 333 56900 58018 70000 83616=
41958,2023,04,22,00,00,AAXX 22004 41958 32940 00000 10250 20250 30038 40040 333 58020 70000=
41958,2023,04,22,03,00,AAXX 22034 41958 32956 01701 10320 20290 30055 40057 333 20247 58019 70000=
41958,2023,04,22,06,00,AAXX 22064 41958 32957 02802 10372 20230 30051 40053 333 58009 70000=
41958,2023,04,22,09,00,AAXX 22094 41958 32958 02801 10378 20200 30023 40025 333 58010 70000=
41958,2023,04,22,12,00,AAXX 22124 41958 32450 80000 10333 20250 30025 40027 8452/ 333 10380 56999 58004 70000 84616 88458=
41958,2023,04,22,15,00,AAXX 22154 41958 32950 02801 10290 20260 30040 40042 333 58008 70000=
41958,2023,04,22,18,00,AAXX 22184 41958 32940 00000 10278 20278 30052 40054 333 58027 70000=
41958,2023,04,22,21,00,AAXX 22213 41958 32940 00000 10270 20250 30040 40042 333 58009 70000=
41958,2023,04,23,00,00,AAXX 23004 41958 32440 80000 10263 20210 30050 40052 8452/ 333 56999 58012 70000 84616 88458=
41958,2023,04,23,03,00,AAXX 23034 41958 32450 80000 10294 20270 30046 40048 8452/ 333 20248 56999 59009 70000 84616 88458=
41958,2023,04,23,06,00,AAXX 23064 41958 11450 80501 10282 20200 30076 40078 69904 70262 8532/ 333 56999 58025 79999 84616 81930 88459=
41958,2023,04,23,09,00,AAXX 23094 41958 32450 73301 10310 20200 30068 40070 85370 333 56990 58045 79999 84616 81930 86459=
41958,2023,04,23,12,00,AAXX 23124 41958 32450 70901 10280 20220 30054 40056 85370 333 10312 56990 58029 79999 84616 81930 86459=
41958,2023,04,23,15,00,AAXX 23154 41958 32940 00901 10260 20210 30071 40073 333 58031 79999=
41958,2023,04,23,18,00,AAXX 23184 41958 32940 00000 10254 20210 30083 40085 333 58031 79999=
41958,2023,04,23,21,00,AAXX 23214 41958 32940 00000 10234 20220 30085 40087 333 58045 79999=
41958,2023,04,24,00,00,AAXX 24004 41958 32950 20801 10232 20220 30088 40090 82030 333 56090 58038 79999 82362=
41958,2023,04,24,03,00,AAXX 24034 41958 32957 00000 10304 20210 30116 40118 333 20220 58070 79999=
41958,2023,04,24,06,00,AAXX 24064 41958 32958 20501 10344 20180 30108 40110 80001 333 56009 58032 70000 82080=
41958,2023,04,24,09,00,AAXX 24094 41958 21440 82703 10266 20250 30099 40101 79596 8592/ 333 56699 58031 6998/ 70008 84616 81930 88458=
41958,2023,04,24,12,00,AAXX 24124 41958 11450 20000 10280 20240 30072 40074 60019 70196 80001 333 10350 56009 58018 70012 82080=
41958,2023,04,24,15,00,AAXX 24154 41958 32940 00000 10250 20240 30098 40100 333 58027 70012=
41958,2023,04,24,21,00,AAXX 24214 41958 32940 00000 10230 20210 30084 40086 333 59001 70012=
41958,2023,04,25,00,00,AAXX 25004 41958 32950 20000 10228 20210 30104 40106 82030 333 56090 58016 70012 82362=
41958,2023,04,25,03,00,AAXX 25034 41958 32957 20101 10300 20200 30119 40121 80001 333 20220 56009 58003 70012 82080=
41958,2023,04,25,06,00,AAXX 25064 41958 32958 23301 10336 20200 30105 40107 80001 333 56009 59003 70012 82080=
41958,2023,04,25,09,00,AAXX 25094 41958 32958 00000 10350 20190 30085 40087 333 59014 70004=
41958,2023,04,25,12,00,AAXX 25124 41958 32956 53401 10314 20200 30066 40068 80001 333 10354 56009 59006 70000 85080=
41958,2023,04,25,15,00,AAXX 25154 41958 32940 40000 10280 20220 30081 40083 80001 333 56009 59017 70000 84080=
41958,2023,04,25,18,00,AAXX 25184 41958 32940 40000 10276 20230 30086 40088 80001 333 56009 59020 70000 84080=
41958,2023,04,25,21,00,AAXX 25214 41958 31930 00000 10248 20240 30083 40085 70500 333 59001 70000=
41958,2023,04,26,00,00,AAXX 26004 41958 31915 20000 10246 20246 30084 40086 71000 82030 333 56090 59020 70000 82362=
41958,2023,04,26,03,00,AAXX 26034 41958 32950 30000 10316 20230 30100 40102 83030 333 20245 56090 59019 70000 83362=
41958,2023,04,26,06,00,AAXX 26064 41958 32958 20000 10350 20200 30090 40092 82030 333 56090 59015 70000 82362=
41958,2023,04,26,09,00,AAXX 26094 41958 32458 22501 10364 20170 30065 40067 82030 333 56090 59020 70000 82362=
41958,2023,04,26,12,00,AAXX 26124 41958 32956 21802 10316 20230 30057 40059 82030 333 10365 56090 59009 70000 82362=
41958,2023,04,26,15,00,AAXX 26154 41958 32950 00000 10280 20230 30067 40069 333 59014 70000=
41958,2023,04,26,18,00,AAXX 26184 41958 NIL=
41958,2023,04,26,21,00,AAXX 26214 41958 32940 00000 10252 20250 30071 40073 333 59012 70000=
41958,2023,04,27,00,00,AAXX 27004 41958 31950 00000 10250 20250 30075 40077 70500 333 59009 70000=
41958,2023,04,27,03,00,AAXX 27034 41958 32957 00000 10318 20240 30097 40099 333 20248 59003 70000=
41958,2023,04,27,06,00,AAXX 27064 41958 32558 12501 10354 20200 30091 40093 81100 333 56500 58001 70000 81825=
41958,2023,04,27,09,00,AAXX 27094 41958 32559 11801 10380 20200 30053 40055 81100 333 56400 59012 70000 81825=
41958,2023,04,27,12,00,AAXX 27124 41958 31430 83312 10326 20230 30090 40092 71792 8592/ 333 10381 56799 58033 70000 84616 82928 88458=
41958,2023,04,27,15,00,AAXX 27154 41958 21440 80502 10230 20230 30093 40095 72196 8532/ 333 56999 58026 6076/ 70756 84616 81930 88458=
41958,2023,04,27,18,00,AAXX 27184 41958 11440 70502 10240 20220 30095 40097 60768 70196 85410 333 56990 58022 70756 84616 87459=
41958,2023,04,27,21,00,AAXX 27214 41958 32940 00000 10236 20230 30084 40086 333 58013 70756=
41960,2023,04,21,00,00,AAXX 21003 41960 02940 01801 10279 20270 30025 40027 333 59001 70000==
41960,2023,04,21,03,00,AAXX 21034 41960 02456 81603 10310 20270 30057 40059 8442/ 333 20276 58011 70000 83618 88459==
41960,2023,04,21,06,00,AAXX 21064 41960 01456 81804 10322 20270 30049 40051 72122 8642/ 333 58012 70000 84617 83822 88459==
41960,2023,04,21,09,00,AAXX 21094 41960 42456 81802 10328 20270 30026 40027 8642/ 333 58010 84617 83822 88459==
41960,2023,04,21,12,00,AAXX 21124 41960 01440 71802 10307 20280 30020 40021 72122 85470 333 10334 58017 70000 83618 85459==
41960,2023,04,21,15,00,AAXX 21154 41960 42440 60000 10283 20280 30041 40043 84410 333 58022 83618 86459==
41960,2023,04,21,18,00,AAXX 21184 41960 42930 00903 10255 20230 30040 40042 333 58016==
41960,2023,04,21,21,00,AAXX 21214 41960 42930 01804 10248 20230 30042 40044 333 58018==
41960,2023,04,22,00,00,AAXX 22004 41960 42940 02701 10240 20240 30044 40046 333 58019==
41960,2023,04,22,03,00,AAXX 22034 41960 42958 02303 10315 20270 30067 40069 333 20239 58010==
41960,2023,04,22,06,00,AAXX 22064 41960 42958 02306 10353 20210 30062 40063 333 58013==
41960,2023,04,22,09,00,AAXX 22094 41960 42458 52003 10350 20250 30042 40043 85400 333 58016 84618==
41960,2023,04,22,12,00,AAXX 22124 41960 02456 61802 10310 20250 30031 40033 84410 333 10358 58011 70000 83618 86459==
41960,2023,04,22,15,00,AAXX 22154 41960 02940 00000 10280 20260 30037 40039 333 59004 70000==
41960,2023,04,22,18,00,AAXX 22184 41960 02930 00000 10270 20260 30054 40056 333 58014 70000==
41960,2023,04,22,21,00,AAXX 22214 41960 02430 51806 10265 20250 30057 40059 84410 333 58015 70000 83618 85459==
41960,2023,04,23,00,00,AAXX 23004 41960 02440 80501 10259 20220 30061 40063 8542/ 333 58017 70000 84618 88459==
41960,2023,04,23,03,00,AAXX 23034 41960 02456 82601 10285 20210 30083 40085 8442/ 333 20254 58016 70000 83618 88459==
41960,2023,04,23,06,00,AAXX 23064 41960 02457 72706 10304 20190 30090 40092 85470 333 58028 70000 83618 85459==
41960,2023,04,23,09,00,AAXX 23094 41960 02457 73103 10310 20190 30074 40076 84470 333 58032 70000 83618 85362==
41960,2023,04,23,12,00,AAXX 23124 41960 02450 71502 10283 20200 30071 40073 85470 333 10316 58004 70000 83618 85459==
41960,2023,04,23,15,00,AAXX 23154 41960 02440 40000 10252 20220 30083 40084 84400 333 58046 70000 83618==
41960,2023,04,23,18,00,AAXX 23184 41960 02930 00000 10234 20230 30090 40092 333 58036 70000==
41960,2023,04,23,21,00,AAXX 23214 41960 02930 01802 10230 20220 30092 40094 333 58035 70000==
41960,2023,04,24,00,00,AAXX 24004 41960 02440 30000 10226 20226 30094 40096 82401 333 58033 70000 81618 83080==
41960,2023,04,24,03,00,AAXX 24034 41960 02458 31801 10300 20210 30126 40128 83500 333 20222 58043 70000 83618==
41960,2023,04,24,06,00,AAXX 24064 41960 02458 60000 10340 20190 30118 40120 84410 333 58028 70000 83618 86459==
41960,2023,04,24,09,00,AAXX 24094 41960 02457 82704 10337 20180 30106 40107 8632/ 333 58032 70000 84617 88459 81929==
41960,2023,04,24,12,00,AAXX 24124 41960 21956 31801 10307 20230 30082 40084 70162 80001 333 10353 58011 60005 83080==
41960,2023,04,24,15,00,AAXX 24154 41960 42940 00000 10260 20240 30104 40106 333 58021==
41960,2023,04,24,18,00,AAXX 24184 41960 42930 00000 10250 20230 30110 40112 333 58020==
41960,2023,04,24,21,00,AAXX 24214 41960 42930 00000 10242 20220 30110 40111 333 58018==
41960,2023,04,25,00,00,AAXX 25004 41960 42440 33401 10233 20220 30110 40111 82401 333 58016 81618 83080==
41960,2023,04,25,03,00,AAXX 25034 41960 42458 33601 10300 20190 30126 40128 83400 333 20230 58000 82618==
41960,2023,04,25,06,00,AAXX 25064 41960 42458 33003 10340 20190 30114 40116 83500 333 59004 83618==
41960,2023,04,25,09,00,AAXX 25094 41960 42958 02704 10350 20190 30089 40090 333 59017==
41960,2023,04,25,12,00,AAXX 25124 41960 02456 32702 10328 20200 30073 40075 82401 333 10357 59009 70000 81618 83080==
41960,2023,04,25,15,00,AAXX 25154 41960 02440 60000 10278 20260 30091 40093 84410 333 59013 70000 83618 86459==
41960,2023,04,25,18,00,AAXX 25184 41960 02430 40000 10263 20250 30093 40095 84400 333 59017 70000 83618==
41960,2023,04,25,21,00,AAXX 25214 41960 02930 00000 10256 20250 30091 40093 333 59019 70000==
41960,2023,04,26,00,00,AAXX 26004 41960 02940 00000 10249 20240 30089 40091 333 59021 70000==
41960,2023,04,26,03,00,AAXX 26034 41960 02458 53003 10314 20200 30108 40110 85400 333 20246 59018 70000 84618==
41960,2023,04,26,06,00,AAXX 26064 41960 02458 31602 10350 20200 30097 40098 83500 333 59017 70000 83618==
41960,2023,04,26,09,00,AAXX 26094 41960 02457 71501 10350 20180 30074 40075 85470 333 59015 70000 83618 85459==
41960,2023,04,26,12,00,AAXX 26124 41960 02456 51801 10327 20220 30068 40069 84401 333 10361 59005 70000 83618 85080==
41960,2023,04,26,15,00,AAXX 26154 41960 02940 00000 10270 20220 30079 40081 333 59012 70000==
41960,2023,04,26,18,00,AAXX 26184 41960 02930 01802 10260 20230 30069 40071 333 59024 70000==
41960,2023,04,26,21,00,AAXX 26214 41960 02930 01804 10255 20250 30076 40078 333 59015 70000==
41960,2023,04,27,00,00,AAXX 27004 41960 02940 02701 10250 20250 30083 40085 333 59006 70000==
41960,2023,04,27,03,00,AAXX 27034 41960 02958 03302 10310 20260 30108 40110 333 20245 58000 70000==
41960,2023,04,27,06,00,AAXX 27064 41960 02458 32801 10353 20210 30099 40100 83400 333 58002 70000 82618==
41960,2023,04,27,09,00,AAXX 27094 41960 02459 32702 10367 20200 30067 40068 83400 333 59007 70000 82618==
41960,2023,04,27,12,00,AAXX 27124 41960 02956 31602 10320 20200 30060 40061 80001 333 10372 59008 70000 83080==
41960,2023,04,27,15,00,AAXX 27154 41960 01430 83608 10244 20210 30118 40120 71792 8692/ 333 58039 70000 84616 88459 82930==
41960,2023,04,27,18,00,AAXX 27184 41960 02430 80000 10242 20220 30088 40090 8542/ 333 58019 70000 84616 88459==
41960,2023,04,27,21,00,AAXX 27214 41960 02430 53606 10238 20220 30095 40097 84410 333 58019 70000 83618 85459==
41963,2023,04,21,00,00,AAXX 21003 41963 01930 01801 10280 20260 30020 40022 70500 333 59004 70000==
41963,2023,04,21,03,00,AAXX 21034 41963 02456 61803 10310 20280 30052 40054 82510 333 20265 58006 70000 82618 86458==
41963,2023,04,21,06,00,AAXX 21064 41963 02457 61805 10330 20270 30049 40052 82510 333 59006 70000 82618 86458==
41963,2023,04,21,09,00,AAXX 21094 41963 02457 61805 10315 20270 30034 40037 82510 333 59010 70000 82618 86458==
41963,2023,04,21,12,00,AAXX 21124 41963 02450 71802 10300 20270 30034 40037 82510 333 10335 58018 70000 82618 87458==
41963,2023,04,21,18,00,AAXX 21184 41963 NIL=
41963,2023,04,22,00,00,AAXX 22004 41963 02940 01801 10250 20250 30036 40039 333 58016 70000==
41963,2023,04,22,03,00,AAXX 22034 41963 02956 01802 10320 20270 30058 40061 333 20245 58006 70000==
41963,2023,04,22,06,00,AAXX 22064 41963 02958 01803 10345 20250 30064 40067 333 58015 70000==
41963,2023,04,22,09,00,AAXX 22094 41963 02456 21802 10330 20230 30049 40052 82500 333 58015 70000 82618==
41963,2023,04,22,12,00,AAXX 22124 41963 02950 31801 10300 20240 30034 40037 80001 333 10350 58018 70000 83080==
41963,2023,04,22,15,00,AAXX 22154 41963 02950 00000 10280 20260 30038 40040 333 59016 70000==
41963,2023,04,22,18,00,AAXX 22184 41963 NIL=
41963,2023,04,23,00,00,AAXX 23004 41963 01440 50000 10270 20260 30047 40050 70520 82510 333 58011 70000 82618 85458==
41963,2023,04,23,01,00,AAXX 23014 41963 01440 50000 10270 20260 30047 40050 70520 82510 333 58011 70000 82618 85458==
41963,2023,04,23,03,00,AAXX 23034 41963 02456 52801 10310 20210 30050 40052 82510 333 20250 59008 70000 82618 85458==
41963,2023,04,23,06,00,AAXX 23064 41963 02458 41802 10320 20180 30080 40083 82510 333 58016 70000 82618 84458==
41963,2023,04,23,09,00,AAXX 23094 41963 02458 41803 10320 20180 30075 40078 82510 333 58006 70000 82618 84458==
41963,2023,04,23,12,00,AAXX 23124 41963 02456 20000 10280 20200 30068 40070 82500 333 10300 58034 70000 82618==
41963,2023,04,23,15,00,AAXX 23154 41963 02440 61801 10270 20210 30070 40042 82510 333 58032 70000 82618 86458==
41963,2023,04,24,00,00,AAXX 24004 41963 01920 00000 10265 20210 30082 40085 71020 333 58035 70000==
41963,2023,04,24,03,00,AAXX 24034 41963 02956 01801 10280 20210 30107 40109 333 20220 58057 70000==
41963,2023,04,24,06,00,AAXX 24064 41963 02457 51802 10340 20170 30114 40117 82510 333 58034 70000 82618 85458==
41963,2023,04,24,09,00,AAXX 24094 41963 02457 21801 10340 20190 30093 40096 82510 333 58018 70000 82618==
41963,2023,04,24,12,00,AAXX 24124 41963 02950 00000 10300 20270 30074 40076 333 10350 58006 70000==
41963,2023,04,24,15,00,AAXX 24154 41963 01940 00000 10255 20240 30098 40101 70500 333 58028 70000==
41963,2023,04,25,00,00,AAXX 25004 41963 01940 00000 10245 20245 30104 40107 70500 333 58022 70000==
41963,2023,04,25,03,00,AAXX 25034 41963 02956 03601 10300 20220 30115 40118 333 20230 58008 70000==
41963,2023,04,25,06,00,AAXX 25064 41963 02958 43602 10340 20210 30109 40112 80001 333 59005 70000 84080==
41963,2023,04,25,09,00,AAXX 25094 41963 02958 43602 10340 20210 30092 40095 80001 333 59001 70000 84080==
41963,2023,04,25,12,00,AAXX 25124 41963 02956 00000 10305 20230 30076 40079 333 10350 58002 70000==
41963,2023,04,25,15,00,AAXX 25154 41963 01940 00000 10260 20240 30083 40086 70500 333 59015 70000==
41963,2023,04,25,18,00,AAXX 25184 41963 NIL=
41963,2023,04,26,00,00,AAXX 26004 41963 01930 00000 10245 20245 30084 40087 70500 333 59020 70000==
41963,2023,04,26,03,00,AAXX 26034 41963 02956 01302 10320 20220 30097 40100 333 20240 59018 70000==
41963,2023,04,26,06,00,AAXX 26064 41963 02958 01302 10340 20190 30094 40097 333 59015 70000==
41963,2023,04,26,09,00,AAXX 26094 41963 02458 31801 10350 20200 30070 40073 83500 333 59022 70000==
41963,2023,04,26,12,00,AAXX 26124 41963 02456 41801 10310 20230 30068 40070 82530 333 10360 59008 70000 82618 84362==
41963,2023,04,26,15,00,AAXX 26154 41963 01950 00000 10260 20250 30066 40069 70500 333 70000==
41963,2023,04,26,18,00,AAXX 26184 41963 NIL=
41963,2023,04,27,00,00,AAXX 27004 41963 01940 00000 10245 20245 30081 40084 70500 333 59003 70000==
41963,2023,04,27,03,00,AAXX 27034 41963 02956 00000 10315 20230 30096 40099 333 20235 59001 70000==
41963,2023,04,27,06,00,AAXX 27064 41963 02958 01801 10345 20200 30091 40094 333 59003 70000==
41963,2023,04,27,09,00,AAXX 27094 41963 02958 01301 10360 20200 30070 40073 333 58000 70000==
41963,2023,04,27,12,00,AAXX 27124 41963 02956 01801 10310 20250 30048 40051 333 10365 59020 70000==
41963,2023,04,27,15,00,AAXX 27154 41963 02950 02801 10260 20190 30106 40109 333 58040 70000==
41963,2023,04,27,18,00,AAXX 27184 41963 NIL=
41964,2023,04,21,00,00,AAXX 21004 41964 02456 12003 10296 20270 30027 40029 81500 333 59006 70000 81618==
41964,2023,04,21,03,00,AAXX 21034 41964 42457 41806 10319 20270 30042 40044 84500 333 20280 59003 84618==
41964,2023,04,21,06,00,AAXX 21064 41964 02457 72306 10319 20270 30044 40046 85510 333 58010 70000 85618 84460==
41964,2023,04,21,09,00,AAXX 21094 41964 02456 82304 10310 20270 30019 40021 8562/ 333 58011 70000 85617 88459==
41964,2023,04,21,12,00,AAXX 21124 41964 02456 72602 10306 20270 30019 40021 84610 333 10327 58016 70000 84617 86460==
41964,2023,04,21,15,00,AAXX 21154 41964 01350 80507 10254 20200 30055 40058 71792 8632/ 333 58041 70000 84708 83616 88459 81928==
41964,2023,04,21,18,00,AAXX 21184 41964 01450 83203 10240 20210 30050 40052 70292 8632/ 333 58033 70000 85617 88459 81928==
41964,2023,04,21,21,00,AAXX 21214 41964 02/50 40000 10238 20220 30040 40043 80010 333 58020 70000 84460==
41964,2023,04,22,00,00,AAXX 22004 41964 01950 30000 10236 20230 30031 40034 70521 80002 333 58004 70000 83080==
41964,2023,04,22,03,00,AAXX 22034 41964 02557 22303 10320 20260 30057 40059 82500 333 58015 70000 82620==
41964,2023,04,22,06,00,AAXX 22064 41964 02580 31904 10335 20270 30053 40055 83100 333 58009 70000 83825==
41964,2023,04,22,09,00,AAXX 22094 41964 02457 62104 10329 20270 30033 40035 84310 333 58014 70000 83618 84460 81928==
41964,2023,04,22,12,00,AAXX 22124 41964 02456 50000 10305 20260 30025 40027 81512 333 10341 58006 70000 81618 84460 83080==
41964,2023,04,22,18,00,AAXX 22184 41964 02450 30000 10261 20240 30043 40046 83500 333 59007 70000 83618==
41964,2023,04,22,21,00,AAXX 22214 41964 02450 20000 10263 20260 30048 40050 82500 333 58008 70000 82618==
41964,2023,04,23,00,00,AAXX 23004 41964 01/50 40000 10266 20270 30058 40060 70520 84030 333 58027 70000 84362==
41964,2023,04,23,03,00,AAXX 23034 41964 02556 42303 10308 20200 30081 40083 82410 333 20251 58024 70000 81625 83460==
41964,2023,04,23,06,00,AAXX 23064 41964 02457 50503 10344 20180 30073 40075 82510 333 58020 70000 82619 84460==
41964,2023,04,23,09,00,AAXX 23094 41964 02/57 53003 10320 20200 30060 40062 84031 333 58027 70000 84362==
41964,2023,04,23,12,00,AAXX 23124 41964 02/56 30000 10285 20210 30054 40056 83030 333 10345 58029 70000 83365==
41964,2023,04,23,15,00,AAXX 23154 41964 02/50 30000 10250 20210 30067 40070 83010 333 58029 70000 83460==
41964,2023,04,23,18,00,AAXX 23184 41964 02450 20000 10241 20210 30070 40073 82500 333 58027 70000 82618==
41964,2023,04,23,21,00,AAXX 23214 41964 02450 20000 10229 20220 30077 40079 82500 333 58029 70000 82618==
41964,2023,04,24,00,00,AAXX 24004 41964 01/50 30000 10222 20220 30085 40087 70520 83030 333 58027 70000 83365==
41964,2023,04,24,03,00,AAXX 24034 41964 02/56 51401 10310 20230 30112 40114 85030 333 20215 58031 70000 85362==
41964,2023,04,24,06,00,AAXX 24064 41964 02/57 43201 10345 20180 30103 40105 82012 333 58030 70000 82460 84080==
41964,2023,04,24,09,00,AAXX 24094 41964 02958 13502 10349 20170 30085 40088 80002 333 58025 70000 81080==
41964,2023,04,24,12,00,AAXX 24124 41964 02/57 50000 10310 20210 30071 40074 82012 333 10352 58017 70000 82460 84080==
41964,2023,04,24,15,00,AAXX 24154 41964 02956 00000 10256 20230 30091 40093 333 58024 70000==
41964,2023,04,24,21,00,AAXX 24214 41964 02950 20000 10245 20240 30097 40099 80002 333 58020 70000 82080==
41964,2023,04,25,00,00,AAXX 25004 41964 02956 40000 10240 20230 30097 40100 80002 333 58012 70000 84080==
41964,2023,04,25,03,00,AAXX 25034 41964 02957 10502 10314 20220 30111 40113 80001 333 20225 59001 70000 81080==
41964,2023,04,25,06,00,AAXX 25064 41964 02958 30302 10350 20190 30099 40101 80002 333 59004 70000 83080==
41964,2023,04,25,09,00,AAXX 25094 41964 02558 23601 10357 20200 30072 40074 81102 333 59013 70000 81825==
41964,2023,04,25,12,00,AAXX 25124 41964 02957 12702 10311 20200 30061 40063 80002 333 10364 59010 70000 81080==
41964,2023,04,25,15,00,AAXX 25154 41964 02/56 30000 10266 20240 30076 40079 83010 333 59015 70000 83460==
41964,2023,04,25,18,00,AAXX 25184 41964 NIL=
41964,2023,04,25,21,00,AAXX 25214 41964 02950 00000 10251 20230 30079 40081 333 59018 70000==
41964,2023,04,26,00,00,AAXX 26004 41964 02956 00000 10239 20230 30080 40082 333 59017 70000==
41964,2023,04,26,03,00,AAXX 26034 41964 02957 00501 10327 20090 30093 40095 333 20229 59018 70000==
41964,2023,04,26,06,00,AAXX 26064 41964 02958 23302 10354 20160 30081 40083 80001 333 59018 70000 82080==
41964,2023,04,26,09,00,AAXX 26094 41964 02958 33403 10365 20150 30058 40060 80001 333 59014 70000 83080==
41964,2023,04,26,12,00,AAXX 26124 41964 02/56 50000 10300 20230 30054 40056 84011 333 10367 59007 70000 84460 83080==
41964,2023,04,26,15,00,AAXX 26154 41964 02956 00000 10266 20250 30066 40068 333 59010 70000==
41964,2023,04,26,18,00,AAXX 26184 41964 NIL=
41964,2023,04,26,21,00,AAXX 26214 41964 02950 00000 10250 20240 30075 40078 333 59004 70000==
41964,2023,04,27,00,00,AAXX 27004 41964 01950 00000 10240 20238 30081 40084 70520 333 58001 70000==
41964,2023,04,27,03,00,AAXX 27034 41964 02957 00000 10324 20220 30094 40096 333 20230 58001 70000==
41964,2023,04,27,06,00,AAXX 27064 41964 02958 00102 10358 20210 30085 40088 333 58004 70000==
41964,2023,04,27,09,00,AAXX 27094 41964 02458 21402 10362 20210 30055 40057 82500 333 59003 70000 82618==
41964,2023,04,27,12,00,AAXX 27124 41964 02/56 52602 10315 20240 30054 40056 84012 333 10372 58000 70000 84460 83080==
41964,2023,04,27,15,00,AAXX 27153 41964 01450 73603 10260 20180 30103 40105 71392 84310 333 58037 70000 84617 85460 81928==
41964,2023,04,27,18,00,AAXX 27184 41964 01450 61402 10255 20220 30088 40090 70192 83510 333 58019 70000 83618 84460==
41964,2023,04,27,21,00,AAXX 27214 41964 02/50 40000 10234 20210 30089 40091 84010 333 58014 70000 84460==
41965,2023,04,21,00,00,AAXX 21003 41965 NIL=
41965,2023,04,21,03,00,AAXX 21034 41965 01440 51402 10320 20220 30055 40063 70540 84430 333 20278 59030 70000 82618 84460==
41965,2023,04,21,06,00,AAXX 21064 41965 NIL=
41965,2023,04,21,09,00,AAXX 21094 41965 01450 82202 10320 20220 30040 40048 70542 83310 333 59030 70000 81710 83618 88460 81928==
41965,2023,04,21,12,00,AAXX 21124 41965 01456 80000 10320 20220 30050 40058 70542 83310 333 59030 70000 83618 88460 81928==
41965,2023,04,21,18,00,AAXX 21184 41965 NIL=
41965,2023,04,22,00,00,AAXX 22004 41965 01940 00000 10230 20210 30050 40058 70540 333 58005 70000==
41965,2023,04,22,03,00,AAXX 22034 41965 01940 00000 10290 20200 30058 40066 70540 333 20225 58005 70000==
41965,2023,04,22,12,00,AAXX 22124 41965 01440 50000 10300 20220 30040 40048 70542 83310 333 10340 58004 70000 82618 84460==
41965,2023,04,22,18,00,AAXX 22184 41965 NIL=
41965,2023,04,23,00,00,AAXX 23004 41965 NIL=
41965,2023,04,23,03,00,AAXX 23034 41965 01440 70000 10300 20220 30060 40068 70540 83310 333 20245 58003 70000 82618 86460==
41965,2023,04,23,06,00,AAXX 23064 41965 NIL=
41965,2023,04,23,09,00,AAXX 23094 41965 01450 70000 10330 20220 30050 40058 70542 83310 333 58010 70000 83618 86460==
41965,2023,04,23,12,00,AAXX 23124 41965 01440 70000 10300 20220 30050 40058 70540 83310 333 10344 58010 70000 83618 86460==
41965,2023,04,24,03,00,AAXX 24034 41965 01440 50000 10300 20220 30065 40073 70542 84430 333 20210 58002 70000 82618 84460==
41965,2023,04,24,06,00,AAXX 24064 41965 NIL=
41965,2023,04,24,09,00,AAXX 24094 41965 01456 50000 10345 20220 30078 40086 70542 84430 333 58010 70000 83618 84460==
41965,2023,04,24,12,00,AAXX 24124 41965 01440 50000 10300 20220 30077 40085 70542 84430 333 10350 58007 70000 82618 83362==
41965,2023,04,25,03,00,AAXX 25034 41965 01940 00000 10300 20220 30111 40119 70540 333 20210 58021 70000==
41965,2023,04,25,06,00,AAXX 25064 41965 01956 01302 10345 20160 30095 40103 70540 333 58013 70000==
41965,2023,04,25,09,00,AAXX 25094 41965 01956 00000 10350 20210 30080 40088 70540 333 58010 70000==
41965,2023,04,25,12,00,AAXX 25124 41965 01940 00000 10310 20220 30080 40088 70540 333 10363 58010 70000==
41965,2023,04,25,18,00,AAXX 25184 41965 NIL=
41965,2023,04,26,03,00,AAXX 26034 41965 01940 00000 10320 20220 30101 40109 70540 333 20220 59010 70000==
41965,2023,04,26,06,00,AAXX 26064 41965 NIL=
41965,2023,04,26,12,00,AAXX 26124 41965 42/56 30000 10350 20200 30080 40088 59005 83080==
41965,2023,04,26,18,00,AAXX 26184 41965 01940 00000 10270 20220 30069 40077 70540 333 59016 70000==
41965,2023,04,27,00,00,AAXX 27004 41965 01940 00000 10230 20210 30081 40089 70540 333 59009 70000==
41965,2023,04,27,03,00,AAXX 27034 41965 01940 00000 10300 20220 30092 40100 70540 333 20220 59009 70000==
41965,2023,04,27,06,00,AAXX 27064 41965 01956 01402 10345 20160 30085 40093 70540 333 58000 70000==
41965,2023,04,27,09,00,AAXX 27094 41965 01956 00000 10365 20170 30080 40088 70540 333 58000 70000==
41965,2023,04,27,12,00,AAXX 27124 41965 01940 50000 10320 20220 30080 40088 70540 84430 333 10370 58000 70000 82618 83360==
41965,2023,04,27,18,00,AAXX 27184 41965 NIL=
41966,2023,04,21,00,00,AAXX 21004 41966 02940 00000 10285 20270 39964 40042 333 59002 70000==
41966,2023,04,21,03,00,AAXX 21034 41966 02/50 30000 10330 20250 39977 40054 83010 333 20275 59003 70000 83460==
41966,2023,04,21,06,00,AAXX 21064 41966 02450 72201 10329 20210 39976 40053 83510 333 58008 70000 83616 86460==
41966,2023,04,21,09,00,AAXX 21094 41966 02450 71301 10310 20210 39958 40035 83510 333 58019 70000 83616 86460==
41966,2023,04,21,12,00,AAXX 21124 41966 02450 70000 10300 20260 39958 40036 83510 333 10336 58015 70000 83616 86460==
41966,2023,04,21,15,00,AAXX 21154 41966 01420 71803 10230 20230 30003 40083 72996 83510 333 58048 70180 83616 86460==
41966,2023,04,21,18,00,AAXX 21184 41966 NIL=
41966,2023,04,21,21,00,AAXX 21214 41966 02420 60000 10218 20210 39971 40051 82510 333 58015 70200 82616 85460==
41966,2023,04,22,00,00,AAXX 22004 41966 02440 60000 10220 20210 39974 40054 82510 333 58012 70200 82616 85460==
41966,2023,04,22,03,00,AAXX 22034 41966 02950 00000 10310 20210 30000 40078 333 20205 58024 70200==
41966,2023,04,22,06,00,AAXX 22064 41966 02950 00000 10340 20180 39989 40066 333 58013 70200==
41966,2023,04,22,09,00,AAXX 22094 41966 02950 60000 10325 20200 39978 40054 82510 333 58019 70200 82616 86460==
41966,2023,04,22,12,00,AAXX 22124 41966 02940 61801 10310 20250 39963 40040 82510 333 10350 58004 70200 82616 85460==
41966,2023,04,22,15,00,AAXX 22154 41966 02430 60000 10280 20250 39988 40067 82510 333 59016 70020 82616 85460==
41966,2023,04,22,18,00,AAXX 22184 41966 NIL=
41966,2023,04,23,00,00,AAXX 23004 41966 02440 60901 10260 20250 30000 40079 82510 333 59025 70000 82616 85460==
41966,2023,04,23,03,00,AAXX 23034 41966 02450 40000 10305 20170 30028 40106 82510 333 20252 58028 70000 82616 83460==
41966,2023,04,23,06,00,AAXX 23064 41966 01450 72201 10230 20210 30025 40104 72196 83510 333 58038 70040 82616 86460==
41966,2023,04,23,09,00,AAXX 23094 41966 02450 70000 10298 20170 30001 40079 83510 333 58025 70042 83616 86460==
41966,2023,04,23,12,00,AAXX 23124 41966 02440 50000 10265 20200 39998 40077 82510 333 10310 58037 70042 82616 84460==
41966,2023,04,23,15,00,AAXX 23154 41966 02430 50000 10260 20230 30006 40085 82510 333 58018 70042 82616 84460==
41966,2023,04,23,21,00,AAXX 23214 41966 02/20 40000 10240 20230 39993 40072 84010 333 58032 70042 84460==
41966,2023,04,24,00,00,AAXX 24004 41966 02/40 40000 10220 20210 30022 40102 84010 333 58023 70042 84460==
41966,2023,04,24,03,00,AAXX 24034 41966 02/50 30000 10295 20210 30044 40122 83010 333 20210 58016 70042 83460==
41966,2023,04,24,06,00,AAXX 24064 41966 02/50 30000 10340 20100 30037 40114 83010 333 58010 70000 83460==
41966,2023,04,24,09,00,AAXX 24094 41966 02/50 30000 10355 20060 30017 40093 83010 333 58014 70000 83460==
41966,2023,04,24,12,00,AAXX 24124 41966 02440 40000 10300 20160 30011 40089 82510 333 10360 58012 70000 82616 83460==
41966,2023,04,24,15,00,AAXX 24154 41966 02430 40000 10285 20230 30017 40095 82510 333 58010 70000 82616 83460==
41966,2023,04,24,21,00,AAXX 24214 41966 02420 40000 10245 20240 30002 40081 82510 333 58009 70000 82616 83460==
41966,2023,04,25,00,00,AAXX 25004 41966 02440 40000 10225 20225 30025 40105 82510 333 58003 70000 82616 83460==
41966,2023,04,25,03,00,AAXX 25034 41966 02950 00000 10316 20190 30042 40120 333 20215 70000==
41966,2023,04,25,06,00,AAXX 25064 41966 02450 41301 10340 20150 30036 40113 82510 333 59001 70000 82616 83460==
41966,2023,04,25,09,00,AAXX 25094 41966 02/50 30000 10360 20120 30015 40091 83010 333 59002 70000 83460==
41966,2023,04,25,12,00,AAXX 25124 41966 02/40 30000 10315 20170 39996 40073 83010 333 10365 59016 70000 83460==
41966,2023,04,25,15,00,AAXX 25154 41966 02/30 30000 10280 20210 30006 40085 83010 333 59010 70000 83560==
41966,2023,04,25,18,00,AAXX 25184 41966 NIL=
41966,2023,04,25,21,00,AAXX 25214 41966 02/20 30000 10245 20245 39996 40075 83010 333 59006 70000 83460==
41966,2023,04,26,00,00,AAXX 26004 41966 02/40 30000 10230 20230 30011 40091 83010 333 59014 70000 83460==
41966,2023,04,26,03,00,AAXX 26034 41966 02950 00000 10325 20200 30038 40115 333 20220 59005 70000==
41966,2023,04,26,06,00,AAXX 26064 41966 02450 40201 10350 20130 30016 40093 82510 333 59020 70000 82616 83460==
41966,2023,04,26,09,00,AAXX 26094 41966 02/50 33501 10365 20000 39994 40071 83010 333 59020 70000 83460==
41966,2023,04,26,12,00,AAXX 26124 41966 02440 50000 10295 20190 39989 40067 82510 333 10370 59006 70000 82616 84460==
41966,2023,04,26,15,00,AAXX 26154 41966 02430 50000 10280 20220 30002 40081 82510 333 59004 70000 82616 84460==
41966,2023,04,26,18,00,AAXX 26184 41966 NIL=
41966,2023,04,26,21,00,AAXX 26214 41966 02420 40000 10232 20220 39993 40073 82510 333 59002 70000 82616 83460==
41966,2023,04,27,00,00,AAXX 27004 41966 02440 40000 10210 20200 30010 40090 82510 333 59001 70000 82616 83460==
41966,2023,04,27,03,00,AAXX 27034 41966 02950 00401 10315 20160 30038 40116 333 20200 58001 70000==
41966,2023,04,27,06,00,AAXX 27064 41966 02950 00000 10356 20120 30026 40102 333 58009 70000==
41966,2023,04,27,09,00,AAXX 27094 41966 02/50 30000 10370 20050 39995 40071 83010 333 58000 70000 83460==
41966,2023,04,27,12,00,AAXX 27124 41966 02/40 30000 10320 20150 39994 40072 83010 333 10375 58005 70000 83460==
41966,2023,04,27,15,00,AAXX 27154 41966 02420 52103 10275 20240 30026 40105 82510 333 58024 70000 82616 84460==
41966,2023,04,27,18,00,AAXX 27184 41966 NIL=
41966,2023,04,27,21,00,AAXX 27214 41966 02920 00000 10245 20240 30001 40080 333 58007 70000==
41977,2023,04,21,00,00,AAXX 21003 41977 01350 80000 10280 20270 30012 40050 79695 8672/ 333 59008 70030 83709 84615 88458==
41977,2023,04,21,03,00,AAXX 21034 41977 02456 51804 10320 20270 30034 40041 333 20275 59001 70030 83570 83618 85362==
41977,2023,04,21,06,00,AAXX 21064 41977 02456 81805 10314 20230 30038 40076 333 58003 70030 86782 83709 84616 88458==
41977,2023,04,21,09,00,AAXX 21094 41977 02450 82605 10302 20270 30026 40064 8672/ 333 58007 70030 83712 84616 88458==
41977,2023,04,21,12,00,AAXX 21124 41977 02450 82704 10302 20280 30039 40076 8672/ 333 10334 58028 70030 83712 84616 88458==
41977,2023,04,21,18,00,AAXX 21184 41977 22350 82708 10235 20220 30028 40066 8672/ 333 58018 60028 70080 83712 84616 88458==
41977,2023,04,21,21,00,AAXX 21214 41977 02450 50000 10232 20210 30025 40064 83570 333 58015 70080 83618 85362==
41977,2023,04,22,00,00,AAXX 22004 41977 01350 70000 10240 20220 30015 40053 70522 8562/ 333 58003 70050 82712 84616 88460==
41977,2023,04,22,03,00,AAXX 22034 41977 01956 00000 10311 20250 30071 40109 70520 333 20221 58037 70050==
41977,2023,04,22,06,00,AAXX 22064 41977 02456 31806 10330 20260 30045 40082 333 58007 70050 83530 83618 82365==
41977,2023,04,22,09,00,AAXX 22094 41977 02456 62405 10328 20270 30046 40083 85670 333 58020 70050 82714 84618 85365==
41977,2023,04,22,12,00,AAXX 22124 41977 01456 30000 10305 20260 30041 40078 70521 83530 333 10336 58002 70050 83618 82365==
41977,2023,04,22,15,00,AAXX 22154 41977 01450 30000 10278 20270 30022 40060 70520 83530 333 59021 70020 83618 82365==
41977,2023,04,22,18,00,AAXX 22184 41977 NIL=
41977,2023,04,22,21,00,AAXX 22214 41977 01350 60000 10270 20270 30033 40072 70522 85670 333 58008 70000 82712 84618 85365==
41977,2023,04,23,00,00,AAXX 23004 41977 01350 70000 10270 20270 30038 40077 70522 8562/ 333 58023 70000 82712 84616 88460==
41977,2023,04,23,03,00,AAXX 23034 41977 02450 61202 10315 20290 30072 40110 84530 333 20270 58001 70000 84618 86365==
41977,2023,04,23,06,00,AAXX 23064 41977 02457 51804 10335 20250 30064 40101 82532 333 58019 70000 82618 84365==
41977,2023,04,23,09,00,AAXX 23094 41977 02456 60000 10318 20210 30076 40114 84530 333 58030 70000 84616 86360==
41977,2023,04,23,12,00,AAXX 23124 41977 02456 62304 10306 20200 30069 40107 84530 333 10336 58028 70000 84618 86362==
41977,2023,04,23,15,00,AAXX 23154 41977 02456 62302 10268 20220 30052 40090 84530 333 58030 70000 84618 86362==
41977,2023,04,23,18,00,AAXX 23184 41977 02456 60000 10250 20210 30059 40097 84530 333 58025 70000 84618 86362==
41977,2023,04,23,21,00,AAXX 23214 41977 02450 60000 10248 20210 30057 40096 84530 333 58023 70000 84618 86362==
41977,2023,04,24,00,00,AAXX 24004 41977 01356 70000 10245 20230 30072 40110 70522 8562/ 333 58044 70000 82712 84616 88460==
41977,2023,04,24,03,00,AAXX 24034 41977 01956 00000 10310 20230 30096 40134 70521 333 58024 70000==
41977,2023,04,24,06,00,AAXX 24064 41977 02457 43406 10350 20180 30098 40133 82530 333 58034 70000 82618 84365==
41977,2023,04,24,09,00,AAXX 24094 41977 02456 42805 10356 20190 30091 40127 82530 333 58015 70000 82618 84365==
41977,2023,04,24,12,00,AAXX 24124 41977 02456 40000 10312 20210 30081 40119 82530 333 10357 58012 70000 82618 84365==
41977,2023,04,24,15,00,AAXX 24154 41977 02456 40000 10280 20210 30072 40110 82530 333 58020 70000 82618 84365==
41977,2023,04,24,21,00,AAXX 24214 41977 02456 40000 10260 20210 30072 40110 82530 333 58015 70000 82618 84365==
41977,2023,04,25,00,00,AAXX 25004 41977 01456 60000 10245 20220 30079 40118 70522 84530 333 58007 70000 84618 86360==
41977,2023,04,25,03,00,AAXX 25034 41977 01456 43402 10320 20220 30098 40135 70522 82530 333 58002 70000 82618 84365==
41977,2023,04,25,06,00,AAXX 25064 41977 02457 32304 10355 20210 30084 40121 81530 333 59014 70000 81618 83365==
41977,2023,04,25,09,00,AAXX 25094 41977 02457 32404 10355 20170 30074 40111 81530 333 59017 70000 81618 83365==
41977,2023,04,25,12,00,AAXX 25124 41977 02957 00000 10325 20220 30065 40102 333 10365 59016 70000==
41977,2023,04,25,15,00,AAXX 25154 41977 02950 00000 10305 20230 30065 40103 333 59007 70000==
41977,2023,04,25,18,00,AAXX 25184 41977 02950 00000 10272 20220 30065 40103 333 59008 70000==
41977,2023,04,25,21,00,AAXX 25214 41977 01450 20000 10267 20220 30064 40102 70510 82500 333 59008 70000 82618==
41977,2023,04,26,00,00,AAXX 26004 41977 01450 20000 10257 20220 30064 40102 70510 82500 333 59015 70000 82618==
41977,2023,04,26,03,00,AAXX 26034 41977 01956 00902 10340 20220 30079 40117 70510 333 20255 59019 70000==
41977,2023,04,26,06,00,AAXX 26064 41977 NIL=
41977,2023,04,26,09,00,AAXX 26094 41977 02957 02703 10364 20200 30067 40104 333 59007 70000==
41977,2023,04,26,12,00,AAXX 26124 41977 01456 20000 10325 20230 30064 40101 70500 82500 333 10365 59001 70000 82618==
41977,2023,04,26,15,00,AAXX 26154 41977 01456 30000 10295 20250 30055 40093 70510 81530 333 59010 70000 81618 83362==
41977,2023,04,26,18,00,AAXX 26184 41977 01456 30000 10272 20240 30055 40093 70510 81530 333 59010 70000 81618 83362==
41977,2023,04,26,21,00,AAXX 26214 41977 01450 10000 10262 20240 30055 40093 70510 81500 333 59009 70000 81618==
41977,2023,04,27,00,00,AAXX 27004 41977 01950 00000 10252 20240 30055 40093 70510 333 59009 70000==
41977,2023,04,27,03,00,AAXX 27034 41977 02956 02902 10324 20220 30085 40122 333 20250 58006 70000==
41977,2023,04,27,06,00,AAXX 27064 41977 02957 02803 10370 20170 30081 40118 333 58011 70000==
41977,2023,04,27,09,00,AAXX 27094 41977 02957 02303 10365 20210 30041 40078 333 59026 70000==
41977,2023,04,27,12,00,AAXX 27124 41977 02557 23004 10320 20230 30038 40076 333 10375 59026 70000 82820==
41977,2023,04,27,15,00,AAXX 27154 41977 01556 63005 10288 20210 30081 40119 70522 333 59026 70000 85670 82710 84618 86259==
41977,2023,04,27,18,00,AAXX 27184 41977 01456 60902 10265 20190 30072 40111 70522 84570 333 59017 70000 84616 85459==
41978,2023,04,21,00,00,AAXX 21004 41978 21440 41405 10280 20270 30034 40040 70562 82520 333 58000 60015 70014 82615 84460==
41978,2023,04,21,03,00,AAXX 21034 41978 01450 41710 10312 20260 30047 40054 70521 82520 333 20277 59006 70014 82618 83460==
41978,2023,04,21,06,00,AAXX 21064 41978 01450 71911 10310 20230 30055 40062 70522 84320 333 58013 70014 83618 86460 81930==
41978,2023,04,21,09,00,AAXX 21094 41978 01440 71810 10297 20270 30024 40030 70522 84320 333 58010 70014 83616 86460 81928==
41978,2023,04,21,12,00,AAXX 21124 41978 01440 72311 10295 20270 30027 40034 70522 84320 333 10325 58017 70014 83616 86460 81928==
41978,2023,04,21,15,00,AAXX 21154 41978 01440 80515 10285 20270 30049 40055 79521 84320 333 58025 70060 84615 87460 82923==
41978,2023,04,21,18,00,AAXX 21184 41978 21450 61002 10235 20200 30045 40051 72122 83520 333 58018 60087 70092 83616 86460==
41978,2023,04,21,21,00,AAXX 21214 41978 02450 60905 10234 20210 30036 40042 83520 333 58028 70092 83616 86460==
41978,2023,04,22,00,00,AAXX 22004 41978 01440 60000 10234 20210 30035 40042 70522 83520 333 58002 70078 83616 85460==
41978,2023,04,22,03,00,AAXX 22034 41978 01450 10000 10295 20220 30067 40073 70511 82500 333 20231 58020 70000 81618==
41978,2023,04,22,06,00,AAXX 22064 41978 02456 11912 10326 20260 30061 40067 81500 333 58006 70078 81618==
41978,2023,04,22,09,00,AAXX 22094 41978 02456 32410 10330 20280 30042 40048 83500 333 58018 70078 83618==
41978,2023,04,22,12,00,AAXX 22124 41978 02456 32308 10314 20260 30030 40036 82530 333 10340 58003 70078 82618 83360==
41978,2023,04,22,15,00,AAXX 22154 41978 02450 21804 10292 20260 30044 40050 82500 333 59005 70018 82618==
41978,2023,04,22,18,00,AAXX 22184 41978 02450 30000 10282 20260 30053 40059 82530 333 58008 70000 82618 83360==
41978,2023,04,22,21,00,AAXX 22214 41978 02450 30000 10280 20260 30052 40058 82530 333 58016 70000 82618 83360==
41978,2023,04,23,00,00,AAXX 23004 41978 01435 41303 10274 20260 30061 40067 70522 82530 333 58026 70000 82618 83360==
41978,2023,04,23,03,00,AAXX 23034 41978 01432 60000 10310 20270 30087 40094 70522 83530 333 20268 58020 70000 83616 86360==
41978,2023,04,23,06,00,AAXX 23064 41978 01450 52010 10328 20240 30080 40086 70522 83530 333 58019 70000 83616 85360==
41978,2023,04,23,09,00,AAXX 23094 41978 01450 72405 10319 20210 30063 40069 70522 84320 333 58021 70000 83616 86460 81928==
41978,2023,04,23,12,00,AAXX 23124 41978 01450 63313 10314 20180 30063 40069 70522 83520 333 10342 58033 70000 83618 85460==
41978,2023,04,23,15,00,AAXX 23154 41978 01450 60405 10272 20200 30068 40075 70522 83530 333 58024 70000 83618 86360==
41978,2023,04,23,18,00,AAXX 23184 41978 01450 60204 10268 20220 30078 40084 70522 83530 333 58025 70000 83618 86360==
41978,2023,04,23,21,00,AAXX 23214 41978 01450 60000 10260 20220 30078 40085 70522 83530 333 58026 70000 83618 86360==
41978,2023,04,24,00,00,AAXX 24004 41978 01450 60000 10250 20230 30091 40097 70522 83530 333 58030 70000 83618 86360==
41978,2023,04,24,03,00,AAXX 24034 41978 01450 60305 10287 20230 30111 40118 70522 83530 333 20246 58024 70000 83618 86360==
41978,2023,04,24,06,00,AAXX 24064 41978 01450 63215 10334 20130 30113 40119 70522 83530 333 58033 70000 83618 86360==
41978,2023,04,24,09,00,AAXX 24094 41978 02/56 33313 10347 20160 30087 40093 83030 333 58024 70000 83362==
41978,2023,04,24,12,00,AAXX 24124 41978 02/56 53310 10318 20240 30074 40080 85030 333 10352 58011 70000 85362==
41978,2023,04,24,15,00,AAXX 24154 41978 01/50 43405 10290 20230 30094 40100 70522 84030 333 58026 70000 84362==
41978,2023,04,24,18,00,AAXX 24184 41978 01/50 33205 10286 20240 30096 40102 70521 83030 333 58016 70000 83362==
41978,2023,04,24,21,00,AAXX 24214 41978 01/50 33405 10273 20230 30089 40095 70511 83030 333 58011 70000 83362==
41978,2023,04,25,00,00,AAXX 25004 41978 01/31 40205 10259 20230 30099 40105 70511 84030 333 58008 70000 84362==
41978,2023,04,25,03,00,AAXX 25034 41978 01950 00603 10304 20200 30115 40122 70510 333 20244 58004 70000==
41978,2023,04,25,06,00,AAXX 25064 41978 01450 20304 10338 20220 30104 40111 70510 82500 333 59009 70000 82618==
41978,2023,04,25,09,00,AAXX 25094 41978 02456 43315 10350 20170 30075 40082 84500 333 59012 70000 84618==
41978,2023,04,25,12,00,AAXX 25124 41978 01950 03012 10334 20220 30063 40070 70510 333 10358 59011 70000==
41978,2023,04,25,15,00,AAXX 25154 41978 01450 23408 10312 20230 30078 40084 70511 82500 333 59016 70000 82618==
41978,2023,04,25,18,00,AAXX 25184 41978 01950 03405 10298 20240 30081 40088 70510 333 59015 70000==
41978,2023,04,25,21,00,AAXX 25214 41978 01950 03605 10284 20230 30076 40083 70510 333 59013 70000==
41978,2023,04,26,00,00,AAXX 26004 41978 01/40 53605 10264 20220 30083 40090 70510 85030 333 59016 70000 85360==
41978,2023,04,26,03,00,AAXX 26034 41978 01440 23606 10315 20220 30099 40106 70520 82500 333 20260 59016 70000 82618==
41978,2023,04,26,06,00,AAXX 26064 41978 02456 23611 10348 20220 30085 40091 82500 333 59019 70000 82618==
41978,2023,04,26,09,00,AAXX 26094 41978 02456 43312 10357 20170 30058 40065 82530 333 59017 70000 82618 83360==
41978,2023,04,26,12,00,AAXX 26124 41978 02456 42809 10332 20240 30054 40060 82530 333 10364 59009 70000 82618 83360==
41978,2023,04,26,15,00,AAXX 26154 41978 01450 43008 10310 20260 30067 40073 70511 82530 333 59011 70000 82618 83360==
41978,2023,04,26,18,00,AAXX 26184 41978 01450 43305 10297 20260 30064 40070 70511 82530 333 70000 82618 83360==
41978,2023,04,26,21,00,AAXX 26214 41978 01450 43303 10278 20260 30070 40077 70511 82530 333 59006 70000 82618 83360==
41978,2023,04,27,00,00,AAXX 27004 41978 01431 40000 10266 20250 30079 40085 70511 82530 333 59004 70000 83618 83360==
41978,2023,04,27,03,00,AAXX 27034 41978 01950 03406 10314 20220 30100 40106 70510 333 20262 58001 70000==
41978,2023,04,27,06,00,AAXX 27064 41978 01956 03308 10360 20200 30090 40096 70510 333 58005 70000==
41978,2023,04,27,09,00,AAXX 27094 41978 01450 22713 10356 20200 30061 40067 70500 82500 333 58003 70000 82618==
41978,2023,04,27,12,00,AAXX 27124 41978 01450 33010 10330 20260 30056 40063 70510 83500 333 10364 58002 70000 83618==
41978,2023,04,27,15,00,AAXX 27154 41978 01450 63320 10292 20220 30095 40102 70521 84320 333 58028 70000 83616 86460 81928==
41978,2023,04,27,18,00,AAXX 27184 41978 01450 50310 10272 20200 30088 40094 70521 83520 333 58018 70000 83618 83460==
41978,2023,04,27,21,00,AAXX 27214 41978 01450 20000 10262 20210 30085 40091 70510 82500 333 58015 70000 82618==
41980,2023,04,21,00,00,AAXX 21004 41980 31440 40000 10285 20240 39939 40050 70510 82520 333 56990 58002 70000 82616 83460=
41980,2023,04,21,06,00,AAXX 21064 41980 NIL=
41980,2023,04,21,12,00,AAXX 21124 41980 31440 80000 10292 20250 39925 40036 70522 8662/ 333 10346 56999 58024 70000 83710 84615 88458=
41980,2023,04,21,18,00,AAXX 21184 41980 NIL=
41980,2023,04,22,00,00,AAXX 22004 41980 11940 30000 10245 20190 39935 40048 60026 70162 83030 333 56090 59004 70020 83362=
41980,2023,04,22,12,00,AAXX 22124 41980 32440 20000 10300 20250 39930 40041 82030 333 10357 56090 58003 70020 82362=
41980,2023,04,22,18,00,AAXX 22184 41980 NIL=
41980,2023,04,23,00,00,AAXX 23004 41980 32940 30000 10256 20260 39964 40078 83030 333 56090 58033 70000 83362=
41980,2023,04,23,06,00,AAXX 23064 41980 NIL=
41980,2023,04,23,12,00,AAXX 23124 41980 32940 33202 10300 20190 39961 40072 83020 333 10340 56090 58031 70000 83460=
41980,2023,04,24,00,00,AAXX 24004 41980 32940 30000 10235 20210 39990 40104 83030 333 56090 58026 70000 83360=
41980,2023,04,24,06,00,AAXX 24064 41980 NIL=
41980,2023,04,24,12,00,AAXX 24124 41980 32940 30000 10325 20170 39975 40085 83010 333 10364 56090 58017 70000 83460=
41980,2023,04,25,00,00,AAXX 25004 41980 32440 60000 10250 20200 39998 40111 82520 333 56990 58008 70000 82616 85460=
41980,2023,04,25,06,00,AAXX 25064 41980 NIL=
41980,2023,04,25,12,00,AAXX 25124 41980 32940 00000 10325 20190 39963 40073 333 10377 59014 70000=
41980,2023,04,25,18,00,AAXX 25184 41980 NIL=
41980,2023,04,26,00,00,AAXX 26004 41980 32940 20000 10265 20190 39984 40096 82030 333 56090 59014 70000 82362=
41980,2023,04,26,06,00,AAXX 26064 41980 NIL=
41980,2023,04,26,12,00,AAXX 26124 41980 32940 00000 10334 20120 39950 40060 333 10377 59013 70000=
41980,2023,04,26,18,00,AAXX 26184 41980 NIL=
41980,2023,04,27,00,00,AAXX 27004 41980 32940 00000 10240 20230 39974 40087 333 59010 70000=
41980,2023,04,27,06,00,AAXX 27064 41980 NIL=
41980,2023,04,27,12,00,AAXX 27124 41980 32940 00000 10325 20200 39957 40067 333 10384 59005 70000=
41980,2023,04,27,18,00,AAXX 27184 41980 NIL=
41984,2023,04,21,00,00,AAXX 21003 41984 02456 30000 10281 20270 30005 40007 83500 333 59002 70000 83618==
41984,2023,04,21,03,00,AAXX 21034 41984 02457 30000 10312 20270 30041 40043 83500 333 20277 58011 70000 83618==
41984,2023,04,21,06,00,AAXX 21064 41984 02457 81805 10310 20270 30039 40041 8352/ 333 58012 70000 83618 88458==
41984,2023,04,21,09,00,AAXX 21094 41984 02457 82302 10311 20280 30014 40016 8352/ 333 58009 70000 83618 88458==
41984,2023,04,21,12,00,AAXX 21124 41984 01457 80000 10303 20280 30010 40012 70262 8352/ 333 10337 58016 70000 83618 88458==
41984,2023,04,21,15,00,AAXX 21154 41984 42440 50000 10279 20240 30030 40032 83530 333 58025 83618 83362==
41984,2023,04,21,18,00,AAXX 21184 41984 42440 50000 10271 20230 30024 40026 82530 333 58018 82618 83362==
41984,2023,04,21,21,00,AAXX 21214 41984 41984 50000 10260 20240 30023 40025 70522 82510 333 58017 82618 85458==
41984,2023,04,22,00,00,AAXX 22004 41984 41456 50000 10246 20240 30026 40028 70522 82510 333 58021 82618 85458==
41984,2023,04,22,03,00,AAXX 22034 41984 02457 21802 10330 20250 30050 40052 82500 333 20242 58009 70000 82618==
41984,2023,04,22,06,00,AAXX 22064 41984 42457 21802 10344 20220 30050 40052 82500 333 58011 82618==
41984,2023,04,22,09,00,AAXX 22094 41984 42457 21803 10337 20240 30034 40036 82530 333 58020 82618==
41984,2023,04,22,12,00,AAXX 22124 41984 02457 30000 10300 20250 30018 40020 83500 333 10361 58008 70000 83618==
41984,2023,04,22,15,00,AAXX 22154 41984 02440 30000 10280 20260 30029 40031 83500 333 59001 70000 83618==
41984,2023,04,22,18,00,AAXX 22184 41984 02440 30000 10278 20260 30040 40042 83500 333 58016 70000 83618==
41984,2023,04,22,21,00,AAXX 22214 41984 02440 20000 10265 20260 30040 40042 82500 333 58017 70000 82618==
41984,2023,04,23,00,00,AAXX 23004 41984 02456 30000 10257 20250 30045 40047 83500 333 58019 70000 83618==
41984,2023,04,23,03,00,AAXX 23034 41984 02457 80000 10290 20210 30076 40078 8352/ 333 20251 58026 70000 83618 88458==
41984,2023,04,23,06,00,AAXX 23064 41984 02457 80000 10311 20230 30073 40075 8352/ 333 58023 70000 83618 88458==
41984,2023,04,23,09,00,AAXX 23094 41984 02457 60000 10332 20180 30057 40059 83510 333 58023 70000 83618 85458==
41984,2023,04,23,12,00,AAXX 23124 41984 02457 80000 10296 20190 30058 40060 8362/ 333 10340 58040 70000 83618 88458==
41984,2023,04,23,15,00,AAXX 23154 41984 02440 80000 10297 20210 30067 40069 8352/ 333 58038 70000 83618 88458==
41984,2023,04,23,18,00,AAXX 23184 41984 02440 60000 10234 20210 30074 40076 82510 333 58034 70000 82618 85458==
41984,2023,04,23,21,00,AAXX 23214 41984 02440 50000 10230 20220 30074 40076 82510 333 58034 70000 82618 84458==
41984,2023,04,24,00,00,AAXX 24004 41984 02456 50000 10225 20220 30076 40078 82510 333 58031 70000 82618 84458==
41984,2023,04,24,03,00,AAXX 24034 41984 02457 50000 10286 20220 30108 40110 82510 333 20220 58032 70000 82618 85458==
41984,2023,04,24,06,00,AAXX 24064 41984 02457 80000 10340 20170 30103 40105 8352/ 333 58030 70000 83618 88458==
41984,2023,04,24,09,00,AAXX 24094 41984 02457 80000 10342 20190 30093 40095 8352/ 333 58036 70000 83618 88458==
41984,2023,04,24,12,00,AAXX 24124 41984 02457 50000 10310 20210 30071 40073 82530 333 10356 58013 70000 82618 83362==
41984,2023,04,24,15,00,AAXX 24154 41984 02440 50000 10250 20240 30089 40092 83510 333 58022 70000 83618 85458==
41984,2023,04,24,18,00,AAXX 24184 41984 02440 50000 10254 20230 30097 40099 83510 333 58023 70000 83618 85458==
41984,2023,04,24,21,00,AAXX 24214 41984 02440 50000 10240 20220 30096 40098 82510 333 58022 70000 82618 85458==
41984,2023,04,25,00,00,AAXX 25004 41984 02456 50000 10236 20230 30095 40097 82510 333 58019 70000 82618 85458==
41984,2023,04,25,03,00,AAXX 25034 41984 02457 50000 10307 20190 30111 40113 83510 333 10232 58003 70000 83618 85458==
41984,2023,04,25,06,00,AAXX 25064 41984 02457 30000 10337 20210 30104 40106 83500 333 58001 70000 83618==
41984,2023,04,25,09,00,AAXX 25094 41984 02457 30000 10356 20200 30072 40074 83500 333 59021 70000 83618==
41984,2023,04,25,12,00,AAXX 25124 41984 02457 31801 10312 20220 30063 40065 83500 333 10361 59008 70000 83618==
41984,2023,04,25,15,00,AAXX 25154 41984 02440 30000 10284 20240 30078 40080 83500 333 59011 70000 83618==
41984,2023,04,25,18,00,AAXX 25184 41984 02440 30000 10274 20250 30074 40076 83500 333 59023 70000 83618==
41984,2023,04,25,21,00,AAXX 25214 41984 02440 20000 10265 20250 30076 40078 82500 333 59020 70000 82618==
41984,2023,04,26,00,00,AAXX 26004 41984 01456 20000 10252 20250 30073 40075 70500 82500 333 59020 70000 82618==
41984,2023,04,26,03,00,AAXX 26034 41984 02457 20000 10320 20230 30091 40093 82500 333 20250 59020 70000 82618==
41984,2023,04,26,06,00,AAXX 26064 41984 02458 20000 10350 20190 30083 40085 82500 333 59021 70000 82618==
41984,2023,04,26,09,00,AAXX 26094 41984 02457 60000 10364 20230 30063 40065 83510 333 59009 70000 83618==
41984,2023,04,26,12,00,AAXX 26124 41984 02457 30000 10316 20250 30056 40058 83500 333 10375 70000 83618==
41984,2023,04,26,15,00,AAXX 26154 41984 02440 30000 10270 20250 30064 40066 83500 333 59014 70000 83618==
41984,2023,04,26,18,00,AAXX 26184 41984 02440 30000 10264 20250 30063 40065 83500 333 59011 70000 83618==
41984,2023,04,26,21,00,AAXX 26214 41984 01440 20000 10260 20260 30067 40069 70500 82500 333 59009 70000 82618==
41984,2023,04,27,00,00,AAXX 27004 41984 01456 20000 10258 20258 30071 40073 70500 82500 333 59004 70000 82618==
41984,2023,04,27,03,00,AAXX 27034 41984 02457 10000 10310 20260 30089 40092 81500 333 20250 59002 70000 81618==
41984,2023,04,27,06,00,AAXX 27064 41984 02458 10000 10356 20220 30087 40089 81500 333 58004 70000 81618==
41984,2023,04,27,09,00,AAXX 27094 41984 02958 01802 10356 20230 30058 40060 333 59005 70000==
41984,2023,04,27,12,00,AAXX 27124 41984 02957 01804 10325 20240 30049 40051 333 10370 59007 70000==
41984,2023,04,27,15,00,AAXX 27154 41984 02440 33606 10262 20210 30101 40103 83500 333 58037 70000 83618==
41984,2023,04,27,18,00,AAXX 27184 41984 02440 33603 10250 20210 30073 40075 83500 333 58010 70000 83618==
41984,2023,04,27,21,00,AAXX 27214 41984 02940 00000 10244 20230 30077 40079 333 58010 70000==
41989,2023,04,21,00,00,AAXX 21004 41989 01450 23202 10270 20240 30040 40044 70511 82500 333 59024 70000 82618==
41989,2023,04,21,03,00,AAXX 21034 41989 02450 31402 10290 20220 30068 40071 83500 333 20260 59008 70000 83618==
41989,2023,04,21,06,00,AAXX 21064 41989 02450 41402 10318 20240 30053 40056 84500 333 59024 70000 84618==
41989,2023,04,21,09,00,AAXX 21094 41989 02450 51802 10315 20250 30048 40052 83530 333 59026 70000 83618 83362==
41989,2023,04,21,12,00,AAXX 21124 41989 02450 62303 10328 20250 30034 40037 83530 333 10328 59008 70000 83618 84362==
41989,2023,04,21,18,00,AAXX 21184 41989 NIL=
41989,2023,04,22,06,00,AAXX 22064 41989 02450 31802 10316 20250 30063 40068 83500 333 58012 70090 83618==
41989,2023,04,22,15,00,AAXX 22154 41989 02450 31802 10280 20260 30045 40048 83500 333 59011 70090 83618==
41989,2023,04,22,18,00,AAXX 22184 41989 NIL=
41989,2023,04,23,00,00,AAXX 23004 41989 32450 51802 10280 20230 30065 40069 83530 333 20230 56990 58007 70000 82618 83362=
41989,2023,04,23,03,00,AAXX 23034 41989 02450 51802 10280 20230 30065 40069 83530 333 20230 58007 70000 82618 83362==
41989,2023,04,23,06,00,AAXX 23064 41989 02450 51804 10320 20240 30093 40096 83530 333 58028 70000 82618 83362==
41989,2023,04,23,09,00,AAXX 23094 41989 01450 51404 10318 20250 30072 40075 70362 83530 333 58021 70060 83618 83362==
41989,2023,04,23,12,00,AAXX 23124 41989 11440 51802 10295 20250 30072 40075 60066 70162 83530 333 10326 58026 70060 83618 83362==
41989,2023,04,24,03,00,AAXX 24034 41989 02450 51402 10283 20230 30070 40074 83530 333 20228 58005 70060 83618 83362==
41989,2023,04,24,06,00,AAXX 24064 41989 02450 31402 10325 20250 30115 40119 83544 333 58022 70060 83618==
41989,2023,04,24,09,00,AAXX 24094 41989 02450 31802 10335 20260 30101 40104 83500 333 58029 70000 83618==
41989,2023,04,24,12,00,AAXX 24124 41989 02450 51803 10305 20250 30086 40091 83530 333 10345 58016 70000 83618 83362==
41989,2023,04,24,15,00,AAXX 24154 41989 02440 31402 10290 20240 30080 40084 83500 333 58005 70000 83618==
41989,2023,04,24,18,00,AAXX 24184 41989 02440 33202 10280 20240 30092 40096 83500 333 59011 70000 83618==
41989,2023,04,24,21,00,AAXX 24214 41989 02440 31404 10275 20250 30087 40090 83500 333 59005 70000 83618==
41989,2023,04,25,00,00,AAXX 25004 41989 02440 31802 10252 20220 30068 40071 83500 333 58005 70000 83618==
41989,2023,04,25,03,00,AAXX 25034 41989 02450 32402 10285 20240 30078 40082 83500 333 20230 58007 70000 83618==
41989,2023,04,25,06,00,AAXX 25064 41989 02450 31802 10338 20220 30109 40113 83500 333 59006 70000 82618==
41989,2023,04,25,09,00,AAXX 25094 41989 02450 21402 10345 20250 30103 40107 82500 333 58002 70000 82618==
41989,2023,04,25,12,00,AAXX 25124 41989 02450 23102 10315 20240 30095 40098 82500 333 10350 58007 70000 83618==
41989,2023,04,25,15,00,AAXX 25154 41989 02450 20000 10293 20240 30069 40072 82500 333 59013 70000 82618==
41989,2023,04,25,18,00,AAXX 25184 41989 02440 10000 10281 20240 30078 40081 81500 333 59015 70000 81618==
41989,2023,04,26,00,00,AAXX 26004 41989 02440 30000 10257 20230 30075 40079 82530 333 58008 70000 82618 83362==
41989,2023,04,26,03,00,AAXX 26034 41989 02456 11304 10322 20200 30112 40115 81500 333 20242 58034 70000 81618==
41989,2023,04,26,06,00,AAXX 26064 41989 02456 11404 10346 20230 30103 40106 81500 333 59004 70000 81618==
41989,2023,04,26,09,00,AAXX 26094 41989 02456 11705 10345 20250 30062 40065 81500 333 59041 70000==
41989,2023,04,26,12,00,AAXX 26124 41989 02450 21803 10320 20240 30052 40055 82500 333 10350 59043 70000 83618==
41989,2023,04,26,15,00,AAXX 26154 41989 02450 31402 10300 20260 30076 40079 83500 333 58007 70000 83618==
41989,2023,04,26,18,00,AAXX 26184 41989 NIL=
41989,2023,04,27,03,00,AAXX 27034 41989 02450 31802 10310 20250 30093 40096 82500 333 20245 59049 70000 82618==
41989,2023,04,27,06,00,AAXX 27064 41989 02456 11304 10340 20240 30091 40094 81500 333 59012 70000 81618==
41989,2023,04,27,09,00,AAXX 27094 41989 02456 11404 10342 20240 30063 40071 81500 333 58006 70000 81618==
41989,2023,04,27,12,00,AAXX 27124 41989 02456 21803 10320 20270 30056 40059 82500 333 10349 58004 70000 82618==
41989,2023,04,27,15,00,AAXX 27154 41989 02450 21402 10302 20260 30080 40088 82500 333 58004 70000 82618==
41989,2023,04,27,18,00,AAXX 27184 41989 02440 11302 10288 20250 30089 40092 81500 333 58010 70000 81618==
41989,2023,04,27,21,00,AAXX 27214 41989 02450 21403 10260 20230 30084 40088 82500 333 59009 70000 82618==
41992,2023,04,21,00,00,AAXX 21004 41992 01425 70000 10282 20260 30049 40051 70522 84530 333 58006 70000 84616 87362==
41992,2023,04,21,03,00,AAXX 21034 41992 01/30 30000 10272 20190 30056 40058 70596 83030 333 20242 59009 70150 83362==
41992,2023,04,21,06,00,AAXX 21064 41992 11430 70000 10324 20210 30058 40060 60156 70596 84530 333 58010 70150 84616 87362==
41992,2023,04,21,09,00,AAXX 21094 41992 01/30 32102 10327 20270 30036 40038 70511 83030 333 58015 70150 83362==
41992,2023,04,21,12,00,AAXX 21124 41992 01425 42105 10300 20270 30038 40040 70510 82530 333 10330 58021 70150 82616 84362==
41992,2023,04,21,15,00,AAXX 21154 41992 01925 00000 10285 20270 30056 40058 70500 333 58018 70150==
41992,2023,04,21,18,00,AAXX 21184 41992 01415 80308 10230 20210 30062 40064 79591 8592/ 333 58020 70020 84614 88458 81925==
41992,2023,04,21,21,00,AAXX 21214 41992 01415 80305 10225 20210 30052 40054 79599 8592/ 333 58011 70180 84614 88458 81925==
41992,2023,04,22,00,00,AAXX 22004 41992 21/25 30000 10245 20210 30041 40043 70592 83030 333 59008 60018 70180 83362==
41992,2023,04,22,03,00,AAXX 22034 41992 01/30 30000 10300 20230 30076 40078 70511 83030 333 20225 58020 70030 83362==
41992,2023,04,22,06,00,AAXX 22064 41992 01930 01806 10332 20230 30069 40071 70510 333 58011 70030==
41992,2023,04,22,09,00,AAXX 22094 41992 01/30 32107 10328 20260 30048 40050 70500 83030 333 58012 70030 83362==
41992,2023,04,22,12,00,AAXX 22124 41992 01/30 32105 10305 20280 30037 40039 70511 83030 333 10337 59001 70030 83362==
41992,2023,04,22,15,00,AAXX 22154 41992 01925 00000 10283 20250 30053 40055 70511 333 59003 70030==
41992,2023,04,22,18,00,AAXX 22184 41992 01925 00000 10274 20250 30058 40060 70510 333 59004 70010==
41992,2023,04,22,21,00,AAXX 22214 41992 01925 00000 10270 20250 30063 40065 70500 333 58011 70000==
41992,2023,04,23,00,00,AAXX 23004 41992 01925 00000 10264 20250 30070 40072 70500 333 58029 70000==
41992,2023,04,23,03,00,AAXX 23034 41992 01430 40000 10304 20250 30094 40096 70510 82530 333 20258 58018 70000 82616 84362==
41992,2023,04,23,06,00,AAXX 23064 41992 01425 70000 10312 20240 30085 40087 70521 84530 333 58016 70000 84616 87360==
41992,2023,04,23,09,00,AAXX 23094 41992 01430 50000 10320 20240 30063 40065 70522 83530 333 58015 70000 83616 85362==
41992,2023,04,23,12,00,AAXX 23124 41992 01430 43008 10304 20200 30066 40068 70521 82530 333 10335 58029 70000 82616 84362==
41992,2023,04,23,15,00,AAXX 23154 41992 01/30 33305 10280 20210 30073 40075 70511 83030 333 58020 70000 83362==
41992,2023,04,23,18,00,AAXX 23184 41992 01930 00000 10270 20210 30077 40079 70510 333 58019 70000==
41992,2023,04,23,21,00,AAXX 23214 41992 01925 00000 10265 20220 30071 40073 70500 333 58008 70000==
41992,2023,04,24,00,00,AAXX 24004 41992 01925 00000 10250 20230 30094 40096 70500 333 58024 70000==
41992,2023,04,24,03,00,AAXX 24034 41992 01930 01503 10323 20220 30118 40120 70500 333 20245 58024 70000==
41992,2023,04,24,06,00,AAXX 24064 41992 01/35 30000 10328 20240 30118 40120 70510 83030 333 58033 70000 83362==
41992,2023,04,24,09,00,AAXX 24094 41992 01/35 63605 10330 20190 30096 40098 70521 86030 333 58033 70000==
41992,2023,04,24,12,00,AAXX 24124 41992 01430 60000 10310 20190 30083 40085 70522 84530 333 10345 58017 70000 84616 86362==
41992,2023,04,24,15,00,AAXX 24154 41992 01/25 20000 10285 20220 30100 40102 70521 82030 333 58027 70000 82362==
41992,2023,04,24,18,00,AAXX 24184 41992 01925 00000 10278 20230 30097 40099 70521 333 58020 70000==
41992,2023,04,24,21,00,AAXX 24214 41992 01925 00000 10268 20230 30096 40098 70500 333 58025 70000==
41992,2023,04,25,00,00,AAXX 25004 41992 01925 00000 10258 20220 30095 40097 70500 333 58001 70000==
41992,2023,04,25,03,00,AAXX 25034 41992 01935 00000 10320 20190 30118 40120 70500 333 20258 58000 70000==
41992,2023,04,25,06,00,AAXX 25064 41992 01940 03605 10355 20200 30106 40108 70500 333 59012 70000==
41992,2023,04,25,09,00,AAXX 25094 41992 01940 03308 10365 20170 30081 40083 70500 333 59015 70000==
41992,2023,04,25,12,00,AAXX 25124 41992 01930 03304 10320 20170 30072 40074 70500 333 10370 59011 70000==
41992,2023,04,25,15,00,AAXX 25154 41992 01925 00000 10295 20230 30086 40088 70500 333 59014 70000==
41992,2023,04,25,18,00,AAXX 25184 41992 01925 00000 10280 20230 30085 40087 70500 333 59012 70000==
41992,2023,04,25,21,00,AAXX 25214 41992 01925 00000 10270 20230 30076 40078 70500 333 59020 70000==
41992,2023,04,26,00,00,AAXX 26004 41992 01925 00000 10260 20230 30090 40092 70500 333 59005 70000==
41992,2023,04,26,03,00,AAXX 26034 41992 01930 00306 10327 20190 30101 40103 70500 333 20256 59017 70000==
41992,2023,04,26,06,00,AAXX 26064 41992 01935 03306 10363 20170 30087 40089 70500 333 59019 70000==
41992,2023,04,26,09,00,AAXX 26094 41992 01940 03308 10365 20190 30063 40065 70500 333 59018 70000==
41992,2023,04,26,12,00,AAXX 26124 41992 01930 03304 10330 20200 30054 40056 70500 333 10381 59018 70000==
41992,2023,04,26,15,00,AAXX 26154 41992 01925 00000 10295 20250 30078 40080 70500 333 59008 70000==
41992,2023,04,26,18,00,AAXX 26184 41992 01925 00000 10280 20250 30075 40077 70500 333 59010 70000==
41992,2023,04,26,21,00,AAXX 26214 41992 01925 00000 10275 20260 30070 40072 70500 333 59006 70000==
41992,2023,04,27,00,00,AAXX 27004 41992 01925 00000 10265 20250 30084 40086 70500 333 59006 70000==
41992,2023,04,27,03,00,AAXX 27034 41992 01930 03604 10320 20240 30103 40105 70500 333 20262 58002 70000==
41992,2023,04,27,06,00,AAXX 27064 41992 01935 03006 10353 20210 30096 40098 70500 333 58009 70000==
41992,2023,04,27,09,00,AAXX 27094 41992 01935 03005 10350 20230 30071 40073 70500 333 58008 70000==
41992,2023,04,27,12,00,AAXX 27124 41992 01930 00000 10310 20240 30058 40060 70500 333 10365 58004 70000==
41992,2023,04,27,15,00,AAXX 27154 41992 01925 00000 10300 20250 30089 40091 70500 333 58011 70000==
41992,2023,04,27,18,00,AAXX 27184 41992 01425 63606 10277 20200 30103 40105 70510 83530 333 58028 70000 83616 86362==
41992,2023,04,27,21,00,AAXX 27214 41992 01925 00000 10265 20190 30076 40078 70500 333 58006 70000==
41998,2023,04,21,00,00,AAXX 21003 41998 NIL=
41998,2023,04,21,03,00,AAXX 21034 41998 01456 80000 10286 20230 30074 40080 76162 8442/ 333 20220 58016 70010 83616 88456==
41998,2023,04,21,06,00,AAXX 21064 41998 NIL=
41998,2023,04,21,09,00,AAXX 21094 41998 02456 42102 10322 20250 30038 40044 83470 333 59010 70040 82618 83458==
41998,2023,04,21,12,00,AAXX 21124 41998 02456 40000 10288 20260 30041 40047 83470 333 10337 59003 70040 82618 83458==
41998,2023,04,21,18,00,AAXX 21184 41998 NIL=
41998,2023,04,22,00,00,AAXX 22004 41998 02956 00000 10263 20230 30067 40073 333 59007 70040==
41998,2023,04,22,03,00,AAXX 22034 41998 02956 00000 10318 20230 30056 40062 333 20230 59018 70030==
41998,2023,04,22,12,00,AAXX 22124 41998 02456 40000 10298 20230 30037 40043 83470 333 10344 59004 70000 82618 83458==
41998,2023,04,22,18,00,AAXX 22184 41998 NIL=
41998,2023,04,23,00,00,AAXX 23004 41998 NIL=
41998,2023,04,23,06,00,AAXX 23064 41998 NIL=
41998,2023,04,23,09,00,AAXX 23094 41998 02456 61802 10324 20240 30054 40060 84470 333 58021 70000 83618 84458==
41998,2023,04,23,12,00,AAXX 23124 41998 02456 60000 10296 20260 30059 40065 84470 333 10332 58022 70000 83618 84458==
41998,2023,04,24,03,00,AAXX 24034 41998 02956 00000 10320 20240 30083 40089 333 20234 58021 70000==
41998,2023,04,24,06,00,AAXX 24064 41998 NIL=
41998,2023,04,24,12,00,AAXX 24124 41998 02956 00000 10300 20240 30076 40082 333 10334 58017 70000==
41998,2023,04,25,00,00,AAXX 25004 41998 02956 00000 10262 20200 30088 40094 333 58002 70000==
41998,2023,04,25,03,00,AAXX 25034 41998 02956 00000 10308 20230 30090 40096 333 20230 58007 70000==
41998,2023,04,25,06,00,AAXX 25064 41998 NIL=
41998,2023,04,25,09,00,AAXX 25094 41998 02956 01202 10336 20260 30076 40082 333 58001 70000==
41998,2023,04,25,12,00,AAXX 25124 41998 02956 00000 10296 20260 30083 40089 333 10344 58007 70000==
41998,2023,04,25,18,00,AAXX 25184 41998 NIL=
41998,2023,04,26,03,00,AAXX 26034 41998 02956 00000 10313 20250 30094 40100 333 20244 58004 70000==
41998,2023,04,26,06,00,AAXX 26064 41998 NIL=
41998,2023,04,26,09,00,AAXX 26094 41998 02956 02002 10339 20260 30066 40072 333 58010 70000==
41998,2023,04,26,12,00,AAXX 26124 41998 02956 00000 10290 20250 30072 40078 333 10350 58011 70000==
41998,2023,04,26,18,00,AAXX 26184 41998 NIL=
41998,2023,04,27,00,00,AAXX 27004 41998 02956 00000 10267 20250 30089 40095 333 59003 70000==
41998,2023,04,27,03,00,AAXX 27034 41998 02956 00000 10312 20250 30085 40091 333 20251 59009 70000==
41998,2023,04,27,06,00,AAXX 27064 41998 NIL=
41998,2023,04,27,12,00,AAXX 27124 41998 02956 00000 10300 20260 30076 40082 333 10355 58004 70000==
41998,2023,04,27,18,00,AAXX 27184 41998 NIL=
