ESTACION,ANO,MES,DIA,HORA,MINUTO,PARTE
41850,2023,11,10,00,00,AAXX 10004 41850 31912 00000 10143 20140 30054 40157 71000 333 58020 70000=
41850,2023,11,10,06,00,AAXX 10064 41850 32956 00803 10287 20160 30060 40158 333 58018 70000=
41850,2023,11,10,12,00,AAXX 10124 41850 31950 00000 10225 20200 30034 40134 70500 333 10310 58009 70000=
41850,2023,11,10,18,00,AAXX 10184 41850 31930 00000 10174 20160 30054 40156 70500 333 58008 70000=
41850,2023,11,11,00,00,AAXX 11004 41850 31912 00000 10147 20147 30058 40161 71000 333 58004 70000=
41850,2023,11,11,06,00,AAXX 11064 41850 32956 00000 10295 20140 30057 40155 333 59003 70000=
41850,2023,11,11,12,00,AAXX 11124 41850 31940 00000 10226 20200 30043 40143 70500 333 10310 58008 70000=
41850,2023,11,11,18,00,AAXX 11184 41850 31930 00000 10177 20170 30057 40159 70500 333 58003 70000=
41850,2023,11,12,00,00,AAXX 12004 41850 31915 00000 10148 20148 30058 40161 71000 333 58000 70000=
41850,2023,11,12,06,00,AAXX 12064 41850 32956 00000 10287 20140 30068 40166 333 58011 70000=
41850,2023,11,12,12,00,AAXX 12124 41850 31950 00000 10227 20180 30047 40147 70500 333 10311 58004 70000=
41850,2023,11,12,18,00,AAXX 12184 41850 31930 00000 10178 20170 30067 40169 70500 333 58010 70000=
41850,2023,11,13,00,00,AAXX 13004 41850 31920 00000 10144 20140 30063 40166 71000 333 58005 70000=
41850,2023,11,13,06,00,AAXX 13064 41850 32956 01502 10297 20140 30068 40166 333 58000 70000=
41850,2023,11,13,18,00,AAXX 13184 41850 NIL=
41850,2023,11,14,00,00,AAXX 14004 41850 31940 00000 10150 20150 30063 40166 70500 333 58000 70000=
41850,2023,11,14,06,00,AAXX 14064 41850 32957 00000 10298 20150 30062 40160 333 59006 70000=
41850,2023,11,14,12,00,AAXX 14124 41850 31950 00000 10220 20180 30036 40136 70500 333 10316 59004 70000=
41850,2023,11,14,18,00,AAXX 14184 41850 31935 00000 10175 20170 30069 40171 70500 333 58005 70000=
41850,2023,11,15,00,00,AAXX 15004 41850 31930 00000 10150 20150 30058 40161 70500 333 59005 70000=
41850,2023,11,15,06,00,AAXX 15064 41850 32957 00000 10295 20140 30060 40158 333 59002 70000=
41850,2023,11,15,12,00,AAXX 15124 41850 31940 30000 10244 20190 30041 40142 70500 83030 333 10310 56090 58005 70000 83362=
41850,2023,11,15,18,00,AAXX 15184 41850 31925 20000 10182 20170 30070 40172 71000 82030 333 56090 58001 70000 82362=
41850,2023,11,16,00,00,AAXX 16004 41850 31925 00000 10153 20140 30068 40172 71000 333 58010 70000=
41850,2023,11,16,06,00,AAXX 16064 41850 32957 20405 10304 20080 30070 40168 82030 333 56090 58010 70000 82362=
41850,2023,11,16,12,00,AAXX 16124 41850 31940 20000 10245 20190 30060 40159 70500 82030 333 10315 56090 58019 70000 82362=
41850,2023,11,16,18,00,AAXX 16184 41850 31940 00000 10178 20170 30079 40181 333 58009 70000=
41851,2023,11,10,00,00,AAXX 10004 41851 31/05 90000 10162 20150 30092 40158 74740 89/// 333 56999 58020 70000=
41851,2023,11,10,06,00,AAXX 10064 41851 31950 00000 10284 20170 30100 40163 70040 333 58022 70000=
41851,2023,11,10,12,00,AAXX 10124 41851 31940 00000 10234 20190 30070 40134 70500 333 10310 58009 70000=
41851,2023,11,10,18,00,AAXX 10184 41851 31940 00000 10185 20180 30092 40157 70500 333 58009 70000=
41851,2023,11,11,00,00,AAXX 11004 41851 31/04 90000 10164 20150 30093 40159 74740 89/// 333 56999 58001 70000=
41851,2023,11,11,06,00,AAXX 11064 41851 31950 10902 10290 20160 30099 40162 70040 81030 333 56090 59001 70000 81362=
41851,2023,11,11,12,00,AAXX 11124 41851 31940 00000 10236 20210 30077 40141 70500 333 10310 58007 70000=
41851,2023,11,11,18,00,AAXX 11184 41851 31940 00000 10185 20180 30091 40156 70500 333 59001 70000=
41851,2023,11,12,00,00,AAXX 12004 41851 31930 00000 10170 20170 30094 40159 70500 333 58001 70000=
41851,2023,11,12,06,00,AAXX 12064 41851 32950 00902 10290 20160 30102 40165 333 58003 70000=
41851,2023,11,12,12,00,AAXX 12124 41851 31940 00000 10236 20210 30082 40146 70500 333 10310 58005 70000=
41851,2023,11,12,18,00,AAXX 12184 41851 31940 00000 10186 20180 30103 40168 70500 333 58012 70000=
41851,2023,11,13,00,00,AAXX 13004 41851 31910 00000 10165 20160 30100 40165 71000 333 58006 70000=
41851,2023,11,13,06,00,AAXX 13064 41851 32950 00902 10296 20170 30103 40166 333 58001 70000=
41851,2023,11,13,12,00,AAXX 13124 41851 31940 00000 10238 20200 30074 40134 70500 333 10315 59008 70000=
41851,2023,11,13,18,00,AAXX 13184 41851 31930 00000 10184 20170 30097 40163 70500 333 59006 70000=
41851,2023,11,14,00,00,AAXX 14004 41851 31940 00000 10172 20160 30099 40164 70500 333 58005 70000=
41851,2023,11,14,06,00,AAXX 14064 41851 32450 10902 10295 20180 30103 40166 81500 333 56900 58000 70000 81618=
41851,2023,11,14,12,00,AAXX 14124 41851 31445 30000 10240 20190 30071 40135 70511 81530 333 10314 56990 59003 70000 81618 83362=
41851,2023,11,14,18,00,AAXX 14184 41851 31940 00000 10188 20180 30098 40163 70510 333 58001 70000=
41851,2023,11,15,00,00,AAXX 15004 41851 31935 00000 10156 20156 30094 40160 70500 333 59005 70000=
41851,2023,11,15,06,00,AAXX 15064 41851 32950 00903 10292 20130 30104 40167 333 58001 70000=
41851,2023,11,15,12,00,AAXX 15124 41851 31940 20000 10236 20200 30077 40141 70510 81031 333 10311 56099 58006 70000 81362=
41851,2023,11,15,18,00,AAXX 15184 41851 31940 00000 10190 20170 30104 40169 70510 333 58006 70000=
41851,2023,11,16,00,00,AAXX 16004 41851 31940 00901 10170 20160 30104 40169 70500 333 58010 70000=
41851,2023,11,16,06,00,AAXX 16064 41851 32950 31203 10303 20130 30108 40171 81531 333 56999 58004 70000 81618=
41851,2023,11,16,12,00,AAXX 16124 41851 31445 60000 10245 20200 30095 40159 70521 83531 333 10315 56999 58018 70000 83618 85362=
41851,2023,11,16,18,00,AAXX 16184 41851 31445 10000 10205 20170 30114 40179 70511 81500 333 56900 58010 70000 81618=
41856,2023,11,10,00,00,AAXX 10004 41856 31915 00000 10173 20160 30114 40151 71000 333 58017 70000=
41856,2023,11,10,06,00,AAXX 10064 41856 32950 00501 10284 20170 30121 40157 333 58017 70000=
41856,2023,11,10,12,00,AAXX 10124 41856 32930 00000 10236 20220 30097 40133 333 10315 58013 70000=
41856,2023,11,10,18,00,AAXX 10184 41856 31930 00000 10190 20180 30116 40153 70500 333 58004 70000=
41856,2023,11,11,00,00,AAXX 11004 41856 31930 00000 10176 20176 30117 40154 70500 333 58003 70000=
41856,2023,11,11,06,00,AAXX 11064 41856 32956 10901 10280 20170 30122 40158 81030 333 56090 58001 70000 81362=
41856,2023,11,11,12,00,AAXX 11124 41856 32930 00000 10240 20220 30102 40138 333 10300 58005 70000=
41856,2023,11,11,18,00,AAXX 11184 41856 31930 00000 10190 20180 30116 40153 70500 333 58000 70000=
41856,2023,11,12,00,00,AAXX 12004 41856 31930 00000 10166 20166 30121 40158 70500 333 58006 70000=
41856,2023,11,12,06,00,AAXX 12064 41856 32956 10502 10285 20180 30128 40164 81030 333 56090 58006 70000 81362=
41856,2023,11,12,12,00,AAXX 12124 41856 31930 00000 10245 20220 30107 40143 70500 333 10302 58005 70000=
41856,2023,11,12,18,00,AAXX 12184 41856 31930 00000 10188 20180 30122 40159 70500 333 58006 70000=
41856,2023,11,13,00,00,AAXX 13004 41856 31930 00000 10170 20160 30125 40162 70500 333 58004 70000=
41856,2023,11,13,06,00,AAXX 13064 41856 32956 00501 10287 20190 30127 40163 333 59001 70000=
41856,2023,11,13,12,00,AAXX 13124 41856 31940 00000 10240 20210 30098 40134 70500 333 10300 59009 70000=
41856,2023,11,13,18,00,AAXX 13184 41856 31920 00000 10190 20180 30123 40160 70500 333 58001 70000=
41856,2023,11,14,00,00,AAXX 14004 41856 31915 00000 10170 20160 30124 40161 71000 333 59001 70000=
41856,2023,11,14,06,00,AAXX 14064 41856 31950 00501 10284 20190 30125 40161 333 59002 70000=
41856,2023,11,14,12,00,AAXX 14124 41856 31940 00000 10244 20210 30096 40132 70500 333 10322 59002 70000=
41856,2023,11,14,18,00,AAXX 14184 41856 31930 00000 10191 20180 30123 40160 70500 333 58000 70000=
41856,2023,11,15,00,00,AAXX 15004 41856 31920 00000 10170 20160 30117 40154 70500 333 59007 70000=
41856,2023,11,15,06,00,AAXX 15064 41856 32950 00502 10274 20180 30128 40164 333 58003 70000=
41856,2023,11,15,12,00,AAXX 15124 41856 31940 00000 10242 20210 30102 40138 70500 333 10300 58006 70000=
41856,2023,11,15,18,00,AAXX 15184 41856 31925 00000 10200 20190 30129 40166 70500 333 58006 70000=
41856,2023,11,16,00,00,AAXX 16004 41856 31930 00401 10182 20160 30125 40162 70500 333 58008 70000=
41856,2023,11,16,06,00,AAXX 16064 41856 32850 40703 10285 20170 30131 40167 84010 333 56090 58003 70000 84458=
41856,2023,11,16,12,00,AAXX 16124 41856 32930 20000 10240 20210 30122 40158 82030 333 10295 56090 58020 70000 82362=
41856,2023,11,16,18,00,AAXX 16184 41856 31930 50502 10230 20180 30141 40177 70521 85030 333 56090 58012 70000 85362=
41858,2023,11,10,03,00,AAXX 10034 41858 01920 00805 10226 20200 30132 40178 71040 333 20170 58021 70000==
41858,2023,11,10,06,00,AAXX 10064 41858 01935 00905 10290 20180 30115 40161 70540 333 58016 70000==
41858,2023,11,10,09,00,AAXX 10094 41858 01940 00804 10304 20170 30087 40132 70500 333 58011 70000==
41858,2023,11,10,12,00,AAXX 10124 41858 01940 00000 10250 20190 30090 40136 70500 333 10315 58010 70000==
41858,2023,11,10,15,00,AAXX 10154 41858 01935 00000 10230 20190 30109 40155 70500 333 58008 70000==
41858,2023,11,10,18,00,AAXX 10184 41858 01935 00000 10215 20190 30115 40161 70500 333 58008 70000==
41858,2023,11,10,21,00,AAXX 10214 41858 01916 00305 10205 20190 30113 40159 71000 333 58005 70000==
41858,2023,11,11,00,00,AAXX 11004 41858 01912 00305 10188 20180 30112 40159 71000 333 58003 70000==
41858,2023,11,11,03,00,AAXX 11034 41858 01930 00505 10240 20180 30135 40181 70500 333 20175 58003 70000==
41858,2023,11,11,06,00,AAXX 11064 41858 01940 00000 10284 20210 30115 40161 70500 333 58000 70000==
41858,2023,11,11,09,00,AAXX 11094 41858 01950 00304 10300 20170 30090 40135 70500 333 58006 70000==
41858,2023,11,11,12,00,AAXX 11124 41858 01940 00000 10248 20200 30096 40142 70500 333 10310 58006 70000==
41858,2023,11,11,15,00,AAXX 11154 41858 01940 00000 10232 20200 30113 40159 70500 333 58004 70000==
41858,2023,11,11,18,00,AAXX 11184 41858 01935 00000 10214 20200 30118 40164 70500 333 58003 70000==
41858,2023,11,11,21,00,AAXX 11214 41858 01920 00000 10192 20180 30112 40159 71000 333 59001 70000==
41858,2023,11,12,00,00,AAXX 12004 41858 01910 00000 10185 20180 30115 40162 71000 333 58003 70000==
41858,2023,11,12,03,00,AAXX 12034 41858 01930 00905 10245 20190 30138 40185 70500 333 20175 58003 70000==
41858,2023,11,12,06,00,AAXX 12064 41858 01940 00505 10296 20170 30119 40164 70500 333 58004 70000==
41858,2023,11,12,09,00,AAXX 12094 41858 01950 00305 10300 20180 30094 40139 70500 333 58004 70000==
41858,2023,11,12,12,00,AAXX 12124 41858 01945 00000 10256 20200 30102 40148 70500 333 10310 58006 70000==
41858,2023,11,12,15,00,AAXX 12154 41858 01940 00000 10240 20190 30120 40166 70500 333 58007 70000==
41858,2023,11,12,18,00,AAXX 12184 41858 01935 00000 10215 20190 30125 40171 70500 333 58007 70000==
41858,2023,11,12,21,00,AAXX 12214 41858 01920 00000 10194 20180 30114 40161 71000 333 58002 70000==
41858,2023,11,13,00,00,AAXX 13004 41858 01910 00000 10182 20170 30120 40166 71000 333 58005 70000==
41858,2023,11,13,03,00,AAXX 13034 41858 01930 00302 10238 20180 30141 40187 70500 333 20175 58003 70000==
41858,2023,11,13,06,00,AAXX 13064 41858 01940 00605 10296 20180 30123 40168 70500 333 58004 70000==
41858,2023,11,13,09,00,AAXX 13094 41858 01950 00605 10306 20180 30091 40139 70500 333 59003 70000==
41858,2023,11,13,12,00,AAXX 13124 41858 01/50 20000 10236 20210 30093 40139 70500 82040 333 10316 59009 70000 82362==
41858,2023,11,13,15,00,AAXX 13154 41858 01940 00000 10214 20190 30114 40160 70520 333 59006 70000==
41858,2023,11,13,18,00,AAXX 13184 41858 01935 00602 10208 20190 30123 40169 70500 333 59002 70000==
41858,2023,11,13,21,00,AAXX 13214 41858 01930 00000 10204 20180 30119 40166 70500 333 58005 70000==
41858,2023,11,14,00,00,AAXX 14004 41858 01915 00000 10195 20170 30120 40167 71000 333 58000 70000==
41858,2023,11,14,03,00,AAXX 14034 41858 01940 00905 10245 20170 30135 40181 70500 333 20182 59006 70000==
41858,2023,11,14,06,00,AAXX 14064 41858 01940 00905 10305 20160 30116 40161 70500 333 59007 70000==
41858,2023,11,14,09,00,AAXX 14094 41858 01950 00604 10310 20170 30084 40129 70500 333 59007 70000==
41858,2023,11,14,12,00,AAXX 14124 41858 01940 00602 10260 20200 30090 40136 70500 333 10315 20200 40136 58001 70000 83030 83365==
41858,2023,11,14,15,00,AAXX 14154 41858 01940 00303 10232 20190 30112 40158 70500 333 59002 70000==
41858,2023,11,14,18,00,AAXX 14184 41858 01930 00602 10206 20190 30127 40173 70500 333 58004 70000==
41858,2023,11,14,21,00,AAXX 14214 41858 01925 00904 10198 20190 30120 40166 71000 333 58001 70000==
41858,2023,11,15,00,00,AAXX 15004 41858 01920 03604 10190 20180 30112 40159 71000 333 59008 70000==
41858,2023,11,15,03,00,AAXX 15034 41858 01930 20305 10236 20170 30133 40179 70500 333 20178 59002 70000 82362==
41858,2023,11,15,06,00,AAXX 15064 41858 01/50 30305 10295 20180 30117 40162 70510 83030 333 58001 70000 83362==
41858,2023,11,15,09,00,AAXX 15094 41858 01/50 20806 10305 20190 30092 40137 70510 82030 333 58008 70000 82362==
41858,2023,11,15,12,00,AAXX 15124 41858 01940 00604 10245 20200 30096 40142 70500 333 10310 58006 70000==
41858,2023,11,15,18,00,AAXX 15184 41858 01935 00000 10204 20180 30132 40176 70500 333 59002 70000==
41858,2023,11,15,21,00,AAXX 15214 41858 01/40 23605 10198 20180 30122 40169 70520 82090 333 58002 70000 82362==
41858,2023,11,16,00,00,AAXX 16004 41858 01/50 23606 10190 20170 30120 40167 70520 82090 333 58008 70000 82362==
41858,2023,11,16,03,00,AAXX 16034 41858 01/50 30905 10238 20160 30135 40181 70520 83040 333 20182 58002 70000 83362==
41858,2023,11,16,06,00,AAXX 16064 41858 01450 50508 10295 20190 30123 40168 70522 83520 333 58006 70000 83616 85458==
41858,2023,11,16,09,00,AAXX 16094 41858 01450 60905 10295 20200 30103 40148 70522 84520 333 58011 70000 84615 85458==
41858,2023,11,16,12,00,AAXX 16124 41858 01450 50605 10260 20210 30113 40159 70522 83520 333 10305 58007 70000 83618 85460==
41858,2023,11,16,15,00,AAXX 16154 41858 01440 30604 10244 20200 30135 40181 70522 83500 333 58016 70000 83615==
41858,2023,11,16,18,00,AAXX 16184 41858 01435 30602 10220 20200 30117 40181 70522 83500 333 58012 70000 83615==
41858,2023,11,16,21,00,AAXX 16214 41858 01435 50905 10218 20200 30111 40157 70522 83520 333 59011 70000 83615 84460==
41859,2023,11,10,00,00,AAXX 10004 41859 01930 00000 10184 20170 30113 40152 70500 333 58016 70000==
41859,2023,11,10,03,00,AAXX 10034 41859 01940 03601 10242 20200 30139 40177 70500 333 20180 58021 70000==
41859,2023,11,10,06,00,AAXX 10064 41859 02950 00502 10290 20190 30122 40159 333 58016 70000==
41859,2023,11,10,09,00,AAXX 10094 41859 02450 40000 10301 20170 30096 40133 84400 333 58013 70000 83618==
41859,2023,11,10,12,00,AAXX 10124 41859 01930 00000 10256 20220 30098 40136 70510 333 10307 58010 70000==
41859,2023,11,10,15,00,AAXX 10154 41859 01930 00000 10222 20210 30116 40154 70500 333 58008 70000==
41859,2023,11,10,18,00,AAXX 10184 41859 01930 00000 10210 20200 30117 40155 70500 333 58009 70000==
41859,2023,11,10,21,00,AAXX 10214 41859 01930 00000 10202 20190 30115 40153 70500 333 58009 70000==
41859,2023,11,11,00,00,AAXX 11004 41859 01930 00000 10195 20190 30117 40155 70500 333 58004 70000==
41859,2023,11,11,03,00,AAXX 11034 41859 01950 00000 10244 20200 30142 40180 70500 333 20188 58003 70000==
41859,2023,11,11,06,00,AAXX 11064 41859 02950 00000 10293 20180 30123 40160 333 58001 70000==
41859,2023,11,11,09,00,AAXX 11094 41859 02950 00000 10302 20180 30097 40134 333 58001 70000==
41859,2023,11,11,12,00,AAXX 11124 41859 01930 00000 10257 20220 30100 40138 70500 333 10310 58002 70000==
41859,2023,11,11,15,00,AAXX 11154 41859 01930 00000 10225 20220 30121 40159 70500 333 58005 70000==
41859,2023,11,11,18,00,AAXX 11184 41859 01930 00000 10210 20200 30116 40154 70500 333 59001 70000==
41859,2023,11,11,21,00,AAXX 11214 41859 01930 00000 10196 20190 30111 40149 70500 333 59004 70000==
41859,2023,11,12,00,00,AAXX 12004 41859 01930 00000 10194 20180 30121 40159 70500 333 58004 70000==
41859,2023,11,12,03,00,AAXX 12034 41859 41950 00000 10244 20180 30146 40184 70500 333 20187 58004==
41859,2023,11,12,06,00,AAXX 12064 41859 02950 00000 10293 20180 30127 40164 333 58004 70000==
41859,2023,11,12,09,00,AAXX 12094 41859 02950 00000 10310 20190 30101 40138 333 58004 70000==
41859,2023,11,12,12,00,AAXX 12124 41859 02940 00000 10266 20220 30108 40145 333 10315 58008 70000==
41859,2023,11,12,15,00,AAXX 12154 41859 01930 00000 10226 20220 30127 40165 70500 333 58006 70000==
41859,2023,11,12,18,00,AAXX 12184 41859 01930 00000 10210 20200 30126 40164 70500 333 58010 70000==
41859,2023,11,12,21,00,AAXX 12214 41859 01930 00000 10204 20190 30120 40158 70500 333 58009 70000==
41859,2023,11,13,00,00,AAXX 13004 41859 01930 00000 10202 20180 30123 40161 70500 333 58002 70000==
41859,2023,11,13,03,00,AAXX 13034 41859 01950 00000 10251 20180 30147 40185 70500 333 20182 58001 70000==
41859,2023,11,13,06,00,AAXX 13064 41859 02950 00000 10294 20180 30129 40166 333 58002 70000==
41859,2023,11,13,09,00,AAXX 13094 41859 02950 00502 10310 20170 30097 40134 333 59004 70000==
41859,2023,11,13,12,00,AAXX 13124 41859 01/30 20000 10265 20210 30099 40136 70510 82030 333 10311 59009 70000 82362==
41859,2023,11,13,15,00,AAXX 13154 41859 01930 00000 10222 20210 30112 40150 70500 333 59015 70000==
41859,2023,11,13,18,00,AAXX 13184 41859 01930 00000 10207 20200 30120 40158 70500 333 59006 70000==
41859,2023,11,13,21,00,AAXX 13214 41859 01930 00000 10200 20180 30122 40160 70500 333 59001 70000==
41859,2023,11,14,00,00,AAXX 14004 41859 01930 00000 10200 20180 30122 40160 70500 333 59001 70000==
41859,2023,11,14,03,00,AAXX 14034 41859 01950 00000 10246 20170 30141 40179 70500 333 20192 59006 70000==
41859,2023,11,14,06,00,AAXX 14064 41859 02950 00000 10296 20190 30123 40160 333 59006 70000==
41859,2023,11,14,09,00,AAXX 14094 41859 02950 00502 10308 20190 30091 40128 333 59006 70000==
41859,2023,11,14,12,00,AAXX 14124 41859 01430 20000 10261 20210 30097 40135 70500 82500 333 10310 59002 70000 82618==
41859,2023,11,14,15,00,AAXX 14154 41859 01930 00000 10228 20210 30120 40158 70500 333 58008 70000==
41859,2023,11,14,18,00,AAXX 14184 41859 01930 00000 10214 20190 30121 40159 70500 333 58001 70000==
41859,2023,11,14,21,00,AAXX 14214 41859 01930 00502 10210 20190 30114 40152 70500 333 59002 70000==
41859,2023,11,15,00,00,AAXX 15004 41859 01930 00502 10200 20170 30116 40154 70500 333 59006 70000==
41859,2023,11,15,03,00,AAXX 15034 41859 01950 00502 10247 20180 30140 40178 70500 333 20190 59001 70000==
41859,2023,11,15,06,00,AAXX 15064 41859 32950 00502 10291 20180 30126 40163 333 59003 70000=
41859,2023,11,15,09,00,AAXX 15094 41859 02/50 20000 10315 20200 30100 40137 82030 333 58009 70000 82362==
41859,2023,11,15,12,00,AAXX 15124 41859 01/40 20000 10257 20210 30100 40138 70510 82030 333 10320 58003 70000 82362==
41859,2023,11,15,15,00,AAXX 15154 41859 01930 00000 10224 20200 30127 40165 70500 333 58007 70000==
41859,2023,11,15,18,00,AAXX 15184 41859 01930 00000 10211 20200 30132 40170 70500 333 58011 70000==
41859,2023,11,15,21,00,AAXX 15214 41859 01930 00502 10204 20180 30120 40158 70500 333 58006 70000==
41859,2023,11,16,00,00,AAXX 16004 41859 01930 00502 10199 20170 30122 40160 70500 333 58006 70000==
41859,2023,11,16,03,00,AAXX 16034 41859 01950 00502 10247 20180 30143 40181 70500 333 20193 58003 70000==
41859,2023,11,16,06,00,AAXX 16064 41859 02450 50502 10291 20180 30131 40168 8462/ 333 58005 70000 82710 85458==
41859,2023,11,16,07,00,AAXX 16074 41859 02450 50502 10291 20180 30131 40168 8462/ 333 58005 70000 82710 85458==
41859,2023,11,16,09,00,AAXX 16094 41859 02450 70901 10299 20200 30111 40148 83530 333 58011 70000 83618 87362==
41859,2023,11,16,12,00,AAXX 16124 41859 01430 40000 10260 20220 30122 40160 70522 82530 333 10302 58022 70000 82618 84362==
41859,2023,11,16,15,00,AAXX 16154 41859 01430 30000 10240 20200 30133 40171 70511 81530 333 58006 70000 81618 83362==
41859,2023,11,16,18,00,AAXX 16184 41859 31430 80000 10238 20200 30138 40176 70521 8452/ 333 56999 58006 70000 84618 88458=
41859,2023,11,16,21,00,AAXX 16214 41859 01430 80000 10228 20220 30130 40168 72162 8562/ 333 58010 70028 83710 84618 88458==
41863,2023,11,10,00,00,AAXX 10004 41863 01950 00000 10175 20170 30105 40149 70500 333 58010 70000==
41863,2023,11,10,03,00,AAXX 10034 41863 01950 00000 10230 20200 30132 40176 70500 333 20172 58018 70000==
41863,2023,11,10,06,00,AAXX 10064 41863 02956 00503 10290 20170 30120 40163 333 58018 70000==
41863,2023,11,10,09,00,AAXX 10094 41863 02957 00000 10310 20160 30088 40130 333 58008 70000==
41863,2023,11,10,12,00,AAXX 10124 41863 02950 00000 10232 20190 30092 40136 333 10312 58012 70000==
41863,2023,11,10,15,00,AAXX 10154 41863 01950 00000 10205 20190 30114 40158 70500 333 58012 70000==
41863,2023,11,10,18,00,AAXX 10184 41863 01950 00000 10195 20180 30113 40157 70500 333 58009 70000==
41863,2023,11,10,21,00,AAXX 10214 41863 01950 00000 10185 20180 30110 40154 70500 333 58007 70000==
41863,2023,11,11,00,00,AAXX 11004 41863 01940 00000 10172 20170 30111 40156 70500 333 58006 70000==
41863,2023,11,11,03,00,AAXX 11034 41863 01950 00502 10242 20200 30136 40180 70500 333 20166 58006 70000==
41863,2023,11,11,06,00,AAXX 11064 41863 02957 00503 10295 20190 30124 40167 333 58004 70000==
41863,2023,11,11,09,00,AAXX 11094 41863 02957 00501 10305 20180 30093 40135 333 58005 70000==
41863,2023,11,11,12,00,AAXX 11124 41863 02950 00000 10245 20210 30097 40140 333 10312 58005 70000==
41863,2023,11,11,15,00,AAXX 11154 41863 01940 00000 10212 20200 30116 40160 70500 333 58002 70000==
41863,2023,11,11,18,00,AAXX 11184 41863 01940 00000 10190 20180 30115 40159 70500 333 58002 70000==
41863,2023,11,11,21,00,AAXX 11214 41863 01940 00000 10180 20170 30112 40156 70500 333 58002 70000==
41863,2023,11,12,00,00,AAXX 12004 41863 01940 00000 10171 20160 30118 40163 70500 333 58007 70000==
41863,2023,11,12,03,00,AAXX 12034 41863 02956 01802 10242 20180 30141 40185 333 20163 58005 70000==
41863,2023,11,12,06,00,AAXX 12064 41863 02957 00501 10300 20180 30122 40165 333 59002 70000==
41863,2023,11,12,09,00,AAXX 12094 41863 02957 00000 10300 20160 30098 40141 333 58005 70000==
41863,2023,11,12,12,00,AAXX 12124 41863 02956 00000 10255 20210 30100 40143 333 10310 58003 70000==
41863,2023,11,12,15,00,AAXX 12154 41863 01950 00000 10205 20190 30121 40165 70500 333 58005 70000==
41863,2023,11,12,18,00,AAXX 12184 41863 01940 00000 10192 20170 30123 40167 70500 333 58008 70000==
41863,2023,11,12,21,00,AAXX 12214 41863 01940 00000 10185 20180 30121 40165 70500 333 58009 70000==
41863,2023,11,13,00,00,AAXX 13004 41863 01950 00000 10174 20160 30122 40167 70500 333 58004 70000==
41863,2023,11,13,03,00,AAXX 13034 41863 02956 03601 10235 20190 30141 40185 333 20166 58004 70000==
41863,2023,11,13,06,00,AAXX 13064 41863 02957 03601 10297 20160 30123 40166 333 58001 70000==
41863,2023,11,13,09,00,AAXX 13094 41863 02957 03602 10313 20150 30095 40137 333 59003 70000==
41863,2023,11,13,12,00,AAXX 13124 41863 02/56 20000 10257 20210 30092 40135 82030 333 10315 59008 70000 82365==
41863,2023,11,13,15,00,AAXX 13154 41863 01950 00000 10205 20190 30114 40158 70500 333 59007 70000==
41863,2023,11,13,18,00,AAXX 13184 41863 01950 00000 10195 20190 30121 40165 70500 333 59002 70000==
41863,2023,11,13,21,00,AAXX 13214 41863 01950 00000 10185 20180 30119 40163 70500 333 59002 70000==
41863,2023,11,14,00,00,AAXX 14004 41863 02950 00000 10174 20160 30117 40162 333 59005 70000==
41863,2023,11,14,03,00,AAXX 14034 41863 02956 03603 10234 20170 30136 40180 333 20167 59005 70000==
41863,2023,11,14,06,00,AAXX 14064 41863 02/57 20502 10296 20190 30118 40161 82030 333 59005 70000 82362==
41863,2023,11,14,09,00,AAXX 14094 41863 02/57 20502 10309 20180 30085 40127 82030 333 59010 70000 82362==
41863,2023,11,14,12,00,AAXX 14124 41863 02956 00000 10247 20210 30090 40133 333 10315 59002 70000==
41863,2023,11,14,15,00,AAXX 14154 41863 01950 00502 10211 20190 30116 40160 70500 333 58002 70000==
41863,2023,11,14,18,00,AAXX 14184 41863 01950 00000 10200 20180 30115 40159 70500 333 58006 70000==
41863,2023,11,15,00,00,AAXX 15004 41863 01950 20000 10171 20170 30115 40160 70500 80002 333 59002 70000 82083==
41863,2023,11,15,03,00,AAXX 15034 41863 02956 00902 10250 20180 30135 40179 333 20165 59001 70000==
41863,2023,11,15,06,00,AAXX 15064 41863 02957 00504 10294 20180 30122 40165 333 58004 70000==
41863,2023,11,15,09,00,AAXX 15094 41863 02957 00902 10310 20180 30093 40135 333 58008 70000==
41863,2023,11,15,12,00,AAXX 15124 41863 02/56 20000 10245 20210 30098 40141 82030 333 10313 58090 70000 82362==
41863,2023,11,15,15,00,AAXX 15154 41863 01950 00000 10210 20190 30121 40165 70500 333 58005 70000==
41863,2023,11,15,18,00,AAXX 15184 41863 01950 00000 10194 20170 30123 40167 70500 333 58008 70000==
41863,2023,11,15,21,00,AAXX 15214 41863 01950 00000 10180 20170 30122 40166 70500 333 58009 70000==
41863,2023,11,16,00,00,AAXX 16004 41863 01950 00000 10173 20160 30123 40168 70500 333 58008 70000==
41863,2023,11,16,03,00,AAXX 16034 41863 02957 00903 10250 20160 30138 40182 333 20166 58003 70000==
41863,2023,11,16,06,00,AAXX 16064 41863 02457 50904 10285 20180 30128 40171 84520 333 58006 70000 84618 86458==
41863,2023,11,16,09,00,AAXX 16094 41863 02456 70901 10295 20210 30105 40148 84520 333 58012 70000 84618 87458==
41863,2023,11,16,12,00,AAXX 16124 41863 02456 60000 10264 20220 30113 40156 83520 333 10310 58015 70000 83618 86458==
41863,2023,11,16,15,00,AAXX 16154 41863 01950 50000 10230 20210 30137 40181 70522 82520 333 58016 70000 82618 85458==
41863,2023,11,16,18,00,AAXX 16184 41863 01940 50000 10225 20210 30132 40176 70522 82520 333 58009 70000 82618 85458==
41863,2023,11,16,21,00,AAXX 16214 41863 01940 60902 10223 20200 30126 40170 70522 83520 333 58004 70000 83618 86458==
41881,2023,11,10,00,00,AAXX 10004 41881 31905 00000 10172 20170 30131 40152 74440 333 58016 70000=
41881,2023,11,10,06,00,AAXX 10064 41881 32957 03604 10285 20180 30135 40155 333 58012 70000=
41881,2023,11,10,12,00,AAXX 10124 41881 32956 00000 10230 20200 30112 40132 333 10304 58009 70000=
41881,2023,11,10,18,00,AAXX 10184 41881 32956 03601 10188 20180 30138 40158 333 58013 70000=
41881,2023,11,11,00,00,AAXX 11004 41881 31930 02901 10175 20175 30135 40155 70500 333 58004 70000=
41881,2023,11,11,06,00,AAXX 11064 41881 32458 13601 10285 20180 30139 40159 81500 333 56900 58004 70000 81620=
41881,2023,11,11,12,00,AAXX 11124 41881 32956 02802 10235 20220 30120 40140 333 10305 58008 70000=
41881,2023,11,11,18,00,AAXX 11184 41881 32956 00301 10190 20190 30134 40154 333 59004 70000=
41881,2023,11,12,00,00,AAXX 12004 41881 32950 03601 10175 20175 30137 40157 333 58002 70000=
41881,2023,11,12,06,00,AAXX 12064 41881 32957 03402 10286 20180 30144 40164 333 58005 70000=
41881,2023,11,12,12,00,AAXX 12124 41881 32956 00000 10241 20220 30123 40143 333 10304 58003 70000=
41881,2023,11,12,18,00,AAXX 12184 41881 32950 00000 10192 20180 30140 40161 333 58006 70000=
41881,2023,11,13,00,00,AAXX 13004 41881 32950 03601 10175 20175 30141 40162 333 58004 70000=
41881,2023,11,13,06,00,AAXX 13064 41881 32957 03601 10285 20180 30146 40166 333 58002 70000=
41881,2023,11,13,12,00,AAXX 13124 41881 32956 03601 10250 20220 30117 40137 333 10300 59006 70000=
41881,2023,11,13,18,00,AAXX 13184 41881 32950 00000 10195 20190 30143 40164 333 58003 70000=
41881,2023,11,14,00,00,AAXX 14004 41881 32950 03601 10179 20179 30140 40161 333 59001 70000=
41881,2023,11,14,06,00,AAXX 14064 41881 32956 03601 10285 20220 30138 40158 333 59008 70000=
41881,2023,11,14,12,00,AAXX 14124 41881 32956 00000 10250 20230 30110 40130 333 10305 59007 70000=
41881,2023,11,14,18,00,AAXX 14184 41881 32950 00000 10200 20180 30141 40161 333 59002 70000=
41881,2023,11,15,00,00,AAXX 15004 41881 31945 00000 10180 20180 30131 40152 70500 333 59009 70000=
41881,2023,11,15,06,00,AAXX 15064 41881 32956 03601 10282 20200 30142 40162 333 58004 70000=
41881,2023,11,15,12,00,AAXX 15124 41881 32956 00000 10245 20210 30117 40137 333 10315 58007 70000=
41881,2023,11,15,18,00,AAXX 15184 41881 32950 00000 10195 20190 30148 40168 333 58007 70000=
41881,2023,11,16,06,00,AAXX 16064 41881 32456 50000 10265 20220 30148 40168 83530 333 56990 58006 70000=
41881,2023,11,16,12,00,AAXX 16124 41881 32450 70000 10252 20210 30136 40156 84520 333 10280 56990 58019 70000 84617 87459=
41881,2023,11,16,18,00,AAXX 16184 41881 32450 80000 10228 20220 30161 40181 8652/ 333 56999 58013 70000 86618 88458=
41883,2023,11,10,00,00,AAXX 10004 41883 02930 00000 10200 20180 30128 40149 333 58013 70000==
41883,2023,11,10,03,00,AAXX 10034 41883 02956 00000 10248 20190 30152 40173 333 20192 58017 70000==
41883,2023,11,10,06,00,AAXX 10064 41883 02956 00000 10300 20160 30139 40159 333 58017 70000==
41883,2023,11,10,09,00,AAXX 10094 41883 02956 00000 10314 20160 30109 40129 333 58009 70000==
41883,2023,11,10,12,00,AAXX 10124 41883 02930 00000 10258 20190 30111 40132 333 10318 58009 70000==
41883,2023,11,10,15,00,AAXX 10154 41883 02930 00000 10230 20210 30131 40152 333 58006 70000==
41883,2023,11,10,18,00,AAXX 10184 41883 02930 00000 10218 20200 30133 40154 333 58009 70000==
41883,2023,11,10,21,00,AAXX 10214 41883 02930 00000 10207 20200 30128 40149 333 58008 70000==
41883,2023,11,11,00,00,AAXX 11004 41883 02930 00000 10200 20190 30130 40151 333 58002 70000==
41883,2023,11,11,03,00,AAXX 11034 41883 02956 00000 10254 20190 30148 40169 333 20195 59004 70000==
41883,2023,11,11,06,00,AAXX 11064 41883 02956 00000 10300 20180 30137 40157 333 59002 70000==
41883,2023,11,11,09,00,AAXX 11094 41883 02956 00000 10320 20170 30109 40129 333 58000 70000==
41883,2023,11,11,12,00,AAXX 11124 41883 02930 00000 10270 20190 30115 40135 333 10325 58004 70000==
41883,2023,11,11,15,00,AAXX 11154 41883 02930 00000 10240 20210 30136 40156 333 58005 70000==
41883,2023,11,11,18,00,AAXX 11184 41883 02930 00000 10226 20210 30134 40155 333 58001 70000==
41883,2023,11,11,21,00,AAXX 11214 41883 02930 00000 10218 20210 30128 40149 333 58000 70000==
41883,2023,11,12,00,00,AAXX 12004 41883 02930 00000 10198 20190 30134 40155 333 58004 70000==
41883,2023,11,12,03,00,AAXX 12034 41883 02956 00000 10254 20190 30158 40179 333 20194 58010 70000==
41883,2023,11,12,06,00,AAXX 12064 41883 02956 00000 10308 20190 30139 40159 333 58002 70000==
41883,2023,11,12,09,00,AAXX 12094 41883 02956 00000 10316 20190 30117 40137 333 58008 70000==
41883,2023,11,12,12,00,AAXX 12124 41883 02930 00000 10272 20200 30123 40143 333 10322 58008 70000==
41883,2023,11,12,15,00,AAXX 12154 41883 02930 00000 10246 20210 30140 40161 333 58004 70000==
41883,2023,11,12,18,00,AAXX 12184 41883 02930 00000 10224 20200 30138 40159 333 58004 70000==
41883,2023,11,12,21,00,AAXX 12214 41883 02930 00000 10214 20190 30131 40152 333 58003 70000==
41883,2023,11,13,00,00,AAXX 13004 41883 02930 00000 10202 20190 30134 40155 333 58000 70000==
41883,2023,11,13,03,00,AAXX 13034 41883 02956 00000 10258 20200 30156 40176 333 20195 59002 70000==
41883,2023,11,13,06,00,AAXX 13064 41883 02956 00000 10306 20200 30140 40160 333 58001 70000==
41883,2023,11,13,09,00,AAXX 13094 41883 02956 00000 10322 20180 30110 40130 333 59007 70000==
41883,2023,11,13,12,00,AAXX 13124 41883 02930 00000 10270 20210 30113 40133 333 10325 59010 70000==
41883,2023,11,13,15,00,AAXX 13154 41883 02930 00000 10250 20200 30133 40154 333 59007 70000==
41883,2023,11,13,18,00,AAXX 13184 41883 02930 00000 10234 20200 30135 40156 333 59003 70000==
41883,2023,11,13,21,00,AAXX 13214 41883 02930 00000 10200 20180 30135 40156 333 58001 70000==
41883,2023,11,14,00,00,AAXX 14004 41883 02930 00000 10200 20180 30135 40156 333 58001 70000==
41883,2023,11,14,03,00,AAXX 14034 41883 02956 00000 10250 20200 30153 40174 333 20193 59003 70000==
41883,2023,11,14,06,00,AAXX 14064 41883 02456 30000 10306 20180 30136 40156 83500 333 59004 70000 83618==
41883,2023,11,14,09,00,AAXX 14094 41883 02956 30000 10318 20160 30104 40124 80001 333 59005 70000 83080==
41883,2023,11,14,12,00,AAXX 14124 41883 02430 20000 10260 20180 30110 40130 82500 333 10322 59003 70000 82616==
41883,2023,11,14,15,00,AAXX 14154 41883 02930 00000 10234 20190 30133 40153 333 58000 70000==
41883,2023,11,14,18,00,AAXX 14184 41883 02930 00000 10224 20190 30138 40159 333 58003 70000==
41883,2023,11,14,21,00,AAXX 14214 41883 02930 00000 10220 20190 30131 40152 333 59001 70000==
41883,2023,11,15,00,00,AAXX 15004 41883 02930 30000 10204 20190 30131 40152 80001 333 59004 70000 83080==
41883,2023,11,15,03,00,AAXX 15034 41883 02956 30000 10262 20200 30152 40173 80001 333 20198 59001 70000 83080==
41883,2023,11,15,06,00,AAXX 15064 41883 32456 30000 10302 20170 30138 40158 83500 333 56800 58002 70000 83616=
41883,2023,11,15,09,00,AAXX 15094 41883 02456 40000 10310 20180 30111 40131 82520 333 58007 70000 82618 84458==
41883,2023,11,15,12,00,AAXX 15124 41883 02430 60000 10272 20190 30119 40139 83520 333 10315 58009 70000 83618 86458==
41883,2023,11,15,15,00,AAXX 15154 41883 02430 60000 10240 20200 30142 40163 83510 333 58009 70000 83616 86459==
41883,2023,11,15,18,00,AAXX 15184 41883 02930 00000 10230 20200 30142 40163 333 58004 70000==
41883,2023,11,15,21,00,AAXX 15214 41883 02930 00000 10224 20200 30135 40156 333 58004 70000==
41883,2023,11,16,00,00,AAXX 16004 41883 02/30 30000 10217 20200 30133 40154 83030 333 58002 70000 83362==
41883,2023,11,16,03,00,AAXX 16034 41883 02456 60000 10238 20210 30156 40176 84510 333 20214 58004 70000 84616 86459==
41883,2023,11,16,06,00,AAXX 16064 41883 02456 60000 10284 20210 30149 40169 84510 333 58011 70000 84616 86459==
41883,2023,11,16,09,00,AAXX 16094 41883 02456 80000 10280 20200 30129 40149 8452/ 333 58018 70000 84616 88459==
41883,2023,11,16,12,00,AAXX 16124 41883 21430 80000 10246 20220 30137 40158 70262 8552/ 333 10284 58018 69925 70000 85616 84459==
41883,2023,11,16,15,00,AAXX 16154 41883 02430 80000 10244 20220 30157 40178 8452/ 333 58015 70002 84618 88458==
41883,2023,11,16,18,00,AAXX 16184 41883 11430 80000 10242 20220 30149 40170 69924 72122 8462/ 333 56299 58007 70004 82710 83618 88458=
41883,2023,11,16,21,00,AAXX 16214 41883 02430 80000 10236 20230 30133 40154 8462/ 333 59002 70004 82710 84618 88458==
41886,2023,11,10,00,00,AAXX 10004 41886 02915 00000 10187 20180 30128 40149 333 58015 70000==
41886,2023,11,10,03,00,AAXX 10034 41886 01950 00000 10258 20190 30153 40174 70540 333 20185 58015 70000==
41886,2023,11,10,06,00,AAXX 10064 41886 01957 00000 10300 20190 30136 40156 70040 333 58012 70000==
41886,2023,11,10,09,00,AAXX 10094 41886 02957 00000 10310 20180 30109 40129 333 58007 70000==
41886,2023,11,10,12,00,AAXX 10124 41886 01956 00000 10250 20210 30113 40134 70500 333 10314 58005 70000==
41886,2023,11,10,15,00,AAXX 10154 41886 01950 00000 10220 20200 30132 40153 70500 333 58005 70000==
41886,2023,11,10,18,00,AAXX 10184 41886 01940 00000 10211 20200 30132 40153 70500 333 58005 70000==
41886,2023,11,10,21,00,AAXX 10214 41886 01935 00000 10206 20200 30130 40151 70540 333 58005 70000==
41886,2023,11,11,00,00,AAXX 11004 41886 01920 00000 10200 20190 30134 40155 71044 333 58006 70000==
41886,2023,11,11,03,00,AAXX 11034 41886 01950 00000 10250 20220 30157 40178 70544 333 20190 58002 70000==
41886,2023,11,11,06,00,AAXX 11064 41886 01457 30000 10304 20200 30134 40154 70340 83400 333 59002 70000 82618==
41886,2023,11,11,09,00,AAXX 11094 41886 02457 20000 10313 20200 30110 40130 82500 333 58001 70000==
41886,2023,11,11,12,00,AAXX 11124 41886 01950 00000 10254 20220 30114 40135 70510 333 10317 58001 70000==
41886,2023,11,11,15,00,AAXX 11154 41886 01950 00000 10224 20210 30136 40157 70500 333 58004 70000==
41886,2023,11,11,18,00,AAXX 11184 41886 01950 00000 10214 20210 30134 40155 70500 333 58002 70000==
41886,2023,11,11,21,00,AAXX 11214 41886 01909 00000 10194 20190 30132 40153 74444 333 58002 70000==
41886,2023,11,12,00,00,AAXX 12004 41886 01908 00000 10194 20190 30139 40160 74444 333 58005 70000==
41886,2023,11,12,03,00,AAXX 12034 41886 01950 00000 10250 20220 30160 40181 70540 333 20190 58003 70000==
41886,2023,11,12,06,00,AAXX 12064 41886 01956 00000 10300 20200 30143 40164 70540 333 58009 70000==
41886,2023,11,12,09,00,AAXX 12094 41886 02957 00000 10302 20200 30114 40134 333 58004 70000==
41886,2023,11,12,12,00,AAXX 12124 41886 01956 00000 10252 20220 30122 40142 70500 333 10310 58007 70000==
41886,2023,11,12,15,00,AAXX 12154 41886 01950 00000 10224 20200 30139 40159 70500 333 58003 70000==
41886,2023,11,12,18,00,AAXX 12184 41886 01920 00000 10210 20200 30136 40156 71040 333 58002 70000==
41886,2023,11,12,21,00,AAXX 12214 41886 01908 00000 10200 20200 30132 40153 74444 333 58000 70000==
41886,2023,11,13,00,00,AAXX 13004 41886 01906 00000 10190 20190 30139 40160 74444 333 58000 70000==
41886,2023,11,13,03,00,AAXX 13034 41886 01940 00000 10260 20210 30158 40178 70540 333 20188 59002 70000==
41886,2023,11,13,06,00,AAXX 13064 41886 01950 00000 10304 20190 30139 40159 70540 333 59004 70000==
41886,2023,11,13,09,00,AAXX 13094 41886 02957 00000 10320 20190 30112 40132 333 59002 70000==
41886,2023,11,13,12,00,AAXX 13124 41886 01956 00000 10250 20230 30114 40134 70500 333 10324 59008 70000==
41886,2023,11,13,15,00,AAXX 13154 41886 01950 00000 10224 20210 30134 40154 70500 333 59005 70000==
41886,2023,11,13,18,00,AAXX 13184 41886 01930 00000 10210 20200 30138 40158 71040 333 58002 70000==
41886,2023,11,13,21,00,AAXX 13214 41886 01909 00000 10200 20190 30135 40155 74444 333 58003 70000==
41886,2023,11,14,00,00,AAXX 14004 41886 01908 00000 10190 20190 30138 40159 74444 333 59001 70000==
41886,2023,11,14,03,00,AAXX 14034 41886 01940 00000 10265 20240 30156 40176 70540 333 20184 59002 70000==
41886,2023,11,14,06,00,AAXX 14064 41886 01956 00000 10300 20200 30138 40158 70540 333 59001 70000==
41886,2023,11,14,09,00,AAXX 14094 41886 02/57 30000 10308 20190 30108 40128 83030 333 59004 70000 83365==
41886,2023,11,14,15,00,AAXX 14154 41886 01950 00000 10210 20200 30137 40158 70500 333 58003 70000==
41886,2023,11,14,18,00,AAXX 14184 41886 01950 00000 10205 20200 30138 40159 70500 333 58000 70000==
41886,2023,11,14,21,00,AAXX 14214 41886 01915 00000 10205 20200 30133 40153 71040 333 59002 70000==
41886,2023,11,15,00,00,AAXX 15004 41886 01906 00000 10180 20180 30131 40152 74244 333 59007 70000==
41886,2023,11,15,03,00,AAXX 15034 41886 01/50 30000 10240 20200 30154 40175 70541 83030 333 20177 59002 70000 83365==
41886,2023,11,15,06,00,AAXX 15064 41886 02/57 30000 10288 20180 30141 40162 83030 333 58003 70000 83365==
41886,2023,11,15,09,00,AAXX 15094 41886 02/57 50000 10296 20190 30116 40136 85030 333 58008 70000 85365==
41886,2023,11,15,12,00,AAXX 15124 41886 02/56 50000 10252 20220 30122 40143 85030 333 10316 58007 70000 85365==
41886,2023,11,15,15,00,AAXX 15154 41886 01/50 30000 10226 20210 30143 40164 70521 83030 333 58006 70000 83365==
41886,2023,11,15,18,00,AAXX 15184 41886 01/50 50000 10224 20200 30144 40165 70522 85030 333 58006 70000 85365==
41886,2023,11,15,21,00,AAXX 15214 41886 01/50 60000 10220 20210 30135 40156 70500 86070 333 58002 70000 85365==
41886,2023,11,16,00,00,AAXX 16004 41886 01/50 60000 10212 20200 30140 40161 70522 86070 333 58009 70000 85365==
41886,2023,11,16,03,00,AAXX 16034 41886 01450 70000 10250 20210 30153 40174 70522 82570 333 20208 59001 70000 82618 85460==
41886,2023,11,16,06,00,AAXX 16064 41886 01450 80000 10257 20240 30149 40170 7432/ 333 58008 70020 84617 88458 81930==
41886,2023,11,16,09,00,AAXX 16094 41886 01450 80000 10258 20240 30132 40153 72162 8532/ 333 58016 70016 84617 88460 81930==
41886,2023,11,16,12,00,AAXX 16124 41886 01450 80000 10240 20230 30142 40163 70262 8552/ 333 10274 58020 70026 85616 88458==
41886,2023,11,16,15,00,AAXX 16154 41886 02450 80000 10234 20210 30163 40184 8452/ 333 58019 70026 84616 88458==
41886,2023,11,16,18,00,AAXX 16184 41886 02450 80000 10230 20210 30155 40176 8352/ 333 58011 70026 83616 88458==
41886,2023,11,16,21,00,AAXX 16214 41886 32450 80000 10230 20220 30140 40161 8352/ 333 56999 58005 70026 83616 88458=
41888,2023,11,10,00,00,AAXX 10004 41888 31940 03601 10190 20190 30140 40150 70540 333 58015 70000=
41888,2023,11,10,06,00,AAXX 10064 41888 32956 20702 10275 20210 30145 40155 333 58015 70000=
41888,2023,11,10,12,00,AAXX 10124 41888 31940 00000 10255 20230 30117 40127 70500 333 10319 58007 70000=
41888,2023,11,10,18,00,AAXX 10184 41888 31930 00000 10212 20210 30136 40146 70500 333 58016 70000=
41888,2023,11,11,00,00,AAXX 11004 41888 31910 00000 10193 20190 30140 40150 71040 333 58000 70000=
41888,2023,11,11,06,00,AAXX 11064 41888 32456 32701 10295 20200 30140 40150 83400 333 56900 59005 70000 82618=
41888,2023,11,11,12,00,AAXX 11124 41888 31940 00901 10250 20230 30122 40132 70510 333 10310 58005 70000=
41888,2023,11,11,18,00,AAXX 11184 41888 31915 00000 10215 20215 30140 40150 71040 333 58004 70000=
41888,2023,11,12,00,00,AAXX 12004 41888 31908 00501 10198 20198 30141 40151 74244 333 58001 70000=
41888,2023,11,12,06,00,AAXX 12064 41888 32956 02701 10292 20190 30147 40157 70040 333 58007 70000=
41888,2023,11,12,12,00,AAXX 12124 41888 32950 00000 10253 20210 30129 40139 333 10314 58007 70000=
41888,2023,11,12,18,00,AAXX 12184 41888 31930 00901 10215 20210 30142 40152 71000 333 58002 70000=
41888,2023,11,13,00,00,AAXX 13004 41888 31907 00000 10195 20195 30144 40154 74244 333 58003 70000=
41888,2023,11,13,06,00,AAXX 13064 41888 32957 00701 10300 20190 30142 40152 70040 333 59005 70000=
41888,2023,11,13,12,00,AAXX 13124 41888 32950 00000 10255 20220 30120 40130 333 10320 59009 70000=
41888,2023,11,13,18,00,AAXX 13184 41888 31915 00000 10213 20200 30145 40155 71040 333 58003 70000=
41888,2023,11,14,00,00,AAXX 14004 41888 31907 23601 10187 20187 30146 40156 74244 80001 333 56009 58002 70000 82080=
41888,2023,11,14,06,00,AAXX 14064 41888 32957 30901 10294 20180 30143 40153 70341 80001 333 56009 58001 70000 83080=
41888,2023,11,14,12,00,AAXX 14124 41888 31950 00000 10250 20210 30120 40130 70510 333 10312 58000 70000=
41888,2023,11,14,18,00,AAXX 14184 41888 31915 00000 10200 20200 30144 40154 71040 333 59001 70000=
41888,2023,11,15,00,00,AAXX 15004 41888 31915 50000 10184 20180 30140 40150 71044 82031 333 56099 59006 70000 82365 85080=
41888,2023,11,15,06,00,AAXX 15064 41888 32956 33301 10290 20180 30145 40155 70342 82031 333 56099 58002 70000 82365 82080=
41888,2023,11,15,12,00,AAXX 15124 41888 31945 53201 10260 20220 30128 40138 70521 83031 333 10315 56099 58008 70000 83365 85080=
41888,2023,11,15,18,00,AAXX 15184 41888 31940 20901 10223 20200 30146 40156 70521 82030 333 56090 58002 70000 82365=
41888,2023,11,16,00,00,AAXX 16004 41888 32456 50000 10210 20200 30144 40154 82530 333 56990 58004 70000 82618 85365=
41888,2023,11,16,06,00,AAXX 16064 41888 31340 83301 10270 20230 30150 40160 70522 8362/ 333 56999 58005 70000 82710 83616 88458=
41888,2023,11,16,12,00,AAXX 16124 41888 11440 82701 10242 20230 30151 40161 60024 70562 8352/ 333 10271 56999 58023 70023 83616 88458=
41888,2023,11,16,18,00,AAXX 16184 41888 11330 83601 10227 20227 30167 40177 60043 76062 8372/ 333 56999 58021 70059 82708 83616 88458=
41891,2023,11,10,00,00,AAXX 10004 41891 01940 01003 10205 20190 30106 40145 70500 333 58008 70000==
41891,2023,11,10,03,00,AAXX 10034 41891 01945 00902 10260 20190 30129 40168 70500 333 20205 58014 70000==
41891,2023,11,10,06,00,AAXX 10064 41891 01550 11302 10290 20200 30107 40145 70500 81100 333 58008 70000 81825==
41891,2023,11,10,09,00,AAXX 10094 41891 01950 01302 10300 20170 30084 40122 70500 333 58006 70000==
41891,2023,11,10,12,00,AAXX 10124 41891 01935 03102 10260 20220 30089 40128 70500 333 10310 58004 70000==
41891,2023,11,10,15,00,AAXX 10154 41891 01930 00000 10230 20210 30107 40146 70500 333 58005 70000==
41891,2023,11,10,18,00,AAXX 10184 41891 01930 00000 10215 20200 30109 40148 70500 333 58009 70000==
41891,2023,11,10,21,00,AAXX 10214 41891 01930 00902 10210 20190 30110 40149 70500 333 58008 70000==
41891,2023,11,11,00,00,AAXX 11004 41891 01935 00902 10205 20200 30111 40150 70500 333 58005 70000==
41891,2023,11,11,03,00,AAXX 11034 41891 01940 00902 10260 20190 30133 40172 70500 333 20205 58004 70000==
41891,2023,11,11,06,00,AAXX 11064 41891 01550 11302 10294 20170 30109 40147 70522 81100 333 58002 70000 81825==
41891,2023,11,11,09,00,AAXX 11094 41891 01550 11402 10302 20180 30087 40125 70511 81100 333 58003 70000 81825==
41891,2023,11,11,12,00,AAXX 11124 41891 01930 01003 10260 20200 30091 40130 70500 333 10312 58002 70000==
41891,2023,11,11,15,00,AAXX 11154 41891 01930 03303 10237 20210 30110 40149 70500 333 58003 70000==
41891,2023,11,11,18,00,AAXX 11184 41891 01930 00903 10220 20190 30110 40149 70500 333 58001 70000==
41891,2023,11,11,21,00,AAXX 11214 41891 01930 00903 10215 20200 30112 40151 70500 333 58002 70000==
41891,2023,11,12,00,00,AAXX 12004 41891 01930 21003 10205 20190 30115 40154 70500 333 58004 70000==
41891,2023,11,12,03,00,AAXX 12034 41891 01440 10502 10260 20180 30136 40175 70511 81500 333 20205 58003 70000 81615==
41891,2023,11,12,06,00,AAXX 12064 41891 01550 10902 10300 20190 30112 40150 70511 81100 333 58003 70000 81825==
41891,2023,11,12,09,00,AAXX 12094 41891 01550 10802 10310 20180 30086 40124 70511 81100 333 59001 70000 81825==
41891,2023,11,12,12,00,AAXX 12124 41891 01940 03402 10262 20210 30096 40135 70510 333 10320 58005 70000==
41891,2023,11,12,15,00,AAXX 12154 41891 01940 03402 10230 20210 30114 40153 70500 333 58004 70000==
41891,2023,11,12,18,00,AAXX 12184 41891 01940 00303 10216 20200 30113 40152 70500 333 58003 70000==
41891,2023,11,12,21,00,AAXX 12214 41891 01940 00603 10210 20190 30113 40152 70500 333 58001 70000==
41891,2023,11,13,00,00,AAXX 13004 41891 01940 00903 10205 20190 30118 40157 70500 333 58003 70000==
41891,2023,11,13,03,00,AAXX 13034 41891 01950 00904 10262 20180 30134 40173 70500 333 20205 59002 70000==
41891,2023,11,13,06,00,AAXX 13064 41891 01550 10902 10303 20170 30112 40150 70500 81100 333 58000 70000==
41891,2023,11,13,09,00,AAXX 13094 41891 01950 00000 10315 20180 30085 40123 70500 333 59001 70000==
41891,2023,11,13,12,00,AAXX 13124 41891 01935 03102 10260 20200 30091 40130 70500 333 10321 59005 70000==
41891,2023,11,13,15,00,AAXX 13154 41891 01930 03102 10235 20210 30110 40149 70500 333 59004 70000==
41891,2023,11,13,18,00,AAXX 13184 41891 01930 00902 10225 20190 30114 40153 70500 333 58001 70000==
41891,2023,11,13,21,00,AAXX 13214 41891 01935 03002 10206 20170 30114 40153 70500 333 59004 70000==
41891,2023,11,14,00,00,AAXX 14004 41891 01935 03002 10206 20170 30114 40153 70500 333 59004 70000==
41891,2023,11,14,03,00,AAXX 14034 41891 01940 01302 10260 20170 30135 40174 70500 333 20205 58001 70000==
41891,2023,11,14,06,00,AAXX 14064 41891 01550 30902 10308 20180 30113 40151 70500 81130 333 58001 70000 81825 83365==
41891,2023,11,14,09,00,AAXX 14094 41891 01450 30502 10314 20170 30088 40126 70511 81530 333 58003 70000 81615 83365==
41891,2023,11,14,12,00,AAXX 14124 41891 01930 00903 10260 20210 30090 40128 70500 333 10324 59001 70000==
41891,2023,11,14,15,00,AAXX 14154 41891 01930 03303 10240 20210 30110 40148 70500 333 58000 70000==
41891,2023,11,14,18,00,AAXX 14184 41891 01930 03603 10223 20200 30112 40151 70500 333 59002 70000==
41891,2023,11,14,21,00,AAXX 14214 41891 01930 03603 10220 20190 30113 40152 70500 333 59002 70000==
41891,2023,11,15,00,00,AAXX 15004 41891 01930 00704 10217 20190 30113 40152 70500 333 59001 70000==
41891,2023,11,15,03,00,AAXX 15034 41891 01440 30902 10274 20190 30132 40171 70511 81510 333 20207 59003 70000 81615 83365==
41891,2023,11,15,06,00,AAXX 15064 41891 31450 31302 10310 20190 30113 40151 70511 81430 333 56990 58000 70000 81615 83365=
41891,2023,11,15,09,00,AAXX 15094 41891 01450 62703 10328 20210 30090 40128 70511 83530 333 58002 70000 83615 85365==
41891,2023,11,15,12,00,AAXX 15124 41891 01440 61902 10266 20220 30098 40137 70521 83530 333 10339 58008 70000 83615 85365==
41891,2023,11,15,15,00,AAXX 15154 41891 01440 63402 10254 20220 30118 40157 70522 83530 333 58006 70000 83615 85365==
41891,2023,11,15,18,00,AAXX 15184 41891 01440 60802 10245 20220 30115 40154 70522 83530 333 58003 70000 83615 85365==
41891,2023,11,15,21,00,AAXX 15214 41891 01440 60803 10238 20210 30113 40152 70522 83530 333 58000 70000 83615 85365==
41891,2023,11,16,00,00,AAXX 16004 41891 01440 60903 10230 20210 30116 40155 70522 83530 333 58003 70000 83615 85365==
41891,2023,11,16,03,00,AAXX 16034 41891 01440 70902 10280 20200 30133 40172 70522 84370 333 20230 58001 70000 84615 86460 81930==
41891,2023,11,16,06,00,AAXX 16064 41891 01440 71302 10290 20210 30123 40161 70522 84370 333 58010 70000 84615 86460 81930==
41891,2023,11,16,09,00,AAXX 16094 41891 01440 70906 10278 20200 30110 40148 70522 84370 333 58020 70000 84615 86460 81930==
41891,2023,11,16,12,00,AAXX 16124 41891 01435 81802 10262 20210 30125 40164 70522 8532/ 333 10292 58027 70000 81710 84615 88459 81930==
41891,2023,11,16,15,00,AAXX 16154 41891 01430 81202 10245 20230 30143 40182 70522 8532/ 333 58025 70000 81710 84615 88459 81930==
41891,2023,11,16,18,00,AAXX 16184 41891 31430 81402 10244 20210 30138 40177 70522 8532/ 333 56999 58023 70000 81710 84615 81930 88459=
41891,2023,11,16,21,00,AAXX 16214 41891 01430 81302 10236 20220 30136 40175 70522 8532/ 333 58023 70000 82710 84615 88459 81930==
41895,2023,11,10,00,00,AAXX 10004 41895 01950 00000 10180 20180 30131 40154 70500 333 58014 70000==
41895,2023,11,10,03,00,AAXX 10034 41895 01950 00501 10244 20190 30154 40177 70500 333 20178 58017 70000==
41895,2023,11,10,06,00,AAXX 10064 41895 02957 03102 10294 20170 30139 40161 333 58015 70000==
41895,2023,11,10,09,00,AAXX 10094 41895 02957 03601 10300 20150 30112 40134 333 58010 70000==
41895,2023,11,10,12,00,AAXX 10124 41895 01950 00000 10234 20210 30113 40136 70500 333 10306 58007 70000==
41895,2023,11,10,15,00,AAXX 10154 41895 01950 00000 10206 20200 30132 40155 70500 333 58007 70000==
41895,2023,11,10,18,00,AAXX 10184 41895 01950 00000 10198 20190 30134 40157 70500 333 58008 70000==
41895,2023,11,10,21,00,AAXX 10214 41895 01950 00000 10194 20190 30137 40160 70500 333 58007 70000==
41895,2023,11,11,00,00,AAXX 11004 41895 01950 00000 10190 20190 30136 40160 70500 333 58005 70000==
41895,2023,11,11,03,00,AAXX 11034 41895 01950 00000 10230 20210 30156 40179 70500 333 20188 58002 70000==
41895,2023,11,11,06,00,AAXX 11064 41895 01956 00502 10280 20190 30143 40166 70500 333 58004 70000==
41895,2023,11,11,09,00,AAXX 11094 41895 02957 03601 10300 20170 30112 40135 333 58000 70000==
41895,2023,11,11,12,00,AAXX 11124 41895 02950 00000 10254 20210 30115 40138 333 10302 58002 70000==
41895,2023,11,11,15,00,AAXX 11154 41895 01950 00000 10210 20190 30136 40159 70500 333 58004 70000==
41895,2023,11,11,18,00,AAXX 11184 41895 01950 00000 10200 20190 30137 40160 70500 333 58003 70000==
41895,2023,11,11,21,00,AAXX 11214 41895 01950 00000 10195 20190 30139 40162 70500 333 58002 70000==
41895,2023,11,12,00,00,AAXX 12004 41895 01950 00000 10185 20185 30135 40158 70500 333 59001 70000==
41895,2023,11,12,03,00,AAXX 12034 41895 01950 03102 10240 20200 30161 40183 70500 333 20180 58005 70000==
41895,2023,11,12,06,00,AAXX 12064 41895 02957 03602 10290 20180 30143 40166 333 58000 70000==
41895,2023,11,12,09,00,AAXX 12094 41895 02957 00902 10300 20170 30118 40141 333 58006 70000==
41895,2023,11,12,12,00,AAXX 12124 41895 02950 00000 10240 20220 30123 40146 333 10305 58008 70000==
41895,2023,11,12,15,00,AAXX 12154 41895 01950 00000 10210 20200 30142 40165 70500 333 58006 70000==
41895,2023,11,12,18,00,AAXX 12184 41895 01950 00000 10200 20190 30143 40166 70500 333 58006 70000==
41895,2023,11,12,21,00,AAXX 12214 41895 01950 00000 10190 20180 30138 40161 70500 333 59001 70000==
41895,2023,11,13,00,00,AAXX 13004 41895 01950 03101 10195 20190 30138 40161 70500 333 58003 70000==
41895,2023,11,13,03,00,AAXX 13034 41895 01950 03102 10250 20190 30161 40183 70500 333 20186 58000 70000==
41895,2023,11,13,06,00,AAXX 13064 41895 02957 03604 10290 20170 30144 40166 333 58001 70000==
41895,2023,11,13,09,00,AAXX 13094 41895 02956 03602 10300 20180 30114 40136 333 59004 70000==
41895,2023,11,13,12,00,AAXX 13124 41895 02950 00000 10250 20210 30115 40138 333 10305 59008 70000==
41895,2023,11,13,15,00,AAXX 13154 41895 02950 00000 10212 20200 30137 40160 333 59005 70000==
41895,2023,11,13,18,00,AAXX 13184 41895 01950 00000 10210 20200 30141 40164 70500 333 59002 70000==
41895,2023,11,13,21,00,AAXX 13214 41895 01950 00000 10197 20190 30139 40162 70500 333 59001 70000==
41895,2023,11,14,00,00,AAXX 14004 41895 01950 00000 10195 20190 30136 40160 70500 333 58002 70000==
41895,2023,11,14,03,00,AAXX 14034 41895 01940 33602 10244 20190 30158 40181 70510 80001 333 20185 59003 70000 83074==
41895,2023,11,14,06,00,AAXX 14064 41895 02956 23305 10298 20210 30136 40158 80001 333 59008 70000 82074==
41895,2023,11,14,09,00,AAXX 14094 41895 02957 30000 10314 20170 30107 40129 80001 333 59007 70000 83074==
41895,2023,11,14,12,00,AAXX 14124 41895 02950 30000 10250 20220 30111 40134 80001 333 10318 59004 70000 83074==
41895,2023,11,14,15,00,AAXX 14154 41895 02/50 20000 10217 20210 30136 40159 82030 333 59001 70000 82363==
41895,2023,11,14,18,00,AAXX 14184 41895 01950 03101 10205 20200 30136 40159 70500 333 59005 70000==
41895,2023,11,14,21,00,AAXX 14214 41895 01950 00000 10195 20195 30127 40150 70500 333 59012 70000==
41895,2023,11,15,00,00,AAXX 15004 41895 01950 20000 10185 20185 30132 40156 70510 80001 333 59004 70000 82074==
41895,2023,11,15,03,00,AAXX 15034 41895 01/50 33303 10240 20210 30152 40175 70511 82031 333 20184 58006 70000 82362==
41895,2023,11,15,06,00,AAXX 15064 41895 02557 30504 10292 20180 30139 40161 83200 333 58003 70000 83820==
41895,2023,11,15,09,00,AAXX 15094 41895 01456 53601 10294 20180 30114 40136 70521 83510 333 58007 70000 83616 85458==
41895,2023,11,15,12,00,AAXX 15124 41895 01450 40000 10240 20220 30120 40143 70522 83510 333 10304 58009 70000 83616 84482==
41895,2023,11,15,15,00,AAXX 15154 41895 01950 00000 10220 20210 30140 40163 70510 333 58004 70000==
41895,2023,11,15,18,00,AAXX 15184 41895 01950 00000 10215 20210 30144 40167 70500 333 58008 70000==
41895,2023,11,15,21,00,AAXX 15214 41895 01950 00000 10202 20190 30129 40152 70500 333 58002 70000==
41895,2023,11,16,00,00,AAXX 16004 41895 01950 20000 10205 20205 30131 40154 70510 80001 333 59001 70000 82074==
41895,2023,11,16,03,00,AAXX 16034 41895 01950 53303 10212 20200 30151 40174 70511 83510 333 20200 59001 70000 83616 84458==
41895,2023,11,16,06,00,AAXX 16064 41895 01450 80000 10274 20210 30147 40169 70522 8452/ 333 58008 70000 84615 88458==
41895,2023,11,16,09,00,AAXX 16094 41895 01456 81301 10280 20220 30126 40148 70522 8452/ 333 58012 70000 84615 88458==
41895,2023,11,16,12,00,AAXX 16124 41895 01450 80901 10250 20220 30130 40159 70522 8452/ 333 10283 58016 70000 84615 88458==
41895,2023,11,16,15,00,AAXX 16154 41895 01450 80000 10230 20230 30156 40179 76162 8452/ 333 58016 70032 84614 88458==
41895,2023,11,16,18,00,AAXX 16184 41895 21450 80000 10230 20220 30145 40168 70262 8452/ 333 58001 60038 70034 84615 88458==
41895,2023,11,16,21,00,AAXX 16214 41895 01450 80000 10230 20220 30134 40157 70522 8452/ 333 58005 70034 84615 88458==
41897,2023,11,10,00,00,AAXX 10004 41897 31930 00000 10197 20190 30133 40146 71040 333 58006 70000=
41897,2023,11,10,06,00,AAXX 10064 41897 31940 03602 10295 20180 30144 40157 70500 333 58011 70000=
41897,2023,11,10,12,00,AAXX 10124 41897 31940 00000 10238 20220 30118 40132 70500 333 10305 58008 70000=
41897,2023,11,10,18,00,AAXX 10184 41897 31940 03601 10205 20200 30140 40153 71000 333 58008 70000=
41897,2023,11,11,00,00,AAXX 11004 41897 31930 03601 10188 20180 30138 40151 71040 333 58005 70000=
41897,2023,11,11,06,00,AAXX 11064 41897 31940 03602 10300 20190 30147 40160 70500 333 58003 70000=
41897,2023,11,11,12,00,AAXX 11124 41897 31950 00000 10242 20210 30121 40135 70500 333 10307 59003 70000=
41897,2023,11,11,18,00,AAXX 11184 41897 31950 00000 10210 20200 30140 40153 70500 333 58000 70000=
41897,2023,11,12,00,00,AAXX 12004 41897 31950 03601 10194 20190 30139 40152 70500 333 58001 70000=
41897,2023,11,12,06,00,AAXX 12064 41897 31950 03602 10300 20180 30146 40159 70500 333 59001 70000=
41897,2023,11,12,12,00,AAXX 12124 41897 31940 03601 10245 20220 30126 40140 70500 333 10310 58005 70000=
41897,2023,11,12,18,00,AAXX 12184 41897 31940 03602 10205 20200 30149 40163 70500 333 58009 70000=
41897,2023,11,13,00,00,AAXX 13004 41897 31940 03602 10195 20190 30145 40159 70500 333 58006 70000=
41897,2023,11,13,06,00,AAXX 13064 41897 31950 03602 10300 20190 30140 40153 70500 333 59006 70000=
41897,2023,11,13,12,00,AAXX 13124 41897 31940 00502 10242 20220 30121 40134 70500 333 10315 59005 70000=
41897,2023,11,13,18,00,AAXX 13184 41897 31940 03601 10210 20200 30142 40156 70500 333 59007 70000=
41897,2023,11,14,00,00,AAXX 14004 41897 31940 03601 10195 20190 30146 40155 70500 333 58001 70000=
41897,2023,11,14,06,00,AAXX 14064 41897 31950 03602 10310 20160 30136 40148 70500 333 59004 70000=
41897,2023,11,14,12,00,AAXX 14124 41897 31950 00000 10252 20210 30117 40130 70500 333 10320 59004 70000=
41897,2023,11,15,00,00,AAXX 15004 41897 31940 00000 10195 20195 30142 40155 70500 333 59004 70000=
41897,2023,11,15,06,00,AAXX 15064 41897 31950 03602 10305 20160 30134 40147 70500 333 59002 70000=
41897,2023,11,15,12,00,AAXX 15124 41897 31950 00000 10240 20210 30130 40144 70500 333 10315 58013 70000=
41897,2023,11,15,18,00,AAXX 15184 41897 31950 00000 10216 20210 30153 40166 70500 333 58005 70000=
41897,2023,11,16,00,00,AAXX 16004 41897 31950 50000 10211 20180 30142 40155 70520 82530 333 56990 58000 70000 82618 85361=
41897,2023,11,16,06,00,AAXX 16064 41897 31950 50000 10240 20200 30169 40183 70522 82530 333 56990 58035 70000 82618 85361=
41897,2023,11,16,12,00,AAXX 16124 41897 11450 60000 10233 20220 30143 40157 60018 70562 83510 333 56990 58013 70006 83618 86458=
41897,2023,11,16,18,00,AAXX 16184 41897 31450 60000 10230 20220 30160 40174 70522 83530 333 56990 58007 70006 83618 86361=
41902,2023,11,10,00,00,AAXX 10004 41902 31915 02701 10205 20205 30128 40137 71044 333 58019 70000=
41902,2023,11,10,06,00,AAXX 10064 41902 31450 23101 10287 20220 30136 40145 70340 82500 333 56900 58013 70000 82616=
41902,2023,11,10,12,00,AAXX 10124 41902 31940 03601 10245 20230 30113 40122 70500 333 10300 58004 70000=
41902,2023,11,10,18,00,AAXX 10184 41902 31930 03601 10210 20200 30127 40136 70544 333 58014 70000=
41902,2023,11,11,00,00,AAXX 11004 41902 31915 00000 10200 20200 30131 40140 71044 333 58003 70000=
41902,2023,11,11,06,00,AAXX 11064 41902 31450 13601 10297 20210 30135 40144 70340 81500 333 56900 59001 70000 81616=
41902,2023,11,11,12,00,AAXX 11124 41902 31940 03601 10238 20210 30115 40124 70544 333 10305 58002 70000=
41902,2023,11,11,18,00,AAXX 11184 41902 31930 02701 10220 20210 30133 40142 70544 58006 70000=
41902,2023,11,12,00,00,AAXX 12004 41902 31408 10000 10202 20200 30132 40141 74244 81500 333 56900 58001 70000 81616=
41902,2023,11,12,06,00,AAXX 12064 41902 31450 23101 10295 20220 30140 40149 70344 82500 333 56900 58005 70000 82616=
41902,2023,11,12,12,00,AAXX 12124 41902 31940 03101 10240 20200 30121 40130 70500 333 10304 58006 70000=
41902,2023,11,13,00,00,AAXX 13004 41902 31415 12701 10206 20206 30134 40143 71044 81500 333 56900 58002 70000 8166=
41902,2023,11,13,06,00,AAXX 13064 41902 31950 03601 10300 20190 30138 40147 70544 333 58003 70000=
41902,2023,11,13,18,00,AAXX 13184 41902 31930 03601 10215 20210 30139 40148 70544 333 58006 70000=
41902,2023,11,14,00,00,AAXX 14004 41902 31930 03201 10205 20210 30141 40150 70544 333 58007 70000=
41902,2023,11,14,06,00,AAXX 14064 41902 31450 23601 10300 20180 30140 40149 70544 82500 333 56900 58002 70000 82616=
41902,2023,11,14,12,00,AAXX 14124 41902 31440 23301 10235 20210 30119 40128 70544 82500 333 10305 56900 59001 70000 82616=
41902,2023,11,14,18,00,AAXX 14184 41902 31430 23601 10231 20200 30136 40145 70544 333 56900 59003 70000 82616=
41902,2023,11,15,00,00,AAXX 15004 41902 31430 20000 10197 20195 30142 40151 71044 82500 56900 58001 70000 82616=
41902,2023,11,15,06,00,AAXX 15064 41902 31450 23601 10295 20220 30153 40162 70544 82500 333 56900 58013 70000 82616=
41902,2023,11,15,12,00,AAXX 15124 41902 31440 23601 10253 20220 30121 40130 70544 82500 333 10305 56900 58002 70000 82616=
41902,2023,11,15,18,00,AAXX 15184 41902 31430 23001 10240 20210 30138 40147 71044 82500 333 56900 58002 70000 82616=
41902,2023,11,16,00,00,AAXX 16004 41902 31430 33601 10230 20220 30140 40148 71044 83500 333 56900 59002 70000 83616=
41902,2023,11,16,06,00,AAXX 16064 41902 31450 83601 10278 20240 30149 40158 70544 8442/ 333 20240 56999 59004 70000 83616 88458=
41902,2023,11,16,12,00,AAXX 16124 41902 31840 81602 10254 20210 30149 40158 71744 8532/ 333 10285 56999 58028 70000 83616 81925 88458=
41902,2023,11,16,18,00,AAXX 16184 41902 11830 80501 10237 20230 30153 40162 60016 70562 8532/ 333 56999 58015 70007 83614 81925 88458=
41907,2023,11,10,00,00,AAXX 10004 41907 01940 00000 10186 20186 30129 40145 70500 333 58009 70000==
41907,2023,11,10,03,00,AAXX 10034 41907 01940 03602 10220 20210 30156 40171 70500 333 20185 58017 70000==
41907,2023,11,10,06,00,AAXX 10064 41907 01950 03102 10295 20170 30139 40154 70500 333 58014 70000==
41907,2023,11,10,09,00,AAXX 10094 41907 01950 03602 10303 20160 30113 40128 70500 333 58009 70000==
41907,2023,11,10,12,00,AAXX 10124 41907 01940 00000 10240 20210 30115 40130 70500 333 10310 58007 70000==
41907,2023,11,10,15,00,AAXX 10154 41907 01940 00000 10200 20180 30135 40151 70500 333 58007 70000==
41907,2023,11,10,18,00,AAXX 10184 41907 01940 00000 10192 20180 30136 40152 70500 333 58006 70000==
41907,2023,11,10,21,00,AAXX 10214 41907 01940 00000 10185 20180 30139 40154 70500 333 58017 70000==
41907,2023,11,11,00,00,AAXX 11004 41907 01940 00000 10180 20170 30135 40150 70500 333 58006 70000==
41907,2023,11,11,03,00,AAXX 11034 41907 01940 03102 10235 20220 30158 40173 70500 333 20178 58002 70000==
41907,2023,11,11,06,00,AAXX 11064 41907 01950 03602 10292 20170 30140 40155 70500 333 58001 70000==
41907,2023,11,11,09,00,AAXX 11094 41907 01950 03602 10300 20160 30114 40128 70500 333 58001 70000==
41907,2023,11,11,12,00,AAXX 11124 41907 01940 00000 10235 20210 30120 40135 70500 333 10303 58005 70000==
41907,2023,11,11,15,00,AAXX 11154 41907 01940 00000 10205 20200 30140 40155 70500 333 58005 70000==
41907,2023,11,11,18,00,AAXX 11184 41907 01940 00000 10200 20190 30136 40151 70500 333 58000 70000==
41907,2023,11,11,21,00,AAXX 11214 41907 01940 00000 10185 20180 30130 40145 70500 333 59009 70000==
41907,2023,11,12,00,00,AAXX 12004 41907 01940 00000 10184 20170 30137 40152 70500 333 58002 70000==
41907,2023,11,12,03,00,AAXX 12034 41907 01945 03602 10235 20210 30162 40177 70500 333 20170 58004 70000==
41907,2023,11,12,06,00,AAXX 12064 41907 01950 00502 10296 20190 30144 40159 70500 333 58004 70000==
41907,2023,11,12,09,00,AAXX 12094 41907 01950 03102 10305 20170 30118 40133 70500 333 58004 70000==
41907,2023,11,12,12,00,AAXX 12124 41907 01940 00000 10245 20210 30125 40140 70500 333 10308 58005 70000==
41907,2023,11,12,15,00,AAXX 12154 41907 01940 00000 10215 20200 30143 40158 70500 333 58018 70000==
41907,2023,11,12,18,00,AAXX 12184 41907 01940 00000 10204 20190 30144 40159 70500 333 58008 70000==
41907,2023,11,12,21,00,AAXX 12214 41907 01940 00000 10192 20180 30139 40154 70500 333 58009 70000==
41907,2023,11,13,00,00,AAXX 13004 41907 01940 00000 10182 20170 30138 40153 70500 333 58001 70000==
41907,2023,11,13,03,00,AAXX 13034 41907 01945 03601 10230 20210 30161 40176 70500 333 20173 59001 70000==
41907,2023,11,13,06,00,AAXX 13064 41907 01950 03602 10295 20180 30143 40158 70500 333 59001 70000==
41907,2023,11,13,09,00,AAXX 13094 41907 01950 03102 10305 20170 30114 40129 70500 333 59004 70000==
41907,2023,11,13,12,00,AAXX 13124 41907 01940 00000 10245 20210 30117 40132 70500 333 10310 59008 70000==
41907,2023,11,13,15,00,AAXX 13154 41907 01940 00000 10212 20200 30137 40152 70500 333 59006 70000==
41907,2023,11,13,18,00,AAXX 13184 41907 01940 00000 10202 20190 30140 40155 70500 333 59004 70000==
41907,2023,11,13,21,00,AAXX 13214 41907 01940 03102 10185 20180 30138 40153 70500 333 58000 70000==
41907,2023,11,14,00,00,AAXX 14004 41907 01940 03102 10185 20180 30138 40153 70500 333 58000 70000==
41907,2023,11,14,03,00,AAXX 14034 41907 01940 03602 10250 20200 30159 40174 70500 333 20180 58021 70000==
41907,2023,11,14,06,00,AAXX 14064 41907 01950 03602 10300 20190 30138 40153 70500 333 59005 70000==
41907,2023,11,14,09,00,AAXX 14094 41907 01950 03602 10313 20160 30109 40124 70500 333 59005 70000==
41907,2023,11,14,12,00,AAXX 14124 41907 01940 00000 10250 20210 30114 40129 70500 333 10317 59003 70000==
41907,2023,11,14,15,00,AAXX 14154 41907 01940 00000 10208 20200 30138 40153 70500 333 58001 70000==
41907,2023,11,14,18,00,AAXX 14184 41907 01940 00000 10200 20190 30138 40153 70500 333 59002 70000==
41907,2023,11,14,21,00,AAXX 14214 41907 01940 00000 10192 20190 30132 40147 70500 333 59008 70000==
41907,2023,11,15,00,00,AAXX 15004 41907 01/40 60000 10188 20180 30134 40149 70500 86030 333 59004 70000 86362==
41907,2023,11,15,03,00,AAXX 15034 41907 01/45 33602 10225 20210 30154 40169 70522 83030 333 20185 59005 70000 83362==
41907,2023,11,15,06,00,AAXX 15064 41907 31450 52702 10295 20190 30140 40155 70520 81501 333 56909 58002 70000 81616 84080=
41907,2023,11,15,09,00,AAXX 15094 41907 01/50 63602 10300 20190 30115 40129 70522 86030 333 59006 70000 86362==
41907,2023,11,15,12,00,AAXX 15124 41907 01440 60000 10245 20220 30124 40139 70522 83531 333 10310 58010 70000 83615 85362==
41907,2023,11,15,15,00,AAXX 15154 41907 01940 00000 10220 20200 30143 40158 70522 333 58005 70000==
41907,2023,11,15,18,00,AAXX 15184 41907 01940 00000 10205 20200 30143 40158 70520 333 58005 70000==
41907,2023,11,15,21,00,AAXX 15214 41907 01940 00000 10195 20190 30138 40153 70500 333 58006 70000==
41907,2023,11,16,00,00,AAXX 16004 41907 01340 70000 10194 20180 30134 40149 70500 86610 333 58000 70000 81709 85615 87458==
41907,2023,11,16,03,00,AAXX 16034 41907 01440 80000 10226 20210 30162 40177 70522 8552/ 333 20188 58008 70000 85615 88458==
41907,2023,11,16,06,00,AAXX 16064 41907 01340 80502 10238 20220 30151 40166 72122 8662/ 333 58011 70005 82709 85615 88458==
41907,2023,11,16,09,00,AAXX 16094 41907 01440 80000 10250 20230 30129 40144 72122 8552/ 333 58014 70009 85615 88458==
41907,2023,11,16,12,00,AAXX 16124 41907 21340 81802 10240 20220 30140 40155 70562 8662/ 333 10255 58016 69945 70009 82709 85615 88458==
41907,2023,11,16,15,00,AAXX 16154 41907 01340 80000 10230 20210 30158 40173 70522 8662/ 333 58015 70009 82709 85615 88458==
41907,2023,11,16,18,00,AAXX 16184 41907 31340 80000 10220 20210 30161 40176 70522 8662/ 333 56499 58018 70009 82709 85615 88458=
41907,2023,11,16,21,00,AAXX 16214 41907 01340 80000 10210 20200 30152 40167 70522 8662/ 333 58014 70009 82709 85615 88458==
41909,2023,11,10,00,00,AAXX 10004 41909 01945 00000 10194 20180 30130 40142 70500 333 58012 70000==
41909,2023,11,10,03,00,AAXX 10034 41909 01950 00000 10240 20200 30154 40166 70500 333 20185 58015 70000==
41909,2023,11,10,06,00,AAXX 10064 41909 02956 02701 10304 20170 30141 40152 333 58015 70000==
41909,2023,11,10,09,00,AAXX 10094 41909 02956 00000 10305 20160 30115 40126 333 58010 70000==
41909,2023,11,10,12,00,AAXX 10124 41909 02950 00000 10251 20200 30117 40129 333 10315 58008 70000==
41909,2023,11,10,15,00,AAXX 10154 41909 01940 00000 10220 20190 30136 40148 70500 333 58007 70000==
41909,2023,11,10,18,00,AAXX 10184 41909 01940 00000 10216 20200 30136 40148 70500 333 58006 70000==
41909,2023,11,10,21,00,AAXX 10214 41909 01935 00000 10205 20200 30131 40143 70500 333 58001 70000==
41909,2023,11,11,00,00,AAXX 11004 41909 01945 00000 10198 20190 30133 40145 70500 333 58003 70000==
41909,2023,11,11,03,00,AAXX 11034 41909 01950 00000 10245 20210 30156 40168 70500 333 20189 58002 70000==
41909,2023,11,11,06,00,AAXX 11064 41909 02956 00000 10293 20190 30138 40149 333 59003 70000==
41909,2023,11,11,09,00,AAXX 11094 41909 02956 00000 10310 20170 30115 40126 333 58000 70000==
41909,2023,11,11,12,00,AAXX 11124 41909 02940 00000 10254 20200 30116 40128 333 10315 59001 70000==
41909,2023,11,11,15,00,AAXX 11154 41909 02940 00000 10228 20180 30139 40151 333 58003 70000==
41909,2023,11,11,18,00,AAXX 11184 41909 02940 00000 10218 20210 30140 40152 333 58004 70000==
41909,2023,11,11,21,00,AAXX 11214 41909 01940 00000 10205 20200 30136 40148 70500 333 58005 70000==
41909,2023,11,12,00,00,AAXX 12004 41909 01935 00000 10200 20190 30136 40148 70500 333 58003 70000==
41909,2023,11,12,03,00,AAXX 12034 41909 01950 00000 10252 20200 30162 40174 70500 333 20192 58006 70000==
41909,2023,11,12,06,00,AAXX 12064 41909 02956 03402 10297 20190 30146 40157 333 58008 70000==
41909,2023,11,12,09,00,AAXX 12094 41909 02956 03401 10314 20160 30118 40129 333 58003 70000==
41909,2023,11,12,12,00,AAXX 12124 41909 02940 00000 10248 20200 30125 40137 333 10320 58009 70000==
41909,2023,11,12,15,00,AAXX 12154 41909 01940 00000 10227 20200 30141 40153 70500 333 58002 70000==
41909,2023,11,12,18,00,AAXX 12184 41909 01940 00000 10214 20190 30141 40153 70500 333 58001 70000==
41909,2023,11,12,21,00,AAXX 12214 41909 01940 00000 10208 20200 30139 40151 70500 333 58003 70000==
41909,2023,11,13,00,00,AAXX 13004 41909 01945 00000 10202 20190 30138 40150 70500 333 58002 70000==
41909,2023,11,13,03,00,AAXX 13034 41909 01950 00000 10252 20200 30161 40173 70500 333 20196 59001 70000==
41909,2023,11,13,06,00,AAXX 13064 41909 02956 00000 10304 20190 30142 40153 333 59004 70000==
41909,2023,11,13,09,00,AAXX 13094 41909 02956 00000 10320 20180 30114 40125 333 59004 70000==
41909,2023,11,13,12,00,AAXX 13124 41909 02950 00000 10255 20210 30116 40128 333 10325 59009 70000==
41909,2023,11,13,15,00,AAXX 13154 41909 02940 00000 10230 20210 30137 40149 333 59004 70000==
41909,2023,11,13,18,00,AAXX 13184 41909 01940 00000 10226 20210 30139 40151 70500 333 59002 70000==
41909,2023,11,13,21,00,AAXX 13214 41909 01935 00000 10214 20200 30138 40150 70500 333 59001 70000==
41909,2023,11,14,00,00,AAXX 14004 41909 01945 00000 10207 20200 30138 40150 70500 333 58000 70000==
41909,2023,11,14,03,00,AAXX 14034 41909 01950 00000 10249 20210 30158 40170 70500 333 20195 59003 70000==
41909,2023,11,14,06,00,AAXX 14064 41909 02956 00000 10297 20180 30144 40155 333 58002 70000==
41909,2023,11,14,09,00,AAXX 14094 41909 02956 30000 10310 20170 30111 40122 80001 333 59003 70000 83080==
41909,2023,11,14,12,00,AAXX 14124 41909 02940 20000 10247 20180 30113 40125 80001 333 10322 59003 70000 82080==
41909,2023,11,14,15,00,AAXX 14154 41909 02940 00000 10218 20200 30138 40150 333 58001 70000==
41909,2023,11,14,18,00,AAXX 14184 41909 02940 00000 10216 20200 30142 40154 333 58003 70000==
41909,2023,11,14,21,00,AAXX 14214 41909 01940 00000 10194 20180 30136 40148 70500 333 59002 70000==
41909,2023,11,15,00,00,AAXX 15004 41909 01940 20000 10188 20180 30135 40147 70500 80001 333 59003 70000 82080==
41909,2023,11,15,03,00,AAXX 15034 41909 01450 40000 10230 20200 30154 40166 70510 81530 333 20187 59004 70000 81618 84362==
41909,2023,11,15,06,00,AAXX 15064 41909 02456 10000 10307 20170 30145 40156 80009 333 58001 70000 81175==
41909,2023,11,15,09,00,AAXX 15094 41909 02/56 32701 10312 20140 30117 40128 83030 333 58006 70000 83360==
41909,2023,11,15,12,00,AAXX 15124 41909 02/40 40000 10252 20200 30127 40139 84030 333 10320 58014 70000 84360==
41909,2023,11,15,15,00,AAXX 15154 41909 02940 00000 10234 20210 30145 40157 333 58007 70000==
41909,2023,11,15,18,00,AAXX 15184 41909 02940 00000 10219 20210 30242 40154 333 58000 70000==
41909,2023,11,15,21,00,AAXX 15214 41909 02940 00000 10214 20200 30136 40148 333 58000 70000==
41909,2023,11,16,00,00,AAXX 16004 41909 02/40 30000 10212 20200 30139 40151 83030 333 58004 70000 83360==
41909,2023,11,16,03,00,AAXX 16034 41909 02450 80000 10233 20190 30161 40173 8352/ 333 20190 58007 70000 83615 88458==
41909,2023,11,16,06,00,AAXX 16064 41909 21350 80000 10231 20230 30156 40168 76162 8472/ 333 58011 60017 70010 84712 88458==
41909,2023,11,16,09,00,AAXX 16094 41909 01350 80000 10248 20230 30134 40146 70262 8472/ 333 58017 70020 84710 88458==
41909,2023,11,16,12,00,AAXX 16124 41909 21340 80000 10245 20240 30140 40152 70262 8472/ 333 10252 58013 60017 70020 84710 88458==
41909,2023,11,16,15,00,AAXX 16154 41909 02340 80000 10238 20230 30161 40172 8472/ 333 58016 70020 84710 88458==
41909,2023,11,16,18,00,AAXX 16184 41909 02340 80000 10232 20220 30163 40175 8472/ 333 58021 70000 84710 88458==
41909,2023,11,16,21,00,AAXX 16214 41909 02940 00000 10229 20220 30146 40158 8472/ 333 58010 70020 84710 88458==
41915,2023,11,10,00,00,AAXX 10004 41915 01940 00000 10181 20170 30117 40143 70500 333 58006 70000==
41915,2023,11,10,03,00,AAXX 10034 41915 02956 00000 10250 20210 30138 40163 333 20176 58006 70000==
41915,2023,11,10,06,00,AAXX 10064 41915 02456 23102 10296 20190 30120 40145 81500 333 59001 70000 81616==
41915,2023,11,10,09,00,AAXX 10094 41915 02956 03003 10301 20180 30101 40126 333 58007 70000==
41915,2023,11,10,12,00,AAXX 10124 41915 02956 00000 10243 20210 30102 40128 333 10312 58003 70000==
41915,2023,11,10,15,00,AAXX 10154 41915 02950 00000 10204 20190 30124 40150 333 58007 70000==
41915,2023,11,10,18,00,AAXX 10184 41915 02950 00000 10190 20180 30126 40152 333 58007 70000==
41915,2023,11,10,21,00,AAXX 10214 41915 01940 00000 10183 20170 30120 40146 70500 333 58010 70000==
41915,2023,11,11,00,00,AAXX 11004 41915 01940 00000 10179 20170 30129 40155 70500 333 58012 70000==
41915,2023,11,11,03,00,AAXX 11034 41915 02956 00000 10250 20220 30142 40167 333 20174 58004 70000==
41915,2023,11,11,06,00,AAXX 11064 41915 02456 23101 10297 20210 30122 40147 81530 333 58002 70000 81616==
41915,2023,11,11,09,00,AAXX 11094 41915 02/56 13101 10310 20200 30099 40124 81030 333 59002 70000 81362==
41915,2023,11,11,12,00,AAXX 11124 41915 02950 00000 10248 20220 30104 40129 333 10320 58002 70000==
41915,2023,11,11,15,00,AAXX 11154 41915 02950 00000 10213 20200 30126 40152 333 58002 70000==
41915,2023,11,11,18,00,AAXX 11184 41915 01940 00000 10200 20190 30124 40150 70500 333 59002 70000==
41915,2023,11,11,21,00,AAXX 11214 41915 01940 00000 10192 20190 30123 40149 70500 333 58003 70000==
41915,2023,11,12,00,00,AAXX 12004 41915 01540 20000 10181 20180 30129 40155 70510 82100 333 58000 70000 82822==
41915,2023,11,12,03,00,AAXX 12034 41915 02456 20000 10248 20220 30144 40169 82400 333 20179 58002 70000 81616==
41915,2023,11,12,06,00,AAXX 12064 41915 02456 23101 10296 20210 30144 40169 82400 333 58001 70000 81616==
41915,2023,11,12,09,00,AAXX 12094 41915 02556 10000 10310 20180 30101 40126 81100 333 58002 70000 81822==
41915,2023,11,12,12,00,AAXX 12124 41915 02950 00000 10242 20210 30109 40134 333 10326 58005 70000==
41915,2023,11,12,15,00,AAXX 12154 41915 02950 00000 10210 20200 30130 40156 333 58004 70000==
41915,2023,11,12,18,00,AAXX 12184 41915 01940 00000 10196 20190 30133 40159 70500 333 58009 70000==
41915,2023,11,12,21,00,AAXX 12214 41915 01940 00000 10185 20185 30130 40156 70500 333 58007 70000==
41915,2023,11,13,00,00,AAXX 13004 41915 01903 00000 10180 20180 30132 40158 74140 333 58003 70000==
41915,2023,11,13,03,00,AAXX 13034 41915 01956 00502 10280 20210 30144 40171 70240 333 20175 58002 70000==
41915,2023,11,13,06,00,AAXX 13064 41915 01956 00502 10308 20200 30129 40154 70240 333 58006 70000==
41915,2023,11,13,09,00,AAXX 13094 41915 02556 10502 10318 20190 30099 40124 81100 333 59002 70000 81822==
41915,2023,11,13,12,00,AAXX 13124 41915 02950 00000 10246 20230 30105 40130 333 10325 59004 70000==
41915,2023,11,13,15,00,AAXX 13154 41915 02950 00000 10210 20200 30124 40150 333 59006 70000==
41915,2023,11,13,18,00,AAXX 13184 41915 02950 00000 10195 20190 30135 40159 333 58008 70000==
41915,2023,11,13,21,00,AAXX 13214 41915 01940 00000 10184 20180 30135 40159 70500 333 58007 70000==
41915,2023,11,14,00,00,AAXX 14004 41915 01540 20000 10180 20170 30128 40154 70500 333 70000==
41915,2023,11,14,03,00,AAXX 14034 41915 02956 00000 10267 20220 30145 40170 333 20175 58001 70000==
41915,2023,11,14,06,00,AAXX 14064 41915 02456 33002 10315 20210 30118 40143 82440 333 59011 70000 81616 83362==
41915,2023,11,14,09,00,AAXX 14094 41915 02/56 32801 10315 20190 30097 40122 83041 333 59002 70000 83362==
41915,2023,11,14,12,00,AAXX 14124 41915 02956 00000 10257 20230 30103 40128 333 10328 59002 70000==
41915,2023,11,14,15,00,AAXX 14154 41915 02950 00000 10223 20210 30125 40151 333 58001 70000==
41915,2023,11,14,18,00,AAXX 14184 41915 02950 00000 10214 20200 30129 40155 333 58005 70000==
41915,2023,11,14,21,00,AAXX 14214 41915 02950 00000 10205 20200 30122 40148 333 59002 70000==
41915,2023,11,15,00,00,AAXX 15004 41915 02450 50000 10200 20200 30129 40156 82552 333 59003 70000 82616 84362==
41915,2023,11,15,03,00,AAXX 15034 41915 02/56 30601 10280 20210 30144 40169 83051 333 20198 59001 70000 83362==
41915,2023,11,15,06,00,AAXX 15064 41915 02/56 40000 10310 20210 30129 40154 84051 333 70000 84362==
41915,2023,11,15,09,00,AAXX 15094 41915 02/56 30000 10316 20220 30104 40129 83041 333 58007 70000 83362==
41915,2023,11,15,12,00,AAXX 15124 41915 02450 30000 10265 20250 30112 40137 82540 333 10333 58009 70000 82616 83362==
41915,2023,11,15,15,00,AAXX 15154 41915 02440 30000 10235 20220 30131 40157 82540 333 58006 70000 82616 83362==
41915,2023,11,15,18,00,AAXX 15184 41915 05450 40000 10227 20210 30134 40159 83530 333 58005 70000 83616 83362==
41915,2023,11,15,21,00,AAXX 15214 41915 02450 30000 10218 20210 30128 40154 83400 333 58006 70000 83616==
41915,2023,11,16,00,00,AAXX 16004 41915 02450 30000 10212 20200 30134 40159 82500 333 58005 70000 82616==
41915,2023,11,16,03,00,AAXX 16034 41915 02456 30000 10291 20220 30147 40172 85230 333 20208 58003 70000 82616 83362==
41915,2023,11,16,06,00,AAXX 16064 41915 02456 50602 10301 20210 30132 40157 83540 333 58003 70000 85616 84562==
41915,2023,11,16,07,00,AAXX 16074 41915 02456 50602 10301 20210 30132 40157 83540 333 58003 70000 85616 84562==
41915,2023,11,16,09,00,AAXX 16094 41915 02450 82206 10270 20240 30116 40141 8532/ 333 58011 70000 81710 84616 88460 81930==
41915,2023,11,16,12,00,AAXX 16124 41915 11430 82004 10222 20210 30106 40131 60031 76162 8532/ 333 10286 59006 70030 81710 84615 88460 81930==
41915,2023,11,16,15,00,AAXX 16154 41915 01430 80000 10218 20210 30106 40132 70522 8532/ 333 59025 70030 81710 84615 88460 81930==
41915,2023,11,16,18,00,AAXX 16184 41915 NIL=
41915,2023,11,16,21,00,AAXX 16214 41915 01430 80000 10210 20200 30100 40126 70522 8532/ 333 59028 70030 81710 84615 88460 81930==
41923,2023,11,10,00,00,AAXX 10004 41923 01940 00000 10211 20190 30138 40148 70500 333 58014 70000==
41923,2023,11,10,03,00,AAXX 10034 41923 01945 00602 10278 20170 30160 40169 70500 333 20210 58014 70000==
41923,2023,11,10,06,00,AAXX 10064 41923 02956 03402 10300 20130 30145 40155 333 58016 70000==
41923,2023,11,10,09,00,AAXX 10094 41923 02956 03302 10312 20150 30116 40126 333 58008 70000==
41923,2023,11,10,12,00,AAXX 10124 41923 01945 00000 10263 20170 30124 40133 70500 333 10316 58009 70000==
41923,2023,11,10,15,00,AAXX 10154 41923 01940 00000 10250 20180 30141 40150 70500 333 58007 70000==
41923,2023,11,10,18,00,AAXX 10184 41923 01940 00000 10245 20190 30141 40150 70500 333 58006 70000==
41923,2023,11,10,21,00,AAXX 10214 41923 01935 00000 10230 20190 30135 40145 70500 333 58004 70000==
41923,2023,11,11,00,00,AAXX 11004 41923 01930 00000 10212 20190 30140 40150 70500 333 58002 70000==
41923,2023,11,11,03,00,AAXX 11034 41923 01945 00000 10267 20190 30161 40170 70500 333 20207 58001 70000==
41923,2023,11,11,06,00,AAXX 11064 41923 02956 02002 10300 20170 30140 40150 333 59005 70000==
41923,2023,11,11,09,00,AAXX 11094 41923 02956 00000 10310 20160 30116 40126 333 58000 70000==
41923,2023,11,11,12,00,AAXX 11124 41923 01950 00000 10266 20190 30124 40134 70500 333 10315 58000 70000==
41923,2023,11,11,15,00,AAXX 11154 41923 01945 00000 10242 20190 30141 40151 70500 333 58000 70000==
41923,2023,11,11,18,00,AAXX 11184 41923 01940 00000 10234 20190 30142 40152 70500 333 58001 70000==
41923,2023,11,11,21,00,AAXX 11214 41923 01940 00000 10226 20200 30137 40147 70500 333 58002 70000==
41923,2023,11,12,00,00,AAXX 12004 41923 01935 00000 10211 20190 30141 40151 70500 333 58001 70000==
41923,2023,11,12,03,00,AAXX 12034 41923 01950 00000 10286 20200 30166 40176 70500 333 20208 58005 70000==
41923,2023,11,12,06,00,AAXX 12064 41923 02956 02702 10304 20170 30141 40151 333 58001 70000==
41923,2023,11,12,09,00,AAXX 12094 41923 02456 22702 10310 20160 30119 40129 82400 333 58003 70000 81616==
41923,2023,11,12,12,00,AAXX 12124 41923 02950 03602 10271 20180 30128 40137 333 10316 58004 70000==
41923,2023,11,12,15,00,AAXX 12154 41923 01945 00000 10246 20200 30148 40157 70500 333 58007 70000==
41923,2023,11,12,18,00,AAXX 12184 41923 01940 00000 10231 20200 30149 40159 70500 333 58007 70000==
41923,2023,11,12,21,00,AAXX 12214 41923 01940 00000 10221 20210 30139 40149 70500 333 58002 70000==
41923,2023,11,13,00,00,AAXX 13004 41923 01935 00000 10211 20200 30144 40154 70500 333 58003 70000==
41923,2023,11,13,03,00,AAXX 13034 41923 01940 00000 10271 20190 30163 40172 70500 333 20209 59003 70000==
41923,2023,11,13,06,00,AAXX 13064 41923 02956 00602 10305 20170 30145 40155 333 58004 70000==
41923,2023,11,13,09,00,AAXX 13094 41923 02/56 10000 10316 20170 30115 40125 81030 333 59004 70000 81362==
41923,2023,11,13,12,00,AAXX 13124 41923 01950 00000 10276 20200 30125 40135 70500 333 10319 59003 70000==
41923,2023,11,13,15,00,AAXX 13154 41923 01945 00000 10244 20170 30139 40149 70500 333 59009 70000==
41923,2023,11,13,18,00,AAXX 13184 41923 01945 00000 10230 20200 30145 40155 70500 333 59004 70000==
41923,2023,11,13,21,00,AAXX 13214 41923 01940 00000 10210 20200 30142 40152 70500 333 59002 70000==
41923,2023,11,14,00,00,AAXX 14004 41923 01940 00000 10210 20200 30142 40152 70500 333 59002 70000==
41923,2023,11,14,03,00,AAXX 14034 41923 01/40 20000 10284 20180 30164 40173 70500 82030 333 20206 58001 70000 82362==
41923,2023,11,14,06,00,AAXX 14064 41923 02956 11802 10311 20140 30142 40152 80001 333 59003 70000 81080==
41923,2023,11,14,09,00,AAXX 14094 41923 333 59003 70000 82362==
41923,2023,11,14,12,00,AAXX 14124 41923 01/45 30000 10266 20180 30125 40134 70500 82031 333 10326 58000 70000 82362==
41923,2023,11,14,15,00,AAXX 14154 41923 01/45 20000 10240 20180 30143 40153 70500 82030 333 58004 70000 82362==
41923,2023,11,14,18,00,AAXX 14184 41923 01940 00202 10228 20180 30144 40154 70500 333 59001 70000==
41923,2023,11,14,21,00,AAXX 14214 41923 01935 00000 10221 20180 30138 40148 70500 333 59002 70000==
41923,2023,11,15,00,00,AAXX 15004 41923 01/30 20000 10212 20180 30143 40153 70500 82031 333 58001 70000 82362==
41923,2023,11,15,03,00,AAXX 15034 41923 01/45 30603 10291 20160 30159 40169 70500 82031 333 20210 59005 70000 82362==
41923,2023,11,15,06,00,AAXX 15064 41923 32456 30502 10318 20150 30142 40152 81531 333 56999 58000 70000 81616=
41923,2023,11,15,09,00,AAXX 15094 41923 02456 53402 10317 20120 30118 40128 82530 333 58006 70000 82616 85360==
41923,2023,11,15,12,00,AAXX 15124 41923 02445 50602 10277 20180 30129 40139 81530 333 10327 58004 70000 81616 83362==
41923,2023,11,15,15,00,AAXX 15154 41923 01440 40000 10254 20180 30147 40156 70511 81530 333 58004 70000 81616 84365==
41923,2023,11,15,18,00,AAXX 15184 41923 01440 50000 10253 20180 30148 40157 70521 82530 333 58004 70000 82616 84365==
41923,2023,11,15,21,00,AAXX 15214 41923 01340 70000 10252 20190 30137 40146 70522 84670 333 59001 70000 81709 83615 86458==
41923,2023,11,16,00,00,AAXX 16004 41923 01340 80000 10250 20190 30147 40156 70562 8532/ 333 58001 70000 82709 83615 88458 81930==
41923,2023,11,16,03,00,AAXX 16034 41923 01330 82702 10249 20200 30165 40174 70562 8532/ 333 20239 58006 70006 81710 84615 88460 81930==
41923,2023,11,16,06,00,AAXX 16064 41923 01340 80000 10262 20220 30156 40165 76062 8532/ 333 58014 70010 83709 84615 88458 81930==
41923,2023,11,16,09,00,AAXX 16094 41923 01340 82402 10268 20220 30140 40150 70562 8562/ 333 58022 70010 82709 84615 88458==
41923,2023,11,16,12,00,AAXX 16124 41923 11340 80000 10252 20220 30150 40160 60006 70562 8562/ 333 10274 58021 70010 82709 84615 88458==
41923,2023,11,16,15,00,AAXX 16154 41923 01340 80503 10250 20230 30166 40176 76162 8572/ 333 58019 70011 82709 84614 88458==
41923,2023,11,16,18,00,AAXX 16184 41923 11340 80504 10244 20220 30157 40167 69939 76166 8572/ 333 56999 58009 70013 82709 84614 88458=
41923,2023,11,16,21,00,AAXX 16214 41923 01340 80503 10238 20230 30140 40150 76166 8572/ 333 58003 70015 82708 84614 88458==
41926,2023,11,10,00,00,AAXX 10004 41926 01950 00000 10175 20170 30135 40149 70500 333 58011 70000==
41926,2023,11,10,03,00,AAXX 10034 41926 01950 00000 10230 20200 30159 40173 70500 333 20174 58018 70000==
41926,2023,11,10,06,00,AAXX 10064 41926 01950 00000 10300 20190 30141 40155 70500 333 58014 70000==
41926,2023,11,10,09,00,AAXX 10094 41926 01950 00000 10305 20160 30115 40128 70500 333 58009 70000==
41926,2023,11,10,12,00,AAXX 10124 41926 01950 00000 10240 20210 30117 40131 70500 333 10312 58007 70000==
41926,2023,11,10,15,00,AAXX 10154 41926 01950 00000 10205 20200 30139 40153 70500 333 58009 70000==
41926,2023,11,10,18,00,AAXX 10184 41926 01950 00000 10192 20180 30136 40150 70500 333 58005 70000==
41926,2023,11,10,21,00,AAXX 10214 41926 01950 00000 10185 20180 30137 40151 70500 333 58004 70000==
41926,2023,11,11,00,00,AAXX 11004 41926 01940 00000 10180 20170 30140 40154 70500 333 58005 70000==
41926,2023,11,11,03,00,AAXX 11034 41926 01950 00000 10222 20200 30160 40174 70500 333 20176 58001 70000==
41926,2023,11,11,06,00,AAXX 11064 41926 02956 03602 10282 20160 30142 40156 333 58001 70000==
41926,2023,11,11,09,00,AAXX 11094 41926 02950 00000 10295 20200 30112 40125 333 59003 70000==
41926,2023,11,11,12,00,AAXX 11124 41926 01940 00000 10242 20210 30122 40136 70500 333 10310 58005 70000==
41926,2023,11,11,15,00,AAXX 11154 41926 01940 00000 10212 20200 30140 40154 70500 333 58001 70000==
41926,2023,11,11,18,00,AAXX 11184 41926 01940 00000 10196 20190 30139 40153 70500 333 58003 70000==
41926,2023,11,11,21,00,AAXX 11214 41926 01940 00000 10186 20180 30138 40152 70500 333 58001 70000==
41926,2023,11,12,00,00,AAXX 12004 41926 01940 00000 10180 20170 30138 40152 70500 333 59002 70000==
41926,2023,11,12,03,00,AAXX 12034 41926 01950 03601 10230 20210 30164 40178 70500 333 20180 58004 70000==
41926,2023,11,12,06,00,AAXX 12064 41926 01950 03601 10297 20190 30146 40160 70500 333 58004 70000==
41926,2023,11,12,09,00,AAXX 12094 41926 02950 00000 10302 20170 30120 40133 333 58008 70000==
41926,2023,11,12,12,00,AAXX 12124 41926 01950 00000 10237 20200 30127 40141 70500 333 10310 58005 70000==
41926,2023,11,12,15,00,AAXX 12154 41926 01940 00000 10204 20180 30145 40159 70500 333 58005 70000==
41926,2023,11,12,18,00,AAXX 12184 41926 01940 00000 10190 20180 30146 40160 70500 333 58007 70000==
41926,2023,11,12,21,00,AAXX 12214 41926 01940 00000 10180 20170 30144 40158 70500 333 58006 70000==
41926,2023,11,13,00,00,AAXX 13004 41926 01940 00000 10174 20160 30143 40157 70500 333 58005 70000==
41926,2023,11,13,03,00,AAXX 13034 41926 01950 00000 10230 20200 30164 40178 70500 333 20172 58000 70000==
41926,2023,11,13,06,00,AAXX 13064 41926 02956 00000 10298 20180 30144 40158 333 59002 70000==
41926,2023,11,13,09,00,AAXX 13094 41926 02956 03602 10300 20170 30117 40130 333 59003 70000==
41926,2023,11,13,12,00,AAXX 13124 41926 01950 00000 10244 20210 30118 40132 70500 333 10312 59009 70000==
41926,2023,11,13,15,00,AAXX 13154 41926 01950 00000 10208 20200 30139 40153 70500 333 59006 70000==
41926,2023,11,13,18,00,AAXX 13184 41926 01950 00000 10197 20190 30141 40155 70500 333 59005 70000==
41926,2023,11,13,21,00,AAXX 13214 41926 01950 00000 10180 20170 30142 40156 70500 333 59002 70000==
41926,2023,11,14,00,00,AAXX 14004 41926 01940 00000 10178 20170 30144 40158 70500 333 58001 70000==
41926,2023,11,14,03,00,AAXX 14034 41926 01950 13601 10240 20200 30161 40175 70500 80001 333 20176 59003 70000 81080==
41926,2023,11,14,06,00,AAXX 14064 41926 02956 30000 10298 20180 30142 40156 80001 333 59002 70000 83080==
41926,2023,11,14,09,00,AAXX 14094 41926 02956 33402 10307 20160 30112 40125 80001 333 59005 70000 83080==
41926,2023,11,14,12,00,AAXX 14124 41926 01950 10000 10243 20200 30117 40131 70500 80001 333 10315 59001 70000 81080==
41926,2023,11,14,15,00,AAXX 14154 41926 01950 00000 10202 20180 30141 40155 70500 333 58002 70000==
41926,2023,11,14,18,00,AAXX 14184 41926 01950 00000 10197 20190 30139 40153 70500 333 59002 70000==
41926,2023,11,14,21,00,AAXX 14214 41926 01950 00000 10190 20180 30140 40154 70500 333 59002 70000==
41926,2023,11,15,00,00,AAXX 15004 41926 01950 20000 10175 20170 30141 40155 70500 80001 333 59003 70000 82080==
41926,2023,11,15,03,00,AAXX 15034 41926 01/50 50000 10220 20200 30156 40170 70520 85030 333 20175 59005 70000 85362==
41926,2023,11,15,06,00,AAXX 15064 41926 02956 50000 10298 20170 30144 40158 80002 333 58002 70000 85080==
41926,2023,11,15,09,00,AAXX 15094 41926 02/56 30000 10300 20170 30117 40130 83030 333 58005 70000 83362==
41926,2023,11,15,12,00,AAXX 15124 41926 01950 40000 10248 20210 30123 40137 70521 80001 333 10315 58006 70000 84080==
41926,2023,11,15,15,00,AAXX 15154 41926 01950 20000 10217 20210 30144 40158 70520 80001 333 59003 70000 82080==
41926,2023,11,15,18,00,AAXX 15184 41926 01950 20000 10206 20200 30139 40153 70500 80001 333 58000 70000 82080==
41926,2023,11,15,21,00,AAXX 15214 41926 01950 20000 10206 20200 30140 40154 70500 80001 333 58000 70000 82080==
41926,2023,11,16,00,00,AAXX 16004 41926 01450 50000 10205 20200 30142 40156 70520 83510 333 58001 70000 83618 85459==
41926,2023,11,16,03,00,AAXX 16034 41926 01450 80000 10230 20200 30160 40174 70522 8452/ 333 20205 58004 70000 84618 88458==
41926,2023,11,16,06,00,AAXX 16064 41926 21456 80000 10267 20190 30147 40161 70262 8452/ 333 58003 60005 84618 88458==
41926,2023,11,16,09,00,AAXX 16094 41926 42450 80000 10278 20230 30129 40143 8452/ 333 58012 84616 88458==
41926,2023,11,16,12,00,AAXX 16124 41926 21450 80000 10235 20230 30139 40153 70262 8452/ 333 10285 58016 60017 70010 84616 88458==
41926,2023,11,16,15,00,AAXX 16154 41926 01450 80000 10230 20220 30154 40168 70262 8452/ 333 58010 70010 84616 88458==
41926,2023,11,16,18,00,AAXX 16184 41926 11450 80000 10227 20220 30142 40156 60016 70262 8452/ 333 58003 70020 84616 88458==
41926,2023,11,16,21,00,AAXX 16214 41926 02450 80000 10227 20227 30127 40141 8452/ 333 59013 70020 84616 88458==
41927,2023,11,10,00,00,AAXX 10004 41927 31915 00000 10195 20195 30132 40146 71000 333 58012 70000=
41927,2023,11,10,06,00,AAXX 10064 41927 32957 00000 10298 20150 30136 40150 333 58013 70000=
41927,2023,11,10,12,00,AAXX 10124 41927 32956 00000 10230 20200 30116 40131 333 10302 58009 70000=
41927,2023,11,10,18,00,AAXX 10184 41927 NIL=
41927,2023,11,11,00,00,AAXX 11004 41927 31940 00000 10188 20180 30133 40148 70500 333 58001 70000=
41927,2023,11,11,06,00,AAXX 11064 41927 32958 03102 10290 20170 30137 40152 333 58001 70000=
41927,2023,11,11,12,00,AAXX 11124 41927 32956 00000 10236 20200 30118 40133 333 10304 58002 70000=
41927,2023,11,11,18,00,AAXX 11184 41927 NIL=
41927,2023,11,12,00,00,AAXX 12004 41927 31940 00000 10190 20190 30138 40153 70500 333 58005 70000=
41927,2023,11,12,06,00,AAXX 12064 41927 32958 03102 10296 20170 30140 40155 333 58003 70000=
41927,2023,11,12,12,00,AAXX 12124 41927 32956 00000 10238 20210 30123 40138 333 10306 58003 70000=
41927,2023,11,12,18,00,AAXX 12184 41927 31950 00000 10204 20190 30144 40159 70500 333 58004 70000=
41927,2023,11,13,00,00,AAXX 13004 41927 31940 00000 10188 20180 30137 40152 70500 333 59001 70000=
41927,2023,11,13,06,00,AAXX 13064 41927 32958 00603 10294 20160 30140 40155 333 58000 70000=
41927,2023,11,13,12,00,AAXX 13124 41927 32956 03101 10240 20210 30118 40133 333 10305 59004 70000=
41927,2023,11,13,18,00,AAXX 13184 41927 31950 00000 10210 20200 30140 40155 70500 333 59004 70000=
41927,2023,11,14,00,00,AAXX 14004 41927 31940 00000 10196 20190 30135 40150 70500 333 59002 70000=
41927,2023,11,14,06,00,AAXX 14064 41927 32958 03601 10300 20130 30137 40152 333 59002 70000=
41927,2023,11,14,12,00,AAXX 14124 41927 32956 00000 10230 20200 30114 40129 333 10318 59003 70000=
41927,2023,11,15,00,00,AAXX 15004 41927 31940 00000 10190 20190 30131 40147 70500 333 59003 70000=
41927,2023,11,15,06,00,AAXX 15064 41927 32958 03101 10298 20140 30138 40153 333 59002 70000=
41927,2023,11,15,12,00,AAXX 15124 41927 31956 00000 10246 20220 30125 40140 333 10310 58011 70000=
41927,2023,11,16,00,00,AAXX 16004 41927 31440 80000 10214 20200 30143 40158 70520 8452/ 333 56799 58011 70000 84616 88458=
41927,2023,11,16,06,00,AAXX 16064 41927 11456 82702 10256 20230 30146 40161 69935 70562 8452/ 333 56799 58008 70003 84616 88458=
41927,2023,11,16,12,00,AAXX 16124 41927 11450 80000 10230 20220 30138 40153 69972 70562 8452/ 333 10266 56799 58013 70010 84616 88458=
41927,2023,11,16,18,00,AAXX 16184 41927 NIL=
41929,2023,11,10,00,00,AAXX 10004 41929 01950 03001 10202 20198 30136 40145 70500 333 58011 70000==
41929,2023,11,10,03,00,AAXX 10034 41929 01950 03603 10270 20190 30162 40171 70500 333 20196 58015 70000==
41929,2023,11,10,06,00,AAXX 10064 41929 02956 03204 10302 20150 30146 40155 333 58015 70000==
41929,2023,11,10,09,00,AAXX 10094 41929 02956 03103 10310 20140 30118 40127 333 58009 70000==
41929,2023,11,10,12,00,AAXX 10124 41929 01950 00000 10253 20200 30124 40133 70500 333 10315 58008 70000==
41929,2023,11,10,15,00,AAXX 10154 41929 01950 00000 10215 20200 30142 40152 70500 333 58007 70000==
41929,2023,11,10,18,00,AAXX 10184 41929 01950 00000 10205 20190 30141 40151 70500 333 58006 70000==
41929,2023,11,10,21,00,AAXX 10214 41929 01950 00000 10200 20190 30139 40149 70500 333 58010 70000==
41929,2023,11,11,00,00,AAXX 11004 41929 01950 00000 10195 20190 30137 40147 70500 333 58001 70000==
41929,2023,11,11,03,00,AAXX 11034 41929 01950 03602 10265 20190 30163 40172 70500 333 20190 58001 70000==
41929,2023,11,11,06,00,AAXX 11064 41929 02956 03203 10302 20180 30145 40154 333 59001 70000==
41929,2023,11,11,09,00,AAXX 11094 41929 02956 03603 10310 20150 30120 40129 333 58002 70000==
41929,2023,11,11,12,00,AAXX 11124 41929 01950 00000 10250 20200 30126 40135 70500 333 10317 58002 70000==
41929,2023,11,11,15,00,AAXX 11154 41929 01950 00000 10225 20210 30145 40155 70500 333 58003 70000==
41929,2023,11,11,18,00,AAXX 11184 41929 01950 00000 10223 20200 30144 40154 70500 333 58003 70000==
41929,2023,11,11,21,00,AAXX 11214 41929 01950 00000 10213 20190 30141 40151 70500 333 58002 70000==
41929,2023,11,12,00,00,AAXX 12004 41929 01950 00000 10202 20190 30137 40147 70500 333 58000 70000==
41929,2023,11,12,03,00,AAXX 12034 41929 01950 00000 10275 20210 30167 40176 70500 333 20193 58004 70000==
41929,2023,11,12,06,00,AAXX 12064 41929 02956 00502 10305 20190 30150 40159 333 58005 70000==
41929,2023,11,12,09,00,AAXX 12094 41929 02956 03103 10313 20170 30121 40130 333 58001 70000==
41929,2023,11,12,12,00,AAXX 12124 41929 01950 00000 10255 20220 30129 40138 70500 333 10317 58003 70000==
41929,2023,11,12,15,00,AAXX 12154 41929 01950 00000 10235 20210 30148 40158 70500 333 58003 70000==
41929,2023,11,12,18,00,AAXX 12184 41929 01950 00000 10222 20200 30149 40159 70500 333 58005 70000==
41929,2023,11,12,21,00,AAXX 12214 41929 01950 03102 10215 20210 30145 40155 70500 333 58004 70000==
41929,2023,11,13,00,00,AAXX 13004 41929 01950 03102 10207 20200 30140 40150 70500 333 58003 70000==
41929,2023,11,13,03,00,AAXX 13034 41929 01950 03202 10268 20210 30166 40175 70500 333 20200 59001 70000==
41929,2023,11,13,06,00,AAXX 13064 41929 02956 00902 10308 20200 30148 40157 333 59001 70000==
41929,2023,11,13,09,00,AAXX 13094 41929 02956 03102 10315 20200 30118 40127 333 59003 70000==
41929,2023,11,13,12,00,AAXX 13124 41929 01950 00000 10255 20220 30123 40132 70500 333 10317 59006 70000==
41929,2023,11,13,15,00,AAXX 13154 41929 01950 03102 10235 20220 30141 40151 70500 333 59007 70000==
41929,2023,11,13,18,00,AAXX 13184 41929 01950 00000 10225 20210 30146 40156 70500 333 59003 70000==
41929,2023,11,13,21,00,AAXX 13214 41929 01950 00000 10215 20210 30143 40153 70500 333 59002 70000==
41929,2023,11,14,00,00,AAXX 14004 41929 01950 00000 10205 20200 30140 40150 70500 333 58000 70000==
41929,2023,11,14,03,00,AAXX 14034 41929 01950 00000 10275 20220 30166 40175 70500 333 20200 58000 70000==
41929,2023,11,14,06,00,AAXX 14064 41929 02/56 40000 10308 20170 30143 40152 84040 333 59005 70000 84365==
41929,2023,11,14,09,00,AAXX 14094 41929 02/56 40000 10320 20160 30116 40125 84030 333 59002 70000 84365==
41929,2023,11,14,12,00,AAXX 14124 41929 01/50 20000 10264 20200 30120 40129 70521 82030 333 10325 59003 70000 82365==
41929,2023,11,14,15,00,AAXX 14154 41929 01950 00000 10220 20200 30142 40152 70500 333 58001 70000==
41929,2023,11,14,18,00,AAXX 14184 41929 01950 00000 10202 20180 30144 40154 70500 333 59002 70000==
41929,2023,11,14,21,00,AAXX 14214 41929 01950 00000 10199 20190 30141 40151 70500 333 59002 70000==
41929,2023,11,15,00,00,AAXX 15004 41929 01950 00000 10195 20190 30138 40148 70500 333 59002 70000==
41929,2023,11,15,03,00,AAXX 15034 41929 01/50 50902 10273 20200 30159 40168 70520 85030 333 20190 59007 70000 85365==
41929,2023,11,15,06,00,AAXX 15064 41929 02/56 50502 10315 20150 30146 40155 85030 333 58003 70000 85365==
41929,2023,11,15,09,00,AAXX 15094 41929 02/56 50000 10315 20150 30120 40129 85030 333 58004 70000 85365==
41929,2023,11,15,12,00,AAXX 15124 41929 01/50 40000 10255 20210 30131 40140 70522 84030 333 10325 58011 70000 84365==
41929,2023,11,15,15,00,AAXX 15154 41929 01/50 30000 10235 20210 30148 40158 70521 83030 333 58006 70000 83365==
41929,2023,11,15,18,00,AAXX 15184 41929 01/50 40000 10230 20200 30147 40157 70521 84030 333 58003 70000 84365==
41929,2023,11,15,21,00,AAXX 15214 41929 01/50 43602 10232 20220 30143 40153 70522 84030 333 58002 70000 84365==
41929,2023,11,16,00,00,AAXX 16004 41929 01450 73602 10233 20200 30138 40148 70522 83570 333 58000 70000 83618 85460==
41929,2023,11,16,03,00,AAXX 16034 41929 01450 83202 10252 20200 30166 40175 70522 8251/ 333 20223 58007 70000 83618 88462==
41929,2023,11,16,06,00,AAXX 16064 41929 02456 83602 10262 20200 30156 40165 8352/ 333 58010 70000 83618 88462==
41929,2023,11,16,09,00,AAXX 16094 41929 01450 80000 10245 20230 30140 40149 76122 8452/ 333 58020 70016 84617 88460==
41929,2023,11,16,12,00,AAXX 16124 41929 21450 80000 10240 20230 30147 40156 70262 8452/ 333 10265 58016 60027 70017 84617 88460==
41929,2023,11,16,15,00,AAXX 16154 41929 01450 80000 10240 20230 30164 40173 76122 8452/ 333 58016 70019 84617 88460==
41929,2023,11,16,18,00,AAXX 16184 41929 21450 80000 10236 20220 30149 40158 76162 8452/ 333 58002 69937 70022 84617 88460==
41929,2023,11,16,21,00,AAXX 16214 41929 02450 80000 10234 20220 30136 40145 8452/ 333 58002 70022 84617 88460==
41933,2023,11,10,00,00,AAXX 10004 41933 01902 00000 10190 20190 30131 40140 74644 333 58010 70000==
41933,2023,11,10,03,00,AAXX 10034 41933 01940 00000 10250 20220 30149 40157 70540 333 20185 58010 70000==
41933,2023,11,10,06,00,AAXX 10064 41933 01950 00902 10300 20190 30132 40140 70540 333 58008 70000==
41933,2023,11,10,09,00,AAXX 10094 41933 01450 23101 10310 20200 30109 40117 70500 82500 333 58011 70000 82618==
41933,2023,11,10,12,00,AAXX 10124 41933 01940 00000 10264 20210 30111 40120 70500 333 10312 58003 70000==
41933,2023,11,10,15,00,AAXX 10154 41933 01940 00000 10220 20210 30134 40143 70500 333 59008 70000==
41933,2023,11,10,18,00,AAXX 10184 41933 01930 00000 10209 20200 30134 40143 71000 333 58010 70000==
41933,2023,11,10,21,00,AAXX 10214 41933 01915 00000 10200 20190 30129 40138 71044 333 58001 70000==
41933,2023,11,11,00,00,AAXX 11004 41933 01901 00000 10190 20190 30130 40139 74644 333 59001 70000==
41933,2023,11,11,03,00,AAXX 11034 41933 01940 00000 10265 20200 30155 40164 70540 333 20185 58006 70000==
41933,2023,11,11,06,00,AAXX 11064 41933 01950 00901 10300 20190 30141 40149 70540 333 58009 70000==
41933,2023,11,11,09,00,AAXX 11094 41933 01950 20902 10310 20190 30110 40118 70500 82500 333 58001 70000 82618==
41933,2023,11,11,12,00,AAXX 11124 41933 01950 00000 10260 20210 30115 40124 70500 333 10315 58004 70000==
41933,2023,11,11,15,00,AAXX 11154 41933 01940 00000 10217 20210 30134 40143 70500 333 58000 70000==
41933,2023,11,11,18,00,AAXX 11184 41933 01935 00000 10207 20200 30136 40145 70500 333 58002 70000==
41933,2023,11,11,21,00,AAXX 11214 41933 01930 00000 10197 20190 30129 40138 71000 333 58000 70000==
41933,2023,11,12,00,00,AAXX 12004 41933 01905 20000 10190 20190 30134 40143 74600 80001 333 58004 70000 82074==
41933,2023,11,12,03,00,AAXX 12034 41933 01950 00000 10272 20190 30155 40164 70540 333 20185 58000 70000==
41933,2023,11,12,06,00,AAXX 12064 41933 02456 40603 10303 20190 30137 40145 84500 333 59004 70000 84616==
41933,2023,11,12,09,00,AAXX 12094 41933 02456 43102 10305 20200 30119 40127 84500 333 58009 70000 84616==
41933,2023,11,12,12,00,AAXX 12124 41933 01950 00000 10266 20210 30117 40125 70520 333 10315 58002 70000==
41933,2023,11,12,15,00,AAXX 12154 41933 01950 00000 10250 20230 30138 40147 70500 333 58004 70000==
41933,2023,11,12,18,00,AAXX 12184 41933 01950 00000 10215 20210 30136 40145 70500 333 58000 70000==
41933,2023,11,12,21,00,AAXX 12214 41933 01920 00000 10205 20200 30137 40146 71000 333 58008 70000==
41933,2023,11,13,00,00,AAXX 13004 41933 01905 00000 10192 20190 30135 40144 74600 333 58001 70000==
41933,2023,11,13,03,00,AAXX 13034 41933 01940 00302 10275 20220 30158 40166 70540 333 20190 58003 70000==
41933,2023,11,13,06,00,AAXX 13064 41933 01/50 20402 10310 20210 30133 40141 70540 82050 333 59004 70000 82618==
41933,2023,11,13,09,00,AAXX 13094 41933 02456 20503 10316 20200 30108 40116 82500 333 59011 70000 82618==
41933,2023,11,13,12,00,AAXX 13124 41933 02956 00000 10267 20210 30112 40121 333 10327 59005 70000==
41933,2023,11,13,15,00,AAXX 13154 41933 01950 00000 10235 20210 30135 40144 70500 333 59003 70000==
41933,2023,11,13,18,00,AAXX 13184 41933 01940 00000 10226 20190 30141 40150 70500 333 58005 70000==
41933,2023,11,13,21,00,AAXX 13214 41933 01930 00000 10202 20190 30134 40143 70500 333 59003 70000==
41933,2023,11,14,00,00,AAXX 14004 41933 01930 00000 10196 20196 30134 40142 70500 333 59001 70000==
41933,2023,11,14,03,00,AAXX 14034 41933 01950 30401 10274 20190 40160 70500 80001 333 20194 59006 70000 83074==
41933,2023,11,14,06,00,AAXX 14064 41933 01950 23101 10320 20170 30132 40140 70500 80001 333 59001 70000 82074==
41933,2023,11,14,09,00,AAXX 14094 41933 01950 30000 10322 20160 30107 40116 70500 80001 333 59001 70000 83074==
41933,2023,11,14,12,00,AAXX 14124 41933 01950 30000 10266 20220 30114 40123 70500 80001 333 10330 58002 70000 83074==
41933,2023,11,14,15,00,AAXX 14154 41933 01940 00000 10225 20210 30132 40141 70500 333 59003 70000==
41933,2023,11,14,18,00,AAXX 14184 41933 01935 00000 10220 20210 30135 40144 70500 333 59006 70000==
41933,2023,11,14,21,00,AAXX 14214 41933 01935 20000 10211 20200 30130 40139 70500 80001 333 59004 70000 82080==
41933,2023,11,15,00,00,AAXX 15004 41933 01935 20000 10210 20200 30130 40139 70500 80001 333 59004 70000 82080==
41933,2023,11,15,03,00,AAXX 15034 41933 01950 20000 10285 20190 30149 40158 70500 80001 333 20205 59003 70000 82080==
41933,2023,11,15,06,00,AAXX 15064 41933 01950 30000 10320 20200 30133 40142 70500 80001 333 58001 70000 83080==
41933,2023,11,15,09,00,AAXX 15094 41933 01950 32702 10320 20190 30113 40121 70500 80001 333 59001 70000 83080==
41933,2023,11,15,12,00,AAXX 15124 41933 01450 40000 10275 20220 30123 40131 70500 84500 333 10335 58009 70000 84618==
41933,2023,11,15,15,00,AAXX 15154 41933 02950 20000 10266 20220 30137 40145 80001 333 58005 70000 82074==
41933,2023,11,15,18,00,AAXX 15184 41933 02950 00000 10248 20220 30134 40143 333 59001 70000==
41933,2023,11,15,21,00,AAXX 15214 41933 02450 50000 10250 20230 30132 40141 82501 333 58002 70000 82616 84074==
41933,2023,11,16,00,00,AAXX 16004 41933 02450 63602 10248 20240 30128 40137 83501 333 59002 70000 83616 85074==
41933,2023,11,16,03,00,AAXX 16034 41933 41450 80000 10265 20230 30142 40151 70562 8452/ 333 20245 59007 84616 88458==
41933,2023,11,16,06,00,AAXX 16064 41933 11450 81802 10271 20230 30145 40154 60006 70562 8452/ 333 58012 84618 88458==
41933,2023,11,16,09,00,AAXX 16094 41933 41450 80000 10265 20250 30136 40145 70522 8452/ 333 58023 84616 88458==
41933,2023,11,16,12,00,AAXX 16124 41933 01450 80000 10249 20230 30146 40155 76162 8572/ 333 10275 58023 70000 82709 84616 88458==
41933,2023,11,16,15,00,AAXX 16154 41933 41450 80000 10245 20230 30156 40165 76162 8572/ 333 58019 82709 84616 88458==
41933,2023,11,16,18,00,AAXX 16184 41933 21450 80000 10235 20230 30154 40163 76162 8572/ 333 58020 69929 70002 82709 84616 88457==
41933,2023,11,16,21,00,AAXX 16214 41933 01450 80000 10230 20220 30146 40155 76162 8572/ 333 58016 70010 82709 84616 88457==
41936,2023,11,10,00,00,AAXX 10004 41936 01906 00000 10180 20180 30134 40141 74644 333 58010 70000==
41936,2023,11,10,03,00,AAXX 10034 41936 01907 00000 10230 20210 30156 40163 74244 333 20178 58016 70000==
41936,2023,11,10,06,00,AAXX 10064 41936 01914 00000 10218 30143 40150 70544 333 58012 70000==
41936,2023,11,10,09,00,AAXX 10094 41936 01916 03603 10312 20170 30119 40126 70500 333 58007 70000==
41936,2023,11,10,12,00,AAXX 10124 41936 01918 03103 10246 20230 30122 40129 70500 333 10316 58009 70000==
41936,2023,11,10,15,00,AAXX 10154 41936 01916 00000 10208 20200 30142 40149 70500 333 58010 70000==
41936,2023,11,10,18,00,AAXX 10184 41936 01914 00000 10202 20190 30138 40145 70500 333 58002 70000==
41936,2023,11,10,21,00,AAXX 10214 41936 01910 00000 10196 20190 30130 40137 70500 333 58004 70000==
41936,2023,11,11,00,00,AAXX 11004 41936 01907 00000 10178 20170 30140 40147 74000 333 58006 70000==
41936,2023,11,11,03,00,AAXX 11034 41936 01909 00000 10222 20200 30160 40167 74244 333 20174 58004 70000==
41936,2023,11,11,06,00,AAXX 11064 41936 01914 00203 10294 20190 30146 40153 70540 333 58003 70000==
41936,2023,11,11,09,00,AAXX 11094 41936 01918 03303 10310 20200 30120 40127 70500 333 58001 70000==
41936,2023,11,11,12,00,AAXX 11124 41936 01914 03300 10250 20220 30124 40131 70500 333 10316 58002 70000==
41936,2023,11,11,15,00,AAXX 11154 41936 01914 00000 10212 20200 30142 40149 70500 333 58000 70000==
41936,2023,11,11,18,00,AAXX 11184 41936 01912 00000 10200 20190 30142 40149 70500 333 58004 70000==
41936,2023,11,11,21,00,AAXX 11214 41936 42910 00000 10192 20180 30132 40139 58002==
41936,2023,11,12,00,00,AAXX 12004 41936 01907 00000 10190 20180 30138 40145 74440 333 59002 70000==
41936,2023,11,12,03,00,AAXX 12034 41936 02912 00103 10230 20200 30166 40173 333 20188 58006 70000==
41936,2023,11,12,06,00,AAXX 12064 41936 01925 00204 10300 20190 30151 40158 70540 333 58005 70000==
41936,2023,11,12,09,00,AAXX 12094 41936 01940 00203 10314 20180 30121 40128 70500 333 58001 70000==
41936,2023,11,12,12,00,AAXX 12124 41936 01940 00000 10260 20220 30125 40132 70500 333 10318 58001 70000==
41936,2023,11,12,15,00,AAXX 12154 41936 02930 00000 10230 20200 30148 40155 333 58006 70000==
41936,2023,11,12,18,00,AAXX 12184 41936 01920 00000 10210 20200 30146 40153 70500 333 58004 70000==
41936,2023,11,12,21,00,AAXX 12214 41936 01912 00000 10200 20190 30140 40147 70500 333 58008 70000==
41936,2023,11,13,00,00,AAXX 13004 41936 01910 00000 10180 20170 30148 40155 71000 333 58010 70000==
41936,2023,11,13,03,00,AAXX 13034 41936 01910 00203 10226 20180 30164 40171 70544 333 20176 59002 70000==
41936,2023,11,13,06,00,AAXX 13064 41936 01940 00305 10296 20190 30148 40155 70540 333 59003 70000==
41936,2023,11,13,09,00,AAXX 13094 41936 01950 00206 10314 20190 30116 40123 70500 333 59005 70000==
41936,2023,11,13,12,00,AAXX 13124 41936 01950 00000 10262 20220 30126 40133 70500 333 10322 58001 70000==
41936,2023,11,13,15,00,AAXX 13154 41936 01940 00000 10212 20190 30141 40148 70500 333 59007 70000==
41936,2023,11,13,18,00,AAXX 13184 41936 01930 00000 10200 20190 30146 40153 70500 333 58000 70000==
41936,2023,11,13,21,00,AAXX 13214 41936 01916 00000 10194 20180 30138 40145 70500 333 58002 70000==
41936,2023,11,14,00,00,AAXX 14004 41936 01909 00000 10180 20170 30140 40147 74040 333 59008 70000==
41936,2023,11,14,03,00,AAXX 14034 41936 01910 23503 20200 30156 40163 72840 333 58008 70000 82615==
41936,2023,11,14,06,00,AAXX 14064 41936 01940 20303 10230 20180 30153 40160 70511 333 59005 70000 82615==
41936,2023,11,14,09,00,AAXX 14094 41936 01/40 23603 10314 20190 30116 40123 70511 82030 333 70000 82362==
41936,2023,11,14,12,00,AAXX 14124 41936 01/40 20000 10262 20200 30122 40129 70511 82030 333 10320 59004 70000 82362==
41936,2023,11,14,15,00,AAXX 14154 41936 01930 20000 10230 20200 30133 40140 70511 82303 333 59008 70000 82362==
41936,2023,11,14,18,00,AAXX 14184 41936 42920 20000 10220 20200 30130 40137 59016 82362==
41936,2023,11,14,21,00,AAXX 14214 41936 42916 20000 10200 20192 30122 40129 59016 82362==
41936,2023,11,15,00,00,AAXX 15004 41936 42909 20000 10182 20170 30140 40147 58003 82362==
41936,2023,11,15,03,00,AAXX 15034 41936 01/10 20000 10230 20210 30156 40163 72811 82030 333 20180 58000 70000 82362==
41936,2023,11,15,06,00,AAXX 15064 41936 31935 20605 10310 20170 30147 40154 70511 82030 333 56090 59006 70000 82362=
41936,2023,11,15,09,00,AAXX 15094 41936 01/40 20203 10314 20150 30116 40123 70511 82030 333 58000 70000 82362==
41936,2023,11,15,12,00,AAXX 15124 41936 01/30 30000 10254 20210 30127 40134 70511 83030 333 10316 58005 70000 83362==
41936,2023,11,15,15,00,AAXX 15154 41936 01/30 30000 10230 20210 30142 40150 70511 83030 333 58010 70000 83362==
41936,2023,11,15,18,00,AAXX 15184 41936 01/25 20000 10222 20200 30142 40149 70511 82030 333 58012 70000 82362==
41936,2023,11,15,21,00,AAXX 15214 41936 01420 50000 10220 20200 30134 40141 70522 82830 333 58012 70000 82615 84362==
41936,2023,11,16,00,00,AAXX 16004 41936 01316 60000 10220 20200 30136 40143 70562 84630 333 59004 70000 82708 83615==
41936,2023,11,16,03,00,AAXX 16034 41936 01314 60603 10240 20200 30160 40168 70522 84630 333 20210 58005 70020 82708 83615==
41936,2023,11,16,06,00,AAXX 16064 41936 01316 70203 10272 20210 30149 40156 70522 84630 333 58002 70020 83708 83615 83762==
41936,2023,11,16,07,00,AAXX 16074 41936 01316 70203 10272 20210 30149 40156 70522 84630 333 58002 70020 83708 83615 83762==
41936,2023,11,16,09,00,AAXX 16094 41936 01312 81303 10246 20230 30135 40142 79562 85720 333 58019 70030 85707 83615 88360 81930==
41936,2023,11,16,12,00,AAXX 16124 41936 01312 70303 10234 20220 30138 40146 72192 84720 333 10276 58012 70070 84708 83615 87362==
41936,2023,11,16,15,00,AAXX 16154 41936 01312 60803 10230 20220 30154 40162 70596 84630 333 58012 70090 83708 83615 86362==
41936,2023,11,16,18,00,AAXX 16184 41936 11312 70903 10226 20220 30144 40151 71022 84630 333 56990 58002 70090 83708 83615 87362=
41936,2023,11,16,21,00,AAXX 16214 41936 01312 70803 10224 20210 30137 40144 71022 83460 333 58003 70090 83708 83615 87362==
41938,2023,11,10,00,00,AAXX 10004 41938 31910 00000 10185 20180 30135 40139 71040 333 58011 70000=
41938,2023,11,10,06,00,AAXX 10064 41938 31940 03604 10295 20180 30149 40153 70500 333 58014 70000=
41938,2023,11,10,12,00,AAXX 10124 41938 31940 00000 10231 20210 30124 40128 70500 333 10306 58012 70000=
41938,2023,11,10,18,00,AAXX 10184 41938 31920 00000 10186 20180 30140 40144 71000 333 58010 70000=
41938,2023,11,11,00,00,AAXX 11004 41938 31912 00000 10175 20170 30139 40143 71000 333 58004 70000=
41938,2023,11,11,06,00,AAXX 11064 41938 31950 00503 10290 20180 30149 40153 70500 333 58000 70000=
41938,2023,11,11,12,00,AAXX 11124 41938 31940 00000 10238 20180 30121 40125 70500 333 10305 59003 70000=
41938,2023,11,11,18,00,AAXX 11184 41938 31930 00000 10190 20190 30138 40142 70500 333 59002 70000=
41938,2023,11,12,00,00,AAXX 12004 41938 31920 03001 10187 20180 30137 40141 71000 333 59002 70000=
41938,2023,11,12,06,00,AAXX 12064 41938 32956 03001 10297 20200 30149 40152 333 58001 70000=
41938,2023,11,12,12,00,AAXX 12124 41938 31950 00000 10245 20230 30123 40127 70500 333 10307 58002 70000=
41938,2023,11,13,00,00,AAXX 13004 41938 31912 00000 10187 20180 30137 40141 71000 333 59005 70000=
41938,2023,11,13,06,00,AAXX 13064 41938 32956 00000 10297 20200 30153 40157 333 59008 59006 70000=
41938,2023,11,13,12,00,AAXX 13124 41938 31950 00000 10245 20230 30123 40127 70500 333 10307 58000 70000=
41938,2023,11,13,18,00,AAXX 13184 41938 31950 00000 10205 20190 30137 40141 70500 333 59003 70000=
41938,2023,11,14,00,00,AAXX 14004 41938 31912 00000 10184 20180 30137 40141 71000 333 59007 70000=
41938,2023,11,14,06,00,AAXX 14064 41938 31950 20000 10300 20190 30143 40147 70510 80001 333 56009 59010 70000 82080=
41938,2023,11,14,12,00,AAXX 14124 41938 31950 30000 10240 20200 30123 40127 70510 82011 333 10315 56099 58000 70000 82460=
41938,2023,11,14,18,00,AAXX 14184 41938 31925 20000 10200 20190 30140 40144 71011 80001 333 56009 58003 70000 82080=
41938,2023,11,15,00,00,AAXX 15004 41938 31925 60000 10187 20180 30137 40141 71021 84071 333 56099 59008 70000 84460 83080=
41938,2023,11,15,06,00,AAXX 15064 41938 32456 50502 10298 20170 30148 40152 81032 333 56099 58005 70000 81362 85079=
41938,2023,11,15,12,00,AAXX 15124 41938 31450 60000 10254 20210 30130 40133 70522 81510 333 10315 56090 58007 70000 81618 86460=
41938,2023,11,15,18,00,AAXX 15184 41938 31930 43201 10225 20210 30138 40142 70520 84010 333 56090 59002 70000 84460=
41938,2023,11,16,00,00,AAXX 16004 41938 31430 73201 10225 20210 30138 40142 70521 82510 333 56990 58001 70000 82617 86460=
41938,2023,11,16,06,00,AAXX 16064 41938 11430 80000 10241 20220 30152 40155 69984 76022 8352/ 333 56299 58004 70008 83616 88458=
41938,2023,11,16,12,00,AAXX 16124 41938 11430 80000 10237 20230 30141 40144 69933 76162 8352/ 333 10255 58011 70011 83616 88458=
41938,2023,11,16,18,00,AAXX 16184 41938 11430 83602 10231 20220 30145 40149 60039 70262 8252/ 333 56999 58007 70045 82616 88458=
41939,2023,11,10,00,00,AAXX 10004 41939 01940 00000 10195 20190 30143 40151 70500 333 58003 70000==
41939,2023,11,10,03,00,AAXX 10034 41939 01956 00000 10243 20200 30163 40171 70500 333 20188 58010 70000==
41939,2023,11,10,06,00,AAXX 10064 41939 02958 00000 10300 20150 30140 40148 333 58010 70000==
41939,2023,11,10,09,00,AAXX 10094 41939 02957 00000 10295 20170 30132 40140 333 58018 70000==
41939,2023,11,10,12,00,AAXX 10124 41939 02950 00000 10235 20210 30129 40137 333 10305 58007 70000==
41939,2023,11,10,15,00,AAXX 10154 41939 01950 00000 10212 20190 30145 40154 70500 333 58002 70000==
41939,2023,11,10,18,00,AAXX 10184 41939 01950 00000 10205 20190 30153 40161 70500 333 58003 70000==
41939,2023,11,10,21,00,AAXX 10214 41939 01950 00000 10195 20190 30153 40161 70500 333 58010 70000==
41939,2023,11,11,00,00,AAXX 11004 41939 01950 00000 10190 20180 30149 40157 70500 333 58009 70000==
41939,2023,11,11,03,00,AAXX 11034 41939 02957 00000 10252 20210 30168 40176 333 20187 58005 70000==
41939,2023,11,11,06,00,AAXX 11064 41939 02958 00000 10300 20190 30142 40150 333 58002 70000==
41939,2023,11,11,09,00,AAXX 11094 41939 02957 00000 10298 20170 30123 40131 333 59009 70000==
41939,2023,11,11,12,00,AAXX 11124 41939 02956 00000 10235 20210 30136 40144 333 10303 58007 70000==
41939,2023,11,11,15,00,AAXX 11154 41939 01950 00000 10210 20190 30146 40154 70500 333 58001 70000==
41939,2023,11,11,18,00,AAXX 11184 41939 NIL=
41939,2023,11,11,21,00,AAXX 11214 41939 01940 00000 10197 20190 30155 40163 70500 333 58003 70000==
41939,2023,11,12,00,00,AAXX 12004 41939 01940 00000 10195 20190 30149 40157 70500 333 58000 70000==
41939,2023,11,12,03,00,AAXX 12034 41939 02957 00000 10248 20230 30170 40178 333 20188 58002 70000==
41939,2023,11,12,06,00,AAXX 12064 41939 02958 00000 10301 20190 30142 40150 333 58000 70000==
41939,2023,11,12,09,00,AAXX 12094 41939 02957 00000 10297 20190 30123 40131 333 58000 70000==
41939,2023,11,12,12,00,AAXX 12124 41939 02956 00000 10245 20220 30132 40140 333 10305 59004 70000==
41939,2023,11,12,15,00,AAXX 12154 41939 01950 00000 10210 30154 40162 70500 333 58008 70000==
41939,2023,11,12,18,00,AAXX 12184 41939 01950 00000 10220 30163 40171 50210 70500 333 58006 70000==
41939,2023,11,12,21,00,AAXX 12214 41939 01950 00000 10212 20190 30158 40166 70500 333 58006 70000==
41939,2023,11,13,00,00,AAXX 13004 41939 01950 00000 10205 20200 30155 40163 70500 333 58004 70000==
41939,2023,11,13,03,00,AAXX 13034 41939 02957 00000 10255 20210 30170 40178 333 20195 58000 70000==
41939,2023,11,13,06,00,AAXX 13064 41939 02958 00000 10295 20200 30151 40159 333 58009 70000==
41939,2023,11,13,09,00,AAXX 13094 41939 02957 00000 10300 20190 30121 40129 333 59002 70000==
41939,2023,11,13,12,00,AAXX 13124 41939 02956 00000 10252 20220 30128 40136 333 10310 59004 70000==
41939,2023,11,13,15,00,AAXX 13154 41939 02956 00000 10230 20200 30142 40150 333 59012 70000==
41939,2023,11,13,18,00,AAXX 13184 41939 NIL=
41939,2023,11,13,21,00,AAXX 13214 41939 01940 00000 10210 20200 30152 40160 70500 333 59006 70000==
41939,2023,11,14,00,00,AAXX 14004 41939 01940 00000 10200 20190 30148 40156 70500 333 59007 70000==
41939,2023,11,14,03,00,AAXX 14034 41939 02957 00000 10260 20193 30168 40176 333 20193 59002 70000==
41939,2023,11,14,06,00,AAXX 14064 41939 02958 00000 10298 20190 30145 40153 333 59006 70000==
41939,2023,11,14,09,00,AAXX 14094 41939 02/57 20000 10305 20180 30121 40129 82030 333 58000 70000 82362==
41939,2023,11,14,12,00,AAXX 14124 41939 02956 00000 10242 20210 30129 40137 333 10315 58001 70000==
41939,2023,11,14,15,00,AAXX 14154 41939 02950 00000 10225 20210 30149 40157 333 58007 70000==
41939,2023,11,14,18,00,AAXX 14184 41939 01950 00000 10220 20210 30162 40170 70500 333 58006 70000==
41939,2023,11,14,21,00,AAXX 14214 41939 01950 00000 10194 20180 30150 40158 70500 333 59002 70000==
41939,2023,11,15,00,00,AAXX 15004 41939 01950 00000 10190 20180 30145 40153 70500 333 59003 70000==
41939,2023,11,15,03,00,AAXX 15034 41939 02957 00000 10255 20210 30159 40167 333 20188 59009 70000==
41939,2023,11,15,06,00,AAXX 15064 41939 02/57 10000 10295 20170 30145 40153 81030 333 58000 70000 81362==
41939,2023,11,15,09,00,AAXX 15094 41939 02/57 10000 10305 20170 30123 40131 81030 333 58002 70000 81362==
41939,2023,11,15,12,00,AAXX 15124 41939 02956 00000 10250 20210 30137 40145 333 10310 58008 70000==
41939,2023,11,15,18,00,AAXX 15184 41939 01450 40000 10217 20200 30170 40178 70522 82530 333 58008 70000 82617 83365==
41939,2023,11,15,21,00,AAXX 15214 41939 02950 60000 10235 20220 30155 40163 82510 333 58005 70000 82617 86459==
41939,2023,11,16,00,00,AAXX 16004 41939 02950 80000 10235 20220 30146 40154 8352/ 333 58001 70000 83617 88459==
41939,2023,11,16,03,00,AAXX 16034 41939 02956 80000 10242 20220 30162 40170 8352/ 333 20223 58003 70000 83617 88459==
41939,2023,11,16,06,00,AAXX 16064 41939 01450 80000 10242 20230 30154 40162 76162 8352/ 333 58009 70150 83615 88459==
41939,2023,11,16,07,00,AAXX 16074 41939 01450 80000 10242 20230 30154 40162 76162 8352/ 333 58009 70150 83615 88459==
41939,2023,11,16,09,00,AAXX 16094 41939 01450 80000 10245 20240 30142 40151 76166 8352/ 333 58019 70166 83615 88459==
41939,2023,11,16,12,00,AAXX 16124 41939 21450 80000 10241 20230 30148 40156 76166 8352/ 333 10255 58011 60039 70178 83615 88458==
41939,2023,11,16,15,00,AAXX 16154 41939 01450 80000 10240 20230 30169 40178 76166 8352/ 333 58014 70190 83615 88459==
41939,2023,11,16,18,00,AAXX 16184 41939 21450 80000 10240 20230 30180 48188 76166 8352/ 333 58010 60039 70205 83615 88459==
41939,2023,11,16,21,00,AAXX 16214 41939 01450 80000 10230 20220 30157 40165 76166 8352/ 333 58002 70325 83615 88459==
41941,2023,11,10,00,00,AAXX 10004 41941 01950 00000 10210 20120 30142 40147 70500 333 58017 70000==
41941,2023,11,10,03,00,AAXX 10034 41941 02956 03603 10265 20210 30157 40162 333 20210 58010 70000==
41941,2023,11,10,06,00,AAXX 10064 41941 02957 03604 10300 20210 30143 40149 333 58013 70000==
41941,2023,11,10,09,00,AAXX 10094 41941 02957 03604 10306 20190 30120 40126 333 58006 70000==
41941,2023,11,10,12,00,AAXX 10124 41941 02940 02704 10266 20210 30122 40128 333 10315 58005 70000==
41941,2023,11,10,15,00,AAXX 10154 41941 02940 00000 10235 20220 30139 40145 333 58007 70000==
41941,2023,11,10,18,00,AAXX 10184 41941 NIL=
41941,2023,11,10,21,00,AAXX 10214 41941 02940 00000 10255 20210 30138 40143 333 58007 70000==
41941,2023,11,11,00,00,AAXX 11004 41941 01950 00000 10212 20210 30140 40146 70500 333 59002 70000==
41941,2023,11,11,03,00,AAXX 11034 41941 02956 03602 10262 20210 30164 40169 333 20208 58007 70000==
41941,2023,11,11,06,00,AAXX 11064 41941 02956 02704 10296 20210 30142 40148 333 59001 70000==
41941,2023,11,11,09,00,AAXX 11094 41941 02956 03604 10305 20180 30118 40124 333 59002 70000==
41941,2023,11,11,12,00,AAXX 11124 41941 02940 00000 10270 20190 30119 40125 333 10315 59003 70000==
41941,2023,11,11,15,00,AAXX 11154 41941 02940 00000 10240 20210 30137 40143 333 59002 70000==
41941,2023,11,11,18,00,AAXX 11184 41941 02940 00000 10230 20220 30140 40146 333 59003 70000==
41941,2023,11,11,21,00,AAXX 11214 41941 02940 00000 10226 20220 30132 40138 333 59006 70000==
41941,2023,11,12,00,00,AAXX 12004 41941 02450 60000 10214 20200 30145 40150 85420 333 58005 70000 84616 86458==
41941,2023,11,12,03,00,AAXX 12034 41941 02956 00000 10270 20200 30159 40164 333 20211 59005 70000==
41941,2023,11,12,06,00,AAXX 12064 41941 02956 02704 10300 20210 30142 40148 333 58000 70000==
41941,2023,11,12,09,00,AAXX 12094 41941 02956 03604 10310 20190 30116 40122 333 59002 70000==
41941,2023,11,12,12,00,AAXX 12124 41941 02940 00000 10265 20210 30116 40122 333 10316 59003 70000==
41941,2023,11,12,15,00,AAXX 12154 41941 02940 00000 10245 20220 30145 40151 333 58008 70000==
41941,2023,11,12,18,00,AAXX 12184 41941 02940 00000 10240 20230 30152 40158 333 58012 70000==
41941,2023,11,12,21,00,AAXX 12214 41941 02940 00000 10220 30139 40144 333 58007 70000==
41941,2023,11,13,00,00,AAXX 13004 41941 02950 00000 10220 20210 30144 40149 333 59001 70000==
41941,2023,11,13,03,00,AAXX 13034 41941 02956 03603 10270 20220 30163 40168 333 20217 58004 70000==
41941,2023,11,13,06,00,AAXX 13064 41941 02957 03104 10305 20200 30148 40154 333 58006 70000==
41941,2023,11,13,09,00,AAXX 13094 41941 02957 00000 10310 20200 30133 40139 333 58017 70000==
41941,2023,11,13,12,00,AAXX 13124 41941 02940 00000 10253 20210 30122 40128 333 10320 58006 70000==
41941,2023,11,13,15,00,AAXX 13154 41941 02940 00000 10238 20230 30139 40145 333 59006 70000==
41941,2023,11,13,18,00,AAXX 13184 41941 02940 00000 10230 20220 30148 40154 333 59004 70000==
41941,2023,11,13,21,00,AAXX 13214 41941 02950 00000 10225 20220 30144 40149 333 59005 70000==
41941,2023,11,14,00,00,AAXX 14004 41941 02950 00000 10213 20200 30142 40147 333 59002 70000==
41941,2023,11,14,03,00,AAXX 14034 41941 02956 00000 10275 20220 30160 40165 333 20212 59003 70000==
41941,2023,11,14,06,00,AAXX 14064 41941 02956 03102 10300 20210 30141 40147 333 59007 70000==
41941,2023,11,14,09,00,AAXX 14094 41941 02956 03602 10313 20180 30122 40128 333 59011 70000==
41941,2023,11,14,12,00,AAXX 14124 41941 02950 03602 10270 20190 30116 40122 333 10320 59006 70000==
41941,2023,11,14,15,00,AAXX 14154 41941 02940 00000 10237 20210 30142 40148 333 58003 70000==
41941,2023,11,14,21,00,AAXX 14214 41941 02940 00000 10225 20210 30149 40154 333 58005 70000==
41941,2023,11,15,00,00,AAXX 15004 41941 02950 00000 10225 20210 30144 40149 333 58002 70000==
41941,2023,11,15,03,00,AAXX 15034 41941 02956 00000 10285 20190 30163 40169 333 20223 58003 70000==
41941,2023,11,15,06,00,AAXX 15064 41941 02456 63103 10302 20190 30146 40152 85420 333 58005 70000 84616 86458==
41941,2023,11,15,09,00,AAXX 15094 41941 02456 63603 10318 20190 30123 40129 85420 333 58001 70000 84616 86458==
41941,2023,11,15,12,00,AAXX 15124 41941 02440 60000 10275 20220 30131 40137 85420 333 10325 58015 70000 84616 86458==
41941,2023,11,15,15,00,AAXX 15154 41941 02940 03602 10263 20240 30146 40152 333 58004 70000==
41941,2023,11,15,21,00,AAXX 15214 41941 02940 03602 10253 20220 30147 40153 333 59002 70000==
41941,2023,11,16,00,00,AAXX 16004 41941 02450 23602 10245 20220 30142 40148 82500 333 59002 70000 82618==
41941,2023,11,16,03,00,AAXX 16034 41941 02450 83602 10260 20230 30166 40172 8632/ 333 20243 58003 70000 85616 88458 81930==
41941,2023,11,16,06,00,AAXX 16064 41941 21350 81803 10240 20240 30159 40165 76562 8792/ 333 58013 60107 70100 82708 83612 88456 81924==
41941,2023,11,16,09,00,AAXX 16094 41941 01350 83602 10255 20250 30139 40145 72166 8792/ 333 58016 70130 82708 83612 88456 81924==
41941,2023,11,16,12,00,AAXX 16124 41941 11440 80000 10253 20250 30145 40151 60036 70266 8632/ 333 10290 58014 70130 85615 88458 81928==
41941,2023,11,16,15,00,AAXX 16154 41941 01440 80000 10240 20240 30155 40161 76162 8632/ 333 58009 70140 85612 88456 81924==
41941,2023,11,16,18,00,AAXX 16184 41941 21440 80000 10236 20236 30158 40163 76166 8632/ 333 58008 60027 70150 85612 88456 81924==
41941,2023,11,16,21,00,AAXX 16214 41941 01340 81804 10230 20230 30152 40158 76166 8792/ 333 58005 70210 82708 83612 88456 81924==
41943,2023,11,10,00,00,AAXX 10004 41943 01930 00000 10190 20180 30133 40140 70500 333 58014 70000==
41943,2023,11,10,03,00,AAXX 10034 41943 01930 00000 10240 20200 30151 40162 70500 333 20188 58010 70000==
41943,2023,11,10,06,00,AAXX 10064 41943 01940 00000 10300 20250 30138 40146 70500 333 58009 70000==
41943,2023,11,10,09,00,AAXX 10094 41943 01940 03602 10305 20170 30113 40121 70500 333 58007 70000==
41943,2023,11,10,12,00,AAXX 10124 41943 01930 00000 10250 20220 30116 40124 70500 333 10320 58008 70000==
41943,2023,11,10,15,00,AAXX 10154 41943 01930 00000 10240 20220 30139 40146 70500 333 58010 70000==
41943,2023,11,10,18,00,AAXX 10184 41943 01930 00000 10215 20200 30134 40142 70500 333 58002 70000==
41943,2023,11,10,21,00,AAXX 10214 41943 01930 00000 10193 20180 30133 40140 70500 333 58000 70000==
41943,2023,11,11,00,00,AAXX 11004 41943 01930 00000 10190 20180 30135 40142 70500 333 58002 70000==
41943,2023,11,11,03,00,AAXX 11034 41943 01930 00000 10240 20200 30157 40165 70500 333 20188 58003 70000==
41943,2023,11,11,06,00,AAXX 11064 41943 01930 00000 10300 20170 30139 40146 70500 333 58011 70000==
41943,2023,11,11,09,00,AAXX 11094 41943 01935 03102 10310 20150 30116 40123 70500 333 58003 70000==
41943,2023,11,11,12,00,AAXX 11124 41943 01930 00000 10265 20210 30120 40127 70500 333 10320 58013 70000==
41943,2023,11,11,15,00,AAXX 11154 41943 01930 00000 10240 20220 30140 40147 70500 333 58001 70000==
41943,2023,11,11,18,00,AAXX 11184 41943 01930 00000 10222 20210 30135 40142 70500 333 58001 70000==
41943,2023,11,11,21,00,AAXX 11214 41943 01930 00000 10210 20190 30134 40141 70500 333 58001 70000==
41943,2023,11,12,00,00,AAXX 12004 41943 01930 00000 10185 20180 30140 40147 70500 333 58005 70000==
41943,2023,11,12,03,00,AAXX 12034 41943 01930 03602 10260 20200 30162 40169 70500 333 20185 58005 70000==
41943,2023,11,12,06,00,AAXX 12064 41943 01435 23102 10310 20170 30140 40147 70511 82500 333 58001 70000 82618==
41943,2023,11,12,09,00,AAXX 12094 41943 01935 03602 10305 20170 30116 40123 70500 333 58000 70000==
41943,2023,11,12,12,00,AAXX 12124 41943 01930 00000 10260 20200 30120 40127 70500 333 10322 58000 70000==
41943,2023,11,12,15,00,AAXX 12154 41943 01930 00000 10240 20210 30144 40151 70500 333 58004 70000==
41943,2023,11,12,18,00,AAXX 12184 41943 01930 00000 10204 20190 30141 40148 70500 333 58006 70000==
41943,2023,11,12,21,00,AAXX 12214 41943 01930 00000 10195 20190 30137 40144 70500 333 58003 70000==
41943,2023,11,13,00,00,AAXX 13004 41943 01930 00000 10180 20170 30139 40146 70500 333 59001 70000==
41943,2023,11,13,03,00,AAXX 13034 41943 01935 00000 10260 20200 30157 40164 70500 333 20180 59005 70000==
41943,2023,11,13,06,00,AAXX 13064 41943 01935 03103 10314 20170 30138 40145 70500 333 59002 70000==
41943,2023,11,13,09,00,AAXX 13094 41943 01940 00000 10332 20180 30113 40120 70500 333 59003 70000==
41943,2023,11,13,12,00,AAXX 13124 41943 01930 00000 10268 20220 30119 40126 70500 333 10335 59001 70000==
41943,2023,11,13,15,00,AAXX 13154 41943 01930 00000 10240 20220 30139 40146 70500 333 59005 70000==
41943,2023,11,13,18,00,AAXX 13184 41943 01930 00000 10215 20210 30142 40149 70500 333 59001 70000==
41943,2023,11,13,21,00,AAXX 13214 41943 01930 40000 10185 20180 30140 40148 70522 84001 333 58001 70000 84080==
41943,2023,11,14,00,00,AAXX 14004 41943 01930 40000 10185 20180 30140 40148 70522 84001 333 58001 70000 84080==
41943,2023,11,14,03,00,AAXX 14034 41943 01940 00000 10268 20200 30160 40167 70520 333 20185 58003 70000==
41943,2023,11,14,06,00,AAXX 14064 41943 01935 43602 10320 20180 30138 40145 70522 84001 333 58000 70000 84080==
41943,2023,11,14,09,00,AAXX 14094 41943 01935 33102 10325 20200 30112 40119 70511 83001 333 59001 70000 83080==
41943,2023,11,14,12,00,AAXX 14124 41943 01930 30000 10275 20220 30119 40126 70511 83001 333 10347 58000 70000 83080==
41943,2023,11,14,15,00,AAXX 14154 41943 01930 00000 10240 20220 30138 40145 70500 333 59001 70000==
41943,2023,11,14,18,00,AAXX 14184 41943 01930 00000 10225 20220 30142 40149 70500 333 58000 70000==
41943,2023,11,14,21,00,AAXX 14214 41943 01930 00000 10220 20210 30141 40148 70500 333 58004 70000==
41943,2023,11,15,00,00,AAXX 15004 41943 01930 00000 10210 20200 30139 40145 70500 333 59001 70000==
41943,2023,11,15,03,00,AAXX 15034 41943 01435 50000 10275 20200 30155 40162 70522 81530 333 20205 59005 70000 81618 84362==
41943,2023,11,15,06,00,AAXX 15064 41943 31940 40000 10310 20210 30140 40147 70522 84030 333 56090 59002 70000 84362=
41943,2023,11,15,09,00,AAXX 15094 41943 01440 50000 10325 20210 30117 40124 70522 83530 333 59006 70000 82618 84362==
41943,2023,11,15,12,00,AAXX 15124 41943 01435 50000 10278 20240 30129 40136 70522 82530 333 10340 58010 70000 82616 83362==
41943,2023,11,15,15,00,AAXX 15154 41943 01935 40000 10258 20240 30145 40152 70522 81530 333 58007 70000 81616 83362==
41943,2023,11,15,18,00,AAXX 15184 41943 01935 00000 10248 20230 30140 40147 70520 333 59002 70000==
41943,2023,11,15,21,00,AAXX 15214 41943 01430 60000 10240 20220 30138 40145 70522 83520 333 59003 70000 83616 84458==
41943,2023,11,16,00,00,AAXX 16004 41943 01330 80000 10238 20230 30136 40143 70522 8662/ 333 59003 70000 83710 84615 87457==
41943,2023,11,16,03,00,AAXX 16034 41943 01430 80000 10250 20230 30154 40161 70522 8662/ 333 20238 59001 70000 83710 84615 88458==
41943,2023,11,16,06,00,AAXX 16064 41943 02335 81802 10265 20230 30151 40158 8661/ 333 59004 70000 83710 84615 88457==
41943,2023,11,16,09,00,AAXX 16094 41943 02430 80000 10260 20230 30142 40149 8662/ 333 58025 70000 83710 84615 88458==
41943,2023,11,16,12,00,AAXX 16124 41943 01330 80902 10244 20220 30149 40156 76162 8662/ 333 10280 58020 70010 83709 84615 88457==
41943,2023,11,16,15,00,AAXX 16154 41943 01330 81101 10235 20220 30167 40174 72166 8672/ 333 58022 70018 83709 84615 88457==
41943,2023,11,16,18,00,AAXX 16184 41943 11330 80000 10230 20220 30157 40164 60029 76166 8772/ 333 56499 58017 70028 84709 84613 88456=
41943,2023,11,16,21,00,AAXX 16214 41943 01330 80902 10210 20200 30150 40157 76166 8772/ 333 58012 70128 84709 85614 88457==
41944,2023,11,10,06,00,AAXX 10064 41944 NIL=
41944,2023,11,10,12,00,AAXX 10124 41944 NIL=
41944,2023,11,10,18,00,AAXX 10184 41944 NIL=
41944,2023,11,11,06,00,AAXX 11064 41944 NIL=
41944,2023,11,11,12,00,AAXX 11124 41944 NIL=
41944,2023,11,11,18,00,AAXX 11184 41944 NIL=
41944,2023,11,12,00,00,AAXX 12004 41944 NIL=
41944,2023,11,12,06,00,AAXX 12064 41944 NIL=
41944,2023,11,12,12,00,AAXX 12124 41944 NIL=
41944,2023,11,13,06,00,AAXX 13064 41944 NIL=
41944,2023,11,13,18,00,AAXX 13184 41944 NIL=
41944,2023,11,14,06,00,AAXX 14064 41944 NIL=
41944,2023,11,15,06,00,AAXX 15064 41944 NIL=
41944,2023,11,15,12,00,AAXX 15124 41944 NIL=
41944,2023,11,16,06,00,AAXX 16064 41944 NIL=
41944,2023,11,16,12,00,AAXX 16124 41944 NIL=
41944,2023,11,16,18,00,AAXX 16184 41944 NIL=
41946,2023,11,10,00,00,AAXX 10004 41946 01940 00000 10200 20190 30140 40144 70500 333 58000 70000==
41946,2023,11,10,03,00,AAXX 10034 41946 01950 00000 10240 20210 30165 40170 70500 333 20195 58008 70000==
41946,2023,11,10,06,00,AAXX 10064 41946 02956 03402 10300 20190 30148 40152 333 58007 70000==
41946,2023,11,10,09,00,AAXX 10094 41946 02956 00000 10310 20170 30127 40132 333 58009 70000==
41946,2023,11,10,12,00,AAXX 10124 41946 02956 00000 10237 20220 30136 40141 333 10310 58012 70000==
41946,2023,11,10,15,00,AAXX 10154 41946 02956 00000 10217 20200 30151 40156 333 58011 70000==
41946,2023,11,10,18,00,AAXX 10184 41946 02956 00000 10208 20200 30149 40154 333 58009 70000==
41946,2023,11,10,21,00,AAXX 10214 41946 01950 00000 10204 20190 30141 40146 70500 333 58010 70000==
41946,2023,11,11,00,00,AAXX 11004 41946 01950 00000 10196 20190 30151 40156 70500 333 58011 70000==
41946,2023,11,11,03,00,AAXX 11034 41946 02956 00000 10260 20150 30175 40180 333 20190 58010 70000==
41946,2023,11,11,06,00,AAXX 11064 41946 02956 00000 10295 20190 30157 40162 333 58009 70000==
41946,2023,11,11,09,00,AAXX 11094 41946 02956 03202 10302 20190 30125 40130 333 59002 70000==
41946,2023,11,11,12,00,AAXX 11124 41946 02956 00000 10255 20240 30130 40134 333 10304 59006 70000==
41946,2023,11,11,15,00,AAXX 11154 41946 02956 00000 10234 20220 30148 40153 333 59003 70000==
41946,2023,11,11,18,00,AAXX 11184 41946 01950 00000 10222 20210 30150 40155 70500 333 58001 70000==
41946,2023,11,11,21,00,AAXX 11214 41946 01950 00000 10213 20200 30136 40141 70500 333 59005 70000==
41946,2023,11,12,00,00,AAXX 12004 41946 01950 03502 10204 20190 30145 40150 70500 333 59006 70000==
41946,2023,11,12,03,00,AAXX 12034 41946 02956 00000 10265 20210 30179 40184 333 20190 58004 70000==
41946,2023,11,12,06,00,AAXX 12064 41946 02956 03602 10295 20200 30156 40161 333 59001 70000==
41946,2023,11,12,09,00,AAXX 12094 41946 02957 03503 10310 20170 30130 40135 333 58005 70000==
41946,2023,11,12,12,00,AAXX 12124 41946 02956 00000 10252 20210 30137 40142 333 10312 58007 70000==
41946,2023,11,12,15,00,AAXX 12154 41946 02956 00000 10225 20210 30155 40160 333 58007 70000==
41946,2023,11,12,18,00,AAXX 12184 41946 02956 00000 10214 20200 30154 40159 333 58004 70000==
41946,2023,11,12,21,00,AAXX 12214 41946 01950 00000 10206 20200 30148 40153 70500 333 58012 70000==
41946,2023,11,13,00,00,AAXX 13004 41946 01950 00000 10199 20190 30159 40164 70500 333 58014 70000==
41946,2023,11,13,03,00,AAXX 13034 41946 02956 00000 10260 20200 30175 40180 333 20194 59004 70000==
41946,2023,11,13,06,00,AAXX 13064 41946 02956 03604 10300 20190 30155 40160 333 59001 70000==
41946,2023,11,13,09,00,AAXX 13094 41946 02956 00000 10313 20170 30127 40132 333 59003 70000==
41946,2023,11,13,12,00,AAXX 13124 41946 02956 00000 10250 20220 30135 40140 333 10313 59002 70000==
41946,2023,11,13,15,00,AAXX 13154 41946 02956 00000 10221 20200 30151 40156 333 59004 70000==
41946,2023,11,13,18,00,AAXX 13184 41946 01950 00000 10210 20200 30155 40160 70500 333 58001 70000==
41946,2023,11,13,21,00,AAXX 13214 41946 01950 00000 10204 20190 30149 40154 70500 333 58001 70000==
41946,2023,11,14,00,00,AAXX 14004 41946 01950 33602 10200 20190 30151 40156 70500 80001 333 59008 70000 83080==
41946,2023,11,14,03,00,AAXX 14034 41946 02956 30000 10255 20210 30174 40179 80001 333 20192 59001 70000 83080==
41946,2023,11,14,06,00,AAXX 14064 41946 02956 43103 10300 20180 30149 40154 80001 333 59006 70000 84080==
41946,2023,11,14,09,00,AAXX 14094 41946 02956 03202 10318 20180 30122 40127 80001 333 59005 70000 82080==
41946,2023,11,14,12,00,AAXX 14124 41946 02/56 50000 10255 20240 30128 40132 82031 333 10320 59007 70000 82362 84080==
41946,2023,11,14,15,00,AAXX 14154 41946 02956 00000 10226 20210 30150 40154 333 59001 70000==
41946,2023,11,14,18,00,AAXX 14184 41946 02956 30000 10210 20200 30151 40156 80001 333 59004 70000==
41946,2023,11,14,21,00,AAXX 14214 41946 01950 30000 10205 20200 30146 40153 70500 80001 333 59003 70000 83080==
41946,2023,11,15,00,00,AAXX 15004 41946 01/50 50000 10200 20190 30151 40156 70520 82031 333 58000 70000 82362 84080==
41946,2023,11,15,03,00,AAXX 15034 41946 02956 40000 10260 20200 30169 40174 80001 333 20198 59005 70000 84080==
41946,2023,11,15,06,00,AAXX 15064 41946 02956 40000 10300 20190 30154 40159 80001 333 58005 70000 84080==
41946,2023,11,15,09,00,AAXX 15094 41946 02456 63601 10312 20140 30128 40133 82570 333 58006 70000 82618 84362==
41946,2023,11,15,12,00,AAXX 15124 41946 02456 50000 10263 20220 30139 40144 82530 333 10319 58011 70000 82618 83362==
41946,2023,11,15,15,00,AAXX 15154 41946 02/56 30000 10242 20220 30148 40153 83050 333 59002 70000 83360==
41946,2023,11,15,18,00,AAXX 15184 41946 02556 50000 10238 20230 30145 40150 82530 333 59006 70000 82620 84360==
41946,2023,11,15,21,00,AAXX 15214 41946 02/56 40000 10240 20220 30134 40139 84070 333 59012 70000 82459 83360==
41946,2023,11,16,00,00,AAXX 16004 41946 02/56 60403 10242 20190 30140 40144 86020 333 59011 70000 86459==
41946,2023,11,16,03,00,AAXX 16034 41946 02456 80000 10250 20200 30172 40177 8351/ 333 20230 58003 70000 83618 88460==
41946,2023,11,16,06,00,AAXX 16064 41946 02456 80000 10260 20200 30154 40159 8352/ 333 58000 70000 83618 88460==
41946,2023,11,16,09,00,AAXX 16094 41946 41350 80000 10256 20220 30141 40146 76122 8472/ 333 58013 81710 83617 88459==
41946,2023,11,16,12,00,AAXX 16124 41946 21350 80000 10245 20230 30144 40149 76166 8472/ 333 10262 58005 69927 70002 81710 83617 88459==
41946,2023,11,16,15,00,AAXX 16154 41946 01456 80000 10241 20230 30162 40167 70262 8352/ 333 58014 70010 83618 88460==
41946,2023,11,16,18,00,AAXX 16184 41946 11456 80403 10243 20230 30144 40149 60016 70262 8352/ 333 59001 70010 83618 88460==
41946,2023,11,16,21,00,AAXX 16214 41946 02456 83605 10236 20220 30124 40129 8352/ 333 59010 70010 83618 88460==
41947,2023,11,10,00,00,AAXX 10004 41947 01950 00000 10200 20190 30126 40128 70500 333 58002 70000==
41947,2023,11,10,03,00,AAXX 10034 41947 01950 00000 10255 20200 30158 40161 70500 333 20195 58011 70000==
41947,2023,11,10,06,00,AAXX 10064 41947 02956 00000 10300 20180 30150 40153 333 58015 70000==
41947,2023,11,10,09,00,AAXX 10094 41947 02956 00000 10308 20170 30121 40123 333 58011 70000==
41947,2023,11,10,12,00,AAXX 10124 41947 02950 00000 10258 20200 30125 40127 333 10312 58010 70000==
41947,2023,11,10,15,00,AAXX 10154 41947 02950 00000 10230 20220 30146 40148 333 58011 70000==
41947,2023,11,10,18,00,AAXX 10184 41947 01950 00000 10227 20220 30147 40149 70500 333 58015 70000==
41947,2023,11,10,21,00,AAXX 10214 41947 01950 00000 10220 20210 30148 40150 70500 333 58026 70000==
41947,2023,11,11,00,00,AAXX 11004 41947 01950 00000 10210 20200 30148 40150 70500 333 58022 70000==
41947,2023,11,11,03,00,AAXX 11034 41947 01950 00000 10253 20190 30152 40155 70500 333 20195 59006 70000==
41947,2023,11,11,06,00,AAXX 11064 41947 02956 00000 10300 20180 30140 40143 333 59010 70000==
41947,2023,11,11,09,00,AAXX 11094 41947 02956 00000 10310 20190 30123 40125 333 58002 70000==
41947,2023,11,11,12,00,AAXX 11124 41947 02950 00000 10260 20210 30130 40132 333 10312 58005 70000==
41947,2023,11,11,15,00,AAXX 11154 41947 02950 00000 10232 20210 30146 40048 333 58000 70000==
41947,2023,11,11,18,00,AAXX 11184 41947 01950 00000 10228 20220 30147 40149 70500 333 58000 70000==
41947,2023,11,11,21,00,AAXX 11214 41947 01950 00000 10205 20200 30148 40150 70500 333 58000 70000==
41947,2023,11,12,00,00,AAXX 12004 41947 01950 00000 10200 20200 30150 40152 70500 333 58002 70000==
41947,2023,11,12,03,00,AAXX 12034 41947 01950 00000 10265 20200 30161 40164 70500 333 20198 58009 70000==
41947,2023,11,12,06,00,AAXX 12064 41947 02956 00000 10300 20180 30140 40143 333 58000 70000==
41947,2023,11,12,09,00,AAXX 12094 41947 02956 00000 10310 20170 30123 40125 333 58000 70000==
41947,2023,11,12,12,00,AAXX 12124 41947 02956 00000 10260 20210 30130 40132 333 10315 58000 70000==
41947,2023,11,12,15,00,AAXX 12154 41947 01950 00000 10235 20210 30149 40152 70500 333 58004 70000==
41947,2023,11,12,18,00,AAXX 12184 41947 01950 00000 10218 20200 30148 40151 70500 333 58002 70000==
41947,2023,11,12,21,00,AAXX 12214 41947 01950 00000 10210 20200 30142 40144 70500 333 59006 70000==
41947,2023,11,13,00,00,AAXX 13004 41947 01950 00000 10204 20190 30146 40149 70500 333 59003 70000==
41947,2023,11,13,03,00,AAXX 13034 41947 01950 00000 10266 20210 30160 40163 70500 333 20198 59001 70000==
41947,2023,11,13,06,00,AAXX 13064 41947 02956 00000 10300 20190 30147 40150 333 58007 70000==
41947,2023,11,13,09,00,AAXX 13094 41947 02950 00000 10312 20190 30121 40123 333 59002 70000==
41947,2023,11,13,12,00,AAXX 13124 41947 01950 00000 10270 20200 30125 40127 70500 333 10313 59005 70000==
41947,2023,11,13,15,00,AAXX 13154 41947 01950 00000 10238 20220 30141 40144 70500 333 59008 70000==
41947,2023,11,13,18,00,AAXX 13184 41947 01950 00000 10218 20200 30146 40151 70500 333 59002 70000==
41947,2023,11,13,21,00,AAXX 13214 41947 41950 00000 10210 20200 30144 40147 70500 333 58003==
41947,2023,11,14,00,00,AAXX 14004 41947 01950 00000 10200 20200 30141 40143 70500 333 59006 70000==
41947,2023,11,14,03,00,AAXX 14034 41947 01950 00000 10260 20210 30161 40164 70500 333 20196 58001 70000==
41947,2023,11,14,06,00,AAXX 14064 41947 02456 30000 10310 20150 30148 40150 83500 333 58000 70000 83618==
41947,2023,11,14,09,00,AAXX 14094 41947 02456 20000 10320 20180 30119 40121 82500 333 59002 70000 82618==
41947,2023,11,14,12,00,AAXX 14124 41947 02950 00000 10265 20210 30129 40131 333 10322 58004 70000==
41947,2023,11,14,15,00,AAXX 14154 41947 02950 00000 10240 20220 30146 40148 333 58004 70000==
41947,2023,11,14,18,00,AAXX 14184 41947 01950 00000 10235 20230 30146 40148 70500 333 59001 70000==
41947,2023,11,14,21,00,AAXX 14214 41947 01950 00000 10215 20210 30147 40149 70500 333 58002 70000==
41947,2023,11,15,00,00,AAXX 15004 41947 01950 00000 10208 20200 30146 40148 70500 333 58005 70000==
41947,2023,11,15,03,00,AAXX 15034 41947 01450 40000 10275 20200 30148 40150 70520 84400 333 20202 59014 70000 81618 83820==
41947,2023,11,15,06,00,AAXX 15064 41947 02456 40000 10310 20170 30137 40140 84400 333 59010 70000 81618 83820==
41947,2023,11,15,09,00,AAXX 15094 41947 02456 50000 10320 20170 30122 40124 82530 333 58004 70000 82618 83362==
41947,2023,11,15,12,00,AAXX 15124 41947 02450 70000 10280 20190 30126 40128 83510 333 10325 59003 70000 83618 87458==
41947,2023,11,15,15,00,AAXX 15154 41947 02950 00000 10248 20220 30147 40149 333 58001 70000==
41947,2023,11,15,18,00,AAXX 15184 41947 02950 00000 10242 20220 30151 40153 333 58005 70000==
41947,2023,11,15,21,00,AAXX 15214 41947 02450 30000 10242 20210 30148 40150 83500 333 58001 70000 83618==
41947,2023,11,16,00,00,AAXX 16004 41947 01450 60000 10240 20200 30137 40139 70522 83530 333 59009 70000 83616 84362==
41947,2023,11,16,03,00,AAXX 16034 41947 01450 80000 10250 20200 30152 40154 70522 8352/ 333 20235 58004 70000 83618 88458==
41947,2023,11,16,06,00,AAXX 16064 41947 02450 80000 10262 20210 30147 40150 8352/ 333 58010 70000 83618 88458==
41947,2023,11,16,09,00,AAXX 16094 41947 02456 80000 10256 20240 30137 40139 8352/ 333 58015 70000 83618 88458==
41947,2023,11,16,12,00,AAXX 16124 41947 01340 80000 10245 20240 30144 40147 76162 8472/ 333 10265 58019 70006 82709 83616 88458==
41947,2023,11,16,15,00,AAXX 16154 41947 01340 80902 10242 20230 30160 40163 76166 8572/ 333 58014 70026 82709 84616 88458==
41947,2023,11,16,18,00,AAXX 16184 41947 21456 80903 10236 20230 30138 40141 70262 8352/ 333 59012 60028 70030 83618 88458==
41947,2023,11,16,21,00,AAXX 16214 41947 02456 80902 10234 20220 30130 40132 8352/ 333 59016 70030 83618 88458==
41950,2023,11,10,00,00,AAXX 10004 41950 01935 00000 10185 20185 30137 40139 70500 333 58009 70000==
41950,2023,11,10,03,00,AAXX 10034 41950 01940 00000 10252 20230 30164 40166 70500 333 20183 58015 70000==
41950,2023,11,10,06,00,AAXX 10064 41950 02950 00000 10308 20170 30150 40153 333 58015 70000==
41950,2023,11,10,09,00,AAXX 10094 41950 02950 00000 10310 20180 30121 40124 333 58007 70000==
41950,2023,11,10,12,00,AAXX 10124 41950 02950 00000 10234 20220 30127 40130 333 10315 58007 70000==
41950,2023,11,10,15,00,AAXX 10154 41950 01940 00000 10212 20210 30142 40145 70500 333 58005 70000==
41950,2023,11,10,18,00,AAXX 10184 41950 01940 00000 10205 20205 30144 40147 70500 333 58010 70000==
41950,2023,11,10,21,00,AAXX 10214 41950 01940 00000 10182 20182 30142 40145 70500 333 58008 70000==
41950,2023,11,11,00,00,AAXX 11004 41950 01930 00000 10180 20180 30142 40145 70500 333 58008 70000==
41950,2023,11,11,03,00,AAXX 11034 41950 01950 00000 10260 20210 30167 40169 70500 333 20178 58003 70000==
41950,2023,11,11,06,00,AAXX 11064 41950 02/50 13202 10309 20170 30145 40148 81030 333 59005 70000 81362==
41950,2023,11,11,09,00,AAXX 11094 41950 02956 00000 10314 20180 30123 40126 333 58002 70000==
41950,2023,11,11,12,00,AAXX 11124 41950 02950 00000 10234 20210 30128 40131 333 10316 58001 70000==
41950,2023,11,11,15,00,AAXX 11154 41950 02950 00000 10210 20210 30148 40151 333 58006 70000==
41950,2023,11,11,18,00,AAXX 11184 41950 01940 00000 10202 20202 30145 40148 70500 333 58001 70000==
41950,2023,11,11,21,00,AAXX 11214 41950 01940 00000 10190 20190 30140 40142 70500 333 59002 70000==
41950,2023,11,12,00,00,AAXX 12004 41950 01935 00000 10185 20185 30142 40144 70500 333 58000 70000==
41950,2023,11,12,03,00,AAXX 12034 41950 01940 00000 10256 20220 30166 40168 70500 333 20184 59001 70000==
41950,2023,11,12,06,00,AAXX 12064 41950 02950 00000 10306 20190 30150 40153 333 58005 70000==
41950,2023,11,12,09,00,AAXX 12094 41950 02950 00000 10310 20190 30121 40124 333 59002 70000==
41950,2023,11,12,12,00,AAXX 12124 41950 02950 00000 10242 20220 30131 40134 333 10315 58003 70000==
41950,2023,11,12,15,00,AAXX 12154 41950 02950 00000 10220 20210 30150 40153 333 58002 70000==
41950,2023,11,12,18,00,AAXX 12184 41950 02950 00000 10205 20205 30146 40149 333 58001 70000==
41950,2023,11,12,21,00,AAXX 12214 41950 02950 00000 10193 20193 30143 40145 333 58003 70000==
41950,2023,11,13,00,00,AAXX 13004 41950 01940 00000 10187 20187 30146 40149 70500 333 58004 70000==
41950,2023,11,13,03,00,AAXX 13034 41950 01940 00000 10270 20210 30164 40166 70500 333 20183 59002 70000==
41950,2023,11,13,06,00,AAXX 13064 41950 02950 00000 10310 20190 30146 40149 333 59004 70000==
41950,2023,11,13,09,00,AAXX 13094 41950 02/50 20000 10306 20200 30126 40129 82030 333 58005 70000 82362==
41950,2023,11,13,12,00,AAXX 13124 41950 02950 10000 10238 20230 30128 40131 80001 333 10322 59003 70000 81040==
41950,2023,11,13,15,00,AAXX 13154 41950 01945 00000 10219 20219 30144 40147 70500 333 59006 70000==
41950,2023,11,13,18,00,AAXX 13184 41950 01945 00000 10205 20205 30146 40149 70500 333 58000 70000==
41950,2023,11,13,21,00,AAXX 13214 41950 01935 10000 10190 20190 30144 40146 70500 80001 333 59002 70000 81080==
41950,2023,11,14,00,00,AAXX 14004 41950 01935 10000 10190 20190 30144 40146 70500 80001 333 59002 70000 81080==
41950,2023,11,14,03,00,AAXX 14034 41950 01945 20000 10269 20210 30162 40164 70511 80001 333 20186 59002 70000 82080==
41950,2023,11,14,06,00,AAXX 14064 41950 02950 30000 10304 20190 30141 40144 80001 333 59005 70000 83080==
41950,2023,11,14,09,00,AAXX 14094 41950 02956 20000 10319 20180 30120 40123 80001 333 59006 70000 82080==
41950,2023,11,14,12,00,AAXX 14124 41950 02950 40000 10240 20220 30128 40131 80001 333 10327 58000 70000 84080==
41950,2023,11,14,15,00,AAXX 14154 41950 02950 00000 10220 20220 30145 40148 333 58001 70000==
41950,2023,11,14,18,00,AAXX 14184 41950 01940 00000 10210 20210 30147 40150 70510 333 58001 70000==
41950,2023,11,14,21,00,AAXX 14214 41950 01940 20000 10205 20205 30142 40145 70500 333 58002 70000 82500 82617==
41950,2023,11,15,00,00,AAXX 15004 41950 01/40 20000 10197 20197 30147 40149 70510 81031 333 58003 70000 81362==
41950,2023,11,15,03,00,AAXX 15034 41950 01/45 60000 10246 20220 30162 40164 70521 83031 333 20195 58000 70000 83362 84080==
41950,2023,11,15,06,00,AAXX 15064 41950 32450 63602 10309 20200 30144 40147 81531 333 56999 58003 70000 81617 83362 85080=
41950,2023,11,15,09,00,AAXX 15094 41950 02450 50000 10310 20190 30123 40126 81531 333 58003 70000 81617 83362==
41950,2023,11,15,12,00,AAXX 15124 41950 02450 40000 10254 20230 30137 40140 81531 333 10322 58009 70000 81617==
41950,2023,11,15,15,00,AAXX 15154 41950 02450 40000 10243 20240 30150 40153 82530 333 58005 70000 82617==
41950,2023,11,15,18,00,AAXX 15184 41950 02450 50000 10240 20240 30150 40153 83530 333 58003 70000 83617==
41950,2023,11,15,21,00,AAXX 15214 41950 02450 70000 10234 20220 30142 40145 83510 333 58000 70000 83617 84459==
41950,2023,11,16,00,00,AAXX 16004 41950 02350 80000 10234 20220 30142 40145 8562/ 333 59005 70000 82708 84616 88458==
41950,2023,11,16,03,00,AAXX 16034 41950 02350 80000 10248 20230 30163 40166 8562/ 333 20230 58001 70000 82708 84616 88458==
41950,2023,11,16,06,00,AAXX 16064 41950 01340 80000 10256 20240 30153 40156 76122 8572/ 333 58009 70001 82708 84616 88458==
41950,2023,11,16,09,00,AAXX 16094 41950 01340 80000 10256 20240 30140 40143 76122 8572/ 333 58017 70004 82708 84616 88458==
41950,2023,11,16,12,00,AAXX 16124 41950 21340 80000 10238 20230 30146 40149 76162 8572/ 333 10266 58007 60027 70018 82708 84616 88458==
41950,2023,11,16,15,00,AAXX 16154 41950 01340 80000 10233 20230 30166 40169 76166 8572/ 333 58016 70035 82708 84616 88458==
41950,2023,11,16,18,00,AAXX 16184 41950 11340 80902 10234 20220 30146 40149 60049 76166 8572/ 333 56199 59004 70062 82708 84616 88458=
41950,2023,11,16,21,00,AAXX 16214 41950 01320 80603 10227 20227 30131 40134 76166 8672/ 333 59011 70182 83707 84615 88458==
41951,2023,11,10,00,00,AAXX 10004 41951 01940 00000 10199 20199 30130 40135 70500 333 58013 70000==
41951,2023,11,10,03,00,AAXX 10034 41951 01950 03102 10252 20220 30150 40155 70500 333 20195 58011 70000==
41951,2023,11,10,06,00,AAXX 10064 41951 02956 00503 10308 20190 30142 40147 333 58012 70000==
41951,2023,11,10,09,00,AAXX 10094 41951 02956 03202 10320 20190 30116 40120 333 58009 70000==
41951,2023,11,10,12,00,AAXX 10124 41951 01950 00000 10240 20220 30116 40121 70500 333 10322 58009 70000==
41951,2023,11,10,15,00,AAXX 10154 41951 01940 00000 10218 20218 30140 40145 70500 333 58007 70000==
41951,2023,11,10,18,00,AAXX 10184 41951 01935 00000 10210 20210 30145 40150 70500 333 58010 70000==
41951,2023,11,10,21,00,AAXX 10214 41951 01930 00000 10206 20206 30134 40139 71000 333 58001 70000==
41951,2023,11,11,00,00,AAXX 11004 41951 01935 00000 10191 20190 30132 40137 70500 333 58002 70000==
41951,2023,11,11,03,00,AAXX 11034 41951 01950 03102 10256 20230 30153 40158 70500 333 20188 58003 70000==
41951,2023,11,11,06,00,AAXX 11064 41951 02456 33003 10318 20210 30139 40144 83500 333 59003 70000 83618==
41951,2023,11,11,09,00,AAXX 11094 41951 02956 02802 10310 20210 30120 40125 333 58004 70000==
41951,2023,11,11,12,00,AAXX 11124 41951 01940 00000 10243 20230 30127 40132 70500 333 10320 58011 70000==
41951,2023,11,11,18,00,AAXX 11184 41951 01935 00000 10214 20210 30147 40152 70500 333 58002 70000==
41951,2023,11,11,21,00,AAXX 11214 41951 01930 00000 10206 20206 30143 40148 71000 333 58009 70000==
41951,2023,11,12,00,00,AAXX 12004 41951 01430 30000 10200 20200 30143 40148 71000 83500 333 58011 70000 83618==
41951,2023,11,12,03,00,AAXX 12034 41951 02956 00502 10293 20230 30163 40168 333 20195 58010 70000==
41951,2023,11,12,06,00,AAXX 12064 41951 02956 03503 10308 20180 30146 40151 333 58007 70000==
41951,2023,11,12,09,00,AAXX 12094 41951 02956 02102 10308 20210 30122 40127 333 58002 70000==
41951,2023,11,12,12,00,AAXX 12124 41951 01940 00000 10240 20230 30128 40133 70500 333 10316 58001 70000==
41951,2023,11,12,15,00,AAXX 12154 41951 01940 00000 10226 20226 30145 40150 70500 333 58000 70000==
41951,2023,11,12,18,00,AAXX 12184 41951 01935 00000 10216 20216 30149 40154 70500 333 58002 70000==
41951,2023,11,12,21,00,AAXX 12214 41951 01925 00000 10207 20207 30143 40148 71000 333 58000 70000==
41951,2023,11,13,00,00,AAXX 13004 41951 01925 00000 10200 20200 30147 40152 71000 333 58004 70000==
41951,2023,11,13,03,00,AAXX 13034 41951 01940 02102 10278 20230 30161 40166 70500 333 20194 59002 70000==
41951,2023,11,13,06,00,AAXX 13064 41951 02456 23303 10310 20210 30142 40147 82500 333 59004 70000 82618==
41951,2023,11,13,09,00,AAXX 13094 41951 02956 03302 10318 20210 30122 40126 333 58000 70000==
41951,2023,11,13,15,00,AAXX 13154 41951 01935 00000 10222 20220 30139 40144 70500 333 59006 70000==
41951,2023,11,13,18,00,AAXX 13184 41951 01935 00000 10215 20215 30144 40149 70500 333 59005 70000==
41951,2023,11,13,21,00,AAXX 13214 41951 01930 00000 10206 20206 30137 40142 71000 333 59006 70000==
41951,2023,11,14,00,00,AAXX 14004 41951 01430 20000 10202 20200 30139 40144 71000 82500 333 59008 70000 82618==
41951,2023,11,14,03,00,AAXX 14034 41951 02450 40502 10287 20230 30160 40165 82508 333 20196 59001 70000 82618 83278==
41951,2023,11,14,06,00,AAXX 14064 41951 02456 43502 10320 20210 30142 40147 82508 333 58000 70000 82618 83278==
41951,2023,11,14,09,00,AAXX 14094 41951 02456 50000 10327 20200 30119 40124 82510 333 59003 70000 82618 84459==
41951,2023,11,14,12,00,AAXX 14124 41951 01940 00000 10247 20230 30125 40130 70500 333 10330 58002 70000==
41951,2023,11,14,15,00,AAXX 14154 41951 01940 00000 10230 20220 30143 40148 70500 333 58004 70000==
41951,2023,11,14,18,00,AAXX 14184 41951 01940 00000 10224 20220 30143 40148 70500 333 59001 70000==
41951,2023,11,14,21,00,AAXX 14214 41951 01440 30000 10216 20216 30135 40140 70500 83500 333 59002 70000 83618==
41951,2023,11,15,00,00,AAXX 15004 41951 01440 50000 10210 20210 30136 40141 70520 82510 333 59003 70000 82618 84459==
41951,2023,11,15,03,00,AAXX 15034 41951 02450 60502 10277 20230 30151 40156 83510 333 20205 59009 70000 83618 85459==
41951,2023,11,15,06,00,AAXX 15064 41951 02456 60502 10312 20200 30142 40147 83510 333 58000 70000 83618 85459==
41951,2023,11,15,09,00,AAXX 15094 41951 02456 60000 10316 20230 30120 40124 83510 333 58001 70000 83618 85459==
41951,2023,11,15,12,00,AAXX 15124 41951 02450 60000 10262 20240 30128 40133 83510 333 10324 58003 70000 83618 85459==
41951,2023,11,15,15,00,AAXX 15154 41951 01440 70000 10250 20240 30145 40150 70522 83510 333 58002 70000 83618 86459==
41951,2023,11,15,21,00,AAXX 15214 41951 01340 80000 10244 20230 30135 40140 70522 8562/ 333 58000 70000 81708 84618 88459==
41951,2023,11,16,00,00,AAXX 16004 41951 01340 80000 10245 20245 30132 40137 70522 8562/ 333 59004 70000 81708 84618 88459==
41951,2023,11,16,03,00,AAXX 16034 41951 02340 80000 10260 20240 30157 40162 8562/ 333 20240 58006 70000 81708 84618 88459==
41951,2023,11,16,06,00,AAXX 16064 41951 01340 81902 10265 20250 30153 40158 72162 8562/ 333 58011 70010 81708 84618 88458==
41951,2023,11,16,09,00,AAXX 16094 41951 01340 80000 10260 20250 30137 40142 76122 8672/ 333 58017 70013 82706 84616 88458==
41951,2023,11,16,12,00,AAXX 16124 41951 01340 80000 10238 20220 30138 40143 76162 8672/ 333 10270 58010 70019 82706 84616 88458==
41951,2023,11,16,15,00,AAXX 16154 41951 01330 80502 10240 20240 30165 40170 76166 8672/ 333 58020 70027 82706 84616 88458==
41951,2023,11,16,18,00,AAXX 16184 41951 21330 80802 10236 20236 30147 40152 76166 8672/ 333 58006 60049 70055 82706 84616 88458==
41951,2023,11,16,21,00,AAXX 16214 41951 01330 80802 10226 20226 30146 40151 76366 8672/ 333 58011 70223 82706 84616 88458==
41953,2023,11,10,00,00,AAXX 10004 41953 01909 00000 10218 20210 30136 40144 74200 333 58017 70000==
41953,2023,11,10,03,00,AAXX 10034 41953 01950 03101 10270 20210 30161 40166 70540 333 20216 58012 70000==
41953,2023,11,10,06,00,AAXX 10064 41953 01950 00504 10290 20210 30142 40147 70500 333 58009 70000==
41953,2023,11,10,09,00,AAXX 10094 41953 01950 03106 10300 20200 30117 40122 70500 333 58007 70000==
41953,2023,11,10,12,00,AAXX 10124 41953 01940 00000 10260 20230 30125 40130 70500 333 10303 58007 70000==
41953,2023,11,10,15,00,AAXX 10154 41953 01925 00000 10245 20240 30141 40146 71000 333 58006 70000==
41953,2023,11,10,18,00,AAXX 10184 41953 02925 00000 10236 20230 30142 41000 333 58009 70000==
41953,2023,11,10,21,00,AAXX 10214 41953 01925 00000 10230 20220 30139 40144 71000 333 58004 70000==
41953,2023,11,11,00,00,AAXX 11004 41953 01908 00000 10216 20216 30145 40150 74240 333 58006 70000==
41953,2023,11,11,03,00,AAXX 11034 41953 01940 00000 10266 20220 30163 40168 70540 333 20215 58002 70000==
41953,2023,11,11,06,00,AAXX 11064 41953 01950 03101 10290 20190 30142 40147 70540 333 58000 70000==
41953,2023,11,11,09,00,AAXX 11094 41953 01950 03101 10304 20190 30121 40126 70500 333 59004 70000==
41953,2023,11,11,12,00,AAXX 11124 41953 01940 00000 10260 20220 30129 40134 70500 333 10306 58004 70000==
41953,2023,11,11,15,00,AAXX 11154 41953 01928 00000 10238 20230 30144 40149 71000 333 58003 70000==
41953,2023,11,11,18,00,AAXX 11184 41953 01925 00000 10230 20220 30147 40152 71000 333 58005 70000==
41953,2023,11,11,21,00,AAXX 11214 41953 01908 00000 10222 20210 30146 40151 74200 333 58007 70000==
41953,2023,11,12,00,00,AAXX 12004 41953 01909 00000 10216 20216 30148 40153 74240 333 58003 70000==
41953,2023,11,12,03,00,AAXX 12034 41953 01945 03101 10274 20190 30167 40172 70540 333 20215 58004 70000==
41953,2023,11,12,06,00,AAXX 12064 41953 01950 00000 10300 20190 30145 40150 70500 333 58003 70000==
41953,2023,11,12,09,00,AAXX 12094 41953 01950 00000 10296 20210 30119 40124 70500 333 59002 70000==
41953,2023,11,12,12,00,AAXX 12124 41953 01928 00000 10254 20220 30129 40134 71000 333 10302 58000 70000==
41953,2023,11,12,15,00,AAXX 12154 41953 01925 00000 10240 20220 30148 40153 71000 333 58004 70000==
41953,2023,11,12,18,00,AAXX 12184 41953 01925 00000 10230 20210 30148 40153 71000 333 58001 70000==
41953,2023,11,12,21,00,AAXX 12214 41953 01925 00000 10220 20210 30143 40148 71000 333 59003 70000==
41953,2023,11,13,00,00,AAXX 13004 41953 01930 00000 10216 20210 30145 40150 71000 333 59003 70000==
41953,2023,11,13,03,00,AAXX 13034 41953 01940 00504 10266 20220 30161 40166 70500 333 20215 59006 70000==
41953,2023,11,13,06,00,AAXX 13064 41953 01950 03101 10302 20190 30143 40148 70500 333 59002 70000==
41953,2023,11,13,09,00,AAXX 13094 41953 01950 00000 10316 20190 30118 40123 70500 333 59001 70000==
41953,2023,11,13,12,00,AAXX 13124 41953 01430 30000 10260 20230 30123 40128 71010 83500 333 10317 59007 70000 83618==
41953,2023,11,13,15,00,AAXX 13154 41953 01925 00000 10240 20220 30144 40149 71000 333 59004 70000==
41953,2023,11,13,18,00,AAXX 13184 41953 01925 00000 10228 20220 30145 40150 71000 333 59003 70000==
41953,2023,11,13,21,00,AAXX 13214 41953 01925 00000 10224 20210 30144 40149 71000 333 58001 70000==
41953,2023,11,14,00,00,AAXX 14004 41953 01428 20000 10220 20210 30144 40149 71010 82500 333 59001 70000 82618==
41953,2023,11,14,03,00,AAXX 14034 41953 01940 23101 10286 20210 30162 40167 70511 80001 333 20218 58001 70000 82080==
41953,2023,11,14,06,00,AAXX 14064 41953 01950 20000 10310 20200 30138 40143 70511 82001 333 70000 82071==
41953,2023,11,14,09,00,AAXX 14094 41953 01450 30000 10316 20200 30117 40122 70521 83500 333 59001 70000 83618==
41953,2023,11,14,12,00,AAXX 14124 41953 01440 20000 10266 20220 30126 40131 70521 82500 333 10318 58003 70000 82618==
41953,2023,11,14,15,00,AAXX 14154 41953 01930 00000 10250 20220 30143 40148 71000 333 59001 70000==
41953,2023,11,14,18,00,AAXX 14184 41953 01925 00000 10240 20220 30144 40149 71000 333 59001 70000==
41953,2023,11,14,21,00,AAXX 14214 41953 01925 00000 10235 20220 30142 40147 71000 333 59002 70000==
41953,2023,11,15,00,00,AAXX 15004 41953 01430 20000 10230 20220 30144 40149 71010 82500 333 58000 70000 82618==
41953,2023,11,15,03,00,AAXX 15034 41953 01440 30504 10270 20210 30161 40166 70521 83500 333 20228 59001 70000 83617==
41953,2023,11,15,06,00,AAXX 15064 41953 01/50 20000 10300 20210 30142 40147 70511 82030 333 58004 70000 82362==
41953,2023,11,15,09,00,AAXX 15094 41953 01/50 40000 10315 20210 30122 40127 70522 84030 333 58005 70000 84362==
41953,2023,11,15,12,00,AAXX 15124 41953 01/30 40000 10275 20250 30134 40139 71022 84030 333 10320 58008 70000 84362==
41953,2023,11,15,15,00,AAXX 15154 41953 01430 60000 10265 20250 30147 40152 71022 83510 333 58004 70000 83616 86458==
41953,2023,11,15,18,00,AAXX 15184 41953 01930 00000 10260 20240 30144 40149 71020 333 58000 70000==
41953,2023,11,15,21,00,AAXX 15214 41953 01930 00000 10254 20230 30140 40145 71000 333 59002 70000==
41953,2023,11,16,00,00,AAXX 16004 41953 01430 80000 10250 20230 30138 40143 71022 8352/ 333 59006 70000 83616 88458==
41953,2023,11,16,03,00,AAXX 16034 41953 01430 81803 10256 20240 30167 40172 71022 8352/ 333 20250 58006 70000 83616 88458==
41953,2023,11,16,06,00,AAXX 16064 41953 01430 80000 10262 20250 30156 40161 71022 8352/ 333 58016 70000 83616 88458==
41953,2023,11,16,09,00,AAXX 16094 41953 01430 80000 10262 20240 30144 40149 71022 8352/ 333 58022 70000 83616 88458==
41953,2023,11,16,12,00,AAXX 16124 41953 01430 80000 10242 20230 30149 40154 76122 8352/ 333 10270 58015 70000 83615 88458==
41953,2023,11,16,15,00,AAXX 16154 41953 01430 80000 10235 20230 30168 40173 76166 8352/ 333 58021 70020 83615 88458==
41953,2023,11,16,18,00,AAXX 16184 41953 21430 80000 10234 20220 30158 40163 76166 8352/ 333 58014 60049 70040 83615 88458==
41953,2023,11,16,21,00,AAXX 16214 41953 01430 80000 10230 20220 30153 40158 76166 8352/ 333 58013 70070 83615 88458==
41955,2023,11,10,06,00,AAXX 10064 41955 NIL=
41955,2023,11,10,12,00,AAXX 10124 41955 NIL=
41955,2023,11,10,18,00,AAXX 10184 41955 NIL=
41955,2023,11,11,06,00,AAXX 11064 41955 NIL=
41955,2023,11,11,12,00,AAXX 11124 41955 NIL=
41955,2023,11,11,18,00,AAXX 11184 41955 NIL=
41955,2023,11,12,00,00,AAXX 12004 41955 NIL=
41955,2023,11,12,06,00,AAXX 12064 41955 NIL=
41955,2023,11,12,12,00,AAXX 12124 41955 NIL=
41955,2023,11,13,06,00,AAXX 13064 41955 NIL=
41955,2023,11,13,18,00,AAXX 13184 41955 NIL=
41955,2023,11,14,06,00,AAXX 14064 41955 NIL=
41955,2023,11,15,06,00,AAXX 15064 41955 NIL=
41955,2023,11,15,12,00,AAXX 15124 41955 NIL=
41955,2023,11,16,06,00,AAXX 16064 41955 NIL=
41955,2023,11,16,12,00,AAXX 16124 41955 NIL=
41955,2023,11,16,18,00,AAXX 16184 41955 NIL=
41958,2023,11,10,00,00,AAXX 10004 41958 31940 00000 10207 20207 30131 40133 70500 333 58008 70000=
41958,2023,11,10,03,00,AAXX 10034 41958 31950 00000 10250 20210 30152 40154 70500 333 20200 58009 70000=
41958,2023,11,10,06,00,AAXX 10064 41958 32958 00000 10298 20200 30140 40142 333 58013 70000=
41958,2023,11,10,09,00,AAXX 10094 41958 32958 00000 10300 20180 30117 40119 333 58011 70000=
41958,2023,11,10,12,00,AAXX 10124 41958 32950 00000 10250 20220 30117 40119 333 10304 58006 70000=
41958,2023,11,10,15,00,AAXX 10154 41958 31940 00000 10230 20210 30130 40132 70500 333 58007 70000=
41958,2023,11,10,18,00,AAXX 10184 41958 31940 00000 10218 20210 30139 40141 70500 333 58011 70000=
41958,2023,11,10,21,00,AAXX 10214 41958 31940 00000 10210 20200 30128 40130 70500 333 59002 70000=
41958,2023,11,11,00,00,AAXX 11004 41958 31940 00000 10204 20200 30130 40132 70500 333 59001 70000=
41958,2023,11,11,03,00,AAXX 11034 41958 31956 00000 10254 20190 30158 40160 70500 333 20196 58006 70000=
41958,2023,11,11,06,00,AAXX 11064 41958 32958 00000 10300 20200 30140 40142 70500 333 58000 70000=
41958,2023,11,11,09,00,AAXX 11094 41958 32958 00000 10310 20210 30117 40119 333 58000 70000=
41958,2023,11,11,12,00,AAXX 11124 41958 32950 00000 10254 20220 30120 40122 333 10318 58003 70000=
41958,2023,11,11,15,00,AAXX 11154 41958 31940 00000 10232 20220 30138 40140 70500 333 58008 70000=
41958,2023,11,11,18,00,AAXX 11184 41958 31930 00000 10223 20210 30138 40140 70500 333 59001 70000=
41958,2023,11,11,21,00,AAXX 11214 41958 31930 00000 10220 20210 30129 40131 70500 333 58001 70000=
41958,2023,11,12,00,00,AAXX 12004 41958 31950 00000 10216 20210 30132 40134 70500 333 58002 70000=
41958,2023,11,12,03,00,AAXX 12034 41958 31956 00000 10270 20200 30162 40164 70500 333 20206 58004 70000=
41958,2023,11,12,06,00,AAXX 12064 41958 32958 00000 10305 20200 30139 40141 333 59001 70000=
41958,2023,11,12,09,00,AAXX 12094 41958 32958 00000 10302 20180 30118 40120 333 58001 70000=
41958,2023,11,12,12,00,AAXX 12124 41958 32950 00000 10250 20220 30121 40123 333 10308 58001 70000=
41958,2023,11,12,15,00,AAXX 12154 41958 31940 00000 10230 20220 30142 40144 70500 333 58004 70000=
41958,2023,11,12,18,00,AAXX 12184 41958 31940 00000 10235 20200 30143 40145 70500 333 58005 70000=
41958,2023,11,12,21,00,AAXX 12214 41958 31940 00000 10230 20200 30134 40136 70500 333 58005 70000=
41958,2023,11,13,00,00,AAXX 13004 41958 31950 00000 10220 20200 30136 40138 70500 333 58004 70000=
41958,2023,11,13,03,00,AAXX 13034 41958 31956 00000 10264 20200 30158 40160 70500 333 20210 58004 70000=
41958,2023,11,13,06,00,AAXX 13064 41958 32956 03502 10300 20190 30137 40139 333 59002 70000=
41958,2023,11,13,09,00,AAXX 13094 41958 32457 10302 10302 20200 30113 40115 81500 333 56100 59005 70000 81617=
41958,2023,11,13,12,00,AAXX 13124 41958 31950 10000 10250 20220 30120 40122 70500 80001 333 10305 56009 59001 70000 81080=
41958,2023,11,13,15,00,AAXX 13154 41958 31940 03601 10230 20210 30138 40140 70500 333 59004 70000=
41958,2023,11,13,18,00,AAXX 13184 41958 31940 00000 10224 20210 30144 40146 70500 333 58001 70000=
41958,2023,11,13,21,00,AAXX 13214 41958 31940 00000 10208 20200 30137 40139 70500 333 58003 70000=
41958,2023,11,14,00,00,AAXX 14004 41958 31940 10000 10206 20200 30139 40141 70500 81030 333 56090 58003 70000 81362=
41958,2023,11,14,03,00,AAXX 14034 41958 31950 20000 10260 20210 30158 40160 70500 80001 333 20202 56009 58000 70000 82080=
41958,2023,11,14,06,00,AAXX 14064 41958 32957 30302 10300 20180 30136 40138 80001 333 56009 59001 70000 83362=
41958,2023,11,14,09,00,AAXX 14094 41958 32957 30000 10310 20170 30117 40119 80001 333 56009 58004 70000 83080=
41958,2023,11,14,12,00,AAXX 14124 41958 32950 30000 10250 20210 30119 40121 80001 333 10313 56009 59001 70000 83080=
41958,2023,11,14,15,00,AAXX 14154 41958 31940 00000 10230 20200 30137 40139 70500 333 59001 70000=
41958,2023,11,14,18,00,AAXX 14184 41958 31940 00000 10224 20200 30144 40146 70500 333 58000 70000=
41958,2023,11,14,21,00,AAXX 14214 41958 31940 20000 10218 20190 30132 40134 70500 82030 333 56090 59005 70000 82362=
41958,2023,11,15,00,00,AAXX 15004 41958 31940 30000 10214 20190 30135 40137 70500 83030 333 56090 59004 70000 83362=
41958,2023,11,15,03,00,AAXX 15034 41958 31950 30301 10252 20200 30153 40155 70511 83030 333 20210 56090 59005 70000 83362=
41958,2023,11,15,06,00,AAXX 15064 41958 32956 30302 10302 20180 30136 40138 83030 333 56090 58000 70000 83362=
41958,2023,11,15,09,00,AAXX 15094 41958 32956 40000 10304 20180 30116 40118 80001 333 56009 59001 70000 84080=
41958,2023,11,15,12,00,AAXX 15124 41958 31940 50000 10260 20220 30126 40128 70521 85030 333 10308 56090 58007 70000 85362=
41958,2023,11,15,15,00,AAXX 15154 41958 31940 20000 10244 20220 30142 40144 70521 80001 333 56009 58005 70000 82080=
41958,2023,11,15,18,00,AAXX 15184 41958 31940 30000 10240 20220 30137 40139 70521 83030 333 56090 59007 70000 83362=
41958,2023,11,15,21,00,AAXX 15214 41958 31940 50000 10244 20200 30124 40126 70522 85030 333 56090 59008 70000 85362=
41958,2023,11,16,00,00,AAXX 16004 41958 31440 73501 10244 20210 30127 40129 70522 82570 333 56790 59008 70000 82617 86459=
41958,2023,11,16,03,00,AAXX 16034 41958 21450 80501 10250 20220 30159 40161 70362 8352/ 333 20235 56199 58006 6991/ 70001 83616 88459=
41958,2023,11,16,06,00,AAXX 16064 41958 11450 80702 10266 20230 30150 40152 69916 70262 8352/ 333 56199 58014 70001 83616 88459=
41958,2023,11,16,09,00,AAXX 16094 41958 32950 80501 10266 20240 30122 40124 8452/ 333 56999 58006 70000=
41958,2023,11,16,12,00,AAXX 16124 41958 11440 80501 10240 20230 30132 40134 69965 76162 8542/ 333 10268 56199 58006 70007 84616 88458=
41958,2023,11,16,15,00,AAXX 16154 41958 21430 80503 10235 20230 30145 40147 76166 8542/ 333 56199 58003 70047 84616 88458=
41958,2023,11,16,18,00,AAXX 16184 41958 11430 80503 10233 20230 30129 40131 60069 76166 8542/ 333 56199 59008 70067 84616 88458=
41958,2023,11,16,21,00,AAXX 16214 41958 21430 80503 10230 20230 30108 40110 76366 8542/ 333 56199 59016 6008/ 70147 84616 88458=
41960,2023,11,10,00,00,AAXX 10004 41960 01940 00000 10201 20200 30141 40143 70500 333 58011 70000==
41960,2023,11,10,03,00,AAXX 10034 41960 01950 00000 10249 20210 30164 40166 70500 333 20198 58012 70000==
41960,2023,11,10,06,00,AAXX 10064 41960 01950 03606 10299 20190 30147 40149 70500 333 58015 70000==
41960,2023,11,10,09,00,AAXX 10094 41960 01950 03604 10302 20180 30124 40126 70500 333 58009 70000==
41960,2023,11,10,12,00,AAXX 10124 41960 01950 00000 10250 20230 30126 40128 70500 333 10308 59009 70000==
41960,2023,11,10,15,00,AAXX 10154 41960 01950 00000 10224 20210 30144 40146 70500 333 58005 70000==
41960,2023,11,10,18,00,AAXX 10184 41960 01940 00000 10210 20210 30146 40148 70500 333 58006 70000==
41960,2023,11,10,21,00,AAXX 10214 41960 01940 00000 10202 20200 30143 40145 70500 333 58002 70000==
41960,2023,11,11,00,00,AAXX 11004 41960 01940 00000 10197 20197 30142 40144 70500 333 58001 70000==
41960,2023,11,11,03,00,AAXX 11034 41960 01940 03201 10250 20220 30168 40170 70500 333 20192 58004 70000==
41960,2023,11,11,06,00,AAXX 11064 41960 01/50 53304 10293 20180 30147 40149 70520 85030 333 58000 70000 85363==
41960,2023,11,11,09,00,AAXX 11094 41960 01940 03601 10305 20180 30125 40126 70520 333 58001 70000==
41960,2023,11,11,12,00,AAXX 11124 41960 01450 20000 10256 20220 30128 40130 70510 82401 333 10311 58002 70000 81618==
41960,2023,11,11,15,00,AAXX 11154 41960 01950 00000 10224 20210 30145 40147 70500 333 58001 70000==
41960,2023,11,11,18,00,AAXX 11184 41960 01940 00000 10212 20210 30148 40150 70500 333 58002 70000==
41960,2023,11,11,21,00,AAXX 11214 41960 01940 00000 10210 20210 30147 40149 70500 333 58004 70000==
41960,2023,11,12,00,00,AAXX 12004 41960 01940 00000 10208 20200 30147 40148 70500 333 58005 70000==
41960,2023,11,12,03,00,AAXX 12034 41960 01940 03602 10258 20210 30168 40170 70500 333 20200 58000 70000==
41960,2023,11,12,06,00,AAXX 12064 41960 01/50 20903 10300 20190 30151 40153 70500 82010 333 58004 70000 82459==
41960,2023,11,12,09,00,AAXX 12094 41960 01950 03003 10307 20190 30123 40124 70500 333 59002 70000==
41960,2023,11,12,12,00,AAXX 12124 41960 01950 00000 10261 20230 30128 40130 70500 333 10311 58000 70000==
41960,2023,11,12,15,00,AAXX 12154 41960 01/50 20000 10237 20230 30150 40152 70500 82010 333 58005 70000 82459==
41960,2023,11,12,18,00,AAXX 12184 41960 01940 00000 10224 20210 30150 40152 70500 333 58002 70000==
41960,2023,11,12,21,00,AAXX 12214 41960 01940 00000 10215 20215 30148 40150 70500 333 58001 70000==
41960,2023,11,13,00,00,AAXX 13004 41960 01940 03301 10208 20208 30146 40148 70500 333 59001 70000==
41960,2023,11,13,03,00,AAXX 13034 41960 01940 03602 10255 20220 30165 40167 70500 333 20205 59003 70000==
41960,2023,11,13,06,00,AAXX 13064 41960 01950 01506 10300 20160 30147 40149 70500 333 59004 70000==
41960,2023,11,13,09,00,AAXX 13094 41960 01950 23002 10308 20190 30124 40125 70500 80001 333 58001 70000 82080==
41960,2023,11,13,12,00,AAXX 13124 41960 01/50 20000 10260 20230 30125 40126 70500 82010 333 10318 59003 70000 82459==
41960,2023,11,13,15,00,AAXX 13154 41960 01950 00000 10233 20220 30145 40146 70500 333 59005 70000==
41960,2023,11,13,18,00,AAXX 13184 41960 01940 00000 10220 20220 30148 40150 70500 333 59002 70000==
41960,2023,11,13,21,00,AAXX 13214 41960 01940 00000 10215 20215 30146 40148 70500 333 59002 70000==
41960,2023,11,14,00,00,AAXX 14004 41960 01940 20000 10210 20210 30145 40147 70500 80001 333 59001 70000 82078==
41960,2023,11,14,03,00,AAXX 14034 41960 01940 40000 10257 20220 30164 40166 70510 80001 333 20205 59001 70000 84070==
41960,2023,11,14,06,00,AAXX 14064 41960 01950 40000 10307 20220 30146 40148 70511 80001 333 59001 70000 84080==
41960,2023,11,14,09,00,AAXX 14094 41960 01950 30000 10314 20190 30122 40123 70510 80001 333 59002 70000 83078==
41960,2023,11,14,12,00,AAXX 14124 41960 01450 30000 10264 20230 30128 40129 70511 82401 333 10325 58003 70000 81618 83078==
41960,2023,11,14,15,00,AAXX 14154 41960 01950 00000 10238 20230 30145 40147 70500 333 58000 70000==
41960,2023,11,14,18,00,AAXX 14184 41960 01940 00000 10228 20228 30147 40149 70500 333 59001 70000==
41960,2023,11,14,21,00,AAXX 14214 41960 01940 20000 10210 30146 40148 70500 80001 333 58000 70000 82078==
41960,2023,11,15,00,00,AAXX 15004 41960 01940 30000 10218 20200 30145 40147 70500 80009 333 58000 70000 82078==
41960,2023,11,15,03,00,AAXX 15034 41960 01/40 60000 10268 20220 30162 40164 70522 86011 333 20214 59002 70000 86459 83078==
41960,2023,11,15,06,00,AAXX 15064 41960 01/50 62702 10303 20190 30145 40146 70522 86011 333 59001 70000 86459 83078==
41960,2023,11,15,09,00,AAXX 15094 41960 01/50 70000 10302 20220 30127 40128 70522 87010 333 58005 70000 87459==
41960,2023,11,15,12,00,AAXX 15124 41960 01/50 60000 10269 20240 30132 40133 70522 86011 333 10314 58004 70000 86459==
41960,2023,11,15,15,00,AAXX 15154 41960 01450 70000 10260 20240 30150 40151 70522 82410 333 58005 70000 87459==
41960,2023,11,15,18,00,AAXX 15184 41960 01450 80000 10257 20240 30146 40148 70522 8442/ 333 59001 70000 83618 88459==
41960,2023,11,15,21,00,AAXX 15214 41960 01450 80000 10252 20230 30144 40146 70522 8542/ 333 59002 70000 83618 88459==
41960,2023,11,16,00,00,AAXX 16004 41960 01450 80000 10248 20240 30141 40143 70522 8542/ 333 59004 70000 83618 88459==
41960,2023,11,16,03,00,AAXX 16034 41960 01430 80000 10250 20240 30170 40172 76166 8542/ 333 20242 58008 70004 83617 88459==
41960,2023,11,16,06,00,AAXX 16064 41960 21430 80000 10258 20250 30156 40158 76166 8542/ 333 58011 60069 70056 83617 88459==
41960,2023,11,16,09,00,AAXX 16094 41960 01430 80000 10250 20240 30139 40141 76166 8542/ 333 58012 70066 83618 88459==
41960,2023,11,16,12,00,AAXX 16124 41960 21430 80000 10243 20240 30143 40145 76166 8542/ 333 10260 58011 60039 70082 83618 88459==
41960,2023,11,16,15,00,AAXX 16154 41960 01430 80000 10238 20238 30163 40165 76166 8542/ 333 58013 70096 84617 88458==
41960,2023,11,16,18,00,AAXX 16184 41960 21420 80000 10234 20230 30146 40148 76166 8542/ 333 58000 60059 70130 84617 88458==
41960,2023,11,16,21,00,AAXX 16214 41960 01310 80504 10230 20230 30134 40136 76366 8672/ 333 59010 70350 82708 84614 88458==
41963,2023,11,10,00,00,AAXX 10004 41963 01912 00000 10213 20213 30128 40131 71000 333 58009 70000==
41963,2023,11,10,03,00,AAXX 10034 41963 01940 03601 10260 20230 30150 40153 70500 333 20201 58012 70000==
41963,2023,11,10,06,00,AAXX 10064 41963 02950 03602 10290 20220 30136 40139 333 70000==
41963,2023,11,10,09,00,AAXX 10094 41963 02950 03601 10300 20220 30107 40110 333 59003 70000==
41963,2023,11,10,12,00,AAXX 10124 41963 01920 00000 10235 20230 30117 40120 70500 333 10304 58010 70000==
41963,2023,11,10,15,00,AAXX 10154 41963 01915 00000 10222 20220 30140 40143 71000 333 58006 70000==
41963,2023,11,10,18,00,AAXX 10184 41963 NIL=
41963,2023,11,10,21,00,AAXX 10214 41963 01912 00000 10213 20213 30138 40141 71000 333 58010 70000==
41963,2023,11,11,00,00,AAXX 11004 41963 01912 00000 10204 20204 30136 40139 71000 333 58010 70000==
41963,2023,11,11,03,00,AAXX 11034 41963 01930 00000 10270 20220 30156 40159 70500 333 20200 58006 70000==
41963,2023,11,11,06,00,AAXX 11064 41963 02950 03602 10295 20220 30134 40137 333 58002 70000==
41963,2023,11,11,09,00,AAXX 11094 41963 02950 03601 10300 20220 30117 40120 333 58010 70000==
41963,2023,11,11,12,00,AAXX 11124 41963 01930 00000 10250 20240 30118 40121 70500 333 10305 58001 70000==
41963,2023,11,11,15,00,AAXX 11154 41963 01920 00000 10233 20233 30141 40144 71000 333 58009 70000==
41963,2023,11,11,18,00,AAXX 11184 41963 42963 31912 10220 20220 30150 40153 58010==
41963,2023,11,11,21,00,AAXX 11214 41963 01912 00000 10211 20211 30148 40151 71000 333 58010 70000==
41963,2023,11,12,00,00,AAXX 12004 41963 01915 00000 10202 20202 30145 40148 71000 333 58009 70000==
41963,2023,11,12,03,00,AAXX 12034 41963 01940 03601 10270 20220 30156 40159 70500 333 20199 58000 70000==
41963,2023,11,12,06,00,AAXX 12064 41963 02950 03601 10295 20230 30136 40139 333 58002 70000==
41963,2023,11,12,09,00,AAXX 12094 41963 02950 03601 10300 20200 30112 40114 333 59005 70000==
41963,2023,11,12,12,00,AAXX 12124 41963 01930 00000 10250 20230 30119 40122 70500 333 10305 59001 70000==
41963,2023,11,12,15,00,AAXX 12154 41963 01920 00000 10215 20215 30145 40148 71000 333 58004 70000==
41963,2023,11,12,21,00,AAXX 12214 41963 01912 00000 10202 20202 30152 40155 71000 333 58004 70000==
41963,2023,11,13,00,00,AAXX 13004 41963 01915 00000 10200 20200 30143 40146 71000 333 59002 70000==
41963,2023,11,13,03,00,AAXX 13034 41963 01930 03601 10270 20220 30115 40158 70500 333 20198 59001 70000==
41963,2023,11,13,06,00,AAXX 13064 41963 02950 03601 10300 20220 30140 40143 333 58004 70000==
41963,2023,11,13,09,00,AAXX 13094 41963 02950 23601 10310 20210 30112 40115 80001 333 70000 82080==
41963,2023,11,13,12,00,AAXX 13124 41963 01930 40000 10250 20230 30118 40121 70521 80001 333 10304 70000 84080==
41963,2023,11,13,15,00,AAXX 13154 41963 01915 00000 10224 20224 30136 40139 71000 333 59009 70000==
41963,2023,11,13,18,00,AAXX 13184 41963 01915 00000 10220 20220 30145 40158 71000 333 59009 70000==
41963,2023,11,13,21,00,AAXX 13214 41963 01915 00000 10217 20217 30143 40146 71000 333 59009 70000==
41963,2023,11,14,00,00,AAXX 14004 41963 01915 00000 10213 20213 30141 40144 71000 333 59002 70000==
41963,2023,11,14,03,00,AAXX 14034 41963 01940 43601 10280 20230 30152 40155 70520 80001 333 20210 70000 84080==
41963,2023,11,14,06,00,AAXX 14064 41963 02956 43601 10300 20220 30134 40136 80001 333 59006 70000 84080==
41963,2023,11,14,09,00,AAXX 14094 41963 02956 43601 10310 20230 30113 40115 80001 333 58001 70000 84080==
41963,2023,11,14,12,00,AAXX 14124 41963 01930 00000 10255 20250 30116 40119 70520 333 10320 59002 70000==
41963,2023,11,14,15,00,AAXX 14154 41963 01915 00000 10240 20240 30139 40142 71000 333 58003 70000==
41963,2023,11,14,21,00,AAXX 14214 41963 01915 00000 10226 20226 30147 40150 71000 333 58004 70000==
41963,2023,11,15,00,00,AAXX 15004 41963 01915 00000 10221 20221 30144 40147 71000 333 58003 70000==
41963,2023,11,15,03,00,AAXX 15034 41963 01930 53601 10280 20230 30152 40155 70520 80001 333 20218 70000 85080==
41963,2023,11,15,06,00,AAXX 15064 41963 42/56 53601 10315 20240 30133 40135 85080==
41963,2023,11,15,09,00,AAXX 15094 41963 02956 53601 10320 20220 30114 40116 80001 333 58001 70000==
41963,2023,11,15,12,00,AAXX 15124 41963 01940 50000 10275 20260 30126 40129 70522 80001 333 10330 58010 70000 85080==
41963,2023,11,15,15,00,AAXX 15154 41963 01915 00000 10250 20250 30142 40145 71000 333 58003 70000==
41963,2023,11,15,18,00,AAXX 15184 41963 01915 00000 10242 20242 30148 40151 71000 333 58000 70000==
41963,2023,11,15,21,00,AAXX 15214 41963 01915 00000 10236 20236 30145 40148 71000 333 58002 70000==
41963,2023,11,16,00,00,AAXX 16004 41963 01915 00000 10230 20230 30143 40146 71000 333 59001 70000==
41963,2023,11,16,03,00,AAXX 16034 41963 01340 83601 10260 20260 30164 40167 76096 8492/ 333 20228 58012 70010 82708 83616 88458 81926==
41963,2023,11,16,06,00,AAXX 16064 41963 21350 83601 10255 20250 30148 40151 72196 8372/ 333 58015 60149 70140 82708 83616 88458==
41963,2023,11,16,07,00,AAXX 16074 41963 21350 83601 10255 20250 30148 40151 72196 8372/ 333 58015 60149 70140 82708 83616 88458==
41963,2023,11,16,09,00,AAXX 16094 41963 01350 80501 10245 20245 30140 40143 76062 8372/ 333 58026 70170 82708 83616 88458==
41963,2023,11,16,12,00,AAXX 16124 41963 21320 80501 10248 20240 30138 40141 70562 8372/ 333 10270 58012 60045 70180 82708 83616 88458==
41963,2023,11,16,15,00,AAXX 16154 41963 01315 80501 10240 20240 30159 40161 76162 8372/ 333 58017 70220 82708 83616 88458==
41963,2023,11,16,18,00,AAXX 16184 41963 NIL=
41963,2023,11,16,21,00,AAXX 16214 41963 01315 83601 10235 20235 30162 40165 76166 8372/ 333 58017 70260 82708 83616 88458==
41964,2023,11,10,00,00,AAXX 10004 41964 01945 00000 10200 20200 30128 40131 70500 333 58015 70000==
41964,2023,11,10,03,00,AAXX 10034 41964 02956 03603 10277 20230 30146 40149 333 20193 58009 70000==
41964,2023,11,10,06,00,AAXX 10064 41964 02457 13602 10306 20200 30138 40140 81500 333 58013 70000 81618==
41964,2023,11,10,09,00,AAXX 10094 41964 02957 00302 10308 20220 30113 40115 333 58011 70000==
41964,2023,11,10,12,00,AAXX 10124 41964 01956 00000 10243 20230 30117 40119 70500 333 10317 58008 70000==
41964,2023,11,10,15,00,AAXX 10154 41964 01950 00000 10223 20223 30137 40140 70500 333 58011 70000==
41964,2023,11,10,18,00,AAXX 10184 41964 01950 00000 10216 20216 30134 40137 70500 333 58007 70000==
41964,2023,11,10,21,00,AAXX 10214 41964 01950 00000 10204 20204 30131 40134 70500 333 58005 70000==
41964,2023,11,11,00,00,AAXX 11004 41964 01950 00000 10200 20200 30128 40131 70500 333 58000 70000==
41964,2023,11,11,03,00,AAXX 11034 41964 02956 03401 10279 20220 30153 40156 333 20192 58007 70000==
41964,2023,11,11,06,00,AAXX 11064 41964 02957 13602 10307 20190 30138 40140 80001 333 58000 70000 81080==
41964,2023,11,11,09,00,AAXX 11094 41964 02957 00000 10307 20190 30126 40128 333 58013 70000==
41964,2023,11,11,12,00,AAXX 11124 41964 01956 20000 10235 20230 30122 40124 70500 80001 333 10327 58005 70000 82080==
41964,2023,11,11,15,00,AAXX 11154 41964 01950 00000 10217 20210 30137 40140 70500 333 58000 70000==
41964,2023,11,11,18,00,AAXX 11184 41964 01940 00000 10211 20211 30137 40140 70500 333 58003 70000==
41964,2023,11,11,21,00,AAXX 11214 41964 01940 00000 10199 20199 30135 40138 70500 333 58004 70000==
41964,2023,11,12,00,00,AAXX 12004 41964 01940 00000 10197 20197 30131 40134 70500 333 58003 70000==
41964,2023,11,12,03,00,AAXX 12034 41964 02956 00000 10285 20240 30153 40156 333 20188 58000 70000==
41964,2023,11,12,06,00,AAXX 12064 41964 02957 23602 10311 20200 30138 40140 80002 333 58000 70000 82080==
41964,2023,11,12,09,00,AAXX 12094 41964 02957 03601 10315 20200 30127 40129 333 58001 70000==
41964,2023,11,12,12,00,AAXX 12124 41964 02957 20000 10238 20220 30120 40122 80001 333 10323 59002 70000 82080==
41964,2023,11,12,15,00,AAXX 12154 41964 01956 00000 10222 20210 30140 40143 70500 333 58003 70000==
41964,2023,11,12,18,00,AAXX 12184 41964 01950 00000 10215 20210 30140 40143 70500 333 58003 70000==
41964,2023,11,12,21,00,AAXX 12214 41964 01950 00000 10210 20210 30135 40138 70500 333 58000 70000==
41964,2023,11,13,00,00,AAXX 13004 41964 01950 20000 10208 20208 30129 40132 70510 80001 333 59002 70000 82080==
41964,2023,11,13,03,00,AAXX 13034 41964 02956 03602 10285 20230 30151 40154 333 20201 59002 70000==
41964,2023,11,13,06,00,AAXX 13064 41964 02557 43602 10311 20220 30137 40139 82402 333 59001 70000 81622 83080==
41964,2023,11,13,09,00,AAXX 13094 41964 02557 30000 10320 20210 30119 40122 82402 333 59008 70000 82622==
41964,2023,11,13,12,00,AAXX 13124 41964 02/56 50000 10252 20240 30120 40122 81042 333 10331 58000 70000 81362 84080==
41964,2023,11,13,15,00,AAXX 13154 41964 01950 00000 10231 20220 30136 40138 70510 333 59004 70000==
41964,2023,11,13,18,00,AAXX 13184 41964 01/50 10000 10225 20220 30137 40139 70500 81030 333 59003 70000 81362==
41964,2023,11,13,21,00,AAXX 13214 41964 01950 30000 10220 20220 30134 40136 70511 80002 333 59001 70000 83080==
41964,2023,11,14,00,00,AAXX 14004 41964 01950 40000 10216 20216 30132 40135 70511 80002 333 58003 70000 84080==
41964,2023,11,14,03,00,AAXX 14034 41964 02956 30502 10298 20240 30151 40153 80002 333 20208 58000 70000 83080==
41964,2023,11,14,06,00,AAXX 14064 41964 02957 40302 10322 20230 30136 40138 80002 333 59001 70000 84080==
41964,2023,11,14,09,00,AAXX 14094 41964 02557 53601 10321 20220 30112 40114 81102 333 59007 70000 81825 85080==
41964,2023,11,14,12,00,AAXX 14124 41964 02956 40000 10266 20250 30120 40122 80002 333 10334 58000 70000 84080==
41964,2023,11,14,15,00,AAXX 14154 41964 01950 10000 10245 20240 30136 40138 70511 80001 333 58000 70000 81080==
41964,2023,11,14,18,00,AAXX 14184 41964 01950 00000 10233 20220 30137 40139 70510 333 58000 70000==
41964,2023,11,14,21,00,AAXX 14214 41964 01950 30000 10225 20225 30135 40137 70511 80002 333 70000 83080==
41964,2023,11,15,00,00,AAXX 15004 41964 01/50 40000 10221 20221 30132 40134 70511 82032 333 58000 70000 82362 83080==
41964,2023,11,15,03,00,AAXX 15034 41964 02/57 60501 10280 20230 30150 40152 82032 333 20214 59001 70000 82362 85080==
41964,2023,11,15,06,00,AAXX 15064 41964 02/57 60602 10322 20220 30136 40138 82032 333 58000 70000 82362 85080==
41964,2023,11,15,09,00,AAXX 15094 41964 02/57 60000 10332 20230 30119 40122 82032 333 58007 70000 82362 85080==
41964,2023,11,15,12,00,AAXX 15124 41964 02557 50000 10269 20250 30127 40130 81102 333 10341 58007 70000 81825 85080==
41964,2023,11,15,15,00,AAXX 15154 41964 02/56 40000 10256 20250 30142 40144 82032 333 58006 70000 82362 83080==
41964,2023,11,15,18,00,AAXX 15184 41964 01950 20000 10248 20248 30137 40139 70511 80002 333 58000 70000 82080==
41964,2023,11,15,21,00,AAXX 15214 41964 01450 60000 10247 20247 30131 40133 70521 83510 333 59004 70000 83618 85460==
41964,2023,11,16,00,00,AAXX 16004 41964 01340 80000 10250 20250 30125 40127 76121 8772/ 333 59007 70000 83708 86616 88458==
41964,2023,11,16,03,00,AAXX 16034 41964 01335 80000 10265 20260 30163 40165 76166 8772/ 333 20241 58013 70002 84708 85616 88458==
41964,2023,11,16,06,00,AAXX 16064 41964 01340 80000 10285 20270 30171 40173 76166 8772/ 333 58035 70012 84708 85616 88458==
41964,2023,11,16,07,00,AAXX 16074 41964 01340 80000 10285 20270 30171 40173 76166 8772/ 333 58035 70012 84708 85616 88458==
41964,2023,11,16,12,00,AAXX 16124 41964 21330 80502 10250 20248 30138 40140 76166 8772/ 333 10286 58011 60029 70036 84708 85616 88458==
41964,2023,11,16,18,00,AAXX 16184 41964 21330 80000 10237 20230 30156 40158 76166 8442/ 333 58019 60039 70062 84708 85616 88458==
41964,2023,11,16,21,00,AAXX 16214 41964 41330 80504 10229 20228 30143 40146 58012 70278 88457==
41965,2023,11,10,00,00,AAXX 10004 41965 01930 00000 10190 20150 30137 40146 71000 333 58011 70000==
41965,2023,11,10,03,00,AAXX 10034 41965 01950 00000 10281 20160 30150 40159 70500 333 20185 58009 70000==
41965,2023,11,10,06,00,AAXX 10064 41965 01956 03101 10300 20170 30132 40141 70500 333 58007 70000==
41965,2023,11,10,09,00,AAXX 10094 41965 01956 00000 10315 20150 30109 40118 70500 333 58007 70000==
41965,2023,11,10,12,00,AAXX 10124 41965 01940 00000 10232 20190 30118 40127 70500 333 10330 58008 70000==
41965,2023,11,10,15,00,AAXX 10154 41965 01930 00000 10210 20170 30130 40139 70500 333 58010 70000==
41965,2023,11,10,18,00,AAXX 10184 41965 NIL=
41965,2023,11,11,03,00,AAXX 11034 41965 01950 00801 10290 20160 30156 40165 70500 333 20180 58006 70000==
41965,2023,11,11,06,00,AAXX 11064 41965 NIL=
41965,2023,11,11,09,00,AAXX 11094 41965 01956 00000 10317 20170 30112 40121 70500 333 58003 70000==
41965,2023,11,11,12,00,AAXX 11124 41965 01940 00000 10240 20190 30121 40130 70500 333 10331 58003 70000==
41965,2023,11,11,15,00,AAXX 11154 41965 01940 00000 10215 20180 30132 40140 70500 333 58002 70000==
41965,2023,11,11,18,00,AAXX 11184 41965 NIL=
41965,2023,11,11,21,00,AAXX 11214 41965 01930 00000 10210 20170 30137 40146 70500 333 58005 70000==
41965,2023,11,12,00,00,AAXX 12004 41965 01930 00000 10195 20160 30139 40148 70500 333 58000 70000==
41965,2023,11,12,03,00,AAXX 12034 41965 01950 00000 10295 20200 30157 40166 70500 333 20194 58001 70000==
41965,2023,11,12,06,00,AAXX 12064 41965 01456 33102 10315 20170 30133 40142 70542 83600 333 59002 70000 83618==
41965,2023,11,12,09,00,AAXX 12094 41965 01956 03202 10318 20180 30111 40120 70500 333 58001 70000==
41965,2023,11,12,12,00,AAXX 12124 41965 01930 00000 10238 20190 30121 40130 70500 333 10330 58000 70000==
41965,2023,11,12,15,00,AAXX 12154 41965 01930 00000 10215 20180 30139 40148 70500 333 58007 70000==
41965,2023,11,13,03,00,AAXX 13034 41965 01950 00801 10290 20170 30152 40161 70500 333 20187 59005 70000==
41965,2023,11,13,06,00,AAXX 13064 41965 01956 43102 10315 20170 30131 40140 70542 80009 333 59002 70000 84180==
41965,2023,11,13,09,00,AAXX 13094 41965 01956 43201 10310 20200 30107 40116 70542 80009 333 59004 70000 84180==
41965,2023,11,13,12,00,AAXX 13124 41965 01930 00000 10250 20210 30118 40127 70500 333 10340 59003 70000==
41965,2023,11,13,15,00,AAXX 13154 41965 01930 00000 10220 20180 30140 40149 70500 333 59001 70000==
41965,2023,11,13,18,00,AAXX 13184 41965 31940 30000 10210 20170 30141 40150 70542 80001 333 56009 59005 70000 83080=
41965,2023,11,13,21,00,AAXX 13214 41965 01940 00000 10210 20170 30140 40149 70500 333 58003 70000==
41965,2023,11,14,00,00,AAXX 14004 41965 01940 30000 10210 20170 30141 40150 70542 80001 333 59005 70000 83080==
41965,2023,11,14,03,00,AAXX 14034 41965 01950 30000 10310 20160 30153 40162 70541 80002 333 20200 58001 70000 83080==
41965,2023,11,14,06,00,AAXX 14064 41965 01956 33101 10320 20170 30124 40133 70542 80001 333 59007 70000 83080==
41965,2023,11,14,09,00,AAXX 14094 41965 01956 33103 10317 20200 30109 40118 70541 80002 333 58002 70000 83080==
41965,2023,11,14,12,00,AAXX 14124 41965 01930 00000 10260 20210 30119 40128 70500 333 10341 58001 70000==
41965,2023,11,14,15,00,AAXX 14154 41965 01930 30000 10223 20200 30149 40158 70542 80001 333 58001 70000 83080==
41965,2023,11,15,00,00,AAXX 15004 41965 01940 30000 10210 20170 30141 40150 70542 80001 333 58000 70000 83080==
41965,2023,11,15,03,00,AAXX 15034 41965 01950 30000 10300 20200 30152 40161 70541 80002 333 58001 70000 83080==
41965,2023,11,15,06,00,AAXX 15064 41965 01956 43102 10325 20210 30130 40139 70542 80001 333 58006 70000 84080==
41965,2023,11,15,09,00,AAXX 15094 41965 01956 30000 10328 20210 30114 40123 70541 80001 333 58005 70000 83080==
41965,2023,11,15,12,00,AAXX 15124 41965 01930 30000 10270 20220 30127 40136 70541 80002 333 10342 58008 70000 83080==
41965,2023,11,15,15,00,AAXX 15154 41965 41930 30000 10245 20210 30147 40156 70541 80001 333 58002 83080==
41965,2023,11,16,03,00,AAXX 16034 41965 01940 81401 10255 20220 30169 40178 70542 8432/ 333 20232 70000 85017 81710 83618 88460==
41965,2023,11,16,06,00,AAXX 16064 41965 01440 80000 10270 20200 30153 40162 76122 8461/ 333 58023 70020 81710 83618 88456==
41965,2023,11,16,09,00,AAXX 16094 41965 41440 81002 10245 20190 30141 40150 58027 70050 88460==
41965,2023,11,16,12,00,AAXX 16124 41965 21430 82205 10240 20180 30140 40149 76166 8461/ 333 10275 58013 60059 70070 81710 83618 88460==
41965,2023,11,16,15,00,AAXX 16154 41965 41430 81804 10237 20180 30160 40169 58013 70080 88460==
41965,2023,11,16,18,00,AAXX 16184 41965 NIL=
41966,2023,11,10,00,00,AAXX 10004 41966 01435 50000 10190 20170 30054 40135 70522 82510 333 58009 70000 82616 84460==
41966,2023,11,10,03,00,AAXX 10034 41966 02450 41101 10260 20180 30079 40159 82510 333 20185 58011 70000 82616 83460==
41966,2023,11,10,06,00,AAXX 10064 41966 02950 00000 10285 20140 30066 40144 333 58002 70000==
41966,2023,11,10,09,00,AAXX 10094 41966 02950 00000 10298 20090 30041 40120 333 59004 70000==
41966,2023,11,10,12,00,AAXX 10124 41966 01930 01201 10260 20220 30046 40125 70500 333 10305 58003 70000==
41966,2023,11,10,15,00,AAXX 10154 41966 01935 00000 10235 20210 30056 40136 70500 333 58002 70000==
41966,2023,11,10,18,00,AAXX 10184 41966 NIL=
41966,2023,11,10,21,00,AAXX 10214 41966 01935 00000 10210 20180 30054 40135 70500 333 58003 70000==
41966,2023,11,11,00,00,AAXX 11004 41966 01935 00000 10208 20180 30064 40145 70500 333 58010 70000==
41966,2023,11,11,03,00,AAXX 11034 41966 02445 41501 10280 20220 30071 40150 82510 333 20197 59009 70000 82616 83460==
41966,2023,11,11,06,00,AAXX 11064 41966 02/50 30000 10300 20100 30060 40139 83030 333 59005 70000 83362==
41966,2023,11,11,09,00,AAXX 11094 41966 02/50 30000 10302 20100 30039 40118 83030 333 59002 70000 83362==
41966,2023,11,11,12,00,AAXX 11124 41966 02/35 31801 10260 20220 30049 40129 83030 333 10310 58004 70000 83362==
41966,2023,11,11,15,00,AAXX 11154 41966 01950 00000 10245 20220 30058 40137 70500 333 58001 70000==
41966,2023,11,11,18,00,AAXX 11184 41966 NIL=
41966,2023,11,11,21,00,AAXX 11214 41966 01935 00000 10210 20180 30061 40142 70500 333 58007 70000==
41966,2023,11,12,00,00,AAXX 12004 41966 01940 00000 10200 20180 30062 40143 70500 333 59002 70000==
41966,2023,11,12,03,00,AAXX 12034 41966 02950 00401 10275 20180 30095 40175 333 20195 58025 70000==
41966,2023,11,12,06,00,AAXX 12064 41966 02550 21101 10305 20150 30071 40149 82130 333 58010 70000 82827 81362==
41966,2023,11,12,09,00,AAXX 12094 41966 02550 20401 10310 20110 30052 40130 82130 333 58012 70000 82827 81362==
41966,2023,11,12,12,00,AAXX 12124 41966 01935 00000 10260 20210 30056 40135 70500 333 10315 58006 70000==
41966,2023,11,12,18,00,AAXX 12184 41966 01935 00000 10230 20200 30071 40151 70500 333 58005 70000==
41966,2023,11,12,21,00,AAXX 12214 41966 01935 00000 10215 20190 30067 40147 70500 333 58005 70000==
41966,2023,11,13,00,00,AAXX 13004 41966 01930 00000 10208 20180 30074 40155 70500 333 58012 70000==
41966,2023,11,13,03,00,AAXX 13034 41966 01950 01801 10280 20200 30086 40165 70500 333 20200 59010 70000==
41966,2023,11,13,06,00,AAXX 13064 41966 02950 00000 10300 20160 30072 40151 333 58002 70000==
41966,2023,11,13,09,00,AAXX 13094 41966 02950 01601 10310 20120 30051 40130 333 58008 70000==
41966,2023,11,13,12,00,AAXX 13124 41966 01935 00000 10260 20210 30052 40132 70500 333 10315 59003 70000==
41966,2023,11,13,15,00,AAXX 13154 41966 01935 00000 10240 20210 30056 40136 70500 333 59006 70000==
41966,2023,11,13,18,00,AAXX 13184 41966 NIL=
41966,2023,11,13,21,00,AAXX 13214 41966 01935 00000 10220 20190 30061 40141 70500 333 59006 70000==
41966,2023,11,14,00,00,AAXX 14004 41966 01940 00000 10215 20180 30061 40142 70500 333 59013 70000==
41966,2023,11,14,03,00,AAXX 14034 41966 02450 40000 10280 20180 30086 40166 82510 333 20200 58001 70000 82616 83460==
41966,2023,11,14,06,00,AAXX 14064 41966 02450 40401 10310 20170 30073 40151 82510 333 58021 70000 83460==
41966,2023,11,14,09,00,AAXX 14094 41966 02450 40000 10318 20140 30043 40121 82510 333 59009 70000 82616 83460==
41966,2023,11,14,12,00,AAXX 14124 41966 02440 40000 10290 20270 30044 40123 82510 333 10326 59009 70000 82616 83460==
41966,2023,11,14,15,00,AAXX 14154 41966 01435 40000 10260 20220 30051 40131 70500 82510 333 59005 70000 82616 83460==
41966,2023,11,14,21,00,AAXX 14214 41966 01435 40000 10240 20210 30062 40141 70522 82510 333 58000 70000 82616 83460==
41966,2023,11,15,00,00,AAXX 15004 41966 01440 50000 10230 20200 30073 40153 70500 82510 333 58011 70000 82616 84460==
41966,2023,11,15,03,00,AAXX 15034 41966 02450 50000 10285 20200 30085 40164 82510 333 20216 59002 70000 82616 84460==
41966,2023,11,15,06,00,AAXX 15064 41966 02450 50000 10307 20180 30071 40149 82510 333 59002 70000 82616 84460==
41966,2023,11,15,09,00,AAXX 15094 41966 02450 60000 10325 20130 30053 40130 83510 333 58009 70000 83616 85460==
41966,2023,11,15,12,00,AAXX 15124 41966 02435 50401 10270 20230 30052 40131 82510 333 10330 58008 70000 82616 84460==
41966,2023,11,15,15,00,AAXX 15154 41966 01435 40000 10265 20230 30052 40132 70522 82510 333 58001 70000 82616 83460==
41966,2023,11,15,18,00,AAXX 15184 41966 01435 50000 10245 20220 30063 40143 70522 82510 333 59001 70000 82616 84460==
41966,2023,11,15,21,00,AAXX 15214 41966 01435 50000 10240 20210 30058 40138 70522 82510 333 59003 70000 82616 84460==
41966,2023,11,16,00,00,AAXX 16004 41966 01435 60000 10235 20210 30063 40143 70522 83510 333 59010 70000 83616 85460==
41966,2023,11,16,03,00,AAXX 16034 41966 01340 80000 10260 20230 30096 40175 76162 8472/ 333 20215 58011 70006 82709 83615 88460==
41966,2023,11,16,06,00,AAXX 16064 41966 21340 80000 10265 20240 30093 40172 76162 8472/ 333 58023 60017 70014 82709 83615 88460==
41966,2023,11,16,09,00,AAXX 16094 41966 01350 80401 10255 20230 30076 40155 76166 8472/ 333 58025 70031 82709 83615 88460==
41966,2023,11,16,12,00,AAXX 16124 41966 21435 80000 10240 20210 30083 40163 72166 8352/ 333 10270 58037 60039 70041 83616 88460==
41966,2023,11,16,15,00,AAXX 16154 41966 02435 80000 10230 20200 30093 40174 8352/ 333 58043 70041 83616 88460==
41966,2023,11,16,18,00,AAXX 16184 41966 NIL=
41966,2023,11,16,21,00,AAXX 16214 41966 01335 80000 10230 20200 30079 40159 76166 8472/ 333 58021 70081 82709 83615 88460==
41977,2023,11,10,03,00,AAXX 10034 41977 01945 00000 10268 20210 30134 40173 70500 333 20204 58011 70000==
41977,2023,11,10,06,00,AAXX 10064 41977 01950 00000 10306 20200 30115 40153 70500 333 58009 70000==
41977,2023,11,10,09,00,AAXX 10094 41977 01950 03102 10320 20210 30095 40132 70500 333 58006 70000==
41977,2023,11,10,12,00,AAXX 10124 41977 01940 00000 10244 20220 30105 40143 70500 333 10323 58007 70000==
41977,2023,11,10,15,00,AAXX 10154 41977 01940 00000 10229 20220 30107 40146 70500 333 59002 70000==
41977,2023,11,10,18,00,AAXX 10184 41977 01940 00000 10225 20220 30125 40164 70500 333 58017 70000==
41977,2023,11,10,21,00,AAXX 10214 41977 01940 00000 10220 20210 30123 40162 70500 333 58011 70000==
41977,2023,11,11,00,00,AAXX 11004 41977 01940 00000 10214 20200 30120 40159 70500 333 58004 70000==
41977,2023,11,11,03,00,AAXX 11034 41977 01950 00000 10275 20220 30143 40181 70500 333 20210 58009 70000==
41977,2023,11,11,06,00,AAXX 11064 41977 01950 02702 10310 20220 30121 40158 70500 333 58006 70000==
41977,2023,11,11,09,00,AAXX 11094 41977 01/50 20000 10310 20230 30098 40135 70510 82030 333 58003 70000 82362==
41977,2023,11,11,12,00,AAXX 11124 41977 01940 00000 10242 20220 30106 40144 70510 333 10320 70000==
41977,2023,11,11,15,00,AAXX 11154 41977 01940 00000 10230 20210 30118 40157 70500 333 58011 70000==
41977,2023,11,11,18,00,AAXX 11184 41977 01940 00000 10226 20220 30118 40157 70500 333 59007 70000==
41977,2023,11,11,21,00,AAXX 11214 41977 01940 00000 10224 20210 30119 40158 70500 333 59004 70000==
41977,2023,11,12,00,00,AAXX 12004 41977 01940 00000 10220 20210 30120 40159 70500 333 58000 70000==
41977,2023,11,12,03,00,AAXX 12034 41977 01950 00000 10279 20220 30139 40177 70500 333 20216 59004 70000==
41977,2023,11,12,06,00,AAXX 12064 41977 01950 00000 10315 20240 30119 40157 70500 333 59002 70000==
41977,2023,11,12,09,00,AAXX 12094 41977 01950 02902 10308 20230 30096 40134 70500 333 59002 70000==
41977,2023,11,12,12,00,AAXX 12124 41977 01940 30000 10250 20220 30103 40141 70510 80001 333 10318 59003 70000 83080==
41977,2023,11,12,15,00,AAXX 12154 41977 01940 00000 10239 20220 30118 40157 70500 333 58000 70000==
41977,2023,11,12,18,00,AAXX 12184 41977 01940 00000 10238 20220 30118 40156 70500 333 58000 70000==
41977,2023,11,12,21,00,AAXX 12214 41977 02940 00000 10225 20220 30121 40160 333 58002 70000==
41977,2023,11,13,00,00,AAXX 13004 41977 01940 20000 10220 20210 30119 40158 70500 80001 333 59001 70000 82080==
41977,2023,11,13,03,00,AAXX 13034 41977 01950 20000 10279 20230 30111 40148 70500 80001 333 20215 59028 70000 82080==
41977,2023,11,13,06,00,AAXX 13064 41977 01950 30000 10312 20230 30121 40158 70520 80001 333 58002 70000 83080==
41977,2023,11,13,09,00,AAXX 13094 41977 01/50 33102 10320 20250 30095 40132 70521 83031 333 59001 70000 83362==
41977,2023,11,13,12,00,AAXX 13124 41977 01940 30000 10254 20230 30105 40143 70521 80001 333 10330 58002 70000 83080==
41977,2023,11,13,15,00,AAXX 13154 41977 01440 70000 10249 20240 30119 40157 70520 83530 333 58001 70000 84618 84360==
41977,2023,11,13,18,00,AAXX 13184 41977 01940 00000 10240 20240 30119 40157 70500 333 58001 70000==
41977,2023,11,14,00,00,AAXX 14004 41977 01940 50000 10228 20220 30120 40159 70511 80001 333 58001 70000 85080==
41977,2023,11,14,03,00,AAXX 14034 41977 01945 50000 10285 20240 30136 40174 70511 80001 333 20225 58025 70000 85050==
41977,2023,11,14,06,00,AAXX 14064 41977 01950 41302 10330 20260 30114 40151 70521 80001 333 59007 70000 84080==
41977,2023,11,14,09,00,AAXX 14094 41977 01450 32902 10320 20240 30096 40133 70521 82401 333 58001 70000 81828 83080==
41977,2023,11,14,12,00,AAXX 14124 41977 01440 30000 10264 20240 30105 40143 70521 81501 333 10333 58000 70000 81618 83080==
41977,2023,11,14,15,00,AAXX 14154 41977 01940 00000 10257 20260 30118 40157 70500 333 59001 70000==
41977,2023,11,14,18,00,AAXX 14184 41977 01940 00000 10252 20250 30117 40156 70500 333 59002 70000==
41977,2023,11,14,21,00,AAXX 14214 41977 01940 30000 10240 20230 30120 40158 70511 80001 333 59003 70000==
41977,2023,11,15,00,00,AAXX 15004 41977 01940 50000 10235 20230 30119 40158 70521 80001 333 59001 70000 85080==
41977,2023,11,15,03,00,AAXX 15034 41977 01945 50000 10270 20240 30131 40170 70522 80001 333 20230 59005 70000 85080==
41977,2023,11,15,06,00,AAXX 15064 41977 01450 60000 10318 20240 30115 40153 70522 84530 333 58001 70000 84618 84360==
41977,2023,11,15,09,00,AAXX 15094 41977 42956 60000 10310 20260 30096 40136 58000 84361==
41977,2023,11,15,12,00,AAXX 15124 41977 01450 50000 10274 20250 30112 40150 70522 83530 333 10338 58007 70000 83618 85362==
41977,2023,11,15,15,00,AAXX 15154 41977 01450 50000 10260 20250 30125 40163 70522 83530 333 58007 70000 83618 85362==
41977,2023,11,15,18,00,AAXX 15184 41977 01450 70000 10258 20240 30122 40160 70522 84530 333 58005 70000 84617 87363==
41977,2023,11,15,21,00,AAXX 15214 41977 01450 80000 10255 20250 30119 40157 70522 8352/ 333 59001 70000 83616 88460==
41977,2023,11,16,00,00,AAXX 16004 41977 01450 80000 10252 20240 30115 40153 70522 8352/ 333 59004 70000 83616 88460==
41977,2023,11,16,03,00,AAXX 16034 41977 02450 80000 10260 20260 30148 40187 8672/ 333 20248 58017 70001 84710 84615 88460==
41977,2023,11,16,06,00,AAXX 16064 41977 22450 80000 10270 20260 30137 40176 8672/ 333 58021 60019 70011 84710 84615 88460==
41977,2023,11,16,09,00,AAXX 16094 41977 01450 83102 10256 20250 30124 40162 76166 8532/ 333 58028 70029 84615 88458 81928==
41977,2023,11,16,12,00,AAXX 16124 41977 21450 80000 10248 20240 30130 40168 76166 8532/ 333 10274 58018 60049 70049 84615 88458 81928==
41977,2023,11,16,15,00,AAXX 16154 41977 01450 80000 10238 20240 30141 40180 76166 8672/ 333 58016 70074 83710 84615 88460==
41977,2023,11,16,18,00,AAXX 16184 41977 21450 81302 10238 20238 30138 40177 76366 8672/ 333 58016 60049 70104 85709 88458==
41977,2023,11,16,21,00,AAXX 16214 41977 01340 80000 10234 20230 30130 40169 76366 8732/ 333 58011 70249 83710 84615 88458 81928==
41978,2023,11,10,00,00,AAXX 10004 41978 01431 20304 10222 20210 30135 40141 70511 82500 333 58011 70000 82618==
41978,2023,11,10,03,00,AAXX 10034 41978 01940 00305 10257 20230 30154 40160 70500 333 20212 58013 70000==
41978,2023,11,10,06,00,AAXX 10064 41978 01950 00208 10300 20220 30134 40140 70500 333 58009 70000==
41978,2023,11,10,09,00,AAXX 10094 41978 01950 02810 10304 20250 30110 40117 70500 333 59005 70000==
41978,2023,11,10,12,00,AAXX 10124 41978 01950 03204 10279 20250 30116 40122 70522 333 10315 58005 70000==
41978,2023,11,10,15,00,AAXX 10154 41978 01950 03004 10245 20240 30138 40144 70500 333 58011 70000==
41978,2023,11,10,18,00,AAXX 10184 41978 01950 00000 10236 20230 30134 40140 70500 333 58006 70000==
41978,2023,11,10,21,00,AAXX 10214 41978 01950 00000 10224 20210 30124 40130 70500 333 59003 70000==
41978,2023,11,11,00,00,AAXX 11004 41978 01940 00000 10218 20218 30135 40141 70500 333 58000 70000==
41978,2023,11,11,03,00,AAXX 11034 41978 01950 00103 10265 20240 30156 40163 70500 333 20215 58002 70000==
41978,2023,11,11,06,00,AAXX 11064 41978 01950 03104 10303 20200 30138 40144 70500 333 58004 70000==
41978,2023,11,11,09,00,AAXX 11094 41978 01950 02805 10301 20220 30116 40122 70500 333 58006 70000==
41978,2023,11,11,12,00,AAXX 11124 41978 01950 02904 10265 20210 30121 40128 70500 333 10313 58005 70000==
41978,2023,11,11,15,00,AAXX 11154 41978 01940 03304 10263 20210 30138 40144 70500 333 58000 70000==
41978,2023,11,11,18,00,AAXX 11184 41978 01940 00104 10241 20230 30141 40147 70500 333 58007 70000==
41978,2023,11,11,21,00,AAXX 11214 41978 01940 00303 10232 20220 30134 40140 70500 333 58010 70000==
41978,2023,11,12,00,00,AAXX 12004 41978 01940 05003 10222 20220 30137 40143 70500 333 58002 70000==
41978,2023,11,12,03,00,AAXX 12034 41978 01950 00505 10273 20230 30158 40185 70500 333 20219 58002 70000==
41978,2023,11,12,06,00,AAXX 12064 41978 01550 23303 10300 20230 30138 40144 70510 82100 333 58000 70000 82828==
41978,2023,11,12,09,00,AAXX 12094 41978 01956 02808 10303 20220 30112 40118 70511 333 59004 70000==
41978,2023,11,12,12,00,AAXX 12124 41978 01945 33006 10280 20220 30120 40126 70511 80001 333 10317 59001 70000 83080==
41978,2023,11,12,15,00,AAXX 12154 41978 01940 13205 10271 20220 30141 40147 70500 80001 333 58003 70000 81080==
41978,2023,11,12,18,00,AAXX 12184 41978 01940 03504 10254 20220 30139 40146 70500 333 59002 70000==
41978,2023,11,12,21,00,AAXX 12214 41978 01940 00205 10240 20220 30134 40141 70500 333 58000 70000==
41978,2023,11,13,00,00,AAXX 13004 41978 01935 00304 10226 20220 30136 40142 70500 333 58000 70000==
41978,2023,11,13,03,00,AAXX 13034 41978 01/40 30107 10266 20230 30154 40160 70510 83030 333 20220 59004 70000 83362==
41978,2023,11,13,06,00,AAXX 13064 41978 01450 20000 10312 20270 30137 40144 70510 82500 333 59001 70000 82618==
41978,2023,11,13,09,00,AAXX 13094 41978 01556 23107 10310 20220 30110 40116 70511 82100 333 59002 70000 82828==
41978,2023,11,13,12,00,AAXX 13124 41978 01950 43003 10284 20260 30121 40127 70521 80001 333 10323 58001 70000 84080==
41978,2023,11,13,15,00,AAXX 13154 41978 01945 30000 10262 20250 30138 40144 70511 80001 333 59003 70000 83080==
41978,2023,11,13,18,00,AAXX 13184 41978 01950 20000 10253 20240 30141 40147 70511 80001 333 58002 70000 82080==
41978,2023,11,13,21,00,AAXX 13214 41978 01950 20000 10242 20230 30134 40140 70511 80001 333 58000 70000 82080==
41978,2023,11,14,00,00,AAXX 14004 41978 01940 50000 10233 20230 30139 40145 70511 80001 333 58003 70000 85080==
41978,2023,11,14,03,00,AAXX 14034 41978 01940 50307 10272 20240 30153 40160 70522 80001 333 20231 58000 70000 85080==
41978,2023,11,14,06,00,AAXX 14064 41978 01940 53604 10324 20260 30135 40142 70522 80002 333 59002 70000 85080==
41978,2023,11,14,09,00,AAXX 14094 41978 01440 32806 10313 20270 30111 40117 70521 83400 333 58001 70000 82618==
41978,2023,11,14,12,00,AAXX 14124 41978 01440 33105 10284 20260 30124 40130 70521 83400 333 10331 59014 70000 82618==
41978,2023,11,14,15,00,AAXX 14154 41978 01540 22902 10272 20260 30138 40145 70511 82100 333 58000 70000 82828==
41978,2023,11,14,18,00,AAXX 14184 41978 01435 30000 10264 20250 30140 40146 70511 83500 333 59001 70000 83618==
41978,2023,11,14,21,00,AAXX 14214 41978 01435 30000 10254 20250 30135 40141 70511 83500 333 58001 70000 83618==
41978,2023,11,15,00,00,AAXX 15004 41978 01432 50205 10244 20230 30135 40141 70511 82501 333 59004 70000 82618 84080==
41978,2023,11,15,03,00,AAXX 15034 41978 01435 50605 10269 20250 30154 40161 70522 82501 333 20230 58001 70000 82618 84080==
41978,2023,11,15,06,00,AAXX 15064 41978 31450 50803 10316 20270 30135 40141 70522 82520 333 56990 58000 70000 82618 84460=
41978,2023,11,15,09,00,AAXX 15094 41978 01440 53005 10311 20290 30117 40124 70522 82510 333 58006 70000 82618 84828==
41978,2023,11,15,12,00,AAXX 15124 41978 01440 53303 10291 20260 30127 40133 70522 82520 333 10338 58003 70000 82618 84460==
41978,2023,11,15,15,00,AAXX 15154 41978 01440 30204 10285 20270 30144 40150 70521 83500 333 58006 70000 82618==
41978,2023,11,15,18,00,AAXX 15184 41978 01440 30000 10273 20260 30138 40145 70521 83500 333 59002 70000 82618==
41978,2023,11,15,21,00,AAXX 15214 41978 01440 30000 10264 20260 30138 40144 70521 83500 333 58003 70000 82618==
41978,2023,11,16,00,00,AAXX 16004 41978 01440 30000 10264 20260 30132 40138 70511 83500 333 59003 70000 82618==
41978,2023,11,16,03,00,AAXX 16034 41978 01432 81503 10268 20260 30167 40174 76162 8432/ 333 20256 58013 70016 83615 88460 81928==
41978,2023,11,16,06,00,AAXX 16064 41978 21432 80903 10270 20260 30157 40164 76162 8432/ 333 58022 60029 70020 83616 88460 81928==
41978,2023,11,16,07,00,AAXX 16074 41978 21432 80903 10270 20260 30157 40164 76162 8432/ 333 58022 60029 70020 83616 88460 81928==
41978,2023,11,16,09,00,AAXX 16094 41978 01432 80504 10257 20250 30139 40146 76166 8432/ 333 58022 70034 83615 88459 81928==
41978,2023,11,16,12,00,AAXX 16124 41978 21435 80806 10246 20240 30144 40151 76166 8432/ 333 10275 58017 60029 70046 83615 88460 81928==
41978,2023,11,16,15,00,AAXX 16154 41978 01440 80602 10239 20230 30161 40168 76166 8432/ 333 58017 70076 83615 88459 81928==
41978,2023,11,16,18,00,AAXX 16184 41978 11440 80703 10234 20220 30161 40167 60059 76166 8432/ 333 56999 58023 70100 83615 81928 88459=
41978,2023,11,16,21,00,AAXX 16214 41978 01440 80603 10231 20230 30133 40139 76166 8432/ 333 59006 70280 83615 88459 81928==
41980,2023,11,10,00,00,AAXX 10004 41980 31940 00000 10200 20190 30031 40146 70500 333 58031 70000=
41980,2023,11,10,06,00,AAXX 10064 41980 NIL=
41980,2023,11,10,12,00,AAXX 10124 41980 31940 00000 10244 20180 30016 40129 70500 333 10290 58012 70000=
41980,2023,11,10,18,00,AAXX 10184 41980 NIL=
41980,2023,11,11,00,00,AAXX 11004 41980 31940 00000 10208 20190 30031 40146 70500 333 58000 70000=
41980,2023,11,11,06,00,AAXX 11064 41980 NIL=
41980,2023,11,11,12,00,AAXX 11124 41980 31940 00000 10260 20220 30017 40130 70500 333 10310 58001 70000=
41980,2023,11,11,18,00,AAXX 11184 41980 NIL=
41980,2023,11,12,00,00,AAXX 12004 41980 NIL=
41980,2023,11,12,06,00,AAXX 12064 41980 NIL=
41980,2023,11,12,12,00,AAXX 12124 41980 32950 00000 10248 20230 30017 40130 333 10315 58000 70000=
41980,2023,11,13,06,00,AAXX 13064 41980 NIL=
41980,2023,11,13,12,00,AAXX 13124 41980 32950 00000 10255 20240 30018 40131 333 10322 58001 70000=
41980,2023,11,13,18,00,AAXX 13184 41980 NIL=
41980,2023,11,14,06,00,AAXX 14064 41980 NIL=
41980,2023,11,14,12,00,AAXX 14124 41980 32950 00000 10260 20220 30021 40134 333 10335 58003 70000=
41980,2023,11,15,00,00,AAXX 15004 41980 32950 00000 10236 20210 30034 40148 333 58000 70000=
41980,2023,11,15,06,00,AAXX 15064 41980 NIL=
41980,2023,11,15,12,00,AAXX 15124 41980 32456 30000 10268 20250 30025 40138 81510 333 10319 56990 58004 70000 81618=
41980,2023,11,16,06,00,AAXX 16064 41980 NIL=
41980,2023,11,16,12,00,AAXX 16124 41980 11340 80305 10232 20220 30038 40153 60022 76166 8572/ 333 10260 56999 58013 70074 83708 84613 88457=
41980,2023,11,16,18,00,AAXX 16184 41980 NIL=
41984,2023,11,10,00,00,AAXX 10004 41984 01956 00000 10194 20190 30115 40118 70500 333 58002 70000==
41984,2023,11,10,03,00,AAXX 10034 41984 01956 00000 10250 20220 30150 40152 70500 333 20188 58015 70000==
41984,2023,11,10,06,00,AAXX 10064 41984 01956 03602 10294 20200 30135 40137 70500 333 58009 70000==
41984,2023,11,10,09,00,AAXX 10094 41984 02957 00000 10297 20210 30113 40115 333 58011 70000==
41984,2023,11,10,12,00,AAXX 10124 41984 01940 00000 10237 20230 30115 40117 70500 333 10308 58005 70000==
41984,2023,11,10,15,00,AAXX 10154 41984 01940 00000 10212 20210 30128 40130 70500 333 58003 70000==
41984,2023,11,10,18,00,AAXX 10184 41984 01940 00000 10200 20200 30133 40135 70500 333 58005 70000==
41984,2023,11,10,21,00,AAXX 10214 41984 01940 00000 10197 20190 30132 40135 70500 333 58006 70000==
41984,2023,11,11,00,00,AAXX 11004 41984 01956 00000 10190 20190 30127 40130 70500 333 58012 70000==
41984,2023,11,11,03,00,AAXX 11034 41984 01956 00000 10257 20220 30155 40157 70500 333 20186 58005 70000==
41984,2023,11,11,06,00,AAXX 11064 41984 02957 00000 10290 20210 30139 40141 333 58004 70000==
41984,2023,11,11,09,00,AAXX 11094 41984 02958 00000 10299 20200 30115 40117 333 58002 70000==
41984,2023,11,11,12,00,AAXX 11124 41984 01940 00000 10230 20220 30121 40123 70500 333 10307 58006 70000==
41984,2023,11,11,15,00,AAXX 11154 41984 01940 00000 10211 20210 30135 40137 70500 333 58007 70000==
41984,2023,11,11,18,00,AAXX 11184 41984 01940 00000 10208 20208 30139 40141 70500 333 58006 70000==
41984,2023,11,11,21,00,AAXX 11214 41984 01940 00000 10200 20200 30132 40135 70500 333 58003 70000==
41984,2023,11,12,00,00,AAXX 12004 41984 01956 00000 10197 20197 30130 40133 70500 333 58003 70000==
41984,2023,11,12,03,00,AAXX 12034 41984 01956 00000 10257 20220 30155 40157 70500 333 20190 58000 70000==
41984,2023,11,12,06,00,AAXX 12064 41984 02957 00000 10300 20210 30137 40139 333 59002 70000==
41984,2023,11,12,09,00,AAXX 12094 41984 02958 00000 10300 20220 30112 40114 333 59003 70000==
41984,2023,11,12,12,00,AAXX 12124 41984 01940 00000 10196 20180 30120 40122 70500 333 10310 59001 70000==
41984,2023,11,12,15,00,AAXX 12154 41984 01940 00000 10222 20220 30135 40137 70500 333 58000 70000==
41984,2023,11,12,18,00,AAXX 12184 41984 01940 00000 10210 20210 30140 40142 70500 333 58001 70000==
41984,2023,11,12,21,00,AAXX 12214 41984 01940 00000 10200 20200 30138 40141 70500 333 58003 70000==
41984,2023,11,13,00,00,AAXX 13004 41984 01956 00000 10199 20199 30133 40135 70500 333 58003 70000==
41984,2023,11,13,03,00,AAXX 13034 41984 01956 00000 10253 20220 30149 40151 70500 333 20193 59006 70000==
41984,2023,11,13,06,00,AAXX 13064 41984 02957 00000 10300 20210 30138 40140 333 58001 70000==
41984,2023,11,13,09,00,AAXX 13094 41984 02958 00000 10300 20220 30111 40113 333 59001 70000==
41984,2023,11,13,12,00,AAXX 13124 41984 01940 00000 10241 20230 30118 40120 70500 333 10314 59002 70000==
41984,2023,11,13,15,00,AAXX 13154 41984 01940 00000 10222 20220 30132 40134 70500 333 59003 70000==
41984,2023,11,13,18,00,AAXX 13184 41984 01940 00000 10211 20210 30133 40135 70500 333 59007 70000==
41984,2023,11,13,21,00,AAXX 13214 41984 01940 00000 10208 20208 30131 40133 70500 333 59007 70000==
41984,2023,11,14,00,00,AAXX 14004 41984 01956 00000 10206 20206 30130 40132 70500 333 59003 70000==
41984,2023,11,14,03,00,AAXX 14034 41984 01956 20000 10257 20230 30150 40152 70500 80001 333 20201 58001 70000 82080==
41984,2023,11,14,06,00,AAXX 14064 41984 01956 20000 10300 20230 30130 40132 70500 80001 333 59008 70000 82080==
41984,2023,11,14,12,00,AAXX 14124 41984 01940 00000 10256 20240 30112 40114 70500 333 10317 59006 70000==
41984,2023,11,14,15,00,AAXX 14154 41984 01940 00000 10234 20230 30135 40137 70500 333 58003 70000==
41984,2023,11,14,18,00,AAXX 14184 41984 01940 00000 10227 20220 30133 40135 70500 333 58000 70000==
41984,2023,11,14,21,00,AAXX 14214 41984 01940 00000 10222 20220 30129 40131 70500 333 59002 70000==
41984,2023,11,15,00,00,AAXX 15004 41984 01456 30000 10218 20200 30127 40129 70500 83500 333 59003 70000 83618==
41984,2023,11,15,03,00,AAXX 15034 41984 01456 30000 10273 20210 30146 40148 70500 83500 333 20210 59004 70000 83618==
41984,2023,11,15,06,00,AAXX 15064 41984 01456 30000 10300 20230 30131 40133 70500 83500 333 58001 70000 83618==
41984,2023,11,15,09,00,AAXX 15094 41984 01456 60000 10307 20240 30111 40113 70521 83510 333 58001 70000 83618 85458==
41984,2023,11,15,12,00,AAXX 15124 41984 01440 60000 10266 20250 30116 40118 70522 83510 333 10311 58004 70000 83618 85458==
41984,2023,11,15,15,00,AAXX 15154 41984 01440 60000 10252 20240 30134 40136 70522 83510 333 59001 70000 83618 85458==
41984,2023,11,15,18,00,AAXX 15184 41984 01440 60000 10247 20240 30135 40137 70522 83510 333 58002 70000 83618 85458==
41984,2023,11,15,21,00,AAXX 15214 41984 01440 60000 10244 20240 30132 40134 70522 83510 333 58003 70000 83618 85458==
41984,2023,11,16,00,00,AAXX 16004 41984 01456 80000 10242 20240 30128 40130 70522 8352/ 333 58001 70000 83618 88458==
41984,2023,11,16,03,00,AAXX 16034 41984 01356 80000 10247 20247 30157 40159 76162 8672/ 333 20237 58011 70030 82707 84616 88456==
41984,2023,11,16,06,00,AAXX 16064 41984 21356 80000 10252 20250 30142 40144 76166 8672/ 333 58011 60079 70072 82707 84616 88456==
41984,2023,11,16,07,00,AAXX 16074 41984 21356 80000 10252 20250 30142 40144 76166 8672/ 333 58011 60079 70072 82707 84616 88456==
41984,2023,11,16,09,00,AAXX 16094 41984 01356 80000 10248 20240 30124 40126 76166 8672/ 333 58013 70092 82707 84616 88456==
41984,2023,11,16,12,00,AAXX 16124 41984 21340 80000 10242 20240 30128 40130 76166 8672/ 333 10255 58012 60039 70104 82707 84616 88456==
41984,2023,11,16,15,00,AAXX 16154 41984 01340 80000 10236 20236 30143 40145 76366 8672/ 333 58009 70204 82707 84616 88456==
41984,2023,11,16,18,00,AAXX 16184 41984 21340 80000 10236 20236 30127 40129 76166 8672/ 333 59008 60159 70254 82707 84616 88456==
41984,2023,11,16,21,00,AAXX 16214 41984 01340 80404 10235 20235 30105 40107 76566 8672/ 333 59027 70454 82707 84616 88456==
41989,2023,11,10,00,00,AAXX 10004 41989 01430 31402 10215 20210 30108 40111 70521 83500 333 58001 70000 83618==
41989,2023,11,10,03,00,AAXX 10034 41989 02440 30000 10280 20200 30132 40136 83500 333 20205 58000 70000 83618==
41989,2023,11,10,06,00,AAXX 10064 41989 NIL=
41989,2023,11,10,09,00,AAXX 10094 41989 02450 20000 10300 20210 30094 40097 82500 333 58002 70000 82618==
41989,2023,11,10,12,00,AAXX 10124 41989 02450 21402 10270 20220 30116 40119 83500 333 10305 58021 70000 82618==
41989,2023,11,10,15,00,AAXX 10154 41989 02440 31802 10248 20230 30133 40136 83500 333 58024 70000 83618==
41989,2023,11,10,18,00,AAXX 10184 41989 NIL=
41989,2023,11,11,00,00,AAXX 11004 41989 01430 31402 10215 20210 30108 40111 70521 83500 333 58001 70000 83618==
41989,2023,11,11,03,00,AAXX 11034 41989 02440 30000 10270 20200 30133 40136 82500 333 20206 58000 70000 82618==
41989,2023,11,11,06,00,AAXX 11064 41989 02450 31402 10305 20230 30145 40148 83500 333 58020 70000 83618==
41989,2023,11,11,12,00,AAXX 11124 41989 01430 31402 10270 20220 30105 40108 70521 83500 333 10312 59011 70000 83618==
41989,2023,11,11,15,00,AAXX 11154 41989 02430 31803 10260 20210 30126 40129 83500 333 59007 70000 83618==
41989,2023,11,11,18,00,AAXX 11184 41989 01430 31403 10250 20230 30141 40144 70521 83500 333 58005 70000 83618==
41989,2023,11,12,00,00,AAXX 12004 41989 02430 21402 10220 20200 30138 40141 82500 333 58027 70000 82618==
41989,2023,11,12,03,00,AAXX 12034 41989 02440 23102 10270 20200 30056 40059 82500 333 20203 58077 70000 82618==
41989,2023,11,12,06,00,AAXX 12064 41989 NIL=
41989,2023,11,12,09,00,AAXX 12094 41989 02450 20000 10300 20220 30105 40108 82500 333 58019 70000 82618==
41989,2023,11,12,12,00,AAXX 12124 41989 01440 20000 10270 20200 30110 40113 70511 82500 333 10304 58005 70000 82618==
41989,2023,11,12,15,00,AAXX 12154 41989 41430 31802 10260 20230 30120 40123 70511 83500 333 59006 83618==
41989,2023,11,13,00,00,AAXX 13004 41989 01430 31403 10230 20210 30120 40123 70521 83500 333 59018 70000 83618==
41989,2023,11,13,03,00,AAXX 13034 41989 02440 33102 10290 20220 30136 40139 82510 333 20209 58000 70000 83618==
41989,2023,11,13,06,00,AAXX 13064 41989 NIL=
41989,2023,11,13,09,00,AAXX 13094 41989 02450 31403 10305 20210 30124 40128 83500 333 58019 70000 83618==
41989,2023,11,13,12,00,AAXX 13124 41989 01440 23102 10270 20220 30107 40110 70511 82500 333 10320 58003 70000 82618==
41989,2023,11,13,15,00,AAXX 13154 41989 01430 31803 10245 20230 30122 40125 70521 83500 333 58002 70000 83618==
41989,2023,11,13,18,00,AAXX 13184 41989 NIL=
41989,2023,11,13,21,00,AAXX 13214 41989 01430 31403 10235 20220 30129 40133 70521 83500 333 58008 70000 83618==
41989,2023,11,14,00,00,AAXX 14004 41989 01430 31403 10232 20240 30125 40118 70521 83500 333 58005 70000 83618==
41989,2023,11,14,03,00,AAXX 14034 41989 02450 33102 10290 20220 30139 40142 83500 333 20219 59006 70000 83618==
41989,2023,11,14,06,00,AAXX 14064 41989 02450 33102 10300 20240 30120 40124 82500 333 58008 70000 82618==
41989,2023,11,15,00,00,AAXX 15004 41989 01430 31403 10230 20210 30130 40133 70521 83500 333 58005 70000 83618==
41989,2023,11,15,03,00,AAXX 15034 41989 02440 30000 10300 20230 30139 40142 83500 333 20215 58000 70000 83618==
41989,2023,11,15,06,00,AAXX 15064 41989 02450 53102 10315 20250 30120 40124 83530 333 58000 70000 83618 83362==
41989,2023,11,15,12,00,AAXX 15124 41989 02440 41402 10290 20260 30113 40127 83530 333 10320 59029 70000 83618 83362 83362==
41989,2023,11,15,15,00,AAXX 15154 41989 02440 51403 10275 20250 30116 40120 83530 333 58002 70000 83618 83362==
41989,2023,11,16,03,00,AAXX 16034 41989 01440 83103 10260 20250 30151 40154 76362 8562/ 333 20217 58012 70040 81708 84614 88460==
41989,2023,11,16,06,00,AAXX 16064 41989 21440 83102 10255 20240 30146 40149 76362 8562/ 333 58025 60089 70080 81708 84614 88460==
41989,2023,11,16,09,00,AAXX 16094 41989 01440 83102 10250 20240 30124 40127 76362 8562/ 333 58012 70115 81708 84614 88458==
41989,2023,11,16,12,00,AAXX 16124 41989 01340 81803 10245 20240 30146 40149 76162 8532/ 333 10264 58023 70145 82708 83614 88456 81930==
41989,2023,11,16,15,00,AAXX 16154 41989 01330 81402 10230 20210 30161 40164 76162 8532/ 333 58045 70215 82708 83618 88456 81928==
41989,2023,11,16,18,00,AAXX 16184 41989 NIL=
41992,2023,11,10,00,00,AAXX 10004 41992 01925 00000 10225 20210 30133 40135 70500 333 58009 70000==
41992,2023,11,10,03,00,AAXX 10034 41992 01935 03303 10273 20200 30156 40158 70500 333 20218 58011 70000==
41992,2023,11,10,06,00,AAXX 10064 41992 01935 03607 10302 20170 30137 40139 70500 333 58011 70000==
41992,2023,11,10,09,00,AAXX 10094 41992 01935 03305 10310 20200 30116 40118 70500 333 58014 70000==
41992,2023,11,10,12,00,AAXX 10124 41992 01925 03305 10270 20200 30121 40123 70500 333 10320 58008 70000==
41992,2023,11,10,15,00,AAXX 10154 41992 01925 00302 10256 20220 30140 40142 70500 333 59009 70000==
41992,2023,11,10,18,00,AAXX 10184 41992 01925 00000 10240 20220 30144 40146 70500 333 58010 70000==
41992,2023,11,10,21,00,AAXX 10214 41992 01925 00000 10230 20210 30133 40135 70500 333 58006 70000==
41992,2023,11,11,00,00,AAXX 11004 41992 01925 00000 10230 20210 30137 40139 70500 333 58004 70000==
41992,2023,11,11,03,00,AAXX 11034 41992 01935 00000 10273 20210 30159 40161 70500 333 20222 58003 70000==
41992,2023,11,11,06,00,AAXX 11064 41992 01935 03305 10315 20200 30140 40142 70500 333 58003 70000==
41992,2023,11,11,09,00,AAXX 11094 41992 01935 00000 10315 20210 30118 40120 70500 333 58004 70000==
41992,2023,11,11,12,00,AAXX 11124 41992 01930 00000 10265 20220 30128 40130 70500 333 10325 58007 70000==
41992,2023,11,11,15,00,AAXX 11154 41992 01925 00000 10250 20210 30143 40145 70500 333 58003 70000==
41992,2023,11,11,18,00,AAXX 11184 41992 01925 00000 10245 20210 30144 40146 70500 333 58000 70000==
41992,2023,11,11,21,00,AAXX 11214 41992 01925 00000 10240 20210 30135 40137 70500 333 58002 70000==
41992,2023,11,12,00,00,AAXX 12004 41992 01925 00000 10230 20210 30138 40140 70500 333 58001 70000==
41992,2023,11,12,03,00,AAXX 12034 41992 01935 00000 10284 20210 30158 40160 70500 333 20220 58001 70000==
41992,2023,11,12,06,00,AAXX 12064 41992 01935 00000 10317 20210 30141 40143 70500 333 58001 70000==
41992,2023,11,12,09,00,AAXX 12094 41992 01935 02810 10310 20210 30117 40119 70500 333 59001 70000==
41992,2023,11,12,12,00,AAXX 12124 41992 01925 03205 10270 20210 30126 40128 70500 333 10325 59002 70000==
41992,2023,11,12,15,00,AAXX 12154 41992 01925 00000 10260 20210 30145 40147 70500 333 58002 70000==
41992,2023,11,12,18,00,AAXX 12184 41992 01925 00000 10250 20210 30146 40148 70500 333 58002 70000==
41992,2023,11,12,21,00,AAXX 12214 41992 01925 00000 10240 20210 30141 40143 70500 333 58006 70000==
41992,2023,11,13,00,00,AAXX 13004 41992 01925 00000 10227 20210 30137 40139 70500 333 59001 70000==
41992,2023,11,13,03,00,AAXX 13034 41992 01940 00000 10285 20220 30153 40155 70500 333 20225 58015 70000==
41992,2023,11,13,06,00,AAXX 13064 41992 01/40 20000 10312 20230 30137 40139 70510 82030 333 59004 70000 82362==
41992,2023,11,13,09,00,AAXX 13094 41992 01935 00000 10300 20220 30118 40120 70500 333 58001 70000==
41992,2023,11,13,12,00,AAXX 13124 41992 01925 00000 10285 20230 30125 40127 70500 333 10325 59001 70000==
41992,2023,11,13,15,00,AAXX 13154 41992 01425 70000 10274 20230 30145 40147 70520 84530 333 58000 70000 84616 87360==
41992,2023,11,13,18,00,AAXX 13184 41992 01925 00000 10264 20240 30147 40149 70500 333 58001 70000==
41992,2023,11,13,21,00,AAXX 13214 41992 01925 00000 10250 20220 30136 40138 70500 333 59001 70000==
41992,2023,11,14,00,00,AAXX 14004 41992 01925 00000 10250 20220 30136 40138 70500 333 59001 70000==
41992,2023,11,14,03,00,AAXX 14034 41992 01/35 60000 10292 20220 30157 40159 70510 86030 333 20228 58004 70000 86362==
41992,2023,11,14,06,00,AAXX 14064 41992 01435 50000 10320 20210 30135 40137 70521 81530 333 59002 70000 81616 85362==
41992,2023,11,14,09,00,AAXX 14094 41992 01435 52305 10315 20240 30119 40121 70522 81530 333 58001 70000 81616 85362==
41992,2023,11,14,12,00,AAXX 14124 41992 01430 50000 10284 20230 30127 40129 70522 81530 333 10335 58002 70000 81616 85362==
41992,2023,11,14,15,00,AAXX 14154 41992 01925 00000 10270 20250 30142 40144 70500 333 59003 70000==
41992,2023,11,14,18,00,AAXX 14184 41992 01925 00000 10260 20230 30142 40144 70500 333 59006 70000==
41992,2023,11,14,21,00,AAXX 14214 41992 01925 00000 10250 20220 30137 40139 70500 333 59005 70000==
41992,2023,11,15,00,00,AAXX 15004 41992 01/25 40000 10250 20230 30140 40142 70510 84030 333 58004 70000 84362==
41992,2023,11,15,03,00,AAXX 15034 41992 01/35 20000 10302 20200 30157 40159 70511 82030 333 20250 58000 70000 82362==
41992,2023,11,15,06,00,AAXX 15064 41992 01/30 70000 10318 20230 30136 40138 70521 87030 333 58001 70000 87362==
41992,2023,11,15,09,00,AAXX 15094 41992 01/30 60000 10320 20230 30121 40123 70522 86030 333 58002 70000 86362==
41992,2023,11,15,12,00,AAXX 15124 41992 01/30 70000 10290 20240 30145 40147 70522 87030 333 10330 58018 70000 87362==
41992,2023,11,15,15,00,AAXX 15154 41992 01425 70000 10280 20250 30150 40152 70522 84530 333 58008 70000 84616 87360==
41992,2023,11,15,18,00,AAXX 15184 41992 01425 70000 10276 20260 30143 40145 70522 84530 333 58001 70000 84616 87360==
41992,2023,11,15,21,00,AAXX 15214 41992 01425 80000 10270 20250 30142 40144 76122 8592/ 333 58005 70010 84614 88458 81925==
41992,2023,11,16,00,00,AAXX 16004 41992 01425 80000 10264 20240 30136 40138 76166 8592/ 333 59004 70020 84614 88458 81925==
41992,2023,11,16,03,00,AAXX 16034 41992 01425 80000 10253 20240 30174 40176 70566 8592/ 333 20248 58017 70070 82708 84614 88458 81925==
41992,2023,11,16,06,00,AAXX 16064 41992 21425 83305 10250 20240 30157 40159 76166 8592/ 333 58021 60089 70100 82708 84614 88458 81925==
41992,2023,11,16,09,00,AAXX 16094 41992 01425 83610 10248 20230 30133 40135 76166 8592/ 333 58012 70120 82708 84614 88458 81925==
41992,2023,11,16,12,00,AAXX 16124 41992 21425 83305 10246 20230 30147 40149 76166 8592/ 333 10265 58011 60049 70140 82708 84614 88458 81925==
41992,2023,11,16,15,00,AAXX 16154 41992 01320 83605 10230 20220 30156 40158 76366 8692/ 333 58008 70210 83707 85612 88458 81925==
41992,2023,11,16,18,00,AAXX 16184 41992 11315 80310 10228 20228 30148 40150 60209 76366 8692/ 333 56999 58005 70340 83707 85912 81925 88458=
41992,2023,11,16,21,00,AAXX 16214 41992 01315 80308 10225 20225 30138 40140 76366 8692/ 333 59005 70550 83707 85612 88458 81925==
41998,2023,11,10,00,00,AAXX 10004 41998 01950 00000 10250 20240 30123 40129 70500 333 58003 70000==
41998,2023,11,10,03,00,AAXX 10034 41998 02956 00000 10284 20240 30134 40140 333 20245 58009 70000==
41998,2023,11,10,06,00,AAXX 10064 41998 NIL=
41998,2023,11,10,09,00,AAXX 10094 41998 02956 00000 10290 20250 30105 40111 333 58003 70000==
41998,2023,11,10,12,00,AAXX 10124 41998 02956 00000 10260 20230 30114 40120 333 10305 58012 70000==
41998,2023,11,10,18,00,AAXX 10184 41998 NIL=
41998,2023,11,11,00,00,AAXX 11004 41998 01950 00000 10245 20240 30056 40061 70500 333 58003 70000==
41998,2023,11,11,03,00,AAXX 11034 41998 02956 00000 10285 20240 30138 40144 333 20240 58003 70000==
41998,2023,11,11,06,00,AAXX 11064 41998 NIL=
41998,2023,11,11,09,00,AAXX 11094 41998 02956 00000 10308 20230 30107 40113 333 58002 70000==
41998,2023,11,11,12,00,AAXX 11124 41998 02956 00000 10263 20230 30118 40124 333 10314 58004 70000==
41998,2023,11,11,18,00,AAXX 11184 41998 01950 00000 10250 20240 30129 40135 70500 333 59002 70000==
41998,2023,11,12,00,00,AAXX 12004 41998 NIL=
41998,2023,11,12,03,00,AAXX 12034 41998 02956 00000 10288 20230 30136 40142 333 20240 59002 70000==
41998,2023,11,12,06,00,AAXX 12064 41998 NIL=
41998,2023,11,12,09,00,AAXX 12094 41998 02956 01401 10304 20230 30108 40114 333 58001 70000==
41998,2023,11,12,12,00,AAXX 12124 41998 02956 00000 10261 20230 30114 40120 333 10316 59004 70000==
41998,2023,11,12,15,00,AAXX 12154 41998 02956 00000 10255 20230 30123 40129 333 59005 70000==
41998,2023,11,12,18,00,AAXX 12184 41998 01950 00000 10255 20250 30126 40132 70500 333 59003 70000==
41998,2023,11,13,00,00,AAXX 13004 41998 01950 00000 10243 20240 30128 40134 70500 333 59003 70000==
41998,2023,11,13,03,00,AAXX 13034 41998 02956 00000 10291 20240 30126 40132 333 20240 59010 70000==
41998,2023,11,13,06,00,AAXX 13064 41998 NIL=
41998,2023,11,13,09,00,AAXX 13094 41998 02956 02301 10302 20230 30103 40109 333 59005 70000==
41998,2023,11,13,12,00,AAXX 13124 41998 02956 00000 10260 20230 30115 40121 333 10315 58001 70000==
41998,2023,11,13,18,00,AAXX 13184 41998 NIL=
41998,2023,11,14,00,00,AAXX 14004 41998 01950 00000 10245 20240 30136 40142 70500 333 58008 70000==
41998,2023,11,14,03,00,AAXX 14034 41998 02956 00000 10291 20240 30136 40142 333 20241 58021 70000==
41998,2023,11,14,06,00,AAXX 14064 41998 NIL=
41998,2023,11,14,09,00,AAXX 14094 41998 02956 00000 10301 20230 30092 40098 333 59011 70000==
41998,2023,11,14,12,00,AAXX 14124 41998 02456 60000 10281 20250 30094 40100 83470 333 10314 59021 70000 82618 84458==
41998,2023,11,15,00,00,AAXX 15004 41998 01950 00000 10250 20240 30134 40140 70500 333 59002 70000==
41998,2023,11,15,03,00,AAXX 15034 41998 02956 00000 10290 20250 30130 40136 333 20240 58004 70000==
41998,2023,11,15,06,00,AAXX 15064 41998 NIL=
41998,2023,11,15,09,00,AAXX 15094 41998 02456 51601 10293 20240 30110 40116 82470 333 58018 70000 81816 83458==
41998,2023,11,15,12,00,AAXX 15124 41998 02456 50000 10278 20260 30116 40122 82470 333 10308 58022 70000 81618 83458==
41998,2023,11,15,15,00,AAXX 15154 41998 02456 50000 10270 20250 30127 40133 82470 333 58002 70000 82618 83458==
41998,2023,11,15,18,00,AAXX 15184 41998 01950 00000 10255 20250 30126 40132 70500 333 59004 70000==
41998,2023,11,16,00,00,AAXX 16004 41998 02950 80000 10250 20240 30133 40139 8342/ 333 59005 70000 82618 88458==
41998,2023,11,16,03,00,AAXX 16034 41998 01456 80000 10288 20250 30140 40146 76166 8342/ 333 20243 58010 70030 83616 88458==
41998,2023,11,16,06,00,AAXX 16064 41998 21456 80000 10287 20250 30123 40129 76166 8442/ 333 58008 60059 70050 83616 88456==
41998,2023,11,16,07,00,AAXX 16074 41998 21456 80000 10287 20250 30123 40129 76166 8442/ 333 58008 60059 70050 83616 88456==
41998,2023,11,16,09,00,AAXX 16094 41998 01456 81701 10261 20250 30114 40120 76166 8442/ 333 58004 70080 83616 88456==
41998,2023,11,16,12,00,AAXX 16124 41998 21456 80000 10258 20250 30107 40113 76166 8442/ 333 10296 59009 60059 70100 84616 88456==
41998,2023,11,16,18,00,AAXX 16184 41998 21456 80000 10250 20240 30128 40134 76166 8342/ 333 59003 60079 70170 82616 88456==
