ESTACION,ANO,MES,DIA,HORA,MINUTO,PARTE
41850,2024,07,26,00,00,AAXX 26004 41850 31450 20000 10284 20260 39835 49931 70521 82500 333 56900 59007 70000 82618=
41850,2024,07,26,06,00,AAXX 26064 41850 32457 20000 10350 20260 39849 49943 82500 333 56900 58002 70000 82618=
41850,2024,07,26,12,00,AAXX 26124 41850 32456 30000 10353 20270 39823 49917 83500 333 10363 56900 59007 70000 83618=
41850,2024,07,26,18,00,AAXX 26184 41850 NIL=
41850,2024,07,27,00,00,AAXX 27004 41850 31950 30000 10283 20260 39873 49969 83030 333 56090 58038 70000 83362=
41850,2024,07,27,06,00,AAXX 27064 41850 32457 60903 10335 20270 39877 49972 82510 333 56990 58028 70000 82618 86458=
41850,2024,07,27,12,00,AAXX 27124 41850 32456 60000 10334 20270 39866 49961 82510 333 10363 56990 58043 70000 82618 86458=
41850,2024,07,27,18,00,AAXX 27184 41850 31445 60000 10290 20270 39895 49992 70522 82510 333 56990 58026 70000 82618 86458=
41850,2024,07,28,00,00,AAXX 28004 41850 31450 80000 10289 20270 39896 49993 70522 8352/ 333 56999 58003 70000 83618 88458=
41850,2024,07,28,06,00,AAXX 28064 41850 11457 60000 10322 20290 39897 49993 60046 70262 82510 333 56990 58020 70040 82618 86458=
41850,2024,07,28,12,00,AAXX 28124 41850 32456 40000 10348 20270 39864 49959 82530 333 10350 56990 59002 70040 82618 84360=
41850,2024,07,28,18,00,AAXX 28184 41850 31430 80000 10300 20290 39888 49984 70522 8252/ 333 56999 59007 70040 82618 88458=
41850,2024,07,29,00,00,AAXX 29004 41850 31430 80000 10285 20270 39882 49979 70522 8252/ 333 56999 59014 70040 82618 88458=
41850,2024,07,29,06,00,AAXX 29064 41850 31450 81805 10321 20270 39886 49982 70522 8352/ 333 56999 59011 70000 83617 88458=
41850,2024,07,30,06,00,AAXX 30064 41850 32456 40904 10316 20280 39907 40003 82510 333 56990 58021 70000 82618 84458=
41850,2024,07,30,12,00,AAXX 30124 41850 31450 80000 10311 20270 39887 49983 70522 8352/ 333 10351 56999 58009 70000 83618 88458=
41850,2024,07,30,18,00,AAXX 30184 41850 31430 80000 10285 20280 39917 40014 70522 8352/ 333 56999 58009 70000 83618 88458=
41850,2024,07,31,00,00,AAXX 31004 41850 31440 80000 10278 20270 39911 40009 70522 8252/ 333 56999 58008 70000 82618 88458=
41850,2024,07,31,06,00,AAXX 31064 41850 32456 40000 10310 20270 39918 40014 83510 333 56990 58011 83618 84458=
41850,2024,07,31,12,00,AAXX 31124 41850 32456 40000 10336 20280 39877 49972 83510 333 10357 56990 59010 70000 83618 84458=
41850,2024,07,31,18,00,AAXX 31184 41850 31430 80000 10291 20270 39910 40007 70522 8352/ 333 56999 59007 70000 83618 88458=
41850,2024,08,01,00,00,AAXX 01004 41850 11440 80000 10260 20250 39896 49994 60026 70562 8352/ 333 56999 59015 70020 83618 88458=
41850,2024,08,01,06,00,AAXX 01064 41850 11456 81802 10284 20260 39904 40001 60054 72122 8352/ 333 56999 59014 70070 83618 88458=
41850,2024,08,01,12,00,AAXX 01124 41850 31450 80000 10290 20250 39874 49970 70522 8252/ 333 10348 56999 59003 70070 82618 88458=
41850,2024,08,01,18,00,AAXX 01184 41850 31430 81803 10271 20250 39915 40012 70522 8252/ 333 56999 58005 70070 82617 88457=
41851,2024,07,26,12,00,AAXX 26124 41851 32450 51202 10355 20280 39854 49914 83430 333 10376 56990 59003 70000 82618 83362=
41851,2024,07,26,18,00,AAXX 26184 41851 NIL=
41851,2024,07,27,06,00,AAXX 27064 41851 32450 61202 10347 20290 39915 49975 83530 333 56990 58031 70000 83618 84362=
41851,2024,07,27,18,00,AAXX 27184 41851 NIL=
41851,2024,07,28,12,00,AAXX 28124 41851 32450 30000 10355 20260 39898 49958 83500 333 10364 56900 58003 70148 83618=
41851,2024,07,29,06,00,AAXX 29064 41851 NIL=
41851,2024,07,30,06,00,AAXX 30064 41851 32450 31802 10335 20270 39945 40006 83500 333 56900 58020 70005 83618=
41851,2024,07,30,12,00,AAXX 30124 41851 NIL=
41851,2024,07,31,06,00,AAXX 31064 41851 NIL=
41851,2024,07,31,12,00,AAXX 31124 41851 32450 20000 10342 20270 39913 49973 82500 333 10360 56900 59013 70000 82618=
41851,2024,08,01,06,00,AAXX 01064 41851 32450 61802 10305 20260 39936 49997 83510 333 56990 59017 70050 83618 84459=
41851,2024,08,01,12,00,AAXX 01124 41851 NIL=
41851,2024,08,01,18,00,AAXX 01184 41851 32450 51803 10280 20240 39945 40007 83510 333 56990 59001 70110 83618 84459=
41856,2024,07,26,12,00,AAXX 26124 41856 11450 30901 10310 20270 39883 49917 60034 70162 82430 333 10365 56990 59002 70032 81618 83362=
41856,2024,07,26,18,00,AAXX 26184 41856 NIL=
41856,2024,07,27,06,00,AAXX 27064 41856 32456 40901 10356 20280 39939 49973 83430 333 56990 58033 70032 82618 84362=
41856,2024,07,27,18,00,AAXX 27184 41856 32930 40000 10310 20280 39959 49994 83430 333 56990 58031 70000 82618 84362=
41856,2024,07,28,12,00,AAXX 28124 41856 32950 40000 10345 20270 39923 49957 84030 333 10364 56090 58001 70000 84362=
41856,2024,07,28,18,00,AAXX 28184 41856 32930 20000 10305 20300 39949 49984 82030 333 56090 59010 70000 82362=
41856,2024,07,29,00,00,AAXX 29004 41856 32440 81401 10290 20260 39950 49985 8352/ 333 56999 59015 70000 83618 88458=
41856,2024,07,29,06,00,AAXX 29064 41856 32450 51402 10321 20250 39957 49992 82530 333 56990 59003 70000 82618 85362=
41856,2024,07,30,06,00,AAXX 30064 41856 32956 31302 10330 20260 39972 40005 83030 333 56090 58014 70000 83362=
41856,2024,07,30,12,00,AAXX 30124 41856 32956 31101 10322 20250 39956 49992 83030 333 10340 56090 58016 70000 83362=
41856,2024,07,30,18,00,AAXX 30184 41856 32440 61301 10290 20260 39980 40015 84430 333 56990 58015 70000 83618 84458=
41856,2024,07,31,00,00,AAXX 31004 41856 32440 61502 10280 20260 39979 40014 84430 333 56990 58012 70000 83618 84458=
41856,2024,07,31,06,00,AAXX 31064 41856 32450 61601 10333 20270 39980 40015 84430 333 56990 58009 70000 83618 84458=
41856,2024,07,31,12,00,AAXX 31124 41856 32950 31401 10325 20280 39943 49977 83030 333 10360 56090 58013 70000 83362=
41856,2024,07,31,18,00,AAXX 31184 41856 32930 30000 10285 20260 39976 40011 83030 333 56090 59004 70000 83362=
41856,2024,08,01,00,00,AAXX 01004 41856 32440 80000 10277 20260 39962 49997 8452/ 333 56999 59017 70000 84618 88458=
41856,2024,08,01,06,00,AAXX 01064 41856 32950 30902 10335 20260 39955 49989 82030 333 56090 59025 70000 82362=
41856,2024,08,01,12,00,AAXX 01124 41856 11450 40902 10280 20250 39947 49982 60086 70162 82430 333 10340 56990 58004 70082 82618 84362=
41856,2024,08,01,18,00,AAXX 01184 41856 32430 41402 10280 20240 39978 40013 82430 333 56990 58002 70082 82618 84362=
41858,2024,07,26,12,00,AAXX 26124 41858 NIL=
41858,2024,07,26,18,00,AAXX 26184 41858 01/50 20000 10310 20280 39910 49954 70520 82040 333 59004 70000 82362==
41858,2024,07,27,03,00,AAXX 27034 41858 01450 50905 10318 20270 39940 49984 70562 83520 333 20298 58035 70006 83618 85460==
41858,2024,07,27,18,00,AAXX 27184 41858 NIL=
41858,2024,07,28,09,00,AAXX 28094 41858 01450 51205 10350 20260 39928 49971 70522 85800 333 58013 70000 83618 83825==
41858,2024,07,28,12,00,AAXX 28124 41858 NIL=
41858,2024,07,29,03,00,AAXX 29034 41858 01550 30905 10330 20260 39951 49995 70520 83100 333 20294 59011 70000 83825==
41858,2024,07,29,06,00,AAXX 29064 41858 01550 50905 10340 20260 39948 49990 70522 83140 333 59004 70000 83825 85362==
41858,2024,07,30,06,00,AAXX 30064 41858 01450 41205 10350 20270 39960 40003 70522 84400 333 58014 70000 82615 83825==
41858,2024,07,30,09,00,AAXX 30094 41858 01450 41205 10344 20260 39944 49988 70522 84200 333 58013 70000 82615 83825==
41858,2024,07,30,12,00,AAXX 30124 41858 01550 41505 10335 20270 39944 49988 70520 83240 333 10355 58013 70000 82825 83362==
41858,2024,07,30,15,00,AAXX 30154 41858 01450 40000 10315 20270 39969 40013 70522 82520 333 58018 70000 82618 83458==
41858,2024,07,30,21,00,AAXX 30214 41858 01430 40000 10295 20280 39966 40011 70522 83520 333 58015 70000 83618 84458==
41858,2024,07,31,00,00,AAXX 31004 41858 01420 60000 10292 20270 39972 40017 71022 84520 333 58016 70000 84616 86458==
41858,2024,07,31,06,00,AAXX 31064 41858 01440 51805 10350 20270 39969 40012 70522 85800 333 58009 70000 83615 83825==
41858,2024,07,31,09,00,AAXX 31094 41858 01450 51205 10358 20260 39940 49984 70522 85800 333 59004 70000 83616 83825==
41858,2024,08,01,00,00,AAXX 01004 41858 01440 60000 10294 20280 39949 49997 70522 84520 333 59023 70000 84616 86458==
41858,2024,08,01,03,00,AAXX 01034 41858 01440 60908 10305 20270 39961 40005 70562 84520 333 20282 59012 70006 84616 86458==
41858,2024,08,01,06,00,AAXX 01064 41858 11450 60908 10328 20260 39950 49994 69966 70562 84520 333 59019 70006 84616 86458==
41858,2024,08,01,09,00,AAXX 01094 41858 01450 70908 10280 20260 39931 49976 76122 84520 333 59009 70104 84615 86458==
41858,2024,08,01,12,00,AAXX 01124 41858 NIL=
41858,2024,08,01,21,00,AAXX 01214 41858 01340 80908 10272 20250 39946 49991 76162 8572/ 333 59012 70138 83708 85615 88458==
41859,2024,07,26,00,00,AAXX 26004 41859 02440 60502 10300 20270 39894 49930 84630 333 70000 82710 83618 85362==
41859,2024,07,26,03,00,AAXX 26034 41859 02/50 40502 10350 20270 39910 49946 84030 333 20293 59004 70000 84362==
41859,2024,07,26,06,00,AAXX 26064 41859 02450 30902 10365 20280 39905 49941 82430 333 59001 70000 81618 82828 83362==
41859,2024,07,26,09,00,AAXX 26094 41859 02450 70902 10365 20280 39885 49921 85410 333 59001 70000 83618 83828 87458==
41859,2024,07,26,12,00,AAXX 26124 41859 02440 50502 10330 20270 39880 49917 82530 333 10379 59001 70000 82618 85362==
41859,2024,07,26,15,00,AAXX 26154 41859 02430 80000 10321 20280 39914 49950 8562/ 333 58011 70000 82710 83618 88458==
41859,2024,07,26,18,00,AAXX 26184 41859 02430 81302 10320 20280 39928 49964 8562/ 333 58021 70000 82710 83618 88458==
41859,2024,07,27,00,00,AAXX 27004 41859 02435 81302 10300 20280 39932 49968 8562/ 333 58038 70000 82710 83618 88458==
41859,2024,07,27,03,00,AAXX 27034 41859 02450 31302 10340 20270 39947 49984 82430 333 20295 58037 70000 81618 82828 83362==
41859,2024,07,27,06,00,AAXX 27064 41859 02450 40903 10365 20270 39939 49975 84400 333 58034 70000 81618 83828==
41859,2024,07,27,09,00,AAXX 27094 41859 02450 61802 10367 20270 39904 49940 84420 333 58019 70000 83618 85458==
41859,2024,07,27,12,00,AAXX 27124 41859 02450 61302 10360 20260 39920 49956 84470 333 10370 58040 70000 83618 86458==
41859,2024,07,27,15,00,AAXX 27154 41859 02430 60000 10328 20280 39947 49984 83520 333 58033 70000 83618 86458==
41859,2024,07,27,18,00,AAXX 27184 41859 02430 81301 10315 20280 39958 49994 8562/ 333 58030 70000 82710 84618 88458==
41859,2024,07,28,00,00,AAXX 28004 41859 02435 81302 10300 20270 39962 49998 8562/ 333 58030 70000 83710 84618 88458==
41859,2024,07,28,03,00,AAXX 28034 41859 41450 71302 10311 20260 39971 40007 70262 84620 333 20278 58029 83710 84618 88458==
41859,2024,07,28,06,00,AAXX 28064 41859 11450 51302 10351 20260 39959 49995 60006 70262 83510 333 58020 83618 85458==
41859,2024,07,28,09,00,AAXX 28094 41859 42450 50000 10358 20260 39933 49969 83570 333 58029 83618 85458==
41859,2024,07,28,12,00,AAXX 28124 41859 42450 60000 10352 20270 39923 49959 83570 333 10370 58003 83618 86458==
41859,2024,07,28,18,00,AAXX 28184 41859 42430 80000 10315 20290 39950 49986 8562/ 333 59008 82710 84618 88458==
41859,2024,07,28,21,00,AAXX 28214 41859 42430 80000 10307 20290 39945 49981 8562/ 333 59015 82710 84618 88458==
41859,2024,07,29,00,00,AAXX 29004 41859 42430 80000 10298 20280 39949 49985 8562/ 333 59013 82710 84618 88458==
41859,2024,07,29,03,00,AAXX 29034 41859 02450 61302 10329 20270 39960 49997 83510 333 20292 58001 70000 83618 86458==
41859,2024,07,29,06,00,AAXX 29064 41859 02450 61302 10346 20270 39954 49991 83510 333 59005 70000 83618 86458==
41859,2024,07,29,12,00,AAXX 29124 41859 NIL=
41859,2024,07,29,18,00,AAXX 29184 41859 NIL=
41859,2024,07,30,03,00,AAXX 30034 41859 NIL=
41859,2024,07,30,06,00,AAXX 30064 41859 02450 51302 10342 20260 39968 40004 83510 333 58014 70000 83618 85458==
41859,2024,07,30,09,00,AAXX 30094 41859 02450 61302 10349 20270 39952 49989 85410 333 58014 70000 82618 83825 86458==
41859,2024,07,30,12,00,AAXX 30124 41859 02450 51302 10336 20270 39953 49990 85410 333 10350 58015 70000 82618 82825 85458==
41859,2024,07,30,15,00,AAXX 30154 41859 02430 71303 10312 20270 39978 40014 84620 333 58016 70000 82710 83618 87458==
41859,2024,07,30,18,00,AAXX 30184 41859 02430 81301 10298 20280 39987 40023 8562/ 333 58018 70000 82710 84618 88458==
41859,2024,07,30,21,00,AAXX 30214 41859 02430 81301 10294 20270 39982 40019 8562/ 333 58017 70000 83710 84618 88458==
41859,2024,07,31,00,00,AAXX 31004 41859 02435 81301 10290 20280 39979 40016 8562/ 333 58011 70000 83710 84618 88458==
41859,2024,07,31,03,00,AAXX 31034 41859 02450 81302 10312 20270 39983 40019 8562/ 333 20285 58009 70000 82710 84618 88458==
41859,2024,07,31,06,00,AAXX 31064 41859 02450 61302 10349 20270 39977 40014 84620 333 58009 70000 82710 84618 86458==
41859,2024,07,31,09,00,AAXX 31094 41859 02450 61302 10360 20260 39947 49983 84430 333 59005 70000 82618 83828 85362==
41859,2024,07,31,12,00,AAXX 31124 41859 02950 01802 10340 20260 39941 49978 333 10362 59012 70000==
41859,2024,07,31,15,00,AAXX 31154 41859 02430 80000 10317 20280 39970 40006 8352/ 333 59008 70000 83618 88458==
41859,2024,07,31,18,00,AAXX 31184 41859 01430 81302 10294 20280 39974 40010 70262 8562/ 333 59013 70010 82710 84618 88458==
41859,2024,07,31,21,00,AAXX 31214 41859 02430 51302 10286 20270 39960 49996 82530 333 59022 70012 82618 85362==
41859,2024,08,01,00,00,AAXX 01004 41859 02435 81302 10281 20260 39958 49994 8562/ 333 59021 70012 82710 84618 88458==
41859,2024,08,01,03,00,AAXX 01034 41859 02450 51302 10327 20260 39969 40005 83510 333 20277 59014 70012 83618 85458==
41859,2024,08,01,06,00,AAXX 01064 41859 02450 51302 10346 20270 39956 49993 83510 333 59021 70012 83618 85458==
41859,2024,08,01,09,00,AAXX 01094 41859 01340 80504 10274 20260 39950 49987 79562 8572/ 333 58003 70182 83708 85616 88456==
41859,2024,08,01,12,00,AAXX 01124 41859 01450 81302 10285 20260 39942 49978 70296 8562/ 333 10352 58001 70186 83710 84618 88458==
41859,2024,08,01,15,00,AAXX 01154 41859 02430 81804 10295 20250 39967 40003 8562/ 333 59003 70186 83710 84618 88458==
41859,2024,08,01,18,00,AAXX 01184 41859 02430 81303 10285 20260 39974 40010 8562/ 333 58000 70174 83710 84618 88458==
41859,2024,08,01,21,00,AAXX 01214 41859 01430 81302 10280 20260 39968 40004 70262 8562/ 333 58008 70184 83710 84618 88458==
41863,2024,07,26,12,00,AAXX 26124 41863 02457 51301 10357 20280 39871 49912 83520 333 10381 59013 70000 83618 85458==
41863,2024,07,26,18,00,AAXX 26184 41863 NIL=
41863,2024,07,27,03,00,AAXX 27034 41863 02557 40902 10331 20260 39941 49982 84400 333 20292 58034 70000 84625==
41863,2024,07,27,06,00,AAXX 27064 41863 02557 31303 10360 20260 39934 49975 83400 333 58033 70000 83625==
41863,2024,07,27,15,00,AAXX 27154 41863 02950 00000 10318 20280 39939 49981 333 58029 70000==
41863,2024,07,27,18,00,AAXX 27184 41863 NIL=
41863,2024,07,28,00,00,AAXX 28004 41863 02/50 40000 10295 20270 39951 49993 84030 333 58028 70000 84362==
41863,2024,07,28,09,00,AAXX 28094 41863 02457 50902 10348 20270 39928 49969 85400 333 58013 70000 82618 83828==
41863,2024,07,28,12,00,AAXX 28124 41863 02557 40000 10360 20260 39917 49958 83101 333 58004 70000 83828 82074==
41863,2024,07,28,18,00,AAXX 28184 41863 02957 00000 10308 20280 39943 49985 333 59007 70000==
41863,2024,07,28,21,00,AAXX 28214 41863 02/57 30000 10302 20270 39941 49983 83030 333 59004 70000 83362==
41863,2024,07,29,00,00,AAXX 29004 41863 02/57 40000 10295 20280 39943 49985 83031 333 59008 70000 83362 82074==
41863,2024,07,29,03,00,AAXX 29034 41863 02457 51302 10318 20270 39952 49994 85400 333 20290 59009 70000 83618 85825==
41863,2024,07,29,06,00,AAXX 29064 41863 02457 61104 10352 20250 39945 49986 86400 333 59005 70000 84618 86830==
41863,2024,07,30,06,00,AAXX 30064 41863 02457 61302 10346 20260 39960 40001 84420 333 58015 70000 83618 86458==
41863,2024,07,30,12,00,AAXX 30124 41863 NIL=
41863,2024,07,31,06,00,AAXX 31064 41863 02457 51303 10318 20280 39971 40013 85400 333 20289 58006 70000 83618 85825==
41863,2024,07,31,09,00,AAXX 31094 41863 02457 60902 10358 20260 39941 49982 83520 333 59008 70000 83618 86458==
41863,2024,07,31,12,00,AAXX 31124 41863 02/57 30901 10348 20280 39933 49974 83030 333 10365 59011 70000 83362==
41863,2024,08,01,00,00,AAXX 01004 41863 32457 50904 10340 20240 39953 49994 85400 333 56200 59018 70000 82618 85828=
41863,2024,08,01,03,00,AAXX 01034 41863 02457 51304 10308 20250 39962 40004 83520 333 20280 59009 70000 83618 85458==
41863,2024,08,01,06,00,AAXX 01064 41863 02457 50904 10340 20240 39953 49994 85400 333 59018 70000 82618 85828==
41863,2024,08,01,09,00,AAXX 01094 41863 01356 80903 10285 20270 39930 49972 76122 8572/ 333 59011 70080 83708 85614 88456==
41863,2024,08,01,12,00,AAXX 01124 41863 21456 80903 10290 20250 39926 49968 70262 8772/ 333 10358 59007 60085 70080 85618 88458==
41863,2024,08,01,15,00,AAXX 01154 41863 02450 80904 10290 20240 39953 49995 8552/ 333 59015 70080 85618 88458==
41863,2024,08,01,18,00,AAXX 01184 41863 02450 81304 10280 20240 39952 49994 8552/ 333 59014 70080 85618 88458==
41863,2024,08,01,21,00,AAXX 01214 41863 02450 81304 10268 20250 39945 49987 8552/ 333 59005 70080 85618 88458==
41881,2024,07,26,12,00,AAXX 26124 41881 32456 61202 10345 20270 39891 49910 83520 333 10360 56990 58000 70000 83617 86459=
41881,2024,07,26,18,00,AAXX 26184 41881 NIL=
41881,2024,07,27,18,00,AAXX 27184 41881 NIL=
41881,2024,07,28,12,00,AAXX 28124 41881 32456 60902 10338 20260 39935 49955 83520 333 10354 56290 58004 70000 83618 86460=
41881,2024,07,28,18,00,AAXX 28184 41881 32450 10902 10304 20260 39965 49984 81500 333 56900 58003 70000 81620=
41881,2024,07,29,00,00,AAXX 29004 41881 32456 60000 10282 20260 39964 49984 83520 333 56990 59006 70000 83618 86460=
41881,2024,07,29,06,00,AAXX 29064 41881 NIL=
41881,2024,07,30,12,00,AAXX 30124 41881 NIL=
41881,2024,07,31,06,00,AAXX 31064 41881 NIL=
41881,2024,07,31,12,00,AAXX 31124 41881 32456 60802 10332 20260 39954 49974 83520 333 10350 56290 59015 70000 83618 86460=
41881,2024,08,01,12,00,AAXX 01124 41881 NIL=
41883,2024,07,26,00,00,AAXX 26004 41883 02/50 30000 10294 20260 39908 49928 83030 333 59007 70000 83362==
41883,2024,07,26,03,00,AAXX 26034 41883 02346 30904 10340 20270 39921 49940 83400 333 20290 59004 70000 81616 83828==
41883,2024,07,26,06,00,AAXX 26064 41883 02456 60503 10356 20270 39914 49933 83430 333 59005 70000 82616 83828 86362==
41883,2024,07,26,09,00,AAXX 26094 41883 02456 60503 10370 20250 39899 49919 83430 333 59006 70000 82616 83828 86362==
41883,2024,07,26,12,00,AAXX 26124 41883 02456 60000 10350 20250 39890 49910 83430 333 10370 59005 70000 82616 83828 86362==
41883,2024,07,26,18,00,AAXX 26184 41883 02430 80000 10305 20260 39941 49961 8552/ 333 58020 70000 85616 88459==
41883,2024,07,27,00,00,AAXX 27004 41883 02440 80000 10295 20270 39943 49963 8552/ 333 58035 70000 85616 88459==
41883,2024,07,27,03,00,AAXX 27034 41883 02456 40904 10324 20240 39956 49976 84500 333 20290 58035 70000 84616==
41883,2024,07,27,06,00,AAXX 27064 41883 02456 60906 10344 20250 39953 49972 83510 333 58039 70000 83616 86459==
41883,2024,07,27,09,00,AAXX 27094 41883 02556 60904 10356 20260 39937 49956 82130 333 58038 70000 82828 86362==
41883,2024,07,27,12,00,AAXX 27124 41883 02456 60902 10340 20260 39938 49957 82530 333 10360 48048 70000 82616 86362==
41883,2024,07,27,15,00,AAXX 27154 41883 02430 60903 10320 20270 39963 49983 83510 333 58033 70000 83616 86459==
41883,2024,07,27,18,00,AAXX 27184 41883 02430 80902 10310 20260 39977 49997 8552/ 333 58036 70000 85615 88458==
41883,2024,07,28,00,00,AAXX 28004 41883 02440 80902 10294 20270 39976 49996 8552/ 333 58033 70000 85615 88458==
41883,2024,07,28,03,00,AAXX 28034 41883 02456 60904 10326 20270 39984 40004 84420 333 20289 58028 70000 83618 86458==
41883,2024,07,28,06,00,AAXX 28064 41883 02456 60904 10346 20270 39972 49992 84420 333 58019 70000 83618 86458==
41883,2024,07,28,09,00,AAXX 28094 41883 02456 40904 10355 20260 39947 49966 84500 333 58010 70000 84616==
41883,2024,07,28,12,00,AAXX 28124 41883 02456 31302 10348 20250 39935 49954 83500 333 10356 59003 70000 83616==
41883,2024,07,28,18,00,AAXX 28184 41883 02/30 30907 10312 20260 39967 49987 83030 333 59010 70000 83362==
41883,2024,07,28,21,00,AAXX 28214 41883 02430 60902 10300 20270 39963 49983 82530 333 59018 70000 82616 86362==
41883,2024,07,29,00,00,AAXX 29004 41883 02450 60902 10290 20270 39965 49985 83530 333 59011 70000 82616 86362==
41883,2024,07,29,03,00,AAXX 29034 41883 02456 71802 10306 20270 39977 49997 84520 333 20285 59007 70000 84616 87458==
41883,2024,07,29,06,00,AAXX 29064 41883 02456 61304 10334 20250 39970 49990 83830 333 59002 70000 83616 86362==
41883,2024,07,30,06,00,AAXX 30064 41883 11456 71302 10320 20270 39984 40004 60026 70262 84520 333 58014 70020 84616 87459==
41883,2024,07,30,09,00,AAXX 30094 41883 02456 71303 10330 20260 39967 49987 84820 333 58016 70000 84616 87459==
41883,2024,07,30,12,00,AAXX 30124 41883 02450 71302 10326 20270 39971 49991 84820 333 10338 58020 70020 84615 87459==
41883,2024,07,30,15,00,AAXX 30154 41883 02/30 30000 10306 20280 39992 40012 83030 333 58018 70020 83362==
41883,2024,07,30,18,00,AAXX 30184 41883 02430 81302 10300 20280 30001 40021 8452/ 333 58016 70020 84618 88458==
41883,2024,07,30,21,00,AAXX 30214 41883 02430 70000 10294 20270 39987 40007 83520 333 58008 70020 83618 87458==
41883,2024,07,31,00,00,AAXX 31004 41883 02450 80000 10292 20260 39991 40011 8452/ 333 58014 70020 84618 88458==
41883,2024,07,31,03,00,AAXX 31034 41883 02456 70904 10310 20280 39999 40019 84520 333 20285 58012 70000 83616 83828 87459==
41883,2024,07,31,06,00,AAXX 31064 41883 02456 71803 10337 20260 39992 40012 83430 333 58008 70000 81616 83828 87362==
41883,2024,07,31,09,00,AAXX 31094 41883 41456 61802 10325 20270 39967 49987 72162 83530 333 58000 83616 85362==
41883,2024,07,31,12,00,AAXX 31124 41883 11456 30902 10335 20270 39956 49975 60006 70162 83500 333 10355 59015 83616==
41883,2024,07,31,15,00,AAXX 31154 41883 42430 71304 10304 20270 39991 40011 84520 333 59001 84615 87458==
41883,2024,07,31,18,00,AAXX 31184 41883 42430 81302 10294 20270 39988 40008 8552/ 333 59013 85615 88458==
41883,2024,08,01,00,00,AAXX 01004 41883 42340 80302 10284 20260 39970 49990 8562/ 333 59021 85709 88458==
41883,2024,08,01,03,00,AAXX 01034 41883 42456 80902 10295 20260 39974 49994 8552/ 333 20279 59025 85616 88459==
41883,2024,08,01,06,00,AAXX 01064 41883 42456 70902 10308 20260 39966 49986 84520 333 59026 84616 87459==
41883,2024,08,01,09,00,AAXX 01094 41883 01450 80904 10285 20270 39946 49966 76122 8552/ 333 59021 70034 85616 88459==
41883,2024,08,01,12,00,AAXX 01124 41883 21356 80905 10285 20260 39945 49965 70262 8562/ 333 10315 59011 60085 70084 85709 88459==
41883,2024,08,01,15,00,AAXX 01154 41883 01330 80904 10270 20260 39971 49991 76166 8572/ 333 59020 70114 85709 88458==
41883,2024,08,01,18,00,AAXX 01184 41883 21330 81305 10268 20260 39977 49997 76166 8572/ 333 59011 60049 70126 85709 88458==
41883,2024,08,01,21,00,AAXX 01214 41883 01330 81304 10266 20260 39970 49990 76166 8572/ 333 59016 70196 85709 88458==
41886,2024,07,26,12,00,AAXX 26124 41886 NIL=
41886,2024,07,26,18,00,AAXX 26184 41886 NIL=
41886,2024,07,27,03,00,AAXX 27034 41886 02/57 40902 10330 20260 39965 49985 84040 333 20297 58039 70000 84362==
41886,2024,07,27,06,00,AAXX 27064 41886 02457 61604 10341 20260 39964 49984 82530 333 58044 70000 82618 85362==
41886,2024,07,27,18,00,AAXX 27184 41886 NIL=
41886,2024,07,28,09,00,AAXX 28094 41886 02/57 40000 10348 20260 39948 49968 84040 333 58000 70000 84365==
41886,2024,07,28,12,00,AAXX 28124 41886 02/56 50000 10346 20260 39942 49962 85040 333 10359 59002 70000 85365==
41886,2024,07,28,18,00,AAXX 28184 41886 21440 80000 10297 20270 39975 49995 70362 8352/ 333 59010 60015 70006 83617 88460==
41886,2024,07,28,21,00,AAXX 28214 41886 41440 80000 10290 20270 39974 49994 59009 70006 88462==
41886,2024,07,29,00,00,AAXX 29004 41886 02450 80000 10285 20270 39973 49993 8352/ 333 59008 70006 83618 88462==
41886,2024,07,29,06,00,AAXX 29064 41886 NIL=
41886,2024,07,30,06,00,AAXX 30064 41886 02457 80000 10312 20270 39997 40017 8551/ 333 58020 70002 85618 88460==
41886,2024,07,30,12,00,AAXX 30124 41886 NIL=
41886,2024,07,31,06,00,AAXX 31064 41886 02457 71302 10323 20270 30000 40020 84570 333 58003 70318 84618 87460==
41886,2024,07,31,09,00,AAXX 31094 41886 02457 40000 10332 20270 39971 49991 83440 333 59014 70108 82618==
41886,2024,07,31,12,00,AAXX 31124 41886 02457 10000 10324 20250 39967 49987 81440 333 10335 59018 70074 81618==
41886,2024,07,31,15,00,AAXX 31154 41886 01350 80000 10276 20270 30000 40020 79562 8632/ 333 59004 70118 82710 85616 88458 81930==
41886,2024,07,31,18,00,AAXX 31184 41886 21350 80000 10276 20270 30001 40021 76196 8672/ 333 59006 60117 70180 82710 85616 88458==
41886,2024,07,31,21,00,AAXX 31214 41886 02450 80000 10274 20260 39980 40000 8552/ 333 59023 70180 85616 88458==
41886,2024,08,01,00,00,AAXX 01004 41886 01450 70000 10270 20250 39974 49994 76122 85540 333 59024 70004 85615 85362==
41886,2024,08,01,03,00,AAXX 01034 41886 01340 81106 10280 20260 39982 40002 76166 8672/ 333 20270 59026 70127 84709 85615 88457==
41886,2024,08,01,06,00,AAXX 01064 41886 21350 80906 10278 20260 39982 40002 76066 8672/ 333 59018 60049 70145 84710 85616 88458==
41886,2024,08,01,09,00,AAXX 01094 41886 01340 81304 10286 20260 39966 49986 76162 8672/ 333 59005 70151 84709 85615 88457==
41886,2024,08,01,12,00,AAXX 01124 41886 01350 81306 10278 20260 39967 49987 76062 8572/ 333 10295 58000 70161 82710 84616 88458==
41886,2024,08,01,15,00,AAXX 01154 41886 01350 81308 10275 20260 39996 40016 70262 8672/ 333 59004 70128 84710 85616 88458==
41886,2024,08,01,18,00,AAXX 01184 41886 01340 81304 10260 20250 30004 40025 76162 8672/ 333 58003 70132 84709 85615 88457==
41886,2024,08,01,21,00,AAXX 01214 41886 01350 81304 10260 20250 30002 40023 70262 8672/ 333 58022 70154 84710 85616 88458==
41888,2024,07,26,12,00,AAXX 26124 41888 32457 41203 10349 20270 39910 49920 82430 333 10355 56990 58002 70000 82618 83363=
41888,2024,07,26,18,00,AAXX 26184 41888 NIL=
41888,2024,07,27,18,00,AAXX 27184 41888 31450 61802 10300 20260 39992 40002 71322 83310 333 56990 58035 70000 81930 86460=
41888,2024,07,28,12,00,AAXX 28124 41888 32558 40901 10225 20260 39951 49961 81101 333 10346 56909 58002 70030 81825 84080=
41888,2024,07,28,18,00,AAXX 28184 41888 32950 41801 10295 20270 39980 49990 84030 333 56090 59012 70030 84365=
41888,2024,07,29,00,00,AAXX 29004 41888 32450 80000 10285 20270 39982 49992 8352/ 333 56999 59006 70000 83618 88460=
41888,2024,07,29,06,00,AAXX 29064 41888 11457 60903 10325 20260 39985 49995 69906 70162 84401 333 56990 58000 79999 83618 86080=
41888,2024,07,30,06,00,AAXX 30064 41888 11456 80902 10304 20270 30004 40014 60024 72122 8351/ 333 56999 58019 70143 83618 88460=
41888,2024,07,30,12,00,AAXX 30124 41888 11456 71802 10298 20270 39992 40088 69945 70262 82510 333 10325 56990 58025 70147 82618 87460=
41888,2024,07,31,00,00,AAXX 31004 41888 11450 80501 10265 20265 30010 40020 60688 70296 70296 8351/ 333 56999 58009 70704 83618 88460=
41888,2024,07,31,06,00,AAXX 31064 41888 32457 60901 10310 20260 30007 40017 82570 333 56990 58003 70684 82618 84460=
41888,2024,07,31,12,00,AAXX 31124 41888 32458 40901 10312 20250 39975 49985 84400 333 10312 56900 59017 70680 81618 83822=
41888,2024,07,31,18,00,AAXX 31184 41888 11450 80901 10280 20260 30007 40017 60188 70296 8252/ 333 56999 59005 70860 82618 88460=
41888,2024,08,01,00,00,AAXX 01004 41888 11450 81806 10265 20260 39995 40005 60087 76162 8532/ 333 56499 59012 70268 82710 83615 81930 88459=
41888,2024,08,01,06,00,AAXX 01064 41888 11450 81806 10265 20260 39995 40005 60087 76162 8532/ 333 56499 59012 70268 82710 83615 81930 88459=
41888,2024,08,01,12,00,AAXX 01124 41888 NIL=
41891,2024,07,26,00,00,AAXX 26004 41891 01430 80904 10288 20260 39907 49946 70522 8532/ 333 59007 70000 82710 83616 88458 81930==
41891,2024,07,26,03,00,AAXX 26034 41891 01445 60903 10338 20270 39908 49945 70522 82330 333 20281 59013 70000 83616 85365 81930==
41891,2024,07,26,06,00,AAXX 26064 41891 01450 50906 10370 20240 39899 49935 70522 83330 333 59003 70000 83616 83365 81930==
41891,2024,07,26,09,00,AAXX 26094 41891 01450 50805 10370 20220 39884 49920 70522 83301 333 58001 70000 82616 83074 81930==
41891,2024,07,26,12,00,AAXX 26124 41891 01940 51702 10355 20230 39886 49922 70522 82502 333 10373 58013 70000 84616 84074==
41891,2024,07,26,18,00,AAXX 26184 41891 01430 62103 10310 20270 39934 49972 70522 84330 333 58027 70000 83616 86365 81930==
41891,2024,07,26,21,00,AAXX 26214 41891 01430 61803 10305 20220 39938 49976 70522 84330 333 58029 70000 83616 86365 81930==
41891,2024,07,27,00,00,AAXX 27004 41891 01450 61003 10300 20280 39938 49976 70522 84330 333 58029 70000 83616 86365 81930==
41891,2024,07,27,03,00,AAXX 27034 41891 01450 62003 10345 20270 39954 49990 70522 83530 333 20298 58044 70000 83616 86365==
41891,2024,07,27,06,00,AAXX 27064 41891 01450 51503 10355 20260 39944 49981 70522 82530 333 58045 70000 83615 85365==
41891,2024,07,27,09,00,AAXX 27094 41891 42456 31304 10330 20270 39958 49996 83500 333 58046 83618==
41891,2024,07,27,12,00,AAXX 27124 41891 01450 41902 10359 20250 39924 49961 70521 82302 333 10370 58038 70000 81616 82074 81930==
41891,2024,07,27,15,00,AAXX 27154 41891 01430 62003 10317 20290 39952 49989 71321 83330 333 58027 70000 83616 85365 81930==
41891,2024,07,27,18,00,AAXX 27184 41891 21430 82103 10295 20260 39973 40011 70562 8532/ 333 58039 69925 70002 82710 83616 88458 81930==
41891,2024,07,28,00,00,AAXX 28004 41891 21440 80000 10280 20260 39961 49999 70562 83330 333 58023 60038 70032 83616 85365 81930==
41891,2024,07,28,03,00,AAXX 28034 41891 01440 50204 10340 20240 39968 40005 70522 83330 333 20275 58016 70032 83616 85365 81930==
41891,2024,07,28,06,00,AAXX 28064 41891 01440 62704 10352 20250 39957 49994 70522 84330 333 58014 70032 83616 85365 81930==
41891,2024,07,28,09,00,AAXX 28094 41891 01450 60902 10350 20230 39929 49966 70522 83302 333 58005 70032 82616 84077 81930==
41891,2024,07,28,12,00,AAXX 28124 41891 01450 50000 10349 20250 39921 49958 70522 82502 333 10363 59003 70032 82616 84077==
41891,2024,07,28,18,00,AAXX 28184 41891 01430 82502 10302 20260 39952 49990 71321 8532/ 333 59021 70030 82710 84615 88458 81930==
41891,2024,07,28,21,00,AAXX 28214 41891 01403 82703 20270 39956 49994 79596 8632/ 333 59011 70080 86708 88458 81925==
41891,2024,07,29,00,00,AAXX 29004 41891 21330 80303 10278 20270 39961 49999 76196 8632/ 333 58000 60109 70102 86708 88458 81925==
41891,2024,07,29,03,00,AAXX 29034 41891 01440 80404 10305 20270 39974 40011 70562 8532/ 333 20275 58006 70103 82710 83616 88458 81928==
41891,2024,07,29,06,00,AAXX 29064 41891 01445 83604 10325 20260 39962 49999 70526 8532/ 333 58005 70103 82710 83616 88458 81928==
41891,2024,07,30,06,00,AAXX 30064 41891 01445 80902 10308 20250 39984 40022 70522 8532/ 333 58022 70010 82710 84616 88458 81930==
41891,2024,07,30,09,00,AAXX 30094 41891 01440 80804 10305 20260 39966 40003 70522 8532/ 333 58027 70010 82710 84615 88458 81930==
41891,2024,07,30,12,00,AAXX 30124 41891 01430 80000 10297 20270 39965 40003 70522 8532/ 333 10322 58022 70010 82710 84615 88458 81930==
41891,2024,07,30,15,00,AAXX 30154 41891 01430 60503 10292 20270 39988 40026 70522 84330 333 70016 83616 86365 81930==
41891,2024,07,30,18,00,AAXX 30184 41891 01430 82503 10282 20260 39986 40024 72122 8632/ 333 58002 70000 85710 88458 81928==
41891,2024,07,30,21,00,AAXX 30214 41891 41430 80503 10270 20260 39987 40025 70522 8632/ 333 58000 85710 88458 81928==
41891,2024,07,31,00,00,AAXX 31004 41891 21350 80103 10260 20260 39987 40025 79596 8692/ 333 59005 60747 70740 86708 88456 81926==
41891,2024,07,31,03,00,AAXX 31034 41891 01330 80000 10270 20260 39994 40032 79596 8692/ 333 20260 58003 70204 86708 88458 81925==
41891,2024,07,31,06,00,AAXX 31064 41891 01330 80000 10290 20270 39986 40024 70596 8632/ 333 58002 70204 86708 88458 81925==
41891,2024,07,31,09,00,AAXX 31094 41891 01440 61804 10316 20270 39954 49991 70562 84330 333 59012 70870 83616 86365 81930==
41891,2024,07,31,12,00,AAXX 31124 41891 01450 51003 10317 20270 39951 49988 70522 82530 333 10328 59014 70870 82615 85365==
41891,2024,07,31,15,00,AAXX 31154 41891 01325 80000 10273 20260 39987 40025 76162 8472/ 333 59001 70918 81708 83616 88456==
41891,2024,07,31,18,00,AAXX 31184 41891 21320 80000 10265 20260 39991 40029 76162 8472/ 333 58005 60077 70943 82708 83616 88456==
41891,2024,08,01,00,00,AAXX 01004 41891 11450 80000 10268 20250 39969 40007 69956 70562 83521 333 59018 70208 83118 88458==
41891,2024,08,01,03,00,AAXX 01034 41891 01330 81604 10273 20250 39990 40028 76122 8632/ 333 20263 59004 70078 85708 88458 81926==
41891,2024,08,01,06,00,AAXX 01064 41891 21330 80705 10285 20260 39993 40031 76162 8632/ 333 58007 60047 70118 85708 88458 81926==
41891,2024,08,01,09,00,AAXX 01094 41891 01330 80206 10295 20260 39968 40006 76066 8532/ 333 58014 70128 85618 88458 81926==
41891,2024,08,01,12,00,AAXX 01124 41891 01330 81005 10280 20260 39977 40015 76066 8632/ 333 10301 58026 70138 86708 88458 81925==
41891,2024,08,01,15,00,AAXX 01154 41891 01430 80603 10274 20250 30002 40040 72166 8532/ 333 58015 70090 83710 88458 81930==
41891,2024,08,01,18,00,AAXX 01184 41891 01430 80904 10257 20250 30002 40040 72162 8532/ 333 58011 70197 82710 84615 88458 81930==
41891,2024,08,01,21,00,AAXX 01214 41891 01320 80904 10256 20250 39990 40028 76162 8632/ 333 59006 70226 86708 88458 81925==
41895,2024,07,26,09,00,AAXX 26094 41895 02458 50904 10361 20270 39889 49911 84440 333 59006 70000 82616 83820==
41895,2024,07,26,12,00,AAXX 26124 41895 02456 50903 10333 20270 39890 49912 84420 333 10363 59001 70000 82616 85458==
41895,2024,07,26,18,00,AAXX 26184 41895 NIL=
41895,2024,07,27,03,00,AAXX 27034 41895 02457 60906 10322 20260 39946 49968 85401 333 20283 58027 70000 83616 83820==
41895,2024,07,27,06,00,AAXX 27064 41895 02450 80908 10322 20260 39946 49968 8532/ 333 58036 70000 84615 88458 81930==
41895,2024,07,27,15,00,AAXX 27154 41895 02450 50902 10306 20270 39959 49980 83520 333 58036 70000 83616 85458==
41895,2024,07,27,18,00,AAXX 27184 41895 02450 50902 10297 20280 39969 49984 83520 333 58026 70000 83616 85458==
41895,2024,07,28,00,00,AAXX 28004 41895 02450 50901 10283 20270 39967 49989 83520 333 58027 70000 83616 85458==
41895,2024,07,28,09,00,AAXX 28094 41895 02457 40904 10358 20270 39942 49963 84400 333 58007 70000 82616 83820==
41895,2024,07,28,12,00,AAXX 28124 41895 02456 50902 10336 20280 39934 49955 83520 333 10362 58002 70000 83616 85458==
41895,2024,07,29,06,00,AAXX 29064 41895 NIL=
41895,2024,07,30,06,00,AAXX 30064 41895 02457 60000 10324 20260 39978 40000 84430 333 58016 70000 82615 83820 85362==
41895,2024,07,30,12,00,AAXX 30124 41895 NIL=
41895,2024,07,31,06,00,AAXX 31064 41895 NIL=
41895,2024,07,31,09,00,AAXX 31094 41895 02456 60903 10360 20270 39958 49979 84410 333 59009 70032 83616 86458==
41895,2024,07,31,12,00,AAXX 31124 41895 02456 60903 10335 20270 39956 49977 84410 333 10362 59009 70018 83616 86458==
41895,2024,08,01,03,00,AAXX 01034 41895 02456 70902 10294 20260 39967 49989 84510 333 20265 59026 70262 84616 87458==
41895,2024,08,01,06,00,AAXX 01064 41895 01450 80907 10286 20280 39959 49981 72122 8542/ 333 59029 70010 84615 88458==
41895,2024,08,01,09,00,AAXX 01094 41895 02456 60904 10310 20260 39932 49954 84410 333 59026 70268 83616 86458==
41895,2024,08,01,12,00,AAXX 01124 41895 01450 80902 10285 20280 39931 49953 70362 8442/ 333 10317 59025 70002 84616 88458==
41895,2024,08,01,15,00,AAXX 01154 41895 01450 80502 10272 20270 39946 49968 76162 8442/ 333 59042 70336 84616 88458==
41895,2024,08,01,18,00,AAXX 01184 41895 21450 80505 10268 20268 39944 49966 76166 8452/ 333 59034 60139 70338 84615 88458==
41895,2024,08,01,21,00,AAXX 01214 41895 01450 80308 10270 20260 39937 49959 76166 8532/ 333 59033 70368 84616 88458 81930==
41897,2024,07,26,12,00,AAXX 26124 41897 NIL=
41897,2024,07,26,18,00,AAXX 26184 41897 NIL=
41897,2024,07,27,00,00,AAXX 27004 41897 32940 00902 10290 20280 39916 49929 333 59007 70000=
41897,2024,07,27,12,00,AAXX 27124 41897 32450 30902 10330 20270 39944 49957 81530 333 10355 56990 58041 70000 81618 83362=
41897,2024,07,27,18,00,AAXX 27184 41897 NIL=
41897,2024,07,28,00,00,AAXX 28004 41897 32450 30902 10285 20270 39976 49989 81530 333 56990 58060 70000 81628 83362=
41897,2024,07,28,12,00,AAXX 28124 41897 32456 51402 10330 20260 39945 49958 84610 333 10350 56990 58008 70000 82620 84460=
41897,2024,07,29,00,00,AAXX 29004 41897 32456 52202 10285 20270 39970 49983 84612 333 56999 59010 70000 82620 84460=
41897,2024,07,29,06,00,AAXX 29064 41897 32456 72202 10330 20250 39972 49985 84310 333 56990 59003 70000 83620 86460=
41897,2024,07,30,06,00,AAXX 30064 41897 32456 71402 10310 20260 39990 40003 84310 333 56990 58018 70000 82620 86460=
41897,2024,07,30,12,00,AAXX 30124 41897 32456 71402 10315 20270 39978 49991 84310 333 10334 56990 58023 70000 82620 86460=
41897,2024,07,30,18,00,AAXX 30184 41897 32456 70000 10300 20270 30000 40013 84310 333 56990 58024 70000 83620 86460=
41897,2024,07,31,00,00,AAXX 31004 41897 11456 80000 10290 20280 39998 40011 60014 70296 8432/ 333 56999 58007 70010 81710 83620 81930 88460=
41897,2024,07,31,06,00,AAXX 31064 41897 11456 72202 10325 20270 39996 40009 60016 70296 84310 333 56990 58006 70020 81710 83620 86460=
41897,2024,07,31,12,00,AAXX 31124 41897 21456 61402 10330 20250 39968 49981 84310 333 10350 56990 59010 70020 82620 84460=
41897,2024,07,31,18,00,AAXX 31184 41897 11450 80000 10280 20270 39990 40003 60105 70296 8432/ 333 56999 58001 70120 81710 83620 81930 88460=
41897,2024,08,01,00,00,AAXX 01004 41897 11450 82202 10285 20270 39966 49979 60032 79196 8432/ 333 56999 59030 70125 81710 83620 81930 86460=
41897,2024,08,01,06,00,AAXX 01064 41897 11450 82202 10285 20270 39966 49979 60032 79196 8432/ 333 56999 59030 70125 81710 83620 81930 86460=
41897,2024,08,01,12,00,AAXX 01124 41897 11330 80904 10265 20265 39949 49962 60083 76266 8562/ 333 10295 56999 59019 70200 83707 85612 88458=
41897,2024,08,01,18,00,AAXX 01184 41897 11325 81003 10262 20260 39973 49986 60459 76166 8562/ 333 56999 59014 70550 83707 85612 88458=
41902,2024,07,26,12,00,AAXX 26124 41902 32450 30902 10333 20260 39912 49920 82430 333 10365 56990 58012 70000 82614=
41902,2024,07,26,18,00,AAXX 26184 41902 NIL=
41902,2024,07,27,06,00,AAXX 27064 41902 32456 30902 10353 20240 39963 49972 83400 333 56900 58039 70020 82614=
41902,2024,07,27,18,00,AAXX 27184 41902 NIL=
41902,2024,07,28,00,00,AAXX 28004 41902 32450 40902 10296 20260 39983 49991 82430 333 56990 58028 70000 82614 83362=
41902,2024,07,28,12,00,AAXX 28124 41902 NIL=
41902,2024,07,29,06,00,AAXX 29064 41902 NIL=
41902,2024,07,30,12,00,AAXX 30124 41902 NIL=
41902,2024,07,31,06,00,AAXX 31064 41902 NIL=
41902,2024,07,31,12,00,AAXX 31124 41902 11456 61401 10310 20270 39979 49987 60025 70362 83430 333 10350 56990 59011 70104 83616 86362=
41902,2024,08,01,12,00,AAXX 01124 41902 NIL=
41907,2024,07,26,00,00,AAXX 26004 41907 02445 80000 10292 20280 39949 49924 8552/ 333 59006 70000 85615 88458==
41907,2024,07,26,03,00,AAXX 26034 41907 02450 51302 10335 20270 39921 49935 85800 333 20285 59001 70000 82615 83825==
41907,2024,07,26,06,00,AAXX 26064 41907 42456 51303 10352 20250 39912 49926 59006 83825==
41907,2024,07,26,09,00,AAXX 26094 41907 02506 51303 10358 20270 39894 49908 85800 333 59005 70000 83615 83825==
41907,2024,07,26,12,00,AAXX 26124 41907 02456 51804 10342 20260 39893 49907 85830 333 10360 58001 70000 83615 83825==
41907,2024,07,26,18,00,AAXX 26184 41907 11340 81302 10292 20270 39938 49952 60026 70362 8662/ 333 58018 70015 83709 85615 88458==
41907,2024,07,27,00,00,AAXX 27004 41907 02440 51302 10282 20270 39942 49957 85800 333 58033 70015 83615 83825==
41907,2024,07,27,03,00,AAXX 27034 41907 02450 51302 10318 20260 39950 49964 85800 333 20280 58029 70015 83615 83825==
41907,2024,07,27,06,00,AAXX 27064 41907 02450 51034 10335 20270 39953 49967 85800 333 58041 70015 82615 83825==
41907,2024,07,27,09,00,AAXX 27094 41907 02456 61303 10345 20270 30006 40021 86400 333 58012 70015 84615 83825==
41907,2024,07,27,12,00,AAXX 27124 41907 02556 51303 10330 20260 39937 49951 81101 333 10355 58044 70015 81825 85080==
41907,2024,07,28,00,00,AAXX 28004 41907 02445 60000 10280 20260 39970 49985 83512 333 58028 70000 83615 83458 85680==
41907,2024,07,28,03,00,AAXX 28034 41907 02450 61302 10315 20280 39981 49995 83510 333 20279 58031 70000 82615 83825 86458==
41907,2024,07,28,06,00,AAXX 28064 41907 02450 61302 10335 20270 39977 49991 85810 333 58024 70000 82615 83825 86458==
41907,2024,07,28,09,00,AAXX 28094 41907 02456 61302 10352 20250 39945 49959 85810 333 59061 70000 83615 83825 85458==
41907,2024,07,28,12,00,AAXX 28124 41907 02956 21304 10340 20250 39938 49952 80001 333 10356 58001 70000 82080==
41907,2024,07,28,18,00,AAXX 28184 41907 02940 01802 10295 20270 39967 49982 333 59013 70000==
41907,2024,07,28,21,00,AAXX 28214 41907 02440 50000 10285 20270 39957 49972 84530 333 59016 70000 83615 84462==
41907,2024,07,29,00,00,AAXX 29004 41907 02/50 70000 10275 20270 39962 49977 83030 333 59008 70000 83362 85080==
41907,2024,07,29,03,00,AAXX 29034 41907 02450 71303 10310 20260 39974 49988 85870 333 20274 59007 70000 84615 83825 85458==
41907,2024,07,29,06,00,AAXX 29064 41907 02450 71304 10332 20250 39967 49981 85811 333 59010 70000 84615 83825 85458==
41907,2024,07,30,06,00,AAXX 30064 41907 02456 71802 10325 20280 39985 49999 85830 333 58018 70000 82615 83825 85362==
41907,2024,07,30,09,00,AAXX 30094 41907 02350 81302 10315 20290 39971 49985 8662/ 333 58022 70000 83709 85615 88458==
41907,2024,07,30,12,00,AAXX 30124 41907 02450 81302 10323 20270 39971 49985 8552/ 333 10342 58022 70000 85615 88458==
41907,2024,07,30,15,00,AAXX 30154 41907 01340 81302 10295 20290 39994 40008 72122 8662/ 333 58021 70010 83709 85615 88458==
41907,2024,07,30,18,00,AAXX 30184 41907 21340 80000 10290 20280 30000 40014 70262 8662/ 333 58017 60015 70010 83709 85615 88458==
41907,2024,07,30,21,00,AAXX 30214 41907 02340 80000 10280 20270 39992 40007 8662/ 333 58015 70010 83709 85615 88458==
41907,2024,07,31,00,00,AAXX 31004 41907 02340 80000 10280 20270 39992 40007 8662/ 333 58014 70010 83709 85615 88458==
41907,2024,07,31,03,00,AAXX 31034 41907 02450 71303 10312 20270 39997 40011 84570 333 10276 58009 70010 84615 86458==
41907,2024,07,31,06,00,AAXX 31064 41907 01456 70902 10325 20290 39993 40007 72122 84870 333 58008 70030 82615 86458==
41907,2024,07,31,09,00,AAXX 31094 41907 02456 50903 10345 20270 39962 49976 84830 333 59009 70040 81615 83825==
41907,2024,07,31,12,00,AAXX 31124 41907 02450 70000 10330 20280 39962 49976 85570 333 10358 59009 70040 85615 86458==
41907,2024,07,31,15,00,AAXX 31154 41907 01330 80902 10277 20260 39992 40007 76162 8672/ 333 59002 70090 85709 88458==
41907,2024,07,31,18,00,AAXX 31184 41907 11300 80000 10275 20270 39985 40001 60071 70266 8662/ 333 59013 70100 83709 85615 88458==
41907,2024,08,01,00,00,AAXX 01004 41907 02345 80000 10275 20270 39962 49977 8662/ 333 59030 70100 83709 85615 88458==
41907,2024,08,01,03,00,AAXX 01034 41907 02350 81302 10285 20280 39969 49983 8662/ 333 20270 59028 70100 83709 85615 88458==
41907,2024,08,01,06,00,AAXX 01064 41907 02350 81302 10300 20260 39970 49984 8662/ 333 59023 70070 83709 85615 88458==
41907,2024,08,01,09,00,AAXX 01094 41907 01350 81302 10280 20260 39936 49951 72122 8662/ 333 59026 70120 83709 85615 88458==
41907,2024,08,01,12,00,AAXX 01124 41907 01450 81802 10275 20260 39939 49954 72162 8552/ 333 10320 59023 70130 85615 88458==
41907,2024,08,01,15,00,AAXX 01154 41907 01320 81804 10264 20250 39960 49975 76162 8672/ 333 59032 70290 85709 88458==
41907,2024,08,01,18,00,AAXX 01184 41907 21320 81304 10266 20260 39958 49973 76162 8672/ 333 59029 60319 70370 85709 88458==
41907,2024,08,01,21,00,AAXX 01214 41907 01320 81303 10266 20260 39953 49968 76166 8672/ 333 59020 70470 85709 88458==
41909,2024,07,26,00,00,AAXX 26004 41909 11450 50000 10290 20270 39915 49926 60086 70162 82530 333 59006 70090 82615 84365==
41909,2024,07,26,09,00,AAXX 26094 41909 02456 41802 10363 20240 39900 49912 82530 333 59008 70090 83615 84360==
41909,2024,07,26,12,00,AAXX 26124 41909 02450 81804 10330 20240 39998 49910 8552/ 333 10365 58002 70090 85614 88458==
41909,2024,07,26,18,00,AAXX 26184 41909 NIL=
41909,2024,07,27,03,00,AAXX 27034 41909 02456 51804 10324 20240 39959 49970 82530 333 20280 58033 70000 82615 84365==
41909,2024,07,27,06,00,AAXX 27064 41909 02456 51802 10350 20250 39960 49972 82530 333 58041 70000 82615 84365==
41909,2024,07,27,15,00,AAXX 27154 41909 02/50 31302 10315 20270 39974 49985 83030 333 58038 70000 83365==
41909,2024,07,27,18,00,AAXX 27184 41909 02/40 31804 10302 20260 39984 49915 83030 333 58036 70000 83365==
41909,2024,07,28,09,00,AAXX 28094 41909 02456 31304 10349 20260 39948 49960 82830 333 58002 70000 81618==
41909,2024,07,28,12,00,AAXX 28124 41909 02456 30902 10344 20250 39941 49953 82801 333 10360 59003 70000 81618==
41909,2024,07,28,18,00,AAXX 28184 41909 02440 20000 10309 20270 39982 49993 82500 333 59002 70000 82615==
41909,2024,07,28,21,00,AAXX 28214 41909 02440 20000 10294 20260 39970 49981 81530 333 59009 70000 81615==
41909,2024,07,29,00,00,AAXX 29004 41909 02456 30000 10289 20270 39968 49979 81501 333 59009 70000 81615==
41909,2024,07,29,06,00,AAXX 29064 41909 NIL=
41909,2024,07,30,06,00,AAXX 30064 41909 01456 81301 10320 20260 39996 40007 70162 82510 333 58020 70080 82615 86458==
41909,2024,07,30,12,00,AAXX 30124 41909 NIL=
41909,2024,07,31,06,00,AAXX 31064 41909 NIL=
41909,2024,07,31,09,00,AAXX 31094 41909 02456 10902 10340 20270 39972 49984 83530 333 59010 70000 83615 84365==
41909,2024,07,31,12,00,AAXX 31124 41909 01350 80000 10300 20270 39966 49977 72162 8562/ 333 10345 59010 70080 83708 83614 88460==
41909,2024,08,01,03,00,AAXX 01034 41909 02356 81303 10284 20250 39972 49983 8662/ 333 20258 59034 70166 83708 84614 88458==
41909,2024,08,01,09,00,AAXX 01094 41909 01356 81302 10276 20260 39952 49963 70262 8672/ 333 59020 70276 85708 88458==
41909,2024,08,01,12,00,AAXX 01124 41909 NIL=
41909,2024,08,01,15,00,AAXX 01154 41909 01340 81302 10266 20260 39989 40000 76366 8672/ 333 59009 70570 85708 88458==
41909,2024,08,01,18,00,AAXX 01184 41909 21340 81804 10268 20260 39989 40000 70266 8562/ 333 59002 60169 70610 84708 88458==
41909,2024,08,01,21,00,AAXX 01214 41909 02340 81802 10268 20260 39981 49992 8562/ 333 58003 70610 84708 88458==
41915,2024,07,26,12,00,AAXX 26124 41915 21456 61302 10327 20280 39905 49929 70296 84440 333 10375 58020 60157 70424 83616 84362==
41915,2024,07,26,18,00,AAXX 26184 41915 NIL=
41915,2024,07,27,03,00,AAXX 27034 41915 02557 21302 10340 20260 39964 49989 81131 333 20277 58040 70150 81822==
41915,2024,07,27,12,00,AAXX 27124 41915 02456 71303 10340 20270 39942 49966 85320 333 10370 58037 70000 84615 87458 81928==
41915,2024,07,27,15,00,AAXX 27154 41915 01450 61302 10280 20260 39975 40000 72996 85420 333 58044 70010 84615 85458==
41915,2024,07,27,18,00,AAXX 27184 41915 NIL=
41915,2024,07,28,00,00,AAXX 28004 41915 02450 40502 10280 20260 39978 40002 82530 333 59028 70010 82616 83362==
41915,2024,07,28,09,00,AAXX 28094 41915 02456 70000 10348 20260 39944 49968 85471 333 58005 70010 83616 85458==
41915,2024,07,28,12,00,AAXX 28124 41915 02456 70000 10338 20280 39942 49966 85371 333 10360 58000 70010 84616 85458 81928==
41915,2024,07,28,21,00,AAXX 28214 41915 02450 70000 10280 20270 39969 49974 85470 333 59006 70028 84616 84458==
41915,2024,07,29,00,00,AAXX 29004 41915 02456 70000 10274 20260 39970 49995 85470 333 59008 70028 84616 84458==
41915,2024,07,29,06,00,AAXX 29064 41915 NIL=
41915,2024,07,30,09,00,AAXX 30094 41915 02456 61302 10330 20250 39977 40002 85401 333 58025 70090 83616==
41915,2024,07,30,12,00,AAXX 30124 41915 02456 70000 10313 20260 39981 40006 85371 333 10343 58014 70038 84616 85458 81928==
41915,2024,07,31,03,00,AAXX 31034 41915 02456 81302 10295 20260 30007 40032 8552/ 333 20267 58007 70022 85616 88458==
41915,2024,07,31,06,00,AAXX 31064 41915 NIL=
41915,2024,07,31,15,00,AAXX 31154 41915 01450 71301 10274 20260 30000 40025 70362 85470 333 59001 70032 84616 84458==
41915,2024,08,01,09,00,AAXX 01094 41915 02356 81308 10284 20250 39976 49999 8532/ 333 58009 70048 84709 88458 81930==
41915,2024,08,01,12,00,AAXX 01124 41915 NIL=
41923,2024,07,26,00,00,AAXX 26004 41923 02445 60000 10290 20260 39919 49929 83430 333 59008 70000 82616 85362==
41923,2024,07,26,03,00,AAXX 26034 41923 02456 71802 10320 20250 39933 49943 83430 333 20288 59002 70000 82615 86360==
41923,2024,07,26,06,00,AAXX 26064 41923 02456 71806 10340 20250 39925 40035 85330 333 59007 70000 83615 83824 81930==
41923,2024,07,26,09,00,AAXX 26094 41923 41456 53302 10354 20240 39910 49919 70162 82530 333 59001 82615 85360==
41923,2024,07,26,12,00,AAXX 26124 41923 21450 73002 10306 20270 39913 49923 72162 84670 333 10355 58011 60027 70022 82709 83615 85458==
41923,2024,07,26,15,00,AAXX 26154 41923 02/50 20000 10300 20250 39944 49954 82030 333 58015 70022 82630==
41923,2024,07,26,18,00,AAXX 26184 41923 02/45 20000 10296 20260 39953 49963 82030 333 58021 70022 82360==
41923,2024,07,26,21,00,AAXX 26214 41923 NIL=
41923,2024,07,27,00,00,AAXX 27004 41923 02340 70000 10290 20260 39958 49968 84670 333 58039 70022 82709 83615 85458==
41923,2024,07,27,03,00,AAXX 27034 41923 02450 73302 10320 20250 39970 49980 83430 333 20289 58037 70022 82615 86360==
41923,2024,07,27,06,00,AAXX 27064 41923 02356 72703 10344 20250 39969 49979 84670 333 58044 70022 82709 83615 85458==
41923,2024,07,27,09,00,AAXX 27094 41923 02350 73303 10352 20250 39953 49962 84670 333 58043 70022 82709 83618 85458==
41923,2024,07,27,12,00,AAXX 27124 41923 02350 71403 10330 20270 39955 49965 85370 333 10357 58042 70000 82709 84615 86458 81930==
41923,2024,07,27,15,00,AAXX 27154 41923 02450 41402 10308 20250 39982 49992 82530 333 58038 70000 82615 83365==
41923,2024,07,27,18,00,AAXX 27184 41923 02345 71402 10300 20250 39992 40002 84670 333 58039 70000 81709 83615 85458==
41923,2024,07,27,21,00,AAXX 27214 41923 NIL=
41923,2024,07,28,00,00,AAXX 28004 41923 02440 51402 10290 20260 39883 49993 82530 333 58025 70000 82616 83365==
41923,2024,07,28,03,00,AAXX 28034 41923 02356 61602 10314 20260 39995 40005 85360 333 20288 58025 70000 81709 84615==
41923,2024,07,28,06,00,AAXX 28064 41923 02456 51803 10348 49990 82431 333 58011 70000 81616 83080==
41923,2024,07,28,09,00,AAXX 28094 41923 02456 50902 10354 20240 39956 49965 82430 333 58003 70000 82615 85365==
41923,2024,07,28,12,00,AAXX 28124 41923 02456 61202 10338 20250 39955 49965 83530 333 10357 58000 70000 83615 86365==
41923,2024,07,28,18,00,AAXX 28184 41923 02/40 50000 10297 20250 39979 49989 85030 333 59013 70000 85365==
41923,2024,07,28,21,00,AAXX 28214 41923 01440 80000 10294 20250 39975 49985 70522 8352/ 333 59010 70000 85615 88459 81930==
41923,2024,07,29,00,00,AAXX 29004 41923 01440 80902 10290 20250 39975 49986 70522 8352/ 333 59007 70000 85615 88459 81930==
41923,2024,07,29,03,00,AAXX 29034 41923 01445 81202 10305 20260 39988 49998 70522 8532/ 333 20286 59007 70000 85615 88459 81930==
41923,2024,07,29,06,00,AAXX 29064 41923 02456 81202 10331 20250 39979 49989 8532/ 333 59001 70000 85615 88459 81930==
41923,2024,07,29,12,00,AAXX 29124 41923 NIL=
41923,2024,07,29,18,00,AAXX 29184 41923 NIL=
41923,2024,07,29,21,00,AAXX 29214 41923 NIL=
41923,2024,07,30,03,00,AAXX 30034 41923 NIL=
41923,2024,07,30,06,00,AAXX 30064 41923 01340 81803 10288 20270 30005 40015 72162 8532/ 333 58026 70142 82709 84615 88458 81930==
41923,2024,07,30,09,00,AAXX 30094 41923 01350 70000 10300 20280 39990 40000 76162 84670 333 58027 70164 82709 83615 85458==
41923,2024,07,30,12,00,AAXX 30124 41923 21350 70000 10306 20270 39990 40000 70262 84670 333 10314 58021 60028 70164 82709 83615 85458==
41923,2024,07,30,15,00,AAXX 30154 41923 02/50 30000 10292 20260 30012 40022 83030 333 58017 70164 83360==
41923,2024,07,30,18,00,AAXX 30184 41923 02/50 30000 10290 20260 30015 40025 83030 333 58014 70164 83360==
41923,2024,07,30,21,00,AAXX 30214 41923 02440 50000 10288 20270 30001 40011 82530 333 58010 70164 82515 85360==
41923,2024,07,31,00,00,AAXX 31004 41923 02340 80000 10286 20270 30005 40015 8532/ 333 58009 70164 82709 84615 88458 81930==
41923,2024,07,31,03,00,AAXX 31034 41923 02350 70000 10308 20270 30012 40022 84670 333 20282 58003 70042 82709 83615 85458==
41923,2024,07,31,06,00,AAXX 31064 41923 01350 70000 10324 20260 30004 40014 76122 84670 333 59001 70000 82709 83615 85458==
41923,2024,07,31,09,00,AAXX 31094 41923 41350 71702 10353 20260 39974 49983 76122 85370 333 59016 82709 84615 86458 81930==
41923,2024,07,31,12,00,AAXX 31124 41923 01345 70000 10280 20280 39979 49989 72162 84670 333 10353 59011 70216 81709 83615 85458==
41923,2024,07,31,15,00,AAXX 31154 41923 02340 50000 10275 20270 39999 40009 84630 333 59013 70216 81709 83615==
41923,2024,07,31,18,00,AAXX 31184 41923 01340 80000 10275 20270 39996 40006 72162 8532/ 333 59019 70006 83709 84615 88458 81930==
41923,2024,07,31,21,00,AAXX 31214 41923 NIL=
41923,2024,08,01,00,00,AAXX 01004 41923 01340 80000 10265 20260 39970 49980 76162 8632/ 333 59035 70226 83709 84615 88458 81930==
41923,2024,08,01,03,00,AAXX 01034 41923 01340 81602 10277 20270 39977 49987 72166 8632/ 333 20260 59035 70268 83709 84615 88458 81930==
41923,2024,08,01,06,00,AAXX 01064 41923 01340 81702 10271 20260 39975 49985 76162 8632/ 333 59029 70360 83708 85614 88458 81930==
41923,2024,08,01,09,00,AAXX 01094 41923 01340 81202 10278 39961 49971 76166 8632/ 333 59013 70372 83708 84613 88458 81928==
41923,2024,08,01,12,00,AAXX 01124 41923 21330 81203 10260 20260 39973 49983 76366 8632/ 333 10288 59006 60189 70324 83708 84613 88458 81928==
41923,2024,08,01,15,00,AAXX 01154 41923 01330 81802 10260 20260 39999 40009 76566 8632/ 333 58000 70466 86707 88458 81925==
41923,2024,08,01,18,00,AAXX 01184 41923 21330 81804 10260 20260 30005 40015 76366 8632/ 333 58009 60199 70506 83708 84613 88458 81928==
41923,2024,08,01,21,00,AAXX 01214 41923 01330 81202 10258 20258 39997 40007 76366 8632/ 333 58018 70522 83708 84613 88458 81928==
41926,2024,07,26,09,00,AAXX 26094 41926 02456 51503 10355 20260 39894 49907 85400 333 59001 70000 83618 83820==
41926,2024,07,26,12,00,AAXX 26124 41926 01450 60000 10290 20270 39895 49908 72122 84510 333 10367 58001 70020 84616 86458==
41926,2024,07,26,18,00,AAXX 26184 41926 NIL=
41926,2024,07,27,03,00,AAXX 27034 41926 02456 41301 10308 20270 39997 49960 84400 333 20278 58030 70020 82618 83820==
41926,2024,07,27,06,00,AAXX 27064 41926 01456 50000 10327 20270 39948 49961 70362 84401 333 58040 70010 82618 83820==
41926,2024,07,27,15,00,AAXX 27154 41926 02450 30000 10298 20270 39968 49981 83500 333 58044 70030 83618==
41926,2024,07,27,18,00,AAXX 27184 41926 02450 50000 10288 20270 39975 49988 82510 333 58038 70030 82618 85459==
41926,2024,07,28,09,00,AAXX 28094 41926 01456 51802 10348 20270 39943 49956 70162 84410 333 58007 70022 82618 83459==
41926,2024,07,28,12,00,AAXX 28124 41926 11450 50000 10325 20270 39940 49953 69921 70262 85400 333 10352 58002 79992 82618 83828==
41926,2024,07,29,06,00,AAXX 29064 41926 01456 50000 10327 20270 39966 49979 70162 84401 333 59001 70020 82618 83820==
41926,2024,07,30,06,00,AAXX 30064 41926 11450 70000 10327 20270 39986 49999 60016 70162 84510 333 58020 70064 84616 87459==
41926,2024,07,30,12,00,AAXX 30124 41926 NIL=
41926,2024,07,31,06,00,AAXX 31064 41926 NIL=
41926,2024,07,31,09,00,AAXX 31094 41926 02456 60000 10347 20270 39961 49974 83510 333 59011 70000 83617 86459==
41926,2024,08,01,03,00,AAXX 01034 41926 01350 80000 10277 20270 39968 49981 76122 8472/ 333 20272 59033 70156 83708 83615 88458==
41926,2024,08,01,06,00,AAXX 01064 41926 21456 60000 10315 20260 39959 49972 70162 84430 333 59033 60025 70156 83618 84362==
41926,2024,08,01,09,00,AAXX 01094 41926 01350 80000 10295 20280 39934 49947 70362 8632/ 333 59027 70298 83706 84614 88458 81930==
41926,2024,08,01,12,00,AAXX 01124 41926 NIL=
41926,2024,08,01,15,00,AAXX 01154 41926 01340 80000 10265 20265 39960 49973 76566 8672/ 333 59030 70612 83706 84614 88458==
41926,2024,08,01,18,00,AAXX 01184 41926 21340 81802 10265 20265 39961 49974 76366 8672/ 333 59022 60579 70800 83706 84614 88458==
41926,2024,08,01,21,00,AAXX 01214 41926 01340 81802 10264 20264 39955 49969 76366 8672/ 333 59022 70950 84706 85614 88457==
41927,2024,07,26,12,00,AAXX 26124 41927 NIL=
41927,2024,07,26,18,00,AAXX 26184 41927 NIL=
41927,2024,07,27,18,00,AAXX 27184 41927 NIL=
41927,2024,07,28,12,00,AAXX 28124 41927 NIL=
41927,2024,07,29,06,00,AAXX 29064 41927 NIL=
41927,2024,07,30,12,00,AAXX 30124 41927 NIL=
41927,2024,07,31,06,00,AAXX 31064 41927 NIL=
41927,2024,07,31,12,00,AAXX 31124 41927 11456 81803 10300 20280 39968 49982 60014 72122 8452/ 333 10330 56499 59002 70014 84616 88458=
41927,2024,08,01,00,00,AAXX 01004 41927 32450 81801 10268 20260 39962 49977 8452/ 333 56499 59033 70024 84616 88458=
41927,2024,08,01,06,00,AAXX 01064 41927 11440 81802 10270 20260 39962 49977 60024 76122 8452/ 333 56499 59034 70048 84616 88458=
41927,2024,08,01,12,00,AAXX 01124 41927 11456 81801 10268 20260 39938 49953 60014 70262 8452/ 333 10298 56499 59030 70046 84616 88458=
41929,2024,07,26,09,00,AAXX 26094 41929 02457 50907 10340 20260 39908 49917 82430 333 58000 70000 81618 84365==
41929,2024,07,26,12,00,AAXX 26124 41929 02457 71305 10315 20270 39905 49914 84470 333 10345 58005 70000 83617 85459==
41929,2024,07,26,18,00,AAXX 26184 41929 NIL=
41929,2024,07,27,03,00,AAXX 27034 41929 01456 80903 10292 20260 39964 49973 72122 8351/ 333 20284 58036 70014 83618 88462==
41929,2024,07,27,06,00,AAXX 27064 41929 21457 40904 10335 20270 39964 49973 70162 83540 333 58041 60015 70014 83618==
41929,2024,07,27,15,00,AAXX 27154 41929 02/56 41303 10302 20270 39979 49988 84030 333 58045 70014 84365==
41929,2024,07,27,18,00,AAXX 27184 41929 NIL=
41929,2024,07,28,09,00,AAXX 28094 41929 02558 51306 10343 20240 39955 49964 82130 333 58003 70000 82825 84365==
41929,2024,07,28,12,00,AAXX 28124 41929 02558 51304 10330 20260 39950 49959 81130 333 10345 58001 70000 81825 84365==
41929,2024,07,29,06,00,AAXX 29064 41929 NIL=
41929,2024,07,30,06,00,AAXX 30064 41929 21456 72302 10312 20260 30003 40012 70162 83570 333 58024 60165 70302 83618 85462==
41929,2024,07,30,12,00,AAXX 30124 41929 NIL=
41929,2024,07,31,06,00,AAXX 31064 41929 NIL=
41929,2024,07,31,09,00,AAXX 31094 41929 02458 61302 10338 20260 39975 49984 83430 333 59010 70000 82618 83682==
41929,2024,07,31,12,00,AAXX 31124 41929 21456 80000 10295 20280 39977 49986 71796 8591/ 333 10355 59006 60035 70028 84616 88459 81930==
41929,2024,08,01,03,00,AAXX 01034 41929 01456 80902 10276 20270 39973 49982 76166 8452/ 333 20265 59037 70265 84616 88458==
41929,2024,08,01,06,00,AAXX 01064 41929 21456 80000 10275 20270 39971 49980 76366 8452/ 333 59030 60157 70395 84616 88458==
41929,2024,08,01,09,00,AAXX 01094 41929 01456 81802 10285 20270 39951 49961 76166 8452/ 333 59024 70471 84616 88458==
41929,2024,08,01,12,00,AAXX 01124 41929 21456 81602 10280 20260 39958 49968 76166 8692/ 333 10290 59019 60109 70465 88616 88458==
41929,2024,08,01,15,00,AAXX 01154 41929 01450 61604 10270 20250 39991 40001 76166 8652/ 333 59003 70480 86616 88458==
41929,2024,08,01,18,00,AAXX 01184 41929 21450 81502 10270 20250 39992 40002 76166 8652/ 333 59002 60039 70486 86616 88458==
41929,2024,08,01,21,00,AAXX 01214 41929 01450 80000 10266 20250 39981 49991 76366 8652/ 333 58000 70606 86616 88458==
41933,2024,07,26,00,00,AAXX 26004 41933 02456 60000 10278 20260 39920 49929 81531 333 59010 70000 81618 84362==
41933,2024,07,26,03,00,AAXX 26034 41933 02456 50000 10318 20250 39932 49941 82530 333 20277 59006 70000 82618 85362==
41933,2024,07,26,06,00,AAXX 26064 41933 02456 51803 10326 20270 39926 49934 84430 333 59006 70000 83618 83826==
41933,2024,07,26,09,00,AAXX 26094 41933 02456 51704 10335 20290 39916 49924 84430 333 58003 70000 83618 83826==
41933,2024,07,26,12,00,AAXX 26124 41933 02456 71804 10305 20270 39920 49928 84510 333 10352 58024 70000 84618 87459==
41933,2024,07,26,15,00,AAXX 26154 41933 02456 50000 10295 20270 39946 49954 82530 333 58016 70000 82618 85362==
41933,2024,07,26,18,00,AAXX 26184 41933 02456 51802 10290 20270 39957 49965 82530 333 58024 70000 82618 85362==
41933,2024,07,27,00,00,AAXX 27004 41933 02450 40000 10280 20260 39962 49971 84400 333 58042 70000 83618==
41933,2024,07,27,03,00,AAXX 27034 41933 02456 51703 10320 20260 39976 49984 84841 333 20276 58044 70000 81618 83827==
41933,2024,07,27,06,00,AAXX 27064 41933 02456 71806 10333 20270 39972 49980 85831 333 58046 70000 82618 83827==
41933,2024,07,27,09,00,AAXX 27094 41933 02456 71905 10342 20270 39957 49966 86831 333 58041 70000 83618 83827==
41933,2024,07,27,12,00,AAXX 27124 41933 21456 71704 10302 20270 39962 49971 70262 85848 333 10347 58042 60035 70026 82617 83827 85080==
41933,2024,07,27,15,00,AAXX 27154 41933 02456 51802 10291 20260 39980 49989 82540 333 58034 70026 82618 85362==
41933,2024,07,27,18,00,AAXX 27184 41933 02/50 20000 10285 20280 39995 40004 82040 333 58038 70026 82362==
41933,2024,07,28,00,00,AAXX 28004 41933 02/56 50000 10272 20260 39979 49988 85030 333 58017 70026 85362==
41933,2024,07,28,03,00,AAXX 28034 41933 02456 51802 10320 20270 39989 49997 82530 333 20272 58013 70026 82618 85362==
41933,2024,07,28,06,00,AAXX 28064 41933 02456 51803 10330 20260 39981 49990 84430 333 58009 70026 83618 83826==
41933,2024,07,28,09,00,AAXX 28094 41933 02450 71802 10335 20290 39954 49962 84620 333 59003 70026 82710 83618 86458==
41933,2024,07,28,12,00,AAXX 28124 41933 21450 50000 10300 20270 39964 49973 70162 82530 333 10345 58002 69965 70006 82618 85362==
41933,2024,07,28,18,00,AAXX 28184 41933 01456 41902 10280 20260 39983 49991 71310 82341 333 59012 70006 81618 81928==
41933,2024,07,28,21,00,AAXX 28214 41933 02456 51802 10278 20270 39972 49980 83841 333 59009 70006 82618 83362==
41933,2024,07,29,00,00,AAXX 29004 41933 02456 61702 10275 20270 39980 49988 82848 333 58001 70006 81618 83362 85080==
41933,2024,07,29,03,00,AAXX 29034 41933 02456 61802 10305 20250 39987 49995 83510 333 20271 59002 70006 83618 86459==
41933,2024,07,29,06,00,AAXX 29064 41933 02456 61803 10329 20270 39982 49990 84430 333 58001 70006 82618 83826 85362==
41933,2024,07,30,06,00,AAXX 30064 41933 02456 81303 10295 20280 30012 40021 8562/ 333 58030 70052 82710 84618 88458==
41933,2024,07,30,09,00,AAXX 30094 41933 02456 51702 10305 20270 39997 40005 83520 333 58042 70052 83618 85458==
41933,2024,07,30,12,00,AAXX 30124 41933 02450 52303 10305 20270 39995 40003 82530 333 10308 58020 70052 82618 85362==
41933,2024,07,30,15,00,AAXX 30154 41933 02/56 20000 10285 20280 30012 40021 82030 333 58018 70052 82362==
41933,2024,07,30,18,00,AAXX 30184 41933 02456 20000 10280 20260 30012 40021 82500 333 58002 70052 82618==
41933,2024,07,30,21,00,AAXX 30214 41933 02450 50000 10276 20260 30005 40013 82530 333 59001 70052 82616 85362==
41933,2024,07,31,00,00,AAXX 31004 41933 02450 60000 10270 20250 30007 40015 83510 333 58001 70000 83616 86459==
41933,2024,07,31,03,00,AAXX 31034 41933 02450 60000 10295 20260 30018 40027 83510 333 20269 58000 70000 83618 86458==
41933,2024,07,31,06,00,AAXX 31064 41933 02456 51301 10320 20270 30006 40014 83520 333 59006 70000 83618 85458==
41933,2024,07,31,09,00,AAXX 31094 41933 01450 60000 10295 20280 39983 49991 70362 83520 333 59014 70040 83618 86458==
41933,2024,07,31,12,00,AAXX 31124 41933 21350 81302 10280 20270 39983 49991 76162 8672/ 333 10325 59012 60117 70112 84708 85616 88456==
41933,2024,07,31,15,00,AAXX 31154 41933 01340 80902 10270 20270 30003 40011 72162 8562/ 333 59009 70167 83708 85616 88458==
41933,2024,07,31,18,00,AAXX 31184 41933 11430 80902 10267 20260 30003 40011 60066 70262 8562/ 333 59009 70167 83710 85618 88458==
41933,2024,07,31,21,00,AAXX 31214 41933 02430 81703 10263 20250 39980 49988 8562/ 333 59025 70167 83710 85618 88458==
41933,2024,08,01,00,00,AAXX 01004 41933 01340 81703 10258 20250 39979 49987 76162 8672/ 333 59028 70050 84708 85614 88456==
41933,2024,08,01,03,00,AAXX 01034 41933 01340 81803 10261 20250 39995 40004 76166 8572/ 333 20255 59023 70341 83709 84615 88457==
41933,2024,08,01,06,00,AAXX 01064 41933 21340 81804 10265 20260 39993 40002 76166 8572/ 333 59013 60179 70387 83709 84615 88457==
41933,2024,08,01,09,00,AAXX 01094 41933 01450 81805 10275 20260 39976 49985 72160 8452/ 333 59007 70361 84616 88458==
41933,2024,08,01,12,00,AAXX 01124 41933 01335 81703 10256 20250 39987 49996 76162 8572/ 333 10277 58004 70335 83709 84615 88457==
41933,2024,08,01,15,00,AAXX 01154 41933 01330 81702 10257 20257 30018 40027 76166 8672/ 333 58015 70550 84708 85614 88456==
41933,2024,08,01,18,00,AAXX 01184 41933 21330 81703 10245 20245 30017 40026 76166 8672/ 333 58014 60467 70740 84708 85614 88456==
41933,2024,08,01,21,00,AAXX 01214 41933 01330 81702 10250 20250 30009 40017 76166 8672/ 333 58029 70910 84708 85614 88456==
41936,2024,07,26,00,00,AAXX 26004 41936 01430 31003 10280 20260 39906 49913 70511 82830 333 59015 70000 82615 83362==
41936,2024,07,26,03,00,AAXX 26034 41936 41430 31008 10310 20260 39919 49926 70511 82830 333 20278 59002 82615 83362==
41936,2024,07,26,06,00,AAXX 26064 41936 41440 30908 10330 20286 39913 49920 70511 82830 333 59008 82615 83362==
41936,2024,07,26,09,00,AAXX 26094 41936 01316 80912 10304 20280 39897 49904 76011 8572/ 333 59009 70010 83708 83615 88460==
41936,2024,07,26,12,00,AAXX 26124 41936 01425 51406 10300 20270 39899 49906 70562 84630 333 10336 58010 70060 82710 83615==
41936,2024,07,26,15,00,AAXX 26154 41936 01430 61506 10294 20270 39919 49926 70562 84630 333 58004 70060 82710 83615 85362==
41936,2024,07,26,18,00,AAXX 26184 41936 01440 51605 10290 20270 39937 49944 70562 83830 333 58014 70000 83615 84362==
41936,2024,07,27,00,00,AAXX 27004 41936 01420 60904 10282 20260 39937 49944 76062 84630 333 58034 70000 82710 83615 85362==
41936,2024,07,27,03,00,AAXX 27034 41936 01420 31604 10290 20280 39945 49952 70562 84630 333 20278 58026 70120 82710 83615 85362==
41936,2024,07,27,06,00,AAXX 27064 41936 01450 61604 10330 20280 39953 49960 70562 84630 333 58040 70120 82710 83615 85362==
41936,2024,07,27,09,00,AAXX 27094 41936 01450 51609 10348 20270 39944 49951 70522 84630 333 58050 70170 82710 83615==
41936,2024,07,27,12,00,AAXX 27124 41936 01450 51805 10316 20270 39944 49951 70522 84630 333 10350 58045 70120 82710 83615==
41936,2024,07,27,15,00,AAXX 27154 41936 01450 41304 10300 20270 39969 49976 70522 83630 333 58050 70120 81710 83615==
41936,2024,07,27,18,00,AAXX 27184 41936 01450 41303 10292 20276 39984 49991 70522 83630 333 58046 70120 82710 83615 83462==
41936,2024,07,28,00,00,AAXX 28004 41936 01430 41103 10282 20272 39967 49974 70522 83630 333 58030 70120 81710 83615 84362==
41936,2024,07,28,03,00,AAXX 28034 41936 41430 61005 10304 20270 39980 49987 76062 85720 333 20280 58035 83710 83615 85362==
41936,2024,07,28,06,00,AAXX 28064 41936 01316 81308 10288 20280 39972 49979 79596 8692/ 333 58019 70080 85706 83615 88460 81930==
41936,2024,07,28,09,00,AAXX 28094 41936 01440 50910 10330 20270 39951 49958 70596 333 58007 70080 83630 81710 83615==
41936,2024,07,28,12,00,AAXX 28124 41936 01440 51308 10306 20270 39944 49941 70596 83630 333 10338 58000 70000 81710 83615==
41936,2024,07,28,18,00,AAXX 28184 41936 01430 50000 10284 20260 39977 49984 70522 83830 333 59007 70080 83615 84362==
41936,2024,07,28,21,00,AAXX 28214 41936 01430 50000 10278 20260 39965 49972 70522 83830 333 59002 70080 83615 84362==
41936,2024,07,29,00,00,AAXX 29004 41936 01420 40000 10274 20260 39963 49970 70522 83830 333 59004 70080 83615 83362==
41936,2024,07,29,03,00,AAXX 29034 41936 01320 81603 10284 20270 39978 49985 76062 8672/ 333 59002 70100 84707 83615 88460==
41936,2024,07,29,06,00,AAXX 29064 41936 21204 61204 10338 20270 39967 49974 70562 84630 333 59005 60025 70020 82710 83615 86315==
41936,2024,07,30,06,00,AAXX 30064 41936 01430 61706 10306 20290 30996 40003 70596 84630 333 58022 70120 83710 83615 85362==
41936,2024,07,30,09,00,AAXX 30094 41936 01430 61807 10338 20290 39978 49985 70562 84630 333 58021 70120 83710 83615 85362==
41936,2024,07,30,12,00,AAXX 30124 41936 01430 41705 10320 20280 39973 49980 70562 82630 333 10340 58016 70000 81710 84362==
41936,2024,07,30,15,00,AAXX 30154 41936 01430 41705 10300 20280 39997 40004 70522 82630 333 58023 70120 81710 84362==
41936,2024,07,30,18,00,AAXX 30184 41936 01430 41703 10294 20270 30002 40009 70522 82630 333 58018 70120 81710 84362==
41936,2024,07,30,21,00,AAXX 30214 41936 01430 41803 10290 20280 39992 49999 70522 82630 333 58017 70070 81710 84362==
41936,2024,07,31,00,00,AAXX 31004 41936 42420 41803 10284 20270 39996 40003 58011 84362==
41936,2024,07,31,03,00,AAXX 31034 41936 01420 51404 10312 20280 30002 40009 70522 83630 333 20276 58003 70000 81710 83615==
41936,2024,07,31,06,00,AAXX 31064 41936 01425 61604 10332 20280 30997 40004 70522 85630 333 58001 70000 83710 83615==
41936,2024,07,31,09,00,AAXX 31094 41936 41425 61604 10348 20270 39967 49974 70562 84630 333 59011 82710 83615 86362==
41936,2024,07,31,12,00,AAXX 31124 41936 21310 80903 10276 20270 39978 49985 79596 8792/ 333 10350 58005 60747 70740 85706 84615 88460 81930==
41936,2024,07,31,15,00,AAXX 31154 41936 01320 72003 10274 20260 30983 40996 79661 8673/ 333 59005 70830 83708 83615 87462==
41936,2024,07,31,18,00,AAXX 31184 41936 01320 61803 10272 20260 30997 40004 70562 86630 333 59005 70090 83708 83615 86462==
41936,2024,07,31,21,00,AAXX 31214 41936 01320 60000 10272 20260 39991 49998 76122 86630 333 59001 70830 83708 83615 86362==
41936,2024,08,01,00,00,AAXX 01004 41936 01310 81703 10270 20260 39967 49974 76166 8673/ 333 59018 70250 85706 84615 81825 87460==
41936,2024,08,01,03,00,AAXX 01034 41936 01314 82603 10270 20260 39970 49977 76166 8672/ 333 20268 59032 71180 85707 83615 88460==
41936,2024,08,01,06,00,AAXX 01064 41936 21320 71804 10294 20270 39964 49970 76166 86720 333 59034 60167 71240 84708 83615 87460==
41936,2024,08,01,09,00,AAXX 01094 41936 01312 81908 10270 20260 39948 49955 76366 86720 333 59019 71380 85707 84615 88460==
41936,2024,08,01,12,00,AAXX 01124 41936 21312 81703 10270 20260 39947 49953 76366 86720 333 10300 59028 60328 70820 85707 84615 88460==
41936,2024,08,01,15,00,AAXX 01154 41936 01314 81908 10270 20260 39972 49979 76166 8672/ 333 59017 70750 85707 83615 88460==
41936,2024,08,01,18,00,AAXX 01184 41936 21320 81910 10274 20260 39976 49983 72166 8562/ 333 59021 60029 70750 84707 83615 88460==
41936,2024,08,01,21,00,AAXX 01214 41936 01312 81922 10272 20260 39962 49969 79596 8692/ 333 59029 70710 85706 83615 88460 81930==
41938,2024,07,26,12,00,AAXX 26124 41938 11456 71203 10305 20270 39910 49914 60193 70362 83872 333 10321 56399 58006 70186 82616 84362 85080=
41938,2024,07,26,18,00,AAXX 26184 41938 NIL=
41938,2024,07,27,06,00,AAXX 27064 41938 11457 61203 10320 20270 39959 49963 60026 70362 85470 333 56390 58040 70264 83616 83824=
41938,2024,07,27,18,00,AAXX 27184 41938 11345 71302 10272 20260 39983 49987 60024 76122 83712 333 56399 58040 70094 81709 83616 85079=
41938,2024,07,28,12,00,AAXX 28124 41938 11450 40000 10290 20270 39958 49962 60013 70262 84400 333 10320 56400 59001 70032 83618=
41938,2024,07,28,18,00,AAXX 28184 41938 32450 40000 10276 20270 39968 49972 83510 333 56990 59016 70016 83618=
41938,2024,07,29,00,00,AAXX 29004 41938 32450 40000 10272 20260 39968 49972 83510 333 56990 59009 70016 83618=
41938,2024,07,29,06,00,AAXX 29064 41938 NIL=
41938,2024,07,30,06,00,AAXX 30064 41938 32456 61802 10315 20260 30002 40006 83510 333 56490 58030 70037 83616 85460=
41938,2024,07,30,12,00,AAXX 30124 41938 NIL=
41938,2024,07,31,06,00,AAXX 31064 41938 NIL=
41938,2024,07,31,12,00,AAXX 31124 41938 11350 82001 10274 20270 39987 49991 60317 72196 8462/ 333 10337 56499 59002 70310 81710 84617 88459=
41938,2024,07,31,18,00,AAXX 31184 41938 11450 60000 10271 20270 39990 49994 60063 70362 82571 333 56499 59018 70372 82617 83460=
41938,2024,08,01,00,00,AAXX 01004 41938 11340 81801 10265 20265 39973 49977 60012 76162 8472/ 333 56499 59032 70380 81710 84617 88459=
41938,2024,08,01,06,00,AAXX 01064 41938 11450 81801 10287 20270 39978 49982 69923 76162 8542/ 333 56499 59030 70382 83617 83825 88459=
41938,2024,08,01,12,00,AAXX 01124 41938 11450 80000 10260 20250 39965 49969 60039 76166 8452/ 333 10289 56990 59022 70098 84618 88459=
41938,2024,08,01,18,00,AAXX 01184 41938 11450 70000 10260 20250 39985 49989 60099 76166 84510 333 56990 59005 70124 84618 84459=
41939,2024,07,26,00,00,AAXX 26004 41939 02457 82602 10280 20260 39915 49923 8352/ 333 59013 70031 83617 88459==
41939,2024,07,26,03,00,AAXX 26034 41939 02457 80000 10290 20250 39930 49938 8352/ 333 20275 59005 70031 83617 88459==
41939,2024,07,26,06,00,AAXX 26064 41939 01458 30000 10305 20280 39924 49932 72122 81530 333 59007 70041 81618 83365==
41939,2024,07,26,09,00,AAXX 26094 41939 02458 60000 10327 20290 39914 49921 83510 333 58002 70036 83617 86459==
41939,2024,07,26,12,00,AAXX 26124 41939 02458 71802 10305 20270 39920 49928 83510 333 10333 58018 70036 83617 86459==
41939,2024,07,26,15,00,AAXX 26154 41939 02456 71202 10295 20280 39940 49948 83510 333 58011 70010 83617 86459==
41939,2024,07,26,18,00,AAXX 26184 41939 02456 70000 10285 20280 39955 49963 83510 333 58007 70010 83617 86459==
41939,2024,07,27,00,00,AAXX 27004 41939 02456 60000 10283 20260 39953 49961 83510 333 58038 70010 83617 86459==
41939,2024,07,27,03,00,AAXX 27034 41939 02458 80000 10310 20270 39970 49978 8352/ 333 20272 58040 70010 83617 88459==
41939,2024,07,27,06,00,AAXX 27064 41939 02460 70000 10330 20280 39968 49976 83510 333 58044 70000 83617 86459==
41939,2024,07,27,12,00,AAXX 27124 41939 02457 50000 10315 20270 39960 49968 82530 333 10350 58040 70000 82618 83365==
41939,2024,07,27,15,00,AAXX 27154 41939 02440 60000 10298 20260 39976 49984 83510 333 58036 70000 83617 85459==
41939,2024,07,27,18,00,AAXX 27184 41939 02440 80000 10286 20260 39990 49998 8352/ 333 58035 70000 83617 88459==
41939,2024,07,28,00,00,AAXX 28004 41939 01456 80000 10278 20270 39985 49993 72162 8352/ 333 58070 70060 83617 88459==
41939,2024,07,28,03,00,AAXX 28034 41939 02458 70000 10305 20280 39994 40002 82510 333 20273 58024 70065 82617 86459==
41939,2024,07,28,06,00,AAXX 28064 41939 01458 40000 10325 20270 39978 49986 70162 82530 333 58010 70030 82618 84360==
41939,2024,07,28,09,00,AAXX 28094 41939 02459 40000 10320 20260 39961 49969 82530 333 58011 70093 82618 83362==
41939,2024,07,28,12,00,AAXX 28124 41939 02457 30000 10315 20270 39956 49964 81530 333 10330 59004 70093 81618 83365==
41939,2024,07,28,18,00,AAXX 28184 41939 02440 60000 10288 20270 39985 49993 83510 333 59005 70093 83618 85459==
41939,2024,07,29,00,00,AAXX 29004 41939 02456 50000 10275 20270 39976 49984 83530 333 59009 70028 83617 83363==
41939,2024,07,29,03,00,AAXX 29034 41939 02458 60000 10290 20270 39991 49999 83510 333 20270 59003 70028 83617 86459==
41939,2024,07,29,06,00,AAXX 29064 41939 01459 40000 10318 20270 39979 49987 70162 82530 333 58001 70003 82617 84360==
41939,2024,07,30,06,00,AAXX 30064 41939 01458 60000 10315 20280 30005 40013 70262 83530 333 58026 70020 83617 84360==
41939,2024,07,30,09,00,AAXX 30094 41939 02459 30000 10317 20270 39995 40003 82530 333 58026 70020 82618==
41939,2024,07,30,12,00,AAXX 30124 41939 02458 50000 10300 20270 39993 40001 83530 333 10322 58019 70020 83618 83364==
41939,2024,07,30,21,00,AAXX 30214 41939 02440 50000 10283 20270 30015 40023 82530 333 58010 70020 82618 83365==
41939,2024,07,31,00,00,AAXX 31004 41939 02457 20000 10280 20270 30010 40018 82500 333 58002 70020 82618==
41939,2024,07,31,06,00,AAXX 31064 41939 02458 60000 10320 20270 30008 40016 83530 333 58003 70020 83618 84360==
41939,2024,07,31,09,00,AAXX 31094 41939 01456 70000 10285 20280 39983 49991 76196 83510 333 59012 70044 83616 87459==
41939,2024,07,31,12,00,AAXX 31124 41939 21456 80000 10284 20260 39985 49992 70396 8352/ 333 10342 59008 60058 70052 83617 88459==
41939,2024,07,31,15,00,AAXX 31154 41939 01450 70000 10278 20270 30004 40012 70162 83510 333 59012 70082 83617 86459==
41939,2024,07,31,18,00,AAXX 31184 41939 11450 70000 10274 20260 30016 40024 60036 70262 82510 333 59010 70082 82617 86459==
41939,2024,07,31,21,00,AAXX 31214 41939 02440 80000 10272 20260 39990 49998 8352/ 333 59025 70082 83617 88459==
41939,2024,08,01,00,00,AAXX 01004 41939 02456 80000 10270 20260 39970 49978 8352/ 333 59040 70082 83617 88459==
41939,2024,08,01,03,00,AAXX 01034 41939 02457 80000 10288 20280 39988 49996 8352/ 333 20266 59036 70082 83617 88459==
41939,2024,08,01,06,00,AAXX 01064 41939 01450 80000 10281 20270 39970 49978 76122 8452/ 333 59038 70040 84616 88459==
41939,2024,08,01,09,00,AAXX 01094 41939 41456 80000 10269 20260 39967 49975 59016 70336 88459==
41939,2024,08,01,12,00,AAXX 01124 41939 21456 81801 10268 20260 39975 49983 70262 8352/ 333 10288 59010 60268 70328 83616 88459==
41939,2024,08,01,15,00,AAXX 01154 41939 01440 80000 10270 20250 30000 40008 70262 8352/ 333 59004 70336 83616 88459==
41939,2024,08,01,18,00,AAXX 01184 41939 11440 80000 10272 20250 30008 40016 60046 70262 8352/ 333 59008 70336 83617 88459==
41939,2024,08,01,21,00,AAXX 01214 41939 01440 80000 10265 20260 39993 40001 76122 8352/ 333 58003 70360 83616 88459==
41941,2024,07,26,00,00,AAXX 26004 41941 02450 61802 10276 20270 39925 49931 84530 333 59002 70010 84616 86362==
41941,2024,07,26,03,00,AAXX 26034 41941 02445 51702 10310 20250 39926 49933 84530 333 20270 59013 70014 84616==
41941,2024,07,26,06,00,AAXX 26064 41941 02456 61803 10315 20260 39929 49934 85420 333 59007 70010 84616 86458==
41941,2024,07,26,09,00,AAXX 26094 41941 01456 71802 10320 20270 39917 49922 70362 85420 333 59007 70010 84616 87458==
41941,2024,07,26,12,00,AAXX 26124 41941 21456 81803 10305 20280 39914 49919 70362 8632/ 333 10342 59006 60015 70010 85616 88458 81928==
41941,2024,07,26,15,00,AAXX 26154 41941 02440 71803 10290 20280 39940 49945 85420 333 58008 70010 84616 87458==
41941,2024,07,26,18,00,AAXX 26184 41941 02440 71802 10286 20286 39955 49961 85420 333 58020 70010 84616 87458==
41941,2024,07,27,00,00,AAXX 27004 41941 02450 81806 10284 20270 39958 49964 8662/ 333 58033 70010 82708 84612 88456==
41941,2024,07,27,03,00,AAXX 27034 41941 02456 71803 10323 20260 39963 49969 85420 333 20280 58037 70010 84616 87458==
41941,2024,07,27,06,00,AAXX 27064 41941 02457 51803 10332 20270 39971 49977 83520 333 58042 70010 83616 84458==
41941,2024,07,27,09,00,AAXX 27094 41941 02457 61802 10336 20270 39961 49966 83530 333 58044 70000 83616 86362==
41941,2024,07,27,12,00,AAXX 27124 41941 02456 51802 10310 20260 39958 49964 82520 333 10350 58044 70000 82616 85458==
41941,2024,07,27,15,00,AAXX 27154 41941 02456 51802 10296 20270 39984 49990 82520 333 58044 70000 82616 85458==
41941,2024,07,27,18,00,AAXX 27184 41941 02456 41803 10290 20260 39993 49999 82520 333 58038 70000 82616 84458==
41941,2024,07,28,00,00,AAXX 28004 41941 02/57 21802 10281 20260 39981 49987 81041 333 58023 70000 81362==
41941,2024,07,28,03,00,AAXX 28034 41941 02457 50000 10310 20270 39990 49996 83530 333 20281 58028 70000 83616 84362==
41941,2024,07,28,06,00,AAXX 28064 41941 02456 61802 10322 20260 39996 40002 84530 333 58025 70000 84616 86362==
41941,2024,07,28,09,00,AAXX 28094 41941 02456 60000 10325 20270 39981 49987 84530 333 58020 70000 84616 86362==
41941,2024,07,28,12,00,AAXX 28124 41941 02456 61802 10312 20270 39979 49985 84530 333 10335 58021 70000 84616 86362==
41941,2024,07,28,18,00,AAXX 28184 41941 02950 00000 10290 20270 39991 49997 333 59002 70000==
41941,2024,07,28,21,00,AAXX 28214 41941 02450 61802 10285 20270 39988 49994 84520 333 58005 70000 84616 86458==
41941,2024,07,29,00,00,AAXX 29004 41941 02450 61802 10280 20260 39986 49992 84520 333 58005 70000 84616 86458==
41941,2024,07,29,03,00,AAXX 29034 41941 02456 61802 10304 20270 39988 49994 84520 333 20275 59002 70000 84616 86458==
41941,2024,07,29,06,00,AAXX 29064 41941 01340 71801 10285 20280 39984 49990 76362 86720 333 59012 70190 83707 84612 87457==
41941,2024,07,30,06,00,AAXX 30064 41941 11350 70000 10292 20270 30017 40022 60026 70262 86620 333 58033 70064 83708 84614 87458==
41941,2024,07,30,12,00,AAXX 30124 41941 02456 60000 10298 20270 39998 40004 84520 333 10320 58028 70028 84616 86458==
41941,2024,07,30,15,00,AAXX 30154 41941 02450 31802 10285 20280 39999 40005 82520 333 58004 70028 82616 83458==
41941,2024,07,30,18,00,AAXX 30184 41941 02950 00000 10282 20280 30007 40012 333 58006 70022==
41941,2024,07,30,21,00,AAXX 30214 41941 01350 80000 10276 20276 30008 40014 76162 8672/ 333 58013 70072 83708 83614 88457==
41941,2024,07,31,00,00,AAXX 31004 41941 21350 80000 10275 20270 30009 40015 76166 8672/ 333 58006 60117 70132 83708 83614 88457==
41941,2024,07,31,03,00,AAXX 31034 41941 01456 61801 10298 20280 30018 40023 70162 83530 333 20274 58005 70120 83616 86362==
41941,2024,07,31,06,00,AAXX 31064 41941 11450 80000 10320 20270 30004 40009 60016 70362 8632/ 333 59013 70120 85612 88456 81924==
41941,2024,07,31,09,00,AAXX 31094 41941 01450 81802 10280 20270 39986 49991 72996 8792/ 333 59021 70680 85612 88456 82924==
41941,2024,07,31,12,00,AAXX 31124 41941 21450 81802 10280 20270 39983 40088 70296 8632/ 333 10335 59015 60677 70790 85612 88456 81924==
41941,2024,07,31,15,00,AAXX 31154 41941 02440 70000 10270 20270 39997 40002 85420 333 59002 70790 84616 87458==
41941,2024,07,31,18,00,AAXX 31184 41941 21440 70000 10270 20270 30001 40006 72162 85420 333 59006 60017 70800 84616 87458==
41941,2024,07,31,21,00,AAXX 31214 41941 02440 71802 10268 20268 39999 40005 85420 333 59009 70700 84616 87458==
41941,2024,08,01,00,00,AAXX 01004 41941 01450 81803 10270 20260 39993 49998 72162 8692/ 333 59016 70050 85612 88456 81924==
41941,2024,08,01,03,00,AAXX 01034 41941 01450 81802 10270 20270 39995 40000 72162 8692/ 333 20256 59023 70790 85612 88456 81924==
41941,2024,08,01,06,00,AAXX 01064 41941 01350 81803 10283 20270 39986 49991 72162 8672/ 333 59018 70894 83708 84612 88457==
41941,2024,08,01,09,00,AAXX 01094 41941 01320 81803 10266 20260 39972 49977 76262 8672/ 333 59014 70442 83707 84611 88456==
41941,2024,08,01,12,00,AAXX 01124 41941 01310 81802 10260 20260 39982 49987 76262 8672/ 333 10290 59001 70406 83707 84611 88456==
41941,2024,08,01,15,00,AAXX 01154 41941 01320 81802 10261 20261 30009 40015 76366 8672/ 333 58016 70536 85707 88456==
41941,2024,08,01,18,00,AAXX 01184 41941 21350 80000 10260 20260 30008 40014 72166 8672/ 333 58007 60289 70676 83707 84612 88456==
41941,2024,08,01,21,00,AAXX 01214 41941 01310 81802 10260 20260 39990 49996 76366 8772/ 333 59009 70832 85707 88456==
41943,2024,07,26,00,00,AAXX 26004 41943 42440 41801 10270 20250 39919 49926 82531==
41943,2024,07,26,03,00,AAXX 26034 41943 02445 51702 10310 20250 39926 49933 84530 333 20270 59013 70014 84616==
41943,2024,07,26,06,00,AAXX 26064 41943 02445 61603 10330 20250 39931 49938 84510 333 58001 70014 84616 83458==
41943,2024,07,26,09,00,AAXX 26094 41943 02450 51803 10320 20260 39920 49927 84430 333 58008 70000 82616 83828==
41943,2024,07,26,12,00,AAXX 26124 41943 02445 51902 10300 20250 39927 49934 83570 333 10347 58025 70000 83616 83458==
41943,2024,07,26,18,00,AAXX 26184 41943 02940 10000 10280 20260 39959 49966 81930 333 58027 70000 81362==
41943,2024,07,27,00,00,AAXX 27004 41943 02440 61202 10275 20260 39963 49970 83530 333 58034 70000 83616 83362==
41943,2024,07,27,03,00,AAXX 27034 41943 02445 51802 10325 20260 39977 49984 84530 333 20275 58052 70000 84616==
41943,2024,07,27,06,00,AAXX 27064 41943 02445 61903 10335 20260 39973 49980 85430 333 58042 70000 83616 83828==
41943,2024,07,27,09,00,AAXX 27094 41943 01440 71802 10310 20270 39962 49969 72122 86470 333 58042 70020 84616 83828==
41943,2024,07,27,12,00,AAXX 27124 41943 21440 61802 10303 20260 39964 49971 70162 85830 333 10352 58037 60025 70020 83616 83828==
41943,2024,07,27,15,00,AAXX 27154 41943 02440 51301 10290 20260 39990 49997 83520 333 58039 70020 83616 83458==
41943,2024,07,27,18,00,AAXX 27184 41943 02440 21801 10285 20260 39996 40003 81530 333 58037 70020 81616==
41943,2024,07,28,00,00,AAXX 28004 41943 02445 31201 10270 20250 39985 49992 81530 333 58022 70020 81616==
41943,2024,07,28,03,00,AAXX 28034 41943 02450 21302 10325 20260 39993 40000 81501 333 20270 58016 70020 81616==
41943,2024,07,28,06,00,AAXX 28064 41943 02445 61702 10330 20240 39983 49990 84520 333 58010 70020 84616 83362==
41943,2024,07,28,09,00,AAXX 28094 41943 02440 61802 10325 20260 39962 49969 84530 333 58000 70000 84616 83362==
41943,2024,07,28,12,00,AAXX 28124 41943 02440 61803 10304 20250 39965 49972 83520 333 10356 58001 70000 83616 85458==
41943,2024,07,28,18,00,AAXX 28184 41943 02430 51802 10280 20260 39989 49996 83530 333 59007 70000 83616 84362==
41943,2024,07,28,21,00,AAXX 28214 41943 02450 50000 10276 20250 39982 49989 83530 333 59009 70000 83616 83362==
41943,2024,07,29,00,00,AAXX 29004 41943 02435 60000 10268 20250 39977 49984 83530 333 59008 70000 83618 84362==
41943,2024,07,29,03,00,AAXX 29034 41943 02440 61802 10300 20250 39990 49997 83530 333 20268 59003 70000 83616 84362==
41943,2024,07,29,06,00,AAXX 29064 41943 02440 51803 10326 20270 39989 49996 83530 333 58006 70000 83616 83362==
41943,2024,07,30,06,00,AAXX 30064 41943 21440 62303 10300 20260 30014 40021 70162 84520 333 58025 60458 70588 84616 85458==
41943,2024,07,30,09,00,AAXX 30094 41943 02440 61803 10305 20260 39998 40005 84520 333 58022 70580 84616 85458==
41943,2024,07,30,12,00,AAXX 30124 41943 02435 61802 10300 20260 39995 40002 84520 333 10316 58019 70580 84616 85458==
41943,2024,07,30,15,00,AAXX 30154 41943 02450 61802 10284 20250 30019 40026 83500 333 58019 70570 83616 85458==
41943,2024,07,30,18,00,AAXX 30184 41943 02430 70000 10278 20260 30024 40031 84520 333 58014 70570 84616 86458==
41943,2024,07,30,21,00,AAXX 30214 41943 02430 60000 10272 20250 30018 40025 83520 333 58011 70570 83616 85458==
41943,2024,07,31,00,00,AAXX 31004 41943 02435 70000 10264 20250 30011 40018 8662/ 333 58006 70450 83710 84614 88458==
41943,2024,07,31,03,00,AAXX 31034 41943 02440 71802 10290 20260 30020 40027 84520 333 20258 59003 70020 84111 86458==
41943,2024,07,31,06,00,AAXX 31064 41943 02440 61803 10324 20250 30008 40015 83520 333 59006 70000 83616 85458==
41943,2024,07,31,09,00,AAXX 31094 41943 02445 61802 10298 20260 39987 49994 83520 333 59011 70030 83616 85458==
41943,2024,07,31,12,00,AAXX 31124 41943 12335 51802 10294 20250 39982 49989 60036 83520 333 10324 59013 70030 83616 84458==
41943,2024,07,31,15,00,AAXX 31154 41943 01335 81802 10266 20260 30003 40010 76162 8772/ 333 59016 70100 83709 85674 88458==
41943,2024,07,31,18,00,AAXX 31184 41943 21330 81802 10266 20260 30011 40018 70262 8662/ 333 59013 60105 70130 83710 84614 88458==
41943,2024,08,01,00,00,AAXX 01004 41943 21330 80000 10255 20250 39981 49988 76262 8772/ 333 59030 60359 70480 83709 84664 88458==
41943,2024,08,01,03,00,AAXX 01034 41943 01330 81802 10256 20250 30003 40010 76262 8772/ 333 20254 59017 70700 83709 84614 88458==
41943,2024,08,01,06,00,AAXX 01064 41943 21330 81802 10255 20250 30005 40012 76162 8772/ 333 59003 60419 70890 83709 84614 88458==
41943,2024,08,01,09,00,AAXX 01094 41943 01330 81803 10265 20260 39987 49994 70262 8662/ 333 58000 70870 83710 84614 88458==
41943,2024,08,01,12,00,AAXX 01124 41943 11330 81805 10270 20250 39993 40000 60016 70262 8662/ 333 10272 58011 70870 83709 84615 88458==
41943,2024,08,01,15,00,AAXX 01154 41943 01330 81802 10263 20250 30019 40026 76166 8772/ 333 58016 70820 84709 84614 88456==
41943,2024,08,01,18,00,AAXX 01184 41943 21330 81802 10260 20250 30020 40027 76166 8772/ 333 58009 60049 70810 84709 84614 88456==
41943,2024,08,01,21,00,AAXX 01214 41943 01330 80000 10258 20250 30001 40008 76166 8772/ 333 59001 70690 84709 84614 88456==
41944,2024,07,26,12,00,AAXX 26124 41944 NIL=
41944,2024,07,26,18,00,AAXX 26184 41944 NIL=
41944,2024,07,27,18,00,AAXX 27184 41944 NIL=
41944,2024,07,28,12,00,AAXX 28124 41944 NIL=
41944,2024,07,29,06,00,AAXX 29064 41944 NIL=
41944,2024,07,30,12,00,AAXX 30124 41944 NIL=
41944,2024,07,31,06,00,AAXX 31064 41944 NIL=
41944,2024,08,01,12,00,AAXX 01124 41944 NIL=
41946,2024,07,26,12,00,AAXX 26124 41946 01456 80506 10308 20270 39906 49910 70262 8452/ 333 10333 58001 70004 84618 88459==
41946,2024,07,26,18,00,AAXX 26184 41946 NIL=
41946,2024,07,27,03,00,AAXX 27034 41946 01456 60000 10300 20280 39961 49965 70162 85401 333 20265 58039 70528 84618 83080==
41946,2024,07,27,06,00,AAXX 27064 41946 11456 70000 10320 20280 39958 49962 69926 70362 84310 333 58044 70526 83618 86460 81928==
41946,2024,07,27,15,00,AAXX 27154 41946 02456 60000 10300 20280 39978 49983 83520 333 58042 70644 83618 86459==
41946,2024,07,27,18,00,AAXX 27184 41946 01456 60000 10284 20270 39986 49991 72162 86400 333 58043 70050 84618 83820==
41946,2024,07,28,09,00,AAXX 28094 41946 01557 40904 10324 20270 39957 49961 70162 83501 333 58003 70172 83620==
41946,2024,07,28,12,00,AAXX 28124 41946 01456 61304 10308 20280 39957 49961 70362 84530 333 10334 58001 70172 84618==
41946,2024,07,28,18,00,AAXX 28184 41946 21456 40000 10288 20280 39981 49986 70162 84300 333 59005 69988 70130 83618 81928==
41946,2024,07,28,21,00,AAXX 28214 41946 02456 60000 10284 20270 39970 49975 83530 333 59005 70020 83618 83362==
41946,2024,07,29,00,00,AAXX 29004 41946 02456 70000 10280 20270 39971 49976 82530 333 59005 70020 82618 85362==
41946,2024,07,29,06,00,AAXX 29064 41946 02456 61505 10320 20270 39978 49982 85301 333 59001 70010 83618 83080 81928==
41946,2024,07,30,06,00,AAXX 30064 41946 21456 71810 10330 20280 30000 40004 70162 85470 333 58022 69945 70065 84618 84460==
41946,2024,07,30,09,00,AAXX 30094 41946 02456 61802 10334 20260 39988 49993 83570 333 58025 70065 83618 84459==
41946,2024,07,30,12,00,AAXX 30124 41946 02456 51702 10313 20270 39986 49991 85400 333 10335 58018 70064 83618 83820==
41946,2024,07,30,15,00,AAXX 30154 41946 02/56 60000 10308 20280 30013 40018 86020 333 58023 70064 86459==
41946,2024,07,30,18,00,AAXX 30184 41946 02556 50000 10297 20280 30015 40020 85400 333 58016 70064 84620==
41946,2024,07,30,21,00,AAXX 30214 41946 02556 50000 10293 20270 30007 40012 85400 333 58012 70004 83620 83822==
41946,2024,07,31,00,00,AAXX 31004 41946 01/56 61801 10288 20280 30001 40006 72162 86070 333 58004 70006 83459 84360==
41946,2024,07,31,03,00,AAXX 31034 41946 02456 80000 10310 20280 30010 40014 8442/ 333 20284 59001 70010 83618 88460==
41946,2024,07,31,06,00,AAXX 31064 41946 11350 80000 10280 20270 30009 40014 60286 79622 8492/ 333 58009 70286 82710 83617 88459==
41946,2024,07,31,09,00,AAXX 31094 41946 01350 82304 10271 20260 39987 49992 76296 8672/ 333 59001 70668 82709 84616 88458==
41946,2024,07,31,12,00,AAXX 31124 41946 01450 80000 10271 20270 39985 49990 72196 8532/ 333 10325 59001 71076 84617 88459 81928==
41946,2024,07,31,15,00,AAXX 31154 41946 01350 80000 10280 20280 39998 40003 76162 8572/ 333 59015 71122 81710 84617 88458==
41946,2024,07,31,18,00,AAXX 31184 41946 01456 80000 10274 20260 39996 40001 70262 8452/ 333 59019 71128 84618 88459==
41946,2024,07,31,21,00,AAXX 31214 41946 02456 80000 10273 20270 39982 49987 8532/ 333 59025 71128 84618 88459 81928==
41946,2024,08,01,00,00,AAXX 01004 41946 21350 80000 10272 20270 39977 49982 79562 8692/ 333 59024 60177 71292 82709 83617 88458 81928==
41946,2024,08,01,03,00,AAXX 01034 41946 01456 80000 10285 20270 39981 49986 72196 8452/ 333 20263 59029 71342 84618 88460==
41946,2024,08,01,06,00,AAXX 01064 41946 01350 80000 10285 20280 39976 49981 76096 8532/ 333 59030 71072 84617 88459 81928==
41946,2024,08,01,09,00,AAXX 01094 41946 01350 81807 10278 20270 39957 49962 76166 8572/ 333 59030 70730 81710 84617 88459==
41946,2024,08,01,12,00,AAXX 01124 41946 21350 81806 10273 20260 39969 49974 76166 8572/ 333 10286 59016 60119 70392 81710 84617 88459==
41946,2024,08,01,15,00,AAXX 01154 41946 01356 80000 10280 20270 39991 49996 76166 8572/ 333 59007 70386 81710 84617 88459==
41946,2024,08,01,18,00,AAXX 01184 41946 21350 81803 10278 20270 39991 49996 76166 8572/ 333 59005 60059 70390 81710 84617 88459==
41947,2024,07,26,09,00,AAXX 26094 41947 01456 70902 10295 20280 39906 49908 72962 83570 333 59001 70072 83617 85458==
41947,2024,07,26,12,00,AAXX 26124 41947 01456 31405 10315 20270 39905 49907 70162 83500 333 10320 58002 70062 83618==
41947,2024,07,26,18,00,AAXX 26184 41947 NIL=
41947,2024,07,27,03,00,AAXX 27034 41947 02456 51402 10310 20260 39964 49966 82570 333 20272 58042 70102 82618 84459==
41947,2024,07,27,06,00,AAXX 27064 41947 02456 71403 10328 20270 39966 49968 83570 333 58050 70100 83618 85459==
41947,2024,07,27,15,00,AAXX 27154 41947 02450 31402 10295 20290 39980 49920 83500 333 58042 70060 82618==
41947,2024,07,27,18,00,AAXX 27184 41947 02450 31403 10290 20280 39993 49995 83500 333 58045 70060 83618==
41947,2024,07,28,09,00,AAXX 28094 41947 02456 51305 10335 20270 39958 49960 85400 333 58002 70035 83618 83825==
41947,2024,07,28,12,00,AAXX 28124 41947 01450 81302 10288 20280 39959 49961 72162 8452/ 333 10336 58001 70095 84618 88458==
41947,2024,07,29,06,00,AAXX 29064 41947 NIL=
41947,2024,07,30,06,00,AAXX 30064 41947 02456 82302 10330 20270 30006 40008 8352/ 333 58027 70042 83618 88459==
41947,2024,07,30,09,00,AAXX 30094 41947 02456 61805 10335 20290 39993 49995 83570 333 58022 70042 83618 85458==
41947,2024,07,30,12,00,AAXX 30124 41947 02456 31806 10315 20280 39989 49991 83500 333 10336 58019 70042 83618==
41947,2024,07,30,15,00,AAXX 30154 41947 02450 21802 10305 20280 30018 40020 82500 333 58026 70042 82618==
41947,2024,07,30,18,00,AAXX 30184 41947 02450 21805 10300 20280 30018 40020 82500 333 58016 70000 82618==
41947,2024,07,30,21,00,AAXX 30214 41947 02450 31802 10295 20290 30015 40017 83500 333 58018 70000 83618==
41947,2024,07,31,00,00,AAXX 31004 41947 02450 80000 10290 20280 30009 40011 8352/ 333 58011 70000 83618 88458==
41947,2024,07,31,03,00,AAXX 31034 41947 01456 71402 10305 20290 30014 40016 70162 83570 333 20285 58001 70008 83618 85458==
41947,2024,07,31,06,00,AAXX 31064 41947 01356 80000 10312 20280 30009 40011 72162 8672/ 333 58003 70020 82708 84615 88458==
41947,2024,07,31,09,00,AAXX 31094 41947 01456 51303 10315 20280 39985 49987 70162 82530 333 59008 70050 82618 84362==
41947,2024,07,31,12,00,AAXX 31124 41947 01450 80000 10290 20280 39984 49986 76162 8452/ 333 10320 59005 70080 84616 88458==
41947,2024,07,31,15,00,AAXX 31154 41947 01450 80000 10284 20260 30000 40002 76166 8452/ 333 59018 70150 84616 88458==
41947,2024,07,31,18,00,AAXX 31184 41947 21450 60000 10282 20260 39994 49996 70162 82530 333 59024 60078 70152 82618 84362==
41947,2024,07,31,21,00,AAXX 31214 41947 01450 80000 10280 20270 39982 49984 76162 8452/ 333 59033 70302 84616 88458==
41947,2024,08,01,00,00,AAXX 01004 41947 21450 80000 10265 20265 39972 49984 76162 8452/ 333 59037 60279 70422 84616 88458==
41947,2024,08,01,03,00,AAXX 01034 41947 01450 80000 10280 20260 30004 40006 70262 8352/ 333 20260 59010 70420 83618 88458==
41947,2024,08,01,06,00,AAXX 01064 41947 01350 80000 10282 20270 39977 49980 76062 8572/ 333 59031 70422 81708 83615 88458==
41947,2024,08,01,09,00,AAXX 01094 41947 01350 81802 10280 20270 39964 49966 76122 8572/ 333 59027 70418 83708 83614 88458==
41947,2024,08,01,12,00,AAXX 01124 41947 NIL=
41947,2024,08,01,15,00,AAXX 01154 41947 01330 82103 10280 20270 39994 49996 76162 8572/ 333 59006 70336 83708 84614 88458==
41947,2024,08,01,18,00,AAXX 01184 41947 21330 80000 10280 20270 30001 40003 76166 8572/ 333 58007 60029 70344 83708 83614 88458==
41947,2024,08,01,21,00,AAXX 01214 41947 01330 80000 10268 20260 39985 49987 76166 8572/ 333 58003 70292 83707 84614 88458==
41950,2024,07,26,00,00,AAXX 26004 41950 02350 80000 10280 20260 39910 49913 8562/ 333 59016 70000 82708 84616 88458==
41950,2024,07,26,03,00,AAXX 26034 41950 02350 60902 10300 20270 39923 49925 85611 333 20276 59012 70000 81708 84616 86459==
41950,2024,07,26,06,00,AAXX 26064 41950 02350 81302 10310 20270 39918 49920 8562/ 333 59013 70000 82708 84616 88458==
41950,2024,07,26,09,00,AAXX 26094 41950 01450 71403 10330 20270 39913 49915 70162 84410 333 58004 70044 83617 86459==
41950,2024,07,26,12,00,AAXX 26124 41950 11450 51203 10303 20260 39918 49920 60046 70162 84430 333 10332 58019 70044 83616 83362==
41950,2024,07,26,15,00,AAXX 26154 41950 02460 21202 10293 20270 39942 49944 82500 333 58017 70044 82617==
41950,2024,07,26,18,00,AAXX 26184 41950 41450 20000 10290 20280 39951 49953 58025 70044 82617==
41950,2024,07,27,00,00,AAXX 27004 41950 02350 80000 10277 20270 39949 49951 8562/ 333 58039 70044 82708 84616 88458==
41950,2024,07,27,03,00,AAXX 27034 41950 02450 71203 10300 20270 39975 49977 84470 333 20273 58052 70044 83617 84459==
41950,2024,07,27,06,00,AAXX 27064 41950 02450 71203 10317 20270 39973 49975 84430 333 58055 70044 83617 83362==
41950,2024,07,27,09,00,AAXX 27094 41950 02456 50902 10325 20280 39963 49965 85331 333 58050 70000 82617 83825 81928==
41950,2024,07,27,12,00,AAXX 27124 41950 21350 61503 10307 20270 39962 49964 70362 85631 333 10339 58044 60105 70096 81708 84616==
41950,2024,07,27,15,00,AAXX 27154 41950 02450 31202 10292 20270 39985 49988 83500 333 58043 70096 83617==
41950,2024,07,27,18,00,AAXX 27184 41950 02450 50000 10290 20270 39999 40001 84430 333 58048 70096 83617==
41950,2024,07,28,00,00,AAXX 28004 41950 02350 80902 10282 20260 39984 49986 8562/ 333 58035 70096 82708 84616 88458==
41950,2024,07,28,03,00,AAXX 28034 41950 02350 71203 10300 20270 39989 49991 85671 333 20278 58014 70096 82708 84616 85459==
41950,2024,07,28,06,00,AAXX 28064 41950 02350 61202 10320 20270 39979 49981 85631 333 58006 70096 81708 84616==
41950,2024,07,28,09,00,AAXX 28094 41950 02350 71302 10308 20270 39963 49965 84671 333 58000 70116 81708 84616 86459==
41950,2024,07,28,12,00,AAXX 28124 41950 11450 40000 10300 20270 39966 49968 60026 70162 83531 333 20322 58004 70020 83617==
41950,2024,07,28,18,00,AAXX 28184 41950 02450 30000 10282 20270 39981 49983 83500 333 59018 70020 83616==
41950,2024,07,28,21,00,AAXX 28214 41950 01350 71502 10276 20276 39977 49979 70362 85670 333 59003 70030 82708 84616 85459==
41950,2024,07,29,00,00,AAXX 29004 41950 01350 70000 10274 20270 39975 49978 72162 85671 333 59009 70034 82708 84616 86459==
41950,2024,07,29,03,00,AAXX 29034 41950 02350 70000 10300 20270 39988 49990 84670 333 20270 59001 70034 81708 84616 86459==
41950,2024,07,29,06,00,AAXX 29064 41950 02350 61202 10324 20250 39982 49984 84610 333 58003 70034 81708 84616 86459==
41950,2024,07,30,06,00,AAXX 30064 41950 02350 81503 10300 20270 30012 40014 8562/ 333 58030 70023 82708 84616 88458==
41950,2024,07,30,09,00,AAXX 30094 41950 02350 80000 10302 20270 30004 40006 8562/ 333 58032 70020 82708 84616 88458==
41950,2024,07,30,12,00,AAXX 30124 41950 02450 70000 10303 20270 39994 49996 83510 333 10307 58021 70000 83617 87459==
41950,2024,07,30,15,00,AAXX 30154 41950 02450 60000 10290 20280 30019 40021 83510 333 58022 70000 83617 86459==
41950,2024,07,30,18,00,AAXX 30184 41950 02350 70000 10286 20280 30014 40016 85610 333 58005 70000 82708 84616 87459==
41950,2024,07,30,21,00,AAXX 30214 41950 02350 80000 10282 20270 30009 40011 8562/ 333 58012 70000 82708 84616 88458==
41950,2024,07,31,00,00,AAXX 31004 41950 02350 80000 10279 20279 30009 40011 8562/ 333 58010 70000 82708 84616 88458==
41950,2024,07,31,03,00,AAXX 31034 41950 01340 80000 10284 20270 30018 40020 76162 8572/ 333 20276 58004 70062 82708 84616 88458==
41950,2024,07,31,06,00,AAXX 31064 41950 21450 70000 10322 20270 30009 40011 70162 83510 333 59003 60068 70064 83617 86459==
41950,2024,07,31,09,00,AAXX 31094 41950 02350 70000 10321 20260 39983 49986 85370 333 59021 70064 81708 84616 86459 81928==
41950,2024,07,31,12,00,AAXX 31124 41950 02350 80000 10294 20270 39984 49986 8532/ 333 10335 59010 70064 82708 84616 88458 81928==
41950,2024,07,31,15,00,AAXX 31154 41950 02450 40000 10286 20280 39996 49998 83530 333 59023 70064 83617==
41950,2024,07,31,18,00,AAXX 31184 41950 02450 40000 10278 20270 39999 40001 83530 333 59015 70064 83617==
41950,2024,07,31,21,00,AAXX 31214 41950 01340 80000 10268 20268 39971 49974 76162 8572/ 333 59038 70084 82708 84616 88458==
41950,2024,08,01,00,00,AAXX 01004 41950 21340 80000 10266 20266 39971 49974 76162 8572/ 333 59038 60189 70246 82708 84616 88458==
41950,2024,08,01,03,00,AAXX 01034 41950 01340 81502 10270 20260 39982 49985 76166 8572/ 333 20260 59036 70266 82708 84616 88458==
41950,2024,08,01,06,00,AAXX 01064 41950 21340 81803 10275 20270 39985 49988 76166 8572/ 333 59024 60119 70294 82707 84616 88458==
41950,2024,08,01,09,00,AAXX 01094 41950 01340 81802 10267 20260 39978 49981 76166 8572/ 333 59005 70421 82707 84616 88458==
41950,2024,08,01,12,00,AAXX 01124 41950 21335 81702 10260 20250 39985 49987 76366 8672/ 333 10276 58001 60259 70547 83707 84616 88458==
41950,2024,08,01,15,00,AAXX 01154 41950 01340 80000 10265 20265 30006 40009 76166 8672/ 333 58010 70777 83707 84615 88458==
41950,2024,08,01,18,00,AAXX 01184 41950 21350 81502 10269 20269 30005 40008 70262 8562/ 333 58006 60298 70837 82708 84616 88458==
41950,2024,08,01,21,00,AAXX 01214 41950 01340 81802 10258 20258 39998 40001 76162 8572/ 333 58027 70987 82708 84616 88458==
41951,2024,07,26,00,00,AAXX 26004 41951 01340 81303 10280 20270 39913 49918 72162 8662/ 333 59019 70002 82706 84616 88458==
41951,2024,07,26,03,00,AAXX 26034 41951 01450 61304 10300 20280 39923 49928 76122 83510 333 20274 59010 70025 83618 85459==
41951,2024,07,26,06,00,AAXX 26064 41951 01450 71507 10320 20280 39926 49931 70362 8351/ 333 59007 70033 83618 86459==
41951,2024,07,26,09,00,AAXX 26094 41951 01456 62203 10327 20280 39918 40023 70162 83510 333 58000 70035 83618 85459==
41951,2024,07,26,12,00,AAXX 26124 41951 11350 71204 10303 20270 39921 49926 69926 70362 84610 333 10329 58012 70035 81709 83618 86459==
41951,2024,07,26,15,00,AAXX 26154 41951 02450 31303 10298 20280 39943 49948 83500 333 58014 70035 83618==
41951,2024,07,26,18,00,AAXX 26184 41951 02340 81302 10296 20280 39951 49956 8662/ 333 58027 70028 82708 84618 88458==
41951,2024,07,27,00,00,AAXX 27004 41951 01450 60000 10276 20270 39954 49959 70162 83510 333 58041 70070 83618 85459==
41951,2024,07,27,03,00,AAXX 27034 41951 02456 61303 10302 20270 39971 49976 83510 333 20270 58048 70078 83618 85459==
41951,2024,07,27,06,00,AAXX 27064 41951 02456 61304 10330 20280 39970 49975 83510 333 58044 70070 83618 85459==
41951,2024,07,27,09,00,AAXX 27094 41951 02456 61503 10323 20270 39968 49973 83510 333 58050 70068 83618 85459==
41951,2024,07,27,12,00,AAXX 27124 41951 02350 71202 10307 20260 39965 49970 84610 333 10332 58044 70068 81709 83618 86459==
41951,2024,07,27,15,00,AAXX 27154 41951 02340 81303 10296 20280 39988 49993 8562/ 333 58045 70068 81708 84618 88458==
41951,2024,07,27,18,00,AAXX 27184 41951 02450 31302 10293 20270 39992 49997 83500 333 58041 70068 83618==
41951,2024,07,28,00,00,AAXX 28004 41951 01450 61302 10276 20270 39979 49984 72162 83510 333 58025 70050 83618 85459==
41951,2024,07,28,03,00,AAXX 28034 41951 02456 61304 10315 20270 39986 49991 83510 333 20272 58015 70005 83618 85459==
41951,2024,07,28,06,00,AAXX 28064 41951 01456 71304 10320 20270 39985 49990 72162 83510 333 58015 70007 83618 86459==
41951,2024,07,28,09,00,AAXX 28094 41951 01456 51505 10318 20270 39967 49972 70162 85400 333 59001 70013 83618 83825==
41951,2024,07,28,12,00,AAXX 28124 41951 11450 61402 10308 20280 39967 49972 69916 70362 83510 333 10322 58002 70013 83618 85459==
41951,2024,07,28,18,00,AAXX 28184 41951 01450 51402 10285 20280 39981 49986 70162 82510 333 59011 70005 82618 84459==
41951,2024,07,29,00,00,AAXX 29004 41951 21450 50000 10276 20270 39973 49978 70162 82510 333 59006 60038 70045 82618 84459==
41951,2024,07,29,03,00,AAXX 29034 41951 02340 81802 10300 20250 39983 49988 8562/ 333 20270 59003 70045 81708 84618 88458==
41951,2024,07,29,06,00,AAXX 29064 41951 21350 71306 10333 20260 39980 49985 70162 84610 333 59005 60015 70048 83618 86459==
41951,2024,07,30,06,00,AAXX 30064 41951 21330 80000 10293 20280 30013 40018 76162 8672/ 333 58023 60029 70090 82706 84616 88458==
41951,2024,07,30,09,00,AAXX 30094 41951 01340 81302 10296 20290 39999 40004 70262 8562/ 333 58027 70076 81708 84618 88458==
41951,2024,07,30,12,00,AAXX 30124 41951 11340 80000 10300 20280 39990 49995 69931 70262 8562/ 333 10302 58019 70071 81708 84618 88458==
41951,2024,07,30,15,00,AAXX 30154 41951 02340 80000 10288 20270 30015 40020 8562/ 333 58011 70053 81708 84618 88458==
41951,2024,07,30,18,00,AAXX 30184 41951 02340 80000 10287 20280 30015 40020 8562/ 333 58008 70024 81708 84618 88458==
41951,2024,07,30,21,00,AAXX 30214 41951 01340 80000 10280 20280 30009 40013 70262 8562/ 333 58006 70029 81708 84618 88458==
41951,2024,07,31,00,00,AAXX 31004 41951 01330 80000 10280 20280 30002 40006 79562 8692/ 333 58001 70042 82706 84618 88458 81925==
41951,2024,07,31,03,00,AAXX 31034 41951 01450 60000 10292 20270 30010 40015 72196 83510 333 20268 59001 70173 83618 85459==
41951,2024,07,31,06,00,AAXX 31064 41951 21450 71302 10316 20280 30003 40008 70396 83510 333 59010 60148 70158 83618 86459==
41951,2024,07,31,09,00,AAXX 31094 41951 02350 71402 10327 20270 39985 49990 84610 333 59014 70155 81709 83618 86459==
41951,2024,07,31,12,00,AAXX 31124 41951 01340 80000 10290 20280 39979 49984 70362 8562/ 333 10332 59011 70003 81708 84618 88458==
41951,2024,07,31,15,00,AAXX 31154 41951 02450 30000 10283 20270 30001 40005 83500 333 59014 70158 83618==
41951,2024,07,31,18,00,AAXX 31184 41951 01340 80000 10282 20280 39999 40003 72162 8562/ 333 59016 70004 81709 84618 88458==
41951,2024,07,31,21,00,AAXX 31214 41951 01330 80000 10272 20270 39992 49996 76362 8672/ 333 59017 70202 82706 84616 88458==
41951,2024,08,01,00,00,AAXX 01004 41951 11330 81306 10276 20276 39991 49996 60149 76166 8672/ 333 56399 59012 70368 82706 84616 88458=
41951,2024,08,01,03,00,AAXX 01034 41951 01330 81302 10270 20270 39984 49989 76566 8672/ 333 20260 59026 70323 82706 84616 88458==
41951,2024,08,01,06,00,AAXX 01064 41951 21330 81306 10276 20276 39991 49996 76166 8672/ 333 59012 60149 70368 82706 84616 88458==
41951,2024,08,01,09,00,AAXX 01094 41951 01330 81302 10263 20260 39986 49991 76262 8672/ 333 58001 70506 82706 84616 88458==
41951,2024,08,01,12,00,AAXX 01124 41951 01330 81303 10270 20270 39984 49989 76466 8672/ 333 10293 58005 70811 82706 84616 88458==
41951,2024,08,01,15,00,AAXX 01154 41951 01330 80000 10262 20260 30012 40017 76366 8672/ 333 58011 71211 82706 84616 88458==
41951,2024,08,01,18,00,AAXX 01184 41951 21330 81502 10270 20260 30010 40015 76166 8672/ 333 58011 60579 71379 82706 84616 88458==
41951,2024,08,01,21,00,AAXX 01214 41951 01330 81402 10258 20258 30001 40006 76566 8672/ 333 58009 71734 82706 84616 88458==
41953,2024,07,26,09,00,AAXX 26094 41953 01450 81304 10290 20280 39922 49927 72162 8532/ 333 58012 70030 83616 88458==
41953,2024,07,26,12,00,AAXX 26124 41953 01450 61303 10290 20280 39925 49930 70162 83510 333 10320 58020 70040 83616 86458==
41953,2024,07,26,18,00,AAXX 26184 41953 NIL=
41953,2024,07,27,03,00,AAXX 27034 41953 02450 61303 10300 20270 39980 49985 83510 333 20270 58048 70070 83616 86458==
41953,2024,07,27,06,00,AAXX 27064 41953 02450 61805 10326 20270 39977 49982 84410 333 58046 70070 83618 85458==
41953,2024,07,27,18,00,AAXX 27184 41953 NIL=
41953,2024,07,28,00,00,AAXX 28004 41953 02440 41306 10282 20270 39986 49991 84400 333 58024 70020 83618==
41953,2024,07,28,03,00,AAXX 28034 41953 02450 41305 10320 20270 30004 40009 84400 333 20280 58024 70020 83618==
41953,2024,07,28,09,00,AAXX 28094 41953 02450 71303 10322 20260 39957 49962 84410 333 59014 70020 83616 86458==
41953,2024,07,28,12,00,AAXX 28124 41953 02450 41803 10300 20260 39970 49975 84400 333 10332 59001 70020 82618 83825==
41953,2024,07,28,18,00,AAXX 28184 41953 02430 61303 10286 20270 39983 49987 83510 333 59008 70000 83616 84458==
41953,2024,07,29,03,00,AAXX 29034 41953 02450 81302 10298 20270 39994 49999 8352/ 333 20275 59010 70020 83616 88458==
41953,2024,07,29,06,00,AAXX 29064 41953 01450 61804 10305 20300 39989 49994 72122 83510 333 58003 70070 83615 86458==
41953,2024,07,30,06,00,AAXX 30064 41953 21445 81303 10290 20280 30018 40023 72166 8352/ 333 58029 60189 70180 83616 88458==
41953,2024,07,30,09,00,AAXX 30094 41953 02450 81302 10306 20270 30002 40007 8352/ 333 58033 70180 83616 88458==
41953,2024,07,30,12,00,AAXX 30124 41953 02450 71301 10300 20270 39999 40004 83510 333 10308 58029 70180 83616 86458==
41953,2024,07,30,15,00,AAXX 30154 41953 02430 80000 10286 20270 30025 40030 8352/ 333 58022 70180 83616 88458==
41953,2024,07,30,18,00,AAXX 30184 41953 02430 80000 10280 20260 30027 40032 8352/ 333 58022 70180 83616 88458==
41953,2024,07,30,21,00,AAXX 30214 41953 02430 80000 10278 20270 30023 40028 8352/ 333 58028 70180 83616 88458==
41953,2024,07,31,00,00,AAXX 31004 41953 01440 80000 10274 20260 30016 40021 72122 8352/ 333 58013 70010 83616 88458==
41953,2024,07,31,03,00,AAXX 31034 41953 02450 71301 10296 20270 30024 40029 83510 333 20272 59001 70030 83616 86458==
41953,2024,07,31,06,00,AAXX 31064 41953 02450 62204 10320 20260 30009 40014 83410 333 59009 70010 82616 85458==
41953,2024,07,31,09,00,AAXX 31094 41953 02450 61303 10320 20270 39984 49989 84410 333 59018 70010 83616 85458==
41953,2024,07,31,12,00,AAXX 31124 41953 21440 81302 10280 20270 39985 49990 70362 8352/ 333 10328 59014 60077 70080 83615 88458==
41953,2024,07,31,15,00,AAXX 31154 41953 02430 81304 10279 20270 30004 40009 8352/ 333 59021 70080 83616 88458==
41953,2024,07,31,18,00,AAXX 31184 41953 02430 81304 10278 20270 30005 40010 8352/ 333 59022 70080 83616 88458==
41953,2024,07,31,21,00,AAXX 31214 41953 01430 81803 10268 20260 39984 49989 76162 8452/ 333 59039 70260 84614 88458==
41953,2024,08,01,00,00,AAXX 01004 41953 21440 81804 10265 20265 39982 49987 76166 8452/ 333 59034 60329 70390 84614 88458==
41953,2024,08,01,03,00,AAXX 01034 41953 01440 81803 10266 20260 30004 40009 76166 8452/ 333 20262 59020 70470 84614 88458==
41953,2024,08,01,06,00,AAXX 01064 41953 21440 81802 10266 20266 30000 40005 72166 8352/ 333 59009 60119 70580 83616 88458==
41953,2024,08,01,09,00,AAXX 01094 41953 02440 81804 10282 20250 39989 49994 8352/ 333 58005 70580 83616 88458==
41953,2024,08,01,12,00,AAXX 01124 41953 21440 81804 10270 20260 39994 49999 76162 8452/ 333 10285 58009 60237 70740 84614 88456==
41953,2024,08,01,15,00,AAXX 01154 41953 01420 81801 10248 20248 30028 40033 76566 8672/ 333 58024 71170 85709 84614 88456==
41953,2024,08,01,18,00,AAXX 01184 41953 21410 80000 10244 20244 30031 40036 76166 8452/ 333 58026 60589 71320 84615 88456==
41953,2024,08,01,21,00,AAXX 01214 41953 01410 80000 10242 20242 30021 40026 76566 8672/ 333 58037 72090 85708 85614 88456==
41955,2024,07,26,12,00,AAXX 26124 41955 NIL=
41955,2024,07,26,18,00,AAXX 26184 41955 NIL=
41955,2024,07,27,18,00,AAXX 27184 41955 NIL=
41955,2024,07,28,12,00,AAXX 28124 41955 NIL=
41955,2024,07,29,06,00,AAXX 29064 41955 NIL=
41955,2024,07,30,12,00,AAXX 30124 41955 NIL=
41955,2024,07,31,06,00,AAXX 31064 41955 NIL=
41955,2024,08,01,12,00,AAXX 01124 41955 NIL=
41958,2024,07,26,12,00,AAXX 26124 41958 11450 61302 10304 20270 39903 49905 60014 70162 83410 333 10327 56390 58008 70290 83616 85459=
41958,2024,07,26,18,00,AAXX 26184 41958 NIL=
41958,2024,07,27,03,00,AAXX 27034 41958 21456 61701 10310 20260 39961 49963 70162 83410 333 20266 56490 58048 6001/ 70130 83616 85459=
41958,2024,07,27,06,00,AAXX 27064 41958 11457 63101 10330 20290 39961 49963 60016 70262 83410 333 56790 58051 70130 83616 85459=
41958,2024,07,27,15,00,AAXX 27154 41958 32450 61701 10294 20280 39978 49980 83410 333 56490 58042 70140 83616 85459=
41958,2024,07,27,18,00,AAXX 27184 41958 NIL=
41958,2024,07,28,12,00,AAXX 28124 41958 32450 80802 10300 20290 39957 49959 8542/ 333 10338 56299 58004 70194 84616 88458=
41958,2024,07,29,00,00,AAXX 29004 41958 32450 60000 10280 20280 39967 49969 83410 333 56990 59002 70024 83616 85459=
41958,2024,07,29,06,00,AAXX 29064 41958 NIL=
41958,2024,07,30,12,00,AAXX 30124 41958 NIL=
41958,2024,07,30,21,00,AAXX 30214 41958 32940 50000 10286 20280 39998 40000 85030 333 56090 58007 70000 85362=
41958,2024,07,31,00,00,AAXX 31004 41958 32450 50000 10284 20270 30002 40004 81530 333 56990 58012 70000 81617 85362=
41958,2024,07,31,03,00,AAXX 31034 41958 32450 80000 10296 20290 30013 40015 8542/ 333 20280 56499 58006 70000 84616 88458=
41958,2024,07,31,06,00,AAXX 31064 41958 NIL=
41958,2024,07,31,09,00,AAXX 31094 41958 32456 51503 10330 20290 39983 49985 85400 333 56300 59009 70064 84616=
41958,2024,07,31,12,00,AAXX 31124 41958 32450 81502 10306 20270 39974 49976 8542/ 333 10332 56399 59014 70064 84616 88459=
41958,2024,07,31,15,00,AAXX 31154 41958 32940 30000 10286 20280 39994 49997 83030 333 56090 59023 70064 83362=
41958,2024,07,31,18,00,AAXX 31184 41958 32440 50000 10284 20270 30002 40004 85400 333 56900 59017 70064 84616=
41958,2024,07,31,21,00,AAXX 31214 41958 21340 80000 10264 20260 39971 49973 76366 8672/ 333 56699 59027 6018/ 70244 82708 84614 88458=
41958,2024,08,01,00,00,AAXX 01004 41958 11340 80000 10264 20264 39975 49978 60469 76166 8672/ 333 56599 59027 70528 82708 84614 88458=
41958,2024,08,01,03,00,AAXX 01034 41958 21340 82502 10270 20270 39978 49980 76166 8672/ 333 20260 56599 59035 6012/ 70646 82708 84614 88458=
41958,2024,08,01,06,00,AAXX 01064 41958 11340 82503 10274 20270 39979 49981 60169 76166 8672/ 333 56599 59028 70628 83708 84614 88458=
41958,2024,08,01,09,00,AAXX 01094 41958 21340 82502 10286 20280 39966 49968 76366 8672/ 333 56599 59017 6002/ 70644 83707 84614 88458=
41958,2024,08,01,12,00,AAXX 01124 41958 11340 82501 10270 20270 39972 49974 60559 76166 8672/ 333 10288 56599 59002 71180 83707 84614 88458=
41958,2024,08,01,15,00,AAXX 01154 41958 21340 81802 10274 20260 39995 49997 76166 8672/ 333 56499 58001 6003/ 71206 83707 84614 88458=
41958,2024,08,01,18,00,AAXX 01184 41958 11440 81803 10278 20270 30008 40010 60038 70262 8542/ 333 56499 58006 71210 84616 88458=
41958,2024,08,01,21,00,AAXX 01214 41958 21330 82102 10262 20262 39981 49983 76366 8672/ 333 56599 58010 6045/ 71484 83707 84612 88458=
41960,2024,07,26,09,00,AAXX 26094 41960 01450 51403 10322 20280 39914 49914 70162 83470 333 58001 70362 82618 84459==
41960,2024,07,26,12,00,AAXX 26124 41960 01450 50000 10295 20290 39913 49914 72162 83470 333 10327 58017 70378 82618 84459==
41960,2024,07,26,18,00,AAXX 26184 41960 NIL=
41960,2024,07,27,06,00,AAXX 27064 41960 21450 70000 10308 20290 39971 49973 70162 84410 333 58050 60037 70417 83618 85459==
41960,2024,07,27,15,00,AAXX 27154 41960 02450 60000 10290 20280 39985 49987 84410 333 58041 70403 83618 86459==
41960,2024,07,27,18,00,AAXX 27184 41960 02450 71801 10290 20280 39995 49997 85470 333 58041 70403 83618 85459==
41960,2024,07,28,09,00,AAXX 28094 41960 01450 51802 10318 20290 39965 49967 70162 85310 333 59001 70400 83617 81930==
41960,2024,07,28,12,00,AAXX 28124 41960 01456 51803 10300 20270 39964 49966 70262 83510 333 10320 58003 70405 83618 86458==
41960,2024,07,29,06,00,AAXX 29064 41960 NIL=
41960,2024,07,30,06,00,AAXX 30064 41960 21350 81802 10294 20280 30014 40016 76166 8672/ 333 58030 60249 70241 82707 84616 88458==
41960,2024,07,30,12,00,AAXX 30124 41960 NIL=
41960,2024,07,31,06,00,AAXX 31064 41960 NIL=
41960,2024,07,31,12,00,AAXX 31124 41960 11450 80000 10296 20280 39983 49985 69936 70362 8352/ 333 10310 59016 70545 83618 88458==
41960,2024,08,01,03,00,AAXX 01034 41960 01350 81802 10278 20278 39987 49989 76166 8672/ 333 20255 59034 71309 82708 84616 88458==
41960,2024,08,01,06,00,AAXX 01064 41960 21350 81803 10272 20270 39989 49991 76166 8672/ 333 59019 60519 70913 82708 84616 88458==
41960,2024,08,01,09,00,AAXX 01094 41960 01320 81802 10260 20260 39988 49989 76366 8672/ 333 59004 71116 82708 84614 88458==
41960,2024,08,01,12,00,AAXX 01124 41960 01320 82708 10260 20260 39987 49988 76366 8672/ 333 10285 58003 71474 82707 84614 88458==
41960,2024,08,01,15,00,AAXX 01154 41960 01440 82502 10270 20270 30008 40009 72166 8542/ 333 58006 71942 84616 88458==
41960,2024,08,01,18,00,AAXX 01184 41960 01320 80000 10267 20267 30012 40014 76162 8672/ 333 58012 72006 82708 84616 88458==
41960,2024,08,01,21,00,AAXX 01214 41960 01220 81802 10270 20270 30006 40007 76366 8672/ 333 58015 72186 83706 84614 88458==
41963,2024,07,26,00,00,AAXX 26004 41963 02440 61802 10290 20280 39937 49940 82510 333 59021 70050 82618 86458==
41963,2024,07,26,03,00,AAXX 26034 41963 02456 61802 10300 20270 39935 49942 82510 333 20268 59026 70000 82618 86458==
41963,2024,07,26,06,00,AAXX 26064 41963 02350 81803 10295 20290 39938 49941 8372/ 333 59009 70000 82708 83618 88458==
41963,2024,07,26,09,00,AAXX 26094 41963 01456 61805 10300 20280 39934 49937 70162 82510 333 59011 70060 82618 86458==
41963,2024,07,26,12,00,AAXX 26124 41963 11450 21805 10290 20280 39931 49934 60066 70162 82500 333 10310 58019 70060 82618==
41963,2024,07,26,15,00,AAXX 26154 41963 02440 21801 10290 20280 39958 49961 82500 333 58023 70060 82618==
41963,2024,07,26,18,00,AAXX 26184 41963 NIL=
41963,2024,07,27,00,00,AAXX 27004 41963 02440 61801 10285 20270 39949 49952 82510 333 58012 70060 82618 86458==
41963,2024,07,27,03,00,AAXX 27034 41963 01450 61802 10290 20280 39978 49981 70262 82510 333 20265 58043 70070 82618 86458==
41963,2024,07,27,06,00,AAXX 27064 41963 21456 61802 10300 20270 39980 49983 70262 82510 333 58042 60015 70070 82618 86458==
41963,2024,07,27,09,00,AAXX 27094 41963 02456 61802 10295 20280 39977 49980 82510 333 58042 70010 82618 86458==
41963,2024,07,27,12,00,AAXX 27124 41963 02450 61802 10290 20270 39981 49984 82510 333 10315 58050 70010 82618 86458==
41963,2024,07,27,18,00,AAXX 27184 41963 NIL=
41963,2024,07,28,00,00,AAXX 28004 41963 02440 51801 10284 20270 39991 49994 82510 333 58042 70010 82618 85458==
41963,2024,07,28,03,00,AAXX 28034 41963 02450 71803 10295 20270 39996 49999 82510 333 20269 58018 70000 82618 87458==
41963,2024,07,28,06,00,AAXX 28064 41963 02456 71802 10300 20270 39989 49992 82510 333 58009 70000 82618 87458==
41963,2024,07,28,09,00,AAXX 28094 41963 01456 41804 10310 20280 39980 49983 70162 82510 333 58003 70010 82618 84458==
41963,2024,07,28,12,00,AAXX 28124 41963 11450 21802 10295 20270 39982 49985 60016 70162 82500 333 10312 58001 70010 82618==
41963,2024,07,29,00,00,AAXX 29004 41963 02440 41802 10282 20270 39987 49990 82510 333 59004 70010 82618 85458==
41963,2024,07,29,03,00,AAXX 29034 41963 01456 41802 10300 20290 30000 40003 70262 82510 333 20270 58004 70080 82618 84458==
41963,2024,07,29,06,00,AAXX 29064 41963 11456 51802 10310 20280 39996 49999 60086 70362 82510 333 58007 70090 82618 85458==
41963,2024,07,30,06,00,AAXX 30064 41963 21340 82801 10268 20268 30016 40019 76166 8372/ 333 58020 60379 70390 82708 83615 88458==
41963,2024,07,30,09,00,AAXX 30094 41963 02456 41801 10300 20270 30011 40014 82510 333 58024 70420 82618 84458==
41963,2024,07,30,12,00,AAXX 30124 41963 11450 41801 10294 20280 30012 40015 60036 70262 82510 333 10294 58022 70420 82618 84458==
41963,2024,07,30,21,00,AAXX 30214 41963 02440 51801 10280 20270 30034 40037 82510 333 58027 70400 82618 85458==
41963,2024,07,31,00,00,AAXX 31004 41963 02330 81801 10282 20270 30025 40028 82510 333 58019 70400 82708 83616 88458==
41963,2024,07,31,03,00,AAXX 31034 41963 01340 81802 10272 20272 30026 40029 76166 8372/ 333 20261 59006 70730 82708 83615 88456==
41963,2024,07,31,06,00,AAXX 31064 41963 21456 51802 10300 20270 30015 40018 70162 82510 333 59001 60598 70620 82618 85458==
41963,2024,07,31,09,00,AAXX 31094 41963 02350 81801 10300 20270 30001 40004 8372/ 333 59010 70590 82708 83618 88458==
41963,2024,07,31,12,00,AAXX 31124 41963 02450 61802 10290 20270 39998 40000 82510 333 10320 59014 70590 82618 86458==
41963,2024,07,31,15,00,AAXX 31154 41963 41330 81802 10275 20275 30008 40011 76162 8372/ 333 59027 82708 83616 88458==
41963,2024,08,01,00,00,AAXX 01004 41963 21330 81801 10263 20263 30008 40011 76166 8372/ 333 59017 60049 70700 82708 83615 88456==
41963,2024,08,01,03,00,AAXX 01034 41963 01340 81802 10270 20270 30009 40012 76366 8372/ 333 20255 59017 71000 82708 83616 88458==
41963,2024,08,01,06,00,AAXX 01064 41963 21340 81801 10275 20270 30008 40011 70262 8372/ 333 59007 61008 71110 82708 83615 88458==
41963,2024,08,01,09,00,AAXX 01094 41963 02450 71801 10275 20260 30003 40006 82510 333 58002 71110 82618 87458==
41963,2024,08,01,12,00,AAXX 01124 41963 01340 81801 10270 20270 30008 40011 76062 8372/ 333 10280 58010 70020 82708 83616 88458==
41963,2024,08,01,15,00,AAXX 01154 41963 01330 81801 10270 20260 30025 40028 76066 8372/ 333 58017 71090 82708 83616 88458==
41963,2024,08,01,18,00,AAXX 01184 41963 21330 81801 10267 20267 30026 40029 76166 8372/ 333 58013 60049 71100 82708 83615 88458==
41963,2024,08,01,21,00,AAXX 01214 41963 01330 81801 10262 20262 30016 40019 76166 8372/ 333 58008 71100 82708 83616 88458==
41964,2024,07,26,00,00,AAXX 26004 41964 02456 71804 10290 20260 39925 49927 83520 333 59013 70000 83618 86460==
41964,2024,07,26,03,00,AAXX 26034 41964 02457 71306 10298 20270 39929 49932 85510 333 20270 59005 70000 85617 86460==
41964,2024,07,26,06,00,AAXX 26064 41964 02457 71806 10298 20280 39932 49935 83520 333 59001 70000 83618 86460==
41964,2024,07,26,09,00,AAXX 26094 41964 01457 71905 10314 20270 39936 49938 70266 83520 333 58009 70060 83618 86460==
41964,2024,07,26,12,00,AAXX 26124 41964 11457 51604 10300 20270 39921 49924 60066 70162 83510 333 10316 58017 70060 83618 84460==
41964,2024,07,26,15,00,AAXX 26154 41964 02456 51704 10292 20270 39945 49948 82510 333 58020 70060 82618 84460==
41964,2024,07,26,18,00,AAXX 26184 41964 NIL=
41964,2024,07,27,18,00,AAXX 27184 41964 NIL=
41964,2024,07,28,00,00,AAXX 28004 41964 02450 71801 10288 20260 39988 49990 83520 333 58026 70008 83618 86460==
41964,2024,07,28,12,00,AAXX 28124 41964 02356 71404 10299 20270 39966 49968 85620 333 10331 58001 70000 83709 83617 88460==
41964,2024,07,29,03,00,AAXX 29034 41964 01340 81606 10287 20280 39989 49991 75122 8572/ 333 20275 58001 70002 83708 83617 88458==
41964,2024,07,29,06,00,AAXX 29064 41964 NIL=
41964,2024,07,30,12,00,AAXX 30124 41964 11457 61802 10293 20270 39997 49999 69926 70162 83402 333 10315 58014 70200 82618 84078==
41964,2024,07,30,15,00,AAXX 30154 41964 02457 61902 10285 20280 30018 40021 83510 333 58017 70193 83618 84460==
41964,2024,07,30,18,00,AAXX 30184 41964 02456 61802 10282 20270 30019 40022 83410 333 58009 70184 82618 85460==
41964,2024,07,30,21,00,AAXX 30214 41964 02456 71602 10280 20270 30016 40019 84510 333 58002 70124 84617 87460==
41964,2024,07,31,00,00,AAXX 31004 41964 01357 80000 10268 20260 30009 40011 72162 8562/ 333 59006 70010 82709 84616 88460==
41964,2024,07,31,03,00,AAXX 31034 41964 02357 80000 10283 20260 30016 40019 8562/ 333 20263 59004 70022 82709 84617 88460==
41964,2024,07,31,06,00,AAXX 31064 41964 02457 61803 10310 20280 30010 40012 83510 333 59008 70012 83618 85460==
41964,2024,07,31,12,00,AAXX 31124 41964 01340 81803 10276 20276 39986 49988 76122 8672/ 333 10316 59011 70030 83708 85616 88458==
41964,2024,07,31,15,00,AAXX 31154 41964 01335 82103 10270 20270 30003 40005 76162 8772/ 333 59015 70136 84707 85615 88458==
41964,2024,07,31,18,00,AAXX 31184 41964 21325 82106 10268 20268 30001 40004 76362 8772/ 333 59018 60369 70406 85707 84615 88457==
41964,2024,07,31,21,00,AAXX 31214 41964 01325 81806 10260 20260 39997 40000 76566 8772/ 333 59019 70926 85707 84614 88457==
41964,2024,08,01,00,00,AAXX 01004 41964 21325 82106 10267 20267 39987 49990 76366 8772/ 333 59022 60959 71346 86707 84614 88457==
41964,2024,08,01,03,00,AAXX 01034 41964 01325 81805 10258 20258 30002 40005 76366 8772/ 333 20249 58014 71856 86707 85613 88457==
41964,2024,08,01,06,00,AAXX 01064 41964 21440 81804 10274 20260 30006 40009 76166 8432/ 333 59004 60679 72016 83617 88458 81928==
41964,2024,08,01,09,00,AAXX 01094 41964 01440 81903 10272 20250 39997 49999 75166 8432/ 333 58010 72021 83617 88458==
41964,2024,08,01,12,00,AAXX 01124 41964 21340 82104 10272 20260 30000 40003 76165 8772/ 333 10279 58014 60029 71997 85707 84614 88457==
41964,2024,08,01,15,00,AAXX 01154 41964 01340 81805 10270 20260 30027 40029 76166 8672/ 333 58024 71927 84707 85614 88458==
41964,2024,08,01,18,00,AAXX 01184 41964 21330 81802 10267 20267 30024 40026 76366 8672/ 333 58023 60109 71732 85707 84613 88457==
41964,2024,08,01,21,00,AAXX 01214 41964 01320 81805 10270 20270 30014 40016 76366 8772/ 333 58017 71532 85707 84613 88457==
41965,2024,07,26,09,00,AAXX 26094 41965 02456 51404 10325 20250 39914 49923 84610 333 58003 70000 83618 84460==
41965,2024,07,26,12,00,AAXX 26124 41965 NIL=
41965,2024,07,26,18,00,AAXX 26184 41965 NIL=
41965,2024,07,27,18,00,AAXX 27184 41965 NIL=
41965,2024,07,28,12,00,AAXX 28124 41965 02440 62602 10288 20250 39969 49978 84610 333 10345 58333 70000 83618 84460==
41965,2024,07,29,06,00,AAXX 29064 41965 NIL=
41965,2024,07,30,06,00,AAXX 30064 41965 11450 61802 10304 20250 30013 40022 60106 70266 84610 333 58028 70740 83618 84460==
41965,2024,07,30,12,00,AAXX 30124 41965 NIL=
41965,2024,07,31,06,00,AAXX 31064 41965 NIL=
41965,2024,07,31,12,00,AAXX 31124 41965 02440 81402 10275 20250 39989 49998 8461/ 333 10320 59011 70000 81710 83618 88460==
41965,2024,08,01,03,00,AAXX 01034 41965 01440 80801 10255 20240 30009 40018 76366 8461/ 333 20255 59010 71280 81710 83618 88456==
41965,2024,08,01,06,00,AAXX 01064 41965 21440 83202 10264 20250 30008 40018 76166 8461/ 333 59001 60429 70138 81710 83618 88456==
41965,2024,08,01,09,00,AAXX 01094 41965 21440 83202 10264 20250 30008 40018 76166 8461/ 333 59001 60429 70138 81710 83618 88456==
41965,2024,08,01,12,00,AAXX 01124 41965 02440 82203 10265 20250 30002 40011 8461/ 333 10270 58013 71380 81710 83618 88460==
41965,2024,08,01,15,00,AAXX 01154 41965 01430 81402 10257 20240 30031 40040 70262 8461/ 333 58025 71250 81710 83618 88456==
41966,2024,07,26,12,00,AAXX 26124 41966 02450 41201 10315 20230 39863 49940 82510 333 10345 58015 70000 82616 83460==
41966,2024,07,26,18,00,AAXX 26184 41966 NIL=
41966,2024,07,27,18,00,AAXX 27184 41966 NIL=
41966,2024,07,28,12,00,AAXX 28124 41966 02450 32001 10300 20260 39906 49983 81510 333 10355 58000 70000 81616 83460==
41966,2024,07,29,06,00,AAXX 29064 41966 NIL=
41966,2024,07,30,09,00,AAXX 30094 41966 01450 81801 10300 20270 39934 40012 70362 8352/ 333 58016 70364 83616 88460==
41966,2024,07,30,12,00,AAXX 30124 41966 01350 61801 10278 20270 39940 40018 72166 83710 333 10322 58009 70376 82709 83616 86460==
41966,2024,07,30,21,00,AAXX 30214 41966 01430 60000 10263 20250 39955 40033 70262 83510 333 59001 70380 83616 86460==
41966,2024,07,31,00,00,AAXX 31004 41966 01440 62001 10262 20250 39953 40031 70262 83510 333 59002 70004 83616 86460==
41966,2024,07,31,03,00,AAXX 31034 41966 02450 62001 10282 20250 39960 40039 83510 333 20258 59004 70020 83616 86460==
41966,2024,07,31,06,00,AAXX 31064 41966 02450 61801 10300 20250 39947 40025 83510 333 58000 70020 83616 86460==
41966,2024,07,31,09,00,AAXX 31094 41966 02450 61801 10300 20250 39929 40006 83510 333 59006 70016 83616 86460==
41966,2024,07,31,12,00,AAXX 31124 41966 02350 81804 10287 20250 39933 40011 8372/ 333 59007 70004 82709 83616 88460==
41966,2024,07,31,15,00,AAXX 31154 41966 02330 81801 10258 20250 39959 40037 8372/ 333 58005 70054 82709 83616 88460==
41966,2024,07,31,21,00,AAXX 31214 41966 01330 81801 10256 20250 39940 40019 76166 8372/ 333 59014 70150 82709 83616 88460==
41966,2024,08,01,00,00,AAXX 01004 41966 01340 81801 10255 20250 39941 40020 72166 8372/ 333 59011 70290 82709 83616 88460==
41966,2024,08,01,03,00,AAXX 01034 41966 01330 81801 10258 20250 39955 40034 76166 8372/ 333 20252 59005 70530 82709 83616 88460==
41966,2024,08,01,06,00,AAXX 01064 41966 21330 81802 10262 20250 39953 40031 76166 8372/ 333 58006 60339 70600 82709 83616 88460==
41966,2024,08,01,09,00,AAXX 01094 41966 01330 81801 10260 20250 39937 40016 76166 8372/ 333 58010 70820 82709 83616 88460==
41966,2024,08,01,12,00,AAXX 01124 41966 21340 81801 10256 20250 39953 40032 76166 8372/ 333 10263 58021 60299 70892 82709 83616 88460==
41966,2024,08,01,15,00,AAXX 01154 41966 01330 81801 10252 20240 39974 40052 76066 8372/ 333 58015 70850 82709 83616 88460==
41966,2024,08,01,21,00,AAXX 01214 41966 01330 81801 10252 20240 39944 40022 76166 8372/ 333 58003 70910 82709 83616 88460==
41977,2024,07,26,12,00,AAXX 26124 41977 02457 61302 10312 20260 39916 49953 82530 333 10326 58016 70008 82618 86365==
41977,2024,07,26,18,00,AAXX 26184 41977 NIL=
41977,2024,07,27,06,00,AAXX 27064 41977 11456 31303 10338 20270 39954 49991 60006 70251 83500 333 58025 83618==
41977,2024,07,27,18,00,AAXX 27184 41977 42450 31302 10286 20270 39980 40017 81530 333 58036 83618 83362==
41977,2024,07,28,00,00,AAXX 28004 41977 42450 70000 10280 20260 39970 40007 84570 333 58015 84617 85460==
41977,2024,07,28,09,00,AAXX 28094 41977 01456 71303 10316 20270 39952 49990 70262 84570 333 59006 70020 84617 85460==
41977,2024,07,28,12,00,AAXX 28124 41977 21456 70902 10290 20280 39964 40002 70261 84570 333 10330 59005 60038 70030 84617 85460==
41977,2024,07,29,06,00,AAXX 29064 41977 NIL=
41977,2024,07,30,12,00,AAXX 30124 41977 NIL=
41977,2024,07,31,06,00,AAXX 31064 41977 NIL=
41977,2024,07,31,09,00,AAXX 31094 41977 01350 81802 10279 20070 39919 40056 76162 8562/ 333 58029 70030 82710 85615 88458==
41977,2024,07,31,12,00,AAXX 31124 41977 11450 81802 10270 20270 39980 40018 60052 76162 8532/ 333 10300 59007 70050 84615 88458 81928==
41977,2024,08,01,06,00,AAXX 01064 41977 21320 81303 10258 20258 30001 40039 76366 8672/ 333 58004 61219 71656 85707 88457==
41977,2024,08,01,12,00,AAXX 01124 41977 NIL=
41977,2024,08,01,18,00,AAXX 01184 41977 21330 81804 10256 20256 30015 40053 76166 8672/ 333 58023 60029 71508 83708 84615 88458==
41977,2024,08,01,21,00,AAXX 01214 41977 01330 81802 10270 20260 39987 40025 76366 8672/ 333 58008 71438 83708 84615 88458==
41978,2024,07,26,00,00,AAXX 26004 41978 02458 61204 10276 20200 39919 49925 83531 333 59020 70013 83617 83362 85080==
41978,2024,07,26,03,00,AAXX 26034 41978 01458 81310 10288 20280 39935 49942 70262 8432/ 333 20270 59004 70016 83616 88459 81928==
41978,2024,07,26,06,00,AAXX 26064 41978 11457 81209 10310 20280 39937 49943 69936 70262 8432/ 333 58005 70016 83616 88459 81928==
41978,2024,07,26,09,00,AAXX 26094 41978 02460 61409 10303 20270 39922 49928 83870 333 58006 70016 83618 85460==
41978,2024,07,26,12,00,AAXX 26124 41978 02460 51610 10303 20260 39925 49932 83831 333 10323 58017 70003 83620 83363==
41978,2024,07,26,15,00,AAXX 26154 41978 02550 21704 10292 20260 39954 49960 82100 333 58023 70003 82826==
41978,2024,07,26,18,00,AAXX 26184 41978 02456 31606 10285 20260 39960 49967 83500 333 58031 70003 83618==
41978,2024,07,27,00,00,AAXX 27004 41978 01450 71103 10272 20260 39968 49974 70362 84320 333 58049 70010 83616 87460 81925==
41978,2024,07,27,03,00,AAXX 27034 41978 02457 51304 10317 20270 39981 49987 83530 333 20269 58046 70012 83618 83360==
41978,2024,07,27,06,00,AAXX 27064 41978 02458 51508 10333 20260 39968 49974 82130 333 58031 70012 82826 84362==
41978,2024,07,27,09,00,AAXX 27094 41978 02458 61708 10334 20270 39965 49972 83530 333 58043 70012 83618 85360==
41978,2024,07,27,12,00,AAXX 27124 41978 02460 61709 10307 20270 39965 49972 83530 333 10345 58040 70012 83618 86360==
41978,2024,07,27,15,00,AAXX 27154 41978 02458 61605 10292 20260 39990 49996 83530 333 58036 70012 83618 86360==
41978,2024,07,27,18,00,AAXX 27184 41978 NIL=
41978,2024,07,28,00,00,AAXX 28004 41978 02458 50805 10278 20260 39983 49990 83520 333 58023 70012 83618 84460==
41978,2024,07,28,03,00,AAXX 28034 41978 02456 60908 10316 20260 39996 40002 83520 333 20273 58015 70000 83618 84560==
41978,2024,07,28,06,00,AAXX 28064 41978 02456 71206 10332 20260 39982 49988 84320 333 58014 70000 83618 87460 81930==
41978,2024,07,28,09,00,AAXX 28094 41978 01457 62108 10317 20270 39967 49973 70262 84320 333 58002 70010 83618 86460 81930==
41978,2024,07,28,12,00,AAXX 28124 41978 11457 62007 10301 20270 39967 49973 60016 70262 84320 333 10336 70010 83618 85460 81930==
41978,2024,07,28,18,00,AAXX 28184 41978 02457 61705 10297 20270 39986 49992 83530 333 58004 70010 83618 86360==
41978,2024,07,28,21,00,AAXX 28214 41978 02457 61506 10287 20270 39980 49986 83530 333 59003 70010 83618 86360==
41978,2024,07,29,00,00,AAXX 29004 41978 02457 61306 10276 20260 39982 49988 83530 333 59002 70010 83618 86360==
41978,2024,07,29,03,00,AAXX 29034 41978 02457 61608 10310 20260 39996 40002 83520 333 20275 58000 70010 83618 86460==
41978,2024,07,29,06,00,AAXX 29064 41978 02457 71810 10319 20260 39995 40001 84320 333 58013 70010 83618 87460 81930==
41978,2024,07,29,12,00,AAXX 29124 41978 NIL=
41978,2024,07,29,18,00,AAXX 29184 41978 NIL=
41978,2024,07,30,06,00,AAXX 30064 41978 21457 82008 10288 20280 30020 40027 72196 8432/ 333 58025 60599 71352 83614 88458 81925==
41978,2024,07,30,09,00,AAXX 30094 41978 02457 62007 10294 20260 30006 40012 83420 333 58022 71352 83616 85460==
41978,2024,07,30,12,00,AAXX 30124 41978 02457 71607 10288 20270 30006 40012 84320 333 10301 58014 71272 84616 87460 81929==
41978,2024,07,30,15,00,AAXX 30154 41978 02457 71105 10277 20260 30027 40033 83520 333 58016 71242 83617 86460==
41978,2024,07,30,18,00,AAXX 30184 41978 02457 71404 10275 20270 30024 40030 83520 333 58018 71242 83617 86460==
41978,2024,07,30,21,00,AAXX 30214 41978 02457 71404 10267 20260 30016 40022 83520 333 58002 70892 83617 86460==
41978,2024,07,31,00,00,AAXX 31004 41978 02457 82405 10293 20260 30016 40022 8432/ 333 58000 70590 84616 88459 81929==
41978,2024,07,31,03,00,AAXX 31034 41978 02457 82008 10286 20260 30024 40031 8432/ 333 20253 59002 70370 84616 88459 81928==
41978,2024,07,31,06,00,AAXX 31064 41978 01435 81610 10284 20270 30013 40019 76162 8432/ 333 59007 70010 84616 88459 81928==
41978,2024,07,31,09,00,AAXX 31094 41978 01440 81407 10276 20270 39996 40002 76162 8532/ 333 59010 70080 84613 88459 81920==
41978,2024,07,31,12,00,AAXX 31124 41978 01340 81710 10272 20260 39994 40001 76062 8532/ 333 10307 59012 70130 84709 88459 81920==
41978,2024,07,31,15,00,AAXX 31154 41978 01450 81507 10272 20260 30013 40020 72166 8432/ 333 58001 70000 84616 88458==
41978,2024,07,31,18,00,AAXX 31184 41978 01340 81106 10262 20250 30010 40016 76166 8432/ 333 59014 70404 83709 88458 81928==
41978,2024,07,31,21,00,AAXX 31214 41978 01340 81306 10261 20250 39993 49999 76166 8432/ 333 59023 70458 83709 88458 81928==
41978,2024,08,01,00,00,AAXX 01004 41978 21340 81207 10260 20260 39999 40006 76166 8432/ 333 59017 60129 70524 83708 88458 81928==
41978,2024,08,01,03,00,AAXX 01034 41978 01316 81607 10264 20264 30010 40017 76566 8632/ 333 20255 59014 71146 87508 88458 81920==
41978,2024,08,01,06,00,AAXX 01064 41978 21325 81712 10260 20250 30018 40025 76566 8632/ 333 58005 60989 71496 87508 88458 81920==
41978,2024,08,01,09,00,AAXX 01094 41978 01340 81706 10255 20250 30005 40011 76166 8432/ 333 58009 71486 83709 88458 81925==
41978,2024,08,01,12,00,AAXX 01124 41978 21335 81605 10262 20250 30012 40018 76366 8432/ 333 10275 58018 60089 71456 83708 88458 81925==
41978,2024,08,01,15,00,AAXX 01154 41978 01440 81510 10260 20250 30034 40041 76162 8432/ 333 58021 71456 83614 88458 81928==
41978,2024,08,01,18,00,AAXX 01184 41978 01440 81510 10256 20250 30030 40037 76162 8432/ 333 58020 71252 83614 88458 81925==
41978,2024,08,01,21,00,AAXX 01214 41978 01440 81712 10264 20250 30011 40018 76162 8462/ 333 58018 71268 83614 88458 81928==
41980,2024,07,26,12,00,AAXX 26124 41980 32450 61802 10296 20270 39817 49926 82530 333 10324 56990 58008 70000 82618 86362=
41980,2024,07,26,18,00,AAXX 26184 41980 NIL=
41980,2024,07,27,12,00,AAXX 27124 41980 32450 61802 10298 20250 39850 49959 83520 333 10330 56990 58033 70000 83616 86459=
41980,2024,07,27,18,00,AAXX 27184 41980 NIL=
41980,2024,07,28,12,00,AAXX 28124 41980 32450 51802 10300 20260 39856 49965 83520 333 10324 56990 58006 70000 83616 85459=
41980,2024,07,29,06,00,AAXX 29064 41980 NIL=
41980,2024,07,30,12,00,AAXX 30124 41980 11450 61802 10276 20240 39906 40016 60016 70262 83520 333 56990 58008 70150 83616 86459=
41980,2024,07,31,06,00,AAXX 31064 41980 NIL=
41980,2024,07,31,12,00,AAXX 31124 41980 11340 81803 10264 20240 39901 40012 60043 76166 8662/ 333 10290 56499 59005 70060 83709 84614 88456=
41980,2024,08,01,12,00,AAXX 01124 41980 11340 81802 10248 20240 39918 40030 60179 76566 8662/ 333 10276 56499 58015 71150 83709 84614 88456=
41984,2024,07,26,12,00,AAXX 26124 41984 02456 61303 10306 20290 39902 49904 83510 333 10326 59008 70294 83618 85458==
41984,2024,07,26,18,00,AAXX 26184 41984 NIL=
41984,2024,07,27,18,00,AAXX 27184 41984 NIL=
41984,2024,07,28,12,00,AAXX 28124 41984 NIL=
41984,2024,07,29,06,00,AAXX 29064 41984 NIL=
41984,2024,07,30,12,00,AAXX 30124 41984 NIL=
41984,2024,07,31,06,00,AAXX 31064 41984 NIL=
41984,2024,08,01,03,00,AAXX 01034 41984 01330 82304 10263 20263 49983 59044 76166 8672/ 333 20250 59031 71526 83708 83614 88458==
41984,2024,08,01,06,00,AAXX 01064 41984 21340 81806 10286 20270 39985 49987 76166 8542/ 333 59017 60279 71506 84616 88458==
41984,2024,08,01,09,00,AAXX 01094 41984 01340 82205 10270 20270 39976 49978 76366 8672/ 333 58003 72170 82707 84616 88456==
41984,2024,08,01,12,00,AAXX 01124 41984 21350 82204 10271 20270 39975 49977 76166 8672/ 333 10294 58006 60789 70080 82707 84616 88456==
41984,2024,08,01,18,00,AAXX 01184 41984 21340 82202 10266 20266 30006 40008 76366 8672/ 333 58008 60349 72620 82707 84616 88456==
41989,2024,07,26,06,00,AAXX 26064 41989 01350 82106 10300 20270 39945 49948 76162 8572/ 333 58001 70080 82708 83614 88456==
41989,2024,07,26,12,00,AAXX 26124 41989 11450 31804 10296 20250 39928 49922 60016 70162 82530 333 10310 59001 70090 82618==
41989,2024,07,26,18,00,AAXX 26184 41989 NIL=
41989,2024,07,27,18,00,AAXX 27184 41989 NIL=
41989,2024,07,28,06,00,AAXX 28064 41989 02450 51706 10315 20270 39998 40001 83530 333 59003 70000 83618 84362==
41989,2024,07,28,12,00,AAXX 28124 41989 NIL=
41989,2024,07,29,00,00,AAXX 29004 41989 01440 51304 10275 20270 39993 49996 72162 84470 333 58006 70020 83618 83462==
41989,2024,07,29,03,00,AAXX 29034 41989 02450 51803 10285 20260 30000 40003 83530 333 20251 58005 70030 83618 83362==
41989,2024,07,29,06,00,AAXX 29064 41989 NIL=
41989,2024,07,30,06,00,AAXX 30064 41989 01440 61403 10270 20260 30026 40029 72162 83570 333 58031 70060 83618 84460==
41989,2024,07,30,12,00,AAXX 30124 41989 NIL=
41989,2024,07,30,21,00,AAXX 30214 41989 01440 61804 10268 20250 30022 40025 72162 84470 333 58011 70260 83618 84460==
41989,2024,07,31,00,00,AAXX 31004 41989 01330 81803 10265 20260 30016 40019 76162 8572/ 333 58009 70270 82708 83614 88456==
41989,2024,07,31,06,00,AAXX 31064 41989 01320 81402 10260 20260 30027 40030 76362 8572/ 333 20258 58012 70620 83708 83614 88456==
41989,2024,07,31,09,00,AAXX 31094 41989 01440 81304 10280 20260 30005 40008 72162 84470 333 58001 70760 83618 84460==
41989,2024,07,31,12,00,AAXX 31124 41989 01340 81804 10265 20260 30004 40008 76162 8572/ 333 10289 58008 70890 82708 83614 88456==
41989,2024,08,01,06,00,AAXX 01064 41989 01330 81804 10255 20250 30022 40025 76366 8572/ 333 58006 71340 83708 83614 88456==
41989,2024,08,01,09,00,AAXX 01094 41989 01380 31705 10254 20290 30011 40012 76166 8572/ 333 58006 72180 82710 83614 88456==
41989,2024,08,01,12,00,AAXX 01124 41989 01330 81806 10263 20250 30005 40008 76162 8572/ 333 10280 59001 72050 82710 83614 88456==
41992,2024,07,26,00,00,AAXX 26004 41992 21320 81502 10262 20260 39931 49933 75165 8692/ 333 59017 60069 70430 82708 84614 88458 81925==
41992,2024,07,26,03,00,AAXX 26034 41992 01420 82102 10275 20270 39944 49946 76165 8632/ 333 20260 59005 70340 82708 84616 88460 81925==
41992,2024,07,26,06,00,AAXX 26064 41992 21435 62104 10295 20270 39949 49951 70565 84520 333 58002 60178 70350 84616 86460==
41992,2024,07,26,09,00,AAXX 26094 41992 01330 81503 10283 20260 39936 49938 76155 8532/ 333 59010 70250 83707 85613 88458 81925==
41992,2024,07,26,12,00,AAXX 26124 41992 21325 81502 10278 20270 39935 49937 75165 8432/ 333 10300 58014 60029 70250 82708 84614 88458 81925==
41992,2024,07,26,18,00,AAXX 26184 41992 01425 81805 10270 20250 39967 49969 75152 8492/ 333 58025 70250 83614 88458 81925==
41992,2024,07,27,00,00,AAXX 27004 41992 21320 80902 10270 20260 39976 49978 76166 8692/ 333 58045 60309 70490 82708 84614 88458 81925==
41992,2024,07,27,03,00,AAXX 27034 41992 01425 80000 10293 20260 39993 49995 70562 8432/ 333 20262 58049 70400 83615 88458 81925==
41992,2024,07,27,06,00,AAXX 27064 41992 11425 71503 10303 20260 39981 49983 60076 70562 84330 333 58032 70390 83615 87362 81925==
41992,2024,07,27,09,00,AAXX 27094 41992 01430 61808 10313 20250 39977 49979 70522 83530 333 59016 70370 83616 86362==
41992,2024,07,27,12,00,AAXX 27124 41992 01430 61806 10293 20250 39980 49982 70521 82530 333 10320 58045 70370 82616 84362==
41992,2024,07,27,15,00,AAXX 27154 41992 01420 61802 10280 20260 39996 49998 70522 84520 333 58038 70370 84616 86460==
41992,2024,07,27,18,00,AAXX 27184 41992 01420 71504 10275 20260 30000 40002 70522 85320 333 58033 70370 84615 87460 81925==
41992,2024,07,28,00,00,AAXX 28004 41992 21420 81502 10265 20260 39991 49993 75165 8592/ 333 58015 60027 70090 84615 88458 81925==
41992,2024,07,28,03,00,AAXX 28034 41992 01425 81805 10288 20260 30003 40005 75155 8532/ 333 20262 58010 70020 84615 88458 81925==
41992,2024,07,28,06,00,AAXX 28064 41992 21430 61503 10293 20270 39991 49993 72165 83330 333 58010 60019 70030 82616 86362 81925==
41992,2024,07,28,09,00,AAXX 28094 41992 01430 61505 10300 20270 39973 49975 70562 84320 333 59004 70030 83616 86460 81925==
41992,2024,07,28,12,00,AAXX 28124 41992 11430 41503 10300 20250 39974 49976 60006 70562 84500 333 10310 59006 70030 84616==
41992,2024,07,28,18,00,AAXX 28184 41992 01425 71802 10272 20250 39994 49996 70521 84530 333 59006 70030 84616 87360==
41992,2024,07,28,21,00,AAXX 28214 41992 01420 81502 10265 20260 30001 40003 70522 8592/ 333 58021 70010 84615 88458 81925==
41992,2024,07,29,00,00,AAXX 29004 41992 21420 81504 10265 20260 39991 49993 76162 8592/ 333 58000 60047 70050 84615 88458 81925==
41992,2024,07,29,03,00,AAXX 29034 41992 01325 82103 10270 20270 30009 40011 76165 8692/ 333 20260 58006 70110 83708 85614 88458 81925==
41992,2024,07,29,06,00,AAXX 29064 41992 21325 80000 10288 20270 30007 40009 76165 8692/ 333 58016 60129 70160 83708 85614 88458 81925==
41992,2024,07,30,06,00,AAXX 30064 41992 21320 81803 10265 20260 30028 40030 76166 8692/ 333 58021 60289 71080 83708 85614 88458 81925==
41992,2024,07,30,09,00,AAXX 30094 41992 01320 81202 10263 20260 30015 40017 76566 8592/ 333 58017 71570 83707 85613 88458 81925==
41992,2024,07,30,12,00,AAXX 30124 41992 21320 81502 10272 20270 30013 40015 76166 8532/ 333 10272 58012 60789 71470 83707 85613 88458 81925==
41992,2024,07,30,15,00,AAXX 30154 41992 01320 81802 10263 20250 30033 40035 76166 8532/ 333 58013 71470 83707 85613 88458 81925==
41992,2024,07,30,18,00,AAXX 30184 41992 21320 81502 10262 20260 30031 40033 76166 8532/ 333 58007 60079 71490 83707 85613 88458 81925==
41992,2024,07,30,21,00,AAXX 30214 41992 01310 81503 10260 20260 30020 40022 76566 8692/ 333 58004 72230 82708 84612 88458 81925==
41992,2024,07,31,00,00,AAXX 31004 41992 21320 82103 10260 20260 30022 40024 76366 8692/ 333 58004 61579 72700 82708 84613 88458 81925==
41992,2024,07,31,03,00,AAXX 31034 41992 01320 82104 10268 20268 30033 40035 76166 8692/ 333 20256 58000 72630 83708 85614 88458 81925==
41992,2024,07,31,06,00,AAXX 31064 41992 21320 80000 10263 20260 30031 40033 76166 8692/ 333 58003 60229 72640 83708 85614 88458 81925==
41992,2024,07,31,09,00,AAXX 31094 41992 01315 80000 10265 20265 30010 40012 76566 8692/ 333 59005 72270 83707 85612 88458 81925==
41992,2024,07,31,12,00,AAXX 31124 41992 21315 81814 10260 20260 30012 40014 76566 8692/ 333 10280 59001 60489 72340 83707 85612 88458 81925==
41992,2024,07,31,15,00,AAXX 31154 41992 01315 81504 10257 20250 30032 40034 76166 8532/ 333 59001 72350 83707 85613 88458 81925==
41992,2024,07,31,18,00,AAXX 31184 41992 21315 81803 10273 20270 30020 40022 76366 8592/ 333 59011 60229 72490 83707 85613 88458 81925==
41992,2024,07,31,21,00,AAXX 31214 41992 01315 81505 10260 20260 30016 40018 76166 8692/ 333 59004 71620 82708 84613 88458 81925==
41992,2024,08,01,00,00,AAXX 01004 41992 21320 81503 10257 20255 30011 40013 76166 8692/ 333 59011 60239 71150 82708 84613 88458 81925==
41992,2024,08,01,03,00,AAXX 01034 41992 01320 81705 10280 20270 30029 40031 76166 8692/ 333 20250 59004 71160 83708 85614 88458 81925==
41992,2024,08,01,06,00,AAXX 01064 41992 21320 81706 10284 20270 30027 40029 76166 8692/ 333 59004 60089 71010 83708 85614 88458 81925==
41992,2024,08,01,09,00,AAXX 01094 41992 01320 81504 10260 20250 30024 40026 76166 8692/ 333 58014 70870 83708 85614 88458 81925==
41992,2024,08,01,12,00,AAXX 01124 41992 21320 81805 10256 20250 30026 40028 76166 8692/ 333 10286 58014 60249 70770 83708 85614 88458 81925==
41992,2024,08,01,15,00,AAXX 01154 41992 01315 80000 10250 20250 30048 40050 76166 8692/ 333 58016 70760 83707 85612 88458 81925==
41992,2024,08,01,18,00,AAXX 01184 41992 21315 81805 10270 20270 30034 40036 76566 8692/ 333 58014 60579 71110 83707 85612 88458 81925==
41992,2024,08,01,21,00,AAXX 01214 41992 01315 81806 10278 20270 30020 40022 76166 8692/ 333 58004 71040 82708 84613 88458 81925==
41998,2024,07,26,12,00,AAXX 26124 41998 21456 80000 10252 20240 39944 49950 76366 8442/ 333 10271 59001 60659 71920 83616 88456==
41998,2024,07,26,18,00,AAXX 26184 41998 NIL=
41998,2024,07,27,18,00,AAXX 27184 41998 NIL=
41998,2024,07,28,12,00,AAXX 28124 41998 02456 81802 10271 20260 39987 49993 8442/ 333 10306 58007 70370 83618 88458==
41998,2024,07,29,03,00,AAXX 29034 41998 01456 80000 10275 20260 30006 40012 76166 8442/ 333 20258 58020 70200 83616 88456==
41998,2024,07,29,06,00,AAXX 29064 41998 21456 80000 10283 20260 39997 40003 76166 8442/ 333 58000 60069 70190 83616 88456==
41998,2024,07,30,12,00,AAXX 30124 41998 NIL=
41998,2024,07,31,06,00,AAXX 31064 41998 NIL=
41998,2024,07,31,12,00,AAXX 31124 41998 21456 81402 10254 20250 30020 40026 76366 8442/ 333 10277 58004 61249 70230 83618 88456==
41998,2024,08,01,06,00,AAXX 01064 41998 21456 80000 10270 20250 30026 40032 76366 8442/ 333 58018 60229 72120 83616 88456==
41998,2024,08,01,12,00,AAXX 01124 41998 21456 81402 10264 20250 30028 40034 76166 8442/ 333 10283 58008 60199 71070 83616 88456==
