ESTACION,ANO,MES,DIA,HORA,MINUTO,PARTE
41850,2024,12,20,00,00,AAXX 20004 41850 31930 00000 10110 20110 30034 40139 70500 333 59021 70000=
41850,2024,12,20,03,00,AAXX 20034 41850 31940 00000 10171 20130 30056 40158 70500 333 20107 59017 70000=
41850,2024,12,20,06,00,AAXX 20064 41850 32956 00000 10250 20090 30037 40136 333 59021 70000=
41850,2024,12,20,09,00,AAXX 20094 41850 32957 00902 10270 20060 30014 40112 333 59011 70000=
41850,2024,12,20,12,00,AAXX 20124 41850 31950 00000 10183 20150 30016 40117 70500 333 10275 59003 70000=
41850,2024,12,20,15,00,AAXX 20154 41850 31940 03002 10148 20140 30035 40138 70500 333 59009 70000=
41850,2024,12,21,00,00,AAXX 21004 41850 31915 00000 10105 20105 30026 40130 71000 333 59008 70000=
41850,2024,12,21,03,00,AAXX 21034 41850 31940 00902 10170 20140 30059 40161 70500 333 20103 58003 70000=
41850,2024,12,21,06,00,AAXX 21064 41850 32956 00000 10245 20140 30045 40144 333 58008 70000=
41850,2024,12,21,09,00,AAXX 21094 41850 32456 21801 10266 20110 30017 40115 82500 333 56900 58003 70000 82618=
41850,2024,12,21,12,00,AAXX 21124 41850 31950 00000 10190 20160 30027 40129 70510 333 10270 58011 70000=
41850,2024,12,21,15,00,AAXX 21154 41850 31940 00000 10161 20150 30046 40149 70500 333 58011 70000=
41850,2024,12,21,18,00,AAXX 21184 41850 NIL=
41850,2024,12,21,21,00,AAXX 21214 41850 31915 02702 10121 20120 30047 40151 71000 333 58013 70000=
41850,2024,12,22,00,00,AAXX 22004 41850 31907 02702 10100 20100 30043 40148 74240 333 58017 70000=
41850,2024,12,22,03,00,AAXX 22034 41850 31930 00000 10153 20140 30070 40173 70540 333 20094 58011 70000=
41850,2024,12,22,06,00,AAXX 22064 41850 31950 00901 10235 20140 30065 40165 70540 333 58020 70000=
41850,2024,12,22,09,00,AAXX 22094 41850 32956 02001 10255 20110 30036 40135 333 59017 70000=
41850,2024,12,22,12,00,AAXX 22124 41850 31950 00000 10172 20150 30041 40143 70500 333 10258 58014 70000=
41850,2024,12,22,15,00,AAXX 22154 41850 31935 00000 10140 20140 30060 40163 70500 333 58014 70000=
41850,2024,12,22,21,00,AAXX 22214 41850 31920 00000 10120 20120 30056 40160 71000 333 58009 70000=
41850,2024,12,23,00,00,AAXX 23004 41850 31930 03002 10116 20116 30052 40156 70500 333 58009 70000=
41850,2024,12,23,03,00,AAXX 23034 41850 31950 03001 10160 20150 30077 40180 70500 333 20112 58007 70000=
41850,2024,12,23,06,00,AAXX 23064 41850 32456 12002 10245 20150 30064 40163 81500 333 56900 59001 70000 81618=
41850,2024,12,23,09,00,AAXX 23094 41850 32456 21803 10252 20100 30039 40138 82500 333 56900 58003 70000 82618=
41850,2024,12,23,12,00,AAXX 23124 41850 31950 00000 10175 20160 30037 40139 70510 333 10255 59004 70000=
41850,2024,12,23,15,00,AAXX 23154 41850 31935 00000 10144 20130 30053 40156 70500 333 59007 70000=
41850,2024,12,23,18,00,AAXX 23184 41850 31920 00000 10130 20130 30055 40159 71000 333 59007 70000=
41850,2024,12,23,21,00,AAXX 23214 41850 31920 00000 10111 20110 30052 40157 71000 333 59004 70000=
41850,2024,12,24,00,00,AAXX 24004 41850 31920 00000 10096 20096 30050 40155 71000 333 59002 70000=
41850,2024,12,24,03,00,AAXX 24034 41850 31940 03602 10161 20130 30076 40179 70500 333 20094 59001 70000=
41850,2024,12,24,06,00,AAXX 24064 41850 32956 00000 10242 20110 30064 40164 333 58000 70000=
41850,2024,12,24,09,00,AAXX 24094 41850 32956 01802 10256 20100 30036 40135 333 59003 70000=
41850,2024,12,24,12,00,AAXX 24124 41850 31940 00000 10176 20150 30029 40131 70500 333 10260 59008 70000=
41850,2024,12,24,15,00,AAXX 24154 41850 31930 00000 10136 20130 30055 40158 70500 333 58002 70000=
41850,2024,12,24,18,00,AAXX 24184 41850 31925 00000 10122 20120 30065 40169 71000 333 58010 70000=
41850,2024,12,25,03,00,AAXX 25034 41850 31940 30902 10145 20140 30086 40189 70510 83030 333 20093 56090 58010 70000 83362=
41850,2024,12,25,06,00,AAXX 25064 41850 31956 02502 10245 20120 30077 40177 333 58013 70000=
41850,2024,12,25,09,00,AAXX 25094 41850 32956 02002 10262 20090 30053 40152 333 58017 70000=
41850,2024,12,25,12,00,AAXX 25124 41850 31940 00000 10180 20150 30055 40157 70500 333 10265 58026 70000=
41850,2024,12,25,18,00,AAXX 25184 41850 31925 00000 10131 20130 30089 40193 71000 333 58024 70000=
41850,2024,12,26,03,00,AAXX 26034 41850 31940 00000 10155 20140 30115 40218 70500 333 20095 58029 70000=
41850,2024,12,26,06,00,AAXX 26064 41850 32956 00000 10243 20090 30109 40209 333 58032 70000=
41850,2024,12,26,09,00,AAXX 26094 41850 32956 02001 10262 20080 30071 40170 333 58018 70000=
41850,2024,12,26,12,00,AAXX 26124 41850 31940 00000 10185 20160 30075 40177 70500 333 10270 58020 70000=
41850,2024,12,26,15,00,AAXX 26154 41850 31930 00000 10147 20140 30092 40195 70500 333 58010 70000=
41850,2024,12,26,18,00,AAXX 26184 41850 31920 00000 10135 20130 30093 40197 71000 333 58004 70000=
41851,2024,12,20,00,00,AAXX 20004 41851 31440 20000 10125 20120 30074 40140 70500 82500 333 56900 59016 70000 82618=
41851,2024,12,20,03,00,AAXX 20034 41851 31440 20000 10167 20140 30094 40160 70511 82500 333 20125 56900 59022 70000 82618=
41851,2024,12,20,06,00,AAXX 20064 41851 31445 10000 10255 20150 30079 40142 70511 81500 333 56900 59013 70000 81618=
41851,2024,12,20,09,00,AAXX 20094 41851 31445 10000 10270 20130 30048 40111 70511 81500 333 56900 59014 70000 81618=
41851,2024,12,20,12,00,AAXX 20124 41851 31440 30000 10210 20150 30052 40116 70511 83500 333 10275 56900 59007 70000 83618=
41851,2024,12,20,15,00,AAXX 20154 41851 31940 00000 10164 20150 30071 40136 70511 333 59010 70000=
41851,2024,12,20,18,00,AAXX 20184 41851 31940 00000 10150 20140 30079 40145 70510 333 59007 70000=
41851,2024,12,21,00,00,AAXX 21004 41851 31940 00000 10134 20120 30066 40132 70500 333 59008 70000=
41851,2024,12,21,03,00,AAXX 21034 41851 31940 00000 10163 20150 30095 40161 70500 333 20130 58001 70000=
41851,2024,12,21,06,00,AAXX 21064 41851 31940 00901 10252 20140 30084 40148 70500 333 58005 70000=
41851,2024,12,21,09,00,AAXX 21094 41851 31945 00902 10258 20140 30057 40120 70500 333 58009 70000=
41851,2024,12,21,12,00,AAXX 21124 41851 31940 00000 10200 20160 30066 40130 70500 333 10266 58014 70000=
41851,2024,12,21,15,00,AAXX 21154 41851 31940 00000 10166 20160 30084 40150 70500 333 58013 70000=
41851,2024,12,21,18,00,AAXX 21184 41851 31940 00000 10150 20140 30094 40160 70500 333 58015 70000=
41851,2024,12,21,21,00,AAXX 21214 41851 31930 00000 10138 20130 30093 40159 70500 333 58017 70000=
41851,2024,12,22,00,00,AAXX 22004 41851 31930 00000 10125 20120 30081 40147 70500 333 58015 70000=
41851,2024,12,22,03,00,AAXX 22034 41851 31940 00000 10157 20150 30109 40175 70500 333 20123 58014 70000=
41851,2024,12,22,06,00,AAXX 22064 41851 31940 00901 10233 20150 30099 40163 70500 333 58015 70000=
41851,2024,12,22,09,00,AAXX 22094 41851 31945 00901 10250 20150 30075 40139 70500 333 58018 70000=
41851,2024,12,22,12,00,AAXX 22124 41851 31940 00901 10188 20170 30079 40144 70500 333 10255 58013 70000=
41851,2024,12,22,15,00,AAXX 22154 41851 31940 00000 10158 20150 30095 40161 70500 333 58011 70000=
41851,2024,12,22,18,00,AAXX 22184 41851 31930 00000 10144 20130 30099 40165 70500 333 58005 70000=
41851,2024,12,22,21,00,AAXX 22214 41851 31930 00000 10138 20130 30096 40162 70500 333 58003 70000=
41851,2024,12,23,00,00,AAXX 23004 41851 31910 00000 10130 20130 30091 40157 71000 333 58010 70000=
41851,2024,12,23,03,00,AAXX 23034 41851 31930 00901 10163 20150 30116 40182 70500 333 20125 58007 70000=
41851,2024,12,23,06,00,AAXX 23064 41851 31940 00901 10232 20140 30107 40171 70500 333 58008 70000=
41851,2024,12,23,09,00,AAXX 23094 41851 31945 00901 10253 20130 30075 40139 70500 333 58000 70000=
41851,2024,12,23,12,00,AAXX 23124 41851 31940 00000 10190 20160 30074 40139 70500 333 10255 59005 70000=
41851,2024,12,23,15,00,AAXX 23154 41851 31940 00000 10154 20140 30087 40153 70500 333 59008 70000=
41851,2024,12,23,18,00,AAXX 23184 41851 31940 00000 10140 20130 30093 40159 70500 333 59006 70000=
41851,2024,12,23,21,00,AAXX 23214 41851 31930 00000 10138 20130 30090 40156 70500 333 59006 70000=
41851,2024,12,24,00,00,AAXX 24004 41851 31930 00000 10118 20110 30090 40157 70500 333 59001 70000=
41851,2024,12,24,03,00,AAXX 24034 41851 31940 00000 10155 20150 30112 40178 70500 333 20116 59004 70000=
41851,2024,12,24,06,00,AAXX 24064 41851 31945 00902 10235 20130 30102 40166 70500 333 59005 70000=
41851,2024,12,24,09,00,AAXX 24094 41851 31940 00902 10255 20120 30071 40134 70500 333 59004 70000=
41851,2024,12,24,12,00,AAXX 24124 41851 31940 00000 10200 20150 30068 40132 70500 333 10256 59006 70000=
41851,2024,12,24,15,00,AAXX 24154 41851 31940 00000 10153 20130 30090 40156 70500 333 58003 70000=
41851,2024,12,24,18,00,AAXX 24184 41851 31940 00000 10140 20130 30096 40162 70500 333 58003 70000=
41851,2024,12,25,03,00,AAXX 25034 41851 31930 00501 10166 20140 30129 40195 70500 333 20118 58017 70000=
41851,2024,12,25,06,00,AAXX 25064 41851 31940 00901 10236 20140 30118 40182 70500 333 58016 70000=
41851,2024,12,25,09,00,AAXX 25094 41851 31940 00901 10258 20110 30091 40154 70500 333 58020 70000=
41851,2024,12,25,12,00,AAXX 25124 41851 31930 00000 10190 20150 30093 40158 70500 333 10267 58025 70000=
41851,2024,12,25,18,00,AAXX 25184 41851 31930 00000 10142 20130 30123 40189 70500 333 58027 70000=
41851,2024,12,26,03,00,AAXX 26034 41851 31930 00000 10175 20130 30152 40218 70500 333 20120 58023 70000=
41851,2024,12,26,06,00,AAXX 26064 41851 31945 00701 10243 20130 30143 40207 70500 333 58025 70000=
41851,2024,12,26,09,00,AAXX 26094 41851 32950 00901 10265 20100 30111 40174 333 58020 70000=
41851,2024,12,26,12,00,AAXX 26124 41851 31940 00000 10197 20160 30110 40175 70500 333 10270 58017 70000=
41851,2024,12,26,15,00,AAXX 26154 41851 31940 00000 10155 20140 30128 40194 70500 333 58010 70000=
41851,2024,12,26,18,00,AAXX 26184 41851 31940 00000 10140 20130 30135 40202 70500 333 58012 70000=
41856,2024,12,20,00,00,AAXX 20004 41856 31930 00000 10116 20116 30101 40138 70500 333 59015 70000=
41856,2024,12,20,03,00,AAXX 20034 41856 31940 20000 10185 20140 30123 40160 70510 82030 333 20114 56090 59015 70000 82362=
41856,2024,12,20,06,00,AAXX 20064 41856 31450 30000 10243 20110 30107 40143 70511 81530 333 56990 59010 70000 81618 82362=
41856,2024,12,20,09,00,AAXX 20094 41856 31450 30000 10260 20120 30075 40111 70511 81530 333 56990 59013 70000 81618=
41856,2024,12,20,12,00,AAXX 20124 41856 31440 50000 10194 20160 30079 40116 70521 81530 333 10275 56990 59008 70000 81618 85362=
41856,2024,12,20,15,00,AAXX 20154 41856 31920 00000 10154 20140 30097 40134 71010 333 59009 70000=
41856,2024,12,20,18,00,AAXX 20184 41856 31908 00000 10139 20130 30103 40140 74610 333 59001 70000=
41856,2024,12,21,00,00,AAXX 21004 41856 31902 00000 10115 20115 30097 40134 74600 333 59004 70000=
41856,2024,12,21,03,00,AAXX 21034 41856 31930 00000 10175 20150 30122 40159 70500 333 20115 59001 70000=
41856,2024,12,21,06,00,AAXX 21064 41856 31950 00000 10247 20130 30108 40144 70500 333 58001 70000=
41856,2024,12,21,09,00,AAXX 21094 41856 31950 00901 10264 20120 30084 40120 70500 333 58009 70000=
41856,2024,12,21,12,00,AAXX 21124 41856 31940 00000 10195 20170 30096 40133 70500 333 10265 58017 70000=
41856,2024,12,21,15,00,AAXX 21154 41856 31930 00000 10157 20150 30113 40150 70500 333 58016 70000=
41856,2024,12,21,18,00,AAXX 21184 41856 31430 10000 10153 20140 30116 40153 70510 81500 333 56900 58013 70000 81618=
41856,2024,12,21,21,00,AAXX 21214 41856 31920 00000 10135 20130 30112 40149 71010 333 58014 70000=
41856,2024,12,22,00,00,AAXX 22004 41856 31905 00000 10128 20128 30109 40146 74610 333 58012 70000=
41856,2024,12,22,03,00,AAXX 22034 41856 31/02 90000 10160 20160 30140 40177 74540 89/// 333 20127 58018 70000=
41856,2024,12,22,06,00,AAXX 22064 41856 31935 00901 10213 20160 30128 40165 70540 333 58020 70000=
41856,2024,12,22,09,00,AAXX 22094 41856 31940 00000 10248 20150 30102 40138 70500 333 58018 70000=
41856,2024,12,22,12,00,AAXX 22124 41856 31930 00000 10190 20180 30105 40142 70500 333 10255 58009 70000=
41856,2024,12,22,15,00,AAXX 22154 41856 31920 00000 10152 20150 30122 40159 71000 333 58009 70000=
41856,2024,12,22,18,00,AAXX 22184 41856 31908 00000 10138 20138 30123 40160 74440 333 58007 70000=
41856,2024,12,22,21,00,AAXX 22214 41856 31906 00000 10130 20130 30119 40156 74444 333 58007 70000=
41856,2024,12,23,00,00,AAXX 23004 41856 31908 00000 10120 20120 30116 40153 74444 333 58007 70000=
41856,2024,12,23,03,00,AAXX 23034 41856 31930 00702 10176 20150 30137 40174 70540 333 20118 59003 70000=
41856,2024,12,23,06,00,AAXX 23064 41856 31950 00602 10240 20140 30127 40163 70040 333 59001 70000=
41856,2024,12,23,09,00,AAXX 23094 41856 32956 00502 10253 20130 30097 40133 333 59005 70000=
41856,2024,12,23,12,00,AAXX 23124 41856 31940 00000 10186 20170 30098 40135 70500 333 10255 59007 70000=
41856,2024,12,23,15,00,AAXX 23154 41856 31930 00000 10145 20145 30113 40150 70500 333 59009 70000=
41856,2024,12,23,18,00,AAXX 23184 41856 31920 00000 10135 20135 30122 40159 71000 333 59001 70000=
41856,2024,12,23,21,00,AAXX 23214 41856 31915 00000 10123 20120 30119 40156 71000 333 58000 70000=
41856,2024,12,24,00,00,AAXX 24004 41856 31920 00502 10112 20110 30116 40153 71000 333 58000 70000=
41856,2024,12,24,03,00,AAXX 24034 41856 31940 00303 10187 20130 30136 40173 70500 333 20110 59001 70000=
41856,2024,12,24,06,00,AAXX 24064 41856 32950 00403 10230 20140 30120 40156 333 59007 70000=
41856,2024,12,24,09,00,AAXX 24094 41856 32950 00401 10256 20110 30097 40133 333 58000 70000=
41856,2024,12,24,12,00,AAXX 24124 41856 31940 00000 10185 20160 30095 40132 70500 333 10260 59003 70000=
41856,2024,12,24,15,00,AAXX 24154 41856 31930 00000 10140 20130 30115 40152 70500 333 58002 70000=
41856,2024,12,24,18,00,AAXX 24184 41856 31930 00000 10124 20120 30127 40164 70500 333 58005 70000=
41856,2024,12,25,03,00,AAXX 25034 41856 31930 00000 10169 20140 30153 40190 70500 333 20107 58017 70000=
41856,2024,12,25,06,00,AAXX 25064 41856 31950 00902 10233 20120 30138 40174 70500 333 58018 70000=
41856,2024,12,25,09,00,AAXX 25094 41856 31950 00901 10255 20120 30117 40153 70500 333 58020 70000=
41856,2024,12,25,12,00,AAXX 25124 41856 31940 00000 10195 20170 30119 40156 70500 333 10260 58024 70000=
41856,2024,12,25,18,00,AAXX 25184 41856 31930 00000 10132 20130 30154 40191 70500 333 58027 70000=
41856,2024,12,26,03,00,AAXX 26034 41856 31950 00000 10177 20130 30176 40213 70540 333 20108 58023 70000=
41856,2024,12,26,06,00,AAXX 26064 41856 31950 00901 10240 20110 30169 40205 70540 333 58031 70000=
41856,2024,12,26,09,00,AAXX 26094 41856 31950 00901 10257 20110 30136 40172 70500 333 58019 70000=
41856,2024,12,26,12,00,AAXX 26124 41856 31930 00000 10200 20160 30135 40172 70500 333 10265 58016 70000=
41856,2024,12,26,15,00,AAXX 26154 41856 31920 00000 10146 20140 30155 40192 71000 333 58010 70000=
41856,2024,12,26,18,00,AAXX 26184 41856 31920 00000 10130 20130 30158 40195 71000 333 58004 70000=
41858,2024,12,20,00,00,AAXX 20004 41858 01910 00000 10136 20120 30094 40142 71000 333 59016 70000==
41858,2024,12,20,03,00,AAXX 20034 41858 01/15 20000 10180 20150 30111 40158 71000 82030 333 20128 59020 70000 82362==
41858,2024,12,20,06,00,AAXX 20064 41858 01/35 20505 10264 20180 30102 40148 70500 82030 333 59012 70000 82362==
41858,2024,12,20,09,00,AAXX 20094 41858 01/50 30000 10280 20130 30058 40114 70520 83040 333 59014 70000 83362==
41858,2024,12,20,12,00,AAXX 20124 41858 01/50 30000 10230 20160 30071 40117 70520 83040 333 10281 59010 70000 83362==
41858,2024,12,20,15,00,AAXX 20154 41858 01950 00000 10176 20130 30073 40136 70500 333 59010 70000==
41858,2024,12,20,18,00,AAXX 20184 41858 01940 00000 10152 20130 30095 40143 70500 333 59022 70000==
41858,2024,12,21,00,00,AAXX 21004 41858 01906 00000 10140 20120 30092 40140 74040 333 59002 70000==
41858,2024,12,21,03,00,AAXX 21034 41858 01910 00000 10168 20140 30115 40162 71044 333 20122 58004 70000==
41858,2024,12,21,06,00,AAXX 21064 41858 01935 00000 10260 20170 30099 40145 70540 333 59003 70000==
41858,2024,12,21,09,00,AAXX 21094 41858 01950 00000 10280 20130 30075 40121 70500 333 58007 70000==
41858,2024,12,21,12,00,AAXX 21124 41858 01950 00000 10220 20140 30081 40130 70500 333 10280 58013 70000==
41858,2024,12,21,15,00,AAXX 21154 41858 01940 00000 10185 20170 30103 40150 70500 333 58014 70000==
41858,2024,12,21,18,00,AAXX 21184 41858 01940 00000 10172 20150 30109 40150 70500 333 58014 70000==
41858,2024,12,21,21,00,AAXX 21214 41858 31925 00000 10160 20150 30108 40156 71000 333 58027 70000=
41858,2024,12,21,23,00,AAXX 21234 41858 01925 00000 10160 20150 30108 40156 71000 333 58027 70000==
41858,2024,12,22,00,00,AAXX 22004 41858 01912 00000 10146 20130 30101 40149 71000 333 58009 70000==
41858,2024,12,22,03,00,AAXX 22034 41858 01908 00000 10170 20150 30127 40174 74240 333 20130 58012 70000==
41858,2024,12,22,06,00,AAXX 22064 41858 01920 00000 10250 20150 30118 40164 71040 333 58026 70000==
41858,2024,12,22,09,00,AAXX 22094 41858 01435 30000 10260 20150 30092 40138 70500 83500 333 58017 70000 83618==
41858,2024,12,22,12,00,AAXX 22124 41858 NIL=
41858,2024,12,22,15,00,AAXX 22154 41858 01915 00000 10180 20150 30114 40161 71000 333 58011 70000==
41858,2024,12,22,18,00,AAXX 22184 41858 01910 00000 10165 20150 30120 40168 71000 333 58011 70000==
41858,2024,12,22,21,00,AAXX 22214 41858 01906 00000 10154 20130 30117 40165 74440 333 58009 70000==
41858,2024,12,23,00,00,AAXX 23004 41858 01903 00000 10140 20130 30114 40162 74440 333 58013 70000==
41858,2024,12,23,03,00,AAXX 23034 41858 01915 00000 10172 20150 30131 40178 72844 333 20126 58004 70000==
41858,2024,12,23,06,00,AAXX 23064 41858 01940 03605 10250 20150 30122 40168 70540 333 58004 70000==
41858,2024,12,23,09,00,AAXX 23094 41858 01950 00605 10264 20130 30093 40139 70500 333 58001 70000==
41858,2024,12,23,12,00,AAXX 23124 41858 01940 00000 10212 20150 30092 40138 70500 333 10265 59006 70000==
41858,2024,12,23,15,00,AAXX 23154 41858 01930 00000 10170 20150 30106 40153 70500 333 59008 70000==
41858,2024,12,23,18,00,AAXX 23184 41858 01930 00000 10164 20140 30110 40157 70500 333 59010 70000==
41858,2024,12,23,21,00,AAXX 23214 41858 01920 00000 10150 20130 30109 40157 71000 333 59008 70000==
41858,2024,12,24,00,00,AAXX 24004 41858 01908 00000 10134 20110 30109 40157 74040 333 59005 70000==
41858,2024,12,24,03,00,AAXX 24034 41858 01920 00605 10195 20160 30129 40173 71040 333 20122 59002 70000==
41858,2024,12,24,06,00,AAXX 24064 41858 01950 00605 10250 20130 30118 40164 70540 333 59004 70000==
41858,2024,12,24,09,00,AAXX 24094 41858 01950 00604 10262 20120 30089 40135 70500 333 59004 70000==
41858,2024,12,24,12,00,AAXX 24124 41858 01940 00000 10208 20160 30088 40134 70500 333 10264 59004 70000==
41858,2024,12,24,15,00,AAXX 24154 41858 01930 00000 10174 20150 30108 40155 70500 333 58002 70000==
41858,2024,12,24,18,00,AAXX 24184 41858 01930 00000 10160 20150 30117 40164 70500 333 58007 70000==
41858,2024,12,25,03,00,AAXX 25034 41858 01920 00000 10182 20130 30146 40193 71000 333 20126 58017 70000==
41858,2024,12,25,06,00,AAXX 25064 41858 01940 00000 10260 20130 30131 40177 70500 333 58013 70000==
41858,2024,12,25,09,00,AAXX 25094 41858 01950 00000 10271 20130 30109 40155 70500 333 58020 70000==
41858,2024,12,25,12,00,AAXX 25124 41858 01950 00000 10220 20150 30112 40158 70500 333 10275 58024 70000==
41858,2024,12,25,18,00,AAXX 25184 41858 01930 00000 10164 20140 30151 40199 70500 333 58034 70000==
41858,2024,12,26,03,00,AAXX 26034 41858 01930 00905 10180 20130 30167 40214 70500 333 20126 58021 70000==
41858,2024,12,26,06,00,AAXX 26064 41858 01940 00000 10260 20130 30164 40210 70500 333 58033 70000==
41858,2024,12,26,09,00,AAXX 26094 41858 01950 00000 10272 20110 30129 40175 70500 333 58020 70000==
41858,2024,12,26,12,00,AAXX 26124 41858 01940 00000 10214 20150 30131 40178 70500 333 10278 58019 70000==
41858,2024,12,26,15,00,AAXX 26154 41858 01935 00000 10172 20150 30146 40194 70500 333 58009 70000==
41858,2024,12,26,18,00,AAXX 26184 41858 01930 00000 10160 20140 30152 40200 70500 333 58009 70000==
41859,2024,12,20,00,00,AAXX 20004 41859 01930 00000 10145 20140 30094 40133 70500 333 59023 70000==
41859,2024,12,20,03,00,AAXX 20034 41859 01950 00000 10183 20140 30120 40158 70500 333 20142 59018 70000==
41859,2024,12,20,06,00,AAXX 20064 41859 01950 00000 10251 20130 30108 40145 70500 333 59011 70000==
41859,2024,12,20,09,00,AAXX 20094 41859 01950 00502 10271 20130 30076 40113 70500 333 59014 70000==
41859,2024,12,20,12,00,AAXX 20124 41859 01940 00000 10211 20170 30078 40116 70500 333 10276 59009 70000==
41859,2024,12,20,15,00,AAXX 20154 41859 01930 00000 10179 20160 30098 40136 70500 333 59007 70000==
41859,2024,12,20,18,00,AAXX 20184 41859 01930 00000 10167 20150 30108 40147 70500 333 58003 70000==
41859,2024,12,20,21,00,AAXX 20214 41859 01930 00000 10152 20140 30103 40142 70500 333 58005 70000==
41859,2024,12,21,00,00,AAXX 21004 41859 01930 00000 10146 20140 30098 40137 70500 333 58004 70000==
41859,2024,12,21,03,00,AAXX 21034 41859 01950 00000 10191 20150 30122 40160 70500 333 20140 58002 70000==
41859,2024,12,21,06,00,AAXX 21064 41859 01950 00000 10254 20130 30109 40146 70500 333 58001 70000==
41859,2024,12,21,09,00,AAXX 21094 41859 01945 00502 10270 20130 30080 40117 70500 333 58004 70000==
41859,2024,12,21,12,00,AAXX 21124 41859 01930 00000 10213 20170 30091 40129 70500 333 10272 58013 70000==
41859,2024,12,21,15,00,AAXX 21154 41859 01425 70501 10194 20160 30110 40148 70520 83530 333 58012 70000 83618 87362==
41859,2024,12,21,18,00,AAXX 21184 41859 01925 00501 10178 20160 30113 40151 70520 333 58005 70000==
41859,2024,12,21,21,00,AAXX 21214 41859 01925 00902 10166 20150 30105 40144 70500 333 58002 70000==
41859,2024,12,21,23,00,AAXX 21234 41859 01925 00902 10166 20150 30105 40144 70500 333 58002 70000==
41859,2024,12,22,00,00,AAXX 22004 41859 01925 00000 10152 20140 30106 40145 70500 333 58008 70000==
41859,2024,12,22,03,00,AAXX 22034 41859 01950 00000 10162 20150 30136 40175 70540 333 20147 58014 70000==
41859,2024,12,22,06,00,AAXX 22063 41859 01950 00000 10240 20160 30123 40161 70540 333 58015 70000==
41859,2024,12,22,09,00,AAXX 22094 41859 01950 00000 10250 20150 30101 40138 70500 333 58021 70000==
41859,2024,12,22,12,00,AAXX 22124 41859 01930 00000 10199 20170 30108 40146 70500 333 10256 58017 70000==
41859,2024,12,22,15,00,AAXX 22154 41859 01930 00000 10175 20160 30122 40160 70500 333 58012 70000==
41859,2024,12,22,18,00,AAXX 22183 41859 01920 00000 10161 20150 30125 40164 70500 333 58012 70000==
41859,2024,12,22,21,00,AAXX 22214 41859 01930 03601 10154 20140 30119 40158 70500 333 58014 70000==
41859,2024,12,23,00,00,AAXX 23004 41859 01930 03601 10150 20150 30117 40156 70500 333 58011 70000==
41859,2024,12,23,03,00,AAXX 23033 41859 01950 03601 10185 20150 30137 40176 70500 333 20150 58001 70000==
41859,2024,12,23,06,00,AAXX 23064 41859 01950 03602 10241 20150 30126 40164 70500 333 58003 70000==
41859,2024,12,23,09,00,AAXX 23094 41859 01950 00000 10261 20130 30099 40136 70500 333 59002 70000==
41859,2024,12,23,12,00,AAXX 23124 41859 01930 00000 10205 20160 30099 40137 70500 333 10265 59009 70000==
41859,2024,12,23,15,00,AAXX 23154 41859 01930 00000 10172 20160 30113 40152 70500 333 59009 70000==
41859,2024,12,23,18,00,AAXX 23184 41859 01930 00000 10157 20150 30114 40153 70500 333 59011 70000==
41859,2024,12,23,21,00,AAXX 23214 41859 01930 00000 10148 20140 30108 40147 70500 333 59011 70000==
41859,2024,12,24,00,00,AAXX 24004 41859 01930 00000 10149 20130 30114 40153 70500 333 59003 70000==
41859,2024,12,24,03,00,AAXX 24034 41859 01940 00502 10190 20130 30135 40173 70500 333 20141 59002 70000==
41859,2024,12,24,06,00,AAXX 24064 41859 02950 00503 10245 20150 30119 40156 333 59007 70000==
41859,2024,12,24,09,00,AAXX 24094 41859 02950 00000 10257 20130 30096 40133 333 59003 70000==
41859,2024,12,24,12,00,AAXX 24124 41859 01930 00000 10199 20160 30095 40133 70500 333 10260 59004 70000==
41859,2024,12,24,15,00,AAXX 24154 41859 01930 00000 10168 20160 30113 40152 70500 333 58000 70000==
41859,2024,12,24,18,00,AAXX 24184 41859 01930 00000 10153 20140 30128 40167 70500 333 58014 70000==
41859,2024,12,25,03,00,AAXX 25034 41859 01940 00501 10180 20130 30151 40190 70500 333 20132 58016 70000==
41859,2024,12,25,06,00,AAXX 25064 41859 02950 00502 10248 20140 30140 40178 333 58021 70000==
41859,2024,12,25,09,00,AAXX 25094 41859 02950 00501 10267 20130 30117 40154 333 58021 70000==
41859,2024,12,25,12,00,AAXX 25124 41859 01930 00000 10204 20160 30121 40159 70500 333 10270 58026 70000==
41859,2024,12,25,18,00,AAXX 25184 41859 01930 00000 10160 20150 30153 40192 70500 333 58025 70000==
41859,2024,12,26,03,00,AAXX 26034 41859 01950 00000 10191 20130 30177 40216 70500 333 20136 70000==
41859,2024,12,26,06,00,AAXX 26063 41859 01950 00000 10251 20140 30172 40210 70500 333 58032 70000==
41859,2024,12,26,09,00,AAXX 26094 41859 02950 00502 10266 20130 30138 40175 333 58021 70000==
41859,2024,12,26,12,00,AAXX 26124 41859 01930 00000 10211 20150 30137 40175 70500 333 10270 58016 70000==
41859,2024,12,26,15,00,AAXX 26154 41859 01930 00000 10170 20150 30155 40194 70500 333 58010 70000==
41859,2024,12,26,18,00,AAXX 26184 41859 01930 00000 10156 20150 30154 40193 70500 333 58001 70000==
41863,2024,12,20,00,00,AAXX 20004 41863 01940 00000 10127 20120 30092 40137 70500 333 59017 70000==
41863,2024,12,20,03,00,AAXX 20034 41863 01950 00000 10180 20150 30114 41058 70500 333 20121 59020 70000==
41863,2024,12,20,06,00,AAXX 20064 41863 02956 00000 10262 20130 30111 40154 333 59003 70000==
41863,2024,12,20,09,00,AAXX 20094 41863 02956 00000 10277 20130 30069 40112 333 59017 70000==
41863,2024,12,20,12,00,AAXX 20124 41863 01950 20000 10205 20160 30072 40116 70500 333 10280 59008 70000 82074==
41863,2024,12,20,15,00,AAXX 20154 41863 01940 00000 10170 20150 30095 40140 70500 333 59006 70000==
41863,2024,12,20,18,00,AAXX 20184 41863 01930 00000 10150 20140 30097 40142 70500 333 59010 70000==
41863,2024,12,21,00,00,AAXX 21004 41863 01920 00000 10121 20110 30088 40133 71040 333 59004 70000==
41863,2024,12,21,03,00,AAXX 21034 41863 01940 00000 10200 20150 30118 40162 70500 333 20116 58004 70000==
41863,2024,12,21,06,00,AAXX 21064 41863 02956 00000 10255 20140 30105 40148 333 59006 70000==
41863,2024,12,21,09,00,AAXX 21094 41863 02557 20000 10280 20120 30077 40120 82400 333 58008 70000 82620==
41863,2024,12,21,12,00,AAXX 21124 41863 01950 00000 10211 20160 30085 40129 70500 333 10280 58013 70000==
41863,2024,12,21,15,00,AAXX 21154 41863 01940 00000 10174 20160 30106 40151 70500 333 58011 70000==
41863,2024,12,21,18,00,AAXX 21184 41863 01940 00000 10150 20140 30111 40156 70500 333 58014 70000==
41863,2024,12,21,21,00,AAXX 21214 41863 NIL=
41863,2024,12,22,00,00,AAXX 22004 41863 01935 00000 10132 20130 30103 40148 70500 333 58015 70000==
41863,2024,12,22,03,00,AAXX 22034 41863 01940 00000 10180 20160 30131 40176 70500 333 20125 58013 70000==
41863,2024,12,22,06,00,AAXX 22064 41863 01950 00000 10254 20140 30122 40165 70500 333 58017 70000==
41863,2024,12,22,09,00,AAXX 22094 41863 02456 30000 10270 20120 30095 40138 83500 333 58018 70000 83618==
41863,2024,12,22,12,00,AAXX 22124 41863 01950 00000 10200 20160 30096 40140 70500 333 20270 58011 70000==
41863,2024,12,22,15,00,AAXX 22154 41863 01945 00000 10163 20150 30115 40160 70500 333 58009 70000==
41863,2024,12,22,18,00,AAXX 22184 41863 01940 00000 10151 20140 30118 40163 70500 333 58007 70000==
41863,2024,12,22,21,00,AAXX 22214 41863 01915 00000 10144 20130 30113 40158 71040 333 58006 70000==
41863,2024,12,23,00,00,AAXX 23004 41863 01904 00000 10133 20130 30111 40156 74440 333 58008 70000==
41863,2024,12,23,03,00,AAXX 23034 41863 01940 00000 10167 20160 30136 40181 70540 333 20124 58005 70000==
41863,2024,12,23,06,00,AAXX 23064 41863 01957 00000 10245 20150 30126 40169 70040 333 58004 70000==
41863,2024,12,23,09,00,AAXX 23094 41863 02957 00901 10262 20120 30095 40138 333 58000 70000==
41863,2024,12,23,12,00,AAXX 23124 41863 01950 00000 10208 20150 30093 40137 70500 333 10265 59003 70000==
41863,2024,12,23,15,00,AAXX 23154 41863 01940 00000 10157 20140 30107 40152 70500 333 59008 70000==
41863,2024,12,23,18,00,AAXX 23184 41863 01940 00000 10144 20120 30113 40158 70500 333 59005 70000==
41863,2024,12,24,00,00,AAXX 24004 41863 01940 00000 10116 20110 30111 40156 70500 333 58000 70000==
41863,2024,12,24,03,00,AAXX 24034 41863 01950 00502 10189 20140 30130 40174 70500 333 20111 59006 70000==
41863,2024,12,24,06,00,AAXX 24064 41863 01956 00502 10250 20130 30118 40161 70500 333 59008 70000==
41863,2024,12,24,09,00,AAXX 24094 41863 02956 00000 10262 20120 30090 40133 333 59005 70000==
41863,2024,12,24,12,00,AAXX 24124 41863 01950 00000 10200 20150 30090 40134 70500 333 10270 59003 70000==
41863,2024,12,24,15,00,AAXX 24154 41863 01946 00000 10155 20140 30108 40153 70500 333 58001 70000==
41863,2024,12,24,18,00,AAXX 24184 41863 01938 00000 10146 20140 30123 40168 70500 333 58010 70000==
41863,2024,12,25,03,00,AAXX 25034 41863 01950 00000 10182 20140 30149 40194 70540 333 20116 58019 70000==
41863,2024,12,25,06,00,AAXX 25064 41863 02956 00000 10258 20130 30136 40179 333 58018 70000==
41863,2024,12,25,09,00,AAXX 25094 41863 02956 00000 10269 20120 30112 40155 333 58022 70000==
41863,2024,12,25,12,00,AAXX 25124 41863 01950 00000 10210 20150 30109 40153 70500 333 58019 70000==
41863,2024,12,25,18,00,AAXX 25184 41863 01940 00000 10150 20130 30152 40197 70500 333 58029 70000==
41863,2024,12,26,03,00,AAXX 26034 41863 01940 00000 10175 20160 30171 40216 70500 333 20119 58022 70000==
41863,2024,12,26,06,00,AAXX 26064 41863 02457 20502 10255 20130 30161 40204 82500 333 58025 70000 82618==
41863,2024,12,26,09,00,AAXX 26094 41863 02957 00000 10270 20100 30133 40176 333 58021 70000==
41863,2024,12,26,12,00,AAXX 26124 41863 02950 00000 10208 20150 30131 40175 333 10275 58022 70000==
41863,2024,12,26,15,00,AAXX 26154 41863 01950 00000 10160 20140 30149 40194 70500 333 58008 70000==
41863,2024,12,26,18,00,AAXX 26184 41863 01950 00000 10144 20120 30151 40196 70500 333 59001 70000==
41881,2024,12,20,00,00,AAXX 20004 41881 31915 03601 10121 20120 30123 40144 71000 333 59006 70000=
41881,2024,12,20,03,00,AAXX 20034 41881 32950 03601 10160 20140 30134 40155 333 20120 59021 70000=
41881,2024,12,20,06,00,AAXX 20064 41881 32456 33601 10245 20140 30128 40148 83500 333 56900 59010 70000 83620=
41881,2024,12,20,09,00,AAXX 20094 41881 32456 30000 10262 20120 30094 40114 83520 333 56900 59014 70000 83620=
41881,2024,12,20,12,00,AAXX 20124 41881 32950 01801 10206 20160 30095 40116 333 10270 59008 70000=
41881,2024,12,20,15,00,AAXX 20154 41881 32950 01801 10158 20150 30117 40138 333 59009 70000=
41881,2024,12,20,18,00,AAXX 20184 41881 32950 00000 10144 20130 30121 40142 333 59005 70000=
41881,2024,12,21,00,00,AAXX 21004 41881 32935 03401 10122 20120 30114 40135 70500 333 59009 70000=
41881,2024,12,21,03,00,AAXX 21034 41881 32950 02801 10171 20157 30136 40157 333 20120 58002 70000=
41881,2024,12,21,06,00,AAXX 21064 41881 32457 20902 10260 20120 30122 40142 82500 333 56900 59006 70000 82620=
41881,2024,12,21,09,00,AAXX 21094 41881 32958 00000 10265 20130 30102 40122 333 58008 70000=
41881,2024,12,21,12,00,AAXX 21124 41881 32456 40000 10195 20150 30111 40131 84500 333 10272 56900 58016 70000 84620=
41881,2024,12,21,15,00,AAXX 21154 41881 32950 00000 10165 20150 30128 40149 333 58011 70000=
41881,2024,12,21,18,00,AAXX 21184 41881 NIL=
41881,2024,12,21,21,00,AAXX 21214 41881 32950 00201 10140 20130 30130 40151 333 58013 70000=
41881,2024,12,22,00,00,AAXX 22004 41881 31940 00501 10134 20130 30127 40148 70500 333 58013 70000=
41881,2024,12,22,03,00,AAXX 22034 41881 31930 01001 10158 20150 30152 40173 70500 333 20126 58016 70000=
41881,2024,12,22,06,00,AAXX 22064 41881 32950 00000 10235 20170 30142 40162 333 58020 70000=
41881,2024,12,22,09,00,AAXX 22094 41881 NIL=
41881,2024,12,22,12,00,AAXX 22124 41881 32950 00000 10190 20170 30120 40140 333 10264 58009 70000=
41881,2024,12,22,15,00,AAXX 22154 41881 32950 00000 10160 20150 30136 40157 333 58008 70000=
41881,2024,12,22,18,00,AAXX 22184 41881 32950 00000 10148 20140 30141 40162 333 58009 70000=
41881,2024,12,22,21,00,AAXX 22214 41881 31906 03601 10132 10130 30137 40158 74240 333 58007 70000=
41881,2024,12,23,00,00,AAXX 23004 41881 31902 03601 10120 20120 30133 40154 74644 333 58006 70000=
41881,2024,12,23,03,00,AAXX 23034 41881 31920 00000 10163 20160 30155 40176 71044 333 20118 58003 70000=
41881,2024,12,23,06,00,AAXX 23064 41881 31956 03603 10244 20120 30138 40159 70040 333 59004 70000=
41881,2024,12,23,09,00,AAXX 23094 41881 32956 00303 10256 20120 30113 40134 333 59002 70000=
41881,2024,12,23,12,00,AAXX 23124 41881 32950 03601 10197 20150 30113 40134 333 10261 59007 70000=
41881,2024,12,23,15,00,AAXX 23154 41881 32950 00000 10150 20140 30129 40150 333 59007 70000=
41881,2024,12,23,18,00,AAXX 23184 41881 32950 00000 10138 20130 30133 40154 333 59008 70000=
41881,2024,12,23,21,00,AAXX 23214 41881 31940 00000 10130 20130 30132 40153 70500 333 59005 70000=
41881,2024,12,24,00,00,AAXX 24004 41881 31920 00000 10122 20120 30130 40152 71000 333 59003 70000=
41881,2024,12,24,03,00,AAXX 24034 41881 32950 00401 10176 20150 30149 40170 333 20120 59006 70000=
41881,2024,12,24,06,00,AAXX 24064 41881 32956 03601 10240 20120 30143 40163 333 58005 70000=
41881,2024,12,24,09,00,AAXX 24094 41881 32957 03601 10257 20130 30116 40136 333 58003 70000=
41881,2024,12,24,12,00,AAXX 24124 41881 32950 00000 10200 20160 30113 40133 333 10263 58000 70000=
41881,2024,12,24,15,00,AAXX 24154 41881 32950 03601 10150 20140 30134 40155 333 58005 70000=
41881,2024,12,24,18,00,AAXX 24184 41881 32950 00000 10136 20130 30138 40159 333 58005 70000=
41881,2024,12,25,03,00,AAXX 25034 41881 32950 03601 10160 20150 30170 40191 333 20118 58021 70000=
41881,2024,12,25,06,00,AAXX 25064 41881 32956 02801 10245 20140 30159 40179 333 58016 70000=
41881,2024,12,25,09,00,AAXX 25094 41881 32957 03601 10262 20110 30144 40165 333 58028 70000=
41881,2024,12,25,12,00,AAXX 25124 41881 32950 01801 10210 20170 30133 40154 333 10268 58020 70000=
41881,2024,12,25,18,00,AAXX 25184 41881 32950 00000 10148 20140 30170 40191 333 58032 70000=
41881,2024,12,26,03,00,AAXX 26034 41881 32950 03601 10155 20150 30187 40208 333 20122 58017 70000=
41881,2024,12,26,06,00,AAXX 26064 41881 32956 03602 10246 20120 30187 40207 333 58028 70000=
41881,2024,12,26,09,00,AAXX 26094 41881 32956 00502 10266 20130 30154 40174 333 58010 70000=
41881,2024,12,26,12,00,AAXX 26124 41881 32950 03601 10204 20150 30152 40173 333 10271 58019 70000=
41881,2024,12,26,15,00,AAXX 26154 41881 32950 03601 10153 20140 30171 40192 333 58008 70000=
41881,2024,12,26,18,00,AAXX 26184 41881 32950 00000 10141 20130 30177 40198 333 58007 70000=
41883,2024,12,20,00,00,AAXX 20004 41883 02930 00000 10150 20140 30110 40131 333 59017 70000==
41883,2024,12,20,03,00,AAXX 20034 41883 02450 60000 10184 20150 30136 40157 82520 333 20144 59013 70000 82618 86458==
41883,2024,12,20,06,00,AAXX 20064 41883 02450 82702 10258 20150 30126 40147 8352/ 333 59007 70000 83618 88458==
41883,2024,12,20,09,00,AAXX 20094 41883 02450 50000 10268 20130 30093 40113 82520 333 59010 70000 82618 85458==
41883,2024,12,20,12,00,AAXX 20124 41883 02430 50000 10206 20160 30097 40118 81520 333 10274 59007 70000 81618 85458==
41883,2024,12,20,15,00,AAXX 20154 41883 02930 00000 10181 20150 30114 40135 333 59009 70000==
41883,2024,12,20,18,00,AAXX 20184 41883 02930 00000 10168 20150 30118 40139 333 59005 70000==
41883,2024,12,20,21,00,AAXX 20214 41883 02930 00000 10156 20140 30111 40132 333 59002 70000==
41883,2024,12,21,00,00,AAXX 21004 41883 02930 00000 10146 20130 30112 40133 333 58002 70000==
41883,2024,12,21,03,00,AAXX 21034 41883 02/56 20000 10172 20150 30136 40157 82030 333 20138 58000 70000 82362==
41883,2024,12,21,06,00,AAXX 21064 41883 02/56 20000 10267 20130 30120 40140 82030 333 70000 82362==
41883,2024,12,21,09,00,AAXX 21094 41883 02/50 30502 10268 20140 30103 40123 83030 333 58010 70000 83362==
41883,2024,12,21,12,00,AAXX 21124 41883 01930 00000 10224 20150 30112 40133 70521 333 10275 58015 70000==
41883,2024,12,21,15,00,AAXX 21154 41883 02930 00000 10192 20150 30127 40148 333 58013 70000==
41883,2024,12,21,18,00,AAXX 21184 41883 02930 00000 10181 20150 30135 40156 333 58017 70000==
41883,2024,12,21,21,00,AAXX 21214 41883 02930 00000 10168 20150 30129 40150 333 58018 70000==
41883,2024,12,21,23,00,AAXX 21234 41883 02930 00000 10168 20150 30129 40150 333 58018 70000==
41883,2024,12,22,00,00,AAXX 22004 41883 02930 00000 10157 20140 30129 40150 333 58017 70000==
41883,2024,12,22,03,00,AAXX 22034 41883 01950 00000 10176 20160 30153 40174 70500 333 20145 58017 70000==
41883,2024,12,22,06,00,AAXX 22063 41883 02950 01301 10238 20150 30143 40164 333 58023 70000==
41883,2024,12,22,09,00,AAXX 22094 41883 02956 00000 10266 20140 30116 40136 333 58013 70000==
41883,2024,12,22,12,00,AAXX 22124 41883 01930 00000 10206 20170 30120 40141 70500 333 10275 58008 70000==
41883,2024,12,22,15,00,AAXX 22154 41883 01930 00000 10183 20160 30134 40155 70500 333 58007 70000==
41883,2024,12,22,18,00,AAXX 22183 41883 01930 00000 10172 20150 30136 40157 70500 333 58001 70000==
41883,2024,12,22,21,00,AAXX 22214 41883 01930 00000 10162 20150 30128 40149 70500 333 59001 70000==
41883,2024,12,23,00,00,AAXX 23004 41883 01930 00000 10153 20140 30126 40147 70500 333 59003 70000==
41883,2024,12,23,03,00,AAXX 23033 41883 01950 00000 10180 20150 30148 40169 70500 333 20142 59005 70000==
41883,2024,12,23,06,00,AAXX 23064 41883 02956 00000 10254 20140 30141 40162 333 59002 70000==
41883,2024,12,23,09,00,AAXX 23094 41883 02956 00000 10274 20130 30112 40133 333 59004 70000==
41883,2024,12,23,12,00,AAXX 23124 41883 02930 00000 10208 20150 30112 40133 333 10274 59008 70000==
41883,2024,12,23,15,00,AAXX 23154 41883 02930 00000 10180 20160 30128 40149 333 59006 70000==
41883,2024,12,23,18,00,AAXX 23184 41883 01930 00000 10166 20150 30132 40153 70500 333 59004 70000==
41883,2024,12,23,21,00,AAXX 23214 41883 01930 00000 10150 20140 30127 40148 70500 333 59001 70000==
41883,2024,12,24,00,00,AAXX 24004 41883 01930 00000 10140 20130 30129 40151 70500 333 58003 70000==
41883,2024,12,24,03,00,AAXX 24034 41883 02950 00000 10180 20140 30144 40165 333 20134 59004 70000==
41883,2024,12,24,06,00,AAXX 24064 41883 02960 00000 10244 20140 30136 40157 333 59005 70000==
41883,2024,12,24,09,00,AAXX 24094 41883 02956 00000 10270 20100 30109 40129 333 59003 70000==
41883,2024,12,24,12,00,AAXX 24124 41883 02930 00000 10195 20130 30111 40132 333 10275 59001 70000==
41883,2024,12,24,15,00,AAXX 24154 41883 02930 00000 10170 20150 30133 40154 333 58005 70000==
41883,2024,12,24,18,00,AAXX 24184 41883 02930 00000 10160 20140 30141 40162 333 58009 70000==
41883,2024,12,25,03,00,AAXX 25034 41883 02950 00000 10180 20150 30162 40183 333 20135 58018 70000==
41883,2024,12,25,06,00,AAXX 25064 41883 02950 00000 10264 20120 30169 40190 333 58033 70000==
41883,2024,12,25,09,00,AAXX 25094 41883 02956 00000 10274 20120 30131 40151 333 58022 70000==
41883,2024,12,25,12,00,AAXX 25124 41883 02930 00000 10203 20140 30134 40155 333 10276 58023 70000==
41883,2024,12,25,18,00,AAXX 25184 41883 02930 00000 10167 20150 30173 40194 333 58032 70000==
41883,2024,12,26,03,00,AAXX 26034 41883 02956 00000 10194 20160 30190 40211 333 20145 58028 70000==
41883,2024,12,26,06,00,AAXX 26063 41883 02956 02701 10267 20130 30181 40202 333 58012 70000==
41883,2024,12,26,09,00,AAXX 26094 41883 02950 02702 10280 20120 30151 40171 333 58020 70000==
41883,2024,12,26,12,00,AAXX 26124 41883 02930 00000 10210 20150 30152 40173 333 10280 58018 70000==
41883,2024,12,26,15,00,AAXX 26154 41883 02930 00000 10184 20150 30168 40189 333 58005 70000==
41883,2024,12,26,18,00,AAXX 26184 41883 02930 00000 10166 20140 30177 40198 333 58004 70000==
41886,2024,12,20,00,00,AAXX 20004 41886 01901 00000 10111 20110 30111 40133 74444 333 59016 70000==
41886,2024,12,20,03,00,AAXX 20034 41886 01/15 60000 10155 20150 30139 40161 71042 86030 333 20108 59013 70000 86363==
41886,2024,12,20,06,00,AAXX 20064 41886 01/40 40000 10235 20150 30126 40147 70542 84030 333 59010 70000 84365==
41886,2024,12,20,09,00,AAXX 20094 41886 01/50 40000 10259 20150 30096 40117 70522 84030 333 59011 70000 84365==
41886,2024,12,20,12,00,AAXX 20124 41886 01/40 30000 10200 20180 30100 40121 70521 83040 333 10262 59007 70000 83365==
41886,2024,12,20,15,00,AAXX 20154 41886 01/30 20000 10182 20170 30119 40140 70511 82030 333 59006 70000 82365==
41886,2024,12,20,18,00,AAXX 20184 41886 01/30 20000 10163 20150 30121 40142 70511 82040 333 59004 70000 82365==
41886,2024,12,21,00,00,AAXX 21004 41886 01403 60000 10150 20150 30121 40142 74222 82510 333 58010 70000 82618 85462==
41886,2024,12,21,03,00,AAXX 21034 41886 01430 83601 10182 20160 30143 40164 70542 8352/ 333 20148 58004 70000 83617 88460==
41886,2024,12,21,06,00,AAXX 21064 41886 01440 50000 10218 20170 30125 40146 70542 82510 333 59001 70000 82618 84462==
41886,2024,12,21,09,00,AAXX 21094 41886 01450 40000 10250 20150 30112 40133 70522 82510 333 58016 70000 82618 83462==
41886,2024,12,21,12,00,AAXX 21124 41886 01950 00000 10200 20170 30118 40139 70520 333 10255 58018 70000==
41886,2024,12,21,15,00,AAXX 21154 41886 01940 00000 10167 20160 30138 40160 70500 333 58019 70000==
41886,2024,12,21,18,00,AAXX 21184 41886 01920 00000 10154 20140 30142 40164 71040 333 58021 70000==
41886,2024,12,21,21,00,AAXX 21214 41886 31906 00000 10154 20140 30139 40161 74244 333 58025 70000=
41886,2024,12,21,23,00,AAXX 21234 41886 01906 00000 10154 20140 30139 40161 74244 333 58025 70000==
41886,2024,12,22,00,00,AAXX 22004 41886 01903 03102 10153 20153 30140 40162 74444 333 58017 70000==
41886,2024,12,22,03,00,AAXX 22034 41886 01901 00000 10165 20165 30160 40182 74544 89/// 333 20147 58017 70000==
41886,2024,12,22,06,00,AAXX 22064 41886 01940 01202 10204 20180 30147 40168 70544 333 58022 70000==
41886,2024,12,22,09,00,AAXX 22094 41886 01950 01501 10250 20150 30118 40139 70500 333 58006 70000==
41886,2024,12,22,12,00,AAXX 22124 41886 01950 01401 10196 20180 30122 40143 70500 333 10260 58004 70000==
41886,2024,12,22,15,00,AAXX 22154 41886 01950 03203 10180 20160 30134 40156 70500 333 59004 70000==
41886,2024,12,22,18,00,AAXX 22184 41886 01950 03102 10160 20150 30134 40156 70500 333 59008 70000==
41886,2024,12,22,21,00,AAXX 22214 41886 01940 00000 10150 20150 30132 40154 70544 333 59007 70000==
41886,2024,12,23,00,00,AAXX 23004 41886 01902 00000 10115 20115 30134 40156 74444 333 59004 70000==
41886,2024,12,23,03,00,AAXX 23034 41886 01940 01502 10186 20170 30153 40174 70544 333 20112 59007 70000==
41886,2024,12,23,06,00,AAXX 23064 41886 01950 01402 10244 20140 30140 40161 70540 333 59007 70000==
41886,2024,12,23,09,00,AAXX 23094 41886 02957 01503 10268 20120 30114 40135 333 59004 70000==
41886,2024,12,23,12,00,AAXX 23124 41886 01940 01601 10210 20150 30113 40134 70540 333 10272 59009 70000==
41886,2024,12,23,15,00,AAXX 23154 41886 01925 00000 10160 20160 30127 40149 71044 333 59007 70000==
41886,2024,12,24,00,00,AAXX 24004 41886 01906 00000 10122 20120 30131 40153 74444 333 59003 70000==
41886,2024,12,24,03,00,AAXX 24034 41886 01925 00901 10170 20150 30149 40171 71044 333 20115 59004 70000==
41886,2024,12,24,06,00,AAXX 24064 41886 01950 00904 10246 20140 30138 40159 70544 333 59002 70000==
41886,2024,12,24,09,00,AAXX 24094 41886 02957 02502 10270 20100 30111 40132 333 59003 70000==
41886,2024,12,24,12,00,AAXX 24124 41886 01950 00000 10200 20150 30111 40132 70500 333 10276 59002 70000==
41886,2024,12,24,15,00,AAXX 24154 41886 01940 03102 10156 20150 30130 40152 70500 333 58003 70000==
41886,2024,12,24,18,00,AAXX 24184 41886 01940 00000 10140 20130 30140 40162 70500 333 58015 70000==
41886,2024,12,25,03,00,AAXX 25034 41886 01/40 20000 10175 20150 30164 40186 70541 82030 333 20120 58015 70000 82365==
41886,2024,12,25,06,00,AAXX 25064 41886 01950 00902 10250 20140 30159 40180 70541 333 58021 70000==
41886,2024,12,25,09,00,AAXX 25094 41886 02956 00000 10270 20130 30132 40153 333 58021 70000==
41886,2024,12,25,12,00,AAXX 25124 41886 01950 00000 10204 20160 30137 40158 70500 333 10276 58026 70000==
41886,2024,12,25,18,00,AAXX 25184 41886 NIL=
41886,2024,12,26,03,00,AAXX 26034 41886 01925 00000 10176 20160 30192 40214 71044 333 20124 58028 70000==
41886,2024,12,26,06,00,AAXX 26064 41886 01950 00000 10250 20160 30181 40202 70540 333 58022 70000==
41886,2024,12,26,09,00,AAXX 26094 41886 01950 02702 10271 20130 30150 40171 70500 333 58018 70000==
41886,2024,12,26,12,00,AAXX 26124 41886 01940 00000 10218 20160 30150 40171 70500 333 10274 58013 70000==
41886,2024,12,26,15,00,AAXX 26154 41886 01930 00000 10178 20168 30170 40191 70500 333 58006 70000==
41886,2024,12,26,18,00,AAXX 26184 41886 01930 00000 10164 20150 30170 40191 70500 333 58002 70000==
41888,2024,12,20,00,00,AAXX 20004 41888 31/01 90000 10116 20116 30123 40134 74544 89/// 333 56999 59014 70000=
41888,2024,12,20,03,00,AAXX 20034 41888 31909 63001 10160 20160 30146 40157 74044 86030 333 20116 56090 59014 70000 86365=
41888,2024,12,20,06,00,AAXX 20064 41888 31950 52101 10232 20120 30132 40142 70542 83031 333 56099 59006 70000 83365 85080=
41888,2024,12,20,09,00,AAXX 20094 41888 32956 42601 10255 20130 30100 40110 83031 333 56099 59010 70000 83365 85080=
41888,2024,12,20,12,00,AAXX 20124 41888 31940 02201 10190 20160 30107 40117 70521 333 10263 59007 70000=
41888,2024,12,20,15,00,AAXX 20154 41888 31915 00000 10160 20160 30128 40139 71000 333 59006 70000=
41888,2024,12,21,00,00,AAXX 21004 41888 31408 52701 10150 20150 30122 40133 74244 83540 333 56990 59001 70000 83618 84460=
41888,2024,12,21,03,00,AAXX 21034 41888 31430 52801 10180 20160 30150 40160 70542 83570 333 20150 56990 58004 70000 83618 84460=
41888,2024,12,21,06,00,AAXX 21064 41888 31450 51801 10220 20160 30128 40138 70542 83570 333 56990 59004 70000 83618 84460=
41888,2024,12,21,09,00,AAXX 21094 41888 32956 42202 10245 20150 30120 40130 83031 333 56099 58020 70000 83365 85080=
41888,2024,12,21,12,00,AAXX 21124 41888 31440 31801 10180 20160 30128 40138 70500 81530 333 10255 56990 58021 70000 82610 82365=
41888,2024,12,21,15,00,AAXX 21154 41888 31920 01801 10168 20160 30147 40158 71040 333 58019 70000=
41888,2024,12,21,18,00,AAXX 21184 41888 NIL=
41888,2024,12,21,21,00,AAXX 21214 41888 31906 00000 10140 20140 30144 40155 74244 333 58018 70000=
41888,2024,12,22,00,00,AAXX 22004 41888 31908 00000 10136 20136 30143 40154 74244 333 58021 70000=
41888,2024,12,22,03,00,AAXX 22034 41888 31908 00501 10167 20167 30168 40178 74244 333 20135 58018 70000=
41888,2024,12,22,06,00,AAXX 22064 41888 31950 02701 10230 20170 30149 40159 70540 333 58021 70000=
41888,2024,12,22,09,00,AAXX 22094 41888 32956 02702 10250 20150 30122 40132 333 58002 70000=
41888,2024,12,22,12,00,AAXX 22124 41888 31950 02702 10210 20170 30127 40137 70500 333 10260 59001 70000=
41888,2024,12,22,15,00,AAXX 22154 41888 31940 02701 10166 20160 30141 40151 71040 333 59006 70000=
41888,2024,12,22,18,00,AAXX 22184 41888 31908 02701 10150 20150 30138 40148 74244 333 59004 70000=
41888,2024,12,22,21,00,AAXX 22214 41888 31904 00000 10130 20130 30148 40148 74444 333 59007 70000=
41888,2024,12,23,00,00,AAXX 23004 41888 31903 02701 10121 20121 30135 40146 74444 333 59008 70000=
41888,2024,12,23,03,00,AAXX 23034 41888 31940 00701 10195 20150 30159 40169 70544 333 20150 59009 70000=
41888,2024,12,23,06,00,AAXX 23064 41888 31956 00901 10245 20140 30142 40152 70040 333 59007 70000=
41888,2024,12,23,09,00,AAXX 23094 41888 32957 00901 10260 20120 30116 40126 333 59006 70000=
41888,2024,12,23,12,00,AAXX 23124 41888 31950 00000 10208 20150 30115 40129 70500 333 10270 59008 70000=
41888,2024,12,23,15,00,AAXX 23154 41888 31930 00801 10160 20150 30133 40143 71040 333 59008 70000=
41888,2024,12,23,21,00,AAXX 23214 41888 31905 00000 10130 20130 30137 40147 74244 333 58000 70000=
41888,2024,12,24,00,00,AAXX 24004 41888 31903 00000 10120 20120 30136 40146 74444 333 58001 70000=
41888,2024,12,24,03,00,AAXX 24034 41888 31930 00901 10190 20150 30157 40167 71044 333 20120 59002 70000=
41888,2024,12,24,06,00,AAXX 24064 41888 31950 00000 10245 20130 30141 40151 70544 333 59009 70000=
41888,2024,12,24,09,00,AAXX 24094 41888 32956 02701 10270 20120 30114 40124 333 59002 70000=
41888,2024,12,24,12,00,AAXX 24124 41888 31940 00000 10202 20150 30117 40127 70500 333 10275 59002 70000=
41888,2024,12,24,15,00,AAXX 24154 41888 31930 00000 10164 20160 30137 40147 71040 333 58004 70000=
41888,2024,12,24,18,00,AAXX 24184 41888 31905 00000 10145 20145 30144 40154 74140 333 58006 70000=
41888,2024,12,25,03,00,AAXX 25034 41888 31920 20901 10180 20150 30173 40183 71044 82030 333 20130 56900 58016 70000 82365=
41888,2024,12,25,06,00,AAXX 25064 41888 31950 10901 10241 20120 30162 40172 70140 81030 333 56090 58021 70000 81365=
41888,2024,12,25,09,00,AAXX 25094 41888 32956 00000 10265 20100 30137 40147 333 58023 70000=
41888,2024,12,25,12,00,AAXX 25124 41888 31950 00000 10200 20160 30144 40154 70500 333 10280 58027 70000=
41888,2024,12,25,18,00,AAXX 25184 41888 31908 00000 10154 20140 30174 40184 74144 333 58030 70000=
41888,2024,12,26,03,00,AAXX 26034 41888 31940 00901 10192 20140 30199 40209 70544 333 20130 58026 70000=
41888,2024,12,26,06,00,AAXX 26064 41888 31950 00000 10250 20130 30182 40192 70040 333 58020=
41888,2024,12,26,09,00,AAXX 26094 41888 32956 02702 10270 20130 30155 40165 333 58018 70000=
41888,2024,12,26,12,00,AAXX 26124 41888 31950 00000 10214 20150 30152 40162 70500 333 10285 58008 70000=
41888,2024,12,26,15,00,AAXX 26154 41888 31930 03102 10170 20160 30174 40184 71040 333 58003 70000=
41888,2024,12,26,18,00,AAXX 26184 41888 31920 03101 10154 20150 30172 40182 71040 333 59002 70000=
41891,2024,12,20,00,00,AAXX 20004 41891 01430 20000 10150 20140 30091 40132 70510 82500 333 59015 70000 82616==
41891,2024,12,20,03,00,AAXX 20034 41891 01440 70000 10197 20170 30112 40152 70522 83502 333 20145 59018 70000 83616 87074==
41891,2024,12,20,06,00,AAXX 20064 41891 01450 61502 10240 20170 30096 40135 70522 82502 333 59010 70000 82616 85074==
41891,2024,12,20,09,00,AAXX 20094 41891 01440 61802 10256 20180 30068 40107 70522 83340 333 59010 70000 83615 85365 81930==
41891,2024,12,20,12,00,AAXX 20124 41891 01430 62702 10212 20160 30078 40117 70522 83340 333 10269 59008 70000 83615 85365 81930==
41891,2024,12,20,15,00,AAXX 20154 41891 01930 02702 10184 20170 30096 40136 70520 333 59004 70000==
41891,2024,12,20,18,00,AAXX 20184 41891 01930 00000 10171 20160 30098 40138 70500 333 58000 70000==
41891,2024,12,20,21,00,AAXX 20214 41891 01930 00000 10169 20160 30097 40137 70500 333 58004 70000==
41891,2024,12,21,00,00,AAXX 21004 41891 01330 80000 10166 20160 30090 40130 70520 8562/ 333 59001 70000 82708 84615 88458==
41891,2024,12,21,03,00,AAXX 21034 41891 01330 80000 10174 20150 30117 40157 70522 8562/ 333 20159 58005 70000 82708 84615 88457==
41891,2024,12,21,06,00,AAXX 21064 41891 01330 80000 10204 20150 30100 40140 70522 8562/ 333 58004 70000 82708 84615 88457==
41891,2024,12,21,09,00,AAXX 21094 41891 01440 62102 10225 20180 30090 40129 70522 84330 333 58022 70000 83616 85365 81930==
41891,2024,12,21,12,00,AAXX 21124 41891 01430 60000 10203 20180 30101 40141 70522 84330 333 10230 58023 70000 83616 85365 81930==
41891,2024,12,21,15,00,AAXX 21154 41891 01430 60902 10178 20170 30120 40160 70522 83340 333 58024 70000 83615 85365 81930==
41891,2024,12,21,18,00,AAXX 21184 41891 01415 60602 10170 20160 30118 40158 70522 83340 333 58020 70000 83615 85365 81930==
41891,2024,12,21,21,00,AAXX 21214 41891 01420 60902 10154 20140 30110 40151 71022 83340 333 58013 70000 83615 85365 81930==
41891,2024,12,22,00,00,AAXX 22004 41891 01425 31202 10145 20140 30112 40152 71022 81530 333 58022 70000 81615 83365==
41891,2024,12,22,03,00,AAXX 22034 41891 01935 00000 10198 20140 30134 40174 70520 333 20140 58017 70000==
41891,2024,12,22,06,00,AAXX 22063 41891 01950 02002 10245 20150 30116 40155 70500 333 58016 70000==
41891,2024,12,22,09,00,AAXX 22094 41891 01950 02002 10268 20120 30088 40127 70500 333 59002 70000==
41891,2024,12,22,12,00,AAXX 22124 41891 01930 00000 10215 20170 30095 40134 70500 333 10270 59006 70000==
41891,2024,12,22,15,00,AAXX 22154 41891 01930 00000 10180 20150 30113 40153 70500 333 59007 70000==
41891,2024,12,22,18,00,AAXX 22183 41891 01930 00000 10163 20150 30109 40149 70500 333 59009 70000==
41891,2024,12,22,21,00,AAXX 22214 41891 01930 00000 10157 20140 30105 40145 70500 333 59005 70000==
41891,2024,12,23,00,00,AAXX 23004 41891 01930 00902 10153 20130 30104 40145 70500 333 59008 70000==
41891,2024,12,23,03,00,AAXX 23034 41891 01950 01202 10197 20140 30126 40166 70500 333 20145 59008 70000==
41891,2024,12,23,06,00,AAXX 23064 41891 01950 01502 10255 20130 30111 40150 70500 333 59005 70000==
41891,2024,12,23,09,00,AAXX 23094 41891 01950 00000 10260 20110 30086 40125 70500 333 59002 70000==
41891,2024,12,23,12,00,AAXX 23124 41891 01935 01302 10210 20150 30091 40130 70500 333 10272 59004 70000==
41891,2024,12,23,15,00,AAXX 23154 41891 01930 00000 10174 20140 30102 40142 70500 333 59011 70000==
41891,2024,12,23,18,00,AAXX 23184 41891 01930 00000 10155 20140 30101 40141 70500 333 59008 70000==
41891,2024,12,24,00,00,AAXX 24004 41891 01930 00000 10150 20130 30103 40144 70500 333 59001 70000==
41891,2024,12,24,03,00,AAXX 24034 41891 01945 00902 10197 20120 30128 40168 70500 333 20141 58002 70000==
41891,2024,12,24,06,00,AAXX 24064 41891 01950 00903 10247 20130 30112 40151 70500 333 58001 70000==
41891,2024,12,24,09,00,AAXX 24094 41891 01950 01004 10262 20100 30080 40119 70500 333 59006 70000==
41891,2024,12,24,12,00,AAXX 24124 41891 01930 00000 10205 20150 30086 40125 70500 333 10270 59005 70000==
41891,2024,12,24,15,00,AAXX 24154 41891 01930 00000 10185 20150 30107 40146 70500 333 58005 70000==
41891,2024,12,24,18,00,AAXX 24184 41891 01930 00000 10162 20140 30114 40154 70500 333 58013 70000==
41891,2024,12,25,03,00,AAXX 25034 41891 01440 60000 10190 20120 30142 40182 70520 82530 333 20135 58039 70000 82615 85365==
41891,2024,12,25,06,00,AAXX 25064 41891 01440 50000 10252 20130 30129 40168 70522 82530 333 58017 70000 82616 85365==
41891,2024,12,25,09,00,AAXX 25094 41891 01950 02704 10260 20130 30107 40146 70521 333 58027 70000==
41891,2024,12,25,12,00,AAXX 25124 41891 01930 00000 10210 20150 30117 40156 70521 333 10288 59031 70000==
41891,2024,12,25,18,00,AAXX 25184 41891 01930 00000 10170 20140 30146 40186 70500 333 58032 70000==
41891,2024,12,26,03,00,AAXX 26034 41891 01950 00902 10202 20140 30160 40200 70500 333 20142 58018 70000==
41891,2024,12,26,06,00,AAXX 26063 41891 01950 01201 10260 20160 30152 40191 70500 333 58023 70000==
41891,2024,12,26,09,00,AAXX 26094 41891 01950 03002 10275 20160 30122 40160 70500 333 58015 70000==
41891,2024,12,26,12,00,AAXX 26124 41891 01930 02902 10220 20160 30128 40167 70500 333 10280 58011 70000==
41891,2024,12,26,15,00,AAXX 26154 41891 01930 00000 10185 20160 30144 40184 70500 333 58004 70000==
41891,2024,12,26,18,00,AAXX 26184 41891 01930 00000 10170 20150 30144 40184 70500 333 59002 70000==
41895,2024,12,20,00,00,AAXX 20004 41895 01950 00000 10135 20120 30114 40136 70500 333 59019 70000==
41895,2024,12,20,03,00,AAXX 20034 41895 01/50 53101 10172 20140 30140 40163 70520 82032 333 20130 59015 70000 82362 85074==
41895,2024,12,20,06,00,AAXX 20064 41895 01950 53602 10238 20140 30127 40150 70522 80002 333 59010 70000 85074==
41895,2024,12,20,09,00,AAXX 20094 41895 02956 53601 10254 20120 30097 40119 80002 333 59009 70000 85074==
41895,2024,12,20,12,00,AAXX 20124 41895 02450 30000 10195 20170 30101 40124 83500 333 10264 59007 70000 83618==
41895,2024,12,20,15,00,AAXX 20154 41895 01950 00000 10155 20130 30116 40139 70500 333 59009 70000==
41895,2024,12,20,18,00,AAXX 20184 41895 01450 50000 10152 20140 30108 40131 70522 83520 333 59016 70000 83616 85458==
41895,2024,12,21,00,00,AAXX 21004 41895 01450 30000 10140 20130 30111 40134 70511 83500 333 59003 70000 83618==
41895,2024,12,21,03,00,AAXX 21034 41895 01/35 40000 10159 20150 30135 40158 70511 84030 333 20135 59005 70000 84362==
41895,2024,12,21,06,00,AAXX 21064 41895 01/56 20902 10245 20160 30128 40150 70511 82030 333 58001 70000 82362==
41895,2024,12,21,09,00,AAXX 21094 41895 01956 02302 10264 20150 30107 40129 70500 333 58010 70000==
41895,2024,12,21,12,00,AAXX 21124 41895 01950 00000 10195 20170 30114 40136 70500 333 10272 58013 70000==
41895,2024,12,21,15,00,AAXX 21154 41895 01950 00000 10168 20160 30131 40153 70500 333 58015 70000==
41895,2024,12,21,18,00,AAXX 21184 41895 01950 00000 10155 20150 30135 40157 70500 333 58027 70000==
41895,2024,12,21,21,00,AAXX 21214 41895 31950 00000 10145 20140 30130 40152 70500 333 58020 70000=
41895,2024,12,21,23,00,AAXX 21234 41895 01950 00000 10145 20140 30130 40152 70500 333 58020 70000==
41895,2024,12,22,00,00,AAXX 22004 41895 01950 00000 10132 20130 30126 40148 70500 333 58015 70000==
41895,2024,12,22,03,00,AAXX 22034 41895 01905 00000 10159 20159 30154 40177 74544 89/// 333 20126 58019 70000==
41895,2024,12,22,06,00,AAXX 22064 41895 01940 01101 10224 20180 30142 40165 70544 333 58014 70000==
41895,2024,12,22,09,00,AAXX 22094 41895 01940 00000 10250 20150 30118 40140 70500 333 58011 70000==
41895,2024,12,22,12,00,AAXX 22124 41895 01940 00000 10198 20180 30120 40142 70500 333 10268 58006 70000==
41895,2024,12,22,15,00,AAXX 22154 41895 01940 00000 10165 20160 30135 40157 70500 333 58004 70000==
41895,2024,12,22,18,00,AAXX 22184 41895 01940 00000 10155 20150 30134 40156 70500 333 59001 70000==
41895,2024,12,22,21,00,AAXX 22214 41895 01905 00000 10145 20150 30129 40151 74544 89/// 333 59001 70000==
41895,2024,12,23,00,00,AAXX 23004 41895 01905 00000 10131 20130 30129 40151 74544 89/// 333 58003 70000==
41895,2024,12,23,03,00,AAXX 23034 41895 01915 03601 10168 20168 30155 40178 71044 333 20124 58001 70000==
41895,2024,12,23,06,00,AAXX 23064 41895 01950 02702 10243 20170 30143 40166 70540 333 58001 70000==
41895,2024,12,23,09,00,AAXX 23094 41895 02957 03602 10255 20130 30115 40137 333 59003 70000==
41895,2024,12,23,12,00,AAXX 23124 41895 02950 00000 10203 20140 30114 40137 333 10262 59006 70000==
41895,2024,12,23,15,00,AAXX 23154 41895 01950 00000 10165 20150 30130 40153 70500 333 59005 70000==
41895,2024,12,23,18,00,AAXX 23184 41895 01950 03102 10155 20140 30133 40156 70500 333 59002 70000==
41895,2024,12,24,00,00,AAXX 24004 41895 01950 03102 10134 20120 30129 40153 70500 333 58000 70000==
41895,2024,12,24,03,00,AAXX 24034 41895 01950 03602 10176 20140 30149 40172 70500 333 20120 59006 70000==
41895,2024,12,24,06,00,AAXX 24064 41895 02958 03602 10250 20130 30139 40162 333 59004 70000==
41895,2024,12,24,09,00,AAXX 24094 41895 02958 03102 10256 20130 30109 40132 333 59006 70000==
41895,2024,12,24,12,00,AAXX 24124 41895 02950 00000 10200 20160 30114 40137 333 10264 58000 70000==
41895,2024,12,24,15,00,AAXX 24154 41895 02950 00000 10166 20140 30137 40160 333 58007 70000==
41895,2024,12,24,18,00,AAXX 24184 41895 02950 03601 10165 20150 30139 40162 333 58006 70000==
41895,2024,12,25,03,00,AAXX 25034 41895 01950 00501 10180 20140 30168 40191 70500 333 20125 58019 70000==
41895,2024,12,25,06,00,AAXX 25064 41895 02958 03602 10240 20140 30159 40181 333 58020 70000==
41895,2024,12,25,09,00,AAXX 25094 41895 02958 00000 10256 20140 30137 40160 333 58028 70000==
41895,2024,12,25,12,00,AAXX 25124 41895 01950 00000 10198 20180 30134 40156 70500 333 10265 58015 70000==
41895,2024,12,25,18,00,AAXX 25184 41895 01950 00000 10150 20140 30168 40190 70500 333 58029 70000==
41895,2024,12,26,03,00,AAXX 26034 41895 01950 00501 10182 20140 30191 40215 70500 333 20135 58023 70000==
41895,2024,12,26,06,00,AAXX 26064 41895 02957 03602 10250 20140 30186 40209 333 58027 70000==
41895,2024,12,26,09,00,AAXX 26094 41895 02958 03601 10260 20130 30153 40176 333 58016 70000==
41895,2024,12,26,12,00,AAXX 26124 41895 02950 00000 10205 20170 30154 40177 333 10267 58020 70000==
41895,2024,12,26,15,00,AAXX 26154 41895 02950 00000 10165 20160 30173 40196 333 58008 70000==
41895,2024,12,26,18,00,AAXX 26184 41895 NIL=
41897,2024,12,20,00,00,AAXX 20004 41897 31930 00000 10135 20130 30121 40134 70500 333 59016 70000=
41897,2024,12,20,03,00,AAXX 20034 41897 31940 03602 10180 20150 30147 40160 70500 333 20135 59013 70000=
41897,2024,12,20,06,00,AAXX 20064 41897 31940 32502 10250 20150 30128 40141 70500 83030 333 56090 59008 70000 83362=
41897,2024,12,20,09,00,AAXX 20094 41897 31940 30000 10260 20130 30100 40114 70500 83030 333 56090 59007 70000 83362=
41897,2024,12,20,12,00,AAXX 20124 41897 31935 01401 10190 20160 30108 40121 70500 333 10265 59005 70000=
41897,2024,12,20,15,00,AAXX 20154 41897 31935 01401 10170 20160 30124 40137 70500 333 59007 70000=
41897,2024,12,21,00,00,AAXX 21004 41897 31430 30000 10150 20140 30123 40136 70500 81530 333 56990 58001 70000 82618 83362=
41897,2024,12,21,03,00,AAXX 21034 41897 31440 53602 10188 20150 30145 40158 70520 82530 333 20150 56990 59002 70000 82618 85362=
41897,2024,12,21,06,00,AAXX 21064 41897 31440 33601 10245 20150 30131 40145 70520 81530 333 56990 58003 70000 81618 83362=
41897,2024,12,21,09,00,AAXX 21094 41897 31940 31801 10245 20150 30114 40128 70500 83030 333 56090 58014 70000 83362=
41897,2024,12,21,12,00,AAXX 21124 41897 31935 01401 10195 20170 30123 40136 70500 333 10265 58015 70000=
41897,2024,12,21,15,00,AAXX 21154 41897 31935 01802 10170 20150 30139 40152 70500 333 58015 70000=
41897,2024,12,21,18,00,AAXX 21184 41897 NIL=
41897,2024,12,21,21,00,AAXX 21214 41897 31920 01401 10150 20140 30133 40146 71040 333 58011 70000=
41897,2024,12,22,00,00,AAXX 22004 41897 31908 00902 10138 20120 30139 40152 74444 333 58016 70000=
41897,2024,12,22,03,00,AAXX 22034 41897 31920 00901 10170 20160 30164 40177 71044 333 20130 58019 70000=
41897,2024,12,22,06,00,AAXX 22064 41897 31940 01401 10240 20140 30146 40160 70500 333 58015 70000=
41897,2024,12,22,09,00,AAXX 22094 41897 31930 00502 10255 20140 30122 40136 70500 333 58008 70000=
41897,2024,12,22,12,00,AAXX 22124 41897 31930 00000 10200 20170 30126 40139 70500 333 10260 58003 70000=
41897,2024,12,22,15,00,AAXX 22154 41897 31930 00000 10170 20160 30140 40153 70500 333 58001 70000=
41897,2024,12,23,00,00,AAXX 23004 41897 31915 00000 10135 20130 30135 40148 70500 333 59004 70000=
41897,2024,12,23,03,00,AAXX 23034 41897 31930 03602 10165 20160 30159 40172 70500 333 20128 59005 70000=
41897,2024,12,23,06,00,AAXX 23064 41897 31940 02602 10250 20140 30144 40157 70500 333 59002 70000=
41897,2024,12,23,09,00,AAXX 23094 41897 31940 02602 10265 20130 30118 40131 70500 333 59004 70000=
41897,2024,12,23,12,00,AAXX 23124 41897 31930 02602 10200 20170 30122 40135 70500 333 10270 59004 70000=
41897,2024,12,23,15,00,AAXX 23154 41897 31930 00000 10165 20160 30130 40143 70500 333 59008 70000=
41897,2024,12,23,21,00,AAXX 23214 41897 31920 00000 10150 20140 30136 40149 70500 333 59005 70000=
41897,2024,12,24,00,00,AAXX 24004 41897 31920 00000 10145 20145 30134 40147 71040 333 59001 70000=
41897,2024,12,24,03,00,AAXX 24034 41897 31930 02602 10175 20160 30154 40167 70500 333 20135 59005 70000=
41897,2024,12,24,06,00,AAXX 24064 41897 31940 02602 10245 20140 30144 40157 70500 333 58000 70000=
41897,2024,12,24,09,00,AAXX 24094 41897 31950 02701 10265 20090 30115 40128 70500 333 59003 70000=
41897,2024,12,24,12,00,AAXX 24124 41897 31945 00000 10210 20130 30119 40132 70500 333 10270 59003 70000=
41897,2024,12,24,15,00,AAXX 24154 41897 31940 00000 10165 20160 30138 40151 70500 333 58006 70000=
41897,2024,12,24,18,00,AAXX 24184 41897 31935 00000 10150 20130 30147 40161 70500 333 58005 70000=
41897,2024,12,25,03,00,AAXX 25034 41897 31925 00000 10172 20140 30176 40189 70500 333 20130 58022 70000=
41897,2024,12,25,06,00,AAXX 25064 41897 31935 00000 10250 20110 30163 40176 70500 333 58019 70000=
41897,2024,12,25,09,00,AAXX 25094 41897 31950 03601 10262 20090 30139 40152 70500 333 58024 70000=
41897,2024,12,25,12,00,AAXX 25124 41897 31945 00000 10210 20150 30139 40152 70500 333 10270 58020 70000=
41897,2024,12,25,18,00,AAXX 25184 41897 NIL=
41897,2024,12,26,03,00,AAXX 26034 41897 31930 03601 10188 20140 30196 40210 70500 333 20138 58020 70000=
41897,2024,12,26,09,00,AAXX 26094 41897 31950 03002 10265 20100 30156 40169 70500 333 58017 70000=
41897,2024,12,26,12,00,AAXX 26124 41897 31945 03601 10215 20170 30157 40170 70500 333 10274 58018 70000=
41897,2024,12,26,15,00,AAXX 26154 41897 31940 01501 10170 20140 30177 40190 70500 333 58008 70000=
41897,2024,12,26,18,00,AAXX 26184 41897 31935 00000 10150 20140 30179 40193 70500 333 58004 70000=
41902,2024,12,20,00,00,AAXX 20004 41902 31410 20000 10135 20135 30121 40130 71044 82500 333 56900 59017 70000 82614=
41902,2024,12,20,03,00,AAXX 20034 41902 31420 33301 10175 20160 30146 40155 71044 83500 333 20133 56900 59012 70000 83614=
41902,2024,12,20,06,00,AAXX 20064 41902 31450 20000 10238 20150 30126 40135 70140 82500 333 56900 59011 70000 82614=
41902,2024,12,20,09,00,AAXX 20094 41902 32450 50000 10248 20140 30098 40107 82530 333 56990 59012 70000 82614 84362=
41902,2024,12,20,12,00,AAXX 20124 41902 31440 40000 10193 20150 30106 40115 70511 82530 333 10260 56990 59010 70000 82614 83362=
41902,2024,12,20,15,00,AAXX 20154 41902 31430 10000 10165 20150 30127 40136 70544 81500 333 56900 59004 70000 81614=
41902,2024,12,20,18,00,AAXX 20184 41902 31420 20000 10151 20140 30124 40133 71044 82500 333 56900 59009 70000 82614=
41902,2024,12,21,00,00,AAXX 21004 41902 31410 40000 10166 20166 30124 40133 71044 82530 333 56990 58003 70000 82614 84362=
41902,2024,12,21,03,00,AAXX 21034 41902 31430 83602 10181 20160 30143 40152 70544 8352/ 333 10151 56999 59003 70000 83640 88459=
41902,2024,12,21,06,00,AAXX 21064 41902 31430 63601 10206 20180 30133 40142 70544 82510 333 56990 59007 70000 82614 86459=
41902,2024,12,21,09,00,AAXX 21094 41902 31430 72701 10224 20170 30121 40130 70544 83510 333 56990 58023 70000 83614 87459=
41902,2024,12,21,12,00,AAXX 21124 41902 31430 70000 10195 20180 30131 40140 70544 83520 333 10224 56990 58025 70000 83614 87459=
41902,2024,12,21,18,00,AAXX 21184 41902 31420 13601 10155 20155 30146 40155 71044 81500 333 56900 58022 70000 81615=
41902,2024,12,21,21,00,AAXX 21214 41902 NIL=
41902,2024,12,22,00,00,AAXX 22004 41902 31/01 93101 10157 20157 30137 40146 74544 89/// 333 56999 58013 70000=
41902,2024,12,22,03,00,AAXX 22034 41902 31/04 93601 10167 20167 30164 40173 74544 89/// 333 20135 56999 58021 70000=
41902,2024,12,22,06,00,AAXX 22064 41902 31940 03601 10218 20160 30148 40157 70544 333 58015 70000=
41902,2024,12,22,09,00,AAXX 22094 41902 31950 03101 10245 20160 30122 40131 70544 333 58001 70000=
41902,2024,12,22,12,00,AAXX 22124 41902 31940 02701 10191 20170 30127 40136 70544 333 10250 59004 70000=
41902,2024,12,22,15,00,AAXX 22154 41902 31930 02701 10170 20160 30142 40151 70544 333 59004 70000=
41902,2024,12,22,18,00,AAXX 22184 41902 31920 02701 10157 20157 30135 40144 71044 333 59011 70000=
41902,2024,12,23,00,00,AAXX 23004 41902 31/01 93101 10118 20118 30134 40143 74544 333 89/// 56999 59003 70000=
41902,2024,12,23,03,00,AAXX 23034 41902 31430 22701 10170 20160 30159 40168 70544 82500 333 20118 56900 59005 70000 82616=
41902,2024,12,23,06,00,AAXX 23064 41902 31950 00502 10250 20150 30146 40155 70144 333 59002 70000=
41902,2024,12,23,09,00,AAXX 23094 41902 32956 03601 10260 20120 30117 40126 333 59005 70000=
41902,2024,12,23,12,00,AAXX 23124 41902 31940 03101 10187 20150 30118 40127 70500 333 10274 59009 70000=
41902,2024,12,23,15,00,AAXX 23154 41902 31930 03101 10160 20150 30133 40142 70544 333 59009 70000=
41902,2024,12,23,21,00,AAXX 23214 41902 31920 02701 10135 20130 30128 40137 71044 333 59007 70000=
41902,2024,12,24,00,00,AAXX 24004 41902 31905 02701 10127 20127 30139 40148 74244 333 58005 70000=
41902,2024,12,24,03,00,AAXX 24034 41902 31930 00501 10180 20160 30156 40165 70544 333 20125 59003 70000=
41902,2024,12,24,06,00,AAXX 24064 41902 31950 00901 10250 20150 30140 40148 70544 333 59006 70000=
41902,2024,12,24,09,00,AAXX 24094 41902 32957 02201 10262 20110 30115 40123 333 59002 70000=
41902,2024,12,24,12,00,AAXX 24124 41902 32950 02201 10190 20140 30119 40128 333 10265 58001 70000=
41902,2024,12,24,15,00,AAXX 24154 41902 32940 00000 10164 20130 30137 40146 333 58004 70000=
41902,2024,12,24,18,00,AAXX 24184 41902 31930 02701 10150 20140 30144 40153 70500 333 58009 70000=
41902,2024,12,24,21,00,AAXX 24214 41902 31920 02201 10145 20140 30146 40155 71044 333 58018 70000=
41902,2024,12,25,03,00,AAXX 25034 41902 31430 60000 10195 20160 30170 40179 70544 82530 333 20135 56990 58014 70000 82616 86362=
41902,2024,12,25,06,00,AAXX 25064 41902 31440 40000 10240 20160 30161 40169 70544 81530 333 56990 58021 70000 81616 84362=
41902,2024,12,25,09,00,AAXX 25094 41902 32950 22201 10265 20120 30140 40148 82030 56090 58025 70000 82362=
41902,2024,12,25,12,00,AAXX 25124 41902 31940 33601 10200 20150 30145 40154 70500 83030 333 10267 56090 58026 70000 83362=
41902,2024,12,25,18,00,AAXX 25184 41902 31940 02701 10160 20150 30173 40183 70544 333 58029 70000=
41902,2024,12,26,03,00,AAXX 26034 41902 31930 03101 10182 20160 30194 40203 70544 333 20137 58024 70000=
41902,2024,12,26,06,00,AAXX 26064 41902 31940 03101 10250 20150 30181 40190 70544 333 58020 70000=
41902,2024,12,26,09,00,AAXX 26094 41902 31950 03601 10265 20160 30155 40164 70544 333 58015 70000=
41902,2024,12,26,12,00,AAXX 26124 41902 31940 02701 10207 20180 30157 40166 70544 333 10270 58012 70000=
41902,2024,12,26,15,00,AAXX 26154 41902 31940 03101 10172 20150 30176 40185 70544 333 58007 70000=
41902,2024,12,26,18,00,AAXX 26184 41902 31940 02701 10170 20150 30175 40184 70544 333 58002 70000=
41907,2024,12,20,00,00,AAXX 20004 41907 01930 00000 10135 20130 30117 40132 70500 333 59010 70000==
41907,2024,12,20,03,00,AAXX 20034 41907 01440 43601 10167 20160 30140 40156 70500 84500 333 20128 59017 70000 84615==
41907,2024,12,20,06,00,AAXX 20064 41907 01440 63601 10240 20120 30131 40147 70510 84510 333 59009 70000 84615 85458==
41907,2024,12,20,09,00,AAXX 20094 41907 01440 33101 10262 20110 30098 40113 70522 83500 333 59008 70000 83615==
41907,2024,12,20,12,00,AAXX 20124 41907 01430 20000 10195 20160 30102 40117 70520 82500 333 10265 59006 70000 82615==
41907,2024,12,20,15,00,AAXX 20154 41907 01930 00000 10155 20150 30118 40134 70500 333 59009 70000==
41907,2024,12,20,18,00,AAXX 20184 41907 01930 00000 10145 20140 30122 40137 70500 333 59004 70000==
41907,2024,12,20,21,00,AAXX 20214 41907 01930 00000 10140 20130 30117 40132 70500 333 59006 70000==
41907,2024,12,21,00,00,AAXX 21004 41907 01430 60000 10150 20140 30112 40127 70500 83530 333 59005 70000 83615 85362==
41907,2024,12,21,03,00,AAXX 21034 41907 01330 80000 10182 20150 30138 40153 70522 8552/ 333 20138 59002 70000 85615 88458==
41907,2024,12,21,06,00,AAXX 21064 41907 01440 60000 10232 20130 30129 40144 70522 84510 333 59002 70000 84615 85458==
41907,2024,12,21,09,00,AAXX 21094 41907 01/40 31802 10255 20170 30112 40127 70522 83030 333 58014 70000 83362==
41907,2024,12,21,12,00,AAXX 21124 41907 01940 00000 10200 20160 30118 40133 70520 333 10262 58016 70000==
41907,2024,12,21,15,00,AAXX 21154 41907 01930 00000 10160 20150 30134 40149 70500 333 58016 70000==
41907,2024,12,21,18,00,AAXX 21184 41907 01930 00000 10142 20130 30139 40155 70500 333 58017 70000==
41907,2024,12,21,21,00,AAXX 21214 41907 01930 00000 10138 20130 30133 40148 70500 333 58016 70000==
41907,2024,12,21,23,00,AAXX 21234 41907 01930 00000 10138 20130 30133 40148 70500 333 58016 70000==
41907,2024,12,22,00,00,AAXX 22004 41907 01903 00000 10135 20135 30131 40147 74200 333 58019 70000==
41907,2024,12,22,03,00,AAXX 22034 41907 01902 00000 10154 20140 30159 40174 74744 89/// 333 20123 58021 70000==
41907,2024,12,22,06,00,AAXX 22063 41907 01915 02701 10210 20170 30145 40160 71044 333 58016 70000==
41907,2024,12,22,09,00,AAXX 22094 41907 01920 00000 10252 20160 30121 40135 71000 333 58009 70000==
41907,2024,12,22,12,00,AAXX 22124 41907 01920 00000 10192 20170 30119 40134 71000 333 10255 58001 70000==
41907,2024,12,22,15,00,AAXX 22154 41907 01920 00000 10167 20160 30137 40153 71000 333 58003 70000==
41907,2024,12,22,18,00,AAXX 22183 41907 01920 00000 10155 20150 30138 40153 71000 333 58016 70000==
41907,2024,12,22,21,00,AAXX 22214 41907 01920 00000 10138 20130 30127 40143 71000 333 58010 70000==
41907,2024,12,23,00,00,AAXX 23004 41907 01920 00000 10128 20110 30134 40149 71000 333 58003 70000==
41907,2024,12,23,03,00,AAXX 23033 41907 01925 00000 10165 20160 30155 40170 70500 333 20125 59004 70000==
41907,2024,12,23,06,00,AAXX 23064 41907 01940 03102 10250 20130 30142 40157 70500 333 59003 70000==
41907,2024,12,23,09,00,AAXX 23094 41907 01940 03102 10258 20120 30115 40130 70500 333 59006 70000==
41907,2024,12,23,12,00,AAXX 23124 41907 01930 00000 10190 20160 30116 40131 70500 333 10262 59003 70000==
41907,2024,12,23,15,00,AAXX 23154 41907 01930 00000 10155 20150 30133 40148 70500 333 59004 70000==
41907,2024,12,23,18,00,AAXX 23184 41907 01930 00000 10150 20140 30136 40151 70500 333 59002 70000==
41907,2024,12,23,21,00,AAXX 23214 41907 01930 00000 10136 20130 30127 40142 70500 333 58000 70000==
41907,2024,12,24,00,00,AAXX 24004 41907 01930 00000 10123 20110 30133 40148 70500 333 59001 70000==
41907,2024,12,24,03,00,AAXX 24034 41907 01930 00000 10163 20150 30154 40169 70500 333 20118 59001 70000==
41907,2024,12,24,06,00,AAXX 24064 41907 01940 03602 10245 20120 30140 40155 70500 333 59002 70000==
41907,2024,12,24,09,00,AAXX 24094 41907 01940 00000 10260 20090 30112 40126 70500 333 59003 70000==
41907,2024,12,24,12,00,AAXX 24124 41907 01930 00000 10200 20150 30116 40131 70500 333 10267 58000 70000==
41907,2024,12,24,15,00,AAXX 24154 41907 01930 00000 10167 20150 30136 40151 70500 333 58003 70000==
41907,2024,12,24,18,00,AAXX 24184 41907 01930 00000 10155 20150 30144 40160 70500 333 58008 70000==
41907,2024,12,25,03,00,AAXX 25034 41907 01935 00000 10160 20150 30169 40185 70500 333 20135 58015 70000==
41907,2024,12,25,06,00,AAXX 25064 41907 01940 03602 10250 20130 30159 40174 70520 333 58009 70000==
41907,2024,12,25,09,00,AAXX 25094 41907 01/50 23102 10260 20100 30139 40154 70500 82030 333 58027 70000 82362==
41907,2024,12,25,12,00,AAXX 25124 41907 01940 00000 10195 20160 30139 40154 70500 333 10268 58023 70000==
41907,2024,12,25,18,00,AAXX 25184 41907 01930 00000 10153 20140 30172 40187 70500 333 58028 70000==
41907,2024,12,26,03,00,AAXX 26034 41907 01935 00000 10165 20150 30193 40208 70500 333 20130 58039 70000==
41907,2024,12,26,06,00,AAXX 26063 41907 01940 02701 10255 20140 30185 40200 70500 333 58026 70000==
41907,2024,12,26,09,00,AAXX 26094 41907 01950 03603 10266 20110 30154 40168 70500 333 58015 70000==
41907,2024,12,26,12,00,AAXX 26124 41907 01940 00000 10195 20160 30155 40170 70500 333 10272 58016 70000==
41907,2024,12,26,15,00,AAXX 26154 41907 01930 00000 10158 20130 30174 40189 70500 333 58014 70000==
41907,2024,12,26,18,00,AAXX 26184 41907 01930 00000 10153 20130 30175 40191 70500 333 58003 70000==
41909,2024,12,20,00,00,AAXX 20004 41909 01940 00000 10134 20120 30118 40130 70500 333 59010 70000==
41909,2024,12,20,03,00,AAXX 20034 41909 01/40 40000 10184 20150 30144 40156 70500 84030 333 20125 59011 70000 83360==
41909,2024,12,20,06,00,AAXX 20064 41909 02956 20000 10234 20130 30134 40146 80001 333 59008 70000 82080==
41909,2024,12,20,09,00,AAXX 20094 41909 02/56 30000 10257 20150 30101 40113 83030 333 59007 70000 83365==
41909,2024,12,20,12,00,AAXX 20124 41909 01940 00000 10200 20160 30105 40117 70500 333 10262 59006 70000==
41909,2024,12,20,15,00,AAXX 20154 41909 01940 00000 10175 20160 30122 40134 70522 333 59005 70000==
41909,2024,12,20,18,00,AAXX 20184 41909 01930 00000 10161 20150 30119 40131 70500 333 59013 70000==
41909,2024,12,21,00,00,AAXX 21004 41909 01440 60000 10165 20160 30121 40133 70510 83530 333 58003 70000 83615 84365==
41909,2024,12,21,03,00,AAXX 21034 41909 01450 80000 10185 20160 30141 40153 70522 8552/ 333 20150 59003 70000 85614 88460==
41909,2024,12,21,06,00,AAXX 21064 41909 01450 60000 10215 20180 30133 40145 70522 83530 333 59001 70000 83615 84362==
41909,2024,12,21,09,00,AAXX 21094 41909 02950 80000 10247 20170 30117 40129 8552/ 333 58016 70000==
41909,2024,12,21,12,00,AAXX 21124 41909 01440 60000 10212 20170 30118 40130 70500 83530 333 10252 58013 70000 83615 84360==
41909,2024,12,21,15,00,AAXX 21154 41909 01940 00000 10173 20150 30138 40150 70500 333 58016 70000==
41909,2024,12,21,18,00,AAXX 21184 41909 01940 00000 10166 20160 30140 40152 70500 333 58021 70000==
41909,2024,12,21,21,00,AAXX 21214 41909 31940 00000 10158 20150 30134 40146 70500 333 58018 70000=
41909,2024,12,21,23,00,AAXX 21234 41909 01940 00000 10158 20150 30134 40146 70500 333 58018 70000==
41909,2024,12,22,00,00,AAXX 22004 41909 01940 00000 10152 20140 30134 40146 70500 333 58013 70000==
41909,2024,12,22,03,00,AAXX 22034 41909 01950 00000 10160 20140 30161 40173 70500 333 20130 58020 70000==
41909,2024,12,22,06,00,AAXX 22064 41909 01950 00000 10212 20160 30149 40161 70500 333 58016 70000==
41909,2024,12,22,09,00,AAXX 22094 41909 01950 00000 10254 20150 30121 40133 70500 333 58004 70000==
41909,2024,12,22,12,00,AAXX 22124 41909 01940 00000 10194 20170 30123 40135 70500 333 10260 58005 70000==
41909,2024,12,22,15,00,AAXX 22154 41909 01940 00000 10159 20150 30140 40152 70500 333 58002 70000==
41909,2024,12,22,18,00,AAXX 22184 41909 01940 00000 10150 20150 30142 40154 70500 333 58002 70000==
41909,2024,12,22,21,00,AAXX 22214 41909 01905 00000 10134 20130 30134 40146 74644 333 58000 70000==
41909,2024,12,23,00,00,AAXX 23004 41909 02905 00000 10119 20119 30130 40142 84444 333 59004 70000==
41909,2024,12,23,03,00,AAXX 23034 41909 01908 00000 10151 20140 30153 40165 74442 333 20115 59008 70000==
41909,2024,12,23,06,00,AAXX 23064 41909 02956 00000 10244 20120 30146 40158 333 59003 70000==
41909,2024,12,23,09,00,AAXX 23094 41909 02956 02701 10260 20120 30119 40131 333 59002 70000==
41909,2024,12,23,12,00,AAXX 23124 41909 01940 00000 10194 20150 30115 40127 70500 333 10268 59008 70000==
41909,2024,12,23,15,00,AAXX 23154 41909 01930 00000 10170 20150 30130 40142 70500 333 59010 70000==
41909,2024,12,23,18,00,AAXX 23184 41909 01930 00000 10151 20140 30136 40148 70500 333 59006 70000==
41909,2024,12,24,00,00,AAXX 24004 41909 01930 00000 10132 20120 30129 40141 70500 333 59001 70000==
41909,2024,12,24,03,00,AAXX 24034 41909 01950 00000 10170 20150 30152 40164 70500 333 20116 59001 70000==
41909,2024,12,24,06,00,AAXX 24064 41909 01950 00000 10240 20160 30141 40153 70500 333 59005 70000==
41909,2024,12,24,09,00,AAXX 24094 41909 02956 00000 10260 20120 30115 40126 333 59004 70000==
41909,2024,12,24,12,00,AAXX 24124 41909 01940 00000 10195 20160 30116 40128 70500 333 10265 58001 70000==
41909,2024,12,24,15,00,AAXX 24154 41909 01940 00000 10169 20150 30135 40147 70500 333 58005 70000==
41909,2024,12,24,18,00,AAXX 24184 41909 01940 00000 10158 20150 30138 40150 70500 333 58002 70000==
41909,2024,12,25,03,00,AAXX 25034 41909 01940 00000 10164 20150 30171 40183 70500 333 20125 58019 70000==
41909,2024,12,25,06,00,AAXX 25064 41909 02/50 30000 10249 20140 30164 40176 83030 333 58023 70000 83365==
41909,2024,12,25,09,00,AAXX 25094 41909 02/56 20000 10264 20120 30137 40149 82030 333 58022 70000 82360==
41909,2024,12,25,12,00,AAXX 25124 41909 02/40 10000 10189 20160 30141 40153 81030 333 10274 58025 70000 81360==
41909,2024,12,25,18,00,AAXX 25184 41909 01940 00000 10154 20130 30171 40183 70500 333 58033 70000==
41909,2024,12,26,03,00,AAXX 26034 41909 01950 00000 10189 20150 30194 40206 70500 333 20126 58023 70000==
41909,2024,12,26,06,00,AAXX 26064 41909 02956 00000 10254 20130 30186 40198 333 58022 70000==
41909,2024,12,26,09,00,AAXX 26094 41909 02956 00000 10268 20120 30156 40168 333 58019 70000==
41909,2024,12,26,12,00,AAXX 26124 41909 01940 00000 10206 20150 30154 40166 70500 333 10277 58013 70000==
41909,2024,12,26,15,00,AAXX 26154 41909 01940 00000 10175 20140 30174 40186 70500 333 58006 70000==
41909,2024,12,26,18,00,AAXX 26184 41909 01940 00000 10160 20140 30176 40188 70500 333 58005 70000==
41915,2024,12,20,00,00,AAXX 20004 41915 01910 40000 10117 20117 30105 40131 71021 333 59020 70000==
41915,2024,12,20,03,00,AAXX 20034 41915 01925 30000 10165 20160 30132 40158 71021 81530 333 20116 59014 70000 81618 84365==
41915,2024,12,20,06,00,AAXX 20064 41915 01440 63202 10232 20150 30111 40136 70522 83510 333 59010 70000 83616 86458==
41915,2024,12,20,09,00,AAXX 20094 41915 01440 73201 10253 20130 30048 40111 70522 83510 333 59008 70000 83616 87458==
41915,2024,12,20,12,00,AAXX 20124 41915 01430 60000 10180 20160 30095 40121 70522 82510 333 10265 59008 70000 82616 86458==
41915,2024,12,20,15,00,AAXX 20154 41915 01420 40000 10145 20140 30116 40142 71022 82510 333 59001 70000 82616 84458==
41915,2024,12,20,18,00,AAXX 20184 41915 01410 40000 10147 20147 30111 40137 71022 82510 333 59005 70000 82616 84458==
41915,2024,12,21,00,00,AAXX 21004 41915 01410 80000 10140 20140 30102 40128 71022 8352/ 333 59003 70000 83616 88458==
41915,2024,12,21,03,00,AAXX 21034 41915 01410 81401 10160 20150 30132 40158 71022 8352/ 333 20138 58000 70000 83616 88458==
41915,2024,12,21,06,00,AAXX 21064 41915 01440 80000 10208 20180 30113 40139 70522 8442/ 333 58002 70000 84615 88458==
41915,2024,12,21,09,00,AAXX 21094 41915 01440 80000 10200 20180 30108 40134 70522 8442/ 333 58022 70000 84615 88458==
41915,2024,12,21,12,00,AAXX 21124 41915 01430 80000 10180 20170 30114 40140 70522 8442/ 333 10215 58019 70000 84615 88458==
41915,2024,12,21,15,00,AAXX 21154 41915 01408 30000 10161 20160 30135 40161 74442 82520 333 58019 70000 82616 83458==
41915,2024,12,21,18,00,AAXX 21184 41915 NIL=
41915,2024,12,21,21,00,AAXX 21214 41915 31900 00000 10121 20121 30122 40149 74444 333 58025 70000=
41915,2024,12,21,23,00,AAXX 21234 41915 01900 00000 10121 20121 30122 40149 74444 333 58025 70000==
41915,2024,12,22,00,00,AAXX 22004 41915 01900 00000 10120 20120 30126 40153 74444 333 58024 70000==
41915,2024,12,22,03,00,AAXX 22034 41915 01905 00000 10152 20152 30152 40177 74244 333 20113 58019 70000==
41915,2024,12,22,06,00,AAXX 22064 41915 01956 00000 10240 20150 30133 40158 70240 333 58020 70000==
41915,2024,12,22,09,00,AAXX 22094 41915 02956 03302 10272 20110 30105 40130 333 59003 70000==
41915,2024,12,22,12,00,AAXX 22124 41915 01950 10000 10190 20170 30111 40137 70510 80002 333 10276 59003 70000 81080==
41915,2024,12,22,15,00,AAXX 22154 41915 01930 00000 10145 20140 30127 40153 70500 333 59008 70000==
41915,2024,12,22,21,00,AAXX 22214 41915 01905 00000 10125 20125 30113 40139 70500 333 59009 70000==
41915,2024,12,23,00,00,AAXX 23004 41915 01900 00000 10115 20115 30118 40144 70500 89/// 333 59008 70000==
41915,2024,12,23,03,00,AAXX 23034 41915 01940 00000 10166 20166 30144 40170 70544 333 20104 59007 70000==
41915,2024,12,23,06,00,AAXX 23064 41915 01956 03602 10265 20130 30126 40151 70240 333 59007 70000==
41915,2024,12,23,09,00,AAXX 23094 41915 02956 00501 10275 20090 30099 40124 333 59006 70000==
41915,2024,12,23,12,00,AAXX 23124 41915 01940 03201 10185 20150 30103 40129 70500 333 10287 59008 70000==
41915,2024,12,23,15,00,AAXX 23154 41915 01940 00000 10130 20120 30119 40145 70500 333 59008 70000==
41915,2024,12,24,00,00,AAXX 24004 41915 01935 00000 10092 20090 30119 40146 70500 333 58001 70000==
41915,2024,12,24,03,00,AAXX 24034 41915 01950 00301 10188 20150 30144 40170 70500 333 20089 58000 70000==
41915,2024,12,24,06,00,AAXX 24064 41915 02956 00502 10262 20120 30119 40144 333 59007 70000==
41915,2024,12,24,09,00,AAXX 24094 41915 02956 03602 10270 20120 30097 40122 333 59002 70000==
41915,2024,12,24,12,00,AAXX 24124 41915 01950 00000 10192 20160 30103 40129 70500 333 10282 58000 70000==
41915,2024,12,24,15,00,AAXX 24154 41915 01950 00000 10146 20140 30126 40152 70500 333 58007 70000==
41915,2024,12,25,03,00,AAXX 25034 41915 01440 40000 10165 20160 30156 40182 70522 81530 333 20128 58012 70000 81616 84362==
41915,2024,12,25,06,00,AAXX 25064 41915 02450 72903 10240 20140 30146 40171 85430 333 58027 70000 84615 85362==
41915,2024,12,25,09,00,AAXX 25094 41915 02450 42901 10250 20160 30126 40151 83430 333 58029 70000 82616 83362==
41915,2024,12,25,12,00,AAXX 25124 41915 01450 60000 10188 20170 30133 40159 70522 84530 333 10267 58030 70000 84615 85362==
41915,2024,12,25,18,00,AAXX 25184 41915 NIL=
41915,2024,12,26,03,00,AAXX 26034 41915 01950 00000 10190 20170 30180 40206 70510 333 20123 58024 70000==
41915,2024,12,26,06,00,AAXX 26064 41915 02956 03102 10260 20150 30134 40189 333 58018 70000==
41915,2024,12,26,09,00,AAXX 26094 41915 02956 03201 10273 20200 30138 40163 333 58012 70000==
41915,2024,12,26,12,00,AAXX 26124 41915 01940 00000 10200 20170 30140 40166 70500 333 10333 58007 70000==
41915,2024,12,26,15,00,AAXX 26154 41915 01930 00000 10150 20140 30163 40189 70500 333 58006 70000==
41915,2024,12,26,18,00,AAXX 26184 41915 NIL=
41923,2024,12,20,00,00,AAXX 20004 41923 01930 50000 10162 20150 30120 40130 70520 81530 333 59016 70000 81616 85360==
41923,2024,12,20,03,00,AAXX 20034 41923 01430 50000 10210 20150 30148 40158 70522 82530 333 20160 59011 70000 82616 85360==
41923,2024,12,20,06,00,AAXX 20064 41923 01440 50000 10242 20120 30131 40141 70522 82530 333 59010 70000 82616 85360==
41923,2024,12,20,09,00,AAXX 20094 41923 01440 50000 10262 20100 30105 40115 70522 82530 333 59008 70000 82615 85365==
41923,2024,12,20,12,00,AAXX 20124 41923 01/40 30000 10217 20130 30111 40121 70521 83030 333 10270 59007 70000 83365==
41923,2024,12,20,15,00,AAXX 20154 41923 01440 50000 10182 20140 30127 40137 70522 82530 333 59007 70000 82615 85365==
41923,2024,12,20,18,00,AAXX 20184 41923 01430 80000 10192 20150 30130 40140 70522 8532/ 333 59001 70000 85615 88459 81930==
41923,2024,12,20,21,00,AAXX 20214 41923 01430 80000 10195 20160 30126 40136 70522 8532/ 333 58009 70000 85615 88459 81930==
41923,2024,12,21,00,00,AAXX 21004 41923 01430 82702 10195 20160 30127 40137 70522 8532/ 333 58007 70000 85615 88459 81930==
41923,2024,12,21,03,00,AAXX 21034 41923 41430 80000 10200 20150 30149 40159 70562 8532/ 333 20182 58001 85615 88459 81930==
41923,2024,12,21,06,00,AAXX 21064 41923 11420 82702 10222 20140 30142 40152 60006 71062 8532/ 333 58011 85615 88459 81930==
41923,2024,12,21,09,00,AAXX 21094 41923 41430 82702 10220 20140 30126 40136 70522 8532/ 333 58021 84615 88458 81930==
41923,2024,12,21,12,00,AAXX 21124 41923 41430 60000 10203 20150 30129 40139 70522 83570 333 10227 58018 83615 85458==
41923,2024,12,21,15,00,AAXX 21154 41923 41/30 20000 10279 20160 30145 40155 70520 82030 333 58018 82365==
41923,2024,12,21,18,00,AAXX 21184 41923 41918 20000 10167 20160 30146 40156 71000 333 58016 82365==
41923,2024,12,21,21,00,AAXX 21214 41923 41915 00000 10164 20150 30140 40150 71000 333 58014==
41923,2024,12,22,00,00,AAXX 22004 41923 41909 00000 10161 20150 30143 40153 74040 333 58016==
41923,2024,12,22,03,00,AAXX 22034 41923 01915 00000 10181 20160 30165 40175 71040 333 20155 58016 70000==
41923,2024,12,22,06,00,AAXX 22063 41923 01935 00000 10243 20130 30150 40160 70540 333 58008 70000==
41923,2024,12,22,09,00,AAXX 22094 41923 01950 03602 10255 20130 30124 40134 70500 333 59002 70000==
41923,2024,12,22,12,00,AAXX 22124 41923 01940 00000 10204 20140 30128 40138 70500 333 10265 59001 70000==
41923,2024,12,22,15,00,AAXX 22154 41923 01940 00000 10186 20150 30148 40158 70500 333 58003 70000==
41923,2024,12,22,18,00,AAXX 22183 41923 01935 00000 10172 20160 30141 40151 70500 333 59005 70000==
41923,2024,12,22,21,00,AAXX 22214 41923 01920 00000 10162 20150 30130 40140 71000 333 59010 70000==
41923,2024,12,23,00,00,AAXX 23004 41923 01909 00000 10155 20150 30132 40142 74040 333 59011 70000==
41923,2024,12,23,03,00,AAXX 23033 41923 01930 03601 10202 20140 30160 40170 70540 333 20152 59005 70000==
41923,2024,12,23,06,00,AAXX 23064 41923 01950 00000 10250 20110 30148 40158 70540 333 59002 70000==
41923,2024,12,23,09,00,AAXX 23094 41923 01950 00000 10264 20090 30118 40127 70500 333 59006 70000==
41923,2024,12,23,12,00,AAXX 23124 41923 01940 00000 10212 20130 30121 40131 70500 333 10273 59007 70000==
41923,2024,12,23,15,00,AAXX 23154 41923 01940 00000 10202 20130 30135 40145 70500 333 59013 70000==
41923,2024,12,23,18,00,AAXX 23184 41923 01935 00000 10182 20140 30139 40149 70500 333 59002 70000==
41923,2024,12,23,21,00,AAXX 23214 41923 01930 00000 10168 20150 30128 40138 70500 333 59002 70000==
41923,2024,12,24,00,00,AAXX 24004 41923 01930 00000 10154 20130 30136 40146 70500 333 58004 70000==
41923,2024,12,24,03,00,AAXX 24034 41923 01930 00000 10206 20140 30162 40172 70500 333 20151 58002 70000==
41923,2024,12,24,06,00,AAXX 24064 41923 01/50 20000 10258 20110 30142 40151 70500 82030 333 59006 70000 82360==
41923,2024,12,24,09,00,AAXX 24094 41923 01950 00000 10260 20120 30115 40124 70500 333 59003 70000==
41923,2024,12,24,12,00,AAXX 24124 41923 01940 00000 10220 20120 30123 40133 70500 333 10269 58002 70000==
41923,2024,12,24,15,00,AAXX 24154 41923 01/40 20000 10195 20140 30139 40149 70500 82030 333 58004 70000 82360==
41923,2024,12,24,18,00,AAXX 24184 41923 01/35 20000 10195 20130 30148 40158 70500 82030 333 58009 70000 82365==
41923,2024,12,25,03,00,AAXX 25034 41923 01435 60000 10198 20130 30174 40184 70520 81530 333 20172 58012 70000 81616 85360==
41923,2024,12,25,06,00,AAXX 25064 41923 01440 60000 10245 20140 30168 40177 70522 83530 333 58026 70000 83615 85360==
41923,2024,12,25,09,00,AAXX 25094 41923 01450 50000 10258 20100 30142 40151 70522 82530 333 58027 70000 82616 83360==
41923,2024,12,25,12,00,AAXX 25124 41923 01450 60000 10220 20130 30146 40156 70522 83530 333 10267 58023 70000 83615 84360==
41923,2024,12,25,18,00,AAXX 25184 41923 01/40 40000 10178 20140 30174 40184 70520 84030 333 58026 70000 84360==
41923,2024,12,26,03,00,AAXX 26034 41923 01940 00000 10226 20130 30198 40208 70500 333 20165 58024 70000==
41923,2024,12,26,06,00,AAXX 26064 41923 01950 03502 10264 20120 30184 40194 70500 333 58016 70000==
41923,2024,12,26,09,00,AAXX 26094 41923 01950 00000 10282 20100 30155 40164 70500 333 58013 70000==
41923,2024,12,26,12,00,AAXX 26124 41923 01940 00000 10242 20110 30159 40169 70500 333 10285 58013 70000==
41923,2024,12,26,15,00,AAXX 26154 41923 01940 00000 10216 20130 30178 40188 70500 333 58004 70000==
41923,2024,12,26,18,00,AAXX 26184 41923 01940 00000 10198 20130 30179 40189 70500 333 58005 70000==
41926,2024,12,20,00,00,AAXX 20004 41926 01/50 30000 10123 20110 30119 40133 70500 83030 333 59018 70000 83362==
41926,2024,12,20,03,00,AAXX 20034 41926 01/50 60000 10175 20160 30145 40159 70520 85032 333 20122 59012 70000 85362 84080==
41926,2024,12,20,06,00,AAXX 20064 41926 01450 63602 10240 20120 30126 40140 70520 83570 333 59016 70000 83618 84459==
41926,2024,12,20,09,00,AAXX 20094 41926 01450 50000 10255 20120 30103 40117 70522 80003 333 59009 70000 85080==
41926,2024,12,20,12,00,AAXX 20124 41926 01950 50000 10185 20170 30105 40119 70522 80003 333 10260 59008 70000 85080==
41926,2024,12,20,15,00,AAXX 20154 41926 01/50 50000 10160 20150 30124 40138 70522 85030 333 59005 70000 85365==
41926,2024,12,20,18,00,AAXX 20184 41926 01450 60000 10162 20150 30117 40131 70522 82510 333 58000 70000 82618 86459==
41926,2024,12,21,00,00,AAXX 21004 41926 01450 70000 10160 20150 30114 40128 70522 83510 333 59005 70000 83618 86459==
41926,2024,12,21,03,00,AAXX 21034 41926 01450 80000 10170 20150 30144 40158 70522 8452/ 333 20159 59001 70000 84616 88458==
41926,2024,12,21,06,00,AAXX 21064 41926 01450 80000 10212 20150 30133 40147 70522 8452/ 333 58007 70000 82708 83616 88458==
41926,2024,12,21,09,00,AAXX 21094 41926 01450 60000 10225 20160 30117 40131 70522 82510 333 58014 70000 82618 86459==
41926,2024,12,21,12,00,AAXX 21124 41926 01450 30000 10195 20170 30121 40135 70520 83500 333 10230 58016 70000 83618==
41926,2024,12,21,15,00,AAXX 21154 41926 42940 00000 10159 20150 30139 40153 59015==
41926,2024,12,21,18,00,AAXX 21184 41926 01940 00000 10150 20140 30142 40156 70500 333 58025 70000==
41926,2024,12,21,21,00,AAXX 21214 41926 31920 00000 10140 20130 30140 40154 71000 333 58028 70000=
41926,2024,12,21,23,00,AAXX 21234 41926 01920 00000 10140 20130 30140 40154 71000 333 58028 70000==
41926,2024,12,22,00,00,AAXX 22004 41926 01908 00000 10143 20140 30136 40150 74440 333 58017 70000==
41926,2024,12,22,03,00,AAXX 22034 41926 01908 00000 10147 20147 30159 40173 74344 89/// 333 20135 58015 70000==
41926,2024,12,22,06,00,AAXX 22064 41926 01950 00000 10215 20170 30145 40159 70540 333 58012 70000==
41926,2024,12,22,09,00,AAXX 22094 41926 NIL=
41926,2024,12,22,12,00,AAXX 22124 41926 01950 00000 10203 20180 30122 40136 70500 333 10252 58001 70000==
41926,2024,12,22,15,00,AAXX 22154 41926 01940 00000 10165 20160 30138 40152 70500 333 59001 70000==
41926,2024,12,22,18,00,AAXX 22184 41926 01940 00000 10150 20140 30140 40154 70500 333 59002 70000==
41926,2024,12,22,21,00,AAXX 22214 41926 01940 00000 10140 20130 30136 40150 70500 333 59004 70000==
41926,2024,12,23,00,00,AAXX 23004 41926 01940 00000 10132 20120 30133 40147 70500 333 59003 70000==
41926,2024,12,23,03,00,AAXX 23034 41926 01940 00000 10160 20160 30158 40172 70500 333 20130 59001 70000==
41926,2024,12,23,06,00,AAXX 23064 41926 01950 00000 10244 20140 30146 40160 70500 333 58001 70000==
41926,2024,12,23,09,00,AAXX 23094 41926 01950 00000 10252 20100 30116 40130 70500 333 59005 70000==
41926,2024,12,23,12,00,AAXX 23124 41926 01950 00000 10205 20160 30118 40132 70500 333 10260 59006 70000==
41926,2024,12,23,15,00,AAXX 23154 41926 01950 00000 10155 20150 30134 40148 70500 333 59004 70000==
41926,2024,12,23,18,00,AAXX 23184 41926 01950 00000 10140 20130 30135 40149 70500 333 59005 70000==
41926,2024,12,24,00,00,AAXX 24004 41926 01940 00000 10118 20110 30135 40149 70500 333 58002 70000==
41926,2024,12,24,03,00,AAXX 24034 41926 01940 00000 10166 20150 30155 40169 70500 333 20116 59003 70000==
41926,2024,12,24,06,00,AAXX 24064 41926 01950 00000 10240 20140 30145 40159 70500 333 59001 70000==
41926,2024,12,24,09,00,AAXX 24094 41926 02956 00000 10252 20100 30116 40130 333 58000 70000==
41926,2024,12,24,12,00,AAXX 24124 41926 01/50 50000 10190 20150 30118 40132 70520 85030 333 10263 58000 70000 85362==
41926,2024,12,24,15,00,AAXX 24154 41926 01/50 20000 10165 20150 30138 40152 70520 82030 333 58004 70000 82362==
41926,2024,12,24,18,00,AAXX 24184 41926 01950 00000 10150 20130 30147 40161 70500 333 58012 70000==
41926,2024,12,25,03,00,AAXX 25034 41926 01/40 30000 10177 20150 30173 40187 70520 83030 333 20144 58018 70000 83362==
41926,2024,12,25,06,00,AAXX 25064 41926 01950 00000 10246 20140 30165 40179 70500 333 58020 70000==
41926,2024,12,25,09,00,AAXX 25094 41926 01450 60000 10255 20150 30142 40156 70522 83510 333 58026 70000 83618 85459==
41926,2024,12,25,12,00,AAXX 25124 41926 01/50 30000 10200 20160 30141 40155 70521 83030 333 10258 58023 70000 83363==
41926,2024,12,25,18,00,AAXX 25184 41926 01950 00000 10155 20140 30174 40188 70500 333 58027 70000==
41926,2024,12,26,03,00,AAXX 26034 41926 01/50 20000 10174 20150 30196 40210 70500 82030 333 20138 58023 70000 82362==
41926,2024,12,26,06,00,AAXX 26064 41926 01950 00000 10254 20130 30186 40200 70500 333 58021 70000==
41926,2024,12,26,09,00,AAXX 26094 41926 02956 03602 10263 20170 30155 40169 333 58013 70000==
41926,2024,12,26,12,00,AAXX 26124 41926 01950 00000 10208 20190 30159 40173 70500 333 10268 58018 70000==
41926,2024,12,26,15,00,AAXX 26154 41926 01950 00000 10163 20150 30177 40191 70500 333 58006 70000==
41926,2024,12,26,18,00,AAXX 26184 41926 01950 00000 10150 20140 30180 40194 70500 333 58006 70000==
41927,2024,12,20,00,00,AAXX 20004 41927 31940 03601 10134 20130 30126 40141 70500 333 58000 70000=
41927,2024,12,20,03,00,AAXX 20034 41927 31950 03601 10190 20140 30140 40154 70500 333 20134 59017 70000=
41927,2024,12,20,06,00,AAXX 20064 41927 NIL=
41927,2024,12,20,09,00,AAXX 20094 41927 32958 03601 10256 20110 30100 40114 333 59008 70000=
41927,2024,12,20,15,00,AAXX 20154 41927 31950 00000 10200 20160 30098 40112 70500 333 10260 59011 70000=
41927,2024,12,21,00,00,AAXX 21004 41927 31940 00000 10126 20126 30127 40142 70500 333 59001 70000=
41927,2024,12,21,03,00,AAXX 21034 41927 31440 83602 10160 20150 30148 40163 70520 8452/ 333 20126 56899 58004 70000 84616 88458=
41927,2024,12,21,06,00,AAXX 21064 41927 31450 63601 10214 20130 30136 40150 70522 83510 333 56890 58000 70000 83617 85459=
41927,2024,12,21,09,00,AAXX 21094 41927 32457 62201 10235 20150 30118 40132 83570 333 56590 58018 70000 83617 84459=
41927,2024,12,21,12,00,AAXX 21124 41927 31950 40000 10195 20170 30119 40133 70521 84030 333 10237 56090 58021 70000 84362=
41927,2024,12,21,15,00,AAXX 21154 41927 31950 00000 10162 20140 30137 40152 70510 333 58014 70000=
41927,2024,12,21,18,00,AAXX 21184 41927 NIL=
41927,2024,12,21,21,00,AAXX 21214 41927 31940 00000 10142 20130 30130 40145 70500 333 58004 70000=
41927,2024,12,22,00,00,AAXX 22004 41927 31920 00000 10135 20135 30133 40148 71000 333 58006 70000=
41927,2024,12,22,03,00,AAXX 22034 41927 31909 00000 10150 20150 30160 40175 74640 333 20135 58012 70000=
41927,2024,12,22,06,00,AAXX 22064 41927 31940 00000 10202 20170 30145 40159 70540 58009 70000=
41927,2024,12,22,09,00,AAXX 22094 41927 32957 00000 10250 20160 30121 40135 333 58003 70000=
41927,2024,12,22,12,00,AAXX 22124 41927 31950 00000 10205 20190 30120 40134 70500 333 10253 58001 70000=
41927,2024,12,22,15,00,AAXX 22154 41927 31950 00000 10165 20160 30140 40155 70500 333 58003 70000=
41927,2024,12,22,18,00,AAXX 22184 41927 31940 00000 10154 20140 30142 40157 70500 333 58002 70000=
41927,2024,12,22,21,00,AAXX 22214 41927 31926 00000 10142 20130 30136 40151 71000 333 58006 70000=
41927,2024,12,23,00,00,AAXX 23004 41927 31920 00000 10130 20120 30133 40148 71000 333 58000 70000=
41927,2024,12,23,03,00,AAXX 23034 41927 31950 03601 10176 20170 30157 40172 70500 333 20130 59003 70000=
41927,2024,12,23,06,00,AAXX 23064 41927 32958 03601 10260 20130 30143 40157 333 59002 70000=
41927,2024,12,23,09,00,AAXX 23094 41927 32957 03601 10265 20120 30114 40128 333 59007 70000=
41927,2024,12,23,12,00,AAXX 23124 41927 31950 03601 10190 20160 30118 40132 70500 333 10270 59002 70000=
41927,2024,12,23,15,00,AAXX 23154 41927 31950 00000 10154 20140 30134 40149 70500 333 59006 70000=
41927,2024,12,23,21,00,AAXX 23214 41927 31940 00000 10132 20120 30136 40151 70500 333 58000 70000=
41927,2024,12,24,00,00,AAXX 24004 41927 31940 00000 10124 20120 30137 40152 70500 333 58000 70000=
41927,2024,12,24,03,00,AAXX 24034 41927 NIL=
41927,2024,12,24,06,00,AAXX 24064 41927 32958 03601 10248 20090 30153 40167 333 58010 70000=
41927,2024,12,24,09,00,AAXX 24094 41927 32958 00000 10266 20080 30113 40127 333 59001 70000=
41927,2024,12,24,12,00,AAXX 24124 41927 31950 00000 10195 20160 30120 40134 70500 333 10270 58001 70000=
41927,2024,12,24,15,00,AAXX 24154 41927 31950 00000 10163 20150 30137 40152 70500 333 58003 70000=
41927,2024,12,24,18,00,AAXX 24184 41927 31950 00000 10150 20140 30141 40156 70500 333 58002 70000=
41927,2024,12,25,03,00,AAXX 25034 41927 31950 42701 10182 20150 30169 40184 70510 84030 333 20143 56090 58015 70000 84362=
41927,2024,12,25,06,00,AAXX 25064 41927 32958 00000 10248 20130 30163 40177 333 58010 70000=
41927,2024,12,25,09,00,AAXX 25094 41927 32958 03402 10267 20100 30139 40153 333 58026 70000=
41927,2024,12,25,12,00,AAXX 25124 41927 32956 00000 10196 20160 30130 40144 333 10270 58010 70000=
41927,2024,12,25,18,00,AAXX 25184 41927 NIL=
41927,2024,12,26,03,00,AAXX 26034 41927 31950 03601 10200 20160 30196 40210 70500 333 20138 58027 70000=
41927,2024,12,26,06,00,AAXX 26064 41927 32958 03601 10256 20090 30190 40204 333 58027 70000=
41927,2024,12,26,09,00,AAXX 26094 41927 32958 03601 10275 20110 30153 40167 333 58014 70000=
41927,2024,12,26,15,00,AAXX 26154 41927 31950 00000 10160 20150 30172 40187 70500 333 58004 70000=
41927,2024,12,26,18,00,AAXX 26184 41927 31940 00000 10150 20140 30178 40193 70500 333 58004 70000=
41929,2024,12,20,00,00,AAXX 20004 41929 01940 00000 10145 20140 30121 40131 70500 333 59015 70000==
41929,2024,12,20,03,00,AAXX 20034 41929 01450 50000 10192 20160 30151 40161 70520 82530 333 20130 59010 70000 82618 85365==
41929,2024,12,20,06,00,AAXX 20064 41929 01450 53202 10252 20150 30133 40142 70522 82540 333 59010 70000 82618 85365==
41929,2024,12,20,09,00,AAXX 20094 41929 01450 53202 10264 20120 30107 40116 70522 82540 333 59010 70000 82618 85365==
41929,2024,12,20,12,00,AAXX 20124 41929 01950 33201 10200 20160 30114 40123 70521 333 10270 59004 70000 83365==
41929,2024,12,20,15,00,AAXX 20154 41929 01950 00000 10170 20150 30127 40136 70500 333 59005 70000==
41929,2024,12,20,18,00,AAXX 20184 41929 01/50 43502 10178 20170 30120 40129 70521 84030 333 59012 70000 84365==
41929,2024,12,21,00,00,AAXX 21004 41929 01450 70000 10170 20160 30123 40132 70522 83570 333 58002 70000 83616 83365==
41929,2024,12,21,03,00,AAXX 21034 41929 01450 80000 10182 20160 30157 40167 70522 8352/ 333 20165 58006 70000 83618 88462==
41929,2024,12,21,06,00,AAXX 21064 41929 01450 80000 10215 20160 30144 40154 70522 8352/ 333 59011 70000 83618 88462==
41929,2024,12,21,09,00,AAXX 21094 41929 01450 70000 10224 20170 30126 40135 70522 83570 333 58019 70000 83617 85458==
41929,2024,12,21,12,00,AAXX 21124 41929 01450 70000 10200 20170 30130 40139 70522 83570 333 10226 58016 70000 83618 84458==
41929,2024,12,21,15,00,AAXX 21154 41929 01950 00000 10164 20150 30146 40155 70521 333 58019 70000==
41929,2024,12,21,18,00,AAXX 21184 41929 01950 00000 10154 20140 30146 40155 70500 333 58026 70000==
41929,2024,12,21,21,00,AAXX 21214 41929 31950 00000 10140 20130 30133 40142 70500 333 58020 70000=
41929,2024,12,21,23,00,AAXX 21234 41929 01950 00000 10140 20130 30133 40142 70500 333 58020 70000==
41929,2024,12,22,00,00,AAXX 22004 41929 01950 00000 10134 20130 30142 40151 70500 333 58021 70000==
41929,2024,12,22,03,00,AAXX 22034 41929 01950 00000 10176 20170 30167 40177 70540 333 20130 58010 70000==
41929,2024,12,22,06,00,AAXX 22064 41929 01950 00000 10245 20170 30152 40161 70540 333 58008 70000==
41929,2024,12,22,09,00,AAXX 22094 41929 NIL=
41929,2024,12,22,12,00,AAXX 22124 41929 01950 00000 10204 20190 30128 40137 70500 333 10266 59002 70000==
41929,2024,12,22,15,00,AAXX 22154 41929 01950 00000 10176 20160 30146 40155 70500 333 58000 70000==
41929,2024,12,22,18,00,AAXX 22184 41929 01950 00000 10160 20150 30143 40152 70500 333 59003 70000==
41929,2024,12,22,21,00,AAXX 22214 41929 01950 00000 10150 20140 30128 40137 70500 333 59005 70000==
41929,2024,12,23,00,00,AAXX 23004 41929 01915 00000 10142 20140 30137 40146 71040 333 59005 70000==
41929,2024,12,23,03,00,AAXX 23034 41929 01950 03203 10200 20150 30159 40169 70540 333 20135 59008 70000==
41929,2024,12,23,06,00,AAXX 23064 41929 01950 03602 10252 20160 30154 40163 70540 333 58002 70000==
41929,2024,12,23,09,00,AAXX 23094 41929 01950 00000 10270 20090 30120 40129 70500 333 59003 70000==
41929,2024,12,23,12,00,AAXX 23124 41929 01950 00000 10194 20170 30121 40130 70500 333 10275 59007 70000==
41929,2024,12,23,15,00,AAXX 23154 41929 01950 00000 10165 20150 30137 40146 70500 333 59009 70000==
41929,2024,12,23,18,00,AAXX 23184 41929 02950 00000 10150 20140 30143 40152 333 58000 70000==
41929,2024,12,24,00,00,AAXX 24004 41929 01940 00000 10140 20130 30139 40148 70500 333 58002 70000==
41929,2024,12,24,03,00,AAXX 24034 41929 01950 00000 10206 20150 30162 40172 70500 333 20134 58003 70000==
41929,2024,12,24,06,00,AAXX 24064 41929 01950 03602 10252 20120 30147 40156 70500 333 59007 70000==
41929,2024,12,24,09,00,AAXX 24094 41929 02956 00000 10252 20140 30119 40128 333 59002 70000==
41929,2024,12,24,12,00,AAXX 24124 41929 01940 00000 10196 20190 30126 40135 70500 333 10267 58005 70000==
41929,2024,12,24,15,00,AAXX 24154 41929 01440 60000 10180 20160 30144 40153 70521 82511 333 58007 70000 82617 86459==
41929,2024,12,24,18,00,AAXX 24184 41929 01/40 20000 10160 20140 30149 40158 70510 80030 333 58006 70000 82365==
41929,2024,12,25,03,00,AAXX 25034 41929 01/50 50000 10190 20150 30176 40185 70521 82031 333 20150 58014 70000 82365 83080==
41929,2024,12,25,06,00,AAXX 25064 41929 01450 60502 10235 20160 30169 40178 70521 82511 333 58022 70000 82618 84459==
41929,2024,12,25,09,00,AAXX 25094 41929 02456 60000 10260 20140 30143 40152 82511 333 58024 70000 82618 85459==
41929,2024,12,25,12,00,AAXX 25124 41929 01440 70000 10202 20180 30147 40156 70522 82511 333 10265 58021 70000 82618 86459==
41929,2024,12,25,18,00,AAXX 25184 41929 01935 00000 10168 20160 30177 40186 70500 333 58028 70000==
41929,2024,12,26,03,00,AAXX 26034 41929 01950 03602 10214 20140 30200 40210 70500 333 20150 58024 70000==
41929,2024,12,26,06,00,AAXX 26064 41929 02956 00000 10264 20130 30190 40199 333 58021 70000==
41929,2024,12,26,09,00,AAXX 26094 41929 02956 03402 10275 20120 30163 40172 333 58020 70000==
41929,2024,12,26,12,00,AAXX 26124 41929 01950 00000 10212 20160 30165 40174 70500 333 10280 58018 70000==
41929,2024,12,26,15,00,AAXX 26154 41929 01950 00000 10178 20160 30178 40188 70500 333 58006 70000==
41929,2024,12,26,18,00,AAXX 26184 41929 01950 00000 10178 20150 30181 40191 70500 333 58004 70000==
41933,2024,12,20,00,00,AAXX 20004 41933 01903 10000 10125 20120 30118 40127 74344 80001 333 59015 70000 81074==
41933,2024,12,20,03,00,AAXX 20034 41933 01408 60000 10170 20160 30141 40150 74244 83542 333 20120 59011 70000 83618 85362==
41933,2024,12,20,06,00,AAXX 20064 41933 01440 50000 10250 20110 30121 40130 70540 82541 333 59013 70000 82618 84362==
41933,2024,12,20,09,00,AAXX 20094 41933 01/40 50000 10255 20110 30095 40104 70522 82042 333 59011 70000 82362 85080==
41933,2024,12,20,12,00,AAXX 20124 41933 01935 50000 10199 20160 30102 40110 70522 82540 333 10267 59010 70000 82618 85362==
41933,2024,12,20,15,00,AAXX 20154 41933 01430 50000 10175 20160 30116 40124 70522 82540 333 59008 70000 82618 85362==
41933,2024,12,20,18,00,AAXX 20184 41933 01430 40000 10183 20160 30118 40127 70522 82540 333 59008 70000 82618 84362==
41933,2024,12,21,00,00,AAXX 21004 41933 01430 80000 10174 20160 30115 40123 70522 8452/ 333 59003 70000 84618 88458==
41933,2024,12,21,03,00,AAXX 21034 41933 41330 80000 10180 20160 30153 40161 76222 8572/ 333 20170 58012 83708 83615 88458==
41933,2024,12,21,06,00,AAXX 21064 41933 21330 80000 10200 20160 30130 40139 76162 8572/ 333 58009 60007 70001 83708 83615 88457==
41933,2024,12,21,09,00,AAXX 21094 41933 01330 80000 10205 20180 30132 40141 76162 8572/ 333 58037 70002 83708 83615 88457==
41933,2024,12,21,12,00,AAXX 21124 41933 21430 80000 10195 20190 30128 40137 70562 8452/ 333 10210 58026 60008 70003 84618 88458==
41933,2024,12,21,15,00,AAXX 21154 41933 01430 80000 10190 20180 30142 40151 70522 8452/ 333 58009 70003 84618 88458==
41933,2024,12,21,18,00,AAXX 21184 41933 01904 00000 10165 20160 30146 40155 74640 89/// 333 58028 70003==
41933,2024,12,21,21,00,AAXX 21214 41933 31920 00000 10160 20150 30136 40145 71040 333 58022 70003=
41933,2024,12,21,23,00,AAXX 21234 41933 01920 00000 10160 20150 30136 40145 71040 333 58022 70003==
41933,2024,12,22,00,00,AAXX 22004 41933 01920 00000 10160 20150 30132 40141 71040 333 58017 70003==
41933,2024,12,22,03,00,AAXX 22034 41933 01940 00000 10184 20130 30148 40157 70500 333 20142 59005 70003==
41933,2024,12,22,06,00,AAXX 22064 41933 01950 00302 10245 20160 30134 40143 70500 333 58004 70000==
41933,2024,12,22,09,00,AAXX 22094 41933 01950 00102 10265 20160 30114 40123 70500 333 59018 70000==
41933,2024,12,22,12,00,AAXX 22124 41933 01940 00000 10220 20150 30115 40124 70500 333 10273 59013 70000==
41933,2024,12,22,15,00,AAXX 22154 41933 01940 00102 10196 20160 30137 40145 70500 333 59005 70000==
41933,2024,12,22,18,00,AAXX 22184 41933 01925 00000 10164 20150 30131 40140 71000 333 59015 70000==
41933,2024,12,22,21,00,AAXX 22214 41933 01915 00000 10150 20140 30124 40133 71000 333 59012 70000==
41933,2024,12,23,00,00,AAXX 23004 41933 01908 00000 10142 20130 30124 40143 74600 333 59008 70000==
41933,2024,12,23,03,00,AAXX 23034 41933 01920 00000 10190 20160 30159 40168 71000 333 20135 58011 70000==
41933,2024,12,23,06,00,AAXX 23064 41933 01940 00000 10260 20120 30141 40150 70500 333 58007 70000==
41933,2024,12,23,09,00,AAXX 23094 41933 01940 02902 10265 20100 30113 40121 70500 333 59001 70000==
41933,2024,12,23,12,00,AAXX 23124 41933 01940 00000 10230 20120 30114 40122 70500 333 10275 59001 70000==
41933,2024,12,23,15,00,AAXX 23154 41933 01940 00000 10170 20140 30128 40137 70500 333 59009 70000==
41933,2024,12,23,18,00,AAXX 23184 41933 01940 00000 10145 20140 30135 40144 70500 333 58004 70000==
41933,2024,12,24,00,00,AAXX 24004 41933 01920 00000 10128 20120 30136 40145 71000 333 58012 70000==
41933,2024,12,24,03,00,AAXX 24034 41933 01940 00000 10195 20160 30153 40162 70540 333 20118 59006 70000==
41933,2024,12,24,06,00,AAXX 24064 41933 01945 02801 10262 20100 30135 40144 70540 333 58001 70000==
41933,2024,12,24,09,00,AAXX 24094 41933 41945 12702 10265 20100 30110 40118 70500 80001 333 59003==
41933,2024,12,24,12,00,AAXX 24124 41933 01/35 20000 10233 20140 30115 40123 70511 82030 333 10278 58001 70000 82362==
41933,2024,12,24,15,00,AAXX 24154 41933 01935 00000 10175 20170 30134 40143 70500 333 58006 70000==
41933,2024,12,24,18,00,AAXX 24184 41933 01930 00000 10168 20160 30143 40150 70500 333 58008 70000==
41933,2024,12,25,03,00,AAXX 25034 41933 01430 60000 10180 20160 30166 40174 70522 83530 333 20155 59013 70000 83618 85362==
41933,2024,12,25,06,00,AAXX 25064 41933 01435 60000 10248 20130 30153 40162 70522 83530 333 59018 70000 83618 85362==
41933,2024,12,25,09,00,AAXX 25094 41933 01440 50102 10249 20110 30136 40145 70522 82530 333 58026 70000 82618 85362==
41933,2024,12,25,12,00,AAXX 25124 41933 01440 50000 10215 20160 30139 40147 70522 82530 333 58024 70000 82618 85362==
41933,2024,12,25,18,00,AAXX 25184 41933 01920 00000 10170 20160 30155 40164 71000 333 58015 70000==
41933,2024,12,26,03,00,AAXX 26034 41933 01940 00000 10210 20130 30188 40197 70500 333 20160 58022 70000==
41933,2024,12,26,06,00,AAXX 26064 41933 01940 02902 10270 20130 30179 40187 70500 333 58026 70000==
41933,2024,12,26,09,00,AAXX 26094 41933 01940 03002 10277 20120 30150 40158 70500 333 58014 70000==
41933,2024,12,26,12,00,AAXX 26124 41933 01940 00000 10245 20130 30151 40160 70500 333 10285 58012 70000==
41933,2024,12,26,15,00,AAXX 26154 41933 01940 00000 10215 20140 30173 40182 70500 333 58010 70000==
41933,2024,12,26,18,00,AAXX 26184 41933 01940 00000 10170 20160 30175 40184 70500 333 58020 70000==
41936,2024,12,20,00,00,AAXX 20004 41936 01/06 40000 10140 20130 30120 40128 74242 84030 333 59014 70000 84362==
41936,2024,12,20,03,00,AAXX 20034 41936 01/06 40000 10164 20150 30142 40150 74241 84030 333 20132 59014 70000 84362==
41936,2024,12,20,06,00,AAXX 20064 41936 01/20 30903 10258 20150 30129 40136 70541 83030 333 59011 70000 83362==
41936,2024,12,20,09,00,AAXX 20094 41936 01/25 40203 10254 20140 30106 40113 70500 84030 333 59006 70000 84362==
41936,2024,12,20,12,00,AAXX 20124 41936 01/25 40000 10220 20150 30109 40117 70500 84030 333 10266 59006 70000 84362==
41936,2024,12,20,15,00,AAXX 20154 41936 01/20 40000 10180 20170 30127 40134 70522 84030 333 59004 70000 84362==
41936,2024,12,20,18,00,AAXX 20184 41936 01/14 50000 10160 20150 30122 40129 70522 85030 333 59013 70000 85362==
41936,2024,12,20,21,00,AAXX 20214 41936 01/10 50000 10146 20140 30114 40121 70522 85030 333 59011 70000 85362==
41936,2024,12,21,00,00,AAXX 21004 41936 01/10 60000 10144 20130 30115 40122 70522 86030 333 59006 70000 86362==
41936,2024,12,21,03,00,AAXX 21034 41936 01907 71903 10172 20160 30153 40160 76122 84630 333 20142 58010 70010 83710 83615 86362==
41936,2024,12,21,06,00,AAXX 21064 41936 01309 72903 10202 20180 30145 40152 74262 84630 333 58015 70010 83710 83615 86362==
41936,2024,12,21,09,00,AAXX 21094 41936 41410 70000 10216 20190 30125 40132 72164 82830 333 58019 86362==
41936,2024,12,21,12,00,AAXX 21124 41936 11410 60000 10190 20180 30124 40131 60001 70564 83530 333 10218 58014 70010 83615 85362==
41936,2024,12,21,15,00,AAXX 21154 41936 01/09 30000 10162 20150 30141 40148 74122 83030 333 58014 70010 83362==
41936,2024,12,21,18,00,AAXX 21184 41936 01/07 20000 10154 20140 30141 40148 74442 82030 333 58019 70010 82362==
41936,2024,12,21,21,00,AAXX 21214 41936 41/05 20000 10148 20140 30131 40138 74442 82030 333 10010 58017 82362==
41936,2024,12,21,23,00,AAXX 21234 41936 41/05 20000 10148 20140 30131 40138 74442 82030 333 10010 58017 82362==
41936,2024,12,22,00,00,AAXX 22004 41936 01/01 30000 10144 20140 30135 40142 74644 83030 333 58020 70010 83362==
41936,2024,12,22,03,00,AAXX 22034 41936 01901 00404 10160 20160 30158 40166 74242 333 20140 58006 70000==
41936,2024,12,22,06,00,AAXX 22064 41936 01909 00404 10240 20170 30145 40152 74241 333 58000 70000==
41936,2024,12,22,09,00,AAXX 22094 41936 01912 00510 10260 20170 30118 40125 70500 333 59007 70000==
41936,2024,12,22,12,00,AAXX 22124 41936 01912 00000 10210 20170 30122 40130 70500 333 10264 59001 70000==
41936,2024,12,22,15,00,AAXX 22154 41936 01910 00000 10168 20160 30143 40150 70500 333 58001 70000==
41936,2024,12,22,18,00,AAXX 22183 41936 01909 00000 10150 20140 30139 40146 74242 333 59002 70000==
41936,2024,12,22,21,00,AAXX 22214 41936 01907 00000 10140 20130 30130 40138 74444 333 58000 70000==
41936,2024,12,23,00,00,AAXX 23004 41936 01902 00000 10122 20110 30136 40144 74644 333 58002 70000==
41936,2024,12,23,03,00,AAXX 23034 41936 01904 00000 10162 20150 30155 40162 74246 333 20124 59004 70000==
41936,2024,12,23,06,00,AAXX 23064 41936 01910 00000 10262 20110 30145 40152 70540 333 58000 70000==
41936,2024,12,23,09,00,AAXX 23094 41936 01918 03405 10274 20120 30117 40124 70500 333 59001 70000==
41936,2024,12,23,12,00,AAXX 23124 41936 01930 00000 10198 20150 30118 40126 70500 333 10276 59004 70000==
41936,2024,12,23,15,00,AAXX 23154 41936 01930 00000 10170 20160 30136 40143 70500 333 59007 70000==
41936,2024,12,23,18,00,AAXX 23184 41936 01920 00000 10148 20140 30133 40140 70500 333 59007 70000==
41936,2024,12,23,21,00,AAXX 23214 41936 01910 00000 10138 20130 30120 40128 70500 333 59010 70000==
41936,2024,12,24,00,00,AAXX 24004 41936 01905 00000 10122 20110 30126 40134 74640 333 59010 70000==
41936,2024,12,24,03,00,AAXX 24034 41936 01906 03403 10168 20150 30154 40162 74244 333 20120 58000 70000==
41936,2024,12,24,06,00,AAXX 24064 41936 01935 00704 10254 20130 30142 40149 70544 333 59003 70000==
41936,2024,12,24,09,00,AAXX 24094 41936 01940 03604 10270 20110 30114 40121 70500 333 59003 70000==
41936,2024,12,24,12,00,AAXX 24124 41936 01920 23103 10210 20190 30125 40133 70500 333 10274 58007 70000 82362==
41936,2024,12,24,15,00,AAXX 24154 41936 01420 40000 10174 20150 30141 40148 70521 82530 333 58005 70000 82615 84362==
41936,2024,12,24,18,00,AAXX 24184 41936 01416 50000 10170 20150 30147 40154 70521 82530 333 58014 70000 82615 84362==
41936,2024,12,25,03,00,AAXX 25034 41936 41/07 30000 10180 20150 30172 40179 74242 83030 333 20146 58017 83362==
41936,2024,12,25,06,00,AAXX 25064 41936 41/12 30503 10240 20160 30165 40172 70522 83030 333 58023 83362==
41936,2024,12,25,09,00,AAXX 25094 41936 41/12 30000 10250 20160 30143 40150 70511 83030 333 58029 83362==
41936,2024,12,25,12,00,AAXX 25124 41936 41/10 30000 10210 20170 30139 40147 70511 83030 333 10256 58014 83362==
41936,2024,12,25,18,00,AAXX 25184 41936 41/10 30000 10156 20150 30165 40172 70511 83030 333 58018 83362==
41936,2024,12,26,03,00,AAXX 26034 41936 01/07 10103 10184 20150 30194 40201 74241 81030 333 20140 58022 70000 81362==
41936,2024,12,26,06,00,AAXX 26064 41936 01925 00305 10270 20160 30185 40192 70541 333 58020 70000==
41936,2024,12,26,09,00,AAXX 26094 41936 01940 00406 10280 20140 30158 40165 70500 333 58015 70000==
41936,2024,12,26,12,00,AAXX 26124 41936 01920 00000 10234 20170 30159 40167 70500 333 10284 58020 70000==
41936,2024,12,26,15,00,AAXX 26154 41936 01916 00000 10174 20160 30175 40182 70500 333 58010 70000==
41936,2024,12,26,18,00,AAXX 26184 41936 01912 00000 10164 20150 30169 40176 70500 333 58010 70000==
41938,2024,12,20,00,00,AAXX 20004 41938 31910 30000 10130 20120 30123 40127 70210 83010 333 56090 59013 70000 83460=
41938,2024,12,20,03,00,AAXX 20034 41938 31950 63001 10170 20150 30130 40134 70521 83011 333 20130 56099 59020 70000 83460 84080=
41938,2024,12,20,06,00,AAXX 20064 41938 31950 53001 10240 20140 30139 40143 70521 333 56099 59004 70000 82460 84080=
41938,2024,12,20,09,00,AAXX 20094 41938 31950 60000 10255 20140 30110 40114 70521 85071 333 56099 59011 70000 83460 83362=
41938,2024,12,20,12,00,AAXX 20124 41938 31450 80000 10205 20170 30115 40119 70521 8252/ 333 10262 56699 59008 70000 82618 88460=
41938,2024,12,20,15,00,AAXX 20154 41938 31445 82201 10190 20170 30124 40128 70522 8252/ 333 56599 59008 70000 82618 88459=
41938,2024,12,20,18,00,AAXX 20184 41938 31440 83201 10189 20170 30120 40124 70522 8252/ 333 56699 59019 70000 82618 88459=
41938,2024,12,21,00,00,AAXX 21004 41938 31420 82301 10177 20160 30127 40131 71022 8252/ 333 56999 58004 70000 82619 88459=
41938,2024,12,21,03,00,AAXX 21034 41938 21420 80000 10183 20170 30145 40149 76162 8152/ 333 20167 56999 58015 6994/ 70004 81618 88459=
41938,2024,12,21,06,00,AAXX 21064 41938 11430 82001 10202 20180 30137 40141 60013 76162 8252/ 333 56499 59002 70012 82618 88459=
41938,2024,12,21,09,00,AAXX 21094 41938 21430 82201 10207 20190 30129 40133 76162 8352/ 333 56599 58019 6992/ 70014 83618 88459=
41938,2024,12,21,12,00,AAXX 21124 41938 11412 80000 10193 20180 30128 40132 60013 71062 8452/ 333 10212 56699 58013 70018 84618 88460=
41938,2024,12,21,15,00,AAXX 21154 41938 31908 20000 10182 20170 30139 40143 74642 80001 333 56009 58015 70018 82080=
41938,2024,12,21,18,00,AAXX 21184 41938 31901 00000 10168 20168 30139 40143 74642 333 58019 70018=
41938,2024,12,21,21,00,AAXX 21214 41938 31403 70000 10162 20160 30138 40142 74244 83511 333 56699 58019 70018 83618 85460=
41938,2024,12,22,00,00,AAXX 22004 41938 31406 70000 10158 20150 30140 40144 74244 83511 333 56699 58013 70018 83618 85460=
41938,2024,12,22,03,00,AAXX 22034 41938 31930 03601 10190 20170 30156 40160 70542 333 20155 58011 70014=
41938,2024,12,22,06,00,AAXX 22064 41938 31950 03604 10245 20160 30147 40151 70542 333 58010 70006=
41938,2024,12,22,09,00,AAXX 22094 41938 31956 03602 10260 20160 30127 40131 333 59002 70004=
41938,2024,12,22,12,00,AAXX 22124 41938 31950 00000 10205 20170 30125 40129 70500 333 10262 59003 70000=
41938,2024,12,22,15,00,AAXX 22154 41938 31935 00000 10171 20160 30137 40141 70500 333 59002 70000=
41938,2024,12,22,18,00,AAXX 22184 41938 31912 00000 10154 20140 30139 40144 71000 333 58000 70000=
41938,2024,12,22,21,00,AAXX 22214 41938 31912 00000 10146 20140 30136 40140 71000 333 59002 70000=
41938,2024,12,23,00,00,AAXX 23004 41938 31915 03202 10140 20130 30135 40139 71000 333 59005 70000=
41938,2024,12,23,03,00,AAXX 23034 41938 31940 03202 10185 20170 30153 40157 70500 333 20134 59003 70000=
41938,2024,12,23,06,00,AAXX 23064 41938 31950 03204 10254 20120 30147 40151 70500 333 58000 70000=
41938,2024,12,23,09,00,AAXX 23094 41938 31950 03202 10262 20120 30126 40130 70500 333 59001 70000=
41938,2024,12,23,12,00,AAXX 23124 41938 31950 00000 10184 20150 30125 40129 70500 333 10265 58000 70000=
41938,2024,12,23,15,00,AAXX 23154 41938 31950 00000 10162 20150 30133 40137 70500 333 59004 70000=
41938,2024,12,23,18,00,AAXX 23184 41938 31940 00000 10152 20150 30134 40139 70500 333 59005 70000=
41938,2024,12,23,21,00,AAXX 23214 41938 31935 00000 10150 20140 30134 40138 70500 333 59002 70000=
41938,2024,12,24,00,00,AAXX 24004 41938 31930 30000 10156 20150 30134 40138 70500 83010 333 56090 59001 70000 83460=
41938,2024,12,24,03,00,AAXX 24034 41938 31940 03201 10180 20150 30151 40155 70500 333 20146 59002 70000=
41938,2024,12,24,06,00,AAXX 24064 41938 31950 03202 10250 20130 30147 40150 70500 333 58000 70000=
41938,2024,12,24,09,00,AAXX 24094 41938 31450 22701 10261 20130 30123 40127 70500 81531 333 56699 59003 70000 81618=
41938,2024,12,24,12,00,AAXX 24124 41938 31950 10000 10192 20150 30127 40131 70510 81030 333 10265 56090 58002 70000 81362=
41938,2024,12,24,15,00,AAXX 24154 41938 31440 30000 10181 20160 30144 40148 70510 82531 333 56699 58011 70000 82619=
41938,2024,12,24,18,00,AAXX 24184 41938 31435 73001 10177 20160 30145 40149 70521 83571 333 56699 58011 70000 83619 84460=
41938,2024,12,25,03,00,AAXX 25034 41938 31940 30000 10200 20140 30171 40175 70521 83031 333 20162 56099 58020 70000 83362=
41938,2024,12,25,06,00,AAXX 25064 41938 31435 80000 10234 20130 30165 40169 70522 8352/ 333 56599 58018 70000 83618 88459=
41938,2024,12,25,09,00,AAXX 25094 41938 31440 73001 10245 20140 30147 40151 70522 82570 333 56690 58024 70000 82619 85460=
41938,2024,12,25,12,00,AAXX 25124 41938 31450 80000 10206 20170 30146 40150 70522 8352/ 333 10250 56699 58019 70000 83618 88459=
41938,2024,12,25,18,00,AAXX 25184 41938 31920 10000 10178 20170 30170 40174 71021 80001 333 56009 58025 70000 81080=
41938,2024,12,26,03,00,AAXX 26034 41938 31950 10302 10212 20140 30191 40195 70500 81030 333 20152 56090 58020 70000 81362=
41938,2024,12,26,06,00,AAXX 26064 41938 31950 00304 10261 20130 30185 40189 70500 333 58020 70000=
41938,2024,12,26,09,00,AAXX 26094 41938 32956 03402 10276 20120 30165 40169 333 58018 70000=
41938,2024,12,26,12,00,AAXX 26124 41938 31950 00000 10210 20150 30164 40168 70500 333 10276 58018 70000=
41938,2024,12,26,15,00,AAXX 26154 41938 31950 00000 10170 20150 30174 40178 70500 333 58008 70000=
41938,2024,12,26,18,00,AAXX 26184 41938 31950 03202 10152 20140 30172 40176 70500 333 58002 70000=
41939,2024,12,20,00,00,AAXX 20004 41939 01/50 20000 10132 20130 30135 40143 70500 81050 333 59007 70000 81618==
41939,2024,12,20,03,00,AAXX 20034 41939 01/57 20000 10172 20160 30152 40161 70500 82030 333 20125 58002 70000 82362==
41939,2024,12,20,06,00,AAXX 20064 41939 02959 00000 10240 20160 30131 40139 333 58001 70000==
41939,2024,12,20,09,00,AAXX 20094 41939 02459 50000 10253 20160 30111 40119 83530 333 59008 70000 83617 83364==
41939,2024,12,20,12,00,AAXX 20124 41939 02956 30000 10192 20170 30120 40128 81530 333 10255 59002 70000 81618==
41939,2024,12,20,15,00,AAXX 20154 41939 01950 00000 10178 20170 30135 40143 70500 333 59015 70000==
41939,2024,12,21,00,00,AAXX 21004 41939 01940 00000 10165 20160 30140 40148 70500 333 58005 70000==
41939,2024,12,21,03,00,AAXX 21034 41939 01457 80000 10183 20170 30155 40163 70522 8352/ 333 20160 59002 70000 83617 88459==
41939,2024,12,21,06,00,AAXX 21064 41939 21457 80000 10205 20200 30143 40151 70262 8352/ 333 58012 60027 70016 83617 88459==
41939,2024,12,21,09,00,AAXX 21094 41939 02457 80000 10208 20190 30133 40141 8352/ 333 58022 70016 83617 88459==
41939,2024,12,21,12,00,AAXX 21124 41939 21440 80000 10195 20190 30135 40143 70562 8352/ 333 10213 58015 60015 70024 83617 88459==
41939,2024,12,21,15,00,AAXX 21154 41939 01430 40000 10185 20180 30151 40160 70522 82530 333 58016 70024 82617 83363==
41939,2024,12,21,18,00,AAXX 21184 41939 01430 40000 10175 20170 30160 40168 70522 82530 333 58013 70024 82617 83363==
41939,2024,12,21,21,00,AAXX 21214 41939 31440 60000 10163 20150 30150 40158 70522 83530 333 56990 58008 70024 83618 83365=
41939,2024,12,21,23,00,AAXX 21234 41939 01440 60000 10163 20150 30150 40158 70522 83530 333 58008 70024 83618 83365==
41939,2024,12,22,00,00,AAXX 22004 41939 01450 60000 10158 20150 30140 40148 70522 83530 333 58000 70024 83618 83365==
41939,2024,12,22,03,00,AAXX 22034 41939 01457 50000 10180 20160 30152 40160 70522 82530 333 20150 59003 70024 82618 83365==
41939,2024,12,22,06,00,AAXX 22064 41939 01957 00000 10253 20170 30140 40148 70500 333 59003 70008==
41939,2024,12,22,09,00,AAXX 22094 41939 01957 00000 10255 20170 30123 40131 70500 333 59010 70008==
41939,2024,12,22,12,00,AAXX 22124 41939 01956 00000 10198 20180 30130 40138 70500 333 10262 59005 70000==
41939,2024,12,22,15,00,AAXX 22154 41939 01950 00000 10180 20170 30145 40153 70500 333 59006 70000==
41939,2024,12,22,18,00,AAXX 22184 41939 01940 00000 10170 20160 30155 40163 70500 333 59006 70000==
41939,2024,12,22,21,00,AAXX 22214 41939 01940 00000 10160 20150 30148 40156 70500 333 59002 70000==
41939,2024,12,23,00,00,AAXX 23004 41939 01940 00000 10148 20140 30141 40150 70500 333 58001 70000==
41939,2024,12,23,03,00,AAXX 23034 41939 01957 00000 10195 20170 30167 40175 70500 333 20138 58015 70000==
41939,2024,12,23,06,00,AAXX 23064 41939 01957 00000 10260 20150 30142 40150 70500 333 58002 70000==
41939,2024,12,23,09,00,AAXX 23094 41939 42956 00000 10253 20160 30123 40131 58000==
41939,2024,12,23,12,00,AAXX 23124 41939 01956 00000 10185 20150 30128 40136 70500 333 10260 59002 70000==
41939,2024,12,23,15,00,AAXX 23154 41939 01950 00000 10162 20140 30141 40149 70500 333 59004 70000==
41939,2024,12,24,00,00,AAXX 24004 41939 01940 00000 10133 20133 30150 40158 70500 333 58009 70000==
41939,2024,12,24,03,00,AAXX 24034 41939 01957 00000 10185 20170 30164 40172 70500 333 20130 59003 70000==
41939,2024,12,24,06,00,AAXX 24064 41939 01957 00000 10262 20140 30140 40148 70500 333 59002 70000==
41939,2024,12,24,09,00,AAXX 24094 41939 01956 00000 10250 20160 30122 40130 70500 333 59001 70000==
41939,2024,12,24,12,00,AAXX 24124 41939 01956 00000 10192 20170 30129 40137 70500 333 10262 58001 70000==
41939,2024,12,24,15,00,AAXX 24154 41939 01950 00000 10175 20160 30142 40151 70500 333 58001 70000==
41939,2024,12,24,18,00,AAXX 24184 41939 01950 00000 10162 20160 30155 40163 70500 333 58000 70000==
41939,2024,12,25,03,00,AAXX 25034 41939 01957 30000 10198 20180 30170 40178 70511 82530 333 20154 58006 70000 82618==
41939,2024,12,25,06,00,AAXX 25064 41939 01457 60000 10232 20130 30146 40154 70522 83510 333 58006 70000 83618 86459==
41939,2024,12,25,09,00,AAXX 25094 41939 01456 70000 10243 20150 30148 40156 70522 82510 333 58026 70000 82618 87459==
41939,2024,12,25,12,00,AAXX 25124 41939 01450 50000 10200 20170 30153 40161 70522 83530 333 10245 58024 70000 83617 83364==
41939,2024,12,25,18,00,AAXX 25184 41939 01440 40000 10165 20150 30170 40178 70500 82530 333 58015 70000==
41939,2024,12,26,03,00,AAXX 26034 41939 01956 00000 10185 20170 30199 40207 70500 333 20148 58029 70000==
41939,2024,12,26,06,00,AAXX 26064 41939 01957 00000 10262 20170 30178 40186 70500 333 58032 70000==
41939,2024,12,26,09,00,AAXX 26094 41939 01957 00000 10270 20160 30159 40167 70500 333 58011 70000==
41939,2024,12,26,12,00,AAXX 26124 41939 01956 00000 10205 20170 30165 40173 70500 333 10272 58012 70000==
41939,2024,12,26,15,00,AAXX 26154 41939 01950 00000 10183 20160 30178 40186 70500 333 58013 70000==
41939,2024,12,26,18,00,AAXX 26184 41939 01950 00000 10165 20160 30185 40193 70500 333 58015 70000==
41941,2024,12,20,00,00,AAXX 20004 41941 01940 00000 10156 20156 30129 40135 70500 333 59009 70000==
41941,2024,12,20,03,00,AAXX 20034 41941 01450 60000 10186 20170 30142 40148 70520 84520 333 20154 59014 70000 84616 86458==
41941,2024,12,20,06,00,AAXX 20064 41941 02956 03603 10256 20180 30126 40132 333 59027 70000==
41941,2024,12,20,09,00,AAXX 20094 41941 02456 72702 10250 20160 30103 40109 85420 333 59015 70000 84616 87458==
41941,2024,12,20,12,00,AAXX 20124 41941 01440 70000 10197 20160 30110 40116 70522 85420 333 10274 59012 70000 84616 87458==
41941,2024,12,20,15,00,AAXX 20154 41941 01440 70000 10194 20170 30120 40126 70522 85420 333 59012 70000 84616 87458==
41941,2024,12,20,18,00,AAXX 20184 41941 01420 70000 10180 20170 30126 40132 71022 85420 333 58005 70000 83616 87458==
41941,2024,12,21,00,00,AAXX 21004 41941 01420 73603 10160 20160 30122 40128 71022 85420 333 59007 70000 84616 87458==
41941,2024,12,21,03,00,AAXX 21034 41941 01450 83602 10195 20180 30143 40149 70522 8632/ 333 20158 58001 70000 85616 88458 81928==
41941,2024,12,21,06,00,AAXX 21064 41941 11340 82102 10206 20190 30139 40144 60002 70262 8662/ 333 58013 83708 84612 88457==
41941,2024,12,21,09,00,AAXX 21094 41941 01340 80000 10210 20190 30125 40130 70262 8662/ 333 58022 70010 83708 84612 88457==
41941,2024,12,21,12,00,AAXX 21124 41941 01340 80000 10200 20190 30122 40127 70262 8662/ 333 10214 58012 70014 83708 84612 88457==
41941,2024,12,21,15,00,AAXX 21154 41941 01450 40000 10190 20180 30144 40149 70522 83520 333 58024 70014 83614 84458==
41941,2024,12,21,18,00,AAXX 21184 41941 01902 00000 10170 20170 30140 40146 74642 333 58014 70000==
41941,2024,12,21,21,00,AAXX 21214 41941 31904 00000 10168 20160 30138 40144 74444 333 58021 70014=
41941,2024,12,21,23,00,AAXX 21234 41941 01904 00000 10168 20160 30138 40144 74444 333 58021 70014==
41941,2024,12,22,00,00,AAXX 22004 41941 01908 00000 10164 20164 30139 40145 74244 333 58017 70014==
41941,2024,12,22,03,00,AAXX 22034 41941 01950 03103 10190 20170 30164 40170 70544 333 20158 58021 70014==
41941,2024,12,22,06,00,AAXX 22064 41941 02956 03602 10235 20160 30151 40156 333 58012 70000==
41941,2024,12,22,09,00,AAXX 22094 41941 02956 03602 10262 20170 30120 40125 333 59005 70000==
41941,2024,12,22,12,00,AAXX 22124 41941 02950 03602 10208 20180 30122 40127 333 10274 58000 70000==
41941,2024,12,22,15,00,AAXX 22154 41941 02950 00000 10185 20170 30142 40147 333 59002 70000==
41941,2024,12,22,21,00,AAXX 22214 41941 01940 03602 10175 20160 30132 40138 70500 333 59006 70000==
41941,2024,12,23,00,00,AAXX 23004 41941 01940 03602 10164 20164 30124 40130 70500 333 59015 70000==
41941,2024,12,23,03,00,AAXX 23034 41941 02956 03601 10185 20180 30164 40170 333 20160 58000 70000==
41941,2024,12,23,06,00,AAXX 23064 41941 02956 03602 10251 20160 30146 40151 333 59005 70000==
41941,2024,12,23,09,00,AAXX 23094 41941 02956 03601 10268 20110 30123 40128 333 58003 70000==
41941,2024,12,23,12,00,AAXX 23124 41941 01950 00000 10195 20140 30126 40131 70500 333 10273 58004 70000==
41941,2024,12,23,15,00,AAXX 23154 41941 01940 00000 10179 20160 30137 40143 70500 333 59005 70000==
41941,2024,12,23,18,00,AAXX 23184 41941 01940 00000 10175 20170 30135 40141 70500 333 59002 70000==
41941,2024,12,24,00,00,AAXX 24004 41941 01940 03601 10168 20160 30137 40143 70500 333 58013 70000==
41941,2024,12,24,03,00,AAXX 24034 41941 01940 03602 10205 20170 30157 40163 70500 333 20161 58006 70000==
41941,2024,12,24,06,00,AAXX 24064 41941 02956 03603 10250 20160 30143 40149 333 59003 70000==
41941,2024,12,24,09,00,AAXX 24094 41941 02956 03602 10260 20140 30114 40120 333 59009 70000==
41941,2024,12,24,12,00,AAXX 24124 41941 02940 03601 10204 20170 30119 40125 333 10266 59007 70000==
41941,2024,12,24,15,00,AAXX 24154 41941 01930 03601 10184 20170 30125 40131 70500 333 59012 70000==
41941,2024,12,24,18,00,AAXX 24184 41941 01920 00000 10175 20170 30132 40138 71000 333 59003 70000==
41941,2024,12,25,03,00,AAXX 25034 41941 01420 73602 10196 20180 30171 40177 71022 85420 333 20165 58014 70000 84616 87458==
41941,2024,12,25,06,00,AAXX 25064 41941 02456 63303 10236 20140 30165 40170 82520 333 58022 70000 82616 86458==
41941,2024,12,25,09,00,AAXX 25094 41941 02456 53602 10245 20140 30143 40148 82530 333 58029 70000 82616 85362==
41941,2024,12,25,12,00,AAXX 25124 41941 01450 50000 10208 20160 30146 40151 70522 82530 333 10251 58027 70000 82616 84362==
41941,2024,12,25,18,00,AAXX 25184 41941 01/50 43602 10183 20160 30169 40174 70522 84030 333 58037 70000 84362==
41941,2024,12,26,03,00,AAXX 26034 41941 02956 03602 10215 20170 30196 40201 333 20173 58025 70000==
41941,2024,12,26,06,00,AAXX 26064 41941 02956 03604 10260 20170 30188 40194 333 58024 70000==
41941,2024,12,26,09,00,AAXX 26094 41941 02956 03603 10276 20150 30174 40174 333 58026 70000==
41941,2024,12,26,12,00,AAXX 26124 41941 02950 03601 10218 20180 30159 40165 333 10285 58013 70000==
41941,2024,12,26,15,00,AAXX 26154 41941 01950 03602 10202 20170 30177 40183 70500 333 58010 70000==
41941,2024,12,26,18,00,AAXX 26184 41941 NIL=
41943,2024,12,20,00,00,AAXX 20004 41943 01430 40000 10125 20120 30120 40128 70522 81530 333 59016 70000 81618 83362==
41943,2024,12,20,03,00,AAXX 20034 41943 01435 40000 10200 20150 30144 40151 70522 82530 333 20125 59009 70000 82618 83362==
41943,2024,12,20,06,00,AAXX 20064 41943 01440 43103 10272 20120 30130 40137 70522 82530 333 59008 70000 82618 83362==
41943,2024,12,20,09,00,AAXX 20094 41943 01440 43104 10275 20140 30110 40117 70522 82530 333 59004 70000 82617 83362==
41943,2024,12,20,12,00,AAXX 20124 41943 01430 40000 10190 20150 30112 40120 70522 82530 333 10282 59004 70000 82618 83362==
41943,2024,12,20,15,00,AAXX 20154 41943 01430 80000 10175 20160 30124 40132 70522 8662/ 333 59006 70000 83710 84615 88458==
41943,2024,12,20,18,00,AAXX 20184 41943 01430 80000 10163 20150 30126 40134 70522 8662/ 333 59004 70000 83710 84615 88458==
41943,2024,12,20,21,00,AAXX 20214 41943 01430 80000 10162 20150 30121 40129 70522 8762/ 333 58003 70000 84709 84615 88458==
41943,2024,12,21,00,00,AAXX 21004 41943 01430 80000 10162 20150 30122 40130 70522 8762/ 333 58002 70000 84709 84615 88458==
41943,2024,12,21,03,00,AAXX 21034 41943 01330 83603 10183 20160 30149 40157 70522 8762/ 333 20160 58005 70000 84709 84615 88458==
41943,2024,12,21,06,00,AAXX 21064 41943 01430 83302 10210 20160 30136 40144 70522 8762/ 333 58006 70000 84709 84615 88458==
41943,2024,12,21,09,00,AAXX 21094 41943 01343 80000 10210 20160 30124 40132 70522 8762/ 333 58014 70000 84709 84615 88458==
41943,2024,12,21,12,00,AAXX 21124 41943 01430 80000 10195 20170 30124 40132 70522 8662/ 333 10222 58012 70000 83710 84615 88458==
41943,2024,12,21,15,00,AAXX 21154 41943 01430 80000 10178 20160 30143 40151 70522 8662/ 333 58019 70000 83710 84615 88458==
41943,2024,12,21,18,00,AAXX 21184 41943 01930 00000 10172 20160 30142 40150 70500 333 58016 70000==
41943,2024,12,21,21,00,AAXX 21214 41943 01430 80000 10147 20140 30138 40146 70522 8662/ 333 58017 70000 83710 84615 88458==
41943,2024,12,22,00,00,AAXX 22004 41943 01430 80000 10140 20130 30134 40142 70522 8662/ 333 58012 70000 83710 84615 88458==
41943,2024,12,22,03,00,AAXX 22034 41943 01435 43302 10183 20140 30155 40163 70522 82530 333 20136 58006 70000 82618 83362==
41943,2024,12,22,06,00,AAXX 22063 41943 01440 43101 10260 20120 30144 40151 70522 82530 333 58008 70000 82618 83362==
41943,2024,12,22,09,00,AAXX 22094 41943 01940 03302 10275 20090 30113 40120 70500 333 59011 70000==
41943,2024,12,22,12,00,AAXX 22124 41943 01930 00000 10205 20160 30117 40125 70500 333 10288 59007 70000==
41943,2024,12,22,15,00,AAXX 22154 41943 01930 00000 10162 20150 30141 40149 70500 333 59002 70000==
41943,2024,12,22,18,00,AAXX 22183 41943 01930 00000 10148 20140 30136 40144 70500 333 59006 70000==
41943,2024,12,22,21,00,AAXX 22214 41943 01930 00000 10134 20120 30132 40140 70500 333 59006 70000==
41943,2024,12,23,00,00,AAXX 23004 41943 01930 00000 10125 20120 30129 40137 70500 333 59005 70000==
41943,2024,12,23,03,00,AAXX 23033 41943 01940 00000 10185 20160 30154 40162 70500 333 20125 59001 70000==
41943,2024,12,23,06,00,AAXX 23064 41943 01940 00703 10265 20120 30141 40148 70500 333 59003 70000==
41943,2024,12,23,09,00,AAXX 23094 41943 01940 03105 10285 20090 30113 40120 70500 333 58000 70000==
41943,2024,12,23,12,00,AAXX 23124 41943 01930 00000 10193 20140 30127 40134 70500 333 10295 58010 70000==
41943,2024,12,23,15,00,AAXX 23154 41943 01930 00000 10175 20160 30132 40140 70500 333 59009 70000==
41943,2024,12,23,18,00,AAXX 23184 41943 01930 00000 10164 20150 30135 40143 70500 333 59001 70000==
41943,2024,12,23,21,00,AAXX 23214 41943 01930 00000 10150 20140 30135 40143 70500 333 58003 70000==
41943,2024,12,24,00,00,AAXX 24004 41943 01930 00000 10115 20115 30135 40143 70500 333 58006 70000==
41943,2024,12,24,03,00,AAXX 24034 41943 01940 03302 10200 20140 30159 40167 70500 333 20115 58005 70000==
41943,2024,12,24,06,00,AAXX 24064 41943 01940 03303 10270 20100 30138 40145 70500 333 59003 70000==
41943,2024,12,24,09,00,AAXX 24094 41943 01450 12903 10274 20100 30115 40122 70500 81500 333 58002 70000 81618==
41943,2024,12,24,12,00,AAXX 24124 41943 01/45 50000 10200 20150 30119 40126 70510 85050 333 10288 59008 70000 85362==
41943,2024,12,24,15,00,AAXX 24154 41943 01940 00000 10172 20150 30139 40147 70500 333 58007 70000==
41943,2024,12,24,18,00,AAXX 24184 41943 01940 00000 10170 20150 30148 40156 70500 333 58013 70000==
41943,2024,12,25,03,00,AAXX 25034 41943 01440 80000 10198 20150 30171 40179 70522 8252/ 333 20157 58012 70000 82618 88460==
41943,2024,12,25,06,00,AAXX 25064 41943 01/40 72902 10252 20120 30161 40168 70522 87070 333 58023 70000 83460 85362==
41943,2024,12,25,09,00,AAXX 25094 41943 01445 63103 10258 20120 30140 40147 70522 82530 333 58025 70000 82618 85362==
41943,2024,12,25,12,00,AAXX 25124 41943 01/40 43202 10200 20160 30145 40153 70522 84030 333 10282 58026 70000 84362==
41943,2024,12,25,18,00,AAXX 25184 41943 01435 53602 10168 20160 30170 40178 70522 82530 333 58022 70000 82618 84362==
41943,2024,12,26,03,00,AAXX 26034 41943 01/35 23602 10217 20150 30190 40198 70521 82010 333 20160 58019 70000 82460==
41943,2024,12,26,06,00,AAXX 26063 41943 01945 00202 10278 20130 30177 40184 70521 333 58016 70000==
41943,2024,12,26,09,00,AAXX 26094 41943 01950 03203 10288 20120 30150 40157 70500 333 58010 70000==
41943,2024,12,26,12,00,AAXX 26124 41943 01940 00000 10205 20160 30153 40161 70500 333 10300 58008 70000==
41943,2024,12,26,15,00,AAXX 26154 41943 01930 00000 10175 20150 30111 40118 70500 333 59006 70000==
41943,2024,12,26,18,00,AAXX 26184 41943 01935 03602 10165 20150 30171 40179 70500 333 58001 70000==
41944,2024,12,20,00,00,AAXX 20004 41944 NIL=
41944,2024,12,20,03,00,AAXX 20034 41944 NIL=
41944,2024,12,20,06,00,AAXX 20064 41944 NIL=
41944,2024,12,21,03,00,AAXX 21034 41944 NIL=
41944,2024,12,21,09,00,AAXX 21094 41944 NIL=
41944,2024,12,21,12,00,AAXX 21124 41944 NIL=
41944,2024,12,21,18,00,AAXX 21184 41944 NIL=
41944,2024,12,21,21,00,AAXX 21214 41944 NIL=
41944,2024,12,22,00,00,AAXX 22004 41944 NIL=
41944,2024,12,22,06,00,AAXX 22064 41944 NIL=
41944,2024,12,22,09,00,AAXX 22094 41944 NIL=
41944,2024,12,22,12,00,AAXX 22124 41944 NIL=
41944,2024,12,22,15,00,AAXX 22154 41944 NIL=
41944,2024,12,23,00,00,AAXX 23004 41944 NIL=
41944,2024,12,23,03,00,AAXX 23034 41944 NIL=
41944,2024,12,23,12,00,AAXX 23124 41944 NIL=
41944,2024,12,24,03,00,AAXX 24034 41944 NIL=
41944,2024,12,24,06,00,AAXX 24064 41944 NIL=
41944,2024,12,24,09,00,AAXX 24094 41944 NIL=
41944,2024,12,25,09,00,AAXX 25094 41944 NIL=
41944,2024,12,25,12,00,AAXX 25124 41944 NIL=
41944,2024,12,25,18,00,AAXX 25184 41944 NIL=
41944,2024,12,26,15,00,AAXX 26154 41944 NIL=
41944,2024,12,26,18,00,AAXX 26184 41944 NIL=
41946,2024,12,20,00,00,AAXX 20004 41946 01940 00000 10154 20140 30133 40138 70500 333 59015 70000==
41946,2024,12,20,03,00,AAXX 20034 41946 01550 60000 10204 20140 30157 40162 70520 82531 333 20148 59012 70000 82620 83362==
41946,2024,12,20,06,00,AAXX 20064 41946 02/56 43604 10240 20150 30141 40146 84030 333 59016 70000 84362==
41946,2024,12,20,09,00,AAXX 20094 41946 02556 50000 10258 20150 30118 40123 82530 333 59007 70000 82620 85362==
41946,2024,12,20,12,00,AAXX 20124 41946 02456 60000 10228 20180 30120 40125 82520 333 10262 59003 70000 82618 86460==
41946,2024,12,20,15,00,AAXX 20154 41946 02456 80000 10205 20190 30136 40141 8352/ 333 59004 70000 83618 88460==
41946,2024,12,20,18,00,AAXX 20184 41946 02456 80000 10205 20180 30111 40116 8452/ 333 59030 70000 84618 88460==
41946,2024,12,21,00,00,AAXX 21004 41946 41340 80000 10190 20170 30133 40138 76062 8572/ 333 58000 82710 84617 88459==
41946,2024,12,21,03,00,AAXX 21034 41946 01356 80000 10200 20180 30154 40159 76166 8572/ 333 20185 59003 70010 82710 84617 88459==
41946,2024,12,21,06,00,AAXX 21064 41946 21350 80000 10215 20180 30145 40150 76166 8572/ 333 58004 60029 70018 82710 84617 88459==
41946,2024,12,21,09,00,AAXX 21094 41946 01350 80000 10206 20190 30140 40145 76166 8572/ 333 58022 70038 82710 84617 88458==
41946,2024,12,21,12,00,AAXX 21124 41946 21450 70000 10196 20190 30138 40143 70562 84570 333 10230 58018 60038 70048 84618 85459==
41946,2024,12,21,15,00,AAXX 21154 41946 01450 50000 10186 20180 30153 40158 70522 83520 333 58017 70048 83618 85460==
41946,2024,12,21,18,00,AAXX 21184 41946 NIL=
41946,2024,12,21,21,00,AAXX 21214 41946 31940 00000 10180 20170 30139 40144 70500 333 58024 70048=
41946,2024,12,21,23,00,AAXX 21234 41946 01940 00000 10180 20170 30139 40144 70500 333 58024 70048==
41946,2024,12,22,00,00,AAXX 22004 41946 01920 00000 10175 20160 30146 40151 71000 333 58013 70048==
41946,2024,12,22,03,00,AAXX 22034 41946 01950 00000 10205 20170 30173 40178 70540 333 20168 58019 70038==
41946,2024,12,22,06,00,AAXX 22064 41946 01956 00000 10230 20180 30162 40167 70040 333 58017 70030==
41946,2024,12,22,09,00,AAXX 22094 41946 02956 00000 10258 20170 30130 40135 333 59010 70010==
41946,2024,12,22,12,00,AAXX 22124 41946 01950 00000 10218 20190 30135 40140 70500 333 10260 59003 70000==
41946,2024,12,22,15,00,AAXX 22154 41946 01940 00000 10188 20180 30151 40156 70500 333 59002 70000==
41946,2024,12,22,18,00,AAXX 22184 41946 01940 00000 10192 20170 30145 40150 70500 333 58003 70000==
41946,2024,12,22,21,00,AAXX 22214 41946 01940 00000 10184 20170 30135 40140 70500 333 59004 70000==
41946,2024,12,23,00,00,AAXX 23004 41946 01940 00000 10168 20160 30144 40149 70500 333 59002 70000==
41946,2024,12,23,03,00,AAXX 23034 41946 01950 00000 10210 20160 30168 40173 70500 333 20165 59005 70000==
41946,2024,12,23,06,00,AAXX 23064 41946 02956 03609 10255 20140 30157 40162 333 59005 70000==
41946,2024,12,23,09,00,AAXX 23094 41946 02956 03604 10267 20100 30129 40134 333 59001 70000==
41946,2024,12,23,12,00,AAXX 23124 41946 01950 00000 10212 20160 30130 40135 70500 333 10270 59005 70000==
41946,2024,12,23,15,00,AAXX 23154 41946 01950 00000 10180 20160 30147 40152 70500 333 59004 70000==
41946,2024,12,23,18,00,AAXX 23184 41946 01950 00000 10178 20160 30144 40149 70500 333 59001 70000==
41946,2024,12,24,00,00,AAXX 24004 41946 01950 30000 10187 20150 30149 40154 70500 80001 333 58005 70000 83080==
41946,2024,12,24,03,00,AAXX 24034 41946 02956 00000 10210 20150 30169 40174 333 20165 58001 70000==
41946,2024,12,24,06,00,AAXX 24064 41946 02956 33608 10245 20160 30158 40163 80001 333 58001 70000 83080==
41946,2024,12,24,09,00,AAXX 24094 41946 02956 30000 10256 20140 30127 40132 80001 333 59002 70000 83080==
41946,2024,12,24,12,00,AAXX 24124 41946 02956 30000 10210 20160 30133 40138 80001 333 10260 58003 70000 83080==
41946,2024,12,24,15,00,AAXX 24154 41946 01950 20000 10192 20160 30155 40160 70500 80001 333 58008 70000 82080==
41946,2024,12,24,18,00,AAXX 24184 41946 01450 80000 10194 20150 30158 40163 70520 8452/ 333 58014 70000 84618 88458==
41946,2024,12,25,03,00,AAXX 25034 41946 02456 80000 10215 20170 30189 40194 8452/ 333 20180 58020 70000 84618 88460==
41946,2024,12,25,06,00,AAXX 25064 41946 02456 80000 10240 20150 30178 40183 8432/ 333 58020 70000 83618 88460 81928==
41946,2024,12,25,09,00,AAXX 25094 41946 02456 70000 10248 20160 30152 40157 84570 333 58025 70000 84618 85460==
41946,2024,12,25,12,00,AAXX 25124 41946 01450 70000 10222 20170 30155 40160 70522 84570 333 10252 58022 70000 84618 85460==
41946,2024,12,25,18,00,AAXX 25184 41946 01450 50000 10204 20180 30181 40186 70522 82570 333 58023 70000 82618 84460==
41946,2024,12,26,03,00,AAXX 26034 41946 02/56 40000 10220 20140 30206 40211 84070 333 20175 58017 70000 83460==
41946,2024,12,26,06,00,AAXX 26064 41946 02956 30000 10255 20140 30202 40207 80001 333 58024 70000 83080==
41946,2024,12,26,09,00,AAXX 26094 41946 02956 00000 10272 20140 30165 40170 333 58013 70000==
41946,2024,12,26,12,00,AAXX 26124 41946 01950 00000 10218 20180 30173 40178 70500 333 10272 58018 70000==
41946,2024,12,26,15,00,AAXX 26154 41946 01950 00000 10190 20170 30187 40192 70500 333 58004 70000==
41946,2024,12,26,18,00,AAXX 26184 41946 01950 00000 10174 20160 30188 40193 70500 333 58007 70000==
41947,2024,12,20,00,00,AAXX 20004 41947 01950 00000 10152 20150 30129 40131 70500 333 59019 70000==
41947,2024,12,20,03,00,AAXX 20034 41947 01450 70000 10190 20170 30159 40161 70520 83570 333 20145 59007 70000 83618 86458==
41947,2024,12,20,06,00,AAXX 20064 41947 01450 70000 10253 20140 30137 40139 70522 83570 333 59011 70000 83618 86458==
41947,2024,12,20,09,00,AAXX 20094 41947 02450 50000 10268 20140 30118 40120 83510 333 59003 70000 83618 85459==
41947,2024,12,20,12,00,AAXX 20124 41947 01450 80000 10218 20170 30121 40123 70522 8352/ 333 10270 59005 70000 83618 88458==
41947,2024,12,20,15,00,AAXX 20154 41947 01950 80000 10217 20180 30138 40140 70522 8452/ 333 58000 70000 84618 88458==
41947,2024,12,20,18,00,AAXX 20184 41947 01940 80000 10200 20180 30133 40135 70522 8452/ 333 59009 70000 82612 88458==
41947,2024,12,21,00,00,AAXX 21004 41947 01440 80000 10190 20170 30135 40137 70500 8452/ 333 58006 70000 84618 88458==
41947,2024,12,21,03,00,AAXX 21034 41947 01350 80000 10195 20190 30155 40157 76162 8472/ 333 20185 59004 70002 81709 83616 88458==
41947,2024,12,21,06,00,AAXX 21064 41947 21350 80000 10213 20200 30145 40147 76162 8472/ 333 58008 60089 70008 81709 83616 88458==
41947,2024,12,21,09,00,AAXX 21094 41947 01350 80000 10210 20190 30133 40135 76062 8472/ 333 58015 70012 81709 83616 88458==
41947,2024,12,21,12,00,AAXX 21124 41947 01350 80000 10198 20190 30138 40140 76066 8572/ 333 10220 58012 70022 82709 84616 88458==
41947,2024,12,21,15,00,AAXX 21154 41947 01950 00000 10188 20180 30154 40156 70520 333 58016 70022==
41947,2024,12,21,18,00,AAXX 21184 41947 01940 00000 10176 20170 30152 40154 70520 333 58019 70022==
41947,2024,12,21,21,00,AAXX 21214 41947 31450 40000 10174 20160 30139 40141 70520 84500 333 56900 58005 70022 84618=
41947,2024,12,21,23,00,AAXX 21234 41947 01450 40000 10174 20160 30139 40141 70520 84500 333 58005 70022 84618==
41947,2024,12,22,00,00,AAXX 22004 41947 01450 60000 10178 20170 30146 40148 70522 83570 333 58011 70022 83618 85459==
41947,2024,12,22,03,00,AAXX 22034 41947 01950 00000 10200 20160 30168 40170 70500 333 20168 58013 70020==
41947,2024,12,22,06,00,AAXX 22064 41947 01950 00000 10242 20160 30156 40158 70500 333 58011 70014==
41947,2024,12,22,09,00,AAXX 22094 41947 02956 00000 10265 20160 30128 40130 333 59005 70010==
41947,2024,12,22,12,00,AAXX 22124 41947 02950 00000 10215 20180 30133 40135 333 10268 59005 70000==
41947,2024,12,22,15,00,AAXX 22154 41947 01950 00000 10194 20170 30144 40146 70500 333 59003 70000==
41947,2024,12,22,18,00,AAXX 22184 41947 01950 00000 10184 20160 30148 40150 70500 333 59004 70000==
41947,2024,12,22,21,00,AAXX 22214 41947 01950 00000 10175 20170 30150 40152 70500 333 58009 70000==
41947,2024,12,23,00,00,AAXX 23004 41947 01940 00000 10150 20150 30153 40155 70500 333 58007 70000==
41947,2024,12,23,03,00,AAXX 23034 41947 01950 00000 10200 20170 30169 40171 70500 333 20147 58001 70000==
41947,2024,12,23,06,00,AAXX 23064 41947 02956 03202 10256 20120 30155 40157 333 59001 70000==
41947,2024,12,23,09,00,AAXX 23094 41947 02956 00000 10270 20120 30125 40127 333 59008 70000==
41947,2024,12,23,12,00,AAXX 23124 41947 01950 00000 10215 20170 30127 40129 70500 333 10272 59006 70000==
41947,2024,12,23,15,00,AAXX 23154 41947 01950 00000 10190 20170 30143 40145 70500 333 59001 70000==
41947,2024,12,23,18,00,AAXX 23184 41947 01950 00000 10180 20170 30147 40149 70500 333 59001 70000==
41947,2024,12,24,00,00,AAXX 24004 41947 01950 00000 10178 20170 30140 40142 70500 333 59013 70000==
41947,2024,12,24,03,00,AAXX 24034 41947 01950 00000 10212 20160 30168 40170 70500 333 20160 59001 70000==
41947,2024,12,24,06,00,AAXX 24064 41947 01950 00000 10255 20140 30155 40157 70500 333 58000 70000==
41947,2024,12,24,09,00,AAXX 24094 41947 02450 60000 10257 20130 30125 40127 85470 333 58000 70000 82618 83824 85458==
41947,2024,12,24,12,00,AAXX 24124 41947 42450 20000 10266 20170 30131 40133 58004 82618==
41947,2024,12,24,15,00,AAXX 24154 41947 01450 30000 10195 20170 30151 40153 70522 83500 333 58008 70000 83618==
41947,2024,12,24,18,00,AAXX 24184 41947 01450 60000 10193 20170 30159 40461 70522 85370 333 58012 70000 83618 85458==
41947,2024,12,25,03,00,AAXX 25034 41947 01450 70000 10214 20160 30185 40187 70522 83570 333 20175 58017 70000 83618 86458==
41947,2024,12,25,06,00,AAXX 25064 41947 01450 80000 10250 20160 30172 40174 70522 83570 333 58017 70000 83618 88458==
41947,2024,12,25,09,00,AAXX 25094 41947 01450 72902 10248 20140 30153 40155 70522 83570 333 58028 70000 83618 85459==
41947,2024,12,25,12,00,AAXX 25124 41947 01450 80000 10220 20170 30152 40154 70522 8352/ 333 10263 58021 70000 83618 88459==
41947,2024,12,25,18,00,AAXX 25184 41947 01440 30000 10198 20190 30178 40180 70521 83500 333 58019 70000 83618==
41947,2024,12,26,03,00,AAXX 26034 41947 01/50 20000 10228 20150 30204 40206 70510 82030 333 20180 58019 70000 82362==
41947,2024,12,26,06,00,AAXX 26064 41947 02956 00000 10266 20150 30193 40195 333 58021 70000==
41947,2024,12,26,09,00,AAXX 26094 41947 02956 00000 10275 20150 30163 40165 333 58010 70000==
41947,2024,12,26,12,00,AAXX 26124 41947 02950 00000 10225 20160 30169 40171 333 10280 58017 70000==
41947,2024,12,26,15,00,AAXX 26154 41947 01950 00000 10200 20160 30181 40183 70500 333 58001 70000==
41947,2024,12,26,18,00,AAXX 26184 41947 01950 00000 10180 20160 30188 40190 70500 333 58010 70000==
41950,2024,12,20,00,00,AAXX 20004 41950 01920 20000 10138 20138 30128 40130 71011 80001 333 59011 70000 82080==
41950,2024,12,20,03,00,AAXX 20034 41950 01/35 50000 10203 20170 30152 40154 70521 83031 333 20135 59010 70000 83362 83080==
41950,2024,12,20,06,00,AAXX 20064 41950 01/45 40000 10257 20140 30134 40136 70521 83031 333 59011 70000 83362==
41950,2024,12,20,09,00,AAXX 20094 41950 01445 60000 10255 20130 30111 40113 70522 82531 333 59008 70000 82617 84362==
41950,2024,12,20,12,00,AAXX 20124 41950 01445 80000 10210 20180 30117 40119 70522 8452/ 333 10263 59008 70000 84617 88458==
41950,2024,12,20,15,00,AAXX 20154 41950 02450 80000 10200 20160 30133 40135 8452/ 333 59003 70000 84617 88458==
41950,2024,12,20,18,00,AAXX 20184 41950 21350 80000 10192 20170 30134 40136 70262 8562/ 333 59001 60005 82708 84616 88458==
41950,2024,12,20,21,00,AAXX 20214 41950 42450 80000 10187 20180 30128 40130 8452/ 333 58000 84616 88458==
41950,2024,12,21,00,00,AAXX 21004 41950 01340 80000 10183 20170 30131 40133 76122 8572/ 333 58003 70010 82708 84616 88458==
41950,2024,12,21,03,00,AAXX 21034 41950 01340 80000 10198 20180 30152 40154 70562 8562/ 333 20178 58000 70012 82708 84616 88458==
41950,2024,12,21,06,00,AAXX 21064 41950 01330 80000 10206 20200 30147 40149 76162 8572/ 333 58013 70022 82708 84616 88458==
41950,2024,12,21,09,00,AAXX 21094 41950 01330 80000 10206 20200 30125 40127 76166 8572/ 333 58014 70024 82708 84616 88458==
41950,2024,12,21,12,00,AAXX 21124 41950 21330 80000 10200 20190 30128 40130 76166 8572/ 333 10225 58011 69969 70028 82708 84616 88458==
41950,2024,12,21,15,00,AAXX 21154 41950 01330 80000 10190 20190 30153 40155 70566 8562/ 333 58020 70032 82708 84616 88458==
41950,2024,12,21,18,00,AAXX 21184 41950 11935 00000 10178 20178 30149 40151 69946 70562 333 58015 70032==
41950,2024,12,21,21,00,AAXX 21214 41950 01935 00000 10174 20170 30150 40152 70500 333 58022 70032==
41950,2024,12,22,00,00,AAXX 22004 41950 01435 30000 10170 20170 30145 40147 70510 82530 333 58014 70022 82617==
41950,2024,12,22,03,00,AAXX 22034 41950 01935 00000 10195 20180 30162 40164 70510 333 20164 58010 70000==
41950,2024,12,22,06,00,AAXX 22063 41950 01940 00000 10255 20170 30147 40149 70510 333 58000 70010==
41950,2024,12,22,09,00,AAXX 22094 41950 01950 00000 10271 20140 30122 40124 70500 333 59003 70000==
41950,2024,12,22,12,00,AAXX 22124 41950 01945 00000 10205 20180 30130 40132 70500 333 10271 58002 70000==
41950,2024,12,22,15,00,AAXX 22154 41950 01940 00000 10175 20175 30145 40147 70500 333 59008 70000==
41950,2024,12,22,18,00,AAXX 22183 41950 01930 00000 10163 20160 30145 40147 70500 333 59004 70000==
41950,2024,12,22,21,00,AAXX 22214 41950 01920 00000 10146 20146 30137 40139 71000 333 59013 70000==
41950,2024,12,23,00,00,AAXX 23004 41950 01915 00000 10142 20142 30134 40136 71000 333 59011 70000==
41950,2024,12,23,03,00,AAXX 23033 41950 01920 00000 10193 20160 30166 40168 71000 333 20135 58004 70000==
41950,2024,12,23,06,00,AAXX 23064 41950 01945 03602 10260 20100 30145 40147 70500 333 59002 70000==
41950,2024,12,23,09,00,AAXX 23094 41950 01945 00000 10270 20110 30122 40124 70500 333 58000 70000==
41950,2024,12,23,12,00,AAXX 23124 41950 01945 00000 10200 20160 30126 40128 70500 333 10272 59004 70000==
41950,2024,12,23,15,00,AAXX 23154 41950 01945 00000 10166 20160 30144 40146 70500 333 59001 70000==
41950,2024,12,23,18,00,AAXX 23184 41950 01935 00000 10156 20156 30144 40146 70500 333 59001 70000==
41950,2024,12,23,21,00,AAXX 23214 41950 01435 40000 10167 20160 30140 40142 70500 83530 333 58003 70000 83617==
41950,2024,12,24,00,00,AAXX 24004 41950 01335 80000 10168 20160 30141 40143 70520 8562/ 333 58007 70000 82708 84617 88459==
41950,2024,12,24,03,00,AAXX 24034 41950 01/40 30000 10248 20210 30165 40167 70522 83030 333 20146 59007 70000 83362==
41950,2024,12,24,06,00,AAXX 24064 41950 01945 00000 10264 20140 30145 40147 70520 333 58000 70000==
41950,2024,12,24,09,00,AAXX 24094 41950 02/50 20000 10275 20150 30121 40123 82031 333 59001 70000 82362==
41950,2024,12,24,12,00,AAXX 24124 41950 01/45 20000 10215 20170 30130 40132 70520 82031 333 10276 58004 70000 82362==
41950,2024,12,24,15,00,AAXX 24154 41950 01945 00000 10182 20170 30147 40149 70500 333 58003 70000==
41950,2024,12,24,18,00,AAXX 24184 41950 01440 60000 10184 20170 30156 40158 70521 83510 333 58012 70000 83617 86459==
41950,2024,12,25,03,00,AAXX 25034 41950 01435 70000 10195 20160 30179 40181 70522 84510 333 20171 58014 70000 84617 87459==
41950,2024,12,25,06,00,AAXX 25064 41950 01440 60000 10252 20130 30166 40168 70522 83531 333 58021 70000 83617 83362==
41950,2024,12,25,09,00,AAXX 25094 41950 01335 70000 10250 20130 30143 40145 70522 333 58022 70000 81708 83617 85459==
41950,2024,12,25,12,00,AAXX 25124 41950 01435 60000 10202 20160 30152 40154 70522 333 10256 58022 70000 83617 84459==
41950,2024,12,25,18,00,AAXX 25184 41950 01435 70000 10190 20170 30175 40177 70521 83510 333 58019 70000 83617 87459==
41950,2024,12,26,03,00,AAXX 26034 41950 01940 00000 10217 20160 30197 40199 70511 333 20172 58018 70000==
41950,2024,12,26,06,00,AAXX 26063 41950 01945 00000 10270 20130 30187 40189 70510 333 58021 70000==
41950,2024,12,26,09,00,AAXX 26094 41950 02950 00000 10282 20110 30159 40161 333 58016 70000==
41950,2024,12,26,12,00,AAXX 26124 41950 02950 00000 10215 20180 30164 40166 333 10286 58012 70000==
41950,2024,12,26,15,00,AAXX 26154 41950 01940 00000 10183 20160 30180 40182 70500 333 58005 70000==
41950,2024,12,26,18,00,AAXX 26184 41950 01940 00000 10167 20160 30177 40179 70500 333 58002 70000==
41951,2024,12,20,00,00,AAXX 20004 41951 01425 60000 10135 20135 30121 40126 71022 83510 333 59014 70000 83618 85459==
41951,2024,12,20,03,00,AAXX 20034 41951 01440 70000 10228 20170 30141 40146 70522 83510 333 20128 59007 70000 83618 86458==
41951,2024,12,20,06,00,AAXX 20064 41951 01440 70502 10260 20150 30124 40129 70522 83510 333 59016 70000 83618 86458==
41951,2024,12,20,09,00,AAXX 20094 41951 01440 60000 10258 20140 30110 40115 70522 83510 333 59001 70000 83618 85459==
41951,2024,12,20,12,00,AAXX 20124 41951 01440 60000 10195 20190 30115 40120 70522 83510 333 10272 59005 70000 83618 85459==
41951,2024,12,20,15,00,AAXX 20154 41951 01440 80000 10190 20180 30128 40133 70522 8452/ 333 58000 70000 84618 88458==
41951,2024,12,20,18,00,AAXX 20184 41951 01440 80000 10188 20180 30117 40122 70522 8452/ 333 59013 70000 84618 88458==
41951,2024,12,21,00,00,AAXX 21004 41951 01340 80000 10180 20180 30119 40124 76162 8672/ 333 59002 70010 82706 84616 88458==
41951,2024,12,21,03,00,AAXX 21034 41951 01340 80000 10201 20190 30142 40147 70522 8562/ 333 20175 58001 70014 81708 84618 88458==
41951,2024,12,21,06,00,AAXX 21064 41951 11340 80000 10210 20190 30130 40135 69992 76162 8672/ 333 58006 70023 82706 84618 88458==
41951,2024,12,21,09,00,AAXX 21094 41951 01340 80000 10215 20190 30116 40121 76122 8672/ 333 58006 70028 82706 84616 88456==
41951,2024,12,21,12,00,AAXX 21124 41951 21340 80000 10195 20190 30121 49955 70562 8562/ 333 10220 58006 69955 70028 81708 84616 88456==
41951,2024,12,21,15,00,AAXX 21154 41951 01440 80000 10190 20180 30146 40151 70522 8452/ 333 58018 70028 84618 88458==
41951,2024,12,21,18,00,AAXX 21184 41951 01440 30000 10175 20170 30137 40142 70520 83500 333 58020 70028 83618==
41951,2024,12,21,21,00,AAXX 21214 41951 31440 20000 10173 20170 30134 40139 70500 82500 333 56900 58018 70028 82618=
41951,2024,12,21,23,00,AAXX 21234 41951 01440 20000 10173 20170 30134 40139 70500 82500 333 58018 70028 82618==
41951,2024,12,22,00,00,AAXX 22004 41951 01408 20000 10176 20176 30131 40136 74200 82500 333 58012 70014 82618==
41951,2024,12,22,03,00,AAXX 22034 41951 01940 03502 10197 20180 30151 40156 70540 333 20165 58009 70014==
41951,2024,12,22,06,00,AAXX 22064 41951 01956 03504 10250 20150 30137 40142 70040 333 58007 70005==
41951,2024,12,22,09,00,AAXX 22094 41951 02956 03502 10271 20140 30113 40118 333 59003 70000==
41951,2024,12,22,12,00,AAXX 22124 41951 01940 00000 10200 20180 30121 40126 70500 333 10275 58000 70000==
41951,2024,12,22,15,00,AAXX 22154 41951 01940 00000 10170 20160 30139 40144 70500 333 59007 70000==
41951,2024,12,22,18,00,AAXX 22184 41951 01940 00000 10166 20160 30130 40135 70500 333 59007 70000==
41951,2024,12,22,21,00,AAXX 22214 41951 01925 00000 10152 20150 30129 40134 71000 333 59005 70000==
41951,2024,12,23,00,00,AAXX 23004 41951 01925 00000 10140 20140 30127 40132 71000 333 59004 70000==
41951,2024,12,23,03,00,AAXX 23034 41951 01940 00000 10184 20180 30150 40155 70500 333 20137 59001 70000==
41951,2024,12,23,06,00,AAXX 23064 41951 01940 00504 10264 20140 30136 40141 70500 333 59001 70000==
41951,2024,12,23,09,00,AAXX 23094 41951 01940 00502 10268 20120 30112 40117 70500 333 59001 70000==
41951,2024,12,23,12,00,AAXX 23124 41951 01940 00000 10185 20160 30116 40121 70500 333 10272 59005 70000==
41951,2024,12,23,15,00,AAXX 23154 41951 01940 00000 10158 20150 30136 40141 70500 333 59003 70000==
41951,2024,12,23,18,00,AAXX 23184 41951 01940 00000 10150 20140 30134 40139 70500 333 58004 70000==
41951,2024,12,24,00,00,AAXX 24004 41951 01340 80000 10164 20160 30132 40137 70520 8562/ 333 58005 70000 81709 84616 88458==
41951,2024,12,24,03,00,AAXX 24034 41951 01440 70000 10182 20170 30153 40158 70522 83510 333 20135 58003 70000 83618 86459==
41951,2024,12,24,06,00,AAXX 24064 41951 01940 00502 10264 20130 30135 40140 70520 333 59001 70000==
41951,2024,12,24,09,00,AAXX 24094 41951 01440 30000 10262 20130 30110 40115 70500 83500 333 59002 70000 83618==
41951,2024,12,24,12,00,AAXX 24124 41951 01940 00000 10206 20180 30120 40125 70500 333 10266 58004 70000==
41951,2024,12,24,15,00,AAXX 24154 41951 01940 00000 10178 20170 30138 40143 70500 333 58002 70000==
41951,2024,12,24,18,00,AAXX 24184 41951 01440 60000 10180 20170 30144 40149 70500 83510 333 58010 70000 83618 85458==
41951,2024,12,25,03,00,AAXX 25034 41951 01340 80000 10190 20170 30164 40169 70522 8562/ 333 20165 58011 70000 81709 84618 88458==
41951,2024,12,25,06,00,AAXX 25064 41951 01440 60502 10258 20140 30158 40163 70522 83510 333 58023 70000 83618 85459==
41951,2024,12,25,09,00,AAXX 25094 41951 01440 70000 10245 20170 30137 40142 70522 83510 333 58027 70000 83618 86458==
41951,2024,12,25,12,00,AAXX 25124 41951 01440 70000 10200 20170 30147 40152 70522 83510 333 10261 58027 70000 83618 86458==
41951,2024,12,25,18,00,AAXX 25184 41951 01440 60000 10180 20170 30163 40168 70522 83510 333 58019 70000 83618 85458==
41951,2024,12,26,03,00,AAXX 26034 41951 01940 03102 10225 20160 30187 40192 70520 333 20160 58023 70000==
41951,2024,12,26,06,00,AAXX 26064 41951 02956 00000 10274 20150 30177 40182 333 58019 70000==
41951,2024,12,26,09,00,AAXX 26094 41951 02956 00000 10280 20140 30152 40157 333 58015 70000==
41951,2024,12,26,12,00,AAXX 26124 41951 01940 00000 10205 20180 30156 40161 70500 333 10287 58009 70000==
41951,2024,12,26,15,00,AAXX 26154 41951 01940 00000 10175 20170 30172 40177 70500 333 58011 70000==
41951,2024,12,26,18,00,AAXX 26184 41951 01940 00000 10158 20150 30168 40173 70500 333 58005 70000==
41953,2024,12,20,00,00,AAXX 20004 41953 01/20 40000 10155 20150 30125 40130 71022 84030 333 59014 70000 84362==
41953,2024,12,20,03,00,AAXX 20034 41953 01430 50000 10220 20160 30147 40152 70522 82510 333 20152 59011 70000 82618 85458==
41953,2024,12,20,06,00,AAXX 20064 41953 01440 53003 10260 20090 30132 40137 70522 82510 333 59008 70000 82618 85458==
41953,2024,12,20,09,00,AAXX 20094 41953 01440 63003 10260 20120 30108 40113 70522 83510 333 59010 70000 83618 86458==
41953,2024,12,20,12,00,AAXX 20124 41953 01440 60000 10210 20160 30115 40120 70522 83510 333 10270 59005 70000 83618 86458==
41953,2024,12,20,15,00,AAXX 20154 41953 01440 80000 10205 20150 30126 40131 70522 8352/ 333 59007 70000 83616 88458==
41953,2024,12,20,18,00,AAXX 20184 41953 01440 80000 10202 20140 30132 40137 70522 8352/ 333 59001 70000 83616 88458==
41953,2024,12,21,00,00,AAXX 21004 41953 01430 80000 10190 20160 30120 40125 76122 8352/ 333 59005 70000 83616 88458==
41953,2024,12,21,03,00,AAXX 21034 41953 41430 80000 10195 20180 30151 40156 76166 8352/ 333 20186 58004 83616 88458==
41953,2024,12,21,06,00,AAXX 21064 41953 21430 80000 10215 20180 30140 40145 76166 8352/ 333 58008 60009 83616 88458==
41953,2024,12,21,09,00,AAXX 21094 41953 41435 80000 10215 20150 30124 40129 70522 8352/ 333 58016 83616 88458==
41953,2024,12,21,12,00,AAXX 21124 41953 41430 80000 10195 20170 30135 40140 71022 8352/ 333 10217 58020 83616 88458==
41953,2024,12,21,15,00,AAXX 21154 41953 41430 80000 10190 20180 30150 40155 71022 8352/ 333 58024 83616 88458==
41953,2024,12,21,18,00,AAXX 21184 41953 41430 20000 10180 20170 30143 40148 71021 82500 333 58011 82618==
41953,2024,12,21,21,00,AAXX 21214 41953 31425 23603 10176 20170 30132 40137 71011 82500 333 56900 58007 79999 82618=
41953,2024,12,21,23,00,AAXX 21234 41953 41425 23603 10176 20170 30132 40137 71011 82500 333 58007 82618==
41953,2024,12,22,00,00,AAXX 22004 41953 41430 20000 10168 20160 30138 40143 71011 83500 333 58018 82618==
41953,2024,12,22,03,00,AAXX 22034 41953 41430 23604 10195 20150 30160 40165 71011 82500 333 20166 58009 82618==
41953,2024,12,22,06,00,AAXX 22064 41953 41940 00504 10256 20110 30146 40151 70510 333 58006==
41953,2024,12,22,09,00,AAXX 22094 41953 NIL=
41953,2024,12,22,12,00,AAXX 22124 41953 01935 00000 10215 20150 30128 40133 70500 333 10272 59007 70000==
41953,2024,12,22,15,00,AAXX 22154 41953 01925 00000 10186 20170 30146 40151 71000 333 59004 70000==
41953,2024,12,22,18,00,AAXX 22184 41953 01925 00000 10184 20160 30136 40141 71000 333 59007 70000==
41953,2024,12,22,21,00,AAXX 22214 41953 01925 00000 10162 20150 30131 40136 71000 333 59001 70000==
41953,2024,12,23,00,00,AAXX 23004 41953 01925 00000 10155 20150 30136 40141 71000 333 59002 70000==
41953,2024,12,23,03,00,AAXX 23034 41953 01930 00000 10190 20150 30158 40163 71000 333 20153 59002 70000==
41953,2024,12,23,06,00,AAXX 23064 41953 01940 03604 10260 20120 30146 40151 70500 333 58000 70000==
41953,2024,12,23,09,00,AAXX 23094 41953 01940 03603 10266 20080 30121 40126 70500 333 58003 70000==
41953,2024,12,23,12,00,AAXX 23124 41953 01935 00000 10210 20120 30120 40125 70500 333 10268 59008 70000==
41953,2024,12,23,15,00,AAXX 23154 41953 01930 00000 10175 20150 30140 40145 71000 333 59006 70000==
41953,2024,12,24,00,00,AAXX 24004 41953 01930 00000 10150 20150 30138 40144 71000 333 58002 70000==
41953,2024,12,24,03,00,AAXX 24034 41953 01930 00000 10200 20160 30162 40167 71000 333 20148 58004 70000==
41953,2024,12,24,06,00,AAXX 24064 41953 01940 03603 10256 20120 30150 40155 70500 333 58004 70000==
41953,2024,12,24,09,00,AAXX 24094 41953 01440 30000 10256 20110 30117 40122 70520 83500 333 59004 70000 83618==
41953,2024,12,24,12,00,AAXX 24124 41953 01435 30000 10215 20180 30124 40129 70522 83500 333 10268 58004 70000 83618==
41953,2024,12,24,15,00,AAXX 24154 41953 01930 00000 10200 20180 30144 40149 71020 333 58004 70000==
41953,2024,12,24,18,00,AAXX 24184 41953 01930 00000 10190 20150 30152 40157 71000 333 58011 70000==
41953,2024,12,25,03,00,AAXX 25034 41953 01430 60000 10200 20160 30168 40173 71021 83510 333 20182 58006 70000 83616 85458==
41953,2024,12,25,06,00,AAXX 25064 41953 01440 63104 10255 20130 30166 40171 70522 83510 333 58016 70000 83616 85458==
41953,2024,12,25,09,00,AAXX 25094 41953 01440 83603 10250 20110 30149 40154 70522 8352/ 333 58032 70000 83616 88458==
41953,2024,12,25,12,00,AAXX 25124 41953 01435 60000 10220 20150 30148 40153 70522 83510 333 10260 58024 70000 83616 85458==
41953,2024,12,25,18,00,AAXX 25184 41953 01425 60503 10200 20160 30172 40177 71022 83510 333 58020 70000 83616 85458==
41953,2024,12,26,03,00,AAXX 26034 41953 01930 00000 10220 20180 30194 40199 71020 333 20183 58026 70000==
41953,2024,12,26,06,00,AAXX 26064 41953 01940 00000 10265 20130 30182 40187 70520 333 58016 70000==
41953,2024,12,26,09,00,AAXX 26094 41953 01940 03605 10276 20150 30156 40161 70500 333 58007 70000==
41953,2024,12,26,12,00,AAXX 26124 41953 01935 00000 10220 20160 30159 40164 70500 333 10280 58011 70000==
41953,2024,12,26,15,00,AAXX 26154 41953 01930 00000 10212 20170 30176 40181 71000 333 58005 70000==
41953,2024,12,26,18,00,AAXX 26184 41953 01930 00000 10190 20160 30176 40181 71000 333 58004 70000==
41955,2024,12,20,00,00,AAXX 20004 41955 NIL=
41955,2024,12,20,03,00,AAXX 20034 41955 NIL=
41955,2024,12,20,06,00,AAXX 20064 41955 NIL=
41955,2024,12,21,03,00,AAXX 21034 41955 NIL=
41955,2024,12,21,09,00,AAXX 21094 41955 NIL=
41955,2024,12,21,12,00,AAXX 21124 41955 NIL=
41955,2024,12,21,18,00,AAXX 21184 41955 NIL=
41955,2024,12,21,21,00,AAXX 21214 41955 NIL=
41955,2024,12,22,00,00,AAXX 22004 41955 NIL=
41955,2024,12,22,06,00,AAXX 22064 41955 NIL=
41955,2024,12,22,09,00,AAXX 22094 41955 NIL=
41955,2024,12,22,12,00,AAXX 22124 41955 NIL=
41955,2024,12,22,15,00,AAXX 22154 41955 NIL=
41955,2024,12,23,00,00,AAXX 23004 41955 NIL=
41955,2024,12,23,03,00,AAXX 23034 41955 NIL=
41955,2024,12,23,12,00,AAXX 23124 41955 NIL=
41955,2024,12,24,03,00,AAXX 24034 41955 NIL=
41955,2024,12,24,06,00,AAXX 24064 41955 NIL=
41955,2024,12,24,09,00,AAXX 24094 41955 NIL=
41955,2024,12,25,09,00,AAXX 25094 41955 NIL=
41955,2024,12,25,12,00,AAXX 25124 41955 NIL=
41955,2024,12,25,18,00,AAXX 25184 41955 NIL=
41955,2024,12,26,15,00,AAXX 26154 41955 NIL=
41955,2024,12,26,18,00,AAXX 26184 41955 NIL=
41958,2024,12,20,00,00,AAXX 20004 41958 31440 30000 10160 20160 30125 40127 70500 83400 333 56900 59013 70000 83616=
41958,2024,12,20,03,00,AAXX 20034 41958 31450 50000 10192 20180 30154 40156 70500 83410 333 20154 56990 59006 70000 83616 84459=
41958,2024,12,20,06,00,AAXX 20064 41958 NIL=
41958,2024,12,20,09,00,AAXX 20094 41958 31450 60000 10250 20160 30113 40115 70522 83410 333 56990 59007 70000 83616 85458=
41958,2024,12,20,12,00,AAXX 20124 41958 31450 80000 10217 20170 30114 40116 70522 8542/ 333 10258 56999 59010 70000 84616 88458=
41958,2024,12,20,15,00,AAXX 20154 41958 31450 80000 10202 20180 30128 40130 70522 8452/ 333 56999 59006 70000 84616 88458=
41958,2024,12,20,18,00,AAXX 20184 41958 31440 80000 10196 20190 30130 40132 70522 8542/ 333 56999 59006 70000 84616 88458=
41958,2024,12,21,00,00,AAXX 21004 41958 11440 80000 10192 20180 30123 40125 69926 70562 8542/ 333 56999 59002 70002 84616 88458=
41958,2024,12,21,03,00,AAXX 21034 41958 31450 80000 10208 20190 30147 40149 70522 8542/ 333 20158 56999 59007 70002 84616 88458=
41958,2024,12,21,06,00,AAXX 21064 41958 11450 80000 10216 20200 30131 40133 60016 70562 8542/ 333 56999 59006 70012 84616 88458=
41958,2024,12,21,09,00,AAXX 21094 41958 31450 80000 10216 20190 30102 40104 70522 8542/ 333 56999 59011 70012 84616 88458=
41958,2024,12,21,12,00,AAXX 21124 41958 11440 80000 10190 20180 30132 40134 60026 76162 8542/ 333 10216 56999 59018 70028 84616 88458=
41958,2024,12,21,15,00,AAXX 21154 41958 31440 80000 10186 20180 30145 40147 70522 8542/ 333 56999 58017 70028 84616 88458=
41958,2024,12,21,18,00,AAXX 21184 41958 31440 30000 10186 20186 30144 40146 70520 83400 333 56900 58014 70028 83616=
41958,2024,12,21,21,00,AAXX 21214 41958 31440 30000 10184 20180 30133 40135 70500 83400 333 56900 58015 70026 83616=
41958,2024,12,22,00,00,AAXX 22004 41958 31440 60000 10182 20180 30136 40138 70520 83410 333 56990 58013 70026 83616 85459=
41958,2024,12,22,03,00,AAXX 22034 41958 31950 00501 10207 20170 30164 40166 70520 333 20172 58017 70026=
41958,2024,12,22,06,00,AAXX 22064 41958 31950 00501 10256 20180 30144 40146 70500 333 58013 70016=
41958,2024,12,22,09,00,AAXX 22094 41958 31950 00102 10264 20130 30122 40124 70500 333 58020 70016=
41958,2024,12,22,12,00,AAXX 22124 41958 31940 00302 10214 20170 30127 40130 70500 333 10268 59005 70000=
41958,2024,12,22,15,00,AAXX 22154 41958 31940 00301 10194 20170 30144 40147 70500 333 59001 70000=
41958,2024,12,22,18,00,AAXX 22184 41958 31940 00000 10186 20180 30141 40143 70500 333 59003 70000=
41958,2024,12,22,21,00,AAXX 22214 41958 31940 00000 10170 20160 30135 40138 70500 333 58002 70000=
41958,2024,12,23,00,00,AAXX 23004 41958 31940 00000 10166 20160 30139 40142 70500 333 58003 70000=
41958,2024,12,23,03,00,AAXX 23034 41958 31950 00502 10208 20170 30162 40164 70500 333 20156 59002 70000=
41958,2024,12,23,06,00,AAXX 23064 41958 31950 00302 10260 20100 30149 40151 70500 333 58005 70000=
41958,2024,12,23,09,00,AAXX 23094 41958 31950 00000 10270 20120 30122 40124 70500 333 58000 70000=
41958,2024,12,23,12,00,AAXX 23124 41958 31940 00000 10220 20140 30124 40126 70500 333 10271 59003 70000=
41958,2024,12,23,15,00,AAXX 23154 41958 31940 00000 10180 20150 30142 40144 70500 333 59002 70000=
41958,2024,12,23,18,00,AAXX 23184 41958 31940 00000 10170 20150 30141 40143 70500 333 58000 70000=
41958,2024,12,23,21,00,AAXX 23214 41958 31940 30000 10182 20160 30139 40142 70500 83030 333 56090 58004 70000 83362=
41958,2024,12,24,00,00,AAXX 24004 41958 31940 30000 10180 20160 30142 40145 70500 83030 333 56090 58003 70000 83362=
41958,2024,12,24,03,00,AAXX 24034 41958 31950 40000 10214 20150 30164 40166 70510 84030 333 20165 58002 70000 84362=
41958,2024,12,24,06,00,AAXX 24064 41958 31950 30501 10250 20140 30153 40155 70511 83030 333 56090 58004 70000 83362=
41958,2024,12,24,09,00,AAXX 24094 41958 31450 53301 10264 20130 30122 40124 70511 82530 333 56990 58000 70000 82617 85362=
41958,2024,12,24,12,00,AAXX 24124 41958 31940 30000 10218 20170 30127 40129 70511 83030 333 10269 56090 58003 70000 83362=
41958,2024,12,24,15,00,AAXX 24154 41958 31940 00000 10196 20170 30147 40149 70500 333 58005 70000=
41958,2024,12,24,18,00,AAXX 24184 41958 31940 00000 10190 20170 30144 40146 70500 333 58003 70000=
41958,2024,12,25,03,00,AAXX 25034 41958 31450 50000 10208 20190 30176 40178 70521 82530 333 20184 56990 58012 70000 82617 85362=
41958,2024,12,25,06,00,AAXX 25064 41958 31456 70000 10248 20150 30168 40170 70522 82510 333 56990 58015 70000 82617 87459=
41958,2024,12,25,09,00,AAXX 25094 41958 31456 73301 10258 20140 30146 40149 70522 82510 333 56990 58024 70000 82617 87459=
41958,2024,12,25,12,00,AAXX 25124 41958 31950 80000 10224 20170 30152 40154 70522 8252/ 333 10260 56999 58025 70000 82617 88459=
41958,2024,12,25,18,00,AAXX 25184 41958 11940 30000 10196 20180 30175 40177 69906 70562 83030 333 56090 58031 79999 83362=
41958,2024,12,26,03,00,AAXX 26034 41958 32957 33401 10226 20150 30199 40201 83030 333 20184 56090 58023 79999 83362=
41958,2024,12,26,06,00,AAXX 26064 41958 32957 00102 10266 20150 30192 40194 333 58024 79999=
41958,2024,12,26,09,00,AAXX 26094 41958 32957 03603 10272 20120 30161 40163 333 58015 79999=
41958,2024,12,26,12,00,AAXX 26124 41958 32956 00000 10230 20160 30163 40165 333 10278 58011 79999=
41958,2024,12,26,15,00,AAXX 26154 41958 32950 00000 10194 20170 30181 40183 333 58007 70000=
41958,2024,12,26,18,00,AAXX 26184 41958 31940 00000 10186 20170 30177 40179 70500 333 58002 70000=
41960,2024,12,20,00,00,AAXX 20004 41960 01915 00000 10150 20150 30129 40131 71000 333 59013 70000==
41960,2024,12,20,03,00,AAXX 20034 41960 01430 40000 10198 20150 30150 40152 71000 82570 333 20144 59010 70000 82618==
41960,2024,12,20,06,00,AAXX 20064 41960 01440 50000 10260 20170 30133 40135 70520 83530 333 59009 70000 83618 85363==
41960,2024,12,20,09,00,AAXX 20094 41960 01440 63602 10257 20180 30112 40114 70522 85410 333 59006 70000 83618 86459==
41960,2024,12,20,12,00,AAXX 20124 41960 01440 80000 10215 20200 30115 40117 70522 8542/ 333 10273 59010 70000 84618 88459==
41960,2024,12,20,15,00,AAXX 20154 41960 01440 80000 10200 20190 30126 40128 70522 8542/ 333 59006 70000 84618 88459==
41960,2024,12,20,18,00,AAXX 20184 41960 01440 60000 10195 20190 30128 40130 70522 84410 333 59006 70000 83618 86459==
41960,2024,12,21,00,00,AAXX 21004 41960 01440 80000 10188 20188 30132 40134 76162 85420 333 58003 70000 84617 88459==
41960,2024,12,21,03,00,AAXX 21034 41960 01420 80000 10194 20194 30151 40153 71062 8542/ 333 20184 58001 70006 84617 88459==
41960,2024,12,21,06,00,AAXX 21064 41960 01420 80000 10207 20200 30142 40144 76166 8542/ 333 58009 70010 84617 88458==
41960,2024,12,21,09,00,AAXX 21094 41960 01420 80000 10210 20200 30128 40130 76166 8542/ 333 58016 70024 84617 88458==
41960,2024,12,21,12,00,AAXX 21124 41960 21320 80000 10199 20199 30132 40134 76166 8672/ 333 10212 58017 60029 70030 81708 84616 88458==
41960,2024,12,21,15,00,AAXX 21154 41960 01440 80000 10192 20192 30150 40152 70562 8542/ 333 58024 70036 84617 88459==
41960,2024,12,21,18,00,AAXX 21184 41960 11940 00000 10177 20177 30147 40149 69966 70560 333 58019 70036==
41960,2024,12,21,21,00,AAXX 21214 41960 31440 20000 10178 20178 30144 40146 70500 82400 333 56400 58014 70036 81618=
41960,2024,12,21,23,00,AAXX 21234 41960 01440 20000 10178 20178 30144 40146 70500 82400 333 58014 70036 81618==
41960,2024,12,22,00,00,AAXX 22004 41960 01440 33202 10180 20180 30142 40144 70500 83400 333 58010 70036 82618==
41960,2024,12,22,03,00,AAXX 22034 41960 01450 53402 10196 20180 30158 40160 70520 85400 333 20175 58007 70030 83618==
41960,2024,12,22,06,00,AAXX 22064 41960 01450 23402 10250 20180 30148 40150 70520 82400 333 58006 70026 81618==
41960,2024,12,22,09,00,AAXX 22094 41960 01940 00000 10268 20180 30122 40124 70500 333 59006 70012==
41960,2024,12,22,12,00,AAXX 22124 41960 01940 00000 10210 20190 30123 40125 70500 333 10274 59009 70006==
41960,2024,12,22,15,00,AAXX 22154 41960 01940 00000 10194 20170 30143 40145 70500 333 59007 70000==
41960,2024,12,22,18,00,AAXX 22184 41960 01940 00000 10184 20170 30136 40138 70500 333 59011 70000==
41960,2024,12,22,21,00,AAXX 22214 41960 01920 00000 10162 20162 30138 40139 71000 333 59006 70000==
41960,2024,12,23,00,00,AAXX 23004 41960 01908 00000 10150 20150 30139 40140 74240 333 59003 70000==
41960,2024,12,23,03,00,AAXX 23034 41960 01930 00000 10196 20190 30163 40165 71044 333 20148 58005 70000==
41960,2024,12,23,06,00,AAXX 23064 41960 01950 03604 10256 20160 30151 40153 70540 333 58003 70000==
41960,2024,12,23,09,00,AAXX 23094 41960 01940 00000 10273 20140 30121 40123 70500 333 59001 70000==
41960,2024,12,23,12,00,AAXX 23124 41960 01940 00000 10202 20180 30121 40123 70500 333 10277 59002 70000==
41960,2024,12,23,15,00,AAXX 23154 41960 01940 00000 10175 20175 30140 40142 70500 333 59003 70000==
41960,2024,12,23,18,00,AAXX 23184 41960 01940 00000 10167 20167 30143 40145 70500 333 58007 70000==
41960,2024,12,24,00,00,AAXX 24004 41960 01440 80000 10177 20170 30144 40145 70520 8542/ 333 58005 70000 83618 88459==
41960,2024,12,24,03,00,AAXX 24034 41960 01450 60000 10205 20180 30164 40166 70522 85410 333 20160 58001 70000 83618 84459==
41960,2024,12,24,06,00,AAXX 24064 41960 01450 60000 10256 20170 30145 40147 70522 84410 333 59006 70000 83618 86459==
41960,2024,12,24,09,00,AAXX 24094 41960 01440 53601 10263 20180 30122 40124 70522 84410 333 58001 70000 83618 85459==
41960,2024,12,24,12,00,AAXX 24124 41960 01440 60000 10225 20210 30122 40124 70522 82570 333 10270 58001 70000 82618 86458==
41960,2024,12,24,15,00,AAXX 24154 41960 01440 60000 10187 20180 30144 40146 70522 84410 333 58004 70000 83618 86459==
41960,2024,12,24,18,00,AAXX 24184 41960 01440 80000 10194 20180 30151 40153 70522 8542/ 333 58004 70000 84617 88458==
41960,2024,12,25,03,00,AAXX 25034 41960 01450 80000 10202 20180 30176 40178 70522 8542/ 333 20182 58012 70000 83618 88459==
41960,2024,12,25,06,00,AAXX 25064 41960 01450 80000 10245 20170 30165 40167 70522 8452/ 333 58020 70000 84618 88459==
41960,2024,12,25,09,00,AAXX 25094 41960 41440 80000 10243 20180 30149 40151 76122 8542/ 333 58027 83617 88459==
41960,2024,12,25,12,00,AAXX 25124 41960 21440 80000 10215 20210 30148 40150 70562 8352/ 333 10255 58026 60005 83618 88458==
41960,2024,12,25,18,00,AAXX 25184 41960 41440 80000 10200 20180 30171 40173 70562 8542/ 333 58020 84618 88459==
41960,2024,12,26,03,00,AAXX 26034 41960 41450 60000 10205 20180 30197 40199 70522 84410 333 20183 58021 83618 84459==
41960,2024,12,26,06,00,AAXX 26064 41960 41940 00901 10270 20180 30188 40190 70520 333 58026==
41960,2024,12,26,09,00,AAXX 26094 41960 41940 03402 10285 20180 30161 40162 70500 333 58012==
41960,2024,12,26,12,00,AAXX 26124 41960 41940 00000 10228 20190 30162 40164 70500 333 10287 58014==
41960,2024,12,26,15,00,AAXX 26154 41960 01940 00000 10194 20180 30177 40179 70500 333 58007 70000==
41960,2024,12,26,18,00,AAXX 26184 41960 01940 00000 10175 20175 30175 40177 70500 333 58004 70000==
41963,2024,12,20,00,00,AAXX 20004 41963 01915 00000 10158 20158 30128 40131 71000 333 59001 70000==
41963,2024,12,20,03,00,AAXX 20034 41963 01920 03601 10202 20190 30135 40138 71000 333 20152 59020 70000==
41963,2024,12,20,06,00,AAXX 20064 41963 02/56 23602 10272 20140 30128 40130 82030 333 59012 70000 82362==
41963,2024,12,20,09,00,AAXX 20094 41963 02456 53501 10265 20140 30105 40107 82510 333 59015 70000 82618 85459==
41963,2024,12,21,03,00,AAXX 21034 41963 01440 82801 10205 20190 30155 40158 76122 8452/ 333 20180 58020 70016 84615 88458==
41963,2024,12,21,09,00,AAXX 21094 41963 01440 73601 10220 20180 30121 40124 70500 82510 333 58016 70020 82618 87458==
41963,2024,12,21,12,00,AAXX 21124 41963 01440 82701 10205 20170 30129 40132 70522 8452/ 333 10225 58016 70020 84617 88458==
41963,2024,12,21,18,00,AAXX 21184 41963 NIL=
41963,2024,12,21,21,00,AAXX 21214 41963 NIL=
41963,2024,12,22,00,00,AAXX 22004 41963 01440 72801 10175 20160 30142 40145 70522 83510 333 58022 70020 83617 87458==
41963,2024,12,22,06,00,AAXX 22064 41963 NIL=
41963,2024,12,22,09,00,AAXX 22094 41963 02957 03502 10278 20120 30117 40120 333 59004 70000==
41963,2024,12,22,12,00,AAXX 22124 41963 01950 00000 10205 20190 30123 40126 70500 333 10280 59006 70000==
41963,2024,12,22,15,00,AAXX 22154 41963 NIL=
41963,2024,12,22,21,00,AAXX 22214 41963 01930 00000 10168 20160 30145 40148 70500 333 58000 70000==
41963,2024,12,23,00,00,AAXX 23004 41963 01930 00000 10165 20165 30140 40143 70500 333 59002 70000==
41963,2024,12,23,03,00,AAXX 23034 41963 NIL=
41963,2024,12,23,06,00,AAXX 23064 41963 02957 03603 10260 20170 30137 40140 333 59003 70000==
41963,2024,12,23,09,00,AAXX 23094 41963 02957 03502 10270 20140 30116 40119 333 59001 70000==
41963,2024,12,23,12,00,AAXX 23124 41963 01950 00000 10195 20170 30121 40124 70500 333 10275 59002 70000==
41963,2024,12,24,03,00,AAXX 24034 41963 NIL=
41963,2024,12,24,06,00,AAXX 24064 41963 NIL=
41963,2024,12,24,09,00,AAXX 24094 41963 NIL=
41963,2024,12,24,12,00,AAXX 24124 41963 01450 52901 10220 20180 30123 40126 70522 82510 333 10260 58002 70000 82618 85458==
41963,2024,12,25,00,00,AAXX 25004 41963 01440 63202 10185 20180 30155 40158 70522 83510 333 58011 70000 83617 86459==
41963,2024,12,25,03,00,AAXX 25034 41963 01440 72802 10200 20180 30173 40176 70522 83510 333 20170 58014 70000 83617 87459==
41963,2024,12,25,06,00,AAXX 25064 41963 01450 52901 10240 20150 30173 40176 70522 82510 333 58017 70000 82618 85459==
41963,2024,12,25,09,00,AAXX 25094 41963 NIL=
41963,2024,12,25,12,00,AAXX 25124 41963 NIL=
41963,2024,12,25,18,00,AAXX 25184 41963 NIL=
41963,2024,12,26,09,00,AAXX 26094 41963 02956 03604 10275 20170 30155 40157 333 58006 70000==
41963,2024,12,26,12,00,AAXX 26124 41963 01950 00000 10205 20190 30154 40157 70500 333 10277 58006 70000==
41963,2024,12,26,15,00,AAXX 26154 41963 NIL=
41963,2024,12,26,18,00,AAXX 26184 41963 NIL=
41964,2024,12,20,00,00,AAXX 20004 41964 01940 40000 10154 20150 30127 40130 70522 80001 333 59018 70000 84080==
41964,2024,12,20,03,00,AAXX 20034 41964 01950 40000 10200 20180 30141 40144 70522 80001 333 20147 59007 70000 84080==
41964,2024,12,20,06,00,AAXX 20064 41964 NIL=
41964,2024,12,20,09,00,AAXX 20094 41964 02456 50000 10260 20150 30103 40106 83510 333 59006 70000 83618 84460==
41964,2024,12,20,12,00,AAXX 20124 41964 01940 40000 10200 20180 30114 40116 50001 70522 333 10310 59005 70000 84080==
41964,2024,12,21,03,00,AAXX 21034 41964 NIL=
41964,2024,12,21,06,00,AAXX 21064 41964 01440 70000 10199 20180 30129 40132 70522 83520 333 58006 70000 83618 86460==
41964,2024,12,21,09,00,AAXX 21094 41964 NIL=
41964,2024,12,21,12,00,AAXX 21124 41964 21440 70000 10197 20190 30129 40132 70562 83520 333 10290 58015 69935 70005 83618 86458==
41964,2024,12,21,18,00,AAXX 21184 41964 NIL=
41964,2024,12,21,21,00,AAXX 21214 41964 NIL=
41964,2024,12,22,00,00,AAXX 22004 41964 NIL=
41964,2024,12,22,06,00,AAXX 22064 41964 NIL=
41964,2024,12,22,09,00,AAXX 22094 41964 NIL=
41964,2024,12,22,12,00,AAXX 22124 41964 01940 00000 10198 20180 30124 40127 70500 333 10291 59005 70002==
41964,2024,12,22,15,00,AAXX 22154 41964 NIL=
41964,2024,12,22,18,00,AAXX 22184 41964 01940 00000 10180 20170 30141 40144 70500 333 59004 70000==
41964,2024,12,23,00,00,AAXX 23004 41964 01940 00000 10182 20170 30148 40150 70500 333 58000 70000==
41964,2024,12,23,03,00,AAXX 23034 41964 02956 00000 10210 20190 30150 40153 333 20148 59001 70000==
41964,2024,12,23,06,00,AAXX 23064 41964 02957 00000 10270 20180 30140 40143 333 59010 70000==
41964,2024,12,23,12,00,AAXX 23124 41964 01940 00000 10188 20170 30121 40124 70500 333 10295 59003 70000==
41964,2024,12,24,03,00,AAXX 24034 41964 01450 60000 10197 20180 30154 40157 70522 83520 333 20136 58004 70000 83618 85460==
41964,2024,12,24,06,00,AAXX 24064 41964 NIL=
41964,2024,12,24,09,00,AAXX 24094 41964 02457 50000 10268 20160 30114 40117 83510 333 58004 70000 83618 84460==
41964,2024,12,24,12,00,AAXX 24124 41964 02957 00000 10277 20130 30122 40125 333 59018 70000==
41964,2024,12,24,15,00,AAXX 24154 41964 01440 60000 10185 20170 30138 40141 70522 83510 333 58003 70000 83618 85460==
41964,2024,12,25,00,00,AAXX 25004 41964 01440 70000 10198 20180 30170 40173 70522 83520 333 58019 70000 83618 86460==
41964,2024,12,25,03,00,AAXX 25034 41964 01440 70000 10204 20180 30173 40176 70522 83520 333 20137 58019 70000 83618 86460==
41964,2024,12,25,06,00,AAXX 25064 41964 02450 70000 10252 20160 30155 40158 83520 333 58033 70000 83618 86460==
41964,2024,12,25,09,00,AAXX 25094 41964 02450 70000 10242 20170 30139 40142 83520 333 58025 70000 83618 86460==
41964,2024,12,25,12,00,AAXX 25124 41964 01440 60000 10205 20190 30150 40152 70522 83510 333 10266 58031 70000 83618 85460==
41964,2024,12,25,18,00,AAXX 25184 41964 NIL=
41964,2024,12,26,00,00,AAXX 26004 41964 01440 60000 10198 20170 30176 40179 70522 83520 333 58006 70000 83618 85460==
41964,2024,12,26,03,00,AAXX 26034 41964 01440 60000 10207 20160 30181 40184 70522 83520 333 20170 58008 70000 83618 85460==
41964,2024,12,26,09,00,AAXX 26094 41964 02457 30000 10279 20160 30160 40163 83500 333 58005 70000 83618==
41964,2024,12,26,12,00,AAXX 26124 41964 02957 00000 10287 20180 30146 40149 333 58007 70000==
41964,2024,12,26,15,00,AAXX 26154 41964 NIL=
41964,2024,12,26,18,00,AAXX 26184 41964 NIL=
41964,2024,12,26,21,00,AAXX 26214 41964 01940 00000 10174 20170 30176 40179 70500 333 58002 70000==
41965,2024,12,20,00,00,AAXX 20004 41965 NIL=
41965,2024,12,20,03,00,AAXX 20034 41965 01950 00000 10235 20140 30141 40150 70500 333 20135 59006 70000==
41965,2024,12,20,06,00,AAXX 20064 41965 01956 03202 10290 20090 30117 40126 70500 333 59005 70000==
41965,2024,12,20,09,00,AAXX 20094 41965 01450 60000 10295 20020 30099 40108 70522 84520 333 59009 70000 84618 86460==
41965,2024,12,20,12,00,AAXX 20124 41965 01430 30000 10185 20120 30109 40118 70522 83500 333 10305 58001 70000 83618==
41965,2024,12,20,15,00,AAXX 20154 41965 01925 00000 10170 20130 30121 40130 70500 333 59004 70000==
41965,2024,12,21,00,00,AAXX 21004 41965 01915 00000 10170 20130 30126 40135 71000 333 59010 70000==
41965,2024,12,21,03,00,AAXX 21034 41965 01440 80000 10205 20110 30143 40152 70522 8461/ 333 20160 58002 70000 83618 88460==
41965,2024,12,21,09,00,AAXX 21094 41965 01440 80000 10220 20100 30117 40126 70522 8461/ 333 58018 70000 83618 81710 88460==
41965,2024,12,21,12,00,AAXX 21124 41965 01430 80000 10185 20120 30126 40135 70522 8461/ 333 10225 59017 70000 83618 88460==
41965,2024,12,21,15,00,AAXX 21154 41965 01425 30000 10170 20130 30136 40145 70500 83500 333 58015 70000 83618==
41965,2024,12,21,18,00,AAXX 21184 41965 NIL=
41965,2024,12,21,21,00,AAXX 21214 41965 NIL=
41965,2024,12,22,00,00,AAXX 22004 41965 NIL=
41965,2024,12,22,03,00,AAXX 22034 41965 01440 63202 10200 20100 30148 40156 70522 84520 333 20142 58005 70000 83618 86460==
41965,2024,12,22,06,00,AAXX 22064 41965 NIL=
41965,2024,12,22,09,00,AAXX 22094 41965 01956 00000 10300 20040 30108 40117 70500 333 59009 70000==
41965,2024,12,22,12,00,AAXX 22124 41965 01930 00000 10185 20120 30118 40127 70500 333 10305 59008 70000==
41965,2024,12,22,15,00,AAXX 22154 41965 01925 00000 10160 20120 30131 40140 70500 333 59005 70000==
41965,2024,12,23,00,00,AAXX 23004 41965 01915 00000 10140 20120 30141 40150 71000 333 58000 70000==
41965,2024,12,23,03,00,AAXX 23034 41965 01940 00000 10210 20110 30147 40156 70500 333 20135 59001 70000==
41965,2024,12,23,06,00,AAXX 23064 41965 01956 03102 10290 20080 30133 40142 70500 333 59002 70000==
41965,2024,12,23,09,00,AAXX 23094 41965 01956 00000 10295 20090 30107 40116 70500 333 59001 70000==
41965,2024,12,23,12,00,AAXX 23124 41965 01940 00000 10200 20120 30112 40121 70500 333 10300 59006 70000==
41965,2024,12,23,15,00,AAXX 23154 41965 01930 00000 10160 20100 30125 40134 70500 333 59006 70000==
41965,2024,12,23,21,00,AAXX 23214 41965 01910 00000 10133 20120 30138 40147 71000 333 58005 70000==
41965,2024,12,24,00,00,AAXX 24004 41965 01910 00000 10124 20110 30146 40155 71000 333 58004 70000==
41965,2024,12,24,03,00,AAXX 24034 41965 01430 63102 10175 20160 30149 40158 70522 84530 333 20122 58002 70000 84616 86362==
41965,2024,12,24,06,00,AAXX 24064 41965 01950 00000 10280 20070 30129 40138 70500 333 59004 70000==
41965,2024,12,24,09,00,AAXX 24094 41965 01950 00000 10280 20110 30112 40121 70500 333 58005 70000==
41965,2024,12,24,12,00,AAXX 24124 41965 01930 00000 10224 20160 30118 40127 70500 333 10300 58006 70000==
41965,2024,12,24,15,00,AAXX 24154 41965 01915 00000 10202 20170 30135 40144 70500 333 58010 70000==
41965,2024,12,25,03,00,AAXX 25034 41965 01425 61802 10195 20110 30168 40177 70522 84530 333 20134 58019 70000 84616 86362==
41965,2024,12,25,06,00,AAXX 25064 41965 01950 00000 10285 20140 30146 40152 70500 333 58007 70000==
41965,2024,12,25,09,00,AAXX 25094 41965 01450 63102 10290 20090 30130 40139 70522 84530 333 58018 70000 84616 86362==
41965,2024,12,25,12,00,AAXX 25124 41965 01435 60000 10215 20170 30126 40135 70522 84530 333 10294 58008 70000 84616 86362==
41965,2024,12,25,18,00,AAXX 25184 41965 NIL=
41965,2024,12,26,03,00,AAXX 26034 41965 01440 63102 10210 20160 30180 40189 70522 84530 333 20123 58012 70000 84616 86362==
41965,2024,12,26,06,00,AAXX 26064 41965 01450 63102 10295 20130 30173 40182 70522 84530 333 58028 70000 84616 86362==
41965,2024,12,26,09,00,AAXX 26094 41965 01450 30000 10298 20130 30144 40153 70521 83500 333 58014 70000 83616==
41965,2024,12,26,12,00,AAXX 26124 41965 01425 30000 10220 20180 30145 40154 70521 83500 333 10305 58019 70000 83616==
41965,2024,12,26,15,00,AAXX 26154 41965 01915 00000 10184 20150 30178 40187 70500 333 58028 70000==
41965,2024,12,26,18,00,AAXX 26184 41965 NIL=
41965,2024,12,26,21,00,AAXX 26214 41965 01910 00000 10164 20150 30175 40184 71000 333 58012 70000==
41966,2024,12,20,00,00,AAXX 20004 41966 01430 40501 10158 20150 30056 40138 70522 82510 333 59014 70000 82616 83460==
41966,2024,12,20,03,00,AAXX 20034 41966 01/40 30000 10230 20200 30077 40157 70522 83010 333 20150 59010 70000 83460==
41966,2024,12,20,06,00,AAXX 20064 41966 02450 43102 10270 20200 30052 40131 82510 333 59010 70000 82616 83460==
41966,2024,12,20,09,00,AAXX 20094 41966 02450 40000 10262 20170 30036 40115 82510 333 59007 70000 83616 83460==
41966,2024,12,20,12,00,AAXX 20124 41966 02440 51201 10200 20160 30042 40123 82510 333 10290 59001 70000 82616 84460==
41966,2024,12,21,00,00,AAXX 21004 41966 01430 80502 10170 20150 30053 40135 70522 8352/ 333 59003 70000 83616 88460==
41966,2024,12,21,03,00,AAXX 21034 41966 01440 80000 10200 20160 30080 40162 70522 83510 333 20156 58003 70000 83616 88460==
41966,2024,12,21,06,00,AAXX 21064 41966 01450 80402 10200 20160 30067 40148 70522 8352/ 333 58015 70000 83616 88460==
41966,2024,12,21,09,00,AAXX 21094 41966 02450 80401 10230 20170 30057 40137 8352/ 333 58021 70000 83616 88460==
41966,2024,12,21,12,00,AAXX 21124 41966 02430 83601 10200 20170 30066 40147 8352/ 333 10235 58024 70000 83616 88460==
41966,2024,12,21,15,00,AAXX 21154 41966 02330 80000 10190 20180 30067 40149 8472/ 333 70000 82709 83615 88460==
41966,2024,12,21,18,00,AAXX 21184 41966 NIL=
41966,2024,12,21,21,00,AAXX 21214 41966 31430 60000 10170 20160 30063 40145 70522 82510 333 56990 58004 70002 82616 85460=
41966,2024,12,21,23,00,AAXX 21234 41966 01430 60000 10170 20160 30063 40145 70522 82510 333 58004 70002 82616 85460==
41966,2024,12,22,00,00,AAXX 22004 41966 01440 60000 10155 20150 30072 40154 70522 82510 333 58019 70002 82616 85460==
41966,2024,12,22,03,00,AAXX 22034 41966 02550 40502 10210 20130 30089 40170 82130 333 20150 58009 70002 82826 83362==
41966,2024,12,22,06,00,AAXX 22064 41966 02550 20501 10260 20150 30072 40152 81110 333 58005 70002 81826==
41966,2024,12,22,09,00,AAXX 22094 41966 02950 00501 10280 20130 30043 40122 333 59014 70002==
41966,2024,12,22,12,00,AAXX 22124 41966 01930 00000 10202 20170 30050 40131 70500 333 10285 59016 70000==
41966,2024,12,22,15,00,AAXX 22154 41966 01930 00502 10185 20180 30060 40142 70500 333 59007 70000==
41966,2024,12,22,21,00,AAXX 22214 41966 01430 40000 10150 20140 30062 40145 70522 82510 333 59001 70000 82616 83460==
41966,2024,12,23,00,00,AAXX 23004 41966 01430 40501 10140 20130 30070 40153 70522 82510 333 59002 70000 82616 83460==
41966,2024,12,23,03,00,AAXX 23034 41966 01/40 33601 10200 20160 30087 40168 70521 83030 333 20130 59002 70000 83362==
41966,2024,12,23,06,00,AAXX 23064 41966 02950 00501 10267 20160 30071 40150 333 59001 70000==
41966,2024,12,23,09,00,AAXX 23094 41966 02950 03501 10285 20160 30045 40123 333 58002 70000==
41966,2024,12,23,12,00,AAXX 23124 41966 01430 40000 10210 20170 30044 40125 70522 82510 333 10288 59006 70000 82616 83460==
41966,2024,12,23,15,00,AAXX 23154 41966 01430 40401 10190 20170 30057 40138 70522 82510 333 59003 70000 82616 83460==
41966,2024,12,23,21,00,AAXX 23214 41966 01430 40000 10160 20150 30061 40143 70522 82510 333 59001 70000 82616 83460==
41966,2024,12,24,00,00,AAXX 24004 41966 01440 60501 10145 20140 30075 40158 70522 83510 333 58005 70000 83616 85460==
41966,2024,12,24,03,00,AAXX 24034 41966 01450 43601 10200 20150 30089 40171 70522 82510 333 20142 58002 70000 82616 83460==
41966,2024,12,24,06,00,AAXX 24064 41966 02/50 20501 10255 20170 30071 40151 82010 333 58000 70000 82460==
41966,2024,12,24,09,00,AAXX 24094 41966 02/50 20501 10272 20150 30044 40123 82010 333 59001 70000 82460==
41966,2024,12,24,12,00,AAXX 24124 41966 01430 40000 10240 20190 30049 40129 70522 82510 333 10282 59005 70000 82616 83460==
41966,2024,12,24,15,00,AAXX 24154 41966 01430 40501 10200 20170 30056 40137 70522 82510 333 59001 70000 82616 83460==
41966,2024,12,25,03,00,AAXX 25034 41966 01440 60401 10200 20140 30103 40185 70522 83510 333 20156 58014 70000 83616 85460==
41966,2024,12,25,06,00,AAXX 25064 41966 02440 60000 10260 20160 30085 40165 83510 333 58014 70000 83616 85460==
41966,2024,12,25,09,00,AAXX 25094 41966 02450 40301 10260 20160 30073 40153 82510 333 58029 70000 82616 83460==
41966,2024,12,25,12,00,AAXX 25124 41966 01430 50901 10205 20180 30075 40156 70522 82510 333 10266 58026 70000 82616 84460==
41966,2024,12,25,18,00,AAXX 25184 41966 NIL=
41966,2024,12,26,03,00,AAXX 26034 41966 01440 60501 10200 20170 30118 40200 70522 83510 333 20160 58015 70000 83616 85460==
41966,2024,12,26,06,00,AAXX 26064 41966 02450 43601 10275 20170 30109 40188 82510 333 58024 70000 82616 83460==
41966,2024,12,26,09,00,AAXX 26094 41966 02450 40501 10276 20170 30101 40180 82510 333 58028 70000 82616 83460==
41966,2024,12,26,12,00,AAXX 26124 41966 01440 40401 10220 20180 30081 40162 70522 82510 333 10280 58006 70000 82616 83460==
41966,2024,12,26,15,00,AAXX 26154 41966 01430 50501 10186 20170 30086 40168 70522 82510 333 58006 70000 82616 84460==
41966,2024,12,26,18,00,AAXX 26184 41966 NIL=
41977,2024,12,20,00,00,AAXX 20004 41977 01450 30503 10184 20150 30106 40145 70521 82501 333 59011 70000 82618 83080==
41977,2024,12,20,03,00,AAXX 20034 41977 01950 00000 10238 20160 30123 40162 70520 333 20177 59026 70000==
41977,2024,12,20,06,00,AAXX 20064 41977 01450 40000 10276 20150 30117 40156 70522 84530 333 58001 70000 82618 84360==
41977,2024,12,20,09,00,AAXX 20094 41977 01450 42202 10290 20060 30084 40122 70522 82530 333 59007 70000 82618 84362==
41977,2024,12,20,12,00,AAXX 20124 41977 01450 40000 10212 20170 30093 40132 70522 83530 333 10300 59007 70000 83618 84360==
41977,2024,12,20,15,00,AAXX 20154 41977 01450 30000 10213 20160 30107 40146 70511 81590 333 59005 70000 81618 83363==
41977,2024,12,20,18,00,AAXX 20184 41977 01450 70503 10204 20160 30108 40147 70522 83570 333 59002 70000 83618 85460==
41977,2024,12,21,00,00,AAXX 21004 41977 01450 70902 10196 20150 30100 40139 70522 84570 333 59006 70000 84617 85460==
41977,2024,12,21,03,00,AAXX 21034 41977 01450 70000 10218 20140 30136 40175 70522 84570 333 20149 58013 70000 84617 85460==
41977,2024,12,21,06,00,AAXX 21064 41977 42450 70000 10248 20130 30110 40148 59007 84560==
41977,2024,12,21,09,00,AAXX 21094 41977 01450 70000 10245 20130 30103 40141 70522 84510 333 59019 70000 84617 87459==
41977,2024,12,21,12,00,AAXX 21124 41977 01350 80000 10209 20180 30112 40151 72162 8562/ 333 10255 59019 70000 82710 85615 88458==
41977,2024,12,21,15,00,AAXX 21154 41977 01350 80000 10190 20140 30123 40163 72262 8562/ 333 58016 70010 82710 85615 88458==
41977,2024,12,21,18,00,AAXX 21184 41977 21350 80000 10185 20160 30127 40167 72162 8562/ 333 58019 60015 70010 82710 85615 88458==
41977,2024,12,21,21,00,AAXX 21214 41977 31450 80000 10180 20160 30125 40165 70522 8562/ 333 56999 58033 70010 82710 85615 88458=
41977,2024,12,21,23,00,AAXX 21234 41977 01450 80000 10180 20160 30125 40165 70522 8562/ 333 58033 70010 82710 85615 88458==
41977,2024,12,22,00,00,AAXX 22004 41977 01450 70502 10180 20140 30117 40156 70522 84570 333 58017 70010 84617 85460==
41977,2024,12,22,03,00,AAXX 22034 41977 01950 00000 10227 20130 30136 40175 70520 333 20160 58000 70010==
41977,2024,12,22,06,00,AAXX 22064 41977 01950 00000 10287 20140 30126 40165 70500 333 58016 70010==
41977,2024,12,22,09,00,AAXX 22094 41977 01950 03102 10287 20140 30091 40129 70500 333 59012 70010==
41977,2024,12,22,12,00,AAXX 22124 41977 01/50 30000 10216 20170 30100 40139 70511 83030 333 10298 59012 70010 83360==
41977,2024,12,22,15,00,AAXX 22154 41977 01/50 30000 10210 20130 30117 40156 70522 83030 333 59007 70000 83363==
41977,2024,12,22,18,00,AAXX 22184 41977 01950 00000 10200 20140 30112 40151 70500 333 59015 70000==
41977,2024,12,22,21,00,AAXX 22214 41977 01950 00000 10198 20140 30110 40149 70500 333 59015 70000==
41977,2024,12,23,00,00,AAXX 23004 41977 01950 00000 10163 20140 30117 40156 70500 333 58000 70000==
41977,2024,12,23,03,00,AAXX 23034 41977 01950 00000 10212 20150 30135 40174 70500 333 20152 59001 70000==
41977,2024,12,23,06,00,AAXX 23064 41977 01950 00000 10280 20140 30137 40166 70500 333 58011 70000==
41977,2024,12,23,09,00,AAXX 23094 41977 01950 00000 10282 20140 30099 40137 70500 333 58008 70000==
41977,2024,12,23,12,00,AAXX 23124 41977 01950 00000 10215 20160 30104 40142 70500 333 10304 58004 70000==
41977,2024,12,23,15,00,AAXX 23154 41977 42950 00000 10192 20130 30116 40155 59001==
41977,2024,12,23,18,00,AAXX 23184 41977 01950 00000 10180 20130 30116 40155 70500 333 58004 70000==
41977,2024,12,24,00,00,AAXX 24004 41977 01950 00000 10165 20140 30115 40155 70500 333 59002 70000==
41977,2024,12,24,03,00,AAXX 24034 41977 01450 70000 10212 20150 30131 40171 70521 84520 333 20150 59004 70000 84616 86460==
41977,2024,12,24,06,00,AAXX 24064 41977 01/50 20000 10268 20130 30123 40162 70520 82030 333 59005 70000 82362==
41977,2024,12,24,09,00,AAXX 24094 41977 NIL=
41977,2024,12,24,15,00,AAXX 24154 41977 01/50 20000 10192 20170 30117 40156 70522 82030 333 58001 70000 82362==
41977,2024,12,24,18,00,AAXX 24184 41977 01950 00000 10180 20170 30120 40160 70502 333 58004 70000==
41977,2024,12,25,03,00,AAXX 25034 41977 01440 70000 10220 20140 30155 40194 70522 84570 333 20170 58024 70000 84616 85460==
41977,2024,12,25,06,00,AAXX 25064 41977 01445 80000 10253 20120 30148 40187 70522 8532/ 333 58025 70000 84617 88460 81928==
41977,2024,12,25,09,00,AAXX 25094 41977 01450 70000 10270 20140 30121 40160 70522 82530 333 58025 70000 82618 87363==
41977,2024,12,25,12,00,AAXX 25124 41977 01450 70000 10225 20180 30126 40165 70522 82530 333 10275 58026 70000 82618 87363==
41977,2024,12,25,18,00,AAXX 25184 41977 01450 70502 10202 20150 30147 40186 70522 84570 333 58027 70000 84617 85460==
41977,2024,12,26,03,00,AAXX 26034 41977 01450 70000 10221 20140 30175 40214 70522 84570 333 20188 58020 70000 84618 85460==
41977,2024,12,26,06,00,AAXX 26064 41977 01950 00000 10295 20150 30153 40191 70520 333 58005 70000==
41977,2024,12,26,09,00,AAXX 26094 41977 01950 03102 10308 20130 30125 40163 70520 333 58004 70000==
41977,2024,12,26,12,00,AAXX 26124 41977 01950 00000 10220 20170 30134 40173 70500 333 10310 58008 70000==
41977,2024,12,26,15,00,AAXX 26154 41977 01950 00000 10205 20150 30152 40191 70500 333 58004 70000==
41977,2024,12,26,18,00,AAXX 26184 41977 01950 00000 10206 20140 30146 40185 70500 333 59001 70000==
41978,2024,12,20,00,00,AAXX 20004 41978 01431 30505 10186 20160 30120 40127 70510 83500 333 59012 70000==
41978,2024,12,20,03,00,AAXX 20034 41978 01938 30205 10230 20150 30141 40148 70511 80009 333 20178 59009 70000 83270==
41978,2024,12,20,06,00,AAXX 20064 41978 01/40 53504 10278 20150 30123 40129 70511 82032 333 59008 70000 82365 85080==
41978,2024,12,20,09,00,AAXX 20094 41978 01450 52806 10286 20150 30101 40108 70521 82530 333 59010 70000 82618 84362==
41978,2024,12,20,12,00,AAXX 20124 41978 01440 52805 10247 20180 30108 40114 70521 82530 333 10307 59008 70000 82618 84362==
41978,2024,12,20,15,00,AAXX 20154 41978 01940 40000 10224 20190 30126 40132 70521 80001 333 59002 70000 84080==
41978,2024,12,20,18,00,AAXX 20184 41978 01940 50303 10210 20160 30123 40129 70521 80001 333 59003 70000 85080==
41978,2024,12,20,21,00,AAXX 20214 41978 01940 30306 10214 20150 30111 40117 70521 80001 333 59006 70000 83074==
41978,2024,12,21,00,00,AAXX 21004 41978 01935 00704 10201 20160 30114 40121 70521 333 59006 70000==
41978,2024,12,21,03,00,AAXX 21034 41978 41435 70306 10220 20140 30149 40156 72011 84570 333 20195 58008 84618 85460==
41978,2024,12,21,06,00,AAXX 21064 41978 21450 73508 10250 20130 30130 40136 70551 83570 333 58007 60005 83618 86460==
41978,2024,12,21,09,00,AAXX 21094 41978 41450 70209 10260 20120 30119 40125 70522 83520 333 58018 83617 87460==
41978,2024,12,21,12,00,AAXX 21124 41978 01456 80207 10226 20140 30126 40132 76122 8452/ 333 10265 58018 70001 84616 88460==
41978,2024,12,21,15,00,AAXX 21154 41978 01457 70209 10200 20140 30141 40147 76162 83520 333 58015 70003 83617 87460==
41978,2024,12,21,18,00,AAXX 21184 41978 01456 70404 10191 20140 30137 40143 70562 82520 333 58014 70003 82617 87460==
41978,2024,12,21,21,00,AAXX 21214 41978 01450 70406 10184 20150 30126 40132 70522 83520 333 58015 70003 83617 87460==
41978,2024,12,22,00,00,AAXX 22004 41978 01440 70206 10182 20150 30128 40134 70522 83520 333 58014 70003 83617 87460==
41978,2024,12,22,03,00,AAXX 22034 41978 01450 30203 10219 20120 30155 40161 70522 83500 333 20180 58006 70003 83618==
41978,2024,12,22,06,00,AAXX 22063 41978 01457 20203 10273 20130 30132 40139 70521 82500 333 58002 70003 82618==
41978,2024,12,22,09,00,AAXX 22094 41978 01957 03207 10276 20150 30109 40115 70500 333 59010 70000==
41978,2024,12,22,12,00,AAXX 22124 41978 01956 03304 10251 20150 30117 40123 70500 333 10295 59009 70002==
41978,2024,12,22,15,00,AAXX 22154 41978 41956 00204 10234 20110 30134 40140 70500 333 58008==
41978,2024,12,22,18,00,AAXX 22183 41978 01956 00303 10220 20140 30123 40129 70500 333 59014 70000==
41978,2024,12,22,21,00,AAXX 22214 41978 01956 00206 10192 20140 30122 40128 70500 333 59004 70000==
41978,2024,12,23,00,00,AAXX 23004 41978 01940 00603 10177 20150 30130 40137 70500 333 58002 70000==
41978,2024,12,23,03,00,AAXX 23033 41978 01940 00402 10210 20150 30154 40160 70500 333 20162 59001 70000==
41978,2024,12,23,06,00,AAXX 23064 41978 01956 03507 10272 20140 30136 40142 70500 333 58004 70000==
41978,2024,12,23,09,00,AAXX 23094 41978 01956 03206 10275 20140 30110 40116 70500 333 58001 70000==
41978,2024,12,23,12,00,AAXX 23124 41978 01450 23204 10250 20130 30115 40121 70500 82500 333 10293 59002 70000 82618==
41978,2024,12,23,15,00,AAXX 23154 41978 01956 03106 10230 20150 30132 40139 70500 333 59002 70000==
41978,2024,12,23,18,00,AAXX 23184 41978 01950 03204 10211 20150 30132 40139 70500 333 58009 70000==
41978,2024,12,23,21,00,AAXX 23214 41978 01940 00404 10194 20150 30127 40133 70500 333 58005 70000==
41978,2024,12,24,00,00,AAXX 24004 41978 01940 00404 10194 20150 30127 40133 70500 333 58005 70000==
41978,2024,12,24,03,00,AAXX 24034 41978 01438 70304 10210 20170 30155 40161 70511 82550 333 20162 58001 70000 82615 87362==
41978,2024,12,24,06,00,AAXX 24064 41978 01556 30305 10260 20140 30139 40145 70511 81530 333 58003 70000 81620 83363==
41978,2024,12,24,09,00,AAXX 24094 41978 01/56 32607 10271 20070 30112 40119 70511 83030 333 58002 70000 83362==
41978,2024,12,24,12,00,AAXX 24124 41978 01450 40000 10234 20130 30119 40125 70511 82530 333 10290 58004 70000 82618 83362==
41978,2024,12,24,15,00,AAXX 24154 41978 01940 00000 10224 20150 30139 40145 70511 333 58007 70000==
41978,2024,12,24,18,00,AAXX 24184 41978 01940 00602 10198 20180 30148 40154 70510 333 58016 70000==
41978,2024,12,25,03,00,AAXX 25034 41978 01435 73503 10223 20140 30171 40178 70511 82550 333 20194 58016 70000 82615 87362==
41978,2024,12,25,06,00,AAXX 25064 41978 01440 70103 10253 20130 30159 40165 70522 83520 333 58020 70000 83617 86460==
41978,2024,12,25,09,00,AAXX 25094 41978 01450 63203 10259 20130 30139 40145 70522 82530 333 58027 70000 82618 85462==
41978,2024,12,25,12,00,AAXX 25124 41978 01445 73404 10243 20140 30143 40149 70522 83520 333 10263 58024 70000 83617 87460==
41978,2024,12,25,18,00,AAXX 25184 41978 01440 70505 10217 20150 30162 40168 70522 83520 333 58014 70000 83617 87460==
41978,2024,12,26,03,00,AAXX 26034 41978 01440 60108 10220 20140 30185 40191 70522 83520 333 20186 58014 70000 83616 86460==
41978,2024,12,26,06,00,AAXX 26064 41978 01445 30106 10274 20130 30170 40176 70521 83500 333 58011 70000 83618==
41978,2024,12,26,09,00,AAXX 26094 41978 01956 03108 10290 20130 30147 40153 70511 333 58008 70000==
41978,2024,12,26,12,00,AAXX 26124 41978 01956 03205 10254 20160 30149 40155 70510 333 10294 58006 70000==
41978,2024,12,26,15,00,AAXX 26154 41978 01950 03509 10240 20150 30165 40172 70500 333 58000 70000==
41978,2024,12,26,18,00,AAXX 26184 41978 01445 33506 10228 20120 30165 40172 70510 83500 333 58003 70000 83616==
41980,2024,12,20,00,00,AAXX 20004 41980 31440 23602 10192 20170 30013 40128 70520 82500 333 56900 59018 70000 82618=
41980,2024,12,20,03,00,AAXX 20034 41980 32950 00000 10242 20140 30038 40152 333 20180 59009 70000=
41980,2024,12,20,06,00,AAXX 20064 41980 NIL=
41980,2024,12,20,09,00,AAXX 20094 41980 32950 43602 10292 20170 39997 40108 84010 333 56090 58001 70000 84459=
41980,2024,12,20,12,00,AAXX 20124 41980 31440 60000 10221 20150 30008 40122 70522 82520 333 10310 56990 59008 70000 82618 86459=
41980,2024,12,21,00,00,AAXX 21004 41980 31440 70000 10195 20190 30007 40122 70522 83520 333 56990 59006 70000 83616 87459=
41980,2024,12,21,03,00,AAXX 21034 41980 31440 73602 10220 20160 30042 40156 70522 83520 333 20180 56990 58004 70000 83616 87459=
41980,2024,12,21,09,00,AAXX 21094 41980 31440 63603 10235 20120 30017 40130 70522 83520 333 56990 58020 70000 82616 86459=
41980,2024,12,21,12,00,AAXX 21124 41980 31440 83603 10220 10120 30019 40133 70522 8352/ 333 10252 56999 58011 70000 83616 88459=
41980,2024,12,21,18,00,AAXX 21184 41980 NIL=
41980,2024,12,21,21,00,AAXX 21214 41980 NIL=
41980,2024,12,22,00,00,AAXX 22004 41980 31440 53602 10174 20150 30023 40138 70522 83520 333 56990 58016 70000 83616 85459=
41980,2024,12,22,06,00,AAXX 22064 41980 NIL=
41980,2024,12,22,09,00,AAXX 22094 41980 31940 02702 10282 20120 30004 40116 70500 333 59015 70000=
41980,2024,12,22,12,00,AAXX 22124 41980 31940 00000 10212 20150 30014 40128 70500 333 10286 59005 70000=
41980,2024,12,22,15,00,AAXX 22154 41980 NIL=
41980,2024,12,23,00,00,AAXX 23004 41980 31940 03602 10160 20140 30029 40146 70500 333 58006 70000=
41980,2024,12,23,03,00,AAXX 23034 41980 31940 00000 10225 20150 30048 40162 70500 333 20155 58002 70000=
41980,2024,12,23,09,00,AAXX 23094 41980 31940 00000 10290 20080 30004 40115 70500 333 58000 70000=
41980,2024,12,23,12,00,AAXX 23124 41980 31940 00000 10210 20150 30011 40125 70500 333 10300 59003 70000=
41980,2024,12,24,03,00,AAXX 24034 41980 31440 60000 10200 20150 30049 40164 70520 82520 333 20140 56990 58001 70000 82618 86459=
41980,2024,12,24,06,00,AAXX 24064 41980 NIL=
41980,2024,12,24,09,00,AAXX 24094 41980 31940 30000 10288 20120 30009 40122 70522 83030 333 56090 58005 70000 83362=
41980,2024,12,24,12,00,AAXX 24124 41980 31940 00000 10212 20140 30019 40133 70500 333 10286 58008 70000=
41980,2024,12,25,03,00,AAXX 25034 41980 31440 83602 10190 20170 30066 40182 70522 8352/ 333 20160 56999 58017 70000 83616 88458=
41980,2024,12,25,09,00,AAXX 25094 41980 31440 70000 10245 20160 30035 40148 70522 83520 333 56990 58026 70000 83616 87459=
41980,2024,12,25,12,00,AAXX 25124 41980 31940 60000 10210 20160 30042 40157 70522 83520 333 10251 56990 58023 70000 83616 86459=
41980,2024,12,25,18,00,AAXX 25184 41980 NIL=
41980,2024,12,26,03,00,AAXX 26034 41980 31440 63602 10210 20150 30079 40194 70522 83520 333 20172 56990 58013 70000 83616 86459=
41980,2024,12,26,09,00,AAXX 26094 41980 31940 03102 10276 20150 30041 40153 70500 333 58006 70000=
41980,2024,12,26,12,00,AAXX 26124 41980 31940 00000 10230 20140 30045 40159 70500 333 10280 58003 70000=
41980,2024,12,26,15,00,AAXX 26154 41980 NIL=
41980,2024,12,26,18,00,AAXX 26184 41980 NIL=
41984,2024,12,20,00,00,AAXX 20004 41984 01420 30000 10157 20157 30122 40124 71020 83500 333 59006 70000 83618==
41984,2024,12,20,03,00,AAXX 20034 41984 01440 20000 10200 20160 30137 40139 70500 82500 333 20150 59007 70000 82618==
41984,2024,12,20,06,00,AAXX 20064 41984 02450 53504 10257 20140 30128 40130 83510 333 59002 70000 83618 85458==
41984,2024,12,20,09,00,AAXX 20094 41984 02450 80000 10264 20140 30101 40103 8352/ 333 59007 70000 83618 88458==
41984,2024,12,20,12,00,AAXX 20124 41984 01440 80000 10230 20170 30103 40106 70522 8352/ 333 10275 59011 70000 83618 88458==
41984,2024,12,20,18,00,AAXX 20184 41984 01440 80000 10200 20180 30119 40121 70522 8352/ 333 59003 70000 83618 88458==
41984,2024,12,21,00,00,AAXX 21004 41984 01440 80000 10191 20170 30119 40121 70522 8252/ 333 59003 70000 82618 88458==
41984,2024,12,21,03,00,AAXX 21034 41984 41340 80000 10201 20180 30134 40136 76122 8672/ 333 20185 59003 83709 84615 88458==
41984,2024,12,21,06,00,AAXX 21064 41984 21440 80000 10230 20150 30128 40130 70262 8252/ 333 58000 60005 83618 88458==
41984,2024,12,21,09,00,AAXX 21094 41984 42440 83502 10211 20170 30113 40115 8353/ 333 58012 83618 88458==
41984,2024,12,21,12,00,AAXX 21124 41984 01440 80000 10199 20170 30115 40117 72162 8352/ 333 10232 58012 70990 83618 88458==
41984,2024,12,21,15,00,AAXX 21154 41984 42440 80000 10190 20180 30134 40136 8352/ 333 58018 83618 88458==
41984,2024,12,21,18,00,AAXX 21184 41984 NIL=
41984,2024,12,21,21,00,AAXX 21214 41984 NIL=
41984,2024,12,22,00,00,AAXX 22004 41984 41440 20000 10181 20170 30130 40133 70500 82500 333 58011 82618==
41984,2024,12,22,03,00,AAXX 22034 41984 41950 10230 20170 30149 40151 70500 333 20178 58015==
41984,2024,12,22,06,00,AAXX 22064 41984 42956 00000 10270 20150 30131 40133 333 58003==
41984,2024,12,22,09,00,AAXX 22094 41984 42956 00000 10278 20240 30109 40111 333 59004==
41984,2024,12,22,12,00,AAXX 22124 41984 NIL=
41984,2024,12,22,15,00,AAXX 22154 41984 02940 00000 10180 20150 30123 40125 333 59011 70000==
41984,2024,12,22,18,00,AAXX 22184 41984 02940 00000 10170 20150 30132 40134 333 59003 70000==
41984,2024,12,22,21,00,AAXX 22214 41984 01935 00000 10163 20160 30131 40133 70500 333 58012 70000==
41984,2024,12,23,00,00,AAXX 23004 41984 01920 00000 10154 20150 30129 40131 71000 333 59001 70000==
41984,2024,12,23,03,00,AAXX 23034 41984 01935 00000 10207 20170 30148 40150 70500 333 20142 59001 70000==
41984,2024,12,23,06,00,AAXX 23064 41984 02956 00000 10267 20100 30131 40133 333 58000 70000==
41984,2024,12,23,09,00,AAXX 23094 41984 02957 00000 10276 20120 30106 40108 333 59003 70000==
41984,2024,12,23,12,00,AAXX 23124 41984 02940 00000 10207 20160 30111 40113 333 10288 58003 70000==
41984,2024,12,23,15,00,AAXX 23154 41984 02940 00000 10170 20150 30127 40129 333 58004 70000==
41984,2024,12,23,18,00,AAXX 23184 41984 02940 00000 10120 20150 30129 40131 333 59003 70000==
41984,2024,12,24,00,00,AAXX 24004 41984 01435 40000 10178 20170 30141 40143 70510 83530 333 58012 70000 83618==
41984,2024,12,24,03,00,AAXX 24034 41984 01440 70000 10208 20150 30150 40152 70522 84570 333 20148 58002 70000 84618 85459==
41984,2024,12,24,06,00,AAXX 24064 41984 01450 70000 10266 20130 30135 40137 70522 84520 333 58004 70000 84618 87458==
41984,2024,12,24,09,00,AAXX 24094 41984 01450 70000 10256 20130 30110 40112 70522 84520 333 58004 70000 84618 87458==
41984,2024,12,24,12,00,AAXX 24124 41984 02440 50000 10216 20180 30115 40117 83510 333 10275 58004 70000 83618 84458==
41984,2024,12,24,15,00,AAXX 24154 41984 02440 20000 10182 20170 30130 40132 82500 333 58003 70000 82618==
41984,2024,12,24,18,00,AAXX 24184 41984 02440 20000 10190 20170 30138 40141 82500 333 58009 70000 82618==
41984,2024,12,25,03,00,AAXX 25034 41984 01440 70000 10210 20170 30169 40171 70522 84520 333 20175 58019 70000 84618 87458==
41984,2024,12,25,06,00,AAXX 25064 41984 01445 80000 10250 20120 30158 40160 70522 8452/ 333 58023 70000 84618 88458==
41984,2024,12,25,09,00,AAXX 25094 41984 01450 83602 10254 20150 30138 40140 70522 8452/ 333 58028 70000 84618 88458==
41984,2024,12,25,12,00,AAXX 25124 41984 01440 80000 10217 20170 30130 40138 70521 8352/ 333 10265 58020 70000 83618 88458==
41984,2024,12,25,18,00,AAXX 25184 41984 01440 20000 10202 20130 30158 40160 70500 82500 333 58020 70000 82618==
41984,2024,12,26,03,00,AAXX 26034 41984 01/45 10000 10228 20150 30185 40187 70510 81030 333 20185 58016 70000 81362==
41984,2024,12,26,06,00,AAXX 26064 41984 01956 03302 10276 20130 30171 40173 70510 333 58013 70000==
41984,2024,12,26,09,00,AAXX 26094 41984 02956 00000 10284 20090 30148 40150 333 58010 70000==
41984,2024,12,26,12,00,AAXX 26124 41984 02940 00000 10211 20160 30147 40149 333 10291 58012 70000==
41984,2024,12,26,15,00,AAXX 26154 41984 02940 00000 10192 20160 30159 40161 333 58005 70000==
41984,2024,12,26,18,00,AAXX 26184 41984 02940 00000 10172 20150 30168 40170 333 58010 70000==
41984,2024,12,26,21,00,AAXX 26214 41984 01940 00000 10162 20150 30168 40170 70500 333 58008 70000==
41989,2024,12,20,00,00,AAXX 20004 41989 01440 40000 10190 20170 30115 40118 70521 82530 333 59010 70000 82618 84362==
41989,2024,12,20,03,00,AAXX 20034 41989 01450 23104 10241 20180 30130 40133 70521 82500 333 20182 59007 70000 82618==
41989,2024,12,20,06,00,AAXX 20064 41989 01450 43203 10265 20190 30125 40129 70521 83530 333 59008 70000 83618 84362==
41989,2024,12,20,09,00,AAXX 20094 41989 01450 33303 10271 20170 30101 40104 70521 82530 333 59010 70000 82618==
41989,2024,12,20,12,00,AAXX 20124 41989 01440 53102 10234 20180 30091 40094 70721 82570 333 10280 59011 70000 82618 83362==
41989,2024,12,20,15,00,AAXX 20154 41989 01440 43102 10232 20180 30123 40126 70521 82530 333 58001 70000 82618 84362==
41989,2024,12,21,00,00,AAXX 21004 41989 01440 73102 10200 20150 30108 40111 70521 83570 333 59007 70000 83618 84460==
41989,2024,12,21,03,00,AAXX 21034 41989 01450 63204 10225 20150 30119 40122 70521 82570 333 20178 59011 70000 82618 84460==
41989,2024,12,21,06,00,AAXX 21064 41989 01450 63304 10260 20130 30124 40128 70521 83570 333 59001 70000 83618 83460==
41989,2024,12,21,09,00,AAXX 21094 41989 01450 53105 10263 20140 30112 40115 70522 82570 333 58011 70000 82618 83460==
41989,2024,12,21,12,00,AAXX 21124 41989 01440 63302 10230 20140 30109 40112 70522 83570 333 10265 58018 70000 83618 84460==
41989,2024,12,21,15,00,AAXX 21154 41989 01440 73104 10218 20130 30138 40142 70522 83570 333 58015 70000 83618 84460==
41989,2024,12,21,18,00,AAXX 21184 41989 NIL=
41989,2024,12,21,21,00,AAXX 21214 41989 31440 63102 10206 20130 30146 40149 70522 83570 333 56990 58019 70000 83618 94460=
41989,2024,12,21,23,00,AAXX 21234 41989 01440 63102 10206 20130 30146 40149 70522 83570 333 58019 70000 83618==
41989,2024,12,22,00,00,AAXX 22004 41989 01440 53102 10192 20150 30128 40131 70522 82570 333 58021 70000 82618 83362==
41989,2024,12,22,03,00,AAXX 22034 41989 01450 23105 10234 20150 30146 40149 70521 82500 333 20172 58024 70000 82618==
41989,2024,12,22,06,00,AAXX 22064 41989 NIL=
41989,2024,12,22,09,00,AAXX 22094 41989 01450 13104 10268 20190 30105 40108 70521 81500 333 59007 70000 81618==
41989,2024,12,22,12,00,AAXX 22124 41989 01440 33102 10232 20180 30100 40103 70521 83500 333 10272 59009 70000 83618==
41989,2024,12,22,15,00,AAXX 22154 41989 01450 33203 10225 20190 30140 40143 70521 83500 333 58002 70000 83618==
41989,2024,12,22,21,00,AAXX 22214 41989 01440 33203 10210 20220 30155 40158 70521 83500 333 58009 70000 83618==
41989,2024,12,23,00,00,AAXX 23004 41989 01430 23202 10170 20150 30130 40133 70511 82500 333 58002 70000 82618==
41989,2024,12,23,03,00,AAXX 23034 41989 01440 33203 10230 20170 30143 40146 70511 83500 333 20162 58000 70000 83618==
41989,2024,12,23,06,00,AAXX 23064 41989 01450 33202 10260 20170 30138 40141 70511 83500 333 58033 70000 83618==
41989,2024,12,23,09,00,AAXX 23094 41989 01450 33202 10260 20170 30138 40141 70511 83500 333 58033 70000 83618==
41989,2024,12,23,12,00,AAXX 23124 41989 01440 23102 10230 20170 30113 40116 70511 82500 333 10272 58017 70000 82618==
41989,2024,12,23,15,00,AAXX 23154 41989 01430 23203 10220 20180 30129 40132 70511 82500 333 59011 70000 82618==
41989,2024,12,23,21,00,AAXX 23214 41989 01430 33202 10213 20190 30138 40141 70511 83500 333 58017 70000 83618==
41989,2024,12,24,00,00,AAXX 24004 41989 01430 33203 10172 20140 30142 40145 70521 83500 333 58012 70000 83618==
41989,2024,12,24,03,00,AAXX 24034 41989 01430 33203 10228 20170 30145 40149 70511 83500 333 20157 58002 70000 83618==
41989,2024,12,24,06,00,AAXX 24064 41989 01450 33202 10265 20180 30141 40144 70521 83500 333 59005 70000 83618==
41989,2024,12,24,09,00,AAXX 24094 41989 01450 33102 10268 20190 30132 40135 70521 83500 333 59006 70000 83618==
41989,2024,12,24,15,00,AAXX 24154 41989 01450 33202 10228 20190 30150 40153 70521 83500 333 58021 70000 83618==
41989,2024,12,25,00,00,AAXX 25004 41989 01430 63103 10220 20170 30133 40136 70521 83530 333 59009 70000 83618 84362==
41989,2024,12,25,03,00,AAXX 25034 41989 01450 71302 10228 20170 30152 40155 70521 83570 333 20174 58007 70000 83618 84460==
41989,2024,12,25,06,00,AAXX 25064 41989 01450 53203 10260 20150 30161 40164 70521 83530 333 58020 70000 83618==
41989,2024,12,25,09,00,AAXX 25094 41989 01450 53203 10250 20180 30146 40149 70521 83530 333 58014 70000 83618 83362==
41989,2024,12,25,12,00,AAXX 25124 41989 01440 53203 10240 20180 30140 40143 70521 83530 333 10268 70000 83618 83362==
41989,2024,12,25,18,00,AAXX 25184 41989 NIL=
41989,2024,12,26,03,00,AAXX 26034 41989 01440 51803 10224 20170 30154 40159 70521 82530 333 20170 58002 70000 82618 83362==
41989,2024,12,26,06,00,AAXX 26064 41989 01450 53103 10270 20160 30172 40175 70521 83530 333 58027 70000 83618 83362==
41989,2024,12,26,09,00,AAXX 26094 41989 01450 53203 10280 20200 30160 40163 70521 82530 333 58014 70000 82618 83362==
41989,2024,12,26,12,00,AAXX 26124 41989 01440 53201 10238 20180 30150 40153 70521 83530 333 10286 58010 70000 83618 83362==
41989,2024,12,26,15,00,AAXX 26154 41989 01440 53102 10230 20180 30159 40162 70521 83530 333 58007 70000 83618 83362==
41989,2024,12,26,18,00,AAXX 26184 41989 NIL=
41989,2024,12,26,21,00,AAXX 26214 41989 01430 33302 10210 20170 30156 40159 70521 83500 333 59007 70000 83618==
41992,2024,12,20,00,00,AAXX 20004 41992 01925 03602 10210 20160 30124 40126 70500 333 59008 70000==
41992,2024,12,20,03,00,AAXX 20034 41992 01930 03603 10240 20180 30146 40148 70510 333 20205 59006 70000==
41992,2024,12,20,06,00,AAXX 20064 41992 01/35 53604 10295 20180 30128 40130 70521 85030 333 59005 70000 85362==
41992,2024,12,20,09,00,AAXX 20094 41992 01/30 62706 10285 20190 30106 40108 70522 86030 333 59008 70000 86360==
41992,2024,12,20,12,00,AAXX 20124 41992 01425 63303 10255 20190 30116 40118 70522 84520 333 10304 59004 70000 84615 86460==
41992,2024,12,20,15,00,AAXX 20154 41992 01925 03602 10234 20180 30133 40135 70522 333 58000 70000==
41992,2024,12,20,18,00,AAXX 20184 41992 01925 03605 10224 20180 30126 40128 70520 333 59003 70000==
41992,2024,12,20,21,00,AAXX 20214 41992 01925 00303 10220 20170 30102 40104 70500 333 59012 70000==
41992,2024,12,21,00,00,AAXX 21004 41992 01925 00302 10210 20150 30113 40015 70500 333 59011 70000==
41992,2024,12,21,03,00,AAXX 21034 41992 01430 63603 10220 20160 30146 40148 70522 84530 333 20206 58000 70000 83616 86362==
41992,2024,12,21,06,00,AAXX 21064 41992 01430 60309 10258 20150 30131 40133 70522 84530 333 58003 70000 84616 86362==
41992,2024,12,21,09,00,AAXX 21094 41992 01430 63608 10265 20140 30114 40116 70522 84530 333 58008 70000 84616 86362==
41992,2024,12,21,12,00,AAXX 21124 41992 01430 63606 10244 20070 30124 40126 70522 84530 333 10272 58008 70000 84616 86362==
41992,2024,12,21,15,00,AAXX 21154 41992 01425 63605 10225 20120 30141 40143 70522 83530 333 58008 70000 83616 86362==
41992,2024,12,21,18,00,AAXX 21184 41992 01425 60000 10218 20140 30130 40132 70522 84520 333 58004 70000 84616 86460==
41992,2024,12,21,21,00,AAXX 21214 41992 01425 60302 10215 20140 30121 40123 70521 84520 333 58019 70000 84615 86360==
41992,2024,12,21,23,00,AAXX 21234 41992 01425 60302 10215 20140 30121 40123 70521 84520 333 58019 70000 84615 86360==
41992,2024,12,22,00,00,AAXX 22004 41992 01420 70302 10210 20140 30134 40136 70522 84520 333 58021 70000 84615 87460==
41992,2024,12,22,03,00,AAXX 22034 41992 01930 03608 10235 20170 30153 40155 70522 333 20196 58007 70000==
41992,2024,12,22,06,00,AAXX 22063 41992 01940 40303 10305 20180 30136 40138 70521 84001 333 58005 70000 84080==
41992,2024,12,22,09,00,AAXX 22094 41992 01940 43312 10290 20120 30109 40111 70521 84001 333 59005 70000 84080==
41992,2024,12,22,12,00,AAXX 22124 41992 01925 03310 10250 20160 30118 40120 70500 333 10295 59006 70000==
41992,2024,12,22,15,00,AAXX 22154 41992 01925 03604 10227 20160 30134 40136 70500 333 59007 70000==
41992,2024,12,22,18,00,AAXX 22183 41992 01925 03601 10210 20150 30130 40132 70500 333 58000 70000==
41992,2024,12,22,21,00,AAXX 22214 41992 01925 00302 10205 20150 30120 40122 70500 333 59001 70000==
41992,2024,12,23,00,00,AAXX 23004 41992 01925 00302 10200 20140 30131 40133 70500 333 59003 70000==
41992,2024,12,23,03,00,AAXX 23033 41992 01930 03603 10220 20140 30154 40156 70500 333 20190 58001 70000==
41992,2024,12,23,06,00,AAXX 23064 41992 01940 03503 10290 20140 30136 40138 70500 333 58000 70000==
41992,2024,12,23,09,00,AAXX 23094 41992 01940 03008 10283 20170 30108 40110 70500 333 59001 70000==
41992,2024,12,23,12,00,AAXX 23124 41992 01925 03305 10240 20170 30118 40120 70500 333 10310 58000 70000==
41992,2024,12,23,15,00,AAXX 23154 41992 01925 03302 10222 20170 30138 40140 70500 333 58004 70000==
41992,2024,12,23,18,00,AAXX 23184 41992 01925 00303 10213 20160 30135 40137 70500 333 58005 70000==
41992,2024,12,23,21,00,AAXX 23214 41992 01925 00303 10202 20160 30126 40128 70500 333 58006 70000==
41992,2024,12,24,00,00,AAXX 24004 41992 01925 00302 10190 20150 30138 40140 70500 333 58008 70000==
41992,2024,12,24,03,00,AAXX 24034 41992 01430 60303 10230 20160 30158 40160 70521 84530 333 20188 58004 70000 84616 86362==
41992,2024,12,24,06,00,AAXX 24064 41992 01435 60305 10267 20140 30143 40145 70520 84530 333 58007 70000 84616 86362==
41992,2024,12,24,09,00,AAXX 24094 41992 01940 02407 10290 20120 30116 40118 70500 333 58008 70000==
41992,2024,12,24,12,00,AAXX 24124 41992 01/25 63305 10240 20120 30126 40128 70521 86030 333 10294 58008 70000 86362==
41992,2024,12,24,15,00,AAXX 24154 41992 01925 00000 10222 20150 30144 40146 70520 333 58006 70000==
41992,2024,12,24,18,00,AAXX 24184 41992 01925 00000 10210 20160 30150 40152 70520 333 58015 70000==
41992,2024,12,25,03,00,AAXX 25034 41992 01430 63302 10235 20170 30172 40174 70521 84530 333 20197 58014 70000 84616 86362==
41992,2024,12,25,06,00,AAXX 25064 41992 01430 63303 10249 20150 30163 40165 70521 84330 333 58020 70000 84616 86362==
41992,2024,12,25,09,00,AAXX 25094 41992 01430 63308 10265 20160 30142 40144 70521 84530 333 58026 70000 84616 86362==
41992,2024,12,25,12,00,AAXX 25124 41992 01425 63005 10245 20170 30148 40150 70521 84530 333 10272 58022 70000 84616 86362==
41992,2024,12,25,18,00,AAXX 25184 41992 01425 23602 10220 20170 30175 40177 70522 82530 333 58025 70000 82616 83362==
41992,2024,12,26,03,00,AAXX 26034 41992 01430 63608 10238 20160 30185 40187 70521 84530 333 20206 58013 70000 84616 84362==
41992,2024,12,26,06,00,AAXX 26063 41992 01940 03304 10281 20160 30174 40176 70521 333 58009 70000==
41992,2024,12,26,09,00,AAXX 26094 41992 01930 03310 10288 20160 30147 40149 70500 333 58005 70000==
41992,2024,12,26,12,00,AAXX 26124 41992 01925 03305 10240 20170 30135 40155 70500 333 10295 58005 70000==
41992,2024,12,26,15,00,AAXX 26154 41992 01925 03603 10232 20180 30166 40168 70500 333 58001 70000==
41992,2024,12,26,18,00,AAXX 26184 41992 01925 03302 10222 20170 30168 40170 70500 333 59007 70000==
41998,2024,12,20,00,00,AAXX 20004 41998 NIL=
41998,2024,12,20,03,00,AAXX 20034 41998 01950 00000 10250 20200 30101 40107 70500 333 20190 58000 70000==
41998,2024,12,20,06,00,AAXX 20064 41998 NIL=
41998,2024,12,20,09,00,AAXX 20094 41998 01450 62802 10284 20200 30081 40087 70522 83470 333 59007 70000 82618 83458==
41998,2024,12,20,12,00,AAXX 20124 41998 01450 60000 10244 20200 30106 40111 70522 83470 333 10293 58001 70000 82618 83458==
41998,2024,12,21,03,00,AAXX 21034 41998 01450 60000 10210 20150 30140 40146 70522 8347/ 333 20170 58039 70000 82618 84458==
41998,2024,12,21,09,00,AAXX 21094 41998 NIL=
41998,2024,12,21,12,00,AAXX 21124 41998 01450 70000 10202 20180 30098 40104 70522 83470 333 10281 59007 70000 82618 83458==
41998,2024,12,21,18,00,AAXX 21184 41998 NIL=
41998,2024,12,21,21,00,AAXX 21214 41998 NIL=
41998,2024,12,22,00,00,AAXX 22004 41998 01450 60000 10195 20170 30129 40135 70500 83470 333 59011 70000 82618 84458==
41998,2024,12,22,06,00,AAXX 22064 41998 NIL=
41998,2024,12,22,09,00,AAXX 22094 41998 02956 02802 10287 20190 30092 40098 333 59002 70000==
41998,2024,12,22,12,00,AAXX 22124 41998 01950 00000 10233 20180 30097 40103 70500 333 10302 59001 70000==
41998,2024,12,22,15,00,AAXX 22154 41998 NIL=
41998,2024,12,23,00,00,AAXX 23004 41998 01950 00000 10165 20150 30144 40150 70500 333 59001 70000==
41998,2024,12,23,03,00,AAXX 23034 41998 31950 00000 10230 20180 30136 40136 70500 333 20160 59001 70000=
41998,2024,12,23,06,00,AAXX 23064 41998 01950 00000 10230 20180 30136 40136 70500 333 20160 59001 70000==
41998,2024,12,23,12,00,AAXX 23124 41998 01950 00000 10228 20180 30110 40116 70500 333 10301 58013 70000==
41998,2024,12,24,03,00,AAXX 24034 41998 01950 00000 10210 20170 30129 40135 70500 333 20160 59001 70000==
41998,2024,12,24,06,00,AAXX 24064 41998 NIL=
41998,2024,12,24,09,00,AAXX 24094 41998 01950 01808 10260 20210 30109 40115 70500 333 58009 70000==
41998,2024,12,25,00,00,AAXX 25004 41998 01450 60000 10165 20150 30152 40158 70522 83470 333 58007 70000 82618 84458==
41998,2024,12,25,03,00,AAXX 25034 41998 01450 60000 10225 20190 30137 40143 70500 83470 333 20157 58008 70000 82618 84458==
41998,2024,12,25,06,00,AAXX 25064 41998 01450 60000 10265 20210 30142 40148 70522 83470 333 58009 70000 82618 84458==
41998,2024,12,25,09,00,AAXX 25094 41998 NIL=
41998,2024,12,25,12,00,AAXX 25124 41998 41450 60000 10260 20210 30130 40136 70522 83470 333 10273 58021 82618 84458==
41998,2024,12,25,18,00,AAXX 25184 41998 NIL=
41998,2024,12,26,00,00,AAXX 26004 41998 01450 50000 10170 20140 30173 40179 70522 333 58021 70000 81618 83458==
41998,2024,12,26,03,00,AAXX 26034 41998 01450 50000 10200 20160 30182 40188 70522 333 20160 58045 70000 81618 83458==
41998,2024,12,26,09,00,AAXX 26094 41998 01950 00000 10290 20210 30132 40138 70500 333 58007 70000==
41998,2024,12,26,12,00,AAXX 26124 41998 42950 00000 10300 20220 30138 40144 58008==
41998,2024,12,26,15,00,AAXX 26154 41998 NIL=
41998,2024,12,26,18,00,AAXX 26184 41998 NIL=
