ESTACION,ANO,MES,DIA,HORA,MINUTO,PARTE
41850,2023,10,06,00,00,AAXX 06004 41850 31450 50803 10245 20220 39945 40043 70522 82520 333 56990 59014 70036 82618 85458=
41850,2023,10,06,06,00,AAXX 06064 41850 32456 50905 10294 20220 39964 40061 82530 333 56990 59004 70006 82618 85362=
41850,2023,10,06,12,00,AAXX 06124 41850 31450 20000 10276 20240 39950 40047 70521 82500 333 10304 56900 58005 70000 82618=
41850,2023,10,06,18,00,AAXX 06184 41850 31440 60402 10254 20240 39970 40068 70522 83520 333 56990 58019 70000 83618 86458=
41850,2023,10,07,00,00,AAXX 07004 41850 31450 50902 10240 20230 39966 40065 70522 82530 333 56990 58021 70000 82618 85362=
41850,2023,10,07,06,00,AAXX 07064 41850 32457 41203 10300 20240 39975 40072 82510 333 56990 58011 70000 82618 84460=
41850,2023,10,07,12,00,AAXX 07124 41850 32450 40000 10281 20250 39963 40060 82510 333 10315 56990 58013 70000 82618 84460=
41850,2023,10,07,18,00,AAXX 07184 41850 31440 50000 10258 20250 39980 40079 70522 82520 333 56990 58010 70000 82618 85458=
41850,2023,10,08,00,00,AAXX 08004 41850 31435 60000 10248 20248 39975 40074 70522 83520 333 56990 58009 70000 83618 86458=
41850,2023,10,08,06,00,AAXX 08064 41850 11450 70000 10288 20250 39984 40082 69965 70562 83520 333 56990 58009 70006 83618 87458=
41850,2023,10,08,12,00,AAXX 08124 41850 32450 40000 10285 20260 39960 40057 82530 333 10316 56990 59003 70006 82618 84362=
41850,2023,10,08,18,00,AAXX 08184 41850 31440 50000 10263 20240 39984 40083 70522 82520 333 56990 58004 70006 82618 85458=
41850,2023,10,09,00,00,AAXX 09004 41850 11435 50000 10237 20240 39985 40084 60026 70562 82520 333 56990 58010 70022 82618 84458=
41850,2023,10,09,06,00,AAXX 09064 41850 32456 22002 10312 20240 39996 40093 82500 333 56900 58012 70016 82618=
41850,2023,10,09,12,00,AAXX 09124 41850 11450 20000 10283 20260 39973 40070 69905 70561 82500 333 10330 56900 58013 70016 82616=
41850,2023,10,09,18,00,AAXX 09184 41850 31435 00000 10265 20260 39998 40096 70510 333 58014 70016=
41850,2023,10,10,00,00,AAXX 10004 41850 31450 50904 10248 20240 30012 40111 70521 82510 333 56990 58027 70000 82618 85458=
41850,2023,10,10,06,00,AAXX 10064 41850 31450 70905 10294 20230 30005 40109 70522 83520 333 56990 58009 70000 83618 87458=
41850,2023,10,10,12,00,AAXX 10124 41850 31450 00000 10275 20250 39977 40075 70520 333 10309 58004 70000=
41850,2023,10,10,18,00,AAXX 10184 41850 31435 00000 10249 20240 30001 40100 70500 333 58003 70000=
41850,2023,10,11,00,00,AAXX 11004 41850 31450 80000 10247 20240 39995 40094 70521 8352/ 333 56999 59017 70000 83618 88458=
41850,2023,10,11,06,00,AAXX 11064 41850 32456 50903 10304 20230 30000 40097 82510 333 59005 70000 82618 85458=
41850,2023,10,11,12,00,AAXX 11124 41850 31450 20000 10285 20270 39979 40077 70521 82500 333 10323 58004 70000 82618=
41850,2023,10,11,18,00,AAXX 11184 41850 11435 50000 10234 20230 30006 40106 60123 70562 82510 333 56990 58005 70120 82618 85458=
41850,2023,10,12,00,00,AAXX 12004 41850 31460 20000 10226 20226 30021 40121 70521 82500 333 56900 58026 70120 82618=
41850,2023,10,12,06,00,AAXX 12064 41850 32456 51302 10300 20230 30021 40118 82510 333 56990 58021 70120 82618 85458=
41850,2023,10,12,12,00,AAXX 12124 41850 31450 80000 10285 20260 30002 40100 70522 8352/ 333 10319 56999 58023 70120 83618 88458=
41850,2023,10,12,18,00,AAXX 12184 41850 11435 50000 10224 20210 30021 40121 60318 70562 82510 333 56990 58015 70310 82618 85458=
41851,2023,10,06,00,00,AAXX 06004 41851 32450 80905 10247 20230 39977 40040 8352/ 333 56299 59018 70120 83617 88457=
41851,2023,10,06,06,00,AAXX 06064 41851 32350 80706 10278 20240 39999 40061 8462/ 333 56299 59002 70003 81709 83617 88457=
41851,2023,10,06,12,00,AAXX 06124 41851 32350 80902 10268 20240 39985 40048 8462/ 333 10291 56299 58009 70000 81709 83617 88457=
41851,2023,10,06,18,00,AAXX 06184 41851 32450 81201 10252 20240 30003 40066 8352/ 333 56999 58021 70000 83618 88457=
41851,2023,10,07,00,00,AAXX 07004 41851 32450 50000 10243 20230 30001 40064 82510 333 56990 58024 70000 82618 85458=
41851,2023,10,07,03,00,AAXX 07034 41851 32396 32701 10254 20224 40088 333 20188 59001 555 10000=
41851,2023,10,07,06,00,AAXX 07064 41851 32350 81502 10290 20240 30016 40078 8462/ 333 56299 58017 70000 81709 83617 88457=
41851,2023,10,07,12,00,AAXX 07124 41851 32450 60000 10280 20250 39997 40059 83520 333 10295 56990 58012 70000 83618 86458=
41851,2023,10,07,18,00,AAXX 07184 41851 32450 80000 10260 20250 30016 40079 8352/ 333 56999 58013 70000 83618 88458=
41851,2023,10,08,00,00,AAXX 08004 41851 31440 80000 10256 20250 30010 40073 70522 8352/ 333 56999 58009 70000 83618 88457=
41851,2023,10,08,06,00,AAXX 08064 41851 32350 80901 10295 20250 30022 40084 8462/ 333 56299 58006 70000 81709 83617 88457=
41851,2023,10,08,12,00,AAXX 08124 41851 32450 50000 10285 20250 39998 40060 83430 333 10310 56990 58001 70000 82618 85362=
41851,2023,10,08,18,00,AAXX 08184 41851 31440 20000 10257 20250 30020 40083 70521 82500 333 56900 58004 70000 82618=
41851,2023,10,09,00,00,AAXX 09004 41851 31430 20000 10245 20240 30021 40084 70511 82500 333 56900 58011 70000 82618=
41851,2023,10,09,06,00,AAXX 09064 41851 31445 70000 10312 20250 30031 40093 70521 83520 333 56990 58009 70000 83618 87458=
41851,2023,10,09,12,00,AAXX 09124 41851 31440 30000 10300 20260 30005 40067 70511 83500 333 10330 56900 58007 70000 83618=
41851,2023,10,09,18,00,AAXX 09184 41851 11340 80902 10258 20220 30035 40098 69984 70396 8532/ 333 56999 58015 70008 81708 83616 81930 88458=
41851,2023,10,10,00,00,AAXX 10004 41851 11340 81303 10245 20245 30039 40102 60034 71796 8532/ 333 56999 58018 70034 81709 83616 81930 88458=
41851,2023,10,10,06,00,AAXX 10064 41851 31445 81302 10285 20250 30049 40112 70522 8352/ 333 56999 58018 70034 83618 88458=
41851,2023,10,10,12,00,AAXX 10124 41851 31440 60000 10280 20250 30014 40076 70522 83510 333 10300 56990 58009 70034 83618 85459=
41851,2023,10,10,18,00,AAXX 10184 41851 31940 00000 10260 20260 30034 40097 70520 333 59001 70026=
41851,2023,10,11,00,00,AAXX 11004 41851 31440 80902 10255 20250 30031 40094 70520 8352/ 333 56999 59008 70000 83618 88458=
41851,2023,10,11,06,00,AAXX 11064 41851 31445 50902 10305 20260 30040 40102 70522 82510 333 56990 59009 70000 82618 84459=
41851,2023,10,11,12,00,AAXX 11124 41851 31940 00000 10300 20270 30014 40076 70521 333 10320 58000 70000=
41851,2023,10,11,18,00,AAXX 11184 41851 31940 00000 10256 20250 30040 40103 70500 333 58006 70000=
41851,2023,10,12,00,00,AAXX 12004 41851 31440 80901 10236 20230 30047 40111 70520 8352/ 333 56999 58016 70000 83618 88458=
41851,2023,10,12,06,00,AAXX 12064 41851 31445 51302 10302 20250 30062 40124 70522 82510 333 56990 58022 70000 82618 84459=
41851,2023,10,12,12,00,AAXX 12124 41851 31440 30000 10295 20270 30036 40098 70522 83500 333 10320 56900 58022 70000 83618=
41851,2023,10,12,18,00,AAXX 12184 41851 31940 00000 10255 20250 30056 40117 70510 333 58014 70000=
41856,2023,10,06,00,00,AAXX 06004 41856 32440 80903 10244 20220 30001 40037 8352/ 333 56999 59024 70193 83618 88458=
41856,2023,10,06,06,00,AAXX 06064 41856 32450 80904 10260 20220 30024 40059 8352/ 333 56999 59007 70088 83618 88458=
41856,2023,10,06,12,00,AAXX 06124 41856 32430 80502 10250 20240 30011 40047 8662/ 333 10284 56299 58007 70000 84709 86615 88457=
41856,2023,10,06,18,00,AAXX 06184 41856 32430 80502 10250 20240 30027 40063 8662/ 333 56299 58003 70000 84709 86615 88457=
41856,2023,10,07,00,00,AAXX 07004 41856 32430 80502 10248 20240 30025 40061 8662/ 333 56199 58024 70000 84709 86615 88457=
41856,2023,10,07,06,00,AAXX 07064 41856 32450 80504 10274 20240 30039 40074 8662/ 333 56199 58015 70000 84709 86615 88457=
41856,2023,10,07,12,00,AAXX 07124 41856 11430 80000 10268 20260 30026 40061 60014 72162 8562/ 333 10290 56299 58015 70005 83709 85615 88458=
41856,2023,10,07,18,00,AAXX 07184 41856 11330 80902 10253 20250 30042 40078 60074 76162 8672/ 333 56299 58015 70075 84708 86614 88456=
41856,2023,10,08,00,00,AAXX 08004 41856 11430 80000 10252 20250 30038 40074 60014 70262 8662/ 333 56299 58013 70081 84709 86615 88458=
41856,2023,10,08,06,00,AAXX 08064 41856 32456 51802 10308 20250 30049 40084 83430 333 56990 58010 70081 81615 83825 85362=
41856,2023,10,08,12,00,AAXX 08124 41856 32950 50000 10295 20270 30024 40059 85030 333 10333 56060 59002 70076 85362=
41856,2023,10,08,18,00,AAXX 08184 41856 31930 03301 10257 20257 30048 40084 70521 333 58006 70006=
41856,2023,10,09,00,00,AAXX 09004 41856 11430 80000 10244 20230 30047 40083 60095 70362 8442/ 333 56699 58009 70086 83618 88458=
41856,2023,10,09,06,00,AAXX 09064 41856 32950 32102 10332 20260 30057 40092 83400 333 56900 58008 70086 82618=
41856,2023,10,09,12,00,AAXX 09124 41856 31440 20000 10298 20270 30031 40066 70522 81130 333 10340 56990 58007 70086 81830=
41856,2023,10,09,18,00,AAXX 09184 41856 31425 61402 10262 20240 30060 40096 70522 84410 333 56990 58012 70086 83618 85458=
41856,2023,10,10,00,00,AAXX 10004 41856 11330 80000 20252 20240 30070 40106 60024 75162 8672/ 333 56399 58023 70015 83710 84618 88458=
41856,2023,10,10,06,00,AAXX 10064 41856 11440 80000 10270 20250 30076 40112 60031 70262 8452/ 333 56999 58019 70041 84618 88458=
41856,2023,10,10,12,00,AAXX 10124 41856 32450 60000 10275 20260 30040 40075 82570 333 10290 56990 58009 70041 82618 84362=
41856,2023,10,10,18,00,AAXX 10184 41856 31930 40000 10260 20250 30065 40101 70522 84030 333 56090 58005 70041 84362=
41856,2023,10,11,00,00,AAXX 11004 41856 31930 40000 10255 20250 30057 40093 70522 84030 333 56090 59013 70026 84362=
41856,2023,10,11,06,00,AAXX 11064 41856 32450 31101 10313 20240 30065 40100 82530 333 56990 59011 70000 82618=
41856,2023,10,11,12,00,AAXX 11124 41856 31950 00000 10295 20270 30043 40078 70510 333 10330 58003 70000=
41856,2023,10,11,18,00,AAXX 11184 41856 31425 30000 10260 20250 30068 40104 70511 83400 333 56900 58003 70000 82618=
41856,2023,10,12,00,00,AAXX 12004 41856 31940 40000 10242 20230 30074 40110 70522 84030 333 56090 58017 70000 84362=
41856,2023,10,12,06,00,AAXX 12064 41856 32450 60000 10304 20250 30084 40119 83420 333 56990 58019 70000 82618 86458=
41856,2023,10,12,12,00,AAXX 12124 41856 32450 30000 10300 20270 30062 40097 81530 333 10325 56990 58019 70000 81618 83362=
41856,2023,10,12,18,00,AAXX 12184 41856 31930 20000 10262 20250 30087 40123 70511 82030 333 56090 58019 70000 82362=
41858,2023,10,06,00,00,AAXX 06004 41858 01430 80910 10260 20240 39988 40034 70522 8472/ 333 59020 70131 83708 84614 88458==
41858,2023,10,06,03,00,AAXX 06034 41858 01350 80910 10268 20240 30014 40059 70522 8562/ 333 20244 59010 70057 83708 85614 88458==
41858,2023,10,06,06,00,AAXX 06064 41858 01340 80912 10260 20240 30013 40058 72162 8562/ 333 59001 70004 83708 85614 88458==
41858,2023,10,06,09,00,AAXX 06094 41858 01450 70810 10284 20230 39991 40036 70522 84520 333 59001 70005 84615 86458==
41858,2023,10,06,12,00,AAXX 06124 41858 01350 80506 10260 20230 30000 40046 70522 8562/ 333 10285 58011 70004 83708 85615 88458==
41858,2023,10,06,15,00,AAXX 06154 41858 01340 80808 10255 20240 30020 40066 70522 8562/ 333 58013 70004 83708 86515 88458==
41858,2023,10,06,18,00,AAXX 06184 41858 01440 80806 10255 20240 30021 40067 70522 8452/ 333 58005 70004 84615 88458==
41858,2023,10,06,21,00,AAXX 06214 41858 01440 70505 10256 20240 30008 40054 70522 84520 333 58010 70004 84615 86458==
41858,2023,10,07,00,00,AAXX 07004 41858 01440 70505 10254 20230 30018 40064 70522 84520 333 58030 70004 84615 86458==
41858,2023,10,07,03,00,AAXX 07034 41858 01440 80606 10270 20250 30042 40088 70522 8452/ 333 20245 58028 70004 84614 88458==
41858,2023,10,07,06,00,AAXX 07064 41858 01440 70906 10290 20260 30033 40078 70522 84520 333 58020 70000 84615 86458==
41858,2023,10,07,09,00,AAXX 07094 41858 01450 80905 10290 20250 30011 40053 70522 8452/ 333 58020 70000 84615 88458==
41858,2023,10,07,12,00,AAXX 07124 41858 01440 70905 10275 20240 30017 40062 70522 84520 333 10310 58017 70000 84615 87458==
41858,2023,10,07,15,00,AAXX 07154 41858 01440 80905 10265 20250 30037 40083 70522 8452/ 333 58017 70000 84615 88458==
41858,2023,10,07,18,00,AAXX 07184 41858 01440 80904 10258 20240 30042 40088 70522 8452/ 333 58018 70000 84615 88458==
41858,2023,10,07,21,00,AAXX 07214 41858 01420 70000 10256 20240 30026 40072 71022 84520 333 58018 70000 84615 86458==
41858,2023,10,08,00,00,AAXX 08004 41858 01408 80000 10260 20250 30029 40075 74222 8452/ 333 58011 70000 84615 88458==
41858,2023,10,08,03,00,AAXX 08034 41858 01425 80000 10270 20250 30048 40094 71022 8452/ 333 20250 58006 70000 84615 88458==
41858,2023,10,08,06,00,AAXX 08064 41858 01440 71805 10314 20260 30043 40088 70522 83520 333 58010 70000 83616 86458==
41858,2023,10,08,09,00,AAXX 08094 41858 01450 52106 10332 20250 30018 40062 70522 83520 333 58007 70000 83615 85458==
41858,2023,10,08,12,00,AAXX 08124 41858 11450 52105 10282 20260 30017 40062 60126 70562 83520 333 10335 58000 70120 83615 85458==
41858,2023,10,08,15,00,AAXX 08154 41858 01950 02105 10272 20260 30039 40085 70500 333 58002 70120==
41858,2023,10,08,18,00,AAXX 08184 41858 01940 02105 10264 20250 30046 40091 70500 333 58002 70120==
41858,2023,10,08,21,00,AAXX 08211 41858 01412 60603 10262 20250 30043 40089 71022 83520 333 58017 70120 83615 86458==
41858,2023,10,09,00,00,AAXX 09004 41858 01412 80605 10260 20250 30040 40086 71022 8452/ 333 58011 70120 84615 88458==
41858,2023,10,09,03,00,AAXX 09034 41858 01430 32105 10290 20250 30058 40103 70522 83500 333 20250 58010 70120 83618==
41858,2023,10,09,06,00,AAXX 09064 41858 01435 52705 10335 20260 30050 40094 70522 85800 333 58007 70120 83615 83825==
41858,2023,10,09,09,00,AAXX 09094 41858 01535 32705 10344 20250 30023 40067 70522 83200 333 58005 70120 83825==
41858,2023,10,09,12,00,AAXX 09124 41858 01/35 20000 10295 20270 30026 40071 70511 82030 333 10355 58009 70000 82362==
41858,2023,10,09,15,00,AAXX 09154 41858 01/35 31805 10282 20260 30045 40091 70520 83030 333 58006 70000 83362==
41858,2023,10,09,18,00,AAXX 09184 41858 01/30 32105 10272 20250 30053 40099 70520 83030 333 58008 70000 83362==
41858,2023,10,09,21,00,AAXX 09214 41858 01430 80905 10252 20240 30051 40097 79596 8532/ 333 58008 70400 84615 88458 82930==
41858,2023,10,10,00,00,AAXX 10004 41858 21420 80000 10245 20240 30060 40106 79596 8532/ 333 58020 61019 71010 84615 88458 82930==
41858,2023,10,10,03,00,AAXX 10034 41858 01420 80905 10254 20240 30080 40126 72996 8452/ 333 20234 58022 71110 84615 88458==
41858,2023,10,10,06,00,AAXX 10064 41858 21440 80905 10284 20240 30067 40113 70596 8452/ 333 58017 60107 71110 84615 88458==
41858,2023,10,10,09,00,AAXX 10094 41858 01430 70905 10290 20260 30036 40081 70562 84520 333 58013 71122 84615 86458==
41858,2023,10,10,12,00,AAXX 10124 41858 11430 80000 10276 20260 30032 40077 60016 70562 8452/ 333 10292 58006 71122 84615 88458==
41858,2023,10,10,15,00,AAXX 10154 41858 01430 80000 10270 20250 30051 40097 70522 8452/ 333 58006 71122 84615 88458==
41858,2023,10,10,18,00,AAXX 10184 41858 01430 80000 10265 20260 30056 40102 76122 8452/ 333 58003 70050 84615 88458==
41858,2023,10,10,21,00,AAXX 10214 41858 01430 80000 10262 20250 30048 40094 70562 8452/ 333 59003 70876 84615 88458==
41858,2023,10,11,00,00,AAXX 11004 41858 11415 70000 10265 20260 30050 40096 60106 71062 84520 333 59010 70266 84615 86458==
41858,2023,10,11,03,00,AAXX 11034 41858 01425 80905 10275 20260 30069 40115 71022 8452/ 333 20242 59011 70166 84615 88458==
41858,2023,10,11,06,00,AAXX 11064 41858 01535 30905 10320 20260 30058 40103 70520 83100 333 59009 70154 83825==
41858,2023,10,11,09,00,AAXX 11094 41858 01440 70604 10314 20260 30029 40074 70522 84520 333 59007 70142 84615 86458==
41858,2023,10,11,12,00,AAXX 11124 41858 01430 50902 10302 20270 30033 40079 70522 83520 333 10327 58001 70154 83616 85458==
41858,2023,10,11,15,00,AAXX 11154 41858 01430 50000 10290 20270 30057 40102 70522 82520 333 58006 70154 82615 85458==
41858,2023,10,11,18,00,AAXX 11184 41858 01430 50000 10280 20260 30062 40108 70522 83520 333 58006 70104 83615 85458==
41858,2023,10,11,21,00,AAXX 11214 41858 01420 60000 10256 20250 30055 40101 71022 84520 333 58006 70000 84615 85458==
41858,2023,10,12,00,00,AAXX 12004 41858 01406 80000 10260 20250 30065 40111 74222 8452/ 333 58015 70000 84615 88458==
41858,2023,10,12,03,00,AAXX 12034 41858 01415 80905 10275 20260 30088 40134 71044 8452/ 333 20248 58019 70000 84615 88458==
41858,2023,10,12,06,00,AAXX 12064 41858 01432 30303 10315 20270 30078 40123 70542 83500 333 58020 70000 83615==
41858,2023,10,12,09,00,AAXX 12094 41858 01440 32405 10338 20260 30054 40098 70522 83500 333 58025 70000 83618==
41858,2023,10,12,12,00,AAXX 12124 41858 01/40 33404 10302 20260 30056 40101 70521 83030 333 10341 58023 70000 83362==
41858,2023,10,12,15,00,AAXX 12154 41858 01930 00000 10276 20260 30076 40122 70520 83030 333 58019 70000 83362==
41858,2023,10,12,18,00,AAXX 12184 41858 01/25 30000 10266 20260 30079 40125 71020 83030 333 58017 70000 83362==
41858,2023,10,12,21,00,AAXX 12214 41858 01920 00000 10260 20250 30081 40127 71000 333 58026 70000==
41859,2023,10,06,00,00,AAXX 06004 41859 02430 80506 10257 20240 39995 40032 8562/ 333 59023 70098 83710 85618 88458==
41859,2023,10,06,03,00,AAXX 06034 41859 01330 80504 10257 20250 30023 40060 76162 8672/ 333 20248 59014 70059 84708 85616 88456==
41859,2023,10,06,06,00,AAXX 06064 41859 21340 80504 10260 20250 30020 40057 76166 8672/ 333 59006 60027 70070 84708 85616 88456==
41859,2023,10,06,09,00,AAXX 06094 41859 NIL=
41859,2023,10,06,12,00,AAXX 06124 41859 11330 80503 10256 20250 30011 40048 69942 76162 8672/ 333 10282 58012 70032 84708 85614 88456==
41859,2023,10,06,15,00,AAXX 06154 41859 01430 80000 10255 20250 30029 40066 76162 8672/ 333 58014 70042 83710 84618 88458==
41859,2023,10,06,18,00,AAXX 06184 41859 01430 80000 10255 20250 30026 40063 70262 8562/ 333 58021 70044 83710 84618 88458==
41859,2023,10,06,21,00,AAXX 06214 41859 01430 80000 10255 20250 30018 40055 72166 8562/ 333 58026 70046 83710 84618 88458==
41859,2023,10,07,00,00,AAXX 07004 41859 21430 80000 10253 20250 30022 40059 70262 8562/ 333 58027 69928 70046 83710 84618 88458==
41859,2023,10,07,03,00,AAXX 07034 41859 01350 80000 10259 20250 30050 40087 76162 8672/ 333 20248 58027 70084 83704 84615 88457==
41859,2023,10,07,06,00,AAXX 07064 41859 21350 80000 10269 20250 30042 40079 76162 8672/ 333 58022 60109 70122 83708 84615 88457==
41859,2023,10,07,09,00,AAXX 07094 41859 01450 80502 10287 20260 30018 40055 70262 8562/ 333 58019 70124 83710 84618 88458==
41859,2023,10,07,12,00,AAXX 07124 41859 21430 80000 10270 20260 30026 40063 70262 8562/ 333 10290 58015 60017 70124 83710 84618 88458==
41859,2023,10,07,15,00,AAXX 07154 41859 02430 81302 10270 20260 30044 40081 8562/ 333 58015 70114 82710 84618 88458==
41859,2023,10,07,18,00,AAXX 07184 41859 01430 80502 10269 20260 30042 40079 72122 8562/ 333 58016 70002 83710 84618 88458==
41859,2023,10,07,21,00,AAXX 07214 41859 02430 80502 10267 20260 30034 40071 8562/ 333 58016 70112 83710 84618 88458==
41859,2023,10,08,00,00,AAXX 08004 41859 02440 80000 10265 20260 30040 40077 8562/ 333 58018 70112 82710 85618 88458==
41859,2023,10,08,03,00,AAXX 08034 41859 02450 80000 10279 20260 30055 40092 8562/ 333 20252 58005 70070 82710 85618 88458==
41859,2023,10,08,06,00,AAXX 08064 41859 02450 60502 10319 20250 30051 40088 84620 333 58009 70008 82710 83618 87458==
41859,2023,10,08,09,00,AAXX 08094 41859 02450 50000 10328 20260 30024 40060 83520 333 58006 70004 83618 84458==
41859,2023,10,08,12,00,AAXX 08124 41859 02450 80000 10300 20270 30025 40062 8352/ 333 10330 59001 70002 83618 88458==
41859,2023,10,08,15,00,AAXX 08154 41859 02430 40000 10279 20270 30048 40085 82520 333 58004 70002 82618 84458==
41859,2023,10,08,18,00,AAXX 08184 41859 02430 50000 10272 20260 30048 40085 83520 333 58006 70000 83618 85458==
41859,2023,10,08,21,00,AAXX 08214 41859 02430 80000 10265 20260 30043 40080 8562/ 333 58009 70000 83710 84618 88458==
41859,2023,10,09,00,00,AAXX 09004 41859 21430 80000 10260 20260 30046 40083 70262 8562/ 333 58006 60017 70010 83710 84618 88458==
41859,2023,10,09,03,00,AAXX 09034 41859 02450 60000 10291 20250 30066 40103 84620 333 20258 58011 70010 82710 83618 86458==
41859,2023,10,09,06,00,AAXX 09064 41859 02450 60000 10334 20250 30057 40094 84620 333 58006 70010 82710 83618 86458==
41859,2023,10,09,09,00,AAXX 09094 41859 02450 62301 10335 20260 30030 40066 84620 333 58006 70010 82710 83618 86458==
41859,2023,10,09,12,00,AAXX 09124 41859 02440 70000 10312 20270 30032 40069 84620 333 10341 58007 70010 82710 84618 87458==
41859,2023,10,09,15,00,AAXX 09154 41859 02430 60000 10287 20260 30058 40095 83520 333 58010 70010 83618 85458==
41859,2023,10,09,18,00,AAXX 09184 41859 02430 80000 10268 20250 30061 40098 8562/ 333 58013 70010 82710 84618 88458==
41859,2023,10,09,21,00,AAXX 09214 41859 01330 80000 10252 20250 30058 40095 79596 8692/ 333 58015 70148 84708 85616 88456 81930==
41859,2023,10,10,00,00,AAXX 10004 41859 21330 80000 10247 20247 30070 40107 79596 8692/ 333 58024 60519 70512 84709 85616 88456 81930==
41859,2023,10,10,03,00,AAXX 10034 41859 01350 80000 10250 20250 30090 40128 79596 8692/ 333 20240 58024 70582 84709 85616 88456==
41859,2023,10,10,06,00,AAXX 10064 41859 21350 80000 10279 20250 30075 40112 70296 8562/ 333 58018 60078 70582 84709 85616 88456==
41859,2023,10,10,09,00,AAXX 10094 41859 02450 81302 10295 20260 30044 40081 8562/ 333 58014 70582 82710 84618 88458==
41859,2023,10,10,12,00,AAXX 10124 41859 02440 50901 10280 20260 30039 40076 83530 333 10295 58007 70582 83618 85362==
41859,2023,10,10,15,00,AAXX 10154 41859 02430 80901 10270 20260 30059 40096 8562/ 333 58001 70582 82710 83618 88458==
41859,2023,10,10,18,00,AAXX 10184 41859 02430 80901 10270 20260 30059 40096 8562/ 333 59002 70582 82710 84618 88458==
41859,2023,10,10,21,00,AAXX 10214 41859 02430 80000 10267 20260 30055 40092 8562/ 333 59003 70444 82710 84618 88458==
41859,2023,10,11,00,00,AAXX 11004 41859 02430 80000 10265 20260 30055 40092 8562/ 333 59015 70070 82710 84618 88458==
41859,2023,10,11,03,00,AAXX 11034 41859 02450 80000 10283 20250 30077 40117 8562/ 333 20261 59013 70000 82710 84618 88458==
41859,2023,10,11,06,00,AAXX 11064 41859 02450 70000 10321 20260 30065 40102 84620 333 59010 70000 82710 83618 87458==
41859,2023,10,11,09,00,AAXX 11094 41859 02450 80000 10320 20260 30037 40074 8462/ 333 59007 70000 82710 83618 88458==
41859,2023,10,11,12,00,AAXX 11124 41859 02440 80000 10306 20270 30042 40079 8462/ 333 10328 58003 70000 83710 83618 88458==
41859,2023,10,11,15,00,AAXX 11154 41859 41430 80000 10282 20260 30067 40104 72122 8562/ 333 58008 83710 85618 88458==
41859,2023,10,11,18,00,AAXX 11184 41859 12430 70000 10265 20250 30069 40106 60006 85620 333 58010 82710 84618 87458==
41859,2023,10,11,21,00,AAXX 11214 41859 42430 83602 10262 20250 30063 40100 8562/ 333 58008 83710 84618 88458==
41859,2023,10,12,00,00,AAXX 12004 41859 41440 80901 10265 20260 30073 40110 70522 8562/ 333 58018 83710 84618 88458==
41859,2023,10,12,03,00,AAXX 12034 41859 41450 80902 10280 20260 30094 40131 70522 8562/ 333 20256 58017 83710 84618 88458==
41859,2023,10,12,06,00,AAXX 12064 41859 42450 70902 10319 20260 30085 40122 84620 333 58020 82710 83618 87458==
41859,2023,10,12,09,00,AAXX 12094 41859 42450 60000 10330 20250 30061 40097 84420 333 58024 83618 85458==
41859,2023,10,12,12,00,AAXX 12124 41859 42440 80000 10302 20260 30065 40102 8562/ 333 10333 58023 82710 84618 88458==
41859,2023,10,12,15,00,AAXX 12154 41859 02430 80000 10276 20270 30083 40120 8562/ 333 58016 70000 82710 84618 88458==
41859,2023,10,12,18,00,AAXX 12184 41859 02430 80000 10270 20260 30082 40119 8562/ 333 58013 70000 82710 84618 88458==
41859,2023,10,12,21,00,AAXX 12214 41859 02430 80000 10265 20265 30075 40112 8562/ 333 58012 70000 83710 84618 88458==
41863,2023,10,06,00,00,AAXX 06004 41863 01340 80906 10251 20240 39990 40033 76162 8572/ 333 59014 70010 83708 84614 88456==
41863,2023,10,06,03,00,AAXX 06034 41863 01456 80905 10262 20250 30015 40058 70262 8552/ 333 20243 59006 70156 85617 88458==
41863,2023,10,06,06,00,AAXX 06064 41863 11456 80906 10257 20250 30012 40055 60026 70262 8552/ 333 59005 70082 85617 88458==
41863,2023,10,06,09,00,AAXX 06094 41863 02456 80502 10277 20240 39992 40034 8552/ 333 58000 70042 85617 88458==
41863,2023,10,06,12,00,AAXX 06124 41863 02456 80904 10265 20240 39999 40042 8552/ 333 10278 58011 70030 85617 88458==
41863,2023,10,06,15,00,AAXX 06154 41863 02450 80902 10255 20250 30021 40064 8552/ 333 58015 70030 85617 88458==
41863,2023,10,06,18,00,AAXX 06184 41863 02450 80903 10257 20250 30021 40065 8552/ 333 58027 70030 85617 88458==
41863,2023,10,06,21,00,AAXX 06214 41863 02450 80902 10255 20250 30017 40060 8552/ 333 58030 70030 85618 88458==
41863,2023,10,07,00,00,AAXX 07004 41863 02450 80903 10254 20240 30022 40065 8552/ 333 58032 70020 85618 88458==
41863,2023,10,07,03,00,AAXX 07034 41863 02456 80903 10270 20250 30043 40086 8552/ 333 20243 58028 70000 85618 88458==
41863,2023,10,07,06,00,AAXX 07064 41863 02456 80904 10286 20250 30037 40079 8552/ 333 58025 70000 85617 88458==
41863,2023,10,07,09,00,AAXX 07094 41863 02456 81302 10285 20260 30013 40055 8552/ 333 58021 70000 85618 88458==
41863,2023,10,07,12,00,AAXX 07124 41863 02456 80000 10276 20260 30018 40060 8552/ 333 10285 58019 70000 85618 88458==
41863,2023,10,07,15,00,AAXX 07154 41863 02450 80000 10265 20260 30039 40082 8552/ 333 58018 70000 85618 88458==
41863,2023,10,07,18,00,AAXX 07184 41863 02450 51301 10263 20250 30036 40079 83520 333 58015 70000 83618 85458==
41863,2023,10,07,21,00,AAXX 07214 41863 02450 60000 10262 20250 30033 40076 83520 333 58016 70000 83618 86458==
41863,2023,10,08,00,00,AAXX 08004 41863 02450 70000 10260 20250 30031 40074 83520 333 58009 70000 83618 87458==
41863,2023,10,08,03,00,AAXX 08034 41863 02456 52701 10270 20250 30050 40094 82520 333 20250 58008 70000 82618 85458==
41863,2023,10,08,06,00,AAXX 08064 41863 02457 61801 10310 20250 30043 40085 83520 333 58006 70000 83618 86458==
41863,2023,10,08,09,00,AAXX 08094 41863 02457 62303 10325 20250 30021 40063 83520 333 58008 70000 83618 86458==
41863,2023,10,08,12,00,AAXX 08124 41863 02/56 22303 10307 20260 30018 40060 82030 333 10330 58000 70000 82362==
41863,2023,10,08,15,00,AAXX 08154 41863 02950 01802 10276 20260 30042 40085 333 58000 70000==
41863,2023,10,08,18,00,AAXX 08184 41863 02950 01802 10270 20250 30041 40084 333 58005 70000==
41863,2023,10,08,21,00,AAXX 08211 41863 02950 00000 10266 20260 30039 40082 333 58006 70000==
41863,2023,10,09,00,00,AAXX 09004 41863 02950 00000 10253 20250 30039 40081 333 58007 70000==
41863,2023,10,09,03,00,AAXX 09034 41863 02956 00000 10284 20250 30058 40101 333 20251 58007 70000==
41863,2023,10,09,06,00,AAXX 09064 41863 02457 53601 10328 20260 30051 40093 82520 333 58008 70000 82618 85458==
41863,2023,10,09,09,00,AAXX 09094 41863 02457 52701 10334 20230 30026 40068 82520 333 58005 70000 82618 85458==
41863,2023,10,09,12,00,AAXX 09124 41863 02457 50000 10300 20270 30026 40068 83520 333 10337 58000 70000 83618 88458==
41863,2023,10,09,15,00,AAXX 09154 41863 02950 00000 10290 20280 30050 40092 333 58000 70000==
41863,2023,10,09,18,00,AAXX 09184 41863 02950 00000 10282 20260 30049 40092 333 58008 70000==
41863,2023,10,09,21,00,AAXX 09214 41863 02550 30902 10280 20260 30061 40084 83400 333 58002 70000 83620==
41863,2023,10,10,00,00,AAXX 10004 41863 21340 80905 10252 20250 30063 40106 76166 8572/ 333 58025 60587 70580 83708 84614 88456==
41863,2023,10,10,03,00,AAXX 10034 41863 01450 80902 10256 20250 30082 40125 70262 8552/ 333 20240 58024 70700 85617 88458==
41863,2023,10,10,06,00,AAXX 10064 41863 11456 80903 10270 20250 30073 40116 60126 70262 8552/ 333 58022 70700 85617 88458==
41863,2023,10,10,09,00,AAXX 10094 41863 02456 80902 10286 20260 30035 40077 8552/ 333 58009 70700 85618 88458==
41863,2023,10,10,12,00,AAXX 10124 41863 02456 80502 10278 20260 30033 40076 8552/ 333 10288 58007 70700 85618 88458==
41863,2023,10,10,15,00,AAXX 10154 41863 02450 80501 10271 20260 30051 40094 8552/ 333 58001 70700 85617 88458==
41863,2023,10,10,18,00,AAXX 10184 41863 01450 80000 10265 20260 30053 40096 70262 8552/ 333 58004 70006 85617 88458==
41863,2023,10,10,21,00,AAXX 10214 41863 02450 80000 10264 20250 30045 40088 8552/ 333 58004 70706 85617 88458==
41863,2023,10,11,00,00,AAXX 11004 41863 02450 80000 10263 20260 30055 40098 8552/ 333 59008 70126 85617 88458==
41863,2023,10,11,03,00,AAXX 11034 41863 02456 80501 10290 20260 30071 40113 8552/ 333 20241 59011 70006 85618 88458==
41863,2023,10,11,06,00,AAXX 11064 41863 02457 70501 10320 20260 30057 40099 8451/ 333 59016 70006 84618 87458==
41863,2023,10,11,09,00,AAXX 11094 41863 02456 51301 10315 20270 30031 40073 82520 333 59004 70006 82618 85458==
41863,2023,10,11,12,00,AAXX 11124 41863 02956 00000 10300 20270 30035 40077 333 10325 58002 70006==
41863,2023,10,11,15,00,AAXX 11154 41863 02950 00000 10277 20270 30057 40010 333 58006 70006==
41863,2023,10,11,18,00,AAXX 11184 41863 02950 00000 10268 20260 30060 40103 333 58007 70000==
41863,2023,10,11,21,00,AAXX 11214 41863 02950 00000 10260 20250 30058 40101 82520 333 58013 70000 82618 85458==
41863,2023,10,12,00,00,AAXX 12004 41863 21450 61301 10240 20230 30068 40111 70362 83520 333 58013 60107 70100 83618 86458==
41863,2023,10,12,03,00,AAXX 12034 41863 02956 01301 10282 20240 30089 40132 333 20234 58018 70100==
41863,2023,10,12,06,00,AAXX 12064 41863 02456 63101 10311 20250 30078 40120 83520 333 58021 70100 83618 86458==
41863,2023,10,12,09,00,AAXX 12094 41863 02457 63101 10330 20250 30056 40098 83520 333 58025 70100 83618 86458==
41863,2023,10,12,12,00,AAXX 12124 41863 02/56 30000 10304 20260 30057 40057 83030 333 10335 58022 70100 83362==
41863,2023,10,12,15,00,AAXX 12154 41863 02950 00000 10269 20250 30078 40121 333 58021 70100==
41863,2023,10,12,18,00,AAXX 12184 41863 01950 00000 10255 20250 30078 40121 70500 333 58018 70100==
41863,2023,10,12,21,00,AAXX 12214 41863 01950 00000 10250 20240 30079 40122 70500 333 58021 70100==
41881,2023,10,06,00,00,AAXX 06004 41881 32356 83604 10248 20248 30001 40021 8562/ 333 56899 59034 70457 84709 85615 88458=
41881,2023,10,06,06,00,AAXX 06064 41881 11356 83603 10256 20250 30023 40042 60026 76166 8562/ 333 56899 58000 70047 84709 85615 88458=
41881,2023,10,06,12,00,AAXX 06124 41881 11350 80502 10255 20255 30019 40038 60016 76166 8562/ 333 10268 56899 58021 70044 84709 85615 88458=
41881,2023,10,06,18,00,AAXX 06184 41881 11340 80902 10254 20254 30033 40053 60036 76166 8572/ 333 56399 58033 70059 83709 85615 88458=
41881,2023,10,07,00,00,AAXX 07004 41881 11340 80902 10255 20250 30039 40059 69926 70262 8562/ 333 56899 58038 70061 84709 85615 88458=
41881,2023,10,07,06,00,AAXX 07064 41881 32357 80203 10280 20260 30046 40065 8562/ 333 56199 58023 70041 83709 84614 88458=
41881,2023,10,07,12,00,AAXX 07124 41881 11356 80502 10270 20260 30039 40059 69934 72162 8562/ 333 10297 56199 58020 70031 84708 85615 88458=
41881,2023,10,07,18,00,AAXX 07184 41881 32350 80000 10256 20256 30055 40075 8552/ 333 56299 58022 70005 85615 88458=
41881,2023,10,08,00,00,AAXX 08004 41881 31440 80000 10256 20256 30054 40074 70522 8552/ 333 56999 58015 70003 85615 88458=
41881,2023,10,08,06,00,AAXX 08064 41881 32457 61002 10307 20260 30069 40089 84520 333 56990 58023 70003 84616 86459=
41881,2023,10,08,12,00,AAXX 08124 41881 32456 70901 10303 20274 30044 40064 84520 333 10335 56990 58005 70000 84616 87459=
41881,2023,10,08,18,00,AAXX 08184 41881 32450 30000 10268 20260 30066 40086 83500 333 56900 58011 70000 83617=
41881,2023,10,09,00,00,AAXX 09004 41881 32450 80000 10257 20257 30065 40085 8552/ 333 56999 58011 70000 85616 88459=
41881,2023,10,09,06,00,AAXX 09064 41881 32457 62701 10320 20260 30079 40099 84520 333 56990 58010 70000 84616 86459=
41881,2023,10,09,12,00,AAXX 09124 41881 32456 40000 10305 20280 30053 40073 84500 333 10340 56900 58009 70000 84616=
41881,2023,10,09,18,00,AAXX 09184 41881 32450 31801 10275 20270 30079 40099 83500 333 56900 58013 70000 83617=
41881,2023,10,10,00,00,AAXX 10004 41881 32450 80901 10267 20267 30074 40094 8552/ 333 56999 58009 70000 85616 88458=
41881,2023,10,10,06,00,AAXX 10064 41881 32450 80501 10288 20270 30086 40106 8552/ 333 56999 58007 70000 85616 88458=
41881,2023,10,10,12,00,AAXX 10124 41881 32450 70000 10285 20280 30051 40070 84520 333 10315 56990 59002 70000 84616 87459=
41881,2023,10,10,18,00,AAXX 10184 41881 32450 70000 10265 20260 30082 40102 84520 333 56990 58003 70000 84616 87459=
41881,2023,10,11,00,00,AAXX 11004 41881 31440 80000 10252 20250 30072 40092 70522 8552/ 333 56999 59002 70000 85616 88459=
41881,2023,10,11,06,00,AAXX 11064 41881 32456 60000 10323 20250 30078 40098 84520 333 56990 59008 70000 84616 86459=
41881,2023,10,11,12,00,AAXX 11124 41881 32456 00000 10300 20270 30058 40078 333 10335 59009 70000=
41881,2023,10,11,18,00,AAXX 11184 41881 32950 00000 10270 20260 30078 40098 333 59004 70000=
41881,2023,10,12,00,00,AAXX 12004 41881 32450 80000 10260 20260 30088 40108 8552/ 333 56990 58016 70000 85616 88458=
41881,2023,10,12,06,00,AAXX 12064 41881 32458 20000 10330 20250 30100 40120 82500 333 56900 58022 70000 82618=
41881,2023,10,12,12,00,AAXX 12124 41881 32957 00000 10285 20280 30083 40102 333 10345 58025 70000=
41881,2023,10,12,18,00,AAXX 12184 41881 31940 03601 10263 20260 30099 40119 70500 333 58021 70000=
41883,2023,10,06,00,00,AAXX 06004 41883 21330 80000 10256 20250 30001 40021 76166 8572/ 333 59021 60069 71338 85709 88458==
41883,2023,10,06,03,00,AAXX 06034 41883 01340 80000 10252 20250 30023 40043 72166 8562/ 333 20246 59016 71238 85709 88458==
41883,2023,10,06,06,00,AAXX 06064 41883 11340 81302 10264 20250 30028 40048 60026 70262 8562/ 333 59001 71034 85709 88458==
41883,2023,10,06,09,00,AAXX 06094 41883 02456 80000 10285 20260 30005 40025 8552/ 333 58002 71012 85616 88459==
41883,2023,10,06,12,00,AAXX 06124 41883 21430 80000 10266 20260 30019 40039 70262 8552/ 333 10290 58023 69987 70830 85616 88459==
41883,2023,10,06,15,00,AAXX 06154 41883 02430 80000 10264 20250 30036 40056 8562/ 333 58033 70600 82710 84618 88417==
41883,2023,10,06,18,00,AAXX 06184 41883 02430 80902 10262 20250 30036 40056 8562/ 333 58035 70090 82710 84618 88458==
41883,2023,10,06,21,00,AAXX 06214 41883 02430 80000 10264 20250 30027 40047 8452/ 333 58032 70060 84618 88458==
41883,2023,10,07,00,00,AAXX 07004 41883 02430 80000 10264 20250 30034 40054 8562/ 333 58033 70030 82710 84618 88458==
41883,2023,10,07,03,00,AAXX 07034 41883 02350 81302 10270 20260 30057 40077 8562/ 333 20250 58034 70008 85709 88458==
41883,2023,10,07,06,00,AAXX 07064 41883 02456 80000 10292 20260 30050 40070 8552/ 333 58022 70008 85616 88458==
41883,2023,10,07,09,00,AAXX 07094 41883 02350 80000 10290 20270 30029 40049 8562/ 333 58024 70008 85709 88458==
41883,2023,10,07,12,00,AAXX 07124 41883 21330 80000 10274 20260 30038 40058 72996 8562/ 333 10305 58019 60367 70358 85709 88458==
41883,2023,10,07,15,00,AAXX 07154 41883 02430 60000 10270 20260 30058 40078 83530 333 58022 70358 83616 86362==
41883,2023,10,07,18,00,AAXX 07184 41883 02430 60902 10268 20260 30054 40074 83520 333 58018 70358 83616 86459==
41883,2023,10,07,21,00,AAXX 07214 41883 02430 60000 10270 20260 30049 40069 82530 333 58022 70358 82616 86362==
41883,2023,10,08,00,00,AAXX 08004 41883 02430 60000 10268 20260 30052 40072 83520 333 58018 70358 83616 86459==
41883,2023,10,08,03,00,AAXX 08034 41883 02450 80902 10284 20260 30071 40091 8562/ 333 20264 58014 70358 82710 84618 88458==
41883,2023,10,08,06,00,AAXX 08064 41883 02450 72302 10312 20250 30071 40091 85420 333 58021 70358 82618 83828 86458==
41883,2023,10,08,09,00,AAXX 08094 41883 02556 22702 10330 20250 30043 40063 82100 333 58014 70358 82828==
41883,2023,10,08,12,00,AAXX 08124 41883 02/40 40000 10304 20260 30047 40067 84030 333 10334 58009 70000 84362==
41883,2023,10,08,15,00,AAXX 08154 41883 02430 60000 10288 20270 30063 40083 83510 333 58005 70000 83616 86459==
41883,2023,10,08,18,00,AAXX 08184 41883 02430 80000 10284 20260 30068 40088 8552/ 333 58014 70000 85616 88459==
41883,2023,10,08,21,00,AAXX 08214 41883 02430 80000 10278 20270 30060 40080 8552/ 333 58011 70000 85616 88458==
41883,2023,10,09,00,00,AAXX 09004 41883 02330 80000 10275 20270 30065 40085 8562/ 333 58013 70000 85709 88458==
41883,2023,10,09,03,00,AAXX 09034 41883 01456 60000 10294 20260 30083 40103 72996 83520 333 20262 58012 70006 83616 86459==
41883,2023,10,09,06,00,AAXX 09064 41883 01456 62302 10308 20260 30075 40095 72196 84420 333 58004 70016 82616 83828 86459==
41883,2023,10,09,09,00,AAXX 09094 41883 02450 60000 10330 20260 30051 40071 84420 333 58008 70016 82618 83828 86458==
41883,2023,10,09,12,00,AAXX 09124 41883 02440 40000 10304 20270 30053 40073 82520 333 10332 58006 70016 82618 84458==
41883,2023,10,09,15,00,AAXX 09154 41883 02/30 40000 10288 20270 30076 40096 84010 333 58015 70016 84458==
41883,2023,10,09,18,00,AAXX 09184 41883 02330 80000 10280 20260 30079 40099 8562/ 333 58011 70016 85709 88458==
41883,2023,10,09,21,00,AAXX 09214 41883 02330 80000 10272 20260 30072 40092 8562/ 333 58012 70016 85709 88458==
41883,2023,10,10,00,00,AAXX 10004 41883 02330 80000 10268 20260 30083 40103 8562/ 333 58018 70016 85709 88458==
41883,2023,10,10,03,00,AAXX 10034 41883 02450 80000 10272 20260 30102 40122 8552/ 333 20262 58019 70010 85616 88459==
41883,2023,10,10,06,00,AAXX 10064 41883 02456 60000 10305 20260 30089 40109 82510 333 58014 70000 82616 85459==
41883,2023,10,10,09,00,AAXX 10094 41883 02456 50502 10320 20270 30055 40075 82510 333 58004 70000 82616 85459==
41883,2023,10,10,12,00,AAXX 10124 41883 02/30 30000 10295 20280 30054 40074 83030 333 10322 58001 70000 83362==
41883,2023,10,10,15,00,AAXX 10154 41883 01430 80000 10284 20260 30074 40094 72122 8562/ 333 59002 70010 82710 84618 88458==
41883,2023,10,10,18,00,AAXX 10184 41883 21430 80000 10274 20250 30074 40094 70262 8562/ 333 59005 60015 70010 82710 84618 88458==
41883,2023,10,10,21,00,AAXX 10214 41883 02430 80000 10268 20260 30067 40087 8542/ 333 59005 70010 84618 88482==
41883,2023,10,11,00,00,AAXX 11004 41883 02440 80000 10268 20260 30071 40091 8452/ 333 59012 70010 84618 88458==
41883,2023,10,11,03,00,AAXX 11034 41883 02456 60000 10288 20270 30092 40112 84810 333 20254 59011 70010 84618 86458==
41883,2023,10,11,06,00,AAXX 11064 41883 02456 60000 10320 20250 30081 40101 84810 333 59008 70010 84618 86459==
41883,2023,10,11,09,00,AAXX 11094 41883 02456 43102 10330 20250 30053 40073 84800 333 59002 70010 83616==
41883,2023,10,11,12,00,AAXX 11124 41883 02940 00000 10302 20260 30059 40079 333 10340 58005 70010==
41883,2023,10,11,15,00,AAXX 11154 41883 02930 00000 10286 20270 30083 40103 333 58009 70000==
41883,2023,10,11,18,00,AAXX 11184 41883 02930 00000 10280 20270 30085 40105 333 58011 70000==
41883,2023,10,11,21,00,AAXX 11214 41883 02930 00000 10274 20260 30080 40100 333 58013 70000==
41883,2023,10,12,00,00,AAXX 12004 41883 02930 00000 10270 20260 30088 40108 333 58017 70000==
41883,2023,10,12,03,00,AAXX 12034 41883 01350 80000 10290 20270 30111 40131 76110 8572/ 333 20265 58019 70010 83709 84615 88456==
41883,2023,10,12,06,00,AAXX 12064 41883 21450 60000 10320 20250 30102 40122 70162 83520 333 58024 60015 70014 83618 86458==
41883,2023,10,12,09,00,AAXX 12094 41883 02556 20000 10340 20250 30076 40096 82100 333 58023 70014 82828==
41883,2023,10,12,12,00,AAXX 12124 41883 02940 00000 10298 20250 30081 40101 333 10345 58022 70014==
41883,2023,10,12,15,00,AAXX 12154 41883 02930 00000 10282 20250 30101 40121 333 58018 70014==
41883,2023,10,12,18,00,AAXX 12184 41883 02930 00000 10276 20260 30099 40119 333 58014 70014==
41883,2023,10,12,21,00,AAXX 12214 41883 02930 00000 10270 20250 30093 40113 333 58013 70014==
41886,2023,10,06,00,00,AAXX 06004 41886 21340 80904 10250 20250 30010 40031 79596 8632/ 333 59028 61719 73780 83708 84615 88458 81928==
41886,2023,10,06,03,00,AAXX 06034 41886 01456 80000 10255 20250 30031 40052 70296 8532/ 333 20247 59040 73590 83616 88458 81930==
41886,2023,10,06,06,00,AAXX 06064 41886 11456 81302 10270 20250 30037 40057 60106 70296 8532/ 333 59008 73560 83616 88458 81930==
41886,2023,10,06,09,00,AAXX 06094 41886 02456 80904 10266 20250 30020 40040 8532/ 333 58002 73560 83616 88460 81930==
41886,2023,10,06,12,00,AAXX 06124 41886 02456 80902 10264 20240 30027 40048 8532/ 333 10272 58015 73400 83616 88460 81930==
41886,2023,10,06,15,00,AAXX 06154 41886 02440 80000 10264 20240 30045 40066 8532/ 333 58008 72240 83618 88460 81930==
41886,2023,10,06,18,00,AAXX 06184 41886 02440 80902 10260 20250 30042 40063 8532/ 333 58014 71810 83618 88460 81930==
41886,2023,10,06,21,00,AAXX 06214 41886 02440 80000 10260 20250 30030 40051 8442/ 333 58030 71100 82618 88460==
41886,2023,10,07,00,00,AAXX 07004 41886 02450 70000 10257 20250 30041 40062 84470 333 58034 70100 82618 86460==
41886,2023,10,07,03,00,AAXX 07034 41886 02456 70901 10276 20260 30063 40083 84470 333 20255 58032 70000 83618 86460==
41886,2023,10,07,06,00,AAXX 07064 41886 02456 80000 10288 20260 30058 40078 8442/ 333 58021 70000 83618 88460==
41886,2023,10,07,09,00,AAXX 07094 41886 01456 80000 10276 20260 30037 40057 70262 8552/ 333 58017 70042 85616 88458==
41886,2023,10,07,12,00,AAXX 07124 41886 11450 80000 10268 20250 30043 40063 60046 70262 8652/ 333 10295 58016 70042 86616 88458==
41886,2023,10,07,15,00,AAXX 07154 41886 02450 80000 10264 20250 30066 40087 8552/ 333 58021 70042 85616 88458==
41886,2023,10,07,18,00,AAXX 07184 41886 02450 80000 10260 20250 30061 40082 8452/ 333 58019 70042 84616 88458==
41886,2023,10,07,21,00,AAXX 07214 41886 01450 80000 10260 20250 30048 40068 70522 8452/ 333 58018 70042 84616 88458==
41886,2023,10,08,00,00,AAXX 08004 41886 01440 80000 10264 20250 30062 40082 70522 8352/ 333 58021 70042 83616 88458==
41886,2023,10,08,03,00,AAXX 08034 41886 01456 60000 10290 20270 30074 40094 70162 85540 333 20260 58011 70044 85616 84362==
41886,2023,10,08,06,00,AAXX 08064 41886 01558 20000 10320 20260 30069 40089 70162 82200 333 58011 70002 82825==
41886,2023,10,08,09,00,AAXX 08094 41886 02458 20000 10320 20260 30046 40066 82400 333 58009 70002 81618==
41886,2023,10,08,12,00,AAXX 08124 41886 02456 10000 10300 20270 30047 40067 81500 333 10331 58004 70002 81618==
41886,2023,10,08,15,00,AAXX 08154 41886 02950 00000 10280 20270 30073 40093 333 58007 70002==
41886,2023,10,08,18,00,AAXX 08184 41886 02450 60000 10275 20275 30075 40095 82570 333 58014 70002 82618 85460==
41886,2023,10,08,21,00,AAXX 08211 41886 02450 80000 10275 20270 30070 40090 8351/ 333 58022 70002 83618 88460==
41886,2023,10,09,00,00,AAXX 09004 41886 02456 80000 10275 20270 30066 40086 8452/ 333 58004 70002 84616 88458==
41886,2023,10,09,03,00,AAXX 09034 41886 01450 80000 10290 20270 30088 40108 70522 8452/ 333 20271 58014 70000 84616 88458==
41886,2023,10,09,06,00,AAXX 09064 41886 02457 70000 10320 20270 30082 40102 84410 333 58013 70000 83618 87460==
41886,2023,10,09,09,00,AAXX 09094 41886 02457 60904 10290 20260 30060 40080 83470 333 58014 70000 82618 85460==
41886,2023,10,09,12,00,AAXX 09124 41886 02450 80000 10275 20260 30062 40082 8452/ 333 10325 58015 70000 84616 88458==
41886,2023,10,09,15,00,AAXX 09154 41886 02450 80000 10268 20260 30084 40105 8452/ 333 58011 70000 84616 88458==
41886,2023,10,09,18,00,AAXX 09184 41886 02950 00000 10260 20250 30088 40109 333 58013 70000==
41886,2023,10,09,21,00,AAXX 09214 41886 02450 80000 10260 20250 30084 40105 8452/ 333 58014 70000 84616 88458==
41886,2023,10,10,00,00,AAXX 10004 41886 02456 80000 10260 20250 30082 40103 8452/ 333 58016 70000 84616 88458==
41886,2023,10,10,03,00,AAXX 10034 41886 02456 80000 10282 20260 30111 40132 8351/ 333 20255 58023 70000 83618 88460==
41886,2023,10,10,06,00,AAXX 10064 41886 01456 70000 10272 20260 30093 40114 72162 83520 333 58011 70050 83618 87460==
41886,2023,10,10,09,00,AAXX 10094 41886 02457 70000 10295 20250 30064 40084 83510 333 58004 70046 83618 87460==
41886,2023,10,10,12,00,AAXX 10124 41886 02450 70000 10285 20260 30058 40078 83520 333 10295 59004 70046 83618 87460==
41886,2023,10,10,15,00,AAXX 10154 41886 02450 80000 10270 20260 30077 40098 8452/ 333 59007 70046 84616 88458==
41886,2023,10,10,18,00,AAXX 10184 41886 01940 00000 10262 20260 30080 40101 70521 333 59008 70046==
41886,2023,10,10,21,00,AAXX 10214 41886 01340 80000 10263 20260 30078 40099 70521 8662/ 333 59006 70046 84710 85616 88458==
41886,2023,10,11,00,00,AAXX 11004 41886 01340 80000 10265 20260 30076 40097 70522 8662/ 333 59006 70046 84710 85616 88458==
41886,2023,10,11,03,00,AAXX 11034 41886 01450 80000 10290 20260 30096 40116 70522 8351/ 333 20260 59015 70046 83618 88460==
41886,2023,10,11,06,00,AAXX 11064 41886 01450 70000 10315 20270 30084 40104 70522 83410 333 59009 70000 82618 87460==
41886,2023,10,11,09,00,AAXX 11094 41886 01450 70000 10304 20260 30060 40080 70522 83410 333 59004 70000 82618 87460==
41886,2023,10,11,12,00,AAXX 11124 41886 01440 70000 10290 20240 30066 40086 70522 83410 333 10318 58008 70000 82618 87460==
41886,2023,10,11,15,00,AAXX 11154 41886 01440 70000 10280 20260 30085 40105 70522 83410 333 58008 70000 82618 87460==
41886,2023,10,11,18,00,AAXX 11184 41886 01/08 50000 10272 20270 30092 40113 74242 85030 333 58012 70000 85362==
41886,2023,10,11,21,00,AAXX 11214 41886 01906 00000 10270 20270 30093 40114 74344 89/// 333 58015 70000==
41886,2023,10,12,00,00,AAXX 12004 41886 01906 00000 10270 20270 30093 40114 74344 89/// 333 58017 70000==
41886,2023,10,12,03,00,AAXX 12034 41886 01440 60000 10292 20260 30114 40135 70542 83570 333 20264 58018 70000 83618 85460==
41886,2023,10,12,06,00,AAXX 12064 41886 01450 60000 10326 20250 30104 40124 70542 84470 333 58020 70000 83618 85460==
41886,2023,10,12,09,00,AAXX 12094 41886 02456 60000 10328 20240 30082 40102 83470 333 58022 70000 82618 85460==
41886,2023,10,12,12,00,AAXX 12124 41886 01450 50000 10300 20270 30084 40104 70522 83470 333 10333 58018 70000 82618 84460==
41886,2023,10,12,15,00,AAXX 12154 41886 01/50 30000 10270 20260 30108 40129 70511 83030 333 58023 70000 83362==
41886,2023,10,12,18,00,AAXX 12184 41886 01915 00000 10266 20260 30108 40129 71010 333 58016 70000==
41886,2023,10,12,21,00,AAXX 12214 41886 01/15 50000 10260 20250 30110 40131 71042 85030 333 58017 70000 85362==
41888,2023,10,06,00,00,AAXX 06004 41888 11330 80906 10245 20240 30025 40035 61259 79796 8532/ 333 56299 59020 73505 83709 84616 81930 88458=
41888,2023,10,06,06,00,AAXX 06064 41888 11457 80906 10256 20240 30048 40058 60629 70296 8432/ 333 56299 59009 73205 82710 83617 88459=
41888,2023,10,06,12,00,AAXX 06124 41888 32457 81206 10261 20250 30034 40044 8432/ 333 10262 56399 58003 73105 82710 83617 81930 88560=
41888,2023,10,06,18,00,AAXX 06184 41888 11456 81203 10254 20240 30050 40060 69934 70262 8462/ 333 56399 58003 71865 82710 83617 88460=
41888,2023,10,07,00,00,AAXX 07004 41888 32456 80904 10251 20240 30054 40064 8462/ 333 56299 58029 70618 82710 83617 88460=
41888,2023,10,07,06,00,AAXX 07064 41888 32457 80908 10270 20250 30064 40074 8451/ 333 56299 58016 70003 84617 88460=
41888,2023,10,07,12,00,AAXX 07124 41888 32450 80906 10264 20240 30050 40060 8352/ 333 10290 56999 58016 70003 83618 88460=
41888,2023,10,07,18,00,AAXX 07184 41888 32430 80902 10260 20250 30069 40079 8352/ 333 56999 58019 70000 83618 88460=
41888,2023,10,08,00,00,AAXX 08004 41888 31420 83601 10266 20266 30063 40073 71042 8252/ 333 56999 58009 70000 82618 88460=
41888,2023,10,08,06,00,AAXX 08064 41888 11456 42503 10316 20250 30073 40083 60013 70162 84400 333 56900 58009 70014 81618 83820=
41888,2023,10,08,12,00,AAXX 08124 41888 32450 83301 10300 20270 30055 40065 84400 333 10325 56900 58005 70014 81618 83825=
41888,2023,10,08,18,00,AAXX 08184 41888 31940 43601 10270 20260 30082 40092 70521 84010 333 56090 58013 70014 84460=
41888,2023,10,09,00,00,AAXX 09004 41888 11430 80501 10268 20268 30078 40088 69944 79592 8532/ 333 56999 58015 70018 84616 81928 88460=
41888,2023,10,09,06,00,AAXX 09064 41888 11456 80901 10267 20250 30093 40103 60133 70296 8351/ 333 56999 58020 70136 83618 88460=
41888,2023,10,09,12,00,AAXX 09124 41888 32450 60506 10265 20250 30068 40078 83510 333 10290 56990 58013 70136 83618 86460=
41888,2023,10,09,18,00,AAXX 09184 41888 32440 80502 10255 20250 30096 40106 8252/ 333 56999 58014 70136 82618 88460=
41888,2023,10,10,00,00,AAXX 10004 41888 31940 60501 10255 20250 30096 40106 70522 86010 333 56090 58018 70132 86460=
41888,2023,10,10,06,00,AAXX 10064 41888 31956 50504 10304 20250 30098 40108 70122 84410 333 56990 58005 70000 83618 85460=
41888,2023,10,10,12,00,AAXX 10124 41888 32450 61301 10290 20260 30064 40074 82530 333 10320 56990 59004 70000 82618 86365=
41888,2023,10,10,18,00,AAXX 10184 41888 31940 40901 10270 20260 30086 40096 70522 84030 333 56090 59010 70000 84365=
41888,2023,10,11,00,00,AAXX 11004 41888 31420 80501 10267 20267 30082 40092 71042 8252/ 333 56999 59014 70000 82618 88460=
41888,2023,10,11,06,00,AAXX 11064 41888 11450 80501 10264 20240 30095 40105 60174 76164 8532/ 333 56999 59003 70174 84616 81930 88459=
41888,2023,10,11,12,00,AAXX 11124 41888 11950 20501 10284 20260 30072 40082 69926 70261 82030 333 10310 56090 58008 70176 82365=
41888,2023,10,11,18,00,AAXX 11184 41888 31930 60501 10272 20270 30098 40108 71022 86010 333 56090 58012 70176 86460=
41888,2023,10,12,00,00,AAXX 12004 41888 31440 80000 10260 20240 30098 40108 70542 8252/ 333 56999 58016 70176 82618 88460=
41888,2023,10,12,06,00,AAXX 12064 41888 31456 40801 10312 20250 30112 40122 70122 84400 333 56900 58017 70003 81618 83820=
41888,2023,10,12,12,00,AAXX 12124 41888 NIL=
41888,2023,10,12,18,00,AAXX 12184 41888 31930 30000 10270 20260 30113 40123 71021 83010 333 56090 58015 70000 83460=
41891,2023,10,06,00,00,AAXX 06004 41891 21330 80803 10253 20240 30022 40061 76366 8632/ 333 59014 60349 70508 85708 88456 81926==
41891,2023,10,06,03,00,AAXX 06034 41891 01320 81804 10252 20240 30050 40089 76366 8632/ 333 20250 59005 70786 86708 88458 81925==
41891,2023,10,06,06,00,AAXX 06064 41891 21320 80905 10250 20250 30046 40085 76366 8632/ 333 58001 60549 71008 86708 88458 81925==
41891,2023,10,06,09,00,AAXX 06094 41891 01320 80904 10252 20240 30015 40053 76366 8632/ 333 58000 71294 86708 88458 81925==
41891,2023,10,06,10,00,AAXX 06104 41891 01320 80904 10252 20240 30015 40053 76366 8632/ 333 58000 71294 86708 88458 81925==
41891,2023,10,06,12,00,AAXX 06124 41891 21320 80503 10251 20250 30019 40057 76366 8632/ 333 10256 58005 60419 71360 86708 88458 81925==
41891,2023,10,06,15,00,AAXX 06154 41891 01320 80903 10250 20240 30032 40070 76166 8632/ 333 59004 71370 86708 88458 81925==
41891,2023,10,06,18,00,AAXX 06184 41891 21320 81203 10250 20240 30024 40062 79566 8632/ 333 59004 60119 71398 86708 88458 81925==
41891,2023,10,06,21,00,AAXX 06214 41891 01320 81202 10245 20245 30018 40056 79596 8632/ 333 59013 72328 86707 88458 81925==
41891,2023,10,07,00,00,AAXX 07004 41891 21320 81502 10245 20245 30032 40071 79596 8632/ 333 58010 62529 73578 86707 88458 81925==
41891,2023,10,07,03,00,AAXX 07034 41891 01320 80904 10241 20240 30059 40098 79596 8632/ 333 20240 58009 74318 86707 88458 81925==
41891,2023,10,07,06,00,AAXX 07064 41891 21430 80502 10250 20240 30045 40084 72996 8532/ 333 59001 61069 74104 82710 84615 88459 81930==
41891,2023,10,07,09,00,AAXX 07094 41891 01430 80902 10260 20240 30023 40061 72962 8532/ 333 58008 73772 82710 84615 88459 81930==
41891,2023,10,07,12,00,AAXX 07124 41891 21430 80902 10250 20240 30026 40064 70596 8532/ 333 10265 58007 60018 73702 81710 84615 88460 81930==
41891,2023,10,07,15,00,AAXX 07154 41891 01430 81104 10255 20250 30048 40086 70522 8632/ 333 58016 73672 85710 88458 81930==
41891,2023,10,07,18,00,AAXX 07184 41891 01430 81004 10254 20240 30044 40083 70522 8632/ 333 58020 73594 85710 88458 81930==
41891,2023,10,07,21,00,AAXX 07214 41891 01430 81804 10260 20260 30033 40072 70522 8532/ 333 58015 72174 84710 88459 81930==
41891,2023,10,08,00,00,AAXX 08004 41891 01430 81604 10262 20250 30042 40081 70522 8532/ 333 58010 71074 84710 88459 81930==
41891,2023,10,08,03,00,AAXX 08034 41891 01440 81804 10274 20250 30060 40098 70522 8532/ 333 20236 58001 70054 82710 84615 88459 81930==
41891,2023,10,08,06,00,AAXX 08064 41891 01445 72303 10310 20260 30048 40086 70522 84370 333 58003 70012 84615 86460 81930==
41891,2023,10,08,09,00,AAXX 08094 41891 01325 80902 10260 20250 30026 40064 76322 8632/ 333 58003 70162 86708 88458 81925==
41891,2023,10,08,12,00,AAXX 08124 41891 01435 80502 10262 20250 30032 40071 70562 8532/ 333 10315 58006 70210 82710 84615 88459 81930==
41891,2023,10,08,15,00,AAXX 08154 41891 01430 82704 10255 20240 30060 40099 70522 8532/ 333 58012 70210 82710 84615 88459 81930==
41891,2023,10,08,18,00,AAXX 08184 41891 21320 80602 10240 20230 30060 40099 76162 8632/ 333 58016 60167 70370 86708 88458 81925==
41891,2023,10,08,21,00,AAXX 08214 41891 01320 80602 10240 20230 30054 40093 76066 8632/ 333 58012 70476 86708 88458 81925==
41891,2023,10,09,00,00,AAXX 09004 41891 01320 80602 10240 20230 30054 40093 76066 8632/ 333 58012 70476 86708 88458 81925==
41891,2023,10,09,03,00,AAXX 09034 41891 01320 80904 10240 20240 30079 40118 79566 8632/ 333 20235 58019 70886 86707 88458 81925==
41891,2023,10,09,06,00,AAXX 09064 41891 21430 81804 10250 20240 30076 40115 72996 8532/ 333 58028 60469 70938 82710 84615 88459 81930==
41891,2023,10,09,09,00,AAXX 09094 41891 01440 80902 10254 20240 30049 40088 70522 8532/ 333 58023 70776 82710 84615 88459 81930==
41891,2023,10,09,12,00,AAXX 09124 41891 01435 81302 10252 20240 30050 40089 70522 8532/ 333 10257 58018 70728 82710 84615 88459 81930==
41891,2023,10,09,15,00,AAXX 09154 41891 01430 80903 10248 20240 30073 40112 70522 8532/ 333 58013 70728 84710 88459 81930==
41891,2023,10,09,18,00,AAXX 09184 41891 01430 80903 10247 20240 30069 40108 70522 8532/ 333 58009 70568 84710 88459 81930==
41891,2023,10,09,21,00,AAXX 09214 41891 01430 80903 10245 20240 30071 40110 70522 8532/ 333 58015 70510 84710 88459 81930==
41891,2023,10,10,00,00,AAXX 10004 41891 01430 81004 10242 20240 30071 40110 70522 8632/ 333 58028 70462 82710 83616 88459 81930==
41891,2023,10,10,03,00,AAXX 10034 41891 01440 60902 10280 20250 30090 40128 70522 83370 333 20240 58011 70052 83615 85460 81930==
41891,2023,10,10,06,00,AAXX 10064 41891 01445 61802 10310 20250 30071 40109 70522 83340 333 59005 70000 83615 85365 81930==
41891,2023,10,10,09,00,AAXX 10094 41891 01450 61302 10320 20250 30038 40076 70522 83340 333 59011 70000 83615 85365 81930==
41891,2023,10,10,12,00,AAXX 10124 41891 01430 63602 10285 20280 30038 40076 70522 83340 333 10330 59012 70000 83615 85365 81930==
41891,2023,10,10,15,00,AAXX 10154 41891 01430 80602 10265 20260 30056 40094 70522 8532/ 333 59017 70000 81710 84615 88459 81930==
41891,2023,10,10,18,00,AAXX 10184 41891 01430 80602 10255 20250 30060 40099 70522 8532/ 333 59009 70000 81710 84615 88459 81930==
41891,2023,10,10,21,00,AAXX 10214 41891 01430 80803 10250 20240 30058 40097 70522 8532/ 333 59013 70000 81710 84615 88459 81930==
41891,2023,10,11,00,00,AAXX 11004 41891 01430 80903 10244 20230 30059 40098 70522 8532/ 333 59012 70000 81710 84615 88459 81930==
41891,2023,10,11,03,00,AAXX 11034 41891 01440 61302 10284 20240 30081 40119 70522 83370 333 20244 59009 70000 83615 85460 81930==
41891,2023,10,11,06,00,AAXX 11064 41891 01445 60902 10310 20260 30064 40102 70522 83340 333 59007 70000 83615 85365 81930==
41891,2023,10,11,09,00,AAXX 11094 41891 01450 60902 10305 20270 30040 40078 70522 83340 333 58002 70000 83615 85365 81930==
41891,2023,10,11,12,00,AAXX 11124 41891 01435 60902 10287 20260 30045 40083 70522 83340 333 10325 58007 70000 83615 85365 81930==
41891,2023,10,11,15,00,AAXX 11154 41891 01430 60000 10270 20250 30067 40105 70522 83370 333 58011 70000 83615 85460 81930==
41891,2023,10,11,18,00,AAXX 11184 41891 01430 80000 10265 20260 30074 40112 70522 8532/ 333 58014 70000 81710 84615 88459 81930==
41891,2023,10,11,21,00,AAXX 11214 41891 01430 80902 10262 20250 30074 40113 70522 8532/ 333 58016 70000 82710 84615 88459 81930==
41891,2023,10,12,00,00,AAXX 12004 41891 01320 80902 10252 20240 30074 40113 79522 8632/ 333 58015 70070 86707 88458 81925==
41891,2023,10,12,03,00,AAXX 12034 41891 01430 80902 10274 20250 30098 40137 72996 8532/ 333 20248 58017 70108 82710 84615 88459 81930==
41891,2023,10,12,06,00,AAXX 12064 41891 11445 71302 10304 20250 30086 40124 60046 70596 84370 333 58022 70108 84615 86460 81930==
41891,2023,10,12,09,00,AAXX 12094 41891 01445 82704 10310 20250 30060 40098 70522 8532/ 333 58020 70108 82710 84615 88459 81930==
41891,2023,10,12,12,00,AAXX 12124 41891 01435 70000 10284 20250 30065 40103 70522 84370 333 10322 58020 70108 84615 86460 81930==
41891,2023,10,12,15,00,AAXX 12154 41891 01430 60000 10267 20260 30089 40128 70522 83340 333 58022 70108 83615 85365 81930==
41891,2023,10,12,18,00,AAXX 12184 41891 01430 80000 10260 20240 30086 40125 70522 8532/ 333 58012 70108 81710 84615 88460 81930==
41891,2023,10,12,21,00,AAXX 12214 41891 01430 80000 10250 20240 30092 40131 70522 8532/ 333 58018 70108 81710 84615 88460 81930==
41895,2023,10,06,00,00,AAXX 06004 41895 02450 82304 10250 20250 30004 40027 8452/ 333 59006 70814 84615 88458==
41895,2023,10,06,03,00,AAXX 06034 41895 02456 82304 10270 20250 30028 40051 8352/ 333 20249 58002 70544 83616 88458==
41895,2023,10,06,06,00,AAXX 06064 41895 02456 82304 10280 20260 30026 40048 8352/ 333 58013 70264 83616 88458==
41895,2023,10,06,09,00,AAXX 06094 41895 01456 82703 10282 20260 30004 40026 70262 8452/ 333 58023 70028 84615 88458==
41895,2023,10,06,12,00,AAXX 06124 41895 01450 82702 10266 20260 30023 40045 70262 8452/ 333 10288 58031 70016 84615 88458==
41895,2023,10,06,15,00,AAXX 06154 41895 02450 82702 10262 20260 30033 40055 8452/ 333 58019 70016 84615 88458==
41895,2023,10,06,18,00,AAXX 06184 41895 02450 82702 10260 20260 30034 40056 8452/ 333 58026 70016 84615 88458==
41895,2023,10,06,21,00,AAXX 06214 41895 02450 82702 10258 20258 30035 40057 8452/ 333 58031 70016 84615 88458==
41895,2023,10,07,00,00,AAXX 07004 41895 02450 82702 10258 20258 30034 40056 8452/ 333 58030 70016 84615 88458==
41895,2023,10,07,03,00,AAXX 07034 41895 02450 82302 10266 20266 30055 40077 8452/ 333 20256 58027 70016 84615 88458==
41895,2023,10,07,06,00,AAXX 07064 41895 02456 82702 10290 20260 30048 40071 8452/ 333 58022 70016 84616 88458==
41895,2023,10,07,09,00,AAXX 07094 41895 02456 62301 10310 20270 30029 40051 83520 333 58025 70012 83616 86458==
41895,2023,10,07,12,00,AAXX 07124 41895 02450 52302 10285 20270 30038 40060 83501 333 10313 58015 70000 83616 83074==
41895,2023,10,07,15,00,AAXX 07154 41895 02950 00000 10268 20268 30057 40079 333 58024 70000==
41895,2023,10,07,18,00,AAXX 07184 41895 02450 32701 10270 20260 30056 40079 83500 333 58022 70000 83616==
41895,2023,10,07,21,00,AAXX 07214 41895 02450 52301 10265 20260 30054 40076 83520 333 58019 70000 83616 85458==
41895,2023,10,08,00,00,AAXX 08004 41895 02450 82302 10265 20260 30055 40077 8352/ 333 58021 70000 83616 88458==
41895,2023,10,08,03,00,AAXX 08034 41895 02457 22706 10290 20270 30072 40094 82500 333 20260 58017 70000 82616==
41895,2023,10,08,06,00,AAXX 08064 41895 02457 42704 10320 20260 30069 40091 84800 333 58021 70000 82616 83825==
41895,2023,10,08,09,00,AAXX 08094 41895 02457 42303 10342 20250 30042 40064 84800 333 58013 70000 82616 83825==
41895,2023,10,08,12,00,AAXX 08124 41895 02450 40000 10302 20270 30046 40068 84500 333 10347 58008 70000 84616==
41895,2023,10,08,15,00,AAXX 08154 41895 02950 00000 10277 20260 30069 40091 333 58012 70000==
41895,2023,10,08,18,00,AAXX 08184 41895 02450 40502 10272 20250 30068 40090 84500 333 58012 70000 84616==
41895,2023,10,08,21,00,AAXX 08211 41895 02450 60000 10268 20260 30064 40086 83520 333 58010 70000 83616 86458==
41895,2023,10,09,00,00,AAXX 09004 41895 02450 60000 10266 20260 30063 40086 83520 333 58008 70000 83616 86458==
41895,2023,10,09,03,00,AAXX 09034 41895 02456 62303 10280 20260 30085 40107 84470 333 20263 58013 70000 83616 85458==
41895,2023,10,09,06,00,AAXX 09064 41895 02456 52703 10324 20260 30077 40099 83510 333 58008 70000 83616 85458==
41895,2023,10,09,09,00,AAXX 09094 41895 02457 22302 10335 20280 30051 40073 82500 333 58009 70000 82617==
41895,2023,10,09,12,00,AAXX 09124 41895 02950 00000 10295 20280 30053 40075 333 10340 58007 70000==
41895,2023,10,09,15,00,AAXX 09154 41895 02950 00000 10280 20270 30073 40095 333 58004 70000==
41895,2023,10,09,18,00,AAXX 09184 41895 02950 02301 10275 20275 30074 40096 333 58006 70000==
41895,2023,10,09,21,00,AAXX 09214 41895 02950 02301 10270 20270 30068 40091 333 58004 70000==
41895,2023,10,10,00,00,AAXX 10004 41895 01950 02301 10265 20265 30074 40096 70500 333 58011 70000==
41895,2023,10,10,03,00,AAXX 10034 41895 01950 02302 10288 20270 30099 40121 70500 333 20262 58014 70000==
41895,2023,10,10,06,00,AAXX 10064 41895 01456 22702 10340 20260 30081 40103 70510 82500 333 58004 70000 82616==
41895,2023,10,10,09,00,AAXX 10094 41895 02456 73102 10340 20250 30052 40074 84520 333 58001 70000 84616 87458==
41895,2023,10,10,12,00,AAXX 10124 41895 02450 80000 10304 20270 30049 40071 8452/ 333 10346 59004 70000 84615 88458==
41895,2023,10,10,15,00,AAXX 10154 41895 02450 60000 10280 20260 30073 40095 84520 333 58000 70000 84616 86458==
41895,2023,10,10,18,00,AAXX 10184 41895 02450 60000 10275 20270 30073 40096 84520 333 58000 70000 84616 86458==
41895,2023,10,10,21,00,AAXX 10214 41895 02950 00501 10264 20250 30070 40093 333 58002 70000==
41895,2023,10,11,00,00,AAXX 11004 41895 01950 00000 10257 20257 30069 40092 70500 333 59005 70000==
41895,2023,10,11,03,00,AAXX 11034 41895 01456 53602 10288 20270 30093 40115 70520 83510 333 20255 59006 70000 83616 85458==
41895,2023,10,11,06,00,AAXX 11064 41895 01456 62702 10328 20280 30080 40102 70522 83510 333 59001 70000 83616 86458==
41895,2023,10,11,09,00,AAXX 11094 41895 02457 33102 10335 20260 30055 40076 83400 333 58003 70000 81617 83825==
41895,2023,10,11,12,00,AAXX 11124 41895 02950 00000 10300 20280 30060 40082 333 10339 58011 70000==
41895,2023,10,11,15,00,AAXX 11154 41895 02950 00000 10280 20270 30082 40104 333 58009 70000==
41895,2023,10,11,18,00,AAXX 11184 41895 01950 00000 10270 20270 30084 40107 70500 333 58011 70000==
41895,2023,10,11,21,00,AAXX 11214 41895 01950 00000 10265 20265 30082 40105 70500 333 58012 70000==
41895,2023,10,12,00,00,AAXX 12004 41895 01950 00000 10260 20250 30087 40109 70500 333 58018 70000==
41895,2023,10,12,03,00,AAXX 12034 41895 01956 02302 10296 20270 30112 40134 70500 333 20252 58019 70000==
41895,2023,10,12,06,00,AAXX 12064 41895 02457 22303 10344 20250 30102 40124 82500 333 58022 70000 82616==
41895,2023,10,12,09,00,AAXX 12094 41895 02456 43101 10343 20240 30077 40099 84500 333 58022 70000 84616==
41895,2023,10,12,12,00,AAXX 12124 41895 02950 00000 10304 20250 30082 40104 333 10347 58022 70000==
41895,2023,10,12,15,00,AAXX 12154 41895 02950 00000 10263 20250 30102 40125 333 58020 70000==
41895,2023,10,12,18,00,AAXX 12184 41895 02950 00000 10258 20250 30105 40127 333 58021 70000==
41895,2023,10,12,21,00,AAXX 12214 41895 02950 00000 10246 20246 30110 40133 333 58028 70000==
41897,2023,10,06,00,00,AAXX 06004 41897 32450 80000 10260 20250 30011 40024 8431/ 333 56999 59013 70820 83618 81928 88460=
41897,2023,10,06,06,00,AAXX 06064 41897 32450 61402 10295 20250 30034 40047 84610 333 56990 58004 70570 82618 85460=
41897,2023,10,06,12,00,AAXX 06124 41897 11450 80000 10280 20250 30012 40025 60026 70262 8431/ 333 10295 56990 58004 70020 81710 83618 81928 88460=
41897,2023,10,06,18,00,AAXX 06184 41897 32450 80000 10270 20250 30040 40053 84610 333 56990 58026 70020 83618 88460=
41897,2023,10,07,00,00,AAXX 07004 41897 31440 80000 10265 20260 30040 40053 70542 84610 333 56990 58025 70020 83618 88460=
41897,2023,10,07,06,00,AAXX 07064 41897 32456 60000 10310 20250 30052 40065 84610 333 56990 58018 70020 82618 86460=
41897,2023,10,07,12,00,AAXX 07124 41897 32450 31801 10295 20280 30041 40054 81530 333 10320 56990 58029 70000 81618 83362=
41897,2023,10,07,18,00,AAXX 07184 41897 32940 01802 10270 20250 30062 40075 70500 333 58022 70000=
41897,2023,10,08,00,00,AAXX 08004 41897 32440 81802 10265 20260 30061 40074 8452/ 333 56999 58019 70000 83617 88458=
41897,2023,10,08,06,00,AAXX 08064 41897 32456 33602 10305 20250 30079 40092 81510 333 56990 58027 70000 81618 83828=
41897,2023,10,08,12,00,AAXX 08124 41897 32950 03602 10295 20240 30052 40065 70500 333 20330 58011 70000=
41897,2023,10,08,18,00,AAXX 08184 41897 31940 01302 10280 20270 30074 40087 70500 333 58012 70000=
41897,2023,10,09,00,00,AAXX 09004 41897 31440 81803 10275 20270 30074 40087 70500 8352/ 333 56999 58013 70000 82617 88458=
41897,2023,10,09,06,00,AAXX 09064 41897 32450 51802 10325 20270 30082 40095 82510 333 56990 58003 70000 82618 85458=
41897,2023,10,09,12,00,AAXX 09124 41897 32950 00000 10295 20280 30060 40073 70500 333 10330 58008 70000=
41897,2023,10,09,18,00,AAXX 09184 41897 32940 00902 10275 20260 30084 40097 70500 333 58010 70000=
41897,2023,10,10,00,00,AAXX 10004 41897 31940 00902 10268 20260 30086 40099 70500 333 58012 70000=
41897,2023,10,10,06,00,AAXX 10064 41897 31950 00902 10325 20260 30090 40102 70500 333 58008 70000=
41897,2023,10,10,12,00,AAXX 10124 41897 31450 40000 10292 20260 30058 40071 70521 81530 333 10330 56990 59002 70000 81618 84361=
41897,2023,10,10,18,00,AAXX 10184 41897 31450 40000 10275 20260 30078 40092 70521 81530 333 56990 59006 70000 81618 84361=
41897,2023,10,11,00,00,AAXX 11004 41897 31440 50000 10266 20260 30081 40095 70522 81530 333 56990 59005 70000 81618 85361=
41897,2023,10,11,06,00,AAXX 11064 41897 31450 50000 10310 20260 30099 40112 70522 81510 333 56990 58009 70000 81618 85458=
41897,2023,10,11,12,00,AAXX 11124 41897 31950 20000 10294 20270 30066 40079 70500 82030 333 10332 56090 58008 70000 82361=
41897,2023,10,11,18,00,AAXX 11184 41897 31950 00000 10272 20260 30080 40094 70500 333 58002 70000=
41897,2023,10,12,00,00,AAXX 12004 41897 31940 00000 10265 20260 30098 40112 70500 333 58017 70000=
41897,2023,10,12,06,00,AAXX 12064 41897 31450 41801 10334 20240 30105 40118 70510 81530 333 56990 58006 70000 81618 84361=
41897,2023,10,12,12,00,AAXX 12124 41897 31950 00000 10286 20270 30089 40102 70500 333 10338 58023 70000=
41897,2023,10,12,18,00,AAXX 12184 41897 31950 00000 10270 20260 30107 40121 70500 333 58027 70000=
41902,2023,10,06,00,00,AAXX 06004 41902 11430 81805 10265 20265 30022 40031 62469 79596 8692/ 333 56499 59025 73105 84612 81925 88458=
41902,2023,10,06,03,00,AAXX 06034 41902 11315 82202 10254 20250 30040 40049 61779 76396 8672/ 333 56599 59011 74587 83707 85612 81925 88458=
41902,2023,10,06,06,00,AAXX 06064 41902 NIL=
41902,2023,10,06,12,00,AAXX 06124 41902 11420 80902 10255 20255 30033 40042 60243 70262 8452/ 333 10255 56499 58006 74758 84615 88458=
41902,2023,10,06,18,00,AAXX 06184 41902 11420 81803 10260 20250 30041 40050 60303 76162 8452/ 333 56999 58011 74776 84612 81925 88458=
41902,2023,10,07,00,00,AAXX 07004 41902 11330 80902 10257 20257 30043 40052 60303 79596 8692/ 333 56299 58021 72611 83707 85614 81925 88458=
41902,2023,10,07,06,00,AAXX 07064 41902 11430 80902 10300 20270 30055 40064 60156 70396 8452/ 333 56999 58015 70985 84615 88458=
41902,2023,10,07,12,00,AAXX 07124 41902 11430 60502 10270 20260 30044 40053 60026 70296 83530 333 10300 56990 58011 70762 83615 86362=
41902,2023,10,07,18,00,AAXX 07184 41902 32430 72202 10267 20267 30070 40079 83520 333 56990 58029 70462 83615 87459=
41902,2023,10,08,00,00,AAXX 08004 41902 31415 71802 10270 20260 30060 40069 71022 83520 333 56990 58017 70164 83615 87459=
41902,2023,10,08,06,00,AAXX 08064 41902 31440 61801 10317 20270 30069 40077 70544 83430 333 56990 58014 70016 83615 86360=
41902,2023,10,08,12,00,AAXX 08124 41902 31430 61801 10292 20275 30058 40066 70522 83430 333 10337 56990 58014 70000 83615 88360=
41902,2023,10,08,18,00,AAXX 08184 41902 31420 72801 10268 20260 30078 40087 70522 83520 333 56990 58008 70000 83615 87459=
41902,2023,10,09,00,00,AAXX 09004 41902 NIL=
41902,2023,10,09,06,00,AAXX 09064 41902 11430 71802 10310 20280 30085 40093 60014 72122 83520 333 56990 58016 70008 83615 87459=
41902,2023,10,09,12,00,AAXX 09124 41902 11420 80503 10264 20250 30067 40076 60197 72162 8452/ 333 10310 56499 58009 70198 84615 88458=
41902,2023,10,09,18,00,AAXX 09184 41902 NIL=
41902,2023,10,10,00,00,AAXX 10004 41902 31415 60501 10262 20260 30088 40097 71022 83430 333 56990 58002 70218 83615 86360=
41902,2023,10,10,06,00,AAXX 10064 41902 31430 63602 10314 20270 30096 40105 70522 83430 333 56990 58011 70210 83615 86360=
41902,2023,10,10,12,00,AAXX 10124 41902 31420 83601 10277 20260 30075 40084 70522 8452/ 333 10315 56999 58008 70020 84615 88458=
41902,2023,10,10,18,00,AAXX 10184 41902 31415 62601 10260 20257 30078 40087 71022 83430 333 56990 59002 70000 83615 86360=
41902,2023,10,11,00,00,AAXX 11004 41902 31410 80000 10260 20259 30083 40092 71022 8452/ 333 56999 59005 70000 84615 88458=
41902,2023,10,11,06,00,AAXX 11064 41902 11430 81001 10305 20300 30086 40095 60034 72122 8452/ 333 56999 59010 70030 84615 88458=
41902,2023,10,11,12,00,AAXX 11124 41902 31420 83601 10290 20280 30068 40077 70522 8452/ 333 10312 56999 59007 70030 84615 88458=
41902,2023,10,12,00,00,AAXX 12004 41902 31410 62801 10260 20258 30100 40109 71022 83430 333 56990 58017 70030 83615 86360=
41902,2023,10,12,06,00,AAXX 12064 41902 32440 62801 10327 20270 30107 40116 83430 333 56990 58021 70000 83615 86360=
41902,2023,10,12,12,00,AAXX 12124 41902 11430 80000 10285 20280 30087 40096 69924 70362 8352/ 333 10330 56999 58019 70002 83614 88459=
41907,2023,10,06,00,00,AAXX 06004 41907 02330 82702 10253 20250 30008 40023 8662/ 333 59008 70663 85709 88458==
41907,2023,10,06,03,00,AAXX 06034 41907 02340 82704 10265 20250 30033 40048 8662/ 333 20250 59002 70513 85709 88458==
41907,2023,10,06,06,00,AAXX 06064 41907 02340 82303 10290 20250 30030 40044 8662/ 333 58008 70473 83709 85615 88458==
41907,2023,10,06,09,00,AAXX 06094 41907 02450 62702 10295 20250 30008 40022 85870 333 58014 70296 84615 86458==
41907,2023,10,06,12,00,AAXX 06124 41907 02340 80000 10278 20260 30019 40033 8672/ 333 10300 58023 70034 85709 88458==
41907,2023,10,06,15,00,AAXX 06154 41907 02340 80000 10275 20260 30036 40051 8662/ 333 58018 70000 85609 88458==
41907,2023,10,06,18,00,AAXX 06184 41907 02340 80000 10270 20260 30041 40056 8662/ 333 58032 70000 85709 88458==
41907,2023,10,06,21,00,AAXX 06214 41907 02340 80000 10265 20260 30031 40046 8662/ 333 58032 70000 85709 88458==
41907,2023,10,07,00,00,AAXX 07004 41907 02340 80000 10258 20250 30037 40052 8662/ 333 58029 70000 85709 88458==
41907,2023,10,07,03,00,AAXX 07034 41907 02450 62702 10285 20260 30060 40075 83530 333 20250 58027 70000 83615 85360==
41907,2023,10,07,06,00,AAXX 07064 41907 02450 52703 10312 20240 30050 40065 84830 333 58020 70000 83615==
41907,2023,10,07,09,00,AAXX 07094 41907 02450 71802 10315 20260 30031 40046 84530 333 58023 70000 84615 85360==
41907,2023,10,07,12,00,AAXX 07124 41907 02950 50000 10290 20260 30041 40056 80001 333 10324 58022 70000 85080==
41907,2023,10,07,15,00,AAXX 07154 41907 02940 00000 10270 20260 30050 40075 333 58025 70000==
41907,2023,10,07,18,00,AAXX 07184 41907 02940 00000 10263 20250 30059 40074 333 58018 70000==
41907,2023,10,07,21,00,AAXX 07214 41907 02440 32302 10264 20260 30060 40074 83500 333 58029 70000 83615==
41907,2023,10,08,00,00,AAXX 08004 41907 02340 82302 10264 20250 30061 40076 8662/ 333 58024 70000 83709 85615 88458==
41907,2023,10,08,03,00,AAXX 08034 41907 02450 33103 10285 20260 30074 40089 83500 333 20263 58014 70000 83615==
41907,2023,10,08,06,00,AAXX 08064 41907 02450 52702 10328 20260 30071 40086 85800 333 58021 70000 82615 83825==
41907,2023,10,08,09,00,AAXX 08094 41907 02456 52302 10340 20250 30046 40061 85800 333 58015 70000 82615 83825==
41907,2023,10,08,12,00,AAXX 08124 41907 02940 00000 10300 20270 30049 40063 333 10343 58008 70000==
41907,2023,10,08,15,00,AAXX 08154 41907 02940 00000 10277 20270 30072 40087 333 58011 70000==
41907,2023,10,08,18,00,AAXX 08184 41907 02940 00000 10275 20270 30073 40088 333 58013 70000==
41907,2023,10,08,21,00,AAXX 08214 41907 02440 82302 10275 20270 30079 40094 8452/ 333 58019 70000 84615 88458==
41907,2023,10,09,00,00,AAXX 09004 41907 02440 82302 10275 20270 30072 40086 8552/ 333 58011 70000 85615 88458==
41907,2023,10,09,03,00,AAXX 09034 41907 02450 62302 10300 20280 30086 40101 84510 333 20265 58012 70000 84615 85458==
41907,2023,10,09,06,00,AAXX 09064 41907 02450 32302 10325 20270 30079 40093 83800 333 58008 70000 82615==
41907,2023,10,09,09,00,AAXX 09094 41907 02950 03602 10335 20280 30054 40069 333 58008 70000==
41907,2023,10,09,12,00,AAXX 09124 41907 02940 00000 10295 20280 30057 40072 333 10340 58008 70000==
41907,2023,10,09,15,00,AAXX 09154 41907 02940 00000 10280 20270 30078 40093 333 58006 70000==
41907,2023,10,09,18,00,AAXX 09184 41907 02940 00000 10272 20260 30080 40095 333 58007 70000==
41907,2023,10,09,21,00,AAXX 09214 41907 02940 00000 10268 20260 30072 40087 333 59007 70000==
41907,2023,10,10,00,00,AAXX 10004 41907 01940 00000 10264 20250 30076 40091 70500 333 58004 70000==
41907,2023,10,10,03,00,AAXX 10034 41907 01940 00000 10300 20270 30103 40118 70500 333 20260 58017 70000==
41907,2023,10,10,06,00,AAXX 10064 41907 01450 33102 10340 20260 30083 40098 70500 83800 333 58004 70000 81615==
41907,2023,10,10,09,00,AAXX 10094 41907 02450 83602 10302 20250 30055 40070 8551/ 333 58001 70000 85615 88458==
41907,2023,10,10,12,00,AAXX 10124 41907 01940 00000 10285 20270 30055 40070 70520 333 10351 59002 70000==
41907,2023,10,10,15,00,AAXX 10154 41907 02940 00000 10275 20260 30070 40084 333 59008 70000==
41907,2023,10,10,18,00,AAXX 10184 41907 02940 00000 10268 20260 30078 40093 333 59002 70000==
41907,2023,10,10,21,00,AAXX 10214 41907 02940 00000 10260 20250 30072 40087 333 58000 70000==
41907,2023,10,11,00,00,AAXX 11004 41907 01340 80000 10254 20240 30075 40090 70500 8662/ 333 59001 70000 82709 85615 88458==
41907,2023,10,11,03,00,AAXX 11034 41907 01940 03102 10300 20260 30094 40109 70522 333 20245 59006 70000==
41907,2023,10,11,06,00,AAXX 11064 41907 02450 52302 10338 20260 30081 40096 85800 333 59002 70000 82615 83825==
41907,2023,10,11,09,00,AAXX 11094 41907 02450 42702 10343 20240 30056 40071 84800 333 58001 70000 82615 83825==
41907,2023,10,11,12,00,AAXX 11124 41907 02940 00000 10300 20270 30061 40076 333 10348 58006 70000==
41907,2023,10,11,15,00,AAXX 11154 41907 02940 00000 10277 20260 30085 40100 333 58015 70000==
41907,2023,10,11,18,00,AAXX 11184 41907 02940 00000 10270 20250 30087 40102 333 58009 70000==
41907,2023,10,11,21,00,AAXX 11214 41907 02940 00000 10258 20250 30078 40093 333 58006 70000==
41907,2023,10,12,00,00,AAXX 12004 41907 01940 00000 10252 20250 30090 40105 70500 333 58015 70000==
41907,2023,10,12,03,00,AAXX 12034 41907 01950 02702 10305 20260 30114 40129 70500 333 20244 58020 70000==
41907,2023,10,12,06,00,AAXX 12064 41907 02550 22702 10340 20230 30103 40118 82100 333 58022 70000 82825==
41907,2023,10,12,09,00,AAXX 12094 41907 02550 23102 10336 20250 30079 40094 82100 333 58023 70000 82825==
41907,2023,10,12,12,00,AAXX 12124 41907 02950 00000 10293 20250 30084 40099 333 10350 58023 70000==
41907,2023,10,12,15,00,AAXX 12154 41907 02940 00000 10265 20260 30106 40121 333 58021 70000==
41907,2023,10,12,18,00,AAXX 12184 41907 01940 00000 10255 20250 30105 40120 70500 333 58018 70000==
41907,2023,10,12,21,00,AAXX 12214 41907 01940 00000 10250 20230 30108 40122 70500 333 58030 70000==
41909,2023,10,06,00,00,AAXX 06004 41909 21340 80000 10255 20250 30011 40022 76166 8662/ 333 59022 60679 72300 83708 84614 88458==
41909,2023,10,06,03,00,AAXX 06034 41909 01350 80000 10261 20250 30030 40041 76166 8662/ 333 20235 59020 71260 83708 84614 88458==
41909,2023,10,06,06,00,AAXX 06064 41909 21356 80000 10284 20240 30037 40048 70262 8662/ 333 58001 60017 72100 83708 84614 88458==
41909,2023,10,06,09,00,AAXX 06094 41909 02456 80000 10292 20250 30015 40026 8552/ 333 58005 71380 85614 88460==
41909,2023,10,06,12,00,AAXX 06124 41909 02350 80000 10285 20270 30023 40034 8562/ 333 10295 58012 70880 83708 83614 88460==
41909,2023,10,06,15,00,AAXX 06154 41909 01335 80000 10265 20260 30042 40053 70262 8662/ 333 58016 70758 83708 84614 88458==
41909,2023,10,06,18,00,AAXX 06184 41909 11430 80000 10263 20250 30041 40052 69986 70262 8552/ 333 58028 70688 85615 88460==
41909,2023,10,06,21,00,AAXX 06214 41909 01330 80000 10266 20260 30035 40046 70522 8562/ 333 58023 70368 83708 83614 88460==
41909,2023,10,07,00,00,AAXX 07004 41909 01340 80000 10269 20260 30040 40051 70522 8662/ 333 58029 70018 83708 84614 88458==
41909,2023,10,07,03,00,AAXX 07034 41909 02350 80000 10277 20260 30063 40074 8562/ 333 20240 58033 70008 83708 84614 88458==
41909,2023,10,07,06,00,AAXX 07064 41909 02456 60000 10314 20240 30057 40068 83510 333 58020 70008 83615 86458==
41909,2023,10,07,09,00,AAXX 07094 41909 02456 60000 10322 20260 30036 40047 83510 333 58021 70000 83615 86458==
41909,2023,10,07,12,00,AAXX 07124 41909 02450 70000 10291 20270 30041 40052 84320 333 10323 58018 70000 83615 86458 81930==
41909,2023,10,07,15,00,AAXX 07154 41909 02440 40000 10284 20260 30063 40074 83530 333 58021 70000 82615 83360==
41909,2023,10,07,18,00,AAXX 07184 41909 02440 40000 10274 20260 30064 40075 83530 333 58023 70000 82615 83360==
41909,2023,10,07,21,00,AAXX 07214 41909 02330 80000 10272 20260 30062 40073 8462/ 333 58027 70000 83708 88458==
41909,2023,10,08,00,00,AAXX 08004 41909 02350 81801 10270 20260 30060 40071 8362/ 333 58020 70000 83708 88458==
41909,2023,10,08,03,00,AAXX 08034 41909 02456 81802 10284 20250 30075 40086 8252/ 333 20245 58012 70000 82615 88458==
41909,2023,10,08,06,00,AAXX 08064 41909 02456 52302 10323 20240 30074 40085 82530 333 58017 70000 82615 85360==
41909,2023,10,08,09,00,AAXX 08094 41909 02456 30000 10330 20250 30054 40065 81530 333 58018 70000 81615 83360==
41909,2023,10,08,12,00,AAXX 08124 41909 02450 50000 10305 20260 30050 40061 82530 333 10335 58009 70000 82615 85360==
41909,2023,10,08,15,00,AAXX 08154 41909 02940 00000 10279 20260 30077 40088 333 58014 70000==
41909,2023,10,08,18,00,AAXX 08184 41909 02940 00000 10274 20250 30078 40089 333 58014 70000==
41909,2023,10,08,21,00,AAXX 08211 41909 02940 00000 10270 20260 30076 40088 333 58014 70000==
41909,2023,10,09,00,00,AAXX 09004 41909 01440 50000 10268 20260 30074 40085 70500 82530 333 58014 70000 82615 85360==
41909,2023,10,09,03,00,AAXX 09034 41909 01450 81802 10290 20270 30091 40102 70522 8252/ 333 20250 58016 70000 82615 88458==
41909,2023,10,09,06,00,AAXX 09064 41909 02456 61802 10324 20260 30084 40095 82510 333 58010 70000 82615 86458==
41909,2023,10,09,09,00,AAXX 09094 41909 02456 31802 10330 20250 30059 40070 81530 333 58005 70000 81618 83362==
41909,2023,10,09,12,00,AAXX 09124 41909 02950 00000 10307 20250 30060 40071 333 10338 58010 70000==
41909,2023,10,09,15,00,AAXX 09154 41909 02940 00000 10284 20260 30084 40095 333 58007 70000==
41909,2023,10,09,18,00,AAXX 09184 41909 02440 50000 10274 20250 30087 40098 82530 333 58009 70000 82615 85360==
41909,2023,10,09,21,00,AAXX 09214 41909 01940 00000 10270 20260 30086 40097 70522 333 58010 70000==
41909,2023,10,10,00,00,AAXX 10004 41909 01950 00000 10266 20260 30083 40094 70520 333 58009 70000==
41909,2023,10,10,03,00,AAXX 10034 41909 01450 80000 10281 20260 30108 40119 70500 8352/ 333 20244 58017 70000 83615 88458==
41909,2023,10,10,06,00,AAXX 10064 41909 02456 61801 10314 20250 30092 40103 82510 333 58008 70000 82615 86458==
41909,2023,10,10,09,00,AAXX 10094 41909 02456 50000 10310 20250 30061 40072 82530 333 58002 70000 82615 84365==
41909,2023,10,10,12,00,AAXX 10124 41909 02/50 20000 10290 20250 30061 40072 82030 333 10330 58001 70000 82365==
41909,2023,10,10,15,00,AAXX 10154 41909 02950 00000 10280 20260 30080 40091 333 59004 70000==
41909,2023,10,10,18,00,AAXX 10184 41909 02940 00000 10274 20250 30080 40091 333 59007 70000==
41909,2023,10,10,21,00,AAXX 10214 41909 01940 00000 10272 20250 30074 40085 70500 333 59012 70000==
41909,2023,10,11,00,00,AAXX 11004 41909 01445 60000 10265 20250 30078 40089 70500 83530 333 59005 70000 83615 84365==
41909,2023,10,11,03,00,AAXX 11034 41909 02456 50000 10292 20260 30098 40109 82530 333 20242 59010 70000 82615 85362==
41909,2023,10,11,06,00,AAXX 11064 41909 02456 52301 10327 20250 30086 40097 82530 333 59006 70000 82615 85362==
41909,2023,10,11,09,00,AAXX 11094 41909 02456 51802 10339 20240 30060 40071 83830 333 59001 70000 82615 83360==
41909,2023,10,11,12,00,AAXX 11124 41909 02450 40000 10299 20270 30066 40077 82530 333 10344 58005 70000 82615 83360==
41909,2023,10,11,15,00,AAXX 11154 41909 01940 00000 10280 20260 30090 40101 70511 333 58010 70000==
41909,2023,10,11,18,00,AAXX 11184 41909 01940 00000 10274 20250 30094 40105 70510 333 58014 70000==
41909,2023,10,11,21,00,AAXX 11214 41909 01940 00000 10268 20260 30091 40102 70500 333 58017 70000==
41909,2023,10,12,00,00,AAXX 12004 41909 01940 00000 10262 20250 30093 40105 70500 333 58015 70000==
41909,2023,10,12,03,00,AAXX 12034 41909 02956 40000 10304 20260 30115 40126 333 20240 58017 70000==
41909,2023,10,12,06,00,AAXX 12064 41909 02456 50000 10340 20230 30102 40123 82530 333 58016 70000 82615 85362==
41909,2023,10,12,09,00,AAXX 12094 41909 02956 00000 10337 20240 30084 40095 333 58024 70000==
41909,2023,10,12,12,00,AAXX 12124 41909 02950 00000 10304 20260 30086 40097 333 10345 58020 70000==
41909,2023,10,12,15,00,AAXX 12154 41909 02940 00000 10286 20260 30110 40121 333 58020 70000==
41909,2023,10,12,18,00,AAXX 12184 41909 02940 00000 10276 20260 30110 40121 333 58016 70000==
41909,2023,10,12,21,00,AAXX 12214 41909 02940 00000 10260 20240 30112 40124 333 58021 70000==
41915,2023,10,06,00,00,AAXX 06004 41915 21450 80903 10256 20250 30029 40054 76366 8672/ 333 59019 60197 70263 86710 83616 88458==
41915,2023,10,06,03,00,AAXX 06034 41915 01450 81202 10264 20260 30053 40078 76566 8672/ 333 20249 59015 70453 83710 83616 88458==
41915,2023,10,06,06,00,AAXX 06064 41915 22456 81501 10254 20240 30044 40069 8672/ 333 59001 60399 70616 83710 83616 88458==
41915,2023,10,06,09,00,AAXX 06094 41915 01456 81602 10253 20250 30022 40047 79596 8632/ 333 58003 70694 82710 85616 88458 81928==
41915,2023,10,06,12,00,AAXX 06124 41915 21456 81501 10254 20240 30027 40052 76196 8672/ 333 10277 58002 60108 70706 83710 83616 88458==
41915,2023,10,06,15,00,AAXX 06154 41915 02450 80000 10254 20240 30041 40066 8552/ 333 59004 70706 85617 88458==
41915,2023,10,06,18,00,AAXX 06184 41915 02450 80000 10260 20250 30037 40062 8552/ 333 59001 70685 85616 88458==
41915,2023,10,06,21,00,AAXX 06214 41915 02450 80000 10258 20250 30034 40059 8552/ 333 58000 70595 85617 88458==
41915,2023,10,07,00,00,AAXX 07004 41915 02456 80000 10260 20250 30042 40067 8552/ 333 58013 70495 85616 88458==
41915,2023,10,07,03,00,AAXX 07034 41915 02450 80000 10278 20260 30064 40089 8552/ 333 20252 58011 70265 85616 88458==
41915,2023,10,07,06,00,AAXX 07064 41915 02456 81201 10287 20250 30061 40086 8552/ 333 58017 70102 85616 88458==
41915,2023,10,07,09,00,AAXX 07094 41915 02456 61502 10304 20250 30030 40056 84430 333 58008 70012 83616 85362==
41915,2023,10,07,12,00,AAXX 07124 41915 21456 81401 10281 20270 30040 40065 76122 8672/ 333 10318 58013 60017 70012 83710 83616 88458==
41915,2023,10,07,15,00,AAXX 07154 41915 02450 80000 10276 20260 30053 40078 8552/ 333 58012 70012 83616 88458==
41915,2023,10,07,18,00,AAXX 07184 41915 02450 60000 10264 20250 30063 40089 84520 333 58036 70012 84615 86458==
41915,2023,10,07,21,00,AAXX 07214 41915 01440 50000 10260 20250 30060 40086 70522 82520 333 58026 70012 82616 85458==
41915,2023,10,08,00,00,AAXX 08004 41915 01440 40000 10256 20256 30058 40084 70522 81510 333 58016 70012 81616 83460==
41915,2023,10,08,03,00,AAXX 08034 41915 02456 51803 10300 20250 30073 40098 84410 333 20253 58009 70012 83616 83460==
41915,2023,10,08,06,00,AAXX 08064 41915 02456 51502 10317 20250 30064 40089 84430 333 58003 70012 83616==
41915,2023,10,08,09,00,AAXX 08094 41915 02456 61502 10310 20250 30043 40068 85430 333 58013 70012 84615==
41915,2023,10,08,12,00,AAXX 08124 41915 02450 20000 10290 20260 30045 40070 81530 333 10325 58005 70000 81616==
41915,2023,10,08,15,00,AAXX 08154 41915 02950 00000 10265 20250 30074 40099 333 58021 70000==
41915,2023,10,08,18,00,AAXX 08184 41915 02450 70000 10260 20250 30078 40103 83520 333 58015 70000 83616 87458==
41915,2023,10,08,21,00,AAXX 08214 41915 02450 40000 10264 20250 30072 40098 82520 333 58012 70000 82616 84458==
41915,2023,10,09,00,00,AAXX 09004 41915 01450 30000 10261 20250 30071 40097 70521 81510 333 58013 70000 81616 83460==
41915,2023,10,09,03,00,AAXX 09034 41915 02456 71301 10285 20270 30091 40116 85610 333 20259 58018 70000 82712 84615 87458==
41915,2023,10,09,06,00,AAXX 09064 41915 02456 60902 10328 20260 30080 40104 85410 333 58016 70000 84615 83460==
41915,2023,10,09,09,00,AAXX 09094 41915 01456 70503 10270 20250 30067 40092 70362 85320 333 58024 70022 84615 87458 81928==
41915,2023,10,09,12,00,AAXX 09124 41915 11450 70902 10260 20250 30061 40087 60026 70262 83520 333 10333 58016 70022 83616 87458==
41915,2023,10,09,15,00,AAXX 09154 41915 01440 81302 10253 20240 30085 40111 76322 8672/ 333 58011 70042 83710 84615 88458==
41915,2023,10,09,18,00,AAXX 09184 41915 21440 71301 10251 20240 30083 40109 70162 85620 333 58005 60025 70046 82712 84615 87458==
41915,2023,10,09,21,00,AAXX 09214 41915 02450 30000 10250 20250 30079 40105 81520 333 58007 70046 81616 83458==
41915,2023,10,10,00,00,AAXX 10004 41915 01450 20000 10247 20247 30082 40108 70521 81510 333 58011 70046 81616==
41915,2023,10,10,03,00,AAXX 10034 41915 01450 80000 10274 20250 30105 40130 70521 8452/ 333 20245 58014 70046 84616 88458==
41915,2023,10,10,06,00,AAXX 10064 41915 02456 60601 10310 20260 30085 40110 84410 333 58005 70046 83616 84458==
41915,2023,10,10,09,00,AAXX 10094 41915 02456 60602 10321 20250 30050 40075 84410 333 59017 70024 83616 84458==
41915,2023,10,10,12,00,AAXX 10124 41915 02456 70000 10282 20260 30052 40077 85410 333 10335 59009 70024 84616 85458==
41915,2023,10,10,15,00,AAXX 10154 41915 02450 40000 10265 20260 30072 40097 83410 333 59013 70004 82616 83458==
41915,2023,10,10,18,00,AAXX 10184 41915 02450 30000 10257 20260 30073 40099 82410 333 59010 70000 82616==
41915,2023,10,10,21,00,AAXX 10214 41915 02450 20000 10255 20260 30104 40129 82400 333 58025 70000 81616==
41915,2023,10,11,00,00,AAXX 11004 41915 01450 20000 10252 20250 30081 40107 70521 81510 333 59001 70000 81616==
41915,2023,10,11,03,00,AAXX 11034 41915 01456 80000 10290 20260 30095 40119 70521 8452/ 333 20249 59010 70000 84616 88458==
41915,2023,10,11,06,00,AAXX 11064 41915 02456 60602 10323 20260 30077 40102 83520 333 59008 70000 83616 85458==
41915,2023,10,11,09,00,AAXX 11094 41915 02456 80601 10320 20260 30052 40077 8452/ 333 58002 70000 84616 88458==
41915,2023,10,11,12,00,AAXX 11124 41915 02456 80000 10283 20240 30061 40086 8452/ 333 58009 70000 84616 88458==
41915,2023,10,11,15,00,AAXX 11154 41915 02450 80000 10256 20260 30079 40105 8452/ 333 58005 70000 84616 88458==
41915,2023,10,11,18,00,AAXX 11184 41915 02450 60000 10285 20250 30088 40113 83520 333 58015 70000 83616 84458==
41915,2023,10,11,21,00,AAXX 11214 41915 01450 80902 10252 20240 30083 40109 71722 8592/ 333 59021 70000 84615 88458 81925==
41915,2023,10,12,00,00,AAXX 12004 41915 21450 60000 10239 20230 30085 40111 71796 85920 333 58005 60017 70014 84615 86458 81925==
41915,2023,10,12,03,00,AAXX 12034 41915 01456 61201 10280 20240 30061 40086 70292 85530 333 20238 59034 70014 84616 85362==
41915,2023,10,12,06,00,AAXX 12064 41915 02456 40902 10315 20240 30046 40071 83530 333 59031 70014 83616 83362==
41915,2023,10,12,09,00,AAXX 12094 41915 02456 41201 10323 20260 30073 40098 83530 333 58021 70014 82616 83362==
41915,2023,10,12,12,00,AAXX 12124 41915 02456 60000 10290 20260 30077 40102 85530 333 10334 58016 70014 85616 85362==
41915,2023,10,12,15,00,AAXX 12154 41915 02450 40000 10272 20260 30105 40131 84400 333 58026 70014 83616==
41915,2023,10,12,18,00,AAXX 12184 41915 02450 40000 10264 20240 30103 40128 83430 333 58015 70014 82616==
41923,2023,10,06,00,00,AAXX 06004 41923 21330 81602 10268 20260 30019 40029 76196 8632/ 333 59024 60089 70650 83708 84615 88458 81930==
41923,2023,10,06,03,00,AAXX 06034 41923 01330 81802 10268 20250 30046 40056 70262 8632/ 333 20264 59016 70654 83708 84615 88458 81930==
41923,2023,10,06,06,00,AAXX 06064 41923 11335 81804 10272 20250 30044 40054 69946 70262 8632/ 333 58003 70654 83708 84615 88458 81930==
41923,2023,10,06,09,00,AAXX 06094 41923 01330 80000 10266 20260 30021 40031 76162 8632/ 333 58001 70860 83708 84615 88458 81930==
41923,2023,10,06,12,00,AAXX 06124 41923 21325 80000 10274 20260 30034 40044 76162 8632/ 333 10286 58013 60289 70806 83708 84615 88458 81930==
41923,2023,10,06,15,00,AAXX 06154 41923 01325 81603 10272 20260 30049 40059 76166 8632/ 333 58007 70816 83708 84614 88458 81930==
41923,2023,10,06,18,00,AAXX 06184 41923 21330 80000 10270 20260 30048 40058 79196 8632/ 333 58021 60959 71318 83708 84614 88458 81930==
41923,2023,10,06,21,00,AAXX 06214 41923 01330 80000 10270 20260 30045 40055 76166 8572/ 333 58030 71282 83708 84614 88458==
41923,2023,10,07,00,00,AAXX 07004 41923 21330 80000 10270 20260 30049 40059 72166 8562/ 333 58030 60019 71246 82708 84614 88458==
41923,2023,10,07,03,00,AAXX 07034 41923 02450 61802 10282 20260 30060 40070 84430 333 20260 58024 71242 83615 83360==
41923,2023,10,07,06,00,AAXX 07064 41923 02450 71803 10310 20250 30060 40070 84330 333 58016 71242 83614 85360 81930==
41923,2023,10,07,09,00,AAXX 07094 41923 02456 41802 10327 20250 30039 40049 83430 333 58018 70996 83615==
41923,2023,10,07,12,00,AAXX 07124 41923 02350 52002 10298 20260 30049 40059 83631 333 10328 58015 70960 81709 83615==
41923,2023,10,07,15,00,AAXX 07154 41923 02/50 20000 10283 20260 30073 40083 82030 333 58024 70840 82362==
41923,2023,10,07,18,00,AAXX 07184 41923 02350 70000 10278 20260 30070 40080 85670 333 58022 70010 83708 84615==
41923,2023,10,07,21,00,AAXX 07214 41923 02345 70000 10277 20270 30059 40069 85670 333 58014 70004 83708 84614 85459==
41923,2023,10,08,00,00,AAXX 08004 41923 02345 80000 10276 20270 30069 40079 8632/ 333 58020 70000 83708 84614 88458 81930==
41923,2023,10,08,03,00,AAXX 08034 41923 02350 42402 10302 20250 30083 40093 84630 333 20274 58013 70000 81709 83615==
41923,2023,10,08,06,00,AAXX 08064 41923 02456 42503 10325 20250 30079 40089 84400 333 58019 70000 83615==
41923,2023,10,08,09,00,AAXX 08094 41923 02356 51802 10338 20250 30053 40063 83630 333 58014 70000 82709 83615==
41923,2023,10,08,12,00,AAXX 08124 41923 02350 52102 10306 20250 30059 40069 83630 333 10341 58010 70000 82709 83615==
41923,2023,10,08,15,00,AAXX 08154 41923 02/50 30000 10288 20260 30088 40098 83030 333 58015 70000 83360==
41923,2023,10,08,18,00,AAXX 08184 41923 02/40 30000 10282 20260 30084 40094 83030 333 58014 70000 83360==
41923,2023,10,08,21,00,AAXX 08214 41923 02340 70000 10278 20260 30074 40084 85670 333 58015 70000 83708 84614 85458==
41923,2023,10,09,00,00,AAXX 09004 41923 02335 80000 10274 20260 30082 40092 8632/ 333 58013 70000 83708 84614 88458 81930==
41923,2023,10,09,03,00,AAXX 09034 41923 02350 72102 10302 20260 30101 40111 85670 333 20272 58018 70000 83708 84614 85458==
41923,2023,10,09,06,00,AAXX 09064 41923 02350 71803 10324 20250 30090 40100 85670 333 58011 70000 83708 84614 85458==
41923,2023,10,09,09,00,AAXX 09094 41923 02450 52204 10338 20250 30063 40073 83430 333 58010 70000 83615 83360==
41923,2023,10,09,12,00,AAXX 09124 41923 01445 40000 10308 20250 30070 40080 70521 82530 333 10340 58011 70000 82616 83360==
41923,2023,10,09,15,00,AAXX 09154 41923 01440 50000 10292 20250 30094 40104 70522 82530 333 58006 70000 82615 84360==
41923,2023,10,09,18,00,AAXX 09184 41923 02440 30000 10290 20260 30091 40101 81530 333 58007 70000 81616 83360==
41923,2023,10,09,21,00,AAXX 09214 41923 01435 50000 10280 20260 30090 40100 70520 82530 333 58016 70000 82615 84360==
41923,2023,10,10,00,00,AAXX 10004 41923 01330 60000 10273 20260 30094 40104 70522 84630 333 58012 70000 82709 83615==
41923,2023,10,10,03,00,AAXX 10034 41923 41340 70000 10290 20230 30113 40123 76122 84730 333 20271 58011 82709 83615 85360==
41923,2023,10,10,06,00,AAXX 10064 41923 21450 30000 10330 20230 30097 40107 70162 81530 333 58007 60005 81616 83360==
41923,2023,10,10,09,00,AAXX 10094 41923 42450 60602 10323 20240 30068 40078 84430 333 58005 82616 83824 85360==
41923,2023,10,10,12,00,AAXX 10124 41923 41445 50602 10295 20250 30068 40078 70522 83430 333 10341 59002 82616 83360==
41923,2023,10,10,15,00,AAXX 10154 41923 41440 50000 10282 20250 30086 40096 70522 82530 333 59008 82616 83360==
41923,2023,10,10,18,00,AAXX 10184 41923 41440 40000 10273 20250 30086 40096 70521 82530 333 59005 82616 83360==
41923,2023,10,10,21,00,AAXX 10214 41923 41440 60000 10273 20250 30077 40087 70522 83530 333 59013 83615 85360==
41923,2023,10,11,00,00,AAXX 11004 41923 41340 70000 10275 20260 30082 40092 70522 84670 333 59012 81709 83615 88458==
41923,2023,10,11,03,00,AAXX 11034 41923 02445 50602 10313 20240 30104 40114 83430 333 20268 59009 70000 82616 83360==
41923,2023,10,11,06,00,AAXX 11064 41923 02450 60602 10340 20220 30092 40102 84430 333 59005 70000 83616 85360==
41923,2023,10,11,09,00,AAXX 11094 41923 02456 50502 10344 20230 30064 40074 84430 333 59004 70000 83615 83362==
41923,2023,10,11,12,00,AAXX 11124 41923 02350 70000 10300 20250 30073 40083 85370 333 10346 58005 70000 82709 84615 85459 81930==
41923,2023,10,11,15,00,AAXX 11154 41923 02445 30000 10290 20250 30095 40105 81530 333 58009 70000 81616 83362==
41923,2023,10,11,18,00,AAXX 11184 41923 01340 70000 10278 20260 30100 40110 70520 85670 333 58014 70000 82709 84615 85459==
41923,2023,10,11,21,00,AAXX 11214 41923 01335 50000 10271 20250 30093 40103 70522 83630 333 58016 70000 81709 83615==
41923,2023,10,12,00,00,AAXX 12004 41923 01430 20000 10264 20250 30099 40108 70520 81530 333 58017 70000 81616==
41923,2023,10,12,03,00,AAXX 12034 41923 01450 10000 10315 20250 30122 40132 70500 81500 333 20262 58018 70000 81616==
41923,2023,10,12,06,00,AAXX 12064 41923 02456 30504 10343 20230 30108 40118 83430 333 58016 70000 83615==
41923,2023,10,12,09,00,AAXX 12094 41923 02456 60602 10346 20230 30086 40096 83530 333 58022 70000 83615 85360==
41923,2023,10,12,12,00,AAXX 12124 41923 02350 70803 10312 20230 30096 40106 85370 333 10350 58023 70000 82709 83615 86458 81930==
41923,2023,10,12,15,00,AAXX 12154 41923 02445 50000 10290 20250 30119 40129 82530 333 58024 70000 82615 83360==
41923,2023,10,12,18,00,AAXX 12184 41923 01340 82103 10284 20240 30118 40128 79596 8692/ 333 58018 70000 83708 84614 88458 81930==
41923,2023,10,12,21,00,AAXX 12214 41923 41335 70000 10266 20230 30111 40120 70562 85370 333 58018 82709 83615 86458==
41926,2023,10,06,00,00,AAXX 06004 41926 02350 80000 10258 20258 30019 40033 8562/ 333 58004 70070 82708 84615 88458==
41926,2023,10,06,03,00,AAXX 06034 41926 02450 60000 10280 20260 30039 40052 84510 333 20258 58004 70070 84616 86459==
41926,2023,10,06,06,00,AAXX 06064 41926 02450 60000 10300 20260 30033 40046 84510 333 58012 70052 84616 85459==
41926,2023,10,06,09,00,AAXX 06094 41926 02450 72102 10300 20260 30011 40024 84510 333 58012 70040 84616 86459==
41926,2023,10,06,12,00,AAXX 06124 41926 02450 60000 10284 20260 30022 40035 84510 333 10310 58019 70030 84616 86459==
41926,2023,10,06,15,00,AAXX 06154 41926 02450 50000 10270 20250 30040 40053 83510 333 58019 70000 83616 84459==
41926,2023,10,06,18,00,AAXX 06184 41926 02450 50000 10265 20260 30040 40054 83510 333 58025 70000 83616 84459==
41926,2023,10,06,21,00,AAXX 06214 41926 02450 50000 10265 20260 30042 40056 83510 333 58026 70000 83616 84459==
41926,2023,10,07,00,00,AAXX 07004 41926 02450 70000 10263 20250 30045 40059 84510 333 58026 70000 84616 86459==
41926,2023,10,07,03,00,AAXX 07034 41926 02456 50000 10288 20250 30064 40077 84401 333 20263 58025 70000 83616==
41926,2023,10,07,06,00,AAXX 07064 41926 02456 60000 10316 20250 30054 40067 84410 333 58012 70000 83615 86459==
41926,2023,10,07,09,00,AAXX 07094 41926 02456 70000 10306 20250 30035 40048 84510 333 58024 70000 84615 87459==
41926,2023,10,07,12,00,AAXX 07124 41926 02/50 20000 10287 20260 30043 40056 82010 333 10322 58021 70000 82459==
41926,2023,10,07,15,00,AAXX 07154 41926 01940 00000 10266 20260 30064 40078 70500 333 58024 70000==
41926,2023,10,07,18,00,AAXX 07184 41926 01940 00000 10259 20250 30063 40077 70500 333 58023 70000==
41926,2023,10,07,21,00,AAXX 07214 41926 01940 00000 10257 20250 30063 40077 70500 333 58021 70000==
41926,2023,10,08,00,00,AAXX 08004 41926 01940 00000 10256 20256 30065 40079 70500 333 58020 70000==
41926,2023,10,08,03,00,AAXX 08034 41926 01450 20000 10286 20260 30079 40093 70500 82500 333 20256 58015 70000 82618==
41926,2023,10,08,06,00,AAXX 08064 41926 02456 30000 10325 20260 30074 40087 83400 333 58020 70000 82618==
41926,2023,10,08,09,00,AAXX 08094 41926 02456 30000 10337 20260 30049 40062 83400 333 58014 70000 82618==
41926,2023,10,08,12,00,AAXX 08124 41926 02950 10000 10300 20270 30051 40064 80001 333 10346 58008 70000 81080==
41926,2023,10,08,15,00,AAXX 08154 41926 01940 00000 10280 20270 30075 40089 70500 333 58011 70000==
41926,2023,10,08,18,00,AAXX 08184 41926 01940 00000 10275 20270 30075 40089 70500 333 58012 70000==
41926,2023,10,08,21,00,AAXX 08211 41926 01940 00000 10274 20260 30074 40088 70500 333 58011 70000==
41926,2023,10,09,00,00,AAXX 09004 41926 01440 60000 10274 20260 30078 40092 70520 83510 333 58013 70000 83617 86459==
41926,2023,10,09,03,00,AAXX 09034 41926 02450 80000 10267 20250 30094 40109 8452/ 333 20267 58016 70000 84615 88458==
41926,2023,10,09,06,00,AAXX 09064 41926 02456 10000 10330 20260 30083 40096 81500 333 58009 70000 81618==
41926,2023,10,09,09,00,AAXX 09094 41926 02456 40000 10335 20260 30058 40071 84400 333 58009 70000 81618 83820==
41926,2023,10,09,12,00,AAXX 09124 41926 02950 00000 10302 20270 30059 40072 333 10348 58008 70000==
41926,2023,10,09,15,00,AAXX 09154 41926 01950 00000 10283 20260 30080 40093 70500 333 58005 70000==
41926,2023,10,09,18,00,AAXX 09184 41926 01940 00000 10276 20270 30080 40093 70500 333 58005 70000==
41926,2023,10,09,21,00,AAXX 09214 41926 01940 00000 10270 20260 30078 40091 70500 333 58004 70000==
41926,2023,10,10,00,00,AAXX 10004 41926 01940 00000 10260 20260 30079 40092 70500 333 58001 70000==
41926,2023,10,10,03,00,AAXX 10034 41926 01950 00000 10306 20270 30103 40119 70500 333 20260 58008 70000==
41926,2023,10,10,06,00,AAXX 10064 41926 02456 30000 10340 20240 30086 40099 83400 333 58003 70000 82618==
41926,2023,10,10,09,00,AAXX 10094 41926 02457 51802 10350 20260 30054 40067 85400 333 59004 70000 82618 83820==
41926,2023,10,10,12,00,AAXX 10124 41926 02950 00000 10300 20270 30058 40071 333 10357 59001 70000==
41926,2023,10,10,15,00,AAXX 10154 41926 01950 00000 10285 20280 30077 40090 70500 333 59003 70000==
41926,2023,10,10,18,00,AAXX 10184 41926 01950 00000 10280 20260 30077 40090 70500 333 59003 70000==
41926,2023,10,10,21,00,AAXX 10214 41926 01950 00000 10270 20260 30078 40091 70500 333 58000 70000==
41926,2023,10,11,00,00,AAXX 11004 41926 01940 00000 10260 20250 30079 40092 70500 333 58000 70000==
41926,2023,10,11,03,00,AAXX 11034 41926 01950 00000 10300 20260 30097 40110 70500 333 20260 59006 70000==
41926,2023,10,11,06,00,AAXX 11064 41926 02456 40000 10345 20260 30084 40097 84400 333 58002 70000 81618 83820==
41926,2023,10,11,09,00,AAXX 11094 41926 02456 20000 10347 20260 30058 40071 82400 333 58004 70000 81618==
41926,2023,10,11,12,00,AAXX 11124 41926 01950 00000 10300 20270 30064 40077 70500 333 10355 58006 70000==
41926,2023,10,11,15,00,AAXX 11154 41926 01950 00000 10273 20250 30089 40102 70500 333 58012 70000==
41926,2023,10,11,18,00,AAXX 11184 41926 01950 00000 10270 20260 30091 40105 70500 333 58014 70000==
41926,2023,10,11,21,00,AAXX 11214 41926 01950 00000 10265 20250 30090 40104 70500 333 58012 70000==
41926,2023,10,12,00,00,AAXX 12004 41926 01950 00000 10250 20240 30094 40108 70500 333 58015 70000==
41926,2023,10,12,03,00,AAXX 12034 41926 01956 00000 10302 20250 30116 40129 70500 333 20250 58019 70000==
41926,2023,10,12,06,00,AAXX 12064 41926 02456 40000 10340 20230 30106 40119 84400 333 58022 70000 81618 83820==
41926,2023,10,12,09,00,AAXX 12094 41926 02450 40000 10350 20230 30081 40094 84400 333 58023 70000 82618 83820==
41926,2023,10,12,12,00,AAXX 12124 41926 02950 00000 10294 20260 30089 40102 333 10357 58025 70000==
41926,2023,10,12,15,00,AAXX 12154 41926 01950 00000 10260 20240 30109 40123 70500 333 58020 70000==
41926,2023,10,12,18,00,AAXX 12184 41926 01950 00000 10250 20240 30106 40120 70500 333 58015 70000==
41926,2023,10,12,21,00,AAXX 12214 41926 01950 00000 10247 20240 30112 40126 70500 333 58022 70000==
41927,2023,10,06,00,00,AAXX 06004 41927 11350 81801 10255 20250 39999 40013 60056 70262 8562/ 333 56499 59009 71277 82708 83617 88458=
41927,2023,10,06,06,00,AAXX 06064 41927 32457 70000 10285 20260 30026 40040 84510 333 56490 58006 70667 84617 87459=
41927,2023,10,06,12,00,AAXX 06124 41927 NIL=
41927,2023,10,06,18,00,AAXX 06184 41927 32456 51902 10270 20260 30032 40046 82510 333 56490 58014 70050 82618 85459=
41927,2023,10,07,00,00,AAXX 07004 41927 32456 61701 10260 20250 30025 40039 83510 333 56590 58026 70000 83617 86459=
41927,2023,10,07,06,00,AAXX 07064 41927 32457 61901 10295 20260 30052 40066 83510 333 56490 58026 70000 83617 86459=
41927,2023,10,07,12,00,AAXX 07124 41927 32456 30000 10295 20270 30033 40048 83500 333 10328 56900 58017 70000 83618=
41927,2023,10,07,18,00,AAXX 07184 41927 32950 00000 10275 20260 30051 40065 333 58019 70000=
41927,2023,10,08,00,00,AAXX 08004 41927 32450 60000 10260 20250 30047 40061 83510 333 56490 58022 70000 83617 86459=
41927,2023,10,08,06,00,AAXX 08064 41927 32457 51701 10310 20250 30066 40081 85400 333 56400 58014 70000 82618 83828=
41927,2023,10,08,12,00,AAXX 08124 41927 32957 20000 10300 20270 30048 40063 80001 333 10335 56009 58015 70000 82080=
41927,2023,10,08,18,00,AAXX 08184 41927 32950 00000 10270 20260 30064 40078 333 58013 70000=
41927,2023,10,09,00,00,AAXX 09004 41927 31440 80000 10267 20267 30069 40083 70522 8452/ 333 56499 58022 70000 84617 88458=
41927,2023,10,09,06,00,AAXX 09064 41927 32457 51701 10317 20260 30077 40091 84410 333 56490 58011 70000 81618 83828=
41927,2023,10,09,12,00,AAXX 09124 41927 32457 70000 10300 20270 30056 40070 84510 333 10337 56990 58008 70000 84617 87459=
41927,2023,10,09,18,00,AAXX 09184 41927 32456 50000 10280 20260 30066 40081 82510 333 56990 58002 70000 82618 85459=
41927,2023,10,10,00,00,AAXX 10004 41927 31950 30000 10265 20265 30075 40089 70520 83010 333 56090 58006 70000 83459=
41927,2023,10,10,06,00,AAXX 10064 41927 32457 31801 10335 20260 30082 40096 82510 333 56490 58005 70000 82618 83459=
41927,2023,10,10,12,00,AAXX 10124 41927 32456 52201 10295 20270 30046 40061 84510 333 10350 56590 59010 70000 84617 85459=
41927,2023,10,10,18,00,AAXX 10184 41927 NIL=
41927,2023,10,11,00,00,AAXX 11004 41927 31950 00000 10263 20250 30065 40080 70500 333 59010 70000=
41927,2023,10,11,06,00,AAXX 11064 41927 32958 02302 10332 20250 30072 40086 333 59010 70000=
41927,2023,10,11,12,00,AAXX 11124 41927 32956 00000 10302 20270 30052 40066 333 10348 58004 70000=
41927,2023,10,11,18,00,AAXX 11184 41927 32956 00000 10270 20250 30075 40090 333 58004 70000=
41927,2023,10,12,00,00,AAXX 12004 41927 31950 00000 10260 20250 30070 40085 70500 333 58005 70000=
41927,2023,10,12,06,00,AAXX 12064 41927 32958 01702 10332 20260 30089 40103 333 58009 70000=
41927,2023,10,12,12,00,AAXX 12124 41927 32956 00000 10302 20250 30071 40085 333 10350 58019 70000=
41927,2023,10,12,18,00,AAXX 12184 41927 32956 00000 10270 20250 30095 40110 333 58020 70000=
41929,2023,10,06,00,00,AAXX 06004 41929 21456 81805 10272 20260 30012 40021 76196 8532/ 333 59021 60319 72317 84615 88461 81930==
41929,2023,10,06,03,00,AAXX 06034 41929 01456 80000 10264 20250 30047 40056 76166 8532/ 333 20254 59005 72295 84615 88460 81930==
41929,2023,10,06,06,00,AAXX 06064 41929 21456 80000 10284 20260 30042 40051 70262 8451/ 333 58007 60048 72215 84618 88462==
41929,2023,10,06,09,00,AAXX 06094 41929 02456 82702 10307 20270 30018 40027 8351/ 333 58003 71081 83618 88462==
41929,2023,10,06,12,00,AAXX 06124 41929 02456 80000 10290 20270 30027 40036 8351/ 333 10311 58010 70703 83618 88462==
41929,2023,10,06,15,00,AAXX 06154 41929 02456 80000 10282 20270 30042 40051 85530 333 58008 70459 85618==
41929,2023,10,06,18,00,AAXX 06184 41929 02456 50000 10277 20270 30046 40055 85540 333 58023 70347 85618==
41929,2023,10,06,21,00,AAXX 06214 41929 02456 40000 10277 20270 30044 40053 83520 333 58026 70130 83618==
41929,2023,10,07,00,00,AAXX 07004 41929 02456 80000 10271 20260 30044 40053 8351/ 333 58032 70038 83618 88462==
41929,2023,10,07,03,00,AAXX 07034 41929 02456 70000 10290 20270 30071 40080 83510 333 20262 58024 70000 83618 87462==
41929,2023,10,07,06,00,AAXX 07064 41929 02457 60000 10314 20250 30063 40072 84410 333 58021 70000 83618 85462==
41929,2023,10,07,09,00,AAXX 07094 41929 02457 50000 10317 20250 30041 40050 85440 333 58023 70000 82618 83825==
41929,2023,10,07,12,00,AAXX 07124 41929 02556 20000 10312 20270 30042 40051 82140 333 10325 58015 70000 82825==
41929,2023,10,07,15,00,AAXX 07154 41929 02456 40000 10285 20280 30068 40077 84440 333 58026 70000 82618==
41929,2023,10,07,18,00,AAXX 07184 41929 02456 40000 10282 20270 30067 40076 84540 333 58021 70000 84618==
41929,2023,10,07,21,00,AAXX 07214 41929 02456 40000 10282 20270 30066 40076 84540 333 58021 70000 84618==
41929,2023,10,08,00,00,AAXX 08004 41929 02456 80000 10269 20260 30066 40075 8351/ 333 58022 70000 83618 88462==
41929,2023,10,08,03,00,AAXX 08034 41929 02456 40000 10300 20250 30083 40092 84400 333 20265 58012 70000 83618==
41929,2023,10,08,06,00,AAXX 08064 41929 02457 52702 10322 20250 30080 40089 85400 333 58017 70000 82618 83825==
41929,2023,10,08,09,00,AAXX 08094 41929 02557 30000 10332 20260 30057 40066 83240 333 58016 70000 83825==
41929,2023,10,08,12,00,AAXX 08124 41929 02456 30000 10315 20280 30056 40065 83500 333 10341 58014 70000 83618==
41929,2023,10,08,15,00,AAXX 08154 41929 02956 00000 10286 20280 30080 40089 333 58021 70000==
41929,2023,10,08,18,00,AAXX 08184 41929 02956 00000 10283 20270 30082 40091 333 58015 70000==
41929,2023,10,08,21,00,AAXX 08211 41929 02956 00000 10283 20270 30082 40091 333 58015 70000==
41929,2023,10,09,00,00,AAXX 09004 41929 02/56 30000 10275 20270 30081 40090 83010 333 58015 70000 83462==
41929,2023,10,09,03,00,AAXX 09034 41929 02456 82302 10304 20270 30099 40108 8451/ 333 20270 58006 70000 84618 88462==
41929,2023,10,09,06,00,AAXX 09064 41929 02456 62302 10326 20270 30090 40099 84510 333 58010 70000 84618 86462==
41929,2023,10,09,09,00,AAXX 09094 41929 02456 41802 10340 20250 30064 40073 83540 333 58007 70000 83618==
41929,2023,10,09,12,00,AAXX 09124 41929 02/56 30000 10316 20270 30063 40072 83010 333 10341 58007 70000 83462==
41929,2023,10,09,15,00,AAXX 09154 41929 02/56 30000 10288 20280 30088 40097 83010 333 58008 70000 83462==
41929,2023,10,09,18,00,AAXX 09184 41929 02/56 30000 10282 20270 30088 40097 83010 333 58006 70000 83462==
41929,2023,10,09,21,00,AAXX 09214 41929 02/56 30000 10282 20270 30088 40097 83010 333 58006 70000 83462==
41929,2023,10,10,00,00,AAXX 10004 41929 01950 00000 10277 20280 30087 40096 70510 333 58006 70000==
41929,2023,10,10,03,00,AAXX 10034 41929 01950 00000 10305 20280 30112 40121 70500 333 20268 58013 70000==
41929,2023,10,10,06,00,AAXX 10064 41929 02956 30000 10340 20250 30098 40107 333 58008 70000==
41929,2023,10,10,09,00,AAXX 10094 41929 02456 40000 10352 20240 30064 40073 84440 333 58000 70000 82618==
41929,2023,10,10,12,00,AAXX 10124 41929 21450 40000 10270 20240 30071 40081 70562 84420 333 10353 58008 60155 70150 83616 84458==
41929,2023,10,10,15,00,AAXX 10154 41929 01450 40000 10268 20250 30085 40094 70522 83510 333 59003 70150 83618==
41929,2023,10,10,18,00,AAXX 10184 41929 01950 00000 10266 20260 30085 40094 70520 333 59003 70150==
41929,2023,10,10,21,00,AAXX 10214 41929 01950 00000 10266 20260 30082 40091 70500 333 59006 70150==
41929,2023,10,11,00,00,AAXX 11004 41929 01950 00000 10264 20250 30078 40087 70500 333 59009 70150==
41929,2023,10,11,03,00,AAXX 11034 41929 01450 40000 10310 20270 30104 40113 70520 333 20258 59008 70150 84618==
41929,2023,10,11,06,00,AAXX 11064 41929 02456 63202 10330 20260 30091 40100 84310 333 59007 70150 83618 86462 81932==
41929,2023,10,11,09,00,AAXX 11094 41929 02457 30000 10325 20250 30065 40074 81530 333 58001 70150 81618 83365==
41929,2023,10,11,12,00,AAXX 11124 41929 01950 00000 10307 20280 30070 40079 70520 333 10332 59001 70000==
41929,2023,10,11,15,00,AAXX 11154 41929 01950 00000 10283 20270 30093 40102 70500 333 58008 70000==
41929,2023,10,11,18,00,AAXX 11184 41929 01950 00000 10272 20260 30099 40108 70500 333 58014 70000==
41929,2023,10,11,21,00,AAXX 11214 41929 01950 00000 10268 20260 30097 40106 70500 333 58015 70000==
41929,2023,10,12,00,00,AAXX 12004 41929 01950 00000 10263 20250 30094 40103 70500 333 58016 70000==
41929,2023,10,12,03,00,AAXX 12034 41929 01950 00000 10314 20260 30122 40131 70500 333 20260 58018 70000==
41929,2023,10,12,06,00,AAXX 12064 41929 02456 63602 10335 20240 30113 40122 84410 333 58022 70000 83618 85462==
41929,2023,10,12,09,00,AAXX 12094 41929 02456 43303 10344 20260 30086 40096 80410 333 58021 70000 82618==
41929,2023,10,12,12,00,AAXX 12124 41929 02956 00000 10270 30091 40001 333 10357 58021 70000==
41929,2023,10,12,15,00,AAXX 12154 41929 02456 20902 10284 20260 30113 40123 82500 333 58020 70000 82618==
41929,2023,10,12,18,00,AAXX 12184 41929 21456 20000 10250 20230 30115 40125 70296 82500 333 58016 60085 70080 82618==
41929,2023,10,12,21,00,AAXX 12214 41929 02956 00000 10240 20230 30111 40121 333 58014 70080==
41933,2023,10,06,00,00,AAXX 06004 41933 11350 81804 10272 20260 30035 40043 60026 70262 8562/ 333 59014 70248 82708 83614 88457==
41933,2023,10,06,03,00,AAXX 06034 41933 01350 81603 10270 20260 30051 40060 76162 8572/ 333 20257 59015 70088 82708 83615 88457==
41933,2023,10,06,06,00,AAXX 06064 41933 21350 81804 10280 20260 30047 40055 70262 8562/ 333 59001 60015 70056 82708 83614 88457==
41933,2023,10,06,09,00,AAXX 06094 41933 01450 81602 10292 20260 30022 40030 70262 8352/ 333 59005 70056 83615 88457==
41933,2023,10,06,12,00,AAXX 06124 41933 01450 80000 10279 20270 30034 40042 70262 8352/ 333 10298 58006 70056 83615 88457==
41933,2023,10,06,15,00,AAXX 06154 41933 02450 60000 10274 20260 30050 40059 83510 333 58000 70056 83616 86458==
41933,2023,10,06,18,00,AAXX 06184 41933 02450 71804 10273 20260 30050 40058 84520 333 58013 70030 84616 87458==
41933,2023,10,06,21,00,AAXX 06214 41933 02450 71702 10272 20260 30039 40047 84520 333 58007 70014 84616 87458==
41933,2023,10,07,00,00,AAXX 07004 41933 02450 81802 10271 20260 30049 40057 8452/ 333 58014 70016 88458==
41933,2023,10,07,03,00,AAXX 07034 41933 02456 80000 10285 20270 30070 40079 8452/ 333 20260 58019 70004 84616 88458==
41933,2023,10,07,06,00,AAXX 07064 41933 21456 81802 10300 20260 30054 40062 70262 8452/ 333 58007 60045 70046 84616 88458==
41933,2023,10,07,09,00,AAXX 07094 41933 02456 82504 10310 20260 30043 40051 8452/ 333 58021 70044 83618 88458==
41933,2023,10,07,12,00,AAXX 07124 41933 02456 61902 10280 20250 30043 40052 83520 333 10312 58009 70044 83618 86458==
41933,2023,10,07,15,00,AAXX 07154 41933 02950 00000 10266 20260 30070 40079 333 58020 70044==
41933,2023,10,07,18,00,AAXX 07184 41933 02440 60000 10270 20260 30067 40076 82510 333 58017 70044 82616 85458==
41933,2023,10,07,21,00,AAXX 07214 41933 02440 40000 10272 20260 30060 40069 82510 333 58021 70044 82616 83458==
41933,2023,10,08,00,00,AAXX 08004 41933 01940 01801 10270 20260 30066 40074 70510 333 58017 70044==
41933,2023,10,08,03,00,AAXX 08034 41933 01450 81802 10266 20260 30085 40094 72162 8452/ 333 20263 58015 70114 84616 88458==
41933,2023,10,08,06,00,AAXX 08064 41933 01456 61702 10300 20270 30075 40083 72162 83510 333 58021 70070 83616 86458==
41933,2023,10,08,09,00,AAXX 08094 41933 01350 81702 10255 20250 30059 40068 79596 8672/ 333 58016 70332 82707 83615 88456 81928==
41933,2023,10,08,12,00,AAXX 08124 41933 21450 81802 10255 20250 30057 40066 70296 8452/ 333 10305 58014 60307 70368 84616 88458==
41933,2023,10,08,15,00,AAXX 08154 41933 02450 60000 10260 20240 30085 40093 82520 333 58015 70368 82618 86458==
41933,2023,10,08,18,00,AAXX 08184 41933 02450 20000 10258 20250 30086 40095 82500 333 58019 70368 82618==
41933,2023,10,08,21,00,AAXX 08211 41933 02450 60000 10260 20250 30084 40092 82520 333 58024 70368 82618 86458==
41933,2023,10,09,00,00,AAXX 09004 41933 02450 60000 10265 20260 30082 40091 83520 333 58016 70368 83618 86458==
41933,2023,10,09,03,00,AAXX 09034 41933 02456 61702 10288 20270 30099 40108 83510 333 20244 58014 70298 83616 86458==
41933,2023,10,09,06,00,AAXX 09064 41933 02456 51802 10320 20260 30085 40093 84430 333 58010 70298 82618 83826==
41933,2023,10,09,09,00,AAXX 09094 41933 02456 41802 10320 20270 30063 40072 84430 333 58004 70036 83616==
41933,2023,10,09,12,00,AAXX 09124 41933 02456 41802 10296 20270 30067 40076 84400 333 10332 58010 70000 83616==
41933,2023,10,09,15,00,AAXX 09154 41933 02950 00000 10280 20270 30088 40096 333 58003 70000==
41933,2023,10,09,18,00,AAXX 09184 41933 02940 00000 10276 20276 30085 40093 333 59001 70000==
41933,2023,10,09,21,00,AAXX 09214 41933 02940 01802 10272 20270 30083 40091 333 59001 70000==
41933,2023,10,10,00,00,AAXX 10004 41933 01940 00000 10270 20260 30081 40090 70500 333 59001 70000==
41933,2023,10,10,03,00,AAXX 10034 41933 01440 30000 10302 20270 30105 40114 70500 83400 333 20265 58006 70000 82618==
41933,2023,10,10,06,00,AAXX 10064 41933 01450 30000 10330 20260 30089 40097 70500 83500 333 58004 70000 83618==
41933,2023,10,10,09,00,AAXX 10094 41933 01450 30000 10325 20250 30067 40076 70500 83500 333 58004 70000 83618==
41933,2023,10,10,12,00,AAXX 10124 41933 01450 31802 10290 20250 30065 40074 70500 83500 333 10332 59002 70000 83618==
41933,2023,10,10,15,00,AAXX 10154 41933 01450 21801 10268 20260 30079 40088 70510 82500 333 59009 70000 82616==
41933,2023,10,10,18,00,AAXX 10184 41933 01450 20000 10266 20260 30083 40091 70500 82500 333 59002 70000 82616==
41933,2023,10,10,21,00,AAXX 10214 41933 01420 70000 10261 20250 30082 40090 71020 84520 333 59001 70000 84616 87458==
41933,2023,10,11,00,00,AAXX 11004 41933 02406 80000 10257 20250 30081 40090 8552/ 333 58000 70000 85616 88458==
41933,2023,10,11,03,00,AAXX 11034 41933 01440 60000 10290 20260 30101 40110 70522 83510 333 20254 59004 70000 83618 86458==
41933,2023,10,11,06,00,AAXX 11064 41933 01440 51802 10320 20270 30088 40096 70522 84430 333 59001 70000 83618 85362==
41933,2023,10,11,09,00,AAXX 11094 41933 01450 50000 10314 20260 30062 40071 70562 82510 333 59005 70003 82616 84458==
41933,2023,10,11,12,00,AAXX 11124 41933 11440 50000 10296 20280 30070 40079 69936 70562 82510 333 10326 58005 70003 82616 84458==
41933,2023,10,11,15,00,AAXX 11154 41933 01440 50000 10285 20280 30091 40099 70522 82510 333 58012 70003 82616 85458==
41933,2023,10,11,18,00,AAXX 11184 41933 01435 50000 10275 20270 30096 40104 70522 82510 333 58013 70003 82616 85458==
41933,2023,10,11,21,00,AAXX 11214 41933 01340 80000 10275 20270 30096 40104 70522 8572/ 333 58014 70003 82709 84615 88458==
41933,2023,10,12,00,00,AAXX 12004 41933 21450 80000 10250 20240 30097 40105 72996 8452/ 333 58017 60117 70115 84616 88458==
41933,2023,10,12,03,00,AAXX 12034 41933 02456 61801 10266 20250 30125 40133 84520 333 20248 58024 70115 84618 86458==
41933,2023,10,12,06,00,AAXX 12064 41933 02456 61802 10306 20260 30115 40123 83410 333 58027 70115 82618 85458==
41933,2023,10,12,09,00,AAXX 12094 41933 02456 42002 10320 20260 30085 40093 84400 333 58023 70112 82618==
41933,2023,10,12,12,00,AAXX 12124 41933 01450 50000 10280 20260 30093 40101 70362 84430 333 10324 58023 70112 82618 85362==
41933,2023,10,12,15,00,AAXX 12154 41933 01440 20000 10274 20250 30116 40124 70162 82500 333 58025 70112 82518==
41933,2023,10,12,18,00,AAXX 12184 41933 11440 20000 10264 20250 30113 40121 60006 70261 82500 333 58017 70112 82618==
41933,2023,10,12,21,00,AAXX 12214 41933 02440 40000 10263 20250 30113 40121 82510 333 58017 70112 82618 83458==
41936,2023,10,06,00,00,AAXX 06004 41936 01314 72405 10268 20260 30023 40030 70596 84730 333 59003 70010 83707 83615 86362==
41936,2023,10,06,03,00,AAXX 06034 41936 01314 82406 10280 20260 30042 40049 70522 84630 333 20266 59001 71070 83707 83615 87362==
41936,2023,10,06,06,00,AAXX 06064 41936 01320 72704 10306 20284 30041 40048 70522 84630 333 58011 71020 83708 83615 86362==
41936,2023,10,06,09,00,AAXX 06094 41936 01325 72706 10318 20260 30020 40027 70522 84630 333 58009 70990 82708 83615 85362==
41936,2023,10,06,12,00,AAXX 06124 41936 01425 60000 10300 20270 30028 40035 70522 83630 333 10326 58023 70990 83615 85362==
41936,2023,10,06,15,00,AAXX 06154 41936 01425 52603 10288 20274 30045 40051 70522 85830 333 58020 70990 83615 84362==
41936,2023,10,06,18,00,AAXX 06184 41936 01425 52503 10282 20272 30046 40052 70522 85830 333 58029 70740 83615 84362==
41936,2023,10,06,21,00,AAXX 06214 41936 01320 52403 10274 20266 30039 40046 70522 85830 333 58024 70010 83615 84362==
41936,2023,10,07,00,00,AAXX 07004 41936 01416 50000 10266 20260 30042 40049 70522 85830 333 58019 70000 83615 84362==
41936,2023,10,07,03,00,AAXX 07034 41936 01325 62703 10290 20260 30068 40075 70522 84630 333 20264 58011 70000 82708 83615 86362==
41936,2023,10,07,06,00,AAXX 07064 41936 01340 52606 10320 20250 30060 40067 70522 83630 333 58019 70000 81710 83615 85362==
41936,2023,10,07,09,00,AAXX 07094 41936 01440 52604 10330 20260 30038 40045 70522 85830 333 58018 70000 83615==
41936,2023,10,07,12,00,AAXX 07124 41936 01440 52903 10300 20270 30045 40052 70522 85830 333 10332 58017 70000 83615 84362==
41936,2023,10,07,15,00,AAXX 07154 41936 01440 40000 10296 20260 30068 40075 70511 82830 333 58024 70000 82615 84362==
41936,2023,10,07,18,00,AAXX 07184 41936 01/40 20000 10272 20250 30067 40074 70511 82030 333 58022 70000 82362==
41936,2023,10,07,21,00,AAXX 07214 41936 01/25 20000 10270 20250 30058 40065 70511 82030 333 58019 70000 82362==
41936,2023,10,08,00,00,AAXX 08004 41936 01920 00000 10272 20260 30067 40074 70500 333 58025 70000==
41936,2023,10,08,03,00,AAXX 08034 41936 01920 00000 10300 20260 30080 40087 70500 333 10264 58012 70000==
41936,2023,10,08,06,00,AAXX 08064 41936 01450 32803 10334 20260 30075 40082 70510 82600 333 58012 70000 82615==
41936,2023,10,08,09,00,AAXX 08094 41936 01450 32604 10352 20250 30054 40061 70511 82830 333 58016 70000 82615==
41936,2023,10,08,12,00,AAXX 08124 41936 01450 32703 10314 20260 30057 40064 70511 82830 333 10354 58012 70000 82615==
41936,2023,10,08,15,00,AAXX 08154 41936 01450 32303 10294 20260 30076 40083 70511 82830 333 58008 70000 82615==
41936,2023,10,08,18,00,AAXX 08184 41936 01450 32104 10290 20260 30076 40083 70511 82830 333 58009 70000 82615==
41936,2023,10,08,21,00,AAXX 08214 41936 01450 42303 10282 20270 30069 40076 70511 83830 333 58011 70000 83615 83362==
41936,2023,10,09,00,00,AAXX 09004 41936 01412 32103 10268 20260 30079 40086 70511 83830 333 58012 70000 82615==
41936,2023,10,09,03,00,AAXX 09034 41936 01410 72703 10274 20250 30101 40108 70522 84630 333 20266 58021 70000 83710 83615 86362==
41936,2023,10,09,06,00,AAXX 09064 41936 01425 52505 10334 20270 30087 40094 70522 82530 333 58012 70000 82615 85362==
41936,2023,10,09,09,00,AAXX 09094 41936 01430 32806 10350 20260 30064 40071 70511 82830 333 58010 70000 82615==
41936,2023,10,09,12,00,AAXX 09124 41936 01430 22503 10310 20260 30064 40071 70511 81830 333 10352 58007 70000 81615==
41936,2023,10,09,15,00,AAXX 09154 41936 42420 22903 10288 20260 30086 40093 58010 81615==
41936,2023,10,09,18,00,AAXX 09184 41936 42420 22003 10270 20260 30084 40091 58010 81615==
41936,2023,10,09,21,00,AAXX 09214 41936 42420 22003 10270 20260 30074 40081 58005 81615==
41936,2023,10,10,00,00,AAXX 10004 41936 42910 01800 10266 20260 30092 40089 58009==
41936,2023,10,10,03,00,AAXX 10034 41936 01/10 22103 10304 20260 30107 40114 70511 82030 333 20264 58006 70000 82362==
41936,2023,10,10,06,00,AAXX 10064 41936 01/20 22606 10342 20260 30092 40098 70511 82030 333 58004 70000 82362==
41936,2023,10,10,09,00,AAXX 10094 41936 01425 42606 10344 20250 30061 40068 70511 82830 333 59003 70000 82615==
41936,2023,10,10,12,00,AAXX 10124 41936 01425 32403 10320 20240 30062 40068 70511 81830 333 10350 59003 70000 81615==
41936,2023,10,10,15,00,AAXX 10154 41936 01420 42304 10292 20270 30082 40089 70511 82830 333 59004 70000 82615==
41936,2023,10,10,18,00,AAXX 10184 41936 01420 32303 10286 20270 30084 40091 70511 81830 333 58000 70000 81615==
41936,2023,10,10,21,00,AAXX 10214 41936 01420 30000 10274 20260 30076 40083 70511 81830 333 58002 70000 81615==
41936,2023,10,11,00,00,AAXX 11004 41936 01912 00000 10268 20260 30081 40088 70511 333 59007 70000==
41936,2023,10,11,03,00,AAXX 11034 41936 01/12 22605 10308 20270 30097 40104 72844 82030 333 20266 59010 70000 82362==
41936,2023,10,11,06,00,AAXX 11064 41936 01420 42304 10346 20260 30092 40099 70542 82530 333 58001 70000 82615 84362==
41936,2023,10,11,09,00,AAXX 11094 41936 42420 43005 10352 20250 30071 40078 58010 84362==
41936,2023,10,11,12,00,AAXX 11124 41936 01/30 20200 10318 20260 30075 40082 70511 82030 333 10354 58014 70000 82362==
41936,2023,10,11,15,00,AAXX 11154 41936 01/30 30000 10290 20270 30090 40097 70511 82030 333 58008 70000 83362==
41936,2023,10,11,18,00,AAXX 11184 41936 01/20 30000 10282 20270 30093 40100 70511 82030 333 58009 70000 83362==
41936,2023,10,11,21,00,AAXX 11214 41936 01/16 40000 10276 20260 30085 40092 70511 82030 333 58009 70000 83462==
41936,2023,10,12,00,00,AAXX 12004 41936 01/12 20000 10264 20250 30092 40099 70511 82030 333 58010 70000 83262==
41936,2023,10,12,03,00,AAXX 12034 41936 333 20260 58020 70000 83262==
41936,2023,10,12,06,00,AAXX 12064 41936 01/25 22705 10348 20250 30110 40117 70542 82030 333 58018 70000 83262==
41936,2023,10,12,09,00,AAXX 12094 41936 01440 22704 10352 20220 30086 40093 70511 81530 333 58015 70000 81615==
41936,2023,10,12,12,00,AAXX 12124 41936 01/40 10000 10318 20250 30088 40095 70511 81030 333 10356 58013 70000 81362==
41936,2023,10,12,15,00,AAXX 12154 41936 01/30 20000 10284 20260 30109 40116 70511 82030 333 58019 70000 82362==
41936,2023,10,12,18,00,AAXX 12184 41936 01/20 20000 10274 20250 30109 40116 70511 82030 333 58017 70000 82362==
41936,2023,10,12,21,00,AAXX 12214 41936 01/12 20000 10266 20250 30099 40107 70511 82030 333 58015 70000 82362==
41938,2023,10,06,00,00,AAXX 06004 41938 11450 70000 10265 20260 30033 40037 60346 76202 84510 333 56990 59021 70340 84618 85459=
41938,2023,10,06,06,00,AAXX 06064 41938 32456 70000 10305 20270 30039 40043 84410 333 56490 59010 70050 83618 83459=
41938,2023,10,06,12,00,AAXX 06124 41938 32450 70000 10295 20270 30023 40027 84510 333 10327 56990 58010 70028 84618 84459=
41938,2023,10,06,18,00,AAXX 06184 41938 32450 50000 10265 20250 30039 40043 83510 333 56990 58010 70028 83618 83459=
41938,2023,10,07,00,00,AAXX 07004 41938 32450 60000 10265 20250 30037 40041 83510 333 56990 58005 70000 84618 84459=
41938,2023,10,07,06,00,AAXX 07064 41938 32450 50000 10320 20250 30058 40062 84410 333 56490 58019 70000 83618 83459=
41938,2023,10,07,12,00,AAXX 07124 41938 31435 70000 10295 20280 30046 40050 70522 84311 333 10325 56599 58023 70000 81618 83824 81930 85460=
41938,2023,10,07,18,00,AAXX 07184 41938 31940 20000 10270 20260 30069 40073 70521 80001 333 56009 58030 70000 82080=
41938,2023,10,08,00,00,AAXX 08004 41938 31912 50000 10270 20260 30069 40073 71021 83071 333 56099 58022 70000 83460 83080=
41938,2023,10,08,06,00,AAXX 08064 41938 32457 32302 10323 20240 30079 40083 82401 333 56509 58021 70000 81618=
41938,2023,10,08,12,00,AAXX 08124 41938 32456 30000 10304 20270 30066 40069 81501 333 10340 56909 58020 70000 81618=
41938,2023,10,08,18,00,AAXX 08184 41938 32950 20000 10272 20260 30084 40087 82010 333 56090 58015 70000 82460=
41938,2023,10,09,00,00,AAXX 09004 41938 31430 20000 10272 20260 30079 40083 70500 81510 333 56590 58010 70000 81618=
41938,2023,10,09,06,00,AAXX 09064 41938 11456 72001 10275 20260 30092 40096 60014 72121 82520 333 56490 58013 70014 82617 86459=
41938,2023,10,09,12,00,AAXX 09124 41938 31430 40000 10300 20280 30058 40062 70510 82510 333 10322 56990 59008 70014 82617 83460=
41938,2023,10,09,18,00,AAXX 09184 41938 31930 20000 10266 20260 30088 40092 70500 82010 333 56090 58004 70014 82460=
41938,2023,10,10,00,00,AAXX 10004 41938 31420 52701 10272 20260 30087 40091 71010 82510 333 56490 58008 70014 82617 84460=
41938,2023,10,10,06,00,AAXX 10064 41938 32450 52701 10334 20240 30094 40098 83410 333 56790 58002 70000 82617 83460=
41938,2023,10,10,12,00,AAXX 10124 41938 11430 80000 10295 20270 30069 40073 69904 72121 8242/ 333 10345 56899 58011 79999 81618 88459=
41938,2023,10,10,18,00,AAXX 10184 41938 31930 50000 10270 20260 30082 40086 70521 85071 333 56099 59006 79999 83460 83362=
41938,2023,10,11,00,00,AAXX 11004 41938 31912 60000 10261 20250 30082 40086 71022 85071 333 56099 59005 79999 85460=
41938,2023,10,11,06,00,AAXX 11064 41938 31445 70000 10320 20270 30089 40093 70522 84410 333 56390 59005 79999 82618 83825 85460=
41938,2023,10,11,12,00,AAXX 11124 41938 31450 30000 10305 20270 30093 40097 70500 83500 333 10337 56900 58024 79999 83618=
41938,2023,10,11,18,00,AAXX 11184 41938 31450 30000 10285 20250 30085 40089 70500 83500 333 56900 58009 70000 83618=
41938,2023,10,12,00,00,AAXX 12004 41938 31412 30000 10265 20260 30085 40089 71022 83500 333 56900 58010 70000 83618=
41938,2023,10,12,06,00,AAXX 12064 41938 32456 30000 10354 20240 30108 40112 83500 333 56900 58019 70000 83618=
41938,2023,10,12,12,00,AAXX 12124 41938 31450 20000 10305 20280 30093 40097 82500 333 10347 56900 58000 70000 82618=
41938,2023,10,12,18,00,AAXX 12184 41938 31450 20000 10275 20260 30106 40110 82500 333 56900 58015 70000 82618=
41939,2023,10,06,00,00,AAXX 06004 41939 21456 80000 10265 20260 30030 40038 76162 8452/ 333 59007 60097 70160 84615 88459==
41939,2023,10,06,03,00,AAXX 06034 41939 02457 80000 10274 20260 30036 40044 8452/ 333 20253 59014 70160 84616 88459==
41939,2023,10,06,06,00,AAXX 06064 41939 02458 80000 10295 20280 30050 40058 8352/ 333 59010 70160 83618 88459==
41939,2023,10,06,09,00,AAXX 06094 41939 02458 80000 10305 20290 30040 40048 8352/ 333 58022 70148 83617 88459==
41939,2023,10,06,12,00,AAXX 06124 41939 02450 80000 10295 20290 30033 40040 8352/ 333 10315 58006 70148 83617 88459==
41939,2023,10,06,15,00,AAXX 06154 41939 02450 60000 10285 20280 30054 40062 82510 333 58007 70110 82617 86459==
41939,2023,10,06,18,00,AAXX 06184 41939 02450 60000 10282 20270 30065 40073 82510 333 58008 70090 82617 86459==
41939,2023,10,06,21,00,AAXX 06214 41939 02450 80000 10275 20270 30055 40063 333 58010 70090 83582 83617 88459==
41939,2023,10,07,00,00,AAXX 07004 41939 21456 80000 10270 20260 30046 40054 70262 8352/ 333 58016 60015 70007 83617 88459==
41939,2023,10,07,03,00,AAXX 07034 41939 02457 80000 10285 20270 30058 40066 8352/ 333 20261 58022 70007 83618 88459==
41939,2023,10,07,06,00,AAXX 07064 41939 02457 60000 10307 20280 30066 40074 81510 333 58028 70007 81618 86459==
41939,2023,10,07,09,00,AAXX 07094 41939 01457 60000 10302 20280 30047 40054 70262 82510 333 58007 70029 82618 86459==
41939,2023,10,07,12,00,AAXX 07124 41939 21456 80000 10293 20270 30044 40052 70362 8352/ 333 10320 58011 60025 70029 83618 88459==
41939,2023,10,07,15,00,AAXX 07154 41939 02450 80000 10282 20260 30058 40066 8352/ 333 58004 70029 83618 88459==
41939,2023,10,07,18,00,AAXX 07184 41939 02450 80000 10277 20270 30070 40078 8352/ 333 58005 70029 83618 88459==
41939,2023,10,07,21,00,AAXX 07214 41939 41450 80000 10270 20260 30072 40080 76122 8352/ 333 58017 83617 88459==
41939,2023,10,08,00,00,AAXX 08004 41939 21450 80000 10265 20260 30075 40083 70262 8352/ 333 58029 60029 70044 83617 88459==
41939,2023,10,08,03,00,AAXX 08034 41939 02458 40000 10305 20270 30091 40099 82530 333 20260 58033 70044 82618 83365==
41939,2023,10,08,06,00,AAXX 08064 41939 02458 40000 10323 20240 30076 40084 82530 333 58010 70044 82618 83360==
41939,2023,10,08,09,00,AAXX 08094 41939 02458 20000 10333 20250 30061 40069 82430 333 58014 70022 81618==
41939,2023,10,08,12,00,AAXX 08124 41939 02456 40000 10300 20270 30070 40078 83530 333 10335 58026 70022 83617 83364==
41939,2023,10,08,15,00,AAXX 08154 41939 02456 40000 10280 20260 30086 40094 82530 333 58028 70022 82618 83365==
41939,2023,10,08,18,00,AAXX 08184 41939 02456 40000 10270 20260 30092 40100 83530 333 58022 70022 82618 83365==
41939,2023,10,08,21,00,AAXX 08211 41939 02450 20000 10270 20260 30084 40092 82500 333 58012 70004 82618==
41939,2023,10,09,00,00,AAXX 09004 41939 02456 20000 10274 20260 30078 40086 82500 333 58008 70000 82618==
41939,2023,10,09,03,00,AAXX 09034 41939 02458 30000 10294 20270 30105 40113 83500 333 20263 58014 70000 83618==
41939,2023,10,09,06,00,AAXX 09064 41939 02458 40000 10332 20260 30092 40100 82530 333 58016 70000 82618 83362==
41939,2023,10,09,09,00,AAXX 09094 41939 02457 30000 10312 20260 30074 40082 83400 333 58013 70000 82618==
41939,2023,10,09,12,00,AAXX 09124 41939 02956 00000 10307 20290 30073 40081 333 10338 58003 70000==
41939,2023,10,09,15,00,AAXX 09154 41939 02956 00000 10290 20270 30096 40104 333 58010 70000==
41939,2023,10,09,18,00,AAXX 09184 41939 02950 00000 10285 20280 30100 40108 333 58008 70000==
41939,2023,10,09,21,00,AAXX 09214 41939 02456 40000 10278 20270 30100 40108 82530 333 58016 70000 82618 83364==
41939,2023,10,10,00,00,AAXX 10004 41939 02456 40000 10275 20270 30098 40106 82530 333 58020 70000 82618 83364==
41939,2023,10,10,03,00,AAXX 10034 41939 02458 80000 10288 20270 30120 40128 8352/ 333 20265 58015 70000 83617 88459==
41939,2023,10,10,06,00,AAXX 10064 41939 02458 40000 10333 20240 30096 40104 82530 333 58004 70000 82617 82618==
41939,2023,10,10,09,00,AAXX 10094 41939 02457 20000 10330 20240 30066 40073 82430 333 59008 70000 81618==
41939,2023,10,10,12,00,AAXX 10124 41939 02456 30000 10307 20290 30060 40068 83500 333 10333 59013 70000 83618==
41939,2023,10,10,15,00,AAXX 10154 41939 01450 80000 10275 20270 30075 40083 70362 8352/ 333 59021 70050 83617 88459==
41939,2023,10,10,18,00,AAXX 10184 41939 11450 60000 10282 20270 30090 40098 60056 70162 83510 333 59010 70050 83618 85459==
41939,2023,10,10,21,00,AAXX 10214 41939 02450 80000 10270 20260 30088 40096 8352/ 333 59012 70050 83617 88459==
41939,2023,10,11,00,00,AAXX 11004 41939 02450 80000 10260 20250 30089 40097 8352/ 333 59009 70050 83617 88459==
41939,2023,10,11,03,00,AAXX 11034 41939 02457 50000 10290 20270 30111 40119 82510 333 20250 59009 70050 82618 85459==
41939,2023,10,11,06,00,AAXX 11064 41939 02458 40000 10328 20260 30089 40097 82530 333 59007 70050 82618 83362==
41939,2023,10,11,09,00,AAXX 11094 41939 01456 70000 10280 20250 30076 40084 72112 83510 333 58010 70053 83616 87459==
41939,2023,10,11,12,00,AAXX 11124 41939 21456 60000 10285 20270 30078 40086 70162 82510 333 10335 58018 69935 70053 82617 86459==
41939,2023,10,11,15,00,AAXX 11154 41939 02950 00000 10270 20260 30104 40112 333 58029 70003==
41939,2023,10,11,18,00,AAXX 11184 41939 02950 00000 10268 20260 30115 40123 333 58025 70003==
41939,2023,10,11,21,00,AAXX 11214 41939 02950 00000 10264 20250 30106 40114 333 58018 70003==
41939,2023,10,12,00,00,AAXX 12004 41939 01956 00000 10260 20250 30095 40103 70500 333 58006 70003==
41939,2023,10,12,03,00,AAXX 12034 41939 02958 00000 10285 20270 30125 40133 333 20253 58008 70003==
41939,2023,10,12,06,00,AAXX 12064 41939 02458 20000 10351 20240 30106 40114 82500 333 58017 70003 82618==
41939,2023,10,12,09,00,AAXX 12094 41939 02457 10000 10336 20240 30092 40099 81500 333 58016 70000 81618==
41939,2023,10,12,12,00,AAXX 12124 41939 02456 20000 10308 20270 30086 40094 82500 333 10351 58008 70000 82618==
41939,2023,10,12,15,00,AAXX 12154 41939 02950 00000 10295 20270 30105 40113 333 58001 70000==
41939,2023,10,12,18,00,AAXX 12184 41939 02950 00000 10287 20270 30119 40127 333 58004 70000==
41939,2023,10,12,21,00,AAXX 12214 41939 02956 00000 10248 20240 30125 40133 333 58006 70000==
41941,2023,10,06,00,00,AAXX 06004 41941 21450 81806 10274 20260 30055 40061 70262 8692/ 333 59001 60015 70050 85612 88456 81924==
41941,2023,10,06,03,00,AAXX 06034 41941 01450 81802 10280 20270 30054 40060 76166 8792/ 333 20255 59007 70120 82708 83612 88456 81924==
41941,2023,10,06,06,00,AAXX 06064 41941 21450 81803 10287 20280 30049 40055 72166 8632/ 333 59006 60077 70120 85616 88458 81930==
41941,2023,10,06,09,00,AAXX 06094 41941 01450 80000 10280 20280 30025 40031 76162 8632/ 333 58001 70240 85614 88456 81925==
41941,2023,10,06,12,00,AAXX 06124 41941 21450 80000 10285 20280 30030 40036 70262 8632/ 333 10302 58002 60135 70025 85616 88458 81930==
41941,2023,10,06,15,00,AAXX 06154 41941 01440 81803 10275 20270 30053 40059 70262 8632/ 333 59002 70280 85616 88458 81930==
41941,2023,10,06,18,00,AAXX 06184 41941 11440 81803 10273 20270 30056 40062 60036 70262 8632/ 333 59007 70260 85616 88458 81930==
41941,2023,10,06,21,00,AAXX 06214 41941 02440 81803 10274 20270 30053 40059 8632/ 333 59005 70250 85616 88458 81930==
41941,2023,10,07,00,00,AAXX 07004 41941 02450 81803 10275 20275 30052 40058 8632/ 333 59003 70230 85616 88458 81930==
41941,2023,10,07,03,00,AAXX 07034 41941 01450 81803 10286 20280 30078 40084 70262 8632/ 333 20271 58024 70190 85614 88456 81925==
41941,2023,10,07,06,00,AAXX 07064 41941 01450 80000 10292 20280 30064 40070 72162 8632/ 333 58015 70040 85614 88456 81925==
41941,2023,10,07,09,00,AAXX 07094 41941 01450 80000 10290 20260 30047 40053 70262 8632/ 333 58022 70100 85616 88458 81930==
41941,2023,10,07,12,00,AAXX 07124 41941 21450 80000 10283 20260 30049 40055 70262 8632/ 333 10300 58019 60025 70090 85616 88458 81930==
41941,2023,10,07,15,00,AAXX 07154 41941 02440 81803 10273 20270 30079 40085 8632/ 333 58026 70060 85616 88458 81930==
41941,2023,10,07,18,00,AAXX 07184 41941 02440 80000 10271 20270 30075 40080 8632/ 333 58019 70060 85616 88458 81930==
41941,2023,10,07,21,00,AAXX 07214 41941 02440 81802 10271 20270 30075 40080 8632/ 333 58022 70060 85616 88458 81930==
41941,2023,10,08,00,00,AAXX 08004 41941 02450 81803 10273 20270 30074 40080 8632/ 333 58022 70060 85616 88458 81930==
41941,2023,10,08,03,00,AAXX 08034 41941 02456 60000 10306 20280 30086 40091 85420 333 20271 58008 70030 84616 86458==
41941,2023,10,08,06,00,AAXX 08064 41941 02456 61804 10335 20270 30077 40083 85420 333 58013 70020 84616 86458==
41941,2023,10,08,09,00,AAXX 08094 41941 02456 81803 10312 20260 30058 40064 8632/ 333 58011 70000 85616 88458 81930==
41941,2023,10,08,12,00,AAXX 08124 41941 02456 81803 10295 20260 30060 40066 8632/ 333 10337 58011 70000 85616 88458 81930==
41941,2023,10,08,15,00,AAXX 08154 41941 02440 80000 10275 20270 30093 40098 8632/ 333 58014 70000 85616 88458 81930==
41941,2023,10,08,18,00,AAXX 08184 41941 02440 80000 10274 20260 30091 40096 8632/ 333 58016 70000 85616 88458 81930==
41941,2023,10,08,21,00,AAXX 08211 41941 02440 80000 10274 20270 30089 40095 8632/ 333 59014 70000 85616 88458 81930==
41941,2023,10,09,00,00,AAXX 09004 41941 02450 60000 10274 20270 30088 40093 85420 333 58014 70000 84616 86458==
41941,2023,10,09,03,00,AAXX 09034 41941 02456 60000 10312 20260 30111 40116 85420 333 20272 58025 70000 84616 86458==
41941,2023,10,09,06,00,AAXX 09064 41941 02456 40000 10330 20260 30092 40097 83530 333 58015 70000 83618 84362==
41941,2023,10,09,09,00,AAXX 09094 41941 02456 40000 10340 20260 30079 40085 83530 333 58021 70000 83618 84362==
41941,2023,10,09,12,00,AAXX 09124 41941 02450 40000 10305 20280 30077 40082 83530 333 10345 58017 70000 83618 84362==
41941,2023,10,09,15,00,AAXX 09154 41941 02450 41803 10290 20280 30093 40099 83530 333 58000 70000 83618 84362==
41941,2023,10,09,18,00,AAXX 09184 41941 02440 60000 10285 20280 30096 40102 85420 333 58005 70000 84616 86458==
41941,2023,10,09,21,00,AAXX 09214 41941 02440 60000 10280 20280 30092 40097 85420 333 58003 70000 84616 86458==
41941,2023,10,10,00,00,AAXX 10004 41941 02450 80000 10278 20278 30094 40099 8632/ 333 58006 70000 85616 88458 81930==
41941,2023,10,10,03,00,AAXX 10034 41941 02450 80000 10297 20270 30114 40119 8632/ 333 20276 58003 70000 85616 88458 81930==
41941,2023,10,10,06,00,AAXX 10064 41941 02456 63603 10325 20270 30099 40105 85420 333 58007 70000 84616 86458==
41941,2023,10,10,09,00,AAXX 10094 41941 02456 42602 10333 20240 30069 40074 84400 333 59010 70000 82616==
41941,2023,10,10,12,00,AAXX 10124 41941 02450 40000 10295 20270 30071 40076 83530 333 10339 59006 70000 83618 84362==
41941,2023,10,10,15,00,AAXX 10154 41941 02440 40000 10290 20270 30086 40092 83530 333 59007 70000 83618 84362==
41941,2023,10,10,18,00,AAXX 10184 41941 02440 40000 10282 20270 30090 40095 83530 333 59006 70000 83618 84362==
41941,2023,10,10,21,00,AAXX 10214 41941 02440 40000 10280 20270 30087 40092 83530 333 59005 70000 83618 84362==
41941,2023,10,11,00,00,AAXX 11004 41941 02450 61803 10268 20260 30084 40089 85420 333 59010 70000 84616 86458==
41941,2023,10,11,03,00,AAXX 11034 41941 02450 80000 10285 20260 31040 40109 8632/ 333 20262 59010 70000 85616 88458 81930==
41941,2023,10,11,06,00,AAXX 11064 41941 02456 62603 10331 20260 30092 40097 85420 333 59007 70000 84616 86458==
41941,2023,10,11,09,00,AAXX 11094 41941 02456 60000 10325 20260 30073 40078 85420 333 58004 70000 84616 86458==
41941,2023,10,11,12,00,AAXX 11124 41941 02440 60000 10300 20270 30081 40086 85420 333 10335 58010 70000 84616 86458==
41941,2023,10,11,15,00,AAXX 11154 41941 02440 60000 10287 20280 30091 40096 85420 333 58005 70000 84616 86458==
41941,2023,10,11,18,00,AAXX 11184 41941 02440 60000 10280 20270 30097 40102 85420 333 58007 70000 84616 86458==
41941,2023,10,11,21,00,AAXX 11214 41941 02440 60000 10275 20270 30093 40098 85420 333 58006 70000 84616 86458==
41941,2023,10,12,00,00,AAXX 12004 41941 02450 60000 10268 20268 30098 40104 85420 333 58011 70000 84616 86458==
41941,2023,10,12,03,00,AAXX 12034 41941 02456 60000 10302 20270 30124 40129 85420 333 20266 58020 70000 84616 86458==
41941,2023,10,12,06,00,AAXX 12064 41941 02456 62703 10332 20270 30115 40121 85420 333 58023 70000 84616 86458==
41941,2023,10,12,09,00,AAXX 12094 41941 02456 62703 10340 20230 30096 40102 85420 333 58023 70000 84616 86458==
41941,2023,10,12,12,00,AAXX 12124 41941 02440 61803 10298 20270 30103 40108 85420 333 10348 58022 70000 84616 86458==
41941,2023,10,12,15,00,AAXX 12154 41941 02440 61803 10280 20260 30120 40125 85420 333 58020 70000 84616 86458==
41941,2023,10,12,21,00,AAXX 12214 41941 02440 80000 10265 20260 30113 40119 8632/ 333 58020 70000 85616 88458 81930==
41943,2023,10,06,00,00,AAXX 06004 41943 01330 80000 10263 20250 30040 40047 70262 8662/ 333 59015 70010 83710 84614 88458==
41943,2023,10,06,03,00,AAXX 06034 41943 02330 81802 10277 20260 30067 40074 8662/ 333 20248 59012 70040 83710 84615 88458==
41943,2023,10,06,06,00,AAXX 06064 41943 02330 71803 10290 20260 30059 40066 84620 333 59001 70010 82710 83616 86458==
41943,2023,10,06,09,00,AAXX 06094 41943 02440 61803 10298 20250 30031 40038 84520 333 59002 70010 84616 86458==
41943,2023,10,06,12,00,AAXX 06124 41943 02430 61802 10280 20260 30042 40049 83420 333 10305 58007 70010 82616 85458==
41943,2023,10,06,15,00,AAXX 06154 41943 02430 80000 10272 20250 30061 40068 8662/ 333 58000 70010 83710 84615 88458==
41943,2023,10,06,18,00,AAXX 06184 41943 02430 80000 10270 20260 30060 40067 8662/ 333 58015 70010 83710 84615 88458==
41943,2023,10,06,21,00,AAXX 06214 41943 02430 80000 10264 20250 30056 40063 8662/ 333 58014 70010 83710 84615 88458==
41943,2023,10,07,00,00,AAXX 07004 41943 02430 81602 10265 20260 30060 40067 8662/ 333 58020 70000 83710 84615 88458==
41943,2023,10,07,03,00,AAXX 07034 41943 02430 81802 10285 20260 30083 40090 8662/ 333 20260 58016 70000 83710 84615 88458==
41943,2023,10,07,06,00,AAXX 07064 41943 01430 81802 10300 20260 30070 40077 70262 8662/ 333 58011 70020 83710 84615 88458==
41943,2023,10,07,09,00,AAXX 07094 41943 02435 81803 10310 20260 30050 40057 8662/ 333 58019 70020 83710 84615 88458==
41943,2023,10,07,12,00,AAXX 07124 41943 21430 80000 10277 20260 30054 40061 70266 8662/ 333 10318 58012 60057 70070 83710 84615 88458==
41943,2023,10,07,15,00,AAXX 07154 41943 02430 80000 10272 20250 30079 40086 8662/ 333 58018 70070 83710 84615 88458==
41943,2023,10,07,18,00,AAXX 07184 41943 02430 80000 10266 20260 30079 40086 8662/ 333 58019 70070 83710 84615 88458==
41943,2023,10,07,21,00,AAXX 07214 41943 02430 80000 10266 20260 30072 40079 8662/ 333 58016 70070 83710 84615 88458==
41943,2023,10,08,00,00,AAXX 08004 41943 02430 80000 10262 20250 30076 40083 8662/ 333 58016 70070 83710 84615 88458==
41943,2023,10,08,03,00,AAXX 08034 41943 01330 81302 10265 20260 30096 40103 76062 8772/ 333 20260 58013 70250 84709 88614 88456==
41943,2023,10,08,06,00,AAXX 08064 41943 21330 81303 10310 20260 30081 40088 70262 8762/ 333 58011 60185 70230 84709 84615 88458==
41943,2023,10,08,09,00,AAXX 08094 41943 02435 61302 10315 20250 30065 40072 84520 333 58015 70230 84616 86458==
41943,2023,10,08,12,00,AAXX 08124 41943 02430 80000 10275 20260 30067 40074 8662/ 333 10325 58013 70180 83710 84615 88458==
41943,2023,10,08,15,00,AAXX 08154 41943 02430 80000 10270 20250 30092 40099 8662/ 333 58013 70180 83710 84615 88458==
41943,2023,10,08,18,00,AAXX 08184 41943 02430 80000 10265 20260 30092 40099 8662/ 333 58013 70180 83710 84615 88458==
41943,2023,10,08,21,00,AAXX 08214 41943 02430 80000 10263 20250 30088 40095 8662/ 333 58016 70180 83710 84615 88458==
41943,2023,10,09,00,00,AAXX 09004 41943 02930 80000 10265 20250 30088 40096 8662/ 333 59012 70180 83710 84615 88458==
41943,2023,10,09,03,00,AAXX 09034 41943 02430 80000 10305 20260 30109 40117 8662/ 333 20262 58013 70000 84615 88458==
41943,2023,10,09,06,00,AAXX 09064 41943 02435 71303 10315 20260 30100 40107 85420 333 58019 70000 84616 86458==
41943,2023,10,09,09,00,AAXX 09094 41943 02440 40000 10335 20260 30070 40077 82530 333 58005 70000 82618 84362==
41943,2023,10,09,12,00,AAXX 09124 41943 02430 40000 10290 20260 30074 40081 82530 333 10340 58027 70000 82618 83362==
41943,2023,10,09,15,00,AAXX 09154 41943 02430 40000 10276 20260 30099 40106 82530 333 58007 70000 82618 83362==
41943,2023,10,09,18,00,AAXX 09184 41943 02930 00000 10270 20250 30094 40101 333 58002 70000==
41943,2023,10,09,21,00,AAXX 09214 41943 02930 00000 10265 20260 30092 40099 333 58004 70000==
41943,2023,10,10,00,00,AAXX 10004 41943 01905 00000 10265 20260 30095 40102 74344 89/// 333 58007 70000==
41943,2023,10,10,03,00,AAXX 10034 41943 01905 00000 10285 20270 30116 40123 74344 89/// 333 20262 58007 70000==
41943,2023,10,10,06,00,AAXX 10064 41943 01430 71602 10325 20260 30098 40105 70522 84420 333 59002 70000 83616 86458==
41943,2023,10,10,09,00,AAXX 10094 41943 01440 70000 10335 20250 30064 40071 70522 84420 333 59006 70000 83616 86458==
41943,2023,10,10,12,00,AAXX 10124 41943 01440 20000 10292 20260 30069 40076 70521 81501 333 10340 59005 70000 81616==
41943,2023,10,10,15,00,AAXX 10154 41943 02435 10000 10270 20260 30087 40094 81500 333 59012 70000 81616==
41943,2023,10,10,18,00,AAXX 10184 41943 01435 10000 10268 20260 30091 40098 70510 81500 333 59003 70000 81616==
41943,2023,10,10,21,00,AAXX 10214 41943 01930 00000 10265 20260 30089 40096 70500 333 59003 70000==
41943,2023,10,11,00,00,AAXX 11004 41943 01904 00000 10260 20250 30087 40094 74344 89/// 333 59008 70000==
41943,2023,10,11,03,00,AAXX 11034 41943 01904 00000 10275 20260 30092 40099 74344 89/// 333 20250 59024 70000==
41943,2023,10,11,06,00,AAXX 11064 41943 01445 61101 10315 20260 30094 40101 70542 84510 333 59004 70000 84615 83457==
41943,2023,10,11,09,00,AAXX 11094 41943 02440 60000 10320 20260 30066 40073 84520 333 58002 70000 84616 86458==
41943,2023,10,11,12,00,AAXX 11124 41943 01440 41801 10295 20260 30076 40083 70522 82510 333 10330 58007 70000 82615==
41943,2023,10,11,15,00,AAXX 11154 41943 01435 31801 10280 20260 30099 40106 70521 81510 333 58012 70000 81616==
41943,2023,10,11,18,00,AAXX 11184 41943 01435 10000 10270 20260 30103 40110 70510 81500 333 58012 70000 81616==
41943,2023,10,11,21,00,AAXX 11214 41943 01330 60000 10268 20260 30104 40111 70522 85620 333 58015 70000 83710 83615 87457==
41943,2023,10,12,00,00,AAXX 12004 41943 01330 80000 10265 20260 30105 40112 70522 8662/ 333 58018 70000 83710 84615 88457==
41943,2023,10,12,03,00,AAXX 12034 41943 01330 80000 10245 20240 30125 40132 76162 8672/ 333 20260 58040 70280 83709 84615 88457==
41943,2023,10,12,06,00,AAXX 12064 41943 21440 70000 10265 20250 30118 40125 70162 85520 333 58024 60298 70290 85615 86457==
41943,2023,10,12,09,00,AAXX 12094 41943 02440 70000 10300 20250 30095 40102 85520 333 58029 70290 85615 86458==
41943,2023,10,12,12,00,AAXX 12124 41943 02440 20000 10278 20250 30101 40108 81501 333 10315 58025 70290 81616==
41943,2023,10,12,15,00,AAXX 12154 41943 02440 10000 10260 20240 30121 40128 81500 333 58022 70290 81616==
41943,2023,10,12,18,00,AAXX 12184 41943 02440 10000 10258 20250 30124 40131 81500 333 58021 70290 81616==
41943,2023,10,12,21,00,AAXX 12214 41943 01430 40000 10255 20250 30122 40129 70522 82510 333 58018 70290 82615 83457==
41944,2023,10,06,06,00,AAXX 06064 41944 NIL=
41944,2023,10,06,12,00,AAXX 06124 41944 NIL=
41944,2023,10,07,06,00,AAXX 07064 41944 NIL=
41944,2023,10,07,12,00,AAXX 07124 41944 NIL=
41944,2023,10,08,00,00,AAXX 08004 41944 NIL=
41944,2023,10,08,06,00,AAXX 08064 41944 NIL=
41944,2023,10,08,12,00,AAXX 08124 41944 NIL=
41944,2023,10,08,18,00,AAXX 08184 41944 NIL=
41944,2023,10,09,00,00,AAXX 09004 41944 NIL=
41944,2023,10,09,12,00,AAXX 09124 41944 NIL=
41944,2023,10,09,18,00,AAXX 09184 41944 NIL=
41944,2023,10,10,00,00,AAXX 10004 41944 NIL=
41944,2023,10,10,12,00,AAXX 10124 41944 NIL=
41944,2023,10,10,18,00,AAXX 10184 41944 NIL=
41944,2023,10,11,06,00,AAXX 11064 41944 NIL=
41944,2023,10,12,06,00,AAXX 12064 41944 NIL=
41944,2023,10,12,12,00,AAXX 12124 41944 NIL=
41946,2023,10,06,00,00,AAXX 06004 41946 01456 81802 10273 20260 30038 40043 72196 8432/ 333 58003 70294 83618 88459 81929==
41946,2023,10,06,03,00,AAXX 06034 41946 02456 81802 10286 20270 30059 40064 8352/ 333 20266 58003 70264 83618 88459==
41946,2023,10,06,06,00,AAXX 06064 41946 02456 62702 10312 20260 30050 40055 83520 333 58012 70114 83618 86459==
41946,2023,10,06,09,00,AAXX 06094 41946 02456 71702 10308 20260 30027 40032 83520 333 58010 70084 83618 86459==
41946,2023,10,06,12,00,AAXX 06124 41946 01556 71801 10292 20270 30037 40042 70292 84320 333 10320 58014 70076 83620 85459 81929==
41946,2023,10,06,15,00,AAXX 06154 41946 02456 70000 10282 20260 30056 40061 83520 333 58011 70070 83618 86459==
41946,2023,10,06,18,00,AAXX 06184 41946 02456 50000 10277 20260 30055 40060 82520 333 58017 70070 82618 85459==
41946,2023,10,06,21,00,AAXX 06214 41946 02456 60000 10272 20260 30047 40052 82520 333 58020 70034 82618 85459==
41946,2023,10,07,00,00,AAXX 07004 41946 11456 40000 10270 20260 30059 40064 69966 70162 81510 333 58021 70006 81618 84460==
41946,2023,10,07,03,00,AAXX 07034 41946 02456 60000 10295 20270 30080 40085 82510 333 20265 58021 70006 82618 86460==
41946,2023,10,07,06,00,AAXX 07064 41946 02456 71802 10320 20260 30067 40072 83510 333 58012 70006 83618 87460==
41946,2023,10,07,09,00,AAXX 07094 41946 02456 72201 10330 20250 30047 40051 84320 333 58020 70006 83618 87459 81929==
41946,2023,10,07,12,00,AAXX 07124 41946 01456 80000 10304 20270 30056 40061 72122 8432/ 333 10332 58019 70002 83618 88459 81929==
41946,2023,10,07,15,00,AAXX 07154 41946 02/56 60000 10284 20270 30081 40085 86020 333 58025 70008 86459==
41946,2023,10,07,21,00,AAXX 07214 41946 02/56 20000 10274 20260 30071 40075 82030 333 58024 70002 82362==
41946,2023,10,08,00,00,AAXX 08004 41946 02956 20000 10266 20260 30080 40084 80001 333 58021 70002 82080==
41946,2023,10,08,03,00,AAXX 08034 41946 02456 32702 10305 20260 30095 40100 81501 333 20261 58015 70002 81618 83080==
41946,2023,10,08,06,00,AAXX 08064 41946 02457 32704 10330 20250 30087 40092 83400 333 58020 70002 82618==
41946,2023,10,08,09,00,AAXX 08094 41946 02457 30000 10346 20260 30063 40067 83400 333 58016 70002 82618==
41946,2023,10,08,12,00,AAXX 08124 41946 02456 30000 10318 20270 30068 40073 83400 333 10348 58012 70000 82618==
41946,2023,10,08,15,00,AAXX 08154 41946 02956 01804 10298 20260 30093 40098 333 58012 70000==
41946,2023,10,08,18,00,AAXX 08184 41946 02956 11802 10290 20270 30091 40096 80001 333 58013 70000 81080==
41946,2023,10,08,21,00,AAXX 08211 41946 02456 10000 10288 20270 30081 40086 81500 333 58010 70000 81618==
41946,2023,10,09,00,00,AAXX 09004 41946 02456 32201 10286 20280 30092 40097 83500 333 58012 70000 83618==
41946,2023,10,09,03,00,AAXX 09034 41946 02456 72701 10310 20280 30110 40115 83510 333 20280 58015 70000 83618 85460==
41946,2023,10,09,06,00,AAXX 09064 41946 01456 63601 10320 20280 30099 40104 70162 83501 333 58012 70002 83618 84080==
41946,2023,10,09,09,00,AAXX 09094 41946 02556 40000 10344 20260 30068 40073 84400 333 58005 70002 83620==
41946,2023,10,09,12,00,AAXX 09124 41946 02956 30000 10310 20280 30072 40077 80002 333 10345 58004 70002 83080==
41946,2023,10,09,15,00,AAXX 09154 41946 02956 30000 10290 20280 30098 40103 80002 333 58005 70002 83080==
41946,2023,10,09,18,00,AAXX 09184 41946 02956 00000 10284 20270 30096 40101 333 58005 70002==
41946,2023,10,09,21,00,AAXX 09214 41946 01950 00000 10282 20270 30084 40089 70500 333 58003 70002==
41946,2023,10,10,00,00,AAXX 10004 41946 01935 00000 10280 20270 30101 40106 70500 333 58009 70002==
41946,2023,10,10,03,00,AAXX 10034 41946 01950 02102 10310 20260 30120 40125 70500 333 20274 58010 70002==
41946,2023,10,10,06,00,AAXX 10064 41946 02456 32102 10345 20250 30101 40105 83400 333 58002 70000 82618==
41946,2023,10,10,09,00,AAXX 10094 41946 02456 32704 10351 20230 30069 40073 83400 333 58001 70000 82618==
41946,2023,10,10,12,00,AAXX 10124 41946 02456 20000 10309 20250 30076 40081 81501 333 10357 58004 70000 81618==
41946,2023,10,10,15,00,AAXX 10154 41946 02/56 30000 10293 20270 30092 40096 83030 333 59006 70000 83362==
41946,2023,10,10,18,00,AAXX 10184 41946 02/56 40000 10290 20280 30088 40093 84020 333 58008 70000 84459==
41946,2023,10,10,21,00,AAXX 10214 41946 02956 20000 10286 20280 30080 40084 82500 333 59004 70000 82620==
41946,2023,10,11,00,00,AAXX 11004 41946 01/50 40000 10280 20270 30087 40092 70510 82041 333 59014 70000 82362 83080==
41946,2023,10,11,03,00,AAXX 11034 41946 02456 40000 10325 20270 30113 40118 80001 333 20276 59007 70000 84080==
41946,2023,10,11,06,00,AAXX 11064 41946 02456 41802 10345 20260 30097 40101 84400 333 59004 70000 83618==
41946,2023,10,11,09,00,AAXX 11094 41946 02957 30000 10355 20240 30074 40078 80001 333 58005 70000 83080==
41946,2023,10,11,12,00,AAXX 11124 41946 02956 30000 10316 20280 30080 40085 80001 333 10356 58004 70000 83080==
41946,2023,10,11,15,00,AAXX 11154 41946 02956 00000 10288 20270 30102 40107 333 58010 70000==
41946,2023,10,11,18,00,AAXX 11184 41946 02956 00000 10274 20260 30104 40109 333 58016 70000==
41946,2023,10,11,21,00,AAXX 11214 41946 02956 00000 10270 20260 30096 40101 333 58016 70000==
41946,2023,10,12,00,00,AAXX 12004 41946 01950 00000 10266 20260 30107 40112 70500 333 58020 70000==
41946,2023,10,12,03,00,AAXX 12034 41946 02956 00000 10325 20260 30131 40136 333 20262 58018 70000==
41946,2023,10,12,06,00,AAXX 12064 41946 02456 21802 10350 20230 30120 40124 82500 333 58023 70000 82618==
41946,2023,10,12,09,00,AAXX 12094 41946 02956 02701 10352 20220 30094 40099 333 58020 70000==
41946,2023,10,12,12,00,AAXX 12124 41946 02/56 50000 10310 20280 30100 40104 85070 333 10360 58020 70000 84459==
41946,2023,10,12,15,00,AAXX 12154 41946 02956 00000 10286 20270 30124 40129 333 58022 70000==
41946,2023,10,12,18,00,AAXX 12184 41946 02956 00000 10272 20250 30120 40125 333 58016 70000==
41946,2023,10,12,21,00,AAXX 12214 41946 02956 00000 10267 20260 30118 40123 333 58018 70000==
41947,2023,10,06,00,00,AAXX 06004 41947 21450 81803 10272 20260 30033 40035 70262 8352/ 333 59001 60025 70052 83618 88458==
41947,2023,10,06,03,00,AAXX 06034 41947 02456 80000 10280 20260 30049 40052 8352/ 333 20265 58006 70052 83618 88458==
41947,2023,10,06,06,00,AAXX 06064 41947 02456 72202 10310 20260 30044 40046 83570 333 58016 70040 83618 85459==
41947,2023,10,06,09,00,AAXX 06094 41947 02456 32302 10322 20250 30022 40024 83500 333 58012 70020 83618==
41947,2023,10,06,12,00,AAXX 06124 41947 01350 81802 10284 20270 30035 40037 79522 8532/ 333 10325 58012 70020 83617 88456 81925==
41947,2023,10,06,15,00,AAXX 06154 41947 02450 60000 10278 20270 30051 40053 83570 333 58008 70040 83618 85458==
41947,2023,10,06,18,00,AAXX 06184 41947 01450 60000 10276 20270 30048 40050 70262 83570 333 58013 70010 83618 85458==
41947,2023,10,06,21,00,AAXX 06214 41947 02450 80000 10274 20260 30050 40052 8352/ 333 58016 70050 83618 88458==
41947,2023,10,07,00,00,AAXX 07004 41947 02450 80000 10270 20260 30054 40056 8352/ 333 58023 70030 83618 88458==
41947,2023,10,07,03,00,AAXX 07034 41947 02456 70000 10300 20270 30068 40070 83570 333 20265 58018 70030 83618 85459==
41947,2023,10,07,06,00,AAXX 07064 41947 02456 60000 10325 20260 30061 40063 83570 333 58017 70030 83618 83459==
41947,2023,10,07,09,00,AAXX 07094 41947 02456 60000 10328 20270 30040 40043 84470 333 58019 70030 83618 84459==
41947,2023,10,07,12,00,AAXX 07124 41947 02456 80000 10298 20270 30050 40053 8432/ 333 10335 58016 70010 83618 88458 81930==
41947,2023,10,07,15,00,AAXX 07154 41947 02456 80000 10286 20270 30071 40073 8352/ 333 58020 70010 83618 88458==
41947,2023,10,07,18,00,AAXX 07184 41947 02456 80000 10278 20270 30072 40074 8352/ 333 58024 70000 83618 88458==
41947,2023,10,07,21,00,AAXX 07214 41947 02456 40000 10278 20270 30062 40064 82530 333 58012 70000 82618 83362==
41947,2023,10,08,00,00,AAXX 08004 41947 02456 60000 10274 20260 30070 40072 83430 333 58016 70000 82618 85362==
41947,2023,10,08,03,00,AAXX 08034 41947 02456 20000 10316 20250 30082 40084 82500 333 20265 58014 70000 82618==
41947,2023,10,08,06,00,AAXX 08064 41947 02457 62702 10340 20250 30079 40081 83570 333 58018 70000 83618 83459==
41947,2023,10,08,09,00,AAXX 08094 41947 02456 60000 10345 20260 30053 40056 84470 333 58013 70000 82618 83825 85459==
41947,2023,10,08,12,00,AAXX 08124 41947 02456 50000 10318 20260 30060 40063 82510 333 10350 58010 70000 82618 85459==
41947,2023,10,08,15,00,AAXX 08154 41947 02950 02102 10285 20270 30080 40085 333 58012 70000==
41947,2023,10,08,18,00,AAXX 08184 41947 02950 00000 10280 20260 30086 40089 333 58015 70000==
41947,2023,10,08,21,00,AAXX 08211 41947 02950 00000 10276 20270 30084 40087 333 58023 70000==
41947,2023,10,09,00,00,AAXX 09004 41947 01950 00000 10275 20270 30082 40084 70500 333 58012 70000==
41947,2023,10,09,03,00,AAXX 09034 41947 02456 70000 10300 20270 30095 40098 83570 333 20274 58014 70000 83618 86458==
41947,2023,10,09,06,00,AAXX 09064 41947 02450 80000 10310 20260 30085 40088 8452/ 333 58007 70000 83618 88458==
41947,2023,10,09,09,00,AAXX 09094 41947 02456 30000 10342 20260 30066 40068 83500 333 58012 70000 83618==
41947,2023,10,09,12,00,AAXX 09124 41947 02450 20000 10310 20280 30070 40072 82500 333 10350 58009 70000 82618==
41947,2023,10,09,15,00,AAXX 09154 41947 02950 00000 10290 20280 30095 40097 333 58012 70000==
41947,2023,10,09,18,00,AAXX 09184 41947 02950 00000 10285 20280 30092 40094 333 58005 70000==
41947,2023,10,10,00,00,AAXX 10004 41947 01940 00000 10272 20270 30094 40096 70500 333 58012 70000==
41947,2023,10,10,03,00,AAXX 10034 41947 01950 00000 10305 20280 30110 40113 70500 333 20268 58015 70000==
41947,2023,10,10,06,00,AAXX 10064 41947 02456 20000 10340 20260 30096 40098 82500 333 58010 70000 82618==
41947,2023,10,10,09,00,AAXX 10094 41947 02457 30000 10355 20230 30063 40065 83500 333 59003 70000 83618==
41947,2023,10,10,12,00,AAXX 10124 41947 02450 60000 10308 20250 30068 40070 83530 333 10360 59002 70000 83618 84362==
41947,2023,10,10,15,00,AAXX 10154 41947 02450 50000 10290 20260 30080 40082 82530 333 59015 70000 82618 83362==
41947,2023,10,10,18,00,AAXX 10184 41947 02450 50000 10286 20270 30086 40088 82530 333 59006 70000 82618 83362==
41947,2023,10,10,21,00,AAXX 10214 41947 02450 30000 10280 20260 30080 40082 83500 333 59012 70000 83618==
41947,2023,10,11,00,00,AAXX 11004 41947 01450 30000 10275 20275 30079 40081 70511 83500 333 59015 70000 83618==
41947,2023,10,11,03,00,AAXX 11034 41947 02956 00000 10320 20270 30101 40104 333 20270 59009 70000==
41947,2023,10,11,06,00,AAXX 11064 41947 02457 20000 10352 20230 30093 40095 82500 333 59003 70000 82618==
41947,2023,10,11,09,00,AAXX 11094 41947 02456 33102 10358 20230 30067 40069 83400 333 58004 70000 82618==
41947,2023,10,11,12,00,AAXX 11124 41947 02956 20000 10313 20260 30074 40077 80001 333 10360 58007 70000 82080==
41947,2023,10,11,15,00,AAXX 11154 41947 02456 30000 10302 20270 30094 40096 83500 333 58014 70000 83618==
41947,2023,10,11,18,00,AAXX 11184 41947 02456 30000 10286 20270 30099 40102 83500 333 58014 70000 83618==
41947,2023,10,11,21,00,AAXX 11214 41947 02956 00000 10278 20270 30089 40092 333 58010 70000==
41947,2023,10,12,00,00,AAXX 12004 41947 02956 00000 10274 20260 30097 40100 333 58019 70000==
41947,2023,10,12,03,00,AAXX 12034 41947 02956 00000 10320 20260 30115 40118 333 20265 58014 70000==
41947,2023,10,12,06,00,AAXX 12064 41947 02456 60000 10340 20230 30101 40104 86400 333 58006 70000 83618 83820==
41947,2023,10,12,09,00,AAXX 12094 41947 02456 23302 10355 20230 30088 40091 82500 333 58022 70000 82618==
41947,2023,10,12,12,00,AAXX 12124 41947 02456 20000 10315 20260 30093 40096 82400 333 10360 58019 70000 81620==
41947,2023,10,12,15,00,AAXX 12154 41947 02450 20000 10295 20270 30012 40016 82500 333 58020 70000 82618==
41947,2023,10,12,18,00,AAXX 12184 41947 02950 00000 10285 20280 30116 40119 333 58017 70000==
41947,2023,10,12,21,00,AAXX 12214 41947 02950 00000 10280 20270 30113 40116 333 58024 70000==
41950,2023,10,06,00,00,AAXX 06004 41950 02350 81602 10275 20270 30033 40036 8562/ 333 59016 70024 82708 84616 88458==
41950,2023,10,06,03,00,AAXX 06034 41950 02350 80000 10284 20270 30060 40063 8562/ 333 20265 59007 70000 82708 84616 88458==
41950,2023,10,06,06,00,AAXX 06064 41950 21350 80000 10306 20280 30052 40054 70296 8562/ 333 59004 60077 70070 82708 84616 88458==
41950,2023,10,06,09,00,AAXX 06094 41950 01350 80000 10299 20280 30030 40032 70296 8562/ 333 58005 70130 82708 84616 88458==
41950,2023,10,06,12,00,AAXX 06124 41950 11350 80000 10285 20280 30042 40044 60066 70296 8562/ 333 10306 58012 70130 82708 84626 88458==
41950,2023,10,06,15,00,AAXX 06154 41950 01350 80000 10273 20273 30056 40058 79592 8562/ 333 58005 70206 82708 84616 88458==
41950,2023,10,06,18,00,AAXX 06184 41950 11350 80000 10274 20274 30060 40062 60086 70292 8562/ 333 58018 70206 82708 84616 88458==
41950,2023,10,06,21,00,AAXX 06214 41950 02350 80000 10272 20272 30052 40055 84610 333 58021 70204 81708 83617 87459==
41950,2023,10,07,00,00,AAXX 07004 41950 21350 80000 10272 20272 30052 40055 70362 8562/ 333 58019 60147 70350 82708 84616 88458==
41950,2023,10,07,03,00,AAXX 07034 41950 01340 80000 10273 20250 30079 40081 76122 8572/ 333 20270 58019 70382 82708 84616 88458==
41950,2023,10,07,06,00,AAXX 07064 41950 01330 81802 10258 20258 30075 40077 79596 8692/ 333 58023 70748 82708 84616 88458 81928==
41950,2023,10,07,09,00,AAXX 07094 41950 01350 61602 10277 20270 30051 40053 70196 84610 333 58021 70691 81708 84617 86459==
41950,2023,10,07,12,00,AAXX 07124 41950 11450 60000 10276 20270 30056 40058 69936 70296 83531 333 10282 58014 70691 83617 84080==
41950,2023,10,07,15,00,AAXX 07154 41950 02350 80000 10271 20270 30082 40085 8562/ 333 58026 70615 82708 84616 88458==
41950,2023,10,07,18,00,AAXX 07184 41950 02350 80000 10272 20270 30076 40078 8562/ 333 58016 70615 82708 84616 88458==
41950,2023,10,07,21,00,AAXX 07214 41950 02350 80000 10272 20270 30071 40074 8562/ 333 58019 70615 82708 84616 88458==
41950,2023,10,08,00,00,AAXX 08004 41950 01440 70000 10269 20269 30077 40080 70522 83570 333 58025 70471 83617 85459==
41950,2023,10,08,03,00,AAXX 08034 41950 02450 50000 10288 20280 30091 40093 83510 333 20247 58012 70439 83617 85459==
41950,2023,10,08,06,00,AAXX 08064 41950 02350 80000 10300 20250 30087 40089 8532/ 333 58012 70003 82708 84616 88458 81928==
41950,2023,10,08,09,00,AAXX 08094 41950 01450 60000 10300 20260 30066 40068 70192 83531 333 58015 70362 83617 83362==
41950,2023,10,08,12,00,AAXX 08124 41950 11450 30000 10286 20280 30071 40073 60366 70192 82501 333 10324 58015 70362 82617==
41950,2023,10,08,15,00,AAXX 08154 41950 02450 20000 10275 20270 30091 40093 82500 333 58009 70362 82617==
41950,2023,10,08,18,00,AAXX 08184 41950 01945 00000 10265 20265 30090 40092 70511 333 58014 70362==
41950,2023,10,08,21,00,AAXX 08214 41950 01930 00000 10263 20263 30088 40090 70500 333 58017 70362==
41950,2023,10,09,00,00,AAXX 09004 41950 01320 80000 10271 20271 30090 40092 71000 8562/ 333 58013 70362 82708 84616 88458==
41950,2023,10,09,03,00,AAXX 09034 41950 02450 50000 10300 20260 30110 40112 83531 333 20254 58019 70362 83617==
41950,2023,10,09,06,00,AAXX 09064 41950 02450 60000 10335 20260 30101 40104 83531 333 58014 70362 83617 83362==
41950,2023,10,09,09,00,AAXX 09094 41950 02450 40000 10335 20260 30070 40072 84430 333 58004 70000 83617==
41950,2023,10,09,12,00,AAXX 09124 41950 02450 70000 10288 20260 30077 40079 83570 333 10340 58006 70000 83617 85459==
41950,2023,10,09,15,00,AAXX 09154 41950 02/50 40000 10276 20270 30098 40100 80010 333 58007 70000 84459==
41950,2023,10,09,18,00,AAXX 09184 41950 01950 00000 10270 20270 30095 40097 70500 333 58005 70000==
41950,2023,10,09,21,00,AAXX 09214 41950 01440 20000 10270 20270 30089 40091 70510 82500 333 58001 70000 82617==
41950,2023,10,10,00,00,AAXX 10004 41950 01435 30000 10272 20272 30092 40094 70510 83500 333 58002 70000 83617==
41950,2023,10,10,03,00,AAXX 10034 41950 01445 40000 10297 20270 30116 40118 70511 84500 333 20265 58006 70000 84616==
41950,2023,10,10,06,00,AAXX 10064 41950 02450 20000 10338 20270 30098 40101 82500 333 59003 70000 82617==
41950,2023,10,10,09,00,AAXX 10094 41950 02450 30000 10340 20260 30068 40070 83400 333 59002 70000 82617==
41950,2023,10,10,12,00,AAXX 10124 41950 02950 00000 10295 20290 30073 40075 333 10344 59004 70000==
41950,2023,10,10,15,00,AAXX 10154 41950 01950 00000 10285 20280 30094 40096 70500 333 59004 70000==
41950,2023,10,10,18,00,AAXX 10184 41950 01940 00000 10276 20276 30094 40096 70500 333 59001 70000==
41950,2023,10,10,21,00,AAXX 10214 41950 01940 00000 10270 20270 30085 40087 70500 333 59004 70000==
41950,2023,10,11,00,00,AAXX 11004 41950 01340 80000 10268 20268 30085 40087 70520 8562/ 333 59007 70000 82708 84616 88458==
41950,2023,10,11,03,00,AAXX 11034 41950 01440 40000 10284 20260 30108 40110 70522 84500 333 20268 59008 70000 84617==
41950,2023,10,11,06,00,AAXX 11064 41950 02450 50000 10330 20260 30093 40096 83530 333 59005 70000 83617 83362==
41950,2023,10,11,09,00,AAXX 11094 41950 02450 50000 10330 20270 30072 40074 83410 333 58004 70000 83617 85459==
41950,2023,10,11,12,00,AAXX 11124 41950 01350 60000 10265 20260 30082 40084 72122 85670 333 10341 58009 70090 82708 84616 86459==
41950,2023,10,11,15,00,AAXX 11154 41950 02350 60000 10260 20260 30099 40101 85670 333 58005 70088 82708 84616 85459==
41950,2023,10,11,18,00,AAXX 11184 41950 02350 70000 10259 20259 30102 40104 85670 333 58008 70088 82708 84616 86459==
41950,2023,10,11,21,00,AAXX 11214 41950 02350 60000 10258 20258 30100 40102 84670 333 58015 70088 81708 84616 85459==
41950,2023,10,12,00,00,AAXX 12004 41950 01420 30000 10256 20256 30106 40108 71021 82530 333 58021 70088 82617==
41950,2023,10,12,03,00,AAXX 12034 41950 02/50 10000 10314 20250 30125 40127 81030 333 20254 58017 70088 81362==
41950,2023,10,12,06,00,AAXX 12064 41950 02450 30000 10337 20250 30113 40116 83400 333 58007 70088 83617==
41950,2023,10,12,09,00,AAXX 12094 41950 02450 40000 10323 20270 30093 40096 82530 333 58011 70088 82617==
41950,2023,10,12,12,00,AAXX 12124 41950 02/50 20000 10292 20270 30101 40104 82030 333 10344 58019 70000 82363==
41950,2023,10,12,15,00,AAXX 12154 41950 02/50 10000 10273 20250 30121 40123 81030 333 58022 70000 81362==
41950,2023,10,12,18,00,AAXX 12184 41950 02950 00000 10260 20250 30119 40121 333 58017 70000==
41950,2023,10,12,21,00,AAXX 12214 41950 01940 00000 10258 20258 30118 40120 70500 333 58018 70000==
41951,2023,10,06,00,00,AAXX 06004 41951 02340 81803 10276 20270 30034 40039 8562/ 333 59010 70025 81708 84618 88458==
41951,2023,10,06,03,00,AAXX 06034 41951 02340 81806 10300 20270 30056 40061 8562/ 333 20265 59019 70000 81708 84618 88458==
41951,2023,10,06,06,00,AAXX 06064 41951 02340 81303 10320 20290 30050 40055 8562/ 333 58000 70000 81708 84618 88458==
41951,2023,10,06,09,00,AAXX 06094 41951 02450 71303 10313 20270 30030 40035 83510 333 58006 70000 83618 86459==
41951,2023,10,06,12,00,AAXX 06124 41951 02340 81203 10290 20270 30036 40040 8562/ 333 10322 58014 70000 81708 84618 88458==
41951,2023,10,06,15,00,AAXX 06154 41951 02340 80000 10280 20270 30059 40063 8562/ 333 58007 70000 81708 84618 88458==
41951,2023,10,06,18,00,AAXX 06184 41951 02340 81303 10280 20280 30057 40061 8562/ 333 58015 70000 81708 84618 88458==
41951,2023,10,06,21,00,AAXX 06214 41951 02340 81202 10280 20270 30056 40061 8562/ 333 58012 70000 81708 84618 88458==
41951,2023,10,07,00,00,AAXX 07004 41951 02340 80000 10278 20270 30051 40056 8562/ 333 58017 70000 81708 84618 88458==
41951,2023,10,07,03,00,AAXX 07034 41951 01340 81802 10290 20280 30074 40079 72162 8562/ 333 20275 58018 70009 81708 84618 88458==
41951,2023,10,07,06,00,AAXX 07064 41951 21340 81803 10317 20280 30068 40073 70262 8562/ 333 58018 69995 70009 81708 84618 88458==
41951,2023,10,07,09,00,AAXX 07094 41951 01340 81302 10290 20260 30050 40055 70296 8562/ 333 58020 70021 81708 84618 88458==
41951,2023,10,07,12,00,AAXX 07124 41951 11450 71302 10288 20270 30045 40051 60016 70196 83510 333 10322 58010 70021 83618 86459==
41951,2023,10,07,15,00,AAXX 07154 41951 02340 80000 10277 20270 30080 40085 8562/ 333 58021 70021 81708 84618 88458==
41951,2023,10,07,18,00,AAXX 07184 41951 02340 80000 10275 20275 30075 40080 8562/ 333 58018 70021 81708 84618 88458==
41951,2023,10,07,21,00,AAXX 07214 41951 01340 80000 10272 20270 30071 40076 70522 8562/ 333 58015 70021 81708 84618 88458==
41951,2023,10,08,00,00,AAXX 08004 41951 01340 70000 10270 20270 30070 40075 70522 84610 333 58019 70021 81706 83618 86459==
41951,2023,10,08,03,00,AAXX 08034 41951 02340 71803 10305 20270 30086 40091 84610 333 20268 58012 70012 81708 83618 86459==
41951,2023,10,08,06,00,AAXX 08064 41951 02456 61303 10330 20270 30081 40086 83510 333 58013 70012 83618 85459==
41951,2023,10,08,09,00,AAXX 08094 41951 01330 81202 10268 20260 30065 40070 76196 8672/ 333 58015 70288 82706 84616 88458==
41951,2023,10,08,12,00,AAXX 08124 41951 21340 80000 10278 20270 30071 40076 70296 8562/ 333 10335 58025 60298 70288 81708 84618 88458==
41951,2023,10,08,15,00,AAXX 08154 41951 02450 20000 10276 20270 30090 40095 82500 333 58010 70288 82618==
41951,2023,10,08,18,00,AAXX 08184 41951 02340 80000 10272 20270 30090 40095 8562/ 333 58015 70288 81708 84618 88458==
41951,2023,10,08,21,00,AAXX 08211 41951 01440 60000 10270 20270 30088 40093 70522 83510 333 58017 70288 83618 85459==
41951,2023,10,09,00,00,AAXX 09004 41951 01440 50000 10270 20270 30086 40091 70522 82510 333 58016 70288 82618 84459==
41951,2023,10,09,03,00,AAXX 09034 41951 02456 51302 10312 20260 30105 40110 82510 333 20255 58009 70288 82618 84459==
41951,2023,10,09,06,00,AAXX 09064 41951 02456 31703 10333 20260 30096 40101 83500 333 58015 70288 83618==
41951,2023,10,09,09,00,AAXX 09094 41951 02456 61702 10323 20280 30067 40072 83510 333 58002 70000 83618 85459==
41951,2023,10,09,12,00,AAXX 09124 41951 02340 81202 10297 20290 30077 40082 8562/ 333 10346 58006 70000 81708 84618 88458==
41951,2023,10,09,15,00,AAXX 09154 41951 01340 80000 10287 20280 30100 40105 70262 8562/ 333 58010 70002 81708 84618 88458==
41951,2023,10,09,18,00,AAXX 09184 41951 11340 80000 10282 20280 30098 40103 69926 70262 8562/ 333 58008 70002 81708 84618 88458==
41951,2023,10,09,21,00,AAXX 09214 41951 01340 80000 10275 20275 30094 40099 70522 8562/ 333 58006 70002 81708 84618 88458==
41951,2023,10,10,00,00,AAXX 10004 41951 01903 00000 10272 20270 30090 40095 74340 89/// 333 58004 70002==
41951,2023,10,10,03,00,AAXX 10034 41951 01340 80000 10302 20270 30109 40114 70542 8562/ 333 20265 58004 70002 81708 84618 88458==
41951,2023,10,10,06,00,AAXX 10064 41951 01456 50503 10340 20280 30098 40103 70142 82510 333 58002 70002 82618 84459==
41951,2023,10,10,09,00,AAXX 10094 41951 02456 30502 10338 20270 30066 40071 83500 333 59001 70002 83618==
41951,2023,10,10,12,00,AAXX 10124 41951 02456 30000 10296 20290 30073 40078 83500 333 10345 59004 70002 83618==
41951,2023,10,10,15,00,AAXX 10154 41951 02450 30000 10280 20270 30088 40093 83500 333 59012 70000 83618==
41951,2023,10,10,18,00,AAXX 10184 41951 02440 60000 10277 20277 30088 40093 83510 333 59010 70000 83618 85459==
41951,2023,10,10,21,00,AAXX 10214 41951 01440 60000 10273 20270 30086 40091 70522 83510 333 59008 70000 83618 85459==
41951,2023,10,11,00,00,AAXX 11004 41951 01440 60000 10270 20270 30082 40087 70522 83510 333 59008 70000 83618 85459==
41951,2023,10,11,03,00,AAXX 11034 41951 02440 71302 10300 20270 30104 40109 83510 333 20264 59005 70000 83618 86459==
41951,2023,10,11,06,00,AAXX 11064 41951 02456 61302 10320 20260 30094 40099 83510 333 59004 70000 83618 85459==
41951,2023,10,11,09,00,AAXX 11094 41951 02456 60702 10332 20270 30069 40074 83510 333 58003 70000 83618 85459==
41951,2023,10,11,12,00,AAXX 11124 41951 02440 70000 10298 20270 30075 40080 83510 333 10334 58002 70000 83618 86459==
41951,2023,10,11,15,00,AAXX 11154 41951 02440 80000 10283 20260 30096 40101 8452/ 333 58008 70000 84618 88458==
41951,2023,10,11,18,00,AAXX 11184 41951 02440 80000 10270 20260 30096 40101 8452/ 333 58008 70000 84618 88458==
41951,2023,10,11,21,00,AAXX 11214 41951 01440 30000 10265 20265 30097 40102 70520 83500 333 58011 70000 83618==
41951,2023,10,12,00,00,AAXX 12004 41951 01440 30000 10260 20260 30099 40104 70500 83500 333 58007 70000 83618==
41951,2023,10,12,03,00,AAXX 12034 41951 02456 31302 10305 20280 30119 40124 83500 333 20258 58015 70000 83618==
41951,2023,10,12,06,00,AAXX 12064 41951 02440 70503 10317 20260 30115 40120 83510 333 58021 70000 83618 86459==
41951,2023,10,12,09,00,AAXX 12094 41951 02456 31002 10318 20270 30094 40099 83500 333 58025 70000 83618==
41951,2023,10,12,12,00,AAXX 12124 41951 02456 30000 10288 20270 30094 40099 83500 333 10325 58019 70000 83618==
41951,2023,10,12,15,00,AAXX 12154 41951 02340 80000 10275 20270 30123 40128 8562/ 333 58027 70000 81708 84618 88458==
41951,2023,10,12,18,00,AAXX 12184 41951 02450 20000 10266 20250 30118 40123 82500 333 58022 70000 82618==
41951,2023,10,12,21,00,AAXX 12214 41951 02450 30000 10263 20250 30116 40121 83500 333 58019 70000 83618==
41953,2023,10,06,00,00,AAXX 06004 41953 02440 81303 10274 20260 30049 40054 8352/ 333 59010 70020 83616 88458==
41953,2023,10,06,03,00,AAXX 06034 41953 01440 81302 10286 20280 30069 40074 70266 8352/ 333 20265 59008 70030 83616 88458==
41953,2023,10,06,06,00,AAXX 06064 41953 11450 81306 10305 20270 30054 40059 60036 70262 8352/ 333 59007 70030 83616 88458==
41953,2023,10,06,09,00,AAXX 06094 41953 02450 81805 10305 20270 30032 40037 8352/ 333 59002 70030 83616 88458==
41953,2023,10,06,12,00,AAXX 06124 41953 02440 61304 10288 20260 30044 40049 83510 333 10310 58005 70030 83616 85458==
41953,2023,10,06,15,00,AAXX 06154 41953 02440 31304 10276 20270 30062 40067 83500 333 58000 70030 83618==
41953,2023,10,06,18,00,AAXX 06184 41953 02430 31302 10274 20260 30061 40066 83500 333 58003 70030 83618==
41953,2023,10,06,21,00,AAXX 06214 41953 02430 81302 10274 20260 30058 40063 8352/ 333 58003 70030 83616 88458==
41953,2023,10,07,00,00,AAXX 07004 41953 02430 81302 10274 20260 30058 40063 8352/ 333 58003 70030 83616 88458==
41953,2023,10,07,03,00,AAXX 07034 41953 02450 81804 10295 20270 30084 40089 8352/ 333 20268 58015 70000 83616 88458==
41953,2023,10,07,06,00,AAXX 07064 41953 02450 81302 10310 20280 30072 40077 8352/ 333 58019 70000 83616 88458==
41953,2023,10,07,09,00,AAXX 07094 41953 01450 81301 10292 20260 30054 40059 76122 8352/ 333 58022 70010 83616 88458==
41953,2023,10,07,12,00,AAXX 07124 41953 21440 60000 10284 20260 30058 40063 70562 83510 333 10313 58014 60015 70010 83616 84458==
41953,2023,10,07,15,00,AAXX 07154 41953 01940 00000 10276 20270 30083 40088 70520 333 58021 70010==
41953,2023,10,07,18,00,AAXX 07184 41953 01930 00000 10272 20260 30061 40066 70520 333 58021 70010==
41953,2023,10,07,21,00,AAXX 07214 41953 01930 00000 10272 20260 30080 40085 70500 333 58022 70010==
41953,2023,10,08,00,00,AAXX 08004 41953 01440 50000 10270 20270 30080 40085 70520 82510 333 58023 70010 82618 84458==
41953,2023,10,08,03,00,AAXX 08034 41953 01450 81302 10296 20270 30096 40101 70522 8352/ 333 20268 58012 70010 83616 88458==
41953,2023,10,08,06,00,AAXX 08064 41953 02450 81304 10310 20260 30088 40093 8352/ 333 58016 70010 83616 88458==
41953,2023,10,08,09,00,AAXX 08094 41953 02450 61305 10300 20250 30070 40075 83510 333 58016 70000 83616 85458==
41953,2023,10,08,12,00,AAXX 08124 41953 02450 30000 10286 20260 30072 40077 83500 333 10313 58014 70000 83618==
41953,2023,10,08,15,00,AAXX 08154 41953 02940 00000 10278 20260 30095 40100 333 58012 70000==
41953,2023,10,08,18,00,AAXX 08184 41953 42940 00000 10274 20260 30098 40100 333 58017 83618==
41953,2023,10,08,21,00,AAXX 08214 41953 01940 00000 10274 20260 30096 40101 70500 333 58016 70000==
41953,2023,10,09,00,00,AAXX 09004 41953 01440 20000 10272 20260 30095 40100 70510 82500 333 58015 70000 82618==
41953,2023,10,09,03,00,AAXX 09034 41953 01450 30000 10310 20270 30110 40115 70521 83500 333 20270 58016 70000 83618==
41953,2023,10,09,06,00,AAXX 09064 41953 01450 40000 10328 20270 30103 40108 70522 84400 333 58015 70000 82618 83825==
41953,2023,10,09,09,00,AAXX 09094 41953 01450 40000 10334 20260 30072 40077 70522 84400 333 58002 70000 82618 83825==
41953,2023,10,09,12,00,AAXX 09124 41953 01940 00000 10294 20270 30079 40084 70520 333 10336 58007 70000==
41953,2023,10,09,15,00,AAXX 09154 41953 01940 00000 10284 20270 30103 40108 70500 333 58008 70000==
41953,2023,10,09,18,00,AAXX 09184 41953 01940 00000 10280 20270 30103 40108 70500 333 58015 70000==
41953,2023,10,09,21,00,AAXX 09214 41953 01940 00000 10280 20270 30103 40108 70500 333 58007 70000==
41953,2023,10,10,00,00,AAXX 10004 41953 01940 00000 10278 20270 30098 40103 70500 333 58003 70000==
41953,2023,10,10,03,00,AAXX 10034 41953 01450 60000 10306 20270 30117 40122 70520 83510 333 20275 58007 70000 83616 84458==
41953,2023,10,10,06,00,AAXX 10064 41953 02450 60000 10322 20250 30101 40106 82510 333 59002 70000 82616 85458==
41953,2023,10,10,09,00,AAXX 10094 41953 02450 60000 10325 20250 30070 40075 82530 333 59002 70000 82616 85362==
41953,2023,10,10,12,00,AAXX 10124 41953 02440 60000 10295 20270 30074 40079 82530 333 10330 59005 70000 82618 85362==
41953,2023,10,10,15,00,AAXX 10154 41953 01940 00000 10280 20260 30090 40095 70500 333 59013 70000==
41953,2023,10,10,18,00,AAXX 10184 41953 01940 00000 10275 20270 30093 40098 70500 333 59015 70000==
41953,2023,10,10,21,00,AAXX 10214 41953 01940 00000 10270 20260 30085 40090 70500 333 59018 70000==
41953,2023,10,11,00,00,AAXX 11004 41953 01940 00000 10266 20260 30089 40094 70500 333 59009 70000==
41953,2023,10,11,03,00,AAXX 11034 41953 01450 50000 10305 20260 30113 40118 70520 83530 333 20265 59004 70000 83616 85362==
41953,2023,10,11,06,00,AAXX 11064 41953 01450 50000 10326 20250 30097 40102 70520 82530 333 59004 70000 82616 85362==
41953,2023,10,11,09,00,AAXX 11094 41953 01450 50000 10330 20260 30074 40079 70522 82530 333 58004 70000 82616 85362==
41953,2023,10,11,12,00,AAXX 11124 41953 01440 50000 10300 20270 30083 40088 70522 82530 333 10335 58009 70000 82616 85362==
41953,2023,10,11,15,00,AAXX 11154 41953 01930 00000 10285 20270 30100 40105 71044 333 58010 70000==
41953,2023,10,11,18,00,AAXX 11184 41953 01930 00000 10280 20270 30106 40111 71044 333 58013 70000==
41953,2023,10,11,21,00,AAXX 11214 41953 01930 00000 10275 20270 30100 40105 71044 333 58015 70000==
41953,2023,10,12,00,00,AAXX 12004 41953 01930 00000 10275 20270 30104 40109 71044 333 58015 70000==
41953,2023,10,12,03,00,AAXX 12034 41953 02450 60000 10292 20260 30128 40133 83510 333 20274 58015 70000 83616 86458==
41953,2023,10,12,06,00,AAXX 12064 41953 02450 60000 10306 20230 30122 40127 83510 333 58025 70000 83616 86458==
41953,2023,10,12,09,00,AAXX 12094 41953 02450 40000 10310 20250 30098 40103 82530 333 58024 70000 82616 84362==
41953,2023,10,12,12,00,AAXX 12124 41953 02440 40000 10282 20250 30106 40111 82530 333 10315 58023 70000 82616 84362==
41953,2023,10,12,15,00,AAXX 12154 41953 02440 40000 10270 20250 30125 40130 82530 333 58025 70000 82616 84362==
41953,2023,10,12,18,00,AAXX 12184 41953 02440 40000 10265 20260 30128 40133 82530 333 58022 70000 82616 84362==
41953,2023,10,12,21,00,AAXX 12214 41953 02440 40000 10264 20250 30123 40128 82530 333 58023 70000 82616 84362==
41955,2023,10,06,06,00,AAXX 06064 41955 NIL=
41955,2023,10,06,12,00,AAXX 06124 41955 NIL=
41955,2023,10,07,06,00,AAXX 07064 41955 NIL=
41955,2023,10,07,12,00,AAXX 07124 41955 NIL=
41955,2023,10,08,00,00,AAXX 08004 41955 NIL=
41955,2023,10,08,06,00,AAXX 08064 41955 NIL=
41955,2023,10,08,12,00,AAXX 08124 41955 NIL=
41955,2023,10,08,18,00,AAXX 08184 41955 NIL=
41955,2023,10,09,00,00,AAXX 09004 41955 NIL=
41955,2023,10,09,12,00,AAXX 09124 41955 NIL=
41955,2023,10,09,18,00,AAXX 09184 41955 NIL=
41955,2023,10,10,00,00,AAXX 10004 41955 NIL=
41955,2023,10,10,12,00,AAXX 10124 41955 NIL=
41955,2023,10,10,18,00,AAXX 10184 41955 NIL=
41955,2023,10,11,06,00,AAXX 11064 41955 NIL=
41955,2023,10,12,06,00,AAXX 12064 41955 NIL=
41955,2023,10,12,12,00,AAXX 12124 41955 NIL=
41958,2023,10,06,00,00,AAXX 06004 41958 11430 81702 10276 20276 30024 40065 56499 59004 70230 76162 84616 8542/ 88458=
41958,2023,10,06,03,00,AAXX 06034 41958 21440 81701 10280 20280 30045 40047 76166 8542/ 333 20267 56499 59005 6003/ 70260 84616 88458=
41958,2023,10,06,06,00,AAXX 06064 41958 11456 61701 10308 20280 30043 40045 60036 70162 83410 333 56490 58007 70090 83616 85459=
41958,2023,10,06,09,00,AAXX 06094 41958 32456 81701 10320 20270 30021 40023 8442/ 333 56499 58013 70090 84616 88458=
41958,2023,10,06,12,00,AAXX 06124 41958 31450 80000 10294 20270 30024 40026 71722 8592/ 333 10321 56999 58011 70090 84616 81929 88458=
41958,2023,10,06,15,00,AAXX 06154 41958 21440 81701 10278 20270 30043 40045 70262 8542/ 333 56499 59001 6001/ 70100 84616 88458=
41958,2023,10,06,18,00,AAXX 06184 41958 11440 81701 10277 20270 30043 40045 60016 70262 8542/ 333 56499 58020 70100 84616 88458=
41958,2023,10,06,21,00,AAXX 06214 41958 32440 80000 10272 20270 30046 40048 8542/ 333 56999 58020 70100 84616 88458=
41958,2023,10,07,00,00,AAXX 07004 41958 31430 80000 10267 20267 30043 40045 60544 79596 8592/ 333 56999 58019 70580 84616 81929 88458=
41958,2023,10,07,03,00,AAXX 07034 41958 31456 80000 10300 20290 30064 40066 70296 8452/ 333 20257 56999 58019 6003/ 70580 84616 88458=
41958,2023,10,07,06,00,AAXX 07064 41958 11458 62801 10332 20280 30059 40061 60036 70196 85410 333 56990 58016 70580 84616 86459=
41958,2023,10,07,09,00,AAXX 07094 41958 21456 80000 10289 20280 30042 40044 76362 8542/ 333 56499 58021 6011/ 70690 84614 88459=
41958,2023,10,07,12,00,AAXX 07124 41958 11450 60000 10285 20280 30043 40045 60115 70162 85410 333 10330 56490 58019 70690 84616 86459=
41958,2023,10,07,15,00,AAXX 07154 41958 32440 60000 10280 20270 30062 40064 85410 333 56990 58019 70680 84616 86459=
41958,2023,10,07,18,00,AAXX 07184 41958 32435 72701 10275 20275 30069 40071 85410 333 56490 58026 70680 84616 87459=
41958,2023,10,07,21,00,AAXX 07214 41958 32435 70000 10274 20270 30061 40063 85410 333 56990 58015 70680 84616 87459=
41958,2023,10,08,00,00,AAXX 08004 41958 31450 60000 10273 20270 30064 40066 70522 85410 333 56990 58021 70140 84616 86459=
41958,2023,10,08,03,00,AAXX 08034 41958 32457 50000 10313 20280 30081 40083 84410 333 20270 56790 58017 70110 83616 85459=
41958,2023,10,08,06,00,AAXX 08064 41958 32458 42201 10337 20290 30075 40077 84400 333 56700 58016 70110 83617=
41958,2023,10,08,09,00,AAXX 08094 41958 32558 10000 10350 20280 30055 40057 81101 333 56909 58013 70000 81825=
41958,2023,10,08,12,00,AAXX 08124 41958 32550 11803 10294 20260 30062 40064 81101 333 10352 56909 58019 70000 81825=
41958,2023,10,08,15,00,AAXX 08154 41958 32940 01802 10278 20270 30081 40083 333 58019 70000=
41958,2023,10,08,18,00,AAXX 08184 41958 32940 00000 10272 20260 30084 40086 333 58015 70000=
41958,2023,10,09,00,00,AAXX 09004 41958 31930 10000 10274 20260 30082 40084 70500 80001 333 56009 58010 70000 81080=
41958,2023,10,09,03,00,AAXX 09034 41958 32440 21802 10312 20280 30099 40101 82500 333 20270 56400 58018 70000 82617=
41958,2023,10,09,06,00,AAXX 09064 41958 32550 20000 10346 20280 30087 40089 82100 333 56500 58012 70000 82825=
41958,2023,10,09,09,00,AAXX 09094 41958 32557 22601 10350 20290 30060 40062 82100 333 56500 58005 70000 82825=
41958,2023,10,09,12,00,AAXX 09124 41958 32950 32501 10300 20280 30067 40069 80001 333 10352 56009 58005 70000 83080=
41958,2023,10,09,15,00,AAXX 09154 41958 32940 00000 10286 20280 30088 40090 333 58007 70000=
41958,2023,10,09,18,00,AAXX 09184 41958 32940 00000 10280 20270 30091 40093 333 58007 70000=
41958,2023,10,09,21,00,AAXX 09214 41958 31920 00000 10274 20260 30083 40085 71000 333 58002 70000=
41958,2023,10,10,00,00,AAXX 10004 41958 31/06 90000 10272 20270 30088 40090 74740 89/// 333 56999 58006 70000=
41958,2023,10,10,03,00,AAXX 10034 41958 31440 20000 10300 20270 30110 40112 70540 82500 333 20270 56900 58011 70000 82617=
41958,2023,10,10,06,00,AAXX 10064 41958 31557 13301 10348 20280 30089 40091 70140 81100 333 56700 58002 70000 81825=
41958,2023,10,10,09,00,AAXX 10094 41958 32558 10000 10350 20270 30061 40063 81100 333 56700 58001 70000 81825=
41958,2023,10,10,12,00,AAXX 10124 41958 32450 73301 10292 20230 30062 40064 85370 333 10358 56790 59005 70000 83616 81930 86459=
41958,2023,10,10,15,00,AAXX 10154 41958 32940 01501 10280 20250 30084 40086 333 59004 70000=
41958,2023,10,10,18,00,AAXX 10184 41958 32940 00000 10276 20260 30081 40083 333 59010 70000=
41958,2023,10,10,21,00,AAXX 10214 41958 31930 00000 10276 20270 30077 40079 70500 333 59006 70000=
41958,2023,10,11,00,00,AAXX 11004 41958 31412 20000 10276 20276 30080 40082 71000 82500 333 56400 59008 70000 82617=
41958,2023,10,11,06,00,AAXX 11064 41958 32458 30000 10350 20270 30090 40092 83400 333 56900 58001 70000 82617=
41958,2023,10,11,09,00,AAXX 11094 41958 32558 10000 10346 20260 30063 40065 81100 333 56900 58002 70000 81825=
41958,2023,10,11,12,00,AAXX 11124 41958 32950 20000 10300 20270 30071 40073 82030 333 10352 56090 58009 70000 82362=
41958,2023,10,11,15,00,AAXX 11154 41958 32440 21702 10290 20280 30090 40092 82500 333 56300 58006 70000 82617=
41958,2023,10,11,18,00,AAXX 11184 41958 32940 00000 10284 20270 30097 40099 333 58016 70000=
41958,2023,10,11,21,00,AAXX 11214 41958 31930 00000 10272 20270 30093 40095 70500 333 58016 70000=
41958,2023,10,12,00,00,AAXX 12004 41958 31412 10000 10270 20270 30095 40097 71000 81500 333 56400 58015 70000 81617=
41958,2023,10,12,03,00,AAXX 12034 41958 32950 00000 10322 20280 30121 40123 333 20265 58020 70000=
41958,2023,10,12,06,00,AAXX 12064 41958 32458 30000 10340 20260 30108 40110 83500 333 56900 58018 70000 82617=
41958,2023,10,12,09,00,AAXX 12094 41958 32458 30000 10350 20270 30084 40086 83500 333 56900 58021 70000 82617=
41958,2023,10,12,12,00,AAXX 12124 41958 32956 00000 10298 20270 30091 40093 333 10358 58020 70000=
41958,2023,10,12,15,00,AAXX 12154 41958 32950 00000 10289 20270 30107 40109 333 58017 70000=
41958,2023,10,12,18,00,AAXX 12184 41958 32440 30000 10283 20270 30113 40115 83500 333 56900 58016 70000 82617=
41958,2023,10,12,21,00,AAXX 12214 41958 31920 00000 10274 20270 30111 40113 71000 333 58018 70000=
41960,2023,10,06,00,00,AAXX 06004 41960 01/40 61802 10278 20270 30046 40048 70522 86070 333 59004 70072 83460 84364==
41960,2023,10,06,03,00,AAXX 06034 41960 01340 81802 10297 20280 30065 40066 70522 8662/ 333 20273 59007 70000 82709 84615 88459==
41960,2023,10,06,06,00,AAXX 06064 41960 01450 82702 10320 20270 30058 40060 71722 8592/ 333 59003 70000 84618 88459 81929==
41960,2023,10,06,09,00,AAXX 06094 41960 41330 81504 10300 20270 30034 40035 76122 8672/ 333 59001 82708 84616 88458==
41960,2023,10,06,12,00,AAXX 06124 41960 21430 80000 10290 20280 30044 40045 70262 8542/ 333 10330 58010 60005 84617 88459==
41960,2023,10,06,15,00,AAXX 06154 41960 41440 50000 10283 20270 30063 40064 70522 85410 333 58005 83617 85460==
41960,2023,10,06,18,00,AAXX 06184 41960 41440 60000 10282 20270 30062 40063 70522 85410 333 58013 83618 86459==
41960,2023,10,06,21,00,AAXX 06214 41960 41440 40000 10280 20270 30063 40064 70521 84410 333 58016 82618 83460==
41960,2023,10,07,00,00,AAXX 07004 41960 41440 30000 10279 20270 30061 40062 70520 83400 333 58015 82618==
41960,2023,10,07,03,00,AAXX 07034 41960 41440 60000 10285 20280 30083 40084 70522 84410 333 20275 58018 83618 86459==
41960,2023,10,07,06,00,AAXX 07064 41960 41450 71802 10320 20270 30074 40076 71792 85910 333 58016 83618 87459 81930==
41960,2023,10,07,09,00,AAXX 07094 41960 01450 60000 10273 20260 30057 40059 70196 84410 333 58023 70160 83618 86459==
41960,2023,10,07,12,00,AAXX 07124 41960 11440 40000 10283 20270 30059 40060 60166 70596 84401 333 10322 58015 70160 83618 83080==
41960,2023,10,07,15,00,AAXX 07154 41960 01430 40000 10276 20276 30086 40088 70522 84400 333 58023 70160 83618==
41960,2023,10,07,18,00,AAXX 07184 41960 01420 40000 10272 20270 30081 40082 70522 84400 333 58019 70160 83618==
41960,2023,10,07,21,00,AAXX 07214 41960 01435 50000 10267 20267 30082 40084 70522 85410 333 58019 70160 84618 85460==
41960,2023,10,08,00,00,AAXX 08004 41960 01435 60000 10262 20262 30082 40084 70522 86410 333 58021 70160 84618 83822 85460==
41960,2023,10,08,03,00,AAXX 08034 41960 01450 60000 10300 20280 30096 40097 70522 84410 333 20260 58013 70160 83618 86459==
41960,2023,10,08,06,00,AAXX 08064 41960 02456 40000 10293 20250 30088 40090 84410 333 58014 70160 83618==
41960,2023,10,08,09,00,AAXX 08094 41960 02456 60000 10296 20280 30073 40074 84410 333 58016 70000 83617 86459==
41960,2023,10,08,12,00,AAXX 08124 41960 02450 60000 10289 20280 30073 40074 84410 333 10329 58014 70000 83618 86459==
41960,2023,10,08,15,00,AAXX 08154 41960 01430 30000 10280 20270 30097 40099 70522 83400 333 58011 70000 82618==
41960,2023,10,08,18,00,AAXX 08184 41960 01925 00000 10275 20275 30095 40097 70520 333 58014 70000==
41960,2023,10,08,21,00,AAXX 08211 41960 01920 00000 10272 20272 30094 40096 71000 333 58012 70000==
41960,2023,10,09,00,00,AAXX 09004 41960 01/15 10000 10270 20270 30091 40094 71000 81030 333 58010 70000 81365==
41960,2023,10,09,03,00,AAXX 09034 41960 01450 60000 10305 20290 30110 40112 70520 84410 333 20266 58014 70000 83618 86459==
41960,2023,10,09,06,00,AAXX 09064 41960 02456 30000 10335 20270 30102 40104 82430 333 58014 70000 81618 83362==
41960,2023,10,09,09,00,AAXX 09094 41960 01450 31802 10340 20270 30074 40076 70500 83400 333 58001 70000 82618==
41960,2023,10,09,12,00,AAXX 09124 41960 01430 80000 10300 20290 30077 40079 76121 8542/ 333 10352 58004 70000 84617 88459==
41960,2023,10,09,15,00,AAXX 09154 41960 41430 70000 10290 20280 30093 40095 70522 84410 333 59006 83618 87459==
41960,2023,10,09,18,00,AAXX 09184 41960 41920 00000 10281 20280 30098 40100 70520 333 58003==
41960,2023,10,09,21,00,AAXX 09214 41960 41915 00000 10276 20276 30098 40100 71000 333 58004==
41960,2023,10,10,00,00,AAXX 10004 41960 41915 00000 10272 20272 30098 40099 71000 333 58006==
41960,2023,10,10,03,00,AAXX 10034 41960 41430 50000 10290 20270 30116 40118 70520 85400 333 20270 58006==
41960,2023,10,10,06,00,AAXX 10064 41960 42450 40000 10330 20270 30103 40105 84400 333 58001 83618==
41960,2023,10,10,09,00,AAXX 10094 41960 44110 23601 10332 20250 30073 40075 70500 82400 333 59001 81618==
41960,2023,10,10,12,00,AAXX 10124 41960 01440 20000 10303 20280 30074 40076 70500 82400 333 10340 59003 70000 81618==
41960,2023,10,10,15,00,AAXX 10154 41960 01930 00000 10286 20280 30094 40096 70500 333 58001 70000==
41960,2023,10,10,18,00,AAXX 10184 41960 01930 00000 10281 20270 30095 40097 70500 333 59003 70000==
41960,2023,10,10,21,00,AAXX 10214 41960 01435 82802 10274 20250 30093 40095 70520 8642/ 333 59005 70000 84616 83822 88459==
41960,2023,10,11,00,00,AAXX 11004 41960 01340 82703 10267 20240 30092 40094 71796 8692/ 333 59006 70001 82709 84614 88458 82928==
41960,2023,10,11,03,00,AAXX 11034 41960 01440 80000 10263 20260 30112 40114 70596 8542/ 333 20250 59004 70271 84616 88459==
41960,2023,10,11,06,00,AAXX 11064 41960 11456 30000 10324 20270 30097 40099 60276 70196 82410 333 59006 70271 81618 83459==
41960,2023,10,11,09,00,AAXX 11094 41960 02456 30000 10333 20260 30076 40078 83400 333 58003 70271 82618==
41960,2023,10,11,12,00,AAXX 11124 41960 01450 80000 10283 20250 30082 40084 70362 8542/ 333 10337 58008 70020 84616 88458==
41960,2023,10,11,15,00,AAXX 11154 41960 01440 40000 10272 20260 30110 40112 70522 84400 333 58016 70293 83618==
41960,2023,10,11,18,00,AAXX 11184 41960 01430 40000 10272 20270 30102 40104 70522 84400 333 58007 70293 83618==
41960,2023,10,11,21,00,AAXX 11214 41960 01920 30000 10270 20270 30104 40106 71010 83400 333 58011 70293 82618==
41960,2023,10,12,00,00,AAXX 12004 41960 01920 30000 10268 20268 30106 40108 71010 83400 333 58014 70292 82618==
41960,2023,10,12,03,00,AAXX 12034 41960 01440 60000 10300 20280 30131 40133 70522 84410 333 20260 58019 70022 83618 86459==
41960,2023,10,12,06,00,AAXX 12064 41960 02450 40000 10325 20290 30120 40122 84400 333 58023 70022 83618==
41960,2023,10,12,09,00,AAXX 12094 41960 01440 40000 10320 20270 30096 40098 70511 84400 333 58020 70022 82618==
41960,2023,10,12,12,00,AAXX 12124 41960 01320 81806 10240 20220 30105 40106 79596 8692/ 333 10335 58023 70110 82708 84616 88458 81928==
41960,2023,10,12,15,00,AAXX 12154 41960 01430 30000 10258 20258 30127 40128 70522 83400 333 58017 72618==
41960,2023,10,12,18,00,AAXX 12184 41960 01930 00000 10258 20258 30123 40124 70520 333 58021 70108==
41960,2023,10,12,21,00,AAXX 12214 41960 01430 30000 10258 20258 30125 40126 71000 82410 333 58021 70108 81617 83460==
41963,2023,10,06,00,00,AAXX 06004 41963 02556 30000 10272 20270 30049 40052 81230 333 59007 70270 81825 83363==
41963,2023,10,06,03,00,AAXX 06034 41963 02456 61804 10310 20270 30071 40074 84430 333 20264 59006 70000 83617 84363==
41963,2023,10,06,06,00,AAXX 06064 41963 02456 61604 10315 20260 30056 40058 83550 333 59003 70000 83617 84363==
41963,2023,10,06,09,00,AAXX 06094 41963 02456 41803 10308 20270 30037 40040 82540 333 59001 70000 82617 83363==
41963,2023,10,06,12,00,AAXX 06124 41963 02556 30000 10290 20270 30047 40050 81160 333 10310 58008 70000 81825 83362==
41963,2023,10,06,15,00,AAXX 06154 41963 02450 40000 10275 20260 30063 40066 81560 333 58002 70000 81618 84363==
41963,2023,10,06,18,00,AAXX 06184 41963 02450 40000 10272 20270 30066 40069 81530 333 58007 70000 81618 84363==
41963,2023,10,06,21,00,AAXX 06214 41963 02/50 40000 10273 20270 30066 40069 84030 333 58012 70000 84362==
41963,2023,10,07,00,00,AAXX 07004 41963 02456 50000 10268 20268 30069 40072 82540 333 58020 70000 82618 84362==
41963,2023,10,07,03,00,AAXX 07034 41963 02456 31802 10302 20270 30083 40086 83500 333 20265 58012 70000 83618==
41963,2023,10,07,06,00,AAXX 07064 41963 02456 51602 10313 20270 30076 40079 82530 333 58020 70000 82617 83362==
41963,2023,10,07,09,00,AAXX 07094 41963 02/56 32102 10314 20260 30056 40059 83060 333 58019 70000 83362==
41963,2023,10,07,12,00,AAXX 07124 41963 02/50 30000 10290 20260 30065 40068 83040 333 10325 58018 70000 83363==
41963,2023,10,07,15,00,AAXX 07154 41963 02950 00000 10275 20260 30085 40088 333 58022 70000==
41963,2023,10,07,21,00,AAXX 07214 41963 02/50 20000 10272 20272 30081 40084 82030 333 58015 70000 82363==
41963,2023,10,08,00,00,AAXX 08004 41963 02556 40000 10270 20270 30079 40082 81140 333 58010 70000 81825 84362==
41963,2023,10,08,03,00,AAXX 08034 41963 02456 81604 10300 20280 30096 40099 8351/ 333 20265 58013 70000 83617 88459==
41963,2023,10,08,06,00,AAXX 08064 41963 11456 60000 10290 20280 30087 40089 60042 72162 83570 333 58011 70040 83617 85458==
41963,2023,10,08,09,00,AAXX 08094 41963 01/56 40000 10294 20270 30068 40071 70162 84060 333 58015 70170 84363==
41963,2023,10,08,12,00,AAXX 08124 41963 11/56 40000 10284 20270 30075 40078 60136 70262 84060 333 10320 58010 70170 84363==
41963,2023,10,08,15,00,AAXX 08154 41963 01950 00000 10275 20275 30095 40097 70500 333 58010 70170==
41963,2023,10,08,18,00,AAXX 08184 41963 01950 00000 10272 20272 30091 40093 70500 333 58008 70170==
41963,2023,10,08,21,00,AAXX 08211 41963 02/50 20000 10272 20270 30089 40091 82030 333 58008 70170 82363==
41963,2023,10,09,00,00,AAXX 09004 41963 02556 40000 10270 20270 30092 40095 82140 333 58013 70170 82825 83363==
41963,2023,10,09,03,00,AAXX 09034 41963 02456 40000 10305 20270 30113 40115 84400 333 20260 58017 70170 82617==
41963,2023,10,09,06,00,AAXX 09064 41963 02456 40000 10322 20270 30097 40100 84400 333 58010 70130 81617 83825==
41963,2023,10,09,09,00,AAXX 09094 41963 02456 30000 10310 20270 30080 40082 83400 333 58012 70000 83616==
41963,2023,10,09,12,00,AAXX 09124 41963 02/56 20000 10290 20280 30079 40082 82030 333 10318 58004 70000 82363==
41963,2023,10,09,15,00,AAXX 09154 41963 01940 00000 10278 20278 30105 40107 70500 333 58010 70000==
41963,2023,10,09,18,00,AAXX 09184 41963 NIL=
41963,2023,10,09,21,00,AAXX 09214 41963 01930 00000 10272 20272 30097 40100 71000 333 58006 70000==
41963,2023,10,10,00,00,AAXX 10004 41963 01920 20000 10266 20266 30098 40100 71010 82500 333 58006 70000 82618==
41963,2023,10,10,03,00,AAXX 10034 41963 02456 30000 10304 20280 30114 40117 83400 333 20260 58031 70000 82617==
41963,2023,10,10,06,00,AAXX 10064 41963 02456 21302 10310 20270 30096 40099 82500 333 59001 70000 82618==
41963,2023,10,10,09,00,AAXX 10094 41963 02956 00000 10320 20270 30073 40075 333 59007 70000==
41963,2023,10,10,12,00,AAXX 10124 41963 02/50 20000 10290 20280 30075 40078 82030 333 10323 59004 70000 82363==
41963,2023,10,10,15,00,AAXX 10154 41963 01940 00000 10275 20270 30090 40092 70500 333 59015 70000==
41963,2023,10,10,18,00,AAXX 10184 41963 NIL=
41963,2023,10,10,21,00,AAXX 10214 41963 01930 00000 10268 20268 30087 40089 71000 333 59008 70000==
41963,2023,10,11,00,00,AAXX 11004 41963 01903 00000 10265 20265 30087 40089 74244 333 59011 70000==
41963,2023,10,11,03,00,AAXX 11034 41963 01456 10000 10310 20260 30115 40117 70342 81500 333 20260 58001 70000 81618==
41963,2023,10,11,06,00,AAXX 11064 41963 02/56 20000 10318 20270 30092 40094 82060 333 59004 70000 82362==
41963,2023,10,11,09,00,AAXX 11094 41963 02956 00000 10310 20270 30075 40077 333 58002 70000==
41963,2023,10,11,12,00,AAXX 11124 41963 01940 00000 10290 20280 30083 40086 70500 333 10324 58008 70000==
41963,2023,10,11,18,00,AAXX 11184 41963 01940 00000 10278 20270 30106 40109 70500 333 58018 70000==
41963,2023,10,11,21,00,AAXX 11214 41963 02/50 30000 10270 20260 30108 40110 82030 333 58021 70000 82363==
41963,2023,10,12,00,00,AAXX 12004 41963 02/56 50000 10264 20260 30112 40115 85070 333 58025 70000 84458==
41963,2023,10,12,03,00,AAXX 12034 41963 01456 80000 10280 20260 30132 40134 70392 8341/ 333 20260 58017 70000 82616 88459==
41963,2023,10,12,06,00,AAXX 12064 41963 02456 81302 10300 20260 30118 40120 8341/ 333 58026 70000 82616 88459==
41963,2023,10,12,09,00,AAXX 12094 41963 02956 01602 10298 20260 30099 40102 333 58024 70000==
41963,2023,10,12,12,00,AAXX 12124 41963 02556 40000 10273 20260 30107 40109 82160 333 10304 58024 70000 82825 83363==
41963,2023,10,12,15,00,AAXX 12154 41963 01940 00000 10262 20260 30119 40122 70500 333 58022 70000==
41963,2023,10,12,21,00,AAXX 12214 41963 01940 00000 10257 20257 30124 40127 70500 333 58016 70000==
41964,2023,10,06,00,00,AAXX 06004 41964 01330 81706 10274 20260 30043 40045 79562 8732/ 333 59018 70080 84707 84616 88482 81928==
41964,2023,10,06,03,00,AAXX 06034 41964 01350 81404 10276 20270 30068 40070 76196 8772/ 333 20252 59007 71104 84708 84616 88458==
41964,2023,10,06,06,00,AAXX 06064 41964 21356 81404 10290 20270 30056 40058 70296 8562/ 333 58000 60208 70522 83709 83617 88460==
41964,2023,10,06,12,00,AAXX 06124 41964 02356 71501 10281 20270 30041 40044 85610 333 10306 58007 70510 83709 83617 85460==
41964,2023,10,06,15,00,AAXX 06154 41964 02456 61803 10281 20270 30057 40059 85510 333 59004 70330 85618 83460==
41964,2023,10,06,18,00,AAXX 06184 41964 02456 21802 10276 20270 30058 40060 82500 333 58009 70280 82618==
41964,2023,10,06,21,00,AAXX 06214 41964 02456 50000 10273 20260 30056 40058 85500 333 58010 70280 85618==
41964,2023,10,07,00,00,AAXX 07004 41964 01356 82101 10272 20260 30055 40057 72122 8772/ 333 58012 70002 83708 85616 88458==
41964,2023,10,07,03,00,AAXX 07034 41964 02356 72303 10304 20260 30077 40079 85610 333 20263 58009 70002 83709 83617 86459==
41964,2023,10,07,06,00,AAXX 07064 41964 02557 72103 10318 20270 30068 40071 85431 333 58012 70002 84620 85362==
41964,2023,10,07,09,00,AAXX 07094 41964 02557 72101 10302 20270 30053 40056 85431 333 58009 70002 84620 85362==
41964,2023,10,07,12,00,AAXX 07124 41964 02/57 50000 10285 20270 30053 40056 82031 333 10326 59012 70002 82362 83080==
41964,2023,10,07,15,00,AAXX 07154 41964 02/56 40000 10276 20270 30078 40080 83031 333 58021 70002 83362==
41964,2023,10,07,18,00,AAXX 07184 41964 02456 21801 20270 30075 40077 82500 333 58017 70002 82618==
41964,2023,10,07,21,00,AAXX 07214 41964 02456 60000 10271 20260 30073 40075 84530 333 58017 70002 84618 84362==
41964,2023,10,08,00,00,AAXX 08004 41964 02456 60000 10269 20269 30071 40073 85530 333 58016 70000 85618 83362==
41964,2023,10,08,03,00,AAXX 08034 41964 02356 81603 10294 20260 30090 40092 8662/ 333 20262 58013 70000 84709 85617 88460==
41964,2023,10,08,06,00,AAXX 08064 41964 02557 72103 10311 20260 30087 40089 86410 333 58019 70000 84620 83825 85460==
41964,2023,10,08,09,00,AAXX 08094 41964 02557 71901 10310 20270 30068 40071 56490 86410 333 58015 70000 84620 83825 85460==
41964,2023,10,08,12,00,AAXX 08124 41964 02457 51802 10285 20270 30067 40070 82532 333 10320 58014 70000 82618 83362==
41964,2023,10,08,15,00,AAXX 08154 41964 02456 40000 10283 20260 30091 40093 83510 333 58013 70000 83618==
41964,2023,10,08,18,00,AAXX 08184 41964 02456 12101 10274 20260 30090 40092 81500 333 58015 70000 81618==
41964,2023,10,08,21,00,AAXX 08211 41964 02556 71801 10270 20260 30087 40089 85410 333 58014 70000 84620 86460==
41964,2023,10,09,00,00,AAXX 09004 41964 01356 81402 10264 20264 30086 40088 70362 8662/ 333 58015 70020 82709 85617 88460==
41964,2023,10,09,03,00,AAXX 09034 41964 42456 81502 10277 20260 30106 40109 8652/ 333 20258 58016 85617 88460==
41964,2023,10,09,06,00,AAXX 09064 41964 02557 41602 10323 20270 30099 40101 84400 333 58012 70016 83622==
41964,2023,10,09,09,00,AAXX 09094 41964 02457 20000 10320 20270 30082 40085 82500 333 58017 70016 82618==
41964,2023,10,09,12,00,AAXX 09124 41964 02/56 20000 10288 20280 30072 40075 82030 333 10331 58005 70016 82362==
41964,2023,10,09,15,00,AAXX 09154 41964 02/56 10000 10277 20270 30096 40098 81030 333 58005 70016 81362==
41964,2023,10,09,18,00,AAXX 09184 41964 01956 00000 10272 20272 30093 40095 70511 333 58003 70016==
41964,2023,10,09,21,00,AAXX 09214 41964 01440 40000 10270 20270 30090 40092 70511 82510 333 58003 70016 82618 83460==
41964,2023,10,10,00,00,AAXX 10004 41964 01440 60000 10272 20272 30088 40090 70511 84510 333 58002 70000 84618 84460==
41964,2023,10,10,03,00,AAXX 10034 41964 01450 60902 10310 20300 30107 40109 70522 84510 333 20260 58001 70000 84618 83460==
41964,2023,10,10,06,00,AAXX 10064 41964 02456 61302 10326 20270 30094 40096 85410 333 59005 70000 84618 84460==
41964,2023,10,10,09,00,AAXX 10094 41964 02456 60000 10328 20270 30066 40069 85410 333 59016 70000 84618 84460==
41964,2023,10,10,12,00,AAXX 10124 41964 02956 30000 10291 20280 30068 40071 80001 333 10333 59004 70000 83080==
41964,2023,10,10,15,00,AAXX 10154 41964 01950 00000 10275 20270 30085 40088 70511 333 59011 70000==
41964,2023,10,10,18,00,AAXX 10184 41964 01950 00000 10268 20268 30085 40087 70510 333 59008 70000==
41964,2023,10,10,21,00,AAXX 10214 41964 01920 00000 10264 20264 30083 40085 71000 333 59007 70000==
41964,2023,10,11,00,00,AAXX 11004 41964 01910 00000 10263 20263 30081 40083 71040 333 59007 70000==
41964,2023,10,11,03,00,AAXX 11034 41964 01556 50000 10310 20270 30104 40106 70542 85400 333 20256 59003 70000 84620==
41964,2023,10,11,06,00,AAXX 11064 41964 01556 71402 10323 20270 30090 40092 70342 86410 333 59004 70000 85620 83460==
41964,2023,10,11,09,00,AAXX 11094 41964 02456 20000 10315 20280 30080 40083 82500 333 58014 70000 82618==
41964,2023,10,11,12,00,AAXX 11124 41964 02456 40000 10286 20280 30078 40081 81510 333 10336 58010 70000 81618 84460==
41964,2023,10,11,15,00,AAXX 11154 41964 01/56 30000 10278 20270 30097 40099 70511 83010 333 58012 70000 83460==
41964,2023,10,11,18,00,AAXX 11184 41964 01/56 50000 10278 20270 30100 40102 70511 85010 333 58015 70000 85460==
41964,2023,10,11,21,00,AAXX 11214 41964 02456 70000 10273 20260 30098 40100 83510 333 58015 70000 83618 86460==
41964,2023,10,12,00,00,AAXX 12004 41964 02556 80000 10267 20267 30095 40097 8442/ 333 58014 70000 83620 88460==
41964,2023,10,12,03,00,AAXX 12034 41964 41356 81801 10278 20270 30124 40126 72122 8662/ 333 20261 58020 82709 85617 88460==
41964,2023,10,12,06,00,AAXX 12064 41964 21357 81402 10302 20240 30118 40120 70262 8632/ 333 58028 60005 82709 85618 88460 81930==
41964,2023,10,12,09,00,AAXX 12094 41964 42457 50000 10300 20240 30105 40108 82510 333 58025 82618 84460==
41964,2023,10,12,12,00,AAXX 12124 41964 42/56 50000 10274 20250 30101 40103 82032 333 10311 58023 82362 83080==
41964,2023,10,12,15,00,AAXX 12154 41964 42/56 10000 10263 20250 30119 40121 81030 333 58022 81362==
41964,2023,10,12,18,00,AAXX 12184 41964 42456 10000 10260 20250 30118 40121 81500 333 58018 81618==
41964,2023,10,12,21,00,AAXX 12214 41964 42450 60000 10258 20258 30116 40119 84510 333 58018 84618 85460==
41965,2023,10,06,00,00,AAXX 06004 41965 01440 80000 10260 20230 30057 40066 76162 8461/ 333 59010 70090 83618 81710 88456==
41965,2023,10,06,03,00,AAXX 06034 41965 01440 81402 10290 20255 30071 40080 76166 8461/ 333 59010 70430 81710 83618 88456==
41965,2023,10,06,06,00,AAXX 06064 41965 11450 80000 10290 20220 30060 40069 60096 70262 8461/ 333 59007 70390 81710 83618 88456==
41965,2023,10,06,12,00,AAXX 06124 41965 02440 50000 10310 20230 30047 40056 84410 333 58005 70180 83618 84460==
41965,2023,10,07,00,00,AAXX 07004 41965 01440 30000 10260 20230 30065 40074 70542 83600 333 58008 70090 83618==
41965,2023,10,07,03,00,AAXX 07034 41965 02456 31402 10310 20254 30083 40092 83600 333 58012 70020 83618==
41965,2023,10,07,06,00,AAXX 07064 41965 02456 31301 10320 20220 30066 40075 83600 333 58006 70000 83618==
41965,2023,10,07,09,00,AAXX 07094 41965 02456 31402 10312 20230 30049 40058 83600 333 58016 70000 83618==
41965,2023,10,07,12,00,AAXX 07124 41965 02440 30000 10332 20240 30058 40067 83600 333 58011 70000 83618==
41965,2023,10,08,00,00,AAXX 08004 41965 01440 30000 10260 20230 30082 40091 70542 83600 333 58017 70000 83618==
41965,2023,10,08,03,00,AAXX 08034 41965 01450 33102 10295 20255 30096 40105 70542 83600 333 58013 70000 83618==
41965,2023,10,08,06,00,AAXX 08064 41965 02450 51402 10310 20240 30087 40096 84410 333 58021 70000 83618 84460==
41965,2023,10,08,09,00,AAXX 08094 41965 02456 50000 10318 20230 30066 40075 84410 333 58017 70000 83618 84460==
41965,2023,10,08,12,00,AAXX 08124 41965 02450 30000 10325 20220 30070 40079 83600 333 58012 70000 83618==
41965,2023,10,08,18,00,AAXX 08184 41965 NIL=
41965,2023,10,09,00,00,AAXX 09004 41965 01440 30000 10260 20230 30090 40099 70542 83600 333 58008 70000 83618==
41965,2023,10,09,03,00,AAXX 09034 41965 01450 50000 10290 20254 30112 40120 70542 83600 333 58016 70000 83618==
41965,2023,10,09,06,00,AAXX 09064 41965 02456 30000 10300 20210 30097 40106 83600 333 58010 70000 83618==
41965,2023,10,09,09,00,AAXX 09094 41965 02456 33102 10320 20230 30071 40080 83600 333 58005 70000 83618==
41965,2023,10,09,12,00,AAXX 09124 41965 02440 30000 10270 20240 30083 40092 83600 333 10340 58013 70000 83618==
41965,2023,10,09,18,00,AAXX 09184 41965 NIL=
41965,2023,10,10,00,00,AAXX 10004 41965 01940 00000 10270 20250 30104 40113 70500 333 58014 70000==
41965,2023,10,10,03,00,AAXX 10034 41965 01450 30000 10315 20230 30112 40121 70542 83600 333 20253 58000 70000 83618==
41965,2023,10,10,06,00,AAXX 10064 41965 02450 81403 10330 20220 30093 40102 8461/ 333 59004 70000 83618 88460==
41965,2023,10,10,09,00,AAXX 10094 41965 02456 50000 10335 20230 30063 40072 84410 333 59008 70000 83618 84460==
41965,2023,10,10,12,00,AAXX 10124 41965 01440 30000 10285 20230 30071 40080 70542 83600 333 10348 59012 70000 83618==
41965,2023,10,10,18,00,AAXX 10184 41965 NIL=
41965,2023,10,11,00,00,AAXX 11004 41965 01930 00000 10250 20220 30087 40096 71000 333 59017 70000==
41965,2023,10,11,03,00,AAXX 11034 41965 01950 00000 10315 20230 30110 40119 70500 333 20248 59002 70000==
41965,2023,10,11,06,00,AAXX 11064 41965 01450 33102 10305 20220 30092 40101 70542 83600 333 59001 70000 83618==
41965,2023,10,11,09,00,AAXX 11094 41965 01450 30000 10330 20220 30067 40076 70542 83600 333 58004 70000==
41965,2023,10,11,12,00,AAXX 11124 41965 01440 30000 10290 20240 30078 40086 70542 83600 333 10353 58007 70000 83618==
41965,2023,10,11,15,00,AAXX 11154 41965 01940 00000 10275 20240 30099 40107 71000 333 58024 70000==
41965,2023,10,12,00,00,AAXX 12004 41965 01440 30000 10265 20240 30114 40123 70542 83600 333 58027 70000 83618==
41965,2023,10,12,03,00,AAXX 12034 41965 01450 31402 10275 20230 30129 40137 70542 83600 333 20248 58017 70000 83618==
41965,2023,10,12,06,00,AAXX 12064 41965 01450 50000 10300 20200 30116 40125 70542 84410 333 58024 70000 83618 84460==
41965,2023,10,12,09,00,AAXX 12094 41965 01450 51401 10305 20230 30095 40103 70542 84410 333 58028 70000 83618 84460==
41965,2023,10,12,12,00,AAXX 12124 41965 01440 51001 10280 20230 30102 40110 70542 83600 333 10320 58024 70000 83618==
41966,2023,10,06,00,00,AAXX 06004 41966 02440 61801 10265 20230 39983 40063 83510 333 59012 70036 83616 85460==
41966,2023,10,06,03,00,AAXX 06034 41966 02450 71301 10285 20220 30013 40091 83510 333 20258 59009 70036 83616 86460==
41966,2023,10,06,06,00,AAXX 06064 41966 01340 82001 10278 20250 30003 40081 76162 8472/ 333 58001 70020 82709 83615 88460==
41966,2023,10,06,09,00,AAXX 06094 41966 01450 71501 10295 20220 39981 40059 70162 83510 333 58007 70070 83616 86460==
41966,2023,10,06,12,00,AAXX 06124 41966 11440 60000 10280 20240 39978 40057 60026 70162 83510 333 10300 59001 70044 83616 85460==
41966,2023,10,06,15,00,AAXX 06154 41966 02430 60000 10276 20250 39987 40065 83510 333 59004 70044 83616 85460==
41966,2023,10,06,18,00,AAXX 06184 41966 02420 60000 10270 20240 39998 40077 83510 333 59005 70044 83616 85460==
41966,2023,10,06,21,00,AAXX 06214 41966 02420 50000 10265 20240 39995 40075 82510 333 59005 70004 82616 84460==
41966,2023,10,07,00,00,AAXX 07004 41966 02440 50000 10265 20240 39996 40075 82510 333 59012 70044 82616 84460==
41966,2023,10,07,03,00,AAXX 07034 41966 02550 40901 10305 20230 30007 40084 82130 333 20250 59007 70044 82826 83362==
41966,2023,10,07,06,00,AAXX 07064 41966 02550 41201 10330 20170 30004 40081 82130 333 58007 70024 82826 83362==
41966,2023,10,07,09,00,AAXX 07094 41966 02550 41701 10335 20220 39978 40055 82130 333 59004 70000 82826 83362==
41966,2023,10,07,12,00,AAXX 07124 41966 02440 40901 10285 20220 39984 40063 82510 333 10338 59006 70000 82616 83460==
41966,2023,10,07,15,00,AAXX 07154 41966 02430 60000 10278 20240 39988 40067 83510 333 58003 70000 83616 85460==
41966,2023,10,07,21,00,AAXX 07214 41966 02420 50000 10260 20230 30008 40088 82510 333 58014 70000 82616 84460==
41966,2023,10,08,00,00,AAXX 08004 41966 02430 50000 10250 20230 30011 40090 82510 333 58015 70000 82616 84460==
41966,2023,10,08,03,00,AAXX 08034 41966 02550 40901 10290 20240 30026 40105 82130 333 20242 58021 70000 82826 83362==
41966,2023,10,08,06,00,AAXX 08064 41966 02450 50000 10320 20210 30017 40095 82510 333 58014 70000 82616 84460==
41966,2023,10,08,09,00,AAXX 08094 41966 02450 51201 10315 20240 30008 40085 83510 333 58030 70000 83616 84460==
41966,2023,10,08,12,00,AAXX 08124 41966 02430 40000 10280 20230 30006 40085 82510 333 10325 58022 70000 82616 83460==
41966,2023,10,08,15,00,AAXX 08154 41966 02420 40000 10275 20240 30012 40090 82510 333 58023 70000 82616 83460==
41966,2023,10,08,18,00,AAXX 08184 41966 02420 40000 10270 20240 30018 40097 82510 333 58012 70000 82616 83460==
41966,2023,10,08,21,00,AAXX 08211 41966 02420 40000 10260 20230 30016 40096 82510 333 58008 70000 82616 83460==
41966,2023,10,09,00,00,AAXX 09004 41966 02430 40000 10251 20220 30024 40104 82510 333 58014 70000 82616 83460==
41966,2023,10,09,03,00,AAXX 09034 41966 02450 51801 10305 20220 30041 40119 82510 333 20246 58014 70000 82616 84460==
41966,2023,10,09,06,00,AAXX 09064 41966 02450 51301 10310 20210 30030 40108 82510 333 58013 70000 82616 84460==
41966,2023,10,09,09,00,AAXX 09094 41966 02550 40000 10320 20210 30010 40088 82130 333 58003 70000 82826 83362==
41966,2023,10,09,12,00,AAXX 09124 41966 02540 40000 10290 20240 30008 40086 82130 333 10325 58001 70000 82826 83362==
41966,2023,10,09,15,00,AAXX 09154 41966 02530 40000 10280 20250 30015 40093 82130 333 58003 70000 82826 83362==
41966,2023,10,09,18,00,AAXX 09184 41966 NIL=
41966,2023,10,09,21,00,AAXX 09214 41966 02420 60000 10260 20230 30020 40100 82510 333 58004 70000 82616 85460==
41966,2023,10,10,00,00,AAXX 10004 41966 02430 60000 10251 20220 30022 40101 82510 333 59003 70000 82616 85460==
41966,2023,10,10,03,00,AAXX 10034 41966 02450 50401 10300 20230 30042 40120 82510 333 20246 58001 70000 82616 84460==
41966,2023,10,10,06,00,AAXX 10064 41966 02550 40201 10330 20170 30030 40108 82130 333 58000 70000 82826 83362==
41966,2023,10,10,12,00,AAXX 10124 41966 42430 40000 10290 20250 30008 40086 82510 333 10335 58000 82616 83460==
41966,2023,10,10,15,00,AAXX 10154 41966 02420 40000 10280 20250 30018 40096 82510 333 58003 70000 82616 83460==
41966,2023,10,10,18,00,AAXX 10184 41966 NIL=
41966,2023,10,10,21,00,AAXX 10214 41966 02420 50000 10260 20230 30018 40097 82510 333 59003 70000 82616 84460==
41966,2023,10,11,00,00,AAXX 11004 41966 02430 50000 10256 20230 30017 40096 82510 333 59005 70000 82616 84460==
41966,2023,10,11,03,00,AAXX 11034 41966 02440 41501 10305 20260 30049 40127 82510 333 20250 58007 70000 82616 83460==
41966,2023,10,11,06,00,AAXX 11064 41966 02450 50201 10330 20200 30030 40108 82510 333 58000 70000 82616 84460==
41966,2023,10,11,09,00,AAXX 11094 41966 02450 50000 10335 20190 30008 40085 82510 333 58009 70000 82616 84460==
41966,2023,10,11,12,00,AAXX 11124 41966 02440 41201 10288 20240 30013 40091 82510 333 10340 58005 70000 82616 83460==
41966,2023,10,11,15,00,AAXX 11154 41966 42430 40000 10278 20250 30018 40096 82510 333 58000 82616 83460==
41966,2023,10,11,18,00,AAXX 11184 41966 02420 50000 10270 20240 30027 40107 82510 333 58007 70000 82616 84460==
41966,2023,10,11,21,00,AAXX 11214 41966 02420 50000 10265 20240 30027 40107 82510 333 58010 70000 82616 84460==
41966,2023,10,12,00,00,AAXX 12004 41966 02440 60000 10260 20230 30036 40115 83510 333 58019 70000 83616 85460==
41966,2023,10,12,03,00,AAXX 12034 41966 02450 61501 10288 20230 30060 40139 83510 333 20252 58012 70000 83616 85460==
41966,2023,10,12,06,00,AAXX 12064 41966 02450 60000 10287 20200 30051 40130 83510 333 58022 70000 83616 85460==
41966,2023,10,12,09,00,AAXX 12094 41966 02450 70000 10289 20190 30032 40111 83510 333 58026 70000 83616 86460==
41966,2023,10,12,12,00,AAXX 12124 41966 02430 51201 10290 20240 30034 40113 82510 333 10295 58022 70000 82616 84460==
41966,2023,10,12,15,00,AAXX 12154 41966 02420 50000 10280 20250 30038 40117 82510 333 58021 70000 82616 84460==
41966,2023,10,12,21,00,AAXX 12214 41966 02420 50000 10258 20230 30040 40120 82510 333 58013 70000 82616 84460==
41977,2023,10,06,00,00,AAXX 06004 41977 21350 81302 10265 20265 30037 40075 72162 8672/ 333 59008 60077 70316 82708 84615 88458==
41977,2023,10,06,03,00,AAXX 06034 41977 02350 81602 10298 20260 30060 40098 8662/ 333 20256 59013 70246 82710 84616 88458==
41977,2023,10,06,06,00,AAXX 06064 41977 21350 81603 10280 20270 30053 40091 76161 8662/ 333 59002 60037 70236 82710 84616 88458==
41977,2023,10,06,09,00,AAXX 06094 41977 02456 72103 10303 20260 30024 40061 84570 333 59004 70120 84617 85460==
41977,2023,10,06,12,00,AAXX 06124 41977 11456 72104 10286 20270 30039 40076 60006 70262 84570 333 10305 58010 70096 84617 85460==
41977,2023,10,06,15,00,AAXX 06154 41977 02356 71403 10276 20270 30046 40084 84610 333 59002 70096 81710 83616 87462==
41977,2023,10,06,18,00,AAXX 06184 41977 02356 71802 10270 20270 30047 40085 84610 333 58012 70096 81710 84616 87462==
41977,2023,10,06,21,00,AAXX 06214 41977 02450 50000 10265 20265 30048 40086 83570 333 58011 70096 83618 84362==
41977,2023,10,07,00,00,AAXX 07004 41977 02450 40000 10262 20260 30051 40089 82531 333 58014 70030 82618 83362==
41977,2023,10,07,03,00,AAXX 07034 41977 42456 50000 10300 20270 30067 40105 83530 333 20258 58007 83618 84362==
41977,2023,10,07,06,00,AAXX 07064 41977 42456 61805 10324 20250 30053 40091 83531 333 58000 83618 84362==
41977,2023,10,07,09,00,AAXX 07094 41977 02456 52203 10320 20260 30035 40073 82531 333 58011 70000 82618 83362==
41977,2023,10,07,12,00,AAXX 07124 41977 02456 60000 10290 20270 30045 40082 81531 333 10330 58006 70000 81618 83363 86080==
41977,2023,10,07,15,00,AAXX 07154 41977 02456 41802 10283 20270 30055 40093 83530 333 58009 70000 83618 84362==
41977,2023,10,07,18,00,AAXX 07184 41977 02456 31202 10273 20270 30054 40092 82530 333 58007 70000 82618 83362==
41977,2023,10,07,21,00,AAXX 07214 41977 02450 51302 10268 20270 30059 40097 83531 333 58011 70000 83618 83362==
41977,2023,10,08,00,00,AAXX 08004 41977 02450 40000 10263 20260 30062 40100 82530 333 58011 70000 82618 83362==
41977,2023,10,08,03,00,AAXX 08034 41977 02450 61603 10300 20270 30085 40123 84530 333 20259 58018 70000 84618 84360==
41977,2023,10,08,06,00,AAXX 08064 41977 02456 62003 10315 20270 30078 40116 84530 333 58025 70000 84618 84360==
41977,2023,10,08,09,00,AAXX 08094 41977 02456 52105 10314 20250 30053 40091 82531 333 58018 70000 82618 83362 85080==
41977,2023,10,08,12,00,AAXX 08124 41977 02456 41803 10292 20260 30060 40097 82501 333 10325 58015 70000 82618 84080==
41977,2023,10,08,18,00,AAXX 08184 41977 02356 61302 10275 20270 30078 40116 84630 333 58024 70000 81710 84616 86363==
41977,2023,10,08,21,00,AAXX 08211 41977 02350 70000 10270 20260 30077 40115 85670 333 58018 70000 82712 84616 85460==
41977,2023,10,09,00,00,AAXX 09004 41977 02350 70000 10264 20250 30075 40113 86670 333 58013 70000 82712 84615 85460==
41977,2023,10,09,03,00,AAXX 09034 41977 02350 80000 10290 20270 30093 40131 86670 333 20260 58008 70000 82712 84616 88460==
41977,2023,10,09,06,00,AAXX 09064 41977 02460 72003 10314 20270 30094 40131 84530 333 58016 70000 84618 85360==
41977,2023,10,09,09,00,AAXX 09094 41977 02456 42503 10324 20250 30060 40097 82530 333 58007 70000 82618 84362==
41977,2023,10,09,12,00,AAXX 09124 41977 02456 40000 10296 20280 30067 40104 82501 333 10330 58007 70000 82618 84080==
41977,2023,10,09,18,00,AAXX 09184 41977 NIL=
41977,2023,10,09,21,00,AAXX 09214 41977 02450 40000 10270 20270 30077 40115 83570 333 58000 70000 83618 83362==
41977,2023,10,10,00,00,AAXX 10004 41977 02450 20000 10263 20260 30074 40112 82500 333 59001 70000 82618==
41977,2023,10,10,03,00,AAXX 10034 41977 02456 60000 10305 20270 30096 40134 83570 333 20260 58003 70000 84618 83360==
41977,2023,10,10,06,00,AAXX 10064 41977 02356 80000 10320 20280 30083 40121 86670 333 59011 70000 82714 84616 88460==
41977,2023,10,10,09,00,AAXX 10094 41977 02456 52705 10324 20270 30052 40089 82531 333 59008 70000 82618 83362==
41977,2023,10,10,12,00,AAXX 10124 41977 02456 60000 10300 20270 30058 40096 82531 333 10332 59009 70000 82618 83362 85080==
41977,2023,10,10,15,00,AAXX 10154 41977 02456 20000 10278 20280 30075 40113 82500 333 59009 70000 82618==
41977,2023,10,10,18,00,AAXX 10184 41977 02456 20000 10272 20270 30076 40114 82500 333 59003 70000 82618==
41977,2023,10,10,21,00,AAXX 10214 41977 02450 20000 10270 20270 30074 40112 82500 333 59003 70000 82618==
41977,2023,10,11,00,00,AAXX 11004 41977 01340 30000 10270 20270 30070 40108 74011 83600 333 59004 70000 83710==
41977,2023,10,11,03,00,AAXX 11034 41977 01450 41602 10295 20280 30099 40137 70511 83530 333 20262 58003 70000 83618 83360==
41977,2023,10,11,06,00,AAXX 11064 41977 01350 80000 10306 20280 30073 40111 70522 84670 333 59010 70000 82712 84615 88460==
41977,2023,10,11,09,00,AAXX 11094 41977 02456 52104 10322 20260 30054 40091 82530 333 58002 70000 82618 85362==
41977,2023,10,11,12,00,AAXX 11124 41977 02450 70000 10294 20270 30068 40105 83531 333 10325 58010 70000 83618 84362 85080==
41977,2023,10,11,15,00,AAXX 11154 41977 02450 60000 10278 20270 30083 40121 83530 333 58008 70000 83618 84362==
41977,2023,10,11,18,00,AAXX 11184 41977 02450 71802 10274 20250 30078 40116 84520 333 58002 70000 84618 87460==
41977,2023,10,11,21,00,AAXX 11214 41977 02350 81302 10270 20250 30081 40119 8662/ 333 58007 70000 82710 84616 88460==
41977,2023,10,12,00,00,AAXX 12004 41977 02350 81302 10266 20260 30078 40116 8662/ 333 58008 70000 82710 84616 88460==
41977,2023,10,12,03,00,AAXX 12034 41977 02350 80000 10282 20240 30108 40147 8662/ 333 20262 58009 70000 82710 84616 88460==
41977,2023,10,12,06,00,AAXX 12064 41977 02350 80000 10290 20270 30094 40132 8662/ 333 58021 70000 82712 84616 88460==
41977,2023,10,12,09,00,AAXX 12094 41977 02356 80000 10302 20250 30081 40118 8562/ 333 58027 70000 82710 85616 88458==
41977,2023,10,12,12,00,AAXX 12124 41977 02356 80000 10280 20260 30086 40124 8562/ 333 10304 58018 70000 82710 85616 88458==
41977,2023,10,12,15,00,AAXX 12154 41977 02356 80000 10269 20260 30104 40143 8562/ 333 58021 70000 82710 85618 88459==
41977,2023,10,12,18,00,AAXX 12184 41977 02456 70000 10266 20266 30095 40134 84570 333 58017 70000 84616 86459==
41977,2023,10,12,21,00,AAXX 12214 41977 02456 70000 10262 20260 30098 40136 84570 333 58017 70000 84616 85460==
41978,2023,10,06,00,00,AAXX 06004 41978 21440 81606 10268 20268 30053 40060 70562 8452/ 333 60155 70549 84616 88459==
41978,2023,10,06,03,00,AAXX 06034 41978 01435 81210 10293 20260 30075 40082 70562 8432/ 333 20258 59011 70499 83616 88460 81930==
41978,2023,10,06,06,00,AAXX 06064 41978 21435 81909 10287 20280 30067 40073 72162 8432/ 333 59003 60037 70420 83618 88460 81930==
41978,2023,10,06,09,00,AAXX 06094 41978 01440 81805 10306 20280 30040 40047 70522 8432/ 333 59001 70204 83618 88460 81930==
41978,2023,10,06,12,00,AAXX 06124 41978 01440 81609 10289 20280 30049 40055 70522 8432/ 333 10311 58006 70186 83616 88460 81930==
41978,2023,10,06,15,00,AAXX 06154 41978 01440 61508 10277 20270 30069 40075 70522 83520 333 58004 70186 83617 86460==
41978,2023,10,06,18,00,AAXX 06184 41978 01445 61405 10273 20260 30064 40070 70522 83520 333 58010 70186 83617 85460==
41978,2023,10,06,21,00,AAXX 06214 41978 01445 51405 10270 20260 30061 40067 70522 83520 333 58013 70126 83617 85460==
41978,2023,10,07,00,00,AAXX 07004 41978 01438 30000 10263 20260 30067 40073 70522 81520 333 58014 70032 81618 83460==
41978,2023,10,07,03,00,AAXX 07034 41978 01450 51607 10300 20270 30087 40093 70522 82520 333 20260 58012 70032 82618 84460==
41978,2023,10,07,06,00,AAXX 07064 41978 02450 51705 10321 20260 30074 40080 82530 333 58007 70000 82618 84360==
41978,2023,10,07,09,00,AAXX 07094 41978 01450 52111 10321 20270 30053 40059 70522 82510 333 58013 70000 82618 84460==
41978,2023,10,07,12,00,AAXX 07124 41978 01440 52106 10295 20280 30064 40070 70522 82510 333 10328 58015 70000 82618 84460==
41978,2023,10,07,15,00,AAXX 07154 41978 01450 51803 10290 20280 30083 40089 70522 82520 333 58022 70000 82618 84460==
41978,2023,10,07,18,00,AAXX 07184 41978 01450 51803 10276 20260 30087 40094 70522 82520 333 58020 70000 82618 84460==
41978,2023,10,07,21,00,AAXX 07214 41978 01445 51803 10271 20260 30082 40088 70522 82520 333 58020 70000 82618 84460==
41978,2023,10,08,00,00,AAXX 08004 41978 01445 51504 10264 20260 30080 40087 70522 82520 333 58013 70000 82618 84460==
41978,2023,10,08,03,00,AAXX 08034 41978 01440 51608 10305 20280 30099 40105 70522 82520 333 20260 58012 70000 82618 84460==
41978,2023,10,08,06,00,AAXX 08064 41978 01445 51806 10317 20270 30092 40098 70522 82520 333 58018 70000 82618 84460==
41978,2023,10,08,09,00,AAXX 08094 41978 01445 52008 10319 20270 30069 40075 70522 82520 333 58016 70000 82618 84460==
41978,2023,10,08,12,00,AAXX 08124 41978 01440 52105 10294 20260 30074 40080 70522 82520 333 10325 58010 70000 82618 84460==
41978,2023,10,08,15,00,AAXX 08154 41978 01440 42707 10290 20270 30099 40105 70522 82510 333 58016 70000 82618 84460==
41978,2023,10,08,18,00,AAXX 08184 41978 01440 40000 10282 20270 30094 40101 70522 82510 333 58007 70000 83618 84460==
41978,2023,10,08,21,00,AAXX 08214 41978 01440 40000 10267 20267 30094 40100 70522 82510 333 58012 70000 82618 84460==
41978,2023,10,09,00,00,AAXX 09004 41978 01435 50000 10263 20250 30096 40103 70522 82510 333 58016 70000 82618 84460==
41978,2023,10,09,03,00,AAXX 09034 41978 01435 71706 10300 20270 30114 40120 70592 84320 333 20261 58015 70000 83618 87460 81930==
41978,2023,10,09,06,00,AAXX 09064 41978 01445 62207 10320 20270 30106 40112 70522 83520 333 58014 70000 83618 85460==
41978,2023,10,09,09,00,AAXX 09094 41978 01440 41906 10322 20280 30077 40083 70522 82520 333 58008 70000 82618 83460==
41978,2023,10,09,12,00,AAXX 09124 41978 01435 32003 10296 20280 30082 40088 70521 81520 333 10326 58008 70000 81618 83460==
41978,2023,10,09,15,00,AAXX 09154 41978 01440 32103 10289 20280 30103 40109 70521 81520 333 58004 70000 81618 83460==
41978,2023,10,09,18,00,AAXX 09184 41978 01435 51804 10284 20270 30098 40105 70522 82520 333 58004 70000 82618 84460==
41978,2023,10,09,21,00,AAXX 09214 41978 01435 51604 10278 20260 30092 40098 70522 82520 333 59002 70000 82618 84460==
41978,2023,10,10,00,00,AAXX 10004 41978 01432 41004 10268 20260 30093 40100 70522 82520 333 59003 70000 82618 83460==
41978,2023,10,10,03,00,AAXX 10034 41978 01440 40903 10307 20270 30116 40122 70522 82520 333 20264 58008 70000 82618 83460==
41978,2023,10,10,06,00,AAXX 10064 41978 01440 61003 10324 20270 30102 40108 70522 83520 333 59004 70000 83617 86460==
41978,2023,10,10,09,00,AAXX 10094 41978 01440 32708 10324 20290 30067 40074 70521 82530 333 59010 70000 82618 83360==
41978,2023,10,10,12,00,AAXX 10124 41978 01440 42804 10303 20280 30072 40078 70521 82531 333 10335 59010 70000 82618 84360==
41978,2023,10,10,15,00,AAXX 10154 41978 41440 52803 10282 20270 30089 40095 70522 82520 333 59014 82618 84460==
41978,2023,10,10,18,00,AAXX 10184 41978 01435 50000 10278 20270 30088 40095 70522 82520 333 59010 70000 82618 84460==
41978,2023,10,10,21,00,AAXX 10214 41978 01432 60000 10274 20260 30060 40087 70522 83520 333 59012 70000 83618 86460==
41978,2023,10,11,00,00,AAXX 11004 41978 01431 61002 10270 20268 30088 40094 70522 83520 333 59005 70000 83616 86460==
41978,2023,10,11,03,00,AAXX 11034 41978 01309 70803 10274 20270 30113 40120 74342 84720 333 20265 59003 70000 84709 87459==
41978,2023,10,11,06,00,AAXX 11064 41978 01440 62004 10322 20260 30094 40100 70542 83530 333 59008 70000 83616==
41978,2023,10,11,09,00,AAXX 11094 41978 01435 61905 10323 20270 30070 40077 70522 83520 333 58003 70000 83616 85460==
41978,2023,10,11,12,00,AAXX 11124 41978 01435 62204 10294 20280 30082 40089 70522 83520 333 10330 58010 70000 83616 85460==
41978,2023,10,11,15,00,AAXX 11154 41978 01435 41903 10286 20270 30103 40109 70522 82520 333 58014 70000 82618 83460==
41978,2023,10,11,18,00,AAXX 11184 41978 01440 41703 10284 20270 30104 40110 70521 82520 333 58016 70000 82618 83460==
41978,2023,10,11,21,00,AAXX 11214 41978 01440 50000 10278 20270 30099 40105 70521 82520 333 58019 70000 82618 84460==
41978,2023,10,12,00,00,AAXX 12004 41978 01440 61003 10268 20260 30106 40112 70522 83520 333 58018 70000 82617 85460==
41978,2023,10,12,03,00,AAXX 12034 41978 01450 81603 10288 20260 30134 40140 70522 8352/ 333 20262 58021 70000 83617 88460==
41978,2023,10,12,06,00,AAXX 12064 41978 02456 71104 10292 20250 30122 40128 83520 333 58028 70000 83617 87460==
41978,2023,10,12,09,00,AAXX 12094 41978 01450 61604 10300 20270 30097 40104 70522 83520 333 58027 70000 83618 85460==
41978,2023,10,12,12,00,AAXX 12124 41978 41450 62103 10286 20270 30104 40110 70522 83520 333 10304 58022 83618 85460==
41978,2023,10,12,15,00,AAXX 12154 41978 01450 61850 10278 20270 30125 40132 70522 83520 333 58022 70000 83618 85460==
41978,2023,10,12,18,00,AAXX 12184 41978 01450 61503 10271 20270 30125 40131 70522 83520 333 58021 70000 83618 85460==
41978,2023,10,12,21,00,AAXX 12214 41978 01440 61403 10264 20260 30122 40129 70522 83520 333 58023 70000 83618 85460==
41980,2023,10,06,00,00,AAXX 06004 41980 32450 40000 10260 20240 39967 40079 83510 333 56990 58006 70070 83614 82458=
41980,2023,10,06,06,00,AAXX 06064 41980 NIL=
41980,2023,10,06,12,00,AAXX 06124 41980 32450 30000 10275 20260 39952 40063 82510 333 10306 56990 58010 70050 82613=
41980,2023,10,07,00,00,AAXX 07004 41980 32450 20000 10250 20240 39971 40083 82510 333 56990 58006 70050 82614=
41980,2023,10,07,06,00,AAXX 07064 41980 NIL=
41980,2023,10,07,12,00,AAXX 07124 41980 32450 20000 10280 20250 39947 40058 82510 333 56990 59005 70000 82618=
41980,2023,10,08,00,00,AAXX 08004 41980 32450 30000 10242 20250 39982 40096 82510 333 56990 59011 70000 82614=
41980,2023,10,08,06,00,AAXX 08064 41980 NIL=
41980,2023,10,08,12,00,AAXX 08124 41980 32450 10000 10272 20250 39977 40089 85000 333 10322 56900 58030 70000 81618=
41980,2023,10,08,18,00,AAXX 08184 41980 NIL=
41980,2023,10,09,00,00,AAXX 09004 41980 32850 20000 10248 20240 39997 40110 82010 333 56090 58013 70000 82458=
41980,2023,10,09,12,00,AAXX 09124 41980 32950 00000 10281 20270 39982 40094 333 10325 58008 70000=
41980,2023,10,09,18,00,AAXX 09184 41980 NIL=
41980,2023,10,10,00,00,AAXX 10004 41980 32956 00000 10257 20250 30003 40116 333 58006 70000=
41980,2023,10,10,12,00,AAXX 10124 41980 32950 00000 10284 20260 39974 40085 333 10330 59006 70000=
41980,2023,10,10,18,00,AAXX 10184 41980 NIL=
41980,2023,10,11,00,00,AAXX 11004 41980 32950 00000 10255 20260 39994 40107 333 59009 70000=
41980,2023,10,11,06,00,AAXX 11064 41980 NIL=
41980,2023,10,11,12,00,AAXX 11124 41980 32450 40000 10272 20230 39985 40097 83510 333 10332 56990 58001 70000 83618=
41980,2023,10,12,00,00,AAXX 12004 41980 31430 80000 10255 20250 30018 40131 71022 84420 333 56990 58025 70000 84616 86558=
41980,2023,10,12,06,00,AAXX 12064 41980 NIL=
41980,2023,10,12,12,00,AAXX 12124 41980 32450 40000 10260 20250 30005 40118 82430 333 10288 56990 58002 70070 82617=
41984,2023,10,06,00,00,AAXX 06004 41984 02456 61805 10277 20270 30026 40028 82510 333 59009 70000 82618 85458==
41984,2023,10,06,03,00,AAXX 06034 41984 02457 61802 10310 20270 30053 40055 82510 333 20274 59004 70000 82618 85458==
41984,2023,10,06,06,00,AAXX 06064 41984 02457 61808 10326 20290 30047 40049 82510 333 59002 70000 82618 85458==
41984,2023,10,06,09,00,AAXX 06094 41984 02457 81804 10306 20280 30024 40026 8352/ 333 58001 70000 83618 88458==
41984,2023,10,06,12,00,AAXX 06124 41984 02456 80000 10290 20280 30031 40033 8352/ 333 10326 58006 70000 83618 88458==
41984,2023,10,06,15,00,AAXX 06154 41984 02440 80000 10285 20280 30046 40048 8352/ 333 58001 70000 83618 88458==
41984,2023,10,06,18,00,AAXX 06184 41984 02440 80000 10282 20270 30049 40051 8352/ 333 58011 70000 83618 88458==
41984,2023,10,06,21,00,AAXX 06214 41984 02440 60000 10280 20270 30046 40048 83510 333 58016 70000 83618 85458==
41984,2023,10,07,00,00,AAXX 07004 41984 02456 51804 10279 20270 30045 40047 82530 333 58009 70000 82618 83362==
41984,2023,10,07,03,00,AAXX 07034 41984 02457 60000 10300 20280 30067 40069 83510 333 20274 58014 70000 83618 85458==
41984,2023,10,07,06,00,AAXX 07064 41984 01457 82304 10306 20290 30062 40064 72162 8352/ 333 58015 70020 83618 88458==
41984,2023,10,07,09,00,AAXX 07094 41984 01457 80000 10305 20290 30041 40043 70262 8352/ 333 58017 70060 83618 88458==
41984,2023,10,07,12,00,AAXX 07124 41984 11456 80000 10296 20290 30044 40046 60046 70262 8352/ 333 10319 58013 70060 83618 88458==
41984,2023,10,07,15,00,AAXX 07154 41984 01440 60000 10280 20270 30073 40075 70522 82510 333 59027 70060 82618 85458==
41984,2023,10,07,18,00,AAXX 07184 41984 01440 60000 10277 20270 30069 40071 70522 82510 333 58020 70060 82618 85458==
41984,2023,10,07,21,00,AAXX 07214 41984 01440 81804 10260 20260 30066 40068 70362 8352/ 333 58020 70280 83618 88458==
41984,2023,10,08,00,00,AAXX 08004 41984 11456 80000 10262 20260 30064 40066 60226 70562 8352/ 333 58019 70280 83618 88458==
41984,2023,10,08,03,00,AAXX 08034 41984 02456 80000 10288 20280 30088 40090 8352/ 333 20254 58026 70280 83618 88458==
41984,2023,10,08,06,00,AAXX 08064 41984 21456 81802 10288 20270 30081 40083 70262 8532/ 333 58019 60205 70460 83618 88458 81926==
41984,2023,10,08,09,00,AAXX 08094 41984 02457 80000 10312 20280 30057 40059 8352/ 333 58016 70420 83618 88458==
41984,2023,10,08,12,00,AAXX 08124 41984 02456 80000 10290 20280 30063 40065 8352/ 333 10316 58019 70420 83618 88458==
41984,2023,10,08,15,00,AAXX 08154 41984 02440 80000 10280 20280 30083 40085 8352/ 333 58010 70420 83618 88458==
41984,2023,10,08,18,00,AAXX 08184 41984 01440 60000 10276 20270 30085 40087 70522 83530 333 58016 70420 83618 83362==
41984,2023,10,08,21,00,AAXX 08211 41984 01440 60000 10270 20270 30079 40081 70522 83530 333 58013 70200 83618 83362==
41984,2023,10,09,00,00,AAXX 09004 41984 01456 80000 10268 20260 30073 40075 70522 8352/ 333 58009 70200 83618 88458==
41984,2023,10,09,03,00,AAXX 09034 41984 02457 80000 10326 20290 30095 40097 8352/ 333 20257 58007 70200 83618 88458==
41984,2023,10,09,06,00,AAXX 09064 41984 02457 80000 10331 20270 30089 40091 8352/ 333 58008 70000 83618 88458==
41984,2023,10,09,09,00,AAXX 09094 41984 02457 82202 10324 20280 30062 40064 8352/ 333 58005 70000 83618 88458==
41984,2023,10,09,12,00,AAXX 09124 41984 02456 80000 10298 20290 30062 40064 8352/ 333 10345 59001 70000 83618 88458==
41984,2023,10,09,15,00,AAXX 09154 41984 02440 80000 10286 20286 30087 40090 8352/ 333 58004 70000 83618 88458==
41984,2023,10,09,18,00,AAXX 09184 41984 01440 80000 10280 20280 30080 40082 70522 8352/ 333 59005 70000 83618 88458==
41984,2023,10,09,21,00,AAXX 09214 41984 01430 80000 10273 20270 30081 40083 71022 8352/ 333 58002 70000 83618 88458==
41984,2023,10,10,00,00,AAXX 10004 41984 01405 80000 10271 20270 30082 40084 74040 8352/ 333 58009 70000 83618 88458==
41984,2023,10,10,03,00,AAXX 10034 41984 01456 80000 10294 20270 30101 40103 70540 8352/ 333 20265 58006 70000 83618 88458==
41984,2023,10,10,06,00,AAXX 10064 41984 01457 80000 10328 20290 30089 40091 70240 8352/ 333 58000 70000 83618 88458==
41984,2023,10,10,09,00,AAXX 10094 41984 02457 80000 10338 20260 30061 40063 8352/ 333 59001 70000 83618 88458==
41984,2023,10,10,12,00,AAXX 10124 41984 02456 80000 10301 20280 30062 40064 8352/ 333 10345 58000 70000 83618 88458==
41984,2023,10,10,15,00,AAXX 10154 41984 02440 80000 10284 20280 30078 40080 8352/ 333 59009 70000 83618 88458==
41984,2023,10,10,18,00,AAXX 10184 41984 02440 80000 10274 20270 30079 40081 8352/ 333 59001 70000 83618 88458==
41984,2023,10,10,21,00,AAXX 10214 41984 02440 80000 10274 20270 30078 40080 8352/ 333 59003 70000 83618 88458==
41984,2023,10,11,00,00,AAXX 11004 41984 01430 80000 10274 20270 30077 40079 71022 8352/ 333 59005 70000 83618 88458==
41984,2023,10,11,03,00,AAXX 11034 41984 01456 80000 10322 20280 30095 40097 70522 8352/ 333 20270 59006 70000 83618 88458==
41984,2023,10,11,06,00,AAXX 11064 41984 01456 80000 10320 20270 30085 40087 70522 8352/ 333 59004 70000 83618 88458==
41984,2023,10,11,09,00,AAXX 11094 41984 01457 80000 10318 20270 30060 40062 70262 8352/ 333 59001 70005 83618 88458==
41984,2023,10,11,12,00,AAXX 11124 41984 11456 80000 10276 20260 30071 40073 60016 70262 8352/ 333 10333 58009 70005 83618 88458==
41984,2023,10,11,15,00,AAXX 11154 41984 02440 80000 10270 20270 30090 40092 8352/ 333 58012 70005 83618 88458==
41984,2023,10,11,18,00,AAXX 11184 41984 01440 80000 10268 20268 30089 40091 70522 8352/ 333 58010 70005 83618 88458==
41984,2023,10,11,21,00,AAXX 11214 41984 01440 80000 10267 20267 30086 40088 70522 8352/ 333 58008 70005 83618 88458==
41984,2023,10,12,00,00,AAXX 12004 41984 01456 80000 10266 20266 30083 40085 70522 8352/ 333 58006 70005 83618 88458==
41984,2023,10,12,03,00,AAXX 12034 41984 01456 80000 10296 20290 30112 40114 70522 8352/ 333 20260 59017 70005 83618 88458==
41984,2023,10,12,06,00,AAXX 12064 41984 02457 80000 10330 20270 30105 40108 8352/ 333 58020 70005 83618 88458==
41984,2023,10,12,09,00,AAXX 12094 41984 02457 82202 10322 20280 30087 40089 8352/ 333 58027 70000 83618 88458==
41984,2023,10,12,12,00,AAXX 12124 41984 01456 80000 10268 20240 30092 40094 70262 8352/ 333 10331 58021 70000 83618 88458==
41984,2023,10,12,15,00,AAXX 12154 41984 41440 80000 10260 20260 30111 40113 70522 8352/ 333 58021 83618 88458==
41984,2023,10,12,18,00,AAXX 12184 41984 41440 80000 10261 20260 30111 40113 70522 8352/ 333 58022 83618 88458==
41984,2023,10,12,21,00,AAXX 12214 41984 41440 80000 10259 20259 30110 40112 70522 8352/ 333 58024 83618 88458==
41989,2023,10,06,00,00,AAXX 06004 41989 01430 61403 10260 20240 30055 40058 72162 83570 333 59013 70080 83618 84460==
41989,2023,10,06,03,00,AAXX 06034 41989 02450 51402 10273 20250 30067 40070 83530 333 10250 59012 70590 83618 83362==
41989,2023,10,06,06,00,AAXX 06064 41989 01450 71803 10275 20260 30058 40061 70362 83570 333 59026 70030 83618 85460==
41989,2023,10,06,09,00,AAXX 06094 41989 01350 81703 10260 20250 30066 40069 76362 8572/ 333 58001 70230 82708 83614 83614 88456==
41989,2023,10,06,12,00,AAXX 06124 41989 02440 61703 10280 20260 30039 40042 83570 333 10305 59002 70110 83618 84462==
41989,2023,10,06,15,00,AAXX 06154 41989 02459 51803 10275 20270 30066 40069 82570 333 58015 70110 82618 83362==
41989,2023,10,06,18,00,AAXX 06184 41989 02450 51802 10270 20250 30075 40078 83570 333 58003 70110 83618 83362==
41989,2023,10,06,21,00,AAXX 06214 41989 02450 31402 10268 20250 30069 40072 82530 333 58013 70110 82618 83362==
41989,2023,10,07,00,00,AAXX 07004 41989 02450 51302 10265 20260 30067 40070 82570 333 58012 70030 82618==
41989,2023,10,07,03,00,AAXX 07034 41989 02450 51302 10305 20270 30079 40082 83570 333 20252 58012 70030 83618 83362==
41989,2023,10,07,06,00,AAXX 07064 41989 02450 41803 10320 20250 30080 40083 83530 333 58022 70000 83618==
41989,2023,10,07,09,00,AAXX 07094 41989 02456 21703 10321 20270 30053 40056 82500 333 59001 70000 82618==
41989,2023,10,07,12,00,AAXX 07124 41989 02450 41302 10298 20270 30046 40049 82530 333 10325 58007 70000 82618 84362==
41989,2023,10,07,18,00,AAXX 07184 41989 02440 51403 10275 20260 30069 40072 83530 333 59006 70000 83618 83362==
41989,2023,10,07,21,00,AAXX 07214 41989 02440 51402 10270 20250 30059 40061 82530 333 59011 70000 83618 83362==
41989,2023,10,08,00,00,AAXX 08004 41989 02430 51803 10265 20250 30056 40059 83530 333 59011 70000 83618 83362==
41989,2023,10,08,03,00,AAXX 08034 41989 02450 41402 10290 20240 30077 40081 84500 333 20252 58001 70000 84618==
41989,2023,10,08,06,00,AAXX 08064 41989 02456 31805 10321 20260 30087 40090 83500 333 58007 70000 83618==
41989,2023,10,08,09,00,AAXX 08094 41989 02450 31402 10315 20260 30061 40064 83500 333 58008 70000 83618==
41989,2023,10,08,12,00,AAXX 08124 41989 02450 31803 10270 20270 30060 40063 82530 333 10326 58014 70000 82618==
41989,2023,10,08,15,00,AAXX 08154 41989 02450 20000 10278 20250 30090 40093 82500 333 58031 70000 82618==
41989,2023,10,08,18,00,AAXX 08184 41989 NIL=
41989,2023,10,08,21,00,AAXX 08211 41989 02450 10000 10270 20250 30095 40098 81500 333 58037 70000 81618==
41989,2023,10,09,00,00,AAXX 09004 41989 01440 10000 10266 20260 30090 40093 70511 81500 333 58034 70000 81618==
41989,2023,10,09,03,00,AAXX 09034 41989 02456 41803 10312 20260 30103 40106 82530 333 20254 58026 70000 82618 84362==
41989,2023,10,09,06,00,AAXX 09064 41989 02450 41704 10325 20270 30102 40105 84500 333 58015 70000 84618==
41989,2023,10,09,09,00,AAXX 09094 41989 02456 31803 10323 20260 30078 40081 83500 333 58017 70000 83618==
41989,2023,10,09,12,00,AAXX 09124 41989 02456 21802 10301 20250 30071 40074 82500 333 10327 58011 70000 82618==
41989,2023,10,09,18,00,AAXX 09184 41989 NIL=
41989,2023,10,09,21,00,AAXX 09214 41989 02403 21403 10265 20250 30086 40090 82500 333 59009 70000 83618 83362==
41989,2023,10,10,00,00,AAXX 10004 41989 02430 51402 10260 20240 30083 40086 83530 333 58027 70000 83618 83362==
41989,2023,10,10,03,00,AAXX 10034 41989 02440 41402 10300 20250 30106 40109 82530 333 20251 58003 70000 82618 83362==
41989,2023,10,10,06,00,AAXX 10064 41989 02456 41303 10322 20250 30100 40103 82618 333 59002 70000 82618 84362==
41989,2023,10,10,09,00,AAXX 10094 41989 02450 41702 10320 20260 30081 40084 82530 333 58003 70000 82618 83362==
41989,2023,10,10,12,00,AAXX 10124 41989 02450 31402 10300 20270 30072 40075 83500 333 10330 58001 70000 83618==
41989,2023,10,10,15,00,AAXX 10154 41989 42440 20000 10280 20260 30083 40086 59006 82618==
41989,2023,10,10,18,00,AAXX 10184 41989 NIL=
41989,2023,10,10,21,00,AAXX 10214 41989 02440 30000 10275 20270 30087 40091 83500 333 58001 70000 83618==
41989,2023,10,11,00,00,AAXX 11004 41989 01425 40000 10267 20260 30085 40088 71021 82530 333 58002 70000 82618 84362==
41989,2023,10,11,03,00,AAXX 11034 41989 02450 41302 10302 20260 30099 40103 82530 333 20261 58008 70000 82618 84362==
41989,2023,10,11,06,00,AAXX 11064 41989 02450 51803 10310 20260 30095 40098 83530 333 59005 70000 83618 83362==
41989,2023,10,11,09,00,AAXX 11094 41989 02450 51802 10328 20260 30072 40075 82570 333 59008 70000 82618 83361==
41989,2023,10,11,12,00,AAXX 11124 41989 02450 61802 10306 20260 30067 40070 83570 333 10332 59005 70000 83618 84362==
41989,2023,10,11,21,00,AAXX 11214 41989 02430 41402 10268 20250 30080 40087 83530 333 59003 70000 83618 83362==
41989,2023,10,12,00,00,AAXX 12004 41989 02430 51402 10265 20250 30080 40083 83530 333 59005 70000 83618 83362==
41989,2023,10,12,03,00,AAXX 12034 41989 02450 51802 10290 20240 30095 40099 83530 333 20256 59004 70000 83618 83362==
41989,2023,10,12,06,00,AAXX 12064 41989 02450 61703 10296 20250 30116 40119 83570 333 58021 70000 83618 84460==
41989,2023,10,12,09,00,AAXX 12094 41989 02450 61803 10290 20260 30100 40103 84470 333 58028 70000 83618 84460==
41989,2023,10,12,12,00,AAXX 12124 41989 02440 61403 10285 20260 30091 40095 83530 333 10315 58014 70000 83618 83362==
41989,2023,10,12,15,00,AAXX 12154 41989 02450 41302 10270 20250 30115 40118 82530 333 58031 70000 82618 84362==
41989,2023,10,12,21,00,AAXX 12214 41989 02440 30000 10265 20260 30119 40122 83500 333 58035 70000 83618==
41992,2023,10,06,00,00,AAXX 06004 41992 21425 80000 10270 20260 30059 40061 76165 8592/ 333 59008 60017 70050 84614 81925==
41992,2023,10,06,03,00,AAXX 06034 41992 01325 80000 10257 20257 30083 40085 76166 8692/ 333 20254 59007 70780 83707 85613 88458 81925==
41992,2023,10,06,06,00,AAXX 06064 41992 21430 80000 10287 20270 30072 40074 72166 8532/ 333 59020 60859 70860 84615 88458 81925==
41992,2023,10,06,09,00,AAXX 06094 41992 01430 80000 10280 20260 30051 40053 76166 8592/ 333 58002 70910 84614 88458 81925==
41992,2023,10,06,10,00,AAXX 06104 41992 01430 80000 10280 20260 30051 40053 76166 8592/ 333 58002 70910 84614 88458 81925==
41992,2023,10,06,12,00,AAXX 06124 41992 01425 72105 10276 20270 30056 40058 70562 84530 333 10305 58008 70050 84616 87360==
41992,2023,10,06,15,00,AAXX 06154 41992 01425 60000 10270 20260 30078 40080 71022 83520 333 58007 70091 83616 86460==
41992,2023,10,06,18,00,AAXX 06184 41992 01425 80000 10262 20250 30071 40073 71022 8432/ 333 58005 70910 83616 88460 81925==
41992,2023,10,06,21,00,AAXX 06214 41992 01425 80000 10260 20250 30065 40067 71022 8432/ 333 58005 70900 83616 88460 81925==
41992,2023,10,07,00,00,AAXX 07004 41992 01425 60000 10260 20250 30073 40075 71022 84520 333 58014 70900 84616 86460==
41992,2023,10,07,03,00,AAXX 07034 41992 01430 20000 10303 20260 30096 40098 70521 82500 333 20254 58013 70160 82616==
41992,2023,10,07,06,00,AAXX 07064 41992 01/30 30000 10313 20260 30078 40080 70521 83030 333 58006 70050 83362==
41992,2023,10,07,09,00,AAXX 07094 41992 01430 62105 10310 20260 30062 40064 70521 84530 333 58011 70000 84616 86360==
41992,2023,10,07,12,00,AAXX 07124 41992 01430 62105 10282 20250 30066 40068 70522 84530 333 10325 58010 70000 84616 86360==
41992,2023,10,07,15,00,AAXX 07154 41992 01425 61802 10270 20250 30090 40092 70522 84530 333 58012 70000 84616 86360==
41992,2023,10,07,18,00,AAXX 07184 41992 01425 60000 10265 20260 30090 40092 70522 84530 333 58019 70000 84616 86360==
41992,2023,10,07,21,00,AAXX 07214 41992 01425 60000 10265 20260 30086 40088 70522 84530 333 58021 70000 84616 86360==
41992,2023,10,08,00,00,AAXX 08004 41992 01425 60000 10258 20250 30087 40089 70522 84530 333 58014 70000 84616 86360==
41992,2023,10,08,03,00,AAXX 08034 41992 01430 30000 10300 20250 30109 40111 70511 81530 333 20254 58013 70000 81616 83362==
41992,2023,10,08,06,00,AAXX 08064 41992 01430 30000 10318 20260 30099 40101 70511 81530 333 58021 70000 81616 83362==
41992,2023,10,08,09,00,AAXX 08094 41992 01930 00000 10315 20250 30077 40079 70510 333 58015 70000==
41992,2023,10,08,12,00,AAXX 08124 41992 01430 60000 10285 20260 30088 40090 70521 83520 333 10328 58022 70000 83616 86460==
41992,2023,10,08,15,00,AAXX 08154 41992 01425 20000 10272 20250 30107 40109 70511 82500 333 58017 70000 82616==
41992,2023,10,08,18,00,AAXX 08184 41992 01425 40000 10268 20250 30104 40106 70511 84500 333 58014 70000 84616==
41992,2023,10,08,21,00,AAXX 08214 41992 01425 60000 10264 20240 30098 40100 70521 83520 333 58014 70000 83616 86460==
41992,2023,10,09,00,00,AAXX 09004 41992 01425 60000 10258 20240 30102 40104 70522 84520 333 58015 70000 84616 86460==
41992,2023,10,09,03,00,AAXX 09034 41992 01430 20000 10303 20250 30122 40124 70511 82500 333 20256 58026 70000 82616==
41992,2023,10,09,06,00,AAXX 09064 41992 01430 10000 10322 20250 30111 40113 70511 81500 333 58002 70000 81616==
41992,2023,10,09,09,00,AAXX 09094 41992 01430 10000 10325 20250 30084 40086 70511 81530 333 58007 70000 81616==
41992,2023,10,09,12,00,AAXX 09124 41992 01930 00000 10290 20270 30088 40090 70510 333 10330 58011 70000==
41992,2023,10,09,15,00,AAXX 09154 41992 01925 00000 10272 20260 30108 40110 70500 333 58001 70000==
41992,2023,10,09,18,00,AAXX 09184 41992 01925 00000 10270 20250 30104 40106 70500 333 58000 70000==
41992,2023,10,09,21,00,AAXX 09214 41992 01925 00000 10268 20250 30099 40101 70500 333 58001 70000==
41992,2023,10,10,00,00,AAXX 10004 41992 01925 00000 10260 20250 30089 40091 70500 333 59013 70000==
41992,2023,10,10,03,00,AAXX 10034 41992 01435 30000 10304 20250 30119 40121 70510 83500 333 20255 59003 70000 83616==
41992,2023,10,10,06,00,AAXX 10064 41992 01435 10000 10328 20260 30102 40104 70510 81500 333 59020 70000 81616==
41992,2023,10,10,09,00,AAXX 10094 41992 01440 12105 10330 20260 30073 40075 70510 81500 333 59011 70000 81616==
41992,2023,10,10,12,00,AAXX 10124 41992 01430 12105 10300 20260 30081 40083 70510 81500 333 10340 59007 70000 81616==
41992,2023,10,10,15,00,AAXX 10154 41992 01925 00000 10280 20270 30099 40101 71011 333 59009 70000==
41992,2023,10,10,18,00,AAXX 10184 41992 01925 00000 10270 20260 30096 40098 71010 333 59008 70000==
41992,2023,10,10,21,00,AAXX 10214 41992 01925 00000 10265 20260 30091 40093 71000 333 59008 70000==
41992,2023,10,11,00,00,AAXX 11004 41992 01425 40000 10260 20250 30092 40094 71000 333 58003 70000 84616==
41992,2023,10,11,03,00,AAXX 11034 41992 01/30 50000 10294 20260 30118 40120 70511 85030 333 20258 59001 70000 85362==
41992,2023,10,11,06,00,AAXX 11064 41992 01325 80000 10278 20260 30099 40101 76121 8532/ 333 59003 70010 82708 84614 88458 81925==
41992,2023,10,11,09,00,AAXX 11094 41992 01435 60000 10315 20270 30079 40081 70522 82530 333 58006 70010 82616 86362==
41992,2023,10,11,12,00,AAXX 11124 41992 01425 60000 10285 20270 30094 40096 70522 83530 333 10285 58013 70010 83616 86362==
41992,2023,10,11,15,00,AAXX 11154 41992 01425 60000 10270 20250 30111 40113 70522 83530 333 58012 70010 83616 86362==
41992,2023,10,11,18,00,AAXX 11184 41992 01425 60000 10270 20250 30114 40116 70522 84530 333 58018 70010 84616 86360==
41992,2023,10,11,21,00,AAXX 11214 41992 01425 60000 10265 20250 30110 40112 70522 84530 333 58019 70010 84616 86360==
41992,2023,10,12,00,00,AAXX 12004 41992 01425 60000 10260 20240 30114 40116 70522 84530 333 58022 70010 84616 86360==
41992,2023,10,12,03,00,AAXX 12034 41992 01325 80000 10250 20240 30140 40142 76122 8532/ 333 20248 58022 70010 82708 84614 88458 81925==
41992,2023,10,12,06,00,AAXX 12064 41992 21425 80000 10275 20250 30127 40129 70562 8432/ 333 58028 60005 83616 88460 81925==
41992,2023,10,12,09,00,AAXX 12094 41992 01430 82102 10290 20240 30106 40108 70562 8432/ 333 58027 70010 84616 88460 81925==
41992,2023,10,12,12,00,AAXX 12124 41992 01425 62102 10270 20250 30113 40115 70562 84530 333 10300 58019 70010 84616 86360==
41992,2023,10,12,15,00,AAXX 12154 41992 01925 00000 10260 20250 30134 40136 71022 333 58023 70010==
41992,2023,10,12,18,00,AAXX 12184 41992 01425 80000 10255 20250 30131 40133 76122 8492/ 333 58017 70000 83614 88458 81925==
41992,2023,10,12,21,00,AAXX 12214 41992 01425 80000 10250 20240 30126 40128 71022 8432/ 333 58016 70010 83616 88460 81925==
41998,2023,10,06,00,00,AAXX 06004 41998 02456 60000 10263 20250 30071 40077 83470 333 59019 70000 82618 83458==
41998,2023,10,06,03,00,AAXX 06034 41998 02456 60000 10288 20260 30076 40082 83420 333 20258 59008 70000 82618 83458==
41998,2023,10,06,06,00,AAXX 06064 41998 NIL=
41998,2023,10,06,09,00,AAXX 06094 41998 02456 62401 10304 20250 30043 40049 83470 333 59004 70000 82618 83458==
41998,2023,10,06,12,00,AAXX 06124 41998 01456 80000 10273 20250 30051 40057 72162 8442/ 333 10322 59002 70020 82618 88456==
41998,2023,10,06,15,00,AAXX 06154 41998 02456 80000 10268 20250 30063 40069 8442/ 333 58001 70020 83618 88458==
41998,2023,10,06,18,00,AAXX 06184 41998 02456 80000 10265 20260 30066 40072 8342/ 333 59007 70020 82618 88458==
41998,2023,10,07,03,00,AAXX 07034 41998 02456 60000 10290 20260 30082 40088 83470 333 20255 58008 70020 82618 83458==
41998,2023,10,07,06,00,AAXX 07064 41998 NIL=
41998,2023,10,07,09,00,AAXX 07094 41998 02456 60701 10312 20260 30052 40058 83470 333 58009 70020 82618 83458==
41998,2023,10,07,12,00,AAXX 07124 41998 02456 60000 10278 20250 30056 40062 83470 333 10312 58005 70000 82618 83458==
41998,2023,10,07,18,00,AAXX 07184 41998 02456 60000 10267 20260 30068 40074 83470 333 58004 70000 82618 83458==
41998,2023,10,08,00,00,AAXX 08004 41998 02456 60000 10263 20250 30078 40084 83470 333 58006 70000 82618 83458==
41998,2023,10,08,03,00,AAXX 08034 41998 02456 60000 10300 20260 30092 40098 82420 333 20258 58010 70000 82618 83458==
41998,2023,10,08,06,00,AAXX 08064 41998 02456 60000 10310 20260 30077 40083 83470 333 58007 70000 82618 83458==
41998,2023,10,08,09,00,AAXX 08094 41998 02456 42301 10312 20260 30056 40062 82470 333 58004 70000 81618 83458==
41998,2023,10,08,12,00,AAXX 08124 41998 02456 40000 10278 20250 30061 40067 82470 333 10328 58005 70000 81618 83458==
41998,2023,10,08,18,00,AAXX 08184 41998 01950 00000 10255 20250 30096 40102 70500 333 58023 70000==
41998,2023,10,09,00,00,AAXX 09004 41998 01950 00000 10252 20240 30102 40108 70500 333 58024 70000==
41998,2023,10,09,03,00,AAXX 09034 41998 02956 00000 10289 20260 30108 40114 333 20245 58014 70000==
41998,2023,10,09,06,00,AAXX 09064 41998 02956 00000 10309 20260 30084 40090 333 58007 70000==
41998,2023,10,09,09,00,AAXX 09094 41998 02456 40901 10311 20250 30062 40068 82470 333 58006 70000 81618 83458==
41998,2023,10,09,12,00,AAXX 09124 41998 02456 40000 10278 20250 30074 40080 82470 333 10332 58013 70000 82618 83458==
41998,2023,10,09,18,00,AAXX 09184 41998 NIL=
41998,2023,10,10,00,00,AAXX 10004 41998 01950 00000 10258 20250 30105 40111 70500 333 58003 70000==
41998,2023,10,10,03,00,AAXX 10034 41998 02956 00000 10296 20260 30102 40108 333 20253 58010 70000==
41998,2023,10,10,09,00,AAXX 10094 41998 02956 01902 10308 20250 30068 40074 333 58006 70000==
41998,2023,10,10,12,00,AAXX 10124 41998 02956 00000 10276 20250 30081 40087 333 10325 58005 70000==
41998,2023,10,10,18,00,AAXX 10184 41998 NIL=
41998,2023,10,11,00,00,AAXX 11004 41998 02456 80000 10263 20250 30122 40128 8342/ 333 58017 70000 82618 88458==
41998,2023,10,11,03,00,AAXX 11034 41998 41456 80000 10287 20260 30091 40097 72162 8442/ 333 20258 59018 82616 88456==
41998,2023,10,11,06,00,AAXX 11064 41998 21456 80000 10298 20270 30090 40094 70262 8342/ 333 59004 60025 70020 82618 83458==
41998,2023,10,11,09,00,AAXX 11094 41998 02456 80000 10290 20270 30076 40082 8342/ 333 58008 70020 83618 88458==
41998,2023,10,11,12,00,AAXX 11124 41998 02456 80000 10282 20250 30082 40088 8342/ 333 10306 58001 70020 83618 88458==
41998,2023,10,11,15,00,AAXX 11154 41998 02456 80000 10270 20250 30092 40098 8342/ 333 59004 70020 83618 88458==
41998,2023,10,11,18,00,AAXX 11184 41998 02456 80000 10268 20250 30094 40100 8342/ 333 59008 70020 82618 88458==
41998,2023,10,12,03,00,AAXX 12034 41998 01456 80000 10268 20250 30106 40112 76166 8342/ 333 20250 58014 70570 82616 88456==
41998,2023,10,12,06,00,AAXX 12064 41998 21456 80000 10280 20250 30096 40112 76166 8342/ 333 55316 58006 60139 70590 82616 88456==
41998,2023,10,12,09,00,AAXX 12094 41998 01456 80000 10282 20250 30098 40104 70262 8342/ 333 58022 70610 83618 88458==
41998,2023,10,12,12,00,AAXX 12124 41998 01456 80000 10272 20250 30103 40109 70262 8342/ 333 10293 58021 70020 83618 88458==
41998,2023,10,12,15,00,AAXX 12154 41998 02456 80000 10260 20240 30118 40124 8342/ 333 58026 70610 83618 88458==
41998,2023,10,12,21,00,AAXX 12214 41998 02456 80000 10260 20250 30124 40130 8342/ 333 58030 70400 82618 88458==
