ESTACION,ANO,MES,DIA,HORA,MINUTO,PARTE
41850,2023,11,17,00,00,AAXX 17004 41850 31925 00000 10162 20150 30066 40169 333 59002 70000=
41850,2023,11,17,06,00,AAXX 17064 41850 32957 20505 10296 20130 30065 40164 82030 333 56090 59005 70000 82362=
41850,2023,11,17,12,00,AAXX 17124 41850 31950 00000 10234 20150 30033 40133 70500 333 10300 59027 70000=
41850,2023,11,17,18,00,AAXX 17184 41850 31940 00000 10180 20160 30061 40164 70500 333 59018 70000=
41850,2023,11,18,00,00,AAXX 18004 41850 31940 00000 10158 20150 30056 40159 70500 333 59010 70000=
41850,2023,11,18,06,00,AAXX 18064 41850 32957 01306 10273 20140 30055 40154 333 59010 70000=
41850,2023,11,18,12,00,AAXX 18124 41850 31940 00000 10244 20180 30034 40134 70500 333 10305 58001 70000=
41850,2023,11,18,18,00,AAXX 18184 41850 31925 00000 10182 20170 30061 40164 71000 333 58000 70000=
41850,2023,11,19,00,00,AAXX 19004 41850 31925 00000 10165 20160 30077 40180 71000 333 58021 70000=
41850,2023,11,19,06,00,AAXX 19064 41850 32957 01703 10290 20160 30068 40166 333 58013 70000=
41850,2023,11,19,12,00,AAXX 19124 41850 31950 00000 10228 20190 30040 40140 70500 333 10309 58007 70000=
41850,2023,11,19,21,00,AAXX 19214 41850 31930 00000 10171 20160 30056 40158 70500 333 59008 70000=
41850,2023,11,20,00,00,AAXX 20004 41850 31940 00000 10160 20150 30052 40155 70500 333 59025 70000=
41850,2023,11,20,06,00,AAXX 20064 41850 32957 00000 10299 20150 30058 40156 333 59010 70000=
41850,2023,11,20,12,00,AAXX 20124 41850 31950 00000 10242 20190 30037 40137 70500 333 10312 59003 70000=
41850,2023,11,20,18,00,AAXX 20184 41850 31935 00000 10191 20180 30058 40160 70500 333 59003 70000=
41850,2023,11,21,00,00,AAXX 21004 41850 31925 00000 10160 20160 30040 40143 71000 333 59012 70000=
41850,2023,11,21,06,00,AAXX 21064 41850 32957 00000 10282 20150 30034 40132 333 59024 70000=
41850,2023,11,21,12,00,AAXX 21124 41850 31950 00000 10224 20180 30012 40112 70500 333 10308 59025 70000=
41850,2023,11,21,18,00,AAXX 21184 41850 NIL=
41850,2023,11,22,00,00,AAXX 22004 41850 31925 00000 10148 20148 30020 40122 71000 333 59020 70000=
41850,2023,11,22,06,00,AAXX 22064 41850 32957 00000 10267 20140 30034 40133 333 58000 70000=
41850,2023,11,22,12,00,AAXX 22124 41850 31950 00000 10214 20170 30020 40120 70500 333 10284 58008 70000=
41850,2023,11,22,18,00,AAXX 22184 41850 31935 00000 10171 20160 30044 40146 70500 333 58018 70000=
41850,2023,11,23,00,00,AAXX 23004 41850 31930 00000 10148 20148 30035 40138 70500 333 58015 70000=
41850,2023,11,23,06,00,AAXX 23064 41850 32956 00902 10279 20150 30032 40130 70500 333 59002 70000=
41850,2023,11,23,12,00,AAXX 23124 41850 31950 00000 10224 20190 30012 40112 70500 333 10297 59008 70000=
41850,2023,11,23,18,00,AAXX 23184 41850 NIL=
41851,2023,11,17,00,00,AAXX 17004 41851 31445 50000 10193 20160 30100 40165 70521 82530 333 56990 59004 70000 82618 84362=
41851,2023,11,17,06,00,AAXX 17064 41851 32450 70902 10270 20160 30095 40158 83530 333 56990 59013 70000 83618 87458=
41851,2023,11,17,12,00,AAXX 17124 41851 32450 20901 10244 20160 30066 40130 81530 333 10300 56990 59029 70000 81618=
41851,2023,11,17,18,00,AAXX 17184 41851 32950 00901 10200 20170 30089 40154 333 59025 70000=
41851,2023,11,18,00,00,AAXX 18004 41851 32950 00901 10180 20160 30086 40152 333 59014 70000=
41851,2023,11,18,06,00,AAXX 18064 41851 32950 00902 10278 20170 30088 40151 333 59007 70000=
41851,2023,11,18,12,00,AAXX 18124 41851 32950 00000 10237 20200 30069 40133 333 10300 58003 70000=
41851,2023,11,18,18,00,AAXX 18184 41851 31935 00000 10190 20180 30108 40173 70500 333 58019 70000=
41851,2023,11,19,00,00,AAXX 19004 41851 31945 00000 10177 20170 30108 40174 70500 333 58022 70000=
41851,2023,11,19,06,00,AAXX 19064 41851 32950 00802 10290 20170 30104 40167 333 58016 70000=
41851,2023,11,19,12,00,AAXX 19124 41851 31940 00000 10240 20200 30076 40140 70500 333 10300 58007 70000=
41851,2023,11,19,18,00,AAXX 19184 41851 31940 00000 10195 20180 30091 40156 70500 333 59017 70000=
41851,2023,11,19,21,00,AAXX 19214 41851 31940 00000 10185 20180 30085 40150 70500 333 59020 70000=
41851,2023,11,20,00,00,AAXX 20004 41851 31940 00000 10175 20170 30096 40162 70500 333 59012 70000=
41851,2023,11,20,06,00,AAXX 20064 41851 32950 00901 10290 20170 30099 40162 333 59005 70000=
41851,2023,11,20,12,00,AAXX 20124 41851 31940 00000 10247 20210 30075 40139 70510 333 10310 58001 70000=
41851,2023,11,20,18,00,AAXX 20184 41851 31940 00000 10195 20190 30085 40150 70500 333 59006 70000=
41851,2023,11,21,00,00,AAXX 21004 41851 31930 00000 10180 20170 30077 40143 70500 333 59019 70000=
41851,2023,11,21,06,00,AAXX 21064 41851 32950 00000 10297 20190 30075 40138 333 59024 70000=
41851,2023,11,21,12,00,AAXX 21124 41851 31940 00000 10240 20200 30047 40111 70510 333 10305 59028 70000=
41851,2023,11,21,18,00,AAXX 21184 41851 31940 00000 10193 20170 30069 40134 70500 333 59016 70000=
41851,2023,11,22,00,00,AAXX 22004 41851 31940 00000 10156 20150 30068 40133 70500 333 59009 70000=
41851,2023,11,22,06,00,AAXX 22064 41851 31940 00000 10270 20140 30076 40139 70500 333 58001 70000=
41851,2023,11,22,12,00,AAXX 22124 41851 31940 00000 10210 20160 30057 40121 70500 333 10290 58010 70000=
41851,2023,11,22,18,00,AAXX 22184 41851 31940 00000 10170 20160 30074 40139 70500 333 58005 70000=
41851,2023,11,23,00,00,AAXX 23004 41851 31940 00000 10152 20150 30067 40133 70500 333 59001 70000=
41851,2023,11,23,06,00,AAXX 23064 41851 31945 00000 10276 20170 30075 40138 70500 333 59001 70000=
41851,2023,11,23,12,00,AAXX 23124 41851 31940 00000 10234 20190 30049 40113 70510 333 10290 59008 70000=
41851,2023,11,23,18,00,AAXX 23184 41851 31940 00000 10185 20180 30072 40137 70500 333 59002 70000=
41856,2023,11,17,00,00,AAXX 17004 41856 11430 80501 10215 20210 30128 40164 60055 70562 8562/ 333 56499 58003 70047 83710 85615 88458=
41856,2023,11,17,06,00,AAXX 17064 41856 32956 20503 10266 20190 30112 40148 82030 333 56090 59019 70047 82362=
41856,2023,11,17,12,00,AAXX 17124 41856 32930 10504 10250 20190 30086 40122 81030 333 10280 56090 59036 70047 81362=
41856,2023,11,17,18,00,AAXX 17184 41856 32930 00000 10195 20180 30113 40150 333 59028 70047=
41856,2023,11,18,00,00,AAXX 18004 41856 32930 00504 10194 20170 30109 40146 333 59019 70000=
41856,2023,11,18,06,00,AAXX 18064 41856 32956 10503 10255 20190 30110 40146 81030 333 56090 59002 70000 81362=
41856,2023,11,18,12,00,AAXX 18124 41856 31940 00000 10225 20210 30099 40135 70500 333 10280 58013 70000=
41856,2023,11,18,18,00,AAXX 18184 41856 31925 00000 10183 20170 30132 40169 70500 333 58019 70000=
41856,2023,11,19,00,00,AAXX 19004 41856 31930 00000 10180 20170 30132 40169 70500 333 58023 70000=
41856,2023,11,19,06,00,AAXX 19064 41856 32950 00703 10270 20190 30126 40162 333 58016 70000=
41856,2023,11,19,12,00,AAXX 19124 41856 31940 00000 10243 20220 30100 40136 70500 333 10295 58001 70000=
41856,2023,11,19,18,00,AAXX 19184 41856 31930 00000 10201 20190 30125 40162 70500 333 59007 70000=
41856,2023,11,19,21,00,AAXX 19214 41856 31920 00000 10183 20170 30118 40155 70500 333 59017 70000=
41856,2023,11,20,06,00,AAXX 20064 41856 NIL=
41856,2023,11,20,12,00,AAXX 20124 41856 31940 00000 10251 20210 30099 40135 70500 333 10302 59001 70000=
41856,2023,11,20,18,00,AAXX 20184 41856 31930 00000 10203 20180 30119 40156 70500 333 59006 70000=
41856,2023,11,21,00,00,AAXX 21004 41856 31920 00000 10181 20170 30103 40140 70500 333 59013 70000=
41856,2023,11,21,06,00,AAXX 21064 41856 32950 30701 10284 20170 30101 40137 83030 333 56090 59021 70000 83362=
41856,2023,11,21,12,00,AAXX 21124 41856 31940 10000 10237 20220 30077 40113 70511 81030 333 10315 56090 59022 70000 81362=
41856,2023,11,21,18,00,AAXX 21184 41856 31925 02501 10198 20180 30095 40132 70500 333 59024 70000=
41856,2023,11,22,00,00,AAXX 22004 41856 31920 00000 10163 20150 30095 40132 71000 333 59008 70000=
41856,2023,11,22,06,00,AAXX 22064 41856 32950 01801 10280 20140 30102 40138 333 59018 70000=
41856,2023,11,22,12,00,AAXX 22124 41856 32930 00000 10225 20200 30082 40118 333 10296 58005 70000=
41856,2023,11,22,18,00,AAXX 22184 41856 31930 00000 10172 20160 30098 40135 70500 333 58003 70000=
41856,2023,11,23,00,00,AAXX 23004 41856 31920 00000 10154 20140 30094 40131 71000 333 59001 70000=
41856,2023,11,23,06,00,AAXX 23064 41856 32950 00502 10275 20190 30098 40134 333 59004 70000=
41856,2023,11,23,12,00,AAXX 23124 41856 32930 00000 10240 20210 30077 40113 333 10290 59005 70000=
41856,2023,11,23,18,00,AAXX 23184 41856 31930 00000 10188 20180 30096 40133 70500 333 59002 70000=
41858,2023,11,17,00,00,AAXX 17004 41858 01440 70905 10217 20200 30118 40164 70522 84520 333 59002 70000 84615 86458==
41858,2023,11,17,03,00,AAXX 17034 41858 01/50 30606 10250 20200 30128 40175 70522 83040 333 20206 59007 70000 83362==
41858,2023,11,17,06,00,AAXX 17064 41858 01/50 40908 10295 20200 30113 40158 70522 84040 333 59010 70000 84362==
41858,2023,11,17,09,00,AAXX 17094 41858 01/50 20908 10306 20170 30069 40114 70500 82030 333 59034 70000 82362==
41858,2023,11,17,12,00,AAXX 17124 41858 31940 20905 10265 20190 30082 40128 70500 82030 333 10308 56090 59031 70000 82362=
41858,2023,11,17,15,00,AAXX 17154 41858 01940 00905 10248 20200 30106 40152 70500 333 59029 70000==
41858,2023,11,17,18,00,AAXX 17184 41858 01935 00904 10234 20200 30107 40153 70500 333 59030 70000==
41858,2023,11,17,21,00,AAXX 17214 41858 01940 00505 10204 20180 30103 40150 70500 333 59008 70000==
41858,2023,11,18,03,00,AAXX 18034 41858 01450 40908 10234 20170 30128 40174 70522 84800 333 20180 58000 70000 82615 83825==
41858,2023,11,18,06,00,AAXX 18064 41858 01550 30905 10264 20170 30109 40155 70520 83100 333 59004 70000 83825==
41858,2023,11,18,09,00,AAXX 18094 41858 01950 00606 10290 20190 30078 40123 70520 333 58009 70000==
41858,2023,11,18,12,00,AAXX 18124 41858 01940 00602 10246 20210 30089 40135 70500 333 10294 58007 70000==
41858,2023,11,18,15,00,AAXX 18154 41858 01940 00000 10215 20190 30116 40162 70500 333 58010 70000==
41858,2023,11,18,18,00,AAXX 18184 41858 01940 00000 10210 20190 30125 40171 70500 333 58018 70000==
41858,2023,11,19,00,00,AAXX 19004 41858 01915 00000 10195 20180 30129 40176 71000 333 58023 70000==
41858,2023,11,19,03,00,AAXX 19034 41858 01940 00608 10245 20190 30142 40188 70500 333 20185 58014 70000==
41858,2023,11,19,06,00,AAXX 19064 41858 01950 00606 10290 20180 30120 40166 70500 333 58011 70000==
41858,2023,11,19,09,00,AAXX 19094 41858 01950 00606 10300 20180 30088 40133 70500 333 58010 70000==
41858,2023,11,19,12,00,AAXX 19124 41858 01940 00302 10250 20200 30094 40140 70500 333 10304 58005 70000==
41858,2023,11,19,15,00,AAXX 19154 41858 01940 00000 10231 20200 30113 40159 70500 333 59003 70000==
41858,2023,11,19,18,00,AAXX 19184 41858 01940 00000 10220 20190 30121 40167 70500 333 59004 70000==
41858,2023,11,19,21,00,AAXX 19214 41858 01925 00000 10205 20190 30117 40163 71000 333 59005 70000==
41858,2023,11,20,00,00,AAXX 20004 41858 01915 20000 10190 20180 30112 40159 71020 80001 333 59017 70000 82074==
41858,2023,11,20,03,00,AAXX 20034 41858 01930 00000 10240 20180 30136 40182 70500 333 20180 59006 70000==
41858,2023,11,20,06,00,AAXX 20064 41858 01550 33605 10298 20160 30117 40162 70500 83100 333 59003 70000 83825==
41858,2023,11,20,09,00,AAXX 20094 41858 01550 30806 10305 20180 30090 40135 70511 83100 333 58002 70000 83825==
41858,2023,11,20,12,00,AAXX 20124 41858 01/50 20302 10254 20180 30096 40142 70511 82030 333 10324 58002 70000 82362==
41858,2023,11,20,15,00,AAXX 20154 41858 01940 00302 10228 20200 30109 40155 70500 333 59004 70000==
41858,2023,11,20,18,00,AAXX 20184 41858 01940 00000 10222 20200 30117 40163 70500 333 59004 70000==
41858,2023,11,20,21,00,AAXX 20214 41858 01930 00303 10210 20190 30115 40161 70500 333 59002 70000==
41858,2023,11,21,00,00,AAXX 21004 41858 01920 03302 10193 20170 30097 40144 71000 333 59015 70000==
41858,2023,11,21,03,00,AAXX 21034 41858 01918 00000 10230 20190 30116 40161 71000 333 20182 59020 70000==
41858,2023,11,21,06,00,AAXX 21064 41858 01925 00000 10290 20210 30094 40140 71000 333 59023 70000==
41858,2023,11,21,09,00,AAXX 21094 41858 01540 32405 10316 20180 30066 40111 70511 83100 333 59024 70000 83825==
41858,2023,11,21,12,00,AAXX 21124 41858 01940 02405 10240 20180 30069 40115 70510 333 10320 59027 70000==
41858,2023,11,21,15,00,AAXX 21154 41858 01935 00000 10212 20190 30091 40137 70500 333 59018 70000==
41858,2023,11,21,18,00,AAXX 21184 41858 01935 00000 10200 20190 30097 40144 70500 333 59020 70000==
41858,2023,11,21,21,00,AAXX 21214 41858 01920 00000 10174 20160 30085 40132 71000 333 59030 70000==
41858,2023,11,22,00,00,AAXX 22004 41858 01906 00000 10161 20150 30089 40136 74200 333 59008 70000==
41858,2023,11,22,03,00,AAXX 22034 41858 01912 02405 10224 20170 30114 40160 72940 333 20155 59002 70000==
41858,2023,11,22,06,00,AAXX 22064 41858 01930 02705 10284 20150 30098 40144 70540 333 59019 70000==
41858,2023,11,22,09,00,AAXX 22094 41858 01935 02404 10284 20150 30071 40117 70500 333 58005 70000==
41858,2023,11,22,12,00,AAXX 22124 41858 01935 02403 10225 20170 30078 40124 70500 333 10292 58009 70000==
41858,2023,11,22,15,00,AAXX 22154 41858 01935 02703 10214 20170 30095 40141 70500 333 58004 70000==
41858,2023,11,22,18,00,AAXX 22184 41858 01935 00000 10204 20180 30101 40148 70500 333 58004 70000==
41858,2023,11,22,21,00,AAXX 22214 41858 01920 00000 10170 20160 30081 40128 71000 333 59004 70000==
41858,2023,11,23,00,00,AAXX 23004 41858 01908 00000 10160 20150 30087 40134 74240 333 59002 70000==
41858,2023,11,23,03,00,AAXX 23034 41858 01915 00000 10202 20170 30111 40158 71040 333 20150 59003 70000==
41858,2023,11,23,06,00,AAXX 23064 41858 01930 03504 10284 20160 30092 40138 70540 333 59006 70000==
41858,2023,11,23,09,00,AAXX 23094 41858 01550 20606 10294 20140 30063 40108 70520 333 59007 70000 82825==
41858,2023,11,23,12,00,AAXX 23124 41858 01950 03605 10235 20190 30068 40115 70520 333 10295 59010 70000==
41858,2023,11,23,15,00,AAXX 23154 41858 01935 00000 10210 20190 30091 40137 70500 333 59004 70000==
41858,2023,11,23,18,00,AAXX 23184 41858 01930 03503 10200 20190 30096 40143 70500 333 59005 70000==
41858,2023,11,23,21,00,AAXX 23214 41858 01920 00000 10190 20180 30084 40131 71000 333 58003 70000==
41859,2023,11,17,00,00,AAXX 17004 41859 01330 80000 10220 20210 30115 40153 76162 8572/ 333 59007 70038 83709 84617 88458==
41859,2023,11,17,03,00,AAXX 17034 41859 01450 60000 10245 20220 30122 40160 70166 83530 333 20218 59021 70042 83618 85362==
41859,2023,11,17,06,00,AAXX 17064 41859 11450 60502 10280 20200 30125 40162 69946 70262 83530 333 59006 70042 83618 85362==
41859,2023,11,17,09,00,AAXX 17094 41859 02450 30504 10285 20200 30079 40116 81530 333 59032 70042 81618 83362==
41859,2023,11,17,12,00,AAXX 17124 41859 02430 60502 10260 20200 30089 40127 82530 333 10302 59033 70042 82618 85362==
41859,2023,11,17,15,00,AAXX 17154 41859 02430 40503 10245 20190 30111 40149 82530 333 59022 70042 82618 84362==
41859,2023,11,17,18,00,AAXX 17184 41859 02430 40502 10225 20200 30113 40151 82530 333 59025 70042 82618 84362==
41859,2023,11,17,21,00,AAXX 17214 41859 02430 30502 10210 20150 30110 40148 82530 333 59020 70014 82618 83362==
41859,2023,11,18,00,00,AAXX 18004 41859 01430 30502 10195 20180 30110 40148 70521 82530 333 59005 70004 82618 83362==
41859,2023,11,18,03,00,AAXX 18034 41859 01450 50502 10246 20180 30130 40168 70521 82510 333 20188 58008 70000 83618 85458==
41859,2023,11,18,06,00,AAXX 18064 41859 02450 50502 10269 20190 30111 40148 82510 333 59014 70000 85458==
41859,2023,11,18,09,00,AAXX 18094 41859 02950 00502 10296 20200 30085 40122 333 58006 70000==
41859,2023,11,18,12,00,AAXX 18124 41859 01940 00000 10250 20210 30080 40118 70520 333 10300 70000==
41859,2023,11,18,15,00,AAXX 18154 41859 01930 00000 10217 20210 30120 40158 70500 333 58009 70000==
41859,2023,11,18,18,00,AAXX 18184 41859 01930 00000 10204 20190 30130 40168 70500 333 58017 70000==
41859,2023,11,18,21,00,AAXX 18214 41859 01930 00502 10203 20180 30126 40164 70500 333 58016 70000==
41859,2023,11,19,00,00,AAXX 19004 41859 01930 00502 10196 20180 30129 40167 70500 333 58019 70000==
41859,2023,11,19,03,00,AAXX 19034 41859 01950 00502 10249 20180 30147 40151 70500 333 20192 58017 70000==
41859,2023,11,19,06,00,AAXX 19064 41859 02950 00502 10283 20170 30129 40168 333 59001 70000==
41859,2023,11,19,09,00,AAXX 19094 41859 02450 20901 10300 20180 30095 40132 82400 333 58010 70000 81618 82828==
41859,2023,11,19,12,00,AAXX 19124 41859 01930 00000 10257 20220 30102 40140 70500 333 10302 58022 70000==
41859,2023,11,19,15,00,AAXX 19154 41859 01930 00000 10226 20210 30128 40166 70500 333 58008 70000==
41859,2023,11,19,18,00,AAXX 19184 41859 01930 00000 10205 20200 30129 40167 70500 333 59001 70000==
41859,2023,11,19,21,00,AAXX 19214 41859 01930 00000 10207 20190 30125 40163 70500 333 59001 70000==
41859,2023,11,20,00,00,AAXX 20004 41859 01930 00000 10200 20190 30125 40164 70500 333 59004 70000==
41859,2023,11,20,03,00,AAXX 20034 41859 01950 00000 10253 20190 30142 40180 70500 333 20198 59007 70000==
41859,2023,11,20,06,00,AAXX 20064 41859 02450 30502 10291 20200 30124 40161 83500 333 59005 70000==
41859,2023,11,20,09,00,AAXX 20094 41859 02450 30502 10305 20190 30097 40134 83400 333 58002 70000 83828==
41859,2023,11,20,12,00,AAXX 20124 41859 01/30 20000 10262 20220 30103 40141 70511 82030 333 10308 58001 70000 82362==
41859,2023,11,20,15,00,AAXX 20154 41859 01930 00000 10230 20220 30116 40154 70510 333 59012 70000==
41859,2023,11,20,18,00,AAXX 20184 41859 01930 00000 10215 20210 30111 40149 70500 333 59018 70000==
41859,2023,11,20,21,00,AAXX 20214 41859 01930 00000 10206 20200 30108 40146 70500 333 59017 70000==
41859,2023,11,21,00,00,AAXX 21004 41859 01930 00000 10198 20190 30104 40142 70500 333 59021 70000==
41859,2023,11,21,03,00,AAXX 21034 41859 01950 00000 10251 20190 30123 40161 70500 333 20193 59010 70000==
41859,2023,11,21,06,00,AAXX 21064 41859 02450 30000 10301 20180 30101 40138 83500 333 59023 70000 83618==
41859,2023,11,21,09,00,AAXX 21094 41859 02450 30000 10315 20180 30074 40111 83500 333 59023 70000 83618==
41859,2023,11,21,12,00,AAXX 21124 41859 01440 20000 10256 20190 30074 40111 70511 82500 333 10320 59029 70000 82618==
41859,2023,11,21,15,00,AAXX 21154 41859 01930 00000 10226 20180 30104 40142 70500 333 59012 70000==
41859,2023,11,21,18,00,AAXX 21184 41859 01/30 30000 10208 20180 30102 40140 70510 83030 333 59009 70000 83362==
41859,2023,11,21,21,00,AAXX 21214 41859 01930 00000 10196 20180 30092 40130 70510 333 59016 70000==
41859,2023,11,22,00,00,AAXX 22004 41859 01930 00000 10180 20170 30101 40140 70510 333 59003 70000==
41859,2023,11,22,03,00,AAXX 22034 41859 01950 00000 10213 20180 30120 40158 70500 333 20170 59003 70000==
41859,2023,11,22,06,00,AAXX 22064 41859 01950 00000 10280 20120 30103 40410 70500 333 58002 70000==
41859,2023,11,22,09,00,AAXX 22094 41859 02950 02302 10286 20120 30077 40114 333 58003 70000==
41859,2023,11,22,12,00,AAXX 22124 41859 01/30 30000 10227 20190 30084 40122 70510 83030 333 10290 58010 70000 83362==
41859,2023,11,22,15,00,AAXX 22154 41859 01930 00000 10193 20180 30107 40145 70500 333 58003 70000==
41859,2023,11,22,18,00,AAXX 22184 41859 01930 00000 10180 20170 30108 40147 70510 333 58006 70000==
41859,2023,11,22,21,00,AAXX 22214 41859 01930 00000 10173 20160 30086 40125 70500 333 59006 70000==
41859,2023,11,23,00,00,AAXX 23004 41859 01930 00000 10168 20160 30086 40125 70500 333 59015 70000==
41859,2023,11,23,03,00,AAXX 23034 41859 01950 00000 10226 20170 30116 40155 70500 333 20165 59004 70000==
41859,2023,11,23,06,00,AAXX 23064 41859 02950 00000 10281 20180 30096 40134 333 59007 70000==
41859,2023,11,23,09,00,AAXX 23094 41859 02450 50502 10290 20190 30069 40106 82530 333 59008 70000 82618 84362==
41859,2023,11,23,12,00,AAXX 23124 41859 02930 00000 10250 20210 30076 40114 333 10291 59008 70000==
41859,2023,11,23,15,00,AAXX 23154 41859 01930 00000 10215 20210 30097 40135 70500 333 59010 70000==
41859,2023,11,23,18,00,AAXX 23184 41859 01930 00000 10201 20190 30096 40134 70500 333 59012 70000==
41859,2023,11,23,21,00,AAXX 23214 41859 01930 00501 10196 20190 30098 40136 70500 333 58012 70000==
41863,2023,11,17,00,00,AAXX 17004 41863 01450 70902 10220 20200 30120 40164 70522 84520 333 59003 70000 84618 87458==
41863,2023,11,17,03,00,AAXX 17034 41863 02456 60902 10240 20200 30129 40173 82520 333 20212 59009 70000 82618 86458==
41863,2023,11,17,06,00,AAXX 17064 41863 02557 50502 10290 20200 30116 40159 85400 333 59012 70000 85620==
41863,2023,11,17,09,00,AAXX 17094 41863 02557 50905 10300 20170 30073 40115 85400 333 59032 70000 85620==
41863,2023,11,17,12,00,AAXX 17124 41863 32456 70000 10270 20200 30080 40123 84520 333 10305 56990 59033 70000 84618 87458=
41863,2023,11,17,15,00,AAXX 17154 41863 02450 50503 10244 20190 30108 40151 83520 333 59029 70000 83618 85458==
41863,2023,11,17,18,00,AAXX 17184 41863 02/50 20902 10217 20190 30109 40153 82030 333 59023 70000 82362==
41863,2023,11,17,21,00,AAXX 17214 41863 01950 00502 10198 20180 30107 40151 70500 333 59019 70000==
41863,2023,11,18,00,00,AAXX 18004 41863 01950 00502 10180 20170 30105 40149 70500 333 59015 70000==
41863,2023,11,18,03,00,AAXX 18034 41863 02456 60903 10225 20190 30129 40173 83520 333 20173 58000 70000 83618 86458==
41863,2023,11,18,06,00,AAXX 18064 41863 02557 31303 10265 20190 30109 40152 83400 333 59007 70000 83625==
41863,2023,11,18,09,00,AAXX 18094 41863 02957 00902 10295 20190 30083 40126 333 58010 70000==
41863,2023,11,18,12,00,AAXX 18124 41863 02950 00000 10252 20210 30086 40129 333 10295 58006 70000==
41863,2023,11,18,15,00,AAXX 18154 41863 01950 00000 10205 20200 30116 40160 70500 333 58008 70000==
41863,2023,11,18,18,00,AAXX 18184 41863 01950 00000 10192 20180 30126 40170 70500 333 58017 70000==
41863,2023,11,18,21,00,AAXX 18214 41863 01950 00000 10185 20180 30123 40167 70500 333 58016 70000==
41863,2023,11,19,00,00,AAXX 19004 41863 01950 00000 10175 20170 30129 40174 70500 333 58024 70000==
41863,2023,11,19,03,00,AAXX 19034 41863 02956 00903 10250 20190 30145 40189 333 20170 58016 70000==
41863,2023,11,19,06,00,AAXX 19064 41863 02957 00502 10293 20170 30122 40165 333 58013 70000==
41863,2023,11,19,09,00,AAXX 19094 41863 02557 20901 10301 20160 30090 40133 82400 333 58007 70000 82625==
41863,2023,11,19,12,00,AAXX 19124 41863 02956 00000 10250 20200 30094 40137 333 10305 58008 70000==
41863,2023,11,19,15,00,AAXX 19154 41863 01950 00000 10228 20180 30115 40159 70500 333 59001 70000==
41863,2023,11,19,18,00,AAXX 19184 41863 01950 00000 10195 20190 30114 40158 70500 333 59012 70000==
41863,2023,11,19,21,00,AAXX 19214 41863 01950 00000 10180 20170 30111 40155 70500 333 59012 70000==
41863,2023,11,20,00,00,AAXX 20004 41863 01950 00000 10176 20170 30114 40158 70500 333 59015 70000==
41863,2023,11,20,03,00,AAXX 20034 41863 02956 00901 10245 20190 30138 40182 333 20172 59007 70000==
41863,2023,11,20,06,00,AAXX 20064 41863 02557 20502 10303 20180 30119 40162 82400 333 59003 70000 82625==
41863,2023,11,20,09,00,AAXX 20094 41863 02557 20501 10300 20200 30093 40136 82400 333 58003 70000 82625==
41863,2023,11,20,12,00,AAXX 20124 41863 02/56 20000 10262 20210 30097 40140 82030 333 10316 58003 70000 82362==
41863,2023,11,20,15,00,AAXX 20154 41863 01950 00000 10215 20200 30111 40155 70500 333 59004 70000==
41863,2023,11,20,18,00,AAXX 20184 41863 01950 00000 10206 20200 30111 40155 70500 333 59003 70000==
41863,2023,11,20,21,00,AAXX 20214 41863 01950 00000 10195 20190 30100 40144 70500 333 59011 70000==
41863,2023,11,21,00,00,AAXX 21004 41863 01940 00000 10180 20170 30100 40144 70500 333 59014 70000==
41863,2023,11,21,03,00,AAXX 21034 41863 02956 02702 10240 20190 30120 40163 333 20175 59018 70000==
41863,2023,11,21,06,00,AAXX 21064 41863 02956 02703 10296 20180 30100 40143 333 59009 70000==
41863,2023,11,21,09,00,AAXX 21094 41863 02957 02703 10300 20140 30071 40113 333 59022 70000==
41863,2023,11,21,12,00,AAXX 21124 41863 02956 02702 10250 20180 30071 40114 333 10302 59026 70000==
41863,2023,11,21,15,00,AAXX 21154 41863 01950 00000 10208 20180 30092 40136 70500 333 59019 70000==
41863,2023,11,21,18,00,AAXX 21184 41863 01950 00000 10203 20170 30095 40139 70500 333 59016 70000==
41863,2023,11,21,21,00,AAXX 21214 41863 01950 00000 10187 20170 30088 40133 70500 333 59012 70000==
41863,2023,11,22,00,00,AAXX 22004 41863 01950 00000 10160 20150 30085 40130 70500 333 59015 70000==
41863,2023,11,22,03,00,AAXX 22034 41863 01950 00000 10200 20180 30112 40156 70500 333 20153 59008 70000==
41863,2023,11,22,06,00,AAXX 22064 41863 02956 02801 10274 20130 30096 40139 333 59004 70000==
41863,2023,11,22,09,00,AAXX 22094 41863 02956 01801 10283 20130 30072 40115 333 58001 70000==
41863,2023,11,22,12,00,AAXX 22124 41863 02956 00000 10211 20170 30076 40120 333 10287 58005 70000==
41863,2023,11,22,15,00,AAXX 22154 41863 01940 00000 10180 20160 30098 40142 70500 333 58006 70000==
41863,2023,11,22,18,00,AAXX 22184 41863 01940 00000 10165 20160 30096 40141 70500 333 58001 70000==
41863,2023,11,22,21,00,AAXX 22214 41863 01940 00000 10160 20150 30095 40140 70500 333 58006 70000==
41863,2023,11,23,00,00,AAXX 23004 41863 01935 00000 10150 20140 30092 40137 70500 333 58007 70000==
41863,2023,11,23,03,00,AAXX 23034 41863 01950 01301 10210 20160 30115 40159 70500 333 20145 58003 70000==
41863,2023,11,23,06,00,AAXX 23064 41863 02956 03103 10270 20160 30101 40144 333 58005 70000==
41863,2023,11,23,09,00,AAXX 23094 41863 02956 00000 10294 20160 30067 40109 333 59005 70000==
41863,2023,11,23,12,00,AAXX 23124 41863 02950 00000 10242 20200 30069 40112 333 10295 59007 70000==
41863,2023,11,23,15,00,AAXX 23154 41863 01950 00000 10199 20180 30091 40135 70500 333 59007 70000==
41863,2023,11,23,18,00,AAXX 23184 41863 01950 00000 10188 20180 30094 40138 70500 333 59002 70000==
41863,2023,11,23,21,00,AAXX 23214 41863 01950 00000 10175 20170 30089 40133 70500 333 59006 70000==
41881,2023,11,17,00,00,AAXX 17004 41881 32456 80501 10220 20210 30134 40154 8682/ 333 56999 59001 70000 86618 88458=
41881,2023,11,17,06,00,AAXX 17064 41881 32456 50903 10280 20200 30126 40146 83530 333 56990 59022 70000 83618 84362=
41881,2023,11,17,12,00,AAXX 17124 41881 32456 50000 10244 20210 30103 40123 83530 333 10258 56990 59033 70000 83618 84362=
41881,2023,11,17,18,00,AAXX 17184 41881 32450 80000 10230 20210 30137 40157 8652/ 333 59024 70000 86618 88458=
41881,2023,11,18,00,00,AAXX 18004 41881 32450 80000 10210 20190 30125 40145 8652/ 56999 59009 70000 86618 88458=
41881,2023,11,18,06,00,AAXX 18064 41881 32456 50000 10266 20200 30126 40146 83530 333 56990 59000 70000 83618 84362=
41881,2023,11,18,12,00,AAXX 18124 41881 32956 00000 10240 20210 30111 40131 333 10280 58008 70000=
41881,2023,11,18,18,00,AAXX 18184 41881 32956 00000 10200 20190 30143 40163 333 58006 70000=
41881,2023,11,19,00,00,AAXX 19004 41881 32950 00000 10175 20170 30145 40145 333 58020 70000=
41881,2023,11,19,06,00,AAXX 19064 41881 32956 00000 10285 20200 30114 40161 333 58015 70000=
41881,2023,11,19,12,00,AAXX 19124 41881 32950 00000 10244 20010 30115 40135 333 10300 58004 70000=
41881,2023,11,19,18,00,AAXX 19184 41881 32950 00000 10195 20190 30139 40159 333 59004 70000=
41881,2023,11,19,21,00,AAXX 19214 41881 NIL=
41881,2023,11,20,00,00,AAXX 20004 41881 32950 00000 10180 20180 30133 40154 333 59012 70000=
41881,2023,11,20,06,00,AAXX 20064 41881 32957 03601 10290 20190 30142 40162 333 58001 70000=
41881,2023,11,20,12,00,AAXX 20124 41881 32956 02701 10240 20220 30120 40140 333 10310 58005 70000=
41881,2023,11,20,18,00,AAXX 20184 41881 32950 00000 10200 20190 30136 40157 333 59003 70000=
41881,2023,11,21,00,00,AAXX 21004 41881 32950 00000 10184 20180 30123 40143 333 59010 70000=
41881,2023,11,21,06,00,AAXX 21064 41881 32958 03603 10282 20160 30118 40138 333 59024 70000=
41881,2023,11,21,12,00,AAXX 21124 41881 32956 03102 10225 20200 30099 40119 333 10300 59021 70000=
41881,2023,11,21,18,00,AAXX 21184 41881 32956 03502 10182 20170 30115 40135 333 59021 70000=
41881,2023,11,22,00,00,AAXX 22004 41881 31920 01201 10162 20160 30113 40133 71000 333 59010=
41881,2023,11,22,06,00,AAXX 22064 41881 32956 00000 10257 20180 30122 40142 333 58004 70000=
41881,2023,11,22,12,00,AAXX 22124 41881 32956 00000 10217 20200 30100 40120 333 10280 58001 70000=
41881,2023,11,22,18,00,AAXX 22184 41881 31940 00000 10166 20166 30117 40138 70500 333 58002 70000=
41881,2023,11,23,00,00,AAXX 23004 41881 31915 00000 10147 20147 30112 40133 71000 333 59001 70000=
41881,2023,11,23,06,00,AAXX 23064 41881 32956 03601 10265 20170 30118 40138 333 59004 70000=
41881,2023,11,23,12,00,AAXX 23124 41881 32956 00000 10235 20220 30095 40115 333 10283 59005 70000=
41881,2023,11,23,18,00,AAXX 23184 41881 31940 00000 10184 20170 30118 40139 70500 333 58001 70000=
41883,2023,11,17,00,00,AAXX 17004 41883 02430 80000 10236 20220 30135 40156 8562/ 333 58002 70004 82710 84168 88458==
41883,2023,11,17,03,00,AAXX 17034 41883 02456 60504 10258 20220 30146 40167 82531 333 20230 58002 70004 82616 83362 86080==
41883,2023,11,17,06,00,AAXX 17064 41883 02456 60504 10274 20210 30124 40144 84430 333 59025 70004 82616 83828 86362==
41883,2023,11,17,09,00,AAXX 17094 41883 02450 80000 10270 20210 30093 40113 8462/ 333 59036 70004 82710 83618 88458==
41883,2023,11,17,12,00,AAXX 17124 41883 02430 60000 10246 20210 30102 40122 82520 333 10276 59035 70002 82618 86458==
41883,2023,11,17,15,00,AAXX 17154 41883 02330 80000 10236 20210 30125 40146 8562/ 333 59032 70002 85709 88458==
41883,2023,11,17,18,00,AAXX 17184 41883 02330 80000 10229 20210 30127 40148 8562/ 333 59022 70000 85709 88458==
41883,2023,11,17,21,00,AAXX 17214 41883 02330 80000 10224 20200 30123 40144 8562/ 333 59010 70000 85709 88458==
41883,2023,11,18,00,00,AAXX 18004 41883 02330 80000 10218 20210 30125 40146 8562/ 333 59010 70000 85709 88458==
41883,2023,11,18,03,00,AAXX 18034 41883 02450 80000 10228 20190 30143 40164 8562/ 333 20212 59003 70000 83710 84618 88458==
41883,2023,11,18,06,00,AAXX 18064 41883 02450 20000 10270 20190 30126 40146 82500 333 58002 70000 82618==
41883,2023,11,18,09,00,AAXX 18094 41883 02456 30000 10290 20200 30100 40120 83500 333 58007 70000 83616==
41883,2023,11,18,12,00,AAXX 18124 41883 02930 00000 10252 20200 30110 40133 333 10295 58011 70000==
41883,2023,11,18,15,00,AAXX 18154 41883 02930 00000 10232 20210 30137 40158 333 58012 70000==
41883,2023,11,18,18,00,AAXX 18184 41883 02930 00000 10218 20210 30144 40165 333 58017 70000==
41883,2023,11,18,21,00,AAXX 18214 41883 02930 00000 10205 20200 30136 40157 333 58013 70000==
41883,2023,11,19,00,00,AAXX 19004 41883 02930 00000 10200 20190 30137 40158 333 58012 70000==
41883,2023,11,19,03,00,AAXX 19034 41883 02956 00000 10234 20200 30160 40180 333 20195 58017 70000==
41883,2023,11,19,06,00,AAXX 19064 41883 02956 00000 10286 20210 30143 40163 333 58017 70000==
41883,2023,11,19,09,00,AAXX 19094 41883 02556 20000 10314 20170 30107 40127 82100 333 58007 70000 82828==
41883,2023,11,19,12,00,AAXX 19124 41883 02930 00000 10258 20200 30115 40135 333 10315 58002 70000==
41883,2023,11,19,15,00,AAXX 19154 41883 02930 00000 10234 20200 30134 40155 333 59003 70000==
41883,2023,11,19,18,00,AAXX 19184 41883 02930 00000 10224 20200 30131 40152 333 59013 70000==
41883,2023,11,19,21,00,AAXX 19214 41883 02930 00000 10210 20200 30123 40144 333 59013 70000==
41883,2023,11,20,00,00,AAXX 20004 41883 02930 00000 10204 20190 30131 40152 333 59006 70000==
41883,2023,11,20,03,00,AAXX 20034 41883 02956 00000 10250 20180 30156 40176 333 20200 59005 70000==
41883,2023,11,20,06,00,AAXX 20064 41883 02456 30903 10300 20190 30138 40158 83400 333 59005 70000 82616==
41883,2023,11,20,09,00,AAXX 20094 41883 02456 40000 10310 20180 30112 40132 84400 333 58005 70000 82618 83828==
41883,2023,11,20,12,00,AAXX 20124 41883 02430 40000 10264 20200 30116 40137 84400 333 10316 58001 70000 82618 83828==
41883,2023,11,20,15,00,AAXX 20154 41883 02/30 20000 10240 20210 30130 40151 82030 333 59004 70000 82362==
41883,2023,11,20,18,00,AAXX 20184 41883 02930 00000 10224 20210 30129 40150 333 59002 70000==
41883,2023,11,20,21,00,AAXX 20214 41883 02930 00000 10215 20210 30119 40140 333 59004 70000==
41883,2023,11,21,00,00,AAXX 21004 41883 02930 00000 10205 20200 30120 40141 333 59011 70000==
41883,2023,11,21,03,00,AAXX 21034 41883 02950 00000 10250 20200 30140 40161 333 20200 59015 70000==
41883,2023,11,21,06,00,AAXX 21064 41883 02950 00000 10304 20160 30120 40140 333 59018 70000==
41883,2023,11,21,09,00,AAXX 21094 41883 02456 30000 10307 20160 30092 40112 83500 333 59020 70000 83616==
41883,2023,11,21,12,00,AAXX 21124 41883 02930 00000 10252 20190 30098 40118 333 10308 59018 70000==
41883,2023,11,21,15,00,AAXX 21154 41883 02930 00000 10230 20180 30115 40136 333 59015 70000==
41883,2023,11,21,18,00,AAXX 21184 41883 02930 00000 10222 20170 30115 40136 333 59014 70000==
41883,2023,11,21,21,00,AAXX 21214 41883 02930 00000 10210 20160 30109 40130 333 59010 70000==
41883,2023,11,22,00,00,AAXX 22004 41883 02930 00000 10185 20170 30112 40133 333 59008 70000==
41883,2023,11,22,03,00,AAXX 22034 41883 02956 00000 10225 20180 30139 40159 333 20178 59001 70000==
41883,2023,11,22,06,00,AAXX 22064 41883 02956 00000 10275 20160 30120 40140 333 58000 70000==
41883,2023,11,22,09,00,AAXX 22094 41883 02956 00000 10278 20160 30093 40113 333 58001 70000==
41883,2023,11,22,12,00,AAXX 22124 41883 02930 00000 10235 20190 30099 40120 333 10287 58001 70000==
41883,2023,11,22,15,00,AAXX 22154 41883 02930 00000 10214 20170 30119 40140 333 58004 70000==
41883,2023,11,22,18,00,AAXX 22184 41883 02930 00000 10192 20180 30117 40138 333 58002 70000==
41883,2023,11,22,21,00,AAXX 22214 41883 02930 00000 10186 20170 30109 40130 333 58000 70000==
41883,2023,11,23,00,00,AAXX 23004 41883 02930 00000 10178 20170 30110 40131 333 59002 70000==
41883,2023,11,23,03,00,AAXX 23034 41883 02956 00000 10210 20150 30131 40152 333 20172 59008 70000==
41883,2023,11,23,06,00,AAXX 23064 41883 02956 00000 10280 20150 30113 40133 333 59007 70000==
41883,2023,11,23,09,00,AAXX 23094 41883 02456 20000 10300 20170 30082 40102 82500 333 59011 70000 82618==
41883,2023,11,23,12,00,AAXX 23124 41883 02430 20000 10248 20200 30091 40111 82500 333 10305 59008 70000 82618==
41883,2023,11,23,15,00,AAXX 23154 41883 02930 00000 10227 20200 30111 40132 333 59008 70000==
41883,2023,11,23,18,00,AAXX 23184 41883 02930 00000 10210 20190 30111 40132 333 59006 70000==
41883,2023,11,23,21,00,AAXX 23214 41883 02930 00000 10196 20190 30105 40126 333 59004 70000==
41886,2023,11,17,00,00,AAXX 17004 41886 01450 80000 10226 20220 30145 40166 70262 8672/ 333 58005 70008 82710 85616 88458==
41886,2023,11,17,03,00,AAXX 17034 41886 01350 80000 10236 20220 30153 40174 72162 8672/ 333 20225 58000 70034 83710 85616 88458==
41886,2023,11,17,06,00,AAXX 17064 41886 21356 80908 10235 20210 30133 40154 70262 8672/ 333 59016 60008 70032 84710 85616 88458==
41886,2023,11,17,09,00,AAXX 17094 41886 02356 71104 10240 20200 30102 40123 85720 333 59030 70018 83710 84616 87460==
41886,2023,11,17,12,00,AAXX 17124 41886 32450 50908 10223 20200 30103 40124 82530 333 10246 56290 59039 70008 82618 85363=
41886,2023,11,17,15,00,AAXX 17154 41886 02450 80000 10225 20210 30119 40140 8452/ 333 59044 70008 84616 88458==
41886,2023,11,17,18,00,AAXX 17184 41886 02450 80000 10220 20200 30126 40147 8452/ 333 59029 70008 84616 88458==
41886,2023,11,17,21,00,AAXX 17214 41886 02450 80000 10218 20210 30126 40147 8452/ 333 59014 70008 84616 88458==
41886,2023,11,18,00,00,AAXX 18004 41886 42450 80000 10215 20210 30127 40148 8452/ 333 59018 84616 88458==
41886,2023,11,18,03,00,AAXX 18034 41886 02456 80000 10235 20220 30143 40164 8452/ 333 20212 59010 70000 84616 88458==
41886,2023,11,18,06,00,AAXX 18064 41886 02457 10000 10275 20200 30124 40145 81500 333 59009 70000 81618==
41886,2023,11,18,09,00,AAXX 18094 41886 02458 10000 10285 20200 30102 40122 81500 333 58000 70000 81618==
41886,2023,11,18,12,00,AAXX 18124 41886 02956 00000 10250 20210 30115 40136 333 10295 58012 70000==
41886,2023,11,18,15,00,AAXX 18154 41886 01950 00000 10220 20210 30139 40160 70500 333 58020 70000==
41886,2023,11,18,18,00,AAXX 18184 41886 01950 00000 10212 20200 30144 40165 70500 333 58018 70000==
41886,2023,11,18,21,00,AAXX 18214 41886 01940 00000 10203 20190 30144 40165 70500 333 58018 70000==
41886,2023,11,19,00,00,AAXX 19004 41886 01920 00000 10195 20195 30143 40164 71040 333 58016 70000==
41886,2023,11,19,03,00,AAXX 19034 41886 01956 00000 10255 20220 30161 40182 70540 333 20195 58018 70000==
41886,2023,11,19,06,00,AAXX 19064 41886 01557 20000 10290 20200 30140 40161 70341 82200 333 58016 70000 82825==
41886,2023,11,19,09,00,AAXX 19094 41886 02558 10000 10311 20190 30109 40129 81200 333 58007 70000 81825==
41886,2023,11,19,12,00,AAXX 19124 41886 02956 00000 10260 20230 30115 40136 333 10315 58000 70000==
41886,2023,11,19,15,00,AAXX 19154 41886 02450 20000 10246 20210 30136 40157 82500 333 59003 70000 82618==
41886,2023,11,19,18,00,AAXX 19184 41886 02950 00000 10220 20210 30133 40154 333 59011 70000==
41886,2023,11,19,21,00,AAXX 19214 41886 01950 00000 10208 20200 30132 40153 70500 333 59012 70000==
41886,2023,11,20,00,00,AAXX 20004 41886 01940 00000 10196 20196 30131 40152 70500 333 59012 70000==
41886,2023,11,20,03,00,AAXX 20034 41886 02956 00000 10255 20220 30157 40178 333 20196 59004 70000==
41886,2023,11,20,06,00,AAXX 20064 41886 02457 20000 10303 20180 30139 40159 82400 333 59001 70000 81618==
41886,2023,11,20,09,00,AAXX 20094 41886 02457 20000 10301 20180 30116 40136 82400 333 58007 70000 81618==
41886,2023,11,20,12,00,AAXX 20124 41886 02/57 30000 10258 20220 30118 40139 83030 333 10311 58003 70000 83365==
41886,2023,11,20,15,00,AAXX 20154 41886 02/50 30000 10230 20210 30130 40151 83030 333 58006 70000 83365==
41886,2023,11,20,18,00,AAXX 20184 41886 01915 00000 10210 20200 30133 40154 71041 333 58000 70000==
41886,2023,11,20,21,00,AAXX 20214 41886 01/25 40000 10206 20206 30125 40146 71041 84030 333 59007 70000 84365==
41886,2023,11,21,00,00,AAXX 21004 41886 01/25 40000 10202 20200 30120 40141 71041 84030 333 59011 70000 84365==
41886,2023,11,21,03,00,AAXX 21034 41886 01/40 20000 10238 20210 30141 40162 70541 82030 333 20198 59002 70000 82365==
41886,2023,11,21,06,00,AAXX 21064 41886 01456 60000 10287 20200 30120 40140 70342 84470 333 59019 70000 82618 83825 86365==
41886,2023,11,21,09,00,AAXX 21094 41886 02457 30000 10305 20190 30092 40112 83400 333 59024 70000 83618==
41886,2023,11,21,12,00,AAXX 21124 41886 01450 20000 10246 20220 30099 40120 70511 82440 333 10307 59019 70000 81618==
41886,2023,11,21,15,00,AAXX 21154 41886 01450 30000 10222 20215 30116 40137 70511 82540 333 59014 70000 82618==
41886,2023,11,21,18,00,AAXX 21184 41886 01950 00000 10220 20210 30117 40138 70510 333 59016 70000==
41886,2023,11,21,21,00,AAXX 21214 41886 01902 00000 10200 20200 30125 40146 74444 333 58000 70000==
41886,2023,11,22,00,00,AAXX 22004 41886 01902 00000 10185 20185 30122 40145 74444 333 58002 70000==
41886,2023,11,22,03,00,AAXX 22034 41886 01950 00000 10234 20200 30139 40160 70541 333 20185 59002 70000==
41886,2023,11,22,06,00,AAXX 22064 41886 01456 10000 10277 20190 30118 40139 70341 81500 333 59002 70000 81618==
41886,2023,11,22,09,00,AAXX 22094 41886 02456 10000 10290 20180 30094 40114 81500 333 58002 70000 81618==
41886,2023,11,22,12,00,AAXX 22124 41886 01950 00000 10237 20210 30099 40119 70510 333 10295 58000 70000==
41886,2023,11,22,15,00,AAXX 22154 41886 01950 00000 10217 20190 30119 40139 70500 333 58003 70000==
41886,2023,11,22,18,00,AAXX 22184 41886 01930 00000 10200 20180 30122 40142 70500 333 58005 70000==
41886,2023,11,22,21,00,AAXX 22214 41886 01908 00000 10190 20180 30118 40139 74244 333 59007 70000==
41886,2023,11,23,00,00,AAXX 23004 41886 01905 00000 10178 20170 30110 40131 74244 333 59011 70000==
41886,2023,11,23,03,00,AAXX 23034 41886 01940 00000 10230 20190 30130 40150 70544 333 20175 59009 70000==
41886,2023,11,23,06,00,AAXX 23064 41886 01456 40000 10285 20210 30107 40127 70342 84400 333 59011 70000 81618 83825==
41886,2023,11,23,09,00,AAXX 23094 41886 02956 00000 10290 20170 30084 40104 333 59010 70000==
41886,2023,11,23,12,00,AAXX 23124 41886 01950 00000 10240 20200 30092 40112 70500 333 10300 59007 70000==
41886,2023,11,23,15,00,AAXX 23154 41886 01940 00000 10202 20190 30111 40131 70500 333 59008 70000==
41886,2023,11,23,18,00,AAXX 23184 41886 NIL=
41886,2023,11,23,21,00,AAXX 23214 41886 01908 00000 10190 20190 30113 40134 74244 333 59005 70000==
41888,2023,11,17,00,00,AAXX 17004 41888 11340 80704 10231 20220 30150 40160 60013 76066 8372/ 333 56999 58006 70070 81710 83616 88458=
41888,2023,11,17,06,00,AAXX 17064 41888 11340 80908 10232 20200 30145 40155 60013 70562 8362/ 333 56999 59005 70084 82710 83616 88458=
41888,2023,11,17,12,00,AAXX 17124 41888 11450 71010 10218 20200 30110 40120 69918 70162 83610 333 10239 56390 59041 70062 82710 83616 86459=
41888,2023,11,17,18,00,AAXX 17184 41888 31450 81001 10216 20210 30129 40139 70522 8352/ 333 56990 59038 70026 83617 88460=
41888,2023,11,18,00,00,AAXX 18004 41888 31450 80000 10213 20210 30134 40144 70522 8352/ 333 56990 59016 70015 83618 88460=
41888,2023,11,18,06,00,AAXX 18064 41888 32557 12701 10268 20210 30129 40139 81400 333 56900 59016 70001 81620=
41888,2023,11,18,12,00,AAXX 18124 41888 31956 23101 10250 20220 30119 40129 70521 82030 333 10305 56090 58009 70000 82365=
41888,2023,11,18,18,00,AAXX 18184 41888 31930 00000 10210 20200 30149 40159 71040 333 58020 70000=
41888,2023,11,19,00,00,AAXX 19004 41888 31906 40000 10197 20197 30151 40161 74242 84030 333 56090 58017 70000 84365=
41888,2023,11,19,06,00,AAXX 19064 41888 31556 41301 10290 20200 30143 40153 70341 84200 333 56900 58014 70000 84825=
41888,2023,11,19,12,00,AAXX 19124 41888 31956 00000 10260 20220 30121 40131 70521 333 10315 58002 70000=
41888,2023,11,19,18,00,AAXX 19184 41888 31902 00000 10214 20214 30138 40148 74240 333 59011 70000=
41888,2023,11,19,21,00,AAXX 19214 41888 31901 00000 10202 20202 30138 40148 74444 333 59011 70000=
41888,2023,11,20,00,00,AAXX 20004 41888 31901 00000 10195 20195 30141 40151 74444 333 59010 70000=
41888,2023,11,20,06,00,AAXX 20064 41888 31556 31802 10290 20190 30144 40154 70341 83200 333 56900 58001 70000 83825=
41888,2023,11,20,12,00,AAXX 20124 41888 31950 40000 10260 20210 30124 40134 70521 84030 333 10325 56090 58003 70000 84365=
41888,2023,11,20,18,00,AAXX 20184 41888 31908 00000 10218 20210 30132 40142 74040 333 59006 70000=
41888,2023,11,21,00,00,AAXX 21004 41888 31902 50000 10190 20190 30126 40136 74444 85030 333 56090 59015 70000 85365=
41888,2023,11,21,06,00,AAXX 21064 41888 31550 42701 10290 20200 30122 40132 70542 82130 333 56990 59002 70000 82825 84365=
41888,2023,11,21,12,00,AAXX 21124 41888 31456 22301 10250 20210 30103 40113 70521 82500 333 10305 56900 59021 70000 82618=
41888,2023,11,21,18,00,AAXX 21184 41888 31903 00000 10211 20210 30122 40132 74042 333 59010 70000=
41888,2023,11,22,00,00,AAXX 22004 41888 31904 00000 10195 20195 30125 40135 74444 333 59001 70000=
41888,2023,11,22,06,00,AAXX 22064 41888 31450 40901 10270 20190 30128 40138 70342 84400 333 56900 58006 70000 81618 83820=
41888,2023,11,22,12,00,AAXX 22124 41888 31940 00000 10238 20210 30104 40114 70521 333 10290 58001 70000=
41888,2023,11,22,18,00,AAXX 22184 41888 31920 03601 10190 20170 30118 40128 71040 333 59004 70000=
41888,2023,11,23,00,00,AAXX 23004 41888 31908 03601 10177 20170 30117 40127 74444 333 59008 70000=
41888,2023,11,23,06,00,AAXX 23064 41888 31550 20901 10278 20190 30115 40125 70340 82100 333 56900 59013 70000 82825=
41888,2023,11,23,12,00,AAXX 23124 41888 31950 00000 10245 20210 30098 40108 70500 333 10300 59006 70000=
41888,2023,11,23,18,00,AAXX 23184 41888 31904 00000 10190 20190 30116 40126 74244 333 59002 70000=
41891,2023,11,17,00,00,AAXX 17004 41891 01320 81302 10225 20210 30134 40173 76162 8632/ 333 58018 70010 86708 88458 81925==
41891,2023,11,17,03,00,AAXX 17034 41891 01320 81202 10223 20210 30143 40183 76166 8632/ 333 20222 58010 70065 86708 88458 81925==
41891,2023,11,17,06,00,AAXX 17064 41891 21320 81704 10222 20210 30124 40163 76366 8632/ 333 58001 60089 70095 86707 88458 81925==
41891,2023,11,17,09,00,AAXX 17094 41891 01325 80906 10216 20210 30088 40127 76366 8632/ 333 59022 70137 86708 88458 81925==
41891,2023,11,17,12,00,AAXX 17124 41891 21320 81806 10214 20210 30096 40135 76566 8632/ 333 10228 59029 60289 70373 86707 88458 81925==
41891,2023,11,17,15,00,AAXX 17154 41891 01320 80910 10205 20200 30083 40122 76366 8632/ 333 59060 70529 86708 88458 81925==
41891,2023,11,17,18,00,AAXX 17184 41891 21320 80906 10204 20190 30093 40133 76366 8632/ 333 59045 60249 70615 86708 88458 81925==
41891,2023,11,17,21,00,AAXX 17214 41891 01320 80000 10203 20190 30096 40136 76366 8632/ 333 59040 70711 86708 88458 81925==
41891,2023,11,18,00,00,AAXX 18004 41891 21435 80902 10202 20190 30102 40142 70566 8532/ 333 59032 60118 70714 81710 84615 88460 81930==
41891,2023,11,18,03,00,AAXX 18034 41891 01445 30902 10258 20200 30118 40157 70522 81530 333 20201 59025 70662 81615 83365==
41891,2023,11,18,06,00,AAXX 18064 41891 01550 11702 10284 20170 30098 40136 70521 81100 333 59026 70632 81825==
41891,2023,11,18,09,00,AAXX 18094 41891 01550 13602 10288 20190 30084 40122 70511 81100 333 59004 70590 81825==
41891,2023,11,18,12,00,AAXX 18124 41891 01440 60902 10246 20210 30096 40135 70521 84370 333 10298 58000 70354 83615 85365 81930==
41891,2023,11,18,15,00,AAXX 18154 41891 01440 60902 10242 20210 30112 40151 70522 84370 333 58029 70198 83615 85365 81930==
41891,2023,11,18,18,00,AAXX 18184 41891 01440 60902 10230 20210 30120 40159 70522 83340 333 58027 70112 83615 85365==
41891,2023,11,18,21,00,AAXX 18214 41891 01440 61002 10220 20210 30118 40157 70522 83340 333 58022 70016 83615 85365==
41891,2023,11,19,00,00,AAXX 19004 41891 01440 61002 10215 20210 30122 40161 70522 83340 333 58020 70000 83615 85365==
41891,2023,11,19,03,00,AAXX 19034 41891 01550 30902 10270 20200 30137 40176 70522 81130 333 20215 58019 70000 81825 83365==
41891,2023,11,19,06,00,AAXX 19064 41891 01550 11802 10294 20200 30113 40151 70521 81100 333 58015 70000 81825==
41891,2023,11,19,09,00,AAXX 19094 41891 01550 11302 10310 20190 30086 40124 70511 81100 333 58002 70000 81825==
41891,2023,11,19,12,00,AAXX 19124 41891 01930 01103 10266 20220 30092 40130 70500 333 10320 59004 70000==
41891,2023,11,19,15,00,AAXX 19154 41891 01930 03603 10240 20220 30110 40148 70500 333 59002 70000==
41891,2023,11,19,18,00,AAXX 19184 41891 01930 03603 10225 20220 30107 40146 70500 333 59012 70000==
41891,2023,11,19,21,00,AAXX 19214 41891 01930 03603 10215 20210 30104 40143 70500 333 49014 70000==
41891,2023,11,20,00,00,AAXX 20004 41891 01930 00803 10210 20200 30113 40152 70500 333 59009 70000==
41891,2023,11,20,03,00,AAXX 20034 41891 01550 10806 10262 20190 30136 40174 70510 81100 333 20210 59001 70000 81825==
41891,2023,11,20,06,00,AAXX 20064 41891 01550 11802 10292 20200 30114 40152 70511 81100 333 58001 70000 81825==
41891,2023,11,20,09,00,AAXX 20094 41891 01550 12102 10305 20190 30089 40127 70511 81100 333 58003 70000 81825==
41891,2023,11,20,12,00,AAXX 20124 41891 01435 33102 10258 20210 30096 40135 70511 81530 333 10317 58004 70000 81615 83365==
41891,2023,11,20,15,00,AAXX 20154 41891 01430 33002 10245 20220 30106 40145 70511 81530 333 59004 70000 81615 83365==
41891,2023,11,20,18,00,AAXX 20184 41891 01930 01002 10220 20200 30107 40146 70510 333 58000 70000==
41891,2023,11,20,21,00,AAXX 20214 41891 01430 70000 10210 20190 30102 40141 70520 84370 333 59002 70000 84615 86460 81930==
41891,2023,11,21,00,00,AAXX 21004 41891 01440 70000 10206 20190 30099 40138 70522 84370 333 59014 70000 84615 86460 81930==
41891,2023,11,21,03,00,AAXX 21034 41891 01440 70902 10223 20190 30115 40154 70522 84370 333 20205 59021 70000 84615 86460 81930==
41891,2023,11,21,06,00,AAXX 21064 41891 01445 60904 10248 20200 30102 40141 70522 83340 333 59021 70000 83615 85365 81930==
41891,2023,11,21,09,00,AAXX 21094 41891 01450 60904 10280 20200 30079 40117 70522 83340 333 59010 70000 83615 85365 81930==
41891,2023,11,21,12,00,AAXX 21124 41891 01435 60502 10250 20220 30086 40125 70522 83330 333 10288 59010 70000 83615 85365 81930==
41891,2023,11,21,15,00,AAXX 21154 41891 01435 11302 10229 20210 30094 40133 70511 81500 333 59012 70000 81615==
41891,2023,11,21,18,00,AAXX 21184 41891 01430 20000 10214 20200 30101 40140 70511 82500 333 59006 70000 82615==
41891,2023,11,21,21,00,AAXX 21214 41891 01430 50000 10210 20190 30098 40137 70522 82330 333 59004 70000 82615 85365 81930==
41891,2023,11,22,00,00,AAXX 22004 41891 01430 60902 10202 20190 30096 40136 70522 83340 333 59003 70000 83615 85365 81930==
41891,2023,11,22,03,00,AAXX 22034 41891 01440 10901 10242 20190 30118 40157 70522 81500 333 20201 58003 70000 81615==
41891,2023,11,22,06,00,AAXX 22064 41891 01550 11802 10270 20210 30096 40135 70521 81100 333 59006 70000 81825==
41891,2023,11,22,09,00,AAXX 22094 41891 01550 11902 10280 20200 30068 40106 70511 81100 333 59011 70000 81825==
41891,2023,11,22,12,00,AAXX 22124 41891 01530 30303 10245 20220 30072 40117 70511 81130 333 10291 59008 70000 81825 83365==
41891,2023,11,22,15,00,AAXX 22154 41891 01930 00503 10225 20220 30093 40132 70510 333 59001 70000==
41891,2023,11,22,18,00,AAXX 22184 41891 01930 03603 10215 20210 30087 40126 70500 333 59014 70000==
41891,2023,11,22,21,00,AAXX 22214 41891 01930 03603 10205 20200 30080 40119 70500 333 59018 70000==
41891,2023,11,23,00,00,AAXX 23004 41891 01930 00903 10215 20190 30090 40130 70500 333 59006 70000==
41891,2023,11,23,03,00,AAXX 23034 41891 01940 01603 10245 20200 30105 40144 70500 333 20201 59013 70000==
41891,2023,11,23,06,00,AAXX 23064 41891 01550 12303 10280 20190 30082 40120 70510 81100 333 59014 70000 81828==
41891,2023,11,23,09,00,AAXX 23094 41891 01550 10504 10290 20170 30057 40095 70511 81100 333 59011 70000 81825==
41891,2023,11,23,12,00,AAXX 23124 41891 01545 11502 10242 20180 30068 40107 70511 81100 333 10300 59010 70000 81825==
41891,2023,11,23,15,00,AAXX 23154 41891 01945 02902 10215 20200 30088 40127 70500 333 59005 70000==
41891,2023,11,23,18,00,AAXX 23184 41891 01945 02902 10205 20190 30088 40127 70500 333 58001 70000==
41891,2023,11,23,21,00,AAXX 23214 41891 01945 03202 10200 20180 30086 40126 70500 333 58006 70000==
41895,2023,11,17,00,00,AAXX 17004 41895 01450 80501 10230 20220 30130 40153 70522 8452/ 333 59001 70034 84615 88458==
41895,2023,11,17,03,00,AAXX 17034 41895 01456 62703 10250 20220 30140 40163 70522 83520 333 20225 59011 70034 83616 86458==
41895,2023,11,17,06,00,AAXX 17064 41895 02456 60507 10270 20210 30121 40143 83520 333 59026 70034 83616 86458==
41895,2023,11,17,09,00,AAXX 17094 41895 02456 60506 10276 20210 30087 40110 83520 333 59039 70034 83616 86458==
41895,2023,11,17,12,00,AAXX 17124 41895 32450 60503 10250 20210 30103 40125 83520 333 10283 56990 59033 70034 83616 86458=
41895,2023,11,17,15,00,AAXX 17154 41895 02950 03602 10220 20210 30125 40147 333 59031 70000==
41895,2023,11,17,18,00,AAXX 17184 41895 02450 70501 10224 20200 30127 40150 84520 333 59018 70000 84615 87458==
41895,2023,11,17,21,00,AAXX 17214 41895 02450 73601 10217 20210 30123 40146 84520 333 59011 70000 84615 87458==
41895,2023,11,18,00,00,AAXX 18004 41895 02450 73601 10219 20210 30123 40145 84520 333 59007 70000 84615 87458==
41895,2023,11,18,03,00,AAXX 18034 41895 02450 73602 10230 20210 30143 40166 84520 333 20210 59008 70000 84615 87545==
41895,2023,11,18,06,00,AAXX 18064 41895 02456 73601 10253 20200 30129 40151 84520 333 58008 70000 84615 87458==
41895,2023,11,18,09,00,AAXX 18094 41895 02457 33102 10280 20200 30102 40124 83500 333 58015 70000 83616==
41895,2023,11,18,12,00,AAXX 18124 41895 02950 00000 10240 20220 30112 40135 333 10285 58009 70000==
41895,2023,11,18,15,00,AAXX 18154 41895 02950 00000 10210 20200 30138 40161 333 58013 70000==
41895,2023,11,18,18,00,AAXX 18184 41895 01950 00000 10195 20195 30143 40166 70500 333 59016 70000==
41895,2023,11,19,00,00,AAXX 19004 41895 01950 00000 10195 20195 30143 40166 70500 333 58020 70000==
41895,2023,11,19,03,00,AAXX 19034 41895 01956 00502 10240 20200 30160 40183 70500 333 20185 58017 70000==
41895,2023,11,19,06,00,AAXX 19064 41895 02957 03602 10280 20200 30142 40164 333 58013 70000==
41895,2023,11,19,09,00,AAXX 19094 41895 02557 23602 10305 20220 30111 40133 82100 333 58009 70000 82825==
41895,2023,11,19,12,00,AAXX 19124 41895 02950 00000 10241 20220 30116 40139 333 10308 58004 70000==
41895,2023,11,19,15,00,AAXX 19154 41895 02950 00000 10214 20200 30135 40158 333 59003 70000==
41895,2023,11,19,18,00,AAXX 19184 41895 02950 00000 10202 20190 30138 40161 333 59005 70000==
41895,2023,11,19,21,00,AAXX 19214 41895 02950 00000 10190 20190 30139 40162 333 58000 70000==
41895,2023,11,20,00,00,AAXX 20004 41895 01950 00000 10181 20180 30139 40162 70500 333 59004 70000==
41895,2023,11,20,03,00,AAXX 20034 41895 01956 00502 10250 20190 30157 40179 70500 333 20177 59003 70000==
41895,2023,11,20,06,00,AAXX 20064 41895 02557 23602 10284 20190 30142 40164 82100 333 58000 70000 82825==
41895,2023,11,20,09,00,AAXX 20094 41895 02557 30302 10295 20200 30115 40137 83004 333 58004 70000 83825==
41895,2023,11,20,12,00,AAXX 20124 41895 02950 30000 10250 20220 30118 40141 80001 333 10305 58002 70000 83074==
41895,2023,11,20,15,00,AAXX 20154 41895 02450 20000 10220 20210 30132 40155 82500 333 59003 70000 82617==
41895,2023,11,20,18,00,AAXX 20184 41895 02950 00000 10210 20200 30132 40155 333 59006 70000==
41895,2023,11,20,21,00,AAXX 20214 41895 01950 00000 10205 20200 30126 40149 70500 333 59013 70000==
41895,2023,11,21,00,00,AAXX 21004 41895 01950 00000 10195 20190 30121 40144 70500 333 59018 70000==
41895,2023,11,21,03,00,AAXX 21034 41895 01950 03602 10240 20180 30144 40166 70500 333 20185 59013 70000==
41895,2023,11,21,06,00,AAXX 21064 41895 01956 03602 10290 20170 30123 40145 70500 333 59019 70000==
41895,2023,11,21,09,00,AAXX 21094 41895 01956 32703 10292 20170 30094 40116 70510 80001 333 59021 70000 83074==
41895,2023,11,21,12,00,AAXX 21124 41895 01940 00000 10225 20200 30100 40123 70510 333 10303 59018 70000==
41895,2023,11,21,15,00,AAXX 21154 41895 01940 00000 10206 20190 30118 40142 70500 333 59014 70000==
41895,2023,11,21,18,00,AAXX 21184 41895 01940 00000 10194 20180 30117 40140 70500 333 59015 70000==
41895,2023,11,21,21,00,AAXX 21214 41895 01940 00000 10190 20180 30129 40152 70500 333 58003 70000==
41895,2023,11,22,00,00,AAXX 22004 41895 01950 00000 10170 20170 30113 40136 70500 333 59008 70000==
41895,2023,11,22,03,00,AAXX 22034 41895 42950 02702 10222 20166 30140 40163 59004==
41895,2023,11,22,06,00,AAXX 22064 41895 01956 03102 10270 20160 30122 40145 70500 333 59001 70000==
41895,2023,11,22,09,00,AAXX 22094 41895 01956 03103 10282 20150 30094 40116 70500 333 58000 70000==
41895,2023,11,22,12,00,AAXX 22124 41895 01950 00000 10215 20180 30100 40123 70500 333 10289 58000 70000==
41895,2023,11,22,15,00,AAXX 22154 41895 01950 00000 10185 20180 30120 40143 70500 333 58002 70000==
41895,2023,11,22,18,00,AAXX 22184 41895 01950 00000 10175 20170 30119 40142 70500 333 58002 70000==
41895,2023,11,22,21,00,AAXX 22214 41895 01950 00000 10175 20170 30109 40132 70500 333 59020 70000==
41895,2023,11,23,00,00,AAXX 23004 41895 01950 00000 10170 20160 30114 40137 70500 333 58001 70000==
41895,2023,11,23,03,00,AAXX 23034 41895 01950 03602 10220 20170 30133 40156 70500 333 20164 59007 70000==
41895,2023,11,23,06,00,AAXX 23064 41895 01950 03602 10267 20180 30117 40140 70500 333 59005 70000==
41895,2023,11,23,09,00,AAXX 23094 41895 01950 03602 10282 20140 30087 40110 70500 333 59007 70000==
41895,2023,11,23,12,00,AAXX 23124 41895 01950 00000 10234 20190 30093 40116 70500 333 10290 59007 70000==
41895,2023,11,23,15,00,AAXX 23154 41895 01950 00000 10200 20180 30113 40136 70500 333 59007 70000==
41895,2023,11,23,18,00,AAXX 23184 41895 01950 00000 10180 20170 30115 40138 70500 333 59004 70000==
41895,2023,11,23,21,00,AAXX 23214 41895 01950 00000 10178 20178 30121 40144 70500 333 58012 70000==
41897,2023,11,17,00,00,AAXX 17004 41897 31450 83601 10225 20220 30142 40156 70522 8352/ 333 56990 58000 70006 83618 88458=
41897,2023,11,17,06,00,AAXX 17064 41897 31450 60502 10258 20200 30136 40150 70522 82510 333 56990 59033 70006 82618 86458=
41897,2023,11,17,12,00,AAXX 17124 41897 31450 70503 10240 20190 30100 40114 70522 83510 333 10274 56990 59043 70000 83618 87458=
41897,2023,11,17,18,00,AAXX 17184 41897 31450 50000 10218 20200 30137 40150 70522 82530 333 56990 59023 70000 82618 85361=
41897,2023,11,18,00,00,AAXX 18004 41897 31450 60000 10216 20210 30132 40145 70522 82530 333 56990 59010 70000 82618 86361=
41897,2023,11,18,06,00,AAXX 18064 41897 31450 60000 10255 20210 30127 40141 70522 82510 333 56990 59009 70000 82618 86458=
41897,2023,11,18,12,00,AAXX 18124 41897 31950 00000 10226 20220 30121 40135 70500 333 10265 58021 70000=
41897,2023,11,18,18,00,AAXX 18184 41897 NIL=
41897,2023,11,19,00,00,AAXX 19004 41897 31940 00000 10192 20190 30154 40167 70500 333 58022 70000=
41897,2023,11,19,06,00,AAXX 19064 41897 31950 23601 10294 20180 30145 40159 70500 82030 333 56090 58018 70000 82361=
41897,2023,11,19,12,00,AAXX 19124 41897 31950 00000 10248 20220 30124 40134 70500 333 10310 59001 70000=
41897,2023,11,19,21,00,AAXX 19214 41897 31950 00000 10205 20200 30144 40146 70500 333 59006 70000=
41897,2023,11,20,00,00,AAXX 20004 41897 31940 00000 10199 20190 30146 40159 70500 333 59008 70000=
41897,2023,11,20,06,00,AAXX 20064 41897 31950 23601 10295 20190 30144 40157 70500 82030 333 56090 59001 70000 82361=
41897,2023,11,20,12,00,AAXX 20124 41897 31950 00000 10245 20220 30123 40137 70500 333 10310 58003 70000=
41897,2023,11,20,18,00,AAXX 20184 41897 NIL=
41897,2023,11,21,00,00,AAXX 21004 41897 31950 00000 10216 20210 30142 40155 70500 333 59006 70000=
41897,2023,11,21,06,00,AAXX 21064 41897 31550 23601 10290 20180 30125 40139 70500 82100 333 56900 59019 70000 82825=
41897,2023,11,21,12,00,AAXX 21124 41897 31950 00000 10238 20200 30105 40119 70500 333 10298 59018 70000=
41897,2023,11,21,18,00,AAXX 21184 41897 31950 03501 10202 20180 30123 40136 70500 333 59019 70000=
41897,2023,11,22,00,00,AAXX 22004 41897 31930 00000 10180 20170 30121 40134 71000 333 59009 70000=
41897,2023,11,22,06,00,AAXX 22064 41897 31930 00301 10270 20180 30127 40141 70500 333 59002 70000=
41897,2023,11,22,12,00,AAXX 22124 41897 31940 00000 10220 20190 30106 40120 70500 333 10282 58001 70000=
41897,2023,11,22,18,00,AAXX 22184 41897 31930 03601 10180 20170 30122 40136 71000 333 59001 70000=
41897,2023,11,23,00,00,AAXX 23004 41897 31920 00000 10160 20160 30118 40131 71040 333 59003 70000=
41897,2023,11,23,06,00,AAXX 23064 41897 31940 03602 10270 20150 30120 40134 70540 333 59007 70000=
41897,2023,11,23,12,00,AAXX 23124 41897 31940 20000 10232 20190 30098 40112 70500 82500 333 10287 56800 59008 70000 82618=
41897,2023,11,23,18,00,AAXX 23184 41897 31940 03601 10205 20190 30118 40131 70500 333 59004 70000=
41902,2023,11,17,00,00,AAXX 17004 41902 11830 81002 10230 20230 30154 40162 60014 71762 8532/ 333 56999 58014 70017 83612 81925 88458=
41902,2023,11,17,06,00,AAXX 17064 41902 11840 81006 10223 20210 30133 40142 60099 76366 8532/ 333 56999 59016 70107 83612 81925 88458=
41902,2023,11,17,12,00,AAXX 17124 41902 11320 80920 10208 20208 30090 40099 60429 76566 8672/ 333 10224 56299 59059 70527 83708 84612 88459=
41902,2023,11,18,00,00,AAXX 18004 41902 31430 50901 10212 20200 30120 40129 70544 82530 333 56290 59034 70520 82614 85362=
41902,2023,11,18,06,00,AAXX 18064 41902 31440 23601 10270 20210 30124 40132 70240 82500 333 56900 59009 70430 82614=
41902,2023,11,18,12,00,AAXX 18124 41902 31440 20000 10235 20220 30116 40124 70500 82400 333 10284 56900 58026 70010 82614=
41902,2023,11,18,18,00,AAXX 18184 41902 NIL=
41902,2023,11,19,00,00,AAXX 19004 41902 31930 00000 10231 20220 30138 40146 70544 333 58022 70000=
41902,2023,11,19,06,00,AAXX 19064 41902 31450 40901 10287 20220 30136 40144 70340 82430 333 56990 58012 70000 82614 83362=
41902,2023,11,19,12,00,AAXX 19124 41902 31440 10000 10244 20210 30117 40125 70500 81500 333 10301 56900 58001 70000 81614=
41902,2023,11,19,21,00,AAXX 19214 41902 31430 10000 10214 20200 30128 40137 70544 81500 333 56900 59011 70000 81614=
41902,2023,11,20,00,00,AAXX 20004 41902 31420 20000 10207 20207 30129 40138 71044 82500 333 56900 59011 70000 82614=
41902,2023,11,20,06,00,AAXX 20064 41902 31450 20901 10295 20220 30141 40150 70240 82400 333 56900 59016 70000 82614=
41902,2023,11,20,12,00,AAXX 20124 41902 31440 20000 10241 20210 30119 40128 70500 82500 333 10300 56900 58002 70000 82614=
41902,2023,11,20,18,00,AAXX 20184 41902 31430 20000 10223 20210 30123 40132 70544 82500 333 56900 59007 70000 82614=
41902,2023,11,21,00,00,AAXX 21004 41902 31430 23301 10218 20210 30122 40131 70544 82400 333 56900 59007 70000 82614=
41902,2023,11,21,06,00,AAXX 21064 41902 31450 30501 10275 20220 30120 40129 70240 82430 333 56990 59021 70000 82614=
41902,2023,11,21,12,00,AAXX 21124 41902 31940 02201 10234 20210 30107 40116 70500 333 10295 59012 70000=
41902,2023,11,21,18,00,AAXX 21184 41902 31430 22701 10210 20200 30115 40123 70544 82500 333 56900 59008 70000 82615=
41902,2023,11,22,00,00,AAXX 22004 41902 31912 00000 10202 20200 30116 40125 71044 333 59006 70000=
41902,2023,11,22,06,00,AAXX 22064 41902 31440 53101 10262 20220 30119 40127 70544 82530 333 56990 59001 70000 82615 86362=
41902,2023,11,22,12,00,AAXX 22124 41902 31940 03301 10230 20210 30102 40110 70500 333 10282 59005 70000=
41902,2023,11,22,18,00,AAXX 22184 41902 31930 03101 10200 20190 30116 40124 70544 333 58001 70000=
41902,2023,11,23,00,00,AAXX 23004 41902 NIL=
41902,2023,11,23,06,00,AAXX 23064 41902 31440 23301 10276 20200 30112 40120 70544 82500 333 56900 59007 70000 82615=
41902,2023,11,23,12,00,AAXX 23124 41902 31450 13301 10227 20210 30095 40103 70500 81500 333 10285 56900 59007 70000 81616=
41902,2023,11,23,18,00,AAXX 23184 41902 31930 02701 10205 20200 30110 40119 70544 333 59006 70000=
41907,2023,11,17,00,00,AAXX 17004 41907 01340 83102 10220 20210 30132 40147 70522 8662/ 333 59002 70009 83709 85615 88458==
41907,2023,11,17,03,00,AAXX 17034 41907 01340 80903 10245 20230 30142 40157 70522 8662/ 333 20207 59020 70004 83709 85615 88458==
41907,2023,11,17,06,00,AAXX 17064 41907 01345 80906 10273 20210 30124 40149 70522 8662/ 333 59027 70004 82709 85615 88458==
41907,2023,11,17,09,00,AAXX 17094 41907 01345 83104 10265 20210 30088 40102 70522 8662/ 333 59041 70000 83709 85615 88458==
41907,2023,11,17,12,00,AAXX 17124 41907 02340 83602 10245 20200 30104 40119 8662/ 333 10277 59036 70000 83709 85615 88458==
41907,2023,11,17,15,00,AAXX 17154 41907 02340 70503 10226 20200 30128 40143 86610 333 59030 70000 82709 85615 86458==
41907,2023,11,17,18,00,AAXX 17184 41907 02340 70902 10225 20210 30134 40149 86610 333 59027 70000 82709 85615 86458==
41907,2023,11,17,21,00,AAXX 17214 41907 02340 80000 10220 20200 30129 40144 8662/ 333 59023 70000 83709 85615 88458==
41907,2023,11,18,00,00,AAXX 18004 41907 02340 80000 10215 20210 30124 40139 8662/ 333 59008 70000 83709 85615 88458==
41907,2023,11,18,03,00,AAXX 18034 41907 02350 63602 10240 20210 30143 40158 84610 333 20210 58001 70000 81709 83615 86458==
41907,2023,11,18,06,00,AAXX 18064 41907 02350 83102 10255 20210 30131 40146 8662/ 333 58007 70000 82709 85615 88458==
41907,2023,11,18,09,00,AAXX 18094 41907 02450 70502 10259 20210 30108 40122 85810 333 58020 70000 84615 86458==
41907,2023,11,18,12,00,AAXX 18124 41907 02940 00000 10233 20210 30117 40132 333 10269 58013 70000==
41907,2023,11,18,15,00,AAXX 18154 41907 02940 00000 10205 20200 30140 40155 333 58012 70000==
41907,2023,11,18,18,00,AAXX 18184 41907 02940 00000 10195 20190 30145 40161 333 58016 70000==
41907,2023,11,18,21,00,AAXX 18214 41907 02940 00000 10188 20180 30142 40157 333 58013 70000==
41907,2023,11,19,00,00,AAXX 19004 41907 01940 03602 10190 20180 30142 40158 70500 333 58018 70000==
41907,2023,11,19,03,00,AAXX 19034 41907 01940 00000 10220 20200 30163 40178 70500 333 20185 58020 70000==
41907,2023,11,19,06,00,AAXX 19064 41907 01450 22702 10295 20180 30140 40155 70500 82500 333 58009 70000 82615==
41907,2023,11,19,09,00,AAXX 19094 41907 01450 23102 10305 20180 30111 40125 70500 82500 333 58003 70000 82615==
41907,2023,11,19,12,00,AAXX 19124 41907 01940 00000 10240 20210 30117 40132 70500 333 10315 58000 70000==
41907,2023,11,19,15,00,AAXX 19154 41907 01940 00000 10215 20210 30132 40147 70500 333 59008 70000==
41907,2023,11,19,18,00,AAXX 19184 41907 01940 00000 10209 20190 30139 40154 70500 333 59006 70000==
41907,2023,11,19,21,00,AAXX 19214 41907 02940 00000 10198 20190 30134 40149 333 59008 70000==
41907,2023,11,20,00,00,AAXX 20004 41907 01940 00000 10183 20270 30137 40152 70500 333 59005 70000==
41907,2023,11,20,03,00,AAXX 20034 41907 01945 03602 10235 20220 30158 40173 70500 333 20175 59005 70000==
41907,2023,11,20,06,00,AAXX 20064 41907 02456 13602 10296 20180 30142 40156 81800 333 58002 70000 81615==
41907,2023,11,20,09,00,AAXX 20094 41907 02456 53602 10300 20170 30118 40132 81501 333 58007 70000 81615 85080==
41907,2023,11,20,12,00,AAXX 20124 41907 02940 20000 10235 20210 30120 40135 80001 333 10315 58003 70000 82080==
41907,2023,11,20,15,00,AAXX 20154 41907 01940 00000 10215 20200 30135 40150 70500 333 58003 70000==
41907,2023,11,20,18,00,AAXX 20184 41907 01940 00000 10205 20200 30139 40154 70500 333 58000 70000==
41907,2023,11,20,21,00,AAXX 20214 41907 01940 00000 10197 20190 30132 40147 70500 333 59002 70000==
41907,2023,11,21,00,00,AAXX 21004 41907 01940 00000 10194 20180 30121 40136 70500 333 59016 70000==
41907,2023,11,21,03,00,AAXX 21034 41907 01940 03102 10233 20190 30145 40160 70500 333 20174 59013 70000==
41907,2023,11,21,06,00,AAXX 21064 41907 01950 03605 10290 20170 30124 40139 70500 333 59018 70000==
41907,2023,11,21,09,00,AAXX 21094 41907 01450 23102 10295 20170 30098 40113 70500 82500 333 59020 70000 82615==
41907,2023,11,21,12,00,AAXX 21124 41907 01940 00000 10232 20200 30102 40117 70500 333 10299 59018 70000==
41907,2023,11,21,15,00,AAXX 21154 41907 01940 00000 10204 20190 30120 40135 70500 333 59015 70000==
41907,2023,11,21,18,00,AAXX 21184 41907 01940 00000 10195 20190 30121 40136 70500 333 59018 70000==
41907,2023,11,21,21,00,AAXX 21214 41907 01940 00000 10184 20170 30114 40129 70500 333 59018 70000==
41907,2023,11,22,00,00,AAXX 22004 41907 01940 00000 10172 20160 30117 40133 70500 333 59004 70000==
41907,2023,11,22,03,00,AAXX 22034 41907 01945 00000 10213 20190 30139 40154 70500 333 20167 59006 70000==
41907,2023,11,22,06,00,AAXX 22064 41907 01945 03102 10275 20170 30122 40136 70500 333 59002 70000==
41907,2023,11,22,09,00,AAXX 22094 41907 01945 03103 10280 20140 30097 40112 70500 333 59001 70000==
41907,2023,11,22,12,00,AAXX 22124 41907 01940 00000 10215 20190 30102 40118 70500 333 10282 58000 70000==
41907,2023,11,22,15,00,AAXX 22154 41907 01940 00000 10182 20170 30123 40138 70500 333 58003 70000==
41907,2023,11,22,18,00,AAXX 22184 41907 01940 00000 10171 20160 30120 40135 70500 333 59001 70000==
41907,2023,11,22,21,00,AAXX 22214 41907 01940 00000 10162 20150 30114 40129 70500 333 58000 70000==
41907,2023,11,23,00,00,AAXX 23004 41907 01940 00000 10156 20156 30116 40132 70500 333 59001 70000==
41907,2023,11,23,03,00,AAXX 23034 41907 01940 03102 10202 20180 30135 40151 70500 333 20152 59004 70000==
41907,2023,11,23,06,00,AAXX 23064 41907 01940 03602 10275 20160 30117 40132 70500 333 59005 70000==
41907,2023,11,23,09,00,AAXX 23094 41907 01940 03602 10282 20160 30089 40104 70500 333 59008 70000==
41907,2023,11,23,12,00,AAXX 23124 41907 01940 00000 10218 20200 30095 40111 70500 333 10285 59007 70000==
41907,2023,11,23,15,00,AAXX 23154 41907 01940 00000 10202 20190 30115 40130 70500 333 59008 70000==
41907,2023,11,23,18,00,AAXX 23184 41907 01940 00000 10192 20180 30114 40129 70500 333 59009 70000==
41907,2023,11,23,21,00,AAXX 23214 41907 01940 00000 10180 20170 30118 40133 70500 333 58004 70000==
41909,2023,11,17,00,00,AAXX 17004 41909 02440 80000 10228 20220 30138 40150 8352/ 333 59001 70020 83615 88458==
41909,2023,11,17,03,00,AAXX 17034 41909 01450 80000 10234 20210 30150 40162 70262 8352/ 333 20220 59011 70025 83615 88458==
41909,2023,11,17,06,00,AAXX 17064 41909 01450 80000 10244 20200 30142 40154 70262 8352/ 333 59014 70025 83615 88458==
41909,2023,11,17,09,00,AAXX 17094 41909 02350 80506 10254 20190 30120 40132 8462/ 333 59014 70015 83708 85614 88458==
41909,2023,11,17,12,00,AAXX 17124 41909 32350 80506 10254 20190 30120 40132 8462/ 333 56199 59014 70015 83708 85614 88458=
41909,2023,11,17,15,00,AAXX 17154 41909 02340 83601 10227 20200 30124 40136 8452/ 333 59037 70015 84614 88458==
41909,2023,11,17,18,00,AAXX 17184 41909 02340 80000 10226 20200 30133 40145 8452/ 333 59030 70015 84615 88458==
41909,2023,11,17,21,00,AAXX 17214 41909 02340 80000 10222 20190 30131 40143 8452/ 333 59015 70015 84615 88458==
41909,2023,11,18,00,00,AAXX 18004 41909 02350 83601 10220 20200 30129 40141 8552/ 333 59009 70015 85614 88458==
41909,2023,11,18,03,00,AAXX 18034 41909 02456 43601 10254 20200 30145 40157 82530 333 20210 59005 70000 82615 84460==
41909,2023,11,18,06,00,AAXX 18064 41909 02456 53201 10270 20190 30130 40141 83530 333 59012 70000 82615 85360==
41909,2023,11,18,09,00,AAXX 18094 41909 02456 23102 10295 20200 30105 40116 82500 333 59015 70000 82615==
41909,2023,11,18,12,00,AAXX 18124 41909 02950 00000 10250 20210 30119 40131 333 10300 58021 70000==
41909,2023,11,18,15,00,AAXX 18154 41909 01940 00000 10225 20210 30142 40154 70500 333 58018 70000==
41909,2023,11,18,18,00,AAXX 18184 41909 01935 00000 10217 20210 30147 40159 70500 333 58014 70000==
41909,2023,11,18,21,00,AAXX 18214 41909 01935 00000 10209 20200 30144 40156 70500 333 58013 70000==
41909,2023,11,19,00,00,AAXX 19004 41909 01945 00000 10205 20200 30145 40157 70500 333 58016 70000==
41909,2023,11,19,03,00,AAXX 19034 41909 01950 00000 10247 30161 40193 70800 333 20198 58016 70000==
41909,2023,11,19,06,00,AAXX 19064 41909 02456 41301 10300 20210 30146 40157 81530 333 58016 70000 81618 84360==
41909,2023,11,19,09,00,AAXX 19094 41909 02456 40000 10310 20190 30112 40123 81530 333 58007 70000 81618 84360==
41909,2023,11,19,12,00,AAXX 19124 41909 02940 00000 10255 20220 30118 40130 333 10315 58001 70000==
41909,2023,11,19,15,00,AAXX 19154 41909 02940 00000 10238 20220 30139 40151 333 59003 70000==
41909,2023,11,19,18,00,AAXX 19184 41909 02940 00000 10228 20210 30141 40153 333 59006 70000==
41909,2023,11,19,21,00,AAXX 19214 41909 01935 00000 10217 20210 30143 40155 70500 333 59001 70000==
41909,2023,11,20,00,00,AAXX 20004 41909 01930 00000 10205 20190 30136 40148 70500 333 58009 70000==
41909,2023,11,20,03,00,AAXX 20034 41909 01450 40000 10234 20210 30158 40170 70500 81530 333 20200 59003 70000 81618 84360==
41909,2023,11,20,06,00,AAXX 20064 41909 02456 40000 10290 20200 30144 40155 81530 333 59002 70000 81618 84360==
41909,2023,11,20,09,00,AAXX 20094 41909 02456 40000 10304 20180 30118 40129 81808 333 58006 70000 81618 83270==
41909,2023,11,20,12,00,AAXX 20124 41909 02940 20000 10242 20200 30122 40134 80001 333 10315 58004 70000 82080==
41909,2023,11,20,15,00,AAXX 20154 41909 02940 00000 10219 20210 30136 40148 333 59003 70000==
41909,2023,11,20,18,00,AAXX 20184 41909 02940 00000 10212 20200 30141 40153 333 58000 70000==
41909,2023,11,20,21,00,AAXX 20214 41909 02/40 30000 10210 20200 30126 40138 83030 333 59017 70000 83360==
41909,2023,11,21,00,00,AAXX 21004 41909 01440 60000 10209 20200 30125 40137 70500 82530 333 59011 70000 82615 85360==
41909,2023,11,21,03,00,AAXX 21034 41909 01450 50000 10231 20210 30145 40157 70520 82530 333 20202 59013 70000 82615 85360==
41909,2023,11,21,06,00,AAXX 21064 41909 02456 52802 10297 20200 30125 40136 82530 333 59019 70000 82615 85360==
41909,2023,11,21,09,00,AAXX 21094 41909 02456 22801 10307 20170 30098 40109 82500 333 59020 70000 82615==
41909,2023,11,21,12,00,AAXX 21124 41909 02940 00000 10247 20210 30104 40116 333 10318 59018 70000==
41909,2023,11,21,15,00,AAXX 21154 41909 02940 00000 10224 20200 30119 40131 333 59017 70000==
41909,2023,11,21,18,00,AAXX 21184 41909 01940 00000 10214 20190 30121 40133 70500 333 59020 70000==
41909,2023,11,21,21,00,AAXX 21214 41909 01940 00000 10197 20190 30120 40132 70500 333 59006 70000==
41909,2023,11,22,00,00,AAXX 22004 41909 01940 00000 10192 20180 30120 40132 70500 333 59005 70000==
41909,2023,11,22,03,00,AAXX 22034 41909 01950 00000 10224 20170 30141 40153 70500 333 20188 59004 70000==
41909,2023,11,22,06,00,AAXX 22064 41909 02956 00000 10279 20150 30127 40138 333 58002 70000==
41909,2023,11,22,09,00,AAXX 22094 41909 02956 00000 10290 20140 30098 40109 333 58000 70000==
41909,2023,11,22,12,00,AAXX 22124 41909 01940 00000 10220 20180 30104 40116 70500 333 10294 58000 70000==
41909,2023,11,22,15,00,AAXX 22154 41909 01940 00000 10207 20180 30124 40136 70500 333 58005 70000==
41909,2023,11,22,18,00,AAXX 22184 41909 01935 00000 10204 20170 30118 40130 70500 333 59003 70000==
41909,2023,11,22,21,00,AAXX 22214 41909 01930 00000 10191 20170 30112 40124 70500 333 59008 70000==
41909,2023,11,23,00,00,AAXX 23004 41909 01930 00000 10180 20170 30114 40126 70500 333 59006 70000==
41909,2023,11,23,03,00,AAXX 23034 41909 01950 00000 10220 20180 30134 40146 70500 333 20175 59007 70000==
41909,2023,11,23,06,00,AAXX 23064 41909 02956 00000 10270 20150 30118 40129 333 59009 70000==
41909,2023,11,23,09,00,AAXX 23094 41909 02956 00000 10288 20150 30090 40101 333 59008 70000==
41909,2023,11,23,12,00,AAXX 23124 41909 02940 00000 10233 20190 30096 40108 333 10292 59008 70000==
41909,2023,11,23,15,00,AAXX 23154 41909 02940 00000 10211 20190 30115 40127 333 59009 70000==
41909,2023,11,23,18,00,AAXX 23184 41909 02940 00000 10200 20190 30121 40133 333 58003 70000==
41909,2023,11,23,21,00,AAXX 23214 41909 01935 00000 10193 20180 30116 40128 70500 333 58004 70000==
41915,2023,11,17,00,00,AAXX 17004 41915 21430 82604 10206 20200 30111 40137 76162 8532/ 333 59023 60027 70050 81710 84615 88460 81930==
41915,2023,11,17,03,00,AAXX 17034 41915 01440 82703 10204 20190 30111 40137 76166 8532/ 333 20199 59036 70071 84615 88460 81930==
41915,2023,11,17,06,00,AAXX 17064 41915 21450 81603 10201 20190 30121 40148 76166 8632/ 333 59011 60059 70096 86707 88458 81925==
41915,2023,11,17,09,00,AAXX 17094 41915 02440 81603 10208 20200 30103 40129 8672/ 333 59013 70460 83710 83616 88458==
41915,2023,11,17,12,00,AAXX 17124 41915 11430 81804 10207 20200 30097 40123 60779 8672/ 333 10212 56999 59009 70870 83710 83616 88458=
41915,2023,11,17,15,00,AAXX 17154 41915 01430 82009 10206 20200 30102 40128 76566 8672/ 333 59004 71033 83710 83616 88458==
41915,2023,11,17,18,00,AAXX 17184 41915 21430 82605 10205 20200 30100 40126 76166 8672/ 333 59002 60239 71073 82710 84616 88458==
41915,2023,11,18,00,00,AAXX 18004 41915 02450 70000 10200 20190 30117 40143 86470 333 58006 71043 85616 85458==
41915,2023,11,18,03,00,AAXX 18034 41915 02456 63001 10236 20200 30134 40156 85470 333 20192 58015 71023 84616 84458==
41915,2023,11,18,06,00,AAXX 18064 41915 02456 72702 10267 20190 30112 40137 84470 333 58016 70997 84616 85458==
41915,2023,11,18,09,00,AAXX 18094 41915 02456 63001 10236 20190 30131 40156 85470 333 20192 58015 71023 84616 84458==
41915,2023,11,18,12,00,AAXX 18124 41915 02450 82601 10246 20220 30107 40132 8552/ 333 10276 59010 70233 85616 88458==
41915,2023,11,18,15,00,AAXX 18154 41915 02450 80000 10226 20220 30124 40149 8552/ 333 58022 70070 85617 88458==
41915,2023,11,18,18,00,AAXX 18184 41915 02450 80000 10215 20210 30119 40145 8552/ 333 58019 70000 85617 88458==
41915,2023,11,18,21,00,AAXX 18214 41915 02450 60000 10209 20200 30112 40137 84520 333 58012 70000 83616 84658==
41915,2023,11,19,00,00,AAXX 19004 41915 02450 60000 10208 20200 30114 40139 84520 333 59003 70000 83616 86458==
41915,2023,11,19,03,00,AAXX 19034 41915 02456 20101 10276 20210 30150 40175 81430 333 20198 58019 70000 81616==
41915,2023,11,19,06,00,AAXX 19064 41915 02556 10102 10302 20200 30133 40159 81100 333 58021 70000 81822==
41915,2023,11,19,09,00,AAXX 19094 41915 02556 10502 10305 20210 30098 40123 81100 333 58000 70000 81822==
41915,2023,11,19,12,00,AAXX 19124 41915 02950 00000 10252 20220 30106 40131 333 10316 59001 70000==
41915,2023,11,19,15,00,AAXX 19154 41915 02950 00000 10224 20210 30127 40153 333 58003 70000==
41915,2023,11,19,21,00,AAXX 19214 41915 02950 00000 10200 20200 30124 40150 333 58012 70000==
41915,2023,11,20,00,00,AAXX 20004 41915 02950 00000 10191 20190 30130 40156 333 58016 70000==
41915,2023,11,20,03,00,AAXX 20034 41915 02956 00000 10276 20220 30145 40171 333 20190 59005 70000==
41915,2023,11,20,06,00,AAXX 20064 41915 02556 23102 10305 20210 30129 40154 82200 333 59004 70000 82822==
41915,2023,11,20,09,00,AAXX 20094 41915 02556 23102 10310 20200 30099 40124 82200 333 58001 70000 82822==
41915,2023,11,20,12,00,AAXX 20124 41915 02450 50000 10250 20230 30111 40136 81532 333 10320 58005 70000 81616 83362==
41915,2023,11,20,15,00,AAXX 20154 41915 01/50 10000 10225 20220 30122 40148 70521 81030 333 59005 70000 81362==
41915,2023,11,20,18,00,AAXX 20184 41915 01950 30000 10212 20200 30121 40147 70521 80002 333 59004 70000 83080==
41915,2023,11,20,21,00,AAXX 20214 41915 01440 50000 10207 20205 30114 40140 70522 83470 333 59010 70000 82616 83458==
41915,2023,11,21,00,00,AAXX 21004 41915 01440 80000 10206 20206 30116 40142 70522 8442/ 333 59014 70000 83616 88458==
41915,2023,11,21,03,00,AAXX 21034 41915 01450 70501 10236 20230 30124 40149 70522 84470 333 20203 59021 70000 83616 85458==
41915,2023,11,21,06,00,AAXX 21064 41915 02456 63102 10285 20200 30104 40130 84470 333 59025 70000 83616 83458==
41915,2023,11,21,09,00,AAXX 21094 41915 02456 63602 10290 20180 30087 40112 84430 333 59012 70000 83616 84362==
41915,2023,11,21,12,00,AAXX 21124 41915 02950 00000 10235 20230 30094 40120 333 10295 59017 70000==
41915,2023,11,21,15,00,AAXX 21154 41915 01950 00000 10213 20200 30106 40132 70500 333 59016 70000==
41915,2023,11,21,18,00,AAXX 21184 41915 01950 20000 10211 20200 30104 40130 70521 80002 333 59004 70000 82080==
41915,2023,11,21,21,00,AAXX 21214 41915 01440 30000 10208 20200 30104 40131 70522 83470 333 59010 70000 81616 83458==
41915,2023,11,22,00,00,AAXX 22004 41915 01440 80000 10202 20200 30116 40142 70522 8442/ 333 59016 70000 83616 88458==
41915,2023,11,22,03,00,AAXX 22034 41915 02456 20000 10257 20220 30127 40153 81530 333 20197 58003 70000 81616==
41915,2023,11,22,06,00,AAXX 22064 41915 02456 23402 10265 20220 30110 40135 81530 333 58006 70000 81616==
41915,2023,11,22,09,00,AAXX 22094 41915 02/56 23001 10285 20210 30084 40109 82040 333 59003 70000 82358==
41915,2023,11,22,12,00,AAXX 22124 41915 02956 00000 10235 20220 30090 40115 333 10290 59004 70000==
41915,2023,11,22,15,00,AAXX 22154 41915 02950 00000 10203 20190 30102 40128 333 59004 70000==
41915,2023,11,22,18,00,AAXX 22184 41915 42950 00000 10190 20180 30106 40132 58002==
41915,2023,11,22,21,00,AAXX 22214 41915 01940 00000 10186 20180 30099 40125 70500 333 59005 70000==
41915,2023,11,23,00,00,AAXX 23004 41915 01940 00000 10182 20170 30106 40132 70500 333 58001 70000==
41915,2023,11,23,03,00,AAXX 23034 41915 01908 00000 10220 20210 30120 40145 74340 333 20176 59007 70000==
41915,2023,11,23,06,00,AAXX 23064 41915 01456 30601 10264 20210 30096 40122 70342 333 59014 70000 81616 83362==
41915,2023,11,23,09,00,AAXX 23094 41915 02456 30901 10284 20180 30074 40099 82440 333 59010 70000 81616 83362==
41915,2023,11,23,12,00,AAXX 23124 41915 02450 20000 10235 20210 30082 40108 81440 333 10294 59008 70000 81616==
41915,2023,11,23,15,00,AAXX 23154 41915 02950 00000 10200 20190 30104 40130 333 58002 70000==
41915,2023,11,23,18,00,AAXX 23184 41915 02950 00000 10187 20180 30104 40130 333 59002 70000==
41915,2023,11,23,21,00,AAXX 23214 41915 01940 00000 10180 20170 30098 40124 70500 333 59001 70000==
41923,2023,11,17,00,00,AAXX 17004 41923 21330 80506 10234 20230 30144 40154 76166 8672/ 333 59003 60019 70023 83708 84614 88458==
41923,2023,11,17,03,00,AAXX 17034 41923 01320 80509 10222 20220 30154 40164 76166 8672/ 333 20220 59011 70087 83708 84614 88458==
41923,2023,11,17,06,00,AAXX 17064 41923 21325 80608 10220 20210 30126 40136 76166 8672/ 333 59030 60109 70115 83708 84614 88458==
41923,2023,11,17,09,00,AAXX 17094 41923 01325 80506 10215 20210 30088 40098 76166 8672/ 333 59052 70245 83708 84614 88458==
41923,2023,11,17,12,00,AAXX 17124 41923 21340 80609 10213 20200 30088 40098 72166 8662/ 333 10226 59062 60199 70305 83708 84614 88458==
41923,2023,11,17,15,00,AAXX 17154 41923 01340 80503 10218 20200 30127 40137 72162 8662/ 333 59039 70314 83708 85614 88458==
41923,2023,11,17,18,00,AAXX 17184 41923 01340 70000 10218 20200 30131 40141 70562 85670 333 59026 70314 82708 84614 85459==
41923,2023,11,17,21,00,AAXX 17214 41923 01435 40000 10213 20190 30126 40136 70521 82530 333 59014 70312 82616 83362==
41923,2023,11,18,00,00,AAXX 18004 41923 01435 10000 10208 20190 30132 40142 70510 81530 333 59012 70304 81616==
41923,2023,11,18,03,00,AAXX 18034 41923 01445 20503 10246 20200 30149 40158 70500 81530 333 20205 59005 70234 81616==
41923,2023,11,18,06,00,AAXX 18064 41923 02456 42602 10278 20210 30131 40141 83430 333 58005 70202 83615==
41923,2023,11,18,09,00,AAXX 18094 41923 02456 30503 10290 20200 30106 40116 83400 333 58018 70072 82616==
41923,2023,11,18,12,00,AAXX 18124 41923 01450 40000 10262 20190 30121 40130 70510 84400 333 10294 58033 70012 83615==
41923,2023,11,18,15,00,AAXX 18154 41923 01340 70000 10250 20210 30148 40157 70522 84670 333 58021 70002 81709 83615 86458==
41923,2023,11,18,18,00,AAXX 18184 41923 01440 50000 10233 20210 30150 40160 70522 81530 333 58019 70000 81616 83360==
41923,2023,11,18,21,00,AAXX 18214 41923 01440 40000 10226 20210 30145 40155 70511 81530 333 58019 70000 81616 83362==
41923,2023,11,19,00,00,AAXX 19004 41923 01440 40000 10226 20210 30145 40155 70511 81530 333 58019 70000 81616 83362==
41923,2023,11,19,03,00,AAXX 19034 41923 01940 03602 10270 20200 30166 40175 70500 333 20217 58017 70000==
41923,2023,11,19,06,00,AAXX 19064 41923 02450 60602 10295 20210 30143 40153 84430 333 58012 70000 82616 83824 85360==
41923,2023,11,19,09,00,AAXX 19094 41923 02450 50602 10298 20200 30115 40125 82530 333 58009 70000 82616 85360==
41923,2023,11,19,12,00,AAXX 19124 41923 01/45 30000 10264 20210 30124 40133 70520 83030 333 10302 58003 70000 83360==
41923,2023,11,19,15,00,AAXX 19154 41923 01/40 20000 10246 20220 30142 40151 70500 82030 333 59006 70000 82360==
41923,2023,11,19,18,00,AAXX 19184 41923 01/40 20000 10234 20210 30140 40150 70500 82030 333 59010 70000 82360==
41923,2023,11,19,21,00,AAXX 19214 41923 01/40 20000 10228 20220 30134 40144 70500 82030 333 59011 70000 82360==
41923,2023,11,20,00,00,AAXX 20004 41923 01/35 20000 10222 20210 30139 40149 70500 82030 333 59011 70000 82360==
41923,2023,11,20,03,00,AAXX 20034 41923 01/45 20000 10280 20200 30163 40172 70500 82030 333 20218 59003 70000 82360==
41923,2023,11,20,06,00,AAXX 20064 41923 02450 50802 10308 20180 30138 40148 82530 333 59005 70000 82616 85360==
41923,2023,11,20,09,00,AAXX 20094 41923 02456 30000 10308 20190 30120 40130 82430 333 58005 70000 82616==
41923,2023,11,20,12,00,AAXX 20124 41923 01345 50000 10264 20200 30126 40135 70520 84630 333 10318 58002 70000 82709 83615==
41923,2023,11,20,15,00,AAXX 20154 41923 01440 30000 10250 20210 30141 40150 70520 82530 333 59001 70000 82614==
41923,2023,11,20,18,00,AAXX 20184 41923 01/40 20000 10236 20210 30139 40149 70500 82030 333 59001 70000 82362==
41923,2023,11,20,21,00,AAXX 20214 41923 01340 60000 10230 20200 30130 40140 70520 83630 333 59004 70000 81709 83615 85362==
41923,2023,11,21,00,00,AAXX 21004 41923 01335 70000 10236 20200 30127 40136 70522 85670 333 59012 70000 82708 84614 85459==
41923,2023,11,21,03,00,AAXX 21034 41923 01340 50000 10260 20200 30149 40158 70522 83630 333 20228 59014 70000 81709 83615==
41923,2023,11,21,06,00,AAXX 21064 41923 01350 50503 10281 20190 30127 40137 70522 83630 333 59011 70000 81709 83615==
41923,2023,11,21,09,00,AAXX 21094 41923 01345 50000 10282 20190 30104 40114 70522 83630 333 59016 70000 81709 83615==
41923,2023,11,21,12,00,AAXX 21124 41923 01/40 30000 10252 20190 30109 40118 70520 83030 333 10294 59017 70000 83360==
41923,2023,11,21,15,00,AAXX 21154 41923 01/40 20000 10238 20210 30126 40136 70500 82030 333 59015 70000 82360==
41923,2023,11,21,18,00,AAXX 21184 41923 01/40 30000 10228 20210 30124 40134 70500 83030 333 59015 70000 83360==
41923,2023,11,21,21,00,AAXX 21214 41923 01/40 30000 10220 20180 30117 40127 70500 83030 333 59013 70000 83360==
41923,2023,11,22,00,00,AAXX 22004 41923 01435 30000 10222 20170 30125 40135 70500 83400 333 59002 70000 82616==
41923,2023,11,22,03,00,AAXX 22034 41923 01440 50000 10254 20160 30147 40156 70520 82530 333 20218 59002 70000 82616 83360==
41923,2023,11,22,06,00,AAXX 22064 41923 01/40 20000 10284 20150 30126 40136 70520 82030 333 59001 70000 82360==
41923,2023,11,22,09,00,AAXX 22094 41923 02/50 20302 10295 20150 30100 40110 82030 333 59004 70000 82365==
41923,2023,11,22,12,00,AAXX 22124 41923 02/45 20000 10254 20140 30109 40118 82030 333 10290 58000 70000 82362==
41923,2023,11,22,15,00,AAXX 22154 41923 01940 00000 10231 20150 30128 40138 70500 333 58002 70000==
41923,2023,11,22,18,00,AAXX 22184 41923 01940 00000 10216 20170 30126 40136 70500 333 58002 70000==
41923,2023,11,22,21,00,AAXX 22214 41923 01935 00000 10210 20170 30122 40132 70500 333 58005 70000==
41923,2023,11,23,00,00,AAXX 23004 41923 01930 00000 10203 20160 30121 40131 70500 333 59004 70000==
41923,2023,11,23,03,00,AAXX 23034 41923 01940 00000 10243 20150 30139 40149 70500 333 20195 59008 70000==
41923,2023,11,23,06,00,AAXX 23064 41923 01940 02402 10276 20150 30123 40133 70500 333 59003 70000==
41923,2023,11,23,09,00,AAXX 23094 41923 01450 43202 10286 20150 30092 40102 70510 82430 333 59008 70000 81616 83362==
41923,2023,11,23,12,00,AAXX 23124 41923 01440 10000 10248 20180 30100 40109 70500 81500 333 10292 59009 70000 81616==
41923,2023,11,23,15,00,AAXX 23154 41923 01440 30000 10234 20170 30122 40132 70500 82530 333 59006 70000 82616==
41923,2023,11,23,18,00,AAXX 23184 41923 01440 40000 10220 20180 30124 40134 70510 82430 333 59002 70000 81616 83360==
41923,2023,11,23,21,00,AAXX 23214 41923 01/35 20000 10208 20180 30120 40130 70500 82030 333 59002 70000 82360==
41926,2023,11,17,00,00,AAXX 17004 41926 02450 80000 10227 20227 30133 40147 8452/ 333 59009 70020 84616 88458==
41926,2023,11,17,03,00,AAXX 17034 41926 02450 70903 10240 20220 30138 40152 84510 333 20225 59022 70020 84616 86458==
41926,2023,11,17,06,00,AAXX 17064 41926 02450 51502 10272 20210 30116 40129 83510 333 59031 70020 83616 84459==
41926,2023,11,17,09,00,AAXX 17094 41926 02450 80905 10275 20200 30083 40099 8452/ 333 59046 70020 84615 88458==
41926,2023,11,17,12,00,AAXX 17124 41926 32450 81302 10245 20200 30107 40121 8452/ 333 10297 56399 59032 70010 84615 88458=
41926,2023,11,17,15,00,AAXX 17154 41926 01450 20000 10215 20210 30128 40142 70521 82500 333 59026 70000 82618==
41926,2023,11,17,18,00,AAXX 17184 41926 01950 00000 10210 20200 30129 40143 70520 333 59013 70000==
41926,2023,11,17,21,00,AAXX 17214 41926 01950 00000 10205 20200 30124 40138 70500 333 59003 70000==
41926,2023,11,18,00,00,AAXX 18004 41926 01440 20000 10200 20190 30127 40141 70500 82500 333 59006 70000 82618==
41926,2023,11,18,03,00,AAXX 18034 41926 01450 20000 10250 20210 30144 40158 70500 82500 333 20198 58006 70000 82618==
41926,2023,11,18,06,00,AAXX 18064 41926 01456 70000 10270 20190 30132 40146 70520 84510 333 58016 70000 84618 87459==
41926,2023,11,18,09,00,AAXX 18094 41926 02450 60000 10273 20200 30107 40121 84310 333 58024 70000 83618 84459 81930==
41926,2023,11,18,12,00,AAXX 18124 41926 01950 00000 10240 20220 30117 40131 70500 333 10278 58010 70000==
41926,2023,11,18,15,00,AAXX 18154 41926 01940 00000 10215 20210 30143 40157 70500 333 58015 70000==
41926,2023,11,18,18,00,AAXX 18184 41926 01940 00000 10202 20190 30146 40160 70500 333 58017 70000==
41926,2023,11,18,21,00,AAXX 18214 41926 01940 00000 10190 20180 30144 40158 70500 333 58020 70000==
41926,2023,11,19,00,00,AAXX 19004 41926 01940 00000 10182 20170 30146 40160 70500 333 58019 70000==
41926,2023,11,19,03,00,AAXX 19034 41926 01950 00000 10232 20200 30165 40179 70500 333 20180 58021 70000==
41926,2023,11,19,06,00,AAXX 19064 41926 02456 10000 10292 20190 30143 40157 81500 333 58011 70000 81618==
41926,2023,11,19,09,00,AAXX 19094 41926 02950 00000 10304 20160 30113 40127 333 58006 70000==
41926,2023,11,19,12,00,AAXX 19124 41926 01950 00000 10248 20210 30119 40133 70500 333 10312 58002 70000==
41926,2023,11,19,15,00,AAXX 19154 41926 01940 00000 10207 20200 30139 40153 70500 333 59004 70000==
41926,2023,11,19,18,00,AAXX 19184 41926 01940 00000 10195 20190 30138 40152 70500 333 59008 70000==
41926,2023,11,19,21,00,AAXX 19214 41926 01940 00000 10185 20180 30136 40150 70500 333 59008 70000==
41926,2023,11,20,00,00,AAXX 20004 41926 01940 00000 10177 20170 30138 40152 70500 333 59008 70000==
41926,2023,11,20,03,00,AAXX 20034 41926 01950 00000 10240 20210 30160 40174 70500 333 20176 59005 70000==
41926,2023,11,20,06,00,AAXX 20064 41926 01456 40000 10292 20160 30143 40157 70510 84400 333 58000 70000 83618==
41926,2023,11,20,09,00,AAXX 20094 41926 02456 60000 10290 20170 30124 40134 82402 333 59008 70000 82618 85080==
41926,2023,11,20,12,00,AAXX 20124 41926 01950 30000 10247 20210 30125 40139 70521 80001 333 10312 58006 70000 83080==
41926,2023,11,20,15,00,AAXX 20154 41926 01950 00000 10205 20200 30136 40150 70500 333 59003 70000==
41926,2023,11,20,18,00,AAXX 20184 41926 01950 00000 10196 20190 30137 40151 70500 333 59001 70000==
41926,2023,11,20,21,00,AAXX 20214 41926 01950 00000 10195 20190 30135 40149 70500 333 59001 70000==
41926,2023,11,21,00,00,AAXX 21004 41926 01940 10000 10190 20180 30129 40143 70500 80001 333 59009 70000 81080==
41926,2023,11,21,03,00,AAXX 21034 41926 01/50 30000 10230 20200 30150 40164 70500 83030 333 20190 59010 70000 83362==
41926,2023,11,21,06,00,AAXX 21064 41926 02956 03101 10290 20170 30128 40142 333 59005 70000==
41926,2023,11,21,09,00,AAXX 21094 41926 02956 13602 10297 20170 30102 40116 80001 333 59019 70000 81080==
41926,2023,11,21,12,00,AAXX 21124 41926 01950 00000 10237 20200 30104 40118 70500 333 10305 59021 70000==
41926,2023,11,21,15,00,AAXX 21154 41926 01950 00000 10205 20200 30123 40137 70500 333 59013 70000==
41926,2023,11,21,18,00,AAXX 21184 41926 01950 00000 10200 20190 30120 40134 70500 333 59017 70000==
41926,2023,11,21,21,00,AAXX 21214 41926 01950 00000 10188 20180 30121 40135 70500 333 59014 70000==
41926,2023,11,22,00,00,AAXX 22004 41926 01940 00000 10166 20160 30124 40138 70500 333 59005 70000==
41926,2023,11,22,03,00,AAXX 22034 41926 01950 00000 10215 20180 30142 40156 70500 333 20166 59008 70000==
41926,2023,11,22,06,00,AAXX 22064 41926 01956 00000 10275 20160 30126 40140 70500 333 59002 70000==
41926,2023,11,22,09,00,AAXX 22094 41926 02956 00000 10272 20130 30099 40113 333 59003 70000==
41926,2023,11,22,12,00,AAXX 22124 41926 01950 00000 10220 20200 30105 40119 70500 333 10287 58001 70000==
41926,2023,11,22,15,00,AAXX 22154 41926 01950 00000 10200 20180 30125 40139 70500 333 58002 70000==
41926,2023,11,22,18,00,AAXX 22184 41926 01950 00000 10174 20160 30123 40137 70500 333 58003 70000==
41926,2023,11,22,21,00,AAXX 22214 41926 01950 00000 10164 20160 30124 40138 70500 333 58003 70000==
41926,2023,11,23,00,00,AAXX 23004 41926 01940 00000 10157 20157 30125 40139 70500 333 58001 70000==
41926,2023,11,23,03,00,AAXX 23034 41926 01950 00000 10198 20180 30138 40152 70500 333 20157 59004 70000==
41926,2023,11,23,06,00,AAXX 23064 41926 01950 00000 10265 20180 30122 40136 70500 333 59004 70000==
41926,2023,11,23,09,00,AAXX 23094 41926 01950 00000 10280 20140 30091 40105 70500 333 59008 70000==
41926,2023,11,23,12,00,AAXX 23124 41926 01950 00000 10215 20200 30098 40112 70500 333 10287 59007 70000==
41926,2023,11,23,15,00,AAXX 23154 41926 01950 00000 10183 20170 30119 40151 70500 333 59006 70000==
41926,2023,11,23,18,00,AAXX 23184 41926 01950 00000 10170 20160 30118 40132 70500 333 59006 70000==
41926,2023,11,23,21,00,AAXX 23214 41926 01950 00000 10170 20160 30120 40134 70500 333 59004 70000==
41927,2023,11,17,00,00,AAXX 17004 41927 31440 80501 10220 20210 30135 40150 70522 8452/ 333 56199 59006 70010 84616 88458=
41927,2023,11,17,06,00,AAXX 17064 41927 31456 60501 10248 20220 30142 40157 70522 83510 333 56190 59008 70010 83617 85459=
41927,2023,11,17,12,00,AAXX 17124 41927 32456 80703 10235 20210 30103 40117 8452/ 333 10260 56299 59035 70000 84617 88458=
41927,2023,11,17,18,00,AAXX 17184 41927 31950 20000 10220 20200 30129 40143 70520 82010 333 56090 59031 70000 82459=
41927,2023,11,18,00,00,AAXX 18004 41927 31450 70000 10215 20210 30125 40139 70520 83510 333 56290 59010 70000 83617 87459=
41927,2023,11,18,06,00,AAXX 18064 41927 32457 70000 10255 20200 30129 40143 83510 333 56690 59013 70000 83617 87459=
41927,2023,11,18,12,00,AAXX 18124 41927 32456 50000 10240 20210 30117 40131 82510 333 10267 56690 58014 70000 82618 85459=
41927,2023,11,18,18,00,AAXX 18184 41927 31950 00000 10200 20190 30144 40158 70500 333 58015 70000=
41927,2023,11,19,00,00,AAXX 19004 41927 31915 00000 10192 20190 30147 40161 71000 333 58022 70000=
41927,2023,11,19,06,00,AAXX 19064 41927 32457 23401 10287 20190 30142 40156 82500 333 56900 58013 70000 82618=
41927,2023,11,19,12,00,AAXX 19124 41927 31956 00000 10240 20210 30117 40131 70500 333 10306 58000 70000=
41927,2023,11,19,18,00,AAXX 19184 41927 31950 00000 10210 20200 30135 40149 70500 333 59009 70000=
41927,2023,11,19,21,00,AAXX 19214 41927 31950 00000 10200 20190 30136 40150 70500 333 59009 70000=
41927,2023,11,20,00,00,AAXX 20004 41927 31940 00000 10195 20190 30137 40151 70500 333 59010 70000=
41927,2023,11,20,06,00,AAXX 20064 41927 32457 50000 10285 20200 30141 40155 85400 333 56900 59001 70000 82618 83828=
41927,2023,11,20,12,00,AAXX 20124 41927 31956 00000 10240 20210 30121 40135 70520 333 10305 58004 70000=
41927,2023,11,20,18,00,AAXX 20184 41927 31950 00000 10210 20200 30142 40156 70500 333 58007 70000=
41927,2023,11,21,00,00,AAXX 21004 41927 31450 50000 10197 20197 30123 40137 70520 82510 333 56990 59014 70000 82618 85459=
41927,2023,11,21,06,00,AAXX 21064 41927 32457 43501 10290 20170 30124 40138 84400 333 56800 59017 70000 81618 83828=
41927,2023,11,21,12,00,AAXX 21124 41927 31957 00000 10240 20210 30103 40117 70500 333 10300 59018 70000=
41927,2023,11,21,18,00,AAXX 21184 41927 31950 00000 10210 20200 30119 40133 70500 333 59023 70000=
41927,2023,11,22,00,00,AAXX 22004 41927 31940 00000 10175 20175 30119 40133 70500 333 59004 70000=
41927,2023,11,22,06,00,AAXX 22064 41927 32956 03601 10280 20120 30122 40136 333 59002 70000=
41927,2023,11,22,12,00,AAXX 22124 41927 31950 00000 10215 20180 30105 40119 70500 333 10285 58002 70000=
41927,2023,11,22,18,00,AAXX 22184 41927 31950 00000 10180 20170 30119 40133 70500 333 58000 70000=
41927,2023,11,23,00,00,AAXX 23004 41927 31940 00000 10170 20170 30119 40131 70500 333 58000 70000=
41927,2023,11,23,06,00,AAXX 23064 41927 31956 03601 10270 20140 30119 40133 70500 333 59003 70000=
41927,2023,11,23,12,00,AAXX 23124 41927 31956 00000 10222 20200 30094 40110 70500 333 10290 59009 70000=
41927,2023,11,23,18,00,AAXX 23184 41927 31950 00000 10185 20180 30103 40117 70500 333 59016 70000=
41929,2023,11,17,00,00,AAXX 17004 41929 21450 80702 10234 20220 30137 40146 76166 8452/ 333 59001 69967 70028 84617 88460==
41929,2023,11,17,03,00,AAXX 17034 41929 01450 80504 10230 20210 30144 40154 76166 8452/ 333 20226 59022 70032 84616 88460==
41929,2023,11,17,06,00,AAXX 17064 41929 21450 80505 10234 20210 30119 40128 76166 8572/ 333 59027 60019 70042 84710 84616 88460==
41929,2023,11,17,09,00,AAXX 17094 41929 01450 80610 10240 20210 30083 40092 70262 8452/ 333 59057 70035 84616 88460==
41929,2023,11,17,12,00,AAXX 17124 41929 11450 80709 10230 20210 30099 40108 69996 70262 8452/ 333 10240 56999 59048 70033 84616 88460=
41929,2023,11,17,15,00,AAXX 17154 41929 02450 80000 10230 20210 30132 40141 8452/ 333 59032 70032 84616 88460==
41929,2023,11,17,18,00,AAXX 17184 41929 02450 80000 10224 20200 30139 40148 8452/ 333 59010 70029 84616 88460==
41929,2023,11,17,21,00,AAXX 17214 41929 02/50 30000 10220 20200 30125 40134 83030 333 59010 70029 83365==
41929,2023,11,18,00,00,AAXX 18004 41929 02956 00000 10210 20200 30132 40141 333 59005 70023==
41929,2023,11,18,03,00,AAXX 18034 41929 02456 20903 10246 20210 30149 40158 82540 333 20204 58005 70019 82618==
41929,2023,11,18,06,00,AAXX 18064 41929 02457 43202 10270 20210 30134 40143 84540 333 58015 70000 84618==
41929,2023,11,18,09,00,AAXX 18094 41929 02/57 23202 10294 20200 30109 40119 82030 333 58026 70000 82365==
41929,2023,11,18,12,00,AAXX 18124 41929 02/56 10000 10260 20210 30125 40134 81030 333 10300 58026 70000 81362==
41929,2023,11,18,15,00,AAXX 18154 41929 02456 43501 10230 20210 30149 40158 83530 333 58017 70000 83618==
41929,2023,11,18,18,00,AAXX 18184 41929 02956 00000 10224 20200 30151 40160 333 58012 70000==
41929,2023,11,18,21,00,AAXX 18214 41929 02956 00000 10215 20200 30146 40155 333 58021 70000==
41929,2023,11,19,00,00,AAXX 19004 41929 02456 30000 10210 20200 30153 40162 82530 333 58019 70000 82618==
41929,2023,11,19,03,00,AAXX 19034 41929 02956 03202 10262 20210 30166 40175 333 20203 58017 70000==
41929,2023,11,19,06,00,AAXX 19064 41929 02456 23202 10300 20210 30148 40157 82400 333 58014 70000 82618==
41929,2023,11,19,09,00,AAXX 19094 41929 02456 23501 10308 20220 30116 40126 81530 333 58007 70000 81618==
41929,2023,11,19,12,00,AAXX 19124 41929 02456 40000 10260 20230 30125 40134 82510 333 10312 58000 70000 82618 83462==
41929,2023,11,19,15,00,AAXX 19154 41929 02956 00000 10234 20220 30146 40155 333 59003 70000==
41929,2023,11,19,18,00,AAXX 19184 41929 02956 00000 10230 20220 30141 40150 333 59010 70000==
41929,2023,11,19,21,00,AAXX 19214 41929 02956 00000 10224 20200 30134 40143 333 59012 70000==
41929,2023,11,20,00,00,AAXX 20004 41929 02956 00000 10220 20200 30139 40148 333 59014 70000==
41929,2023,11,20,03,00,AAXX 20034 41929 02956 00000 10274 20220 30162 40171 333 20210 59004 70000==
41929,2023,11,20,06,00,AAXX 20064 41929 02456 23602 10300 20210 30148 40157 82500 333 58000 70000 82618==
41929,2023,11,20,09,00,AAXX 20094 41929 02456 20000 10310 20180 30122 40132 82500 333 58006 70000 82618==
41929,2023,11,20,12,00,AAXX 20124 41929 32456 30000 10254 20210 30127 40136 82530 333 10315 56990 58002 70000 82618=
41929,2023,11,20,18,00,AAXX 20184 41929 02456 30000 10214 20190 30141 40150 82530 333 58000 70000 82618==
41929,2023,11,20,21,00,AAXX 20214 41929 02456 30000 10210 20200 30128 40137 82530 333 59006 70000 82618==
41929,2023,11,21,00,00,AAXX 21004 41929 02456 73502 10215 20200 30127 40136 84530 333 59012 70000 84618 84365==
41929,2023,11,21,03,00,AAXX 21034 41929 02456 63202 10245 20220 30150 40159 84530 333 20206 59012 70000 84618 85365==
41929,2023,11,21,06,00,AAXX 21064 41929 02456 60502 10290 20200 30132 40141 84530 333 59016 70000 84618 85365==
41929,2023,11,21,09,00,AAXX 21094 41929 02456 50000 10296 20210 30105 40115 83410 333 59017 70000 82616 84458==
41929,2023,11,21,12,00,AAXX 21124 41929 02956 00000 10242 20210 30111 40120 333 10306 59007 70000==
41929,2023,11,21,15,00,AAXX 21154 41929 01950 00000 10220 20210 30125 40134 70500 333 59017 70000==
41929,2023,11,21,18,00,AAXX 21184 41929 01950 00000 10210 20190 30125 40134 70500 333 59016 70000==
41929,2023,11,21,21,00,AAXX 21214 41929 01940 00000 10202 20190 30128 40137 70500 333 58000 70000==
41929,2023,11,22,00,00,AAXX 22004 41929 01940 00000 10194 20180 30129 40138 70500 333 58002 70000==
41929,2023,11,22,03,00,AAXX 22034 41929 01950 00000 10240 20200 30151 40160 70500 333 20188 58001 70000==
41929,2023,11,22,06,00,AAXX 22064 41929 01950 00000 10285 20170 30130 40140 70500 333 59002 70000==
41929,2023,11,22,09,00,AAXX 22094 41929 01950 03202 10285 20170 30103 40112 70500 333 59002 70000==
41929,2023,11,22,12,00,AAXX 22124 41929 01950 00000 10259 20190 30102 40111 70500 333 10297 59009 70000==
41929,2023,11,22,15,00,AAXX 22154 41929 01950 00000 10211 20190 30126 40135 70500 333 58001 70000==
41929,2023,11,22,18,00,AAXX 22184 41929 01950 00000 10190 20180 30124 40134 70500 333 59004 70000==
41929,2023,11,22,21,00,AAXX 22214 41929 01950 00000 10182 20170 30119 40129 70500 333 59009 70000==
41929,2023,11,23,00,00,AAXX 23004 41929 01940 00000 10173 20160 30119 40129 70500 333 59010 70000==
41929,2023,11,23,03,00,AAXX 23034 41929 01950 00000 10230 20170 30140 40150 70500 333 20165 59011 70000==
41929,2023,11,23,06,00,AAXX 23064 41929 01950 00000 10280 20150 30122 40131 70500 333 59008 70000==
41929,2023,11,23,09,00,AAXX 23094 41929 01950 00000 10287 20160 30094 40103 70500 333 59009 70000==
41929,2023,11,23,12,00,AAXX 23124 41929 01950 00000 10257 20190 30098 40107 70500 333 10295 59004 70000==
41929,2023,11,23,15,00,AAXX 23154 41929 01950 00000 10207 20190 30120 40129 70500 333 59006 70000==
41929,2023,11,23,18,00,AAXX 23184 41929 01450 40000 10195 20180 30121 40131 70521 84540 333 59003 70000 84618==
41929,2023,11,23,21,00,AAXX 23214 41929 01950 02703 10195 20180 30122 40132 70520 333 58003 70000==
41933,2023,11,17,00,00,AAXX 17004 41933 21450 80000 10225 20220 30137 40146 76162 8572/ 333 58009 60109 70100 82709 84616 88457==
41933,2023,11,17,03,00,AAXX 17034 41933 01340 80000 10220 20210 30151 40159 76366 8672/ 333 20218 58009 70254 83708 84615 88457==
41933,2023,11,17,06,00,AAXX 17064 41933 21340 80904 10215 20210 30111 40120 76566 8672/ 333 59034 60449 70536 83708 84615 88457==
41933,2023,11,17,09,00,AAXX 17094 41933 01340 80804 10212 20200 30075 40084 76566 8672/ 333 59061 70764 83708 84615 88457==
41933,2023,11,17,12,00,AAXX 17124 41933 11330 80808 10205 20043 40052 60649 76596 8672/ 333 10222 56299 59103 71176 83708 84615 88457=
41933,2023,11,17,15,00,AAXX 17154 41933 01450 70607 10204 20200 30092 40101 72166 84520 333 59064 71220 84618 87458==
41933,2023,11,17,18,00,AAXX 17184 41933 21450 70404 10213 20190 30106 40115 70262 84520 333 59048 60048 71220 84618 87458==
41933,2023,11,17,21,00,AAXX 17214 41933 02450 60602 10205 20190 30111 40120 83510 333 59035 71210 83618 86459==
41933,2023,11,18,00,00,AAXX 18004 41933 02450 20000 10204 20180 30115 40124 82500 333 59022 70112 82616==
41933,2023,11,18,03,00,AAXX 18034 41933 02450 20902 10240 20190 30132 40141 82500 333 20195 59019 70966 82618==
41933,2023,11,18,06,00,AAXX 18064 41933 02450 60902 10255 20210 30121 40130 83520 333 58010 70684 83618 86458==
41933,2023,11,18,09,00,AAXX 18094 41933 02450 60000 10255 20210 30104 40113 83520 333 58029 70456 83618 86458==
41933,2023,11,18,12,00,AAXX 18124 41933 02450 80000 10245 20220 30113 40122 8452/ 333 20262 58070 70044 84616 88458==
41933,2023,11,18,15,00,AAXX 18154 41933 02450 20000 10222 20210 30139 40148 82500 333 58047 70000 82618==
41933,2023,11,18,18,00,AAXX 18184 41933 02950 00000 10212 20200 30141 40150 333 58035 70000==
41933,2023,11,18,21,00,AAXX 18214 41933 02440 80000 10218 20200 30136 40145 8352/ 333 58025 70000 83616 88458==
41933,2023,11,19,00,00,AAXX 19004 41933 01440 80000 10225 20220 30140 40149 70562 8451/ 333 58025 70000 84615 88458==
41933,2023,11,19,03,00,AAXX 19034 41933 42456 50000 10260 20220 30145 40154 82530 333 20208 58013 82618 85362==
41933,2023,11,19,06,00,AAXX 19064 41933 42456 50000 10300 20210 30135 40144 84430 333 58014 82618 83826==
41933,2023,11,19,09,00,AAXX 19094 41933 42456 50000 10310 20210 30107 40115 84430 333 58003 82618 83828==
41933,2023,11,19,12,00,AAXX 19124 41933 41950 00000 10261 20230 30116 40125 70520 333 10315 58003==
41933,2023,11,19,15,00,AAXX 19154 41933 41950 00000 10240 20230 30132 40141 70500 333 59007==
41933,2023,11,19,18,00,AAXX 19184 41933 41940 00000 10230 20220 30138 40147 70500 333 59003==
41933,2023,11,19,21,00,AAXX 19214 41933 41940 00000 10225 20220 30136 40145 70500 333 58000==
41933,2023,11,20,00,00,AAXX 20004 41933 01440 30000 10220 20220 30132 40141 70500 83500 333 59008 70000==
41933,2023,11,20,03,00,AAXX 20034 41933 02956 20000 10266 20230 30152 40161 80001 333 20219 58007 70000 82074==
41933,2023,11,20,06,00,AAXX 20064 41933 02456 30000 10306 20210 30135 40143 83400 333 58000 70000 82618==
41933,2023,11,20,09,00,AAXX 20094 41933 02456 60000 10304 20200 30114 40122 83441 333 58007 70000 82618 84362==
41933,2023,11,20,12,00,AAXX 20124 41933 02450 60000 10260 20230 30119 40128 82542 333 10320 58003 70000 82618 85074==
41933,2023,11,20,15,00,AAXX 20154 41933 01/40 30000 10240 20230 30132 40141 70521 83040 333 58000 70000 83362==
41933,2023,11,20,18,00,AAXX 20184 41933 01440 20000 10231 20220 30133 40142 70520 82500 333 59005 70000 82618==
41933,2023,11,20,21,00,AAXX 20214 41933 01440 50000 10229 20220 30126 40135 70520 82540 333 59010 70000 82618 85362==
41933,2023,11,21,00,00,AAXX 21004 41933 01440 70000 10225 20220 30118 40126 70520 84520 333 59014 70000 84616 87458==
41933,2023,11,21,03,00,AAXX 21034 41933 01440 70000 10240 20220 30138 40147 70562 84520 333 20224 59014 70003 84616 87458==
41933,2023,11,21,06,00,AAXX 21064 41933 11440 70000 10275 20220 30124 40132 69936 70562 84520 333 59011 70003 84616 87458==
41933,2023,11,21,09,00,AAXX 21094 41933 01440 70000 10280 20200 30098 40106 70500 84520 333 59016 70003 84616 87458==
41933,2023,11,21,12,00,AAXX 21124 41933 01440 20000 10250 20230 30108 40116 70521 82500 333 10285 59011 70003 82618==
41933,2023,11,21,15,00,AAXX 21154 41933 01940 00000 10224 20210 30118 40127 70500 333 59014 70000==
41933,2023,11,21,18,00,AAXX 21184 41933 01920 00000 10220 20210 30117 40125 71000 333 59016 70003==
41933,2023,11,21,21,00,AAXX 21214 41933 01915 00000 10210 20200 30110 40118 71000 333 59016 70003==
41933,2023,11,22,00,00,AAXX 22004 41933 01901 00000 10200 20200 30115 40124 74640 333 59003 70003==
41933,2023,11,22,03,00,AAXX 22034 41933 01935 00000 10230 20220 30130 40139 70540 333 20196 59008 70000==
41933,2023,11,22,06,00,AAXX 22064 41933 01440 40000 10284 20210 30115 40123 70542 84400 333 59009 70000 83616 83826==
41933,2023,11,22,09,00,AAXX 22094 41933 01440 30000 10290 20200 30088 40096 70520 83400 333 59010 70000 82618==
41933,2023,11,22,12,00,AAXX 22124 41933 01940 00000 10246 20210 30096 40104 70520 333 10300 59012 70000==
41933,2023,11,22,15,00,AAXX 22154 41933 01940 00000 10230 20210 30116 40124 70500 333 59002 70000==
41933,2023,11,22,18,00,AAXX 22184 41933 01940 00000 10220 20200 30115 40123 70500 333 59002 70000==
41933,2023,11,22,21,00,AAXX 22214 41933 01930 00000 10210 20190 30114 40122 70500 333 58004 70000==
41933,2023,11,23,00,00,AAXX 23004 41933 01930 00000 10195 20190 30113 40121 70500 333 59002 70000==
41933,2023,11,23,03,00,AAXX 23034 41933 01940 00000 10236 20190 30130 40139 70500 333 20186 58000 70000==
41933,2023,11,23,06,00,AAXX 23064 41933 01450 20000 10280 20170 30110 40119 70500 82500 333 59005 70000 82618==
41933,2023,11,23,09,00,AAXX 23094 41933 01450 30000 10284 20160 30085 40094 70500 83500 333 59003 70000 83618==
41933,2023,11,23,12,00,AAXX 23124 41933 01440 30000 10236 20200 30093 40101 70500 81510 333 10290 59003 70000 81618 83458==
41933,2023,11,23,15,00,AAXX 23154 41933 01440 30000 10211 20190 30113 40121 70500 83500 333 59003 70000 83618==
41933,2023,11,23,18,00,AAXX 23184 41933 01430 20000 10200 20190 30114 40123 71000 82500 333 59001 70000 82618==
41933,2023,11,23,21,00,AAXX 23214 41933 01915 00000 10195 20190 30114 40123 71000 333 58000 70000==
41936,2023,11,17,00,00,AAXX 17004 41936 41310 70908 10214 20200 30126 40133 76162 86730 333 58010 84708 83615 87362==
41936,2023,11,17,03,00,AAXX 17034 41936 01320 70410 10228 20220 30132 40140 72166 85630 333 20214 59028 70100 83708 83615 86362==
41936,2023,11,17,06,00,AAXX 17064 41936 01330 70713 10244 20210 30116 40123 70565 85630 333 59033 70020 84708 83615 86362==
41936,2023,11,17,09,00,AAXX 17094 41936 01325 70414 10250 20210 30081 40088 70522 333 59054 70030 85630 83708 83615 86362==
41936,2023,11,17,12,00,AAXX 17124 41936 01320 70406 10234 20210 30106 40113 70522 85630 333 10254 59003 70020 83708 83615 86362==
41936,2023,11,17,15,00,AAXX 17154 41936 01320 60000 10218 20210 30130 40137 70522 84630 333 59025 70050 82708 83615==
41936,2023,11,17,18,00,AAXX 17184 41936 01320 60000 10210 20204 30130 40137 70522 84630 333 59041 70030 82708 83615==
41936,2023,11,17,21,00,AAXX 17214 41936 01320 60000 10210 20204 30124 40121 70522 84630 333 59015 70050 82708 83615==
41936,2023,11,18,00,00,AAXX 18004 41936 01910 20000 10200 20196 30138 40145 70511 333 58012 70000 82615==
41936,2023,11,18,03,00,AAXX 18034 41936 01/50 20706 10226 20210 30146 40153 70511 82030 333 20198 58013 70030 82362==
41936,2023,11,18,06,00,AAXX 18064 41936 01950 30304 10286 20210 30133 40140 70511 82530 333 58017 70030 82615 83362==
41936,2023,11,18,09,00,AAXX 18094 41936 01450 50603 10280 20200 30109 40116 70522 83830 333 58028 70030 83615 84362==
41936,2023,11,18,12,00,AAXX 18124 41936 01450 30000 10250 20220 30116 40123 70511 82530 333 10288 58010 70030 82615==
41936,2023,11,18,15,00,AAXX 18154 41936 01/50 20000 10224 20200 30148 40155 70521 82030 333 58010 70000 82362==
41936,2023,11,18,18,00,AAXX 18184 41936 01/20 20000 10212 20200 30146 40453 70511 82030 333 58016 70000 82362==
41936,2023,11,18,21,00,AAXX 18214 41936 01/20 20000 10204 20190 30139 40146 70511 82030 333 58015 70000 82362==
41936,2023,11,19,00,00,AAXX 19004 41936 42907 00000 10184 20170 30150 40157 58012==
41936,2023,11,19,03,00,AAXX 19034 41936 01910 00404 10240 20210 30160 40167 72800 333 20182 58014 70000==
41936,2023,11,19,06,00,AAXX 19064 41936 01950 40406 10290 20210 30140 40147 70510 82530 333 58006 70000 82615 83362==
41936,2023,11,19,09,00,AAXX 19094 41936 01950 40203 10308 20200 30117 40122 70511 82530 333 58006 70000 82615 83362==
41936,2023,11,19,12,00,AAXX 19124 41936 01/50 20000 10260 20210 30123 40127 70511 82030 333 10312 58004 70000 82362==
41936,2023,11,19,15,00,AAXX 19154 41936 01/50 20000 10216 20200 30141 40148 70500 82030 333 59007 70000 82362==
41936,2023,11,19,18,00,AAXX 19184 41936 01950 00000 10200 20190 30138 40145 70500 333 59008 70000==
41936,2023,11,19,21,00,AAXX 19214 41936 01930 00000 10192 20180 30132 40139 70500 333 59007 70000==
41936,2023,11,20,00,00,AAXX 20004 41936 01/10 10000 10186 20180 30138 40145 71000 81030 333 59012 70000==
41936,2023,11,20,03,00,AAXX 20034 41936 01920 00403 10230 20200 30159 40166 70500 333 20180 59001 70000==
41936,2023,11,20,06,00,AAXX 20064 41936 01440 20406 10302 20200 30148 40155 70511 82830 333 58008 70000 82615==
41936,2023,11,20,09,00,AAXX 20094 41936 01450 42803 10300 20210 30121 40128 70511 82530 333 58006 70000 82615 83362==
41936,2023,11,20,12,00,AAXX 20124 41936 01/50 30000 10260 20240 30128 40135 70511 83030 333 10308 58011 70000 83362==
41936,2023,11,20,15,00,AAXX 20154 41936 01/50 30000 10230 20220 30146 40153 70511 83030 333 58005 70000 83362==
41936,2023,11,20,18,00,AAXX 20184 41936 01/50 30000 10204 20190 30132 40140 70511 83030 333 59003 70000 83362==
41936,2023,11,20,21,00,AAXX 20214 41936 01/50 30000 10196 20190 30132 40139 70511 83030 333 58000 70000 83362==
41936,2023,11,21,00,00,AAXX 21004 41936 02/50 30000 10196 20190 30134 40141 83030 333 59012 70000 83362==
41936,2023,11,21,03,00,AAXX 21034 41936 01/14 30103 10240 20210 30150 40157 70511 83030 333 20194 59009 70000 83362==
41936,2023,11,21,06,00,AAXX 21064 41936 01/40 33504 10302 20190 30131 40138 70511 83030 333 59017 70000 83362==
41936,2023,11,21,09,00,AAXX 21094 41936 01950 00103 10304 20170 30105 40112 70511 333 59016 70000==
41936,2023,11,21,12,00,AAXX 21124 41936 01950 00000 10244 20200 30107 40114 70500 333 10314 59021 70000==
41936,2023,11,21,15,00,AAXX 21154 41936 01950 00000 10222 20200 30124 40131 70500 333 59022 70000==
41936,2023,11,21,18,00,AAXX 21184 41936 01950 00000 10200 20190 30108 40115 70500 333 59024 70000==
41936,2023,11,21,21,00,AAXX 21214 41936 01930 00000 10200 20190 30108 40115 70500 333 59024 70000==
41936,2023,11,22,00,00,AAXX 22004 41936 01907 00000 10176 20170 30123 40130 74100 333 59011 70000==
41936,2023,11,22,03,00,AAXX 22034 41936 42907 00203 10212 20174 30144 40151 59006==
41936,2023,11,22,06,00,AAXX 22064 41936 01912 03203 10292 20160 30131 40138 70540 333 58000 70000==
41936,2023,11,22,09,00,AAXX 22094 41936 01914 03503 10292 20150 30107 40114 70500 333 58002 70000==
41936,2023,11,22,12,00,AAXX 22124 41936 01910 00000 10296 20220 30110 40117 70500 333 58003 70000==
41936,2023,11,22,15,00,AAXX 22154 41936 01914 00000 10192 20170 30124 40131 70500 333 58000 70000==
41936,2023,11,22,18,00,AAXX 22184 41936 01914 00000 10184 20160 30130 40137 70500 333 58006 70000==
41936,2023,11,22,21,00,AAXX 22214 41936 01912 00000 10170 20160 30118 40125 70500 333 58010 70000==
41936,2023,11,23,00,00,AAXX 23004 41936 01905 00000 10156 20160 30121 40129 74240 333 59001 70000==
41936,2023,11,23,03,00,AAXX 23034 41936 01907 00000 10202 20190 30138 40145 74246 333 20154 59006 70000==
41936,2023,11,23,06,00,AAXX 23064 41936 01912 00000 10276 20220 30128 40135 70540 333 59003 70000==
41936,2023,11,23,09,00,AAXX 23094 41936 01914 02703 10280 20160 30145 40152 70500 333 58038 70000==
41936,2023,11,23,12,00,AAXX 23124 41936 01914 03303 10216 20190 30101 40108 70500 333 20294 59009 70000==
41936,2023,11,23,15,00,AAXX 23154 41936 01918 00000 10186 20180 30120 40127 70500 333 59004 70000==
41936,2023,11,23,18,00,AAXX 23184 41936 01918 00000 10180 20170 30120 40127 70500 333 59010 70000==
41936,2023,11,23,21,00,AAXX 23214 41936 01916 00000 10166 20160 30114 40121 70500 333 59004 70000==
41938,2023,11,17,00,00,AAXX 17004 41938 11330 80403 10217 20220 30125 40129 60109 76162 8572/ 333 56199 59013 70149 82708 83614 88458=
41938,2023,11,17,06,00,AAXX 17064 41938 11330 80106 10218 20215 30102 40106 60309 76166 8532/ 333 56199 59050 70437 82708 83614 81927 88458=
41938,2023,11,17,12,00,AAXX 17124 41938 11350 83603 10215 20210 30093 40097 60199 76162 8572/ 333 10222 56899 59048 70620 81709 84616 88459=
41938,2023,11,17,18,00,AAXX 17184 41938 11950 53001 10210 20200 30129 40133 69968 70562 83011 333 56099 59016 70592 83460 83080=
41938,2023,11,18,00,00,AAXX 18004 41938 31945 33501 10200 20200 30130 40134 70521 82071 333 56099 58005 70488 82460=
41938,2023,11,18,06,00,AAXX 18064 41938 32457 30502 10270 20200 30133 40137 81501 333 56809 58031 70192 81618 83080=
41938,2023,11,18,12,00,AAXX 18124 41938 31450 30000 10250 20230 30107 40111 70511 83400 333 10283 56400 58014 70006 82618=
41938,2023,11,18,18,00,AAXX 18184 41938 31950 00000 10200 20200 30140 40144 70500 333 58015 70000=
41938,2023,11,19,00,00,AAXX 19004 41938 31950 00000 10200 20200 30145 40149 70500 333 58015 70000=
41938,2023,11,19,06,00,AAXX 19064 41938 31450 40000 10273 20200 30145 40149 70510 84400 333 56400 58012 70000 83618=
41938,2023,11,19,12,00,AAXX 19124 41938 31950 00000 10250 20230 30119 40123 70510 333 10287 58012 70000=
41938,2023,11,19,18,00,AAXX 19184 41938 31940 00000 10220 20210 30137 40141 79500 333 59008 70000=
41938,2023,11,19,21,00,AAXX 19214 41938 31940 00000 10220 20210 30137 40141 70500 333 59008 70000=
41938,2023,11,20,00,00,AAXX 20004 41938 31940 00000 10200 20200 30135 40139 70500 333 58010 70000=
41938,2023,11,20,06,00,AAXX 20064 41938 31450 30000 10282 20180 30143 40147 70500 83400 333 56400 58002 70000 82618=
41938,2023,11,20,12,00,AAXX 20124 41938 31940 50000 10243 20220 30124 40128 70521 83011 333 10295 56099 58005 70000 83460 83080=
41938,2023,11,20,18,00,AAXX 20184 41938 31925 20000 10222 20210 30140 40144 71021 80001 333 56009 58003 70000 82080=
41938,2023,11,21,00,00,AAXX 21004 41938 11430 83201 10215 20210 30128 40132 69915 70562 8352/ 333 56799 59007 70001 83618 88459=
41938,2023,11,21,06,00,AAXX 21064 41938 31445 73603 10274 20210 30135 40139 70522 81571 333 56899 59008 70001 81618 83460 85462=
41938,2023,11,21,12,00,AAXX 21124 41938 31440 10000 10245 20230 30110 40113 70521 81500 333 10286 59014 70001 81618=
41938,2023,11,21,18,00,AAXX 21184 41938 31915 00000 10205 20200 30120 40124 71000 333 59000 70001=
41938,2023,11,22,00,00,AAXX 22004 41938 31915 03001 10181 20170 30122 40126 71000 333 59006 70000=
41938,2023,11,22,06,00,AAXX 22064 41938 NIL=
41938,2023,11,22,12,00,AAXX 22124 41938 31920 00000 10222 20190 30109 40113 71000 333 10284 59001 70000=
41938,2023,11,22,18,00,AAXX 22184 41938 31915 00000 10180 20170 30135 40139 71000 333 58015 70000=
41938,2023,11,23,00,00,AAXX 23004 41938 31912 02701 10160 20150 30118 40122 71000 333 59004 70000=
41938,2023,11,23,06,00,AAXX 23064 41938 31930 03602 10266 20150 30127 40131 70500 333 59003 70000=
41938,2023,11,23,12,00,AAXX 23124 41938 31950 00000 10225 20190 30102 40106 70500 333 10278 59007 70000=
41938,2023,11,23,18,00,AAXX 23184 41938 31950 00000 10180 20160 30118 40122 70500 333 59017 70000=
41939,2023,11,17,00,00,AAXX 17004 41939 21450 80000 10225 20220 30150 40158 76166 8352/ 333 58004 60229 70425 83615 88459==
41939,2023,11,17,03,00,AAXX 17034 41939 01457 80000 10225 20220 30146 40154 76166 8352/ 333 20223 70505 83615 88459==
41939,2023,11,17,06,00,AAXX 17064 41939 21450 80503 10225 20220 30139 40147 76166 8452/ 333 59015 60279 70543 84615 88459==
41939,2023,11,17,09,00,AAXX 17094 41939 01450 80507 10215 20210 30071 40079 76166 8452/ 333 59071 70789 84615 88459==
41939,2023,11,17,15,00,AAXX 17154 41939 01450 80000 10218 20200 30130 40138 70522 8352/ 333 59021 70845 83616 88459==
41939,2023,11,17,16,00,AAXX 17164 41939 01450 80000 10218 20200 30130 40138 70522 8352/ 333 59021 70845 83616 88459==
41939,2023,11,18,00,00,AAXX 18004 41939 02950 70000 10208 20200 30129 40138 83510 333 59021 70730 83617 87459==
41939,2023,11,18,03,00,AAXX 18034 41939 02957 20000 10235 20210 30146 40154 81530 333 20195 58000 70550 81618==
41939,2023,11,18,06,00,AAXX 18064 41939 02458 20000 10283 20200 30127 40135 81530 333 59012 70362 81618==
41939,2023,11,18,09,00,AAXX 18094 41939 02457 10000 10278 20220 30114 40122 81530 333 58043 70100 81618==
41939,2023,11,18,12,00,AAXX 18124 41939 02956 00000 10240 20220 30129 40137 333 10285 58040 70020==
41939,2023,11,18,15,00,AAXX 18154 41939 02950 00000 10235 20230 30154 40162 333 58044 70020==
41939,2023,11,18,18,00,AAXX 18184 41939 02950 00000 10230 20220 30167 40175 333 58042 70000==
41939,2023,11,18,21,00,AAXX 18214 41939 01950 00000 10210 20200 30158 40166 70500 333 58023 70000==
41939,2023,11,19,00,00,AAXX 19004 41939 01950 00000 10198 20190 30156 40164 70500 333 58018 70000==
41939,2023,11,19,03,00,AAXX 19034 41939 02958 00000 10260 20210 30170 40178 333 20197 58024 70000==
41939,2023,11,19,06,00,AAXX 19064 41939 02458 10000 10290 20210 30140 40148 82400 333 58013 70000 81618==
41939,2023,11,19,09,00,AAXX 19094 41939 02457 10000 10284 20200 30124 40132 82400 333 58010 70000 81618==
41939,2023,11,19,12,00,AAXX 19124 41939 02956 00000 10255 20210 30130 40138 333 10293 58001 70000==
41939,2023,11,19,15,00,AAXX 19154 41939 01950 00000 10236 20230 30048 40056 70500 333 59006 70000==
41939,2023,11,19,21,00,AAXX 19214 41939 01940 00000 10220 20210 30150 40158 70500 333 59008 70000==
41939,2023,11,20,00,00,AAXX 20004 41939 01940 10000 10210 20200 30146 40154 70500 81530 333 59010 70000 81618==
41939,2023,11,20,03,00,AAXX 20034 41939 01956 00000 10240 20220 30164 40172 70500 333 20203 59006 70000==
41939,2023,11,20,06,00,AAXX 20064 41939 02457 20000 10295 20210 30145 40153 82530 333 58005 70000 82618==
41939,2023,11,20,09,00,AAXX 20094 41939 02457 40000 10290 20210 30131 40139 82530 333 58007 70000 82618 83362==
41939,2023,11,20,12,00,AAXX 20124 41939 02456 30000 10245 20230 30130 40138 82530 333 10305 58000 70000 82618==
41939,2023,11,20,15,00,AAXX 20154 41939 02456 30000 10235 20230 30144 40152 81530 333 59004 70000 81618 83365==
41939,2023,11,20,18,00,AAXX 20184 41939 02450 30000 10230 20220 30154 40162 81530 333 59006 70000 81618 83365==
41939,2023,11,21,00,00,AAXX 21004 41939 02456 50000 10220 20200 30147 40155 83530 333 59006 70000 83617 83364==
41939,2023,11,21,03,00,AAXX 21034 41939 02457 70000 10240 20210 30156 40164 83510 333 20208 58010 70000 83617 86459==
41939,2023,11,21,06,00,AAXX 21064 41939 02457 50000 10275 20200 30127 40135 82530 333 59018 70000 82618 83359==
41939,2023,11,21,09,00,AAXX 21094 41939 02456 40000 10277 20210 30112 40120 81530 333 59019 70000 81618 83360==
41939,2023,11,21,12,00,AAXX 21124 41939 02456 40000 10240 20220 30117 40125 82530 333 10282 59013 70000 82618 83364==
41939,2023,11,21,15,00,AAXX 21154 41939 01450 40000 10225 20210 30129 40137 70522 82530 333 59015 70000 82618 83364==
41939,2023,11,21,18,00,AAXX 21184 41939 01450 40000 10225 20220 30140 40148 70522 82530 333 59014 70000 82618 83365==
41939,2023,11,21,21,00,AAXX 21214 41939 01940 00000 10200 20190 30137 40145 70500 333 59010 70000==
41939,2023,11,22,00,00,AAXX 22004 41939 02940 00000 10195 20190 30132 40140 333 59008 70000==
41939,2023,11,22,03,00,AAXX 22034 41939 02956 00000 10244 30160 40168 333 20188 58004 70000==
41939,2023,11,22,06,00,AAXX 22064 41939 02980 00000 10288 20170 30133 40141 333 58006 70000==
41939,2023,11,22,09,00,AAXX 22094 41939 02957 00000 10280 20160 30106 40114 333 59006 70000==
41939,2023,11,22,12,00,AAXX 22124 41939 02956 00000 10217 20190 30115 40124 333 10290 59002 70000==
41939,2023,11,22,15,00,AAXX 22154 41939 02950 00000 10198 20180 30134 40144 333 58005 70000==
41939,2023,11,22,18,00,AAXX 22184 41939 01950 00000 10195 20180 30146 40154 70500 333 58006 70000==
41939,2023,11,22,21,00,AAXX 22214 41939 01950 00000 10174 20160 30135 40143 70500 333 58003 70000==
41939,2023,11,23,00,00,AAXX 23004 41939 01950 00000 10170 20160 30133 40141 70500 333 58001 70000==
41939,2023,11,23,03,00,AAXX 23034 41939 02957 00000 10220 20190 30145 40153 333 20163 59015 70000==
41939,2023,11,23,06,00,AAXX 23064 41939 02958 00000 10270 20160 30117 40125 333 59016 70000==
41939,2023,11,23,09,00,AAXX 23094 41939 02957 00000 10272 20160 30099 40107 333 59007 70000==
41939,2023,11,23,12,00,AAXX 23124 41939 02956 00000 10216 20200 30109 40117 333 10275 59006 70000==
41939,2023,11,23,15,00,AAXX 23154 41939 01950 00000 10195 20180 30132 40140 70500 333 59002 70000==
41939,2023,11,23,18,00,AAXX 23184 41939 NIL=
41941,2023,11,17,00,00,AAXX 17004 41941 21440 81804 10220 20220 30136 40141 76166 8692/ 333 59006 60119 70260 85612 88458 81925==
41941,2023,11,17,06,00,AAXX 17064 41941 21340 83607 10215 20215 30105 40111 76566 8792/ 333 59054 60999 71150 82708 83612 88458 81924==
41941,2023,11,17,09,00,AAXX 17094 41941 01340 83112 10210 20210 30058 40064 76566 8792/ 333 59081 71540 82708 83612 88456 81924==
41941,2023,11,17,12,00,AAXX 17124 41941 11340 83112 10210 20210 30055 40060 61209 72166 8792/ 333 10225 56799 59090 72320 82708 83612 81924 88456 90755 91038=
41941,2023,11,17,15,00,AAXX 17154 41941 01440 83106 10220 20220 30113 40119 71322 8632/ 333 59042 72310 85616 88458 81928==
41941,2023,11,17,18,00,AAXX 17184 41941 01440 80000 10216 20210 30126 40132 71322 8632/ 333 59032 72310 85616 88458 81928==
41941,2023,11,17,21,00,AAXX 17214 41941 01440 80000 10214 20200 30122 40128 71322 8632/ 333 59030 70240 85616 88458 81928==
41941,2023,11,18,00,00,AAXX 18004 41941 02950 03603 10204 20190 30122 40128 333 59014 70219==
41941,2023,11,18,03,00,AAXX 18034 41941 02956 03603 10240 20200 30143 40148 333 20202 58000 71850==
41941,2023,11,18,06,00,AAXX 18064 41941 02456 60000 10282 20190 30128 40133 85430 333 58023 71200 84616 86362==
41941,2023,11,18,09,00,AAXX 18094 41941 02450 63603 10275 20200 30111 40116 85420 333 58053 70780 84616 86458==
41941,2023,11,18,12,00,AAXX 18124 41941 02440 60000 10250 20210 30124 40129 85420 333 10287 58069 70000 84616 86458==
41941,2023,11,18,15,00,AAXX 18154 41941 02440 60903 10232 20220 30146 40151 85420 333 58033 70000 84616 86458==
41941,2023,11,18,18,00,AAXX 18184 41941 02440 70000 10226 20226 30151 40156 85420 333 58025 70000 84616 87458==
41941,2023,11,18,21,00,AAXX 18214 41941 02440 70000 10224 20210 30139 40144 85420 333 58017 70000 84616 87458==
41941,2023,11,19,00,00,AAXX 19004 41941 02450 60903 10210 20200 30148 40154 85420 333 58026 70000 84616 86458==
41941,2023,11,19,03,00,AAXX 19034 41941 02956 03604 10256 20230 30165 40170 333 20204 58023 70000==
41941,2023,11,19,06,00,AAXX 19064 41941 NIL=
41941,2023,11,19,09,00,AAXX 19094 41941 02450 63603 10292 20220 30117 40122 85420 333 58006 70000 84616 86458==
41941,2023,11,19,12,00,AAXX 19124 41941 02940 00000 10260 20230 30124 40129 333 10307 58000 70000==
41941,2023,11,19,15,00,AAXX 19154 41941 02940 00000 10240 20220 30141 40146 333 59005 70000==
41941,2023,11,19,18,00,AAXX 19184 41941 02940 00000 10240 20220 30141 40146 333 59005 70000==
41941,2023,11,19,21,00,AAXX 19214 41941 02940 00000 10228 20228 30140 40145 333 58001 70000==
41941,2023,11,20,00,00,AAXX 20004 41941 02950 00000 10225 20225 30139 40145 333 59009 70000==
41941,2023,11,20,03,00,AAXX 20034 41941 02956 00000 10251 20220 30142 40147 333 20222 59023 70000==
41941,2023,11,20,06,00,AAXX 20064 41941 02456 43603 10310 20220 30144 40150 83530 333 58004 70000 83618 84362==
41941,2023,11,20,09,00,AAXX 20094 41941 02450 60000 10302 20220 30124 40130 85420 333 58007 70000 84616 86458==
41941,2023,11,20,12,00,AAXX 20124 41941 02440 60000 10250 20240 30126 40131 85420 333 10315 58002 70000 84616 86458==
41941,2023,11,20,15,00,AAXX 20154 41941 02940 03102 10232 20230 30142 40147 333 58001 70000==
41941,2023,11,20,18,00,AAXX 20184 41941 02440 43102 10230 20220 30138 40144 83530 333 59003 70000 83618 84362==
41941,2023,11,20,21,00,AAXX 20214 41941 02440 40000 10228 20220 30136 40142 83530 333 59004 70000 83618 84362==
41941,2023,11,21,00,00,AAXX 21004 41941 02450 60000 10224 20220 30137 40142 85420 333 59002 70000 84616 86458==
41941,2023,11,21,03,00,AAXX 21034 41941 02450 83603 10252 20210 30151 40156 8632/ 333 20224 58009 70000 85616 88458 81930==
41941,2023,11,21,06,00,AAXX 21064 41941 02450 83602 10273 20220 30127 40132 8632/ 333 59017 70000 85616 88458 81930==
41941,2023,11,21,09,00,AAXX 21094 41941 02450 80000 10275 20210 30116 40121 8632/ 333 59008 70000 85616 88458 81930==
41941,2023,11,21,12,00,AAXX 21124 41941 02450 63602 10272 20220 30108 40113 85420 333 10285 59018 70000 84616 86458==
41941,2023,11,21,15,00,AAXX 21154 41941 02440 60000 10230 20220 30127 40132 85420 333 59015 70000 84616 86458==
41941,2023,11,21,18,00,AAXX 21184 41941 02940 00000 10225 20225 30125 40130 333 59013 70000==
41941,2023,11,21,21,00,AAXX 21214 41941 02940 00000 10220 20220 30122 40128 333 59014 70000==
41941,2023,11,22,00,00,AAXX 22004 41941 02440 60000 10210 20210 30138 40144 85420 333 58001 70000 84616 86458==
41941,2023,11,22,03,00,AAXX 22034 41941 02456 63603 10250 20180 30141 40146 85420 333 20208 59010 70000 84616 86458==
41941,2023,11,22,06,00,AAXX 22064 41941 02956 03603 10283 20190 30130 40135 333 58003 70000==
41941,2023,11,22,09,00,AAXX 22094 41941 02956 03104 10285 20180 30098 40104 333 59018 70000==
41941,2023,11,22,12,00,AAXX 22124 41941 01950 00000 10245 20200 30105 40110 70500 333 10295 59003 70000==
41941,2023,11,22,15,00,AAXX 22154 41941 01950 00000 10220 20190 30125 40130 70500 333 59002 70000==
41941,2023,11,22,18,00,AAXX 22184 41941 01950 03601 10212 20180 30122 40128 70500 333 59003 70000==
41941,2023,11,22,21,00,AAXX 22214 41941 01940 00000 10204 20180 30117 40123 70500 333 59003 70000==
41941,2023,11,23,00,00,AAXX 23004 41941 01940 00000 10193 20180 30118 40124 70500 333 59020 70000==
41941,2023,11,23,03,00,AAXX 23034 41941 01950 00000 10235 20200 30136 40142 70500 333 20190 59005 70000==
41941,2023,11,23,06,00,AAXX 23064 41941 02956 03604 10325 20190 30114 40119 333 59016 70000==
41941,2023,11,23,09,00,AAXX 23094 41941 02456 73604 10275 20190 30091 40096 85420 333 59007 70000 84616 87458==
41941,2023,11,23,12,00,AAXX 23124 41941 02440 70000 10224 20200 30098 40104 85420 333 10326 59007 70000 84616 87458==
41941,2023,11,23,15,00,AAXX 23154 41941 02440 60000 10210 20190 30119 40125 85420 333 59006 70000 84616 86458==
41941,2023,11,23,18,00,AAXX 23184 41941 NIL=
41941,2023,11,23,21,00,AAXX 23214 41941 01940 00000 10196 20190 30112 40118 70500 333 59005 70000==
41943,2023,11,17,00,00,AAXX 17004 41943 21330 81102 10215 20210 30145 40152 76166 8772/ 333 58009 60239 70260 84709 85614 88457==
41943,2023,11,17,03,00,AAXX 17034 41943 01330 80902 10212 20210 30152 40159 76366 8772/ 333 20210 59002 70580 84708 85613 88456==
41943,2023,11,17,06,00,AAXX 17064 41943 21330 81003 10215 20210 30105 40112 76366 8672/ 333 59046 60519 70768 84708 85614 88456==
41943,2023,11,17,09,00,AAXX 17094 41943 01330 80903 10212 20210 30069 40076 76366 8772/ 333 59073 71018 84708 85613 88456==
41943,2023,11,17,12,00,AAXX 17124 41943 21320 81812 10225 20220 30016 40023 76166 8672/ 333 10223 58133 60479 84708 85614 88456==
41943,2023,11,17,15,00,AAXX 17154 41943 01325 81703 10214 20200 30094 40102 76166 8672/ 333 59073 71229 83709 85614 88457==
41943,2023,11,17,18,00,AAXX 17184 41943 21330 81801 10210 20200 30109 40116 70262 8662/ 333 59048 60018 71219 83710 85614 88457==
41943,2023,11,17,21,00,AAXX 17214 41943 02330 80000 10208 20200 30118 40125 8672/ 333 59032 71119 84709 85614 88457==
41943,2023,11,18,00,00,AAXX 18004 41943 02330 83601 10207 20200 30122 40129 8662/ 333 59023 70987 84709 85614 88457==
41943,2023,11,18,03,00,AAXX 18034 41943 01330 80000 10218 20210 30140 40147 75162 8662/ 333 20205 59012 70675 84709 85614 88457==
41943,2023,11,18,06,00,AAXX 18064 41943 21335 81702 10237 20220 30127 40134 70262 8551/ 333 58022 60018 70492 85614 87457==
41943,2023,11,18,09,00,AAXX 18094 41943 02435 71601 10250 20210 30111 40118 85520 333 58042 70242 85614 87457==
41943,2023,11,18,12,00,AAXX 18124 41943 02435 70000 10240 20220 30123 40130 84520 333 10260 58107 70027 84615 87457==
41943,2023,11,18,15,00,AAXX 18154 41943 02435 70000 10235 20220 30146 40153 84520 333 58052 70013 84615 87457==
41943,2023,11,18,18,00,AAXX 18184 41943 02435 50000 10230 20220 30147 40154 83520 333 58038 70013 83615 84458==
41943,2023,11,18,21,00,AAXX 18214 41943 02435 70000 10220 20210 30147 40154 85520 333 58029 70013 85615 87457==
41943,2023,11,19,00,00,AAXX 19004 41943 02335 80000 10215 20210 30148 40155 8662/ 333 58026 70013 83710 84615 87457==
41943,2023,11,19,03,00,AAXX 19034 41943 02440 73501 10250 20220 30163 40170 85510 333 20212 58023 70005 85615 87457==
41943,2023,11,19,06,00,AAXX 19064 41943 02445 50902 10287 20220 30139 40146 84530 333 58012 70000 84616 83362==
41943,2023,11,19,09,00,AAXX 19094 41943 02440 50902 10315 20220 30112 40119 84530 333 58001 70000 84616 83362==
41943,2023,11,19,12,00,AAXX 19124 41943 02430 30000 10268 20240 30119 40126 83500 333 10325 59003 70000 83618==
41943,2023,11,19,15,00,AAXX 19154 41943 01930 00000 10234 20210 30141 40150 70500 333 59005 70000==
41943,2023,11,19,18,00,AAXX 19184 41943 01930 00000 10224 20210 30144 40151 70500 333 59003 70000==
41943,2023,11,19,21,00,AAXX 19214 41943 01930 00000 10218 20210 30140 40147 70500 333 59007 70000==
41943,2023,11,20,00,00,AAXX 20004 41943 01930 00000 10214 20200 30134 40141 70500 333 59014 70000==
41943,2023,11,20,03,00,AAXX 20034 41943 01930 50000 10255 20220 30159 40167 70500 83520 333 20212 59004 70000 83615 84458==
41943,2023,11,20,06,00,AAXX 20064 41943 01440 60000 10290 20210 30140 40147 70522 83530 333 58001 70000 83616 84362==
41943,2023,11,20,09,00,AAXX 20094 41943 01440 60000 10300 20230 30121 40128 70522 83530 333 58009 70000 83616 84362==
41943,2023,11,20,12,00,AAXX 20124 41943 01430 30000 10268 20220 30121 40128 70520 83500 333 10325 58002 70000 83618==
41943,2023,11,20,15,00,AAXX 20154 41943 01930 00000 10244 20220 30137 40144 70500 333 59004 70000==
41943,2023,11,20,18,00,AAXX 20184 41943 01930 00000 10230 20210 30146 40153 70500 333 58002 70000==
41943,2023,11,20,21,00,AAXX 20214 41943 01430 50000 10230 20210 30134 40141 70520 83510 333 59006 70000 83616 84458==
41943,2023,11,21,00,00,AAXX 21004 41943 01430 60000 10230 20220 30124 40131 70522 83520 333 59010 70000 83616 85458==
41943,2023,11,21,03,00,AAXX 21034 41943 01430 60000 10245 20230 30145 40152 70522 83520 333 20224 59014 70000 83616 85458==
41943,2023,11,21,06,00,AAXX 21064 41943 01435 73602 10258 20210 30127 40134 70522 84520 333 59013 70000 84616 87458==
41943,2023,11,21,09,00,AAXX 21094 41943 01440 73602 10268 20200 30105 40113 70522 84520 333 59016 70000 84616 87458==
41943,2023,11,21,12,00,AAXX 21124 41943 01330 80000 10246 20220 30111 40118 70522 8662/ 333 10280 59010 70000 83710 84614 88458==
41943,2023,11,21,15,00,AAXX 21154 41943 01430 60000 10220 20200 30123 40130 70500 84520 333 59014 70000 83616 84458==
41943,2023,11,21,18,00,AAXX 21184 41943 01930 00000 10214 20200 30126 40133 70522 83530 333 59020 70000 83616 83362==
41943,2023,11,21,21,00,AAXX 21214 41943 01930 00000 10202 20190 30124 40131 70520 333 59010 70000==
41943,2023,11,22,00,00,AAXX 22004 41943 01930 00000 10196 20190 30122 40129 70500 333 59002 70000==
41943,2023,11,22,03,00,AAXX 22034 41943 01930 00000 10225 20220 30143 40151 70500 333 20195 59002 70000==
41943,2023,11,22,06,00,AAXX 22064 41943 01440 63602 10280 20180 30120 40127 70520 83530 333 59007 70000 83616 83462==
41943,2023,11,22,09,00,AAXX 22094 41943 01940 03602 10290 20200 30093 40101 70500 333 59012 70000==
41943,2023,11,22,12,00,AAXX 22124 41943 01930 00000 10250 20210 30100 40107 70500 333 10305 59011 70000==
41943,2023,11,22,15,00,AAXX 22154 41943 01930 00000 10222 20200 30122 40129 70500 333 59001 70000==
41943,2023,11,22,18,00,AAXX 22184 41943 01930 00000 10208 20190 30126 40133 70500 333 58000 70000==
41943,2023,11,22,21,00,AAXX 22214 41943 01930 00000 10200 20190 30122 40129 70500 333 59002 70000==
41943,2023,11,23,00,00,AAXX 23004 41943 01930 00000 10186 20180 30117 40124 70500 333 59005 70000==
41943,2023,11,23,03,00,AAXX 23034 41943 01930 03602 10220 20190 30135 40142 70500 333 20190 59008 70000==
41943,2023,11,23,06,00,AAXX 23064 41943 01440 53602 10280 20170 30116 40123 70520 83530 333 59004 70000 83616 84362==
41943,2023,11,23,09,00,AAXX 23094 41943 01940 03602 10285 20170 30090 40097 70500 333 59003 70000==
41943,2023,11,23,12,00,AAXX 23124 41943 01930 00000 10240 20200 30095 40102 70500 333 10300 59005 70000==
41943,2023,11,23,15,00,AAXX 23154 41943 01930 00000 10204 20180 30122 40129 70500 333 58000 70000==
41943,2023,11,23,18,00,AAXX 23184 41943 42930 00000 10196 20190 30124 40131==
41943,2023,11,23,21,00,AAXX 23214 41943 01930 00000 10190 20180 30124 40131 70500 333 58002 70000==
41944,2023,11,17,00,00,AAXX 17004 41944 NIL=
41944,2023,11,17,06,00,AAXX 17064 41944 NIL=
41944,2023,11,18,12,00,AAXX 18124 41944 NIL=
41944,2023,11,18,18,00,AAXX 18184 41944 NIL=
41944,2023,11,19,00,00,AAXX 19004 41944 NIL=
41944,2023,11,19,06,00,AAXX 19064 41944 NIL=
41944,2023,11,19,12,00,AAXX 19124 41944 NIL=
41944,2023,11,19,21,00,AAXX 19214 41944 NIL=
41944,2023,11,20,06,00,AAXX 20064 41944 NIL=
41944,2023,11,20,12,00,AAXX 20124 41944 NIL=
41944,2023,11,20,18,00,AAXX 20184 41944 NIL=
41944,2023,11,21,06,00,AAXX 21064 41944 NIL=
41944,2023,11,21,12,00,AAXX 21124 41944 NIL=
41944,2023,11,21,18,00,AAXX 21184 41944 NIL=
41944,2023,11,22,00,00,AAXX 22004 41944 NIL=
41944,2023,11,22,06,00,AAXX 22064 41944 NIL=
41944,2023,11,22,12,00,AAXX 22124 41944 NIL=
41944,2023,11,23,00,00,AAXX 23004 41944 NIL=
41944,2023,11,23,06,00,AAXX 23064 41944 NIL=
41944,2023,11,23,12,00,AAXX 23124 41944 NIL=
41944,2023,11,23,18,00,AAXX 23184 41944 NIL=
41946,2023,11,17,00,00,AAXX 17004 41946 01456 83610 10232 20210 30128 40133 72122 8452/ 333 59012 70000 84618 88460==
41946,2023,11,17,03,00,AAXX 17034 41946 01450 80410 10236 20220 30125 40130 70262 8452/ 333 20226 59047 70012 84618 88459==
41946,2023,11,17,06,00,AAXX 17064 41946 11456 80416 10246 20210 30104 40109 69926 70262 8452/ 333 59050 70012 84618 88460==
41946,2023,11,17,09,00,AAXX 17094 41946 02350 80110 10250 20210 30082 40086 8672/ 333 59059 70012 84710 85616 88458==
41946,2023,11,17,12,00,AAXX 17124 41946 11350 83604 10233 20210 30112 40116 69924 70262 8572/ 333 10250 56899 59032 70012 83710 84616 88459=
41946,2023,11,17,15,00,AAXX 17154 41946 01456 63602 10225 20210 30142 40147 70262 83520 333 59020 70006 83618 85460==
41946,2023,11,17,18,00,AAXX 17184 41946 11456 70000 10225 20220 30143 40148 69926 70362 83520 333 59001 70006 83618 87460==
41946,2023,11,17,21,00,AAXX 17214 41946 01950 30000 10216 20210 30139 40144 70520 80001 333 58015 70006 83080==
41946,2023,11,18,00,00,AAXX 18004 41946 01950 30000 10202 20190 30143 40148 70500 80001 333 58015 70006 83080==
41946,2023,11,18,03,00,AAXX 18034 41946 02/56 50102 10240 20210 30153 40158 82031 333 20197 58028 70004 82362 84080==
41946,2023,11,18,06,00,AAXX 18064 41946 02956 50203 10287 20190 30133 40138 80001 333 58029 70004 85080==
41946,2023,11,18,09,00,AAXX 18094 41946 02556 60000 10294 20180 30114 40119 83431 333 58032 70004 82620 84362==
41946,2023,11,18,12,00,AAXX 18124 41946 02556 50000 10262 20220 30127 40132 85400 333 10295 58015 70002 83620 83822==
41946,2023,11,18,15,00,AAXX 18154 41946 02556 50000 10236 20220 30150 40155 85500 333 58008 70000 85620==
41946,2023,11,18,18,00,AAXX 18184 41946 02/56 20000 10224 20210 30153 40158 82030 333 58010 70000 82362==
41946,2023,11,18,21,00,AAXX 18214 41946 02956 00101 10220 20210 30147 40152 333 58008 70000==
41946,2023,11,19,00,00,AAXX 19004 41946 02956 03602 10214 20200 30155 40160 333 58012 70000==
41946,2023,11,19,03,00,AAXX 19034 41946 02956 03602 10257 20210 30175 40180 333 20206 58022 70000==
41946,2023,11,19,06,00,AAXX 19064 41946 02456 30402 10294 20200 30154 40159 82501 333 58021 70000 82618==
41946,2023,11,19,09,00,AAXX 19094 41946 02457 20403 10306 20200 30124 40129 82500 333 58010 70000 82618==
41946,2023,11,19,12,00,AAXX 19124 41946 02956 10000 10254 20210 30133 40138 80001 333 10307 58006 70000 81080==
41946,2023,11,19,15,00,AAXX 19154 41946 02956 00000 10228 20220 30152 40157 333 58002 70000==
41946,2023,11,19,18,00,AAXX 19184 41946 01450 10000 10220 20210 30148 40153 70500 81500 333 59005 70000 81618==
41946,2023,11,19,21,00,AAXX 19214 41946 01950 10000 10213 20200 30141 40146 70500 80001 333 59006 70000 81080==
41946,2023,11,20,00,00,AAXX 20004 41946 01950 33602 10206 20200 30148 40153 70500 80001 333 59007 70000 83080==
41946,2023,11,20,03,00,AAXX 20034 41946 02956 33602 10256 20230 30171 40176 80001 333 20202 59004 70000 83080==
41946,2023,11,20,06,00,AAXX 20064 41946 02456 63602 10296 20200 30154 40159 84401 333 58000 70000 83618 84080==
41946,2023,11,20,09,00,AAXX 20094 41946 02556 60000 10299 20180 30131 40136 83430 333 58007 70000 82618 84360==
41946,2023,11,20,12,00,AAXX 20124 41946 02556 60000 10252 20220 30135 40140 83430 333 10303 58007 70000 82618 84360==
41946,2023,11,20,15,00,AAXX 20154 41946 02/56 20000 10228 20210 30155 40160 82030 333 58003 70000 82362==
41946,2023,11,20,18,00,AAXX 20184 41946 02456 60000 10226 20220 30149 40154 83520 333 58001 70000 83618 85460==
41946,2023,11,20,21,00,AAXX 20214 41946 01456 80000 10222 20200 30138 40143 70362 8352/ 333 59003 70001 83618 88459==
41946,2023,11,21,00,00,AAXX 21004 41946 11456 80000 10220 20200 30141 40146 69916 70262 8352/ 333 59007 70001 83618 88459==
41946,2023,11,21,03,00,AAXX 21034 41946 02/56 53201 10240 20190 30155 40160 85050 333 20209 59016 70001 85360==
41946,2023,11,21,06,00,AAXX 21064 41946 02/56 50102 10280 20200 30140 40145 84031 333 59014 70001 84362==
41946,2023,11,21,09,00,AAXX 21094 41946 02556 30101 10302 20190 30110 40115 82540 333 59021 70001 82620==
41946,2023,11,21,12,00,AAXX 21124 41946 02/56 50000 10250 20220 30115 40120 83054 333 10305 59020 70001 83362 83080==
41946,2023,11,21,15,00,AAXX 21154 41946 02956 00000 10224 20200 30130 40135 333 59025 70001==
41946,2023,11,21,18,00,AAXX 21184 41946 02956 00000 10211 20200 30128 40133 333 59021 70000==
41946,2023,11,21,21,00,AAXX 21214 41946 02956 00000 10204 20190 30120 40125 333 59018 70000==
41946,2023,11,22,00,00,AAXX 22004 41946 02956 23602 10197 20190 30127 40132 80001 333 59014 70000 82080==
41946,2023,11,22,03,00,AAXX 22034 41946 02956 03602 10240 20180 30157 40162 333 20191 58002 70000==
41946,2023,11,22,06,00,AAXX 22064 41946 02956 03603 10289 20160 30137 40142 333 59003 70000==
41946,2023,11,22,09,00,AAXX 22094 41946 02956 03603 10286 20160 30111 40116 333 58001 70000==
41946,2023,11,22,12,00,AAXX 22124 41946 02956 00000 10233 20190 30119 40124 333 10290 58004 70000==
41946,2023,11,22,15,00,AAXX 22154 41946 02956 00000 10201 20180 30138 40143 333 58008 70000==
41946,2023,11,22,18,00,AAXX 22184 41946 02956 00000 10190 20180 30135 40140 333 58007 70000==
41946,2023,11,22,21,00,AAXX 22214 41946 01950 00000 10184 20170 30125 40130 70500 333 58005 70000==
41946,2023,11,23,00,00,AAXX 23004 41946 01950 03101 10178 20170 30130 40135 70500 333 58003 70000==
41946,2023,11,23,03,00,AAXX 23034 41946 02956 00000 10222 20160 30152 40157 333 20172 59005 70000==
41946,2023,11,23,06,00,AAXX 23064 41946 02956 00000 10278 20200 30131 40136 333 59006 70000==
41946,2023,11,23,09,00,AAXX 23094 41946 02956 00000 10280 20170 30104 40109 333 59007 70000==
41946,2023,11,23,12,00,AAXX 23124 41946 02956 00000 10228 20200 30113 40118 333 10282 59006 70000==
41946,2023,11,23,18,00,AAXX 23184 41946 NIL=
41946,2023,11,23,21,00,AAXX 23214 41946 01950 00000 10185 20180 30132 40137 70500 333 58007 70000==
41947,2023,11,17,00,00,AAXX 17004 41947 21340 80905 10226 20220 30120 40122 76162 8572/ 333 59017 60057 70080 82709 84616 88458==
41947,2023,11,17,03,00,AAXX 17034 41947 01350 80905 10225 20230 30115 40118 76166 8572/ 333 20220 59036 70360 82708 84616 88458==
41947,2023,11,17,06,00,AAXX 17064 41947 21350 80903 10225 20230 30094 40099 76166 8572/ 333 59051 60349 70420 82708 84616 88458==
41947,2023,11,17,09,00,AAXX 17094 41947 01340 80304 10221 20220 30067 40069 76166 8572/ 333 59070 70432 83707 84614 88458==
41947,2023,11,17,12,00,AAXX 17124 41947 11340 83303 10225 20220 30098 40100 60029 76166 8572/ 333 10228 56799 59027 70436 83708 84615 88458=
41947,2023,11,17,15,00,AAXX 17154 41947 01340 82902 10220 20200 30129 40131 76166 8572/ 333 59032 70436 82708 83618 88458==
41947,2023,11,17,16,00,AAXX 17164 41947 01340 82902 10220 20200 30129 40131 76166 8572/ 333 59032 70436 82708 83618 88458==
41947,2023,11,17,18,00,AAXX 17184 41947 21440 80000 10215 20215 30138 40140 70262 8452/ 333 59001 60028 70432 84617 88459==
41947,2023,11,17,21,00,AAXX 17214 41947 02450 20000 10212 20210 30134 40136 82500 333 58004 70432 82618==
41947,2023,11,18,00,00,AAXX 18004 41947 02450 20000 10210 20200 30130 40132 82500 333 58010 70382 82618==
41947,2023,11,18,03,00,AAXX 18034 41947 02456 40000 10245 20210 30139 40142 84400 333 20205 58024 70102 81618 83820==
41947,2023,11,18,06,00,AAXX 18064 41947 02456 40000 10285 20200 30129 40132 84400 333 58033 70042 81618 83820==
41947,2023,11,18,09,00,AAXX 18094 41947 02456 40000 10290 20210 30107 40110 84400 333 58041 70030 82618 83820==
41947,2023,11,18,12,00,AAXX 18124 41947 02450 50000 10252 20230 30125 40127 83530 333 10295 58027 70020 83618 84362==
41947,2023,11,18,15,00,AAXX 18154 41947 02950 00000 10230 20220 30136 40139 333 58008 70000==
41947,2023,11,18,18,00,AAXX 18184 41947 02450 30000 10220 20210 30148 40150 83500 333 58009 70000 83618==
41947,2023,11,19,00,00,AAXX 19004 41947 01950 00000 10210 20200 30150 40152 70500 333 58020 70000==
41947,2023,11,19,03,00,AAXX 19034 41947 02956 00000 10260 20210 30156 40159 333 20206 58017 70000==
41947,2023,11,19,06,00,AAXX 19064 41947 02456 50000 10285 20220 30137 40140 85400 333 58008 70000==
41947,2023,11,19,09,00,AAXX 19094 41947 02456 40000 10298 20210 30119 40121 84400 333 58011 70000 83618==
41947,2023,11,19,12,00,AAXX 19124 41947 02456 30000 10263 20220 30125 40127 83500 333 10300 58000 70000 83618==
41947,2023,11,19,15,00,AAXX 19154 41947 02956 00000 10240 20230 30144 40147 333 58008 70000==
41947,2023,11,19,18,00,AAXX 19184 41947 01950 00000 10230 20220 30140 40143 70500 333 59007 70000==
41947,2023,11,19,21,00,AAXX 19214 41947 01950 00000 10222 20210 30136 40138 70500 333 59007 70000==
41947,2023,11,20,00,00,AAXX 20004 41947 01950 30000 10212 20210 30141 40143 70500 81501 333 59009 70000 81618==
41947,2023,11,20,03,00,AAXX 20034 41947 01950 00000 10260 20220 30153 40156 70500 333 20205 59003 70000==
41947,2023,11,20,06,00,AAXX 20064 41947 02456 50000 10291 20210 30143 40146 85400 333 58006 70000 82618 83820==
41947,2023,11,20,09,00,AAXX 20094 41947 02456 50000 10295 20220 30125 40127 82530 333 58006 70000 82618 83362==
41947,2023,11,20,12,00,AAXX 20124 41947 02450 50000 10260 20220 30118 40120 82530 333 10300 59007 70000 82618 83362==
41947,2023,11,20,15,00,AAXX 20154 41947 02450 50000 10238 20220 30137 40139 82530 333 59008 70000 82618 83362==
41947,2023,11,20,18,00,AAXX 20184 41947 02450 50000 10235 20220 30142 40144 82530 333 58001 70000 82618 83362==
41947,2023,11,20,21,00,AAXX 20214 41947 02450 50000 10230 20220 30135 40137 82530 333 59001 70000 82618 83362==
41947,2023,11,21,00,00,AAXX 21004 41947 02450 70000 10224 20210 30125 40127 83510 333 59016 70000 83616 87458==
41947,2023,11,21,03,00,AAXX 21034 41947 02450 70000 10240 20220 30139 40141 83510 333 20220 59015 70000 83616 87458==
41947,2023,11,21,06,00,AAXX 21064 41947 02456 60000 10262 20220 30134 40136 83530 333 59010 70000 83618 84362==
41947,2023,11,21,09,00,AAXX 21094 41947 02456 50000 10300 20220 30105 40107 82530 333 59020 70000 82618 83362==
41947,2023,11,21,12,00,AAXX 21124 41947 02450 40000 10260 20220 30109 40111 82530 333 10302 59009 70000 82618 83362==
41947,2023,11,21,15,00,AAXX 21154 41947 02950 00000 10235 20230 30118 40120 333 59019 70000==
41947,2023,11,21,18,00,AAXX 21184 41947 02950 00000 10228 20220 30130 40132 333 59012 70000==
41947,2023,11,21,21,00,AAXX 21214 41947 02950 00000 10220 20210 30125 40127 333 59010 70000==
41947,2023,11,22,00,00,AAXX 22004 41947 02950 00000 10200 20190 30119 40121 333 59006 70000==
41947,2023,11,22,03,00,AAXX 22034 41947 01950 00000 10248 20180 30138 40141 70500 333 20194 58000 70000==
41947,2023,11,22,06,00,AAXX 22064 41947 01950 00000 10280 20160 30129 40132 70500 333 59004 70000==
41947,2023,11,22,09,00,AAXX 22094 41947 02956 03302 10288 20170 30108 40110 333 58003 70000==
41947,2023,11,22,12,00,AAXX 22124 41947 01950 00000 10240 20190 30110 40113 70500 333 10295 58002 70000==
41947,2023,11,22,15,00,AAXX 22154 41947 01950 00000 10213 20200 30130 40133 70500 333 58013 70000==
41947,2023,11,22,18,00,AAXX 22184 41947 01950 00000 10200 20190 30129 40131 70500 333 59001 70000==
41947,2023,11,22,21,00,AAXX 22214 41947 01950 00000 10194 20180 30118 40120 70500 333 59007 70000==
41947,2023,11,23,00,00,AAXX 23004 41947 01950 00000 10186 20180 30121 40123 70500 333 58002 70000==
41947,2023,11,23,03,00,AAXX 23034 41947 01950 00000 10230 20180 30131 40134 70500 333 20180 59007 70000==
41947,2023,11,23,06,00,AAXX 23064 41947 02956 00000 10275 20160 30123 40126 333 59006 70000==
41947,2023,11,23,09,00,AAXX 23094 41947 02956 00000 10280 20170 30096 40099 333 59011 70000==
41947,2023,11,23,12,00,AAXX 23124 41947 02000 10230 20200 30101 40103 333 10282 59010 70000==
41947,2023,11,23,15,00,AAXX 23154 41947 01950 00000 10210 20200 30121 40123 70500 333 59010 70000==
41947,2023,11,23,18,00,AAXX 23184 41947 01950 00000 10198 20190 30120 40122 70500 333 59009 70000==
41947,2023,11,23,21,00,AAXX 23214 41947 01950 00000 10190 20180 30124 40126 70500 333 58006 70000==
41950,2023,11,17,00,00,AAXX 17004 41950 21320 80602 10225 20225 30128 40131 76366 8672/ 333 59014 60339 70396 83707 84615 88458==
41950,2023,11,17,03,00,AAXX 17034 41950 01325 80502 10222 20222 30120 40123 76166 8672/ 333 20220 59043 70710 82708 84616 88458==
41950,2023,11,17,06,00,AAXX 17064 41950 21320 80604 10215 20215 30082 40085 76366 8672/ 333 59017 60459 71159 83707 84616 88458==
41950,2023,11,17,09,00,AAXX 17094 41950 01320 83509 10210 20210 30034 40037 76366 8672/ 333 59106 72146 83707 84615 88458==
41950,2023,11,17,12,00,AAXX 17124 41950 21350 83505 10220 20210 30101 40104 70266 8562/ 333 10228 59045 61079 72208 82708 84616 88458==
41950,2023,11,17,15,00,AAXX 17154 41950 01350 80000 10215 20215 30130 40132 70262 8562/ 333 59036 72211 82708 84616 88458==
41950,2023,11,17,18,00,AAXX 17184 41950 11350 70000 10215 20215 30130 40132 60026 70162 85610 333 59016 72184 82708 84616 87459==
41950,2023,11,17,21,00,AAXX 17214 41950 02450 20000 10210 20210 30128 40131 82500 333 59003 72064 82617==
41950,2023,11,18,00,00,AAXX 18004 41950 02350 73602 10205 20205 30128 40131 85610 333 58000 71850 82708 84616 86459==
41950,2023,11,18,03,00,AAXX 18034 41950 02350 80000 10220 20210 30150 40153 8562/ 333 20202 59013 71536 82708 84616 88458==
41950,2023,11,18,06,00,AAXX 18064 41950 02450 40000 10263 20200 30138 40141 83530 333 58056 71086 83617==
41950,2023,11,18,09,00,AAXX 18094 41950 02456 40000 10265 20210 30112 40114 83501 333 58078 70096 83617==
41950,2023,11,18,12,00,AAXX 18124 41950 02350 70000 10240 20230 30126 40128 85670 333 10286 58025 70020 82708 84616 86459==
41950,2023,11,18,15,00,AAXX 18154 41950 02450 30000 10222 20220 30147 40150 82530 333 58017 70000 82617==
41950,2023,11,18,18,00,AAXX 18184 41950 01940 00000 10210 20210 30154 40156 70520 333 58024 70000==
41950,2023,11,18,21,00,AAXX 18214 41950 01940 00000 10205 20205 30150 40152 70500 333 58022 70000==
41950,2023,11,19,00,00,AAXX 19004 41950 01935 00000 10198 20198 30152 40154 70500 333 58024 70000==
41950,2023,11,19,03,00,AAXX 19034 41950 01450 23502 10255 20230 30166 40168 70500 82500 333 20196 58016 70000 82617==
41950,2023,11,19,06,00,AAXX 19064 41950 02450 30000 10281 20200 30146 40148 83400 333 58008 70000 82617==
41950,2023,11,19,09,00,AAXX 19094 41950 02950 10000 10291 20210 30120 40123 80001 333 58008 70000 81080==
41950,2023,11,19,12,00,AAXX 19124 41950 02950 20000 10238 20230 30126 40129 80001 333 10296 58000 70000 82080==
41950,2023,11,19,15,00,AAXX 19154 41950 01935 00000 10220 20220 30146 40149 70500 333 59001 70000==
41950,2023,11,19,18,00,AAXX 19184 41950 01935 00000 10215 20215 30152 40155 70500 333 59002 70000==
41950,2023,11,19,21,00,AAXX 19214 41950 01935 00000 10200 20200 30142 40144 70500 333 59008 70000==
41950,2023,11,20,00,00,AAXX 20004 41950 01930 00000 10202 20202 30142 40144 74500 89/// 333 59010 70000==
41950,2023,11,20,03,00,AAXX 20034 41950 01950 20000 10271 20220 30163 40165 70341 80001 333 20197 59003 70000 82080==
41950,2023,11,20,06,00,AAXX 20064 41950 01450 60000 10290 20220 30148 40151 70342 83471 333 58002 70000 83617 84459==
41950,2023,11,20,09,00,AAXX 20094 41950 02450 50000 10295 20210 30126 40129 83531 333 58006 70000 83617 83362==
41950,2023,11,20,12,00,AAXX 20124 41950 02450 30000 10240 20220 30126 40128 82530 333 10301 70000 82617==
41950,2023,11,20,15,00,AAXX 20154 41950 02950 30000 10226 20226 30145 40148 80001 333 59001 70000 83080==
41950,2023,11,20,18,00,AAXX 20184 41950 02350 70000 10220 20220 30143 40146 85670 333 59009 70000 82708 84616 86459==
41950,2023,11,20,21,00,AAXX 20214 41950 02350 80000 10223 20220 30136 40138 8562/ 333 59006 70000 82708 84616 88458==
41950,2023,11,21,00,00,AAXX 21004 41950 02350 80000 10219 20210 30134 40136 8562/ 333 59008 70000 82708 84616 88458==
41950,2023,11,21,03,00,AAXX 21034 41950 02350 60000 10242 20220 30149 40152 84670 333 20218 59014 70000 81708 84616 86459==
41950,2023,11,21,06,00,AAXX 21064 41950 02350 70000 10274 20210 30136 40138 84670 333 59012 70000 81708 84616 86459==
41950,2023,11,21,09,00,AAXX 21094 41950 02350 70000 10280 20210 30112 40115 84670 333 59014 70000 81708 84616 86459==
41950,2023,11,21,12,00,AAXX 21124 41950 02/50 20000 10235 20230 30117 40119 82031 333 10282 59009 70000 82362==
41950,2023,11,21,15,00,AAXX 21154 41950 01940 00000 10217 20217 30130 40133 70500 333 59015 70000==
41950,2023,11,21,18,00,AAXX 21184 41950 01935 00000 10205 20205 30127 40129 70500 333 59016 70000==
41950,2023,11,21,21,00,AAXX 21214 41950 01930 00000 10200 20200 30123 40125 70500 333 59013 70000==
41950,2023,11,22,00,00,AAXX 22004 41950 01920 00000 10195 20195 30136 40129 71000 333 59008 70000==
41950,2023,11,22,03,00,AAXX 22034 41950 01940 00000 10240 20210 30152 40155 70500 333 20190 58003 70000==
41950,2023,11,22,06,00,AAXX 22064 41950 01945 00000 10288 20180 30132 40134 70500 333 59004 70000==
41950,2023,11,22,09,00,AAXX 22094 41950 02950 03602 10288 20160 30102 40105 333 59010 70000==
41950,2023,11,22,12,00,AAXX 22124 41950 02950 00000 10220 20210 30114 40117 333 10300 59003 70000==
41950,2023,11,22,15,00,AAXX 22154 41950 01940 00000 10200 20200 30129 40131 70500 333 59001 70000==
41950,2023,11,22,18,00,AAXX 22184 41950 01935 00000 10190 20190 30133 40135 70500 333 58006 70000==
41950,2023,11,22,21,00,AAXX 22214 41950 01935 00000 10182 20182 30121 40123 70500 333 59002 70000==
41950,2023,11,23,00,00,AAXX 23004 41950 01930 00000 10172 20172 30125 40175 70500 333 59001 70000==
41950,2023,11,23,03,00,AAXX 23034 41950 01935 00000 10218 20200 30144 40147 70500 333 20169 59008 70000==
41950,2023,11,23,06,00,AAXX 23064 41950 01950 00000 10277 20170 30122 40124 70500 333 59010 70000==
41950,2023,11,23,09,00,AAXX 23094 41950 02950 00000 10281 20160 30099 40101 333 59003 70000==
41950,2023,11,23,12,00,AAXX 23124 41950 01940 00000 10214 20200 30107 40109 70500 333 10287 59007 70000==
41950,2023,11,23,15,00,AAXX 23154 41950 01940 00000 10195 20195 30129 40132 70500 333 58000 70000==
41950,2023,11,23,18,00,AAXX 23184 41950 01940 00000 10185 20185 30135 40138 70500 333 58002 70000==
41950,2023,11,23,21,00,AAXX 23214 41950 01940 00000 10177 20177 30127 40130 70500 333 58006 70000==
41951,2023,11,17,00,00,AAXX 17004 41951 21330 80503 10224 20220 30123 40128 76566 8672/ 333 59009 60579 70621 82706 84616 88458==
41951,2023,11,17,03,00,AAXX 17034 41951 01330 80508 10222 20220 30117 40122 76566 8672/ 333 20219 59040 70863 82706 84616 88458==
41951,2023,11,17,06,00,AAXX 17064 41951 21330 81004 10224 20220 30089 40094 76566 8672/ 333 59064 60549 71158 82706 84616 88458==
41951,2023,11,17,09,00,AAXX 17094 41951 01330 81113 10224 20220 30011 40016 76566 8672/ 333 59126 72365 82706 84616 88458==
41951,2023,11,17,12,00,AAXX 17124 41951 11340 83005 10226 20220 30071 40076 61358 70262 8662/ 333 20235 56799 59067 72489 82708 84618 88458=
41951,2023,11,17,15,00,AAXX 17154 41951 01340 83002 10218 20218 30123 40128 70262 8562/ 333 59042 72489 81708 84618 88458==
41951,2023,11,17,18,00,AAXX 17184 41951 11340 82302 10220 20220 30126 40131 69986 70262 8562/ 333 59021 72461 81708 84618 88458==
41951,2023,11,18,03,00,AAXX 18034 41951 02340 80502 10230 20210 30136 40141 8562/ 333 20210 58019 71653 81708 84618 88458==
41951,2023,11,18,06,00,AAXX 18064 41951 02456 60502 10262 20210 30131 40136 83510 333 58042 71358 83618 85459==
41951,2023,11,18,09,00,AAXX 18094 41951 02456 60000 10270 20200 30109 40114 83510 333 58098 70138 83618 85459==
41951,2023,11,18,12,00,AAXX 18124 41951 01450 60000 10235 20230 30121 40126 70522 83510 333 10278 58050 70008 83618 85459==
41951,2023,11,18,15,00,AAXX 18154 41951 01440 70000 10218 20218 30147 40152 70522 83510 333 58024 70000 83618 86459==
41951,2023,11,18,18,00,AAXX 18184 41951 01435 30000 10216 20216 30151 40156 70520 83500 333 58025 70000 83618==
41951,2023,11,19,00,00,AAXX 19004 41951 01940 00000 10198 20198 30144 40149 70500 333 58020 70000==
41951,2023,11,19,01,00,AAXX 19014 41951 01940 00000 10198 20198 30144 40149 70500 333 58020 70000==
41951,2023,11,19,03,00,AAXX 19034 41951 02450 50502 10256 20230 30156 40161 82510 333 20195 58020 70000 82618 84459==
41951,2023,11,19,06,00,AAXX 19064 41951 02456 63502 10288 20220 30140 40145 83510 333 58009 70000 83618 85459==
41951,2023,11,19,09,00,AAXX 19094 41951 02456 30302 10305 20230 30116 40121 83500 333 58007 70000 83618==
41951,2023,11,19,12,00,AAXX 19124 41951 01440 30000 10246 20240 30129 40134 70500 83500 333 10308 58008 70000 83618==
41951,2023,11,19,15,00,AAXX 19154 41951 01935 00000 10222 20220 30147 40152 70500 333 58000 70000==
41951,2023,11,19,18,00,AAXX 19184 41951 01930 00000 10214 20210 30139 40144 71000 333 59012 70000==
41951,2023,11,19,21,00,AAXX 19214 41951 01930 00000 10208 20208 30135 40140 71000 333 59012 70000==
41951,2023,11,20,00,00,AAXX 20004 41951 01430 30000 10204 20200 30133 40138 71000 83500 333 59011 70000 83618==
41951,2023,11,20,03,00,AAXX 20034 41951 02456 20502 10274 20230 30154 40159 82500 333 20200 59002 70000 82618==
41951,2023,11,20,06,00,AAXX 20064 41951 02456 60503 10298 20240 30145 40150 83510 333 58005 70000 83618 85459==
41951,2023,11,20,09,00,AAXX 20094 41951 02456 63502 10302 20230 30125 40130 83510 333 58009 70000 83618 85459==
41951,2023,11,20,12,00,AAXX 20124 41951 02450 60000 10250 20240 30119 40124 83510 333 10312 59010 70000 83618 85459==
41951,2023,11,20,15,00,AAXX 20154 41951 02440 50000 10233 20230 30142 40146 82510 333 59005 70000 82618 84459==
41951,2023,11,20,18,00,AAXX 20184 41951 01440 80000 10230 20230 30145 40150 70522 8452/ 333 58006 70000 84618 88458==
41951,2023,11,20,21,00,AAXX 20214 41951 01430 80000 10228 20228 30141 40146 71022 8452/ 333 58006 70000 84618 88458==
41951,2023,11,21,00,00,AAXX 21004 41951 01430 80000 10224 20220 30127 40132 70522 8452/ 333 59006 70000 84618 88458==
41951,2023,11,21,03,00,AAXX 21034 41951 01440 80000 10242 20230 30137 40142 70522 8452/ 333 20220 59017 70000 84618 88458==
41951,2023,11,21,06,00,AAXX 21064 41951 02440 82802 10277 20230 30127 40132 8452/ 333 59018 70000 84618 88458==
41951,2023,11,21,09,00,AAXX 21094 41951 02440 80000 10275 20230 30109 40114 8452/ 333 59016 70000 84618 88458==
41951,2023,11,21,12,00,AAXX 21124 41951 01440 60000 10240 20230 30107 40112 70522 83510 333 10288 59012 70000 83618 85459==
41951,2023,11,21,15,00,AAXX 21154 41951 01435 30000 10218 20218 30129 40134 70520 83500 333 59013 70000 83618==
41951,2023,11,21,18,00,AAXX 21184 41951 01930 00000 10214 20210 30126 40131 71000 333 59019 70000==
41951,2023,11,21,21,00,AAXX 21214 41951 01930 00000 10202 20200 30122 40127 71000 333 59011 70000==
41951,2023,11,22,00,00,AAXX 22004 41951 01930 00000 10196 20196 30119 40124 71000 333 59008 70000==
41951,2023,11,22,03,00,AAXX 22034 41951 01940 00000 10238 20220 30137 40142 70500 333 20194 58000 70000==
41951,2023,11,22,06,00,AAXX 22064 41951 02956 00304 10288 20190 30123 40128 333 59004 70000==
41951,2023,11,22,09,00,AAXX 22094 41951 02956 00502 10298 20190 30100 40105 333 59009 70000==
41951,2023,11,22,12,00,AAXX 22124 41951 01950 00000 10227 20210 30101 40106 70500 333 10300 59006 70000==
41951,2023,11,22,15,00,AAXX 22154 41951 01940 00000 10200 20200 30128 40133 70500 333 59001 70000==
41951,2023,11,22,18,00,AAXX 22184 41951 01940 00000 10192 20190 30123 40128 70500 333 59005 70000==
41951,2023,11,22,21,00,AAXX 22214 41951 01930 00000 10180 20180 30117 40122 71000 333 59005 70000==
41951,2023,11,23,00,00,AAXX 23004 41951 01930 00000 10176 20176 30115 40120 71000 333 59004 70000==
41951,2023,11,23,03,00,AAXX 23034 41951 01940 00000 10215 20210 30133 40138 70500 333 20173 59004 70000==
41951,2023,11,23,06,00,AAXX 23064 41951 01950 03302 10283 20180 30115 40120 70500 333 59008 70000==
41951,2023,11,23,09,00,AAXX 23094 41951 01950 00000 10283 20190 30093 40098 70500 333 59007 70000==
41951,2023,11,23,12,00,AAXX 23124 41951 01950 00000 10220 20210 30095 40100 70500 333 10290 59006 70000==
41951,2023,11,23,15,00,AAXX 23154 41951 01940 00000 10200 20200 30124 40129 70500 333 59004 70000==
41951,2023,11,23,18,00,AAXX 23184 41951 01925 00000 10190 20190 30122 40127 71000 333 59001 70000==
41951,2023,11,23,21,00,AAXX 23214 41951 01925 00000 10176 20176 30120 40125 71000 333 58003 70000==
41953,2023,11,17,00,00,AAXX 17004 41953 21430 81803 10220 20220 30142 40147 76166 8352/ 333 58004 60249 70280 83615 88458==
41953,2023,11,17,03,00,AAXX 17034 41953 01430 80504 10215 20215 30135 40140 76166 8352/ 333 20215 59032 70640 83615 88458==
41953,2023,11,17,06,00,AAXX 17064 41953 21430 81305 10215 20215 30107 40112 76166 8352/ 333 59049 60499 70770 83615 88458==
41953,2023,11,17,09,00,AAXX 17094 41953 01430 80508 10220 20220 30052 40057 76366 8452/ 333 59092 71120 84614 88458==
41953,2023,11,17,12,00,AAXX 17124 41953 11430 81806 10236 20230 39983 49988 60479 72166 8452/ 333 10237 56999 59166 71240 84616 88458=
41953,2023,11,17,15,00,AAXX 17154 41953 02440 81803 10215 20210 30070 40075 8352/ 333 59098 71220 83616 88458==
41953,2023,11,17,18,00,AAXX 17184 41953 02440 60000 10215 20210 30100 40105 82510 333 59058 71200 82616 86458==
41953,2023,11,17,21,00,AAXX 17214 41953 02440 60000 10215 20210 30098 40103 82510 333 59055 71170 82616 86458==
41953,2023,11,18,00,00,AAXX 18004 41953 02440 80000 10210 20200 30125 40130 8352/ 333 59017 70960 83616 88458==
41953,2023,11,18,03,00,AAXX 18034 41953 02440 83603 10210 30143 40148 8352/ 333 20210 58008 70600 83616 88458==
41953,2023,11,18,06,00,AAXX 18064 41953 02445 80502 10250 20200 30139 40144 8352/ 333 58032 70470 83616 88458==
41953,2023,11,18,09,00,AAXX 18094 41953 02445 80000 10250 20220 30113 40118 8352/ 333 58062 70120 83616 88458==
41953,2023,11,18,12,00,AAXX 18124 41953 02430 80000 10240 20220 30125 40130 8352/ 333 10251 58142 70000 83616 88458==
41953,2023,11,18,15,00,AAXX 18154 41953 01908 00000 10224 20210 30135 40140 74220 333 58068 70000==
41953,2023,11,18,18,00,AAXX 18184 41953 01908 00000 10218 20210 30133 40138 74242 333 58033 70000==
41953,2023,11,18,21,00,AAXX 18214 41953 01408 60000 10216 20216 30145 40150 74244 83510 333 58047 70000 83616 84458==
41953,2023,11,19,00,00,AAXX 19004 41953 01409 80000 10222 20220 30151 40156 74244 8352/ 333 58026 70000 83616 88458==
41953,2023,11,19,03,00,AAXX 19034 41953 01430 80000 10240 20220 30166 40171 71044 8352/ 333 20215 58023 70000 83616 88458==
41953,2023,11,19,06,00,AAXX 19064 41953 01445 70000 10280 20220 30146 40151 70541 84510 333 58007 70000 84618 86458==
41953,2023,11,19,09,00,AAXX 19094 41953 01450 30000 10300 20210 30117 40122 70511 83500 333 58004 70000 83617==
41953,2023,11,19,12,00,AAXX 19124 41953 01925 00000 10255 20240 30127 40132 71000 333 10302 58002 70000==
41953,2023,11,19,15,00,AAXX 19154 41953 01920 00000 10235 20230 30145 40150 71000 333 58010 70000==
41953,2023,11,19,18,00,AAXX 19184 41953 01910 00000 10226 20230 30142 40147 74240 333 58009 70000==
41953,2023,11,19,21,00,AAXX 19214 41953 01910 00000 10224 20220 30145 40150 74244 333 58000 70000==
41953,2023,11,20,00,00,AAXX 20004 41953 01910 00000 10226 20220 30140 40145 74244 333 59011 70000==
41953,2023,11,20,03,00,AAXX 20034 41953 01435 30000 10278 20230 30163 40168 70541 333 20223 59003 70000 83618==
41953,2023,11,20,06,00,AAXX 20064 41953 01445 60502 10296 20230 30145 40150 70542 84470 333 59001 70000 83616 84458==
41953,2023,11,20,09,00,AAXX 20094 41953 01445 80000 10298 20220 30115 40120 70522 8352/ 333 59002 70000 83616 88458==
41953,2023,11,20,12,00,AAXX 20124 41953 01430 50000 10260 20240 30128 40133 71022 83510 333 10300 58001 70000 83616 84458==
41953,2023,11,20,15,00,AAXX 20154 41953 01428 40000 10250 20230 30144 40149 71022 84400 333 59001 70000 83616==
41953,2023,11,20,18,00,AAXX 20184 41953 01425 40000 10238 20230 30143 40148 71022 84400 333 58001 70000 83616==
41953,2023,11,20,21,00,AAXX 20214 41953 01425 50000 10236 20230 30137 40142 71022 83510 333 59008 70000 83616 84458==
41953,2023,11,21,00,00,AAXX 21004 41953 01428 80000 10236 20230 30131 40136 71022 8352/ 333 59009 70000 83616 88458==
41953,2023,11,21,03,00,AAXX 21034 41953 01430 80000 10250 20230 30149 40154 71022 8352/ 333 20235 59014 70000 83616 88458==
41953,2023,11,21,06,00,AAXX 21064 41953 01430 80000 10261 20220 30132 40137 71022 333 59013 70000 83616 88458==
41953,2023,11,21,09,00,AAXX 21094 41953 01435 80000 10270 20210 30106 40111 70522 8453/ 333 59009 70000 84616 88458==
41953,2023,11,21,12,00,AAXX 21124 41953 01/30 20000 10245 20230 30117 40122 71021 82040 333 10271 59011 70000 82362==
41953,2023,11,21,15,00,AAXX 21154 41953 01920 00000 10230 20220 30131 40136 71000 333 59013 70000==
41953,2023,11,21,18,00,AAXX 21184 41953 01910 00000 10220 20220 30128 40133 74240 333 59015 70000==
41953,2023,11,21,21,00,AAXX 21214 41953 01908 00000 10210 20210 30130 40135 74244 333 59007 70000==
41953,2023,11,22,00,00,AAXX 22004 41953 01908 00000 10211 20210 30129 40134 74244 333 59002 70000==
41953,2023,11,22,03,00,AAXX 22034 41953 01920 00000 10246 20210 30146 40151 71040 333 20210 59003 70000==
41953,2023,11,22,06,00,AAXX 22064 41953 01545 13101 10280 20200 30126 40131 70541 81100 333 59006 70000 81825==
41953,2023,11,22,09,00,AAXX 22094 41953 01950 03101 10286 20170 30099 40104 70500 333 59007 70000==
41953,2023,11,22,12,00,AAXX 22124 41953 01930 00000 10240 20210 30110 40115 70500 333 10288 59007 70000==
41953,2023,11,22,15,00,AAXX 22154 41953 01930 00000 10230 20210 30127 40132 71000 333 59004 70000==
41953,2023,11,22,18,00,AAXX 22184 41953 01925 00000 10220 20210 30126 40131 71000 333 59002 70000==
41953,2023,11,22,21,00,AAXX 22214 41953 01925 00000 10210 20200 30125 40130 71000 333 59005 70000==
41953,2023,11,23,00,00,AAXX 23004 41953 01928 00000 10200 20190 30124 40129 71000 333 59005 70000==
41953,2023,11,23,03,00,AAXX 23034 41953 01945 00000 10240 20180 30138 40143 70500 333 20198 59008 70000==
41953,2023,11,23,06,00,AAXX 23064 41953 01945 53202 10272 20170 30120 40125 70520 85100 333 59006 70000 85462==
41953,2023,11,23,09,00,AAXX 23094 41953 01940 00000 10272 20170 30096 40101 70500 333 59003 70000==
41953,2023,11,23,12,00,AAXX 23124 41953 01925 00000 10230 20210 30105 40110 71000 333 10278 59005 70000==
41953,2023,11,23,15,00,AAXX 23154 41953 01920 00000 10217 20210 30126 40131 71000 333 59001 70000==
41953,2023,11,23,18,00,AAXX 23184 41953 01920 00000 10208 20200 30125 40130 71000 333 59001 70000==
41953,2023,11,23,21,00,AAXX 23214 41953 01918 00000 10207 20190 30123 40128 71000 333 59002 70000==
41955,2023,11,17,00,00,AAXX 17004 41955 NIL=
41955,2023,11,17,06,00,AAXX 17064 41955 NIL=
41955,2023,11,18,12,00,AAXX 18124 41955 NIL=
41955,2023,11,18,18,00,AAXX 18184 41955 NIL=
41955,2023,11,19,00,00,AAXX 19004 41955 NIL=
41955,2023,11,19,06,00,AAXX 19064 41955 NIL=
41955,2023,11,19,12,00,AAXX 19124 41955 NIL=
41955,2023,11,19,21,00,AAXX 19214 41955 NIL=
41955,2023,11,20,06,00,AAXX 20064 41955 NIL=
41955,2023,11,20,12,00,AAXX 20124 41955 NIL=
41955,2023,11,20,18,00,AAXX 20184 41955 NIL=
41955,2023,11,21,06,00,AAXX 21064 41955 NIL=
41955,2023,11,21,12,00,AAXX 21124 41955 NIL=
41955,2023,11,21,18,00,AAXX 21184 41955 NIL=
41955,2023,11,22,00,00,AAXX 22004 41955 NIL=
41955,2023,11,22,06,00,AAXX 22064 41955 NIL=
41955,2023,11,22,12,00,AAXX 22124 41955 NIL=
41955,2023,11,23,00,00,AAXX 23004 41955 NIL=
41955,2023,11,23,06,00,AAXX 23064 41955 NIL=
41955,2023,11,23,12,00,AAXX 23124 41955 NIL=
41955,2023,11,23,18,00,AAXX 23184 41955 NIL=
41958,2023,11,17,00,00,AAXX 17004 41958 11430 80503 10228 20228 30100 40102 60179 76366 8542/ 333 56199 59027 70237 84616 88458=
41958,2023,11,17,03,00,AAXX 17034 41958 70407 10210 20142 30590 40150 70522 80048 333// 59014 84460 83280=
41958,2023,11,17,06,00,AAXX 17064 41958 11430 80507 10224 20210 30071 40073 60589 76566 8542/ 333 56199 70816 84616 88458=
41958,2023,11,17,09,00,AAXX 17094 41958 21450 83104 10234 20220 30055 40059 70262 8542/ 333 56799 59067 6010/ 84616 88458=
41958,2023,11,17,12,00,AAXX 17124 41958 11450 83101 10230 20220 30090 40092 60106 70262 8542/ 333 10234 56799 59042 70910 84616 88458=
41958,2023,11,17,15,00,AAXX 17154 41958 32450 80000 10224 20210 30127 40129 8542/ 333 56999 59018 70870 84616 88458=
41958,2023,11,18,00,00,AAXX 18004 41958 32940 00000 10210 20210 30117 40119 333 58017 70680=
41958,2023,11,18,03,00,AAXX 18034 41958 32456 33101 10250 20200 30139 40141 83400 333 20206 56700 58035 70530 83616=
41958,2023,11,18,06,00,AAXX 18064 41958 32457 33101 10278 20220 30129 40131 83400 333 56700 58058 70100 83616=
41958,2023,11,18,09,00,AAXX 18094 41958 32456 30501 10286 20210 30103 40105 83400 333 56100 58048 70000 83616=
41958,2023,11,18,12,00,AAXX 18124 41958 32450 60000 10252 20220 30114 40116 83410 333 10286 56990 58024 70000 83616 85459=
41958,2023,11,18,15,00,AAXX 18154 41958 32440 60000 10243 20230 30136 40138 83410 333 56990 58009 70000 83616 85459=
41958,2023,11,18,18,00,AAXX 18184 41958 32440 80000 10234 20220 30146 40148 8542/ 333 56999 58028 70000 84616 88458=
41958,2023,11,18,21,00,AAXX 18214 41958 32940 00000 10222 20220 30130 40132 333 58019 70000=
41958,2023,11,19,00,00,AAXX 19004 41958 31940 00000 10216 20216 30137 40139 70500 333 58020 70000=
41958,2023,11,19,03,00,AAXX 19034 41958 31956 00501 10258 20210 30155 40157 70500 333 20208 58016 70000=
41958,2023,11,19,06,00,AAXX 19064 41958 32456 33101 10284 20210 30137 40139 83400 333 56700 58008 70000 83616=
41958,2023,11,19,09,00,AAXX 19094 41958 32956 03101 10292 20200 30109 40111 333 58006 70000=
41958,2023,11,19,12,00,AAXX 19124 41958 32450 30000 10250 20230 30117 40119 83400 333 10292 56900 58003 70000 83616=
41958,2023,11,19,15,00,AAXX 19154 41958 32950 00000 10233 20230 30136 40138 333 58000 70000=
41958,2023,11,19,18,00,AAXX 19184 41958 32940 00000 10230 20230 30131 40133 333 59015 70000=
41958,2023,11,19,21,00,AAXX 19214 41958 31940 00000 10224 20220 30122 40124 70500 333 59008 70000=
41958,2023,11,20,00,00,AAXX 20004 41958 31440 30000 10218 20218 30132 40134 70500 83400 333 56900 59005 70000 83616=
41958,2023,11,20,03,00,AAXX 20034 41958 31950 03101 10258 20230 30152 40154 70500 333 20214 59003 70000=
41958,2023,11,20,06,00,AAXX 20064 41958 32456 50000 10294 20220 30139 40141 83410 333 56990 58002 70000 83616 84459=
41958,2023,11,20,09,00,AAXX 20094 41958 32956 00000 10292 20210 30117 40119 333 58008 70000=
41958,2023,11,20,12,00,AAXX 20124 41958 32950 00000 10252 20230 30120 40122 333 10296 58003 70000=
41958,2023,11,20,15,00,AAXX 20154 41958 32950 00000 10241 20220 30136 40138 333 58000 70000=
41958,2023,11,20,18,00,AAXX 20184 41958 32940 00000 10237 20237 30133 40135 333 58002 70000=
41958,2023,11,20,21,00,AAXX 20214 41958 32940 00000 10235 20235 30117 40119 333 59005 70000=
41958,2023,11,21,00,00,AAXX 21004 41958 32440 30000 10232 20230 30124 40126 83500 333 56900 59008 70000 83616=
41958,2023,11,21,03,00,AAXX 21034 41958 32450 80000 10244 20220 30138 40140 8452/ 333 20225 59014 70000 84616 88458=
41958,2023,11,21,06,00,AAXX 21064 41958 32457 70000 10280 20230 30126 40128 85310 333 56990 59013 70000 84616 81930 87459=
41958,2023,11,21,09,00,AAXX 21094 41958 32458 60000 10297 20220 30100 40102 85410 333 56990 59017 70000 84616 86459=
41958,2023,11,21,12,00,AAXX 21124 41958 32450 50000 10250 20230 30109 40111 85400 333 10298 56900 59011 70000 84617=
41958,2023,11,21,15,00,AAXX 21154 41958 32940 00000 10230 20220 30124 40126 333 59012 70000=
41958,2023,11,21,18,00,AAXX 21184 41958 31930 00000 10224 20210 30120 40122 70500 333 59013 70000=
41958,2023,11,21,21,00,AAXX 21214 41958 31940 00000 10207 20200 30117 40119 70500 333 58000 70000=
41958,2023,11,22,00,00,AAXX 22004 41958 31950 00000 10207 20207 30118 40120 70500 333 59006 70000=
41958,2023,11,22,03,00,AAXX 22034 41958 31957 00000 10250 20190 30141 40143 70500 333 20205 58003 70000=
41958,2023,11,22,06,00,AAXX 22064 41958 31957 00000 10282 20150 30122 40124 70500 333 59004 70000=
41958,2023,11,22,09,00,AAXX 22094 41958 31957 03601 10290 20200 30099 40101 70500 333 59001 70000=
41958,2023,11,22,12,00,AAXX 22124 41958 31950 00000 10233 20200 30108 40110 70500 333 10294 59001 70000=
41958,2023,11,22,15,00,AAXX 22154 41958 31940 00000 10215 20200 30125 40127 70500 333 58001 70000=
41958,2023,11,22,18,00,AAXX 22184 41958 31930 00000 10200 20180 30124 40126 70500 333 58004 70000=
41958,2023,11,22,21,00,AAXX 22214 41958 31930 00000 10197 20190 30112 40114 70500 333 59005 70000=
41958,2023,11,23,00,00,AAXX 23004 41958 31915 00000 10195 20190 30115 40117 71000 333 59003 70000=
41958,2023,11,23,03,00,AAXX 23034 41958 31950 00000 10239 20000 30137 40139 70500 333 20187 59004 70000=
41958,2023,11,23,06,00,AAXX 23064 41958 31956 00000 10268 20160 30118 40120 70500 333 59004 70000=
41958,2023,11,23,09,00,AAXX 23094 41958 32958 00000 10278 20180 30093 40095 333 59006 70000=
41958,2023,11,23,12,00,AAXX 23124 41958 31950 00000 10230 20200 30105 40107 70500 333 10281 59003 70000=
41958,2023,11,23,15,00,AAXX 23154 41958 31940 00000 10206 20200 30121 40123 70500 333 59004 70000=
41958,2023,11,23,18,00,AAXX 23184 41958 31930 00000 10198 20190 30119 40121 70500 333 59005 70000=
41958,2023,11,23,21,00,AAXX 23214 41958 31930 00000 10195 20190 30117 40119 70500 333 58005 70000=
41960,2023,11,17,00,00,AAXX 17004 41960 21310 80502 10230 20230 30119 40121 76566 8672/ 333 59022 60509 70628 83708 84614 88458==
41960,2023,11,17,03,00,AAXX 17034 41960 01310 80515 10227 20227 30110 40112 76566 8672/ 333 20223 59060 70872 83708 84614 88458==
41960,2023,11,17,06,00,AAXX 17064 41960 21310 83608 10221 20221 30073 40075 76566 8672/ 333 59083 60809 71376 83707 84614 88458==
41960,2023,11,17,09,00,AAXX 17094 41960 01330 83245 10220 20220 30006 40007 76166 8672/ 333 59133 72004 83707 84612 88458==
41960,2023,11,17,12,00,AAXX 17124 41960 11330 82704 10223 20220 30096 40098 60659 76166 8672/ 333 10239 56599 59047 72000 82707 84614 88458=
41960,2023,11,17,15,00,AAXX 17154 41960 01430 82506 10220 20220 30135 40137 72166 8542/ 333 59028 72001 84617 88458==
41960,2023,11,17,18,00,AAXX 17184 41960 01430 82704 10220 20220 30131 40133 70262 8542/ 333 59015 70020 84618 88459==
41960,2023,11,17,21,00,AAXX 17214 41960 02450 60000 10212 20212 30131 40133 85410 333 59003 71756 83618 86459==
41960,2023,11,18,00,00,AAXX 18004 41960 02450 40000 10208 20208 30129 40131 84400 333 58014 71478 82618==
41960,2023,11,18,03,00,AAXX 18034 41960 02450 83602 10224 20210 30148 40150 8642/ 333 20205 58038 71230 84616 83822 88459==
41960,2023,11,18,06,00,AAXX 18064 41960 02456 53603 10250 20210 30137 40138 85401 333 58064 70674 83618==
41960,2023,11,18,09,00,AAXX 18094 41960 02456 43202 10280 20230 30115 40117 84401 333 58009 70036 82618==
41960,2023,11,18,12,00,AAXX 18124 41960 02450 40000 10256 20230 30122 40124 84401 333 10282 58026 70024 82618==
41960,2023,11,18,15,00,AAXX 18154 41960 01940 00000 10227 20227 30152 40154 70510 333 58017 70000==
41960,2023,11,18,18,00,AAXX 18184 41960 01940 00000 10217 20217 30154 40156 70500 333 58023 70000==
41960,2023,11,18,21,00,AAXX 18214 41960 01935 00000 10213 20213 30153 40155 70500 333 58022 70000==
41960,2023,11,19,00,00,AAXX 19004 41960 01935 00000 10210 20210 30153 40155 70500 333 58024 70000==
41960,2023,11,19,03,00,AAXX 19034 41960 01450 33301 10240 20220 30169 40171 70500 83500 333 20205 58021 70000 83618==
41960,2023,11,19,06,00,AAXX 19064 41960 02458 63301 10282 20200 30148 40149 84410 333 58011 70000 83618 86459==
41960,2023,11,19,09,00,AAXX 19094 41960 02456 33201 10282 20210 30122 40124 83400 333 58007 70000 82618==
41960,2023,11,19,12,00,AAXX 19124 41960 01440 30000 10243 20230 30133 40135 70522 83400 333 10291 58011 70000 82618==
41960,2023,11,19,15,00,AAXX 19154 41960 01925 00000 10223 20210 30152 40154 71000 333 58000 70000==
41960,2023,11,19,18,00,AAXX 19184 41960 01920 00000 10215 20215 30142 40144 71000 333 59012 70000==
41960,2023,11,19,21,00,AAXX 19214 41960 01920 00000 10212 20212 30141 40143 71000 333 59012 70000==
41960,2023,11,20,00,00,AAXX 20004 41960 01935 30000 10208 20208 30143 40145 70500 80001 333 59010 70000 83070==
41960,2023,11,20,03,00,AAXX 20034 41960 01450 50000 10250 20230 30163 40165 70521 83410 333 20204 59006 70000 82618 85459==
41960,2023,11,20,06,00,AAXX 20064 41960 02460 63403 10298 20230 30150 40152 86400 333 58002 70000 83618 83823==
41960,2023,11,20,09,00,AAXX 20094 41960 02456 53601 10293 20220 30128 40130 83410 333 58006 70000 82618 85460==
41960,2023,11,20,12,00,AAXX 20124 41960 01440 50000 10255 20240 30130 40132 70522 83410 333 10300 59003 70000 82618 85459==
41960,2023,11,20,15,00,AAXX 20154 41960 01440 50000 10238 20238 30147 40149 70522 83470 333 59005 70000 82618 84460==
41960,2023,11,20,18,00,AAXX 20184 41960 01440 40000 10225 20220 30145 40147 70522 84400 333 58003 70000 83618==
41960,2023,11,20,21,00,AAXX 20214 41960 01440 70000 10228 20220 30139 40141 70522 85410 333 59002 70000 83618 87459==
41960,2023,11,21,00,00,AAXX 21004 41960 01440 80000 10230 20220 30135 40137 70522 8542/ 333 59008 70000 83618 88459==
41960,2023,11,21,03,00,AAXX 21034 41960 41440 80000 10240 20220 30161 40163 76122 8542/ 333 20225 59002 84616 88459==
41960,2023,11,21,06,00,AAXX 21064 41960 21450 60000 10260 20210 30141 40143 70562 84410 333 59009 69925 70002 83618 86459==
41960,2023,11,21,09,00,AAXX 21094 41960 01450 80000 10267 20230 30113 40115 70522 8542/ 333 59015 70002 84617 88459==
41960,2023,11,21,12,00,AAXX 21124 41960 01440 80000 10248 20220 30118 40120 70522 8442/ 333 10270 59012 70002 83618 88459==
41960,2023,11,21,15,00,AAXX 21154 41960 01/20 10000 10225 20225 30133 40135 71021 81030 333 59014 70000 81365==
41960,2023,11,21,18,00,AAXX 21184 41960 01920 00000 10214 20214 30129 40131 71020 333 59016 70002==
41960,2023,11,21,21,00,AAXX 21214 41960 01920 00000 10210 20210 30130 40132 71000 333 59009 70000==
41960,2023,11,22,00,00,AAXX 22004 41960 01920 00000 10208 20208 30128 40130 71000 333 59007 70000==
41960,2023,11,22,03,00,AAXX 22034 41960 01935 00000 10236 20215 30149 40151 70500 333 20205 59012 70000==
41960,2023,11,22,06,00,AAXX 22064 41960 01950 03603 10280 20170 30131 40133 70500 333 59010 70000==
41960,2023,11,22,09,00,AAXX 22094 41960 02956 03003 10290 20170 30106 40108 333 59007 70000==
41960,2023,11,22,12,00,AAXX 22124 41960 01940 00000 10235 20220 30116 40118 70500 333 10295 59002 70000==
41960,2023,11,22,15,00,AAXX 22154 41960 01920 00000 10206 20206 30132 40134 71000 333 59001 70000==
41960,2023,11,22,18,00,AAXX 22184 41960 01920 00000 10195 20195 30127 40129 71000 333 59002 70000==
41960,2023,11,22,21,00,AAXX 22214 41960 01920 00000 10185 20185 30131 40133 71000 333 58001 70000==
41960,2023,11,23,00,00,AAXX 23004 41960 01920 00000 10182 20182 30129 40131 71000 333 58001 70000==
41960,2023,11,23,03,00,AAXX 23034 41960 01920 00000 10220 20180 30144 40146 71000 333 20178 59005 70000==
41960,2023,11,23,06,00,AAXX 23064 41960 01950 03303 10270 20180 30127 40128 70500 333 59004 70000==
41960,2023,11,23,09,00,AAXX 23094 41960 01950 03402 10278 20170 30111 40112 70500 333 58005 70000==
41960,2023,11,23,12,00,AAXX 23124 41960 01940 00000 10224 20200 30109 40111 70500 333 10285 59007 70000==
41960,2023,11,23,15,00,AAXX 23154 41960 01920 00000 10196 20196 30129 40131 71000 333 59003 70000==
41960,2023,11,23,18,00,AAXX 23184 41960 01920 00000 10194 20194 30133 40134 71000 333 58006 70000==
41960,2023,11,23,21,00,AAXX 23214 41960 01920 00000 10186 20186 30128 40130 71000 333 59003 70000==
41963,2023,11,17,00,00,AAXX 17004 41963 21315 80501 10238 20238 30165 40167 76166 8372/ 333 58017 60069 70240 82708 83616 88458==
41963,2023,11,17,06,00,AAXX 17064 41963 NIL=
41963,2023,11,17,09,00,AAXX 17094 41963 01330 81851 10255 20250 30038 40071 72162 8372/ 333 59012 71160 82708 83616 88458==
41963,2023,11,17,12,00,AAXX 17124 41963 11330 81825 10240 20210 30071 40074 60046 70592 8372/ 333 10260 56999 59067 71150 82708 83616 88458=
41963,2023,11,18,12,00,AAXX 18124 41963 01930 00000 10225 20220 30122 40125 70520 333 10255 58051 70000==
41963,2023,11,18,15,00,AAXX 18154 41963 01915 00000 10210 20210 30141 40144 71000 333 58050 70000==
41963,2023,11,18,18,00,AAXX 18184 41963 NIL=
41963,2023,11,19,00,00,AAXX 19004 41963 01950 00000 10202 20202 30147 40150 71000 333 58028 70000==
41963,2023,11,19,03,00,AAXX 19034 41963 01440 53601 10255 20240 30158 40160 70520 82510 333 20200 58028 70000 82618 85458==
41963,2023,11,19,06,00,AAXX 19064 41963 02450 23601 10285 20230 30138 40141 82500 333 58015 70000 82618==
41963,2023,11,19,09,00,AAXX 19094 41963 02950 01302 10300 20240 30118 40121 333 58010 70000==
41963,2023,11,19,12,00,AAXX 19124 41963 01920 03601 10245 20240 30119 40122 70500 333 10303 59003 70000==
41963,2023,11,19,21,00,AAXX 19214 41963 01915 00000 10214 20214 30146 40149 71000 333 59003 70000==
41963,2023,11,20,00,00,AAXX 20004 41963 01915 00000 10207 20207 30144 40147 71000 333 59003 70000==
41963,2023,11,20,03,00,AAXX 20034 41963 01440 33601 10275 20240 30160 40162 70510 83500 333 20203 58002 70000 83618==
41963,2023,11,20,06,00,AAXX 20064 41963 02950 53602 10300 20240 30144 40147 80001 333 70000 85080==
41963,2023,11,20,09,00,AAXX 20094 41963 02950 53601 10300 20240 30117 40119 80001 333 59001 70000 85080==
41963,2023,11,20,12,00,AAXX 20124 41963 01430 23601 10260 20250 30112 40115 70521 82500 333 10308 59007 70000 82618==
41963,2023,11,20,15,00,AAXX 20154 41963 01915 00000 10240 20240 30150 40153 71000 333 59002 70000==
41963,2023,11,20,18,00,AAXX 20184 41963 42915 00000 10233 20233 30150 40153 58002==
41963,2023,11,20,21,00,AAXX 20214 41963 02915 00000 10229 20229 30144 40147 333 58002 70000==
41963,2023,11,21,00,00,AAXX 21004 41963 01915 00000 10220 20220 30143 40145 71000 333 59001 70000==
41963,2023,11,21,03,00,AAXX 21034 41963 01940 83601 10255 20250 30146 40149 70521 8252/ 333 20213 59014 70000 82618 88458==
41963,2023,11,21,06,00,AAXX 21064 41963 01940 83601 10260 20230 30129 40132 70522 8252/ 333 59015 70000 82618 88458==
41963,2023,11,21,09,00,AAXX 21094 41963 01440 83601 10260 20240 30107 40110 70522 8252/ 333 59010 70000 82618 88458==
41963,2023,11,21,12,00,AAXX 21124 41963 01420 80000 10240 20240 30111 40114 70522 8252/ 333 10265 59001 70000 82618 88458==
41963,2023,11,21,15,00,AAXX 21154 41963 01915 80000 10220 20220 30122 40125 70522 8252/ 333 59020 70000 82618 88458==
41963,2023,11,21,18,00,AAXX 21184 41963 NIL=
41963,2023,11,21,21,00,AAXX 21214 41963 01915 00000 10213 20213 30127 40130 71022 333 59017 70000==
41963,2023,11,22,00,00,AAXX 22004 41963 01915 00000 10212 20212 30124 40127 71500 333 59019 70000==
41963,2023,11,22,03,00,AAXX 22034 41963 01940 03601 10250 20230 30142 40144 70500 333 20210 59004 70000==
41963,2023,11,22,06,00,AAXX 22064 41963 02950 03601 10285 20230 30116 40119 333 59013 70000==
41963,2023,11,22,09,00,AAXX 22094 41963 02950 03601 10290 20240 30099 40102 333 59008 70000==
41963,2023,11,22,12,00,AAXX 22124 41963 01925 03601 10246 20230 30108 40111 70500 333 10296 59003 70000==
41963,2023,11,22,15,00,AAXX 22154 41963 01912 00000 10216 20216 30124 40127 71000 333 58002 70000==
41963,2023,11,22,18,00,AAXX 22184 41963 01912 00000 10212 20212 30130 40133 71000 333 58002 70000==
41963,2023,11,22,21,00,AAXX 22214 41963 01915 00000 10208 20208 30128 40131 71000 333 58001 70000==
41963,2023,11,23,00,00,AAXX 23004 41963 01915 00000 10204 20204 30125 40128 71000 333 58001 70000==
41963,2023,11,23,03,00,AAXX 23034 41963 01940 03601 10240 20190 30132 40135 70500 333 20198 70000==
41963,2023,11,23,06,00,AAXX 23064 41963 02950 03601 10280 20170 30116 40118 333 58000 70000==
41963,2023,11,23,09,00,AAXX 23094 41963 02950 03601 10280 20200 30092 40095 333 59007 70000==
41963,2023,11,23,12,00,AAXX 23124 41963 01925 03601 10247 20247 30098 40100 70500 333 10290 59010 70000==
41963,2023,11,23,15,00,AAXX 23154 41963 01915 00000 10200 20200 30121 40124 71000 333 59003 70000==
41963,2023,11,23,18,00,AAXX 23184 41963 NIL=
41963,2023,11,23,21,00,AAXX 23214 41963 01915 00000 10192 20192 30124 40127 71000 333 59004 70000==
41964,2023,11,17,00,00,AAXX 17004 41964 21330 80503 10224 20223 30128 40131 76166 8772/ 333 58003 60429 70478 85707 85614 88457==
41964,2023,11,17,03,00,AAXX 17034 41964 01325 80506 10225 20225 30130 40133 76366 8772/ 333 20216 59033 70704 85707 85614 88457==
41964,2023,11,17,06,00,AAXX 17064 41964 NIL=
41964,2023,11,17,09,00,AAXX 17094 41964 02340 80610 10254 20250 30062 40064 8772/ 333 59079 70992 85707 85614 88456==
41964,2023,11,17,12,00,AAXX 17124 41964 11350 81616 10245 20220 30063 40065 60238 70262 8662/ 333 10270 56599 59075 70984 84709 84617 88459=
41964,2023,11,17,15,00,AAXX 17154 41964 02340 81618 10235 20220 30114 40116 8662/ 333 59045 70972 84709 84618 88460==
41964,2023,11,18,00,00,AAXX 18004 41964 02356 82702 10219 20210 30121 40124 8662/ 333 59007 70542 83709 84617 88459==
41964,2023,11,18,03,00,AAXX 18034 41964 02356 80000 10234 20210 30130 40133 8662/ 333 20210 58000 70314 84709 84617 88459==
41964,2023,11,18,09,00,AAXX 18094 41964 02456 80000 10250 20200 30123 40126 8452/ 333 58061 70006 84618 88460==
41964,2023,11,18,12,00,AAXX 18124 41964 02/50 30000 10228 20220 30117 40119 83010 333 10265 58054 70000 83460==
41964,2023,11,18,18,00,AAXX 18184 41964 NIL=
41964,2023,11,18,21,00,AAXX 18214 41964 01440 40000 10216 20214 30134 40136 70520 83510 333 58015 70000 83618 83460==
41964,2023,11,19,00,00,AAXX 19004 41964 01440 50000 10220 20219 30138 40140 70522 84510 333 58017 70000 84617 83460==
41964,2023,11,19,03,00,AAXX 19034 41964 02456 50501 10266 20250 30153 40155 83410 333 20197 58023 70000 82618 83460==
41964,2023,11,19,06,00,AAXX 19064 41964 NIL=
41964,2023,11,19,09,00,AAXX 19094 41964 02457 50000 10300 20220 30118 40120 83510 333 59005 70000 83618 84460==
41964,2023,11,19,12,00,AAXX 19124 41964 01945 20000 10250 20240 30118 40120 70521 80002 333 10313 58001 70000 82080==
41964,2023,11,19,21,00,AAXX 19214 41964 01440 40000 10231 20230 30125 40128 70522 82510 333 59009 70000 82618 83460==
41964,2023,11,20,00,00,AAXX 20004 41964 01440 50000 10231 20230 30128 40131 70522 83510 333 59010 70000 83618 84460==
41964,2023,11,20,03,00,AAXX 20034 41964 02456 50000 10294 20240 30150 40153 83530 333 20225 59003 70000 83618 84362==
41964,2023,11,20,06,00,AAXX 20064 41964 02457 60000 10305 20240 30136 40138 84510 333 59002 70000 84618 84460==
41964,2023,11,20,09,00,AAXX 20094 41964 02457 60000 10309 20260 30113 40115 84410 333 59005 70000 83618 84460==
41964,2023,11,20,12,00,AAXX 20124 41964 01450 40000 10266 20260 30118 40120 70522 81512 333 10335 58000 70000 81618 83460==
41964,2023,11,20,18,00,AAXX 20184 41964 NIL=
41964,2023,11,21,00,00,AAXX 21004 41964 01450 80501 10238 20235 30120 40122 70522 8452/ 333 59008 70000 84618 88460==
41964,2023,11,21,03,00,AAXX 21034 41964 01450 80000 10260 20240 30136 40138 70522 8452/ 333 20231 59014 70000 84617 88459==
41964,2023,11,21,06,00,AAXX 21064 41964 01350 83201 10264 20240 30122 40124 70522 8562/ 333 59014 70000 83709 83617 88459==
41964,2023,11,21,09,00,AAXX 21094 41964 01350 83602 10260 20230 30100 40102 70262 8662/ 333 59013 70001 84709 83617 88459==
41964,2023,11,21,12,00,AAXX 21124 41964 11450 70000 10240 20230 30107 40109 69916 70562 83510 333 10270 59011 70001 83618 86460==
41964,2023,11,21,15,00,AAXX 21154 41964 01/35 20000 10219 20210 30118 40120 70521 82080 333 59015 70001 82460==
41964,2023,11,21,18,00,AAXX 21184 41964 NIL=
41964,2023,11,21,21,00,AAXX 21214 41964 01925 00000 10200 20200 30121 40124 71000 333 59008 70001==
41964,2023,11,22,00,00,AAXX 22004 41964 01925 00000 10203 20203 30123 40126 71000 333 58003 70001==
41964,2023,11,22,03,00,AAXX 22034 41964 01950 03602 10268 20240 30134 40136 70500 333 20190 59002 70001==
41964,2023,11,22,06,00,AAXX 22064 41964 02456 23603 10295 20210 30110 40112 82500 333 59012 70001 82618==
41964,2023,11,22,09,00,AAXX 22094 41964 02957 00000 10298 20210 30096 40095 333 58004 70000==
41964,2023,11,22,12,00,AAXX 22124 41964 01450 30000 10240 20230 30099 40101 70520 83500 333 10301 59008 70000 83619==
41964,2023,11,22,15,00,AAXX 22154 41964 01950 00000 10218 20210 30128 40131 70520 333 58010 70000==
41964,2023,11,22,21,00,AAXX 22214 41964 01940 00000 10206 20205 30117 40120 70500 333 59004 70000==
41964,2023,11,23,00,00,AAXX 23004 41964 01930 00000 10198 20197 30114 40117 70500 333 59009 70000==
41964,2023,11,23,03,00,AAXX 23034 41964 01445 23601 10250 20230 30127 40130 70520 82500 333 20189 59007 70000 82619==
41964,2023,11,23,06,00,AAXX 23064 41964 02450 30000 10285 20210 30114 40116 83500 333 58004 70000 83618==
41964,2023,11,23,09,00,AAXX 23094 41964 02950 00000 10290 20200 30094 40096 333 59002 70000==
41964,2023,11,23,12,00,AAXX 23124 41964 01945 00000 10230 20220 30095 40097 70520 333 10299 59004 70000==
41964,2023,11,23,18,00,AAXX 23184 41964 NIL=
41964,2023,11,23,21,00,AAXX 23214 41964 42930 00000 10192 20190 30121 40124 58004==
41965,2023,11,17,00,00,AAXX 17004 41965 21430 81405 10210 20170 30131 40140 76166 8461/ 333 59018 60327 70400 81710 83618 88456==
41965,2023,11,17,03,00,AAXX 17034 41965 01440 81406 10218 20180 30130 40139 76166 8461/ 333 20215 59039 70520 81710 83618 88460==
41965,2023,11,17,06,00,AAXX 17064 41965 21440 81308 10220 20160 30109 40118 76266 8461/ 333 59044 60159 70530 81710 83618 88456==
41965,2023,11,17,09,00,AAXX 17094 41965 01440 81808 10231 20200 30050 40059 76166 8461/ 333 59091 70630 81710 83618 88456==
41965,2023,11,17,12,00,AAXX 17124 41965 11430 82109 10245 20190 30060 40069 60179 76166 8461/ 333 10235 56499 59080 70650 81710 83618 88456=
41965,2023,11,17,15,00,AAXX 17154 41965 01430 81805 10235 20180 30102 40111 70262 8461/ 333 59058 70640 81710 83618 88460==
41965,2023,11,18,00,00,AAXX 18004 41965 02440 81402 10220 20170 30128 40137 8461/ 333 59003 70320 83618 88460==
41965,2023,11,18,03,00,AAXX 18034 41965 02440 81001 10235 20180 30135 40144 8461/ 333 20210 58005 70200 81710 83618 88460==
41965,2023,11,18,06,00,AAXX 18064 41965 02440 80000 10245 20180 30123 40132 8461/ 333 58014 70170 83618 88460==
41965,2023,11,18,09,00,AAXX 18094 41965 02440 70000 10255 20200 30106 40115 8461/ 333 58056 70040 83618 88460==
41965,2023,11,18,12,00,AAXX 18124 41965 02430 80000 10240 20190 30120 40129 8462/ 333 10273 58060 70000 83618 88460==
41965,2023,11,18,15,00,AAXX 18154 41965 02430 60000 10228 20190 30143 40152 84610 333 58041 70000 83618 86460==
41965,2023,11,18,18,00,AAXX 18184 41965 NIL=
41965,2023,11,19,00,00,AAXX 19004 41965 01940 00000 10220 20180 30146 40155 70500 333 58018 70000==
41965,2023,11,19,03,00,AAXX 19034 41965 01950 30000 10290 20200 30156 40165 70541 80002 333 20210 58021 70000 83080==
41965,2023,11,19,06,00,AAXX 19064 41965 01456 61403 10300 20200 30133 40142 70542 8461/ 333 58010 70000 83618 88460==
41965,2023,11,19,09,00,AAXX 19094 41965 01456 42202 10317 20200 30108 40117 70541 84610 333 58002 70000 83618 84460==
41965,2023,11,19,12,00,AAXX 19124 41965 01440 30000 10260 20200 30121 40130 70542 83600 333 10323 58000 70000 83618==
41965,2023,11,19,15,00,AAXX 19154 41965 01430 30000 10228 20190 30142 40151 70541 83600 333 59001 70000 83618==
41965,2023,11,19,21,00,AAXX 19214 41965 NIL=
41965,2023,11,20,00,00,AAXX 20004 41965 01430 30000 10230 20200 30136 40145 70542 83600 333 59010 70000 83618==
41965,2023,11,20,03,00,AAXX 20034 41965 01450 30000 10301 20210 30154 40163 70541 83600 333 20217 59002 70000 83618==
41965,2023,11,20,06,00,AAXX 20064 41965 01456 30000 10250 20200 30135 40144 70541 83600 333 58002 70000 83618==
41965,2023,11,20,09,00,AAXX 20094 41965 42456 30000 10320 20210 30116 40125 58008 83618==
41965,2023,11,20,12,00,AAXX 20124 41965 01440 30000 10260 20210 30123 40132 70541 83600 333 10332 58002 70000 83618==
41965,2023,11,20,15,00,AAXX 20154 41965 01430 30000 10245 20210 30137 40146 70541 83600 333 59005 70000 83618==
41965,2023,11,20,18,00,AAXX 20184 41965 NIL=
41965,2023,11,21,03,00,AAXX 21034 41965 01440 30000 10260 20210 30139 40148 70541 83600 333 20225 59015 70000 83618==
41965,2023,11,21,06,00,AAXX 21064 41965 01450 80000 10270 20200 30122 40131 70541 8462/ 333 59013 70000 81710 83618 88460==
41965,2023,11,21,09,00,AAXX 21094 41965 01450 80000 10270 20200 30101 40111 70542 8461/ 333 59015 70000 81710 83618 88460==
41965,2023,11,21,12,00,AAXX 21124 41965 01440 80000 10240 20200 30110 40119 70542 8461/ 333 10278 59013 70000 81710 83618 88460==
41965,2023,11,21,15,00,AAXX 21154 41965 01430 30000 10207 20170 30123 40132 70541 84600 333 59014 70000 83618==
41965,2023,11,21,18,00,AAXX 21184 41965 NIL=
41965,2023,11,22,00,00,AAXX 22004 41965 01930 00000 10200 20160 30128 40137 71000 333 59011 70000==
41965,2023,11,22,03,00,AAXX 22034 41965 01950 00000 10271 20180 30137 40146 70500 333 20182 59002 70000==
41965,2023,11,22,06,00,AAXX 22064 41965 42/56 30000 10290 20180 30113 40122 59022 83080==
41965,2023,11,22,09,00,AAXX 22094 41965 01956 33202 10300 20170 30099 40099 70541 80001 333 59011 70000 83080==
41965,2023,11,22,12,00,AAXX 22124 41965 01930 30000 10220 20180 30106 40115 70541 80001 333 10315 59004 70000 83080==
41965,2023,11,22,15,00,AAXX 22154 41965 01930 30000 10205 20170 30118 40137 70541 80001 333 59005 70000 83080==
41965,2023,11,23,00,00,AAXX 23004 41965 01930 00000 10200 20160 30125 40134 71000 333 59003 70000==
41965,2023,11,23,03,00,AAXX 23034 41965 01940 31801 10260 20170 30130 40139 70541 80001 333 20180 59007 70000 83080==
41965,2023,11,23,06,00,AAXX 23064 41965 01950 00000 10285 20140 30108 40117 70500 333 59005 70000==
41965,2023,11,23,09,00,AAXX 23094 41965 01956 00000 10295 20160 30088 40097 70500 333 59002 70000==
41965,2023,11,23,12,00,AAXX 23124 41965 01940 00000 10230 20180 30102 40111 70500 333 10305 59004 70000==
41965,2023,11,23,15,00,AAXX 23154 41965 01940 00000 10205 20170 30111 40120 70500 333 59007 70000==
41965,2023,11,23,18,00,AAXX 23184 41965 NIL=
41966,2023,11,17,00,00,AAXX 17004 41966 21335 81801 10220 20190 30067 40148 76366 8472/ 333 58005 60209 70261 82709 83615 88460==
41966,2023,11,17,03,00,AAXX 17034 41966 01340 80401 10225 20200 30089 40169 76366 8472/ 333 20210 59006 70427 82709 83615 88460==
41966,2023,11,17,06,00,AAXX 17064 41966 21340 80801 10220 20190 30070 40150 76366 84710 333 59022 60319 70561 82709 83615 88460==
41966,2023,11,17,09,00,AAXX 17094 41966 01340 80801 10228 20200 30038 40118 76266 8472/ 333 59037 70602 82709 83615 88460==
41966,2023,11,17,12,00,AAXX 17124 41966 11330 81506 10230 20200 30025 40105 60105 72166 8472/ 333 10235 56999 59058 70642 82709 83615 88460=
41966,2023,11,17,15,00,AAXX 17154 41966 01330 81404 10225 20200 30046 40126 76162 8472/ 333 59048 70667 82709 83615 88460==
41966,2023,11,17,21,00,AAXX 17214 41966 02430 80000 10225 20200 30059 40139 8352/ 333 59020 70635 83616 88460==
41966,2023,11,18,00,00,AAXX 18004 41966 02440 80000 10230 20200 30052 40132 8352/ 333 59016 70455 83616 88460==
41966,2023,11,18,03,00,AAXX 18034 41966 02440 80000 10245 20200 30063 40142 8352/ 333 20218 59027 70283 83616 88460==
41966,2023,11,18,09,00,AAXX 18094 41966 02450 60901 10270 20190 30038 40117 82510 333 59001 70083 82616 85460==
41966,2023,11,18,12,00,AAXX 18124 41966 02440 50000 10256 20210 30050 40129 82510 333 10278 58024 70033 82616 84460==
41966,2023,11,18,15,00,AAXX 18154 41966 02435 50000 10250 20220 30056 40135 82510 333 58009 70008 82616 84460==
41966,2023,11,18,18,00,AAXX 18184 41966 NIL=
41966,2023,11,19,00,00,AAXX 19004 41966 02435 60000 10230 20200 30075 40156 83510 333 58024 70000 83616 85460==
41966,2023,11,19,03,00,AAXX 19034 41966 02550 40901 10276 20210 30088 40168 82130 333 20218 58026 70000 82826 83362==
41966,2023,11,19,06,00,AAXX 19064 41966 02550 40000 10298 20160 30073 40151 82130 333 58017 70000 82826 83362==
41966,2023,11,19,09,00,AAXX 19094 41966 02550 30000 10310 20120 30040 40118 82130 333 58001 70000 82826 83362==
41966,2023,11,19,12,00,AAXX 19124 41966 02440 50000 10270 20220 30049 40128 82510 333 10315 59001 70000 82616 84460==
41966,2023,11,19,15,00,AAXX 19154 41966 01435 50901 10256 20230 30052 40132 70522 82510 333 59003 70000 82616 84460==
41966,2023,11,19,21,00,AAXX 19214 41966 01435 50000 10225 20200 30060 40140 70522 82510 333 59011 70000 82616 84460==
41966,2023,11,20,00,00,AAXX 20004 41966 01440 50000 10230 20200 30061 40141 70522 82510 333 59015 70000 82616 84460==
41966,2023,11,20,03,00,AAXX 20034 41966 02450 50000 10275 20210 30094 40174 82510 333 20212 58006 70000 82616 84460==
41966,2023,11,20,06,00,AAXX 20064 41966 02450 50000 10300 20200 30074 40152 82510 333 58001 70000 82616 84460==
41966,2023,11,20,09,00,AAXX 20094 41966 02450 40000 10310 20140 30053 40131 82510 333 58013 70000 82616 83460==
41966,2023,11,20,12,00,AAXX 20124 41966 01440 40901 10270 20220 30050 40129 70522 82510 333 10315 58001 70000 82616 83460==
41966,2023,11,20,15,00,AAXX 20154 41966 01435 40000 10260 20230 30054 40134 70522 82510 333 58002 70000 82616 83460==
41966,2023,11,20,18,00,AAXX 20184 41966 NIL=
41966,2023,11,20,21,00,AAXX 20214 41966 01435 40000 10245 20220 30061 40140 70522 82510 333 58000 70000 82616 83460==
41966,2023,11,21,00,00,AAXX 21004 41966 01440 70000 10235 20210 30060 40140 70522 83510 333 59001 70000 83616 86460==
41966,2023,11,21,06,00,AAXX 21064 41966 02450 70000 10275 20220 30056 40135 82510 333 59017 70000 83616 86460==
41966,2023,11,21,09,00,AAXX 21094 41966 02450 83101 10265 20220 30036 40115 8352/ 333 59016 70000 83616 88460==
41966,2023,11,21,12,00,AAXX 21124 41966 01435 70000 10250 20210 30040 40120 70522 83510 333 10280 59009 70000 83616 86460==
41966,2023,11,21,15,00,AAXX 21154 41966 01435 70000 10242 20210 30049 40129 70522 83510 333 59005 70000 83616 86460==
41966,2023,11,21,18,00,AAXX 21184 41966 NIL=
41966,2023,11,21,21,00,AAXX 21214 41966 01435 60000 10218 20190 30056 40137 70522 82510 333 59003 70000 82616 85460==
41966,2023,11,22,00,00,AAXX 22004 41966 01440 50000 10210 20180 30050 40131 70522 82510 333 59009 70000 82616 84460==
41966,2023,11,22,03,00,AAXX 22034 41966 02450 53501 10235 20180 30067 40147 82510 333 20202 58001 70000 82616 84460==
41966,2023,11,22,06,00,AAXX 22064 41966 02550 10201 10265 20150 30064 40143 81100 333 58008 70000 81826==
41966,2023,11,22,09,00,AAXX 22094 41966 02550 10401 10285 20090 30025 40103 81100 333 59012 70000 81826==
41966,2023,11,22,12,00,AAXX 22124 41966 01435 40000 10230 20190 30030 40110 70521 82510 333 10292 59010 70000 82616 83460==
41966,2023,11,22,15,00,AAXX 22154 41966 01435 40000 10220 20190 30044 40124 70522 82510 333 59005 70000 82616 83460==
41966,2023,11,22,18,00,AAXX 22184 41966 01435 40000 10205 20180 30053 40135 70522 82510 333 59006 70000 82616 83460==
41966,2023,11,22,21,00,AAXX 22214 41966 01435 40000 10200 20170 30046 40128 70522 82510 333 59009 70000 82616 83460==
41966,2023,11,23,00,00,AAXX 23004 41966 01435 50000 10195 20160 30037 40118 70522 82510 333 59013 70000 82616 84460==
41966,2023,11,23,03,00,AAXX 23034 41966 02450 50401 10232 20200 30059 40139 82510 333 20190 59008 70000 82616 84460==
41966,2023,11,23,06,00,AAXX 23064 41966 02450 40401 10260 20140 30047 40126 82510 333 59017 70000 82616 83460==
41966,2023,11,23,09,00,AAXX 23094 41966 02550 10401 10280 20090 30034 40113 81100 333 58010 70000 81826==
41966,2023,11,23,12,00,AAXX 23124 41966 01435 40000 10230 20190 30035 40115 70522 82510 333 10285 58005 70000 82616 83460==
41966,2023,11,23,15,00,AAXX 23154 41966 01435 40000 10220 20190 30047 40127 70522 82510 333 58002 70000 82616 83460==
41966,2023,11,23,18,00,AAXX 23184 41966 NIL=
41966,2023,11,23,21,00,AAXX 23214 41966 01435 50000 10218 20180 30059 40140 70522 83510 333 58012 70000 82616 84460==
41977,2023,11,17,00,00,AAXX 17004 41977 21340 80000 10228 20228 30115 40154 76366 8732/ 333 58000 60349 70449 83708 84615 88458 81928==
41977,2023,11,17,03,00,AAXX 17034 41977 01340 80000 10226 20226 30123 40161 76166 8732/ 333 20224 59025 70628 83708 84615 88458 81928==
41977,2023,11,17,06,00,AAXX 17064 41977 21340 81008 10226 20226 30094 40132 76266 8632/ 333 59045 60239 70668 83708 84615 88458 81928==
41977,2023,11,17,09,00,AAXX 17094 41977 01330 81306 10243 20240 30051 40089 76566 8772/ 333 59073 70694 85707 88458==
41977,2023,11,17,12,00,AAXX 17124 41977 11350 82320 10259 20230 30079 40117 60159 70266 8562/ 333 10260 56499 59051 70780 83709 85614 88458=
41977,2023,11,17,15,00,AAXX 17154 41977 02350 82315 10250 20230 30102 40140 8562/ 333 59039 70755 83710 85615 88459==
41977,2023,11,17,18,00,AAXX 17184 41977 02350 82303 10240 20220 30102 40140 8562/ 333 59036 70720 82710 85615 88460==
41977,2023,11,17,21,00,AAXX 17214 41977 02350 80000 10234 20210 30103 40142 8662/ 333 59027 70580 82710 84615 88460==
41977,2023,11,18,00,00,AAXX 18004 41977 02350 80000 10228 20210 30104 40143 8662/ 333 59011 70380 82710 84615 88460==
41977,2023,11,18,03,00,AAXX 18034 41977 02356 82302 10238 20220 30120 40159 8662/ 333 20220 59003 70200 82710 85615 88458==
41977,2023,11,18,06,00,AAXX 18064 41977 02356 81804 10250 20220 30116 40156 8662/ 333 58022 70150 82710 84615 88458==
41977,2023,11,18,09,00,AAXX 18094 41977 02956 32102 10270 20220 30094 40132 80001 333 58043 70106 83080==
41977,2023,11,18,12,00,AAXX 18124 41977 01440 40000 10242 20220 30108 40147 70521 82530 333 10276 58029 70000 82618 84362==
41977,2023,11,18,15,00,AAXX 18154 41977 01440 60000 10230 20230 30124 40163 70522 83530 333 58022 70000 83618 85362==
41977,2023,11,18,18,00,AAXX 18184 41977 01440 60000 10230 20230 30128 40167 70522 83530 333 58006 70000 83618 85362==
41977,2023,11,19,00,00,AAXX 19004 41977 01440 70000 10228 20228 30128 40167 70522 84570 333 58024 70000 84616 85460==
41977,2023,11,19,03,00,AAXX 19034 41977 01445 20000 10278 20240 30140 40178 70521 80001 333 20221 58020 70000 82080==
41977,2023,11,19,06,00,AAXX 19064 41977 01450 41004 10295 20240 30117 40155 70522 83530 333 58001 70000 83618 84362==
41977,2023,11,19,09,00,AAXX 19094 41977 01450 30000 10300 20250 30098 40136 70521 82430 333 58004 70000 81828 83362==
41977,2023,11,19,12,00,AAXX 19124 41977 01/40 20000 10258 20250 30106 40145 70521 82030 333 10310 59002 70000 82362==
41977,2023,11,19,15,00,AAXX 19154 41977 01440 50000 10251 20250 30123 40162 70522 85430 333 59001 70000 84618 85362==
41977,2023,11,19,18,00,AAXX 19184 41977 01440 60000 10241 20240 30119 40158 70522 85430 333 59009 70000 84618 85362==
41977,2023,11,19,21,00,AAXX 19214 41977 01440 60000 10240 20240 30121 40160 70522 84570 333 59011 70000 84616 84460==
41977,2023,11,20,00,00,AAXX 20004 41977 01440 70000 10238 20238 30118 40157 70522 84570 333 59010 70000 84616 85460==
41977,2023,11,20,03,00,AAXX 20034 41977 01450 40000 10281 20240 30139 40177 70522 84570 333 20234 59001 70000 84618 84460==
41977,2023,11,20,06,00,AAXX 20064 41977 01450 60000 10300 20210 30117 40155 70522 85570 333 58000 70000 85616 84460==
41977,2023,11,20,12,00,AAXX 20124 41977 01450 60000 10263 20250 30109 40147 70522 82431 333 10320 58003 70000 81618 84365 86080==
41977,2023,11,20,18,00,AAXX 20184 41977 01450 60000 10256 20256 30119 40157 70522 84510 333 58000 70000 84618 86460==
41977,2023,11,20,21,00,AAXX 20214 41977 01450 60000 10250 20250 30110 40149 70522 84520 333 59011 70000 84616 86460==
41977,2023,11,21,00,00,AAXX 21004 41977 41350 80000 10245 20245 30101 40140 70362 8662/ 333 59017 82710 84615 88460==
41977,2023,11,21,03,00,AAXX 21034 41977 41450 70000 10264 20240 30135 40174 70522 86570 333 20242 59004 86618 84460==
41977,2023,11,21,06,00,AAXX 21064 41977 41350 80000 10281 20240 30102 40141 70522 8662/ 333 59015 82712 84615 88460==
41977,2023,11,21,09,00,AAXX 21094 41977 41440 80000 10274 20250 30089 40127 75122 8452/ 333 59016 84615 88458==
41977,2023,11,21,12,00,AAXX 21124 41977 21440 70000 10254 20240 30098 40137 70552 84570 333 10288 59011 60005 84615 85460==
41977,2023,11,21,18,00,AAXX 21184 41977 41450 30000 10220 20220 30100 40140 70522 82530 333 59019 82617 83363==
41977,2023,11,21,21,00,AAXX 21214 41977 41450 60000 10215 20215 30103 40142 70522 84570 333 59007 84616 84460==
41977,2023,11,22,00,00,AAXX 22004 41977 41350 70000 10210 20210 30108 40147 70522 86620 333 59007 82710 84616 85460==
41977,2023,11,22,03,00,AAXX 22034 41977 41950 00000 10248 20220 30120 40158 70521 333 20205 59015==
41977,2023,11,22,06,00,AAXX 22064 41977 41950 20000 10294 20220 30101 40139 70510 80001 333 59001 82080==
41977,2023,11,22,09,00,AAXX 22094 41977 01/50 23102 10300 20230 30078 40116 70511 82030 333 59011 70000 82362==
41977,2023,11,22,12,00,AAXX 22124 41977 01940 00000 10234 20210 30090 40129 70510 333 10312 59019 70000==
41977,2023,11,22,15,00,AAXX 22154 41977 01940 00000 10224 20210 30099 40137 70500 333 58001 70000==
41977,2023,11,22,18,00,AAXX 22184 41977 01940 00000 10216 20216 30108 40147 70500 333 58008 70000==
41977,2023,11,22,21,00,AAXX 22214 41977 01940 00000 10210 20210 30105 40144 70500 333 58002 70000==
41977,2023,11,23,00,00,AAXX 23004 41977 01940 00000 10205 20205 30100 40139 70500 333 59008 70000==
41977,2023,11,23,03,00,AAXX 23034 41977 01945 00000 10239 20220 30114 40152 70500 333 20200 59006 70000==
41977,2023,11,23,06,00,AAXX 23064 41977 01450 42702 10289 20220 30104 40142 70520 82530 333 58003 70000 82618 84362==
41977,2023,11,23,09,00,AAXX 23094 41977 02956 20000 10290 20190 30071 40109 333 59007 70000 82500 82618==
41977,2023,11,23,12,00,AAXX 23124 41977 01940 00000 10224 20200 30086 40125 70510 333 10296 59004 70000==
41977,2023,11,23,15,00,AAXX 23154 41977 01940 00000 10212 20200 30102 40141 70500 333 58003 70000==
41977,2023,11,23,18,00,AAXX 23184 41977 01940 00000 10205 20200 30100 40139 70500 333 59008 70000==
41977,2023,11,23,21,00,AAXX 23214 41977 01940 00000 10200 20190 30103 40142 70500 333 59002 70000==
41978,2023,11,17,00,00,AAXX 17004 41978 21440 80606 10230 20230 30136 40142 76166 8432/ 333 58004 60379 70470 83614 88458 81928==
41978,2023,11,17,03,00,AAXX 17034 41978 01320 80612 10228 20220 30136 40142 76366 8532/ 333 20226 59031 70654 83709 88458 81925==
41978,2023,11,17,06,00,AAXX 17064 41978 21325 80810 10228 20220 30113 40119 76366 8632/ 333 59034 60269 71710 83709 83615 88458==
41978,2023,11,17,09,00,AAXX 17094 41978 01331 81110 10245 20240 30063 40070 76166 8432/ 333 59076 70730 83708 88458 81928==
41978,2023,11,17,12,00,AAXX 17124 41978 21440 82120 10260 20220 30098 40104 70262 8432/ 333 10250 60119 70790 83616 88460 81928==
41978,2023,11,17,15,00,AAXX 17154 41978 02450 72414 10260 20220 30124 40130 84320 333 59037 70760 83616 87460 81928==
41978,2023,11,17,18,00,AAXX 17184 41978 02450 72611 10244 20220 30123 40129 84320 333 59038 70736 83616 87460 81930==
41978,2023,11,17,21,00,AAXX 17214 41978 02450 72908 10236 20220 30117 40123 84320 333 59016 70556 83616 87460 81930==
41978,2023,11,18,00,00,AAXX 18004 41978 02450 72806 10230 20210 30121 40127 84320 333 59015 70366 83616 87460 81930==
41978,2023,11,18,03,00,AAXX 18034 41978 02450 82704 10241 20200 30140 40146 8432/ 333 20224 58004 70166 83616 88460 81930==
41978,2023,11,18,06,00,AAXX 18064 41978 02450 82506 10255 20220 30125 40132 8432/ 333 58012 70106 83618 88460 81930==
41978,2023,11,18,09,00,AAXX 18094 41978 02556 32906 10260 20210 30112 40118 82101 333 58049 70072 82828 83080==
41978,2023,11,18,12,00,AAXX 18124 41978 02456 50000 10243 20220 30125 40131 83530 333 10265 58027 70000 83618 85362==
41978,2023,11,18,15,00,AAXX 18154 41978 01450 40603 10237 20220 30147 40153 70522 84500 333 58023 70000 84617==
41978,2023,11,18,18,00,AAXX 18184 41978 01450 40000 10235 20230 30144 40150 70522 84500 333 58021 70000 84617==
41978,2023,11,18,21,00,AAXX 18214 41978 01450 40000 10232 20220 30140 40146 70522 84500 333 58013 70000 84617==
41978,2023,11,19,00,00,AAXX 19004 41978 01450 60403 10235 20230 30147 40153 70522 84530 333 58026 70000 84617 85362==
41978,2023,11,19,03,00,AAXX 19034 41978 01550 30506 10268 20230 30156 40162 70500 82101 333 20228 58016 70000 82825==
41978,2023,11,19,06,00,AAXX 19064 41978 01566 60603 10300 20240 30140 40146 70521 82101 333 58015 70000 82825 84030==
41978,2023,11,19,09,00,AAXX 19094 41978 01450 32704 10294 20230 30112 40119 70511 83400 333 58000 70000 82618==
41978,2023,11,19,12,00,AAXX 19124 41978 01450 22804 10273 20230 30124 40131 70511 83500 333 10309 59001 70000 82618==
41978,2023,11,19,15,00,AAXX 19154 41978 01450 22805 10266 20240 30144 40150 70511 82500 333 59003 70000 82618==
41978,2023,11,19,18,00,AAXX 19184 41978 01440 20403 10252 20240 30138 40144 70511 82500 333 59006 70000 82618==
41978,2023,11,19,21,00,AAXX 19214 41978 01440 20405 10248 20240 30132 40138 70511 82500 333 59008 70000 82618==
41978,2023,11,20,00,00,AAXX 20004 41978 01431 20205 10244 20230 30134 40141 70511 82500 333 59010 70000 82618==
41978,2023,11,20,03,00,AAXX 20034 41978 01540 50603 10274 20230 30155 40162 70511 81101 333 20238 59001 70000 81825 84080==
41978,2023,11,20,06,00,AAXX 20064 41978 01556 61006 10296 20240 30142 40148 70521 82101 333 58002 70000 82825 84080==
41978,2023,11,20,09,00,AAXX 20094 41978 01556 32206 10307 20230 30120 40126 70511 82202 333 58008 70000 82825 83080==
41978,2023,11,20,12,00,AAXX 20124 41978 01556 42104 10278 20240 30125 40131 70511 82231 333 10316 58001 70000 82825 83365==
41978,2023,11,20,15,00,AAXX 20154 41978 01450 20000 10268 20250 30141 40148 70511 82500 333 58003 70000 82618==
41978,2023,11,20,18,00,AAXX 20184 41978 01450 22904 10263 20250 30138 40144 70511 82500 333 58000 70000 82618==
41978,2023,11,20,21,00,AAXX 20214 41978 01450 20000 10254 20250 30130 40136 70511 82500 333 59002 70000 82618==
41978,2023,11,21,00,00,AAXX 21004 41978 01433 80000 10252 20240 30125 40131 70562 8432/ 333 59009 70004 83616 88460 81930==
41978,2023,11,21,03,00,AAXX 21034 41978 01435 83404 10267 20250 30143 40149 70544 8332/ 333 20250 59012 70004 83618 88460 81928==
41978,2023,11,21,06,00,AAXX 21064 41978 01450 80204 10286 20240 30123 40129 70522 8332/ 333 59013 70004 83615 88460 81928==
41978,2023,11,21,09,00,AAXX 21094 41978 01450 83009 10272 20230 30106 40112 70522 8432/ 333 59014 70004 83617 88460 81928==
41978,2023,11,21,12,00,AAXX 21124 41978 01445 83005 10263 20240 30115 40121 70522 8332/ 333 10290 59010 70004 83617 88460 81928==
41978,2023,11,21,15,00,AAXX 21154 41978 01445 33505 10254 20230 30122 40128 70522 83500 333 59019 70004 83617==
41978,2023,11,21,18,00,AAXX 21184 41978 01445 33504 10239 20230 30122 40129 70521 83500 333 59016 70004 83618==
41978,2023,11,21,21,00,AAXX 21214 41978 01440 30204 10221 20210 30123 40129 70511 83500 333 59007 70004 83618==
41978,2023,11,22,00,00,AAXX 22004 41978 01435 30108 10217 20210 30123 40129 70511 83500 333 59002 70000 83618==
41978,2023,11,22,03,00,AAXX 22034 41978 01935 03605 10248 20210 30140 40147 70500 333 20215 59003 70000==
41978,2023,11,22,06,00,AAXX 22064 41978 01556 10209 10287 20210 30117 40123 70500 81100 333 59006 70000 81825==
41978,2023,11,22,09,00,AAXX 22094 41978 01456 20107 10300 20200 30092 40098 70500 82500 333 59014 70000 82618==
41978,2023,11,22,12,00,AAXX 22124 41978 01450 10104 10272 20200 30106 40112 70511 81500 333 10303 59009 70000 81618==
41978,2023,11,22,15,00,AAXX 22154 41978 NIL=
41978,2023,11,22,18,00,AAXX 22184 41978 01940 00204 10232 20210 30119 40125 70510 333 59003 70000==
41978,2023,11,22,21,00,AAXX 22214 41978 01938 00203 10223 20210 30114 40120 70500 333 59009 70000==
41978,2023,11,23,00,00,AAXX 23004 41978 01933 00703 10212 20200 30120 40126 70500 333 59003 70000==
41978,2023,11,23,03,00,AAXX 23034 41978 01435 20306 10240 20210 30136 40143 70544 82500 333 20203 59004 70000 82615==
41978,2023,11,23,06,00,AAXX 23064 41978 01456 30307 10280 20210 30113 40119 70540 83800 333 59004 70000 82618==
41978,2023,11,23,09,00,AAXX 23094 41978 01556 12908 10284 20170 30113 40119 70500 81200 333 59001 70000 81825==
41978,2023,11,23,12,00,AAXX 23124 41978 01956 03304 10247 20200 30100 40107 70500 333 10293 59001 70000==
41978,2023,11,23,15,00,AAXX 23154 41978 01950 03403 10226 20210 30122 40129 70500 333 58000 70000==
41978,2023,11,23,18,00,AAXX 23184 41978 01940 00703 10214 20200 30122 40128 70500 333 58000 70000==
41978,2023,11,23,21,00,AAXX 23214 41978 01940 00303 10208 20195 30118 40125 70500 333 58005 70000==
41980,2023,11,17,00,00,AAXX 17004 41980 21340 80302 10202 20190 30030 40146 60169 76366 8572/ 333 56999 59002 70234 83708 84613 88457=
41980,2023,11,17,06,00,AAXX 17064 41980 NIL=
41980,2023,11,17,12,00,AAXX 17124 41980 11340 81808 10254 20250 30001 40114 76366 8572/ 333 10262 56999 59037 70610 83708 84613 88456=
41980,2023,11,18,00,00,AAXX 18004 41980 11430 60000 10225 20220 30022 40136 60021 71022 82510 333 56990 59008 70175 83617 84458=
41980,2023,11,18,12,00,AAXX 18124 41980 32430 40000 10235 20230 30026 40140 71021 82510 333 10253 56990 58025 70025 82617 82458=
41980,2023,11,18,18,00,AAXX 18184 41980 NIL=
41980,2023,11,19,00,00,AAXX 19004 41980 31930 00000 10213 20200 30047 40162 71000 333 58025 70000=
41980,2023,11,19,06,00,AAXX 19064 41980 NIL=
41980,2023,11,19,12,00,AAXX 19124 41980 32950 00000 10260 20240 30020 40133 333 20307 59006 70000=
41980,2023,11,19,21,00,AAXX 19214 41980 NIL=
41980,2023,11,20,06,00,AAXX 20064 41980 NIL=
41980,2023,11,20,12,00,AAXX 20124 41980 32450 50000 10260 20240 30025 40138 83510 333 10311 56990 58005 70000 83617 83458=
41980,2023,11,20,18,00,AAXX 20184 41980 NIL=
41980,2023,11,21,06,00,AAXX 21064 41980 NIL=
41980,2023,11,21,12,00,AAXX 21124 41980 11340 80000 10252 20240 30012 40125 72162 8562/ 333 10280 56999 59013 79999 83708 84618 88458=
41980,2023,11,21,18,00,AAXX 21184 41980 NIL=
41980,2023,11,22,00,00,AAXX 22004 41980 31430 30000 10208 20200 30024 40125 71044 82510 333 56999 59005 79999 82627=
41980,2023,11,22,06,00,AAXX 22064 41980 NIL=
41980,2023,11,22,12,00,AAXX 22124 41980 31930 03602 10220 20200 30005 40119 71000 10282 59007 70000=
41980,2023,11,23,00,00,AAXX 23004 41980 31930 00000 10156 20150 30015 40129 71000 333 59007 70000=
41980,2023,11,23,06,00,AAXX 23064 41980 NIL=
41980,2023,11,23,12,00,AAXX 23124 41980 31950 00000 10223 20210 39999 40113 70500 333 10278 59006 70000=
41980,2023,11,23,18,00,AAXX 23184 41980 NIL=
41984,2023,11,17,00,00,AAXX 17004 41984 21356 80000 10234 20230 30097 40099 76566 8672/ 333 59031 60729 70974 82707 84616 88456==
41984,2023,11,17,03,00,AAXX 17034 41984 01356 80407 10228 20220 30086 40088 76366 8672/ 333 20225 59071 71354 83707 84615 88456==
41984,2023,11,17,06,00,AAXX 17064 41984 21356 80412 10267 20267 30037 40039 76396 8672/ 333 59105 60589 71482 83707 84615 88456==
41984,2023,11,17,09,00,AAXX 17094 41984 01356 81316 10236 20220 30065 40067 76166 8672/ 333 59059 71492 83707 84615 88456==
41984,2023,11,17,12,00,AAXX 17124 41984 11340 80000 10230 20230 30091 40093 60049 76166 8672/ 333 10265 56999 59037 71490 83707 84615 88456=
41984,2023,11,17,15,00,AAXX 17154 41984 01440 83602 10226 20226 30120 40123 70522 8352/ 333 59023 71390 83618 88458==
41984,2023,11,17,16,00,AAXX 17164 41984 01440 83602 10226 20226 30120 40123 70522 8352/ 333 59023 71390 83618 88458==
41984,2023,11,17,18,00,AAXX 17184 41984 01440 80000 10220 20220 30121 40123 70522 8352/ 333 59006 71340 83618 88458==
41984,2023,11,17,21,00,AAXX 17214 41984 01440 80000 10210 20210 30120 40122 70522 8352/ 333 58015 71140 83618 88458==
41984,2023,11,18,00,00,AAXX 18004 41984 01456 80000 10208 20208 30117 40119 70522 8352/ 333 58020 70620 83618 88458==
41984,2023,11,18,03,00,AAXX 18034 41984 01456 80000 10230 20210 30136 40138 70522 8352/ 333 20202 58050 70210 83618 88458==
41984,2023,11,18,06,00,AAXX 18064 41984 02457 50000 10251 20210 30125 40127 83510 333 58088 70040 83618 85458==
41984,2023,11,18,09,00,AAXX 18094 41984 02457 50000 10270 20220 30101 40103 83510 333 58036 70010 83618 85458==
41984,2023,11,18,12,00,AAXX 18124 41984 01440 50000 10236 20230 30118 40120 70522 83510 333 10275 58027 70000 83618 85458==
41984,2023,11,18,15,00,AAXX 18154 41984 01440 20000 10220 20220 30133 40135 70500 82500 333 58013 70000 82618==
41984,2023,11,18,18,00,AAXX 18184 41984 01940 20000 10213 20210 30136 40138 70500 82500 333 58015 70000 82618==
41984,2023,11,18,21,00,AAXX 18214 41984 01940 00000 10210 20210 30135 40137 70500 333 58015 70000==
41984,2023,11,19,00,00,AAXX 19004 41984 01956 00000 10206 20206 30136 40138 70500 333 58019 70000==
41984,2023,11,19,03,00,AAXX 19034 41984 02957 00000 10261 20230 30144 40146 333 20198 58008 70000==
41984,2023,11,19,06,00,AAXX 19064 41984 02457 30000 10280 20230 30136 40138 83500 333 58011 70000 83618==
41984,2023,11,19,09,00,AAXX 19094 41984 02457 32902 10285 20230 30112 40114 83500 333 58011 70000 83618==
41984,2023,11,19,12,00,AAXX 19124 41984 01940 10000 10248 20230 30114 40116 70500 80001 333 10297 59004 70000 81080==
41984,2023,11,19,15,00,AAXX 19154 41984 01940 00000 10220 20220 30133 40135 70500 333 58000 70000==
41984,2023,11,19,18,00,AAXX 19184 41984 01940 00000 10210 20210 30130 40132 70500 333 59006 70000==
41984,2023,11,19,21,00,AAXX 19214 41984 01940 00000 10208 20200 30126 40128 70500 333 59009 70000==
41984,2023,11,20,00,00,AAXX 20004 41984 01456 20000 10203 20200 30126 40128 70500 82500 333 59010 70000 82618==
41984,2023,11,20,03,00,AAXX 20034 41984 01456 20000 10252 20230 30150 40152 70500 82500 333 20193 58006 70000 82618==
41984,2023,11,20,06,00,AAXX 20064 41984 01456 30000 10294 20230 30140 40142 70500 83500 333 58004 70000 83618==
41984,2023,11,20,09,00,AAXX 20094 41984 02457 30000 10297 20230 30114 40116 83500 333 58002 70000 83618==
41984,2023,11,20,12,00,AAXX 20124 41984 01440 30000 10252 20240 30118 40112 70500 83501 333 10310 58004 70000 83618==
41984,2023,11,20,15,00,AAXX 20154 41984 01940 00000 10240 20240 30135 40137 70500 333 58002 70000==
41984,2023,11,20,18,00,AAXX 20184 41984 01940 00000 10236 20236 30130 40132 70500 333 58000 70000==
41984,2023,11,20,21,00,AAXX 20214 41984 01940 00000 10232 20230 30123 40125 73500 333 59003 70000==
41984,2023,11,21,00,00,AAXX 21004 41984 01456 30000 10228 20228 30119 40121 70500 83500 333 59007 70000 83618==
41984,2023,11,21,03,00,AAXX 21034 41984 01456 80000 10246 20220 30131 40133 70521 8352/ 333 20222 59019 70000 83618 88458==
41984,2023,11,21,06,00,AAXX 21064 41984 01456 80000 10258 20220 30128 40130 70522 8352/ 333 59012 70000 83618 88458==
41984,2023,11,21,09,00,AAXX 21094 41984 01456 80000 10264 20220 30099 40101 70522 8352/ 333 59015 70000 83618 88458==
41984,2023,11,21,12,00,AAXX 21124 41984 41440 80000 10244 20230 30108 40110 70522 8352/ 333 10266 59010 83618 88458==
41984,2023,11,21,15,00,AAXX 21154 41984 01440 50000 10226 20226 30114 40116 70522 82510 333 59021 70000 82618 85458==
41984,2023,11,21,18,00,AAXX 21184 41984 01930 50000 10210 20210 30120 40122 71022 82510 333 59010 70000 82618 85458==
41984,2023,11,21,21,00,AAXX 21214 41984 01440 50000 10205 20205 30116 40118 70522 82510 333 59007 70000 82618 85458==
41984,2023,11,22,00,00,AAXX 22004 41984 01456 50000 10207 20207 30113 40115 71022 82510 333 59006 70000 82618 83458==
41984,2023,11,22,03,00,AAXX 22034 41984 01956 00000 10241 20200 30136 40138 70500 333 20200 58005 70000==
41984,2023,11,22,06,00,AAXX 22064 41984 02957 00000 10229 20190 30116 40118 333 59012 70000==
41984,2023,11,22,09,00,AAXX 22094 41984 02957 03601 10282 20190 30092 40094 333 59007 70000==
41984,2023,11,22,12,00,AAXX 22124 41984 01940 00000 10230 20220 30106 40108 70500 333 10293 59002 70000==
41984,2023,11,22,15,00,AAXX 22154 41984 01940 00000 10207 20200 30118 40120 70500 333 58004 70000==
41984,2023,11,22,18,00,AAXX 22184 41984 01940 00000 10198 20190 30116 40118 70500 333 59004 70000==
41984,2023,11,22,21,00,AAXX 22214 41984 01940 00000 10180 20180 30114 40116 70500 333 59002 70000==
41984,2023,11,23,00,00,AAXX 23004 41984 01940 00000 10172 20170 30111 40113 70500 333 59002 70000==
41984,2023,11,23,03,00,AAXX 23034 41984 01956 00000 10222 20180 30129 40131 70500 333 20170 59007 70000==
41984,2023,11,23,06,00,AAXX 23064 41984 02957 03602 10270 20180 30114 40116 333 59002 70000==
41984,2023,11,23,09,00,AAXX 23094 41984 02957 00000 10270 20180 30091 40093 333 59001 70000==
41984,2023,11,23,12,00,AAXX 23124 41984 01940 00000 10214 20200 30098 40100 70500 333 10282 59008 70000==
41984,2023,11,23,15,00,AAXX 23154 41984 01940 00000 10190 20190 30114 40116 70500 333 59004 70000==
41984,2023,11,23,18,00,AAXX 23184 41984 01940 00000 10183 20180 30116 40118 70500 333 58000 70000==
41984,2023,11,23,21,00,AAXX 23214 41984 01940 00000 10180 20180 30116 40118 70500 333 58002 70000==
41989,2023,11,17,00,00,AAXX 17004 41989 NIL=
41989,2023,11,17,03,00,AAXX 17034 41989 01340 83102 20220 30124 40127 76166 8572/ 333 20213 59027 70755 82708 83614 88458==
41989,2023,11,17,06,00,AAXX 17064 41989 21340 80508 10240 20230 30100 40103 76166 8572/ 333 59046 60089 70965 82708 83614 88458==
41989,2023,11,17,09,00,AAXX 17094 41989 01340 80509 10250 20240 30064 40067 76166 8572/ 333 59060 70795 82708 83614 88458==
41989,2023,11,17,12,00,AAXX 17124 41989 11340 80506 10250 20240 30091 40094 60189 76166 8572/ 333 10254 56999 59055 70880 82708 83614 88456=
41989,2023,11,18,00,00,AAXX 18004 41989 01430 60508 10223 20200 30110 40113 70521 83530 333 59007 70300 83618 84362==
41989,2023,11,18,03,00,AAXX 18034 41989 01440 80000 10252 20220 30123 40126 70522 8452/ 333 20211 59001 70250 84618 88460==
41989,2023,11,18,06,00,AAXX 18064 41989 02450 53103 10271 20220 30128 40131 82570 333 58028 70220 82618 83362==
41989,2023,11,18,09,00,AAXX 18094 41989 02450 51803 10290 20230 30116 40119 83530 333 58052 70160 83618 83362==
41989,2023,11,18,12,00,AAXX 18124 41989 NIL=
41989,2023,11,18,18,00,AAXX 18184 41989 NIL=
41989,2023,11,19,00,00,AAXX 19004 41989 01430 10000 10220 20210 30140 40143 70511 81500 333 58030 70000 81618==
41989,2023,11,19,03,00,AAXX 19034 41989 02440 13102 10285 20250 30144 40147 81500 333 20216 58021 70000 81618==
41989,2023,11,19,06,00,AAXX 19064 41989 02450 31803 10300 20230 30153 40156 83500 333 58025 70000 83618==
41989,2023,11,19,12,00,AAXX 19124 41989 NIL=
41989,2023,11,19,21,00,AAXX 19214 41989 01430 31304 10240 20220 30129 40133 70521 83500 333 59014 70000 83618==
41989,2023,11,20,00,00,AAXX 20004 41989 01430 33103 10250 20210 30128 40131 70521 83500 333 59012 70000 83618==
41989,2023,11,20,03,00,AAXX 20034 41989 02440 53102 10282 20230 30141 40144 84530 333 20219 59003 70000 83616 83362==
41989,2023,11,20,06,00,AAXX 20064 41989 02450 53202 10300 20250 30140 40143 82570 333 59013 70000 82618 83362==
41989,2023,11,20,09,00,AAXX 20094 41989 02450 51403 10301 20250 30132 40135 83530 333 59021 70000 83618 83362==
41989,2023,11,20,12,00,AAXX 20124 41989 02440 53102 10283 20250 30126 40129 83530 333 10311 58023 70000 83618 83362==
41989,2023,11,20,18,00,AAXX 20184 41989 NIL=
41989,2023,11,21,06,00,AAXX 21064 41989 02450 51802 10280 20250 30147 40150 83530 333 58007 70000 83618 83362==
41989,2023,11,21,12,00,AAXX 21124 41989 NIL=
41989,2023,11,21,18,00,AAXX 21184 41989 NIL=
41989,2023,11,21,21,00,AAXX 21214 41989 02430 51804 10250 20230 30118 40121 83530 333 59025 70000 83618 83362==
41989,2023,11,22,00,00,AAXX 22004 41989 01430 53102 10243 20220 30115 40118 70522 333 59008 70000 83618 83362==
41989,2023,11,22,03,00,AAXX 22034 41989 02440 33102 10250 20220 30134 40137 83500 333 20226 58008 70000 83618==
41989,2023,11,22,06,00,AAXX 22064 41989 02450 13203 10288 20220 30120 41023 81500 333 59027 70000==
41989,2023,11,22,09,00,AAXX 22094 41989 02450 31802 10300 20240 30095 40098 83500 333 59008 70000 83618==
41989,2023,11,22,12,00,AAXX 22124 41989 02440 30502 10270 20240 30090 40093 83500 333 10308 59009 70000 83618==
41989,2023,11,22,15,00,AAXX 22154 41989 01440 10000 10228 20210 30113 40116 70511 81500 333 59009 70000 81618==
41989,2023,11,23,00,00,AAXX 23004 41989 NIL=
41989,2023,11,23,06,00,AAXX 23064 41989 02450 13203 10284 20200 30123 40126 81500 333 58003 70000 81618==
41989,2023,11,23,09,00,AAXX 23094 41989 02450 13103 10287 20200 30095 40098 81500 333 58000 70000 81682==
41989,2023,11,23,12,00,AAXX 23124 41989 02450 13103 10260 20180 30089 40092 81500 333 10293 59024 70000 82618==
41989,2023,11,23,15,00,AAXX 23154 41989 01430 31402 10210 20190 30111 40114 70511 83500 333 59022 70000 83618==
41989,2023,11,23,18,00,AAXX 23184 41989 NIL=
41989,2023,11,23,21,00,AAXX 23214 41989 01430 23202 10198 20180 30119 40122 70511 82500 333 58002 70000 83618==
41992,2023,11,17,00,00,AAXX 17004 41992 21315 80306 10220 20220 30128 40130 76366 8692/ 333 59008 60339 70650 83707 85612 88458 81925==
41992,2023,11,17,03,00,AAXX 17034 41992 01320 82105 10232 20230 30140 40142 76166 8692/ 333 20220 59034 70670 82708 84612 88458 81925==
41992,2023,11,17,06,00,AAXX 17064 41992 21320 80912 10245 20240 30121 40123 76166 8692/ 333 59036 60159 70720 82708 84612 88458 81925==
41992,2023,11,17,09,00,AAXX 17094 41992 01320 81512 10264 20240 30088 40090 76166 8692/ 333 59045 70710 82708 84612 88458 81925==
41992,2023,11,17,12,00,AAXX 17124 41992 21320 81510 10264 20240 30115 40117 76166 8692/ 333 10270 59032 60089 70760 82707 84612 88458 81925==
41992,2023,11,17,15,00,AAXX 17154 41992 01320 81810 10266 20250 30138 40140 76166 8692/ 333 59018 70700 82708 84612 88458 81925==
41992,2023,11,17,18,00,AAXX 17184 41992 21320 81805 10260 20240 30129 40131 76166 8692/ 333 59019 60049 70600 82708 84612 88458 81925==
41992,2023,11,17,21,00,AAXX 17214 41992 01320 82105 10254 20230 30125 40127 76166 8692/ 333 59013 70390 82708 84612 88458 81925==
41992,2023,11,18,00,00,AAXX 18004 41992 21425 70000 10232 20230 30127 40129 70562 84530 333 59001 60019 70270 84616 87360==
41992,2023,11,18,03,00,AAXX 18034 41992 01425 80000 10260 20220 30143 40145 70522 8532/ 333 20220 58003 70210 84615 88458 81925==
41992,2023,11,18,06,00,AAXX 18064 41992 01/35 30000 10278 20230 30127 40129 70521 83030 333 58006 70130 83616==
41992,2023,11,18,09,00,AAXX 18094 41992 01440 31805 10280 20210 30114 40116 70521 83500 333 58026 70120 83616==
41992,2023,11,18,12,00,AAXX 18124 41992 01425 60000 10255 20230 30130 40132 70522 84530 333 10285 58015 70050 84616 86360==
41992,2023,11,18,15,00,AAXX 18154 41992 01925 00000 10240 20220 30151 40153 70522 333 58013 70040==
41992,2023,11,18,18,00,AAXX 18184 41992 01425 60000 10235 20220 30152 40154 70522 84530 333 58023 70010 84616 86362==
41992,2023,11,18,21,00,AAXX 18214 41992 01425 60000 10230 20210 30146 40148 70522 83530 333 58021 70000 83616 86362==
41992,2023,11,19,00,00,AAXX 19004 41992 01/25 20000 10225 20220 30148 40150 71021 82030 333 58021 70000 82362==
41992,2023,11,19,03,00,AAXX 19034 41992 01935 00000 10273 20220 30172 40174 70510 333 20224 58029 70000==
41992,2023,11,19,06,00,AAXX 19064 41992 01/35 20000 10288 20230 30140 40142 70510 82030 333 58013 70000 82362==
41992,2023,11,19,09,00,AAXX 19094 41992 01535 40000 10290 20220 30118 40120 70511 82130 333 58004 70000 82825 84362==
41992,2023,11,19,12,00,AAXX 19124 41992 01425 30000 10265 20250 30128 40130 70511 83500 333 10300 59002 70000 83616==
41992,2023,11,19,15,00,AAXX 19154 41992 01420 63302 10265 20250 30148 40150 70521 84530 333 59003 70000 84616 86362==
41992,2023,11,19,18,00,AAXX 19184 41992 01420 40000 10252 20230 30151 40153 70511 82530 333 59001 70000 82616 84362==
41992,2023,11,19,21,00,AAXX 19214 41992 01920 00000 10240 20220 30146 40148 70511 333 58000 70000==
41992,2023,11,20,00,00,AAXX 20004 41992 01425 60302 10250 20240 30136 40138 70521 84530 333 59012 70000 84616 86362==
41992,2023,11,20,03,00,AAXX 20034 41992 41425 80000 10260 20240 30160 40162 75122 8532/ 333 20248 59012 84614 88458 81925==
41992,2023,11,20,06,00,AAXX 20064 41992 21430 80000 10278 20240 30148 40150 70552 8532/ 333 58008 60005 84615 88458 81925==
41992,2023,11,20,09,00,AAXX 20094 41992 41/30 61508 10285 20240 30127 40129 70522 83031 333 58009 83362 85080==
41992,2023,11,20,12,00,AAXX 20124 41992 41/25 40000 10265 20250 30130 40132 70522 82031 333 10290 58002 82362 84080==
41992,2023,11,20,15,00,AAXX 20154 41992 41425 40000 10255 20240 30135 40137 70511 84500 333 59003 84616==
41992,2023,11,20,18,00,AAXX 20184 41992 41425 60000 10255 20240 30145 40147 70521 84530 333 59006 84616 86362==
41992,2023,11,20,21,00,AAXX 20214 41992 41425 60000 10250 20230 30139 40141 70522 83530 333 59007 83616 86362==
41992,2023,11,21,00,00,AAXX 21004 41992 41425 70000 10240 20230 30127 40129 71022 84530 333 59009 84616 87362==
41992,2023,11,21,03,00,AAXX 21034 41992 41/30 70000 10272 20230 30145 40147 70522 87030 333 20240 59015 87362==
41992,2023,11,21,06,00,AAXX 21064 41992 01/30 70000 10300 20230 30125 40127 70522 87030 333 59023 70000 87360==
41992,2023,11,21,09,00,AAXX 21094 41992 01430 73610 10280 20220 30109 40111 70522 84530 333 59018 70000 84616 87362==
41992,2023,11,21,12,00,AAXX 21124 41992 01425 70000 10265 20230 30116 40118 70522 84530 333 10305 59014 70000 84616 87362==
41992,2023,11,21,15,00,AAXX 21154 41992 41420 63306 10258 20240 30127 40129 75122 84530 333 59018 84615 86360==
41992,2023,11,21,18,00,AAXX 21184 41992 21420 73302 10255 20240 30131 40133 75152 84530 333 59014 60009 84615 87360==
41992,2023,11,21,21,00,AAXX 21214 41992 41420 80000 10252 20230 30127 40129 75155 8452/ 333 59012 84615 88460==
41992,2023,11,22,00,00,AAXX 22004 41992 01420 60304 10240 20220 30122 40124 70552 84530 333 59005 70000 84616 86362==
41992,2023,11,22,03,00,AAXX 22034 41992 41935 03604 10262 20210 30141 40143 70521 333 20225 59004==
41992,2023,11,22,06,00,AAXX 22064 41992 41935 03605 10290 20200 30117 40119 70521 333 59009==
41992,2023,11,22,09,00,AAXX 22094 41992 01940 03608 10285 20220 30096 40098 70510 333 59013 70000==
41992,2023,11,22,12,00,AAXX 22124 41992 01925 03605 10262 20210 30108 40110 70500 333 10290 59008 70000==
41992,2023,11,22,15,00,AAXX 22154 41992 01925 00302 10250 20200 30122 40124 70500 333 59005 70000==
41992,2023,11,22,18,00,AAXX 22184 41992 01925 00000 10235 20220 30123 40125 70500 333 59008 70000==
41992,2023,11,22,21,00,AAXX 22214 41992 01925 00000 10230 20220 30117 40119 70500 333 59010 70000==
41992,2023,11,23,00,00,AAXX 23004 41992 01925 00000 10212 20200 30119 40121 71000 333 59003 70000==
41992,2023,11,23,03,00,AAXX 23034 41992 01935 03605 10260 20200 30135 40137 70500 333 20210 59006 70000==
41992,2023,11,23,06,00,AAXX 23064 41992 01945 03305 10287 20180 30113 40115 70500 333 59004 70000==
41992,2023,11,23,09,00,AAXX 23094 41992 01940 03605 10290 20170 30096 40098 70500 333 58000 70000==
41992,2023,11,23,12,00,AAXX 23124 41992 01930 00000 10246 20180 30106 40108 70500 333 10300 59002 70000==
41992,2023,11,23,15,00,AAXX 23154 41992 01925 03302 10220 20190 30128 40130 70500 333 58006 70000==
41992,2023,11,23,18,00,AAXX 23184 41992 01920 00000 10215 20190 30133 40135 70500 333 58010 70000==
41992,2023,11,23,21,00,AAXX 23214 41992 01920 00000 10210 20190 30129 40131 70500 333 58012 70000==
41998,2023,11,17,00,00,AAXX 17004 41998 21456 80000 10240 20230 30132 40138 76166 8342/ 333 59003 60469 70630 82616 88456==
41998,2023,11,17,03,00,AAXX 17034 41998 01456 80000 10270 20240 30126 40132 76166 8342/ 333 59016 70720 83616 88456==
41998,2023,11,17,06,00,AAXX 17064 41998 NIL=
41998,2023,11,17,09,00,AAXX 17094 41998 01456 81802 10286 20260 30097 40103 70262 8342/ 333 59017 70770 83618 88458==
41998,2023,11,17,12,00,AAXX 17124 41998 11456 80000 10262 20250 30100 40106 60026 70262 8342/ 333 10292 56999 59007 70750 83618 88458=
41998,2023,11,17,15,00,AAXX 17154 41998 02456 80000 10260 20250 30118 40124 8342/ 333 58012 70700 82617 88457==
41998,2023,11,17,16,00,AAXX 17164 41998 02456 80000 10260 20250 30118 40124 8342/ 333 58012 70700 82617 88457==
41998,2023,11,18,00,00,AAXX 18004 41998 02456 80000 10255 20240 30125 40131 8342/ 333 59009 70200 82618 88458==
41998,2023,11,18,09,00,AAXX 18094 41998 02956 01902 10301 20240 30108 40114 333 58011 70080==
41998,2023,11,18,12,00,AAXX 18124 41998 02956 00000 10267 20230 30112 40118 333 10310 58012 70000==
41998,2023,11,18,18,00,AAXX 18184 41998 NIL=
41998,2023,11,19,00,00,AAXX 19004 41998 NIL=
41998,2023,11,19,06,00,AAXX 19064 41998 NIL=
41998,2023,11,19,09,00,AAXX 19094 41998 02456 61902 10298 20240 30108 40114 82470 333 58000 70000 81618 84458==
41998,2023,11,19,12,00,AAXX 19124 41998 02456 60000 10267 20250 30116 40122 82470 333 10307 58004 70000 81618 84458==
41998,2023,11,19,21,00,AAXX 19214 41998 NIL=
41998,2023,11,20,00,00,AAXX 20004 41998 01456 80000 10250 20240 30129 40135 72162 8342/ 333 58003 70030 82617 88457==
41998,2023,11,20,03,00,AAXX 20034 41998 02456 80000 10261 20250 30155 40161 8342/ 333 20243 58029 70030 82617 88457==
41998,2023,11,20,06,00,AAXX 20064 41998 NIL=
41998,2023,11,20,09,00,AAXX 20094 41998 02456 80000 10282 20240 30118 40124 8342/ 333 58010 70030 82618 88458==
41998,2023,11,20,12,00,AAXX 20124 41998 02456 80000 10262 20220 30125 40131 8342/ 333 10304 58009 70030 82618 88458==
41998,2023,11,20,18,00,AAXX 20184 41998 NIL=
41998,2023,11,21,03,00,AAXX 21034 41998 02456 60000 10265 20250 30147 40143 82470 333 20240 59008 70009 81618 84458==
41998,2023,11,21,06,00,AAXX 21064 41998 NIL=
41998,2023,11,21,09,00,AAXX 21094 41998 02456 62501 10294 20240 30106 40112 82470 333 59012 70000 81818 84458==
41998,2023,11,21,12,00,AAXX 21124 41998 02456 60000 10261 20230 30118 40114 82470 333 10303 59013 70000 81618 84458==
41998,2023,11,21,18,00,AAXX 21184 41998 NIL=
41998,2023,11,22,00,00,AAXX 22004 41998 NIL=
41998,2023,11,22,06,00,AAXX 22064 41998 NIL=
41998,2023,11,22,12,00,AAXX 22124 41998 02456 40000 10262 20230 30094 40100 82470 333 10308 59018 70000 81618 83458==
41998,2023,11,22,18,00,AAXX 22184 41998 02456 40000 10254 20240 30105 40111 82470 333 59015 70000 81618==
41998,2023,11,23,00,00,AAXX 23004 41998 NIL=
41998,2023,11,23,03,00,AAXX 23034 41998 02456 40000 10257 20240 30118 40124 82470 333 20240 59014 70000 81618==
41998,2023,11,23,06,00,AAXX 23064 41998 NIL=
41998,2023,11,23,09,00,AAXX 23094 41998 02956 02102 10302 20240 30081 40087 333 59005 70000==
41998,2023,11,23,12,00,AAXX 23124 41998 02956 00000 10260 20230 30089 40095 333 10314 59004 70000==
41998,2023,11,23,18,00,AAXX 23184 41998 02956 00000 10227 20190 30123 40129 333 58018 70000==
