ESTACION,ANO,MES,DIA,HORA,MINUTO,PARTE
41850,2023,07,21,00,00,AAXX 21004 41850 31450 60000 10274 20250 39925 40023 70522 83520 333 56990 58026 70000 83618 86458=
41850,2023,07,21,06,00,AAXX 21063 41850 31450 80805 10265 20260 39958 40056 60014 76122 8432/ 333 56299 58049 70010 83616 81928 88458=
41850,2023,07,21,12,00,AAXX 21124 41850 11456 40000 10298 20250 39938 40035 60046 70162 84030 333 10314 56090 58052 70050 84362=
41850,2023,07,21,18,00,AAXX 21184 41850 31440 70903 10272 20250 39968 40067 70522 83520 333 56990 58044 70050 83617 87458=
41850,2023,07,22,00,00,AAXX 22004 41850 31450 50000 10275 20260 39966 40064 70522 82530 333 56990 58041 70050 82617 85362=
41850,2023,07,22,06,00,AAXX 22064 41850 32456 61205 10335 20270 39974 40070 84510 333 56990 58016 70040 84617 86458=
41850,2023,07,22,12,00,AAXX 22124 41850 11450 80906 10294 20250 39947 40045 60064 70562 8352/ 333 10367 56999 58009 70060 83617 88458=
41850,2023,07,22,18,00,AAXX 22184 41850 31440 20000 10268 20250 39973 40071 70521 82500 333 56900 58005 70060 82618=
41850,2023,07,23,00,00,AAXX 23004 41850 31450 80000 10270 20260 39969 40067 70522 8452/ 333 56999 58003 70060 84618 88458=
41850,2023,07,23,06,00,AAXX 23064 41850 32457 21804 10341 20240 39966 40062 82500 333 56900 59006 70060 82618=
41850,2023,07,23,12,00,AAXX 23124 41850 32456 51802 10331 20250 39933 40030 82510 333 10352 56990 59014 70000 82618 85458=
41850,2023,07,23,18,00,AAXX 23184 41850 31440 20000 10291 20270 39948 40046 70521 82500 333 56900 59025 70000 82618=
41850,2023,07,24,00,00,AAXX 24004 41850 11440 80000 10256 20250 39944 40043 60104 72162 8452/ 333 56999 59025 70100 84616 88458=
41850,2023,07,24,06,00,AAXX 24064 41850 NIL=
41850,2023,07,24,12,00,AAXX 24124 41850 31450 50000 10309 20270 39914 40011 70522 82510 333 10334 56990 59019 70480 83618 88458=
41850,2023,07,25,00,00,AAXX 25004 41850 31450 80000 10265 20250 39940 40038 70522 8452/ 333 56999 59004 70380 84617 88458=
41850,2023,07,25,06,00,AAXX 25064 41850 32456 81003 10327 20260 39944 40040 8452/ 333 56999 58002 70000 84618 88458=
41850,2023,07,25,12,00,AAXX 25124 41850 31450 80000 10309 20270 39922 40019 70522 8352/ 333 10352 58008 70000 83618 88458=
41850,2023,07,25,18,00,AAXX 25184 41850 31440 60000 10281 20250 39933 40031 70522 82510 333 56990 59004 70000 82618 86458=
41850,2023,07,26,00,00,AAXX 26004 41850 31450 60000 10266 20250 39946 40044 70522 82510 333 56999 58006 70000 83617 88458=
41850,2023,07,26,06,00,AAXX 26064 41850 11450 70904 10290 20240 39958 40055 60348 70562 83510 333 56999 58014 70340 84618 87458=
41850,2023,07,26,12,00,AAXX 26124 41850 32456 51802 10310 20240 39934 40031 82510 333 10320 56990 58012 70340 82618 85458=
41850,2023,07,26,18,00,AAXX 26184 41850 31440 80000 10281 20250 39940 40038 70522 8352/ 333 56999 58007 70340 83618 88458=
41850,2023,07,27,00,00,AAXX 27004 41850 31440 80000 10265 20250 39942 40040 70522 8452/ 333 56999 59004 70340 84618 88458=
41850,2023,07,27,06,00,AAXX 27064 41850 11450 81802 10293 20250 39944 40041 60078 70562 8452/ 333 56999 59014 70070 84614 88458=
41850,2023,07,27,12,00,AAXX 27124 41850 31450 80000 10310 20250 39918 40008 70522 8452/ 333 10315 56999 59022 70070 84617 88458=
41850,2023,07,27,18,00,AAXX 27184 41850 31430 81305 10282 20270 39923 40020 70522 8452/ 333 56999 59017 70070 84618 88458=
41851,2023,07,21,00,00,AAXX 21004 41851 32450 30000 10286 20280 39963 40025 82430 333 56990 58025 70000 81618 83362=
41851,2023,07,21,06,00,AAXX 21063 41851 11345 80901 10280 20260 39999 40061 69934 76121 8472/ 333 56299 58048 70003 81708 83616 88456=
41851,2023,07,21,12,00,AAXX 21124 41851 32450 50902 10292 20250 39972 40034 82510 333 10315 56990 58050 70003 82618 84459=
41851,2023,07,21,18,00,AAXX 21184 41851 32450 80902 10285 20260 30008 40070 8352/ 333 56999 58042 70003 83618 88458=
41851,2023,07,22,00,00,AAXX 22004 41851 32450 30902 10277 20260 30005 40067 82530 333 56990 58042 70003 82618=
41851,2023,07,22,06,00,AAXX 22064 41851 32450 31802 10340 20260 30015 40077 82530 333 56990 58016 70000 82618=
41851,2023,07,22,12,00,AAXX 22124 41851 32450 61802 10335 20270 39986 40047 83510 333 10355 56990 58014 70000 83618 85459=
41851,2023,07,22,18,00,AAXX 22184 41851 32450 61801 10290 20270 30020 40082 83510 333 56990 58012 70000 83618 84459=
41851,2023,07,23,00,00,AAXX 23004 41851 32450 70000 10280 20270 30008 40070 83510 333 56990 58003 70000 83618 85459=
41851,2023,07,23,06,00,AAXX 23064 41851 NIL=
41851,2023,07,23,12,00,AAXX 23124 41851 32450 60000 10325 20270 39969 40030 83510 333 10355 56990 59017 70000 83618 85459=
41851,2023,07,23,18,00,AAXX 23184 41851 32450 60000 10292 20270 39990 40052 83510 333 56990 59030 70000 83618 85459=
41851,2023,07,24,00,00,AAXX 24004 41851 32450 80000 10282 20270 39981 40043 8352/ 333 56999 59027 83618 88458=
41851,2023,07,24,06,00,AAXX 24064 41851 11450 80902 10300 20270 39987 40049 60155 70262 8352/ 333 56999 59021 70150 83618 88458=
41851,2023,07,24,12,00,AAXX 24124 41851 11450 80801 10308 20270 39954 40015 69955 70262 8352/ 333 10330 56999 59015 70155 83618 88458=
41851,2023,07,24,18,00,AAXX 24184 41851 32450 50902 10288 20270 39979 40041 82510 333 56990 59011 70155 82618 84459=
41851,2023,07,25,00,00,AAXX 25004 41851 32450 80902 10277 20260 39984 40046 8462/ 333 56999 58003 70155 81709 83616 88458=
41851,2023,07,25,06,00,AAXX 25064 41851 32450 60000 10340 20270 39988 40049 83510 333 56990 58001 70005 83618 85459=
41851,2023,07,25,12,00,AAXX 25124 41851 11350 80701 10332 20260 39961 40022 69945 70262 8462/ 333 10358 56999 58007 70004 81709 83617 88457=
41851,2023,07,25,18,00,AAXX 25184 41851 32950 00000 10290 20280 39984 40046 333 58005 70004=
41851,2023,07,26,00,00,AAXX 26004 41851 31440 80000 10285 20280 39989 40051 70520 8352/ 333 56999 58005 70004 83618 88458=
41851,2023,07,26,06,00,AAXX 26064 41851 32450 52702 10334 20250 39996 40057 83430 333 56990 58008 70004 82618 84362=
41851,2023,07,26,12,00,AAXX 26124 41851 11450 40704 10324 20250 39965 40026 69935 70196 82430 333 10336 56990 58004 70003 81618 83362=
41851,2023,07,26,18,00,AAXX 26184 41851 32350 80000 10288 20260 39991 40053 8462/ 333 56999 58007 70003 81709 83617 88457=
41851,2023,07,27,00,00,AAXX 27004 41851 32450 81201 10288 20260 39983 40045 8352/ 333 56999 59006 70003 83617 88457=
41851,2023,07,27,06,00,AAXX 27064 41851 32450 60701 10330 20250 39983 40044 83430 333 56990 59013 70003 82618 84362=
41851,2023,07,27,12,00,AAXX 27124 41851 32450 50000 10315 20270 39949 40010 83410 333 10355 56990 59016 70000 82618 85458=
41851,2023,07,27,18,00,AAXX 27184 41851 32450 80000 10290 20270 39966 40028 8352/ 333 56999 59025 70000 83618 88458=
41856,2023,07,21,00,00,AAXX 21004 41856 32450 31801 10280 20250 39990 40025 81530 333 56990 58025 70000 81618 83362=
41856,2023,07,21,06,00,AAXX 21063 41856 32450 80904 10275 20260 30024 40059 8562/ 333 56499 58045 70000 83709 85615 88458=
41856,2023,07,21,12,00,AAXX 21124 41856 32450 30502 10300 20260 39997 40032 82430 333 10310 56990 58047 70000 81618 83362=
41856,2023,07,21,18,00,AAXX 21184 41856 32430 80000 10284 20260 30035 40070 8452/ 333 56999 58045 70000 84615 88458=
41856,2023,07,22,00,00,AAXX 22004 41856 32450 40000 10274 20260 30031 40066 82530 333 56990 58041 70000 82618 84362=
41856,2023,07,22,06,00,AAXX 22064 41856 32456 51803 10236 20260 30042 40077 83430 333 56990 58018 70000 82618 85362=
41856,2023,07,22,12,00,AAXX 22124 41856 32956 31802 10335 20250 30014 40048 83030 333 10345 56090 58017 70000 83362=
41856,2023,07,22,18,00,AAXX 22184 41856 32930 20000 10285 20280 30045 40080 82030 333 56090 58010 70000 82362=
41856,2023,07,23,00,00,AAXX 23004 41856 32450 50000 10280 20270 30042 40077 83430 333 56990 58011 70000 82618 85362=
41856,2023,07,23,06,00,AAXX 23064 41856 32456 41802 10335 20260 30035 40070 84030 333 56090 59007 70000 84362=
41856,2023,07,23,12,00,AAXX 23124 41856 32956 42001 10333 20250 39995 40030 84030 333 10355 56090 59019 70000 84362=
41856,2023,07,23,18,00,AAXX 23184 41856 32930 20000 10290 20280 30018 40053 82030 333 56090 59027 70000 82362=
41856,2023,07,24,00,00,AAXX 24004 41856 32950 40000 10280 20270 30009 40044 84030 333 56090 59033 70000 82362=
41856,2023,07,24,06,00,AAXX 24064 41856 11450 81802 10295 20270 30010 40045 60024 72162 8452/ 333 56999 59025 70020 83618 88458=
41856,2023,07,24,12,00,AAXX 24124 41856 11956 40000 10302 20270 39980 40015 60016 70196 84030 333 10345 56090 59015 70030 84362=
41856,2023,07,24,18,00,AAXX 24184 41856 32940 40000 10280 20260 30006 40041 84030 333 56090 59012 70030 84362=
41856,2023,07,25,00,00,AAXX 25004 41856 32440 50000 10271 20260 30010 40045 84430 333 56990 58001 70030 81618 85458=
41856,2023,07,25,06,00,AAXX 25064 41856 32456 61601 10322 20250 30012 40047 84420 333 56990 58002 70010 82618 84458=
41856,2023,07,25,12,00,AAXX 25124 41856 32956 30000 10321 20280 39990 40025 83030 333 10351 56090 58010 70000 83362=
41856,2023,07,25,18,00,AAXX 25184 41856 32440 50000 10284 20260 30010 40045 84420 333 56990 58004 70000 82618 84458=
41856,2023,07,26,00,00,AAXX 26004 41856 32450 40000 10274 20260 30015 40050 84430 333 56990 58005 70000 81618 84458=
41856,2023,07,26,06,00,AAXX 26064 41856 32456 51601 10324 20240 30021 40056 84430 333 56990 58009 70000 82618 84458=
41856,2023,07,26,12,00,AAXX 26124 41856 32456 31301 10326 20250 39993 40028 82430 333 10350 56990 58003 70000 81618 83362=
41856,2023,07,26,18,00,AAXX 26184 41856 32930 01301 10282 20260 30018 40053 333 58008 70000=
41856,2023,07,27,00,00,AAXX 27004 41856 32440 50000 10270 20260 30010 40045 83530 333 56990 59005 70000 83618 85362=
41856,2023,07,27,06,00,AAXX 27064 41856 32456 51301 10332 20240 30006 40041 83430 333 56990 59015 70000 81618 83825 85362=
41856,2023,07,27,12,00,AAXX 27124 41856 32456 31802 10326 20250 39975 40010 82430 333 10340 56990 59018 70000 81618 83362=
41856,2023,07,27,18,00,AAXX 27184 41856 32430 81803 10288 20260 39992 40027 8452/ 333 56999 59026 70000 84615 88458=
41858,2023,07,21,00,00,AAXX 21004 41858 01540 31204 10290 20260 39984 40029 70520 83200 333 58029 70000 83825==
41858,2023,07,21,03,00,AAXX 21034 41858 01550 61308 10320 20260 30002 40046 70522 82120 333 20284 58034 70000 82825 86460==
41858,2023,07,21,06,00,AAXX 21063 41858 01450 80904 10320 20260 30009 40053 70562 8452/ 333 58041 70000 84615 88458==
41858,2023,07,21,09,00,AAXX 21094 41858 41450 50910 10322 20250 39991 40036 70522 83530 333 58039 83615 85360==
41858,2023,07,21,12,00,AAXX 21124 41858 42556 50606 10308 20260 39988 40033 82230 333 10326 58048 82825 85362==
41858,2023,07,21,15,00,AAXX 21154 41858 41440 40905 10290 20270 30015 40060 70522 82520 333 58053 82616 84458==
41858,2023,07,21,18,00,AAXX 21184 41858 41440 40905 10280 20260 30035 40080 70522 82520 333 58045 82616 84458==
41858,2023,07,21,21,00,AAXX 21214 41858 41440 40000 10280 20260 30022 40067 70522 82520 333 58044 82618 84458==
41858,2023,07,22,00,00,AAXX 22004 41858 41440 40000 10284 20260 30027 40072 70522 82530 333 58043 82618 83362==
41858,2023,07,22,03,00,AAXX 22034 41858 41450 41505 10322 20260 30040 40085 70522 82530 333 20272 58038 82618 83362==
41858,2023,07,22,06,00,AAXX 22064 41858 01450 61806 10346 20250 30034 40078 70522 84530 333 58025 70000 84618 85358==
41858,2023,07,22,09,00,AAXX 22094 41858 02456 50908 10354 20240 30012 40056 85800 333 58021 70000 83618 83825==
41858,2023,07,22,12,00,AAXX 22124 41858 02556 41805 10344 20240 30005 40049 82130 333 10356 58019 70000 82825 83362==
41858,2023,07,22,15,00,AAXX 22154 41858 01/50 30905 10308 20270 30028 40073 70520 83030 333 58013 70000 83362==
41858,2023,07,22,18,00,AAXX 22184 41858 01550 40905 10298 20270 30034 40079 70520 82330 333 59001 70000 82615 84362 81930==
41858,2023,07,22,21,00,AAXX 22214 41858 01450 40905 10290 20270 30028 40073 70520 82530 333 58006 70000 82615 83362==
41858,2023,07,23,00,00,AAXX 23004 41858 01/50 40905 10280 20260 30029 40074 70520 84030 333 58006 70000 84362==
41858,2023,07,23,03,00,AAXX 23034 41858 01450 40904 10330 20230 30033 40077 70522 82530 333 20275 59007 70000 82616 84362==
41858,2023,07,23,06,00,AAXX 23064 41858 01456 41805 10348 20240 30026 40070 70522 84700 333 59008 70000 82616 83825==
41858,2023,07,23,09,00,AAXX 23094 41858 01456 41806 10362 20230 39996 40039 70522 83530 333 59016 70000 83618 84362==
41858,2023,07,23,12,00,AAXX 23124 41858 01450 51205 10344 20250 39985 40029 70522 83530 333 10364 59020 70000 83618 85358==
41858,2023,07,23,15,00,AAXX 23154 41858 01/40 41805 10310 20260 30007 40052 70522 84030 333 59019 70000 84362==
41858,2023,07,23,18,00,AAXX 23184 41858 01/40 30000 10300 20270 30012 40057 70511 83030 333 59022 70000 83362==
41858,2023,07,23,21,00,AAXX 23214 41858 01/40 40000 10294 20270 39996 40041 70511 84030 333 59032 70000 84362==
41858,2023,07,24,00,00,AAXX 24004 41858 01430 50000 10290 20280 30000 40045 70522 83520 333 59029 70000 83618 84460==
41858,2023,07,24,03,00,AAXX 24034 41858 01550 62105 10327 20270 30013 40057 70522 83120 333 20282 59020 70000 83825 86458==
41858,2023,07,24,06,00,AAXX 24064 41858 01550 61505 10340 20260 30003 40047 70522 83230 333 59023 70000 83825 86458==
41858,2023,07,24,09,00,AAXX 24094 41858 01450 60505 10320 20270 39982 40026 70522 83520 333 59014 70000 83616 85458==
41858,2023,07,24,12,00,AAXX 24124 41858 01450 60905 10315 20280 39973 40017 70522 83520 333 10350 59012 70000 83616 85458==
41858,2023,07,24,15,00,AAXX 24154 41858 01440 60904 10302 20270 39991 40036 70522 83520 333 59016 70000 83618 85458==
41858,2023,07,24,18,00,AAXX 24184 41858 01440 40904 10294 20280 30006 40051 70522 82420 333 59006 70000 82618 84458==
41858,2023,07,24,21,00,AAXX 24214 41858 01440 50905 10290 20290 39998 40043 70522 82520 333 58002 70000 82618 84458==
41858,2023,07,25,00,00,AAXX 25004 41858 01430 60000 10290 20280 30002 40047 70522 84520 333 58002 70000 84618 85458==
41858,2023,07,25,03,00,AAXX 25034 41858 01550 50905 10328 20270 30011 40055 70522 83240 333 20282 59002 70000 83825 84360==
41858,2023,07,25,06,00,AAXX 25064 41858 01550 51808 10356 20250 30005 40049 70522 83230 333 58002 70000 83825 84360==
41858,2023,07,25,09,00,AAXX 25094 41858 01550 61805 10358 20240 39986 40029 70522 83120 333 58002 70000 83825 85460==
41858,2023,07,25,12,00,AAXX 25124 41858 01550 60000 10340 20250 39980 40024 70522 83120 333 10362 58005 70000 83825 85460==
41858,2023,07,25,15,00,AAXX 25154 41858 01940 00000 10310 20260 39994 40039 70520 333 58003 70000==
41858,2023,07,25,18,00,AAXX 25184 41858 01440 61806 10302 20270 30008 40053 56035 70520 333 58002 70000 83520 83618 85458==
41858,2023,07,25,21,00,AAXX 25214 41858 01440 80000 10296 20280 30001 40046 70522 8452/ 333 58003 70000 84618 88458==
41858,2023,07,26,00,00,AAXX 26004 41858 01430 81805 10288 20280 30008 40053 70522 8452/ 333 58006 70000 84618 88458==
41858,2023,07,26,03,00,AAXX 26034 41858 01450 70000 10300 20270 30023 40068 72162 85420 333 20279 58012 70008 83615 86458==
41858,2023,07,26,06,00,AAXX 26064 41858 11450 60805 10346 20260 30012 40056 69986 70562 84420 333 58007 70008 83615 84460==
41858,2023,07,26,09,00,AAXX 26094 41858 01450 60905 10360 20250 39986 40029 70522 84520 333 58000 70008 84616 85458==
41858,2023,07,26,12,00,AAXX 26124 41858 01450 40305 10332 20270 39983 40027 70522 82520 333 10362 58003 70008 82618 84458==
41858,2023,07,26,15,00,AAXX 26154 41858 01550 20908 10305 20270 30000 40045 70520 82100 333 58006 70000 82825==
41858,2023,07,26,18,00,AAXX 26184 41858 01550 20906 10295 20270 30009 40054 70520 82100 333 58001 70008 82825==
41858,2023,07,26,21,00,AAXX 26214 41858 01450 61505 10290 20270 30003 40048 70522 83520 333 58002 70008 83615 86458==
41858,2023,07,27,00,00,AAXX 27004 41858 01450 71505 10284 20260 30002 40047 70522 84520 333 59006 70008 84615 87458==
41858,2023,07,27,03,00,AAXX 27034 41858 01450 51805 10310 20260 30010 40055 70522 85800 333 20276 59013 70000 83615 83825==
41858,2023,07,27,06,00,AAXX 27064 41858 01450 51805 10345 20250 39996 40040 70522 85800 333 59016 70000 83615 83825==
41858,2023,07,27,09,00,AAXX 27094 41858 01450 81505 10354 20240 39975 40018 70522 85800 333 59011 70000 83618 83825==
41858,2023,07,27,12,00,AAXX 27124 41858 21450 50902 10322 20260 39966 40010 72162 85800 333 10358 59017 69945 70004 83616 83825==
41858,2023,07,27,15,00,AAXX 27154 41858 01540 51806 10304 20250 39981 40026 70522 82120 333 59019 70004 82825 84460==
41858,2023,07,27,18,00,AAXX 27184 41858 11440 71805 10294 20260 39991 40036 60014 76122 84520 333 56990 59018 70014 83615 86458=
41858,2023,07,27,21,00,AAXX 27214 41858 01440 81805 10290 20260 39966 40011 70522 8452/ 333 59037 70014 84615 88458==
41859,2023,07,21,00,00,AAXX 21004 41859 02435 80000 10292 20270 39987 40024 8562/ 333 58025 70000 82710 83618 88458==
41859,2023,07,21,03,00,AAXX 21034 41859 02450 61802 10322 20270 30011 40047 83570 333 20288 58033 70000 83618 85458==
41859,2023,07,21,06,00,AAXX 21064 41859 02450 80504 10306 20260 30023 40059 8562/ 333 58044 70000 82710 84618 88458==
41859,2023,07,21,09,00,AAXX 21094 41859 02450 70000 10310 20250 39999 40035 85620 333 58041 70000 82710 84618 87458==
41859,2023,07,21,12,00,AAXX 21124 41859 02450 60000 10320 20260 39996 40032 83570 333 10333 58050 70000 83618 85458==
41859,2023,07,21,15,00,AAXX 21154 41859 02430 40000 10298 20260 30025 40062 82520 333 58053 70000 82618 84458==
41859,2023,07,21,18,00,AAXX 21184 41859 02430 80000 10294 20260 30033 40070 8562/ 333 58043 70000 82710 84618 88458==
41859,2023,07,21,21,00,AAXX 21214 41859 02430 80000 10287 20270 30030 40067 8562/ 333 58043 70000 82710 84618 88458==
41859,2023,07,22,00,00,AAXX 22004 41859 02440 50000 10281 20260 30028 40065 82520 333 58041 70000 82618 85458==
41859,2023,07,22,03,00,AAXX 22034 41859 02450 40902 10328 20260 30048 40084 333 20276 58037 70000 82618 83825==
41859,2023,07,22,06,00,AAXX 22064 41859 02450 61302 10335 20260 30045 40081 84470 333 58022 70000 82618 83825 86458==
41859,2023,07,22,09,00,AAXX 22094 41859 02450 61302 10341 20240 30022 40058 83520 333 58023 70000 83618 86458==
41859,2023,07,22,12,00,AAXX 22124 41859 02450 61302 10343 20240 30014 40050 83520 333 10354 58018 70000 83618 86458==
41859,2023,07,22,15,00,AAXX 22154 41859 02430 60502 10318 20270 30037 40074 83520 333 58012 70000 83618 86458==
41859,2023,07,22,18,00,AAXX 22184 41859 01430 80000 10307 20270 30046 40083 71322 8532/ 333 58013 70000 82710 84618 88458 81930==
41859,2023,07,22,21,00,AAXX 22214 41859 02430 80000 10290 20260 30042 40079 8562/ 333 58012 70000 84618 88458==
41859,2023,07,23,00,00,AAXX 23004 41859 02440 80000 10288 20270 30036 40073 8562/ 333 58008 70000 82710 84618 88458==
41859,2023,07,23,03,00,AAXX 23034 41859 02450 31301 10326 20250 30043 40079 82530 333 20286 59005 70000 82618 83362==
41859,2023,07,23,06,00,AAXX 23064 41859 02450 71302 10352 20250 30033 40069 84620 333 59012 70000 82710 83618 86458==
41859,2023,07,23,09,00,AAXX 23094 41859 02450 61302 10358 20250 30005 40041 83520 333 59017 70000 83618 86458==
41859,2023,07,23,12,00,AAXX 23124 41859 02450 80000 10345 20260 39994 40030 8561/ 333 10360 59020 70000 82710 84618 88458==
41859,2023,07,23,15,00,AAXX 23154 41859 02430 80000 10318 20270 30015 40051 8562/ 333 59022 70000 82710 84618 88458==
41859,2023,07,23,18,00,AAXX 23184 41859 02430 51302 10305 20280 30017 40053 83520 333 59029 70000 83618 85458==
41859,2023,07,23,21,00,AAXX 23214 41859 02430 51802 10297 20270 30010 40047 83520 333 59032 70000 83618 85458==
41859,2023,07,24,00,00,AAXX 24004 41859 02440 51802 10290 20270 30006 40043 82520 333 59030 70000 82618 85458==
41859,2023,07,24,03,00,AAXX 24034 41859 02450 70000 10320 20270 30020 40056 83570 333 58023 70000 83618 86458==
41859,2023,07,24,06,00,AAXX 24064 41859 21450 80000 10341 20260 30008 40044 70362 85621 333 59025 60027 70018 82710 84618 88458==
41859,2023,07,24,09,00,AAXX 24094 41859 02450 80901 10311 20270 39994 40030 8562/ 333 59011 70018 82710 84618 88458==
41859,2023,07,24,12,00,AAXX 24124 41859 02450 60000 10317 20270 39979 40015 84620 333 10342 59015 70018 82710 83618 85458==
41859,2023,07,24,15,00,AAXX 24154 41859 02430 40000 10300 20280 39999 40036 81530 333 59016 70018 81618 83362==
41859,2023,07,24,18,00,AAXX 24184 41859 02430 70000 10293 20260 30007 40044 84610 333 59010 70018 82710 83618 87458==
41859,2023,07,24,21,00,AAXX 24214 41859 02430 80000 10284 20260 30007 40044 8562/ 333 59003 70018 83710 84618 88458==
41859,2023,07,25,00,00,AAXX 25004 41859 21435 80000 10286 20280 30008 40045 70262 8562/ 333 58002 60015 70028 82710 83618 88458==
41859,2023,07,25,03,00,AAXX 25034 41859 02450 31802 10336 20260 30018 40054 82430 333 20283 59002 70028 81618 82828 83362==
41859,2023,07,25,06,00,AAXX 25064 41859 02450 61802 10356 20260 30012 40048 84430 333 58004 70010 82618 83828 86362==
41859,2023,07,25,09,00,AAXX 25094 41859 02450 72302 10352 20250 39994 40030 84430 333 58000 70010 82618 83828 87362==
41859,2023,07,25,12,00,AAXX 25124 41859 02450 80000 10339 20270 39987 40023 8562/ 333 10360 58008 70010 82710 84618 88458==
41859,2023,07,25,15,00,AAXX 25154 41859 02430 30000 10313 20270 30004 40040 82530 333 58005 70010 82618 83362==
41859,2023,07,25,18,00,AAXX 25184 41859 02430 30000 10306 20280 30012 40048 82530 333 58005 70010 82618 83362==
41859,2023,07,25,21,00,AAXX 25214 41859 02430 51301 10291 20260 30011 40047 82520 333 58004 70010 82618 84458==
41859,2023,07,26,00,00,AAXX 26004 41859 02435 61302 10286 20270 30010 40046 83520 333 58002 70000 83618 85458==
41859,2023,07,26,03,00,AAXX 26034 41859 02450 80000 10312 20260 30032 40068 8562/ 333 20280 58014 70000 82710 84618 88458==
41859,2023,07,26,06,00,AAXX 26064 41859 02450 71303 10351 20240 30022 40058 85610 333 58010 70000 82710 83618 87458==
41859,2023,07,26,09,00,AAXX 26094 41859 02456 41302 10353 20230 39995 40031 83430 333 58001 70000 81618 83828 84362==
41859,2023,07,26,12,00,AAXX 26124 41859 02456 41302 10348 20250 39993 40029 81130 333 10361 58006 70000 81828 84362==
41859,2023,07,26,15,00,AAXX 26154 41859 02430 80000 10298 20250 30015 40052 8562/ 333 58011 70000 82710 84618 88458==
41859,2023,07,26,18,00,AAXX 26184 41859 02430 80000 10296 20270 30016 40053 8562/ 333 58004 70000 82710 84618 88458==
41859,2023,07,26,21,00,AAXX 26214 41859 02430 80000 10283 20250 30014 40051 8562/ 333 58003 70000 82710 84618 88458==
41859,2023,07,27,00,00,AAXX 27004 41859 02435 80000 10280 20260 30011 40048 8562/ 333 58001 70000 82710 84618 88458==
41859,2023,07,27,03,00,AAXX 27034 41859 02450 61802 10314 20260 30019 40055 84470 333 20277 59013 70000 82618 83825 86458==
41859,2023,07,27,06,00,AAXX 27064 41859 02450 41802 10336 20260 30005 40041 84400 333 59017 70000 82618 83825==
41859,2023,07,27,09,00,AAXX 27094 41859 01450 61302 10350 20260 39984 40020 70362 85620 333 59011 70032 82710 83618 86458==
41859,2023,07,27,12,00,AAXX 27124 41859 11450 61302 10326 20270 39974 40010 60036 70262 85620 333 10352 59019 70032 82710 83618 86458==
41859,2023,07,27,15,00,AAXX 27154 41859 02430 61801 10310 20270 39991 40027 85610 333 59024 70032 82710 83618 86458==
41859,2023,07,27,18,00,AAXX 27184 41859 02430 82102 10296 20280 39992 40029 8562/ 333 59024 70032 83710 84618 88458==
41859,2023,07,27,21,00,AAXX 27214 41859 02430 82102 10290 20280 39978 40015 8562/ 333 59036 70032 83710 84618 88458==
41863,2023,07,21,00,00,AAXX 21004 41863 02/50 21301 10287 20260 39980 40022 82030 333 58023 70000 82362==
41863,2023,07,21,03,00,AAXX 21034 41863 02456 51303 10316 20260 30005 40047 82520 333 20283 58037 70000 82618 85458==
41863,2023,07,21,06,00,AAXX 21063 41863 02457 71301 10330 20260 30008 40050 84510 333 58037 70000 84618 87458==
41863,2023,07,21,09,00,AAXX 21094 41863 02/57 40502 10320 20260 39989 40031 84030 333 58036 70000 84365==
41863,2023,07,21,12,00,AAXX 21124 41863 02957 30904 10316 20270 39987 40029 80002 333 10335 58047 70000 83074==
41863,2023,07,21,15,00,AAXX 21154 41863 02550 20903 10295 20270 30008 40050 82400 333 58037 70000 82620==
41863,2023,07,21,18,00,AAXX 21184 41863 02550 20904 10295 20270 30023 40065 82400 333 58039 70000 82620==
41863,2023,07,21,21,00,AAXX 21214 41863 02550 30904 10288 20270 30022 40064 83400 333 58040 70000 83620==
41863,2023,07,22,00,00,AAXX 22004 41863 02/50 40903 10281 20260 30020 40062 84030 333 58040 70000 84362==
41863,2023,07,22,03,00,AAXX 22034 41863 02/57 30904 10326 20270 30040 40082 83030 333 20276 58035 70000 83362==
41863,2023,07,22,06,00,AAXX 22064 41863 02557 41305 10341 20260 30035 40077 84400 333 58027 70000 84620==
41863,2023,07,22,09,00,AAXX 22094 41863 02557 41302 10355 20260 30012 40058 84400 333 58023 70000 84620==
41863,2023,07,22,12,00,AAXX 22124 41863 02457 41303 10345 20260 30002 40043 82530 333 10355 58015 70000 82618 84362==
41863,2023,07,22,15,00,AAXX 22154 41863 02950 00000 10307 20270 30032 40074 333 58024 70000==
41863,2023,07,22,18,00,AAXX 22184 41863 02450 81801 10300 20270 30037 40079 8562/ 333 58014 70000 82710 85617 88458==
41863,2023,07,22,21,00,AAXX 22214 41863 02450 80000 10290 20270 30032 40074 8552/ 333 58010 70000 85618 88458==
41863,2023,07,23,00,00,AAXX 23004 41863 02456 50000 10280 20260 30030 40073 83530 333 58010 70000 83618 85362==
41863,2023,07,23,03,00,AAXX 23034 41863 02456 51302 10310 20260 30036 40078 83530 333 20273 59004 70000 83618 85362==
41863,2023,07,23,06,00,AAXX 23064 41863 02457 51804 10350 20240 30030 40072 83510 333 59005 70000 83618 85828==
41863,2023,07,23,09,00,AAXX 23094 41863 02557 41303 10356 20250 39998 40039 84400 333 59014 70000 84620==
41863,2023,07,23,12,00,AAXX 23124 41863 02556 40000 10345 20270 39987 40028 84400 333 10360 59015 70000 84620==
41863,2023,07,23,15,00,AAXX 23154 41863 02950 00000 10310 20270 30010 40052 333 59022 70000==
41863,2023,07,23,18,00,AAXX 23184 41863 02950 00000 10300 20280 30009 40051 333 59028 70000==
41863,2023,07,23,21,00,AAXX 23214 41863 02950 00000 10290 20280 30003 40045 333 70000==
41863,2023,07,24,00,00,AAXX 24004 41863 02/56 40000 10286 20270 30001 40043 84030 333 59029 70000 84362==
41863,2023,07,24,03,00,AAXX 24034 41863 02456 72302 10315 20280 30014 40056 85420 333 59022 70000 84618 87458==
41863,2023,07,24,06,00,AAXX 24064 41863 02457 71303 10350 20260 30004 40045 85420 333 59026 70000 84618 87458==
41863,2023,07,24,09,00,AAXX 24094 41863 02456 71801 10344 20240 39983 40024 85410 333 59015 70000 85618 87458==
41863,2023,07,24,12,00,AAXX 24124 41863 02456 70000 10331 20260 39972 40013 85420 333 10350 59015 70000 85618 87458==
41863,2023,07,24,15,00,AAXX 24154 41863 02456 60501 10307 20290 39992 40034 83420 333 59018 70000 83618 86458==
41863,2023,07,24,18,00,AAXX 24184 41863 02450 60501 10295 20280 39999 40041 83420 333 59010 70000 83618 86458==
41863,2023,07,24,21,00,AAXX 24214 41863 02450 60501 10292 20280 39997 40039 83420 333 59006 70000 83618 86458==
41863,2023,07,25,00,00,AAXX 25004 41863 02450 80000 10289 20280 39995 40037 8552/ 333 59006 70000 85618 88458==
41863,2023,07,25,03,00,AAXX 25034 41863 02456 61303 10330 20270 30012 40054 83520 333 20285 59002 70000 83618 86458==
41863,2023,07,25,06,00,AAXX 25064 41863 02557 51303 10357 20250 30007 40048 85400 333 58003 70000 83618 85825==
41863,2023,07,25,09,00,AAXX 25094 41863 02557 41802 10356 20260 39989 40030 82402 333 58006 70000 82620 83074==
41863,2023,07,25,12,00,AAXX 25124 41863 02557 41801 10348 20260 39980 40021 82402 333 10360 58008 70000 82620 83074==
41863,2023,07,25,15,00,AAXX 25154 41863 02950 00000 10306 20290 39996 40038 333 58004 70000==
41863,2023,07,25,18,00,AAXX 25184 41863 02450 20000 10302 20280 30004 40046 82600 333 58005 70000 82710==
41863,2023,07,25,21,00,AAXX 25214 41863 02440 20000 10295 20280 30005 40047 82400 333 58008 70000 82620==
41863,2023,07,26,00,00,AAXX 26004 41863 02450 41801 10286 20270 30005 40047 84500 333 58010 70000 84618==
41863,2023,07,26,03,00,AAXX 26034 41863 02457 50000 10310 20260 30024 40066 83520 333 20280 58029 70000 83618 85458==
41863,2023,07,26,06,00,AAXX 26064 41863 02557 50000 10340 20250 30015 40056 85400 333 58008 70000 83618 85828==
41863,2023,07,26,09,00,AAXX 26094 41863 02457 50903 10358 20260 39983 40027 85400 333 58003 70000 83618 85825==
41863,2023,07,26,12,00,AAXX 26124 41863 02457 50503 10310 20280 39983 40025 83530 333 10358 58003 70000 83618 85362==
41863,2023,07,26,15,00,AAXX 26154 41863 02450 30902 10305 20260 30000 40042 83500 333 58004 70000 83618==
41863,2023,07,26,18,00,AAXX 26184 41863 02450 50902 10292 20260 30009 40051 83530 333 58005 70000 83618 85362==
41863,2023,07,26,21,00,AAXX 26214 41863 02450 50000 10280 20260 30002 40044 83520 333 59003 70000 83618 85458==
41863,2023,07,27,00,00,AAXX 27004 41863 02456 50000 10280 20260 30002 40044 83530 333 59003 70000 83618 85362==
41863,2023,07,27,03,00,AAXX 27034 41863 02457 50904 10315 20270 30012 40054 83520 333 20274 59003 70000 83618 85458==
41863,2023,07,27,06,00,AAXX 27064 41863 02457 61103 10340 20260 30002 40043 83510 333 59013 70000 83618 86458==
41863,2023,07,27,09,00,AAXX 27094 41863 02457 61804 10350 20270 39975 40016 83510 333 59011 70000 83618 86458==
41863,2023,07,27,12,00,AAXX 27124 41863 02457 30000 10340 20250 39963 40004 83500 333 10353 59020 70000 83618==
41863,2023,07,27,15,00,AAXX 27154 41863 02350 81303 10295 20270 39982 40024 8562/ 333 59018 70000 82709 85617 88457==
41863,2023,07,27,18,00,AAXX 27184 41863 11450 80000 10290 20280 39990 40032 60025 70262 8552/ 333 56999 59019 70017 85618 88458=
41863,2023,07,27,21,00,AAXX 27214 41863 02450 81302 10288 20280 39983 40025 8552/ 333 59019 70017 85618 88458==
41881,2023,07,21,00,00,AAXX 21004 41881 32956 30902 10274 20250 30003 40023 83030 333 56090 58022 70000 83362=
41881,2023,07,21,06,00,AAXX 21063 41881 32457 50903 10325 20270 30025 40045 83520 333 56990 58039 70000 83617 85459=
41881,2023,07,21,12,00,AAXX 21124 41881 11456 40901 10285 20260 30005 40025 60027 70162 84500 333 10340 56900 58045 70022 84618=
41881,2023,07,21,18,00,AAXX 21184 41881 32450 70903 10280 20260 30047 40067 84520 333 56490 58045 70022 84616 87460=
41881,2023,07,22,00,00,AAXX 22004 41881 32456 80902 10265 20260 30044 40064 8552/ 333 56199 58041 70022 85616 88459=
41881,2023,07,22,06,00,AAXX 22064 41881 32457 50903 10320 20260 30056 40075 83520 333 56990 58031 70022 83618 85459=
41881,2023,07,22,12,00,AAXX 22124 41881 32456 60000 10310 20260 30023 40043 83520 333 10335 56390 58018 70000 83618 86460=
41881,2023,07,22,18,00,AAXX 22184 41881 32450 60109 10280 20260 30050 40070 83520 333 56390 58003 70000 83618 86460=
41881,2023,07,23,00,00,AAXX 23004 41881 32456 40901 10273 20260 30052 40072 84500 333 56300 58008 70000 84618=
41881,2023,07,23,06,00,AAXX 23064 41881 32357 51303 10330 20250 30047 40066 83520 333 56990 59009 70000 83618 85459=
41881,2023,07,23,12,00,AAXX 23124 41881 32456 40901 10328 20270 30005 40024 84500 333 10350 56300 59018 70000 84618=
41881,2023,07,23,18,00,AAXX 23184 41881 32950 30000 10295 20290 30032 40052 80001 333 56009 59018 70000 84082=
41881,2023,07,24,00,00,AAXX 24004 41881 32456 50000 10275 20270 30024 40044 83520 333 56990 59028 70000 83618 85459=
41881,2023,07,24,06,00,AAXX 24064 41881 32456 61301 10335 20260 30024 40044 83520 333 56390 59023 70000 83618 86460=
41881,2023,07,24,12,00,AAXX 24124 41881 32456 50000 10330 20240 39990 40009 83520 333 10350 56990 59015 70000 83618 85459=
41881,2023,07,24,18,00,AAXX 24184 41881 32950 30000 10295 20270 30017 40037 80001 333 56009 59015 70000 83082=
41881,2023,07,25,00,00,AAXX 25004 41881 32456 60000 10275 20270 30022 40042 83520 333 56390 59002 70000 83618 86460=
41881,2023,07,25,06,00,AAXX 25064 41881 32457 51301 10340 20260 30026 40046 83520 333 56990 58002 70000 83618 85459=
41881,2023,07,25,12,00,AAXX 25124 41881 32457 51301 10338 20250 30002 40022 82501 333 10350 56909 58012 70000 82618 84082=
41881,2023,07,25,18,00,AAXX 25184 41881 32950 00000 10295 20270 30022 40042 80001 333 56009 58005 70000 83082=
41881,2023,07,26,00,00,AAXX 26004 41881 32456 50000 10275 20260 30028 40048 83520 333 56990 58006 70000 83618 85459=
41881,2023,07,26,06,00,AAXX 26064 41881 32458 40901 10326 20250 30033 40052 84500 333 56900 58007 70000 84618=
41881,2023,07,26,12,00,AAXX 26124 41881 32456 61301 10310 20260 30007 40027 83520 333 10345 56390 58005 70000 83618 86460=
41881,2023,07,26,18,00,AAXX 26184 41881 32450 20902 10282 20260 30029 40049 82500 333 56900 58007 70000 82618=
41881,2023,07,27,00,00,AAXX 27004 41881 32957 50901 10270 20260 30021 40041 83031 333 56099 59007 70000 83362 84082=
41881,2023,07,27,06,00,AAXX 27064 41881 11457 50903 10324 20250 30016 40036 69944 70162 83031 333 56099 59017 70004 83362 84082=
41881,2023,07,27,12,00,AAXX 27124 41881 32456 61403 10308 20250 39985 40005 83520 333 10350 56990 59022 70004 83617 86459=
41881,2023,07,27,18,00,AAXX 27184 41881 32950 70902 10280 20260 30014 40034 84520 333 56490 59015 70004 84618 87460=
41883,2023,07,21,00,00,AAXX 21004 41883 02/40 20000 10288 20270 30005 40025 82030 333 58024 70000 82362==
41883,2023,07,21,03,00,AAXX 21034 41883 02456 60904 10310 20270 30022 40041 83510 333 20282 58028 70000 83616 86459==
41883,2023,07,21,06,00,AAXX 21064 41883 02456 60904 10336 20250 30024 40044 83510 333 58033 70000 83616 86459==
41883,2023,07,21,09,00,AAXX 21094 41883 01350 80902 10270 20250 30013 40033 79593 8532/ 333 58040 70230 85709 88458 81930==
41883,2023,07,21,12,00,AAXX 21124 41883 21350 80902 10276 20270 30005 40025 76196 8572/ 333 10350 58045 60257 70250 85709 88458==
41883,2023,07,21,15,00,AAXX 21154 41883 01330 81304 10287 20270 30043 40063 70262 8562/ 333 58050 70252 85709 88459==
41883,2023,07,21,18,00,AAXX 21184 41883 01330 80000 10274 20260 30045 40065 76166 8572/ 333 58039 70268 85709 88458==
41883,2023,07,21,21,00,AAXX 21214 41883 01430 81302 10278 20270 30043 40063 70261 8452/ 333 58043 70270 84616 88459==
41883,2023,07,22,00,00,AAXX 22004 41883 11/50 60902 10275 20270 30045 40065 69926 70162 86030 333 58040 70270 86362==
41883,2023,07,22,03,00,AAXX 22034 41883 02456 70502 10292 20270 30064 40084 83530 333 20264 58042 70270 83616 87362==
41883,2023,07,22,06,00,AAXX 22064 41883 02456 81802 10310 20260 30059 40079 8552/ 333 58035 70270 85616 88458==
41883,2023,07,22,09,00,AAXX 22094 41883 02456 60000 10330 20260 30034 40054 84830 333 58021 70040 83616 86362==
41883,2023,07,22,12,00,AAXX 22124 41883 02450 50000 10328 20260 30024 40044 82801 333 10341 58019 70020 82616 85080==
41883,2023,07,22,15,00,AAXX 22154 41883 01330 81802 10286 20270 30049 40069 79596 8532/ 333 58006 70028 85709 88458 81930==
41883,2023,07,22,18,00,AAXX 22184 41883 21330 70000 10282 20260 30060 40080 70196 8552/ 333 58015 60018 70012 85709 88458==
41883,2023,07,22,21,00,AAXX 22214 41883 02/30 30000 10280 20260 30053 40073 83030 333 58010 70010 83362==
41883,2023,07,23,00,00,AAXX 23004 41883 02/50 30000 10280 20260 30051 40071 83030 333 58006 70010 83362==
41883,2023,07,23,03,00,AAXX 23034 41883 02456 51304 10320 20250 30060 40080 82530 333 20274 59004 70010 82616 84362==
41883,2023,07,23,06,00,AAXX 23064 41883 02456 31304 10336 20260 30050 40070 83400 333 59009 70010 82616 83828==
41883,2023,07,23,09,00,AAXX 23094 41883 02556 60903 10343 20260 30021 40041 83210 333 59013 70010 83828 86459==
41883,2023,07,23,12,00,AAXX 23124 41883 02450 50000 10332 20250 30009 40029 83801 333 10348 59015 70010 82616 85080==
41883,2023,07,23,15,00,AAXX 23154 41883 02430 30000 10312 20260 30029 40049 83500 333 59020 70000 83616==
41883,2023,07,23,18,00,AAXX 23184 41883 02930 00000 10304 20260 30034 40054 333 59026 70000==
41883,2023,07,23,21,00,AAXX 23214 41883 02930 00000 10294 20270 30027 40047 333 59026 70000==
41883,2023,07,24,00,00,AAXX 24004 41883 02440 60000 10290 20280 30027 40047 83530 333 59024 70000 83616 86362==
41883,2023,07,24,03,00,AAXX 24034 41883 02450 61302 10318 20260 30034 40054 82520 333 20285 59026 70000 82618 86458==
41883,2023,07,24,06,00,AAXX 24064 41883 02450 61302 10340 20240 30025 40045 83520 333 59025 70000 83618 86458==
41883,2023,07,24,09,00,AAXX 24094 41883 02556 42302 10355 20250 30005 40024 82130 333 59016 70000 82828 84362==
41883,2023,07,24,12,00,AAXX 24124 41883 02456 61302 10342 20250 39993 40013 81531 333 10356 59016 70000 81616 83362 86080==
41883,2023,07,24,15,00,AAXX 24154 41883 02/30 40000 10318 20270 30013 40033 84030 333 59016 70000 84362==
41883,2023,07,24,18,00,AAXX 24184 41883 02430 80000 10307 20270 30020 40040 8552/ 333 59014 70000 85616 88459==
41883,2023,07,24,21,00,AAXX 24214 41883 02430 80000 10300 20260 30015 40035 8552/ 333 59012 70000 85616 88459==
41883,2023,07,25,00,00,AAXX 25004 41883 02440 60000 10290 20270 30022 40042 83510 333 59005 70000 83616 86459==
41883,2023,07,25,03,00,AAXX 25034 41883 02456 60602 10320 20270 30033 40052 83511 333 20285 59001 70000 83616 86459==
41883,2023,07,25,06,00,AAXX 25064 41883 02456 50904 10338 20240 30030 40050 84400 333 58005 70000 83616==
41883,2023,07,25,09,00,AAXX 25094 41883 02456 50000 10350 20260 30010 40030 82520 333 58005 70000 82618 84458==
41883,2023,07,25,12,00,AAXX 25124 41883 02450 60902 10344 20270 30003 40023 83520 333 10354 58010 70000 83618 86458==
41883,2023,07,25,15,00,AAXX 25154 41883 02430 21303 10320 20270 30021 40041 82500 333 58008 70000 82616==
41883,2023,07,25,18,00,AAXX 25184 41883 02/30 30902 10302 20260 30027 40047 83030 333 58007 70000 83362==
41883,2023,07,25,21,00,AAXX 25214 41883 02930 00902 10290 20260 30022 40042 333 58007 70000==
41883,2023,07,26,00,00,AAXX 26004 41883 02456 51302 10285 20260 30030 40050 82530 333 58008 70000 82616 85362==
41883,2023,07,26,03,00,AAXX 26034 41883 02456 61304 10320 20270 30043 40063 84810 333 20280 58010 70000 83616 86459==
41883,2023,07,26,06,00,AAXX 26064 41883 02456 60905 10330 20260 30035 40055 84810 333 58005 70000 83616 86459==
41883,2023,07,26,09,00,AAXX 26094 41883 02456 51302 10342 20250 30009 40029 83810 333 59001 70000 82616 85459==
41883,2023,07,26,12,00,AAXX 26124 41883 02456 81802 10320 20260 30008 40028 8552/ 333 10350 58005 70000 85618 88459==
41883,2023,07,26,15,00,AAXX 26154 41883 02430 80902 10294 20260 30027 40047 8562/ 333 58006 70000 82710 84618 88458==
41883,2023,07,26,18,00,AAXX 26184 41883 02430 60902 10294 20260 30033 40053 83520 333 58006 70000 83618 86458==
41883,2023,07,26,21,00,AAXX 26214 41883 02430 20000 10284 20260 30023 40043 82500 333 58001 70000 82618==
41883,2023,07,27,00,00,AAXX 27004 41883 02340 60902 10284 20260 30024 40044 83520 333 59006 70000 83618 86458==
41883,2023,07,27,03,00,AAXX 27034 41883 02456 60903 10308 20280 30033 40053 84810 333 20278 59010 70000 83618 86459==
41883,2023,07,27,06,00,AAXX 27064 41883 02356 71302 10324 20260 30021 40041 85620 333 59014 70000 82709 84615 87458==
41883,2023,07,27,09,00,AAXX 27094 41883 02556 20904 10345 20250 39997 40017 82100 333 59012 70000 82828==
41883,2023,07,27,12,00,AAXX 27124 41883 01450 71302 10300 20270 39992 40012 76121 85520 333 10350 59016 70010 85616 87458==
41883,2023,07,27,15,00,AAXX 27154 41883 01430 60000 10300 20270 30003 40023 70162 83510 333 59024 70012 83616 86459==
41883,2023,07,27,18,00,AAXX 27184 41883 12430 60000 10290 20270 30010 40030 69926 83510 333 59023 70012 83616 86459==
41883,2023,07,27,21,00,AAXX 27214 41883 02430 60000 10284 20260 30001 40021 83510 333 59022 70012 83616 86459==
41886,2023,07,21,00,00,AAXX 21004 41886 02456 70000 10282 20260 30012 40032 83520 333 58020 70000 83618 87460==
41886,2023,07,21,03,00,AAXX 21034 41886 02457 80000 10315 20270 30032 40052 8351/ 333 20278 58028 70000 83618 88460==
41886,2023,07,21,06,00,AAXX 21063 41886 21457 70000 10320 20270 30033 40053 70162 84410 333 58034 69925 70002 83618 87460==
41886,2023,07,21,09,00,AAXX 21094 41886 02458 30000 10343 20250 30012 40032 82430 333 58033 70002 81618 83365==
41886,2023,07,21,12,00,AAXX 21124 41886 02457 50000 10335 20270 30007 40027 82430 333 10347 58038 70002 81618 85365==
41886,2023,07,21,15,00,AAXX 21154 41886 02450 20000 10302 20270 30045 40065 82500 333 58046 70002 82618==
41886,2023,07,21,18,00,AAXX 21184 41886 01450 70000 10280 20260 30056 40076 71321 83320 333 58042 70002 83618 87460 81930==
41886,2023,07,22,00,00,AAXX 22004 41886 01456 80000 10275 20260 30054 40074 72162 8432/ 333 58042 70008 84616 88458 81930==
41886,2023,07,22,03,00,AAXX 22034 41886 01456 70000 10275 20270 30072 40092 76062 84320 333 20268 58040 70016 84616 87458 81930==
41886,2023,07,22,06,00,AAXX 22064 41886 21457 60000 10320 20270 30064 40084 70162 83430 333 58031 69968 70014 82618 86363==
41886,2023,07,22,09,00,AAXX 22094 41886 02558 40000 10345 20260 30038 40058 82230 333 58026 70014 82825 84365==
41886,2023,07,22,12,00,AAXX 22124 41886 02457 70000 10330 20270 30030 40050 83410 333 10345 58023 70014 82618 87460==
41886,2023,07,22,15,00,AAXX 22154 41886 01450 70000 10310 20280 30053 40073 71322 83320 333 58008 70014 83618 87460 81930==
41886,2023,07,22,18,00,AAXX 22184 41886 02450 70000 10300 20290 30066 40086 84520 333 58010 70014 84618 87460==
41886,2023,07,22,21,00,AAXX 22214 41886 02450 80000 10292 20280 30063 40083 8452/ 333 58008 70014 84616 88458==
41886,2023,07,23,00,00,AAXX 23004 41886 01456 80000 10285 20280 30061 40081 76022 8552/ 333 58007 70001 85616 88458==
41886,2023,07,23,03,00,AAXX 23034 41886 01456 80000 10295 20280 30070 40090 76066 8451/ 333 20275 59002 70005 84618 88460==
41886,2023,07,23,06,00,AAXX 23064 41886 21458 51304 10330 20250 30058 40078 70162 82430 333 59006 69948 70005 81618 85365==
41886,2023,07,23,09,00,AAXX 23094 41886 02558 31604 10335 20260 30033 40053 81230 333 59005 70005 81825 83365==
41886,2023,07,23,12,00,AAXX 23124 41886 02457 60000 10335 20270 30015 40035 83430 333 10345 59015 70005 82618 86363==
41886,2023,07,23,15,00,AAXX 23154 41886 02450 50000 10305 20280 30036 40056 82530 333 59017 70005 82618 85365==
41886,2023,07,23,18,00,AAXX 23184 41886 01450 20000 10295 20290 30040 40060 71321 82300 333 59026 70005 82618 81930==
41886,2023,07,23,21,00,AAXX 23214 41886 01450 80000 10288 20280 30035 40055 71321 8331/ 333 59028 70005 83618 88460 81930==
41886,2023,07,24,00,00,AAXX 24004 41886 02456 80000 10280 20270 30030 40050 8351/ 333 59031 70004 83618 88460==
41886,2023,07,24,03,00,AAXX 24034 41886 42456 70000 10304 20260 30041 40061 81570 333 20280 59029 81618 84460 85362==
41886,2023,07,24,06,00,AAXX 24064 41886 02457 70000 10330 20260 30037 40057 83450 333 59021 70000 82618 85363==
41886,2023,07,24,09,00,AAXX 24094 41886 02458 50000 10345 20270 30012 40032 83430 333 59021 70000 82618 85362==
41886,2023,07,24,12,00,AAXX 24124 41886 02457 60000 10330 20270 30000 40020 83430 333 10347 59015 70000 82618 85362==
41886,2023,07,24,15,00,AAXX 24154 41886 02456 50000 10302 20270 30022 40042 82530 333 59014 70000 82618 85362==
41886,2023,07,24,18,00,AAXX 24184 41886 02450 50000 10295 20280 30028 40048 82530 333 59012 70000 82618 86362==
41886,2023,07,24,21,00,AAXX 24214 41886 02450 60000 10290 20280 30027 40048 82510 333 59012 70000 82618 85460==
41886,2023,07,25,00,00,AAXX 25004 41886 02456 70000 10283 20270 30030 40050 83310 333 58000 70000 83618 87460 81930==
41886,2023,07,25,03,00,AAXX 25034 41886 02456 80000 10290 20270 30044 40064 8352/ 333 20282 58003 70000 83618 88460==
41886,2023,07,25,06,00,AAXX 25064 41886 02457 60000 10328 20250 30036 40056 84470 333 59001 70000 82618 85460==
41886,2023,07,25,09,00,AAXX 25094 41886 02458 60000 10345 20270 30015 40035 83470 333 58003 70000 83618 85460==
41886,2023,07,25,12,00,AAXX 25124 41886 02457 70000 10330 20260 30011 40031 82470 333 10350 58011 70000 81618 84460 85363==
41886,2023,07,25,15,00,AAXX 25154 41886 02450 71804 10307 20260 30034 40054 84570 333 58012 70000 84616 86460==
41886,2023,07,25,18,00,AAXX 25184 41886 02450 70000 10302 20250 30038 40058 83570 333 58010 70000 83616 86460==
41886,2023,07,26,00,00,AAXX 26004 41886 02456 70000 10284 20260 30044 40064 81570 333 58014 70000 81618 84460 85365==
41886,2023,07,26,03,00,AAXX 26034 41886 02457 60000 10310 20250 30053 40073 82450 333 20280 58009 70000 81618 85365==
41886,2023,07,26,06,00,AAXX 26064 41886 02458 61403 10330 20260 30042 40062 84450 333 58006 70000 82618 85365==
41886,2023,07,26,09,00,AAXX 26094 41886 02457 71301 10332 20250 30019 40039 84470 333 58004 70000 82618 87460==
41886,2023,07,26,12,00,AAXX 26124 41886 01456 81302 10300 20260 30017 40037 72122 8432/ 333 58006 70000 83618 88460 81930==
41886,2023,07,26,15,00,AAXX 26154 41886 41450 70000 10285 20280 30042 40062 71392 83310 333 58008 83618 87460 81930==
41886,2023,07,26,18,00,AAXX 26184 41886 41450 70000 10280 20270 30042 40062 71392 83310 333 58004 83618 87460 81930==
41886,2023,07,26,21,00,AAXX 26214 41886 42450 60000 10278 20270 30037 40057 82510 333 59001 82618 85460==
41886,2023,07,27,00,00,AAXX 27004 41886 42456 70000 10277 20270 30033 40053 83510 333 59011 83618 87460==
41886,2023,07,27,03,00,AAXX 27034 41886 01456 80000 10275 20270 30047 40067 76122 8432/ 333 20275 59006 70025 83618 88460 81930==
41886,2023,07,27,06,00,AAXX 27064 41886 21457 71304 10328 20260 30032 40052 70162 84470 333 59010 60035 70025 82618 86460==
41886,2023,07,27,09,00,AAXX 27094 41886 02457 71303 10320 20260 30010 40030 84470 333 59009 70025 83618 86460==
41886,2023,07,27,12,00,AAXX 27124 41886 21456 70000 10300 20270 30001 40021 70262 84470 333 10333 59016 60155 70170 83618 86460==
41886,2023,07,27,15,00,AAXX 27154 41886 02456 60000 10295 20270 30017 40037 84470 333 59024 70170 83618 85460==
41886,2023,07,27,21,00,AAXX 27214 41886 02440 60000 10280 20260 30018 40038 84470 333 59019 70170 83616 85458==
41888,2023,07,21,00,00,AAXX 21004 41888 31450 80902 10284 20260 30020 40030 8432/ 333 56999 58021 70000 83618 81930 88460=
41888,2023,07,21,06,00,AAXX 21063 41888 32456 70502 10326 20270 30041 40051 83410 333 56990 58037 70000 82618 87460=
41888,2023,07,21,12,00,AAXX 21124 41888 32558 50501 10320 20260 30017 40027 82101 333 10345 56909 58038 70000 82825 85080=
41888,2023,07,22,00,00,AAXX 22004 41888 11330 81805 10254 20254 30072 40082 60409 79596 8592/ 333 56499 58052 70400 82709 83612 81927 88558=
41888,2023,07,22,06,00,AAXX 22064 41888 11456 50502 10315 20270 30069 40079 60136 70196 83410 333 56990 58028 70530 82618 85460=
41888,2023,07,22,12,00,AAXX 22124 41888 32456 71201 10326 20250 30040 40050 83410 333 10350 56990 58023 70530 82618 87460=
41888,2023,07,22,18,00,AAXX 22184 41888 32450 71401 10294 20260 30071 40081 83310 333 56990 58011 70530 82618 81928 87460=
41888,2023,07,23,00,00,AAXX 23004 41888 11350 80901 10279 20270 30072 40082 60024 79596 8392/ 333 56999 58000 70148 81710 83616 88458=
41888,2023,07,23,06,00,AAXX 23064 41888 11457 60903 10320 20260 30063 40073 60016 70196 84410 333 56990 59006 70030 83618 86460=
41888,2023,07,23,12,00,AAXX 23124 41888 32457 50901 10323 20240 30022 40032 83410 333 10337 56990 59018 70030 82618 85460=
41888,2023,07,23,18,00,AAXX 23184 41888 32450 50000 10295 20280 30042 40052 82510 333 56990 59029 70030 82618 85460=
41888,2023,07,24,00,00,AAXX 24004 41888 32450 70000 10284 20270 30037 40047 82510 333 56990 59035 70012 82618 87459=
41888,2023,07,24,06,00,AAXX 24064 41888 32457 60602 10323 20250 30044 40054 84410 333 56990 59019 70000 83618 86460=
41888,2023,07,24,12,00,AAXX 24124 41888 32457 50901 10320 20260 30008 40018 81531 333 10338 56999 59014 70000 81618 83365 85080=
41888,2023,07,24,18,00,AAXX 24184 41888 32450 50000 10292 20270 30032 40042 82510 333 56990 59010 70000 82618 85460=
41888,2023,07,25,00,00,AAXX 25004 41888 31340 80908 10281 20260 30042 40052 71792 8492/ 333 56999 58005 70000 82708 83616 81928 88458=
41888,2023,07,25,06,00,AAXX 25064 41888 11457 51201 10324 20250 30043 40053 60036 70196 84410 333 56990 59001 70030 83618 85460=
41888,2023,07,25,12,00,AAXX 25124 41888 32557 71201 10320 20260 30016 40026 81210 333 10340 56990 58008 70030 81820 87460=
41888,2023,07,25,18,00,AAXX 25184 41888 32450 81801 10295 20270 30045 40055 8252/ 333 56999 58013 70030 82618 88459=
41888,2023,07,26,00,00,AAXX 26004 41888 32456 71401 10285 20260 30046 40056 83310 333 56990 58004 70030 82618 81930 87460=
41888,2023,07,26,06,00,AAXX 26064 41888 32457 60903 10324 20240 30050 40060 84410 333 56990 58007 70000 83618 86460=
41888,2023,07,26,12,00,AAXX 26124 41888 32356 70903 10317 20260 30021 40031 84310 333 10335 56990 58005 70000 82710 83616 81930 87458=
41888,2023,07,26,18,00,AAXX 26184 41888 11340 80501 10275 20270 30047 40057 60298 71796 8492/ 333 56999 58002 70293 82710 83616 81928 88458=
41888,2023,07,27,00,00,AAXX 27004 41888 32456 81801 10280 20260 30040 40050 70292 8432/ 333 56999 59006 70293 83618 81930 88460=
41888,2023,07,27,06,00,AAXX 27064 41888 32457 81803 10318 20260 30041 40051 84410 333 56990 59009 70293 83618 86460=
41888,2023,07,27,12,00,AAXX 27124 41888 32356 81203 10305 20260 30009 40019 8432/ 333 10325 56999 59012 70293 82710 83616 81930 88458=
41888,2023,07,27,18,00,AAXX 27184 41888 32450 71402 10286 20270 30024 40034 70392 83510 333 56990 59023 70000 83618 87460=
41891,2023,07,21,00,00,AAXX 21004 41891 01430 80904 10270 20250 30000 40038 70522 8532/ 333 58022 70060 85710 88460 81930==
41891,2023,07,21,03,00,AAXX 21034 41891 01435 80904 10284 20250 30017 40055 70522 8532/ 333 20261 58029 70060 82710 84615 88459 81930==
41891,2023,07,21,06,00,AAXX 21064 41891 01320 80506 10260 20250 30024 40062 76362 8632/ 333 58047 70260 86708 88458 81925==
41891,2023,07,21,09,00,AAXX 21094 41891 01440 60507 10315 20250 39992 40030 72966 83370 333 58039 70466 83615 85460 81930==
41891,2023,07,21,12,00,AAXX 21124 41891 11456 42905 10335 20230 39994 40031 60151 70562 82370 333 10350 58040 70466 82616 83460 81930==
41891,2023,07,21,15,00,AAXX 21154 41891 01435 80903 10285 20260 30032 40070 70511 8532/ 333 58040 70406 81710 84615 88459 81930==
41891,2023,07,21,18,00,AAXX 21184 41891 01430 81803 10275 20260 30036 40074 70521 8532/ 333 58038 70406 81710 84615 88459 81930==
41891,2023,07,21,21,00,AAXX 21214 41891 01430 81203 10275 20260 30034 40072 70522 8532/ 333 58044 70406 81710 84615 88459 81930==
41891,2023,07,22,00,00,AAXX 22004 41891 01435 80904 10273 20260 30040 40078 70522 8532/ 333 58040 70406 81710 84615 88459 81930==
41891,2023,07,22,03,00,AAXX 22034 41891 01440 62704 10334 20260 30051 40089 70522 83340 333 20253 58034 70406 83615 85365 81930==
41891,2023,07,22,06,00,AAXX 22064 41891 01445 63602 10338 20260 30035 40072 70522 83370 333 58011 70146 83615 85460 81930==
41891,2023,07,22,09,00,AAXX 22094 41891 01456 62905 10338 20230 30018 40055 70522 83370 333 58026 70000 83615 85460 81930==
41891,2023,07,22,12,00,AAXX 22124 41891 01456 83605 10325 20260 30016 40053 70522 8532/ 333 10358 58022 70000 82710 84615 88460 81930==
41891,2023,07,22,15,00,AAXX 22154 41891 01430 80802 10303 20270 30035 40073 70522 83310 333 58003 70000 82616 84460 81930==
41891,2023,07,22,18,00,AAXX 22184 41891 01430 80804 10290 20260 30043 40081 70522 8532/ 333 58007 70000 81710 83616 88460 81930==
41891,2023,07,22,21,00,AAXX 22214 41891 01330 80804 10265 20260 30041 40079 79596 8632/ 333 58007 70120 85708 88458 81928==
41891,2023,07,23,00,00,AAXX 23004 41891 21330 80804 10257 20250 30048 40086 79596 8632/ 333 58008 60429 70420 85708 88458 81928==
41891,2023,07,23,03,00,AAXX 23034 41891 01440 70902 10300 20250 30052 40090 70596 84370 333 20252 58001 70430 84615 86460 81930==
41891,2023,07,23,06,00,AAXX 23064 41891 11445 61302 10327 20260 30036 40074 60016 70596 83340 333 58001 70430 83615 85365 81930==
41891,2023,07,23,09,00,AAXX 23094 41891 01456 70507 10325 20260 30009 40046 70522 84340 333 59009 70430 84615 86365 81930==
41891,2023,07,23,12,00,AAXX 23124 41891 01450 70905 10308 20270 39995 40033 70522 84370 333 10338 59021 70430 84615 86460 81930==
41891,2023,07,23,15,00,AAXX 23154 41891 01440 63203 10293 20260 30016 40054 70511 83340 333 59019 70430 83615 85365 81930==
41891,2023,07,23,18,00,AAXX 23184 41891 01440 63503 10282 20260 30012 40050 70521 83340 333 59031 70430 83615 85365 81930==
41891,2023,07,23,21,00,AAXX 23214 41891 42430 80603 10260 20250 30016 40054 59025 88459==
41891,2023,07,24,00,00,AAXX 24004 41891 01320 80903 10256 20250 30018 40056 76162 8632/ 333 59030 70130 86708 88458 81925==
41891,2023,07,24,03,00,AAXX 24034 41891 01435 80902 10274 20260 30028 40066 72166 8532/ 333 20256 59024 70138 82710 84615 88459 81930==
41891,2023,07,24,06,00,AAXX 24064 41891 11440 60502 10304 20250 30022 40060 60016 70562 83370 333 59014 70138 83615 85460 81930==
41891,2023,07,24,09,00,AAXX 24094 41891 01456 60502 10332 20260 39994 40031 70522 83340 333 59015 70138 83615 85460 81930==
41891,2023,07,24,12,00,AAXX 24124 41891 01456 40503 10320 20260 39982 40019 70522 82340 333 10338 59013 70138 82615 84460 81930==
41891,2023,07,24,15,00,AAXX 24154 41891 01430 80404 10292 20270 30002 40040 70522 82310 333 59014 70138 81616 83460 81930==
41891,2023,07,24,18,00,AAXX 24184 41891 01930 00404 10282 20260 30002 40040 70521 333 59014 70138==
41891,2023,07,24,21,00,AAXX 24214 41891 01430 82702 10260 20250 30006 40044 70562 8532/ 333 59010 70138 85710 88460 81930==
41891,2023,07,25,00,00,AAXX 25004 41891 01330 82701 10250 20240 30021 40059 70562 8632/ 333 58003 70302 85708 88458 81928==
41891,2023,07,25,03,00,AAXX 25034 41891 01440 70902 10280 20250 30027 40065 72166 84370 333 20250 59001 70303 84615 86460 81930==
41891,2023,07,25,06,00,AAXX 25064 41891 11445 61302 10314 20250 30018 40056 60016 70562 83340 333 59004 70303 83615 85365 81930==
41891,2023,07,25,09,00,AAXX 25094 41891 01450 60000 10350 20260 39990 40027 70522 83340 333 59004 70303 83615 85365 81930==
41891,2023,07,25,12,00,AAXX 25124 41891 01435 82302 10318 20260 39988 40025 70522 8532/ 333 10355 58006 70303 81710 84615 88459 81930==
41891,2023,07,25,15,00,AAXX 25154 41891 01435 62702 10300 20270 30010 40048 70522 83340 333 58008 70303 83615 85365 81930==
41891,2023,07,25,18,00,AAXX 25184 41891 01430 82503 10285 20260 30018 40056 70522 8532/ 333 58016 70303 81710 84615 88459 81930==
41891,2023,07,25,21,00,AAXX 25214 41891 01430 80903 10280 20260 30022 40060 70522 8532/ 333 58016 70303 82710 84615 88459 81930==
41891,2023,07,26,00,00,AAXX 26004 41891 01430 80904 10275 20260 30026 40064 70522 8532/ 333 58005 70013 82710 84615 88459 81930==
41891,2023,07,26,03,00,AAXX 26034 41891 01440 70902 10310 20260 30037 40075 70522 84370 333 20274 58010 70000 84615 86460 81930==
41891,2023,07,26,06,00,AAXX 26064 41891 01445 61302 10322 20240 30027 40065 70522 83370 333 58009 70000 83615 85460 81930==
41891,2023,07,26,09,00,AAXX 26094 41891 01450 62704 10337 20270 30002 40039 70522 83370 333 58012 70000 83615 85460 81930==
41891,2023,07,26,12,00,AAXX 26124 41891 01435 80502 10314 20260 39999 40037 70522 8532/ 333 10347 58011 70000 81710 84615 88459 81930==
41891,2023,07,26,15,00,AAXX 26154 41891 01330 81002 10267 20267 30030 40058 79522 8632/ 333 58020 70390 85708 88458 81928==
41891,2023,07,26,18,00,AAXX 26184 41891 21330 80402 10265 20260 30028 40066 76096 8532/ 333 58010 60419 70410 84708 88458 81928==
41891,2023,07,26,21,00,AAXX 26214 41891 01430 80902 10270 20260 30017 40055 70522 8532/ 333 59005 70410 81710 88459 81930==
41891,2023,07,27,00,00,AAXX 27004 41891 01430 80902 10272 20260 30018 40056 70522 8532/ 333 59010 70410 81710 88459 81930==
41891,2023,07,27,03,00,AAXX 27034 41891 01440 81802 10300 20260 30032 40070 70522 8532/ 333 20264 59005 70410 82710 84615 88459 81930==
41891,2023,07,27,06,00,AAXX 27064 41891 01440 71303 10308 20250 30021 40059 70522 84370 333 59006 70410 84615 86460 81930==
41891,2023,07,27,09,00,AAXX 27094 41891 01440 73606 10304 20250 39996 40033 72162 84370 333 59006 70424 84616 86460 81930==
41891,2023,07,27,12,00,AAXX 27124 41891 21440 60505 10305 20270 39989 40027 70566 84340 333 10315 59010 60047 70444 84615 86460 81930==
41891,2023,07,27,15,00,AAXX 27154 41891 01430 80503 10280 20260 30002 40040 70522 8532/ 333 59028 70054 82710 84615 88459 81930==
41891,2023,07,27,18,00,AAXX 27184 41891 11430 81803 10278 20260 30002 40040 60035 70562 8532/ 333 56999 59026 70064 82710 84615 81930 88459=
41891,2023,07,27,21,00,AAXX 27214 41891 01430 81803 10276 20260 39994 40032 70522 8532/ 333 59023 70064 82710 84615 88459 81930==
41895,2023,07,21,00,00,AAXX 21004 41895 02950 40904 10275 20270 39997 40019 80001 333 58026 70000 84080==
41895,2023,07,21,03,00,AAXX 21034 41895 02457 60904 10314 20260 30014 40036 84410 333 20273 58029 70000 83616 86458==
41895,2023,07,21,06,00,AAXX 21063 41895 02456 70903 10350 20270 30010 40032 84470 333 58030 70000 83616 85458==
41895,2023,07,21,09,00,AAXX 21094 41895 02456 70904 10350 20270 39995 40017 84470 333 58032 70000 83616 85458==
41895,2023,07,21,12,00,AAXX 21124 41895 02456 40904 10334 20260 30004 40026 84400 333 10360 58050 70000 82617 83825==
41895,2023,07,21,15,00,AAXX 21154 41895 02450 60902 10300 20220 30020 40042 83520 333 58036 70000 83616 86458==
41895,2023,07,21,18,00,AAXX 21184 41895 21450 60902 10286 20280 30037 40059 70262 83520 333 58037 60065 70006 83616 86458==
41895,2023,07,22,00,00,AAXX 22004 41895 02450 60901 10278 20260 30040 40062 83520 333 58043 70006 83616 86458==
41895,2023,07,22,03,00,AAXX 22034 41895 02457 50904 10310 20270 30054 40076 84801 333 20276 58040 70006 82616 83825==
41895,2023,07,22,06,00,AAXX 22064 41895 02457 60906 10344 20270 30045 40067 84411 333 58035 70006 83616 85458==
41895,2023,07,22,09,00,AAXX 22094 41895 02457 60905 10367 20270 30027 40048 84411 333 58032 70006 83616 85458==
41895,2023,07,22,12,00,AAXX 22124 41895 02456 50904 10338 20270 30009 40031 84420 333 10368 58005 70006 83616 85458==
41895,2023,07,22,15,00,AAXX 22154 41895 02950 00901 10298 20270 30036 40058 333 58016 70006==
41895,2023,07,22,18,00,AAXX 22184 41895 02450 30902 10290 20260 30051 40073 83500 333 58014 70000 83616==
41895,2023,07,22,21,00,AAXX 22214 41895 02450 50902 10276 20270 30048 40071 83510 333 58015 70000 83616 85458==
41895,2023,07,23,00,00,AAXX 23004 41895 02450 50902 10272 20260 30045 40067 83510 333 58005 70000 83616 85458==
41895,2023,07,23,03,00,AAXX 23034 41895 02457 31303 10320 20270 30053 40078 83401 333 20270 59001 70000 82616==
41895,2023,07,23,06,00,AAXX 23064 41895 02457 41305 10342 20270 30041 40063 84400 333 59004 70000 81616 83820==
41895,2023,07,23,09,00,AAXX 23094 41895 02457 41304 10370 20270 30014 40035 84400 333 59013 70000 82617 83825==
41895,2023,07,23,12,00,AAXX 23124 41895 02457 31306 10340 20270 30003 40024 83400 333 10374 59006 70000 81617 83825==
41895,2023,07,23,15,00,AAXX 23154 41895 02950 01302 10310 20270 30025 40047 333 59011 70000==
41895,2023,07,23,18,00,AAXX 23184 41895 02950 01301 10295 20270 30029 40051 333 59022 70000==
41895,2023,07,23,21,00,AAXX 23214 41895 02950 01301 10290 20270 30022 40044 333 59026 70000==
41895,2023,07,24,00,00,AAXX 24004 41895 02956 31302 10280 20270 30022 40044 80001 333 59023 70000 83074==
41895,2023,07,24,03,00,AAXX 24034 41895 02457 60903 10320 20270 30029 40051 83401 333 20275 59024 70000 82616 84074==
41895,2023,07,24,06,00,AAXX 24064 41895 02557 50904 10360 20280 30020 40041 82101 333 59021 70000 82825 84074==
41895,2023,07,24,09,00,AAXX 24094 41895 02457 30902 10370 20270 39998 40020 83520 333 59016 70000 83616==
41895,2023,07,24,12,00,AAXX 24124 41895 02456 30901 10350 20270 39988 40010 83500 333 10374 59015 70000 83616==
41895,2023,07,24,15,00,AAXX 24154 41895 02450 60901 10310 20270 30011 40033 83520 333 59014 70000 83616 86458==
41895,2023,07,24,18,00,AAXX 24184 41895 02450 60901 10300 20270 30017 40039 83520 333 59012 70000 83616 86458==
41895,2023,07,24,21,00,AAXX 24214 41895 02450 60901 10286 20270 30016 40038 83520 333 59006 70000 83616 86458==
41895,2023,07,25,00,00,AAXX 25004 41895 02450 60901 10276 20270 30015 40037 83520 333 59007 70000 83616 86458==
41895,2023,07,25,03,00,AAXX 25034 41895 02457 60904 10327 20270 30024 40046 83401 333 20272 59005 70000 82616 84074==
41895,2023,07,25,06,00,AAXX 25064 41895 02457 60904 10360 20260 30022 40043 83401 333 58002 70000 82616 84074==
41895,2023,07,25,09,00,AAXX 25094 41895 02457 60903 10372 20250 39998 40020 84401 333 58000 70000 83616 84074==
41895,2023,07,25,12,00,AAXX 25124 41895 02456 40902 10335 20280 39995 40017 84500 333 10378 58007 70000 84616==
41895,2023,07,25,15,00,AAXX 25154 41895 02450 41302 10302 20270 30012 40034 84500 333 58001 70000 84616==
41895,2023,07,25,18,00,AAXX 25184 41895 02450 41302 10287 20260 30021 40043 84500 333 58004 70000 84616==
41895,2023,07,25,21,00,AAXX 25214 41895 02450 50902 10274 20260 30023 40045 83510 333 58007 70000 83616 85458==
41895,2023,07,26,00,00,AAXX 26004 41895 02450 50902 10266 20260 30024 40046 83510 333 58009 70000 83616 85458==
41895,2023,07,26,03,00,AAXX 26034 41895 02457 50904 10326 20250 30029 40051 83401 333 20265 58005 70000 82616 83074==
41895,2023,07,26,06,00,AAXX 26064 41895 02457 50906 10344 20250 30025 40047 83401 333 58003 70000 82616 83820==
41895,2023,07,26,09,00,AAXX 26094 41895 01457 71304 10340 20270 30006 40028 76062 84520 333 58008 70036 84615 87458==
41895,2023,07,26,12,00,AAXX 26124 41895 11456 61304 10310 20270 30006 40027 60041 70162 84520 333 10350 58011 70036 84615 86458==
41895,2023,07,26,15,00,AAXX 26154 41895 01450 50000 10285 20280 30022 40044 70162 83510 333 58010 70042 83616 85458==
41895,2023,07,26,18,00,AAXX 26184 41895 11450 51304 10280 20270 30025 40047 60016 70262 83520 333 58004 70042 83616 85458==
41895,2023,07,26,21,00,AAXX 26214 41895 02450 31302 10275 20270 30016 40038 83500 333 59004 70042 83616==
41895,2023,07,27,00,00,AAXX 27004 41895 02950 30902 10270 20270 30017 40039 80001 333 59007 70042 83074==
41895,2023,07,27,03,00,AAXX 27034 41895 02457 61304 10320 20270 30027 40049 85430 333 20267 59002 70042 82616 83820==
41895,2023,07,27,06,00,AAXX 27064 41895 02557 51305 10350 20270 30014 40036 82230 333 59011 70042 82825 83362==
41895,2023,07,27,09,00,AAXX 27094 41895 02457 50902 10350 20270 39993 40014 83520 333 59013 70000 85458 83616==
41895,2023,07,27,12,00,AAXX 27124 41895 02456 50902 20270 39984 40006 83520 333 10365 59022 70006 85458 83616==
41895,2023,07,27,15,00,AAXX 27154 41895 02450 50902 10300 20270 30000 40022 83520 333 59022 70000 85458 83616==
41895,2023,07,27,18,00,AAXX 27184 41895 32450 60901 10292 20270 30008 40030 84520 333 56990 59017 70000 84616 86458=
41895,2023,07,27,21,00,AAXX 27214 41895 02450 60901 10286 20280 30015 40037 84520 333 59001 70000 84616 86458==
41897,2023,07,21,00,00,AAXX 21004 41897 32940 00902 10280 20270 30008 40021 333 58018 70000=
41897,2023,07,21,06,00,AAXX 21063 41897 32450 50902 10320 20260 30031 40043 82530 333 56290 58039 70000 82618 85362=
41897,2023,07,21,12,00,AAXX 21124 41897 32450 50902 10306 20270 30012 40025 82510 333 10345 56990 58042 70000 82618 85458=
41897,2023,07,21,18,00,AAXX 21184 41897 32450 50901 10285 20270 30048 40061 82530 333 56990 58034 70000 82618 85361=
41897,2023,07,22,00,00,AAXX 22004 41897 32450 40901 10275 20270 30051 40064 81530 333 56990 58043 70000 81618 84361=
41897,2023,07,22,06,00,AAXX 22064 41897 32456 40902 10325 20250 30060 40073 81530 333 56990 58029 70000 81618 84358=
41897,2023,07,22,12,00,AAXX 22124 41897 32456 41801 10329 20250 30030 40043 81530 333 10336 56990 58018 70000 81618 84361=
41897,2023,07,22,18,00,AAXX 22184 41897 32450 40000 10288 20260 30064 40077 81530 56990 58020 70000 81618 84361=
41897,2023,07,23,00,00,AAXX 23004 41897 32450 50000 10276 20260 30061 40074 81530 333 56990 58010 70000 81618 85361=
41897,2023,07,23,06,00,AAXX 23064 41897 32456 41301 10335 20270 30053 40066 81510 333 56990 59007 70000 81618 84461=
41897,2023,07,23,12,00,AAXX 23124 41897 32456 31301 10330 20250 30015 40028 83030 333 10346 56090 59015 70000 83361=
41897,2023,07,23,18,00,AAXX 23184 41897 32950 00000 10290 20270 30040 40053 333 59024 70000=
41897,2023,07,24,00,00,AAXX 24004 41897 32450 51801 10280 20260 30032 40045 81530 333 56990 59029 70000 81618 85361=
41897,2023,07,24,06,00,AAXX 24064 41897 32456 51801 10340 20260 30033 40046 81530 333 56990 59020 70000 81618 85361=
41897,2023,07,24,12,00,AAXX 24124 41897 32956 51001 10348 20250 30002 40015 85030 333 10350 56090 59013 70000 85362=
41897,2023,07,24,18,00,AAXX 24184 41897 32945 01501 10295 20270 30025 40038 333 59015 70000=
41897,2023,07,25,00,00,AAXX 25004 41897 32940 50000 10277 20270 30030 40043 85030 333 56090 59002 70000 85360=
41897,2023,07,25,06,00,AAXX 25064 41897 32456 31001 10330 20250 30048 40061 83400 333 56900 58015 70000 82617 83828=
41897,2023,07,25,12,00,AAXX 25124 41897 32956 31301 10328 20260 30011 40024 83030 333 10350 56090 58009 70000 83362=
41897,2023,07,25,18,00,AAXX 25184 41897 32945 31704 10290 20250 30034 40046 83030 333 56090 58009 70000 83362=
41897,2023,07,26,00,00,AAXX 26004 41897 32935 40901 10275 20260 30035 40048 84030 333 56090 58005 70000 84362=
41897,2023,07,26,06,00,AAXX 26064 41897 32456 31002 10333 20250 30038 40051 83400 333 56900 59010 70000 82617 83828=
41897,2023,07,26,12,00,AAXX 26124 41897 11456 51503 10295 20260 30017 40029 60014 70326 82530 333 10342 56990 58006 70007 82616 85362=
41897,2023,07,26,18,00,AAXX 26184 41897 32445 70902 10280 20260 30039 40052 83530 333 56990 58005 70007 83616 86360=
41897,2023,07,27,00,00,AAXX 27004 41897 32435 61301 10275 20270 30028 40041 83530 333 56990 59007 70007 83616 86360=
41897,2023,07,27,06,00,AAXX 27064 41897 32456 31502 10332 20250 30026 40038 83500 333 56900 59012 70000 82617 83828=
41897,2023,07,27,12,00,AAXX 27124 41897 32450 61604 10310 20260 39996 40009 83530 333 10345 56990 59021 70000 83616 86360=
41897,2023,07,27,18,00,AAXX 27184 41897 32945 31501 10287 20270 30018 40031 83030 333 56090 59021 70000 83362=
41902,2023,07,21,00,00,AAXX 21004 41902 32430 60903 10275 20270 30014 40023 83530 333 56990 58017 70290 83613 85362=
41902,2023,07,21,06,00,AAXX 21063 41902 32450 40902 10344 20270 30033 40041 82530 333 56990 58033 70290 82614 83362=
41902,2023,07,21,12,00,AAXX 21124 41902 32450 40902 10310 20270 30016 40024 82530 333 10350 56990 58037 70290 82614 83362=
41902,2023,07,22,00,00,AAXX 22004 41902 32440 80901 10285 20270 30051 40060 8342/ 333 56999 58037 70050 82614 88459=
41902,2023,07,22,06,00,AAXX 22064 41902 32450 31302 10337 20300 30061 40069 82530 333 56990 58028 70050 82614 83362=
41902,2023,07,22,12,00,AAXX 22124 41902 32456 20901 10333 20270 30035 40043 82400 333 10352 56900 58019 70050 82614=
41902,2023,07,22,18,00,AAXX 22184 41902 11450 60901 10292 20260 30066 40075 60013 70162 83410 333 56990 58020 70010 82614 86459=
41902,2023,07,23,00,00,AAXX 23004 41902 32450 80901 10289 20260 30058 40067 8342/ 333 56999 58007 70010 83613 88459=
41902,2023,07,23,06,00,AAXX 23064 41902 32456 50901 10323 20250 30056 40065 83430 333 56990 59005 70010 82613 84362=
41902,2023,07,23,12,00,AAXX 23124 41902 32456 40901 10317 20270 30023 40031 83430 333 10352 56990 59012 70010 82614 83362=
41902,2023,07,23,18,00,AAXX 23184 41902 32440 31802 10294 20260 30037 40046 82500 333 56900 59029 70000 82616=
41902,2023,07,24,00,00,AAXX 24004 41902 32440 41301 10284 20260 30032 40041 82530 333 56990 59026 70000 82614 83362=
41902,2023,07,24,06,00,AAXX 24064 41902 32456 31301 10350 20270 30036 40044 82530 333 56990 59020 70000 82614=
41902,2023,07,24,12,00,AAXX 24124 41902 32456 30502 10327 20270 30008 40016 82430 333 10357 56990 59015 70000 82616=
41902,2023,07,25,00,00,AAXX 25004 41902 11456 80903 10278 20260 30033 40041 69973 76062 8532/ 333 56999 58001 70009 84614 81928 88458=
41902,2023,07,25,06,00,AAXX 25064 41902 32456 40504 10335 20270 30036 40045 82430 333 56990 58000 70009 82616 84362=
41902,2023,07,25,12,00,AAXX 25124 41902 32456 70000 10324 20260 30015 40023 82470 333 10352 56990 58007 70009 82616 87362=
41902,2023,07,25,18,00,AAXX 25184 41902 32450 71806 10295 20260 30038 40046 83520 333 56990 58016 70007 83615 87459=
41902,2023,07,26,00,00,AAXX 26004 41902 32456 71808 10290 20240 30037 40045 83520 333 56490 58004 70000 83615 87459=
41902,2023,07,26,06,00,AAXX 26064 41902 32457 62202 10325 20270 30045 40054 82430 333 56990 58009 70000 82616 86362=
41902,2023,07,26,12,00,AAXX 26124 41902 11457 71802 10307 20260 30021 40030 69944 72162 83420 333 10355 56990 58006 70004 83615 87459=
41902,2023,07,26,18,00,AAXX 26184 41902 32450 81804 10290 20260 30044 40053 8352/ 333 56999 58006 70004 83615 88458=
41902,2023,07,27,00,00,AAXX 27004 41902 32456 71505 10282 20250 30038 40047 84520 333 56490 58001 70004 84615 87459=
41902,2023,07,27,06,00,AAXX 27064 41902 11456 61502 10330 20260 30036 40045 69905 70152 83410 333 56990 59009 70004 83615 86459=
41902,2023,07,27,12,00,AAXX 27124 41902 11456 61804 10312 20260 30010 40018 69915 70262 82430 333 10340 56990 59011 70001 82616 86362=
41902,2023,07,27,18,00,AAXX 27184 41902 32440 51805 10287 20270 30024 40032 82530 333 56990 59020 70001 82615 85362=
41907,2023,07,21,00,00,AAXX 21004 41907 42/40 31302 10275 20270 39991 40006 58015 83080==
41907,2023,07,21,03,00,AAXX 21034 41907 02450 61802 10313 20260 30014 40029 84830 333 20268 58027 70000 82615 83825 85362==
41907,2023,07,21,06,00,AAXX 21064 41907 02450 71804 10332 20270 30015 40029 85510 333 58034 70000 85615 85458==
41907,2023,07,21,09,00,AAXX 21094 41907 02450 50903 10350 20260 39999 40014 85830 333 58034 70000 82615 83825==
41907,2023,07,21,12,00,AAXX 21124 41907 02450 70903 10328 20250 39996 40011 86870 333 10355 58040 70000 84615 86458==
41907,2023,07,21,15,00,AAXX 21154 41907 01/40 20000 10290 20270 30024 40039 70162 82030 333 58048 70010 82362==
41907,2023,07,21,18,00,AAXX 21184 41907 11340 71302 10280 20270 30036 40051 60016 70362 86610 333 58048 70010 82709 84615 86458==
41907,2023,07,21,21,00,AAXX 21214 41907 02/40 30000 10278 20270 30027 40042 83030 333 58047 70010 83362==
41907,2023,07,22,00,00,AAXX 22004 41907 02/40 30000 10275 20270 30035 40049 83030 333 58044 70010 83362==
41907,2023,07,22,03,00,AAXX 22034 41907 02450 61802 10315 20270 30050 40065 85530 333 20274 58036 70010 85615 83362==
41907,2023,07,22,06,00,AAXX 22064 41907 02450 71802 10333 20260 30045 40060 85510 333 58030 70010 85615 86458==
41907,2023,07,22,09,00,AAXX 22094 41907 02450 61804 10347 20260 30023 40037 85810 333 58024 70010 82615 83825 85458==
41907,2023,07,22,12,00,AAXX 22124 41907 02450 51802 10330 20250 30016 40030 85800 333 10352 58020 70010 82615 83825==
41907,2023,07,22,15,00,AAXX 22154 41907 02940 00000 10298 20260 30041 40056 333 58017 70000==
41907,2023,07,22,18,00,AAXX 22184 41907 02940 00000 10280 20260 30053 40068 333 58017 70000==
41907,2023,07,22,21,00,AAXX 22214 41907 02940 00000 10275 20270 30052 40067 333 58023 70000==
41907,2023,07,23,00,00,AAXX 23004 41907 02940 10000 10270 20260 30051 40066 80131 333 58016 70000 81362==
41907,2023,07,23,03,00,AAXX 23034 41907 02450 41804 10328 20260 30050 40065 84800 333 20265 58000 70000 82615 83825==
41907,2023,07,23,06,00,AAXX 23064 41907 02450 71802 10337 20260 30044 40058 86810 333 59001 70000 85615 86458==
41907,2023,07,23,09,00,AAXX 23094 41907 02450 71302 10360 20270 30023 40037 86810 333 58000 70000 85615 86458==
41907,2023,07,23,12,00,AAXX 23124 41907 02450 71302 10350 20270 30013 40027 86810 333 10367 59003 70000 85615 86458==
41907,2023,07,23,15,00,AAXX 23154 41907 02440 61302 10310 20260 30020 40034 85810 333 59021 70000 84615 85458==
41907,2023,07,23,18,00,AAXX 23184 41907 02340 51302 10290 20270 30035 40049 84610 333 59018 70000 81710 83615 85458==
41907,2023,07,23,21,00,AAXX 23214 41907 02340 50000 10280 20270 30030 40045 84610 333 59022 70000 81710 83615 85458==
41907,2023,07,24,00,00,AAXX 24004 41907 02/40 31302 10272 20270 30028 40043 83030 333 59023 70000 83362==
41907,2023,07,24,03,00,AAXX 24034 41907 02450 51302 10322 20260 30025 40040 83801 333 20266 59025 70000 82615 83080==
41907,2023,07,24,06,00,AAXX 24064 41907 02450 61302 10340 20250 30021 40035 84801 333 59023 70000 83615 84080==
41907,2023,07,24,09,00,AAXX 24094 41907 02456 61302 10350 20260 30006 40020 85810 333 59017 70000 84615 86458==
41907,2023,07,24,12,00,AAXX 24124 41907 02450 71302 10335 20270 30001 40015 86810 333 10360 59012 70000 85615 87458==
41907,2023,07,24,15,00,AAXX 24154 41907 02940 00000 10297 20270 30009 40024 333 59011 70000==
41907,2023,07,24,18,00,AAXX 24184 41907 02940 00000 10282 20260 30016 40031 333 59019 70000==
41907,2023,07,24,21,00,AAXX 24214 41907 02940 00000 10278 20260 30015 40030 333 59015 70000==
41907,2023,07,25,00,00,AAXX 25004 41907 02450 50000 10270 20260 30020 40034 82510 333 59008 70000 82615 85458==
41907,2023,07,25,03,00,AAXX 25034 41907 02450 61302 10316 20260 30028 40043 83570 333 20268 58003 70000 83615 85458==
41907,2023,07,25,06,00,AAXX 25064 41907 02450 51302 10348 20260 30021 40035 85800 333 58000 70000 82615 83825==
41907,2023,07,25,09,00,AAXX 25094 41907 02450 51304 10355 20260 30004 40018 85800 333 59002 70000 83615 83825==
41907,2023,07,25,12,00,AAXX 25124 41907 02450 51302 10340 20260 39998 40013 84830 333 10362 59003 70000 83615==
41907,2023,07,25,15,00,AAXX 25154 41907 02440 51302 10305 20270 30010 40024 84830 333 59001 70000 83615==
41907,2023,07,25,18,00,AAXX 25184 41907 02340 70000 10290 20270 30020 40034 85610 333 58004 70000 82710 85615 87458==
41907,2023,07,25,21,00,AAXX 25214 41907 02340 70000 10280 20270 30014 40029 85610 333 59001 70000 82710 84615 85458==
41907,2023,07,26,00,00,AAXX 26004 41907 02/40 31302 10270 20260 30011 40026 83030 333 59009 70000 83362==
41907,2023,07,26,03,00,AAXX 26034 41907 02450 71302 10312 20260 30033 40048 85810 333 20264 58005 70000 84615 86458==
41907,2023,07,26,06,00,AAXX 26064 41907 02450 71302 10335 20260 30023 40037 86810 333 58002 70000 85615 87458==
41907,2023,07,26,09,00,AAXX 26094 41907 01450 41304 10335 20270 30008 40022 70162 83801 333 58004 70010 82615 83080==
41907,2023,07,26,12,00,AAXX 26124 41907 11450 81302 10300 20260 30003 40017 60016 70361 8552/ 333 10352 58005 70010 85615 88458==
41907,2023,07,26,15,00,AAXX 26154 41907 02340 81302 10285 20280 30019 40034 8662/ 333 58009 70010 82709 85615 88458==
41907,2023,07,26,18,00,AAXX 26184 41907 02340 81302 10280 20260 30029 40044 8662/ 333 58009 70010 82709 85615 88458==
41907,2023,07,26,21,00,AAXX 26214 41907 02440 71802 10277 20270 30013 40027 85510 333 59001 70010 85615 86458==
41907,2023,07,27,00,00,AAXX 27004 41907 02440 71802 10275 20270 30016 40030 85510 333 58005 70010 85615 86458==
41907,2023,07,27,03,00,AAXX 27034 41907 02450 51802 10315 20270 30025 40039 85800 333 20268 58008 70010 82615 83825==
41907,2023,07,27,06,00,AAXX 27064 41907 02450 71802 10333 20260 30013 40028 86810 333 59010 70010 84615 83825 85458==
41907,2023,07,27,09,00,AAXX 27094 41907 01340 81303 10287 20260 30001 40015 79522 8632/ 333 59007 70016 83709 85615 88458 81930==
41907,2023,07,27,12,00,AAXX 27124 41907 21450 70000 10295 20290 39985 49999 70196 85510 333 10355 59018 60055 70052 85615 87458==
41907,2023,07,27,15,00,AAXX 27154 41907 02940 00000 10278 20270 30000 40015 333 59019 70052==
41907,2023,07,27,18,00,AAXX 27184 41907 02940 00000 10275 20270 30005 40020 333 59024 70052==
41907,2023,07,27,21,00,AAXX 27214 41907 02940 00902 10273 20260 39998 40013 333 59013 70052==
41909,2023,07,21,00,00,AAXX 21004 41909 02450 80901 10286 20260 30011 40022 8452/ 333 58021 70000 84615 88460==
41909,2023,07,21,03,00,AAXX 21034 41909 02456 51301 10312 20250 30031 40042 82530 333 20266 58030 70000 82615 85360==
41909,2023,07,21,06,00,AAXX 21063 41909 02456 81301 10334 20250 30031 40042 8352/ 333 58034 70000 83615 88460==
41909,2023,07,21,09,00,AAXX 21094 41909 02456 70000 10345 20270 30009 40021 84370 333 58032 70000 84614 86460 81930==
41909,2023,07,21,12,00,AAXX 21124 41909 02456 80000 10320 20260 30010 40021 8532/ 333 10355 58042 70000 85614 88460 81930==
41909,2023,07,21,15,00,AAXX 21154 41909 01450 80000 10310 20250 30043 40054 71322 8592/ 333 58046 70000 85614 88460 81930==
41909,2023,07,21,18,00,AAXX 21184 41909 01330 80000 10290 20260 30052 40063 76122 8672/ 333 58036 70002 83708 84614 88458==
41909,2023,07,22,00,00,AAXX 22004 41909 21450 80000 10280 20260 30048 40059 70262 8552/ 333 58037 69915 70003 85614 88460==
41909,2023,07,22,03,00,AAXX 22034 41909 02456 71302 10310 20260 30070 40081 84570 333 20265 58039 70003 84615 86460==
41909,2023,07,22,06,00,AAXX 22064 41909 02456 61302 10335 20260 30061 40072 83510 333 58030 70003 83615 84460==
41909,2023,07,22,09,00,AAXX 22094 41909 02456 61302 10344 20250 30036 40047 83510 333 58027 70003 83615 84460==
41909,2023,07,22,12,00,AAXX 22124 41909 21440 80000 10294 20260 30028 40039 76162 8552/ 333 10347 58018 60047 70043 85614 88458==
41909,2023,07,22,15,00,AAXX 22154 41909 01440 80000 10292 20260 30053 40064 70262 8552/ 333 58010 70046 85615 88458==
41909,2023,07,22,18,00,AAXX 22184 41909 21440 80000 10285 20270 30066 40077 70262 8552/ 333 58014 69937 70044 85614 88458==
41909,2023,07,22,21,00,AAXX 22214 41909 02440 80000 10280 20260 30064 40075 8552/ 333 58014 70043 85615 88458==
41909,2023,07,23,00,00,AAXX 23004 41909 02450 80000 10279 20260 30062 40073 8552/ 333 58014 70043 85614 88458==
41909,2023,07,23,03,00,AAXX 23034 41909 02456 81402 10304 20260 30068 40079 8452/ 333 20260 59002 70043 86358 84615 88458==
41909,2023,07,23,06,00,AAXX 23064 41909 02456 61802 10332 20270 30058 40069 82510 333 59003 70043 82615 86458==
41909,2023,07,23,09,00,AAXX 23094 41909 02456 61802 10350 20240 30030 40041 82510 333 59006 70043 82615 86460==
41909,2023,07,23,12,00,AAXX 23124 41909 02456 40000 10337 20240 30015 40026 82530 333 10355 59013 70003 82615 83365==
41909,2023,07,23,15,00,AAXX 23154 41909 02940 00000 10312 20250 30036 40047 333 59017 70000==
41909,2023,07,23,18,00,AAXX 23184 41909 02940 00000 10295 20260 30041 40052 333 59025 70000==
41909,2023,07,23,21,00,AAXX 23214 41909 02940 00000 10290 20260 30037 40048 333 59027 70000==
41909,2023,07,24,00,00,AAXX 24004 41909 02450 40000 10284 20260 30034 40045 82530 333 59028 70000 82615 83365==
41909,2023,07,24,03,00,AAXX 24034 41909 02456 51802 10314 20250 30041 40052 82530 333 20265 59027 70000 82615 85362==
41909,2023,07,24,06,00,AAXX 24064 41909 02456 51802 10342 20250 30036 40047 82530 333 59022 70000 82615 85362==
41909,2023,07,24,09,00,AAXX 24094 41909 02456 81002 10345 20260 30012 40024 8552/ 333 59018 70000 85614 88460==
41909,2023,07,24,12,00,AAXX 24124 41909 02456 70000 10325 20250 30002 40013 84370 333 10355 59013 70000 84614 86460 81930==
41909,2023,07,24,15,00,AAXX 24154 41909 02950 00000 10305 20260 30024 40035 333 59012 70000==
41909,2023,07,24,18,00,AAXX 24184 41909 02940 00000 10297 20250 30029 40040 333 59012 70000==
41909,2023,07,24,21,00,AAXX 24214 41909 02440 50000 10292 20250 30026 40037 82530 333 59011 70000 82615 84365==
41909,2023,07,25,00,00,AAXX 25004 41909 02450 70000 10280 20260 30027 40038 84570 333 59007 70000 84614 86460==
41909,2023,07,25,03,00,AAXX 25034 41909 02456 71802 10309 20270 30040 40051 84570 333 20265 59001 70000 84614 86458==
41909,2023,07,25,06,00,AAXX 25064 41909 02456 61802 10337 20270 30036 40047 82510 333 58000 70000 82615 86458==
41909,2023,07,25,09,00,AAXX 25094 41909 02456 41802 10356 20260 30017 40029 82530 333 58005 70000 82615 83360==
41909,2023,07,25,12,00,AAXX 25124 41909 02456 60000 10340 20270 30010 40021 82510 333 10360 58008 70000 82615 86458==
41909,2023,07,25,15,00,AAXX 25154 41909 02440 61802 10302 20250 30032 40043 82510 333 58008 70000 82615 86458==
41909,2023,07,25,18,00,AAXX 25184 41909 02440 60000 10292 20260 30035 40046 82510 333 58006 70000 82615 86456==
41909,2023,07,25,21,00,AAXX 25214 41909 02456 60000 10284 20250 30034 40045 82510 333 58005 70000 82615 86458==
41909,2023,07,26,00,00,AAXX 26004 41909 02456 80000 10282 20250 30033 40044 8552/ 333 59001 70000 85614 88458==
41909,2023,07,26,03,00,AAXX 26034 41909 02456 51402 10314 20250 30047 40058 82530 333 20265 58007 70000 82615 85362==
41909,2023,07,26,06,00,AAXX 26064 41909 02456 51402 10344 20250 30040 40051 82530 333 58004 70000 82615 85362==
41909,2023,07,26,09,00,AAXX 26094 41909 01456 51401 10320 20260 30022 40033 72922 82330 333 58005 70010 82615 85362 81930==
41909,2023,07,26,12,00,AAXX 26124 41909 11450 80000 10296 20250 30017 40028 60022 70396 8552/ 333 10345 58007 70020 85615 88458==
41909,2023,07,26,15,00,AAXX 26154 41909 02430 80000 10294 20250 30035 40046 8352/ 333 58003 70020 83615 88460==
41909,2023,07,26,18,00,AAXX 26184 41909 02430 50000 10288 20260 30039 40050 82530 333 58004 70020 82615 85362==
41909,2023,07,26,21,00,AAXX 26214 41909 02430 50000 10265 20260 30036 40047 82530 333 58002 70020 82615 85362==
41909,2023,07,27,00,00,AAXX 27004 41909 02450 81401 10284 20260 30030 40041 8552/ 333 59003 70020 85614 88458==
41909,2023,07,27,03,00,AAXX 27034 41909 02456 61802 10301 20260 30042 40053 83510 333 20264 59005 70020 83615 86458==
41909,2023,07,27,06,00,AAXX 27064 41909 02456 61302 10334 20260 30030 40041 83510 333 59010 70020 83615 86458==
41909,2023,07,27,09,00,AAXX 27094 41909 01456 41302 10332 20270 30006 40017 70162 83830 333 59016 70012 82615 83825==
41909,2023,07,27,12,00,AAXX 27124 41909 11456 31304 10319 20250 30001 40012 69926 70162 82830 333 10343 59016 70002 81618 83360==
41909,2023,07,27,15,00,AAXX 27154 41909 02/40 31302 10299 20260 30016 40027 83030 333 59019 70002 83360==
41909,2023,07,27,18,00,AAXX 27184 41909 32940 21302 10288 20260 30018 40029 82030 333 56090 59021 70002 82360=
41909,2023,07,27,21,00,AAXX 27214 41909 02/40 21302 10284 20260 30006 40017 82030 333 59030 70002 82360==
41915,2023,07,21,00,00,AAXX 21004 41915 11450 70901 10263 20260 30013 40038 69926 70192 83570 333 58023 70235 83616 85458==
41915,2023,07,21,03,00,AAXX 21034 41915 02456 50000 10316 20270 30025 40050 82530 333 20260 58029 70235 82616 84362==
41915,2023,07,21,06,00,AAXX 21063 41915 02456 72801 10326 20270 30024 40049 85320 333 58031 70235 85616 86458 81928==
41915,2023,07,21,09,00,AAXX 21094 41915 41456 52701 10334 20270 30004 40029 58007 70395 84362==
41915,2023,07,21,12,00,AAXX 21124 41915 21456 70000 10318 20270 30013 40037 70362 85570 333 10345 58020 60168 70395 84616 83458 85362==
41915,2023,07,21,15,00,AAXX 21154 41915 02450 80000 10293 20280 30042 40067 8662/ 333 58036 70182 83710 85616 88458==
41915,2023,07,21,18,00,AAXX 21184 41915 21450 80000 10275 20270 30045 40070 70262 8562/ 333 58033 60027 70182 82710 85616 88458==
41915,2023,07,22,00,00,AAXX 22004 41915 02450 60901 10273 20260 30049 40074 83530 333 58036 70180 83616 85362==
41915,2023,07,22,03,00,AAXX 22034 41915 02456 60000 10307 20260 30064 40090 84430 333 20271 58040 70180 83616 85362==
41915,2023,07,22,06,00,AAXX 22064 41915 02456 50000 10340 20250 30049 40073 84430 333 58024 70180 83616 83362==
41915,2023,07,22,09,00,AAXX 22094 41915 02456 50902 10357 20250 30029 40053 84430 333 58025 70020 83616 83362==
41915,2023,07,22,12,00,AAXX 22124 41915 02456 70000 10327 20280 30023 40047 85327 333 10366 58010 70020 85616 87458 81925==
41915,2023,07,22,15,00,AAXX 22154 41915 02450 70000 10300 20280 30048 40073 85327 333 58006 70020 85616 87458 81928==
41915,2023,07,22,18,00,AAXX 22184 41915 02450 80000 10295 20270 30060 40085 8662/ 333 58015 70000 83712 85616 88458==
41915,2023,07,22,21,00,AAXX 22214 41915 02450 80000 10284 20260 30054 40079 8562/ 333 58010 70000 83710 84616 88458==
41915,2023,07,23,00,00,AAXX 23004 41915 02456 80000 10277 20270 30062 40088 8662/ 333 58013 70000 83710 85616 88458==
41915,2023,07,23,03,00,AAXX 23034 41915 01456 80000 10268 20250 30066 40091 76596 8672/ 333 20256 58001 70542 83710 84616 88458==
41915,2023,07,23,06,00,AAXX 23064 41915 21456 61402 10318 20260 30052 40077 70196 84430 333 58003 60548 70542 83616 85362==
41915,2023,07,23,09,00,AAXX 23094 41915 02456 50901 10337 20250 30022 40046 83541 333 59007 70542 82616 84362==
41915,2023,07,23,12,00,AAXX 23124 41915 02456 60000 10316 20270 30013 40037 84510 333 10352 59010 70542 83616 85362==
41915,2023,07,23,15,00,AAXX 23154 41915 02456 60000 10293 20270 30044 40069 84430 333 59004 70542 83616 85362==
41915,2023,07,23,18,00,AAXX 23184 41915 01450 40000 10280 20270 30033 40059 71322 84300 333 59027 70542 83616 81928==
41915,2023,07,23,21,00,AAXX 23214 41915 02450 60000 10276 20270 30034 40059 82520 333 59020 70542 82616 86458==
41915,2023,07,24,00,00,AAXX 24004 41915 02450 80901 10275 20270 30036 40061 8352/ 333 59026 70542 83616 88458==
41915,2023,07,24,03,00,AAXX 24034 41915 02456 61302 10310 20260 30067 40062 84430 333 20270 59029 70000 83616 85362==
41915,2023,07,24,06,00,AAXX 24064 41915 02456 60000 10326 20260 30030 40055 84430 333 59022 70000 83616 85362==
41915,2023,07,24,12,00,AAXX 24124 41915 02456 40501 10332 20260 39997 40021 82332 333 10354 59016 70000 82616 81928==
41915,2023,07,24,18,00,AAXX 24184 41915 01450 11301 10285 20280 30018 40042 71311 81300 333 59015 70000 81616 81928==
41915,2023,07,24,21,00,AAXX 24214 41915 01440 83603 10252 20240 30026 40051 79592 8692/ 333 59008 70054 85615 88458 81925==
41915,2023,07,25,00,00,AAXX 25004 41915 21450 80000 10252 20240 30032 40058 70296 8442/ 333 59004 60108 70096 83616 88458==
41915,2023,07,25,03,00,AAXX 25034 41915 02456 60501 10293 20260 30040 40065 84430 333 20248 58004 70096 83616 84362==
41915,2023,07,25,06,00,AAXX 25064 41915 02456 60000 10340 20250 30029 40054 84430 333 59001 70096 83616 84362==
41915,2023,07,25,09,00,AAXX 25094 41915 02457 40000 10352 20250 30001 40025 83431 333 59009 70096 83616==
41915,2023,07,25,12,00,AAXX 25124 41915 02456 50000 10330 20270 30002 40026 83321 333 10364 58005 70096 82616 83458 81928==
41915,2023,07,25,15,00,AAXX 25154 41915 01450 61302 10273 20240 30032 40058 71792 84970 333 58015 70096 83616 84458 81928==
41915,2023,07,25,18,00,AAXX 25184 41915 01450 81301 10273 20250 30037 40063 71399 8532/ 333 58019 70096 84616 88458 81930==
41915,2023,07,26,00,00,AAXX 26004 41915 02450 70901 10275 20270 30038 40063 85470 333 58006 70000 84615 85458==
41915,2023,07,26,03,00,AAXX 26034 41915 02456 61202 10314 20250 30048 40073 84440 333 20271 58008 70000 83616 84362==
41915,2023,07,26,06,00,AAXX 26064 41915 02456 60602 10340 20250 30035 40059 86440 333 58006 70000 85616 84362==
41915,2023,07,26,09,00,AAXX 26094 41915 02456 70000 10344 20250 30009 40033 85440 333 58008 70000 84616 84362==
41915,2023,07,26,12,00,AAXX 26124 41915 02456 80000 10307 20260 30019 40043 8632/ 333 10357 58017 70000 85616 88458 81928==
41915,2023,07,26,15,00,AAXX 26154 41915 02450 70000 10288 20260 30041 40066 85470 333 58009 70000 84616 85458==
41915,2023,07,26,18,00,AAXX 26184 41915 02450 60202 10276 20260 30038 40064 84470 333 58001 70000 83616 84458==
41915,2023,07,26,21,00,AAXX 26214 41915 02450 60000 10268 20250 30034 40059 84470 333 58000 70000 83616 84458==
41915,2023,07,27,00,00,AAXX 27004 41915 02456 71202 10278 20250 30034 40059 85430 333 59004 70000 84616 85362==
41915,2023,07,27,03,00,AAXX 27034 41915 02456 61302 10310 20250 30045 40070 83470 333 20264 59003 70000 82616 84458==
41915,2023,07,27,06,00,AAXX 27064 41915 02456 61302 10323 20240 30028 40052 85470 333 59007 70000 84615 84458==
41915,2023,07,27,09,00,AAXX 27094 41915 01456 70902 10311 20270 30013 40037 72122 85470 333 58004 70042 84615 85458==
41915,2023,07,27,12,00,AAXX 27124 41915 21456 61302 10305 20270 30002 40027 70162 84331 333 10336 59017 60045 70042 83616 81930==
41915,2023,07,27,15,00,AAXX 27154 41915 02450 40000 10285 20270 30016 40041 83330 333 59025 70042 82616 81930==
41915,2023,07,27,18,00,AAXX 27184 41915 32950 21303 10276 20260 30015 40040 80002 333 56009 59023 70042 82080=
41915,2023,07,27,21,00,AAXX 27214 41915 02450 61302 10270 20250 30008 40033 83570 333 59026 70042 83616 84458==
41923,2023,07,21,00,00,AAXX 21004 41923 02340 70602 10292 20250 30020 40030 85670 333 58025 70000 82709 84615 86458==
41923,2023,07,21,03,00,AAXX 21034 41923 02350 60603 10317 20250 30035 40045 84630 333 20290 58026 70000 81709 83615 85360==
41923,2023,07,21,06,00,AAXX 21064 41923 02456 70302 10342 20250 30035 40045 85430 333 58034 70000 83615 83824 86360==
41923,2023,07,21,09,00,AAXX 21094 41923 02456 40403 10357 20240 30014 40023 84430 333 58029 70000 83615==
41923,2023,07,21,12,00,AAXX 21124 41923 02356 61804 10330 20250 30021 40031 85631 333 10358 58043 70000 82708 84614==
41923,2023,07,21,15,00,AAXX 21154 41923 02350 70805 10313 20240 30050 40060 85670 333 58036 70000 82709 84615 85459==
41923,2023,07,21,18,00,AAXX 21184 41923 21350 61302 10300 20250 30056 40066 70162 85370 333 58036 60005 81709 84615 85459 81930==
41923,2023,07,21,21,00,AAXX 21214 41923 42345 71402 10296 20250 30051 40061 85370 333 58041 82708 84614 85459 81930==
41923,2023,07,22,00,00,AAXX 22004 41923 42345 71203 10288 20260 30057 40067 86370 333 58037 83708 84614 85459 81930==
41923,2023,07,22,03,00,AAXX 22034 41923 42356 61802 10316 20250 30074 40084 85630 333 20286 58039 82709 83615==
41923,2023,07,22,06,00,AAXX 22064 41923 42356 51002 10340 20250 30064 40074 85630 333 58029 82708 83615==
41923,2023,07,22,09,00,AAXX 22094 41923 42356 50602 10256 20230 30037 40047 85630 333 58023 82709 83615==
41923,2023,07,22,12,00,AAXX 22124 41923 42356 60802 10328 20230 30040 40050 84630 333 10360 58019 82709 83615 85360==
41923,2023,07,22,15,00,AAXX 22154 41923 42/50 31002 10308 20250 30063 40073 83030 333 58013 83362==
41923,2023,07,22,18,00,AAXX 22184 41923 02350 60000 10306 20240 30070 40080 84630 333 58014 70000 82709 83615 85360==
41923,2023,07,22,21,00,AAXX 22214 41923 02345 60000 10298 20250 30063 40073 84630 333 58012 70000 82709 83615 85360==
41923,2023,07,23,00,00,AAXX 23004 41923 02345 60000 10292 20250 30070 40080 84630 333 58013 70000 82709 83615 85360==
41923,2023,07,23,03,00,AAXX 23034 41923 02356 60603 10328 20250 30073 40083 84630 333 20289 59001 70000 82709 83615 85360==
41923,2023,07,23,06,00,AAXX 23064 41923 02350 70802 10332 20250 30061 40071 86370 333 59003 70000 83708 84614 86458 81930==
41923,2023,07,23,09,00,AAXX 23094 41923 41350 70000 10334 20250 30034 40044 76122 86370 333 59003 83708 84614 86458 81930==
41923,2023,07,23,12,00,AAXX 23124 41923 21450 60000 10331 20230 30026 40036 70162 83431 333 10352 59014 60005 82616 83360==
41923,2023,07,23,15,00,AAXX 23154 41923 42/50 20000 10308 20260 30046 40056 82030 333 59017 82362==
41923,2023,07,23,18,00,AAXX 23184 41923 42450 20000 10300 20260 30047 40057 81530 333 59023 81616==
41923,2023,07,23,21,00,AAXX 23214 41923 42345 60000 10295 20270 30045 40055 83630 333 59018 81709 83615 85362==
41923,2023,07,24,00,00,AAXX 24004 41923 42345 70000 10288 20260 30040 40050 85670 333 59030 82709 84615 85459==
41923,2023,07,24,03,00,AAXX 24034 41923 42356 40603 10328 20260 30045 40055 84630 333 20286 59028 82709 83615==
41923,2023,07,24,06,00,AAXX 24064 41923 42356 60602 10348 20230 30039 40049 84630 333 59022 82709 83615 85360==
41923,2023,07,24,09,00,AAXX 24094 41923 42450 71203 10352 20230 30018 40028 84570 333 59016 84615 86460==
41923,2023,07,24,12,00,AAXX 24124 41923 02450 52002 10334 20230 30010 40020 82530 333 10361 70000 82615 85365==
41923,2023,07,24,15,00,AAXX 24154 41923 02/40 21202 10314 20240 30028 40038 82030 333 59018 70000 82365==
41923,2023,07,24,18,00,AAXX 24184 41923 02940 02702 10304 20250 30034 40044 333 59013 70000==
41923,2023,07,24,21,00,AAXX 24214 41923 02440 82702 10297 20260 30031 40041 8552/ 333 59014 70000 85614 88460==
41923,2023,07,25,00,00,AAXX 25004 41923 02440 80902 10294 20250 30035 40045 8552/ 333 59005 70000 85614 88460==
41923,2023,07,25,03,00,AAXX 25034 41923 02450 60602 10324 20260 30047 40057 83530 333 20292 58002 70000 83615 86365==
41923,2023,07,25,06,00,AAXX 25064 41923 02456 50602 10352 20240 30040 40050 82530 333 58001 70000 82615 85365==
41923,2023,07,25,09,00,AAXX 25094 41923 02456 50602 10361 20240 30019 40028 84430 333 58001 70000 82615 83824 85360==
41923,2023,07,25,12,00,AAXX 25124 41923 02456 51802 10333 20240 30020 40030 84431 333 10366 58010 70000 83615 83360==
41923,2023,07,25,15,00,AAXX 25154 41923 41340 61802 10307 20260 30041 40051 76162 85330 333 58013 81709 83615 85360 81930==
41923,2023,07,25,18,00,AAXX 25184 41923 21340 61802 10298 20250 30044 40054 70262 84630 333 58010 60009 81709 83615 85360==
41923,2023,07,25,21,00,AAXX 25214 41923 42340 60602 10295 20250 30034 40044 84630 333 58008 81709 83615 85360==
41923,2023,07,26,00,00,AAXX 26004 41923 42340 60602 10291 20250 30043 40053 84670 333 58008 81709 83615 85458==
41923,2023,07,26,03,00,AAXX 26034 41923 42345 63402 10331 20240 30053 40063 84630 333 20289 58006 81709 83615 85360==
41923,2023,07,26,06,00,AAXX 26064 41923 42450 70902 10338 20240 30045 40055 85330 333 58005 83615 83824 86360 81930==
41923,2023,07,26,09,00,AAXX 26094 41923 01350 70903 10330 20260 30029 40039 76162 86370 333 58010 70004 83708 84614 86458 81930==
41923,2023,07,26,12,00,AAXX 26124 41923 21350 60602 10312 20250 30022 40032 70162 84630 333 10338 58002 69968 70006 82709 83615 85360==
41923,2023,07,26,15,00,AAXX 26154 41923 02/50 30000 10302 20250 30048 40058 83030 333 58007 70006 82360==
41923,2023,07,26,18,00,AAXX 26184 41923 02345 60000 10298 20250 30050 40060 84630 333 58006 70006 82709 83615 85360==
41923,2023,07,26,21,00,AAXX 26214 41923 02345 60000 10292 20250 30037 40047 84630 333 58003 70006 82709 83615 85360==
41923,2023,07,27,00,00,AAXX 27004 41923 01340 60000 10270 20260 30039 40049 76162 84630 333 59004 70050 82709 83615 85360==
41923,2023,07,27,03,00,AAXX 27034 41923 01350 60303 10294 20250 30047 40057 76122 84630 333 20269 59006 70052 82709 83615 85360==
41923,2023,07,27,06,00,AAXX 27064 41923 21350 70604 10328 20260 30038 40048 70362 86370 333 59007 60008 70052 83708 84614 86458 81930==
41923,2023,07,27,09,00,AAXX 27094 41923 01450 83302 10307 20270 30020 40030 72162 8552/ 333 59009 70064 85614 88460==
41923,2023,07,27,12,00,AAXX 27124 41923 21340 82402 10312 20250 30009 40019 76062 8632/ 333 10339 59013 60025 70062 83708 84614 88459 81930==
41923,2023,07,27,15,00,AAXX 27154 41923 02/40 30902 10306 20260 30024 40034 83030 333 59024 70062 83365==
41923,2023,07,27,18,00,AAXX 27184 41923 12/40 22402 10291 20260 30025 40035 60001 82030 333 59025 70062 82365==
41923,2023,07,27,21,00,AAXX 27214 41923 02440 81802 10285 20270 30019 40029 8552/ 333 59018 70062 85614 88460==
41926,2023,07,21,00,00,AAXX 21004 41926 42450 40000 10274 20260 30000 40014 81501 333 58020 81618 83080==
41926,2023,07,21,03,00,AAXX 21034 41926 42450 71802 10305 20270 30016 40030 84510 333 20272 58025 84616 86459==
41926,2023,07,21,06,00,AAXX 21063 41926 42456 31801 10345 20260 30015 40028 83400 333 58027 82618==
41926,2023,07,21,09,00,AAXX 21094 41926 41456 61802 10310 20260 30000 40013 72120 84410 333 58033 83618 85459==
41926,2023,07,21,12,00,AAXX 21124 41926 21450 51502 10305 20260 30007 40020 70162 83401 333 10358 58049 60005 82618 83080==
41926,2023,07,21,15,00,AAXX 21154 41926 42450 20000 10290 20260 30029 40043 82500 333 58033 82618==
41926,2023,07,21,18,00,AAXX 21184 41926 42450 20000 10280 20260 30040 40054 82500 333 58041 82618==
41926,2023,07,22,00,00,AAXX 22004 41926 42450 40000 10274 20260 30039 40053 82502 333 58039 82618 83080==
41926,2023,07,22,03,00,AAXX 22034 41926 42456 51302 10320 20260 30055 40068 85400 333 20272 58039 83618 83820==
41926,2023,07,22,06,00,AAXX 22064 41926 42456 51302 10335 20280 30048 40061 84401 333 58033 83618 83080==
41926,2023,07,22,09,00,AAXX 22094 41926 41456 51802 10340 20270 30024 40037 70262 85400 333 58024 82618 83828==
41926,2023,07,22,12,00,AAXX 22124 41926 01456 30000 10289 20270 30024 40038 70162 83400 333 10355 58017 70020 82618==
41926,2023,07,22,15,00,AAXX 22154 41926 02950 00000 10285 20270 30048 40062 333 58019 70020==
41926,2023,07,22,18,00,AAXX 22184 41926 02950 00000 10275 20270 30059 40073 333 58019 70020==
41926,2023,07,22,21,00,AAXX 22214 41926 02940 00000 10272 20270 30051 40065 333 58020 70020==
41926,2023,07,23,00,00,AAXX 23004 41926 02450 20000 10268 20260 30053 40067 82500 333 58014 70020 82618==
41926,2023,07,23,03,00,AAXX 23034 41926 02456 51803 10314 20260 30056 40070 85500 333 20268 58001 70020 85618==
41926,2023,07,23,06,00,AAXX 23064 41926 02456 51803 10338 20260 30045 40058 85401 333 59003 70020 83618==
41926,2023,07,23,09,00,AAXX 23094 41926 02456 61803 10344 20250 30021 40034 84410 333 59003 70020 82618 83459==
41926,2023,07,23,12,00,AAXX 23124 41926 02450 31802 10313 20260 30012 40025 81510 333 10350 59012 70000 81618 83459==
41926,2023,07,23,15,00,AAXX 23154 41926 02950 00000 10288 20270 30033 40047 333 59015 70000==
41926,2023,07,23,18,00,AAXX 23184 41926 02950 00000 10278 20270 30035 40049 333 59024 70000==
41926,2023,07,23,21,00,AAXX 23214 41926 02950 00000 10272 20260 30031 40045 333 59020 70000==
41926,2023,07,24,00,00,AAXX 24004 41926 02450 10000 10266 20260 30028 40042 81500 333 59025 70000 81618==
41926,2023,07,24,03,00,AAXX 24034 41926 02456 51301 10312 20260 30034 40048 84401 333 20265 59022 70000 82618 83820==
41926,2023,07,24,06,00,AAXX 24064 41926 02456 40000 10350 20250 30028 40041 84401 333 59017 70000 82618==
41926,2023,07,24,09,00,AAXX 24094 41926 02456 41302 10360 20250 30006 40019 84401 333 59015 70000 82618 83820==
41926,2023,07,24,12,00,AAXX 24124 41926 01450 30000 10310 20280 39995 40008 72121 81510 333 10365 59017 70002 81618 83459==
41926,2023,07,24,15,00,AAXX 24154 41926 02950 00000 10293 20260 30018 40032 333 59015 79992==
41926,2023,07,24,18,00,AAXX 24184 41926 02950 00000 10279 20270 30022 40036 333 59013 79992==
41926,2023,07,24,21,00,AAXX 24214 41926 02950 00000 10273 20260 30021 40035 333 59010 79992==
41926,2023,07,25,00,00,AAXX 25004 41926 02/50 20000 10268 20260 30020 40035 82010 333 59008 79992 82459==
41926,2023,07,25,03,00,AAXX 25034 41926 02456 41302 10317 20260 30032 40045 83401 333 20267 59002 70002 82618==
41926,2023,07,25,06,00,AAXX 25064 41926 02456 61301 10346 20270 30025 40038 85401 333 59003 70002 83618 83820==
41926,2023,07,25,09,00,AAXX 25094 41926 01457 51302 10340 20260 30004 40017 70162 85400 333 59002 70032 82618 83820==
41926,2023,07,25,12,00,AAXX 25124 41926 11456 51803 10300 20260 30013 40027 60036 70262 85401 333 10357 58018 70030 82618 83825==
41926,2023,07,25,18,00,AAXX 25184 41926 02450 51802 10280 20260 30027 40041 82530 333 58005 70030 82618 85459==
41926,2023,07,26,00,00,AAXX 26004 41926 02950 30000 10268 20260 30025 40039 80001 333 58005 70030 83080==
41926,2023,07,26,03,00,AAXX 26034 41926 02456 61102 10310 20260 30036 40050 85401 333 20260 58004 70030 83618 83820==
41926,2023,07,26,06,00,AAXX 26064 41926 02456 51303 10347 20260 30025 40038 84401 333 58000 70030 82618 83820==
41926,2023,07,26,09,00,AAXX 26094 41926 02457 61803 10350 20260 30014 40027 85410 333 58010 70000 82618 83825 86459==
41926,2023,07,26,12,00,AAXX 26124 41926 21/56 31801 10297 20260 30009 40023 70162 83031 333 10365 59004 60065 70060 83362==
41926,2023,07,26,15,00,AAXX 26154 41926 02450 51801 10285 20270 30030 40044 82530 333 58003 70060 82618 85362==
41926,2023,07,26,18,00,AAXX 26184 41926 02450 61802 10280 20260 30029 40043 83510 333 58002 70060 83618 86459==
41926,2023,07,26,21,00,AAXX 26214 41926 02450 60000 10280 20260 30027 40041 82510 333 58001 70060 82618 86459==
41926,2023,07,27,00,00,AAXX 27004 41926 02450 50000 10275 20270 30024 40037 82510 333 59001 70060 82618 85459==
41926,2023,07,27,03,00,AAXX 27034 41926 02456 51302 10300 20270 30029 40043 82502 333 20270 59007 70060 82618 84080==
41926,2023,07,27,06,00,AAXX 27064 41926 01456 51302 10315 20270 30021 40034 72122 84401 333 59004 70000 82618 83820==
41926,2023,07,27,09,00,AAXX 27094 41926 02456 51802 10335 20290 39998 40011 83430 333 59016 70060 82618 83362==
41926,2023,07,27,12,00,AAXX 27124 41926 02450 50000 10300 20260 39992 40005 83502 333 10346 59017 70000 83618 83080==
41926,2023,07,27,15,00,AAXX 27154 41926 02450 20000 10285 20270 30008 40022 82500 333 59022 70000 82618==
41926,2023,07,27,18,00,AAXX 27184 41926 32450 20000 10280 20260 30008 40022 82500 333 56900 59021 70000 83618=
41926,2023,07,27,21,00,AAXX 27214 41926 02450 21802 10275 20260 39991 40005 82500 333 59036 70000 82618==
41927,2023,07,21,00,00,AAXX 21004 41927 32956 01802 10278 20260 39980 49994 83510 333 56490 58009 70000 83617 85459=
41927,2023,07,21,06,00,AAXX 21063 41927 32458 41802 10326 20260 30010 40024 82510 333 56490 58019 70000 82618 84459=
41927,2023,07,21,12,00,AAXX 21124 41927 32456 61803 10320 20260 39990 40004 83510 333 10346 56490 58038 70000 83617 85459=
41927,2023,07,22,00,00,AAXX 22004 41927 32956 01802 10276 20270 30023 40038 333 58043 70013=
41927,2023,07,22,06,00,AAXX 22064 41927 32457 61804 10320 20260 30046 40060 83510 333 56490 58036 70013 83617 85459=
41927,2023,07,22,12,00,AAXX 22124 41927 32457 31802 10326 20250 30011 40025 83500 333 10354 56400 58023 70000 83618=
41927,2023,07,22,18,00,AAXX 22184 41927 32956 01602 10288 20270 30045 40059 333 58014 70000=
41927,2023,07,23,00,00,AAXX 23004 41927 32956 01601 10268 20260 30041 40055 333 58018 70000=
41927,2023,07,23,06,00,AAXX 23064 41927 32458 41803 10336 20250 30046 40060 82510 333 56490 58000 70000 82618 84459=
41927,2023,07,23,12,00,AAXX 23124 41927 32957 01802 10318 20270 30011 40025 333 10350 58000 70000=
41927,2023,07,23,18,00,AAXX 23184 41927 32450 51802 10288 20270 30029 40043 83510 333 56490 59018 70000 83617 84459=
41927,2023,07,24,00,00,AAXX 24004 41927 32956 00000 10270 20260 30024 40039 333 59015 70000=
41927,2023,07,24,06,00,AAXX 24064 41927 32958 01602 10338 20250 30030 40044 333 59016 70000=
41927,2023,07,24,12,00,AAXX 24124 41927 32957 00000 10338 20260 39999 40013 333 10352 59012 70000=
41927,2023,07,24,18,00,AAXX 24184 41927 32956 01801 10294 20270 30021 40035 333 59006 70000=
41927,2023,07,25,00,00,AAXX 25004 41927 32456 40000 10268 20260 30016 40030 82510 333 56490 59008 70000 82618 84459=
41927,2023,07,25,06,00,AAXX 25064 41927 32958 01601 10338 20250 30024 40039 333 59006 70000=
41927,2023,07,25,12,00,AAXX 25124 41927 32457 41702 10335 20250 30008 40022 84400 333 10354 56400 58009 70000 81618 83828=
41927,2023,07,26,00,00,AAXX 26004 41927 32456 51701 10270 20250 30015 40029 82510 333 56490 59001 70000 82618 85459=
41927,2023,07,26,12,00,AAXX 26124 41927 11457 51501 10290 20270 30007 40021 60065 70162 82510 333 10340 56390 59001 70060 82618 85459=
41927,2023,07,26,18,00,AAXX 26184 41927 32956 31701 10280 20270 30022 40036 83010 333 56090 59006 70060 83459=
41927,2023,07,27,00,00,AAXX 27004 41927 32956 31601 10270 20260 30017 40032 83010 333 56090 58002 70060 83459=
41927,2023,07,27,06,00,AAXX 27064 41927 32458 51801 10330 20240 30018 40032 85400 333 56400 59006 70060 82618 83828=
41927,2023,07,27,12,00,AAXX 27124 41927 11457 61501 10305 20260 39996 40011 60066 70362 83510 333 10345 56490 59011 70060 83618 86459=
41927,2023,07,27,18,00,AAXX 27184 41927 32956 00000 10280 20260 30013 40027 333 59009 70060=
41929,2023,07,21,00,00,AAXX 21004 41929 02456 81305 10285 20270 30007 40016 8451/ 333 58021 70000 84618 88462==
41929,2023,07,21,03,00,AAXX 21034 41929 02456 71405 10306 20260 30030 40039 84510 333 20272 58026 70000 84618 87462==
41929,2023,07,21,06,00,AAXX 21063 41929 02457 60903 10330 20260 30032 40041 84540 333 58032 70000 84618==
41929,2023,07,21,09,00,AAXX 21094 41929 02458 51305 10325 20270 30014 40023 83430 333 58032 70000 82618 83365==
41929,2023,07,21,12,00,AAXX 21124 41929 02/57 51305 10322 20250 30013 40022 85030 333 10344 58042 70000 85365==
41929,2023,07,21,15,00,AAXX 21154 41929 02456 61304 10295 20270 30040 40049 82530 333 58034 70000 82618 84365==
41929,2023,07,21,18,00,AAXX 21184 41929 02456 71305 10292 20260 30053 40062 83570 333 58037 70000 83618 85462==
41929,2023,07,22,00,00,AAXX 22004 41929 02456 61303 10280 20260 30046 40055 82530 333 58039 70000 82618 84365==
41929,2023,07,22,03,00,AAXX 22034 41929 02456 70906 10310 20260 30069 40078 84510 333 20274 58039 70000 84618 86462==
41929,2023,07,22,06,00,AAXX 22064 41929 02457 61406 10335 20260 30064 40073 83540 333 58003 70000 83618 85365==
41929,2023,07,22,09,00,AAXX 22094 41929 02457 51506 10350 20240 30038 40048 83470 333 58024 70000 82618 83365==
41929,2023,07,22,12,00,AAXX 22124 41929 02457 41704 10314 20250 30036 40046 82470 333 10350 58023 70000 81618 83365==
41929,2023,07,22,15,00,AAXX 22154 41929 02/57 20000 10290 20260 30058 40068 82030 333 58028 70000 82365==
41929,2023,07,22,18,00,AAXX 22184 41929 02457 31604 10280 20260 30072 40082 82530 333 58019 70000 82530==
41929,2023,07,22,21,00,AAXX 22214 41929 02457 31702 10280 20260 30060 40070 82530 333 58020 70000 82618==
41929,2023,07,23,00,00,AAXX 23004 41929 02/57 31002 10275 20260 30069 40079 83090 333 58030 70000 82462==
41929,2023,07,23,03,00,AAXX 23034 41929 02457 71404 10315 20270 30069 40078 84570 333 20268 58000 70000 84618 85462==
41929,2023,07,23,06,00,AAXX 23064 41929 02458 61403 10340 20260 30059 40068 84440 333 59005 70000 83618 85365==
41929,2023,07,23,09,00,AAXX 23094 41929 02457 61503 10335 20260 30034 40044 84470 333 59004 70000 82618 83365==
41929,2023,07,23,12,00,AAXX 23124 41929 02457 71504 10330 20280 30017 40026 85470 333 10350 59019 70000 83618 83365==
41929,2023,07,23,15,00,AAXX 23154 41929 01457 40000 10286 20280 30044 40054 70162 82530 333 59014 70008 82618 84365==
41929,2023,07,23,18,00,AAXX 23184 41929 01/57 31602 10280 20270 30050 40060 70162 83030 333 59012 70008 83365==
41929,2023,07,23,21,00,AAXX 23214 41929 02456 81502 10276 20270 30035 40045 8451/ 333 59025 70008 84618 88462==
41929,2023,07,24,00,00,AAXX 24004 41929 02456 80902 10274 20260 30039 40049 8351/ 333 59030 70008 83618 86462==
41929,2023,07,24,03,00,AAXX 24034 41929 02456 61403 10312 20260 30042 40051 83540 333 20268 59027 70008 83618 85365==
41929,2023,07,24,06,00,AAXX 24064 41929 02457 61403 10338 20270 30037 40046 85440 333 59022 70008 82618 83825==
41929,2023,07,24,09,00,AAXX 24094 41929 02457 60000 10350 20260 30017 40026 85430 333 59033 70008 83618 83365==
41929,2023,07,24,12,00,AAXX 24124 41929 02457 30000 10340 20260 30007 40017 82430 333 10355 59010 70008 81618 83365==
41929,2023,07,24,15,00,AAXX 24154 41929 02/57 20000 10290 20280 30025 40035 82030 333 59019 70000 82365==
41929,2023,07,24,18,00,AAXX 24184 41929 02/57 20902 10280 20260 30033 40043 82030 333 59017 70000 82365==
41929,2023,07,24,21,00,AAXX 24214 41929 02456 41002 10276 20270 30030 40040 82570 333 59005 70000 82618 83462==
41929,2023,07,25,00,00,AAXX 25004 41929 02456 81001 10274 20260 30031 40041 8357/ 333 59008 70000 83618 86462==
41929,2023,07,25,03,00,AAXX 25034 41929 02456 61402 10322 20270 30042 40051 83540 333 20267 58000 70000 83618 84365==
41929,2023,07,25,06,00,AAXX 25064 41929 02457 60906 10330 20260 30037 40046 85440 333 58000 70000 82618 83825==
41929,2023,07,25,09,00,AAXX 25094 41929 02458 51806 10352 20250 30020 40029 83430 333 58003 70000 82618 83365==
41929,2023,07,25,12,00,AAXX 25124 41929 02557 41806 10330 20250 30018 40027 82130 333 10355 58011 70000 82825 83365==
41929,2023,07,25,15,00,AAXX 25154 41929 02/56 41804 10295 20260 30039 40048 84030 333 58014 70000 84365==
41929,2023,07,25,18,00,AAXX 25184 41929 02/56 41801 10280 20260 30040 40049 84030 333 58007 70000 84365==
41929,2023,07,25,21,00,AAXX 25214 41929 02/56 40903 10281 20260 30037 40046 84030 333 58007 70000 84365==
41929,2023,07,26,00,00,AAXX 26004 41929 02/56 50903 10282 20260 30034 40043 85030 333 58003 70000 85365==
41929,2023,07,26,03,00,AAXX 26034 41929 02457 61307 10305 20260 30049 40058 83430 333 20273 58007 70000 82618 84365==
41929,2023,07,26,06,00,AAXX 26064 41929 01457 61303 10294 20280 30043 40052 72122 83430 333 58006 70030 82618 84365==
41929,2023,07,26,09,00,AAXX 26094 41929 01456 71805 10295 20260 30027 40036 72162 83570 333 58007 70056 83618 85462==
41929,2023,07,26,12,00,AAXX 26124 41929 11457 50000 10305 20270 30019 40028 60021 70162 82430 333 10333 58001 70056 81618 84365==
41929,2023,07,26,15,00,AAXX 26154 41929 01/56 41303 10285 20280 30039 40048 70162 84030 333 58000 70066 84365==
41929,2023,07,26,18,00,AAXX 26184 41929 11456 51303 10280 20270 30042 40051 60016 70362 82530 333 58002 70066 82618 83365==
41929,2023,07,26,21,00,AAXX 26214 41929 02/56 51302 10277 20270 30036 40045 85030 333 59001 70066 85365==
41929,2023,07,27,00,00,AAXX 27004 41929 02/56 51302 10274 20260 30030 40039 85030 333 59004 70066 85365==
41929,2023,07,27,03,00,AAXX 27034 41929 02456 71403 10306 20260 30042 40051 83570 333 20268 59007 70066 83618 85462==
41929,2023,07,27,06,00,AAXX 27064 41929 02457 61403 10340 20260 30033 40042 85440 333 59010 70032 82618 83825==
41929,2023,07,27,09,00,AAXX 27094 41929 02457 71802 10315 20270 30017 40026 83570 333 59010 70010 83618 85462==
41929,2023,07,27,12,00,AAXX 27124 41929 02457 71304 10310 20260 30007 40016 83570 333 10345 59012 70010 83618 85462==
41929,2023,07,27,15,00,AAXX 27154 41929 02/56 41302 10287 20270 30020 40029 84030 333 59019 70000 84365==
41929,2023,07,27,18,00,AAXX 27184 41929 32956 40000 10283 20260 30025 40034 84030 333 56090 59017 70000 84365=
41929,2023,07,27,21,00,AAXX 27214 41929 02456 51802 10278 20270 30016 40025 82530 333 59020 70000 82618 83365==
41933,2023,07,21,00,00,AAXX 21004 41933 11556 50000 10276 20270 30021 40029 60006 70262 82250 333 58030 82826 85362==
41933,2023,07,21,03,00,AAXX 21034 41933 42456 51803 10306 20270 30037 40045 84530 333 20275 58030 84618 85362==
41933,2023,07,21,06,00,AAXX 21063 41933 42456 71802 10332 20250 30035 40043 83431 333 58035 82618 85362==
41933,2023,07,21,09,00,AAXX 21094 41933 42456 61903 10345 20270 30010 40019 83520 333 58030 83618 86458==
41933,2023,07,21,12,00,AAXX 21124 41933 42456 72306 10320 20270 30019 40028 83520 333 10350 58041 83618 87458==
41933,2023,07,21,15,00,AAXX 21154 41933 01450 61802 10284 20270 30049 40058 76196 83510 333 58038 70008 83618 86458==
41933,2023,07,21,18,00,AAXX 21184 41933 21450 61702 10276 20260 30055 40064 70296 83510 333 58035 69988 70008 83618 86458==
41933,2023,07,22,00,00,AAXX 22004 41933 02450 40000 10270 20250 30053 40062 82530 333 58032 70008 82618 84362==
41933,2023,07,22,03,00,AAXX 22034 41933 02456 50000 10318 20250 30071 40079 82501 333 20268 58034 70008 82618 84074==
41933,2023,07,22,06,00,AAXX 22064 41933 02456 51703 10325 20250 30066 40074 85400 333 58031 70008 82618 83824==
41933,2023,07,22,09,00,AAXX 22094 41933 02456 51802 10345 20210 30049 40051 85400 333 58033 70008 82618 83825==
41933,2023,07,22,12,00,AAXX 22124 41933 02456 51802 10325 20280 30040 40048 84501 333 10350 58021 70008 83618 85074==
41933,2023,07,22,15,00,AAXX 22154 41933 02456 71902 10295 20260 30058 40067 83520 333 58009 70000 83618 87458==
41933,2023,07,22,18,00,AAXX 22184 41933 02456 60000 10285 20260 30069 40077 82520 333 58014 70000 82618 86458==
41933,2023,07,22,21,00,AAXX 22214 41933 02456 60000 10280 20260 30067 40076 82520 333 58014 70000 82618 86458==
41933,2023,07,23,00,00,AAXX 23004 41933 02456 40000 10275 20270 30065 40074 82530 333 58012 70000 82618 84362==
41933,2023,07,23,03,00,AAXX 23034 41933 02456 42103 10315 20260 30073 40081 83850 333 20274 58002 70000 81616 83826==
41933,2023,07,23,06,00,AAXX 23064 41933 02456 51304 10334 20250 30057 40065 83841 333 59009 70000 82618 84074==
41933,2023,07,23,09,00,AAXX 23094 41933 02456 61802 10332 20250 30033 40041 83803 333 59010 70000 81618 85074==
41933,2023,07,23,12,00,AAXX 23124 41933 02456 30000 10323 20250 30021 40029 83800 333 10345 59019 70000 82618==
41933,2023,07,23,15,00,AAXX 23154 41933 02950 00000 10295 20270 30044 40053 333 59014 70000==
41933,2023,07,23,18,00,AAXX 23184 41933 02950 00000 10290 20270 30052 40061 333 59017 70000==
41933,2023,07,23,21,00,AAXX 23214 41933 02440 40000 10285 20270 30058 40067 82530 333 59009 70000 82618 84362==
41933,2023,07,24,00,00,AAXX 24004 41933 02450 60000 10280 20270 30035 40044 84520 333 59030 70000 84618 86458==
41933,2023,07,24,03,00,AAXX 24034 41933 02456 51802 10319 20270 30042 40050 84850 333 20276 59031 70000 83618 83828==
41933,2023,07,24,06,00,AAXX 24064 41933 02457 51802 10334 20250 30037 40045 84840 333 59020 70000 83618 83828==
41933,2023,07,24,09,00,AAXX 24094 41933 02457 52303 10344 20250 30014 40023 83502 333 59019 70000 83616 85074==
41933,2023,07,24,12,00,AAXX 24124 41933 02456 52602 10326 20260 30006 40015 84840 333 10352 59015 70000 83616 84362==
41933,2023,07,24,18,00,AAXX 24184 41933 02450 10000 10285 20270 30029 40038 81500 333 59023 70000 81616==
41933,2023,07,24,21,00,AAXX 24214 41933 02340 41801 10280 20260 30027 40036 84600 333 59031 70000 81708 83616==
41933,2023,07,25,00,00,AAXX 25004 41933 21340 61302 10265 20260 30031 40039 70362 84610 333 59004 60025 70022 82708 83616 85457==
41933,2023,07,25,03,00,AAXX 25034 41933 02456 61402 10300 20260 30043 40051 82510 333 20265 58001 70022 82618 85457==
41933,2023,07,25,06,00,AAXX 25064 41933 02456 61902 10340 20260 30035 40043 83431 333 59002 70022 82618 83362==
41933,2023,07,25,09,00,AAXX 25094 41933 02457 50000 10345 20280 30011 40020 84840 333 59003 70022 83618 83828==
41933,2023,07,25,12,00,AAXX 25124 41933 11456 61802 10272 20250 30026 40034 60162 72196 83520 333 10356 58020 70183 83616 86458==
41933,2023,07,25,15,00,AAXX 25154 41933 01456 70000 10274 20260 30041 40049 70362 85520 333 58016 70195 85614 87458==
41933,2023,07,25,18,00,AAXX 25184 41933 11456 71802 10276 20270 30042 40050 60016 70262 84510 333 58013 70195 84616 87458==
41933,2023,07,25,21,00,AAXX 25214 41933 02456 50000 10270 20260 30038 40047 82520 333 58011 70195 82616 85458==
41933,2023,07,26,00,00,AAXX 26004 41933 02456 40000 10266 20260 30042 40051 82250 333 58011 70173 82826 84362==
41933,2023,07,26,03,00,AAXX 26034 41933 02456 61803 10302 20240 30052 40061 86400 333 20264 58009 70173 84616==
41933,2023,07,26,06,00,AAXX 26064 41933 02456 61904 10326 20260 30044 40052 86400 333 58009 70173 84616==
41933,2023,07,26,09,00,AAXX 26094 41933 02456 52003 10325 20270 30025 40033 85400 333 58014 70173 82618 83825==
41933,2023,07,26,12,00,AAXX 26124 41933 01356 80000 10295 20260 30028 40036 76222 8672/ 333 58002 70000 83707 84615 88457==
41933,2023,07,26,15,00,AAXX 26154 41933 42456 71802 10280 20260 30050 40059 84520 333 58009 84616 87458==
41933,2023,07,26,18,00,AAXX 26184 41933 21450 20000 10274 20260 30043 40051 70162 82500 333 58001 60045 70044 82616==
41933,2023,07,26,21,00,AAXX 26214 41933 02450 60000 10270 20250 30035 40044 83520 333 59003 70044 83616 86458==
41933,2023,07,27,00,00,AAXX 27004 41933 11350 81802 10264 20250 30040 40049 60012 76162 8572/ 333 59002 70055 82709 84615 88458==
41933,2023,07,27,03,00,AAXX 27034 41933 01450 61702 10290 20250 30046 40055 70162 83431 333 20262 59006 70057 82618 83362==
41933,2023,07,27,06,00,AAXX 27064 41933 01450 71804 10308 20270 30042 40051 72162 85431 333 59002 70085 83616 83362==
41933,2023,07,27,09,00,AAXX 27094 41933 02456 61802 10308 20260 30020 40029 83411 333 59005 70085 81616 84458==
41933,2023,07,27,12,00,AAXX 27124 41933 01456 70000 10285 20280 30014 40023 70362 83411 333 10316 59014 70080 82616 83457 85074==
41933,2023,07,27,15,00,AAXX 27154 41933 02456 20000 10280 20270 30027 40036 82500 333 59023 70167 82618==
41933,2023,07,27,18,00,AAXX 27184 41933 32456 62002 10275 20270 30025 40034 82520 333 56990 59018 70123 82618 86458=
41936,2023,07,21,00,00,AAXX 21004 41936 41450 41103 10280 20260 30001 40008 70522 82830 333 58017 83615 84362==
41936,2023,07,21,03,00,AAXX 21034 41936 41340 41410 10316 20270 30014 40021 70522 82630 333 20280 58025 81710 83362==
41936,2023,07,21,06,00,AAXX 21064 41936 41340 61607 10340 20260 30022 40029 70522 84630 333 58033 82710 83362==
41936,2023,07,21,09,00,AAXX 21094 41936 01340 41606 10340 20260 30012 40019 70562 82630 333 58004 70001 83615 84362==
41936,2023,07,21,12,00,AAXX 21124 41936 01340 71710 10320 20270 30015 40022 79562 85930 333 10340 58047 70010 83707 83615 86362 81930==
41936,2023,07,21,15,00,AAXX 21154 41936 41440 41405 10290 20250 30025 40032 70522 82830 333 58027 82615 83362==
41936,2023,07,21,18,00,AAXX 21184 41936 01440 61406 10284 20260 30037 40044 70511 83830 333 58034 70010 83615 84362==
41936,2023,07,21,21,00,AAXX 21214 41936 01440 51205 10280 20260 30030 40037 70522 83830 333 58034 70010 83615 83362==
41936,2023,07,22,00,00,AAXX 22004 41936 01330 71305 10274 20260 30034 40041 70522 85630 333 58033 70010 83708 83615 85362==
41936,2023,07,22,03,00,AAXX 22034 41936 41340 41410 10310 20260 30056 40063 70522 82630 333 20272 58040 82615 83362==
41936,2023,07,22,06,00,AAXX 22064 41936 01340 71710 10326 20260 30055 40062 76022 82630 333 58036 70000 84707 83615 86362==
41936,2023,07,22,09,00,AAXX 22094 41936 01350 71712 10326 20260 30030 40037 70566 84630 333 58015 70040 82710 83615 85362==
41936,2023,07,22,12,00,AAXX 22124 41936 01450 41512 10310 20260 30026 40030 70566 82530 333 10338 58008 70040 83615==
41936,2023,07,22,15,00,AAXX 22154 41936 01350 41203 10290 20250 30051 40058 70562 82530 333 58026 70040 83615==
41936,2023,07,22,18,00,AAXX 22184 41936 01450 61103 10288 20250 30051 40058 70522 84830 333 58017 70040 86315 84362==
41936,2023,07,22,21,00,AAXX 22214 41936 01450 61203 10284 20260 30054 40061 70522 84830 333 58024 70040 86315 84362==
41936,2023,07,23,00,00,AAXX 23004 41936 01430 40903 10274 20260 30055 40062 70522 84530 333 58021 70040 86315==
41936,2023,07,23,03,00,AAXX 23034 41936 01340 41410 10310 20260 30061 40068 70522 84630 333 20274 58006 70040 82710 83615 85362==
41936,2023,07,23,06,00,AAXX 23064 41936 01450 41511 10336 20270 30047 40054 70522 82830 333 59008 70040 83615 84362==
41936,2023,07,23,09,00,AAXX 23094 41936 01450 61408 10344 20250 30024 40033 70522 84630 333 59004 70000 81710 83615==
41936,2023,07,23,12,00,AAXX 23124 41936 01330 61904 10320 20270 30019 40026 70522 84630 333 10348 59007 70000 81710 83615==
41936,2023,07,23,15,00,AAXX 23154 41936 41440 40000 10292 20260 30035 40042 70562 82830 333 59016 82615 83362==
41936,2023,07,23,18,00,AAXX 23184 41936 41440 40000 10286 20260 30037 40044 70521 82830 333 59024 82615 83362==
41936,2023,07,23,21,00,AAXX 23214 41936 41440 40000 10280 20260 30029 40036 70511 82830 333 59025 82615 83362==
41936,2023,07,24,00,00,AAXX 24004 41936 41/30 20000 10272 20260 30028 40035 70511 82030 333 59027 82362==
41936,2023,07,24,03,00,AAXX 24034 41936 41440 41204 10312 20260 30028 40035 70521 82830 333 20270 59032 83615 84362==
41936,2023,07,24,06,00,AAXX 24064 41936 41440 41105 10338 20260 30028 40035 70522 82830 333 59019 83615 84362==
41936,2023,07,24,09,00,AAXX 24094 41936 41440 31706 10344 20250 30016 40023 70521 82830 333 59010 82615==
41936,2023,07,24,12,00,AAXX 24124 41936 01450 21906 10336 20260 30006 40012 70511 82800 333 10356 59014 70000 82615==
41936,2023,07,24,15,00,AAXX 24154 41936 41440 31702 10300 20280 30022 40029 70511 82830 333 59013 82615==
41936,2023,07,24,18,00,AAXX 24184 41936 01440 40000 10288 20270 30033 40040 70511 82830 333 59004 70009 82615 83362==
41936,2023,07,24,21,00,AAXX 24214 41936 41440 40000 10280 20260 30026 40033 70511 82830 333 82615 83362==
41936,2023,07,25,00,00,AAXX 25004 41936 41/30 40000 10276 20270 30022 40029 70511 84030 333 59006 84362==
41936,2023,07,25,03,00,AAXX 25034 41936 01440 41204 10314 20260 30035 40042 70511 83830 333 20266 58007 70000 83615==
41936,2023,07,25,06,00,AAXX 25064 41936 01450 40906 10336 20260 30029 40035 70521 83830 333 58000 70000 83615==
41936,2023,07,25,09,00,AAXX 25094 41936 01340 81212 10330 20270 30010 40017 76062 85730 333 59006 70010 87308 86315 83760==
41936,2023,07,25,12,00,AAXX 25124 41936 01340 71408 10290 20280 30020 40027 76066 84730 333 10350 58015 70030 87308 86315 83662==
41936,2023,07,25,15,00,AAXX 25154 41936 01340 61203 10288 20280 30030 40037 70562 84730 333 58008 70004 82710 83615==
41936,2023,07,25,18,00,AAXX 25184 41936 01440 41303 10284 20270 30024 40031 70522 82830 333 58009 70010 82615 84362==
41936,2023,07,26,00,00,AAXX 26004 41936 01330 40903 10274 20260 30024 40031 70511 83630 333 58002 70004 82710 84362==
41936,2023,07,26,03,00,AAXX 26034 41936 01430 60906 10300 20270 30038 40045 70521 83830 333 20272 70040 82710 83615==
41936,2023,07,26,06,00,AAXX 26064 41936 01440 61406 10338 20260 30032 40039 70522 84830 333 58004 70040 82710 83615==
41936,2023,07,26,09,00,AAXX 26094 41936 01330 72107 10280 20260 30023 40030 72122 84630 333 58013 70011 83708 83615 85362==
41936,2023,07,26,12,00,AAXX 26124 41936 01450 51206 10314 20260 30011 40018 70522 82830 333 10350 59009 70110 82615 84362==
41936,2023,07,26,15,00,AAXX 26154 41936 01350 61406 10294 20270 30032 40039 70522 83630 333 58002 70110 81710 83615==
41936,2023,07,26,18,00,AAXX 26184 41936 01340 61405 10288 20270 30030 40037 70522 83630 333 58006 70110 81710 83615==
41936,2023,07,26,21,00,AAXX 26214 41936 01430 41306 10280 20270 30022 40029 70522 82830 333 58016 70110 83615 84362==
41936,2023,07,27,00,00,AAXX 27004 41936 01430 31405 10272 20260 30022 40029 70522 82830 333 58002 70110 83615 83362==
41936,2023,07,27,03,00,AAXX 27034 41936 01440 61508 10304 20260 30032 40039 70522 84630 333 20270 59006 70110 82710 83615==
41936,2023,07,27,06,00,AAXX 27064 41936 01440 61708 10320 20270 30029 40036 70522 84630 333 59003 70000 82710 83615==
41936,2023,07,27,09,00,AAXX 27094 41936 01340 61406 10310 20280 30006 40013 70562 84630 333 59017 70120 82708 83615 85362==
41936,2023,07,27,12,00,AAXX 27124 41936 01440 51204 10310 20280 39999 40006 70592 333 10346 59012 70000 82615 84362==
41936,2023,07,27,15,00,AAXX 27154 41936 01440 41204 10290 20280 30013 40020 70511 82830 333 59021 70020 82615 83362==
41936,2023,07,27,18,00,AAXX 27184 41936 01440 31303 10288 20280 30012 40019 70511 82830 333 59018 70020 82615==
41936,2023,07,27,21,00,AAXX 27214 41936 01330 71405 10286 20280 30001 40008 76022 85730 333 59013 70040 83708 83615 85362==
41938,2023,07,21,00,00,AAXX 21004 41938 32456 61406 10284 20260 30009 40013 83532 333 56332 58017 70036 83616 83080=
41938,2023,07,21,06,00,AAXX 21063 41938 11356 71406 10285 20260 30027 40031 60112 76096 86720 333 56390 58031 70142 81708 84615 85460=
41938,2023,07,21,12,00,AAXX 21124 41938 11456 51802 10266 20270 30014 40018 60193 72162 82511 333 10322 56490 58034 70280 82616 83460=
41938,2023,07,21,18,00,AAXX 21184 41938 32456 41602 10278 20270 30048 40052 82510 333 56390 58037 70280 82617 83460=
41938,2023,07,22,00,00,AAXX 22004 41938 32456 61602 10274 20260 30046 40050 82511 333 56399 58037 70280 82617 83460=
41938,2023,07,22,06,00,AAXX 22064 41938 32456 41606 10330 20270 30060 40064 83411 333 56399 58033 70168 82617=
41938,2023,07,22,12,00,AAXX 22124 41938 11456 31603 10306 20260 30039 40043 69931 70362 81401 333 10338 56309 58028 70003 81618 83080=
41938,2023,07,22,18,00,AAXX 22184 41938 32950 31503 10281 20260 30063 40067 80001 333 56009 58015 70003 83080=
41938,2023,07,23,00,00,AAXX 23004 41938 32456 71501 10276 20270 30061 40065 83472 333 56399 58019 70003 82617 83460 85079=
41938,2023,07,23,06,00,AAXX 23064 41938 32457 51703 10328 20270 30060 40064 83431 333 56499 58000 70003 82618 83080=
41938,2023,07,23,12,00,AAXX 23124 41938 11456 40000 10317 20260 30042 40046 60014 70262 84400 333 10333 56400 58003 70012 83618=
41938,2023,07,23,18,00,AAXX 23184 41938 32450 30000 10285 20270 30034 40038 83500 333 56900 59029 70012 83618=
41938,2023,07,24,00,00,AAXX 24004 41938 32450 30000 10274 20260 30034 40038 83500 333 56900 59022 70012 83618=
41938,2023,07,24,06,00,AAXX 24064 41938 32456 40000 10330 20260 30034 40038 84401 333 56409 59026 70012 83618=
41938,2023,07,24,12,00,AAXX 24124 41938 11457 31602 10310 20280 30015 40019 60037 70162 83802 333 10340 56309 59027 70028 81616 83825=
41938,2023,07,24,18,00,AAXX 24184 41938 32956 12001 10270 20260 30031 40035 80001 333 56009 59003 70028 81080=
41938,2023,07,25,00,00,AAXX 25004 41938 32950 70000 10275 20270 30029 40033 87072 333 56099 59007 70028 86460 85080=
41938,2023,07,25,06,00,AAXX 25064 41938 32457 41205 10330 20260 30032 40036 83401 333 56309 59002 70028 82617=
41938,2023,07,25,12,00,AAXX 25124 41938 11456 62002 10290 20270 30023 40027 60073 70362 82410 333 10335 56399 58008 70070 82617 84460=
41938,2023,07,25,18,00,AAXX 25184 41938 11956 31802 10272 20260 30041 40045 60016 70261 83010 333 56090 58010 70082 83460=
41938,2023,07,26,00,00,AAXX 26004 41938 32456 41601 10274 20260 30033 40037 82511 333 56399 58004 70082 82617=
41938,2023,07,26,06,00,AAXX 26064 41938 32457 51603 10328 20260 30037 40041 83411 333 56399 58005 70082 82617=
41938,2023,07,26,12,00,AAXX 26124 41938 11456 41801 10276 20260 30027 40031 60183 70162 81471 333 10332 56499 58004 70192 81618 83460=
41938,2023,07,26,18,00,AAXX 26184 41938 NIL=
41938,2023,07,27,00,00,AAXX 27004 41938 11456 61501 10272 20260 30034 40038 69915 70162 81472 333 56399 58001 70184 81617 84079=
41938,2023,07,27,06,00,AAXX 27064 41938 11456 71701 10312 20270 30033 40037 60034 70362 84411 333 56499 59004 70210 83617 83460=
41938,2023,07,27,12,00,AAXX 27124 41938 11450 70000 10295 20290 30010 40014 60133 76196 84410 333 10315 56490 59017 70161 83618 84459=
41938,2023,07,27,18,00,AAXX 27184 41938 32450 40000 10276 20260 30020 40024 84500 333 56900 59016 70158 84618=
41939,2023,07,21,00,00,AAXX 21004 41939 02456 40000 10285 20270 30018 40026 82530 333 58021 70000 82618 83364==
41939,2023,07,21,03,00,AAXX 21034 41939 02459 50000 10315 20270 30030 40038 83530 333 20278 58025 70000 83618 83365==
41939,2023,07,21,06,00,AAXX 21063 41939 02458 40000 10335 20290 30037 40045 82530 333 58023 70000 82618 83365==
41939,2023,07,21,09,00,AAXX 21094 41939 02458 20000 10336 20290 30020 40028 81530 333 58032 70000 81618==
41939,2023,07,21,12,00,AAXX 21124 41939 02457 60000 10323 20270 30010 40018 83500 333 10340 58028 70000 83618 83365==
41939,2023,07,21,15,00,AAXX 21154 41939 02450 60000 10300 20270 30039 40047 83530 333 58049 70000 83618 83365==
41939,2023,07,21,18,00,AAXX 21184 41939 02450 60000 10290 20270 30046 40054 83510 333 58046 70000 83618 85459==
41939,2023,07,22,00,00,AAXX 22004 41939 02456 40000 10278 20260 30055 40063 82530 333 58034 70000 82618 83364==
41939,2023,07,22,03,00,AAXX 22034 41939 02459 50000 10312 20270 30078 40086 83530 333 20275 58048 70000 83618 83365==
41939,2023,07,22,06,00,AAXX 22064 41939 02460 20000 10333 20280 30065 40073 81430 333 58028 70000 81618==
41939,2023,07,22,09,00,AAXX 22094 41939 02460 40000 10335 20290 30046 40054 83530 333 58026 70000 83618==
41939,2023,07,22,12,00,AAXX 22124 41939 02458 30000 10325 20270 30037 40045 83500 333 10342 58003 70000 83618==
41939,2023,07,22,15,00,AAXX 22154 41939 02450 60000 10306 20270 30054 40062 83510 333 58015 70000 83618 85459==
41939,2023,07,22,18,00,AAXX 22184 41939 02450 60000 10294 20260 30068 40076 83510 333 58022 70000 83618 85459==
41939,2023,07,22,21,00,AAXX 22214 41939 02456 40000 10290 20280 30065 40073 82530 333 58006 70000 82618 83365==
41939,2023,07,23,00,00,AAXX 23004 41939 02456 40000 10280 20270 30073 40081 82530 333 58018 70000 82618 83365==
41939,2023,07,23,03,00,AAXX 23034 41939 02458 50000 10315 20280 30085 40093 83530 333 20275 58007 70000 83617 83365==
41939,2023,07,23,06,00,AAXX 23064 41939 02458 50000 10337 20300 30062 40070 82430 333 59003 70000 82618 83365==
41939,2023,07,23,09,00,AAXX 23094 41939 02458 50000 10338 20300 30041 40049 83430 333 59005 70000 83618 83365==
41939,2023,07,23,12,00,AAXX 23124 41939 02457 50000 10322 20290 30020 40028 83530 333 10322 59017 70000 83618 83365==
41939,2023,07,23,18,00,AAXX 23184 41939 02950 00000 10293 20270 30050 40058 333 59018 70000==
41939,2023,07,23,21,00,AAXX 23214 41939 02456 50000 10283 20270 30055 40063 83530 333 59010 70000 83617 83365==
41939,2023,07,24,00,00,AAXX 24004 41939 02456 50000 10280 20270 30047 40055 83530 333 59026 70000 83618 83365==
41939,2023,07,24,03,00,AAXX 24034 41939 02458 40000 10316 20280 30058 40066 82530 333 20275 59027 70000 82618 83364==
41939,2023,07,24,06,00,AAXX 24064 41939 02458 60000 10327 20300 30045 40053 83510 333 59017 70000 83617 85459==
41939,2023,07,24,09,00,AAXX 24094 41939 02458 30000 10335 20310 30027 40034 81530 333 59014 70000 81618 83365==
41939,2023,07,24,12,00,AAXX 24124 41939 02458 30000 10327 20260 30007 40015 83500 333 10343 59013 70000 83618==
41939,2023,07,24,15,00,AAXX 24154 41939 02950 00000 10313 20260 30019 40027 333 59017 70000==
41939,2023,07,24,18,00,AAXX 24184 41939 02950 00000 10298 20270 30030 40038 333 59020 70000==
41939,2023,07,24,21,00,AAXX 24214 41939 02456 40000 10277 20270 30052 40060 83530 333 59003 70000 83617 83364==
41939,2023,07,25,00,00,AAXX 25004 41939 02456 50000 10272 20260 30050 40058 83530 333 58003 70000 83617 83364==
41939,2023,07,25,03,00,AAXX 25034 41939 02459 40000 10320 20280 30055 40063 82530 333 59003 70000 82618 83365==
41939,2023,07,25,06,00,AAXX 25064 41939 02460 20000 10340 20320 30042 40050 81430 333 59003 70000 81618==
41939,2023,07,25,09,00,AAXX 25094 41939 02460 20000 10335 20320 30025 40033 81430 333 59002 70000 81618==
41939,2023,07,25,12,00,AAXX 25124 41939 02457 60000 10300 20260 30022 40030 83510 333 10346 58015 70000 83618 85459==
41939,2023,07,25,15,00,AAXX 25154 41939 02950 00000 10292 20260 30038 40046 333 58019 70000==
41939,2023,07,25,18,00,AAXX 25184 41939 02950 00000 10284 20260 30046 40054 333 58016 70000==
41939,2023,07,25,21,00,AAXX 25214 41939 02456 30000 10280 20270 30048 40056 82530 333 59004 70000 82618==
41939,2023,07,26,00,00,AAXX 26004 41939 02456 30000 10278 20260 30050 40058 82530 333 58000 70000 82618==
41939,2023,07,26,03,00,AAXX 26034 41939 02458 40000 10313 20290 30057 40065 83530 333 20272 58002 70000 83618 83364==
41939,2023,07,26,06,00,AAXX 26064 41939 02460 30000 10325 20280 30044 40052 81530 333 58002 70000 81618 83365==
41939,2023,07,26,09,00,AAXX 26094 41939 01458 50000 10293 20270 30033 40041 70396 83530 333 58008 70184 83617 83363==
41939,2023,07,26,12,00,AAXX 26124 41939 21457 60000 10314 20260 30020 40028 70392 83510 333 10330 59002 60185 70184 83618 85459==
41939,2023,07,26,15,00,AAXX 26154 41939 02450 20000 10298 20270 30034 40042 82500 333 59004 70184 82618==
41939,2023,07,26,18,00,AAXX 26184 41939 02950 00000 10290 20270 30043 40051 333 59003 70184==
41939,2023,07,26,21,00,AAXX 26214 41939 02456 40000 10280 20270 30046 40054 83530 333 59006 70184 83617 83365==
41939,2023,07,27,00,00,AAXX 27004 41939 02456 40000 10275 20270 30040 40048 83530 333 58010 70184 83617 83365==
41939,2023,07,27,03,00,AAXX 27034 41939 02459 40000 10312 20270 30050 40058 83530 333 20268 59007 70184 83618 83365==
41939,2023,07,27,06,00,AAXX 27064 41939 01456 80000 10294 20280 30044 40052 76122 8352/ 333 58000 70030 83616 88459==
41939,2023,07,27,09,00,AAXX 27094 41939 01456 80000 10316 20310 30023 40030 70262 8352/ 333 59010 70072 83617 88459==
41939,2023,07,27,12,00,AAXX 27124 41939 21457 60000 10293 20280 30007 40015 70162 83510 333 10337 59013 60105 70127 83618 85459==
41939,2023,07,27,15,00,AAXX 27154 41939 02450 60000 10285 20280 30017 40025 83510 333 59017 70127 83618 85459==
41939,2023,07,27,18,00,AAXX 27184 41939 32450 80000 10280 20260 30025 40033 8352/ 333 56999 59018 70127 83618 88459=
41939,2023,07,27,21,00,AAXX 27214 41939 02456 80000 10275 20270 30032 40040 8352/ 333 59014 70127 83617 88459==
41941,2023,07,21,00,00,AAXX 21004 41941 02450 80000 10282 20260 30023 40028 8632/ 333 58020 70000 85616 88458 81930==
41941,2023,07,21,03,00,AAXX 21034 41941 02456 61804 10320 20260 30038 40043 85420 333 20280 58028 70000 84616 86458==
41941,2023,07,21,06,00,AAXX 21063 41941 02456 61802 10335 20260 30038 40043 85420 333 58033 70000 84616 86458==
41941,2023,07,21,09,00,AAXX 21094 41941 02456 71804 10333 20260 30023 40028 85420 333 58031 70000 84616 87458==
41941,2023,07,21,12,00,AAXX 21124 41941 02456 61805 10325 20250 30020 40026 85420 333 10350 58031 70000 84616 86458==
41941,2023,07,21,15,00,AAXX 21154 41941 01440 81805 10310 20260 30024 40029 71322 8632/ 333 58016 70000 85616 88458 81928==
41941,2023,07,21,21,00,AAXX 21214 41941 01440 81804 10280 20270 30021 40026 72162 8632/ 333 58014 70030 85612 88456 81924==
41941,2023,07,22,00,00,AAXX 22004 41941 21450 70904 10275 20270 30056 40061 70162 85420 333 58033 60035 70030 84616 87458==
41941,2023,07,22,03,00,AAXX 22034 41941 02456 61804 10315 20270 30072 40077 85420 333 20274 58034 70030 84616 86458==
41941,2023,07,22,06,00,AAXX 22064 41941 02456 61804 10330 20260 30072 40077 85420 333 58034 70030 84616 86458==
41941,2023,07,22,09,00,AAXX 22094 41941 02456 71804 10340 20250 30044 40049 85420 333 58021 70030 84616 87458==
41941,2023,07,22,12,00,AAXX 22124 41941 02456 61405 10325 20260 30041 40047 85420 333 10354 58021 70030 84616 86458==
41941,2023,07,22,15,00,AAXX 22154 41941 02450 61804 10300 20260 30060 40065 85420 333 58036 70030 84616 86458==
41941,2023,07,22,21,00,AAXX 22214 41941 01440 81804 10284 20260 30040 40045 71322 8632/ 333 58019 70000 84616 88458 81930==
41941,2023,07,23,00,00,AAXX 23004 41941 02450 70000 10280 20270 30068 40073 85420 333 58012 70000 84616 87458==
41941,2023,07,23,03,00,AAXX 23034 41941 02456 71404 10308 20270 30081 40086 85420 333 20278 58009 70000 84616 87458==
41941,2023,07,23,06,00,AAXX 23064 41941 02456 71405 10335 20270 30063 40069 85420 333 59009 70000 84616 87458==
41941,2023,07,23,09,00,AAXX 23094 41941 02456 71803 10345 20270 30043 40049 85420 333 59001 70000 84616 87458==
41941,2023,07,23,12,00,AAXX 23124 41941 02450 62603 10315 20270 30028 40034 85420 333 10350 59013 70000 84616 86458==
41941,2023,07,23,15,00,AAXX 23154 41941 02440 60000 10297 20270 30051 40057 85420 333 59009 70000 84616 86458==
41941,2023,07,23,18,00,AAXX 23184 41941 02440 60000 10290 20270 30047 40053 85420 333 59012 70000 84616 86458==
41941,2023,07,23,21,00,AAXX 23214 41941 02440 60000 10285 20280 30038 40043 85420 333 59002 70000 84616 86458==
41941,2023,07,24,00,00,AAXX 24004 41941 02450 80000 10285 20280 30048 40053 8632/ 333 59020 70000 85616 88458 81930==
41941,2023,07,24,03,00,AAXX 24034 41941 02456 71803 10320 20270 30051 40056 85420 333 20280 59030 70000 84616 87458 86900==
41941,2023,07,24,06,00,AAXX 24064 41941 02457 61805 10335 20260 30063 40049 85420 333 59020 70000 84616 86458==
41941,2023,07,24,09,00,AAXX 24094 41941 02457 60000 10345 20260 30037 40043 85420 333 59006 70000 84616 86458==
41941,2023,07,24,12,00,AAXX 24124 41941 02456 61803 10321 20270 30018 40024 85420 333 10350 59010 70000 84616 86458==
41941,2023,07,24,15,00,AAXX 24154 41941 02440 60000 10300 20270 30034 40040 85420 333 59017 70000 84616 86458==
41941,2023,07,25,00,00,AAXX 25004 41941 02450 81803 10280 20280 30035 40041 8632/ 333 59013 70000 85616 88458 81930==
41941,2023,07,25,03,00,AAXX 25034 41941 02457 60904 10320 20270 30047 40052 85420 333 20280 59004 70000 84616 86458==
41941,2023,07,25,06,00,AAXX 25064 41941 02457 61503 10335 20260 30045 40051 85420 333 58002 70000 84616 86458==
41941,2023,07,25,09,00,AAXX 25094 41941 02457 62204 10345 20270 30026 40032 85420 333 59011 70000 84616 86458==
41941,2023,07,25,12,00,AAXX 25124 41941 02450 71803 10318 20280 30029 40035 85420 333 10350 58011 70000 84616 87458==
41941,2023,07,25,15,00,AAXX 25154 41941 02440 70000 10295 20270 30045 40051 85420 333 58011 70000 84616 87458==
41941,2023,07,25,18,00,AAXX 25184 41941 02440 61803 10290 20270 30047 40053 85420 333 58006 70000 84616 86458==
41941,2023,07,25,21,00,AAXX 25214 41941 02440 60000 10285 20270 30049 40045 85420 333 58006 70000 84616 86458==
41941,2023,07,26,00,00,AAXX 26004 41941 02450 60000 10281 20270 30030 40036 85420 333 59005 70000 84616 86458==
41941,2023,07,26,03,00,AAXX 26034 41941 02456 61803 10311 20260 30054 40059 85420 333 20280 58007 70000 84616 86458==
41941,2023,07,26,06,00,AAXX 26064 41941 02456 81803 10320 20270 30050 40056 8632/ 333 58005 70000 85616 88458 81930==
41941,2023,07,26,09,00,AAXX 26094 41941 01450 81803 10285 20280 30034 40040 72122 8632/ 333 58008 70032 85614 88456 81925==
41941,2023,07,26,12,00,AAXX 26124 41941 02450 61805 10318 20270 30030 40036 85420 333 10332 58001 70030 84616 86458==
41941,2023,07,26,15,00,AAXX 26154 41941 02440 71803 10290 20270 30051 40057 85420 333 58006 70030 84616 87458==
41941,2023,07,26,18,00,AAXX 26184 41941 02440 60803 10282 20260 30048 40053 85420 333 58001 70030 84616 86458==
41941,2023,07,26,21,00,AAXX 26214 41941 02440 60000 10280 20260 30042 40047 85420 333 58003 70030 84616 86458==
41941,2023,07,27,00,00,AAXX 27004 41941 02450 60000 10278 20278 30034 40039 85420 333 58004 70030 84616 84582==
41941,2023,07,27,03,00,AAXX 27034 41941 01456 60000 10310 20280 30049 40054 70262 85420 333 20270 59005 70050 84616 86458==
41941,2023,07,27,06,00,AAXX 27064 41941 11456 61804 10332 20260 30040 40046 60026 70262 85420 333 59005 70050 84616 86458==
41941,2023,07,27,09,00,AAXX 27094 41941 01456 71804 10290 20290 30034 40040 72122 85420 333 58000 70050 84615 87457==
41941,2023,07,27,12,00,AAXX 27124 41941 21456 71804 10305 20270 30012 40018 70262 85420 333 10340 59018 60035 70050 84616 87458==
41941,2023,07,27,15,00,AAXX 27154 41941 02440 70000 10290 20280 30027 40032 85420 333 59024 70050 84616 87458==
41941,2023,07,27,18,00,AAXX 27184 41941 32440 71804 10285 20280 30034 40039 85420 333 56990 59014 70050 84616 87458=
41941,2023,07,27,21,00,AAXX 27214 41941 32440 70000 10280 20270 30025 40030 85420 333 56990 59017 70050 84616 87458=
41943,2023,07,21,00,00,AAXX 21004 41943 02440 60000 10274 20250 30021 40028 84530 333 58023 70000 84616 84362==
41943,2023,07,21,03,00,AAXX 21034 41943 02440 51802 10314 20240 30032 40039 83530 333 20272 58016 70000 83362==
41943,2023,07,21,06,00,AAXX 21064 41943 02440 51802 10340 20250 30040 40047 83530 333 58030 70000 83616 83362==
41943,2023,07,21,09,00,AAXX 21094 41943 02440 60000 10345 20260 30019 40026 84530 333 58029 70000 84616 84362==
41943,2023,07,21,12,00,AAXX 21124 41943 02435 81802 10295 20270 30016 40023 8662/ 333 10365 58039 70000 83710 84615 88458==
41943,2023,07,21,15,00,AAXX 21154 41943 02430 81802 10280 20260 30057 40064 8662/ 333 58047 70000 83710 84615 88458==
41943,2023,07,21,18,00,AAXX 21184 41943 02430 81803 10278 20270 30060 40067 8662/ 333 58034 70000 83710 84615 88458==
41943,2023,07,21,21,00,AAXX 21214 41943 02430 81802 10270 20260 30058 40065 8662/ 333 58034 70000 83710 84615 88458==
41943,2023,07,22,00,00,AAXX 22004 41943 02430 61802 10265 20250 30057 40064 83520 333 58036 70000 83616 84458==
41943,2023,07,22,03,00,AAXX 22034 41943 02430 61802 10325 20240 30076 40083 83520 333 20265 58044 70000 83616 84458==
41943,2023,07,22,06,00,AAXX 22064 41943 02440 61803 10345 20245 30057 40064 83520 333 58017 70000 83616 84458==
41943,2023,07,22,09,00,AAXX 22094 41943 02440 71802 10346 20240 30040 40047 84520 333 58021 70000 84615 85458==
41943,2023,07,22,12,00,AAXX 22124 41943 02330 81803 10316 20250 30048 40055 8662/ 333 10362 58032 70000 83710 84615 88458==
41943,2023,07,22,15,00,AAXX 22154 41943 02430 61803 10292 20240 30065 40072 84520 333 58008 70000 84616 85458==
41943,2023,07,22,21,00,AAXX 22214 41943 02440 50000 10274 20250 30077 40084 83530 333 58019 70000 83616 83362==
41943,2023,07,23,00,00,AAXX 23004 41943 02440 50000 10270 20250 30072 40079 83530 333 58015 70000 83616 83362==
41943,2023,07,23,03,00,AAXX 23034 41943 02440 51802 10320 20240 30081 40088 83530 333 20270 58005 70000 83616 83362==
41943,2023,07,23,06,00,AAXX 23064 41943 02440 51803 10344 20220 30064 40071 84430 333 58007 70000 83616 83362==
41943,2023,07,23,09,00,AAXX 23094 41943 02440 51802 10346 20230 30038 40045 84430 333 59002 70000 83616 83362==
41943,2023,07,23,12,00,AAXX 23124 41943 02440 51802 10320 20240 30032 40039 84430 333 10355 59016 70000 83616 83362==
41943,2023,07,23,15,00,AAXX 23154 41943 02430 51802 10292 20250 30048 40055 83530 333 59017 70000 83616 83362==
41943,2023,07,23,18,00,AAXX 23184 41943 02430 50000 10286 20260 30056 40063 83530 333 58024 70000 83616 83362==
41943,2023,07,23,21,00,AAXX 23214 41943 02430 50000 10280 20260 30047 40054 83530 333 59030 70000 83616 83362==
41943,2023,07,24,00,00,AAXX 24004 41943 02435 60000 10276 20270 30040 40047 84530 333 59032 70000 84616 83362==
41943,2023,07,24,03,00,AAXX 24034 41943 02435 71802 10292 20260 30051 40058 84520 333 20274 59030 70000 84616 86458==
41943,2023,07,24,06,00,AAXX 24064 41943 02440 50000 10348 20240 30041 40048 84420 333 59023 70000 83616 85458==
41943,2023,07,24,09,00,AAXX 24094 41943 02440 61803 10345 20250 30018 40025 84420 333 59020 70000 83616 85458==
41943,2023,07,24,12,00,AAXX 24124 41943 02440 41803 10330 20240 30013 40020 82530 333 10360 59019 70000 82618 83362==
41943,2023,07,24,15,00,AAXX 24154 41943 02430 51802 10297 20260 30033 40040 82520 333 59015 70000 82616 84458==
41943,2023,07,24,18,00,AAXX 24184 41943 02430 80000 10286 20270 30035 40042 8662/ 333 59021 70000 83710 84615 88458==
41943,2023,07,24,21,00,AAXX 24214 41943 01330 81302 10276 20270 30039 40046 76166 8772/ 333 59008 70040 83709 84613 88456==
41943,2023,07,25,00,00,AAXX 25004 41943 21330 80000 10265 20260 30034 40041 70262 8762/ 333 59006 60048 70040 84709 84615 88458==
41943,2023,07,25,03,00,AAXX 25034 41943 02440 51302 10315 20250 30057 40064 83430 333 20265 58006 70040==
41943,2023,07,25,06,00,AAXX 25064 41943 02440 61803 10350 20240 30043 40050 84420 333 58002 70040 83616 85458==
41943,2023,07,25,09,00,AAXX 25094 41943 01330 80000 10270 20250 30021 40028 76066 8792/ 333 58003 70220 84709 84614 88458 82928==
41943,2023,07,25,12,00,AAXX 25124 41943 21430 82102 10297 20250 30030 40037 70262 8662/ 333 10352 58017 60188 70220 83710 84615 88458==
41943,2023,07,25,15,00,AAXX 25154 41943 02430 81802 10279 20260 30050 40057 8662/ 333 58017 70220 83710 84615 88458==
41943,2023,07,25,18,00,AAXX 25184 41943 02430 80000 10275 20260 30050 40057 8662/ 333 58015 70220 83710 84615 88458==
41943,2023,07,25,21,00,AAXX 25214 41943 01430 80000 10270 20260 30039 40046 7662/ 333 58000 70180 83710 84615 88458==
41943,2023,07,26,00,00,AAXX 26004 41943 02435 40000 10265 20250 30046 40053 82530 333 58012 70180 82618 83362==
41943,2023,07,26,03,00,AAXX 26034 41943 02435 71503 10317 20240 30059 40066 85420 333 20265 58002 70180 84616 86458==
41943,2023,07,26,06,00,AAXX 26064 41943 02435 81805 10314 20230 30052 40059 8662/ 333 58009 70180 83710 84615 88458==
41943,2023,07,26,09,00,AAXX 26094 41943 02440 71804 10312 20240 30035 40042 85420 333 58014 70000 84616 86458==
41943,2023,07,26,12,00,AAXX 26124 41943 02435 71804 10302 20250 30037 40044 84420 333 10340 58007 70000 83616 86458==
41943,2023,07,26,15,00,AAXX 26154 41943 02430 71803 10285 20260 30057 40064 83520 333 58007 70000 83616 86458==
41943,2023,07,26,18,00,AAXX 26184 41943 02430 81803 10272 20260 30053 40060 8662/ 333 58003 70000 83710 84615 88458==
41943,2023,07,26,21,00,AAXX 26214 41943 02430 71802 10270 20250 30040 40047 84520 333 58001 70000 84616 86458==
41943,2023,07,27,00,00,AAXX 27004 41943 02435 61303 10260 20240 30048 40055 83520 333 58002 70000 83616 85458==
41943,2023,07,27,03,00,AAXX 27034 41943 02440 61804 10300 20250 30053 40060 83520 333 20260 59006 70000 83616 86458==
41943,2023,07,27,06,00,AAXX 27064 41943 01330 81602 10270 20260 30048 40055 76062 8772/ 333 59004 70110 84709 84614 88456==
41943,2023,07,27,09,00,AAXX 27094 41943 01440 61802 10305 20270 30029 40036 70162 84520 333 59006 70130 84616 86458==
41943,2023,07,27,12,00,AAXX 27124 41943 11435 61802 10295 20280 30022 40029 60026 70262 84420 333 10312 59015 70130 83617 85458==
41943,2023,07,27,15,00,AAXX 27154 41943 02430 81802 10282 20250 30036 40043 8662/ 333 59021 70130 83710 84615 88458==
41943,2023,07,27,18,00,AAXX 27184 41943 02430 81802 10274 20260 30034 40041 8662/ 333 59019 70130 83710 84615 88458==
41943,2023,07,27,21,00,AAXX 27214 41943 01330 81802 10270 20260 30024 40031 76166 8762/ 333 59016 70180 84709 84614 88456==
41944,2023,07,21,12,00,AAXX 21124 41944 NIL=
41944,2023,07,22,00,00,AAXX 22004 41944 NIL=
41944,2023,07,23,00,00,AAXX 23004 41944 NIL=
41944,2023,07,23,06,00,AAXX 23064 41944 NIL=
41944,2023,07,23,18,00,AAXX 23184 41944 NIL=
41944,2023,07,24,06,00,AAXX 24064 41944 NIL=
41944,2023,07,24,12,00,AAXX 24124 41944 NIL=
41944,2023,07,25,00,00,AAXX 25004 41944 NIL=
41944,2023,07,25,06,00,AAXX 25064 41944 NIL=
41944,2023,07,25,12,00,AAXX 25124 41944 NIL=
41944,2023,07,26,00,00,AAXX 26004 41944 NIL=
41944,2023,07,26,12,00,AAXX 26124 41944 NIL=
41944,2023,07,26,18,00,AAXX 26184 41944 NIL=
41944,2023,07,27,00,00,AAXX 27004 41944 NIL=
41944,2023,07,27,06,00,AAXX 27064 41944 NIL=
41944,2023,07,27,12,00,AAXX 27124 41944 NIL=
41946,2023,07,21,00,00,AAXX 21004 41946 02456 80000 10288 20270 30008 40013 8452/ 333 58021 70022 84618 88460==
41946,2023,07,21,03,00,AAXX 21034 41946 02456 70000 10318 20270 30022 40027 83510 333 20282 58021 70022 84618 84460 81929==
41946,2023,07,21,06,00,AAXX 21063 41946 01356 80000 10290 20280 30026 40031 76122 8472/ 333 58031 70030 81710 83617 88459==
41946,2023,07,21,09,00,AAXX 21094 41946 01456 71401 10300 20270 30017 40022 72162 83520 333 58041 70050 83618 87460==
41946,2023,07,21,12,00,AAXX 21124 41946 01456 70000 10281 20260 30018 40023 72196 84320 333 10332 58048 70050 82618 86459 81929==
41946,2023,07,21,15,00,AAXX 21154 41946 02556 40000 10290 20280 30034 40038 84400 333 58028 70050 82620 83822==
41946,2023,07,21,18,00,AAXX 21184 41946 02556 50000 10292 20270 30048 40053 85400 333 58040 70050 83620 83822==
41946,2023,07,22,00,00,AAXX 22004 41946 02356 60000 10284 20270 30040 40045 84630 333 58032 70050 83710 84360==
41946,2023,07,22,03,00,AAXX 22034 41946 02456 60000 10310 20260 30063 40058 84310 333 20280 58041 70050 83618 83460 81929==
41946,2023,07,22,06,00,AAXX 22064 41946 02456 60000 10315 20270 30059 40064 84310 333 58023 70020 83618 83460 81929==
41946,2023,07,22,09,00,AAXX 22094 41946 01350 80000 10325 20270 30046 40051 79522 8592/ 333 58029 70022 81710 84617 88458 81928==
41946,2023,07,22,12,00,AAXX 22124 41946 21456 50000 10300 20270 30037 40042 70196 84310 333 10330 58021 60115 70110 83618 83460 81928==
41946,2023,07,22,15,00,AAXX 22154 41946 02956 01402 10292 20260 30059 40064 333 58025 70110==
41946,2023,07,22,18,00,AAXX 22184 41946 02456 50000 10287 20270 30069 40074 83520 333 58021 70110 83618 84460==
41946,2023,07,22,21,00,AAXX 22214 41946 02456 50000 10284 20260 30056 40061 83530 333 58016 70110 83618==
41946,2023,07,23,00,00,AAXX 23004 41946 02456 40000 10280 20270 30061 40066 82501 333 58021 70110 82618==
41946,2023,07,23,03,00,AAXX 23034 41946 01456 60000 10290 20270 30069 40074 72122 85410 333 20275 58006 70120 84618 83458==
41946,2023,07,23,06,00,AAXX 23064 41946 21456 60000 10305 20280 30060 40065 70262 83401 333 58001 60037 70140 82618 85080==
41946,2023,07,23,09,00,AAXX 23094 41946 01/56 50000 10330 20270 30033 40037 70162 83031 333 59013 70160 83360 83080==
41946,2023,07,23,12,00,AAXX 23124 41946 11/56 60000 10314 20250 30025 40030 60036 70362 85072 333 10330 59012 70060 82459 84360==
41946,2023,07,23,15,00,AAXX 23154 41946 02456 20000 10300 20250 30049 40054 82500 333 59010 70060 82618==
41946,2023,07,23,18,00,AAXX 23184 41946 02456 30000 10280 20260 30051 40056 83500 333 59018 70060 83618==
41946,2023,07,23,21,00,AAXX 23214 41946 02456 30000 10283 20260 30035 40040 83500 333 59021 70060 83618==
41946,2023,07,24,00,00,AAXX 24004 41946 02456 30000 10280 20270 30041 40046 83500 333 59020 70060 83618==
41946,2023,07,24,03,00,AAXX 24034 41946 02456 40000 10320 20260 30045 40050 83401 333 20275 59024 70050 82618 83080==
41946,2023,07,24,06,00,AAXX 24064 41946 02456 40000 10340 20260 30039 40044 83401 333 59024 70030 82618 83080==
41946,2023,07,24,09,00,AAXX 24094 41946 01457 41402 10339 20260 30022 40027 72911 83501 333 59011 70000 83618==
41946,2023,07,24,12,00,AAXX 24124 41946 01456 50000 10314 20260 30015 40020 70391 84301 333 10348 59010 70000 83618 81929==
41946,2023,07,24,15,00,AAXX 24154 41946 02556 30000 10308 20270 30030 40034 83400 333 59019 70000 82620==
41946,2023,07,24,18,00,AAXX 24184 41946 02556 20000 10292 20260 30033 40037 82100 333 59018 70000 82825==
41946,2023,07,24,21,00,AAXX 24214 41946 02556 40000 10290 20270 30020 40024 84400 333 59015 70000 83620==
41946,2023,07,25,00,00,AAXX 25004 41946 02/56 60000 10288 20280 30026 40030 86020 333 59015 70000 86460==
41946,2023,07,25,03,00,AAXX 25034 41946 02456 60000 10325 20270 30039 40041 83401 333 20284 59006 70000 82618 84080==
41946,2023,07,25,06,00,AAXX 25064 41946 01456 50000 10330 20260 30032 40037 70162 84301 333 59005 70030 83618 83080 81928==
41946,2023,07,25,09,00,AAXX 25094 41946 01456 60000 10295 20280 30021 40026 72196 84310 333 59001 70110 83618 84460 81928==
41946,2023,07,25,12,00,AAXX 25124 41946 01456 60000 10280 20260 30027 40032 72196 84310 333 10334 58012 70210 83618 88460 81928==
41946,2023,07,25,15,00,AAXX 25154 41946 01956 30000 10276 20270 30037 40042 70161 80001 333 58007 70232 83080==
41946,2023,07,25,18,00,AAXX 25184 41946 11456 11402 10282 20260 30033 40038 60026 70161 81500 333 58000 70232 81618==
41946,2023,07,25,21,00,AAXX 25214 41946 02456 20000 10282 20260 30027 40032 82500 333 58007 70232 82618==
41946,2023,07,26,00,00,AAXX 26004 41946 02456 41401 10282 20260 30034 40039 82501 333 58008 70232 82618==
41946,2023,07,26,03,00,AAXX 26034 41946 01456 51802 10305 20270 30042 40048 70362 83401 333 20270 58004 70238 82618 83080==
41946,2023,07,26,06,00,AAXX 26063 41946 01350 80000 10280 20260 30040 40045 76062 8572/ 333 58008 70262 82710 84617 88458==
41946,2023,07,26,09,00,AAXX 26094 41946 01456 60000 10304 20270 30022 40026 70162 86300 333 58001 70192 83618 83820 81928==
41946,2023,07,26,12,00,AAXX 26124 41946 01556 40000 10292 20270 30018 40023 70162 83330 333 10320 59009 70114 82825 83360 81929==
41946,2023,07,26,15,00,AAXX 26154 41946 01556 40000 10280 20260 30040 40045 70162 83330 333 58003 70112 82825 83360 81929==
41946,2023,07,26,18,00,AAXX 26184 41946 11456 30000 10284 20260 30039 40044 60026 70162 83500 333 58006 70112 83618==
41946,2023,07,26,21,00,AAXX 26214 41946 02456 30000 10283 20260 30028 40033 83500 333 58001 70112 83618==
41946,2023,07,27,00,00,AAXX 27004 41946 02456 40000 10281 20260 30034 40039 84400 333 58000 70112 83618==
41946,2023,07,27,03,00,AAXX 27034 41946 01456 61802 10310 20280 30040 40045 72121 85401 333 20270 59003 70116 84618 83820==
41946,2023,07,27,06,00,AAXX 27064 41946 01456 70000 10315 20280 30034 40039 70362 85310 333 59006 70078 84618 84460==
41946,2023,07,27,09,00,AAXX 27094 41946 01456 71801 10314 20260 30015 40020 70262 83520 333 59007 70086 83618 87460==
41946,2023,07,27,12,00,AAXX 27124 41946 11456 81801 10314 20250 30008 40013 60026 70362 8352/ 333 10330 59010 70064 83618 88460==
41946,2023,07,27,15,00,AAXX 27154 41946 02456 50000 10299 20260 30020 40024 85400 333 59020 70044 83618 83820==
41946,2023,07,27,18,00,AAXX 27184 41946 32556 40000 10290 20260 30022 40026 84400 333 56900 59017 70044 82620 83822=
41946,2023,07,27,21,00,AAXX 27214 41946 01456 60000 10287 20270 30007 40011 70362 83520 333 59021 70054 83618 85459==
41947,2023,07,21,00,00,AAXX 21004 41947 02456 50000 10288 20270 39997 49999 82530 333 58006 70000 82618 84362==
41947,2023,07,21,03,00,AAXX 21034 41947 02456 71303 10315 20270 30015 40018 83570 333 20282 58025 70000 83618 85459==
41947,2023,07,21,06,00,AAXX 21063 41947 02356 81302 10303 20260 30023 40026 8632/ 333 58036 70000 82710 83617 88458 81930==
41947,2023,07,21,09,00,AAXX 21094 41947 01456 61802 10310 20260 30013 40015 70162 83570 333 58036 70006 83618 85458==
41947,2023,07,21,12,00,AAXX 21124 41947 01456 31802 10295 20280 30015 40017 70162 83500 333 10325 58044 70056 83618==
41947,2023,07,21,15,00,AAXX 21154 41947 02450 20000 10288 20280 30035 40037 82500 333 58041 70056 82618==
41947,2023,07,22,00,00,AAXX 22004 41947 02456 21802 10280 20260 30042 40044 82500 333 58045 70056 82618==
41947,2023,07,22,03,00,AAXX 22034 41947 02456 61303 10310 20260 30054 40057 86400 333 20278 58039 70056 83618 86820==
41947,2023,07,22,06,00,AAXX 22064 41947 01350 81302 10285 20280 30052 40055 76162 8472/ 333 58029 70020 81709 83617 88458==
41947,2023,07,22,09,00,AAXX 22094 41947 02456 61404 10332 20250 30038 40040 83570 333 58025 70072 83618 85458==
41947,2023,07,22,12,00,AAXX 22124 41947 11456 51404 10312 20260 30038 40040 60036 70162 83570 333 10355 58023 70052 83618 84458==
41947,2023,07,22,15,00,AAXX 22154 41947 02950 01802 10295 20270 30058 40060 333 58023 70052==
41947,2023,07,22,18,00,AAXX 22184 41947 02950 01402 10290 20270 30068 40070 333 58032 70052==
41947,2023,07,22,21,00,AAXX 22214 41947 02950 01402 10285 20280 30067 40069 333 58030 70052==
41947,2023,07,23,00,00,AAXX 23004 41947 02456 21403 10280 20260 30066 40068 82500 333 58024 70052 82618==
41947,2023,07,23,03,00,AAXX 23034 41947 02456 61302 10300 20260 30048 40051 86400 333 20275 59006 70052 83618 83820==
41947,2023,07,23,06,00,AAXX 23064 41947 01456 61303 10310 20250 30052 40055 70262 86400 333 58000 70010 83618 83820==
41947,2023,07,23,09,00,AAXX 23094 41947 02456 31805 10344 20250 30032 40034 83500 333 59006 70040 83618==
41947,2023,07,23,12,00,AAXX 23124 41947 02456 21803 10325 20260 30033 40035 82500 333 10345 59005 70010 82618==
41947,2023,07,23,15,00,AAXX 23154 41947 02950 01802 10300 20270 30050 40052 333 59010 70010==
41947,2023,07,23,18,00,AAXX 23184 41947 02950 01802 10295 20270 30047 40049 333 59021 70010==
41947,2023,07,23,21,00,AAXX 23214 41947 02950 00000 10290 20270 30045 40047 333 59022 70010==
41947,2023,07,24,00,00,AAXX 24004 41947 02456 20000 10285 20290 30040 40042 82500 333 59026 70010 82618==
41947,2023,07,24,03,00,AAXX 24034 41947 02456 61303 10315 20260 30035 40038 85430 333 20278 59013 70010 82618 83820==
41947,2023,07,24,06,00,AAXX 24064 41947 02456 61303 10342 20260 30035 40037 86400 333 59018 70000 83618 83820==
41947,2023,07,24,09,00,AAXX 24094 41947 02456 61302 10340 20250 30022 40024 85430 333 59010 70000 82618 83820==
41947,2023,07,24,12,00,AAXX 24124 41947 02456 51802 10320 20260 30008 40010 84430 333 10345 59025 70000 82618 82820==
41947,2023,07,24,15,00,AAXX 24154 41947 02950 00000 10308 20250 30011 40013 333 59039 70000==
41947,2023,07,24,18,00,AAXX 24184 41947 02950 00000 10300 20260 30017 40019 333 59030 70000==
41947,2023,07,24,21,00,AAXX 24214 41947 02950 00000 10290 20270 30017 40019 333 59032 70000==
41947,2023,07,25,00,00,AAXX 25004 41947 02450 50000 10285 20280 30031 40033 82530 333 59009 70000 82618 84362==
41947,2023,07,25,03,00,AAXX 25034 41947 02456 61302 10325 20280 30029 40032 83570 333 20280 59006 70000 83618 84459==
41947,2023,07,25,06,00,AAXX 25064 41947 02456 61303 10340 20260 30027 40029 86400 333 59008 70000 83618 83820==
41947,2023,07,25,09,00,AAXX 25094 41947 01456 60000 10300 20270 30014 40017 72162 83570 333 59007 70058 83618 85459==
41947,2023,07,25,12,00,AAXX 25124 41947 01350 81302 10275 20270 30020 40023 76166 8432/ 333 10345 58013 70138 82709 83614 88458 81930==
41947,2023,07,25,15,00,AAXX 25154 41947 01450 60000 10275 20270 30040 40042 70166 83570 333 58029 70158 83618 85459==
41947,2023,07,25,18,00,AAXX 25184 41947 01450 20000 10270 20260 30035 40038 70166 82500 333 58019 70158 82618==
41947,2023,07,25,21,00,AAXX 25214 41947 02450 20000 10270 20260 30030 40033 82500 333 58014 70158 82618==
41947,2023,07,26,00,00,AAXX 26004 41947 02450 31302 10278 20270 30024 40027 82501 333 59005 70158 82618 83080==
41947,2023,07,26,03,00,AAXX 26034 41947 02456 61802 10310 20260 30034 40036 86400 333 20265 58004 70158 83618 83820==
41947,2023,07,26,06,00,AAXX 26064 41947 11456 70000 10295 20280 30026 40029 60016 72122 83570 333 58000 70172 83618 86458==
41947,2023,07,26,09,00,AAXX 26094 41947 01456 81603 10308 20270 30019 40022 70362 8432/ 333 58005 70124 83618 88459 81930==
41947,2023,07,26,12,00,AAXX 26124 41947 01456 20000 10275 20260 30020 40023 70166 82500 333 10335 58000 70154 82618==
41947,2023,07,26,15,00,AAXX 26154 41947 02450 21302 10285 20280 30036 40039 82500 333 59003 70134 82618==
41947,2023,07,26,18,00,AAXX 26184 41947 02450 31302 10285 20280 30036 40038 83500 333 58000 70154 83618==
41947,2023,07,26,21,00,AAXX 26214 41947 02450 20000 10281 20270 30033 40036 82500 333 58003 70154 82618==
41947,2023,07,27,00,00,AAXX 27004 41947 02450 30000 10275 20270 30028 40031 83500 333 59005 70154 83618==
41947,2023,07,27,03,00,AAXX 27034 41947 02456 61802 10300 20250 30031 40034 86400 333 20270 59003 70134 83618 83820==
41947,2023,07,27,06,00,AAXX 27064 41947 02450 81802 10320 20270 30025 40028 8352/ 333 59001 70120 83618 88458==
41947,2023,07,27,09,00,AAXX 27094 41947 01356 80000 10290 20280 30018 40020 79596 8432/ 333 59002 70300 83617 88458 81928==
41947,2023,07,27,12,00,AAXX 27124 41947 01456 60000 10312 20260 30007 40009 70196 83570 333 10330 59014 70240 83618 85458==
41947,2023,07,27,15,00,AAXX 27154 41947 02950 01802 10295 20270 30026 40028 333 59011 70240==
41947,2023,07,27,18,00,AAXX 27184 41947 32450 70000 10290 20270 30025 40027 83570 333 56990 59012 70240 83618 86458=
41947,2023,07,27,21,00,AAXX 27214 41947 01456 60000 10280 20260 30013 40015 70162 83570 333 59021 70250 83618 85458==
41950,2023,07,21,00,00,AAXX 21004 41950 02350 61502 10282 20270 30015 40017 84670 333 58021 70000 81708 84616 85459==
41950,2023,07,21,03,00,AAXX 21034 41950 02350 81602 10303 20260 30034 40036 8562/ 333 20275 58027 70000 82708 84616 88458==
41950,2023,07,21,06,00,AAXX 21064 41950 02450 51204 10327 20270 30037 40040 84470 333 58033 70000 83616 84459==
41950,2023,07,21,09,00,AAXX 21094 41950 02456 51205 10309 20270 30021 40024 85301 333 58032 70000 84616 81928==
41950,2023,07,21,12,00,AAXX 21124 41950 02450 61503 10312 20260 30024 40027 85331 333 10335 58039 70000 84616 81928==
41950,2023,07,21,15,00,AAXX 21154 41950 01340 81602 10284 20270 30052 40054 76122 8572/ 333 58040 70003 82708 84616 88458==
41950,2023,07,21,18,00,AAXX 21184 41950 21350 81402 10280 20270 30058 40060 70262 8562/ 333 58004 69935 70003 82708 84616 88458==
41950,2023,07,21,21,00,AAXX 21214 41950 02350 40000 10277 20270 30050 40052 83630 333 58033 70003 81708 83617==
41950,2023,07,22,00,00,AAXX 22004 41950 02350 30000 10275 20275 30054 40056 83631 333 58039 70003 81708 83617==
41950,2023,07,22,03,00,AAXX 22034 41950 02350 61202 10310 20260 30070 40073 86631 333 20274 58036 70003 82708 84616==
41950,2023,07,22,06,00,AAXX 22064 41950 02450 50904 10330 20260 30064 40067 85401 333 58027 70003 84616==
41950,2023,07,22,09,00,AAXX 22094 41950 02450 51804 10329 20260 30044 40047 84430 333 58023 70003 83617==
41950,2023,07,22,12,00,AAXX 22124 41950 02450 31603 10314 20250 30047 40050 82401 333 10338 58023 70003 82617==
41950,2023,07,22,15,00,AAXX 22154 41950 02450 30000 10292 20270 30064 40066 83500 333 58012 70000 83617==
41950,2023,07,22,18,00,AAXX 22184 41950 02450 11202 10285 20270 30073 40076 81500 333 58015 70000 81616==
41950,2023,07,22,21,00,AAXX 22214 41950 02450 20000 10281 20260 30066 40068 82500 333 58016 70000 82616==
41950,2023,07,23,00,00,AAXX 23004 41950 02350 60000 10280 20270 30068 40070 85671 333 58014 70000 81708 84616==
41950,2023,07,23,03,00,AAXX 23034 41950 02350 70902 10308 20270 30076 40079 85670 333 20274 58006 70000 81708 84616 86459==
41950,2023,07,23,06,00,AAXX 23064 41950 21450 40904 10330 20270 30065 40068 70162 84401 333 58001 60075 70074 83617==
41950,2023,07,23,09,00,AAXX 23094 41950 02450 61203 10336 20270 30040 40043 85331 333 59004 70074 83617 81928==
41950,2023,07,23,12,00,AAXX 23124 41950 02450 51802 10310 20260 30031 40034 82531 333 10340 59016 70074 82617 83080==
41950,2023,07,23,15,00,AAXX 23154 41950 02950 20000 10292 20270 30051 40054 80001 333 59019 70074 82080==
41950,2023,07,23,18,00,AAXX 23184 41950 02450 60000 10285 20280 30052 40054 83570 333 59021 70074 83617 85459==
41950,2023,07,23,21,00,AAXX 23214 41950 02350 70000 10282 20270 30044 40046 84670 333 59022 70074 81708 84616 86459==
41950,2023,07,24,00,00,AAXX 24004 41950 02450 70000 10276 20276 30044 40046 83471 333 59024 70074 83616 86459==
41950,2023,07,24,03,00,AAXX 24034 41950 02450 50902 10310 20260 30047 40050 84431 333 20275 59029 70074 83617==
41950,2023,07,24,06,00,AAXX 24064 41950 02450 61702 10320 20260 30044 40047 84471 333 59021 70000 83617 86459==
41950,2023,07,24,09,00,AAXX 24094 41950 02450 40902 10341 20260 30021 40024 84401 333 59019 70000 83617==
41950,2023,07,24,12,00,AAXX 24124 41950 02450 51202 10320 20250 30016 40019 82431 333 10343 59015 70000 82617==
41950,2023,07,24,15,00,AAXX 24154 41950 02950 00000 10295 20270 30035 40038 333 59016 70000==
41950,2023,07,24,18,00,AAXX 24184 41950 02950 00000 10280 20270 30038 40041 333 59014 70000==
41950,2023,07,24,21,00,AAXX 24214 41950 02/50 30000 10278 20270 30034 40036 82031 333 59010 70000 82362==
41950,2023,07,25,00,00,AAXX 25004 41950 02450 50000 10275 20270 30036 40038 82531 333 59008 70000 82617 83362==
41950,2023,07,25,03,00,AAXX 25034 41950 02450 60902 10315 20280 30044 40047 85401 333 20273 59003 70000 83617 83825==
41950,2023,07,25,06,00,AAXX 25064 41950 02450 60904 10323 20250 30040 40043 84470 333 59004 70000 83616 85459==
41950,2023,07,25,09,00,AAXX 25094 41950 02350 61206 10329 20260 30023 40026 85330 333 58002 70000 81708 84616 81928==
41950,2023,07,25,12,00,AAXX 25124 41950 01450 61204 10299 20260 30032 40035 70262 84471 333 10334 58016 70005 83616 85459==
41950,2023,07,25,15,00,AAXX 25154 41950 02450 20000 10283 20260 30044 40047 82500 333 58009 70005 82617==
41950,2023,07,25,18,00,AAXX 25184 41950 02450 20000 10282 20260 30044 40046 81530 333 58006 70005 81617==
41950,2023,07,25,21,00,AAXX 25214 41950 02450 30000 10282 20260 30034 40036 82530 333 58000 70005 82617==
41950,2023,07,26,00,00,AAXX 26004 41950 02350 50000 10285 20270 30038 40040 83631 333 58002 70005 81708 83616==
41950,2023,07,26,03,00,AAXX 26034 41950 01350 71503 10300 20270 30054 40056 70362 86630 333 20275 58010 70009 82708 84616==
41950,2023,07,26,06,00,AAXX 26064 41950 01350 51205 10324 20270 30043 40046 70162 85601 333 58003 70014 81708 84616==
41950,2023,07,26,09,00,AAXX 26094 41950 01450 51804 10328 20270 30030 40033 70292 83510 333 58007 70038 83616 84459==
41950,2023,07,26,12,00,AAXX 26124 41950 01450 40000 10298 20280 30032 40035 70196 83530 333 10330 58000 70049 83616==
41950,2023,07,26,15,00,AAXX 26154 41950 41350 70000 10285 20280 30052 40055 58008 70049 87459==
41950,2023,07,26,18,00,AAXX 26184 41950 21450 50000 10277 20277 30051 40053 76201 83510 333 58007 60025 70049 83616 84459==
41950,2023,07,26,21,00,AAXX 26214 41950 01350 80000 10273 20270 30041 40043 70362 8562/ 333 58007 70089 82708 84616 88458==
41950,2023,07,27,00,00,AAXX 27004 41950 11350 80000 10273 20270 30041 40043 60046 70262 8562/ 333 58003 70109 82708 84616 88458==
41950,2023,07,27,03,00,AAXX 27034 41950 02450 41202 10314 20260 30046 40048 82431 333 20267 59008 70105 82617==
41950,2023,07,27,06,00,AAXX 27064 41950 01450 61902 10308 20270 30041 40044 72162 83410 333 59002 70060 83617 85459==
41950,2023,07,27,09,00,AAXX 27094 41950 02350 81702 10322 20270 30022 40025 8532/ 333 59008 70112 82708 84616 88458 81928==
41950,2023,07,27,12,00,AAXX 27124 41950 11350 80000 10294 20270 30018 40021 60052 72162 8532/ 333 10333 59014 70184 82708 84616 88458 81928==
41950,2023,07,27,15,00,AAXX 27154 41950 02450 30000 10285 20280 30034 40036 81531 333 59018 70168 81616==
41950,2023,07,27,18,00,AAXX 27184 41950 02450 10000 10279 20270 30032 40034 81500 333 59019 70148 81616==
41950,2023,07,27,21,00,AAXX 27214 41950 02350 70000 10278 20278 30019 40021 84670 333 59022 70108 81708 84616 85459==
41951,2023,07,21,00,00,AAXX 21004 41951 21450 60904 10280 20260 30015 40020 70162 83510 333 58026 60037 70030 83618 85459==
41951,2023,07,21,03,00,AAXX 21034 41951 02456 61006 10303 20260 30022 40027 83510 333 20267 58020 70030 83618 85459==
41951,2023,07,21,06,00,AAXX 21063 41951 02456 61106 10325 20270 30040 40045 83510 333 58032 70030 83618 85459==
41951,2023,07,21,09,00,AAXX 21094 41951 02456 51308 10328 20270 30020 40025 82510 333 58033 70030 82618 84459==
41951,2023,07,21,12,00,AAXX 21124 41951 01456 61304 10300 20270 30023 40028 76122 83510 333 10330 58041 70002 83618 85459==
41951,2023,07,21,15,00,AAXX 21154 41951 02340 81503 10296 20270 30053 40058 8562/ 333 58041 70032 81708 84618 88458==
41951,2023,07,21,18,00,AAXX 21184 41951 02340 71302 10292 20260 30057 40062 84610 333 58037 70032 81708 83618 86459==
41951,2023,07,21,21,00,AAXX 21214 41951 02440 61302 10290 20260 30053 40058 83510 333 58036 70032 83618 85459==
41951,2023,07,22,00,00,AAXX 22004 41951 02450 51302 10288 20260 30049 40054 82510 333 58034 70002 82618 84459==
41951,2023,07,22,03,00,AAXX 22034 41951 02456 50905 10313 20260 30067 40072 82510 333 20280 58045 70002 82618 84459==
41951,2023,07,22,06,00,AAXX 22064 41951 02456 61306 10330 20270 30073 40078 83510 333 58033 70002 83618 85459==
41951,2023,07,22,09,00,AAXX 22094 41951 02456 61312 10330 20260 30047 40052 83510 333 58027 70002 83618 85459==
41951,2023,07,22,12,00,AAXX 22124 41951 02456 21302 10320 20260 30043 40048 82500 333 10333 58020 70000 82618==
41951,2023,07,22,15,00,AAXX 22154 41951 02950 01302 10288 20270 30063 40068 333 58010 70000==
41951,2023,07,22,18,00,AAXX 22184 41951 02950 00502 10287 20280 30075 40080 333 58018 70000==
41951,2023,07,22,21,00,AAXX 22214 41951 02450 21302 10284 20260 30068 40073 82500 333 58015 70000 82618==
41951,2023,07,23,00,00,AAXX 23004 41951 02450 51502 10288 20280 30063 40068 82510 333 58014 70000 82618 84459==
41951,2023,07,23,03,00,AAXX 23034 41951 02456 50904 10320 20270 30074 40079 82510 333 20280 58007 70000 82618 84459==
41951,2023,07,23,06,00,AAXX 23064 41951 02456 60303 10347 20280 30060 40065 83510 333 59013 70000 83618 85459==
41951,2023,07,23,09,00,AAXX 23094 41951 02456 61303 10342 20260 30039 40043 83510 333 59008 70000 83618 85459==
41951,2023,07,23,12,00,AAXX 23124 41951 02456 61302 10320 20260 30028 40033 83510 333 10350 59015 70000 83618 85459==
41951,2023,07,23,15,00,AAXX 23154 41951 02450 30000 10297 20280 30050 40055 83500 333 59013 70000 83618==
41951,2023,07,23,18,00,AAXX 23184 41951 02340 80000 10288 20280 30051 40055 8562/ 333 59024 70000 81708 84618 88458==
41951,2023,07,23,21,00,AAXX 23214 41951 02340 80000 10286 20280 30043 40048 8562/ 333 59025 70000 81708 84618 88458==
41951,2023,07,24,00,00,AAXX 24004 41951 02340 80000 10282 20270 30040 40045 8562/ 333 59023 70000 81708 84618 88459==
41951,2023,07,24,03,00,AAXX 24034 41951 02456 61205 10318 20270 30042 40047 83510 333 20278 59032 70000 83618 85459==
41951,2023,07,24,06,00,AAXX 24064 41951 02456 51006 10332 20270 30041 40046 85400 333 59019 70000 82618 83828==
41951,2023,07,24,09,00,AAXX 24094 41951 02456 41303 10348 20260 30026 40030 84400 333 59013 70000 82618 83828==
41951,2023,07,24,12,00,AAXX 24124 41951 02956 01803 10322 20250 30015 40019 333 10350 59013 70000==
41951,2023,07,24,15,00,AAXX 24154 41951 02956 00000 10292 20270 30040 40045 333 59010 70000==
41951,2023,07,24,18,00,AAXX 24184 41951 02450 61302 10283 20270 30035 40040 83510 333 59016 70000 83618 85459==
41951,2023,07,25,00,00,AAXX 25004 41951 21450 60000 10286 20280 30029 40034 70262 83510 333 59011 69955 70005 83618 85459==
41951,2023,07,25,03,00,AAXX 25034 41951 01456 61303 10310 20270 30038 40042 70262 83510 333 20275 59004 70022 83618 85459==
41951,2023,07,25,06,00,AAXX 25064 41951 11456 61304 10317 20260 30045 40050 60026 70162 83510 333 58004 70022 83618 85459==
41951,2023,07,25,09,00,AAXX 25094 41951 01456 51306 10337 20260 30027 40032 70162 85400 333 58001 70025 83618 83825==
41951,2023,07,25,12,00,AAXX 25124 41951 11456 61503 10307 20250 30026 40031 69936 70362 83510 333 10340 58011 70025 83618 85459==
41951,2023,07,25,15,00,AAXX 25154 41951 02340 80000 10288 20270 30047 40052 8562/ 333 58007 70025 81708 84618 88458==
41951,2023,07,25,18,00,AAXX 25184 41951 02450 31303 10288 20270 30043 40048 83500 333 58008 70025 83618==
41951,2023,07,26,00,00,AAXX 26004 41951 01450 61503 10272 20260 30037 40041 76122 83510 333 58008 70030 83618 85459==
41951,2023,07,26,03,00,AAXX 26034 41951 01456 61303 10302 20270 30046 40051 70262 83510 333 20269 58008 70035 83618 85459==
41951,2023,07,26,06,00,AAXX 26064 41951 01340 81304 10320 20270 30046 40051 70362 8562/ 333 58001 70039 81708 84618 88458==
41951,2023,07,26,09,00,AAXX 26094 41951 02456 61204 10327 20280 30030 40035 83510 333 58003 70057 83618 85459==
41951,2023,07,26,12,00,AAXX 26124 41951 01456 61302 10300 20270 30031 40036 70262 83510 333 10329 58005 70074 83618 85459==
41951,2023,07,26,15,00,AAXX 26154 41951 02450 50000 10282 20270 30052 40057 82510 333 58005 70074 82618 84459==
41951,2023,07,26,18,00,AAXX 26184 41951 02450 31302 10284 20270 30047 40052 83500 333 58004 70074 83618==
41951,2023,07,26,21,00,AAXX 26214 41951 01450 60000 10278 20270 30042 40047 72120 83510 333 58002 70080 83618 85459==
41951,2023,07,27,00,00,AAXX 27004 41951 21450 70000 10276 20270 30038 40042 70162 83510 333 58001 69965 70050 83618 86459==
41951,2023,07,27,03,00,AAXX 27034 41951 02456 61503 10324 20250 30044 40049 83510 333 20270 59002 70048 83618 85459==
41951,2023,07,27,06,00,AAXX 27064 41951 02456 61804 10348 20270 30039 40044 83510 333 59007 70044 83618 85459==
41951,2023,07,27,09,00,AAXX 27094 41951 01456 61303 10318 20270 30027 40032 70262 83510 333 59003 70027 83618 85459==
41951,2023,07,27,12,00,AAXX 27124 41951 11450 71303 10310 20260 30015 40020 69946 70362 83510 333 10350 59016 70010 83618 86459==
41951,2023,07,27,15,00,AAXX 27154 41951 02440 70000 10292 20270 30032 40037 83510 333 59020 70010 83618 86459==
41951,2023,07,27,18,00,AAXX 27184 41951 32450 30000 10282 20270 30032 40037 83500 333 56900 59015 70010 83618=
41951,2023,07,27,21,00,AAXX 27214 41951 02440 80000 10280 20270 30023 40028 8452/ 333 59019 70010 84618 88458==
41953,2023,07,21,00,00,AAXX 21004 41953 02450 61302 10284 20250 30026 40031 82530 333 58022 70000 82618 85362==
41953,2023,07,21,03,00,AAXX 21034 41953 02450 61303 10308 20270 30033 40038 83430 333 20280 58015 70000 82618 84362==
41953,2023,07,21,06,00,AAXX 21063 41953 02450 61304 10335 20270 30041 40046 84470 333 58031 70000 83618 84458==
41953,2023,07,21,09,00,AAXX 21094 41953 02450 61305 10330 20270 30023 40028 84470 333 58031 70000 83616 84482==
41953,2023,07,21,12,00,AAXX 21124 41953 02450 61806 10300 20260 30035 40040 83520 333 10337 58045 70000 83616 85458==
41953,2023,07,21,15,00,AAXX 21154 41953 02440 61305 10294 20270 30057 40062 83520 333 58042 70000 83616 85458==
41953,2023,07,21,18,00,AAXX 21184 41953 02440 61304 10288 20280 30059 40064 83520 333 58041 70000 83616 85458==
41953,2023,07,22,00,00,AAXX 22004 41953 02450 51303 10280 20270 30061 40066 83530 333 58035 70000 83616 83361==
41953,2023,07,22,03,00,AAXX 22034 41953 02450 41304 10308 20270 30071 40076 84400 333 20278 58036 70000 83618==
41953,2023,07,22,06,00,AAXX 22064 41953 02550 21306 10338 20260 30072 40077 82100 333 58031 70000 82825==
41953,2023,07,22,09,00,AAXX 22094 41953 02450 51306 10344 20250 30051 40056 83430 333 58028 70000 82618 84362==
41953,2023,07,22,12,00,AAXX 22124 41953 02450 71303 10314 20250 30052 40057 83430 333 10346 58017 70000 82618 86362==
41953,2023,07,22,15,00,AAXX 22154 41953 02540 11302 10294 20250 30069 40074 81100 333 58006 70000 81825==
41953,2023,07,22,18,00,AAXX 22184 41953 02440 31302 10288 20260 30069 40074 83400 333 58012 70000 82618==
41953,2023,07,22,21,00,AAXX 22214 41953 02440 30000 10286 20270 30070 40075 83400 333 58007 70000 82616==
41953,2023,07,23,00,00,AAXX 23004 41953 02450 51301 10294 20260 30074 40079 83430 333 58013 70000 82618 83362==
41953,2023,07,23,03,00,AAXX 23034 41953 02450 51302 10310 20260 30090 40095 83430 333 20282 58019 70000 82618 83362==
41953,2023,07,23,06,00,AAXX 23064 41953 02450 51305 10336 20260 30070 40075 85400 333 59002 70000 83618==
41953,2023,07,23,09,00,AAXX 23094 41953 02450 41305 10334 20250 30044 40049 84400 333 59007 70000 83618==
41953,2023,07,23,12,00,AAXX 23124 41953 02450 31304 10310 20250 30041 40046 83400 333 10338 59011 70000 82618==
41953,2023,07,23,15,00,AAXX 23154 41953 02440 20000 10296 20270 30049 40054 82500 333 59020 70000 82618==
41953,2023,07,23,18,00,AAXX 23184 41953 02440 20000 10290 20270 30051 40056 82500 333 59020 70000 82618==
41953,2023,07,23,21,00,AAXX 23214 41953 02440 61304 10288 20280 30054 40059 83520 333 59016 70000 83616 85458==
41953,2023,07,24,00,00,AAXX 24004 41953 02450 81302 10286 20280 30051 40056 8352/ 333 59023 70000 83616 88458==
41953,2023,07,24,03,00,AAXX 24034 41953 02450 61302 10310 20280 30054 40059 83520 333 20284 59036 70000 83616 85458==
41953,2023,07,24,06,00,AAXX 24064 41953 02450 51303 10338 20260 30045 40050 85400 333 59025 70000 83618 83825==
41953,2023,07,24,09,00,AAXX 24094 41953 02450 51301 10342 20250 30023 40028 85400 333 59021 70000 83618 83825==
41953,2023,07,24,12,00,AAXX 24124 41953 02550 31302 10326 20270 30019 40024 81130 333 10350 59022 70000 81825 83362==
41953,2023,07,24,15,00,AAXX 24154 41953 02/40 31302 10294 20260 30038 40043 83030 333 59011 70000 83362==
41953,2023,07,24,21,00,AAXX 24214 41953 02440 81301 10286 20270 30040 40045 8352/ 333 59014 70000 83616 88458==
41953,2023,07,25,00,00,AAXX 25004 41953 21440 60000 10280 20270 30041 40046 70162 82530 333 59016 60025 70020 82618 85362==
41953,2023,07,25,03,00,AAXX 25034 41953 02450 60901 10304 20250 30052 40057 82530 333 20275 59002 70020 82618 85362==
41953,2023,07,25,06,00,AAXX 25064 41953 02450 40405 10326 20260 30048 40053 84400 333 58003 70020 83618==
41953,2023,07,25,09,00,AAXX 25094 41953 02450 61803 10330 20260 30027 40032 83570 333 58004 70020 83618 85458==
41953,2023,07,25,12,00,AAXX 25124 41953 02450 81303 10300 20260 30034 40039 8352/ 333 10338 58015 70020 83616 88458==
41953,2023,07,25,15,00,AAXX 25154 41953 02440 40000 10290 20260 30053 40058 84400 333 58015 70020 83618==
41953,2023,07,25,18,00,AAXX 25184 41953 02440 40000 10286 20270 30056 40061 84400 333 58015 70000 83618==
41953,2023,07,26,00,00,AAXX 26004 41953 02450 51805 10286 20260 30048 40953 82570 333 58007 70000 82618 84458==
41953,2023,07,26,03,00,AAXX 26034 41953 02450 41806 10310 20270 30059 40064 84400 333 20284 58007 70000 83618==
41953,2023,07,26,06,00,AAXX 26064 41953 02450 61309 10328 20260 30053 40058 84410 333 58005 70000 83618 85458==
41953,2023,07,26,09,00,AAXX 26094 41953 02450 51308 10326 20270 30035 40040 85400 333 58008 70000 83618 83825==
41953,2023,07,26,12,00,AAXX 26124 41953 02450 51305 10296 20270 30038 40043 82530 333 10330 58004 70000 82618 85362==
41953,2023,07,26,15,00,AAXX 26154 41953 01440 51302 10276 20260 30058 40063 70262 83510 333 58005 70010 83616 85458==
41953,2023,07,26,18,00,AAXX 26184 41953 11440 51302 10278 20260 30061 40066 60016 70262 82510 333 58005 70010 82616 84458==
41953,2023,07,26,21,00,AAXX 26214 41953 01430 80902 10274 20260 30056 40061 76122 8452/ 333 58003 70100 84615 88458==
41953,2023,07,27,00,00,AAXX 27004 41953 21440 80902 10270 20270 30051 40056 72162 8352/ 333 58003 60198 70200 83616 88458==
41953,2023,07,27,03,00,AAXX 27034 41953 01450 80000 10276 20276 30056 40061 72162 8352/ 333 20268 59003 70240 83616 88458==
41953,2023,07,27,06,00,AAXX 27064 41953 21450 81305 10296 20270 30049 40054 70262 8452/ 333 59004 60048 70240 84616 88458==
41953,2023,07,27,09,00,AAXX 27094 41953 01450 81806 10320 20270 30032 40037 70262 8352/ 333 59003 70280 83616 88458==
41953,2023,07,27,12,00,AAXX 27124 41953 01450 60000 10296 20280 30025 40030 70162 83520 333 10325 59013 70330 83616 85458==
41953,2023,07,27,15,00,AAXX 27154 41953 02440 40000 10294 20270 30036 40041 84400 333 59022 70320 83618==
41953,2023,07,27,18,00,AAXX 27184 41953 32440 40000 10290 20270 30039 40044 84400 333 56900 59022 70320 83618=
41953,2023,07,27,21,00,AAXX 27214 41953 02440 80000 10280 20260 30044 40049 8352/ 333 59012 70230 83616 88458==
41955,2023,07,21,12,00,AAXX 21124 41955 NIL=
41955,2023,07,22,00,00,AAXX 22004 41955 NIL=
41955,2023,07,23,00,00,AAXX 23004 41955 NIL=
41955,2023,07,23,06,00,AAXX 23064 41955 NIL=
41955,2023,07,23,18,00,AAXX 23184 41955 NIL=
41955,2023,07,24,06,00,AAXX 24064 41955 NIL=
41955,2023,07,24,12,00,AAXX 24124 41955 NIL=
41955,2023,07,25,00,00,AAXX 25004 41955 NIL=
41955,2023,07,25,06,00,AAXX 25064 41955 NIL=
41955,2023,07,25,12,00,AAXX 25124 41955 NIL=
41955,2023,07,26,00,00,AAXX 26004 41955 NIL=
41955,2023,07,26,12,00,AAXX 26124 41955 NIL=
41955,2023,07,26,18,00,AAXX 26184 41955 NIL=
41955,2023,07,27,00,00,AAXX 27004 41955 NIL=
41955,2023,07,27,06,00,AAXX 27064 41955 NIL=
41955,2023,07,27,12,00,AAXX 27124 41955 NIL=
41958,2023,07,21,00,00,AAXX 21004 41958 32450 61703 10286 20280 39995 49997 83410 333 56490 58015 70000 83616 85459=
41958,2023,07,21,03,00,AAXX 21034 41958 32456 31703 10323 20280 30011 40013 83400 333 20280 56400 58014 70000 83616=
41958,2023,07,21,06,00,AAXX 21063 41958 31450 80802 10298 20290 30018 40020 71722 8492/ 333 56299 58021 70000 84616 81929 88458=
41958,2023,07,21,09,00,AAXX 21094 41958 31430 80000 10305 20290 30000 40002 79396 8592/ 333 56999 58030 6006/ 70060 84616 81929 88458=
41958,2023,07,21,12,00,AAXX 21124 41958 31430 81702 10292 20270 30008 40010 60073 76296 8452/ 333 10340 56499 58042 70070 84616 88458=
41958,2023,07,21,15,00,AAXX 21154 41958 32440 81704 10287 20280 30031 40033 8452/ 333 56499 58033 70070 84616 88458=
41958,2023,07,21,18,00,AAXX 21184 41958 32440 81702 10286 20280 30036 40038 8452/ 333 56499 58045 70070 84616 88458=
41958,2023,07,22,00,00,AAXX 22004 41958 32450 61702 10280 20270 30034 40036 83410 333 56490 58039 70070 83616 85459=
41958,2023,07,22,03,00,AAXX 22034 41958 31430 80804 10316 20280 30061 40063 79522 8592/ 333 20276 56299 58050 6006/ 70130 84616 81930 88458=
41958,2023,07,22,06,00,AAXX 22064 41958 31430 81703 10284 20270 30058 40060 60215 79396 8592/ 333 56499 58040 70280 84616 81930 88458=
41958,2023,07,22,09,00,AAXX 22094 41958 32456 61702 10318 20270 30033 40035 83410 333 56490 58033 70220 83616 85459=
41958,2023,07,22,12,00,AAXX 22124 41958 32456 30803 10312 20260 30031 40033 83400 333 10332 56200 58018 70210 83616=
41958,2023,07,22,15,00,AAXX 22154 41958 32950 01304 10290 20270 30048 40050 333 58017 70210=
41958,2023,07,22,18,00,AAXX 22184 41958 32440 30803 10284 20270 30064 40066 83400 333 56400 58028 70210 83616=
41958,2023,07,22,21,00,AAXX 22214 41958 32440 31701 10282 20280 30058 40060 83400 333 56400 58019 70210 83616=
41958,2023,07,23,00,00,AAXX 23004 41958 32450 80000 10280 20280 30052 40054 8442/ 333 56999 58018 70210 84616 88458=
41958,2023,07,23,03,00,AAXX 23034 41958 32450 81303 10323 20270 30061 40063 8442/ 333 20270 56399 58000 70150 84616 88458=
41958,2023,07,23,06,00,AAXX 23064 41958 31456 60802 10330 20280 30050 40052 60146 70196 83410 333 56290 59008 70140 83616 85459=
41958,2023,07,23,09,00,AAXX 23094 41958 32458 51802 10354 20270 30028 40030 85400 333 56900 59005 70140 84617=
41958,2023,07,23,12,00,AAXX 23124 41958 32456 61801 10318 20270 30022 40024 85410 333 10355 56490 59009 70140 84616 86459=
41958,2023,07,23,15,00,AAXX 23154 41958 32950 00000 10290 20280 30040 40042 333 59008 70140=
41958,2023,07,23,18,00,AAXX 23184 41958 32440 50000 10286 20280 30050 40052 85400 333 56900 59014 70140 84617=
41958,2023,07,23,21,00,AAXX 23214 41958 32440 50000 10283 20270 30025 40027 85400 333 56900 59033 70140 84617=
41958,2023,07,24,00,00,AAXX 24004 41958 32450 60000 10280 20270 30028 40030 85410 333 56990 59024 70140 84616 86459=
41958,2023,07,24,03,00,AAXX 24034 41958 32457 40901 10313 20270 30036 40038 84400 333 20270 56300 59025 70140 83617=
41958,2023,07,24,06,00,AAXX 24064 41958 32458 40901 10344 20270 30034 40036 84400 333 56300 59016 70000 83617=
41958,2023,07,24,12,00,AAXX 24124 41958 32950 31503 10322 20240 30010 40012 80001 333 10350 56009 59012 70000 83080=
41958,2023,07,24,15,00,AAXX 24154 41958 32940 01502 10290 20270 30027 40029 333 59013 70000=
41958,2023,07,24,18,00,AAXX 24184 41958 32940 01501 10286 20270 30032 40034 333 59018 70000=
41958,2023,07,24,21,00,AAXX 24214 41958 32440 30901 10284 20270 30021 40023 83500 333 56200 59004 70000 83616=
41958,2023,07,25,00,00,AAXX 25004 41958 32450 70903 10282 20270 30023 40025 83510 333 56290 59005 70000 83616 87459=
41958,2023,07,25,03,00,AAXX 25034 41958 32457 31103 10306 20280 30031 40033 83501 333 20280 56309 59005 70000 83617=
41958,2023,07,25,06,00,AAXX 25064 41958 11457 81105 10320 20270 30029 40031 69924 76122 8542/ 333 56399 59005 70002 84616 88459=
41958,2023,07,25,09,00,AAXX 25094 41958 21457 50903 10318 20290 30013 40015 70166 85400 333 56300 59004 6007/ 70068 83616=
41958,2023,07,25,12,00,AAXX 25124 41958 11456 60000 10280 20270 30021 40023 60213 72166 85470 333 10342 56390 58011 70208 84616 85459=
41958,2023,07,25,15,00,AAXX 25154 41958 32450 20902 10278 20270 30031 40033 82500 333 56200 58004 70208 82617=
41958,2023,07,25,18,00,AAXX 25184 41958 32440 20903 10276 20270 30027 40029 82500 333 56200 59005 70208 82617=
41958,2023,07,25,21,00,AAXX 25214 41958 32440 20902 10278 20270 30024 40026 82500 333 56200 58003 70208 82617=
41958,2023,07,26,00,00,AAXX 26004 41958 32550 30903 10276 20270 30027 40029 81101 333 56909 58004 70208 81825 83080=
41958,2023,07,26,03,00,AAXX 26034 41958 32457 41105 10310 20270 30035 40037 84400 333 20273 56300 58004 70208 83616=
41958,2023,07,26,06,00,AAXX 26064 41958 11458 41304 10316 20300 30030 40032 60024 72111 84400 333 56300 58001 70226 83616=
41958,2023,07,26,12,00,AAXX 26124 41958 11450 31503 10290 20280 30017 40019 60069 70166 83500 333 10342 56300 59004 70084 83616=
41958,2023,07,26,18,00,AAXX 26184 41958 11440 31502 10276 20270 30038 40040 69966 70362 83500 333 56300 58011 70090 83616=
41958,2023,07,26,21,00,AAXX 26214 41958 21440 31502 10274 20260 30021 40023 70262 83500 333 56300 59003 6002/ 70106 83616=
41958,2023,07,27,00,00,AAXX 27004 41958 11450 51502 10274 20260 30023 40025 60026 70362 82501 333 56309 59004 70106 82617 85080=
41958,2023,07,27,03,00,AAXX 27034 41958 32457 31502 10330 20280 30033 40035 83500 333 20265 56300 59002 70106 83616=
41958,2023,07,27,06,00,AAXX 27064 41958 11557 31702 10308 20290 30028 40030 69984 72122 81140 333 56390 59002 70094 81825 83362=
41958,2023,07,27,09,00,AAXX 27094 41958 21458 41804 10338 20260 30012 40014 70262 84401 333 56309 59008 6001/ 70086 83616=
41958,2023,07,27,12,00,AAXX 27124 41958 11557 51503 10318 20270 30005 40007 60016 70362 81101 333 10350 56309 59012 70040 81825 85080=
41958,2023,07,27,15,00,AAXX 27154 41958 32950 41704 10290 20270 30018 40020 80001 333 56009 59016 70034 84080=
41958,2023,07,27,18,00,AAXX 27184 41958 32940 01503 10280 20260 30020 40022 333 59018 70034=
41958,2023,07,27,21,00,AAXX 27214 41958 21440 31503 10276 20270 30003 40005 70361 83500 333 56300 59018 6992/ 70020 83616=
41960,2023,07,21,00,00,AAXX 21004 41960 21340 30000 10281 20280 30015 40017 70162 83641 333 58022 69925 70002 81709 83364==
41960,2023,07,21,03,00,AAXX 21034 41960 02450 51801 10300 20270 30027 40029 84411 333 20276 58019 70002 83618 85459==
41960,2023,07,21,06,00,AAXX 21063 41960 11456 71403 10315 20280 30035 40037 69942 70362 84410 333 58029 70006 83616 87459==
41960,2023,07,21,09,00,AAXX 21094 41960 01340 51604 10293 20280 30023 40025 76166 85611 333 58030 70072 81709 83616 85459==
41960,2023,07,21,12,00,AAXX 21124 41960 21450 71801 10300 20270 30029 40031 70362 85410 333 10324 58045 60078 70076 83618 87459==
41960,2023,07,21,15,00,AAXX 21154 41960 02430 71303 10290 20280 30062 40064 85410 333 58051 70076 84616 87459==
41960,2023,07,21,18,00,AAXX 21184 41960 02430 40000 10288 20280 30059 40061 84400 333 58039 70076 83618==
41960,2023,07,22,00,00,AAXX 22004 41960 02440 30000 10282 20270 30054 40056 82401 333 58039 70074 81618 83080==
41960,2023,07,22,03,00,AAXX 22034 41960 02456 61801 10309 20270 30067 40069 84410 333 20278 58040 70074 83618 86459==
41960,2023,07,22,06,00,AAXX 22064 41960 01456 61404 10320 20270 30066 40068 70262 84410 333 58031 70010 83618 86459==
41960,2023,07,22,09,00,AAXX 22094 41960 01450 61508 10318 20280 30049 40051 70262 84410 333 58026 70012 82617 86459==
41960,2023,07,22,12,00,AAXX 22124 41960 11450 30000 10305 20270 30052 40054 60001 70162 83401 333 10324 58023 70010 82618==
41960,2023,07,22,15,00,AAXX 22154 41960 02430 40000 10287 20280 30064 40066 84400 333 58002 70010 83618==
41960,2023,07,22,18,00,AAXX 22184 41960 02930 00000 10280 20270 30074 40076 333 58015 70010==
41960,2023,07,22,21,00,AAXX 22214 41960 02440 10000 10280 20270 30071 40073 81500 333 58014 70010 81618==
41960,2023,07,23,00,00,AAXX 23004 41960 02440 20000 10281 20270 30067 40069 82801 333 58013 70010 81618==
41960,2023,07,23,03,00,AAXX 23034 41960 02456 70902 10320 20270 30079 40081 86410 333 20274 58012 70010 83618 83823 87459==
41960,2023,07,23,06,00,AAXX 23064 41960 42456 41602 10330 20270 30065 40067 84400 333 59001 83618==
41960,2023,07,23,09,00,AAXX 23094 41960 02456 31805 10335 20270 30044 40046 83401 333 59005 70000 82618==
41960,2023,07,23,12,00,AAXX 23124 41960 02456 60000 10312 20270 30037 40039 84410 333 10344 59015 70000 83618 86459==
41960,2023,07,23,15,00,AAXX 23154 41960 02430 30000 10292 20280 30054 40056 83400 333 59010 70000 82618==
41960,2023,07,23,18,00,AAXX 23184 41960 02430 30000 10286 20280 30053 40055 83400 333 59021 70000 82618==
41960,2023,07,23,21,00,AAXX 23214 41960 02/40 40000 10284 20280 30048 40050 84010 333 59023 70000 84460==
41960,2023,07,24,00,00,AAXX 24004 41960 02/40 60000 10282 20280 30043 40045 86071 333 59024 70000 85460==
41960,2023,07,24,03,00,AAXX 24034 41960 02456 60901 10310 20270 30051 40053 85410 333 20278 59028 70000 82618 83823 86459==
41960,2023,07,24,06,00,AAXX 24064 41960 02456 61802 10334 20260 30042 40044 84410 333 59023 70000 83618 86459==
41960,2023,07,24,09,00,AAXX 24094 41960 02457 31805 10342 20260 30029 40031 83401 333 59015 70000 82617==
41960,2023,07,24,12,00,AAXX 24124 41960 02456 31601 10316 20270 30021 40023 83400 333 10345 59016 70000 82618==
41960,2023,07,24,15,00,AAXX 24154 41960 02930 00000 10290 20280 30037 40039 333 59017 70000==
41960,2023,07,24,18,00,AAXX 24184 41960 02930 00000 10284 20270 30040 40042 333 59013 70000==
41960,2023,07,24,21,00,AAXX 24214 41960 02440 50000 10282 20280 30038 40040 83410 333 59010 70000 82618 85460==
41960,2023,07,25,00,00,AAXX 25004 41960 02440 60000 10283 20280 30034 40036 83470 333 59009 70000 82617 85460==
41960,2023,07,25,03,00,AAXX 25034 41960 02456 61402 10306 20270 30043 40045 85410 333 20278 59008 70000 84618 86459==
41960,2023,07,25,06,00,AAXX 25064 41960 01456 41502 10308 20280 30040 40042 72162 84400 333 59002 70020 83618==
41960,2023,07,25,09,00,AAXX 25094 41960 01450 61504 10288 20280 30030 40032 72162 84470 333 58001 70084 83617 85459==
41960,2023,07,25,12,00,AAXX 25124 41960 01440 81603 10300 20270 30036 40038 76166 8442/ 333 58015 70104 83616 88459==
41960,2023,07,25,15,00,AAXX 25154 41960 01430 40000 10278 20270 30047 40049 70162 84400 333 58010 70114 83618==
41960,2023,07,25,21,00,AAXX 25214 41960 02440 31801 10275 20275 30043 40045 83410 333 58005 70114 82617 83459==
41960,2023,07,26,00,00,AAXX 26004 41960 01440 50000 10272 20270 30040 40042 72120 84410 333 58006 70008 82617 85459==
41960,2023,07,26,03,00,AAXX 26034 41960 01450 60000 10280 20270 30051 40053 76122 84410 333 20270 58008 70156 83616 86459==
41960,2023,07,26,06,00,AAXX 26064 41960 21456 41802 10313 20270 30042 40044 72162 84400 333 58002 60057 70150 83618==
41960,2023,07,26,09,00,AAXX 26094 41960 02456 41804 10330 20270 30033 40035 84400 333 58003 70084 82618==
41960,2023,07,26,12,00,AAXX 26124 41960 11450 60000 10290 20280 30034 40036 60062 76162 84410 333 10332 59002 70124 83616 86459==
41960,2023,07,26,15,00,AAXX 26154 41960 01430 60000 10282 20270 30051 40053 72122 84410 333 58004 70124 83616 86459==
41960,2023,07,26,18,00,AAXX 26184 41960 21430 50000 10280 20270 30048 40050 70162 84410 333 58002 60015 70124 83618 85459==
41960,2023,07,26,21,00,AAXX 26214 41960 01330 50000 10276 20276 30044 40046 76166 85710 333 58001 70142 81709 83616 85459==
41960,2023,07,27,00,00,AAXX 27004 41960 21440 50000 10273 20270 30042 40043 70262 85411 333 58002 60038 70146 83617 84459==
41960,2023,07,27,03,00,AAXX 27034 41960 01456 61601 10315 20290 30049 40051 70362 84410 333 20270 59002 70126 83618 86459==
41960,2023,07,27,06,00,AAXX 27064 41960 01457 51802 10327 20270 30043 40045 70162 84401 333 58001 70132 83618 85080==
41960,2023,07,27,09,00,AAXX 27094 41960 01450 51705 10327 20270 30029 40031 70262 85401 333 59004 70144 83617==
41960,2023,07,27,12,00,AAXX 27124 41960 11450 61802 10306 20270 30021 40023 60016 70362 84410 333 10333 59013 70084 83617 86459==
41960,2023,07,27,15,00,AAXX 27154 41960 02430 30000 10289 20280 30032 40034 83500 333 59019 70074 83618==
41960,2023,07,27,18,00,AAXX 27184 41960 32430 30000 10284 20270 30034 40036 83500 333 56900 59014 70074 83618=
41960,2023,07,27,21,00,AAXX 27214 41960 01440 40000 10272 20270 30025 40027 70361 84410 333 59019 70070 82618 83459==
41963,2023,07,21,00,00,AAXX 21004 41963 02456 51803 10290 20260 30022 40025 83530 333 58014 70000 83615 84363==
41963,2023,07,21,03,00,AAXX 21034 41963 02457 31806 10310 20260 30038 40040 83500 333 20283 58023 70000 83618==
41963,2023,07,21,06,00,AAXX 21064 41963 02458 41807 10315 20270 30032 40035 83501 333 58020 70000 83618 83080==
41963,2023,07,21,09,00,AAXX 21094 41963 02458 31807 10315 20270 30026 40028 83500 333 58023 70000 83618==
41963,2023,07,21,12,00,AAXX 21124 41963 02457 71804 10295 20270 30037 40040 83520 333 10320 58041 70000 83618 86460==
41963,2023,07,21,15,00,AAXX 21154 41963 02457 31806 10295 20270 30060 40062 83500 333 58043 70000 83618==
41963,2023,07,21,18,00,AAXX 21184 41963 02456 61807 10290 20260 30060 40062 83510 333 58036 70000 83618 85460==
41963,2023,07,22,00,00,AAXX 22004 41963 02457 31807 10286 20270 30050 40053 83500 333 58028 70000 83618==
41963,2023,07,22,03,00,AAXX 22034 41963 02458 31806 10310 20260 30081 40083 83500 333 20278 58043 70000 83618==
41963,2023,07,22,09,00,AAXX 22094 41963 02458 41807 10315 20270 30054 40056 83501 333 58028 70000 83618 83080==
41963,2023,07,22,12,00,AAXX 22124 41963 02458 41803 10305 20260 30055 40057 83501 333 10325 58018 70000 83618 83080==
41963,2023,07,22,15,00,AAXX 22154 41963 02456 31802 10290 20270 30069 40072 83500 333 58009 70000 83618==
41963,2023,07,22,18,00,AAXX 22184 41963 02456 31803 10290 20270 30077 40080 83500 333 58017 70000 83618==
41963,2023,07,23,00,00,AAXX 23004 41963 02456 61805 10293 20260 30064 40066 83510 333 58014 70000 83618 85460==
41963,2023,07,23,03,00,AAXX 23034 41963 02457 60906 10310 20260 30078 40081 83510 333 20282 59003 70000 83618 85460==
41963,2023,07,23,06,00,AAXX 23064 41963 NIL=
41963,2023,07,23,09,00,AAXX 23094 41963 02458 51704 10325 20280 30052 40055 83501 333 59002 70000 83618 84080==
41963,2023,07,23,15,00,AAXX 23154 41963 02456 71801 10290 20280 30056 40059 83520 333 59013 70000 83618 86458==
41963,2023,07,23,18,00,AAXX 23184 41963 02456 71801 10290 20280 30052 40055 83520 333 59025 70000 83618 86458==
41963,2023,07,23,21,00,AAXX 23214 41963 02456 71801 10287 20280 30050 40052 83520 333 59018 70000 83618 86458==
41963,2023,07,24,00,00,AAXX 24004 41963 02456 71701 10285 20280 30046 40048 83520 333 59004 70000 83618 86458==
41963,2023,07,24,03,00,AAXX 24034 41963 02457 71804 10300 20270 30069 40071 83520 333 20274 59009 70000 83618 86458==
41963,2023,07,24,06,00,AAXX 24064 41963 NIL=
41963,2023,07,24,09,00,AAXX 24094 41963 02458 31802 10330 20270 30032 40035 83500 333 59020 70000 83618==
41963,2023,07,24,12,00,AAXX 24124 41963 02958 41801 10305 20270 30023 40026 80001 333 10333 59018 70000 84080==
41963,2023,07,24,15,00,AAXX 24154 41963 02956 41801 10285 20280 30043 40046 80001 333 59013 70000 84080==
41963,2023,07,24,18,00,AAXX 24184 41963 02956 40000 10285 20280 30040 40043 80001 333 59012 70000 84080==
41963,2023,07,24,21,00,AAXX 24214 41963 02956 41003 10285 20270 30041 40043 80001 333 59009 70000 84080==
41963,2023,07,25,00,00,AAXX 25004 41963 02957 41003 10290 20260 30039 40041 80001 333 59007 70000 84080==
41963,2023,07,25,03,00,AAXX 25034 41963 02457 51005 10315 20260 30051 40053 83510 333 20281 59018 70000 83618 84460==
41963,2023,07,25,06,00,AAXX 25064 41963 02458 31609 10325 20270 30047 40050 83500 333 58005 70000 83618==
41963,2023,07,25,12,00,AAXX 25124 41963 02458 61803 10300 20260 30040 40043 83520 333 10328 59017 70000 83618 85460==
41963,2023,07,25,18,00,AAXX 25184 41963 02456 61807 10288 20250 30050 40052 83520 333 59010 70000 83618 85460==
41963,2023,07,26,00,00,AAXX 26004 41963 02457 61812 10290 20260 30052 40054 83520 333 58013 70000 83618 85460==
41963,2023,07,26,06,00,AAXX 26064 41963 02458 61808 10290 20270 30042 40045 83510 333 59005 70000 83618 85460==
41963,2023,07,26,09,00,AAXX 26094 41963 02458 61808 10300 20280 30046 40049 83520 333 59016 70000 83618 85460==
41963,2023,07,26,12,00,AAXX 26124 41963 02457 51801 10282 20260 30034 40036 83510 333 59006 70000 83618 84460==
41963,2023,07,26,15,00,AAXX 26154 41963 02456 31803 10296 20270 30057 40059 83500 333 58013 70000 83618==
41963,2023,07,26,18,00,AAXX 26184 41963 01456 31804 10292 20260 30051 40053 70262 83500 333 58001 70010 83618==
41963,2023,07,26,21,00,AAXX 26214 41963 02456 61801 10285 20280 30051 40053 83520 333 58000 70010 83618 85460==
41963,2023,07,27,00,00,AAXX 27004 41963 01457 61803 10280 20280 30052 40054 76122 83520 333 58000 70020 83618 85458==
41963,2023,07,27,06,00,AAXX 27064 41963 21458 31803 10320 20280 30048 40050 70162 83500 333 58006 60045 70065 83618==
41963,2023,07,27,09,00,AAXX 27094 41963 02458 31805 10307 20270 30039 40042 83500 333 59007 70065 83618==
41963,2023,07,27,12,00,AAXX 27124 41963 02457 60000 10295 20280 30028 40031 83520 333 10324 59006 70065 83618 85460==
41963,2023,07,27,15,00,AAXX 27154 41963 02456 31801 10290 20260 30043 40045 83500 333 59014 70065 83618==
41963,2023,07,27,18,00,AAXX 27184 41963 02456 30000 10290 20270 30036 40038 83500 333 59015 70055 83618==
41963,2023,07,27,21,00,AAXX 27214 41963 02456 31801 10286 20270 30032 40034 83500 333 59019 70055 83618==
41964,2023,07,21,00,00,AAXX 21004 41964 02457 61402 10288 20260 30020 40022 82511 333 58025 70000 82618 84460 84080==
41964,2023,07,21,03,00,AAXX 21034 41964 02458 51405 10315 20250 30032 40034 83502 333 20279 58025 70000 83618 84080==
41964,2023,07,21,06,00,AAXX 21063 41964 02458 51602 10330 20280 30034 40036 83502 333 58031 70000 83618 84080==
41964,2023,07,21,09,00,AAXX 21094 41964 02458 61802 10330 20280 30014 40016 83510 333 58027 70000 83618 85460==
41964,2023,07,21,12,00,AAXX 21124 41964 02357 81604 10298 20260 30026 40028 8562/ 333 10345 58040 70000 83709 83617 88459==
41964,2023,07,21,15,00,AAXX 21154 41964 01350 81801 10281 20270 30063 40066 72122 8562/ 333 58048 70041 83709 83616 88456==
41964,2023,07,22,00,00,AAXX 22004 41964 02957 40000 10270 20260 30056 40058 80002 333 58036 70042 84080==
41964,2023,07,22,03,00,AAXX 22034 41964 02458 31403 10320 20270 30071 40073 82502 333 20260 58039 70042 82618==
41964,2023,07,22,06,00,AAXX 22064 41964 02458 31801 10330 20280 30067 40069 82502 333 58033 70042 82518==
41964,2023,07,22,09,00,AAXX 22094 41964 02458 61901 10325 20260 30047 40049 83510 333 58033 70042 83618 85460==
41964,2023,07,22,12,00,AAXX 22124 41964 02457 62002 10301 20260 30047 40049 83412 333 10336 58021 70042 82618 84080==
41964,2023,07,22,15,00,AAXX 22154 41964 02456 60000 10300 20270 30075 40077 83412 333 58012 70000 82618 84080==
41964,2023,07,22,18,00,AAXX 22184 41964 02456 50000 10298 20270 30079 40081 83510 333 58023 70000 83618 84460==
41964,2023,07,22,21,00,AAXX 22214 41964 02456 50000 10287 20280 30075 40077 83510 333 58019 70000 83618 84460==
41964,2023,07,23,00,00,AAXX 23004 41964 02457 41401 10280 20250 30068 40070 82502 333 58012 70000 82618 83080==
41964,2023,07,23,03,00,AAXX 23034 41964 02458 31202 10324 20250 30071 40074 82502 333 20266 58000 70000 82618==
41964,2023,07,23,06,00,AAXX 23064 41964 02458 31601 10322 20250 30064 40066 82502 333 59003 70000 82618==
41964,2023,07,23,09,00,AAXX 23094 41964 02958 21801 10330 20250 30049 40052 82500 333 59002 70000 82618==
41964,2023,07,23,12,00,AAXX 23124 41964 02457 72301 10310 20280 30030 40033 83612 333 10341 59017 70000 83711 82617 84080==
41964,2023,07,23,15,00,AAXX 23154 41964 02457 60000 10308 20280 30046 40048 83510 333 59029 70000 83618 85460==
41964,2023,07,23,18,00,AAXX 23184 41964 NIL=
41964,2023,07,24,00,00,AAXX 24004 41964 21356 81401 10280 20270 30044 40046 70362 8662/ 333 59024 69965 70006 83709 83617 88459==
41964,2023,07,24,03,00,AAXX 24034 41964 02457 61403 10316 20270 30045 40048 82512 333 20270 59026 70006 82618 84460 83080==
41964,2023,07,24,06,00,AAXX 24064 41964 02457 31501 10340 20260 30034 40036 83500 333 59030 70006 83618==
41964,2023,07,24,12,00,AAXX 24124 41964 02457 52302 10307 20270 30014 40016 83502 333 10346 59016 70006 83618 84080==
41964,2023,07,25,00,00,AAXX 25004 41964 21457 41401 10280 20270 30031 40033 70162 82502 333 59013 69967 70008 82618 83080==
41964,2023,07,25,03,00,AAXX 25034 41964 02458 51202 10322 20260 30041 40043 83512 333 20269 59004 70008 83618 83080==
41964,2023,07,25,06,00,AAXX 25064 41964 02458 50000 10332 20260 30051 40053 83512 333 58017 70008 83618 83080==
41964,2023,07,25,09,00,AAXX 25094 41964 02458 61801 10315 20260 30031 40033 83510 333 58015 70008 83618 85460==
41964,2023,07,25,12,00,AAXX 25124 41964 02457 71402 10305 20270 30028 40030 83512 333 10346 58014 70008 83618 83460 83080==
41964,2023,07,25,15,00,AAXX 25154 41964 02457 50000 10298 20260 30040 40042 83510 333 58001 70008 83618 84460==
41964,2023,07,26,00,00,AAXX 26004 41964 02357 71407 10284 20250 30042 40044 85602 333 58011 70000 83709 83617 84080==
41964,2023,07,26,03,00,AAXX 26034 41964 02458 71609 10314 20250 30052 40054 85512 333 20275 58011 70000 85618 83080==
41964,2023,07,26,06,00,AAXX 26064 41964 02458 61606 10312 20260 30063 40065 84510 333 58012 70000 84618 85460==
41964,2023,07,26,09,00,AAXX 26094 41964 01558 62107 10317 20270 30036 40038 70262 85402 333 58005 70010 84620 83080==
41964,2023,07,26,12,00,AAXX 26124 41964 11558 62107 10302 20290 30037 40039 60016 70262 85432 333 10322 58009 70010 84620 85080==
41964,2023,07,26,15,00,AAXX 26154 41964 01358 81802 10289 20280 30051 40053 72122 8662/ 333 58011 70010 83709 85617 88460==
41964,2023,07,26,18,00,AAXX 26184 41964 21458 51503 10286 20270 30047 40049 70162 84530 333 58002 60005 70010 84618==
41964,2023,07,26,21,00,AAXX 26214 41964 02357 71403 10280 20270 30043 40045 86610 333 59001 70010 82709 85618 86460==
41964,2023,07,27,00,00,AAXX 27004 41964 21357 81203 10272 20260 30043 40045 70362 8662/ 333 58001 60037 70044 82709 85617 88460==
41964,2023,07,27,03,00,AAXX 27034 41964 01357 71406 10299 20280 30048 40050 72122 85610 333 20263 59004 70048 83709 83617 86460==
41964,2023,07,27,06,00,AAXX 27064 41964 21558 72106 10315 20270 30043 40045 70262 86412 333 59020 69945 70048 83620 83825 85080==
41964,2023,07,27,09,00,AAXX 27094 41964 01458 71902 10310 20270 30029 40032 70262 84510 333 59007 70066 83618 85460==
41964,2023,07,27,12,00,AAXX 27124 41964 11458 72103 10302 20260 30022 40024 60036 70262 84570 333 10321 59015 70066 84618 84460 85362==
41964,2023,07,27,15,00,AAXX 27154 41964 01458 61802 10287 20280 30034 40036 72122 85510 333 59017 70070 85618 83460==
41964,2023,07,27,18,00,AAXX 27184 41964 11457 60000 10271 20260 30030 40032 69983 70262 84510 333 56490 59017 70074 84618 83460=
41964,2023,07,27,21,00,AAXX 27214 41964 01356 81802 10270 20260 30025 40027 76162 8672/ 333 59018 70104 85708 85617 88458==
41965,2023,07,21,03,00,AAXX 21034 41965 02350 50000 10310 20230 30008 40016 84412 333 20265 59003 70000 82618 84460==
41965,2023,07,21,09,00,AAXX 21094 41965 02456 72202 10330 20220 39997 40005 84610 333 58003 70000 82618 86460==
41965,2023,07,21,12,00,AAXX 21124 41965 02450 80000 10310 20230 39990 49998 8431/ 333 10345 58003 70000 81710 83618 88460 81928==
41965,2023,07,22,00,00,AAXX 22004 41965 02450 50000 10270 20250 30055 40063 84412 333 58015 70000 82618 84460==
41965,2023,07,22,03,00,AAXX 22034 41965 02450 50000 10310 20230 30065 40073 84412 333 20265 58015 70000 82618 84460==
41965,2023,07,22,06,00,AAXX 22064 41965 02450 50000 10330 20220 30052 40060 84412 333 58015 70000 82618 84460==
41965,2023,07,22,09,00,AAXX 22094 41965 02450 50000 10330 20220 30040 40048 84412 333 58030 70000 82618 84460==
41965,2023,07,22,12,00,AAXX 22124 41965 02450 50000 10310 20230 30045 40053 84412 333 10345 58025 70000 82618 84460==
41965,2023,07,23,00,00,AAXX 23004 41965 NIL=
41965,2023,07,23,03,00,AAXX 23034 41965 02450 50000 10320 20260 30071 40079 84402 333 20267 58001 70000 82618 83080==
41965,2023,07,23,06,00,AAXX 23064 41965 02456 51302 10340 20230 30060 40068 84402 333 58004 70000 82618 83080==
41965,2023,07,23,09,00,AAXX 23094 41965 02456 50000 10340 20230 30050 40058 84410 333 58001 70000 82618 84460==
41965,2023,07,23,18,00,AAXX 23184 41965 NIL=
41965,2023,07,24,03,00,AAXX 24034 41965 02450 80000 10300 20240 30053 40061 83310 333 20265 59018 70000 83618 86460==
41965,2023,07,24,06,00,AAXX 24064 41965 02456 51401 10348 20230 30034 40042 84410 333 59026 70000 82618 84460==
41965,2023,07,24,09,00,AAXX 24094 41965 02456 50000 10350 20230 30028 40036 84410 333 59022 70000 82618 84460==
41965,2023,07,24,12,00,AAXX 24124 41965 02450 50000 10310 20230 30028 40036 84410 333 10360 59018 70000 82618 84460==
41965,2023,07,25,00,00,AAXX 25004 41965 02450 50000 10275 20250 30037 40045 84402 333 59012 70000 82618 83080==
41965,2023,07,25,03,00,AAXX 25034 41965 02450 50000 10310 20230 30043 40051 84402 333 20268 59010 70000 82618 83080==
41965,2023,07,25,06,00,AAXX 25064 41965 02456 51301 10345 20230 30040 40048 84402 333 58006 70000 82618 83080==
41965,2023,07,25,09,00,AAXX 25094 41965 02450 50000 10345 20220 30020 40028 84410 333 58002 70000 82618 84460==
41965,2023,07,25,12,00,AAXX 25124 41965 02450 50000 10310 20230 30020 40028 84410 333 10350 58002 70000 82618 84460==
41965,2023,07,26,00,00,AAXX 26004 41965 02450 50000 10275 20250 30045 40053 84412 333 58008 70000 82618 84460==
41965,2023,07,26,03,00,AAXX 26034 41965 02450 50000 10310 20230 30053 40061 84410 333 20268 58010 70000 82618 84460==
41965,2023,07,26,06,00,AAXX 26064 41965 02456 51402 10330 20230 30044 40052 84610 333 58004 70000 82618 84460==
41965,2023,07,26,09,00,AAXX 26094 41965 01440 81302 10300 20250 30038 40046 70362 8331/ 333 58008 70020 81710 83618 88460 81928==
41965,2023,07,26,12,00,AAXX 26124 41965 11450 80000 10300 20230 30038 40046 60026 70262 84610 333 10340 58003 70020 83618 88460==
41965,2023,07,26,18,00,AAXX 26184 41965 NIL=
41965,2023,07,27,00,00,AAXX 27004 41965 NIL=
41965,2023,07,27,03,00,AAXX 27034 41965 02450 50000 10300 20230 30051 40059 84410 333 20260 58002 70020 82618 84460==
41965,2023,07,27,06,00,AAXX 27064 41965 02456 61402 10320 20220 30043 40051 84610 333 58003 70020 83618 84460==
41965,2023,07,27,09,00,AAXX 27094 41965 01450 80000 10320 20230 30033 40041 70262 84610 333 58002 70030 81710 83618 88460==
41965,2023,07,27,12,00,AAXX 27124 41965 21450 50000 10335 20240 30032 40040 70162 84610 333 59007 60035 70030 82618 84460==
41965,2023,07,27,15,00,AAXX 27154 41965 02440 81402 10280 20240 30036 40044 8461/ 333 59004 70030 81710 83618 88460==
41965,2023,07,27,21,00,AAXX 27214 41965 41440 80000 10280 20250 30036 40045 59006 70400 88456==
41966,2023,07,21,00,00,AAXX 21004 41966 02440 50000 10272 20240 39933 40011 82510 333 58006 70028 82616 84460==
41966,2023,07,21,03,00,AAXX 21034 41966 02420 50000 10275 20250 39950 40029 82510 333 58007 70028 82616 84460==
41966,2023,07,21,06,00,AAXX 21063 41966 02450 40000 10335 20200 39967 40043 82510 333 58021 70028 82616 84460==
41966,2023,07,21,09,00,AAXX 21094 41966 02450 60000 10325 20230 39957 40034 83510 333 58042 70028 82616 84460==
41966,2023,07,21,12,00,AAXX 21124 41966 01340 80000 10265 20240 39962 40041 76162 8472/ 333 10342 58054 70070 82709 83615 88460==
41966,2023,07,21,15,00,AAXX 21154 41966 01430 70000 10265 20240 39972 40051 72166 83510 333 58035 70096 83616 86460==
41966,2023,07,21,21,00,AAXX 21214 41966 02420 40000 10267 20240 39980 40059 82510 333 58030 70086 82616 83460==
41966,2023,07,22,00,00,AAXX 22004 41966 02440 40000 10260 20230 39992 40071 82510 333 58060 70086 82616 83460==
41966,2023,07,22,03,00,AAXX 22034 41966 02540 21301 10320 20210 30009 40087 82130 333 20250 58040 70086 82827 81362==
41966,2023,07,22,06,00,AAXX 22064 41966 02450 50000 10335 20190 30007 40084 82510 333 58041 70086 82616 84460==
41966,2023,07,22,09,00,AAXX 22094 41966 02450 50000 10340 20160 39977 40054 82510 333 58020 70086 82616 84460==
41966,2023,07,22,12,00,AAXX 22124 41966 02440 40000 10315 20250 39979 40056 82510 333 10345 58015 70016 82616 83460==
41966,2023,07,22,15,00,AAXX 22154 41966 02430 60000 10290 20240 39982 40061 83510 333 58010 70000 83616 85460==
41966,2023,07,22,18,00,AAXX 22184 41966 01420 40000 10278 20240 39991 40070 72162 82510 333 58013 70010 82616 83460==
41966,2023,07,22,21,00,AAXX 22214 41966 02420 40000 10270 20240 39988 40067 82510 333 58008 70010 82616 83460==
41966,2023,07,23,00,00,AAXX 23004 41966 02440 40000 10270 20240 30002 40081 82510 333 58010 70010 82616 83460==
41966,2023,07,23,06,00,AAXX 23064 41966 02450 40000 10330 20220 39999 40076 82510 333 59008 70010 82616 83460==
41966,2023,07,23,09,00,AAXX 23094 41966 02450 40000 10350 20190 39967 40043 82510 333 59011 70010 82616 83460==
41966,2023,07,23,12,00,AAXX 23124 41966 01440 70000 10285 20250 39967 40045 79522 83920 333 10355 59011 70008 83616 86460 81930==
41966,2023,07,23,15,00,AAXX 23154 41966 01420 60000 10280 20250 39978 40057 70196 82510 333 59004 70026 82616 85460==
41966,2023,07,23,18,00,AAXX 23184 41966 11420 60000 10270 20240 39982 40061 69986 70296 82510 333 59009 70016 82616 85460==
41966,2023,07,23,21,00,AAXX 23214 41966 02420 60000 10270 20240 39973 40051 82510 333 59016 70016 82616 85460==
41966,2023,07,24,00,00,AAXX 24004 41966 01340 80000 10265 20240 39976 40055 79522 8472/ 333 59026 70003 82709 83615 88460 81930==
41966,2023,07,24,03,00,AAXX 24034 41966 02450 40000 10315 20240 39980 40058 82510 333 20256 59029 70019 82616 83460==
41966,2023,07,24,06,00,AAXX 24064 41966 02550 20000 10330 20180 39977 40054 82130 333 59022 70019 82827 81362==
41966,2023,07,24,09,00,AAXX 24094 41966 02550 20000 10345 20170 39965 40042 82130 333 59001 70019 82827 81362==
41966,2023,07,24,12,00,AAXX 24124 41966 02440 40000 10305 20240 39946 40023 82510 333 10353 59022 70011 82616 83460==
41966,2023,07,24,15,00,AAXX 24154 41966 02430 40000 10295 20250 39950 40027 82510 333 59030 70003 82616 83460==
41966,2023,07,24,21,00,AAXX 24214 41966 02420 50000 10270 20240 39964 40042 82510 333 59009 70021 82616 83460==
41966,2023,07,25,00,00,AAXX 25004 41966 02440 50000 10260 20230 39969 40048 83510 333 59007 70018 82616 84460==
41966,2023,07,25,03,00,AAXX 25034 41966 02450 41801 10322 20210 39988 40065 82510 333 20256 58007 70018 82616 83460==
41966,2023,07,25,06,00,AAXX 25064 41966 02450 40000 10335 20200 39977 40054 82510 333 58000 70018 82616 83460==
41966,2023,07,25,09,00,AAXX 25094 41966 02450 60000 10335 20220 39966 40043 82510 333 58001 70018 82616 85460==
41966,2023,07,25,12,00,AAXX 25124 41966 02440 60000 10305 20250 39960 40037 83510 333 10350 58014 70018 83616 85460==
41966,2023,07,25,15,00,AAXX 25154 41966 02430 60000 10290 20250 39975 40054 83510 333 58027 70018 83616 85460==
41966,2023,07,25,21,00,AAXX 25214 41966 02420 40000 10275 20250 39972 40050 82510 333 58008 70000 82616 83460==
41966,2023,07,26,00,00,AAXX 26004 41966 02440 40000 10270 20230 39981 40060 82510 333 58012 70000 82616 83460==
41966,2023,07,26,03,00,AAXX 26034 41966 02/50 30000 10320 20200 39980 40058 83030 333 20260 59007 70000 83362==
41966,2023,07,26,06,00,AAXX 26064 41966 02450 42902 10326 20210 39983 40060 82510 333 58006 70000 82616 84460==
41966,2023,07,26,09,00,AAXX 26094 41966 02550 40000 10335 20200 39964 40041 82130 333 59002 70000 82826 83362==
41966,2023,07,26,12,00,AAXX 26124 41966 02/50 51801 10282 20240 39980 40059 85010 333 10340 58022 70000 85460==
41966,2023,07,26,15,00,AAXX 26154 41966 02430 50000 10280 20250 39981 40060 82510 333 58006 70000 82616 84460==
41966,2023,07,26,18,00,AAXX 26184 41966 NIL=
41966,2023,07,26,21,00,AAXX 26214 41966 02420 60000 10270 20240 39971 40049 83510 333 59001 70000 83616 85460==
41966,2023,07,27,00,00,AAXX 27004 41966 02440 60000 10267 20240 39977 40056 83510 333 59004 70000 83616 85460==
41966,2023,07,27,03,00,AAXX 27034 41966 01450 60000 10285 20240 39983 40061 70262 83510 333 20256 58003 70006 83616 85460==
41966,2023,07,27,06,00,AAXX 27064 41966 01450 60000 10313 20210 39976 40054 70262 83510 333 59006 70006 83616 85460==
41966,2023,07,27,09,00,AAXX 27094 41966 01450 61801 10280 20250 39971 40049 72166 83510 333 58008 70166 83616 85460==
41966,2023,07,27,12,00,AAXX 27124 41966 21440 60000 10280 20240 39966 40044 70262 83510 333 10315 59015 60168 70166 83616 85460==
41966,2023,07,27,15,00,AAXX 27154 41966 02430 60000 10278 20250 39970 40048 83510 333 59012 70166 83616 85460==
41966,2023,07,27,21,00,AAXX 27214 41966 02420 40000 10270 20240 39959 40038 82510 333 59011 70166 82616 83460==
41977,2023,07,21,00,00,AAXX 21004 41977 42350 70000 10284 20240 39995 40033 86670 333 58011 82712 84616 85460==
41977,2023,07,21,03,00,AAXX 21034 41977 02456 41804 10315 20260 30024 40062 83530 333 20280 58013 70000 82618 83360==
41977,2023,07,21,06,00,AAXX 21063 41977 02356 71202 10348 20250 30024 40061 86670 333 58034 70000 82712 84616 86460==
41977,2023,07,21,09,00,AAXX 21094 41977 42456 62106 10338 20260 30008 40045 58023 85362==
41977,2023,07,21,12,00,AAXX 21124 41977 02450 71303 10304 20260 30014 40052 85570 333 10350 58032 70000 85616 86460==
41977,2023,07,21,15,00,AAXX 21154 41977 02450 71802 10290 20270 30042 40080 85570 333 58046 70000 85616 86460==
41977,2023,07,21,18,00,AAXX 21184 41977 02450 70000 10286 20260 30042 40080 85570 333 58033 70000 85616 86460==
41977,2023,07,22,00,00,AAXX 22004 41977 02450 70000 10270 20250 30042 40080 82531 333 58047 70000 82618 83362 85080==
41977,2023,07,22,03,00,AAXX 22034 41977 02456 61204 10325 20240 30063 40101 82530 333 20267 58039 70000 82618 84362==
41977,2023,07,22,06,00,AAXX 22064 41977 02456 71405 10337 20250 30062 40099 82531 333 58038 70000 82618 83362 85080==
41977,2023,07,22,09,00,AAXX 22094 41977 02456 72106 10314 20260 30035 40073 84470 333 58027 70000 83618 85362==
41977,2023,07,22,12,00,AAXX 22124 41977 02456 52104 10308 20260 30037 40075 83531 333 10347 58023 70000 83618 83362==
41977,2023,07,22,15,00,AAXX 22154 41977 02456 41803 10300 20260 30060 40098 82530 333 58018 70000 82618 83362==
41977,2023,07,22,18,00,AAXX 22184 41977 02356 71302 10285 20270 30062 40100 85610 333 58020 70004 83710 85615 87459==
41977,2023,07,22,21,00,AAXX 22214 41977 42450 60000 10280 20260 30057 40095 83570 333 58013 83618 84362==
41977,2023,07,23,00,00,AAXX 23004 41977 42450 60000 10274 20260 30052 40090 83571 333 59011 83618 84362==
41977,2023,07,23,03,00,AAXX 23034 41977 42456 41803 10324 20250 30057 40094 82530 333 10265 59006 82618 83362==
41977,2023,07,23,06,00,AAXX 23064 41977 42456 52102 10344 20250 30047 40084 83430 333 59015 82618 85362==
41977,2023,07,23,09,00,AAXX 23094 41977 42456 42705 10335 20260 30032 40069 83530 333 59003 82618 84362==
41977,2023,07,23,12,00,AAXX 23124 41977 42456 61104 10312 20260 30023 40061 83530 333 10345 59014 82618 84360==
41977,2023,07,23,18,00,AAXX 23184 41977 02456 61102 10298 20260 30034 40072 83530 333 59028 70000 82618 84360==
41977,2023,07,23,21,00,AAXX 23214 41977 02450 70000 10290 20260 30032 40070 83570 333 59025 70000 83618 85460==
41977,2023,07,24,00,00,AAXX 24004 41977 02350 80000 10284 20270 30032 40070 8662/ 333 59020 70000 82712 84616 88460==
41977,2023,07,24,03,00,AAXX 24034 41977 02456 51805 10324 20250 30037 40074 83430 333 20280 59020 70000 82618 84362==
41977,2023,07,24,06,00,AAXX 24064 41977 02456 51804 10348 20260 30020 40057 84430 333 59027 70000 83618 84362==
41977,2023,07,24,09,00,AAXX 24094 41977 02456 52806 10336 20270 30005 40042 83530 333 59027 70000 83618 84362==
41977,2023,07,24,12,00,AAXX 24124 41977 02456 52405 10310 20260 30015 40052 83530 333 10355 59008 70000 83618 84362==
41977,2023,07,24,15,00,AAXX 24154 41977 02456 72304 10309 20260 30017 40054 84620 333 59015 70000 83712 84416 86460==
41977,2023,07,24,18,00,AAXX 24184 41977 01330 81302 10275 20270 30022 40060 76162 8672/ 333 59012 70010 83709 85614 88458 81928==
41977,2023,07,24,21,00,AAXX 24214 41977 01450 70000 10273 20260 30025 40063 70163 83570 333 59007 70012 83618 84460==
41977,2023,07,25,00,00,AAXX 25004 41977 11450 70000 10270 20260 30022 40060 60006 70262 82570 333 59010 70012 82618 84362==
41977,2023,07,25,03,00,AAXX 25034 41977 02456 41203 10323 20250 30033 40071 82570 333 20267 59004 70012 82618 84362==
41977,2023,07,25,06,00,AAXX 25064 41977 02456 51604 10340 20250 30036 40073 83570 333 58016 70012 83616 84362==
41977,2023,07,25,09,00,AAXX 25094 41977 02456 42105 10342 20250 30006 40043 83430 333 58001 70012 82618 83362==
41977,2023,07,25,12,00,AAXX 25124 41977 02450 72106 10310 20260 30014 40052 84470 333 10353 59001 70012 83616 85460==
41977,2023,07,25,15,00,AAXX 25154 41977 02450 42104 10304 20250 30030 40068 83430 333 58013 70012 83616 83362==
41977,2023,07,25,18,00,AAXX 25184 41977 02450 72102 10290 20260 30036 40074 84470 333 58014 70000 83616 85460==
41977,2023,07,25,21,00,AAXX 25214 41977 02450 70000 10284 20250 30034 40073 83570 333 58009 70000 83618 84460==
41977,2023,07,26,00,00,AAXX 26004 41977 02450 60000 10278 20260 30032 40070 82531 333 58010 70000 82618 84362==
41977,2023,07,26,03,00,AAXX 26034 41977 02456 61804 10312 20240 30053 40091 83530 333 20274 58020 70000 83618 84362==
41977,2023,07,26,06,00,AAXX 26064 41977 01356 71805 10323 20250 30043 40081 75122 84620 333 58007 70000 82710 84617 87460==
41977,2023,07,26,09,00,AAXX 26094 41977 01456 52106 10314 20250 30024 40062 70162 83530 333 58018 70050 83618 85362==
41977,2023,07,26,12,00,AAXX 26124 41977 01450 72105 10290 20270 30026 40064 72162 84570 333 10335 58012 70060 84615 85460==
41977,2023,07,26,15,00,AAXX 26154 41977 02450 51805 10278 20250 30045 40083 84570 333 58015 70060 84616 85460==
41977,2023,07,26,18,00,AAXX 26184 41977 02450 71802 10275 20260 30037 40075 84570 333 58001 70060 84615 85460==
41977,2023,07,26,21,00,AAXX 26214 41977 02450 70000 10268 20260 30037 40075 86620 333 58003 70060 82712 84616 85460==
41977,2023,07,27,00,00,AAXX 27004 41977 21350 70000 10265 20260 30036 40074 70262 86620 333 58004 60015 70074 82712 84615 86460==
41977,2023,07,27,06,00,AAXX 27064 41977 11456 52004 10317 20260 30044 40082 60036 70162 83570 333 58001 70104 83617 83460==
41977,2023,07,27,09,00,AAXX 27094 41977 01450 72106 10303 20260 30017 40054 70362 84470 333 59007 70084 83616 85460==
41977,2023,07,27,12,00,AAXX 27124 41977 01450 72105 10294 20260 30018 40056 70262 84570 333 10325 59008 70074 84616 85362==
41977,2023,07,27,15,00,AAXX 27154 41977 02450 61202 10289 20270 30022 40060 85520 333 59023 70074 85616 84460==
41977,2023,07,27,18,00,AAXX 27184 41977 32350 71803 10280 20260 30029 40067 85620 333 56490 59008 70074 82710 85616 86460=
41977,2023,07,27,21,00,AAXX 27214 41977 02350 80000 10274 20260 30018 40055 8662/ 333 59019 70098 82712 84616 88460==
41978,2023,07,21,00,00,AAXX 21004 41978 02450 71007 10283 20260 30024 40029 84320 333 58024 70000 83618 84760 81930==
41978,2023,07,21,03,00,AAXX 21034 41978 02456 50808 10320 20260 30036 40042 82520 333 20275 58021 70000 82618 84460==
41978,2023,07,21,06,00,AAXX 21064 41978 02456 62008 10333 20270 30039 40045 83520 333 58031 70000 83617 85460==
41978,2023,07,21,09,00,AAXX 21094 41978 01450 72115 10310 20270 30022 40028 72162 84320 333 58032 70010 83616 86360 81928==
41978,2023,07,21,12,00,AAXX 21124 41978 01450 71210 10297 20270 30030 40036 70262 84320 333 10347 58050 70030 83616 86360 81928==
41978,2023,07,21,15,00,AAXX 21154 41978 02456 60903 10286 20270 30057 40064 83520 333 58043 70000 83616 86460==
41978,2023,07,21,18,00,AAXX 21184 41978 02456 51504 10280 20260 30062 40068 82520 333 58035 70030 82616 85460==
41978,2023,07,21,21,00,AAXX 21214 41978 02456 51003 10276 20260 30057 40063 82520 333 58040 70030 82616 85460==
41978,2023,07,22,00,00,AAXX 22004 41978 02456 40000 10271 20260 30062 40068 82530 333 58038 70030 82618 83360==
41978,2023,07,22,03,00,AAXX 22034 41978 02456 51603 10322 20250 30075 40081 82531 333 20267 58039 70030 82618 84360==
41978,2023,07,22,06,00,AAXX 22064 41978 02456 61808 10326 20270 30072 40078 83431 333 58033 70030 83618 85360==
41978,2023,07,22,09,00,AAXX 22094 41978 02456 62012 10327 20280 30046 40052 83420 333 58024 70020 83617 85460==
41978,2023,07,22,12,00,AAXX 22124 41978 02556 62112 10311 20270 30054 40060 81131 333 10350 58024 70000 81827 83362 85080==
41978,2023,07,22,15,00,AAXX 22154 41978 02456 41807 10298 20270 30074 40080 81501 333 58017 70000 81618 84080==
41978,2023,07,22,18,00,AAXX 22184 41978 02456 41503 10292 20270 30076 40082 82530 333 58014 70000 82618 83362==
41978,2023,07,22,21,00,AAXX 22214 41978 02456 51503 10285 20280 30069 40075 82530 333 58012 70000 82618 84362==
41978,2023,07,23,00,00,AAXX 23004 41978 02556 60903 10278 20270 30076 40082 82220 333 58014 70000 81827 85460==
41978,2023,07,23,03,00,AAXX 23034 41978 02556 41504 10326 20250 30077 40083 82101 333 20274 58002 70000 82828 83080==
41978,2023,07,23,06,00,AAXX 23064 41978 02456 62106 10336 20270 30064 40070 82120 333 59008 70000 82828 85460==
41978,2023,07,23,09,00,AAXX 23094 41978 02456 52210 10344 20270 30040 40046 82431 333 59006 70000 82618 84360==
41978,2023,07,23,12,00,AAXX 23124 41978 02456 72007 10310 20280 30038 40044 83370 333 10346 59016 70000 83618 86360 81930==
41978,2023,07,23,15,00,AAXX 23154 41978 02456 62005 10294 20260 30050 40056 83520 333 59024 70000 83616 86460==
41978,2023,07,23,18,00,AAXX 23184 41978 02450 60000 10291 20270 30056 40063 83520 333 59020 70000 83616 86460==
41978,2023,07,23,21,00,AAXX 23214 41978 02450 60000 10284 20260 30044 40051 83520 333 59025 70000 83616 86460==
41978,2023,07,24,00,00,AAXX 24004 41978 02440 60903 10282 20270 30048 40055 83520 333 59028 70000 83618 86460==
41978,2023,07,24,03,00,AAXX 24034 41978 02456 50903 10324 20250 30051 40058 83530 333 20279 59026 70000 83618 83360==
41978,2023,07,24,06,00,AAXX 24064 41978 02456 52106 10350 20270 30037 40043 83530 333 59027 70000 83618 83360==
41978,2023,07,24,09,00,AAXX 24094 41978 02456 52314 10342 20280 30023 40029 82520 333 59017 70000 82618 84460==
41978,2023,07,24,12,00,AAXX 24124 41978 02456 62210 10321 20290 30019 40025 83520 333 10353 59019 70000 83618 85460==
41978,2023,07,24,15,00,AAXX 24154 41978 02450 72005 10304 20270 30038 40044 83370 333 59012 70000 83618 86360 81930==
41978,2023,07,24,18,00,AAXX 24184 41978 21450 81003 10280 20270 30037 40043 72162 8432/ 333 59019 60037 70030 83614 88459 81930==
41978,2023,07,24,21,00,AAXX 24214 41978 02450 70000 10276 20270 30036 40042 83530 333 59008 70030 83616 86360==
41978,2023,07,25,00,00,AAXX 25004 41978 02456 60000 10270 20260 30036 40042 83530 333 59012 70030 83618 86360==
41978,2023,07,25,03,00,AAXX 25034 41978 02456 51008 10318 20260 30050 40056 82520 333 20267 59001 70030 82618 84460==
41978,2023,07,25,06,00,AAXX 25064 41978 02456 51503 10342 20260 30042 40048 82520 333 58005 70030 82618 84460==
41978,2023,07,25,09,00,AAXX 25094 41978 02456 51914 10338 20280 30025 40032 82120 333 58002 70030 82828 84460==
41978,2023,07,25,12,00,AAXX 25124 41978 02456 61915 10310 20280 30029 40035 83520 333 10347 58010 70030 83618 85460==
41978,2023,07,25,15,00,AAXX 25154 41978 02450 61711 10303 20270 30053 40059 84310 333 58015 70030 83618 85460 81930==
41978,2023,07,25,18,00,AAXX 25184 41978 02450 61313 10286 20270 30052 40059 84310 333 58015 70000 83618 84460 81930==
41978,2023,07,25,21,00,AAXX 25214 41978 02450 61007 10278 20270 30045 40051 84310 333 58009 70000 83618 84460 81930==
41978,2023,07,26,00,00,AAXX 26004 41978 02456 60905 10277 20260 30052 40058 84310 333 58016 70000 83618 85460 81930==
41978,2023,07,26,03,00,AAXX 26034 41978 02456 61511 10316 20270 30061 40067 83520 333 20274 58011 70000 83618 85460==
41978,2023,07,26,06,00,AAXX 26064 41978 02556 61911 10328 20280 30054 40060 83220 333 58012 70000 83828 85460==
41978,2023,07,26,09,00,AAXX 26094 41978 01456 61810 10322 20280 30038 40044 70262 84320 333 58013 70020 83617 85460 81930==
41978,2023,07,26,12,00,AAXX 26124 41978 01456 61007 10293 20280 30046 40052 72162 84420 333 10340 58017 70024 83617 85460==
41978,2023,07,26,15,00,AAXX 26154 41978 02456 61207 10276 20270 30058 40065 83520 333 58005 70024 83617 85460==
41978,2023,07,26,18,00,AAXX 26184 41978 02456 51406 10274 20260 30055 40061 82520 333 58003 70024 82616 84460==
41978,2023,07,26,21,00,AAXX 26214 41978 01456 61506 10268 20260 30051 40057 70262 84320 333 58006 70034 83616 85460 81930==
41978,2023,07,27,00,00,AAXX 27004 41978 11456 61206 10265 20260 30052 40058 60016 70262 83520 333 58000 70034 83616 85460==
41978,2023,07,27,03,00,AAXX 27034 41978 01456 71706 10283 20270 30059 40066 70262 84320 333 20261 59002 70056 83618 86460 81930==
41978,2023,07,27,06,00,AAXX 27064 41978 11456 71812 10323 20270 30051 40058 60026 70262 84320 333 59003 70056 83618 86460 81930==
41978,2023,07,27,09,00,AAXX 27094 41978 02456 62405 10307 20260 39994 40000 83520 333 10336 59020 70000 83618 85460==
41978,2023,07,27,12,00,AAXX 27124 41978 11456 61612 10300 20270 30030 40036 60016 70262 83420 333 10325 59016 70040 83618 85460==
41978,2023,07,27,15,00,AAXX 27154 41978 02456 61408 10294 20280 30040 40046 83420 333 59018 70000 83617 85460==
41978,2023,07,27,18,00,AAXX 27184 41978 02456 71706 10282 20270 30036 40042 83420 333 59019 70040 83617 86460==
41978,2023,07,27,21,00,AAXX 27214 41978 02456 71706 10277 20270 30029 40035 84420 333 59022 70030 83617 86460==
41980,2023,07,21,00,00,AAXX 21004 41980 32450 60000 10270 20240 39926 40037 83520 333 56990 58023 70000 83616 86459=
41980,2023,07,21,12,00,AAXX 21124 41980 11450 71802 10274 20250 39931 40042 60023 70362 83620 333 10334 56990 58045 70020 83616 87459=
41980,2023,07,22,00,00,AAXX 22004 41980 NIL=
41980,2023,07,22,12,00,AAXX 22124 41980 32450 60000 10303 20170 39954 40064 83520 333 10339 56990 58023 70000 83616 86459=
41980,2023,07,23,00,00,AAXX 23004 41980 32950 00000 10274 20250 39944 40046 333 58010 70000=
41980,2023,07,23,06,00,AAXX 23064 41980 NIL=
41980,2023,07,23,12,00,AAXX 23124 41980 11450 60000 10276 20260 39938 40049 60227 70362 83520 333 10340 56990 59016 70220 83616 86459=
41980,2023,07,23,18,00,AAXX 23184 41980 NIL=
41980,2023,07,24,00,00,AAXX 24004 41980 32450 50000 10263 20240 39954 40068 83520 333 56990 58010 70220 83616 85459=
41980,2023,07,24,06,00,AAXX 24064 41980 NIL=
41980,2023,07,24,12,00,AAXX 24124 41980 32450 60000 10305 20270 39915 49924 83520 333 10336 56990 59023 70000 83616 86459=
41980,2023,07,25,00,00,AAXX 25004 41980 32950 00000 10260 20250 39938 40052 333 59016 70270=
41980,2023,07,25,06,00,AAXX 25064 41980 NIL=
41980,2023,07,25,12,00,AAXX 25124 41980 32450 31802 10298 20260 39924 40034 83500 333 10342 56900 58009 70270 83616=
41980,2023,07,26,00,00,AAXX 26004 41980 32950 00000 10270 20260 39942 40053 333 58004 70000=
41980,2023,07,26,12,00,AAXX 26124 41980 11340 81802 10268 20260 39950 40061 60153 76166 8662/ 333 10324 56999 58026 70150 83709 84614 88456=
41980,2023,07,26,18,00,AAXX 26184 41980 NIL=
41980,2023,07,27,00,00,AAXX 27004 41980 32440 81302 10259 20240 39950 40062 8672/ 333 56990 58008 70170 84616 88457=
41980,2023,07,27,06,00,AAXX 27064 41980 NIL=
41980,2023,07,27,12,00,AAXX 27124 41980 11450 61802 10280 20250 39932 40043 60166 70262 83520 333 10322 56990 59018 70180 83616 86459=
41984,2023,07,21,00,00,AAXX 21004 41984 11456 81802 10281 20270 39995 49997 60026 70262 8352/ 333 58020 70015 83618 88458==
41984,2023,07,21,03,00,AAXX 21034 41984 02457 81803 10316 20280 30010 40012 8352/ 333 20276 58021 70015 83618 88458==
41984,2023,07,21,06,00,AAXX 21063 41984 02457 51803 10318 20270 30015 40017 83510 333 58025 70015 83618 85458==
41984,2023,07,21,09,00,AAXX 21094 41984 02457 81304 10311 20270 30005 40007 8352/ 333 58029 70015 83618 88458==
41984,2023,07,21,12,00,AAXX 21124 41984 02457 80000 10303 20270 30009 40011 8352/ 333 10327 58038 70015 83618 88458==
41984,2023,07,21,15,00,AAXX 21154 41984 01440 81806 10291 20270 30019 40031 70262 8352/ 333 58038 70025 83618 88458==
41984,2023,07,21,18,00,AAXX 21184 41984 11440 81804 10290 20260 30038 40040 60016 70262 8352/ 333 58037 70025 83618 88458==
41984,2023,07,22,00,00,AAXX 22004 41984 01456 81803 10282 20260 30033 40035 70262 8352/ 333 58038 70010 83618 88458==
41984,2023,07,22,03,00,AAXX 22034 41984 01457 81303 10305 20280 30051 40053 70262 8352/ 333 20270 58041 70070 83618 88458==
41984,2023,07,22,06,00,AAXX 22064 41984 11457 51304 10322 20270 30049 40051 60056 70162 83510 333 58034 70070 83618 85458==
41984,2023,07,22,09,00,AAXX 22094 41984 02457 51306 10318 20280 30034 40036 83510 333 58029 70070 83618 85458==
41984,2023,07,22,12,00,AAXX 22124 41984 02457 51302 10301 20270 30035 40037 83510 333 10330 58026 70070 83618 85458==
41984,2023,07,22,15,00,AAXX 22154 41984 02440 20000 10290 20270 30047 40049 82500 333 58018 70060 82618==
41984,2023,07,22,18,00,AAXX 22184 41984 02440 20000 10288 20270 30053 40055 82500 333 58015 70060 82618==
41984,2023,07,22,21,00,AAXX 22214 41984 02440 50000 10284 20260 30052 40054 83510 333 58016 70060 83618 85458==
41984,2023,07,23,00,00,AAXX 23004 41984 21456 50000 10280 20270 30051 40053 70262 83510 333 58018 60025 70070 83618 85458==
41984,2023,07,23,03,00,AAXX 23034 41984 02457 82702 10298 20270 30059 40061 8352/ 333 20272 58008 70020 83618 88458==
41984,2023,07,23,06,00,AAXX 23064 41984 01457 50000 10330 20280 30053 40055 70162 83510 333 58004 70020 83618 85458==
41984,2023,07,23,09,00,AAXX 23094 41984 02457 51902 10324 20270 30033 40035 83510 333 59001 70040 83618 85458==
41984,2023,07,23,12,00,AAXX 23124 41984 02457 50000 10302 20280 30026 40028 83510 333 10330 59009 70040 83618 85458==
41984,2023,07,23,15,00,AAXX 23154 41984 02440 50000 10290 20270 30038 40040 83510 333 59009 70040 83618 85458==
41984,2023,07,23,18,00,AAXX 23184 41984 02440 20000 10285 20280 30039 40041 82500 333 59014 70040 82618==
41984,2023,07,23,21,00,AAXX 23214 41984 02440 50000 10282 20270 30034 40036 83510 333 59018 70040 83618 85458==
41984,2023,07,24,00,00,AAXX 24004 41984 02456 50000 10278 20270 30030 40032 83510 333 59021 70020 83618 85458==
41984,2023,07,24,03,00,AAXX 24034 41984 02457 80000 10308 20260 30033 40035 8352/ 333 20274 59026 70020 83618 88458==
41984,2023,07,24,06,00,AAXX 24064 41984 02457 50000 10315 20280 30029 40031 83510 333 59024 70000 83618 85458==
41984,2023,07,24,09,00,AAXX 24094 41984 02457 50000 10330 20270 30016 40018 83510 333 59017 70000 83618 85458==
41984,2023,07,24,12,00,AAXX 24124 41984 02457 50000 10305 20270 30012 40014 83510 333 10336 59017 70000 83618 85458==
41984,2023,07,24,15,00,AAXX 24154 41984 02440 20000 10287 20270 30019 40021 82500 333 59019 70000 82618==
41984,2023,07,24,18,00,AAXX 24184 41984 02440 20000 10285 20280 30024 40026 82500 333 59015 70000 82618==
41984,2023,07,24,21,00,AAXX 24214 41984 02440 20000 10285 20280 30021 40023 82500 333 59013 70000 82618==
41984,2023,07,25,00,00,AAXX 25004 41984 02456 30000 10286 20280 30017 40019 83500 333 59013 70000 83618==
41984,2023,07,25,03,00,AAXX 25034 41984 02457 61303 10320 20280 30021 40023 83510 333 20280 59012 70000 83618 85458==
41984,2023,07,25,06,00,AAXX 25064 41984 02356 81302 10297 20290 30026 40028 8672/ 333 59003 70050 83707 83615 88456==
41984,2023,07,25,09,00,AAXX 25094 41984 02457 81302 10305 20280 30013 40015 8352/ 333 59003 70052 83618 88458==
41984,2023,07,25,12,00,AAXX 25124 41984 01456 80000 10278 20260 30011 40013 70262 8352/ 333 10324 59005 70062 83618 88458==
41984,2023,07,25,15,00,AAXX 25154 41984 01340 80000 10276 20270 30029 40031 76162 8672/ 333 58010 70072 83707 84615 88456==
41984,2023,07,25,18,00,AAXX 25184 41984 21440 50000 10283 20260 30029 40031 70162 83510 333 58008 60018 70072 83618 85458==
41984,2023,07,25,21,00,AAXX 25214 41984 02440 50000 10276 20270 30027 40029 83510 333 58006 70072 83618 85458==
41984,2023,07,26,00,00,AAXX 26004 41984 21456 80000 10272 20270 30023 40025 70362 8352/ 333 58006 60087 70152 83618 88458==
41984,2023,07,26,03,00,AAXX 26034 41984 02457 61305 10310 20270 30033 40035 83510 333 20265 58012 70152 83618 85458==
41984,2023,07,26,06,00,AAXX 26064 41984 01457 81305 10317 20280 30031 40033 70362 8352/ 333 58005 70020 83618 88458==
41984,2023,07,26,09,00,AAXX 26094 41984 02457 81305 10318 20270 30019 40021 8352/ 333 58006 70115 83618 88458==
41984,2023,07,26,12,00,AAXX 26124 41984 01456 81303 10302 20270 30020 40022 70262 8352/ 333 10324 58009 70010 83618 88458==
41984,2023,07,26,15,00,AAXX 26154 41984 01440 81302 10289 20270 30031 40033 70262 8352/ 333 58002 70113 83618 88458==
41984,2023,07,26,18,00,AAXX 26184 41984 01340 81301 10282 20270 30034 40036 76162 8672/ 333 58002 70149 83707 83615 88458==
41984,2023,07,26,21,00,AAXX 26214 41984 01440 80000 10278 20270 30034 40036 70262 8352/ 333 58004 70185 83618 88458==
41984,2023,07,27,00,00,AAXX 27004 41984 01356 80000 10271 20270 30025 40027 76162 8662/ 333 70155 82709 84616 88458==
41984,2023,07,27,03,00,AAXX 27034 41984 02457 80000 10286 20250 30037 40039 8352/ 333 20262 58004 70155 83618 88458==
41984,2023,07,27,06,00,AAXX 27064 41984 21457 62305 10322 20270 30032 40034 70162 83510 333 58001 60015 70150 83618 85482==
41984,2023,07,27,09,00,AAXX 27094 41984 02457 61805 10323 20270 30015 40017 83510 333 59004 70150 83618 85458==
41984,2023,07,27,12,00,AAXX 27124 41984 02457 62304 10300 20270 30008 40010 83510 333 10335 59012 70140 83618 85458==
41984,2023,07,27,15,00,AAXX 27154 41984 02440 61301 10293 20270 30018 40020 83510 333 59013 70132 83618 85458==
41984,2023,07,27,18,00,AAXX 27184 41984 32440 62303 10290 20280 30017 40019 83510 333 56990 59017 70096 83618 85458=
41984,2023,07,27,21,00,AAXX 27214 41984 01340 80000 10274 20272 30012 40014 76162 8672/ 333 59019 70086 83707 83615 88456==
41989,2023,07,21,03,00,AAXX 21034 41989 02450 31402 10212 20260 30025 40029 83500 333 20267 58004 70000 83618==
41989,2023,07,21,06,00,AAXX 21063 41989 42456 21304 10330 20260 30039 40042 82500 333 58027 82618==
41989,2023,07,21,09,00,AAXX 21094 41989 02456 41307 10332 20270 30017 40020 83530 333 58022 70000 82618 84362==
41989,2023,07,21,12,00,AAXX 21124 41989 02450 51406 10300 20250 30014 40017 83570 333 10350 58032 70000 83618 84460==
41989,2023,07,21,15,00,AAXX 21154 41989 02450 41705 10288 20250 30052 40055 82570 333 58053 70000 83362==
41989,2023,07,21,18,00,AAXX 21184 41989 02450 21305 10284 20250 30063 40066 82500 333 58047 70000 82618==
41989,2023,07,21,21,00,AAXX 21214 41989 02450 21302 10280 20250 30008 40011 81500 333 58034 70000 82618==
41989,2023,07,22,00,00,AAXX 22004 41989 02450 21802 10277 20260 30004 40007 82500 333 58042 70000 82618==
41989,2023,07,22,03,00,AAXX 22034 41989 02456 31304 10312 20260 30063 40066 82530 333 20260 58022 70000 82618 83362==
41989,2023,07,22,06,00,AAXX 22064 41989 02450 41403 10320 20240 30071 40074 82530 333 58032 70000 82618 83362==
41989,2023,07,22,09,00,AAXX 22094 41989 02456 41306 10330 20260 30047 40050 82530 333 58030 70000 82618 84362==
41989,2023,07,22,12,00,AAXX 22124 41989 02456 51406 10306 20260 30040 40043 83570 333 10338 58026 70000 83618 83362==
41989,2023,07,22,15,00,AAXX 22154 41989 02450 51403 10295 20250 30063 40065 83530 333 58011 70000 83618 83362==
41989,2023,07,22,18,00,AAXX 22184 41989 02440 51802 10290 20260 30084 40087 83530 333 58021 70000 83618 83362==
41989,2023,07,22,21,00,AAXX 22214 41989 02430 31402 10280 20250 30074 40078 83500 333 58017 70000 83618==
41989,2023,07,23,00,00,AAXX 23004 41989 02430 31402 10278 20250 30061 40064 83500 333 58007 70000==
41989,2023,07,23,03,00,AAXX 23034 41989 02450 21402 10310 20260 30070 40073 82500 333 20261 58004 70000 82618==
41989,2023,07,23,06,00,AAXX 23064 41989 02456 21806 10335 20260 30071 40074 82500 333 58000 70000 82618==
41989,2023,07,23,09,00,AAXX 23094 41989 02450 21403 10350 20270 30053 40056 82500 333 58006 70000 82618==
41989,2023,07,23,12,00,AAXX 23124 41989 02450 31403 10308 20260 30045 40048 83500 333 10345 58005 70000 83618==
41989,2023,07,23,15,00,AAXX 23154 41989 02450 51803 10290 20260 30050 40053 82570 333 59013 70000 82618 83362==
41989,2023,07,23,18,00,AAXX 23184 41989 02450 41302 10285 20260 30059 40062 83530 333 59025 70000 83618==
41989,2023,07,23,21,00,AAXX 23214 41989 02450 41302 10280 20260 30055 40058 82530 333 59019 70000 82618 84362==
41989,2023,07,24,00,00,AAXX 24004 41989 02450 51802 10277 20260 30053 40056 82570 333 59008 70000 82618 83362==
41989,2023,07,24,03,00,AAXX 24034 41989 02456 21302 10314 20260 30061 40064 82500 333 20265 59012 70000 82618==
41989,2023,07,24,06,00,AAXX 24064 41989 02450 41403 10343 20250 30041 40044 82530 333 59030 70000 82618 83362==
41989,2023,07,24,12,00,AAXX 24124 41989 02456 41306 10312 20260 30010 40013 82530 333 10345 59035 70000 82618 84362==
41989,2023,07,24,15,00,AAXX 24154 41989 02450 31403 10298 20270 30042 40045 82500 333 59008 70000 83618==
41989,2023,07,25,00,00,AAXX 25004 41989 NIL=
41989,2023,07,25,03,00,AAXX 25034 41989 02450 31802 10315 20260 30065 40069 83500 333 20264 58004 70020 83618==
41989,2023,07,25,06,00,AAXX 25064 41989 02456 21306 10334 20250 30046 40049 82500 333 58005 70020 82618==
41989,2023,07,25,09,00,AAXX 25094 41989 02450 31405 10337 20260 30036 40039 83500 333 58010 70020 83618==
41989,2023,07,25,12,00,AAXX 25124 41989 02450 31803 10300 20250 30035 40038 83500 333 10347 58010 70020 83618==
41989,2023,07,26,00,00,AAXX 26004 41989 NIL=
41989,2023,07,26,03,00,AAXX 26034 41989 42456 51305 10302 20260 30061 40064 82570 333 20250 59007 82618 83362==
41989,2023,07,26,06,00,AAXX 26064 41989 42450 41402 10320 20260 30053 40056 82530 333 58007 82618 83362==
41989,2023,07,26,09,00,AAXX 26094 41989 42456 61705 10313 20250 30040 40043 83570 333 58004 83618 84460==
41989,2023,07,26,12,00,AAXX 26124 41989 42450 61404 10302 20260 30031 40034 82570 333 10328 59004 82618 84362==
41989,2023,07,26,15,00,AAXX 26154 41989 42450 51803 10280 20250 30064 40067 83530 333 58018 83618 84362==
41989,2023,07,26,18,00,AAXX 26184 41989 42440 51402 10275 20250 30080 40084 83530 333 58025 83618 83362==
41989,2023,07,27,00,00,AAXX 27004 41989 NIL=
41989,2023,07,27,03,00,AAXX 27034 41989 01450 51402 10295 20250 30060 40063 70262 83520 333 20248 59002 70070 83618 83362==
41989,2023,07,27,06,00,AAXX 27064 41989 NIL=
41989,2023,07,27,09,00,AAXX 27094 41989 02450 51403 10305 20260 30043 40046 83570 333 58003 70080 83618 84362==
41989,2023,07,27,12,00,AAXX 27124 41989 02440 41804 10295 20260 30034 40038 83470 333 10320 58003 70080 82618 83460==
41989,2023,07,27,15,00,AAXX 27154 41989 02450 31703 10287 20270 30034 40039 82530 333 59038 70080 82618 83362==
41989,2023,07,27,18,00,AAXX 27184 41989 32450 31802 10280 20260 30045 40049 83530 333 56990 59035 70080 83618=
41989,2023,07,27,21,00,AAXX 27214 41989 02450 41302 10275 20260 30039 40042 82570 333 59029 70080 82618 83362==
41992,2023,07,21,00,00,AAXX 21004 41992 01425 30000 10270 20250 30030 40032 70521 82530 333 58022 70050 82616 83362==
41992,2023,07,21,03,00,AAXX 21034 41992 01435 31705 10314 20240 30042 40044 70511 81530 333 20268 58016 70000 81616 83362==
41992,2023,07,21,06,00,AAXX 21064 41992 01430 71809 10304 20260 30044 40046 70521 84530 333 58025 70000 84616 87362==
41992,2023,07,21,09,00,AAXX 21094 41992 01435 31506 10320 20250 30030 40032 70511 82530 333 58031 70000 82616 83362==
41992,2023,07,21,12,00,AAXX 21124 41992 01430 71804 10297 20250 30037 40039 70521 84530 333 10325 58044 70000 84616 87362==
41992,2023,07,21,15,00,AAXX 21154 41992 01425 60000 10280 20250 30066 40068 70522 83530 333 58045 70000 83616 86362==
41992,2023,07,21,18,00,AAXX 21184 41992 01425 60000 10270 20250 30065 40067 70522 84520 333 58037 70000 84616 86460==
41992,2023,07,21,21,00,AAXX 21214 41992 01425 60000 10265 20250 30060 40062 70522 83530 333 58033 70000 83616 86362==
41992,2023,07,22,00,00,AAXX 22004 41992 01425 60000 10265 20250 30063 40065 70522 82530 333 58033 70000 82616 86362==
41992,2023,07,22,03,00,AAXX 22034 41992 01435 41805 10312 20240 30078 40080 70521 82530 333 20263 58036 70000 82616 84362==
41992,2023,07,22,06,00,AAXX 22064 41992 01430 61804 10326 20260 30074 40076 70521 84530 333 58030 70000 84616 86362==
41992,2023,07,22,09,00,AAXX 22094 41992 01430 61805 10302 20250 30055 40057 70522 83520 333 58025 70000 83616 86460==
41992,2023,07,22,12,00,AAXX 22124 41992 01530 60000 10295 20260 30060 40062 70522 82101 333 10330 58025 70000 82825 86080==
41992,2023,07,22,15,00,AAXX 22154 41992 01430 61504 10287 20260 30078 40080 70511 83530 333 58012 70000 83616 86362==
41992,2023,07,22,18,00,AAXX 22184 41992 01425 61502 10277 20260 30081 40083 70521 84530 333 58016 70000 84616 86362==
41992,2023,07,22,21,00,AAXX 22214 41992 01425 60000 10274 20250 30078 40080 70522 83530 333 58018 70000 83616 86362==
41992,2023,07,23,00,00,AAXX 23004 41992 01425 60000 10270 20240 30078 40080 70522 84530 333 58015 70000 84616 86362==
41992,2023,07,23,03,00,AAXX 23034 41992 01425 20000 10308 20250 30078 40080 70521 82500 333 20264 58000 70000 82616==
41992,2023,07,23,06,00,AAXX 23064 41992 01435 30000 10327 20260 30072 40074 70521 81530 333 59002 70000 81616 83362==
41992,2023,07,23,09,00,AAXX 23094 41992 01430 41806 10314 20250 30050 40052 70511 82530 333 59005 70000 82616 84362==
41992,2023,07,23,12,00,AAXX 23124 41992 01430 61803 10297 20260 30042 40044 70521 84530 333 10328 59018 70000 84616 86362==
41992,2023,07,23,15,00,AAXX 23154 41992 01925 00000 10295 20270 30057 40059 70511 333 59021 70000==
41992,2023,07,23,18,00,AAXX 23184 41992 01925 00000 10270 20250 30054 40056 70500 333 59022 70000==
41992,2023,07,23,21,00,AAXX 23214 41992 01425 30000 10270 20250 30054 40056 70510 83500 333 59024 70000 83616==
41992,2023,07,24,00,00,AAXX 24004 41992 01425 60000 10270 20250 30048 40050 70520 84530 333 59030 70000 84616 86362==
41992,2023,07,24,03,00,AAXX 24034 41992 01/35 20000 10322 20240 30055 40057 70521 82030 333 20268 59023 70000 82362==
41992,2023,07,24,06,00,AAXX 24064 41992 42935 30000 10330 20260 30042 40044 59030 83362==
41992,2023,07,24,09,00,AAXX 24094 41992 01/35 30000 10325 20270 30028 40030 70511 83030 333 59022 70000 83362==
41992,2023,07,24,12,00,AAXX 24124 41992 01430 40000 10300 20260 30022 40024 70511 82530 333 10335 59020 70000 82616 84362==
41992,2023,07,24,15,00,AAXX 24154 41992 01425 40000 10290 20260 30044 40046 70511 82530 333 59013 70000 82616 84362==
41992,2023,07,24,18,00,AAXX 24184 41992 01425 60000 10282 20250 30042 40044 70521 84530 333 59017 70000 84616 86362==
41992,2023,07,24,21,00,AAXX 24214 41992 01425 40000 10278 20250 30041 40043 70521 82530 333 59013 70000 82616 84362==
41992,2023,07,25,00,00,AAXX 25004 41992 01425 60000 10274 20250 30040 40042 70521 84530 333 59008 70000 84616 86362==
41992,2023,07,25,03,00,AAXX 25034 41992 01435 20000 10316 20250 30049 40051 70521 82500 333 20272 59006 70000 82616==
41992,2023,07,25,06,00,AAXX 25064 41992 01430 60000 10327 20240 30049 40051 70521 84530 333 58007 70000 84616 86362==
41992,2023,07,25,09,00,AAXX 25094 41992 01430 31810 10312 20250 30034 40036 70522 82530 333 58006 70000 82616 83362==
41992,2023,07,25,12,00,AAXX 25124 41992 01430 41810 10300 20250 30035 40037 70521 82530 333 10336 58013 70000 82616 84362==
41992,2023,07,25,15,00,AAXX 25154 41992 01425 31805 10280 20250 30057 40059 70511 83500 333 58013 70000 83616==
41992,2023,07,25,18,00,AAXX 25184 41992 01425 40000 10275 20260 30061 40063 70511 84500 333 58019 70000 84616==
41992,2023,07,25,21,00,AAXX 25214 41992 01425 60000 10270 20250 30056 40058 70521 83530 333 58015 70000 83616 86362==
41992,2023,07,26,00,00,AAXX 26004 41992 01425 80000 10260 20250 30055 40057 76122 8492/ 333 58015 70020 83614 88458 81925==
41992,2023,07,26,03,00,AAXX 26034 41992 01430 70000 10298 20260 30070 40072 70566 84330 333 20260 58021 70030 83616 87362==
41992,2023,07,26,06,00,AAXX 26064 41992 11430 61809 10322 20250 30061 40063 60016 70562 84530 333 58012 70030 84616 86362==
41992,2023,07,26,09,00,AAXX 26094 41992 01430 81805 10305 20260 30048 40050 70522 8352/ 333 58015 70030 83616 88460 81925==
41992,2023,07,26,12,00,AAXX 26124 41992 21425 80000 10270 20260 30048 40050 76162 8492/ 333 10320 58013 60157 70180 83614 88458 81925==
41992,2023,07,26,15,00,AAXX 26154 41992 01425 81204 10267 20250 30066 40068 75155 8432/ 333 58009 70180 82708 84614 88458 81925==
41992,2023,07,26,18,00,AAXX 26184 41992 21425 60000 10268 20250 30069 40071 70552 84530 333 58008 60008 70180 84616 86362==
41992,2023,07,26,21,00,AAXX 26214 41992 01425 70000 10265 20250 30064 40066 70522 84530 333 58008 70180 84616 87360==
41992,2023,07,27,00,00,AAXX 27004 41992 21320 80000 10262 20250 30059 40061 75165 8432/ 333 58004 60037 70190 82708 84614 88458 81925==
41992,2023,07,27,03,00,AAXX 27034 41992 01430 71504 10306 20270 30064 40066 70522 84530 333 20257 59006 70180 84616 87362==
41992,2023,07,27,06,00,AAXX 27064 41992 21430 60000 10314 20260 30060 40062 70562 84530 333 59001 60005 70180 84616 86362==
41992,2023,07,27,09,00,AAXX 27094 41992 01430 61804 10295 20270 30043 40045 70522 84530 333 59005 70180 84616 86362==
41992,2023,07,27,12,00,AAXX 27124 41992 01430 61805 10298 20260 30037 40039 70522 84530 333 10322 59011 70030 84616 86362==
41992,2023,07,27,15,00,AAXX 27154 41992 01425 60000 10275 20270 30051 40053 76122 84920 333 59015 70070 83614 86458 81925==
41992,2023,07,27,18,00,AAXX 27184 41992 01425 80000 10270 20260 30044 40046 76162 8492/ 333 59025 70100 83614 88458 81925==
41992,2023,07,27,21,00,AAXX 27214 41992 01425 80000 10265 20260 30039 40041 76166 8492/ 333 59025 70110 83614 88458 81925==
41998,2023,07,21,03,00,AAXX 21034 41998 21456 60000 10268 20260 30045 40051 72166 83420 333 58025 60067 70180 82618 83458==
41998,2023,07,21,12,00,AAXX 21124 41998 02456 61801 10286 20260 30035 40041 83470 333 10317 58043 70190 82618 83458==
41998,2023,07,22,00,00,AAXX 22004 41998 02456 50000 10275 20260 30037 40063 82470 333 59001 70080 81618 83458==
41998,2023,07,22,03,00,AAXX 22034 41998 02456 50000 10309 20260 30057 40053 82470 333 20270 58022 70080==
41998,2023,07,22,12,00,AAXX 22124 41998 02456 50000 10292 20270 30051 40057 82470 333 10328 58016 70000 82618 83458==
41998,2023,07,23,00,00,AAXX 23004 41998 NIL=
41998,2023,07,23,03,00,AAXX 23034 41998 02456 50000 10312 20270 30073 40079 82470 333 20267 58016 70000 81618 83458==
41998,2023,07,23,06,00,AAXX 23064 41998 NIL=
41998,2023,07,23,18,00,AAXX 23184 41998 NIL=
41998,2023,07,24,03,00,AAXX 24034 41998 02456 50000 10312 20250 30056 40062 82470 333 20261 59017 70000 82618 83458==
41998,2023,07,24,06,00,AAXX 24064 41998 NIL=
41998,2023,07,24,12,00,AAXX 24124 41998 02456 50000 10305 20250 30014 40020 82470 333 10335 59029 70000 81618 83458==
41998,2023,07,25,00,00,AAXX 25004 41998 02456 40000 10273 20250 30026 40032 82470 333 59017 70000 81618 83458==
41998,2023,07,25,03,00,AAXX 25034 41998 01456 60000 10309 20260 30040 40046 72162 83470 333 20268 59016 70020 82618 83458==
41998,2023,07,25,06,00,AAXX 25064 41998 NIL=
41998,2023,07,25,12,00,AAXX 25124 41998 02456 60000 10303 20260 30015 40021 83470 333 10336 59008 70020 83618 83458==
41998,2023,07,26,00,00,AAXX 26004 41998 42456 80000 10278 20250 30042 40048 58016 88458==
41998,2023,07,26,12,00,AAXX 26124 41998 02456 60000 10288 20260 30046 40052 83470 333 10315 58027 70050 82618 83458==
41998,2023,07,26,18,00,AAXX 26184 41998 NIL=
41998,2023,07,27,00,00,AAXX 27004 41998 02456 80000 10271 20250 30045 40051 8342/ 333 49006 70040 82618 88458==
41998,2023,07,27,03,00,AAXX 27034 41998 02456 60000 10300 20270 30066 40072 83470 333 20263 58008 70010 82618 83458==
41998,2023,07,27,06,00,AAXX 27064 41998 NIL=
41998,2023,07,27,12,00,AAXX 27124 41998 02456 60000 10286 20270 30035 40041 83470 333 10310 59011 70030 83618 83458==
