ESTACION,ANO,MES,DIA,HORA,MINUTO,PARTE
41850,2024,09,13,00,00,AAXX 13004 41850 31940 00902 10270 20260 39913 40010 70500 333 59013 70000=
41850,2024,09,13,06,00,AAXX 13064 41850 32957 01303 10360 20250 39917 40011 333 59016 70000=
41850,2024,09,13,12,00,AAXX 13124 41850 32856 30000 10345 20270 39878 49973 84030 333 10379 56090 59024 70000 84362=
41850,2024,09,13,18,00,AAXX 13184 41850 31430 80000 10288 20270 39903 40000 70522 8252/ 333 56999 59024 70000 82618 88458=
41850,2024,09,14,00,00,AAXX 14004 41850 11440 80902 10268 20260 39898 49995 60016 70562 8252/ 333 56999 59015 70010 81618 88458=
41850,2024,09,14,06,00,AAXX 14064 41850 11350 80000 10275 20260 39926 40023 60053 76166 8472/ 333 56999 58009 70060 82707 82615 88458=
41850,2024,09,14,12,00,AAXX 14124 41850 11440 60000 10295 20270 39894 49990 60216 70562 82530 333 10326 56990 58016 70270 82616 86360=
41850,2024,09,14,18,00,AAXX 14184 41850 NIL=
41850,2024,09,15,00,00,AAXX 15004 41850 11425 80000 10254 20240 39906 40005 60086 71062 8352/ 333 56299 58008 70340 83615 88458=
41850,2024,09,15,06,00,AAXX 15064 41850 11340 81903 10265 20260 39923 40021 60069 76162 8372/ 333 56299 59003 70350 81708 83614 88458=
41850,2024,09,15,12,00,AAXX 15124 41850 11440 71703 10294 20250 39904 40001 69906 70562 83510 333 10316 56990 58010 70140 83616 87458=
41850,2024,09,15,18,00,AAXX 15184 41850 31440 60000 10272 20240 39930 40028 70522 333 56999 58019 70140 82616 88458=
41850,2024,09,16,00,00,AAXX 16004 41850 31440 81603 10262 20230 39933 40031 70522 8352/ 333 56299 58027 70060 83615 88458=
41850,2024,09,16,06,00,AAXX 16064 41850 11430 80000 10274 20250 39961 40059 60014 76162 8352/ 333 56299 58038 70010 83614 88458=
41850,2024,09,16,12,00,AAXX 16124 41850 11450 80000 10284 20250 39944 40041 69936 70562 8352/ 333 10301 56999 58044 70013 83617 88458=
41850,2024,09,16,18,00,AAXX 16184 41850 31440 80000 10264 20250 39957 40055 70522 8352/ 333 56999 58027 70013 83617 88458=
41850,2024,09,17,00,00,AAXX 17004 41850 31450 52702 10250 20240 39968 40066 70522 82520 333 56990 58035 70013 82618 85458=
41850,2024,09,17,06,00,AAXX 17064 41850 32456 50000 10315 20260 39978 40075 82510 333 56990 58017 70003 82618 85458=
41850,2024,09,17,12,00,AAXX 17124 41850 32450 40000 10302 20240 39939 40036 82530 333 10345 56990 59005 70000 82618 84362=
41850,2024,09,17,18,00,AAXX 17184 41850 31940 00000 10263 20250 39959 40057 70510 333 58002 70000=
41850,2024,09,18,00,00,AAXX 18004 41850 31920 00000 10247 20245 39956 40054 71000 333 59012 70000=
41850,2024,09,18,06,00,AAXX 18064 41850 32956 00000 10347 20230 39956 40051 333 59022 70000=
41850,2024,09,18,09,00,AAXX 18094 41850 NIL=
41850,2024,09,18,12,00,AAXX 18124 41850 31950 00000 10314 20270 39925 40021 70510 333 10358 59014 70000=
41850,2024,09,18,18,00,AAXX 18184 41850 NIL=
41850,2024,09,19,00,00,AAXX 19004 41850 31940 30000 10260 20250 39950 40048 70510 83030 333 56090 59006 70000 83362=
41850,2024,09,19,06,00,AAXX 19064 41850 32957 00000 10355 20240 39940 40035 333 59016 70000=
41850,2024,09,19,12,00,AAXX 19124 41850 31950 00000 10319 20260 39910 40008 70500 333 10369 59015 70000=
41850,2024,09,19,18,00,AAXX 19184 41850 31940 00000 10288 20270 39932 40029 70500 333 59012 70000=
41851,2024,09,13,00,00,AAXX 13004 41851 32450 10000 10271 20260 39949 40011 81500 333 56900 59011 70000 81618=
41851,2024,09,13,06,00,AAXX 13064 41851 32450 30000 10346 20280 39950 40011 82530 333 56990 56900 70000 82618=
41851,2024,09,13,12,00,AAXX 13124 41851 32450 30000 10345 20280 39913 49973 82530 333 10365 56990 59030 70000 82618=
41851,2024,09,13,18,00,AAXX 13184 41851 11450 80000 10272 20260 39944 40006 60166 70296 8352/ 333 56999 59014 70156 83618 88458=
41851,2024,09,14,00,00,AAXX 14004 41851 11450 80000 10255 20250 39929 49991 60149 70296 8352/ 333 56999 59020 70302 81708 84616 81929 88456=
41851,2024,09,14,06,00,AAXX 14064 41851 11450 80401 10301 20270 39954 40016 60076 70262 8352/ 333 56999 58004 70372 83618 88458=
41851,2024,09,14,12,00,AAXX 14124 41851 11450 40000 10286 20270 39932 49994 60035 70196 82510 333 10320 56990 58019 70420 82618 84458=
41851,2024,09,14,18,00,AAXX 14184 41851 11450 80901 10255 20250 39955 40017 60247 70296 8352/ 333 56999 58011 70489 83618 88458=
41851,2024,09,15,00,00,AAXX 15004 41851 32450 80000 10255 02050 39944 40006 8352/ 333 56999 58015 70343 83618 88458=
41851,2024,09,15,06,00,AAXX 15064 41851 32450 80402 10315 20260 39953 40014 8352/ 333 56999 59001 70273 83618 88458=
41851,2024,09,15,12,00,AAXX 15124 41851 32450 80402 10282 20230 39940 40004 8352/ 333 10310 56999 58008 70243 83618 88458=
41851,2024,09,15,18,00,AAXX 15184 41851 32350 80401 10265 20250 39966 40028 8462/ 333 56299 58011 70000 81708 84616 88456=
41851,2024,09,16,00,00,AAXX 16004 41851 11450 80402 10275 20230 39969 40031 60016 70262 8352/ 333 56999 58025 70010 83618 88458=
41851,2024,09,16,06,00,AAXX 16064 41851 32450 80401 10292 20250 39994 40056 8352/ 333 56999 58041 70010 83618 88458=
41851,2024,09,16,12,00,AAXX 16124 41851 32450 80000 10285 20270 39978 40040 8352/ 333 10300 56999 58038 70010 83618 88457=
41851,2024,09,16,18,00,AAXX 16184 41851 32450 80000 10265 20260 39994 40057 8352/ 333 56999 58028 70010 83618 88457=
41851,2024,09,17,00,00,AAXX 17004 41851 31440 80000 10256 20250 30000 40063 70522 8352/ 333 56999 58031 70000 83618 88458=
41851,2024,09,17,06,00,AAXX 17064 41851 32450 60901 10317 20260 30015 40076 83520 333 56990 58021 70000 83618 86458=
41851,2024,09,17,12,00,AAXX 17124 41851 32450 50000 10315 20270 39971 40032 82510 333 10345 56990 59007 70000 82618 85459=
41851,2024,09,17,18,00,AAXX 17184 41851 32450 40000 10275 20270 39995 40057 81510 333 56990 58001 70000 81618 84459=
41851,2024,09,18,00,00,AAXX 18004 41851 31920 00000 10260 20250 39991 40054 71020 333 59009 70000=
41851,2024,09,18,06,00,AAXX 18064 41851 32950 00901 10337 20240 39995 40056 333 59020 70000=
41851,2024,09,18,09,00,AAXX 18094 41851 32450 10701 10352 20240 39967 40028 81500 333 56900 59019 70000 81618=
41851,2024,09,18,12,00,AAXX 18124 41851 32450 20000 10332 20260 39960 40021 81530 333 10355 56990 59011 70000 81614=
41851,2024,09,18,18,00,AAXX 18184 41851 32950 00000 10282 20270 39982 40044 333 59013 70000=
41851,2024,09,19,00,00,AAXX 19004 41851 31440 10000 10270 20260 39982 40045 70500 81500 333 56900 59009 70000 81618=
41851,2024,09,19,06,00,AAXX 19064 41851 32950 00901 10353 20250 39981 40042 333 59014 70000=
41851,2024,09,19,12,00,AAXX 19124 41851 32450 20000 10335 20270 39949 40010 82500 333 10362 56900 59011 70000 82618=
41851,2024,09,19,18,00,AAXX 19184 41851 32950 00000 10290 20270 39974 40036 333 59008 70000=
41856,2024,09,13,00,00,AAXX 13004 41856 32940 20000 10271 20260 39971 40006 82030 333 56090 59011 70000 82362=
41856,2024,09,13,06,00,AAXX 13064 41856 32456 30000 10348 20270 39972 40006 82430 333 56990 59018 70000 81618 83362=
41856,2024,09,13,12,00,AAXX 13124 41856 32950 30000 10337 20300 39940 49974 83030 333 10356 56090 59025 70000 83362=
41856,2024,09,13,18,00,AAXX 13184 41856 11430 81802 10266 20250 39968 40003 60344 72162 8562/ 333 56399 59014 70340 83618 88457=
41856,2024,09,14,00,00,AAXX 14004 41856 32440 50000 10267 20260 39956 49991 83430 333 56990 59015 70340 82618 85362=
41856,2024,09,14,06,00,AAXX 14064 41856 32450 81401 10307 20260 39976 40011 8462/ 333 56399 58004 70340 82618 88457=
41856,2024,09,14,12,00,AAXX 14124 41856 32450 40000 10302 20260 39955 49990 83430 333 10334 56990 58015 70340 82618 84362=
41856,2024,09,14,18,00,AAXX 14184 41856 32430 80000 10265 20250 39980 40015 8352/ 333 56999 58012 70000 82618 88458=
41856,2024,09,15,00,00,AAXX 15004 41856 11430 80901 10258 20250 39970 40005 60154 70262 8462/ 333 56399 58014 70150 82618 88458=
41856,2024,09,15,06,00,AAXX 15064 41856 32450 80901 10297 20250 39983 40018 8362/ 333 56399 58007 70150 82618 88457=
41856,2024,09,15,12,00,AAXX 15124 41856 32450 81601 10274 20230 39972 40007 8562/ 333 10306 58017 70150 84618 88458=
41856,2024,09,15,18,00,AAXX 15184 41856 32440 81401 10263 20240 39998 40033 8562/ 333 58018 70150 84618 88458=
41856,2024,09,16,00,00,AAXX 16004 41856 32440 80000 10264 20250 39990 40025 8562/ 333 58020 70000 84618 88458=
41856,2024,09,16,06,00,AAXX 16064 41856 32450 81102 10300 20250 30020 40055 8542/ 333 56999 58037 70000 84618 88458=
41856,2024,09,16,12,00,AAXX 16124 41856 32450 80000 10290 20260 30001 40036 8542/ 333 10311 56999 58029 70000 84618 88458=
41856,2024,09,16,18,00,AAXX 16184 41856 32440 60000 10267 20260 30023 40058 83430 333 56990 58025 70000 82618 84458=
41856,2024,09,17,00,00,AAXX 17004 41856 31930 30000 10254 20240 30026 40062 70511 83030 333 56090 58036 70000 83362=
41856,2024,09,17,06,00,AAXX 17064 41856 32950 31301 10343 20250 30038 40073 83030 333 56090 58018 70000 83362=
41856,2024,09,17,12,00,AAXX 17124 41856 32950 40000 10314 20260 39994 40029 84030 333 10365 56090 59007 70000 84362=
41856,2024,09,17,18,00,AAXX 17184 41856 31930 20000 10280 20260 30019 40054 70511 82030 333 56090 59004 70000 82362=
41856,2024,09,18,00,00,AAXX 18004 41856 31930 00000 10264 20250 30015 40050 70500 333 59010 70000=
41856,2024,09,18,06,00,AAXX 18064 41856 32956 00000 10354 20220 30017 40051 333 59021 70000=
41856,2024,09,18,09,00,AAXX 18094 41856 32956 22601 10358 20240 39990 40024 82030 333 56090 59019 70000 82362=
41856,2024,09,18,12,00,AAXX 18124 41856 32956 40000 10335 20270 39983 40017 84030 333 10367 56090 59011 70000 84362=
41856,2024,09,18,18,00,AAXX 18184 41856 31940 00000 10275 20260 30007 40042 70500 333 59012 70000=
41856,2024,09,19,00,00,AAXX 19004 41856 31940 30000 10270 20260 30008 40043 70511 80001 333 56009 59007 70000 83080=
41856,2024,09,19,06,00,AAXX 19064 41856 32956 02501 10363 20250 30004 40038 333 59013 70000=
41856,2024,09,19,12,00,AAXX 19124 41856 32950 30000 10335 20280 39974 40008 83030 333 10382 56090 59009 70000 83362=
41856,2024,09,19,18,00,AAXX 19184 41856 32930 00000 10290 20280 30001 40036 333 59006 70000=
41858,2024,09,13,00,00,AAXX 13004 41858 01/40 40000 10280 20260 39965 40010 70510 84030 333 59011 70000 84362==
41858,2024,09,13,03,00,AAXX 13034 41858 01/50 40505 10332 20260 39976 40020 70522 84030 333 20274 59009 70000 84362==
41858,2024,09,13,06,00,AAXX 13064 41858 01450 50505 10352 20270 39967 40010 70522 83520 333 59020 70000 83618 84458==
41858,2024,09,13,09,00,AAXX 13094 41858 01550 43305 10355 20270 39931 49975 70522 82240 333 59030 70000 82825 84362==
41858,2024,09,13,12,00,AAXX 13124 41858 01550 40000 10340 20260 39932 49975 70522 82240 333 10366 59028 70000 82825 84362==
41858,2024,09,13,15,00,AAXX 13154 41858 01440 80000 10280 20260 39954 49999 71396 8592/ 333 59018 70090 84615 88458 81928==
41858,2024,09,13,18,00,AAXX 13184 41858 01430 80000 10272 20250 39971 40016 76396 8452/ 333 59015 70260 84616 88458==
41858,2024,09,13,21,00,AAXX 13214 41858 01440 80000 10268 20250 39946 49991 70562 8452/ 333 59014 70354 84616 88458==
41858,2024,09,14,00,00,AAXX 14004 41858 11440 60000 10265 20250 39948 49993 60096 70562 84520 333 59017 70354 84616 86458==
41858,2024,09,14,03,00,AAXX 14034 41858 01440 80304 10280 20260 39974 40019 70522 8452/ 333 20255 59002 70354 84615 88458==
41858,2024,09,14,06,00,AAXX 14064 41858 01450 80904 10312 20260 39968 40012 70522 8452/ 333 58001 70354 84615 88458==
41858,2024,09,14,09,00,AAXX 14094 41858 01450 81204 10326 20250 39938 49982 70522 8452/ 333 58007 70354 84615 88458==
41858,2024,09,14,12,00,AAXX 14124 41858 01450 70000 10314 20250 39948 49992 70522 84520 333 10328 58016 70354 84616 86458==
41858,2024,09,14,15,00,AAXX 14154 41858 01440 60902 10296 20260 39967 40011 71722 84520 333 58013 70264 84615 86458==
41858,2024,09,14,18,00,AAXX 14184 41858 01440 80904 10288 20260 39973 40018 70522 8452/ 333 58002 70094 84615 88458==
41858,2024,09,14,21,00,AAXX 14214 41858 01450 80905 10280 20250 39964 40009 70522 8452/ 333 58018 70000 84615 88458==
41858,2024,09,15,00,00,AAXX 15004 41858 01456 80905 10270 20240 39957 40002 70262 8452/ 333 58009 70004 84615 88458==
41858,2024,09,15,03,00,AAXX 15034 41858 01450 80505 10285 20260 39973 40018 70522 8452/ 333 20258 59001 70004 84615 88458==
41858,2024,09,15,06,00,AAXX 15064 41858 01450 80908 10304 20240 39970 40014 70522 8452/ 333 58002 70004 84615 88458==
41858,2024,09,15,09,00,AAXX 15094 41858 01450 70908 10317 20250 39947 49991 70522 84520 333 58009 70004 84615 86458==
41858,2024,09,15,12,00,AAXX 15124 41858 21450 81204 10286 20250 39957 40002 70562 8452/ 333 10318 58009 69927 70006 84615 88458==
41858,2024,09,15,15,00,AAXX 15154 41858 01440 80905 10274 20250 39981 40026 70562 8452/ 333 58014 70006 84615 88458==
41858,2024,09,15,18,00,AAXX 15184 41858 21440 80905 10270 20260 39992 40037 76162 8452/ 333 58019 60017 70016 84615 88458==
41858,2024,09,15,21,00,AAXX 15214 41858 01440 80904 10268 20250 39973 40018 70562 8452/ 333 58009 70016 84615 88458==
41858,2024,09,16,00,00,AAXX 16004 41858 01440 80905 10278 20260 39978 40023 70522 8452/ 333 58021 70012 84615 88458==
41858,2024,09,16,03,00,AAXX 16034 41858 01440 80905 10270 20250 30007 40052 72162 8452/ 333 20260 58034 70024 84615 88458==
41858,2024,09,16,06,00,AAXX 16064 41858 11440 80905 10300 20250 30010 40055 60016 70562 8452/ 333 58040 70024 84615 88458==
41858,2024,09,16,09,00,AAXX 16094 41858 01450 80905 10298 20260 39994 40039 70522 8452/ 333 58047 70024 84615 88458==
41858,2024,09,16,12,00,AAXX 16124 41858 01450 80905 10292 20260 39993 40038 70522 8452/ 333 10300 58037 70022 84615 88458==
41858,2024,09,16,15,00,AAXX 16154 41858 01440 80904 10284 20250 30008 40053 70522 8452/ 333 58027 70022 84615 88458==
41858,2024,09,16,18,00,AAXX 16184 41858 01440 60904 10280 20260 30014 40059 70522 84520 333 58022 70012 84516 86458==
41858,2024,09,16,21,00,AAXX 16214 41858 01430 60904 10276 20260 30015 40060 70522 83520 333 58042 70012 83616 85458==
41858,2024,09,17,00,00,AAXX 17004 41858 01420 50902 10268 20260 30017 40062 71022 83520 333 58039 70012 83616 84458==
41858,2024,09,17,03,00,AAXX 17034 41858 01/50 41205 10320 20260 30039 40084 70522 84040 333 20258 58036 70000 84362==
41858,2024,09,17,06,00,AAXX 17064 41858 01550 51505 10340 20250 30032 40076 70522 82140 333 58022 70000 82825 84362==
41858,2024,09,17,09,00,AAXX 17094 41858 01/50 42105 10350 20240 30003 40047 70522 84030 333 58009 70000 84362==
41858,2024,09,17,12,00,AAXX 17124 41858 01/50 42404 10320 20270 39989 40033 70522 84030 333 10356 59004 70000 84362==
41858,2024,09,17,15,00,AAXX 17154 41858 01/50 32702 10300 20270 30007 40052 70522 83030 333 59001 70000 83362==
41858,2024,09,17,18,00,AAXX 17184 41858 01/40 32702 10294 20260 30022 40067 70522 83030 333 58008 70000 83362==
41858,2024,09,18,00,00,AAXX 18004 41858 01915 00000 10275 20260 30008 40053 71000 333 59009 70000==
41858,2024,09,18,06,00,AAXX 18064 41858 01440 50000 10350 20270 30011 40055 70520 83520 333 59021 70000 83616 84458==
41858,2024,09,18,09,00,AAXX 18094 41858 01550 30000 10360 20240 39985 40029 70520 83100 333 59018 70000 83825==
41858,2024,09,18,12,00,AAXX 18124 41858 01/50 20000 10330 20260 39978 40022 70520 82030 333 10360 59011 70000 82362==
41858,2024,09,18,15,00,AAXX 18154 41858 01/40 20000 10310 20270 39994 40039 70500 82030 333 59013 70000 82362==
41858,2024,09,18,18,00,AAXX 18184 41858 01940 00000 10288 20260 30008 40053 70500 333 59015 70000==
41858,2024,09,18,21,00,AAXX 18214 41858 01930 00000 10284 20260 30004 40049 70500 333 59007 70000==
41858,2024,09,19,00,00,AAXX 19004 41858 01925 00000 10280 20260 30005 40050 71000 333 59003 70000==
41858,2024,09,19,03,00,AAXX 19034 41858 01940 00000 10334 20260 30016 40061 70500 333 20272 59002 70000==
41858,2024,09,19,06,00,AAXX 19064 41858 01950 02704 10356 20270 30002 40046 70500 333 59009 70000==
41858,2024,09,19,09,00,AAXX 19094 41858 01450 42804 10376 20270 39975 40019 70500 82520 333 59010 70000 82618 84458==
41858,2024,09,19,12,00,AAXX 19124 41858 01450 42902 10352 20270 39967 40010 70522 82520 333 10378 59011 70000 82618 84458==
41858,2024,09,19,15,00,AAXX 19154 41858 01/50 20000 10310 20270 39981 40025 70520 82040 333 59013 70000 82362==
41858,2024,09,19,18,00,AAXX 19184 41858 01950 00000 10300 20270 39985 40030 70500 333 59023 70000==
41858,2024,09,19,21,00,AAXX 19214 41858 01920 00000 10290 20270 39988 40033 71000 333 59016 70000==
41859,2024,09,13,00,00,AAXX 13004 41859 02930 00000 10282 20260 39986 40023 333 58007 70000==
41859,2024,09,13,03,00,AAXX 13034 41859 02950 00000 10329 20260 39982 40018 333 20280 59022 70000==
41859,2024,09,13,06,00,AAXX 13064 41859 02450 60902 10350 20270 39975 40012 84620 333 59016 70000 82710 84618 86458==
41859,2024,09,13,09,00,AAXX 13094 41859 02450 60502 10360 20270 39935 49971 84430 333 59028 70000 82618 83828 86362==
41859,2024,09,13,12,00,AAXX 13124 41859 02450 50000 10346 20280 39940 49977 82530 333 10366 59025 70000 82618 85362==
41859,2024,09,13,15,00,AAXX 13154 41859 01330 80902 10290 20260 39969 40005 76196 8672/ 333 70042 83708 84616 88456==
41859,2024,09,13,18,00,AAXX 13184 41859 01330 80000 10268 20265 39968 40005 76196 8672/ 333 59024 70102 83708 85614 88456==
41859,2024,09,13,21,00,AAXX 13214 41859 01430 80000 10270 20260 39960 49997 70262 8562/ 333 59026 70134 82710 84618 88458==
41859,2024,09,14,00,00,AAXX 14004 41859 11430 80502 10271 20260 39952 49989 60036 70262 8562/ 333 59034 70134 82710 84618 88458==
41859,2024,09,14,03,00,AAXX 14034 41859 02450 80502 10289 20260 39981 40018 8562/ 333 20260 59001 70134 82710 84618 88458==
41859,2024,09,14,06,00,AAXX 14064 41859 02450 80502 10311 20250 39977 40017 8562/ 333 58002 70134 82710 84618 88458==
41859,2024,09,14,09,00,AAXX 14094 41859 02450 80502 10322 20250 39944 49980 8562/ 333 58009 70134 82710 84618 88458==
41859,2024,09,14,12,00,AAXX 14124 41859 02440 81302 10307 20260 39956 49992 8562/ 333 10330 58016 70134 83710 84618 88458==
41859,2024,09,14,15,00,AAXX 14154 41859 01430 81302 10285 20250 39979 40015 71796 8692/ 333 58010 70092 83710 84618 88458 81930==
41859,2024,09,14,18,00,AAXX 14184 41859 11430 80502 10280 20250 39975 40011 60006 70296 8562/ 333 58007 70032 83710 84618 88458==
41859,2024,09,14,21,00,AAXX 14214 41859 42430 80502 10275 20250 39971 40007 8562/ 333 58011 83710 84618 88458==
41859,2024,09,15,00,00,AAXX 15004 41859 21430 80501 10272 20240 39964 40001 70262 8562/ 333 58012 60005 83710 84618 88458==
41859,2024,09,15,03,00,AAXX 15034 41859 42450 80502 10301 20250 39981 40017 8562/ 333 20260 58000 83710 84618 88458==
41859,2024,09,15,06,00,AAXX 15064 41859 01350 80502 10301 20230 39981 40017 76162 8572/ 333 58004 70000 83708 84616 88456==
41859,2024,09,15,09,00,AAXX 15094 41859 42440 81302 10307 20240 39956 49993 8562/ 333 58012 83710 84618 88458==
41859,2024,09,15,12,00,AAXX 15124 41859 21340 81302 10280 20240 39967 40003 76162 8672/ 333 10312 58011 69927 70002 84708 85616 88456==
41859,2024,09,15,15,00,AAXX 15154 41859 01330 80502 10272 20240 39990 40027 76166 8672/ 333 58011 70012 84708 85616 88456==
41859,2024,09,15,18,00,AAXX 15184 41859 01330 80502 10276 20250 39991 40028 76166 8672/ 333 58016 70016 84708 85616 88456==
41859,2024,09,15,21,00,AAXX 15214 41859 02430 80502 10276 20240 39982 40019 8562/ 333 58011 70016 83710 84618 88458==
41859,2024,09,16,00,00,AAXX 16004 41859 02430 81302 10280 20240 39985 40022 8562/ 333 58021 70016 83710 84618 88458==
41859,2024,09,16,03,00,AAXX 16034 41859 02450 81302 10289 20240 30016 40053 8562/ 333 20264 58035 70016 83710 84618 88458==
41859,2024,09,16,06,00,AAXX 16064 41859 02450 81302 10302 20240 30019 40055 8562/ 333 58038 70016 83710 84618 88458==
41859,2024,09,16,09,00,AAXX 16094 41859 02450 80000 10310 20250 30000 40036 8562/ 333 58044 70016 83710 84618 88458==
41859,2024,09,16,12,00,AAXX 16124 41859 02450 80000 10295 20270 30000 40036 8562/ 333 10315 58033 70014 83710 84618 88458==
41859,2024,09,16,15,00,AAXX 16154 41859 02430 80000 10282 20260 30018 40055 8562/ 333 58028 70004 83710 84618 88458==
41859,2024,09,16,18,00,AAXX 16184 41859 02430 80000 10273 20250 30020 40057 8561/ 333 58029 70000 82710 84618 88458==
41859,2024,09,16,21,00,AAXX 16214 41859 02430 80000 10268 20260 30019 40056 8561/ 333 58037 70000 82710 84618 88458==
41859,2024,09,17,00,00,AAXX 17004 41859 02440 60000 10266 20260 30025 40062 83530 333 58040 70000 83618 85362==
41859,2024,09,17,03,00,AAXX 17034 41859 02450 60000 10315 20260 30046 40082 83510 333 20263 58030 70000 83618 86458==
41859,2024,09,17,06,00,AAXX 17064 41859 42450 40000 10344 20230 30041 40077 58022 84362==
41859,2024,09,17,09,00,AAXX 17094 41859 02450 42102 10356 20250 30007 40044 82430 333 58007 70000 81618 82828 84362==
41859,2024,09,17,12,00,AAXX 17124 41859 02440 42102 10330 20260 39996 40032 82530 333 10356 59004 70000 82618 84362==
41859,2024,09,17,15,00,AAXX 17154 41859 02/30 32102 10302 20270 30016 40052 83030 333 59002 70000 82362==
41859,2024,09,17,18,00,AAXX 17184 41859 02/30 32102 10290 20280 30018 40055 83030 333 59002 70000 83362==
41859,2024,09,17,21,00,AAXX 17214 41859 02/30 30000 10285 20280 30016 40053 83030 333 59003 70000 83362==
41859,2024,09,18,00,00,AAXX 18004 41859 02/40 30000 10278 20270 30016 40053 83030 333 59009 70000 83362==
41859,2024,09,18,03,00,AAXX 18034 41859 02950 00902 10331 20230 30025 40061 333 20271 59021 70000==
41859,2024,09,18,06,00,AAXX 18064 41859 02/50 30902 10350 20230 30016 40053 83030 333 59025 70000 83362==
41859,2024,09,18,09,00,AAXX 18094 41859 02450 43102 10370 20240 39989 40025 82530 333 59018 70000 82618 84362==
41859,2024,09,18,12,00,AAXX 18124 41859 02450 43101 10341 20260 39983 40020 82530 333 10375 59013 70000 82618 84362==
41859,2024,09,18,15,00,AAXX 18154 41859 02/30 30000 10312 20270 30003 40039 83030 333 59013 70000 83362==
41859,2024,09,18,18,00,AAXX 18184 41859 02/30 30000 10298 20280 30009 40045 83030 333 59009 70000 83362==
41859,2024,09,18,21,00,AAXX 18214 41859 02/30 30000 10288 20280 30008 40045 83030 333 59008 70000 83362==
41859,2024,09,19,00,00,AAXX 19004 41859 02/40 30000 10281 20270 30009 40046 83030 333 59007 70000 83362==
41859,2024,09,19,03,00,AAXX 19034 41859 02950 00902 10337 20250 30023 40060 333 20278 59002 70000==
41859,2024,09,19,06,00,AAXX 19064 41859 02950 00000 10360 20240 30008 40045 333 59008 70000==
41859,2024,09,19,09,00,AAXX 19094 41859 02/50 30000 10370 20240 39978 40014 83030 333 59011 70000 83362==
41859,2024,09,19,12,00,AAXX 19124 41859 02450 60000 10345 20270 39973 40010 82570 333 10375 59010 70000 82618 85458==
41859,2024,09,19,15,00,AAXX 19154 41859 02430 60000 10318 20270 39986 40022 82570 333 59017 70000 82618 85458==
41859,2024,09,19,18,00,AAXX 19184 41859 02/30 30000 10302 20270 30002 40038 83030 333 59007 70000 83362==
41859,2024,09,19,21,00,AAXX 19214 41859 02/30 30000 10292 20270 39994 40031 83030 333 59014 70000 83362==
41863,2024,09,13,00,00,AAXX 13004 41863 02/50 20000 10272 20260 39966 40008 82030 333 59015 70000 82362==
41863,2024,09,13,03,00,AAXX 13034 41863 02957 20502 10339 20270 39979 40020 80002 333 20270 59019 70000 83074==
41863,2024,09,13,06,00,AAXX 13064 41863 02/57 40502 10371 20260 39977 40018 84030 333 59012 70000 84362==
41863,2024,09,13,09,00,AAXX 13094 41863 02/57 43601 10366 20270 39933 49974 84030 333 59029 70000 84362==
41863,2024,09,13,12,00,AAXX 13124 41863 02456 50000 10335 20300 39931 49972 82520 333 10370 59030 70000 82618 85458==
41863,2024,09,13,15,00,AAXX 13154 41863 01350 80000 10285 20270 39954 49996 79522 8692/ 333 59022 70060 83707 85614 88456 81925==
41863,2024,09,13,18,00,AAXX 13184 41863 21350 80901 10266 20250 39962 40004 79596 8692/ 333 59013 60157 70150 83707 85614 88456 81925==
41863,2024,09,13,21,00,AAXX 13214 41863 02440 70000 10264 20240 39955 49997 84520 333 59006 70150 84618 87458==
41863,2024,09,14,00,00,AAXX 14004 41863 02450 63601 10260 20250 39947 49989 83520 333 59019 70150 83618 86458==
41863,2024,09,14,03,00,AAXX 14034 41863 02456 70902 10286 20270 39978 40020 84520 333 20255 59001 70150 84618 87458==
41863,2024,09,14,06,00,AAXX 14064 41863 02456 70902 10305 20260 39971 40013 84520 333 59006 70150 84618 87458==
41863,2024,09,14,09,00,AAXX 14094 41863 02457 40902 10320 20250 39939 49981 83520 333 58006 70150 83618 84458==
41863,2024,09,14,12,00,AAXX 14124 41863 02456 80902 10305 20260 39948 49990 8452/ 333 10327 58017 70150 84618 88458==
41863,2024,09,14,15,00,AAXX 14154 41863 02456 80902 10285 20270 39968 40010 8452/ 333 58014 70090 84618 88458==
41863,2024,09,14,18,00,AAXX 14184 41863 11456 80903 10272 20250 39966 40008 60016 70262 8452/ 333 58004 70010 84618 88458==
41863,2024,09,14,21,00,AAXX 14214 41863 02450 80904 10275 20240 39951 49993 8452/ 333 59004 70010 84618 88458==
41863,2024,09,15,00,00,AAXX 15004 41863 02456 80903 10272 20230 39955 49997 8452/ 333 58008 70010 84618 88458==
41863,2024,09,15,03,00,AAXX 15034 41863 02457 60502 10290 20250 39974 40016 83510 333 20268 59004 70010 83618 86458==
41863,2024,09,15,06,00,AAXX 15064 41863 02356 80905 10295 20250 39970 40012 8562/ 333 59001 70010 82709 85617 88457==
41863,2024,09,15,09,00,AAXX 15094 41863 02456 80905 10301 20190 39947 49989 8552/ 333 58008 70010 85617 88458==
41863,2024,09,15,12,00,AAXX 15124 41863 02456 80901 10281 20250 39954 49996 8552/ 333 10305 58006 70010 85617 88458==
41863,2024,09,15,15,00,AAXX 15154 41863 01340 80904 10269 20250 39980 40023 76166 8572/ 333 58012 70014 83708 84614 88456==
41863,2024,09,15,18,00,AAXX 15184 41863 21440 80905 10260 20240 39977 40020 72166 8552/ 333 58011 60049 70044 84616 88457==
41863,2024,09,15,21,00,AAXX 15214 41863 02450 80905 10270 20230 39968 40010 8552/ 333 58017 70044 85617 88458==
41863,2024,09,16,00,00,AAXX 16004 41863 02450 80905 10275 20230 39977 40019 8552/ 333 58022 70044 85617 88458==
41863,2024,09,16,03,00,AAXX 16034 41863 01450 80903 10272 20250 30004 40047 70262 8552/ 333 20256 58030 70060 85617 88458==
41863,2024,09,16,06,00,AAXX 16064 41863 11356 80904 10290 20250 30010 40052 60026 70262 8562/ 333 58040 70060 82709 85617 88457==
41863,2024,09,16,09,00,AAXX 16094 41863 02356 80502 10295 20260 39994 40036 8562/ 333 58047 70060 82708 85616 88458==
41863,2024,09,16,12,00,AAXX 16124 41863 02356 80501 10289 20270 39995 40037 8552/ 333 10295 58041 70060 82708 85616 88458==
41863,2024,09,16,15,00,AAXX 16154 41863 02450 70501 10276 20260 30012 40054 84510 333 58032 70056 85618 87458==
41863,2024,09,16,18,00,AAXX 16184 41863 02/50 40501 10270 20260 30013 40056 84030 333 58036 70016 84362==
41863,2024,09,16,21,00,AAXX 16214 41863 02450 50501 10267 20260 30016 40059 83520 333 58048 70016 83618 85458==
41863,2024,09,17,00,00,AAXX 17004 41863 02450 50000 10256 20250 30019 40062 83520 333 58042 70016 83618 85458==
41863,2024,09,17,03,00,AAXX 17034 41863 02457 51303 10303 20260 30039 40081 83520 333 20253 58035 70000 83618 85458==
41863,2024,09,17,06,00,AAXX 17064 41863 02457 51803 10342 20260 30036 40078 85400 333 58026 70000 83618 85830==
41863,2024,09,17,09,00,AAXX 17094 41863 02457 41301 10345 20260 30005 40046 84400 333 58011 70000 84620==
41863,2024,09,17,12,00,AAXX 17124 41863 02456 50000 10322 20270 39991 40033 82520 333 10347 59004 70000 82618 85458==
41863,2024,09,17,15,00,AAXX 17154 41863 02950 00000 10285 20280 30012 40054 333 58000 70000==
41863,2024,09,17,18,00,AAXX 17184 41863 01950 00000 10280 20260 30015 40057 70520 333 58002 70000==
41863,2024,09,17,21,00,AAXX 17214 41863 01940 00000 10276 20260 30013 40055 70500 333 59003 70000==
41863,2024,09,18,00,00,AAXX 18004 41863 01950 00000 10265 20260 30011 40054 70500 333 59008 70000==
41863,2024,09,18,03,00,AAXX 18034 41863 02957 00000 10313 20260 30022 40064 333 20260 59017 70000==
41863,2024,09,18,06,00,AAXX 18064 41863 02457 50902 10355 20260 30015 40056 85400 333 59021 70000 83618 85830==
41863,2024,09,18,09,00,AAXX 18094 41863 02457 52702 10363 20250 39986 40027 85400 333 59029 70000 83618 85830==
41863,2024,09,18,12,00,AAXX 18124 41863 02956 00000 10332 20270 39981 40023 333 10363 59010 70000==
41863,2024,09,18,15,00,AAXX 18154 41863 02956 00000 10293 20270 39995 40037 333 59017 70000==
41863,2024,09,18,18,00,AAXX 18184 41863 02956 00000 10285 20280 30004 40046 333 59011 70000==
41863,2024,09,18,21,00,AAXX 18214 41863 02956 00000 10280 20270 39997 40034 333 59016 70000==
41863,2024,09,19,00,00,AAXX 19004 41863 02956 00000 10275 20270 30004 40046 333 59007 70000==
41863,2024,09,19,03,00,AAXX 19034 41863 02957 02303 10325 20280 30019 40061 333 20270 59003 70000==
41863,2024,09,19,06,00,AAXX 19064 41863 02457 22303 10355 20270 30005 40046 82500 333 59010 70000 82620==
41863,2024,09,19,09,00,AAXX 19094 41863 02558 32702 10365 20270 39978 40019 83100 333 59008 70000 83830==
41863,2024,09,19,12,00,AAXX 19124 41863 02/58 30000 10336 20280 39969 40010 83030 333 10370 59012 70000 83362==
41863,2024,09,19,15,00,AAXX 19154 41863 02957 00000 10306 20280 39983 40025 333 59012 70000==
41863,2024,09,19,18,00,AAXX 19184 41863 02957 00000 10295 20280 39997 40039 333 59007 70000==
41863,2024,09,19,21,00,AAXX 19214 41863 02957 00000 10292 20270 39988 40030 333 59009 70000==
41881,2024,09,13,00,00,AAXX 13004 41881 32956 20901 10274 20260 39995 40015 80001 333 56009 59015 70000 82082=
41881,2024,09,13,06,00,AAXX 13064 41881 32458 53502 10340 20280 39982 40002 84410 333 56990 59029 70000 83618 83825 85460=
41881,2024,09,13,12,00,AAXX 13124 41881 31456 80802 10320 20290 39955 49975 71792 8592/ 333 10350 56999 59009 70000 84616 82930 88459=
41881,2024,09,13,18,00,AAXX 13184 41881 31450 80803 10270 20260 39984 40004 71792 8592/ 333 56999 59019 70000 84616 82930 88459=
41881,2024,09,14,00,00,AAXX 14004 41881 32456 80503 10270 20250 39961 49981 8552/ 333 56999 59034 70000 85616 88459=
41881,2024,09,14,06,00,AAXX 14064 41881 11357 80906 10285 20250 39979 49999 69904 75152 8562/ 333 56299 59003 79999 83709 84615 88458=
41881,2024,09,14,12,00,AAXX 14124 41881 32357 80608 10275 20240 39962 49982 8562/ 333 10295 56299 58007 79999 83709 84615 88458=
41881,2024,09,14,18,00,AAXX 14184 41881 32450 80808 10268 20230 39975 49995 8558/ 333 56999 58009 79999 85615 88458=
41881,2024,09,15,00,00,AAXX 15004 41881 11356 80810 10260 20240 39961 49981 60024 76162 8572/ 333 56299 58000 70020 84708 85614 88458=
41881,2024,09,15,06,00,AAXX 15064 41881 32356 80910 10280 20240 39975 49995 8572/ 333 56299 59004 70020 84708 85614 88458=
41881,2024,09,15,12,00,AAXX 15124 41881 32356 80807 10265 20250 39965 49984 8572/ 333 10290 56299 58003 70020 84710 85615 88458=
41881,2024,09,15,18,00,AAXX 15184 41881 11330 80907 10261 20250 39983 40003 60159 76166 8572/ 333 56299 58008 70170 84708 85614 88458=
41881,2024,09,16,00,00,AAXX 16004 41881 11340 80907 10257 20250 39992 40011 60069 76166 8572/ 333 56299 58031 70205 84708 85614 88458=
41881,2024,09,16,06,00,AAXX 16064 41881 11350 80901 10265 20260 30027 40047 60099 70262 8572/ 333 56299 58052 70295 84708 85614 88458=
41881,2024,09,16,12,00,AAXX 16124 41881 32350 80901 10275 20260 30015 40035 8572/ 333 10290 56299 58050 70295 84708 85614 88458=
41881,2024,09,16,18,00,AAXX 16184 41881 32450 60901 10264 20250 30037 40057 83520 333 56290 58054 70145 83615 86458=
41881,2024,09,17,00,00,AAXX 17004 41881 32450 60901 10254 20250 30030 40050 83520 333 56290 58038 70090 83615 86458=
41881,2024,09,17,06,00,AAXX 17064 41881 32457 60501 10317 20250 30049 40069 83520 333 56990 58025 70000 83616 86459=
41881,2024,09,17,12,00,AAXX 17124 41881 32456 30000 10300 20280 30011 40031 83500 333 10335 56900 59004 70000 83616=
41881,2024,09,17,18,00,AAXX 17184 41881 NIL=
41881,2024,09,18,00,00,AAXX 18004 41881 31930 00000 10262 20260 30031 40051 70500 333 58001 70000=
41881,2024,09,18,06,00,AAXX 18064 41881 32456 60000 10340 20260 30034 40054 83520 333 56990 59015 70000 83618 86459=
41881,2024,09,18,09,00,AAXX 18094 41881 32457 33401 10351 20270 30006 40026 83500 333 56900 59018 70000 83618=
41881,2024,09,18,12,00,AAXX 18124 41881 32456 40000 10324 20280 39999 40019 84500 333 10360 56900 59012 70000 84618=
41881,2024,09,18,18,00,AAXX 18184 41881 32950 00000 10285 20280 30024 40044 333 59013 70000=
41881,2024,09,19,00,00,AAXX 19004 41881 31930 00000 10272 20270 30026 40046 70500 333 59005 70000=
41881,2024,09,19,06,00,AAXX 19064 41881 32457 33601 10345 20260 30031 40050 83500 333 56900 59003 70000 83618=
41881,2024,09,19,12,00,AAXX 19124 41881 32456 43601 10320 20280 39991 40011 84500 333 10355 56900 59008 70000 84618=
41881,2024,09,19,18,00,AAXX 19184 41881 32950 03601 10290 20280 30022 40042 333 59002 70000=
41883,2024,09,13,00,00,AAXX 13004 41883 02950 40000 10290 20280 39981 40001 80001 333 59024 70000 84080==
41883,2024,09,13,03,00,AAXX 13034 41883 02956 40000 10333 20260 39993 40013 80001 333 20287 59001 70000 84080==
41883,2024,09,13,06,00,AAXX 13064 41883 02456 60000 10354 20250 39987 40007 84510 333 59015 70000 84616 86459==
41883,2024,09,13,09,00,AAXX 13094 41883 02456 63102 10367 20250 39937 49956 84430 333 59036 70000 82616 83828 86362==
41883,2024,09,13,12,00,AAXX 13124 41883 02456 82302 10298 20260 39956 49976 8552/ 333 10368 59020 70000 85616 88459==
41883,2024,09,13,15,00,AAXX 13154 41883 02430 80000 10304 20260 39977 49997 8452/ 333 59012 70000 84618 88458==
41883,2024,09,13,18,00,AAXX 13184 41883 02430 81302 10300 20260 39975 49995 8452/ 333 59020 70000 84618 88458==
41883,2024,09,13,21,00,AAXX 13214 41883 02430 80000 10276 20260 39963 49983 8562/ 333 59026 70000 82710 84618 88456==
41883,2024,09,14,00,00,AAXX 14004 41883 01450 80000 10266 20250 39959 49979 70262 8562/ 333 59022 70020 82710 84618 88458==
41883,2024,09,14,03,00,AAXX 14034 41883 01350 81304 10274 20240 39987 40007 76166 8572/ 333 20265 59006 70042 85709 88458==
41883,2024,09,14,06,00,AAXX 14064 41883 21350 80906 10290 20240 39984 40004 76166 8572/ 333 59003 60039 70049 85709 88458==
41883,2024,09,14,09,00,AAXX 14094 41883 01450 71304 10296 20240 39957 49977 72166 85520 333 58020 70054 85615 87458==
41883,2024,09,14,12,00,AAXX 14124 41883 21440 70905 10286 20250 39965 49985 70262 85520 333 10300 58009 69958 70054 85615 87458==
41883,2024,09,14,15,00,AAXX 14154 41883 02430 80902 10278 20240 39984 40004 8552/ 333 58007 70054 85615 88458==
41883,2024,09,14,18,00,AAXX 14184 41883 02330 80902 10273 20240 39983 40003 8562/ 333 58008 70054 85709 88458==
41883,2024,09,14,21,00,AAXX 14214 41883 02330 80902 10270 20250 39976 49996 8562/ 333 58013 70054 85709 88458==
41883,2024,09,15,00,00,AAXX 15004 41883 21330 80503 10264 20250 39967 49987 76162 8572/ 333 58008 60047 70070 85709 88458==
41883,2024,09,15,03,00,AAXX 15034 41883 01350 80504 10274 20240 39984 40004 76166 8572/ 333 20254 59003 70068 83709 84615 88456==
41883,2024,09,15,06,00,AAXX 15064 41883 21350 81304 10284 20240 39981 40001 76166 8572/ 333 59003 60039 70071 83709 84615 88456==
41883,2024,09,15,09,00,AAXX 15094 41883 01350 80909 10278 20250 39965 49985 76166 8572/ 333 58008 70068 85709 88458==
41883,2024,09,15,12,00,AAXX 15124 41883 21340 80904 10266 20250 39969 49989 76166 8572/ 333 10290 58000 60019 70078 85709 88458==
41883,2024,09,15,15,00,AAXX 15154 41883 01330 80904 10269 20260 39995 40015 76166 8572/ 333 58011 70128 85709 88458==
41883,2024,09,15,18,00,AAXX 15184 41883 21330 80904 10270 20260 39994 40014 76166 8572/ 333 58011 60159 70224 85709 88458==
41883,2024,09,15,21,00,AAXX 15214 41883 01330 80904 10266 20260 39991 40011 76166 8572/ 333 58015 70134 85709 88458==
41883,2024,09,16,00,00,AAXX 16004 41883 21330 80904 10265 20260 30000 40020 76166 8572/ 333 58033 60039 70218 85709 88458==
41883,2024,09,16,03,00,AAXX 16034 41883 01350 80904 10270 20250 30023 40043 76166 8572/ 333 20257 58039 70252 85709 88458==
41883,2024,09,16,06,00,AAXX 16064 41883 21456 80902 10287 20260 30028 40048 70262 8552/ 333 58047 60058 70244 85616 88459==
41883,2024,09,16,09,00,AAXX 16094 41883 02450 80904 10298 20260 30012 40032 8452/ 333 58047 70242 84618 88458==
41883,2024,09,16,12,00,AAXX 16124 41883 02450 80000 10290 20270 30015 40035 8452/ 333 10300 58046 70232 84618 88458==
41883,2024,09,16,15,00,AAXX 16154 41883 02430 80000 10276 20260 30029 40049 8552/ 333 58034 70182 85616 88458==
41883,2024,09,16,18,00,AAXX 16184 41883 02430 80000 10270 20250 30035 40055 8552/ 333 58041 70086 85616 88458==
41883,2024,09,16,21,00,AAXX 16214 41883 02430 60000 10264 20250 30033 40053 83510 333 58042 70076 83616 86458==
41883,2024,09,17,00,00,AAXX 17004 41883 02/50 40000 10258 20250 30039 40059 84030 333 58039 70052 84362==
41883,2024,09,17,03,00,AAXX 17034 41883 02456 50902 10304 20260 30062 40082 83510 333 20256 58039 70002 83616 85459==
41883,2024,09,17,06,00,AAXX 17064 41883 02456 51303 10332 20250 30053 40073 84810 333 58025 70000 83616 85459==
41883,2024,09,17,09,00,AAXX 17094 41883 02456 31802 10335 20260 30022 40042 83400 333 58010 70000 81616 83828==
41883,2024,09,17,12,00,AAXX 17124 41883 02/50 20000 10322 20270 30012 40032 82030 333 10346 59003 70000 82362==
41883,2024,09,17,15,00,AAXX 17154 41883 02430 80000 10296 20280 30032 40052 8452/ 333 58003 70000 84618 88458==
41883,2024,09,17,18,00,AAXX 17184 41883 02430 60000 10290 20270 30033 40053 82520 333 59002 70000 82618 86458==
41883,2024,09,17,21,00,AAXX 17214 41883 02430 40000 10284 20260 30029 40049 82520 333 59004 70000 83618 84458==
41883,2024,09,18,00,00,AAXX 18004 41883 02440 40000 10276 20270 30031 40051 82520 333 59008 70000 82618 84458==
41883,2024,09,18,03,00,AAXX 18034 41883 02956 00000 10324 20260 30043 40063 333 20272 59019 70000==
41883,2024,09,18,06,00,AAXX 18064 41883 02456 40000 10345 20260 30033 40053 84400 333 59020 70000 83616==
41883,2024,09,18,09,00,AAXX 18094 41883 02456 60000 10351 20270 30013 40033 84510 333 59013 70000 84616 86459==
41883,2024,09,18,12,00,AAXX 18124 41883 02940 40000 10326 20280 30000 40020 80001 333 10355 59012 70000 84080==
41883,2024,09,18,15,00,AAXX 18154 41883 02930 30000 10306 20280 30018 40038 80001 333 59014 70000 83080==
41883,2024,09,18,18,00,AAXX 18184 41883 02930 00000 10296 20280 30024 40044 333 59009 70000==
41883,2024,09,18,21,00,AAXX 18214 41883 02930 00000 10290 20280 30018 40038 333 59011 70000==
41883,2024,09,19,00,00,AAXX 19004 41883 02/50 40000 10285 20280 30025 40045 84030 333 59006 70000 84362==
41883,2024,09,19,03,00,AAXX 19034 41883 02/56 23102 10326 20280 30037 40057 82030 333 20280 59006 70000 82362==
41883,2024,09,19,06,00,AAXX 19064 41883 02456 23102 10356 20270 30026 40045 82500 333 59007 70000 82618==
41883,2024,09,19,09,00,AAXX 19094 41883 02456 20000 10364 20250 39998 40017 82500 333 59015 70000 82616==
41883,2024,09,19,12,00,AAXX 19124 41883 02956 40000 10342 20260 39987 40007 80001 333 10370 59013 70000 84080==
41883,2024,09,19,15,00,AAXX 19154 41883 02430 70000 10314 20280 30010 40030 84520 333 59008 70000 84616 87459==
41883,2024,09,19,18,00,AAXX 19184 41883 02430 70000 10306 20290 30017 40037 85520 333 59007 70000 85616 87459==
41883,2024,09,19,21,00,AAXX 19214 41883 02430 70000 10300 20280 30013 40033 85520 333 59005 70000 85616 87459==
41886,2024,09,13,00,00,AAXX 13004 41886 02456 60000 10292 20260 39983 40003 81570 333 59016 70000 81618 85363==
41886,2024,09,13,03,00,AAXX 13034 41886 02/57 50000 10330 20250 39994 40014 85030 333 20290 59021 70000 85365==
41886,2024,09,13,06,00,AAXX 13064 41886 02457 50904 10350 20240 39983 40003 82430 333 59017 70000 81618 85365==
41886,2024,09,13,09,00,AAXX 13094 41886 02457 70903 10346 20270 39949 49969 83470 333 59027 70000 82618 85460==
41886,2024,09,13,12,00,AAXX 13124 41886 02456 70000 10320 20260 39959 49979 82420 333 10358 59014 70000 81618 87460==
41886,2024,09,13,15,00,AAXX 13154 41886 02450 70000 10310 20250 39978 49998 83570 333 59017 70000 83618 87460==
41886,2024,09,13,18,00,AAXX 13184 41886 02450 60000 10285 20260 39975 49995 82510 333 59013 70000 82618 86460==
41886,2024,09,13,21,00,AAXX 13214 41886 02450 81301 10286 20260 39975 49995 8352/ 333 59011 70000 83618 88460==
41886,2024,09,14,00,00,AAXX 14004 41886 02450 81302 10287 20250 39974 49994 8532/ 333 59009 70000 83616 88458 81930==
41886,2024,09,14,03,00,AAXX 14034 41886 41456 81304 10290 20270 39997 40017 58003 79999 88458==
41886,2024,09,14,06,00,AAXX 14064 41886 01456 81306 10278 20250 39994 40014 76066 8532/ 333 58011 70002 83616 88458 81930==
41886,2024,09,14,09,00,AAXX 14094 41886 02456 81606 10290 20250 39972 49993 8561/ 333 58023 70002 82710 84615 88458==
41886,2024,09,14,12,00,AAXX 14124 41886 02440 81810 10285 20250 39976 49997 8662/ 333 10302 58017 70002 83710 84615 88458==
41886,2024,09,14,15,00,AAXX 14154 41886 02440 81802 10280 20250 39997 40017 8451/ 333 58019 70002 84617 88460==
41886,2024,09,14,18,00,AAXX 14184 41886 02440 81804 10276 20260 39994 40014 8452/ 333 58019 70002 84617 88458==
41886,2024,09,14,21,00,AAXX 14214 41886 02440 81604 10276 20250 39982 40002 8562/ 333 58007 70002 82710 84615 88458==
41886,2024,09,15,00,00,AAXX 15004 41886 02440 81402 10276 20250 39980 40000 8662/ 333 58006 70002 83710 84615 88458==
41886,2024,09,15,03,00,AAXX 15034 41886 01450 81402 10272 20250 30001 40022 76162 8672/ 333 20268 58004 70010 83710 84615 88457==
41886,2024,09,15,06,00,AAXX 15064 41886 21450 81602 10290 20250 30000 40020 70262 8562/ 333 58006 60018 70008 82710 84615 88458==
41886,2024,09,15,09,00,AAXX 15094 41886 01450 80902 10270 20250 39984 40005 76162 8562/ 333 58012 70018 82710 84616 88458==
41886,2024,09,15,12,00,AAXX 15124 41886 21450 80000 10270 20260 39990 40011 76166 8562/ 333 10292 58014 60029 70028 82710 83616 88458==
41886,2024,09,15,15,00,AAXX 15154 41886 01450 80000 10275 20260 30005 40026 70262 8352/ 333 58008 70038 83616 88458==
41886,2024,09,15,18,00,AAXX 15184 41886 02450 80000 10278 20260 30007 40027 8352/ 333 58020 70038 83616 88458==
41886,2024,09,15,21,00,AAXX 15214 41886 02450 80000 10280 20260 30010 40030 8352/ 333 58027 70038 83616 88458==
41886,2024,09,16,00,00,AAXX 16004 41886 02450 80902 10284 20240 30017 40037 8352/ 333 58037 70038 83618 88460==
41886,2024,09,16,03,00,AAXX 16034 41886 02456 80904 10294 20240 30036 40057 8352/ 333 20268 58035 70030 83618 88460==
41886,2024,09,16,06,00,AAXX 16064 41886 02456 80905 10303 20250 30039 40059 8352/ 333 58039 70030 83618 88460==
41886,2024,09,16,09,00,AAXX 16093 41886 02456 80000 10302 20260 30019 40039 8157/ 333 58035 70020 81618 88460==
41886,2024,09,16,12,00,AAXX 16124 41886 02450 80000 10292 20260 30017 40037 8552/ 333 10305 58027 70010 85618 88460==
41886,2024,09,16,15,00,AAXX 16154 41886 02450 50000 10278 20270 30036 40057 81550 333 58031 70000 81618 85365==
41886,2024,09,16,18,00,AAXX 16184 41886 02550 50000 10272 20260 30042 40063 81550 333 58030 70000 81618 85365==
41886,2024,09,16,21,00,AAXX 16214 41886 02/50 50000 10270 20260 30044 40065 85040 333 58034 70000 85365==
41886,2024,09,17,00,00,AAXX 17004 41886 01/40 50000 10264 20250 30054 40075 70522 85040 333 58037 70000 85365==
41886,2024,09,17,03,00,AAXX 17034 41886 02/56 30000 10320 20250 30066 40086 83050 333 20258 58030 70000 83365==
41886,2024,09,17,06,00,AAXX 17064 41886 02457 50000 10332 20250 30056 40076 85500 333 58017 70000 85618==
41886,2024,09,17,09,00,AAXX 17094 41886 02457 50000 10344 20260 30022 40042 85400 333 58003 70000 83618==
41886,2024,09,17,12,00,AAXX 17124 41886 02457 50000 10330 20270 30014 40034 81570 333 10354 59003 70000 81618 84460==
41886,2024,09,17,15,00,AAXX 17154 41886 01/40 50000 10300 20290 30036 40056 70522 85030 333 58000 70000 85365==
41886,2024,09,17,18,00,AAXX 17184 41886 NIL=
41886,2024,09,17,21,00,AAXX 17214 41886 01/40 50000 10286 20280 30030 40051 70522 85030 333 59014 70000 85365==
41886,2024,09,18,00,00,AAXX 18004 41886 01/25 50000 10274 20260 30033 40054 71042 85030 333 59021 70000 85365==
41886,2024,09,18,03,00,AAXX 18034 41886 01957 00000 10320 20260 30043 40063 70140 333 20274 59023 70000==
41886,2024,09,18,06,00,AAXX 18064 41886 02457 40000 10357 20270 30032 40052 84430 333 59024 70000 82618 84362==
41886,2024,09,18,09,00,AAXX 18094 41886 02457 20000 10360 20260 30004 40024 82400 333 59018 70000 81618==
41886,2024,09,18,12,00,AAXX 18124 41886 02/56 10000 10333 20270 39996 40016 81030 333 10367 59018 70000 81365==
41886,2024,09,18,15,00,AAXX 18154 41886 02/50 50000 10308 20280 30017 40037 85030 333 59019 70000 85363==
41886,2024,09,18,18,00,AAXX 18184 41886 02950 00000 10298 20280 30023 40043 333 59014 70000==
41886,2024,09,18,21,00,AAXX 18214 41886 02940 00000 10292 20270 30023 40043 333 59007 70000==
41886,2024,09,19,00,00,AAXX 19004 41886 01940 00000 10285 20280 30024 40044 70500 333 59009 70000==
41886,2024,09,19,03,00,AAXX 19034 41886 02957 00000 10336 20280 30038 40058 333 20282 59005 70000==
41886,2024,09,19,06,00,AAXX 19064 41886 02/57 20000 10336 20270 30024 40044 82030 333 59008 70000 82365==
41886,2024,09,19,09,00,AAXX 19094 41886 02458 32702 10365 20270 39995 40015 83400 333 59009 70000 83618==
41886,2024,09,19,12,00,AAXX 19124 41886 02456 60000 10338 20270 39988 40008 82510 333 10375 59008 70000 82618 85460==
41886,2024,09,19,15,00,AAXX 19154 41886 02/50 20000 10315 20290 30011 40031 82030 333 59006 70000 82365==
41886,2024,09,19,18,00,AAXX 19184 41886 02950 00000 10300 20290 30019 40039 333 59004 70000==
41886,2024,09,19,21,00,AAXX 19214 41886 01950 00000 10293 20280 30017 40037 70500 333 59006 70000==
41888,2024,09,13,00,00,AAXX 13004 41888 32450 30000 10295 20290 39991 40001 82430 333 56990 59011 70000 81618 83365=
41888,2024,09,13,06,00,AAXX 13064 41888 32458 50902 10345 20240 39989 49999 82430 333 56990 59016 70000 81618 84365=
41888,2024,09,13,12,00,AAXX 13124 41888 32456 70901 10320 20230 39966 49976 83510 333 10355 56990 59013 70000 83617 87460=
41888,2024,09,13,18,00,AAXX 13184 41888 11450 71201 10286 20270 39985 49995 69945 70162 82510 333 56990 59012 70004 82618 87460=
41888,2024,09,14,00,00,AAXX 14004 41888 11350 81204 10294 20240 39976 49986 69936 70262 8462/ 333 56399 59015 70007 82710 83617 88458=
41888,2024,09,14,06,00,AAXX 14064 41888 11456 81506 10304 20230 39999 40009 69926 70262 8251/ 333 56999 58010 70009 82618 88460=
41888,2024,09,14,12,00,AAXX 14124 41888 32450 81808 10283 20220 39985 49995 8432/ 333 10314 56399 58019 70009 83617 81930 88459=
41888,2024,09,14,18,00,AAXX 14184 41888 32440 80908 10287 20230 30007 40017 8432/ 333 56999 58022 70005 83617 81930 88459=
41888,2024,09,15,00,00,AAXX 15004 41888 32450 80903 10273 20250 39992 40002 8352/ 333 56999 58016 70002 83616 88459=
41888,2024,09,15,06,00,AAXX 15064 41888 11450 80902 10288 20250 30008 40018 69904 70262 8352/ 333 56999 58009 79999 83617 88459=
41888,2024,09,15,12,00,AAXX 15124 41888 11450 80902 10276 20250 39998 40008 69965 70262 8352/ 333 10292 56999 58013 70006 83616 88458=
41888,2024,09,15,18,00,AAXX 15184 41888 11450 70904 10287 20240 30021 40031 69926 70162 82510 333 56990 58014 70008 82618 87460=
41888,2024,09,16,00,00,AAXX 16004 41888 32456 80902 10284 20230 30023 40033 8252/ 333 56999 58031 70008 82618 88460=
41888,2024,09,16,06,00,AAXX 16064 41888 32456 80902 10305 20260 30045 40055 8252/ 333 56999 58037 70008 82618 88460=
41888,2024,09,16,12,00,AAXX 16124 41888 32456 80000 10297 20260 30022 40032 8251/ 333 10310 56999 58024 70002 82618 88460=
41888,2024,09,16,18,00,AAXX 16184 41888 31440 40000 10270 20260 30047 40057 70522 81530 333 56990 58026 70000 81618 84365=
41888,2024,09,17,00,00,AAXX 17004 41888 31445 40601 10258 20250 30053 40063 70521 81530 333 56990 58030 70000 81618 84365=
41888,2024,09,17,06,00,AAXX 17064 41888 32457 52701 10328 20250 30057 40067 84430 333 56990 58012 70000 82618 83822 85365=
41888,2024,09,17,12,00,AAXX 17124 41888 32956 20000 10325 20270 30020 40030 82030 333 10357 56090 59002 70000 82365=
41888,2024,09,17,18,00,AAXX 17184 41888 31940 02701 10286 20280 30042 40052 70510 333 59005 70000=
41888,2024,09,18,00,00,AAXX 18004 41888 31940 00000 10275 20275 30037 40047 70500 333 59016 70000=
41888,2024,09,18,06,00,AAXX 18064 41888 32458 21201 10350 20270 30035 40045 82400 333 56900 59022 70000 81618=
41888,2024,09,18,09,00,AAXX 18094 41888 32458 32701 10363 20260 30008 40018 83400 333 56900 59020 70000 82618=
41888,2024,09,18,12,00,AAXX 18124 41888 32957 33301 10334 20280 39999 40009 80001 333 10366 56009 59021 70000 83080=
41888,2024,09,18,18,00,AAXX 18184 41888 32950 03401 10294 20270 30028 40038 333 59014 70000=
41888,2024,09,19,00,00,AAXX 19004 41888 31940 20000 10280 20270 30030 40040 70541 80001 333 56009 59007 70000 82080=
41888,2024,09,19,06,00,AAXX 19064 41888 32458 23601 10352 20270 30030 40040 82400 333 56900 59005 70000 81618=
41888,2024,09,19,12,00,AAXX 19124 41888 32557 60000 10327 20290 39992 40002 83430 333 10374 56990 59007 70000 82620 85365=
41888,2024,09,19,18,00,AAXX 19184 41888 32956 00000 10297 20290 30024 40034 333 59004 70000=
41891,2024,09,13,00,00,AAXX 13004 41891 01440 60903 10287 20230 39964 40002 70522 83340 333 59010 70000 83615 85365 81930==
41891,2024,09,13,03,00,AAXX 13034 41891 01450 30901 10342 20240 39969 40006 70511 82530 333 20286 59023 70000 82618==
41891,2024,09,13,06,00,AAXX 13064 41891 01450 71207 10349 20200 39959 49996 70521 84520 333 59015 70000 84618 87459==
41891,2024,09,13,09,00,AAXX 13094 41891 01450 61007 10340 20220 39930 49967 70522 83340 333 59021 70000 83616 85365 81930==
41891,2024,09,13,12,00,AAXX 13124 41891 01440 61008 10320 20230 39935 49972 70522 84330 333 10360 59016 70000 83616 85365 81930==
41891,2024,09,13,15,00,AAXX 13154 41891 01430 81203 10310 20220 39960 49998 70522 8432/ 333 59014 70000 83616 88458 81930==
41891,2024,09,13,18,00,AAXX 13184 41891 01430 81204 10300 20230 39960 49998 70522 8432/ 333 59008 70000 83616 88458 81930==
41891,2024,09,13,21,00,AAXX 13214 41891 01430 81204 10295 20240 39955 49993 70522 8532/ 333 59001 70000 84616 88458 81930==
41891,2024,09,14,00,00,AAXX 14004 41891 01430 80905 10290 20230 39955 49993 70522 8532/ 333 59009 70000 82710 83616 88458 81930==
41891,2024,09,14,03,00,AAXX 14034 41891 01430 81002 10307 20230 39980 40018 70522 8631/ 333 20286 58011 70000 85615 88458 81930==
41891,2024,09,14,06,00,AAXX 14064 41891 01340 80000 10310 20220 39976 40014 70522 8662/ 333 58017 70000 82708 84615 88458 81930==
41891,2024,09,14,09,00,AAXX 14094 41891 01450 80000 10331 20230 39949 49986 70522 8352/ 333 58019 70000 83618 88458==
41891,2024,09,14,12,00,AAXX 14124 41891 01440 80000 10305 20260 39961 49998 70522 8432/ 333 10336 58026 70000 83616 88458 81930==
41891,2024,09,14,15,00,AAXX 14154 41891 01440 80000 10285 20260 39984 40022 70522 8432/ 333 58024 70000 83618 88458 81930==
41891,2024,09,14,18,00,AAXX 14184 41891 01430 80000 10280 20230 39982 40020 70522 8432/ 333 58022 70000 83616 88458 81930==
41891,2024,09,14,21,00,AAXX 14214 41891 01430 80000 10276 20230 39978 40016 70522 8532/ 333 58023 70000 83616 88458 81930==
41891,2024,09,15,00,00,AAXX 15004 41891 01430 80000 10275 20240 39970 40008 70522 8632/ 333 58015 70000 82710 83616 88458 81930==
41891,2024,09,15,03,00,AAXX 15034 41891 01430 80905 10283 20230 39989 40027 70522 8532/ 333 20230 58009 70000 82710 84615 88458 81930==
41891,2024,09,15,06,00,AAXX 15064 41891 01445 80902 10290 20250 39990 40028 70522 8532/ 333 58014 70000 82710 84615 88458 81930==
41891,2024,09,15,09,00,AAXX 15094 41891 01340 80702 10284 20240 39971 40009 70562 8562/ 333 58022 70002 82708 84615 88458 81930==
41891,2024,09,15,12,00,AAXX 15124 41891 11330 80000 10285 20240 39978 40016 69926 70562 8562/ 333 10290 58017 70002 82708 84615 88458 81930==
41891,2024,09,15,15,00,AAXX 15154 41891 01430 80000 10277 20250 39997 40035 70522 8432/ 333 58013 70002 83616 88456 81930==
41891,2024,09,15,18,00,AAXX 15184 41891 01330 80000 10274 20250 30001 40039 70522 8562/ 333 58019 70002 82710 84616 88546 81930==
41891,2024,09,15,21,00,AAXX 15214 41891 01430 80000 10272 20250 30002 40040 70522 8432/ 333 58024 70002 83618 88458 81930==
41891,2024,09,16,00,00,AAXX 16004 41891 01330 80000 10270 20250 30004 40042 70522 8562/ 333 58034 70002 82710 84616 88458 81930==
41891,2024,09,16,03,00,AAXX 16034 41891 01440 81603 10300 20240 30022 40060 70522 8532/ 333 20270 58033 70002 81710 83616 88458 81930==
41891,2024,09,16,06,00,AAXX 16064 41891 01450 61203 10300 20250 30016 40054 70522 84310 333 58040 70002 83616 86458 81930==
41891,2024,09,16,09,00,AAXX 16094 41891 01450 63903 10350 20230 39994 40031 70522 83340 333 58023 70000 83615 85365 81930==
41891,2024,09,16,12,00,AAXX 16124 41891 01440 72903 10310 20240 39993 40031 70522 84370 333 10358 58015 70000 84615 86460 81930==
41891,2024,09,16,15,00,AAXX 16154 41891 01440 40000 10290 20250 30016 40054 70522 81510 333 58019 70000 81616 84458==
41891,2024,09,16,18,00,AAXX 16184 41891 01440 10000 10280 20260 30020 40058 70521 81500 333 58019 70000 81616==
41891,2024,09,16,21,00,AAXX 16214 41891 01940 20000 10272 20260 30019 40057 70500 81501 333 58017 70000 81616==
41891,2024,09,17,00,00,AAXX 17004 41891 01440 30000 10265 20260 30024 40062 70500 81501 333 58020 70000 81616 83074==
41891,2024,09,17,03,00,AAXX 17034 41891 01450 60000 10328 20260 30044 40082 70522 83340 333 20268 58022 70000 82616 85365 81930==
41891,2024,09,17,06,00,AAXX 17064 41891 01450 63404 10345 20250 30026 40063 70522 83340 333 58010 70000 83616 85365 81930==
41891,2024,09,17,09,00,AAXX 17094 41891 01450 53303 10352 20250 30000 40038 70522 83310 333 58006 70000 83616 85458 81930==
41891,2024,09,17,12,00,AAXX 17124 41891 01450 42703 10320 20240 39989 40027 70522 83530 333 10358 59004 70000 82616 84365==
41891,2024,09,17,15,00,AAXX 17154 41891 01430 63203 10298 20270 30010 40048 70522 83340 333 59006 70000 83615 85365 81930==
41891,2024,09,17,18,00,AAXX 17184 41891 01430 63203 10287 20270 30015 40053 70522 83340 333 59005 70000 83615 85365 81930==
41891,2024,09,17,21,00,AAXX 17214 41891 01430 62903 10284 20260 30010 40048 70522 83340 333 59009 70000 83615 85365 81930==
41891,2024,09,18,00,00,AAXX 18004 41891 01430 82703 10278 20270 30012 40050 70522 8532/ 333 59012 70000 82710 84615 88458 81930==
41891,2024,09,18,03,00,AAXX 18034 41891 01440 30000 10323 20260 30021 40058 70521 83500 333 20275 59023 70000 83618==
41891,2024,09,18,06,00,AAXX 18064 41891 01450 40000 10348 20260 30006 40043 70521 84400 333 59020 70000 84618==
41891,2024,09,18,09,00,AAXX 18094 41891 01450 52705 10362 20250 39975 40012 70522 83340 333 59025 70000 82616 85365 81930==
41891,2024,09,18,12,00,AAXX 18124 41891 01450 60000 10330 20270 39970 40007 70522 83340 333 10370 59019 70000 83616 85365 81930==
41891,2024,09,18,15,00,AAXX 18154 41891 01430 32703 10315 20270 39990 40028 70521 82530 333 59020 70000 82616 83365==
41891,2024,09,18,18,00,AAXX 18184 41891 01430 43003 10300 20260 30002 40040 70521 82510 333 59013 70000 82616 84365==
41891,2024,09,18,21,00,AAXX 18214 41891 01430 43003 10290 20280 39994 40032 70522 82530 333 59016 70000 82616 84365==
41891,2024,09,19,00,00,AAXX 19004 41891 01430 40402 10287 20280 30000 40038 70522 82530 333 59012 70000 82616 84365==
41891,2024,09,19,03,00,AAXX 19034 41891 01440 40000 10336 20280 30014 40051 70522 82530 333 20285 59007 70000 82616 83362==
41891,2024,09,19,06,00,AAXX 19064 41891 01450 20902 10365 20260 39996 40033 70520 82500 333 59010 70000 82616==
41891,2024,09,19,09,00,AAXX 19094 41891 01450 73102 10354 20260 39970 40007 70521 84320 333 59005 70000 83618 87458 81930==
41891,2024,09,19,12,00,AAXX 19124 41891 21440 30000 10310 20260 39962 49999 70562 83400 333 10383 59008 60055 70050 82618==
41891,2024,09,19,15,00,AAXX 19154 41891 01440 50000 10305 20290 39987 40025 70562 82530 333 59003 70050 82616 85365==
41891,2024,09,19,18,00,AAXX 19184 41891 01430 80000 10294 20270 39998 40036 70522 8532/ 333 59004 70050 82710 84615 88458 81930==
41891,2024,09,19,21,00,AAXX 19214 41891 01430 80000 10290 20280 39996 40034 70522 8532/ 333 58002 70050 82710 84615 88458 81930==
41895,2024,09,13,00,00,AAXX 13004 41895 02450 50000 10280 20270 39985 40007 83401 333 58008 70000 82616 83074==
41895,2024,09,13,03,00,AAXX 13034 41895 02457 53102 10320 20280 39996 40018 82501 333 20278 59020 70000 82616 84074==
41895,2024,09,13,06,00,AAXX 13064 41895 01450 80000 10310 20290 39983 40005 79562 8532/ 333 59022 70086 84615 88458 81930==
41895,2024,09,13,09,00,AAXX 13094 41895 01450 82703 10274 20260 39956 49979 70296 8532/ 333 59019 70614 84615 88458 81930==
41895,2024,09,13,12,00,AAXX 13124 41895 01450 80503 10270 20260 39963 49985 79596 8532/ 333 10330 59016 70722 84615 88458 81930==
41895,2024,09,13,15,00,AAXX 13154 41895 01450 83103 10265 20265 39970 49992 79596 8532/ 333 59026 70728 84615 88458 81928==
41895,2024,09,13,18,00,AAXX 13184 41895 21450 83102 10262 20260 39974 49996 70296 8452/ 333 59017 60015 70728 84615 88458==
41895,2024,09,13,21,00,AAXX 13214 41895 01450 80505 10262 20260 39951 49973 76162 8452/ 333 59037 70740 84615 88458==
41895,2024,09,14,00,00,AAXX 14004 41895 21450 80505 10262 20240 39950 49972 72162 8452/ 333 59035 60037 70754 84615 88458==
41895,2024,09,14,03,00,AAXX 14034 41895 01350 80506 10270 20250 39974 49996 70262 8672/ 333 20250 59022 70768 82710 84615 88458==
41895,2024,09,14,06,00,AAXX 14064 41895 11350 80508 10283 20250 39965 49987 60016 70262 8632/ 333 59018 70682 82710 84615 88458 81930==
41895,2024,09,14,09,00,AAXX 14094 41895 02456 80908 10286 20260 39940 49962 8532/ 333 59016 70154 84615 88458 81930==
41895,2024,09,14,12,00,AAXX 14124 41895 01450 80508 10262 20250 39949 49971 76162 8452/ 333 10293 59014 70008 84615 88458==
41895,2024,09,14,15,00,AAXX 14154 41895 01350 80508 10258 20250 39966 49988 76166 8672/ 333 59004 70068 82710 84615 88458==
41895,2024,09,14,18,00,AAXX 14184 41895 01350 80508 10260 20240 39960 49982 70266 8672/ 333 59014 70030 82710 84615 88458==
41895,2024,09,14,21,00,AAXX 14214 41895 01350 80508 10258 20250 39953 49975 76162 8672/ 333 58002 70103 82710 84615 88458==
41895,2024,09,15,00,00,AAXX 15004 41895 21356 80909 10256 20250 39944 49966 76166 8672/ 333 59006 60089 70128 82710 84615 88458==
41895,2024,09,15,03,00,AAXX 15034 41895 01350 80910 10259 20250 39960 49982 76166 8672/ 333 20250 59014 70142 83709 84614 88458==
41895,2024,09,15,06,00,AAXX 15064 41895 21350 83608 10270 20250 39950 49972 76166 8672/ 333 59015 60039 70148 83709 84614 88458==
41895,2024,09,15,09,00,AAXX 15094 41895 01350 80904 10260 20250 39939 49961 76166 8672/ 333 59001 70232 83709 84614 88458==
41895,2024,09,15,12,00,AAXX 15124 41895 21350 80909 10255 20255 39947 49969 76166 8672/ 333 10275 59016 60259 70341 83709 84614 88458==
41895,2024,09,15,15,00,AAXX 15154 41895 01350 80805 10257 20250 39966 49988 76166 8672/ 333 58000 70390 83709 84614 88458==
41895,2024,09,15,18,00,AAXX 15184 41895 21350 80907 10260 20250 39966 49989 76166 8672/ 333 58006 60079 70436 83709 84614 88458==
41895,2024,09,15,21,00,AAXX 15214 41895 01350 80908 10253 20250 39961 49983 76166 8672/ 333 58008 70440 82710 84615 88458==
41895,2024,09,16,00,00,AAXX 16004 41895 21350 80905 10255 20250 39984 40006 76166 8672/ 333 58040 60089 70433 83709 84614 88458==
41895,2024,09,16,03,00,AAXX 16034 41895 01350 80703 10258 20258 30006 40028 76166 8672/ 333 20250 58046 70411 83709 84614 88458==
41895,2024,09,16,06,00,AAXX 16064 41895 21356 80903 10270 20260 30014 40036 76166 8563/ 333 58064 60049 70439 82710 84614 88458==
41895,2024,09,16,09,00,AAXX 16093 41895 01357 70902 10277 20260 30004 40026 76166 84617 333 58065 70363 82710 83615 86458==
41895,2024,09,16,12,00,AAXX 16124 41895 21350 80902 10254 20250 30006 40028 76166 8662/ 333 10283 58059 60077 70257 83708 84614 88458==
41895,2024,09,16,18,00,AAXX 16184 41895 11450 60501 10265 20265 30028 40050 69936 70162 83520 333 58062 70186 83616 86358==
41895,2024,09,17,00,00,AAXX 17004 41895 02450 60000 10260 20260 30033 40055 83520 333 58049 70111 83616 86458==
41895,2024,09,17,03,00,AAXX 17034 41895 02456 61302 10291 20270 30059 40081 83510 333 20250 58058 70105 83616 86458==
41895,2024,09,17,06,00,AAXX 17064 41895 02456 61303 10326 20260 30051 40073 84410 333 58037 70071 83616 86458==
41895,2024,09,17,09,00,AAXX 17094 41895 02457 50000 10340 20260 30021 40043 83401 333 58017 70063 82616 83074==
41895,2024,09,17,12,00,AAXX 17124 41895 02456 40000 10302 20270 30012 40034 84500 333 10343 58006 70003 84616==
41895,2024,09,17,18,00,AAXX 17184 41895 02450 30000 10268 20260 30033 40055 83500 333 58005 70000 83617==
41895,2024,09,17,21,00,AAXX 17214 41895 02450 60000 10266 20266 30034 40056 84520 333 58011 70000 84616 86458==
41895,2024,09,18,00,00,AAXX 18004 41895 01450 60000 10265 20265 30034 40056 70522 84520 333 58001 70000 84616 86458==
41895,2024,09,18,03,00,AAXX 18034 41895 01456 20502 10304 20260 30043 40065 70521 82500 333 20260 59016 70000 82616==
41895,2024,09,18,06,00,AAXX 18064 41895 02457 41802 10338 20270 30034 40056 84400 333 59017 70000 82616 83820==
41895,2024,09,18,09,00,AAXX 18094 41895 02457 50000 10340 20270 30008 40029 84410 333 59013 70000 83616 85458==
41895,2024,09,18,12,00,AAXX 18124 41895 02450 80000 10310 20290 30002 40023 8452/ 333 10358 59010 70000 84616 88458==
41895,2024,09,18,15,00,AAXX 18154 41895 02550 22302 10290 20280 30021 40043 82100 333 59009 70000 82825==
41895,2024,09,18,18,00,AAXX 18184 41895 02950 00000 10285 20280 30027 40049 333 59006 70000==
41895,2024,09,18,21,00,AAXX 18214 41895 02450 21301 10280 20270 30020 40042 83400 333 59014 70000 82616==
41895,2024,09,19,00,00,AAXX 19004 41895 01550 30000 10270 20270 30028 40056 70511 82101 333 59006 70000 82825 83074==
41895,2024,09,19,03,00,AAXX 19034 41895 01950 30302 10316 20270 30036 40058 70511 80001 333 20265 59007 70000 83074==
41895,2024,09,19,06,00,AAXX 19064 41895 02457 52702 10390 20270 30033 40054 85400 333 59001 70000 82615 83820==
41895,2024,09,19,09,00,AAXX 19094 41895 02558 23302 10360 20270 30000 40024 82100 333 59008 70000 82825==
41895,2024,09,19,12,00,AAXX 19124 41895 02556 20000 10330 20280 39989 40011 82100 333 10366 59013 70000 82820==
41895,2024,09,19,15,00,AAXX 19154 41895 02950 00000 10301 20290 30011 40033 333 59010 70000==
41895,2024,09,19,18,00,AAXX 19184 41895 02950 00000 10283 20270 30017 40039 333 59010 70000==
41895,2024,09,19,21,00,AAXX 19214 41895 02950 00000 10280 20270 30014 40036 333 59006 70000==
41897,2024,09,13,00,00,AAXX 13004 41897 32940 43601 10285 20280 39989 40002 84030 333 56090 59016 70000 84362=
41897,2024,09,13,06,00,AAXX 13064 41897 32556 20601 10345 20260 39985 49998 82200 333 56900 59025 70000 82828=
41897,2024,09,13,12,00,AAXX 13124 41897 32450 50602 10280 20250 39958 49971 82510 333 10355 56990 59024 70000 82617 85458=
41897,2024,09,13,18,00,AAXX 13184 41897 NIL=
41897,2024,09,14,00,00,AAXX 14004 41897 11440 80608 10265 20240 39959 49972 60024 76166 8372/ 333 56999 59030 70020 83707 88457=
41897,2024,09,14,06,00,AAXX 14064 41897 11340 80910 10270 20250 39986 49990 60039 76166 8372/ 333 56999 59009 70050 82616 88457=
41897,2024,09,14,12,00,AAXX 14124 41897 11440 60908 10265 20240 39960 49973 60079 70266 82510 333 10290 56990 58002 70070 82617 86458=
41897,2024,09,14,18,00,AAXX 14184 41897 11440 80914 10265 20240 39978 49991 60029 70162 82510 333 56990 59002 70090 82617 86458=
41897,2024,09,15,00,00,AAXX 15004 41897 11440 80915 10255 20240 39963 49976 60059 76166 8372/ 333 56999 58004 70120 83707 88457=
41897,2024,09,15,06,00,AAXX 15064 41897 11440 80912 10265 20240 39980 49993 60109 76166 8372/ 333 56999 58004 70190 83707 88457=
41897,2024,09,15,12,00,AAXX 15124 41897 11440 80914 10260 20240 39971 49984 60139 76166 8372/ 333 10270 56999 58011 70300 83707 88456=
41897,2024,09,16,00,00,AAXX 16004 41897 11440 80908 10252 20240 30000 40013 60239 76166 8372/ 333 56999 58037 70720 83707 88456=
41897,2024,09,16,06,00,AAXX 16064 41897 11450 80905 10275 20260 30030 40043 60078 70262 8352/ 333 56999 58050 70690 83616 88457=
41897,2024,09,16,12,00,AAXX 16124 41897 11450 82202 10278 20260 30017 40030 60026 70262 84610 333 10280 56990 58046 70580 81708 83618 88456=
41897,2024,09,16,18,00,AAXX 16184 41897 32450 60000 10270 20260 30042 40055 84310 333 56990 58040 70320 83620 84460=
41897,2024,09,17,00,00,AAXX 17004 41897 31440 60000 10265 20260 30042 40055 70522 84610 333 56990 58042 70090 82620 84460=
41897,2024,09,17,06,00,AAXX 17064 41897 32450 70000 10315 20270 30057 40070 84310 333 56990 58027 70020 82620 86460=
41897,2024,09,17,12,00,AAXX 17124 41897 31450 50000 10315 20260 30020 40033 84310 333 10340 56990 58003 70000 82620 84460=
41897,2024,09,17,18,00,AAXX 17184 41897 31950 00000 10290 20270 30042 40055 70500 333 58002 70000=
41897,2024,09,18,00,00,AAXX 18004 41897 31450 50000 10280 20270 30040 40053 70522 84310 333 56990 59002 70000 82620 84460=
41897,2024,09,18,06,00,AAXX 18064 41897 32456 51402 10340 20260 30038 40051 84610 333 56990 59019 70000 82620 84460=
41897,2024,09,18,09,00,AAXX 18094 41897 32456 51402 10350 20260 30014 40027 84610 333 56990 59015 70000 82620 84460=
41897,2024,09,18,12,00,AAXX 18124 41897 31450 50000 10320 20260 30014 40027 70522 84610 333 10355 56990 59015 70000 82620 84460=
41897,2024,09,18,18,00,AAXX 18184 41897 31450 50000 10295 20260 30027 40040 70522 84310 333 56990 59009 70000 82620 84460=
41897,2024,09,19,00,00,AAXX 19004 41897 31450 50000 10280 20270 30032 40045 70522 84310 333 56990 58002 70000 82620 84460=
41897,2024,09,19,06,00,AAXX 19064 41897 32456 50000 10345 20260 30032 40045 84430 333 56990 59008 70000 82620 83360=
41897,2024,09,19,12,00,AAXX 19124 41897 31450 50000 10330 20270 39995 40008 84430 333 10355 56990 59005 70000 82620 83360=
41897,2024,09,19,18,00,AAXX 19184 41897 31450 50000 10300 20280 30025 40038 84430 333 56990 59008 70000 82620 83360=
41902,2024,09,13,00,00,AAXX 13004 41902 32440 40000 10289 20250 39987 49995 82530 333 56990 59023 70000 82614 83362=
41902,2024,09,13,06,00,AAXX 13064 41902 32456 60902 10349 20260 39981 49990 82530 333 56990 59022 70000 82614 83362=
41902,2024,09,13,12,00,AAXX 13124 41902 32450 50902 10302 20250 39962 49970 82430 333 10355 56290 59011 70000 82614 84362=
41902,2024,09,13,18,00,AAXX 13184 41902 NIL=
41902,2024,09,14,00,00,AAXX 14004 41902 11340 80907 10278 20240 39983 49992 60014 72162 8562/ 333 56299 59004 70010 82710 83613 88458=
41902,2024,09,14,06,00,AAXX 14064 41902 11340 80905 10275 20250 39993 40002 76162 8562/ 333 56299 58012 70020 82710 83613 88458=
41902,2024,09,14,12,00,AAXX 14124 41902 11340 80905 10273 20230 39981 49990 60016 70262 8562/ 333 10283 56299 58019 70030 82710 83613 88458=
41902,2024,09,14,18,00,AAXX 14184 41902 NIL=
41902,2024,09,15,00,00,AAXX 15004 41902 32340 80906 10275 20240 39985 49993 8462/ 333 56299 58002 70020 82710 83614 88459=
41902,2024,09,15,06,00,AAXX 15064 41902 11340 80904 10288 20250 39998 40007 69955 70262 8462/ 333 56299 58005 70015 82710 83614 88459=
41902,2024,09,15,12,00,AAXX 15124 41902 11330 80903 10280 20260 39990 49998 60018 70262 8462/ 10295 56299 58009 70015 82710 83614 88459=
41902,2024,09,15,18,00,AAXX 15184 41902 32330 80904 10277 20250 30010 40018 8462/ 333 56299 58019 70015 82710 83614 88459=
41902,2024,09,16,00,00,AAXX 16004 41902 32440 60903 10276 20240 30008 40016 82530 333 56290 58023 70015 83614 85362=
41902,2024,09,16,06,00,AAXX 16064 41902 32450 60902 10322 20260 30036 40045 82530 333 56290 58038 70010 82614 85362=
41902,2024,09,16,12,00,AAXX 16124 41902 32440 60000 10297 20270 30020 40028 82530 333 10335 56990 58030 70000 82616 86362=
41902,2024,09,16,18,00,AAXX 16184 41902 32440 51801 10282 20260 30041 40049 82530 333 56990 58031 70000 82616 85362=
41902,2024,09,17,00,00,AAXX 17004 41902 32440 50000 10270 20260 30045 40053 82530 333 56990 58037 70000 82616 85362=
41902,2024,09,17,06,00,AAXX 17064 41902 32450 50901 10335 20270 30053 40061 82530 333 56990 58017 70000 82616 85362=
41902,2024,09,17,12,00,AAXX 17124 41902 32440 61801 10310 20270 30018 40027 82570 333 10354 56990 59002 70000 82615 86460=
41902,2024,09,17,18,00,AAXX 17184 41902 32440 52701 10285 20270 30038 40047 82530 333 56990 59003 70000 82616 85362=
41902,2024,09,18,00,00,AAXX 18004 41902 32440 22701 10275 20260 30031 40039 82500 333 56900 59014 70000 82616=
41902,2024,09,18,06,00,AAXX 18064 41902 32450 22701 10342 20240 30035 40044 82400 333 56900 59018 70000 82616=
41902,2024,09,18,09,00,AAXX 18094 41902 32450 53601 10350 20270 30006 40014 82570 333 56990 59020 70000 82616 85362=
41902,2024,09,18,12,00,AAXX 18124 41902 32440 52701 10330 20280 30039 40047 82570 333 10362 56990 58021 70000 82616 85362=
41902,2024,09,18,18,00,AAXX 18184 41902 32440 60000 10300 20280 30018 40027 82530 333 56990 59020 70000 82616 86362=
41902,2024,09,19,00,00,AAXX 19004 41902 32440 62701 10286 20280 30023 40032 81530 333 56990 59008 70000 81616 86362=
41902,2024,09,19,06,00,AAXX 19064 41902 32450 22701 10352 20270 30024 40032 82400 333 56900 59011 70000 82616=
41902,2024,09,19,12,00,AAXX 19124 41902 32450 53101 10347 20270 39991 49999 82430 333 10374 56990 59048 70000 82616 85362=
41902,2024,09,19,18,00,AAXX 19184 41902 32940 40901 10310 20280 30016 40024 84030 333 56090 59002 70000 84362=
41907,2024,09,13,00,00,AAXX 13004 41907 02440 60000 10285 20280 39984 49999 83530 333 59017 70000 83615 85362==
41907,2024,09,13,03,00,AAXX 13034 41907 02450 60000 10317 20280 39997 40012 83510 333 20280 59018 70000 83615 86458==
41907,2024,09,13,06,00,AAXX 13064 41907 02456 61302 10345 20270 39983 49997 83530 333 59024 70000 83615 85362==
41907,2024,09,13,09,00,AAXX 13094 41907 02450 80000 10320 20270 39954 49968 8582/ 333 59022 70000 83615 83825 88458==
41907,2024,09,13,12,00,AAXX 13124 41907 01350 80000 10268 20260 39958 49973 72996 8662/ 333 10350 59021 70170 83709 84615 88458==
41907,2024,09,13,15,00,AAXX 13154 41907 02340 83102 10268 20260 39980 49994 8662/ 333 59017 70170 82709 85615 88458==
41907,2024,09,13,18,00,AAXX 13184 41907 02340 81304 10267 20260 39974 49989 8662/ 333 59019 70170 82709 85615 88458==
41907,2024,09,13,21,00,AAXX 13214 41907 01330 81306 10260 20250 39958 49973 70262 8672/ 333 59029 70410 85709 88458==
41907,2024,09,14,00,00,AAXX 14004 41907 11330 81306 10262 20250 39945 49959 60246 70262 8672/ 333 59039 70410 85709 88458==
41907,2024,09,14,03,00,AAXX 14034 41907 01350 81305 10265 20250 39971 49985 70262 8662/ 333 20256 59026 70475 85709 88458==
41907,2024,09,14,06,00,AAXX 14064 41907 01340 81305 10267 20250 39966 49980 76162 8672/ 333 59017 70495 85615 88458==
41907,2024,09,14,09,00,AAXX 14094 41907 01340 81304 10280 20250 39939 49954 70262 8672/ 333 59015 70505 85709 88458==
41907,2024,09,14,12,00,AAXX 14124 41907 01335 81306 10260 20250 39944 49958 76162 8672/ 333 10285 59014 70350 85709 88458==
41907,2024,09,14,15,00,AAXX 14154 41907 01330 81312 10260 20240 39962 49977 76166 8672/ 333 59018 70372 85709 88458==
41907,2024,09,14,18,00,AAXX 14184 41907 21330 81305 10260 20240 39959 49974 76166 8672/ 333 59015 60049 70392 85708 88457==
41907,2024,09,14,21,00,AAXX 14214 41907 01330 81305 10255 20250 39952 49967 76166 8672/ 333 59008 70452 85708 88457==
41907,2024,09,15,00,00,AAXX 15004 41907 21330 81305 10255 20250 39943 49958 76166 8672/ 333 59002 60529 70675 85708 88458==
41907,2024,09,15,03,00,AAXX 15034 41907 01330 81306 10260 20240 39962 49977 76166 8672/ 333 20252 59009 70720 85708 88458==
41907,2024,09,15,06,00,AAXX 15064 41907 21340 81308 10270 20250 39959 49973 76166 8672/ 333 59007 60149 70730 85708 88458==
41907,2024,09,15,09,00,AAXX 15094 41907 01340 80907 10260 20250 39943 49957 76166 8672/ 333 58004 70855 85709 88457==
41907,2024,09,15,12,00,AAXX 15124 41907 21330 81306 10256 20250 39952 49967 76366 8672/ 333 10270 58008 60289 70985 85708 88457==
41907,2024,09,15,15,00,AAXX 15154 41907 01330 81304 10260 20240 39970 49985 76166 8672/ 333 58008 70983 85709 88458==
41907,2024,09,15,18,00,AAXX 15184 41907 21330 80906 10260 20250 39977 49991 76166 8672/ 333 58018 60129 71058 85709 88458==
41907,2024,09,15,21,00,AAXX 15214 41907 01330 80905 10255 20250 39977 49992 76166 8672/ 333 58025 70808 85709 88458==
41907,2024,09,16,00,00,AAXX 16004 41907 21330 81305 10255 20250 39985 49999 76166 8672/ 333 58042 60129 70650 85709 88458==
41907,2024,09,16,03,00,AAXX 16034 41907 01330 81303 10252 20250 30015 40029 76166 8672/ 333 20250 58053 70730 85615 88458==
41907,2024,09,16,06,00,AAXX 16064 41907 21340 81303 10267 20260 30021 40036 76196 8672/ 333 58062 60369 70874 85709 88458==
41907,2024,09,16,09,00,AAXX 16094 41907 01350 80000 10270 20250 30008 40022 70262 8672/ 333 58065 70749 85709 88458==
41907,2024,09,16,12,00,AAXX 16124 41907 01350 80000 10262 20250 30009 40023 72162 8672/ 333 10272 58057 70726 85709 88458==
41907,2024,09,16,15,00,AAXX 16154 41907 02440 50000 10260 20250 30027 40041 82510 333 58057 70706 82615 84458==
41907,2024,09,16,18,00,AAXX 16184 41907 02440 50000 10258 20250 30033 40048 82510 333 58056 70611 82615 84458==
41907,2024,09,16,21,00,AAXX 16214 41907 02440 50000 10258 20250 30030 40044 82510 333 58053 70561 82615 85458==
41907,2024,09,17,00,00,AAXX 17004 41907 01940 50000 10260 20250 30037 40051 70522 80002 333 58052 70496 85080==
41907,2024,09,17,03,00,AAXX 17034 41907 02450 51302 10290 20270 30062 40077 83530 333 20255 58047 70306 83615 85362==
41907,2024,09,17,06,00,AAXX 17064 41907 02456 61302 10320 20250 30055 40069 86800 333 58043 70132 83615 83825==
41907,2024,09,17,09,00,AAXX 17094 41907 02456 30000 10330 20250 30023 40038 83800 333 58015 70122 81615 83825==
41907,2024,09,17,12,00,AAXX 17124 41907 02950 00000 10306 20270 30015 40030 333 10340 58006 70000==
41907,2024,09,17,15,00,AAXX 17154 41907 02/40 50000 10275 20260 30034 40049 85030 333 58007 70000 85362==
41907,2024,09,17,18,00,AAXX 17184 41907 02940 00000 10270 20260 30036 40051 333 58003 70000==
41907,2024,09,17,21,00,AAXX 17214 41907 02940 00000 10263 20250 30033 40048 333 58003 70000==
41907,2024,09,18,00,00,AAXX 18004 41907 02440 80000 10265 20260 30036 40051 8552/ 333 59001 70000 85615 88458==
41907,2024,09,18,03,00,AAXX 18034 41907 02450 30000 10305 20270 30045 40060 83800 333 20260 59017 70000 81615 83825==
41907,2024,09,18,06,00,AAXX 18064 41907 02456 30000 10340 20250 30035 40049 82530 333 59020 70000 82615==
41907,2024,09,18,09,00,AAXX 18094 41907 02456 50000 10354 20250 30009 40024 85800 333 59014 70000 82615 85825==
41907,2024,09,18,12,00,AAXX 18124 41907 02450 50000 10322 20290 30002 40016 85800 333 10358 59013 70000 82615 85825==
41907,2024,09,18,15,00,AAXX 18154 41907 02440 70000 10300 20280 30034 40038 84510 333 59010 70000 84615 86458==
41907,2024,09,18,18,00,AAXX 18184 41907 02440 70000 10296 20280 30039 40053 85510 333 58003 70000 85615 86458==
41907,2024,09,18,21,00,AAXX 18214 41907 02440 70000 10285 20280 30034 40049 85510 333 58001 70000 85615 86458==
41907,2024,09,19,00,00,AAXX 19004 41907 02440 50000 10273 20270 30031 40045 85800 333 59005 70000 82615 83825==
41907,2024,09,19,03,00,AAXX 19034 41907 02450 50000 10320 20270 30039 40054 85800 333 20267 59006 70000 82615 83825==
41907,2024,09,19,06,00,AAXX 19064 41907 02456 50502 10340 20270 30034 40049 85800 333 59001 70000 82615 83825==
41907,2024,09,19,09,00,AAXX 19094 41907 02456 23102 10360 20260 30000 40014 82500 333 59009 70000 82615==
41907,2024,09,19,12,00,AAXX 19124 41907 02950 30000 10328 20290 39991 40006 80001 333 10362 59011 70000 83080==
41907,2024,09,19,15,00,AAXX 19154 41907 02940 30000 10298 20280 30013 40028 80001 333 59011 70000 83080==
41907,2024,09,19,18,00,AAXX 19184 41907 02940 30000 10295 20280 30022 40036 80001 333 59017 70000 83080==
41907,2024,09,19,21,00,AAXX 19214 41907 02940 00000 10288 20280 30012 40026 333 59022 70000==
41909,2024,09,13,00,00,AAXX 13004 41909 02450 60000 10292 20270 39994 49995 83510 333 59004 70000 82615 86458==
41909,2024,09,13,03,00,AAXX 13034 41909 02456 51802 10324 20260 39992 40003 81530 333 20282 59025 70000 81618 85360==
41909,2024,09,13,06,00,AAXX 13064 41909 02456 52402 10351 20230 39984 49996 81530 333 59022 70000 81618 85362==
41909,2024,09,13,09,00,AAXX 13094 41909 02456 61004 10350 20250 39950 49962 83530 333 59024 70000 83615 84365==
41909,2024,09,13,12,00,AAXX 13124 41909 02450 80902 10325 20250 39956 49968 8552/ 333 10355 59020 70000 85614 88460==
41909,2024,09,13,15,00,AAXX 13154 41909 02440 80000 10300 20250 39974 49985 8552/ 333 59022 70000 85615 88460==
41909,2024,09,13,18,00,AAXX 13184 41909 21340 81302 10280 20230 39967 49978 70262 8562/ 333 59027 60015 70012 83708 83614 88460==
41909,2024,09,13,21,00,AAXX 13214 41909 02330 81802 10277 20240 39954 49965 8562/ 333 59038 70012 83708 83614 88460==
41909,2024,09,14,00,00,AAXX 14004 41909 01340 81306 10255 20240 39961 49972 76162 8672/ 333 59023 70070 86708 88458 81930==
41909,2024,09,14,03,00,AAXX 14034 41909 01350 81804 10259 20250 39986 49997 76162 8672/ 333 20245 59006 70132 86708 88458==
41909,2024,09,14,06,00,AAXX 14064 41909 01350 82404 10266 20240 39982 49993 76162 8672/ 333 59002 70060 86708 88458==
41909,2024,09,14,09,00,AAXX 14094 41909 01356 80904 10264 20240 39986 49967 76166 8672/ 333 58006 70154 85708 88458==
41909,2024,09,14,12,00,AAXX 14124 41909 21350 81302 10260 20240 39963 49974 76166 8672/ 333 10290 59007 60029 70166 85708 88458==
41909,2024,09,14,15,00,AAXX 14154 41909 01340 81302 10259 20240 39985 49996 72162 8562/ 333 58011 70174 84708 88458==
41909,2024,09,14,18,00,AAXX 14184 41909 11340 81802 10260 20240 39981 49992 69981 70262 8562/ 333 58014 70162 84708 88458==
41909,2024,09,14,21,00,AAXX 14214 41909 01340 81802 10256 20250 39968 49979 76166 8672/ 333 58014 70212 85708 88458==
41909,2024,09,15,00,00,AAXX 15004 41909 21350 81802 10254 20240 39967 49978 76166 8672/ 333 58006 60089 70172 85708 88458==
41909,2024,09,15,03,00,AAXX 15034 41909 01350 81802 10257 20250 39986 49997 76266 8672/ 333 20246 58000 70172 85708 88458==
41909,2024,09,15,06,00,AAXX 15064 41909 01350 81802 10269 20250 39987 49998 76166 8672/ 333 58005 70182 85708 88458==
41909,2024,09,15,09,00,AAXX 15094 41909 01350 80902 10260 20250 39972 49983 76166 8672/ 333 58016 70260 85708 88458==
41909,2024,09,15,12,00,AAXX 15124 41909 21350 80904 10260 20250 39976 49987 76166 8672/ 333 10271 58013 60269 70418 85708 88458==
41909,2024,09,15,15,00,AAXX 15154 41909 01330 81302 10264 20250 39994 40005 76166 8672/ 333 58009 70470 85708 88458==
41909,2024,09,15,18,00,AAXX 15184 41909 21330 81301 10250 20240 30002 40013 76166 8672/ 333 58021 60139 70540 85708 88458==
41909,2024,09,15,21,00,AAXX 15214 41909 01330 80901 10255 20240 30002 40013 76166 8672/ 333 58034 70160 85708 88458==
41909,2024,09,16,00,00,AAXX 16004 41909 21350 80902 10257 20250 30004 40015 79566 8692/ 333 58037 60269 70720 85708 88458 81930==
41909,2024,09,16,03,00,AAXX 16034 41909 12350 82404 10263 20250 30028 40039 62196 8562/ 333 20242 58042 70880 85708 88458==
41909,2024,09,16,06,00,AAXX 16064 41909 11350 81802 10293 20250 30035 40046 60211 70296 8562/ 333 58048 70860 85708 88458==
41909,2024,09,16,09,00,AAXX 16094 41909 01350 80000 10305 20270 30017 40028 70262 8562/ 333 58048 70780 85708 88458==
41909,2024,09,16,12,00,AAXX 16124 41909 01440 80000 10298 20270 30019 40030 70262 8562/ 333 10310 58043 70610 85708 88458==
41909,2024,09,16,15,00,AAXX 16154 41909 02440 80000 10278 20270 30036 40047 8562/ 333 58042 70550 85708 88458==
41909,2024,09,16,18,00,AAXX 16184 41909 02440 80000 10268 20260 30042 40053 8562/ 333 58040 70480 85708 88458==
41909,2024,09,16,21,00,AAXX 16214 41909 02440 80000 10265 20260 30038 40049 8562/ 333 58036 70360 85708 88458==
41909,2024,09,17,00,00,AAXX 17004 41909 01430 60000 10260 20250 30038 40049 70522 83510 333 58034 70220 83615 86458==
41909,2024,09,17,03,00,AAXX 17034 41909 02456 60000 10295 20260 30067 40078 83510 333 20250 58039 70210 83615 86458==
41909,2024,09,17,06,00,AAXX 17064 41909 02456 60000 10324 20250 30059 40070 83510 333 58024 70010 83615 86458==
41909,2024,09,17,09,00,AAXX 17094 41909 02456 20000 10326 20250 30026 40037 82500 333 58009 70000 82615==
41909,2024,09,17,12,00,AAXX 17124 41909 01350 80000 10320 20260 30018 40029 72902 8632/ 333 10345 59001 70002 83708 83614 88460 81930==
41909,2024,09,17,15,00,AAXX 17154 41909 02450 50000 10290 20270 30038 40049 82530 333 58002 70002 82615 84365==
41909,2024,09,17,18,00,AAXX 17184 41909 01940 00000 10285 20270 30040 40051 70522 333 59002 70002==
41909,2024,09,17,21,00,AAXX 17214 41909 01440 40000 10281 20260 30033 40044 70500 82530 333 59005 70002 82604 83365==
41909,2024,09,18,00,00,AAXX 18004 41909 01450 40000 10276 20270 30036 40047 70510 82530 333 59002 70002 82615 83365==
41909,2024,09,18,03,00,AAXX 18034 41909 02956 00000 10314 20250 30048 40059 333 20270 59019 70002==
41909,2024,09,18,06,00,AAXX 18064 41909 02956 00000 10344 20250 30038 40049 333 59021 70002==
41909,2024,09,18,09,00,AAXX 18094 41909 02456 31802 10354 20250 30006 40017 83800 333 59020 70002 82615==
41909,2024,09,18,12,00,AAXX 18124 41909 02456 20000 10330 20270 30003 40014 81501 333 10360 59015 70000 81618==
41909,2024,09,18,15,00,AAXX 18154 41909 02940 00000 10304 20280 30024 40035 333 59014 70000==
41909,2024,09,18,18,00,AAXX 18184 41909 02940 00000 10296 20280 30031 40042 333 59009 70000==
41909,2024,09,18,21,00,AAXX 18214 41909 02940 00000 10289 20280 30028 40039 333 59005 70000==
41909,2024,09,19,00,00,AAXX 19004 41909 02950 20000 10284 20270 30029 40040 80001 333 59007 70000 82080==
41909,2024,09,19,03,00,AAXX 19034 41909 02956 00000 10327 20270 30040 40051 333 20278 59008 70000==
41909,2024,09,19,06,00,AAXX 19064 41909 02956 00000 10355 20260 30032 40044 333 59006 70000==
41909,2024,09,19,09,00,AAXX 19094 41909 02940 03201 10368 20260 30000 40012 333 59006 70000==
41909,2024,09,19,12,00,AAXX 19124 41909 02456 50000 10350 20270 39991 40003 82530 333 10372 59012 70000 82615 85360==
41909,2024,09,19,15,00,AAXX 19154 41909 02940 00000 10317 20280 30014 40025 333 59010 70000==
41909,2024,09,19,18,00,AAXX 19184 41909 02940 00000 10305 20280 30023 40035 333 59008 70000==
41909,2024,09,19,21,00,AAXX 19214 41909 02940 00000 10300 20280 30022 40033 333 59006 70000==
41915,2024,09,13,00,00,AAXX 13004 41915 02456 70000 10264 20250 39973 49998 85470 333 59012 70000 84616 85458==
41915,2024,09,13,03,00,AAXX 13034 41915 02456 60504 10320 20240 39978 40003 81538 333 20260 59028 70000 81616 83362==
41915,2024,09,13,06,00,AAXX 13064 41915 02456 60810 10340 20240 39964 49988 82530 333 59021 70000 82616 85363==
41915,2024,09,13,09,00,AAXX 13094 41915 02456 60612 10330 20240 39950 40074 82530 333 59010 70000 82616 85363==
41915,2024,09,13,12,00,AAXX 13124 41915 02456 71403 10300 20250 39953 49977 84530 333 10346 59010 70000 84615 86363==
41915,2024,09,13,15,00,AAXX 13154 41915 02456 80000 10280 20250 39977 40002 8431/ 333 59006 70000 83615 88460 81930==
41915,2024,09,13,18,00,AAXX 13184 41915 NIL=
41915,2024,09,13,21,00,AAXX 13214 41915 02456 30000 10274 20240 39971 49996 83400 333 59003 70000 82616==
41915,2024,09,14,00,00,AAXX 14004 41915 02456 70000 10272 20250 39973 49998 83410 333 58000 70000 83615 86460==
41915,2024,09,14,03,00,AAXX 14034 41915 02356 80000 10300 20250 39990 40015 8531/ 333 20267 58012 70000 84709 88460 81930==
41915,2024,09,14,06,00,AAXX 14064 41915 01356 80000 10300 20250 39986 40011 70262 8531/ 333 58022 70004 84709 88460 81930==
41915,2024,09,14,09,00,AAXX 14094 41915 02456 70000 10300 20260 39967 49992 85570 333 58017 70004 85616 86458==
41915,2024,09,14,12,00,AAXX 14124 41915 02456 80902 10276 20230 39977 40001 8662/ 333 10310 58024 70004 82710 85616 88458==
41915,2024,09,14,15,00,AAXX 14154 41915 02356 81203 10274 20230 39996 40021 8461/ 333 58019 70004 84709 88460==
41915,2024,09,14,18,00,AAXX 14184 41915 NIL=
41915,2024,09,14,21,00,AAXX 14214 41915 02456 80000 10262 20240 39992 40017 8351/ 333 58021 70004 83615 88460==
41915,2024,09,15,00,00,AAXX 15004 41915 02456 80000 10260 20250 39986 40011 8351/ 333 58013 70004 83615 88460==
41915,2024,09,15,03,00,AAXX 15034 41915 02456 80902 10290 20260 30003 40028 8552/ 333 20255 58013 70004 85616 88458==
41915,2024,09,15,06,00,AAXX 15064 41915 02456 81002 10302 20250 30001 40026 8552/ 333 58015 70000 85616 88458==
41915,2024,09,15,09,00,AAXX 15094 41915 02456 80000 10300 20250 39981 40005 8452/ 333 58014 70000 84616 88458==
41915,2024,09,15,12,00,AAXX 15124 41915 02356 81003 10280 20250 39991 40016 8462/ 333 10316 58014 70000 84709 88458==
41915,2024,09,15,15,00,AAXX 15154 41915 02450 80902 10276 20260 30010 40035 8551/ 333 58014 70000 85616 88458==
41915,2024,09,15,18,00,AAXX 15184 41915 02450 70000 10270 20250 30016 40041 84510 333 58024 70000 84616 87458==
41915,2024,09,15,21,00,AAXX 15214 41915 02450 70000 10270 20250 30012 40037 84510 333 58020 70000 84616 87458==
41915,2024,09,16,00,00,AAXX 16004 41915 02456 70000 10266 20250 30010 40035 84570 333 58024 70000 84616 86458==
41915,2024,09,16,03,00,AAXX 16034 41915 02456 30000 10330 20240 30030 40054 83500 333 20266 58027 70000 83616==
41915,2024,09,16,06,00,AAXX 16064 41915 02456 31403 10340 20230 30024 40049 83500 333 58028 70000 83616==
41915,2024,09,16,09,00,AAXX 16094 41915 02456 61603 10333 20240 30009 40033 82530 333 58028 70000 82616 85363==
41915,2024,09,16,12,00,AAXX 16124 41915 02456 60000 10310 20260 30011 40035 82530 333 10352 58020 70000 82616 85360==
41915,2024,09,16,15,00,AAXX 16154 41915 02456 30000 10290 20270 30032 40057 83500 333 58022 70000 83616==
41915,2024,09,16,21,00,AAXX 16214 41915 02956 00000 10273 20250 30032 40057 333 58020 70000==
41915,2024,09,17,00,00,AAXX 17004 41915 02956 00000 10270 20260 30036 40061 333 58026 70000==
41915,2024,09,17,03,00,AAXX 17034 41915 02956 03003 10312 20250 30056 40081 333 20263 58026 70000==
41915,2024,09,17,06,00,AAXX 17064 41915 02456 33204 10334 20240 30044 40069 83300 333 58020 70000 82616 81930==
41915,2024,09,17,09,00,AAXX 17094 41915 02456 50000 10345 20250 30013 40037 84401 333 58004 70000 83616==
41915,2024,09,17,12,00,AAXX 17124 41915 02456 60000 10320 20270 30006 40030 84471 333 10351 59005 70000 83616 84458==
41915,2024,09,17,15,00,AAXX 17154 41915 02/56 40000 10293 20270 30028 40053 84030 333 59004 70000 84363==
41915,2024,09,17,18,00,AAXX 17184 41915 02956 00000 10280 20260 30026 40051 333 59006 70000==
41915,2024,09,17,21,00,AAXX 17214 41915 02956 00000 10273 20260 30022 40047 333 59010 70000==
41915,2024,09,18,00,00,AAXX 18004 41915 02956 00000 10270 20260 30026 40051 333 59010 70000==
41915,2024,09,18,03,00,AAXX 18034 41915 02456 20000 10315 20270 30038 40063 82500 333 20264 59018 70000 82616==
41915,2024,09,18,06,00,AAXX 18064 41915 02456 41404 10343 20260 30017 40041 84400 333 59027 70000 83616==
41915,2024,09,18,09,00,AAXX 18094 41915 02456 31303 10353 20240 39989 40013 83500 333 59024 70000 83616==
41915,2024,09,18,12,00,AAXX 18124 41915 02450 52301 10324 20270 39989 40013 80002 333 10360 59017 70000 85080==
41915,2024,09,18,15,00,AAXX 18154 41915 02950 00000 10294 20280 30011 40036 333 59017 70000==
41915,2024,09,18,18,00,AAXX 18184 41915 02/50 50000 10285 20280 30011 40036 85030 333 59015 70000 85362==
41915,2024,09,18,21,00,AAXX 18214 41915 02/50 40000 10280 20270 30009 40034 84030 333 59013 70000 84362==
41915,2024,09,19,00,00,AAXX 19004 41915 01/50 20000 10274 20260 30014 40039 70521 82030 333 59012 70000 82362==
41915,2024,09,19,03,00,AAXX 19034 41915 02556 10000 10330 20280 30026 40051 81100 333 20273 59012 70000 81822==
41915,2024,09,19,06,00,AAXX 19064 41915 02457 33102 10355 20290 30009 40033 83400 333 59008 70000 82616==
41915,2024,09,19,09,00,AAXX 19094 41915 02457 33203 10370 20260 39977 40002 83400 333 59012 70000 82616==
41915,2024,09,19,12,00,AAXX 19124 41915 02456 33005 10332 20280 39976 40000 83400 333 10377 59013 70000 82616==
41915,2024,09,19,15,00,AAXX 19154 41915 02950 20000 10293 20270 30008 40033 80002 333 59003 70000 82080==
41915,2024,09,19,21,00,AAXX 19214 41915 02950 00000 10280 20270 30008 40033 333 59001 70000==
41923,2024,09,13,00,00,AAXX 13004 41923 01335 70000 10290 20260 39987 49997 70522 84670 333 59019 70000 82709 83615 86458==
41923,2024,09,13,03,00,AAXX 13034 41923 02340 70000 10320 20240 39998 40008 84670 333 20288 59023 70000 82709 83615 86458==
41923,2024,09,13,06,00,AAXX 13064 41923 01350 70000 10328 20240 39986 49996 70262 84670 333 59019 70000 82709 83615 86458==
41923,2024,09,13,09,00,AAXX 13094 41923 42456 60902 10338 20250 39954 49964 83530 333 59013 83615 86365==
41923,2024,09,13,12,00,AAXX 13124 41923 42440 80902 10298 20230 39964 49974 8532/ 333 10345 59017 85615 88459 81930==
41923,2024,09,13,15,00,AAXX 13154 41923 01330 81402 10270 20250 39981 49991 76162 8632/ 333 59020 70012 83708 84613 88458 81928==
41923,2024,09,13,18,00,AAXX 13184 41923 01330 81208 10275 20240 39962 49972 76162 8632/ 333 59028 70012 83708 84613 88458 81928==
41923,2024,09,13,21,00,AAXX 13214 41923 01330 82704 10254 20240 39957 49967 76366 8632/ 333 59022 70054 86707 88458 81925==
41923,2024,09,14,00,00,AAXX 14004 41923 21330 81804 10250 20240 39959 49969 76366 8632/ 333 59028 60099 70100 86707 88458 81925==
41923,2024,09,14,03,00,AAXX 14034 41923 01330 81804 10262 20240 39984 49994 76366 8632/ 333 20248 59014 70142 86707 88458 81925==
41923,2024,09,14,06,00,AAXX 14064 41923 21330 81808 10262 20240 39983 49993 76366 8632/ 333 59003 60069 70164 83708 84613 88458 81928==
41923,2024,09,14,09,00,AAXX 14094 41923 01325 81806 10258 20250 39957 49967 76166 8632/ 333 58003 70196 83708 84614 88458 81930==
41923,2024,09,14,12,00,AAXX 14124 41923 21320 81603 10256 20250 39968 49978 76166 8632/ 333 10264 58004 60079 70237 84708 84614 88458 81930==
41923,2024,09,14,15,00,AAXX 14154 41923 01320 81804 10256 20250 39992 40002 76166 8672/ 333 58011 70245 83708 84614 88458==
41923,2024,09,14,18,00,AAXX 14184 41923 21320 81804 10253 20250 39983 49993 76166 8672/ 333 58021 60089 70309 84708 84614 88458==
41923,2024,09,14,21,00,AAXX 14214 41923 01315 81803 10252 20250 39973 49983 76166 8672/ 333 58016 70307 84708 84614 88458==
41923,2024,09,15,00,00,AAXX 15004 41923 21315 81804 10252 20250 39973 49983 76366 8672/ 333 58014 60109 70323 84708 84614 88458==
41923,2024,09,15,03,00,AAXX 15034 41923 01320 81803 10256 20250 39994 40004 76366 8672/ 333 20250 58010 70387 84708 84614 88458==
41923,2024,09,15,06,00,AAXX 15064 41923 21320 81803 10260 20250 39990 40000 76166 8672/ 333 58007 60169 70421 84708 84614 88458==
41923,2024,09,15,09,00,AAXX 15094 41923 01325 81602 10258 20258 39977 49987 79566 8692/ 333 58020 70575 84708 85614 88458 81930==
41923,2024,09,15,12,00,AAXX 15124 41923 21325 81402 10258 20258 39985 49995 76396 8672/ 333 10264 58017 60439 70780 84708 85614 88458==
41923,2024,09,15,15,00,AAXX 15154 41923 01330 80000 10262 20250 30003 40013 76166 8672/ 333 58011 70802 84708 85614 88458==
41923,2024,09,15,18,00,AAXX 15184 41923 21325 81602 10244 20240 30016 40025 79596 8692/ 333 58033 60379 71062 84708 85614 88458 81930==
41923,2024,09,15,21,00,AAXX 15214 41923 01320 81802 10248 20250 30005 40015 76166 8632/ 333 58032 71304 83708 84614 88458 81930==
41923,2024,09,16,00,00,AAXX 16004 41923 21325 80000 10256 20250 30012 40022 76366 8632/ 333 58039 60429 71376 83708 84614 88458 81930==
41923,2024,09,16,03,00,AAXX 16034 41923 01330 81603 10270 20260 30038 40048 76166 8672/ 333 20243 58044 71278 84708 84614 88458==
41923,2024,09,16,06,00,AAXX 16064 41923 11340 81802 10306 20250 30039 40049 60016 70266 8672/ 333 58049 71222 84708 84614 88458==
41923,2024,09,16,09,00,AAXX 16094 41923 02350 81803 10326 20240 30020 40030 8672/ 333 58043 71036 84708 84614 88458==
41923,2024,09,16,12,00,AAXX 16124 41923 02350 70000 10304 20250 30023 40033 84670 333 10332 58038 70790 82709 84615 85458==
41923,2024,09,16,15,00,AAXX 16154 41923 01340 50000 10279 20260 30043 40053 70522 84630 333 58040 70748 81709 83615 85360==
41923,2024,09,16,18,00,AAXX 16184 41923 01440 40000 10276 20260 30048 40058 70521 82530 333 58032 70424 82616 83365==
41923,2024,09,16,21,00,AAXX 16214 41923 01435 50000 10270 20260 30043 40053 70522 82530 333 58038 70142 82616 84360==
41923,2024,09,17,00,00,AAXX 17004 41923 01435 60000 10264 20250 30048 40058 70522 82530 333 58036 70008 82616 85360==
41923,2024,09,17,03,00,AAXX 17034 41923 02440 61802 10303 20250 30071 40081 83430 333 20261 58033 70000 82615 85360==
41923,2024,09,17,06,00,AAXX 17064 41923 02450 71402 10335 20250 30059 40069 85430 333 58020 70000 83615 83824 85360==
41923,2024,09,17,09,00,AAXX 17094 41923 02456 51802 10342 20230 30029 40039 82530 333 58009 70000 82615 85365==
41923,2024,09,17,12,00,AAXX 17124 41923 02450 63302 10325 20260 30024 40034 83530 333 10348 58001 70000 83615 86365==
41923,2024,09,17,15,00,AAXX 17154 41923 02/40 30000 10297 20260 30044 40054 83030 333 58001 70000 83365==
41923,2024,09,17,18,00,AAXX 17184 41923 02440 50000 10292 20250 30046 40056 82530 333 59002 70000 82615 85365==
41923,2024,09,17,21,00,AAXX 17214 41923 02440 50000 10282 20260 30045 40055 82530 333 58002 70000 82615 85365==
41923,2024,09,18,00,00,AAXX 18004 41923 02440 50000 10275 20270 30041 40051 82530 333 59007 70000 82615 85365==
41923,2024,09,18,03,00,AAXX 18034 41923 02/50 30000 10312 20250 30053 40063 83030 333 20275 59018 70000 83366==
41923,2024,09,18,06,00,AAXX 18064 41923 02456 53302 10347 20260 30037 40047 82530 333 59022 70000 82615 85365==
41923,2024,09,18,09,00,AAXX 18094 41923 02450 70000 10340 20260 30010 40020 84330 333 59019 70000 83615 85360 81930==
41923,2024,09,18,12,00,AAXX 18124 41923 02450 50000 10330 20250 30005 40015 82530 333 10355 59019 70000 82615 84360==
41923,2024,09,18,15,00,AAXX 18154 41923 02/50 20000 10310 20260 30027 40037 82030 333 59017 70000 82360==
41923,2024,09,18,18,00,AAXX 18184 41923 02/40 20000 10300 20270 30034 40044 82030 333 59012 70000 82360==
41923,2024,09,18,21,00,AAXX 18214 41923 02440 40000 10296 20260 30033 40043 81530 333 59012 70000 81616 84360==
41923,2024,09,19,00,00,AAXX 19004 41923 02440 60000 10294 20270 30031 40041 82530 333 59010 70000 82616 85360==
41923,2024,09,19,03,00,AAXX 19034 41923 02456 10000 10336 20260 30043 40053 81500 333 20293 59010 70000 81616==
41923,2024,09,19,06,00,AAXX 19064 41923 02456 30000 10360 20250 30032 40042 83400 333 59005 70000 81616 83824==
41923,2024,09,19,09,00,AAXX 19094 41923 02456 53402 10364 20250 30001 40011 84430 333 59009 70000 82616 83824==
41923,2024,09,19,12,00,AAXX 19124 41923 02450 63402 10340 20270 39994 40004 84430 333 10370 59011 70000 82616 83824 85360==
41923,2024,09,19,15,00,AAXX 19154 41923 02450 50000 10327 20280 30017 40027 82530 333 59010 70000 82616 83360==
41923,2024,09,19,18,00,AAXX 19184 41923 02440 30000 10319 20270 30026 40036 81530 333 59008 70000 81616 83365==
41923,2024,09,19,21,00,AAXX 19214 41923 02440 40000 10312 20270 30023 40032 83530 333 59010 70000 82616 83365==
41926,2024,09,13,00,00,AAXX 13004 41926 42450 70000 10275 20270 39983 49997 83510 333 59020 83616 86459==
41926,2024,09,13,03,00,AAXX 13034 41926 42450 60000 10310 20260 39999 40012 83510 333 10275 59019 83616 85459==
41926,2024,09,13,06,00,AAXX 13064 41926 42456 30000 10350 20260 39986 49999 83500 333 59026 83618==
41926,2024,09,13,09,00,AAXX 13094 41926 01450 62702 10280 20260 39964 49978 70396 83510 333 59013 70060 83616 86459==
41926,2024,09,13,12,00,AAXX 13124 41926 11450 82503 10275 20270 39965 49979 60066 70396 8532/ 333 10352 59021 70060 84615 88459 81930==
41926,2024,09,13,15,00,AAXX 13154 41926 01450 70000 10270 20260 39978 49992 71322 85310 333 59023 70060 84615 86459 81930==
41926,2024,09,13,18,00,AAXX 13184 41926 11340 80000 10257 20257 39962 49976 60252 79596 8692/ 333 59037 70310 83708 84614 88458 82928==
41926,2024,09,13,21,00,AAXX 13214 41926 01340 80502 10255 20255 39945 49958 70296 8532/ 333 59047 70354 83708 84615 88458 81930==
41926,2024,09,14,00,00,AAXX 14004 41926 11340 80503 10252 20250 39929 49943 60046 70296 8532/ 333 59054 70354 83708 84615 88458 81930==
41926,2024,09,14,03,00,AAXX 14034 41926 01350 80504 10256 20256 39953 49967 76162 8572/ 333 20252 59046 70450 83708 84615 88458==
41926,2024,09,14,06,00,AAXX 14064 41926 21350 80503 10265 20260 39949 49962 76162 8572/ 333 59037 60019 70460 83708 84615 88458==
41926,2024,09,14,09,00,AAXX 14094 41926 01350 80903 10266 20250 39923 49936 70266 8572/ 333 59041 70440 82708 84616 88458==
41926,2024,09,14,12,00,AAXX 14124 41926 01450 81801 10256 20250 39926 49939 76262 8572/ 333 10282 59039 70450 82708 84616 88458==
41926,2024,09,14,15,00,AAXX 14154 41926 01450 80000 10252 20240 39940 49954 76166 8572/ 333 59038 70470 82708 86416 88458==
41926,2024,09,14,18,00,AAXX 14184 41926 21350 81202 10255 20250 39930 49943 76166 8572/ 333 59032 60179 70370 82708 84616 88458==
41926,2024,09,14,21,00,AAXX 14214 41926 01350 81502 10254 20240 39923 49937 76162 8572/ 333 59022 70438 82708 84616 88458==
41926,2024,09,15,00,00,AAXX 15004 41926 21350 81502 10253 20240 39921 49935 72166 8572/ 333 59008 60279 70598 82708 84616 88458==
41926,2024,09,15,03,00,AAXX 15034 41926 01350 81502 10257 20250 39938 49952 76166 8572/ 333 20252 59015 70566 82708 84616 88458==
41926,2024,09,15,06,00,AAXX 15064 41926 21350 81505 10258 20250 39936 49950 76366 8572/ 333 59013 60349 70830 82708 84616 88458==
41926,2024,09,15,09,00,AAXX 15094 41926 01350 80000 10254 20240 39929 49943 76166 8572/ 333 58006 71130 82708 84616 88458==
41926,2024,09,15,12,00,AAXX 15124 41926 21350 81501 10254 20240 39936 49950 76166 8572/ 333 10262 58010 60409 71180 82708 84616 88458==
41926,2024,09,15,15,00,AAXX 15154 41926 41350 80000 10256 20250 39960 49974 76166 8572/ 333 58020 82708 84616 88458==
41926,2024,09,15,18,00,AAXX 15184 41926 21350 81801 10256 20250 39965 49979 76166 8572/ 333 58035 60299 71304 82708 84616 88458==
41926,2024,09,15,21,00,AAXX 15214 41926 01350 81802 10255 20250 39967 49981 72166 8572/ 333 58044 71244 82708 84616 88458==
41926,2024,09,16,00,00,AAXX 16004 41926 21450 80000 10254 20250 39972 49986 70262 8352/ 333 58051 60058 71084 83617 88458==
41926,2024,09,16,03,00,AAXX 16034 41926 01350 81301 10255 20250 30000 40014 76162 8472/ 333 20245 58062 71074 83708 84615 88458==
41926,2024,09,16,06,00,AAXX 16064 41926 21350 81303 10262 20260 30015 40029 76162 8472/ 333 58079 60239 70972 83708 84615 88458==
41926,2024,09,16,09,00,AAXX 16094 41926 01350 81301 10250 20240 30008 40022 79796 8592/ 333 58079 70736 84708 84615 88458 81928==
41926,2024,09,16,12,00,AAXX 16124 41926 21350 80000 10255 20250 30006 40020 70296 8472/ 333 10265 58070 60128 70696 82708 83617 88458==
41926,2024,09,16,15,00,AAXX 16154 41926 01450 30000 10250 20250 30026 40040 70500 83500 333 58066 70562 83618==
41926,2024,09,16,18,00,AAXX 16184 41926 01450 30000 10254 20240 30034 40048 70500 83500 333 58069 70402 83618==
41926,2024,09,16,21,00,AAXX 16214 41926 01450 30000 10257 20250 30035 40049 70500 83500 333 58068 70350 83618==
41926,2024,09,17,00,00,AAXX 17004 41926 02450 50000 10262 20260 30037 40051 82510 333 58065 70350 82618 85459==
41926,2024,09,17,03,00,AAXX 17034 41926 02456 70901 10280 20260 30060 40073 82530 333 20248 58060 70296 82618 87362==
41926,2024,09,17,06,00,AAXX 17064 41926 02456 40000 10324 20250 30052 40065 84400 333 58037 70124 81618 83822==
41926,2024,09,17,09,00,AAXX 17094 41926 02456 51301 10333 20250 30024 40037 85400 333 58016 70020 82618 83825==
41926,2024,09,17,12,00,AAXX 17124 41926 02456 10000 10302 20270 30019 40032 81500 333 10340 58013 70000 81618==
41926,2024,09,17,15,00,AAXX 17154 41926 02/50 10000 10295 20270 30038 40051 81030 333 58012 70000 81362==
41926,2024,09,17,18,00,AAXX 17184 41926 02950 00000 10283 20260 30039 40052 333 58005 70000==
41926,2024,09,17,21,00,AAXX 17214 41926 02950 00000 10268 20260 30040 40054 333 58005 70000==
41926,2024,09,18,00,00,AAXX 18004 41926 01/40 20000 10256 20250 30041 40055 70500 82030 333 58004 70000 82362==
41926,2024,09,18,03,00,AAXX 18034 41926 02456 30000 10303 20250 30048 40061 83500 333 20256 59012 70000 83617==
41926,2024,09,18,06,00,AAXX 18064 41926 02456 60000 10323 20260 30039 40052 83510 333 59013 70000 83617 86459==
41926,2024,09,18,09,00,AAXX 18094 41926 02456 52001 10350 20270 30011 40024 85400 333 59013 70000 82618 83825==
41926,2024,09,18,12,00,AAXX 18124 41926 02950 30000 10303 20270 30008 40021 80001 333 10355 59011 70000 83080==
41926,2024,09,18,15,00,AAXX 18154 41926 02950 30000 10293 20270 30029 40042 80001 333 59009 70000 83080==
41926,2024,09,18,18,00,AAXX 18184 41926 02950 20000 10280 20260 30032 40045 80001 333 59007 70000 82080==
41926,2024,09,18,21,00,AAXX 18214 41926 01950 20000 10275 20270 30033 40046 70500 80001 333 59007 70000 82080==
41926,2024,09,19,00,00,AAXX 19004 41926 01940 30000 10266 20266 30033 40047 70500 80001 333 59008 70000==
41926,2024,09,19,03,00,AAXX 19034 41926 02456 30000 10312 20250 30041 40054 80001 333 20266 59007 70000 83080==
41926,2024,09,19,06,00,AAXX 19064 41926 02456 60000 10340 20270 30037 40050 83510 333 59002 70000 83618 86459==
41926,2024,09,19,09,00,AAXX 19094 41926 02456 40000 10360 20260 30000 40013 84400 333 59011 70000 83618==
41926,2024,09,19,12,00,AAXX 19124 41926 02450 30000 10320 20280 39994 40007 83400 333 10366 59014 70000 82618==
41926,2024,09,19,15,00,AAXX 19154 41926 02450 20000 10300 20290 30020 40033 83500 333 59009 70000 82619==
41926,2024,09,19,18,00,AAXX 19184 41926 02450 20000 10290 20280 30025 40039 82500 333 59007 70000 82618==
41926,2024,09,19,21,00,AAXX 19214 41926 01950 00000 10285 20280 30017 40031 70500 333 59016 70000==
41927,2024,09,13,00,00,AAXX 13004 41927 32956 00000 10284 20270 30004 40019 333 59014 70000=
41927,2024,09,13,06,00,AAXX 13064 41927 32456 81602 10330 20250 30004 40018 8452/ 333 56499 59004 70000 84616 88458=
41927,2024,09,13,12,00,AAXX 13124 41927 32456 81803 10294 20260 39962 49977 8452/ 333 10350 56499 59012 70000 84616 88458=
41927,2024,09,13,18,00,AAXX 13184 41927 32450 81601 10278 20270 39984 49999 8452/ 333 56499 59022 70000 84616 88458=
41927,2024,09,14,00,00,AAXX 14004 41927 32450 80804 10264 20250 39982 49997 8452/ 333 56299 59022 70000 84616 88458=
41927,2024,09,14,06,00,AAXX 14064 41927 11456 80805 10264 20250 39958 49973 60163 70266 8452/ 333 56299 59046 70156 84616 88458=
41927,2024,09,14,12,00,AAXX 14124 41927 11440 81303 10248 20248 39940 49955 60144 76322 8672/ 333 10270 56399 59022 70296 83708 83616 88458=
41927,2024,09,14,18,00,AAXX 14184 41927 11450 81303 10248 20248 39964 49979 60129 70266 8672/ 333 56399 59020 70420 83708 83616 88458=
41927,2024,09,15,06,00,AAXX 15064 41927 11440 81306 10260 20260 39960 49975 76166 8672/ 333 56399 58002 71130 83707 83615 88458=
41927,2024,09,15,12,00,AAXX 15124 41927 11450 81304 10256 20256 39950 49965 60239 72166 8672/ 333 10262 56399 58010 71218 83707 83616 88458=
41927,2024,09,15,18,00,AAXX 15184 41927 11450 81403 10260 20260 39976 49991 60107 72162 8672/ 333 56399 58014 71198 83707 83616 88458=
41927,2024,09,16,00,00,AAXX 16004 41927 11440 80000 10246 20246 39976 49991 60107 76362 8672/ 333 56399 58014 70818 83707 83615 88458=
41927,2024,09,16,06,00,AAXX 16064 41927 11440 81301 10254 20250 30022 40037 60859 76362 8672/ 333 56399 58062 71284 83706 83614 88458=
41927,2024,09,16,12,00,AAXX 16124 41927 11456 81602 10270 20250 30009 40024 60016 70262 8452/ 333 10274 56499 58059 71066 84616 88458=
41927,2024,09,16,18,00,AAXX 16184 41927 32456 31601 10260 20250 30034 40049 83500 333 56400 58056 70962 83617=
41927,2024,09,17,00,00,AAXX 17004 41927 32450 61802 10256 20250 30038 40053 83510 333 56490 58062 70864 83617 85459=
41927,2024,09,17,06,00,AAXX 17064 41927 32958 01601 10318 20250 30051 40065 333 58029 70010=
41927,2024,09,17,12,00,AAXX 17124 41927 32957 01802 10308 20270 30016 40031 333 10336 58007 70000=
41927,2024,09,17,18,00,AAXX 17184 41927 NIL=
41927,2024,09,18,00,00,AAXX 18004 41927 32456 41801 10265 20260 30036 40051 82510 333 56490 59002 70000 82618 84459=
41927,2024,09,18,06,00,AAXX 18064 41927 32458 31801 10335 20260 30036 40050 83400 333 56400 59015 70000 82618=
41927,2024,09,18,09,00,AAXX 18094 41927 32558 20000 10350 20260 30008 40022 82100 333 56400 59015 70000 82825=
41927,2024,09,18,12,00,AAXX 18124 41927 32957 00000 10325 20270 30002 40016 333 10350 59014 70000=
41927,2024,09,18,18,00,AAXX 18184 41927 32456 50000 10284 20260 30026 40041 83510 333 56490 59014 70000 83617 84459=
41927,2024,09,19,00,00,AAXX 19004 41927 32956 20000 10275 20270 30029 40044 82030 333 56090 59007 70000 82362=
41927,2024,09,19,06,00,AAXX 19064 41927 32458 53601 10345 20270 30034 40048 85400 333 56800 59002 70000 82618 83825=
41927,2024,09,19,12,00,AAXX 19124 41927 32457 20000 10330 20270 39993 40007 82500 333 10362 56600 59009 70000 82618=
41929,2024,09,13,00,00,AAXX 13004 41929 02456 70000 10287 20270 39984 49993 83570 333 59022 70095 83617 85459==
41929,2024,09,13,03,00,AAXX 13034 41929 02456 73602 10320 20270 39997 40006 82540 333 20275 59024 70095 82618 86365==
41929,2024,09,13,06,00,AAXX 13064 41929 02456 83602 10324 20270 39992 40001 8351/ 333 59021 70095 83618 88462==
41929,2024,09,13,09,00,AAXX 13094 41929 01557 63102 10345 20260 39955 49964 70162 82130 333 59031 70062 82825 84365==
41929,2024,09,13,12,00,AAXX 13124 41929 11456 81305 10307 20250 39963 49972 69926 70362 8451/ 333 10352 59022 70002 84617 88459==
41929,2024,09,13,15,00,AAXX 13154 41929 02456 80903 10285 20250 39978 49987 8451/ 333 59022 70002 84616 88459==
41929,2024,09,13,18,00,AAXX 13184 41929 21456 80904 10277 20250 39957 49966 76162 8452/ 333 59037 69957 70007 84616 88458==
41929,2024,09,13,21,00,AAXX 13214 41929 02456 80914 10287 20250 39945 49954 8452/ 333 59044 70007 84616 88458==
41929,2024,09,14,00,00,AAXX 14004 41929 21356 80908 10257 20250 39932 49941 76162 8672/ 333 59052 60057 70057 82709 84616 88457==
41929,2024,09,14,03,00,AAXX 14034 41929 01350 80906 10262 20240 39952 49961 76366 8642/ 333 20254 59025 70109 82709 84616 88457==
41929,2024,09,14,06,00,AAXX 14064 41929 21350 80909 10268 20250 39950 49959 76366 8672/ 333 59042 60119 70171 82709 84616 88457==
41929,2024,09,14,09,00,AAXX 14094 41929 01350 81312 10265 20260 39950 49959 76166 8672/ 333 59005 70209 82709 84616 88457==
41929,2024,09,14,12,00,AAXX 14124 41929 01350 80912 10257 20250 39948 49957 76366 8672/ 333 10268 59015 70479 82708 84615 88457==
41929,2024,09,14,15,00,AAXX 14154 41929 01350 81311 10265 20260 39967 49976 76166 8672/ 333 59011 70549 82709 84615 88457==
41929,2024,09,14,18,00,AAXX 14184 41929 21350 80910 10262 20250 39975 49984 76366 8672/ 333 58018 60169 70629 82709 84615 88457==
41929,2024,09,14,21,00,AAXX 14214 41929 01350 80912 10262 20250 39962 49971 76566 8672/ 333 58017 70969 82708 84615 88457==
41929,2024,09,15,00,00,AAXX 15004 41929 21350 81312 10262 20250 39949 49958 76566 8672/ 333 58017 60689 71259 82708 84615 88457==
41929,2024,09,15,03,00,AAXX 15034 41929 02350 80909 10266 20260 39962 49971 8672/ 333 20250 58010 71287 82708 84615 88457==
41929,2024,09,15,06,00,AAXX 15063 41929 21350 80901 10265 20260 39957 49966 76366 8672/ 333 58007 60169 71307 82708 84615 88457==
41929,2024,09,15,09,00,AAXX 15094 41929 01350 81310 10265 20260 39960 49969 76366 8672/ 333 58010 71472 82709 84615 88457==
41929,2024,09,15,12,00,AAXX 15124 41929 21350 81305 10252 20240 39968 49977 76566 8672/ 333 10267 58020 60529 71512 82708 84615 88457==
41929,2024,09,15,15,00,AAXX 15154 41929 01450 81305 10270 20260 39988 49997 70262 8451/ 333 58021 71782 84617 88459==
41929,2024,09,15,18,00,AAXX 15184 41929 11456 80907 10260 20240 39994 40003 60346 70262 8451/ 333 58019 71697 84617 88459==
41929,2024,09,15,21,00,AAXX 15214 41929 01450 80907 10258 20250 39995 40004 76362 8452/ 333 58033 71537 84616 88457==
41929,2024,09,16,00,00,AAXX 16004 41929 21456 80905 10255 20250 39995 40004 72996 8452/ 333 58046 60289 71297 84617 88458==
41929,2024,09,16,03,00,AAXX 16034 41929 01456 81305 10278 20260 30026 40035 70262 8351/ 333 20246 58064 71229 83618 88462==
41929,2024,09,16,06,00,AAXX 16064 41929 01456 80000 10275 20270 30034 40043 71796 8591/ 333 58077 71311 83618 88462 81930==
41929,2024,09,16,09,00,AAXX 16094 41929 02456 61404 10312 20260 30014 40023 82540 333 58054 71106 82618 85365==
41929,2024,09,16,12,00,AAXX 16124 41929 02456 60000 10295 20260 30016 40025 82540 333 10315 58053 70796 82618 85365==
41929,2024,09,16,15,00,AAXX 16154 41929 02456 40903 10280 20270 30037 40046 84510 333 58049 70456 84618==
41929,2024,09,16,18,00,AAXX 16184 41929 02456 41003 10275 20270 30045 40054 84510 333 58051 70456 84618==
41929,2024,09,16,21,00,AAXX 16214 41929 02456 40000 10275 20270 30043 40052 84510 333 58048 70276 84618==
41929,2024,09,17,00,00,AAXX 17004 41929 02/56 51303 10270 20260 30043 40052 85010 333 58048 70176 85462==
41929,2024,09,17,03,00,AAXX 17034 41929 02456 52104 10306 20270 30051 40060 84430 333 20254 58025 70166 82618==
41929,2024,09,17,06,00,AAXX 17064 41929 02456 50000 10318 20260 30058 40067 84440 333 58024 70000 82618 83365==
41929,2024,09,17,09,00,AAXX 17094 41929 02556 30000 10343 20250 30031 40040 83100 333 58017 70000 83825==
41929,2024,09,17,12,00,AAXX 17124 41929 02556 30000 10321 20280 30021 40030 83100 333 10344 58005 70000 83825==
41929,2024,09,17,15,00,AAXX 17154 41929 02956 00000 10293 20280 30040 40049 333 58003 70000==
41929,2024,09,17,18,00,AAXX 17184 41929 02956 00000 10286 20280 30047 40056 333 58002 70000==
41929,2024,09,17,21,00,AAXX 17214 41929 02956 00000 10286 20280 30040 40049 333 59003 70000==
41929,2024,09,18,00,00,AAXX 18004 41929 01950 00000 10275 20270 30040 40049 70500 333 59003 70000==
41929,2024,09,18,03,00,AAXX 18034 41929 02456 23102 10315 20270 30052 40061 82500 333 20271 58001 70000==
41929,2024,09,18,06,00,AAXX 18064 41929 02456 40000 10345 20270 30042 40051 84400 333 59016 70000==
41929,2024,09,18,09,00,AAXX 18094 41929 02956 03602 10348 20260 30036 40048 84410 333 58008 70000==
41929,2024,09,18,12,00,AAXX 18124 41929 02456 30000 10335 20280 30007 40016 82510 333 10358 59014 70000==
41929,2024,09,18,15,00,AAXX 18154 41929 02956 00000 10307 20280 30029 40038 333 59011 70000==
41929,2024,09,18,18,00,AAXX 18184 41929 02956 03202 10300 20280 30035 40044 333 59012 70000==
41929,2024,09,18,21,00,AAXX 18214 41929 02456 40000 10300 20280 30032 40041 83510 333 59008 70000==
41929,2024,09,19,00,00,AAXX 19004 41929 02/56 20000 10287 20280 30030 40039 82040 333 59010 70000 82365==
41929,2024,09,19,03,00,AAXX 19034 41929 02/56 20000 10330 20280 30046 40055 82030 333 20284 59006 70000 82365==
41929,2024,09,19,06,00,AAXX 19064 41929 02457 23402 10360 20260 30034 40043 82500 333 59008 70000 82618==
41929,2024,09,19,09,00,AAXX 19094 41929 02457 23402 10365 20270 30006 40015 82500 333 59033 70000 82618==
41929,2024,09,19,12,00,AAXX 19124 41929 02456 23402 10343 20270 39996 40005 82500 333 10372 59011 70000 82618==
41929,2024,09,19,15,00,AAXX 19154 41929 02456 20000 10310 20290 30022 40031 82500 333 59007 70000 82618==
41929,2024,09,19,18,00,AAXX 19184 41929 02956 00000 10304 20290 30030 40039 333 59005 70000==
41929,2024,09,19,21,00,AAXX 19214 41929 02956 00000 10304 20290 30025 40034 333 59007 70000==
41933,2024,09,13,00,00,AAXX 13004 41933 02450 60000 10275 20250 39980 49989 82520 333 59022 70000 82618 86458==
41933,2024,09,13,03,00,AAXX 13034 41933 02456 80502 10300 20250 39988 49996 8562/ 333 20272 59033 70000 82710 84618 88458==
41933,2024,09,13,06,00,AAXX 13064 41933 02456 80502 10326 20250 39976 49984 8562/ 333 59024 70000 82710 84618 88458==
41933,2024,09,13,09,00,AAXX 13094 41933 01350 80502 10273 20250 39960 49968 76162 8672/ 333 59017 70030 84708 85614 88456==
41933,2024,09,13,12,00,AAXX 13124 41933 21440 80902 10285 20250 39966 49974 70262 8562/ 333 10332 59007 60038 70030 82710 84618 88458==
41933,2024,09,13,15,00,AAXX 13154 41933 02456 81208 10280 20230 39974 49982 8451/ 333 59019 70030 84618 88458==
41933,2024,09,13,18,00,AAXX 13184 41933 21350 81506 10270 20240 39956 49964 76162 8572/ 333 59032 60037 70058 82709 84616 88457==
41933,2024,09,13,21,00,AAXX 13214 41933 01340 81305 10268 20240 39945 49954 76166 8572/ 333 59039 70078 82709 84615 88457==
41933,2024,09,14,00,00,AAXX 14004 41933 21340 81204 10250 20230 39957 49966 76166 8572/ 333 59023 60089 70142 82709 84615 88457==
41933,2024,09,14,03,00,AAXX 14034 41933 01340 81305 10260 20250 39997 40005 76166 8672/ 333 20250 58009 70172 84708 85614 88456==
41933,2024,09,14,06,00,AAXX 14064 41933 21350 82304 10270 20240 39991 49999 76166 8672/ 333 58015 60049 70182 84708 85614 88456==
41933,2024,09,14,09,00,AAXX 14094 41933 01350 80503 10267 20250 39972 49980 76166 8672/ 333 58012 70162 84708 85614 88456==
41933,2024,09,14,12,00,AAXX 14124 41933 21350 81305 10260 20240 39977 49985 76166 8672/ 333 10272 58011 60039 70182 84708 85614 88456==
41933,2024,09,14,15,00,AAXX 14154 41933 01330 83104 10256 20250 30002 40010 76166 8672/ 333 58028 70212 84708 85614 88456==
41933,2024,09,14,18,00,AAXX 14184 41933 NIL=
41933,2024,09,14,21,00,AAXX 14214 41933 21330 80502 10255 20250 30004 40012 76166 8672/ 333 58048 60049 70194 84708 85614 88456==
41933,2024,09,15,00,00,AAXX 15004 41933 21340 80503 10262 20230 39983 49992 76166 8672/ 333 58026 60019 70124 83708 85616 88457==
41933,2024,09,15,03,00,AAXX 15034 41933 01350 81304 10255 20250 30008 40016 76166 8672/ 333 20250 58011 70118 84708 85614 88456==
41933,2024,09,15,06,00,AAXX 15063 41933 21456 81302 10275 20250 30000 40008 70262 8562/ 333 58009 60048 70120 83710 84618 88458==
41933,2024,09,15,09,00,AAXX 15094 41933 02456 80503 10285 20260 39982 49990 8562/ 333 58010 70110 82710 84618 88458==
41933,2024,09,15,12,00,AAXX 15124 41933 02450 81704 10280 20250 39995 40003 8562/ 333 10290 58018 70090 82710 84618 88458==
41933,2024,09,15,15,00,AAXX 15154 41933 02450 81802 10290 20240 30015 40025 8562/ 333 58013 70060 82710 84618 88458==
41933,2024,09,15,18,00,AAXX 15184 41933 02450 80000 10275 20250 30016 40024 8452/ 333 58012 70050 84618 88458==
41933,2024,09,15,21,00,AAXX 15214 41933 02450 70000 10270 20240 30021 40029 83520 333 58041 70042 83618 87458==
41933,2024,09,16,00,00,AAXX 16004 41933 02450 70000 10265 20250 30027 40035 83520 333 58044 70036 83618 87458==
41933,2024,09,16,03,00,AAXX 16034 41933 02456 62303 10297 20240 30042 40050 82520 333 20255 58034 70012 82618 86458==
41933,2024,09,16,06,00,AAXX 16064 41933 02456 51704 10325 20250 30042 40050 82520 333 58042 70000 82618 85458==
41933,2024,09,16,09,00,AAXX 16094 41933 02456 52302 10318 20260 30024 40033 82520 333 58042 70000 82618 85458==
41933,2024,09,16,12,00,AAXX 16124 41933 02450 51702 10298 20260 30023 40032 82520 333 10330 58028 70000 82618 85458==
41933,2024,09,16,15,00,AAXX 16154 41933 02/50 20000 10284 20260 30043 40052 82040 333 58028 70000 82362==
41933,2024,09,16,18,00,AAXX 16184 41933 02950 00000 10274 20250 30043 40052 333 58027 70000==
41933,2024,09,16,21,00,AAXX 16214 41933 02450 50000 10268 20260 30040 40049 82530 333 58019 70000 82618 85362==
41933,2024,09,17,00,00,AAXX 17004 41933 02450 50000 10265 20260 30042 40051 82530 333 58015 70000 82618 85362==
41933,2024,09,17,03,00,AAXX 17034 41933 02456 52302 10300 20270 30073 40082 82530 333 20265 58031 70000 82618 85362==
41933,2024,09,17,06,00,AAXX 17064 41933 02456 51802 10330 20250 30053 40062 82530 333 58011 70000 82618 85362==
41933,2024,09,17,09,00,AAXX 17094 41933 01350 81902 10275 20260 30033 40042 79596 8692/ 333 58009 70030 83709 84615 88456 81925==
41933,2024,09,17,12,00,AAXX 17124 41933 21450 50000 10305 20260 30019 40028 70396 82530 333 10350 59004 60035 70030 82618 85362==
41933,2024,09,17,15,00,AAXX 17154 41933 02930 00000 10285 20270 30046 40055 333 58003 70030==
41933,2024,09,17,18,00,AAXX 17184 41933 02930 00000 10280 20270 30044 40053 333 58001 70030==
41933,2024,09,17,21,00,AAXX 17214 41933 02930 00000 10272 20250 30042 40051 333 58002 70030==
41933,2024,09,18,00,00,AAXX 18004 41933 02440 20000 10270 20260 30041 40050 82500 333 59001 70030 82618==
41933,2024,09,18,03,00,AAXX 18034 41933 02450 40000 10310 20280 30047 40056 82540 333 20268 59026 70030 82618 84362==
41933,2024,09,18,06,00,AAXX 18064 41933 02450 70000 10330 20260 30022 40031 84510 333 59031 70030 84618 87459==
41933,2024,09,18,09,00,AAXX 18094 41933 42450 50000 10344 20250 30004 40012 82540 333 59029 82618 85362==
41933,2024,09,18,12,00,AAXX 18124 41933 02450 50000 10322 20270 30002 40011 82540 333 10351 59017 70000 82618 85362==
41933,2024,09,18,15,00,AAXX 18154 41933 02450 50000 10300 20290 30029 40037 82530 333 59017 70000 82618 85362==
41933,2024,09,18,18,00,AAXX 18184 41933 02450 50000 10300 20280 30025 40033 82530 333 59019 70000 82618 85362==
41933,2024,09,18,21,00,AAXX 18214 41933 02450 50000 20260 30031 40039 82530 333 59011 70000 82618 85362==
41933,2024,09,19,00,00,AAXX 19004 41933 02450 50000 10280 20250 30033 40041 82530 333 59008 70000 82618 85362==
41933,2024,09,19,03,00,AAXX 19034 41933 02456 22702 10315 20270 30041 40049 82500 333 20277 59006 70000 82618==
41933,2024,09,19,06,00,AAXX 19064 41933 02456 42701 10346 20280 30029 40038 82520 333 58007 70000 82618 84458==
41933,2024,09,19,09,00,AAXX 19094 41933 02456 23103 10345 20290 39996 40004 82500 333 59008 70000 82618==
41933,2024,09,19,12,00,AAXX 19124 41933 02456 23102 10340 20270 39991 49999 82500 333 10356 59011 70000 82618==
41933,2024,09,19,15,00,AAXX 19154 41933 02950 00000 10312 20290 30017 40025 333 59012 70000==
41933,2024,09,19,18,00,AAXX 19184 41933 02450 20000 10301 20290 30022 40030 82530 333 59003 70000 82618==
41933,2024,09,19,21,00,AAXX 19214 41933 01935 00000 10294 20280 30016 40024 70500 333 59015 70000==
41936,2024,09,13,00,00,AAXX 13004 41936 01416 63403 10280 20270 39984 49991 70522 84630 333 59022 70100 82710 83615 85362==
41936,2024,09,13,03,00,AAXX 13034 41936 01420 60303 10306 20270 39993 40000 70522 84630 333 20278 59025 70100 81710 83615 85362==
41936,2024,09,13,06,00,AAXX 13064 41936 01430 63503 10318 20270 39987 49994 70522 84630 333 59030 70100 82710 83615 86362==
41936,2024,09,13,09,00,AAXX 13094 41936 01430 60403 10334 20260 39958 49965 70562 84630 333 59027 70100 82710 83615 86362==
41936,2024,09,13,12,00,AAXX 13124 41936 11430 63506 10292 20260 39961 49968 60001 70596 84630 333 10342 59028 70100 82710 83615 85362==
41936,2024,09,13,15,00,AAXX 13154 41936 01312 73204 10250 20230 39982 49989 79596 84930 333 59018 70380 82708 83615 86362 81930==
41936,2024,09,13,18,00,AAXX 13184 41936 01314 63204 10260 20240 39961 49968 70596 83630 333 59039 70410 82708 83615 86362==
41936,2024,09,13,21,00,AAXX 13214 41936 01312 73503 10242 20220 39920 49928 76196 83630 333 59072 70460 82708 83615 86362==
41936,2024,09,14,00,00,AAXX 14004 41936 01310 73417 10250 20230 39916 49923 76362 83630 333 59068 70200 83708 83615 86362==
41936,2024,09,14,03,00,AAXX 14034 41936 01214 81212 10260 20250 39940 49947 76166 8572/ 333 20230 59053 70810 85707 83615 88460==
41936,2024,09,14,06,00,AAXX 14064 41936 21316 80808 10272 20260 39942 49949 76166 8572/ 333 59045 60219 70820 84707 83615 88460==
41936,2024,09,14,09,00,AAXX 14094 41936 01316 80907 10274 20250 39914 49921 76166 8572/ 333 59041 70860 84708 83615 88460==
41936,2024,09,14,12,00,AAXX 14124 41936 21316 80810 10270 20260 39915 49922 76166 8572/ 333 10276 59046 60089 70730 84708 83615 88460==
41936,2024,09,14,15,00,AAXX 14154 41936 01312 81312 10264 20250 39928 49935 76366 8572/ 333 59054 70550 84707 83615 88460==
41936,2024,09,14,18,00,AAXX 14184 41936 01312 81317 10260 20250 39923 49930 76366 8572/ 333 59038 70630 84707 83615 88460==
41936,2024,09,14,21,00,AAXX 14214 41936 01310 81524 10252 20230 39903 49910 76366 8572/ 333 59018 70640 84707 83615 88460==
41936,2024,09,15,00,00,AAXX 15004 41936 01310 81212 10248 20240 39918 49925 76366 8572/ 333 58002 70810 84707 83615 88460==
41936,2024,09,15,03,00,AAXX 15034 41936 01310 81413 10252 20240 39939 49946 76366 8672/ 333 20236 59001 70780 85707 83615 88460==
41936,2024,09,15,06,00,AAXX 15064 41936 01308 81316 10256 20250 39943 49950 76166 8672/ 333 58001 71190 85707 83615 88460==
41936,2024,09,15,09,00,AAXX 15094 41936 01308 81514 10262 20250 39934 49941 76366 8672/ 333 58020 71250 85706 83615 88460==
41936,2024,09,15,12,00,AAXX 15124 41936 21314 81510 10262 20250 39937 49944 79596 8672/ 333 10266 58022 60139 71240 85706 83615 88460==
41936,2024,09,15,15,00,AAXX 15154 41936 01316 81312 10262 20250 39966 49973 76196 8672/ 333 58038 71410 85707 83615 88460==
41936,2024,09,15,18,00,AAXX 15184 41936 21316 81508 10260 20250 39971 49978 79596 8692/ 333 58048 60329 71420 85707 83615 88460 81930==
41936,2024,09,15,21,00,AAXX 15214 41936 01316 81210 10256 20250 39961 49968 76196 8672/ 333 58058 71380 85707 83615 88460==
41936,2024,09,16,00,00,AAXX 16004 41936 21316 81512 10252 20240 39978 49985 79596 8692/ 333 58060 60059 71090 85707 83615 88460 81930==
41936,2024,09,16,03,00,AAXX 16034 41936 01314 81210 10260 20250 30003 40010 79596 8692/ 333 20244 58064 70990 85707 83615 88460 81930==
41936,2024,09,16,06,00,AAXX 16064 41936 21312 81708 10266 20260 30010 40017 79596 8692/ 333 58067 60139 70630 85707 83615 88460 81930==
41936,2024,09,16,09,00,AAXX 16094 41936 01312 82409 10262 20250 30012 40019 79596 8692/ 333 58078 70580 85707 83615 88460 81930==
41936,2024,09,16,12,00,AAXX 16124 41936 21316 71803 10262 20250 30007 40014 70596 85630 333 10272 58070 60087 70580 83708 83615 87362==
41936,2024,09,16,15,00,AAXX 16154 41936 01316 51703 10260 20250 30028 40035 70522 82830 333 58062 70350 82615 83362==
41936,2024,09,16,18,00,AAXX 16184 41936 01316 41803 10260 20250 30031 40038 70511 82530 333 58060 70260 82615 83362==
41936,2024,09,16,21,00,AAXX 16214 41936 01312 51304 10250 20240 30007 40014 70522 82830 333 58046 70240 82615 83362==
41936,2024,09,17,00,00,AAXX 17004 41936 41310 51504 10250 20240 30036 40043 70522 82830 333 58058 82615 83362==
41936,2024,09,17,03,00,AAXX 17034 41936 01420 51705 10292 20260 30062 40069 70522 82830 333 20242 58059 70160 82615 85362==
41936,2024,09,17,06,00,AAXX 17064 41936 01435 31814 10330 20250 30056 40063 70521 82830 333 58046 70080 82615==
41936,2024,09,17,09,00,AAXX 17094 41936 01440 41506 10340 20260 30024 40031 70521 82830 333 59012 70010 82615 83362==
41936,2024,09,17,12,00,AAXX 17124 41936 01450 21604 10324 20250 30020 40027 70511 82800 333 10342 58013 70000 81615==
41936,2024,09,17,15,00,AAXX 17154 41936 01/50 10000 10294 20270 30037 40044 70511 81030 333 58009 70000 81362==
41936,2024,09,17,18,00,AAXX 17184 41936 01/50 10000 10288 20270 30042 40049 70511 81030 333 58011 70000 81362==
41936,2024,09,17,21,00,AAXX 17214 41936 01/30 10000 10276 20260 30035 40042 70511 81030 333 58028 70000 81362==
41936,2024,09,18,00,00,AAXX 18004 41936 01/12 20000 10262 20250 30037 40044 70511 82030 333 58001 70000 82362==
41936,2024,09,18,03,00,AAXX 18034 41936 01430 20000 10292 20260 30049 40056 70511 82500 333 59013 70000 82615==
41936,2024,09,18,06,00,AAXX 18064 41936 01440 42803 10328 20270 30041 40048 70511 83830 333 59019 70000 83615 82362==
41936,2024,09,18,09,00,AAXX 18094 41936 01450 42703 10344 20260 30013 40020 70511 82830 333 59011 70000 82615==
41936,2024,09,18,12,00,AAXX 18124 41936 01450 40000 10320 20270 30010 40017 70511 82830 333 10346 59010 70000 82615 83362==
41936,2024,09,18,15,00,AAXX 18154 41936 01/50 20000 10292 20270 30029 40036 70511 82030 333 59008 70000 82362==
41936,2024,09,18,18,00,AAXX 18184 41936 01/50 10000 10286 20280 30032 40039 70511 81030 333 59010 70000 81362==
41936,2024,09,18,21,00,AAXX 18214 41936 01/30 10000 10284 20270 30025 40032 70511 81030 333 59010 70000 81362==
41936,2024,09,19,00,00,AAXX 19004 41936 01/16 20000 10274 20260 30034 40041 70511 82030 333 59003 70000 82362==
41936,2024,09,19,03,00,AAXX 19034 41936 01/20 50403 10304 20270 30044 40051 70521 85030 333 20272 59005 70000 85362==
41936,2024,09,19,06,00,AAXX 19064 41936 01450 30603 10354 20270 30039 40046 70521 82530 333 59002 70000 82615==
41936,2024,09,19,09,00,AAXX 19094 41936 01450 33404 10354 20290 30004 40010 70521 82530 333 59010 70000 82615==
41936,2024,09,19,12,00,AAXX 19124 41936 01450 33603 10340 20280 39999 40006 70521 82530 333 10362 59011 70000 82615==
41936,2024,09,19,15,00,AAXX 19154 41936 41450 42704 10304 20280 30025 40029 70522 82830 333 59004 82615 84362==
41936,2024,09,19,18,00,AAXX 19184 41936 01440 42603 10294 20270 30030 40037 70522 82830 333 59002 70000 82615 84362==
41936,2024,09,19,21,00,AAXX 19214 41936 01430 42703 10292 20270 30024 40031 70511 82830 333 59001 70000 82615 84362==
41938,2024,09,13,00,00,AAXX 13004 41938 31456 63001 10283 20270 39984 49988 70292 83310 333 56990 59025 70122 82617 81926 85460=
41938,2024,09,13,06,00,AAXX 13064 41938 32456 73002 10314 20270 39989 49993 82510 333 56890 59028 70080 82617 87460=
41938,2024,09,13,12,00,AAXX 13124 41938 11335 80501 10255 20255 39958 49962 60447 76196 8332/ 333 10327 56199 59035 70444 81708 83616 81929 88459=
41938,2024,09,13,18,00,AAXX 13184 41938 11335 83404 10256 20256 39953 49957 60053 76162 8572/ 333 56899 59041 70492 81708 84616 88459=
41938,2024,09,14,00,00,AAXX 14004 41938 11330 81805 10252 20250 39925 49929 60469 76166 8672/ 333 56499 59059 70956 82708 85615 88459=
41938,2024,09,14,06,00,AAXX 14064 41938 11456 81103 10272 20260 39951 49955 60033 72162 8642/ 333 56299 59038 70985 85616 88459=
41938,2024,09,14,12,00,AAXX 14124 41938 11320 81105 10255 20255 39934 49938 60293 76162 8672/ 333 10280 56299 59024 70829 83707 84614 88457=
41938,2024,09,14,18,00,AAXX 14184 41938 11335 81307 10255 20255 39946 49950 60559 76166 8632/ 333 56399 59007 71333 83708 84614 81927 88457=
41938,2024,09,15,00,00,AAXX 15004 41938 11310 81307 10253 20250 39945 49949 60469 76366 8632/ 333 56399 58020 71329 83707 84613 81927 88456=
41938,2024,09,15,06,00,AAXX 15064 41938 11325 81205 10260 20260 39965 49969 60203 76162 8632/ 333 56399 58014 71502 83707 84613 81927 88456=
41938,2024,09,15,12,00,AAXX 15124 41938 11330 81302 10252 20250 39952 49956 60299 76166 8672/ 333 10260 56299 58018 71507 82708 85615 88459=
41938,2024,09,15,18,00,AAXX 15184 41938 11430 70000 10254 20240 39983 49987 60029 76166 84510 333 56990 58037 70970 84618 88459=
41938,2024,09,16,00,00,AAXX 16004 41938 11430 70000 10263 20260 39991 49995 60149 76166 84510 333 56990 58046 70050 84618 85459=
41938,2024,09,16,06,00,AAXX 16064 41938 11440 70000 10280 20260 30021 40025 60058 70166 84510 333 56990 58056 70500 84618 85458=
41938,2024,09,16,12,00,AAXX 16124 41938 32456 31801 10280 20260 30018 40022 81510 333 10306 56990 58066 70207 81618 83460=
41938,2024,09,16,18,00,AAXX 16184 41938 32450 61601 10267 20260 30041 40045 83510 333 56390 58058 70192 83616 84460=
41938,2024,09,17,00,00,AAXX 17004 41938 32450 41601 10265 20265 30038 40042 82510 333 56390 58047 70052 82617 83460=
41938,2024,09,17,06,00,AAXX 17064 41938 32456 31602 10322 20250 30060 40064 83400 333 56300 58039 70000 82617=
41938,2024,09,17,12,00,AAXX 17124 41938 32456 20000 10300 20280 30027 40031 81401 333 10333 56209 58009 70000 81618=
41938,2024,09,17,18,00,AAXX 17184 41938 31945 00000 10271 20260 30041 40045 70500 333 58000 70000=
41938,2024,09,18,00,00,AAXX 18004 41938 31930 10000 10260 20250 30038 40042 70500 80001 333 56009 58000 70000 81080=
41938,2024,09,18,06,00,AAXX 18064 41938 32456 50301 10322 20270 30043 40047 85400 333 56200 59017 70000 83618 83825=
41938,2024,09,18,09,00,AAXX 18094 41938 NIL=
41938,2024,09,18,12,00,AAXX 18124 41938 31950 50000 10310 20280 30016 40020 70521 83011 333 10341 56099 59011 70000 83460 83080=
41938,2024,09,18,18,00,AAXX 18184 41938 31445 70000 10287 20280 30031 40035 70521 82570 333 56290 59010 70000 82619 86460=
41938,2024,09,19,00,00,AAXX 19004 41938 31440 80000 10280 20270 30028 40032 70522 8252/ 333 56399 59010 70000 82619 88459=
41938,2024,09,19,06,00,AAXX 19064 41938 32456 43601 10343 20280 30037 40041 82410 333 56890 59006 70000 81618 83460=
41938,2024,09,19,12,00,AAXX 19124 41938 32456 32501 10301 20270 30003 40007 81510 333 10352 56990 59013 70000 81618 83460=
41938,2024,09,19,18,00,AAXX 19184 41938 32456 30000 10296 20290 30028 40032 81510 333 56390 59003 70000 81616 83460=
41939,2024,09,13,00,00,AAXX 13004 41939 21457 40000 10275 20270 39983 49991 70162 82530 333 59033 60148 70248 82618 83364==
41939,2024,09,13,03,00,AAXX 13034 41939 02458 70000 10303 20260 39997 40005 83510 333 20263 59031 70212 83617 86459==
41939,2024,09,13,06,00,AAXX 13064 41939 02459 70000 10315 20280 39988 49996 83510 333 59020 70212 83617 86459==
41939,2024,09,13,09,00,AAXX 13094 41939 02460 50000 10330 20280 39950 49958 83530 333 59032 70142 83618 83365==
41939,2024,09,13,12,00,AAXX 13124 41939 21456 80000 10263 20250 39960 49968 70362 8352/ 333 10330 59026 60347 70483 83617 88459==
41939,2024,09,13,15,00,AAXX 13154 41939 02440 50000 10270 20250 39981 49989 82510 333 59015 70483 82618 85459==
41939,2024,09,13,18,00,AAXX 13184 41939 21440 80000 10260 20250 39990 49998 76162 8352/ 333 59020 60057 70533 83616 88459==
41939,2024,09,13,21,00,AAXX 13214 41939 01456 80000 10262 20240 39995 40003 76366 8352/ 333 58005 70441 83615 88459==
41939,2024,09,14,00,00,AAXX 14004 41939 21456 80000 10260 20240 30000 40008 70262 8352/ 333 58017 60097 70481 83617 88459==
41939,2024,09,14,03,00,AAXX 14034 41939 01456 80000 10265 20260 39975 49983 76166 8352/ 333 20255 59022 70561 83615 88458==
41939,2024,09,14,06,00,AAXX 14064 41939 21350 80000 10265 20260 39976 49984 76162 8672/ 333 59012 60409 70879 82708 84615 88457==
41939,2024,09,14,09,00,AAXX 14094 41939 01350 80000 10270 20260 39976 49984 76166 8472/ 333 58026 70913 81710 83616 88458==
41939,2024,09,14,12,00,AAXX 14124 41939 21450 80403 10257 20250 39966 49974 76166 8352/ 333 10270 58006 60349 70878 83615 88458==
41939,2024,09,14,15,00,AAXX 14154 41939 01440 80000 10255 20250 39985 49993 76166 8352/ 333 58004 71044 83615 88458==
41939,2024,09,14,18,00,AAXX 14184 41939 21440 80000 10255 20250 39993 40004 76166 8352/ 333 58003 60319 71304 83615 88458==
41939,2024,09,14,21,00,AAXX 14214 41939 01330 80000 10258 20250 39994 40002 76166 8472/ 333 59001 71594 81710 83616 88458==
41939,2024,09,15,00,00,AAXX 15004 41939 21350 80000 10260 20250 39995 40003 76166 8472/ 333 59005 60459 71664 81710 83616 88458==
41939,2024,09,15,03,00,AAXX 15034 41939 01356 80000 10264 20250 39980 49988 76166 8472/ 333 20248 71630 81710 83616 88458==
41939,2024,09,15,06,00,AAXX 15064 41939 21356 80000 10270 20260 39990 49998 76166 8472/ 333 58014 60079 71334 81710 83616 88458==
41939,2024,09,15,09,00,AAXX 15094 41939 01350 80000 10278 20270 39966 49974 76166 8372/ 333 59010 71325 81710 83616 88458==
41939,2024,09,15,12,00,AAXX 15124 41939 21450 80000 10265 20260 39977 49985 76166 8352/ 333 10280 58011 60089 71073 83616 88458==
41939,2024,09,15,15,00,AAXX 15154 41939 01450 80000 10266 20260 39996 40004 70262 8352/ 333 58011 70941 83617 88459==
41939,2024,09,15,18,00,AAXX 15184 41939 21440 80000 10260 20250 30008 40016 76162 8352/ 333 58015 60089 70679 83616 88458==
41939,2024,09,15,21,00,AAXX 15214 41939 01440 80000 10258 20250 30004 40012 70262 8352/ 333 58010 70421 83617 88459==
41939,2024,09,16,00,00,AAXX 16004 41939 21456 80000 10270 20260 30000 40008 70262 8352/ 333 58005 60087 70311 83617 88459==
41939,2024,09,16,03,00,AAXX 16034 41939 02457 80000 10275 20270 30012 40020 8352/ 333 20248 58032 70265 83617 88459==
41939,2024,09,16,06,00,AAXX 16064 41939 02458 50000 10315 20280 30025 40033 83510 333 58035 70243 83617 85460==
41939,2024,09,16,09,00,AAXX 16094 41939 02459 40000 10313 20270 30024 40032 82530 333 58058 70218 82618 83362==
41939,2024,09,16,12,00,AAXX 16124 41939 02456 30000 10294 20260 30026 40034 81530 333 10320 58049 70164 81618 83365==
41939,2024,09,16,15,00,AAXX 16154 41939 02456 20000 10278 20270 30044 40052 81530 333 58048 70130 81618==
41939,2024,09,16,21,00,AAXX 16214 41939 02456 60000 10268 20260 30055 40063 83530 333 58051 70000 83617 83365==
41939,2024,09,17,00,00,AAXX 17004 41939 02456 60000 10265 20265 30051 40059 83530 333 58051 70000 83617 83364==
41939,2024,09,17,03,00,AAXX 17034 41939 02458 70000 10283 20270 30068 40076 83510 333 20263 58056 70000 83617 86459==
41939,2024,09,17,06,00,AAXX 17064 41939 02458 40000 10325 20280 30056 40064 82530 333 58031 70000 82618 83362==
41939,2024,09,17,09,00,AAXX 17094 41939 42459 20000 10327 20260 30033 40041 58009 81618==
41939,2024,09,17,12,00,AAXX 17124 41939 02957 00000 10303 20280 30029 40037 333 10330 58003 70000==
41939,2024,09,17,15,00,AAXX 17154 41939 02957 00000 10285 20280 30045 40053 333 58001 70000==
41939,2024,09,17,18,00,AAXX 17184 41939 02957 00000 10278 20270 30055 40063 333 58002 70000==
41939,2024,09,17,21,00,AAXX 17214 41939 02950 00000 10275 20270 30050 40058 333 59005 70000==
41939,2024,09,18,00,00,AAXX 18004 41939 02956 00000 10270 20260 30046 40054 333 59005 70000==
41939,2024,09,18,03,00,AAXX 18034 41939 02458 30000 10295 20270 30062 40070 83500 333 20266 59006 70000 83618==
41939,2024,09,18,06,00,AAXX 18064 41939 02458 40000 10324 20270 30046 40054 82530 333 59010 70000 82618 83360==
41939,2024,09,18,09,00,AAXX 18094 41939 02459 20000 10335 20260 30013 40020 82530 333 59020 70000 82618==
41939,2024,09,18,12,00,AAXX 18124 41939 02457 60000 10318 20280 30012 40020 83510 333 10340 59017 70000 83618 85459==
41939,2024,09,18,15,00,AAXX 18154 41939 02950 00000 10301 20270 30031 40039 333 59014 70000==
41939,2024,09,18,18,00,AAXX 18184 41939 02950 00000 10285 20270 30045 40053 333 59010 70000==
41939,2024,09,18,21,00,AAXX 18214 41939 02456 60000 10280 20270 30040 40048 83510 333 59010 70000 83617 86459==
41939,2024,09,19,00,00,AAXX 19004 41939 02456 80000 10285 20280 30035 40043 8352/ 333 59011 70000 83617 88459 86900==
41939,2024,09,19,03,00,AAXX 19034 41939 02458 20000 10322 20280 30050 40058 81530 333 20268 59012 70000 81618==
41939,2024,09,19,06,00,AAXX 19064 41939 02940 00000 10277 20260 30033 40041 333 59017 70004==
41939,2024,09,19,09,00,AAXX 19094 41939 02459 30000 10348 20270 30005 40013 83430 333 59008 70000 82618==
41939,2024,09,19,12,00,AAXX 19124 41939 02458 40000 10320 20280 30000 40008 83430 333 10353 59012 70000 82618 82364==
41939,2024,09,19,15,00,AAXX 19154 41939 02456 50000 10303 20270 30018 40026 83530 333 59013 70000 83618 83365==
41939,2024,09,19,21,00,AAXX 19214 41939 02956 00000 10294 20280 30028 40036 333 59012 70000==
41941,2024,09,13,00,00,AAXX 13004 41941 02456 50000 10272 20260 39981 49986 82520 333 59033 70030 82614 85458==
41941,2024,09,13,03,00,AAXX 13034 41941 02456 73602 10296 20270 39994 40000 85520 333 20272 59030 70020 85614 87458==
41941,2024,09,13,06,00,AAXX 13064 41941 02450 80803 10319 20280 39988 49994 8632/ 333 59021 70020 85616 88458 81930==
41941,2024,09,13,09,00,AAXX 13094 41941 02456 83603 10330 20260 39959 49965 8632/ 333 59018 70020 85616 88458 81930==
41941,2024,09,13,12,00,AAXX 13124 41941 11450 80203 10276 20250 39968 49973 60016 70262 8632/ 333 10341 59019 70010 85616 88458 81930==
41941,2024,09,13,15,00,AAXX 13154 41941 01440 82605 10274 20250 39969 49974 72162 8632/ 333 59030 70020 85616 88458 81930==
41941,2024,09,13,18,00,AAXX 13184 41941 11440 80808 10257 20250 39953 49958 60046 72162 8632/ 333 59029 70050 85616 88458 81930==
41941,2024,09,13,21,00,AAXX 13214 41941 01430 80807 10256 20256 39955 49960 76162 8632/ 333 59023 70090 85616 88458 81930==
41941,2024,09,14,00,00,AAXX 14004 41941 21440 80806 10260 20260 39959 49965 72166 8632/ 333 59022 60119 70160 85616 88458 81930==
41941,2024,09,14,03,00,AAXX 14034 41941 01350 80811 10258 20258 39985 49991 76562 8672/ 333 20256 59009 70330 82708 84612 88456 81924==
41941,2024,09,14,06,00,AAXX 14064 41941 21340 81804 10266 20266 39979 49982 76366 8772/ 333 59012 60319 82708 84612 88456 81924==
41941,2024,09,14,09,00,AAXX 14094 41941 02340 81802 10260 20260 39966 49972 8772/ 333 58007 70732 82708 84612 88456 81924==
41941,2024,09,14,15,00,AAXX 14154 41941 01330 81802 10255 20255 39995 40000 76166 8772/ 333 58006 70808 82708 84612 88456==
41941,2024,09,14,18,00,AAXX 14184 41941 NIL=
41941,2024,09,15,03,00,AAXX 15034 41941 01350 81802 10265 20265 30002 40008 76162 8772/ 333 20248 58017 70104 82708 84612 88456 81924==
41941,2024,09,15,06,00,AAXX 15064 41941 01340 81802 10265 20250 30001 40007 79596 8792/ 333 58025 71012 82708 84612 88456 81924==
41941,2024,09,15,09,00,AAXX 15094 41941 01350 81802 10270 20260 39987 49993 76196 8772/ 333 58021 70836 82708 84612 88456 81924==
41941,2024,09,15,12,00,AAXX 15124 41941 01450 81802 10265 20260 39990 49996 76196 8772/ 333 10274 58014 70886 82708 84612 88456 81924==
41941,2024,09,15,15,00,AAXX 15154 41941 01340 81802 10270 20260 30012 40018 76166 8772/ 333 58017 70880 82708 84612 88456 81924==
41941,2024,09,15,18,00,AAXX 15184 41941 11340 81802 10272 20250 30015 40020 60066 70262 8662/ 333 58010 70840 82708 84614 88456 81925==
41941,2024,09,15,21,00,AAXX 15214 41941 02340 81802 10270 20250 30014 40019 8662/ 333 58017 70740 82708 84614 88456 81925==
41941,2024,09,16,00,00,AAXX 16004 41941 02340 81802 10272 20250 30013 40018 8662/ 333 58011 70540 82708 84614 88456 81925==
41941,2024,09,16,03,00,AAXX 16034 41941 02456 71802 10286 20270 30038 40044 85420 333 20256 58036 70460 84616 87458==
41941,2024,09,16,06,00,AAXX 16064 41941 02456 61803 10314 20260 30037 40043 83520 333 58036 70410 83616 85458==
41941,2024,09,16,09,00,AAXX 16094 41941 02456 51802 10317 20270 30022 40028 82520 333 58035 70240 82616 84458==
41941,2024,09,16,12,00,AAXX 16124 41941 02456 40000 10300 20270 30023 40029 82540 333 10330 58033 70060 82616 83362==
41941,2024,09,16,15,00,AAXX 16154 41941 02456 40000 10280 20270 30045 40051 82540 333 58033 70020 82618 83362==
41941,2024,09,16,18,00,AAXX 16184 41941 02956 00000 10275 20270 30045 40051 333 58030 70000==
41941,2024,09,16,21,00,AAXX 16214 41941 02956 00000 10272 20270 30046 40052 333 58032 70000==
41941,2024,09,17,00,00,AAXX 17004 41941 02456 40000 10270 20270 30049 40055 83510 333 58036 70000 83616==
41941,2024,09,17,03,00,AAXX 17034 41941 01350 81802 10282 20270 30071 40077 72122 8662/ 333 20267 58033 70010 82708 83614 88457==
41941,2024,09,17,06,00,AAXX 17064 41941 22350 83602 10323 20260 30058 40064 8662/ 333 58021 60015 70010 82708 83613 88456==
41941,2024,09,17,09,00,AAXX 17094 41941 02456 61803 10335 20270 30033 40038 85420 333 58011 70010 84616 86458==
41941,2024,09,17,12,00,AAXX 17124 41941 02450 40000 10306 20270 30030 40035 83510 333 10346 58007 70010 83616==
41941,2024,09,17,15,00,AAXX 17154 41941 02440 60000 10284 20270 30047 40053 85420 333 58002 70010 84616 86458==
41941,2024,09,17,18,00,AAXX 17184 41941 02940 00000 10280 20270 30050 40056 333 58005 70010==
41941,2024,09,17,21,00,AAXX 17214 41941 02440 60000 10276 20270 30047 40053 85420 333 58001 70010 84616 86458==
41941,2024,09,18,00,00,AAXX 18004 41941 02450 60000 10273 20270 30042 40048 85420 333 59007 70010 84616 86458==
41941,2024,09,18,03,00,AAXX 18034 41941 02456 60000 10305 20280 30054 40060 85420 333 20272 59017 70000 84616 86458==
41941,2024,09,18,06,00,AAXX 18064 41941 02456 52703 10335 20270 30044 40049 84420 333 59014 70000 83616 85458==
41941,2024,09,18,09,00,AAXX 18094 41941 02456 61802 10342 20270 30010 40015 85420 333 59023 70000 84616 86458==
41941,2024,09,18,12,00,AAXX 18124 41941 02450 80000 10324 20290 39999 40005 8632/ 333 10348 59031 70000 85616 88458 81928==
41941,2024,09,18,15,00,AAXX 18154 41941 02440 71802 10300 20290 30027 40032 85420 333 59020 70000 84616 87458==
41941,2024,09,18,18,00,AAXX 18184 41941 02440 70000 10290 20280 30037 40042 85420 333 59013 70000 84616 87458==
41941,2024,09,18,21,00,AAXX 18214 41941 02440 70000 10290 20280 30021 40026 85420 333 59026 70000 84616 87458==
41941,2024,09,19,00,00,AAXX 19004 41941 01450 81802 10285 20285 30029 40034 72162 8632/ 333 59020 70010 85612 88456 81924==
41941,2024,09,19,03,00,AAXX 19034 41941 02456 61802 10325 20290 30043 40048 85420 333 20278 59011 70010 84616 86458==
41941,2024,09,19,06,00,AAXX 19064 41941 02456 61802 10346 20290 30034 40039 85420 333 59010 70010 84616 86458==
41941,2024,09,19,09,00,AAXX 19094 41941 01356 80000 10340 20280 30004 40010 72122 8662/ 333 59006 70010 82708 86415 88457 81925==
41941,2024,09,19,12,00,AAXX 19124 41941 21456 61802 10328 20300 30004 40010 70262 84520 333 10365 58005 60005 70010 84616 86458==
41941,2024,09,19,15,00,AAXX 19154 41941 02450 50000 10310 20300 30021 40026 84420 333 59006 70010 83616 85458==
41941,2024,09,19,21,00,AAXX 19214 41941 02450 60000 10300 20290 30020 40025 85420 333 59001 70010 84616 86458==
41943,2024,09,13,00,00,AAXX 13004 41943 21435 70101 10260 20240 39975 49982 70162 83520 333 59032 60028 70032 83616 85458==
41943,2024,09,13,03,00,AAXX 13034 41943 02440 70000 10280 20260 39990 49997 83520 333 20260 59034 70032 83616 85458==
41943,2024,09,13,06,00,AAXX 13064 41943 02445 71702 10320 20250 39982 49989 83510 333 59022 70032 83616 85458==
41943,2024,09,13,09,00,AAXX 13094 41943 02450 71702 10325 20250 39958 49965 83520 333 59017 70032 83616 85458==
41943,2024,09,13,12,00,AAXX 13124 41943 21330 81603 10260 20240 39960 49967 76162 8662/ 333 10330 59014 60029 70046 84709 84615 88457==
41943,2024,09,13,15,00,AAXX 13154 41943 01330 71505 10275 20270 39966 49973 70162 86610 333 59030 70082 83709 83615 87458==
41943,2024,09,13,18,00,AAXX 13184 41943 01330 81703 10270 20260 39969 49976 76362 8672/ 333 59023 70184 83709 84615 88457==
41943,2024,09,13,21,00,AAXX 13214 41943 01330 81604 10250 20240 39972 49979 76362 8672/ 333 59010 70282 83709 84615 88457==
41943,2024,09,14,00,00,AAXX 14004 41943 21330 81703 10245 20240 39977 49984 76366 8672/ 333 58002 60289 70444 83709 84615 83457==
41943,2024,09,14,03,00,AAXX 14034 41943 01330 81803 10250 20230 39998 40005 76266 8672/ 333 20240 58008 70534 83709 84615 88457==
41943,2024,09,14,06,00,AAXX 14064 41943 21335 81803 10260 20240 39994 40001 70262 8562/ 333 58012 60105 70544 83710 84613 88458==
41943,2024,09,14,09,00,AAXX 14094 41943 01335 81804 10265 20250 39975 49982 70362 8562/ 333 58017 70554 83710 84613 88458==
41943,2024,09,14,12,00,AAXX 14124 41943 21330 81802 10250 20240 39979 49986 70362 8662/ 333 10295 58019 60047 70560 83710 84613 88458==
41943,2024,09,14,15,00,AAXX 14154 41943 02330 81802 10252 20240 39998 40005 8662/ 333 58032 70524 83710 84614 88458==
41943,2024,09,14,18,00,AAXX 14184 41943 02330 81802 10250 20240 30000 40007 8662/ 333 58031 70422 83710 84613 88458==
41943,2024,09,14,21,00,AAXX 14214 41943 02330 81802 10252 20240 39992 49999 8662/ 333 58020 70302 83710 84613 88458==
41943,2024,09,15,00,00,AAXX 15004 41943 02330 81802 10254 20240 39984 49991 8662/ 333 58007 70140 83710 84614 88458==
41943,2024,09,15,03,00,AAXX 15034 41943 01330 81802 10254 20240 30010 40017 76162 8772/ 333 20248 58012 70120 83709 84613 88458==
41943,2024,09,15,06,00,AAXX 15064 41943 21335 81803 10268 20250 30007 40014 70262 8662/ 333 58013 60095 70130 83709 84614 88458==
41943,2024,09,15,09,00,AAXX 15094 41943 02335 81304 10284 20240 39986 40003 8662/ 333 58011 70120 83710 83710 84614 88458==
41943,2024,09,15,12,00,AAXX 15124 41943 02330 81303 10280 20250 39995 40002 8662/ 333 10286 58016 70090 83710 84614 88458==
41943,2024,09,15,15,00,AAXX 15154 41943 02430 71802 10270 20250 30015 40022 84520 333 58017 70090 84615 85458==
41943,2024,09,15,18,00,AAXX 15184 41943 02430 81302 10264 20240 30025 40032 8662/ 333 58025 70090 83710 84614 88458==
41943,2024,09,15,21,00,AAXX 15214 41943 02330 81302 10260 20240 30022 40029 8662/ 333 58030 70090 83710 84614 88458==
41943,2024,09,16,00,00,AAXX 16004 41943 02330 80000 10256 20250 30020 40027 8662/ 333 59036 70090 83710 84614 88458==
41943,2024,09,16,03,00,AAXX 16034 41943 02440 61302 10296 20250 30044 40051 83520 333 20254 58034 70020 83616 85458==
41943,2024,09,16,06,00,AAXX 16064 41943 02440 61304 10328 20250 30046 40053 83520 333 58039 70000 83616 85458==
41943,2024,09,16,09,00,AAXX 16094 41943 02440 51802 10320 20250 30026 40033 83520 333 58040 70000 83616 84458==
41943,2024,09,16,12,00,AAXX 16124 41943 02435 61802 10298 20260 30022 40029 83520 333 10330 58027 70000 83616 85458==
41943,2024,09,16,15,00,AAXX 16154 41943 02430 51802 10274 20250 30046 40053 83530 333 58031 70000 83616 84362==
41943,2024,09,16,18,00,AAXX 16184 41943 02430 51802 10268 20260 30051 40058 83530 333 58026 70000 83616 84362==
41943,2024,09,16,21,00,AAXX 16214 41943 02430 71802 10266 20260 30051 40058 83620 333 58029 70000 83616 86458==
41943,2024,09,17,00,00,AAXX 17004 41943 02330 80000 10264 20250 30050 40057 8662/ 333 58030 70000 83710 84614 88458==
41943,2024,09,17,03,00,AAXX 17034 41943 02440 61302 10310 20250 30073 40080 83520 333 20262 58029 70000 83616 84458==
41943,2024,09,17,06,00,AAXX 17064 41943 02440 61302 10328 20250 30060 40067 83520 333 58014 70000 83616 84458==
41943,2024,09,17,09,00,AAXX 17094 41943 02440 51802 10346 20250 30033 40040 83530 333 58007 70000 83616 83362==
41943,2024,09,17,12,00,AAXX 17124 41943 02435 61802 10312 20250 30025 40032 83520 333 10350 58003 70000 83616 84458==
41943,2024,09,17,15,00,AAXX 17154 41943 02430 61802 10288 20260 30042 40049 83520 333 59004 70000 83616 85458==
41943,2024,09,17,18,00,AAXX 17184 41943 02430 81802 10274 20240 30047 40054 8662/ 333 59004 70000 83710 84614 88458==
41943,2024,09,17,21,00,AAXX 17214 41943 02430 80000 10272 20260 30044 40051 8662/ 333 59007 70000 83710 84614 88458==
41943,2024,09,18,00,00,AAXX 18004 41943 02435 80000 10270 20260 30040 40047 8662/ 333 59010 70000 83710 84614 88458==
41943,2024,09,18,03,00,AAXX 18034 41943 02440 61802 10310 20250 30052 40059 83520 333 20268 59021 70000 83616 84458==
41943,2024,09,18,06,00,AAXX 18064 41943 02440 61802 10330 20250 30037 40044 83530 333 59023 70000 83616 84362==
41943,2024,09,18,09,00,AAXX 18094 41943 02440 60000 10326 20260 30008 40015 84430 333 59025 70000 83617 84362==
41943,2024,09,18,12,00,AAXX 18124 41943 02435 60000 10317 20250 30004 40011 83530 333 10336 59021 70000 83616 84362==
41943,2024,09,18,15,00,AAXX 18154 41943 02430 70000 10300 20260 30029 40036 84520 333 59013 70000 84616 86458==
41943,2024,09,18,18,00,AAXX 18184 41943 02430 80000 10285 20270 30032 40039 8662/ 333 59015 70000 83710 84615 88458==
41943,2024,09,18,21,00,AAXX 18214 41943 02430 80000 10273 20260 30031 40038 8662/ 333 59013 70000 83710 84615 88458==
41943,2024,09,19,00,00,AAXX 19004 41943 11430 80000 10260 20250 30035 40042 60012 70262 8662/ 333 59005 70010 83710 84615 88458==
41943,2024,09,19,03,00,AAXX 19034 41943 02440 70000 10315 20250 30041 40048 84420 333 20240 59011 70010 83616 85458==
41943,2024,09,19,06,00,AAXX 19064 41943 02440 60000 10350 20240 30030 40037 84420 333 59007 70010 83617 85458==
41943,2024,09,19,09,00,AAXX 19094 41943 02440 53103 10365 20240 39999 40006 85400 333 59009 70010 83618 83825==
41943,2024,09,19,12,00,AAXX 19124 41943 02435 60000 10330 20260 39991 49998 84420 333 10370 59013 70010 83616 85458==
41943,2024,09,19,15,00,AAXX 19154 41943 02430 60000 10300 20260 30021 40028 83520 333 59008 70010 83616 85458==
41943,2024,09,19,18,00,AAXX 19184 41943 02430 50000 10285 20270 30033 40040 83530 333 58001 70010 83618 83362==
41943,2024,09,19,21,00,AAXX 19214 41943 02430 80000 10280 20270 30022 40029 8662/ 333 59009 70010 83710 84615 88458==
41944,2024,09,13,06,00,AAXX 13064 41944 NIL=
41944,2024,09,13,12,00,AAXX 13124 41944 NIL=
41944,2024,09,13,18,00,AAXX 13184 41944 NIL=
41944,2024,09,14,06,00,AAXX 14064 41944 NIL=
41944,2024,09,14,18,00,AAXX 14184 41944 NIL=
41944,2024,09,15,06,00,AAXX 15064 41944 NIL=
41944,2024,09,15,12,00,AAXX 15124 41944 NIL=
41944,2024,09,16,06,00,AAXX 16064 41944 NIL=
41944,2024,09,16,12,00,AAXX 16124 41944 NIL=
41944,2024,09,17,00,00,AAXX 17004 41944 NIL=
41944,2024,09,17,06,00,AAXX 17064 41944 NIL=
41944,2024,09,17,12,00,AAXX 17124 41944 NIL=
41944,2024,09,17,18,00,AAXX 17184 41944 NIL=
41944,2024,09,18,06,00,AAXX 18064 41944 NIL=
41944,2024,09,18,09,00,AAXX 18094 41944 NIL=
41944,2024,09,18,12,00,AAXX 18124 41944 NIL=
41944,2024,09,18,18,00,AAXX 18184 41944 NIL=
41944,2024,09,19,00,00,AAXX 19004 41944 NIL=
41944,2024,09,19,06,00,AAXX 19064 41944 NIL=
41944,2024,09,19,12,00,AAXX 19124 41944 NIL=
41946,2024,09,13,00,00,AAXX 13004 41946 02456 80000 10288 20280 39994 49999 8452/ 333 59022 70124 84618 88460==
41946,2024,09,13,03,00,AAXX 13034 41946 02456 80000 10300 20280 30007 40012 8452/ 333 20275 59026 70122 84618 88460==
41946,2024,09,13,06,00,AAXX 13064 41946 01350 80404 10310 20280 39997 40001 76122 8472/ 333 59032 70002 81710 84617 88459==
41946,2024,09,13,09,00,AAXX 13094 41946 02456 72809 10300 20250 39968 49972 84320 333 59031 70122 83618 86459 81929==
41946,2024,09,13,12,00,AAXX 13124 41946 21456 73203 10282 20260 39964 49969 70262 84420 333 10320 59037 69925 70044 83618 87458==
41946,2024,09,13,15,00,AAXX 13154 41946 01350 83408 10260 20250 39988 49993 79596 8692/ 333 59029 70204 83709 84614 88456 81928==
41946,2024,09,13,18,00,AAXX 13184 41946 21450 62803 10260 20250 39964 49969 70196 84570 333 59043 60259 70254 84618 85459==
41946,2024,09,13,21,00,AAXX 13214 41946 01350 82809 10260 20250 39946 49951 76122 8572/ 333 59046 70324 82710 84614 88456==
41946,2024,09,14,00,00,AAXX 14004 41946 21350 82712 10256 20250 39908 49913 76166 8632/ 333 59086 60197 70444 83709 84614 88456 81929==
41946,2024,09,14,03,00,AAXX 14034 41946 01350 81805 10265 20260 39944 49949 76166 8632/ 333 20252 59063 70514 82709 84616 88458 81928==
41946,2024,09,14,06,00,AAXX 14064 41946 21350 80404 10265 20260 39942 49947 76166 8572/ 333 59055 60119 70552 82709 84616 88458==
41946,2024,09,14,09,00,AAXX 14094 41946 01350 80905 10264 20250 39915 49920 76266 8672/ 333 59053 70758 82709 84616 88457==
41946,2024,09,14,12,00,AAXX 14124 41946 21350 80605 10269 20260 39914 49919 72166 8532/ 333 10274 59050 60269 70806 84617 88458 81927==
41946,2024,09,14,15,00,AAXX 14154 41946 01350 80914 10267 20267 39912 49917 76162 8572/ 333 59076 70630 82709 83615 88458==
41946,2024,09,14,18,00,AAXX 14184 41946 21350 80913 10264 20250 39916 49921 76162 8572/ 333 59048 60269 70820 82709 83615 88456==
41946,2024,09,14,21,00,AAXX 14214 41946 01350 80910 10263 20260 39914 49919 76166 8672/ 333 59032 70950 83709 88456==
41946,2024,09,15,00,00,AAXX 15004 41946 21350 81012 10262 20250 39923 49928 76166 8672/ 333 58015 60319 70936 82709 84615 88456==
41946,2024,09,15,03,00,AAXX 15034 41946 01350 81810 10265 20260 39939 49944 76166 8672/ 333 20255 59005 70926 82709 84617 88458==
41946,2024,09,15,06,00,AAXX 15064 41946 21350 81810 10268 20260 39950 49955 76166 8672/ 333 58008 60109 70926 82709 84616 88458==
41946,2024,09,15,09,00,AAXX 15094 41946 01350 81006 10274 20260 39934 49939 76166 8672/ 333 58019 70750 82709 84616 88458==
41946,2024,09,15,12,00,AAXX 15124 41946 21350 81805 10263 20250 39946 49951 76166 8672/ 333 10275 58032 60159 70870 82709 84616 88458==
41946,2024,09,15,15,00,AAXX 15154 41946 01350 81804 10263 20260 39977 49982 79596 8692/ 333 58065 70986 83709 84614 88456 81928==
41946,2024,09,15,18,00,AAXX 15184 41946 21350 81804 10263 20260 39981 49986 76196 8672/ 333 58065 60299 70896 82709 84616 88458==
41946,2024,09,15,21,00,AAXX 15214 41946 01350 81805 10260 20250 39974 49979 76166 8672/ 333 58060 70726 82709 84616 88458==
41946,2024,09,16,00,00,AAXX 16004 41946 21350 81812 10260 20250 39988 49993 76166 8672/ 333 58065 60059 70640 82709 84616 88458==
41946,2024,09,16,03,00,AAXX 16034 41946 01350 80000 10258 20260 30018 40023 76196 8632/ 333 20254 58079 70690 82709 84616 88458 81928==
41946,2024,09,16,06,00,AAXX 16064 41946 21350 81808 10260 20250 30026 40031 79596 8692/ 333 58076 60279 70760 82709 84616 88458 81928==
41946,2024,09,16,09,00,AAXX 16093 41946 01350 82002 10254 20240 30016 40021 76166 8632/ 333 58082 70880 82709 84614 88456 81928==
41946,2024,09,16,12,00,AAXX 16124 41946 21/56 60000 10270 20250 30013 40018 70162 86070 333 10273 58067 60158 70764 83459 84360==
41946,2024,09,16,15,00,AAXX 16154 41946 02/56 41404 10277 20270 30036 40041 84030 333 58059 70624 84360==
41946,2024,09,16,18,00,AAXX 16184 41946 02/56 40000 10274 20260 30043 40048 82031 333 58062 70474 82362 83080==
41946,2024,09,16,21,00,AAXX 16214 41946 02/56 30000 10273 20260 30040 40045 83030 333 58066 70444 83362==
41946,2024,09,17,00,00,AAXX 17004 41946 02/56 50902 10271 20270 30042 40047 83034 333 58054 70424 83362 83080==
41946,2024,09,17,03,00,AAXX 17034 41946 02456 60000 10295 20280 30072 40077 83570 333 20245 58054 70264 83618 84460==
41946,2024,09,17,06,00,AAXX 17064 41946 02556 51805 10320 20270 30062 40067 84401 333 58036 70154 83618 83080==
41946,2024,09,17,09,00,AAXX 17094 41946 02557 20000 10330 20260 30035 40039 82500 333 58019 70004 82620==
41946,2024,09,17,12,00,AAXX 17124 41946 02456 10000 10316 20270 30030 40035 81500 333 10333 58017 70000 81618==
41946,2024,09,17,15,00,AAXX 17154 41946 02/56 20000 10291 20270 30049 40054 82030 333 58013 70000 82362==
41946,2024,09,17,18,00,AAXX 17184 41946 02956 00000 10279 20270 30055 40060 333 58012 70000==
41946,2024,09,17,21,00,AAXX 17214 41946 02956 00000 10274 20260 30045 40050 333 58005 70000==
41946,2024,09,18,00,00,AAXX 18004 41946 01/50 10000 10269 20269 30049 40054 70500 81030 333 58007 70000 81362==
41946,2024,09,18,03,00,AAXX 18034 41946 02456 40000 10310 20260 30069 40074 84400 333 20265 59003 70000 83618==
41946,2024,09,18,06,00,AAXX 18064 41946 02456 30000 10330 20250 30053 40057 83400 333 59006 70000 82618==
41946,2024,09,18,09,00,AAXX 18094 41946 02456 32703 10340 20260 30029 40033 83400 333 59006 70000 82618==
41946,2024,09,18,12,00,AAXX 18124 41946 02456 30000 10320 20270 30023 40027 83400 333 10341 59007 70000 82618==
41946,2024,09,18,15,00,AAXX 18154 41946 02956 00000 10296 20280 30041 40046 333 59008 70000==
41946,2024,09,18,18,00,AAXX 18184 41946 02456 30000 10288 20280 30044 40049 80001 333 59011 70000 83080==
41946,2024,09,18,21,00,AAXX 18214 41946 02956 00000 10285 20280 30038 40043 333 59007 70000==
41946,2024,09,19,00,00,AAXX 19004 41946 01950 00000 10280 20280 30043 40048 70500 333 59006 70000==
41946,2024,09,19,03,00,AAXX 19034 41946 02456 40000 10315 20280 30056 40061 84500 333 20277 59013 70000 84618==
41946,2024,09,19,06,00,AAXX 19064 41946 02456 43605 10340 20270 30048 40052 81501 333 59005 70000 81618 83080==
41946,2024,09,19,09,00,AAXX 19094 41946 02556 53303 10350 20270 30014 40018 85400 333 59015 70000 83620 83822==
41946,2024,09,19,12,00,AAXX 19124 41946 02556 60000 10336 20290 30008 40012 82202 333 10355 59015 70000 82825 85080==
41946,2024,09,19,15,00,AAXX 19154 41946 02556 40000 10309 20280 30029 40034 84400 333 59012 70000 83620==
41946,2024,09,19,18,00,AAXX 19184 41946 02556 50000 10302 20280 30037 40042 82530 333 59007 70000 82620 84362==
41946,2024,09,19,21,00,AAXX 19214 41946 02556 33401 10296 20280 30034 40039 83800 333 59004 70000 82620==
41947,2024,09,13,00,00,AAXX 13004 41947 02450 80000 10288 20280 39985 49987 8352/ 333 59031 70041 83618 88458==
41947,2024,09,13,03,00,AAXX 13034 41947 02456 80000 10307 20270 30000 40002 8352/ 333 20265 59033 70027 83618 88458==
41947,2024,09,13,06,00,AAXX 13064 41947 02456 80000 10325 20280 39995 49997 8352/ 333 59033 70025 83618 88458==
41947,2024,09,13,09,00,AAXX 13094 41947 02456 60000 10330 20280 39960 49962 84470 333 59036 70025 83618 85459==
41947,2024,09,13,12,00,AAXX 13124 41947 01330 80000 10260 20250 39969 49971 79522 8592/ 333 10335 59028 70390 83707 84614 88458 82930==
41947,2024,09,13,15,00,AAXX 13154 41947 01330 80000 10260 20250 39981 49983 76166 8572/ 333 59022 70548 83707 84614 88458==
41947,2024,09,13,18,00,AAXX 13184 41947 21430 80000 10265 20260 39954 40056 70262 8352/ 333 59043 60157 70240 83618 88458==
41947,2024,09,13,21,00,AAXX 13214 41947 01330 80000 10260 20260 39933 49935 76166 8572/ 333 59061 70640 83707 84614 88458==
41947,2024,09,14,00,00,AAXX 14004 41947 21330 80000 10260 20250 39923 49925 76166 8572/ 333 59062 60269 70800 83707 84614 88458==
41947,2024,09,14,03,00,AAXX 14034 41947 01350 80903 10270 20260 39953 49956 76166 8672/ 333 20255 59006 70832 82708 84615 88458==
41947,2024,09,14,06,00,AAXX 14064 41947 21350 80904 10288 20260 39947 49950 70262 8562/ 333 59047 60038 70852 81709 84616 88458==
41947,2024,09,14,09,00,AAXX 14094 41947 01450 80000 10275 20270 39920 49922 76162 8452/ 333 59040 70922 84616 88458==
41947,2024,09,14,12,00,AAXX 14124 41947 11450 81405 10268 20260 39925 49957 60032 76162 8572/ 333 10290 59044 70562 82709 84617 88458==
41947,2024,09,14,15,00,AAXX 14154 41947 01450 81409 10265 20260 39943 49945 76162 8572/ 333 59038 70552 82709 84617 88458==
41947,2024,09,14,18,00,AAXX 14184 41947 01450 81406 10265 20260 39937 49939 76166 8572/ 333 59019 70642 82709 84617 88458==
41947,2024,09,14,21,00,AAXX 14214 41947 01450 81408 10264 20250 39936 49938 76166 8572/ 333 58003 70662 82709 84617 88458==
41947,2024,09,15,00,00,AAXX 15004 41947 21450 81407 10262 20260 39938 49940 76166 8572/ 333 58015 60269 70642 82709 84617 88458==
41947,2024,09,15,03,00,AAXX 15034 41947 01350 81309 10261 20260 39961 49964 76166 8672/ 333 20255 58008 70850 82708 84615 88458==
41947,2024,09,15,06,00,AAXX 15063 41947 21350 81303 10265 20260 39963 49966 76166 8672/ 333 58016 60399 70980 82708 84615 88458==
41947,2024,09,15,09,00,AAXX 15094 41947 01350 81306 10268 20260 39949 49951 76166 8572/ 333 58029 70770 82709 84617 88458==
41947,2024,09,15,12,00,AAXX 15124 41947 21350 81307 10270 20260 39959 49961 76166 8572/ 333 10270 58034 60109 70980 82709 84617 88458==
41947,2024,09,15,15,00,AAXX 15154 41947 01350 81304 10262 20250 39987 49989 76166 8572/ 333 58044 70880 82709 84617 88458==
41947,2024,09,15,18,00,AAXX 15184 41947 21350 81807 10260 20260 39992 49994 79566 8572/ 333 58057 60159 70900 82709 84617 88456 81925==
41947,2024,09,15,21,00,AAXX 15214 41947 01350 81808 10260 20260 39995 49997 79596 8592/ 333 58059 71180 82709 84617 88456 81925==
41947,2024,09,16,00,00,AAXX 16004 41947 21350 81806 10258 20258 30001 40003 79596 8592/ 333 58063 60909 71540 82709 83617 88456 81925==
41947,2024,09,16,03,00,AAXX 16034 41947 01350 82303 10278 20270 30025 40027 70262 8662/ 333 20248 58063 71318 82709 84615 88458==
41947,2024,09,16,06,00,AAXX 16064 41947 01356 81302 10268 20260 30033 40035 76066 8672/ 333 58069 71402 82708 84615 88458==
41947,2024,09,16,09,00,AAXX 16094 41947 01450 81302 10305 20270 30018 40020 70266 8452/ 333 58069 71352 84618 88458==
41947,2024,09,16,12,00,AAXX 16124 41947 11450 80000 10290 20260 30020 40022 60016 70262 8352/ 333 10306 58039 71312 83618 88458==
41947,2024,09,16,15,00,AAXX 16154 41947 02450 20000 10280 20260 30042 40044 82500 333 58055 71272 82618==
41947,2024,09,16,18,00,AAXX 16184 41947 02450 30000 10275 20270 30048 40050 83500 333 58056 71162 83618==
41947,2024,09,16,21,00,AAXX 16214 41947 02450 60000 10270 20260 30046 40048 83570 333 58087 70762 83618 85459==
41947,2024,09,17,00,00,AAXX 17004 41947 02456 60000 10268 20260 30049 40051 83570 333 58048 70262 83618 85459==
41947,2024,09,17,03,00,AAXX 17034 41947 02456 61402 10308 20270 30073 40075 83570 333 20245 58048 70244 83618 84459==
41947,2024,09,17,06,00,AAXX 17064 41947 02456 41402 10328 20260 30063 40065 84400 333 58030 70010 81618 83820==
41947,2024,09,17,09,00,AAXX 17094 41947 02456 60000 10325 20270 30035 40037 82530 333 58017 70000 82618 84362==
41947,2024,09,17,12,00,AAXX 17124 41947 02456 20000 10318 20260 30031 40033 82500 333 10335 58011 70000 82618==
41947,2024,09,17,15,00,AAXX 17154 41947 02950 00000 10295 20280 30044 40046 333 58002 70000==
41947,2024,09,17,18,00,AAXX 17184 41947 02950 00000 10290 20280 30053 40055 333 58005 70000==
41947,2024,09,17,21,00,AAXX 17214 41947 02950 00000 10280 20260 30051 40053 333 58005 70000==
41947,2024,09,18,00,00,AAXX 18004 41947 02956 00000 10270 20270 30048 40050 333 59001 70000==
41947,2024,09,18,03,00,AAXX 18034 41947 02456 40000 10310 20260 30060 40063 84400 333 20265 59012 70000 81618 83820==
41947,2024,09,18,06,00,AAXX 18064 41947 02456 70000 10330 20270 30049 40052 83570 333 59013 70000 83618 86458==
41947,2024,09,18,09,00,AAXX 18094 41947 02456 32802 10345 20270 30025 40027 83500 333 59005 70000 83618==
41947,2024,09,18,12,00,AAXX 18124 41947 02956 00000 10320 20270 30019 40021 333 10350 59012 70000==
41947,2024,09,18,15,00,AAXX 18154 41947 02950 00000 10295 20280 30032 40034 333 59012 70000==
41947,2024,09,18,18,00,AAXX 18184 41947 02950 00000 10295 20280 30042 40044 333 59011 70000==
41947,2024,09,18,21,00,AAXX 18214 41947 02950 00000 10290 20280 30041 40043 333 59010 70000==
41947,2024,09,19,00,00,AAXX 19004 41947 02450 50000 10288 20280 30041 40043 83570 333 59007 70000 83618 84458==
41947,2024,09,19,03,00,AAXX 19034 41947 02956 00000 10320 20260 30053 40056 333 20283 59007 70000==
41947,2024,09,19,06,00,AAXX 19064 41947 02456 40000 10350 20280 30044 40047 84400 333 59005 70000 81618 83820==
41947,2024,09,19,09,00,AAXX 19094 41947 02456 43102 10360 20270 30012 40014 84400 333 59013 70000 82618 83820==
41947,2024,09,19,12,00,AAXX 19124 41947 01456 40000 10318 20300 30006 40008 70296 83401 333 10363 59013 70006 82618==
41947,2024,09,19,15,00,AAXX 19154 41947 02956 30000 10308 20300 30033 40035 80001 333 58001 70006 83080==
41947,2024,09,19,18,00,AAXX 19184 41947 02/56 40000 10304 20290 30039 40041 84030 333 59003 70006 84362==
41947,2024,09,19,21,00,AAXX 19214 41947 02/56 30000 10298 20290 30036 40038 83030 333 59005 70006 83362==
41950,2024,09,13,00,00,AAXX 13004 41950 11350 80000 10266 20266 39982 49985 60066 70296 8562/ 333 59039 70635 82708 84616 88458==
41950,2024,09,13,03,00,AAXX 13034 41950 02350 80000 10287 20280 39996 49998 8562/ 333 20246 59028 70465 82708 84616 88458==
41950,2024,09,13,06,00,AAXX 13064 41950 02350 80000 10302 20270 39994 49996 8562/ 333 59018 70463 82708 84616 88458==
41950,2024,09,13,09,00,AAXX 13094 41950 01340 80602 10250 39963 49966 79562 8692/ 333 59025 70480 82707 84615 88458 81928==
41950,2024,09,13,12,00,AAXX 13124 41950 01350 80000 10264 20260 39959 49961 70296 8632/ 333 10315 59027 70308 82707 84616 88458 81928==
41950,2024,09,13,15,00,AAXX 13154 41950 01340 80000 10258 20250 39959 49961 76166 8572/ 333 59043 70333 82708 84616 88458==
41950,2024,09,13,18,00,AAXX 13184 41950 21330 80000 10252 20250 39962 49964 76366 8572/ 333 58029 60369 70627 82708 84616 88458==
41950,2024,09,13,21,00,AAXX 13214 41950 01330 80000 10252 20252 30052 40054 76166 8572/ 333 59033 70747 82707 84616 88458==
41950,2024,09,14,00,00,AAXX 14004 41950 21350 80000 10256 20256 30052 40054 70266 8562/ 333 59030 60289 70847 82708 84616 88458==
41950,2024,09,14,03,00,AAXX 14034 41950 02350 80602 10275 20270 39969 49971 333 20245 59027 70847 82707 84615 88458==
41950,2024,09,14,06,00,AAXX 14064 41950 21340 81203 10268 20260 39963 49965 76162 8572/ 333 59031 60037 70877 82707 84615 88458==
41950,2024,09,14,09,00,AAXX 14094 41950 01330 81004 10255 20250 39947 40049 76162 8672/ 333 59016 71110 83707 84616 88458==
41950,2024,09,14,12,00,AAXX 14124 41950 21335 80902 10254 20250 39950 49952 76162 8672/ 333 10284 59009 60629 71288 83707 84615 88458==
41950,2024,09,14,15,00,AAXX 14154 41950 01330 81203 10263 20260 39985 49987 76966 8632/ 333 58026 71548 83707 84615 88458==
41950,2024,09,14,18,00,AAXX 14184 41950 22340 81502 10252 20250 39965 49967 8672/ 333 58003 60739 71666 83707 84615 88458==
41950,2024,09,14,21,00,AAXX 14214 41950 01330 81202 10252 20250 39962 49964 76366 8672/ 333 58010 71745 83707 84615 88458==
41950,2024,09,15,00,00,AAXX 15004 41950 21340 81202 10255 20250 39962 49964 76166 8572/ 333 58010 60389 71766 82708 84616 88458==
41950,2024,09,15,03,00,AAXX 15034 41950 01340 81402 10268 20260 39989 49991 76166 8672/ 333 20244 58020 71788 83707 84616 88458==
41950,2024,09,15,06,00,AAXX 15064 41950 21350 80902 10275 20260 39982 49984 72166 8562/ 333 58019 60189 71918 82708 84616 88458==
41950,2024,09,15,09,00,AAXX 15094 41950 01340 81404 10278 20250 39962 49964 76166 8572/ 333 58015 71551 82708 84616 88458==
41950,2024,09,15,12,00,AAXX 15124 41950 21340 80000 10275 20260 39978 49980 76166 8572/ 333 10282 58028 60019 71289 82708 84616 88458==
41950,2024,09,15,15,00,AAXX 15154 41950 01340 81802 10260 20250 30006 40008 79566 8692/ 333 58021 71019 82707 84616 88458 81928==
41950,2024,09,15,18,00,AAXX 15184 41950 21340 81702 10257 20250 30009 40011 79596 8692/ 333 58044 60059 70607 82707 84616 88458 81928==
41950,2024,09,15,21,00,AAXX 15214 41950 01340 80000 10255 20255 30014 40016 76196 8572/ 333 58062 70508 82707 84616 88458==
41950,2024,09,16,00,00,AAXX 16004 41950 21350 80000 10274 20260 30009 40011 70296 8562/ 333 58047 60208 70427 82708 84616 88458==
41950,2024,09,16,03,00,AAXX 16034 41950 02350 80902 10298 20260 30031 40034 8562/ 333 20249 58042 70383 82708 84616 88458==
41950,2024,09,16,06,00,AAXX 16064 41950 02350 71504 10315 20260 30036 40038 85610 333 58054 70265 81708 84616 87459==
41950,2024,09,16,09,00,AAXX 16094 41950 02450 60000 10317 20260 30024 40026 85410 333 58060 70262 83617 86459==
41950,2024,09,16,12,00,AAXX 16124 41950 02450 50000 10298 20270 30026 40028 83530 333 10322 58048 70252 83617 83362==
41950,2024,09,16,15,00,AAXX 16154 41950 02450 20000 10279 20270 30042 40044 81500 333 58036 70230 82617==
41950,2024,09,16,18,00,AAXX 16184 41950 02950 00000 10274 20260 30047 40049 333 58038 70000==
41950,2024,09,16,21,00,AAXX 16214 41950 02950 00000 10271 20270 30046 40048 333 58032 70040==
41950,2024,09,17,00,00,AAXX 17004 41950 02440 20000 10268 20268 30049 40052 81501 333 58040 70000 81617==
41950,2024,09,17,03,00,AAXX 17034 41950 02450 40000 10308 20260 30076 40078 83530 333 20265 58048 70000 83617==
41950,2024,09,17,06,00,AAXX 17064 41950 02450 40000 10332 20250 30064 40067 83430 333 58028 70000 82617==
41950,2024,09,17,09,00,AAXX 17094 41950 02456 40000 10334 20250 30032 40034 84400 333 58008 70000 83617==
41950,2024,09,17,12,00,AAXX 17124 41950 02/50 10000 10312 20260 30029 40031 81030 333 10340 58003 70000 81362==
41950,2024,09,17,15,00,AAXX 17154 41950 02/50 20000 10298 20270 30046 40048 82030 333 58004 70000 82362==
41950,2024,09,17,18,00,AAXX 17184 41950 02450 20000 10280 20270 30048 40050 82500 333 58001 70000 82617==
41950,2024,09,17,21,00,AAXX 17214 41950 02450 50000 10274 20270 30047 40050 83510 333 58001 70000 82617 84459==
41950,2024,09,18,00,00,AAXX 18004 41950 02350 80000 10272 20270 30045 40048 8562/ 333 59004 70000 82708 84616 88458==
41950,2024,09,18,03,00,AAXX 18034 41950 02456 40000 10306 20260 30058 40060 83430 333 20266 59018 70000 83616==
41950,2024,09,18,06,00,AAXX 18064 41950 02456 50000 10335 20260 30043 40045 85401 333 59021 70000 83617 83825==
41950,2024,09,18,09,00,AAXX 18094 41950 02450 50000 10348 20270 30016 40018 84401 333 59016 70000 83617==
41950,2024,09,18,12,00,AAXX 18124 41950 02450 40000 10320 20280 30014 40016 83531 333 10352 59015 70000 83617==
41950,2024,09,18,15,00,AAXX 18154 41950 02950 00000 10299 20290 30035 40037 333 59011 70000==
41950,2024,09,18,18,00,AAXX 18184 41950 02450 70000 10296 20280 30039 40041 83510 333 59009 70000 83616 86456==
41950,2024,09,18,21,00,AAXX 18214 41950 02350 80000 10289 20280 30036 40038 8532/ 333 59011 70000 81708 84616 88459==
41950,2024,09,19,00,00,AAXX 19004 41950 01340 80000 10284 20280 30037 40039 79196 8532/ 333 59008 70010 82707 84616 88458 81928==
41950,2024,09,19,03,00,AAXX 19034 41950 01450 30000 10308 20250 30048 40050 70162 83500 333 20275 59010 70016 83617==
41950,2024,09,19,06,00,AAXX 19064 41950 11450 40000 10347 20270 30036 40038 69926 70362 84400 333 59007 70016 83617==
41950,2024,09,19,09,00,AAXX 19094 41950 02450 20000 10350 20280 30009 40011 82400 333 59007 70016 82617==
41950,2024,09,19,12,00,AAXX 19124 41950 02450 40000 10320 20290 30004 40007 82531 333 10356 59010 70016 82617==
41950,2024,09,19,15,00,AAXX 19154 41950 02950 20000 10302 20290 30028 40030 80001 333 59007 70016 82080==
41950,2024,09,19,18,00,AAXX 19184 41950 02450 40000 10297 20290 30036 40038 83501 333 59003 70016 83617==
41950,2024,09,19,21,00,AAXX 19214 41950 02950 00000 10290 20290 30023 40025 333 59011 70016==
41951,2024,09,13,00,00,AAXX 13004 41951 21440 70000 10265 20265 39978 49983 70162 83510 333 59028 60088 70336 83618 86459==
41951,2024,09,13,03,00,AAXX 13034 41951 02340 80000 10286 20280 39990 49994 8562/ 333 20262 59031 70264 81708 84618 88458==
41951,2024,09,13,06,00,AAXX 13064 41951 02340 80000 10312 20270 39984 49989 8562/ 333 59025 70264 81708 84618 88458==
41951,2024,09,13,09,00,AAXX 13094 41951 01340 80000 10272 20260 39967 49972 70296 8562/ 333 59018 70606 81708 84618 88458==
41951,2024,09,13,12,00,AAXX 13124 41951 01330 83103 10262 20240 39957 49962 76096 8672/ 333 10314 59022 70433 82706 84616 88458==
41951,2024,09,13,15,00,AAXX 13154 41951 01330 83110 10264 20250 39930 49935 76262 8672/ 333 59070 70511 82706 84616 88458==
41951,2024,09,13,18,00,AAXX 13184 41951 01330 81509 10260 20260 39930 49935 76262 8672/ 333 59060 70581 82706 84616 88458==
41951,2024,09,13,21,00,AAXX 13214 41951 01330 81508 10258 20258 39933 49938 76366 8672/ 333 59055 70567 82708 84616 88458==
41951,2024,09,14,00,00,AAXX 14004 41951 21340 81502 10258 20258 39955 49960 70262 8662/ 333 59023 60099 70584 82706 84616 88458==
41951,2024,09,14,03,00,AAXX 14034 41951 01330 81303 10264 20260 39971 49976 76262 8672/ 333 20254 59019 70620 82706 84616 88458==
41951,2024,09,14,06,00,AAXX 14064 41951 01330 81505 10266 20260 39975 49980 76262 8672/ 333 59009 70942 82706 84616 88458==
41951,2024,09,14,09,00,AAXX 14094 41951 01330 81412 10260 20260 39961 49966 76566 8672/ 333 59006 70910 82706 84616 88458==
41951,2024,09,14,12,00,AAXX 14124 41951 21330 80912 10267 20260 39964 49969 76166 8672/ 333 10273 58007 60529 71121 82706 84616 88458==
41951,2024,09,14,15,00,AAXX 14154 41951 01330 81306 10270 20260 39984 49989 76166 8672/ 333 58054 71069 82706 84616 88458==
41951,2024,09,14,18,00,AAXX 14184 41951 21330 81304 10272 20260 39983 49988 76166 8672/ 333 58053 60139 71097 82706 84616 88458==
41951,2024,09,14,21,00,AAXX 14214 41951 01330 81305 10264 20260 39978 49983 76366 8672/ 333 58045 71185 82706 84616 88458==
41951,2024,09,15,00,00,AAXX 15004 41951 21340 81303 10257 20257 39971 49976 70262 8662/ 333 59016 60339 71338 82706 84616 88458==
41951,2024,09,15,03,00,AAXX 15034 41951 02340 81305 10278 20260 39989 49994 8662/ 333 20248 58018 71302 82706 84616 88458==
41951,2024,09,15,06,00,AAXX 15063 41951 21340 81302 10280 20260 39987 49992 70262 8662/ 333 58012 60357 71329 82706 84616 88458==
41951,2024,09,15,09,00,AAXX 15094 41951 01340 81403 10280 20270 39978 49983 72162 8662/ 333 58017 71133 82708 84618 88458==
41951,2024,09,15,12,00,AAXX 15124 41951 11340 81306 10280 20260 39976 49981 60111 70262 333 10292 58012 70919 82706 84616 88458==
41951,2024,09,15,18,00,AAXX 15184 41951 01340 81503 10280 20270 30008 40013 71796 8692/ 333 58025 70843 82706 84616 88458 82925==
41951,2024,09,15,21,00,AAXX 15214 41951 02340 81402 10283 20260 30005 40010 8562/ 333 58027 70685 81708 84618 88458==
41951,2024,09,16,00,00,AAXX 16004 41951 11340 81304 10282 20260 30002 40007 69941 70262 8562/ 333 58031 70519 81708 84618 88458==
41951,2024,09,16,03,00,AAXX 16034 41951 02340 81405 10298 20270 30026 40031 8562/ 333 20250 58037 70519 81708 84618 88458==
41951,2024,09,16,06,00,AAXX 16064 41951 02450 71405 10316 20270 30038 40043 83510 333 58051 70170 83618 86459==
41951,2024,09,16,09,00,AAXX 16093 41951 02456 61501 10320 20260 30022 40027 83510 333 58044 70056 83618 85459==
41951,2024,09,16,12,00,AAXX 16124 41951 02340 80000 10295 20290 30018 40023 8562/ 333 10324 58042 70056 81709 84618 88458==
41951,2024,09,16,15,00,AAXX 16154 41951 02450 50000 10276 20270 30043 40048 82510 333 58035 70036 82618 84459==
41951,2024,09,16,18,00,AAXX 16184 41951 02450 50000 10272 20270 30044 40049 82510 333 58036 70004 82618 84459==
41951,2024,09,16,21,00,AAXX 16214 41951 01440 50000 10268 20268 30042 40047 70522 82510 333 58037 70004 82618 84459==
41951,2024,09,17,00,00,AAXX 17004 41951 01440 30000 10265 20265 30041 40046 70520 83500 333 58039 70000 83618==
41951,2024,09,17,03,00,AAXX 17034 41951 02456 51302 10318 20270 30066 40071 82510 333 20260 58040 70000 82618 84459==
41951,2024,09,17,06,00,AAXX 17064 41951 NIL=
41951,2024,09,17,09,00,AAXX 17094 41951 02456 30000 10328 20270 30033 40038 83500 333 58011 70000 83618==
41951,2024,09,17,12,00,AAXX 17124 41951 02956 00000 10300 20280 30022 40027 333 10333 58004 70000==
41951,2024,09,17,15,00,AAXX 17154 41951 02450 20000 10283 20270 30049 40053 82500 333 58006 70000 82618==
41951,2024,09,17,18,00,AAXX 17184 41951 02450 20000 10277 20277 30049 40053 82500 333 58005 70000 82618==
41951,2024,09,17,21,00,AAXX 17214 41951 01440 20000 10274 20270 30043 40047 70500 82500 333 58001 70000 82618==
41951,2024,09,18,00,00,AAXX 18004 41951 01440 30000 10270 20270 30036 40040 70500 83500 333 59005 70000 83618==
41951,2024,09,18,03,00,AAXX 18034 41951 02456 50000 10315 20270 30051 40056 82510 333 20266 59015 70000 82618 84459==
41951,2024,09,18,06,00,AAXX 18064 41951 02456 50000 10342 20260 30035 40040 82510 333 59023 70000 82618 84459==
41951,2024,09,18,09,00,AAXX 18094 41951 02450 70000 10344 20280 30025 40030 83510 333 59008 70000 83618 86459==
41951,2024,09,18,12,00,AAXX 18124 41951 02450 30000 10315 20290 30005 40010 83500 333 10355 59017 70000 83618==
41951,2024,09,18,15,00,AAXX 18154 41951 02440 80000 10300 20290 30035 40040 8562/ 333 59009 70000 81709 84618 88458==
41951,2024,09,18,18,00,AAXX 18184 41951 02340 80000 10298 20290 30037 40042 8562/ 333 59012 70000 81709 84618 88458==
41951,2024,09,18,21,00,AAXX 18214 41951 02340 80000 10296 20290 30033 40038 8562/ 333 59010 70000 81708 84618 88458==
41951,2024,09,19,00,00,AAXX 19004 41951 01340 80000 10272 20270 30030 40034 72162 8562/ 333 59006 70014 81708 84618 88458==
41951,2024,09,19,03,00,AAXX 19034 41951 02456 50000 10322 20270 30030 40035 82510 333 20270 59021 70014 82618 84459==
41951,2024,09,19,06,00,AAXX 19064 41951 02456 60000 10348 20280 30035 40040 83510 333 58000 70014 83618 85459==
41951,2024,09,19,09,00,AAXX 19094 41951 02456 31302 10352 20270 30004 40009 83500 333 59019 70014 83618==
41951,2024,09,19,12,00,AAXX 19124 41951 02456 20000 10322 20290 39993 49998 82500 333 10360 59012 70014 82618==
41951,2024,09,19,15,00,AAXX 19154 41951 02450 60000 10325 20300 30027 40032 83510 333 59008 70014 83618 85459==
41951,2024,09,19,18,00,AAXX 19184 41951 02450 60000 10300 20290 30035 40040 83510 333 59002 70014 83618 85459==
41951,2024,09,19,21,00,AAXX 19214 41951 02440 30000 10295 20295 30025 40030 83500 333 59008 70014 83618==
41953,2024,09,13,00,00,AAXX 13004 41953 02440 80000 10266 20260 39975 49980 8352/ 333 59035 70140 83616 88458==
41953,2024,09,13,03,00,AAXX 13034 41953 02445 80000 10290 20260 30003 40008 8352/ 333 20264 59023 70140 83616 88458==
41953,2024,09,13,06,00,AAXX 13064 41953 02445 80303 10318 20260 39982 49987 8352/ 333 59027 70140 83616 88458==
41953,2024,09,13,09,00,AAXX 13094 41953 01445 80505 10290 20250 39960 49965 70262 8352/ 333 59019 70150 83616 88458==
41953,2024,09,13,12,00,AAXX 13124 41953 01430 80509 10256 20250 39954 49959 76166 8452/ 333 10320 59021 70190 84614 88456==
41953,2024,09,13,15,00,AAXX 13154 41953 01310 80512 10254 20240 39976 49981 76166 8672/ 333 59026 70340 85709 84614 88456==
41953,2024,09,13,18,00,AAXX 13184 41953 21410 80508 10252 20250 39976 49981 76166 8672/ 333 59048 60299 70340 85709 84614 88457==
41953,2024,09,13,21,00,AAXX 13214 41953 01310 81308 10252 20250 39973 49978 76566 8672/ 333 59028 70610 85708 84614 88456==
41953,2024,09,14,00,00,AAXX 14004 41953 21320 81312 10256 20256 39972 49977 76366 8672/ 333 59003 60479 70810 85708 85614 88456==
41953,2024,09,14,03,00,AAXX 14034 41953 01325 81312 10260 20250 39995 40000 76166 8672/ 333 20250 59008 71110 85708 85614 88456==
41953,2024,09,14,06,00,AAXX 14064 41953 21330 81311 10260 20250 39988 49993 76166 8672/ 333 58006 60439 71240 85709 85614 88456==
41953,2024,09,14,09,00,AAXX 14094 41953 01330 81309 10260 20250 39962 49967 76166 8672/ 333 58002 71420 84709 84614 88456==
41953,2024,09,14,12,00,AAXX 14124 41953 21330 81310 10260 20250 39976 49981 76166 8672/ 333 10268 58022 60299 71480 84708 84614 88456==
41953,2024,09,14,15,00,AAXX 14154 41953 01420 81312 10266 20260 30001 40006 70262 8452/ 333 58025 71350 84615 88458==
41953,2024,09,14,18,00,AAXX 14184 41953 11420 81311 10265 20260 39999 40004 60026 70262 8452/ 333 58023 71210 84615 88458==
41953,2024,09,14,21,00,AAXX 14214 41953 02420 81312 10265 20260 39998 40003 8452/ 333 58023 70940 84615 88458==
41953,2024,09,15,00,00,AAXX 15004 41953 01430 81311 10264 20250 39987 49992 79596 8592/ 333 58015 70070 84614 88456 81925==
41953,2024,09,15,03,00,AAXX 15034 41953 01435 81311 10265 20250 30006 40011 70296 8452/ 333 20255 58011 70600 84615 88458==
41953,2024,09,15,06,00,AAXX 15064 41953 11440 81310 10282 20250 39998 40003 60096 70296 8352/ 333 58010 70470 83616 88458==
41953,2024,09,15,09,00,AAXX 15094 41953 02445 81312 10288 20250 39982 49987 8352/ 333 58020 70280 83616 88458==
41953,2024,09,15,12,00,AAXX 15124 41953 02430 81306 10280 20260 39995 40000 8352/ 333 10292 58019 70180 83616 88458==
41953,2024,09,15,15,00,AAXX 15154 41953 02430 81308 10278 20260 30013 40018 8352/ 333 58012 70160 83616 88458==
41953,2024,09,15,18,00,AAXX 15184 41953 02425 81305 10276 20250 30016 40021 8352/ 333 58017 70160 83616 88458==
41953,2024,09,15,21,00,AAXX 15214 41953 02425 81305 10275 20260 30019 40024 8352/ 333 58021 70160 83616 88458==
41953,2024,09,16,00,00,AAXX 16004 41953 02435 81305 10274 20250 30027 40032 8352/ 333 58040 70090 83616 88458==
41953,2024,09,16,03,00,AAXX 16034 41953 02445 81306 10300 20260 30043 40048 8352/ 333 20264 58037 70000 83616 88458==
41953,2024,09,16,06,00,AAXX 16064 41953 02450 81303 10320 20260 30049 40054 8352/ 333 58051 70000 83617 88458==
41953,2024,09,16,09,00,AAXX 16094 41953 02450 61303 10320 20260 30030 40035 83510 333 58048 70000 83616 86458==
41953,2024,09,16,12,00,AAXX 16124 41953 02450 60000 10290 20260 30028 40033 83510 333 10325 58033 70000 83616 86458==
41953,2024,09,16,15,00,AAXX 16154 41953 02440 60000 10276 20270 30047 40052 83510 333 58034 70000 83616 86458==
41953,2024,09,16,18,00,AAXX 16184 41953 02440 60000 10275 20270 30054 40059 83510 333 58038 70000 83616 86458==
41953,2024,09,16,21,00,AAXX 16214 41953 02440 60000 10270 20260 30045 40050 83510 333 58026 70000 83616 86458==
41953,2024,09,17,00,00,AAXX 17004 41953 02440 80000 10270 20260 30055 40060 8352/ 333 58028 70000 83616 88458==
41953,2024,09,17,03,00,AAXX 17034 41953 01450 61303 10310 20270 30077 40082 70162 83510 333 20270 58034 70020 83616 86458==
41953,2024,09,17,06,00,AAXX 17064 41953 11450 61303 10335 20260 30063 40068 60026 70262 83510 333 58014 70020 83616 86458==
41953,2024,09,17,09,00,AAXX 17094 41953 02450 60000 10325 20260 30037 40042 83510 333 58007 70020 83616 86458==
41953,2024,09,17,12,00,AAXX 17124 41953 02450 60000 10310 20260 30027 40032 83510 333 10340 59001 70020 83616 86458==
41953,2024,09,17,15,00,AAXX 17154 41953 02440 50000 10290 20270 30050 40055 82510 333 58003 70020 82616 85458==
41953,2024,09,17,18,00,AAXX 17184 41953 02440 50000 10280 20260 30052 40057 82510 333 59002 70020 82616 85458==
41953,2024,09,17,21,00,AAXX 17214 41953 02440 50000 10275 20270 30045 40050 82510 333 58000 70020 82616 85458==
41953,2024,09,18,00,00,AAXX 18004 41953 02440 50000 10275 20270 30045 40050 82510 333 59010 70020 82616 85458==
41953,2024,09,18,03,00,AAXX 18034 41953 02450 40000 10320 20270 30056 40061 82530 333 20275 59021 70000 82616 84362==
41953,2024,09,18,06,00,AAXX 18064 41953 02450 50000 10330 20260 30041 40046 83510 333 59022 70000 83616 85458==
41953,2024,09,18,09,00,AAXX 18094 41953 02450 80000 10335 20270 30015 40020 8352/ 333 59022 70000 83616 88458==
41953,2024,09,18,12,00,AAXX 18124 41953 02450 60000 10318 20280 30010 40015 83510 333 10340 59017 70000 83616 86458==
41953,2024,09,18,15,00,AAXX 18154 41953 02440 60000 10300 20290 30034 40039 83510 333 59016 70000 83616 86458==
41953,2024,09,18,18,00,AAXX 18184 41953 02440 60000 10296 20290 30036 40041 83510 333 59016 70000 83616 86458==
41953,2024,09,18,21,00,AAXX 18214 41953 02440 60000 10290 20280 30030 40035 83510 333 59015 70000 83616 86458==
41953,2024,09,19,00,00,AAXX 19004 41953 21440 60000 10255 20250 30040 40045 70266 83510 333 59005 60465 70460 83616 86458==
41953,2024,09,19,03,00,AAXX 19034 41953 02450 60000 10310 20260 30043 40048 83510 333 20245 59013 70460 83616 86458==
41953,2024,09,19,06,00,AAXX 19064 41953 02450 40000 10342 20270 30032 40037 84400 333 59009 70460==
41953,2024,09,19,09,00,AAXX 19094 41953 02450 23102 10348 20270 30006 40011 82500 333 59009 70460 82616==
41953,2024,09,19,12,00,AAXX 19124 41953 02450 20000 10325 20280 39998 40003 82500 333 10354 59012 70450 82618==
41953,2024,09,19,15,00,AAXX 19154 41953 02940 00000 10305 20300 30029 40034 333 59005 70460==
41953,2024,09,19,18,00,AAXX 19184 41953 02935 00000 10300 20290 30034 40039 333 59082 70460==
41953,2024,09,19,21,00,AAXX 19214 41953 02935 00000 10298 20290 30028 40033 333 59002 70460==
41955,2024,09,13,06,00,AAXX 13064 41955 NIL=
41955,2024,09,13,12,00,AAXX 13124 41955 NIL=
41955,2024,09,13,18,00,AAXX 13184 41955 NIL=
41955,2024,09,14,06,00,AAXX 14064 41955 NIL=
41955,2024,09,14,18,00,AAXX 14184 41955 NIL=
41955,2024,09,15,06,00,AAXX 15064 41955 NIL=
41955,2024,09,15,12,00,AAXX 15124 41955 NIL=
41955,2024,09,16,06,00,AAXX 16064 41955 NIL=
41955,2024,09,16,12,00,AAXX 16124 41955 NIL=
41955,2024,09,17,00,00,AAXX 17004 41955 NIL=
41955,2024,09,17,06,00,AAXX 17064 41955 NIL=
41955,2024,09,17,12,00,AAXX 17124 41955 NIL=
41955,2024,09,17,18,00,AAXX 17184 41955 NIL=
41955,2024,09,18,06,00,AAXX 18064 41955 NIL=
41955,2024,09,18,09,00,AAXX 18094 41955 NIL=
41955,2024,09,18,12,00,AAXX 18124 41955 NIL=
41955,2024,09,18,18,00,AAXX 18184 41955 NIL=
41955,2024,09,19,00,00,AAXX 19004 41955 NIL=
41955,2024,09,19,06,00,AAXX 19064 41955 NIL=
41955,2024,09,19,12,00,AAXX 19124 41955 NIL=
41958,2024,09,13,00,00,AAXX 13004 41958 11450 81601 10277 20270 39984 49986 60169 79596 8592/ 333 56999 59026 70235 84616 82930 88459=
41958,2024,09,13,03,00,AAXX 13034 41958 32456 83201 10302 20290 39996 49998 8532/ 333 20270 56999 59022 70195 84616 81930 88459=
41958,2024,09,13,06,00,AAXX 13064 41958 32456 83301 10312 20280 39991 49993 8532/ 333 56799 59031 70175 84616 81930 88459=
41958,2024,09,13,09,00,AAXX 13094 41958 32456 80000 10318 20280 39958 49960 8532/ 333 56999 59034 70175 84616 81930 88459=
41958,2024,09,13,12,00,AAXX 13124 41958 11440 80902 10260 20250 39967 49969 60424 79522 8592/ 333 10337 56299 59025 70586 84614 81930 88458=
41958,2024,09,13,15,00,AAXX 13154 41958 21440 83301 10264 20264 39974 49976 8542/ 333 56999 59033 6010/ 70688 84616 88459=
41958,2024,09,13,18,00,AAXX 13184 41958 11440 81801 10262 20260 39949 49951 60108 70296 8542/ 333 56999 59045 70678 84616 88459=
41958,2024,09,13,21,00,AAXX 13214 41958 21340 81802 10262 20260 39926 49928 76166 8532/ 333 56499 59057 6010/ 70688 83707 84614 81930 88458=
41958,2024,09,14,00,00,AAXX 14004 41958 11340 81803 10262 20260 39929 49931 60189 70266 8532/ 333 56499 59055 70698 83707 84614 81930 88458=
41958,2024,09,14,03,00,AAXX 14034 41958 21340 81103 10264 20260 39950 49953 76166 8532/ 333 20256 56399 59046 6013/ 70834 83707 84614 81930 88458=
41958,2024,09,14,06,00,AAXX 14064 41958 11350 81102 10270 20260 39945 49947 60169 76166 8532/ 333 56399 59046 70856 83707 84614 81930 88458=
41958,2024,09,14,09,00,AAXX 14094 41958 21350 81303 10276 20270 39917 49919 76166 8532/ 333 56399 59041 6012/ 70972 83707 84614 81930 88458=
41958,2024,09,14,12,00,AAXX 14124 41958 11340 81508 10266 20260 39921 49923 60139 76166 8632/ 333 10282 56399 59046 70572 83707 84614 81930 88458=
41958,2024,09,14,15,00,AAXX 14154 41958 21340 81509 10264 20250 39941 49943 76166 8632/ 333 56399 59033 6009/ 70564 83707 84612 81930 88458=
41958,2024,09,14,18,00,AAXX 14184 41958 11330 81512 10262 20260 39937 49939 60239 76166 8632/ 333 56399 59012 70704 83707 84612 81930 88458=
41958,2024,09,14,21,00,AAXX 14214 41958 21330 81505 10260 20260 39936 49938 76166 8632/ 333 56399 58010 6029/ 70898 83707 84612 81930 88458=
41958,2024,09,15,00,00,AAXX 15004 41958 11330 81504 10260 20260 39938 49941 60469 76166 8632/ 333 56399 58009 70984 83707 84612 81930 88458=
41958,2024,09,15,03,00,AAXX 15034 41958 21340 81508 10258 20250 39960 49962 76366 8632/ 333 20255 56399 58010 6030/ 71148 83707 84612 81928 88457=
41958,2024,09,15,06,00,AAXX 15064 41958 11350 81704 10266 20260 39964 49966 60399 76166 8632/ 333 56399 58019 71216 83707 84612 81928 88458=
41958,2024,09,15,09,00,AAXX 15094 41958 21350 81504 10268 20260 39949 49951 70266 8532/ 333 56399 58032 6007/ 71168 82708 84614 81930 88459=
41958,2024,09,15,12,00,AAXX 15124 41958 11340 81505 10270 20260 39958 49960 60143 72162 8532/ 333 10270 56399 58037 71224 83708 84614 81930 88459=
41958,2024,09,15,15,00,AAXX 15154 41958 21340 81504 10260 20260 39982 49984 76196 8532/ 333 56399 58041 6009/ 71224 83708 84614 81930 88459=
41958,2024,09,15,18,00,AAXX 15184 41958 11330 81703 10264 20250 39987 49989 60163 76296 8532/ 333 56399 58050 71148 82709 84616 81930 88459=
41958,2024,09,15,21,00,AAXX 15214 41958 21340 81703 10274 20260 39992 49994 79596 8592/ 333 56399 58056 6010/ 70954 82708 84614 81930 88458=
41958,2024,09,16,00,00,AAXX 16004 41958 11340 81704 10274 20260 39996 49998 60189 79596 8592/ 333 56499 58058 70872 83708 84614 81930 88459=
41958,2024,09,16,03,00,AAXX 16034 41958 21450 81504 10286 20270 30020 40022 71796 8592/ 333 20247 56399 58060 6996/ 70578 84616 81930 88459=
41958,2024,09,16,06,00,AAXX 16064 41958 11450 81703 10286 20270 30028 40030 60173 76196 8532/ 333 56399 58064 70652 84616 81930 88459=
41958,2024,09,16,09,00,AAXX 16094 41958 32456 71504 10306 20270 30016 40018 85370 333 56390 58067 70584 84616 81930 86459=
41958,2024,09,16,12,00,AAXX 16124 41958 32456 51503 10288 20270 30018 40020 81530 333 10308 56390 58060 70512 81617 85362=
41958,2024,09,16,15,00,AAXX 16154 41958 32450 51503 10278 20270 30038 40041 82501 333 56309 58056 70418 82617 85080=
41958,2024,09,16,18,00,AAXX 16184 41958 32950 50000 10274 20260 30045 40047 80001 333 56009 58058 70354 85080=
41958,2024,09,16,21,00,AAXX 16214 41958 32940 00000 10272 20260 30042 40044 333 58050 70254=
41958,2024,09,17,00,00,AAXX 17004 41958 31440 10000 10270 20270 30045 40047 81501 333 56409 58049 70170 81617=
41958,2024,09,17,03,00,AAXX 17034 41958 32457 11702 10306 20280 30069 40072 81530 333 20248 56490 58049 70164 81617=
41958,2024,09,17,06,00,AAXX 17064 41958 32458 31502 10330 20270 30058 40060 83430 333 56390 58030 70000 82617=
41958,2024,09,17,09,00,AAXX 17094 41958 21558 12501 10336 20270 30032 40034 70160 81100 333 56900 58016 6996/ 70006 81825=
41958,2024,09,17,12,00,AAXX 17124 41958 11556 11802 10304 20260 30027 40029 69966 70260 81100 333 10340 56900 58009 70006 81825=
41958,2024,09,17,15,00,AAXX 17154 41958 32950 01802 10284 20260 30046 40048 333 58008 70006=
41958,2024,09,17,18,00,AAXX 17184 41958 32940 00000 10274 20260 30052 40054 333 58007 70006=
41958,2024,09,17,21,00,AAXX 17214 41958 32940 00000 10264 20260 30040 40042 333 59002 70006=
41958,2024,09,18,00,00,AAXX 18004 41958 32950 10000 10264 20264 30042 40044 81030 333 56090 59003 70006 81362=
41958,2024,09,18,03,00,AAXX 18034 41958 32557 13001 10314 20240 30057 40059 81100 333 20262 56700 59012 70006 81825=
41958,2024,09,18,06,00,AAXX 18064 41958 32458 20000 10334 20250 30045 40047 82500 333 56900 59013 70006 82617=
41958,2024,09,18,09,00,AAXX 18094 41958 32458 20000 10348 20270 30021 40023 82500 333 56900 59011 70000 82617=
41958,2024,09,18,12,00,AAXX 18124 41958 32456 50000 10310 20270 30015 40017 85400 333 10350 56900 59012 70000 84617=
41958,2024,09,18,15,00,AAXX 18154 41958 32450 20000 10290 20280 30037 40039 82500 333 56900 59009 70000 82617=
41958,2024,09,18,18,00,AAXX 18184 41958 32440 60000 10285 20280 30040 40042 85410 333 56990 59012 70000 84616 86459=
41958,2024,09,18,21,00,AAXX 18214 41958 32440 60000 10286 20280 30035 40038 85410 333 56990 59005 70000 84616 86459=
41958,2024,09,19,00,00,AAXX 19004 41958 32450 70000 10286 20280 30037 40039 85410 333 56900 59005 70000 84616 87459=
41958,2024,09,19,03,00,AAXX 19034 41958 32457 80000 10305 20290 30049 40051 8542/ 333 20278 56999 59008 70000 84616 88459=
41958,2024,09,19,06,00,AAXX 19064 41958 32458 60000 10350 20290 30041 40043 85410 333 56990 59004 70000 84641 86459=
41958,2024,09,19,09,00,AAXX 19094 41958 32458 60000 10357 20300 30011 40013 85410 333 56990 59010 70000 84616 86459=
41958,2024,09,19,12,00,AAXX 19124 41958 32456 30000 10322 20290 30002 40005 83500 333 10367 56900 59013 70000 83617=
41958,2024,09,19,15,00,AAXX 19154 41958 32950 00000 10300 20290 30028 40031 333 59009 70000=
41958,2024,09,19,18,00,AAXX 19184 41958 32440 40000 10292 20280 30036 40038 84400 333 56900 59004 70000 83617=
41958,2024,09,19,21,00,AAXX 19214 41958 32940 00000 10290 20290 30022 40024 333 59013 70000=
41960,2024,09,13,00,00,AAXX 13004 41960 21430 80000 10260 20260 39981 49983 76196 8532/ 333 59042 60899 71737 83617 88459 81929==
41960,2024,09,13,03,00,AAXX 13034 41960 02350 80000 10272 20270 39993 49995 8672/ 333 20254 59036 71415 82708 84616 88458==
41960,2024,09,13,06,00,AAXX 13064 41960 21350 81802 10284 20270 39987 49989 76166 8672/ 333 59032 60039 71405 82708 84616 88458==
41960,2024,09,13,09,00,AAXX 13094 41960 01320 80000 10260 20260 39968 49969 79596 8692/ 333 59025 71685 82708 84615 88458 82928==
41960,2024,09,13,12,00,AAXX 13124 41960 21340 80000 10260 20250 39954 49956 70296 8662/ 333 10288 59039 60348 71545 82708 84615 88456==
41960,2024,09,13,15,00,AAXX 13154 41960 01330 83205 10260 20260 39957 49959 76162 8672/ 333 59051 71573 83708 84615 88458==
41960,2024,09,13,18,00,AAXX 13184 41960 21330 80000 10258 20258 39942 49944 76162 8672/ 333 59061 60159 71413 82708 84615 88458==
41960,2024,09,13,21,00,AAXX 13214 41960 01330 81501 10258 20258 39947 49949 76166 8672/ 333 59046 70873 82708 84615 88458==
41960,2024,09,14,00,00,AAXX 14004 41960 21330 81602 10259 20259 39956 49958 76166 8672/ 333 59025 60049 70568 83708 84615 88458==
41960,2024,09,14,03,00,AAXX 14034 41960 01350 81801 10255 20255 39967 49969 76166 8672/ 333 20250 59026 70600 82708 84616 88458==
41960,2024,09,14,06,00,AAXX 14064 41960 21456 81803 10283 20280 39960 49962 70262 8542/ 333 59027 60068 70592 83618 88459==
41960,2024,09,14,09,00,AAXX 14094 41960 01320 81503 10264 20264 39943 49945 76366 8672/ 333 59025 70592 83708 84614 88458==
41960,2024,09,14,12,00,AAXX 14124 41960 21210 81406 10266 20266 39955 49957 76366 8672/ 333 10285 58001 60769 71014 83706 84612 88458==
41960,2024,09,14,15,00,AAXX 14154 41960 01210 81405 10262 20260 39981 49983 76566 8672/ 333 58024 71578 83708 84612 88458==
41960,2024,09,14,18,00,AAXX 14184 41960 21220 81804 10272 20270 39969 49970 79596 8692/ 333 58027 61239 72094 83707 84612 88458 82928==
41960,2024,09,14,21,00,AAXX 14214 41960 01320 81803 10265 20265 39967 49968 76166 8672/ 333 58020 72174 83707 84614 88458==
41960,2024,09,15,00,00,AAXX 15004 41960 21320 81802 10262 20262 39963 49965 76166 8672/ 333 58007 60189 72234 83707 84614 88458==
41960,2024,09,15,03,00,AAXX 15034 41960 01340 81802 10270 20270 39985 49986 76166 8672/ 333 20250 58018 72217 83707 84615 88458==
41960,2024,09,15,06,00,AAXX 15064 41960 21350 81804 10274 20260 39981 49982 76166 8672/ 333 58021 60189 72357 82708 84616 88458==
41960,2024,09,15,09,00,AAXX 15094 41960 01230 81505 10280 20260 39971 49972 76162 8672/ 333 58028 72085 83706 84612 88458==
41960,2024,09,15,12,00,AAXX 15124 41960 01330 81507 10280 20260 39979 49980 76062 8672/ 333 10282 58024 71608 83707 84615 88456==
41960,2024,09,15,15,00,AAXX 15154 41960 01320 81503 10257 20250 30008 40010 79596 8692/ 333 58027 71126 83706 84612 88458 82928==
41960,2024,09,15,18,00,AAXX 15184 41960 01340 81602 10277 20270 30006 40007 71796 8692/ 333 58037 70514 83708 84615 88458 81929==
41960,2024,09,15,21,00,AAXX 15214 41960 01340 81705 10284 20270 30007 40008 70292 8662/ 333 58040 70412 83708 84615 88458==
41960,2024,09,16,00,00,AAXX 16004 41960 01340 71804 10285 20280 30007 40008 70192 86610 333 58044 70332 82709 84615 87459==
41960,2024,09,16,03,00,AAXX 16034 41960 01456 61803 10304 20270 30033 40034 70162 83510 333 20250 58048 70319 83618 86459==
41960,2024,09,16,06,00,AAXX 16064 41960 11456 81804 10306 20270 30036 40037 60016 70362 8452/ 333 58055 70165 84618 88459==
41960,2024,09,16,09,00,AAXX 16094 41960 02456 61802 10313 20260 30025 40027 85410 333 58054 70157 83618 83822 86459==
41960,2024,09,16,12,00,AAXX 16124 41960 02450 81801 10299 20260 30026 40028 8352/ 333 10325 58047 70152 83618 88458==
41960,2024,09,16,15,00,AAXX 16154 41960 02450 70000 10281 20270 30045 40046 85410 333 58037 70042 83618 87459==
41960,2024,09,16,18,00,AAXX 16184 41960 02450 70000 10277 20277 30051 40052 85410 333 58045 70012 83618 87459==
41960,2024,09,16,21,00,AAXX 16214 41960 02450 40000 10273 20273 30053 40054 83410 333 58046 70012 82618 84460==
41960,2024,09,17,00,00,AAXX 17004 41960 01/40 30000 10270 20270 30051 40053 70521 83040 333 58044 70012 83362==
41960,2024,09,17,03,00,AAXX 17034 41960 02456 41801 10310 20260 30075 40076 84400 333 20265 58042 70000 83618==
41960,2024,09,17,06,00,AAXX 17064 41960 NIL=
41960,2024,09,17,09,00,AAXX 17094 41960 02457 30000 10330 20270 30039 40041 83400 333 58014 70000 82618==
41960,2024,09,17,12,00,AAXX 17124 41960 02456 40000 10310 20270 30031 40033 84830 333 10340 58005 70000 81618 83825==
41960,2024,09,17,15,00,AAXX 17154 41960 02450 30000 10290 20280 30044 40046 83500 333 59001 70000 83618==
41960,2024,09,17,18,00,AAXX 17184 41960 02450 70000 10279 20279 30053 40055 85410 333 58002 70000 83618 87459==
41960,2024,09,17,21,00,AAXX 17214 41960 02450 70000 10278 20278 30050 40052 85470 333 59003 70000 83618 85460==
41960,2024,09,18,00,00,AAXX 18004 41960 01540 60000 10278 20278 30046 40048 70522 85470 333 59005 70000 83620 85360==
41960,2024,09,18,03,00,AAXX 18034 41960 02456 50000 10300 20280 30057 40059 85400 333 20272 59018 70000 83618==
41960,2024,09,18,06,00,AAXX 18064 41960 02456 51402 10338 20260 30043 40045 85400 333 59016 70000 83618==
41960,2024,09,18,09,00,AAXX 18094 41960 02457 61801 10340 20270 30017 40019 85410 333 59022 70000 83618 86459==
41960,2024,09,18,12,00,AAXX 18124 41960 02440 40000 10326 20280 30013 40015 84400 333 10345 59018 70000 83618==
41960,2024,09,18,15,00,AAXX 18154 41960 02450 60000 10299 20290 30035 40037 84410 333 59009 70000 83618 86459==
41960,2024,09,18,18,00,AAXX 18184 41960 02450 60000 10292 20280 30040 40042 84410 333 59013 70000 83618 86459==
41960,2024,09,18,21,00,AAXX 18214 41960 02450 80000 10290 20280 30038 40040 8442/ 333 59012 70000 83618 88459==
41960,2024,09,19,00,00,AAXX 19004 41960 01430 80000 10287 20287 30039 40041 76122 8342/ 333 59007 70010 82618 88459==
41960,2024,09,19,03,00,AAXX 19034 41960 01456 60000 10305 20290 30046 40048 70162 83410 333 20284 59011 70018 82618 84459==
41960,2024,09,19,06,00,AAXX 19064 41960 11457 30000 10340 20260 30039 40041 69946 70162 83400 333 59004 70018 82618==
41960,2024,09,19,09,00,AAXX 19094 41960 02456 21801 10357 20280 30015 40016 82500 333 59002 70018 82618==
41960,2024,09,19,12,00,AAXX 19124 41960 01456 30000 10310 20280 30005 40007 71700 83900 333 10360 59008 70018 83618 81926==
41960,2024,09,19,15,00,AAXX 19154 41960 02950 00000 10297 20290 30025 40027 333 59010 70000==
41960,2024,09,19,18,00,AAXX 19184 41960 02450 60000 10300 20290 30040 40042 84410 333 58000 70018 83618 86459==
41960,2024,09,19,21,00,AAXX 19214 41960 02450 40000 10295 20295 30033 40035 83410 333 59005 70018 82618 84460==
41963,2024,09,13,00,00,AAXX 13004 41963 21357 80000 10270 20270 39989 49992 70262 8572/ 333 59030 60128 70460 82707 83612 88456==
41963,2024,09,13,03,00,AAXX 13034 41963 01357 80603 10280 20250 39995 49998 70262 8472/ 333 20256 59038 70470 82709 83614 88458==
41963,2024,09,13,06,00,AAXX 13064 41963 21257 80904 10260 20260 39989 49992 75065 8472/ 333 59025 60109 70560 82707 83614 88457==
41963,2024,09,13,12,00,AAXX 13124 41963 21256 80916 10260 20250 39912 49915 76166 8472/ 333 10280 59082 60239 70790 82707 83615 88458==
41963,2024,09,13,15,00,AAXX 13154 41963 01250 81008 10263 20260 39952 49955 75165 8472/ 333 59074 70530 82707 83614 88458==
41963,2024,09,13,18,00,AAXX 13184 41963 NIL=
41963,2024,09,13,21,00,AAXX 13214 41963 01350 81303 10260 20250 39969 49972 72162 8472/ 333 59033 70650 82709 83615 88458==
41963,2024,09,14,00,00,AAXX 14004 41963 21357 80000 10263 20263 39974 49977 70262 8572/ 333 59015 60279 70650 82708 83615 88458==
41963,2024,09,14,03,00,AAXX 14034 41963 01256 81806 10262 20250 39999 40002 76366 8572/ 333 20248 58004 70800 82707 83612 88457==
41963,2024,09,14,06,00,AAXX 14064 41963 21256 81307 10266 20266 39995 49998 76366 8472/ 333 58009 60479 71020 82707 83612 88457==
41963,2024,09,14,09,00,AAXX 14094 41963 01257 81808 10268 20260 39987 49990 72166 8472/ 333 58037 71140 82708 83612 88457==
41963,2024,09,14,15,00,AAXX 14154 41963 02350 81809 10283 20250 30007 40010 8472/ 333 58058 70960 82709 83613 88457==
41963,2024,09,14,18,00,AAXX 14184 41963 01350 81602 10275 20260 30002 40005 72122 8572/ 333 58031 70030 82709 83614 88457==
41963,2024,09,14,21,00,AAXX 14214 41963 01350 81804 10263 20260 39999 40002 79296 8532/ 333 58030 70800 83708 83612 88457 81928==
41963,2024,09,15,00,00,AAXX 15004 41963 21357 82105 10252 20252 30001 40004 79596 8532/ 333 58027 60259 70940 82708 83612 88457 81928==
41963,2024,09,15,03,00,AAXX 15034 41963 01357 81307 10281 20250 30014 40017 70296 8472/ 333 20250 58015 70790 82709 83613 88457==
41963,2024,09,15,06,00,AAXX 15064 41963 11357 81308 10288 20270 30010 40013 60016 70262 8472/ 333 58015 70480 82710 83614 88457==
41963,2024,09,15,09,00,AAXX 15094 41963 02457 81307 10295 20270 39996 49999 8351/ 333 58009 70320 83615 88457==
41963,2024,09,15,12,00,AAXX 15124 41963 02357 81307 10287 20270 30001 40004 8472/ 333 10297 58012 70290 82710 83615 88457==
41963,2024,09,15,18,00,AAXX 15184 41963 02350 81306 10280 20270 30027 40030 8472/ 333 58025 70260 82710 83615 88457==
41963,2024,09,15,21,00,AAXX 15214 41963 02350 61605 10278 20270 30022 40025 83570 333 58023 70190 83617 84458==
41963,2024,09,16,00,00,AAXX 16004 41963 02457 51306 10280 20260 30025 40028 83530 333 58024 70010 83617 84363==
41963,2024,09,16,03,00,AAXX 16034 41963 02457 51407 10298 20270 30045 40048 83540 333 20275 58031 70000 83617 84363==
41963,2024,09,16,06,00,AAXX 16064 41963 02457 41306 10310 20270 30059 40062 84400 333 58049 70000 83618==
41963,2024,09,16,09,00,AAXX 16094 41963 02457 21804 10300 20270 30039 40042 82500 333 58043 70000 82618==
41963,2024,09,16,12,00,AAXX 16124 41963 02/57 30000 10290 20270 30035 40038 83040 333 10316 58034 70000 83363==
41963,2024,09,16,15,00,AAXX 16154 41963 02950 00000 10280 20270 30060 40063 333 58033 70000==
41963,2024,09,16,21,00,AAXX 16214 41963 02950 00000 10274 20260 30062 40065 333 58040 70000==
41963,2024,09,17,00,00,AAXX 17004 41963 02457 20000 10270 20270 30059 40062 82500 333 58034 70000 82618==
41963,2024,09,17,03,00,AAXX 17034 41963 02557 20000 10310 20260 30082 40085 82100 333 20265 58037 70000 82825==
41963,2024,09,17,06,00,AAXX 17064 41963 02557 11802 10320 20260 30064 40066 81100 333 58005 70000 81825==
41963,2024,09,17,09,00,AAXX 17094 41963 02457 21803 10328 20270 30043 40045 82500 333 58004 70000 82618==
41963,2024,09,17,12,00,AAXX 17124 41963 02457 10000 10300 20270 30037 40039 81500 333 10330 58002 70000 81618==
41963,2024,09,17,18,00,AAXX 17184 41963 NIL=
41963,2024,09,17,21,00,AAXX 17214 41963 02950 00000 10273 20270 30045 40048 333 59017 70000==
41963,2024,09,18,00,00,AAXX 18004 41963 01930 00000 10274 20270 30051 40054 70500 333 59008 70000==
41963,2024,09,18,03,00,AAXX 18034 41963 02457 20000 10320 20270 30059 40061 82500 333 20270 59023 70000 82618==
41963,2024,09,18,06,00,AAXX 18064 41963 02/57 30000 10336 20270 30048 40050 83040 333 59016 70000 83362==
41963,2024,09,18,09,00,AAXX 18094 41963 02457 31802 10340 20280 30023 40026 83400 333 59020 70000 82618==
41963,2024,09,18,12,00,AAXX 18124 41963 02450 20000 10300 20260 30016 40018 82500 333 10350 59021 70000 82618==
41963,2024,09,18,15,00,AAXX 18154 41963 01440 20000 10290 20280 30027 40029 70520 82500 333 59021 70000 82618==
41963,2024,09,18,18,00,AAXX 18184 41963 02/40 40000 10287 20280 30039 40042 84040 333 59012 70000 84362==
41963,2024,09,18,21,00,AAXX 18214 41963 01440 60000 10282 20270 30031 40034 72196 84360 333 59014 70010 83617 84362 81928==
41963,2024,09,19,00,00,AAXX 19004 41963 21/57 40000 10274 20270 30045 40048 70196 84030 333 59006 60015 70010 84362==
41963,2024,09,19,03,00,AAXX 19034 41963 02457 50000 10290 20270 30046 40048 82510 333 20270 59013 70010 82618 85450==
41963,2024,09,19,06,00,AAXX 19064 41963 02957 01801 10340 20280 30031 40033 333 59017 70010==
41963,2024,09,19,09,00,AAXX 19094 41963 02957 01801 10345 20260 30008 40011 333 59015 70010==
41963,2024,09,19,12,00,AAXX 19124 41963 02956 01801 10312 20290 30003 40006 333 10350 59013 70010==
41963,2024,09,19,15,00,AAXX 19154 41963 02950 00000 10300 20290 30033 40035 333 58006 70010==
41964,2024,09,13,00,00,AAXX 13004 41964 21356 80000 10262 20262 39967 49969 70262 8662/ 333 59045 60068 70572 85707 84615 88458==
41964,2024,09,13,03,00,AAXX 13034 41964 01457 71405 10282 20250 39975 49977 70162 84510 333 20251 59042 70588 84618 85460==
41964,2024,09,13,06,00,AAXX 13064 41964 01340 80000 10267 20260 39973 49976 76162 8772/ 333 59023 70624 85707 85615 88458==
41964,2024,09,13,09,00,AAXX 13094 41964 01330 81206 10256 20250 39946 49949 76362 8772/ 333 59030 70684 86707 84615 88457==
41964,2024,09,13,12,00,AAXX 13124 41964 01330 80910 10257 20257 39926 49929 76362 8772/ 333 10305 59048 70874 86707 85615 88457==
41964,2024,09,13,15,00,AAXX 13154 41964 01330 81212 10257 20257 39956 49959 76366 8772/ 333 59042 70834 86707 85614 88457==
41964,2024,09,13,18,00,AAXX 13184 41964 21330 81312 10256 20256 39953 49956 76366 8772/ 333 59039 60629 70986 86707 85615 88457==
41964,2024,09,13,21,00,AAXX 13214 41964 01325 81310 10254 20254 39958 49961 76566 8772/ 333 59021 71174 86707 85614 88457==
41964,2024,09,14,00,00,AAXX 14004 41964 21325 81208 10260 20260 39966 49969 76566 8732/ 333 59001 60609 71524 86707 84614 88457 81928==
41964,2024,09,14,03,00,AAXX 14034 41964 01325 81408 10257 20255 39992 49994 76366 8772/ 333 20246 58017 71672 86707 84613 88457==
41964,2024,09,14,06,00,AAXX 14064 41964 21357 81308 10269 20260 39984 49986 72166 8772/ 333 58011 60219 71686 83708 85616 88458==
41964,2024,09,14,09,00,AAXX 14094 41964 01340 81609 10269 20260 39975 49977 76162 8772/ 333 58029 71646 86707 85616 88457==
41964,2024,09,14,12,00,AAXX 14124 41964 21340 81506 10264 20264 39977 49979 76162 8772/ 333 10276 58051 60059 71486 85707 85615 88458==
41964,2024,09,14,15,00,AAXX 14154 41964 01356 81408 10274 20250 39999 40001 70262 8662/ 333 58043 71100 83709 85617 88458==
41964,2024,09,14,18,00,AAXX 14184 41964 11356 81508 10272 20250 39995 49997 69946 70262 8632/ 333 58042 70868 83709 85617 88458 81928==
41964,2024,09,14,21,00,AAXX 14214 41964 02356 81409 10273 20250 39991 49993 8632/ 333 58033 70618 82709 85617 88458 81928==
41964,2024,09,15,00,00,AAXX 15004 41964 01357 81408 10275 20250 39985 49987 71722 8732/ 333 58019 70268 83709 85616 88458 81928==
41964,2024,09,15,03,00,AAXX 15034 41964 01357 81408 10274 20260 30007 40009 70296 8662/ 333 20252 58015 70278 83709 84617 88459==
41964,2024,09,15,06,00,AAXX 15064 41964 11357 81509 10291 20260 39999 40002 60176 70296 8662/ 333 58015 70228 82709 85617 88460==
41964,2024,09,15,09,00,AAXX 15094 41964 02457 81508 10292 20260 39987 49990 8552/ 333 58012 70208 85617 88460==
41964,2024,09,15,12,00,AAXX 15124 41964 02357 81405 10287 20260 39994 49997 8662/ 333 10296 58017 70178 82709 85617 88460==
41964,2024,09,15,15,00,AAXX 15154 41964 02457 71405 10280 20260 30015 40018 85510 333 58016 70174 85617 87460==
41964,2024,09,15,18,00,AAXX 15184 41964 02456 71505 10275 20260 30017 40020 8451/ 333 58022 70174 84618 87460==
41964,2024,09,15,21,00,AAXX 15214 41964 02456 71504 10274 20250 30017 40019 84510 333 58026 70174 84618 86460==
41964,2024,09,16,00,00,AAXX 16004 41964 02457 71403 10275 20260 30020 40022 83511 333 58035 70174 83618 86460==
41964,2024,09,16,03,00,AAXX 16034 41964 02458 51405 10300 20250 30038 40040 83510 333 20269 58031 70000 83618 84460==
41964,2024,09,16,06,00,AAXX 16064 41964 02458 51805 10320 20270 30042 40044 83402 333 58043 70000 82618 83078==
41964,2024,09,16,09,00,AAXX 16094 41964 02458 52104 10314 20260 30026 40028 82532 333 58039 70000 82618 83078==
41964,2024,09,16,12,00,AAXX 16124 41964 02458 52102 10292 20270 30022 40025 81532 333 10322 58028 70000 81618 84078==
41964,2024,09,16,15,00,AAXX 16154 41964 02957 20000 10278 20270 30045 40047 80002 333 58030 70000 82078==
41964,2024,09,16,18,00,AAXX 16184 41964 02957 30000 10274 20274 30046 40048 80002 333 58029 70000 83080==
41964,2024,09,16,21,00,AAXX 16214 41964 02456 50000 10272 20272 30045 40047 82510 333 58028 70000 82618 85460==
41964,2024,09,17,00,00,AAXX 17004 41964 02456 70000 10273 20273 30048 40050 83470 333 58028 70000 82618 85460==
41964,2024,09,17,03,00,AAXX 17034 41964 02457 40000 10319 20260 30066 40068 84400 333 20265 58028 70000 83619==
41964,2024,09,17,06,00,AAXX 17064 41964 02458 32102 10324 20250 30058 40061 83400 333 58016 70000 82618==
41964,2024,09,17,09,00,AAXX 17094 41964 02458 31902 10323 20260 30030 40033 82401 333 58004 70000 81618==
41964,2024,09,17,12,00,AAXX 17124 41964 02458 20000 10300 20270 30025 40028 82400 333 10329 58003 70000 81618==
41964,2024,09,17,15,00,AAXX 17154 41964 02457 10000 10281 20270 30043 40046 81500 333 59002 70000 81618==
41964,2024,09,17,18,00,AAXX 17184 41964 02/57 20000 10278 20270 30044 40047 81042 333 59002 70000 81362==
41964,2024,09,17,21,00,AAXX 17214 41964 02/56 20000 10275 20270 30038 40041 82030 333 59007 70000 82362==
41964,2024,09,18,00,00,AAXX 18004 41964 02956 20000 10276 20270 30036 40039 80002 333 59012 70000 82078==
41964,2024,09,18,03,00,AAXX 18034 41964 02457 40000 10317 20270 30046 40049 84400 333 20269 59020 70000 83619==
41964,2024,09,18,06,00,AAXX 18064 41964 02557 70000 10332 20270 30033 40036 85410 333 59025 70000 84620 85460==
41964,2024,09,18,09,00,AAXX 18094 41964 02457 70000 10332 20280 30009 40011 83510 333 59021 70000 83618 86460==
41964,2024,09,18,12,00,AAXX 18124 41964 02457 60000 10310 20290 30005 40007 84410 333 10338 59020 70000 83618 86460==
41964,2024,09,18,15,00,AAXX 18154 41964 02457 30000 10292 20280 30027 40029 83530 333 59016 70000 83618==
41964,2024,09,18,18,00,AAXX 18184 41964 02456 70000 10293 20280 30029 40031 84510 333 59015 70000 84618 86460==
41964,2024,09,18,21,00,AAXX 18214 41964 01356 71702 10258 20258 30028 40031 70296 85310 333 59010 70536 82709 84616 86460 81928==
41964,2024,09,19,00,00,AAXX 19004 41964 11557 40000 10261 20261 30030 40033 60546 70196 81132 333 59006 70536 81825 83078==
41964,2024,09,19,03,00,AAXX 19034 41964 02/57 40000 10306 20270 30037 40040 83011 333 20246 59009 70536 83460==
41964,2024,09,19,06,00,AAXX 19064 41964 02557 50000 10346 20280 30030 40032 85400 333 59003 70536 82620 83825==
41964,2024,09,19,09,00,AAXX 19094 41964 02457 30000 10355 20270 30001 40003 83510 333 59008 70536 83619==
41964,2024,09,19,12,00,AAXX 19124 41964 02557 30000 10318 20290 39993 49996 81102 333 10360 59012 70536 81825 83080==
41964,2024,09,19,15,00,AAXX 19154 41964 02957 20000 10300 20290 30024 40026 80002 333 59003 70536 82078==
41964,2024,09,19,18,00,AAXX 19184 41964 02456 70000 10297 20290 30032 40034 85310 333 58003 70536 84617 86460 81930==
41964,2024,09,19,21,00,AAXX 19214 41964 02456 60000 10293 20293 30028 40030 84510 333 58000 70000 84618 85460==
41965,2024,09,13,00,00,AAXX 13004 41965 02440 80403 10270 20220 39963 49972 8431/ 333 59042 70150 81710 83618 88460==
41965,2024,09,13,03,00,AAXX 13034 41965 02450 60802 10300 20230 39980 49989 84610 333 20257 59040 70150 83618 84460==
41965,2024,09,13,06,00,AAXX 13064 41965 21440 61402 10275 20240 39973 49982 70262 84610 333 59031 60035 70180 83618 84460==
41965,2024,09,13,09,00,AAXX 13094 41965 01430 81305 10250 20240 39948 49957 76166 8461/ 333 59054 70280 81710 83618 88456==
41965,2024,09,13,12,00,AAXX 13124 41965 NIL=
41965,2024,09,13,15,00,AAXX 13154 41965 01430 81407 10250 20240 39956 49965 76166 8431/ 333 59045 70480 81710 83618 88456==
41965,2024,09,13,18,00,AAXX 13184 41965 NIL=
41965,2024,09,13,21,00,AAXX 13214 41965 01430 81504 10250 20230 39963 49972 76166 8431/ 333 59040 70710 81710 83618 88456==
41965,2024,09,14,00,00,AAXX 14004 41965 21430 81405 10250 20230 39974 49983 76166 8431/ 333 58011 60259 70830 81710 83618 88456==
41965,2024,09,14,03,00,AAXX 14034 41965 01440 81404 10253 20230 39999 40008 76366 8431/ 333 20246 58018 70960 81710 83618 88456==
41965,2024,09,14,06,00,AAXX 14064 41965 21440 81305 10278 20230 39990 49999 70262 8431/ 333 58017 60167 70960 81710 83618 88456==
41965,2024,09,14,09,00,AAXX 14094 41965 02450 81404 10265 20230 39979 49988 8431/ 333 59031 70860 81710 83618 88460==
41965,2024,09,14,12,00,AAXX 14124 41965 02430 81403 10250 20220 39978 49987 8431/ 333 10280 59031 70770 81710 83618 88460==
41965,2024,09,14,15,00,AAXX 14154 41965 02430 81403 10260 20220 30006 40015 8431/ 333 58050 70560 83618 88460==
41965,2024,09,14,18,00,AAXX 14184 41965 NIL=
41965,2024,09,14,21,00,AAXX 14214 41965 02430 82305 10263 20230 39999 40008 8431/ 333 58036 70280 83618 88460==
41965,2024,09,15,00,00,AAXX 15004 41965 02440 81303 10263 20230 39992 40001 8431/ 333 58018 70160 81710 83618 88460==
41965,2024,09,15,03,00,AAXX 15034 41965 01440 81404 10263 20240 30002 40011 70262 8431/ 333 20250 58003 70150 81710 83618 88456==
41965,2024,09,15,06,00,AAXX 15063 41965 02450 61402 10295 20230 30003 40012 84310 333 58013 70120 83618 88460==
41965,2024,09,15,09,00,AAXX 15094 41965 02450 81402 10285 20240 39988 40007 8432/ 333 58009 70120 81710 83618 88460==
41965,2024,09,15,12,00,AAXX 15124 41965 02440 81303 10278 20240 30000 40009 8432/ 333 10297 58022 70120 83618 88460==
41965,2024,09,15,15,00,AAXX 15154 41965 02430 61404 10275 20230 30016 40025 84610 333 58010 70120 83618 84460==
41965,2024,09,15,18,00,AAXX 15184 41965 02430 61303 10270 20220 30019 40028 84610 333 58023 70120 83618 84460==
41965,2024,09,15,21,00,AAXX 15214 41965 02430 51403 10265 20230 30021 40030 84610 333 58022 70120 83618 84460==
41965,2024,09,16,00,00,AAXX 16004 41965 02440 51403 10264 20230 30024 40033 84610 333 58032 70120 83618 84460==
41965,2024,09,16,03,00,AAXX 16034 41965 02450 51303 10313 20240 30043 40052 84610 333 20260 58041 70000 83618 84460==
41965,2024,09,16,06,00,AAXX 16064 41965 02456 51402 10330 20220 30041 40050 84610 333 58038 70000 83618 84460==
41965,2024,09,16,09,00,AAXX 16093 41965 02456 30000 10320 20200 30028 40037 83600 333 58040 70000 83618==
41965,2024,09,16,12,00,AAXX 16124 41965 02440 30000 10310 20260 30022 40031 83600 333 10335 58110 70000 83618==
41965,2024,09,16,15,00,AAXX 16154 41965 02430 30000 10267 20220 30047 40056 83600 333 58031 70000 83618==
41965,2024,09,16,21,00,AAXX 16214 41965 02430 80000 10265 20220 30051 40060 8431/ 333 58030 70000 81710 83618 88460==
41965,2024,09,17,00,00,AAXX 17004 41965 21440 60000 10269 20220 30057 40066 70266 8431/ 333 58033 60055 70050 83618 84456==
41965,2024,09,17,03,00,AAXX 17034 41965 02450 51801 10310 20210 30071 40080 84610 333 20262 70050 83618 84460==
41965,2024,09,17,06,00,AAXX 17064 41965 02456 51402 10320 20180 30056 40065 84610 333 58015 70050 83618 84460==
41965,2024,09,17,09,00,AAXX 17094 41965 02456 30000 10327 20200 30029 40038 83600 333 58001 70050 83618==
41965,2024,09,17,12,00,AAXX 17124 41965 02450 30000 10294 20220 30023 40032 83600 333 10330 58001 70050 83618==
41965,2024,09,17,18,00,AAXX 17184 41965 NIL=
41965,2024,09,18,03,00,AAXX 18034 41965 02450 50000 10320 20210 30049 40058 84610 333 20265 59008 70000 83618 84460==
41965,2024,09,18,06,00,AAXX 18064 41965 02456 41402 10330 20220 30028 40037 84610 333 59028 70000 83618 84460==
41965,2024,09,18,09,00,AAXX 18094 41965 02456 30000 10333 20240 30004 40013 83600 333 59025 70000 83618==
41965,2024,09,18,12,00,AAXX 18124 41965 02450 50000 10298 20230 30006 40015 84310 333 10340 59017 70000 83618 84460==
41965,2024,09,18,15,00,AAXX 18154 41965 02440 60000 10280 20220 30031 40040 84310 333 59017 70000 83618 84460==
41965,2024,09,18,18,00,AAXX 18184 41965 NIL=
41965,2024,09,18,21,00,AAXX 18214 41965 01430 81403 10260 20210 30035 40044 79596 8431/ 333 59009 70220 81710 83618 88456 81928==
41965,2024,09,19,00,00,AAXX 19004 41965 21440 80000 10255 20210 30036 40045 79596 8431/ 333 59007 60328 70320 83618 88456==
41965,2024,09,19,03,00,AAXX 19034 41965 02450 50000 10325 20210 30038 40047 84310 333 20250 59011 70320 83618 84460==
41965,2024,09,19,06,00,AAXX 19064 41965 02456 31302 10345 20210 30022 40031 83600 333 59006 70320 83618==
41965,2024,09,19,09,00,AAXX 19094 41965 02456 21801 10352 20240 39992 40001 83600 333 59012 70320 83618==
41965,2024,09,19,12,00,AAXX 19124 41965 02450 81702 10310 20200 39994 40003 84300 333 10360 59012 70320 83618==
41965,2024,09,19,21,00,AAXX 19214 41965 02430 60000 10280 20230 30021 40030 84310 333 59014 70320 83618 84460==
41966,2024,09,13,00,00,AAXX 13004 41966 02440 71401 10265 20250 39907 49985 83510 333 59035 70456 83616 86460==
41966,2024,09,13,03,00,AAXX 13034 41966 02550 41501 10300 20240 39934 40011 82130 333 20256 59014 70456 82826 83362==
41966,2024,09,13,06,00,AAXX 13064 41966 02450 61401 10300 20220 39916 49993 82510 333 59022 70456 82616 85460==
41966,2024,09,13,09,00,AAXX 13094 41966 01340 81602 10270 20250 39903 49981 76166 8472/ 333 58000 70572 82709 83615 88460==
41966,2024,09,13,12,00,AAXX 13124 41966 21330 81401 10265 20230 39900 49978 72166 8472/ 333 10310 59007 60139 70590 82709 83615 88460==
41966,2024,09,13,15,00,AAXX 13154 41966 02420 61201 10265 20230 39929 40007 83510 333 59007 70200 83616 85460==
41966,2024,09,13,18,00,AAXX 13184 41966 NIL=
41966,2024,09,13,21,00,AAXX 13214 41966 02420 51503 10260 20210 39939 40012 82510 333 59007 70134 82616 84460==
41966,2024,09,14,00,00,AAXX 14004 41966 01440 70901 10255 20240 39923 40002 72162 83510 333 58017 70010 83616 86460==
41966,2024,09,14,03,00,AAXX 14034 41966 01340 81601 10260 20240 39944 40023 76166 8472/ 333 20250 58012 70164 82709 83615 88460==
41966,2024,09,14,06,00,AAXX 14064 41966 21350 80802 10275 20240 39936 40014 72166 8462/ 333 58021 60049 70184 82709 83615 88460==
41966,2024,09,14,09,00,AAXX 14094 41966 01350 81201 10260 20240 39927 40005 76166 8472/ 333 59024 70160 82709 83615 88460==
41966,2024,09,14,12,00,AAXX 14124 41966 21330 81802 10260 20240 39927 40005 72166 8472/ 333 10280 58027 60119 70164 82709 83615 88460==
41966,2024,09,14,15,00,AAXX 14154 41966 02420 71201 10260 20240 39938 40017 83510 333 58010 70164 83616 86460==
41966,2024,09,14,18,00,AAXX 14184 41966 NIL=
41966,2024,09,14,21,00,AAXX 14214 41966 02420 71301 10258 20240 39942 40020 83510 333 58008 70172 83616 86460==
41966,2024,09,15,00,00,AAXX 15004 41966 02440 71301 10256 20250 39934 40012 83510 333 58010 70162 83616 86460==
41966,2024,09,15,03,00,AAXX 15034 41966 02450 71401 10285 20250 39959 40037 83510 333 20250 58014 70142 83616 86460==
41966,2024,09,15,06,00,AAXX 15063 41966 02450 71502 10308 20240 39947 40024 83510 333 58010 70122 83616 86460==
41966,2024,09,15,09,00,AAXX 15094 41966 01450 71802 10296 20260 39930 40008 70262 83510 333 58003 70044 83616 86460==
41966,2024,09,15,12,00,AAXX 15124 41966 11430 61201 10280 20230 39940 40018 60016 70162 83510 333 10310 59013 70022 83616 85460==
41966,2024,09,15,18,00,AAXX 15184 41966 02420 61202 10260 20240 39964 40043 82510 333 58020 70014 82616 85460==
41966,2024,09,15,21,00,AAXX 15214 41966 02420 61201 10255 20240 39953 40032 82510 333 58012 70014 82616 85460==
41966,2024,09,16,00,00,AAXX 16004 41966 02440 61201 10255 20240 39964 40043 82510 333 58031 70014 82616 85460==
41966,2024,09,16,03,00,AAXX 16034 41966 02450 41501 10300 20220 39985 40063 82510 333 20247 58026 70014 82616 83460==
41966,2024,09,16,06,00,AAXX 16064 41966 02550 41201 10330 20200 39979 40056 82110 333 58032 70014 82826 83460==
41966,2024,09,16,09,00,AAXX 16093 41966 02550 51801 10338 20230 39959 40036 82130 333 58028 70000 82826 84362==
41966,2024,09,16,12,00,AAXX 16124 41966 01430 61201 10280 20250 39963 40041 70362 82510 333 10345 58023 70030 82616 85460==
41966,2024,09,16,15,00,AAXX 16154 41966 02420 61501 10265 20250 39985 40064 82510 333 58022 70030 82616 85460==
41966,2024,09,16,21,00,AAXX 16214 41966 02420 61301 10260 20240 39984 40063 83510 333 58031 70030 83616 85460==
41966,2024,09,17,00,00,AAXX 17004 41966 01440 61201 10260 20240 39993 40072 70262 83510 333 58029 70003 83616 85460==
41966,2024,09,17,03,00,AAXX 17034 41966 02550 41201 10320 20250 30006 40083 82110 333 20240 58020 70033 82826 83460==
41966,2024,09,17,06,00,AAXX 17064 41966 02550 41501 10330 20250 39996 40073 82130 333 58017 70033 82826 83460==
41966,2024,09,17,09,00,AAXX 17094 41966 02550 41201 10350 20210 39961 40038 82130 333 58002 70033 82826 83362==
41966,2024,09,17,12,00,AAXX 17124 41966 02540 41501 10280 20230 39971 40049 82130 333 10355 58008 70003 82826 83362==
41966,2024,09,17,18,00,AAXX 17184 41966 NIL=
41966,2024,09,17,21,00,AAXX 17214 41966 02420 51301 10270 20250 39979 40057 82510 333 59003 70003 82616 84460==
41966,2024,09,18,00,00,AAXX 18004 41966 02440 50901 10280 20260 39977 40055 82510 333 59017 70000 82616 84460==
41966,2024,09,18,03,00,AAXX 18034 41966 02450 51201 10315 20260 39985 40062 82510 333 20250 59021 70000 82616 84460==
41966,2024,09,18,06,00,AAXX 18064 41966 02450 73501 10322 20250 39968 40045 83510 333 59028 70000 83616 86460==
41966,2024,09,18,09,00,AAXX 18094 41966 NIL=
41966,2024,09,18,12,00,AAXX 18124 41966 02440 61501 10315 20280 39941 40018 82510 333 10340 59031 70000 82616 85460==
41966,2024,09,18,15,00,AAXX 18154 41966 02430 61501 10272 20240 39968 40047 82510 333 59012 70000 82616 85460==
41966,2024,09,18,18,00,AAXX 18184 41966 NIL=
41966,2024,09,18,21,00,AAXX 18214 41966 02420 61201 10260 20250 39958 40037 83510 333 59020 70025 83616 85460==
41966,2024,09,19,00,00,AAXX 19004 41966 01330 81201 10250 20240 39954 40033 79592 8472/ 333 59022 70120 82709 83615 88460 81930==
41966,2024,09,19,03,00,AAXX 19034 41966 01450 31801 10320 20250 39976 40053 70162 81510 333 20240 59009 70255 81616 83460==
41966,2024,09,19,06,00,AAXX 19064 41966 11450 31501 10342 20230 39954 40030 60126 70262 81510 333 59015 70255 81616 83460==
41966,2024,09,19,09,00,AAXX 19094 41966 02450 31501 10355 20240 39928 40004 81530 333 59015 70255 81616 83362==
41966,2024,09,19,12,00,AAXX 19124 41966 02440 41201 10315 20270 39931 40008 82510 333 10360 59010 70255 82616 83460==
41966,2024,09,19,15,00,AAXX 19154 41966 02430 41501 10295 20260 39953 40031 82510 333 59016 70255 82616 83460==
41966,2024,09,19,21,00,AAXX 19214 41966 02420 61501 10270 20250 39953 40032 83510 333 59005 70260 83616 85460==
41977,2024,09,13,00,00,AAXX 13004 41977 01340 83104 10262 20260 39944 49981 76162 8732/ 333 59051 70010 82708 84615 88458 81928==
41977,2024,09,13,03,00,AAXX 13034 41977 01456 83502 10279 20250 39965 40003 70262 8452/ 333 20257 59039 70270 84618 88460==
41977,2024,09,13,06,00,AAXX 13064 41977 01456 80000 10282 20250 39958 49996 70262 8432/ 333 59038 70272 83618 88460 81930==
41977,2024,09,13,09,00,AAXX 13094 41977 01340 81805 10252 20250 39931 49970 76362 8732/ 333 59026 70542 82708 84615 88458==
41977,2024,09,13,12,00,AAXX 13124 41977 01340 81805 10252 20250 39930 49968 76362 8732/ 333 10284 59027 70712 82708 84615 82458==
41977,2024,09,13,15,00,AAXX 13154 41977 01320 81304 10251 20251 39963 40001 76566 8772/ 333 59017 70790 85707 88457==
41977,2024,09,13,18,00,AAXX 13184 41977 21330 81804 10256 20250 39960 49998 76366 8672/ 333 59019 60589 71054 84707 88457==
41977,2024,09,13,21,00,AAXX 13214 41977 01330 81304 10254 20240 39963 40001 76366 8672/ 333 58016 71114 84707 88458==
41977,2024,09,14,00,00,AAXX 14004 41977 21330 81303 10253 20250 39968 40005 76366 8672/ 333 58024 60119 71152 84707 88457==
41977,2024,09,14,03,00,AAXX 14034 41977 01340 81304 10254 20250 39990 40028 76366 8772/ 333 20245 58025 71338 83708 85614 88458==
41977,2024,09,14,06,00,AAXX 14064 41977 21450 80905 10270 20250 39981 40019 72166 8452/ 333 58023 60239 71358 84615 88458==
41977,2024,09,14,09,00,AAXX 14094 41977 01330 81302 10265 20260 39970 40008 76165 8672/ 333 58039 71102 83708 88458==
41977,2024,09,14,12,00,AAXX 14124 41977 21325 81801 10262 20250 39972 40001 76162 8772/ 333 10278 58042 60249 70942 83708 85614 88458==
41977,2024,09,14,15,00,AAXX 14154 41977 02456 80000 10262 20250 39992 40030 8562/ 333 58029 70632 82710 84616 88460==
41977,2024,09,14,18,00,AAXX 14184 41977 02456 81702 10265 20250 39982 40020 8452/ 333 58022 70362 84618 88460==
41977,2024,09,15,00,00,AAXX 15004 41977 02456 80000 10267 20250 39988 40019 8452/ 333 58020 70252 84618 88460==
41977,2024,09,15,03,00,AAXX 15034 41977 01356 81302 10267 20260 30002 40040 72162 8562/ 333 20250 58012 70130 82710 85616 88458==
41977,2024,09,15,06,00,AAXX 15064 41977 11456 71305 10297 20260 39992 40030 60086 70162 83510 333 58011 70108 83617 87459==
41977,2024,09,15,09,00,AAXX 15094 41977 02450 81804 10295 20260 39976 40014 8562/ 333 58006 70094 84617 88460==
41977,2024,09,15,12,00,AAXX 15124 41977 02450 80000 10284 20250 39985 40085 8562/ 333 10299 58013 70084 84617 88460==
41977,2024,09,15,15,00,AAXX 15154 41977 02450 70000 10278 20250 30001 40039 83510 333 58009 70084 83617 87459==
41977,2024,09,15,18,00,AAXX 15184 41977 02450 71803 10284 20240 30011 40049 84570 333 58029 70084 84617 85460==
41977,2024,09,15,21,00,AAXX 15214 41977 02450 80000 10264 20240 30004 40042 8452/ 333 58033 70084 84615 88460==
41977,2024,09,16,00,00,AAXX 16004 41977 02450 70000 10262 20240 30012 40049 84570 333 58023 70084 84615 85460==
41977,2024,09,16,03,00,AAXX 16034 41977 02456 50000 10305 20260 30025 40036 82501 333 20250 58023 70000 82618 84074==
41977,2024,09,16,06,00,AAXX 16064 41977 02456 30000 10330 20250 30024 40062 83500 333 58032 70000 83618==
41977,2024,09,16,09,00,AAXX 16093 41977 02456 72602 10320 20260 30009 40047 83570 333 58033 70000 83616 86460==
41977,2024,09,16,12,00,AAXX 16124 41977 02456 70000 10300 20250 30008 40045 82501 333 10335 58023 70000 82618 84074==
41977,2024,09,16,15,00,AAXX 16154 41977 02456 60000 10276 20270 30034 40071 81531 333 58033 70000 81618 83365 85080==
41977,2024,09,16,18,00,AAXX 16184 41977 02456 70000 10274 20260 30035 40073 84570 333 58024 70000 84616 85460==
41977,2024,09,16,21,00,AAXX 16214 41977 02456 70000 10273 20270 30039 40077 84570 333 58035 70000 84617 86459==
41977,2024,09,17,00,00,AAXX 17004 41977 02456 70000 10273 20270 30042 40080 84530 333 58031 70000 84617 87361==
41977,2024,09,17,03,00,AAXX 17034 41977 02456 41803 10310 20250 30059 40096 82530 333 20268 58034 70000 82618 83362==
41977,2024,09,17,06,00,AAXX 17064 41977 02456 51304 10338 20260 30043 40082 83430 333 58021 70000 82618 84362==
41977,2024,09,17,09,00,AAXX 17094 41977 02456 51801 10315 20250 30018 40056 83430 333 58009 70000 82618 84362==
41977,2024,09,17,12,00,AAXX 17124 41977 02450 51802 10293 20250 30014 40052 83430 333 10343 58006 70000 82618 84362==
41977,2024,09,17,15,00,AAXX 17154 41977 02456 20000 10279 20270 30033 40070 82500 333 59001 70000 82618==
41977,2024,09,17,18,00,AAXX 17184 41977 02456 30000 10274 20270 30031 40069 83500 333 59004 70000 83618==
41977,2024,09,17,21,00,AAXX 17214 41977 02456 60000 10271 20270 30019 40057 83530 333 59020 70000 83618 85362==
41977,2024,09,18,00,00,AAXX 18004 41977 01450 70000 10273 20270 30025 40063 70521 84510 333 59017 70000 84618 87460==
41977,2024,09,18,03,00,AAXX 18034 41977 02456 50000 10320 20270 30033 40070 83510 333 20270 59026 70000 83618 85460==
41977,2024,09,18,06,00,AAXX 18064 41977 02456 70000 10323 20270 30016 40053 84510 333 59029 70000 84617 87459==
41977,2024,09,18,09,00,AAXX 18094 41977 02456 50000 10324 20270 39998 40035 83510 333 59020 70000 83618 85460==
41977,2024,09,18,12,00,AAXX 18124 41977 02450 50901 10306 20270 30008 40045 83510 333 10327 59006 70000 83618 85460==
41977,2024,09,18,15,00,AAXX 18154 41977 01456 60000 10292 20280 30015 40052 70362 82510 333 59018 70010 82618 86460==
41977,2024,09,18,18,00,AAXX 18184 41977 01340 81803 10270 20260 30022 40060 79596 8792/ 333 59009 70050 83708 84615 88458 81928==
41977,2024,09,18,21,00,AAXX 18214 41977 01340 80000 10264 20260 30017 40055 72196 8632/ 333 59002 70170 82708 84615 88458 81928==
41977,2024,09,19,00,00,AAXX 19004 41977 21450 80000 10262 20260 30022 40060 70296 8452/ 333 59003 60128 70170 84617 88460==
41977,2024,09,19,06,00,AAXX 19064 41977 02456 62702 10332 20270 30013 40050 83510 333 59003 70170 83618 86460==
41977,2024,09,19,09,00,AAXX 19094 41977 02456 52702 10349 20280 39985 40022 83501 333 59013 70170 83618 85080==
41977,2024,09,19,12,00,AAXX 19124 41977 02440 61802 10312 20260 39986 40023 83510 333 10355 59022 70170 83618 86460==
41977,2024,09,19,15,00,AAXX 19154 41977 02456 70000 10300 20290 30012 40049 84510 333 59003 70160 84616 87460==
41977,2024,09,19,18,00,AAXX 19184 41977 02450 30000 10294 20280 30022 40059 82530 333 58000 70120 81618 83362==
41977,2024,09,19,21,00,AAXX 19214 41977 02450 60000 10284 20270 30005 40042 83530 333 59012 70000 83618 86362==
41978,2024,09,13,00,00,AAXX 13004 41978 01440 80515 10263 20250 39953 49960 76162 8432/ 333 59056 70040 83614 81959==
41978,2024,09,13,03,00,AAXX 13034 41978 01457 71009 10274 20250 39976 49982 72166 84320 333 20256 59045 70710 83616 87460 81930==
41978,2024,09,13,06,00,AAXX 13064 41978 01457 81011 10271 20250 39975 49981 76162 8423/ 333 59028 70730 83616 88460 81928==
41978,2024,09,13,09,00,AAXX 13094 41978 01331 80715 10254 20254 39944 49951 76366 8532/ 333 59030 71177 84709 88458 81920==
41978,2024,09,13,12,00,AAXX 13124 41978 21316 81016 10251 20251 39942 49949 76566 8532/ 333 10277 60909 71590 84709 88458 81920==
41978,2024,09,13,15,00,AAXX 13154 41978 01320 81315 10250 20250 39977 49983 76366 8432/ 333 59018 71462 84708 88457 81925==
41978,2024,09,13,18,00,AAXX 13184 41978 21345 81410 10252 20240 39976 49982 76166 8432/ 333 59014 60949 71939 84709 88459 81925==
41978,2024,09,13,21,00,AAXX 13214 41978 01350 81706 10253 20250 39971 49977 76166 8432/ 333 58003 72000 83709 88459 81925==
41978,2024,09,14,00,00,AAXX 14004 41978 21350 81112 10254 20250 39978 49984 76166 8432/ 333 58025 60139 72033 83709 88459 81925==
41978,2024,09,14,03,00,AAXX 14034 41978 01325 81212 10252 20252 30003 40009 76366 8432/ 333 20247 58027 72290 83709 88458 81920==
41978,2024,09,14,06,00,AAXX 14064 41978 21459 71212 10276 20260 39994 40001 70166 84370 333 58019 60349 72310 83615 86460 81925==
41978,2024,09,14,09,00,AAXX 14094 41978 01457 81406 10268 20250 39983 49990 76162 8432/ 333 58039 71840 83615 88459 81925==
41978,2024,09,14,12,00,AAXX 14124 41978 21457 81209 10262 20250 39982 49989 72166 8432/ 333 10282 58040 60029 71434 83616 88460 81928==
41978,2024,09,14,15,00,AAXX 14154 41978 02456 71608 10261 20250 30010 40017 83530 333 58033 71002 83616 86360==
41978,2024,09,14,18,00,AAXX 14184 41978 02456 71407 10260 20250 30001 40008 83530 333 58025 70495 83616 86360==
41978,2024,09,14,21,00,AAXX 14214 41978 02456 71307 10258 20250 30000 40007 83530 333 58029 70434 83616 86360==
41978,2024,09,15,00,00,AAXX 15004 41978 02456 81409 10256 20250 39991 49998 8432/ 333 58013 70361 83616 88460 81928==
41978,2024,09,15,03,00,AAXX 15034 41978 01457 81208 10267 20260 30016 40022 72162 8432/ 333 20250 58013 70104 83615 88459 81925==
41978,2024,09,15,06,00,AAXX 15064 41978 21559 71410 10300 20250 30008 40014 70162 82870 333 58014 60048 70064 82625 85460==
41978,2024,09,15,09,00,AAXX 15094 41978 02458 81510 10293 20260 39993 49999 8432/ 333 58011 70054 83617 88460 81930==
41978,2024,09,15,12,00,AAXX 15124 41978 02458 81508 10283 20250 30004 40011 8432/ 333 10301 58022 70040 83617 88460 81930==
41978,2024,09,15,15,00,AAXX 15154 41978 02457 61305 10276 20250 30025 40031 83520 333 58015 70040 83616 86460==
41978,2024,09,15,18,00,AAXX 15184 41978 02457 61206 10274 20250 30026 40032 83520 333 58025 70040 83616 86460==
41978,2024,09,15,21,00,AAXX 15214 41978 02457 61404 10267 20250 30020 40026 83520 333 58020 70040 83616 86460==
41978,2024,09,16,00,00,AAXX 16004 41978 02457 61303 10260 20250 30027 40034 83530 333 58036 70040 83616 85360==
41978,2024,09,16,03,00,AAXX 16034 41978 02/58 61406 10308 20250 30046 40053 82039 333 20257 58030 70000 82365 85080==
41978,2024,09,16,06,00,AAXX 16064 41978 02560 41910 10320 20240 30045 40051 83801 333 58037 70000 83620 83080==
41978,2024,09,16,09,00,AAXX 16094 41978 02559 42212 10312 20260 30030 40036 83501 333 58037 70000 83620 83080==
41978,2024,09,16,12,00,AAXX 16124 41978 02458 62108 10294 20260 30026 40033 83530 333 10330 58022 70000 83618 85360==
41978,2024,09,16,15,00,AAXX 16154 41978 01450 11807 10280 20260 30050 40056 70522 81500 333 58025 70000 81618==
41978,2024,09,16,18,00,AAXX 16184 41978 01450 41004 10276 20270 30052 40058 70521 82530 333 58026 70000 82618 83362==
41978,2024,09,16,21,00,AAXX 16214 41978 01450 61002 10275 20270 30048 40054 70522 83520 333 58028 70000 83617 85460==
41978,2024,09,17,00,00,AAXX 17004 41978 01440 60703 10272 20260 30057 40063 70522 83520 333 58030 70000 83617 85460==
41978,2024,09,17,03,00,AAXX 17034 41978 02557 21804 10313 20250 30074 40080 82100 333 20268 58028 70000 82826==
41978,2024,09,17,06,00,AAXX 17064 41978 02557 22005 10326 20260 30061 40068 82100 333 58016 70000 82826==
41978,2024,09,17,09,00,AAXX 17094 41978 02456 42410 10321 20250 30032 40038 82530 333 58002 70000 82618 83362==
41978,2024,09,17,12,00,AAXX 17124 41978 02456 42409 10300 20250 30028 40034 82530 333 10348 58002 70000 82618 83362==
41978,2024,09,17,15,00,AAXX 17154 41978 01456 42212 10283 20260 30049 40056 70522 82530 333 59001 70000 82618 83362==
41978,2024,09,17,18,00,AAXX 17184 41978 01456 40000 10280 20260 30049 40056 70522 82530 333 59003 70000 82618 83362==
41978,2024,09,17,21,00,AAXX 17214 41978 01450 60000 10279 20270 30039 40046 70522 83520 333 59009 70000 83618 85460==
41978,2024,09,18,00,00,AAXX 18004 41978 01450 60903 10278 20270 30043 40050 70522 83520 333 59014 70000 83618 85460==
41978,2024,09,18,03,00,AAXX 18034 41978 01450 62703 10302 20260 30051 40058 70522 83520 333 20275 59023 70000 83618 85460==
41978,2024,09,18,06,00,AAXX 18064 41978 01450 72907 10315 20270 30035 40041 70522 82320 333 59026 70000 83616 87460 81928==
41978,2024,09,18,09,00,AAXX 18094 41978 01456 72608 10324 20270 30009 40015 70522 84330 333 59023 70000 83616 86360 81930==
41978,2024,09,18,12,00,AAXX 18124 41978 21556 52505 10304 20270 30010 40016 70562 82330 333 10332 59018 60015 70010 82828 84360 81930==
41978,2024,09,18,15,00,AAXX 18154 41978 02450 50000 10294 20270 30031 40038 82530 333 59018 70010 82618 84360==
41978,2024,09,18,18,00,AAXX 18184 41978 01450 61905 10291 20270 30037 40044 70511 83530 333 59012 70010 83617 86360==
41978,2024,09,18,21,00,AAXX 18214 41978 42450 82105 10288 20270 30028 40035 59011 88460==
41978,2024,09,19,00,00,AAXX 19004 41978 21440 81204 10276 20270 30036 40043 72162 8432/ 333 59007 60029 70028 83615 88460 81928==
41978,2024,09,19,03,00,AAXX 19034 41978 01450 50803 10314 20270 30044 40050 70522 82530 333 20267 59007 70028 82618 84360==
41978,2024,09,19,06,00,AAXX 19064 41978 01450 22408 10332 20270 30032 40038 70511 82200 333 59003 70028 82826==
41978,2024,09,19,09,00,AAXX 19094 41978 01456 12506 10337 20270 30003 40009 70511 81500 333 59006 70028 81618==
41978,2024,09,19,12,00,AAXX 19124 41978 01550 32505 10317 20280 30001 40007 70511 81301 333 10340 59009 70018 81828 83080 81930==
41978,2024,09,19,15,00,AAXX 19154 41978 01450 61502 10300 20280 30029 40035 70522 83520 333 59002 70018 83618 85460==
41978,2024,09,19,18,00,AAXX 19184 41978 01445 71203 10290 20280 30036 40042 70521 84320 333 59001 70018 83616 87460 81928==
41978,2024,09,19,21,00,AAXX 19214 41978 01450 41804 10280 20260 30026 40033 70522 84320 333 59002 70008 83616 87460 81928==
41980,2024,09,13,06,00,AAXX 13064 41980 NIL=
41980,2024,09,13,12,00,AAXX 13124 41980 NIL=
41980,2024,09,13,18,00,AAXX 13184 41980 NIL=
41980,2024,09,14,00,00,AAXX 14004 41980 11350 81306 10262 20240 39889 40000 60119 76166 8662/ 333 56399 58027 70480 83709 84614 88456=
41980,2024,09,14,06,00,AAXX 14064 41980 NIL=
41980,2024,09,14,12,00,AAXX 14124 41980 11340 81302 10252 20240 39893 40005 60279 76166 8662/ 333 10280 56399 58021 70420 83709 84614 88456=
41980,2024,09,14,18,00,AAXX 14184 41980 NIL=
41980,2024,09,15,00,00,AAXX 15004 41980 11450 61302 10260 20250 39901 40012 60038 70162 83520 333 56990 58021 70340 83616 86459=
41980,2024,09,15,06,00,AAXX 15064 41980 NIL=
41980,2024,09,15,12,00,AAXX 15124 41980 32450 60000 10274 20240 39908 40019 60046 83510 333 10301 56990 58015 70070 83617 83458=
41980,2024,09,16,00,00,AAXX 16004 41980 32450 50000 10247 20240 39926 40039 82510 333 56990 58025 70040 82617 83458=
41980,2024,09,16,06,00,AAXX 16064 41980 NIL=
41980,2024,09,16,12,00,AAXX 16124 41980 32450 50000 10283 20260 39930 40041 82510 333 10325 56990 58022 70000 82617 83458=
41980,2024,09,17,00,00,AAXX 17004 41980 11450 50000 10260 20250 39955 40067 60014 70362 83510 333 56990 58009 70010 83617 83458=
41980,2024,09,17,06,00,AAXX 17064 41980 NIL=
41980,2024,09,17,12,00,AAXX 17124 41980 32450 50000 10285 20270 39932 40043 83510 333 10333 56990 58002 70010 83617 83458=
41980,2024,09,17,18,00,AAXX 17184 41980 NIL=
41980,2024,09,18,00,00,AAXX 18004 41980 32450 50000 10268 20260 39945 40057 82510 333 56990 59010 70000 82617 83458=
41980,2024,09,18,06,00,AAXX 18064 41980 NIL=
41980,2024,09,18,09,00,AAXX 18094 41980 32456 51803 10314 20270 39912 40022 82510 333 56990 59018 70000 82617 83458=
41980,2024,09,18,12,00,AAXX 18124 41980 32450 50000 10298 20280 39912 40022 82510 333 10320 56990 59020 70000 82617 83458=
41980,2024,09,18,18,00,AAXX 18184 41980 NIL=
41980,2024,09,19,00,00,AAXX 19004 41980 32450 50000 10270 20260 39935 40047 82510 333 56990 59010 70000 82617 83458=
41980,2024,09,19,06,00,AAXX 19064 41980 32456 50000 10298 20260 39936 40047 82510 333 20264 56990 59018 70000 83617 83458=
41980,2024,09,19,12,00,AAXX 19124 41980 32550 20000 10304 20270 39904 40014 70522 82100 333 10347 56900 59008 70000 82824=
41984,2024,09,13,03,00,AAXX 13034 41984 01350 80000 10267 20267 39986 49988 76166 8672/ 333 20244 59028 70900 83707 84615 88456==
41984,2024,09,13,06,00,AAXX 13064 41984 21350 80000 10268 20268 39975 49977 76166 8672/ 333 59036 60169 70830 83707 84615 88456==
41984,2024,09,13,09,00,AAXX 13094 41984 01350 80000 10268 20268 39956 49958 76166 8672/ 333 59028 70870 83707 84615 88456==
41984,2024,09,13,12,00,AAXX 13124 41984 21350 80000 10254 20250 39949 49951 76166 8672/ 333 10281 59037 60229 71050 83707 84615 88456==
41984,2024,09,13,15,00,AAXX 13154 41984 01440 80000 10266 20266 39957 49959 70262 8352/ 333 59031 71046 83618 88458==
41984,2024,09,13,18,00,AAXX 13184 41984 11440 80000 10258 20258 39953 49955 60016 70262 8352/ 333 59041 70966 83618 88458==
41984,2024,09,13,21,00,AAXX 13214 41984 01330 80000 10257 20257 39950 49952 76162 8672/ 333 59028 70696 83707 84615 88456==
41984,2024,09,14,00,00,AAXX 14004 41984 21350 80000 10257 20257 39947 49949 76166 8672/ 333 59017 60089 70466 83707 84615 88456==
41984,2024,09,14,03,00,AAXX 14034 41984 01350 80000 10268 20268 39957 49959 76166 8672/ 333 20253 59029 70456 83707 84615 88456==
41984,2024,09,14,06,00,AAXX 14064 41984 21350 81808 10264 20260 39947 49949 76366 8672/ 333 59028 60169 70466 83707 84615 88456==
41984,2024,09,14,09,00,AAXX 14094 41984 01350 82215 10264 20260 39937 49939 76366 8672/ 333 59019 70786 83707 84615 88456==
41984,2024,09,14,12,00,AAXX 14124 41984 21350 81316 10264 20260 39939 49941 76366 8672/ 333 10281 59010 60549 70786 83707==
41984,2024,09,14,15,00,AAXX 14154 41984 01335 81312 10255 20255 39964 49966 76366 8672/ 333 58007 71130 83707 84615 88456==
41984,2024,09,14,18,00,AAXX 14184 41984 21340 81812 10273 20270 39962 49964 76166 8672/ 333 58009 60899 71670 83707 84615 88456==
41984,2024,09,14,21,00,AAXX 14214 41984 01340 81311 10265 20265 39955 49957 76166 8672/ 333 58005 71740 83707 84615 88456==
41984,2024,09,15,00,00,AAXX 15004 41984 21340 81808 10262 20260 39949 49951 76166 8572/ 333 58002 60309 71890 82707 84617 88458==
41984,2024,09,15,03,00,AAXX 15034 41984 01340 81306 10260 20250 39972 49974 75166 8672/ 333 20245 58015 71886 82707 84617 88458==
41984,2024,09,15,06,00,AAXX 15064 41984 21350 81308 10285 20250 39971 49973 70265 8562/ 333 58024 60069 71796 81707 84617 88458==
41984,2024,09,15,09,00,AAXX 15094 41984 02350 81312 10285 20280 39959 49961 8562/ 333 58022 71436 81707 84617 88458==
41984,2024,09,15,12,00,AAXX 15124 41984 01350 82208 10277 20260 39967 49969 70252 8562/ 333 10288 58028 70020 81707 84617 88458==
41984,2024,09,15,21,00,AAXX 15214 41984 02440 81304 10283 20270 39996 49998 8452/ 333 58041 70334 84617 88458==
41984,2024,09,16,00,00,AAXX 16004 41984 01440 81304 10282 20270 39999 40001 70522 8452/ 333 58050 70132 84617 88458==
41984,2024,09,16,03,00,AAXX 16034 41984 02450 61304 10300 20280 30018 40020 83520 333 20251 58046 70088 83617 86458==
41984,2024,09,16,06,00,AAXX 16064 41984 02450 80203 10305 20280 30025 40027 8452/ 333 58054 70068 84617 88458==
41984,2024,09,16,09,00,AAXX 16093 41984 02456 52201 10315 20280 30012 40014 84410 333 58053 70068 82617 84458==
41984,2024,09,16,12,00,AAXX 16124 41984 02450 51802 10290 20270 30014 40016 83510 333 10320 58047 70050 83617 84458==
41984,2024,09,16,15,00,AAXX 16154 41984 02445 30000 10280 20270 30030 40032 83530 333 58044 70000 83617 82359==
41984,2024,09,17,00,00,AAXX 17004 41984 02445 20000 10280 20270 30043 40045 82530 333 58044 70000 82617==
41984,2024,09,17,03,00,AAXX 17034 41984 01350 71802 10297 20270 30059 40061 75321 85720 333 20248 58041 70000 81708 84617 86458==
41984,2024,09,17,06,00,AAXX 17064 41984 01456 41302 10325 20280 30049 40051 70152 84400 333 58024 70000 83616==
41984,2024,09,17,09,00,AAXX 17094 41984 02456 31801 10322 20260 30025 40027 83400 333 58013 70000 83617==
41984,2024,09,17,12,00,AAXX 17124 41984 02450 10000 10295 20270 30020 40022 81500 333 10331 58006 70000 81617==
41984,2024,09,17,18,00,AAXX 17184 41984 NIL=
41984,2024,09,18,00,00,AAXX 18004 41984 01440 30000 10265 20265 30031 40033 70511 82530 333 59012 70000 82617==
41984,2024,09,18,03,00,AAXX 18034 41984 02456 60000 10320 20260 30044 40046 83510 333 20260 59015 70000 83618 85458==
41984,2024,09,18,06,00,AAXX 18064 41984 02456 60000 10330 20260 30033 40035 83510 333 59016 70000 83618 85458==
41984,2024,09,18,09,00,AAXX 18094 41984 02456 60000 10346 20270 30007 40009 83510 333 59018 70000 83618 85458==
41984,2024,09,18,12,00,AAXX 18124 41984 02456 60000 10306 20280 30008 40010 83510 333 10355 70000 83618 85458==
41984,2024,09,18,15,00,AAXX 18154 41984 02440 60000 10286 20280 30029 40031 83510 333 59007 70000 83618 85458==
41984,2024,09,18,18,00,AAXX 18184 41984 02440 60000 10283 20270 30029 40031 83510 333 59007 70000 83618 85458==
41984,2024,09,18,21,00,AAXX 18214 41984 02440 60000 10283 20270 30028 40030 83510 333 59006 70000 83618 85458==
41984,2024,09,19,00,00,AAXX 19004 41984 02456 80000 10284 20270 30025 40027 8352/ 333 59006 70000 83618 88458==
41984,2024,09,19,03,00,AAXX 19034 41984 02456 80000 10284 20280 30040 40042 8352/ 333 20279 59004 70000 83618 88458==
41984,2024,09,19,06,00,AAXX 19064 41984 02457 60000 10336 20280 30028 40030 83510 333 59005 70000 83618 85458==
41984,2024,09,19,09,00,AAXX 19094 41984 02457 60000 10354 20270 30007 40009 83510 333 58000 70000 83618 85458==
41984,2024,09,19,12,00,AAXX 19124 41984 02456 60000 10312 20290 39997 49999 83510 333 10360 59011 70000 83618 85458==
41984,2024,09,19,15,00,AAXX 19154 41984 02440 60000 10300 20290 30021 40023 83510 333 59008 70000 83618 85458==
41984,2024,09,19,18,00,AAXX 19184 41984 02440 60000 10292 20280 30023 40025 83510 333 59006 70000 83618 85458==
41984,2024,09,19,21,00,AAXX 19214 41984 02440 60000 10286 20280 30020 40022 83510 333 59008 70000 83618 85458==
41989,2024,09,13,00,00,AAXX 13004 41989 01330 81403 10255 20250 39960 49963 76162 8572/ 333 59049 70580 82708 83614 88456==
41989,2024,09,13,03,00,AAXX 13034 41989 01350 81402 10270 20260 39976 49979 76166 8572/ 333 20248 59055 70680 82708 83614 88456==
41989,2024,09,13,06,00,AAXX 13064 41989 21330 81309 10253 20240 39971 49974 76266 8572/ 333 59050 60279 70850 82709 83614 88456==
41989,2024,09,13,09,00,AAXX 13094 41989 41330 81408 10260 20250 39964 49967 76366 8572/ 333 59018 82708 83614 88456==
41989,2024,09,13,12,00,AAXX 13124 41989 NIL=
41989,2024,09,13,15,00,AAXX 13154 41989 01330 81809 10260 20250 39970 49973 76366 8562/ 333 59025 72380 82708 83614 88456==
41989,2024,09,13,18,00,AAXX 13184 41989 NIL=
41989,2024,09,13,21,00,AAXX 13214 41989 01330 81407 10254 20240 39971 49974 76266 8572/ 333 59026 72580 82709 83614 88456==
41989,2024,09,14,00,00,AAXX 14004 41989 21320 81308 10256 20250 39980 49983 76366 8572/ 333 59020 60489 72730 82708 84614 88456==
41989,2024,09,14,03,00,AAXX 14034 41989 01330 81707 10257 20250 30002 40005 76166 8572/ 333 20248 58026 73190 82710 83614 88456==
41989,2024,09,14,06,00,AAXX 14064 41989 21450 61406 10272 20250 39998 40001 70262 83570 333 58027 60587 73040 83618 84460==
41989,2024,09,14,12,00,AAXX 14124 41989 11450 71805 10270 20250 39998 40001 60016 70362 83570 333 10277 58023 72080 83618 85460==
41989,2024,09,14,15,00,AAXX 14154 41989 02450 61806 10267 20250 30009 40012 83570 333 58038 71230 83618 84460==
41989,2024,09,14,18,00,AAXX 14184 41989 NIL=
41989,2024,09,14,21,00,AAXX 14214 41989 02440 51805 10264 20240 30013 40016 82570 333 58042 70880 82618 83362==
41989,2024,09,15,00,00,AAXX 15004 41989 02440 61405 10262 20240 30002 40005 83570 333 58022 70600 83618 84460==
41989,2024,09,15,03,00,AAXX 15034 41989 01450 71806 10272 20250 30021 40024 70362 83570 333 20255 58019 70210 83618 85460==
41989,2024,09,15,06,00,AAXX 15064 41989 21450 51806 10288 20260 30013 40016 70162 82570 333 58015 60175 70190 82618 83362 82570==
41989,2024,09,15,09,00,AAXX 15094 41989 02456 51806 10297 20260 39994 49997 83570 333 58009 70170 83618 83362==
41989,2024,09,15,12,00,AAXX 15124 41989 02450 61805 10282 20260 39985 40088 83570 333 10300 58007 70170 83618 84460==
41989,2024,09,15,15,00,AAXX 15154 41989 02450 61306 10272 20250 30021 40024 82570 333 58012 70170 82618 83362==
41989,2024,09,15,21,00,AAXX 15214 41989 02450 51804 10265 20250 30025 40028 82570 333 58012 70170 82618 83460==
41989,2024,09,16,00,00,AAXX 16004 41989 02450 41304 10262 20240 30019 40023 82530 333 58017 70170 82618 84362==
41989,2024,09,16,03,00,AAXX 16034 41989 02456 61805 10293 20260 30039 40042 83570 333 20256 58018 70000 83618 84460==
41989,2024,09,16,06,00,AAXX 16064 41989 02456 31806 10327 20270 30038 40041 83500 333 58025 70000 83618==
41989,2024,09,16,09,00,AAXX 16094 41989 01456 51706 10313 20270 30023 40026 70362 82570 333 58029 70010 82618 83362==
41989,2024,09,16,12,00,AAXX 16124 41989 11450 41804 10289 20260 30014 40017 60016 70162 83530 333 10331 58029 70010 83618 84362 83530==
41989,2024,09,16,15,00,AAXX 16154 41989 02450 31403 20260 30046 40049 83500 333 58025 70010 83618==
41989,2024,09,16,21,00,AAXX 16214 41989 42450 21302 10270 20250 30050 40053 82500 333 58025 82618==
41989,2024,09,17,00,00,AAXX 17004 41989 02450 21402 10263 20250 30058 40061 82500 333 58039 70010 82618==
41989,2024,09,17,03,00,AAXX 17034 41989 02456 11804 10308 20260 30076 40079 81500 333 20254 58036 70010 81618==
41989,2024,09,17,06,00,AAXX 17064 41989 02456 21803 10322 20260 30061 40064 82500 333 58023 70010 82618==
41989,2024,09,17,09,00,AAXX 17094 41989 02456 21706 10313 20250 30033 40037 82500 333 58010 70000 82618==
41989,2024,09,17,12,00,AAXX 17124 41989 02456 31803 10298 20260 30022 40026 83500 333 10324 58008 70000 83618==
41989,2024,09,17,15,00,AAXX 17154 41989 02450 31801 10283 20260 30044 40048 82530 333 59002 70000 82618==
41989,2024,09,17,18,00,AAXX 17184 41989 NIL=
41989,2024,09,17,21,00,AAXX 17214 41989 02450 20000 10277 20260 39950 40053 82500 333 58000 70000 82618==
41989,2024,09,18,00,00,AAXX 18004 41989 02450 20000 10273 20260 30047 40050 82500 333 59011 70000 82618==
41989,2024,09,18,06,00,AAXX 18064 41989 02456 81803 10327 20280 30050 40053 82570 333 59011 70000 82618 84460==
41989,2024,09,18,09,00,AAXX 18094 41989 02456 51404 10318 20270 30012 40016 83570 333 59021 70000 83618 83362==
41989,2024,09,18,12,00,AAXX 18124 41989 02450 51802 10301 20260 30004 40008 82570 333 10332 59011 70000 82628 83362==
41989,2024,09,18,15,00,AAXX 18154 41989 02450 30000 10293 20270 30032 40036 83500 333 59012 70000 83618==
41989,2024,09,18,18,00,AAXX 18184 41989 NIL=
41989,2024,09,18,21,00,AAXX 18214 41989 02450 40000 10280 20260 30039 40042 82530 333 59011 70000 82618 84362==
41989,2024,09,19,00,00,AAXX 19004 41989 02450 50000 10272 20260 30039 40042 82570 333 59011 70000 82618 83362==
41989,2024,09,19,03,00,AAXX 19034 41989 02456 21703 10313 20260 30051 40054 82500 333 20266 59015 70000 82618==
41989,2024,09,19,06,00,AAXX 19064 41989 02456 11804 10323 20270 30041 40044 81500 333 59009 70000 81618==
41989,2024,09,19,09,00,AAXX 19094 41989 42456 11304 10328 20270 30002 40006 81500 333 59010 81618==
41989,2024,09,19,12,00,AAXX 19124 41989 02456 21703 10307 20270 39993 49997 82500 333 10333 59011 70000 82618==
41989,2024,09,19,15,00,AAXX 19154 41989 02456 40000 10298 20290 30027 40031 82530 333 59005 70000 82618 84362==
41989,2024,09,19,21,00,AAXX 19214 41989 02450 30000 10285 20280 30030 40033 83500 333 59009 70000 83618==
41992,2024,09,13,00,00,AAXX 13004 41992 21315 82710 10260 20260 39972 49974 79596 8692/ 333 59042 60639 73780 82708 84612 88456 81925==
41992,2024,09,13,03,00,AAXX 13034 41992 01320 82108 10265 20265 39982 49984 76366 8692/ 333 20250 59043 74010 82708 84613 88456 81925==
41992,2024,09,13,06,00,AAXX 13064 41992 21320 82710 10255 20255 39977 49979 76566 8692/ 333 59034 60779 74530 82708 84612 88456 81925==
41992,2024,09,13,09,00,AAXX 13094 41992 01010 81802 10260 20260 39956 49958 76566 8692/ 333 59030 75010 84707 85612 88458 81925==
41992,2024,09,13,12,00,AAXX 13124 41992 21310 81820 10260 20260 39975 49977 76566 8692/ 333 10275 59016 61089 74360 84707 85612 88458 81925==
41992,2024,09,13,15,00,AAXX 13154 41992 01315 81514 10258 20250 39997 49999 76366 8592/ 333 59006 73950 83707 85613 88458 81925==
41992,2024,09,13,18,00,AAXX 13184 41992 21320 81812 10257 20250 39991 49993 76166 8432/ 333 58018 60239 72710 82707 84613 88458 81925==
41992,2024,09,13,21,00,AAXX 13214 41992 01320 81508 10258 20250 39977 49979 76166 8692/ 333 58015 72350 82708 84612 88456 81925==
41992,2024,09,14,00,00,AAXX 14004 41992 21320 81505 10255 20250 39990 49992 76166 8692/ 333 58018 60179 72250 82708 84612 88456 81925==
41992,2024,09,14,03,00,AAXX 14034 41992 01320 81506 10257 20257 30013 40015 76166 8592/ 333 20250 58031 72620 83708 85613 88458 81925==
41992,2024,09,14,06,00,AAXX 14064 41992 21320 81805 10260 30007 40009 76166 8592/ 333 58030 60629 72100 83708 85613 88458 81925==
41992,2024,09,14,09,00,AAXX 14094 41992 01320 81805 10265 20260 39994 49996 76166 8592/ 333 58038 71410 82707 84614 88458 81925==
41992,2024,09,14,12,00,AAXX 14124 41992 21420 80000 10260 20250 39993 49995 76166 8592/ 333 10275 58018 60069 71100 84614 88458 81925==
41992,2024,09,14,15,00,AAXX 14154 41992 01420 81503 10260 20250 30019 40021 76166 8692/ 333 58022 70940 82708 84613 88458 81925==
41992,2024,09,14,18,00,AAXX 14184 41992 21420 82104 10258 20258 30010 40012 75165 8592/ 333 58019 60018 70860 84614 88458 81925==
41992,2024,09,14,21,00,AAXX 14214 41992 01320 83603 10258 20258 39997 40000 76165 8692/ 333 58019 70870 82708 84613 88456 81925==
41992,2024,09,15,00,00,AAXX 15004 41992 21320 80903 10255 20250 30004 40006 76166 8692/ 333 58014 60199 70880 82708 84613 88456 81925==
41992,2024,09,15,03,00,AAXX 15034 41992 01320 81504 10261 20260 30029 40031 76166 8592/ 333 20253 58016 70440 83708 85613 88458 81925==
41992,2024,09,15,06,00,AAXX 15063 41992 21425 81503 10283 20250 30019 40021 70562 8532/ 333 58012 60188 70440 85615 88460 81925==
41992,2024,09,15,09,00,AAXX 15094 41992 01430 61510 10310 20250 30008 40010 70522 84530 333 58014 70420 84615 86460==
41992,2024,09,15,12,00,AAXX 15124 41992 01430 82105 10285 20260 30018 40020 70522 8532/ 333 10314 58025 70380 84615 88458 81925==
41992,2024,09,15,15,00,AAXX 15154 41992 01425 80000 10265 20250 30034 40036 70522 8432/ 333 58015 70370 83616 88460 81925==
41992,2024,09,15,18,00,AAXX 15184 41992 01425 80000 10260 20240 30037 40039 70522 8432/ 333 58027 70370 83616 88460 81925==
41992,2024,09,15,21,00,AAXX 15214 41992 01420 81502 10265 20250 30024 40026 70522 8452/ 333 58026 70180 84615 88460==
41992,2024,09,16,00,00,AAXX 16004 41992 01425 81503 10260 20240 30032 40042 70522 8452/ 333 58028 70180 84615 88460==
41992,2024,09,16,03,00,AAXX 16034 41992 01/35 40000 10300 20250 30051 40053 70522 84030 333 20255 58022 70020 84362==
41992,2024,09,16,06,00,AAXX 16064 41992 01435 51704 10319 20260 30053 40055 70521 82530 333 58034 70000 82616 85362==
41992,2024,09,16,09,00,AAXX 16094 41992 01435 62106 10302 20250 30035 40037 70522 84530 333 58027 70000 84616 86362==
41992,2024,09,16,12,00,AAXX 16124 41992 01430 51505 10290 20260 30040 40042 70522 83530 333 10324 58022 70000 83616 85362==
41992,2024,09,16,15,00,AAXX 16154 41992 01425 50000 10270 20250 30055 40057 70522 83530 333 58021 70000 83616 85362==
41992,2024,09,16,18,00,AAXX 16184 41992 01425 70000 10264 20240 30060 40062 70522 84530 333 58023 70000 84615 87360==
41992,2024,09,16,21,00,AAXX 16214 41992 01425 60000 10260 20240 30051 40053 70522 84530 333 58027 70000 84615 86360==
41992,2024,09,17,00,00,AAXX 17004 41992 01425 60000 10255 20250 30062 40064 70522 84530 333 58030 70000 84615 86360==
41992,2024,09,17,03,00,AAXX 17034 41992 01435 22103 10305 20260 30079 40081 70521 82500 333 20248 58028 70000 82616==
41992,2024,09,17,06,00,AAXX 17064 41992 01/45 11803 10315 20260 30065 40067 70521 81030 333 58012 70000 81362==
41992,2024,09,17,09,00,AAXX 17094 41992 01/45 20000 10315 20270 30040 40042 70511 82030 333 58005 70000 82362==
41992,2024,09,17,12,00,AAXX 17124 41992 01/30 40000 10290 20260 30036 40038 70511 84030 333 10325 59004 70000 84362==
41992,2024,09,17,15,00,AAXX 17154 41992 01425 62102 10282 20260 30054 40056 70522 84530 333 59001 70000 84616 86362==
41992,2024,09,17,18,00,AAXX 17184 41992 01425 60000 10278 20270 30055 40057 70522 84530 333 59005 70000 84615 86362==
41992,2024,09,17,21,00,AAXX 17214 41992 01425 60000 10275 20270 30044 40046 70522 84530 333 59007 70000 84615 86360==
41992,2024,09,18,00,00,AAXX 18004 41992 02425 60000 10275 20270 30050 40052 84530 333 58012 70000 84615 86360==
41992,2024,09,18,03,00,AAXX 18034 41992 01435 30000 10305 20270 30057 40059 70521 83500 333 20269 59008 70000 83616==
41992,2024,09,18,06,00,AAXX 18064 41992 01435 53004 10326 20270 30039 40041 70521 83530 333 59026 70000 83616 85362==
41992,2024,09,18,09,00,AAXX 18094 41992 01430 52708 10320 20260 30018 40020 70522 84530 333 59022 70000 84616 85362==
41992,2024,09,18,12,00,AAXX 18124 41992 01425 73005 10290 20260 30020 40022 70522 84530 333 10332 59016 70000 84615 87360==
41992,2024,09,18,15,00,AAXX 18154 41992 01425 80000 10285 20280 30041 40043 76122 8492/ 333 59013 70010 83614 88458 81925==
41992,2024,09,18,18,00,AAXX 18184 41992 21425 80000 10280 20270 30043 40045 71062 8432/ 333 59012 60015 70010 83616 88460 81925==
41992,2024,09,18,21,00,AAXX 18214 41992 01420 80000 10275 20270 30031 40033 71722 8592/ 333 59013 70010 84615 88460 81925==
41992,2024,09,19,00,00,AAXX 19004 41992 01420 70000 10273 20260 30046 40048 71022 84520 333 59004 70010 84615 87460==
41992,2024,09,19,03,00,AAXX 19034 41992 01435 10000 10305 20280 30049 40051 70521 81500 333 20268 59008 70010 81616==
41992,2024,09,19,06,00,AAXX 19064 41992 01935 00000 10327 20280 30035 40037 70522 333 59004 70010==
41992,2024,09,19,09,00,AAXX 19094 41992 01440 10000 10330 20270 30011 40013 70511 81500 333 59007 70010 81617==
41992,2024,09,19,12,00,AAXX 19124 41992 01435 61802 10315 20270 30007 40009 70522 84530 333 10340 59013 70010 84616 86362==
41992,2024,09,19,15,00,AAXX 19154 41992 01425 40000 10284 20250 30038 40040 70522 82530 333 59003 70000 82616 84362==
41992,2024,09,19,18,00,AAXX 19184 41992 01425 60000 10278 20260 30044 40046 70521 83530 333 58001 70000 83616 86362==
41992,2024,09,19,21,00,AAXX 19214 41992 01425 40000 10275 20260 30026 40028 70521 82530 333 59005 70000 82616 84362==
41998,2024,09,13,03,00,AAXX 13034 41998 01456 80000 10290 20260 30007 40013 79596 8442/ 333 20270 59014 72480 83616 88456 81929==
41998,2024,09,13,06,00,AAXX 13064 41998 NIL=
41998,2024,09,13,12,00,AAXX 13124 41998 21456 80000 10264 20250 39997 40003 76166 8442/ 333 10290 59001 60179 71130 83616 88456==
41998,2024,09,13,18,00,AAXX 13184 41998 NIL=
41998,2024,09,14,03,00,AAXX 14034 41998 01456 80000 10280 20260 30000 40006 76166 8442/ 333 20267 58005 70510 83616 88456==
41998,2024,09,14,06,00,AAXX 14064 41998 NIL=
41998,2024,09,14,09,00,AAXX 14094 41998 01456 81802 10271 20260 39985 49991 76166 8442/ 333 59006 70360 83616 88456==
41998,2024,09,14,12,00,AAXX 14124 41998 21456 80000 10263 20250 39985 49991 76166 8442/ 333 10289 59009 60069 70310 83616 88456==
41998,2024,09,14,18,00,AAXX 14184 41998 21456 80000 10270 20250 39998 40004 76166 8442/ 333 59008 60069 70300 83616 88456==
41998,2024,09,15,00,00,AAXX 15004 41998 21456 80000 10265 20260 30009 40015 76166 8442/ 333 59010 60039 70190 83616 88456==
41998,2024,09,15,06,00,AAXX 15064 41998 21456 80000 10282 20260 39998 40004 76166 8442/ 333 58002 60059 70200 83618 88458==
41998,2024,09,15,12,00,AAXX 15124 41998 02456 80000 10274 20250 30006 40012 8442/ 333 10292 58012 70140 83618 88458==
41998,2024,09,16,00,00,AAXX 16004 41998 02456 60000 10270 20250 30048 40054 83470 333 58039 70050 82618 84458==
41998,2024,09,16,03,00,AAXX 16034 41998 02456 60000 10282 20250 30039 40045 83470 333 20265 58045 70040 82618 84458==
41998,2024,09,16,06,00,AAXX 16064 41998 02456 60000 10294 20250 30045 40051 83470 333 58047 70000 82618 84458==
41998,2024,09,16,09,00,AAXX 16093 41998 02456 60000 10293 20250 30032 40038 83470 333 58029 70000 82618 84458==
41998,2024,09,16,12,00,AAXX 16124 41998 02456 60000 10284 20250 30036 40042 83470 333 10297 58030 70000 82618 84458==
41998,2024,09,17,00,00,AAXX 17004 41998 NIL=
41998,2024,09,17,03,00,AAXX 17034 41998 02956 00000 10293 30035 40041 333 20266 59004 70000==
41998,2024,09,17,06,00,AAXX 17064 41998 NIL=
41998,2024,09,17,09,00,AAXX 17094 41998 02956 01702 10312 20270 30028 40034 333 59004 70000==
41998,2024,09,17,12,00,AAXX 17124 41998 02956 00000 10286 20250 30024 40030 333 10324 59008 70000==
41998,2024,09,17,18,00,AAXX 17184 41998 NIL=
41998,2024,09,18,06,00,AAXX 18064 41998 02956 00000 10310 20260 30022 40028 333 59013 70000==
41998,2024,09,18,09,00,AAXX 18094 41998 02456 61702 10303 20260 30011 40017 83470 333 59017 70000 82618 84458==
41998,2024,09,18,12,00,AAXX 18124 41998 01456 80000 10267 20260 30012 40018 72122 8442/ 333 10327 59012 70020 83618 88458==
41998,2024,09,18,18,00,AAXX 18184 41998 NIL=
41998,2024,09,19,00,00,AAXX 19004 41998 02456 80000 10275 20260 30050 40056 8442/ 333 70050 83618 88458==
41998,2024,09,19,03,00,AAXX 19034 41998 02456 60000 10300 20260 30038 40044 83470 333 20265 58003 70050 82618 83458==
41998,2024,09,19,06,00,AAXX 19064 41998 02456 40114 10316 20270 30028 40034 82470 333 58006 70050 81618 83458==
41998,2024,09,19,09,00,AAXX 19094 41998 02456 41601 10311 20270 30015 40021 82470 333 58004 70050 81618 83458==
41998,2024,09,19,12,00,AAXX 19124 41998 02456 40000 10284 20250 30015 40021 82470 333 10331 58003 70000 81618 83458==
