ESTACION,ANO,MES,DIA,HORA,MINUTO,PARTE
41850,2024,05,24,00,00,AAXX 24004 41850 31425 30000 10256 20250 39933 40032 71010 81530 333 56990 59022 70000 81618 83362=
41850,2024,05,24,03,00,AAXX 24034 41850 32957 00000 10360 20210 39924 40019 333 59029 70000=
41850,2024,05,24,12,00,AAXX 24124 41850 32956 00000 10345 20280 39889 49985 333 10379 59015 70000=
41850,2024,05,24,18,00,AAXX 24184 41850 NIL=
41850,2024,05,25,00,00,AAXX 25004 41850 31950 00000 10264 20250 39909 40007 70500 333 59024 70000=
41850,2024,05,25,06,00,AAXX 25064 41850 32957 00000 10367 20230 39902 49996 333 59022 70000=
41850,2024,05,25,12,00,AAXX 25124 41850 32956 00000 10364 20260 39870 49964 333 10382 59019 70000=
41850,2024,05,25,18,00,AAXX 25184 41850 NIL=
41850,2024,05,26,00,00,AAXX 26004 41850 31950 30000 10275 20250 39913 40010 70510 83030 333 56090 58004 70000 83362=
41850,2024,05,26,06,00,AAXX 26064 41850 32457 20000 10347 20250 39908 40003 82500 333 56900 58006 70000 82618=
41850,2024,05,26,12,00,AAXX 26124 41850 32456 20000 10343 20230 39858 49952 82500 333 10362 56900 59012 70000 82618=
41850,2024,05,26,18,00,AAXX 26184 41850 NIL=
41850,2024,05,27,00,00,AAXX 27004 41850 11450 80000 10260 20240 39893 49991 60015 70562 8452/ 333 56999 59020 70010 84618 88458=
41850,2024,05,27,06,00,AAXX 27064 41850 32457 70903 10325 20240 39878 49973 82510 333 56990 59030 70010 82618 87458=
41850,2024,05,27,12,00,AAXX 27124 41850 32456 80000 10304 20240 39839 49935 8452/ 333 10334 56999 59019 70010 84618 88458=
41850,2024,05,27,18,00,AAXX 27184 41850 31445 50000 10278 20230 39851 49947 70522 82510 333 56990 59029 70010 82618 85458=
41850,2024,05,28,00,00,AAXX 28004 41850 32450 70000 10270 20230 39840 49937 70522 83510 333 56990 59053 70000 83618 87458=
41850,2024,05,28,06,00,AAXX 28064 41850 32457 61304 10345 20230 39854 49948 82510 333 56990 59024 70000 82618 86458=
41850,2024,05,28,12,00,AAXX 28124 41850 32456 60000 10317 20250 39846 49941 82510 333 10366 56990 58007 70000 82618 86458=
41850,2024,05,28,18,00,AAXX 28184 41850 NIL=
41850,2024,05,29,00,00,AAXX 29004 41850 11440 80000 10251 20240 39873 49970 60066 70596 8452/ 333 56999 58033 70060 84618 88458=
41850,2024,05,29,06,00,AAXX 29064 41850 32456 80000 10315 20270 39884 49980 70522 8352/ 333 56999 58030 70060 83618 88458=
41850,2024,05,29,12,00,AAXX 29124 41850 32450 70000 10320 20280 39865 49960 8352/ 333 10339 56999 58019 70060 83618 87458=
41850,2024,05,29,18,00,AAXX 29184 41850 NIL=
41850,2024,05,30,00,00,AAXX 30004 41850 31450 80000 10252 20240 39905 40003 70522 8452/ 333 56999 58032 70020 84618 88458=
41850,2024,05,30,06,00,AAXX 30064 41850 11450 80000 10280 20240 39913 40010 60105 70562 8452/ 333 56999 58029 70120 84618 88458=
41850,2024,05,30,12,00,AAXX 30124 41850 31430 81802 10270 20240 39907 40005 70522 8452/ 333 10288 56499 58042 70120 84616 88458=
41850,2024,05,30,18,00,AAXX 30184 41850 11430 80000 10254 20230 39916 40014 60198 70596 8452/ 333 56299 58025 70290 84616 88458=
41851,2024,05,24,00,00,AAXX 24004 41851 31940 10000 10268 20260 39970 40032 70510 81030 333 56090 59021 70000 81618=
41851,2024,05,24,03,00,AAXX 24034 41851 32450 10902 10370 20230 39958 40018 81500 333 56900 59018 70000 81618=
41851,2024,05,24,12,00,AAXX 24124 41851 32450 30000 10350 20250 39913 49973 83500 333 10386 56900 59028 70000 83618=
41851,2024,05,24,18,00,AAXX 24184 41851 32950 00000 10290 20280 39955 40017 333 59011 70000=
41851,2024,05,25,00,00,AAXX 25004 41851 31940 00000 10270 20260 39946 40008 70500 333 59024 70000=
41851,2024,05,25,06,00,AAXX 25064 41851 32950 01803 10369 20220 39939 49999 333 59019 70000=
41851,2024,05,25,12,00,AAXX 25124 41851 32450 30000 10366 20260 39904 49964 83500 333 10390 56900 59009 70000 83618=
41851,2024,05,25,18,00,AAXX 25184 41851 32450 20000 10295 20290 39947 40009 82500 333 56900 59008 70000 82618=
41851,2024,05,26,00,00,AAXX 26004 41851 31440 60000 10270 20250 39947 40009 70520 83510 333 56990 58001 70000 83618 84459=
41851,2024,05,26,06,00,AAXX 26064 41851 32450 60902 10352 20250 39945 40006 83510 333 56990 58006 70000 83618 84459=
41851,2024,05,26,12,00,AAXX 26124 41851 32450 60902 10346 20250 39891 49951 83510 333 10365 56990 59013 70000 83618 84459=
41851,2024,05,26,18,00,AAXX 26184 41851 32450 81804 10310 20260 39921 49982 8352/ 333 56999 59026 70000 83618 88458=
41851,2024,05,27,00,00,AAXX 27004 41851 11450 80903 10262 20240 39922 49984 69926 70296 8352/ 333 56999 59025 70002 83618 88458=
41851,2024,05,27,06,00,AAXX 27064 41851 32350 80906 10287 20240 39917 49978 8462/ 333 56499 59028 70002 81709 83616 88457=
41851,2024,05,27,12,00,AAXX 27124 41851 32350 80507 10282 20240 39874 49936 8462/ 333 10306 56499 59017 70002 81709 83617 88457=
41851,2024,05,27,18,00,AAXX 27184 41851 32350 80907 10266 20240 39883 49945 8462/ 333 56499 59038 70002 81708 83616 88456=
41851,2024,05,28,00,00,AAXX 28004 41851 32450 80901 10270 20240 39880 49942 8352/ 333 56999 59042 70000 83618 88458=
41851,2024,05,28,06,00,AAXX 28064 41851 32450 71301 10331 20240 39899 49960 83520 333 56990 59018 70000 83618 87458=
41851,2024,05,28,12,00,AAXX 28124 41851 32450 62202 10330 20250 39883 49944 83520 333 10362 56990 58009 70000 83618 86458=
41851,2024,05,28,18,00,AAXX 28184 41851 31350 72201 10291 20250 39908 49969 71321 84320 333 56990 58025 70000 83618 81930 87458=
41851,2024,05,29,00,00,AAXX 29004 41851 11350 81301 10264 20240 39914 49976 60015 70262 8462/ 333 56299 58034 70010 81709 83617 88457=
41851,2024,05,29,06,00,AAXX 29064 41851 32450 81301 10336 20280 39922 49982 8352/ 333 56999 58023 70010 83618 88458=
41851,2024,05,29,12,00,AAXX 29124 41851 32450 61802 10340 20280 39900 49961 83520 333 10360 56990 58017 70010 83618 86458=
41851,2024,05,29,18,00,AAXX 29184 41851 11350 81502 10261 20250 39930 49993 60154 71796 8492/ 333 56999 58022 70160 81709 83617 81929 88457=
41851,2024,05,30,00,00,AAXX 30004 41851 32350 81502 10250 20240 39946 40009 8462/ 333 56599 58032 70150 81709 83617 88457=
41851,2024,05,30,06,00,AAXX 30064 41851 11350 81202 10245 20230 39964 40027 60247 70296 8462/ 333 56599 58042 70385 81709 83617 88457=
41851,2024,05,30,12,00,AAXX 30124 41851 32350 80903 10253 20230 39944 40007 8462/ 333 10265 56499 58044 70385 81709 83617 88457=
41851,2024,05,30,18,00,AAXX 30184 41851 11330 80000 10238 20230 39964 40027 60232 79596 8592/ 333 56999 58034 70468 82708 84615 81929 88456=
41856,2024,05,24,00,00,AAXX 24004 41856 32940 00000 10263 20250 39995 40030 333 59021 70000=
41856,2024,05,24,03,00,AAXX 24034 41856 32956 02101 10364 20220 39984 40018 333 59021 70000=
41856,2024,05,24,12,00,AAXX 24124 41856 32956 01802 10370 20260 39950 49984 333 10370 59020 70000=
41856,2024,05,24,18,00,AAXX 24184 41856 32930 00000 10290 20280 39980 40015 333 59009 70000=
41856,2024,05,25,00,00,AAXX 25004 41856 32940 00000 10280 20260 39971 40006 333 59024 70000=
41856,2024,05,25,06,00,AAXX 25064 41856 32956 01401 10372 20240 39960 49994 333 59024 70000=
41856,2024,05,25,12,00,AAXX 25124 41856 32956 20902 10355 20230 39930 49964 82030 333 10390 56090 59020 70000 82362=
41856,2024,05,25,18,00,AAXX 25184 41856 NIL=
41856,2024,05,26,00,00,AAXX 26004 41856 32440 60000 10277 20250 39972 40007 82510 333 56390 59001 70000 82618 85458=
41856,2024,05,26,06,00,AAXX 26064 41856 32956 60703 10355 20250 39968 40002 86030 333 56090 58008 70000 86362=
41856,2024,05,26,12,00,AAXX 26124 41856 32956 40901 10344 20230 39916 49950 84070 333 10368 56090 59014 70000 84362=
41856,2024,05,26,18,00,AAXX 26184 41856 11430 81202 10275 20260 39956 49991 60217 70362 8442/ 333 56999 59018 70214 83618 88458=
41856,2024,05,27,00,00,AAXX 27004 41856 11340 80903 10265 20250 39946 49981 60046 70262 8662/ 333 59299 59026 70251 82710 84618 88458=
41856,2024,05,27,06,00,AAXX 27064 41856 11450 80503 10275 20260 39939 49974 60023 70262 8442/ 333 56299 59029 70270 83618 88458=
41856,2024,05,27,12,00,AAXX 27124 41856 11340 80604 10260 20240 39895 49930 60089 76166 8672/ 333 10286 56299 59021 70348 83708 84616 88456=
41856,2024,05,27,18,00,AAXX 27184 41856 11330 80904 10255 20240 39892 49927 60049 76166 8672/ 333 56299 59064 70169 83708 84616 88456=
41856,2024,05,28,00,00,AAXX 28004 41856 11340 80903 10245 20240 39916 49951 60229 76366 8672/ 333 56999 59030 70352 83708 84616 88456=
41856,2024,05,28,06,00,AAXX 28064 41856 11450 80000 10310 20250 39928 49963 60096 70262 8442/ 333 56999 59011 70423 82618 88458=
41856,2024,05,28,12,00,AAXX 28124 41856 32450 50000 10305 20260 39915 49949 82530 333 10334 56990 58020 70345 82618 85362=
41856,2024,05,28,18,00,AAXX 28184 41856 32430 81302 10288 20250 39936 49971 8452/ 333 56999 58044 70310 84615 88458=
41856,2024,05,29,00,00,AAXX 29004 41856 32435 81301 10280 20260 39939 49974 8562/ 333 56499 58023 70090 83710 85615 88458=
41856,2024,05,29,06,00,AAXX 29064 41856 32450 71302 10325 20290 39950 49984 83420 333 56990 58022 70000 82618 87458=
41856,2024,05,29,12,00,AAXX 29124 41856 32950 20000 10320 20280 39932 49967 82030 333 10342 56090 58017 70000 82362=
41856,2024,05,29,18,00,AAXX 29184 41856 11330 80504 10230 20210 39965 40001 60024 79596 8692/ 333 56199 58029 70018 84708 86614 88456 81930=
41856,2024,05,30,00,00,AAXX 30004 41856 11435 80901 10236 20230 39977 40013 60115 70292 8562/ 333 56299 58038 70128 82710 85615 88458=
41856,2024,05,30,06,00,AAXX 30064 41856 11450 60501 10222 20210 39985 40021 60382 72996 85620 333 56199 58035 70504 82710 85615 86458=
41856,2024,05,30,12,00,AAXX 30124 41856 32450 80000 10250 20230 39973 40008 8452/ 333 10260 56999 58041 70504 84618 88458=
41856,2024,05,30,18,00,AAXX 30184 41856 11430 80901 10245 20240 39994 40030 60024 70262 8452/ 333 56999 58029 70506 84618 88457=
41858,2024,05,24,00,00,AAXX 24004 41858 01930 00000 10284 20260 39985 40030 70500 333 59022 70000==
41858,2024,05,24,03,00,AAXX 24034 41858 01940 00000 10340 20250 39990 40034 70500 333 20274 59026 70000==
41858,2024,05,24,06,00,AAXX 24064 41858 01950 00000 10375 20250 39977 40021 70500 333 59026 70000==
41858,2024,05,24,09,00,AAXX 24094 41858 01550 10000 10378 20260 39957 40000 70520 81100 333 59012 70000 81825==
41858,2024,05,24,12,00,AAXX 24124 41858 01550 20000 10360 20260 39941 49985 70520 82200 333 10385 59021 70000 82825==
41858,2024,05,24,15,00,AAXX 24154 41858 01950 00000 10316 20280 39962 40006 70500 333 59018 70000==
41858,2024,05,24,18,00,AAXX 24184 41858 01940 00000 10304 20270 39968 40013 70500 333 59038 70000==
41858,2024,05,24,21,00,AAXX 24214 41858 01940 00000 10295 20270 39966 40011 70500 333 59027 70000==
41858,2024,05,25,00,00,AAXX 25004 41858 01930 00000 10292 20260 39961 40006 70500 333 59024 70000==
41858,2024,05,25,03,00,AAXX 25034 41858 01950 00905 10336 20250 39967 40011 70500 333 20282 59023 70000==
41858,2024,05,25,06,00,AAXX 25064 41858 01950 00906 10380 20250 39953 49997 70500 333 59024 70000==
41858,2024,05,25,09,00,AAXX 25094 41858 01550 20503 10390 20240 39930 49974 70500 82500 333 59011 70000 82625==
41858,2024,05,25,12,00,AAXX 25124 41858 01450 20000 10370 20240 39923 49967 70500 82400 333 10393 59018 70000 82618==
41858,2024,05,25,15,00,AAXX 25154 41858 01940 00000 10320 20250 39951 49995 70500 333 59011 70000==
41858,2024,05,25,18,00,AAXX 25184 41858 NIL=
41858,2024,05,25,21,00,AAXX 25214 41858 01/50 30000 10294 20260 39960 40005 70520 83040 333 59006 70000==
41858,2024,05,26,00,00,AAXX 26004 41858 01/50 30000 10280 20250 39962 40007 70520 83040 333 58001 70000 83362==
41858,2024,05,26,03,00,AAXX 26034 41858 01/50 30808 10308 20260 39976 40020 70522 83030 333 20275 58009 70000 83362==
41858,2024,05,26,06,00,AAXX 26064 41858 01550 30906 10350 20230 39965 40008 70522 83200 333 58012 70000 83825==
41858,2024,05,26,09,00,AAXX 26094 41858 01450 60505 10358 20250 39932 49976 70522 83520 333 58002 70000 83615 85458==
41858,2024,05,26,12,00,AAXX 26124 41858 01/50 60505 10352 20250 39908 49951 70522 86070 333 10362 59015 70000 85362==
41858,2024,05,26,15,00,AAXX 26154 41858 01440 70505 10330 20260 39931 49975 70522 83420 333 59020 70000 83616 86460==
41858,2024,05,26,18,00,AAXX 26184 41858 01440 80907 10290 20250 39938 49983 70522 8342/ 333 59022 70000 83616 88460==
41858,2024,05,26,21,00,AAXX 26214 41858 01440 80908 10282 20240 39935 49980 70522 8452/ 333 59025 70000 84616 88458==
41858,2024,05,27,00,00,AAXX 27004 41858 01440 80910 10278 20240 39934 49979 70522 8452/ 333 59028 70000 84616 88458==
41858,2024,05,27,03,00,AAXX 27034 41858 01450 80912 10298 20250 39930 49974 70522 8452/ 333 20265 59046 70000 84616 88458==
41858,2024,05,27,06,00,AAXX 27064 41858 01450 80912 10280 20260 39926 49971 76162 8452/ 333 59039 70004 84614 88458==
41858,2024,05,27,09,00,AAXX 27094 41858 01450 80912 10280 20260 39902 49947 76162 8452/ 333 59030 70008 84614 88458==
41858,2024,05,27,12,00,AAXX 27124 41858 21440 80918 10268 20250 39985 49930 76266 8452/ 333 10292 59023 69919 70022 84614 88458==
41858,2024,05,27,15,00,AAXX 27154 41858 01440 80912 10245 20230 39890 49935 76166 8452/ 333 59041 70038 86414 88458==
41858,2024,05,27,18,00,AAXX 27184 41858 01435 80915 10245 20230 39900 49945 76166 8452/ 333 59038 70038 84614 88458==
41858,2024,05,27,21,00,AAXX 27214 41858 01430 80912 10268 20240 39892 49937 70562 8452/ 333 59043 70046 84615 88458==
41858,2024,05,28,00,00,AAXX 28004 41858 11450 70910 10277 20230 39900 49945 69986 70562 84520 333 59034 70046 84615 86458==
41858,2024,05,28,03,00,AAXX 28034 41858 01450 60000 10300 20240 39914 49958 70522 83520 333 59016 70046 83616 86458==
41858,2024,05,28,06,00,AAXX 28064 41858 01450 62106 10342 20240 39920 49963 70522 84520 333 59006 70042 84616 86458==
41858,2024,05,28,09,00,AAXX 28094 41858 01450 61808 10360 20250 39905 49949 70522 84520 333 58003 70038 84616 86458==
41858,2024,05,28,12,00,AAXX 28124 41858 01450 51806 10344 20240 39904 49947 70522 83520 333 10364 58019 70024 83618 85458==
41858,2024,05,28,15,00,AAXX 28154 41858 01440 41807 10300 20250 39925 49969 70522 82520 333 58035 72615 84458==
41858,2024,05,28,18,00,AAXX 28184 41858 NIL=
41858,2024,05,28,21,00,AAXX 28214 41858 01435 61805 10300 20280 39921 49965 70522 83520 333 58029 70008 83616 86458==
41858,2024,05,29,00,00,AAXX 29004 41858 01420 80000 10295 20290 39932 49976 71022 8452/ 333 58032 70000 84616 88458==
41858,2024,05,29,03,00,AAXX 29034 41858 01430 81805 10314 20270 39940 49984 70522 8452/ 333 20284 58026 70000 84616 88458==
41858,2024,05,29,06,00,AAXX 29064 41858 01440 81805 10338 20270 39938 49981 70522 8452/ 333 58018 70000 84616 88458==
41858,2024,05,29,09,00,AAXX 29094 41858 01550 31505 10360 20270 39922 49966 70520 83100 333 58017 70000 83825==
41858,2024,05,29,12,00,AAXX 29124 41858 01/50 21805 10340 20280 39921 49964 70520 82040 333 10360 58017 70000 82362==
41858,2024,05,29,15,00,AAXX 29154 41858 01950 00902 10314 20270 39934 49978 70500 333 58009 70000==
41858,2024,05,29,18,00,AAXX 29184 41858 01940 00902 10300 20270 39945 49989 70500 333 58016 70000==
41858,2024,05,29,21,00,AAXX 29214 41858 01430 80905 10242 20220 39954 40000 71796 8532/ 333 58033 70210 84615 88458 82930==
41858,2024,05,30,00,00,AAXX 30004 41858 11440 80905 10250 20230 39964 40010 60216 70596 8452/ 333 58032 70210 84615 88458==
41858,2024,05,30,03,00,AAXX 30034 41858 01440 80000 10260 20240 39985 40031 70522 8452/ 333 20225 58045 70210 84616 88458==
41858,2024,05,30,06,00,AAXX 30064 41858 01440 80905 10275 20240 39979 40024 70522 8452/ 333 58041 70210 84616 88458==
41858,2024,05,30,09,00,AAXX 30094 41858 01440 80905 10275 20240 39963 40008 70522 8342/ 333 58041 70210 83616 88460==
41858,2024,05,30,12,00,AAXX 30124 41858 01440 80805 10262 20220 39962 40007 70522 8342/ 333 10280 58041 70210 83616 88460==
41858,2024,05,30,15,00,AAXX 30154 41858 01440 80905 10255 20220 39980 40026 70522 8342/ 333 58046 70210 83616 88460==
41858,2024,05,30,18,00,AAXX 30184 41858 01440 80906 10238 20210 39992 40038 70522 8432/ 333 58047 70210 81710 83616 88460 81928==
41858,2024,05,30,21,00,AAXX 30214 41858 01420 80908 10235 20230 39989 40035 72996 8592/ 333 58035 70200 84615 88458 81925==
41859,2024,05,24,00,00,AAXX 24004 41859 02/40 20000 10285 20270 39994 40031 82030 333 59022 70000 82362==
41859,2024,05,24,03,00,AAXX 24034 41859 02950 00000 10343 20240 39997 40034 333 20280 59027 70000==
41859,2024,05,24,06,00,AAXX 24064 41859 02/50 21302 10366 20250 39984 40020 82030 333 59018 70000 82362==
41859,2024,05,24,09,00,AAXX 24094 41859 02456 20000 10385 20230 39961 49997 81130 333 59013 70000 81825 82362==
41859,2024,05,24,12,00,AAXX 24124 41859 02950 00000 10373 20230 39949 49985 333 10395 59019 70000==
41859,2024,05,24,15,00,AAXX 24154 41859 02930 00000 10323 20270 39969 40005 333 59020 70000==
41859,2024,05,24,18,00,AAXX 24184 41859 02930 00000 10308 20270 39981 40017 333 59013 70000==
41859,2024,05,24,21,00,AAXX 24214 41859 02930 00000 10300 20270 39974 40010 333 59020 70000==
41859,2024,05,25,00,00,AAXX 25004 41859 02/40 20000 10293 20160 39969 40005 82030 333 59025 70000 82362==
41859,2024,05,25,03,00,AAXX 25034 41859 02450 30000 10346 20260 39975 40011 83500 333 20288 59022 70000 83618==
41859,2024,05,25,06,00,AAXX 25064 41859 02450 30000 10374 20240 39961 49996 83500 333 59023 70000 83618==
41859,2024,05,25,09,00,AAXX 25094 41859 02456 40502 10391 20240 39937 49973 82520 333 59024 70000 82618 84458==
41859,2024,05,25,12,00,AAXX 25124 41859 02450 20000 10379 20240 39928 49964 82500 333 10392 59021 70000 82618==
41859,2024,05,25,15,00,AAXX 25154 41859 02430 22302 10320 20260 39959 49995 82500 333 59010 70000 82618==
41859,2024,05,25,18,00,AAXX 25184 41859 02430 31303 10309 20270 39974 40010 82530 333 59007 70000 82618 83362==
41859,2024,05,25,21,00,AAXX 25214 41859 02430 51302 10288 20260 39965 40001 83530 333 59009 70000 83618 85362==
41859,2024,05,26,00,00,AAXX 26004 41859 02430 71302 10280 20250 39966 40002 85670 333 59003 70000 82710 84618 87458==
41859,2024,05,26,03,00,AAXX 26034 41859 02440 40402 10311 20250 39980 40016 8562/ 333 20276 58005 70000 82710 83618 88458==
41859,2024,05,26,06,00,AAXX 26064 41859 02450 60504 10351 20250 39970 40007 83620 333 58009 70000 82710 83618 86458==
41859,2024,05,26,09,00,AAXX 26094 41859 02450 60502 10365 20260 39935 49971 82530 333 59002 70000 82618 85362==
41859,2024,05,26,12,00,AAXX 26124 41859 02450 40502 10360 20250 39913 49949 82530 333 10368 59015 70000 82618 84362==
41859,2024,05,26,15,00,AAXX 26154 41859 02430 80502 10331 20250 39934 49971 8562/ 333 59025 70000 82710 84618 88458==
41859,2024,05,26,18,00,AAXX 26184 41859 02430 80502 10306 20250 39953 49989 8562/ 333 59021 70000 82710 84618 88458==
41859,2024,05,26,21,00,AAXX 26214 41859 02430 80502 10273 20240 39928 49965 8562/ 333 59037 70000 82710 84618 88458==
41859,2024,05,27,00,00,AAXX 27004 41859 02430 80504 10278 20250 39943 49979 8562/ 333 59023 70000 82710 84618 88458==
41859,2024,05,27,03,00,AAXX 27034 41859 01340 80504 10274 20260 39940 49976 76162 8572/ 333 20270 59040 70005 83708 84616 88457==
41859,2024,05,27,06,00,AAXX 27064 41859 01350 80504 10288 20250 39931 49967 76162 8572/ 333 59039 70025 83708 84615 88456==
41859,2024,05,27,09,00,AAXX 27094 41859 01340 80504 10268 20260 39909 49945 76162 8562/ 333 59026 70043 83708 84616 88456==
41859,2024,05,27,12,00,AAXX 27124 41859 01340 80514 10256 20250 39891 49928 76166 8672/ 333 10297 59022 70113 83708 85616 88458==
41859,2024,05,27,15,00,AAXX 27154 41859 01430 80505 10270 20250 39892 49928 72166 8562/ 333 59042 70153 83710 85618 88458==
41859,2024,05,27,18,00,AAXX 27184 41859 21430 80504 10270 20240 39894 49930 70262 8562/ 333 59059 60048 70153 83710 85618 88458==
41859,2024,05,27,21,00,AAXX 27214 41859 01320 80505 10266 20250 39890 49926 76122 8572/ 333 59038 70179 83708 85616 88456==
41859,2024,05,28,00,00,AAXX 28004 41859 21440 80506 10265 20250 39908 49944 70262 8562/ 333 59035 60065 70213 83710 85618 88458==
41859,2024,05,28,03,00,AAXX 28034 41859 01450 80502 10289 20240 39920 49956 76162 8572/ 333 20250 59020 70219 83710 85617 88458==
41859,2024,05,28,06,00,AAXX 28064 41859 21450 70000 10321 20250 39929 49965 70162 85620 333 59002 60018 70199 82710 84618 87458==
41859,2024,05,28,09,00,AAXX 28094 41859 02450 50000 10360 20250 39913 49949 84420 333 58004 70181 83618 85458==
41859,2024,05,28,12,00,AAXX 28124 41859 02450 70000 10330 20260 39914 49951 84470 333 10370 58023 70000 84618 87458==
41859,2024,05,28,15,00,AAXX 28154 41859 02430 71801 10302 20250 39935 49971 84520 333 58043 70071 84618 87458==
41859,2024,05,28,18,00,AAXX 28184 41859 02430 81302 10294 20250 39935 49971 8562/ 333 58041 70071 82710 84618 88458==
41859,2024,05,28,21,00,AAXX 28214 41859 02430 81302 10292 20270 39937 49973 8562/ 333 58047 70045 82710 84618 88458==
41859,2024,05,29,00,00,AAXX 29004 41859 02440 81301 10294 20280 39939 49975 8562/ 333 58031 70011 82710 84618 88458==
41859,2024,05,29,03,00,AAXX 29034 41859 02450 81304 10323 20270 39951 49987 8562/ 333 20280 58031 70000 82710 83618 88458==
41859,2024,05,29,06,00,AAXX 29064 41859 02450 71302 10340 20280 39949 49985 84620 333 58020 70000 82710 83618 87458==
41859,2024,05,29,09,00,AAXX 29094 41859 02450 42303 10348 20280 39931 49968 82520 333 58018 70000 82618 84458==
41859,2024,05,29,12,00,AAXX 29124 41859 02450 82302 10333 20280 39928 49965 8562/ 333 10352 58014 70000 82710 84618 88458==
41859,2024,05,29,15,00,AAXX 29154 41859 02430 80000 10317 20290 39946 49982 8562/ 333 58011 70000 82710 84618 88458==
41859,2024,05,29,18,00,AAXX 29184 41859 02430 81303 10315 20290 39959 49995 8562/ 333 58024 70000 83710 84618 88458==
41859,2024,05,29,21,00,AAXX 29214 41859 01330 82303 10240 20220 39941 49978 79596 8692/ 333 58004 70114 83708 84617 88458 81930==
41859,2024,05,30,00,00,AAXX 30004 41859 21430 80000 10250 20230 39972 40009 70296 8562/ 333 58033 60118 70114 83710 84618 88458==
41859,2024,05,30,03,00,AAXX 30034 41859 02440 81302 10266 20240 39995 40032 8562/ 333 20233 58044 70114 83710 84618 88458==
41859,2024,05,30,06,00,AAXX 30064 41859 01340 80404 10251 20250 39993 40030 72162 8562/ 333 58044 70010 83710 84618 88458==
41859,2024,05,30,09,00,AAXX 30094 41859 02440 80902 10260 20230 39975 40012 8562/ 333 58044 70127 83710 84618 88458==
41859,2024,05,30,12,00,AAXX 30124 41859 02440 80000 10256 20230 39972 40009 8562/ 333 10275 58044 70127 83710 85618 88458==
41859,2024,05,30,15,00,AAXX 30154 41859 02430 80000 10258 20230 39989 40026 8562/ 333 58043 70127 83710 85618 88458==
41859,2024,05,30,18,00,AAXX 30184 41859 01330 80502 10259 20240 39994 40031 72122 8672/ 333 58035 70010 84708 85616 88456==
41859,2024,05,30,21,00,AAXX 30214 41859 02330 81302 10233 20210 39992 40029 8562/ 333 58051 70023 83709 85616 88456==
41863,2024,05,24,00,00,AAXX 24004 41863 02956 00000 10280 20260 39987 40029 333 59021 70000==
41863,2024,05,24,03,00,AAXX 24034 41863 02957 00902 10345 20260 39992 40033 333 20276 59024 70000==
41863,2024,05,24,06,00,AAXX 24064 41863 02957 00902 10366 20250 39981 40022 333 59024 70000==
41863,2024,05,24,09,00,AAXX 24094 41863 02457 51301 10380 20240 39954 49995 85400 333 59014 70000 83618 85825==
41863,2024,05,24,12,00,AAXX 24124 41863 02457 30000 10366 20260 39944 49985 83400 333 10384 59017 70000 81618 83825==
41863,2024,05,24,15,00,AAXX 24154 41863 02956 00000 10313 20270 39962 40004 333 59020 70000==
41863,2024,05,24,18,00,AAXX 24184 41863 02956 00000 10295 20280 39975 40017 333 59014 70000==
41863,2024,05,24,21,00,AAXX 24214 41863 02956 00000 10292 20270 39971 40013 333 59014 70000==
41863,2024,05,25,00,00,AAXX 25004 41863 02956 00902 10289 20270 39964 40006 333 59023 70000==
41863,2024,05,25,03,00,AAXX 25034 41863 02957 00902 10345 20270 39969 40010 333 20277 59023 70000==
41863,2024,05,25,06,00,AAXX 25064 41863 02957 00902 10375 20260 39957 49998 333 59024 70000==
41863,2024,05,25,09,00,AAXX 25094 41863 02458 30503 10385 20250 39936 49977 83400 333 59018 70000 81618 83825==
41863,2024,05,25,12,00,AAXX 25124 41863 02558 20000 10378 20240 39923 49964 82100 333 10388 59021 70000 82828==
41863,2024,05,25,15,00,AAXX 25154 41863 02957 00000 10326 20270 39949 49990 333 59013 70000==
41863,2024,05,25,18,00,AAXX 25184 41863 02/57 30000 10310 20270 39962 40004 83030 333 59013 70000 83362==
41863,2024,05,25,21,00,AAXX 25214 41863 02957 00902 10288 20270 39957 49999 333 59014 70000==
41863,2024,05,26,00,00,AAXX 26004 41863 02/57 20902 10270 20260 39959 40001 82030 333 59005 70000 82362==
41863,2024,05,26,03,00,AAXX 26034 41863 02457 60903 10308 20260 39976 40018 84520 333 20268 58007 70000 84618 86458==
41863,2024,05,26,06,00,AAXX 26064 41863 02457 70904 10336 20250 39966 40007 85520 333 58009 70000 85618 87458==
41863,2024,05,26,09,00,AAXX 26094 41863 02457 70902 10358 20240 39934 49975 85520 333 59002 70000 85618 87458==
41863,2024,05,26,12,00,AAXX 26124 41863 02457 60502 10345 20270 39911 49952 84520 333 10370 59012 70000 84618 86458==
41863,2024,05,26,15,00,AAXX 26154 41863 02450 80000 10322 20270 39929 49971 8552/ 333 59020 70000 85618 88458==
41863,2024,05,26,18,00,AAXX 26184 41863 02450 81301 10312 20260 39939 49981 8552/ 333 59023 70000 85618 88458==
41863,2024,05,27,00,00,AAXX 27004 41863 02450 80504 10278 20240 39931 49973 8552/ 333 59028 70000 85618 88458==
41863,2024,05,27,03,00,AAXX 27034 41863 42456 80907 10300 20250 39928 49970 8552/ 333 20270 59048 85618 88458==
41863,2024,05,27,06,00,AAXX 27064 41863 21350 80907 10284 20250 39924 49966 76162 8572/ 333 59042 60017 70014 83709 85617 88457==
41863,2024,05,27,09,00,AAXX 27094 41863 01350 80906 10280 20260 39892 49934 76166 8572/ 333 59042 70024 83708 85617 88457==
41863,2024,05,27,12,00,AAXX 27124 41863 21350 80906 10272 20250 39888 49931 76166 8572/ 333 10300 59023 60029 70034 83708 85617 88457==
41863,2024,05,27,15,00,AAXX 27154 41863 01450 80907 10261 20240 39892 49934 72166 8562/ 333 59037 70054 83710 85618 88458==
41863,2024,05,27,18,00,AAXX 27184 41863 01340 80906 10262 20240 39900 49942 76166 8572/ 333 59039 70064 83708 85616 88457==
41863,2024,05,27,21,00,AAXX 27214 41863 01450 80905 10260 20210 39898 49940 70262 8562/ 333 59025 70074 83710 85617 88458==
41863,2024,05,28,00,00,AAXX 28004 41863 11450 82704 10270 20240 39905 49947 60016 70262 8452/ 333 59026 70074 84617 88458==
41863,2024,05,28,03,00,AAXX 28034 41863 02456 61802 10300 20240 39917 49959 84520 333 20251 59011 70072 84618 86458==
41863,2024,05,28,06,00,AAXX 28064 41863 02457 62304 10330 20240 39924 49965 84520 333 58000 70060 84618 86458==
41863,2024,05,28,09,00,AAXX 28094 41863 02457 61803 10345 20250 39906 49947 84520 333 58014 70050 84618 86458==
41863,2024,05,28,12,00,AAXX 28124 41863 02/57 31304 10335 20260 39903 49944 83030 333 10348 58015 70040 83362==
41863,2024,05,28,15,00,AAXX 28154 41863 02956 01301 10301 20260 39925 49969 333 58033 70020==
41863,2024,05,28,18,00,AAXX 28184 41863 02956 01802 10294 20260 39927 49969 333 58027 70010==
41863,2024,05,28,21,00,AAXX 28214 41863 02956 00000 10294 20260 39927 49969 333 58027 70000==
41863,2024,05,29,00,00,AAXX 29004 41863 02450 80000 10300 20290 39931 49973 8552/ 333 58026 70000 85618 88458==
41863,2024,05,29,03,00,AAXX 29034 41863 02356 81804 10328 20280 39938 49979 8562/ 333 20283 58021 70000 83710 85618 88458==
41863,2024,05,29,06,00,AAXX 29064 41863 02457 60904 10348 20280 39938 49979 84520 333 58014 70000 84618 86458==
41863,2024,05,29,09,00,AAXX 29094 41863 02457 52702 10360 20280 39920 49961 82520 333 58014 70000 82618 85458==
41863,2024,05,29,12,00,AAXX 29124 41863 02456 31801 10345 20290 39919 49960 83500 333 10360 58016 70000 83618==
41863,2024,05,29,15,00,AAXX 29154 41863 02450 40901 10320 20290 39935 49977 82520 333 58010 70000 82618 84458==
41863,2024,05,29,18,00,AAXX 29184 41863 02450 51801 10314 20290 39943 49985 83520 333 58016 70000 83618 85458==
41863,2024,05,30,00,00,AAXX 30004 41863 11450 82701 10252 20230 39928 49971 60126 70296 8552/ 333 59003 70122 85618 88458==
41863,2024,05,30,03,00,AAXX 30034 41863 02450 80903 10260 20230 39980 40023 8552/ 333 20220 58042 70122 85618 88458==
41863,2024,05,30,06,00,AAXX 30064 41863 02456 80903 10277 20250 39978 40020 8552/ 333 70122 85618 88458==
41863,2024,05,30,09,00,AAXX 30094 41863 02456 80902 10290 20250 39960 40002 8452/ 333 58040 70122 84618 88458==
41863,2024,05,30,12,00,AAXX 30124 41863 02456 80902 10272 20230 39962 40004 8452/ 333 10296 58043 70122 84618 88458==
41863,2024,05,30,15,00,AAXX 30154 41863 02456 80000 10262 20230 39976 40018 8452/ 333 58041 70122 84618 88458==
41863,2024,05,30,18,00,AAXX 30184 41863 02450 80902 10255 20230 39981 40024 8452/ 333 58038 70122 84618 88458==
41863,2024,05,30,21,00,AAXX 30214 41863 02450 80904 10248 20230 39975 40018 8452/ 333 58036 70000 84618 88458==
41881,2024,05,24,00,00,AAXX 24004 41881 32456 40901 10276 20270 30010 40030 84500 333 56900 59034 70000 84616=
41881,2024,05,24,03,00,AAXX 24034 41881 32957 00502 10356 20240 30002 40021 333 59024 70000=
41881,2024,05,24,12,00,AAXX 24124 41881 32957 00000 10354 20230 39963 49983 333 10382 59021 70000=
41881,2024,05,24,18,00,AAXX 24184 41881 32950 00000 10290 20280 39994 40014 333 59020 70000=
41881,2024,05,25,00,00,AAXX 25004 41881 32950 00501 10282 20280 39981 40001 333 59029 70000=
41881,2024,05,25,06,00,AAXX 25064 41881 32458 40802 10360 20250 39973 49993 84500 333 56900 59029 70000 84620=
41881,2024,05,25,12,00,AAXX 25124 41881 32458 20501 10355 20270 39942 49962 82500 333 10380 56900 59021 70000 82620=
41881,2024,05,25,18,00,AAXX 25184 41881 NIL=
41881,2024,05,26,00,00,AAXX 26004 41881 32456 40802 10305 20270 39991 40011 84500 333 56900 59003 70000 84620=
41881,2024,05,26,06,00,AAXX 26064 41881 32457 50504 10334 20250 39977 49997 83520 333 56190 58004 70002 83617 85459=
41881,2024,05,26,12,00,AAXX 26124 41881 32456 60502 10334 20250 39928 49947 83520 333 10990 59014 70002 83617 86459=
41881,2024,05,26,18,00,AAXX 26184 41881 11450 80904 10285 20240 39952 49971 60035 70296 8552/ 333 56299 59039 70032 85616 88458=
41881,2024,05,27,00,00,AAXX 27004 41881 32456 80705 10278 20240 39933 49952 8552/ 333 56999 59046 70030 85617 88459=
41881,2024,05,27,06,00,AAXX 27064 41881 11350 80908 10260 20250 39918 49938 60073 8572/ 333 56299 59059 70100 83708 85614 88458=
41881,2024,05,27,12,00,AAXX 27124 41881 11340 80906 10260 20240 39878 49898 60189 76166 8572/ 333 10270 56299 59050 70279 83708 85614 88458=
41881,2024,05,28,00,00,AAXX 28004 41881 32450 80903 10255 20240 39925 49945 8552/ 333 56299 59008 70249 85616 88458=
41881,2024,05,28,06,00,AAXX 28064 41881 32457 41802 10325 20250 39947 49967 84500 333 56900 58029 70179 84616=
41881,2024,05,28,12,00,AAXX 28124 41881 32458 61604 10320 20250 39929 49949 83570 333 10335 56390 58051 70000 83616 84362=
41881,2024,05,28,18,00,AAXX 28184 41881 32456 51801 10286 20270 30058 40078 83520 333 56490 58057 70000 83616 85459=
41881,2024,05,29,00,00,AAXX 29004 41881 32357 81802 10290 20280 39951 49971 8562/ 333 56499 58026 70000 83709 85615 88458=
41881,2024,05,29,06,00,AAXX 29064 41881 32457 80902 10328 20280 39961 49980 8552/ 333 56299 58014 70000 85616 88459=
41881,2024,05,29,12,00,AAXX 29124 41881 32457 71201 10338 20300 39941 49961 84520 333 10345 56990 58012 70000 84617 87459=
41881,2024,05,29,18,00,AAXX 29184 41881 32450 31705 10300 20290 39963 49982 333 56900 58005 70000 83618=
41881,2024,05,30,00,00,AAXX 30004 41881 32366 80901 10270 20260 39981 40001 8562/ 333 56299 58030 70000 83710 85616 88458=
41881,2024,05,30,06,00,AAXX 30064 41881 32457 60901 10305 20290 39995 40014 83520 333 56490 58034 70000 83616 86459=
41881,2024,05,30,12,00,AAXX 30124 41881 32456 80902 10300 20280 39976 49996 8552/ 333 10330 56499 58035 70000 85616 88459=
41881,2024,05,30,18,00,AAXX 30184 41881 32450 50902 10270 20250 30007 40027 83520 333 56990 58044 70000 83618 85459=
41883,2024,05,24,00,00,AAXX 24004 41883 02450 60000 10284 20260 30006 40026 82520 333 59024 70000 82618 86458==
41883,2024,05,24,03,00,AAXX 24034 41883 02456 60000 10324 20250 30014 40034 82530 333 20280 59031 70000 82616 86362==
41883,2024,05,24,06,00,AAXX 24064 41883 02456 60000 10360 20230 30000 40020 82530 333 59027 70000 82616 86362==
41883,2024,05,24,09,00,AAXX 24094 41883 02456 60000 10370 20230 30976 40996 82530 333 59022 70000 82616 86362==
41883,2024,05,24,12,00,AAXX 24124 41883 02456 60000 10354 20260 30963 40983 82530 333 10380 59021 70000 82616 86362==
41883,2024,05,24,15,00,AAXX 24154 41883 02430 60000 10320 20270 30987 40007 82530 333 59015 70000==
41883,2024,05,24,18,00,AAXX 24184 41883 02430 80000 10310 20260 30995 40015 8552/ 333 59014 70000 85616 88459==
41883,2024,05,24,21,00,AAXX 24214 41883 02430 80000 10300 20270 30982 40002 8552/ 333 59022 70000 85616 88459==
41883,2024,05,25,00,00,AAXX 25004 41883 02450 80000 10295 20270 30980 40000 8552/ 333 59026 70000 85616 88459==
41883,2024,05,25,03,00,AAXX 25034 41883 02956 01304 10334 20260 39987 40007 333 20290 59027 70000==
41883,2024,05,25,06,00,AAXX 25064 41883 02456 20000 10368 20270 39974 49993 82500 333 59026 70000 82616==
41883,2024,05,25,09,00,AAXX 25094 41883 02456 31302 10375 20260 39955 49974 83400 333 59021 70000 82616==
41883,2024,05,25,12,00,AAXX 25124 41883 02956 00902 10365 20240 39942 49961 333 10382 59021 70000==
41883,2024,05,25,15,00,AAXX 25154 41883 02930 00903 10325 20260 39979 49999 333 59008 70000==
41883,2024,05,25,18,00,AAXX 25184 41883 02430 60902 10295 20270 39991 40011 83510 333 59004 70000 83616 86459==
41883,2024,05,25,21,00,AAXX 25214 41883 01330 80904 10280 20260 39980 40000 72166 8562/ 333 59002 70080 85709 88458==
41883,2024,05,26,00,00,AAXX 26004 41883 21340 81304 10276 20260 39982 40002 70262 8562/ 333 58002 60088 70080 85710 88459==
41883,2024,05,26,03,00,AAXX 26034 41883 02450 80502 10306 20270 39988 40008 8562/ 333 20270 58001 70080 82710 84618 88458==
41883,2024,05,26,06,00,AAXX 26064 41883 02450 81302 10338 20260 39979 49999 8462/ 333 58005 70080 82710 83618 88458==
41883,2024,05,26,09,00,AAXX 26094 41883 02456 60000 10355 20260 39941 49960 82530 333 59014 70080 82616 86362==
41883,2024,05,26,12,00,AAXX 26124 41883 02456 70902 10340 20270 39929 49948 83520 333 10364 59013 70080 83616 87459==
41883,2024,05,26,15,00,AAXX 26154 41883 01330 80000 10290 20270 39948 49968 72162 8562/ 333 59031 70140 85710 88459==
41883,2024,05,26,18,00,AAXX 26184 41883 11330 80906 10300 20240 39955 49975 60066 70262 8562/ 333 59036 70140 85710 88459==
41883,2024,05,26,21,00,AAXX 26214 41883 02330 80905 10288 20250 39939 49959 8562/ 333 59041 70060 85710 88459==
41883,2024,05,27,00,00,AAXX 27004 41883 01340 80510 10280 20250 39931 49951 76162 8572/ 333 59051 70010 85709 88458==
41883,2024,05,27,03,00,AAXX 27034 41883 01350 81305 10268 20260 39930 49950 76366 8572/ 333 20265 59058 70182 85709 88458==
41883,2024,05,27,06,00,AAXX 27064 41883 01340 80910 10268 20260 39918 49938 76266 8572/ 333 59061 70302 85709 88458==
41883,2024,05,27,09,00,AAXX 27094 41883 01350 80908 10262 20250 39884 49904 76366 8572/ 333 59057 70442 83709 84615 88456==
41883,2024,05,27,12,00,AAXX 27124 41883 21340 80509 10260 20250 39851 49871 76166 8672/ 333 10282 59078 60259 70552 83709 84615 88456==
41883,2024,05,27,15,00,AAXX 27154 41883 01330 80506 10255 20250 39859 49779 76166 8572/ 333 59089 70652 85709 88458==
41883,2024,05,27,18,00,AAXX 27184 41883 21330 80506 10252 20240 39863 49883 76166 8572/ 333 59092 60267 70752 85709 88458==
41883,2024,05,27,21,00,AAXX 27214 41883 01330 30506 10252 20240 39875 49895 76166 8572/ 333 59064 70792 85709 88458==
41883,2024,05,28,00,00,AAXX 28004 41883 21340 80504 10254 20240 39903 49923 59028 70846 88458 333 60109==
41883,2024,05,28,03,00,AAXX 28034 41883 01460 70904 10276 20250 39939 49959 70166 83520 333 20245 58009 70732 83616 87459==
41883,2024,05,28,06,00,AAXX 28064 41883 11456 62702 10322 20250 39949 49969 69926 70162 82530 333 58031 70612 82616 86362==
41883,2024,05,28,09,00,AAXX 28094 41883 02/56 50000 10330 20250 39939 49959 85030 333 59045 70472 85362==
41883,2024,05,28,12,00,AAXX 28124 41883 02/50 61302 10316 20260 39934 49954 86030 333 10336 58083 70362 86362==
41883,2024,05,28,15,00,AAXX 28154 41883 02430 60000 10306 20260 39956 49976 83520 333 58097 70202 83618 86458==
41883,2024,05,28,18,00,AAXX 28184 41883 02430 80902 10300 20280 39956 49976 8562/ 333 58093 70102 82710 84618 88458==
41883,2024,05,28,21,00,AAXX 28214 41883 02430 80902 10300 20280 39947 49967 8462/ 333 58073 70062 82710 83618 88458==
41883,2024,05,29,00,00,AAXX 29004 41883 02450 80902 10300 20280 39953 49973 8562/ 333 58050 70002 82710 84618 88458==
41883,2024,05,29,03,00,AAXX 29034 41883 02350 81304 10304 20270 39971 49991 8562/ 333 20266 58032 70000 85710 88458==
41883,2024,05,29,06,00,AAXX 29064 41883 02356 81304 10332 20280 39965 49985 8562/ 333 58016 70000 85710 88459==
41883,2024,05,29,09,00,AAXX 29094 41883 02356 81302 10340 20290 39948 49968 8562/ 333 58009 70000 85710 88458==
41883,2024,05,29,12,00,AAXX 29124 41883 02356 80000 10335 20300 39946 49966 8562/ 333 10345 58012 70000 88710 88458==
41883,2024,05,29,15,00,AAXX 29154 41883 02330 81302 10315 20290 39965 49985 8562/ 333 58009 70000 85710 88458==
41883,2024,05,29,18,00,AAXX 29184 41883 02330 80000 10305 20290 39967 49987 8562/ 333 58011 70000 85710 88458==
41883,2024,05,29,21,00,AAXX 29214 41883 02330 80000 10270 20240 39974 49994 8562/ 333 58027 70000 85710 88458==
41883,2024,05,30,00,00,AAXX 30004 41883 02350 81302 10264 20240 39991 40011 8562/ 333 58038 70000 85710 88458==
41883,2024,05,30,03,00,AAXX 30034 41883 02350 80000 10280 20260 30007 40027 8562/ 333 20250 58036 70000 85710 88458==
41883,2024,05,30,06,00,AAXX 30064 41883 02350 80000 10290 20280 39998 40018 8562/ 333 58033 70000 85710 88458==
41883,2024,05,30,09,00,AAXX 30094 41883 02356 81302 10320 20290 39980 40000 8562/ 333 58032 70000 85710 88458==
41883,2024,05,30,12,00,AAXX 30124 41883 02456 60902 10295 20270 39978 49998 84510 333 10325 58032 70000 84616 86459==
41883,2024,05,30,15,00,AAXX 30154 41883 02330 81302 10275 20260 30001 40021 8562/ 333 58036 70000 85710 88458==
41883,2024,05,30,18,00,AAXX 30184 41883 02330 80000 10270 20250 30000 40020 8562/ 333 58033 70000 85710 88458==
41883,2024,05,30,21,00,AAXX 30214 41883 02330 80000 10270 20250 39985 40005 8562/ 333 58011 70000 85710 88458==
41886,2024,05,24,00,00,AAXX 24004 41886 02950 00000 10272 20260 30013 40034 333 59021 70000==
41886,2024,05,24,03,00,AAXX 24034 41886 02956 00000 10327 20270 30017 40037 333 20272 59023 70000==
41886,2024,05,24,09,00,AAXX 24094 41886 02957 00902 10376 20260 39978 49998 333 59012 70000==
41886,2024,05,24,12,00,AAXX 24124 41886 02957 00000 10367 20270 39964 49984 333 10384 59021 70000==
41886,2024,05,24,18,00,AAXX 24184 41886 NIL=
41886,2024,05,24,21,00,AAXX 24214 41886 02950 00000 10300 20290 39998 40018 333 59017 70000==
41886,2024,05,25,00,00,AAXX 25004 41886 02950 00000 10290 20280 39991 40011 333 59022 70000==
41886,2024,05,25,03,00,AAXX 25034 41886 02956 00000 10340 20260 39991 40011 333 20287 59026 70000==
41886,2024,05,25,06,00,AAXX 25064 41886 02957 01205 10367 20260 39980 40000 333 59024 70000==
41886,2024,05,25,09,00,AAXX 25094 41886 02/57 21305 10378 20250 39950 49970 82040 333 59028 70000 82365==
41886,2024,05,25,12,00,AAXX 25124 41886 02457 31604 10364 20250 39953 49973 81440 333 10380 59011 70000 81618==
41886,2024,05,25,15,00,AAXX 25154 41886 01450 71516 10292 20250 39988 40008 71321 84370 333 58001 70000 83617 86460 81930==
41886,2024,05,25,18,00,AAXX 25184 41886 NIL=
41886,2024,05,25,21,00,AAXX 25214 41886 02450 80000 10282 20260 30002 40022 8352/ 333 58004 70000 83618 88460==
41886,2024,05,26,00,00,AAXX 26004 41886 21456 70504 10266 20260 39989 40009 70162 83570 333 59002 60025 70024 83618 85362==
41886,2024,05,26,03,00,AAXX 26034 41886 02456 80502 10290 20260 39997 40017 8452/ 333 20257 58006 70024 84618 88460==
41886,2024,05,26,06,00,AAXX 26064 41886 02457 60402 10340 20260 39981 40001 82501 333 58001 70024 82618 86080==
41886,2024,05,26,09,00,AAXX 26094 41886 02458 60904 10360 20240 39950 49970 82501 333 58000 70024 82618 86080==
41886,2024,05,26,12,00,AAXX 26124 41886 02456 80904 10345 20270 39937 49957 8532/ 333 10368 59016 70024 84616 88458 81930==
41886,2024,05,26,15,00,AAXX 26154 41886 01350 81312 10295 20230 39955 49975 71322 8632/ 333 59033 70024 84709 85616 88458 81930==
41886,2024,05,26,18,00,AAXX 26184 41886 01340 80912 10285 20260 39972 49992 76122 8632/ 333 59033 70002 84709 85616 88458 81930==
41886,2024,05,26,21,00,AAXX 26214 41886 02450 80908 10280 20250 39958 49978 8632/ 333 59044 70026 84709 85616 88458 81930==
41886,2024,05,27,00,00,AAXX 27004 41886 02456 80908 10285 20250 39944 49964 8632/ 333 59045 70002 84709 85616 88458 81930==
41886,2024,05,27,03,00,AAXX 27034 41886 01330 80908 10270 20240 39949 49969 76366 8772/ 333 20270 59048 70046 85708 86615 88456==
41886,2024,05,27,06,00,AAXX 27064 41886 21340 80908 10265 20250 39926 49946 76166 8772/ 333 59055 60129 70126 85708 86615 88456==
41886,2024,05,27,09,00,AAXX 27094 41886 01320 80916 10260 20250 39900 49920 76366 8772/ 333 59050 70248 85708 86615 88456==
41886,2024,05,27,12,00,AAXX 27124 41886 21320 80916 10260 20260 39867 49887 76366 8772/ 333 10272 59070 60449 70564 85708 86615 88456==
41886,2024,05,28,00,00,AAXX 28004 41886 21350 83108 10250 20240 39852 49872 76166 8772/ 333 59092 60059 71360 85708 86615 88456==
41886,2024,05,28,03,00,AAXX 28034 41886 02350 83112 10270 20240 39910 49930 8772/ 333 20250 59039 71316 85709 86616 88458==
41886,2024,05,28,06,00,AAXX 28064 41886 01450 83104 10286 20240 39943 49963 76122 8452/ 333 58017 70002 84616 88458==
41886,2024,05,28,09,00,AAXX 28094 41886 02/56 31802 10322 20250 39947 49967 83020 333 58047 71116 83462==
41886,2024,05,28,12,00,AAXX 28124 41886 02450 61802 10313 20250 39948 49968 83520 333 10331 58081 70800 83615 84458==
41886,2024,05,28,15,00,AAXX 28154 41886 02440 81602 10297 20260 39971 49991 8452/ 333 58124 70440 84616 88458==
41886,2024,05,28,18,00,AAXX 28184 41886 02440 81604 10284 20250 39971 49991 8452/ 333 58151 70050 84616 88458==
41886,2024,05,28,21,00,AAXX 28214 41886 02440 81604 10290 20270 39972 49992 8452/ 333 58136 70020 84616 88458==
41886,2024,05,29,00,00,AAXX 29004 41886 02340 81804 10294 20270 39972 49992 8562/ 333 58120 70002 82709 84614 88457==
41886,2024,05,29,03,00,AAXX 29034 41886 02450 81604 10310 20280 39985 40005 8452/ 333 20265 58075 70002 84616 88458==
41886,2024,05,29,06,00,AAXX 29064 41886 02450 81602 10330 20280 39976 49996 8352/ 333 58035 70000 83617 88460==
41886,2024,05,29,09,00,AAXX 29094 41886 02450 81302 10332 20280 39959 49979 8432/ 333 58012 70000 83616 88458 81930==
41886,2024,05,29,12,00,AAXX 29124 41886 02450 81404 10320 20280 39962 49982 8352/ 333 10335 58014 70000 83616 88458 81930==
41886,2024,05,29,15,00,AAXX 29154 41886 02450 61306 10308 20280 39980 40000 82570 333 58009 70000 82618 85460==
41886,2024,05,29,18,00,AAXX 29184 41886 02450 81306 10302 20280 39980 40000 8352/ 333 58009 70000 83618 88460==
41886,2024,05,30,00,00,AAXX 30004 41886 01350 80000 10243 20230 39999 40020 72996 8632/ 333 58027 70190 84709 85616 88458 81930==
41886,2024,05,30,01,00,AAXX 30014 41886 01350 80000 10243 20230 39999 40020 72996 8632/ 333 58027 70190 84709 85616 88458 81930==
41886,2024,05,30,03,00,AAXX 30034 41886 02350 80402 10250 20230 30027 40048 8632/ 333 20230 58055 70190 84709 85616 88458 81930==
41886,2024,05,30,06,00,AAXX 30064 41886 21450 80404 10283 20260 30014 40034 70296 8452/ 333 58036 69957 70195 84616 88458==
41886,2024,05,30,09,00,AAXX 30094 41886 02356 80910 10270 20250 30001 40021 8672/ 333 58042 70195 82710 85616 88458==
41886,2024,05,30,12,00,AAXX 30124 41886 02356 80906 10262 20230 30005 40026 8672/ 333 10287 58043 70195 83710 85616 88458==
41886,2024,05,30,15,00,AAXX 30154 41886 02450 80904 10259 20250 30016 40037 8552/ 333 58036 70195 85616 88458==
41886,2024,05,30,18,00,AAXX 30184 41886 02450 80902 10260 20250 30022 40043 8452/ 333 58032 70195 84616 88458==
41886,2024,05,30,21,00,AAXX 30214 41886 02450 80902 10260 20240 30022 40043 8352/ 333 58035 70195 83616 88458==
41888,2024,05,24,00,00,AAXX 24004 41888 32950 00000 10270 20250 30020 40030 333 59023 70000=
41888,2024,05,24,03,00,AAXX 24034 41888 NIL=
41888,2024,05,24,06,00,AAXX 24064 41888 32958 10902 10360 20250 30008 40018 81100 333 56900 59019 70000 81828=
41888,2024,05,24,12,00,AAXX 24124 41888 32958 21801 10360 20250 39968 49978 80001 333 10380 56009 59021 70000 82080=
41888,2024,05,24,18,00,AAXX 24184 41888 32956 00901 10295 20290 30006 40016 333 59011 70000=
41888,2024,05,25,00,00,AAXX 25004 41888 32956 00901 10275 20260 30000 40010 333 59020 70000=
41888,2024,05,25,06,00,AAXX 25064 41888 32959 00906 10366 20220 39984 49994 333 59024 70000=
41888,2024,05,25,12,00,AAXX 25124 41888 32559 30701 10364 20230 39956 49965 82101 333 10400 56909 59012 70000 82825 83080=
41888,2024,05,25,18,00,AAXX 25184 41888 31450 50902 10280 20260 39992 40106 70392 82530 333 56990 70000 82618 85365=
41888,2024,05,26,00,00,AAXX 26004 41888 11457 81202 10259 20259 39994 40104 60033 72162 8352/ 333 56999 59026 70025 83618 88460=
41888,2024,05,26,06,00,AAXX 26064 41888 32457 60902 10350 20240 39984 49984 49994 82530 333 56990 58000 70025 82618 86365=
41888,2024,05,26,12,00,AAXX 26124 41888 32456 70902 10350 20240 39945 49953 83570 333 10375 56990 59013 70025 83618 85460=
41888,2024,05,26,18,00,AAXX 26184 41888 11330 80906 10267 20260 39983 49993 60023 76065 8432/ 333 56999 59010 70040 82708 83616 81930 88458=
41888,2024,05,27,00,00,AAXX 27004 41888 11450 80906 10275 20250 39958 49968 69953 72162 8432/ 333 56999 59036 70020 83618 81926 88460=
41888,2024,05,27,06,00,AAXX 27064 41888 11350 80910 10260 20250 39939 49949 60169 76366 8532/ 333 56299 59045 70184 82709 83616 81926 88459=
41888,2024,05,27,12,00,AAXX 27124 41888 NIL=
41888,2024,05,28,06,00,AAXX 28064 41888 NIL=
41888,2024,05,28,12,00,AAXX 28124 41888 32456 81801 10295 20260 39956 49966 8251/ 333 10310 56999 58073 70760 82618 88460=
41888,2024,05,28,18,00,AAXX 28184 41888 NIL=
41888,2024,05,29,00,00,AAXX 29004 41888 32440 80901 10275 20270 39982 49992 8452/ 333 56999 58135 70015 84617 88459=
41888,2024,05,29,06,00,AAXX 29064 41888 32456 81304 10325 20280 39987 49997 8352/ 333 56999 58083 70010 83618 88460=
41888,2024,05,29,12,00,AAXX 29124 41888 32450 80908 10272 20250 39972 49982 8251/ 333 10328 56999 58016 70010 82618 88460=
41888,2024,05,29,18,00,AAXX 29184 41888 NIL=
41888,2024,05,30,00,00,AAXX 30004 41888 NIL=
41888,2024,05,30,06,00,AAXX 30064 41888 11450 80902 10257 20240 30026 40036 69904 76122 8532/ 333 56999 58039 70350 84617 81930 88460=
41888,2024,05,30,12,00,AAXX 30124 41888 11456 80905 10256 20240 30015 40025 60126 70362 8532/ 333 56299 58043 70470 81710 83616 81930 88460=
41888,2024,05,30,18,00,AAXX 30184 41888 11450 80901 10253 20230 30030 40040 60016 70262 8352/ 333 56999 58038 70474 83617 88460=
41891,2024,05,24,00,00,AAXX 24004 41891 01/30 31004 10270 20230 39997 40035 70510 83030 333 59018 70000 83365==
41891,2024,05,24,03,00,AAXX 24034 41891 01/40 41204 10325 20250 39996 40033 70511 84030 333 20265 59016 70000 84365==
41891,2024,05,24,06,00,AAXX 24064 41891 01950 00902 10350 20250 39982 40018 70511 333 59014 70000==
41891,2024,05,24,09,00,AAXX 24094 41891 01/50 33405 10372 20250 39954 49990 70511 83030 333 59012 70000 83365==
41891,2024,05,24,12,00,AAXX 24124 41891 01450 30303 10345 20250 39938 49975 70511 81530 333 10377 59022 70000 81615 83365==
41891,2024,05,24,15,00,AAXX 24154 41891 01440 32702 10316 20270 39966 40103 70511 81530 333 59020 70000 81615 83365==
41891,2024,05,24,18,00,AAXX 24184 41891 01430 71704 10288 20240 39990 40028 71722 84370 333 59009 70000 84615 86460 81930==
41891,2024,05,24,21,00,AAXX 24214 41891 41430 81202 10280 20240 39981 40019 70562 8532/ 333 59027 82710 84615 88459 81930==
41891,2024,05,25,00,00,AAXX 25004 41891 01430 81002 10272 20230 39974 40012 70562 8532/ 333 59023 70009 82710 84615 88459 81930==
41891,2024,05,25,03,00,AAXX 25034 41891 41440 30902 10325 20230 39966 40003 70522 81530 333 20270 59030 81616 83365==
41891,2024,05,25,06,00,AAXX 25064 41891 41450 30902 10360 20220 39962 49999 70521 81530 333 59020 81616 83365==
41891,2024,05,25,09,00,AAXX 25094 41891 41450 30903 10380 20220 39930 49966 70511 81430 333 59024 81828 83365==
41891,2024,05,25,12,00,AAXX 25124 41891 41450 31803 10370 20230 39931 49968 70511 81430 333 10382 59007 81828 83365==
41891,2024,05,25,15,00,AAXX 25154 41891 41440 73003 10302 20250 39980 40018 70522 84370 333 58014 84615 86460 81930==
41891,2024,05,25,18,00,AAXX 25184 41891 11430 82703 10285 20270 39991 40029 60012 72162 8532/ 333 58001 70014 82710 84615 88459 81930==
41891,2024,05,25,21,00,AAXX 25214 41891 01430 83204 10281 20260 39985 40023 70522 8532/ 333 58004 70014 81710 84615 88459 81930==
41891,2024,05,26,00,00,AAXX 26004 41891 01440 83403 10275 20260 39971 40109 70522 8532/ 333 59003 70014 81710 84615 88459 81930==
41891,2024,05,26,03,00,AAXX 26034 41891 01440 80000 10305 20250 39977 40015 70522 8532/ 333 20273 58011 70014 82710 84615 88459 81930==
41891,2024,05,26,06,00,AAXX 26064 41891 01450 51702 10352 20240 39954 49991 70522 82530 333 59008 70014 82616 85365==
41891,2024,05,26,09,00,AAXX 26094 41891 01450 62703 10370 20240 39921 49957 70522 84370 333 59009 70014 83616 86365 81930==
41891,2024,05,26,12,00,AAXX 26124 41891 01440 73003 10352 20260 39915 49952 70522 85370 333 10375 59016 70014 81710 82616 87458 81930==
41891,2024,05,26,15,00,AAXX 26154 41891 01330 83008 10265 20250 39963 40001 79596 8532/ 333 59017 70129 86708 88458 81928==
41891,2024,05,26,18,00,AAXX 26184 41891 21330 82706 10262 20250 39969 40007 79596 8532/ 333 59022 60169 70159 86708 88458 81928==
41891,2024,05,26,21,00,AAXX 26214 41891 01330 82704 10260 20250 39958 49996 79596 8532/ 333 59027 70165 86708 88458 81928==
41891,2024,05,27,00,00,AAXX 27004 41891 11430 82704 10266 20260 39952 49990 60026 70596 8532/ 333 59019 70165 82710 84615 88459 81930==
41891,2024,05,27,03,00,AAXX 27034 41891 01440 82702 10274 20260 39958 49996 76166 8532/ 333 20263 59019 70185 82710 84615 88459 81930==
41891,2024,05,27,06,00,AAXX 27064 41891 21320 80905 10282 20260 39943 49981 76166 8632/ 333 59011 60059 70215 86708 88458 81925==
41891,2024,05,27,09,00,AAXX 27094 41891 01325 81204 10225 20220 39986 40025 76366 8632/ 333 58065 70297 86708 88458 81925==
41891,2024,05,27,12,00,AAXX 27124 41891 21325 81204 10260 20250 39910 49948 76166 8632/ 333 10290 59005 60299 88457 81925==
41891,2024,05,27,15,00,AAXX 27154 41891 01325 81209 10254 20240 39904 49942 76366 8632/ 333 59059 70622 86708 88458 81925==
41891,2024,05,27,18,00,AAXX 27184 41891 21325 80915 10253 20250 39889 49927 76366 8632/ 333 59080 60569 70922 86708 88456 81925==
41891,2024,05,27,21,00,AAXX 27214 41891 01330 82010 10255 20250 39869 49907 76366 8632/ 333 59089 71692 86708 88456 81925==
41891,2024,05,28,00,00,AAXX 28004 41891 21330 82008 10257 20250 39849 49987 76366 8632/ 333 59103 61599 72492 86708 88456 81925==
41891,2024,05,28,03,00,AAXX 28034 41891 01320 82009 10251 20240 39860 49898 76366 8632/ 333 20250 59092 72942 86707 88456 81925==
41891,2024,05,28,06,00,AAXX 28064 41891 21320 82012 10258 20250 39890 49928 76366 8632/ 333 59053 60869 73305 86707 88456 81925==
41891,2024,05,28,09,00,AAXX 28094 41891 01320 82708 10265 20250 39916 49954 76166 8632/ 333 59070 73237 86708 88458 81925==
41891,2024,05,28,12,00,AAXX 28124 41891 21430 82703 10273 20250 39940 49978 70562 8532/ 333 10282 58030 60028 73031 81710 84615 88459 81930==
41891,2024,05,28,15,00,AAXX 28154 41891 01430 80903 10264 20250 39954 40003 70522 8532/ 333 58061 72801 81710 84616 88458 81930==
41891,2024,05,28,18,00,AAXX 28184 41891 11430 82604 10263 20250 39959 49997 60016 79592 8632/ 333 58070 72481 82710 85615 88458 81928==
41891,2024,05,28,21,00,AAXX 28214 41891 01420 82406 10255 20250 39956 49994 79596 8632/ 333 58087 72041 82710 85616 88458 81928==
41891,2024,05,29,00,00,AAXX 29004 41891 21430 80904 10235 20230 39963 40001 70596 8532/ 333 58114 60578 71461 85616 88458 81928==
41891,2024,05,29,03,00,AAXX 29034 41891 01430 80903 10246 20240 39975 40013 70522 8532/ 333 20220 58115 70991 82710 84616 88458 81930==
41891,2024,05,29,06,00,AAXX 29064 41891 01430 80903 10266 20250 39975 40013 70522 8532/ 333 58085 70598 82710 84616 88458 81930==
41891,2024,05,29,09,00,AAXX 29094 41891 01320 80906 10255 20240 39958 49996 76162 8632/ 333 58042 70602 86708 88457 81925==
41891,2024,05,29,12,00,AAXX 29124 41891 21320 81206 10243 20230 39954 49992 76166 8632/ 333 10281 58014 60049 70620 86708 88457 81925==
41891,2024,05,29,15,00,AAXX 29154 41891 01320 81205 10243 20230 39985 40024 76166 8632/ 333 58020 70712 86708 88458 81925==
41891,2024,05,29,18,00,AAXX 29184 41891 21430 81004 10251 20240 39978 40016 70562 8532/ 333 59019 60108 70708 82710 84615 88459 81930==
41891,2024,05,29,21,00,AAXX 29214 41891 01430 83205 10246 20240 39984 40024 70522 8532/ 333 58028 70358 82710 84615 88458 81930==
41891,2024,05,30,00,00,AAXX 30004 41891 01320 82905 10230 20220 30001 40040 76162 8632/ 333 58038 70050 86707 88457 81925==
41891,2024,05,30,03,00,AAXX 30034 41891 01330 81004 10238 20230 30024 40063 76166 8632/ 333 20228 58049 70532 86708 88457 81926==
41891,2024,05,30,06,00,AAXX 30064 41891 21330 81307 10255 20240 30008 40046 79596 8632/ 333 58033 60369 70552 85708 88458 81926==
41891,2024,05,30,09,00,AAXX 30094 41891 01330 82708 10255 20240 30015 40053 79596 8632/ 333 58057 70536 86708 88457 81925==
41891,2024,05,30,12,00,AAXX 30124 41891 21320 80000 10235 20220 39996 40034 79596 8632/ 333 10263 58042 60239 70748 86708 88457 81925==
41891,2024,05,30,15,00,AAXX 30154 41891 01430 80902 10235 20230 30002 40041 72196 8532/ 333 58017 70670 82709 83615 88458 81930==
41891,2024,05,30,18,00,AAXX 30184 41891 21430 80902 10243 20230 30006 40045 70596 8532/ 333 58028 60028 70664 82710 83615 88458 81930==
41891,2024,05,30,21,00,AAXX 30214 41891 01430 80902 10246 20230 30007 40045 70522 8532/ 333 58023 70664 82710 83615 88458 81930==
41895,2024,05,24,00,00,AAXX 24004 41895 01450 50000 10272 20260 30006 40028 70596 83520 333 59020 70050 83616 85458==
41895,2024,05,24,03,00,AAXX 24034 41895 02958 00302 10340 20270 30010 40031 333 20266 59026 70060==
41895,2024,05,24,06,00,AAXX 24064 41895 02458 50902 10367 20270 30000 40021 85400 333 59022 70060 82615 83820==
41895,2024,05,24,09,00,AAXX 24094 41895 02458 50302 10379 20250 39973 49994 85400 333 59019 70060 82615 83820==
41895,2024,05,24,12,00,AAXX 24124 41895 02450 50000 10320 20250 39964 49985 83520 333 10384 59019 70060 83616 85458==
41895,2024,05,24,15,00,AAXX 24154 41895 02450 50000 10298 20270 39985 40007 85400 333 59020 70060 82615 83820==
41895,2024,05,24,18,00,AAXX 24184 41895 02450 70000 10295 20280 39993 40015 84470 333 59011 70005 83616 85458==
41895,2024,05,24,21,00,AAXX 24214 41895 01950 02701 10285 20280 39984 40006 70520 333 59021 70000==
41895,2024,05,25,00,00,AAXX 25004 41895 01950 00000 10277 20277 39978 40000 70500 333 59028 70000==
41895,2024,05,25,03,00,AAXX 25034 41895 02957 03602 10350 20250 39984 40005 333 20270 59026 70000==
41895,2024,05,25,06,00,AAXX 25064 41895 02558 20502 10378 20240 39972 49993 82100 333 59028 70000 82825==
41895,2024,05,25,09,00,AAXX 25094 41895 02457 40502 10392 20250 39947 49968 84800 333 59026 70000 82616 83825==
41895,2024,05,25,12,00,AAXX 25124 41895 02456 40501 10368 20270 39941 49962 84800 333 10394 59023 70000 82616 83825==
41895,2024,05,25,15,00,AAXX 25154 41895 02450 51301 10313 20260 39968 49990 83510 333 59017 70000 83616 85458==
41895,2024,05,25,18,00,AAXX 25184 41895 21450 81303 10280 20260 39983 40005 70362 8452/ 333 59010 60055 70054 84615 88458==
41895,2024,05,25,21,00,AAXX 25214 41895 02450 60903 10280 20260 39973 49995 83520 333 59011 70054 83616 86458==
41895,2024,05,26,00,00,AAXX 26004 41895 02450 60903 10276 20260 39971 49993 83520 333 59007 70054 83616 86458==
41895,2024,05,26,03,00,AAXX 26034 41895 02456 80504 10310 20260 39981 40003 8452/ 333 20274 59003 70054 84615 88458==
41895,2024,05,26,06,00,AAXX 26064 41895 02456 80908 10334 20240 39967 49988 8532/ 333 59005 70054 84615 88458 81930==
41895,2024,05,26,09,00,AAXX 26094 41895 02457 60906 10344 20230 39936 49958 83430 333 59011 70054 82616 85362==
41895,2024,05,26,12,00,AAXX 26124 41895 02450 83606 10332 20250 39925 49946 8452/ 333 10358 59016 70054 84616 88458==
41895,2024,05,26,15,00,AAXX 26154 41895 01350 80502 10288 20270 39942 49964 71396 8572/ 333 59026 70110 85709 88458 81930==
41895,2024,05,26,18,00,AAXX 26184 41895 01450 60505 10288 20250 39956 49988 70196 83520 333 59017 70060 83616 86458==
41895,2024,05,27,00,00,AAXX 27004 41895 01350 80509 10268 20260 39904 49926 76162 8572/ 333 59067 70050 85709 88458 81930==
41895,2024,05,27,03,00,AAXX 27034 41895 01350 80512 10264 20250 39945 49968 76166 8672/ 333 20260 59035 70250 84708 84614 88457==
41895,2024,05,27,06,00,AAXX 27064 41895 21350 80514 10265 20260 39935 49957 76166 8672/ 333 59032 60239 70336 84708 84614 88458==
41895,2024,05,27,09,00,AAXX 27094 41895 01340 80514 10260 20250 39870 49892 76166 8672/ 333 59066 70402 84708 84614 88457==
41895,2024,05,27,12,00,AAXX 27124 41895 21340 80514 10256 20240 39858 49880 76166 8672/ 333 10274 59064 60199 70592 84708 84614 88257==
41895,2024,05,27,15,00,AAXX 27154 41895 01340 80712 10253 20250 39984 49906 76166 8672/ 333 59058 70580 84708 84615 88257==
41895,2024,05,27,18,00,AAXX 27184 41895 21440 80905 10251 20240 39902 49924 76166 8452/ 333 59064 60089 70614 84616 88458==
41895,2024,05,27,21,00,AAXX 27214 41895 02450 83603 10250 20240 39917 49940 8452/ 333 59018 70614 84616 88458==
41895,2024,05,28,00,00,AAXX 28004 41895 01450 81802 10260 20250 39940 49962 70522 8452/ 333 58036 70560 84616 88458==
41895,2024,05,28,03,00,AAXX 28034 41895 02558 30503 10295 20240 39952 49974 81130 333 20250 58006 70364 81825 83362==
41895,2024,05,28,06,00,AAXX 28064 41895 02958 11802 10334 20250 39951 49972 81100 333 58016 70334 81825==
41895,2024,05,28,09,00,AAXX 28094 41895 02/58 31802 10340 20260 39934 49955 83030 333 58064 70264 83362==
41895,2024,05,28,12,00,AAXX 28124 41895 02950 01302 10328 20270 39927 49949 333 10346 58069 70074==
41895,2024,05,28,15,00,AAXX 28154 41895 02450 51302 10303 20280 39946 49968 83520 333 58062 70030 83616 85458==
41895,2024,05,28,18,00,AAXX 28184 41895 02450 61303 10288 20280 39950 49972 83520 333 58048 70000 83616 86458==
41895,2024,05,28,21,00,AAXX 28214 41895 02450 81302 10296 20290 39940 49962 8452/ 333 58023 70000 84615 88458==
41895,2024,05,29,00,00,AAXX 29004 41895 02450 81802 10295 20290 39946 49968 8452/ 333 58006 70000 84615 88458==
41895,2024,05,29,03,00,AAXX 29034 41895 02450 81804 10312 20280 39962 49984 8452/ 333 20289 58010 70000 84615 88458==
41895,2024,05,29,06,00,AAXX 29064 41895 02450 81802 10342 20300 39959 49981 8452/ 333 58008 70000 84615 88458==
41895,2024,05,29,09,00,AAXX 29094 41895 02450 81803 10362 20290 39938 49960 8452/ 333 58004 70000 84615 88458==
41895,2024,05,29,12,00,AAXX 29124 41895 02450 61402 10342 20300 39943 49964 84520 333 10364 58016 70000 84616 86458==
41895,2024,05,29,15,00,AAXX 29154 41895 02450 61402 10310 20290 39962 49983 84520 333 58016 70000 84616 86458==
41895,2024,05,29,18,00,AAXX 29184 41895 02450 81402 10304 20290 39963 49985 8452/ 333 58013 70000 84616 88458==
41895,2024,05,29,21,00,AAXX 29214 41895 02450 81402 10303 20280 39970 49992 8452/ 333 58030 70000 84616 88458==
41895,2024,05,30,00,00,AAXX 30004 41895 02450 81404 10302 20280 39978 40000 8452/ 333 58032 70000 84616 88458==
41895,2024,05,30,03,00,AAXX 30034 41895 02450 81802 10312 20280 39997 40019 8452/ 333 20299 58035 70000 84615 88458==
41895,2024,05,30,06,00,AAXX 30064 41895 02450 81804 10340 20280 39984 40006 8452/ 333 58025 70000 84615 88458==
41895,2024,05,30,09,00,AAXX 30094 41895 02450 81303 10346 20290 39971 49992 8452/ 333 58033 70000 84615 88458==
41895,2024,05,30,12,00,AAXX 30124 41895 02450 83102 10328 20290 39971 49993 8452/ 333 10356 58028 70000 84615 88458==
41895,2024,05,30,15,00,AAXX 30154 41895 02450 81802 10307 20290 39994 40016 8452/ 333 58032 70000 84615 88458==
41895,2024,05,30,18,00,AAXX 30184 41895 02450 81804 10300 20280 39983 40005 8452/ 333 58020 70000 84616 88458==
41895,2024,05,30,21,00,AAXX 30214 41895 02450 83104 10285 20260 39993 40015 8452/ 333 58023 70000 84615 88458==
41897,2024,05,24,00,00,AAXX 24004 41897 32450 50000 10270 20260 30006 40019 84310 333 56990 59028 70000 82620 84460=
41897,2024,05,24,03,00,AAXX 24034 41897 NIL=
41897,2024,05,24,06,00,AAXX 24064 41897 32450 32202 10360 20250 30008 40021 84400 333 56900 59019 70000 83620=
41897,2024,05,24,12,00,AAXX 24124 41897 32450 30000 10365 20250 39997 40010 80009 333 10380 56009 58005 70000 83180=
41897,2024,05,24,18,00,AAXX 24184 41897 NIL=
41897,2024,05,25,00,00,AAXX 25004 41897 32950 00000 10285 20280 30002 40015 333 59008 70000=
41897,2024,05,25,06,00,AAXX 25064 41897 32456 51402 10370 20270 39998 40005 84610 333 56990 59020 70000 82620 84460=
41897,2024,05,25,12,00,AAXX 25124 41897 32450 50000 10360 20250 39947 40060 84610 333 10390 56990 59041 70000 82620 84460=
41897,2024,05,25,18,00,AAXX 25184 41897 NIL=
41897,2024,05,26,00,00,AAXX 26004 41897 32450 81402 10275 20270 39986 49999 84310 333 56990 59012 70000 81710 82620 81930 84460=
41897,2024,05,26,06,00,AAXX 26064 41897 32456 70503 10325 20250 39982 49995 84310 333 56990 59008 70000 82620 81930 86460=
41897,2024,05,26,12,00,AAXX 26124 41897 32450 70902 10330 20250 39935 49947 83530 333 10358 56290 59012 70000 83617 86360=
41897,2024,05,26,18,00,AAXX 26184 41897 32440 81005 10283 20240 39954 49967 8352/ 333 56999 59025 70000 83616 88458=
41897,2024,05,27,00,00,AAXX 27004 41897 11330 80612 10265 20260 39925 49938 60027 76165 8572/ 333 56999 59061 70017 83708 85613 81925 88458=
41897,2024,05,27,06,00,AAXX 27064 41897 11340 80514 10262 20250 39896 49909 60349 76166 8533/ 333 56399 59086 70357 83709 85618 81928 88458=
41897,2024,05,27,12,00,AAXX 27124 41897 11330 80812 10255 20250 39838 49851 60279 76166 8532/ 333 10265 56299 59097 70627 83708 85613 81925 88458 90155 91028=
41897,2024,05,27,18,00,AAXX 27184 41897 11320 83515 10246 20246 39861 49874 60179 76166 8532/ 333 56999 59093 70797 83708 85613 81925 88458=
41897,2024,05,28,00,00,AAXX 28004 41897 11330 83406 10255 20230 39916 49929 60108 70266 8532/ 333 56999 59009 70880 83709 85615 81925 88458=
41897,2024,05,28,06,00,AAXX 28064 41897 32956 50602 10325 20270 39959 49971 85030 333 56090 58063 70540 85362=
41897,2024,05,28,12,00,AAXX 28124 41897 32956 41502 10310 20260 39945 49957 84030 333 10340 56090 58107 70270 84362=
41897,2024,05,28,18,00,AAXX 28184 41897 32945 51502 10295 20290 39963 49976 85030 333 56090 58102 70100 85360=
41897,2024,05,29,00,00,AAXX 29004 41897 32435 71802 10290 20280 39962 49975 83520 333 56490 58046 70000 83617 87459=
41897,2024,05,29,06,00,AAXX 29064 41897 32450 61804 10335 20290 39971 49984 83530 333 56490 58012 70000 83617 86360=
41897,2024,05,29,12,00,AAXX 29124 41897 32950 61805 10325 20290 39957 49970 86030 333 10350 58012 70000 86360=
41897,2024,05,29,18,00,AAXX 29184 41897 32940 41806 10295 20290 39975 49988 84030 333 56090 58012 70000 84360=
41897,2024,05,30,00,00,AAXX 30004 41897 31435 81802 10295 20280 39993 40006 8352/ 333 56499 58018 70000 83616 88458=
41897,2024,05,30,06,00,AAXX 30064 41897 31450 61704 10340 20280 30027 40040 70522 82530 333 56490 58056 70000 82617 86360=
41897,2024,05,30,12,00,AAXX 30124 41897 31950 01803 10322 20270 39985 49998 70520 333 10342 58028 70000=
41897,2024,05,30,18,00,AAXX 30184 41897 31940 50902 10280 20270 30020 40033 70522 81510 333 56990 58045 70000 81618 85458=
41902,2024,05,24,00,00,AAXX 24004 41902 32450 71801 10275 20268 30022 40030 83520 333 56990 59016 70000 83614 87459=
41902,2024,05,24,03,00,AAXX 24034 41902 NIL=
41902,2024,05,24,06,00,AAXX 24064 41902 32457 11001 10363 20250 30012 40020 81500 333 56200 59021 70000 81614=
41902,2024,05,24,12,00,AAXX 24124 41902 32458 13201 10350 20250 39981 49989 81500 333 10385 56200 59017 70000 81614=
41902,2024,05,24,18,00,AAXX 24184 41902 NIL=
41902,2024,05,25,00,00,AAXX 25004 41902 32950 01001 10274 20260 30006 40014 333 59016 70000=
41902,2024,05,25,06,00,AAXX 25064 41902 NIL=
41902,2024,05,25,12,00,AAXX 25124 41902 32450 50000 10345 20290 39965 49973 84320 333 10385 56990 59016 70000 83616 81925 85458=
41902,2024,05,25,18,00,AAXX 25184 41902 11440 82004 10270 20260 30000 40008 60246 70296 8532/ 333 56999 58003 70240 83712 84616 81930 88458=
41902,2024,05,26,00,00,AAXX 26004 41902 32440 70803 10265 20260 39993 40001 83420 333 56990 59013 70240 82616 87458=
41902,2024,05,26,06,00,AAXX 26064 41902 32456 60604 10336 20270 39989 49997 83420 56990 58002 70240 82616 86458=
41902,2024,05,26,12,00,AAXX 26124 41902 11440 80502 10315 20290 39955 49963 69944 76122 8442/ 333 10368 56199 59010 70244 83614 88459=
41902,2024,05,26,18,00,AAXX 26184 41902 NIL=
41902,2024,05,27,00,00,AAXX 27004 41902 11430 80607 10273 20250 39951 49960 60018 70262 8352/ 333 56199 59042 70030 83614 88459=
41902,2024,05,27,06,00,AAXX 27064 41902 11330 80516 10265 20260 39934 49943 60209 76562 8672/ 333 56199 59055 70230 83708 84613 88458=
41902,2024,05,27,12,00,AAXX 27124 41902 11330 80513 10265 20260 39878 49886 60569 76566 8672/ 333 10268 56199 59077 70786 83708 84613 88458=
41902,2024,05,28,06,00,AAXX 28064 41902 NIL=
41902,2024,05,28,12,00,AAXX 28124 41902 32440 60000 10302 20250 39955 49964 82530 333 10330 56990 58077 71340 82614 85362=
41902,2024,05,28,18,00,AAXX 28184 41902 NIL=
41902,2024,05,29,00,00,AAXX 29004 41902 NIL=
41902,2024,05,29,06,00,AAXX 29064 41902 31440 61805 10330 20270 39982 49991 70242 83430 333 56490 58030 70000 82614 85362=
41902,2024,05,29,12,00,AAXX 29124 41902 32440 71803 10312 20270 39974 49983 83410 333 10332 56490 58019 70000 82614 87459=
41902,2024,05,29,18,00,AAXX 29184 41902 NIL=
41902,2024,05,30,00,00,AAXX 30004 41902 31430 80502 10284 20260 30006 40014 70544 8442/ 333 56999 58028 70000 83614 88459=
41902,2024,05,30,06,00,AAXX 30064 41902 11430 70903 10277 20270 30018 40026 60024 72142 84410 333 56290 58036 70020 83614 87459=
41902,2024,05,30,12,00,AAXX 30124 41902 11440 80505 10260 20240 30007 40016 60023 70262 8452/ 333 10310 56399 58033 70044 83614 88458=
41902,2024,05,30,18,00,AAXX 30184 41902 32440 80503 10262 20250 30023 40032 8352/ 333 56999 58022 70044 83615 88458=
41907,2024,05,24,00,00,AAXX 24004 41907 02/45 30000 10270 20250 30005 40020 83030 333 59025 70000 83362==
41907,2024,05,24,03,00,AAXX 24034 41907 02950 00000 10345 20250 30013 40028 333 20268 59023 70000==
41907,2024,05,24,06,00,AAXX 24064 41907 02450 31302 10380 20240 30002 40017 83343 333 59023 70000 83825==
41907,2024,05,24,09,00,AAXX 24094 41907 02456 51302 10390 20230 39976 49990 85800 333 59015 70000 82615 83825==
41907,2024,05,24,12,00,AAXX 24124 41907 02456 62702 10335 20260 39966 49981 84510 333 10395 59017 70000 84615 85458==
41907,2024,05,24,15,00,AAXX 24154 41907 02940 00000 10300 20250 39988 40003 333 59017 70000==
41907,2024,05,24,18,00,AAXX 24184 41907 02/40 30000 10292 20260 39997 40011 83030 333 59017 70000 83362==
41907,2024,05,24,21,00,AAXX 24214 41907 02440 80000 10285 20260 39987 40001 8252/ 333 59022 70000 82615 88458==
41907,2024,05,25,00,00,AAXX 25004 41907 02/45 70000 10276 20260 39981 49996 80010 333 59024 70000 87458==
41907,2024,05,25,03,00,AAXX 25034 41907 02950 03102 10362 20240 39983 49998 333 20275 59030 70000==
41907,2024,05,25,06,00,AAXX 25064 41907 02456 50503 10392 20260 39973 49987 85800 333 59029 70000 82615 83825==
41907,2024,05,25,09,00,AAXX 25094 41907 02456 30903 10296 20290 39949 49963 83800 333 59027 70000 82615==
41907,2024,05,25,12,00,AAXX 25124 41907 02350 81302 10375 20260 39943 49958 8632/ 333 10400 59023 70000 82709 85615 88458==
41907,2024,05,25,15,00,AAXX 25154 41907 01330 80503 10280 20260 39982 49996 71796 8692/ 333 59006 70115 85709 88458 81930==
41907,2024,05,25,18,00,AAXX 25184 41907 01340 80503 10275 20270 39993 40008 72996 8662/ 333 59004 70185 82709 85615 88458==
41907,2024,05,25,21,00,AAXX 25214 41907 02340 80000 10273 20260 39985 40000 8662/ 333 59002 70185 82709 85615 88458==
41907,2024,05,26,00,00,AAXX 26004 41907 02340 80502 10270 20260 39976 49990 8662/ 333 59005 70185 82709 85615 88458==
41907,2024,05,26,03,00,AAXX 26034 41907 02450 83602 10302 20250 39982 49997 8552/ 333 20265 59001 70185 85615 88458==
41907,2024,05,26,06,00,AAXX 26064 41907 02450 80505 10330 20250 39972 49987 8551/ 333 59001 70185 85615 88458==
41907,2024,05,26,09,00,AAXX 26094 41907 02450 70904 10353 20250 39938 49952 85510 333 59011 70185 85615 86458==
41907,2024,05,26,12,00,AAXX 26124 41907 02340 80902 10330 20260 39928 49942 8662/ 333 10358 59015 70185 85709 88458==
41907,2024,05,26,15,00,AAXX 26154 41907 01335 80906 10305 20270 39939 49953 71322 8632/ 333 59043 70070 82709 85615 88458 81930==
41907,2024,05,26,18,00,AAXX 26184 41907 02335 80907 10290 20240 39940 49954 8662/ 333 59053 70000 82709 85615 88458==
41907,2024,05,27,00,00,AAXX 27004 41907 01330 80909 10265 20265 39894 49908 76162 8672/ 333 59082 70120 85708 88458==
41907,2024,05,27,03,00,AAXX 27034 41907 01330 81306 10265 20260 39884 49899 76166 8672/ 333 20255 59098 70330 85709 88459==
41907,2024,05,27,06,00,AAXX 27064 41907 21330 80910 10265 20260 39864 76166 8672/ 333 59108 60269 70380 85709 88456==
41907,2024,05,27,09,00,AAXX 27094 41907 01330 80912 10260 20250 39830 49845 76166 8672/ 333 59018 70505 85709 88458==
41907,2024,05,27,12,00,AAXX 27124 41907 21330 80512 10255 20250 39821 49835 76166 8672/ 333 10274 59107 60269 70635 85709 88457==
41907,2024,05,27,15,00,AAXX 27154 41907 01330 80510 10255 20250 39860 49874 76166 8672/ 333 59079 70710 85709 88458==
41907,2024,05,27,18,00,AAXX 27184 41907 21330 83610 10250 20240 39885 49900 76166 8672/ 333 59055 60109 70730 85709 88458==
41907,2024,05,27,21,00,AAXX 27214 41907 01340 83104 10252 20240 39902 49917 72166 8662/ 333 59001 70795 85709 88458==
41907,2024,05,28,00,00,AAXX 28004 41907 21340 83103 10260 20240 39943 49958 70262 8662/ 333 58049 60078 70675 85709 88458==
41907,2024,05,28,03,00,AAXX 28034 41907 02450 73102 10295 20250 39956 49970 83530 333 20250 58082 70465 83615 86362==
41907,2024,05,28,06,00,AAXX 28064 41907 02450 60000 10338 20240 39956 49970 82532 333 58092 70415 81615 83362 85080==
41907,2024,05,28,09,00,AAXX 28094 41907 02456 31304 10355 20260 39940 49954 83500 333 58110 70290 83615==
41907,2024,05,28,12,00,AAXX 28124 41907 02450 81303 10330 20260 39936 49950 8552/ 333 10357 58115 70160 85615 88458==
41907,2024,05,28,15,00,AAXX 28154 41907 02440 81802 10310 20280 39953 49968 8552/ 333 58093 70085 85615 88458==
41907,2024,05,28,18,00,AAXX 28184 41907 02440 81802 10305 20290 39962 40076 8552/ 333 58077 70065 85615 88458==
41907,2024,05,28,21,00,AAXX 28214 41907 02340 80000 10290 20280 39955 49969 8662/ 333 58053 70000 82709 85615 88458==
41907,2024,05,29,00,00,AAXX 29004 41907 02440 81304 10300 20280 39956 49970 8552/ 333 58013 70000 85615 88458==
41907,2024,05,29,03,00,AAXX 29034 41907 02340 81804 10315 20270 39967 49982 8662/ 333 20285 58011 70000 82709 84615 88458==
41907,2024,05,29,06,00,AAXX 29064 41907 02350 71806 20290 39964 49978 85610 333 58008 70000 82709 83615 85458==
41907,2024,05,29,09,00,AAXX 29094 41907 02350 81803 10350 20280 39951 49965 8662/ 333 58011 70000 83709 85615 88458==
41907,2024,05,29,12,00,AAXX 29124 41907 02350 81802 10330 20290 39956 49970 8662/ 333 10358 58020 70000 82709 85615 88458==
41907,2024,05,29,15,00,AAXX 29154 41907 02440 71802 10320 20280 39973 49987 85510 333 58020 70000 85615 86458==
41907,2024,05,29,18,00,AAXX 29184 41907 02440 71802 10315 20290 39977 49991 85510 333 58015 70000 85615 86458==
41907,2024,05,29,21,00,AAXX 29214 41907 02440 71802 10305 20300 39970 49984 85510 333 58015 70000 85615 86458==
41907,2024,05,30,00,00,AAXX 30004 41907 02340 82302 10302 20290 39987 40002 8662/ 333 58031 70000 83709 85615 88458==
41907,2024,05,30,03,00,AAXX 30034 41907 02350 81804 10320 20280 30002 40016 8662/ 333 20292 58035 70000 82709 85615 88458==
41907,2024,05,30,06,00,AAXX 30064 41907 02456 72205 10350 20280 39990 40005 84510 333 58026 70000 84615 85458==
41907,2024,05,30,09,00,AAXX 30094 41907 02450 81803 10352 20280 39978 49993 8452/ 333 58027 70000 84615 88458==
41907,2024,05,30,12,00,AAXX 30124 41907 02450 61802 10332 20270 39979 49994 83510 333 10355 58023 70000 83615 85458==
41907,2024,05,30,15,00,AAXX 30154 41907 02340 81802 10315 20290 30000 40015 8662/ 333 58028 70000 82709 85615 88458==
41907,2024,05,30,18,00,AAXX 30184 41907 02340 81803 10307 20280 30006 40021 8662/ 333 58029 70000 82709 85615 88458==
41907,2024,05,30,21,00,AAXX 30214 41907 02340 81804 10280 20268 30004 40018 8662/ 333 58034 70000 82709 85615 88458==
41909,2024,05,24,00,00,AAXX 24004 41909 02950 00000 10288 20260 30010 40021 333 59017 70000==
41909,2024,05,24,03,00,AAXX 24034 41909 02956 00000 10334 20250 30018 40029 333 20282 59021 70000==
41909,2024,05,24,06,00,AAXX 24064 41909 02456 41802 10371 20240 30006 40018 81530 333 59020 70000 81618 84360==
41909,2024,05,24,09,00,AAXX 24094 41909 02456 30000 10390 20250 39978 49990 83300 333 59019 70000 82615 81930==
41909,2024,05,24,12,00,AAXX 24124 41909 02956 00000 10360 20250 39965 49977 333 10395 59018 70000==
41909,2024,05,24,15,00,AAXX 24154 41909 02/50 40000 10325 20270 39992 40003 84030 333 59017 70000 84365==
41909,2024,05,24,18,00,AAXX 24184 41909 02440 40000 10310 20260 30001 40012 82530 333 59006 70000 82615 83365==
41909,2024,05,24,21,00,AAXX 24214 41909 02/40 30000 10300 20250 39983 49994 83030 333 59027 70000 83365==
41909,2024,05,25,00,00,AAXX 25004 41909 02956 00000 10290 20250 39987 49998 333 59023 70000==
41909,2024,05,25,03,00,AAXX 25034 41909 02956 00000 10334 20270 39988 40000 333 20288 59030 70000==
41909,2024,05,25,06,00,AAXX 25064 41909 02456 31802 10374 20250 39979 49991 81530 333 59027 70000 81618 83360==
41909,2024,05,25,09,00,AAXX 25094 41909 02456 31302 10384 20250 39955 49967 83800 333 59023 70000 82615==
41909,2024,05,25,10,00,AAXX 25104 41909 02456 31302 10384 20250 39955 49967 83800 333 59023 70000 82615==
41909,2024,05,25,12,00,AAXX 25124 41909 02556 10000 10376 20250 39947 49959 81100 333 10392 59018 70000 81825==
41909,2024,05,25,15,00,AAXX 25154 41909 01440 80908 10304 20250 30018 40029 71700 8592/ 333 58026 70000 84615 88458 81930==
41909,2024,05,25,18,00,AAXX 25184 41909 21440 81302 10264 20240 30001 40012 70296 8252/ 333 58000 60087 70084 82615 88458==
41909,2024,05,25,21,00,AAXX 25214 41909 02440 51302 10274 20250 39988 49999 81530 333 58005 70084 81615 84360==
41909,2024,05,26,00,00,AAXX 26004 41909 02456 41302 10278 20260 39983 49994 82530 333 59004 70084 82615 83360==
41909,2024,05,26,03,00,AAXX 26034 41909 02456 81802 10294 20240 39991 40002 8352/ 333 20264 59003 70084 83615 88458==
41909,2024,05,26,06,00,AAXX 26064 41909 02456 51802 10336 20260 39980 49991 82530 333 58001 70084 82615 85360==
41909,2024,05,26,09,00,AAXX 26094 41909 02456 51802 10362 20240 39944 49956 82530 333 59011 70084 82615 85360==
41909,2024,05,26,12,00,AAXX 26124 41909 02350 80901 10336 20250 39938 49950 8462/ 333 10367 59009 70084 83708 88458==
41909,2024,05,26,15,00,AAXX 26154 41909 02330 81304 10300 20240 39956 49967 8362/ 333 59062 70084 82708 88458==
41909,2024,05,26,18,00,AAXX 26184 41909 02330 81302 10284 20240 39955 49966 8462/ 333 59046 70000 83708 88458==
41909,2024,05,27,00,00,AAXX 27004 41909 01350 80606 10280 20240 39921 49932 76162 8572/ 333 59062 70030 84708 88458==
41909,2024,05,27,03,00,AAXX 27034 41909 01350 81306 10266 20260 39924 49935 76162 8572/ 333 20258 59067 70180 84708 88458==
41909,2024,05,27,06,00,AAXX 27064 41909 01350 81308 10262 20250 39926 49937 76566 8572/ 333 59054 70390 85708 88458==
41909,2024,05,27,09,00,AAXX 27094 41909 01350 81308 10262 20250 39926 49937 76566 8572/ 333 59018 70580 85708 88458==
41909,2024,05,27,12,00,AAXX 27124 41909 21350 81306 10262 20260 39926 49937 76166 8572/ 333 10267 59013 60477 70780 85708 88458==
41909,2024,05,27,15,00,AAXX 27154 41909 01440 80000 10264 20260 39916 49927 76566 8572/ 333 59040 70850 85708 88458==
41909,2024,05,27,21,00,AAXX 27214 41909 01340 81302 10254 20250 39923 49935 76566 8572/ 333 59027 71003 85708 88458==
41909,2024,05,28,00,00,AAXX 28004 41909 21340 81302 10250 20250 39921 49932 76566 8572/ 333 58000 60089 71007 85708 88458==
41909,2024,05,28,03,00,AAXX 28034 41909 01450 81301 10265 20250 39943 49954 70266 8562/ 333 20240 58019 70810 84708 88458==
41909,2024,05,28,06,00,AAXX 28064 41909 11456 50000 10307 20240 39957 49968 60016 70162 83530 333 58031 70700 83615 85360==
41909,2024,05,28,09,00,AAXX 28094 41909 02456 21802 10340 20250 39950 49962 82500 333 58024 70560 82615==
41909,2024,05,28,12,00,AAXX 28124 41909 02456 71301 10320 20260 39946 49957 84570 333 10344 58020 70250 84615 86460==
41909,2024,05,28,15,00,AAXX 28154 41909 02440 81302 10300 20270 39963 49974 8552/ 333 58047 70130 85614 88460==
41909,2024,05,28,18,00,AAXX 28184 41909 02440 80000 10298 20270 39966 49977 8552/ 333 58045 70090 85615 88460==
41909,2024,05,28,21,00,AAXX 28214 41909 02440 61301 10295 20270 39963 49974 83530 333 58040 70050 83615 84365==
41909,2024,05,29,00,00,AAXX 29004 41909 02350 81304 10290 20260 39968 49979 8562/ 333 58047 70010 83708 83614 88458==
41909,2024,05,29,03,00,AAXX 29034 41909 02956 51802 10316 20270 39981 49992 83530 333 20260 58038 70000 83615 83360==
41909,2024,05,29,06,00,AAXX 29064 41909 02356 81802 10335 20270 39978 49990 8562/ 333 58021 70000 83708 83614 88458==
41909,2024,05,29,09,00,AAXX 29094 41909 02356 81302 10334 20270 39959 49971 8562/ 333 58009 70000 84708 83615 88458==
41909,2024,05,29,12,00,AAXX 29124 41909 02356 81302 10329 20280 39960 49972 8562/ 333 10345 58014 70000 84708 88458==
41909,2024,05,29,15,00,AAXX 29154 41909 02340 51302 10305 20270 39981 49992 84630 333 58018 70000 82708 83615==
41909,2024,05,29,18,00,AAXX 29184 41909 02340 61302 10298 20280 39994 40005 85630 333 58028 70000 83708 83360==
41909,2024,05,29,21,00,AAXX 29214 41909 02340 51302 10297 20280 39991 40002 83630 333 58028 70000 82708 83360==
41909,2024,05,30,00,00,AAXX 30004 41909 02356 70000 10300 20280 39998 40009 84620 333 58030 70000 83708 86458==
41909,2024,05,30,03,00,AAXX 30034 41909 02356 71302 10319 20280 30015 40026 84630 333 20292 58034 70000 82708 83615 85360==
41909,2024,05,30,06,00,AAXX 30064 41909 02456 71302 10344 20270 30005 40016 84630 333 58027 70000 82708 83615 85360==
41909,2024,05,30,09,00,AAXX 30094 41909 02350 81301 10336 20280 39989 40001 8562/ 333 58030 70000 84708 85614 88458==
41909,2024,05,30,12,00,AAXX 30124 41909 02350 81301 10330 20270 39991 40003 8462/ 333 10348 58031 70000 83708 88458==
41909,2024,05,30,15,00,AAXX 30154 41909 02330 80901 10280 20260 30012 40023 8462/ 333 58031 70000 83708 88458==
41909,2024,05,30,18,00,AAXX 30184 41909 02330 81301 10284 20260 30023 40034 8462/ 333 58029 70000 83708 88458==
41909,2024,05,30,21,00,AAXX 30214 41909 02330 81301 10288 20260 30008 40019 8462/ 333 58023 70000 83708 88458==
41915,2024,05,24,00,00,AAXX 24004 41915 02/56 10501 10262 20240 30012 40037 81030 333 59022 70000 81362==
41915,2024,05,24,03,00,AAXX 24034 41915 02956 00000 10315 20230 30010 40035 333 20256 59017 70000==
41915,2024,05,24,06,00,AAXX 24064 41915 02956 00000 10353 20250 39994 40018 333 59024 70000==
41915,2024,05,24,09,00,AAXX 24094 41915 02557 13602 10362 20240 39972 49996 81202 333 59007 70000 81822==
41915,2024,05,24,12,00,AAXX 24124 41915 02456 20000 10348 20260 39954 49979 81301 333 10375 59023 70000 81616 81930==
41915,2024,05,24,15,00,AAXX 24154 41915 01450 20000 10305 20290 39986 40010 71311 82300 333 59021 70000 81616 81928==
41915,2024,05,24,18,00,AAXX 24184 41915 01450 30000 10295 20250 39996 40021 72330 333 59017 70000 81616 81928==
41915,2024,05,24,21,00,AAXX 24214 41915 01450 20000 10274 20240 39996 40021 71311 82300 333 59017 70000 81616 81928==
41915,2024,05,25,00,00,AAXX 25004 41915 02956 00000 10270 20250 39986 40011 333 59024 70000==
41915,2024,05,25,03,00,AAXX 25034 41915 02956 03602 10342 20230 39981 40005 333 20260 59029 70000==
41915,2024,05,25,06,00,AAXX 25064 41915 02557 13102 10355 20250 39974 49998 81202 333 59020 70000 81822==
41915,2024,05,25,09,00,AAXX 25094 41915 02457 23603 10375 20260 39941 49965 82330 333 59031 70000 81616 81930==
41915,2024,05,25,12,00,AAXX 25124 41915 01450 71313 10288 20250 39964 49989 76321 85320 333 10385 58010 70020 82710 84615 86458 81928==
41915,2024,05,25,15,00,AAXX 25154 41915 01450 82302 10266 20250 39996 40021 70396 8532/ 333 58010 70092 82710 84615 88458 81928==
41915,2024,05,25,18,00,AAXX 25184 41915 NIL=
41915,2024,05,25,21,00,AAXX 25214 41915 01440 80502 10265 20250 39994 40019 70262 8662/ 333 59002 70210 82710 84615 88458==
41915,2024,05,26,00,00,AAXX 26004 41915 11450 70501 10269 20260 39980 40005 60106 70162 85420 333 59006 70210 84615==
41915,2024,05,26,03,00,AAXX 26034 41915 02456 60502 10310 20260 39987 40012 84470 333 20259 58006 70210 83616 84459==
41915,2024,05,26,06,00,AAXX 26064 41915 02456 60503 10336 20270 39971 49996 83470 333 59003 70210 82616 85362==
41915,2024,05,26,09,00,AAXX 26094 41915 02456 70000 10340 20270 39935 49959 85370 333 59006 70210 84616 85458 81928==
41915,2024,05,26,12,00,AAXX 26124 41915 01456 80000 10323 20280 39944 49968 71722 8632/ 333 10350 59020 70188 85616 88458 81928==
41915,2024,05,26,15,00,AAXX 26154 41915 01440 80502 10269 20260 39971 49995 76196 8632/ 333 59025 70178 82712 84615 88458 81928==
41915,2024,05,26,18,00,AAXX 26184 41915 21430 80000 10270 20260 39986 40011 76196 8672/ 333 59017 60079 70170 83710 85615 88458==
41915,2024,05,26,21,00,AAXX 26214 41915 01430 80503 10268 20260 39964 49989 76166 8672/ 333 59030 70098 82710 84615 88458==
41915,2024,05,27,00,00,AAXX 27004 41915 21450 80506 10265 20260 39944 49969 76166 8572/ 333 59036 60049 70114 82710 84615 88458==
41915,2024,05,27,06,00,AAXX 27064 41915 21450 80803 10266 20260 39945 49970 76166 8772/ 333 59026 60259 70366 84710 85616 88457==
41915,2024,05,27,09,00,AAXX 27094 41915 01450 80904 10263 20250 39921 49946 76366 8672/ 333 59014 70506 83710 84615 88458==
41915,2024,05,27,12,00,AAXX 27124 41915 21450 80906 10260 20250 39910 49935 76366 8772/ 333 10275 59034 60089 70584 84710 85615 88458==
41915,2024,05,27,15,00,AAXX 27154 41915 01330 80907 10255 20255 39915 49940 76366 8772/ 333 59056 71254 85708 86614 88456==
41915,2024,05,27,21,00,AAXX 27214 41915 01320 81318 10255 20250 39878 49903 76366 8772/ 333 59086 71696 85708 86613 88456==
41915,2024,05,28,00,00,AAXX 28004 41915 21320 81320 10256 20250 39872 49897 76366 8772/ 333 59067 60859 72170 85708 86613 88456==
41915,2024,05,28,03,00,AAXX 28034 41915 01330 81812 10255 20250 39910 49935 76566 8772/ 333 20252 59052 72492 85708 85613 88456==
41915,2024,05,28,06,00,AAXX 28064 41915 21340 81910 10262 20240 39936 49961 76166 8772/ 333 59009 60479 72388 85708 85614 88458==
41915,2024,05,28,12,00,AAXX 28124 41915 NIL=
41915,2024,05,28,15,00,AAXX 28154 41915 02440 81302 10280 20260 39975 40000 8562/ 333 58060 71496 83712 84615 88458==
41915,2024,05,28,18,00,AAXX 28184 41915 NIL=
41915,2024,05,28,21,00,AAXX 28214 41915 02440 81301 10286 20280 39967 49992 8532/ 333 58089 71076 85615 88458 81928==
41915,2024,05,29,00,00,AAXX 29004 41915 21450 71302 10285 20280 39981 40006 70162 85320 333 58009 60015 70538 85615 87458 81928==
41915,2024,05,29,03,00,AAXX 29034 41915 02456 61806 10316 20280 39984 40009 84410 333 20254 58074 70126 83615 84460==
41915,2024,05,29,06,00,AAXX 29064 41915 02456 71803 10336 20270 39981 40006 86410 333 58045 70068 85615 85460==
41915,2024,05,29,09,00,AAXX 29094 41915 02456 71802 10334 20260 39963 49987 84620 333 59017 70012 85615 87458==
41915,2024,05,29,12,00,AAXX 29124 41915 02450 81802 10320 20260 39966 49991 8652/ 333 10350 58014 70012 86615 88458==
41915,2024,05,29,15,00,AAXX 29154 41915 02450 71303 10300 20260 39992 40017 85320 333 58017 70012 84615 87458 81928==
41915,2024,05,29,18,00,AAXX 29184 41915 NIL=
41915,2024,05,29,21,00,AAXX 29214 41915 02450 71803 10294 20260 39987 40012 83520 333 58020 70012 83616 87458==
41915,2024,05,30,00,00,AAXX 30004 41915 02450 71803 10290 20270 30006 40031 82510 333 58025 70000 82616 87459==
41915,2024,05,30,03,00,AAXX 30034 41915 01456 70000 10277 20250 30031 40056 70296 84530 333 20240 58047 70337 84616 85362==
41915,2024,05,30,06,00,AAXX 30064 41915 12456 80000 10274 20220 30025 40051 60346 8662/ 333 58045 70337 83710 85616 88458==
41915,2024,05,30,09,00,AAXX 30094 41915 01456 81303 10252 20250 30003 40029 71796 8532/ 333 58040 70887 81712 84615 88458 81925==
41915,2024,05,30,12,00,AAXX 30124 41915 01440 80502 10242 20240 30001 40027 71796 8532/ 333 10310 58035 71221 82710 84615 88458 81925==
41915,2024,05,30,15,00,AAXX 30154 41915 01450 80000 10243 20230 30019 40045 70292 8552/ 333 58027 71221 85616 88458==
41915,2024,05,30,21,00,AAXX 30214 41915 02450 80000 10250 20230 30017 40043 8552/ 333 58030 71221 85616 88458==
41923,2024,05,24,00,00,AAXX 24004 41923 01/40 30000 10281 20250 30018 40028 70521 83030 333 59020 70008 83365==
41923,2024,05,24,03,00,AAXX 24034 41923 02956 00302 10343 20220 30025 40035 333 20280 59019 70008==
41923,2024,05,24,06,00,AAXX 24064 41923 02956 03602 10373 20240 30012 40021 333 59020 70008==
41923,2024,05,24,09,00,AAXX 24094 41923 02456 10000 10380 20200 39982 49991 81800 333 59014 70008 81616==
41923,2024,05,24,12,00,AAXX 24124 41923 42956 00000 10364 20220 39970 49979 333 10389 59025==
41923,2024,05,24,15,00,AAXX 24154 41923 02/50 10000 10328 20260 39998 40008 81030 333 59017 70000 81362==
41923,2024,05,24,18,00,AAXX 24184 41923 02450 30000 10331 20240 30006 40016 82530 333 59022 70000 82616==
41923,2024,05,24,21,00,AAXX 24214 41923 02950 00000 10317 20260 39999 40009 333 59024 70000==
41923,2024,05,25,00,00,AAXX 25004 41923 02950 00000 10300 20260 39992 40002 333 59026 70000==
41923,2024,05,25,03,00,AAXX 25034 41923 02956 00000 10342 20240 39994 40004 333 20299 59031 70000==
41923,2024,05,25,06,00,AAXX 25064 41923 02456 30803 10374 20250 39987 49996 83430 333 59025 70000 82616==
41923,2024,05,25,09,00,AAXX 25094 41923 02456 50602 10378 20250 39958 49967 82530 333 59024 70000 82615 85360==
41923,2024,05,25,12,00,AAXX 25124 41923 02450 50000 10350 20260 39961 49970 82530 333 10388 59009 70000 82615 85360==
41923,2024,05,25,15,00,AAXX 25154 41923 01350 60602 10300 20260 30001 40011 76122 85630 333 58003 70002 82709 83614 85360==
41923,2024,05,25,18,00,AAXX 25184 41923 21340 60000 10288 20260 30007 40017 76162 85630 333 58001 69947 70004 82709 83614 85360==
41923,2024,05,25,21,00,AAXX 25214 41923 01340 80000 10284 20260 39995 40005 70362 8532/ 333 59004 70004 82709 84615 88458 81930==
41923,2024,05,26,00,00,AAXX 26004 41923 21340 80603 10278 20260 39988 49998 76162 8532/ 333 59004 60019 70014 82709 84615 88458 81930==
41923,2024,05,26,03,00,AAXX 26034 41923 01340 80806 10300 20250 39996 40006 76122 8532/ 333 20272 58002 70014 82709 84615 88458 81930==
41923,2024,05,26,06,00,AAXX 26064 41923 21350 70306 10338 20250 39981 49991 70161 85670 333 59006 60008 70014 81709 84615 85458==
41923,2024,05,26,09,00,AAXX 26094 41923 02350 80604 10335 20260 39950 49960 8532/ 333 59008 70014 82709 84615 88458 81930==
41923,2024,05,26,12,00,AAXX 26124 41923 21345 80305 10314 20240 39950 49960 72162 8532/ 333 10348 59011 60017 70024 83709 84615 88458 81930==
41923,2024,05,26,15,00,AAXX 26154 41923 01340 70608 10291 20240 39960 49970 70162 84370 333 59041 70022 82709 83615 85458 81930==
41923,2024,05,26,18,00,AAXX 26184 41923 01340 80605 10276 20250 39957 49967 76062 8532/ 333 59050 70024 83708 84614 88458 81930==
41923,2024,05,26,21,00,AAXX 26214 41923 01340 80605 10275 20260 39921 49931 76166 8532/ 333 59074 70034 83709 84615 88458 81930==
41923,2024,05,27,00,00,AAXX 27004 41923 21330 80605 10264 20250 39913 49923 76166 8632/ 333 59075 60089 70092 84708 85614 88458 81930==
41923,2024,05,27,03,00,AAXX 27034 41923 01340 80613 10261 20260 39907 49917 76366 8632/ 333 20257 59089 70446 84708 85614 88458 81930==
41923,2024,05,27,06,00,AAXX 27064 41923 21330 80612 10265 20265 39889 49899 76566 8632/ 333 59092 60719 70802 84708 85614 88458 81930==
41923,2024,05,27,09,00,AAXX 27094 41923 01330 80614 10267 20260 39853 49863 76566 8632/ 333 59097 71254 86707 88458 81925==
41923,2024,05,27,12,00,AAXX 27124 41923 21330 80912 10265 20260 39813 49823 76566 8632/ 333 10271 59137 60729 71512 86707 88458 81925==
41923,2024,05,27,15,00,AAXX 27154 41923 01330 81808 10260 20250 39843 49853 76566 8632/ 333 59117 71726 86707 88458 81925==
41923,2024,05,27,18,00,AAXX 27184 41923 21330 82712 10255 20255 39855 49865 76566 8632/ 333 59102 60559 72060 86707 88458 81925==
41923,2024,05,27,21,00,AAXX 27214 41923 01330 82412 10252 20240 39893 49902 76566 8632/ 333 59028 72258 86707 88458 81925==
41923,2024,05,28,00,00,AAXX 28004 41923 21330 82412 10253 20240 39920 49930 76566 8632/ 333 58007 60269 72242 86707 88458 81925==
41923,2024,05,28,03,00,AAXX 28034 41923 01330 82404 10260 20250 39956 49966 76166 8632/ 333 20250 59049 71896 83708 84614 88458 81928==
41923,2024,05,28,06,00,AAXX 28064 41923 11445 72703 10312 20240 39970 49980 60016 70562 84530 333 59081 71542 84615 86365==
41923,2024,05,28,09,00,AAXX 28094 41923 02456 50000 10343 20230 39960 49970 81531 333 58107 71090 81616 83360==
41923,2024,05,28,12,00,AAXX 28124 41923 02356 71802 10322 20260 39957 49967 84370 333 10344 58144 70822 82709 83615 85458 81930==
41923,2024,05,28,15,00,AAXX 28154 41923 02350 60000 10298 20280 39976 49986 84630 333 58133 70608 82709 83615 85360==
41923,2024,05,28,18,00,AAXX 28184 41923 02350 61803 10300 20280 39977 49987 85630 333 58122 70270 83709 84615==
41923,2024,05,28,21,00,AAXX 28214 41923 02345 60000 10296 20280 39973 49983 85630 333 58088 70062 83709 84615==
41923,2024,05,29,00,00,AAXX 29004 41923 02340 71802 10296 20280 39985 49995 86370 333 58065 70010 83709 84615 85458 81930==
41923,2024,05,29,03,00,AAXX 29034 41923 02356 71806 10325 20280 39996 40006 85670 333 20258 58040 70002 82709 84615 85458==
41923,2024,05,29,06,00,AAXX 29064 41923 02356 71807 10338 20270 39987 49997 85670 333 58017 70000 83709 84615 85458==
41923,2024,05,29,09,00,AAXX 29094 41923 02356 71803 10339 20270 39969 49979 85370 333 58009 70000 82709 84615 85459 81930==
41923,2024,05,29,12,00,AAXX 29124 41923 02350 62202 10322 20270 39974 49984 84670 333 10341 58017 70000 82709 83615 85459==
41923,2024,05,29,15,00,AAXX 29154 41923 02350 40000 10310 20280 39993 40003 83630 333 58017 70000 81709 83615==
41923,2024,05,29,18,00,AAXX 29184 41923 02450 32403 10303 20270 39993 40003 82530 333 58016 70000 82615==
41923,2024,05,29,21,00,AAXX 29214 41923 01340 61902 10301 20280 39994 40004 70520 84630 333 58021 70000 82709 83615 85362==
41923,2024,05,30,00,00,AAXX 30004 41923 01340 81903 10302 20270 30017 40027 70522 8632/ 333 58032 70000 83708 84615 88458 81928==
41923,2024,05,30,03,00,AAXX 30034 41923 02350 42404 10324 20270 30025 40035 83630 333 20298 58029 70000 81709 83615==
41923,2024,05,30,06,00,AAXX 30064 41923 02356 81905 10338 20260 30015 40025 8632/ 333 58028 70000 82708 84614 88458 81928==
41923,2024,05,30,09,00,AAXX 30094 41923 02356 61803 10344 20250 39998 40008 85630 333 58029 70000 82709 83615==
41923,2024,05,30,12,00,AAXX 30124 41923 02350 81802 10330 20270 30002 40012 8632/ 333 10348 58028 70000 82708 84615 88458 81930==
41923,2024,05,30,15,00,AAXX 30154 41923 02450 50000 10312 20270 30016 40026 82530 333 58023 70000 82615 85360==
41923,2024,05,30,18,00,AAXX 30184 41923 02350 70000 10304 20270 30027 40037 85670 333 58034 70000 82709 84615 85458==
41923,2024,05,30,21,00,AAXX 30214 41923 02340 70000 10300 20270 30021 40031 85670 333 58027 70000 82709 84615 85458==
41926,2024,05,24,00,00,AAXX 24004 41926 02450 30000 10270 20250 30009 40023 83500 333 59024 70000 83618==
41926,2024,05,24,03,00,AAXX 24034 41926 02956 00000 10345 20250 30016 40029 333 20266 59023 70000==
41926,2024,05,24,06,00,AAXX 24064 41926 02456 40000 10380 20230 30005 40018 84400 333 59021 70000 83618==
41926,2024,05,24,09,00,AAXX 24094 41926 02456 51802 10395 20240 39979 49992 85400 333 59014 70000 83618 83820==
41926,2024,05,24,12,00,AAXX 24124 41926 02456 20000 10358 20250 39967 49980 82500 333 10400 59020 70000 82618==
41926,2024,05,24,15,00,AAXX 24154 41926 02950 00000 10310 20260 39991 40004 333 59021 70000==
41926,2024,05,24,18,00,AAXX 24184 41926 02950 00000 10300 20270 30000 40013 333 59018 70000==
41926,2024,05,24,21,00,AAXX 24214 41926 02450 60000 10295 20270 39989 40002 83510 333 59013 70000 83618 85459==
41926,2024,05,25,00,00,AAXX 25004 41926 02450 70000 10288 20270 39982 49995 84510 333 59027 70000 84616 86459==
41926,2024,05,25,03,00,AAXX 25034 41926 02956 00000 10346 20260 39986 49999 333 20286 59030 70000==
41926,2024,05,25,06,00,AAXX 25064 41926 02456 40000 10400 20230 39974 49987 84400 333 59031 70000 82618 83820==
41926,2024,05,25,09,00,AAXX 25094 41926 02456 50000 10402 20240 39947 49962 85400 333 59032 70000 82618 83828==
41926,2024,05,25,12,00,AAXX 25124 41926 02450 50000 10248 20250 39951 49964 82510 333 10417 59016 70000 82618 83459==
41926,2024,05,25,15,00,AAXX 25154 41926 02450 80000 10308 20270 39980 49993 8352/ 333 59011 70000 83618 88458==
41926,2024,05,25,18,00,AAXX 25184 41926 02450 20000 10308 20260 39987 40000 82500 333 59013 70000 82618==
41926,2024,05,25,21,00,AAXX 25214 41926 02450 50000 10293 20240 39968 49981 83510 333 59021 70000 83618 83459==
41926,2024,05,26,00,00,AAXX 26004 41926 02450 50000 10283 20250 39972 49985 83510 333 59010 70000 83618 83459==
41926,2024,05,26,03,00,AAXX 26034 41926 02450 70000 10310 20250 39975 49988 83510 333 10283 59011 70000 83618 85459==
41926,2024,05,26,06,00,AAXX 26064 41926 02450 51305 10350 20240 39963 49976 83510 333 59011 70000 83618 84459==
41926,2024,05,26,09,00,AAXX 26094 41926 02450 81304 10340 20230 39931 49940 8452/ 333 59016 70000 84618 88459==
41926,2024,05,26,12,00,AAXX 26124 41926 01450 80000 10282 20260 39928 49941 70262 8452/ 333 10353 59023 70020 84617 88458==
41926,2024,05,26,15,00,AAXX 26154 41926 02450 80000 10286 20250 39929 49942 8352/ 333 59051 70022 83617 88458==
41926,2024,05,26,18,00,AAXX 26184 41926 02450 80903 10280 20240 39919 49932 8352/ 333 59068 70022 83617 88458==
41926,2024,05,26,21,00,AAXX 26214 41926 02450 80905 10275 20240 39892 49892 8352/ 333 59089 70022 83617 88458==
41926,2024,05,27,00,00,AAXX 27004 41926 21350 80908 10262 20250 39856 49869 76362 8472/ 333 59116 60167 70180 82709 83616 88458==
41926,2024,05,27,03,00,AAXX 27034 41926 01356 80511 10260 20250 39840 49853 76366 8572/ 333 20260 59135 70339 83708 84615 88458==
41926,2024,05,27,06,00,AAXX 27064 41926 21350 80514 10260 20250 39827 49840 76366 8572/ 333 59136 60369 70535 83708 84615 88458==
41926,2024,05,27,09,00,AAXX 27094 41926 01350 80508 10260 20250 39816 49829 76366 8572/ 333 59115 70723 83708 84615 88458==
41926,2024,05,27,12,00,AAXX 27124 41926 21350 80507 10254 20240 39836 49849 76166 8572/ 333 10265 59092 60249 70751 83708 84618 88458==
41926,2024,05,27,15,00,AAXX 27154 41926 01350 80608 10254 20240 39884 49897 76166 8572/ 333 59045 70783 83708 84616 88458==
41926,2024,05,27,18,00,AAXX 27184 41926 21350 82603 10252 20240 39914 49928 76166 8572/ 333 59005 60079 70821 83708 84616 88458==
41926,2024,05,27,21,00,AAXX 27214 41926 02450 82602 10255 20240 39922 49936 8472/ 333 58043 70821 82708 83618 88458==
41926,2024,05,28,00,00,AAXX 28004 41926 02450 82602 10260 20240 39949 49963 8252/ 333 58093 70633 82618 88459==
41926,2024,05,28,03,00,AAXX 28034 41926 02450 60000 10288 20250 39961 49974 83530 333 20250 58121 70504 83618 86362==
41926,2024,05,28,06,00,AAXX 28064 41926 02456 51802 10332 20250 39964 49977 81502 333 58137 70308 81818 85080==
41926,2024,05,28,09,00,AAXX 28094 41926 02456 51802 10340 20260 39943 49956 82502 333 58127 70120 82618 84080==
41926,2024,05,28,12,00,AAXX 28124 41926 02456 60000 10313 20270 39940 49956 82510 333 10353 58104 70070 83618 86459==
41926,2024,05,28,15,00,AAXX 28154 41926 02450 71802 10308 20280 39956 49969 83510 333 58072 70038 83618 87459==
41926,2024,05,28,18,00,AAXX 28184 41926 NIL=
41926,2024,05,29,00,00,AAXX 29004 41926 NIL=
41926,2024,05,29,03,00,AAXX 29034 41926 02456 72302 10317 20280 39971 49984 84510 333 20285 58010 70000 84617 87459==
41926,2024,05,29,06,00,AAXX 29064 41926 02456 72103 10342 20290 39968 49981 84510 333 58004 70000 84617 87458==
41926,2024,05,29,09,00,AAXX 29094 41926 02456 72101 10343 20290 39952 49965 84510 333 58009 70000 84617 87459==
41926,2024,05,29,12,00,AAXX 29124 41926 02456 72102 10322 20280 39952 49965 83510 333 10355 58012 70000 83617 87459==
41926,2024,05,29,18,00,AAXX 29184 41926 02450 61804 10302 20280 39973 49986 82510 333 58018 70000 82618 86459==
41926,2024,05,29,21,00,AAXX 29214 41926 01450 71802 10302 20280 39978 49991 70522 82510 333 58024 70000 82618 87459==
41926,2024,05,30,00,00,AAXX 30004 41926 01450 71802 10300 20280 39989 40002 70522 83510 333 58052 70000 83617 87459==
41926,2024,05,30,03,00,AAXX 30034 41926 02450 71803 10317 20280 30007 40020 84510 333 20300 58036 70000 84616 87459==
41926,2024,05,30,06,00,AAXX 30064 41926 02456 61805 10345 20280 39994 40007 84510 333 58026 70000 84616 86459==
41926,2024,05,30,09,00,AAXX 30094 41926 02456 40000 10350 20280 39979 49992 84500 333 58027 70000 84618==
41926,2024,05,30,12,00,AAXX 30124 41926 02450 71802 10325 20290 39982 49995 84510 333 10355 58030 70000 84618 86459==
41926,2024,05,30,15,00,AAXX 30154 41926 02450 51803 10310 20270 39998 40011 83510 333 58021 70000 83618 84459==
41926,2024,05,30,18,00,AAXX 30184 41926 01450 50000 10265 20240 39999 40013 72122 84310 333 58026 70000 83618 84459 81930==
41926,2024,05,30,21,00,AAXX 30214 41926 42450 50000 10260 20240 30004 40018 84510 333 58026 84618 85459==
41927,2024,05,24,00,00,AAXX 24004 41927 32956 02201 10270 20260 30006 40021 333 59024 70000=
41927,2024,05,24,03,00,AAXX 24034 41927 32958 01801 10364 20210 30008 40022 333 59020 70000=
41927,2024,05,24,12,00,AAXX 24124 41927 32957 01801 10348 20270 39968 49982 333 10386 59014 70000=
41927,2024,05,24,18,00,AAXX 24184 41927 NIL=
41927,2024,05,25,00,00,AAXX 25004 41927 32956 00000 10284 20260 39980 49995 333 59016 70000=
41927,2024,05,25,06,00,AAXX 25064 41927 32958 02003 10376 20250 39974 49988 333 59034 70000=
41927,2024,05,25,12,00,AAXX 25124 41927 NIL=
41927,2024,05,25,18,00,AAXX 25184 41927 NIL=
41927,2024,05,26,00,00,AAXX 26004 41927 32456 60502 10275 20260 39974 49989 83510 333 56190 59006 70000 83617 85459=
41927,2024,05,26,06,00,AAXX 26064 41927 32456 60906 10337 20250 39970 49984 83510 333 56290 59004 70000 83617 85459=
41927,2024,05,26,12,00,AAXX 26124 41927 11456 80701 10277 20260 39933 40048 60034 72122 8452/ 333 10340 56299 59011 70032 84617 88458=
41927,2024,05,26,18,00,AAXX 26184 41927 32356 81105 10276 20260 39932 49947 8462/ 333 56399 59060 70032 82708 83617 88458=
41927,2024,05,27,00,00,AAXX 27004 41927 11350 80513 10260 20260 39890 49905 60137 76162 8572/ 333 56299 59084 70158 82707 83616 88458=
41927,2024,05,27,06,00,AAXX 27064 41927 11350 80804 10260 20250 39868 49883 60249 76166 8672/ 333 56299 59102 70397 82707 84614 88457=
41927,2024,05,27,12,00,AAXX 27124 41927 NIL=
41927,2024,05,28,06,00,AAXX 28064 41927 NIL=
41927,2024,05,28,12,00,AAXX 28124 41927 NIL=
41927,2024,05,28,18,00,AAXX 28184 41927 NIL=
41927,2024,05,29,00,00,AAXX 29004 41927 32456 41801 10287 20280 39956 49970 82510 333 56490 58020 70000 82618 84459=
41927,2024,05,29,06,00,AAXX 29064 41927 32457 61804 10340 20270 39970 49984 83510 333 56490 58004 70000 83617 85459=
41927,2024,05,29,12,00,AAXX 29124 41927 32457 41802 10326 20280 39950 49964 82510 333 10345 56490 58018 70000 82618 84459=
41927,2024,05,29,18,00,AAXX 29184 41927 32456 81603 10300 20280 39978 49993 8352/ 333 56499 58014 70000 83617 88459=
41927,2024,05,30,00,00,AAXX 30004 41927 32450 81403 10285 20280 39994 40009 8432/ 333 56399 58038 70000 83617 81930 88459=
41927,2024,05,30,06,00,AAXX 30064 41927 32457 61403 10336 20270 39996 40110 83510 333 56390 58026 70000 83617 85459=
41927,2024,05,30,12,00,AAXX 30124 41927 32457 41801 10326 20250 39982 49997 82510 333 10346 56490 58032 70000 82618 84459=
41927,2024,05,30,18,00,AAXX 30184 41927 32450 81603 10300 20290 30007 40022 8432/ 333 56499 58029 70000 83616 81930 88450=
41929,2024,05,24,00,00,AAXX 24004 41929 NIL=
41929,2024,05,24,03,00,AAXX 24034 41929 02958 00000 10348 20260 30022 40031 333 20274 59022 70000==
41929,2024,05,24,06,00,AAXX 24064 41929 02458 21802 10366 20240 30010 40019 82400 333 59022 70000 81618==
41929,2024,05,24,09,00,AAXX 24094 41929 02958 00000 10380 20250 39981 49991 333 59016 70000==
41929,2024,05,24,12,00,AAXX 24124 41929 02958 00000 10360 20260 39971 49981 333 10384 59023 70000==
41929,2024,05,24,15,00,AAXX 24154 41929 02958 00000 10314 20270 39996 40006 333 59021 70000==
41929,2024,05,24,18,00,AAXX 24184 41929 02457 30000 10304 20270 30007 40017 83500 333 59021 70000 83618==
41929,2024,05,24,21,00,AAXX 24214 41929 02957 00000 10290 20280 39995 40005 333 59019 70000==
41929,2024,05,25,00,00,AAXX 25004 41929 02957 00000 10290 20280 39990 40000 333 59025 70000==
41929,2024,05,25,03,00,AAXX 25034 41929 02957 00000 10345 20250 39995 40004 333 20283 59027 70000==
41929,2024,05,25,06,00,AAXX 25064 41929 02458 41404 10375 20260 39986 49995 84400 333 59024 70000 81618 83825==
41929,2024,05,25,09,00,AAXX 25094 41929 02458 31803 10380 20250 39957 49967 83400 333 59024 70000 82618==
41929,2024,05,25,12,00,AAXX 25124 41929 02457 31803 10346 20270 39957 49967 83400 333 10382 59014 70000 82618==
41929,2024,05,25,15,00,AAXX 25154 41929 02457 41706 10310 20250 39998 40008 83430 333 58002 70000 82618==
41929,2024,05,25,18,00,AAXX 25184 41929 NIL=
41929,2024,05,25,21,00,AAXX 25214 41929 02457 71302 10290 20250 39982 49992 83510 333 59013 70000 83618 87462==
41929,2024,05,26,00,00,AAXX 26004 41929 02457 81003 10280 20250 39982 49992 8352/ 333 59008 70000 83618 88462==
41929,2024,05,26,03,00,AAXX 26034 41929 02457 81404 10304 20250 39984 49993 83510 333 20274 59011 70000 83618 88462==
41929,2024,05,26,06,00,AAXX 26064 41929 02457 81408 10345 20240 39972 49981 83510 333 59014 70000 83618 88462==
41929,2024,05,26,09,00,AAXX 26094 41929 02457 81006 10334 20250 39941 49951 8351/ 333 59016 70000 83616 88462==
41929,2024,05,26,12,00,AAXX 26124 41929 02457 81108 10310 20250 39939 49949 8351/ 333 10346 59018 70000 83618 88462==
41929,2024,05,26,15,00,AAXX 26154 41929 02456 80912 10284 20250 39945 49955 8451/ 333 59053 70000 84618 88462==
41929,2024,05,26,18,00,AAXX 26184 41929 01350 80915 10274 20250 39939 49949 76122 8572/ 333 59061 70000 83708 83618 88462==
41929,2024,05,27,06,00,AAXX 27064 41929 NIL=
41929,2024,05,27,09,00,AAXX 27094 41929 01350 80908 10270 20260 39802 49812 76166 8672/ 333 59139 70655 83707 83615 88458==
41929,2024,05,27,12,00,AAXX 27124 41929 21450 81902 10270 20260 39799 49899 76166 8452/ 333 10275 59140 60199 70675 84615 88460==
41929,2024,05,27,15,00,AAXX 27154 41929 01350 82410 10260 20250 39844 49854 76166 8672/ 333 59101 70679 83707 83615 88458==
41929,2024,05,27,21,00,AAXX 27214 41929 01350 82017 10254 20240 39905 49915 76366 8672/ 333 59010 70779 83707 83615 88458==
41929,2024,05,28,00,00,AAXX 28004 41929 21350 82310 10255 20250 39939 49949 76166 8672/ 333 59047 60109 70555 83707 83615 88458==
41929,2024,05,28,03,00,AAXX 28034 41929 01360 81402 10284 20230 39967 49976 70262 8671/ 333 20250 58102 70451 83707 83615 88458==
41929,2024,05,28,06,00,AAXX 28064 41929 11457 62302 10328 20250 39971 49980 69966 70162 83530 333 58128 70366 83618 86365==
41929,2024,05,28,09,00,AAXX 28094 41929 02458 50000 10345 20260 39958 49968 83530 333 58156 70196 83618 85365==
41929,2024,05,28,12,00,AAXX 28124 41929 02458 62002 10310 20270 39954 49964 83510 333 10345 58155 70176 83618 86458==
41929,2024,05,28,15,00,AAXX 28154 41929 02/57 31802 10294 20280 39969 49979 83030 333 58125 70172 83365==
41929,2024,05,28,18,00,AAXX 28184 41929 02/57 32003 10294 20280 39966 49976 83030 333 58087 70102 83365==
41929,2024,05,28,21,00,AAXX 28214 41929 02457 42004 10298 20270 39958 49968 84500 333 58063 70042 84618==
41929,2024,05,29,00,00,AAXX 29004 41929 02457 62003 10300 20280 36677 49987 86500 333 58038 70006 86617==
41929,2024,05,29,03,00,AAXX 29034 41929 02457 62304 10318 20280 39990 49999 83530 333 20278 58023 70000 83618 83365==
41929,2024,05,29,06,00,AAXX 29064 41929 02458 61805 10342 20280 39983 49992 83530 333 58012 70000 83618 83365==
41929,2024,05,29,09,00,AAXX 29094 41929 02950 82004 10340 20290 39964 49974 8451/ 333 58006 70000 84618 88462==
41929,2024,05,29,12,00,AAXX 29124 41929 02458 61802 10322 20280 39966 49976 83510 333 10345 58012 70000 83618 85462==
41929,2024,05,29,15,00,AAXX 29154 41929 02458 61802 10310 20280 39992 40002 83510 333 58023 70000 83618 85462==
41929,2024,05,29,18,00,AAXX 29184 41929 02457 61802 10304 20280 39993 40003 83510 333 58027 70000 83618 85462==
41929,2024,05,29,21,00,AAXX 29214 41929 02457 82003 10300 20280 39990 40000 8651/ 333 58032 70000 86618 88462==
41929,2024,05,30,00,00,AAXX 30004 41929 02457 82003 10300 20280 30015 40025 8651/ 333 58032 70000 86618 88462==
41929,2024,05,30,03,00,AAXX 30034 41929 02457 71804 10326 20280 30020 40029 83510 333 20295 58030 70000 83618 87462==
41929,2024,05,30,06,00,AAXX 30064 41929 02457 71804 10346 20280 30012 40021 83510 333 58029 70000 83618 87462==
41929,2024,05,30,09,00,AAXX 30094 41929 02457 51804 10305 20290 39991 40001 83510 333 58027 70000 83618 84462==
41929,2024,05,30,12,00,AAXX 30124 41929 02457 51803 10320 20270 39997 40007 83510 333 10354 58031 70000 83618 84462==
41929,2024,05,30,15,00,AAXX 30154 41929 02457 51702 10304 20270 30015 40025 83510 333 58023 70000 83618 84462==
41929,2024,05,30,18,00,AAXX 30184 41929 02457 51602 10300 20270 30015 40025 83510 333 58022 70000 83618 84462==
41929,2024,05,30,21,00,AAXX 30214 41929 02457 61703 10294 20260 30020 40030 83530 333 58030 70000 83618 84365==
41933,2024,05,24,00,00,AAXX 24004 41933 01/40 10000 10260 20240 30020 40028 70590 81030 333 59026 70000 81362==
41933,2024,05,24,03,00,AAXX 24034 41933 02950 01802 10325 20250 30025 40033 333 20255 59011 70000==
41933,2024,05,24,06,00,AAXX 24064 41933 02956 01802 10355 20260 30008 40016 333 59015 70000==
41933,2024,05,24,09,00,AAXX 24094 41933 02457 40000 10371 20260 39977 49985 84400 333 59018 70000 82618 83826==
41933,2024,05,24,12,00,AAXX 24124 41933 02957 00000 10356 20250 39969 49977 333 10382 59016 70000==
41933,2024,05,24,15,00,AAXX 24154 41933 02456 40000 10320 20270 39995 40003 84400 333 59023 70000 83618==
41933,2024,05,24,18,00,AAXX 24184 41933 02456 40000 10270 20240 30003 40011 84400 333 59037 70000 83618==
41933,2024,05,24,21,00,AAXX 24214 41933 02450 40000 10260 20240 39999 40008 84400 333 59020 70000 83618==
41933,2024,05,25,00,00,AAXX 25004 41933 02450 40000 10265 20250 39994 40003 84400 333 59026 70000 83618==
41933,2024,05,25,03,00,AAXX 25034 41933 02/56 10000 10325 20240 39995 40004 81040 333 20261 59030 70000 81362==
41933,2024,05,25,06,00,AAXX 25064 41933 02456 52302 10360 20270 39985 49993 85800 333 59031 70000 82618 83827==
41933,2024,05,25,09,00,AAXX 25094 41933 02457 52303 10365 20250 39968 49976 85800 333 59009 70000 82618 83827==
41933,2024,05,25,12,00,AAXX 25124 41933 02356 71804 10345 20250 39971 49979 86620 333 10377 58002 70000 82708 84618 87458==
41933,2024,05,25,15,00,AAXX 25154 41933 01460 61702 10290 20250 39998 40006 70162 83510 333 58003 70010 83618 86459==
41933,2024,05,25,18,00,AAXX 25184 41933 NIL=
41933,2024,05,25,21,00,AAXX 25214 41933 02450 70904 10280 20260 39978 49987 83510 333 59021 70010 83618 87458==
41933,2024,05,26,00,00,AAXX 26004 41933 02456 71202 10276 20260 39984 49993 83510 333 59010 70010 83618 87458==
41933,2024,05,26,03,00,AAXX 26034 41933 01456 81202 10295 20260 39990 49999 70362 8452/ 333 20275 59005 70010 84618 88458==
41933,2024,05,26,06,00,AAXX 26064 41933 11456 61202 10332 20260 39979 49988 60006 70262 83510 333 59006 70010 83618 86458==
41933,2024,05,26,09,00,AAXX 26094 41933 01456 70903 10335 20260 39954 49962 72122 86470 333 59014 70010 83618 83827 85458==
41933,2024,05,26,12,00,AAXX 26124 41933 01350 81606 10280 20250 39962 49971 76162 8632/ 333 10346 59009 70015 83707 83615 88456==
41933,2024,05,26,15,00,AAXX 26154 41933 01340 81603 10272 20250 39972 49981 76162 8662/ 333 59026 70005 83707 83615 88456==
41933,2024,05,26,18,00,AAXX 26184 41933 21340 81604 10272 20240 39971 49979 76166 8662/ 333 59032 60009 70005 83707 83615 88456==
41933,2024,05,26,21,00,AAXX 26214 41933 02340 81604 10272 20240 39956 49965 8662/ 333 59022 70005 83707 83615 88456==
41933,2024,05,27,00,00,AAXX 27004 41933 02340 81605 10272 20240 39937 49946 8662/ 333 59047 70005 83707 83615 88456==
41933,2024,05,27,03,00,AAXX 27034 41933 01350 81204 10264 20250 39936 49944 76162 8672/ 333 20259 59054 70179 82710 84615 88456==
41933,2024,05,27,06,00,AAXX 27064 41933 21350 81515 10270 20250 39928 49936 76162 8672/ 333 59051 60349 70347 83710 84615 88456==
41933,2024,05,27,09,00,AAXX 27094 41933 01350 81808 10275 20260 39896 49904 76162 8672/ 333 59058 70507 83707 83615 88456==
41933,2024,05,27,12,00,AAXX 27124 41933 21350 81810 10275 20260 39886 49894 76162 8672/ 333 10282 59076 60239 70572 83707 83615 88456==
41933,2024,05,27,15,00,AAXX 27154 41933 01350 81812 10275 20260 39896 49904 76166 8672/ 333 59076 70633 84707 83615 88456==
41933,2024,05,27,18,00,AAXX 27184 41933 21350 81915 10268 20250 39909 49917 76166 8672/ 333 59062 60299 70861 84707 83615 88456==
41933,2024,05,27,21,00,AAXX 27214 41933 01350 81815 10266 20250 39908 49916 76166 8672/ 333 59048 70893 84707 83615 88456==
41933,2024,05,28,00,00,AAXX 28004 41933 21340 82415 10260 20250 39927 49930 76366 8672/ 333 59010 60369 71219 84709 83615 88456==
41933,2024,05,28,03,00,AAXX 28034 41933 01350 82415 10265 20250 39962 49970 76166 8577/ 333 20255 58026 71115 82708 83316 86456==
41933,2024,05,28,06,00,AAXX 28064 41933 NIL=
41933,2024,05,28,09,00,AAXX 28094 41933 02456 72102 10325 20260 39964 49972 84510 333 58068 70787 84618 87458==
41933,2024,05,28,12,00,AAXX 28124 41933 02456 72102 10290 20260 39966 49974 84510 333 10332 58080 70717 84618 87458==
41933,2024,05,28,15,00,AAXX 28154 41933 02456 70000 10280 20260 39988 49997 83520 333 58092 70656 83618 87458==
41933,2024,05,28,18,00,AAXX 28184 41933 02456 70000 10290 20280 39987 49996 83520 333 58078 70427 83618 87458==
41933,2024,05,28,21,00,AAXX 28214 41933 02456 72002 10290 20280 39989 49997 83520 333 58081 70396 83618 87458==
41933,2024,05,29,00,00,AAXX 29004 41933 02450 70000 10295 20280 39991 49999 83520 333 58064 70070 83618 87458==
41933,2024,05,29,03,00,AAXX 29034 41933 02456 72005 10313 20280 30011 40019 85820 333 20265 58049 70000 84613 86458==
41933,2024,05,29,06,00,AAXX 29064 41933 02456 72212 10328 20270 30002 40010 86820 333 58028 70000 83617 83827 86458==
41933,2024,05,29,09,00,AAXX 29094 41933 02456 72213 10326 20280 39974 49984 86820 333 58012 70000 83617 83827 86458==
41933,2024,05,29,12,00,AAXX 29124 41933 02450 72210 10315 20280 39973 49981 86820 333 10336 58007 70000 83617 83827 86458==
41933,2024,05,29,15,00,AAXX 29154 41933 02450 71805 10304 20270 39995 40004 84510 333 58007 70000 84618 87458==
41933,2024,05,29,18,00,AAXX 29184 41933 02450 61806 10299 20270 30000 40008 83510 333 58013 70000 83618 86459==
41933,2024,05,29,21,00,AAXX 29214 41933 02450 71802 10291 20270 39999 40007 84520 333 58010 70000 84618 87458==
41933,2024,05,30,00,00,AAXX 30004 41933 02450 81802 10291 20270 30015 40024 8452/ 333 58024 70000 84618 88458==
41933,2024,05,30,03,00,AAXX 30034 41933 02450 81802 10310 20270 30039 40048 8452/ 333 20290 58028 70000 84618 88458==
41933,2024,05,30,06,00,AAXX 30064 41933 02450 61804 10333 20260 30026 40034 83510 333 58024 70000 83618 86458==
41933,2024,05,30,09,00,AAXX 30094 41933 02456 82205 10326 20270 30013 40021 8682/ 333 58037 70000 83618 83827 88458==
41933,2024,05,30,12,00,AAXX 30124 41933 02456 81802 10320 20270 30016 40024 8582/ 333 10340 58043 70000 84618 88458==
41933,2024,05,30,15,00,AAXX 30154 41933 02450 81803 10300 20270 30027 40035 8582/ 333 58032 70000 84618 88458==
41933,2024,05,30,18,00,AAXX 30184 41933 02440 61802 10296 20280 30031 40039 84510 333 58031 70000 84618 86458==
41933,2024,05,30,21,00,AAXX 30214 41933 02440 61802 10290 20260 30027 40035 84520 333 58028 70000 84618 86458==
41936,2024,05,24,00,00,AAXX 24004 41936 01/10 23603 10270 20260 30014 40021 70511 82030 333 59030 70000 82362==
41936,2024,05,24,03,00,AAXX 24034 41936 01/50 11403 10336 20270 30020 40027 70511 81030 333 20268 59017 70000 81362==
41936,2024,05,24,06,00,AAXX 24064 41936 01/50 20303 10370 20240 30010 40017 70511 82030 333 59020 70000 82362==
41936,2024,05,24,09,00,AAXX 24094 41936 01950 32003 10382 20230 30983 40999 70511 81830 333 59020 70000 81615 84362==
41936,2024,05,24,12,00,AAXX 24124 41936 333 10384 59025 70000 82362==
41936,2024,05,24,15,00,AAXX 24154 41936 01/50 21803 10332 20250 39991 49998 70511 82030 333 59022 70000 82362==
41936,2024,05,24,18,00,AAXX 24184 41936 01/50 22103 10300 20250 30010 40017 70511 82030 333 59012 70000 82362==
41936,2024,05,24,21,00,AAXX 24214 41936 01/50 21803 10280 20260 30006 40013 70511 82030 333 59006 70000 82362==
41936,2024,05,25,00,00,AAXX 25004 41936 01/18 23403 10272 20260 39990 49997 70511 82030 333 59024 70000 82362==
41936,2024,05,25,03,00,AAXX 25034 41936 01/35 22103 10346 20260 39989 49995 70511 82030 333 20270 59032 70000 82362==
41936,2024,05,25,06,00,AAXX 25064 41936 01/50 21205 10386 20250 39981 49988 70511 82030 333 59029 70000 82362==
41936,2024,05,25,09,00,AAXX 25094 41936 01440 40904 10364 20260 39958 49965 70522 83830 333 59025 70000 83615 83362==
41936,2024,05,25,12,00,AAXX 25124 41936 01440 41708 10350 20260 39953 49960 70522 83830 333 10396 59021 70000 83615 83362==
41936,2024,05,25,15,00,AAXX 25154 41936 01440 41607 10322 20250 39983 49990 70522 83830 333 59008 70000 83615 83362==
41936,2024,05,25,18,00,AAXX 25184 41936 01440 41403 10286 20260 39987 49994 70522 83830 333 59023 70000 83615 83362==
41936,2024,05,25,21,00,AAXX 25214 41936 01430 41204 10280 20260 39980 49987 72122 83830 333 59026 70000 83615 83362==
41936,2024,05,26,00,00,AAXX 26004 41936 01425 40906 10276 20260 39971 49978 70562 83830 333 59019 70000 83615 83362==
41936,2024,05,26,03,00,AAXX 26034 41936 41440 70714 10302 20250 39970 49977 70522 83830 333 20274 59018 83615 85362==
41936,2024,05,26,06,00,AAXX 26064 41936 41440 70916 10326 20260 39962 49963 70522 83830 333 59019 83615 85362==
41936,2024,05,26,09,00,AAXX 26094 41936 01440 71215 10328 20240 39938 49945 70562 85630 333 59020 70010 83710 83615 86362==
41936,2024,05,26,12,00,AAXX 26124 41936 01330 80917 10280 20260 39922 49929 76162 85720 333 10340 59031 70030 83708 83615 87260==
41936,2024,05,26,15,00,AAXX 26154 41936 01330 80914 10280 20260 39921 49928 70561 85630 333 59062 70030 83608 83515 87362==
41936,2024,05,26,18,00,AAXX 26184 41936 01318 80920 10278 20260 39902 49909 76162 86720 333 59085 70040 85708 83615 87260==
41936,2024,05,27,00,00,AAXX 27004 41936 21307 80820 10260 20250 39821 49828 76162 86720 333 59149 60499 70536 85707 83615 88460==
41936,2024,05,27,03,00,AAXX 27034 41936 01207 80920 10260 20250 39796 49800 76362 86720 333 20256 59174 70690 85704 84612 88259==
41936,2024,05,27,06,00,AAXX 27064 41936 21207 80913 10262 20250 39787 49801 76362 86720 333 59168 60239 70760 85704 84615 88259==
41936,2024,05,27,09,00,AAXX 27094 41936 01207 80911 10264 20260 39783 49790 76162 86720 333 59155 70760 85704 84612 88259==
41936,2024,05,27,12,00,AAXX 27124 41936 21207 82412 10262 20250 39819 49826 76362 86720 333 10268 59103 60099 70830 85704 84612 88259==
41936,2024,05,27,15,00,AAXX 27154 41936 21207 82918 10260 20250 39893 49990 76362 86720 333 59028 60069 70900 85704 84612 88259==
41936,2024,05,27,18,00,AAXX 27184 41936 21207 82516 10258 20250 39926 49933 76362 86720 333 58024 60169 70920 85704 84612 88259==
41936,2024,05,27,21,00,AAXX 27214 41936 01210 82612 10256 20250 39922 49929 76162 86720 333 58092 70870 85706 84612 88260==
41936,2024,05,28,00,00,AAXX 28004 41936 01414 72708 10264 20240 39954 49961 70562 85630 333 58013 70540 83710 83615 86362==
41936,2024,05,28,03,00,AAXX 28034 41936 01440 72403 10294 20250 39970 49977 70522 83530 333 20254 58174 70380 83615 86362==
41936,2024,05,28,06,00,AAXX 28064 41936 01450 62603 10340 20260 39969 49969 70522 82530 333 58168 70300 82615 84362==
41936,2024,05,28,09,00,AAXX 28094 41936 01430 72103 10336 20280 39953 49960 70522 85630 333 58017 70320 82710 83615 86362==
41936,2024,05,28,12,00,AAXX 28124 41936 01425 51804 10322 20280 39947 49954 70522 82530 333 10348 58128 70210 82615 85362==
41936,2024,05,28,15,00,AAXX 28154 41936 01415 61806 10302 20270 39963 49970 70522 82530 333 58070 70110 82615 85362==
41936,2024,05,28,18,00,AAXX 28184 41936 01415 61910 10272 20250 39963 49970 70522 82530 333 58037 70050 82615 85362==
41936,2024,05,28,21,00,AAXX 28214 41936 01415 61807 10254 20230 39955 49962 70522 82530 333 58033 70010 82615 85362==
41936,2024,05,29,00,00,AAXX 29004 41936 01414 62006 10262 20250 39969 49976 70522 82530 333 58015 70000 82615 86362==
41936,2024,05,29,03,00,AAXX 29034 41936 01415 72116 10322 20260 39978 49985 70522 85630 333 20268 58008 70000 82710 83615 85362==
41936,2024,05,29,06,00,AAXX 29064 41936 01420 72114 10344 20280 39979 49985 70522 85630 333 58016 70000 82710 83615 86362==
41936,2024,05,29,09,00,AAXX 29094 41936 01430 72214 10344 20280 39961 49968 70522 85630 333 58008 70000 82710 83615 85362==
41936,2024,05,29,12,00,AAXX 29124 41936 01320 72112 10324 20280 39957 49964 70522 86630 333 10348 58010 70000 85708 83615 85362==
41936,2024,05,29,15,00,AAXX 29154 41936 01420 71910 10316 20290 39978 49985 70522 86630 333 58015 70000 83710 83615==
41936,2024,05,29,18,00,AAXX 29184 41936 01420 71912 10312 20280 39994 40001 70522 85630 333 58031 70000 82710 83615==
41936,2024,05,29,21,00,AAXX 29214 41936 01418 72112 10308 20290 39987 49994 70522 86630 333 58032 70000 82710 83615 85362==
41936,2024,05,30,00,00,AAXX 30004 41936 01416 71812 10302 20280 39987 49994 70522 85630 333 58018 70000 82710 83615 85362==
41936,2024,05,30,03,00,AAXX 30034 41936 01420 71909 10328 20290 30014 40021 70522 85630 333 20288 58036 70000 82710 83615 85362==
41936,2024,05,30,06,00,AAXX 30064 41936 01440 62012 10352 20270 30004 40010 70522 83630 333 58025 70000 81710 83615 85362==
41936,2024,05,30,09,00,AAXX 30094 41936 01440 62213 10354 20270 39986 49993 70522 83630 333 58025 70000 81710 83615 85362==
41936,2024,05,30,12,00,AAXX 30124 41936 01440 62210 10334 20270 39985 49992 70522 83630 333 10360 58028 70000 81710 83615 85362==
41936,2024,05,30,15,00,AAXX 30154 41936 01440 61909 10318 20270 30001 40008 70522 83630 333 58023 70000 81710 83615 85362==
41936,2024,05,30,18,00,AAXX 30184 41936 01430 71807 10300 20286 30011 40018 79522 8792/ 333 58017 70000 82710 83315 86262 81930==
41936,2024,05,30,21,00,AAXX 30214 41936 01314 82606 10260 20250 30009 40016 79596 8792/ 333 58022 70070 85706 83312 88260 81930==
41938,2024,05,24,00,00,AAXX 24004 41938 32956 10000 10276 20270 30016 40020 80001 333 56009 59021 70000 81082=
41938,2024,05,24,03,00,AAXX 24034 41938 NIL=
41938,2024,05,24,06,00,AAXX 24064 41938 32458 11602 10356 20250 30018 40022 81500 333 56100 59013 81618=
41938,2024,05,24,12,00,AAXX 24124 41938 32956 10000 10345 20290 39980 49984 80001 333 10376 56009 59022 70000 81080=
41938,2024,05,24,18,00,AAXX 24184 41938 32956 00000 10292 20270 30004 40008 333 59018 70000=
41938,2024,05,25,00,00,AAXX 25004 41938 31940 10000 10282 20270 39998 40002 70500 80001 333 56009 59018 70000 81080=
41938,2024,05,25,06,00,AAXX 25064 41938 32456 50701 10351 20270 39995 49999 84410 333 56190 59023 70000 82618 83825=
41938,2024,05,25,12,00,AAXX 25124 41938 32456 30000 10336 20230 39971 49975 82401 333 10363 56409 59009 70000 81618=
41938,2024,05,25,18,00,AAXX 25184 41938 32456 51804 10285 20260 39990 49994 84510 333 56990 59014 70000 84618 84459=
41938,2024,05,26,00,00,AAXX 26004 41938 32450 71803 10280 20250 39976 49980 84510 333 56990 59022 70000 84618 85459=
41938,2024,05,26,06,00,AAXX 26064 41938 32450 71806 10317 20250 39971 49975 84410 333 56490 59024 70000 83618 85459=
41938,2024,05,26,12,00,AAXX 26124 41938 11350 80704 10280 20260 39929 49933 60049 70262 8572/ 333 10323 56299 59042 70038 82708 85615 88458=
41938,2024,05,26,18,00,AAXX 26184 41938 11340 80907 10270 20250 39914 49918 69923 76162 8672/ 333 56299 59076 70040 82708 85615 88458=
41938,2024,05,27,00,00,AAXX 27004 41938 11310 81210 10263 20260 39860 49864 60409 76366 8677/ 333 56399 59116 70436 84407 84613 88456=
41938,2024,05,27,06,00,AAXX 27064 41938 11308 81412 10263 20260 39832 49836 60489 76366 8672/ 333 56399 59139 70920 84707 84613 88456=
41938,2024,05,27,12,00,AAXX 27124 41938 NIL=
41938,2024,05,27,18,00,AAXX 27184 41938 11310 82313 10254 20250 39913 49916 60499 76166 8632/ 333 56599 59001 71996 83707 85614 81925 88458=
41938,2024,05,28,00,00,AAXX 28004 41938 11450 82303 10260 20240 39944 49948 60076 70262 8252/ 333 56599 58084 71666 82616 88458=
41938,2024,05,28,06,00,AAXX 28064 41938 32457 62301 10328 20260 39976 49980 81510 333 56590 58144 71182 81640 86460=
41938,2024,05,28,12,00,AAXX 28124 41938 31445 80000 10305 20280 39968 49972 70522 8442/ 333 10332 56599 58136 70556 83618 88459=
41938,2024,05,28,18,00,AAXX 28184 41938 31450 71804 10300 20280 39975 49979 70522 83511 333 56499 58062 70066 83617 85460=
41938,2024,05,29,00,00,AAXX 29004 41938 31445 82001 10300 20270 39980 49984 70522 8632/ 333 56590 58036 70000 84617 83825 81929 88459=
41938,2024,05,29,06,00,AAXX 29064 41938 32456 71804 10330 20270 39991 49995 83410 333 56490 58015 70000 81618 83825 87460=
41938,2024,05,29,12,00,AAXX 29124 41938 32450 71804 10317 20280 39978 49982 83410 333 10332 56490 58010 70000 82618 85459=
41938,2024,05,29,18,00,AAXX 29184 41938 32450 40000 10305 20280 39991 49995 83510 333 56990 58016 70000 83618=
41938,2024,05,30,00,00,AAXX 30004 41938 32450 40000 10300 20270 39991 49995 83510 333 56990 58010 70000 83618=
41938,2024,05,30,06,00,AAXX 30064 41938 32456 41803 10337 20230 30013 40017 84400 56400 58022 70000 83618=
41938,2024,05,30,12,00,AAXX 30124 41938 32456 41803 10320 20270 30001 40005 84400 333 10340 56400 58023 70000 83617=
41938,2024,05,30,18,00,AAXX 30184 41938 32456 42104 10300 20270 30017 40021 84500 333 56500 58026 70000 84617=
41939,2024,05,24,00,00,AAXX 24004 41939 02957 00000 10280 20270 30020 40028 333 59022 70000==
41939,2024,05,24,03,00,AAXX 24034 41939 02960 00000 10330 20260 30030 40037 333 20270 59025 70000==
41939,2024,05,24,06,00,AAXX 24064 41939 02960 00000 10360 20260 30023 40031 333 59006 70000==
41939,2024,05,24,09,00,AAXX 24094 41939 02960 00000 10376 20250 30005 40013 333 58003 70000==
41939,2024,05,24,12,00,AAXX 24124 41939 02956 00000 10342 20240 30008 40016 333 10376 58000 70000==
41939,2024,05,24,15,00,AAXX 24154 41939 02940 00000 10310 20280 39995 40003 333 59023 70000==
41939,2024,05,24,18,00,AAXX 24184 41939 02940 00000 10298 20270 30000 40008 333 59035 70000==
41939,2024,05,24,21,00,AAXX 24214 41939 02957 00000 10282 20260 30015 40023 333 59015 70000==
41939,2024,05,25,00,00,AAXX 25004 41939 02957 00000 10278 20270 30007 40015 333 59020 70000==
41939,2024,05,25,03,00,AAXX 25034 41939 02960 00000 10335 20280 30001 40009 333 20276 59029 70000==
41939,2024,05,25,06,00,AAXX 25064 41939 NIL=
41939,2024,05,25,09,00,AAXX 25094 41939 02958 00000 10367 20260 39980 49988 333 59025 70000==
41939,2024,05,25,12,00,AAXX 25124 41939 02956 00000 10343 20250 39985 49993 333 10368 59030 70000==
41939,2024,05,25,15,00,AAXX 25154 41939 02450 60000 10293 20250 30001 40008 83510 333 58006 70000 83617 85460==
41939,2024,05,25,18,00,AAXX 25184 41939 NIL=
41939,2024,05,25,21,00,AAXX 25214 41939 02456 60000 10272 20260 39995 40103 83510 333 59020 70000 83617 85459==
41939,2024,05,26,00,00,AAXX 26004 41939 21457 70000 10275 20260 39982 49990 70362 83510 333 59025 69945 70004 83617 86459==
41939,2024,05,26,03,00,AAXX 26034 41939 02459 80000 10290 20260 39988 49996 8252/ 333 20265 59013 70004 82617 88459==
41939,2024,05,26,06,00,AAXX 26064 41939 02458 81307 10328 20250 39975 49983 8351/ 333 59016 70004 83616 88459==
41939,2024,05,26,09,00,AAXX 26094 41939 02456 81304 10309 20260 39952 49960 8352/ 333 59028 70004 83616 88459==
41939,2024,05,26,12,00,AAXX 26124 41939 02450 81505 10290 20260 39945 49953 8352/ 333 10337 59027 70004 83616 88459==
41939,2024,05,26,15,00,AAXX 26154 41939 02440 61302 10280 20270 39951 49959 83510 333 59050 70004 83616 85459==
41939,2024,05,26,18,00,AAXX 26184 41939 01440 81305 10270 20260 39985 49993 70362 8352/ 333 59025 70010 84616 88459==
41939,2024,05,26,21,00,AAXX 26214 41939 01430 81315 10270 20260 39944 49952 76162 8452/ 333 59051 70062 84615 88459==
41939,2024,05,27,00,00,AAXX 27004 41939 21456 81306 10272 20260 39899 49907 70262 8452/ 333 59083 60259 70258 84616 88459==
41939,2024,05,27,03,00,AAXX 27034 41939 01456 81303 10270 20250 39911 49919 76162 8352/ 333 20263 59077 70360 83616 88459==
41939,2024,05,27,06,00,AAXX 27064 41939 NIL=
41939,2024,05,27,12,00,AAXX 27124 41939 NIL=
41939,2024,05,27,15,00,AAXX 27154 41939 01440 81807 10262 20250 39873 49881 76366 8272/ 333 59078 71964 81706 88458==
41939,2024,05,27,18,00,AAXX 27184 41939 21440 81807 10260 20250 39915 49923 76166 8272/ 333 59070 60809 72156 81706 88458==
41939,2024,05,27,21,00,AAXX 27214 41939 01440 82302 10266 20260 39939 49947 76366 8372/ 333 59005 72240 82707 88358==
41939,2024,05,28,00,00,AAXX 28004 41939 21456 80000 10255 20250 39956 49964 70266 8352/ 333 58057 60179 72080 83617 88459==
41939,2024,05,28,03,00,AAXX 28034 41939 02458 50000 10280 20250 39982 49990 83530 333 20252 58071 71978 83617 83364==
41939,2024,05,28,06,00,AAXX 28064 41939 NIL=
41939,2024,05,28,09,00,AAXX 28094 41939 02458 60000 10335 20260 39977 49984 83510 333 58135 71434 83618 86459==
41939,2024,05,28,12,00,AAXX 28124 41939 02450 60000 10305 20270 39968 49975 83510 333 10350 58110 71004 83618 86459==
41939,2024,05,28,15,00,AAXX 28154 41939 02450 60000 10301 20280 39984 49992 83510 333 58111 70374 83617 86459==
41939,2024,05,28,18,00,AAXX 28184 41939 NIL=
41939,2024,05,28,21,00,AAXX 28214 41939 02440 80000 10295 20280 39992 40000 8352/ 333 58053 70040 83617 88459==
41939,2024,05,29,00,00,AAXX 29004 41939 02456 81801 10300 20280 39985 49993 8352/ 333 58029 70000 83617 88459==
41939,2024,05,29,03,00,AAXX 29034 41939 02457 80000 10316 20290 39996 40004 8352/ 333 20273 58014 70000 83617 88459==
41939,2024,05,29,06,00,AAXX 29064 41939 02457 60000 10335 20290 39995 40003 82510 333 58020 70000 82618 86460==
41939,2024,05,29,09,00,AAXX 29094 41939 02457 61803 10330 20280 39979 49987 82510 333 58002 70000 82618 86460==
41939,2024,05,29,12,00,AAXX 29124 41939 NIL=
41939,2024,05,29,15,00,AAXX 29154 41939 02456 70000 10298 20270 30006 40014 83510 333 58022 70000 83617 86459==
41939,2024,05,29,18,00,AAXX 29184 41939 02456 50000 10290 20280 30018 40026 82530 333 58018 70000 82618 83365==
41939,2024,05,30,00,00,AAXX 30004 41939 02456 80000 10300 20280 30020 40028 8352/ 333 58035 70000 83617 88459==
41939,2024,05,30,03,00,AAXX 30034 41939 02457 50000 10315 20280 30032 40040 83530 333 20293 58036 70000 83618 83362==
41939,2024,05,30,06,00,AAXX 30064 41939 02458 60000 10348 20280 30018 40026 83510 333 58023 70000 83618 86462==
41939,2024,05,30,09,00,AAXX 30094 41939 42459 60000 10340 20270 30005 40013 58026 86460==
41939,2024,05,30,12,00,AAXX 30124 41939 02456 60000 10318 20270 30010 40018 83510 333 10353 58016 70000 83618 85459==
41939,2024,05,30,15,00,AAXX 30154 41939 02440 20000 10305 20280 30028 40036 82500 333 58022 70000 82618==
41939,2024,05,30,18,00,AAXX 30184 41939 02440 20000 10296 20280 30035 40043 82500 333 58017 70000 82618==
41939,2024,05,30,21,00,AAXX 30214 41939 02456 50000 10292 20260 30042 40050 83530 333 58002 70000 83617 83364==
41941,2024,05,24,00,00,AAXX 24004 41941 02956 01802 10270 20250 30019 40024 333 59020 70000==
41941,2024,05,24,03,00,AAXX 24034 41941 02957 00000 10330 20250 30025 40030 333 20265 59020 70000==
41941,2024,05,24,06,00,AAXX 24064 41941 02957 01804 10360 20260 30011 40017 333 59020 70000==
41941,2024,05,24,09,00,AAXX 24094 41941 02957 02704 10374 20260 39973 49978 333 59023 70000==
41941,2024,05,24,12,00,AAXX 24124 41941 02456 20000 10353 20260 39978 49983 82500 333 10378 59017 70000 82616==
41941,2024,05,24,15,00,AAXX 24154 41941 02950 01803 10320 20270 39996 40002 333 59023 70000==
41941,2024,05,24,18,00,AAXX 24184 41941 02940 00000 10310 20270 30012 40018 333 59018 70000==
41941,2024,05,24,21,00,AAXX 24214 41941 02440 80000 10300 20270 30009 40014 85420 333 59011 70000 84616 87458==
41941,2024,05,25,00,00,AAXX 25004 41941 02450 71803 10280 20260 30013 40018 85420 333 59006 70000 84616 87458==
41941,2024,05,25,03,00,AAXX 25034 41941 02456 60000 10340 20260 30013 40019 85420 333 20278 59012 70000 84616 86458==
41941,2024,05,25,06,00,AAXX 25064 41941 02457 42302 10352 20270 39987 49992 84800 333 59024 70000 82618 83828==
41941,2024,05,25,09,00,AAXX 25094 41941 02458 32302 10353 20270 39965 49970 83800 333 59008 70000 82618==
41941,2024,05,25,12,00,AAXX 25124 41941 02457 51802 10342 20250 39970 49975 83520 333 10360 59008 70000 83616 85458==
41941,2024,05,25,15,00,AAXX 25154 41941 02456 60000 10298 20250 39997 40003 83520 333 58001 70000 83616 86458==
41941,2024,05,25,18,00,AAXX 25184 41941 NIL=
41941,2024,05,25,21,00,AAXX 25214 41941 02456 71302 10285 20270 39987 49993 82520 333 59022 70000 82616 87458==
41941,2024,05,26,00,00,AAXX 26004 41941 02456 71302 10284 20260 39986 49992 83520 333 59027 70000 83616 87458==
41941,2024,05,26,03,00,AAXX 26034 41941 02457 60903 10305 20260 39985 49991 83520 333 20278 59028 70000 83616 86458==
41941,2024,05,26,06,00,AAXX 26064 41941 02456 81404 20250 39980 49985 8632/ 333 58007 70000 85616 88458 81928==
41941,2024,05,26,09,00,AAXX 26094 41941 01450 81403 10304 20260 39958 49964 72162 8692/ 333 58007 70010 85612 88456 81924==
41941,2024,05,26,12,00,AAXX 26124 41941 21450 81804 10292 20260 39955 49960 70262 8632/ 333 10353 59015 60018 70010 85616 88458 81930==
41941,2024,05,26,15,00,AAXX 26154 41941 01440 81808 10274 20260 39960 49966 72162 8692/ 333 59037 70020 85612 88456 81924==
41941,2024,05,26,18,00,AAXX 26184 41941 01440 81813 10264 20250 39966 49972 72162 8692/ 333 59037 70030 85612 88456 81924==
41941,2024,05,26,21,00,AAXX 26214 41941 01440 81814 10262 20250 39962 49967 71322 8692/ 333 59025 70040 85613 88456 81924==
41941,2024,05,27,00,00,AAXX 27004 41941 21340 81402 10265 20265 30009 40014 76362 8772/ 333 58023 60207 70200 83708 84612 88458==
41941,2024,05,27,03,00,AAXX 27034 41941 01340 81814 10270 39970 49913 76566 8442/ 333 20262 59078 70670 83708 84612 88456==
41941,2024,05,27,06,00,AAXX 27064 41941 11330 81812 10284 20260 39896 49901 60562 76266 8772/ 333 59084 70760 82707 84612 88438==
41941,2024,05,27,09,00,AAXX 27094 41941 01330 81313 10274 20260 39872 49878 76566 8772/ 333 59086 71200 83707 84612 88456==
41941,2024,05,27,12,00,AAXX 27124 41941 21330 81414 10270 20270 39863 49869 76566 8772/ 333 10287 59092 60649 71390 83707 84612 88456==
41941,2024,05,27,15,00,AAXX 27154 41941 01320 81812 10267 20267 39891 49897 76566 8672/ 333 59069 72200 82708 84612 88456 81924==
41941,2024,05,27,18,00,AAXX 27184 41941 21320 82010 10265 20265 39907 49912 76566 8672/ 333 59059 61049 72400 82708 84612 88456 81924==
41941,2024,05,27,21,00,AAXX 27214 41941 01320 82008 10263 20260 39926 49931 76566 8672/ 333 59036 72610 82708 84612 88456 81924==
41941,2024,05,28,00,00,AAXX 28004 41941 21440 82008 10261 20250 39945 49950 72166 8632/ 333 58026 60339 72450 85614 88456 81925==
41941,2024,05,28,03,00,AAXX 28034 41941 02450 80803 10275 20260 39973 49979 8632/ 333 20260 58066 71980 85614 88456 81925==
41941,2024,05,28,06,00,AAXX 28064 41941 02457 52302 10315 20260 39976 49981 83520 333 58080 72010 83616 84458==
41941,2024,05,28,09,00,AAXX 28094 41941 02457 62301 10327 20280 39967 49972 84520 333 58095 70560 84616 86458==
41941,2024,05,28,12,00,AAXX 28124 41941 02457 52301 10300 20270 39966 49971 83510 333 10335 58103 71370 83616 85458==
41941,2024,05,28,15,00,AAXX 28154 41941 02456 51301 10295 20290 39986 49991 83520 333 58095 70550 83616 85458==
41941,2024,05,28,18,00,AAXX 28184 41941 02350 61304 10300 20290 39985 49991 85620 333 58078 70330 82708 84614 86458==
41941,2024,05,28,21,00,AAXX 28214 41941 02450 61301 10298 20290 39981 49987 84520 333 58055 70120 84616 86458==
41941,2024,05,29,00,00,AAXX 29004 41941 02456 71303 10295 20290 39985 49991 84520 333 58040 70000 84616 87458==
41941,2024,05,29,03,00,AAXX 29034 41941 02456 51302 10315 20290 30005 40010 83510 333 20275 58032 70000 83616 85458==
41941,2024,05,29,06,00,AAXX 29064 41941 02456 51405 10340 20280 30000 40006 83510 333 58024 70000 83616 85458==
41941,2024,05,29,09,00,AAXX 29094 41941 02457 51806 10335 20280 39981 49987 83810 333 58014 70000 82616 85458==
41941,2024,05,29,12,00,AAXX 29124 41941 02450 61804 10319 20280 39984 49990 85420 333 10342 58018 70000 84616 86458==
41941,2024,05,29,15,00,AAXX 29154 41941 02440 60000 10306 20290 30008 40013 85420 333 58022 70000 84616 86458==
41941,2024,05,29,18,00,AAXX 29184 41941 02440 61803 10302 20290 30012 40018 85420 333 58027 70000 84616 86458==
41941,2024,05,29,21,00,AAXX 29214 41941 02440 61802 10300 20290 30004 40010 85420 333 58024 70000 84616 86458==
41941,2024,05,30,00,00,AAXX 30004 41941 02450 81804 10298 20280 30022 40027 8632/ 333 58037 70000 85616 88458 81930==
41941,2024,05,30,03,00,AAXX 30034 41941 02450 81805 10315 20300 30040 40045 8632/ 333 20295 58035 70000 85616 88458 81930==
41941,2024,05,30,06,00,AAXX 30064 41941 02456 71804 10340 20270 30021 40027 85420 333 58079 70000 84616 87458==
41941,2024,05,30,09,00,AAXX 30094 41941 02456 61406 10345 20280 30008 40012 85420 333 58025 70000 84616 86458==
41941,2024,05,30,12,00,AAXX 30124 41941 02456 71804 10320 20290 30000 40005 85420 333 10355 58016 70000 84616 87458==
41941,2024,05,30,15,00,AAXX 30154 41941 02450 61403 10304 20280 30025 40030 85420 333 58017 70000 84616 86458==
41941,2024,05,30,18,00,AAXX 30184 41941 02440 60000 10302 20280 30030 40035 85420 333 58018 70000 84616 86458==
41941,2024,05,30,21,00,AAXX 30214 41941 02940 00000 10296 20290 30010 40015 333 58005 70000==
41943,2024,05,24,00,00,AAXX 24004 41943 11430 50000 10250 20230 30019 40026 60036 70162 83830 333 59018 70030 83616 84458==
41943,2024,05,24,03,00,AAXX 24034 41943 02935 00000 10320 20240 30026 40033 333 20250 59015 70030==
41943,2024,05,24,06,00,AAXX 24064 41943 02945 00000 10350 20230 30012 40019 333 59013 70030==
41943,2024,05,24,09,00,AAXX 24094 41943 02950 00000 10375 20250 39991 49998 333 58001 70030==
41943,2024,05,24,12,00,AAXX 24124 41943 02940 00000 10350 20250 39972 49979 333 10380 59018 70030==
41943,2024,05,24,15,00,AAXX 24154 41943 02430 41802 10318 20270 30003 40010 83530 333 59020 70030 83618 83362==
41943,2024,05,24,18,00,AAXX 24184 41943 02430 51802 10288 20280 30005 40012 83530 333 59039 70030 83616 84362==
41943,2024,05,24,21,00,AAXX 24214 41943 02430 61802 10283 20270 30000 40007 83530 333 59040 70000 83616 84362==
41943,2024,05,25,00,00,AAXX 25004 41943 02430 40000 10270 20250 39996 40003 83530 333 59023 70000 83616 83362==
41943,2024,05,25,03,00,AAXX 25034 41943 02440 20000 10340 20250 39998 40005 82500 333 20270 59028 70000 82618==
41943,2024,05,25,06,00,AAXX 25064 41943 02450 32302 10365 20250 39989 49996 83400 333 59023 70000 82618==
41943,2024,05,25,09,00,AAXX 25094 41943 02450 32302 10370 20240 39968 49975 83400 333 59013 70000 82618==
41943,2024,05,25,12,00,AAXX 25124 41943 02440 71702 10300 20250 39983 49990 85620 333 10375 58011 70000 82710 83615 87457==
41943,2024,05,25,15,00,AAXX 25154 41943 02435 71502 10288 20250 30001 40008 84520 333 59002 70000 84616 85458==
41943,2024,05,25,18,00,AAXX 25184 41943 02335 81302 10284 20240 30004 40011 8662/ 333 59001 70000 83709 84615 88457==
41943,2024,05,25,21,00,AAXX 25214 41943 02435 81301 10278 20250 30001 40008 8662/ 333 58001 70000 83710 83615 86457==
41943,2024,05,26,00,00,AAXX 26004 41943 02435 81701 10275 20250 39990 49997 8662/ 333 58006 70000 83710 84615 87457==
41943,2024,05,26,03,00,AAXX 26034 41943 02440 71502 10278 20260 39987 49995 86620 333 20272 59011 70023 82710 84615 87457==
41943,2024,05,26,06,00,AAXX 26064 41943 21440 71202 10325 20260 39978 49985 70262 85570 333 59011 60028 70023 85616 87458==
41943,2024,05,26,09,00,AAXX 26094 41943 02440 80000 10315 20270 39958 49965 8652/ 333 59010 70023 86616 87457==
41943,2024,05,26,12,00,AAXX 26124 41943 21330 81703 10270 20250 39960 49967 76162 8672/ 333 10340 59023 60027 70047 83709 85615 88457==
41943,2024,05,26,15,00,AAXX 26154 41943 01330 81704 10265 20250 39978 49985 76166 8672/ 333 59023 70075 83709 85614 88457==
41943,2024,05,26,18,00,AAXX 26184 41943 21330 81304 10270 20240 39970 49977 70262 8672/ 333 59034 60038 70075 83709 86615 88457==
41943,2024,05,26,21,00,AAXX 26214 41943 02330 81705 10272 20240 39956 49963 8672/ 333 59045 70075 84709 85617 88457==
41943,2024,05,27,00,00,AAXX 27004 41943 01330 81505 10270 20250 39937 49944 76162 8672/ 333 59053 70088 84709 86614 88457==
41943,2024,05,27,03,00,AAXX 27034 41943 01330 81608 10260 20250 39947 49954 76366 8672/ 333 20260 59040 70317 85708 86614 88456==
41943,2024,05,27,06,00,AAXX 27064 41943 21330 81810 10267 20267 39932 49939 76366 8772/ 333 59046 60689 70741 84708 86614 88456==
41943,2024,05,27,09,00,AAXX 27094 41943 01330 81718 10270 20260 39906 49913 76366 86720 333 59052 70919 84708 85614 88456==
41943,2024,05,27,12,00,AAXX 27124 41943 21320 81810 10270 20260 39898 49905 76566 8772/ 333 10280 59062 60679 71387 85708 86614 88457==
41943,2024,05,27,15,00,AAXX 27154 41943 01330 81907 10270 20240 39919 49926 72166 8662/ 333 59059 71542 84709 85615 87457==
41943,2024,05,27,18,00,AAXX 27184 41943 11330 81809 10270 20250 39932 49939 60202 76166 8772/ 333 59038 71562 84708 85614 88456==
41943,2024,05,27,21,00,AAXX 27214 41943 01330 81905 10275 20250 39936 49943 72162 8662/ 333 59020 71589 84709 85615 88457==
41943,2024,05,28,00,00,AAXX 28004 41943 01330 81905 10280 20250 39939 49946 72162 8672/ 333 58002 71617 84709 85615 88457==
41943,2024,05,28,03,00,AAXX 28034 41943 02430 81804 10280 20240 39971 49978 8662/ 333 20260 58024 71365 83709 84615 88458==
41943,2024,05,28,06,00,AAXX 28064 41943 02430 81804 10305 20250 39975 49982 8662/ 333 58043 70941 83710 84615 88458==
41943,2024,05,28,09,00,AAXX 28094 41943 01330 81903 10282 20260 39974 49982 72162 8662/ 333 58068 70771 83709 84615 88457==
41943,2024,05,28,12,00,AAXX 28124 41943 01430 81802 10260 20230 39978 49985 70262 8662/ 333 10308 58080 70299 83710 84615 87457==
41943,2024,05,28,15,00,AAXX 28154 41943 02430 81802 10280 20260 39996 40003 8662/ 333 58077 70116 83710 84615 88458==
41943,2024,05,28,18,00,AAXX 28184 41943 02430 81804 10292 20270 39991 49998 8662/ 333 58059 70096 83710 84615 88458==
41943,2024,05,28,21,00,AAXX 28214 41943 02430 81903 10293 20270 39992 49999 8662/ 333 58056 70069 83710 84615 87457==
41943,2024,05,29,00,00,AAXX 29004 41943 02435 81904 10295 20280 39994 40001 8662/ 333 58055 70028 83710 84615 87457==
41943,2024,05,29,03,00,AAXX 29034 41943 02435 81804 10308 20270 30017 40024 8662/ 333 20262 58046 70028 83710 84615 87457==
41943,2024,05,29,06,00,AAXX 29064 41943 02445 61905 10340 20270 30011 40018 84510 333 58036 70028 84615 86457==
41943,2024,05,29,09,00,AAXX 29094 41943 02440 61802 10334 20260 39989 49996 83510 333 58015 70020 83616 85458==
41943,2024,05,29,12,00,AAXX 29124 41943 02430 71805 10304 20260 39991 49998 84520 333 10342 58013 70000 83616 86458==
41943,2024,05,29,15,00,AAXX 29154 41943 02430 61804 10298 20270 30005 40012 83520 333 58009 70000 83616 85458==
41943,2024,05,29,18,00,AAXX 29184 41943 42430 61802 10294 20260 30018 40025 82520 333 58027 83616 85458==
41943,2024,05,29,21,00,AAXX 29214 41943 02430 61802 10290 20270 30019 40026 83520 333 58027 70000 83616 85458==
41943,2024,05,30,00,00,AAXX 30004 41943 02435 71802 10288 20270 30022 40029 84520 333 58028 70000 84616 86458==
41943,2024,05,30,03,00,AAXX 30034 41943 02440 52303 10314 20270 30045 40052 83510 333 20288 58028 70000 83616 84458==
41943,2024,05,30,06,00,AAXX 30064 41943 02440 61804 10340 20260 30030 40037 83510 333 58019 70000 83616 84458==
41943,2024,05,30,09,00,AAXX 30094 41943 02440 62303 10334 20150 30017 40024 83510 333 58028 70000 83616 84458==
41943,2024,05,30,12,00,AAXX 30124 41943 02440 52304 10318 20260 30015 40022 83510 333 10340 58024 70000 83616 84458==
41943,2024,05,30,15,00,AAXX 30154 41943 02430 51802 10294 20260 30031 40038 83510 333 58026 70000 83616 84458==
41943,2024,05,30,18,00,AAXX 30184 41943 02430 81803 10293 20260 30027 40034 8662/ 333 58011 70000 83710 84615 88458==
41943,2024,05,30,21,00,AAXX 30214 41943 02430 71802 10290 20270 30030 40037 8662/ 333 58011 70000 83715 88458==
41944,2024,05,24,00,00,AAXX 24004 41944 NIL=
41944,2024,05,24,03,00,AAXX 24034 41944 NIL=
41944,2024,05,24,12,00,AAXX 24124 41944 NIL=
41944,2024,05,24,18,00,AAXX 24184 41944 NIL=
41944,2024,05,25,00,00,AAXX 25004 41944 NIL=
41944,2024,05,25,06,00,AAXX 25064 41944 NIL=
41944,2024,05,25,12,00,AAXX 25124 41944 NIL=
41944,2024,05,25,18,00,AAXX 25184 41944 NIL=
41944,2024,05,26,18,00,AAXX 26184 41944 NIL=
41944,2024,05,27,06,00,AAXX 27064 41944 NIL=
41944,2024,05,27,12,00,AAXX 27124 41944 NIL=
41944,2024,05,28,06,00,AAXX 28064 41944 NIL=
41944,2024,05,28,12,00,AAXX 28124 41944 NIL=
41944,2024,05,28,18,00,AAXX 28184 41944 NIL=
41944,2024,05,29,00,00,AAXX 29004 41944 NIL=
41944,2024,05,29,06,00,AAXX 29064 41944 NIL=
41944,2024,05,29,12,00,AAXX 29124 41944 NIL=
41944,2024,05,29,18,00,AAXX 29184 41944 NIL=
41944,2024,05,30,00,00,AAXX 30004 41944 NIL=
41944,2024,05,30,06,00,AAXX 30064 41944 NIL=
41944,2024,05,30,12,00,AAXX 30124 41944 NIL=
41946,2024,05,24,00,00,AAXX 24004 41946 01918 13501 10280 20270 30016 40021 71000 80001 333 59019 70000 81080==
41946,2024,05,24,03,00,AAXX 24034 41946 02456 20502 10337 20270 30030 40034 82500 333 20279 59020 70000 82618==
41946,2024,05,24,06,00,AAXX 24064 41946 02557 20502 10363 20240 30018 40022 82500 333 59018 70000 82620==
41946,2024,05,24,09,00,AAXX 24094 41946 02457 31802 10382 20240 39989 49993 83400 333 59021 70000 82618==
41946,2024,05,24,12,00,AAXX 24124 41946 02456 30000 10365 20240 39982 49986 83500 333 10383 59027 70000 83618==
41946,2024,05,24,15,00,AAXX 24154 41946 02556 21802 10328 20270 30010 40014 82500 333 59016 70000 82620==
41946,2024,05,24,18,00,AAXX 24184 41946 02956 00000 10310 20270 30012 40017 333 59019 70000==
41946,2024,05,24,21,00,AAXX 24214 41946 02956 00000 10300 20280 39998 40003 333 59020 70000==
41946,2024,05,25,00,00,AAXX 25004 41946 02956 00000 10295 20280 39996 40001 333 59020 70000==
41946,2024,05,25,03,00,AAXX 25034 41946 02956 40000 10335 20280 30001 40005 80001 333 20285 59029 70000 84080==
41946,2024,05,25,06,00,AAXX 25064 41946 02456 60502 10375 20270 39990 49994 86300 333 59028 70000 84618 83820 81928==
41946,2024,05,25,09,00,AAXX 25094 41946 01556 60000 10342 20250 39970 49974 70192 83920 333 59019 70000 82825 85459 81928==
41946,2024,05,25,12,00,AAXX 25124 41946 01556 60902 10342 20240 39962 49967 70296 83470 333 10377 59020 70000 82620 84459==
41946,2024,05,25,15,00,AAXX 25154 41946 02/56 31204 10312 20260 39992 49997 83030 333 59018 70000 83362==
41946,2024,05,25,18,00,AAXX 25184 41946 NIL=
41946,2024,05,25,21,00,AAXX 25214 41946 01/56 50403 10286 20270 39968 49973 70262 85050 333 59030 70008 85360==
41946,2024,05,26,00,00,AAXX 26004 41946 11350 80406 10288 20260 39968 49973 69986 70362 8632/ 333 59028 70008 82710 85617 88459 81928==
41946,2024,05,26,03,00,AAXX 26034 41946 01456 80409 10292 20250 39965 49970 70262 8632/ 333 20278 59036 70010 84617 88460 81928==
41946,2024,05,26,06,00,AAXX 26064 41946 21456 80415 10315 20250 39954 49958 70262 8632/ 333 59036 69928 70010 84617 88459 81928==
41946,2024,05,26,09,00,AAXX 26094 41946 02350 80414 10310 20260 39921 49925 8632/ 333 59039 70010 81710 84617 88459 81928==
41946,2024,05,26,12,00,AAXX 26124 41946 11350 80415 10290 20260 39909 49913 60022 72162 8632/ 333 10325 59053 70034 81710 84617 88458 81928==
41946,2024,05,26,15,00,AAXX 26154 41946 01350 80521 10285 20260 39910 49914 76166 8632/ 333 59082 70049 82710 84617 88458 81928==
41946,2024,05,26,18,00,AAXX 26184 41946 21340 80540 10264 20250 39860 49865 76366 8632/ 333 59121 60179 70219 82710 84617 88458 81928==
41946,2024,05,27,00,00,AAXX 27004 41946 21340 80406 10268 20268 39794 49798 76166 8632/ 333 59174 60729 70931 82710 84617 88458 81928==
41946,2024,05,27,03,00,AAXX 27034 41946 01350 80102 10276 20270 39786 49790 70262 8572/ 333 20253 59179 70959 82710 84617 88459==
41946,2024,05,27,06,00,AAXX 27064 41946 01350 81804 10275 20270 39807 49811 76062 8572/ 333 59147 70969 82710 84617 88459==
41946,2024,05,27,09,00,AAXX 27094 41946 01350 82713 10266 20260 39820 49824 76166 8672/ 333 59101 71319 82709 85616 88458==
41946,2024,05,27,12,00,AAXX 27124 41946 21340 82714 10262 20250 39875 49880 76366 8672/ 333 10278 59034 60799 71715 82709 84616 88457==
41946,2024,05,27,18,00,AAXX 27184 41946 11456 82608 10279 20240 39946 49951 60086 70262 8532/ 333 58086 71634 84618 88459 81928==
41946,2024,05,27,21,00,AAXX 27214 41946 02456 82305 10274 20240 39950 49955 8352/ 333 58160 71184 83618 88460==
41946,2024,05,28,00,00,AAXX 28004 41946 02456 72202 10269 20240 39967 49972 81570 333 58173 70914 81618 86460==
41946,2024,05,28,03,00,AAXX 28034 41946 02456 60222 10280 20260 39986 49991 82510 333 20255 58200 70884 82618 85460==
41946,2024,05,28,06,00,AAXX 28064 41946 02456 70000 10325 20260 39980 49984 82510 333 58173 70874 82618 87460==
41946,2024,05,28,09,00,AAXX 28094 41946 02456 71803 10328 20270 39960 49964 84520 333 58140 70504 84618 87459==
41946,2024,05,28,12,00,AAXX 28124 41946 02456 61603 10323 20290 39959 49963 84320 333 10330 58084 70084 83618 85459 81929==
41946,2024,05,28,15,00,AAXX 28154 41946 02556 51402 10311 20290 39979 49984 85400 333 58051 70000 84620==
41946,2024,05,28,18,00,AAXX 28184 41946 02556 31707 10308 20290 39976 49981 83500 333 58030 70000 83620==
41946,2024,05,28,21,00,AAXX 28214 41946 02556 51803 10308 20290 39967 49972 85400 333 58017 70000 83620 83822==
41946,2024,05,29,00,00,AAXX 29004 41946 02356 61905 10305 20290 39974 49978 86600 333 58007 70000 83710 85615==
41946,2024,05,29,03,00,AAXX 29034 41946 02456 61806 10325 20290 39993 49997 83410 333 20300 58007 70000 82618 84460==
41946,2024,05,29,06,00,AAXX 29064 41946 02456 61806 10345 20300 39991 49995 84410 333 58011 70000 83618 84460==
41946,2024,05,29,09,00,AAXX 29094 41946 02456 71804 10334 20280 39977 49981 82520 333 58017 70000 82618 87460==
41946,2024,05,29,12,00,AAXX 29124 41946 02456 51802 10320 20290 39975 49979 82510 333 10347 58017 70000 82618 84460==
41946,2024,05,29,15,00,AAXX 29154 41946 02456 51802 10314 20280 39994 49998 82510 333 58015 70000 82618 84460==
41946,2024,05,29,18,00,AAXX 29184 41946 02456 71803 10310 20280 30000 40004 82520 333 58024 70000 82618 87460==
41946,2024,05,30,00,00,AAXX 30004 41946 02456 71803 10304 20280 30005 40010 82520 333 58031 70000 82618 87460==
41946,2024,05,30,03,00,AAXX 30034 41946 02456 71803 10320 20280 30030 40035 83520 333 20300 58037 70000 83618 87460==
41946,2024,05,30,06,00,AAXX 30064 41946 02456 71807 10340 20270 30017 40021 85420 333 58026 70000 83618 83820 84460==
41946,2024,05,30,09,00,AAXX 30094 41946 02456 71808 10350 20270 30001 40005 85420 333 58024 70000 83618 83820 84460==
41946,2024,05,30,12,00,AAXX 30124 41946 02456 51802 10330 20270 39997 40001 82520 333 10351 58022 70000 82618 84460==
41946,2024,05,30,15,00,AAXX 30154 41946 02456 71702 10314 20270 30021 40025 83520 333 58027 70000 83618 86460==
41946,2024,05,30,18,00,AAXX 30184 41946 02456 81807 10308 20270 30029 40034 8352/ 333 58029 70000 83618 88459==
41946,2024,05,30,21,00,AAXX 30214 41946 01450 82205 10258 20250 30031 40036 72196 8532/ 333 58033 70282 84618 88459 81928==
41947,2024,05,24,00,00,AAXX 24004 41947 02956 00000 10284 20270 30017 40019 333 59021 70000==
41947,2024,05,24,03,00,AAXX 24034 41947 02956 00000 10345 20260 30029 40031 333 20280 59019 70000==
41947,2024,05,24,06,00,AAXX 24064 41947 02957 00000 10365 20240 30015 40017 333 59022 70000==
41947,2024,05,24,09,00,AAXX 24094 41947 02457 31402 10380 20240 39993 49995 83500 333 59015 70000 83618==
41947,2024,05,24,12,00,AAXX 24124 41947 02957 00000 10368 20240 39979 49981 333 10382 59025 70000==
41947,2024,05,24,15,00,AAXX 24154 41947 02950 01802 10320 20260 30010 40012 333 59015 70000==
41947,2024,05,24,18,00,AAXX 24184 41947 02950 00000 10305 20270 30014 40016 333 59018 70000==
41947,2024,05,24,21,00,AAXX 24214 41947 02950 00000 10300 20270 30003 40005 333 59018 70000==
41947,2024,05,25,00,00,AAXX 25004 41947 02950 00000 10292 20270 39994 49996 333 59023 70000==
41947,2024,05,25,03,00,AAXX 25034 41947 02456 40000 10350 20260 39999 40002 84400 333 20288 59029 70000 81618 83820==
41947,2024,05,25,06,00,AAXX 25064 41947 02456 60000 10365 20270 39991 49994 86400 333 59023 70000 83618 83820==
41947,2024,05,25,09,00,AAXX 25094 41947 02457 41306 10360 20270 39969 49971 84400 333 59024 70000 83618 83820==
41947,2024,05,25,12,00,AAXX 25124 41947 02456 61602 10345 20280 39966 49968 84401 333 10365 59013 70000 82618 83820 85074==
41947,2024,05,25,15,00,AAXX 25154 41947 01340 81606 10290 20260 39997 49999 76122 8632/ 333 59013 70006 83708 84615 88458 81930==
41947,2024,05,25,18,00,AAXX 25184 41947 NIL=
41947,2024,05,25,21,00,AAXX 25214 41947 02440 81302 10284 20260 39978 49980 8532/ 333 59025 70006 84618 88459 81930==
41947,2024,05,26,00,00,AAXX 26004 41947 02450 80905 10288 20260 39971 49973 8532/ 333 59023 70006 84618 88458 81930==
41947,2024,05,26,03,00,AAXX 26034 41947 01350 80905 10300 20250 39967 49970 70262 8562/ 333 20282 59032 70100 81709 84617 88458==
41947,2024,05,26,06,00,AAXX 26064 41947 11350 80908 10320 20250 39961 49963 69946 70262 8562/ 333 59031 70010 81710 84617 88458==
41947,2024,05,26,09,00,AAXX 26094 41947 02450 81009 10310 20250 39929 49931 8562/ 333 59040 70010 81709 84617 88458==
41947,2024,05,26,12,00,AAXX 26124 41947 21350 80907 10285 20260 39920 49922 70262 8562/ 333 10324 59046 60045 70040 81709 84617 88458==
41947,2024,05,26,15,00,AAXX 26154 41947 01450 80905 10285 20250 39925 49927 72162 8562/ 333 59074 70050 81709 84617 88458==
41947,2024,05,26,18,00,AAXX 26184 41947 01340 81417 10265 20250 39887 49889 76162 8572/ 333 59105 70080 81709 84617 88458==
41947,2024,05,26,21,00,AAXX 26214 41947 01340 81418 10265 20260 39819 49821 76166 8572/ 333 59159 70430 82709 84617 88458==
41947,2024,05,27,00,00,AAXX 27004 41947 21350 81719 10265 20260 39826 49828 76166 8572/ 333 59145 60579 70654 82709 84617 88458==
41947,2024,05,27,03,00,AAXX 27034 41947 01350 82210 10265 20265 39803 49805 76166 8672/ 333 20263 59165 70730 82708 84615 88458==
41947,2024,05,27,06,00,AAXX 27064 41947 21350 81809 10270 20270 39818 49820 76166 8672/ 333 59143 60259 70902 82708 84615 88458==
41947,2024,05,27,09,00,AAXX 27094 41947 01340 82316 10268 20268 39807 49809 76366 8672/ 333 59122 71004 83708 84614 88458==
41947,2024,05,27,12,00,AAXX 27124 41947 21330 82715 10265 20265 39858 49860 76366 8672/ 333 10270 59062 60779 71634 83708 84614 88458==
41947,2024,05,27,15,00,AAXX 27154 41947 01340 82712 10264 20250 39914 49916 76366 8672/ 333 59009 71814 83708 84614 88458==
41947,2024,05,27,18,00,AAXX 27184 41947 21350 82708 10267 20250 39935 49937 70262 8562/ 333 58048 60238 71824 82710 84616 88458==
41947,2024,05,27,21,00,AAXX 27214 41947 02450 82704 10273 20250 39942 49944 8352/ 333 58123 71474 83618 88458==
41947,2024,05,28,00,00,AAXX 28004 41947 02456 82703 10270 20250 39964 49966 8352/ 333 58138 71254 83618 88458==
41947,2024,05,28,03,00,AAXX 28034 41947 02456 60000 10300 20250 39985 49987 83530 333 20256 58182 71174 83618 83362==
41947,2024,05,28,06,00,AAXX 28064 41947 02456 80000 10328 20260 39982 49984 8352/ 333 58164 71002 83618 88459==
41947,2024,05,28,09,00,AAXX 28094 41947 02456 61802 10330 20270 39985 49987 82530 333 58017 70900 82618 84362==
41947,2024,05,28,12,00,AAXX 28124 41947 02450 81801 10310 20260 39963 49965 8452/ 333 10335 58105 70230 84616 88458==
41947,2024,05,28,15,00,AAXX 28154 41947 02450 80000 10300 20290 39982 49984 8452/ 333 58068 70040 84616 88458==
41947,2024,05,28,18,00,AAXX 28184 41947 02450 80000 10294 20280 39986 49988 8452/ 333 58051 70000 84616 88458==
41947,2024,05,28,21,00,AAXX 28214 41947 02450 80000 10294 20280 39982 49984 8452/ 333 58040 70000 84616 88458==
41947,2024,05,29,00,00,AAXX 29004 41947 02450 81804 10298 20280 39977 49979 8452/ 333 58013 70000 84616 88458==
41947,2024,05,29,03,00,AAXX 29034 41947 02450 81804 10325 20280 39998 40001 8352/ 333 20290 58014 70000 83618 88458==
41947,2024,05,29,06,00,AAXX 29064 41947 02456 71804 10345 20280 39996 49999 83570 333 58015 70000 83618 86458==
41947,2024,05,29,09,00,AAXX 29094 41947 02456 71805 10335 20290 39979 49981 83570 333 59006 70000 83618 86458==
41947,2024,05,29,12,00,AAXX 29124 41947 02456 61804 10318 20280 39980 49982 83570 333 10346 58017 70000 83618 85458==
41947,2024,05,29,15,00,AAXX 29154 41947 02450 51803 10310 20280 39995 49997 83570 333 58013 70000 83618 84458==
41947,2024,05,29,18,00,AAXX 29184 41947 NIL=
41947,2024,05,29,21,00,AAXX 29214 41947 02450 51802 10308 20280 39998 40000 83570 333 58017 70000 83618 84458==
41947,2024,05,30,00,00,AAXX 30004 41947 02450 51803 10305 20290 30009 40011 83570 333 58032 70000 83618 84458==
41947,2024,05,30,03,00,AAXX 30034 41947 02456 51803 10325 20280 30032 40035 85400 333 20298 58034 70000 82618 83820==
41947,2024,05,30,06,00,AAXX 30064 41947 02456 71803 10343 20260 30020 40023 83570 333 58024 70000 83618 86458==
41947,2024,05,30,09,00,AAXX 30094 41947 02456 71802 10350 20270 30005 40007 83570 333 58026 70000 83618 86459==
41947,2024,05,30,12,00,AAXX 30124 41947 02456 71816 10325 20280 30002 40004 83570 333 10352 58022 70000 83618 86459==
41947,2024,05,30,15,00,AAXX 30154 41947 02450 71810 10310 20270 30026 40028 83570 333 58046 70000 83618 86459==
41947,2024,05,30,18,00,AAXX 30184 41947 02450 70000 10300 20270 30028 40030 83570 333 58030 70000 83618 86459==
41947,2024,05,30,21,00,AAXX 30214 41947 01430 82108 10255 20250 30013 40015 72162 8532/ 333 58014 70030 84618 88458 81930==
41950,2024,05,24,00,00,AAXX 24004 41950 02950 00000 10265 20260 30022 40024 333 59012 70000==
41950,2024,05,24,03,00,AAXX 24034 41950 02950 00000 10330 20250 30032 40035 333 20264 59016 70000==
41950,2024,05,24,06,00,AAXX 24064 41950 02950 00000 10358 20250 30015 40018 333 59017 70000==
41950,2024,05,24,09,00,AAXX 24094 41950 02956 00000 10368 20250 39991 49993 333 59014 70000==
41950,2024,05,24,12,00,AAXX 24124 41950 02950 00000 10354 20250 39978 49980 333 10376 59021 70000==
41950,2024,05,24,15,00,AAXX 24154 41950 02950 00000 10318 20260 30005 40007 333 59022 70000==
41950,2024,05,24,18,00,AAXX 24184 41950 02/50 30000 10305 20270 30008 40011 83030 333 59029 70000 83362==
41950,2024,05,24,21,00,AAXX 24214 41950 02450 50000 10292 20270 30000 40003 82530 333 59019 70000 82617 84362==
41950,2024,05,25,00,00,AAXX 25004 41950 02450 20000 10288 20280 39997 40000 82500 333 59025 70000 82617==
41950,2024,05,25,03,00,AAXX 25034 41950 02/50 20000 10344 20260 30002 40005 82030 333 20283 59030 70000 82362==
41950,2024,05,25,06,00,AAXX 25064 41950 01450 40000 20270 30000 40003 72121 83530 333 59015 70020 83617==
41950,2024,05,25,09,00,AAXX 25094 41950 02450 11402 10360 20230 39970 49973 81500 333 59021 70016 81617==
41950,2024,05,25,12,00,AAXX 25124 41950 02450 50000 10342 20240 39969 49971 82530 333 10364 59009 70016 82617 85362==
41950,2024,05,25,15,00,AAXX 25154 41950 01450 60000 10270 20260 39995 49998 72196 83530 333 59010 70278 83617 84362==
41950,2024,05,25,18,00,AAXX 25184 41950 11350 80000 10284 20260 39998 40001 60266 70396 8562/ 333 59010 70278 82708 84616 88458==
41950,2024,05,25,21,00,AAXX 25214 41950 02350 80000 10282 20260 39972 49975 8562/ 333 59028 70278 82708 84616 88458==
41950,2024,05,26,00,00,AAXX 26004 41950 02350 80603 10282 20260 39977 49980 8562/ 333 59020 70278 82708 84616 88458==
41950,2024,05,26,03,00,AAXX 26034 41950 02350 80703 10307 20260 39975 49978 8532/ 333 20266 59027 70278 82708 84616 88458 81928==
41950,2024,05,26,06,00,AAXX 26064 41950 02350 80906 10315 20250 39971 49973 8562/ 333 59029 70262 82708 84616 88458==
41950,2024,05,26,09,00,AAXX 26094 41950 01330 80709 10296 20270 39940 49942 76162 8672/ 333 59030 70272 83708 84616 88458==
41950,2024,05,26,12,00,AAXX 26124 41950 21330 80910 10282 20260 39938 49940 76162 8672/ 333 10332 59031 60059 70316 83708 84616 88458==
41950,2024,05,26,15,00,AAXX 26154 41950 01350 80912 10282 20250 39946 49948 72166 8662/ 333 59049 70057 83708 84616 88458==
41950,2024,05,26,18,00,AAXX 26184 41950 01330 80813 10268 20260 39925 49927 76162 8672/ 333 59073 70119 83707 84616 88458==
41950,2024,05,26,21,00,AAXX 26214 41950 01325 81210 10267 20260 39895 49897 76366 8672/ 333 59077 70261 83707 84616 88458==
41950,2024,05,27,00,00,AAXX 27004 41950 21330 81510 10267 20260 39987 49889 76166 8672/ 333 59090 60299 70411 83707 84616 88458==
41950,2024,05,27,03,00,AAXX 27034 41950 01330 81210 10271 20260 39878 49880 76166 8672/ 333 20265 59097 70591 82708 84616 88458==
41950,2024,05,27,06,00,AAXX 27064 41950 21330 81615 10270 20260 39874 49876 76166 8672/ 333 59097 60409 70811 82708 84616 88458==
41950,2024,05,27,09,00,AAXX 27094 41950 01330 81820 10270 20260 39864 49866 76166 8672/ 333 59076 71321 83708 84616 88458==
41950,2024,05,27,12,00,AAXX 27124 41950 21330 81918 10270 20260 39873 49875 76166 8672/ 333 10280 59065 60719 71467 83708 84616 88458==
41950,2024,05,27,15,00,AAXX 27154 41950 01330 81615 10267 20267 39918 49920 76166 8672/ 333 59028 71774 83708 84616 88458==
41950,2024,05,27,18,00,AAXX 27184 41950 21350 81810 10270 20250 39930 49932 71366 8632/ 333 58005 60059 71762 82708 84616 88458 81928==
41950,2024,05,27,21,00,AAXX 27214 41950 02350 81905 10273 20250 39948 49950 8662/ 333 58053 71620 82708 84616 88458==
41950,2024,05,28,00,00,AAXX 28004 41950 02350 82302 10278 20250 39958 49960 8562/ 333 58071 71470 82708 84616 88458==
41950,2024,05,28,03,00,AAXX 28034 41950 02350 70000 10300 20250 39979 49982 85610 333 20258 58101 71290 82708 84616 86459==
41950,2024,05,28,06,00,AAXX 28064 41950 02350 80000 10302 20250 39985 49988 8532/ 333 58111 71070 82708 84616 88458 81928==
41950,2024,05,28,09,00,AAXX 28094 41950 01450 70000 10310 20260 39974 49977 70162 82510 333 58110 70592 82616 87458==
41950,2024,05,28,12,00,AAXX 28124 41950 11350 80000 10304 20280 39971 49974 60046 70362 8462/ 333 10316 58098 70402 82708 83616 88458==
41950,2024,05,28,15,00,AAXX 28154 41950 02350 80000 10302 20280 39992 49994 8562/ 333 58074 70092 82708 84616 88458==
41950,2024,05,28,18,00,AAXX 28184 41950 02350 80000 10302 20280 39994 49996 8562/ 333 58064 70042 82708 84616 88458==
41950,2024,05,28,21,00,AAXX 28214 41950 02350 80000 10300 20280 39984 49986 8562/ 333 58036 70042 82708 84616 88458==
41950,2024,05,29,00,00,AAXX 29004 41950 02350 80000 10300 20280 39984 49986 8562/ 333 58026 70042 82708 84616 88458==
41950,2024,05,29,03,00,AAXX 29034 41950 42350 81702 10314 20270 30009 40011 8462/ 333 58030 81708 84616 88458==
41950,2024,05,29,06,00,AAXX 29064 41950 02350 71602 10335 20280 30004 40007 84610 333 58019 70042 81708 84616 86459==
41950,2024,05,29,09,00,AAXX 29094 41950 02350 71902 10330 20280 39988 49990 85610 333 58014 70000 81708 84616 88458==
41950,2024,05,29,12,00,AAXX 29124 41950 02350 71802 10316 20290 39986 49989 85610 333 10342 58015 70000 82708 84616 87459==
41950,2024,05,29,15,00,AAXX 29154 41950 02350 71702 10304 20290 30002 40005 85610 333 58010 70000 82708 84616 86459==
41950,2024,05,29,18,00,AAXX 29184 41950 02350 80000 10302 20270 30017 40019 8562/ 333 58023 70000 82708 84616 88458==
41950,2024,05,29,21,00,AAXX 29214 41950 02350 80000 10300 20280 30012 40014 8562/ 333 58028 70000 82708 84616 88458==
41950,2024,05,30,00,00,AAXX 30004 41950 02350 80000 10298 20280 30016 40018 8562/ 333 58032 70000 82708 84616 88458==
41950,2024,05,30,03,00,AAXX 30034 41950 02450 61805 10322 20280 30037 40040 83410 333 20294 58028 70000 83617 86459==
41950,2024,05,30,06,00,AAXX 30064 41950 02450 42304 10340 20270 30023 40026 84400 333 58019 70000 83617==
41950,2024,05,30,09,00,AAXX 30094 41950 02450 42002 10340 20270 30010 40012 84400 333 58022 70000 83617==
41950,2024,05,30,12,00,AAXX 30124 41950 02450 51802 10320 20270 30009 40012 83301 333 10345 58023 70000 82617 83080 81928==
41950,2024,05,30,15,00,AAXX 30154 41950 02450 41802 10305 20280 30029 40032 83500 333 58027 70000 83617==
41950,2024,05,30,18,00,AAXX 30184 41950 02450 31502 10300 20280 30027 40030 83500 333 58010 70000 83617==
41950,2024,05,30,21,00,AAXX 30214 41950 02450 60000 10284 20260 30012 40015 83510 333 58000 70000 83617 86459==
41951,2024,05,24,00,00,AAXX 24004 41951 02950 00000 10273 20250 30010 40015 333 59029 70000==
41951,2024,05,24,03,00,AAXX 24034 41951 02956 00502 10332 20260 30021 40026 333 20265 59018 70000==
41951,2024,05,24,06,00,AAXX 24064 41951 02956 00000 10362 20250 30013 40017 333 59017 70000==
41951,2024,05,24,09,00,AAXX 24094 41951 02456 51302 10368 20260 39990 49995 82510 333 59014 70000 82618 84459==
41951,2024,05,24,12,00,AAXX 24124 41951 02956 00000 10350 20270 39977 49982 333 10373 59018 70000==
41951,2024,05,24,15,00,AAXX 24154 41951 02450 21302 10313 20270 30007 40012 82500 333 59020 70000 82618==
41951,2024,05,24,18,00,AAXX 24184 41951 02450 30000 10299 20280 30009 40014 83500 333 59022 70000 83618==
41951,2024,05,24,21,00,AAXX 24214 41951 02450 50000 10295 20290 30003 40008 82510 333 59021 70000 82618 84459==
41951,2024,05,25,00,00,AAXX 25004 41951 02450 60000 10290 20270 39988 49993 83510 333 59022 70000 83618 85459==
41951,2024,05,25,03,00,AAXX 25034 41951 02956 01302 10345 20270 39997 40002 333 20283 59024 70000==
41951,2024,05,25,06,00,AAXX 25064 41951 02456 61303 10346 20280 39997 40001 83510 333 59016 70000 83618 85459==
41951,2024,05,25,09,00,AAXX 25094 41951 02456 41502 10367 20250 39975 49980 82508 333 59015 70000 82618 83278==
41951,2024,05,25,12,00,AAXX 25124 41951 02456 60502 10343 20250 39967 49972 83510 333 10369 59010 70000 83618 85459==
41951,2024,05,25,15,00,AAXX 25154 41951 01340 81002 10277 20270 39998 40003 70362 8562/ 333 59009 70184 81708 84618 88458==
41951,2024,05,25,18,00,AAXX 25184 41951 11340 80303 10290 20270 30000 40005 60186 70262 8562/ 333 59009 70184 81708 84618 88458==
41951,2024,05,25,21,00,AAXX 25214 41951 02340 81106 10290 20260 39982 49987 8562/ 333 59015 70184 81708 84618 88458==
41951,2024,05,26,00,00,AAXX 26004 41951 02340 80503 10292 20250 39976 49981 8562/ 333 59012 70184 81708 84618 88458==
41951,2024,05,26,03,00,AAXX 26034 41951 02340 80504 10306 20260 39977 49982 8562/ 333 20267 59020 70184 81708 84618 88458==
41951,2024,05,26,06,00,AAXX 26064 41951 02340 80709 10327 20250 39977 49982 8662/ 333 59020 70184 82706 84618 88458==
41951,2024,05,26,09,00,AAXX 26094 41951 02340 81309 10283 20270 39953 49958 8672/ 333 59022 70210 82706 84616 88458==
41951,2024,05,26,12,00,AAXX 26124 41951 01340 81309 10288 20270 39949 49954 70262 8662/ 333 10340 59018 70230 82706 84616 88458==
41951,2024,05,26,15,00,AAXX 26154 41951 01340 81314 10290 20260 39960 49965 70262 8662/ 333 59038 70054 82706 84616 88458==
41951,2024,05,26,18,00,AAXX 26184 41951 01330 81512 10280 20270 39948 49953 76262 8672/ 333 59052 70141 82706 84616 88458==
41951,2024,05,26,21,00,AAXX 26214 41951 01330 81224 10282 20270 39909 49914 76262 8672/ 333 59073 70193 82706 84616 88458==
41951,2024,05,27,00,00,AAXX 27004 41951 21340 81316 10278 20260 39906 49911 70262 8662/ 333 59070 60277 70413 82706 84616 88458==
41951,2024,05,27,06,00,AAXX 27064 41951 NIL=
41951,2024,05,27,12,00,AAXX 27124 41951 NIL=
41951,2024,05,27,15,00,AAXX 27154 41951 01330 81909 10274 20260 39858 49863 76166 8672/ 333 59102 71265 82706 84616 88458==
41951,2024,05,28,00,00,AAXX 28004 41951 02340 82713 10286 20260 39954 49959 8562/ 333 58048 70944 81708 84616 88458==
41951,2024,05,28,03,00,AAXX 28034 41951 02340 82706 10300 20250 39977 49982 8562/ 333 20266 58075 70899 81708 84616 88458==
41951,2024,05,28,06,00,AAXX 28064 41951 01330 81602 10278 20270 39984 49989 76322 8672/ 333 58083 70110 82706 84616 88458==
41951,2024,05,28,09,00,AAXX 28094 41951 01340 81502 10288 20280 39983 49988 70262 8562/ 333 58096 70412 81709 84618 88458==
41951,2024,05,28,12,00,AAXX 28124 41951 11340 80000 10292 20280 39974 49979 60021 70262 8562/ 333 10306 58075 70370 81708 84618 88458==
41951,2024,05,28,15,00,AAXX 28154 41951 02340 81502 10303 20290 39990 49995 8562/ 333 58132 70162 81708 84618 88458==
41951,2024,05,28,18,00,AAXX 28184 41951 02340 81303 10300 20290 39990 49995 8562/ 333 58053 70124 81708 84618 88458==
41951,2024,05,28,21,00,AAXX 28214 41951 02340 81403 10301 20290 39988 49993 8562/ 333 59040 70124 81709 84618 88458==
41951,2024,05,29,00,00,AAXX 29004 41951 02340 81804 10300 20290 39987 49992 8562/ 333 59033 70124 81709 84618 88458==
41951,2024,05,29,03,00,AAXX 29034 41951 02340 80000 10314 20280 30005 40010 8562/ 333 20274 58025 70124 81709 84618 88458==
41951,2024,05,29,06,00,AAXX 29064 41951 21450 72102 10338 20270 30010 40015 70162 83510 333 58026 69915 70019 83618 86459==
41951,2024,05,29,12,00,AAXX 29124 41951 02340 81808 10313 20280 39986 49991 8562/ 333 10342 58012 70001 81708 84618 88458==
41951,2024,05,29,18,00,AAXX 29184 41951 02340 82102 10306 20290 30012 40017 8562/ 333 58022 70001 81708 84618 88458==
41951,2024,05,29,21,00,AAXX 29214 41951 02340 82103 10304 20280 30014 40019 8562/ 333 58026 70001 81708 84618 88458==
41951,2024,05,30,00,00,AAXX 30004 41951 02340 81302 10298 20290 30017 40022 8562/ 333 58030 70001 81709 84618 88458==
41951,2024,05,30,03,00,AAXX 30034 41951 02340 81303 10320 20290 30034 40039 8562/ 333 20294 58029 70001 81709 84618 88458==
41951,2024,05,30,06,00,AAXX 30064 41951 02456 62112 10348 20270 30026 40031 83510 333 58016 70000 83618 85459==
41951,2024,05,30,09,00,AAXX 30094 41951 02450 71504 10338 20280 30009 40014 83510 333 58022 70000 83618 86459==
41951,2024,05,30,12,00,AAXX 30124 41951 02450 31404 10320 20280 30004 40009 83500 333 10350 58018 70000 83618==
41951,2024,05,30,15,00,AAXX 30154 41951 02340 81302 10305 20290 30029 40034 8562/ 333 58026 70000 81708 84618 88458==
41951,2024,05,30,18,00,AAXX 30184 41951 02340 82102 10302 20280 30025 40030 8562/ 333 58013 70000 81708 84618 88458==
41951,2024,05,30,21,00,AAXX 30214 41951 02330 81303 10295 20290 30017 40022 8672/ 333 58003 70062 82706 84616 88458==
41953,2024,05,24,00,00,AAXX 24004 41953 11940 00000 10250 20240 30022 40027 60406 70162 333 59018 70400==
41953,2024,05,24,03,00,AAXX 24034 41953 02950 00000 10325 20250 30030 40035 333 20245 59015 70400==
41953,2024,05,24,06,00,AAXX 24064 41953 02956 00000 10355 20260 30012 40017 333 59018 70400==
41953,2024,05,24,09,00,AAXX 24094 41953 02956 00000 10370 20240 39989 49994 333 59014 70400==
41953,2024,05,24,12,00,AAXX 24124 41953 02950 00000 10345 20270 39978 49983 333 10375 59020 70400==
41953,2024,05,24,15,00,AAXX 24154 41953 02940 00000 10312 20270 30006 40011 333 59017 70400==
41953,2024,05,24,18,00,AAXX 24184 41953 02440 50000 10296 20280 30014 40019 83510 333 59033 70400 83616 85458==
41953,2024,05,24,21,00,AAXX 24214 41953 02440 50000 10290 20280 30005 40010 83510 333 59035 70000 83616 85458==
41953,2024,05,25,00,00,AAXX 25004 41953 02940 00000 10280 20270 30000 40005 333 59022 70000==
41953,2024,05,25,03,00,AAXX 25034 41953 02450 50000 10340 20260 30003 40008 82510 333 20280 59027 70000 82618 85458==
41953,2024,05,25,06,00,AAXX 25064 41953 02450 61303 10360 20270 39994 49999 84410 333 59018 70000 83616 85458==
41953,2024,05,25,09,00,AAXX 25094 41953 02450 40000 10362 20250 39970 49975 84400 333 59019 70000 83618==
41953,2024,05,25,12,00,AAXX 25124 41953 02450 61305 10320 20250 39985 49990 83510 333 10366 58007 70000 83616 86458==
41953,2024,05,25,15,00,AAXX 25154 41953 01435 61303 10288 20280 30002 40007 70262 83510 333 59004 70010 83616 85458==
41953,2024,05,25,18,00,AAXX 25184 41953 NIL=
41953,2024,05,25,21,00,AAXX 25214 41953 02430 80503 10285 20280 30001 40006 8352/ 333 59004 70010 83616 88458==
41953,2024,05,26,00,00,AAXX 26004 41953 02440 80503 10280 20270 39989 49994 8352/ 333 59011 70010 83616 88458==
41953,2024,05,26,03,00,AAXX 26034 41953 02440 70505 10305 20250 39986 49991 83510 333 20278 59017 70010 83616 86458==
41953,2024,05,26,06,00,AAXX 26064 41953 02440 80907 10330 20230 39980 49985 8352/ 333 59014 70010 83616 88458==
41953,2024,05,26,09,00,AAXX 26094 41953 01440 81004 10296 20270 39959 49964 72162 8352/ 333 59011 70020 83616 88458==
41953,2024,05,26,12,00,AAXX 26124 41953 01435 81309 10280 20260 39954 49959 70266 8452/ 333 10332 59031 70050 84616 88458==
41953,2024,05,26,15,00,AAXX 26154 41953 02420 81310 10280 20250 39970 49975 8352/ 333 59032 70040 83616 88458==
41953,2024,05,26,18,00,AAXX 26184 41953 02410 81309 10278 20250 39969 49974 8352/ 333 59039 70040 83616 88458==
41953,2024,05,26,21,00,AAXX 26214 41953 01310 81312 10276 20260 39948 49953 70262 8672/ 333 59053 70070 84709 84614 88456==
41953,2024,05,27,00,00,AAXX 27004 41953 01310 81310 10268 20260 39921 49926 76362 8672/ 333 59068 70190 86709 85614 88456==
41953,2024,05,27,03,00,AAXX 27034 41953 01315 81312 10272 20260 39931 49936 76366 8672/ 333 20264 59055 70380 85708 85614 88456==
41953,2024,05,27,06,00,AAXX 27064 41953 21320 81311 10288 20270 39919 49924 70266 8662/ 333 59061 60559 70740 84709 84615 88458==
41953,2024,05,27,12,00,AAXX 27124 41953 21320 81310 10270 20260 39905 49910 76366 8672/ 333 10289 59049 60369 71060 85708 84614 88456==
41953,2024,05,27,15,00,AAXX 27154 41953 01320 81812 10280 20270 39924 49929 76166 8672/ 333 59046 71090 85708 84614 88456==
41953,2024,05,27,18,00,AAXX 27184 41953 21320 81811 10276 20270 39931 49936 76166 8672/ 333 59038 60119 71140 85708 84614 88456==
41953,2024,05,27,21,00,AAXX 27214 41953 01420 81810 10276 20270 39936 49941 70266 8662/ 333 59012 71160 85708 84615 88456==
41953,2024,05,28,00,00,AAXX 28004 41953 11440 82310 10280 20260 39933 49938 60026 70262 8352/ 333 58012 71040 83616 88458==
41953,2024,05,28,03,00,AAXX 28034 41953 02440 81808 10286 20250 39941 49946 8352/ 333 20267 58010 70850 83616 88458==
41953,2024,05,28,06,00,AAXX 28064 41953 02445 81302 10304 20260 39983 49988 8352/ 333 58064 70490 83616 88458==
41953,2024,05,28,09,00,AAXX 28094 41953 01430 82702 10254 20240 39987 49992 79596 8632/ 333 58090 70550 84614 88456 81930==
41953,2024,05,28,12,00,AAXX 28124 41953 21430 80000 10260 20250 39976 49981 70296 8352/ 333 10305 58071 60569 70690 83616 88458==
41953,2024,05,28,15,00,AAXX 28154 41953 02420 81302 10290 20280 39998 40003 8352/ 333 58074 70630 83616 88458==
41953,2024,05,28,18,00,AAXX 28184 41953 02415 81306 10280 20270 30002 40007 8352/ 333 58071 70580 83616 88458==
41953,2024,05,28,21,00,AAXX 28214 41953 02415 81305 10286 20280 30001 40006 8352/ 333 58065 70560 83616 88458==
41953,2024,05,29,00,00,AAXX 29004 41953 02430 81802 10298 20280 30000 40005 8352/ 333 58067 70560 83616 88458==
41953,2024,05,29,03,00,AAXX 29034 41953 02440 81803 10320 20280 30020 40025 8352/ 333 20248 58079 70560 83616 88458==
41953,2024,05,29,06,00,AAXX 29064 41953 02440 61808 10340 20280 30014 40019 83510 333 58031 70560 83616 85458==
41953,2024,05,29,09,00,AAXX 29094 41953 02450 41807 10330 20280 39989 49994 84400 333 58002 70280 83618==
41953,2024,05,29,12,00,AAXX 29124 41953 02440 81808 10310 20270 39992 49997 8352/ 333 10346 59004 70000 83616 88458==
41953,2024,05,29,15,00,AAXX 29154 41953 02430 81809 10300 20280 30010 40015 8352/ 333 58012 70000 83616 88458==
41953,2024,05,29,18,00,AAXX 29184 41953 02430 81807 10295 20290 30009 40014 8352/ 333 58007 70000 83616 88458==
41953,2024,05,29,21,00,AAXX 29214 41953 02430 81804 10295 20280 30011 40016 8352/ 333 58010 70000 83616 88458==
41953,2024,05,30,00,00,AAXX 30004 41953 02440 80000 10296 20280 30034 40039 8352/ 333 58034 70000 83616 88458==
41953,2024,05,30,03,00,AAXX 30034 41953 02440 81805 10320 20270 30049 40054 8352/ 333 20287 58029 70000 83616 88458==
41953,2024,05,30,06,00,AAXX 30064 41953 02450 81304 10338 20270 30034 40039 8352/ 333 58020 70000 83616 88458==
41953,2024,05,30,09,00,AAXX 30094 41953 02450 61304 10334 20270 30018 40023 83510 333 58029 70000 83616 84458==
41953,2024,05,30,12,00,AAXX 30124 41953 02440 51802 10320 20270 30017 40022 83510 333 10340 58025 70000 83618 84458==
41953,2024,05,30,15,00,AAXX 30154 41953 02930 01802 10298 20280 30036 40041 333 58026 70000==
41953,2024,05,30,18,00,AAXX 30184 41953 02430 51802 10294 20280 30037 40042 83510 333 58028 70000 83618 84458==
41953,2024,05,30,21,00,AAXX 30214 41953 02930 01302 10292 20280 30033 40038 333 58022 70000==
41955,2024,05,24,00,00,AAXX 24004 41955 NIL=
41955,2024,05,24,03,00,AAXX 24034 41955 NIL=
41955,2024,05,24,12,00,AAXX 24124 41955 NIL=
41955,2024,05,24,18,00,AAXX 24184 41955 NIL=
41955,2024,05,25,00,00,AAXX 25004 41955 NIL=
41955,2024,05,25,06,00,AAXX 25064 41955 NIL=
41955,2024,05,25,12,00,AAXX 25124 41955 NIL=
41955,2024,05,25,18,00,AAXX 25184 41955 NIL=
41955,2024,05,26,18,00,AAXX 26184 41955 NIL=
41955,2024,05,27,06,00,AAXX 27064 41955 NIL=
41955,2024,05,27,12,00,AAXX 27124 41955 NIL=
41955,2024,05,28,06,00,AAXX 28064 41955 NIL=
41955,2024,05,28,12,00,AAXX 28124 41955 NIL=
41955,2024,05,28,18,00,AAXX 28184 41955 NIL=
41955,2024,05,29,00,00,AAXX 29004 41955 NIL=
41955,2024,05,29,06,00,AAXX 29064 41955 NIL=
41955,2024,05,29,12,00,AAXX 29124 41955 NIL=
41955,2024,05,29,18,00,AAXX 29184 41955 NIL=
41955,2024,05,30,00,00,AAXX 30004 41955 NIL=
41955,2024,05,30,06,00,AAXX 30064 41955 NIL=
41955,2024,05,30,12,00,AAXX 30124 41955 NIL=
41958,2024,05,24,00,00,AAXX 24004 41958 32950 00000 10280 20280 30014 40016 333 59019 70000=
41958,2024,05,24,03,00,AAXX 24034 41958 32958 00000 10367 20270 30013 40015 333 59021 70000=
41958,2024,05,24,09,00,AAXX 24094 41958 32958 00000 10380 20270 39988 49990 333 59019 70000=
41958,2024,05,24,12,00,AAXX 24124 41958 32956 00000 10355 20270 39978 49980 333 10380 59024 70000=
41958,2024,05,24,15,00,AAXX 24154 41958 32950 01701 10310 20270 30008 40010 333 59013 70000=
41958,2024,05,24,18,00,AAXX 24184 41958 32940 00000 10297 20290 30006 40008 333 59020 70000=
41958,2024,05,24,21,00,AAXX 24214 41958 32940 00000 10296 20290 39996 49998 333 59020 70000=
41958,2024,05,25,00,00,AAXX 25004 41958 32450 20000 10295 20290 39993 49995 82500 333 56900 59021 70000 82617=
41958,2024,05,25,03,00,AAXX 25034 41958 32457 61302 10348 20280 39997 49999 83410 333 20284 56390 59029 70000 83616 85459=
41958,2024,05,25,06,00,AAXX 25064 41958 32456 81304 10356 20280 39991 49993 8432/ 333 56399 59022 70000 84616 81929 88458=
41958,2024,05,25,09,00,AAXX 25094 41958 32458 20504 10363 20260 39997 49999 82500 333 56200 58009 70000 82617=
41958,2024,05,25,12,00,AAXX 25124 41958 32456 20503 10334 20250 39962 49964 82500 333 10366 56100 59016 70000 82617=
41958,2024,05,25,15,00,AAXX 25154 41958 21450 80903 10277 20270 39991 49993 76162 8542/ 333 56499 59017 6991/ 70001 84616 88459=
41958,2024,05,25,18,00,AAXX 25184 41958 11440 81304 10284 20260 39986 49988 69915 70262 8532/ 333 56199 59022 70001 84616 81929 85458=
41958,2024,05,25,21,00,AAXX 25214 41958 32340 80505 10285 20270 39967 49969 8562/ 333 56199 59029 70001 81708 84616 88458=
41958,2024,05,26,00,00,AAXX 26004 41958 32350 80505 10293 20250 39960 49962 8562/ 333 56199 59033 70001 81708 84616 88458=
41958,2024,05,26,03,00,AAXX 26034 41958 21456 80305 10290 20260 39956 49958 76162 8532/ 333 20272 56199 59041 60014 70008 84616 81930 88459=
41958,2024,05,26,06,00,AAXX 26064 41958 11456 80307 10300 20270 39941 49943 60013 76166 8532/ 333 56199 59050 70009 84616 81930 88459=
41958,2024,05,26,09,00,AAXX 26094 41958 21456 81208 10294 20270 39914 49916 76166 8542/ 333 56299 59083 6003/ 70035 84616 88459=
41958,2024,05,26,12,00,AAXX 26124 41958 11440 80920 10284 20260 39904 49907 60039 76166 8672/ 333 10303 56299 59057 70039 83709 84616 88459=
41958,2024,05,26,15,00,AAXX 26154 41958 21440 80924 10280 20260 39904 49906 76166 8672/ 333 56299 59087 6996/ 70044 83709 84616 88459=
41958,2024,05,26,18,00,AAXX 26184 41958 11340 81141 10265 20260 39853 49855 60229 71866 8672/ 333 56399 59133 70254 83708 84614 88458=
41958,2024,05,26,21,00,AAXX 26214 41958 21340 81120 10276 20276 39765 49767 76366 8672/ 333 56399 59205 6036/ 70614 83708 84616 88458=
41958,2024,05,27,00,00,AAXX 27004 41958 11340 81120 10270 20270 39802 49804 60429 76166 8672/ 333 56399 59158 70674 83708 84616 88458=
41958,2024,05,27,03,00,AAXX 27034 41958 21340 81822 10270 20260 39809 49811 76366 8672/ 333 20260 56499 59147 6013/ 70799 83707 84616 88458=
41958,2024,05,27,06,00,AAXX 27064 41958 11340 81807 10270 20270 39831 49833 60499 76166 8672/ 333 56499 59110 71154 83707 84614 88458=
41958,2024,05,27,09,00,AAXX 27094 41958 21340 82511 10270 20270 39836 49838 76366 8672/ 333 56599 59078 6031/ 71436 83707 84613 88458=
41958,2024,05,27,12,00,AAXX 27124 41958 NIL=
41958,2024,05,27,15,00,AAXX 27154 41958 21340 82507 10264 20260 39928 49930 70266 8672/ 333 56599 58024 6016/ 71996 83708 84616 88459=
41958,2024,05,27,18,00,AAXX 27184 41958 11440 82505 10270 20260 39944 49947 60166 70262 8542/ 333 56599 58091 71786 84616 88459=
41958,2024,05,27,21,00,AAXX 27214 41958 32440 82701 10274 20250 39953 49955 8542/ 333 56599 58188 71426 84616 88459=
41958,2024,05,28,00,00,AAXX 28004 41958 32450 82701 10274 20250 39962 49964 8542/ 333 56599 58158 71366 84616 88459=
41958,2024,05,28,03,00,AAXX 28034 41958 32457 80000 10296 20270 39984 49986 8542/ 333 20262 56599 58175 71234 84616 88459=
41958,2024,05,28,06,00,AAXX 28064 41958 32457 80000 10320 20270 39980 49982 8542/ 333 56599 58149 70878 84616 88459=
41958,2024,05,28,09,00,AAXX 28094 41958 32458 80000 10316 20280 39965 49967 8542/ 333 56999 58129 70570 84616 88459=
41958,2024,05,28,12,00,AAXX 28124 41958 32456 81702 10316 20290 39965 49967 8542/ 333 10335 56599 58094 70160 84616 88459=
41958,2024,05,28,15,00,AAXX 28154 41958 32450 41703 10304 20290 39984 49986 84500 333 56400 58056 70000 84616=
41958,2024,05,28,18,00,AAXX 28184 41958 32440 81703 10300 20290 39986 49989 8542/ 333 56499 58042 70000 84616 88459=
41958,2024,05,28,21,00,AAXX 28214 41958 32440 41703 10300 20280 39972 49974 84400 333 56400 58019 70000 83616=
41958,2024,05,29,00,00,AAXX 29004 41958 32450 51705 10300 20280 39977 49979 85400 333 56400 58015 70000 84616=
41958,2024,05,29,03,00,AAXX 29034 41958 32457 62505 10324 20280 30002 40004 85410 333 20292 56590 58018 70000 84616 86459=
41958,2024,05,29,06,00,AAXX 29064 41958 32458 52505 10346 20280 39992 49994 85400 333 85400 333 56500 58012 70000 84616=
41958,2024,05,29,09,00,AAXX 29094 41958 32458 82505 10326 20290 39983 49985 8532/ 333 56599 58018 70000 84616 81930 88459=
41958,2024,05,29,12,00,AAXX 29124 41958 32456 82505 10310 20290 39982 49985 8542/ 333 10347 56599 58017 70000 84616 88459=
41958,2024,05,29,15,00,AAXX 29154 41958 32450 82306 10306 20290 39995 49997 8542/ 333 56599 58011 70000 84616 88459=
41958,2024,05,29,18,00,AAXX 29184 41958 32440 82305 10300 20290 30005 40007 8542/ 333 56599 58019 70000 84616 88459=
41958,2024,05,29,21,00,AAXX 29214 41958 32440 82301 10302 20280 30008 40010 8442/ 333 56599 58031 70000 83616 88459=
41958,2024,05,30,00,00,AAXX 30004 41958 32450 82104 10302 20280 30008 40010 8542/ 333 56599 58031 70000 84616 88459=
41958,2024,05,30,03,00,AAXX 30034 41958 32456 82105 10316 20290 30033 40035 8542/ 333 20300 56599 58031 70000 84616 88459=
41958,2024,05,30,06,00,AAXX 30064 41958 32456 62304 10350 20270 30015 40017 85410 333 56590 58023 70000 84616 86459=
41958,2024,05,30,09,00,AAXX 30094 41958 32458 42004 10340 20280 30002 40005 84400 333 56500 58019 70000 83617=
41958,2024,05,30,12,00,AAXX 30124 41958 32456 42104 10318 20270 30004 40006 84400 333 10351 56500 58022 70000 83617=
41958,2024,05,30,15,00,AAXX 30154 41958 32450 32104 10306 20280 30021 40023 83500 333 56500 58026 70000 83617=
41958,2024,05,30,18,00,AAXX 30184 41958 32440 32102 10304 20280 30027 40029 83500 333 56500 58022 70000 83617=
41958,2024,05,30,21,00,AAXX 30214 41958 21440 82101 10264 20250 30018 40020 72120 8542/ 333 56599 58015 6994/ 70004 84616 88459=
41960,2024,05,24,00,00,AAXX 24004 41960 02450 20000 10274 20260 30017 40019 82400 333 59018 70000 82618==
41960,2024,05,24,03,00,AAXX 24034 41960 02956 00000 10334 20260 30025 40027 333 20270 59026 70000==
41960,2024,05,24,06,00,AAXX 24064 41960 02457 30000 10356 20260 30016 40017 83400 333 59020 70000 82618==
41960,2024,05,24,09,00,AAXX 24094 41960 02458 21801 10367 20260 39994 49996 82500 333 59014 70000 82618==
41960,2024,05,24,12,00,AAXX 24124 41960 02957 21802 10350 20280 39983 49985 80001 333 10377 59021 70000 82080==
41960,2024,05,24,15,00,AAXX 24154 41960 02950 00000 10308 20280 30009 40010 333 59018 70000==
41960,2024,05,24,18,00,AAXX 24184 41960 02950 00000 10297 20290 30014 40015 333 59017 70000==
41960,2024,05,24,21,00,AAXX 24214 41960 02550 20000 10294 20280 30005 40007 82100 333 59020 70000 82825==
41960,2024,05,25,00,00,AAXX 25004 41960 02550 20000 10292 20280 39998 49999 82209 333 59019 70000 82825==
41960,2024,05,25,03,00,AAXX 25034 41960 02456 60000 10330 20280 39994 49995 85410 333 20287 59031 70000 83618 86459==
41960,2024,05,25,06,00,AAXX 25064 41960 02457 41802 10344 20260 39992 49994 85410 333 59024 70000 82618 84459==
41960,2024,05,25,09,00,AAXX 25094 41960 02458 31602 10357 20260 39973 49975 83400 333 59021 70000 82618==
41960,2024,05,25,12,00,AAXX 25124 41960 02456 71610 10334 20250 39972 49974 85370 333 10361 59011 70000 83618 85459 81930==
41960,2024,05,25,15,00,AAXX 25154 41960 01440 81804 10273 20260 39998 49999 76196 8532/ 333 59011 70094 83616 88458 81928==
41960,2024,05,25,18,00,AAXX 25184 41960 NIL=
41960,2024,05,25,21,00,AAXX 25214 41960 02450 81608 10290 20260 39972 49973 8662/ 333 59023 70104 81708 84617 83822 88459==
41960,2024,05,26,00,00,AAXX 26004 41960 02340 80905 10290 20260 39972 49973 8662/ 333 59026 70104 82709 84614 88458==
41960,2024,05,26,03,00,AAXX 26034 41960 01350 80906 10296 20260 39962 49964 70262 8662/ 333 20265 59032 70124 82709 84615 88459==
41960,2024,05,26,06,00,AAXX 26064 41960 01350 80923 10296 20270 39954 49956 76162 8672/ 333 59038 70134 82708 84615 88458==
41960,2024,05,26,09,00,AAXX 26094 41960 41340 80925 10292 20260 39935 49937 59038 70138 88458==
41960,2024,05,26,12,00,AAXX 26124 41960 21330 80912 10279 20260 39928 49929 76166 8672/ 333 10314 59044 60029 70150 82707 84615 88458==
41960,2024,05,26,15,00,AAXX 26154 41960 01320 80940 10281 20260 39939 40040 76162 8672/ 333 59059 70062 82707 84615 88458==
41960,2024,05,26,18,00,AAXX 26184 41960 21320 80945 10270 20260 39914 49916 71866 8672/ 333 59079 60149 70182 83707 84612 88458==
41960,2024,05,26,21,00,AAXX 26214 41960 01320 80906 10277 20270 39879 49880 71866 8672/ 333 59093 70486 83707 84612 88458 81928==
41960,2024,05,27,03,00,AAXX 27034 41960 01220 81336 10272 20260 39887 49889 76366 8772/ 333 20260 59057 70872 83707 84612 88457==
41960,2024,05,27,06,00,AAXX 27064 41960 NIL=
41960,2024,05,27,09,00,AAXX 27094 41960 01215 81945 10273 20270 39886 49887 76596 8672/ 333 59049 72030 83706 84612 88458==
41960,2024,05,27,12,00,AAXX 27124 41960 21320 81812 10270 20270 39900 49901 76196 8672/ 333 10310 59028 60949 72106 83707 84612 88458==
41960,2024,05,27,15,00,AAXX 27154 41960 01320 82520 10284 20260 39985 49987 76166 8672/ 333 58006 72122 82708 84614 88458==
41960,2024,05,27,18,00,AAXX 27184 41960 21440 82727 10290 20250 39948 49949 70262 8542/ 333 58034 60028 71992 84617 83822 88459==
41960,2024,05,27,21,00,AAXX 27214 41960 01340 81910 10290 20260 39959 49961 71792 8692/ 333 58080 71688 82709 84615 88458 81929==
41960,2024,05,28,00,00,AAXX 28004 41960 41340 81803 10288 20260 39969 49971 58086 71454 88458==
41960,2024,05,28,03,00,AAXX 28034 41960 01350 80000 10280 20260 39985 49987 72996 8662/ 333 20260 58098 71010 82708 83615 88457 81925==
41960,2024,05,28,06,00,AAXX 28064 41960 21350 80000 10296 20270 39983 49985 71796 8692/ 333 58095 60055 70158 82708 83616 88457 81926==
41960,2024,05,28,09,00,AAXX 28094 41960 01450 80804 10320 20290 39976 49978 70296 8632/ 333 58090 70162 84615 83822 88458 81930==
41960,2024,05,28,12,00,AAXX 28124 41960 11450 81802 10308 20290 39977 49979 69946 70296 8542/ 333 10322 58077 70074 84616 83822 88458==
41960,2024,05,28,15,00,AAXX 28154 41960 02450 81806 10304 20280 39995 49997 8542/ 333 58050 70052 84617 83822 88459==
41960,2024,05,28,18,00,AAXX 28184 41960 02450 81808 10301 20280 39997 49999 8542/ 333 58049 70052 84617 88459==
41960,2024,05,28,21,00,AAXX 28214 41960 02450 81804 10300 20290 39995 49997 8542/ 333 58036 70052 83618 88459==
41960,2024,05,29,00,00,AAXX 29004 41960 02450 81805 10300 20290 39993 49995 8542/ 333 58024 70052 83618 88459==
41960,2024,05,29,03,00,AAXX 29034 41960 02456 81806 10312 20290 30014 40016 8542/ 333 20278 58029 70004 83618 88459==
41960,2024,05,29,06,00,AAXX 29064 41960 02457 61808 10330 20290 30008 40010 85410 333 58025 70004 83618 86459==
41960,2024,05,29,09,00,AAXX 29094 41960 02456 71806 10333 20290 39996 49997 85410 333 58020 70000 83618 85459==
41960,2024,05,29,12,00,AAXX 29124 41960 02450 81806 10313 20290 39993 49994 8542/ 333 10337 58016 70000 84617 88459==
41960,2024,05,29,15,00,AAXX 29154 41960 02450 81606 10307 20290 30008 40010 85410 333 58013 70000 84617 83822 88459==
41960,2024,05,29,18,00,AAXX 29184 41960 02804 10306 20290 30015 40017 8542/ 333 58020 70000 84617 88459==
41960,2024,05,29,21,00,AAXX 29214 41960 02450 81803 10302 20280 30019 40021 8452/ 333 58024 70000 84617 88459==
41960,2024,05,30,00,00,AAXX 30004 41960 02450 81802 10300 20290 30022 40024 8542/ 333 58029 70000 84617 88459==
41960,2024,05,30,03,00,AAXX 30034 41960 02456 61802 10330 20290 30039 40041 85410 333 20296 58025 70000 82618 85459==
41960,2024,05,30,06,00,AAXX 30064 41960 02456 82305 10342 20280 30032 40034 8542/ 333 58024 70000 83618 88459==
41960,2024,05,30,09,00,AAXX 30094 41960 02450 71806 10334 20240 30015 40016 85410 333 58019 70000 83618 87459==
41960,2024,05,30,12,00,AAXX 30124 41960 02450 61804 10317 20280 30014 40016 85410 333 10346 58020 70000 83618 86459==
41960,2024,05,30,15,00,AAXX 30154 41960 02450 81802 10307 20290 30034 40036 8542/ 333 58026 70000 84617 88458==
41960,2024,05,30,18,00,AAXX 30184 41960 02450 61602 10300 20280 30033 40035 85410 333 58018 70000 83618 86459==
41963,2024,05,24,00,00,AAXX 24004 41963 02940 23601 10290 20280 30029 40031 80001 333 59010 70000 82080==
41963,2024,05,24,03,00,AAXX 24034 41963 02957 03601 10330 20250 30034 40036 333 20275 59017 70000==
41963,2024,05,24,06,00,AAXX 24064 41963 02958 03601 10350 20260 30026 40029 333 59013 70000==
41963,2024,05,24,09,00,AAXX 24094 41963 02958 01301 10360 20250 30005 40008 333 59005 70000==
41963,2024,05,24,12,00,AAXX 24124 41963 02956 01801 10330 20270 30002 40005 333 10375 59013 70000==
41963,2024,05,24,15,00,AAXX 24154 41963 02950 00000 10302 20280 30013 40016 333 59016 70000==
41963,2024,05,24,18,00,AAXX 24184 41963 02940 00000 10300 20290 30026 40028 333 59011 70000==
41963,2024,05,24,21,00,AAXX 24214 41963 02940 00000 10298 20290 30022 40024 333 59010 70000==
41963,2024,05,25,00,00,AAXX 25004 41963 02440 61301 10295 20290 30006 40008 82510 333 59022 70000 82618 86458==
41963,2024,05,25,03,00,AAXX 25034 41963 02456 41803 10325 20270 30013 40015 82510 333 20274 59021 70000 82618 84458==
41963,2024,05,25,06,00,AAXX 25064 41963 01457 51803 10340 20260 30006 40009 70362 82510 333 59020 70020 82618 85458==
41963,2024,05,25,09,00,AAXX 25094 41963 02458 21802 10350 20260 39999 40002 82500 333 59003 70020 82618==
41963,2024,05,25,12,00,AAXX 25124 41963 02450 21802 10320 20270 39995 49998 82500 333 10360 59007 70020 82618==
41963,2024,05,25,15,00,AAXX 25154 41963 01330 81302 10280 20260 30006 40009 70596 8372/ 333 59007 70420 82708 83616 88458==
41963,2024,05,25,18,00,AAXX 25184 41963 NIL=
41963,2024,05,25,21,00,AAXX 25214 41963 01330 81412 10280 20260 39994 49997 70523 8372/ 333 59028 70420 82708 83616 88458==
41963,2024,05,26,00,00,AAXX 26004 41963 01330 81308 10295 20260 39986 49989 70522 8372/ 333 59020 70420 82708 83616 88458==
41963,2024,05,26,06,00,AAXX 26064 41963 02456 81316 10310 20260 39981 49984 8372/ 333 59025 70400 82708 83616 88458==
41963,2024,05,26,09,00,AAXX 26094 41963 01340 81315 10280 20260 39966 49969 76162 8372/ 333 59033 70500 82708 83616 88458==
41963,2024,05,26,12,00,AAXX 26124 41963 01340 81318 10285 20270 39967 49969 70262 8372/ 333 10320 59028 70520 82708 83618 88456==
41963,2024,05,26,15,00,AAXX 26154 41963 01330 81322 10290 20240 39975 49977 70262 8372/ 333 59033 70150 82708 83616 88456==
41963,2024,05,26,18,00,AAXX 26184 41963 01320 81325 10275 20270 39966 49968 76162 8372/ 333 59033 70200 82708 83616 88456==
41963,2024,05,26,21,00,AAXX 26214 41963 01320 81330 10273 20270 39964 49966 76166 8372/ 333 59030 70250 82708 83615 88456==
41963,2024,05,27,00,00,AAXX 27004 41963 21320 81348 10252 20252 39938 49940 76366 8372/ 333 59048 60269 70460 82708 83615 88456==
41963,2024,05,27,03,00,AAXX 27034 41963 01340 81821 10270 20270 39943 49946 76166 8372/ 333 20250 59039 70520 82708 83616 88456==
41963,2024,05,27,06,00,AAXX 27064 41963 21340 81816 10272 20272 39945 49947 76166 8372/ 333 59036 60269 70720 82708 83614 88456==
41963,2024,05,27,09,00,AAXX 27094 41963 01340 81821 10290 20270 39928 49931 70262 8372/ 333 59038 70680 82708 83614 88456==
41963,2024,05,27,12,00,AAXX 27124 41963 01320 81815 10265 20265 39937 49939 79596 8392/ 333 10295 59030 70810 82708 83614 88456 82928==
41963,2024,05,27,15,00,AAXX 27154 41963 01320 81805 10270 20270 39944 49947 72196 8392/ 333 59031 71400 82708 83616 88456 82926==
41963,2024,05,28,00,00,AAXX 28004 41963 01330 81309 10290 20280 39971 49973 71722 8492/ 333 58033 71120 82708 83616 88456 82928==
41963,2024,05,28,03,00,AAXX 28034 41963 01340 81807 10290 20280 39981 49983 71762 8492/ 333 20250 58038 71090 82708 83616 88458 82928==
41963,2024,05,28,06,00,AAXX 28064 41963 01340 81805 10250 20250 39997 40000 79596 8492/ 333 58025 71640 82708 83615 88456 82926==
41963,2024,05,28,09,00,AAXX 28094 41963 01350 51303 10305 20300 39986 49989 70196 82510 333 58058 71600 82618 85458==
41963,2024,05,28,12,00,AAXX 28124 41963 11440 51801 10300 20290 39987 49990 60026 70296 82510 333 10310 58050 71450 82618 85458==
41963,2024,05,28,15,00,AAXX 28154 41963 01430 51801 10300 20290 30005 40008 70522 82510 333 58061 70780 82618 84458==
41963,2024,05,28,18,00,AAXX 28184 41963 01430 81803 10290 20290 30004 40006 70522 8372/ 333 58054 70800 82710 83615 88458==
41963,2024,05,29,00,00,AAXX 29004 41963 01440 81803 10300 20290 30006 40009 70522 8372/ 333 58035 70800 82708 83616 88458==
41963,2024,05,29,03,00,AAXX 29034 41963 02450 51802 10310 20280 30023 40025 82510 333 20245 58042 70770 82618 85458==
41963,2024,05,29,06,00,AAXX 29064 41963 02456 51802 10325 20290 30033 40036 82510 333 58036 70020 82618 85458==
41963,2024,05,29,09,00,AAXX 29094 41963 02456 51804 10320 20290 30018 40020 82510 333 58032 70000 82618 85458==
41963,2024,05,29,12,00,AAXX 29124 41963 02450 51803 10305 20290 30009 40011 82510 333 10330 58022 70000 82618 85458==
41963,2024,05,29,15,00,AAXX 29154 41963 02440 51802 10300 20290 30016 40018 82510 333 58011 70000 82618 85458==
41963,2024,05,29,18,00,AAXX 29184 41963 NIL=
41963,2024,05,29,21,00,AAXX 29214 41963 02440 51801 10290 20270 30018 40020 82510 333 58009 70000 82618 85458==
41963,2024,05,30,00,00,AAXX 30004 41963 02450 61801 10300 20290 30033 40035 82510 333 58027 70000 82618 86458==
41963,2024,05,30,03,00,AAXX 30034 41963 02456 71802 10325 20290 30050 40052 82510 333 20285 58027 70000 82618 87458==
41963,2024,05,30,06,00,AAXX 30064 41963 02456 51802 10330 20290 30041 40043 82510 333 58008 70000 82618 85458==
41963,2024,05,30,09,00,AAXX 30094 41963 02456 51802 10325 20300 30032 40034 82510 333 58014 70000 82618 85458==
41963,2024,05,30,12,00,AAXX 30124 41963 02450 21803 10320 20290 30025 40027 82500 333 10340 58016 70000 82618==
41963,2024,05,30,21,00,AAXX 30214 41963 02940 01801 10298 20290 30045 40046 333 58027 70000==
41964,2024,05,24,00,00,AAXX 24004 41964 NIL=
41964,2024,05,24,03,00,AAXX 24034 41964 02/57 20501 10330 20250 30018 40020 82010 333 20260 59016 70000 82460==
41964,2024,05,24,06,00,AAXX 24064 41964 02958 01402 10360 20250 30008 40011 333 59011 70000==
41964,2024,05,24,09,00,AAXX 24094 41964 02958 02302 10360 20270 39981 49983 333 59014 70000==
41964,2024,05,24,12,00,AAXX 24124 41964 02/57 32302 10325 20270 39982 49984 83010 333 10374 59015 70000 83460==
41964,2024,05,24,18,00,AAXX 24184 41964 02/50 31801 10284 20260 30008 40011 83010 333 59026 70000 83460==
41964,2024,05,25,00,00,AAXX 25004 41964 NIL=
41964,2024,05,25,03,00,AAXX 25034 41964 02457 51401 10330 20260 39998 40001 82510 333 20273 59020 70000 82618 84460==
41964,2024,05,25,06,00,AAXX 25064 41964 02458 41702 10357 20270 39991 49993 82510 333 59017 70000 82618 83460==
41964,2024,05,25,09,00,AAXX 25094 41964 01458 61402 10327 20270 39969 49971 71722 84310 333 59012 70000 84617 84460 81928==
41964,2024,05,25,12,00,AAXX 25124 41964 01350 81504 10286 20270 39977 49980 76192 8632/ 333 10368 59005 70001 84707 85615 88458 81928==
41964,2024,05,25,15,00,AAXX 25154 41964 01357 81503 10286 20270 30000 40003 70262 8562/ 333 59003 70007 82709 84616 88460==
41964,2024,05,25,18,00,AAXX 25184 41964 NIL=
41964,2024,05,25,21,00,AAXX 25214 41964 02456 71303 10288 20250 39980 49983 83510 333 59016 70007 83617 86460==
41964,2024,05,26,00,00,AAXX 26004 41964 02358 71203 10296 20260 39978 49981 8561/ 333 59006 70007 81709 85615 87460==
41964,2024,05,26,03,00,AAXX 26034 41964 02458 61006 10323 20250 39977 49980 83510 333 20278 59021 70007 83618 85460==
41964,2024,05,26,06,00,AAXX 26064 41964 02458 61006 10334 20250 39963 49966 83520 333 59028 70007 83618 85460==
41964,2024,05,26,09,00,AAXX 26094 41964 01350 81208 10284 20260 39954 49957 76162 8672/ 333 59015 70023 84707 85615 88457==
41964,2024,05,26,12,00,AAXX 26124 41964 21357 81210 10279 20260 39949 49952 70262 8662/ 333 10341 59028 60079 70078 83709 85615 88458==
41964,2024,05,26,15,00,AAXX 26154 41964 01356 81610 10282 20240 39972 49974 75152 8672/ 333 59028 70073 83709 85615 88458==
41964,2024,05,26,18,00,AAXX 26184 41964 01340 81407 10277 20270 39965 49967 76165 8672/ 333 59031 70093 84707 85614 88457==
41964,2024,05,26,21,00,AAXX 26214 41964 01356 81415 10274 20260 39950 49953 70262 8662/ 333 59030 70103 82708 85614 88458==
41964,2024,05,27,00,00,AAXX 27004 41964 01330 81508 10277 20270 39935 49938 76362 8772/ 333 59043 70151 85707 84614 88457==
41964,2024,05,27,03,00,AAXX 27034 41964 01325 81415 10269 20270 39941 49943 76596 8772/ 333 20259 59036 70687 85707 85614 88457==
41964,2024,05,27,06,00,AAXX 27064 41964 21330 81314 10276 20276 39946 49949 79596 8592/ 333 59017 61059 71197 83707 83614 88456 81927==
41964,2024,05,27,09,00,AAXX 27094 41964 01357 81314 10294 20270 39936 49938 72196 8662/ 333 59018 71221 83708 85614 88458==
41964,2024,05,27,12,00,AAXX 27124 41964 01325 81715 10295 20280 39916 49918 79596 8792/ 333 10298 59033 71457 85707 85614 88457 81927==
41964,2024,05,27,15,00,AAXX 27154 41964 01325 82114 10294 20280 39933 49936 76396 8772/ 333 59039 71802 85707 85613 88457==
41964,2024,05,27,18,00,AAXX 27184 41964 21356 82114 10290 20280 39945 49947 71396 8632/ 333 59020 60368 71800 82708 84615 88458 81928==
41964,2024,05,27,21,00,AAXX 27214 41964 01356 81914 10295 20290 39948 49950 72122 8662/ 333 59002 71804 82708 85615 88458==
41964,2024,05,28,00,00,AAXX 28004 41964 21357 82013 10300 20280 39952 49955 71762 8632/ 333 58017 60015 71756 83708 85615 88458 81928==
41964,2024,05,28,03,00,AAXX 28034 41964 01357 82309 10301 20260 39976 49978 70296 8662/ 333 20260 58035 71322 84709 83617 88459==
41964,2024,05,28,06,00,AAXX 28064 41964 NIL=
41964,2024,05,28,09,00,AAXX 28094 41964 02357 82406 10306 20290 39973 40075 8662/ 333 58037 70792 82709 85616 88460==
41964,2024,05,28,12,00,AAXX 28124 41964 02357 82205 10302 20290 39977 49979 8662/ 333 10309 58061 70500 83709 85616 88460==
41964,2024,05,28,15,00,AAXX 28154 41964 02356 82105 10300 20290 39995 49997 8662/ 333 58062 70154 82709 85616 88460==
41964,2024,05,28,18,00,AAXX 28184 41964 02356 82007 10298 20290 39995 49997 8562/ 333 58050 70136 82708 85616 88460==
41964,2024,05,28,21,00,AAXX 28214 41964 02456 82106 10297 20290 39997 49999 8452/ 333 58049 70122 84616 88460==
41964,2024,05,29,00,00,AAXX 29004 41964 02457 82106 10300 20290 30000 40002 8351/ 333 58052 70122 83617 88460==
41964,2024,05,29,03,00,AAXX 29034 41964 02457 71607 10319 20290 30016 40018 85510 333 20257 58040 70020 85618 86460==
41964,2024,05,29,06,00,AAXX 29064 41964 02457 71810 10335 20270 30018 40020 84520 333 58045 70000 84618 86460==
41964,2024,05,29,09,00,AAXX 29094 41964 02457 72108 10327 20290 39999 40002 83510 333 58026 70000 83617 86460==
41964,2024,05,29,12,00,AAXX 29124 41964 02457 61906 10308 20290 39995 49998 82542 333 10337 58018 70000 82618 84362 85078==
41964,2024,05,29,15,00,AAXX 29154 41964 02456 52106 10303 20280 30009 40012 84502 333 58014 70000 84617==
41964,2024,05,29,18,00,AAXX 29184 41964 02456 52105 10300 20280 30016 40018 85500 333 58021 70000 85618==
41964,2024,05,29,21,00,AAXX 29214 41964 02456 41905 10296 20290 30018 40020 84500 333 58021 70000 84617==
41964,2024,05,30,00,00,AAXX 30004 41964 02457 51805 10298 20290 30021 40023 82502 333 58021 70000 82617 83078==
41964,2024,05,30,03,00,AAXX 30034 41964 02457 61806 10323 20280 30056 40048 84510 333 20291 58030 70000 84618 84460==
41964,2024,05,30,06,00,AAXX 30064 41964 02458 41804 10340 20260 30040 40042 83510 333 58022 70000 83618 83460==
41964,2024,05,30,09,00,AAXX 30094 41964 02458 42106 10330 20270 30020 40022 83402 333 58021 70000 82682==
41964,2024,05,30,12,00,AAXX 30124 41964 02458 42506 10311 20290 30018 40020 83502 333 10342 58023 70000 83618==
41964,2024,05,30,15,00,AAXX 30154 41964 02457 32104 10302 20280 30033 40035 83500 333 58024 70000 83618==
41964,2024,05,30,18,00,AAXX 30184 41964 02456 32103 10300 20280 30027 40029 83500 333 58011 70000 83618==
41964,2024,05,30,21,00,AAXX 30214 41964 02456 52104 10295 20280 30032 40034 84530 333 58014 70000 84617==
41965,2024,05,24,00,00,AAXX 24004 41965 02430 30000 10290 20240 30019 40028 83600 333 59016 70120 83618==
41965,2024,05,24,03,00,AAXX 24034 41965 02430 30000 10310 20210 30022 40031 83600 333 20263 59016 70120 83618==
41965,2024,05,24,06,00,AAXX 24064 41965 02456 31801 10355 20250 30002 40011 83600 333 58010 70120 83618==
41965,2024,05,24,09,00,AAXX 24094 41965 02456 30000 10372 20240 39978 49986 83600 333 59014 70120 83618==
41965,2024,05,24,12,00,AAXX 24124 41965 02450 30000 10335 20260 39972 49980 83600 333 10391 59024 70120 83618==
41965,2024,05,24,15,00,AAXX 24154 41965 02440 30000 10300 20250 30001 40011 83600 333 59025 70120 83618==
41965,2024,05,24,18,00,AAXX 24184 41965 NIL=
41965,2024,05,25,00,00,AAXX 25004 41965 02440 30000 10270 20240 39989 49998 83600 333 59030 70000 83618==
41965,2024,05,25,03,00,AAXX 25034 41965 02456 30000 10330 20220 39988 49997 83600 333 20240 59034 70000 83618==
41965,2024,05,25,06,00,AAXX 25064 41965 02456 31302 10345 20250 39990 49999 83600 333 59012 70000 83618==
41965,2024,05,25,09,00,AAXX 25094 41965 01430 80000 10260 20240 39979 49988 79522 8461/ 333 58001 70220 81710 83618 88456==
41965,2024,05,25,12,00,AAXX 25124 41965 21230 81001 10280 20240 39982 49991 70296 84511 333 10270 58010 60225 70220 81710 83618 88460==
41965,2024,05,25,15,00,AAXX 25154 41965 02430 80000 10275 20240 30000 40009 8461/ 333 59002 70220 83618 88460==
41965,2024,05,25,18,00,AAXX 25184 41965 02430 81402 10274 20240 39999 40008 8461/ 333 59002 70220 81710 83618 88460==
41965,2024,05,25,21,00,AAXX 25214 41965 02430 81402 10277 20240 30000 40009 84610 333 58001 70220 81710 83618 88460==
41965,2024,05,26,00,00,AAXX 26004 41965 02430 82202 10286 20330 39982 49991 8461/ 333 59007 70220 83618 88460==
41965,2024,05,26,03,00,AAXX 26034 41965 02440 81403 10295 20250 39981 49990 8461/ 333 20253 59007 70220 83618 88460==
41965,2024,05,26,06,00,AAXX 26064 41965 02450 61305 10340 20230 39973 49982 84610 333 59017 70220 83618 84460==
41965,2024,05,26,09,00,AAXX 26094 41965 02450 81403 10286 20240 39957 49966 8461/ 333 59022 70000 81710 83618 88460==
41965,2024,05,26,12,00,AAXX 26124 41965 22440 81306 10265 20240 39955 49964 8461/ 333 10350 59027 60105 70100 81710 83618 88460==
41965,2024,05,26,15,00,AAXX 26154 41965 02430 81404 10272 20230 39978 49987 8461/ 333 59022 70100 81710 83618 88460==
41965,2024,05,26,18,00,AAXX 26184 41965 02430 81305 10270 20240 39965 49974 8461/ 333 59034 70100 83618 88460==
41965,2024,05,26,21,00,AAXX 26214 41965 01430 81405 10270 20240 39970 49979 70262 8461/ 333 59030 70200 81710 83618 88460==
41965,2024,05,27,00,00,AAXX 27004 41965 11430 81406 10270 20240 39941 49950 60106 70262 8461/ 333 59041 70200 81710 83618 88460==
41965,2024,05,27,03,00,AAXX 27034 41965 01430 81306 10260 20240 39963 49972 76372 8461/ 333 20250 59018 70680 81710 83618 88456==
41965,2024,05,27,06,00,AAXX 27064 41965 21430 81410 10260 20240 39957 49966 76366 8462/ 333 59016 60669 70860 81710 83618 88456==
41965,2024,05,27,09,00,AAXX 27094 41965 01430 82208 10284 20260 39952 49961 76366 8462/ 333 59005 71000 81710 83618 88456==
41965,2024,05,27,12,00,AAXX 27124 41965 21430 82209 10289 20260 39953 49962 76366 8462/ 333 10300 59002 60379 71130 81710 83618 88456==
41965,2024,05,27,21,00,AAXX 27214 41965 01430 81308 10260 20230 39974 49983 79666 8462/ 333 59004 71320 81710 83618 88456==
41965,2024,05,28,00,00,AAXX 28004 41965 01430 81408 10290 20260 39980 49989 70266 8462/ 333 59002 71120 81710 83618 88456==
41965,2024,05,28,03,00,AAXX 28034 41965 01440 81409 10285 20250 39984 49993 70263 8461/ 333 20246 58021 70860 81710 83618 88456==
41965,2024,05,28,06,00,AAXX 28064 41965 11440 81303 10275 20240 39988 49977 60046 70262 8461/ 333 58031 70680 83618 88456==
41965,2024,05,28,09,00,AAXX 28094 41965 02430 81403 10300 20250 39990 49999 8461/ 333 58038 70540 83618 88460==
41965,2024,05,28,12,00,AAXX 28124 41965 02430 81302 10295 20280 39982 49991 8461/ 333 10310 58029 70310 81710 83618 88460==
41965,2024,05,28,15,00,AAXX 28154 41965 02430 81401 10295 20290 30003 40012 8461/ 333 58031 70110 83618 88460==
41965,2024,05,28,18,00,AAXX 28184 41965 02430 82203 10295 20280 39996 40005 8461/ 333 58023 70080 83618 88460==
41965,2024,05,28,21,00,AAXX 28214 41965 02430 82203 10290 20280 39998 40007 8461/ 333 58024 70040 83618 88460==
41965,2024,05,29,00,00,AAXX 29004 41965 02430 82303 10296 20290 30006 40015 8461/ 333 58026 70040 83618 88460==
41965,2024,05,29,03,00,AAXX 29034 41965 02440 61403 10305 20290 30009 40018 84610 333 20251 58025 70000 83618 86460==
41965,2024,05,29,06,00,AAXX 29064 41965 02450 61302 10330 20280 30019 40028 84610 333 58031 70000 83618 86460==
41965,2024,05,29,09,00,AAXX 29094 41965 02450 61404 10330 20270 39999 40008 84610 333 58009 70000 83618 84460==
41965,2024,05,29,12,00,AAXX 29124 41965 02440 51303 10306 20290 39996 40005 84610 333 10345 58014 70000 83618 84460==
41965,2024,05,29,15,00,AAXX 29154 41965 02430 51402 10300 20280 30015 40024 84610 333 58012 70000 83618 84460==
41965,2024,05,29,18,00,AAXX 29184 41965 02430 51301 10298 20280 30018 40027 84610 333 58022 70000 83618 84460==
41965,2024,05,29,21,00,AAXX 29214 41965 02430 51302 10298 20280 30019 40028 84610 333 58021 70000 83618 84460==
41965,2024,05,30,00,00,AAXX 30004 41965 02440 52202 10300 20280 30035 40044 84610 333 58029 70000 83618 84460==
41965,2024,05,30,03,00,AAXX 30034 41965 02450 51401 10320 20290 30047 40056 84610 333 20280 58038 70000 83618 84460==
41965,2024,05,30,06,00,AAXX 30064 41965 02456 51302 10334 20290 30037 40046 84610 333 58018 70000 83618 84460==
41965,2024,05,30,09,00,AAXX 30094 41965 02456 51401 10330 20280 30019 40028 84610 333 58020 70000 83618 84460==
41965,2024,05,30,12,00,AAXX 30124 41965 02440 51302 10307 20280 30019 40028 84610 333 10347 58023 70000 83618 84460==
41965,2024,05,30,15,00,AAXX 30154 41965 02440 30000 10295 20280 30033 40042 83600 333 58018 70000 83618==
41965,2024,05,30,21,00,AAXX 30214 41965 01430 81402 10285 20270 30039 40048 70262 8461/ 333 58020 70020 83618 81710 88460==
41966,2024,05,24,00,00,AAXX 24004 41966 02440 50901 10260 20240 39953 40032 82510 333 59022 70028 82616 84460==
41966,2024,05,24,03,00,AAXX 24034 41966 02950 02601 10318 20210 39959 40036 333 20250 59012 70028==
41966,2024,05,24,06,00,AAXX 24064 41966 02950 00401 10350 20180 39942 40018 333 59017 70028==
41966,2024,05,24,09,00,AAXX 24094 41966 333 59010 70028 82827==
41966,2024,05,24,12,00,AAXX 24124 41966 02/40 21802 10340 20200 39923 49999 82030 333 10370 59034 70028 82362==
41966,2024,05,24,15,00,AAXX 24154 41966 02930 71802 10295 20230 39943 40021 83510 333 59011 70028 83616 86460==
41966,2024,05,24,18,00,AAXX 24184 41966 NIL=
41966,2024,05,24,21,00,AAXX 24214 41966 02430 41501 10270 20240 39951 40030 82510 333 59018 70000 82616 83460==
41966,2024,05,25,00,00,AAXX 25004 41966 02440 40801 10260 20240 39948 40027 82510 333 59005 70000 82616 83460==
41966,2024,05,25,03,00,AAXX 25034 41966 02450 40901 10320 20200 39941 40018 82530 333 20253 59018 70000 82616 83362==
41966,2024,05,25,06,00,AAXX 25064 41966 02550 41201 10360 20160 39925 40001 82130 333 59017 70000 82826 83362==
41966,2024,05,25,09,00,AAXX 25094 41966 01340 81803 10260 20240 39914 49992 79596 8492/ 333 58002 70260 82709 83615 88460 81930==
41966,2024,05,25,12,00,AAXX 25124 41966 21435 82101 10280 20250 39923 40001 72996 8352/ 333 10365 58002 60279 70265 83616 88460==
41966,2024,05,25,15,00,AAXX 25154 41966 01430 71801 10270 20250 39940 40019 70262 82510 333 59002 70270 82616 86460==
41966,2024,05,25,18,00,AAXX 25184 41966 NIL=
41966,2024,05,25,21,00,AAXX 25214 41966 02430 81801 10260 20240 39934 40013 8352/ 333 59017 70270 83616 88460==
41966,2024,05,26,00,00,AAXX 26004 41966 02440 80901 10265 20250 39925 40004 8352/ 333 59023 70270 83616 88460==
41966,2024,05,26,03,00,AAXX 26034 41966 01450 51201 10305 20250 39934 40011 70196 82510 333 20254 59007 70275 82616 85460==
41966,2024,05,26,06,00,AAXX 26064 41966 11450 61501 10336 20250 39919 49995 69956 70396 82510 333 59006 70275 82616 85460==
41966,2024,05,26,09,00,AAXX 26094 41966 02450 61802 10325 20200 39892 49968 83510 333 59024 70015 83616 85460==
41966,2024,05,26,12,00,AAXX 26124 41966 21340 81702 10270 20250 39902 49980 76162 8472/ 333 10343 59021 60037 70035 82709 83615 88460==
41966,2024,05,26,15,00,AAXX 26154 41966 01330 81801 10260 20240 39925 40004 72166 8472/ 333 59015 70040 82709 83615 88460==
41966,2024,05,26,18,00,AAXX 26184 41966 NIL=
41966,2024,05,26,21,00,AAXX 26214 41966 01330 81801 10255 20240 39923 40001 76366 8472/ 333 59029 70165 82709 83615 88460==
41966,2024,05,27,00,00,AAXX 27004 41966 21330 80902 10250 20230 39914 49993 76366 8472/ 333 59011 60209 70260 82709 83615 88460==
41966,2024,05,27,03,00,AAXX 27034 41966 01340 81302 10260 20230 39905 49983 76366 8472/ 333 20245 59028 70275 82709 83615 88460==
41966,2024,05,27,06,00,AAXX 27064 41966 21350 81502 10278 20250 39900 49978 76266 8472/ 333 59017 60099 70343 82709 83615 88460==
41966,2024,05,27,09,00,AAXX 27094 41966 01350 81301 10265 20250 39888 49965 79596 8472/ 333 59003 70713 82709 83615 88460==
41966,2024,05,27,12,00,AAXX 27124 41966 21340 81503 10265 20250 39901 49979 72996 8472/ 333 10285 59001 60649 70953 82709 83615 88460==
41966,2024,05,27,15,00,AAXX 27154 41966 01330 81604 10270 20250 39901 49979 79596 8492/ 333 59025 71383 82709 83615 88460 81930==
41966,2024,05,27,21,00,AAXX 27214 41966 02330 81807 10260 20230 39920 49999 8492/ 333 59002 71878 82709 83615 88460 81930==
41966,2024,05,28,00,00,AAXX 28004 41966 21330 81607 10260 20230 39902 49981 71796 8472/ 333 59012 60239 71803 82709 83615 88460 81930==
41966,2024,05,28,03,00,AAXX 28034 41966 01340 81806 10280 20240 39934 40012 71796 8472/ 333 20250 59029 71973 82709 83615 88460 81930==
41966,2024,05,28,06,00,AAXX 28064 41966 NIL=
41966,2024,05,28,09,00,AAXX 28094 41966 02340 81301 10278 20240 39915 49992 8472/ 333 58027 71537 82709 83615 88460==
41966,2024,05,28,12,00,AAXX 28124 41966 01335 81503 10260 20230 39930 40009 71796 8432/ 333 10300 58030 70190 82709 83615 88460 81930==
41966,2024,05,28,15,00,AAXX 28154 41966 01330 81801 10260 20230 39950 40029 79596 8492/ 333 58050 71052 82709 83615 88460 81930==
41966,2024,05,28,18,00,AAXX 28184 41966 NIL=
41966,2024,05,28,21,00,AAXX 28214 41966 01330 81602 10262 20230 39943 40022 72122 8472/ 333 58023 70465 82709 83615 88460==
41966,2024,05,29,00,00,AAXX 29004 41966 21340 80901 10270 20240 39951 40029 70262 8472/ 333 58048 60035 70445 82709 83615 88460==
41966,2024,05,29,03,00,AAXX 29034 41966 02350 81301 10305 20260 39964 40041 8472/ 333 20255 58029 70255 82709 83615 88460==
41966,2024,05,29,06,00,AAXX 29064 41966 02450 52001 10330 20240 39955 40032 82510 333 58031 70008 82616 84460==
41966,2024,05,29,09,00,AAXX 29094 41966 02450 62201 10322 20230 39937 40014 83510 333 58022 70253 83616 85460==
41966,2024,05,29,12,00,AAXX 29124 41966 02440 61802 10305 20240 39940 40018 83510 333 10335 58009 70071 83616 85460==
41966,2024,05,29,15,00,AAXX 29154 41966 02435 51802 10290 20250 39957 40034 83510 333 58005 70041 83616 85460==
41966,2024,05,29,18,00,AAXX 29184 41966 NIL=
41966,2024,05,29,21,00,AAXX 29214 41966 02430 70901 10280 20240 39960 40038 83510 333 58016 70008 83616 85460==
41966,2024,05,30,00,00,AAXX 30004 41966 02440 70901 10280 20230 39970 40048 83510 333 58019 70008 83616 86460==
41966,2024,05,30,03,00,AAXX 30034 41966 02450 61202 10315 20260 39988 40066 82510 333 20268 58025 70008 82616 85460==
41966,2024,05,30,06,00,AAXX 30064 41966 02450 62001 10335 20240 39975 40051 83510 333 58019 70000 83616 85460==
41966,2024,05,30,09,00,AAXX 30094 41966 02450 42201 10330 20230 39955 40032 82510 333 58018 70000 82616 83460==
41966,2024,05,30,12,00,AAXX 30124 41966 02440 42101 10320 20230 39956 40033 82510 333 10340 58015 70000 82616 83460==
41966,2024,05,30,15,00,AAXX 30154 41966 02430 41802 10296 20250 39960 40038 82510 333 58004 70000 82616 83460==
41966,2024,05,30,18,00,AAXX 30184 41966 02430 42102 10293 20250 39973 40051 82510 333 58010 70000 82616 83460==
41966,2024,05,30,21,00,AAXX 30214 41966 02430 41801 10290 20250 39969 40049 82510 333 58009 70000 82616 83460==
41977,2024,05,24,00,00,AAXX 24004 41977 02950 30000 10275 20250 30003 40041 80001 333 59018 70000 83074==
41977,2024,05,24,03,00,AAXX 24034 41977 02950 20000 10335 20250 30021 40057 80001 333 20265 59006 70000 82074==
41977,2024,05,24,06,00,AAXX 24064 41977 02950 00000 10355 20260 30999 40036 333 59011 70000==
41977,2024,05,24,09,00,AAXX 24094 41977 02950 02704 10358 20240 39969 40006 333 59012 70000==
41977,2024,05,24,12,00,AAXX 24124 41977 02/56 22302 10328 20260 39971 40008 82010 333 10362 59012 70000 82459==
41977,2024,05,24,15,00,AAXX 24154 41977 02/56 32302 10305 20270 39980 40017 83010 333 59029 70000 83459==
41977,2024,05,24,18,00,AAXX 24184 41977 02450 70000 10288 20250 39978 40016 84370 333 59043 70000 83618 88458 81928==
41977,2024,05,24,21,00,AAXX 24214 41977 02450 70000 10280 20240 39972 40010 84370 333 59038 70000 83618 88458 81928==
41977,2024,05,25,00,00,AAXX 25004 41977 01350 70000 10284 20240 39982 40020 70522 84670 333 59021 70000 81710 84616 86459==
41977,2024,05,25,06,00,AAXX 25064 41977 02456 62303 10353 20250 39974 40011 83530 333 59025 70000 83618 86363==
41977,2024,05,25,09,00,AAXX 25094 41977 01450 80000 10286 20280 39954 49991 72996 8432/ 333 59015 70212 83616 88460 81929==
41977,2024,05,25,12,00,AAXX 25124 41977 01445 80000 10272 20260 39968 40005 72196 8432/ 333 10366 59003 70254 82709 88460 81928==
41977,2024,05,25,15,00,AAXX 25154 41977 02350 80000 10285 20260 39986 40024 8462/ 333 58006 70254 82710 84617 88458==
41977,2024,05,25,18,00,AAXX 25184 41977 NIL=
41977,2024,05,25,21,00,AAXX 25214 41977 02350 80000 10278 20260 39972 40010 8462/ 333 58000 70254 82717 84617 88458==
41977,2024,05,26,00,00,AAXX 26004 41977 02450 80000 10282 20260 39964 40002 84370 333 59018 70254 83618 88458 81928==
41977,2024,05,26,03,00,AAXX 26034 41977 02350 80000 10300 20250 39985 40022 8462/ 333 20265 58002 70254 82710 84616 88460==
41977,2024,05,26,06,00,AAXX 26064 41977 02350 81003 10337 20230 39973 40011 8462/ 333 59001 70254 82710 84616 88460==
41977,2024,05,26,09,00,AAXX 26094 41977 02345 81003 10280 20260 39952 49990 8672/ 333 59002 70092 82710 84615 88458==
41977,2024,05,26,12,00,AAXX 26124 41977 22340 81005 10270 20260 39944 49982 8672/ 333 10340 59024 60157 70108 82710 84615 88458==
41977,2024,05,26,15,00,AAXX 26154 41977 01340 81105 10271 20260 39963 40001 76162 8472/ 333 59023 70158 83708 82614 88458==
41977,2024,05,26,18,00,AAXX 26184 41977 21340 81105 10278 20260 39958 49996 76166 8472/ 333 59024 60019 70164 82708 82614 88458==
41977,2024,05,26,21,00,AAXX 26214 41977 01335 81205 10265 20260 39948 49986 76366 8572/ 333 59024 70404 83708 82613 88458==
41977,2024,05,27,00,00,AAXX 27004 41977 21335 81007 10269 20269 39939 49977 76366 8572/ 333 59025 60559 70714 84708 82613 88482==
41977,2024,05,27,03,00,AAXX 27034 41977 01320 81815 10274 20260 39947 49985 79596 8792/ 333 20260 59038 72154 84708 85612 88458 81925==
41977,2024,05,27,06,00,AAXX 27064 41977 21320 81315 10272 20270 39941 49979 79596 8792/ 333 59032 61699 72404 84708 85612 88458 81925==
41977,2024,05,27,09,00,AAXX 27094 41977 01340 81606 10284 20270 30032 40070 76196 8572/ 333 58080 72414 83708 82613 88458==
41977,2024,05,27,12,00,AAXX 27124 41977 21335 81808 10280 20280 39921 49958 76196 8672/ 333 10290 59050 60129 72374 83708 82614 88458==
41977,2024,05,27,18,00,AAXX 27184 41977 21335 81808 10275 20270 39950 49988 76166 8672/ 333 59008 60329 72680 83708 82614 88458==
41977,2024,05,28,03,00,AAXX 28034 41977 01340 82603 10300 20280 39976 40013 76161 8672/ 333 20262 58029 70730 83708 82614 88458==
41977,2024,05,28,06,00,AAXX 28064 41977 11340 81807 10260 20250 39994 40032 60201 79661 8792/ 333 58053 70650 84708 85612 88458 81926==
41977,2024,05,28,09,00,AAXX 28094 41977 01440 82103 10300 20290 39963 40000 72196 8532/ 333 59069 70682 83709 88458 81928==
41977,2024,05,28,12,00,AAXX 28124 41977 21445 82502 10303 20280 39975 40013 70596 8432/ 333 10305 58054 60098 70622 83616 88460 81928==
41977,2024,05,28,15,00,AAXX 28154 41977 02356 82306 10304 20280 39991 40029 8562/ 333 58007 70542 81710 85616 88458==
41977,2024,05,28,18,00,AAXX 28184 41977 01440 82508 10302 20280 39990 40027 70522 8451/ 333 58040 70302 84617 88460==
41977,2024,05,28,21,00,AAXX 28214 41977 01440 72108 10300 20280 39981 40018 70562 84570 333 58033 70298 84617 85460==
41977,2024,05,29,00,00,AAXX 29004 41977 11450 81810 10303 20280 39995 40032 69966 70562 8452/ 333 58051 70298 84616 88458==
41977,2024,05,29,03,00,AAXX 29034 41977 01450 82603 10315 20290 30004 40041 70520 8452/ 333 20254 58028 70268 84616 88458==
41977,2024,05,29,06,00,AAXX 29064 41977 01450 82906 10322 20270 30017 40055 70522 8452/ 333 58023 70098 84616 88460==
41977,2024,05,29,09,00,AAXX 29094 41977 01450 82904 10322 20270 39984 40021 70522 8452/ 333 58021 70006 84616 88460==
41977,2024,05,29,12,00,AAXX 29124 41977 01450 81804 10310 20280 39987 40024 70522 8452/ 333 10340 58003 70006 84616 88460==
41977,2024,05,29,15,00,AAXX 29154 41977 01450 71603 10306 20290 30005 40042 70522 83510 333 58014 70006 83618 86460==
41977,2024,05,29,18,00,AAXX 29184 41977 01450 70000 10303 20280 30004 40041 70522 83510 333 58014 70006 83618 86460==
41977,2024,05,30,00,00,AAXX 30004 41977 NIL=
41977,2024,05,30,03,00,AAXX 30034 41977 01450 72602 10317 20280 30034 40072 70522 84510 333 20290 58030 70004 84618 86460==
41977,2024,05,30,06,00,AAXX 30064 41977 01450 72205 10328 20270 30027 40064 70522 84510 333 58010 70004 84617 87460==
41977,2024,05,30,09,00,AAXX 30094 41977 02456 62304 10332 20270 30005 40042 83510 333 58021 70004 83617 86460==
41977,2024,05,30,12,00,AAXX 30124 41977 02456 61803 10315 20270 30005 40042 83510 333 10335 58018 70004 83617 86460==
41977,2024,05,30,15,00,AAXX 30154 41977 01450 31805 10307 20270 30022 40059 70522 82530 333 58017 70004 82618 83362==
41977,2024,05,30,18,00,AAXX 30184 41977 01450 61804 10304 20270 30017 40054 70521 84530 333 59013 70004 84617 86362==
41977,2024,05,30,21,00,AAXX 30214 41977 01450 72102 10295 20280 30012 40049 70522 84570 333 58010 70004 84617 85460==
41978,2024,05,24,00,00,AAXX 24004 41978 01450 40804 10274 20260 30017 40023 70521 82530 333 59019 70000 82618 83362==
41978,2024,05,24,03,00,AAXX 24034 41978 05556 20905 10332 20260 30024 40030 82100 333 20270 59018 70000 82828==
41978,2024,05,24,06,00,AAXX 24064 41978 02456 32507 10342 20290 30009 40015 83500 333 59017 70000 83618==
41978,2024,05,24,09,00,AAXX 24094 41978 02558 12612 10348 20280 39987 49993 81100 333 59013 70000 81830==
41978,2024,05,24,12,00,AAXX 24124 41978 02458 32012 10331 20280 39986 49992 83500 333 10357 59016 70000 83620==
41978,2024,05,24,15,00,AAXX 24154 41978 01456 31204 10294 20250 30007 40014 71311 84300 333 59020 70000 83618 81930==
41978,2024,05,24,18,00,AAXX 24184 41978 02456 50704 10280 20260 30010 40016 83530 333 59028 70000 83618 84360==
41978,2024,05,24,21,00,AAXX 24214 41978 02456 60504 10276 20260 30001 40007 83520 333 59012 70000 83618 85460==
41978,2024,05,25,00,00,AAXX 25004 41978 02456 50904 10280 20260 39996 40002 83520 333 59021 70000 83618 85460==
41978,2024,05,25,03,00,AAXX 25034 41978 02457 60906 10314 20270 30002 40008 83520 333 20276 59022 70000 83618 85460==
41978,2024,05,25,06,00,AAXX 25064 41978 02458 53012 10350 20280 39992 49998 83530 333 59027 70000 83618 84360==
41978,2024,05,25,09,00,AAXX 25094 41978 41450 60410 10303 20290 39971 49977 76162 84320 333 59016 83616 86460 81929==
41978,2024,05,25,12,00,AAXX 25124 41978 01450 81203 10278 20270 39981 49987 72162 8432/ 333 10364 59005 70026 83616 88460 81929==
41978,2024,05,25,15,00,AAXX 25154 41978 02450 80704 10283 20270 30004 40010 8432/ 333 59003 70026 83616 88460 81929==
41978,2024,05,25,18,00,AAXX 25184 41978 02450 80804 10278 20270 30000 40006 8432/ 333 59010 70026 83616 88460 81929==
41978,2024,05,25,21,00,AAXX 25214 41978 02450 80704 10280 20270 39974 49980 8432/ 333 59027 70026 83616 88460 81929==
41978,2024,05,26,00,00,AAXX 26004 41978 02456 80705 10283 20260 39984 49990 8432/ 333 59012 70026 83616 88460 81929==
41978,2024,05,26,03,00,AAXX 26034 41978 02459 70808 10303 20270 39986 49992 84370 333 20272 59016 70026 83618 85460 81928==
41978,2024,05,26,06,00,AAXX 26064 41978 02459 71312 10344 20280 39976 49982 84370 333 59016 70026 84618 85460 81928==
41978,2024,05,26,09,00,AAXX 26094 41978 01450 81506 10288 20280 39965 49971 76162 8432/ 333 59006 70066 84615 88459 81925==
41978,2024,05,26,12,00,AAXX 26124 41978 21440 81309 10274 20274 39961 49967 76162 8432/ 333 10349 59020 60189 70180 84615 88459 81925==
41978,2024,05,26,15,00,AAXX 26154 41978 01456 81107 10272 20270 39985 49991 72162 8432/ 333 70184 83616 88459 81928==
41978,2024,05,26,18,00,AAXX 26184 41978 01456 81509 10282 20260 39974 49980 70262 8432/ 333 59026 70184 83616 88460 81928==
41978,2024,05,26,21,00,AAXX 26214 41978 01335 81318 10273 20270 39949 49955 76166 8432/ 333 59025 70534 83708 88458 81928==
41978,2024,05,27,00,00,AAXX 27004 41978 21312 80910 10272 20270 39946 49952 76166 8432/ 333 59038 60559 70734 83708 88458 81928==
41978,2024,05,27,03,00,AAXX 27034 41978 01317 81515 10272 20272 39956 49962 76566 8532/ 333 20265 59030 72054 84708 88458 82928==
41978,2024,05,27,06,00,AAXX 27064 41978 21307 82130 10282 20280 39957 49963 76569 8632/ 333 61659 72384 85708 88458 82925==
41978,2024,05,27,09,00,AAXX 27094 41978 01440 81810 10282 20280 39935 49941 76166 8432/ 333 59030 72414 83616 88459 81928==
41978,2024,05,27,12,00,AAXX 27124 41978 21328 81816 10302 20280 39938 49945 79596 8532/ 333 10280 59023 60159 72354 84708 88458 82925==
41978,2024,05,27,15,00,AAXX 27154 41978 01440 81816 10304 20290 39950 49956 76196 8532/ 333 59035 72425 84612 88458 82925==
41978,2024,05,27,18,00,AAXX 27184 41978 21440 82117 10281 20281 39965 49971 76196 8532/ 333 59009 60679 73020 84709 88458 82925==
41978,2024,05,27,21,00,AAXX 27214 41978 01340 82224 10279 20279 39951 49957 79596 8532/ 333 58002 72684 84709 88458 82925==
41978,2024,05,28,00,00,AAXX 28004 41978 21440 82117 10291 20291 39961 49967 72196 8532/ 333 58015 60029 72490 84612 88458 82925==
41978,2024,05,28,03,00,AAXX 28034 41978 01432 82220 10304 20290 39990 49996 76166 8532/ 333 20270 58034 71190 84609 88458 82925==
41978,2024,05,28,06,00,AAXX 28064 41978 01310 82612 10253 20253 39997 40003 79566 8692/ 333 58040 71144 85708 88458 83920==
41978,2024,05,28,09,00,AAXX 28094 41978 01332 82114 10302 20290 39979 49986 76196 8632/ 333 58044 71174 85708 88458 81926==
41978,2024,05,28,12,00,AAXX 28124 41978 01435 81910 10303 20290 39987 49993 70596 8432/ 333 10311 58049 71118 83616 88459 81928==
41978,2024,05,28,15,00,AAXX 28154 41978 01450 62008 10302 20290 30009 40015 70522 83520 333 58059 71048 83616 86460==
41978,2024,05,28,18,00,AAXX 28184 41978 01450 71910 10301 20290 30005 40011 70522 84320 333 58040 70448 83616 87460 81930==
41978,2024,05,28,21,00,AAXX 28214 41978 01450 72010 10294 20280 30001 40007 70522 84320 333 58050 70434 83616 87460 81930==
41978,2024,05,29,00,00,AAXX 29004 41978 01440 71910 10302 20290 30013 40019 70522 84320 333 58052 70428 83616 87460 81930==
41978,2024,05,29,03,00,AAXX 29034 41978 01450 62015 10314 20290 30020 40026 70522 83520 333 20250 58030 70408 83616 86460==
41978,2024,05,29,06,00,AAXX 29064 41978 01456 62110 10330 20290 30026 40032 70522 83520 333 58029 70124 83616 86462==
41978,2024,05,29,09,00,AAXX 29094 41978 01450 71917 10324 20280 30006 40012 70522 83520 333 58027 70024 83617 86460==
41978,2024,05,29,12,00,AAXX 29124 41978 01450 62015 10313 20290 30005 40011 70522 83520 333 10336 58018 70000 83618 85460==
41978,2024,05,29,15,00,AAXX 29154 41978 01450 31907 10308 20290 30021 40027 70522 83500 333 58012 70000 83618==
41978,2024,05,29,18,00,AAXX 29184 41978 01450 72113 10302 20280 30022 40028 70562 83520 333 58017 70000 83617 87460==
41978,2024,05,29,21,00,AAXX 29214 41978 41450 62110 10297 20280 30024 40030 70522 83520 333 58023 83617 85460==
41978,2024,05,30,00,00,AAXX 30004 41978 41450 82012 10300 20280 30034 40040 70522 8432/ 333 58021 83616 88460 81929==
41978,2024,05,30,03,00,AAXX 30034 41978 41456 62210 10318 20290 30054 40060 70511 83520 333 20294 58034 83618 86460==
41978,2024,05,30,06,00,AAXX 30064 41978 41457 42212 10335 20290 30042 40048 70511 82530 333 58016 82618 83360==
41978,2024,05,30,09,00,AAXX 30094 41978 41457 42107 10338 20290 30022 40028 70511 82530 333 58016 82618 84360==
41978,2024,05,30,12,00,AAXX 30124 41978 41457 51910 10318 20290 30018 40024 70511 82530 333 10340 58013 82618 84360==
41978,2024,05,30,15,00,AAXX 30154 41978 42456 51804 10308 20290 30038 40045 83420 333 58017 82618 84460==
41978,2024,05,30,18,00,AAXX 30184 41978 02456 51604 10302 20290 30032 40040 82520 333 58012 70000 82618 84460==
41978,2024,05,30,21,00,AAXX 30214 41978 02456 51504 10295 20290 30036 40036 82520 333 58006 70000 82618 84460==
41980,2024,05,24,00,00,AAXX 24004 41980 NIL=
41980,2024,05,24,03,00,AAXX 24034 41980 32456 31702 10306 20260 39917 40026 83500 333 20240 56900 59037 70000 83616=
41980,2024,05,24,12,00,AAXX 24124 41980 32450 51702 10322 20240 39892 40000 83520 333 10379 56990 59025 70000 83616 85459=
41980,2024,05,24,18,00,AAXX 24184 41980 NIL=
41980,2024,05,25,00,00,AAXX 25004 41980 32450 30000 10272 20230 39912 40023 83500 333 56900 59010 70000 83616=
41980,2024,05,25,06,00,AAXX 25064 41980 NIL=
41980,2024,05,25,12,00,AAXX 25124 41980 11450 61302 10274 20260 39878 49980 60143 70366 83620 333 10326 56990 59014 70140 83616 86459=
41980,2024,05,25,18,00,AAXX 25184 41980 NIL=
41980,2024,05,26,00,00,AAXX 26004 41980 32450 80000 10270 20230 39890 40001 9352/ 333 56999 59022 70140 83616 88459=
41980,2024,05,26,12,00,AAXX 26124 41980 11440 80000 10266 20250 39872 49980 60129 72166 8452/ 333 10312 56499 59006 70120 84616 88458=
41980,2024,05,26,18,00,AAXX 26184 41980 NIL=
41980,2024,05,27,00,00,AAXX 27004 41980 11340 80000 10260 20240 39882 49993 60239 76166 8662/ 333 56999 59010 70350 83709 84616 88456=
41980,2024,05,27,06,00,AAXX 27064 41980 NIL=
41980,2024,05,27,12,00,AAXX 27124 41980 11340 81714 10284 20260 39851 49960 60369 76166 8662/ 333 10294 56499 59021 70600 83709 84614 88456=
41980,2024,05,28,00,00,AAXX 28004 41980 11340 81716 10280 20270 39837 49940 61419 76166 8662/ 333 56499 59045 71780 83709 84614 88456=
41980,2024,05,28,06,00,AAXX 28064 41980 NIL=
41980,2024,05,28,12,00,AAXX 28124 41980 11340 81704 10288 20280 39892 40000 60133 72166 8672/ 333 10298 56499 58041 71600 83710 84616 88456=
41980,2024,05,28,18,00,AAXX 28184 41980 NIL=
41980,2024,05,29,00,00,AAXX 29004 41980 11340 81702 10280 20270 39897 40007 60103 72166 8672/ 333 56499 58060 70290 83710 84616 88456=
41980,2024,05,29,06,00,AAXX 29064 41980 NIL=
41980,2024,05,29,12,00,AAXX 29124 41980 32450 61703 10302 20260 39910 40020 83520 333 10332 56990 58018 70100 83616 86459=
41980,2024,05,29,18,00,AAXX 29184 41980 NIL=
41980,2024,05,30,00,00,AAXX 30004 41980 32450 60000 10282 20260 39934 40045 83520 333 56990 58037 70000 83616 86456=
41980,2024,05,30,06,00,AAXX 30064 41980 NIL=
41980,2024,05,30,12,00,AAXX 30124 41980 11450 61902 10306 20260 39923 40032 60016 70262 83520 333 10332 56990 58013 70010 83616 86458=
41984,2024,05,24,00,00,AAXX 24004 41984 02956 00000 10287 20280 30004 40006 333 59018 70000==
41984,2024,05,24,03,00,AAXX 24034 41984 02457 20000 10348 20290 30013 40015 82500 333 20281 59017 70000 82618==
41984,2024,05,24,06,00,AAXX 24064 41984 02457 20000 10362 20290 30003 40005 82500 333 59019 70000 82618==
41984,2024,05,24,09,00,AAXX 24094 41984 02958 01302 10352 20280 39982 49984 333 59020 70000==
41984,2024,05,24,12,00,AAXX 24124 41984 02956 00000 10330 20280 39974 49976 333 10373 59021 70000==
41984,2024,05,24,15,00,AAXX 24154 41984 02940 00000 10307 20290 39995 49997 333 59018 70000==
41984,2024,05,24,18,00,AAXX 24184 41984 02940 00000 10296 20290 39999 40002 333 59023 70000==
41984,2024,05,24,21,00,AAXX 24214 41984 02440 20000 10299 20290 39990 49992 82500 333 59024 70000 82618==
41984,2024,05,25,00,00,AAXX 25004 41984 02450 80000 10300 20290 39981 49983 8352/ 333 59023 70000 83618 88458==
41984,2024,05,25,03,00,AAXX 25034 41984 02456 81303 10337 20280 39986 49988 8352/ 333 20290 59027 70000 83618 88458==
41984,2024,05,25,06,00,AAXX 25064 41984 NIL=
41984,2024,05,25,09,00,AAXX 25094 41984 02457 21304 10350 20270 39961 49963 82500 333 59021 70000 82618==
41984,2024,05,25,12,00,AAXX 25124 41984 02456 81302 10310 20280 39957 49959 8352/ 333 10356 59017 70000 83618 88458==
41984,2024,05,25,15,00,AAXX 25154 41984 01340 81305 10274 20270 39976 49978 76362 8672/ 333 59019 70170 83707 84615 88456==
41984,2024,05,25,18,00,AAXX 25184 41984 NIL=
41984,2024,05,25,21,00,AAXX 25214 41984 01340 80902 10280 20280 39960 49962 76162 8672/ 333 59030 70210 83707 84615 88456==
41984,2024,05,26,00,00,AAXX 26004 41984 21450 80903 10274 20270 39949 49951 76166 8672/ 333 59032 60099 70270 83707 84615 88456==
41984,2024,05,26,03,00,AAXX 26034 41984 01350 80910 10285 20280 39944 49946 76166 8672/ 333 20266 59042 70280 83707 84618 88456==
41984,2024,05,26,09,00,AAXX 26094 41984 02356 80914 10304 20270 39912 49914 8562/ 333 59049 70340 82709 84616 88457==
41984,2024,05,26,12,00,AAXX 26124 41984 01350 81414 10286 20286 39903 49905 76162 8672/ 333 10311 59054 70020 83707 84615 88456==
41984,2024,05,26,15,00,AAXX 26154 41984 01330 81315 10273 20270 39908 49910 76166 8672/ 333 59068 70210 83707 84615 88456==
41984,2024,05,26,18,00,AAXX 26184 41984 21330 80916 10273 20270 39894 49896 76366 8672/ 333 59076 60179 70350 83707 84615 88456==
41984,2024,05,26,21,00,AAXX 26214 41984 01330 81414 10272 20270 39864 49866 76366 8672/ 333 59096 70520 82707 84615 88456==
41984,2024,05,27,00,00,AAXX 27004 41984 21350 81812 10271 20270 39864 49866 76366 8672/ 333 59058 60329 70580 83707 84615 88458==
41984,2024,05,27,03,00,AAXX 27034 41984 01350 80915 10274 20270 38991 49883 76366 8672/ 333 20250 59063 70720 83707 84615 88456==
41984,2024,05,27,05,00,AAXX 27054 41984 01350 80915 10274 20270 38991 49883 76366 8672/ 333 20250 59063 70720 83707 84615 88456==
41984,2024,05,27,06,00,AAXX 27064 41984 21350 81815 10281 20280 39885 49887 76566 8673/ 333 59047 60449 70950 83707 84615 88456==
41984,2024,05,27,09,00,AAXX 27094 41984 01350 82213 10277 20277 39886 49888 76366 8672/ 333 59026 71140 83707 84615 88456==
41984,2024,05,27,12,00,AAXX 27124 41984 NIL=
41984,2024,05,28,06,00,AAXX 28064 41984 NIL=
41984,2024,05,28,09,00,AAXX 28094 41984 02456 82204 10318 20300 39970 49973 8352/ 333 58084 70240 83618 88458==
41984,2024,05,28,12,00,AAXX 28124 41984 02456 82204 10312 20300 39966 49969 8352/ 333 10321 58064 70090 83618 88458==
41984,2024,05,28,15,00,AAXX 28154 41984 02440 82204 10304 20290 39987 49990 8352/ 333 58047 70090 83618 88458==
41984,2024,05,28,18,00,AAXX 28184 41984 02440 82204 10300 20300 39990 49993 8352/ 333 70090 83618 88458==
41984,2024,05,28,21,00,AAXX 28214 41984 02440 82205 10300 20300 39993 49995 8352/ 333 58033 70090 83618 88458==
41984,2024,05,29,00,00,AAXX 29004 41984 02456 82204 10300 20300 39997 49999 8352/ 333 58036 70010 83618 88458==
41984,2024,05,29,03,00,AAXX 29034 41984 02456 82302 10215 20300 39997 40000 8352/ 333 20295 58026 70000 83618 88458==
41984,2024,05,29,06,00,AAXX 29064 41984 02457 82702 10321 20300 30000 40002 8352/ 333 58025 70000 83618 88458==
41984,2024,05,29,09,00,AAXX 29094 41984 02457 81803 10324 20300 39990 49992 8352/ 333 58020 70000 83618 88458==
41984,2024,05,29,12,00,AAXX 29124 41984 02450 82304 10308 20300 39984 49986 8352/ 333 10330 58018 70000 83618 88458==
41984,2024,05,29,15,00,AAXX 29154 41984 02440 82205 10306 20300 30005 40007 8352/ 333 58018 70000 83618 88458==
41984,2024,05,29,18,00,AAXX 29184 41984 02440 82205 10303 20290 30010 40012 8352/ 333 58020 70000 83618 88458==
41984,2024,05,29,21,00,AAXX 29214 41984 02440 82702 10302 20290 30010 40012 8352/ 333 58017 70000 83618 88458==
41984,2024,05,30,00,00,AAXX 30004 41984 02450 82204 10300 20290 30010 40012 8352/ 333 58013 70000 83618 88458==
41984,2024,05,30,03,00,AAXX 30034 41984 02456 82205 10328 20300 30027 40029 8352/ 333 20295 58030 70000 83618 88458==
41984,2024,05,30,06,00,AAXX 30064 41984 NIL=
41984,2024,05,30,09,00,AAXX 30094 41984 02457 81805 10325 20300 30004 40006 8352/ 333 58014 70000 83618 88458==
41984,2024,05,30,12,00,AAXX 30124 41984 02456 81803 10312 20290 30008 40010 8352/ 333 10342 58024 70000 83618 88458==
41984,2024,05,30,15,00,AAXX 30154 41984 02440 81804 10304 20290 30018 40020 8352/ 333 58013 70000 83618 88458==
41984,2024,05,30,18,00,AAXX 30184 41984 02440 81803 10300 20290 30024 40026 8352/ 333 58014 70000 83618 88458==
41989,2024,05,24,00,00,AAXX 24004 41989 02450 51804 10275 20260 30033 40037 82501 333 59010 70000 82618 83080==
41989,2024,05,24,03,00,AAXX 24034 41989 02450 43202 10335 20240 30039 40043 82501 333 20271 59027 70000 82618 83080==
41989,2024,05,24,06,00,AAXX 24064 41989 02456 11304 10336 20260 30015 40018 81500 333 59024 70000 81618==
41989,2024,05,24,09,00,AAXX 24094 41989 02450 41403 10345 20260 30009 40012 82501 333 59006 70000 82618 83080==
41989,2024,05,24,12,00,AAXX 24124 41989 02450 50318 10317 20250 30005 40008 83530 333 10355 59003 70000 83618 83362==
41989,2024,05,24,15,00,AAXX 24154 41989 01440 61704 10266 20250 30011 40014 70362 83570 333 59031 70030 83618 84460==
41989,2024,05,24,18,00,AAXX 24184 41989 11440 61802 10277 20260 30006 40009 60036 70262 82570 333 59050 70030 82618 83362==
41989,2024,05,24,21,00,AAXX 24214 41989 02440 51702 10275 20260 30002 40005 83570 333 59044 70030 83618 83460==
41989,2024,05,25,00,00,AAXX 25004 41989 02440 51302 10273 20250 39997 40000 82570 333 59036 70030 82618 83460==
41989,2024,05,25,03,00,AAXX 25034 41989 02456 41303 10316 20260 30014 40017 82570 333 20258 59025 70030 82618 83362==
41989,2024,05,25,06,00,AAXX 25064 41989 02450 51305 10360 20250 30000 40003 83570 333 59015 70030 83618 84460==
41989,2024,05,25,09,00,AAXX 25094 41989 02456 61806 10340 20260 39972 49975 82570 333 59037 70030 82618 84460==
41989,2024,05,25,12,00,AAXX 25124 41989 21440 71803 10273 20260 30063 40067 72162 83570 333 10373 59042 60188 70210 83618 85460==
41989,2024,05,25,15,00,AAXX 25154 41989 02440 71808 10282 20250 39993 49996 83570 333 59018 70210 83618 84460==
41989,2024,05,25,18,00,AAXX 25184 41989 01430 81709 10271 20250 30004 40007 76121 8532/ 333 59002 70020 82708 83614 88456==
41989,2024,05,25,21,00,AAXX 25214 41989 01430 60408 10280 20260 39998 40001 70162 84470 333 59004 70210 83618 84460==
41989,2024,05,26,00,00,AAXX 26004 41989 11440 60508 10288 20250 39986 49990 60016 70262 84470 333 59011 70210 83618 84460==
41989,2024,05,26,03,00,AAXX 26034 41989 02450 51408 10305 20260 39984 49987 83570 333 20265 59030 70210 83618 83462==
41989,2024,05,26,06,00,AAXX 26064 41989 02456 71309 10312 20240 39971 49974 82570 333 59029 70210 82618 85460==
41989,2024,05,26,09,00,AAXX 26094 41989 01330 81411 10275 20260 39976 49979 76362 8572/ 333 58004 70310 82708 83614 88458==
41989,2024,05,26,12,00,AAXX 26124 41989 21430 71309 10265 20250 39970 49973 72162 84470 333 10316 58007 60189 70210 83618 84460==
41989,2024,05,26,15,00,AAXX 26154 41989 01430 71707 10265 20260 39976 49979 72162 83570 333 59017 70230 83618 85460==
41989,2024,05,26,18,00,AAXX 26184 41989 21440 71809 10275 20260 39973 49976 70262 82570 333 59031 60025 70210 82618 84460==
41989,2024,05,26,21,00,AAXX 26214 41989 01330 81312 10270 20260 39966 49969 76362 8527/ 333 59032 70920 82708 83614 88456==
41989,2024,05,27,00,00,AAXX 27004 41989 21440 71808 10273 20260 39957 49960 72166 83570 333 59029 61059 71250 83618 85460==
41989,2024,05,27,03,00,AAXX 27034 41989 01320 81317 10282 20270 39981 49984 76566 8572/ 333 20262 59003 71400 82708 83614 88456==
41989,2024,05,27,06,00,AAXX 27064 41989 21315 81415 10285 20280 39977 49980 76596 8572/ 333 58006 60709 71950 82708 83614 88456==
41989,2024,05,27,09,00,AAXX 27094 41989 01440 81309 20270 39987 49990 70262 8572/ 333 58011 71930 82710 83616 88458==
41989,2024,05,27,12,00,AAXX 27124 41989 01440 81712 10292 20270 39959 49962 70262 8352/ 333 10300 59011 71870 83616 88458==
41989,2024,05,27,15,00,AAXX 27154 41989 41440 61412 10301 20270 39974 49977 59002 71890 84460==
41989,2024,05,27,18,00,AAXX 27184 41989 21430 61309 10290 20260 39980 49983 72196 84470 333 58007 60309 72150 83618 84460==
41989,2024,05,27,21,00,AAXX 27214 41989 01430 81412 10293 20270 39983 49987 76596 8572/ 333 59003 71720 82708 83614 88456==
41989,2024,05,28,00,00,AAXX 28004 41989 21440 61409 10300 20280 39981 49984 72196 84470 333 58024 60529 71620 83618 84609==
41989,2024,05,28,03,00,AAXX 28034 41989 01450 61308 10305 20270 30000 40003 72162 84470 333 20277 58019 71470 83618 84460==
41989,2024,05,28,06,00,AAXX 28064 41989 11450 71804 10308 20280 39997 40000 60041 70362 83570 333 58020 70960 83618 84460==
41989,2024,05,28,09,00,AAXX 28094 41989 01450 61306 10306 20280 39984 49987 72162 84470 333 59003 70920 83618 84460==
41989,2024,05,28,12,00,AAXX 28124 41989 11450 61405 10298 20270 39978 49981 60041 70162 83530 333 10318 58019 70900 83618 84362==
41989,2024,05,28,15,00,AAXX 28154 41989 02440 61803 10303 20280 30010 40013 82570 333 58036 70860 82618 84460==
41989,2024,05,28,18,00,AAXX 28184 41989 NIL=
41989,2024,05,28,21,00,AAXX 28214 41989 02440 51802 10298 20280 30014 40017 82570 333 58031 70310 82618 83362==
41989,2024,05,29,00,00,AAXX 29004 41989 02440 41402 10296 20280 30012 40015 82530 333 58031 70080 82618 84362==
41989,2024,05,29,03,00,AAXX 29034 41989 02456 51804 10321 20280 30025 40028 82570 333 20282 58033 70040 82618 83362==
41989,2024,05,29,06,00,AAXX 29064 41989 02450 51404 10335 20290 30037 40040 83570 333 58040 70000 83618 84460==
41989,2024,05,29,09,00,AAXX 29094 41989 02456 41404 10327 20290 30014 40017 82530 333 58030 70000 82618 83362==
41989,2024,05,29,12,00,AAXX 29124 41989 02456 31703 10316 20280 30002 40005 83500 333 10335 58024 70000 83618==
41989,2024,05,29,15,00,AAXX 29154 41989 02450 41404 10299 20270 30032 40035 83530 333 58022 70000 83618 83362==
41989,2024,05,29,18,00,AAXX 29184 41989 NIL=
41989,2024,05,29,21,00,AAXX 29214 41989 02440 31402 10293 20270 30049 40053 83500 333 58035 70000 83618==
41989,2024,05,30,00,00,AAXX 30004 41989 02440 51804 10290 20280 30034 40037 83530 333 58022 70000 83618 83362==
41989,2024,05,30,03,00,AAXX 30034 41989 02450 41703 10308 20280 30040 40043 82530 333 20280 58007 70000 82618 83362==
41989,2024,05,30,06,00,AAXX 30064 41989 NIL=
41989,2024,05,30,09,00,AAXX 30094 41989 02450 41304 10335 20290 30029 40034 83530 333 58015 70000 83618 83362==
41989,2024,05,30,12,00,AAXX 30124 41989 02450 31403 10315 20280 30028 40031 83500 333 10340 58021 70000 83618==
41989,2024,05,30,15,00,AAXX 30154 41989 02456 21302 10302 20270 30043 40046 82500 333 58011 70000 82618==
41989,2024,05,30,21,00,AAXX 30214 41989 02450 50000 10295 20270 30046 40049 83570 333 59003 70000 83618 83362==
41992,2024,05,24,00,00,AAXX 24004 41992 01530 40903 10282 20230 30021 40023 70521 82201 333 59027 70000 82830 84080==
41992,2024,05,24,03,00,AAXX 24034 41992 01935 00000 10350 20220 30029 40031 70511 333 20280 59016 70000==
41992,2024,05,24,06,00,AAXX 24064 41992 01/35 21804 10352 20240 30016 40018 70510 82030 333 59017 70000 82362==
41992,2024,05,24,09,00,AAXX 24094 41992 01440 42105 10350 20250 30018 40020 70521 84500 333 58007 70000 84616==
41992,2024,05,24,12,00,AAXX 24124 41992 01430 52104 10340 20250 39990 49992 70522 84430 333 10361 59026 70000 84616 85362==
41992,2024,05,24,15,00,AAXX 24154 41992 01425 33605 10285 20250 30015 40017 70511 83500 333 59016 70000 83616==
41992,2024,05,24,18,00,AAXX 24184 41992 01425 60000 10295 20260 30020 40022 70521 82520 333 59025 70000 82616 86460==
41992,2024,05,24,21,00,AAXX 24214 41992 41425 60604 10275 20250 30001 40003 75152 84920 333 59013 83615 86460 81925==
41992,2024,05,25,00,00,AAXX 25004 41992 21425 60302 10280 20250 39999 40001 70555 84920 333 59022 60008 84615 86460 81925==
41992,2024,05,25,03,00,AAXX 25034 41992 41430 70000 10307 20260 30005 40007 70522 84330 333 20268 59024 83616 87360 81925==
41992,2024,05,25,06,00,AAXX 25064 41992 41430 61503 10357 20240 39995 49997 70522 84330 333 59021 83616 86362 81925==
41992,2024,05,25,09,00,AAXX 25094 41992 41435 62104 10355 20240 39971 49973 70522 84320 333 59047 83616 86460 81925==
41992,2024,05,25,12,00,AAXX 25124 41992 41430 82107 10325 20240 39973 49975 70522 8432/ 333 10365 59017 83616 88460 81925==
41992,2024,05,25,15,00,AAXX 25154 41992 01320 81503 10272 20250 30103 40105 76122 8432/ 333 59012 70030 82707 84613 88458 81925==
41992,2024,05,25,18,00,AAXX 25184 41992 21320 81204 10267 20260 39999 40001 76162 8432/ 333 59021 60057 70050 82707 84613 88458 81925==
41992,2024,05,25,21,00,AAXX 25214 41992 01420 61506 10280 20250 39992 49994 72166 84520 333 59009 70080 84615 86460==
41992,2024,05,26,00,00,AAXX 26004 41992 21425 63606 10285 20240 39982 49984 70562 84520 333 59017 60038 70080 84615 86460==
41992,2024,05,26,03,00,AAXX 26034 41992 01430 61507 10315 20250 39985 49987 70522 83530 333 20265 59020 70080 83615 86362==
41992,2024,05,26,06,00,AAXX 26064 41992 01425 81509 10310 20250 39977 49979 70552 8532/ 333 59018 70080 84615 88460 81925==
41992,2024,05,26,09,00,AAXX 26094 41992 01315 81510 10265 20260 39975 49977 76366 8592/ 333 58004 70250 83707 85612 88458 81925==
41992,2024,05,26,12,00,AAXX 26124 41992 21415 81805 10260 20240 39973 49975 76166 8592/ 333 10325 58000 60259 70330 84614 88458 81925==
41992,2024,05,26,15,00,AAXX 26154 41992 01415 81506 10260 20250 39988 49990 76166 8592/ 333 59015 70310 84614 88458 81925==
41992,2024,05,26,18,00,AAXX 26184 41992 21415 81506 10275 20260 39977 49979 79596 8592/ 333 59022 60039 70310 84614 88458 81925==
41992,2024,05,26,21,00,AAXX 26214 41992 01315 81815 10272 20270 39961 49963 79596 8692/ 333 59031 70470 82708 84612 88457 81925==
41992,2024,05,27,00,00,AAXX 27004 41992 21320 81510 10290 20270 39961 49963 70596 8592/ 333 59021 60419 70690 82710 84615 88458 81925==
41992,2024,05,27,03,00,AAXX 27034 41992 01320 81827 10292 20260 39983 49985 76165 8592/ 333 20260 59002 70730 83708 84614 88458 81925==
41992,2024,05,27,06,00,AAXX 27064 41992 21320 81815 10265 20265 39989 49991 79566 8592/ 333 58004 60249 70930 83707 84612 88458 81925==
41992,2024,05,27,09,00,AAXX 27094 41992 01320 81512 10297 20280 39958 49960 76366 8492/ 333 59017 70960 82707 84613 88458 81925==
41992,2024,05,27,12,00,AAXX 27124 41992 11320 81820 10296 20280 39966 49968 60212 76265 8432/ 333 10302 59007 70890 82707 84613 88458 81925==
41992,2024,05,27,15,00,AAXX 27154 41992 01315 81814 10300 20280 39984 49986 75155 8592/ 333 59004 70880 82707 84614 88458 81925==
41992,2024,05,27,18,00,AAXX 27184 41992 21315 81815 10290 20280 39984 49986 76165 8592/ 333 58007 60119 70990 83707 88458 85912==
41992,2024,05,27,21,00,AAXX 27214 41992 01315 81810 10296 20280 39976 49978 70565 8592/ 333 58015 70790 82708 84612 88458 81925==
41992,2024,05,28,00,00,AAXX 28004 41992 11320 81810 20270 39992 49994 60016 70565 8592/ 333 58031 70570 82708 84613 88458 81925==
41992,2024,05,28,03,00,AAXX 28034 41992 01425 81809 10307 20280 30009 40011 70522 8532/ 333 20262 58026 70530 84615 88458 81925==
41992,2024,05,28,06,00,AAXX 28064 41992 01425 81807 10312 20280 30009 40011 70562 8532/ 333 58020 70010 84615 88458 81925==
41992,2024,05,28,09,00,AAXX 28094 41992 01425 82108 10305 20270 39995 49997 75152 8532/ 333 58037 70140 84615 88458 81925==
41992,2024,05,28,12,00,AAXX 28124 41992 21420 82106 10304 20270 39999 40001 75152 8532/ 333 10322 58033 60009 70130 84615 88458 81925==
41992,2024,05,28,15,00,AAXX 28154 41992 01425 41807 10300 20280 30022 40024 70522 82530 333 58038 70130 82616 84362==
41992,2024,05,28,18,00,AAXX 28184 41992 01425 71810 10298 20280 30019 40021 70521 84530 333 58035 70020 84616 87360==
41992,2024,05,28,21,00,AAXX 28214 41992 01420 71808 10300 20280 30008 40010 70522 84520 333 58032 70010 84615 87460==
41992,2024,05,29,00,00,AAXX 29004 41992 01420 71810 10300 20280 30022 40024 70522 84520 333 58014 70010 84615 87460==
41992,2024,05,29,03,00,AAXX 29034 41992 01/30 61805 10310 20280 30037 40039 70522 86010 333 58028 70010 86460==
41992,2024,05,29,06,00,AAXX 29064 41992 41/35 61804 10330 20290 30036 40038 70522 86010 333 58025 86460==
41992,2024,05,29,09,00,AAXX 29094 41992 41435 41804 10328 20290 30018 40020 70511 82530 333 58023 82616 84362==
41992,2024,05,29,12,00,AAXX 29124 41992 01430 41806 10312 20280 30021 40023 70511 82530 333 10336 58022 70000 82616 84362==
41992,2024,05,29,15,00,AAXX 29154 41992 01425 61506 10304 20280 30029 40031 70522 83530 333 58007 70000 83616 86362==
41992,2024,05,29,18,00,AAXX 29184 41992 01425 21506 10300 20280 30037 40039 70521 82500 333 58018 70000 82616==
41992,2024,05,29,21,00,AAXX 29214 41992 01420 41606 10300 20280 30026 40028 70522 83530 333 58018 70000 83615 84360==
41992,2024,05,30,00,00,AAXX 30004 41992 01425 41503 10298 20280 30040 40042 70521 82530 333 58018 70000 82616 84362==
41992,2024,05,30,03,00,AAXX 30034 41992 01435 31804 10320 20280 30060 40062 70522 82530 333 20295 58023 70000 82616 83362==
41992,2024,05,30,06,00,AAXX 30064 41992 01435 31804 10328 20280 30051 40053 70521 82530 333 58015 70000 82616 83362==
41992,2024,05,30,09,00,AAXX 30094 41992 01440 51805 10332 20270 30031 40033 70521 82530 333 58013 70000 82616 85362==
41992,2024,05,30,12,00,AAXX 30124 41992 01430 61503 10320 20270 30031 40033 70522 83530 333 10341 58010 70000 83616 86362==
41992,2024,05,30,15,00,AAXX 30154 41992 01425 20000 10312 20250 30050 40052 70521 82500 333 58021 70000 82616==
41992,2024,05,30,18,00,AAXX 30184 41992 01425 40000 10300 20250 30044 40046 70521 84500 333 58007 70000 84616==
41992,2024,05,30,21,00,AAXX 30214 41992 01425 40000 10295 20280 30046 40048 70521 82530 333 58020 70000 82616 84362==
41998,2024,05,24,00,00,AAXX 24004 41998 NIL=
41998,2024,05,24,03,00,AAXX 24034 41998 02456 30000 10333 20260 30027 40033 82470 333 20248 59020 70070 81618==
41998,2024,05,24,06,00,AAXX 24064 41998 02456 42501 10340 20270 30018 40024 82470 333 59008 70070 81618 83458==
41998,2024,05,24,09,00,AAXX 24094 41998 02456 42002 10336 20270 30009 40015 82470 333 59006 70070 81618 83458==
41998,2024,05,24,12,00,AAXX 24124 41998 02456 40000 10304 20250 30006 40012 82470 333 10346 59005 70070 81618 83458==
41998,2024,05,24,15,00,AAXX 24154 41998 02456 40000 10287 20260 30014 40020 82470 333 59028 70000 81618 83458==
41998,2024,05,24,18,00,AAXX 24184 41998 NIL=
41998,2024,05,25,00,00,AAXX 25004 41998 02456 40000 10283 20260 30020 40026 82470 333 59013 70170 81618==
41998,2024,05,25,06,00,AAXX 25064 41998 02456 81908 10292 20260 30005 40011 8442/ 333 59013 70170 83618 88456==
41998,2024,05,25,09,00,AAXX 25094 41998 02456 82115 10298 20250 39980 49986 8442/ 333 59029 70170 83618 88458==
41998,2024,05,25,12,00,AAXX 25124 41998 02456 81216 10291 20260 39971 49977 8442/ 333 10308 59035 70170 83618 88458==
41998,2024,05,25,15,00,AAXX 25154 41998 01956 81912 10267 20260 39970 49976 76166 8442/ 333 59042 70240 83618 88458==
41998,2024,05,25,18,00,AAXX 25184 41998 NIL=
41998,2024,05,26,00,00,AAXX 26004 41998 02456 82940 10280 20260 39990 49996 8342/ 333 59050 70250 83617 88457==
41998,2024,05,26,03,00,AAXX 26034 41998 02456 82835 10285 20260 39998 40004 8342/ 333 20265 59011 70250 82617 88457==
41998,2024,05,26,06,00,AAXX 26064 41998 21456 82517 10287 20260 39981 49987 72162 8342/ 333 59024 60047 70360 83618 88457==
41998,2024,05,26,09,00,AAXX 26094 41998 01456 82314 10263 20250 39979 49985 76166 8442/ 333 59001 70420 83616 88456==
41998,2024,05,26,12,00,AAXX 26124 41998 21456 82011 10262 20250 39967 49973 76166 8442/ 333 10294 59004 60109 70460 83616 88456==
41998,2024,05,26,15,00,AAXX 26154 41998 02456 82410 10270 20250 30000 40006 8342/ 333 58032 70390 82617 88457==
41998,2024,05,26,18,00,AAXX 26184 41998 02456 82550 10275 20250 39982 49988 8342/ 333 58008 70040 82617 88457==
41998,2024,05,26,21,00,AAXX 26214 41998 11456 82331 10263 20260 39997 40003 60179 76166 8442/ 333 56999 58007 70310 83616 88456=
41998,2024,05,27,00,00,AAXX 27004 41998 21456 82331 10263 20260 39997 40003 76166 8442/ 333 58007 60179 70310 83616 88456==
41998,2024,05,27,03,00,AAXX 27034 41998 01456 82220 10275 20260 39998 40004 76166 8442/ 333 20258 58000 70340 83616 88456==
41998,2024,05,27,06,00,AAXX 27064 41998 21456 82410 10298 20260 39991 49997 72166 8442/ 333 58001 60059 70320 83617 88457==
41998,2024,05,27,09,00,AAXX 27094 41998 01456 82309 10300 20260 39986 49992 76162 8442/ 333 59019 70300 83616 88456==
41998,2024,05,27,12,00,AAXX 27124 41998 21456 82106 10283 20260 39990 49996 76166 8442/ 333 10313 59023 60079 70290 83616 88456==
41998,2024,05,27,15,00,AAXX 27154 41998 01456 83408 10275 20260 39997 40003 76166 8442/ 333 59003 70310 83416 88456==
41998,2024,05,28,00,00,AAXX 28004 41998 02456 83407 10270 20250 30008 40014 8442/ 333 58011 70140 83617 88457==
41998,2024,05,28,06,00,AAXX 28064 41998 02456 83404 10315 20260 30000 40006 8442/ 333 58002 70090 83617 88457==
41998,2024,05,28,12,00,AAXX 28124 41998 02456 83004 10310 20270 30010 40016 8442/ 333 10325 58009 70020 83617 88457==
41998,2024,05,28,15,00,AAXX 28154 41998 02456 80000 10290 20260 30032 40038 8342/ 333 58035 70000 82618 88458==
41998,2024,05,28,18,00,AAXX 28184 41998 02456 80000 10280 20260 30036 40042 8342/ 333 58032 70000 82618 88458==
41998,2024,05,29,00,00,AAXX 29004 41998 NIL=
41998,2024,05,29,03,00,AAXX 29034 41998 02456 80000 10300 20260 30054 40060 8352/ 333 20268 58043 70000 83618 88458==
41998,2024,05,29,06,00,AAXX 29064 41998 02456 80000 10312 20260 30044 40050 8342/ 333 58033 70000 82618 88458==
41998,2024,05,29,09,00,AAXX 29094 41998 02456 80000 10298 20260 30034 40040 8342/ 333 58023 70000 82618 88458==
41998,2024,05,29,12,00,AAXX 29124 41998 02456 80000 10288 20260 30046 40952 8342/ 333 10320 58036 70000 82618 88458==
41998,2024,05,29,18,00,AAXX 29184 41998 02456 80000 10280 20260 30043 40049 8342/ 333 58007 70000 82618 88458==
41998,2024,05,30,00,00,AAXX 30004 41998 NIL=
41998,2024,05,30,03,00,AAXX 30034 41998 02456 80000 10296 20260 30044 40060 8242/ 333 20263 59010 70000 82618 88458==
41998,2024,05,30,06,00,AAXX 30064 41998 02456 80000 10305 20260 30036 40042 8242/ 333 59007 70000 82618 88458==
41998,2024,05,30,09,00,AAXX 30094 41998 02456 82201 10290 20260 30030 40036 8242/ 333 59006 70000 82618 88448==
41998,2024,05,30,12,00,AAXX 30124 41998 02456 80000 10283 20260 30026 40032 8242/ 333 10325 59020 70000 82618 88458==
41998,2024,05,30,18,00,AAXX 30184 41998 02456 80000 10275 20260 30053 40059 8342/ 333 58011 70000 82617 88457==
