ESTACION,ANO,MES,DIA,HORA,MINUTO,PARTE
41850,2024,09,06,00,00,AAXX 06004 41850 31450 20000 10248 20248 39946 40044 70510 82500 333 56900 58011 70020 82618=
41850,2024,09,06,06,00,AAXX 06064 41850 32457 20000 10336 20230 39948 40044 82500 333 56900 58009 70000 82618=
41850,2024,09,06,12,00,AAXX 06124 41850 32456 10000 10330 20260 39912 40008 81500 333 10348 56900 58003 70000 81618=
41850,2024,09,06,21,00,AAXX 06214 41850 32957 00000 10355 20240 39940 40035 333 59016 70000=
41850,2024,09,07,00,00,AAXX 07004 41850 31925 20000 10256 20256 39936 40034 71010 82030 333 56090 59008 70000 82362=
41850,2024,09,07,06,00,AAXX 07064 41850 32457 30000 10356 20270 39930 40026 81530 333 56990 59018 70000 81617 83360=
41850,2024,09,07,12,00,AAXX 07124 41850 32456 40000 10325 20290 39912 40007 82530 333 10369 56990 58000 70000 82616 84360=
41850,2024,09,07,18,00,AAXX 07184 41850 NIL=
41850,2024,09,08,00,00,AAXX 08004 41850 31925 20000 10266 20260 39932 40030 71000 82030 333 56090 59004 70000 82360=
41850,2024,09,08,12,00,AAXX 08124 41850 32456 31803 10310 20270 39915 40011 83500 333 10359 56900 58003 70000 83618=
41850,2024,09,08,18,00,AAXX 08184 41850 31430 80000 10281 20270 39934 40031 70522 8252/ 333 56999 59005 70000 82618 88457=
41850,2024,09,09,00,00,AAXX 09004 41850 31440 41303 10265 20260 39922 40019 70511 84500 333 56900 59010 70000 84618=
41850,2024,09,09,06,00,AAXX 09064 41850 32957 00902 10345 20260 39930 40025 333 59006 70000=
41850,2024,09,09,12,00,AAXX 09124 41850 32956 00000 10330 20260 39897 49992 333 10359 59018 70000=
41850,2024,09,09,18,00,AAXX 09184 41850 31930 01803 10280 20260 39931 40028 70500 333 59003 70000=
41850,2024,09,10,00,00,AAXX 10004 41850 31440 80000 10267 20260 39924 40021 70522 8252/ 333 56999 58002 70000 82618 88458=
41850,2024,09,10,06,00,AAXX 10064 41850 32457 20902 10332 20250 39934 40030 82500 333 56900 58004 70000 82618=
41850,2024,09,10,12,00,AAXX 10124 41850 32956 00000 10320 20250 39899 49995 333 10352 58002 70000=
41850,2024,09,10,18,00,AAXX 10184 41850 31930 02703 10280 20270 39942 40039 70500 333 58011 70000=
41850,2024,09,11,00,00,AAXX 11004 41850 31940 00000 10265 20250 39926 40024 70500 333 58002 70000=
41850,2024,09,11,06,00,AAXX 11064 41850 32457 31803 10331 20270 39939 40035 83500 333 56900 58005 70000 83618=
41850,2024,09,11,12,00,AAXX 11123 41850 31850 30000 10325 20270 39898 49993 70511 83030 333 10360 56090 59001 70000 83362=
41850,2024,09,11,18,00,AAXX 11184 41850 31430 80902 10275 20250 39947 40045 70522 8252/ 333 56999 58005 70000 82617 88457=
41850,2024,09,12,00,00,AAXX 12004 41850 31440 80000 10255 20250 39926 40024 70522 8252/ 333 56999 58000 70000 82618 88458=
41850,2024,09,12,06,00,AAXX 12064 41850 32457 01802 10350 20250 39933 40028 333 59006 70000=
41850,2024,09,12,12,00,AAXX 12124 41850 32956 00000 10339 20270 39902 49997 333 10369 70000=
41850,2024,09,12,18,00,AAXX 12184 41850 31940 00000 10280 20270 39927 40024 70500 333 59020 70000=
41851,2024,09,06,00,00,AAXX 06004 41851 31440 30000 10250 20240 39979 40042 70500 82530 333 56990 58007 70115 82618=
41851,2024,09,06,06,00,AAXX 06064 41851 32450 20901 10332 20260 39986 40047 82500 333 56900 58004 70000 82618=
41851,2024,09,06,12,00,AAXX 06124 41851 32450 30000 10335 20270 39951 40012 83500 333 10345 56900 58006 70000 83618=
41851,2024,09,06,18,00,AAXX 06184 41851 32950 00000 10286 20280 39978 40040 333 59007 70000=
41851,2024,09,07,00,00,AAXX 07004 41851 31440 20000 10272 20260 39974 40036 70510 82500 333 56900 59005 70000 82618=
41851,2024,09,07,06,00,AAXX 07064 41851 32450 50000 10344 20240 39969 40030 82510 333 56990 59017 70000 82618 84459=
41851,2024,09,07,12,00,AAXX 07124 41851 32450 30000 10343 20260 39943 40004 81530 333 10357 56990 59008 70000 81618 83362=
41851,2024,09,07,18,00,AAXX 07184 41851 32450 10000 10291 20270 39984 40046 81500 333 56900 58006 70000 81618=
41851,2024,09,08,00,00,AAXX 08004 41851 32350 80000 10288 20280 39972 40034 8462/ 333 56399 59002 70000 81709 83617 88458=
41851,2024,09,08,12,00,AAXX 08124 41851 32450 61501 10315 20290 39949 40010 83530 333 10340 56990 58006 70003 83618 84362=
41851,2024,09,08,18,00,AAXX 08184 41851 32450 10000 10286 20280 39972 40034 81500 333 56900 59012 70003 81618=
41851,2024,09,09,00,00,AAXX 09004 41851 31/04 90000 10278 20278 39960 40022 74742 89/// 333 56999 59012 70003=
41851,2024,09,09,06,00,AAXX 09064 41851 31450 51501 10335 20270 39968 40029 70342 82530 333 56990 59011 70000 82618 83362=
41851,2024,09,09,12,00,AAXX 09124 41851 32450 30000 10330 20270 39935 49996 81530 333 10357 56990 59014 70000 81616=
41851,2024,09,09,18,00,AAXX 09184 41851 32950 00000 10288 20280 39966 40028 333 59006 70000=
41851,2024,09,10,00,00,AAXX 10004 41851 31440 40000 10280 20270 39962 40024 70510 82530 333 56390 58002 70000 82618 83362=
41851,2024,09,10,06,00,AAXX 10064 41851 32450 51802 10344 20270 39974 40035 83430 333 56990 58006 70000 82618 84362=
41851,2024,09,10,12,00,AAXX 10124 41851 32950 00000 10323 20270 39935 49996 333 10352 58000 70000=
41851,2024,09,10,18,00,AAXX 10184 41851 32940 00000 10292 20270 39978 40040 333 58012 70000=
41851,2024,09,11,00,00,AAXX 11004 41851 32950 00000 10278 20270 39968 40030 333 58006 70000=
41851,2024,09,11,06,00,AAXX 11064 41851 32450 41801 10345 20270 39974 40035 82530 333 56990 58000 70000 82618 83362=
41851,2024,09,11,12,00,AAXX 11124 41851 11350 81802 10262 20250 39956 40018 60184 79522 8492/ 333 10355 56499 58021 70182 81708 84616 81929 88456=
41851,2024,09,11,18,00,AAXX 11184 41851 11450 41801 10265 20260 39975 40035 60016 70196 82510 333 56990 59003 70196 82618 88458=
41851,2024,09,12,00,00,AAXX 12004 41851 32450 20000 10260 20250 39960 40022 82500 333 56900 59008 70196 82618=
41851,2024,09,12,06,00,AAXX 12064 41851 32450 71801 10316 20270 39970 40031 82520 333 56990 59004 70196 82618 87458=
41851,2024,09,12,12,00,AAXX 12124 41851 32950 00000 10320 20270 39943 40004 333 10340 59013 70014=
41851,2024,09,12,18,00,AAXX 12184 41851 32950 00000 10282 20270 39958 40020 333 59017 70000=
41856,2024,09,06,00,00,AAXX 06004 41856 32940 20901 10251 20240 30005 40041 82030 333 56090 58009 70060 82362=
41856,2024,09,06,06,00,AAXX 06064 41856 32950 20901 10330 20240 30008 40043 82030 333 56090 58002 70010 82362=
41856,2024,09,06,12,00,AAXX 06124 41856 32950 20000 10330 20270 39971 40005 82030 333 10355 56090 59002 70000 82362=
41856,2024,09,06,18,00,AAXX 06184 41856 32930 40000 10285 20270 30005 40040 84030 333 56090 59005 70000 84362=
41856,2024,09,07,00,00,AAXX 07004 41856 31940 40000 10275 20270 39998 40033 70522 84030 333 56090 59007 70000 84362=
41856,2024,09,07,06,00,AAXX 07064 41856 32950 20701 10345 20270 39994 40028 82030 333 56090 59014 70000 82362=
41856,2024,09,07,12,00,AAXX 07124 41856 32440 50000 10340 20280 39968 40002 83430 333 10370 56990 59003 70000 82618 83362=
41856,2024,09,07,18,00,AAXX 07184 41856 31440 50000 10290 20280 30006 40041 70522 83430 333 56990 58001 70000 82618 83362=
41856,2024,09,08,00,00,AAXX 08004 41856 31940 30000 10273 20260 39999 40034 70511 83030 333 56090 58001 70000 83362=
41856,2024,09,08,12,00,AAXX 08124 41856 32950 30000 10330 20280 39973 40007 83030 333 10360 56090 58005 70000 83362=
41856,2024,09,08,18,00,AAXX 08184 41856 31940 00000 10291 20280 39998 40033 70500 333 59008 70000=
41856,2024,09,09,00,00,AAXX 09004 41856 31930 00000 10280 20270 39987 40022 70500 333 59012 70000=
41856,2024,09,09,06,00,AAXX 09064 41856 32950 41801 10340 20260 39994 40028 84030 333 56090 59010 70000 83362=
41856,2024,09,09,12,00,AAXX 09124 41856 32950 21801 10327 20270 39962 49996 82030 333 10363 56090 59011 70000 82362=
41856,2024,09,09,18,00,AAXX 09184 41856 32930 20000 10280 20260 39992 40027 82030 333 56090 59006 70000 82362=
41856,2024,09,10,00,00,AAXX 10004 41856 31930 20000 10272 20260 39989 40024 70511 82030 333 56090 58002 70000 82362=
41856,2024,09,10,06,00,AAXX 10064 41856 32950 41802 10340 20260 30004 40038 84030 333 56090 58010 70000 84362=
41856,2024,09,10,12,00,AAXX 10124 41856 32956 20000 10322 20260 39964 49999 82030 333 10354 56090 58002 70000 82362=
41856,2024,09,10,18,00,AAXX 10184 41856 32940 00000 10285 20280 30007 40042 333 58015 7000=
41856,2024,09,11,00,00,AAXX 11004 41856 32950 01401 10272 20260 39989 40024 333 58000 70000=
41856,2024,09,11,06,00,AAXX 11064 41856 32456 31301 10345 20260 39998 40032 83200 333 56200 59006 70000 83830=
41856,2024,09,11,12,00,AAXX 11124 41856 11350 80502 10276 20270 39981 40016 60012 76162 8672/ 333 10360 56199 58017 70005 83708 85614 88456=
41856,2024,09,11,18,00,AAXX 11184 41856 11930 20000 10266 20250 39998 40033 60016 70162 82030 333 56090 59009 70010 82362=
41856,2024,09,12,00,00,AAXX 12004 41856 32440 50000 10258 10250 39982 40017 82530 333 56990 59007 70010 82618 85362=
41856,2024,09,12,06,00,AAXX 12064 41856 32950 50502 10325 20250 39990 40025 85030 333 56090 59008 70010 85362=
41856,2024,09,12,12,00,AAXX 12124 41856 32950 20000 10325 20280 39965 49999 82030 333 10346 56090 59016 70005 82362=
41856,2024,09,12,18,00,AAXX 12184 41856 32930 00000 10282 20270 39982 40017 333 59016 70000=
41858,2024,09,06,00,00,AAXX 06004 41858 01430 40302 10260 20250 39998 40044 70522 82520 333 59015 70256 82618 84458==
41858,2024,09,06,03,00,AAXX 06034 41858 01950 00000 10308 20250 30014 40059 70500 333 20245 58009 70046==
41858,2024,09,06,06,00,AAXX 06064 41858 01450 20000 10340 20250 30003 40047 70500 82500 333 58000 70020 82618==
41858,2024,09,06,09,00,AAXX 06094 41858 01550 30000 10346 20270 39974 40018 70510 83100 333 58003 70000 83825==
41858,2024,09,06,12,00,AAXX 06124 41858 01550 30000 10324 20260 39968 40012 70510 83100 333 10355 58003 70000 83825==
41858,2024,09,06,21,00,AAXX 06214 41858 01/30 30000 10286 20270 39988 40033 70510 83030 333 59015 70000 83362==
41858,2024,09,07,00,00,AAXX 07004 41858 01/30 50000 10282 20270 39991 40036 70520 85030 333 59007 70000 85362==
41858,2024,09,07,03,00,AAXX 07034 41858 01/50 40605 10326 20270 30002 40046 70520 84040 333 20276 59012 70000 84362==
41858,2024,09,07,06,00,AAXX 07064 41858 01556 40605 10350 20260 39986 40031 70522 82130 333 59017 70000 82825 84362==
41858,2024,09,07,09,00,AAXX 07094 41858 01550 30904 10364 20250 39966 40009 70522 83200 333 59008 70000 83825==
41858,2024,09,07,12,00,AAXX 07124 41858 01/50 30000 10340 20260 39960 40004 70511 83030 333 10365 59008 70000 83362==
41858,2024,09,07,15,00,AAXX 07154 41858 01450 60000 10302 20270 39993 40038 70522 84420 333 58000 70000 83615 84458==
41858,2024,09,07,18,00,AAXX 07184 41858 01440 60000 10290 20270 30012 40057 70522 83520 333 58004 70000 83615 86458==
41858,2024,09,07,21,00,AAXX 07214 41858 01/40 30000 10284 20260 39987 40032 70510 83030 333 59001 70000 83362==
41858,2024,09,08,00,00,AAXX 08004 41858 01/40 40000 10282 20260 39990 40035 70510 84030 333 59001 70000 84362==
41858,2024,09,08,03,00,AAXX 08034 41858 01440 51806 10330 20280 30003 40047 70522 83520 333 20278 58001 70000 83615 84458==
41858,2024,09,08,06,00,AAXX 08064 41858 11440 82104 10324 20280 39999 40043 60076 70562 8452/ 333 58013 70070 84615 88458==
41858,2024,09,08,09,00,AAXX 08094 41858 01550 32105 10345 20280 39965 40009 70520 83100 333 59001 70070 83825==
41858,2024,09,08,12,00,AAXX 08124 41858 01450 40000 10326 20290 39965 40009 70522 84800 333 10350 58005 70070 83615 83825==
41858,2024,09,08,15,00,AAXX 08154 41858 01440 40000 10298 20280 39985 40030 70562 83520 333 59008 70074 83616 84458==
41858,2024,09,08,18,00,AAXX 08184 41858 NIL=
41858,2024,09,08,21,00,AAXX 08214 41858 01430 20000 10290 20270 39974 40019 70500 82500 333 59013 70074 82618==
41858,2024,09,09,00,00,AAXX 09004 41858 01920 00000 10290 20280 39975 40020 71000 333 59015 70000==
41858,2024,09,09,03,00,AAXX 09034 41858 01/40 20905 10310 20270 39992 40036 70500 82030 333 20280 59011 70074 82362==
41858,2024,09,09,06,00,AAXX 09064 41858 01450 50000 10352 20260 39985 40029 70520 83520 333 59014 70004 83616 84458==
41858,2024,09,09,09,00,AAXX 09094 41858 01450 51204 10355 20270 39957 40000 70522 83520 333 59008 70004 83616 84458==
41858,2024,09,09,12,00,AAXX 09124 41858 01450 31202 10325 20280 39952 49996 70522 82520 333 10356 59013 70004 82618 83458==
41858,2024,09,09,15,00,AAXX 09154 41858 01/50 20000 10310 20270 39980 40024 70520 82040 333 59005 70000 82362==
41858,2024,09,09,18,00,AAXX 09184 41858 01/50 20000 10302 20270 39986 40031 70520 82040 333 59014 70000 82362==
41858,2024,09,10,00,00,AAXX 10004 41858 01950 20000 10298 20280 39983 40028 70520 333 58004 70000 82362==
41858,2024,09,10,03,00,AAXX 10034 41858 01550 31805 10324 20260 39998 40042 70510 83100 333 20280 58005 70000 83825==
41858,2024,09,10,06,00,AAXX 10064 41858 01450 41205 10342 20250 39990 40034 70511 84800 333 58005 70000 82618 83825==
41858,2024,09,10,12,00,AAXX 10124 41858 01450 40902 10328 20270 39953 49997 70522 83520 333 10354 58001 70000 83618 84458==
41858,2024,09,10,15,00,AAXX 10154 41858 01/50 30000 10310 20270 39980 40024 70511 83030 333 58000 70000 83362==
41858,2024,09,10,18,00,AAXX 10184 41858 01/40 30000 10304 20260 39999 40044 70511 83030 333 58013 70000 83362==
41858,2024,09,10,21,00,AAXX 10214 41858 01/40 30000 10290 20270 39978 40023 70510 83030 333 59005 70000 83362==
41858,2024,09,11,00,00,AAXX 11004 41858 01/40 31205 10284 20260 39982 40027 70510 83030 333 58003 70000 83362==
41858,2024,09,11,03,00,AAXX 11034 41858 01450 40000 10318 20260 30000 40044 70520 84500 333 20278 58002 70000 84618==
41858,2024,09,11,06,00,AAXX 11064 41858 01450 40000 10336 20270 39992 40036 70522 84500 333 58002 70000 84618==
41858,2024,09,11,09,00,AAXX 11094 41858 01550 30905 10356 20250 39963 40006 70510 83100 333 58005 70000 83825==
41858,2024,09,11,12,00,AAXX 11124 41858 01450 50905 10300 20250 39967 40011 70511 83520 333 10360 58014 70000 83615 84458==
41858,2024,09,11,15,00,AAXX 11154 41858 01440 60905 10290 20250 39999 40044 70522 84520 333 58019 70000 84646 85458==
41858,2024,09,11,18,00,AAXX 11184 41858 01440 60905 10284 20250 30009 40054 70522 84520 333 58010 70000 84616 85458==
41858,2024,09,11,21,00,AAXX 11214 41858 01440 60000 10278 20260 39993 40038 70522 84520 333 58015 70000 84616 85458==
41858,2024,09,12,00,00,AAXX 12004 41858 01440 40000 10272 20250 39976 40021 70522 83520 333 59006 70000 83616 84458==
41858,2024,09,12,03,00,AAXX 12034 41858 01/50 30305 10320 20240 39985 40029 70522 84030 333 20262 59015 70000 84362==
41858,2024,09,12,06,00,AAXX 12064 41858 01/50 50606 10328 20250 39987 40031 70522 85030 333 59005 70000 85362==
41858,2024,09,12,09,00,AAXX 12094 41858 01/50 30905 10345 20250 39961 40004 70521 83030 333 59002 70000 83362==
41858,2024,09,12,12,00,AAXX 12124 41858 01/50 20804 10334 20250 39960 40004 70511 82030 333 10360 59007 70000 82362==
41858,2024,09,12,15,00,AAXX 12154 41858 01/50 20000 10305 20270 39972 40016 70500 82030 333 59027 70000 82362==
41858,2024,09,12,18,00,AAXX 12184 41858 01/40 20000 10296 20270 39986 40031 70500 82030 333 59023 70000 82362==
41858,2024,09,12,21,00,AAXX 12214 41858 01/40 30000 10284 20260 39960 40005 70510 83030 333 59033 70000 83362==
41859,2024,09,06,00,00,AAXX 06004 41859 02/40 33601 10260 20260 30004 40041 83030 333 58009 70618 83362==
41859,2024,09,06,03,00,AAXX 06034 41859 02950 00000 10311 20250 30020 40056 333 20246 59001 70138==
41859,2024,09,06,06,00,AAXX 06064 41859 02950 20502 10342 20260 30009 40046 333 59001 70018 82030 82362==
41859,2024,09,06,09,00,AAXX 06094 41859 02/50 20502 10352 20260 39976 40013 82030 333 59002 70000 82362==
41859,2024,09,06,12,00,AAXX 06124 41859 02450 60501 10341 20260 39972 40009 82530 333 10358 59002 70000 82618 86362==
41859,2024,09,06,15,00,AAXX 06154 41859 02430 60501 10308 20280 30001 40037 83530 333 59001 70000 83618 86362==
41859,2024,09,06,18,00,AAXX 06184 41859 02430 43602 10296 20280 30004 40040 82530 333 59006 70000 82618 84362==
41859,2024,09,06,21,00,AAXX 06214 41859 02430 40000 10290 20280 30001 40038 82530 333 59006 70000 82618 84362==
41859,2024,09,07,00,00,AAXX 07004 41859 02440 80000 10284 20270 39999 40036 8552/ 333 59005 70000 85618 88458==
41859,2024,09,07,03,00,AAXX 07034 41859 02450 60000 10333 20260 30008 40044 83520 333 20280 59012 70000 83618 86458==
41859,2024,09,07,06,00,AAXX 07064 41859 02450 60502 10354 20260 39994 40031 83520 333 59015 70000 83618 86458==
41859,2024,09,07,09,00,AAXX 07094 41859 02450 40000 10365 20270 39969 40005 82430 333 59007 70000 82618 84362==
41859,2024,09,07,12,00,AAXX 07124 41859 01450 80000 10350 20270 39960 49997 76122 8572/ 333 10370 59012 70000 83710 84618 88458==
41859,2024,09,07,15,00,AAXX 07154 41859 41430 80000 10310 20280 30000 40036 70262 8562/ 333 59001 83710 84618 88458==
41859,2024,09,07,18,00,AAXX 07184 41859 11430 80000 10297 20270 30010 40046 60006 70262 8562/ 333 58006 83710 84618 88458==
41859,2024,09,07,21,00,AAXX 07214 41859 42430 80000 10290 20270 30000 40037 8562/ 333 59001 83710 84618 88458==
41859,2024,09,08,00,00,AAXX 08004 41859 42440 80000 10288 20280 39995 40032 83570 333 59004 83618 85458==
41859,2024,09,08,03,00,AAXX 08034 41859 42450 60000 10313 20270 30012 40048 83520 333 20287 58004 83618 86458==
41859,2024,09,08,06,00,AAXX 08064 41859 42450 60000 10347 20270 30002 40039 83520 333 58008 83618 86458==
41859,2024,09,08,09,00,AAXX 08094 41859 42450 61802 10356 20270 39972 40008 82520 333 58003 82618 86458==
41859,2024,09,08,12,00,AAXX 08124 41859 42450 61302 10326 20270 39973 40010 82510 333 10357 58005 82618 86458==
41859,2024,09,08,15,00,AAXX 08154 41859 02930 00000 10290 20280 39993 40029 333 59007 70000==
41859,2024,09,08,18,00,AAXX 08184 41859 02930 00000 10302 20280 39997 40033 333 59013 70000==
41859,2024,09,08,21,00,AAXX 08214 41859 02930 01802 10294 20280 39990 40027 333 59010 70000==
41859,2024,09,09,00,00,AAXX 09004 41859 02935 00000 10290 20280 39985 40022 333 59010 70000==
41859,2024,09,09,03,00,AAXX 09034 41859 02950 00000 10332 20250 30000 40037 333 20284 59012 70000==
41859,2024,09,09,06,00,AAXX 09064 41859 02450 61302 10341 20260 39995 40032 84620 333 59007 70000 82710 84618 86458==
41859,2024,09,09,09,00,AAXX 09094 41859 02450 30902 10360 20260 39964 40000 83400 333 59008 70000 81618 83828==
41859,2024,09,09,12,00,AAXX 09124 41859 02/50 31301 10340 20260 39959 49996 83030 333 10360 59015 70000 83362==
41859,2024,09,09,15,00,AAXX 09154 41859 02/30 31302 10315 20280 39987 40023 83030 333 59006 70000 83362==
41859,2024,09,09,18,00,AAXX 09184 41859 02/30 21302 10305 20280 39995 40031 82030 333 59002 70000 82362==
41859,2024,09,09,21,00,AAXX 09214 41859 02/30 21302 10290 20280 39992 40029 82030 333 58002 70000 82362==
41859,2024,09,10,00,00,AAXX 10004 41859 02/40 21302 10286 20280 39988 40025 82030 333 58003 70000 82362==
41859,2024,09,10,03,00,AAXX 10034 41859 02/50 21302 10323 20250 30005 40041 82030 333 20283 58005 70000 82362==
41859,2024,09,10,06,00,AAXX 10064 41859 02450 41302 10346 20260 30000 40037 82530 333 58005 70000 82618 84362==
41859,2024,09,10,09,00,AAXX 10094 41859 02450 60502 10356 20270 39966 40002 83520 333 58002 70000 83618 86458==
41859,2024,09,10,12,00,AAXX 10124 41859 02450 31302 10330 20260 39962 49999 81530 333 10362 58003 70000 81618 83362==
41859,2024,09,10,15,00,AAXX 10154 41859 02/30 31302 10307 20280 39993 40029 83030 333 58006 70000 83362==
41859,2024,09,10,18,00,AAXX 10184 41859 02/30 31302 10298 20270 30005 40041 83030 333 58010 70000 83362==
41859,2024,09,10,21,00,AAXX 10214 41859 02/30 31301 10290 20270 39998 40035 83030 333 58006 70000 83362==
41859,2024,09,11,00,00,AAXX 11004 41859 02/40 31302 10283 20270 39989 40026 83030 333 58001 70000 83362==
41859,2024,09,11,03,00,AAXX 11034 41859 02/50 31302 10330 20260 30008 40045 83030 333 20280 58003 70000 83362==
41859,2024,09,11,06,00,AAXX 11064 41859 02/50 31302 10354 20250 39998 40035 83030 333 59002 70000 83362==
41859,2024,09,11,09,00,AAXX 11094 41859 02450 60000 10362 20260 39971 40007 83430 333 58005 70000 83618 85362==
41859,2024,09,11,12,00,AAXX 11124 41859 01450 80000 10285 20280 39978 40015 72996 8562/ 333 10365 58016 70130 82710 84618 88458==
41859,2024,09,11,15,00,AAXX 11154 41859 02430 80000 10276 20270 30008 40045 8562/ 333 58015 70132 82710 84618 88458==
41859,2024,09,11,18,00,AAXX 11184 41859 02430 80000 10275 20270 39998 40035 8562/ 333 59007 70132 82710 84618 88458==
41859,2024,09,11,21,00,AAXX 11214 41859 02430 80000 10272 20260 39988 40025 8562/ 333 59010 70132 82710 84618 88458==
41859,2024,09,12,00,00,AAXX 12004 41859 02440 60000 10268 20260 39979 40016 83570 333 59010 70132 83618 85458==
41859,2024,09,12,03,00,AAXX 12034 41859 02450 71302 10306 20250 30004 40040 84620 333 20264 59004 70132 82710 83618 87458==
41859,2024,09,12,06,00,AAXX 12064 41859 02450 71302 10341 20240 39991 40028 84620 333 59007 70132 82710 83618 87458==
41859,2024,09,12,09,00,AAXX 12094 41859 02/50 20502 10356 20250 39963 49999 82030 333 59008 70132 82362==
41859,2024,09,12,12,00,AAXX 12124 41859 02/50 20502 10340 20260 39965 40002 82030 333 10358 59013 70000 82362==
41859,2024,09,12,15,00,AAXX 12154 41859 02930 00502 10311 20270 39979 40015 333 59029 70000==
41859,2024,09,12,18,00,AAXX 12184 41859 02930 00000 10300 20280 39992 40028 333 59006 70000==
41859,2024,09,12,21,00,AAXX 12214 41859 02930 00000 10290 20280 39986 40023 333 59002 70000==
41863,2024,09,06,00,00,AAXX 06004 41863 02950 00000 10255 20250 39999 40042 333 58007 70108==
41863,2024,09,06,03,00,AAXX 06034 41863 02956 01801 10314 20250 30016 40058 333 20245 58008 70078==
41863,2024,09,06,06,00,AAXX 06064 41863 02957 00902 10336 20260 30008 40050 333 59012 70000==
41863,2024,09,06,09,00,AAXX 06094 41863 02557 20000 10352 20250 39975 40016 82100 333 58003 70000 82830==
41863,2024,09,06,12,00,AAXX 06124 41863 02457 30000 10322 20290 39970 40012 84400 333 10356 58004 70000 82618 83828==
41863,2024,09,06,15,00,AAXX 06154 41863 02957 00000 10295 20290 39997 40039 333 58002 70000==
41863,2024,09,06,18,00,AAXX 06184 41863 02957 00000 10282 20270 39998 40040 333 59006 70000==
41863,2024,09,06,21,00,AAXX 06214 41863 02/57 30000 10276 20270 39991 40033 83030 333 59012 70000 83362==
41863,2024,09,07,00,00,AAXX 07004 41863 02/57 30000 10272 20260 39994 40037 83030 333 59005 70000 83362==
41863,2024,09,07,03,00,AAXX 07034 41863 02/58 30902 10335 20270 30002 40043 83030 333 20266 59012 70000 83362==
41863,2024,09,07,06,00,AAXX 07064 41863 02/58 30902 10352 20250 39989 40030 83030 333 59019 70000 83362==
41863,2024,09,07,09,00,AAXX 07094 41863 02557 20000 10361 20250 39970 40011 82400 333 59005 70000 82620==
41863,2024,09,07,12,00,AAXX 07124 41863 02956 30000 10345 20290 39963 40004 80002 333 10365 59007 70000 83074==
41863,2024,09,07,15,00,AAXX 07154 41863 02450 30901 10312 20260 39999 40041 83600 333 58002 70000 83710==
41863,2024,09,07,18,00,AAXX 07184 41863 21450 80000 10286 20280 30001 40043 70362 8452/ 333 58003 60025 70020 84617 88458==
41863,2024,09,07,21,00,AAXX 07214 41863 02450 80000 10290 20280 39988 40030 8452/ 333 59003 70020 84617 88458==
41863,2024,09,08,00,00,AAXX 08004 41863 02450 80000 10282 20270 30089 40031 8452/ 333 59010 70020 84617 88458==
41863,2024,09,08,03,00,AAXX 08034 41863 02457 61801 10330 20270 30005 40047 83510 333 20278 58003 70020 83618 86458==
41863,2024,09,08,06,00,AAXX 08064 41863 02457 61804 10341 20270 39998 40039 83520 333 58009 70020 83618 86458==
41863,2024,09,08,09,00,AAXX 08094 41863 02457 71301 10340 20270 39966 40007 84510 333 59004 70020 84618 87458==
41863,2024,09,08,15,00,AAXX 08154 41863 02550 30000 10294 20270 39987 40029 83400 333 59012 70020 83425==
41863,2024,09,08,18,00,AAXX 08184 41863 02456 71301 10321 20270 39967 40009 84510 333 10346 58004 70020 84618 87458==
41863,2024,09,08,21,00,AAXX 08214 41863 02/50 30000 10285 20280 39983 40025 83030 333 59005 70000 83362==
41863,2024,09,09,00,00,AAXX 09004 41863 02/50 30000 10281 20270 39976 40018 83030 333 59013 70000 83362==
41863,2024,09,09,03,00,AAXX 09034 41863 02/57 21303 10323 20250 39992 40034 83020 333 20275 59013 70000 82362==
41863,2024,09,09,06,00,AAXX 09064 41863 42457 51303 10340 20250 39989 40030 85400 333 59009 83618 85828==
41863,2024,09,09,09,00,AAXX 09094 41863 02557 30901 10346 20270 39958 49999 83400 333 59008 70000 83620==
41863,2024,09,09,12,00,AAXX 09124 41863 02956 01301 10335 20270 39952 49993 333 10350 59015 70000==
41863,2024,09,09,15,00,AAXX 09154 41863 02950 00000 10305 20280 39979 40021 333 59008 70000==
41863,2024,09,09,18,00,AAXX 09184 41863 02950 00000 10296 20280 39984 40026 333 59006 70000==
41863,2024,09,10,00,00,AAXX 10004 41863 02950 00901 10280 20270 39981 40023 333 58005 70000==
41863,2024,09,10,03,00,AAXX 10034 41863 02457 51804 10322 20250 39999 40041 85400 333 20276 58007 70000 83618 85830==
41863,2024,09,10,06,00,AAXX 10064 41863 02457 50904 10345 20270 39991 40032 85400 333 58002 70000 83618 85830==
41863,2024,09,10,09,00,AAXX 10094 41863 02458 41502 10346 20270 39959 40000 84400 333 58001 70000 82618 83830==
41863,2024,09,10,12,00,AAXX 10124 41863 02458 40000 10330 20270 39955 49996 84400 333 10350 58003 70000 82618 83830==
41863,2024,09,10,15,00,AAXX 10154 41863 02957 01202 10305 20270 39983 40025 333 58004 70000==
41863,2024,09,10,18,00,AAXX 10184 41863 02457 81202 10295 20270 39996 40038 8452/ 333 58012 70000 84618 88458==
41863,2024,09,10,21,00,AAXX 10214 41863 02457 61202 10290 20260 39986 40031 83520 333 58003 70000 83618 86458==
41863,2024,09,11,00,00,AAXX 11004 41863 02/57 31502 10283 20270 39983 40025 83030 333 58002 70000 83362==
41863,2024,09,11,03,00,AAXX 11034 41863 02457 51302 10325 20270 30002 40044 85400 333 20275 58003 70000 83618 85830==
41863,2024,09,11,06,00,AAXX 11064 41863 02457 51303 10348 20270 39993 40034 85400 333 58002 70000 83618 85830==
41863,2024,09,11,09,00,AAXX 11094 41863 02557 31703 10351 20260 39965 40006 83400 333 58006 70000 83620==
41863,2024,09,11,12,00,AAXX 11123 41863 02957 30901 10341 20270 39968 40009 80002 333 10353 58013 70000 82083==
41863,2024,09,11,15,00,AAXX 11154 41863 02950 00904 10285 20270 30001 40043 333 58018 70000==
41863,2024,09,11,18,00,AAXX 11184 41863 02450 20905 10277 20260 39997 40039 82400 333 58007 70000 82617==
41863,2024,09,11,21,00,AAXX 11214 41863 02450 20901 10270 20250 39982 40025 82400 333 58004 70000 82617==
41863,2024,09,12,00,00,AAXX 12004 41863 02957 30000 10267 20260 39981 40024 80002 333 59002 70000 83083==
41863,2024,09,12,03,00,AAXX 12034 41863 02/57 30502 10313 20240 39998 40040 83030 333 20261 59004 70000 83365==
41863,2024,09,12,06,00,AAXX 12064 41863 02457 60903 10345 20250 39989 40030 83520 333 59004 70000 83618 86458==
41863,2024,09,12,09,00,AAXX 12094 41863 02/57 20502 10347 20250 39962 40003 82030 333 59003 70000 82362==
41863,2024,09,12,12,00,AAXX 12124 41863 02/57 20000 10337 20270 39961 40002 82030 333 10355 59007 70000 82362==
41863,2024,09,12,15,00,AAXX 12154 41863 02950 00000 10294 20270 39976 40018 333 59025 70000==
41863,2024,09,12,18,00,AAXX 12184 41863 02950 00000 10283 20260 39975 40017 333 59022 70000==
41863,2024,09,12,21,00,AAXX 12214 41863 02950 00000 10274 20260 39961 40003 333 59021 70000==
41881,2024,09,06,00,00,AAXX 06004 41881 32456 43501 10242 20240 30021 40041 82530 333 56990 58008 70285 82616 83362=
41881,2024,09,06,06,00,AAXX 06064 41881 NIL=
41881,2024,09,06,12,00,AAXX 06124 41881 32458 40000 10328 20260 39986 40006 84400 333 10357 56900 58000 70000 82616 83825=
41881,2024,09,06,18,00,AAXX 06184 41881 32450 60901 10285 20280 30018 40038 83520 333 56990 59003 70000 83616 86460=
41881,2024,09,07,00,00,AAXX 07004 41881 32456 70000 10282 20280 30013 40033 84570 333 56990 59008 70000 84618 86460=
41881,2024,09,07,06,00,AAXX 07064 41881 32458 60802 10337 20280 30012 40032 83520 333 56990 59007 70000 83618 86460=
41881,2024,09,07,12,00,AAXX 07124 41881 32457 61601 10325 20280 39982 40002 83501 333 10350 56909 59004 70000 83618 84082=
41881,2024,09,07,18,00,AAXX 07184 41881 NIL=
41881,2024,09,08,00,00,AAXX 08004 41881 32456 50000 10285 20280 30009 40029 83501 333 56909 59004 70000 83618 84082=
41881,2024,09,08,12,00,AAXX 08124 41881 32458 30801 10322 20290 39984 40004 83500 333 10345 56900 58002 70000 83618=
41881,2024,09,08,18,00,AAXX 08184 41881 32950 00901 10295 20290 30011 40031 333 59009 70000=
41881,2024,09,09,00,00,AAXX 09004 41881 32957 20902 10275 20260 39999 40019 80001 333 59010 70000 82082=
41881,2024,09,09,06,00,AAXX 09064 41881 32458 50903 10334 20260 30007 40026 83520 333 56290 59009 70000 83618 85459=
41881,2024,09,09,12,00,AAXX 09124 41881 32456 21001 10320 20250 39971 49991 82500 333 10341 56900 59013 70000 82620=
41881,2024,09,09,18,00,AAXX 09184 41881 32950 01001 10285 20280 30002 40021 333 59009 70000=
41881,2024,09,10,00,00,AAXX 10004 41881 32956 20901 10272 20260 39999 40019 80001 333 56009 58000 70000 82082=
41881,2024,09,10,06,00,AAXX 10064 41881 32457 50903 10325 20270 30008 40027 83520 333 56290 58001 70000 83618 85459=
41881,2024,09,10,12,00,AAXX 10124 41881 32456 31001 10315 20270 39973 49993 83500 333 10340 56900 58002 70000 83618=
41881,2024,09,10,18,00,AAXX 10184 41881 32950 00901 10288 20280 30017 40036 333 58015 70000=
41881,2024,09,11,00,00,AAXX 11004 41881 32956 20901 10273 20270 30002 40022 80001 333 56009 58003 70000 82082=
41881,2024,09,11,06,00,AAXX 11064 41881 32457 60901 10330 20270 30015 40034 83520 333 56290 58007 70000 83618 86459=
41881,2024,09,11,12,00,AAXX 11123 41881 32456 61001 10314 20270 39987 40007 83520 333 10346 56290 58014 70000 83618 86459=
41881,2024,09,11,18,00,AAXX 11184 41881 32950 20901 10280 20260 30020 40040 80001 333 56009 58003 70000 82082=
41881,2024,09,12,00,00,AAXX 12004 41881 32456 30901 10270 20260 30010 40030 83500 333 56290 58008 70000 83618=
41881,2024,09,12,06,00,AAXX 12064 41881 32458 63601 10320 20270 30011 40030 83520 333 56290 59004 70000 83618 86459=
41881,2024,09,12,12,00,AAXX 12124 41881 32956 03601 10315 20290 39985 40004 333 10337 59002 70000=
41881,2024,09,12,18,00,AAXX 12184 41881 32950 02701 10287 20280 30003 40023 333 59017 70000=
41883,2024,09,06,00,00,AAXX 06004 41883 21450 40000 10246 20240 30019 40039 70162 82520 333 58010 60035 70042 82618 88458==
41883,2024,09,06,03,00,AAXX 06034 41883 02956 00000 10310 20240 30035 40055 333 20238 58004 70042==
41883,2024,09,06,06,00,AAXX 06064 41883 02456 20000 10353 20250 30022 40042 82500 333 59005 70032 82616==
41883,2024,09,06,09,00,AAXX 06094 41883 02/56 50000 10363 20270 39993 40013 85010 333 59001 70032 85459==
41883,2024,09,06,12,00,AAXX 06124 41883 02/50 50000 10340 20270 39985 40005 85030 333 10365 58001 70032 85362==
41883,2024,09,06,15,00,AAXX 06154 41883 02/30 60000 10310 20280 30011 40031 86030 333 58001 70032 86362==
41883,2024,09,06,18,00,AAXX 06184 41883 02/30 30000 10298 20270 30016 40036 83030 333 59009 70032 83362==
41883,2024,09,06,21,00,AAXX 06214 41883 02/30 30000 10294 20280 30013 40033 83030 333 59015 70032 83362==
41883,2024,09,07,00,00,AAXX 07004 41883 02450 60000 10292 20280 30014 40034 83530 333 59005 70000 83616 86362==
41883,2024,09,07,03,00,AAXX 07034 41883 02450 80000 10312 20280 30018 40038 8452/ 333 20285 59017 70000 84618 88458==
41883,2024,09,07,06,00,AAXX 07064 41883 02450 81302 10346 20280 30012 40032 8542/ 333 59010 70000 83618 83828 88458==
41883,2024,09,07,09,00,AAXX 07094 41883 02456 51302 10342 20280 39987 40007 83510 333 70000 83616 85459==
41883,2024,09,07,12,00,AAXX 07124 41883 02/56 40000 10336 20280 39985 40005 84030 333 10350 58000 70000 84362==
41883,2024,09,07,15,00,AAXX 07154 41883 02430 70000 10314 20280 30017 40037 84520 333 58006 70000 84616 87459==
41883,2024,09,07,18,00,AAXX 07184 41883 02430 70000 10308 20290 30025 40045 85520 333 58009 70000 85616 87459==
41883,2024,09,07,21,00,AAXX 07214 41883 02430 80000 10300 20290 30020 40040 8552/ 333 58007 70000 85615 88458==
41883,2024,09,08,00,00,AAXX 08004 41883 02330 80902 10294 20280 30015 40035 8562/ 333 58001 70000 85709 88458==
41883,2024,09,08,03,00,AAXX 08034 41883 02450 80000 10302 20270 30031 40051 8452/ 333 20286 58013 70000 84618 88458==
41883,2024,09,08,06,00,AAXX 08064 41883 02450 81302 10342 20270 30020 40040 8452/ 333 58008 70000 84618 88458==
41883,2024,09,08,09,00,AAXX 08094 41883 02450 61302 10350 20280 39989 40009 82520 333 58002 70000 82618 86458==
41883,2024,09,08,12,00,AAXX 08124 41883 02450 61302 10334 20280 39986 40006 82520 333 10355 58001 70000 82618 86458==
41883,2024,09,08,15,00,AAXX 08154 41883 02/30 40000 10306 20270 30007 40027 84030 333 59010 70000 84362==
41883,2024,09,08,18,00,AAXX 08184 41883 02430 80000 10304 20260 30015 40035 8552/ 333 59010 70000 85616 88459==
41883,2024,09,08,21,00,AAXX 08214 41883 02930 00902 10298 20260 30009 40029 333 59011 70000==
41883,2024,09,09,00,00,AAXX 09004 41883 02940 00902 10290 20260 30002 40022 333 59013 70000==
41883,2024,09,09,03,00,AAXX 09034 41883 02956 41302 10324 20270 30016 40036 80001 333 20285 59015 70000 84080==
41883,2024,09,09,06,00,AAXX 09064 41883 02456 50904 10340 20260 30008 40028 83510 333 59012 70000 83616 85459==
41883,2024,09,09,09,00,AAXX 09094 41883 02456 40903 10340 20260 39978 49998 84400 333 59011 70000 82616 83828==
41883,2024,09,09,12,00,AAXX 09124 41883 02/56 20902 10330 20270 39975 49995 82030 333 10350 59011 70000 82362==
41883,2024,09,09,15,00,AAXX 09154 41883 02430 81302 10314 20270 30002 40022 8452/ 333 59005 70000 84618 88458==
41883,2024,09,09,18,00,AAXX 09184 41883 02/30 20902 10300 20260 30006 40026 82030 333 59009 70000 82362==
41883,2024,09,09,21,00,AAXX 09214 41883 02930 00000 10290 20270 39999 40019 333 59010 70000==
41883,2024,09,10,00,00,AAXX 10004 41883 02450 40000 10284 20260 30000 40020 82520 333 59002 70000 82618 84458==
41883,2024,09,10,03,00,AAXX 10034 41883 02/56 41302 10310 20260 30019 40039 84030 333 20280 58003 70000 84362==
41883,2024,09,10,06,00,AAXX 10064 41883 02456 50904 10330 20250 30013 40033 82530 333 58005 70000 82616 85362==
41883,2024,09,10,09,00,AAXX 10094 41883 02456 51302 10346 20270 39983 40003 83530 333 58005 70000 83616 85362==
41883,2024,09,10,12,00,AAXX 10124 41883 02450 50000 10326 20270 39978 49998 83530 333 10349 58003 70000 83616 85362==
41883,2024,09,10,15,00,AAXX 10154 41883 02/30 40902 10310 20270 30008 40028 84030 333 58006 70000 84362==
41883,2024,09,10,18,00,AAXX 10184 41883 02930 00904 10300 20270 30017 40037 333 58011 70000==
41883,2024,09,10,21,00,AAXX 10214 41883 02930 00902 10290 20270 30007 40027 333 58008 70000==
41883,2024,09,11,00,00,AAXX 11004 41883 02/50 40902 10284 20270 30005 40025 84030 333 58005 70000 84362==
41883,2024,09,11,03,00,AAXX 11034 41883 02456 31302 10314 20260 30022 40042 83400 333 20280 58003 70000 81616 83828==
41883,2024,09,11,06,00,AAXX 11064 41883 02456 40903 10344 20270 30010 40030 84400 333 59003 70000 82616 83828==
41883,2024,09,11,09,00,AAXX 11094 41883 02456 41302 10350 20260 39985 40005 84400 333 58002 70000 83616==
41883,2024,09,11,12,00,AAXX 11124 41883 02956 50000 10326 20270 39986 40006 80001 333 10354 58008 70000 85080==
41883,2024,09,11,15,00,AAXX 11154 41883 02430 70902 10306 20280 30017 40037 84520 333 58009 70000 84615 87458==
41883,2024,09,11,18,00,AAXX 11184 41883 02430 80000 10296 20280 30016 40036 8552/ 333 59001 70000 85615 88458==
41883,2024,09,11,21,00,AAXX 11214 41883 02330 80000 10290 20270 30013 40033 8562/ 333 58006 70000 85709 88458==
41883,2024,09,12,00,00,AAXX 12004 41883 02430 70000 10282 20260 30005 40025 85520 333 58000 70000 85616 87458==
41883,2024,09,12,03,00,AAXX 12034 41883 02/56 32702 10318 20270 30012 40032 83030 333 20278 59010 70000 83362==
41883,2024,09,12,06,00,AAXX 12064 41883 02/56 32704 10354 20250 30002 40022 83030 333 59008 70000 83362==
41883,2024,09,12,09,00,AAXX 12094 41883 02456 43102 10364 20280 39973 49993 82520 333 59012 70000 82618 84458==
41883,2024,09,12,12,00,AAXX 12124 41883 02450 42302 10352 20280 39976 49996 82520 333 10367 59010 70000 82618 84458==
41883,2024,09,12,15,00,AAXX 12154 41883 02930 00000 10315 20280 39989 40009 333 59028 70000==
41883,2024,09,12,18,00,AAXX 12184 41883 02/30 30000 10306 20280 39995 40015 83030 333 59027 70000 83362==
41883,2024,09,12,21,00,AAXX 12214 41883 02/30 30000 10298 20270 39989 40009 83030 333 59024 70000 83362==
41886,2024,09,06,00,00,AAXX 06004 41886 02450 50000 10280 20270 30017 40037 83530 333 58007 70056 83618 83365==
41886,2024,09,06,03,00,AAXX 06034 41886 02/56 30000 10310 20260 30037 40057 83030 333 20263 58008 70056 83365==
41886,2024,09,06,06,00,AAXX 06064 41886 02/57 30000 10349 20260 30023 40043 83030 333 59010 70040 83365==
41886,2024,09,06,09,00,AAXX 06094 41886 02457 50000 10350 20260 39996 40016 82470 333 59002 70000 81618 84460==
41886,2024,09,06,12,00,AAXX 06124 41886 02/56 50000 10333 20280 39985 40005 85030 333 10355 59002 70000 85363==
41886,2024,09,06,15,00,AAXX 06154 41886 02450 80000 10302 20270 30015 40035 8351/ 333 59001 70000 83618 88460==
41886,2024,09,06,18,00,AAXX 06184 41886 02450 60000 10290 20280 30019 40039 82570 333 58002 70000 82618 85460==
41886,2024,09,06,21,00,AAXX 06214 41886 02450 80000 10290 20280 30020 40040 8351/ 333 58007 70000 83618 88460==
41886,2024,09,07,00,00,AAXX 07004 41886 01440 80000 10255 20250 30022 40043 76162 8452/ 333 58000 70030 84616 88458==
41886,2024,09,07,03,00,AAXX 07034 41886 01456 60000 10295 20260 30025 40045 70162 82470 333 20255 59012 70048 81618 85460==
41886,2024,09,07,06,00,AAXX 07064 41886 11557 50904 10330 20270 30020 40040 60026 70162 82230 333 59003 70048 82825 85363==
41886,2024,09,07,09,00,AAXX 07094 41886 02457 60000 10350 20270 39991 40011 83470 333 59005 70048 82618 85460==
41886,2024,09,07,12,00,AAXX 07124 41886 02456 70000 10327 20290 39988 40008 83510 333 10352 58003 70048 83618 87460==
41886,2024,09,07,15,00,AAXX 07154 41886 02450 60000 10302 20290 30026 40046 82510 333 58011 70048 82618 85460==
41886,2024,09,07,18,00,AAXX 07184 41886 02450 60000 10300 20290 30032 40052 82570 333 58013 70048 82618 85460==
41886,2024,09,08,00,00,AAXX 08004 41886 01450 80000 10262 20250 30022 40043 76196 8532/ 333 58000 70050 83616 88458 81930==
41886,2024,09,08,06,00,AAXX 08064 41886 01450 80000 10280 20260 30027 40048 71322 8331/ 333 58007 70048 83616 88458 81930==
41886,2024,09,08,09,00,AAXX 08094 41886 02457 60000 10334 20270 39995 40015 84430 333 58004 70051 82618 83825 85362==
41886,2024,09,08,12,00,AAXX 08124 41886 02456 30000 10325 20290 39989 40009 83400 333 10345 58001 70051 83618==
41886,2024,09,08,15,00,AAXX 08154 41886 02440 50000 10310 20280 30015 40035 83530 333 59011 70051 83618 85365==
41886,2024,09,08,18,00,AAXX 08184 41886 NIL=
41886,2024,09,08,21,00,AAXX 08214 41886 02/40 50000 10296 20280 30015 40035 85030 333 59012 70051 85365==
41886,2024,09,09,00,00,AAXX 09004 41886 02/60 60000 10286 20270 30009 40029 85030 333 70006 85363==
41886,2024,09,09,03,00,AAXX 09034 41886 02457 51804 10316 20250 30017 40037 81530 333 20280 59022 70000 81618 85363==
41886,2024,09,09,06,00,AAXX 09064 41886 02457 51804 10340 20250 30017 40037 84530 333 59008 70000 84618 85363==
41886,2024,09,09,09,00,AAXX 09094 41886 02457 51804 10342 20260 39985 40005 84430 333 59010 70000 83618 83365==
41886,2024,09,09,12,00,AAXX 09124 41886 02/50 30000 10327 20270 39984 40004 83040 333 10343 59005 70000 83364==
41886,2024,09,09,15,00,AAXX 09154 41886 02440 50000 10312 20260 30010 40030 82520 333 59005 70000 82618 83462==
41886,2024,09,09,18,00,AAXX 09184 41886 02450 40000 10303 20260 30015 40035 82520 333 59007 70000 82618==
41886,2024,09,10,00,00,AAXX 10004 41886 02450 50000 10285 20270 30010 40030 82520 333 58001 70000 82618 84462==
41886,2024,09,10,03,00,AAXX 10034 41886 02450 71802 10315 20270 30029 40049 83510 333 20284 58012 70000 83618 85462==
41886,2024,09,10,06,00,AAXX 10064 41886 02457 60000 10332 20250 30017 40037 84420 333 58000 70000 83618 84462==
41886,2024,09,10,09,00,AAXX 10094 41886 02457 60000 10330 20270 39988 40008 84410 333 58003 70000 83618 85462==
41886,2024,09,10,12,00,AAXX 10124 41886 02456 60000 10322 20270 39989 40009 84410 333 10340 58005 70000 83618 85460==
41886,2024,09,10,15,00,AAXX 10154 41886 02456 60000 10302 20270 30017 40037 83570 333 58007 70000 83618 85460==
41886,2024,09,10,18,00,AAXX 10184 41886 02456 60000 10290 20280 30027 40047 83570 333 58012 70000 83618 85460==
41886,2024,09,10,21,00,AAXX 10214 41886 02450 60000 10286 20280 30023 40043 83570 333 58007 70000 83618 85460==
41886,2024,09,11,00,00,AAXX 11004 41886 02456 50000 10283 20270 30016 40036 83530 333 58006 70000 83618 84365==
41886,2024,09,11,03,00,AAXX 11034 41886 02456 50000 10316 20270 30030 40050 84470 333 20281 58001 70000 83618 84460==
41886,2024,09,11,06,00,AAXX 11064 41886 02457 50000 10339 20260 30017 40037 84430 333 58000 70000 83618 84365==
41886,2024,09,11,09,00,AAXX 11094 41886 02457 60000 10346 20260 39993 40013 81540 333 58005 70000 81618 86365==
41886,2024,09,11,12,00,AAXX 11124 41886 02457 70000 10330 20270 39987 40007 81550 333 10350 59002 70000 81618 87365==
41886,2024,09,11,15,00,AAXX 11154 41886 02450 80000 10302 20270 30019 40039 8151/ 333 58002 70000 81618 88460==
41886,2024,09,11,18,00,AAXX 11184 41886 02450 80000 10290 20270 30015 40035 8252/ 333 59012 70000 82618 88460==
41886,2024,09,11,21,00,AAXX 11214 41886 02450 80000 10290 20280 30010 40030 8152/ 333 59013 70000 81618 88460==
41886,2024,09,12,00,00,AAXX 12004 41886 02450 70000 10280 20270 39999 40019 81550 333 59017 70000 81618 87365==
41886,2024,09,12,03,00,AAXX 12034 41886 02/57 60000 10340 20270 30015 40035 86050 333 20278 59015 70000 86365==
41886,2024,09,12,06,00,AAXX 12064 41886 02457 40000 10360 20250 30000 40020 82430 333 59017 70000 81618 84365==
41886,2024,09,12,09,00,AAXX 12094 41886 02457 40000 10372 20240 39976 49996 81530 333 59017 70000 81618 84365==
41886,2024,09,12,12,00,AAXX 12124 41886 02/57 50000 10346 20270 39973 49993 85030 333 10374 59014 70000 85365==
41886,2024,09,12,15,00,AAXX 12154 41886 02/40 50000 10320 20280 39995 40015 85030 333 59024 70000 85365==
41886,2024,09,12,18,00,AAXX 12184 41886 02/40 50000 10310 20280 39988 40008 85030 333 59027 70000 85365==
41886,2024,09,12,21,00,AAXX 12214 41886 02440 60000 10300 20270 39986 40006 81570 333 59024 70000 81618 85363==
41888,2024,09,06,00,00,AAXX 06004 41888 32456 43601 10270 20260 30029 40039 82530 333 56990 58007 70000 82618 83362=
41888,2024,09,06,06,00,AAXX 06064 41888 32457 41801 10340 20250 30027 40037 82530 333 56990 59005 70000 82620 83365=
41888,2024,09,06,12,00,AAXX 06124 41888 32557 32101 10328 20280 39993 40003 82430 333 10357 56990 58001 70000 81620 83365=
41888,2024,09,06,18,00,AAXX 06184 41888 32556 31801 10286 20280 30022 40032 83330 333 56990 59008 70000 81620 81930=
41888,2024,09,06,21,00,AAXX 06214 41888 32458 23601 10352 20270 30030 40040 82400 333 56900 59005 70000 81618=
41888,2024,09,07,00,00,AAXX 07004 41888 11457 81901 10263 20260 30030 40040 60049 70262 8432/ 333 56999 58001 70043 83618 81930 88460=
41888,2024,09,07,06,00,AAXX 07064 41888 11457 41001 10327 20270 30023 40033 60066 70262 83470 333 56990 59004 70103 82618 83460=
41888,2024,09,07,12,00,AAXX 07124 41888 32456 80901 10315 20280 39999 40009 8341/ 333 10345 56999 59006 70103 82618 88460=
41888,2024,09,07,18,00,AAXX 07184 41888 32450 60902 10295 20290 30039 40049 82510 333 56990 58017 70103 82618 86460=
41888,2024,09,08,00,00,AAXX 08004 41888 11450 80501 10250 20250 30026 40036 60447 76196 8332/ 333 56999 59004 70500 82616 81930 88460=
41888,2024,09,08,12,00,AAXX 08124 41888 32457 20901 10325 20280 30007 40017 82400 333 10342 56900 58008 70440 81618=
41888,2024,09,08,18,00,AAXX 08184 41888 32950 01801 10295 20290 30025 40035 333 59014 70440=
41888,2024,09,09,00,00,AAXX 09004 41888 32450 60000 10285 20280 30018 40028 82530 333 56990 59008 70000 82618 86365=
41888,2024,09,09,06,00,AAXX 09064 41888 32458 40903 10328 20260 30023 40033 84400 333 56900 59010 70000 81618 83820=
41888,2024,09,09,12,00,AAXX 09124 41888 32557 40902 10320 20260 39992 40002 81101 333 10335 56909 59015 70000 81825 84080=
41888,2024,09,09,18,00,AAXX 09184 41888 32440 82702 10285 20280 30019 40029 8252/ 333 56999 59006 70000 82618 88460=
41888,2024,09,10,00,00,AAXX 10004 41888 32450 80501 10280 20260 30017 40027 8252/ 333 56999 59001 70000 82618 88460=
41888,2024,09,10,06,00,AAXX 10064 41888 32457 40903 10324 20250 30028 40038 84400 333 56900 58005 70000 81618 83825=
41888,2024,09,10,12,00,AAXX 10124 41888 32558 60902 10315 20270 39995 40005 82101 333 10335 56909 58003 70000 82825 86080=
41888,2024,09,10,18,00,AAXX 10184 41888 32450 81802 10290 20260 30034 40044 8351/ 333 56999 58015 70000 83618 88460=
41888,2024,09,11,00,00,AAXX 11004 41888 31440 70901 10282 20270 30023 40033 70522 82470 333 56990 58006 70000 81618 86460=
41888,2024,09,11,06,00,AAXX 11064 41888 32456 41102 10332 20250 30020 40030 84400 333 56900 59008 70000 81618 83822=
41888,2024,09,11,12,00,AAXX 11123 41888 32457 40901 10320 20280 39995 40005 83430 333 10346 56990 58000 70000 82618 83365=
41888,2024,09,11,18,00,AAXX 11184 41888 32950 50901 10295 20270 30016 40026 85030 333 56090 59018 70000 85365=
41888,2024,09,12,00,00,AAXX 12004 41888 32950 30000 10272 20260 30002 40012 83030 333 56090 59022 70000 83365=
41888,2024,09,12,06,00,AAXX 12064 41888 32958 33601 10350 20240 30005 40015 83030 333 56090 59015 70000 83365=
41888,2024,09,12,12,00,AAXX 12124 41888 32557 30000 10340 20260 39979 49989 81430 333 10367 56990 59016 70000 81620 83365=
41888,2024,09,12,18,00,AAXX 12184 41888 32556 20000 10304 20280 39997 40007 82400 333 56900 59019 70000 81620=
41891,2024,09,06,00,00,AAXX 06004 41891 01430 61502 10275 20270 30000 40038 70522 84330 333 59008 70000 83616 85365 81930==
41891,2024,09,06,03,00,AAXX 06034 41891 01450 61004 10317 20270 30017 40055 70522 84310 333 20275 58003 70000 83616 86458 81930==
41891,2024,09,06,06,00,AAXX 06064 41891 01450 61204 10340 20250 39998 40034 70522 84370 333 59009 70000 83616 84458 81930==
41891,2024,09,06,09,00,AAXX 06094 41891 01450 52703 10355 20290 39964 40001 70522 82530 333 59007 70000 82615 84365==
41891,2024,09,06,12,00,AAXX 06124 41891 01440 63205 10318 20270 39963 40000 70522 84370 333 10365 58002 70000 83615 86460 81930==
41891,2024,09,06,15,00,AAXX 06154 41891 01430 50000 10305 20250 39987 40025 71322 82930 333 58000 70000 82616 84362 81930==
41891,2024,09,06,18,00,AAXX 06184 41891 01430 60000 10270 20240 30001 40039 71392 83920 333 59002 70000 83616 85458 81930==
41891,2024,09,06,21,00,AAXX 06214 41891 41430 60000 10272 20240 39999 40037 70596 83320 333 59002 83616 85458 81930==
41891,2024,09,07,00,00,AAXX 07004 41891 11440 40000 10269 20250 30000 40038 60006 70596 82501 333 58000 82616 83074==
41891,2024,09,07,03,00,AAXX 07034 41891 41440 61704 10317 20260 30006 40043 70522 84330 333 20269 59011 83616 85365 81930==
41891,2024,09,07,06,00,AAXX 07064 41891 41445 50000 10336 20260 39992 40029 70522 83330 333 59006 83616 85365 81930==
41891,2024,09,07,09,00,AAXX 07094 41891 41450 41204 10355 20250 39968 40006 70522 82430 333 58004 81616 84665==
41891,2024,09,07,12,00,AAXX 07124 41891 41440 63404 10335 20260 39948 49986 70522 84330 333 10370 59015 83616 86365 81930==
41891,2024,09,07,15,00,AAXX 07154 41891 41430 63303 10310 20280 39999 40037 71322 84330 333 58012 83616 86365 81930==
41891,2024,09,07,18,00,AAXX 07184 41891 01320 80904 10267 20250 30018 40056 79596 8632/ 333 58017 70005 86708 88458 81925==
41891,2024,09,07,21,00,AAXX 07214 41891 01440 60904 10267 20250 30006 40044 70596 83340 333 58007 70005 83615 85365 81930==
41891,2024,09,08,00,00,AAXX 08004 41891 11440 60404 10267 20250 30009 40047 60001 70596 83340 333 58009 70005 83615 85365 81930==
41891,2024,09,08,03,00,AAXX 08034 41891 01450 30000 10311 20260 30015 40053 70522 83300 333 20264 58009 70005 83615 81930==
41891,2024,09,08,06,00,AAXX 08064 41891 01450 60402 10316 20270 30007 40044 70521 83320 333 58015 70005 83616 84458 81930==
41891,2024,09,08,09,00,AAXX 08094 41891 01450 53304 10342 20260 39970 40007 70522 82530 333 58002 70005 82616 85365==
41891,2024,09,08,12,00,AAXX 08124 41891 01450 53504 10326 20260 39967 40004 70522 82530 333 10357 59001 70005 82616 85365==
41891,2024,09,08,15,00,AAXX 08154 41891 01930 02703 10306 20280 39994 40032 70521 333 59005 70005==
41891,2024,09,08,18,00,AAXX 08184 41891 41430 62703 10300 20270 39999 40037 70521 84310 333 59019 83616 88458 81930==
41891,2024,09,08,21,00,AAXX 08214 41891 01430 82703 10285 20270 39993 40031 71792 8532/ 333 59013 70000 84616 88458 81930==
41891,2024,09,09,00,00,AAXX 09004 41891 01430 82703 10285 20270 39997 40035 70592 8532/ 333 59012 70000 81710 83616 88458 81930==
41891,2024,09,09,03,00,AAXX 09034 41891 01330 80000 10270 20250 30010 40048 72122 8572/ 333 20270 59005 70004 82708 84615 88458 81930==
41891,2024,09,09,06,00,AAXX 09064 41891 01450 40000 10325 20270 39997 40034 70562 82370 333 59010 70020 82616 81930==
41891,2024,09,09,09,00,AAXX 09094 41891 01450 63404 10335 20250 39968 40001 70562 84330 333 59002 70020 83616 85365 81930==
41891,2024,09,09,12,00,AAXX 09124 41891 01450 60000 10324 20260 39964 40001 70522 84330 333 10350 59003 70020 83616 85365 81930==
41891,2024,09,09,15,00,AAXX 09154 41891 01440 50000 10310 20270 39993 40031 70522 82330 333 59001 70020 82616 84365 81930==
41891,2024,09,09,18,00,AAXX 09184 41891 01430 50000 10280 20260 39995 40033 70522 82330 333 59004 70020 82616 84365 81930==
41891,2024,09,09,21,00,AAXX 09214 41891 01430 60000 10278 20260 39994 40032 70522 83330 333 58001 70020 83616 85365 81930==
41891,2024,09,10,00,00,AAXX 10004 41891 01430 80703 10276 20260 39998 40036 70522 8532/ 333 58001 70020 82710 83615 88458 81930==
41891,2024,09,10,03,00,AAXX 10034 41891 01450 81804 10325 20270 30014 40051 70522 83340 333 20274 58004 70016 83615 85365 81930==
41891,2024,09,10,06,00,AAXX 10064 41891 01445 73603 10330 20230 30004 40041 70522 84370 333 58007 70000 84615 86460 81930==
41891,2024,09,10,09,00,AAXX 10094 41891 01450 30000 10318 20260 39968 40005 70522 83300 333 58000 70000 83616 81930==
41891,2024,09,10,12,00,AAXX 10124 41891 01440 30000 10310 20260 39968 40005 70520 83300 333 10335 58004 70000 83615 81930==
41891,2024,09,10,15,00,AAXX 10154 41891 01440 50000 10295 20280 30002 40040 70522 82330 333 58009 70000 82616 84365 81930==
41891,2024,09,10,18,00,AAXX 10184 41891 01430 60000 10290 20270 30007 40045 70522 83330 333 58012 70000 83616 85365 81930==
41891,2024,09,10,21,00,AAXX 10214 41891 01430 70000 10282 20260 39998 40036 70522 84330 333 58004 70000 83616 85365 81930==
41891,2024,09,11,00,00,AAXX 11004 41891 01430 80000 10275 20270 30000 40038 70562 8532/ 333 58002 70040 82710 83615 88458 81930==
41891,2024,09,11,03,00,AAXX 11034 41891 01450 60903 10315 20270 30011 40049 70522 84370 333 20274 59003 70040 83616 84365 81930==
41891,2024,09,11,06,00,AAXX 11064 41891 01450 71903 10335 20260 39993 40031 70522 84370 333 59004 70040 81710 83616 85458 81930==
41891,2024,09,11,09,00,AAXX 11094 41891 01450 73203 10335 20270 39968 40005 70522 84370 333 58000 70040 84615 86460 81930==
41891,2024,09,11,12,00,AAXX 11124 41891 01440 73203 10321 20270 39972 40009 70522 84370 333 10348 58004 70040 84615 86460 81930==
41891,2024,09,11,15,00,AAXX 11154 41891 01440 50000 10300 20270 39993 40031 70522 82310 333 59009 70040 82615 84458 81930==
41891,2024,09,11,18,00,AAXX 11184 41891 01440 30000 10286 20270 39988 40026 70522 81530 333 59019 70040 81616 83362==
41891,2024,09,11,21,00,AAXX 11214 41891 01440 40000 10282 20270 39968 40006 70522 81501 333 59030 70040 81616 84074==
41891,2024,09,12,00,00,AAXX 12004 41891 01440 50000 10275 20260 39974 40012 70522 81501 333 59026 70000 81616 85074==
41891,2024,09,12,03,00,AAXX 12034 41891 01450 50000 10340 20260 39992 40029 70522 83340 333 20275 59019 70000 83616 85365 81930==
41891,2024,09,12,06,00,AAXX 12064 41891 01450 51705 10352 20210 39974 40011 70521 82330 333 59019 70000 82616 83365 81930==
41891,2024,09,12,09,00,AAXX 12094 41891 01450 60808 10362 20230 39951 49988 70522 83430 333 59021 70000 82616 86365==
41891,2024,09,12,12,00,AAXX 12124 41891 01440 40503 10325 20250 39931 49968 70522 82530 333 10370 59041 70000 82616 84365==
41891,2024,09,12,15,00,AAXX 12154 41891 01440 61203 10310 20220 39974 40011 70522 83340 333 59019 70000 83615 85365 81930==
41891,2024,09,12,18,00,AAXX 12184 41891 01440 60904 10305 20230 39968 40005 70522 83340 333 59020 70000 83615 85365 81930==
41891,2024,09,12,21,00,AAXX 12214 41891 01440 61004 10296 20230 39956 49994 70522 83340 333 59012 70000 83615 85365 81930==
41895,2024,09,06,00,00,AAXX 06004 41895 01456 80502 10255 20250 30017 40039 70362 8452/ 333 58009 70004 84616 88458==
41895,2024,09,06,03,00,AAXX 06034 41895 02958 00000 10308 20240 30036 40058 333 20250 58007 70004==
41895,2024,09,06,06,00,AAXX 06064 41895 02458 31302 10340 20260 30021 40043 83400 333 58000 70004 82616==
41895,2024,09,06,09,00,AAXX 06094 41895 02457 40902 10346 20270 39995 40017 84400 333 58005 70004 82616 83825==
41895,2024,09,06,12,00,AAXX 06124 41895 02456 50000 10320 20270 39989 40011 84401 333 10360 58010 70004 82616 82825==
41895,2024,09,06,15,00,AAXX 06154 41895 02550 32701 10291 20280 30011 40033 83201 333 59003 70004 83825==
41895,2024,09,06,18,00,AAXX 06184 41895 02450 40000 10285 20280 30021 40043 84400 333 58000 70004 82616 83820==
41895,2024,09,06,21,00,AAXX 06214 41895 02450 70000 10282 20270 30016 40038 84520 333 59003 70004 84616 86458==
41895,2024,09,07,00,00,AAXX 07004 41895 01450 80000 10280 20270 30014 40036 70521 8452/ 333 59003 70000 84616 88458==
41895,2024,09,07,03,00,AAXX 07034 41895 01956 30302 10334 20270 30018 40040 70511 80001 333 20278 59018 70000 83074==
41895,2024,09,07,06,00,AAXX 07064 41895 02558 43602 10352 20260 30011 40032 83230 333 59010 70000 83825==
41895,2024,09,07,09,00,AAXX 07094 41895 02558 63603 10345 20260 39986 40007 82250 333 59009 70000 82825 85362==
41895,2024,09,07,12,00,AAXX 07124 41895 02450 50000 10318 20290 39983 40005 83520 333 10360 59006 70000 83616 85458==
41895,2024,09,07,15,00,AAXX 07154 41895 02450 31801 10300 20290 30017 40039 83500 333 58006 70000 83616==
41895,2024,09,07,18,00,AAXX 07184 41895 02450 41301 10290 20280 30023 40045 84500 333 58002 70000 84616==
41895,2024,09,08,00,00,AAXX 08004 41895 02450 60000 10278 20270 30012 40034 83520 333 59002 70000 83616 86458==
41895,2024,09,08,03,00,AAXX 08034 41895 02557 41302 10311 20290 30027 40049 82101 333 20275 58009 70000 82825 83074==
41895,2024,09,08,06,00,AAXX 08064 41895 02557 41302 10350 20270 30016 40037 82101 333 58005 70000 82825 83074==
41895,2024,09,08,09,00,AAXX 08094 41895 02558 21302 10357 20270 39984 40005 82100 333 59002 70000 82825==
41895,2024,09,08,12,00,AAXX 08124 41895 02556 20902 10325 20280 39984 40005 82100 333 10362 58001 70000 82825==
41895,2024,09,08,15,00,AAXX 08154 41895 02950 00000 10298 20280 30008 40030 333 59009 70000==
41895,2024,09,08,18,00,AAXX 08184 41895 02950 00902 10290 20270 30010 40032 333 59013 70000==
41895,2024,09,08,21,00,AAXX 08214 41895 02950 00502 10284 20270 30002 40024 333 59012 70000==
41895,2024,09,09,00,00,AAXX 09004 41895 02456 60502 10277 20270 39994 40016 84520 333 59018 70000 84616 86458==
41895,2024,09,09,03,00,AAXX 09034 41895 02456 40903 10314 20260 30011 40033 84800 333 20274 59016 70000 82616 83825==
41895,2024,09,09,06,00,AAXX 09064 41895 02457 40903 10347 20270 30003 40025 84800 333 59013 70000 82616 83825==
41895,2024,09,09,09,00,AAXX 09094 41895 02457 40906 10350 20270 39972 49994 84800 333 59012 70000 82616 83825==
41895,2024,09,09,12,00,AAXX 09124 41895 02450 60000 10313 20270 39970 49992 84520 333 10354 59014 70000 82616 85458==
41895,2024,09,09,15,00,AAXX 09154 41895 02450 40502 10295 20280 30000 40022 84800 333 58008 70000 82616 83825==
41895,2024,09,09,18,00,AAXX 09184 41895 02450 40000 10283 20270 39999 40021 84800 333 59011 70000 82616 83825==
41895,2024,09,10,00,00,AAXX 10004 41895 02450 50902 10277 20270 39996 40018 84401 333 58002 70000 82616 82825==
41895,2024,09,10,03,00,AAXX 10034 41895 02457 41302 10310 20270 30013 40034 83401 333 20275 58002 70000 82616 83074==
41895,2024,09,10,06,00,AAXX 10064 41895 02457 51304 10346 20280 30003 40025 84401 333 58000 70000 82616 83820==
41895,2024,09,10,09,00,AAXX 10094 41895 02457 50903 10348 20260 39975 49996 83401 333 58003 70000 82616 83074==
41895,2024,09,10,12,00,AAXX 10124 41895 02450 50901 10310 20260 39970 49992 83401 333 10355 58000 70000 82616 83074==
41895,2024,09,10,15,00,AAXX 10154 41895 02450 30902 10293 20270 30003 40026 83500 333 58003 70000 83616==
41895,2024,09,10,18,00,AAXX 10184 41895 02450 50902 10282 20260 30009 40031 83520 333 58010 70000 83616 85458==
41895,2024,09,10,21,00,AAXX 10214 41895 02450 50902 10280 20270 30003 40025 83520 333 58006 70000 83616 85458==
41895,2024,09,11,00,00,AAXX 11004 41895 02450 50902 10278 20270 39999 40021 83520 333 58003 70000 83616 85458==
41895,2024,09,11,03,00,AAXX 11034 41895 01456 50902 10304 20270 30017 40039 70522 84430 333 20275 58004 70000 82615 83820==
41895,2024,09,11,06,00,AAXX 11064 41895 02457 50703 10340 20270 30007 40029 84430 333 58005 70000 82616 83820==
41895,2024,09,11,09,00,AAXX 11094 41895 02558 31302 10355 20280 39979 40000 83200 333 58004 70000 83825==
41895,2024,09,11,12,00,AAXX 11123 41895 02456 60501 10328 20290 39984 40005 84520 333 10363 58014 70000 84616 86458==
41895,2024,09,11,15,00,AAXX 11154 41895 02950 60000 10300 20280 30014 40036 84520 333 58010 70000 84616 86458==
41895,2024,09,11,18,00,AAXX 11184 41895 02450 60000 10292 20270 30011 40033 84520 333 58002 70000 84616 86458==
41895,2024,09,12,00,00,AAXX 12004 41895 02456 53102 10284 20270 39980 40002 83520 333 59019 70000 83616 85458==
41895,2024,09,12,03,00,AAXX 12034 41895 02/57 43302 10315 20280 30016 40038 82041 333 20279 59001 70000 82362 83074==
41895,2024,09,12,06,00,AAXX 12064 41895 02557 53602 10356 20280 30005 40026 83230 333 59003 70000 83825 83362==
41895,2024,09,12,09,00,AAXX 12094 41895 02558 42702 10350 20270 39975 49996 82101 333 59004 70000 82825 83074==
41895,2024,09,12,12,00,AAXX 12124 41895 02/56 40502 10327 20280 39979 40001 82041 333 10363 59005 70000 82362 83074==
41895,2024,09,12,15,00,AAXX 12154 41895 02450 40000 10300 20280 39996 40018 83401 333 59018 70000 82616 83074==
41895,2024,09,12,18,00,AAXX 12184 41895 02950 01801 10292 20270 39991 40013 333 59020 70000==
41895,2024,09,12,21,00,AAXX 12214 41895 02550 20902 10287 20280 39988 40010 82100 333 59008 70000 82825==
41897,2024,09,06,00,00,AAXX 06004 41897 11440 30901 10245 20240 30025 40039 60088 70162 81510 333 56990 58008 70080 81618 83458=
41897,2024,09,06,06,00,AAXX 06064 41897 32956 00902 10340 20250 30025 40038 333 59005 70080=
41897,2024,09,06,12,00,AAXX 06124 41897 32950 00000 10340 20260 39991 40004 333 10365 58002 70080=
41897,2024,09,07,00,00,AAXX 07004 41897 32440 50000 10290 20280 30021 40034 81530 333 56990 59004 70000 81618 85362=
41897,2024,09,07,06,00,AAXX 07064 41897 32450 50902 10315 20270 30020 40033 81530 333 56990 59005 70000 81618 85362=
41897,2024,09,07,12,00,AAXX 07124 41897 32456 51402 10330 20260 30002 40015 84412 333 10350 56999 59004 70000 82620 84460=
41897,2024,09,07,18,00,AAXX 07184 41897 31450 51402 10315 20270 30030 40043 71322 84310 333 56990 58005 70000 82620 84460=
41897,2024,09,08,00,00,AAXX 08004 41897 32450 50000 10285 20280 30020 40033 84310 333 56990 58004 70000 82620 84460=
41897,2024,09,08,12,00,AAXX 08124 41897 11456 50000 10325 20280 39992 40005 60025 70296 84310 333 10345 56990 59005 70020 82620 84460=
41897,2024,09,08,18,00,AAXX 08184 41897 32450 50000 10300 20280 30024 40037 84310 333 56990 59008 70020 82620 84460=
41897,2024,09,09,00,00,AAXX 09004 41897 32450 50000 10285 20280 30006 40019 84310 333 56990 59014 70020 82620 84460=
41897,2024,09,09,06,00,AAXX 09064 41897 32450 50000 10325 20260 30012 40025 84310 333 56990 59015 70020 82620 84460=
41897,2024,09,09,12,00,AAXX 09124 41897 32456 30000 10320 20260 39981 49994 84300 333 10340 56990 59011 70000 83620=
41897,2024,09,10,00,00,AAXX 10004 41897 32450 80000 10280 20270 30005 40018 84310 333 56990 59001 70000 82620 88460=
41897,2024,09,10,06,00,AAXX 10064 41897 32450 52202 10315 20270 30017 40030 84310 333 56990 58005 70000 82620 84460=
41897,2024,09,10,12,00,AAXX 10124 41897 32956 30000 10317 20260 39983 49995 83030 333 10335 56090 58002 70000 83362=
41897,2024,09,10,18,00,AAXX 10184 41897 32945 00901 10290 20260 30022 40035 333 58008 70000=
41897,2024,09,11,00,00,AAXX 11004 41897 31935 00901 10280 20260 30011 40024 70500 333 58006 70000=
41897,2024,09,11,06,00,AAXX 11064 41897 32450 31501 10335 20270 30013 40026 83400 333 56900 59004 70000 82617 83828=
41897,2024,09,11,12,00,AAXX 11124 41897 11440 80000 10290 20270 39994 40007 60095 70296 8352/ 333 10354 56999 58011 70090 83615 88458=
41897,2024,09,11,18,00,AAXX 11184 41897 32440 50901 10285 20280 30019 40032 82530 333 56990 59003 70090 82616 85360=
41897,2024,09,12,00,00,AAXX 12004 41897 32940 30000 10275 20270 30005 40017 83030 333 56090 59006 70090 83362=
41897,2024,09,12,06,00,AAXX 12064 41897 32456 30301 10342 20260 30010 40023 83400 333 56090 59003 70090 82617 83828=
41897,2024,09,12,12,00,AAXX 12124 41897 32956 23601 10327 20270 39982 49995 82030 333 10355 56090 59012 70000 82362=
41897,2024,09,12,18,00,AAXX 12184 41897 32945 03601 10297 20290 39995 40007 333 59024 70000=
41902,2024,09,06,00,00,AAXX 06004 41902 32440 53101 10277 20260 30027 40035 82530 333 56990 58010 70015 82615 85362=
41902,2024,09,06,06,00,AAXX 06064 41902 32450 70901 10325 20270 30025 40034 83570 333 56990 58001 70000 83615 87459=
41902,2024,09,06,12,00,AAXX 06124 41902 32440 52701 10316 20280 39992 40000 82502 333 10340 56909 58002 70000 82616 85080=
41902,2024,09,06,18,00,AAXX 06184 41902 31430 71802 10290 20280 30019 40028 71711 85320 333 56990 59005 70000 83614 81928 87459=
41902,2024,09,07,00,00,AAXX 07004 41902 11450 73101 10275 20270 30018 40026 69955 70262 83520 333 56990 59009 70005 83615 87459=
41902,2024,09,07,06,00,AAXX 07064 41902 32450 53602 10335 20270 30018 40027 82430 333 56990 59008 70005 82616 85362=
41902,2024,09,07,12,00,AAXX 07124 41902 32450 53201 10312 20290 30003 40011 82430 333 10348 56990 58011 70005 82616 85362=
41902,2024,09,07,18,00,AAXX 07184 41902 11440 83601 10260 20250 30047 40055 60305 70396 8342/ 333 56499 58028 70300 83612 88458=
41902,2024,09,08,00,00,AAXX 08004 41902 11450 83201 10274 20260 30033 40041 60727 70296 85320 333 56990 58015 71015 83614 81925 87458=
41902,2024,09,08,12,00,AAXX 08124 41902 32456 23601 10320 20280 30000 40008 82500 333 10352 56900 59003 71015 82616=
41902,2024,09,08,18,00,AAXX 08184 41902 NIL=
41902,2024,09,09,00,00,AAXX 09004 41902 32450 71403 10293 20250 30029 40037 85320 56990 59004 70000 83614 81925 87459=
41902,2024,09,09,06,00,AAXX 09064 41902 32456 32003 10338 20240 30019 40027 82530 333 56990 58001 70000 82616=
41902,2024,09,09,12,00,AAXX 09124 41902 32456 71802 10323 20270 30000 40008 85320 333 10357 56990 58000 70000 82616=
41902,2024,09,09,18,00,AAXX 09184 41902 32440 71303 10300 20270 30018 40027 85320 333 56990 59006 70000 83614 81925 87458=
41902,2024,09,10,00,00,AAXX 10004 41902 32456 21803 10287 20270 30018 40027 82500 333 56900 58011 70000 82616=
41902,2024,09,10,06,00,AAXX 10064 41902 NIL=
41902,2024,09,11,00,00,AAXX 11004 41902 32456 70000 10290 20270 30021 40030 83520 333 56990 58003 70000 83615 87459=
41902,2024,09,11,06,00,AAXX 11064 41902 32456 51401 10337 20280 30023 40031 83520 333 56990 58002 70000 82616 85362=
41902,2024,09,11,12,00,AAXX 11123 41902 NIL=
41902,2024,09,11,18,00,AAXX 11184 41902 32440 73601 10297 20280 30023 40031 82500 333 56990 58000 70000 83616 87459=
41902,2024,09,12,00,00,AAXX 12004 41902 32456 23201 10290 20270 30010 40019 82500 333 56900 59011 70000 82616=
41902,2024,09,12,06,00,AAXX 12064 41902 NIL=
41902,2024,09,12,12,00,AAXX 12124 41902 32450 43601 10332 20260 39973 49981 81530 333 10363 56990 59030 70000 81614 83362=
41902,2024,09,12,18,00,AAXX 12184 41902 NIL=
41907,2024,09,06,00,00,AAXX 06004 41907 11945 30000 10246 20240 30020 40034 60146 70162 80001 333 58008 70140 83080==
41907,2024,09,06,03,00,AAXX 06034 41907 02950 00000 10300 20250 30038 40053 333 20240 58009 70140==
41907,2024,09,06,06,00,AAXX 06064 41907 02956 01302 10340 20260 30026 40040 333 58002 70140==
41907,2024,09,06,09,00,AAXX 06094 41907 02950 30000 10355 20270 39996 40011 83002 333 58003 70014 83080==
41907,2024,09,06,12,00,AAXX 06124 41907 02950 50000 10330 20290 39989 40004 80002 333 10360 58006 70140 85080==
41907,2024,09,06,15,00,AAXX 06154 41907 02940 00000 10290 20280 30014 40029 333 59002 70140==
41907,2024,09,06,18,00,AAXX 06184 41907 02940 00000 10287 20280 30023 40037 333 59002 70140==
41907,2024,09,06,21,00,AAXX 06214 41907 02940 00000 10285 20280 30018 40032 333 58000 70000==
41907,2024,09,07,00,00,AAXX 07004 41907 42940 00000 10282 20280 30016 40031 59004==
41907,2024,09,07,03,00,AAXX 07034 41907 02450 50000 10320 20270 30020 40034 85800 333 20280 59018 70000 82615 83825==
41907,2024,09,07,06,00,AAXX 07064 41907 02456 60000 10345 20270 30012 40026 86800 333 59014 70000 83615 83825==
41907,2024,09,07,09,00,AAXX 07094 41907 01456 70000 10330 20270 39990 40004 70396 85510 333 59006 70014 85615 86458==
41907,2024,09,07,12,00,AAXX 07124 41907 01450 70000 10320 20290 39988 40003 70296 83530 333 10350 59001 70010 83615 85362==
41907,2024,09,07,15,00,AAXX 07154 41907 02/40 30000 10296 20290 30018 40033 83030 333 58004 70014 83362==
41907,2024,09,07,18,00,AAXX 07184 41907 21440 80000 10290 20280 30032 40046 70362 8552/ 333 58009 60025 70032 85615 88458==
41907,2024,09,07,21,00,AAXX 07214 41907 02440 80000 10282 20270 30022 40036 8552/ 333 58004 70032 85615 88458==
41907,2024,09,08,00,00,AAXX 08004 41907 01440 80000 10276 20270 30015 40029 70522 8552/ 333 59001 70032 85615 88458==
41907,2024,09,08,03,00,AAXX 08034 41907 02450 71302 10320 20270 30032 40047 83510 333 20275 58012 70032 83615 87458==
41907,2024,09,08,06,00,AAXX 08064 41907 02456 51302 10345 20270 30022 40036 85800 333 58010 70000 82615 83825==
41907,2024,09,08,09,00,AAXX 08094 41907 02456 31302 10345 20270 39990 40004 83800 333 58000 70018 81615 83825==
41907,2024,09,08,12,00,AAXX 08124 41907 02456 20000 10325 20280 39988 40003 82800 333 10359 58000 70018 81615==
41907,2024,09,08,15,00,AAXX 08154 41907 02940 00000 10300 20270 30008 40023 333 59010 70018==
41907,2024,09,08,18,00,AAXX 08184 41907 02940 00000 10286 20270 30015 40030 333 59017 70000==
41907,2024,09,08,21,00,AAXX 08214 41907 02940 00000 10278 20270 30005 40020 333 59017 70000==
41907,2024,09,09,00,00,AAXX 09004 41907 02945 50902 10277 20270 39999 40014 80001 333 59016 70000 85080==
41907,2024,09,09,03,00,AAXX 09034 41907 02450 51304 10315 20270 30016 40031 85800 333 20270 59016 70000 83615==
41907,2024,09,09,06,00,AAXX 09064 41907 02456 51304 10340 20260 30007 40022 85800 333 59015 70000 83615==
41907,2024,09,09,09,00,AAXX 09094 41907 02456 40902 10340 20260 39975 49990 84800 333 59015 70000 81615 83825==
41907,2024,09,09,12,00,AAXX 09124 41907 01450 30000 10300 20290 39973 49987 72161 83809 333 10352 59015 70010 82615==
41907,2024,09,09,15,00,AAXX 09154 41907 02940 00000 10285 20280 30005 40020 333 59003 70012==
41907,2024,09,09,18,00,AAXX 09184 41907 02940 00000 10283 20260 30003 40018 333 59003 70012==
41907,2024,09,09,21,00,AAXX 09214 41907 02940 00902 10182 20260 39998 40013 333 70012==
41907,2024,09,10,00,00,AAXX 10004 41907 02940 00902 10280 20260 39998 40012 333 59002 70012==
41907,2024,09,10,03,00,AAXX 10034 41907 02456 51304 10315 20270 30017 40031 85800 333 20278 58001 70012 83615 83825==
41907,2024,09,10,06,00,AAXX 10064 41907 02456 51304 10335 20270 30008 40023 83830 333 58001 70012 82615 83362==
41907,2024,09,10,09,00,AAXX 10094 41907 02456 41302 10345 20270 39979 49993 82530 333 58004 70012 82615 83362==
41907,2024,09,10,12,00,AAXX 10124 41907 01450 61302 10300 20280 39977 49991 72121 82531 333 10350 58004 70020 82615 84080==
41907,2024,09,10,15,00,AAXX 10154 41907 02940 00000 10280 20260 30006 40020 333 58001 70015==
41907,2024,09,10,18,00,AAXX 10184 41907 02940 00000 10277 20270 30014 40029 333 58011 70015==
41907,2024,09,10,21,00,AAXX 10214 41907 02940 00000 10278 20270 30009 40023 333 58010 70015==
41907,2024,09,11,00,00,AAXX 11004 41907 02450 31302 10280 20270 30004 40018 82530 333 58006 70015 82615==
41907,2024,09,11,03,00,AAXX 11034 41907 41450 71802 10312 20280 30019 40034 70360 85800 333 20275 58002 83615 85362==
41907,2024,09,11,06,00,AAXX 11064 41907 11456 71802 10340 20280 30013 40027 60066 70262 85810 333 58005 70070 83615 85458==
41907,2024,09,11,09,00,AAXX 11094 41907 02456 51802 10351 20270 39985 40000 85800 333 58006 70070 82615 83825==
41907,2024,09,11,12,00,AAXX 11124 41907 02450 80000 10322 20270 39987 40002 8552/ 333 10359 58010 70055 85615 88458==
41907,2024,09,11,15,00,AAXX 11154 41907 02940 00000 10297 20280 30015 40030 333 58009 70055==
41907,2024,09,11,18,00,AAXX 11184 41907 02440 80000 10291 20280 30014 40029 8552/ 333 58000 70055 85615 88458==
41907,2024,09,11,21,00,AAXX 11214 41907 02440 80000 10283 20270 30006 40021 8552/ 333 59003 70055 85615 88458==
41907,2024,09,12,00,00,AAXX 12004 41907 02945 00000 10281 20270 30001 40016 333 59003 70055==
41907,2024,09,12,03,00,AAXX 12034 41907 02950 01302 10315 20270 30015 40030 333 20280 59004 70000==
41907,2024,09,12,06,00,AAXX 12064 41907 02456 51302 10348 20270 30007 40022 83830 333 59006 70000 82615 83362==
41907,2024,09,12,09,00,AAXX 12094 41907 02450 63102 10350 20270 39976 49991 84870 333 59009 70000 83615 85458==
41907,2024,09,12,12,00,AAXX 12124 41907 02950 50000 10325 20280 39979 49994 80002 333 10356 59008 70000 85080==
41907,2024,09,12,15,00,AAXX 12154 41907 02940 20000 10300 20270 39997 40011 80002 333 59018 70000 82080==
41907,2024,09,12,18,00,AAXX 12184 41907 02940 00000 10290 20280 39993 40008 333 59021 70000==
41907,2024,09,12,21,00,AAXX 12214 41907 02940 00000 10288 20280 39987 40001 333 59019 70000==
41909,2024,09,06,00,00,AAXX 06004 41909 01450 20000 10275 20260 30022 40033 70500 82500 333 58005 70000==
41909,2024,09,06,03,00,AAXX 06034 41909 02456 20000 10294 20260 30043 40054 82500 333 20265 58012 70000 82615==
41909,2024,09,06,06,00,AAXX 06064 41909 02456 51802 10334 20250 30030 40041 82530 333 58001 70000 82615 85360==
41909,2024,09,06,09,00,AAXX 06094 41909 02456 50000 10330 20260 30010 40021 82530 333 58011 70000 82615 85360==
41909,2024,09,06,12,00,AAXX 06124 41909 02456 20000 10322 20270 39990 40002 82500 333 10338 58004 70000 82615==
41909,2024,09,06,15,00,AAXX 06154 41909 02940 00000 10298 20270 30019 40030 333 59001 70000==
41909,2024,09,06,18,00,AAXX 06184 41909 02430 60000 10290 20270 30022 40033 83530 333 59005 70000 83615 86360==
41909,2024,09,06,21,00,AAXX 06214 41909 02330 80401 10280 20270 30022 40033 8562/ 333 58004 70000 84708 88458==
41909,2024,09,07,00,00,AAXX 07004 41909 01350 80402 10275 20260 30026 40037 79522 8592/ 333 58004 70030 84708 88458==
41909,2024,09,07,03,00,AAXX 07034 41909 01350 81801 10274 20250 30024 40035 76296 8572/ 333 20260 59019 70120 84708 88458==
41909,2024,09,07,06,00,AAXX 07064 41909 21456 51802 10337 20270 30021 40032 70196 82530 333 59009 60108 70130 82615 85360==
41909,2024,09,07,09,00,AAXX 07094 41909 02456 41802 10359 20270 39990 40001 83830 333 59019 70130 82615 83360==
41909,2024,09,07,12,00,AAXX 07124 41909 01456 61802 10329 20260 39992 40003 70192 82810 333 10362 58002 70130 82615 85458==
41909,2024,09,07,15,00,AAXX 07154 41909 02440 40000 10302 20270 30024 40035 82530 333 58005 70130 82615 83360==
41909,2024,09,07,18,00,AAXX 07184 41909 02440 40000 10294 20270 30036 40047 82530 333 58014 70130 82615 83360==
41909,2024,09,07,21,00,AAXX 07214 41909 02340 80000 10286 20270 30026 40037 8562/ 333 58004 70130 84708 88458==
41909,2024,09,08,00,00,AAXX 08004 41909 01350 80000 10282 20260 30022 40033 76162 8572/ 333 59004 70004 84708 88458==
41909,2024,09,08,03,00,AAXX 08034 41909 01456 61801 10297 20270 30038 40049 70262 83510 333 20263 58014 70024 83615 86458==
41909,2024,09,08,06,00,AAXX 08064 41909 11456 51802 10344 20250 30029 40040 60016 70162 82530 333 58008 70014 82615 85362==
41909,2024,09,08,09,00,AAXX 08094 41909 02456 41802 10356 20260 39996 40007 83830 333 58006 70014 82615 83360==
41909,2024,09,08,12,00,AAXX 08124 41909 02556 11302 10332 20250 39992 40003 81130 333 10360 58000 70014 81825==
41909,2024,09,08,15,00,AAXX 08154 41909 02440 40000 10308 20260 30028 40039 82530 333 58004 70014 82615 83360==
41909,2024,09,08,18,00,AAXX 08184 41909 02440 40000 10296 20270 30022 40033 82530 333 59014 70014 82615 83360==
41909,2024,09,08,21,00,AAXX 08214 41909 02440 30000 10284 20260 30017 40028 81530 333 59009 70014 81615 83360==
41909,2024,09,09,00,00,AAXX 09004 41909 02450 20000 10279 20260 30010 40021 81530 333 59012 70010 81618==
41909,2024,09,09,03,00,AAXX 09034 41909 02456 51302 10319 20260 30021 40032 82530 333 20275 59017 70000 82615 85362==
41909,2024,09,09,06,00,AAXX 09064 41909 02456 51802 10339 20240 30017 40028 81530 333 59012 70000 81618 85362==
41909,2024,09,09,09,00,AAXX 09094 41909 02456 21304 10350 20250 39985 49997 82500 333 59011 70000 82615==
41909,2024,09,09,12,00,AAXX 09124 41909 02456 60000 10340 20250 39979 49991 83530 333 10355 59013 70000 83614 84365==
41909,2024,09,09,15,00,AAXX 09154 41909 02950 00000 10305 20260 30010 40021 333 59018 70000==
41909,2024,09,09,18,00,AAXX 09184 41909 02940 00000 10295 20270 30012 40023 333 59010 70000==
41909,2024,09,10,00,00,AAXX 10004 41909 02450 81002 10285 20260 30008 40019 8552/ 333 59002 70000 85614 88460==
41909,2024,09,10,03,00,AAXX 10034 41909 02456 51001 10315 20270 30027 40038 82350 333 20275 58006 70000 82615 85360==
41909,2024,09,10,06,00,AAXX 10064 41909 02456 51001 10330 20250 30020 40031 82350 333 58003 70000 82615 85360==
41909,2024,09,10,09,00,AAXX 10094 41909 02456 81002 10338 20250 39982 49999 8552/ 333 58002 70000 85615 88460==
41909,2024,09,10,12,00,AAXX 10124 41909 02450 61802 10320 20260 39983 49994 83510 333 10345 58004 70000 83615 86458==
41909,2024,09,10,15,00,AAXX 10154 41909 02940 00000 10304 20260 30013 40024 333 58003 70000==
41909,2024,09,10,18,00,AAXX 10184 41909 02940 00000 10295 20270 30024 40035 333 58012 70000==
41909,2024,09,10,21,00,AAXX 10214 41909 02940 00000 10285 20270 30020 40031 333 59014 70000==
41909,2024,09,11,00,00,AAXX 11004 41909 02450 80000 10284 20260 30011 40022 8552/ 333 58003 70000 85614 88458==
41909,2024,09,11,03,00,AAXX 11034 41909 02456 60000 10316 20270 30027 40038 83530 333 20272 58000 70000 83615 86360==
41909,2024,09,11,06,00,AAXX 11064 41909 02456 61801 10340 20270 30016 40027 83530 333 59004 70000 83615 86360==
41909,2024,09,11,09,00,AAXX 11094 41909 01356 80000 10279 20260 39994 40005 79522 8592/ 333 58007 70100 84708 85614 88458 81930==
41909,2024,09,11,12,00,AAXX 11123 41909 01456 50000 10300 20280 39992 40003 70196 82530 333 10348 58009 70110 82615 85360==
41909,2024,09,11,15,00,AAXX 11154 41909 02430 50000 10293 20270 30018 40029 82530 333 58005 70110 82615 85360==
41909,2024,09,11,18,00,AAXX 11184 41909 01330 80000 10295 20270 30015 40026 71722 8592/ 333 59009 70110 84708 88458 81930==
41909,2024,09,11,21,00,AAXX 11214 41909 01430 50000 10292 20270 30012 40023 70192 82530 333 59008 70110 82615 85360==
41909,2024,09,12,00,00,AAXX 12004 41909 02450 40000 10290 20280 39999 40010 82530 333 59012 70110 82615 84360==
41909,2024,09,12,03,00,AAXX 12034 41909 02956 00000 10316 20270 30017 40028 333 20272 59010 70110==
41909,2024,09,12,06,00,AAXX 12064 41909 02956 00000 10354 20270 30006 40018 333 59010 70110==
41909,2024,09,12,09,00,AAXX 12094 41909 02456 51802 10363 20250 39974 49986 82530 333 59020 70010 82615 85360==
41909,2024,09,12,12,00,AAXX 12124 41909 02450 60000 10343 20270 39976 49988 83510 333 10365 59016 70000 82615 86458==
41909,2024,09,12,15,00,AAXX 12154 41909 02940 00000 10317 20290 39996 40007 333 59011 70000==
41909,2024,09,12,18,00,AAXX 12184 41909 02940 00000 10305 20290 39994 40005 333 59011 70000==
41909,2024,09,12,21,00,AAXX 12214 41909 02940 00000 10300 20280 39992 40003 333 59020 70000==
41915,2024,09,06,00,00,AAXX 06004 41915 02456 70000 10263 20250 36018 40043 83510 333 58006 70006 83616 86460==
41915,2024,09,06,03,00,AAXX 06034 41915 02456 70000 10300 20270 30036 40061 84430 333 20258 58014 70006 83616 86363==
41915,2024,09,06,06,00,AAXX 06064 41915 02456 51603 10340 20280 30022 40047 85400 333 58001 70006 82615 83820==
41915,2024,09,06,09,00,AAXX 06094 41915 02456 51704 10352 20270 39973 49998 85400 333 59013 70000 84616==
41915,2024,09,06,12,00,AAXX 06124 41915 02456 52204 10327 20280 39981 40006 82530 333 10357 58004 70000 82616 84363==
41915,2024,09,07,00,00,AAXX 07004 41915 02456 40000 10270 20260 30014 40039 84500 333 59004 70000 84616==
41915,2024,09,07,06,00,AAXX 07064 41915 02456 41403 10350 20260 30008 40032 84400 333 59014 70000 83616==
41915,2024,09,07,09,00,AAXX 07094 41915 05456 40000 10347 20270 39978 40002 84400 333 58005 70000 83616==
41915,2024,09,07,12,00,AAXX 07124 41915 02456 40000 10330 20290 39982 40006 82530 333 10363 58001 70000 82616 84363==
41915,2024,09,07,15,00,AAXX 07154 41915 01350 80000 10272 20250 30016 40041 79592 8492/ 333 58008 70010 83708 88458 81925==
41915,2024,09,07,18,00,AAXX 07184 41915 NIL=
41915,2024,09,07,21,00,AAXX 07214 41915 02450 60000 10264 20250 30018 40043 85410 333 58012 70140 83616 85460==
41915,2024,09,08,00,00,AAXX 08004 41915 02456 30000 10262 20250 30020 40045 83500 333 58006 70140 83616==
41915,2024,09,08,03,00,AAXX 08034 41915 02556 21301 10310 20260 30032 40057 82100 333 20254 58015 70140 82822==
41915,2024,09,08,06,00,AAXX 08064 41915 02456 43102 10327 20270 30015 40040 84400 333 58007 70140 83616==
41915,2024,09,08,09,00,AAXX 08094 41915 02456 42203 10348 20270 39986 40011 84400 333 58008 70140 83616==
41915,2024,09,08,12,00,AAXX 08124 41915 02456 23101 10325 20280 39982 40006 81302 333 10350 58000 70140 81616 81930==
41915,2024,09,08,15,00,AAXX 08154 41915 02450 50000 10293 20270 30012 40037 83310 333 59004 70130 83616 84460 81930==
41915,2024,09,08,18,00,AAXX 08184 41915 NIL=
41915,2024,09,08,21,00,AAXX 08214 41915 02450 70000 10279 20270 30010 40035 84410 333 59008 70000 83616 86460==
41915,2024,09,09,00,00,AAXX 09004 41915 02450 71102 10278 20270 30009 40034 84470 333 59011 70000 83616 85460==
41915,2024,09,09,03,00,AAXX 09034 41915 02456 71603 10303 20260 30022 40047 85430 333 20276 59010 70000 83616 83820 86363==
41915,2024,09,09,06,00,AAXX 09064 41915 02456 41505 10348 20270 30006 40031 84400 333 59009 70000 83616==
41915,2024,09,09,09,00,AAXX 09094 41915 02356 51303 10324 20250 30078 40002 85300 333 59008 70000 84709 81930==
41915,2024,09,09,12,00,AAXX 09124 41915 21456 40000 10314 20260 39984 40009 70162 84400 333 58002 60015 70014 83616==
41915,2024,09,09,15,00,AAXX 09154 41915 01456 30000 10293 20250 30015 40040 71321 83300 333 58003 70014 82616 81930==
41915,2024,09,10,00,00,AAXX 10004 41915 02456 80000 10276 20270 30012 40037 8441/ 333 58003 70014 83616 88460==
41915,2024,09,10,03,00,AAXX 10034 41915 02456 70902 10305 20270 30026 40051 83570 333 20273 58004 70014 83616 85460==
41915,2024,09,10,06,00,AAXX 10064 41915 02456 61301 10336 20250 30015 40040 85430 333 58009 70014 84615 83362==
41915,2024,09,10,09,00,AAXX 10094 41915 02456 30000 10347 20260 39979 40003 83330 333 58001 70000 82616 81930==
41915,2024,09,10,12,00,AAXX 10124 41915 02456 30000 10311 20270 39986 40011 82330 333 10355 58002 70000 82616 81930==
41915,2024,09,10,15,00,AAXX 10154 41915 01450 60000 10290 20270 30017 40042 71322 83310 333 58002 70000 82616 86460 81930==
41915,2024,09,10,18,00,AAXX 10184 41915 02450 50000 10280 20270 30015 40042 83570 333 58005 70000 83616 88458==
41915,2024,09,10,21,00,AAXX 10214 41915 02450 80000 10280 20270 30011 40036 8352/ 333 58001 70000 83616 88458==
41915,2024,09,11,00,00,AAXX 11004 41915 02450 80000 10276 20270 30013 40038 8452/ 333 58001 70000 84615 88458==
41915,2024,09,11,03,00,AAXX 11034 41915 02456 40000 10320 20270 30024 40049 84400 333 20275 59002 70000 84616==
41915,2024,09,11,06,00,AAXX 11064 41915 02456 61203 10242 20240 30007 40032 84430 333 59008 70000 83616 85363==
41915,2024,09,11,09,00,AAXX 11094 41915 02456 62502 10336 20260 39983 40007 84431 333 58004 70000 83616 83362==
41915,2024,09,11,12,00,AAXX 11123 41915 02456 60000 10326 20270 39989 40013 84311 333 10355 58003 70000 83616 85458 81928==
41915,2024,09,11,15,00,AAXX 11154 41915 02456 40000 10300 20280 30012 40037 84400 333 59005 70000 83616==
41915,2024,09,11,21,00,AAXX 11214 41915 02956 00000 10274 20260 39998 40023 333 59013 70000==
41915,2024,09,12,00,00,AAXX 12004 41915 02956 00000 10263 20250 39985 40010 333 59028 70000==
41915,2024,09,12,03,00,AAXX 12034 41915 02456 60000 10315 20270 30006 40031 83530 333 20260 58018 70000 83616 85362==
41915,2024,09,12,06,00,AAXX 12064 41915 02456 40000 10348 20240 39987 40011 83501 333 59020 70000 83616==
41915,2024,09,12,09,00,AAXX 12094 41915 02456 50502 10350 20230 39960 49984 83431 333 59023 70000 83616==
41915,2024,09,12,12,00,AAXX 12124 41915 02456 20000 10330 39987 40112 82500 333 10366 59023 70000 82616==
41915,2024,09,12,15,00,AAXX 12154 41915 02450 60602 10298 20240 39983 40008 83540 333 59029 70000 83616 84362==
41915,2024,09,12,18,00,AAXX 12184 41915 02450 30602 10290 20220 39975 40000 83500 333 59030 70000 83616==
41915,2024,09,12,21,00,AAXX 12214 41915 02450 50000 10270 20240 39974 49999 83510 333 59024 70000 83616 84458==
41923,2024,09,06,00,00,AAXX 06004 41923 01440 60000 10280 20270 30033 40043 70522 82530 333 58009 70001 82615 85360==
41923,2024,09,06,03,00,AAXX 06034 41923 01450 70000 10280 20240 30040 40050 70362 84370 333 20278 58007 70005 83615 85458 81930==
41923,2024,09,06,06,00,AAXX 06064 41923 11456 70000 10310 20230 30037 40047 69946 70262 83430 333 58006 70005 83615 86360==
41923,2024,09,06,09,00,AAXX 06094 41923 02/56 32702 10342 20220 30004 40014 83030 333 58002 70004 83365==
41923,2024,09,06,12,00,AAXX 06124 41923 02/50 30000 10325 20250 39998 40008 83030 333 10350 59002 70004 83365==
41923,2024,09,06,15,00,AAXX 06154 41923 02440 50000 10297 20270 30026 40036 82530 333 58001 70004 82615 85365==
41923,2024,09,06,18,00,AAXX 06184 41923 02440 80000 10290 20260 30030 40040 8532/ 333 59006 70004 85615 88459 81930==
41923,2024,09,06,21,00,AAXX 06214 41923 01330 82702 10275 20260 30026 40036 76122 8632/ 333 59003 70018 83708 84613 88458 81928==
41923,2024,09,07,00,00,AAXX 07004 41923 21330 83302 10266 20260 30031 40041 79596 8692/ 333 59002 60107 70106 86707 88458 81925==
41923,2024,09,07,03,00,AAXX 07034 41923 01450 53302 10315 20260 30029 40039 70196 82530 333 20255 59010 70142 82615 85365==
41923,2024,09,07,06,00,AAXX 07064 41923 11456 61802 10341 20260 30022 40032 60046 70396 83530 333 59015 70138 83615 86365==
41923,2024,09,07,09,00,AAXX 07094 41923 01340 72702 10304 20250 39997 40007 72992 85370 333 59007 70138 82709 84615 86458 81930==
41923,2024,09,07,12,00,AAXX 07124 41923 01440 60000 10312 20270 39998 40008 70192 82530 333 10343 58000 70138 82615 85360==
41923,2024,09,07,15,00,AAXX 07154 41923 02445 50000 10308 20280 30032 40042 82530 333 58006 70138 82615 83362==
41923,2024,09,07,18,00,AAXX 07184 41923 01440 50000 10298 20270 30043 40053 70522 82530 333 58013 70138 82615 83360==
41923,2024,09,07,21,00,AAXX 07214 41923 01340 70000 10288 20270 30033 40043 71322 85370 333 58007 70124 82709 83615 86458 81930==
41923,2024,09,08,00,00,AAXX 08004 41923 21440 40000 10277 20260 30032 40042 70562 82530 333 58001 69987 70044 82616 83365==
41923,2024,09,08,03,00,AAXX 08034 41923 02450 41702 10323 20250 30043 40053 82530 333 20275 58014 70008 82616 83365==
41923,2024,09,08,06,00,AAXX 08064 41923 02450 71602 10337 20240 30032 40042 85330 333 58010 70008 83615 83824 85360 81930==
41923,2024,09,08,09,00,AAXX 08094 41923 02450 71802 10352 20240 30002 40012 85330 333 58005 70008 83615 83824 85360 81930==
41923,2024,09,08,12,00,AAXX 08124 41923 02450 61502 10328 20260 39998 40008 82520 333 10355 58000 70008 82615 85360==
41923,2024,09,08,15,00,AAXX 08154 41923 02/45 30000 10308 20260 30024 40034 83030 333 59008 70008 83360==
41923,2024,09,08,18,00,AAXX 08184 41923 02/40 21702 10302 20250 30025 40035 82030 333 59018 70008 82360==
41923,2024,09,08,21,00,AAXX 08214 41923 01435 60000 10294 20250 30014 40024 70520 82530 333 59019 70008 82615 85360==
41923,2024,09,09,00,00,AAXX 09004 41923 21435 61502 10286 20260 30014 40024 70562 82530 333 59018 60007 82615 85360==
41923,2024,09,09,03,00,AAXX 09034 41923 42450 61702 10322 20240 30028 40038 82530 333 20284 59015 82615 85360==
41923,2024,09,09,06,00,AAXX 09064 41923 42450 71202 10338 20250 30019 40029 85330 333 59013 83615 83824 85360 81930==
41923,2024,09,09,09,00,AAXX 09094 41923 42456 51202 10343 20230 39989 49999 82530 333 59013 82615 85365==
41923,2024,09,09,12,00,AAXX 09124 41923 21450 51802 10319 20250 39992 40001 70262 82530 333 10347 59006 69925 70002 82615 85365==
41923,2024,09,09,15,00,AAXX 09154 41923 02940 01202 10307 20250 30018 40028 333 59006 70002==
41923,2024,09,09,18,00,AAXX 09184 41923 02/40 30000 10297 20260 30018 40028 83030 333 59007 70002 83365==
41923,2024,09,09,21,00,AAXX 09214 41923 01330 82702 10270 20260 30016 40026 76362 8632/ 333 58002 70160 86707 88458 81925==
41923,2024,09,10,00,00,AAXX 10004 41923 21440 81402 10267 20260 30016 40026 70262 8532/ 333 58002 60217 70214 85615 88459 81930==
41923,2024,09,10,03,00,AAXX 10034 41923 02450 61802 10306 20270 30034 40044 83530 333 20260 58006 70214 83615 86365==
41923,2024,09,10,06,00,AAXX 10064 41923 02456 51202 10338 20270 30023 40033 82530 333 58004 70214 82615 85365==
41923,2024,09,10,09,00,AAXX 10094 41923 01450 51802 10335 20260 39992 40002 70262 84430 333 58003 70216 83615 83365==
41923,2024,09,10,12,00,AAXX 10124 41923 11450 50000 10322 20240 39992 40002 69926 70262 84430 333 10341 58000 70214 82616 83365==
41923,2024,09,10,15,00,AAXX 10154 41923 02445 40000 10308 20250 30019 40029 82530 333 58001 70214 82616==
41923,2024,09,10,18,00,AAXX 10184 41923 02440 40000 10308 20260 30031 40041 82530 333 58013 70214 82616==
41923,2024,09,10,21,00,AAXX 10214 41923 02440 41602 10298 20260 30014 40024 82530 333 59002 70056 82616 83365==
41923,2024,09,11,00,00,AAXX 11004 41923 01340 70000 10288 20270 30020 40030 70521 84670 333 58004 70002 82709 83615 86458==
41923,2024,09,11,03,00,AAXX 11034 41923 02450 51802 10325 20260 30027 40037 84430 333 20285 59007 70002 83615 83365==
41923,2024,09,11,06,00,AAXX 11064 41923 02450 71602 10326 20270 30021 40031 85330 333 59002 70002 83615 83824 86360 81930==
41923,2024,09,11,09,00,AAXX 11094 41923 02450 60000 10338 20260 39996 40006 85330 333 58004 70000 82615 83824 81930==
41923,2024,09,11,12,00,AAXX 11124 41923 01450 40000 10320 20260 39996 40006 70192 81531 333 10346 58004 70000 81616 83360==
41923,2024,09,11,15,00,AAXX 11154 41923 02445 50000 10302 20270 30024 40034 83430 333 58005 70000 82615 83360==
41923,2024,09,11,18,00,AAXX 11184 41923 01440 70000 10302 20270 30018 40028 71322 85330 333 59013 70000 83615 85360 81930==
41923,2024,09,11,21,00,AAXX 11214 41923 NIL=
41923,2024,09,12,00,00,AAXX 12004 41923 01340 80000 10284 20270 30002 40012 76196 8532/ 333 59012 70040 82709 84614 88458 81930==
41923,2024,09,12,03,00,AAXX 12034 41923 02450 60000 10318 20270 30021 40031 81531 333 20282 59006 70046 81616 84360==
41923,2024,09,12,06,00,AAXX 12064 41923 02450 70000 10342 20260 30005 40015 84431 333 59015 70046 83615 83360==
41923,2024,09,12,09,00,AAXX 12094 41923 02456 71202 10362 20240 39977 49986 83430 333 59019 70046 83615 86360==
41923,2024,09,12,12,00,AAXX 12124 41923 02450 70000 10332 20250 39981 49991 83430 333 10365 59015 70046 83615 86360==
41923,2024,09,12,15,00,AAXX 12154 41923 02/45 30000 10308 20280 30001 40011 83030 333 59023 70046 83360==
41923,2024,09,12,18,00,AAXX 12184 41923 02/40 30602 10316 20270 39990 40000 83030 333 59028 70046 83360==
41923,2024,09,12,21,00,AAXX 12214 41923 01440 50000 10302 20260 39979 49989 70520 82530 333 59023 70006 82615 85360==
41926,2024,09,06,00,00,AAXX 06004 41926 11450 70000 10252 20250 30019 40033 60046 70196 83510 333 58002 70250 83618 86459==
41926,2024,09,06,03,00,AAXX 06034 41926 02450 40000 10300 20260 30040 40053 84500 333 20248 58010 70250 84618==
41926,2024,09,06,06,00,AAXX 06064 41926 02450 40000 10340 20270 30026 40039 84500 333 58005 70250 84615==
41926,2024,09,06,09,00,AAXX 06094 41926 02450 60000 10340 20260 39998 40011 84510 333 58008 70250 84618 85459==
41926,2024,09,06,12,00,AAXX 06124 41926 02450 60000 10312 20290 39994 40007 82502 333 10350 58010 70250 82618 85080==
41926,2024,09,06,15,00,AAXX 06154 41926 02450 60000 10290 20280 30020 40033 83510 333 58003 70250 83618 85459==
41926,2024,09,06,18,00,AAXX 06184 41926 02450 30000 10285 20280 30024 40037 83500 333 59005 70040 83618==
41926,2024,09,06,21,00,AAXX 06214 41926 01450 20000 10280 20270 30014 40028 70500 82500 333 58002 70000 82618==
41926,2024,09,07,00,00,AAXX 07004 41926 01450 20000 10274 20260 30017 40031 70500 82500 333 59002 70000 82618==
41926,2024,09,07,03,00,AAXX 07034 41926 02456 50000 10323 20280 30019 40032 81530 333 20273 59021 70000 81618 85362==
41926,2024,09,07,06,00,AAXX 07064 41926 02456 50000 10350 20270 30016 40029 84401 333 59010 70000 82618 83820==
41926,2024,09,07,09,00,AAXX 07094 41926 01450 60000 10320 20290 39988 40001 71762 84910 333 59010 70042 83618 85459 81930==
41926,2024,09,07,12,00,AAXX 07124 41926 11450 60000 10298 20280 39991 40004 60046 70296 83402 333 10362 59003 70042 81618 85080==
41926,2024,09,07,15,00,AAXX 07154 41926 02450 60000 10284 20270 30023 40036 82510 333 58003 70042 82618 85459==
41926,2024,09,07,18,00,AAXX 07184 41926 02/50 50000 10280 20270 30030 40044 85010 333 58006 70042 85459==
41926,2024,09,07,21,00,AAXX 07214 41926 01/40 30000 10275 20270 30022 40036 70520 83010 333 58008 70042 83618==
41926,2024,09,08,00,00,AAXX 08004 41926 01450 10000 10271 20260 30015 40029 70500 81500 333 59002 70042 81618==
41926,2024,09,08,03,00,AAXX 08034 41926 02456 30000 10317 20270 30030 40043 83500 333 20270 58011 70042 83618==
41926,2024,09,08,06,00,AAXX 08064 41926 02456 30000 10345 20270 30020 40033 83400 333 58004 70042 82618==
41926,2024,09,08,09,00,AAXX 08094 41926 02456 31801 10354 20260 39991 40004 83400 333 58003 70042 82618==
41926,2024,09,08,12,00,AAXX 08124 41926 02450 30000 10320 20270 39987 40000 81510 333 10356 59004 70000 81618 83459==
41926,2024,09,08,18,00,AAXX 08184 41926 01950 00000 10282 20270 30015 40028 70500 333 59009 70000==
41926,2024,09,08,21,00,AAXX 08214 41926 01940 00000 10278 20270 30007 40020 70500 333 59015 70000==
41926,2024,09,09,00,00,AAXX 09004 41926 01940 00000 10275 20270 39996 40009 70500 333 59019 70000==
41926,2024,09,09,03,00,AAXX 09034 41926 02450 61304 10305 20270 30014 40027 84510 333 20272 59016 70000 84618 86459==
41926,2024,09,09,06,00,AAXX 09064 41926 21456 61303 10315 20270 30005 40018 70262 84401 333 59015 60005 82618 83822==
41926,2024,09,09,09,00,AAXX 09094 41926 42456 40000 10330 20260 39978 49991 80002 333 59013 84080==
41926,2024,09,09,12,00,AAXX 09124 41926 42450 40000 10315 20270 39972 49985 83401 333 10353 59015 83618==
41926,2024,09,09,15,00,AAXX 09154 41926 42450 30000 10290 20260 30006 40019 81501 333 59005 81618 83080==
41926,2024,09,09,18,00,AAXX 09184 41926 42450 61802 10280 20260 39997 40010 83510 333 59018 83618 86459==
41926,2024,09,10,00,00,AAXX 10004 41926 42/50 40000 10275 20270 30002 40015 84030 333 58006 84362==
41926,2024,09,10,03,00,AAXX 10034 41926 01456 60000 10278 20270 30017 40030 72121 84510 333 20275 58003 70074 84618 86459==
41926,2024,09,10,06,00,AAXX 10064 41926 21456 61301 10330 20270 30008 40021 70262 83510 333 58003 60075 70074 83618 86459==
41926,2024,09,10,09,00,AAXX 10094 41926 02456 51301 10320 20260 39977 49990 82510 333 59001 70074 82618 85459==
41926,2024,09,10,12,00,AAXX 10124 41926 02950 40000 10305 20260 39979 49992 80001 333 10345 58007 70074 84080==
41926,2024,09,10,15,00,AAXX 10154 41926 02450 50000 10290 20260 30006 40021 81510 333 58002 70074 81618 85459==
41926,2024,09,10,18,00,AAXX 10184 41926 02450 50000 10280 20260 30014 40027 81510 333 58017 70074 81618 85459==
41926,2024,09,10,21,00,AAXX 10214 41926 02450 60000 10280 20270 30012 40023 82510 333 58002 70074 82618 86459==
41926,2024,09,11,00,00,AAXX 11004 41926 02450 70000 10278 20270 30008 40021 83510 333 58006 70074 83617 87459==
41926,2024,09,11,03,00,AAXX 11034 41926 02456 41302 10307 20270 30019 40032 84400 333 20276 58002 70000 82618 83822==
41926,2024,09,11,06,00,AAXX 11064 41926 02456 51301 10342 20260 30011 40024 84401 333 58003 70000 82618 83822==
41926,2024,09,11,09,00,AAXX 11094 41926 02456 50000 10340 20260 39985 49998 84401 333 58008 70000 81618 83825==
41926,2024,09,11,12,00,AAXX 11124 41926 02450 60000 10317 20260 39990 40003 83510 333 10353 58011 70000 83618 86459==
41926,2024,09,11,15,00,AAXX 11154 41926 02450 70000 10308 20270 30016 40029 84310 333 58008 70000 83617 87459 81930==
41926,2024,09,11,18,00,AAXX 11184 41926 02450 70000 10298 20280 30015 40028 83510 333 58001 70000 83618 87459==
41926,2024,09,11,21,00,AAXX 11214 41926 02450 60000 10290 20280 30010 40013 82510 333 58001 70000 82618 86459==
41926,2024,09,12,00,00,AAXX 12004 41926 01440 50000 10282 20270 30003 40016 70522 82510 333 59005 70000 82618 85459==
41926,2024,09,12,03,00,AAXX 12034 41926 02450 80000 10305 20290 30018 40031 8452/ 333 20282 59001 70000 84616 88458==
41926,2024,09,12,06,00,AAXX 12064 41926 02456 60000 10340 20280 30012 40025 84510 333 58001 70000 84616 86459==
41926,2024,09,12,09,00,AAXX 12094 41926 02456 60000 10355 20290 39977 49990 84510 333 59008 70000 84616 86459==
41926,2024,09,12,12,00,AAXX 12124 41926 21450 60000 10300 20260 39986 49999 70296 84510 333 10360 59004 60007 84616 86459==
41926,2024,09,12,15,00,AAXX 12154 41926 42450 50000 10285 20270 30001 40014 83510 333 59015 83616 85459==
41926,2024,09,12,18,00,AAXX 12184 41926 42450 50000 10280 20260 39999 40012 83510 333 59016 83616 85459==
41926,2024,09,12,21,00,AAXX 12214 41926 42450 50000 10278 20260 39992 40005 83510 333 59018 83616 84459==
41927,2024,09,06,00,00,AAXX 06004 41927 11456 50000 10255 20250 30020 40035 60016 70196 82510 333 56490 58007 70304 82618 85459=
41927,2024,09,06,06,00,AAXX 06064 41927 32957 41101 10320 20260 30031 40046 84010 333 56090 58009 70304 84459=
41927,2024,09,06,12,00,AAXX 06124 41927 32956 40000 10315 20270 39991 40005 80001 333 10340 56009 58009 70304 84080=
41927,2024,09,07,00,00,AAXX 07004 41927 31450 60000 10278 20278 30018 40033 70520 83510 333 56490 59002 70000 83617 86459=
41927,2024,09,07,06,00,AAXX 07064 41927 32457 50000 10332 20270 30017 40031 85410 333 56490 59014 70000 82618 83828=
41927,2024,09,07,12,00,AAXX 07124 41927 32457 50000 10330 20270 39987 40001 82510 333 10350 56490 59004 70000 82618 85459=
41927,2024,09,07,18,00,AAXX 07184 41927 31956 22201 10292 20270 30024 40039 82030 333 56090 58005 70000 82362=
41927,2024,09,08,00,00,AAXX 08004 41927 32456 60000 10280 20270 30015 40030 83510 333 56490 59003 70000 83617 85459=
41927,2024,09,08,12,00,AAXX 08124 41927 32956 21802 10320 20270 39990 40004 80001 333 10350 56009 58003 70000 82080=
41927,2024,09,08,18,00,AAXX 08184 41927 NIL=
41927,2024,09,09,00,00,AAXX 09004 41927 31950 01301 10275 20270 30000 40015 70500 333 59015 70000=
41927,2024,09,09,06,00,AAXX 09064 41927 32458 41303 10330 20250 30007 40021 84400 333 56300 59014 70000 81618 83825=
41927,2024,09,09,12,00,AAXX 09124 41927 32456 81803 10310 20260 39977 49992 8432/ 333 10340 56499 59013 70000 83617 81930 88459=
41927,2024,09,09,18,00,AAXX 09184 41927 11956 20000 10280 20270 30006 40021 60026 70262 82030 333 56090 59011 70020 82362=
41927,2024,09,10,00,00,AAXX 10004 41927 31950 01801 10272 20260 39999 40014 70500 333 59001 70020=
41927,2024,09,10,06,00,AAXX 10064 41927 32458 51601 10320 20260 30011 40025 85400 333 56400 58004 70020 82618 83825=
41927,2024,09,10,12,00,AAXX 10124 41927 32957 01801 10308 20270 39978 49993 333 10346 58001 70000=
41927,2024,09,10,18,00,AAXX 10184 41927 32956 01802 10284 20260 30014 40029 333 58008 70000=
41927,2024,09,11,00,00,AAXX 11004 41927 32956 01601 10276 20270 30004 40019 333 58005 70000=
41927,2024,09,11,06,00,AAXX 11064 41927 32457 61602 10324 20260 30012 40026 83510 333 56490 58001 70000 83617 85459=
41927,2024,09,11,12,00,AAXX 11123 41927 32457 41802 10314 20260 39986 40001 82510 333 10338 56490 58008 70000 82618 84459=
41927,2024,09,11,18,00,AAXX 11184 41927 32956 01801 10282 20260 30020 40035 333 58008 70000=
41927,2024,09,12,00,00,AAXX 12004 41927 32956 00000 10274 20260 30014 40029 333 58010 70000=
41927,2024,09,12,06,00,AAXX 12064 41927 32958 01601 10344 20260 30008 40022 333 59004 70000=
41927,2024,09,12,12,00,AAXX 12124 41927 32957 01801 10334 20290 39974 49988 333 10366 59010 70000=
41927,2024,09,12,18,00,AAXX 12184 41927 NIL=
41929,2024,09,06,00,00,AAXX 06004 41929 02/56 50000 10279 20270 30021 40030 85010 333 58003 70004 85462==
41929,2024,09,06,03,00,AAXX 06034 41929 02456 80902 10300 20280 30039 40048 8352/ 333 20272 58007 70004 83618 88462==
41929,2024,09,06,06,00,AAXX 06064 41929 02456 80902 10315 20260 30039 40048 8351/ 333 58009 70004 83618 88462==
41929,2024,09,06,09,00,AAXX 06094 41929 02457 40000 10340 20240 30003 40013 82530 333 58004 70000 82616 83362==
41929,2024,09,06,12,00,AAXX 06124 41929 02457 30000 10322 20270 39998 40008 81530 333 10345 58012 70000 81616 83362==
41929,2024,09,06,15,00,AAXX 06154 41929 02/56 10000 10295 20290 30024 40034 81030 333 58001 70000 81362==
41929,2024,09,06,18,00,AAXX 06184 41929 02/56 10000 10287 20280 30029 40039 81030 333 59005 70000 81362==
41929,2024,09,06,21,00,AAXX 06214 41929 01450 70000 10280 20270 30028 40038 70511 84490 333 58001 70000 83616 86458==
41929,2024,09,07,00,00,AAXX 07004 41929 11450 80000 10276 20270 30025 40035 60012 79562 8532/ 333 58004 70012 84615 83825 88458 81930==
41929,2024,09,07,03,00,AAXX 07034 41929 01/56 50000 10318 20270 30027 40036 70196 85040 333 20272 59012 70016 85365==
41929,2024,09,07,06,00,AAXX 07064 41929 11457 61402 10346 20270 30025 40034 69946 70396 82540 333 59014 70016 82618 85365==
41929,2024,09,07,09,00,AAXX 07094 41929 02/57 41302 10365 20250 39995 40005 84030 333 59008 70016 84365==
41929,2024,09,07,12,00,AAXX 07124 41929 02457 81602 10330 20270 39998 40008 8547/ 333 10365 58000 70000 83618 84460==
41929,2024,09,07,15,00,AAXX 07154 41929 02/57 31402 10305 20290 30034 40044 83030 333 58010 70016 83365==
41929,2024,09,07,18,00,AAXX 07184 41929 02/57 30000 10294 20280 30035 40045 83030 333 58006 70016 83365==
41929,2024,09,07,21,00,AAXX 07214 41929 02457 51302 10280 20270 30027 40037 83530 333 59001 70016 83618 83365==
41929,2024,09,08,00,00,AAXX 08004 41929 01/57 30000 10275 20270 30027 40037 70162 83030 333 58002 70002 83365==
41929,2024,09,08,03,00,AAXX 08034 41929 02456 50902 10320 20260 30039 40048 82540 333 20270 58012 70014 82618 84365==
41929,2024,09,08,06,00,AAXX 08064 41929 02457 41802 10342 20250 30033 40042 83440 333 58008 70014 82618 83365==
41929,2024,09,08,09,00,AAXX 08094 41929 02/57 41702 10345 20260 30001 40011 84030 333 58006 70000 84318==
41929,2024,09,08,12,00,AAXX 08124 41929 02/57 30000 10320 20260 39998 40008 82030 333 10350 58000 70000 83365==
41929,2024,09,08,15,00,AAXX 08154 41929 02/57 20000 10300 20260 30022 40032 82030 333 59012 70000 82365==
41929,2024,09,08,18,00,AAXX 08184 41929 02/57 20000 10290 20260 30023 40033 82030 333 59012 70000 82365==
41929,2024,09,08,21,00,AAXX 08214 41929 02457 30902 10282 20260 30005 40015 82530 333 59022 70000 82618 83365==
41929,2024,09,09,00,00,AAXX 09004 41929 02457 60902 10290 20280 30009 40019 83530 333 59018 70000 83618 83365==
41929,2024,09,09,03,00,AAXX 09034 41929 02457 51802 10316 20260 30026 40035 82540 333 20280 59013 70000 82618 84365==
41929,2024,09,09,06,00,AAXX 09064 41929 02457 31604 10335 20260 30019 40028 83440 333 59014 70000 82618==
41929,2024,09,09,09,00,AAXX 09094 41929 02457 50902 10345 20260 39985 49995 83430 333 59016 70000 82618 83365==
41929,2024,09,09,12,00,AAXX 09124 41929 02/57 30903 10320 20260 39986 49996 83030 333 10345 59012 70000 83365==
41929,2024,09,09,15,00,AAXX 09154 41929 02/57 20000 10295 20270 30013 40023 82030 333 59009 70000 82365==
41929,2024,09,09,18,00,AAXX 09184 41929 02957 00902 10290 20270 30016 40026 333 59007 70000==
41929,2024,09,10,00,00,AAXX 10004 41929 02457 50902 10284 20260 30009 40019 82530 333 58000 70000 82618 83365==
41929,2024,09,10,03,00,AAXX 10034 41929 02457 51502 10316 20270 30029 40038 83540 333 20280 58003 70000 85618==
41929,2024,09,10,06,00,AAXX 10064 41929 02457 51802 10336 20260 30021 40030 82440 333 58002 70000 82618 84365==
41929,2024,09,10,09,00,AAXX 10094 41929 02/57 31604 10340 20260 39989 49999 83030 333 58004 70000 83365==
41929,2024,09,10,12,00,AAXX 10124 41929 02457 40000 10300 20270 39985 49995 82430 333 10343 59001 70000 81618 83365==
41929,2024,09,10,15,00,AAXX 10154 41929 02/57 30000 10295 20280 30021 40031 83030 333 58008 70000 83365==
41929,2024,09,10,18,00,AAXX 10184 41929 02957 01702 10290 20270 30025 40035 333 58009 70000==
41929,2024,09,10,21,00,AAXX 10214 41929 02957 00000 10284 20260 30015 40025 333 58012 70000==
41929,2024,09,11,00,00,AAXX 11004 41929 02457 70902 10285 20270 30018 40028 85570 333 55118 58009 70000 85618==
41929,2024,09,11,03,00,AAXX 11034 41929 02457 51702 10320 20270 30026 40036 83430 333 20280 59003 70000 82618 83365==
41929,2024,09,11,06,00,AAXX 11064 41929 01457 50000 10320 20270 30019 40029 76122 83430 333 58003 70020 82618 83365==
41929,2024,09,11,09,00,AAXX 11094 41929 02457 61002 10340 20280 39994 40004 84430 333 58005 70020 82618 83465==
41929,2024,09,11,12,00,AAXX 11124 41929 02457 60000 10315 20290 39998 40008 84430 333 10345 58013 70020 82618 83465==
41929,2024,09,11,15,00,AAXX 11154 41929 02457 41102 10305 20290 30023 40033 82530 333 58002 70020 82618 83365==
41929,2024,09,11,18,00,AAXX 11184 41929 02457 41302 10300 20290 30021 40031 82530 333 59004 70020 82618 83365==
41929,2024,09,11,21,00,AAXX 11214 41929 02457 41602 10290 20280 39999 40009 82530 333 59016 70020 82618 83365==
41929,2024,09,12,00,00,AAXX 12004 41929 02457 40902 10290 20280 30006 40016 82530 333 59012 70020 82618 83365==
41929,2024,09,12,03,00,AAXX 12034 41929 02456 63202 10330 20280 30021 40030 82540 333 20285 59005 70020 82618 85365==
41929,2024,09,12,06,00,AAXX 12064 41929 02456 72702 10345 20270 30013 40022 83570 333 59006 70000 83618 85462==
41929,2024,09,12,09,00,AAXX 12094 41929 01456 71302 10303 20280 39986 49995 71796 84970 333 59008 70035 83616 85458 81930==
41929,2024,09,12,12,00,AAXX 12124 41929 01456 80000 10293 20280 39985 49994 71796 8431/ 333 10353 59013 70095 83617 88459 81930==
41929,2024,09,12,15,00,AAXX 12154 41929 02/56 30000 10290 20280 30000 40009 83030 333 59023 70095 83365==
41929,2024,09,12,18,00,AAXX 12184 41929 02/56 40000 10292 20280 39994 40003 84030 333 59027 70095 84365==
41929,2024,09,12,21,00,AAXX 12214 41929 02456 70000 10290 20270 39989 49998 83570 333 59010 70095 83617 85459==
41933,2024,09,06,00,00,AAXX 06004 41933 01330 82402 10246 20240 30033 40042 79562 8692/ 333 58008 70280 83709 84615 88456 81924==
41933,2024,09,06,03,00,AAXX 06034 41933 01450 60000 10260 20240 30043 40052 70196 83520 333 20244 58012 70300 83618 86458==
41933,2024,09,06,06,00,AAXX 06064 41933 11450 52902 10320 20260 30033 40042 60026 70196 82530 333 58004 70300 82618 83562==
41933,2024,09,06,09,00,AAXX 06094 41933 02450 53003 10340 20270 39998 40006 82530 333 59003 70298 82618 85362==
41933,2024,09,06,12,00,AAXX 06124 41933 02450 50000 10320 20260 39991 40000 82530 333 10345 59004 70298 82618 85362==
41933,2024,09,06,15,00,AAXX 06154 41933 02450 50000 10285 20260 30022 40030 82530 333 58003 70298 82618 85362==
41933,2024,09,06,18,00,AAXX 06184 41933 02450 71802 10280 20260 30031 40039 83520 333 58009 70298 83618 87458==
41933,2024,09,06,21,00,AAXX 06214 41933 02450 70000 10270 20250 30030 40038 83520 333 58019 70298 83618 87458==
41933,2024,09,07,00,00,AAXX 07004 41933 02450 70000 10270 20260 30029 40037 83520 333 59004 70020 83618 87458==
41933,2024,09,07,03,00,AAXX 07034 41933 02456 50000 10298 20270 30026 40035 82530 333 20262 59017 70000 82618 85362==
41933,2024,09,07,06,00,AAXX 07064 41933 02456 50000 10336 20270 30018 40026 84440 333 59015 70000 82618 83826==
41933,2024,09,07,09,00,AAXX 07094 41933 02456 40000 10344 20270 39992 40001 84800 333 59006 70000 82618 83828==
41933,2024,09,07,12,00,AAXX 07124 41933 02456 40402 10329 20270 39994 40003 82540 333 10348 58003 70000 82618 84362==
41933,2024,09,07,15,00,AAXX 07154 41933 333 58007 70000 82618==
41933,2024,09,07,18,00,AAXX 07184 41933 01350 80000 10299 20270 30035 40043 72161 8572/ 333 58004 70008 82709 84615 88458==
41933,2024,09,07,21,00,AAXX 07214 41933 01450 81902 10269 20250 30026 40035 72162 8452/ 333 59004 70386 84616 88458==
41933,2024,09,08,00,00,AAXX 08004 41933 21450 50000 10275 20270 30024 40033 70162 82540 333 59005 60388 70386 82616 85362==
41933,2024,09,08,03,00,AAXX 08034 41933 02450 50000 10315 20260 30043 40052 82530 333 20264 58017 70386 82618 85362==
41933,2024,09,08,06,00,AAXX 08064 41933 02450 52002 10335 20270 30026 40034 82530 333 58008 70386 82618 85362==
41933,2024,09,08,09,00,AAXX 08094 41933 01340 82305 10350 20280 30004 40013 79596 8692/ 333 58012 70386 83709 84615 88456 81925==
41933,2024,09,08,12,00,AAXX 08124 41933 21450 50000 10305 20280 39997 40006 70196 82530 333 10353 58005 60065 70446 82618 85362==
41933,2024,09,08,15,00,AAXX 08154 41933 02450 20000 10305 20270 30030 40038 82500 333 58001 70446 82618==
41933,2024,09,08,18,00,AAXX 08184 41933 02450 51902 10300 20280 30030 40038 82530 333 59005 70438 82618 85362==
41933,2024,09,08,21,00,AAXX 08214 41933 02450 50000 10285 20280 30024 40032 82530 333 59002 70060 82618 85362==
41933,2024,09,09,00,00,AAXX 09004 41933 02450 50000 10275 20260 30020 40028 82530 333 59004 70060 82618 85362==
41933,2024,09,09,03,00,AAXX 09034 41933 02456 41702 10315 20270 30023 40032 84400 333 20275 59020 70060 82618 83826==
41933,2024,09,09,06,00,AAXX 09064 41933 02456 42102 10325 20260 30020 40027 84400 333 59006 70060 82618 83826==
41933,2024,09,09,09,00,AAXX 09094 41933 02456 51802 10335 20260 30092 40001 84440 333 59012 70060 82618 83826==
41933,2024,09,09,12,00,AAXX 09124 41933 02456 41803 10315 20260 39991 40000 82540 333 10342 59006 70000 82618 84362==
41933,2024,09,09,15,00,AAXX 09154 41933 02456 21503 10302 20260 30017 40025 82500 333 59013 70000 82618==
41933,2024,09,09,18,00,AAXX 09184 41933 02456 41702 10294 20260 30014 40022 82530 333 59016 70000 82618 84362==
41933,2024,09,10,00,00,AAXX 10004 41933 02450 41502 10276 20260 30011 40020 82540 333 59009 70000 82618 84362==
41933,2024,09,10,03,00,AAXX 10034 41933 02450 50000 10300 20250 30039 40048 82530 333 20275 58016 70000 82618 85362==
41933,2024,09,10,06,00,AAXX 10064 41933 02450 50000 10320 20280 30032 40040 82530 333 58012 70000 82618 83562==
41933,2024,09,10,09,00,AAXX 10094 41933 02456 52002 10325 20270 39996 40005 82530 333 58004 70000 82618 85362==
41933,2024,09,10,12,00,AAXX 10124 41933 02456 50000 10310 20260 39994 40003 82530 333 10328 58003 70000 82618 85362==
41933,2024,09,10,15,00,AAXX 10154 41933 02456 50000 10300 20260 30028 40036 82530 333 58011 70000 82618 85362==
41933,2024,09,10,18,00,AAXX 10184 41933 02450 60000 10290 20270 30031 40039 82520 333 58017 70000 82618 86458==
41933,2024,09,10,21,00,AAXX 10214 41933 02450 60000 10280 20250 30025 40033 82520 333 58019 70000 82618 86458==
41933,2024,09,11,00,00,AAXX 11004 41933 02450 60000 10280 20260 30023 40031 83520 333 58012 70000 83618 86458==
41933,2024,09,11,03,00,AAXX 11034 41933 02456 40000 10300 20270 30026 40035 82530 333 20275 59013 70000 82618 84362==
41933,2024,09,11,06,00,AAXX 11064 41933 02456 51202 10329 20260 30016 40024 84440 333 59016 70000 82618 83826==
41933,2024,09,11,09,00,AAXX 11094 41933 02456 50000 10340 20260 39991 40000 50000 84840 333 59005 70000 82618 83828==
41933,2024,09,11,12,00,AAXX 11123 41933 02456 50000 10327 20270 39991 40000 82540 333 10345 59003 70000 82618 85362==
41933,2024,09,11,15,00,AAXX 11154 41933 01456 71802 10303 20270 30013 40022 72162 84520 333 59015 70002 84618 87458==
41933,2024,09,11,18,00,AAXX 11184 41933 22450 70000 10291 20270 30016 40024 84520 333 59015 69928 70002 84618 87458==
41933,2024,09,11,21,00,AAXX 11214 41933 01340 81702 10270 20260 30001 40009 76162 8572/ 333 59024 70074 82709 84615 88458==
41933,2024,09,12,00,00,AAXX 12004 41933 21450 50000 10271 20270 30002 40010 70162 82540 333 59021 60098 70096 82616 85362==
41933,2024,09,12,03,00,AAXX 12034 41933 02450 50000 10305 20260 30021 40029 82530 333 20264 59005 70096 82618 85362==
41933,2024,09,12,06,00,AAXX 12064 41933 02456 51602 10330 20260 30000 40009 82530 333 59016 70096 82618 85362==
41933,2024,09,12,09,00,AAXX 12094 41933 02456 50000 10345 20270 39977 49986 82540 333 59014 70096 82618 85362==
41933,2024,09,12,12,00,AAXX 12124 41933 02456 52502 10335 20270 39973 49981 82530 333 10350 59018 70096 82618 85362==
41933,2024,09,12,15,00,AAXX 12154 41933 02456 62002 10300 20280 39993 40002 82520 333 59020 70094 82618 86458==
41933,2024,09,12,18,00,AAXX 12184 41933 02456 60000 10300 20280 39988 49997 82520 333 59028 70094 82618 86458==
41933,2024,09,12,21,00,AAXX 12214 41933 02450 60000 10280 20250 39984 49993 82520 333 59017 70022 82618 86458==
41936,2024,09,06,00,00,AAXX 06004 41936 42420 30000 10264 20250 30020 40027 58002 83362==
41936,2024,09,06,03,00,AAXX 06034 41936 01420 60904 10280 20260 30041 40047 70522 84630 333 20262 58008 70000 82710 83615 84362==
41936,2024,09,06,06,00,AAXX 06064 41936 01420 60303 10316 20280 30032 40040 70522 85630 333 58007 70000 83710 83615 86362==
41936,2024,09,06,09,00,AAXX 06094 41936 01430 50906 10330 20270 30005 40012 70522 83830 333 58006 70000 83615 84362==
41936,2024,09,06,12,00,AAXX 06124 41936 01430 40000 10320 20270 39993 40000 70522 82830 333 10344 58008 70000 82615 83362==
41936,2024,09,06,15,00,AAXX 06154 41936 01430 40000 10290 20270 30020 40027 70522 82830 333 58008 70000 82615 84362==
41936,2024,09,06,18,00,AAXX 06184 41936 01430 40000 10278 20260 30028 40035 70522 82830 333 58002 70000 82615 84362==
41936,2024,09,06,21,00,AAXX 06214 41936 01420 40000 10270 20260 30020 40027 70522 82830 333 58004 70000 82615 84362==
41936,2024,09,07,00,00,AAXX 07004 41936 01420 40000 10270 20260 30024 40031 70522 82830 333 58004 70000 82615 83612==
41936,2024,09,07,03,00,AAXX 07034 41936 41440 40403 10330 20260 30020 40027 70552 82830 333 20262 59020 82615 83362==
41936,2024,09,07,06,00,AAXX 07064 41936 11450 31705 10346 20270 30019 40025 60001 70552 81530 333 59015 81615 83362==
41936,2024,09,07,09,00,AAXX 07094 41936 41440 41105 10364 20280 39992 49999 70521 83830 333 59013 83615 83362==
41936,2024,09,07,12,00,AAXX 07124 41936 41430 42403 10302 20270 39997 40004 70592 82830 333 10368 58004 82615 83362==
41936,2024,09,07,15,00,AAXX 07154 41936 41430 40000 10288 20270 30024 40031 70522 82830 333 58004 82615 83362==
41936,2024,09,07,18,00,AAXX 07184 41936 41430 40000 10280 20260 30032 40039 70522 82830 333 58004 82615 83362==
41936,2024,09,07,21,00,AAXX 07214 41936 41420 40000 10280 20270 30018 40025 70522 82830 333 59002 82615 83362==
41936,2024,09,08,00,00,AAXX 08004 41936 41420 31503 10276 20270 30020 40027 70522 81830 333 59004 81615 83362==
41936,2024,09,08,03,00,AAXX 08034 41936 01450 31510 10312 20260 30026 40033 70521 81530 333 20274 58006 70000 81615 83362==
41936,2024,09,08,06,00,AAXX 08064 41936 01450 51605 10332 20270 30027 40034 70521 83630 333 58009 70000 81710 83615 84362==
41936,2024,09,08,09,00,AAXX 08094 41936 01450 61108 10340 20270 39995 40002 70521 83630 333 58003 70000 81710 83615 84362==
41936,2024,09,08,12,00,AAXX 08124 41936 01450 61206 10320 20270 39988 49995 70521 83630 333 10346 59009 70000 81710 83615 83362==
41936,2024,09,08,15,00,AAXX 08154 41936 01450 31304 10304 20260 30013 40020 70521 82830 333 59011 70000 82615 83362==
41936,2024,09,08,18,00,AAXX 08184 41936 01450 21203 10296 20270 30016 40023 70511 81830 333 59016 70000 81615==
41936,2024,09,08,21,00,AAXX 08214 41936 01435 41103 10288 20270 39999 40006 70592 83830 333 59019 70000 83615 83362==
41936,2024,09,09,00,00,AAXX 09004 41936 01425 41106 10280 20270 39998 40005 70521 83830 333 59022 70000 83615 83362==
41936,2024,09,09,03,00,AAXX 09034 41936 41435 61305 10310 20260 30015 40022 70521 83630 333 20276 59011 82710 83615 84362==
41936,2024,09,09,06,00,AAXX 09064 41936 11440 61616 10314 20260 30006 40013 60001 70521 83630 333 59009 81710 83615 84362==
41936,2024,09,09,09,00,AAXX 09094 41936 41440 41508 10346 20270 39983 49989 70522 83630 333 59014 82615 83362==
41936,2024,09,09,12,00,AAXX 09124 41936 41450 41705 10314 20260 39979 49986 70522 83630 333 10350 59011 82615 83362==
41936,2024,09,09,15,00,AAXX 09154 41936 41450 41404 10300 20270 30002 40009 70522 83630 333 59011 82615 83362==
41936,2024,09,09,18,00,AAXX 09184 41936 41450 41604 10294 20270 30004 40012 70522 83630 333 59012 82615 83362==
41936,2024,09,09,21,00,AAXX 09214 41936 41435 51703 10290 20270 39988 49995 70522 83630 333 59011 82615 83362==
41936,2024,09,10,00,00,AAXX 10004 41936 41420 61103 10280 20270 30001 40008 70522 83630 333 58003 82710 83615 84362==
41936,2024,09,10,03,00,AAXX 10034 41936 41425 51406 10310 20270 30018 40025 70522 83630 333 20270 58003 83615 84362==
41936,2024,09,10,06,00,AAXX 10064 41936 41440 51706 10334 20260 30012 40019 70522 83630 333 58006 87210 83615 84362==
41936,2024,09,10,09,00,AAXX 10094 41936 41440 51408 10330 20270 39986 49992 70522 83630 333 58003 81710 83615 85362==
41936,2024,09,10,12,00,AAXX 10124 41936 41440 41808 10320 20270 39979 49986 70522 82830 333 10344 58000 82615 83362==
41936,2024,09,10,15,00,AAXX 10154 41936 41440 41406 10300 20270 30012 40019 70522 82830 333 58010 82615 83362==
41936,2024,09,10,18,00,AAXX 10184 41936 01440 40000 10294 20270 30016 40023 70522 82830 333 58012 70000 82615 83362==
41936,2024,09,10,21,00,AAXX 10214 41936 01440 40000 10286 20270 30006 40013 70522 82830 333 58018 70000 82615 83362==
41936,2024,09,11,00,00,AAXX 11004 41936 41120 60000 10230 20260 30008 40015 79517 83630 333 58007 83710 86362 81930==
41936,2024,09,11,03,00,AAXX 11034 41936 41420 61503 10300 20280 30023 40030 70596 84630 333 20276 58005 83710 83615 86362==
41936,2024,09,11,06,00,AAXX 11064 41936 21435 61504 10328 20280 30016 40023 70596 84630 333 58004 60125 70120 82710 83615 85362==
41936,2024,09,11,09,00,AAXX 11094 41936 01440 41806 10340 20270 39988 49994 70522 83830 333 58002 70120 83615 83362==
41936,2024,09,11,12,00,AAXX 11124 41936 01440 51804 10324 20270 39991 49998 70522 83830 333 10354 58012 70120 83615 85362==
41936,2024,09,11,15,00,AAXX 11154 41936 01430 51803 10304 20280 30018 40025 70522 83830 333 58006 70120 83615 84362==
41936,2024,09,11,18,00,AAXX 11184 41936 01430 50000 10296 20280 30017 40024 70522 83830 333 58001 70120 83615 83362==
41936,2024,09,11,21,00,AAXX 11214 41936 01430 50000 10288 20280 30007 40014 70522 83830 333 58001 70120 83615 83362==
41936,2024,09,12,00,00,AAXX 12004 41936 01420 60000 10282 20270 30006 40013 70522 84630 333 59002 70120 81710 83615 85362==
41936,2024,09,12,03,00,AAXX 12034 41936 41412 72703 10298 20290 30018 40025 76062 85730 333 20278 59003 83710 83615 86362==
41936,2024,09,12,06,00,AAXX 12064 41936 11416 62503 10336 20300 30017 40024 60001 70562 83830 333 58001 83615 85362==
41936,2024,09,12,09,00,AAXX 12094 41936 41320 62803 10352 20270 39985 49992 71792 83930 333 59022 82708 83615 85362 81930==
41936,2024,09,12,12,00,AAXX 12124 41936 01314 61804 10276 20260 39989 49993 71796 83930 333 10354 59002 70100 82708 83615 85362 81930==
41936,2024,09,12,15,00,AAXX 12154 41936 01420 52703 10284 20260 30003 40010 70592 84630 333 59015 70100 81710 83615==
41936,2024,09,12,18,00,AAXX 12184 41936 01420 62803 10280 20270 30000 40007 70592 84630 333 59017 70100 82710 83615 85362==
41936,2024,09,12,21,00,AAXX 12214 41936 01420 60000 10282 20270 39993 40000 70522 84630 333 59014 70100 82710 83615 85362==
41938,2024,09,06,00,00,AAXX 06004 41938 32450 30000 10265 20260 30003 40007 83500 333 59018 70000 83618=
41938,2024,09,06,06,00,AAXX 06064 41938 NIL=
41938,2024,09,06,12,00,AAXX 06124 41938 32456 40000 10300 20290 30005 40009 83501 333 10340 58002 70000 83618=
41938,2024,09,06,18,00,AAXX 06184 41938 32450 30000 10283 20260 30021 40025 83500 333 56900 58020 70000 83618=
41938,2024,09,07,00,00,AAXX 07004 41938 32450 30000 10265 20260 30022 40026 83500 333 56900 58020 70000 83618=
41938,2024,09,07,06,00,AAXX 07064 41938 32457 40000 10340 20260 30019 40023 84400 333 56400 59016 70000 83618=
41938,2024,09,07,12,00,AAXX 07124 41938 11950 52002 10295 20270 30006 40010 60055 70596 83072 333 10355 56099 58001 70045 82460 84080=
41938,2024,09,07,18,00,AAXX 07184 41938 32956 20000 10278 20270 30037 40041 82010 333 56090 58016 70045 82460=
41938,2024,09,08,00,00,AAXX 08004 41938 32956 60000 10274 20260 30028 40032 85072 333 56099 58007 70045 83460 83362=
41938,2024,09,08,12,00,AAXX 08124 41938 32956 41401 10304 20270 39998 40001 82011 333 10345 56099 59008 70000 82460 84082=
41938,2024,09,08,18,00,AAXX 08184 41938 32956 11801 10286 20270 30017 40021 81010 333 56090 59020 70000 81460=
41938,2024,09,09,00,00,AAXX 09004 41938 32456 41401 10280 20260 30010 40013 82511 333 56399 59018 70000 82618=
41938,2024,09,09,06,00,AAXX 09064 41938 11458 31301 10312 20270 30015 40019 69934 72121 82410 333 56990 59012 70003 81618=
41938,2024,09,09,12,00,AAXX 09124 41938 32456 31302 10308 20250 39993 49997 81411 333 10344 56299 59005 70003 81618 83460=
41938,2024,09,09,18,00,AAXX 09184 41938 32456 20000 10287 20270 30009 40013 82501 333 56409 59008 70003 82617=
41938,2024,09,10,00,00,AAXX 10004 41938 32456 72001 10280 20270 30004 40008 85411 333 56499 59006 70003 84617 86460=
41938,2024,09,10,06,00,AAXX 10064 41938 11457 51602 10324 20260 30017 40021 60021 70262 81471 333 56499 58002 70018 81617 83460=
41938,2024,09,10,12,00,AAXX 10124 41938 32456 40000 10305 20260 39992 49996 84401 333 10326 56409 59001 70018 83618=
41938,2024,09,10,18,00,AAXX 10184 41938 32450 20000 10289 20270 30016 40020 82500 333 56900 58007 70018 82618=
41938,2024,09,11,00,00,AAXX 11004 41938 32450 20000 10280 20260 30018 40020 82500 333 56900 58008 70018 82618=
41938,2024,09,11,06,00,AAXX 11064 41938 32457 40000 10325 20280 30020 40024 84400 333 56400 58003 70000 83618=
41938,2024,09,11,12,00,AAXX 11123 41938 11456 72301 10295 20280 30001 40005 69944 71721 86910 333 10350 56590 58009 70004 83616 83825 81932 85460=
41938,2024,09,11,18,00,AAXX 11184 41938 31556 80000 10288 20280 30018 40022 71392 8132/ 333 56999 58002 70004 81825 81928 88460=
41938,2024,09,12,00,00,AAXX 12004 41938 32450 83301 10289 20280 30009 40013 8532/ 333 56799 59015 70004 85617 81928 88460=
41938,2024,09,12,06,00,AAXX 12064 41938 11450 72103 10310 20280 30017 40021 60048 70596 85410 333 56990 59003 70046 83616 83825 87460=
41938,2024,09,12,12,00,AAXX 12124 41938 11450 82302 10271 20260 39993 49997 60085 71796 8292/ 333 10328 56999 59004 70122 82616 81926 88458=
41938,2024,09,12,18,00,AAXX 12184 41938 31450 82301 10280 20270 39994 49997 71392 8392/ 333 56999 59024 70122 82616 81926 88458=
41939,2024,09,06,00,00,AAXX 06004 41939 02456 80000 10285 20280 30033 40041 8352/ 333 59005 70000 83617 88459==
41939,2024,09,06,03,00,AAXX 06034 41939 01456 80000 10282 20280 30044 40052 76162 8352/ 333 20278 58004 70020 83616 88459==
41939,2024,09,06,06,00,AAXX 06064 41939 21458 50000 10295 20280 30038 40046 70162 82510 333 58020 60027 70020 82618 85460==
41939,2024,09,06,09,00,AAXX 06094 41939 02459 20000 10318 20260 30018 40025 81530 333 58017 70020 81618==
41939,2024,09,06,12,00,AAXX 06124 41939 02459 40000 10300 20280 30007 40015 82530 333 10322 58014 70020 82618==
41939,2024,09,06,15,00,AAXX 06154 41939 02456 50000 10288 20280 30036 40044 83530 333 58010 70020 83617 83365==
41939,2024,09,06,21,00,AAXX 06214 41939 02456 50000 10282 20270 30040 40048 82510 333 58006 70020 82618 85460==
41939,2024,09,07,00,00,AAXX 07004 41939 02456 50000 10280 20270 30032 40040 82510 333 59001 70020 82618 85460==
41939,2024,09,07,03,00,AAXX 07034 41939 02458 50000 10320 20270 30037 40045 83530 333 20264 59007 70020 83617 83363==
41939,2024,09,07,06,00,AAXX 07064 41939 02460 40000 10340 20260 30026 40034 82530 333 59012 70000 82618 83365==
41939,2024,09,07,09,00,AAXX 07094 41939 01460 50000 10305 20280 30010 40018 70362 83530 333 59008 70090 83618==
41939,2024,09,07,12,00,AAXX 07124 41939 11457 40000 10325 20290 30003 40011 60096 70162 81530 333 10350 59004 70090 81618 83365==
41939,2024,09,07,15,00,AAXX 07154 41939 02440 50000 10303 20270 30016 40024 82530 333 59020 70090 82618 83365==
41939,2024,09,07,18,00,AAXX 07184 41939 02940 00000 10291 20270 30029 40037 333 59021 70090==
41939,2024,09,07,21,00,AAXX 07214 41939 02456 30000 10275 20270 30048 40056 82530 333 58010 70090 82618 83365==
41939,2024,09,08,00,00,AAXX 08004 41939 02456 30000 10270 20260 30045 40053 82530 333 58012 70090 82618 83365==
41939,2024,09,08,03,00,AAXX 08034 41939 02459 40000 10313 20270 30043 40051 82530 333 20268 58006 70090 82618 83365==
41939,2024,09,08,06,00,AAXX 08064 41939 02459 40000 10333 20260 30029 40037 82530 333 58003 70090 82618 83362==
41939,2024,09,08,09,00,AAXX 08094 41939 02460 30000 10331 20270 30005 40013 83430 333 59005 70000 82618==
41939,2024,09,08,12,00,AAXX 08124 41939 02458 10000 10315 20270 30001 40009 81500 333 10337 59002 70000 81618==
41939,2024,09,08,15,00,AAXX 08154 41939 02956 00000 10292 20260 30029 40037 333 58013 70000==
41939,2024,09,08,18,00,AAXX 08184 41939 02956 00000 10285 20270 30044 40052 333 58015 70000==
41939,2024,09,08,21,00,AAXX 08214 41939 02440 60000 10280 20260 30030 40038 83510 333 59018 70000 83617 88459==
41939,2024,09,09,00,00,AAXX 09004 41939 21456 60000 10275 20270 30016 40024 70262 83510 333 59029 60015 70014 83618 85459==
41939,2024,09,09,03,00,AAXX 09034 41939 02458 50000 10292 20270 30032 40040 82510 333 20270 59011 70014 82618 85459==
41939,2024,09,09,06,00,AAXX 09064 41939 02459 30000 10335 20270 30017 40025 83530 333 59012 70014 82618==
41939,2024,09,09,09,00,AAXX 09094 41939 02459 20000 10327 20270 39992 40000 83400 333 59013 70014 82618==
41939,2024,09,09,12,00,AAXX 09124 41939 02457 40000 10310 20250 39997 40005 82530 333 10335 59004 70014 82618 83365==
41939,2024,09,09,15,00,AAXX 09154 41939 02956 00000 10292 20260 30018 40026 333 59011 70014==
41939,2024,09,09,18,00,AAXX 09184 41939 02456 40000 10285 20270 30030 40038 82530 333 59014 70014 82618 83365==
41939,2024,09,10,00,00,AAXX 10004 41939 02457 50000 10282 20270 30017 40025 83530 333 58001 70000 83618 83365==
41939,2024,09,10,03,00,AAXX 10034 41939 02458 60000 10305 20280 30027 40045 83510 333 20272 58005 70000 83617 86459==
41939,2024,09,10,06,00,AAXX 10064 41939 02456 70000 10305 20270 30022 40030 83510 333 58005 70000 83616 87459==
41939,2024,09,10,09,00,AAXX 10094 41939 02458 40000 10327 20270 39995 40002 82530 333 58003 70000 82618 84360==
41939,2024,09,10,12,00,AAXX 10124 41939 02457 40000 10305 20270 39993 40001 83430 333 10335 59004 70000 82618 83365==
41939,2024,09,10,15,00,AAXX 10154 41939 02456 40000 10295 20270 30015 40023 82530 333 59003 70000 82618 83365==
41939,2024,09,10,18,00,AAXX 10184 41939 02456 50000 10286 20270 30022 40030 83530 333 59008 70000 83618 83365==
41939,2024,09,10,21,00,AAXX 10214 41939 02956 00000 10283 20260 30030 40038 333 58010 70000==
41939,2024,09,11,00,00,AAXX 11004 41939 02956 00000 10280 20270 30032 40040 333 58013 70000==
41939,2024,09,11,03,00,AAXX 11034 41939 02458 80000 10300 20280 30038 40046 8352/ 333 20278 58001 70000 83617 88459==
41939,2024,09,11,06,00,AAXX 11064 41939 02458 30000 10322 20270 30022 40030 83430 333 58000 70000 82618==
41939,2024,09,11,09,00,AAXX 11094 41939 02459 30000 10336 20270 30000 40007 83430 333 58005 70000 82618==
41939,2024,09,11,12,00,AAXX 11124 41939 02457 10000 10315 20290 30007 40015 81500 333 10342 58014 70000 81618==
41939,2024,09,11,15,00,AAXX 11154 41939 02456 60000 10297 20290 30028 40035 82510 333 58014 70000 82618 86459==
41939,2024,09,11,18,00,AAXX 11184 41939 02456 60000 10290 20280 30037 40045 82510 333 58015 70000 82618 86459==
41939,2024,09,11,21,00,AAXX 11214 41939 02450 80000 10285 20280 30020 40028 8352/ 333 59010 70000 83617 88459==
41939,2024,09,12,00,00,AAXX 12004 41939 01450 80000 10285 20280 30016 40024 76122 8352/ 333 59016 70040 83616 88459==
41939,2024,09,12,03,00,AAXX 12034 41939 01457 80000 10280 20270 30028 40036 70262 8352/ 333 20272 59010 70076 83617 88459==
41939,2024,09,12,06,00,AAXX 12064 41939 11458 60000 10330 20290 30008 40016 60046 70162 8351/ 333 59014 70076 83617 86459==
41939,2024,09,12,09,00,AAXX 12094 41939 01450 70000 10282 20260 39982 49990 72162 83510 333 59018 70146 83616 87459==
41939,2024,09,12,12,00,AAXX 12124 41939 21456 80000 10283 20260 39986 49994 70262 8352/ 333 10335 59021 60078 70146 83617 88459==
41939,2024,09,12,15,00,AAXX 12154 41939 02456 80000 10278 20260 39996 40004 8352/ 333 59032 70146 83617 88459==
41939,2024,09,12,18,00,AAXX 12184 41939 NIL=
41939,2024,09,12,21,00,AAXX 12214 41939 01450 80000 10270 20260 39990 49998 70262 8352/ 333 59030 70288 83617 88459==
41941,2024,09,06,00,00,AAXX 06004 41941 11440 81803 10265 20260 30023 40028 60096 79596 8792/ 333 59010 70140 85612 88456 82924==
41941,2024,09,06,03,00,AAXX 06034 41941 01450 81802 10260 20260 30045 40051 76196 8692/ 333 20260 58005 70026 85612 88456 81912==
41941,2024,09,06,06,00,AAXX 06064 41941 21456 73402 10304 20260 30033 40039 70196 84510 333 58007 60138 70270 84614 87458==
41941,2024,09,06,09,00,AAXX 06094 41941 02/57 33602 10333 20260 30005 40010 82031 333 58000 70220 82362 83074==
41941,2024,09,06,12,00,AAXX 06124 41941 02/56 40000 10308 20280 30005 40010 83041 333 10340 58015 70220 83362==
41941,2024,09,06,15,00,AAXX 06154 41941 02456 60203 10292 20280 30024 40029 85420 333 58016 70220 84614 86458==
41941,2024,09,06,18,00,AAXX 06184 41941 02450 60000 10290 20280 30033 40038 84520 333 58022 70220 84614 86458==
41941,2024,09,06,21,00,AAXX 06214 41941 02450 80000 10288 20280 30026 40031 8552/ 333 58007 70220 85614 88458==
41941,2024,09,07,00,00,AAXX 07004 41941 02450 80000 10286 20280 30028 40033 8552/ 333 58005 70130 85614 88458==
41941,2024,09,07,03,00,AAXX 07034 41941 02456 50000 10305 20290 30031 40036 84420 333 20285 59014 70010 83614 85458==
41941,2024,09,07,09,00,AAXX 07094 41941 02456 50000 10328 20280 39995 40001 84420 333 59010 70000 83616 85458==
41941,2024,09,07,12,00,AAXX 07124 41941 02456 51802 10316 20280 39997 40003 84420 333 10346 59008 70000 83616 85458==
41941,2024,09,07,15,00,AAXX 07154 41941 02440 61802 10300 20290 30010 40015 85420 333 59014 70000 84616 86458==
41941,2024,09,07,18,00,AAXX 07184 41941 NIL=
41941,2024,09,08,00,00,AAXX 08004 41941 21450 71802 10278 20270 30032 40037 70162 85420 333 58004 60037 70030 84616 87458==
41941,2024,09,08,03,00,AAXX 08034 41941 02456 51802 10316 20270 30045 40050 84420 333 20270 58014 70030 83616 85458==
41941,2024,09,08,06,00,AAXX 08064 41941 02456 61801 10342 20250 30045 40050 85420 333 58033 70030 84616 86458==
41941,2024,09,08,09,00,AAXX 08094 41941 02456 60000 10342 20250 30014 40019 85420 333 58019 70030 84616 86458==
41941,2024,09,08,12,00,AAXX 08124 41941 02456 41802 10316 20270 30016 40021 83420 333 10345 58019 70030 82616 84458==
41941,2024,09,08,15,00,AAXX 08154 41941 02950 01802 10296 20280 30032 40037 333 58022 70030==
41941,2024,09,08,18,00,AAXX 08184 41941 02950 00000 10292 20270 30035 40040 333 58004 70030==
41941,2024,09,08,21,00,AAXX 08214 41941 02440 71802 10285 20280 30035 40040 85420 333 58014 70000 84616 87458==
41941,2024,09,09,00,00,AAXX 09004 41941 02450 71802 10282 20260 30034 40040 85420 333 58002 70000 84616 87458==
41941,2024,09,09,03,00,AAXX 09034 41941 02456 61802 10315 20260 30036 40041 84420 333 20270 59009 70000 84616 86458==
41941,2024,09,09,06,00,AAXX 09064 41941 02457 41802 10330 20250 30022 40027 83540 333 59023 70000 83614==
41941,2024,09,09,09,00,AAXX 09094 41941 02458 41802 10328 20270 39994 40000 83550 333 59020 70000 83616==
41941,2024,09,09,12,00,AAXX 09124 41941 02457 21802 10311 20260 39998 40003 82500 333 10349 59018 70000 82618==
41941,2024,09,09,15,00,AAXX 09154 41941 02456 41802 10295 20280 30019 40025 82520 333 59013 70000 82616 83458==
41941,2024,09,09,18,00,AAXX 09184 41941 02456 51803 10293 20270 30016 40021 83520 333 59019 70000 83616 85458==
41941,2024,09,10,00,00,AAXX 10004 41941 11450 81302 10275 20270 30017 40022 60036 70262 8553/ 333 59017 70030 85614 88458==
41941,2024,09,10,03,00,AAXX 10034 41941 02456 71803 10295 20270 30035 40040 84520 333 20274 59001 70030 84616 87458==
41941,2024,09,10,06,00,AAXX 10064 41941 21456 71803 10310 20240 30021 40026 70262 85420 333 59001 60035 70062 84616 87458==
41941,2024,09,10,09,00,AAXX 10094 41941 02456 61803 10340 20260 39989 49995 85420 333 59005 70062 84616 86458==
41941,2024,09,10,12,00,AAXX 10124 41941 42456 61803 10310 20270 39995 40001 85420 333 10344 59003 84616 86458==
41941,2024,09,10,15,00,AAXX 10154 41941 02440 61802 10296 20280 30010 40014 85420 333 59009 70062 84616 86458==
41941,2024,09,10,18,00,AAXX 10184 41941 02440 61802 10290 20280 30028 40033 85420 333 58012 70062 84616 86458==
41941,2024,09,10,21,00,AAXX 10214 41941 02440 61802 10286 20280 30020 40025 85420 333 58012 70032 84616 86458==
41941,2024,09,11,00,00,AAXX 11004 41941 02450 81803 10285 20280 30023 40028 8632/ 333 58006 70032 85616 88458 81928==
41941,2024,09,11,03,00,AAXX 11034 41941 02456 61803 10306 20270 30034 40039 85420 333 20280 58014 70032 84616 86458==
41941,2024,09,11,06,00,AAXX 11064 41941 02456 71802 10315 20290 30032 40037 86420 333 58011 70000 85616 87458==
41941,2024,09,11,12,00,AAXX 11123 41941 02456 61801 10320 20270 30001 40007 84420 333 10346 58006 70000 83616 86458==
41941,2024,09,11,15,00,AAXX 11154 41941 02450 60000 10305 20270 30024 40029 84420 333 58014 70000 83616 86458==
41941,2024,09,11,21,00,AAXX 11214 41941 01340 81802 10282 20270 30017 40022 79596 8592/ 333 59003 70400 82708 84615 88456 81925==
41941,2024,09,12,00,00,AAXX 12004 41941 21340 81802 10270 20260 30014 40019 79596 8592/ 333 59009 60919 70910 82708 84615 88456 81925==
41941,2024,09,12,03,00,AAXX 12034 41941 01450 80000 10294 20270 30024 40029 70296 8692/ 333 20262 59010 70920 85614 88456 81925==
41941,2024,09,12,06,00,AAXX 12064 41941 01456 62703 10327 20280 30009 40014 70196 83530 333 59023 70010 83614 85362==
41941,2024,09,12,09,00,AAXX 12094 41941 02456 52703 10330 20270 39977 49983 84820 333 59028 70920 82616 83828 85458==
41941,2024,09,12,12,00,AAXX 12124 41941 01456 52701 10290 20280 39981 49987 72192 83520 333 10357 59020 70020 83614 84458==
41941,2024,09,12,15,00,AAXX 12154 41941 01450 63302 10287 20280 39999 40005 71322 84320 333 59025 70940 84614 86458 81930==
41941,2024,09,12,18,00,AAXX 12184 41941 01450 63302 10288 20280 39982 49988 71322 84320 333 59040 70940 84614 86458 81930==
41941,2024,09,12,21,00,AAXX 12214 41941 02450 50000 10278 20270 39978 49983 82530 333 59039 70540 82614 85458==
41943,2024,09,06,00,00,AAXX 06004 41943 21330 80000 10244 20230 30036 40045 76162 8772/ 333 58011 60357 70350 83709 84613 88458==
41943,2024,09,06,03,00,AAXX 06034 41943 01335 81802 10250 20250 30043 40050 70262 8662/ 333 20240 58009 70450 83710 84614 88458==
41943,2024,09,06,06,00,AAXX 06064 41943 11440 61802 10314 20250 30030 40037 60106 70162 83530 333 59002 70450 83616 84362==
41943,2024,09,06,09,00,AAXX 06094 41943 02440 51802 10344 20260 30000 40007 83530 333 58001 70450 83616 83362==
41943,2024,09,06,12,00,AAXX 06124 41943 02440 52302 10320 20270 39991 49998 83530 333 20346 58001 70450 83616 83362==
41943,2024,09,06,15,00,AAXX 06154 41943 01330 82302 10262 20250 30025 40032 76162 8672/ 333 58010 70770 83709 84613 88458==
41943,2024,09,06,18,00,AAXX 06184 41943 21330 81802 10260 20250 30038 40045 70262 8662/ 333 58003 60368 70810 83710 84614 88458==
41943,2024,09,06,21,00,AAXX 06214 41943 02330 80000 10264 20250 30033 40040 8662/ 333 59002 70810 84614 88458==
41943,2024,09,07,00,00,AAXX 07004 41943 02330 80000 10267 20260 30029 40036 8662/ 333 59007 70460 83710 84614 88458==
41943,2024,09,07,03,00,AAXX 07034 41943 02435 72302 10294 20250 30035 40042 84520 333 20258 59008 70360 84615 86458==
41943,2024,09,07,06,00,AAXX 07064 41943 02440 61802 10340 20250 30020 40027 83510 333 59010 70360 83616 84458==
41943,2024,09,07,09,00,AAXX 07094 41943 02440 51802 10352 20250 30000 40007 83530 333 58000 70360 83616 83362==
41943,2024,09,07,12,00,AAXX 07124 41943 02440 52302 10320 20270 39997 40004 83530 333 10356 58006 70360 83616 83362==
41943,2024,09,07,15,00,AAXX 07154 41943 02440 61802 10294 20260 30037 40044 83520 333 58012 70040 83616 85458==
41943,2024,09,07,18,00,AAXX 07184 41943 01330 81802 10270 20260 30046 40053 70362 8662/ 333 58008 70020 83710 84614 88458==
41943,2024,09,07,21,00,AAXX 07214 41943 02430 70000 10270 20260 30042 40049 84520 333 58009 70020 84615 87458==
41943,2024,09,08,00,00,AAXX 08004 41943 02435 60000 10270 20260 30034 40040 83510 333 58005 70020 83616 85458==
41943,2024,09,08,03,00,AAXX 08034 41943 02440 51802 10316 20260 30043 40050 83530 333 20268 58008 70020 83616 83362==
41943,2024,09,08,06,00,AAXX 08064 41943 02440 61303 10340 20250 30034 40041 83530 333 58014 70020 83616 84382==
41943,2024,09,08,09,00,AAXX 08094 41943 02440 51802 10344 20260 30003 40010 83530 333 58003 70020 83616 84362==
41943,2024,09,08,12,00,AAXX 08124 41943 02440 51802 10324 20250 39999 40006 83530 333 10346 58002 70020 83616 83362==
41943,2024,09,08,15,00,AAXX 08154 41943 02430 61802 10294 20260 30029 40036 83530 333 59008 70020 83616 83362==
41943,2024,09,08,18,00,AAXX 08184 41943 02430 61802 10286 20270 30037 40044 83510 333 59009 70000 83616 85458==
41943,2024,09,08,21,00,AAXX 08214 41943 02430 60000 10280 20260 30032 40039 83630 333 59010 70000 83616 84362==
41943,2024,09,09,00,00,AAXX 09004 41943 02435 50000 10270 20250 30020 40027 83530 333 59014 70000 83616 83362==
41943,2024,09,09,03,00,AAXX 09034 41943 02440 51302 10320 20250 30034 40041 83530 333 20268 59009 70000 83616 83362==
41943,2024,09,09,06,00,AAXX 09064 41943 02440 61302 10340 20230 30029 40036 83530 333 59005 70000 83616 84362==
41943,2024,09,09,09,00,AAXX 09094 41943 02440 61802 10346 20240 39998 40005 83530 333 59005 70000 83616 84362==
41943,2024,09,09,12,00,AAXX 09124 41943 02440 61802 10324 20270 39999 40006 83530 333 10348 58000 70000 83616 84362==
41943,2024,09,09,15,00,AAXX 09154 41943 02430 51802 10290 20260 30024 40031 83530 333 59005 70000 83616 83362==
41943,2024,09,09,18,00,AAXX 09184 41943 02430 71802 10178 20260 30020 40027 83520 333 70000 83616 85458==
41943,2024,09,09,21,00,AAXX 09214 41943 02430 70000 10270 20260 30020 40027 83520 333 59012 70000 83616 85458==
41943,2024,09,10,00,00,AAXX 10004 41943 02435 60000 10264 20250 30019 40026 83520 333 59001 70000 83616 85458==
41943,2024,09,10,03,00,AAXX 10034 41943 02440 61302 10288 20260 30035 40042 83530 333 20262 58001 70000 83616 84362==
41943,2024,09,10,06,00,AAXX 10064 41943 21445 51302 10298 20260 30036 40043 70262 83530 333 58002 60025 70020 83616 84362==
41943,2024,09,10,09,00,AAXX 10094 41943 02450 61802 10320 20250 30003 40010 83520 333 58005 70020 83616 85458==
41943,2024,09,10,12,00,AAXX 10124 41943 02445 31802 10300 20260 30001 40008 83401 333 10350 58002 70020 81616 83828==
41943,2024,09,10,15,00,AAXX 10154 41943 02440 21702 10287 20260 30034 40041 81530 333 58010 70020 81616==
41943,2024,09,10,18,00,AAXX 10184 41943 02435 41802 10280 20260 30034 40041 82510 333 58014 70020 82616 83458==
41943,2024,09,10,21,00,AAXX 10214 41943 02435 51802 10275 20260 30030 40037 83520 333 58010 70020 83616 83458==
41943,2024,09,11,00,00,AAXX 11004 41943 02435 71702 10270 20250 30025 40032 83570 333 58006 70020 83615 84458==
41943,2024,09,11,03,00,AAXX 11034 41943 02440 51802 10312 20250 30034 40041 83530 333 20266 59001 70020 83616 83362==
41943,2024,09,11,06,00,AAXX 11064 41943 02450 51802 10330 20230 30026 40033 83530 333 59010 70000 83616 84362==
41943,2024,09,11,09,00,AAXX 11094 41943 02450 41802 10345 20260 39997 40004 82501 333 59006 70000 82616 83074==
41943,2024,09,11,12,00,AAXX 11124 41943 02435 61802 10320 20270 30003 40010 82570 333 10355 58002 70000 82616 84458==
41943,2024,09,11,15,00,AAXX 11154 41943 01435 81602 10280 20270 30026 40033 76162 8562/ 333 59008 70024 82710 83615 87458==
41943,2024,09,11,18,00,AAXX 11184 41943 21435 71701 10270 20260 30020 40027 70162 84520 333 59014 60038 70026 84616 86458==
41943,2024,09,11,21,00,AAXX 11214 41943 01330 81702 10258 20250 30014 40021 79596 8632/ 333 59016 70429 83709 84616 88458 81929==
41943,2024,09,12,00,00,AAXX 12004 41943 21435 80000 10255 20250 30007 40014 70296 8662/ 333 59018 60528 70545 83710 83615 88458==
41943,2024,09,12,03,00,AAXX 12034 41943 02440 61802 10290 20250 30024 40031 83530 333 20255 59010 70545 83616 84362==
41943,2024,09,12,06,00,AAXX 12064 41943 02445 60902 10320 20270 30004 40011 83570 333 59022 70545 83616 84458==
41943,2024,09,12,09,00,AAXX 12094 41943 02450 60902 10340 20260 39975 49982 83530 333 59022 70545 83616 84362==
41943,2024,09,12,12,00,AAXX 12124 41943 21435 80000 10317 20280 39974 49981 76122 8452/ 333 10345 59029 60015 70555 84615 86458==
41943,2024,09,12,15,00,AAXX 12154 41943 01430 82701 10290 20270 39996 40003 71322 8432/ 333 59030 70531 83615 86457 81928==
41943,2024,09,12,18,00,AAXX 12184 41943 02435 80000 10280 20260 39992 49999 8552/ 333 59028 70529 85616 87458==
41943,2024,09,12,21,00,AAXX 12214 41943 01430 80000 10270 20250 39982 49989 72162 8452/ 333 59032 70148 84615 87458==
41944,2024,09,06,06,00,AAXX 06064 41944 NIL=
41944,2024,09,07,12,00,AAXX 07124 41944 NIL=
41944,2024,09,07,18,00,AAXX 07184 41944 NIL=
41944,2024,09,08,18,00,AAXX 08184 41944 NIL=
41944,2024,09,09,00,00,AAXX 09004 41944 NIL=
41944,2024,09,09,06,00,AAXX 09064 41944 NIL=
41944,2024,09,09,12,00,AAXX 09124 41944 NIL=
41944,2024,09,10,06,00,AAXX 10064 41944 NIL=
41944,2024,09,11,00,00,AAXX 11004 41944 NIL=
41944,2024,09,11,06,00,AAXX 11064 41944 NIL=
41944,2024,09,11,12,00,AAXX 11123 41944 NIL=
41944,2024,09,12,00,00,AAXX 12004 41944 NIL=
41944,2024,09,12,06,00,AAXX 12064 41944 NIL=
41944,2024,09,12,18,00,AAXX 12184 41944 NIL=
41946,2024,09,06,00,00,AAXX 06004 41946 01456 70000 10286 20280 30030 40035 72122 82502 333 58003 70002 82618 86080==
41946,2024,09,06,03,00,AAXX 06034 41946 02456 80000 10306 20290 30047 40052 8352/ 333 20282 58004 70002 83618 88459==
41946,2024,09,06,06,00,AAXX 06064 41946 02456 50504 10334 20270 30039 40043 83501 333 58002 70002 83618==
41946,2024,09,06,09,00,AAXX 06094 41946 02456 60502 10338 20270 30014 40018 83320 333 58011 70002 82618 85459 81928==
41946,2024,09,06,12,00,AAXX 06124 41946 02456 50000 10330 20270 30001 40005 83501 333 10344 58006 70002 83618==
41946,2024,09,06,15,00,AAXX 06154 41946 02456 30000 10306 20290 30030 40035 83500 333 58001 70002 83618==
41946,2024,09,06,18,00,AAXX 06184 41946 02456 30000 10297 20280 30038 40043 83500 333 58004 70002 83618==
41946,2024,09,06,21,00,AAXX 06214 41946 02456 30000 10292 20280 30026 40031 83500 333 59003 70002 83618==
41946,2024,09,07,00,00,AAXX 07004 41946 02456 50000 10290 20280 30030 40035 82520 333 58000 70000 82618 84459==
41946,2024,09,07,03,00,AAXX 07034 41946 02456 30904 10330 20270 30037 40041 83400 333 20286 59010 70000 82618==
41946,2024,09,07,06,00,AAXX 07064 41946 02456 40000 10350 20270 30027 40031 84400 333 59012 70000 83618==
41946,2024,09,07,09,00,AAXX 07094 41946 02557 31003 10350 20270 39999 40003 83200 333 59015 70000 83882==
41946,2024,09,07,12,00,AAXX 07124 41946 02556 70000 10310 20260 30006 40011 84420 333 10354 58005 70000 82620 83822 86459==
41946,2024,09,07,15,00,AAXX 07154 41946 02/56 31502 10312 20260 30033 40037 83030 333 58003 70000 83362==
41946,2024,09,07,18,00,AAXX 07184 41946 02556 30000 10300 20270 30040 40045 83400 333 58002 70000 82620==
41946,2024,09,07,21,00,AAXX 07214 41946 02556 40503 10294 20260 30029 40034 82530 333 58003 70000 82620 83362==
41946,2024,09,08,00,00,AAXX 08004 41946 02556 40404 10290 20270 30026 40031 84400 333 59004 70000 82620 83822==
41946,2024,09,08,03,00,AAXX 08034 41946 02456 40000 10315 20270 30043 40048 84400 333 20285 58006 70000 83618==
41946,2024,09,08,06,00,AAXX 08064 41946 02557 51808 10330 20260 30033 40037 84401 333 58006 70000 83620==
41946,2024,09,08,09,00,AAXX 08094 41946 01450 71804 10319 20270 30007 40011 71792 84920 333 58008 70000 83618 87459 81928==
41946,2024,09,08,12,00,AAXX 08124 41946 01456 50906 10309 20270 30000 40004 70192 83502 333 10336 58006 70000 83618==
41946,2024,09,08,15,00,AAXX 08154 41946 02956 10806 10304 20250 30023 40028 80001 333 59010 70000 81080==
41946,2024,09,08,18,00,AAXX 08184 41946 02456 40604 10296 20270 30023 40028 84500 333 59017 70000 84618==
41946,2024,09,08,21,00,AAXX 08214 41946 01456 60604 10291 20270 30006 40011 70362 83520 333 59023 70018 83618 86459==
41946,2024,09,09,00,00,AAXX 09004 41946 11456 60504 10286 20280 30006 40011 60026 70262 83302 333 59020 70018 82618 83080 81928==
41946,2024,09,09,03,00,AAXX 09034 41946 02456 80000 10310 20260 30022 40026 8342/ 333 20279 59021 70018 84618 84460 81928==
41946,2024,09,09,06,00,AAXX 09064 41946 21350 80908 10300 20270 30017 40022 76162 8472/ 333 59016 60107 70118 81710 84617 88459==
41946,2024,09,09,09,00,AAXX 09094 41946 02456 71404 10334 20260 39985 49989 84320 333 59022 70118 84618 87460 81928==
41946,2024,09,09,12,00,AAXX 09124 41946 01456 60503 10308 20250 39987 49991 70162 83302 333 10334 59013 70004 82618 83080 81928==
41946,2024,09,09,15,00,AAXX 09154 41946 02456 20000 10300 20270 30015 40020 82500 333 58008 70122 82618==
41946,2024,09,09,18,00,AAXX 09184 41946 02456 31804 10293 20270 30010 40015 83500 333 59013 70122 83618==
41946,2024,09,10,00,00,AAXX 10004 41946 21456 80000 10284 20270 30008 40013 70262 8352/ 333 58002 60047 70144 84618 88459==
41946,2024,09,10,03,00,AAXX 10034 41946 02456 80000 10307 20280 30028 40032 8352/ 333 20275 58006 70144 83618 88460==
41946,2024,09,10,06,00,AAXX 10064 41946 02456 70000 10325 20270 30017 40021 84320 333 58000 70044 83618 86459 81928==
41946,2024,09,10,09,00,AAXX 10094 41946 01456 60806 10332 20270 39991 49995 70162 86400 333 58006 70048 84618 83820==
41946,2024,09,10,12,00,AAXX 10124 41946 11556 50000 10311 20260 39990 49995 69946 70162 83550 333 10335 58003 70044 83620 84360==
41946,2024,09,10,15,00,AAXX 10154 41946 02556 50903 10302 20270 30020 40025 83430 333 58005 70044 82620 83362==
41946,2024,09,10,18,00,AAXX 10184 41946 02556 40000 10297 20280 30024 40029 84500 333 58014 70044 84620==
41946,2024,09,10,21,00,AAXX 10214 41946 02556 50000 10293 20280 30019 40023 85400 333 58017 70044 83620 83822==
41946,2024,09,11,00,00,AAXX 11004 41946 02456 71502 10288 20280 30014 40019 85420 333 58006 70004 84618 85459==
41946,2024,09,11,03,00,AAXX 11034 41946 02456 81504 10315 20280 30032 40036 8532/ 333 20285 58004 70004 84618 88460==
41946,2024,09,11,06,00,AAXX 11064 41946 02456 70904 10325 20290 30028 40032 84510 333 58011 70004 84618 86460==
41946,2024,09,11,09,00,AAXX 11094 41946 02557 50904 10337 20280 39997 40001 83501 333 58006 70000 83620==
41946,2024,09,11,12,00,AAXX 11123 41946 02456 80000 10321 20270 30002 40006 82502 333 10343 58012 70000 82618 86080==
41946,2024,09,11,15,00,AAXX 11154 41946 02456 60000 10309 20280 30031 40036 82510 333 58011 70000 82618 84460==
41946,2024,09,11,18,00,AAXX 11184 41946 01456 80000 10300 20280 30027 40032 71322 8332/ 333 58003 70000 82618 88459 81929==
41946,2024,09,11,21,00,AAXX 11214 41946 01456 80000 10296 20290 30004 40009 71322 8332/ 333 59015 70000 82618 88460 81928==
41946,2024,09,12,00,00,AAXX 12004 41946 02456 80000 10290 20280 30016 40021 8352/ 333 58002 70000 83618 88460==
41946,2024,09,12,03,00,AAXX 12034 41946 01350 80000 10297 20290 30033 40038 76122 8472/ 333 20288 58001 70002 81710 84617 88459==
41946,2024,09,12,06,00,AAXX 12064 41946 21456 80000 10310 20280 30029 40034 70262 8452/ 333 58001 69945 70004 84618 88460==
41946,2024,09,12,09,00,AAXX 12094 41946 02456 81804 10308 20280 39999 40003 8452/ 333 58002 70004 84618 88460==
41946,2024,09,12,12,00,AAXX 12124 41946 01350 80000 10280 20270 30001 40006 79596 8592/ 333 10314 59001 70080 81710 83617 88459 81928==
41946,2024,09,12,15,00,AAXX 12154 41946 01456 80000 10298 20290 30017 40022 70296 8452/ 333 59014 70124 84618 88460==
41946,2024,09,12,18,00,AAXX 12184 41946 21456 80000 10298 20290 30007 40012 70296 8452/ 333 59020 60049 70124 84618 88460==
41946,2024,09,12,21,00,AAXX 12214 41946 02456 80000 10290 20280 39992 49997 8452/ 333 59012 70124 84618 88460==
41947,2024,09,06,00,00,AAXX 06004 41947 02456 20000 10280 20270 30030 40032 82500 333 58000 70000 82618==
41947,2024,09,06,03,00,AAXX 06034 41947 02456 70000 10310 20260 30041 40044 83570 333 20275 58001 70000 83618 86458==
41947,2024,09,06,06,00,AAXX 06064 41947 02456 70000 10335 20260 30035 40038 83570 333 59004 70000 83618 86458==
41947,2024,09,06,09,00,AAXX 06094 41947 02456 30000 10348 20260 30009 40011 83500 333 58006 70000 83618==
41947,2024,09,06,12,00,AAXX 06124 41947 02457 20000 10325 20260 30005 40007 82501 333 10360 58010 70000 82618==
41947,2024,09,06,15,00,AAXX 06154 41947 02950 00000 10300 20270 30030 40032 333 59001 70000==
41947,2024,09,06,21,00,AAXX 06214 41947 02950 00000 10290 20280 30033 40035 333 59002 70000==
41947,2024,09,07,00,00,AAXX 07004 41947 02456 60000 10288 20280 30029 40031 82570 333 59001 70000 82618 85459==
41947,2024,09,07,03,00,AAXX 07034 41947 02956 00000 10320 20270 30036 40039 333 20283 59005 70000==
41947,2024,09,07,06,00,AAXX 07064 41947 02456 50000 10348 20270 30023 40026 85400 333 59012 70000 82618 83820==
41947,2024,09,07,09,00,AAXX 07094 41947 01456 80000 10270 20250 30007 40009 76122 8572/ 333 59002 70160 82709 83617 88456==
41947,2024,09,07,12,00,AAXX 07124 41947 21456 30000 10290 20280 30006 40008 70196 83500 333 10354 58001 60175 70170 83618==
41947,2024,09,07,15,00,AAXX 07154 41947 02950 00000 10297 20270 30037 40039 333 58007 70170==
41947,2024,09,07,18,00,AAXX 07184 41947 02950 00000 10290 20280 30045 40047 333 58010 70170==
41947,2024,09,07,21,00,AAXX 07214 41947 02950 00000 10288 20280 30035 40037 333 58002 70170==
41947,2024,09,08,00,00,AAXX 08004 41947 02456 20000 10280 20270 30031 40033 82500 333 58002 70170 82618==
41947,2024,09,08,03,00,AAXX 08034 41947 02456 51402 10318 20260 30042 40044 85400 333 20265 58005 70170 82618 83820==
41947,2024,09,08,06,00,AAXX 08064 41947 02457 61302 10335 20260 30036 40038 83570 333 58012 70170 83618 84459==
41947,2024,09,08,09,00,AAXX 08094 41947 02457 61506 10340 20250 30006 40008 86400 333 59001 70010 83618 83820==
41947,2024,09,08,12,00,AAXX 08124 41947 02456 41302 10306 20280 30002 40004 82401 333 10348 59004 70000 81618 83080==
41947,2024,09,08,15,00,AAXX 08154 41947 02456 31302 10298 20280 30023 40025 83500 333 59014 70000 83618==
41947,2024,09,08,18,00,AAXX 08184 41947 02456 21102 10292 20270 30023 40025 82500 333 59022 70000 82618==
41947,2024,09,08,21,00,AAXX 08214 41947 02456 31302 10288 20280 30011 40013 83500 333 59024 70000 83618==
41947,2024,09,09,00,00,AAXX 09004 41947 02456 71303 10290 20270 30009 40011 84570 333 59022 70000 83617 86459==
41947,2024,09,09,03,00,AAXX 09034 41947 02456 61402 10302 20270 30026 40028 83570 333 20280 59016 70000 83618 84459==
41947,2024,09,09,06,00,AAXX 09064 41947 01456 41404 10325 20280 30018 40020 70162 84400 333 59018 70004 81618 83820==
41947,2024,09,09,09,00,AAXX 09094 41947 02456 21406 10338 20250 39991 49993 82500 333 59015 70004 82618==
41947,2024,09,09,12,00,AAXX 09124 41947 02456 31803 10305 20270 39992 49994 83500 333 10344 59010 70004 83618==
41947,2024,09,09,15,00,AAXX 09154 41947 02950 01802 10305 20270 30018 40020 333 59005 70004==
41947,2024,09,09,18,00,AAXX 09184 41947 21450 51402 10290 20280 30013 40015 70162 83570 333 59010 60015 70014 83618 84458==
41947,2024,09,10,00,00,AAXX 10004 41947 02456 61402 10282 20270 30011 40013 83570 333 58002 70014 83618 85458==
41947,2024,09,10,03,00,AAXX 10034 41947 01456 40000 10312 20280 30031 40034 70162 84400 333 20280 58006 70030 81618 83820==
41947,2024,09,10,06,00,AAXX 10064 41947 11456 41303 10335 20270 30018 40021 60026 70262 84400 333 58001 70026 81618 83820==
41947,2024,09,10,09,00,AAXX 10094 41947 01456 71302 10342 20260 39991 49993 70366 83570 333 58000 70042 83618 86459==
41947,2024,09,10,12,00,AAXX 10124 41947 12456 20000 10310 20260 39997 49999 60026 82500 333 10343 58005 70042 82618==
41947,2024,09,10,15,00,AAXX 10154 41947 02450 20000 10300 20270 30027 40029 82500 333 58009 70042 82618==
41947,2024,09,10,18,00,AAXX 10184 41947 02450 60000 10290 20280 30028 40030 83510 333 58015 70032 83618 86459==
41947,2024,09,10,21,00,AAXX 10214 41947 02450 80000 10288 20280 30023 40025 8352/ 333 58010 70032 83618 88459==
41947,2024,09,11,00,00,AAXX 11004 41947 01340 80000 10285 20280 30019 40021 72122 8352/ 333 58008 70010 83618 88459==
41947,2024,09,11,03,00,AAXX 11034 41947 02450 80000 10310 20280 30032 40035 8352/ 333 20280 58001 70020 83618 88458==
41947,2024,09,11,06,00,AAXX 11064 41947 02456 70000 10325 20280 30027 40030 83570 333 58009 70026 83618 86458==
41947,2024,09,11,09,00,AAXX 11094 41947 02456 51802 10350 20270 30000 40002 83570 333 58009 70010 83618 84458==
41947,2024,09,11,12,00,AAXX 11123 41947 02456 30000 10308 20270 30006 40008 83500 333 10355 58009 70010 83618==
41947,2024,09,11,15,00,AAXX 11154 41947 02950 00000 10302 20280 30031 40033 333 58004 70010==
41947,2024,09,11,18,00,AAXX 11184 41947 02950 00000 10295 20290 30027 40029 333 59001 70010==
41947,2024,09,11,21,00,AAXX 11214 41947 02450 20000 10293 20280 30023 40025 82500 333 58000 70010 82618==
41947,2024,09,12,00,00,AAXX 12004 41947 02450 30000 10290 20280 30016 40018 83500 333 59003 70000 83618==
41947,2024,09,12,03,00,AAXX 12034 41947 01350 80000 10268 20260 30033 40035 76162 8672/ 333 20262 58000 70014 82709 84615 88458==
41947,2024,09,12,06,00,AAXX 12064 41947 21456 80000 10290 20270 30028 40030 70262 8352/ 333 58000 60028 70016 83618 88458==
41947,2024,09,12,09,00,AAXX 12094 41947 02456 82802 10308 20280 39996 49998 8352/ 333 59004 70016 83618 88458==
41947,2024,09,12,12,00,AAXX 12124 41947 21456 52801 10275 20270 39997 49999 70162 83570 333 10314 59009 60027 70033 83618 84458==
41947,2024,09,12,15,00,AAXX 12154 41947 02450 30000 10285 20280 30003 40005 83500 333 59026 70033 83618==
41947,2024,09,12,18,00,AAXX 12184 41947 21450 80000 10295 20290 39997 49999 70396 8352/ 333 59030 69985 70041 83618 88458==
41947,2024,09,12,21,00,AAXX 12214 41947 02450 80000 10295 20290 39994 49996 8352/ 333 59029 70041 83618 88458==
41950,2024,09,06,00,00,AAXX 06004 41950 01340 80000 10270 20270 30032 40034 79695 8692/ 333 58005 70020 82708 84616 88458 81928==
41950,2024,09,06,03,00,AAXX 06034 41950 01340 80000 10270 20270 30037 40039 76196 8572/ 333 20264 59003 70062 82708 84616 88458==
41950,2024,09,06,06,00,AAXX 06064 41950 21350 80000 10305 20270 30033 40035 70296 8562/ 333 59009 60048 70064 82708 84616 88458==
41950,2024,09,06,09,00,AAXX 06094 41950 02456 30000 10340 20260 30006 40008 82530 333 58005 70064 82617==
41950,2024,09,06,12,00,AAXX 06124 41950 02450 40000 10314 20280 30006 40008 83531 333 10342 58010 70064 83617==
41950,2024,09,06,15,00,AAXX 06154 41950 02450 70000 10292 20280 30025 40027 84470 333 59004 70062 83617 86459==
41950,2024,09,06,18,00,AAXX 06184 41950 02350 80000 10289 20289 30039 40041 8562/ 333 58003 70064 82708 84617 88459==
41950,2024,09,06,21,00,AAXX 06214 41950 01340 81802 10275 20275 30029 40031 76122 8572/ 333 59005 70085 82708 84616 88458==
41950,2024,09,07,00,00,AAXX 07004 41950 21340 81802 10265 20260 30030 40032 76165 8572/ 333 59002 60037 70069 82708 84616 88458==
41950,2024,09,07,03,00,AAXX 07034 41950 01450 50000 10308 20260 30038 40040 70162 82570 333 20264 58001 70047 82167 85459==
41950,2024,09,07,06,00,AAXX 07064 41950 11450 30000 10338 20270 30029 40031 60026 70162 83400 333 59004 70047 83617==
41950,2024,09,07,09,00,AAXX 07094 41950 02450 51802 10340 20260 30002 40004 84430 333 59004 70046 83617==
41950,2024,09,07,12,00,AAXX 07124 41950 02450 40000 10310 20260 30005 40008 82501 333 10345 59001 70046 82617 83080==
41950,2024,09,07,15,00,AAXX 07154 41950 02450 30000 10295 20280 30039 40041 82501 333 58014 70045 82617==
41950,2024,09,07,18,00,AAXX 07184 41950 02450 20000 10288 20280 30044 40046 82500 333 58005 70045 82617==
41950,2024,09,07,21,00,AAXX 07214 41950 02450 30000 10278 20270 30027 40029 82530 333 59002 70024 82617==
41950,2024,09,08,00,00,AAXX 08004 41950 11450 50000 10275 20270 30031 40033 60026 70162 82530 333 58001 70038 82617 84362==
41950,2024,09,08,03,00,AAXX 08034 41950 02450 61402 10322 20260 30038 40040 85431 333 20265 58000 70018 84617==
41950,2024,09,08,06,00,AAXX 08064 41950 02450 50902 10340 20260 30033 40035 84401 333 58004 70018 83617==
41950,2024,09,08,09,00,AAXX 08094 41950 02450 50903 10328 20260 30010 40013 84430 333 58008 70018 83617==
41950,2024,09,08,12,00,AAXX 08124 41950 02450 30000 10314 20250 30002 40005 82501 333 10342 59003 70018 82617==
41950,2024,09,08,15,00,AAXX 08154 41950 02450 20000 10297 20270 30022 40025 82500 333 59017 70018 82617==
41950,2024,09,08,18,00,AAXX 08184 41950 02450 10000 10290 20270 30025 40027 81500 333 59019 70000 81617==
41950,2024,09,08,21,00,AAXX 08214 41950 02450 10000 10286 20270 30019 40021 81500 333 59008 70018 81617==
41950,2024,09,09,00,00,AAXX 09004 41950 01350 41202 10279 20270 30009 40011 72111 84601 333 59022 70006 81708 83617==
41950,2024,09,09,03,00,AAXX 09034 41950 02450 60903 10316 20270 30031 40033 85430 333 20274 59007 70006 83617 83362==
41950,2024,09,09,06,00,AAXX 09064 41950 42450 61302 10328 20260 30022 40025 84430 333 59011 83617 83362==
41950,2024,09,09,09,00,AAXX 09094 41950 02450 61502 10344 20250 39994 49996 86300 333 59016 70006 84616 83825 81928==
41950,2024,09,09,12,00,AAXX 09124 41950 02450 40000 10308 20270 39997 40000 82531 333 10340 59005 70006 82617==
41950,2024,09,09,15,00,AAXX 09154 41950 02450 30000 10293 20260 30024 40026 83500 333 58002 70006 83617==
41950,2024,09,09,18,00,AAXX 09184 41950 02450 30000 10294 20260 30020 40022 83500 333 59005 70006 83617==
41950,2024,09,09,21,00,AAXX 09214 41950 02350 70000 10284 20260 30017 40019 85610 333 59002 70006 82708 84616 87459==
41950,2024,09,10,00,00,AAXX 10004 41950 02350 80000 10280 20270 30014 40016 8562/ 333 58005 70000 82708 84616 88458==
41950,2024,09,10,03,00,AAXX 10034 41950 02350 61802 10315 20270 30037 40039 86631 333 20276 58006 70000 81708 84616==
41950,2024,09,10,06,00,AAXX 10064 41950 02350 61802 10335 20270 30022 40024 86301 333 58000 70000 81708 84616 81928==
41950,2024,09,10,09,00,AAXX 10094 41950 02456 51602 10338 20260 39998 40001 85801 333 58004 70000 83617 83825==
41950,2024,09,10,12,00,AAXX 10124 41950 02450 51702 10310 20250 39998 40001 82501 333 10342 58001 70000 82617 84080==
41950,2024,09,10,15,00,AAXX 10154 41950 02450 20000 10298 20270 30028 40031 82500 333 58004 70000 82617==
41950,2024,09,10,18,00,AAXX 10184 41950 02450 11802 10294 20270 30031 40033 81500 333 58011 70000 81617==
41950,2024,09,10,21,00,AAXX 10214 41950 02450 60000 10290 20270 30021 40023 83510 333 58004 70000 83617 86459==
41950,2024,09,11,00,00,AAXX 11004 41950 02350 80000 10285 20280 30018 40020 8562/ 333 58004 70000 82708 84616 88458==
41950,2024,09,11,03,00,AAXX 11034 41950 01350 60000 10303 20270 30034 40036 70196 84670 333 20275 59003 70004 81708 84616 86459==
41950,2024,09,11,06,00,AAXX 11064 41950 11450 70000 10325 20280 30026 40029 69946 70362 85420 333 58004 70004 83617 87459==
41950,2024,09,11,09,00,AAXX 11094 41950 01330 80000 10298 20290 30004 40006 76122 8572/ 333 58006 70141 82708 84616 88458==
41950,2024,09,11,12,00,AAXX 11124 41950 21450 60000 10310 20280 30002 40005 70162 84301 333 10330 58004 60145 70141 83617 84080 81928==
41950,2024,09,11,15,00,AAXX 11154 41950 02450 70000 10294 20270 30028 40030 83511 333 58000 70141 83617 87459==
41950,2024,09,11,18,00,AAXX 11184 41950 02350 80000 10288 20280 30032 40034 8562/ 333 58001 70141 82708 84616 88458==
41950,2024,09,11,21,00,AAXX 11214 41950 02350 80000 10282 20270 30019 40021 8532/ 333 59002 70141 82708 84616 88458 81928==
41950,2024,09,12,00,00,AAXX 12004 41950 01330 80000 10270 20270 30021 40024 79596 8692/ 333 58003 70040 82707 84616 88458 81928==
41950,2024,09,12,03,00,AAXX 12034 41950 01335 80000 10252 20250 30024 40026 79596 8692/ 333 20250 59010 70349 82708 84616 88458 81928==
41950,2024,09,12,06,00,AAXX 12064 41950 21350 70000 10315 20280 30012 40014 70196 85610 333 59014 60178 70351 81708 84616 87459==
41950,2024,09,12,09,00,AAXX 12094 41950 02350 80000 10326 20290 39988 49990 8532/ 333 59016 70214 82708 84616 88458 81928==
41950,2024,09,12,12,00,AAXX 12124 41950 21340 80000 10267 20267 39986 49988 76196 8572/ 333 10326 59016 60377 70580 82708 84616 88458==
41950,2024,09,12,15,00,AAXX 12154 41950 01350 80000 10272 20270 30002 40004 71362 333 59026 70587 82708 84616 80156 88458==
41950,2024,09,12,18,00,AAXX 12184 41950 01350 82702 10278 20270 39991 49993 71762 8592/ 333 59041 70617 82708 84616 88458 81928==
41950,2024,09,12,21,00,AAXX 12214 41950 02350 80000 10250 20250 39985 49988 8532/ 333 59034 70677 82708 84616 88458 81928==
41951,2024,09,06,00,00,AAXX 06004 41951 11330 80000 10262 20260 30027 40031 60072 76396 8672/ 333 58005 70070 82706 84616 88458==
41951,2024,09,06,03,00,AAXX 06034 41951 01330 80000 10273 20270 30030 40035 76166 8672/ 333 20256 59001 70083 82706 84616 88458==
41951,2024,09,06,06,00,AAXX 06064 41951 21450 70000 10322 20260 30031 40036 70162 83510 333 58000 60018 70083 83618 86459==
41951,2024,09,06,09,00,AAXX 06094 41951 02456 30000 10350 20260 30005 40010 83500 333 58005 70083 83618==
41951,2024,09,06,12,00,AAXX 06124 41951 02456 60000 10318 20290 39997 40002 83510 333 10352 58008 70083 83618 85459==
41951,2024,09,06,15,00,AAXX 06154 41951 02340 80000 10293 20290 30022 40027 8562/ 333 59007 70083 81709 84618 88458==
41951,2024,09,06,18,00,AAXX 06184 41951 02340 80000 10293 20290 30025 40030 8562/ 333 59012 70083 81709 84618 88458==
41951,2024,09,06,21,00,AAXX 06214 41951 01330 80000 10274 20270 30022 40027 76162 8672/ 333 59009 70098 82706 84616 88458==
41951,2024,09,07,00,00,AAXX 07004 41951 21330 80000 10266 20266 30020 40024 76366 8672/ 333 59007 60079 70078 82706 84616 88458==
41951,2024,09,07,03,00,AAXX 07034 41951 01456 60000 10314 20270 30030 40035 70162 83510 333 20260 58000 70068 83618 85459==
41951,2024,09,07,06,00,AAXX 07064 41951 11456 60000 10338 20280 30025 40030 69936 70262 83510 333 59006 70068 83618 85459==
41951,2024,09,07,09,00,AAXX 07094 41951 02456 50000 10344 20260 39998 40003 84400 333 59007 70068 82618 83825==
41951,2024,09,07,12,00,AAXX 07124 41951 02456 50000 10310 20270 30001 40006 82510 333 10346 58004 70068 82618 84459==
41951,2024,09,07,15,00,AAXX 07154 41951 02450 60000 10296 20280 30037 40042 83510 333 58015 70068 83618 85459==
41951,2024,09,07,18,00,AAXX 07184 41951 01340 80000 10292 20280 30041 40046 71722 8692/ 333 58016 70068 82708 84618 88458 82925==
41951,2024,09,08,00,00,AAXX 08004 41951 01450 60000 10276 20276 30024 40028 72196 83510 333 58004 70096 83618 85459==
41951,2024,09,08,03,00,AAXX 08034 41951 02456 51303 10325 20280 30037 40042 82510 333 20270 58007 70093 82618 84459==
41951,2024,09,08,06,00,AAXX 08064 41951 02456 50000 10338 20270 30033 40038 82510 333 58008 70093 82618 84459==
41951,2024,09,08,09,00,AAXX 08094 41951 02456 61305 10338 20270 30006 40011 83510 333 58008 70093 83618 85459==
41951,2024,09,08,12,00,AAXX 08124 41951 02456 51303 10310 20260 39999 40004 82510 333 10342 59002 70093 82618 84459==
41951,2024,09,08,15,00,AAXX 08154 41951 02450 21302 10296 20260 30022 40027 82500 333 58000 70093 82618==
41951,2024,09,08,18,00,AAXX 08184 41951 02450 20000 10291 20270 30025 40030 82500 333 59016 70098 82618==
41951,2024,09,08,21,00,AAXX 08214 41951 01340 80000 10286 20280 30013 40018 72122 8662/ 333 59014 70022 82706 84616 88458==
41951,2024,09,09,00,00,AAXX 09004 41951 01440 71302 10278 20270 30008 40013 72162 83510 333 59016 70053 83618 86459==
41951,2024,09,09,03,00,AAXX 09034 41951 02456 51305 10327 20270 30025 40030 82510 333 20272 59012 70053 82618 84459==
41951,2024,09,09,06,00,AAXX 09064 41951 02456 61004 10332 20260 30017 40022 83510 333 59016 70053 83618 85459==
41951,2024,09,09,09,00,AAXX 09094 41951 02456 61208 10332 20270 39997 40002 83510 333 59009 70053 83618 85459==
41951,2024,09,09,12,00,AAXX 09124 41951 02456 31203 10310 20260 39992 49997 83500 333 10337 59007 70053 83618==
41951,2024,09,09,15,00,AAXX 09154 41951 01330 80000 10283 20260 30019 40024 76120 8672/ 333 59003 70055 82708 84618 88458==
41951,2024,09,09,18,00,AAXX 09184 41951 01340 80000 10288 20280 30014 40019 72162 8662/ 333 59011 70057 82708 84618 88458==
41951,2024,09,10,00,00,AAXX 10004 41951 02340 80000 10278 20270 30005 40010 8562/ 333 59003 70004 81708 84618 88458==
41951,2024,09,10,03,00,AAXX 10034 41951 02440 71302 10307 20280 30029 40034 83510 333 20272 58004 70004 83618 86459==
41951,2024,09,10,06,00,AAXX 10064 41951 21456 61304 10338 20260 30020 40025 70162 83510 333 58003 60015 70018 83618 85459==
41951,2024,09,10,09,00,AAXX 10094 41951 01330 81002 10302 20280 30002 40007 76122 8672/ 333 58005 70020 82706 84616 88458==
41951,2024,09,10,12,00,AAXX 10124 41951 21340 80000 10312 20270 30001 40006 70262 8562/ 333 10347 58009 69935 70021 81708 84618 88458==
41951,2024,09,10,15,00,AAXX 10154 41951 02450 30000 10292 20270 30031 40036 83500 333 58012 70019 83618==
41951,2024,09,10,18,00,AAXX 10184 41951 02440 70000 10290 20280 30029 40034 83510 333 58015 70017 83618 86459==
41951,2024,09,10,21,00,AAXX 10214 41951 02440 70000 10285 20280 30025 40030 83510 333 58018 70017 83618 86459==
41951,2024,09,11,00,00,AAXX 11004 41951 01340 80000 10282 20280 30011 40016 70362 8562/ 333 58006 70006 81708 84618 88458==
41951,2024,09,11,03,00,AAXX 11034 41951 01456 60000 10317 20270 30025 40030 70196 83510 333 20270 59004 70319 85459==
41951,2024,09,11,06,00,AAXX 11064 41951 11450 70000 10328 20290 30025 40030 60306 70396 83510 333 58005 70305 83618 86459==
41951,2024,09,11,09,00,AAXX 11094 41951 02450 70000 10340 20280 39999 40004 83510 333 59003 70303 83618 86459==
41951,2024,09,11,12,00,AAXX 11123 41951 02456 61301 10318 20280 39995 40000 83510 333 10347 59006 70302 83618 85459==
41951,2024,09,11,15,00,AAXX 11154 41951 02340 80000 10298 20290 30020 40025 8562/ 333 59011 70302 81708 84618 88458==
41951,2024,09,11,18,00,AAXX 11184 41951 02340 80000 10298 20290 30020 40025 8562/ 333 59009 70302 81708 84618 88458==
41951,2024,09,11,21,00,AAXX 11214 41951 02340 80000 10294 20280 30015 40020 8562/ 333 59010 70302 81708 84618 88458==
41951,2024,09,12,00,00,AAXX 12004 41951 01330 80000 10260 20260 30006 40010 79796 8692/ 333 59005 70600 82706 84616 88458 82925==
41951,2024,09,12,03,00,AAXX 12034 41951 01340 80000 10268 20268 30021 40025 72196 8662/ 333 20252 59004 70672 82706 84616 88458==
41951,2024,09,12,06,00,AAXX 12064 41951 21450 72603 10318 20280 30009 40014 70196 83510 333 59016 60078 70672 83618 86459==
41951,2024,09,12,09,00,AAXX 12094 41951 02456 62602 10330 20290 39985 49990 83510 333 59014 70672 83618 85459==
41951,2024,09,12,12,00,AAXX 12124 41951 21340 82602 10275 20270 39979 49984 70396 333 10337 59016 60185 70848 81706 84616 88458==
41951,2024,09,12,15,00,AAXX 12154 41951 01340 80000 10282 20270 30000 40005 71322 8532/ 333 59020 70848 81708 84618 88458 81925==
41951,2024,09,12,18,00,AAXX 12184 41951 01340 80000 10272 20260 39993 49997 71396 8632/ 333 59027 70004 81708 84618 88458 81925==
41951,2024,09,12,21,00,AAXX 12214 41951 01340 80000 10268 20268 39988 49992 70262 8562/ 333 59027 70936 81708 84618 88458==
41953,2024,09,06,00,00,AAXX 06004 41953 21430 80503 10255 20255 30039 40044 79596 8592/ 333 58007 60229 70220 84614 88458 81925==
41953,2024,09,06,03,00,AAXX 06034 41953 01440 80000 10260 20250 30047 40052 76166 8452/ 333 20250 58008 70260 84614 88458==
41953,2024,09,06,06,00,AAXX 06064 41953 02450 50000 10316 20270 30032 40037 84410 333 59002 70300 83616 84458==
41953,2024,09,06,09,00,AAXX 06094 41953 02450 70000 10330 20270 30002 40007 84410 333 58002 70300 83616 86458==
41953,2024,09,06,12,00,AAXX 06124 41953 02445 70000 10320 20280 30007 40012 83510 333 10336 58014 70300 83616 86458==
41953,2024,09,06,15,00,AAXX 06154 41953 02435 70000 10298 20270 30028 40033 83510 333 58006 70300 83616 86458==
41953,2024,09,06,18,00,AAXX 06184 41953 02430 80000 10290 20280 30034 40039 8352/ 333 58005 70300 83616 88458==
41953,2024,09,06,21,00,AAXX 06214 41953 01430 80000 10284 20270 30033 40038 70262 8352/ 333 58002 70320 83616 88458==
41953,2024,09,07,00,00,AAXX 07004 41953 11440 80000 10276 20270 30032 40037 60026 70262 8352/ 333 59007 70100 83616 88458==
41953,2024,09,07,03,00,AAXX 07034 41953 02450 70000 10310 20260 30041 40046 83510 333 20256 59006 70060 83616 86458==
41953,2024,09,07,06,00,AAXX 07064 41953 02450 70000 10324 20260 30028 40033 84410 333 59004 70020 83616 86458==
41953,2024,09,07,09,00,AAXX 07094 41953 02450 50000 10345 20270 30003 40008 85400 333 58001 70020 82616 83825==
41953,2024,09,07,12,00,AAXX 07124 41953 02450 40000 10315 20270 30003 40008 83430 333 10350 59004 70020 82618 84362==
41953,2024,09,07,15,00,AAXX 07154 41953 02440 60000 10300 20270 30040 40045 83510 333 58012 70020 83616 86458==
41953,2024,09,07,18,00,AAXX 07184 41953 02440 80000 10295 20270 30050 40055 8352/ 333 58016 70020 83616 88458==
41953,2024,09,07,21,00,AAXX 07214 41953 02440 80000 10290 20280 30045 40050 8352/ 333 58012 70000 83616 88458==
41953,2024,09,08,00,00,AAXX 08004 41953 02440 60000 10276 20260 30040 40045 83510 333 58008 70000 83616 86458==
41953,2024,09,08,03,00,AAXX 08034 41953 02450 40000 10325 20260 30048 40053 82530 333 20275 58007 70000 82618 84362==
41953,2024,09,08,06,00,AAXX 08064 41953 02450 41303 10340 20260 30040 40045 82530 333 58012 70000 82618 84362==
41953,2024,09,08,09,00,AAXX 08094 41953 02450 41303 10340 20260 30003 40008 84400 333 58000 70000 82618 83825==
41953,2024,09,08,12,00,AAXX 08124 41953 02450 40000 10310 20260 30006 40011 83430 333 10350 58003 70000 82618 84362==
41953,2024,09,08,15,00,AAXX 08154 41953 02440 60000 10295 20270 30030 40035 83510 333 59010 70000 83616 86458==
41953,2024,09,08,18,00,AAXX 08184 41953 02440 60000 10295 20270 30030 40035 83510 333 59020 70000 83616 86458==
41953,2024,09,08,21,00,AAXX 08214 41953 02440 60000 10290 20280 30025 40030 83510 333 59020 70000 83616 86458==
41953,2024,09,09,00,00,AAXX 09004 41953 21440 81303 10275 20270 30021 40026 70362 8352/ 333 59019 60065 70060 83616 88458==
41953,2024,09,09,03,00,AAXX 09034 41953 02450 61303 10315 20250 30035 40040 83510 333 20270 59013 70060 83616 86458==
41953,2024,09,09,06,00,AAXX 09064 41953 02450 61304 10332 20270 30030 40035 83510 333 59010 70060 83616 86458==
41953,2024,09,09,09,00,AAXX 09094 41953 02450 41304 10332 20270 30003 40008 84400 333 58000 70060 83616==
41953,2024,09,09,12,00,AAXX 09124 41953 02450 51303 10306 20260 30013 40018 83430 333 10335 58007 70060 82616 85362==
41953,2024,09,09,15,00,AAXX 09154 41953 02440 61303 10295 20270 30026 40031 83510 333 59004 70060 83616 86458==
41953,2024,09,09,18,00,AAXX 09184 41953 02440 80000 10295 20270 30020 40025 8352/ 333 59010 70060 83616 88458==
41953,2024,09,10,00,00,AAXX 10004 41953 01440 80000 10275 20270 30020 40025 72162 8352/ 333 59001 70060 83616 88458==
41953,2024,09,10,03,00,AAXX 10034 41953 02440 81303 10275 20270 30045 40050 8352/ 333 20270 58010 70060 83616 88458==
41953,2024,09,10,06,00,AAXX 10064 41953 02450 70000 10306 20270 30035 40040 83510 333 58005 70060 83616 86458==
41953,2024,09,10,09,00,AAXX 10094 41953 02450 51303 10330 20270 30006 40011 84410 333 58003 70060 83616 85458==
41953,2024,09,10,12,00,AAXX 10124 41953 02450 50000 10295 20270 30003 40008 84410 333 10332 59010 70060 83616 85458==
41953,2024,09,10,15,00,AAXX 10154 41953 02440 50000 10290 20270 30035 40040 83510 333 58009 70060 83616 85458==
41953,2024,09,10,18,00,AAXX 10184 41953 02440 80000 10290 20280 30035 40040 8352/ 333 58015 70060 83616 88458==
41953,2024,09,10,21,00,AAXX 10214 41953 02440 80000 10285 20280 30030 40035 8352/ 333 58015 70060 83616 88458==
41953,2024,09,11,00,00,AAXX 11004 41953 02440 81304 10280 20260 30027 40032 8352/ 333 58007 70000 83616 88458==
41953,2024,09,11,03,00,AAXX 11034 41953 02450 41303 10320 20260 30040 40045 83430 333 20280 59005 70000 82618 84362==
41953,2024,09,11,06,00,AAXX 11064 41953 02450 51302 10344 20250 30026 40031 84430 333 59009 70000 83618==
41953,2024,09,11,09,00,AAXX 11094 41953 02450 41302 10336 20270 30003 40008 84400 333 59003 70000 82618 83825==
41953,2024,09,11,12,00,AAXX 11123 41953 02445 60000 10315 20270 30002 40007 83510 333 10346 59004 70000 83616 85458==
41953,2024,09,11,15,00,AAXX 11154 41953 02430 80000 10300 20270 30033 40038 8352/ 333 59002 70000 83616 88458==
41953,2024,09,11,18,00,AAXX 11184 41953 21420 80000 10290 20280 30034 40039 76196 8452/ 333 59001 60157 70150 84615 88456==
41953,2024,09,11,21,00,AAXX 11214 41953 01410 81302 10270 20260 30021 40026 79596 8692/ 333 59009 70420 85614 88458 82930==
41953,2024,09,12,00,00,AAXX 12004 41953 21440 80000 10260 20260 30010 40015 70296 8352/ 333 59017 60338 70480 83616 88458==
41953,2024,09,12,03,00,AAXX 12034 41953 02445 80000 10288 20260 30026 40031 8352/ 333 20255 59014 70480 83616 88458==
41953,2024,09,12,06,00,AAXX 12064 41953 02445 80000 10320 20270 30009 40014 8352/ 333 59017 70480 83616 88458==
41953,2024,09,12,09,00,AAXX 12094 41953 02450 60000 10332 20260 39979 49984 83510 333 59024 70480 83616 85458==
41953,2024,09,12,12,00,AAXX 12124 41953 02440 80000 10300 20250 39975 49980 8352/ 333 10338 59027 70480 83616 88458==
41953,2024,09,12,15,00,AAXX 12154 41953 02430 80000 10288 20270 30002 40007 8532/ 333 59031 70480 83616 88458 81925==
41953,2024,09,12,18,00,AAXX 12184 41953 21420 81305 10265 20260 30024 40029 70296 8532/ 333 59010 60147 70470 84615 88458 81925==
41953,2024,09,12,21,00,AAXX 12214 41953 02420 81303 10267 20260 30001 40006 8352/ 333 59020 70200 83616 88458==
41955,2024,09,06,06,00,AAXX 06064 41955 NIL=
41955,2024,09,07,12,00,AAXX 07124 41955 NIL=
41955,2024,09,07,18,00,AAXX 07184 41955 NIL=
41955,2024,09,08,18,00,AAXX 08184 41955 NIL=
41955,2024,09,09,00,00,AAXX 09004 41955 NIL=
41955,2024,09,09,06,00,AAXX 09064 41955 NIL=
41955,2024,09,09,12,00,AAXX 09124 41955 NIL=
41955,2024,09,10,06,00,AAXX 10064 41955 NIL=
41955,2024,09,11,00,00,AAXX 11004 41955 NIL=
41955,2024,09,11,06,00,AAXX 11064 41955 NIL=
41955,2024,09,11,12,00,AAXX 11123 41955 NIL=
41955,2024,09,12,00,00,AAXX 12004 41955 NIL=
41955,2024,09,12,06,00,AAXX 12064 41955 NIL=
41955,2024,09,12,18,00,AAXX 12184 41955 NIL=
41958,2024,09,06,03,00,AAXX 06034 41958 32457 70000 10300 20280 30042 40044 85410 333 20268 56490 58001 70000 84616 87459=
41958,2024,09,06,06,00,AAXX 06064 41958 32458 40000 10325 20270 30040 40042 84400 333 58009 70000 83617=
41958,2024,09,06,09,00,AAXX 06094 41958 32458 40000 10332 20280 30032 40034 84400 333 56400 58028 70000 83617=
41958,2024,09,06,12,00,AAXX 06124 41958 32456 30000 10308 20260 30002 40004 83500 333 10340 56900 58009 70000 83617=
41958,2024,09,06,15,00,AAXX 06154 41958 32950 00000 10290 20280 30020 40023 333 59003 70000=
41958,2024,09,06,18,00,AAXX 06184 41958 32940 00000 10287 20280 30038 40040 333 58006 70000=
41958,2024,09,06,21,00,AAXX 06214 41958 32440 60000 10284 20270 30025 40027 85410 333 56990 58002 70000 84616 86459=
41958,2024,09,07,00,00,AAXX 07004 41958 32450 60000 10281 20280 30027 40029 85310 333 56990 58003 70000 84616 81930 86459=
41958,2024,09,07,03,00,AAXX 07034 41958 32457 60000 10307 20270 30036 40038 85410 333 20274 56990 59004 70000 84616 86459=
41958,2024,09,07,06,00,AAXX 07064 41958 32958 00000 10344 20270 30029 40031 333 59011 70000=
41958,2024,09,07,09,00,AAXX 07094 41958 32458 60000 10352 20270 30004 40006 85310 333 56990 58028 70000 84616 81930 88459=
41958,2024,09,07,12,00,AAXX 07124 41958 32456 70000 10315 20280 30003 40005 85310 333 10354 56990 58001 70000 84616 81930 87459=
41958,2024,09,07,15,00,AAXX 07154 41958 32950 01601 10298 20280 30030 40032 333 58010 70000=
41958,2024,09,07,18,00,AAXX 07184 41958 32940 01601 10292 20270 30039 40041 333 58001 70000=
41958,2024,09,07,21,00,AAXX 07214 41958 32940 00000 10286 20280 30022 40025 333 59003 70000=
41958,2024,09,08,00,00,AAXX 08004 41958 32450 51601 10282 20270 30024 40026 85400 333 56900 59003 70000 84617=
41958,2024,09,08,03,00,AAXX 08034 41958 32457 61601 10316 20280 30039 40041 85410 333 20276 56390 58003 70000 84616 86459=
41958,2024,09,08,09,00,AAXX 08094 41958 32450 81701 10312 20260 30003 40005 8542/ 333 56499 59001 70000 84616 88458=
41958,2024,09,08,12,00,AAXX 08124 41958 32450 61701 10305 20270 39995 49997 83410 333 10327 56490 59009 70000 83616 85459=
41958,2024,09,08,15,00,AAXX 08154 41958 32950 01701 10285 20270 30018 40020 333 59012 70000=
41958,2024,09,08,18,00,AAXX 08184 41958 11430 81301 10280 20270 30020 40022 60024 76120 8542/ 333 56399 59019 70020 84616 88458=
41958,2024,09,08,21,00,AAXX 08214 41958 21440 61301 10278 20278 30005 40007 70162 83410 333 56390 59017 6011/ 70130 83616 85459=
41958,2024,09,09,00,00,AAXX 09004 41958 11450 31301 10275 20270 30004 40006 60116 70160 83400 333 56300 59020 70130 83616=
41958,2024,09,09,03,00,AAXX 09034 41958 32456 61302 10310 20280 30019 40021 83410 333 20270 56390 59020 70130 83616 85459=
41958,2024,09,09,06,00,AAXX 09064 41958 11457 31304 10333 20270 30013 40015 60076 70160 83400 333 56300 59015 70200 83626=
41958,2024,09,09,09,00,AAXX 09094 41958 32450 81308 10337 20270 39988 49990 8542/ 333 56399 59015 70200 84616 88458=
41958,2024,09,09,12,00,AAXX 09124 41958 32450 61706 10305 20270 39991 49993 83410 333 10340 56490 59004 70200 83616 85459=
41958,2024,09,09,15,00,AAXX 09154 41958 21450 31702 10282 20270 30015 40017 70160 83400 333 56300 59003 6002/ 70220 83616=
41958,2024,09,09,18,00,AAXX 09184 41958 11440 31702 10284 20270 30009 40011 60026 70260 83400 333 56400 59011 70200 83616=
41958,2024,09,10,00,00,AAXX 10004 41958 32450 61701 10282 20270 30007 40009 83410 333 56490 58003 70090 83616 85459=
41958,2024,09,10,03,00,AAXX 10034 41958 32456 31702 10324 20250 30027 40029 83410 333 20274 56490 58008 70090 83616 85459=
41958,2024,09,10,06,00,AAXX 10064 41958 32456 61301 10314 20260 30015 40017 83410 333 56390 58002 70020 83616 85459=
41958,2024,09,10,09,00,AAXX 10094 41958 32457 61703 10337 20290 39992 49994 83410 333 56490 58004 70020 83616 85459=
41958,2024,09,10,12,00,AAXX 10124 41958 32450 30000 10300 20290 39991 49993 83400 333 10346 58000 70020 83616=
41958,2024,09,10,15,00,AAXX 10154 41958 32450 31702 10290 20280 30023 40025 83400 333 56400 58008 70000 83616=
41958,2024,09,10,18,00,AAXX 10184 41958 32440 31701 10287 20280 30015 40017 83400 333 56400 58006 70000 83616=
41958,2024,09,10,21,00,AAXX 10214 41958 32440 30000 10285 20280 30014 40016 83400 333 56900 58003 70000 83616=
41958,2024,09,11,00,00,AAXX 11004 41958 32450 80000 10285 20285 30014 40016 8542/ 333 56999 58007 70000 84616 88458=
41958,2024,09,11,03,00,AAXX 11034 41958 32450 80000 10304 20260 30029 40031 8542/ 333 20280 56999 59002 70000 84616 88458=
41958,2024,09,11,06,00,AAXX 11064 41958 32457 61701 10340 20280 30024 40026 83410 333 56490 58009 70000 83616 85459=
41958,2024,09,11,09,00,AAXX 11094 41958 32457 31701 10340 20280 39998 40000 83400 333 56400 58006 70000 83616=
41958,2024,09,11,12,00,AAXX 11123 41958 32450 60000 10312 20290 30001 40003 83410 333 10343 56990 58010 70000 83616 85459=
41958,2024,09,11,15,00,AAXX 11154 41958 32950 00000 10295 20290 30029 40031 333 58006 70000=
41958,2024,09,11,18,00,AAXX 11184 41958 32440 30000 10290 20280 30026 40028 83400 333 56900 58011 70000 83616=
41958,2024,09,11,21,00,AAXX 11214 41958 32440 30000 10288 20280 30021 40023 83400 333 56900 58007 70000 83616=
41958,2024,09,12,00,00,AAXX 12004 41958 32450 80000 10288 20288 30010 40012 8542/ 333 56999 59004 70000 84616 88458=
41958,2024,09,12,03,00,AAXX 12034 41958 21440 80000 10250 20250 30030 40032 76162 8572/ 333 20250 56999 58001 6004/ 70040 81708 84616 88458=
41958,2024,09,12,06,00,AAXX 12064 41958 11457 80000 10274 20250 30022 40024 60068 70266 8532/ 333 56999 59002 70060 84616 81930 88459=
41958,2024,09,12,09,00,AAXX 12094 41958 32458 82201 10304 20280 39992 49994 8542/ 333 56999 59006 70060 84616 88459=
41958,2024,09,12,12,00,AAXX 12124 41958 11456 80000 10290 20290 39992 49994 60014 79596 8592/ 333 10313 56999 59009 70065 84616 81930 88459=
41958,2024,09,12,15,00,AAXX 12154 41958 32440 80000 10285 20280 30007 40009 8532/ 333 56999 59022 70065 84616 81930 88459=
41958,2024,09,12,18,00,AAXX 12184 41958 11430 80000 10291 20290 39994 49996 60017 79596 8592/ 333 56999 59032 70075 84616 82930 88459=
41958,2024,09,12,21,00,AAXX 12214 41958 21430 81601 10282 20280 39983 49985 79796 8592/ 333 56999 59038 6009/ 70165 84616 82930 88459=
41960,2024,09,06,00,00,AAXX 06004 41960 01440 80401 10283 20270 30029 40031 76120 8542/ 333 58001 70000 83617 83822 88459==
41960,2024,09,06,03,00,AAXX 06034 41960 42456 81401 10284 20260 30038 40040 8452/ 333 20280 59008 84618 88458==
41960,2024,09,06,06,00,AAXX 06064 41960 42456 61402 10310 20260 30035 40037 85410 333 59002 83618 86459==
41960,2024,09,06,09,00,AAXX 06094 41960 42456 30000 10346 20260 30011 40013 82441 333 58003 81618 83362==
41960,2024,09,06,12,00,AAXX 06124 41960 42456 40000 10330 20280 30004 40005 83531 333 10350 58005 82618 83362==
41960,2024,09,06,15,00,AAXX 06154 41960 42450 60000 10300 20280 30024 40026 84410 333 59001 83618 86459==
41960,2024,09,06,18,00,AAXX 06184 41960 42450 80000 10294 20280 30041 40043 8542/ 333 59001 84618 88459==
41960,2024,09,06,21,00,AAXX 06214 41960 01430 81801 10270 20270 30037 40039 79592 8692/ 333 58003 70022 82708 84616 88458 82928==
41960,2024,09,07,00,00,AAXX 07004 41960 21440 70000 10268 20268 30034 40036 76196 85411 333 58005 60107 70097 83618 87459==
41960,2024,09,07,03,00,AAXX 07034 41960 01450 80000 10286 20270 30038 40040 70262 8542/ 333 20260 58000 70103 84618 88459==
41960,2024,09,07,06,00,AAXX 07064 41960 11450 70000 10338 20270 30031 40033 69966 70162 85410 333 59004 70103 83618 87459==
41960,2024,09,07,09,00,AAXX 07094 41960 02457 31802 10334 20280 30007 40009 83400 333 59004 70103 82618==
41960,2024,09,07,12,00,AAXX 07124 41960 02456 50000 10306 20280 30009 40011 82531 333 10343 58005 70103 82618 83080==
41960,2024,09,07,15,00,AAXX 07154 41960 02450 20000 10293 20270 30039 40041 82400 333 58015 70103 81618==
41960,2024,09,07,18,00,AAXX 07184 41960 01450 30000 10287 20280 30044 40046 71320 83300 333 58003 70103 81618 81930==
41960,2024,09,07,21,00,AAXX 07214 41960 02450 50000 10285 20280 30039 40041 83400 333 58002 70081 82618==
41960,2024,09,08,00,00,AAXX 08004 41960 02450 20000 10282 20270 30033 40035 82330 333 59001 70006 81618 81930==
41960,2024,09,08,03,00,AAXX 08034 41960 02456 41401 10316 20270 30038 40040 83430 333 20275 58000 70000 82618==
41960,2024,09,08,06,00,AAXX 08064 41960 02456 51403 10330 20270 30035 40037 85410 333 58004 70000 83618==
41960,2024,09,08,09,00,AAXX 08094 41960 01440 61403 10327 20270 30011 40013 76162 86410 333 58004 70002 84616 83822 85459==
41960,2024,09,08,12,00,AAXX 08124 41960 21456 60000 10310 20270 30004 40005 70262 86410 333 10337 59005 60025 70017 82618 84825 85458==
41960,2024,09,08,15,00,AAXX 08154 41960 02450 21802 10296 20280 30026 40028 82400 333 58013 70017 81618==
41960,2024,09,08,18,00,AAXX 08184 41960 02950 00000 10290 20280 30026 40028 333 58018 70017==
41960,2024,09,08,21,00,AAXX 08214 41960 02450 60000 10285 20280 30020 40022 85410 333 59019 70017 83617 83822 86459==
41960,2024,09,09,00,00,AAXX 09004 41960 01450 20000 10280 20270 30013 40015 70162 82801 333 59020 70010 81618==
41960,2024,09,09,03,00,AAXX 09034 41960 02456 61802 10312 20270 30029 40031 85410 333 20276 59009 70027 83618 86459==
41960,2024,09,09,06,00,AAXX 09064 41960 02456 51803 10336 20270 30025 40027 84410 333 59010 70027 81618 83825==
41960,2024,09,09,09,00,AAXX 09094 41960 02457 41404 10330 20270 30000 40002 84400 333 59011 70025 82618==
41960,2024,09,09,12,00,AAXX 09124 41960 02456 31403 10307 20270 30000 40001 83400 333 10340 59004 70010 82618==
41960,2024,09,09,15,00,AAXX 09154 41960 02450 20000 10296 20280 30022 40024 82400 333 59004 70010 82618==
41960,2024,09,09,18,00,AAXX 09184 41960 01450 70000 10288 20280 30020 40022 70360 85410 333 59006 70002 83617 83822 87459==
41960,2024,09,10,00,00,AAXX 10004 41960 21450 30000 10282 20270 30016 40018 70162 83400 333 58003 69925 70004 82618==
41960,2024,09,10,03,00,AAXX 10034 41960 01456 60000 10302 20270 30038 40040 72162 83510 333 20278 58009 70014 83618 86459==
41960,2024,09,10,06,00,AAXX 10064 41960 01457 61802 10328 20270 30023 40025 70262 85410 333 59002 70014 82618 84459==
41960,2024,09,10,09,00,AAXX 10094 41960 02457 41804 10334 20260 30005 40007 84401 333 58005 70014 82618 83080==
41960,2024,09,10,12,00,AAXX 10124 41960 02456 40000 10310 20270 30002 40003 83401 333 10345 58002 70014 81618 83080==
41960,2024,09,10,15,00,AAXX 10154 41960 02450 40000 10297 20280 30033 40035 84401 333 58011 70014 82618==
41960,2024,09,10,18,00,AAXX 10184 41960 02450 80000 10290 20280 30033 40035 8542/ 333 58013 70012 83617 83822 88459==
41960,2024,09,10,21,00,AAXX 10214 41960 02450 80000 10285 20280 30028 40030 8542/ 333 58010 70010 84617 83822 88459==
41960,2024,09,11,00,00,AAXX 11004 41960 01440 80000 10278 20270 30022 40024 71762 8692/ 333 58006 70010 84617 83822 88459 82929==
41960,2024,09,11,03,00,AAXX 11034 41960 01450 80000 10290 20280 30034 40036 70292 8542/ 333 20275 59004 70010 83618 88459==
41960,2024,09,11,06,00,AAXX 11064 41960 01456 61801 10326 20290 30025 40027 70192 85410 333 58002 70010 83618 85459==
41960,2024,09,11,09,00,AAXX 11094 41960 02458 41801 10340 20280 30006 40007 84401 333 58001 70010 83618 83080==
41960,2024,09,11,12,00,AAXX 11123 41960 02456 51801 10320 20280 30003 40004 83510 333 10350 58001 70010 83618 85458==
41960,2024,09,11,15,00,AAXX 11154 41960 02450 50000 10300 20290 30031 40033 85410 333 59002 70010 83618 85459==
41960,2024,09,11,18,00,AAXX 11184 41960 02450 80000 10295 20290 30030 40032 8642/ 333 59003 70010 84617 83822 88459==
41960,2024,09,11,21,00,AAXX 11214 41960 02450 80000 10292 20280 30026 40028 8642/ 333 59002 70010 84617 83822 88459==
41960,2024,09,12,00,00,AAXX 12004 41960 01320 80805 10288 20280 30023 40025 79592 8692/ 333 58001 70002 82708 84615 88458 82928==
41960,2024,09,12,03,00,AAXX 12034 41960 01340 80902 10256 20256 30029 40030 79596 8692/ 333 20283 59005 70334 82708 84615 88458 81925==
41960,2024,09,12,06,00,AAXX 12064 41960 21456 61402 10304 20280 30019 40021 70196 85410 333 59006 60368 70366 83618 86459==
41960,2024,09,12,09,00,AAXX 12094 41960 02456 61401 10300 20270 39993 49995 85410 333 59013 70366 83618 86458==
41960,2024,09,12,12,00,AAXX 12124 41960 01350 80000 10266 20260 39993 49995 79596 8692/ 333 10310 59010 70200 84615 88456 81925==
41960,2024,09,12,15,00,AAXX 12154 41960 01450 70000 10284 20280 30008 40010 71322 85310 333 59023 70566 83618 87459 81930==
41960,2024,09,12,18,00,AAXX 12184 41960 21320 81804 10267 20267 30003 40005 79596 8692/ 333 59027 60297 70852 82708 84615 88458 82928==
41960,2024,09,12,21,00,AAXX 12214 41960 01210 81805 10260 20260 39993 49995 79596 8692/ 333 59033 71414 83706 84614 88458 82928==
41963,2024,09,06,00,00,AAXX 06004 41963 01457 70000 10268 20260 30038 40041 72162 83570 333 59001 70130 83617 84458==
41963,2024,09,06,03,00,AAXX 06034 41963 01457 80000 10280 20270 30046 40048 70362 8251/ 333 20260 59002 70140 82617 88457==
41963,2024,09,06,06,00,AAXX 06064 41963 11/57 40602 10320 20260 30042 40044 60016 70162 84060 333 58000 70140 84362==
41963,2024,09,06,09,00,AAXX 06094 41963 02457 30000 10330 20270 30015 40017 83300 333 58000 70140 83618 81928==
41963,2024,09,06,12,00,AAXX 06124 41963 02457 40000 10310 20290 30015 40017 81560 333 10336 58009 70140 81618 84362==
41963,2024,09,06,21,00,AAXX 06214 41963 01350 80000 10282 20270 30034 40037 72992 8492/ 333 59004 70140 82710 83615 88457 81928==
41963,2024,09,07,00,00,AAXX 07004 41963 11457 70000 10265 20265 30041 40044 60072 72162 83570 333 58003 70080 83617 84458==
41963,2024,09,07,03,00,AAXX 07034 41963 02/57 30000 10320 20270 30044 40046 83060 333 20260 59002 70070 83362==
41963,2024,09,07,06,00,AAXX 07064 41963 02457 50000 10330 20270 30037 40039 83460 333 59005 70030 82617 83363==
41963,2024,09,07,09,00,AAXX 07094 41963 02557 11603 10343 20270 30014 40017 81100 333 59001 70070 81825==
41963,2024,09,07,12,00,AAXX 07124 41963 NIL=
41963,2024,09,07,18,00,AAXX 07184 41963 NIL=
41963,2024,09,07,21,00,AAXX 07214 41963 02/50 30000 10282 20270 30047 40050 83030 333 58013 70160 83363==
41963,2024,09,08,00,00,AAXX 08004 41963 02457 40000 10280 20270 30044 40047 84400 333 58003 70090 83617==
41963,2024,09,08,03,00,AAXX 08034 41963 02457 11203 10320 20270 30053 40055 81500 333 20268 58009 70090 81620==
41963,2024,09,08,06,00,AAXX 08064 41963 02457 11302 10327 20270 30047 40049 81500 333 58010 70090 81620==
41963,2024,09,08,09,00,AAXX 08094 41963 02457 21803 10327 20270 30019 40022 82500 333 58005 70090 82620==
41963,2024,09,08,12,00,AAXX 08124 41963 02557 41302 10300 20260 30015 40018 81160 333 10330 59010 70090 81825 84362==
41963,2024,09,08,15,00,AAXX 08154 41963 02450 21304 10300 20260 30044 40047 82500 333 58003 70090 82620==
41963,2024,09,08,18,00,AAXX 08184 41963 02450 21603 10293 20260 30035 40038 82500 333 59016 70000 82618==
41963,2024,09,08,21,00,AAXX 08214 41963 01450 51802 10288 20280 30034 40036 70362 83570 333 59013 70050 83617 83459==
41963,2024,09,09,00,00,AAXX 09004 41963 11457 40000 10285 20270 30031 40034 60056 70162 82540 333 59013 70050 82617 83362==
41963,2024,09,09,03,00,AAXX 09034 41963 02457 31304 10306 20280 30043 40046 83400 333 20272 59010 70050 83618==
41963,2024,09,09,06,00,AAXX 09064 41963 02457 31306 10318 20270 30043 40046 83400 333 59004 70050 82618==
41963,2024,09,09,09,00,AAXX 09094 41963 02457 41805 10324 20270 30015 40017 84400 333 59004 70050 83618==
41963,2024,09,09,12,00,AAXX 09124 41963 02457 41803 10300 20270 30012 40015 83460 333 10325 59003 70050 81618 83363==
41963,2024,09,09,15,00,AAXX 09154 41963 02450 20904 10298 20270 30037 40040 82500 333 59007 70050 82618==
41963,2024,09,09,18,00,AAXX 09184 41963 02450 50000 10293 20270 30029 40031 83570 333 59006 70050 83617 83459==
41963,2024,09,10,00,00,AAXX 10004 41963 11457 60000 10270 20260 30030 40033 60016 70262 83470 333 59001 70010 82617 84359==
41963,2024,09,10,03,00,AAXX 10034 41963 01457 41803 10318 20270 30054 40056 70162 83460 333 20265 58011 70020 82618 83362==
41963,2024,09,10,06,00,AAXX 10064 41963 11457 41804 10333 20260 30035 40037 60016 70262 84400 333 59008 70020 83618==
41963,2024,09,10,09,00,AAXX 10094 41963 02457 41804 10330 20270 30015 40017 83460 333 58000 70020 82618 83362==
41963,2024,09,10,12,00,AAXX 10124 41963 02557 41802 10302 20270 30015 40017 81140 333 10336 58003 70020 81825 84362==
41963,2024,09,10,15,00,AAXX 10154 41963 02450 21602 10295 20280 30042 40045 82500 333 58005 70020 82620==
41963,2024,09,10,18,00,AAXX 10184 41963 02450 20000 10288 20270 30040 40042 82500 333 58011 70020 82620==
41963,2024,09,10,21,00,AAXX 10214 41963 01450 80000 10277 20270 30028 40031 76362 8352/ 333 58001 70170 83617 88458==
41963,2024,09,11,00,00,AAXX 11004 41963 21357 80000 10270 20270 30037 40040 79196 8432/ 333 58007 60507 70510 82709 83614 88458 81928==
41963,2024,09,11,03,00,AAXX 11034 41963 01457 40000 10302 20270 30044 40046 70196 83460 333 20263 59010 70520 82617 83362==
41963,2024,09,11,06,00,AAXX 11064 41963 11457 41603 10320 20280 30039 40042 60026 70162 83430 333 58004 70520 82618 83362==
41963,2024,09,11,09,00,AAXX 11094 41963 01457 42802 10320 20270 30014 40016 70262 82560 333 59001 70530 82618 83362==
41963,2024,09,11,12,00,AAXX 11123 41963 11/57 40000 10300 20280 30015 40017 60016 70262 84040 333 10325 58000 70530 84362==
41963,2024,09,11,21,00,AAXX 11214 41963 01350 80000 10277 20270 30024 40027 76296 8472/ 333 59004 70480 82709 83614 88457==
41963,2024,09,12,00,00,AAXX 12004 41963 01357 80000 10262 20262 30019 40022 72162 8472/ 333 59018 70380 82709 83614 88457==
41963,2024,09,12,03,00,AAXX 12034 41963 02457 50000 10298 20270 30033 40036 82540 333 20257 59011 70360 82617 84363==
41963,2024,09,12,06,00,AAXX 12064 41963 02457 60000 10320 20270 30014 40016 83570 333 59025 70360 83618 83458==
41963,2024,09,12,09,00,AAXX 12094 41963 02457 60000 10326 20280 39992 49994 83570 333 59022 70350 83618 85458==
41963,2024,09,12,12,00,AAXX 12124 41963 02456 62802 10292 20260 39994 49997 82570 333 10330 59021 70350 82617 83458==
41963,2024,09,12,15,00,AAXX 12154 41963 01350 80000 10266 20266 30026 40029 79696 8432/ 333 59006 70630 82707 83614 88458 81928==
41963,2024,09,12,18,00,AAXX 12184 41963 NIL=
41963,2024,09,12,21,00,AAXX 12214 41963 01350 80000 10265 20265 30002 40005 70262 8472/ 333 59022 70660 82708 83614 88457==
41964,2024,09,06,00,00,AAXX 06004 41964 21350 80000 10265 20260 30035 40037 72996 8432/ 333 58004 60547 70581 83617 88458 81928==
41964,2024,09,06,03,00,AAXX 06034 41964 02457 70000 10285 20280 30035 40038 83510 333 20255 58000 70540 83618 86460==
41964,2024,09,06,06,00,AAXX 06064 41964 NIL=
41964,2024,09,06,12,00,AAXX 06124 41964 02356 80000 10310 20290 30001 40003 8562/ 333 10336 58010 70540 83709 83617 88459==
41964,2024,09,06,15,00,AAXX 06154 41964 02456 80000 10300 20280 30029 40032 8452/ 333 58010 70540 84618 88460==
41964,2024,09,07,03,00,AAXX 07034 41964 02/57 40000 10306 20270 30031 40033 83012 333 20244 59004 70960 83460==
41964,2024,09,07,09,00,AAXX 07094 41964 02457 40000 10315 20280 39999 40002 84500 333 58000 70960 84619==
41964,2024,09,07,12,00,AAXX 07124 41964 02457 60000 10306 20280 30008 40010 82512 333 10341 58007 70960 82618 83460 83080==
41964,2024,09,07,15,00,AAXX 07154 41964 01456 80000 10298 20270 30036 40039 71392 8532/ 333 58007 70960 85617 88459 81928==
41964,2024,09,07,18,00,AAXX 07184 41964 01456 80000 10298 20270 30056 40058 71392 8532/ 333 58007 70960 85617 88459 81928==
41964,2024,09,08,03,00,AAXX 08034 41964 02458 21403 10326 20280 30039 40041 82502 333 20268 58008 70000 82619==
41964,2024,09,08,09,00,AAXX 08094 41964 42458 21802 10330 20270 30005 40008 58006 82618==
41964,2024,09,08,12,00,AAXX 08124 41964 02457 40000 10307 20280 30002 40005 81512 333 10341 59006 70000 81618 83080==
41964,2024,09,08,15,00,AAXX 08154 41964 01456 51602 10290 20270 30028 40030 72122 83510 333 59008 70016 83618 83460==
41964,2024,09,08,18,00,AAXX 08184 41964 NIL=
41964,2024,09,09,00,00,AAXX 09004 41964 NIL=
41964,2024,09,09,03,00,AAXX 09034 41964 02457 51604 10317 20260 30030 40032 85400 333 20273 59009 70016 84619==
41964,2024,09,09,06,00,AAXX 09064 41964 02457 51604 10317 20260 30025 40027 84510 333 58010 70016 84619 84460==
41964,2024,09,09,09,00,AAXX 09094 41964 02457 61903 10328 20270 30012 40014 84510 333 58007 70016 84619 84460==
41964,2024,09,09,12,00,AAXX 09124 41964 02457 61802 10301 20270 30001 40003 83510 333 10336 59001 70000 83618 85460==
41964,2024,09,09,15,00,AAXX 09154 41964 02457 61901 10300 20270 30033 40035 83510 333 58015 70000 83618 85460==
41964,2024,09,09,18,00,AAXX 09184 41964 02457 61802 10300 20270 30017 40019 83510 333 59001 70000 83618 85460==
41964,2024,09,10,03,00,AAXX 10034 41964 02356 80000 10287 20280 30040 40042 8562/ 333 20255 58010 70220 83709 83617 88459==
41964,2024,09,10,06,00,AAXX 10064 41964 21456 80000 10318 20280 30032 40034 70262 8452/ 333 58007 60015 70230 84618 88460==
41964,2024,09,10,09,00,AAXX 10094 41964 02456 50000 10322 20270 30009 40012 83510 333 59003 70230 83618 84460==
41964,2024,09,10,12,00,AAXX 10124 41964 02456 70000 10299 20270 30004 40006 84510 333 10326 58003 70230 84618 86460==
41964,2024,09,10,15,00,AAXX 10154 41964 02450 70000 10300 20270 30032 40034 84510 333 59001 70230 84618 86460==
41964,2024,09,11,00,00,AAXX 11004 41964 NIL=
41964,2024,09,11,03,00,AAXX 11034 41964 02457 60000 10310 20280 30031 40033 84510 333 20259 59009 70090 84618 85460==
41964,2024,09,11,06,00,AAXX 11064 41964 NIL=
41964,2024,09,11,12,00,AAXX 11123 41964 02357 70000 10303 20280 30004 40006 84610 333 10331 58000 70008 82709 83618 85460==
41964,2024,09,11,18,00,AAXX 11184 41964 21450 80000 10288 20280 30032 40034 70266 8452/ 333 59001 60037 70120 84618 88460==
41964,2024,09,12,00,00,AAXX 12004 41964 NIL=
41964,2024,09,12,03,00,AAXX 12034 41964 02457 70000 10305 20280 30017 40020 85410 333 20268 59014 70110 84618 85460==
41964,2024,09,12,06,00,AAXX 12064 41964 NIL=
41964,2024,09,12,09,00,AAXX 12094 41964 02457 60000 10324 20280 39975 49978 83510 333 59028 70110 83618 86460==
41964,2024,09,12,12,00,AAXX 12124 41964 02356 80000 10309 20290 39974 49976 8562/ 333 10330 59030 70110 83709 83617 88459==
41964,2024,09,12,15,00,AAXX 12154 41964 01325 82302 10257 20257 39998 40000 79596 8692/ 333 59036 70530 85707 85616 88457 81928==
41964,2024,09,12,18,00,AAXX 12184 41964 21330 80000 10259 20259 39992 49994 76196 8632/ 333 59040 60519 70590 85707 84615 88457 81928==
41964,2024,09,12,21,00,AAXX 12214 41964 01356 80000 10260 20260 39979 49981 72166 8672/ 333 59042 70652 84707 85615 88458==
41965,2024,09,06,00,00,AAXX 06004 41965 11440 60000 10255 20240 30032 40041 60056 70262 84610 333 58003 70050 83618 84460==
41965,2024,09,06,03,00,AAXX 06034 41965 02450 50000 10302 20240 30036 40045 84610 333 20253 59001 70050 83618 84460==
41965,2024,09,06,06,00,AAXX 06064 41965 02456 50000 10338 20240 30020 40029 84610 333 59010 70050 83618 84460==
41965,2024,09,06,09,00,AAXX 06094 41965 02456 62202 10330 20260 39998 40007 84610 333 59001 70050 83618 84460==
41965,2024,09,06,12,00,AAXX 06124 41965 02450 71402 10310 20260 30001 40010 84610 333 10348 58012 70050 83618 86460==
41965,2024,09,06,21,00,AAXX 06214 41965 02430 81402 10265 20250 30026 40035 84610 333 59010 70000 83618 84460==
41965,2024,09,07,00,00,AAXX 07004 41965 02440 50000 10263 20230 30025 40034 84610 333 59007 70000 83618 84460==
41965,2024,09,07,03,00,AAXX 07034 41965 02450 50502 10320 20230 30033 40042 84610 333 20260 59003 70000 83618 84460==
41965,2024,09,07,06,00,AAXX 07064 41965 02456 52202 10337 20250 30020 40029 84610 333 58000 70000 83618 84460==
41965,2024,09,07,09,00,AAXX 07094 41965 02456 32302 10335 20260 39997 40006 83600 333 59001 70000 83618==
41965,2024,09,07,12,00,AAXX 07124 41965 02440 52802 10305 20260 30003 40012 84610 333 10345 58002 70000 83618 84460==
41965,2024,09,07,15,00,AAXX 07154 41965 02430 82603 10285 20260 30040 40049 8461/ 333 58019 70000 83618 88460==
41965,2024,09,07,18,00,AAXX 07184 41965 NIL=
41965,2024,09,08,00,00,AAXX 08004 41965 02430 81402 10280 20250 30043 40052 8461/ 333 58019 70000 83618 88460==
41965,2024,09,08,03,00,AAXX 08034 41965 02450 32302 10325 20240 30041 40050 83600 333 20265 58008 70000 83618==
41965,2024,09,08,06,00,AAXX 08064 41965 02456 31802 10335 20260 30028 40037 83600 333 58008 70000 83618==
41965,2024,09,08,09,00,AAXX 08094 41965 02456 31403 10334 20250 30004 40013 83600 333 58006 70000 83618==
41965,2024,09,08,12,00,AAXX 08124 41965 21450 60000 10288 20260 30002 40011 70296 84310 333 10345 59015 60075 70070 83618 84460==
41965,2024,09,08,15,00,AAXX 08154 41965 02440 80000 10281 20270 30032 40041 8431/ 333 59008 70000 83618 88460==
41965,2024,09,08,18,00,AAXX 08184 41965 NIL=
41965,2024,09,08,21,00,AAXX 08214 41965 02430 60000 10275 20260 30035 40044 84310 333 59010 70070 83618 84460==
41965,2024,09,09,00,00,AAXX 09004 41965 02440 60000 10280 20240 30026 40035 84310 333 59007 70070 83618 84460==
41965,2024,09,09,03,00,AAXX 09034 41965 02450 51402 10322 20250 30033 40042 84310 333 20270 59008 70070 83618 84460==
41965,2024,09,09,06,00,AAXX 09064 41965 02456 31302 10325 20240 30029 40038 83600 333 58001 70070 83618==
41965,2024,09,09,09,00,AAXX 09094 41965 02456 32303 10333 20260 39998 40007 83600 333 59006 70070 83618==
41965,2024,09,09,12,00,AAXX 09124 41965 02450 52202 10300 20240 30004 40013 84610 333 10340 58002 70000 83618 84460==
41965,2024,09,09,15,00,AAXX 09154 41965 02440 51402 10280 20250 30025 40034 84610 333 59007 70000 83618 84460==
41965,2024,09,10,00,00,AAXX 10004 41965 21440 61402 10270 20240 30020 40029 70262 84610 333 59006 60035 70030 83618 84460==
41965,2024,09,10,03,00,AAXX 10034 41965 02450 61002 10320 20240 30041 40050 84610 333 20265 58008 70030 83618 84460==
41965,2024,09,10,06,00,AAXX 10064 41965 02456 62602 10310 20250 30028 40037 84610 333 59001 70030 83618 84460==
41965,2024,09,10,09,00,AAXX 10094 41965 02456 61403 10320 20250 30002 40011 84610 333 59004 70030 83618 84460==
41965,2024,09,10,12,00,AAXX 10124 41965 02450 61702 10294 20250 30006 40015 84610 333 10335 58002 70030 83618 84460==
41965,2024,09,10,15,00,AAXX 10154 41965 02440 80000 10283 20260 30032 40041 8461/ 333 58007 70030 83618 88460==
41965,2024,09,11,00,00,AAXX 11004 41965 NIL=
41965,2024,09,11,03,00,AAXX 11034 41965 02450 61802 10305 20250 30036 40045 84610 333 20270 59005 70020 83618 84460==
41965,2024,09,11,06,00,AAXX 11064 41965 02450 61402 10320 20220 30025 40034 84610 333 59003 70020 83618 84460==
41965,2024,09,11,09,00,AAXX 11094 41965 02456 52202 10317 20260 39994 40003 84610 333 59008 70020 83618 84460==
41965,2024,09,11,12,00,AAXX 11123 41965 02440 81701 10297 20260 30008 40017 8461/ 333 10330 58002 70020 83618 88460==
41965,2024,09,11,15,00,AAXX 11154 41965 01430 82601 10282 20270 30027 40036 79596 8461/ 333 59005 70070 81710 83618 88460==
41965,2024,09,12,00,00,AAXX 12004 41965 02440 50000 10272 20250 30005 40014 84310 333 59023 70150 83618 84460==
41965,2024,09,12,03,00,AAXX 12034 41965 02450 60000 10300 20250 30020 40029 84310 333 20266 59016 70150 83618 84460==
41965,2024,09,12,06,00,AAXX 12064 41965 02450 80000 10310 20260 30004 40013 8431/ 333 59021 70150 83618 88460==
41965,2024,09,12,09,00,AAXX 12094 41965 02456 51402 10335 20260 30002 40011 84610 333 58008 70150 83618 84460==
41965,2024,09,12,12,00,AAXX 12124 41965 02440 50000 10310 20260 30006 40015 84610 333 10335 59002 70150 83618 84460==
41965,2024,09,12,15,00,AAXX 12154 41965 02430 80000 10265 20240 30001 40010 8431/ 333 59026 70200 83618 88460==
41965,2024,09,12,18,00,AAXX 12184 41965 NIL=
41965,2024,09,12,21,00,AAXX 12214 41965 02430 81002 10260 20230 30005 40014 8431/ 333 59025 70150 83618 88460==
41966,2024,09,06,00,00,AAXX 06004 41966 02440 51501 10265 20260 39970 40049 82510 333 59003 70000 82616 84460==
41966,2024,09,06,03,00,AAXX 06034 41966 02550 41401 10310 20260 39970 40048 82130 333 20254 59007 70000 82826 83362==
41966,2024,09,06,06,00,AAXX 06064 41966 02550 41501 10340 20240 39952 40029 82130 333 59019 70000 82826 83362==
41966,2024,09,06,09,00,AAXX 06094 41966 02550 41301 10335 20260 39939 40015 82130 333 59001 70000 82826 83362==
41966,2024,09,06,12,00,AAXX 06124 41966 01330 81402 10275 20260 39945 40027 76122 8272/ 333 10345 58021 70010 82709 83616 88460==
41966,2024,09,06,21,00,AAXX 06214 41966 02420 61201 10265 20260 39953 40032 83510 333 58002 70030 83616 85460==
41966,2024,09,07,00,00,AAXX 07004 41966 02440 61201 10262 20250 39963 40042 83510 333 59007 70030 83616 85460==
41966,2024,09,07,03,00,AAXX 07034 41966 02/50 62501 10310 20270 39953 40031 83010 333 20252 59017 70030 83616 85460==
41966,2024,09,07,06,00,AAXX 07064 41966 02450 61501 10320 20240 39958 40035 83510 333 58006 70030 83616 85460==
41966,2024,09,07,09,00,AAXX 07094 41966 02450 40901 10348 20230 39931 40007 82510 333 59008 70030 82616 83460==
41966,2024,09,07,12,00,AAXX 07124 41966 01430 71201 10300 20270 39950 40028 72122 83510 333 10350 58001 70010 83616 86460==
41966,2024,09,07,15,00,AAXX 07154 41966 02420 71201 10285 20270 39953 40031 83510 333 58001 70010 83616 86460==
41966,2024,09,07,18,00,AAXX 07184 41966 NIL=
41966,2024,09,07,21,00,AAXX 07214 41966 02420 51601 10275 20270 39956 40034 82510 333 58002 70010 82616 84460==
41966,2024,09,08,00,00,AAXX 08004 41966 02440 51501 10270 20260 39966 40045 82510 333 58003 70010 82616 84460==
41966,2024,09,08,03,00,AAXX 08034 41966 02550 41201 10320 20230 39978 40056 82130 333 20260 58025 70010 82826 83362==
41966,2024,09,08,06,00,AAXX 08064 41966 02550 41801 10338 20230 39965 40041 82130 333 58006 70010 82826 83362==
41966,2024,09,08,09,00,AAXX 08094 41966 02450 62101 10342 20230 39938 40015 82510 333 58008 70010 82616 84460==
41966,2024,09,08,12,00,AAXX 08124 41966 21440 61802 10285 20270 39948 40026 70262 83510 333 10350 59002 60057 70046 83616 85460==
41966,2024,09,08,15,00,AAXX 08154 41966 02430 61201 10280 20260 39954 40032 83510 333 58001 70046 83616 85460==
41966,2024,09,08,18,00,AAXX 08184 41966 NIL=
41966,2024,09,08,21,00,AAXX 08214 41966 02420 61201 10275 20270 39953 40032 83510 333 59002 70056 83616 85460==
41966,2024,09,09,00,00,AAXX 09004 41966 02440 61201 10270 20260 39954 40032 83510 333 59013 70056 83616 85460==
41966,2024,09,09,03,00,AAXX 09034 41966 02450 41501 10310 20250 39974 40051 82530 333 20265 59005 70056 82616 83362==
41966,2024,09,09,06,00,AAXX 09064 41966 02450 51801 10332 20260 39961 40038 82410 333 59003 70056 82616 84460==
41966,2024,09,09,09,00,AAXX 09094 41966 02450 62501 10310 20270 39934 40012 83510 333 59003 70056 83616 85460==
41966,2024,09,09,12,00,AAXX 09124 41966 02430 61801 10296 20280 39944 40022 83510 333 10345 59004 70010 83616 85460==
41966,2024,09,09,15,00,AAXX 09154 41966 02430 61801 10280 20270 39965 40043 83510 333 58011 70010 83616 85460==
41966,2024,09,09,18,00,AAXX 09184 41966 02430 61801 10270 20260 39960 40038 83510 333 58005 70000 83616 85460==
41966,2024,09,10,00,00,AAXX 10004 41966 02440 51201 10265 20260 39953 40032 82510 333 58000 70000 82616 84460==
41966,2024,09,10,03,00,AAXX 10034 41966 02550 41501 10312 20250 39982 40060 82130 333 20260 58009 70000 82826 83362==
41966,2024,09,10,06,00,AAXX 10064 41966 02550 61901 10320 20250 39984 40062 82130 333 58024 70000 82826 85362==
41966,2024,09,10,09,00,AAXX 10094 41966 02450 60901 10320 20270 39939 40016 82510 333 58004 70000 82616 85362==
41966,2024,09,10,12,00,AAXX 10124 41966 02440 51201 10285 20250 39946 40024 82510 333 10325 58002 70000 82616 84460==
41966,2024,09,10,15,00,AAXX 10154 41966 02430 51501 10280 20250 39965 40043 82510 333 58000 70000 82616 84460==
41966,2024,09,10,18,00,AAXX 10184 41966 02420 51201 10275 20260 39969 40047 82510 333 58009 70000 82616 84460==
41966,2024,09,10,21,00,AAXX 10214 41966 02420 61301 10275 20260 39959 40037 83510 333 58004 70000 83616 85460==
41966,2024,09,11,00,00,AAXX 11004 41966 02420 51201 10275 20260 39969 40047 82510 333 58009 70000 82616 84460==
41966,2024,09,11,03,00,AAXX 11034 41966 02450 41201 10305 20260 39974 40051 82510 333 20260 59009 70000 82616 83460==
41966,2024,09,11,06,00,AAXX 11064 41966 02450 41201 10330 20220 39953 40030 82510 333 59032 70000 82616 83460==
41966,2024,09,11,09,00,AAXX 11094 41966 02450 51501 10318 20250 39951 40028 82510 333 58012 70000 82616 84460==
41966,2024,09,11,12,00,AAXX 11123 41966 01330 81601 10280 20260 39951 40029 76122 8472/ 333 10335 58005 70020 82709 83615 88460==
41966,2024,09,11,15,00,AAXX 11154 41966 01420 71201 10275 20260 39970 40048 70166 83510 333 58005 70040 83616 86460==
41966,2024,09,11,21,00,AAXX 11214 41966 02420 61501 10268 20260 39953 40032 83510 333 59005 70100 83616 85460==
41966,2024,09,12,00,00,AAXX 12004 41966 02440 60901 10260 20250 39941 40020 83510 333 59022 70100 83616 85460==
41966,2024,09,12,06,00,AAXX 12064 41966 02450 70901 10323 20230 39938 40015 83510 333 59015 70100 83616 86460==
41966,2024,09,12,09,00,AAXX 12094 41966 02450 52801 10332 20240 39905 49981 81510 333 70110 81616 84460==
41966,2024,09,12,12,00,AAXX 12124 41966 02430 51801 10315 20260 39908 49985 82510 333 10335 59044 70080 82616 84460==
41966,2024,09,12,15,00,AAXX 12154 41966 01420 71302 10270 20250 39936 40014 72166 83510 333 59034 70450 83615 86460==
41966,2024,09,12,18,00,AAXX 12184 41966 NIL=
41977,2024,09,06,00,00,AAXX 06004 41977 21445 80000 10256 20256 30016 40054 79605 8462/ 333 59001 60869 70852 83616 82709 88458==
41977,2024,09,06,03,00,AAXX 06034 41977 02456 70000 10293 20260 30021 40058 84510 333 20244 59005 70862 84618 86460==
41977,2024,09,06,06,00,AAXX 06064 41977 02456 60000 10325 20290 30006 40043 84510 333 59011 70862 84618 86460==
41977,2024,09,06,09,00,AAXX 06094 41977 41456 62303 10316 20280 39981 40018 59003 70862 84510==
41977,2024,09,06,12,00,AAXX 06124 41977 02456 82303 10322 20250 39989 40026 8572/ 333 10334 58014 70862 85708 86418 88459==
41977,2024,09,06,15,00,AAXX 06154 41977 01440 71303 10288 20280 30011 40048 75122 84570 333 58006 70862 84615 85459==
41977,2024,09,06,18,00,AAXX 06184 41977 21440 70000 10282 20270 30024 40061 70252 84570 333 58012 60005 70862 84615 85460==
41977,2024,09,06,21,00,AAXX 06214 41977 01440 72502 10274 20260 30011 40049 71322 85370 333 58008 70330 84615 85460 81928==
41977,2024,09,07,00,00,AAXX 07004 41977 01350 80000 10268 20268 30013 40050 72196 8672/ 333 59003 70010 82708 85615 88458==
41977,2024,09,07,03,00,AAXX 07034 41977 02456 50000 10321 20270 30019 40057 83501 333 20266 59002 70010 83618 85080==
41977,2024,09,07,06,00,AAXX 07064 41977 02456 60000 10330 20280 30007 40044 83510 333 59014 70010 83618 86460==
41977,2024,09,07,09,00,AAXX 07094 41977 02456 53102 10325 20280 39987 40024 82530 333 58006 70010 82618 85363==
41977,2024,09,07,12,00,AAXX 07124 41977 02450 81802 10315 20280 39995 40032 8452/ 333 10340 58006 70010 84616 88460==
41977,2024,09,07,15,00,AAXX 07154 41977 01340 81303 10284 20270 30027 40065 76162 8672/ 333 58016 70030 82708 84615 88458==
41977,2024,09,07,18,00,AAXX 07184 41977 21440 30000 10280 20270 30030 40068 70162 81530 333 58006 60028 70030 81618 83362==
41977,2024,09,07,21,00,AAXX 07214 41977 02440 20000 10274 20260 30015 40053 82500 333 58004 70030 82618==
41977,2024,09,08,00,00,AAXX 08004 41977 02450 30000 10272 20260 30019 40057 82530 333 58006 70020 82618 83362==
41977,2024,09,08,03,00,AAXX 08034 41977 02456 41304 10324 20260 30030 40067 82501 333 20267 58011 70020 82618 84080==
41977,2024,09,08,06,00,AAXX 08064 41977 02456 41803 10344 20260 30013 40050 84400 333 58006 70020 84616==
41977,2024,09,08,09,00,AAXX 08094 41977 02456 41802 10323 20270 39996 40033 82501 333 58009 70020 82618 84080==
41977,2024,09,08,12,00,AAXX 08124 41977 02450 40000 10312 20260 30002 40039 82501 333 10348 58007 70020 82618 84080==
41977,2024,09,08,15,00,AAXX 08154 41977 02456 30000 10298 20270 30019 40056 83500 333 59008 70000 83618==
41977,2024,09,08,18,00,AAXX 08184 41977 02956 00902 10285 20270 30011 40048 333 59019 70000==
41977,2024,09,08,21,00,AAXX 08214 41977 02456 40000 10276 20260 39998 40036 84500 333 59017 70000 84618==
41977,2024,09,09,00,00,AAXX 09004 41977 NIL=
41977,2024,09,09,03,00,AAXX 09034 41977 02456 41802 10315 20270 30019 40056 82531 333 20275 59011 70000 82617 83363 83080==
41977,2024,09,09,06,00,AAXX 09064 41977 02456 61804 10327 20270 30010 40047 83531 333 59003 70000 83617 84363 85080==
41977,2024,09,09,09,00,AAXX 09094 41977 02456 61202 10320 20270 39986 40023 83531 333 59010 70000 83617 84363 85080==
41977,2024,09,09,12,00,AAXX 09124 41977 02456 41801 10310 20260 39987 40024 82531 333 10338 59015 70000 82617 83363 83080==
41977,2024,09,09,15,00,AAXX 09154 41977 02450 41802 10292 20270 30014 40051 333 59005 70000 82618 83362==
41977,2024,09,09,18,00,AAXX 09184 41977 02450 42104 10286 20270 30010 40047 82530 333 59001 70000 82618 83362==
41977,2024,09,10,00,00,AAXX 10004 41977 02450 71803 10274 20260 30008 40046 84531 333 58003 70000 84618 86362==
41977,2024,09,10,03,00,AAXX 10034 41977 02456 61102 10314 20260 30029 40067 83530 333 20268 58010 70000 83618 86362==
41977,2024,09,10,06,00,AAXX 10064 41977 02456 61802 10323 20260 30014 40051 83410 333 58004 70000 82618 86460==
41977,2024,09,10,09,00,AAXX 10094 41977 02456 61802 10320 20270 39998 40035 83510 333 58012 70000 83618 85460==
41977,2024,09,10,12,00,AAXX 10124 41977 02450 61802 10304 20260 30008 40045 83530 333 10336 58021 70000 83618 86362==
41977,2024,09,10,15,00,AAXX 10154 41977 02456 70000 10292 20280 30022 40059 82530 333 58008 70000 82618 87363==
41977,2024,09,10,18,00,AAXX 10184 41977 01356 70000 10285 20280 30020 40057 72162 85610 333 58010 70000 82710 85616 87459==
41977,2024,09,10,21,00,AAXX 10214 41977 42356 80000 10280 20270 30018 40055 8562/ 333 58013 81710 85616 88458==
41977,2024,09,11,00,00,AAXX 11004 41977 42456 70000 10275 20270 30014 40051 84570 333 58006 84618 85459==
41977,2024,09,11,03,00,AAXX 11034 41977 42456 70000 10308 20270 30024 40061 83531 333 20268 59005 83618 86362==
41977,2024,09,11,06,00,AAXX 11064 41977 42456 72104 10314 20260 30012 40049 84570 333 59002 84618 85460==
41977,2024,09,11,09,00,AAXX 11094 41977 41456 52304 10314 20270 39984 40021 59014 70030 85362==
41977,2024,09,11,12,00,AAXX 11123 41977 01450 70000 10300 20270 30001 40038 70362 84570 333 10326 59007 70030 84618 85459==
41977,2024,09,11,15,00,AAXX 11154 41977 02456 70000 10280 20270 30012 40049 84510 333 59010 70030 84618 87460==
41977,2024,09,11,18,00,AAXX 11184 41977 02450 80000 10273 20260 30006 40043 8562/ 333 59014 70010 82710 84616 88458==
41977,2024,09,12,00,00,AAXX 12004 41977 21456 80000 10269 20260 39995 40029 70262 8452/ 333 59019 60098 70132 84618 88460==
41977,2024,09,12,03,00,AAXX 12034 41977 02356 80000 10298 20270 30004 40042 8562/ 333 20263 59020 70132 81710 85616 88458==
41977,2024,09,12,06,00,AAXX 12064 41977 02356 80000 10317 20270 39996 40034 8562/ 333 59016 70132 81710 85616 88458==
41977,2024,09,12,09,00,AAXX 12094 41977 01456 72602 10322 20270 39959 49997 70162 84510 333 59025 70129 84617 87460==
41977,2024,09,12,12,00,AAXX 12124 41977 11456 72303 10310 20290 39957 49995 60006 70262 84510 333 10330 59044 70102 84617 87460==
41977,2024,09,12,15,00,AAXX 12154 41977 01330 80000 10262 20260 39980 40018 76196 8732/ 333 59032 70334 83708 84614 88458 81928==
41977,2024,09,12,18,00,AAXX 12184 41977 21440 80000 10264 20250 39979 40017 70296 8452/ 333 59027 60248 70328 84615 88458==
41977,2024,09,12,21,00,AAXX 12214 41977 02440 80000 10262 20250 39947 49984 8452/ 333 59048 70238 84615 88458==
41978,2024,09,06,00,00,AAXX 06004 41978 21450 80208 10257 20250 30032 40039 72166 8432/ 333 58002 60559 70568 84612 88459 81925==
41978,2024,09,06,03,00,AAXX 06034 41978 02458 70306 10296 20260 30040 40046 84320 333 20252 59010 70568 83616 87460 81930==
41978,2024,09,06,06,00,AAXX 06064 41978 02459 62204 10307 20270 39994 40000 82301 333 10337 59015 70000 82618 85080 81930==
41978,2024,09,06,09,00,AAXX 06094 41978 02458 62607 10327 20270 30003 40009 82301 333 58001 70568 82618 85080 81930==
41978,2024,09,06,12,00,AAXX 06124 41978 02458 62105 10311 20270 30004 40010 82301 333 10330 58010 70568 82617 85080 81930==
41978,2024,09,06,15,00,AAXX 06154 41978 02457 61103 10294 20270 30027 40033 84330 333 58006 70568 83617 85362 81930==
41978,2024,09,06,18,00,AAXX 06184 41978 02457 70703 10284 20270 30041 40047 84320 333 58010 70552 83617 86460 81930==
41978,2024,09,06,21,00,AAXX 06214 41978 02457 82205 10278 20270 30033 40039 8432/ 333 58005 70102 83615 88459 81925==
41978,2024,09,07,00,00,AAXX 07004 41978 01456 80000 10271 20260 30028 40034 76162 8432/ 333 59004 70070 83615 88459 81928==
41978,2024,09,07,03,00,AAXX 07034 41978 02458 50506 10304 20260 30036 40042 82502 333 20267 59604 70070 82618 84080==
41978,2024,09,07,06,00,AAXX 07064 41978 02458 62007 10324 20250 30026 40032 83530 333 58001 70070 83618 86360==
41978,2024,09,07,09,00,AAXX 07094 41978 02458 62510 10327 20260 30001 40007 84310 333 59002 70070 83618 85360 81930==
41978,2024,09,07,12,00,AAXX 07124 41978 01457 71706 10312 20270 30015 40021 76162 84320 333 10338 58011 70001 83616 87460 81928==
41978,2024,09,07,15,00,AAXX 07154 41978 01456 81006 10282 20270 30043 40050 76196 8432/ 333 58016 70091 83616 88460 81928==
41978,2024,09,07,18,00,AAXX 07184 41978 01457 70304 10284 20270 30044 40051 70196 84320 333 58003 70101 83616 87460 81930==
41978,2024,09,07,21,00,AAXX 07214 41978 02458 60304 10274 20260 30033 40040 84310 333 58000 70101 83618 85360 81930==
41978,2024,09,08,00,00,AAXX 08004 41978 02456 60504 10273 20260 30033 40040 84310 333 58005 70031 83615 85360 81930==
41978,2024,09,08,03,00,AAXX 08034 41978 02459 41006 10317 20270 30046 40052 82501 333 20272 58010 70031 82618 83080==
41978,2024,09,08,06,00,AAXX 08064 41978 02559 31604 10328 20270 30033 40039 83130 333 58007 70031 83828==
41978,2024,09,08,09,00,AAXX 08094 41978 02459 62312 10324 20260 30008 40014 83530 333 58007 70031 83618 86362==
41978,2024,09,08,12,00,AAXX 08124 41978 02459 61906 10312 20260 30008 40014 83530 333 10341 59007 70031 83618 86360==
41978,2024,09,08,15,00,AAXX 08154 41978 02459 41304 10300 20260 30034 40040 82330 333 59009 70010 82618 83362 81930==
41978,2024,09,08,18,00,AAXX 08184 41978 02459 31207 10287 20270 30028 40034 81530 333 59016 70000 81618 83362==
41978,2024,09,08,21,00,AAXX 08214 41978 02459 61204 10280 20260 30024 40030 83520 333 59009 70000 83617 83360==
41978,2024,09,09,00,00,AAXX 09004 41978 21458 60804 10275 20270 30021 40027 70262 83520 333 59012 60035 70025 83617 85460==
41978,2024,09,09,03,00,AAXX 09034 41978 02458 61509 10312 20250 30038 40044 81531 333 20270 59008 70025 81618 83362 85080==
41978,2024,09,09,06,00,AAXX 09064 41978 02458 62110 10323 20260 30030 40036 83420 333 59003 70025 81617 83828 85460==
41978,2024,09,09,09,00,AAXX 09094 41978 02458 61906 10328 20260 30004 40010 84320 333 59004 70025 83618 85460 81930==
41978,2024,09,09,12,00,AAXX 09124 41978 02558 61908 10311 20260 30005 40011 82130 333 10338 59003 70025 82828 85360==
41978,2024,09,09,15,00,AAXX 09154 41978 02458 51205 10293 20270 30028 40035 82530 333 59006 70025 82618 84360==
41978,2024,09,09,18,00,AAXX 09184 41978 02458 51406 10289 20270 30026 40033 82530 333 59002 70025 82618 84360==
41978,2024,09,09,21,00,AAXX 09214 41978 02450 61306 10286 20270 30022 40028 83530 333 59002 70025 83618 85360==
41978,2024,09,10,00,00,AAXX 10004 41978 21457 81206 10278 20272 30022 40029 70362 8432/ 333 58001 60015 70010 83617 88460==
41978,2024,09,10,03,00,AAXX 10034 41978 02457 61605 10310 20260 30045 40051 83530 333 20271 58007 70010 83617 85360==
41978,2024,09,10,06,00,AAXX 10064 41978 02457 71610 10333 20260 30032 40038 84320 333 58002 70010 83618 87460 81930==
41978,2024,09,10,09,00,AAXX 10094 41978 02458 61706 10317 20270 30008 40014 84320 333 58004 70010 83617 85460 81930==
41978,2024,09,10,12,00,AAXX 10124 41978 02458 61807 10304 20260 30011 40017 83420 333 10337 58006 70010 83617 85460==
41978,2024,09,10,15,00,AAXX 10154 41978 02458 61405 10292 20270 30039 40045 83420 333 58011 70010 83617 85460==
41978,2024,09,10,18,00,AAXX 10184 41978 02458 61104 10287 20270 30036 40042 83420 333 58010 70010 83617 85460==
41978,2024,09,10,21,00,AAXX 10214 41978 02458 81104 10280 20270 30032 40038 8432/ 333 58010 70010 84616 88460 81930==
41978,2024,09,11,00,00,AAXX 11004 41978 21458 80302 10273 20260 30028 40034 72122 8432/ 333 58006 60015 70014 83617 88460 81930==
41978,2024,09,11,03,00,AAXX 11034 41978 02458 61705 10298 20270 30040 40046 84371 333 20268 59005 70014 83615 85362 81928==
41978,2024,09,11,06,00,AAXX 11064 41978 02458 52107 10322 20270 30028 40035 83831 333 59004 70014 83618 83080==
41978,2024,09,11,09,00,AAXX 11094 41978 02458 72108 10320 20270 30003 40009 84320 333 59005 70014 83617 87460 81928==
41978,2024,09,11,12,00,AAXX 11124 41978 02458 71608 10298 20260 30015 40021 84320 333 10330 58004 70014 83617 87460 81928==
41978,2024,09,11,15,00,AAXX 11154 41978 01458 71103 10284 20260 30029 40035 70262 84320 333 59010 70020 83616 87460 81928==
41978,2024,09,11,18,00,AAXX 11184 41978 01457 81203 10274 20260 30022 40029 76162 8432/ 333 59014 70030 83615 88458 81928==
41978,2024,09,11,21,00,AAXX 11214 41978 01457 71303 10270 20260 30011 40017 70162 84320 333 59021 70044 83616 87460 81928==
41978,2024,09,12,00,00,AAXX 12004 41978 11457 60000 10269 20260 30009 40015 60016 70162 84320 333 59019 70030 83617 85460 81930==
41978,2024,09,12,03,00,AAXX 12034 41978 02558 60904 10302 20270 30021 40028 83332 333 20266 59019 70030 82620 85080 81928==
41978,2024,09,12,06,00,AAXX 12064 41978 02458 73006 10308 20270 30003 40009 84871 333 59025 70030 82615 83820 86362==
41978,2024,09,12,09,00,AAXX 12094 41978 01458 83208 10301 20270 39974 49980 76162 8432/ 333 59029 70063 83615 88460 81928==
41978,2024,09,12,12,00,AAXX 12124 41978 21457 72808 10308 20280 39975 49981 70162 83530 333 10325 59040 60048 70070 83615 86360==
41978,2024,09,12,15,00,AAXX 12154 41978 01335 80410 10262 20250 39995 40002 79596 8492/ 333 59034 70624 83710 88458 81925==
41978,2024,09,12,18,00,AAXX 12184 41978 21357 80708 10264 20250 39990 49997 70296 8492/ 333 59032 60599 70644 83710 88458 81925==
41978,2024,09,12,21,00,AAXX 12214 41978 02456 80608 10264 20250 39968 49975 8432/ 333 59043 70630 83614 88459 81928==
41980,2024,09,06,00,00,AAXX 06004 41980 11340 81803 10251 20250 39920 40032 60125 70362 8462/ 333 56499 59011 70120 81710 83617 88457=
41980,2024,09,06,06,00,AAXX 06064 41980 NIL=
41980,2024,09,06,12,00,AAXX 06124 41980 11450 60000 10262 20250 39908 40020 60054 70392 83510 333 10340 56990 58004 70170 83617 83458=
41980,2024,09,06,21,00,AAXX 06214 41980 32456 50000 10298 20260 39936 40047 82510 333 20264 56990 59018 70000 83617 83458=
41980,2024,09,07,00,00,AAXX 07004 41980 11340 80000 10260 20260 39932 40044 60075 70362 8352/ 333 56999 58012 70120 81708 83617 88458=
41980,2024,09,07,12,00,AAXX 07124 41980 11340 80000 10266 20260 39916 40027 60254 70362 8462/ 333 10342 56990 58008 70320 81708 83617 88456=
41980,2024,09,07,18,00,AAXX 07184 41980 NIL=
41980,2024,09,08,00,00,AAXX 08004 41980 11450 40000 10256 20260 39935 40047 60036 70162 83510 333 56990 58003 70280 82617=
41980,2024,09,08,12,00,AAXX 08124 41980 32450 60000 10280 20260 39916 40027 83510 333 10343 56990 58000 70290 83617 83458=
41980,2024,09,08,18,00,AAXX 08184 41980 NIL=
41980,2024,09,09,00,00,AAXX 09004 41980 32950 30000 10270 20240 39925 40036 83030 333 56090 59010 70350 83362=
41980,2024,09,09,06,00,AAXX 09064 41980 NIL=
41980,2024,09,09,12,00,AAXX 09124 41980 32450 71802 10286 20260 39908 40018 83520 333 10322 56990 59008 70060 83616 87459=
41980,2024,09,10,00,00,AAXX 10004 41980 32450 71802 10268 20240 39925 40036 83520 333 56990 58000 70000 83616 87459=
41980,2024,09,10,06,00,AAXX 10064 41980 NIL=
41980,2024,09,10,12,00,AAXX 10124 41980 32450 50000 10284 20250 39909 40019 83520 333 10326 56990 58001 70000 83616 85459=
41980,2024,09,11,00,00,AAXX 11004 41980 31450 73602 10262 20250 39932 40044 70522 83520 333 56990 58007 70000 83616 87459=
41980,2024,09,11,06,00,AAXX 11064 41980 NIL=
41980,2024,09,11,12,00,AAXX 11123 41980 11340 80000 10266 20260 39917 40028 60083 76196 8662/ 333 10316 56999 58009 70080 83709 84614 88456=
41980,2024,09,12,00,00,AAXX 12004 41980 11450 60000 10256 20250 39906 40017 60128 70162 83520 333 56990 59026 70230 83616 86459=
41980,2024,09,12,06,00,AAXX 12064 41980 NIL=
41980,2024,09,12,12,00,AAXX 12124 41980 11330 81802 10278 20270 39866 49978 60024 79122 8632/ 333 10318 56399 59049 70170 83709 84614 81928 88456=
41980,2024,09,12,18,00,AAXX 12184 41980 NIL=
41984,2024,09,06,03,00,AAXX 06034 41984 02450 80000 10288 20270 30028 40030 8352/ 333 20271 58003 70000 83618 88458==
41984,2024,09,06,06,00,AAXX 06064 41984 NIL=
41984,2024,09,06,09,00,AAXX 06094 41984 02456 50000 10342 20260 39996 49998 83510 333 59006 70000 83618 85458==
41984,2024,09,06,12,00,AAXX 06124 41984 02450 20000 10307 20270 39990 49992 82500 333 10348 58003 70000 82618==
41984,2024,09,06,21,00,AAXX 06214 41984 32457 60000 10336 20280 30028 40030 83510 333 56990 59005 70000 83618 85458=
41984,2024,09,07,06,00,AAXX 07064 41984 02456 60000 10324 20270 30020 40022 83510 333 59003 70010 83618 85458==
41984,2024,09,07,09,00,AAXX 07094 41984 02457 21304 10341 20260 39999 40001 82500 333 58003 70010 82618==
41984,2024,09,07,12,00,AAXX 07124 41984 02456 20000 10303 20260 30000 40002 81531 333 10349 58010 70010 81618==
41984,2024,09,07,18,00,AAXX 07184 41984 NIL=
41984,2024,09,08,00,00,AAXX 08004 41984 01345 70000 10268 20268 30014 40016 72121 85610 333 59004 70070 81708 84617 86458==
41984,2024,09,08,06,00,AAXX 08064 41984 01456 61302 10315 20290 30022 40024 72165 85410 333 58002 70020 84618 85458==
41984,2024,09,08,09,00,AAXX 08094 41984 02457 31302 10321 20270 39997 49999 83500 333 58001 70100 83618==
41984,2024,09,08,18,00,AAXX 08184 41984 NIL=
41984,2024,09,09,00,00,AAXX 09004 41984 01345 71802 10281 20260 39998 40000 72162 85620 333 59016 70060 81708 84618 86458==
41984,2024,09,09,03,00,AAXX 09034 41984 01450 61802 10295 20280 30013 40015 76152 84510 333 20260 59014 70162 84618 85458==
41984,2024,09,09,06,00,AAXX 09064 41984 01456 71302 10284 20260 30013 40015 72165 84520 333 59009 70226 84618 86458==
41984,2024,09,09,09,00,AAXX 09094 41984 02457 41802 10322 20270 39991 49993 84400 333 59006 70226 86318==
41984,2024,09,09,12,00,AAXX 09124 41984 02456 40000 10300 20270 39986 49989 83431 333 10331 59003 70226 82618==
41984,2024,09,09,18,00,AAXX 09184 41984 02440 60000 10288 20270 30003 40005 83510 333 59006 70178 83618 85458==
41984,2024,09,09,21,00,AAXX 09214 41984 02440 60000 10280 20270 39997 49999 83510 333 59010 70158 83618 85458==
41984,2024,09,10,00,00,AAXX 10004 41984 01445 50000 10278 20270 39993 49995 72162 84410 333 59005 70020 83618 84458==
41984,2024,09,10,03,00,AAXX 10034 41984 02450 71801 10305 20280 30021 40023 84520 333 20270 58008 70104 84618 87458==
41984,2024,09,10,06,00,AAXX 10064 41984 02456 61801 10325 20280 30016 40018 84410 333 58003 70020 83618 84458==
41984,2024,09,10,09,00,AAXX 10094 41984 02456 71302 10316 20270 39994 49996 85420 333 58003 70020 84618 84758==
41984,2024,09,11,00,00,AAXX 11004 41984 02445 50000 10285 20270 30006 40008 83510 333 58013 70000 83618 84458==
41984,2024,09,11,03,00,AAXX 11034 41984 02356 80000 10295 20290 30024 40026 8662/ 333 20271 58003 70000 81708 85618 88458==
41984,2024,09,11,06,00,AAXX 11064 41984 21450 70000 10305 20290 39988 49990 70196 84520 333 59028 60387 70380 84618 87458==
41984,2024,09,11,12,00,AAXX 11124 41984 01450 50000 10295 39997 49999 70162 83531 333 10322 58009 70528 83618==
41984,2024,09,11,18,00,AAXX 11184 41984 02440 80000 10284 20280 30014 40016 8352/ 333 59005 70528 83618 88458==
41984,2024,09,12,00,00,AAXX 12004 41984 NIL=
41984,2024,09,12,03,00,AAXX 12034 41984 01350 80000 10250 20250 30014 40016 76196 8692/ 333 20240 59010 70688 83707 84615 88456 81925==
41984,2024,09,12,06,00,AAXX 12064 41984 21350 80000 10257 20257 30011 40013 76196 8272/ 333 58023 60339 70478 83707 84615 88456==
41984,2024,09,12,09,00,AAXX 12094 41984 02456 80000 10294 20260 39984 49986 8352/ 333 59009 70330 83618 88458==
41984,2024,09,12,12,00,AAXX 12124 41984 02450 80000 10288 20270 39986 49988 8352/ 333 10289 59011 70330 83618 88458==
41984,2024,09,12,18,00,AAXX 12184 41984 21340 83102 10285 20285 39994 49996 76166 8276/ 333 59020 60099 70420 83707 84615 88456==
41989,2024,09,06,00,00,AAXX 06004 41989 11440 31403 10262 20250 30027 40030 60096 70162 83500 333 59011 70090 83618==
41989,2024,09,06,03,00,AAXX 06034 41989 02456 21303 10304 20260 30046 40049 82500 333 20261 59009 70090 82628==
41989,2024,09,06,06,00,AAXX 06064 41989 02450 31403 10328 20270 30055 40058 83500 333 58016 70090 83618==
41989,2024,09,06,09,00,AAXX 06094 41989 02456 52803 10322 20260 30017 40020 82570 333 59015 70090 82618 83362==
41989,2024,09,06,12,00,AAXX 06124 41989 02456 61303 10301 20260 30004 40007 83570 333 10331 59022 70090 83618 84460==
41989,2024,09,06,15,00,AAXX 06154 41989 02450 31403 10295 20270 30033 40036 83500 333 58019 70100 83618==
41989,2024,09,07,00,00,AAXX 07004 41989 21440 51303 10270 20250 30034 40037 70262 83530 333 58007 60095 70100 83618 83362==
41989,2024,09,07,06,00,AAXX 07064 41989 02456 31304 10341 20270 30030 40033 83500 333 59023 70100 83618==
41989,2024,09,07,09,00,AAXX 07094 41989 02456 51404 10327 20270 30004 40007 83570 333 59013 70100 83618 83362==
41989,2024,09,07,12,00,AAXX 07124 41989 21450 71804 10302 20270 30000 40003 70362 83570 333 10342 59004 60135 70230 83618 84460==
41989,2024,09,07,15,00,AAXX 07154 41989 01440 61304 10282 20260 30034 40037 72122 82570 333 58001 70240 82618==
41989,2024,09,07,18,00,AAXX 07184 41989 NIL=
41989,2024,09,07,21,00,AAXX 07214 41989 02440 31803 10272 20250 30038 40042 83530 333 59002 70150 83618==
41989,2024,09,08,00,00,AAXX 08004 41989 02440 21402 10270 20250 30034 40037 82500 333 58000 70150 82618==
41989,2024,09,08,03,00,AAXX 08034 41989 02456 21305 10301 20060 30034 40037 82500 333 20263 58024 70150 82618==
41989,2024,09,08,09,00,AAXX 08094 41989 02456 41307 10331 20280 30009 40011 82570 333 58005 70150 82618 83362==
41989,2024,09,08,12,00,AAXX 08124 41989 02450 52804 10304 20270 30000 40003 82570 333 10344 58000 70020 82618 83362==
41989,2024,09,08,15,00,AAXX 08154 41989 02450 41803 10290 20260 30043 40047 83530 333 58009 70000 83618 83362==
41989,2024,09,08,18,00,AAXX 08184 41989 NIL=
41989,2024,09,09,00,00,AAXX 09004 41989 21440 51402 10272 20250 30035 40038 70262 84430 333 58001 60025 70020 83618 83362==
41989,2024,09,09,03,00,AAXX 09034 41989 02450 41503 10305 20270 30038 40042 82501 333 20264 59016 70020 82618 83080==
41989,2024,09,09,06,00,AAXX 09064 41989 02456 41805 10337 20290 30030 40033 82530 333 59016 70020 82618 84362==
41989,2024,09,09,09,00,AAXX 09094 41989 02450 31703 10330 20270 30012 40015 83500 333 58003 70020 83618==
41989,2024,09,09,12,00,AAXX 09124 41989 NIL=
41989,2024,09,09,15,00,AAXX 09154 41989 02450 51304 10292 20260 30024 40027 82570 333 59019 70020 82618 83362==
41989,2024,09,10,00,00,AAXX 10004 41989 21440 61802 10272 20260 30026 40029 70362 83570 333 59009 60025 70020 83618 84460==
41989,2024,09,10,03,00,AAXX 10034 41989 02456 51304 10306 20260 30042 40045 82570 333 20265 58004 70020 82618 83362==
41989,2024,09,10,06,00,AAXX 10064 41989 02450 53202 10320 20260 30043 40047 83530 333 58013 70020 83618==
41989,2024,09,10,09,00,AAXX 10094 41989 02456 81804 10318 20270 30011 40014 82570 333 58010 70020 82628 84362==
41989,2024,09,10,12,00,AAXX 10124 41989 02450 61303 10300 20260 30003 40006 83570 333 10331 58000 70020 83618 84460==
41989,2024,09,10,15,00,AAXX 10154 41989 02450 51403 10290 20260 30027 40031 83830 333 58003 70020 83618 84362==
41989,2024,09,10,21,00,AAXX 10214 41989 01330 81403 10275 20260 30037 40040 76366 8572/ 333 58009 70520 82708 83614 88456==
41989,2024,09,11,00,00,AAXX 11004 41989 21430 61804 10270 20250 30035 40038 72162 84430 333 58009 60869 70868 83618 84362==
41989,2024,09,11,03,00,AAXX 11034 41989 02450 41803 10305 20270 30046 40049 82530 333 20256 58004 70860 82618 83362==
41989,2024,09,11,06,00,AAXX 11064 41989 02450 61305 10307 20270 30034 40037 83570 333 59004 70860 83618 84460==
41989,2024,09,11,09,00,AAXX 11094 41989 02450 61403 10320 20270 30021 40025 82570 333 59014 70860 82618 84460==
41989,2024,09,11,12,00,AAXX 11124 41989 02450 51803 10290 20260 30009 40012 83530 333 10326 58006 70860 83618 84362==
41989,2024,09,11,15,00,AAXX 11154 41989 01330 81303 10277 20270 30016 40019 76122 8572/ 333 59011 70880 82710 83614 88456==
41989,2024,09,11,21,00,AAXX 11214 41989 02440 61402 10275 20260 30019 40022 82570 333 59018 70480 82618 84460==
41989,2024,09,12,00,00,AAXX 12004 41989 02440 61302 10272 20260 30009 40012 83570 333 59015 70120 83618 83362==
41989,2024,09,12,03,00,AAXX 12034 41989 02456 51803 10299 20269 30031 40034 82570 333 20268 59015 70120 82618 83362==
41989,2024,09,12,06,00,AAXX 12064 41989 02450 51803 10320 20240 30021 40024 83530 333 59013 70120 83618 84362==
41989,2024,09,12,09,00,AAXX 12094 41989 02456 61405 10317 20270 39982 49985 82570 333 59039 70120==
41989,2024,09,12,12,00,AAXX 12124 41989 01440 71805 10284 20260 39973 49976 70362 83570 333 10331 59036 70010 83618 85460==
41989,2024,09,12,15,00,AAXX 12154 41989 41330 81403 10270 20260 39991 49994 79596 8532/ 333 59025 82708 83614 88456==
41989,2024,09,12,18,00,AAXX 12184 41989 NIL=
41992,2024,09,06,00,00,AAXX 06004 41992 41425 60000 10270 20250 30034 40036 70522 84520 333 58000 84615 86460==
41992,2024,09,06,03,00,AAXX 06034 41992 41430 53606 10310 20250 30046 40048 70521 83530 333 20268 58001 83616 85362==
41992,2024,09,06,06,00,AAXX 06064 41992 41435 31508 10330 20260 30035 40037 70522 82530 333 59003 82616 83362==
41992,2024,09,06,09,00,AAXX 06094 41992 41430 61803 10315 20270 30011 40013 70522 84501 333 58001 84616 86080==
41992,2024,09,06,12,00,AAXX 06124 41992 41430 62102 10305 20260 30011 40013 70522 84530 333 10334 58001 84615 86360==
41992,2024,09,06,15,00,AAXX 06154 41992 41425 60000 10292 20260 30033 40035 70522 83520 333 58000 83616 86460==
41992,2024,09,06,18,00,AAXX 06184 41992 01425 80000 10280 20260 30042 40044 70522 8432/ 333 58005 70000 83616 88460 81925==
41992,2024,09,06,21,00,AAXX 06214 41992 01420 60000 10275 20260 30032 40034 70562 84520 333 58005 70120 84615 86460==
41992,2024,09,07,00,00,AAXX 07004 41992 11425 60000 10272 20260 30036 40038 60126 70562 84520 333 58002 70120 84616 86460==
41992,2024,09,07,03,00,AAXX 07034 41992 01435 30000 10315 20270 30041 40043 70511 81530 333 20267 59005 70120 81616 83362==
41992,2024,09,07,06,00,AAXX 07064 41992 01430 60000 10320 20260 30032 40034 70521 83520 333 59005 70120 83616 86460==
41992,2024,09,07,09,00,AAXX 07094 41992 01430 61508 10335 20270 30008 40010 70522 83501 333 59003 70120 83616 86080==
41992,2024,09,07,12,00,AAXX 07124 41992 01430 61506 10300 20250 30012 40014 70522 84530 333 10340 58001 70120 84616 86362==
41992,2024,09,07,15,00,AAXX 07154 41992 01425 71503 10283 20260 30045 40047 70522 84530 333 58012 70120 84615 87360==
41992,2024,09,07,18,00,AAXX 07184 41992 01425 70000 10277 20260 30048 40050 70522 84530 333 58006 70120 84615 87360==
41992,2024,09,07,21,00,AAXX 07214 41992 01420 40302 10272 20250 30031 40033 70521 82530 333 59001 70000 82616 84362==
41992,2024,09,08,00,00,AAXX 08004 41992 01430 40902 10270 20250 30037 40039 70522 82530 333 58001 70000 82616 84362==
41992,2024,09,08,03,00,AAXX 08034 41992 01/35 20000 10315 20250 30049 40051 70511 82030 333 20268 58008 70000 82362==
41992,2024,09,08,06,00,AAXX 08064 41992 01435 50000 10330 20250 30037 40039 70521 83530 333 58005 70000 83616 85362==
41992,2024,09,08,09,00,AAXX 08094 41992 01435 30000 10310 20270 30014 40016 70562 83500 333 58006 70010 83616==
41992,2024,09,08,12,00,AAXX 08124 41992 21430 40000 10300 20250 30013 40015 70562 82530 333 10335 58001 60015 70010 82616 83362==
41992,2024,09,08,15,00,AAXX 08154 41992 01425 31502 10284 20260 30038 40040 70522 82530 333 59007 70010 82616 83362==
41992,2024,09,08,18,00,AAXX 08184 41992 01425 30902 10278 20260 30035 40037 70521 82530 333 59013 70010 82616 83362==
41992,2024,09,08,21,00,AAXX 08214 41992 01420 80000 10270 20250 30021 40023 72196 8592/ 333 59010 70080 84615 88460 81925==
41992,2024,09,09,00,00,AAXX 09004 41992 21430 40902 10270 20260 30027 40029 70520 82520 333 59010 60078 70080 82616 84460==
41992,2024,09,09,03,00,AAXX 09034 41992 01435 51604 10308 20270 30043 40045 70522 83530 333 20265 59006 70080 83616 85362==
41992,2024,09,09,06,00,AAXX 09064 41992 01435 41705 10324 20260 30033 40035 70521 82530 333 59004 70080 82616 84362==
41992,2024,09,09,09,00,AAXX 09094 41992 01430 41508 10325 20260 30016 40018 70522 82530 333 58008 70070 82616 84362==
41992,2024,09,09,12,00,AAXX 09124 41992 01430 41505 10300 20250 30016 40018 70522 82530 333 10330 58003 70070 82616 84362==
41992,2024,09,09,15,00,AAXX 09154 41992 01425 60000 10290 20260 30036 40038 70521 83520 333 59001 70070 83616 86460==
41992,2024,09,09,18,00,AAXX 09184 41992 01425 60000 10280 20260 30031 40033 70522 84320 333 59004 70070 83616 86460 81925==
41992,2024,09,09,21,00,AAXX 09214 41992 01420 60000 10275 20260 30024 40026 70562 84520 333 59003 70010 84616 86460==
41992,2024,09,10,00,00,AAXX 10004 41992 11430 60903 10272 20250 30032 40034 60016 70562 84520 333 58005 70010 84615 86460==
41992,2024,09,10,03,00,AAXX 10034 41992 01425 60000 10295 20280 30053 40055 72165 83330 333 20267 58010 70030 83616 86362 81925==
41992,2024,09,10,06,00,AAXX 10064 41992 21430 71604 10318 20270 30037 40039 70565 83530 333 58004 60028 70030 83616 87362==
41992,2024,09,10,09,00,AAXX 10094 41992 01430 61802 10326 20260 30016 40018 70522 84530 333 58000 70030 84616 86362==
41992,2024,09,10,12,00,AAXX 10124 41992 01430 71510 10300 20260 30020 40022 70522 84520 333 10330 58004 70030 84615 87460==
41992,2024,09,10,15,00,AAXX 10154 41992 01425 30000 10288 20270 30047 40049 70565 82530 333 58011 70030 82616 83362==
41992,2024,09,10,18,00,AAXX 10184 41992 11425 70000 10282 20260 30041 40043 60006 70565 84530 333 58010 70030 84615 87360==
41992,2024,09,10,21,00,AAXX 10214 41992 01420 80902 10274 20260 30026 40028 76166 8592/ 333 58002 70140 84615 88458 81925==
41992,2024,09,11,00,00,AAXX 11004 41992 21420 80904 10270 20270 30034 40036 71766 8592/ 333 58002 60209 70220 84615 88458==
41992,2024,09,11,03,00,AAXX 11034 41992 01425 70000 10295 20260 30049 40051 70565 83330 333 20258 59004 70290 83616 87362 81925==
41992,2024,09,11,06,00,AAXX 11064 41992 11435 51703 10314 20260 30037 40039 60096 70565 82530 333 59016 70290 82616 87362==
41992,2024,09,11,09,00,AAXX 11094 41992 01420 80000 10285 20270 30011 40013 76165 8592/ 333 59005 70330 84614 88458 81925==
41992,2024,09,11,12,00,AAXX 11124 41992 21320 80000 10265 20265 30020 40022 76366 8692/ 333 10315 58000 60449 70730 83707 85612 88458 81925==
41992,2024,09,11,15,00,AAXX 11154 41992 01320 80000 10267 20260 30035 40037 75166 8432/ 333 59012 70750 82708 84614 88458 81925==
41992,2024,09,11,18,00,AAXX 11184 41992 21420 80000 10267 20260 30029 40031 75165 8432/ 333 59012 60029 70750 84614 88458 81925==
41992,2024,09,11,21,00,AAXX 11214 41992 01420 82410 10275 20270 30014 40016 75196 8592/ 333 59012 70640 84615 88458 81925==
41992,2024,09,12,00,00,AAXX 12004 41992 21420 82408 10270 20260 30014 40016 75196 8592/ 333 59020 60029 70570 84615 88458 81925==
41992,2024,09,12,03,00,AAXX 12034 41992 41425 80000 10295 20263 30025 40027 59024 70480 88458==
41992,2024,09,12,06,00,AAXX 12064 41992 01425 80000 10294 20270 30011 40013 75165 8532/ 333 59026 70500 84614 88458 81925==
41992,2024,09,12,09,00,AAXX 12094 41992 01425 82408 10300 20260 39986 49988 79565 8592/ 333 58028 70510 84615 88458 81925==
41992,2024,09,12,12,00,AAXX 12124 41992 21320 80905 10260 20260 39991 49993 79596 8692/ 333 10305 59029 61259 71310 82708 84613 88456 81925==
41992,2024,09,12,15,00,AAXX 12154 41992 01310 81505 10260 20260 30003 40005 76596 8692/ 333 59032 71850 84707 85612 88458 81925==
41992,2024,09,12,18,00,AAXX 12184 41992 21310 80000 10250 20250 39973 49975 79596 8692/ 333 59056 61889 73170 84707 85612 88458 81925==
41992,2024,09,12,21,00,AAXX 12214 41992 01310 82702 10258 20258 39962 49964 79596 8692/ 333 59052 73610 82708 84612 88456 81925==
41998,2024,09,06,00,00,AAXX 06004 41998 02456 40000 10298 20280 30051 40057 82470 333 59016 70000 81618==
41998,2024,09,06,03,00,AAXX 06034 41998 02456 40000 10308 20270 30022 40028 83470 333 20275 59032 70000 81618==
41998,2024,09,06,06,00,AAXX 06064 41998 NIL=
41998,2024,09,06,12,00,AAXX 06124 41998 02456 40000 10293 20260 39996 40002 82470 333 10343 59010 70000 81618 83458==
41998,2024,09,07,09,00,AAXX 07094 41998 02456 40000 10322 20270 30001 40007 82470 333 58002 70000 81618==
41998,2024,09,07,12,00,AAXX 07124 41998 02456 40000 10294 20260 30006 40012 82470 333 58010 70000 81618 83458==
41998,2024,09,07,18,00,AAXX 07184 41998 NIL=
41998,2024,09,08,00,00,AAXX 08004 41998 02456 40000 10297 20270 30023 40029 82470 333 59018 70000 81618==
41998,2024,09,08,09,00,AAXX 08094 41998 02456 41703 10326 20270 30000 40006 82470 333 59001 70000 81618 83458==
41998,2024,09,08,18,00,AAXX 08184 41998 NIL=
41998,2024,09,09,00,00,AAXX 09004 41998 21456 80000 10280 20260 30020 40026 72162 8442/ 333 59003 60057 70050 83616 88456==
41998,2024,09,09,06,00,AAXX 09064 41998 NIL=
41998,2024,09,09,12,00,AAXX 09124 41998 02456 81702 10272 20250 30008 40014 8342/ 333 10342 59006 70050 83618 88458==
41998,2024,09,09,18,00,AAXX 09184 41998 02456 50000 10280 20260 30023 40029 82470 333 58003 70000==
41998,2024,09,10,00,00,AAXX 10004 41998 02456 50000 10270 20260 30030 40040 82470 333 58002 70000 81618 82458==
41998,2024,09,10,06,00,AAXX 10064 41998 NIL=
41998,2024,09,10,12,00,AAXX 10124 41998 02456 80000 10272 20260 30030 40036 8442/ 333 10332 58022 70000 83618 88458==
41998,2024,09,10,18,00,AAXX 10184 41998 02456 80000 10290 20260 30036 40042 8432/ 333 58013 70000 82618 88458==
41998,2024,09,11,00,00,AAXX 11004 41998 21456 80000 10282 20260 30045 40051 76366 8342/ 333 58015 60517 70510 82616 88456==
41998,2024,09,11,03,00,AAXX 11034 41998 01456 80000 10310 20260 30041 40047 76366 8342/ 333 58033 70630 82616 88456==
41998,2024,09,11,06,00,AAXX 11064 41998 21456 80000 10286 20260 30033 40039 70272 8342/ 333 58008 60149 70650 83618 88458==
41998,2024,09,11,12,00,AAXX 11124 41998 21456 80000 10261 20250 30010 40016 76166 8442/ 333 10330 59020 60179 70820 83616 88456==
41998,2024,09,12,00,00,AAXX 12004 41998 22456 80000 10283 20260 30021 40027 8442/ 333 59024 60669 70135 83616 88456==
41998,2024,09,12,03,00,AAXX 12034 41998 01456 80000 10298 20260 39995 40005 76266 8442/ 333 20270 59046 71340 83616 88456==
41998,2024,09,12,06,00,AAXX 12064 41998 21456 81603 10257 20250 30006 40012 76366 8442/ 333 59027 60489 71690 83616 88456==
41998,2024,09,12,12,00,AAXX 12124 41998 21456 80000 10257 20250 39998 40004 76366 8442/ 333 10298 59012 61259 72770 83616 88456==
41998,2024,09,12,18,00,AAXX 12184 41998 NIL=
