ESTACION,ANO,MES,DIA,HORA,MINUTO,PARTE
41850,2022,12,30,00,00,AAXX 30004 41850 31904 00000 10092 20090 30078 40184 74644 333 58012 70000=
41850,2022,12,30,06,00,AAXX 30064 41850 31950 00000 10225 20120 30093 40194 70540 333 58005 70000=
41850,2022,12,30,12,00,AAXX 30124 41850 31940 00000 10166 20140 30064 40167 70500 333 10250 58002 70000=
41850,2022,12,30,18,00,AAXX 30184 41850 31920 00000 10121 20120 30073 40177 71000 333 59013 70000=
41850,2022,12,31,00,00,AAXX 31004 41850 31903 00000 10093 20090 30064 40170 74644 333 59014 70000=
41850,2022,12,31,06,00,AAXX 31064 41850 31950 00803 10226 20120 30082 40183 70540 333 59011 70000=
41850,2022,12,31,12,00,AAXX 31124 41850 31940 00000 10180 20140 30056 40158 333 10251 59008 70000=
41850,2023,01,01,00,00,AAXX 01004 41850 31902 00000 10110 20110 30080 40185 74644 333 58016 70000=
41850,2023,01,01,06,00,AAXX 01064 41850 31940 00603 10210 20130 30103 40205 70540 333 58021 70000=
41850,2023,01,01,12,00,AAXX 01124 41850 31940 00000 10176 20160 30075 40178 70500 333 10235 58019 70000=
41850,2023,01,01,18,00,AAXX 01184 41850 31920 00000 10124 20120 30088 40193 71000 333 58008 70000=
41850,2023,01,02,00,00,AAXX 02004 41850 31905 00000 10098 20098 30081 40187 74444 333 58001 70000=
41850,2023,01,02,06,00,AAXX 02064 41850 31950 02203 10222 20080 30102 40203 70540 333 59001 70000=
41850,2023,01,02,12,00,AAXX 02124 41850 31440 20000 10176 20140 30081 40184 70511 82500 333 10250 56900 58006 70000 82616=
41850,2023,01,02,18,00,AAXX 02184 41850 31920 00000 10140 20120 30098 40203 71000 333 58010 70000=
41850,2023,01,03,00,00,AAXX 03004 41850 31912 00000 10128 20125 30096 40201 71000 333 58015 70000=
41850,2023,01,03,06,00,AAXX 03064 41850 31940 00000 10190 20120 30107 40209 70540 333 58005 70000=
41850,2023,01,03,12,00,AAXX 03124 41850 31940 00000 10170 20130 30073 40176 70500 333 10218 59008 70000=
41850,2023,01,03,18,00,AAXX 03184 41850 31940 02103 10128 20125 30091 40196 70500 333 59015 70000=
41850,2023,01,04,00,00,AAXX 04004 41850 31905 02102 10118 20115 30093 40198 74640 333 59003 70000=
41850,2023,01,04,06,00,AAXX 04064 41850 31950 02402 10192 20110 30104 40207 70540 333 59003 70000=
41850,2023,01,04,12,00,AAXX 04124 41850 31940 00000 10178 20130 30071 40174 70500 333 10220 59002 70000=
41850,2023,01,04,18,00,AAXX 04184 41850 31935 02102 10128 20120 30087 40192 70500 333 59002 70000=
41850,2023,01,05,00,00,AAXX 05004 41850 31901 00000 10105 20105 30092 40197 74640 333 59001 70000=
41850,2023,01,05,06,00,AAXX 05064 41850 31940 02102 10164 20100 30117 40221 70540 333 58013 70000=
41850,2023,01,05,12,00,AAXX 05124 41850 31940 00000 10180 20120 30087 40190 70500 333 10220 58016 70000=
41850,2023,01,05,18,00,AAXX 05184 41850 31940 02102 10130 20110 30095 40200 70500 333 58005 70000=
41851,2022,12,30,00,00,AAXX 30004 41851 31910 00000 10107 20107 30119 40186 71000 333 58005 70000=
41851,2022,12,30,06,00,AAXX 30064 41851 31940 00902 10217 20120 30125 40190 70500 333 58002 70000=
41851,2022,12,30,12,00,AAXX 30124 41851 31940 00000 10177 20150 30099 40164 70500 333 10240 58004 70000=
41851,2022,12,30,18,00,AAXX 30184 41851 31920 00000 10126 20120 30107 40174 71000 333 59021 70000=
41851,2022,12,31,00,00,AAXX 31004 41851 31910 00000 10098 20090 30108 40175 71000 333 59011 70000=
41851,2022,12,31,06,00,AAXX 31064 41851 31920 00000 10155 20150 30127 40193 71000 333 58002 70000=
41851,2022,12,31,12,00,AAXX 31124 41851 31930 00000 10168 20160 30095 40161 70500 333 10214 59004 70000=
41851,2023,01,01,00,00,AAXX 01004 41851 31/01 90000 10119 20119 30126 40193 74544 89/// 333 56999 58018 70000=
41851,2023,01,01,06,00,AAXX 01064 41851 31925 00000 10178 20150 30144 40210 71044 333 58017 70000=
41851,2023,01,01,12,00,AAXX 01124 41851 31925 00000 10178 20160 30112 40177 71000 333 10233 58017 70000=
41851,2023,01,01,18,00,AAXX 01184 41851 31930 00000 10130 20130 30129 40196 70500 333 58006 70000=
41851,2023,01,02,00,00,AAXX 02004 41851 31915 00000 10104 20100 30120 40187 71000 333 59006 70000=
41851,2023,01,02,06,00,AAXX 02064 41851 31940 00000 10220 20130 30142 40207 70500 333 59002 70000=
41851,2023,01,02,12,00,AAXX 02124 41851 31935 00000 10185 20160 30115 40180 70500 333 10245 58003 70000=
41851,2023,01,02,18,00,AAXX 02184 41851 31/09 93301 10146 20146 30140 40206 74300 89/// 333 56999 58011 70000=
41851,2023,01,03,00,00,AAXX 03004 41851 31/08 93601 10135 20135 30135 40202 74344 89/// 333 56999 58015 70000=
41851,2023,01,03,06,00,AAXX 03064 41851 31930 03201 10175 20130 30152 40218 70540 333 58010 70000=
41851,2023,01,03,12,00,AAXX 03124 41851 31930 03201 10180 20140 30108 40173 70500 333 10220 59007 70000=
41851,2023,01,03,18,00,AAXX 03184 41851 31330 83603 10132 20120 30129 40196 70520 89/// 333 56699 59011 70000 81709 83617 88457=
41851,2023,01,04,00,00,AAXX 04004 41851 31/04 93602 10122 20120 30134 40201 74342 89/// 333 56999 59001 70000=
41851,2023,01,04,06,00,AAXX 04064 41851 31930 02703 10180 20130 30146 40212 70540 333 59006 70000=
41851,2023,01,04,12,00,AAXX 04124 41851 31935 00000 10175 20140 30108 40173 70500 333 10220 58000 70000=
41851,2023,01,04,18,00,AAXX 04184 41851 31940 02702 10125 20120 30130 40197 70500 333 58001 70000=
41851,2023,01,05,00,00,AAXX 05004 41851 31/05 92701 10107 20107 30136 40203 74340 89/// 333 56999 58002 70000=
41851,2023,01,05,06,00,AAXX 05064 41851 31930 02703 10145 20120 30160 40226 70544 333 58014 70000=
41851,2023,01,05,12,00,AAXX 05124 41851 31940 00000 10172 20130 30121 40187 70500 333 10217 58013 70000=
41851,2023,01,05,18,00,AAXX 05184 41851 31935 02602 10129 20120 30132 40199 70500 333 58002 70000=
41856,2022,12,30,00,00,AAXX 30004 41856 31912 00000 10104 20104 30144 40182 71000 333 58008 70000=
41856,2022,12,30,06,00,AAXX 30064 41856 32940 00702 10214 20120 30155 40192 333 58010 70000=
41856,2022,12,30,12,00,AAXX 30124 41856 31930 02001 10178 20160 30130 40167 70500 333 10245 58001 70000=
41856,2022,12,31,00,00,AAXX 31004 41856 31/06 92501 10120 20120 30138 40175 74744 89/// 333 59006 70000=
41856,2022,12,31,06,00,AAXX 31064 41856 31930 01001 10187 20150 30156 40193 71044 333 58001 70000=
41856,2022,12,31,12,00,AAXX 31124 41856 31930 00000 10165 20160 30125 40162 70500 333 10220 59005 70000=
41856,2023,01,01,00,00,AAXX 01004 41856 31/05 90000 10133 20130 30152 40189 74744 89/// 333 58014 70000=
41856,2023,01,01,06,00,AAXX 01064 41856 31930 01701 10193 20150 30171 40208 71044 333 58015 70000=
41856,2023,01,01,12,00,AAXX 01124 41856 31930 00000 10170 20160 30141 40178 70500 333 10227 58016 70000=
41856,2023,01,01,18,00,AAXX 01184 41856 31905 00000 10118 20118 30158 40195 74440 333 58004 70000=
41856,2023,01,02,00,00,AAXX 02004 41856 31/06 90000 10100 20100 30148 40185 74744 89/// 333 59004 70000=
41856,2023,01,02,06,00,AAXX 02064 41856 32940 00701 10224 20120 30167 40203 333 59004 70000=
41856,2023,01,02,12,00,AAXX 02124 41856 31935 00000 10180 20160 30144 40181 70500 333 10235 58003 70000=
41856,2023,01,02,18,00,AAXX 02184 41856 31912 02701 10134 20130 30169 40206 71000 333 58011 70000=
41856,2023,01,03,00,00,AAXX 03004 41856 39108 00501 10138 20138 30162 40199 74444 333 58014 70000=
41856,2023,01,03,06,00,AAXX 03064 41856 31935 02701 10206 20140 30172 40209 70500 333 58005 70000=
41856,2023,01,03,12,00,AAXX 03124 41856 31930 00000 10172 20150 30135 40172 70500 333 10231 59009 70000=
41856,2023,01,03,18,00,AAXX 03184 41856 31930 00000 10126 20126 30155 40193 70500 333 59014 70000=
41856,2023,01,04,00,00,AAXX 04004 41856 31907 00502 10124 20120 30157 40195 74440 333 59005 70000=
41856,2023,01,04,06,00,AAXX 04064 41856 31940 02702 10182 20130 30174 40211 70500 333 58002 70000=
41856,2023,01,04,12,00,AAXX 04124 41856 31930 00000 10165 20160 30133 40171 70500 333 10222 59002 70000=
41856,2023,01,04,18,00,AAXX 04184 41856 31930 02702 10125 20125 30157 40194 70500 333 58002 70000=
41856,2023,01,05,00,00,AAXX 05004 41856 31920 02703 10114 20110 30160 40197 71000 333 58002 70000=
41856,2023,01,05,06,00,AAXX 05064 41856 31940 00501 10175 20130 30178 40215 70500 333 58004 70000=
41856,2023,01,05,12,00,AAXX 05124 41856 31930 00000 10190 20150 30142 40179 70500 333 10220 58009 70000=
41856,2023,01,05,18,00,AAXX 05184 41856 31908 00000 10123 20120 30163 40200 74240 333 58006 70000=
41858,2022,12,30,00,00,AAXX 30004 41858 01908 03605 10130 20120 30139 40187 74240 333 59001 70000==
41858,2022,12,30,03,00,AAXX 30034 41858 01913 00306 10164 20140 30162 40210 71044 333 20116 58006 70000==
41858,2022,12,30,06,00,AAXX 30064 41858 01930 00307 10230 20140 30149 40195 70540 333 58006 70000==
41858,2022,12,30,09,00,AAXX 30094 41858 01940 03606 10245 20110 30117 40163 70500 333 58002 70000==
41858,2022,12,30,12,00,AAXX 30124 41858 01930 00905 10190 20140 30122 40169 70500 333 10250 59002 70000==
41858,2022,12,30,15,00,AAXX 30154 41858 01922 01506 10161 20140 30132 40180 71000 333 59015 70000==
41858,2022,12,30,18,00,AAXX 30184 41858 01916 01405 10130 20120 30144 40192 71000 333 59011 70000==
41858,2022,12,30,21,00,AAXX 30214 41858 01908 00000 10118 20100 30124 40172 74200 333 59012 70000==
41858,2022,12,31,00,00,AAXX 31004 41858 01900 00000 10110 20110 30129 40178 74540 89/// 333 59010 70000==
41858,2022,12,31,03,00,AAXX 31034 41858 01900 00000 10134 20120 30159 40207 74545 89/// 333 20100 59003 70000==
41858,2022,12,31,06,00,AAXX 31064 41858 01908 00000 10175 20160 30148 40195 74045 333 59001 70000==
41858,2022,12,31,09,00,AAXX 31094 41858 01920 01804 10230 20170 30115 40161 71000 333 59002 70000==
41858,2022,12,31,12,00,AAXX 31124 41858 01920 00505 10170 20150 30118 40165 71000 333 10230 59004 70000==
41858,2022,12,31,15,00,AAXX 31154 41858 01909 01005 10145 20140 30142 40190 74600 333 59010 70000==
41858,2022,12,31,18,00,AAXX 31184 41858 01912 00907 10120 20110 30153 40201 71040 333 58009 70000==
41858,2022,12,31,21,00,AAXX 31214 41858 31908 00000 10126 20120 30139 40187 74200 333 58015 70000=
41858,2023,01,01,00,00,AAXX 01004 41858 01900 00000 10134 20120 30144 40192 74540 89/// 333 58015 70000==
41858,2023,01,01,03,00,AAXX 01034 41858 01900 00000 10136 20140 30175 40223 74545 89/// 333 20118 58016 70000==
41858,2023,01,01,06,00,AAXX 01064 41858 01912 03506 10200 20150 30167 40214 71044 333 58018 70000==
41858,2023,01,01,09,00,AAXX 01094 41858 01525 30000 10232 20140 30133 40179 71010 83100 333 58018 70000 83825==
41858,2023,01,01,12,00,AAXX 01124 41858 01928 00000 10180 20150 30133 40180 71010 333 10234 58016 70000==
41858,2023,01,01,15,00,AAXX 01154 41858 01920 03606 10154 20130 30152 40200 71000 333 58010 70000==
41858,2023,01,01,18,00,AAXX 01184 41858 01915 00000 10140 20130 30155 40123 71000 333 58005 70000==
41858,2023,01,01,21,00,AAXX 01214 41858 01908 00000 10128 20120 30141 40189 74240 333 58002 70000==
41858,2023,01,02,00,00,AAXX 02004 41858 01901 00000 10118 20110 30144 40193 74544 89/// 333 58000 70000==
41858,2023,01,02,03,00,AAXX 02034 41858 01909 00000 10160 20150 30170 40218 74045 333 20108 59005 70000==
41858,2023,01,02,06,00,AAXX 02064 41858 01920 00306 10230 20140 30164 40210 71040 333 59003 70000==
41858,2023,01,02,09,00,AAXX 02094 41858 01530 23005 10250 20140 30136 40182 70520 82100 333 58003 70000 82825==
41858,2023,01,02,12,00,AAXX 02124 41858 01940 00000 10188 20150 30139 40186 70520 333 10250 58006 70000==
41858,2023,01,02,15,00,AAXX 02154 41858 01925 02707 10165 20150 30161 40209 71000 333 58009 70000==
41858,2023,01,02,18,00,AAXX 02184 41858 01918 02706 10133 20110 30174 40222 71000 333 58019 70000==
41858,2023,01,02,21,00,AAXX 02214 41858 01908 02706 10138 20120 30151 40199 74200 333 58010 70000==
41858,2023,01,03,00,00,AAXX 03004 41858 01905 02706 10144 20130 30159 40207 74544 89/// 333 58015 70000==
41858,2023,01,03,03,00,AAXX 03034 41858 01908 02808 10150 20140 30180 40228 74343 89/// 333 20130 58010 70000==
41858,2023,01,03,06,00,AAXX 03064 41858 01415 72706 10170 20140 30177 40225 71042 84520 333 58013 70000 84615 87458==
41858,2023,01,03,09,00,AAXX 03094 41858 01925 02706 10224 20140 30132 40179 71000 333 59003 70000==
41858,2023,01,03,12,00,AAXX 03124 41858 01922 02606 10180 20140 30130 40177 71000 333 10227 59009 70000==
41858,2023,01,03,15,00,AAXX 03154 41858 01920 01504 10150 20130 30150 40198 71000 333 59011 70000==
41858,2023,01,03,18,00,AAXX 03184 41858 01915 02705 10136 20130 30159 40207 71000 333 59015 70000==
41858,2023,01,03,21,00,AAXX 03214 41858 01906 02708 10134 20120 30154 40202 74240 333 58003 70000==
41858,2023,01,04,00,00,AAXX 04004 41858 01303 82710 10130 20120 30149 40197 74442 8572/ 333 59010 70000 85708 88458==
41858,2023,01,04,03,00,AAXX 04034 41858 01307 82706 10136 20130 30179 40227 74444 8572/ 333 20122 59001 70000 85708 88458==
41858,2023,01,04,06,00,AAXX 04064 41858 01420 62705 10165 20120 30171 40219 71042 84520 333 59006 70000 84615 86458==
41858,2023,01,04,09,00,AAXX 04094 41858 01935 02104 10224 20140 30132 40178 70520 333 59001 70000==
41858,2023,01,04,12,00,AAXX 04124 41858 01925 02706 10180 20140 30130 40177 71020 333 10225 58000 70000==
41858,2023,01,04,15,00,AAXX 04154 41858 01920 02708 10150 20130 30149 40197 71000 333 59001 70000==
41858,2023,01,04,18,00,AAXX 04184 41858 01916 02710 10140 20120 30157 40205 71000 333 59002 70000==
41858,2023,01,04,21,00,AAXX 04214 41858 01908 02706 10122 20110 30151 40200 74200 333 59003 70000==
41858,2023,01,05,00,00,AAXX 05004 41858 01305 72708 10110 20100 30154 40203 74442 85620 333 58006 70000 84708 84615 86458==
41858,2023,01,05,03,00,AAXX 05034 41858 01903 02706 10118 20110 30186 40235 74545 89/// 333 20096 58007 70000==
41858,2023,01,05,06,00,AAXX 05064 41858 01412 72710 10140 20120 30181 40229 71042 84520 333 58010 70000 84614 87458==
41858,2023,01,05,09,00,AAXX 05094 41858 01925 02708 10210 20130 30143 40190 71000 333 58013 70000==
41858,2023,01,05,12,00,AAXX 05124 41858 01923 02705 10172 20140 30141 40188 71000 333 10214 58018 70000==
41858,2023,01,05,15,00,AAXX 05154 41858 01920 02706 10140 20130 30154 40202 71000 333 58005 70000==
41858,2023,01,05,18,00,AAXX 05184 41858 01916 02706 10134 20120 30161 40209 71000 333 58004 70000==
41858,2023,01,05,21,00,AAXX 05214 41858 01908 02708 10120 20110 30149 40198 74240 333 59002 70000==
41859,2022,12,30,00,00,AAXX 30004 41859 01430 40502 10131 20130 30145 40185 70522 82520 333 58005 70000 82618 84458==
41859,2022,12,30,03,00,AAXX 30034 41859 NIL=
41859,2022,12,30,06,00,AAXX 30064 41859 01950 00502 10217 20150 30158 40196 70520 333 58009 70000==
41859,2022,12,30,09,00,AAXX 30094 41859 01440 31302 10239 20140 30127 40165 70522 83500 333 58006 70000 83618==
41859,2022,12,30,12,00,AAXX 30124 41859 01930 00000 10192 20160 30129 40167 70500 333 10242 59001 70000==
41859,2022,12,30,15,00,AAXX 30154 41859 01930 00000 10158 20150 30140 40179 70500 333 59014 70000==
41859,2022,12,30,18,00,AAXX 30184 41859 01930 00000 10146 20140 30142 40181 70500 333 59009 70000==
41859,2022,12,30,21,00,AAXX 30214 41859 01907 00902 10141 20140 30138 40177 74740 89/// 333 59004 70000==
41859,2022,12,31,00,00,AAXX 31004 41859 01906 00901 10134 20133 30134 40173 74544 89/// 333 59011 70000==
41859,2022,12,31,03,00,AAXX 31034 41859 NIL=
41859,2022,12,31,06,00,AAXX 31064 41859 01908 00000 10159 20150 30158 40197 74544 89/// 333 58000 70000==
41859,2022,12,31,09,00,AAXX 31094 41859 01950 02102 10201 20160 30124 40162 70540 333 59003 70000==
41859,2022,12,31,12,00,AAXX 31124 41859 01930 00000 10170 20160 30127 40166 70540 333 10201 59002 70000==
41859,2022,12,31,18,00,AAXX 31184 41859 01905 00000 10140 20140 30150 40189 74740 89/// 333 58008 70000==
41859,2022,12,31,21,00,AAXX 31214 41859 31/05 90000 10134 20130 30145 40184 74744 89/// 333 56999 58007 70000=
41859,2023,01,01,00,00,AAXX 01004 41859 01905 00000 10130 20130 30149 40188 74744 89/// 333 58015 70000==
41859,2023,01,01,03,00,AAXX 01034 41859 01901 00000 10134 20134 30178 40217 74744 89/// 333 20118 58013 70000==
41859,2023,01,01,06,00,AAXX 01064 41859 01930 00000 10180 20150 30172 40211 70542 333 58014 70000==
41859,2023,01,01,09,00,AAXX 01094 41859 01950 00000 10229 20150 30140 40178 70500 333 58016 70000==
41859,2023,01,01,12,00,AAXX 01124 41859 01930 00000 10181 20160 30141 40180 70500 333 10232 58014 70000==
41859,2023,01,01,15,00,AAXX 01154 41859 01930 00000 10156 20150 30161 40200 70500 333 58010 70000==
41859,2023,01,01,18,00,AAXX 01184 41859 01920 00502 10141 20130 30158 40197 71000 333 58008 70000==
41859,2023,01,01,21,00,AAXX 01214 41859 01920 00502 10131 20130 30145 40185 71000 333 58000 70000==
41859,2023,01,02,00,00,AAXX 02004 41859 01920 00501 10121 20120 30143 40183 71000 333 59006 70000==
41859,2023,01,02,03,00,AAXX 02034 41859 01940 00000 10154 20140 30175 40214 70500 333 20112 59003 70000==
41859,2023,01,02,06,00,AAXX 02064 41859 01950 00000 10213 20120 30172 40210 70500 333 58000 70000==
41859,2023,01,02,09,00,AAXX 02094 41859 01950 00502 10240 20120 30143 40181 70500 333 58003 70000==
41859,2023,01,02,12,00,AAXX 02124 41859 01930 00000 10200 20150 30144 40183 70500 333 10243 58003 70000==
41859,2023,01,02,15,00,AAXX 02154 41859 01925 00000 10158 20150 30166 40205 70500 333 58005 70000==
41859,2023,01,02,18,00,AAXX 02184 41859 NIL=
41859,2023,01,02,21,00,AAXX 02214 41859 01420 80000 10147 20140 30161 40200 70522 8562/ 333 58016 70000 82710 83618 88458==
41859,2023,01,03,00,00,AAXX 03004 41859 01420 83102 10141 20130 30161 40200 70522 8562/ 333 58018 70000 82710 83618 88458==
41859,2023,01,03,03,00,AAXX 03034 41859 01430 80000 10146 20140 30185 40224 70522 8562/ 333 20138 58010 70000 82710 83618 88458==
41859,2023,01,03,06,00,AAXX 03064 41859 01940 80000 10181 20140 30180 40219 70522 8562/ 333 58008 70000 82710 83618 88458==
41859,2023,01,03,09,00,AAXX 03094 41859 01440 43102 10224 20140 30142 40180 70521 82530 333 59001 70000 82618 83362==
41859,2023,01,03,12,00,AAXX 03124 41859 01930 00000 10184 20150 30137 40176 70521 333 10224 59007 70000==
41859,2023,01,03,15,00,AAXX 03154 41859 31930 00000 10156 20150 30157 40196 70510 333 59009 70000=
41859,2023,01,03,18,00,AAXX 03184 41859 01930 03102 10142 20130 30156 40195 70500 333 59012 70000==
41859,2023,01,03,21,00,AAXX 03214 41859 01920 03102 10131 20130 30155 40195 70500 333 59006 70000==
41859,2023,01,04,00,00,AAXX 04004 41859 01920 03102 10132 20130 30160 40200 70500 333 58000 70000==
41859,2023,01,04,03,00,AAXX 04034 41859 01950 00000 10333 20120 30184 40224 70500 333 20125 59001 70000==
41859,2023,01,04,06,00,AAXX 04064 41859 01940 00502 10164 20120 30174 40213 70500 333 59006 70000==
41859,2023,01,04,09,00,AAXX 04094 41859 01950 03102 10220 20130 30139 40177 70520 333 59003 70000==
41859,2023,01,04,12,00,AAXX 04124 41859 01930 03101 10185 20150 30134 40173 70520 333 10220 59003 70000==
41859,2023,01,04,15,00,AAXX 04154 41859 01930 03101 10153 20130 30155 40194 70500 333 59002 70000==
41859,2023,01,04,18,00,AAXX 04184 41859 01930 03102 10136 20130 30158 40197 70500 333 58002 70000==
41859,2023,01,04,21,00,AAXX 04214 41859 01920 00000 10120 20110 30155 40195 70500 333 58000 70000==
41859,2023,01,05,00,00,AAXX 05004 41859 01420 83101 10115 20110 30159 40199 70522 8562/ 333 59001 70000 82710 83618 88458==
41859,2023,01,05,03,00,AAXX 05034 41859 01905 00000 10117 20117 30191 40231 74542 89/// 333 20108 58007 70000==
41859,2023,01,05,06,00,AAXX 05064 41859 31430 60000 10147 20120 30187 40226 70542 84520 333 56990 58013 70000 84618 86458=
41859,2023,01,05,09,00,AAXX 05094 41859 01950 00000 10208 20130 30149 40187 70521 333 58010 70000==
41859,2023,01,05,12,00,AAXX 05124 41859 01930 00000 10170 20140 30147 40186 70500 333 10212 58013 70000==
41859,2023,01,05,18,00,AAXX 05184 41859 01930 02702 10140 20130 30159 40198 70500 333 58001 70000==
41859,2023,01,05,21,00,AAXX 05214 41859 01910 02702 10121 20110 30150 40190 71000 333 59005 70000==
41863,2022,12,30,00,00,AAXX 30004 41863 01915 00000 10118 20110 30139 40185 71040 333 59002 70000==
41863,2022,12,30,03,00,AAXX 30034 41863 01940 00000 10150 20140 30168 40213 70500 333 20112 58013 70000==
41863,2022,12,30,06,00,AAXX 30064 41863 02956 00501 10220 20130 30153 40197 333 58008 70000==
41863,2022,12,30,09,00,AAXX 30094 41863 02956 03103 10245 20130 30122 40165 333 58005 70000==
41863,2022,12,30,12,00,AAXX 30124 41863 01950 00000 10205 20160 30120 40164 70500 333 10248 59004 70000==
41863,2022,12,30,15,00,AAXX 30154 41863 01950 00000 10150 20130 30135 40180 70500 333 59015 70000==
41863,2022,12,30,18,00,AAXX 30184 41863 01940 00000 10135 20130 30135 40180 70500 333 59012 70000==
41863,2022,12,30,21,00,AAXX 30214 41863 01924 00000 10114 20100 30133 40179 71000 333 59010 70000==
41863,2022,12,31,00,00,AAXX 31004 41863 01911 00000 10108 20100 30132 40178 71040 333 59007 70000==
41863,2022,12,31,03,00,AAXX 31034 41863 01904 00000 10125 20125 30159 40205 74544 89/// 333 10103 59009 70000==
41863,2022,12,31,06,00,AAXX 31064 41863 01925 00903 10168 20150 30152 40197 71044 333 59001 70000==
41863,2022,12,31,09,00,AAXX 31094 41863 01950 00901 10240 20140 30114 40157 70500 333 59008 70000==
41863,2022,12,31,12,00,AAXX 31124 41863 01940 00000 10185 20160 30112 40156 70540 333 10240 59008 70000==
41863,2022,12,31,15,00,AAXX 31154 41863 01935 00000 10151 20140 30138 40183 70500 333 58003 70000==
41863,2022,12,31,18,00,AAXX 31184 41863 01912 00000 10140 20130 30147 40197 71040 333 58012 70000==
41863,2022,12,31,21,00,AAXX 31214 41863 31912 00000 10130 20120 30146 40192 71044 333 58013 70000=
41863,2023,01,01,00,00,AAXX 01004 41863 01902 00000 10120 20120 30147 40193 74644 333 58015 70000==
41863,2023,01,01,03,00,AAXX 01034 41863 01905 03601 10136 20130 30178 40224 74244 333 20112 58019 70000==
41863,2023,01,01,06,00,AAXX 01064 41863 01950 00502 10205 20160 30164 40208 70040 333 58012 70000==
41863,2023,01,01,09,00,AAXX 01094 41863 02956 00901 10232 20140 30133 40177 333 58019 70000==
41863,2023,01,01,12,00,AAXX 01124 41863 01950 00000 10190 20160 30133 40177 70500 333 10232 58021 70000==
41863,2023,01,01,15,00,AAXX 01154 41863 01940 00000 10150 20130 30156 40201 70500 333 58018 70000==
41863,2023,01,01,18,00,AAXX 01184 41863 01935 00000 10130 20120 30151 40197 70500 333 58004 70000==
41863,2023,01,01,21,00,AAXX 01214 41863 01930 00000 10126 20120 30147 40193 70500 333 58001 70000==
41863,2023,01,02,00,00,AAXX 02004 41863 01912 00501 10117 20110 30145 40191 71040 333 58012 70000==
41863,2023,01,02,03,00,AAXX 02034 41863 01930 03101 10150 20130 30170 40215 71040 333 20106 59008 70000==
41863,2023,01,02,06,00,AAXX 02064 41863 02950 00503 10227 20140 30166 40210 333 58002 70000==
41863,2023,01,02,09,00,AAXX 02094 41863 02456 32703 10242 20150 30140 40184 83500 333 58007 70000 83618==
41863,2023,01,02,12,00,AAXX 02124 41863 01450 22703 10203 20150 30136 40180 70500 82500 333 10245 58003 70000 82618==
41863,2023,01,02,15,00,AAXX 02154 41863 01440 32703 10150 20140 30163 40208 70500 333 58007 70000 83618==
41863,2023,01,02,18,00,AAXX 02184 41863 01440 33104 10150 20140 30169 40214 70500 83500 333 58018 70000 83618==
41863,2023,01,02,21,00,AAXX 02214 41863 01440 22704 10144 20130 30164 40209 70500 82500 333 58017 70000 82618==
41863,2023,01,03,00,00,AAXX 03004 41863 01425 33104 10136 20130 30160 40205 71000 83500 333 58015 70000 83618==
41863,2023,01,03,03,00,AAXX 03034 41863 01440 53102 10140 20130 30182 40128 70522 82520 333 20132 58012 70000 82618 85458==
41863,2023,01,03,06,00,AAXX 03064 41863 01440 63103 10158 20130 30179 40224 70522 83520 333 58013 70000 83618 86458==
41863,2023,01,03,09,00,AAXX 03094 41863 02956 03103 10197 20140 30138 40182 333 59002 70000==
41863,2023,01,03,12,00,AAXX 03124 41863 01940 03103 10167 20140 30134 40179 70500 333 10202 59002 70000==
41863,2023,01,03,15,00,AAXX 03154 41863 01940 02702 10140 20130 30153 40198 70500 333 59010 70000==
41863,2023,01,03,18,00,AAXX 03184 41863 01925 02703 10135 20130 30156 40201 71000 333 59013 70000==
41863,2023,01,03,21,00,AAXX 03214 41863 01925 03102 10130 20130 30154 40200 71000 333 59010 70000==
41863,2023,01,04,00,00,AAXX 04004 41863 01925 02703 10127 20120 30155 40201 71000 333 59005 70000==
41863,2023,01,04,03,00,AAXX 04034 41863 01940 02704 10130 20120 30182 40228 70500 333 20120 58000 70000==
41863,2023,01,04,06,00,AAXX 04064 41863 01450 53105 10150 20130 30176 40221 70522 83520 333 59003 70000 83618 85458==
41863,2023,01,04,09,00,AAXX 04094 41863 02956 02703 10202 20120 30137 40181 333 59001 70000==
41863,2023,01,04,12,00,AAXX 04124 41863 01950 02704 10170 20130 30133 40178 70520 333 10205 59001 70000==
41863,2023,01,04,15,00,AAXX 04154 41863 01940 02704 10145 20130 30152 40197 70500 333 59001 70000==
41863,2023,01,04,18,00,AAXX 04184 41863 01940 02703 10120 20110 30158 40204 70500 333 58002 70000==
41863,2023,01,04,21,00,AAXX 04214 41863 01935 02704 10110 20110 30154 40120 70500 333 58000 70000==
41863,2023,01,05,00,00,AAXX 05004 41863 01935 02704 10110 20100 30160 40206 70500 333 58005 70000==
41863,2023,01,05,03,00,AAXX 05034 41863 01940 02704 10116 20110 30187 40233 70500 333 20098 58005 70000==
41863,2023,01,05,06,00,AAXX 05064 41863 01950 03105 10141 20120 30183 40229 70500 333 58007 70000==
41863,2023,01,05,09,00,AAXX 05094 41863 01956 02705 10200 20130 30147 40191 70500 333 58010 70000==
41863,2023,01,05,12,00,AAXX 05124 41863 01940 02704 10171 20130 30143 40188 70500 333 10200 58010 70000==
41863,2023,01,05,15,00,AAXX 05154 41863 01940 02704 10136 20120 30160 40205 70500 333 58008 70000==
41863,2023,01,05,18,00,AAXX 05184 41863 01935 02706 10117 20110 30160 40206 70500 333 58002 70000==
41881,2022,12,30,00,00,AAXX 30004 41881 31902 00000 10105 20100 30163 40184 74604 333 58002 70000=
41881,2022,12,30,06,00,AAXX 30064 41881 31905 03101 10206 20150 30171 40192 70504 333 58007 70000=
41881,2022,12,30,12,00,AAXX 30124 41881 32950 00000 10183 20150 30146 40167 333 10230 59002 70000=
41881,2022,12,30,18,00,AAXX 30184 41881 31940 00000 10132 20130 30162 40182 70500 333 59010 70000=
41881,2022,12,31,00,00,AAXX 31004 41881 31902 00000 10110 20110 30161 40183 74604 333 59002 70000=
41881,2022,12,31,06,00,AAXX 31064 41881 31908 00000 10156 20150 30175 40196 71044 333 58004 70000=
41881,2022,12,31,12,00,AAXX 31124 41881 31930 00801 10165 20160 30142 40163 70500 333 10220 59004 70000=
41881,2023,01,01,00,00,AAXX 01004 41881 31901 03601 10122 20122 30167 40188 74644 333 58006 70000=
41881,2023,01,01,06,00,AAXX 01064 41881 31940 00501 10190 20160 30182 40202 70544 333 58007 70000=
41881,2023,01,01,12,00,AAXX 01124 41881 31940 00801 10175 20160 30156 40177 70500 333 10237 58014 70000=
41881,2023,01,01,18,00,AAXX 01184 41881 31404 40000 10132 20130 30173 40194 74240 84500 333 56900 58002 70000 84618=
41881,2023,01,02,00,00,AAXX 02004 41881 31901 00000 10108 20108 30166 40187 74644 333 59001 70000=
41881,2023,01,02,06,00,AAXX 02064 41881 32956 03601 10217 20160 30186 40207 333 58004 70000=
41881,2023,01,02,12,00,AAXX 02124 41881 32950 03601 10180 20160 30152 40183 333 10240 58006 70000=
41881,2023,01,02,18,00,AAXX 02184 41881 31902 00501 10134 20130 30193 40214 74640 333 58020 70000=
41881,2023,01,03,00,00,AAXX 03004 41881 31901 00000 10110 20110 30187 40209 74644 333 58021 70000=
41881,2023,01,03,06,00,AAXX 03064 41881 NIL=
41881,2023,01,03,12,00,AAXX 03124 41881 32950 02802 10153 20130 30158 40179 333 10185 59004 70000=
41881,2023,01,03,18,00,AAXX 03184 41881 31404 42903 10128 20128 30178 40199 74240 84500 333 56900 59015 70000 84620=
41881,2023,01,04,00,00,AAXX 04004 41881 31401 83403 10124 20120 30175 40196 74642 8552/ 333 333 56999 59012 70000 85618 88459=
41881,2023,01,04,06,00,AAXX 04064 41881 31425 83104 10140 20120 30197 40218 71042 8552/ 333 56999 59001 70000 85618 88458=
41881,2023,01,04,12,00,AAXX 04124 41881 31940 02802 10152 20130 30156 40177 70500 333 10186 59002 70000=
41881,2023,01,04,18,00,AAXX 04184 41881 31940 03604 10114 20110 30178 40200 70500 333 58000 70000=
41881,2023,01,05,00,00,AAXX 05004 41881 31940 03106 10104 20100 30178 40199 70500 333 58003 70000=
41881,2023,01,05,06,00,AAXX 05064 41881 31940 83601 10130 20110 30203 40224 70542 8552/ 333 56999 58006 70000 85616 88458=
41881,2023,01,05,12,00,AAXX 05124 41881 32950 02701 10150 20120 30165 40186 333 10178 58009 70000=
41881,2023,01,05,18,00,AAXX 05184 41881 31940 03602 10113 20100 30182 40204 70500 333 58004 70000=
41883,2022,12,30,00,00,AAXX 30004 41883 01908 00000 10130 20130 30163 40185 74300 89/// 333 58008 70000==
41883,2022,12,30,06,00,AAXX 30064 41883 01440 80000 10154 20130 30179 40201 70544 8562/ 333 58014 70000 83710 84618 88458==
41883,2022,12,30,09,00,AAXX 30094 41883 02950 00000 10200 20150 30150 40171 333 58010 70000==
41883,2022,12,30,12,00,AAXX 30124 41883 01309 50000 10168 20160 30149 40170 74100 85700 333 10204 58003 70000 85709==
41883,2022,12,30,15,00,AAXX 30154 41883 01930 02702 10160 20150 30158 40179 70540 333 59007 70000==
41883,2022,12,30,18,00,AAXX 30184 41883 01908 00000 10142 20140 30163 40185 74540 89/// 333 59006 70000==
41883,2022,12,30,21,00,AAXX 30214 41883 01905 00000 10140 20140 30157 40179 74544 89/// 333 59005 70000==
41883,2022,12,31,00,00,AAXX 31004 41883 01905 00000 10140 20140 30151 40173 74544 89/// 333 59012 70000==
41883,2022,12,31,03,00,AAXX 31034 41883 01908 00000 10140 20140 30182 40204 74344 89/// 333 20130 59001 70000==
41883,2022,12,31,06,00,AAXX 31064 41883 01908 00000 10140 20140 30182 40204 74344 89/// 333 20130 59001 70000==
41883,2022,12,31,09,00,AAXX 31094 41883 01930 00000 10200 20160 30144 40165 70500 333 59006 70000==
41883,2022,12,31,12,00,AAXX 31124 41883 01930 00000 10184 20160 30140 40161 70500 333 10204 59009 70000==
41883,2022,12,31,18,00,AAXX 31184 41883 01930 00000 10150 20140 30169 40190 70500 333 58006 70000==
41883,2022,12,31,21,00,AAXX 31214 41883 31/05 90000 10140 20140 30165 40187 74540 89/// 333 56999 58008 70000=
41883,2023,01,01,00,00,AAXX 01004 41883 01905 00000 10134 20130 30162 40184 74544 89/// 333 58011 70000==
41883,2023,01,01,03,00,AAXX 01034 41883 01905 00000 10137 20130 30194 40216 74544 89/// 333 20126 58012 70000==
41883,2023,01,01,06,00,AAXX 01064 41883 01430 60000 10170 20150 30185 40209 70544 83510 333 58011 70000 83616 86459==
41883,2023,01,01,09,00,AAXX 01094 41883 02956 00000 10224 20150 30158 40179 333 58014 70000==
41883,2023,01,01,12,00,AAXX 01124 41883 02/30 30000 10185 20160 30156 40177 83030 333 10230 58016 70000 83362==
41883,2023,01,01,15,00,AAXX 01154 41883 01930 00000 10160 20150 30174 40195 70500 333 58010 70000==
41883,2023,01,01,18,00,AAXX 01184 41883 01309 30000 10150 20150 30173 40194 74240 83700 333 58004 70000 83709==
41883,2023,01,01,21,00,AAXX 01214 41883 01308 30000 10140 20140 30167 40189 74444 83700 333 58002 70000 83709==
41883,2023,01,02,00,00,AAXX 02004 41883 01308 50000 10130 20130 30162 40184 74444 85700 333 58000 70000 85709==
41883,2023,01,02,03,00,AAXX 02034 41883 01930 00000 10155 20150 30190 40211 70544 333 20120 59004 70000==
41883,2023,01,02,06,00,AAXX 02064 41883 01950 03102 10234 20140 30182 40203 70540 333 59003 70000==
41883,2023,01,02,09,00,AAXX 02094 41883 02/56 20000 10248 20130 30157 40178 82030 333 70000 82362==
41883,2023,01,02,12,00,AAXX 02124 41883 02930 00000 10200 20140 30159 40180 333 10253 58003 70000==
41883,2023,01,02,15,00,AAXX 02154 41883 02930 00000 10170 20150 30180 40201 333 58006 70000==
41883,2023,01,02,21,00,AAXX 02214 41883 01910 02302 10144 20130 30170 40192 71000 333 58003 70000==
41883,2023,01,03,00,00,AAXX 03004 41883 01905 02702 10140 20130 30175 40197 74540 89/// 333 58013 70000==
41883,2023,01,03,03,00,AAXX 03034 41883 01908 03102 10146 20140 30203 40225 74344 89/// 333 20134 58013 70000==
41883,2023,01,03,06,00,AAXX 03064 41883 01325 83103 10160 20150 30192 40213 70544 8572/ 333 58010 70000 85709 88458==
41883,2023,01,03,09,00,AAXX 03094 41883 01450 43104 10184 20130 30161 40182 70522 82520 333 58004 70000 82616 84459==
41883,2023,01,03,12,00,AAXX 03124 41883 01930 00000 10165 20150 30155 40176 70520 333 10188 59004 70000==
41883,2023,01,03,15,00,AAXX 03154 41883 31930 00000 10146 20140 30173 40194 70500 333 59007 70000=
41883,2023,01,03,18,00,AAXX 03184 41883 01930 00000 10135 20130 30176 40198 70500 333 59007 70000==
41883,2023,01,03,21,00,AAXX 03214 41883 01930 00000 10128 20120 30169 40191 70500 333 59001 70000==
41883,2023,01,04,00,00,AAXX 04004 41883 01310 82702 10126 20120 30173 40195 71000 8562/ 333 59002 70000 85710 88459==
41883,2023,01,04,03,00,AAXX 04034 41883 01320 82302 10136 20130 30199 40221 71042 8562/ 333 20122 59004 70000 83710 84616 88458==
41883,2023,01,04,06,00,AAXX 04064 41883 01440 82702 10152 20130 30192 40214 70542 8562/ 333 58000 70000 82710 84617 88458==
41883,2023,01,04,09,00,AAXX 04094 41883 01/50 50000 10170 20140 30161 40182 70522 85010 333 58000 70000 85458==
41883,2023,01,04,12,00,AAXX 04124 41883 01930 00000 10157 20150 30153 40174 70500 333 10184 59002 70000==
41883,2023,01,04,15,00,AAXX 04154 41883 01930 03104 10144 20130 30171 40193 70500 333 59002 70000==
41883,2023,01,04,18,00,AAXX 04184 41883 01930 03102 10134 20120 30175 40197 70500 333 59001 70000==
41883,2023,01,04,21,00,AAXX 04214 41883 01930 03102 10125 20120 30171 40193 70500 333 58002 70000==
41883,2023,01,05,00,00,AAXX 05004 41883 01330 83104 10114 20100 30179 40201 70500 8562/ 333 58006 70000 85709 88459==
41883,2023,01,05,03,00,AAXX 05034 41883 01340 82702 10115 20110 30204 40226 70522 8562/ 333 20105 58005 70000 85710 88459==
41883,2023,01,05,06,00,AAXX 05064 41883 31340 82702 10140 20120 30199 40221 70522 8562/ 333 56699 58007 70000 85710 88459=
41883,2023,01,05,09,00,AAXX 05094 41883 01450 82302 10166 20140 30168 40189 70522 8462/ 333 58007 70000 82710 83618 88458==
41883,2023,01,05,12,00,AAXX 05124 41883 01930 00000 10152 20130 30163 40184 70521 333 10180 58010 70000==
41883,2023,01,05,18,00,AAXX 05184 41883 01930 03102 10128 20120 30177 40199 70500 333 58002 70000==
41883,2023,01,05,21,00,AAXX 05214 41883 01925 03102 10120 20110 30172 40194 70500 333 58001 70000==
41886,2022,12,30,00,00,AAXX 30004 41886 01902 00000 10132 20130 30172 40194 74544 89/// 333 58010 70000==
41886,2022,12,30,03,00,AAXX 30034 41886 01904 00000 10152 20150 30187 40208 74344 89/// 333 20122 58006 70000==
41886,2022,12,30,06,00,AAXX 30064 41886 01907 00000 10168 20150 30180 40202 74344 89/// 333 58013 70000==
41886,2022,12,30,09,00,AAXX 30094 41886 01935 00000 10192 20150 30160 40182 71044 333 58018 70000==
41886,2022,12,30,12,00,AAXX 30124 41886 01915 00000 10165 20160 30162 40183 71044 333 10200 58010 70000==
41886,2022,12,30,15,00,AAXX 30154 41886 01906 00000 10137 20130 30165 40187 74244 333 59006 70000==
41886,2022,12,30,18,00,AAXX 30184 41886 01902 00000 10143 20140 30162 40184 74444 333 59012 70000==
41886,2022,12,30,21,00,AAXX 30214 41886 01902 00000 10135 20130 30160 40182 74544 89/// 333 59012 70000==
41886,2022,12,31,00,00,AAXX 31004 41886 01902 00000 10135 20130 30161 40183 74544 89/// 333 59006 70000==
41886,2022,12,31,03,00,AAXX 31034 41886 01902 00000 10140 20140 30188 40210 74544 333 20132 58001 70000==
41886,2022,12,31,06,00,AAXX 31064 41886 01908 00000 10157 20150 30076 40098 74344 89/// 333 59004 70000==
41886,2022,12,31,09,00,AAXX 31094 41886 01930 00000 10183 20150 30146 40146 71044 333 59009 70000==
41886,2022,12,31,12,00,AAXX 31124 41886 01915 00000 10160 20150 30145 40167 71044 333 10185 59017 70000==
41886,2022,12,31,15,00,AAXX 31154 41886 01901 00000 10127 20127 30167 40188 74444 333 58002 70000==
41886,2022,12,31,18,00,AAXX 31184 41886 01901 00000 10124 20124 30172 40194 74444 333 58010 70000==
41886,2022,12,31,21,00,AAXX 31214 41886 31/01 90000 10120 20120 30178 40200 74544 89/// 333 58018 70000=
41886,2023,01,01,00,00,AAXX 01004 41886 01901 00000 10120 20120 30180 40202 74544 89/// 333 58019 70000==
41886,2023,01,01,03,00,AAXX 01034 41886 01902 00000 10137 20137 30200 40222 74544 89/// 333 20115 58012 70000==
41886,2023,01,01,06,00,AAXX 01064 41886 01950 00000 10200 20150 30190 40211 70540 333 58014 70000==
41886,2023,01,01,09,00,AAXX 01094 41886 02956 00000 10234 20140 30158 40178 333 58012 70000==
41886,2023,01,01,12,00,AAXX 01124 41886 01940 00000 10184 20150 30158 40178 70500 333 10235 58013 70000==
41886,2023,01,01,15,00,AAXX 01154 41886 01920 00000 10140 20130 30176 40197 71044 333 58009 70000==
41886,2023,01,01,18,00,AAXX 01184 41886 01908 00000 10130 20120 30182 40103 74244 333 58010 70000==
41886,2023,01,01,21,00,AAXX 01214 41886 01905 00000 10123 20110 30178 40200 74444 333 58000 70000==
41886,2023,01,02,00,00,AAXX 02004 41886 01904 00000 10117 20110 30166 40188 74444 333 59014 70000==
41886,2023,01,02,03,00,AAXX 02034 41886 01909 00000 10140 20130 30190 40212 74444 333 20110 59010 70000==
41886,2023,01,02,06,00,AAXX 02064 41886 01950 00000 10224 20160 30184 40204 70540 333 59006 70000==
41886,2023,01,02,09,00,AAXX 02094 41886 02956 00000 10250 20120 30160 40180 333 58002 70000==
41886,2023,01,02,12,00,AAXX 02124 41886 01940 00000 10190 20160 30162 40182 70500 333 10250 58004 70000==
41886,2023,01,02,15,00,AAXX 02154 41886 01930 00000 10157 20150 30183 40203 71040 333 58007 70000==
41886,2023,01,02,18,00,AAXX 02184 41886 01920 00000 10140 20130 30191 40212 71044 333 58009 70000==
41886,2023,01,02,21,00,AAXX 02214 41886 01906 00000 10137 20130 30188 40210 74444 333 58010 70000==
41886,2023,01,03,00,00,AAXX 03004 41886 01904 00000 10135 20130 30176 40198 74444 333 58010 70000==
41886,2023,01,03,03,00,AAXX 03034 41886 01908 00000 10147 20140 30202 40224 74444 333 20115 58012 70000==
41886,2023,01,03,06,00,AAXX 03064 41886 01940 00000 10185 20160 30189 40210 70544 333 58005 70000==
41886,2023,01,03,09,00,AAXX 03094 41886 01950 00000 10210 20150 30156 40177 70544 333 59004 70000==
41886,2023,01,03,12,00,AAXX 03124 41886 01920 00000 10167 20150 30155 40176 71044 333 10215 59007 70000==
41886,2023,01,03,15,00,AAXX 03154 41886 01915 00000 10145 20140 30174 40196 71044 333 59009 70000==
41886,2023,01,03,18,00,AAXX 03184 41886 01906 00000 10137 20135 30172 40194 74244 333 59019 70000==
41886,2023,01,03,21,00,AAXX 03214 41886 01904 00000 10138 20130 30172 40194 74444 333 59016 70000==
41886,2023,01,04,00,00,AAXX 04004 41886 01902 00000 10140 20140 30171 40193 74544 89/// 333 59005 70000==
41886,2023,01,04,03,00,AAXX 04034 41886 01904 00000 10143 20140 30196 40218 74544 89/// 333 20130 59006 70000==
41886,2023,01,04,06,00,AAXX 04064 41886 01420 70000 10172 20140 30189 40211 71042 82510 333 58000 70000 82618 87460==
41886,2023,01,04,09,00,AAXX 04094 41886 01930 00000 10191 20140 30155 40176 71040 333 59001 70000==
41886,2023,01,04,12,00,AAXX 04124 41886 01930 00000 10154 20140 30152 40173 71040 333 10195 59003 70000==
41886,2023,01,04,15,00,AAXX 04154 41886 01930 00000 10140 20130 30169 40191 71044 333 59005 70000==
41886,2023,01,04,18,00,AAXX 04184 41886 01930 00000 10135 20130 30173 40195 71044 333 58001 70000==
41886,2023,01,04,21,00,AAXX 04214 41886 01915 00000 10134 20120 30174 40196 71044 333 58002 70000==
41886,2023,01,05,00,00,AAXX 05004 41886 01908 00000 10132 20130 30175 40197 74544 89/// 333 58004 70000==
41886,2023,01,05,03,00,AAXX 05034 41886 01905 00000 10136 20136 30201 40223 74544 89/// 333 20126 58005 70000==
41886,2023,01,05,06,00,AAXX 05064 41886 01/12 80000 10160 20140 30193 40215 71042 8801/ 333 58004 70000 88460==
41886,2023,01,05,09,00,AAXX 05094 41886 01/20 60000 10190 20140 30163 40184 71042 86010 333 58008 70000 86460==
41886,2023,01,05,12,00,AAXX 05124 41886 01915 00000 10162 20140 30159 40181 71042 333 10198 58007 70000==
41886,2023,01,05,15,00,AAXX 05154 41886 01915 00000 10130 20130 30174 40196 71042 333 58005 70000==
41886,2023,01,05,18,00,AAXX 05184 41886 01915 00000 10134 20120 30170 40192 71044 333 59003 70000==
41886,2023,01,05,21,00,AAXX 05214 41886 01906 00000 10130 20130 30169 40191 74244 333 59005 70000==
41888,2022,12,30,00,00,AAXX 30004 41888 31420 81401 10150 20150 30173 40184 71044 8252/ 333 56999 58010 70000 82618 88460=
41888,2022,12,30,06,00,AAXX 30064 41888 31435 72701 10194 20140 30182 40192 70542 82510 333 56990 58012 70000 82618 87460=
41888,2022,12,30,12,00,AAXX 30124 41888 31920 03201 10174 20150 30159 40169 71042 333 10220 58002 70000=
41888,2022,12,30,18,00,AAXX 30184 41888 31/01 93601 10153 20153 30169 40180 74544 89/// 333 56999 59009 70000=
41888,2022,12,31,00,00,AAXX 31004 41888 31/02 90602 10140 20140 30170 40181 74544 89/// 333 56999 59003 70000=
41888,2022,12,31,06,00,AAXX 31064 41888 31430 52702 10194 20150 30177 40187 70544 82510 333 56990 59005 70000 82618 85460=
41888,2022,12,31,12,00,AAXX 31124 41888 31920 02701 10170 20150 30155 40166 71042 333 10208 59004 70000=
41888,2023,01,01,00,00,AAXX 01004 41888 31/01 90000 10115 20115 30175 40186 74544 89/// 333 56999 58005 70000=
41888,2023,01,01,06,00,AAXX 01064 41888 31940 01401 10208 20160 30191 40201 70544 333 58014 70000=
41888,2023,01,01,12,00,AAXX 01124 41888 31930 00000 10185 20160 30166 40176 71000 333 10240 58011 70000=
41888,2023,01,01,18,00,AAXX 01184 41888 31901 00000 10140 20140 30174 40185 74444 333 59003 70000=
41888,2023,01,02,00,00,AAXX 02004 41888 31/01 93001 10120 20120 30173 40184 74544 89/// 333 56999 59002 70000=
41888,2023,01,02,06,00,AAXX 02064 41888 31950 01803 10229 20150 30188 40198 70540 333 59003 70000=
41888,2023,01,02,12,00,AAXX 02124 41888 31935 02701 10195 20160 30167 40177 70510 333 10262 58001 70000=
41888,2023,01,02,18,00,AAXX 02184 41888 31906 00601 10140 20140 30185 40196 74240 333 58011 70000=
41888,2023,01,03,00,00,AAXX 03004 41888 31/01 93601 10114 20114 30181 40192 74544 89/// 333 56999 58008 70000=
41888,2023,01,03,06,00,AAXX 03064 41888 31425 33603 10174 20150 30194 40205 71044 82510 333 56990 58006 70000 82618 83460=
41888,2023,01,03,12,00,AAXX 03124 41888 31915 00000 10179 20160 30155 40165 71044 333 10227 59012 70000=
41888,2023,01,03,18,00,AAXX 03184 41888 31910 03001 10144 20144 30176 40187 71044 333 59009 70000=
41888,2023,01,04,00,00,AAXX 04004 41888 31903 03101 10136 20136 30181 40192 74444 333 58000 70000=
41888,2023,01,04,06,00,AAXX 04064 41888 31940 02703 10182 20140 30191 40202 71044 333 59003 70000=
41888,2023,01,04,12,00,AAXX 04124 41888 31920 02703 10171 20140 30154 40165 71040 333 10224 59001 70000=
41888,2023,01,04,18,00,AAXX 04184 41888 31915 03006 10140 20130 30174 40185 71044 333 59002 70000=
41888,2023,01,05,00,00,AAXX 05004 41888 31912 03104 10127 20127 30171 40182 71044 333 59010 70000=
41888,2023,01,05,06,00,AAXX 05064 41888 31415 73203 10156 20140 30199 40210 71042 83510 333 56990 58008 70000 83618 87460=
41888,2023,01,05,12,00,AAXX 05124 41888 31920 03104 10175 20160 30161 40171 71044 333 10220 58007 70000=
41888,2023,01,05,18,00,AAXX 05184 41888 31915 03104 10142 20130 30169 40180 71044 333 59005 70000=
41891,2022,12,30,00,00,AAXX 30004 41891 01901 00000 10146 20146 30142 40183 74542 89/// 333 58007 70000==
41891,2022,12,30,03,00,AAXX 30034 41891 01411 80904 10154 20140 30167 40208 71044 8532/ 333 20135 58011 70000 81710 84615 88460 81930==
41891,2022,12,30,06,00,AAXX 30064 41891 01425 50304 10193 20140 30149 40189 71042 82530 333 58013 70000 82616 84365==
41891,2022,12,30,09,00,AAXX 30094 41891 01430 31004 10220 20150 30124 40163 70521 81510 333 58011 70000 81616 83365==
41891,2022,12,30,12,00,AAXX 30124 41891 01420 30903 10197 20150 30127 40167 71021 82530 333 10227 59002 70000 82616 85365==
41891,2022,12,30,15,00,AAXX 30154 41891 01415 30903 10155 20150 30140 40181 71022 81530 333 59005 70000 81615 83365==
41891,2022,12,30,18,00,AAXX 30184 41891 01912 00000 10145 20140 30139 40180 71020 333 59009 70000==
41891,2022,12,30,21,00,AAXX 30214 41891 01907 00000 10141 20130 30132 40173 74340 89/// 333 59001 70000==
41891,2022,12,31,00,00,AAXX 31004 41891 01901 00000 10138 20138 30139 40180 74540 89/// 333 59003 70000==
41891,2022,12,31,06,00,AAXX 31064 41891 01/30 20904 10197 20150 30146 40186 70541 82030 333 59003 70000 82365==
41891,2022,12,31,09,00,AAXX 31094 41891 01435 30902 10222 20160 30118 40157 70511 81530 333 59006 70000 81615 83365==
41891,2022,12,31,12,00,AAXX 31124 41891 01930 02302 10180 20150 30125 40165 70510 333 10230 59002 70000==
41891,2022,12,31,18,00,AAXX 31184 41891 01910 01903 10148 20140 30147 40188 71000 333 58008 70000==
41891,2022,12,31,21,00,AAXX 31214 41891 31910 01903 10140 20130 30143 40184 71000 333 58011 70000=
41891,2023,01,01,00,00,AAXX 01004 41891 01915 01103 10132 20120 30154 40194 71000 333 58010 70000==
41891,2023,01,01,03,00,AAXX 01034 41891 01920 00902 10158 20130 30170 40211 71000 333 20130 58006 70000==
41891,2023,01,01,06,00,AAXX 01064 41891 01940 01404 10214 20130 30161 40201 70500 333 58015 70000==
41891,2023,01,01,09,00,AAXX 01094 41891 01945 02504 10236 20110 30134 40173 70500 333 58016 70000==
41891,2023,01,01,12,00,AAXX 01124 41891 01930 00602 10190 20140 30136 40176 70500 333 10244 58011 70000==
41891,2023,01,01,15,00,AAXX 01154 41891 01930 00000 10160 20140 30152 40193 70500 333 58009 70000==
41891,2023,01,01,18,00,AAXX 01184 41891 01930 00602 10147 20130 30144 40185 70500 333 59003 70000==
41891,2023,01,01,21,00,AAXX 01214 41891 01930 00000 10144 20120 30141 40182 70500 333 59002 70000==
41891,2023,01,02,00,00,AAXX 02004 41891 01930 00803 10128 20120 30141 40182 70500 333 59005 70000==
41891,2023,01,02,03,00,AAXX 02034 41891 01940 00804 10176 20120 30169 40209 70500 333 20125 59001 70000==
41891,2023,01,02,06,00,AAXX 02064 41891 01945 00404 10225 20120 30158 40197 70500 333 59003 70000==
41891,2023,01,02,09,00,AAXX 02094 41891 01950 01203 10252 20100 30133 40172 70500 333 59001 70000==
41891,2023,01,02,12,00,AAXX 02124 41891 01930 02703 10197 20130 30140 40180 70500 333 10256 58004 70000==
41891,2023,01,02,15,00,AAXX 02154 41891 01930 00000 10159 20140 30159 40200 70500 333 58007 70000==
41891,2023,01,02,21,00,AAXX 02214 41891 01930 00000 10140 20120 30151 40192 70500 333 58010 70000==
41891,2023,01,03,00,00,AAXX 03004 41891 01930 00903 10135 20110 30149 40190 70500 333 58008 70000==
41891,2023,01,03,03,00,AAXX 03034 41891 01940 00905 10182 20110 30171 40211 70500 333 20130 58002 70000==
41891,2023,01,03,06,00,AAXX 03064 41891 01950 01204 10240 20120 30150 40189 70500 333 59008 70000==
41891,2023,01,03,09,00,AAXX 03094 41891 01950 02702 10258 20090 30119 40158 70500 333 59014 70000==
41891,2023,01,03,12,00,AAXX 03124 41891 01935 03102 10207 20130 30124 40163 70500 333 10265 59016 70000==
41891,2023,01,03,15,00,AAXX 03154 41891 31920 03003 10182 20130 30143 40183 71000 333 59016 70000=
41891,2023,01,03,18,00,AAXX 03184 41891 01910 03003 10167 20150 30145 40185 71000 333 59011 70000==
41891,2023,01,03,21,00,AAXX 03214 41891 01910 00403 10150 20140 30138 40179 71000 333 59013 70000==
41891,2023,01,04,00,00,AAXX 04004 41891 01910 00903 10120 20110 30146 40187 71000 333 59003 70000==
41891,2023,01,04,03,00,AAXX 04034 41891 01935 00903 10154 20120 30170 40211 70500 333 20120 59001 70000==
41891,2023,01,04,06,00,AAXX 04064 41891 01940 01302 10228 20130 30149 40188 70500 333 59001 70000==
41891,2023,01,04,09,00,AAXX 04094 41891 01950 00000 10250 20110 30119 40158 70500 333 58000 70000==
41891,2023,01,04,12,00,AAXX 04124 41891 01930 02805 10202 20140 30122 40162 70500 333 10258 59002 70000==
41891,2023,01,04,15,00,AAXX 04154 41891 01930 03102 10180 20150 30135 40175 70500 333 59008 70000==
41891,2023,01,04,18,00,AAXX 04184 41891 01930 02702 10168 20160 30138 40178 70500 333 59007 70000==
41891,2023,01,04,21,00,AAXX 04214 41891 01915 00000 10162 20150 30142 40183 71000 333 58004 70000==
41891,2023,01,05,00,00,AAXX 05004 41891 01415 61303 10152 20140 30145 40186 71020 83530 333 59001 70000 83615 85362==
41891,2023,01,05,03,00,AAXX 05034 41891 01415 80803 10162 20140 30174 40215 71022 8532/ 333 20149 58004 70000 81710 84615 88460 81930==
41891,2023,01,05,06,00,AAXX 05064 41891 31930 00000 10220 20140 30155 40195 70520 333 58006 70000=
41891,2023,01,05,09,00,AAXX 05094 41891 01950 03003 10231 20140 30128 40167 70500 333 58009 70000==
41891,2023,01,05,12,00,AAXX 05124 41891 01930 03003 10200 20140 30124 40164 70500 333 10243 58002 70000==
41891,2023,01,05,18,00,AAXX 05184 41891 01925 00000 10168 20160 30140 40180 71000 333 58002 70000==
41891,2023,01,05,21,00,AAXX 05214 41891 01902 00000 10160 20160 30137 40178 74540 89/// 333 59005 70000==
41895,2022,12,30,00,00,AAXX 30004 41895 01950 00000 10117 20110 30156 40180 70500 333 59001 70000==
41895,2022,12,30,03,00,AAXX 30034 41895 01930 03601 10146 20140 30181 40204 71000 333 20112 58010 70000==
41895,2022,12,30,06,00,AAXX 30064 41895 01450 23102 10210 20150 30171 40194 70510 82500 333 58006 70000 82616==
41895,2022,12,30,09,00,AAXX 30094 41895 01456 20504 10228 20140 30139 40162 70511 82500 333 58010 70000 82617==
41895,2022,12,30,12,00,AAXX 30124 41895 01950 00000 10195 20160 30143 40166 70510 333 10235 58003 70000==
41895,2022,12,30,15,00,AAXX 30154 41895 01950 00000 10151 20150 30153 40177 70500 333 59004 70000==
41895,2022,12,30,18,00,AAXX 30184 41895 01950 00501 10140 20130 30154 40178 70500 333 59012 70000==
41895,2022,12,31,03,00,AAXX 31034 41895 01920 00501 10135 20135 30175 40198 71040 333 20115 59006 70000==
41895,2022,12,31,06,00,AAXX 31064 41895 01956 01302 10205 20150 30170 40193 70540 333 59001 70000==
41895,2022,12,31,09,00,AAXX 31094 41895 01956 03102 10232 20140 30132 40155 70500 333 59007 70000==
41895,2022,12,31,12,00,AAXX 31124 41895 01950 00000 10184 20150 30136 40160 70500 333 10234 59007 70000==
41895,2022,12,31,15,00,AAXX 31154 41895 01950 00000 10160 20150 30164 40188 70500 333 58011 70000==
41895,2022,12,31,18,00,AAXX 31184 41895 01950 00000 10146 20140 30155 40179 70500 333 58001 70000==
41895,2022,12,31,21,00,AAXX 31214 41895 31940 00000 10143 20130 30160 40184 70500 333 58008 70000=
41895,2023,01,01,00,00,AAXX 01004 41895 01908 00000 10140 20140 30162 40186 74240 333 58012 70000==
41895,2023,01,01,03,00,AAXX 01034 41895 01902 00502 10146 20146 30186 40210 74740 89/// 333 20130 58011 70000==
41895,2023,01,01,06,00,AAXX 01064 41895 01440 83602 10170 20160 30181 40204 71042 8452/ 333 58011 70000 84615 88458==
41895,2023,01,01,09,00,AAXX 01094 41895 01450 23602 10216 20170 30155 40178 70521 82500 333 58023 70000 82617==
41895,2023,01,01,12,00,AAXX 01124 41895 01950 00000 10176 20150 30152 40175 70510 333 10220 58016 70000==
41895,2023,01,01,15,00,AAXX 01154 41895 01950 00000 10150 20140 30167 40191 70500 333 58003 70000==
41895,2023,01,01,18,00,AAXX 01184 41895 01940 00000 10134 20120 30171 40195 70500 333 58016 70000==
41895,2023,01,01,21,00,AAXX 01214 41895 01940 00000 10124 20110 30169 40193 70500 333 58009 70000==
41895,2023,01,02,00,00,AAXX 02004 41895 01940 00000 10118 20118 30161 40185 70500 333 59001 70000==
41895,2023,01,02,03,00,AAXX 02034 41895 01950 03602 10154 20140 30186 40209 70500 333 20110 58000 70000==
41895,2023,01,02,06,00,AAXX 02064 41895 01956 03603 10218 20160 30179 40202 70500 333 59002 70000==
41895,2023,01,02,09,00,AAXX 02094 41895 01956 00504 10235 20150 30159 40182 70500 333 58004 70000==
41895,2023,01,02,12,00,AAXX 02124 41895 01950 00000 10190 20160 30160 40183 70500 333 10240 58008 70000==
41895,2023,01,02,15,00,AAXX 02154 41895 01950 03102 10170 20150 30180 40204 70500 333 58013 70000==
41895,2023,01,02,18,00,AAXX 02184 41895 01950 03102 10145 20145 30184 40208 70500 333 58013 70000==
41895,2023,01,02,21,00,AAXX 02214 41895 01950 03102 10142 20142 30177 40201 70500 333 58008 70000==
41895,2023,01,03,00,00,AAXX 03004 41895 01950 03102 10140 20140 30173 40196 70500 333 58012 70000==
41895,2023,01,03,03,00,AAXX 03034 41895 01903 03602 10137 20137 30201 40224 74740 89/// 333 20135 58015 70000==
41895,2023,01,03,06,00,AAXX 03064 41895 01430 83104 10150 20140 30190 40213 71042 8452/ 333 58011 70000 84615 88458==
41895,2023,01,03,09,00,AAXX 03094 41895 01450 83603 10166 20140 30154 40177 70522 8452/ 333 59005 70000 84615 88458==
41895,2023,01,03,12,00,AAXX 03124 41895 01950 00000 10146 20140 30148 40171 70510 333 10172 59012 70000==
41895,2023,01,03,15,00,AAXX 03154 41895 01940 00000 10121 20120 30172 40196 70500 333 59008 70000==
41895,2023,01,03,18,00,AAXX 03184 41895 01940 00000 10116 20116 30177 40201 70500 333 59007 70000==
41895,2023,01,03,21,00,AAXX 03214 41895 01930 02702 10130 20130 30168 40191 71000 333 59009 70000==
41895,2023,01,04,00,00,AAXX 04004 41895 01930 02703 10130 20130 30163 40186 71000 333 59010 70000==
41895,2023,01,04,03,00,AAXX 04034 41895 01430 83603 10128 20128 30198 40222 71020 8452/ 333 20109 59003 70000 84615 88458==
41895,2023,01,04,06,00,AAXX 04064 41895 01450 83105 10140 20120 30193 40217 70522 8452/ 333 58003 70000 84615 88458==
41895,2023,01,04,09,00,AAXX 04094 41895 01956 03103 10174 20120 30158 40182 70520 333 58004 70000==
41895,2023,01,04,12,00,AAXX 04124 41895 01950 00000 10154 20130 30156 40180 70500 333 10176 58008 70000==
41895,2023,01,04,15,00,AAXX 04154 41895 01950 00000 10140 20130 30169 40193 70500 333 59003 70000==
41895,2023,01,04,18,00,AAXX 04184 41895 01940 03101 10120 20110 30178 40202 70500 333 58001 70000==
41895,2023,01,04,21,00,AAXX 04214 41895 01940 00000 10114 20100 30173 40197 70500 333 58005 70000==
41895,2023,01,05,00,00,AAXX 05004 41895 01940 03601 10110 20110 30178 40202 70500 333 58015 70000==
41895,2023,01,05,03,00,AAXX 05034 41895 01430 83603 10120 20110 30201 40225 71020 8452/ 333 20100 58003 70000 84615 88458==
41895,2023,01,05,06,00,AAXX 05064 41895 01450 83604 10144 20120 30200 40224 70522 8452/ 333 58007 70000 84615 88458==
41895,2023,01,05,09,00,AAXX 05094 41895 01956 03604 10204 20120 30165 40188 70520 333 58007 70000==
41895,2023,01,05,12,00,AAXX 05124 41895 01950 03602 10170 20130 30162 40186 70500 333 10206 58006 70000==
41895,2023,01,05,15,00,AAXX 05154 41895 01940 03101 10144 20120 30178 40202 70500 333 58009 70000==
41895,2023,01,05,18,00,AAXX 05184 41895 01940 03601 10120 20110 30187 40211 70500 333 58009 70000==
41895,2023,01,05,21,00,AAXX 05214 41895 01940 03603 10114 20110 30185 40209 70500 333 58012 70000==
41897,2022,12,30,00,00,AAXX 30004 41897 31907 00000 10135 20135 30178 40191 74042 333 58011 70000=
41897,2022,12,30,06,00,AAXX 30064 41897 31920 00000 10157 20150 30183 40196 71042 333 58012 70000=
41897,2022,12,30,12,00,AAXX 30124 41897 31925 00000 10172 20160 30152 40165 70500 333 10210 58004 70000=
41897,2022,12,31,00,00,AAXX 31004 41897 31906 00000 10134 20130 30163 40176 74042 333 59015 70000=
41897,2022,12,31,06,00,AAXX 31064 41897 31920 00000 10170 20150 30130 40143 71042 333 59033 70000=
41897,2022,12,31,12,00,AAXX 31124 41897 31925 00000 10175 20170 30145 40158 70500 333 59007 70000=
41897,2023,01,01,00,00,AAXX 01004 41897 31904 00000 10128 20128 30171 40184 74042 333 58008 70000=
41897,2023,01,01,06,00,AAXX 01064 41897 31918 00000 10170 20150 30189 40202 71042 333 58022 70000=
41897,2023,01,01,12,00,AAXX 01124 41897 31925 00000 10172 20170 30165 40178 70500 333 10210 58020 70000=
41897,2023,01,01,18,00,AAXX 01184 41897 31906 03602 10132 20130 30177 40191 74244 333 59002 70000=
41897,2023,01,02,06,00,AAXX 02064 41897 31930 03602 10220 20140 30189 40202 70500 333 58000 70000=
41897,2023,01,02,12,00,AAXX 02124 41897 31930 03601 10185 20150 30168 40182 70500 333 10245 58003 70000=
41897,2023,01,02,18,00,AAXX 02184 41897 31925 03602 10160 20140 30188 40202 70500 333 58011 70000=
41897,2023,01,03,00,00,AAXX 03004 41897 31910 03602 10130 20130 30185 40199 74244 333 58010 70000=
41897,2023,01,03,06,00,AAXX 03064 41897 31920 03602 10150 20140 30200 40214 70540 333 58011 70000=
41897,2023,01,03,12,00,AAXX 03124 41897 31920 03602 10145 20140 30163 40177 70500 333 10166 59005 70000=
41897,2023,01,03,18,00,AAXX 03184 41897 31910 03602 10120 20120 30182 40196 71044 333 59006 70000=
41897,2023,01,04,00,00,AAXX 04004 41897 31906 03602 10122 20120 30184 40197 74244 333 59001 70000=
41897,2023,01,04,06,00,AAXX 04064 41897 31430 63602 10140 20120 30200 40214 70540 333 58000 70000=
41897,2023,01,04,12,00,AAXX 04124 41897 31425 50000 10150 20130 30167 40180 70522 81530 333 10167 58004 70000 81617 85361=
41897,2023,01,05,00,00,AAXX 05004 41897 31930 03602 10111 20100 30186 40200 70500 333 58002 70000=
41897,2023,01,05,06,00,AAXX 05064 41897 31940 03602 10146 20120 30201 40214 70500 333 58001 70000=
41897,2023,01,05,12,00,AAXX 05124 41897 31450 43601 10146 20140 30171 40184 70521 51530 333 10170 56990 58004 70000 81617 84361=
41897,2023,01,05,18,00,AAXX 05184 41897 31925 03601 10137 20130 30189 40202 70500 333 58009 70000=
41902,2022,12,30,00,00,AAXX 30004 41902 31408 43601 10148 20148 30167 40176 74444 82530 333 56990 58005 70000 82614 84362=
41902,2022,12,30,06,00,AAXX 30064 41902 31420 43601 10175 20150 30179 40188 71044 84500 333 56900 58012 70000 84614=
41902,2022,12,30,12,00,AAXX 30124 41902 31920 00105 10158 20150 30160 40169 71044 333 10192 58022 70000=
41902,2022,12,30,18,00,AAXX 30184 41902 31908 03601 10132 20130 30163 40172 74444 333 59006 70000=
41902,2022,12,31,00,00,AAXX 31004 41902 31/02 93601 10140 20140 30170 40179 74444 89/// 333 56999 58003 70000=
41902,2022,12,31,06,00,AAXX 31064 41902 31/06 92801 10168 20160 30179 40188 74544 89/// 333 56999 58000 70000=
41902,2022,12,31,12,00,AAXX 31124 41902 31907 00601 10170 20160 30154 40163 71044 333 10190 59006 70000=
41902,2022,12,31,18,00,AAXX 31184 41902 31905 03601 10140 20140 30163 40172 74444 333 58000 70000=
41902,2023,01,01,00,00,AAXX 01004 41902 NIL=
41902,2023,01,01,06,00,AAXX 01064 41902 31920 03501 10178 20160 30184 40193 70544 333 58005 70000=
41902,2023,01,01,12,00,AAXX 01124 41902 31908 00701 10172 20160 30163 40172 71044 333 10220 58009 70000=
41902,2023,01,01,18,00,AAXX 01184 41902 31907 00000 10140 20140 30172 40181 74544 333 58009 70000=
41902,2023,01,02,06,00,AAXX 02064 41902 31940 02801 10225 20150 30184 40193 70544 333 58000 70000=
41902,2023,01,02,12,00,AAXX 02124 41902 31420 33601 10192 20170 30169 40178 70544 333 83500 10245 56900 58006 70000 83614=
41902,2023,01,02,18,00,AAXX 02184 41902 31408 32801 10157 20155 30180 40189 71044 83500 333 56900 58008 70000 83614=
41902,2023,01,03,00,00,AAXX 03004 41902 31/02 93201 10132 20130 30175 40184 74444 89/// 333 56999 58001 70000=
41902,2023,01,03,06,00,AAXX 03064 41902 31930 02802 10172 20150 30182 40191 70544 333 59002 70000=
41902,2023,01,03,12,00,AAXX 03124 41902 31930 00000 10176 20160 30115 40164 70544 333 10241 59014 70000=
41902,2023,01,03,18,00,AAXX 03184 41902 31915 03301 10151 20150 30170 40179 71044 333 59010 70000=
41902,2023,01,04,00,00,AAXX 04004 41902 31905 03301 10137 20137 30178 40187 74444 333 58003 70000=
41902,2023,01,04,06,00,AAXX 04064 41902 31415 40000 10163 20150 30184 40193 71044 84500 333 56900 58002 70000 84613=
41902,2023,01,04,12,00,AAXX 04124 41902 31925 02702 10170 20150 30152 40161 71044 333 10217 59003 70000=
41902,2023,01,04,18,00,AAXX 04184 41902 31908 03302 10136 20136 30167 40176 74444 333 59003 70000=
41902,2023,01,05,00,00,AAXX 05004 41902 31/03 93302 10131 20130 30168 40177 74544 89/// 333 56999 59010 70000=
41902,2023,01,05,06,00,AAXX 05064 41902 31/05 93301 10150 20140 30190 40199 74544 89/// 333 56999 58006 70000=
41902,2023,01,05,12,00,AAXX 05124 41902 31920 02701 10163 20140 30150 40159 71044 333 10194 59002 70000=
41902,2023,01,05,18,00,AAXX 05184 41902 NIL=
41907,2022,12,30,00,00,AAXX 30004 41907 01902 00000 10120 20120 30161 40176 74544 89/// 333 58029 70000==
41907,2022,12,30,06,00,AAXX 30064 41907 01940 03602 10210 20150 30172 40187 70540 333 58013 70000==
41907,2022,12,30,09,00,AAXX 30094 41907 01945 00000 10232 20120 30142 40157 70500 333 58010 70000==
41907,2022,12,30,12,00,AAXX 30124 41907 01940 00000 10178 20160 30142 40157 70500 333 10233 58001 70000==
41907,2022,12,30,15,00,AAXX 30154 41907 01940 00000 10148 20140 30152 40167 70500 333 59011 70000==
41907,2022,12,30,18,00,AAXX 30184 41907 01940 00000 10140 20130 30158 40173 70500 333 59008 70000==
41907,2022,12,30,21,00,AAXX 30214 41907 01940 00000 10128 20120 30149 40164 70500 333 59014 70000==
41907,2022,12,31,00,00,AAXX 31004 41907 01904 00000 10132 20130 30151 40166 74540 89/// 333 59010 70000==
41907,2022,12,31,03,00,AAXX 31034 41907 01902 00000 10140 20140 30174 40189 74544 89/// 333 20124 59009 70000==
41907,2022,12,31,06,00,AAXX 31064 41907 01940 01302 10200 20160 30167 40183 70544 333 59005 70000==
41907,2022,12,31,09,00,AAXX 31094 41907 01940 00902 10225 20170 30134 40149 70500 333 59008 70000==
41907,2022,12,31,12,00,AAXX 31124 41907 01940 00000 10180 20170 30137 40152 70500 333 10232 59005 70000==
41907,2022,12,31,18,00,AAXX 31184 41907 01902 00000 10150 20150 30163 40178 74500 333 58005 70000==
41907,2022,12,31,21,00,AAXX 31214 41907 31/02 90000 10146 20146 30163 40178 74744 89/// 333 56999 58014 70000=
41907,2023,01,01,00,00,AAXX 01004 41907 01902 00000 10142 20140 30161 40177 74547 89/// 333 58011 70000==
41907,2023,01,01,03,00,AAXX 01034 41907 01903 00000 10140 20140 30187 40202 74544 89/// 333 20130 58013 70000==
41907,2023,01,01,06,00,AAXX 01064 41907 01940 03602 10180 20150 30181 40197 70540 333 58014 70000==
41907,2023,01,01,09,00,AAXX 01094 41907 01940 03102 10212 20160 30152 40167 70500 333 58018 70000==
41907,2023,01,01,12,00,AAXX 01124 41907 01940 00000 10170 20160 30154 40170 70500 333 10215 58017 70000==
41907,2023,01,01,15,00,AAXX 01154 41907 01915 00000 10145 20140 30171 40186 71000 333 58014 70000==
41907,2023,01,01,18,00,AAXX 01184 41907 01915 00000 10133 20130 30169 40184 71000 333 58006 70000==
41907,2023,01,01,21,00,AAXX 01214 41907 01915 00000 10128 20120 30160 40175 71000 333 59003 70000==
41907,2023,01,02,00,00,AAXX 02004 41907 01915 00000 10112 20110 30161 40177 71000 333 58000 70000==
41907,2023,01,02,03,00,AAXX 02034 41907 01915 03602 10135 20130 30183 40199 71044 333 20105 59004 70000==
41907,2023,01,02,06,00,AAXX 02064 41907 01940 03603 10220 20140 30176 40191 70540 333 59005 70000==
41907,2023,01,02,09,00,AAXX 02094 41907 01940 03602 10245 20140 30155 40170 70500 333 58003 70000==
41907,2023,01,02,12,00,AAXX 02124 41907 01940 00000 10182 20150 30158 40172 70500 333 10245 58004 70000==
41907,2023,01,02,15,00,AAXX 02154 41907 01940 03102 10165 20160 30178 40193 70500 333 58007 70000==
41907,2023,01,02,21,00,AAXX 02214 41907 01940 03102 10135 20130 30173 40189 70500 333 58013 70000==
41907,2023,01,03,00,00,AAXX 03004 41907 01915 03104 10139 20130 30170 40186 71000 333 58009 70000==
41907,2023,01,03,03,00,AAXX 03034 41907 01901 03104 10138 20130 30199 40215 74500 89/// 333 20125 58016 70000==
41907,2023,01,03,06,00,AAXX 03064 41907 01940 03605 10152 20140 30189 40205 70540 333 58013 70000==
41907,2023,01,03,09,00,AAXX 03094 41907 01910 03603 10164 20130 30159 40175 74344 89/// 333 58004 70000==
41907,2023,01,03,12,00,AAXX 03124 41907 01910 00000 10155 20140 30149 40165 74344 89/// 333 10164 59009 70000==
41907,2023,01,03,15,00,AAXX 03154 41907 01910 00000 10120 20100 30159 40175 74344 89/// 333 59019 70000==
41907,2023,01,03,18,00,AAXX 03184 41907 01908 00000 10112 20100 30167 40183 74344 89/// 333 59014 70000==
41907,2023,01,03,21,00,AAXX 03214 41907 01908 00000 10107 20100 30155 40170 74344 89/// 333 59018 70000==
41907,2023,01,04,00,00,AAXX 04004 41907 01906 00000 10104 20100 30145 40161 74344 89/// 333 59009 70000==
41907,2023,01,04,03,00,AAXX 04034 41907 01908 03103 10128 20120 30195 40210 74344 89/// 333 20100 59004 70000==
41907,2023,01,04,06,00,AAXX 04064 41907 01910 03102 10145 20130 30193 40208 71044 333 58004 70000==
41907,2023,01,04,09,00,AAXX 04094 41907 01910 03603 10160 20130 30159 40173 71000 333 59001 70000==
41907,2023,01,04,12,00,AAXX 04124 41907 01940 00000 10138 20130 30151 40166 70500 333 10164 58002 70000==
41907,2023,01,04,15,00,AAXX 04154 41907 01940 00000 10110 20100 30165 40180 70500 333 58006 70000==
41907,2023,01,04,18,00,AAXX 04184 41907 01940 00000 10123 20110 30171 40187 70500 333 58004 70000==
41907,2023,01,04,21,00,AAXX 04214 41907 01940 03602 10112 20110 30165 40180 70500 333 58010 70000==
41907,2023,01,05,00,00,AAXX 05004 41907 01940 03602 10098 20098 30170 40185 70500 333 58025 70000==
41907,2023,01,05,03,00,AAXX 05034 41907 01915 03102 10115 20110 30200 40216 71000 333 20095 58005 70000==
41907,2023,01,05,06,00,AAXX 05064 41907 31430 73104 10150 20110 30196 40211 70500 83510 333 56990 58003 70000 83615 87458=
41907,2023,01,05,09,00,AAXX 05094 41907 01940 03104 10190 20130 30155 40171 70522 333 59003 70000==
41907,2023,01,05,12,00,AAXX 05124 41907 01940 00000 10150 20130 30161 40176 70520 333 10192 58010 70000==
41907,2023,01,05,18,00,AAXX 05184 41907 01940 03602 10116 20110 30177 40192 70500 333 58006 70000==
41907,2023,01,05,21,00,AAXX 05214 41907 01940 03602 10115 20110 30171 40189 70500 333 58006 70000==
41909,2022,12,30,00,00,AAXX 30004 41909 01930 00000 10134 20130 30171 40183 70500 333 58011 70000==
41909,2022,12,30,03,00,AAXX 30034 41909 01940 00000 10148 20140 30192 40204 70500 333 20128 58012 70000==
41909,2022,12,30,06,00,AAXX 30064 41909 01940 00000 10187 20150 30189 40201 70500 333 58017 70000==
41909,2022,12,30,09,00,AAXX 30094 41909 02950 03101 10221 20150 30155 40167 333 58017 70000==
41909,2022,12,30,12,00,AAXX 30124 41909 01930 00000 10175 20150 30155 40167 70500 333 10224 58003 70000==
41909,2022,12,30,15,00,AAXX 30154 41909 01930 00000 10162 20150 30166 40178 70500 333 58006 70000==
41909,2022,12,30,18,00,AAXX 30184 41909 01930 00000 10162 20150 30166 40178 70500 333 58010 70000==
41909,2022,12,30,21,00,AAXX 30214 41909 01920 00000 10136 20130 30161 40173 70540 333 59010 70000==
41909,2022,12,31,00,00,AAXX 31004 41909 01930 00000 10162 20150 30166 40178 70500 333 59010 70000==
41909,2022,12,31,03,00,AAXX 31034 41909 01920 00000 10144 20130 30188 40200 70540 333 20128 59004 70000==
41909,2022,12,31,06,00,AAXX 31064 41909 01950 03101 10168 20150 30181 40193 70500 333 59008 70000==
41909,2022,12,31,09,00,AAXX 31094 41909 01950 00000 10209 20150 30147 40159 70500 333 59008 70000==
41909,2022,12,31,12,00,AAXX 31124 41909 01930 00000 10179 20160 30146 40158 70500 333 10212 59009 70000==
41909,2022,12,31,15,00,AAXX 31154 41909 01930 00000 10158 20150 30168 40180 70500 333 58003 70000==
41909,2022,12,31,18,00,AAXX 31184 41909 01930 00000 10145 20140 30166 40178 70500 333 58002 70000==
41909,2022,12,31,21,00,AAXX 31214 41909 01930 00000 10140 20140 30162 40174 70500 333 58001 70000==
41909,2023,01,01,00,00,AAXX 01004 41909 01908 00000 10138 20130 30164 40176 74440 333 58003 70000==
41909,2023,01,01,03,00,AAXX 01034 41909 01908 00000 10148 20140 30196 40208 74440 333 20134 58008 70000==
41909,2023,01,01,06,00,AAXX 01064 41909 01950 00000 10214 20150 30188 40200 70500 333 58007 70000==
41909,2023,01,01,09,00,AAXX 01094 41909 01950 00000 10237 20130 30159 40171 70500 333 58012 70000==
41909,2023,01,01,12,00,AAXX 01124 41909 01940 00000 10184 20160 30161 40173 70500 333 10246 58015 70000==
41909,2023,01,01,15,00,AAXX 01154 41909 01930 00000 10164 20150 30179 40191 70500 333 58011 70000==
41909,2023,01,01,18,00,AAXX 01184 41909 01920 00000 10152 20140 30176 40188 71000 333 58010 70000==
41909,2023,01,01,21,00,AAXX 01214 41909 01908 00000 10134 20130 30170 40182 74440 333 58006 70000==
41909,2023,01,02,00,00,AAXX 02004 41909 01902 00000 10129 20129 30167 40179 74744 89/// 333 58003 70000==
41909,2023,01,02,03,00,AAXX 02034 41909 01904 00000 10144 20140 30195 40207 74344 89/// 333 20125 59001 70000==
41909,2023,01,02,06,00,AAXX 02064 41909 01950 03101 10227 20150 30086 40098 70540 333 59002 70000==
41909,2023,01,02,09,00,AAXX 02094 41909 01950 03601 10246 20140 30163 40175 70500 333 58004 70000==
41909,2023,01,02,12,00,AAXX 02124 41909 01940 00000 10182 20160 30167 40179 70500 333 10250 58006 70000==
41909,2023,01,02,15,00,AAXX 02154 41909 01930 00000 10158 20150 30186 40198 70500 333 58007 70000==
41909,2023,01,02,18,00,AAXX 02184 41909 01940 00000 10152 20140 30186 40198 70500 333 58010 70000==
41909,2023,01,02,21,00,AAXX 02214 41909 01906 00000 10149 20140 30181 40193 74644 333 58011 70000==
41909,2023,01,03,00,00,AAXX 03004 41909 01904 03601 10144 20140 30177 40189 74744 89/// 333 58010 70000==
41909,2023,01,03,03,00,AAXX 03034 41909 01908 03602 10150 20140 30202 40214 74744 89/// 333 20140 58007 70000==
41909,2023,01,03,06,00,AAXX 03064 41909 01908 03601 10163 20140 30196 40208 74544 89/// 333 58010 70000==
41909,2023,01,03,09,00,AAXX 03094 41909 01315 83102 10179 20150 30165 40177 72844 8762/ 333 58002 70000 86708 88458==
41909,2023,01,03,12,00,AAXX 03124 41909 01920 00000 10159 20150 30160 40172 70544 333 10185 59007 70000==
41909,2023,01,03,15,00,AAXX 03154 41909 01920 00000 10144 20130 30180 40192 70544 333 59006 70000==
41909,2023,01,03,18,00,AAXX 03184 41909 01920 00000 10137 20130 30181 40193 70544 333 59005 70000==
41909,2023,01,03,21,00,AAXX 03214 41909 01905 00000 10136 20130 30176 40188 74644 333 59005 70000==
41909,2023,01,04,00,00,AAXX 04004 41909 01903 00000 10134 20130 30175 40187 74744 89/// 333 59002 70000==
41909,2023,01,04,03,00,AAXX 04034 41909 01906 00000 10141 20130 30199 40211 74744 89/// 333 20130 59003 70000==
41909,2023,01,04,06,00,AAXX 04064 41909 01908 03201 10148 20140 30196 40208 74544 89/// 333 58000 70000==
41909,2023,01,04,09,00,AAXX 04094 41909 01315 83101 10165 20130 30166 40178 72844 8762/ 333 58001 70000 86708 88458==
41909,2023,01,04,12,00,AAXX 04124 41909 01920 00000 10155 20130 30158 40170 70540 333 10165 59002 70000==
41909,2023,01,04,15,00,AAXX 04154 41909 01930 00000 10136 20130 30177 41089 70540 333 59003 70000==
41909,2023,01,04,18,00,AAXX 04184 41909 01930 00000 10130 20120 30179 40191 70544 333 59002 70000==
41909,2023,01,04,21,00,AAXX 04214 41909 01930 00000 10127 20120 30178 40190 70544 333 58002 70000==
41909,2023,01,05,00,00,AAXX 05004 41909 01930 03101 10125 20110 30177 40179 70544 333 58002 70000==
41909,2023,01,05,03,00,AAXX 05034 41909 01930 03202 10125 20110 30202 40214 70544 333 20120 58003 70000==
41909,2023,01,05,06,00,AAXX 05064 41909 01350 83202 10145 20130 30202 40214 70544 8762/ 333 58006 70000 86708 88458==
41909,2023,01,05,09,00,AAXX 05094 41909 01950 00000 10184 20120 30171 40183 70544 333 58005 70000==
41909,2023,01,05,12,00,AAXX 05124 41909 01930 00000 10150 20130 30168 40180 70544 333 10186 58010 70000==
41909,2023,01,05,15,00,AAXX 05154 41909 01930 00000 10129 20120 30178 40190 70544 333 58001 70000==
41909,2023,01,05,18,00,AAXX 05184 41909 01930 00000 10125 20120 30181 40193 70544 333 58002 70000==
41909,2023,01,05,21,00,AAXX 05214 41909 01930 00000 10120 20120 30174 40186 70544 333 59004 70000==
41915,2022,12,30,00,00,AAXX 30004 41915 01900 00000 10143 20130 30150 40177 74744 89/// 333 58000 70000==
41915,2022,12,30,03,00,AAXX 30034 41915 01900 00000 10139 20130 30178 40205 74444 89/// 333 20112 58010 70000==
41915,2022,12,30,06,00,AAXX 30064 41915 01902 00000 10168 20150 30169 40196 74344 89/// 333 58013 70000==
41915,2022,12,30,09,00,AAXX 30094 41915 01/20 80000 10180 20150 30155 40181 70540 88020 333 58017 70000==
41915,2022,12,30,12,00,AAXX 30124 41915 02945 00000 10160 20140 30146 40173 333 10213 58000 70000==
41915,2022,12,30,15,00,AAXX 30154 41915 02940 00000 10120 20110 30160 40187 333 58000 70000==
41915,2022,12,30,18,00,AAXX 30184 41915 02940 00000 10110 20110 30156 40183 333 59004 70000==
41915,2022,12,30,21,00,AAXX 30214 41915 02940 00000 10109 20100 30154 40181 333 58011 70000==
41915,2022,12,31,00,00,AAXX 31004 41915 02930 00000 10105 20110 30140 40167 333 59010 70000==
41915,2022,12,31,03,00,AAXX 31034 41915 42900 00000 10140 20093 30182 40208 58030 89///==
41915,2022,12,31,06,00,AAXX 31064 41915 01440 40000 10175 20160 30167 40193 70544 84500 333 59002 70000 84616==
41915,2022,12,31,09,00,AAXX 31094 41915 02956 00000 10202 20150 30141 40167 333 59014 70000==
41915,2022,12,31,12,00,AAXX 31124 41915 02950 00000 10170 20150 30137 40166 333 10215 59007 70000==
41915,2022,12,31,15,00,AAXX 31154 41915 02940 00000 10125 20120 30161 40188 333 58001 70000==
41915,2022,12,31,18,00,AAXX 31184 41915 01908 00000 10118 20120 30165 40192 74340 89/// 333 58009 70000==
41915,2022,12,31,21,00,AAXX 31214 41915 31/06 90000 10126 20120 30161 40187 74544 89/// 333 58007 70000=
41915,2023,01,01,00,00,AAXX 01004 41915 01900 00000 10122 20120 30165 40192 74744 89/// 333 58025 70000==
41915,2023,01,01,03,00,AAXX 01034 41915 01906 00000 10146 20140 30188 40214 74544 89/// 333 20100 58006 70000==
41915,2023,01,01,06,00,AAXX 01064 41915 02956 00000 10198 20160 30068 40202 333 58009 70000==
41915,2023,01,01,09,00,AAXX 01094 41915 02956 00000 10239 20110 30150 40176 333 58009 70000==
41915,2023,01,01,12,00,AAXX 01124 41915 02950 00000 10174 20140 30151 40177 333 10245 58012 70000==
41915,2023,01,01,15,00,AAXX 01154 41915 02940 00000 10133 20120 30167 40194 333 58006 70000==
41915,2023,01,01,18,00,AAXX 01184 41915 02940 00000 10120 20120 30165 40192 333 58000 70000==
41915,2023,01,01,21,00,AAXX 01214 41915 02940 00000 10110 20100 30163 40189 333 58002 70000==
41915,2023,01,02,00,00,AAXX 02004 41915 01901 00000 10108 20110 30162 40188 74744 89/// 333 59003 70000==
41915,2023,01,02,03,00,AAXX 02034 41915 02956 00000 10160 20150 30186 40212 333 20095 59002 70000==
41915,2023,01,02,06,00,AAXX 02064 41915 02956 00000 10240 20130 30174 40200 333 59002 70000==
41915,2023,01,02,09,00,AAXX 02094 41915 02956 00000 10250 20180 30150 40176 333 58000 70000==
41915,2023,01,02,12,00,AAXX 02124 41915 02950 00000 10187 20150 30156 40182 333 10265 58005 70000==
41915,2023,01,02,15,00,AAXX 02154 41915 01940 00000 10140 20130 30174 40201 70500 333 58007 70000==
41915,2023,01,02,18,00,AAXX 02184 41915 01940 00000 10122 20110 30183 40218 70500 333 58018 70000==
41915,2023,01,02,21,00,AAXX 02214 41915 01940 00000 10100 20090 30166 40193 70500 333 58003 70000==
41915,2023,01,03,00,00,AAXX 03004 41915 01920 00000 10090 20080 30167 40194 71040 333 58005 70000==
41915,2023,01,03,03,00,AAXX 03034 41915 01950 00000 10145 20140 30186 40212 72844 333 20085 58000 70000==
41915,2023,01,03,06,00,AAXX 03064 41915 01956 03101 10235 20150 30171 40197 70500 333 59003 70000==
41915,2023,01,03,09,00,AAXX 03094 41915 02956 03001 10252 20180 30134 40159 333 59016 70000==
41915,2023,01,03,12,00,AAXX 03124 41915 02950 00000 10185 20170 30143 40169 333 10260 59013 70000==
41915,2023,01,03,15,00,AAXX 03154 41915 02940 02401 10135 20130 30160 40187 333 59014 70000==
41915,2023,01,03,18,00,AAXX 03184 41915 02940 03001 10121 20110 30164 40191 333 59019 70000==
41915,2023,01,03,21,00,AAXX 03214 41915 01940 00000 10140 20140 30156 40183 70500 333 59010 70000==
41915,2023,01,04,00,00,AAXX 04004 41915 01930 00000 10095 20090 30166 40193 71040 333 59001 70000==
41915,2023,01,04,03,00,AAXX 04034 41915 02908 03102 10146 20146 30187 40213 89/// 333 20090 58001 70000==
41915,2023,01,04,06,00,AAXX 04064 41915 01435 80000 10170 20140 30174 40200 70544 8452/ 333 58003 70000 84615 88458==
41915,2023,01,04,09,00,AAXX 04094 41915 02956 03101 10223 20130 30140 40166 333 58006 70000==
41915,2023,01,04,12,00,AAXX 04124 41915 01950 00000 10180 20160 30139 40165 70520 333 10230 59004 70000==
41915,2023,01,04,15,00,AAXX 04154 41915 01920 00000 10140 20130 30154 40181 71040 333 59006 70000==
41915,2023,01,04,18,00,AAXX 04184 41915 01901 00000 10135 20135 30163 40190 74640 333 59001 70000==
41915,2023,01,04,21,00,AAXX 04214 41915 01901 00000 10138 20138 30158 40185 74544 89/// 333 58002 70000==
41915,2023,01,05,00,00,AAXX 05004 41915 01902 00000 10140 20140 30160 40186 74344 89/// 333 59006 70000==
41915,2023,01,05,03,00,AAXX 05034 41915 01/05 80000 10146 20146 30187 40214 74244 8802/ 333 20117 58000 70000 88458==
41915,2023,01,05,06,00,AAXX 05064 41915 01456 70000 10180 20140 30176 40203 70142 84610 333 58002 70000 84616 84458==
41915,2023,01,05,09,00,AAXX 05094 41915 02956 03402 10228 20170 30149 40174 333 58009 70000==
41915,2023,01,05,12,00,AAXX 05124 41915 01940 03102 10185 20170 30146 40172 70520 333 10235 58007 70000==
41915,2023,01,05,15,00,AAXX 05154 41915 01915 00000 10147 20147 30164 40191 71040 333 58010 70000==
41915,2023,01,05,18,00,AAXX 05184 41915 01912 00000 10139 20139 30159 40186 71040 333 59004 70000==
41915,2023,01,05,21,00,AAXX 05214 41915 01908 00000 10128 20128 30156 40183 74644 333 59002 70000==
41923,2022,12,30,00,00,AAXX 30004 41923 01920 00000 10152 20150 30174 40184 71000 333 58007 70000==
41923,2022,12,30,03,00,AAXX 30034 41923 NIL=
41923,2022,12,30,06,00,AAXX 30064 41923 01430 33602 10203 20140 30185 40195 70500 82530 333 58009 70000 82616==
41923,2022,12,30,09,00,AAXX 30094 41923 01430 32702 10218 20140 30158 40168 70511 81530 333 58009 70000 81615 83365==
41923,2022,12,30,12,00,AAXX 30124 41923 01930 00000 10188 20140 30160 40170 70510 333 10222 58003 70000==
41923,2022,12,30,15,00,AAXX 30154 41923 01930 00000 10160 20150 30173 40183 70500 333 59005 70000==
41923,2022,12,30,18,00,AAXX 30184 41923 01930 00000 10149 20140 30169 40179 70500 333 59009 70000==
41923,2022,12,30,21,00,AAXX 30214 41923 01920 00000 10144 20130 30166 40176 71000 333 59005 70000==
41923,2022,12,31,00,00,AAXX 31004 41923 01920 00000 10140 20140 30168 40178 71000 333 59006 70000==
41923,2022,12,31,03,00,AAXX 31034 41923 NIL=
41923,2022,12,31,06,00,AAXX 31064 41923 01935 00000 10214 20130 30178 40188 70500 333 59007 70000==
41923,2022,12,31,09,00,AAXX 31094 41923 01940 00000 10222 20130 30152 40162 70500 333 59006 70000==
41923,2022,12,31,12,00,AAXX 31124 41923 01/35 20000 10184 20140 30154 40164 70500 82030 333 10226 59006 70000 82362==
41923,2022,12,31,18,00,AAXX 31184 41923 01925 00000 10154 20140 30178 40188 71000 333 58009 70000==
41923,2022,12,31,21,00,AAXX 31214 41923 31920 00000 10148 20140 30180 40190 71000 333 58014 70000=
41923,2023,01,01,00,00,AAXX 01004 41923 01920 00000 10142 20140 30176 40186 71000 333 58008 70000==
41923,2023,01,01,03,00,AAXX 01034 41923 01930 00000 10159 20150 30202 40212 70500 333 20140 58009 70000==
41923,2023,01,01,06,00,AAXX 01064 41923 01940 03404 10220 20140 30192 40202 70500 333 58014 70000==
41923,2023,01,01,09,00,AAXX 01094 41923 01940 00000 10238 20130 30162 40172 70500 333 58010 70000==
41923,2023,01,01,12,00,AAXX 01124 41923 01930 00000 10194 20140 30165 40175 70500 333 10244 58011 70000==
41923,2023,01,01,15,00,AAXX 01154 41923 01930 00000 10168 20150 30182 40192 70500 333 58008 70000==
41923,2023,01,01,18,00,AAXX 01184 41923 01930 00000 10158 20150 30178 40188 70500 333 58000 70000==
41923,2023,01,01,21,00,AAXX 01214 41923 01925 00000 10154 20140 30176 40186 71000 333 59004 70000==
41923,2023,01,02,00,00,AAXX 02004 41923 01920 00000 10148 20140 30170 40180 71000 333 59006 70000==
41923,2023,01,02,03,00,AAXX 02034 41923 01930 00000 10196 20120 30198 40208 70500 333 20147 59004 70000==
41923,2023,01,02,06,00,AAXX 02064 41923 01950 00000 10240 20120 30188 40198 70500 333 59004 70000==
41923,2023,01,02,09,00,AAXX 02094 41923 01950 00000 10259 20110 30166 40175 70500 333 59004 70000==
41923,2023,01,02,12,00,AAXX 02124 41923 01940 00000 10198 20130 30173 40183 70500 333 10260 58008 70000==
41923,2023,01,02,15,00,AAXX 02154 41923 01935 00000 10170 20140 30190 40200 70500 333 58008 70000==
41923,2023,01,02,18,00,AAXX 02184 41923 NIL=
41923,2023,01,02,21,00,AAXX 02214 41923 01930 00000 10155 20150 30184 40194 70500 333 58008 70000==
41923,2023,01,03,00,00,AAXX 03004 41923 01930 00000 10148 20140 30177 40187 70500 333 58007 70000==
41923,2023,01,03,03,00,AAXX 03034 41923 01430 32602 10160 20140 30207 40217 70500 82530 333 20145 58009 70000 82616==
41923,2023,01,03,06,00,AAXX 03064 41923 01430 42402 10183 20140 30195 40205 70510 82530 333 58007 70000 82616 83360==
41923,2023,01,03,09,00,AAXX 03094 41923 01430 43004 10186 20150 30165 40175 70511 82530 333 59001 70000 82616 83360==
41923,2023,01,03,12,00,AAXX 03124 41923 01430 32702 10172 20150 30168 40178 70510 82530 333 10196 59005 70000 82616==
41923,2023,01,03,15,00,AAXX 03154 41923 31930 00000 10154 20130 30183 40193 70540 333 59007 70000=
41923,2023,01,03,18,00,AAXX 03184 41923 01920 00000 10150 20140 30185 40195 71044 333 59006 70000==
41923,2023,01,03,21,00,AAXX 03214 41923 01920 00000 10146 20140 30176 40186 71044 333 59008 70000==
41923,2023,01,04,00,00,AAXX 04004 41923 01915 00000 10142 20130 30181 40191 71044 333 58004 70000==
41923,2023,01,04,03,00,AAXX 04034 41923 01915 00000 10146 20140 30206 40216 71044 333 20141 59001 70000==
41923,2023,01,04,06,00,AAXX 04064 41923 01909 00000 10154 20130 30195 40205 74144 89/// 333 58000 70000==
41923,2023,01,04,09,00,AAXX 04094 41923 01912 03302 10165 20140 30167 40177 71044 333 58002 70000==
41923,2023,01,04,12,00,AAXX 04124 41923 01412 82702 10153 20130 30164 40174 71042 8532/ 333 10170 59004 70000 85614 88460 81930==
41923,2023,01,04,15,00,AAXX 04154 41923 01415 82702 10147 20130 30180 40190 71022 8532/ 333 59005 70000 85614 88460 81930==
41923,2023,01,04,18,00,AAXX 04184 41923 01930 02702 10142 20130 30183 40193 70520 333 58007 70000==
41923,2023,01,04,21,00,AAXX 04214 41923 01430 82702 10134 20120 30176 40186 70521 8532/ 333 58000 70000 85614 88460 81930==
41923,2023,01,05,00,00,AAXX 05004 41923 01430 82702 10127 20120 30179 40189 70521 8532/ 333 59002 70000 85614 88460 81930==
41923,2023,01,05,03,00,AAXX 05034 41923 01907 00000 10138 20130 30208 40218 74142 89/// 333 20125 58002 70000==
41923,2023,01,05,06,00,AAXX 05064 41923 31/09 92402 10152 20130 30200 40210 74142 89/// 333 56999 58005 70000=
41923,2023,01,05,09,00,AAXX 05094 41923 01930 02402 10194 20130 30168 40178 70540 333 58001 70000==
41923,2023,01,05,12,00,AAXX 05124 41923 01920 02702 10174 20140 30168 40178 71044 333 10202 58004 70000==
41923,2023,01,05,15,00,AAXX 05154 41923 01920 00000 10150 20120 30184 40194 71000 333 58004 70000==
41923,2023,01,05,18,00,AAXX 05184 41923 01920 02703 10146 20130 30181 40191 71000 333 59002 70000==
41923,2023,01,05,21,00,AAXX 05214 41923 01915 02703 10134 20110 30169 40179 71000 333 59007 70000==
41926,2022,12,30,00,00,AAXX 30004 41926 01920 00000 10102 20100 30165 40180 71000 333 59002 70000==
41926,2022,12,30,03,00,AAXX 30034 41926 01925 00000 10136 20130 30184 40198 71000 333 20098 58005 70000==
41926,2022,12,30,06,00,AAXX 30064 41926 01940 00000 10214 20150 30177 40191 71000 333 58005 70000==
41926,2022,12,30,09,00,AAXX 30094 41926 01950 00000 10220 20160 30150 40164 70500 333 58007 70000==
41926,2022,12,30,12,00,AAXX 30124 41926 01950 00000 10172 20150 30151 40165 70500 333 10232 58001 70000==
41926,2022,12,30,15,00,AAXX 30154 41926 01950 00000 10140 20130 30158 40172 70500 333 59014 70000==
41926,2022,12,30,18,00,AAXX 30184 41926 01940 00000 10125 20120 30159 40174 70500 333 59006 70000==
41926,2022,12,30,21,00,AAXX 30214 41926 01930 00000 10115 20110 30155 40169 71000 333 59011 70000==
41926,2022,12,31,00,00,AAXX 31004 41926 01920 00000 10107 20107 30158 40172 71000 333 59007 70000==
41926,2022,12,31,03,00,AAXX 31034 41926 01/08 20000 10135 20135 30185 40199 74240 82030 333 20105 58001 70000 82362==
41926,2022,12,31,06,00,AAXX 31064 41926 01950 00000 10223 20130 30173 40187 70540 333 59004 70000==
41926,2022,12,31,09,00,AAXX 31094 41926 01950 00000 10238 20140 30138 40152 70500 333 59012 70000==
41926,2022,12,31,12,00,AAXX 31124 41926 01950 00000 10207 20170 30136 40150 70500 333 10245 59015 70000==
41926,2022,12,31,15,00,AAXX 31154 41926 01930 00000 10154 20140 30156 40170 71000 333 59002 70000==
41926,2022,12,31,18,00,AAXX 31184 41926 01920 00000 10151 20140 30159 40173 71000 333 58000 70000==
41926,2022,12,31,21,00,AAXX 31214 41926 31920 00000 10145 20140 30161 40175 71000 333 58006 70000=
41926,2023,01,01,00,00,AAXX 01004 41926 01905 00000 10140 20140 30163 40177 74440 333 58005 70000==
41926,2023,01,01,03,00,AAXX 01034 41926 01908 00000 10145 20145 30186 40200 74244 333 20130 58001 70000==
41926,2023,01,01,06,00,AAXX 01064 41926 01430 50000 10204 20140 30174 40187 70542 85500 333 58001 70000 85618==
41926,2023,01,01,09,00,AAXX 01094 41926 01440 20000 10227 20160 30155 40169 70520 82500 333 58017 70000 82618==
41926,2023,01,01,12,00,AAXX 01124 41926 01940 00000 10185 20170 30154 40168 70500 333 10235 58018 70000==
41926,2023,01,01,15,00,AAXX 01154 41926 01930 00000 10161 20150 30169 40183 71000 333 58013 70000==
41926,2023,01,01,18,00,AAXX 01184 41926 01930 00000 10137 20130 30168 40182 71000 333 58009 70000==
41926,2023,01,01,21,00,AAXX 01214 41926 01930 00000 10123 20110 30165 40179 71000 333 58004 70000==
41926,2023,01,02,00,00,AAXX 02004 41926 01908 00000 10117 20117 30164 40178 74200 333 58001 70000==
41926,2023,01,02,03,00,AAXX 02034 41926 01930 00000 10142 20140 30193 40208 71040 333 20112 58007 70000==
41926,2023,01,02,06,00,AAXX 02064 41926 01950 03601 10220 20140 30186 40200 70540 333 58012 70000==
41926,2023,01,02,09,00,AAXX 02094 41926 01950 03601 10240 20170 30160 40174 70500 333 58005 70000==
41926,2023,01,02,12,00,AAXX 02124 41926 01950 00000 10186 20170 30160 40174 70500 333 10245 58006 70000==
41926,2023,01,02,15,00,AAXX 02154 41926 01940 00000 10156 20140 30178 40192 70500 333 58009 70000==
41926,2023,01,02,18,00,AAXX 02184 41926 01930 00000 10148 20140 30182 40196 71000 333 58014 70000==
41926,2023,01,02,21,00,AAXX 02214 41926 01920 00000 10143 20130 30176 40190 71000 333 58011 70000==
41926,2023,01,03,00,00,AAXX 03004 41926 01908 00000 10138 20138 30174 40188 71000 333 58010 70000==
41926,2023,01,03,03,00,AAXX 03034 41926 01905 03602 10133 20130 30208 40222 74544 89/// 333 20133 58015 70000==
41926,2023,01,03,06,00,AAXX 03064 41926 01905 03602 10150 20150 30198 40212 74544 89/// 333 58012 70000==
41926,2023,01,03,09,00,AAXX 03094 41926 01430 83603 10161 20140 30165 40179 71044 8252/ 333 58005 70000 82617 88458==
41926,2023,01,03,12,00,AAXX 03124 41926 01430 80000 10153 20130 30162 40176 71000 8352/ 333 10166 58002 70000 83617 88458==
41926,2023,01,03,15,00,AAXX 03154 41926 01430 80000 10146 20140 30171 40185 71000 8152/ 333 59007 70000 81618 88459==
41926,2023,01,03,18,00,AAXX 03184 41926 01940 00000 10140 20130 30174 40188 70520 333 59008 70000==
41926,2023,01,03,21,00,AAXX 03214 41926 01940 00000 10135 20130 30172 40186 70500 333 59004 70000==
41926,2023,01,04,00,00,AAXX 04004 41926 01930 00000 10120 20110 30173 40187 71000 333 59001 70000==
41926,2023,01,04,03,00,AAXX 04034 41926 01908 03602 10124 20120 30203 40217 74544 89/// 333 20120 59005 70000==
41926,2023,01,04,06,00,AAXX 04064 41926 01415 83602 10142 20120 30200 40214 71042 8452/ 333 59002 70000 84618 88458==
41926,2023,01,04,09,00,AAXX 04094 41926 01440 83601 10153 20130 30169 40183 70542 8452/ 333 58004 70000 84618 88458==
41926,2023,01,04,12,00,AAXX 04124 41926 01440 80000 10140 20120 30158 40172 70522 8352/ 333 10157 59004 70000 83618 88458==
41926,2023,01,04,15,00,AAXX 04154 41926 01940 00000 10103 20090 30170 40184 70520 333 59001 70000==
41926,2023,01,04,18,00,AAXX 04184 41926 01930 00000 10092 20090 30175 40189 71000 333 58001 70000==
41926,2023,01,04,21,00,AAXX 04214 41926 01908 03602 10100 20090 30177 40191 74200 333 58005 70000==
41926,2023,01,05,00,00,AAXX 05004 41926 01905 03604 10104 20100 30179 40193 74544 89/// 333 58006 70000==
41926,2023,01,05,03,00,AAXX 05034 41926 01905 03603 10114 20100 30209 40223 74544 89/// 333 20092 58006 70000==
41926,2023,01,05,06,00,AAXX 05064 41926 01425 83603 10142 20110 30200 40214 71042 8452/ 333 58000 70000 84618 88458==
41926,2023,01,05,09,00,AAXX 05094 41926 01950 03601 10180 20130 30171 40185 70520 333 58002 70000==
41926,2023,01,05,12,00,AAXX 05124 41926 01940 00000 10155 20140 30167 40181 70500 333 10188 58009 70000==
41926,2023,01,05,15,00,AAXX 05154 41926 01940 03602 10137 20130 30174 40188 70500 333 58004 70000==
41926,2023,01,05,18,00,AAXX 05184 41926 01940 03601 10120 20110 30179 40193 70500 333 58004 70000==
41926,2023,01,05,21,00,AAXX 05214 41926 01940 00000 10110 20100 30175 40189 70500 333 59002 70000==
41927,2022,12,30,00,00,AAXX 30004 41927 31908 00000 10120 20120 30154 40170 74440 333 58003 70000=
41927,2022,12,30,06,00,AAXX 30064 41927 31940 00000 10185 20150 30173 40187 70540 333 58010 70000=
41927,2022,12,30,12,00,AAXX 30124 41927 31950 00000 10185 20170 30150 40165 70500 333 10225 58005 70000=
41927,2022,12,30,18,00,AAXX 30184 41927 31940 00000 10140 20130 30157 40172 70500 333 59006 70000=
41927,2022,12,31,00,00,AAXX 31004 41927 31/02 90000 10130 20130 30153 40168 74540 89/// 333 56999 59001 70000=
41927,2022,12,31,06,00,AAXX 31064 41927 31950 03401 10195 20160 30169 40184 70540 333 59004 70000=
41927,2022,12,31,12,00,AAXX 31124 41927 31950 00000 10190 20160 30139 40153 70500 333 10235 59011 70000=
41927,2023,01,01,00,00,AAXX 01004 41927 31908 00000 10138 20138 30156 40171 74440 333 58003 70000=
41927,2023,01,01,06,00,AAXX 01064 41927 31940 03601 10180 20150 30186 40201 70540 333 58017 70000=
41927,2023,01,01,12,00,AAXX 01124 41927 31950 00000 10175 20160 30158 40173 70500 333 10217 58019 70000=
41927,2023,01,02,00,00,AAXX 02004 41927 31905 00000 10130 20130 30159 40174 74640 333 58003 70000=
41927,2023,01,02,06,00,AAXX 02064 41927 31960 03601 10215 20140 30176 40190 70040 333 59010 70000=
41927,2023,01,02,12,00,AAXX 02124 41927 31950 00000 10188 20160 30161 40175 70500 333 10245 58003 70000=
41927,2023,01,02,18,00,AAXX 02184 41927 31940 00000 10140 20130 30184 40199 70500 333 58012 70000=
41927,2023,01,03,00,00,AAXX 03004 41927 31907 03601 10132 20130 30177 40192 74640 333 58018 70000=
41927,2023,01,03,06,00,AAXX 03064 41927 31920 03402 10150 20140 30189 40204 71044 333 58013 70000=
41927,2023,01,03,12,00,AAXX 03124 41927 31950 03602 10155 20140 30162 40177 70500 333 10172 58001 70000=
41927,2023,01,03,18,00,AAXX 03184 41927 31940 00000 10140 20130 30183 40198 70500 333 59001 70000=
41927,2023,01,04,00,00,AAXX 04004 41927 31920 03602 10120 20110 30172 40187 71000 333 59005 70000=
41927,2023,01,04,06,00,AAXX 04064 41927 31950 03601 10143 20110 30191 40206 70500 333 58002 70000=
41927,2023,01,04,12,00,AAXX 04124 41927 31950 03603 10146 20130 30160 40175 70500 333 10158 59002 70000=
41927,2023,01,04,18,00,AAXX 04184 41927 31940 03601 10106 20100 30169 40184 70500 333 59013 70000=
41927,2023,01,05,00,00,AAXX 05004 41927 31920 03601 10100 20090 30160 40175 71000 333 59012 70000=
41927,2023,01,05,06,00,AAXX 05064 41927 31950 03603 10160 20120 30191 40206 70500 333 58000 70000=
41927,2023,01,05,12,00,AAXX 05124 41927 31950 00000 10160 20130 30161 40176 70500 333 10202 58001 70000=
41927,2023,01,05,18,00,AAXX 05184 41927 NIL=
41929,2022,12,30,00,00,AAXX 30004 41929 01901 00000 10135 20130 30171 40181 74540 89/// 333 58007 70000==
41929,2022,12,30,03,00,AAXX 30034 41929 01450 80000 10158 20150 30196 40206 70542 8352/ 333 20116 58008 70000 83618 88462==
41929,2022,12,30,06,00,AAXX 30064 41929 01450 70000 10180 20150 30190 40200 70542 83510 333 58010 70000 83618 87462==
41929,2022,12,30,09,00,AAXX 30094 41929 01950 00000 10220 20160 30170 40180 70500 333 58022 70000==
41929,2022,12,30,12,00,AAXX 30124 41929 01950 00000 10205 20170 30159 40169 70500 333 10225 58007 70000==
41929,2022,12,30,15,00,AAXX 30154 41929 01950 00000 10155 20150 30171 40181 70500 333 59005 70000==
41929,2022,12,30,18,00,AAXX 30184 41929 01940 00000 10144 20130 30172 40182 70500 333 59009 70000==
41929,2022,12,30,21,00,AAXX 30214 41929 01940 00000 10135 20120 30167 40177 70500 333 59014 70000==
41929,2022,12,31,00,00,AAXX 31004 41929 01907 00000 10126 20120 30163 40173 74340 89/// 333 59008 70000==
41929,2022,12,31,03,00,AAXX 31034 41929 01908 00000 10144 20130 30192 40202 74344 89/// 333 20118 59004 70000==
41929,2022,12,31,06,00,AAXX 31064 41929 01950 00902 10206 20170 30181 40191 70544 333 59009 70000==
41929,2022,12,31,09,00,AAXX 31094 41929 01950 02802 10233 20140 30152 40162 70500 333 59018 70000==
41929,2022,12,31,12,00,AAXX 31124 41929 01950 00000 10210 20170 30148 40158 70500 333 10235 59011 70000==
41929,2022,12,31,15,00,AAXX 31154 41929 01950 00000 10158 20150 30171 40181 70500 333 58000 70000==
41929,2022,12,31,18,00,AAXX 31184 41929 01950 00000 10148 20140 30178 40188 70500 333 58006 70000==
41929,2022,12,31,21,00,AAXX 31214 41929 31920 00000 10147 20140 30174 40184 71000 333 58007 70000=
41929,2023,01,01,00,00,AAXX 01004 41929 01904 00000 10147 20140 30171 40181 74544 89/// 333 58008 70000==
41929,2023,01,01,03,00,AAXX 01034 41929 01420 80000 10150 20140 30204 40214 71044 8352/ 333 20128 58008 70000 83618 88462==
41929,2023,01,01,06,00,AAXX 01064 41929 01950 00902 10200 20140 30195 40205 70544 333 58014 70000==
41929,2023,01,01,09,00,AAXX 01094 41929 02950 03402 10234 20100 30165 40174 333 58013 70000==
41929,2023,01,01,12,00,AAXX 01124 41929 01950 00000 10213 20150 30163 40172 70500 333 10238 58015 70000==
41929,2023,01,01,15,00,AAXX 01154 41929 01950 00000 10162 20150 30180 40190 70500 333 58009 70000==
41929,2023,01,01,18,00,AAXX 01184 41929 01950 02902 10160 20150 30178 40188 70500 333 58000 70000==
41929,2023,01,01,21,00,AAXX 01214 41929 01950 02803 10154 20140 30174 40184 70500 333 58000 70000==
41929,2023,01,02,00,00,AAXX 02004 41929 01903 00000 10148 20140 30170 40180 74540 89/// 333 59001 70000==
41929,2023,01,02,03,00,AAXX 02034 41929 01950 03602 10154 20150 30199 40209 71044 333 20141 59005 70000==
41929,2023,01,02,06,00,AAXX 02064 41929 01950 03602 10234 20160 30194 40203 70544 333 59001 70000==
41929,2023,01,02,09,00,AAXX 02094 41929 01950 03602 10250 20100 30169 40178 70500 333 58004 70000==
41929,2023,01,02,12,00,AAXX 02124 41929 01950 00000 10215 20160 30168 40177 70500 333 10253 58005 70000==
41929,2023,01,02,15,00,AAXX 02154 41929 01950 00000 10162 20150 30190 40200 70500 333 58010 70000==
41929,2023,01,02,18,00,AAXX 02184 41929 01950 00000 10150 20140 30190 40200 70500 333 58012 70000==
41929,2023,01,02,21,00,AAXX 02214 41929 01935 00000 10149 20140 30184 40194 70500 333 58010 70000==
41929,2023,01,03,00,00,AAXX 03004 41929 01901 03602 10148 20140 30177 40187 74540 89/// 333 58007 70000==
41929,2023,01,03,03,00,AAXX 03034 41929 01420 33202 10144 20140 30204 40214 71044 83500 333 20136 58005 70000 83618==
41929,2023,01,03,06,00,AAXX 03064 41929 01450 83202 10160 20150 30201 40211 70544 8352/ 333 58007 70000 83618 88462==
41929,2023,01,03,09,00,AAXX 03094 41929 01450 83303 10178 20150 30170 40180 70522 8352/ 333 58001 70000 83618 88462==
41929,2023,01,03,12,00,AAXX 03124 41929 01450 43202 10164 20140 30167 40177 70522 84500 333 10179 59001 70000 84618==
41929,2023,01,03,15,00,AAXX 03154 41929 01945 02803 10155 20140 30183 40193 70520 333 59007 70000==
41929,2023,01,03,18,00,AAXX 03184 41929 01945 00000 10148 20130 30187 40197 70500 333 59003 70000==
41929,2023,01,03,21,00,AAXX 03214 41929 01940 00000 10146 20130 30184 40194 70500 333 58000 70000==
41929,2023,01,04,00,00,AAXX 04004 41929 01936 03602 10145 20140 30181 40191 70500 333 58004 70000==
41929,2023,01,04,03,00,AAXX 04034 41929 01905 03002 10140 20140 30207 40216 74340 89/// 333 20132 58003 70000==
41929,2023,01,04,06,00,AAXX 04064 41929 01940 03002 10150 20140 30199 40208 70540 333 59002 70000==
41929,2023,01,04,09,00,AAXX 04094 41929 01940 03002 10160 20140 30170 40179 70500 333 58000 70000==
41929,2023,01,04,12,00,AAXX 04124 41929 01940 00000 10155 20140 30165 40175 70500 333 10162 59002 70000==
41929,2023,01,04,15,00,AAXX 04154 41929 01940 03202 10148 20120 30182 40192 70500 333 59001 70000==
41929,2023,01,04,18,00,AAXX 04184 41929 01935 00000 10125 20120 30186 40196 70500 333 59001 70000==
41929,2023,01,04,21,00,AAXX 04214 41929 01935 00000 10125 20120 30183 40193 70500 333 59001 70000==
41929,2023,01,05,00,00,AAXX 05004 41929 01935 00000 10125 20120 30180 40190 70500 333 59001 70000==
41929,2023,01,05,03,00,AAXX 05034 41929 01450 83402 10123 20120 30211 40221 70520 8352/ 333 20113 58004 70000 83618 88462==
41929,2023,01,05,06,00,AAXX 05064 41929 01450 83204 10150 20140 30204 40214 70522 8352/ 333 58014 70000 83618 88461==
41929,2023,01,05,09,00,AAXX 05094 41929 01950 03305 10208 20150 30172 40182 70520 333 58002 70000==
41929,2023,01,05,12,00,AAXX 05124 41929 01950 03204 10161 20140 30168 40178 70500 333 10209 58003 70000==
41929,2023,01,05,15,00,AAXX 05154 41929 01950 00000 10139 20130 30186 40196 70500 333 58004 70007==
41929,2023,01,05,18,00,AAXX 05184 41929 01950 00000 10126 20120 30185 40195 70500 333 59001 70000==
41929,2023,01,05,21,00,AAXX 05214 41929 01940 00000 10120 20120 30178 40188 70500 333 59005 70000==
41933,2022,12,30,00,00,AAXX 30004 41933 01900 03602 10138 20138 30169 40178 74544 89/// 333 58007 70000==
41933,2022,12,30,03,00,AAXX 30034 41933 01901 00503 10147 20147 30191 40200 74544 89/// 333 20112 58010 70000==
41933,2022,12,30,06,00,AAXX 30064 41933 01904 00504 10175 20150 30181 40190 74344 89/// 333 58015 70000==
41933,2022,12,30,09,00,AAXX 30094 41933 01430 30000 10214 20140 30154 40163 71040 83500 333 58012 70000 83616==
41933,2022,12,30,12,00,AAXX 30124 41933 01408 10000 10178 20170 30153 40162 74640 81500 333 10216 58004 70000 81616==
41933,2022,12,30,15,00,AAXX 30154 41933 01900 00000 10153 20140 30164 40173 74644 333 59009 70000==
41933,2022,12,30,18,00,AAXX 30184 41933 01900 00000 10136 20135 30164 40173 74444 333 59009 70000==
41933,2022,12,30,21,00,AAXX 30214 41933 01900 00000 10128 20128 30155 40164 74444 333 59010 70000==
41933,2022,12,31,00,00,AAXX 31004 41933 01900 00000 10124 20124 30160 40169 74544 89/// 333 59009 70000==
41933,2022,12,31,03,00,AAXX 31034 41933 01900 00000 10144 20144 30188 40198 74544 89/// 333 20115 59003 70000==
41933,2022,12,31,06,00,AAXX 31064 41933 01925 00000 10212 20150 30175 40184 71044 333 59006 70000==
41933,2022,12,31,09,00,AAXX 31094 41933 01930 00000 10240 20130 30144 40152 71000 333 59010 70000==
41933,2022,12,31,12,00,AAXX 31124 41933 01912 00000 10196 20140 30142 40151 71000 333 10246 59011 70000==
41933,2022,12,31,15,00,AAXX 31154 41933 01912 00000 10155 20150 30146 40155 71000 333 59018 70000==
41933,2022,12,31,21,00,AAXX 31214 41933 31905 00000 10132 20130 30153 40162 74444 333 59002 70000=
41933,2023,01,01,00,00,AAXX 01004 41933 01900 00000 10116 20116 30153 40162 74544 89/// 333 59007 70000==
41933,2023,01,01,03,00,AAXX 01034 41933 01920 00000 10136 20136 30177 40186 71044 333 20114 59011 70000==
41933,2023,01,01,06,00,AAXX 01064 41933 01930 01802 10206 20160 30186 40194 71040 333 58011 70000==
41933,2023,01,01,09,00,AAXX 01094 41933 01950 00503 10245 20100 30153 40161 70500 333 58009 70000==
41933,2023,01,01,12,00,AAXX 01124 41933 01950 00000 10187 20160 30159 40168 70500 333 10260 58017 70000==
41933,2023,01,01,15,00,AAXX 01154 41933 01930 03603 10182 20150 30174 40183 71000 333 58028 70000==
41933,2023,01,01,18,00,AAXX 01184 41933 01950 00502 10165 20150 30172 40181 70500 333 58020 70000==
41933,2023,01,01,21,00,AAXX 01214 41933 01908 00501 10148 20140 30165 40174 74640 333 58012 70000==
41933,2023,01,02,00,00,AAXX 02004 41933 01906 00501 10122 20120 30169 40178 74640 333 58016 70000==
41933,2023,01,02,03,00,AAXX 02034 41933 01908 02702 10164 20140 30192 40201 74244 333 20118 58015 70000==
41933,2023,01,02,06,00,AAXX 02064 41933 01940 03103 10243 20130 30181 40190 70544 333 59005 70000==
41933,2023,01,02,09,00,AAXX 02094 41933 01950 00000 10255 20130 30159 40168 70500 333 58006 70000==
41933,2023,01,02,12,00,AAXX 02124 41933 01940 00000 10210 20150 30164 40173 70500 333 10263 58005 70000==
41933,2023,01,02,15,00,AAXX 02154 41933 01940 00000 10160 20150 30180 40189 70500 333 58006 70000==
41933,2023,01,02,18,00,AAXX 02184 41933 01930 00000 10153 20140 30179 40188 71000 333 58007 70000==
41933,2023,01,02,21,00,AAXX 02214 41933 01920 00000 10130 20120 30161 40170 71000 333 59004 70000==
41933,2023,01,03,00,00,AAXX 03004 41933 01900 00000 10116 20115 30168 40177 74640 333 59001 70000==
41933,2023,01,03,03,00,AAXX 03034 41933 01935 00000 10168 20160 30192 40201 70544 333 20107 58000 70000==
41933,2023,01,03,06,00,AAXX 03064 41933 01940 03402 10238 20140 30183 40192 70540 333 58002 70000==
41933,2023,01,03,09,00,AAXX 03094 41933 01940 03202 10255 20120 30147 40156 70500 333 59012 70000==
41933,2023,01,03,12,00,AAXX 03124 41933 01935 00000 10205 20160 30150 40159 70500 333 10263 59014 70000==
41933,2023,01,03,15,00,AAXX 03154 41933 01930 03202 10176 20160 30158 40166 70500 333 59022 70000==
41933,2023,01,03,18,00,AAXX 03184 41933 02920 00000 10162 20150 30163 40172 333 59016 70000==
41933,2023,01,03,21,00,AAXX 03214 41933 01920 03102 10156 20150 30157 40166 71000 333 59004 70000==
41933,2023,01,04,00,00,AAXX 04004 41933 01915 03102 10155 20150 30160 40169 71000 333 59008 70000==
41933,2023,01,04,03,00,AAXX 04034 41933 01406 63103 10160 20140 30195 40204 74642 83520 333 20150 58003 70000 83614 86458==
41933,2023,01,04,06,00,AAXX 04064 41933 01408 73604 10185 20150 30181 40190 74242 84520 333 59002 70000 84614 87458==
41933,2023,01,04,09,00,AAXX 04094 41933 01920 03404 10196 20150 30155 40164 71042 333 58008 70000==
41933,2023,01,04,12,00,AAXX 04124 41933 01915 03403 10174 20140 30151 40160 71042 333 10214 58001 70000==
41933,2023,01,04,15,00,AAXX 04154 41933 01935 00000 10150 20140 30170 40179 70500 333 58012 70000==
41933,2023,01,04,18,00,AAXX 04184 41933 01930 03503 10145 20140 30176 40185 71000 333 58013 70000==
41933,2023,01,04,21,00,AAXX 04214 41933 01930 03202 10145 20140 30174 40183 71000 333 58017 70000==
41933,2023,01,05,00,00,AAXX 05004 41933 01920 00000 10145 20140 30172 40181 71000 333 58012 70000==
41933,2023,01,05,03,00,AAXX 05034 41933 01908 00000 10144 20130 30197 40206 74344 89/// 333 58002 70000==
41933,2023,01,05,06,00,AAXX 05064 41933 01412 80000 10160 20140 30195 40204 71044 8352/ 333 58014 70000 83616 88458==
41933,2023,01,05,09,00,AAXX 05094 41933 01411 83104 10171 20140 30164 40173 71022 8552/ 333 58009 70000 85614 88458==
41933,2023,01,05,12,00,AAXX 05124 41933 01412 83102 10160 20140 30162 40171 71022 8552/ 333 10177 58011 70000 85614 88458==
41933,2023,01,05,15,00,AAXX 05154 41933 01912 00000 10142 20130 30177 40186 71020 333 58007 70000==
41933,2023,01,05,18,00,AAXX 05184 41933 01915 03402 10145 20140 30178 40187 71042 333 58002 70000==
41933,2023,01,05,21,00,AAXX 05214 41933 01908 00000 10136 20136 30166 40175 74640 333 59008 70000==
41936,2022,12,30,00,00,AAXX 30004 41936 01906 00000 10104 20100 30172 40180 74444 333 58012 70000==
41936,2022,12,30,06,00,AAXX 30064 41936 01909 00303 10224 20140 30186 40193 74244 333 58008 70000==
41936,2022,12,30,09,00,AAXX 30094 41936 01910 03203 10248 20110 30158 40165 70540 333 58010 70000==
41936,2022,12,30,12,00,AAXX 30124 41936 01910 00000 10184 20140 30157 40164 70500 333 10255 59002 70000==
41936,2022,12,30,15,00,AAXX 30154 41936 01910 00000 10144 20120 30169 40176 70500 333 59009 70000==
41936,2022,12,30,18,00,AAXX 30184 41936 01910 00000 10130 20110 30165 40172 70500 333 59003 70000==
41936,2022,12,30,21,00,AAXX 30214 41936 42910 00000 10120 20110 30157 40164 59004==
41936,2022,12,31,00,00,AAXX 31004 41936 01906 00000 10114 20110 30165 40172 74640 333 59008 70000==
41936,2022,12,31,06,00,AAXX 31064 41936 01910 00305 10230 20140 30177 40184 70544 333 59009 70000==
41936,2022,12,31,09,00,AAXX 31094 41936 01916 01303 10252 20140 30142 40149 70500 333 58004 70000==
41936,2022,12,31,12,00,AAXX 31124 41936 01912 00000 10200 20160 30152 40159 70500 333 10254 59005 70000==
41936,2022,12,31,18,00,AAXX 31184 41936 01909 00000 10150 20140 30173 40180 74100 333 58008 70000==
41936,2022,12,31,21,00,AAXX 31214 41936 31907 00000 10144 20130 30165 40172 74444 333 58008 70000=
41936,2023,01,01,00,00,AAXX 01004 41936 01903 00000 10138 20140 30172 40179 74644 333 58007 70000==
41936,2023,01,01,03,00,AAXX 01034 41936 01903 00000 10154 20140 30192 40200 74444 333 20130 58006 70000==
41936,2023,01,01,06,00,AAXX 01064 41936 01909 00000 10216 20186 30187 40194 74442 333 58010 70000==
41936,2023,01,01,09,00,AAXX 01094 41936 01909 00403 10238 20170 30158 40165 74441 333 59011 70000==
41936,2023,01,01,12,00,AAXX 01124 41936 42910 00000 10240 20170 30167 40174 58015==
41936,2023,01,01,15,00,AAXX 01154 41936 42910 00000 10160 20150 30179 40186 58010==
41936,2023,01,01,18,00,AAXX 01184 41936 01910 00000 10148 20140 30176 40182 70500 333 58002 70000==
41936,2023,01,01,21,00,AAXX 01214 41936 01910 00000 10140 20130 30171 40178 70500 333 58006 70000==
41936,2023,01,02,00,00,AAXX 02004 41936 01905 00000 10136 20140 30165 40172 74644 333 59007 70000==
41936,2023,01,02,03,00,AAXX 02034 41936 01901 00404 10146 20140 30194 40202 74244 333 20126 58002 70000==
41936,2023,01,02,06,00,AAXX 02064 41936 01910 00804 10226 20160 30191 40198 70544 333 58004 70000==
41936,2023,01,02,09,00,AAXX 02094 41936 01925 00906 10252 20130 30166 40173 70504 333 58008 70000==
41936,2023,01,02,12,00,AAXX 02124 41936 01920 00000 10202 20150 30170 40177 70500 333 10254 58003 70000==
41936,2023,01,02,15,00,AAXX 02154 41936 42916 00000 10150 20130 30190 40197 58011==
41936,2023,01,02,21,00,AAXX 02214 41936 01910 00000 10138 20130 30179 40186 70500 333 58011 70000==
41936,2023,01,03,00,00,AAXX 03004 41936 01902 00000 10128 20130 30180 40187 74640 333 58016 70000==
41936,2023,01,03,03,00,AAXX 03034 41936 01901 00303 10146 20140 30202 40210 74644 333 20122 58015 70000==
41936,2023,01,03,06,00,AAXX 03064 41936 42905 00303 10162 20150 30194 40202 58005 86258==
41936,2023,01,03,09,00,AAXX 03094 41936 01/07 60504 10172 20130 30175 40183 74244 86030 333 58001 70000 86350==
41936,2023,01,03,12,00,AAXX 03124 41936 01909 20000 10168 20120 30167 40174 74244 82500 333 10174 59003 70000 82618==
41936,2023,01,03,15,00,AAXX 03154 41936 31909 00000 10158 20130 30183 40190 74444 333 59007 70000=
41936,2023,01,03,18,00,AAXX 03184 41936 01909 00303 10146 20130 30183 40190 74444 333 59007 70000==
41936,2023,01,03,21,00,AAXX 03214 41936 01909 00000 10136 20130 30171 40178 74444 333 59008 70000==
41936,2023,01,04,00,00,AAXX 04004 41936 01907 00000 10142 20140 30182 40189 74444 333 58001 70000==
41936,2023,01,04,03,00,AAXX 04034 41936 01905 50703 10150 20140 30202 40210 74444 85256 333 20140 59002 70000 85356==
41936,2023,01,04,06,00,AAXX 04064 41936 01907 50603 10150 20130 30201 40209 74244 85256 333 58007 70000 85356==
41936,2023,01,04,09,00,AAXX 04094 41936 01310 50203 10172 20140 30168 40176 70544 85600 333 59007 70000 85710==
41936,2023,01,04,12,00,AAXX 04124 41936 01310 50000 10152 20120 30158 40167 70542 85600 333 10172 59007 70000 85710==
41936,2023,01,04,15,00,AAXX 04154 41936 01910 40403 10148 20140 30171 40179 70522 84600 333 59011 70000 84710==
41936,2023,01,04,18,00,AAXX 04184 41936 01910 00000 10130 20120 30178 40186 71022 333 59004 70000==
41936,2023,01,04,21,00,AAXX 04214 41936 42907 00000 10122 20100 30168 40176 59004==
41936,2023,01,05,00,00,AAXX 05004 41936 02901 00000 10096 20100 30186 40193 54324 333 58007 70000==
41936,2023,01,05,03,00,AAXX 05034 41936 01303 50206 10124 20110 30208 40215 74644 85600 333 20090 59005 70000 85707==
41936,2023,01,05,06,00,AAXX 05064 41936 31307 53003 10162 20130 30202 40210 74244 85600 333 56900 59001 70000 85707=
41936,2023,01,05,09,00,AAXX 05094 41936 01912 03609 10210 20130 30173 40180 70544 333 58004 70000==
41936,2023,01,05,12,00,AAXX 05124 41936 01910 03503 10178 20140 30171 40178 70504 333 10214 58011 70000==
41936,2023,01,05,18,00,AAXX 05184 41936 01909 00000 10122 20110 30182 40190 74000 333 58004 70000==
41936,2023,01,05,21,00,AAXX 05214 41936 01907 00000 10116 20120 30176 40184 74640 333 58008 70000==
41938,2022,12,30,00,00,AAXX 30004 41938 31908 00000 10110 20110 30118 40122 74044 333 59047 70000=
41938,2022,12,30,06,00,AAXX 30064 41938 31950 00000 10206 20150 30179 40183 70540 333 58001 70000=
41938,2022,12,30,12,00,AAXX 30124 41938 31950 00000 10180 20140 30161 40165 70500 333 10227 58012 70000=
41938,2022,12,30,18,00,AAXX 30184 41938 31940 00000 10135 20130 30164 40168 70500 333 59008 70000=
41938,2022,12,31,00,00,AAXX 31004 41938 31908 00000 10117 20117 30164 40168 74440 333 59004 70000=
41938,2022,12,31,06,00,AAXX 31064 41938 31940 00000 10218 20150 30174 40186 70540 333 59005 70000=
41938,2022,12,31,12,00,AAXX 31124 41938 31930 00000 10180 20160 30152 40156 70500 333 10242 59059 70000=
41938,2023,01,01,00,00,AAXX 01004 41938 31906 00000 10126 20125 30170 40174 74440 333 58006 70000=
41938,2023,01,01,06,00,AAXX 01064 41938 31909 03001 10210 20160 30189 40193 74244 333 58015 70000=
41938,2023,01,01,12,00,AAXX 01124 41938 31920 00000 10178 20160 30165 40169 71040 333 10230 58013 70000=
41938,2023,01,01,18,00,AAXX 01184 41938 31908 00000 10140 20130 30176 40180 74440 333 58006 70000=
41938,2023,01,02,00,00,AAXX 02004 41938 31906 00000 10139 20139 30175 40179 74444 333 58005 70000=
41938,2023,01,02,06,00,AAXX 02064 41938 31940 03203 10231 20140 30189 40193 70540 333 58000 70000=
41938,2023,01,02,12,00,AAXX 02124 41938 31950 00000 10188 20150 30171 40175 70500 333 10249 58006 70000=
41938,2023,01,02,18,00,AAXX 02184 41938 31935 03001 10142 20130 30187 40191 70500 333 58011 70000=
41938,2023,01,03,00,00,AAXX 03004 41938 31905 03001 10133 20120 30176 40180 74440 333 58001 70000=
41938,2023,01,03,06,00,AAXX 03064 41938 31425 33205 10191 20150 30194 40198 71042 83500 333 56700 58005 70000 83616=
41938,2023,01,03,12,00,AAXX 03124 41938 31935 03002 10165 20150 30169 40173 70510 333 10211 59002 70000=
41938,2023,01,03,18,00,AAXX 03184 41938 31340 83404 10154 20130 30182 40186 70521 8562/ 333 56899 59005 70000 81709 85616 88460=
41938,2023,01,04,00,00,AAXX 04004 41938 31/04 93402 10140 20130 30180 40184 74542 89/// 333 56999 59004 70000=
41938,2023,01,04,06,00,AAXX 04064 41938 31/06 93605 10166 20140 30195 40199 74544 89/// 333 56999 58001 70000=
41938,2023,01,04,12,00,AAXX 04124 41938 31/09 93606 10158 20150 30166 40170 74344 89/// 333 10171 56999 59003 70000=
41938,2023,01,04,18,00,AAXX 04184 41938 31420 63602 10140 20130 30185 40189 71042 82510 333 56890 58003 70000 82617 85460=
41938,2023,01,05,00,00,AAXX 05004 41938 31/10 93205 10130 20120 30184 40188 71022 89/// 333 56999 58004 70000=
41938,2023,01,05,06,00,AAXX 05064 41938 31/08 93003 10155 20130 30198 40202 74544 89/// 333 56999 58003 70000=
41938,2023,01,05,12,00,AAXX 05124 41938 31920 00000 10167 20140 30171 40175 71041 333 10203 58005 70000=
41938,2023,01,05,18,00,AAXX 05184 41938 31915 03601 10126 20120 30182 40186 71000 333 59003 70000=
41939,2022,12,30,00,00,AAXX 30004 41939 01907 00000 10120 20120 30175 40184 74244 333 58000 70000==
41939,2022,12,30,03,00,AAXX 30034 41939 01950 00000 10155 20150 30193 40201 70540 333 20113 59002 70000==
41939,2022,12,30,06,00,AAXX 30064 41939 01956 00000 10180 20160 30188 40196 70500 333 58010 70000==
41939,2022,12,30,09,00,AAXX 30094 41939 01956 00000 10212 20150 30167 40176 70500 333 58012 70000==
41939,2022,12,30,12,00,AAXX 30124 41939 01950 00000 10170 20150 30167 40175 70500 333 10215 58010 70000==
41939,2022,12,30,15,00,AAXX 30154 41939 01930 00000 10148 20140 30178 40186 70500 333 58005 70000==
41939,2022,12,30,21,00,AAXX 30214 41939 01906 00000 10128 20120 30180 40189 74244 333 59003 70000==
41939,2022,12,31,00,00,AAXX 31004 41939 01902 00000 10122 20120 30170 40179 74544 89/// 333 59005 70000==
41939,2022,12,31,03,00,AAXX 31034 41939 01920 00000 10148 20140 30190 40199 71044 333 20116 59003 70000==
41939,2022,12,31,06,00,AAXX 31064 41939 01956 00000 10220 20120 30178 40186 70500 333 59010 70000==
41939,2022,12,31,09,00,AAXX 31094 41939 01956 00000 10235 20120 30154 40162 70500 333 59013 70000==
41939,2022,12,31,12,00,AAXX 31124 41939 01950 00000 10194 20170 30154 40162 70500 333 10237 59013 70000==
41939,2022,12,31,15,00,AAXX 31154 41939 01940 00000 10160 20150 30168 40176 70500 333 59010 70000==
41939,2022,12,31,21,00,AAXX 31214 41939 31915 00000 10148 20140 30185 40193 71000 333 58005 70000=
41939,2023,01,01,00,00,AAXX 01004 41939 01901 00000 10145 20140 30182 40190 74544 89/// 333 58003 70000==
41939,2023,01,01,03,00,AAXX 01034 41939 01903 00000 10162 20150 30208 40216 74244 333 20130 58018 70000==
41939,2023,01,01,06,00,AAXX 01064 41939 01956 00000 10202 20140 30191 40200 70544 333 58013 70000==
41939,2023,01,01,09,00,AAXX 01094 41939 01950 00000 10230 20140 30165 40173 70500 333 58011 70000==
41939,2023,01,01,12,00,AAXX 01124 41939 01950 00000 10198 20180 30165 40173 70500 333 10234 58011 70000==
41939,2023,01,01,15,00,AAXX 01154 41939 01940 00000 10168 20160 30173 40181 70500 333 58005 70000==
41939,2023,01,01,21,00,AAXX 01214 41939 01908 00000 10145 20140 30182 40191 74240 333 59003 70000==
41939,2023,01,02,00,00,AAXX 02004 41939 01908 00000 10142 20140 30175 40184 74244 333 59007 70000==
41939,2023,01,02,03,00,AAXX 02034 41939 01930 00000 10160 20140 30200 40208 71044 333 20135 59008 70000==
41939,2023,01,02,06,00,AAXX 02064 41939 01950 00000 10233 20160 30196 40205 70544 333 58005 70000==
41939,2023,01,02,09,00,AAXX 02094 41939 01950 00000 10242 20120 30172 40180 70500 333 58007 70000==
41939,2023,01,02,12,00,AAXX 02124 41939 01950 00000 10195 20170 30174 40182 70500 333 10250 58009 70000==
41939,2023,01,02,15,00,AAXX 02154 41939 01940 00000 10165 20160 30182 40190 70500 333 58009 70000==
41939,2023,01,02,18,00,AAXX 02184 41939 NIL=
41939,2023,01,02,21,00,AAXX 02214 41939 01930 00000 10148 20140 30190 40198 71000 333 58008 70000==
41939,2023,01,03,00,00,AAXX 03004 41939 01902 00000 10144 20144 30185 40193 74544 89/// 333 58010 70000==
41939,2023,01,03,03,00,AAXX 03034 41939 01940 00000 10160 20150 30204 40212 70500 333 20130 58004 70000==
41939,2023,01,03,06,00,AAXX 03064 41939 01950 00000 10201 20160 30200 40209 70500 333 58004 70000==
41939,2023,01,03,09,00,AAXX 03094 41939 01950 00000 10212 20150 30065 40074 70500 333 59007 70000==
41939,2023,01,03,12,00,AAXX 03124 41939 01950 00000 10175 20160 30169 40177 70500 333 10214 59005 70000==
41939,2023,01,03,15,00,AAXX 03154 41939 01940 00000 10155 20150 30178 40186 70500 333 59004 70000==
41939,2023,01,03,18,00,AAXX 03184 41939 01920 00000 10145 20140 30190 40199 71044 333 59003 70000==
41939,2023,01,03,21,00,AAXX 03214 41939 01920 60000 10148 20140 30188 40197 71040 83510 333 59002 70000 83618 85459==
41939,2023,01,04,00,00,AAXX 04004 41939 01920 70000 10150 20130 30186 40195 71044 83510 333 58001 70000 83618 86459==
41939,2023,01,04,03,00,AAXX 04034 41939 01450 60000 10175 20150 30192 40200 70540 83510 333 20133 58007 70000 83618 85459==
41939,2023,01,04,06,00,AAXX 04064 41939 NIL=
41939,2023,01,04,09,00,AAXX 04094 41939 01940 00000 10160 20140 30172 40181 70500 333 58002 70000==
41939,2023,01,04,12,00,AAXX 04124 41939 01940 00000 10154 20130 30170 40178 70500 333 10162 58001 70000==
41939,2023,01,04,15,00,AAXX 04154 41939 01940 00000 10150 20140 30182 40190 70500 333 58004 70000==
41939,2023,01,04,18,00,AAXX 04184 41939 01940 00000 10145 20140 30194 40202 70500 333 58004 70000==
41939,2023,01,04,21,00,AAXX 04214 41939 01420 60000 10138 20130 30187 40196 71040 83510 333 59001 70000 83618 85459==
41939,2023,01,05,00,00,AAXX 05004 41939 01408 80000 10130 20130 30183 40192 74244 8352/ 333 59003 70000 83618 88459==
41939,2023,01,05,03,00,AAXX 05034 41939 01430 60000 10152 20140 30190 40199 71040 83510 333 20113 59002 70000 83618 85459==
41939,2023,01,05,06,00,AAXX 05064 41939 01440 50000 10165 20140 30194 40203 70540 82510 333 59003 70000 82618 85459==
41939,2023,01,05,09,00,AAXX 05094 41939 01450 20000 10180 20140 30177 40186 70500 82500 333 58005 70000 82618==
41939,2023,01,05,12,00,AAXX 05124 41939 01450 30000 10162 20150 30175 40183 70500 82530 333 10185 58005 70000 82617==
41939,2023,01,05,15,00,AAXX 05154 41939 01940 00000 10150 20130 30190 40199 70500 333 58008 70000==
41939,2023,01,05,18,00,AAXX 05184 41939 01940 00000 10140 20130 30200 40209 70500 333 58006 70000==
41939,2023,01,05,21,00,AAXX 05214 41939 01420 60000 10130 20120 30188 40197 71040 83510 333 58001 70000 83618 85459==
41941,2022,12,30,00,00,AAXX 30004 41941 01908 00000 10138 20138 30179 40185 74540 89/// 333 58008 70000==
41941,2022,12,30,03,00,AAXX 30034 41941 01904 00000 10150 20150 30199 40205 74544 89/// 333 20132 58009 70000==
41941,2022,12,30,06,00,AAXX 30064 41941 01940 03103 10194 20160 30185 40191 70544 333 58019 70000==
41941,2022,12,30,09,00,AAXX 30094 41941 01450 53603 10215 20170 30159 40164 70520 85500 333 58010 70000 85614==
41941,2022,12,30,12,00,AAXX 30124 41941 01440 50000 10180 20160 30159 40164 70520 85500 333 10220 58007 70000 85614==
41941,2022,12,30,15,00,AAXX 30154 41941 01440 50000 10165 20160 30174 40180 70522 85500 333 58006 70000 85614==
41941,2022,12,30,18,00,AAXX 30184 41941 01440 50000 10150 20140 30177 40183 70522 85500 333 59003 70000 85614==
41941,2022,12,30,21,00,AAXX 30214 41941 01940 00000 10145 20145 30171 40177 70510 333 59003 70000==
41941,2022,12,31,03,00,AAXX 31034 41941 01908 00000 10160 20160 30197 40202 74544 89/// 333 20136 59002 70000==
41941,2022,12,31,06,00,AAXX 31064 41941 01950 03103 10217 20160 30184 40190 70544 333 59001 70000==
41941,2022,12,31,09,00,AAXX 31094 41941 02456 53603 10235 20150 30151 40156 85500 333 59008 70000 85614==
41941,2022,12,31,12,00,AAXX 31124 41941 02450 50000 10190 20150 30153 40159 85500 333 10245 59006 70000 85615==
41941,2022,12,31,15,00,AAXX 31154 41941 01440 50000 10167 20160 30170 40176 70522 85500 333 59004 70000 85615==
41941,2022,12,31,18,00,AAXX 31184 41941 01940 00000 10165 20160 30185 40191 70522 333 58005 70000==
41941,2022,12,31,21,00,AAXX 31214 41941 31940 00000 10160 20160 30179 40185 70522 333 58008 70000=
41941,2023,01,01,00,00,AAXX 01004 41941 01930 00000 10140 20140 30187 40193 70522 333 58006 70000==
41941,2023,01,01,03,00,AAXX 01034 41941 01950 00000 10178 20160 30202 40208 70500 333 20137 58007 70000==
41941,2023,01,01,06,00,AAXX 01064 41941 02956 03604 10215 20170 30190 40196 333 58006 70000==
41941,2023,01,01,09,00,AAXX 01094 41941 02956 03604 10250 20130 30164 40170 333 58013 70000==
41941,2023,01,01,12,00,AAXX 01124 41941 02950 00000 10185 20170 30169 40175 333 10255 58016 70000==
41941,2023,01,01,15,00,AAXX 01154 41941 01940 00000 10172 20160 30181 40187 70500 333 58011 70000==
41941,2023,01,01,18,00,AAXX 01184 41941 01940 00000 10160 20150 30187 40193 70522 333 58002 70000==
41941,2023,01,01,21,00,AAXX 01214 41941 01940 00000 10150 20140 30180 40186 70500 333 58001 70000==
41941,2023,01,02,00,00,AAXX 02004 41941 01940 00000 10150 20140 30182 40188 70500 333 59005 70000==
41941,2023,01,02,03,00,AAXX 02034 41941 01940 00000 10190 20160 30199 40205 70500 333 20145 59003 70000==
41941,2023,01,02,06,00,AAXX 02064 41941 42450 50000 10242 20140 30192 40197 85500 333 58002 85615==
41941,2023,01,02,09,00,AAXX 02094 41941 02450 50000 10250 20150 30168 40174 85500 333 58004 70000 85615==
41941,2023,01,02,12,00,AAXX 02124 41941 02440 50000 10195 20170 30171 40176 85500 333 10260 58002 70000 85615==
41941,2023,01,02,15,00,AAXX 02154 41941 01940 00000 10170 20160 30190 40196 70500 333 58009 70000==
41941,2023,01,02,18,00,AAXX 02184 41941 01940 00000 10168 20160 30196 40202 70500 333 58009 70000==
41941,2023,01,02,21,00,AAXX 02214 41941 01940 00000 10160 20160 30187 40193 70500 333 58007 70000==
41941,2023,01,03,00,00,AAXX 03004 41941 01940 00000 10152 20150 30184 40190 70500 333 58002 70000==
41941,2023,01,03,03,00,AAXX 03034 41941 01950 03102 10182 20160 30208 40208 70500 333 20150 58004 70000==
41941,2023,01,03,06,00,AAXX 03064 41941 02956 03604 10240 20160 30188 40193 333 59004 70000==
41941,2023,01,03,09,00,AAXX 03094 41941 02950 03604 10205 20170 30161 40168 85420 333 59007 70000 84616 86458==
41941,2023,01,03,12,00,AAXX 03124 41941 02940 03103 10175 20170 30164 40170 85420 333 20242 59007 70000 84616 86458==
41941,2023,01,03,15,00,AAXX 03154 41941 02440 63103 10164 20150 30185 40191 85420 333 59005 70000 84616 86458==
41941,2023,01,03,18,00,AAXX 03184 41941 02440 63103 10160 20160 30182 40188 85420 333 59014 70000 84616 86458==
41941,2023,01,04,00,00,AAXX 04004 41941 01940 03103 10160 20150 30183 40189 70500 333 59001 70000==
41941,2023,01,04,03,00,AAXX 04034 41941 01450 63103 10174 20140 30202 40208 70522 85420 333 20154 59001 70000 84616 86458==
41941,2023,01,04,06,00,AAXX 04064 41941 01450 63603 10187 20150 30198 40204 70522 85420 333 59010 70000 84616 86458==
41941,2023,01,04,09,00,AAXX 04094 41941 01450 63605 10180 20150 30165 40171 70522 85420 333 59004 70000 84616 86458==
41941,2023,01,04,12,00,AAXX 04124 41941 01440 63604 10168 20150 30166 40172 70522 85420 333 10193 58002 70000 84616 86458==
41941,2023,01,04,15,00,AAXX 04154 41941 02940 03102 10158 20150 30176 40182 333 59009 70000==
41941,2023,01,04,18,00,AAXX 04184 41941 02940 03102 10156 20150 30174 40180 333 59008 70000==
41941,2023,01,04,21,00,AAXX 04214 41941 01940 03105 10154 20140 30177 40183 70500 333 59004 70000==
41941,2023,01,05,00,00,AAXX 05004 41941 01940 03104 10150 20140 30181 40186 70500 333 59002 70000==
41941,2023,01,05,03,00,AAXX 05034 41941 01950 63103 10151 20140 30207 40213 70520 333 20143 58005 70000 84616 86458==
41941,2023,01,05,06,00,AAXX 05064 41941 01940 03604 10165 20150 30197 40203 70520 333 59001 70000==
41941,2023,01,05,09,00,AAXX 05094 41941 01940 03603 10190 20150 30173 40179 70500 333 58008 70000==
41941,2023,01,05,12,00,AAXX 05124 41941 01940 03103 10165 20160 30169 40175 70500 333 10192 58003 70000==
41941,2023,01,05,15,00,AAXX 05154 41941 01940 03603 10164 20150 30181 40187 70500 333 58005 70000==
41941,2023,01,05,18,00,AAXX 05184 41941 01940 00000 10150 20140 30184 40190 70500 333 58010 70000==
41941,2023,01,05,21,00,AAXX 05214 41941 01940 00000 10145 20140 30179 40185 70500 333 58002 70000==
41943,2022,12,30,00,00,AAXX 30004 41943 01906 00000 10116 20110 30171 40179 74140 89/// 333 58007 70000==
41943,2022,12,30,06,00,AAXX 30064 41943 01930 00000 10200 20140 30184 40192 70500 333 58015 70000==
41943,2022,12,30,09,00,AAXX 30094 41943 01930 00000 10215 20150 30158 40166 70500 333 58013 70000==
41943,2022,12,30,12,00,AAXX 30124 41943 01930 00000 10184 20150 30160 40168 70500 333 10225 58006 70000==
41943,2022,12,30,15,00,AAXX 30154 41943 01930 00000 10146 20140 30172 40180 70500 333 59002 70000==
41943,2022,12,30,18,00,AAXX 30184 41943 01930 00000 10126 20120 30172 40180 70500 333 59005 70000==
41943,2022,12,30,21,00,AAXX 30214 41943 01920 00000 10120 20120 30169 40177 70500 333 59006 70000==
41943,2022,12,31,00,00,AAXX 31004 41943 01905 00000 10115 20115 30166 40174 74340 89/// 333 59005 70000==
41943,2022,12,31,06,00,AAXX 31064 41943 01930 00000 10206 20140 30179 40187 70540 333 59005 70000==
41943,2022,12,31,09,00,AAXX 31094 41943 01930 00000 10244 20110 30149 40156 70500 333 59006 70000==
41943,2022,12,31,12,00,AAXX 31124 41943 01930 00000 10188 20150 30148 40156 70500 333 10248 59012 70000==
41943,2022,12,31,15,00,AAXX 31154 41943 01930 00000 10154 20130 30172 40180 70500 333 58000 70000==
41943,2022,12,31,18,00,AAXX 31184 41943 01930 00000 10154 20130 30179 40187 70500 333 58007 70000==
41943,2022,12,31,21,00,AAXX 31214 41943 31930 00000 10124 20110 30174 40182 70500 333 58005 70000=
41943,2023,01,01,00,00,AAXX 01004 41943 01930 00000 10112 20110 30171 40179 70500 333 58005 70000==
41943,2023,01,01,03,00,AAXX 01034 41943 01930 00000 10164 20130 30199 40207 70500 333 20110 58006 70000==
41943,2023,01,01,06,00,AAXX 01064 41943 01930 00000 10222 20130 30192 40199 70500 333 58013 70000==
41943,2023,01,01,09,00,AAXX 01094 41943 01940 00000 10253 20150 30156 40164 70500 333 58007 70000==
41943,2023,01,01,12,00,AAXX 01124 41943 01930 00000 10200 20170 30161 40168 70500 333 10270 58013 70000==
41943,2023,01,01,15,00,AAXX 01154 41943 01930 00000 10150 20130 30176 40148 70500 333 58004 70000==
41943,2023,01,01,18,00,AAXX 01184 41943 01930 00000 10134 20120 30178 40186 70500 333 59001 70000==
41943,2023,01,01,21,00,AAXX 01214 41943 01930 00000 10123 20110 30175 40183 70500 333 58001 70000==
41943,2023,01,02,00,00,AAXX 02004 41943 01930 00000 10120 20120 30167 40174 70500 333 59024 70000==
41943,2023,01,02,03,00,AAXX 02034 41943 01930 00000 10155 20140 30194 40201 70500 333 20110 59005 70000==
41943,2023,01,02,06,00,AAXX 02064 41943 01930 00000 10244 20100 30189 40196 70500 333 59003 70000==
41943,2023,01,02,09,00,AAXX 02094 41943 01935 00000 10270 20110 30165 40172 70500 333 58009 70000==
41943,2023,01,02,12,00,AAXX 02124 41943 01930 00000 10192 20150 30167 40175 70500 333 10272 58006 70000==
41943,2023,01,02,15,00,AAXX 02154 41943 01930 00000 10154 20140 30185 40193 70500 333 58009 70000==
41943,2023,01,02,21,00,AAXX 02214 41943 01930 00000 10130 20120 30180 40188 70500 333 58005 70000==
41943,2023,01,03,00,00,AAXX 03004 41943 01930 00000 10120 20120 30172 40180 70500 333 58005 70000==
41943,2023,01,03,03,00,AAXX 03034 41943 01930 00000 10170 20130 30195 40203 70500 333 20120 58001 70000==
41943,2023,01,03,06,00,AAXX 03064 41943 01935 00000 10254 20090 30183 40190 70500 333 59006 70000==
41943,2023,01,03,09,00,AAXX 03094 41943 01935 00000 10255 20120 30146 40153 70500 333 59019 70000==
41943,2023,01,03,12,00,AAXX 03124 41943 01930 00000 10207 20150 30155 40163 70500 333 10270 59012 70000==
41943,2023,01,03,15,00,AAXX 03154 41943 31930 00000 10160 20150 30173 40180 70500 333 59012 70000=
41943,2023,01,03,18,00,AAXX 03184 41943 01930 00000 10150 20140 30178 40186 70500 333 59007 70000==
41943,2023,01,03,21,00,AAXX 03214 41943 01930 00000 10142 20130 30172 40180 70500 333 59008 70000==
41943,2023,01,04,00,00,AAXX 04004 41943 01930 00000 10132 20130 30178 40186 70500 333 58006 70000==
41943,2023,01,04,03,00,AAXX 04034 41943 01430 50000 10163 20140 30197 40204 70522 83530 333 20132 58002 70000 83616 84362==
41943,2023,01,04,06,00,AAXX 04064 41943 01930 00000 10222 20130 30178 40185 70500 333 59005 70000==
41943,2023,01,04,09,00,AAXX 04094 41943 01930 00000 10230 20150 30149 40157 70500 333 58003 70000==
41943,2023,01,04,12,00,AAXX 04124 41943 01930 00000 10195 20150 30157 40165 70500 333 10245 58002 70000==
41943,2023,01,04,15,00,AAXX 04154 41943 01930 03103 10147 20140 30171 40179 70500 333 59001 70000==
41943,2023,01,04,18,00,AAXX 04184 41943 01930 03102 10134 20120 30176 40184 70500 333 59002 70000==
41943,2023,01,04,21,00,AAXX 04214 41943 01930 03102 10128 20120 30172 40180 70500 333 58000 70000==
41943,2023,01,05,00,00,AAXX 05004 41943 01930 00000 10130 20130 30178 40186 70500 333 58000 70000==
41943,2023,01,05,03,00,AAXX 05034 41943 01930 00000 10148 20140 30202 40209 70500 333 20128 58005 70000==
41943,2023,01,05,06,00,AAXX 05064 41943 31430 83102 10175 20140 30190 40197 70522 8452/ 333 56999 58012 70000 84616 88458=
41943,2023,01,05,09,00,AAXX 05094 41943 01930 03102 10205 20150 30161 40169 70500 333 58012 70000==
41943,2023,01,05,12,00,AAXX 05124 41943 01930 03602 10170 20130 30161 40168 70500 333 10210 58004 70000==
41943,2023,01,05,18,00,AAXX 05184 41943 01930 00000 10145 20140 30179 40187 70500 333 58003 70000==
41943,2023,01,05,21,00,AAXX 05214 41943 01930 00000 10140 20130 30176 40184 70500 333 58004 70000==
41944,2022,12,30,00,00,AAXX 30004 41944 NIL=
41944,2022,12,30,06,00,AAXX 30064 41944 NIL=
41944,2022,12,30,12,00,AAXX 30124 41944 NIL=
41944,2022,12,31,06,00,AAXX 31064 41944 NIL=
41944,2022,12,31,12,00,AAXX 31124 41944 NIL=
41944,2023,01,01,00,00,AAXX 01004 41944 NIL=
41944,2023,01,01,06,00,AAXX 01064 41944 NIL=
41944,2023,01,02,12,00,AAXX 02124 41944 NIL=
41944,2023,01,02,18,00,AAXX 02184 41944 NIL=
41944,2023,01,03,06,00,AAXX 03064 41944 NIL=
41944,2023,01,03,12,00,AAXX 03124 41944 NIL=
41944,2023,01,03,18,00,AAXX 03184 41944 NIL=
41944,2023,01,04,00,00,AAXX 04004 41944 NIL=
41944,2023,01,04,06,00,AAXX 04064 41944 NIL=
41944,2023,01,05,06,00,AAXX 05064 41944 NIL=
41944,2023,01,05,18,00,AAXX 05184 41944 NIL=
41946,2022,12,30,00,00,AAXX 30004 41946 01940 00000 10120 20110 30179 40184 70500 333 58016 70000==
41946,2022,12,30,03,00,AAXX 30034 41946 01950 00000 10150 20130 30196 40201 70500 333 20115 58012 70000==
41946,2022,12,30,06,00,AAXX 30064 41946 01950 00000 10222 20140 30188 40193 70500 333 58010 70000==
41946,2022,12,30,09,00,AAXX 30094 41946 01950 00000 10242 20120 30158 40162 70500 333 58004 70000==
41946,2022,12,30,12,00,AAXX 30124 41946 01950 00000 10188 20160 30163 40168 70500 333 10244 58002 70000==
41946,2022,12,30,15,00,AAXX 30154 41946 01950 00000 10160 20150 30175 40180 70500 333 59006 70000==
41946,2022,12,30,18,00,AAXX 30184 41946 01940 00000 10147 20140 30172 40177 70500 333 59008 70000==
41946,2022,12,30,21,00,AAXX 30214 41946 01930 00000 10139 20130 30164 40169 70500 333 59012 70000==
41946,2022,12,31,00,00,AAXX 31004 41946 01915 00000 10132 20130 30167 40171 71000 333 59012 70000==
41946,2022,12,31,03,00,AAXX 31034 41946 01940 00000 10175 20170 30186 40191 70540 333 20126 59010 70000==
41946,2022,12,31,06,00,AAXX 31064 41946 01950 00000 10235 20140 30173 40178 70540 333 59015 70000==
41946,2022,12,31,09,00,AAXX 31094 41946 02956 00000 10250 20130 30147 40151 333 59011 70000==
41946,2022,12,31,12,00,AAXX 31124 41946 01940 00000 10200 20160 30150 40155 70500 333 10250 59013 70000==
41946,2022,12,31,15,00,AAXX 31154 41946 01940 00000 10168 20160 30161 40166 70500 333 59014 70000==
41946,2022,12,31,18,00,AAXX 31184 41946 01940 00000 10160 20150 30165 40170 70500 333 59007 70000==
41946,2022,12,31,21,00,AAXX 31214 41946 31940 00000 10158 20150 30165 40170 70500 333 58001 70000=
41946,2023,01,01,00,00,AAXX 01004 41946 01940 30000 10164 20150 30175 40180 70500 80001 333 70000 83080==
41946,2023,01,01,03,00,AAXX 01034 41946 01940 50000 10190 20160 30192 40197 70510 80001 333 20148 58006 70000 85080==
41946,2023,01,01,06,00,AAXX 01064 41946 01950 80000 10230 20160 30184 40149 70522 8251/ 333 58011 70000 82618 88460==
41946,2023,01,01,09,00,AAXX 01094 41946 01950 00000 10249 20150 30160 40164 70521 333 58013 70000==
41946,2023,01,01,12,00,AAXX 01124 41946 01950 00000 10206 20170 30170 40175 70521 333 10245 58020 70000==
41946,2023,01,01,15,00,AAXX 01154 41946 01950 00000 10180 20160 30180 40185 70500 333 58019 70000==
41946,2023,01,01,18,00,AAXX 01184 41946 01940 00000 10163 20150 30180 40185 70500 333 58015 70000==
41946,2023,01,01,21,00,AAXX 01214 41946 01940 00000 10160 20150 30171 40176 70500 333 58006 70000==
41946,2023,01,02,00,00,AAXX 02004 41946 01930 00000 10154 20140 30175 40179 70500 333 58000 70000==
41946,2023,01,02,03,00,AAXX 02034 41946 01940 00000 10180 20150 30195 40200 70500 333 20145 58003 70000==
41946,2023,01,02,06,00,AAXX 02064 41946 01950 00000 10230 20160 30189 40194 70500 333 58005 70000==
41946,2023,01,02,09,00,AAXX 02094 41946 01950 00000 20160 30167 40171 70509 333 58005 70000==
41946,2023,01,02,12,00,AAXX 02124 41946 01950 00000 10194 20170 30174 40178 70500 333 10250 58004 70000==
41946,2023,01,02,15,00,AAXX 02154 41946 01940 00000 10166 20160 30191 40196 70500 333 58011 70000==
41946,2023,01,02,18,00,AAXX 02184 41946 01940 00000 10153 20140 30192 40197 70500 333 58012 70000==
41946,2023,01,02,21,00,AAXX 02214 41946 01940 00000 10153 20140 30184 40189 70500 333 58013 70000==
41946,2023,01,03,00,00,AAXX 03004 41946 01930 00000 10152 20140 30181 40186 70500 333 58006 70000==
41946,2023,01,03,03,00,AAXX 03034 41946 01906 00000 10155 20150 30204 40208 74444 333 20145 58009 70000==
41946,2023,01,03,06,00,AAXX 03064 41946 01930 00000 10185 20140 30191 40196 70540 333 58002 70000==
41946,2023,01,03,09,00,AAXX 03094 41946 01950 00203 10192 20150 30165 40170 70500 333 59002 70000==
41946,2023,01,03,12,00,AAXX 03124 41946 01940 00000 10170 20150 30173 40178 70500 333 10195 59001 70000==
41946,2023,01,03,15,00,AAXX 03154 41946 01940 00000 10160 20150 30189 40194 70500 333 59002 70000==
41946,2023,01,03,18,00,AAXX 03184 41946 01940 00000 10150 20140 30187 40192 70500 333 59005 70000==
41946,2023,01,03,21,00,AAXX 03214 41946 01940 00000 10148 20140 30186 40190 70500 333 58002 70000==
41946,2023,01,04,00,00,AAXX 04004 41946 01930 00000 10148 20140 30186 40190 70500 333 58006 70000==
41946,2023,01,04,03,00,AAXX 04034 41946 01530 80000 10170 20130 30206 40210 70522 8251/ 333 20145 58002 70000 82620 88460==
41946,2023,01,04,06,00,AAXX 04064 41946 01530 80000 10170 20130 30193 40198 70522 8252/ 333 58002 70000 82620 88460==
41946,2023,01,04,09,00,AAXX 04094 41946 01950 33601 10186 20140 30169 40174 70522 80001 333 58004 70000 83080==
41946,2023,01,04,12,00,AAXX 04124 41946 01950 00000 10161 20140 30169 40174 70521 333 10187 59004 70000==
41946,2023,01,04,15,00,AAXX 04154 41946 01940 00000 10150 20140 30183 40187 70500 333 59006 70000==
41946,2023,01,04,18,00,AAXX 04184 41946 01940 00000 10142 20130 30188 40192 70500 333 58001 70000==
41946,2023,01,04,21,00,AAXX 04214 41946 01940 00000 10130 20120 30182 40186 70500 333 59004 70000==
41946,2023,01,05,00,00,AAXX 05004 41946 01940 00000 10120 20110 30188 40193 70500 333 58002 70000==
41946,2023,01,05,03,00,AAXX 05034 41946 01907 03602 10130 20110 30206 40211 74444 333 20112 58000 70000==
41946,2023,01,05,06,00,AAXX 05064 41946 01950 03601 10170 20130 30195 40199 70540 333 58002 70000==
41946,2023,01,05,09,00,AAXX 05094 41946 01950 03601 10212 20130 30172 40176 70500 333 58003 70000==
41946,2023,01,05,12,00,AAXX 05124 41946 01950 00000 10180 20140 30170 40175 70500 333 10214 58001 70000==
41946,2023,01,05,15,00,AAXX 05154 41946 01940 00000 10148 20140 30190 40194 70500 333 58007 70000==
41946,2023,01,05,18,00,AAXX 05184 41946 01940 00000 10141 20130 30192 40196 70500 333 58004 70000==
41946,2023,01,05,21,00,AAXX 05214 41946 01930 00000 10127 20120 30183 40188 70500 333 58001 70000==
41947,2022,12,30,00,00,AAXX 30004 41947 01940 00000 10130 20130 30183 40185 70500 333 58018 70000==
41947,2022,12,30,03,00,AAXX 30034 41947 01950 00000 10176 20150 30193 40195 70500 333 20125 58019 70000==
41947,2022,12,30,06,00,AAXX 30064 41947 01950 00000 10225 20150 30181 40183 70500 333 58009 70000==
41947,2022,12,30,09,00,AAXX 30094 41947 01950 00000 10238 20150 30163 40165 70500 333 58011 70000==
41947,2022,12,30,12,00,AAXX 30124 41947 01950 00000 10192 20170 30165 40167 70500 333 10240 58004 70000==
41947,2022,12,30,15,00,AAXX 30154 41947 01950 00000 10170 20160 30182 40184 70500 333 58009 70000==
41947,2022,12,30,18,00,AAXX 30184 41947 01950 00000 10160 20150 30176 40178 70500 333 59006 70000==
41947,2022,12,31,00,00,AAXX 31004 41947 01940 00000 10138 20138 30169 40171 70500 333 59014 70000==
41947,2022,12,31,03,00,AAXX 31034 41947 01920 00000 10165 20165 30187 40190 71044 333 20134 59005 70000==
41947,2022,12,31,06,00,AAXX 31064 41947 01950 00000 10240 20150 30177 40180 70540 333 59003 70000==
41947,2022,12,31,09,00,AAXX 31094 41947 01950 00000 10250 20160 30147 40150 70500 333 59015 70000==
41947,2022,12,31,12,00,AAXX 31124 41947 01950 00000 10197 20170 30149 40152 70500 333 10255 59015 70000==
41947,2022,12,31,15,00,AAXX 31154 41947 01950 00000 10170 20160 30166 40169 70500 333 59005 70000==
41947,2022,12,31,18,00,AAXX 31184 41947 01940 00000 10164 20150 30175 40178 70500 333 58000 70000==
41947,2022,12,31,21,00,AAXX 31214 41947 31940 00000 10156 20150 30170 40172 70500 333 59002 70000=
41947,2023,01,01,00,00,AAXX 01004 41947 01930 00000 10148 20148 30169 40171 70500 333 58000 70000==
41947,2023,01,01,03,00,AAXX 01034 41947 01940 00000 10185 20170 30191 40194 70500 333 20145 58004 70000==
41947,2023,01,01,06,00,AAXX 01064 41947 01950 00000 10230 20160 30183 40186 70500 333 58006 70000==
41947,2023,01,01,09,00,AAXX 01094 41947 01950 00000 10238 20170 30157 40160 70500 333 58010 70000==
41947,2023,01,01,12,00,AAXX 01124 41947 01940 00000 10200 20170 30165 40167 70500 333 10250 58015 70000==
41947,2023,01,01,15,00,AAXX 01154 41947 01940 00000 10173 20170 30185 40188 70500 333 58019 70000==
41947,2023,01,01,18,00,AAXX 01184 41947 01940 00000 10165 20160 30191 40193 70500 333 58015 70000==
41947,2023,01,01,21,00,AAXX 01214 41947 01940 00000 10156 20150 30182 40184 70500 333 58012 70000==
41947,2023,01,02,00,00,AAXX 02004 41947 01940 00000 10163 20160 30192 40194 70500 333 70000==
41947,2023,01,02,03,00,AAXX 02034 41947 01950 00000 10190 20170 30191 40194 70500 333 20145 58000 70000==
41947,2023,01,02,06,00,AAXX 02064 41947 01950 00000 10240 20170 30187 40190 70500 333 58004 70000==
41947,2023,01,02,09,00,AAXX 02094 41947 01950 00000 10255 20170 30167 40169 70500 333 58009 70000==
41947,2023,01,02,12,00,AAXX 02124 41947 01950 00000 10198 20150 30174 40176 70500 333 10258 58009 70000==
41947,2023,01,02,15,00,AAXX 02154 41947 01950 00000 10170 20160 30195 40197 70500 333 58009 70000==
41947,2023,01,02,18,00,AAXX 02184 41947 01950 00000 10162 20150 30197 40200 70500 333 58007 70000==
41947,2023,01,02,21,00,AAXX 02214 41947 01950 00000 10152 20150 30193 40195 70500 333 58011 70000==
41947,2023,01,03,00,00,AAXX 03004 41947 01940 00000 10145 20140 30189 40191 70500 333 58017 70000==
41947,2023,01,03,03,00,AAXX 03034 41947 01950 00000 10180 20160 30200 40202 70500 333 20140 58008 70000==
41947,2023,01,03,06,00,AAXX 03064 41947 01950 00000 10202 20160 30193 40195 70500 333 58005 70000==
41947,2023,01,03,09,00,AAXX 03094 41947 01950 00000 10205 20170 30160 40162 70500 333 59007 70000==
41947,2023,01,03,12,00,AAXX 03124 41947 01950 00000 10168 20160 30176 40178 70500 333 10215 58001 70000==
41947,2023,01,03,15,00,AAXX 03154 41947 01950 00000 10162 20150 30187 40189 70500 333 59008 70000==
41947,2023,01,03,18,00,AAXX 03184 41947 01950 00000 10155 20150 30192 40194 70500 333 59006 70000==
41947,2023,01,03,21,00,AAXX 03214 41947 01950 00000 10150 20140 30190 40192 70500 333 59003 70000==
41947,2023,01,04,00,00,AAXX 04004 41947 01940 00000 10140 20140 30188 40191 70500 333 58000 70000==
41947,2023,01,04,03,00,AAXX 04034 41947 01450 40000 10160 20140 30204 40207 70520 84500 333 20135 58005 70000 84617==
41947,2023,01,04,06,00,AAXX 04064 41947 01450 40000 10180 20150 30198 40201 70522 84500 333 58006 70000 84618==
41947,2023,01,04,09,00,AAXX 04094 41947 01450 33303 10180 20150 30167 40169 70522 83500 333 58007 70000 83618==
41947,2023,01,04,12,00,AAXX 04124 41947 01450 43602 10162 20150 30166 40168 70522 84500 333 10188 59010 70000 84618==
41947,2023,01,04,15,00,AAXX 04154 41947 01440 63602 10152 20140 30181 40183 70522 84510 333 59006 70000 84618 85459==
41947,2023,01,04,18,00,AAXX 04184 41947 01440 60000 10146 20140 30186 40188 70522 86500 333 59006 70000 86618==
41947,2023,01,04,21,00,AAXX 04214 41947 01440 40000 10140 20130 30185 40187 70522 84500 333 59007 70000 84618==
41947,2023,01,05,00,00,AAXX 05004 41947 01440 40502 10137 20137 30183 40186 70522 84500 333 59005 70000 84618==
41947,2023,01,05,03,00,AAXX 05034 41947 01940 40000 10140 20110 30206 40209 70522 84500 333 20130 58002 70000 84618==
41947,2023,01,05,06,00,AAXX 05064 41947 01450 73602 10160 20130 30198 40201 70522 83570 333 58000 70000 83618 86458==
41947,2023,01,05,09,00,AAXX 05094 41947 01950 03602 10208 20150 30171 40173 70520 333 58004 70000==
41947,2023,01,05,12,00,AAXX 05124 41947 01950 00000 10175 20160 30182 40184 70500 333 10210 58016 70000==
41947,2023,01,05,15,00,AAXX 05154 41947 01950 00000 10152 20140 30189 40191 70500 333 58008 70000==
41947,2023,01,05,18,00,AAXX 05184 41947 01950 00000 10140 20130 30193 40195 70500 333 58007 70000==
41947,2023,01,05,21,00,AAXX 05214 41947 01950 00000 10130 20120 30190 40193 70500 333 58006 70000==
41950,2022,12,30,00,00,AAXX 30004 41950 01320 70000 10116 20116 30179 40182 71020 85610 333 58013 70000 82708 84616 86459==
41950,2022,12,30,06,00,AAXX 30064 41950 01940 00000 10232 20140 30185 40187 70520 333 58007 70000==
41950,2022,12,30,09,00,AAXX 30094 41950 01945 00000 10238 20120 30165 40167 70500 333 58015 70000==
41950,2022,12,30,12,00,AAXX 30124 41950 01940 00000 10178 20150 30166 40168 70500 333 10243 58008 70000==
41950,2022,12,30,15,00,AAXX 30154 41950 01940 00000 10147 20140 30175 40177 70500 333 58008 70000==
41950,2022,12,30,18,00,AAXX 30184 41950 01940 00000 10135 20130 30173 40175 70500 333 59008 70000==
41950,2022,12,30,21,00,AAXX 30214 41950 01920 00000 10130 20130 30164 40166 71000 333 59014 70000==
41950,2022,12,31,00,00,AAXX 31004 41950 01902 00000 10125 20125 30168 40171 74740 89/// 333 59011 70000==
41950,2022,12,31,06,00,AAXX 31064 41950 01935 00000 10221 20140 30181 40183 70540 333 59004 70000==
41950,2022,12,31,09,00,AAXX 31094 41950 01945 00000 10250 20130 30159 40161 70500 333 59006 70000==
41950,2022,12,31,12,00,AAXX 31124 41950 01940 00000 10177 20160 30156 40158 70500 333 10252 59010 70000==
41950,2022,12,31,18,00,AAXX 31184 41950 01935 00000 10136 20136 30179 40182 70500 333 58006 70000==
41950,2022,12,31,21,00,AAXX 31214 41950 31920 00000 10132 20130 30172 40175 71000 333 58008 70000=
41950,2023,01,01,00,00,AAXX 01004 41950 01901 00000 10130 20130 30175 40178 74740 89/// 333 58007 70000==
41950,2023,01,01,03,00,AAXX 01034 41950 01930 00000 10164 20160 30202 40205 70544 333 20119 58006 70000==
41950,2023,01,01,06,00,AAXX 01064 41950 01940 00000 10233 20130 30196 40198 70540 333 58015 70000==
41950,2023,01,01,09,00,AAXX 01094 41950 01945 00000 10248 20140 30166 40168 70500 333 58007 70000==
41950,2023,01,01,12,00,AAXX 01124 41950 01940 00000 10180 20160 30168 40170 70500 333 10250 58012 70000==
41950,2023,01,01,15,00,AAXX 01154 41950 01940 00000 10148 20148 30184 40186 70500 333 58010 70000==
41950,2023,01,01,18,00,AAXX 01184 41950 01940 00000 10137 20137 30183 40185 70500 333 58004 70000==
41950,2023,01,01,21,00,AAXX 01214 41950 01935 00000 10133 20130 30171 40174 70500 333 59001 70000==
41950,2023,01,02,00,00,AAXX 02004 41950 01930 00000 10128 20128 30175 40178 70500 333 58000 70000==
41950,2023,01,02,03,00,AAXX 02034 41950 01930 00000 10168 20160 30202 40205 70544 333 20123 58000 70000==
41950,2023,01,02,06,00,AAXX 02064 41950 01940 00000 10237 20140 30195 40197 70540 333 59001 70000==
41950,2023,01,02,09,00,AAXX 02094 41950 01945 00000 10255 20160 30168 40170 70500 333 58002 70000==
41950,2023,01,02,12,00,AAXX 02124 41950 01945 00000 10181 20160 30176 40178 70500 333 10260 58008 70000==
41950,2023,01,02,15,00,AAXX 02154 41950 01940 00000 10152 20150 30191 40193 70500 333 58007 70000==
41950,2023,01,02,21,00,AAXX 02214 41950 01930 00000 10124 20120 30182 40185 70500 333 58011 70000==
41950,2023,01,03,00,00,AAXX 03004 41950 01930 00000 10122 20120 30182 40185 70500 333 58007 70000==
41950,2023,01,03,03,00,AAXX 03034 41950 01925 00000 10169 20160 30202 40205 71000 333 20116 58000 70000==
41950,2023,01,03,06,00,AAXX 03064 41950 01945 03202 10244 20140 30191 40193 70500 333 59004 70000==
41950,2023,01,03,09,00,AAXX 03094 41950 02950 00000 10244 20100 30159 40161 333 59009 70000==
41950,2023,01,03,12,00,AAXX 03124 41950 01945 00000 10185 20170 30165 40167 70510 333 10254 59011 70000==
41950,2023,01,03,15,00,AAXX 03154 41950 31940 00000 10150 20140 30183 40185 70500 333 59008 70000=
41950,2023,01,03,18,00,AAXX 03184 41950 01940 50000 10150 20140 30186 40188 70500 82510 333 59005 70000 82617 85459==
41950,2023,01,03,21,00,AAXX 03214 41950 01440 60000 10140 20130 30185 40187 70522 83510 333 58003 70000 83617 86459==
41950,2023,01,04,00,00,AAXX 04004 41950 01335 80000 10135 20130 30187 40189 70522 8562/ 333 58005 70000 82708 84616 88458==
41950,2023,01,04,03,00,AAXX 04034 41950 01340 70000 10158 20130 30204 40207 70522 84610 333 20131 58002 70000 81708 84616 87459==
41950,2023,01,04,06,00,AAXX 04064 41950 01950 00000 10215 20140 30187 40189 70520 333 59004 70000==
41950,2023,01,04,09,00,AAXX 04094 41950 02950 00000 10215 20150 30168 40170 333 58009 70000==
41950,2023,01,04,12,00,AAXX 04124 41950 01445 60000 10165 20150 30168 40171 70510 83510 333 10224 58003 70000 83616 86459==
41950,2023,01,04,15,00,AAXX 04154 41950 01345 83002 10150 20130 30182 40184 70522 8562/ 333 59001 70000 82708 84616 88459==
41950,2023,01,04,18,00,AAXX 04184 41950 01345 83203 10146 20140 30187 40190 70522 8562/ 333 58001 70000 82708 84616 88458==
41950,2023,01,04,21,00,AAXX 04214 41950 01345 80000 10138 20130 30189 40192 70522 8562/ 333 58004 70000 82708 84616 88458==
41950,2023,01,05,00,00,AAXX 05004 41950 01340 70000 10132 20120 30185 40188 70522 85610 333 59002 70000 82708 84616 86459==
41950,2023,01,05,03,00,AAXX 05034 41950 01335 80000 10143 20130 30212 40215 70522 8562/ 333 20126 58008 70000 82708 84616 88458==
41950,2023,01,05,06,00,AAXX 05064 41950 31440 60000 10183 20140 30202 40205 70522 83510 333 56990 58015 70000 83616 86458=
41950,2023,01,05,09,00,AAXX 05094 41950 01945 03202 10205 20150 30170 40472 70510 333 58002 70000==
41950,2023,01,05,12,00,AAXX 05124 41950 01940 00000 10155 20150 30172 40175 70510 333 10215 58004 70000==
41950,2023,01,05,18,00,AAXX 05184 41950 01935 00000 10136 20136 30184 40187 70500 333 59003 70000==
41950,2023,01,05,21,00,AAXX 05214 41950 01930 00000 10123 20120 30172 40175 70500 333 59017 70000==
41951,2022,12,30,00,00,AAXX 30004 41951 01908 00000 10117 20117 30174 40179 74000 333 58009 70000==
41951,2022,12,30,03,00,AAXX 30034 41951 01940 00000 10166 20160 30190 40195 70540 333 20114 58008 70000==
41951,2022,12,30,06,00,AAXX 30064 41951 01450 30502 10228 20180 30178 40183 70540 83500 333 58011 70000 83618==
41951,2022,12,30,09,00,AAXX 30094 41951 01950 03103 10237 20110 30158 40163 70500 333 58012 70000==
41951,2022,12,30,12,00,AAXX 30124 41951 01940 00000 10170 20150 30160 40165 70500 333 10240 58011 70000==
41951,2022,12,30,15,00,AAXX 30154 41951 01935 00000 10144 20140 30173 40178 70500 333 59004 70000==
41951,2022,12,30,18,00,AAXX 30184 41951 01930 00000 10138 20138 30169 40174 70500 333 59009 70000==
41951,2022,12,31,00,00,AAXX 31004 41951 01903 00000 10128 20128 30171 40176 74340 89/// 333 59003 70000==
41951,2022,12,31,03,00,AAXX 31034 41951 01935 00000 10177 20177 30193 40198 70544 333 20124 58003 70000==
41951,2022,12,31,06,00,AAXX 31064 41951 01950 00702 10234 20130 30176 40181 70540 333 59002 70000==
41951,2022,12,31,09,00,AAXX 31094 41951 01950 00702 10242 20110 30150 40155 70500 333 59008 70000==
41951,2022,12,31,12,00,AAXX 31124 41951 01940 00000 10172 20150 30149 40154 70500 333 10247 59001 70000==
41951,2022,12,31,15,00,AAXX 31154 41951 01935 00000 10148 20148 30169 40174 70500 333 59004 70000==
41951,2022,12,31,18,00,AAXX 31184 41951 01930 00000 10142 20140 30173 40178 70500 333 58004 70000==
41951,2022,12,31,21,00,AAXX 31214 41951 31915 00000 10133 20130 30172 40177 71000 333 58003 70000=
41951,2023,01,01,00,00,AAXX 01004 41951 01903 00000 10121 20120 30176 40181 74340 89/// 333 58005 70000==
41951,2023,01,01,03,00,AAXX 01034 41951 01935 00000 10173 20160 30197 40202 70544 333 20116 58004 70000==
41951,2023,01,01,06,00,AAXX 01064 41951 01950 00302 10238 20150 30185 40190 70540 333 58009 70000==
41951,2023,01,01,09,00,AAXX 01094 41951 01950 03102 10252 20140 30158 40163 70500 333 58008 70000==
41951,2023,01,01,12,00,AAXX 01124 41951 01950 00000 10175 20170 30160 40165 70500 333 10254 58011 70000==
41951,2023,01,01,15,00,AAXX 01154 41951 01935 00000 10147 20147 30177 40182 70500 333 58008 70000==
41951,2023,01,01,18,00,AAXX 01184 41951 01930 00000 10140 20140 30173 40178 70500 333 58000 70000==
41951,2023,01,01,21,00,AAXX 01214 41951 01915 00000 10133 20130 30174 40179 71000 333 58002 70000==
41951,2023,01,02,00,00,AAXX 02004 41951 01902 00000 10149 20149 30173 40178 74544 89/// 333 59003 70000==
41951,2023,01,02,03,00,AAXX 02034 41951 01904 00000 10168 20168 30191 40196 74444 333 20125 59006 70000==
41951,2023,01,02,06,00,AAXX 02064 41951 01945 00503 10240 20160 30190 40195 70540 333 58005 70000==
41951,2023,01,02,09,00,AAXX 02094 41951 01950 00502 10257 20160 30166 40171 70500 333 58008 70000==
41951,2023,01,02,12,00,AAXX 02124 41951 01950 00000 10182 20160 30168 40173 70500 333 10259 58008 70000==
41951,2023,01,02,15,00,AAXX 02154 41951 01940 00000 10154 20150 30187 40192 70500 333 58010 70000==
41951,2023,01,02,18,00,AAXX 02184 41951 01930 00000 10148 20148 30185 40190 70500 333 58012 70000==
41951,2023,01,02,21,00,AAXX 02214 41951 01915 00000 10133 20130 30180 40185 71000 333 58006 70000==
41951,2023,01,03,00,00,AAXX 03004 41951 01915 00000 10124 20120 30180 40185 71000 333 58007 70000==
41951,2023,01,03,03,00,AAXX 03034 41951 01940 00000 10178 20170 30194 40199 70500 333 20120 58003 70000==
41951,2023,01,03,06,00,AAXX 03064 41951 01950 03303 10248 20150 30184 40189 70500 333 59006 70000==
41951,2023,01,03,09,00,AAXX 03094 41951 01950 03202 10250 20130 30152 40157 70500 333 59004 70000==
41951,2023,01,03,12,00,AAXX 03124 41951 01950 00000 10175 20160 30158 40163 70500 333 10256 59010 70000==
41951,2023,01,03,15,00,AAXX 03154 41951 01940 00000 10152 20150 30179 40184 70500 333 59008 70000==
41951,2023,01,03,18,00,AAXX 03184 41951 01920 02902 10152 20150 30181 40186 71000 333 59004 70000==
41951,2023,01,03,21,00,AAXX 03214 41951 01430 60000 10146 20146 30177 40182 70520 333 59003 70000 83618 85459==
41951,2023,01,04,00,00,AAXX 04004 41951 01430 80000 10147 20140 30176 40181 70522 8452/ 333 59004 70000 84618 88459==
41951,2023,01,04,03,00,AAXX 04034 41951 01440 72202 10168 20140 30193 40198 70522 83510 333 20142 59001 70000 83618 85459==
41951,2023,01,04,06,00,AAXX 04064 41951 01950 02904 10218 20140 30180 40185 70520 333 59004 70000==
41951,2023,01,04,09,00,AAXX 04094 41951 01940 03304 10222 20160 30153 40158 70500 333 58001 70000==
41951,2023,01,04,12,00,AAXX 04124 41951 01450 52203 10164 20150 30155 40160 70520 83510 333 10233 59003 70000 83618 84459==
41951,2023,01,04,15,00,AAXX 04154 41951 01440 83302 10156 20150 30173 40178 70522 8452/ 333 59006 70000 84618 88458==
41951,2023,01,04,18,00,AAXX 04184 41951 01440 82902 10150 20140 30180 40185 70522 8452/ 333 59001 70000 84618 88458==
41951,2023,01,04,21,00,AAXX 04214 41951 01440 62902 10148 20140 30180 40185 70522 83510 333 58003 70000 83618 85459==
41951,2023,01,05,00,00,AAXX 05004 41951 01440 82902 10150 20140 30181 40186 70522 8452/ 333 58005 70000 84618 88458==
41951,2023,01,05,03,00,AAXX 05034 41951 01440 83302 10156 20150 30198 40203 70522 8452/ 333 20142 58005 70000 84618 88458==
41951,2023,01,05,06,00,AAXX 05064 41951 01440 62802 10196 20150 30191 40196 70522 83510 333 58011 70000 83618 85459==
41951,2023,01,05,09,00,AAXX 05094 41951 01450 22803 10216 20160 30163 40168 70520 82500 333 58010 70000 82618==
41951,2023,01,05,12,00,AAXX 05124 41951 01950 00000 10167 20160 30160 40165 70500 333 10220 58005 70000==
41951,2023,01,05,15,00,AAXX 05154 41951 01935 00000 10140 20140 30179 40184 70500 333 58006 70000==
41951,2023,01,05,18,00,AAXX 05184 41951 01430 22902 10140 20140 30179 40184 70500 82500 333 59001 70000 82618==
41951,2023,01,05,21,00,AAXX 05214 41951 01420 32902 10124 20120 30180 40185 71000 83500 333 58000 70000 83618==
41953,2022,12,30,00,00,AAXX 30004 41953 01930 00000 10140 20140 30181 40187 70500 333 58015 70000==
41953,2022,12,30,03,00,AAXX 30034 41953 01940 00000 10166 20130 30197 40203 70500 333 20136 58007 70000==
41953,2022,12,30,06,00,AAXX 30064 41953 01940 00504 10209 20140 30185 40190 70500 333 58016 70000==
41953,2022,12,30,09,00,AAXX 30094 41953 01940 03104 10223 20120 30162 40167 70500 333 58012 70000==
41953,2022,12,30,12,00,AAXX 30124 41953 01940 00000 10184 20140 30163 40168 70500 333 10225 58005 70000==
41953,2022,12,30,15,00,AAXX 30154 41953 01930 00000 10165 20150 30177 40183 70500 333 59001 70000==
41953,2022,12,30,18,00,AAXX 30184 41953 01930 00000 10154 20140 30179 40185 70500 333 59001 70000==
41953,2022,12,30,21,00,AAXX 30214 41953 01930 00000 10150 20140 30174 40180 70500 333 59001 70000==
41953,2022,12,31,00,00,AAXX 31004 41953 01930 00000 10146 20146 30173 40179 70500 333 59008 70000==
41953,2022,12,31,03,00,AAXX 31034 41953 01909 00000 10150 20150 30192 40198 74144 333 20144 59005 70000==
41953,2022,12,31,06,00,AAXX 31064 41953 01940 00000 10205 20170 30189 40194 70500 333 58004 70000==
41953,2022,12,31,09,00,AAXX 31094 41953 01940 03603 10240 20140 30151 40156 70500 333 59011 70000==
41953,2022,12,31,12,00,AAXX 31124 41953 01940 00000 10188 20170 30158 40163 70500 333 10243 59005 70000==
41953,2022,12,31,15,00,AAXX 31154 41953 01930 00000 10162 20150 30175 40181 70500 333 59002 70000==
41953,2022,12,31,18,00,AAXX 31184 41953 01930 00000 10154 20140 30178 40184 70500 333 59003 70000==
41953,2022,12,31,21,00,AAXX 31214 41953 31930 00000 10145 20145 30171 40177 70500 333 59003 70000=
41953,2023,01,01,00,00,AAXX 01004 41953 01930 00000 10140 20140 30178 40184 70500 333 58005 70000==
41953,2023,01,01,03,00,AAXX 01034 41953 01940 03103 10180 20140 30204 40210 70500 333 20137 58012 70000==
41953,2023,01,01,06,00,AAXX 01064 41953 01940 00504 10236 20130 30189 40194 70500 333 58000 70000==
41953,2023,01,01,09,00,AAXX 01094 41953 01940 03605 10250 20120 30165 40170 70500 333 58014 70000==
41953,2023,01,01,12,00,AAXX 01124 41953 01940 00000 10200 20160 30166 40171 70500 333 10252 58008 70000==
41953,2023,01,01,15,00,AAXX 01154 41953 01930 00000 10170 20150 30181 40187 70500 333 58006 70000==
41953,2023,01,01,18,00,AAXX 01184 41953 01930 00000 10160 20150 30182 40188 70500 333 58004 70000==
41953,2023,01,01,21,00,AAXX 01214 41953 01920 00000 10154 20140 30177 40183 70500 333 58006 70000==
41953,2023,01,02,00,00,AAXX 02004 41953 01930 00000 10150 20150 30177 40183 70500 333 59001 70000==
41953,2023,01,02,03,00,AAXX 02034 41953 01940 03605 10188 20150 30201 40206 70500 333 20148 59003 70000==
41953,2023,01,02,06,00,AAXX 02064 41953 01950 03602 10238 20140 30191 40196 70500 333 58002 70000==
41953,2023,01,02,09,00,AAXX 02094 41953 01950 03601 10250 20130 30166 40171 70500 333 58001 70000==
41953,2023,01,02,12,00,AAXX 02124 41953 01940 00000 10185 20170 30176 40181 70500 333 10251 58010 70000==
41953,2023,01,02,15,00,AAXX 02154 41953 01930 00000 10168 20160 30188 40193 70500 333 58008 70000==
41953,2023,01,02,18,00,AAXX 02184 41953 NIL=
41953,2023,01,02,21,00,AAXX 02214 41953 01930 00000 10152 20150 30186 40191 70500 333 58009 70000==
41953,2023,01,03,00,00,AAXX 03004 41953 01930 00000 10146 20146 30181 40186 70500 333 58004 70000==
41953,2023,01,03,03,00,AAXX 03034 41953 01940 03102 10190 20150 30199 40204 70500 333 20145 59002 70000==
41953,2023,01,03,06,00,AAXX 03064 41953 01950 03604 10240 20120 30186 40191 70500 333 59005 70000==
41953,2023,01,03,09,00,AAXX 03094 41953 01950 03604 10252 20120 30163 40168 70500 333 59003 70000==
41953,2023,01,03,12,00,AAXX 03124 41953 01940 03102 10204 20160 30162 40167 70500 333 10253 59014 70000==
41953,2023,01,03,15,00,AAXX 03154 41953 01930 03102 10180 20160 30173 40178 70500 333 59015 70000==
41953,2023,01,03,18,00,AAXX 03184 41953 01930 00000 10166 20160 30174 40179 70500 333 59016 70000==
41953,2023,01,03,21,00,AAXX 03214 41953 01930 03102 10160 20150 30178 40183 70500 333 59008 70000==
41953,2023,01,04,00,00,AAXX 04004 41953 01930 03602 10156 20150 30183 40188 70500 333 58002 70000==
41953,2023,01,04,03,00,AAXX 04034 41953 01940 03102 10182 20150 30200 40205 70500 333 20155 58001 70000==
41953,2023,01,04,06,00,AAXX 04064 41953 01940 03003 10213 20150 30184 40189 70500 333 59002 70000==
41953,2023,01,04,09,00,AAXX 04094 41953 01940 03003 10227 20150 30157 40162 70500 333 59006 70000==
41953,2023,01,04,12,00,AAXX 04124 41953 01940 03003 10185 20160 30157 40162 70500 333 10230 59005 70000==
41953,2023,01,04,15,00,AAXX 04154 41953 01930 03602 10158 20150 30176 40181 70500 333 58003 70000==
41953,2023,01,04,18,00,AAXX 04184 41953 01930 03603 10155 20155 30181 40186 70500 333 58007 70000==
41953,2023,01,04,21,00,AAXX 04214 41953 01930 03603 10150 20150 30175 40180 70500 333 59003 70000==
41953,2023,01,05,00,00,AAXX 05004 41953 01930 03604 10155 20150 30180 40185 70500 333 59003 70000==
41953,2023,01,05,03,00,AAXX 05034 41953 01930 03603 10152 20150 30205 40210 70500 333 20148 58005 70000==
41953,2023,01,05,06,00,AAXX 05064 41953 01430 83003 10175 20150 30196 40201 70520 8352/ 333 58012 70000 83616 88458==
41953,2023,01,05,09,00,AAXX 05094 41953 01940 03004 10200 20150 30168 40173 70500 333 58011 70000==
41953,2023,01,05,12,00,AAXX 05124 41953 01940 00000 10174 20150 30166 40171 70500 333 10200 58009 70000==
41953,2023,01,05,15,00,AAXX 05154 41953 01930 00000 10154 20140 30181 40186 70500 333 58005 70000==
41953,2023,01,05,18,00,AAXX 05184 41953 01930 00000 10155 20155 30183 40188 70500 333 58002 70000==
41953,2023,01,05,21,00,AAXX 05214 41953 01930 00000 10150 20150 30175 40180 70500 333 58000 70000==
41955,2022,12,30,00,00,AAXX 30004 41955 NIL=
41955,2022,12,30,06,00,AAXX 30064 41955 NIL=
41955,2022,12,30,12,00,AAXX 30124 41955 NIL=
41955,2022,12,31,06,00,AAXX 31064 41955 NIL=
41955,2022,12,31,12,00,AAXX 31124 41955 NIL=
41955,2023,01,01,00,00,AAXX 01004 41955 NIL=
41955,2023,01,01,06,00,AAXX 01064 41955 NIL=
41955,2023,01,02,12,00,AAXX 02124 41955 NIL=
41955,2023,01,02,18,00,AAXX 02184 41955 NIL=
41955,2023,01,03,06,00,AAXX 03064 41955 NIL=
41955,2023,01,03,12,00,AAXX 03124 41955 NIL=
41955,2023,01,03,18,00,AAXX 03184 41955 NIL=
41955,2023,01,04,00,00,AAXX 04004 41955 NIL=
41955,2023,01,04,06,00,AAXX 04064 41955 NIL=
41955,2023,01,05,06,00,AAXX 05064 41955 NIL=
41955,2023,01,05,18,00,AAXX 05184 41955 NIL=
41958,2022,12,30,00,00,AAXX 30004 41958 31940 00000 10136 20136 30165 40167 70500 333 58006 70000=
41958,2022,12,30,03,00,AAXX 30034 41958 31940 00000 10172 20150 30186 40188 70500 333 20126 58006 70000=
41958,2022,12,30,06,00,AAXX 30064 41958 31950 03501 10236 20140 30178 40180 70500 333 58009 70000=
41958,2022,12,30,09,00,AAXX 30094 41958 31950 00000 10250 20110 30153 40155 70500 333 58011 70000=
41958,2022,12,30,12,00,AAXX 30124 41958 31950 00000 10200 20160 30151 40153 70500 333 10251 58004 70000=
41958,2022,12,30,15,00,AAXX 30154 41958 31940 00000 10174 20160 30163 40165 70500 333 59001 70000=
41958,2022,12,30,21,00,AAXX 30214 41958 31930 00000 10160 20160 30148 40150 71000 333 59009 70000=
41958,2022,12,31,00,00,AAXX 31004 41958 31930 00000 10151 20150 30155 40157 71000 333 59010 70000=
41958,2022,12,31,03,00,AAXX 31034 41958 31930 00501 10180 20150 30179 40181 71000 333 20144 59007 70000=
41958,2022,12,31,06,00,AAXX 31064 41958 31950 00501 10240 20150 30170 40172 70500 333 59008 70000=
41958,2022,12,31,09,00,AAXX 31094 41958 31950 00000 10250 20160 30144 40146 70500 333 59009 70000=
41958,2022,12,31,12,00,AAXX 31124 41958 31950 00000 10205 20180 30140 40142 70500 333 10254 59011 70000=
41958,2022,12,31,15,00,AAXX 31154 41958 31940 00000 10182 20170 30158 40160 70500 333 59005 70000=
41958,2022,12,31,21,00,AAXX 31214 41958 31940 00000 10165 20165 30155 40157 70500 333 58007 70000=
41958,2023,01,01,00,00,AAXX 01004 41958 31940 00000 10161 20160 30165 40167 70500 333 58010 70000=
41958,2023,01,01,03,00,AAXX 01034 41958 31940 00501 10187 20170 30186 40188 70500 333 20154 58007 70000=
41958,2023,01,01,06,00,AAXX 01064 41958 31450 60501 10223 20160 30182 40184 70500 83510 333 56990 58012 70000 83616 85458=
41958,2023,01,01,09,00,AAXX 01094 41958 31450 60501 10240 20170 30150 40152 70522 83510 333 56990 58006 70000 83616 85458=
41958,2023,01,01,12,00,AAXX 01124 41958 31940 00000 10212 20170 30149 40151 70520 333 10241 58009 70000=
41958,2023,01,01,15,00,AAXX 01154 41958 31940 00000 10187 20170 30167 40169 70500 333 58009 70000=
41958,2023,01,01,18,00,AAXX 01184 41958 31940 00000 10182 20180 30174 40176 70500 333 58006 70000=
41958,2023,01,01,21,00,AAXX 01214 41958 31940 00000 10173 20160 30155 40157 70500 333 58000 70000=
41958,2023,01,02,00,00,AAXX 02004 41958 31940 00000 10163 20150 30162 40164 70500 333 59003 70000=
41958,2023,01,02,03,00,AAXX 02034 41958 31950 00000 10186 20170 30189 40191 70500 333 20153 58003 70000=
41958,2023,01,02,06,00,AAXX 02064 41958 31950 00901 10236 20170 30186 40191 70500 333 58004 70000=
41958,2023,01,02,09,00,AAXX 02094 41958 31950 00902 10248 20140 30163 40165 70500 333 58013 70000=
41958,2023,01,02,12,00,AAXX 02124 41958 31940 00000 10206 20170 30165 40168 70500 333 10252 58016 70000=
41958,2023,01,02,15,00,AAXX 02154 41958 31940 00000 10180 20160 30181 40183 70500 333 58014 70000=
41958,2023,01,02,18,00,AAXX 02184 41958 31940 00000 10172 20160 30184 40186 70500 333 58010 70000=
41958,2023,01,02,21,00,AAXX 02214 41958 31940 00801 10160 20150 30166 40168 70500 333 58011 70000=
41958,2023,01,03,00,00,AAXX 03004 41958 31940 00801 10158 20150 30171 40173 70500 333 58009 70000=
41958,2023,01,03,03,00,AAXX 03034 41958 31940 00000 10186 20160 30197 40199 70500 333 20150 58008 70000=
41958,2023,01,03,06,00,AAXX 03064 41958 31940 03302 10242 20160 30185 40188 70500 333 59001 70000=
41958,2023,01,03,09,00,AAXX 03094 41958 31940 03503 10232 20150 30155 40158 70500 333 59008 70000=
41958,2023,01,03,12,00,AAXX 03124 41958 31930 03601 10188 20170 30163 40166 70500 333 10243 59002 70000=
41958,2023,01,03,15,00,AAXX 03154 41958 31930 33601 10158 20150 30179 40181 70500 83600 333 56800 59002 70000 83709=
41958,2023,01,03,18,00,AAXX 03184 41958 31330 33601 10150 20140 30182 40184 70500 83600 333 56800 59002 70000 83708=
41958,2023,01,03,21,00,AAXX 03214 41958 31430 83603 10142 20120 30173 40175 70521 8352/ 333 56899 58007 70000 83617 88459=
41958,2023,01,04,00,00,AAXX 04004 41958 31430 63603 10140 20130 30177 40179 70521 83510 333 56890 58006 70000 83616 86459=
41958,2023,01,04,03,00,AAXX 04034 41958 31430 70102 10150 20130 30201 40204 70522 83510 333 20135 56890 58004 70000 83616 87459=
41958,2023,01,04,06,00,AAXX 04064 41958 31930 03603 10200 20140 30190 40192 70520 333 58005 70000=
41958,2023,01,04,09,00,AAXX 04094 41958 31930 03402 10204 20140 30156 40158 70500 333 58001 70000=
41958,2023,01,04,12,00,AAXX 04124 41958 31930 03602 10162 20140 30157 40159 70500 333 10220 59006 70000=
41958,2023,01,04,15,00,AAXX 04154 41958 31430 60103 10156 20150 30176 40178 70520 83510 333 56890 59003 70000 83616 86459=
41958,2023,01,04,18,00,AAXX 04184 41958 31430 83602 10150 20140 30179 40181 70522 8352/ 333 56899 59003 70000 83617 88459=
41958,2023,01,04,21,00,AAXX 04214 41958 31430 83603 10148 20130 30176 40178 70522 8352/ 333 56899 58003 70000 83617 88459=
41958,2023,01,05,00,00,AAXX 05004 41958 31430 83603 10146 20140 30180 40182 70522 8352/ 333 56899 58003 70000 83616 88459=
41958,2023,01,05,03,00,AAXX 05034 41958 31415 83603 10150 20130 30204 40206 71022 8352/ 333 20140 56899 58003 70000 83616 88459=
41958,2023,01,05,06,00,AAXX 05064 41958 31430 73403 10172 20140 30194 40196 70522 83510 333 56890 58004 70000 83616 87459=
41958,2023,01,05,09,00,AAXX 05094 41958 31930 03404 10204 20140 30166 40168 70520 333 58010 70000=
41958,2023,01,05,12,00,AAXX 05124 41958 31930 03502 10178 20150 30164 40166 70500 333 10210 58007 70000=
41958,2023,01,05,15,00,AAXX 05154 41958 31930 03501 10148 20140 30182 40184 70500 333 58006 70000=
41958,2023,01,05,18,00,AAXX 05184 41958 31930 00000 10144 20130 30182 40184 70500 333 58003 70000=
41958,2023,01,05,21,00,AAXX 05214 41958 31930 03502 10128 20110 30169 40171 70500 333 59007 70000=
41960,2022,12,30,00,00,AAXX 30004 41960 01930 00000 10135 20135 30182 40184 70500 333 58013 70000==
41960,2022,12,30,03,00,AAXX 30034 41960 01920 00000 10160 20150 30198 40200 71000 333 20123 58007 70000==
41960,2022,12,30,06,00,AAXX 30064 41960 01930 03606 10228 20110 30188 40190 71000 333 58009 70000==
41960,2022,12,30,09,00,AAXX 30094 41960 01950 02704 10244 20090 30162 40164 70500 333 58011 70000==
41960,2022,12,30,12,00,AAXX 30124 41960 01940 00000 10188 20170 30167 40169 70500 333 10250 58004 70000==
41960,2022,12,30,15,00,AAXX 30154 41960 01930 00000 10158 20150 30179 40181 70500 333 59003 70000==
41960,2022,12,30,18,00,AAXX 30184 41960 01930 00000 10154 20150 30172 40174 70500 333 59015 70000==
41960,2022,12,30,21,00,AAXX 30214 41960 01920 00000 10145 20145 30170 40171 71000 333 59012 70000==
41960,2022,12,31,00,00,AAXX 31004 41960 01906 00000 10139 20139 30168 40170 74540 89/// 333 59009 70000==
41960,2022,12,31,03,00,AAXX 31034 41960 01902 00000 10165 20160 30195 40197 74544 89/// 333 20132 59003 70000==
41960,2022,12,31,06,00,AAXX 31064 41960 01950 03301 10230 20150 30183 40184 70540 333 59005 70000==
41960,2022,12,31,09,00,AAXX 31094 41960 01950 03602 10250 20120 30155 40157 70500 333 59007 70000==
41960,2022,12,31,12,00,AAXX 31124 41960 01950 00000 10204 20180 30156 40158 70500 333 10254 59011 70000==
41960,2022,12,31,15,00,AAXX 31154 41960 01930 00000 10164 20150 30174 40176 70500 333 59005 70000==
41960,2022,12,31,18,00,AAXX 31184 41960 01920 00000 10155 20155 30180 40182 71000 333 58008 70000==
41960,2022,12,31,21,00,AAXX 31214 41960 31920 00000 10155 20155 30179 40180 71000 333 58009 70000=
41960,2023,01,01,00,00,AAXX 01004 41960 01920 00000 10155 20155 30177 40179 71000 333 58009 70000==
41960,2023,01,01,03,00,AAXX 01034 41960 01920 00000 10178 20170 30200 40202 71000 333 20140 58005 70000==
41960,2023,01,01,06,00,AAXX 01064 41960 01930 01501 10237 20150 30194 40196 71000 333 58011 70000==
41960,2023,01,01,09,00,AAXX 01094 41960 01940 03601 10250 20130 30164 40166 70500 333 58009 70000==
41960,2023,01,01,12,00,AAXX 01124 41960 01940 00000 10202 20160 30167 40169 70500 333 10253 58011 70000==
41960,2023,01,01,15,00,AAXX 01154 41960 01930 00000 10168 20160 30182 40184 71000 333 58008 70000==
41960,2023,01,01,18,00,AAXX 01184 41960 01920 00000 10153 20150 30183 40184 71000 333 58003 70000==
41960,2023,01,01,21,00,AAXX 01214 41960 01920 00000 10150 20150 30179 40181 71000 333 58000 70000==
41960,2023,01,02,00,00,AAXX 02004 41960 01920 00000 10147 20147 30175 40177 71000 333 59002 70000==
41960,2023,01,02,03,00,AAXX 02034 41960 01920 03601 10173 20160 30200 40202 71000 333 20143 58000 70000==
41960,2023,01,02,06,00,AAXX 02064 41960 01930 03602 10237 20140 30196 40197 70500 333 58002 70000==
41960,2023,01,02,09,00,AAXX 02094 41960 02940 03602 10255 20140 30170 40172 333 58006 70000==
41960,2023,01,02,12,00,AAXX 02124 41960 01940 00000 10200 20170 30176 40178 70500 333 10259 58009 70000==
41960,2023,01,02,15,00,AAXX 02154 41960 01920 00000 10170 20160 30193 40194 71000 333 58011 70000==
41960,2023,01,02,18,00,AAXX 02184 41960 01920 00000 10161 20160 30191 40192 71000 333 58008 70000==
41960,2023,01,02,21,00,AAXX 02214 41960 01920 00000 10150 20150 30185 40187 71000 333 58006 70000==
41960,2023,01,03,00,00,AAXX 03004 41960 01940 03601 10140 20140 30179 40181 70500 333 58004 70000==
41960,2023,01,03,03,00,AAXX 03034 41960 01940 00000 10178 20160 30204 40206 70500 333 20138 58004 70000==
41960,2023,01,03,06,00,AAXX 03064 41960 01950 03603 10243 20130 30193 40194 70500 333 59003 70000==
41960,2023,01,03,09,00,AAXX 03094 41960 01950 03610 10250 20080 30160 40162 70500 333 58010 70000==
41960,2023,01,03,12,00,AAXX 03124 41960 01940 03304 10193 20130 30168 40170 70500 333 10255 59008 70000==
41960,2023,01,03,15,00,AAXX 03154 41960 01940 00000 10168 20160 30184 40186 70500 333 59009 70000==
41960,2023,01,03,18,00,AAXX 03184 41960 01920 03603 10153 20150 30186 40188 71000 333 59005 70000==
41960,2023,01,03,21,00,AAXX 03214 41960 01940 03602 10145 20140 30187 40189 70500 333 58002 70000==
41960,2023,01,04,00,00,AAXX 04004 41960 01940 03402 10138 20130 30187 40189 70500 333 58008 70000==
41960,2023,01,04,03,00,AAXX 04034 41960 01920 03302 10150 20130 30205 40207 71000 333 20135 58001 70000==
41960,2023,01,04,06,00,AAXX 04064 41960 01940 03306 10207 20130 30189 40191 70500 333 59004 70000==
41960,2023,01,04,09,00,AAXX 04094 41960 01950 03404 10230 20130 30160 40162 70500 333 58000 70000==
41960,2023,01,04,12,00,AAXX 04124 41960 01950 03406 10178 20150 30164 40166 70500 333 10235 59004 70000==
41960,2023,01,04,15,00,AAXX 04154 41960 01440 73204 10157 20150 30180 40182 70522 86410 333 59004 70000 84615 87460==
41960,2023,01,04,18,00,AAXX 04184 41960 01430 63305 10150 20140 30195 40197 70522 85410 333 58009 70000 84618 86459==
41960,2023,01,04,21,00,AAXX 04214 41960 01440 83104 10150 20140 30190 40192 70522 8642/ 333 58003 70000 84615 88460==
41960,2023,01,05,00,00,AAXX 05004 41960 01440 83003 10150 30184 40186 70522 8642/ 333 59003 70000 84615 88460==
41960,2023,01,05,03,00,AAXX 05034 41960 01430 83604 10153 20130 30208 40210 70522 8542/ 333 20138 58003 70000 84616 88459==
41960,2023,01,05,06,00,AAXX 05064 41960 01440 53606 10202 20140 30197 40198 70522 84410 333 58008 70000 83618 85459==
41960,2023,01,05,09,00,AAXX 05094 41960 01950 03308 10223 20140 30168 40170 70520 333 58008 70000==
41960,2023,01,05,12,00,AAXX 05124 41960 01940 03103 10178 20150 30172 40174 70500 333 10228 58008 70000==
41960,2023,01,05,15,00,AAXX 05154 41960 01940 03601 10152 20150 30186 40188 70500 333 58006 70000==
41960,2023,01,05,18,00,AAXX 05184 41960 01930 03302 10150 20150 30187 40189 70500 333 59008 70000==
41960,2023,01,05,21,00,AAXX 05214 41960 01930 03403 10130 20130 30183 40185 71000 333 59007 70000==
41963,2022,12,30,00,00,AAXX 30004 41963 01940 00000 10135 20135 30183 40186 70500 333 58004 70000==
41963,2022,12,30,03,00,AAXX 30034 41963 01940 00000 10152 20150 30182 40185 70500 333 20125 59001 70000==
41963,2022,12,30,06,00,AAXX 30064 41963 02956 03601 10235 20120 30182 40185 333 58027 70000==
41963,2022,12,30,09,00,AAXX 30094 41963 02956 03602 10232 20110 30164 40167 333 58015 70000==
41963,2022,12,30,12,00,AAXX 30124 41963 01950 00000 10200 20150 30163 40165 70500 333 10260 58018 70000==
41963,2022,12,30,18,00,AAXX 30184 41963 01940 00000 10160 20150 30170 40172 70500 333 58005 70000==
41963,2022,12,30,21,00,AAXX 30214 41963 01920 00000 10141 20140 30172 40175 71000 333 59010 70000==
41963,2022,12,31,00,00,AAXX 31004 41963 01915 00000 10140 20140 30173 40176 71000 333 59010 70000==
41963,2022,12,31,03,00,AAXX 31034 41963 01940 00000 10205 20180 30190 40193 70500 333 20134 58008 70000==
41963,2022,12,31,06,00,AAXX 31064 41963 02956 03601 10235 20140 30176 40179 333 59006 70000==
41963,2022,12,31,09,00,AAXX 31094 41963 02956 03601 10246 20120 30153 40156 333 59011 70000==
41963,2022,12,31,12,00,AAXX 31124 41963 02956 00000 10200 20160 30153 40156 333 10258 59010 70000==
41963,2022,12,31,15,00,AAXX 31154 41963 01940 00000 10160 20150 30169 40172 70500 333 59001 70000==
41963,2022,12,31,21,00,AAXX 31214 41963 31920 00000 10141 20140 30182 40185 71000 333 58010 70000=
41963,2023,01,01,00,00,AAXX 01004 41963 01920 00000 10136 20136 30183 40186 71000 333 58010 70000==
41963,2023,01,01,03,00,AAXX 01034 41963 01940 00000 10194 20180 30198 40201 70500 333 20130 58008 70000==
41963,2023,01,01,06,00,AAXX 01064 41963 02956 03602 10243 20120 30182 40185 333 58006 70000==
41963,2023,01,01,09,00,AAXX 01094 41963 02956 03601 10245 20150 30163 40166 333 58010 70000==
41963,2023,01,01,12,00,AAXX 01124 41963 01/50 50000 10205 20170 30161 40164 70521 85030 333 10248 58008 70000 85365==
41963,2023,01,01,15,00,AAXX 01154 41963 01940 00000 10172 20170 30172 40175 70521 333 58003 70000==
41963,2023,01,01,18,00,AAXX 01184 41963 01940 00000 10168 20168 30175 40178 70500 333 58004 70000==
41963,2023,01,02,03,00,AAXX 02034 41963 01950 00000 10190 20180 30196 40199 70500 333 20135 59002 70000==
41963,2023,01,02,09,00,AAXX 02094 41963 02956 03601 10255 20140 30164 40167 333 58001 70000==
41963,2023,01,02,12,00,AAXX 02124 41963 01950 00000 10198 20170 30172 40175 70500 333 10259 58011 70000==
41963,2023,01,02,15,00,AAXX 02154 41963 31940 00000 10168 20168 30181 40184 70500 333 58009 70000=
41963,2023,01,02,18,00,AAXX 02184 41963 01940 00000 10166 20166 30186 40189 70500 333 58011 70000==
41963,2023,01,02,21,00,AAXX 02214 41963 01930 00000 10147 20147 30177 40180 71000 333 59009 70000==
41963,2023,01,03,00,00,AAXX 03004 41963 01910 00000 10145 20145 30172 40175 71000 333 59010 70000==
41963,2023,01,03,03,00,AAXX 03034 41963 01950 03601 10200 20160 30197 40200 70500 333 20132 58001 70000==
41963,2023,01,03,06,00,AAXX 03064 41963 02956 03603 10245 20130 30191 40194 333 58015 70000==
41963,2023,01,03,09,00,AAXX 03094 41963 02957 03601 10255 20090 30154 40157 333 59010 70000==
41963,2023,01,03,12,00,AAXX 03124 41963 02956 03501 10195 20150 30161 40163 333 10262 59011 70000==
41963,2023,01,03,15,00,AAXX 03154 41963 31940 00000 10167 20167 30170 40172 70500 333 59011 70000=
41963,2023,01,03,18,00,AAXX 03184 41963 01940 00000 10165 20165 30176 40179 70500 333 59010 70000==
41963,2023,01,04,00,00,AAXX 04004 41963 01440 63603 10160 20150 30190 40193 70522 83520 333 58018 70000 83618 85460==
41963,2023,01,04,03,00,AAXX 04034 41963 01450 43604 10185 20150 30200 40203 70522 83510 333 20153 58003 70000 83618 83460==
41963,2023,01,04,06,00,AAXX 04064 41963 02956 03604 10222 20160 30165 40167 333 59026 70000==
41963,2023,01,04,09,00,AAXX 04094 41963 02956 03604 10235 20160 30153 40156 333 59001 70000==
41963,2023,01,04,12,00,AAXX 04124 41963 02950 03402 10192 20170 30154 40157 333 10246 59007 70000==
41963,2023,01,04,15,00,AAXX 04154 41963 01940 03602 10165 20160 30172 40175 70500 333 58002 70000==
41963,2023,01,04,18,00,AAXX 04184 41963 01940 03603 10163 20160 30178 40181 70500 333 58002 70000==
41963,2023,01,04,21,00,AAXX 04214 41963 01940 03603 10161 20160 30188 40190 70500 333 58006 70000==
41963,2023,01,05,00,00,AAXX 05004 41963 01440 63603 10160 20140 30190 40192 70500 83520 333 58000 70000 83618 85460==
41963,2023,01,05,03,00,AAXX 05034 41963 01440 53603 10182 20160 30185 40188 70522 83510 333 20145 59015 70000 83618 84460==
41963,2023,01,05,06,00,AAXX 05064 41963 02956 03603 10210 20150 30181 40184 333 58016 70000==
41963,2023,01,05,09,00,AAXX 05094 41963 02956 03604 10225 20170 30160 40163 333 58007 70000==
41963,2023,01,05,12,00,AAXX 05124 41963 01940 03601 10175 20170 30166 40169 70500 333 10240 58012 70000==
41963,2023,01,05,15,00,AAXX 05154 41963 01940 03602 10167 20167 30177 40180 70500 333 58005 70000==
41963,2023,01,05,18,00,AAXX 05184 41963 01940 03602 10165 20165 30180 40183 70500 333 58002 70000==
41963,2023,01,05,21,00,AAXX 05214 41963 01940 03601 10162 20160 30172 40175 70500 333 59016 70000==
41964,2022,12,30,00,00,AAXX 30004 41964 42925 00000 10126 20124 30170 40172 58012==
41964,2022,12,30,03,00,AAXX 30034 41964 01945 00000 10195 20170 30187 40189 70500 333 20117 58011 70000==
41964,2022,12,30,06,00,AAXX 30064 41964 02950 03101 10220 20140 30185 40187 333 58021 70000==
41964,2022,12,30,09,00,AAXX 30094 41964 02450 60000 10240 20110 30152 40154 83510 333 58010 70000 83618 84460==
41964,2022,12,30,12,00,AAXX 30124 41964 01940 00000 10180 20170 30157 40159 70522 333 10255 58008 70000==
41964,2022,12,30,18,00,AAXX 30184 41964 01940 00000 10177 20170 30168 40170 70522 333 59010 70000==
41964,2022,12,30,21,00,AAXX 30214 41964 01925 00000 10150 20149 30170 40173 70500 333 59005 70000==
41964,2022,12,31,00,00,AAXX 31004 41964 01920 00000 10133 20132 30165 40168 71000 333 59005 70000==
41964,2022,12,31,03,00,AAXX 31034 41964 01940 00000 10190 20180 30184 40186 70500 333 20125 59003 70000==
41964,2022,12,31,06,00,AAXX 31064 41964 01950 03601 10240 20130 30172 40174 70500 333 59013 70000==
41964,2022,12,31,09,00,AAXX 31094 41964 02956 00000 10250 20110 30146 40148 333 59006 70000==
41964,2022,12,31,12,00,AAXX 31124 41964 01950 00000 10180 20160 30151 40153 70500 333 10261 59006 70000==
41964,2022,12,31,15,00,AAXX 31154 41964 01925 00000 10156 20154 30165 40168 70500 333 59003 70000==
41964,2022,12,31,21,00,AAXX 31214 41964 31920 00000 10139 20139 30169 40172 71000 333 59001 70000=
41964,2023,01,01,00,00,AAXX 01004 41964 01920 00000 10130 20129 30169 40172 71000 333 58004 70000==
41964,2023,01,01,03,00,AAXX 01034 41964 01945 00000 10196 20180 30190 40193 70500 333 20121 58006 70000==
41964,2023,01,01,06,00,AAXX 01064 41964 02956 00000 10254 20100 30181 40183 333 58009 70000==
41964,2023,01,01,09,00,AAXX 01094 41964 02956 00502 10261 20120 30154 40156 333 58008 70000==
41964,2023,01,01,12,00,AAXX 01124 41964 01950 00000 10186 20170 30158 40160 70500 333 10269 58007 70000==
41964,2023,01,01,15,00,AAXX 01154 41964 01940 00000 10158 20150 30169 40171 70500 333 58004 70000==
41964,2023,01,01,18,00,AAXX 01184 41964 01920 00000 10148 20148 30167 40169 71000 333 59002 70000==
41964,2023,01,01,21,00,AAXX 01214 41964 01920 00000 10138 20138 30165 40168 71000 333 59004 70000==
41964,2023,01,02,00,00,AAXX 02004 41964 01918 00000 10134 20134 30161 40164 71000 333 59008 70000==
41964,2023,01,02,03,00,AAXX 02034 41964 01945 00000 10192 20170 30187 40189 70500 333 20125 59003 70000==
41964,2023,01,02,06,00,AAXX 02064 41964 01950 00501 10257 20140 30180 40182 70500 333 59001 70000==
41964,2023,01,02,09,00,AAXX 02094 41964 02956 00000 10274 20080 30159 40161 333 58005 70000==
41964,2023,01,02,12,00,AAXX 02124 41964 01950 00000 10187 20170 30164 40166 70500 333 10284 58006 70000==
41964,2023,01,02,15,00,AAXX 02154 41964 01940 00000 10158 20158 30178 40180 70500 333 58009 70000==
41964,2023,01,02,18,00,AAXX 02184 41964 01920 00000 10147 20147 30178 40180 71000 333 58011 70000==
41964,2023,01,02,21,00,AAXX 02214 41964 01920 00000 10140 20140 30175 40177 71000 333 58010 70000==
41964,2023,01,03,00,00,AAXX 03004 41964 01920 00000 10137 20137 30170 40173 71000 333 58009 70000==
41964,2023,01,03,03,00,AAXX 03034 41964 01945 00000 10200 20170 30188 40190 70500 333 20127 58001 70000==
41964,2023,01,03,06,00,AAXX 03064 41964 01950 00501 10254 20130 30178 40180 70500 333 59002 70000==
41964,2023,01,03,09,00,AAXX 03094 41964 02956 00000 10260 20120 30159 40162 333 58000 70000==
41964,2023,01,03,12,00,AAXX 03124 41964 01950 00000 10188 20170 30152 40154 70500 333 10270 59012 70000==
41964,2023,01,03,15,00,AAXX 03154 41964 01925 00000 10161 20161 30168 40170 71000 333 59010 70000==
41964,2023,01,03,18,00,AAXX 03184 41964 01920 00000 10148 20148 30168 40170 71000 333 59010 70000==
41964,2023,01,03,21,00,AAXX 03214 41964 01920 00000 10152 20152 30167 40169 71000 333 59008 70000==
41964,2023,01,04,00,00,AAXX 04004 41964 01425 60000 10159 20150 30170 40172 71020 82510 333 58000 70000 82618 85460==
41964,2023,01,04,03,00,AAXX 04034 41964 01945 00000 10184 20150 30188 40190 70522 333 20145 58000 70000==
41964,2023,01,04,06,00,AAXX 04064 41964 01950 03602 10234 20160 30173 40175 70520 333 59005 70000==
41964,2023,01,04,09,00,AAXX 04094 41964 42950 03601 10250 20160 30146 40149 59013==
41964,2023,01,04,12,00,AAXX 04124 41964 01950 00401 10191 20170 30146 40149 70500 333 10259 59006 70000==
41964,2023,01,04,15,00,AAXX 04154 41964 01935 00000 10167 20160 30162 40164 70500 333 59006 70000==
41964,2023,01,04,18,00,AAXX 04184 41964 01325 20000 10161 20150 30165 40167 71000 82600 333 59003 70000 82709==
41964,2023,01,05,00,00,AAXX 05004 41964 01325 20302 10157 20150 30170 40173 71011 82600 333 58000 70000 82709==
41964,2023,01,05,03,00,AAXX 05034 41964 01345 70502 10169 20150 30193 40195 70522 85620 333 20149 58005 70000 83709 83617 86460==
41964,2023,01,05,06,00,AAXX 05064 41964 01445 20502 10210 20160 30180 40182 70522 82500 333 58007 70000 82618==
41964,2023,01,05,09,00,AAXX 05094 41964 01950 03602 10224 20160 30154 40156 70500 333 58008 70000==
41964,2023,01,05,12,00,AAXX 05124 41964 01940 00000 10179 20160 30156 40158 70500 333 10233 58010 70000==
41964,2023,01,05,15,00,AAXX 05154 41964 01935 00000 10156 20150 30170 40172 70500 333 58008 70000==
41964,2023,01,05,18,00,AAXX 05184 41964 01335 40502 10160 20150 30170 40172 70510 84600 333 58005 70000 84709==
41964,2023,01,05,21,00,AAXX 05214 41964 01325 60501 10157 20150 30165 40168 71022 83610 333 58000 70000 83709 85460==
41965,2022,12,30,00,00,AAXX 30004 41965 NIL=
41965,2022,12,30,03,00,AAXX 30034 41965 01920 00000 10180 20140 30175 40183 71040 333 20110 58010 70000==
41965,2022,12,30,06,00,AAXX 30064 41965 NIL=
41965,2022,12,30,12,00,AAXX 30124 41965 01930 00000 10190 20130 30160 40168 70540 333 10255 58008 70000==
41965,2022,12,31,03,00,AAXX 31034 41965 01920 00000 10190 20140 30185 40193 71040 333 20115 58000 70000==
41965,2022,12,31,06,00,AAXX 31064 41965 NIL=
41965,2022,12,31,12,00,AAXX 31124 41965 01930 00000 10180 20140 30157 40165 70540 333 10255 58005 70000==
41965,2022,12,31,18,00,AAXX 31184 41965 01930 00000 10130 20110 30164 40172 70540 333 58009 70000==
41965,2023,01,01,00,00,AAXX 01004 41965 01908 00000 10120 20110 30180 40188 74444 333 58000 70000==
41965,2023,01,01,03,00,AAXX 01034 41965 01915 00000 10180 20100 30189 40197 71040 333 20114 58000 70000==
41965,2023,01,01,06,00,AAXX 01064 41965 01940 00000 10265 20060 30178 40187 71040 333 58010 70000==
41965,2023,01,01,12,00,AAXX 01124 41965 01930 00000 10180 20110 30160 40168 70540 333 10265 58004 70000==
41965,2023,01,01,21,00,AAXX 01214 41965 01930 00000 10130 20110 30171 40179 70540 333 58000 70000==
41965,2023,01,02,03,00,AAXX 02034 41965 01920 00000 10180 20100 30185 40193 71040 333 20115 59004 70000==
41965,2023,01,02,06,00,AAXX 02064 41965 01940 00000 10265 20060 30178 40187 70540 333 58000 70000==
41965,2023,01,02,12,00,AAXX 02124 41965 01930 00000 10180 20100 30160 40168 70540 333 10268 59005 70000==
41965,2023,01,02,18,00,AAXX 02184 41965 NIL=
41965,2023,01,02,21,00,AAXX 02214 41965 01930 00000 10140 20120 30169 40177 70540 333 59002 70000==
41965,2023,01,03,00,00,AAXX 03004 41965 01908 00000 10130 20120 30172 40180 74444 333 58002 70000==
41965,2023,01,03,06,00,AAXX 03064 41965 01940 00000 10255 20060 30178 40187 70540 333 58000 70000==
41965,2023,01,03,12,00,AAXX 03124 41965 01920 00000 10180 20100 30185 40193 70540 333 20125 58000 70000==
41965,2023,01,03,18,00,AAXX 03184 41965 NIL=
41965,2023,01,04,00,00,AAXX 04004 41965 NIL=
41965,2023,01,04,03,00,AAXX 04034 41965 01920 30000 10180 20100 30186 40194 71040 80002 333 20125 58001 70000 83080==
41965,2023,01,04,06,00,AAXX 04064 41965 NIL=
41965,2023,01,04,12,00,AAXX 04124 41965 01930 00000 10180 20100 30168 40176 70540 333 10263 58002 70000==
41965,2023,01,04,18,00,AAXX 04184 41965 01930 00000 10170 20140 30168 40176 70540 333 58000 70000==
41965,2023,01,04,21,00,AAXX 04214 41965 01930 00000 10160 20140 30171 40179 70540 333 58000 70000==
41965,2023,01,05,00,00,AAXX 05004 41965 01908 60000 10150 20130 30180 40188 74444 84610 333 58003 70000 83618 86460==
41965,2023,01,05,03,00,AAXX 05034 41965 01920 60000 10170 20110 30188 40196 71040 84610 333 20145 58002 70000 82618 86460==
41965,2023,01,05,06,00,AAXX 05064 41965 NIL=
41965,2023,01,05,12,00,AAXX 05124 41965 01930 00000 10180 20100 30165 40173 70540 333 10265 58003 70000==
41965,2023,01,05,18,00,AAXX 05184 41965 NIL=
41966,2022,12,30,00,00,AAXX 30004 41966 01920 00000 10150 20140 30094 40177 70500 333 58003 70000==
41966,2022,12,30,03,00,AAXX 30034 41966 01/40 20000 10178 20170 30119 40201 70511 81030 333 20142 58011 70000 81362==
41966,2022,12,30,06,00,AAXX 30064 41966 02/50 20401 10225 20130 30104 40185 81030 333 58017 70000 81362==
41966,2022,12,30,09,00,AAXX 30094 41966 02950 00000 10230 20000 30085 40166 333 58014 70000==
41966,2022,12,30,12,00,AAXX 30124 41966 01920 00000 10170 20140 30091 40173 70500 333 10240 58015 70000==
41966,2022,12,30,15,00,AAXX 30154 41966 01920 00000 10160 20140 30095 40177 70500 333 58016 70000==
41966,2022,12,30,21,00,AAXX 30214 41966 01920 00000 10140 20130 30086 40170 70500 333 58016 70000==
41966,2022,12,31,00,00,AAXX 31004 41966 01920 00000 10135 20130 30098 40182 70500 333 58005 70000==
41966,2022,12,31,03,00,AAXX 31034 41966 01930 00000 10180 20170 30130 40212 70500 333 20132 58011 70000==
41966,2022,12,31,06,00,AAXX 31064 41966 01940 02201 10220 20090 30107 40188 70500 333 58003 70000==
41966,2022,12,31,09,00,AAXX 31094 41966 02950 00801 10240 20080 30093 40174 333 58008 70000==
41966,2022,12,31,12,00,AAXX 31124 41966 01920 00000 10180 20140 30094 40176 70500 333 10245 58003 70000==
41966,2022,12,31,15,00,AAXX 31154 41966 01920 00000 10170 20150 30092 40174 70500 333 59003 70000==
41966,2022,12,31,18,00,AAXX 31184 41966 01920 00000 10162 20150 30096 40179 70500 333 59001 70000==
41966,2022,12,31,21,00,AAXX 31214 41966 31920 00000 10145 20140 30085 40168 59002 70000 70500=
41966,2023,01,01,00,00,AAXX 01004 41966 01920 00000 10135 20130 30094 40178 70500 333 59004 70000==
41966,2023,01,01,03,00,AAXX 01034 41966 01930 00000 10180 20170 30130 40212 70500 333 20218 58000 70000==
41966,2023,01,01,06,00,AAXX 01064 41966 02950 03101 10235 20090 30116 40196 333 58008 70000==
41966,2023,01,01,09,00,AAXX 01094 41966 02950 00401 10255 20040 30094 40173 333 59001 70000==
41966,2023,01,01,12,00,AAXX 01124 41966 01920 00000 10180 20160 30096 40178 70500 333 10260 58002 70000==
41966,2023,01,01,15,00,AAXX 01154 41966 01920 00000 10176 20170 30095 40177 70500 333 58003 70000==
41966,2023,01,01,21,00,AAXX 01214 41966 01920 00000 10145 20140 30089 40172 70500 333 58004 70000==
41966,2023,01,02,00,00,AAXX 02004 41966 01920 00000 10130 20120 30098 40181 70500 333 58003 70000==
41966,2023,01,02,03,00,AAXX 02034 41966 02950 03501 10185 20160 30120 40202 333 20120 59010 70000==
41966,2023,01,02,06,00,AAXX 02064 41966 02950 00801 10245 20020 30112 40192 333 59004 70000==
41966,2023,01,02,09,00,AAXX 02094 41966 02950 03601 10260 20080 30084 40164 333 59009 70000==
41966,2023,01,02,12,00,AAXX 02124 41966 01920 00000 10185 20160 30093 40174 70500 333 10265 59004 70000==
41966,2023,01,02,15,00,AAXX 02154 41966 01920 00000 10170 20140 30091 40173 70500 333 59004 70000==
41966,2023,01,02,18,00,AAXX 02184 41966 NIL=
41966,2023,01,02,21,00,AAXX 02214 41966 01920 00000 10145 20140 30097 40180 70500 333 58008 70000==
41966,2023,01,03,00,00,AAXX 03004 41966 01920 00000 10135 20130 30099 40182 70500 333 58001 70000==
41966,2023,01,03,03,00,AAXX 03034 41966 02950 00401 10190 20180 30128 40210 333 20125 58008 70000==
41966,2023,01,03,06,00,AAXX 03064 41966 02950 01301 10230 20070 30115 40196 333 58004 70000==
41966,2023,01,03,09,00,AAXX 03094 41966 02950 00801 10258 20040 30094 40174 333 58010 70000==
41966,2023,01,03,12,00,AAXX 03124 41966 01920 00000 10186 20160 30094 40176 70500 333 10265 58002 70000==
41966,2023,01,03,15,00,AAXX 03154 41966 01920 00000 10150 20140 30093 40176 70500 333 58003 70000==
41966,2023,01,03,18,00,AAXX 03184 41966 NIL=
41966,2023,01,03,21,00,AAXX 03214 41966 01920 00000 10135 20130 30097 40180 70500 333 58000 70000==
41966,2023,01,04,00,00,AAXX 04004 41966 01920 00000 10135 20130 30099 40182 70500 333 58000 70000==
41966,2023,01,04,03,00,AAXX 04034 41966 01930 03601 10150 20130 30127 40210 70500 333 20125 58000 70000==
41966,2023,01,04,06,00,AAXX 04064 41966 02950 00901 10242 20090 30093 40174 333 59022 70000==
41966,2023,01,04,09,00,AAXX 04094 41966 02950 00000 10260 20050 30077 40156 333 59018 70000==
41966,2023,01,04,12,00,AAXX 04124 41966 01920 00000 10195 20150 30084 40166 70500 333 10265 59010 70000==
41966,2023,01,04,15,00,AAXX 04154 41966 01920 00000 10185 20160 30087 40168 70500 333 59008 70000==
41966,2023,01,04,18,00,AAXX 04184 41966 01920 00000 10176 20160 30092 40174 70500 333 59007 70000==
41966,2023,01,04,21,00,AAXX 04214 41966 01920 00000 10165 20160 30089 40172 70500 333 59008 70000==
41966,2023,01,05,00,00,AAXX 05004 41966 01920 00000 10150 20140 30095 40178 70500 333 59004 70000==
41966,2023,01,05,03,00,AAXX 05034 41966 01920 00000 10170 20160 30126 40208 70500 333 10145 59002 70000==
41966,2023,01,05,06,00,AAXX 05064 41966 01930 00000 10220 20150 30115 40196 70500 333 58022 70000==
41966,2023,01,05,09,00,AAXX 05094 41966 01940 00000 10245 20100 30090 40170 70500 333 58014 70000==
41966,2023,01,05,12,00,AAXX 05124 41966 01930 00901 10200 20170 30083 40165 70500 333 20250 59001 70000==
41966,2023,01,05,15,00,AAXX 05154 41966 01930 00901 10170 20150 30098 40180 71000 333 58012 70000==
41966,2023,01,05,18,00,AAXX 05184 41966 01920 00000 10160 20140 30101 40183 71000 333 58009 70000==
41966,2023,01,05,21,00,AAXX 05214 41966 01920 00000 10152 20140 30099 40181 71000 333 58009 70000==
41977,2022,12,30,00,00,AAXX 30004 41977 NIL=
41977,2022,12,30,06,00,AAXX 30064 41977 NIL=
41977,2022,12,30,12,00,AAXX 30124 41977 NIL=
41977,2022,12,31,06,00,AAXX 31064 41977 NIL=
41977,2022,12,31,12,00,AAXX 31124 41977 NIL=
41977,2023,01,01,00,00,AAXX 01004 41977 NIL=
41977,2023,01,01,06,00,AAXX 01064 41977 NIL=
41977,2023,01,02,03,00,AAXX 02034 41977 01956 00000 10180 20150 30170 40210 70500 333 20145 59002 70000==
41977,2023,01,02,06,00,AAXX 02064 41977 01957 00602 10250 20140 30164 40202 70500 333 59010 70000==
41977,2023,01,02,09,00,AAXX 02094 41977 42957 02704 10275 20130 30142 40180 58000==
41977,2023,01,02,12,00,AAXX 02124 41977 01956 00000 10197 20140 30151 40191 70500 333 10280 58013 70000==
41977,2023,01,02,18,00,AAXX 02184 41977 NIL=
41977,2023,01,02,21,00,AAXX 02214 41977 01950 00000 10164 20130 30151 40191 70500 333 58002 70000==
41977,2023,01,03,00,00,AAXX 03004 41977 01950 00000 10156 20140 30154 40194 70500 333 58006 70000==
41977,2023,01,03,03,00,AAXX 03034 41977 01950 00000 10200 20150 30170 40210 70500 333 20150 58000 70000==
41977,2023,01,03,06,00,AAXX 03064 41977 01957 03602 10263 20120 30162 40200 70500 333 59002 70000==
41977,2023,01,03,09,00,AAXX 03094 41977 01957 00000 10260 20130 30131 40170 70500 333 59011 70000==
41977,2023,01,03,12,00,AAXX 03124 41977 01950 00000 10200 20150 30132 40171 70500 333 10275 59014 70000==
41977,2023,01,03,15,00,AAXX 03154 41977 01950 00000 10182 20140 30155 40195 70500 333 59008 70000==
41977,2023,01,03,18,00,AAXX 03184 41977 01950 00000 10168 20150 30153 40193 70500 333 59010 70000==
41977,2023,01,03,21,00,AAXX 03214 41977 01950 00000 10160 20140 30149 40189 70500 333 59002 70000==
41977,2023,01,04,00,00,AAXX 04004 41977 01940 00000 10155 20150 30148 40188 70500 333 59006 70000==
41977,2023,01,04,03,00,AAXX 04034 41977 01950 00000 10200 20140 30175 40214 70500 333 58005 70000==
41977,2023,01,04,06,00,AAXX 04064 41977 01956 00503 10250 20160 30156 40195 70500 333 59006 70000==
41977,2023,01,04,09,00,AAXX 04094 41977 01956 02702 10260 20170 30124 40162 70500 333 59007 70000==
41977,2023,01,04,12,00,AAXX 04124 41977 01950 03602 10205 20180 30127 40160 70500 333 10265 59005 70000==
41977,2023,01,04,18,00,AAXX 04184 41977 01950 03604 10160 20140 30153 40193 70500 333 58000 70000==
41977,2023,01,05,00,00,AAXX 05004 41977 01605 10154 20140 30155 40195 71042 85630 333 58007 70000 85709 83364==
41977,2023,01,05,03,00,AAXX 05034 41977 01330 70000 10265 20160 30175 40215 71044 86630 333 58000 70000 86709 84365==
41977,2023,01,05,06,00,AAXX 05064 41977 01/57 33602 10230 20170 30160 40199 70500 83030 333 58004 70000 83365==
41977,2023,01,05,12,00,AAXX 05124 41977 01950 00000 10200 20170 30133 40173 70500 333 10285 58006 70000==
41977,2023,01,05,15,00,AAXX 05154 41977 01950 00000 10170 20160 30155 40195 70500 333 58009 70000==
41977,2023,01,05,18,00,AAXX 05184 41977 NIL=
41978,2022,12,30,00,00,AAXX 30004 41978 01934 00000 10153 20140 30172 40179 70500 333 58013 70000==
41978,2022,12,30,03,00,AAXX 30034 41978 31920 00000 10173 20100 30193 40200 70500 333 20142 58013 70000=
41978,2022,12,30,06,00,AAXX 30064 41978 01935 02909 10230 20070 30180 40186 70500 333 58017 70000==
41978,2022,12,30,09,00,AAXX 30094 41978 01935 02509 10235 20090 30157 40163 70500 333 58015 70000==
41978,2022,12,30,12,00,AAXX 30124 41978 01931 00000 10197 20140 30160 40166 70500 333 10240 58007 70000==
41978,2022,12,30,15,00,AAXX 30154 41978 01932 00000 10178 20150 30173 40180 70500 333 58002 70000==
41978,2022,12,30,18,00,AAXX 30184 41978 01932 00703 10172 20150 30170 40176 70500 333 59007 70000==
41978,2022,12,30,21,00,AAXX 30214 41978 01932 00000 10160 20150 30166 40173 70500 333 59008 70000==
41978,2022,12,31,00,00,AAXX 31004 41978 01931 00703 10151 20140 30163 40170 70500 333 59009 70000==
41978,2022,12,31,06,00,AAXX 31064 41978 01932 00000 10244 20070 30177 40183 70500 333 59003 70000==
41978,2022,12,31,09,00,AAXX 31094 41978 01935 03010 10247 20080 30148 40154 70500 333 58006 70000==
41978,2022,12,31,12,00,AAXX 31124 41978 01933 03103 10211 20130 30153 40159 70500 333 10250 59007 70000==
41978,2022,12,31,18,00,AAXX 31184 41978 01932 00000 10172 20150 30174 40181 70500 333 58004 70000==
41978,2022,12,31,21,00,AAXX 31214 41978 31932 00000 10160 20140 30168 40175 70500 333 58002 70000=
41978,2023,01,01,00,00,AAXX 01004 41978 01932 00204 10150 20130 30173 40180 70500 333 58010 70000==
41978,2023,01,01,03,00,AAXX 01034 41978 01926 00903 10178 20130 30192 40199 71000 333 20142 58001 70000==
41978,2023,01,01,06,00,AAXX 01064 41978 01932 03006 10248 20100 30185 40191 70500 333 58008 70000==
41978,2023,01,01,09,00,AAXX 01094 41978 01935 00308 10266 20100 30157 40163 70500 333 58009 70000==
41978,2023,01,01,12,00,AAXX 01124 41978 01932 00000 10220 20130 30161 40167 70500 333 10268 58008 70000==
41978,2023,01,01,15,00,AAXX 01154 41978 01932 03605 10196 20150 30173 40179 70500 333 58006 70000==
41978,2023,01,01,18,00,AAXX 01184 41978 01932 00403 10184 20160 30166 40172 70500 333 59008 70000==
41978,2023,01,01,21,00,AAXX 01214 41978 01932 00000 10163 20140 30157 40163 70500 333 59011 70000==
41978,2023,01,02,00,00,AAXX 02004 41978 01932 00408 10154 20130 30165 40172 70500 333 59008 70000==
41978,2023,01,02,03,00,AAXX 02034 41978 01926 00605 10187 20140 30192 40198 71000 333 20148 58000 70000==
41978,2023,01,02,06,00,AAXX 02064 41978 01940 03309 10255 20120 30185 40192 70500 333 58000 70000==
41978,2023,01,02,09,00,AAXX 02094 41978 01940 03310 10260 20100 30161 40167 70500 333 58004 70000==
41978,2023,01,02,12,00,AAXX 02124 41978 01935 03305 10220 20120 30171 40177 70500 333 10269 58010 70000==
41978,2023,01,02,15,00,AAXX 02154 41978 01935 03606 10194 20140 30182 40188 70500 333 58009 70000==
41978,2023,01,02,18,00,AAXX 02184 41978 NIL=
41978,2023,01,02,21,00,AAXX 02214 41978 01935 00000 10170 20150 30168 40174 70500 333 58001 70000==
41978,2023,01,03,00,00,AAXX 03004 41978 01935 00206 10156 20140 30170 40176 70500 333 58005 70000==
41978,2023,01,03,03,00,AAXX 03034 41978 01931 00506 10185 20130 30193 40200 70500 333 20147 58001 70000==
41978,2023,01,03,06,00,AAXX 03064 41978 01940 03610 10250 20110 30180 40186 70500 333 59005 70000==
41978,2023,01,03,09,00,AAXX 03094 41978 01940 03112 10252 20110 30147 40154 70500 333 59014 70000==
41978,2023,01,03,12,00,AAXX 03124 41978 01935 03306 10229 20130 30155 40161 70500 333 10257 59016 70000==
41978,2023,01,03,15,00,AAXX 03154 41978 31935 03507 10213 20150 30175 40181 70500 333 59007 70000=
41978,2023,01,03,18,00,AAXX 03184 41978 01935 03508 10184 20150 30171 40177 70500 333 59009 70000==
41978,2023,01,03,21,00,AAXX 03214 41978 01935 03506 10160 20150 30165 40171 70500 333 59003 70000==
41978,2023,01,04,00,00,AAXX 04004 41978 01935 03506 10156 20150 30169 40175 70500 333 59001 70000==
41978,2023,01,04,03,00,AAXX 04034 41978 01/18 30309 10178 20140 30193 40200 71000 83020 333 20149 58000 70000 83460==
41978,2023,01,04,06,00,AAXX 04064 41978 01935 03602 10231 20080 30173 40179 70500 333 59007 70000==
41978,2023,01,04,09,00,AAXX 04094 41978 01931 03315 10245 20170 30142 40148 70500 333 59005 70000==
41978,2023,01,04,12,00,AAXX 04124 41978 01932 03312 10224 20150 30146 40152 70500 333 10250 59009 70000==
41978,2023,01,04,15,00,AAXX 04154 41978 01933 03410 10202 20160 30165 40171 70500 333 59010 70000==
41978,2023,01,04,18,00,AAXX 04184 41978 01933 03308 10193 20150 30166 40172 70500 333 59005 70000==
41978,2023,01,04,21,00,AAXX 04214 41978 01933 03407 10172 20150 30168 40175 70500 333 58003 70000==
41978,2023,01,05,00,00,AAXX 05004 41978 01931 03510 10154 20140 30173 40180 70500 333 58004 70000==
41978,2023,01,05,03,00,AAXX 05034 41978 01920 03310 10163 20140 30197 40203 71000 333 20149 58004 70000==
41978,2023,01,05,06,00,AAXX 05064 41978 31931 03308 10214 20240 30181 40187 70510 333 58008 70000=
41978,2023,01,05,09,00,AAXX 05094 41978 01932 03315 10228 20180 30148 40155 70500 333 58002 70000==
41978,2023,01,05,12,00,AAXX 05124 41978 01932 03515 10214 20160 30152 40158 70500 333 10251 58005 70000==
41978,2023,01,05,18,00,AAXX 05184 41978 01932 03404 10180 20160 30173 40179 70500 333 58007 70000==
41978,2023,01,05,21,00,AAXX 05214 41978 01932 03404 10170 20160 30165 40171 70500 333 59003 70000==
41980,2022,12,30,00,00,AAXX 30004 41980 NIL=
41980,2022,12,30,06,00,AAXX 30064 41980 NIL=
41980,2022,12,30,12,00,AAXX 30124 41980 31940 00000 10174 20120 30054 40171 70500 333 10246 58008 70000=
41980,2022,12,31,06,00,AAXX 31064 41980 NIL=
41980,2022,12,31,12,00,AAXX 31124 41980 31940 00000 10176 20120 30039 40157 70500 333 10253 58010 70000=
41980,2023,01,01,00,00,AAXX 01004 41980 NIL=
41980,2023,01,01,06,00,AAXX 01064 41980 NIL=
41980,2023,01,01,12,00,AAXX 01124 41980 32940 00000 10190 20100 30052 40168 333 10256 58012 70000=
41980,2023,01,02,12,00,AAXX 02124 41980 32950 00000 10248 20060 30058 40172 333 58008 70000=
41980,2023,01,02,18,00,AAXX 02184 41980 NIL=
41980,2023,01,03,06,00,AAXX 03064 41980 NIL=
41980,2023,01,03,12,00,AAXX 03124 41980 NIL=
41980,2023,01,03,18,00,AAXX 03184 41980 NIL=
41980,2023,01,04,00,00,AAXX 04004 41980 NIL=
41980,2023,01,04,06,00,AAXX 04064 41980 NIL=
41980,2023,01,04,12,00,AAXX 04124 41980 32930 00000 10206 20160 30036 40151 333 10276 59011 70000=
41980,2023,01,05,06,00,AAXX 05064 41980 NIL=
41980,2023,01,05,12,00,AAXX 05124 41980 32940 00000 10210 20170 30043 40158 333 10264 58007 70000=
41980,2023,01,05,18,00,AAXX 05184 41980 NIL=
41984,2022,12,30,00,00,AAXX 30004 41984 01940 00000 10130 20130 30163 40165 70500 333 58012 70000==
41984,2022,12,30,03,00,AAXX 30034 41984 01956 00000 10178 20150 30181 40183 70500 333 20121 58010 70000==
41984,2022,12,30,06,00,AAXX 30064 41984 01956 00000 10240 20110 30174 40176 70500 333 58010 70000==
41984,2022,12,30,09,00,AAXX 30094 41984 01956 00000 10250 20130 30151 40153 70500 333 58012 70000==
41984,2022,12,30,12,00,AAXX 30124 41984 01940 00000 10193 20150 30151 40153 70500 333 10256 58008 70000==
41984,2022,12,30,15,00,AAXX 30154 41984 01940 00000 10155 20150 30157 40160 70500 333 59012 70000==
41984,2022,12,30,18,00,AAXX 30184 41984 01940 00000 10144 20140 30162 40164 70500 333 59009 70000==
41984,2022,12,30,21,00,AAXX 30214 41984 01940 00000 10140 20140 30158 40160 70500 333 59007 70000==
41984,2022,12,31,00,00,AAXX 31004 41984 01940 00000 10137 20137 30155 40157 70500 333 59008 70000==
41984,2022,12,31,03,00,AAXX 31034 41984 01956 00000 10184 20170 30180 40182 70500 333 20129 59001 70000==
41984,2022,12,31,06,00,AAXX 31064 41984 01956 00000 10242 20160 30168 40170 70500 333 59006 70000==
41984,2022,12,31,09,00,AAXX 31094 41984 01956 00000 10258 20160 30140 40143 70500 333 59011 70000==
41984,2022,12,31,12,00,AAXX 31124 41984 01940 00000 10200 20170 30139 40141 70500 333 10265 59012 70000==
41984,2022,12,31,15,00,AAXX 31154 41984 01940 00000 10164 20160 30158 40161 70500 333 58001 70000==
41984,2022,12,31,18,00,AAXX 31184 41984 01940 00000 10157 20157 30168 40170 70500 333 58006 70000==
41984,2022,12,31,21,00,AAXX 31214 41984 31940 00000 10145 20145 30164 40166 70500 333 58006 70000=
41984,2023,01,01,00,00,AAXX 01004 41984 01940 00000 10142 20140 30159 40161 70500 333 58004 70000==
41984,2023,01,01,03,00,AAXX 01034 41984 01956 00000 10171 20170 30179 40181 70500 333 20140 59001 70000==
41984,2023,01,01,06,00,AAXX 01064 41984 01956 00000 10245 20170 30155 40157 70500 333 59013 70000==
41984,2023,01,01,09,00,AAXX 01094 41984 01956 03602 10256 20140 30148 40150 70500 333 58008 70000==
41984,2023,01,01,12,00,AAXX 01124 41984 01940 00000 10196 20180 30156 40158 70500 333 10260 58017 70000==
41984,2023,01,01,15,00,AAXX 01154 41984 01940 00000 10166 20166 30167 40170 70500 333 58009 70000==
41984,2023,01,01,18,00,AAXX 01184 41984 01940 00000 10153 20150 30168 40170 70500 333 58000 70000==
41984,2023,01,01,21,00,AAXX 01214 41984 01940 00000 10150 20150 30162 40164 70500 333 59002 70000==
41984,2023,01,02,00,00,AAXX 02004 41984 01940 00000 10141 20140 30155 40157 70500 333 59004 70000==
41984,2023,01,02,03,00,AAXX 02034 41984 01956 00000 10182 20170 30184 40186 70500 333 20134 58005 70000==
41984,2023,01,02,06,00,AAXX 02064 41984 01956 00000 10238 20160 30179 40182 70500 333 58024 70000==
41984,2023,01,02,09,00,AAXX 02094 41984 01956 00000 10257 20160 30155 40157 70500 333 58007 70000==
41984,2023,01,02,12,00,AAXX 02124 41984 01940 00000 10201 20170 30163 40165 70500 333 10266 58007 70000==
41984,2023,01,02,15,00,AAXX 02154 41984 01940 00000 10168 20168 30175 40178 70500 333 58008 70000==
41984,2023,01,02,18,00,AAXX 02184 41984 01940 00000 10164 20160 30173 40175 70500 333 58005 70000==
41984,2023,01,02,21,00,AAXX 02214 41984 01940 00000 10142 20140 30171 40173 70500 333 58009 70000==
41984,2023,01,03,00,00,AAXX 03004 41984 01940 00000 10131 20130 30170 40172 70500 333 58015 70000==
41984,2023,01,03,03,00,AAXX 03034 41984 01956 00000 10186 20160 30187 40189 70500 333 20126 58003 70000==
41984,2023,01,03,06,00,AAXX 03064 41984 01956 03602 10248 20120 30176 40178 70500 333 59003 70000==
41984,2023,01,03,09,00,AAXX 03094 41984 01956 00000 10251 20130 30146 40149 70500 333 59009 70000==
41984,2023,01,03,12,00,AAXX 03124 41984 01940 00000 10207 20130 30154 40156 70500 333 10263 59009 70000==
41984,2023,01,03,15,00,AAXX 03154 41984 01940 00000 10165 20150 30168 40170 70500 333 59007 70000==
41984,2023,01,03,18,00,AAXX 03184 41984 01940 00000 10146 20146 30170 40172 70500 333 59003 70000==
41984,2023,01,03,21,00,AAXX 03214 41984 01940 03602 10144 20140 30166 40169 70500 333 59005 70000==
41984,2023,01,04,00,00,AAXX 04004 41984 01940 03601 10142 20140 30160 40162 70500 333 59010 70000==
41984,2023,01,04,03,00,AAXX 04034 41984 01956 00000 10143 20130 30195 40198 70500 333 20136 58008 70000==
41984,2023,01,04,06,00,AAXX 04064 41984 01956 03602 10202 20140 30177 40179 70500 333 58001 70000==
41984,2023,01,04,09,00,AAXX 04094 41984 01956 00000 10232 20140 30144 40146 70500 333 59002 70000==
41984,2023,01,04,12,00,AAXX 04124 41984 01940 00000 10189 20160 30142 40144 70500 333 10238 59012 70000==
41984,2023,01,04,15,00,AAXX 04154 41984 01940 00000 10150 20140 30166 40168 70500 333 59002 70000==
41984,2023,01,04,18,00,AAXX 04184 41984 01440 53602 10149 20140 30169 40171 70521 83510 333 59001 70000 83618 85458==
41984,2023,01,04,21,00,AAXX 04214 41984 01440 53603 10147 20140 30171 40173 70522 83510 333 58005 70000 83618 85458==
41984,2023,01,05,00,00,AAXX 05004 41984 01440 53604 10144 20130 30172 40174 70522 83510 333 58012 70000 83618 85458==
41984,2023,01,05,03,00,AAXX 05034 41984 01456 53603 10160 20140 30184 40186 70500 83510 333 20135 59011 70000 83618 85458==
41984,2023,01,05,06,00,AAXX 05064 41984 01456 42303 10202 20150 30174 40176 70521 82510 333 59003 70000 82618==
41984,2023,01,05,09,00,AAXX 05094 41984 01956 03602 10236 20170 30153 40155 70500 333 58009 70000==
41984,2023,01,05,12,00,AAXX 05124 41984 01940 00000 10188 20160 30159 40161 70500 333 10241 58017 70000==
41984,2023,01,05,15,00,AAXX 05154 41984 01940 00000 10154 20140 30168 40170 70500 333 58002 70000==
41984,2023,01,05,18,00,AAXX 05184 41984 01940 00000 10150 20150 30174 40176 70500 333 58005 70000==
41984,2023,01,05,21,00,AAXX 05214 41984 01940 00000 10140 20140 30170 40172 70500 333 59001 70000==
41989,2022,12,30,00,00,AAXX 30004 41989 01920 03102 10150 20140 30140 40144 71000 333 58003 70000==
41989,2022,12,30,06,00,AAXX 30064 41989 NIL=
41989,2022,12,30,09,00,AAXX 30094 41989 01950 03102 10260 20170 30190 40194 70500 333 58045 70000==
41989,2022,12,30,12,00,AAXX 30124 41989 01950 03202 10205 20120 30168 40172 70500 333 10267 58024 70000==
41989,2022,12,31,03,00,AAXX 31034 41989 01940 03102 10215 20240 30186 40189 70500 333 20135 58032 70000==
41989,2022,12,31,06,00,AAXX 31064 41989 01940 03202 10248 20120 30168 40171 70500 333 59018 70000==
41989,2022,12,31,09,00,AAXX 31094 41989 01940 03203 10256 20110 30150 40153 70500 333 59040 70000==
41989,2022,12,31,12,00,AAXX 31124 41989 01940 03102 10222 20130 30145 40148 70500 333 10260 59023 70000==
41989,2022,12,31,15,00,AAXX 31154 41989 01940 03202 10180 20140 30162 40165 70500 333 58003 70000==
41989,2022,12,31,18,00,AAXX 31184 41989 01940 03202 10170 20150 30175 40178 70500 333 58006 70000==
41989,2023,01,01,00,00,AAXX 01004 41989 NIL=
41989,2023,01,01,03,00,AAXX 01034 41989 01102 10210 20130 30190 40193 70500 333 20132 58004 70000==
41989,2023,01,01,06,00,AAXX 01064 41989 NIL=
41989,2023,01,01,09,00,AAXX 01094 41989 01950 03102 10270 20150 30166 40169 70500 333 58016 70000==
41989,2023,01,01,12,00,AAXX 01124 41989 01950 03202 10240 20170 30158 40161 70500 333 10275 58013 70000==
41989,2023,01,01,15,00,AAXX 01154 41989 01940 00000 10188 20170 30156 40159 70500 333 59006 70000==
41989,2023,01,01,18,00,AAXX 01184 41989 01940 00000 10175 20160 30166 40169 70500 333 59009 70000==
41989,2023,01,02,03,00,AAXX 02034 41989 01950 03102 10212 20150 30179 40182 70500 333 20148 59011 70000==
41989,2023,01,02,06,00,AAXX 02064 41989 01950 03202 10270 20120 30185 40188 70500 333 58017 70000==
41989,2023,01,02,09,00,AAXX 02094 41989 01950 03103 10272 20140 30160 40163 70500 333 59006 70000==
41989,2023,01,02,12,00,AAXX 02124 41989 01940 03102 10212 20150 30153 40157 70500 333 10282 58003 70000==
41989,2023,01,02,15,00,AAXX 02154 41989 31940 00000 10178 20140 30172 40175 70500 333 58016 70000=
41989,2023,01,02,18,00,AAXX 02184 41989 NIL=
41989,2023,01,03,03,00,AAXX 03034 41989 01950 03202 10200 20140 30194 40197 70500 333 20130 58015 70000==
41989,2023,01,03,06,00,AAXX 03064 41989 01950 03102 10253 20130 30175 40178 70500 333 59010 70000==
41989,2023,01,03,09,00,AAXX 03094 41989 01950 03202 10260 20150 30155 40158 70500 333 59005 70000==
41989,2023,01,03,12,00,AAXX 03124 41989 NIL=
41989,2023,01,03,15,00,AAXX 03154 41989 01940 03103 10218 20160 30172 40175 70500 333 59010 70000==
41989,2023,01,03,18,00,AAXX 03184 41989 01940 03203 10202 20140 30170 40173 70500 333 59016 70000==
41989,2023,01,03,21,00,AAXX 03214 41989 01940 00000 10175 20150 30165 40168 70500 333 59005 70000==
41989,2023,01,04,00,00,AAXX 04004 41989 01915 00000 10152 20140 30162 40165 71000 333 59008 70000==
41989,2023,01,04,06,00,AAXX 04064 41989 01950 03102 10220 20120 30182 40185 70500 333 58007 70000==
41989,2023,01,04,09,00,AAXX 04094 41989 01950 03204 10250 20170 40146 70500 333 59012 70000==
41989,2023,01,04,12,00,AAXX 04124 41989 01940 03102 10212 20140 30138 40141 70500 333 10268 59011 70000==
41989,2023,01,05,03,00,AAXX 05034 41989 01920 03102 10165 20150 30191 40194 71000 333 20125 58009 70000==
41989,2023,01,05,06,00,AAXX 05064 41989 01950 03104 10232 20140 30178 40181 70510 333 59004 70000==
41989,2023,01,05,12,00,AAXX 05124 41989 01950 03202 10220 20180 30164 40167 70500 333 10250 58026 70000==
41989,2023,01,05,15,00,AAXX 05154 41989 01940 03104 10202 20180 30157 40160 70500 333 59008 70000==
41989,2023,01,05,18,00,AAXX 05184 41989 NIL=
41992,2022,12,30,00,00,AAXX 30004 41992 01920 03602 10170 20140 30167 40170 70500 333 58002 70000==
41992,2022,12,30,06,00,AAXX 30064 41992 01930 00000 10250 20009 30180 40183 70500 333 58017 70000==
41992,2022,12,30,09,00,AAXX 30094 41992 01930 00000 10257 20080 30155 40157 70500 333 58014 70000==
41992,2022,12,30,12,00,AAXX 30124 41992 01925 00000 10220 20110 30154 40156 70500 333 10290 58005 70000==
41992,2022,12,30,15,00,AAXX 30154 41992 01925 00000 10188 20150 30166 40168 70500 333 59002 70000==
41992,2022,12,30,18,00,AAXX 30184 41992 01925 00000 10178 20130 30166 40168 70500 333 59007 70000==
41992,2022,12,30,21,00,AAXX 30214 41992 01925 00000 10168 20110 30161 40163 70500 333 59009 70000==
41992,2022,12,31,00,00,AAXX 31004 41992 01920 00000 10158 20150 30163 40165 70500 333 59005 70000==
41992,2022,12,31,06,00,AAXX 31064 41992 01930 00000 10250 20110 30178 40180 70500 333 59002 70000==
41992,2022,12,31,09,00,AAXX 31094 41992 01930 03602 10255 20140 30153 40155 70500 333 59002 70000==
41992,2022,12,31,12,00,AAXX 31124 41992 01925 00000 10220 20140 30148 40150 70500 333 20270 59006 70000==
41992,2022,12,31,18,00,AAXX 31184 41992 01925 00000 10175 20140 30167 40170 70500 333 58001 70000==
41992,2022,12,31,21,00,AAXX 31214 41992 31925 00000 10164 20130 30161 40163 70500 333 58000 70000=
41992,2023,01,01,00,00,AAXX 01004 41992 01925 00000 10152 20130 30163 40165 70500 333 58000 70000==
41992,2023,01,01,03,00,AAXX 01034 41992 01925 00000 10190 20140 30186 40189 70500 333 20150 58005 70000==
41992,2023,01,01,06,00,AAXX 01064 41992 01930 03604 10255 20090 30178 40181 70500 333 58001 70000==
41992,2023,01,01,09,00,AAXX 01094 41992 01930 03605 10265 20120 30158 40161 70500 333 58006 70000==
41992,2023,01,01,12,00,AAXX 01124 41992 01920 03603 10240 20120 30153 40156 70500 333 10270 58006 70000==
41992,2023,01,01,15,00,AAXX 01154 41992 01920 03602 10190 20130 30173 40176 70500 333 58014 70000==
41992,2023,01,01,18,00,AAXX 01184 41992 01920 03602 10180 20130 30168 40171 70500 333 58001 70000==
41992,2023,01,01,21,00,AAXX 01214 41992 01920 03602 10160 20130 30163 40166 70500 333 58003 70000==
41992,2023,01,02,00,00,AAXX 02004 41992 01920 03602 10150 20130 30160 40163 70500 333 59002 70000==
41992,2023,01,02,03,00,AAXX 02034 41992 01925 03603 10193 20130 30180 40183 70500 333 20144 59006 70000==
41992,2023,01,02,06,00,AAXX 02064 41992 01930 03604 10268 20100 30178 40181 70500 333 58000 70000==
41992,2023,01,02,09,00,AAXX 02094 41992 01930 00000 10275 20090 30156 40158 70500 333 59003 70000==
41992,2023,01,02,12,00,AAXX 02124 41992 01925 00000 10225 20160 30160 40162 70500 333 10280 58006 70000==
41992,2023,01,02,15,00,AAXX 02154 41992 01920 00000 10200 20140 30180 40183 70500 333 58007 70000==
41992,2023,01,02,21,00,AAXX 02214 41992 01920 00000 10165 20140 30178 40181 70500 333 58015 70000==
41992,2023,01,03,00,00,AAXX 03004 41992 01920 00000 10160 20120 30168 40171 70500 333 58008 70000==
41992,2023,01,03,03,00,AAXX 03034 41992 01925 00000 10200 20130 30186 40189 70500 333 20145 58006 70000==
41992,2023,01,03,06,00,AAXX 03064 41992 01935 00000 10260 20100 30175 40177 70500 333 59004 70000==
41992,2023,01,03,09,00,AAXX 03094 41992 01930 03603 10265 20120 30149 40152 70500 333 59006 70000==
41992,2023,01,03,12,00,AAXX 03124 41992 01920 03602 10225 20160 30152 40155 70500 333 10270 59007 70000==
41992,2023,01,03,15,00,AAXX 03154 41992 31920 00000 10200 20140 30169 40172 70500 333 59011 70000=
41992,2023,01,03,18,00,AAXX 03184 41992 01920 00000 10180 20140 30172 40175 70500 333 59011 70000==
41992,2023,01,03,21,00,AAXX 03214 41992 01920 00000 10165 20140 30168 40171 70500 333 59010 70000==
41992,2023,01,04,00,00,AAXX 04004 41992 01920 00000 10160 20140 30163 40166 70500 333 59005 70000==
41992,2023,01,04,03,00,AAXX 04034 41992 01925 00000 10187 20150 30189 40191 70500 333 20154 58003 70000==
41992,2023,01,04,06,00,AAXX 04064 41992 01930 00303 10238 20160 30169 40171 70500 333 59006 70000==
41992,2023,01,04,09,00,AAXX 04094 41992 01930 03304 10260 20160 30138 40140 70500 333 59011 70000==
41992,2023,01,04,12,00,AAXX 04124 41992 01930 03007 10220 20170 30136 40138 70500 333 10277 59016 70000==
41992,2023,01,04,15,00,AAXX 04154 41992 01925 00000 10200 20170 30158 40160 70500 333 59012 70000==
41992,2023,01,04,18,00,AAXX 04184 41992 01925 00000 10195 20160 30159 40161 70500 333 59014 70000==
41992,2023,01,04,21,00,AAXX 04214 41992 01925 00000 10185 20160 30154 40156 70500 333 59015 70000==
41992,2023,01,05,00,00,AAXX 05004 41992 01920 00000 10160 20150 30164 40166 71000 333 58000 70000==
41992,2023,01,05,03,00,AAXX 05034 41992 01920 03306 10166 20160 30181 40183 70500 333 20155 59008 70000==
41992,2023,01,05,06,00,AAXX 05064 41992 31930 03606 10220 20170 30172 40175 70500 333 58003 70000=
41992,2023,01,05,09,00,AAXX 05094 41992 01930 00000 10260 20170 30146 40149 70500 333 58009 70000==
41992,2023,01,05,12,00,AAXX 05124 41992 01925 03605 10212 20180 30148 40151 70500 333 10265 58013 70000==
41992,2023,01,05,18,00,AAXX 05184 41992 01920 03605 10183 20160 30169 40172 70500 333 58011 70000==
41992,2023,01,05,21,00,AAXX 05214 41992 01920 03605 10175 20160 30167 40170 70500 333 58004 70000==
41998,2022,12,30,00,00,AAXX 30004 41998 NIL=
41998,2022,12,30,03,00,AAXX 30034 41998 01950 00000 10232 20190 30159 40165 70500 333 20153 59012 70000==
41998,2022,12,30,06,00,AAXX 30064 41998 NIL=
41998,2022,12,30,09,00,AAXX 30094 41998 01950 02904 10265 20140 30151 40157 70500 333 58004 70000==
41998,2022,12,30,12,00,AAXX 30124 41998 NIL=
41998,2022,12,30,15,00,AAXX 30154 41998 01940 00000 10160 20060 30168 40174 70500 333 58009 70000==
41998,2022,12,31,03,00,AAXX 31034 41998 01950 00000 10215 20090 30195 40201 70500 333 20134 58036 70000==
41998,2022,12,31,06,00,AAXX 31064 41998 31950 03103 10261 20140 30192 40198 70500 333 58026 70000=
41998,2022,12,31,09,00,AAXX 31094 41998 01950 03103 10261 20140 30192 40198 70500 333 58026 70000==
41998,2022,12,31,12,00,AAXX 31124 41998 NIL=
41998,2022,12,31,15,00,AAXX 31154 41998 01950 00000 10192 20150 30165 40171 70500 333 59003 70000==
41998,2023,01,01,00,00,AAXX 01004 41998 01950 00000 10145 20120 30162 40168 70500 333 58000 70000==
41998,2023,01,01,03,00,AAXX 01034 41998 01950 00000 10223 20100 30179 40185 70500 333 20134 59016 70000==
41998,2023,01,01,06,00,AAXX 01064 41998 NIL=
41998,2023,01,01,09,00,AAXX 01094 41998 01950 00402 10285 20040 30140 40146 70500 333 59007 70000==
41998,2023,01,01,15,00,AAXX 01154 41998 01940 00000 10205 20120 30181 40187 70500 333 58016 70000==
41998,2023,01,02,00,00,AAXX 02004 41998 01950 00000 10142 20120 30165 40171 70500 333 58003 70000==
41998,2023,01,02,03,00,AAXX 02034 41998 01950 00000 10225 20120 30184 40190 70500 333 20134 58005 70000==
41998,2023,01,02,09,00,AAXX 02094 41998 01950 00000 10285 20120 30153 40159 70500 333 58013 70000==
41998,2023,01,02,12,00,AAXX 02124 41998 01950 00000 10220 20140 30158 40164 70500 333 10294 59023 70000==
41998,2023,01,02,15,00,AAXX 02154 41998 31950 00000 10210 20100 30175 40181 70500 333 59006 70000=
41998,2023,01,02,18,00,AAXX 02184 41998 NIL=
41998,2023,01,03,00,00,AAXX 03004 41998 01950 00000 10160 20120 30164 40170 70500 333 70000==
41998,2023,01,03,03,00,AAXX 03034 41998 01950 00000 10205 20130 30183 40189 70500 333 20150 59001 70000==
41998,2023,01,03,06,00,AAXX 03064 41998 NIL=
41998,2023,01,03,12,00,AAXX 03124 41998 01950 00000 10217 20150 30152 40158 70500 333 10286 59006 70000==
41998,2023,01,03,15,00,AAXX 03154 41998 01950 00000 10175 20160 30172 40178 70500 333 59003 70000==
41998,2023,01,03,18,00,AAXX 03184 41998 NIL=
41998,2023,01,04,00,00,AAXX 04004 41998 NIL=
41998,2023,01,04,03,00,AAXX 04034 41998 01950 00000 10200 20150 30177 40183 70500 333 20135 59006 70000==
41998,2023,01,04,06,00,AAXX 04064 41998 NIL=
41998,2023,01,04,12,00,AAXX 04124 41998 01950 00000 10225 20180 30143 40149 70500 333 10282 59009 70000==
41998,2023,01,04,15,00,AAXX 04154 41998 01950 00000 10206 20180 30163 40169 70500 333 59009 70000==
41998,2023,01,05,00,00,AAXX 05004 41998 02950 00000 10147 20130 30141 40147 333 58016 70000==
41998,2023,01,05,03,00,AAXX 05034 41998 01950 00000 10200 20160 30133 40139 70500 333 20160 58044 70000==
41998,2023,01,05,06,00,AAXX 05064 41998 NIL=
41998,2023,01,05,12,00,AAXX 05124 41998 01950 00000 10212 20180 30150 40156 70500 333 10293 58007 70000==
41998,2023,01,05,18,00,AAXX 05184 41998 NIL=
