ESTACION,ANO,MES,DIA,HORA,MINUTO,PARTE
41850,2023,08,04,00,00,AAXX 04004 41850 11330 80000 10260 20250 39909 40007 60377 76166 8572/ 333 56999 58018 70600 83707 84614 88458=
41850,2023,08,04,06,00,AAXX 04064 41850 11450 80000 10278 20260 39933 40031 60719 72162 8452/ 333 56999 58036 71310 84614 88458=
41850,2023,08,04,12,00,AAXX 04124 41850 11450 80000 10264 20250 39915 40013 60024 72162 8452/ 333 10296 56999 58028 71220 84616 88458=
41850,2023,08,04,18,00,AAXX 04184 41850 31440 80000 10260 20250 39935 40033 70522 8452/ 333 56999 58015 71100 84618 88458=
41850,2023,08,05,00,00,AAXX 05004 41850 11450 80000 10256 20256 39928 40026 60124 72162 8452/ 333 56999 59007 70850 84617 88458=
41850,2023,08,06,12,00,AAXX 06124 41850 31450 70000 10300 20260 39873 49969 70522 83520 333 10330 56990 59030 70000 83618 87458=
41850,2023,08,06,18,00,AAXX 06184 41850 31440 80000 10278 20270 39880 49977 70522 8352/ 333 56999 59042 70000 83618 88458=
41850,2023,08,07,00,00,AAXX 07004 41850 31440 70000 10267 20260 39866 49963 70522 83520 333 56990 59035 70000 83618 87458=
41850,2023,08,07,06,00,AAXX 07064 41850 32456 71203 10306 20260 39867 49963 83520 333 56990 59032 70000 83618 86458=
41850,2023,08,07,12,00,AAXX 07124 41850 11450 80000 10262 20250 39858 49956 60384 76162 8572/ 333 10327 56999 59015 70380 82708 84616 88458=
41850,2023,08,07,18,00,AAXX 07184 41850 11440 80000 10270 20260 39874 49971 60066 70562 8352/ 333 56999 59006 70440 83618 88458=
41850,2023,08,08,00,00,AAXX 08004 41850 31440 80000 10268 20265 39871 49968 70522 8352/ 333 56999 58005 70440 83618 88458=
41850,2023,08,08,06,00,AAXX 08064 41850 11350 80903 10297 20270 39882 49979 60178 70562 8562/ 333 56299 58015 70610 82708 84616 88458=
41850,2023,08,08,12,00,AAXX 08124 41850 31450 70603 10294 20260 39878 49975 70522 83520 333 10328 56990 58020 70230 84617 87458=
41850,2023,08,08,18,00,AAXX 08184 41850 31440 80403 10270 20260 39904 40002 70522 8452/ 333 56999 58030 70170 84617 88458=
41850,2023,08,09,00,00,AAXX 09004 41850 31440 80000 10265 20260 39910 40008 70522 8452/ 333 56999 58039 70170 84617 88458=
41850,2023,08,09,06,00,AAXX 09064 41850 11450 71503 10288 20260 39938 40035 60023 70562 84520 333 56990 58056 70016 84617 87458=
41850,2023,08,09,12,00,AAXX 09124 41850 31450 50000 10285 20260 39924 40021 70522 83520 333 10298 56990 58046 70016 83618 85458=
41850,2023,08,09,18,00,AAXX 09184 41850 31440 60000 10268 20260 39935 40033 70522 83520 333 56990 58031 70016 83618 86458=
41850,2023,08,10,00,00,AAXX 10004 41850 31440 70000 10265 20265 30036 40034 70522 83520 333 56990 58026 70016 83618 87458=
41850,2023,08,10,06,00,AAXX 10064 41850 32456 51203 10314 20250 39948 40045 82510 333 56990 58010 70000 82618 85458=
41850,2023,08,10,12,00,AAXX 10124 41850 31450 80000 10320 20260 39918 40014 70522 8352/ 333 10339 56999 59006 70000 83618 88458=
41850,2023,08,10,18,00,AAXX 10184 41850 11330 80000 10277 20270 39943 40040 60215 70596 8532/ 333 56999 58008 70210 83707 84616 81928 89458=
41851,2023,08,04,00,00,AAXX 04004 41851 11350 81502 10275 20270 39949 40011 60016 70262 8462/ 333 56399 58014 70019 81709 83617 88457=
41851,2023,08,04,06,00,AAXX 04064 41851 32450 81202 10296 20270 39969 40031 8352/ 333 56999 58026 70019 83617 88457=
41851,2023,08,04,12,00,AAXX 04124 41851 11340 80000 10270 20260 39954 40016 60257 76196 8472/ 333 10310 56299 58028 70263 81708 83616 88456=
41851,2023,08,04,18,00,AAXX 04184 41851 11340 80000 10260 20250 39982 40045 60339 76396 8472/ 333 56299 58021 70589 81708 83616 88456=
41851,2023,08,05,00,00,AAXX 05004 41851 11340 80000 10268 20260 39971 40033 60045 70562 8462/ 333 56999 58022 70611 81709 83617 88457=
41851,2023,08,06,12,00,AAXX 06124 41851 32450 80000 10292 20260 39911 49972 8462/ 333 10325 56999 59037 70000 81709 83616 88458=
41851,2023,08,06,18,00,AAXX 06184 41851 11450 80000 10282 20270 39917 49979 60076 70262 8352/ 333 56999 59047 70067 83618 88458=
41851,2023,08,07,00,00,AAXX 07004 41851 11340 80000 10270 20260 39898 49960 60029 76166 8472/ 333 56999 59038 70083 81708 83614 88457=
41851,2023,08,07,06,00,AAXX 07064 41851 11450 80903 10302 20260 39907 49968 69956 70262 8352/ 333 56999 59032 70088 83618 88458=
41851,2023,08,07,12,00,AAXX 07124 41851 11450 80000 10303 20260 39892 49953 60106 70362 8352/ 333 10310 56999 59019 70185 83618 88458=
41851,2023,08,07,18,00,AAXX 07184 41851 11350 80000 10274 20260 39912 49974 60205 70262 8562/ 333 56999 59005 70322 82709 84616 88458=
41851,2023,08,08,00,00,AAXX 08004 41851 11340 80000 10265 20260 39908 49970 60114 76322 8472/ 333 56299 58010 70416 82708 83614 88456=
41851,2023,08,08,06,00,AAXX 08064 41851 11350 80903 10305 20270 39918 49979 60096 70262 8462/ 333 56999 58011 70497 81709 83616 88458=
41851,2023,08,08,12,00,AAXX 08124 41851 11450 61303 10285 20260 39909 49970 60013 70162 83510 333 10313 56990 58017 70413 83618 84459=
41851,2023,08,08,18,00,AAXX 08184 41851 32450 81303 10270 20260 39949 40011 8352/ 333 56999 58037 70209 83618 88458=
41851,2023,08,09,00,00,AAXX 09004 41851 11350 81303 10266 20260 39958 40020 60035 70262 8462/ 333 56999 58050 70124 81709 83616 88458=
41851,2023,08,09,06,00,AAXX 09064 41851 32450 82202 10305 20260 39981 40043 8352/ 333 56999 58063 70038 83618 88458=
41851,2023,08,09,12,00,AAXX 09124 41851 11450 50902 10290 20270 39959 40021 60034 70162 83510 333 10325 56990 58050 70056 83618 84459=
41851,2023,08,09,18,00,AAXX 09184 41851 32450 80000 10278 20278 39979 40041 8352/ 333 56999 58030 70056 83618 88458=
41851,2023,08,10,00,00,AAXX 10004 41851 32450 80000 10265 20260 39974 40036 8462/ 333 56999 58016 70031 81709 84616 88458=
41851,2023,08,10,06,00,AAXX 10064 41851 32450 80000 10320 20260 39992 40053 8352/ 333 56999 58011 70031 83618 88458=
41851,2023,08,10,12,00,AAXX 10124 41851 11450 60000 10312 20270 39964 40025 60156 70262 83420 333 10330 56990 58005 70150 82618 86458=
41851,2023,08,10,18,00,AAXX 10184 41851 32450 80000 10285 20280 39990 40052 8352/ 333 56999 58011 70150 83617 88457=
41856,2023,08,04,00,00,AAXX 04004 41856 32450 81402 10265 20260 39984 40019 8452/ 333 56999 58021 70050 83618 88458=
41856,2023,08,04,06,00,AAXX 04064 41856 32450 61402 10328 20260 39995 40030 82530 333 56990 58024 70050 82618 85458=
41856,2023,08,04,12,00,AAXX 04124 41856 11450 81802 10288 20260 39984 40019 60035 70262 8562/ 333 10332 56499 58029 70026 83709 85615 88458=
41856,2023,08,04,18,00,AAXX 04184 41856 11430 81804 10270 20250 30010 40045 60019 70262 8562/ 333 56499 58022 70036 83708 85615 88458=
41856,2023,08,05,00,00,AAXX 05004 41856 32440 80000 10266 20260 30000 40035 8562/ 333 56499 58016 70036 83710 85615 88458=
41856,2023,08,06,12,00,AAXX 06124 41856 11440 80701 10280 20250 39936 49971 60016 70362 8632/ 333 10308 56999 59042 70058 83618 88458=
41856,2023,08,06,18,00,AAXX 06184 41856 32440 81101 10271 20260 39957 49992 8632/ 333 56999 59032 70058 83618 88458=
41856,2023,08,07,00,00,AAXX 07004 41856 11430 80000 10270 20260 39926 49961 60259 72166 8362/ 333 56999 59037 70312 82710 84618 88458=
41856,2023,08,07,06,00,AAXX 07064 41856 11450 80000 10282 20260 39933 49968 60117 72166 8662/ 333 56999 59033 70371 84618 88458=
41856,2023,08,07,12,00,AAXX 07124 41856 11450 80000 10280 20270 39917 49952 60107 72166 8662/ 333 10310 56999 59019 70464 82710 84618 88458=
41856,2023,08,07,18,00,AAXX 07184 41856 32440 80000 10273 20260 39943 49978 8662/ 333 56999 59014 70464 82710 84618 88458=
41856,2023,08,08,00,00,AAXX 08004 41856 11330 81202 10267 20267 39925 49960 60117 76166 8662/ 333 56999 59001 70323 82708 84618 88457=
41856,2023,08,08,06,00,AAXX 08064 41856 11456 61401 10311 20260 39949 49984 60066 70162 84530 333 56990 58016 70273 82618 86458=
41856,2023,08,08,12,00,AAXX 08124 41856 32450 81702 10279 20260 39947 49982 8562/ 333 10311 56999 58030 70170 82710 84618 88458=
41856,2023,08,08,18,00,AAXX 08184 41856 11440 81503 10271 20260 39984 40019 60017 70262 8562/ 333 56999 58041 82709 84617 88457=
41856,2023,08,09,00,00,AAXX 09004 41856 32440 81501 10270 20260 39988 40023 8452/ 333 56999 58063 70063 83618 88458=
41856,2023,08,09,06,00,AAXX 09064 41856 32456 81501 10313 20250 30008 40043 8452/ 333 56999 58059 70006 83618 88458=
41856,2023,08,09,12,00,AAXX 09124 41856 32450 50000 10300 20270 39984 40021 83430 333 10339 56990 58039 70006 82618 85362=
41856,2023,08,09,18,00,AAXX 09184 41856 11430 80000 10272 20260 30007 40042 60125 70362 8452/ 333 56999 58023 70123 84615 88457=
41856,2023,08,10,00,00,AAXX 10004 41856 32440 80000 10272 20260 30000 40035 8562/ 333 56599 58012 70123 83708 85615 88457=
41856,2023,08,10,06,00,AAXX 10064 41856 32450 71302 10305 20260 30021 40056 83520 333 56990 58013 70123 83618 87458=
41856,2023,08,10,12,00,AAXX 10124 41856 32450 81301 10306 20270 39993 40028 8452/ 333 10338 56999 58007 70123 84618 88458=
41856,2023,08,10,18,00,AAXX 10184 41856 32430 81804 10278 20260 30019 40054 8452/ 333 56999 58012 70000 84615 88458=
41858,2023,08,04,00,00,AAXX 04004 41858 01340 80906 10280 20270 39972 40017 70522 8562/ 333 58015 70196 83708 85614 88458==
41858,2023,08,04,03,00,AAXX 04034 41858 01440 80905 10310 20260 39988 40032 70522 8452/ 333 20275 58025 70196 84616 88458==
41858,2023,08,04,06,00,AAXX 04064 41858 01440 81804 10325 20270 39983 40027 70522 8452/ 333 58025 70196 84616 88458==
41858,2023,08,04,09,00,AAXX 04094 41858 01430 82106 10300 20270 39970 40014 76122 8452/ 333 58030 70222 84616 88458==
41858,2023,08,04,12,00,AAXX 04124 41858 21440 80304 10290 20270 39969 40014 70562 8452/ 333 10355 58026 60035 70032 84615 88458==
41858,2023,08,04,15,00,AAXX 04154 41858 01440 80305 10270 20250 39990 40035 72162 8452/ 333 58015 70332 84615 88458==
41858,2023,08,04,18,00,AAXX 04184 41858 01440 80000 10266 20250 30003 40048 70562 8452/ 333 58025 70300 84615 88458==
41858,2023,08,04,21,00,AAXX 04214 41858 01440 70000 10268 20250 39982 40027 70522 84520 333 58007 70332 84615 86458==
41858,2023,08,05,00,00,AAXX 05004 41858 01420 70000 10272 20260 39988 40033 71022 84520 333 58016 70332 84615 86458==
41858,2023,08,05,03,00,AAXX 05034 41858 01435 61805 10305 20260 39999 40044 70522 84520 333 20260 58011 70332 84616 86458==
41858,2023,08,06,12,00,AAXX 06124 41858 01430 81505 10298 20260 39927 49972 70596 8452/ 333 10334 59038 70050 84615 88458==
41858,2023,08,06,15,00,AAXX 06154 41858 01430 80904 10292 20280 39943 49988 70522 8452/ 333 59039 70050 84616 88458==
41858,2023,08,06,18,00,AAXX 06184 41858 21430 80000 10280 20270 39948 49993 70562 84520 333 59042 60015 70060 84616 88458==
41858,2023,08,06,21,00,AAXX 06214 41858 01420 80000 10280 20270 39926 49971 72122 8452/ 333 59034 70076 84616 88458==
41858,2023,08,07,00,00,AAXX 07004 41858 21415 80000 10270 20278 39918 49963 71062 8452/ 333 59036 60025 70076 84616 88458==
41858,2023,08,07,03,00,AAXX 07034 41858 01425 80000 10290 20260 39931 49976 71022 8452/ 333 20270 58034 70076 84616 88458==
41858,2023,08,07,06,00,AAXX 07064 41858 01430 80000 10304 20270 39924 49968 71022 8452/ 333 59031 70076 84616 88458==
41858,2023,08,07,09,00,AAXX 07094 41858 01440 71805 10290 20270 39907 49949 70562 84520 333 59038 70096 84615 87458==
41858,2023,08,07,12,00,AAXX 07124 41858 01450 81505 10290 20270 39912 49957 70562 8452/ 333 10300 59015 70020 84615 88458==
41858,2023,08,07,15,00,AAXX 07154 41858 01430 82708 10280 20260 39934 49979 76122 8452/ 333 59009 70070 84616 88458==
41858,2023,08,07,18,00,AAXX 07184 41858 21430 82705 10274 20260 39944 49989 70562 8452/ 333 59004 60025 70060 84615 88458==
41858,2023,08,07,21,00,AAXX 07214 41858 01430 82705 10270 20260 39924 49969 70522 8452/ 333 59002 70044 84615 88458==
41858,2023,08,08,00,00,AAXX 08004 41858 21425 82706 10266 20260 39926 49971 76562 8452/ 333 58008 60277 70274 84615 88458==
41858,2023,08,08,03,00,AAXX 08034 41858 01425 80505 10276 20270 39933 49978 76166 8452/ 333 20250 58002 70554 84615 88458==
41858,2023,08,08,06,00,AAXX 08064 41858 01450 80910 10290 20270 39931 49976 70522 8452/ 333 58007 70554 84615 88458==
41858,2023,08,08,09,00,AAXX 08094 41858 01450 80910 10296 20260 39925 49970 70522 8452/ 333 58018 70534 84615 88458==
41858,2023,08,08,12,00,AAXX 08124 41858 01450 80910 10280 20260 39929 49974 70522 8552/ 333 10300 58017 70534 85614 88458==
41858,2023,08,08,15,00,AAXX 08154 41858 01340 81508 10276 20260 39955 40000 72122 8562/ 333 58021 70510 83708 85614 88458==
41858,2023,08,08,18,00,AAXX 08184 41858 01440 81506 10270 20260 39961 40006 70562 8452/ 333 58018 70520 84615 88458==
41858,2023,08,08,21,00,AAXX 08214 41858 01335 81508 10272 20260 39968 40013 70522 8562/ 333 58044 70520 83708 85614 88458==
41858,2023,08,09,00,00,AAXX 09004 41858 01325 81806 10276 20260 39974 40019 71022 8562/ 333 58048 70290 83708 85614 88458==
41858,2023,08,09,03,00,AAXX 09034 41858 01430 81805 10285 20270 39998 40043 70522 8452/ 333 20260 58065 70010 84616 88458==
41858,2023,08,09,06,00,AAXX 09064 41858 01440 81805 10312 20240 39998 40043 70522 8452/ 333 58067 70010 84616 88458==
41858,2023,08,09,09,00,AAXX 09094 41858 01450 52108 10330 20260 39981 40025 70522 83530 333 58056 70010 83615 84362==
41858,2023,08,09,12,00,AAXX 09124 41858 01550 32105 10324 20240 39976 40020 70522 83200 333 10355 58047 70010 83825==
41858,2023,08,09,15,00,AAXX 09154 41858 01550 32105 10324 20240 39976 40020 70522 83200 333 10355 58047 70010 83625==
41858,2023,08,09,18,00,AAXX 09184 41858 11540 41805 10284 20260 39998 40043 60016 70562 82140 333 58040 70010 82825 84362==
41858,2023,08,09,21,00,AAXX 09214 41858 01430 60000 10282 20260 39998 40043 70522 83520 333 58030 70010 83616 86458==
41858,2023,08,10,00,00,AAXX 10004 41858 01425 80000 10280 20260 39999 40044 71022 8452/ 333 58025 70010 84616 88458==
41858,2023,08,10,03,00,AAXX 10034 41858 01440 80000 10300 20250 30012 40057 70522 8452/ 333 20270 58014 70010 84616 88458==
41858,2023,08,10,06,00,AAXX 10064 41858 01450 81805 10316 20250 30011 40055 70522 8452/ 333 58013 70010 84616 88458==
41858,2023,08,10,09,00,AAXX 10094 41858 01450 82405 10335 20270 39988 40032 70522 8452/ 333 58007 70010 84616 88458==
41858,2023,08,10,12,00,AAXX 10124 41858 01450 61806 10327 20270 39982 40026 70522 83520 333 10337 58006 70010 83618 85458==
41858,2023,08,10,15,00,AAXX 10154 41858 01440 81802 10300 20270 30007 40052 70562 8452/ 333 58009 70008 84615 88458==
41858,2023,08,10,18,00,AAXX 10184 41858 21/40 31904 10280 20260 30013 40058 70562 83030 333 58013 69985 70008 83362==
41858,2023,08,10,21,00,AAXX 10214 41858 01/40 31802 10288 20260 30010 40055 70522 83030 333 58012 70008 83362==
41859,2023,08,04,00,00,AAXX 04004 41859 21430 81302 10281 20260 39979 40016 70262 8562/ 333 58022 60015 70020 83710 84618 88458==
41859,2023,08,04,03,00,AAXX 04034 41859 02450 51302 10306 20280 39997 40033 83430 333 20275 58024 70020 82618 83828 85362==
41859,2023,08,04,06,00,AAXX 04064 41859 02456 71303 10336 20260 39991 40027 85510 333 58024 70010 82618 83828 87458==
41859,2023,08,04,09,00,AAXX 04094 41859 01450 80000 10285 20270 39980 40017 76362 8572/ 333 58032 70032 83710 84618 88458==
41859,2023,08,04,12,00,AAXX 04124 41859 01450 80000 10293 20250 39978 40015 70262 8562/ 333 10340 58030 70044 83710 84618 88458==
41859,2023,08,04,15,00,AAXX 04154 41859 02430 80000 10289 20270 39997 40034 8562/ 333 58015 70044 83710 84618 88458==
41859,2023,08,04,18,00,AAXX 04184 41859 02430 81301 10286 20270 30008 40045 8562/ 333 58020 70044 82710 84618 88458==
41859,2023,08,04,21,00,AAXX 04214 41859 02430 81301 10281 20260 30003 40039 8562/ 333 58021 70034 82710 84618 88458==
41859,2023,08,05,00,00,AAXX 05004 41859 02435 81302 10276 20260 39997 40034 8562/ 333 58018 70034 82710 84618 88458==
41859,2023,08,05,03,00,AAXX 05034 41859 02450 81801 10292 20260 30009 40046 8562/ 333 20270 58012 70034 82710 84618 88458==
41859,2023,08,06,03,00,AAXX 06034 41859 NIL=
41859,2023,08,06,12,00,AAXX 06124 41859 02450 81802 10300 20260 39937 49973 8562/ 333 10325 59041 70052 83710 84618 88458==
41859,2023,08,06,15,00,AAXX 06154 41859 01330 81802 10289 20280 39954 49991 76162 8572/ 333 59037 70080 83708 85614 88456==
41859,2023,08,06,18,00,AAXX 06184 41859 01430 82102 10285 20270 39946 49983 70262 8562/ 333 59043 70082 83710 84618 88458==
41859,2023,08,06,21,00,AAXX 06214 41859 02430 80000 10280 20260 39934 49971 8562/ 333 59046 70082 83710 84618 88458==
41859,2023,08,07,00,00,AAXX 07004 41859 01430 80000 10281 20270 39925 49961 72162 8562/ 333 59038 70010 83710 84618 88458==
41859,2023,08,07,03,00,AAXX 07034 41859 01450 80000 10291 20270 39937 49974 76162 8672/ 333 20273 59036 70042 83710 85618 88456==
41859,2023,08,07,06,00,AAXX 07064 41859 21350 81302 10271 20270 39935 49972 79562 8692/ 333 59029 60059 70088 84708 85614 88456 81929==
41859,2023,08,07,09,00,AAXX 07094 41859 01340 80000 10277 20270 39916 49953 79596 8692/ 333 59024 70498 84708 85614 88456 81930==
41859,2023,08,07,12,00,AAXX 07124 41859 01340 80000 10280 20270 39917 49954 76196 8672/ 333 10290 59020 70504 84708 85616 88456==
41859,2023,08,07,15,00,AAXX 07154 41859 01330 80000 10280 20280 39940 49977 76166 8672/ 333 59014 70478 83708 85616 88456==
41859,2023,08,07,18,00,AAXX 07184 41859 21430 80000 10280 20280 39937 49974 72162 8562/ 333 59009 60017 70488 83710 84618 88458==
41859,2023,08,07,21,00,AAXX 07214 41859 01430 80000 10274 20270 39932 49969 70262 8562/ 333 59002 70490 83710 84618 88458==
41859,2023,08,08,00,00,AAXX 08004 41859 01330 80502 10271 20220 39925 49962 76366 8672/ 333 58000 70310 84709 85614 88456==
41859,2023,08,08,03,00,AAXX 08034 41859 01440 80000 10273 20260 39941 49978 72166 8562/ 333 20263 58004 71014 83710 84618 88458==
41859,2023,08,08,06,00,AAXX 08064 41859 01450 80000 10292 20260 39948 49985 76162 8572/ 333 58013 70970 83710 84618 88458==
41859,2023,08,08,09,00,AAXX 08094 41859 01350 80000 10288 20260 39937 49974 76166 8672/ 333 58021 70560 84708 85614 88456==
41859,2023,08,08,12,00,AAXX 08124 41859 21350 81701 10276 20260 39940 49976 70262 8562/ 333 10295 58023 60029 70576 84708 85614 88456==
41859,2023,08,08,15,00,AAXX 08154 41859 01330 82302 10272 20260 39971 40008 76122 8672/ 333 58031 70584 84708 85616 88456==
41859,2023,08,08,18,00,AAXX 08184 41859 21330 81802 10271 20260 39980 40017 70262 8562/ 333 58043 60027 70586 84708 85616 88456==
41859,2023,08,08,21,00,AAXX 08214 41859 02430 80000 10274 20260 39974 40011 8562/ 333 58042 70584 83710 84618 88458==
41859,2023,08,09,00,00,AAXX 09004 41859 42435 81302 10274 20260 39986 40023 8562/ 333 58061 83710 84618 88458==
41859,2023,08,09,03,00,AAXX 09034 41859 02450 81802 10292 20260 30009 40046 8562/ 333 20265 58068 70048 82710 84618 88458==
41859,2023,08,09,06,00,AAXX 09064 41859 02450 82102 10326 20270 30007 40043 8562/ 333 58059 70046 82710 84618 88458==
41859,2023,08,09,09,00,AAXX 09094 41859 02450 70000 10340 20270 39986 40022 84420 333 58049 70046 82618 83825 86458==
41859,2023,08,09,12,00,AAXX 09124 41859 21450 80000 10315 20280 39984 40020 70262 8562/ 333 10340 58044 60007 70024 82710 84618 88458==
41859,2023,08,09,15,00,AAXX 09154 41859 01330 80000 10271 20260 30000 40037 76266 8672/ 333 58029 70104 84708 85614 88456==
41859,2023,08,09,18,00,AAXX 09184 41859 21430 80000 10271 20260 30009 40097 70262 8562/ 333 58029 60097 70090 83710 84618 88458==
41859,2023,08,09,21,00,AAXX 09214 41859 02430 80000 10274 20260 30004 40041 8562/ 333 58030 70090 82710 84618 88458==
41859,2023,08,10,00,00,AAXX 10004 41859 02430 80000 10276 20270 30000 40037 8562/ 333 58014 70090 82710 84618 88458==
41859,2023,08,10,03,00,AAXX 10034 41859 02440 70000 10292 20260 30020 40057 85610 333 20265 58011 70090 82710 83618 87458==
41859,2023,08,10,06,00,AAXX 10064 41859 02450 82302 10304 20260 30023 40060 8562/ 333 58016 70090 82710 84618 88458==
41859,2023,08,10,09,00,AAXX 10094 41859 02450 52302 10340 20260 39996 40032 83430 333 58010 70090 82618 83828 85362==
41859,2023,08,10,12,00,AAXX 10124 41859 02450 62102 10336 20270 39993 40029 85430 333 10340 58009 70090 83618 84828 86362==
41859,2023,08,10,15,00,AAXX 10154 41859 02430 80000 10306 20280 30015 40051 8562/ 333 58015 70000 82710 84618 88458==
41859,2023,08,10,18,00,AAXX 10184 41859 02430 80000 10295 20270 30020 40057 8562/ 333 58011 70000 82710 84618 88458==
41859,2023,08,10,21,00,AAXX 10214 41859 02430 80000 10290 20260 30012 40049 8562/ 333 58008 70000 82710 84618 88458==
41863,2023,08,04,00,00,AAXX 04004 41863 21450 80901 10281 20270 39971 40013 70262 8552/ 333 58025 60025 70084 85618 88458==
41863,2023,08,04,03,00,AAXX 04034 41863 02456 80902 10310 20270 39988 40030 8552/ 333 20269 58026 70084 85618 88458==
41863,2023,08,04,06,00,AAXX 04064 41863 01456 81302 10310 20270 39984 40026 70262 8552/ 333 58024 70020 85618 88458==
41863,2023,08,04,09,00,AAXX 04094 41863 02456 80901 10285 20270 39975 40017 8552/ 333 58035 70070 85618 88458==
41863,2023,08,04,12,00,AAXX 04124 41863 01356 82703 10282 20270 39974 40016 76122 8572/ 333 10337 58034 70170 83708 85614 88456==
41863,2023,08,04,15,00,AAXX 04154 41863 01350 80902 10270 20260 39991 40034 76166 8572/ 333 58020 70234 83708 85614 88456==
41863,2023,08,04,18,00,AAXX 04184 41863 01450 81302 10273 20260 39999 40042 70266 8552/ 333 58023 70030 85618 88458==
41863,2023,08,04,21,00,AAXX 04214 41863 02450 80901 10271 20260 39994 40037 8552/ 333 58021 70244 85618 88458==
41863,2023,08,05,00,00,AAXX 05004 41863 02450 81301 10270 20260 39991 40034 8552/ 333 58020 70224 85618 88458==
41863,2023,08,05,03,00,AAXX 05034 41863 02456 80901 10290 20270 39999 40041 8552/ 333 20261 58011 70024 85618 88458==
41863,2023,08,06,12,00,AAXX 06124 41863 02457 80903 10310 20270 39928 49970 8552/ 333 10327 59038 70000 85618 88458==
41863,2023,08,06,15,00,AAXX 06154 41863 02450 81804 10300 20270 39943 49985 8452/ 333 59040 70000 84618 88458==
41863,2023,08,06,18,00,AAXX 06184 41863 02450 81803 10281 20260 39938 49980 8452/ 333 59043 70000 84618 88458==
41863,2023,08,06,21,00,AAXX 06214 41863 02450 81803 10278 20260 39933 49975 8452/ 333 59041 70000 84618 88458==
41863,2023,08,07,00,00,AAXX 07004 41863 02450 81803 10281 20270 39917 49959 8452/ 333 59040 70000 84618 88458==
41863,2023,08,07,03,00,AAXX 07034 41863 02457 81802 10293 20270 39935 49977 8552/ 333 20275 59031 70000 85618 88458==
41863,2023,08,07,06,00,AAXX 07064 41863 01456 81802 10300 20280 39927 49969 70262 8562/ 333 59029 70030 83710 85617 88458==
41863,2023,08,07,09,00,AAXX 07094 41863 01356 80000 10290 20280 39907 49949 76166 8572/ 333 59029 70051 83708 85614 88458==
41863,2023,08,07,12,00,AAXX 07124 41863 21456 82701 10291 20270 39914 49956 70262 8562/ 333 10306 59014 60038 70056 83710 85617 88458==
41863,2023,08,07,15,00,AAXX 07154 41863 02450 82701 10277 20260 39935 49977 8562/ 333 59008 70056 83710 85617 88458==
41863,2023,08,07,18,00,AAXX 07184 41863 02350 82703 10276 20260 39935 49977 8562/ 333 59003 70056 83708 85614 88456==
41863,2023,08,07,21,00,AAXX 07214 41863 01340 82702 10272 20260 39930 49972 70266 8562/ 333 59003 70214 83708 85614 88456==
41863,2023,08,08,00,00,AAXX 08004 41863 01350 82703 10260 20250 39926 49968 58009 70306 88456 333 70250==
41863,2023,08,08,03,00,AAXX 08034 41863 01356 83103 10262 20260 39938 49980 76166 8672/ 333 20255 58003 70786 84707 85613 88456==
41863,2023,08,08,06,00,AAXX 08064 41863 21356 83607 10272 20250 39922 49964 72166 8662/ 333 59005 60529 70830 84709 85616 88457==
41863,2023,08,08,09,00,AAXX 08094 41863 02456 80903 10278 20260 39919 49961 8552/ 333 58012 70809 85618 88458==
41863,2023,08,08,12,00,AAXX 08124 41863 02456 81301 10275 20270 39924 49966 8552/ 333 10287 58010 70804 85618 88458==
41863,2023,08,08,15,00,AAXX 08154 41863 02450 81303 10270 20260 39954 49996 8552/ 333 58019 70804 85618 88458==
41863,2023,08,08,18,00,AAXX 08184 41863 02450 82703 10268 20260 39963 40005 8552/ 333 58028 70804 85618 88458==
41863,2023,08,08,21,00,AAXX 08214 41863 02450 80901 10266 20260 39961 40003 8552/ 333 58031 70646 85618 88458==
41863,2023,08,09,00,00,AAXX 09004 41863 01450 81302 10270 20260 39974 40017 70262 8552/ 333 58048 70020 85618 88458==
41863,2023,08,09,03,00,AAXX 09034 41863 02450 81803 10283 20260 39998 40040 8552/ 333 20262 58060 70067 85618 88458==
41863,2023,08,09,06,00,AAXX 09064 41863 02457 51803 10312 20260 39998 40040 83520 333 58076 70023 83618 85458==
41863,2023,08,09,09,00,AAXX 09094 41863 02457 51901 10320 20260 39986 40028 83520 333 58067 70023 83618 85458==
41863,2023,08,09,12,00,AAXX 09124 41863 02/57 21801 10324 20250 39977 40019 82030 333 10330 58053 70023 82362==
41863,2023,08,09,15,00,AAXX 09154 41863 02456 62902 10285 20270 39995 40037 83520 333 58041 70023 83618 86458==
41863,2023,08,09,18,00,AAXX 09184 41863 02450 62701 10275 20270 30002 40044 83520 333 58039 70023 83618 86458==
41863,2023,08,09,21,00,AAXX 09214 41863 02450 82701 10272 20260 39986 40029 8552/ 333 58025 70023 85618 88458==
41863,2023,08,10,00,00,AAXX 10004 41863 02450 82301 10270 20250 39994 40037 8562/ 333 58020 70000 82710 85616 88458==
41863,2023,08,10,03,00,AAXX 10034 41863 42456 51802 10290 20260 30014 40056 83520 333 20264 58016 83618 85458==
41863,2023,08,10,06,00,AAXX 10064 41863 02456 81802 10312 20260 30016 40058 8552/ 333 58018 70000 85618 88458==
41863,2023,08,10,09,00,AAXX 10094 41863 02457 41703 10337 20270 39990 40031 84500 333 58004 70000 84618==
41863,2023,08,10,12,00,AAXX 10124 41863 02/57 41803 10321 20270 39985 40027 84030 333 10337 58008 70000 84362==
41863,2023,08,10,15,00,AAXX 10154 41863 02550 21802 10295 20270 30008 40050 82400 333 58013 70000 82620==
41863,2023,08,10,18,00,AAXX 10184 41863 02450 31802 10290 20280 30013 40055 83500 333 58011 70000 83618==
41863,2023,08,10,21,00,AAXX 10214 41863 02450 30000 10284 20260 30003 40045 83500 333 58017 70000 83618==
41881,2023,08,04,00,00,AAXX 04004 41881 32457 80502 10275 20270 39992 40012 8452/ 333 56299 58028 70108 84616 88459=
41881,2023,08,04,06,00,AAXX 04064 41881 32457 70902 10296 20270 30005 40025 84520 333 56990 58032 70058 84616 87459=
41881,2023,08,04,12,00,AAXX 04124 41881 32457 70903 10290 20250 39986 40006 84520 333 10335 56990 58024 70000 84616 87459=
41881,2023,08,04,18,00,AAXX 04184 41881 32450 51403 10278 20260 30022 40041 83520 333 56990 58028 70000 86616 85459=
41881,2023,08,05,00,00,AAXX 05004 41881 32456 81002 10270 20260 30012 40031 8552/ 333 56999 58020 70000 85616 88459=
41881,2023,08,06,12,00,AAXX 06124 41881 11456 81402 10278 20270 39952 49972 60224 72162 8552/ 333 10315 56299 59038 70260 85615 88458=
41881,2023,08,06,18,00,AAXX 06184 41881 11330 81402 10275 20270 39965 49985 60073 76162 8572/ 333 56399 59043 70300 83709 85615 88458=
41881,2023,08,07,00,00,AAXX 07004 41881 11356 81401 10274 20260 39938 49958 60016 70262 8562/ 333 56399 59045 70310 85710 88458=
41881,2023,08,07,06,00,AAXX 07064 41881 11340 82202 10275 20275 39948 49968 60639 76566 8572/ 333 56399 59052 70925 83709 85615 88458=
41881,2023,08,07,12,00,AAXX 07124 41881 11330 82904 10265 20265 39940 49960 60139 76166 8572/ 333 10287 56899 59012 70835 84708 85614 88458=
41881,2023,08,07,18,00,AAXX 07184 41881 11330 82701 10270 20270 39955 49975 60309 76166 8572/ 333 56799 59010 71065 84708 85614 88458=
41881,2023,08,08,00,00,AAXX 08004 41881 11340 83603 10258 20258 39951 49971 60359 76366 8572/ 333 56899 59007 71405 85707 85612 88457=
41881,2023,08,08,06,00,AAXX 08064 41881 11350 82304 10265 20260 39967 49987 60409 76166 8572/ 333 56599 58019 71175 84707 85612 88457=
41881,2023,08,08,12,00,AAXX 08124 41881 11357 82305 10275 20260 39961 49981 60026 70262 8572/ 333 10285 56599 58021 71060 84707 85612 88457=
41881,2023,08,08,18,00,AAXX 08184 41881 32350 82202 10274 20250 39992 40012 8562/ 333 56599 58037 70760 84708 85614 88458=
41881,2023,08,09,00,00,AAXX 09004 41881 32356 81303 10262 20250 30004 40023 8562/ 333 56399 58053 70410 84709 85615 88458=
41881,2023,08,09,06,00,AAXX 09064 41881 32457 70401 10298 20270 30023 40042 84520 333 56990 58056 70015 84616 87458=
41881,2023,08,09,12,00,AAXX 09124 41881 32456 72403 10294 20250 30002 40022 84520 333 10327 56990 58041 70000 84616 87458=
41881,2023,08,09,18,00,AAXX 09184 41881 32450 72402 10271 20260 30026 40046 84520 333 56990 58034 70000 84616 87459=
41881,2023,08,10,00,00,AAXX 10004 41881 32456 80000 10267 20260 30020 40040 8552/ 333 56999 58016 70000 85616 88459=
41881,2023,08,10,06,00,AAXX 10064 41881 32457 61801 10315 20270 30040 40060 83520 333 56990 58017 70000 83617 86459=
41881,2023,08,10,12,00,AAXX 10124 41881 32456 72201 10310 20270 30015 40034 84520 333 10332 56990 58013 70000 84616 87459=
41881,2023,08,10,18,00,AAXX 10184 41881 32450 72301 10290 20270 30043 40063 84520 333 56990 58017 70000 85616 87459=
41883,2023,08,04,00,00,AAXX 04004 41883 02440 81302 10282 20270 39996 40016 8552/ 333 58026 70090 85616 88459==
41883,2023,08,04,03,00,AAXX 04034 41883 02456 71302 10303 20270 30009 40029 84520 333 20272 58025 70080 84616 87459==
41883,2023,08,04,06,00,AAXX 04064 41883 02456 71303 10324 20250 30006 40026 84520 333 58026 70050 84616 87459==
41883,2023,08,04,09,00,AAXX 04094 41883 01456 61302 10314 20260 39997 40017 70162 83510 333 58031 70200 83615 86458==
41883,2023,08,04,12,00,AAXX 04124 41883 11356 81802 10294 20250 39992 40012 60206 70362 8562/ 333 10330 58025 70200 85709 88458==
41883,2023,08,04,15,00,AAXX 04154 41883 02430 60000 10286 20270 30018 40038 83520 333 58022 70200 83618 86458==
41883,2023,08,04,18,00,AAXX 04184 41883 02430 80000 10282 20260 30026 40046 8562/ 333 58027 70200 82710 84618 88458==
41883,2023,08,04,21,00,AAXX 04214 41883 02430 80902 10278 20260 30013 40033 8562/ 333 58024 70200 82710 84618 88458==
41883,2023,08,05,00,00,AAXX 05004 41883 02450 80000 10276 20270 30014 40034 8562/ 333 58018 70200 82710 84618 88458==
41883,2023,08,05,03,00,AAXX 05034 41883 01456 80000 10295 20280 30024 40044 72162 8552/ 333 20270 58015 70204 85616 88459==
41883,2023,08,06,12,00,AAXX 06124 41883 01340 80000 10294 20270 39957 49979 76122 8572/ 333 10303 59035 70010 85709 88458==
41883,2023,08,06,15,00,AAXX 06154 41883 02330 80000 10285 20270 39969 49989 8562/ 333 59039 70012 85709 88458==
41883,2023,08,06,18,00,AAXX 06184 41883 01330 80000 10280 20260 39971 49991 76162 8572/ 333 59040 70100 85709 88458==
41883,2023,08,06,21,00,AAXX 06214 41883 01330 80000 10274 20260 39957 49977 72166 8562/ 333 59034 70182 85709 88458==
41883,2023,08,07,00,00,AAXX 07004 41883 21340 80000 10274 20260 39940 49960 76162 8572/ 333 59041 60099 70206 85709 88458==
41883,2023,08,07,03,00,AAXX 07034 41883 01450 80000 10282 20270 39954 49974 70262 8562/ 333 20270 59037 70214 83710 84616 88456==
41883,2023,08,07,06,00,AAXX 07064 41883 01350 82302 10296 20280 39947 49967 76162 8672/ 333 59038 70218 83709 84615 88456==
41883,2023,08,07,09,00,AAXX 07094 41883 01350 80000 10278 20270 39935 49955 76166 8572/ 333 59030 70556 83709 84616 88458==
41883,2023,08,07,12,00,AAXX 07124 41883 21456 80000 10285 20280 39934 49954 72166 8552/ 333 10298 59023 60419 70616 85616 88459==
41883,2023,08,07,15,00,AAXX 07154 41883 01330 82703 10270 20270 39962 49982 76366 8572/ 333 59007 71136 85709 88458==
41883,2023,08,07,18,00,AAXX 07184 41883 21330 80000 10264 20260 39956 49976 79596 8592/ 333 59015 61049 71554 85709 88458 82928==
41883,2023,08,07,21,00,AAXX 07214 41883 01330 80000 10262 20260 39950 49970 76396 8572/ 333 59007 71738 85709 88458==
41883,2023,08,08,00,00,AAXX 08004 41883 21330 82702 10261 20260 39946 49966 76396 8572/ 333 58006 60679 72130 85709 88458==
41883,2023,08,08,03,00,AAXX 08034 41883 01350 82302 10260 20260 39966 49986 76366 8572/ 333 20255 58012 72342 85709 88458==
41883,2023,08,08,06,00,AAXX 08064 41883 21350 82302 10270 20260 39973 49993 76166 8572/ 333 58026 60319 72430 85709 88458==
41883,2023,08,08,09,00,AAXX 08094 41883 01350 82302 10286 20270 39963 49983 70266 8562/ 333 58028 72100 82710 84616 88456==
41883,2023,08,08,12,00,AAXX 08124 41883 11450 80000 10284 20260 39968 49988 60016 70262 8562/ 333 10292 58034 72028 82710 84618 88458==
41883,2023,08,08,15,00,AAXX 08154 41883 02430 80000 10284 20270 39995 40015 8552/ 333 58033 71508 85616 88459==
41883,2023,08,08,18,00,AAXX 08184 41883 02430 80000 10282 20260 30001 40021 8552/ 333 58045 70990 85616 88459==
41883,2023,08,08,21,00,AAXX 08214 41883 02430 81302 10272 20250 39991 40011 8552/ 333 58041 70736 85616 88459==
41883,2023,08,09,00,00,AAXX 09004 41883 02430 81302 10270 20260 30007 40027 8552/ 333 58061 70320 85616 88459==
41883,2023,08,09,03,00,AAXX 09034 41883 02456 80000 10290 20260 30023 40043 8552/ 333 20254 58057 70100 85616 88458==
41883,2023,08,09,06,00,AAXX 09064 41883 02456 60000 10320 20260 30023 40043 83510 333 70010 83616 86459==
41883,2023,08,09,09,00,AAXX 09094 41883 41456 62302 10328 20280 30004 40024 70262 83510 333 58041 83618 86458==
41883,2023,08,09,12,00,AAXX 09124 41883 11450 60000 10320 20290 30001 40021 60006 70262 82520 333 10332 58033 82618 86458==
41883,2023,08,09,15,00,AAXX 09154 41883 01330 81302 10284 20260 30023 40043 76162 8572/ 333 58028 70004 83709 84618 88456==
41883,2023,08,09,18,00,AAXX 09184 41883 01330 80000 10280 20260 30026 40046 76166 8672/ 333 58025 70010 83709 84615 88456==
41883,2023,08,09,21,00,AAXX 09214 41883 02430 60000 10278 20270 30021 40041 83520 333 58030 70010 83618 86458==
41883,2023,08,10,00,00,AAXX 10004 41883 02450 80000 10276 20270 30022 40042 8452/ 333 58015 70010 84618 88458==
41883,2023,08,10,03,00,AAXX 10034 41883 02456 62302 10296 20270 30040 40060 84820 333 20270 58017 70010 83616 87458==
41883,2023,08,10,06,00,AAXX 10064 41883 02456 61802 10318 20260 30040 40060 84810 333 58017 70010 83616 86459==
41883,2023,08,10,09,00,AAXX 10094 41883 01356 82302 10313 20250 30015 40036 76022 8572/ 333 58012 70010 85709 88458==
41883,2023,08,10,12,00,AAXX 10124 41883 22450 80000 10315 20260 30012 40032 8552/ 333 10335 58011 60005 70010 85616 88458==
41883,2023,08,10,15,00,AAXX 10154 41883 02430 81802 10300 20270 30030 40050 8552/ 333 58007 70006 85615 88458==
41883,2023,08,10,18,00,AAXX 10184 41883 42330 80000 10292 20270 30041 40061 8562/ 333 58015 85709 88458==
41883,2023,08,10,21,00,AAXX 10214 41883 42330 80000 10286 20270 30027 40047 8562/ 333 58006 85709 88458==
41886,2023,08,04,00,00,AAXX 04004 41886 02450 80000 10274 20260 30004 40024 8352/ 333 58022 70170 83618 88460==
41886,2023,08,04,03,00,AAXX 04034 41886 02456 80000 10280 20260 30024 40044 8352/ 333 20273 58027 70170 83618 88460==
41886,2023,08,04,06,00,AAXX 04064 41886 02456 80000 10310 20260 30021 40041 8352/ 333 58030 70170 83618 88460==
41886,2023,08,04,09,00,AAXX 04094 41886 02456 71303 10322 20260 30009 40029 84470 333 58032 70110 83618 86460==
41886,2023,08,04,12,00,AAXX 04124 41886 02456 71303 10280 20260 30008 40028 84470 333 10330 58027 70000 83618 86460==
41886,2023,08,04,15,00,AAXX 04154 41886 02450 80000 10275 20250 30031 40051 8352/ 333 58022 70000 83618 88460==
41886,2023,08,04,18,00,AAXX 04184 41886 NIL=
41886,2023,08,05,00,00,AAXX 05004 41886 02450 80000 10275 20260 30025 40045 8352/ 333 58022 70000 83618 88460==
41886,2023,08,05,03,00,AAXX 05034 41886 02456 80000 10300 20270 30035 40055 8352/ 333 20273 58011 70000 83618 88460==
41886,2023,08,06,12,00,AAXX 06124 41886 01450 80000 10277 20270 39966 49986 76065 8532/ 333 10300 59040 70068 83616 88458 81930==
41886,2023,08,06,15,00,AAXX 06154 41886 01450 80000 10275 20270 39982 40002 76166 8452/ 333 59042 70040 83616 88458==
41886,2023,08,06,18,00,AAXX 06184 41886 21340 80000 10270 20260 39982 40002 76166 8672/ 333 59027 60029 70060 82710 85616 88458==
41886,2023,08,06,21,00,AAXX 06214 41886 01340 80000 10270 20270 39962 49982 76166 8572/ 333 59038 70114 82710 85616 88458==
41886,2023,08,07,00,00,AAXX 07004 41886 22350 80000 10270 20270 39951 49971 8672/ 333 59044 60089 70148 82710 85616 88458==
41886,2023,08,07,03,00,AAXX 07034 41886 01456 80000 10277 20270 39959 49979 76166 8432/ 333 20268 59039 70150 83616 88458 81930==
41886,2023,08,07,06,00,AAXX 07064 41886 21456 80000 10280 20270 39951 49971 79566 8432/ 333 59041 60099 70234 83616 88458 81930==
41886,2023,08,07,09,00,AAXX 07094 41886 01456 70000 10297 20270 39936 49956 70296 8431/ 333 59034 70234 83617 88460 81930==
41886,2023,08,07,12,00,AAXX 07124 41886 01456 80000 10290 20270 39936 49956 71796 8591/ 333 10300 59030 70220 83617 88460 81930==
41886,2023,08,07,15,00,AAXX 07154 41886 01440 80000 10271 20270 39956 49976 79596 8592/ 333 59026 70240 84616 88458 81930==
41886,2023,08,07,18,00,AAXX 07184 41886 21440 80000 10271 20260 39955 49975 70296 8532/ 333 59027 60078 70246 83616 88459 81930==
41886,2023,08,07,21,00,AAXX 07214 41886 01440 80000 10266 20260 39950 49970 76396 8532/ 333 59012 70246 83616 88458 81930==
41886,2023,08,08,00,00,AAXX 08004 41886 21440 80000 10264 20250 39950 49970 76196 8532/ 333 58000 60069 70222 83616 88458 81930==
41886,2023,08,08,03,00,AAXX 08034 41886 01340 82506 10262 20260 39967 49987 76366 8532/ 333 20260 58008 70452 84709 84616 88458 81930==
41886,2023,08,08,06,00,AAXX 08064 41886 21450 80000 10272 20260 39978 49998 72166 8532/ 333 58027 60399 70526 84616 88458 81930==
41886,2023,08,08,09,00,AAXX 08094 41886 02456 80000 10290 20260 39971 49991 8672/ 333 58035 70522 82710 85616 88458==
41886,2023,08,08,12,00,AAXX 08124 41886 01350 80000 10272 20260 39984 40004 70262 8672/ 333 10292 58048 70556 82710 85616 88458==
41886,2023,08,08,15,00,AAXX 08154 41886 02350 80000 10270 20260 30011 40031 8772/ 333 58055 70516 83710 86615 88458==
41886,2023,08,08,18,00,AAXX 08184 41886 02350 80000 10270 20260 30014 40034 8672/ 333 58059 70490 82710 85615 88458==
41886,2023,08,08,21,00,AAXX 08214 41886 02450 80000 10270 20260 30014 40034 8452/ 333 58064 70440 84616 88458==
41886,2023,08,09,00,00,AAXX 09004 41886 02450 80000 10270 20260 30022 40042 8452/ 333 58072 70430 84616 88458==
41886,2023,08,09,03,00,AAXX 09034 41886 02456 70000 10286 20270 30033 40053 84570 333 20260 58066 70198 84618 86460==
41886,2023,08,09,06,00,AAXX 09064 41886 02457 80000 10320 20260 30032 40052 8441/ 333 58054 70040 83618 88460==
41886,2023,08,09,09,00,AAXX 09094 41886 01457 70000 10290 20280 30012 40032 72162 84510 333 58041 70086 84618 87460==
41886,2023,08,09,12,00,AAXX 09124 41886 21456 50000 10315 20270 30009 40029 70162 82570 333 10327 58025 60058 70046 82618 84460==
41886,2023,08,09,15,00,AAXX 09154 41886 02450 80000 10288 20270 30028 40048 8351/ 333 58017 70046 83618 88460==
41886,2023,08,09,18,00,AAXX 09184 41886 NIL=
41886,2023,08,09,21,00,AAXX 09214 41886 02450 80000 10283 20260 30028 40048 8452/ 333 58014 70046 84616 88458==
41886,2023,08,10,00,00,AAXX 10004 41886 02456 80000 10272 20260 30027 40047 8452/ 333 58005 70046 84616 88458==
41886,2023,08,10,03,00,AAXX 10034 41886 02456 80000 10286 20270 30045 40065 8452/ 333 20272 58012 70046 84616 88458==
41886,2023,08,10,06,00,AAXX 10064 41886 02457 80000 10315 20270 30047 40067 8451/ 333 58015 70046 84618 88460==
41886,2023,08,10,09,00,AAXX 10094 41886 02457 80000 10325 20260 30023 40043 8441/ 333 58011 70000 83618 88460==
41886,2023,08,10,12,00,AAXX 10124 41886 02456 80000 10293 20250 30024 40044 8452/ 333 10332 58015 70000 84616 88458==
41886,2023,08,10,15,00,AAXX 10154 41886 02450 80000 10285 20260 30044 40064 8452/ 333 58016 70000 84616 88458==
41886,2023,08,10,21,00,AAXX 10214 41886 02450 80000 10275 20270 30036 40056 8452/ 333 58008 70000 84616 88458==
41888,2023,08,04,00,00,AAXX 04004 41888 32456 71302 10273 20260 30014 40024 83520 333 56990 58014 70170 83617 87460=
41888,2023,08,04,06,00,AAXX 04064 41888 32456 80902 10305 20270 30026 40036 8462/ 333 56999 58026 70170 81710 83616 88460=
41888,2023,08,04,12,00,AAXX 04124 41888 11456 71301 10265 20260 30012 40022 60163 70262 84620 333 10325 56390 58022 70210 81710 83616 87460=
41888,2023,08,04,18,00,AAXX 04184 41888 NIL=
41888,2023,08,05,00,00,AAXX 05004 41888 32456 61301 10272 20260 30032 40042 83530 333 56990 58018 70160 83618 86362=
41888,2023,08,06,12,00,AAXX 06124 41888 11440 82202 10265 20265 39973 49983 60257 76162 8572/ 333 10305 56599 59040 70612 82710 83616 88460=
41888,2023,08,07,00,00,AAXX 07004 41888 11450 80501 10270 20260 39963 49973 60036 70262 8462/ 333 56199 59030 70720 81710 83616 88460=
41888,2023,08,07,06,00,AAXX 07064 41888 32456 80901 10305 20280 39958 49968 8462/ 333 56299 59040 70718 81710 83616 88460=
41888,2023,08,07,12,00,AAXX 07124 41888 11450 80902 10280 20260 39943 49953 60024 72161 8462/ 333 10307 56299 59030 70488 81710 83616 83460=
41888,2023,08,07,18,00,AAXX 07184 41888 11440 80902 10270 20260 39989 49999 60059 76162 8532/ 333 56299 58007 70100 81710 83616 81930 88458=
41888,2023,08,08,00,00,AAXX 08004 41888 11440 81802 10265 20260 39961 49971 60039 76166 8462/ 333 56499 59002 70078 81710 83616 88458=
41888,2023,08,08,06,00,AAXX 08064 41888 11440 80903 10275 20260 39986 49996 60099 76162 8572/ 333 56399 58028 70186 82710 83616 88458=
41888,2023,08,08,12,00,AAXX 08124 41888 32456 82206 10282 20260 39987 49997 8462/ 333 10295 56599 58044 70166 82710 83610 84660=
41888,2023,08,08,18,00,AAXX 08184 41888 NIL=
41888,2023,08,09,00,00,AAXX 09004 41888 32456 80903 10265 20260 30021 40031 8462/ 333 56299 58060 70088 81710 83616 88460=
41888,2023,08,09,06,00,AAXX 09064 41888 32456 80902 10310 20260 30037 40047 8452/ 333 56999 58051 70000 84616 88460=
41888,2023,08,09,12,00,AAXX 09124 41888 32456 50502 10306 20260 30015 40025 83530 333 56990 58028 70000 83618 85362=
41888,2023,08,09,18,00,AAXX 09184 41888 32456 50901 10280 20260 30038 40048 8351/ 333 56999 58040 70000 83618 88460=
41888,2023,08,10,00,00,AAXX 10004 41888 32456 82202 10270 20260 30035 40045 8351/ 333 56999 58014 70000 83616 88460=
41888,2023,08,10,06,00,AAXX 10064 41888 32457 81802 10305 20260 30052 40062 8552/ 333 56999 58015 70000 85618 88460=
41888,2023,08,10,12,00,AAXX 10124 41888 11456 80901 10280 20260 30030 40040 60044 8462/ 333 10332 56299 58015 70040 82710 83616 88460=
41888,2023,08,10,18,00,AAXX 10184 41888 32456 80901 10276 20260 30052 40062 8462/ 333 56299 58014 70040 81710 83618 88460=
41891,2023,08,04,00,00,AAXX 04004 41891 11430 81203 10272 20260 30000 40038 69921 70562 8532/ 333 58020 70102 82710 84615 88459 81930==
41891,2023,08,04,03,00,AAXX 04034 41891 01440 81302 10298 20250 30010 40048 70522 8532/ 333 20267 58017 70098 82710 84615 88459 81930==
41891,2023,08,04,06,00,AAXX 04064 41891 01445 71502 10324 20250 30005 40042 70522 84370 333 58022 70090 84615 86460 81930==
41891,2023,08,04,09,00,AAXX 04094 41891 01440 81505 10319 20250 39990 40027 70522 8532/ 333 58024 70090 82710 84615 88459 81930==
41891,2023,08,04,12,00,AAXX 04124 41891 11320 80502 10270 20250 39991 40029 60012 76222 8632/ 333 10336 58019 70030 86707 88458 81925==
41891,2023,08,04,15,00,AAXX 04154 41891 01330 83603 10257 20250 30025 40063 76166 8632/ 333 59024 70082 85708 88458 81926==
41891,2023,08,04,18,00,AAXX 04184 41891 21330 80903 10260 20250 30026 40064 76066 8632/ 333 59026 60079 70082 85708 88458 81926==
41891,2023,08,04,21,00,AAXX 04214 41891 01330 80903 10265 20260 30018 40056 70566 8632/ 333 58020 70085 85708 88458 81926==
41891,2023,08,05,00,00,AAXX 05004 41891 21430 81503 10265 20260 30013 40051 76066 8532/ 333 58020 69958 70085 85708 88458 81926==
41891,2023,08,05,03,00,AAXX 05034 41891 21430 81503 10265 20260 30013 40051 76066 8532/ 333 58020 69958 70085 85708 88458 81926==
41891,2023,08,06,12,00,AAXX 06124 41891 21320 82304 10264 20250 39953 49991 76366 8632/ 333 10288 59042 60529 70622 86707 88458 81925==
41891,2023,08,06,15,00,AAXX 06154 41891 01330 82503 10265 20260 39970 40008 76166 8632/ 333 59041 70842 85708 88458 81926==
41891,2023,08,06,18,00,AAXX 06184 41891 21330 82103 10265 20260 39963 40001 59043 70847 88458 333 60239==
41891,2023,08,06,21,00,AAXX 06214 41891 01330 81603 10265 20260 39942 40080 70562 8632/ 333 59050 70847 85708 88458 81926==
41891,2023,08,07,00,00,AAXX 07004 41891 11440 81603 10263 20250 39946 40084 69956 70562 8532/ 333 59017 70852 84710 88459 81928==
41891,2023,08,07,03,00,AAXX 07034 41891 01435 80904 10270 20260 39952 49990 72162 8532/ 333 20260 59034 70837 82710 84615 88459 81930==
41891,2023,08,07,06,00,AAXX 07064 41891 01325 81803 10280 20260 39941 49979 76062 8632/ 333 59034 70759 83708 84615 88458 81925==
41891,2023,08,07,09,00,AAXX 07094 41891 01320 80902 10265 20260 39926 49964 76166 8632/ 333 59029 71017 86707 88458 81925==
41891,2023,08,07,12,00,AAXX 07124 41891 21320 81803 10268 20260 39929 49967 76166 8632/ 333 10285 59024 60299 70523 86708 88458 81925==
41891,2023,08,07,15,00,AAXX 07154 41891 01320 81803 10270 20260 39950 49988 76166 8632/ 333 59020 70353 86708 88458 81925==
41891,2023,08,07,18,00,AAXX 07184 41891 21430 81803 10265 20260 39950 49988 72166 8532/ 333 59013 60189 70478 82710 84615 88459 81930==
41891,2023,08,07,21,00,AAXX 07214 41891 01430 81503 10265 20260 39948 49986 70522 8532/ 333 58006 70473 82710 84615 88459 81930==
41891,2023,08,08,00,00,AAXX 08004 41891 11430 81003 10260 20250 39952 49990 60012 70562 8532/ 333 58006 70487 82710 84615 88459 81930==
41891,2023,08,08,03,00,AAXX 08034 41891 01440 81802 10290 20260 39963 40001 70522 8532/ 333 20260 58011 70482 82710 84615 88459 81930==
41891,2023,08,08,06,00,AAXX 08064 41891 21320 81304 10274 20260 39962 40000 76362 8632/ 333 58021 60037 70508 86708 88458 81925==
41891,2023,08,08,09,00,AAXX 08094 41891 01320 82104 10267 20260 39950 49988 76366 8632/ 333 58024 70378 86707 88458 81925==
41891,2023,08,08,12,00,AAXX 08124 41891 21320 82304 10266 20260 39966 40004 76366 8632/ 333 10293 58037 60159 70374 86708 88458 81925==
41891,2023,08,08,15,00,AAXX 08154 41891 01330 81903 10270 20260 39995 40033 76166 8632/ 333 58045 70354 85708 88458 81925==
41891,2023,08,08,18,00,AAXX 08184 41891 21330 82003 10260 20250 39998 40036 76066 8632/ 333 58048 60099 70284 85708 88458 81926==
41891,2023,08,08,21,00,AAXX 08214 41891 01430 82003 10260 20250 39995 40033 70562 8632/ 333 58047 70284 85710 88459 81928==
41891,2023,08,09,00,00,AAXX 09004 41891 11430 81503 10258 20250 30003 40041 60006 70562 8532/ 333 58051 70270 84710 88459 81930==
41891,2023,08,09,03,00,AAXX 09034 41891 01435 82302 10284 20250 30020 40058 70522 8532/ 333 20258 58057 70270 82710 84615 88459 81930==
41891,2023,08,09,06,00,AAXX 09064 41891 01435 83606 10290 20260 30014 40052 70522 8532/ 333 58052 70242 82710 84615 88459 81930==
41891,2023,08,09,09,00,AAXX 09094 41891 01440 82302 10290 20260 39993 40031 70522 8532/ 333 58043 70102 82710 84615 88459 81930==
41891,2023,08,09,12,00,AAXX 09124 41891 11435 60000 10300 20250 39986 40024 60002 70562 83340 333 10320 58020 70090 83615 85365 81930==
41891,2023,08,09,15,00,AAXX 09154 41891 01435 62502 10280 20260 30012 40050 70522 83340 333 58017 70060 83615 85365 81930==
41891,2023,08,09,18,00,AAXX 09184 41891 01320 81502 10265 20260 30015 40053 76362 8632/ 333 58017 70180 86708 88458 81925==
41891,2023,08,09,21,00,AAXX 09214 41891 01430 81503 10263 20250 30018 40056 72166 8532/ 333 58023 70210 84615 88459 81930==
41891,2023,08,10,00,00,AAXX 10004 41891 11430 81804 10260 20250 30016 40054 60036 70562 8532/ 333 58013 70210 82710 84615 88459 81930==
41891,2023,08,10,03,00,AAXX 10034 41891 01435 81802 10273 20250 30029 40067 70522 8532/ 333 20260 58009 70210 82710 84615 88459 81930==
41891,2023,08,10,06,00,AAXX 10064 41891 01435 82302 10304 20250 30030 40068 70522 8532/ 333 58016 70210 82710 84615 88459 81930==
41891,2023,08,10,09,00,AAXX 10094 41891 01430 82205 10280 20270 30009 40047 72122 8532/ 333 58016 70280 82710 84615 88459 81930==
41891,2023,08,10,12,00,AAXX 10124 41891 11435 81802 10280 20260 30006 40044 60076 70562 8532/ 333 10306 58020 70280 82710 84615 88459 81930==
41891,2023,08,10,15,00,AAXX 10154 41891 01430 52503 10273 20260 30032 40070 70522 84310 333 58020 70280 83616 85459 81930==
41891,2023,08,10,18,00,AAXX 10184 41891 01330 82503 10270 20260 30028 40066 70522 8632/ 333 58013 70180 85708 88458 81928==
41891,2023,08,10,21,00,AAXX 10214 41891 01430 82503 10270 20260 30020 40058 70562 8632/ 333 58002 70070 85708 88458 81928==
41895,2023,08,04,00,00,AAXX 04004 41895 02450 81302 10282 20270 39988 40011 8452/ 333 58031 70000 84615 88458==
41895,2023,08,04,03,00,AAXX 04034 41895 02456 61804 10306 20280 30005 40027 84410 333 20278 58029 70000 83616 85458==
41895,2023,08,04,06,00,AAXX 04064 41895 02457 61804 10346 20270 30002 40023 84431 333 58029 70000 82616 83820==
41895,2023,08,04,09,00,AAXX 04094 41895 02457 71306 10355 20260 39989 40011 83520 333 58034 70000 83616 87458==
41895,2023,08,04,12,00,AAXX 04124 41895 02457 61304 10322 20240 39987 40009 83510 333 10360 58030 70000 83616 86458==
41895,2023,08,04,15,00,AAXX 04154 41895 02450 61302 10300 20270 30013 40035 83520 333 58030 70000 83616 86458==
41895,2023,08,04,18,00,AAXX 04184 41895 NIL=
41895,2023,08,04,21,00,AAXX 04214 41895 02450 51302 10283 20260 30007 40029 83520 333 58019 70000 83616 85458==
41895,2023,08,05,00,00,AAXX 05004 41895 02450 81302 10280 20260 30009 40031 8452/ 333 58021 70000 84615 88458==
41895,2023,08,05,03,00,AAXX 05034 41895 02450 82303 10310 20260 30020 40042 8452/ 333 20275 58015 70000 84615 88458==
41895,2023,08,06,12,00,AAXX 06124 41895 02450 81802 10300 20270 39956 49977 8452/ 333 10313 59034 70005 84615 88458==
41895,2023,08,06,15,00,AAXX 06154 41895 01450 81801 10279 20270 39971 49993 76162 8452/ 333 59036 70045 84615 88458==
41895,2023,08,06,18,00,AAXX 06184 41895 11450 81802 10280 20270 39975 49997 60046 70262 8452/ 333 59039 70045 84615 88458==
41895,2023,08,06,21,00,AAXX 06214 41895 01450 82302 10274 20260 39947 49969 76162 8452/ 333 59060 70056 84615 88458==
41895,2023,08,07,00,00,AAXX 07004 41895 21450 82701 10274 20260 39944 49966 76166 8452/ 333 59037 60017 70060 84615 88458==
41895,2023,08,07,03,00,AAXX 07034 41895 01450 82702 10290 20280 39960 49982 70262 8452/ 333 20266 59034 70055 84615 88458==
41895,2023,08,07,06,00,AAXX 07064 41895 11450 82704 10290 20270 39953 49975 60006 70262 8452/ 333 59032 70054 84615 88458==
41895,2023,08,07,09,00,AAXX 07094 41895 01450 82304 10305 20290 39935 49957 72162 8452/ 333 59028 70058 84615 88458==
41895,2023,08,07,12,00,AAXX 07124 41895 01450 82304 10284 20270 39941 49963 76062 8452/ 333 10310 59015 70070 84615 88458==
41895,2023,08,07,15,00,AAXX 07154 41895 01450 82302 10280 20280 39963 49985 70262 8452/ 333 59008 70040 84615 88458==
41895,2023,08,07,18,00,AAXX 07184 41895 01450 82304 10280 20280 39962 49984 76062 8452/ 333 59013 70070 84615 88458==
41895,2023,08,07,21,00,AAXX 07214 41895 01450 82304 10275 20275 39948 49970 76166 8452/ 333 58001 70077 84615 88458==
41895,2023,08,08,00,00,AAXX 08004 41895 21450 82304 10265 20265 39957 49979 76166 8452/ 333 58013 60029 70086 84615 88458==
41895,2023,08,08,03,00,AAXX 08034 41895 01450 82703 10264 20264 39973 49995 76166 8452/ 333 20263 58013 70158 84615 88458==
41895,2023,08,08,06,00,AAXX 08064 41895 21450 82304 10270 20270 39975 49997 76166 8452/ 333 58022 60109 70188 84615 88458==
41895,2023,08,08,09,00,AAXX 08094 41895 01456 82302 10286 20270 39967 49989 70262 8452/ 333 58032 70186 84615 88458==
41895,2023,08,08,12,00,AAXX 08124 41895 11456 80902 10289 20260 39969 49991 69926 70262 8452/ 333 10290 58028 70174 84615 88458==
41895,2023,08,08,15,00,AAXX 08154 41895 02450 80901 10280 20260 39991 40013 8452/ 333 58028 70164 84615 88458==
41895,2023,08,08,18,00,AAXX 08184 41895 02450 80901 10277 20270 39997 40019 8452/ 333 58035 70134 84615 88458==
41895,2023,08,08,21,00,AAXX 08214 41895 01450 80901 10268 20260 39989 40011 76162 8452/ 333 58041 70129 84615 88458==
41895,2023,08,09,00,00,AAXX 09004 41895 21450 80901 10264 20250 30001 40024 70262 8452/ 333 58044 60015 70114 84615 88458==
41895,2023,08,09,03,00,AAXX 09034 41895 02450 81802 10286 20270 30022 40044 8452/ 333 20260 58049 70042 84615 88458==
41895,2023,08,09,06,00,AAXX 09064 41895 02450 82703 10320 20270 30023 40044 8452/ 333 58048 70012 84616 88458==
41895,2023,08,09,09,00,AAXX 09094 41895 02457 52702 10345 20270 30001 40023 83510 333 58034 70010 83616 85458==
41895,2023,08,09,12,00,AAXX 09124 41895 02450 50000 10293 20240 30005 40027 83510 333 10347 58036 70008 83616 85458==
41895,2023,08,09,15,00,AAXX 09154 41895 02450 53101 10275 20260 30025 40047 83510 333 58034 70010 83616 85458==
41895,2023,08,09,18,00,AAXX 09184 41895 NIL=
41895,2023,08,09,21,00,AAXX 09214 41895 02450 31801 10267 20260 30013 40036 83500 333 58024 70000 83616==
41895,2023,08,10,00,00,AAXX 10004 41895 02450 40000 10263 20250 30023 40046 84500 333 58022 70000 84615==
41895,2023,08,10,03,00,AAXX 10034 41895 02450 82302 10294 20260 30039 40061 8452/ 333 20258 58017 70000 84615 88458==
41895,2023,08,10,06,00,AAXX 10064 41895 02450 83102 10316 20270 30041 40063 8452/ 333 58018 70000 84615 88458==
41895,2023,08,10,09,00,AAXX 10094 41895 02456 82302 10310 20270 30017 40039 333 58016 70000 84615 88458==
41895,2023,08,10,12,00,AAXX 10124 41895 02456 61802 10305 20270 30014 40036 83520 333 10323 58009 70000 83616 86458==
41895,2023,08,10,15,00,AAXX 10154 41895 02450 81801 10290 20270 30034 40056 8352/ 333 58009 70000 83616 88458==
41895,2023,08,10,18,00,AAXX 10184 41895 02450 81304 10280 20270 30038 40061 8352/ 333 58007 70000 83616 88458==
41895,2023,08,10,21,00,AAXX 10214 41895 02450 81302 10280 20280 30027 40049 8352/ 333 58014 70000 83616 88458==
41897,2023,08,04,00,00,AAXX 04004 41897 32435 81501 10280 20270 30002 40015 8352/ 333 56999 58029 70070 83615 88458=
41897,2023,08,04,06,00,AAXX 04064 41897 32450 71502 10318 20270 30016 40028 83530 333 56990 58030 70000 83616 86360=
41897,2023,08,04,12,00,AAXX 04124 41897 11450 81301 10285 20270 30003 40016 60043 70266 8352/ 333 10330 56999 58032 70040 83615 88458=
41897,2023,08,04,18,00,AAXX 04184 41897 32440 81502 10283 20260 30033 40046 8352/ 333 56999 58027 70040 83615 88458=
41897,2023,08,05,00,00,AAXX 05004 41897 32435 81302 10280 20260 30022 40035 8352/ 333 56999 58020 70040 83615 88458=
41897,2023,08,06,12,00,AAXX 06124 41897 11440 61802 10290 20270 39965 49978 60013 70162 82510 333 10310 56990 59035 70010 82617 86458=
41897,2023,08,06,18,00,AAXX 06184 41897 32440 51803 10275 20260 39981 49994 81510 333 56990 59034 70010 81618 85458=
41897,2023,08,07,00,00,AAXX 07004 41897 11440 70218 10273 20270 39953 49966 60033 70266 82510 333 56990 59038 70040 82617 87458=
41897,2023,08,07,06,00,AAXX 07064 41897 11450 81802 10285 20280 39956 49969 60017 76162 8452/ 333 56799 59037 70048 84616 88458=
41897,2023,08,07,12,00,AAXX 07124 41897 NIL=
41897,2023,08,07,18,00,AAXX 07184 41897 11350 83101 10260 20250 39961 49974 60489 76162 8472/ 333 56999 59020 70612 83707 83615 88458=
41897,2023,08,08,00,00,AAXX 08004 41897 11350 83101 10258 20250 39967 49980 60699 76662 8472/ 333 56999 58014 71272 84707 88458=
41897,2023,08,08,06,00,AAXX 08064 41897 11350 81801 10280 20260 39981 49994 60509 76662 8472/ 333 56999 58025 71764 82615 83707 88458=
41897,2023,08,08,12,00,AAXX 08124 41897 32450 71801 10289 20260 39978 49991 83510 333 10295 56990 58028 71672 83618 87458=
41897,2023,08,08,18,00,AAXX 08184 41897 32450 61801 10272 20250 30010 40023 82510 333 56990 58049 71192 82618 86458=
41897,2023,08,09,00,00,AAXX 09004 41897 32450 61801 10265 20260 30015 40028 82530 333 56990 58048 70500 82618 86361=
41897,2023,08,09,06,00,AAXX 09064 41897 32456 70000 10314 20260 30029 40042 83510 333 56990 58048 70000 83618 87458=
41897,2023,08,09,12,00,AAXX 09124 41897 11456 50000 10316 20280 30009 40022 60016 70362 82530 333 10335 56990 58031 70006 82618 85361=
41897,2023,08,09,18,00,AAXX 09184 41897 11450 81801 10266 20260 30034 40047 60148 70262 8352/ 333 56999 58024 70140 83618 88458=
41897,2023,08,10,00,00,AAXX 10004 41897 32450 50000 10265 20260 30030 40043 82530 333 56990 58015 70140 82618 85361=
41897,2023,08,10,06,00,AAXX 10064 41897 32450 60000 10319 20260 30043 40056 83510 333 56990 58014 70140 83618 86458=
41897,2023,08,10,12,00,AAXX 10124 41897 11450 71801 10290 20250 30028 40041 69915 70262 83510 333 10336 56990 58019 70141 83618 87458=
41897,2023,08,10,18,00,AAXX 10184 41897 32450 61801 10276 20270 30047 40060 82530 333 56990 58013 70001 82618 86361=
41902,2023,08,04,00,00,AAXX 04004 41902 32440 61303 10274 20250 30006 40015 83430 333 56390 58019 70000 82614 85362=
41902,2023,08,04,06,00,AAXX 04064 41902 32456 61302 10326 20270 30021 40030 83430 333 56390 58022 70000 82614 85362=
41902,2023,08,04,12,00,AAXX 04124 41902 11450 71803 10270 20250 30016 40024 60155 70196 83520 333 10325 56990 58027 70147 83615 87459=
41902,2023,08,04,18,00,AAXX 04184 41902 32450 71805 10280 20260 30040 40048 83510 333 56990 58030 70147 83615 87459=
41902,2023,08,05,00,00,AAXX 05004 41902 32450 71803 10280 20260 30030 40038 83520 333 56490 58024 70147 83615 87459=
41902,2023,08,06,12,00,AAXX 06124 41902 11315 81805 10270 20260 39981 49989 60443 76396 8672/ 333 10290 56499 59033 70701 83707 85612 88458=
41902,2023,08,06,18,00,AAXX 06184 41902 11430 82205 10270 20260 39989 49997 60207 8452/ 333 56999 59032 70898 84615 88458=
41902,2023,08,07,00,00,AAXX 07004 41902 11340 81804 10262 20250 39971 49979 60024 76122 8672/ 333 56499 59032 70663 82707 83614 88458=
41902,2023,08,07,06,00,AAXX 07064 41902 11430 80000 10280 20270 39967 49975 60123 76162 8452/ 333 56999 59034 70778 84613 88458=
41902,2023,08,07,12,00,AAXX 07124 41902 11315 82204 10268 20268 39953 49961 61709 8672/ 333 10285 56599 59028 72088 83707 85612 88458=
41902,2023,08,08,00,00,AAXX 08004 41902 11330 81804 10262 20260 39967 49976 60113 76162 8672/ 333 56499 59004 72348 83707 85614 88458=
41902,2023,08,08,06,00,AAXX 08064 41902 11330 82203 10278 20270 39987 49996 60083 76162 8672/ 333 56599 58020 72306 83707 85613 88458=
41902,2023,08,08,12,00,AAXX 08124 41902 11330 81803 10270 20260 39993 40002 60013 76162 8672/ 333 10280 56499 58040 70567 83707 85613 88458=
41902,2023,08,08,18,00,AAXX 08184 41902 NIL=
41902,2023,08,09,00,00,AAXX 09004 41902 32340 81803 10265 20260 30017 40026 8662/ 333 56499 58050 70097 83708 85614 88458=
41902,2023,08,09,06,00,AAXX 09064 41902 32440 61303 10322 20270 30032 40040 82570 333 56990 58045 70017 82615 86362=
41902,2023,08,09,12,00,AAXX 09124 41902 32440 81201 10295 20260 30018 40026 8662/ 333 10340 56499 58095 70007 83708 85614 88458=
41902,2023,08,09,18,00,AAXX 09184 41902 11430 83202 10275 20270 30035 40044 60056 70262 8662/ 333 56499 58012 70045 83708 85614 88458=
41902,2023,08,10,00,00,AAXX 10004 41902 32440 82201 10270 20260 30032 40041 8672/ 333 56499 58015 70045 83707 85614 88458=
41902,2023,08,10,06,00,AAXX 10064 41902 32450 82402 10315 20280 30047 40055 8452/ 333 56999 58015 70045 84612 88458=
41902,2023,08,10,12,00,AAXX 10124 41902 32450 81804 10283 20260 30034 40034 8672/ 333 10320 56499 58016 70045 83707 85614 88458=
41907,2023,08,04,00,00,AAXX 04004 41907 02340 80000 10275 20270 39993 40007 8662/ 333 58033 70182 86709 88489==
41907,2023,08,04,03,00,AAXX 04034 41907 02350 80000 10308 20270 30004 40019 8662/ 333 20268 58031 70158 83709 85615 88458==
41907,2023,08,04,06,00,AAXX 04064 41907 02450 71803 10345 20270 30000 40014 85870 333 58029 70158 84615 86458==
41907,2023,08,04,09,00,AAXX 04094 41907 01330 81804 10284 20240 39993 40008 76122 8672/ 333 58033 70240 85709 88458==
41907,2023,08,04,12,00,AAXX 04124 41907 21350 81802 10290 20270 39988 40003 70262 8662/ 333 10355 58030 60245 70394 82709 85615 88458==
41907,2023,08,04,15,00,AAXX 04154 41907 02340 80000 10280 20260 30008 40023 8662/ 333 58021 70242 82709 85615 88458==
41907,2023,08,04,18,00,AAXX 04184 41907 02340 80000 10270 20260 30019 40033 8662/ 333 58027 70242 82709 85615 88458==
41907,2023,08,04,21,00,AAXX 04214 41907 02340 80000 10267 20260 30011 40026 8662/ 333 58021 70242 82709 85615 88458==
41907,2023,08,05,00,00,AAXX 05004 41907 02340 81302 10270 20260 30004 40019 8662/ 333 58011 70242 82709 85615 88458==
41907,2023,08,05,03,00,AAXX 05034 41907 02350 81802 10315 20270 30018 40032 8662/ 333 20266 58014 70242 82709 84615 88458==
41907,2023,08,06,12,00,AAXX 06124 41907 02350 81802 10296 20270 39958 49973 8662/ 333 10310 59032 70000 82709 85615 88458==
41907,2023,08,06,15,00,AAXX 06154 41907 02340 81804 10285 20270 39971 49986 8662/ 333 59044 70000 83709 85615 88458==
41907,2023,08,06,18,00,AAXX 06184 41907 01340 81804 10278 20260 39973 49987 72162 8662/ 333 70010 83709 85615 88458==
41907,2023,08,06,21,00,AAXX 06214 41907 02340 81804 10278 20270 39952 49968 8662/ 333 59042 70010 83709 85616 88458==
41907,2023,08,07,00,00,AAXX 07004 41907 02340 82704 10278 20270 39946 49961 8662/ 333 59036 70010 83709 85615 88458==
41907,2023,08,07,03,00,AAXX 07034 41907 02350 82302 10285 20280 39957 49972 8662/ 333 20268 59036 70010 85709 88458==
41907,2023,08,07,06,00,AAXX 07064 41907 02340 82304 10295 20280 39954 49969 8662/ 333 59033 70010 85709 88458==
41907,2023,08,07,09,00,AAXX 07094 41907 02350 82704 10311 20270 39935 49949 8661/ 333 59030 70010 85709 88458==
41907,2023,08,07,12,00,AAXX 07124 41907 21340 82704 10275 20270 39941 49956 76362 8672/ 333 10313 59017 60237 70236 85709 88458==
41907,2023,08,07,15,00,AAXX 07154 41907 01340 82703 10275 20270 39961 49975 76621 8672/ 333 59010 70264 85709 88458==
41907,2023,08,07,18,00,AAXX 07184 41907 21330 82705 10275 20270 39960 49974 76166 8672/ 333 59013 60089 70308 85709 88458==
41907,2023,08,07,21,00,AAXX 07214 41907 01330 82704 10270 20260 39955 49970 76166 8672/ 333 58001 70418 85709 88458==
41907,2023,08,08,00,00,AAXX 08004 41907 21330 82704 10265 20260 39957 49971 76166 8672/ 333 58011 60209 70512 85709 88458==
41907,2023,08,08,03,00,AAXX 08034 41907 01330 82702 10260 20250 39971 49986 76166 8672/ 333 20260 58014 70618 85709 88458==
41907,2023,08,08,06,00,AAXX 08064 41907 21340 82703 10276 20260 39976 49991 72166 8672/ 333 58022 60139 70638 85709 88458==
41907,2023,08,08,09,00,AAXX 08094 41907 02340 82702 10290 20260 39969 49983 8662/ 333 58034 70638 85709 88458==
41907,2023,08,08,12,00,AAXX 08124 41907 02340 82702 10295 20270 39970 49984 8661/ 333 10300 58029 70412 82709 85615 88458==
41907,2023,08,08,15,00,AAXX 08154 41907 02340 82702 10290 20260 39986 40000 8662/ 333 58025 70384 82709 85615 88458==
41907,2023,08,08,18,00,AAXX 08184 41907 02340 81302 10275 20260 39995 40010 8662/ 333 58035 70330 82709 85615 88458==
41907,2023,08,08,21,00,AAXX 08214 41907 02340 81802 10270 20260 39987 40001 8662/ 333 58032 70220 82709 85615 88458==
41907,2023,08,09,00,00,AAXX 09004 41907 02340 81302 10266 20260 39986 40001 86610 333 58044 70126 81709 85615 87458==
41907,2023,08,09,03,00,AAXX 09034 41907 02350 82704 10310 20260 30020 40034 8662/ 333 20258 58049 70020 82709 85615 88458==
41907,2023,08,09,06,00,AAXX 09064 41907 01450 72302 10315 20270 30020 40034 72162 85510 333 58044 70010 85615 87458==
41907,2023,08,09,09,00,AAXX 09094 41907 02450 52703 10342 20250 39999 40013 83510 333 58030 70012 83615 84458==
41907,2023,08,09,12,00,AAXX 09124 41907 02350 82703 10305 20260 30000 40015 8662/ 333 10345 58030 70012 82709 85615 88458==
41907,2023,08,09,15,00,AAXX 09154 41907 01340 82702 10278 20260 30017 40032 79192 8672/ 333 58031 70017 85709 88458==
41907,2023,08,09,18,00,AAXX 09184 41907 21340 82702 10270 20260 30027 40042 70292 8662/ 333 58032 60015 70027 82709 85615 88458==
41907,2023,08,09,21,00,AAXX 09214 41907 02340 80000 10265 20260 30021 40036 8662/ 333 58034 70027 82709 85615 88458==
41907,2023,08,10,00,00,AAXX 10004 41907 02340 80000 10265 20260 30021 40036 8662/ 333 58035 70027 82709 85615 88458==
41907,2023,08,10,03,00,AAXX 10034 41907 02/50 21803 10310 20250 30034 40048 82030 333 20255 58014 70027 82360==
41907,2023,08,10,06,00,AAXX 10064 41907 02450 72702 10340 20260 30032 40047 85870 333 58012 70015 84615 86458==
41907,2023,08,10,09,00,AAXX 10094 41907 02450 83602 10328 20260 30013 40028 8552/ 333 58014 70015 85615 88458==
41907,2023,08,10,12,00,AAXX 10124 41907 02340 82302 10292 20250 30013 40028 8632/ 333 10348 58013 70015 83709 85615 88458 81930==
41907,2023,08,10,15,00,AAXX 10154 41907 01340 80000 10272 20260 30033 40048 70262 8662/ 333 58016 70020 83709 85615 88458==
41907,2023,08,10,18,00,AAXX 10184 41907 11340 81802 10275 20270 30037 40051 60016 70262 8662/ 333 58010 70010 83709 85615 88458==
41907,2023,08,10,21,00,AAXX 10214 41907 02340 80000 10272 20260 30028 40042 8662/ 333 58007 70010 82709 85615 88458==
41909,2023,08,04,00,00,AAXX 04004 41909 02356 80000 10280 20260 30004 40015 8562/ 333 58029 70102 83708 83614 88458==
41909,2023,08,04,03,00,AAXX 04034 41909 02456 71302 10308 20270 30022 40033 84570 333 20260 58028 70032 84615 86460==
41909,2023,08,04,06,00,AAXX 04064 41909 01340 81802 10300 20280 30018 40029 76362 8672/ 333 58029 70130 83708 84614 88458==
41909,2023,08,04,09,00,AAXX 04094 41909 01440 80000 10289 20260 30012 40023 76362 8672/ 333 58037 70180 83708 84614 88458==
41909,2023,08,04,12,00,AAXX 04124 41909 21340 80000 10294 20260 30003 40014 70262 8672/ 333 10322 58026 60057 70180 83708 84614 88458==
41909,2023,08,04,15,00,AAXX 04154 41909 02440 80000 10280 20260 30022 40033 8672/ 333 58016 70180 83708 84614 88458==
41909,2023,08,04,18,00,AAXX 04184 41909 02440 80000 10278 20260 30033 40044 8672/ 333 58024 70180 83708 84614 88458==
41909,2023,08,05,00,00,AAXX 05004 41909 02450 80000 10275 20270 30022 40033 8562/ 333 58018 70180 83708 83614 88458==
41909,2023,08,05,03,00,AAXX 05034 41909 02450 81802 10299 20270 30038 40049 8562/ 333 58016 70180 83708 83614 88458==
41909,2023,08,06,12,00,AAXX 06124 41909 01350 81802 10279 20270 39970 49981 72065 8562/ 333 10290 59034 70060 84708 88458==
41909,2023,08,06,15,00,AAXX 06154 41909 02340 81802 10278 20260 39984 49995 8562/ 333 59037 70040 84708 88458==
41909,2023,08,06,18,00,AAXX 06184 41909 02440 81802 10276 20260 39982 49993 8462/ 333 59036 70040 83708 88458==
41909,2023,08,06,21,00,AAXX 06214 41909 02340 81802 10274 20250 39956 49967 8562/ 333 59060 70040 84708 88458==
41909,2023,08,07,00,00,AAXX 07004 41909 01350 81802 10272 20260 39953 49964 72162 8572/ 333 59040 70020 84708 88458==
41909,2023,08,07,03,00,AAXX 07034 41909 01350 80000 10274 20260 39962 49973 76196 8572/ 333 20255 59037 70142 84708 88458==
41909,2023,08,07,06,00,AAXX 07064 41909 01350 81802 10296 20280 39958 49969 76196 8572/ 333 59037 70182 84708 88458==
41909,2023,08,07,09,00,AAXX 07094 41909 01350 80000 10289 20280 39941 49952 76166 8572/ 333 59035 70214 84708 88458==
41909,2023,08,07,12,00,AAXX 07124 41909 21340 81302 10277 20270 39946 49957 79566 8692/ 333 10300 59030 60159 70326 85708 88458 81930==
41909,2023,08,07,15,00,AAXX 07154 41909 01340 81802 10264 20250 39967 49978 76396 8672/ 333 59017 70696 85708 88458==
41909,2023,08,07,18,00,AAXX 07184 41909 21340 80000 10266 20260 39963 49974 70296 8572/ 333 59019 60438 70756 84708 88458==
41909,2023,08,07,21,00,AAXX 07214 41909 01340 81802 10254 20240 39956 49967 76366 8672/ 333 58000 71016 85708 88456==
41909,2023,08,08,00,00,AAXX 08004 41909 21340 81804 10254 20250 39959 49970 76566 8672/ 333 58006 60669 71404 85707 88456==
41909,2023,08,08,03,00,AAXX 08034 41909 01350 81802 10262 20250 39978 49989 76566 8672/ 333 20240 58016 71524 85708 88458==
41909,2023,08,08,06,00,AAXX 08064 41909 11350 82702 10274 20250 39984 49995 60262 70266 8562/ 333 58026 71504 84614 88458==
41909,2023,08,08,09,00,AAXX 08094 41909 01350 80000 10280 20260 39979 49990 72122 8562/ 333 58038 71474 83708 83614 88458==
41909,2023,08,08,12,00,AAXX 08124 41909 21350 80000 10273 20250 39983 49994 72162 8662/ 333 10290 58037 60227 71570 83708 84614 88460==
41909,2023,08,08,15,00,AAXX 08154 41909 02440 80000 10270 20260 30011 40022 8552/ 333 58044 71200 85614 88460==
41909,2023,08,08,18,00,AAXX 08184 41909 02440 80000 10272 20260 30015 40026 8552/ 333 58052 71140 85615 88460==
41909,2023,08,08,21,00,AAXX 08214 41909 02340 80000 10269 20260 30014 40025 8662/ 333 58058 70880 83708 84614 88458==
41909,2023,08,09,00,00,AAXX 09004 41909 02350 81302 10266 20260 30016 40027 8562/ 333 58057 70480 83708 83614 88458==
41909,2023,08,09,03,00,AAXX 09034 41909 02456 51302 10294 20260 30031 40042 82530 333 20244 58053 70240 82615 85360==
41909,2023,08,09,06,00,AAXX 09064 41909 02456 61802 10314 20250 30033 40044 83510 333 58049 70220 83615 86458==
41909,2023,08,09,09,00,AAXX 09094 41909 02456 60000 10340 20270 30016 40027 83510 333 58037 70210 83615 86458==
41909,2023,08,09,12,00,AAXX 09124 41909 02450 80000 10325 20280 30006 40017 8562/ 333 10342 58023 70000 83708 83614 88458==
41909,2023,08,09,15,00,AAXX 09154 41909 02440 81802 10284 20240 30034 40045 8562/ 333 58023 70000 83708 83614 88458==
41909,2023,08,09,18,00,AAXX 09184 41909 42440 80000 10280 20250 30034 40045 8562/ 333 58019 83708 83614 88458==
41909,2023,08,09,21,00,AAXX 09214 41909 02440 80000 10275 20250 30030 40041 8562/ 333 58016 70000 83708 83614 88458==
41909,2023,08,10,00,00,AAXX 10004 41909 02450 80000 10269 20250 30026 40037 8552/ 333 58010 70000 85614 88458==
41909,2023,08,10,03,00,AAXX 10034 41909 02456 60000 10304 20250 30044 40055 83510 333 20250 58013 70000 83614 86458==
41909,2023,08,10,06,00,AAXX 10064 41909 02456 62402 10324 20240 30049 40060 82510 333 58016 70000 82615 86458==
41909,2023,08,10,09,00,AAXX 10094 41909 02456 60000 10328 20240 30024 40035 83510 333 58008 70000 83615 86460==
41909,2023,08,10,12,00,AAXX 10124 41909 01350 80000 10280 20270 30028 40039 72122 8562/ 333 10342 58022 70090 84708 88458==
41909,2023,08,10,15,00,AAXX 10154 41909 01330 80000 10277 20270 30048 40059 70262 8562/ 333 58014 70130 84708 88458==
41909,2023,08,10,18,00,AAXX 10184 41909 21430 80000 10278 20260 30052 40063 70262 8552/ 333 58018 60047 70130 85614 88458==
41909,2023,08,10,21,00,AAXX 10214 41909 02430 80000 10274 20260 30037 40048 8552/ 333 58007 70130 85614 88458==
41915,2023,08,04,00,00,AAXX 04004 41915 02450 81301 10265 20250 30009 40034 8452/ 333 58016 70040 84615 88458==
41915,2023,08,04,03,00,AAXX 04034 41915 02456 70602 10292 20250 30018 40043 84430 333 20264 58015 70026 84616 86362==
41915,2023,08,04,06,00,AAXX 04064 41915 02456 81602 10300 20250 30021 40046 8642/ 333 58025 70004 85616 88458==
41915,2023,08,04,09,00,AAXX 04094 41915 01456 71802 10306 20270 30011 40036 70162 85470 333 58030 70040 84615 86458==
41915,2023,08,04,12,00,AAXX 04124 41915 21450 71301 10290 20260 30008 40033 70262 85670 333 10315 58025 60045 70036 82712 85615 86458==
41915,2023,08,04,15,00,AAXX 04154 41915 01450 80000 10275 20260 30036 40061 70362 8662/ 333 58036 70086 83712 85616 88458==
41915,2023,08,04,18,00,AAXX 04184 41915 21450 80000 10267 20260 30036 40061 70262 8662/ 333 58021 60058 70086 83710 85616 88458==
41915,2023,08,04,21,00,AAXX 04214 41915 02450 80000 10264 20250 30032 40058 8562/ 333 58021 70086 83712 85616 88458==
41915,2023,08,05,00,00,AAXX 05004 41915 02456 80000 10265 20250 30028 40053 8562/ 333 58017 70086 82712 85616 88458==
41915,2023,08,05,03,00,AAXX 05034 41915 02456 71602 10295 20260 30039 40064 85470 333 20262 58021 70086 84616 85458==
41915,2023,08,06,12,00,AAXX 06124 41915 21450 81301 10263 20250 39971 49996 76166 8672/ 333 10290 59036 60049 70070 83710 85616 88458==
41915,2023,08,06,15,00,AAXX 06154 41915 01450 80000 10265 20260 39988 40013 76166 8672/ 333 59038 70111 83710 85616 88458==
41915,2023,08,06,18,00,AAXX 06184 41915 21450 80000 10264 20250 39981 40006 72166 8672/ 333 59038 60069 70131 83710 85616 88458==
41915,2023,08,06,21,00,AAXX 06214 41915 02450 80000 10258 20250 39975 49999 8662/ 333 59037 70131 83712 85616 88458==
41915,2023,08,07,00,00,AAXX 07004 41915 21450 80000 10260 20260 39962 49987 76162 8672/ 333 59032 60037 70159 83710 85616 88458==
41915,2023,08,07,03,00,AAXX 07034 41915 01456 81202 10272 20260 39963 49988 70266 8762/ 333 20260 59035 70179 83710 86616 88458==
41915,2023,08,07,06,00,AAXX 07064 41915 01456 81302 10270 20260 39953 49978 79562 8732/ 333 59037 70279 83710 86615 88458 81928==
41915,2023,08,07,09,00,AAXX 07094 41915 01450 81502 10280 20260 39939 49964 70292 8672/ 333 59034 70255 83710 85615 88458==
41915,2023,08,07,12,00,AAXX 07124 41915 01450 81302 10272 20260 39945 49970 72196 8672/ 333 10285 59026 70255 83710 85615 88458==
41915,2023,08,07,15,00,AAXX 07154 41915 02450 81301 10270 20260 39964 49989 8662/ 333 59024 70214 83710 85615 88458==
41915,2023,08,07,18,00,AAXX 07184 41915 02450 81302 10270 20260 39968 49993 8662/ 333 59013 70194 83712 85615 88458==
41915,2023,08,07,21,00,AAXX 07214 41915 02450 81302 10267 20260 39959 49984 8662/ 333 59016 70194 83710 85615 88458==
41915,2023,08,08,00,00,AAXX 08004 41915 21450 81301 10262 20250 39961 49984 70262 86721 333 59001 69965 70172 83710 85615 88458==
41915,2023,08,08,03,00,AAXX 08034 41915 02450 80000 10271 20250 39976 40001 8662/ 333 20260 58013 70132 83710 85615 88457==
41915,2023,08,08,06,00,AAXX 08064 41915 21450 80000 10264 20250 30078 40003 76362 8772/ 333 58025 60237 70248 84710 86615 88457==
41915,2023,08,08,09,00,AAXX 08094 41915 01450 81802 10272 20260 39974 49999 76166 8672/ 333 58035 70348 83710 85615 88458==
41915,2023,08,08,12,00,AAXX 08124 41915 21450 81802 10276 20270 39977 40002 70266 8561/ 333 10280 58032 60119 70342 82712 84615 88458==
41915,2023,08,08,15,00,AAXX 08154 41915 02450 80000 10265 20260 30011 40036 8562/ 333 58047 70342 82712 84615 88458==
41915,2023,08,08,18,00,AAXX 08184 41915 02450 80000 10260 20250 30015 40040 8562/ 333 58047 70342 82712 84615 88458==
41915,2023,08,08,21,00,AAXX 08214 41915 02450 60000 10257 20250 30013 40038 83570 333 58054 70336 83616 85458==
41915,2023,08,09,00,00,AAXX 09004 41915 02/50 21301 10256 20250 30018 40043 82030 333 58057 70336 82362==
41915,2023,08,09,03,00,AAXX 09034 41915 02456 51302 10295 20260 30032 40057 85400 333 20253 58057 70336 84616==
41915,2023,08,09,06,00,AAXX 09064 41915 02456 71201 10322 20250 30026 40050 85470 333 58048 70110 84616 85458==
41915,2023,08,09,09,00,AAXX 09094 41915 01456 71302 10310 20270 30003 40028 70162 85410 333 58029 70096 84615 87458==
41915,2023,08,09,12,00,AAXX 09124 41915 01450 71802 10290 20260 30007 40032 70262 8532/ 333 10290 58030 70094 84615 87458 81928==
41915,2023,08,09,15,00,AAXX 09154 41915 01440 80000 10273 20260 30031 40056 76322 8672/ 333 58020 70114 83710 85615 88458==
41915,2023,08,09,18,00,AAXX 09184 41915 21440 80000 10270 20260 30034 40059 76162 8672/ 333 58019 60037 70128 83710 85615 88458==
41915,2023,08,09,21,00,AAXX 09214 41915 01440 80000 10262 20250 30028 40053 70262 8562/ 333 58015 70140 82710 84615 88458==
41915,2023,08,10,00,00,AAXX 10004 41915 11450 80000 10260 20250 30034 40056 60016 70262 8562/ 333 58012 70140 82710 84615 88458==
41915,2023,08,10,03,00,AAXX 10034 41915 02456 70000 10290 20260 30042 40067 85510 333 20253 59010 70140 85616 87458==
41915,2023,08,10,06,00,AAXX 10064 41915 01456 70000 10280 20270 30041 40066 72122 84670 333 58015 70110 85616 86458==
41915,2023,08,10,09,00,AAXX 10094 41915 02456 80000 10274 20250 30024 40049 8662/ 333 58021 70158 83712 85616 88458==
41915,2023,08,10,12,00,AAXX 10124 41915 22456 80901 10272 20260 30022 40047 8662/ 333 10313 58015 60017 70161 83710 85616 88458==
41915,2023,08,10,15,00,AAXX 10154 41915 02450 70000 10265 20260 30048 40073 86470 333 58017 70141 85616 85458==
41915,2023,08,10,18,00,AAXX 10184 41915 02450 80000 10267 20260 30042 40068 8662/ 333 58008 70127 83712 85616 88458==
41915,2023,08,10,21,00,AAXX 10214 41915 02450 80000 10262 20250 30036 40041 8662/ 333 58008 70115 83712 85616 88458==
41923,2023,08,04,00,00,AAXX 04004 41923 11340 80000 10281 20260 30015 40025 69936 70262 8632/ 333 58030 70047 83708 84614 88458 81930==
41923,2023,08,04,03,00,AAXX 04034 41923 01325 80000 10270 20270 30031 40041 76162 8632/ 333 20268 58029 70125 83708 84614 88458 81930==
41923,2023,08,04,06,00,AAXX 04064 41923 21350 71803 10310 20260 30030 40040 70162 85370 333 58031 60108 70106 82709 84614 85458 81930==
41923,2023,08,04,09,00,AAXX 04094 41923 01335 81602 10258 20250 30025 40035 79196 8632/ 333 58040 70516 83708 84614 88458 81930==
41923,2023,08,04,12,00,AAXX 04124 41923 21350 70000 10282 20260 30016 40026 70196 85370 333 10318 58028 60038 70548 82709 84615 85458 81930==
41923,2023,08,04,15,00,AAXX 04154 41923 02350 70000 10280 20260 30040 40050 85670 333 58024 70548 82709 84614 85458==
41923,2023,08,04,18,00,AAXX 04184 41923 02350 70000 10280 20260 30042 40052 85670 333 58025 70548 82709 84614 85458==
41923,2023,08,04,21,00,AAXX 04214 41923 02350 70000 10278 20260 30029 40039 85670 333 58020 70545 82709 84614 85458==
41923,2023,08,05,00,00,AAXX 05004 41923 02340 70000 10276 20260 30033 40043 85670 333 58018 70545 82709 84614 85458==
41923,2023,08,05,03,00,AAXX 05034 41923 02345 70000 10296 20270 30045 40055 85670 333 20254 58014 70445 82709 84614 85458==
41923,2023,08,05,06,00,AAXX 05064 41923 NIL=
41923,2023,08,05,12,00,AAXX 05124 41923 NIL=
41923,2023,08,05,18,00,AAXX 05184 41923 NIL=
41923,2023,08,05,21,00,AAXX 05214 41923 NIL=
41923,2023,08,06,03,00,AAXX 06034 41923 NIL=
41923,2023,08,06,06,00,AAXX 06064 41923 NIL=
41923,2023,08,06,12,00,AAXX 06124 41923 21440 81802 10280 20260 39981 49991 70262 8532/ 333 10286 59032 69925 70050 81710 84614 88460 81930==
41923,2023,08,06,15,00,AAXX 06154 41923 01330 82702 10278 20260 39993 40003 76162 8632/ 333 59040 70054 83708 84614 88459 81929==
41923,2023,08,06,18,00,AAXX 06184 41923 21430 81802 10276 20270 39992 40002 72162 8532/ 333 59035 60017 70062 81710 84614 88460 81930==
41923,2023,08,06,21,00,AAXX 06214 41923 01330 81802 10274 20260 39972 49982 79522 8692/ 333 59045 70056 83708 84614 88459 81929==
41923,2023,08,07,00,00,AAXX 07004 41923 21330 80602 10273 20270 39966 49976 79596 8692/ 333 59037 60168 70182 86707 88458 81928==
41923,2023,08,07,03,00,AAXX 07034 41923 01330 80602 10281 20270 39971 49981 76196 8632/ 333 20267 59040 70294 83708 84614 88459 81928==
41923,2023,08,07,06,00,AAXX 07064 41923 21340 80602 10285 20280 39963 49973 76196 8632/ 333 59040 60129 70296 83708 84614 88459 81928==
41923,2023,08,07,09,00,AAXX 07094 41923 01335 80503 10275 20270 39951 49961 76166 8732/ 333 59034 70319 84708 85614 88458 81928==
41923,2023,08,07,12,00,AAXX 07124 41923 21335 80403 10274 20260 39954 49964 76166 8632/ 333 10287 59027 60099 70379 83708 85614 88458 81928==
41923,2023,08,07,15,00,AAXX 07154 41923 01335 80000 10270 20260 39978 49988 76166 8672/ 333 59015 70407 83708 85614 88458==
41923,2023,08,07,18,00,AAXX 07184 41923 21345 80502 10268 20260 39973 49983 72166 8562/ 333 59019 60079 70433 83708 84615 88458==
41923,2023,08,07,21,00,AAXX 07214 41923 01325 80000 10266 20260 39968 49978 76362 8732/ 333 59004 70581 84708 85614 88458 81928==
41923,2023,08,08,00,00,AAXX 08004 41923 21335 82403 10265 20260 39974 49984 76162 8732/ 333 58008 60279 70541 84708 85614 88458 81928==
41923,2023,08,08,03,00,AAXX 08034 41923 01345 81803 10268 20260 39991 40001 70262 8662/ 333 20257 58020 70435 83708 85614 88458==
41923,2023,08,08,06,00,AAXX 08064 41923 01340 82404 10286 20260 39996 40006 76162 8672/ 333 58033 70431 83708 84614 88458==
41923,2023,08,08,09,00,AAXX 08094 41923 01350 81803 10292 20260 39986 49996 72162 8632/ 333 58035 70412 83708 84614 88458 81930==
41923,2023,08,08,12,00,AAXX 08124 41923 21330 80000 10272 20260 39996 40006 76162 8632/ 333 10294 58042 60069 70408 83708 84614 88458 81930==
41923,2023,08,08,15,00,AAXX 08154 41923 01340 80000 10268 20250 30021 40031 70262 8562/ 333 58043 70379 82709 84614 88458==
41923,2023,08,08,18,00,AAXX 08184 41923 11340 70000 10267 20260 30027 40037 69936 70162 85670 333 58054 70345 83709 84614 85458==
41923,2023,08,08,21,00,AAXX 08214 41923 02340 70000 10267 20260 30023 40033 85670 333 58055 70165 83709 84614 85458==
41923,2023,08,09,00,00,AAXX 09004 41923 02340 70000 10268 20260 30027 40037 85670 333 58053 70073 83709 84615 85458==
41923,2023,08,09,03,00,AAXX 09034 41923 02350 60000 10298 20260 30041 40051 84630 333 20264 58050 70067 82709 83615 85360==
41923,2023,08,09,06,00,AAXX 09064 41923 02456 50000 10324 20240 30038 40048 83430 333 58042 70065 83615 83360==
41923,2023,08,09,09,00,AAXX 09094 41923 02350 70000 10328 20260 30013 40023 85670 333 58027 70059 83709 84615 85458==
41923,2023,08,09,12,00,AAXX 09124 41923 21340 80000 10266 20260 30022 40032 79196 8632/ 333 10338 58026 60377 70377 83708 84614 88458 81930==
41923,2023,08,09,15,00,AAXX 09154 41923 01340 70000 10274 20250 30041 40051 70162 85670 333 58020 70378 83708 84614 85458==
41923,2023,08,09,18,00,AAXX 09184 41923 11340 70000 10272 20250 30041 40051 69946 70262 85670 333 58014 70378 83708 84614 85458==
41923,2023,08,09,21,00,AAXX 09214 41923 02340 60000 10270 20260 30031 40041 84630 333 58008 70378 82709 83615 85360==
41923,2023,08,10,00,00,AAXX 10004 41923 02340 70000 10266 20260 30038 40048 85670 333 58011 70378 83708 84614 85458==
41923,2023,08,10,03,00,AAXX 10034 41923 02340 60000 10300 20260 30054 40064 84630 333 20264 58013 70378 82709 83615 85360==
41923,2023,08,10,06,00,AAXX 10064 41923 02345 70602 10324 20250 30050 40060 85670 333 58012 70378 83708 84614 85458==
41923,2023,08,10,09,00,AAXX 10094 41923 01450 80302 10314 20260 30029 40039 72122 8532/ 333 58016 70378 81710 84614 88460 81930==
41923,2023,08,10,12,00,AAXX 10124 41923 21440 80302 10261 20250 30039 40049 71796 8532/ 333 10333 58017 60607 70608 81710 84614 88460 81930==
41923,2023,08,10,15,00,AAXX 10154 41923 01440 80000 10265 20260 30057 40067 70292 8532/ 333 58016 70604 81710 84614 88460 81930==
41923,2023,08,10,18,00,AAXX 10184 41923 01440 80000 10270 20250 30055 40065 70292 8532/ 333 58014 70604 81710 84614 88460 81930==
41923,2023,08,10,21,00,AAXX 10214 41923 02440 80000 10270 20250 30045 40055 8532/ 333 58014 70604 81710 84614 88460 81930==
41926,2023,08,04,00,00,AAXX 04004 41926 02450 70000 10280 20270 39998 40011 84510 333 58029 70022 84616 86459==
41926,2023,08,04,03,00,AAXX 04034 41926 02450 61802 10314 20260 30013 40026 83510 333 20276 58031 70022 83616 85459==
41926,2023,08,04,06,00,AAXX 04064 41926 02456 61802 10330 20260 30009 40022 83570 333 58032 70022 83616 84459==
41926,2023,08,04,09,00,AAXX 04094 41926 02456 71804 10310 20260 39999 40012 84510 333 58035 70012 84616 86459==
41926,2023,08,04,12,00,AAXX 04124 41926 02450 71803 10305 20260 39999 40012 84470 333 10347 58034 70000 83616 85459==
41926,2023,08,04,15,00,AAXX 04154 41926 02450 60000 10285 20260 30024 40037 83510 333 58031 70000 83616 85459==
41926,2023,08,04,18,00,AAXX 04184 41926 02450 60000 10280 20270 30030 40043 83510 333 58032 70000 83616 85459==
41926,2023,08,05,00,00,AAXX 05004 41926 02450 50000 10274 20260 30016 40029 83530 333 58018 70000 83616 83362==
41926,2023,08,05,03,00,AAXX 05034 41926 02456 72102 10305 20270 30027 40040 84610 333 20272 58014 70000 82708 83615 87459==
41926,2023,08,06,12,00,AAXX 06124 41926 02350 80000 10288 20260 39968 49981 8432/ 333 10292 59035 70012 81708 83617 88458==
41926,2023,08,06,15,00,AAXX 06154 41926 02340 80000 10277 20260 39983 49996 8462/ 333 59034 70012 81709 83617 88458==
41926,2023,08,06,18,00,AAXX 06184 41926 02340 80000 10276 20260 39977 49990 8462/ 333 59039 70012 81708 83617 88458==
41926,2023,08,06,21,00,AAXX 06214 41926 02340 80000 10276 20260 39962 49975 8462/ 333 59046 70012 81708 83617 88458==
41926,2023,08,07,00,00,AAXX 07004 41926 02340 80000 10276 20260 39953 49966 8462/ 333 59038 70000 81708 83617 88458==
41926,2023,08,07,03,00,AAXX 07034 41926 01350 80000 10277 20260 39971 49984 76122 8472/ 333 20270 59032 70002 82708 83615 88458==
41926,2023,08,07,06,00,AAXX 07064 41926 21356 80000 10295 20270 39960 49973 70262 8472/ 333 59037 60035 70030 82708 83615 88458==
41926,2023,08,07,09,00,AAXX 07094 41926 01350 82301 10302 20260 39945 49958 76122 8472/ 333 59032 70030 82708 83615 88458==
41926,2023,08,07,12,00,AAXX 07124 41926 21350 82301 10267 20267 39953 49966 72162 8572/ 333 10310 59015 60077 70102 82708 84615 88458==
41926,2023,08,07,15,00,AAXX 07154 41926 01450 82302 10270 20270 39975 49988 76162 8552/ 333 59008 70134 85616 88458==
41926,2023,08,07,18,00,AAXX 07184 41926 21450 82304 10265 20265 39972 49985 76166 8570/ 333 59005 60069 70164 82708 83615 88458==
41926,2023,08,07,21,00,AAXX 07214 41926 01350 82303 10262 20260 39971 49984 76166 8572/ 333 58009 70268 82709 83616 88458==
41926,2023,08,08,00,00,AAXX 08004 41926 21450 82302 10258 20258 39970 49983 70266 8352/ 333 58017 60119 70278 83616 88458==
41926,2023,08,08,03,00,AAXX 08034 41926 01350 82301 10267 20260 39985 49998 72162 8472/ 333 20258 58014 70282 82708 83615 88458==
41926,2023,08,08,06,00,AAXX 08064 41926 21350 80000 10280 20260 39989 40002 70262 8462/ 333 58029 60018 70254 82708 83615 88458==
41926,2023,08,08,09,00,AAXX 08094 41926 02356 82301 10293 20260 39980 49993 8462/ 333 58035 70254 82709 83616 88458==
41926,2023,08,08,12,00,AAXX 08124 41926 02456 70000 10295 20270 39985 49998 83510 333 10303 58032 70182 83618 87459==
41926,2023,08,08,18,00,AAXX 08184 41926 02950 60000 10265 20260 30013 40026 83510 333 58041 70120 83618 86459==
41926,2023,08,09,00,00,AAXX 09004 41926 02450 50000 10256 20250 30014 40027 82510 333 58044 70006 82618 85458==
41926,2023,08,09,03,00,AAXX 09034 41926 02456 32301 10300 20260 30028 40041 81530 333 20252 58043 70000 81618 83362==
41926,2023,08,09,06,00,AAXX 09064 41926 02456 72301 10322 20270 30029 40042 82530 333 58040 70000 82618 87362==
41926,2023,08,09,09,00,AAXX 09094 41926 02457 50000 10330 20260 30009 40022 85400 333 58029 70000 82618 83825==
41926,2023,08,09,12,00,AAXX 09124 41926 02456 62402 10312 20270 30015 40028 83510 333 10347 58030 70000 83617 86459==
41926,2023,08,09,15,00,AAXX 09154 41926 02450 50000 10275 20260 30037 40050 81510 333 58025 70000 81618 85459==
41926,2023,08,09,18,00,AAXX 09184 41926 02450 50000 10270 20250 30034 40047 82510 333 58021 70000 82618 85459==
41926,2023,08,09,21,00,AAXX 09214 41926 02450 50000 10266 20250 30032 40045 81510 333 58020 70000 81618 85459==
41926,2023,08,10,00,00,AAXX 10004 41926 02450 60000 10264 20250 30030 40043 82510 333 58016 70000 82618 86459==
41926,2023,08,10,03,00,AAXX 10034 41926 02/56 30000 10315 20260 30045 40058 83030 333 20263 58017 70000 83362==
41926,2023,08,10,06,00,AAXX 10064 41926 02456 52301 10338 20250 30043 40056 83410 333 58014 70000 82618 85459==
41926,2023,08,10,09,00,AAXX 10094 41926 02456 71802 10340 20280 30019 40032 84410 333 58010 70000 83616 86459==
41926,2023,08,10,12,00,AAXX 10124 41926 02450 70000 10310 20270 30021 40034 84510 333 10360 58006 70000 84616 86459==
41926,2023,08,10,15,00,AAXX 10154 41926 02450 60000 10285 20280 30045 40058 83510 333 58008 70000 83616 85459==
41926,2023,08,10,18,00,AAXX 10184 41926 02450 60000 10280 20260 30044 40057 83510 333 58010 70000 83616 85459==
41926,2023,08,10,21,00,AAXX 10214 41926 02450 60000 10278 20270 30032 40045 83510 333 58000 70000 83616 85459==
41927,2023,08,04,00,00,AAXX 04004 41927 32450 81801 10274 20260 39973 49988 8452/ 333 56499 58029 70030 84616 88458=
41927,2023,08,04,06,00,AAXX 04064 41927 32457 61803 10320 20260 30002 40016 83510 333 56490 58028 70030 83617 85459=
41927,2023,08,04,12,00,AAXX 04124 41927 11456 81802 10294 20260 39940 49994 60098 70262 8452/ 333 10334 56499 58027 70086 84616 88458=
41927,2023,08,04,18,00,AAXX 04184 41927 32450 81801 10280 20270 30017 40031 8452/ 56499 58037 70086 84616 88458=
41927,2023,08,05,00,00,AAXX 05004 41927 32450 51601 10274 20260 30010 40024 83510 333 56490 58037 70086 83617 84459=
41927,2023,08,06,12,00,AAXX 06124 41927 32456 81801 10286 20270 39964 49978 8452/ 333 10294 56499 59029 70086 84616 88458=
41927,2023,08,06,18,00,AAXX 06184 41927 32450 81801 10272 20260 39983 49997 8452/ 333 56499 59029 70038 84616 88458=
41927,2023,08,07,00,00,AAXX 07004 41927 32450 81802 10266 20260 39959 49973 8452/ 333 56499 59050 70038 84616 88458=
41927,2023,08,07,06,00,AAXX 07064 41927 11456 81803 10296 20270 39954 49968 70262 8452/ 333 56499 59034 70028 84616 88458=
41927,2023,08,07,12,00,AAXX 07124 41927 32450 81801 10285 20280 39937 49951 60024 70262 8452/ 333 10306 56499 59027 70030 84616 88458=
41927,2023,08,07,18,00,AAXX 07184 41927 11450 61802 10268 20260 39965 49979 60178 70162 83510 333 56490 59018 70180 83616 85459=
41927,2023,08,08,00,00,AAXX 08004 41927 11450 80000 10260 20250 39954 49968 60034 76162 8452/ 333 56699 59005 70210 84616 88458=
41927,2023,08,08,06,00,AAXX 08064 41927 11456 70000 10280 20250 39979 49994 60026 70162 83510 333 56690 58025 70218 83617 87459=
41927,2023,08,08,12,00,AAXX 08124 41927 32456 80000 10288 20270 39964 49978 8352/ 333 10297 56599 58027 70198 83617 88459=
41927,2023,08,08,18,00,AAXX 08184 41927 32456 50000 10276 20260 39994 40009 83510 333 56690 58029 70048 83617 84459=
41927,2023,08,09,00,00,AAXX 09004 41927 32456 51802 10260 20250 30000 40014 83530 333 56490 58046 70018 83617 84362=
41927,2023,08,09,06,00,AAXX 09064 41927 32457 52203 10325 20260 30028 40042 85400 333 56500 58049 70000 82618 83825=
41927,2023,08,09,12,00,AAXX 09124 41927 32456 81902 10305 20270 30005 40019 8452/ 333 10340 56699 58041 70000 84617 88458=
41927,2023,08,09,18,00,AAXX 09184 41927 11456 50000 10270 20260 30039 40053 60116 70262 82510 333 56990 58045 70108 82618 85459=
41927,2023,08,10,00,00,AAXX 10004 41927 32456 50000 10265 20265 30028 40042 82510 333 56490 58028 70108 82618 85459=
41927,2023,08,10,06,00,AAXX 10064 41927 32458 41901 10335 20240 30033 40047 84400 333 56400 58005 70108 81618 43828=
41927,2023,08,10,12,00,AAXX 10124 41927 11457 81801 10262 20250 30023 40038 60544 79596 8632/ 333 10347 56499 58018 70650 85616 81929 88458=
41927,2023,08,10,18,00,AAXX 10184 41927 31456 51801 10265 20260 30033 40048 70192 82510 333 56490 59006 70542 82618 85459=
41929,2023,08,04,00,00,AAXX 04004 41929 02456 70000 10275 20270 30006 40015 83570 333 58030 70034 83618 85462==
41929,2023,08,04,03,00,AAXX 04034 41929 02456 71802 10295 20270 30025 40034 83510 333 20270 58029 70010 83618 86462==
41929,2023,08,04,06,00,AAXX 04064 41929 01456 80000 10286 20270 30026 40035 70262 83510 333 58028 70030 83618 88462==
41929,2023,08,04,09,00,AAXX 04094 41929 02457 81802 10283 20250 30019 40028 8451/ 333 58037 70030 84618 88462==
41929,2023,08,04,12,00,AAXX 04124 41929 02457 71803 10293 20260 30010 40019 83570 333 10315 58029 70030 83618 85462==
41929,2023,08,04,15,00,AAXX 04154 41929 02456 61303 10277 20260 30032 40041 82530 333 58024 70030 82618 84365==
41929,2023,08,04,18,00,AAXX 04184 41929 02/56 50000 10272 20260 30043 40052 85030 333 58031 70030 85365==
41929,2023,08,05,00,00,AAXX 05004 41929 02456 81302 10275 20270 30024 40033 8451/ 333 58018 70030 84618 88462==
41929,2023,08,05,03,00,AAXX 05034 41929 02456 82702 10306 20270 30039 40048 8451/ 333 20262 58014 70030 84618 88462==
41929,2023,08,06,12,00,AAXX 06124 41929 02456 80000 10281 20260 39979 49989 8452/ 333 10289 59032 70042 84618 88458==
41929,2023,08,06,15,00,AAXX 06154 41929 02456 80000 10277 20260 39991 40001 8452/ 333 59035 70032 84618 88458==
41929,2023,08,06,18,00,AAXX 06184 41929 02456 80000 10275 20270 39990 40000 8452/ 333 59034 70032 84618 88458==
41929,2023,08,06,21,00,AAXX 06214 41929 02450 80000 10274 20260 39968 49978 8452/ 333 59044 70037 84616 88458==
41929,2023,08,07,00,00,AAXX 07004 41929 11450 80000 10273 20260 39963 49973 69956 70562 8452/ 333 59037 84616 88458==
41929,2023,08,07,03,00,AAXX 07034 41929 01456 82302 10282 20270 39973 49982 76166 8452/ 333 20268 59037 70042 84618 88462==
41929,2023,08,07,06,00,AAXX 07064 41929 21456 82302 10290 20270 39969 49978 70262 8452/ 333 59036 60038 70037 84618 88462==
41929,2023,08,07,09,00,AAXX 07094 41929 02456 80000 10282 20270 39951 49961 8452/ 333 59034 70037 84616 88458==
41929,2023,08,07,12,00,AAXX 07124 41929 21450 80000 10280 20270 39956 49966 76166 8552/ 333 10290 59023 60077 70107 85616 88460==
41929,2023,08,07,15,00,AAXX 07154 41929 01450 80000 10266 20260 39979 49989 76166 8552/ 333 59012 70117 85616 88462==
41929,2023,08,07,18,00,AAXX 07184 41929 01450 82002 10268 20260 39975 49985 76166 8452/ 333 59015 70119 84616 88462==
41929,2023,08,07,21,00,AAXX 07214 41929 02450 82001 10266 20260 39960 49970 8451/ 333 59008 70114 84618 88462==
41929,2023,08,08,00,00,AAXX 08004 41929 21450 80000 10266 20260 39979 49989 76162 8552/ 333 58016 60017 70124 85616 88462==
41929,2023,08,08,03,00,AAXX 08034 41929 02456 82403 10280 20260 39992 40002 8452/ 333 20260 59019 70092 84616 88458==
41929,2023,08,08,06,00,AAXX 08064 41929 01456 80000 10286 20270 39996 40006 76162 8452/ 333 58027 70102 84616 88458==
41929,2023,08,08,09,00,AAXX 08094 41929 02456 82202 10300 20260 39986 49996 8542/ 333 58035 70102 84616 88462==
41929,2023,08,08,12,00,AAXX 08124 41929 02456 82402 10290 20274 39992 40002 8451/ 333 10302 58046 70032 84616 88462==
41929,2023,08,08,15,00,AAXX 08154 41929 02456 81901 10286 20270 30017 40027 8452/ 333 58038 70022 84616 88462==
41929,2023,08,08,18,00,AAXX 08184 41929 02456 80000 10280 20260 30023 40033 8452/ 333 58048 70010 84616 88462==
41929,2023,08,08,21,00,AAXX 08214 41929 42456 80000 10270 20250 30008 40018 58048 88462==
41929,2023,08,09,00,00,AAXX 09004 41929 02456 80000 10270 20260 30025 40035 8452/ 333 58044 70010 84616 88462==
41929,2023,08,09,03,00,AAXX 09034 41929 02457 42003 10305 20260 30038 40048 83530 333 20265 58048 70010 83616 83365==
41929,2023,08,09,06,00,AAXX 09064 41929 02457 72302 10332 20260 30035 40044 84510 333 58039 70000 84618 86462==
41929,2023,08,09,09,00,AAXX 09094 41929 01450 80000 10270 20250 30033 40043 79562 8552/ 333 58047 70250 85616 88462==
41929,2023,08,09,12,00,AAXX 09124 41929 11456 80000 10283 20270 30021 40031 60296 70296 8451/ 333 10340 58029 70285 84616 88462==
41929,2023,08,09,15,00,AAXX 09154 41929 02456 80000 10275 20270 30038 40048 8451/ 333 58021 70285 84616 88462==
41929,2023,08,09,18,00,AAXX 09184 41929 02456 80000 10274 20260 30041 40051 8451/ 333 58018 70285 84616 88462==
41929,2023,08,09,21,00,AAXX 09214 41929 02456 82001 10256 20250 30028 40038 8451/ 333 58020 70285 84616 88462==
41929,2023,08,10,00,00,AAXX 10004 41929 02450 80000 10270 20260 30036 40046 8452/ 333 58011 70285 84616 88462==
41929,2023,08,10,03,00,AAXX 10034 41929 02456 40000 10308 20260 30050 40059 84500 333 20250 58012 70285 84618==
41929,2023,08,10,06,00,AAXX 10064 41929 02457 80000 10326 20270 30050 40059 8451/ 333 58015 70285 84618 88462==
41929,2023,08,10,09,00,AAXX 10094 41929 01450 81903 10264 20250 30038 40047 76196 8552/ 333 58005 70415 85616 88462==
41929,2023,08,10,12,00,AAXX 10124 41929 21450 80000 10268 20260 30035 40045 76196 8552/ 333 10335 58014 60409 70399 85616 88462==
41929,2023,08,10,15,00,AAXX 10154 41929 02450 70000 10268 20260 30052 40062 84570 333 58014 70399 84616 84462==
41929,2023,08,10,18,00,AAXX 10184 41929 02450 60000 10270 20260 30055 40065 83570 333 58014 70399 83616 83462==
41929,2023,08,10,21,00,AAXX 10214 41929 02450 80000 10270 20260 30037 40047 8451/ 333 58009 70399 84616 88462==
41933,2023,08,04,00,00,AAXX 04004 41933 01350 80000 10261 20250 30015 40024 76162 8572/ 333 58017 70166 82709 84615 88458==
41933,2023,08,04,03,00,AAXX 04034 41933 01340 80000 10265 20260 30031 40040 76166 8572/ 333 20260 58024 70253 82709 84615 88457==
41933,2023,08,04,06,00,AAXX 04064 41933 21350 71803 10280 20260 30036 40044 70162 85620 333 58038 60109 70226 82708 84615 87458==
41933,2023,08,04,09,00,AAXX 04094 41933 01350 71804 10295 20270 30024 40032 70262 85620 333 58032 70148 82709 84615 87458==
41933,2023,08,04,12,00,AAXX 04124 41933 11456 61804 10285 20270 30017 40025 60016 70162 83531 333 10297 58022 70128 83614 84362 86074==
41933,2023,08,04,15,00,AAXX 04154 41933 01456 61902 10275 20260 30042 40051 70262 83520 333 58026 70128 83618 86458==
41933,2023,08,04,18,00,AAXX 04184 41933 11456 62002 10280 20260 30047 40056 60006 70262 83520 333 58030 70126 83618 86458==
41933,2023,08,05,00,00,AAXX 05004 41933 02456 60000 10265 20260 30035 40044 82520 333 58040 70114 82618 86458==
41933,2023,08,05,03,00,AAXX 05034 41933 02456 71802 10292 20260 30046 40054 84510 333 20265 58015 70027 84618 87458==
41933,2023,08,06,12,00,AAXX 06124 41933 21456 81802 10270 20260 39986 49995 70266 8452/ 333 10277 59040 60189 70766 84616 88458==
41933,2023,08,06,15,00,AAXX 06154 41933 02450 81802 10270 20260 30001 40010 8452/ 333 59034 70766 84626 88458==
41933,2023,08,06,18,00,AAXX 06184 41933 02440 80000 10265 20260 30010 40018 8452/ 333 59019 70766 84616 88458==
41933,2023,08,06,21,00,AAXX 06214 41933 01340 81802 10262 20250 39983 49992 76366 8672/ 333 59037 71096 83708 84612 88456==
41933,2023,08,07,00,00,AAXX 07004 41933 21350 81802 10260 20250 39971 49980 76366 8672/ 333 59034 60789 71538 83708 84612 88458==
41933,2023,08,07,03,00,AAXX 07034 41933 01340 81803 10280 20270 39973 49981 76166 8672/ 333 20252 59038 71566 83707 84612 88456==
41933,2023,08,07,06,00,AAXX 07064 41933 01310 82105 10270 20260 39967 49975 76296 8772/ 333 59039 71104 85706 88456==
41933,2023,08,07,09,00,AAXX 07094 41933 01330 82502 10275 20260 39956 49964 70262 8672/ 333 59034 71148 83707 84615 88456==
41933,2023,08,07,12,00,AAXX 07124 41933 11330 82402 10275 20260 39959 49968 60176 70262 8672/ 333 10280 59027 71102 83707 84615 88457==
41933,2023,08,07,15,00,AAXX 07154 41933 01340 82102 10266 20260 39978 49987 76162 8672/ 333 59023 71137 83708 84615 88456==
41933,2023,08,07,18,00,AAXX 07184 41933 01340 81902 10264 20250 39973 49982 76162 8672/ 333 59037 71433 83708 84615 88456==
41933,2023,08,07,21,00,AAXX 07214 41933 01340 82202 10265 20260 39966 49975 76166 8672/ 333 59017 71183 83708 84615 88458==
41933,2023,08,08,00,00,AAXX 08004 41933 21335 82402 10266 20260 39970 49979 76166 8672/ 333 59001 60179 70827 83708 84615 88456==
41933,2023,08,08,03,00,AAXX 08034 41933 01340 82402 10266 20260 39996 40005 76166 8672/ 333 20260 58023 70819 83708 84615 88456==
41933,2023,08,08,06,00,AAXX 08064 41933 01350 81303 10278 20260 30004 40012 76162 8672/ 333 58037 70705 83708 84615 88456==
41933,2023,08,08,09,00,AAXX 08094 41933 01350 81602 10284 20260 39987 49995 70262 8572/ 333 58031 70533 82708 83615 88457==
41933,2023,08,08,12,00,AAXX 08124 41933 01350 80000 10270 20260 39997 40005 76162 8572/ 333 10285 58038 70567 82708 83615 88457==
41933,2023,08,08,15,00,AAXX 08154 41933 01450 82602 10266 20260 30022 40030 70262 8452/ 333 58044 70534 84616 88458==
41933,2023,08,08,18,00,AAXX 08184 41933 11450 80000 10270 20250 30026 40034 60006 70262 8452/ 333 58053 70238 84616 88458==
41933,2023,08,08,21,00,AAXX 08214 41933 02450 80000 10270 20260 30028 40036 8452/ 333 58062 70158 84616 88458==
41933,2023,08,09,00,00,AAXX 09004 41933 02350 80000 10265 20260 30026 40034 8672/ 333 58056 70064 83708 84615 88457==
41933,2023,08,09,03,00,AAXX 09034 41933 02450 80000 10285 20260 30043 40051 8452/ 333 20260 58047 70044 84616 88458==
41933,2023,08,09,06,00,AAXX 09064 41933 01456 50000 10305 20270 30032 40041 72122 84450 333 58029 70002 82618 83826==
41933,2023,08,09,09,00,AAXX 09094 41933 01350 81803 10286 20270 30023 40032 70396 8642/ 333 58036 70050 83708 84615 88456==
41933,2023,08,09,12,00,AAXX 09124 41933 21350 81802 10290 20250 30028 40037 70296 8672/ 333 10312 58031 60018 70016 83708 84615 88456==
41933,2023,08,09,15,00,AAXX 09154 41933 01440 60000 10278 20260 30035 40044 70162 83510 333 58013 70018 83615 85458==
41933,2023,08,09,18,00,AAXX 09184 41933 11440 61802 10276 20260 30040 40049 69946 70262 83510 333 58014 70018 83616 85458==
41933,2023,08,09,21,00,AAXX 09214 41933 01340 81802 10272 20260 30030 40039 72122 8572/ 333 58002 70026 82708 83615 88457==
41933,2023,08,10,00,00,AAXX 10004 41933 21340 80000 10270 20260 30035 40044 70262 8572/ 333 58009 69985 70026 82708 83615 88457==
41933,2023,08,10,03,00,AAXX 10034 41933 02350 81902 10275 20260 30051 40060 8572/ 333 20267 58008 70026 82708 83615 88457==
41933,2023,08,10,06,00,AAXX 10064 41933 02350 82002 10300 20260 30052 40061 8562/ 333 58020 70024 82709 84615 88458==
41933,2023,08,10,09,00,AAXX 10094 41933 01456 71903 10285 20260 30034 40042 72122 84510 333 58011 70012 84618 87458==
41933,2023,08,10,12,00,AAXX 10124 41933 01456 51802 10294 20260 30033 40042 72162 84430 333 10306 58005 70012 82618 83826==
41933,2023,08,10,15,00,AAXX 10154 41933 01350 81802 10270 20260 30064 40073 70362 8572/ 333 58029 70084 82708 83615 88457==
41933,2023,08,10,18,00,AAXX 10184 41933 11340 80000 10265 20260 30061 40070 60086 70262 8572/ 333 58021 70084 82708 83615 88457==
41933,2023,08,10,21,00,AAXX 10214 41933 02440 81802 10266 20260 30050 40059 8452/ 333 58020 70076 84615 88458==
41936,2023,08,04,00,00,AAXX 04004 41936 01430 61704 10270 20260 39999 40008 70522 83830 333 58031 70010 83615 84362==
41936,2023,08,04,03,00,AAXX 04034 41936 01440 61705 10294 20270 30018 40025 70562 84630 333 20265 58033 70030 82710 83615 85362==
41936,2023,08,04,06,00,AAXX 04064 41936 01440 72106 10340 20280 30016 40023 70562 84630 333 58031 70030 82710 83615 85362==
41936,2023,08,04,09,00,AAXX 04094 41936 01430 71908 10298 20270 30012 40019 70562 82630 333 58041 70040 82710 83615 86362==
41936,2023,08,04,12,00,AAXX 04124 41936 01440 61804 10310 20260 30003 40010 70562 82630 333 10340 58029 70010 82710 83615 85362==
41936,2023,08,04,15,00,AAXX 04154 41936 01440 51603 10290 20260 30028 40035 70522 83830 333 58041 70040 83615 85362==
41936,2023,08,04,18,00,AAXX 04184 41936 01440 51704 10290 20260 30033 40040 70522 83830 333 58044 70040 82615 85362==
41936,2023,08,04,21,00,AAXX 04214 41936 01440 51704 10276 20260 30021 40028 70522 83830 333 58037 70040 83615 85362==
41936,2023,08,05,00,00,AAXX 05004 41936 01430 51603 10280 20272 30024 40031 70522 83830 333 58023 70040 83615 85362==
41936,2023,08,05,03,00,AAXX 05034 41936 01440 72005 10304 20260 30035 40042 70522 84630 333 20276 58017 70040 82710 83615 85362==
41936,2023,08,06,12,00,AAXX 06124 41936 01320 82408 10274 20260 39976 49983 70562 85730 333 20294 59034 70220 83708 83615 86362==
41936,2023,08,06,15,00,AAXX 06154 41936 01320 82304 10270 20260 39989 49996 70522 84630 333 59034 70220 83708 83615 86362==
41936,2023,08,06,18,00,AAXX 06184 41936 01320 82405 10274 20260 39987 49994 70522 84630 333 59036 70220 82708 83615 86362==
41936,2023,08,06,21,00,AAXX 06214 41936 01320 82403 10270 20260 39983 49990 70522 85630 333 59019 70220 83708 83615 86362==
41936,2023,08,07,00,00,AAXX 07004 41936 01320 82610 10270 20260 39963 49970 70522 85630 333 59035 70220 84707 83615 87362==
41936,2023,08,07,03,00,AAXX 07034 41936 01312 82404 10278 20270 39976 49983 76162 84630 333 20264 59036 70230 84707 83615 87360==
41936,2023,08,07,06,00,AAXX 07064 41936 01314 82808 10284 20260 39973 49980 76062 85630 333 59030 70010 85707 83615 87360==
41936,2023,08,07,09,00,AAXX 07094 41936 01314 82604 10288 20270 39958 49964 76066 85630 333 59033 70190 85707 83615 87360==
41936,2023,08,07,12,00,AAXX 07124 41936 01312 82704 10272 20260 39963 49970 76266 85730 333 10290 59013 70040 85707 83615 87360==
41936,2023,08,07,15,00,AAXX 07154 41936 01312 82708 10276 20260 39978 49985 76266 85730 333 59018 70100 85707 83615 87360==
41936,2023,08,07,18,00,AAXX 07184 41936 01314 82606 10270 20263 39981 49988 76266 85730 333 59007 70050 85707 83615 87360==
41936,2023,08,07,21,00,AAXX 07214 41936 01316 82703 10274 20265 39976 49983 76260 85630 333 59009 70160 84707 83615 86362==
41936,2023,08,08,00,00,AAXX 08004 41936 01316 82707 10270 20260 39973 49980 70566 85630 333 58013 70060 84707 83615 86362==
41936,2023,08,08,03,00,AAXX 08034 41936 01416 72606 10280 20260 39993 40000 70522 84630 333 20262 58017 70150 84710 83615 86362==
41936,2023,08,08,06,00,AAXX 08064 41936 01416 72507 10296 20270 39995 40001 70522 83630 333 58021 70150 83710 83615 86362==
41936,2023,08,08,09,00,AAXX 08094 41936 01420 72605 10300 20250 39985 49992 72162 84630 333 58028 70090 82710 83615 87360==
41936,2023,08,08,12,00,AAXX 08124 41936 11425 72503 10300 20270 39988 49995 60002 70522 84630 333 10310 58025 70050 82710 83615 87360==
41936,2023,08,08,15,00,AAXX 08154 41936 01316 82404 10264 20250 30011 40018 72166 85630 333 58033 70230 84708 83615 85362==
41936,2023,08,08,18,00,AAXX 08184 41936 01316 82003 10268 20260 30017 40024 70522 85630 333 58038 70230 84708 83615 85362==
41936,2023,08,08,21,00,AAXX 08214 41936 01416 81803 10264 20250 30010 40017 70522 85630 333 58036 70230 84708 83615 85362==
41936,2023,08,09,00,00,AAXX 09004 41936 01412 71903 10260 20250 30017 40024 70522 84630 333 58044 70230 82710 83615 87362==
41936,2023,08,09,03,00,AAXX 09034 41936 01425 32106 10308 20270 30030 40038 70522 81630 333 20260 58038 70230 81615 83362==
41936,2023,08,09,06,00,AAXX 09064 41936 01430 62604 10330 20270 30031 40038 70522 83630 333 58037 70230 83615 84362==
41936,2023,08,09,09,00,AAXX 09094 41936 01330 62706 10340 20260 30019 40026 70522 85630 333 58034 70230 81708 83615 85362==
41936,2023,08,09,12,00,AAXX 09124 41936 01330 62703 10320 20284 30019 40026 70522 85630 333 10342 58031 70230 81708 83615 85362==
41936,2023,08,09,15,00,AAXX 09154 41936 01430 72903 10298 20280 30036 40043 70522 85630 333 58025 70000 82710 83615 85362==
41936,2023,08,09,18,00,AAXX 09184 41936 41430 70203 10286 20280 30041 40048 70522 85630 333 58024 82710 83615 85362==
41936,2023,08,09,21,00,AAXX 09214 41936 41430 51103 10278 20270 30030 40037 70522 82830 333 58020 82615 84362==
41936,2023,08,10,00,00,AAXX 10004 41936 41418 41403 10276 20260 30033 40040 70522 81830 333 58016 81615 84362==
41936,2023,08,10,03,00,AAXX 10034 41936 41414 51703 10306 20286 30049 40056 70522 83530 333 20268 58018 83615 85362==
41936,2023,08,10,06,00,AAXX 10064 41936 41320 62708 10336 20270 30052 40059 70522 85630 333 58021 81708 83615 85362==
41936,2023,08,10,09,00,AAXX 10094 41936 41310 61706 10300 20290 30034 40041 76196 85630 333 58015 83708 83615 86362==
41936,2023,08,10,12,00,AAXX 10124 41936 01310 61704 10300 20290 30031 40036 70562 84630 333 10348 58012 70000 82708 83615 85362==
41936,2023,08,10,15,00,AAXX 10154 41936 41414 61704 10288 20270 30051 40058 70522 83630 333 58015 83615 85362==
41936,2023,08,10,18,00,AAXX 10184 41936 41416 41803 10278 20260 30050 40057 70522 82530 333 58009 82615 83362==
41936,2023,08,10,21,00,AAXX 10214 41936 41416 51803 10276 20260 30036 40043 70522 82530 333 58006 82615 84362==
41938,2023,08,04,00,00,AAXX 04004 41938 11456 80000 10265 20265 30010 40014 60024 72162 8552/ 333 56599 58034 70074 85617 88459=
41938,2023,08,04,06,00,AAXX 04064 41938 11450 80000 10265 20265 30029 40033 60102 79562 8592/ 333 56599 58034 70158 84617 81929 88459=
41938,2023,08,04,12,00,AAXX 04124 41938 11450 50000 10285 20260 30014 40018 60014 70162 84410 333 10296 56490 58025 70128 83618 83459=
41938,2023,08,04,18,00,AAXX 04184 41938 32450 40000 10273 20250 30026 40030 83510 333 56990 58017 70128 83618=
41938,2023,08,05,00,00,AAXX 05004 41938 32450 40000 10265 20260 30020 40024 83500 333 58020 70108 83618=
41938,2023,08,06,12,00,AAXX 06124 41938 11450 82304 10270 20260 39990 49994 60033 70562 8352/ 333 10280 56599 59035 70175 82618 88459=
41938,2023,08,06,18,00,AAXX 06184 41938 32450 82203 10280 20270 39996 40000 8352/ 333 56599 59032 70101 83617 88459=
41938,2023,08,07,00,00,AAXX 07004 41938 11440 82501 10276 20270 39976 49980 60027 76162 8452/ 333 56699 59031 70077 84616 88459=
41938,2023,08,07,06,00,AAXX 07064 41938 11340 82303 10268 20268 39976 49980 60143 76196 8632/ 333 56599 59035 70193 81708 84615 81930 88458=
41938,2023,08,07,12,00,AAXX 07124 41938 11340 80000 10272 20270 39964 49968 60039 76166 8672/ 333 10273 56599 59026 70197 81708 84618 88459=
41938,2023,08,07,18,00,AAXX 07184 41938 11440 80000 10265 20260 39964 49968 8452/ 333 56999 59032 70211 84618 88459=
41938,2023,08,08,00,00,AAXX 08004 41938 32450 80000 10263 20250 39982 49986 8452/ 333 56999 58006 70189 83617 88459=
41938,2023,08,08,06,00,AAXX 08064 41938 32450 80000 10288 20270 39998 40002 8352/ 333 56999 59022 70045 83617 88459=
41938,2023,08,08,12,00,AAXX 08124 41938 11450 81801 10265 20260 39998 40002 60027 70262 8152/ 333 10295 56999 58034 70030 81617 88460=
41938,2023,08,08,18,00,AAXX 08184 41938 32456 82201 10265 20260 30023 40027 8152/ 333 56599 58059 70016 81617 88460=
41938,2023,08,09,00,00,AAXX 09004 41938 31450 82102 10260 20250 30025 40029 70522 8452/ 333 56599 58043 70016 84616 88458=
41938,2023,08,09,06,00,AAXX 09064 41938 32456 42702 10330 20260 30032 40036 84400 333 56600 58034 70016 82617 83825=
41938,2023,08,09,12,00,AAXX 09124 41938 11456 81803 10277 20260 30026 40030 69914 70296 8352/ 333 10335 56499 58032 70001 83618 88459=
41938,2023,08,09,18,00,AAXX 09184 41938 32950 40000 10265 20260 30039 40043 83011 333 56099 58025 70001 83460 83080=
41938,2023,08,10,00,00,AAXX 10004 41938 31940 50000 10262 20250 30033 40037 70521 84071 333 56099 58008 70001 83460=
41938,2023,08,10,06,00,AAXX 10064 41938 32456 72201 10335 20270 30045 40049 83470 333 56590 58013 70001 81618 83825 87460=
41938,2023,08,10,12,00,AAXX 10124 41938 11450 70000 10275 20270 30034 40038 60049 79596 85910 333 10332 56990 58008 70038 84616 81928 86459=
41938,2023,08,10,18,00,AAXX 10184 41938 32450 70000 10265 20240 30034 40038 84510 333 84510 56990 59005 70038 84618=
41939,2023,08,04,00,00,AAXX 04004 41939 02456 80000 10275 20270 30014 40022 8352/ 333 58021 70000 83617 88459==
41939,2023,08,04,03,00,AAXX 04034 41939 01457 80000 10270 20260 30030 40038 70262 8352/ 333 20258 58024 70102 83617 88459==
41939,2023,08,04,06,00,AAXX 04064 41939 01458 80000 10275 20270 30042 40050 76162 8352/ 333 58036 70240 83615 88458==
41939,2023,08,04,09,00,AAXX 04094 41939 01457 80000 10272 20260 30027 40035 76166 8252/ 333 58037 70422 82615 88458==
41939,2023,08,04,12,00,AAXX 04124 41939 21456 80000 10280 20270 30023 40031 70262 8352/ 333 10283 58030 60088 70426 83617 88459==
41939,2023,08,04,15,00,AAXX 04154 41939 02450 80000 10272 20260 30048 40056 8352/ 333 58036 70426 83617 88459==
41939,2023,08,04,18,00,AAXX 04184 41939 02450 80000 10268 20260 30052 40060 8352/ 333 58034 70426 83617 88459==
41939,2023,08,05,00,00,AAXX 05004 41939 02456 70000 10272 20260 30040 40048 83510 333 58026 70426 83617 86459==
41939,2023,08,05,03,00,AAXX 05034 41939 02458 80000 10285 20270 30055 40063 8352/ 333 20258 58025 70324 83617 88459==
41939,2023,08,06,12,00,AAXX 06124 41939 21456 80000 10276 20270 39991 49999 70262 8352/ 333 10278 59021 60039 70522 83617 88459==
41939,2023,08,06,15,00,AAXX 06154 41939 02456 80000 10270 20260 30005 40013 8352/ 333 59018 70522 83617 88459==
41939,2023,08,06,18,00,AAXX 06184 41939 02456 80000 10267 20260 30015 40023 8352/ 333 59017 70522 83617 88459==
41939,2023,08,06,21,00,AAXX 06214 41939 01330 80000 10263 20260 39987 49995 76362 8672/ 333 59059 71136 82708 84615 88457==
41939,2023,08,07,00,00,AAXX 07004 41939 21356 80000 10280 20270 39963 49971 76162 8472/ 333 59045 60919 71197 81710 83616 88458==
41939,2023,08,07,03,00,AAXX 07034 41939 02456 80000 10283 20270 39973 49981 8352/ 333 20258 59048 70981 83617 88459==
41939,2023,08,07,06,00,AAXX 07064 41939 21450 80000 10272 20270 39974 49982 76162 8352/ 333 59037 60517 71441 83615 88457==
41939,2023,08,07,09,00,AAXX 07094 41939 01450 80000 10275 20270 39961 49969 76166 8352/ 333 59031 71445 83615 88458==
41939,2023,08,07,12,00,AAXX 07124 41939 21450 80000 10275 20270 39967 49975 70262 8352/ 333 10287 59024 60038 71449 83616 88458==
41939,2023,08,07,15,00,AAXX 07154 41939 02450 80000 10272 20250 39994 40002 8352/ 333 59011 71449 83617 88459==
41939,2023,08,07,21,00,AAXX 07214 41939 02456 80000 10272 20260 39997 40005 8352/ 333 58010 70615 83617 88459==
41939,2023,08,08,00,00,AAXX 08004 41939 02456 80000 10270 20260 39988 49996 8352/ 333 58025 70544 83617 88459==
41939,2023,08,08,03,00,AAXX 08034 41939 02456 80000 10278 20260 30005 40013 8352/ 333 20264 58032 70544 83617 88459==
41939,2023,08,08,06,00,AAXX 08064 41939 02456 80000 10292 20260 30005 40013 8352/ 333 58031 70034 83616 88460==
41939,2023,08,08,09,00,AAXX 08094 41939 02457 70000 10293 20250 39997 40005 82510 333 58036 70004 82617 87460==
41939,2023,08,08,12,00,AAXX 08124 41939 02456 80000 10287 20270 30005 40013 8352/ 333 10297 58035 70000 83618 88459==
41939,2023,08,08,15,00,AAXX 08154 41939 02450 80000 10270 20260 30015 40023 8352/ 333 58021 70000 83618 88459==
41939,2023,08,08,18,00,AAXX 08184 41939 02450 80000 10265 20260 30021 40029 8352/ 333 58016 70000 83618 88459==
41939,2023,08,08,21,00,AAXX 08214 41939 02456 80000 10265 20260 30022 40030 8352/ 333 58025 70000 83617 88459==
41939,2023,08,09,00,00,AAXX 09004 41939 02456 70000 10267 20260 30035 40043 82510 333 58047 70000 82617 88459==
41939,2023,08,09,03,00,AAXX 09034 41939 02457 80000 10280 20270 30046 40054 8352/ 333 20260 58041 70000 83618 88459==
41939,2023,08,09,06,00,AAXX 09064 41939 02458 40000 10312 20270 30037 40045 83430 333 58032 70000 82618==
41939,2023,08,09,09,00,AAXX 09094 41939 02457 70000 10310 20280 30022 40030 83510 333 58025 70000 82616 87459==
41939,2023,08,09,12,00,AAXX 09124 41939 01457 80000 10270 20260 30032 40040 76162 8352/ 333 10332 58032 70040 83617 88459==
41939,2023,08,09,18,00,AAXX 09184 41939 02456 80000 10260 20250 30052 40060 8352/ 333 58031 70035 83618 88459==
41939,2023,08,09,21,00,AAXX 09214 41939 02450 60000 10265 20260 30042 40050 83530 333 58020 70035 83618 83365==
41939,2023,08,10,00,00,AAXX 10004 41939 02457 60000 10270 20260 30033 40041 83530 333 59002 70035 83618 83365==
41939,2023,08,10,03,00,AAXX 10034 41939 02458 60000 10290 20270 30042 40050 83530 333 20262 59004 70035 83618 83365==
41939,2023,08,10,06,00,AAXX 10064 41939 02457 70000 10325 20270 30050 40058 83510 333 58013 70035 83616 87459==
41939,2023,08,10,09,00,AAXX 10094 41939 01450 80000 10272 20270 30045 40053 76122 8352/ 333 58023 70238 83615 88459==
41939,2023,08,10,12,00,AAXX 10124 41939 21456 50000 10280 20280 30043 40051 70162 83530 333 10342 58011 60205 70203 83617 83362==
41939,2023,08,10,15,00,AAXX 10154 41939 02456 80000 10263 20250 30045 40054 8352/ 333 58030 70035 83617 88459==
41939,2023,08,10,18,00,AAXX 10184 41939 02450 70000 10267 20260 30075 40083 82510 333 58023 70203 82618 86459==
41939,2023,08,10,21,00,AAXX 10214 41939 02456 70000 10272 20260 30052 40060 82510 333 58010 70203 82617 86459==
41941,2023,08,04,00,00,AAXX 04004 41941 21440 81404 10267 20267 30014 40020 72162 8632/ 333 58013 60087 70100 85613 88456 81924==
41941,2023,08,04,03,00,AAXX 04034 41941 01350 81803 10268 20268 30034 40040 76166 8772/ 333 20264 58027 70140 82708 83612 88456 81924==
41941,2023,08,04,06,00,AAXX 04064 41941 21450 81804 10296 20290 30037 40042 72166 8632/ 333 58030 60069 70130 85615 88458 81928==
41941,2023,08,04,09,00,AAXX 04094 41941 01440 81803 10264 20268 30029 40035 79596 8792/ 333 58034 70450 82708 83612 88456 81924==
41941,2023,08,04,12,00,AAXX 04124 41941 21440 81804 10276 20276 30018 40023 72996 8792/ 333 10312 58027 60339 70470 82708 83612 88456 81924==
41941,2023,08,04,15,00,AAXX 04154 41941 01440 81804 10277 20277 30040 40046 71322 8632/ 333 58026 70470 85616 88458 81930==
41941,2023,08,04,18,00,AAXX 04184 41941 01440 81403 10274 20270 30050 40056 71322 8632/ 333 58030 70470 85616 88458 81930==
41941,2023,08,05,00,00,AAXX 05004 41941 02450 81803 10268 20268 30037 40043 8632/ 333 58023 70390 85616 88458 81930==
41941,2023,08,05,03,00,AAXX 05034 41941 02450 80000 10290 20280 30054 40060 8632/ 333 20263 58020 70340 85616 88458 81930==
41941,2023,08,06,12,00,AAXX 06124 41941 21340 81804 10274 20270 39990 49995 76166 8772/ 333 10290 59031 60239 70660 82708 88456 81924==
41941,2023,08,06,15,00,AAXX 06154 41941 01440 81803 10276 20276 30006 40011 72162 8632/ 333 58028 70670 85615 88458 81928==
41941,2023,08,06,18,00,AAXX 06184 41941 01440 80000 10275 20275 30004 40009 70262 8632/ 333 59038 70670 85615 88458 81928==
41941,2023,08,06,21,00,AAXX 06214 41941 01340 81804 10274 20270 30013 40019 79596 8792/ 333 59013 71200 82708 83612 88456 82924==
41941,2023,08,07,00,00,AAXX 07004 41941 21340 81805 10270 20270 39975 49980 72996 8792/ 333 59043 60859 71200 82708 83612 88456 81924==
41941,2023,08,07,03,00,AAXX 07034 41941 01340 81803 10280 20280 39985 49990 76162 8732/ 333 20268 59035 71200 82708 83612 88456 81924==
41941,2023,08,07,06,00,AAXX 07064 41941 21340 82003 10270 20270 39980 49985 79596 8792/ 333 59036 60279 71360 82708 83612 88456 81924==
41941,2023,08,07,09,00,AAXX 07094 41941 01440 82603 10272 20270 39964 49969 76166 8632/ 333 59034 71270 82708 83612 88456 81924==
41941,2023,08,07,12,00,AAXX 07124 41941 21440 82603 10270 20270 39969 49974 70266 8632/ 333 10290 59021 60078 71200 85614 88456 81925==
41941,2023,08,07,15,00,AAXX 07154 41941 01440 80000 10275 20275 39985 49990 72162 8632/ 333 59021 71200 85614 88456 81925==
41941,2023,08,07,18,00,AAXX 07184 41941 21440 81803 10270 20270 39984 49989 70262 8632/ 333 59020 60025 70120 85614 88456 81925==
41941,2023,08,07,21,00,AAXX 07214 41941 02440 80000 10268 20268 39979 49984 8632/ 333 59034 70760 85614 88456 81925==
41941,2023,08,08,00,00,AAXX 08004 41941 01450 81803 10267 20267 39989 49994 72162 8632/ 333 58014 70010 85616 88458 81930==
41941,2023,08,08,03,00,AAXX 08034 41941 02450 82004 10273 20270 30006 40011 8632/ 333 20263 58021 70360 85616 88458 81930==
41941,2023,08,08,06,00,AAXX 08064 41941 02450 82003 10290 20280 30015 40021 8632/ 333 58035 70100 85616 88458 81930==
41941,2023,08,08,09,00,AAXX 08094 41941 01340 80000 10261 20260 39999 40005 76562 8772/ 333 58035 70250 82708 83612 88456 81924==
41941,2023,08,08,12,00,AAXX 08124 41941 21450 80000 10273 20270 30001 40007 70266 8632/ 333 20298 58033 60088 70320 85616 88458 81930==
41941,2023,08,08,15,00,AAXX 08154 41941 02440 80000 10268 20268 30030 40036 8632/ 333 58045 70310 85616 88458 81930==
41941,2023,08,08,18,00,AAXX 08184 41941 02440 80000 10265 20265 30036 40042 8632/ 333 58052 70300 85616 88458 81930==
41941,2023,08,08,21,00,AAXX 08214 41941 02440 80000 10264 20260 30032 40038 8632/ 333 58053 70300 85616 88458 81930==
41941,2023,08,09,00,00,AAXX 09004 41941 02450 81803 10265 20265 30022 40028 8632/ 333 58033 70290 85616 88458 81930==
41941,2023,08,09,03,00,AAXX 09034 41941 02456 71803 10302 20270 30038 40044 85420 333 20262 58032 70290 84616 87458==
41941,2023,08,09,06,00,AAXX 09064 41941 02450 80000 10305 20270 30042 40048 8632/ 333 58027 70290 85616 88458 81930==
41941,2023,08,09,09,00,AAXX 09094 41941 02456 80000 10335 20260 30026 40031 8632/ 333 58027 70080 85616 88458 81930==
41941,2023,08,09,12,00,AAXX 09124 41941 02450 81804 10285 20260 30030 40035 8632/ 333 10343 58028 70000 85616 88458 81930==
41941,2023,08,09,15,00,AAXX 09154 41941 02440 81803 10274 20250 30043 40049 8632/ 333 58013 70000 85616 88458 81930==
41941,2023,08,09,18,00,AAXX 09184 41941 NIL=
41941,2023,08,09,21,00,AAXX 09214 41941 02440 80000 10274 20260 30050 40056 8632/ 333 58018 70000 85616 88458 81930==
41941,2023,08,10,00,00,AAXX 10004 41941 02440 80000 10275 20270 30043 40049 8632/ 333 58021 70000 85616 88458 81930==
41941,2023,08,10,03,00,AAXX 10034 41941 01450 80000 10294 20280 30059 40065 72162 8632/ 333 20272 58021 70030 85616 88458 81930==
41941,2023,08,10,06,00,AAXX 10064 41941 11450 80000 10306 20290 30058 40065 60036 70262 8632/ 333 58017 70030 85615 88458 81928==
41941,2023,08,10,09,00,AAXX 10094 41941 01450 82303 10290 20280 30044 40049 72162 8632/ 333 58018 70040 85614 88456 81925==
41941,2023,08,10,12,00,AAXX 10124 41941 11450 80000 10286 20270 30038 40043 60011 70262 8632/ 333 10320 58008 70040 85616 88458 81928==
41941,2023,08,10,15,00,AAXX 10154 41941 01440 81803 10276 20260 30060 40066 71322 8632/ 333 58017 70040 85616 88458 81930==
41941,2023,08,10,21,00,AAXX 10214 41941 01440 80000 10270 20270 30052 40058 71322 8632/ 333 58002 70040 85616 88457 81930==
41943,2023,08,04,00,00,AAXX 04004 41943 21330 80000 10260 20250 30024 40031 76262 8772/ 333 58028 60207 70990 83709 84614 88458==
41943,2023,08,04,03,00,AAXX 04034 41943 02330 80000 10260 20250 30041 40048 8772/ 333 20255 58028 70830 83709 84614 88458==
41943,2023,08,04,06,00,AAXX 04064 41943 21330 81802 10260 20250 30046 40053 76166 8772/ 333 58050 60349 71060 83709 84614 88458==
41943,2023,08,04,09,00,AAXX 04094 41943 01330 81802 10270 20250 30035 40042 70262 8662/ 333 58032 70110 83710 84615 88458==
41943,2023,08,04,12,00,AAXX 04124 41943 11330 81802 10270 20260 30024 40031 60046 70262 8662/ 333 10274 58027 70810 83710 84614 88458==
41943,2023,08,04,15,00,AAXX 04154 41943 02330 81802 10260 20250 30054 40061 8662/ 333 58032 70580 83710 84615 88458==
41943,2023,08,04,18,00,AAXX 04184 41943 02330 81802 10264 20250 30060 40067 8662/ 333 58028 70580 83710 84615 88458==
41943,2023,08,04,21,00,AAXX 04214 41943 41330 80000 10260 20250 30050 40057 76162 8772/ 333 58023 83709 84614 88458==
41943,2023,08,05,00,00,AAXX 05004 41943 21330 80000 10256 20250 30041 40048 70262 8662/ 333 58017 60145 70520 83710 84615 88458==
41943,2023,08,05,03,00,AAXX 05034 41943 02435 61802 10286 20260 30057 40064 83520 333 20254 58016 70450 83616 84458==
41943,2023,08,06,12,00,AAXX 06124 41943 21330 81802 10267 20260 39996 40003 76166 8772/ 333 10270 59035 60049 70860 84708 84613 88456==
41943,2023,08,06,15,00,AAXX 06154 41943 01330 80000 10263 20250 30009 40016 76166 8772/ 333 59037 70860 84708 84613 88456==
41943,2023,08,06,18,00,AAXX 06184 41943 21330 81802 10258 20250 30001 40008 76166 8772/ 333 59038 60059 70910 84708 84613 88458==
41943,2023,08,06,21,00,AAXX 06214 41943 01330 82302 10258 20250 39985 49992 76166 8772/ 333 59038 70960 84708 84613 88456==
41943,2023,08,07,00,00,AAXX 07004 41943 21330 81802 10255 20250 39976 49983 76566 8772/ 333 59039 61019 71750 84708 84612 88456==
41943,2023,08,07,03,00,AAXX 07034 41943 01330 81803 10265 20260 39985 49992 76166 8772/ 333 20255 59032 71340 84708 84613 88456==
41943,2023,08,07,06,00,AAXX 07064 41943 21330 81802 10268 20250 39976 49983 76066 8772/ 333 59031 60049 71140 83709 84614 88456==
41943,2023,08,07,09,00,AAXX 07094 41943 02430 81802 10274 20250 39962 49969 8662/ 333 59037 71120 83710 84615 88458==
41943,2023,08,07,12,00,AAXX 07124 41943 02430 81802 10270 20250 39969 49976 8762/ 333 10300 59027 71100 84709 84615 88458==
41943,2023,08,07,15,00,AAXX 07154 41943 02330 80000 10269 20260 39988 49995 8762/ 333 59021 71080 84709 84615 88458==
41943,2023,08,07,18,00,AAXX 07184 41943 01330 80000 10260 20250 39982 49989 76166 8772/ 333 59019 70090 84708 84613 88456==
41943,2023,08,07,21,00,AAXX 07214 41943 01330 80000 10260 20250 39977 49984 76066 8772/ 333 59008 71110 84709 84614 88458==
41943,2023,08,08,00,00,AAXX 08004 41943 21330 80000 10254 20240 39985 49992 76366 8772/ 333 58009 60149 70270 84708 84612 88456==
41943,2023,08,08,03,00,AAXX 08034 41943 01330 81802 10270 20260 30003 40010 76166 8772/ 333 20254 58018 70250 84709 84614 88456==
41943,2023,08,08,06,00,AAXX 08064 41943 21330 81802 10275 20260 30008 40015 76066 8772/ 333 58022 60029 70250 84709 84614 88456==
41943,2023,08,08,09,00,AAXX 08094 41943 01330 80000 10275 20260 39998 40005 76166 8772/ 333 58036 70260 84708 84613 88456==
41943,2023,08,08,12,00,AAXX 08124 41943 21330 81802 10267 20260 30008 40015 70266 8762/ 333 10283 58039 60018 70260 84709 84615 88458==
41943,2023,08,08,15,00,AAXX 08154 41943 02430 80000 10262 20250 30033 40040 8662/ 333 58045 70260 83710 84615 88458==
41943,2023,08,08,18,00,AAXX 08184 41943 02430 80000 10260 20250 30033 40040 8662/ 333 58051 70170 83710 84615 88458==
41943,2023,08,08,21,00,AAXX 08214 41943 02430 80000 10260 20250 30026 40033 8662/ 333 58049 70150 83710 84615 88458==
41943,2023,08,09,00,00,AAXX 09004 41943 01330 80000 10254 20240 30033 40040 76166 8772/ 333 58048 70010 84709 84614 88456==
41943,2023,08,09,03,00,AAXX 09034 41943 02430 81302 10277 20260 30050 40057 8762/ 333 20254 58047 70030 84710 84615 88458==
41943,2023,08,09,06,00,AAXX 09064 41943 02430 81302 10290 20260 30042 40049 8662/ 333 58034 70020 83710 84615 88458==
41943,2023,08,09,09,00,AAXX 09094 41943 02435 61303 10320 20250 30026 40033 84420 333 58028 70010 83616 85458==
41943,2023,08,09,12,00,AAXX 09124 41943 02430 71803 10287 20250 30029 40036 84420 333 10324 58021 70010 83616 86458==
41943,2023,08,09,15,00,AAXX 09154 41943 02430 81302 10274 20250 30048 40055 8662/ 333 58015 73710 84615 88458==
41943,2023,08,09,18,00,AAXX 09184 41943 02430 80000 10268 20260 30050 40057 8662/ 333 58017 70010 83710 84615 88458==
41943,2023,08,09,21,00,AAXX 09214 41943 02430 80000 10265 20260 30045 40052 8662/ 333 58019 70010 83710 84615 88458==
41943,2023,08,10,00,00,AAXX 10004 41943 02430 80000 10260 20250 30045 40052 8662/ 333 58012 70000 83710 84615 88458==
41943,2023,08,10,03,00,AAXX 10034 41943 02430 81802 10280 20250 30061 40068 8662/ 333 20260 58011 70000 83710 84615 88458==
41943,2023,08,10,06,00,AAXX 10064 41943 02430 81804 10280 20260 30064 40071 8662/ 333 58022 70000 83710 84615 88458==
41943,2023,08,10,09,00,AAXX 10094 41943 02430 81805 10305 20260 30039 40046 8662/ 333 58013 70000 83710 84615 88458==
41943,2023,08,10,12,00,AAXX 10124 41943 02330 82502 10285 20250 30044 40051 8762/ 333 10320 58015 70000 84709 84615 88458==
41943,2023,08,10,15,00,AAXX 10154 41943 01430 81802 10254 20240 30066 40073 70266 8662/ 333 58018 70060 83710 84615 88458==
41943,2023,08,10,18,00,AAXX 10184 41943 21430 80000 10255 20250 30061 40068 70266 8662/ 333 58011 60079 70070 83710 84615 88458==
41943,2023,08,10,21,00,AAXX 10214 41943 02430 80000 10254 20240 30046 40053 86628 333 58001 70070 83710 84615 88458==
41944,2023,08,04,06,00,AAXX 04064 41944 NIL=
41944,2023,08,04,18,00,AAXX 04184 41944 NIL=
41944,2023,08,06,12,00,AAXX 06124 41944 NIL=
41944,2023,08,07,06,00,AAXX 07064 41944 NIL=
41944,2023,08,07,12,00,AAXX 07124 41944 NIL=
41944,2023,08,08,06,00,AAXX 08064 41944 NIL=
41944,2023,08,08,12,00,AAXX 08124 41944 NIL=
41944,2023,08,08,18,00,AAXX 08184 41944 NIL=
41944,2023,08,09,00,00,AAXX 09004 41944 NIL=
41944,2023,08,09,06,00,AAXX 09064 41944 NIL=
41944,2023,08,09,12,00,AAXX 09124 41944 NIL=
41944,2023,08,09,18,00,AAXX 09184 41944 NIL=
41944,2023,08,10,00,00,AAXX 10004 41944 NIL=
41944,2023,08,10,06,00,AAXX 10064 41944 NIL=
41944,2023,08,10,12,00,AAXX 10124 41944 NIL=
41946,2023,08,04,00,00,AAXX 04004 41946 02456 81701 10283 20270 30013 40018 8252/ 333 58040 70020 82618 88460==
41946,2023,08,04,03,00,AAXX 04034 41946 02456 81801 10309 20280 30029 40034 8532/ 333 20266 58027 70010 83618 88460 81929==
41946,2023,08,04,06,00,AAXX 04064 41946 11356 81803 10282 20250 30035 40040 60072 76162 8572/ 333 58042 70080 81710 84617 88459==
41946,2023,08,04,09,00,AAXX 04094 41946 01456 71702 10312 20240 30020 40025 70162 84420 333 58039 70092 83618 86459==
41946,2023,08,04,12,00,AAXX 04124 41946 11/56 60000 10309 20260 30015 40019 60016 70162 86070 333 10316 58031 70082 84459 84360==
41946,2023,08,04,15,00,AAXX 04154 41946 02456 70000 10296 20270 30042 40047 84420 333 58031 70082 83618 86459==
41946,2023,08,04,18,00,AAXX 04184 41946 02456 70000 10292 20260 30046 40051 84420 333 58032 70082 83618 86459==
41946,2023,08,05,00,00,AAXX 05004 41946 02456 60000 10290 20260 30030 40035 82520 333 58017 70082 86218 86460==
41946,2023,08,05,03,00,AAXX 05034 41946 02456 80000 10295 20270 30046 40051 8432/ 333 20272 58017 70082 83618 88460 81929==
41946,2023,08,06,12,00,AAXX 06124 41946 01350 80000 10283 20260 39991 49995 76166 8472/ 333 10287 59030 70150 82710 84617 88458==
41946,2023,08,06,15,00,AAXX 06154 41946 02456 81804 10284 20250 30003 40008 8352/ 333 59030 70150 83618 88460==
41946,2023,08,06,18,00,AAXX 06184 41946 01456 81802 10286 20270 39997 40002 70262 8352/ 333 59031 70002 83618 88459==
41946,2023,08,06,21,00,AAXX 06214 41946 02456 80000 10280 20260 39977 49982 8452/ 333 59034 70152 83618 88459==
41946,2023,08,07,00,00,AAXX 07004 41946 01350 82202 10277 20270 39976 49981 76122 8472/ 333 59033 70010 81710 83617 88459==
41946,2023,08,07,03,00,AAXX 07034 41946 01350 82202 10268 20260 39991 49996 76166 8472/ 333 20264 59033 70112 81710 83617 88459==
41946,2023,08,07,06,00,AAXX 07064 41946 21350 81802 10275 20270 39983 49988 76166 8472/ 333 59037 60109 70132 81710 83617 88459==
41946,2023,08,07,09,00,AAXX 07094 41946 01350 82707 10288 20280 39964 49968 76166 8572/ 333 59034 70132 82710 84616 88458==
41946,2023,08,07,12,00,AAXX 07124 41946 21350 82603 10277 20270 39972 49977 76166 8572/ 333 10290 59019 60029 70120 83709 84616 88457==
41946,2023,08,07,15,00,AAXX 07154 41946 01350 80000 10269 20260 39996 40001 76166 8572/ 333 59007 70380 83709 84616 88457==
41946,2023,08,07,18,00,AAXX 07184 41946 21350 80000 10270 20260 39994 49999 76166 8472/ 333 59003 60289 70410 81710 83617 88459==
41946,2023,08,07,21,00,AAXX 07214 41946 01450 80000 10265 20260 39991 49996 70262 8352/ 333 58014 70418 83618 88459==
41946,2023,08,08,00,00,AAXX 08004 41946 21456 80000 10262 20250 39995 40000 70262 8352/ 333 58019 60019 70408 83618 88459==
41946,2023,08,08,03,00,AAXX 08034 41946 01350 81802 10275 20260 30011 40016 76122 8572/ 333 20264 58020 70371 81710 84617 88459==
41946,2023,08,08,06,00,AAXX 08064 41946 21456 81804 10290 20250 30010 40015 70262 8451/ 333 58027 69935 70311 84618 88460==
41946,2023,08,08,09,00,AAXX 08094 41946 02456 82702 10310 20240 39999 40003 8432/ 333 58035 70301 83618 88460 81929==
41946,2023,08,08,12,00,AAXX 08124 41946 21456 81801 10271 20260 30005 40010 70296 8352/ 333 10319 58033 60057 70343 83618 88459==
41946,2023,08,08,15,00,AAXX 08154 41946 02/56 60000 10270 20260 30024 40028 86020 333 58028 70083 86459==
41946,2023,08,08,18,00,AAXX 08184 41946 01450 80000 10264 20250 30028 40032 72122 8452/ 333 58034 70020 84618 88458==
41946,2023,08,08,21,00,AAXX 08214 41946 02/56 60000 10264 20250 30015 40019 86020 333 58024 70073 86459==
41946,2023,08,09,00,00,AAXX 09004 41946 02/56 70000 10264 20250 30025 40029 87070 333 58030 70073 84459 85360==
41946,2023,08,09,03,00,AAXX 09034 41946 02556 70000 10310 20260 30043 40051 82570 333 20257 58035 70070 82620 84460==
41946,2023,08,09,06,00,AAXX 09064 41946 02557 62704 10330 20250 30042 40046 81501 333 58032 70070 81620 85080==
41946,2023,08,09,09,00,AAXX 09094 41946 02456 60000 10338 20260 30025 40029 82570 333 58026 70070 82620 84460==
41946,2023,08,09,12,00,AAXX 09124 41946 02456 80000 10315 20280 30030 40035 8352/ 333 10340 58025 70020 83618 88459==
41946,2023,08,09,15,00,AAXX 09154 41946 02456 80000 10300 20270 30048 40053 8432/ 333 58024 70020 83618 88459 81929==
41946,2023,08,09,18,00,AAXX 09184 41946 02956 01801 10289 20280 30048 40053 333 58020 70000==
41946,2023,08,09,21,00,AAXX 09214 41946 02456 10000 10286 20280 30034 40039 81500 333 58019 70000 81618==
41946,2023,08,10,00,00,AAXX 10004 41946 01450 30000 10281 20280 30045 40050 70500 81530 333 58020 70000 81618==
41946,2023,08,10,03,00,AAXX 10034 41946 02456 40000 10315 20270 30061 40066 82530 333 20275 58015 70000 82618 84362==
41946,2023,08,10,06,00,AAXX 10064 41946 02456 83604 10295 20270 30063 40068 8532/ 333 58021 70000 84618 88459 81929==
41946,2023,08,10,09,00,AAXX 10094 41946 01556 70000 10308 20270 30034 40039 72122 84420 333 58009 70034 83620 86459==
41946,2023,08,10,12,00,AAXX 10124 41946 21556 60000 10300 20270 30037 40042 70162 83550 333 10320 58007 60038 70034 83620 85360==
41946,2023,08,10,15,00,AAXX 10154 41946 02456 30000 10290 20270 30060 40065 83500 333 58012 70034 83618==
41946,2023,08,10,18,00,AAXX 10184 41946 02456 60000 10285 20270 30062 40067 83520 333 58014 70034 83618 85460==
41946,2023,08,10,21,00,AAXX 10214 41946 02456 80000 10282 20270 30042 40047 8352/ 333 58008 70034 83618 88460==
41947,2023,08,04,00,00,AAXX 04004 41947 01350 80000 10272 20270 30013 40016 76122 8532/ 333 58014 70010 82708 84614 88459 81930==
41947,2023,08,04,03,00,AAXX 04034 41947 01450 80000 10285 20280 30017 40020 72162 8452/ 333 20262 58027 70210 84618 88458==
41947,2023,08,04,06,00,AAXX 04064 41947 01450 80000 10280 20260 30021 40024 70262 8452/ 333 58033 70272 84618 88458==
41947,2023,08,04,09,00,AAXX 04094 41947 02450 80000 10308 20280 30019 40021 8352/ 333 58039 70216 83618 88458==
41947,2023,08,04,12,00,AAXX 04124 41947 02450 80000 10298 20270 30021 40023 8352/ 333 10310 58039 70206 83618 88458==
41947,2023,08,04,15,00,AAXX 04154 41947 02450 50000 10288 20270 30021 40023 83570 333 58025 70206 83618 85458==
41947,2023,08,04,18,00,AAXX 04184 41947 02450 50000 10285 20270 30046 40048 83570 333 58030 70196 83618 84458==
41947,2023,08,05,00,00,AAXX 05004 41947 02450 61802 10288 20280 30032 40034 83570 333 58018 70186 83618 85458==
41947,2023,08,05,03,00,AAXX 05034 41947 02456 71803 10300 20260 30039 40041 83570 333 20264 58021 70074 83618 85459==
41947,2023,08,06,12,00,AAXX 06124 41947 21450 80000 10284 20270 39985 49987 76166 8672/ 333 10287 59032 60029 70120 82708 84615 88458==
41947,2023,08,06,15,00,AAXX 06154 41947 02450 80000 10286 20280 39986 49988 8452/ 333 59045 70060 84616 88458==
41947,2023,08,06,18,00,AAXX 06184 41947 02450 80000 10284 20280 39991 49993 8452/ 333 59040 70060 84616 88458==
41947,2023,08,06,21,00,AAXX 06214 41947 02450 80000 10284 20270 39981 49983 8452/ 333 59037 70050 84616 88458==
41947,2023,08,07,00,00,AAXX 07004 41947 01450 80000 10284 20270 39969 49971 76162 8452/ 333 59036 70004 84616 88458==
41947,2023,08,07,03,00,AAXX 07034 41947 01350 80000 10270 20270 39974 49977 76166 8572/ 333 20265 59038 70098 82708 84615 88458==
41947,2023,08,07,06,00,AAXX 07064 41947 01350 80000 10272 20270 39974 49977 76166 8572/ 333 59034 70140 82708 84615 88456==
41947,2023,08,07,09,00,AAXX 07094 41947 01350 80000 10280 20270 39963 49965 76166 8572/ 333 59026 70130 82709 84617 88458==
41947,2023,08,07,12,00,AAXX 07124 41947 21450 82302 10282 20270 39968 49970 76166 8572/ 333 10285 59017 60029 70131 82709 84017 88458==
41947,2023,08,07,15,00,AAXX 07154 41947 01450 80000 10265 20260 39997 49999 76166 8572/ 333 58011 70181 82709 84617 88458==
41947,2023,08,07,18,00,AAXX 07184 41947 11450 82802 10268 20260 39994 49996 60066 70266 8352/ 333 58003 70186 83618 88458==
41947,2023,08,07,21,00,AAXX 07214 41947 02450 80000 10265 20260 39989 49991 8352/ 333 58008 70186 83618 88458==
41947,2023,08,08,00,00,AAXX 08004 41947 02450 80000 10265 20260 39985 49987 8352/ 333 58016 70182 83618 88458==
41947,2023,08,08,03,00,AAXX 08034 41947 02450 80000 10275 20260 39996 49999 8452/ 333 20258 58022 70122 84618 88458==
41947,2023,08,08,06,00,AAXX 08064 41947 01350 80000 10275 20260 39998 40001 76122 8472/ 333 58024 70002 81708 83615 88458==
41947,2023,08,08,09,00,AAXX 08094 41947 01450 80000 10295 20270 39993 49995 70262 8352/ 333 58030 70068 83618 88459==
41947,2023,08,08,12,00,AAXX 08124 41947 01450 80000 10280 20250 39996 40000 70266 8352/ 333 10295 58030 70068 83618 88459==
41947,2023,08,08,15,00,AAXX 08154 41947 02450 80000 10270 20270 30020 40022 8352/ 333 58026 70018 83618 88459==
41947,2023,08,08,18,00,AAXX 08184 41947 02450 80000 10270 20260 30024 40026 8352/ 333 58030 70013 83618 88459==
41947,2023,08,08,21,00,AAXX 08214 41947 02450 80000 10268 20260 30022 40024 8252/ 333 58033 70013 82618 88459==
41947,2023,08,09,00,00,AAXX 09004 41947 02450 80000 10265 20260 30020 40022 8252/ 333 58035 70013 82618 88459==
41947,2023,08,09,03,00,AAXX 09034 41947 02456 32202 10307 20270 30035 40037 83500 333 20260 58038 70013 83618==
41947,2023,08,09,06,00,AAXX 09064 41947 02456 52202 10333 20260 30036 40038 82530 333 58037 70011 82618 83362==
41947,2023,08,09,09,00,AAXX 09094 41947 02456 50000 10338 20260 30019 40022 82470 333 58027 70005 81618 84459==
41947,2023,08,09,12,00,AAXX 09124 41947 11350 80000 10278 20260 30026 40028 60032 76096 8532/ 333 10350 58028 70030 82710 83616 88458 81930==
41947,2023,08,09,15,00,AAXX 09154 41947 02456 80000 10276 20270 30041 40043 8352/ 333 58021 70030 83618 88458==
41947,2023,08,09,18,00,AAXX 09184 41947 02456 80000 10280 20270 30044 40046 8352/ 333 58020 70030 83618 88458==
41947,2023,08,09,21,00,AAXX 09214 41947 02/56 50000 10276 20270 30035 40037 85030 333 58013 70030 85362==
41947,2023,08,10,00,00,AAXX 10004 41947 02/56 50000 10274 20260 30038 40040 85030 333 58018 70030 85362==
41947,2023,08,10,03,00,AAXX 10034 41947 02456 60000 10318 20280 30049 40051 83570 333 20266 58014 70030 83618 84459==
41947,2023,08,10,06,00,AAXX 10064 41947 02456 80000 10332 20270 30049 40052 8352/ 333 58014 70030 83618 88459==
41947,2023,08,10,09,00,AAXX 10094 41947 02456 80000 10295 20260 30037 40039 8352/ 333 58017 70030 83618 88459==
41947,2023,08,10,12,00,AAXX 10124 41947 21456 50000 10278 20260 30037 40039 70162 83570 333 10330 58011 60015 70010 83618 84458==
41947,2023,08,10,15,00,AAXX 10154 41947 02950 01802 10268 20260 30059 40061 333 58018 70010==
41947,2023,08,10,18,00,AAXX 10184 41947 02950 00000 10268 20260 30060 40062 333 58016 70010==
41947,2023,08,10,21,00,AAXX 10214 41947 02950 60000 10280 20260 30046 40048 83570 333 58011 70010 83618 85458==
41950,2023,08,04,00,00,AAXX 04004 41950 21330 80000 10260 20260 30017 40020 76362 8572/ 333 58027 60307 70422 82707 84615 88458==
41950,2023,08,04,03,00,AAXX 04034 41950 01350 80000 10275 20275 30035 40037 70296 8562/ 333 20253 58028 70660 82708 84616 88458==
41950,2023,08,04,06,00,AAXX 04064 41950 11350 81802 10302 20280 30038 40040 60266 70296 8562/ 333 58030 70580 82708 84616 88458==
41950,2023,08,04,09,00,AAXX 04094 41950 01350 80000 10284 20270 30026 40028 70262 8562/ 333 58034 70660 82708 84616 88458==
41950,2023,08,04,12,00,AAXX 04124 41950 11350 71802 10284 20260 30022 40024 60106 70162 85670 333 10304 58031 70660 82708 84616 86459==
41950,2023,08,04,15,00,AAXX 04154 41950 02350 80000 10279 20270 30048 40050 8562/ 333 58032 70660 82708 84616 88458==
41950,2023,08,04,18,00,AAXX 04184 41950 01350 80000 10270 20260 30053 40055 72122 8562/ 333 58032 70010 82708 84616 88458==
41950,2023,08,04,21,00,AAXX 04214 41950 02350 80000 10265 20265 30042 40045 8562/ 333 58025 70670 82708 84616 88458==
41950,2023,08,05,00,00,AAXX 05004 41950 02350 70000 10271 20271 30038 40040 85670 333 58021 70370 82708 84616 86459==
41950,2023,08,05,03,00,AAXX 05034 41950 02350 71802 10288 20260 30056 40058 84670 333 20262 58021 70122 81708 84616 86459==
41950,2023,08,06,12,00,AAXX 06124 41950 01340 80000 10276 20276 39992 49994 76162 8532/ 333 10280 59037 71073 82708 84616 88458 81928==
41950,2023,08,06,15,00,AAXX 06154 41950 01350 80000 10270 20270 30006 40008 70262 8562/ 333 59032 71076 82708 84616 88458==
41950,2023,08,06,18,00,AAXX 06184 41950 11350 80000 10274 20274 30002 40004 69936 70262 8562/ 333 59032 71076 82708 84616 88458==
41950,2023,08,06,21,00,AAXX 06214 41950 01330 80000 20272 39973 49975 76166 8672/ 333 59047 71054 83707 84616 88458==
41950,2023,08,07,00,00,AAXX 07004 41950 21330 80000 10274 20274 39975 49977 76166 8572/ 333 59034 60149 71044 82707 84616 88458==
41950,2023,08,07,03,00,AAXX 07034 41950 01330 82103 10264 20264 39989 49992 79566 8692/ 333 20263 59033 71054 82707 84615 88458 81928==
41950,2023,08,07,06,00,AAXX 07064 41950 21320 82106 10256 20256 39983 49985 79596 8692/ 333 59034 61169 71496 83707 84615 88458 81928==
41950,2023,08,07,09,00,AAXX 07094 41950 01330 81804 10255 20255 39966 49968 79596 8692/ 333 59036 71416 82708 84616 88458 81928==
41950,2023,08,07,12,00,AAXX 07124 41950 21325 81802 10264 20264 39969 49971 79596 8692/ 333 10267 59023 60249 71543 82708 84616 88458 81928==
41950,2023,08,07,15,00,AAXX 07154 41950 01335 82102 10262 20262 39988 49991 76196 8572/ 333 59018 71745 82707 84615 88458==
41950,2023,08,07,18,00,AAXX 07184 41950 21340 80000 10260 20260 39987 49990 76196 8572/ 333 59015 60249 74615 82707 88458==
41950,2023,08,07,21,00,AAXX 07214 41950 01350 80000 10263 20263 39983 49985 70262 8562/ 333 58010 71703 82708 84616 88458==
41950,2023,08,08,00,00,AAXX 08004 41950 11350 80000 10265 20265 39989 49991 69936 70262 8562/ 333 58014 71643 82708 84616 88458==
41950,2023,08,08,03,00,AAXX 08034 41950 02350 80000 10275 20270 30006 40009 8562/ 333 20254 58017 71473 82708 84616 88458==
41950,2023,08,08,06,00,AAXX 08064 41950 21350 80000 10290 20270 30007 40010 70262 8562/ 333 58024 69945 70487 82708 84616 88458==
41950,2023,08,08,09,00,AAXX 08094 41950 01340 81802 10267 20260 30005 40008 76162 8572/ 333 58039 70407 82707 84616 88458==
41950,2023,08,08,12,00,AAXX 08124 41950 21340 80000 10268 20268 30005 40008 75162 8552/ 333 10290 58036 60039 70279 82708 84616 88458==
41950,2023,08,08,15,00,AAXX 08154 41950 02350 80000 10265 20265 30035 40038 8562/ 333 58047 70074 82708 84616 88458==
41950,2023,08,08,18,00,AAXX 08184 41950 02350 80000 10264 20260 30033 40036 8562/ 333 58046 70039 82708 84616 88458==
41950,2023,08,08,21,00,AAXX 08214 41950 02350 80000 10264 20260 30028 40030 8562/ 333 58045 70036 82708 84616 88458==
41950,2023,08,09,00,00,AAXX 09004 41950 01340 80000 10258 20258 30037 40039 76122 8572/ 333 58048 70006 82708 84616 88458==
41950,2023,08,09,03,00,AAXX 09034 41950 02450 60000 10287 20260 30045 40048 84570 333 20256 58039 70042 84617 86459==
41950,2023,08,09,06,00,AAXX 09064 41950 02350 70000 10324 20270 30041 40043 84670 333 58034 70038 81708 84616 86459==
41950,2023,08,09,09,00,AAXX 09094 41950 01340 80000 10266 20266 30031 40034 76166 8572/ 333 58016 70212 82708 84616 88458==
41950,2023,08,09,12,00,AAXX 09124 41950 21340 80000 10265 20265 30034 40037 76166 8572/ 333 10327 58029 60209 70210 82708 84616 88458==
41950,2023,08,09,15,00,AAXX 09154 41950 02350 70000 10267 20267 30044 40047 85670 333 58009 70210 81708 84616 86459==
41950,2023,08,09,18,00,AAXX 09184 41950 02350 70000 10266 20266 30045 40048 85610 333 58012 70210 82708 84616 87459==
41950,2023,08,09,21,00,AAXX 09214 41950 02450 30000 10264 20264 30041 40044 82530 333 58013 70210 82617==
41950,2023,08,10,00,00,AAXX 10004 41950 01420 30000 10265 20265 30043 40046 70521 82530 333 58006 70204 82617==
41950,2023,08,10,03,00,AAXX 10034 41950 02350 80000 10298 20270 30060 40062 8562/ 333 20256 58015 70204 82708 84616 88458==
41950,2023,08,10,06,00,AAXX 10064 41950 02350 60000 10330 20270 30052 40054 84670 333 58011 70204 81708 84616 86459==
41950,2023,08,10,09,00,AAXX 10094 41950 01350 82103 10285 20260 30048 40051 72996 8532/ 333 58017 70016 82708 84616 88459 81928==
41950,2023,08,10,12,00,AAXX 10124 41950 21450 70000 10277 20260 30045 40048 70196 83570 333 10332 58011 69968 70006 83617 85459==
41950,2023,08,10,15,00,AAXX 10154 41950 02350 80000 10268 20260 30063 40066 8562/ 333 58019 70006 82708 84616 88458==
41950,2023,08,10,18,00,AAXX 10184 41950 02350 80000 10264 20250 30062 40065 8562/ 333 58017 70006 82708 84616 88458==
41950,2023,08,10,21,00,AAXX 10214 41950 02350 80000 10265 20265 30047 40050 8562/ 333 58006 70006 82708 84616 88458==
41951,2023,08,04,00,00,AAXX 04004 41951 01330 80000 10265 20265 30020 40025 76566 8672/ 333 58030 70180 82706 84616 88458==
41951,2023,08,04,03,00,AAXX 04034 41951 01330 80000 10268 20268 30031 40036 76566 8672/ 333 20255 58029 70734 82706 84616 88458==
41951,2023,08,04,06,00,AAXX 04064 41951 21350 71608 10312 20270 30036 40041 70162 84610 333 58031 60408 70698 81708 83618 86459==
41951,2023,08,04,09,00,AAXX 04094 41951 01350 71603 10287 20270 30028 40032 72122 84610 333 58034 70678 81708 83618 86459==
41951,2023,08,04,12,00,AAXX 04124 41951 21340 81803 10290 20250 30018 40022 70362 8562/ 333 10317 58029 69945 70678 81708 84618 88458==
41951,2023,08,04,15,00,AAXX 04154 41951 02340 80000 10280 20270 30052 40057 8562/ 333 58030 70678 81708 84618 88458==
41951,2023,08,04,18,00,AAXX 04184 41951 02340 82303 10284 20270 30053 40057 8562/ 333 58030 70678 81708 84618 88458==
41951,2023,08,04,21,00,AAXX 04214 41951 01330 80000 10275 20275 30048 40053 76362 8672/ 333 58026 70652 82706 84616 88458==
41951,2023,08,05,00,00,AAXX 05004 41951 21450 60000 10272 20270 30033 40038 70162 83510 333 58013 60055 70462 83618 85459==
41951,2023,08,05,03,00,AAXX 05034 41951 01340 81802 10273 20250 30051 40056 70362 8662/ 333 20262 58020 70067 82706 84616 88458==
41951,2023,08,06,12,00,AAXX 06124 41951 01330 81302 10273 20270 39993 49998 76262 8672/ 333 10284 59029 70774 82706 84616 88458==
41951,2023,08,06,15,00,AAXX 06154 41951 01340 80000 10274 20270 30007 40012 72162 8562/ 333 59035 70846 81708 84618 88458==
41951,2023,08,06,18,00,AAXX 06184 41951 01330 80902 10280 20280 30000 40005 76062 8672/ 333 59035 70631 82706 84646 88458==
41951,2023,08,06,21,00,AAXX 06214 41951 01330 80902 10280 20280 39994 49999 76362 8672/ 333 59033 70618 82706 84616 88458==
41951,2023,08,07,00,00,AAXX 07004 41951 21330 80000 10280 20280 39981 49986 76566 8672/ 333 59026 60189 70652 82706 84616 88458==
41951,2023,08,07,03,00,AAXX 07034 41951 01330 82202 20270 39984 49989 76262 8672/ 333 20264 59034 70612 82706 84618 88458==
41951,2023,08,07,06,00,AAXX 07064 41951 01330 82706 10262 20260 39986 49991 76496 8672/ 333 59032 71084 82706 84616 88458==
41951,2023,08,07,09,00,AAXX 07094 41951 21330 82602 10264 20260 39977 49982 76396 8672/ 333 56699 59027 6070/ 71738 82706 84616 88458=
41951,2023,08,07,12,00,AAXX 07124 41951 21330 82003 10262 20260 39975 49980 76596 8672/ 333 10276 59018 60909 71799 82706 84616 88458==
41951,2023,08,07,15,00,AAXX 07154 41951 01330 82402 10270 20270 39998 40003 76166 8672/ 333 59009 72253 82706 84616 88458==
41951,2023,08,07,18,00,AAXX 07184 41951 21340 82504 10270 20270 39986 49991 72166 8562/ 333 59014 60569 72277 81708 84618 88458==
41951,2023,08,07,21,00,AAXX 07214 41951 01340 82503 10270 20270 39985 49990 72122 8662/ 333 59009 72228 82706 84616 88458==
41951,2023,08,08,00,00,AAXX 08004 41951 21340 82202 10270 20270 39984 49989 70262 8662/ 333 58003 69955 72101 82706 84616 88458==
41951,2023,08,08,03,00,AAXX 08034 41951 02340 82502 10278 20260 39999 40004 8562/ 333 20250 58015 72061 81708 84618 88458==
41951,2023,08,08,06,00,AAXX 08064 41951 02340 83102 10292 20270 30006 40011 8562/ 333 58020 71463 81708 84618 88458==
41951,2023,08,08,09,00,AAXX 08094 41951 01330 83103 10272 20260 30004 40009 76162 8672/ 333 58027 70904 82706 84616 88458==
41951,2023,08,08,12,00,AAXX 08124 41951 21340 80000 10276 20260 30002 40007 70262 8562/ 333 10297 58027 60168 70720 81708 84618 88458==
41951,2023,08,08,15,00,AAXX 08154 41951 02340 80000 10268 20268 30032 40037 8562/ 333 58034 70194 81708 84618 88458==
41951,2023,08,08,18,00,AAXX 08184 41951 02340 80000 10270 20270 30034 40039 8562/ 333 58048 70160 81708 84618 88458==
41951,2023,08,08,21,00,AAXX 08214 41951 02340 80000 10270 20260 30032 40037 8562/ 333 58047 70155 81708 84618 88458==
41951,2023,08,09,00,00,AAXX 09004 41951 02340 81802 10270 20260 30031 40036 8562/ 333 58047 70155 81708 84618 88458==
41951,2023,08,09,03,00,AAXX 09034 41951 02450 71802 10295 20260 30040 40045 83510 333 20262 58041 70155 83616 86459==
41951,2023,08,09,06,00,AAXX 09064 41951 02456 63102 10327 20270 30043 40048 83510 333 58037 70155 83618 85459==
41951,2023,08,09,09,00,AAXX 09094 41951 01330 82102 10268 20260 30035 40040 79562 8692/ 333 58031 70065 82706 84616 88458 82925==
41951,2023,08,09,12,00,AAXX 09124 41951 21340 82102 10275 20270 30027 40032 70296 8562/ 333 10329 58025 60058 70053 81708 84618 88458==
41951,2023,08,09,15,00,AAXX 09154 41951 02340 80000 10276 20270 30047 40052 8562/ 333 58015 70053 81708 84618 88458==
41951,2023,08,09,18,00,AAXX 09184 41951 02450 20000 10270 20260 30044 40049 82500 333 58010 70053 82618==
41951,2023,08,09,21,00,AAXX 09214 41951 02450 30000 10268 20260 30040 40045 83500 333 58008 70053 83618==
41951,2023,08,10,00,00,AAXX 10004 41951 02450 50000 10270 20270 30037 40042 82510 333 58006 70053 82618 84459==
41951,2023,08,10,03,00,AAXX 10034 41951 02440 82202 10300 20280 30051 40056 8452/ 333 20260 58011 70053 84616 88458==
41951,2023,08,10,06,00,AAXX 10064 41951 02340 80902 10308 20280 30053 40058 8562/ 333 58010 70053 81708 84618 88458==
41951,2023,08,10,09,00,AAXX 10094 41951 01340 82702 10282 20260 30041 40046 70266 8562/ 333 58006 70197 81708 84618 88458==
41951,2023,08,10,12,00,AAXX 10124 41951 11340 80000 10286 20270 30037 40042 60206 70262 8562/ 333 10320 58010 70197 81708 84618 88458==
41951,2023,08,10,15,00,AAXX 10154 41951 01340 80000 10270 20270 30062 40067 70262 8562/ 333 58015 70201 81708 84618 88458==
41951,2023,08,10,18,00,AAXX 10184 41951 11340 80000 10270 20270 30060 40065 69946 70262 8562/ 333 58016 70201 81708 84618 88458==
41951,2023,08,10,21,00,AAXX 10214 41951 02340 80000 10269 20269 30048 40053 8562/ 333 58008 70201 81708 84618 88458==
41953,2023,08,04,00,00,AAXX 04004 41953 21440 80000 10260 20250 30028 40033 76162 8352/ 333 58032 60147 70440 83615 88458==
41953,2023,08,04,03,00,AAXX 04034 41953 01440 80000 10260 20260 30045 40050 76166 8352/ 333 20256 58032 70570 83615 88458==
41953,2023,08,04,06,00,AAXX 04064 41953 21450 82204 10285 20280 30044 40049 76166 8452/ 333 58033 60189 70620 84614 88458==
41953,2023,08,04,09,00,AAXX 04094 41953 01450 82203 10285 20280 30036 40041 76166 8452/ 333 58032 70500 84614 88458==
41953,2023,08,04,12,00,AAXX 04124 41953 21450 80000 10284 20260 30029 40034 70266 8352/ 333 10286 58031 60078 70420 83615 88458==
41953,2023,08,04,15,00,AAXX 04154 41953 02430 80000 10282 20270 30054 40059 8352/ 333 58031 70420 83616 88458==
41953,2023,08,04,18,00,AAXX 04184 41953 02430 81303 10280 20270 30057 40062 8352/ 333 58030 70390 83616 88458==
41953,2023,08,04,21,00,AAXX 04214 41953 02430 81304 10266 20260 30048 40053 8352/ 333 58028 70390 83616 88458==
41953,2023,08,05,00,00,AAXX 05004 41953 01440 81304 10265 20260 30045 40050 70262 8452/ 333 58017 70130 84616 88458==
41953,2023,08,05,03,00,AAXX 05034 41953 02450 80000 10296 20270 30060 40065 8452/ 333 20264 58015 70250 84616 88458==
41953,2023,08,06,12,00,AAXX 06124 41953 21440 80000 10270 20270 39997 40002 76166 8452/ 333 10272 59036 60169 71000 84614 88458==
41953,2023,08,06,15,00,AAXX 06154 41953 01430 81803 10266 20266 30009 40014 76166 8452/ 333 59046 71030 84614 88458==
41953,2023,08,06,18,00,AAXX 06184 41953 21430 81803 10264 20260 30015 40020 76166 8452/ 333 59043 60089 71080 84614 88458==
41953,2023,08,06,21,00,AAXX 06214 41953 01430 80000 10265 20265 30018 40023 76166 8452/ 333 59025 70910 84614 88458==
41953,2023,08,07,00,00,AAXX 07004 41953 21440 80000 10270 20270 39981 49986 76166 8452/ 333 59040 60219 70740 84614 88458==
41953,2023,08,07,03,00,AAXX 07034 41953 01440 80000 10275 20275 39989 49994 76166 8452/ 333 20264 59033 70720 84614 88458==
41953,2023,08,07,06,00,AAXX 07064 41953 21440 80000 10272 20260 39985 49990 72166 8452/ 333 59030 60089 70530 84614 88457==
41953,2023,08,07,09,00,AAXX 07094 41953 01440 82101 10272 20260 39968 49973 76166 8452/ 333 59039 70490 84614 88457==
41953,2023,08,07,12,00,AAXX 07124 41953 21440 80000 10274 20260 39974 49979 70266 8452/ 333 10276 59023 60079 70440 84616 88458==
41953,2023,08,07,15,00,AAXX 07154 41953 02430 80000 10270 20260 39989 49994 8452/ 333 59020 70410 84616 88458==
41953,2023,08,07,18,00,AAXX 07184 41953 21430 80000 10268 20260 39998 40003 72162 8452/ 333 59017 60047 70400 84615 88458==
41953,2023,08,07,21,00,AAXX 07214 41953 01430 80000 10266 20266 39993 49998 76166 8452/ 333 59025 70340 84614 88458==
41953,2023,08,08,00,00,AAXX 08004 41953 21440 80000 10265 20265 39988 49993 76166 8452/ 333 58007 60129 70310 84614 88458==
41953,2023,08,08,03,00,AAXX 08034 41953 01440 80000 10276 20270 30008 40013 70262 8452/ 333 20262 58019 70280 84616 88458==
41953,2023,08,08,06,00,AAXX 08064 41953 11440 80000 10285 20270 30011 40016 60026 70262 8452/ 333 58026 70250 84616 88458==
41953,2023,08,08,09,00,AAXX 08094 41953 01440 80000 10265 20260 30006 40011 76166 8452/ 333 58038 70260 84615 88458==
41953,2023,08,08,12,00,AAXX 08124 41953 21450 80000 10275 20260 30008 40013 70266 8352/ 333 10290 58034 60109 70280 83616 88458==
41953,2023,08,08,15,00,AAXX 08154 41953 02440 80000 10265 20260 30033 40038 8352/ 333 58044 70280 83616 88458==
41953,2023,08,08,18,00,AAXX 08184 41953 02440 80000 10265 20260 30036 40041 8352/ 333 58038 70280 83616 88458==
41953,2023,08,08,21,00,AAXX 08214 41953 02440 80000 10263 20250 30030 40035 8352/ 333 58037 70190 83616 88458==
41953,2023,08,09,00,00,AAXX 09004 41953 02440 80000 10260 20260 30036 40041 8352/ 333 58048 70120 83616 88458==
41953,2023,08,09,03,00,AAXX 09034 41953 02450 80000 10276 20270 30050 40055 8352/ 333 20260 58042 70100 83616 88458==
41953,2023,08,09,06,00,AAXX 09064 41953 02450 80000 10315 20270 30046 40051 8352/ 333 58035 70100 83616 88458==
41953,2023,08,09,09,00,AAXX 09094 41953 02450 60000 10320 20270 30030 40035 82520 333 58024 70040 82616 86458==
41953,2023,08,09,12,00,AAXX 09124 41953 02450 80000 10290 20270 30033 40038 8352/ 333 10325 58025 70000 83616 88458==
41953,2023,08,09,15,00,AAXX 09154 41953 02440 80000 10275 20260 30049 40054 8352/ 333 58016 70000 83616 88458==
41953,2023,08,09,18,00,AAXX 09184 41953 02440 80000 10270 20260 30052 40057 8352/ 333 58016 70000 83616 88458==
41953,2023,08,09,21,00,AAXX 09214 41953 02440 80000 10265 20260 30045 40050 8352/ 333 58015 70000 83616 88458==
41953,2023,08,10,00,00,AAXX 10004 41953 02440 80000 10270 20260 30045 40050 8352/ 333 58009 70000 83616 88458==
41953,2023,08,10,03,00,AAXX 10034 41953 02450 81303 10302 20270 30063 40068 8352/ 333 20265 58013 70000 83616 88458==
41953,2023,08,10,06,00,AAXX 10064 41953 02450 81303 10290 20270 30065 40070 8352/ 333 58019 70000 83616 88458==
41953,2023,08,10,09,00,AAXX 10094 41953 02450 81303 10310 20270 30045 40050 8352/ 333 58015 70000 83616 88458==
41953,2023,08,10,12,00,AAXX 10124 41953 01440 80000 10260 20250 30049 40054 76162 8352/ 333 10313 58016 70100 83615 88458==
41953,2023,08,10,15,00,AAXX 10154 41953 01440 80000 10255 20255 30067 40072 76166 8352/ 333 58018 70200 83615 88458==
41953,2023,08,10,18,00,AAXX 10184 41953 21440 80000 10265 20265 30066 40071 70266 8352/ 333 58014 60119 70210 83616 88458==
41953,2023,08,10,21,00,AAXX 10214 41953 02440 80000 10260 20260 30060 40065 8352/ 333 58015 70210 83616 88458==
41955,2023,08,04,06,00,AAXX 04064 41955 NIL=
41955,2023,08,04,18,00,AAXX 04184 41955 NIL=
41955,2023,08,06,12,00,AAXX 06124 41955 NIL=
41955,2023,08,07,06,00,AAXX 07064 41955 NIL=
41955,2023,08,07,12,00,AAXX 07124 41955 NIL=
41955,2023,08,08,06,00,AAXX 08064 41955 NIL=
41955,2023,08,08,12,00,AAXX 08124 41955 NIL=
41955,2023,08,08,18,00,AAXX 08184 41955 NIL=
41955,2023,08,09,00,00,AAXX 09004 41955 NIL=
41955,2023,08,09,06,00,AAXX 09064 41955 NIL=
41955,2023,08,09,12,00,AAXX 09124 41955 NIL=
41955,2023,08,09,18,00,AAXX 09184 41955 NIL=
41955,2023,08,10,00,00,AAXX 10004 41955 NIL=
41955,2023,08,10,06,00,AAXX 10064 41955 NIL=
41955,2023,08,10,12,00,AAXX 10124 41955 NIL=
41958,2023,08,04,00,00,AAXX 04004 41958 11450 80000 10280 20280 30007 40009 60046 70262 8452/ 333 56999 58033 70138 84616 88458=
41958,2023,08,04,03,00,AAXX 04034 41958 32440 80000 10297 20290 30019 40021 8452/ 333 20270 56999 58025 70110 84616 88458=
41958,2023,08,04,06,00,AAXX 04064 41958 11440 80000 10294 20270 30024 40026 60105 70262 8452/ 333 56999 58036 70196 84616 88458=
41958,2023,08,04,09,00,AAXX 04094 41958 32456 60000 10320 20290 30014 40016 83410 333 56990 58034 70140 83616 85459=
41958,2023,08,04,12,00,AAXX 04124 41958 32450 61701 10302 20270 30008 40010 83410 333 10320 56490 58033 70140 83616 85459=
41958,2023,08,04,15,00,AAXX 04154 41958 32450 80000 10287 20270 30035 40037 8542/ 333 56999 58034 70140 84616 88458=
41958,2023,08,04,18,00,AAXX 04184 41958 32440 81701 10284 20270 30031 40033 8542/ 333 56499 58023 70140 84616 88458=
41958,2023,08,05,00,00,AAXX 05004 41958 32450 61702 10282 20280 30023 40025 83410 333 56490 58016 70100 83616 85459=
41958,2023,08,05,03,00,AAXX 05034 41958 32450 81702 10296 20270 30040 40042 8542/ 333 20280 56499 58019 70100 84616 88458=
41958,2023,08,06,12,00,AAXX 06124 41958 11430 80000 10290 20280 39982 49984 60079 76166 8542/ 333 10292 56999 59033 70766 84616 88458=
41958,2023,08,06,15,00,AAXX 06154 41958 21440 80000 10283 20280 39993 49995 70262 8542/ 333 56999 59036 6992/ 70768 84616 88458=
41958,2023,08,06,18,00,AAXX 06184 41958 11430 81701 10280 20280 39988 49990 60013 76262 8542/ 333 56499 59030 70776 84616 88458=
41958,2023,08,06,21,00,AAXX 06214 41958 32430 81701 10280 20280 39982 49984 8542/ 333 56499 59030 70776 84616 88458=
41958,2023,08,07,00,00,AAXX 07004 41958 11440 80000 10280 20280 39968 49970 69983 70262 8542/ 333 56999 59035 70214 84616 88458=
41958,2023,08,07,03,00,AAXX 07034 41958 31420 80000 10280 20280 39978 49980 79562 8592/ 333 20270 56999 59035 6031/ 70524 84616 81930 88458=
41958,2023,08,07,06,00,AAXX 07064 41958 NIL=
41958,2023,08,07,09,00,AAXX 07094 41958 21340 82701 10280 20280 39963 49965 76196 8532/ 333 56699 59030 6037/ 71652 82708 84614 81930 88458=
41958,2023,08,07,12,00,AAXX 07124 41958 11320 83302 10278 20278 39961 49963 60479 76596 8632/ 333 10282 56799 59021 71744 83707 84612 81928 88457=
41958,2023,08,07,18,00,AAXX 07184 41958 11320 83301 10266 20266 39985 49987 60179 76166 8672/ 333 56799 59003 71900 82708 84614 88458=
41958,2023,08,07,21,00,AAXX 07214 41958 21420 80000 10262 20262 39980 49982 70262 8542/ 333 56699 59002 6003/ 71926 84616 88459=
41958,2023,08,08,00,00,AAXX 08004 41958 11440 80000 10260 20260 39983 49985 60036 70262 8352/ 333 56999 58015 71918 83616 88459=
41958,2023,08,08,03,00,AAXX 08034 41958 32450 82701 10280 20270 30001 40003 8352/ 333 20258 56699 58023 71608 83616 88459=
41958,2023,08,08,06,00,AAXX 08064 41958 11456 82701 10278 20270 30003 40005 60017 76162 8532/ 333 56699 58029 70672 84616 81930 88459=
41958,2023,08,08,09,00,AAXX 08094 41958 32450 82701 10296 20270 39995 49997 8532/ 333 56699 58032 70304 84616 81930 88459=
41958,2023,08,08,12,00,AAXX 08124 41958 11440 82701 10276 20270 30000 40002 60044 76122 8532/ 333 10300 56699 58039 70244 84614 81928 88458=
41958,2023,08,08,15,00,AAXX 08154 41958 21440 80000 10264 20250 30021 40023 70262 8542/ 333 56999 58031 6003/ 70160 84616 88459=
41958,2023,08,08,18,00,AAXX 08184 41958 11440 80000 10262 20250 30028 40030 60036 70262 8542/ 333 56999 58043 70104 84616 88459=
41958,2023,08,08,21,00,AAXX 08214 41958 32440 70000 10262 20260 30018 40020 83570 333 56990 58038 70078 83616 86459=
41958,2023,08,09,00,00,AAXX 09004 41958 32430 81801 10260 20260 30032 40034 8532/ 333 56499 58049 70078 84616 81930 88459=
41958,2023,08,09,03,00,AAXX 09034 41958 32957 50000 10306 20290 30035 40037 85030 333 20255 56090 58034 70078 85362=
41958,2023,08,09,06,00,AAXX 09064 41958 32558 50000 10340 20270 30031 40033 81130 333 56990 58028 70066 81825 85362=
41958,2023,08,09,09,00,AAXX 09094 41958 32456 60000 10330 20290 30017 40019 85310 333 56690 58022 70066 84616 81930 86459=
41958,2023,08,09,12,00,AAXX 09124 41958 11440 82701 10274 20250 30024 40026 60044 71722 8592/ 333 10350 56699 58024 70062 84616 81928 88458=
41958,2023,08,09,15,00,AAXX 09154 41958 32430 80000 10274 20260 30037 40039 8542/ 333 56999 58016 70036 84616 88458=
41958,2023,08,09,18,00,AAXX 09184 41958 32430 80000 10272 20270 30041 40043 8542/ 333 56999 58013 70036 84616 88458=
41958,2023,08,09,21,00,AAXX 09214 41958 32430 80000 10274 20260 30033 40035 8542/ 333 56999 58015 70036 84616 88459=
41958,2023,08,10,00,00,AAXX 10004 41958 32440 80000 10274 20260 30037 40039 8542/ 333 56999 58005 70036 84616 88459=
41958,2023,08,10,03,00,AAXX 10034 41958 32457 50000 10310 20280 30047 40049 82530 333 20265 56990 58012 70036 82617 85362=
41958,2023,08,10,06,00,AAXX 10064 41958 32456 60000 10318 20280 30046 40048 85370 333 56990 58015 70036 83616 81929 85459=
41958,2023,08,10,09,00,AAXX 10094 41958 32456 80000 10290 20270 30032 40034 8532/ 333 56999 58015 70036 84616 81930 88459=
41958,2023,08,10,12,00,AAXX 10124 41958 32950 31802 10290 20270 30031 40033 83030 333 10330 56090 58007 70000 83362=
41958,2023,08,10,15,00,AAXX 10154 41958 32440 70000 10280 20260 30051 40053 83510 333 56990 58014 70000 83616 87459=
41958,2023,08,10,18,00,AAXX 10184 41958 32430 70000 10276 20270 30057 40059 83510 333 56990 58016 70000 83616 87459=
41958,2023,08,10,21,00,AAXX 10214 41958 32430 70000 10280 20270 30035 40037 83510 333 56490 58002 70000 83616 87459=
41960,2023,08,04,00,00,AAXX 04004 41960 21330 81802 10278 20278 30024 40025 72996 8632/ 333 58028 60449 70592 82708 84615 88458 81929==
41960,2023,08,04,03,00,AAXX 04034 41960 01330 80000 10284 20280 30041 40042 76196 8672/ 333 20265 58033 70478 83708 83614 88458==
41960,2023,08,04,06,00,AAXX 04064 41960 21450 81802 10305 20290 30040 40042 70296 8542/ 333 58037 69978 70443 84617 88459==
41960,2023,08,04,09,00,AAXX 04094 41960 02450 81801 10288 20250 30035 40036 8542/ 333 58040 70443 83617 88459==
41960,2023,08,04,12,00,AAXX 04124 41960 01440 80000 10280 20270 30029 40030 70262 8542/ 333 10312 58033 70010 84617 88459==
41960,2023,08,04,15,00,AAXX 04154 41960 02430 80000 10284 20250 30051 40052 8542/ 333 58029 70453 84616 88459==
41960,2023,08,04,18,00,AAXX 04184 41960 01430 80000 10266 20260 30057 40058 72162 8542/ 333 58032 70060 84616 88459==
41960,2023,08,05,00,00,AAXX 05004 41960 11440 61802 10268 20268 30044 40046 60026 70162 85370 333 58020 70097 83618 85459 81929==
41960,2023,08,05,03,00,AAXX 05034 41960 01430 80000 10270 20268 30058 40060 76196 8532/ 333 20260 58017 70271 84616 88459 81930==
41960,2023,08,06,12,00,AAXX 06124 41960 21430 81801 10278 20270 39997 49999 76166 8542/ 333 10280 59035 60039 70632 84616 88459==
41960,2023,08,06,15,00,AAXX 06154 41960 01420 80000 10275 20275 30009 40010 76166 8532/ 333 59035 70682 84614 88459 81930==
41960,2023,08,06,18,00,AAXX 06184 41960 21440 81802 10285 20280 30006 40007 71762 8542/ 333 59037 60068 70400 84616 88458 81928==
41960,2023,08,06,21,00,AAXX 06214 41960 01340 81902 10282 20280 39995 49997 70292 8662/ 333 59036 70330 82709 84615 88458==
41960,2023,08,07,00,00,AAXX 07004 41960 21325 82202 10280 20280 39983 49984 79596 8692/ 333 59032 69977 70295 82708 84614 88458 81928==
41960,2023,08,07,03,00,AAXX 07034 41960 01320 82102 10270 20270 39998 49999 79596 8692/ 333 20265 59037 70285 82708 84614 88458 81928==
41960,2023,08,07,06,00,AAXX 07064 41960 21320 81802 10270 20270 39988 49989 79596 8692/ 333 59037 60439 70525 82707 84618 88458 82928==
41960,2023,08,07,09,00,AAXX 07094 41960 01320 82707 10273 20273 39976 49977 76196 8672/ 333 59013 70657 82707 84614 88458==
41960,2023,08,07,12,00,AAXX 07124 41960 21320 80000 10273 20273 39978 49979 76196 8672/ 333 10276 59019 60309 70793 82708 84614 88458==
41960,2023,08,07,15,00,AAXX 07154 41960 01320 80000 10268 20268 39996 49997 79596 8692/ 333 59013 70863 82708 84614 88458 81930==
41960,2023,08,07,18,00,AAXX 07184 41960 21320 80000 10265 20265 39996 49997 76196 8672/ 333 59010 60249 70981 82708 84615 88458==
41960,2023,08,07,21,00,AAXX 07214 41960 01320 82102 10263 20263 39995 49996 76166 8672/ 333 58000 70995 82708 84614 88458==
41960,2023,08,08,00,00,AAXX 08004 41960 21330 82203 10266 20266 39994 49995 72166 8662/ 333 58011 60029 70996 82708 84614 88458==
41960,2023,08,08,03,00,AAXX 08034 41960 02450 81801 10280 20260 30011 40013 8542/ 333 20255 58013 70876 84616 88459==
41960,2023,08,08,06,00,AAXX 08064 41960 01430 80000 10278 20270 30011 40012 76122 8542/ 333 58023 70060 84616 88458==
41960,2023,08,08,09,00,AAXX 08094 41960 01420 80000 10270 20270 30011 40012 76166 8542/ 333 58035 70544 84616 88458==
41960,2023,08,08,12,00,AAXX 08124 41960 21430 80000 10270 20267 30012 40014 76166 8542/ 333 10292 58034 60099 70414 84616 88459==
41960,2023,08,08,15,00,AAXX 08154 41960 01420 80000 10265 20265 30035 40037 76166 8542/ 333 58039 70298 84616 88459==
41960,2023,08,08,18,00,AAXX 08184 41960 21420 80000 10268 20268 30035 40037 70262 8542/ 333 58039 69958 70175 84617 88459==
41960,2023,08,08,21,00,AAXX 08214 41960 02440 80000 10262 20260 30036 40038 8542/ 333 58041 70161 84616 88458==
41960,2023,08,09,00,00,AAXX 09004 41960 01320 80000 10258 20258 30038 40040 76122 8672/ 333 58044 70010 83708 84614 88458==
41960,2023,08,09,03,00,AAXX 09034 41960 01440 80000 10283 20260 30049 40051 70262 8542/ 333 20254 58038 70173 84616 88459==
41960,2023,08,09,06,00,AAXX 09064 41960 11456 70000 10327 20270 30043 40044 69966 70162 84410 333 58032 70115 83618 87459==
41960,2023,08,09,09,00,AAXX 09094 41960 01415 82201 10260 20260 30037 40039 76362 8672/ 333 58026 70451 83708 84614 88458==
41960,2023,08,09,12,00,AAXX 09124 41960 21430 80000 10270 20260 30037 40039 70262 8542/ 333 10330 58025 60439 70451 84616 88459==
41960,2023,08,09,15,00,AAXX 09154 41960 02430 80000 10268 20260 30049 40051 8542/ 333 58014 70447 84616 88459==
41960,2023,08,09,18,00,AAXX 09184 41960 02430 80000 10267 20267 30053 40055 8542/ 333 58018 70446 84617 88459==
41960,2023,08,09,21,00,AAXX 09214 41960 01425 80000 10268 20268 30050 40052 71022 8542/ 333 58014 70446 83617 88459==
41960,2023,08,10,00,00,AAXX 10004 41960 01420 70000 10270 20270 30048 40050 71022 85470 333 58010 70432 83617 83460 85362==
41960,2023,08,10,03,00,AAXX 10034 41960 02456 71801 10310 20280 30061 40063 85410 333 20255 58012 70426 84618 87459==
41960,2023,08,10,06,00,AAXX 10064 41960 01456 81602 10316 20290 30059 40060 71722 8542/ 333 58016 70426 84617 88459 81929==
41960,2023,08,10,09,00,AAXX 10094 41960 01440 82907 10307 20260 30049 40050 76122 8632/ 333 58012 70010 84616 88459 81928==
41960,2023,08,10,12,00,AAXX 10124 41960 21430 80000 10265 20260 30047 40049 76196 8542/ 333 10328 58012 60087 70084 84616 88459==
41960,2023,08,10,15,00,AAXX 10154 41960 02430 80000 10265 20260 30065 40067 8542/ 333 58016 70084 84616 88459==
41960,2023,08,10,18,00,AAXX 10184 41960 02430 80000 10267 20267 30068 40070 8542/ 333 58015 70084 84617 88459==
41960,2023,08,10,21,00,AAXX 10214 41960 01420 80000 10270 20270 30059 40061 71022 8542/ 333 58009 70084 83616 88459==
41963,2023,08,04,03,00,AAXX 04034 41963 01456 81801 10285 20280 30042 40045 70262 8352/ 333 20260 58027 70620 83618 88458==
41963,2023,08,04,06,00,AAXX 04064 41963 01456 81801 10295 20290 30046 40049 75165 8352/ 333 58044 70630 83618 88458==
41963,2023,08,04,09,00,AAXX 04094 41963 01456 81801 10290 20290 30036 40038 75162 8372/ 333 58031 70640 82708 83618 88458==
41963,2023,08,04,12,00,AAXX 04124 41963 21450 81801 10290 20280 30035 40037 70262 8372/ 333 10305 58028 60015 70640 82618 88458==
41963,2023,08,04,15,00,AAXX 04154 41963 42450 61802 10280 20260 30057 40060 82510 333 58030 82618 86458==
41963,2023,08,04,18,00,AAXX 04184 41963 02450 60000 10280 20280 30058 40061 83520 333 58029 70640 83618 85460==
41963,2023,08,05,00,00,AAXX 05004 41963 01456 70000 10275 20270 30053 40056 70362 83520 333 58015 70020 83618 86458==
41963,2023,08,05,03,00,AAXX 05034 41963 01350 81802 10260 20260 30062 40065 76162 8372/ 333 20257 58020 70190 82708 83616 88458==
41963,2023,08,06,12,00,AAXX 06124 41963 21350 82803 10265 20265 30005 40007 76166 8372/ 333 10272 59041 60229 70940 82708 83616 88458==
41963,2023,08,06,15,00,AAXX 06154 41963 01340 82802 10264 20264 30020 40023 76166 8372/ 333 59039 71030 82708 83616 88458==
41963,2023,08,06,18,00,AAXX 06184 41963 21340 81803 10263 20260 30012 40015 79596 8432/ 333 59029 60519 71410 82708 83616 88456 81928==
41963,2023,08,06,21,00,AAXX 06214 41963 01340 81802 10261 20260 39999 40002 79796 8432/ 333 59036 71910 82708 83615 88456 81928==
41963,2023,08,07,00,00,AAXX 07004 41963 21350 81803 10270 20250 39993 49996 79596 8432/ 333 59039 61109 72210 83616 88458 81928==
41963,2023,08,07,03,00,AAXX 07034 41963 01350 82801 10265 20265 39995 49998 76166 8372/ 333 20255 59041 71930 82708 83616 88458==
41963,2023,08,07,06,00,AAXX 07064 41963 21350 82801 10275 20270 39993 49996 76166 8372/ 333 59042 60089 71810 82708 83616 88458==
41963,2023,08,07,09,00,AAXX 07094 41963 01350 82503 10275 20270 39982 49985 76165 8352/ 333 59033 71830 83618 88458==
41963,2023,08,07,12,00,AAXX 07124 41963 21350 81801 10270 20270 39985 49988 76166 8372/ 333 10246 59020 60089 71770 82708 83616 88456==
41963,2023,08,07,15,00,AAXX 07154 41963 01350 81801 10270 20270 39992 49995 76166 8372/ 333 59028 71700 82708 83616 88458==
41963,2023,08,07,18,00,AAXX 07184 41963 21350 81801 10267 20267 39996 49999 76166 8352/ 333 59016 60099 71350 83618 88458==
41963,2023,08,07,21,00,AAXX 07214 41963 01350 81801 10267 20267 39997 40000 70262 8352/ 333 59002 70820 83618 88458==
41963,2023,08,08,00,00,AAXX 08004 41963 11456 82001 10270 20260 39996 49999 60076 70262 8352/ 333 58003 70320 83618 88458==
41963,2023,08,08,03,00,AAXX 08034 41963 01456 81802 10275 20270 30011 40014 70262 8352/ 333 20260 58016 70290 83616 88458==
41963,2023,08,08,06,00,AAXX 08064 41963 01350 82802 10260 20260 30011 40014 76261 8572/ 333 58018 70300 82708 83616 88458==
41963,2023,08,08,09,00,AAXX 08094 41963 01350 82001 10271 20270 30015 40018 76166 8352/ 333 58033 70360 83618 88458==
41963,2023,08,08,12,00,AAXX 08124 41963 01350 81801 10275 20270 30011 40014 70262 8352/ 333 10276 58026 70300 83616 88458==
41963,2023,08,08,15,00,AAXX 08154 41963 02440 80000 10263 20263 30036 40039 8352/ 333 58044 70240 82618 88458==
41963,2023,08,08,18,00,AAXX 08184 41963 02340 81801 10264 20260 30038 40041 8352/ 333 58042 70210 83618 88458==
41963,2023,08,09,00,00,AAXX 09004 41963 11456 70000 10275 20275 30043 40046 60056 70162 83520 333 58047 70190 83618 87458==
41963,2023,08,09,01,00,AAXX 09014 41963 11456 70000 10275 20275 30043 40046 60056 70162 83520 333 58047 70190 83618 87458==
41963,2023,08,09,03,00,AAXX 09034 41963 02456 80000 10280 20280 30049 40052 8352/ 333 20255 58038 70170 83616 88458==
41963,2023,08,09,06,00,AAXX 09064 41963 02456 60000 10295 20270 30041 40044 82510 333 58030 70130 82618 86458==
41963,2023,08,09,09,00,AAXX 09094 41963 02456 61801 10295 20270 30036 40039 82510 333 58021 70060 82618 86458==
41963,2023,08,09,12,00,AAXX 09124 41963 02450 60000 10290 20270 30031 40034 82510 333 10300 58020 70050 82618 86458==
41963,2023,08,09,15,00,AAXX 09154 41963 02440 61801 10270 20250 30043 40046 82510 333 58007 70050 82618 86458==
41963,2023,08,09,18,00,AAXX 09184 41963 NIL=
41963,2023,08,09,21,00,AAXX 09214 41963 02440 60000 10268 20260 30045 40048 82510 333 58004 70050 82618 86458==
41963,2023,08,10,00,00,AAXX 10004 41963 02440 41801 10270 20260 30047 40050 82510 333 58004 70000 82618 84458==
41963,2023,08,10,03,00,AAXX 10034 41963 02456 61801 10290 20260 30057 40060 82510 333 20262 58008 70000 82618 86458==
41963,2023,08,10,06,00,AAXX 10064 41963 02456 61801 10295 20280 30062 40064 82510 333 58021 70000 82618 86458==
41963,2023,08,10,09,00,AAXX 10094 41963 02456 61801 10300 20270 30042 40045 82510 333 58006 70000 82618 86458==
41963,2023,08,10,12,00,AAXX 10124 41963 02450 21801 10290 20260 30047 40050 82500 333 10320 58016 70000 82618==
41963,2023,08,10,15,00,AAXX 10154 41963 02440 61801 10280 20260 30065 40068 82510 333 58022 70000 82618 86458==
41963,2023,08,10,18,00,AAXX 10184 41963 02440 61801 10278 20260 30068 40071 82510 333 58019 70000 82618 86458==
41963,2023,08,10,21,00,AAXX 10214 41963 02440 61801 10275 20260 30064 40067 82510 333 58019 70000 82618 86458==
41964,2023,08,04,00,00,AAXX 04004 41964 21350 80000 10266 20266 30019 40022 76162 8772/ 333 58026 60377 70408 85707 85616 88458==
41964,2023,08,04,03,00,AAXX 04034 41964 01345 80000 10270 20270 30038 40041 76366 8772/ 333 20254 58034 70430 85707 85616 88458==
41964,2023,08,04,06,00,AAXX 04064 41964 21340 81802 10266 20266 30043 40045 76366 8772/ 333 58039 60149 70520 86707 85616 88458==
41964,2023,08,04,09,00,AAXX 04094 41964 01340 81901 10292 20280 30033 40036 76166 8772/ 333 58033 70680 86707 85616 88458==
41964,2023,08,04,12,00,AAXX 04124 41964 01356 81802 10291 20280 30026 40029 76162 8672/ 333 10296 58029 70684 85707 85616 88458==
41964,2023,08,04,15,00,AAXX 04154 41964 02457 81802 10290 20280 30049 40052 8662/ 333 58028 70684 82709 85616 88460==
41964,2023,08,04,18,00,AAXX 04184 41964 21357 81903 10279 20279 30050 40053 72162 8672/ 333 58028 60067 70742 83708 85616 88458==
41964,2023,08,05,00,00,AAXX 05004 41964 01340 80000 10261 20261 30039 40041 76322 8772/ 333 58020 70110 86708 85616 88458==
41964,2023,08,05,03,00,AAXX 05034 41964 01340 81604 10273 20270 30054 40056 76166 8772/ 333 20254 58016 70479 86707 85615 88458==
41964,2023,08,06,12,00,AAXX 06124 41964 21340 82203 10267 20260 30003 40005 76166 8772/ 333 10272 59032 60089 71416 86707 86615 88457==
41964,2023,08,06,15,00,AAXX 06154 41964 01340 82102 10270 20270 30011 40013 76162 8772/ 333 59035 71394 86707 85615 88457==
41964,2023,08,06,18,00,AAXX 06184 41964 01330 82104 10264 20264 30002 40004 79596 8732/ 333 59035 71662 86707 85616 88457 81928==
41964,2023,08,06,21,00,AAXX 06214 41964 01330 82103 10262 20262 39993 49995 76396 8732/ 333 59037 71694 86707 85615 88457 81928==
41964,2023,08,07,00,00,AAXX 07004 41964 21330 82104 10271 20271 39977 49979 79596 8732/ 333 59039 60419 71536 86707 85615 88457 81928==
41964,2023,08,07,03,00,AAXX 07034 41964 01335 82303 10270 20270 39987 49989 76196 8772/ 333 20253 59038 71011 85707 85615 88458==
41964,2023,08,07,06,00,AAXX 07064 41964 21340 82503 10278 20278 39981 49984 76196 8772/ 333 59040 60099 70909 85707 85615 88457==
41964,2023,08,07,09,00,AAXX 07094 41964 01340 82103 10277 20277 39979 49982 76196 8772/ 333 59030 70865 85707 85616 88458==
41964,2023,08,07,12,00,AAXX 07124 41964 21340 82203 10272 20272 39970 40073 76166 8772/ 333 10283 59033 60109 70923 85707 85615 88458==
41964,2023,08,07,15,00,AAXX 07154 41964 01356 81802 10273 20273 39986 49989 70262 8662/ 333 59025 70881 83708 85616 88460==
41964,2023,08,07,18,00,AAXX 07184 41964 01356 81802 10268 20268 39983 49985 72162 8662/ 333 59019 70619 83708 85616 88458==
41964,2023,08,07,21,00,AAXX 07214 41964 02356 82102 10272 20272 39981 49983 8662/ 333 59012 70387 83709 85616 88460==
41964,2023,08,08,00,00,AAXX 08004 41964 01340 82103 10271 20271 39982 49984 76162 8772/ 333 58005 70040 85708 86615 88458==
41964,2023,08,08,03,00,AAXX 08034 41964 01345 82302 10280 20270 30002 40005 76162 8772/ 333 20261 58015 70180 84708 85617 88458==
41964,2023,08,08,06,00,AAXX 08064 41964 01350 80000 10288 20280 30006 40009 76162 8772/ 333 58025 70164 85708 85616 88458==
41964,2023,08,08,09,00,AAXX 08094 41964 01350 81903 10268 20260 30005 40007 76166 8772/ 333 58026 70388 85708 85616 88458==
41964,2023,08,08,12,00,AAXX 08124 41964 01350 80000 10272 20260 30004 40007 76162 8772/ 333 10293 58034 70322 85708 85615 88458==
41964,2023,08,08,15,00,AAXX 08154 41964 01356 80000 10267 20267 30027 40029 70262 8562/ 333 58041 70320 82709 85618 88460==
41964,2023,08,08,18,00,AAXX 08184 41964 11356 80000 10266 20266 30028 40030 69926 70262 8562/ 333 58045 70306 82709 85618 88460==
41964,2023,08,08,21,00,AAXX 08214 41964 02356 80000 10265 20265 30026 40028 8662/ 333 58045 70306 83709 85617 88460==
41964,2023,08,09,00,00,AAXX 09004 41964 21356 80000 10263 20263 30029 40031 72162 8662/ 333 58047 60087 70350 83709 85617 88458==
41964,2023,08,09,03,00,AAXX 09034 41964 01356 81402 10276 20270 30044 40046 70262 8662/ 333 20250 58042 70344 83709 85617 88459==
41964,2023,08,09,06,00,AAXX 09064 41964 01357 81402 10286 20270 30042 40044 70262 8662/ 333 58036 70462 82709 85618 88460==
41964,2023,08,09,09,00,AAXX 09094 41964 02357 80000 10285 20280 30029 40032 8662/ 333 58024 70222 82709 85618 88460==
41964,2023,08,09,12,00,AAXX 09124 41964 02457 81802 10278 20270 30028 40030 8451/ 333 10301 58024 70208 84618 88460==
41964,2023,08,09,15,00,AAXX 09154 41964 02357 80000 10274 20274 30048 40050 8662/ 333 58021 70206 82709 85618 88460==
41964,2023,08,09,18,00,AAXX 09184 41964 02457 81802 10272 20260 30046 40048 8451/ 333 58018 70206 84618 88460==
41964,2023,08,09,21,00,AAXX 09214 41964 02357 81802 10272 20260 30042 40044 8562/ 333 58016 70206 82709 85618 88460==
41964,2023,08,10,00,00,AAXX 10004 41964 02357 81802 10271 20271 30039 40041 8662/ 333 58010 70124 83709 85618 88460==
41964,2023,08,10,03,00,AAXX 10034 41964 01350 81802 10275 20270 30060 40062 76162 8672/ 333 20256 58016 70130 84708 85616 88458==
41964,2023,08,10,06,00,AAXX 10064 41964 21357 81404 10283 20270 30060 40062 70262 8662/ 333 58018 60028 70020 83708 85616 88460==
41964,2023,08,10,09,00,AAXX 10094 41964 02457 61401 10302 20270 30043 40045 83510 333 58014 70020 83618 85460==
41964,2023,08,10,12,00,AAXX 10124 41964 02457 71503 10290 20270 30041 40043 8457/ 333 10307 58013 70020 84618 84460 85362==
41964,2023,08,10,15,00,AAXX 10154 41964 02357 80000 10280 20270 30062 40064 8561/ 333 58014 70020 82709 85618 88460==
41964,2023,08,10,18,00,AAXX 10184 41964 02557 81703 10281 20270 30060 40062 8641/ 333 58014 70020 85620 88460==
41964,2023,08,10,21,00,AAXX 10214 41964 02357 81502 10276 20270 30054 40056 8662/ 333 58012 70020 83709 85616 88460==
41965,2023,08,04,03,00,AAXX 04034 41965 01330 80000 10260 20240 30037 40045 76566 8462/ 333 20250 58032 70980 81708 83614 88482==
41965,2023,08,04,06,00,AAXX 04064 41965 21330 80000 10260 20240 30049 40057 76566 8462/ 333 58052 60689 71410 81708 83614 88482==
41965,2023,08,04,09,00,AAXX 04094 41965 01340 81302 10280 20230 30035 40043 76366 8462/ 333 58036 71920 81708 83614 88456==
41965,2023,08,04,12,00,AAXX 04124 41965 21450 80000 10285 20240 30033 40041 58034 71880 88460 333 60518==
41965,2023,08,04,18,00,AAXX 04184 41965 NIL=
41965,2023,08,05,03,00,AAXX 05034 41965 01430 80000 10260 20240 30057 40065 76566 8462/ 333 20250 58020 71340 81710 83618 88458==
41965,2023,08,06,12,00,AAXX 06124 41965 21430 80000 10265 20240 30008 40016 76166 8462/ 333 10270 59033 60119 71090 82708 84616 88456==
41965,2023,08,07,00,00,AAXX 07004 41965 21330 80000 10260 20230 39987 49995 76366 8562/ 333 59040 60409 71290 82707 84614 88482==
41965,2023,08,07,03,00,AAXX 07034 41965 01330 80000 10260 20230 39992 40000 76366 8562/ 333 20240 59040 71260 82707 84614 88482==
41965,2023,08,07,06,00,AAXX 07064 41965 21440 81302 10275 20240 39986 49994 76266 8462/ 333 59037 60219 70990 81710 83618 88456==
41965,2023,08,07,09,00,AAXX 07094 41965 01440 80000 10280 20230 39974 49982 76062 8462/ 333 59035 70960 81710 83618 88456==
41965,2023,08,07,12,00,AAXX 07124 41965 21430 80000 10270 20240 39974 49982 76366 8462/ 333 10280 59034 60129 71000 81710 83618 88456==
41965,2023,08,08,03,00,AAXX 08034 41965 01330 80000 10275 20240 30005 40013 76366 8462/ 333 20248 58013 70460 81710 84618 88458==
41965,2023,08,08,06,00,AAXX 08064 41965 21440 80000 10285 20240 30007 40016 70266 8462/ 333 58021 60088 70400 81710 83618 88458==
41965,2023,08,08,09,00,AAXX 08094 41965 01440 80000 10260 20230 30003 40012 76266 8462/ 333 58029 70580 81710 83618 88456==
41965,2023,08,08,12,00,AAXX 08124 41965 21440 80000 10260 20230 30004 40012 76166 8462/ 333 10310 58030 60269 70540 81710 83618 88458==
41965,2023,08,08,18,00,AAXX 08184 41965 NIL=
41965,2023,08,09,00,00,AAXX 09004 41965 NIL=
41965,2023,08,09,03,00,AAXX 09034 41965 01330 80000 10270 20230 30049 40057 76166 8462/ 333 20250 58044 70610 81710 84618 88458==
41965,2023,08,09,06,00,AAXX 09064 41965 21440 81402 10288 20240 30043 40052 70266 8462/ 333 58036 60088 70610 81710 83618 88460==
41965,2023,08,09,09,00,AAXX 09094 41965 02450 81302 10300 20240 30029 40038 56026 8462/ 333 58026 70400 81710 83618 88460==
41965,2023,08,09,12,00,AAXX 09124 41965 02450 80000 10270 20240 30032 40040 8462/ 333 10310 58028 70350 81710 83618 88460==
41965,2023,08,09,18,00,AAXX 09184 41965 NIL=
41965,2023,08,10,00,00,AAXX 10004 41965 NIL=
41965,2023,08,10,03,00,AAXX 10034 41965 02450 80000 10260 20230 30052 40060 8462/ 333 58018 70080 81710 83618 88458==
41965,2023,08,10,06,00,AAXX 10064 41965 21440 80000 10280 20230 30062 40071 76162 8462/ 333 58019 60087 70080 81710 83618 88456==
41965,2023,08,10,09,00,AAXX 10094 41965 02450 81301 10305 20240 30044 40053 8331/ 333 58015 70080 83618 88460==
41965,2023,08,10,12,00,AAXX 10124 41965 02450 80000 10280 20230 30045 40053 84610 333 10310 58013 70080 83618 88460==
41965,2023,08,10,15,00,AAXX 10154 41965 02450 80000 10270 20240 30050 40058 84610 333 58012 70080 83618 88460==
41966,2023,08,04,03,00,AAXX 04034 41966 01340 80901 10260 20230 39971 40049 76366 8472/ 333 20250 58028 71012 82709 83615 88460==
41966,2023,08,04,06,00,AAXX 04064 41966 21340 80000 10270 20240 39976 40055 58026 71066 88460 333 60499==
41966,2023,08,04,09,00,AAXX 04094 41966 01340 81201 10270 20240 39973 40051 76166 8472/ 333 58027 71062 82709 83615 88460==
41966,2023,08,04,12,00,AAXX 04124 41966 21330 80000 10270 20240 39974 40052 72166 8472/ 333 10275 58032 60299 71242 82709 83615 88460==
41966,2023,08,04,15,00,AAXX 04154 41966 41420 70000 10273 20240 39977 40056 58023 71242 86460==
41966,2023,08,04,18,00,AAXX 04184 41966 NIL=
41966,2023,08,04,21,00,AAXX 04214 41966 02320 80000 10266 20240 39973 40051 8472/ 333 58020 71192 82709 83615 88460==
41966,2023,08,05,00,00,AAXX 05004 41966 02340 80000 10263 20230 39980 40059 8472/ 333 59024 70772 82709 83615 88460==
41966,2023,08,06,12,00,AAXX 06124 41966 21330 80000 10260 20230 39942 40020 76366 8472/ 333 10265 59038 60279 71437 82709 83615 88460==
41966,2023,08,06,15,00,AAXX 06154 41966 01320 80000 10260 20230 39953 40032 72166 8472/ 333 71131 82709 83615 88460==
41966,2023,08,06,21,00,AAXX 06214 41966 01320 80000 10260 20230 39955 40033 76366 8472/ 333 59011 71196 82709 83615 88460==
41966,2023,08,07,00,00,AAXX 07004 41966 21330 81201 10250 20230 39918 49996 76366 8472/ 333 59044 60489 71452 82709 83615 88460==
41966,2023,08,07,03,00,AAXX 07034 41966 01340 81301 10256 20240 39935 40013 76366 8472/ 333 20240 59039 71514 82709 83615 88460==
41966,2023,08,07,06,00,AAXX 07064 41966 21350 80000 10265 20240 39916 49994 70266 8472/ 333 59050 60278 71330 82709 83615 88460==
41966,2023,08,07,09,00,AAXX 07094 41966 01340 80000 10265 20230 39906 49984 76266 8472/ 333 59059 71236 82709 83615 88460==
41966,2023,08,07,12,00,AAXX 07124 41966 21330 80000 10270 20240 39907 49985 76366 8472/ 333 10270 59035 60199 71292 82709 83615 88460==
41966,2023,08,07,15,00,AAXX 07154 41966 01330 80000 10260 20230 39926 40004 76162 8472/ 333 59028 71280 82709 83615 88460==
41966,2023,08,07,18,00,AAXX 07184 41966 21330 80000 10260 20230 39934 40012 76166 8472/ 333 59037 60049 71258 82709 83615 88460==
41966,2023,08,07,21,00,AAXX 07214 41966 01320 81301 10260 20230 39942 40020 76166 8472/ 333 59013 71128 82709 83615 88460==
41966,2023,08,08,00,00,AAXX 08004 41966 21330 81201 10260 20230 39911 49989 72166 8472/ 333 59007 60149 70684 82709 83615 88460==
41966,2023,08,08,03,00,AAXX 08034 41966 01340 81301 10265 20250 39944 40022 76266 8472/ 333 20250 58009 70812 82709 83615 88460==
41966,2023,08,08,06,00,AAXX 08064 41966 21350 80000 10267 20250 39936 40014 76266 8472/ 333 58020 60439 70842 82709 83615 88460==
41966,2023,08,08,09,00,AAXX 08094 41966 01350 81301 10252 20220 39925 40003 76366 8472/ 333 58019 71106 82709 83615 88460==
41966,2023,08,08,12,00,AAXX 08124 41966 21330 80000 10260 20230 39947 40025 72166 8472/ 333 10270 58040 60039 71030 82709 83615 88460==
41966,2023,08,08,15,00,AAXX 08154 41966 02320 80000 10260 20230 39957 40035 8462/ 333 58031 70990 82709 83615 88460==
41966,2023,08,08,18,00,AAXX 08184 41966 NIL=
41966,2023,08,08,21,00,AAXX 08214 41966 02320 80000 10256 20230 39954 40032 8472/ 333 58012 70842 82709 83615 88460==
41966,2023,08,09,00,00,AAXX 09004 41966 01330 80902 10250 20220 39957 40036 76162 8472/ 333 58047 70060 82709 83615 88460==
41966,2023,08,09,03,00,AAXX 09034 41966 01330 81201 10250 20220 39968 40047 76366 8472/ 333 20245 70922 85025 82709 83615 88460==
41966,2023,08,09,06,00,AAXX 09064 41966 11340 81301 10270 20240 39977 40055 60492 76266 8472/ 333 58041 70926 82709 83615 88460==
41966,2023,08,09,09,00,AAXX 09094 41966 01350 81301 10275 20240 39974 40052 70266 8472/ 333 58049 70586 82709 83615 88460==
41966,2023,08,09,12,00,AAXX 09124 41966 11440 70000 10270 20230 39971 40049 69986 70162 83510 333 10280 58024 70560 83616 86460==
41966,2023,08,09,15,00,AAXX 09154 41966 02430 71302 10265 20240 39973 40051 83510 333 58016 70560 83616 86460==
41966,2023,08,09,18,00,AAXX 09184 41966 NIL=
41966,2023,08,09,21,00,AAXX 09214 41966 02420 71802 10256 20230 39961 40039 83510 333 58007 70560 83616 86460==
41966,2023,08,10,00,00,AAXX 10004 41966 01330 81201 10255 20230 39968 40047 76122 8472/ 333 58011 70010 82709 83615 88460==
41966,2023,08,10,03,00,AAXX 10034 41966 01340 81302 10265 20240 39983 40062 76166 8472/ 333 20248 58015 70130 82709 83615 88460==
41966,2023,08,10,06,00,AAXX 10064 41966 21350 81501 10268 20240 39988 40067 72166 8472/ 333 58012 60059 70056 82709 83615 88460==
41966,2023,08,10,09,00,AAXX 10094 41966 02450 60000 10280 20230 39980 40058 83510 333 58006 70056 83616 86460==
41966,2023,08,10,12,00,AAXX 10124 41966 02430 61201 10280 20250 39982 40062 83510 333 10287 58011 70056 83616 85460==
41966,2023,08,10,15,00,AAXX 10154 41966 02420 60000 10275 20250 39985 40063 83510 333 58012 70056 83616 85460==
41966,2023,08,10,21,00,AAXX 10214 41966 02420 70000 10265 20240 39971 40050 83510 333 58011 70056 83616 86460==
41977,2023,08,04,00,00,AAXX 04004 41977 21340 80000 10266 20266 30009 40046 76166 8732/ 333 58024 60549 70680 82708 84615 88458 81930==
41977,2023,08,04,03,00,AAXX 04034 41977 01350 81803 10275 20280 30030 40067 76266 8732/ 333 20260 58034 70117 82708 84615 88458 82928==
41977,2023,08,04,06,00,AAXX 04064 41977 21345 81802 10288 20288 30041 40079 76166 8732/ 333 58034 60059 71220 82710 84615 88458 81930==
41977,2023,08,04,09,00,AAXX 04094 41977 01440 71806 10293 20280 30022 40059 72166 84570 333 58028 71250 84615 85460==
41977,2023,08,04,12,00,AAXX 04124 41977 21440 71805 10292 20280 30014 40051 70265 84570 333 10296 58026 60038 71250 84615 85460==
41977,2023,08,04,15,00,AAXX 04154 41977 02350 71803 10294 20270 30048 40086 85620 333 58036 71250 82710 84615 87458==
41977,2023,08,04,18,00,AAXX 04184 41977 02350 81805 10280 20260 30046 40084 8662/ 333 58034 70900 82710 84615 88459==
41977,2023,08,05,00,00,AAXX 05004 41977 11350 80000 10270 20260 30031 40069 60016 70262 8732/ 333 58022 70640 82710 84615 88460 81930==
41977,2023,08,05,03,00,AAXX 05034 41977 01345 80000 10265 20260 30050 40088 76162 8732/ 333 20260 58020 70520 82710 84614 88458 81930==
41977,2023,08,06,12,00,AAXX 06124 41977 21320 82304 10262 20260 39995 40033 76366 84708 333 10270 59030 60429 72124 84708 88458==
41977,2023,08,06,15,00,AAXX 06154 41977 01330 81802 10265 20260 39998 40036 76366 84708 333 59042 72144 84708 88458==
41977,2023,08,06,18,00,AAXX 06184 41977 21330 81805 10268 20260 39987 40025 76366 84708 333 59049 60339 72354 84708 88458==
41977,2023,08,06,21,00,AAXX 06214 41977 01330 81802 10260 20260 39976 40014 76366 8732/ 333 59044 72584 84708 84614 88458 81925==
41977,2023,08,07,00,00,AAXX 07004 41977 21340 82302 10260 20260 39970 40008 76366 8472/ 333 59036 60849 72944 84708 84614 88458 81925==
41977,2023,08,07,03,00,AAXX 07034 41977 01340 81804 10274 20270 39981 40019 76366 8732/ 333 20255 59047 72464 83708 85614 88458 81925==
41977,2023,08,07,06,00,AAXX 07064 41977 21340 82705 10278 20270 39972 40010 76166 8732/ 333 59043 60289 71974 83708 84614 88458 81925==
41977,2023,08,07,12,00,AAXX 07124 41977 21330 82303 10274 20260 39963 40001 76166 8772/ 333 10285 59032 60049 71590 83708 85614 88458==
41977,2023,08,07,15,00,AAXX 07154 41977 01350 82303 10278 20270 39977 40015 70266 8562/ 333 59021 71500 82709 85615 88458==
41977,2023,08,07,18,00,AAXX 07184 41977 01330 80000 10274 20260 39982 40020 76162 8562/ 333 59005 71180 83709 85615 88458==
41977,2023,08,07,21,00,AAXX 07214 41977 01340 82302 10272 20270 39978 40016 70262 8632/ 333 58002 70852 82712 84615 88460 81930==
41977,2023,08,08,00,00,AAXX 08004 41977 01340 82302 10270 20270 39975 40013 76162 8732/ 333 58005 70372 83708 84614 88458 81928==
41977,2023,08,08,03,00,AAXX 08034 41977 01340 81804 10278 20270 39993 40031 76166 8732/ 333 20267 58012 70142 83708 84614 88458 81927==
41977,2023,08,08,06,00,AAXX 08064 41977 21340 82103 10274 20260 39997 40035 76166 8732/ 333 58025 60059 70142 83708 84614 88458 81928==
41977,2023,08,08,09,00,AAXX 08094 41977 12340 82303 10264 20260 39989 40027 60366 8732/ 333 58031 70262 83708 84613 88458 81928==
41977,2023,08,08,12,00,AAXX 08124 41977 21330 81803 10270 20270 39998 40035 76166 8732/ 333 10285 58035 60169 70262 83708 85613 88458==
41977,2023,08,08,18,00,AAXX 08184 41977 21330 81802 10263 20260 30019 40057 76366 8732/ 333 58037 60259 70506 83708 85613 88458==
41977,2023,08,08,21,00,AAXX 08214 41977 01340 80000 10260 20260 30022 40060 76166 8732/ 333 58044 70499 82708 84614 88458 81928==
41977,2023,08,09,00,00,AAXX 09004 41977 21340 80000 10258 20258 30022 40060 76166 8732/ 333 58047 60049 70514 82708 84614 88458 81928==
41977,2023,08,09,03,00,AAXX 09034 41977 01350 80903 10266 20260 30039 40077 70262 8732/ 333 20255 58046 70496 82708 85615 88458 81928==
41977,2023,08,09,06,00,AAXX 09064 41977 01350 81303 10278 20270 30032 40070 76162 8732/ 333 58035 70510 83708 84615 88458 81928==
41977,2023,08,09,12,00,AAXX 09124 41977 NIL=
41977,2023,08,09,15,00,AAXX 09154 41977 02350 80000 10264 20250 30037 40075 8562/ 333 58022 70360 82709 85615 88459==
41977,2023,08,09,18,00,AAXX 09184 41977 NIL=
41977,2023,08,09,21,00,AAXX 09214 41977 02350 80000 10258 20260 30040 40078 8632/ 333 58018 70081 82708 84615 88458 81928==
41977,2023,08,10,00,00,AAXX 10004 41977 11340 80000 10258 20258 30032 40070 60012 76162 8732/ 333 58010 70078 82708 84615 88458 81928==
41977,2023,08,10,03,00,AAXX 10034 41977 01340 80902 10262 20260 30052 40090 76366 8732/ 333 20255 58013 70118 83708 85614 88458 81928==
41977,2023,08,10,06,00,AAXX 10064 41977 21350 81302 10278 20260 30045 40083 70262 8732/ 333 58013 60058 70084 82708 85615 88458 81928==
41977,2023,08,10,12,00,AAXX 10124 41977 02456 70000 10287 20260 30027 40065 84570 333 10310 58005 70064 84616 86459==
41977,2023,08,10,15,00,AAXX 10154 41977 02456 70000 10275 20270 30048 40086 84570 333 58011 70064 84616 86459==
41977,2023,08,10,18,00,AAXX 10184 41977 02456 70000 10272 20260 30050 40089 84570 333 58006 70064 84616 86459==
41977,2023,08,10,21,00,AAXX 10214 41977 02350 80000 10268 20260 30042 40080 8662/ 333 58002 70064 82712 84615 88460==
41978,2023,08,04,00,00,AAXX 04004 41978 01340 80000 10272 20270 30027 40033 72162 8432/ 333 58027 70310 83709 88459 81928==
41978,2023,08,04,03,00,AAXX 04034 41978 01431 82215 10282 20280 30046 40053 76162 8432/ 333 20268 58032 70330 83708 88458 81928==
41978,2023,08,04,06,00,AAXX 04064 41978 21431 82112 10290 20290 30050 40057 76162 8432/ 333 58035 60159 70420 83708 88458 81928==
41978,2023,08,04,09,00,AAXX 04094 41978 01340 82111 10300 20280 30037 40043 76166 8432/ 333 58030 70428 83708 88458 81928==
41978,2023,08,04,12,00,AAXX 04124 41978 21440 82014 10294 20270 30037 40043 70266 8432/ 333 10302 58032 60019 70430 83615 88459 81930==
41978,2023,08,04,15,00,AAXX 04154 41978 02440 61711 10295 20290 30058 40064 84310 333 58027 70428 83618 86460 81930==
41978,2023,08,04,18,00,AAXX 04184 41978 02440 61510 10286 20280 30064 40070 84310 333 58033 70330 83618 86460 81930==
41978,2023,08,04,21,00,AAXX 04214 41978 02440 61309 10273 20260 30048 40054 84310 333 58028 70260 83618 86460 81930==
41978,2023,08,05,00,00,AAXX 05004 41978 21440 81107 10268 20260 30048 40054 70562 8432/ 333 58011 60045 70198 83618 88460 81930==
41978,2023,08,05,03,00,AAXX 05034 41978 01416 82110 10270 20270 30064 40071 76362 8432/ 333 20256 58018 70358 83708 88458 81928==
41978,2023,08,05,12,00,AAXX 05124 41978 NIL=
41978,2023,08,05,18,00,AAXX 05184 41978 NIL=
41978,2023,08,06,12,00,AAXX 06124 41978 21316 82535 10257 20257 30013 40020 79596 8692/ 333 10280 59031 60919 73061 84707 88457 81927==
41978,2023,08,06,15,00,AAXX 06154 41978 01431 82105 10270 20270 30020 40027 79196 8432/ 333 59044 72898 84708 88458 81927==
41978,2023,08,06,18,00,AAXX 06184 41978 21331 82412 10282 20280 30010 40017 76196 8432/ 333 59037 60329 72752 84708 88458 81927==
41978,2023,08,06,21,00,AAXX 06214 41978 01331 82110 10280 20280 39990 49997 76166 8432/ 333 59046 73029 84708 88458 81927==
41978,2023,08,07,00,00,AAXX 07004 41978 21331 82418 10280 20280 39984 49991 76166 8432/ 333 59043 60679 73216 84708 88458 81927==
41978,2023,08,07,03,00,AAXX 07034 41978 01335 82821 10277 20277 39996 40003 76166 84321 333 20258 59038 72502 84708 88457 81927==
41978,2023,08,07,06,00,AAXX 07064 41978 21340 82410 10276 20270 39987 49994 76166 8432/ 333 59044 60289 72178 84708 88457 81927==
41978,2023,08,07,09,00,AAXX 07094 41978 01335 82416 10282 20270 39976 49982 76162 8432/ 333 59040 72164 84708 88458 81928==
41978,2023,08,07,12,00,AAXX 07124 41978 21328 82414 10274 20260 39980 49987 76162 8532/ 333 10286 59033 60269 71540 85708 88458 81928==
41978,2023,08,07,15,00,AAXX 07154 41978 01340 82210 10277 20270 39999 40005 70262 8432/ 333 59021 71348 83710 88459 81928==
41978,2023,08,07,18,00,AAXX 07184 41978 11445 80000 10276 20270 39990 49996 69946 70262 8432/ 333 59020 71208 83615 88460 81930==
41978,2023,08,07,21,00,AAXX 07214 41978 02445 80000 10270 20250 39974 49980 8432/ 333 59016 70788 83615 88460 81930==
41978,2023,08,08,00,00,AAXX 08004 41978 01340 82513 10273 20260 39988 49994 76162 8432/ 333 58004 70020 83709 88459 81920==
41978,2023,08,08,03,00,AAXX 08034 41978 01340 82406 10282 20270 30009 40015 76166 8432/ 333 20266 58013 70338 84709 88458 81928==
41978,2023,08,08,06,00,AAXX 08064 41978 21325 82405 10270 20270 30017 40023 76166 8532/ 333 58030 60079 70350 85708 88458 81928==
41978,2023,08,08,09,00,AAXX 08094 41978 01325 82109 10265 20265 30007 40014 76166 8532/ 333 58031 70450 84708 88458 81928==
41978,2023,08,08,12,00,AAXX 08124 41978 21440 81807 10272 20260 30015 40021 70262 8432/ 333 10283 58035 60249 70334 83616 88459 81929==
41978,2023,08,08,15,00,AAXX 08154 41978 01340 81805 10270 20270 30034 40040 76162 8432/ 333 58035 70390 83708 88458 81928==
41978,2023,08,08,18,00,AAXX 08184 41978 21340 81605 10264 20250 30037 40043 72162 8332/ 333 58047 60119 70444 83709 88459 81930==
41978,2023,08,08,21,00,AAXX 08214 41978 02340 80000 10260 20250 30034 40040 8362/ 333 58060 70444 83709 88459==
41978,2023,08,09,00,00,AAXX 09004 41978 21440 80000 10258 20250 30037 40043 70262 8352/ 333 58049 60065 70482 83614 88459==
41978,2023,08,09,03,00,AAXX 09034 41978 02440 80000 10278 20260 30053 40060 8432/ 333 20255 58044 70478 83614 88459 81928==
41978,2023,08,09,06,00,AAXX 09064 41978 01335 80000 10277 20270 30050 40057 76162 8432/ 333 58033 70444 83709 88459 81928==
41978,2023,08,09,09,00,AAXX 09094 41978 01435 31606 10267 20260 30038 40044 76166 8432/ 333 58031 70270 83709 88459 81928==
41978,2023,08,09,12,00,AAXX 09124 41978 21335 81604 10265 20260 30038 40044 76166 8432/ 333 10284 58023 60089 70286 83709 88459 81928==
41978,2023,08,09,15,00,AAXX 09154 41978 01440 81507 10262 20260 30057 40063 70562 8432/ 333 58023 70230 83618 88460 81930==
41978,2023,08,09,18,00,AAXX 09184 41978 11440 81205 10257 20250 30052 40058 69946 70562 8432/ 333 58015 70176 83618 88460 81930==
41978,2023,08,09,21,00,AAXX 09214 41978 01440 81506 10256 20250 30044 40051 70522 8432/ 333 58010 70176 83618 88460 81930==
41978,2023,08,10,00,00,AAXX 10004 41978 01335 81808 10258 20258 30049 40055 76162 8432/ 333 58013 70060 83708 88457 81928==
41978,2023,08,10,03,00,AAXX 10034 41978 01440 81505 10260 20260 30070 40077 76162 8432/ 333 20255 58017 70252 83612 88459 81928==
41978,2023,08,10,06,00,AAXX 10064 41978 01440 81505 10284 20270 30065 40072 70262 8432/ 333 58015 70234 83614 88460 81930==
41978,2023,08,10,09,00,AAXX 10094 41978 02450 81505 10295 20270 30046 40052 8432/ 333 58008 70182 83616 88460 81930==
41978,2023,08,10,12,00,AAXX 10124 41978 02456 51705 10286 20270 30047 40053 83530 333 10308 58009 70152 83617 85362==
41978,2023,08,10,15,00,AAXX 10154 41978 02456 51503 10280 20260 30069 40075 83530 333 58012 70148 83617 85362==
41978,2023,08,10,18,00,AAXX 10184 41978 02456 51704 10272 20260 30066 40072 83520 333 58014 70148 83617 85460==
41978,2023,08,10,21,00,AAXX 10214 41978 02456 51603 10265 20260 30054 40060 83520 333 58010 70148 83617 85460==
41980,2023,08,04,00,00,AAXX 04004 41980 11340 80000 10255 20250 39933 40045 60189 76166 8772/ 333 56999 58022 70730 83708 85613 88456=
41980,2023,08,04,06,00,AAXX 04064 41980 NIL=
41980,2023,08,04,12,00,AAXX 04124 41980 11440 80000 10280 20270 39938 40049 60138 70266 8562/ 333 10292 56999 58026 70660 82710 84615 88457=
41980,2023,08,04,18,00,AAXX 04184 41980 NIL=
41980,2023,08,05,00,00,AAXX 05004 41980 11440 80000 10263 20260 39954 40065 60308 70266 8562/ 333 56999 58021 70780 82710 84615 88457=
41980,2023,08,06,12,00,AAXX 06124 41980 11330 80000 10250 20250 39911 40022 60529 76166 8772/ 333 10268 56999 59032 72530 84708 85613 88456=
41980,2023,08,07,00,00,AAXX 07004 41980 11330 80000 10252 20250 39892 40004 61079 76166 8772/ 333 56999 59042 72860 84708 85613 88456=
41980,2023,08,07,06,00,AAXX 07064 41980 NIL=
41980,2023,08,07,12,00,AAXX 07124 41980 11330 80000 10255 20260 39889 40001 62149 76366 8772/ 333 10268 56999 59022 73420 85708 86612 88456=
41980,2023,08,08,00,00,AAXX 08004 41980 11330 80000 10257 20260 39892 40004 60339 70266 8662/ 333 56499 58000 72680 84708 85613 88456=
41980,2023,08,08,06,00,AAXX 08064 41980 NIL=
41980,2023,08,08,12,00,AAXX 08124 41980 11320 80000 10254 20250 39919 40032 60349 76366 8772/ 333 10270 56999 58028 71220 85706 85612 88455=
41980,2023,08,08,18,00,AAXX 08184 41980 NIL=
41980,2023,08,09,00,00,AAXX 09004 41980 11330 80000 10258 20260 39920 40032 60139 76166 8772/ 333 56999 58028 71020 84708 85613 88456=
41980,2023,08,09,06,00,AAXX 09064 41980 NIL=
41980,2023,08,09,12,00,AAXX 09124 41980 11330 80000 10257 20250 39942 40054 60287 76162 8672/ 333 10308 56999 58023 70410 84709 84614 88456=
41980,2023,08,09,18,00,AAXX 09184 41980 NIL=
41980,2023,08,10,00,00,AAXX 10004 41980 32430 80000 10248 20250 39943 40055 8662/ 333 56999 58023 70280 84710 84615 88457=
41980,2023,08,10,06,00,AAXX 10064 41980 NIL=
41980,2023,08,10,12,00,AAXX 10124 41980 32450 81802 10268 20250 39949 40060 8452/ 333 10290 56999 58007 70060 84616 88458=
41984,2023,08,04,00,00,AAXX 04004 41984 21456 82304 10291 20280 30007 40009 70262 8352/ 333 58029 60025 70145 83618 88458==
41984,2023,08,04,03,00,AAXX 04034 41984 01457 80000 10300 20280 30026 40028 70262 8352/ 333 20265 58034 70125 83618 88458==
41984,2023,08,04,06,00,AAXX 04064 41984 11457 82303 10308 20280 30030 40032 60016 70262 8352/ 333 58037 70125 83618 88458==
41984,2023,08,04,09,00,AAXX 04094 41984 01457 82301 10287 20270 30022 40024 70262 8352/ 333 58039 70115 83618 88458==
41984,2023,08,04,12,00,AAXX 04124 41984 01457 80000 10290 20280 30015 40017 70262 8352/ 333 10310 58030 70125 83618 88458==
41984,2023,08,04,15,00,AAXX 04154 41984 02440 82301 10278 20270 30035 40037 8352/ 333 58024 70089 83618 88458==
41984,2023,08,04,18,00,AAXX 04184 41984 02440 82302 10290 20280 30041 40043 8352/ 333 58034 70049 83618 88458==
41984,2023,08,04,21,00,AAXX 04214 41984 01340 80000 10281 20280 30037 40039 76122 8672/ 333 58030 70051 82707 84616 88456==
41984,2023,08,05,00,00,AAXX 05004 41984 21356 82302 10271 20270 30034 40036 76162 8672/ 333 58027 60107 70121 82707 84616 88456==
41984,2023,08,05,03,00,AAXX 05034 41984 01356 80000 10260 20260 30046 40048 76366 8672/ 333 20256 58020 70576 82707 84616 88456==
41984,2023,08,06,12,00,AAXX 06124 41984 21456 81304 10270 20270 39991 49993 79596 8692/ 333 10276 59029 61229 73232 83707 84615 88456 81925==
41984,2023,08,06,15,00,AAXX 06154 41984 01340 82306 10285 20280 39995 49997 79596 8692/ 333 59024 73707 84615 88456 81925==
41984,2023,08,06,18,00,AAXX 06184 41984 21340 80000 10285 20280 39998 40000 79596 8692/ 333 59031 60109 73332 83707 84615 88458 81925==
41984,2023,08,06,21,00,AAXX 06214 41984 01340 82905 10280 20280 39983 49985 79596 8692/ 333 59023 73182 83707 84615 88456 81925==
41984,2023,08,07,00,00,AAXX 07004 41984 21350 82307 10270 20270 39971 49973 79596 8692/ 333 59030 60479 83162 83707 84615 88456==
41984,2023,08,07,03,00,AAXX 07034 41984 01356 80000 10268 20268 39984 49986 79596 8692/ 333 20250 59037 72976 83707 84615 88456 81925==
41984,2023,08,07,06,00,AAXX 07064 41984 21356 80000 10271 20270 39980 49982 76396 8632/ 333 59036 60529 72036 83707 84615 88456 81925==
41984,2023,08,07,09,00,AAXX 07094 41984 01356 82302 10270 20270 39946 49968 76366 8672/ 333 59034 72106 83707 84615 88458==
41984,2023,08,07,12,00,AAXX 07124 41984 21350 82301 10274 20270 39965 40067 76166 8672/ 333 10276 59026 60759 71840 82707 82707 84616 88456==
41984,2023,08,07,15,00,AAXX 07154 41984 01340 82302 10271 20270 39985 49987 76166 8672/ 333 59010 71840 82707 84616 88456==
41984,2023,08,07,18,00,AAXX 07184 41984 21340 80000 10265 20265 39986 49988 76166 8672/ 333 59012 60139 71870 82707 84616 88456==
41984,2023,08,07,21,00,AAXX 07214 41984 01340 80000 10265 20265 39986 49988 76366 8672/ 333 58001 71700 82707 84616 88456==
41984,2023,08,08,00,00,AAXX 08004 41984 21456 80000 10266 20266 39980 49982 70262 8352/ 333 58009 60158 71546 83618 88458==
41984,2023,08,08,03,00,AAXX 08034 41984 01356 80000 10274 20270 30001 40003 76162 8672/ 333 20259 58017 71192 82707 84616 88456==
41984,2023,08,08,06,00,AAXX 08064 41984 21356 80000 10271 20270 30002 40004 76366 8672/ 333 58022 60639 71652 82707 84616 88456==
41984,2023,08,08,09,00,AAXX 08094 41984 01356 80000 10271 20270 30000 40002 76166 8672/ 333 58034 71048 82707 84616 88456==
41984,2023,08,08,12,00,AAXX 08124 41984 21356 82301 10268 20268 30002 40004 76166 8672/ 333 10280 58037 60149 71044 82707 84616 88456==
41984,2023,08,08,15,00,AAXX 08154 41984 01440 80000 10261 20260 30016 40018 70262 8352/ 333 58031 71000 83618 88458==
41984,2023,08,08,18,00,AAXX 08184 41984 11440 80000 10264 20260 30023 40025 60036 70262 8352/ 333 58037 70940 83618 88458==
41984,2023,08,09,00,00,AAXX 09004 41984 02456 80000 10272 20270 30021 40023 8432/ 333 58041 70794 84618 88458 81925==
41984,2023,08,09,03,00,AAXX 09034 41984 01456 80000 10271 20270 30034 40036 70262 8352/ 333 20250 58033 70798 83618 88458==
41984,2023,08,09,06,00,AAXX 09064 41984 01356 80000 10286 20270 30032 40034 76162 8672/ 333 58030 70218 82707 84616 88456==
41984,2023,08,09,09,00,AAXX 09094 41984 02457 80000 10278 20260 30029 40031 8452/ 333 58029 70172 84618 88458==
41984,2023,08,09,12,00,AAXX 09124 41984 21456 80000 10268 20260 30022 40024 70262 8432/ 333 10327 58020 60035 70106 84618 88458 81926==
41984,2023,08,09,15,00,AAXX 09154 41984 02440 80000 10270 20270 30036 40038 8352/ 333 58020 70080 83618 88458==
41984,2023,08,09,18,00,AAXX 09184 41984 02440 80000 10272 20270 30031 40033 8352/ 333 58008 70080 83618 88458==
41984,2023,08,09,21,00,AAXX 09214 41984 01440 80000 10271 20270 30030 40032 70522 8352/ 333 58006 70080 83618 88458==
41984,2023,08,10,00,00,AAXX 10004 41984 01456 80000 10270 20270 30028 40030 70522 8352/ 333 58007 70080 83618 88458==
41984,2023,08,10,03,00,AAXX 10034 41984 02456 80000 10287 20270 30042 40044 8352/ 333 20259 58008 70050 83618 88458==
41984,2023,08,10,06,00,AAXX 10064 41984 21356 80000 10294 20290 30047 40049 76162 8672/ 333 58015 60137 70160 82707 84616 88456==
41984,2023,08,10,09,00,AAXX 10094 41984 01457 80000 10328 20290 30030 40032 70262 8352/ 333 58001 70170 83618 88458==
41984,2023,08,10,12,00,AAXX 10124 41984 01356 80000 10274 20270 30033 40035 72162 8562/ 333 10336 58011 70210 82707 84616 88457==
41984,2023,08,10,15,00,AAXX 10154 41984 02440 80000 10270 20270 30050 40052 8352/ 333 58014 70210 83618 88458==
41984,2023,08,10,18,00,AAXX 10184 41984 02440 80000 10272 20270 30054 40056 8352/ 333 58023 70210 83618 88458==
41984,2023,08,10,21,00,AAXX 10214 41984 02440 80000 10268 20260 30044 40046 8352/ 333 58014 70210 83618 88458==
41989,2023,08,04,03,00,AAXX 04034 41989 01450 51803 10280 20250 39980 49984 70262 83530 333 20250 59032 70100 83618 83362==
41989,2023,08,04,06,00,AAXX 04064 41989 11450 61705 10305 20280 30059 40062 60016 70362 84470 333 58036 70100 83618 84460==
41989,2023,08,04,09,00,AAXX 04094 41989 02456 51306 10304 20270 30039 40042 82500 333 58032 70100 82618 83362==
41989,2023,08,04,12,00,AAXX 04124 41989 02450 61303 10296 20260 30084 40037 83570 333 10310 58026 70100 83618 84460==
41989,2023,08,04,15,00,AAXX 04154 41989 02450 51303 10289 20270 30054 40057 83570 333 58041 70100 83618 83362==
41989,2023,08,04,18,00,AAXX 04184 41989 NIL=
41989,2023,08,05,03,00,AAXX 05034 41989 01450 71302 10282 20260 30065 40068 70262 83570 333 20256 58010 70120 83618 84460==
41989,2023,08,06,12,00,AAXX 06124 41989 21430 61804 10277 20260 30030 40023 70162 83570 333 10290 59012 60709 71110 83618 84460==
41989,2023,08,06,15,00,AAXX 06154 41989 02440 71704 10292 20270 30014 40018 83570 333 59012 71090 83618 85460==
41989,2023,08,06,21,00,AAXX 06214 41989 02450 61703 10280 20260 30019 40022 83570 333 59029 71010 83618 84460==
41989,2023,08,07,00,00,AAXX 07004 41989 21430 71803 10270 20260 30012 40015 72162 83570 333 59033 61667 71660 83610 85460==
41989,2023,08,07,03,00,AAXX 07034 41989 01330 81705 10272 20260 30022 40025 76166 8572/ 333 20240 59038 71910 82710 83614 88456==
41989,2023,08,07,06,00,AAXX 07064 41989 01330 81803 10285 20280 39989 49992 76162 8572/ 333 59057 71810 82708 83614 88456==
41989,2023,08,07,12,00,AAXX 07124 41989 21330 81804 10271 20260 39975 49978 76266 8572/ 333 10286 59045 60469 71570 82709 83614 88456==
41989,2023,08,07,15,00,AAXX 07154 41989 01330 81704 10270 20250 30017 40020 76162 8572/ 333 58003 71600 83708 83614 88456==
41989,2023,08,07,18,00,AAXX 07184 41989 01430 61805 10268 20250 30030 40033 72162 84470 333 58007 71630 83618 84460==
41989,2023,08,07,21,00,AAXX 07214 41989 01430 61803 10265 20250 30020 40023 70262 83570 333 58001 71650 83618 84460==
41989,2023,08,08,00,00,AAXX 08004 41989 01430 81803 10263 20240 30015 40018 76162 8272/ 333 58003 70980 82708 83614 88456==
41989,2023,08,08,03,00,AAXX 08034 41989 01440 61403 10275 20260 30027 40031 70162 83530 333 20240 58005 70750 83618 83362==
41989,2023,08,08,06,00,AAXX 08064 41989 21330 81803 10267 20260 30016 40019 76162 8572/ 333 58027 60488 71020 82709 83614 88456==
41989,2023,08,08,09,00,AAXX 08094 41989 01440 61804 10278 20260 30016 40019 72162 84470 333 58035 71000 83618 84460==
41989,2023,08,08,12,00,AAXX 08124 41989 01430 51404 10270 20250 30007 40010 72162 84430 333 10288 58032 70780 83618 84362==
41989,2023,08,08,18,00,AAXX 08184 41989 NIL=
41989,2023,08,08,21,00,AAXX 08214 41989 02330 81803 10265 20260 30036 40039 8572/ 333 58016 70910 82719 83618 85460==
41989,2023,08,09,00,00,AAXX 09004 41989 21440 71302 10257 20250 30029 40032 70162 83560 333 58014 60637 71280 82618 85460==
41989,2023,08,09,03,00,AAXX 09034 41989 02456 61302 10292 20260 30043 40046 83570 333 20240 58016 71180 83618 84460==
41989,2023,08,09,06,00,AAXX 09064 41989 02450 51705 10300 20270 30045 40048 84470 333 58027 70850 83618 84460==
41989,2023,08,09,09,00,AAXX 09094 41989 01440 71803 10265 20260 30043 40047 72122 83570 333 58027 70670 83618 85460==
41989,2023,08,09,12,00,AAXX 09124 41989 01450 71702 10268 20260 30036 40039 70262 82570 333 10312 58029 70640 82618 84460==
41989,2023,08,09,15,00,AAXX 09154 41989 02450 41803 10268 20250 30054 40057 84500 333 58021 70640 84618==
41989,2023,08,09,18,00,AAXX 09184 41989 02430 61802 10255 20240 30046 40049 83570 333 58010 70410 83618 84460==
41989,2023,08,09,21,00,AAXX 09214 41989 02430 61803 10255 20240 30046 40049 83570 333 58010 70410 83618 84460==
41989,2023,08,10,00,00,AAXX 10004 41989 02430 51803 10253 20230 30043 40046 83530 333 58014 70010 83618 84362==
41989,2023,08,10,03,00,AAXX 10034 41989 02450 51803 10290 20240 30050 40053 83530 333 20242 58007 70010 83618 83362==
41989,2023,08,10,06,00,AAXX 10064 41989 02456 41302 10302 20250 30059 40062 82530 333 58014 70010 82618 84362==
41989,2023,08,10,09,00,AAXX 10094 41989 42456 61802 10204 20250 30043 40046 83570 333 58000 83618 84460==
41989,2023,08,10,12,00,AAXX 10124 41989 02450 51402 10285 20290 30029 40042 83530 333 10310 58003 70010 83618 83362==
41989,2023,08,10,15,00,AAXX 10154 41989 02450 51302 10280 20260 30064 40067 82570 333 58010 70000 82618==
41989,2023,08,10,18,00,AAXX 10184 41989 02450 61402 10275 20260 30073 40076 83570 333 58013 70000 83618 84460==
41989,2023,08,10,21,00,AAXX 10214 41989 02450 51802 10278 20260 30066 40069 82570 333 58020 70000 82618 83460==
41992,2023,08,04,00,00,AAXX 04004 41992 21320 81806 10280 20270 30035 40037 76366 8592/ 333 58024 60309 70350 83707 85613 88458 81925==
41992,2023,08,04,03,00,AAXX 04034 41992 01320 81805 10285 20280 30058 40060 76166 8592/ 333 20262 58033 70360 83708 85614 88458 81925==
41992,2023,08,04,06,00,AAXX 04064 41992 21425 81809 10303 20270 30061 40063 75165 8532/ 333 58035 60029 70350 84615 88458 81925==
41992,2023,08,04,09,00,AAXX 04094 41992 01425 71803 10303 20270 30050 40052 70522 84330 333 58033 70330 84616 87360 81925==
41992,2023,08,04,12,00,AAXX 04124 41992 01425 61804 10294 20260 30047 40049 70522 84530 333 10320 58028 70330 84616 86362==
41992,2023,08,04,15,00,AAXX 04154 41992 01425 61808 10290 20270 30072 40074 70522 83530 333 58033 70320 83616 86362==
41992,2023,08,04,18,00,AAXX 04184 41992 01425 81808 10290 20270 30074 40076 75122 8492/ 333 58029 70000 83614 88458 81925==
41992,2023,08,04,21,00,AAXX 04214 41992 01425 81805 10280 20260 30069 40071 76166 8592/ 333 58031 70170 84614 88458 81925==
41992,2023,08,05,00,00,AAXX 05004 41992 21425 80000 10265 20260 30061 40063 76166 8592/ 333 58026 60109 70120 84614 88458 81925==
41992,2023,08,05,03,00,AAXX 05034 41992 01425 80000 10290 20270 30073 40075 76166 8532/ 333 20257 58015 70160 84614 88458 81925==
41992,2023,08,06,12,00,AAXX 06124 41992 21320 81807 10288 20270 30020 40022 76166 8432/ 333 10290 59030 60049 71010 82708 84614 88458 81925==
41992,2023,08,06,15,00,AAXX 06154 41992 01425 81805 10290 20270 30031 40033 75155 8592/ 333 59033 70690 84614 88458 81925==
41992,2023,08,06,18,00,AAXX 06184 41992 21425 81805 10290 20270 30025 40027 70555 8592/ 333 59034 60009 70760 84616 88460 81925==
41992,2023,08,06,21,00,AAXX 06214 41992 01425 81805 10270 20260 30020 40022 76166 8592/ 333 59030 70580 84614 88458 81925==
41992,2023,08,07,00,00,AAXX 07004 41992 21315 81808 10260 20260 39999 40001 76366 8692/ 333 59040 60259 70460 83707 85612 88458 81925==
41992,2023,08,07,03,00,AAXX 07034 41992 01315 80000 10260 20250 30011 40013 76166 8592/ 333 20255 59035 70580 83708 85614 88458 81925==
41992,2023,08,07,06,00,AAXX 07064 41992 21320 81806 10268 20268 30010 40012 76166 8592/ 333 59035 60339 70620 83708 85614 88458 81925==
41992,2023,08,07,09,00,AAXX 07094 41992 01315 81810 10270 20270 39995 49997 76566 8692/ 333 59028 71070 83707 85612 88458 81925==
41992,2023,08,07,12,00,AAXX 07124 41992 21320 81805 10265 20260 39996 49998 76366 8592/ 333 10272 59024 60559 71130 83707 85612 88458 81925==
41992,2023,08,07,15,00,AAXX 07154 41992 01315 81808 10260 20260 30012 40014 76566 8592/ 333 59019 71490 83707 85612 88458 81925==
41992,2023,08,07,18,00,AAXX 07184 41992 21315 82106 10263 20260 30006 40008 76566 8592/ 333 59019 60729 71850 83707 85612 88458 81925==
41992,2023,08,07,21,00,AAXX 07214 41992 01320 82104 10265 20265 39996 49998 76166 8592/ 333 59024 71780 83707 85613 88458 81925==
41992,2023,08,08,00,00,AAXX 08004 41992 21320 82103 10267 20260 30002 40004 75165 8432/ 333 58003 60079 71670 82708 84614 88458 81925==
41992,2023,08,08,03,00,AAXX 08034 41992 01320 80000 10259 20259 30026 40028 76165 8592/ 333 20253 58015 71540 83708 85614 88458 81925==
41992,2023,08,08,06,00,AAXX 08064 41992 21320 80000 10270 20260 30028 40030 76165 8592/ 333 58018 60179 71510 83708 85614 88458 81925==
41992,2023,08,08,09,00,AAXX 08094 41992 01320 81804 10268 20260 30019 40021 76166 8432/ 333 58024 71050 82708 84614 88458 81925==
41992,2023,08,08,12,00,AAXX 08124 41992 21320 81803 10268 20260 30028 40030 75165 8432/ 333 10274 58032 60029 70980 82708 84614 88458 81925==
41992,2023,08,08,15,00,AAXX 08154 41992 01420 80000 10260 20250 30049 40052 75155 8592/ 333 58037 70620 84614 88458 84925==
41992,2023,08,08,18,00,AAXX 08184 41992 01420 80000 10260 20250 30046 40048 75155 8592/ 333 58040 70260 84614 81825 88458==
41992,2023,08,08,21,00,AAXX 08214 41992 01420 80000 10260 20250 30041 40043 76165 8592/ 333 58045 70280 84614 88458 81925==
41992,2023,08,09,00,00,AAXX 09004 41992 21420 80000 10258 20258 30044 40046 75165 8592/ 333 58042 60029 70210 84614 88458 81925==
41992,2023,08,09,03,00,AAXX 09034 41992 01320 81802 10277 20260 30059 40061 75155 8432/ 333 20255 58033 70130 82708 84614 88458 81925==
41992,2023,08,09,06,00,AAXX 09064 41992 01320 81505 10266 20260 30060 40062 76165 8592/ 333 58032 70110 84614 88458 81925==
41992,2023,08,09,09,00,AAXX 09094 41992 01315 80000 10250 20250 30053 40055 76566 8692/ 333 58034 70540 83707 85612 88458 81925==
41992,2023,08,09,12,00,AAXX 09124 41992 21420 80000 10260 20250 30047 40049 76166 8592/ 333 10290 58019 60479 70560 84614 88458 81925==
41992,2023,08,09,15,00,AAXX 09154 41992 01320 80000 10262 20250 30056 40058 75155 8432/ 333 58007 70560 82708 84614 88458 81925==
41992,2023,08,09,18,00,AAXX 09184 41992 21320 80000 10253 20240 30062 40064 75155 8432/ 333 58016 60009 70540 82708 84614 88458 81925==
41992,2023,08,09,21,00,AAXX 09214 41992 01425 71503 10259 20250 30060 40062 70522 84530 333 58019 70540 84616 87360==
41992,2023,08,10,00,00,AAXX 10004 41992 01425 71503 10260 20250 30061 40063 70522 84530 333 58017 70540 84616 87360==
41992,2023,08,10,03,00,AAXX 10034 41992 01430 70000 10268 20250 30078 40080 70522 83520 333 20250 58019 70540 83616 87460==
41992,2023,08,10,06,00,AAXX 10064 41992 01430 61502 10304 20250 30072 40074 70522 83530 333 58012 70470 83616 86362==
41992,2023,08,10,09,00,AAXX 10094 41992 01430 41502 10300 20260 30054 40056 70521 82530 333 58001 70020 82616 84362==
41992,2023,08,10,12,00,AAXX 10124 41992 41430 61504 10282 20260 30057 40059 70521 84530 333 10314 58010 84616 86362==
41992,2023,08,10,15,00,AAXX 10154 41992 41425 61505 10275 20260 30078 40080 70522 83530 333 58022 83616 86362==
41992,2023,08,10,18,00,AAXX 10184 41992 01425 81504 10265 20250 30072 40074 75122 8432/ 333 58016 70000 83614 88458 81925==
41992,2023,08,10,21,00,AAXX 10214 41992 41425 80000 10260 20240 30066 40068 75155 8592/ 333 58006 84614 88458 81925==
41998,2023,08,04,03,00,AAXX 04034 41998 01456 80000 10280 20270 30011 40017 76166 8442/ 333 20255 58004 70580 83616 88456==
41998,2023,08,04,06,00,AAXX 04064 41998 NIL=
41998,2023,08,04,12,00,AAXX 04124 41998 11456 80000 10282 20260 30053 40059 60026 70262 8442/ 333 10288 58025 70510 83618 88458==
41998,2023,08,04,18,00,AAXX 04184 41998 NIL=
41998,2023,08,05,03,00,AAXX 05034 41998 21456 80000 10265 20260 30071 40077 58015 70450 88456 333 60169==
41998,2023,08,06,12,00,AAXX 06124 41998 21456 80000 10268 20250 30030 40036 72166 8442/ 333 10290 59018 60059 70320 83618 88458==
41998,2023,08,07,00,00,AAXX 07004 41998 21445 81231 10254 20250 30021 40027 76166 8442/ 333 59016 60089 70350 83616 88456==
41998,2023,08,07,03,00,AAXX 07034 41998 01356 81909 10270 20260 30007 40013 76166 8442/ 333 20250 59034 70400 83616 88456==
41998,2023,08,07,06,00,AAXX 07064 41998 21456 80000 10280 20270 30001 40007 76366 8442/ 333 59034 60439 70710 83616 88456==
41998,2023,08,07,12,00,AAXX 07124 41998 21456 80000 10262 20250 30005 40011 72166 8442/ 333 10283 59025 60309 70960 83616 88456==
41998,2023,08,08,03,00,AAXX 08034 41998 01456 80000 10278 20260 30006 40012 76166 8442/ 333 20250 59001 71460 83616 88456==
41998,2023,08,08,06,00,AAXX 08064 41998 21456 80000 10288 20270 30021 40027 76166 8442/ 333 58020 60119 71160 83616 88456==
41998,2023,08,08,12,00,AAXX 08124 41998 21456 80000 10271 20260 30030 40036 76166 8442/ 333 10288 58025 60099 71000 83618 88458==
41998,2023,08,08,18,00,AAXX 08184 41998 NIL=
41998,2023,08,09,00,00,AAXX 09004 41998 21456 80000 10266 20250 30039 40045 76166 8442/ 333 58033 60069 70580 83616 88456==
41998,2023,08,09,03,00,AAXX 09034 41998 01456 80000 10270 20260 30046 40052 76166 8442/ 333 20252 58040 70560 83616 88456==
41998,2023,08,09,06,00,AAXX 09064 41998 21456 80000 10276 20270 30037 40043 76366 8442/ 333 58016 60529 70990 83616 88456==
41998,2023,08,09,12,00,AAXX 09124 41998 NIL=
41998,2023,08,09,18,00,AAXX 09184 41998 NIL=
41998,2023,08,10,00,00,AAXX 10004 41998 NIL=
41998,2023,08,10,03,00,AAXX 10034 41998 01456 80000 10280 20260 30055 40061 76166 8442/ 333 20255 58009 70890 83616 88456==
41998,2023,08,10,06,00,AAXX 10064 41998 21456 80000 10298 20270 30053 40059 72162 8442/ 333 58016 60055 70430 83618 88458==
41998,2023,08,10,12,00,AAXX 10124 41998 02456 80000 10273 20250 30055 40061 8442/ 333 10301 58007 70080 83618==
