ESTACION,ANO,MES,DIA,HORA,MINUTO,PARTE
41850,2023,05,26,00,00,AAXX 26004 41850 31950 00000 10211 20200 39960 40060 70520 333 59001 70130=
41850,2023,05,26,06,00,AAXX 26064 41850 32457 21304 10300 20190 39973 40070 82500 333 56900 58011 70130 82618=
41850,2023,05,26,12,00,AAXX 26124 41850 32456 50000 10300 20220 39944 40042 82510 333 10317 56990 58012 70130 82618 85458=
41850,2023,05,26,18,00,AAXX 26184 41850 NIL=
41850,2023,05,27,00,00,AAXX 27004 41850 11330 81809 10218 20210 39951 40051 60183 76166 8572/ 333 56999 59009 70180 83707 84614 88458=
41850,2023,05,27,06,00,AAXX 27064 41850 11450 71306 10254 20210 39969 40068 60093 70596 83510 333 56990 59004 70270 83618 87458=
41850,2023,05,27,12,00,AAXX 27124 41850 32956 60000 10274 20210 39954 40053 86030 333 56090 58010 70270 86362=
41850,2023,05,27,18,00,AAXX 27184 41850 NIL=
41850,2023,05,28,00,00,AAXX 28004 41850 31950 00000 10217 20217 39991 40091 70500 333 58040 70090=
41850,2023,05,28,06,00,AAXX 28064 41850 32457 31302 10302 20220 39981 40079 83500 333 56900 58012 70010 83618=
41850,2023,05,28,12,00,AAXX 28124 41850 32956 00000 10310 20220 39958 40055 333 10327 58004 70000=
41850,2023,05,28,18,00,AAXX 28184 41850 31930 02309 10250 20240 39980 40079 70500 333 58012 70000=
41850,2023,05,29,00,00,AAXX 29004 41850 31940 00000 10228 20220 39980 40080 70500 333 59011 70000=
41850,2023,05,29,06,00,AAXX 29064 41850 32957 00000 10338 20220 39984 40081 333 58003 70000=
41850,2023,05,29,12,00,AAXX 29124 41850 32956 00000 10335 20230 39957 40053 333 10357 59001 70000=
41850,2023,05,29,18,00,AAXX 29184 41850 31930 00000 10270 20240 39968 40066 70500 333 59012 70000=
41850,2023,05,30,00,00,AAXX 30004 41850 31940 00000 10247 20240 39969 40068 70500 333 59011 70000=
41850,2023,05,30,06,00,AAXX 30064 41850 32957 00000 10350 20180 39966 40062 333 59018 70000=
41850,2023,05,30,12,00,AAXX 30124 41850 32956 01803 10345 20250 39935 40031 333 10372 59022 70000=
41850,2023,05,30,18,00,AAXX 30184 41850 31930 00000 10275 20270 39947 40045 70500 333 59021 70000=
41850,2023,05,31,00,00,AAXX 31004 41850 31940 20000 10253 20230 39948 40046 70520 82500 333 56900 59021 70000 82618=
41850,2023,05,31,06,00,AAXX 31064 41850 32957 00903 10355 20230 39955 40050 333 59011 70000=
41850,2023,05,31,12,00,AAXX 31124 41850 32956 01803 10345 20270 39914 40009 333 10381 59021 70000=
41850,2023,05,31,18,00,AAXX 31184 41850 31430 60000 10291 20270 39919 40016 70521 82510 333 56990 59028 70000 82618 85458=
41850,2023,06,01,00,00,AAXX 01004 41850 31440 30000 10260 20230 39926 40024 70521 83500 333 56900 70000=
41850,2023,06,01,06,00,AAXX 01064 41850 32958 00000 10345 20250 39931 40027 333 59024 70000=
41850,2023,06,01,12,00,AAXX 01124 41850 31950 02303 10315 20220 39894 49990 333 10380 59020=
41850,2023,06,01,18,00,AAXX 01184 41850 31930 00000 10268 20240 39911 40009 70500 333 59008 70000=
41851,2023,05,26,00,00,AAXX 26004 41851 31440 80000 10218 20210 30007 40071 8352/ 333 56999 58004 70166 83618 88458=
41851,2023,05,26,06,00,AAXX 26064 41851 32450 30000 10304 20220 30026 40088 83500 333 56900 58018 70166 83618=
41851,2023,05,26,12,00,AAXX 26124 41851 32450 10000 10303 20220 39982 40044 81500 333 10321 56900 58014 70166 81618=
41851,2023,05,26,18,00,AAXX 26184 41851 32450 10902 10254 20230 30000 40063 81500 333 56900 58008 70000 81618=
41851,2023,05,27,00,00,AAXX 27004 41851 11350 80901 10225 20220 39993 40056 60025 70262 8462/ 333 56299 59014 70015 81709 83617 88457=
41851,2023,05,27,06,00,AAXX 27064 41851 32450 80901 10265 20220 30019 40082 8352/ 333 56999 59007 70015 83618 88458=
41851,2023,05,27,12,00,AAXX 27124 41851 32450 20000 10284 20220 39994 40056 82400 333 10305 56900 58012 70015 81618=
41851,2023,05,27,18,00,AAXX 27184 41851 32950 00901 10240 20230 30007 40070 333 58007 70015=
41851,2023,05,28,00,00,AAXX 28004 41851 32950 00901 10230 20225 30016 40079 333 58023 70000=
41851,2023,05,28,06,00,AAXX 28064 41851 32450 50703 10305 20230 30024 40086 83430 333 56990 58005 70000 82618 83362=
41851,2023,05,28,12,00,AAXX 28124 41851 32450 30701 10305 20240 39996 40058 82530 333 10326 56990 58002 70000 82618=
41851,2023,05,28,18,00,AAXX 28184 41851 32950 00000 10250 20240 30021 40084 333 58014 70000=
41851,2023,05,29,00,00,AAXX 29004 41851 31940 00000 10235 20230 30024 40087 70500 333 58008 70000=
41851,2023,05,29,06,00,AAXX 29064 41851 32450 30000 10338 20220 30026 40087 81530 333 56990 58002 70000 81618 83362=
41851,2023,05,29,12,00,AAXX 29124 41851 32950 00000 10350 20210 39993 40054 333 10360 59003 70000=
41851,2023,05,29,18,00,AAXX 29184 41851 32940 20000 10265 20250 30012 40075 82030 333 56090 59009 70000 82362=
41851,2023,05,30,00,00,AAXX 30004 41851 32440 40000 10240 20230 30010 40073 81530 333 56990 59014 70000 81618 83362=
41851,2023,05,30,06,00,AAXX 30064 41851 32950 22301 10350 20220 30012 40073 82030 333 56090 59014 70000 82362=
41851,2023,05,30,12,00,AAXX 30124 41851 32950 40000 10350 20200 39979 40040 84030 333 10370 56090 59014 70000 84362=
41851,2023,05,30,18,00,AAXX 30184 41851 32940 00000 10272 20260 39987 40050 333 59025 70000=
41851,2023,05,31,00,00,AAXX 31004 41851 32940 20000 10260 20250 39980 40043 82030 333 56090 59030 70000 82362=
41851,2023,05,31,06,00,AAXX 31064 41851 32950 22301 10360 20210 39984 40045 82030 333 56090 59028 70000 82362=
41851,2023,05,31,12,00,AAXX 31124 41851 32950 50000 10343 20270 39947 40008 84430 333 10380 56990 59032 70000 83618 83362=
41851,2023,05,31,18,00,AAXX 31184 41851 32450 41802 10300 20260 39966 40028 84430 333 56990 59021 70000 83618 82362=
41851,2023,06,01,00,00,AAXX 01004 41851 32940 32302 10267 20250 39964 40026 83030 333 56090 59016 70000 83362=
41851,2023,06,01,06,00,AAXX 01064 41851 32950 02302 10355 20260 39975 40036 333 59009 70000=
41851,2023,06,01,12,00,AAXX 01124 41851 32450 20901 10360 20160 39932 49992 81530 333 10385 56990 59015 70000 81618=
41851,2023,06,01,18,00,AAXX 01184 41851 32950 00000 10259 20240 39961 40024 333 59005 70000=
41856,2023,05,26,00,00,AAXX 26004 41856 32440 51801 10200 20190 30041 40077 83430 333 56990 58010 70120 81618 83825 85362=
41856,2023,05,26,06,00,AAXX 26064 41856 32956 21801 10298 20210 30055 40090 82030 333 56090 58019 70120 82362=
41856,2023,05,26,12,00,AAXX 26124 41856 32956 21802 10302 20220 30014 40049 82030 333 10317 56090 58017 70120 82362=
41856,2023,05,26,18,00,AAXX 26184 41856 32930 40000 10258 20240 30024 40059 84030 333 56090 58012 70000 82362=
41856,2023,05,27,00,00,AAXX 27004 41856 32440 80502 10230 20210 30024 40060 8452/ 333 56999 59017 70000 84615 88458=
41856,2023,05,27,06,00,AAXX 27064 41856 11450 80502 10275 20230 30041 40076 60036 70262 8452/ 333 56999 59014 70028 84615 88458=
41856,2023,05,27,12,00,AAXX 27124 41856 32950 00000 10270 20220 30025 40060 333 10280 58011 70028=
41856,2023,05,27,18,00,AAXX 27184 41856 32940 00000 10240 20220 30040 40076 333 58016 70028=
41856,2023,05,28,00,00,AAXX 28004 41856 32940 30000 10230 20220 30043 40079 83030 333 56090 58019 70028 83362=
41856,2023,05,28,06,00,AAXX 28064 41856 32456 40701 10304 20230 30048 40083 84400 333 56060 58007 70000 82618=
41856,2023,05,28,12,00,AAXX 28124 41856 32956 00000 10312 20230 30024 40059 333 10330 59001 70000=
41856,2023,05,28,18,00,AAXX 28184 41856 32940 00000 10253 20230 30044 40080 333 58004 70000=
41856,2023,05,29,00,00,AAXX 29004 41856 32940 00000 10234 20220 30047 40083 333 58004 70000=
41856,2023,05,29,06,00,AAXX 29064 41856 32956 00702 10340 20230 30053 40088 333 58005 70000=
41856,2023,05,29,12,00,AAXX 29124 41856 32956 00000 10348 20240 30018 40052 333 10358 59006 70000=
41856,2023,05,29,18,00,AAXX 29184 41856 32940 00701 10263 20250 30044 40080 333 58000 70000=
41856,2023,05,30,00,00,AAXX 30004 41856 32940 00000 10248 20240 30038 40074 333 59009 70000=
41856,2023,05,30,06,00,AAXX 30064 41856 32956 20701 10353 20220 30038 40073 82030 333 56090 59015 70000 82362=
41856,2023,05,30,12,00,AAXX 30124 41856 32956 20000 10346 20270 30001 40035 82030 333 10375 56090 59017 70000 82362=
41856,2023,05,30,18,00,AAXX 30184 41856 32930 00000 10270 20260 30024 40059 333 59020 70000=
41856,2023,05,31,00,00,AAXX 31004 41856 32940 30000 10255 20250 30017 40052 83030 333 56090 59021 70000 83362=
41856,2023,05,31,06,00,AAXX 31064 41856 NIL=
41856,2023,05,31,12,00,AAXX 31124 41856 32956 10000 10340 20270 39977 40011 81030 333 10376 56090 59024 70000 81362=
41856,2023,05,31,18,00,AAXX 31184 41856 32930 01802 10286 20270 39997 40032 333 59027 70000=
41856,2023,06,01,00,00,AAXX 01004 41856 32440 50902 10270 20260 39994 40029 82530 333 56990 59023 70000 82618 85362=
41856,2023,06,01,06,00,AAXX 01064 41856 32956 01302 10355 20230 30004 40038 333 59015 70000=
41856,2023,06,01,12,00,AAXX 01124 41856 32956 00000 10358 20240 39959 49993 333 10390 59018 70000=
41856,2023,06,01,18,00,AAXX 01184 41856 32930 00000 10265 20240 39990 40025 333 59007 70000=
41858,2023,05,26,00,00,AAXX 26004 41858 01425 40000 10240 20220 30034 40080 71022 83520 333 58011 70070 83616 84458==
41858,2023,05,26,03,00,AAXX 26034 41858 01440 50906 10270 20220 30050 40096 70522 85800 333 20218 58016 70070 83615 83825==
41858,2023,05,26,06,00,AAXX 26064 41858 01450 51306 10310 20210 30045 40090 70522 85800 333 58017 70070 83615 83825==
41858,2023,05,26,12,00,AAXX 26124 41858 01550 21506 10320 20210 30003 40048 70520 82100 333 10335 58013 70070 82825==
41858,2023,05,26,15,00,AAXX 26154 41858 01540 20000 10280 20250 30024 40069 70500 82100 333 58016 70070 82825==
41858,2023,05,26,18,00,AAXX 26184 41858 01940 00000 10250 20220 30038 40085 70500 333 58020 70000==
41858,2023,05,27,00,00,AAXX 27004 41858 01940 40000 10250 20230 30014 40060 70522 82530 333 59020 70000 82618 83362==
41858,2023,05,27,03,00,AAXX 27034 41858 01450 73305 10280 20220 30029 40074 70522 84520 333 20230 59021 70000 84615 86458==
41858,2023,05,27,06,00,AAXX 27064 41858 01450 73610 10300 20230 30034 40079 70522 84520 333 59011 70000 84615 86458==
41858,2023,05,27,09,00,AAXX 27094 41858 01450 60306 10315 20230 30019 40063 70522 84520 333 58004 70000 84615 86458==
41858,2023,05,27,12,00,AAXX 27124 41858 01450 60906 10298 20230 30012 40057 70522 83520 333 10318 58009 70000 83616 86458==
41858,2023,05,27,15,00,AAXX 27154 41858 01/40 20606 10265 20240 30027 40072 70520 82030 333 58003 70000 82362==
41858,2023,05,27,18,00,AAXX 27184 41858 01/40 20605 10255 20230 30030 40076 70520 82030 333 59008 70000 82362==
41858,2023,05,27,21,00,AAXX 27214 41858 01915 00305 10250 20230 30027 40072 71000 333 58004 70000==
41858,2023,05,28,00,00,AAXX 28004 41858 01912 00305 10244 20230 30032 40078 71000 333 58018 70000==
41858,2023,05,28,03,00,AAXX 28034 41858 01440 33605 10294 20240 30049 40094 70500 83500 333 20234 58020 70000 83618==
41858,2023,05,28,06,00,AAXX 28064 41858 01450 53605 10316 20230 30040 40085 70520 83520 333 58006 70000 83616 84458==
41858,2023,05,28,09,00,AAXX 28094 41858 01450 53605 10340 20230 30023 40067 70522 83520 333 58004 70000 83616 85458==
41858,2023,05,28,12,00,AAXX 28124 41858 01450 30305 10324 20230 30014 40058 70521 83500 333 10343 58002 70000 83618==
41858,2023,05,28,15,00,AAXX 28154 41858 01940 00000 10284 20240 30030 40075 70510 333 58003 70000==
41858,2023,05,28,18,00,AAXX 28184 41858 01940 00605 10264 20230 30046 40092 70500 333 58016 70000==
41858,2023,05,28,21,00,AAXX 28214 41858 01940 00000 10260 20240 30038 40084 70500 333 58008 70000==
41858,2023,05,29,00,00,AAXX 29004 41858 01940 00000 10258 20240 30044 40090 70500 333 58012 70000==
41858,2023,05,29,03,00,AAXX 29034 41858 01950 03305 10328 20230 30056 40101 70500 333 20245 58007 70000==
41858,2023,05,29,06,00,AAXX 29064 41858 01550 23305 10346 20230 30045 40089 70520 82100 333 58005 70000 82825==
41858,2023,05,29,09,00,AAXX 29094 41858 01450 30605 10365 20230 30024 40067 70522 83500 333 58001 70000 83625==
41858,2023,05,29,12,00,AAXX 29124 41858 01950 00000 10344 20220 30011 40055 70520 333 10368 59003 70000==
41858,2023,05,29,15,00,AAXX 29154 41858 01940 00000 10290 20240 30028 40073 70500 333 59002 70000==
41858,2023,05,29,18,00,AAXX 29184 41858 01940 00000 10264 20230 30043 40089 70500 333 59003 70000==
41858,2023,05,29,21,00,AAXX 29214 41858 01930 00000 10260 20240 30032 40078 70500 333 59006 70000==
41858,2023,05,30,00,00,AAXX 30004 41858 01915 20000 10270 20250 30031 40077 71000 80001 333 59013 70000 82074==
41858,2023,05,30,03,00,AAXX 30034 41858 01/35 30000 10334 20240 30042 40086 70510 83030 333 20250 59014 70000 83362==
41858,2023,05,30,06,00,AAXX 30064 41858 01550 30505 10366 20230 30029 40073 70511 83100 333 59016 70000 83825==
41858,2023,05,30,09,00,AAXX 30094 41858 01450 53605 10374 20220 30008 40051 70521 83520 333 59016 70000 83625 84458==
41858,2023,05,30,12,00,AAXX 30124 41858 01950 20605 10354 20210 39990 40034 70511 80001 333 10377 59021 70000 82074==
41858,2023,05,30,15,00,AAXX 30154 41858 01940 00605 10303 20240 30013 40058 70500 333 59015 70000==
41858,2023,05,30,18,00,AAXX 30184 41858 01940 00605 10278 20250 30034 40079 70500 333 59009 70000==
41858,2023,05,30,21,00,AAXX 30214 41858 01930 00000 10278 20250 30022 40067 70500 333 59010 70000==
41858,2023,05,31,00,00,AAXX 31004 41858 01920 00000 10278 20240 30017 40062 71000 333 59014 70000==
41858,2023,05,31,03,00,AAXX 31034 41858 01935 01505 10334 20240 30021 40065 70500 333 20262 59021 70000==
41858,2023,05,31,06,00,AAXX 31064 41858 01440 41805 10380 20220 30008 40051 70520 84500 333 59021 70000 84625==
41858,2023,05,31,09,00,AAXX 31094 41858 01440 42705 10390 20220 39982 40026 70520 84800 333 59026 70000 82618 83825==
41858,2023,05,31,12,00,AAXX 31124 41858 01440 50000 10362 20240 39968 40011 70520 83520 333 10400 59022 70000 83615 84458==
41858,2023,05,31,15,00,AAXX 31154 41858 01/35 40000 10316 20250 39980 40024 70511 84030 333 59033 70000 84362==
41858,2023,05,31,18,00,AAXX 31184 41858 01/30 40000 10300 20260 39989 40034 70522 84040 333 59045 70000 84362==
41858,2023,05,31,21,00,AAXX 31214 41858 01940 40000 10290 20250 39983 40028 70522 84399 333 59039 70000 84362==
41858,2023,06,01,00,00,AAXX 01004 41858 01/40 40000 10276 20250 39983 40028 70522 84030 333 59034 70000 84362==
41858,2023,06,01,03,00,AAXX 01034 41858 01940 02705 10330 20250 39997 40041 70500 333 20272 59024 70000==
41858,2023,06,01,06,00,AAXX 01064 41858 01940 02106 10378 20220 39993 40036 70500 333 59015 70000==
41858,2023,06,01,09,00,AAXX 01094 41858 01950 02710 10402 20220 39965 40008 70500 333 59017 70000==
41858,2023,06,01,12,00,AAXX 01124 41858 01950 22405 10360 20190 39953 49996 70510 80001 333 10405 59014 70000 82074==
41858,2023,06,01,15,00,AAXX 01154 41858 01940 00000 10294 20210 39971 40016 70500 333 59009 70000==
41858,2023,06,01,18,00,AAXX 01184 41858 01940 00000 10280 20220 39986 40031 70500 333 59003 70000==
41858,2023,06,01,21,00,AAXX 01214 41858 01940 01804 10262 20200 39975 40010 70500 333 59008 70000==
41859,2023,05,26,00,00,AAXX 26004 41859 02440 81301 10226 20226 30033 40071 8562/ 333 58000 70360 83710 84616 88458==
41859,2023,05,26,03,00,AAXX 26034 41859 02450 52702 10269 20220 30060 40097 83520 333 20218 58017 70360 83618 85458==
41859,2023,05,26,06,00,AAXX 26064 41859 02450 50000 10296 20220 30054 40091 83520 333 58018 70360 83618 85458==
41859,2023,05,26,09,00,AAXX 26094 41859 02450 51303 10319 20210 30022 40058 83520 333 58012 70360 83618 85458==
41859,2023,05,26,12,00,AAXX 26124 41859 02450 32302 10325 20220 30015 40051 83500 333 10328 58017 70360 83618==
41859,2023,05,26,15,00,AAXX 26154 41859 02430 61302 10284 20230 30032 40069 83530 333 58017 70360 83618 85362==
41859,2023,05,26,18,00,AAXX 26184 41859 02430 71302 10274 20240 30023 40060 84610 333 59004 70000 82710 83618 87458==
41859,2023,05,26,21,00,AAXX 26214 41859 02430 83602 10264 20240 30014 40051 8562/ 333 59016 70000 83710 84618 88458==
41859,2023,05,27,00,00,AAXX 27004 41859 02435 80502 10242 20220 30020 40057 8562/ 333 59013 70000 83710 84618 88458==
41859,2023,05,27,03,00,AAXX 27034 41859 02450 80000 10274 20230 30035 40072 8562/ 333 20238 59025 70000 83710 84618 88458==
41859,2023,05,27,06,00,AAXX 27064 41859 01450 80000 10276 20240 30043 40080 76122 8572/ 333 59017 70002 83710 84618 88458==
41859,2023,05,27,09,00,AAXX 27094 41859 01450 60902 10288 20240 30026 40063 70162 85410 333 58004 70026 83618 84828 86458==
41859,2023,05,27,12,00,AAXX 27124 41859 11950 00902 10285 20240 30022 40059 60026 70162 333 10300 58007 70026==
41859,2023,05,27,15,00,AAXX 27154 41859 02930 00902 10256 20240 30036 40073 333 58004 70026==
41859,2023,05,27,18,00,AAXX 27184 41859 02430 50901 10248 20240 30034 40071 83510 333 58011 70026 83618 85458==
41859,2023,05,27,21,00,AAXX 27214 41859 02430 50902 10245 20240 30030 40067 83510 333 58016 70026 83618 85458==
41859,2023,05,28,00,00,AAXX 28004 41859 02435 80502 10240 20240 30042 40080 8562/ 333 58022 70026 83710 84618 88458==
41859,2023,05,28,03,00,AAXX 28034 41859 02450 50502 10293 20230 30057 40097 84620 333 20238 58022 70026 82710 83618 85458==
41859,2023,05,28,06,00,AAXX 28064 41859 02450 50502 10316 20240 30048 40085 84620 333 58005 70024 82710 83618 85458==
41859,2023,05,28,09,00,AAXX 28094 41859 02456 20502 10331 20220 30030 40066 82500 333 58004 70000 82618==
41859,2023,05,28,12,00,AAXX 28124 41859 02450 20501 10316 20230 30023 40059 82500 333 10335 58001 70000 82618==
41859,2023,05,28,15,00,AAXX 28154 41859 02930 00000 10286 20250 30040 40077 333 58004 70000==
41859,2023,05,28,18,00,AAXX 28184 41859 02930 00000 10271 20250 30047 40084 333 58013 70000==
41859,2023,05,28,21,00,AAXX 28214 41859 02430 40000 10262 20240 30045 40082 82520 333 58015 70000 82618 84458==
41859,2023,05,29,00,00,AAXX 29004 41859 02440 40501 10257 20240 30043 40080 82520 333 58001 70000 82618 84458==
41859,2023,05,29,03,00,AAXX 29034 41859 02950 00502 10321 20220 30061 40098 333 20250 58004 70000==
41859,2023,05,29,06,00,AAXX 29064 41859 02950 00502 10349 20210 30052 40088 333 58004 70000==
41859,2023,05,29,09,00,AAXX 29094 41859 02450 41302 10356 20210 30031 40067 82520 333 58001 70000 82618 84458==
41859,2023,05,29,12,00,AAXX 29124 41859 02950 00000 10350 20210 30019 40055 333 10358 59004 70000==
41859,2023,05,29,15,00,AAXX 29154 41859 02930 00000 10305 20260 30038 40075 333 59002 70000==
41859,2023,05,29,18,00,AAXX 29184 41859 02930 00000 10285 20260 30041 40078 333 59006 70000==
41859,2023,05,29,21,00,AAXX 29214 41859 02930 00000 10275 20260 30035 40072 333 59010 70000==
41859,2023,05,30,00,00,AAXX 30004 41859 02/50 40000 10270 20250 30036 40073 84030 333 59007 70000 84362==
41859,2023,05,30,03,00,AAXX 30034 41859 02450 20000 10331 20230 30051 40087 82500 333 20263 59010 70000 82618==
41859,2023,05,30,06,00,AAXX 30064 41859 02450 20000 10359 20220 30038 40074 82500 333 59014 70000 82618==
41859,2023,05,30,09,00,AAXX 30094 41859 02450 42302 10373 20220 30015 40051 82520 333 59016 70000 82618 84458==
41859,2023,05,30,12,00,AAXX 30124 41859 02450 40902 10357 20240 39998 40034 82520 333 10375 59021 70000 82618 84458==
41859,2023,05,30,15,00,AAXX 30154 41859 02930 00000 10317 20270 30022 40058 333 59016 70000==
41859,2023,05,30,18,00,AAXX 30184 41859 02930 00000 10296 20270 30023 40060 333 59018 70000==
41859,2023,05,30,21,00,AAXX 30214 41859 02430 80000 10284 20260 30017 40054 8562/ 333 59018 70000 82710 83618 88458==
41859,2023,05,31,00,00,AAXX 31004 41859 02435 80000 10280 20250 30020 40057 8562/ 333 59016 70000 82710 84618 88458==
41859,2023,05,31,03,00,AAXX 31034 41859 02950 00000 10341 20250 30029 40066 333 20275 59022 70000==
41859,2023,05,31,06,00,AAXX 31064 41859 02950 00000 10369 20240 30020 40056 333 59018 70000==
41859,2023,05,31,09,00,AAXX 31094 41859 02450 41702 10381 20230 39994 40030 82520 333 59021 70000 82618 84458==
41859,2023,05,31,12,00,AAXX 31124 41859 02450 41701 10373 20230 39975 40011 82520 333 10385 59023 70000 82618 84458==
41859,2023,05,31,15,00,AAXX 31154 41859 02430 41301 10325 20270 39989 40025 82520 333 59033 70000 82618 84458==
41859,2023,05,31,18,00,AAXX 31184 41859 02430 41802 10310 20260 39996 40032 82520 333 59027 70000 82618 84458==
41859,2023,05,31,21,00,AAXX 31214 41859 02430 80000 10294 20250 39992 40029 8562/ 333 59025 70000 82710 84618 88458==
41859,2023,06,01,00,00,AAXX 01004 41859 02430 80000 10287 20260 39993 40030 8562/ 333 59027 70000 82710 84618 88458==
41859,2023,06,01,03,00,AAXX 01034 41859 02450 50000 10329 20240 30005 40042 83510 333 20284 59024 70000 83618 85458==
41859,2023,06,01,06,00,AAXX 01064 41859 02450 30000 10365 20240 30003 40039 83500 333 59017 70000 83617==
41859,2023,06,01,09,00,AAXX 01094 41859 02/56 23102 10400 20120 39971 40006 82030 333 59023 70000 82362==
41859,2023,06,01,12,00,AAXX 01124 41859 02950 03102 10372 20180 39962 49998 333 10400 59013 70000==
41859,2023,06,01,15,00,AAXX 01154 41859 02930 00000 10304 20240 39979 40016 333 59010 70000==
41859,2023,06,01,18,00,AAXX 01184 41859 02930 00000 10292 20220 39990 40027 333 59006 70000==
41859,2023,06,01,21,00,AAXX 01214 41859 02930 01701 10272 20240 39985 40022 333 59007 70000==
41863,2023,05,26,00,00,AAXX 26004 41863 02456 50901 10230 20220 30029 40072 82520 333 58005 70000 82618 85458==
41863,2023,05,26,03,00,AAXX 26034 41863 02957 01301 10290 20220 30051 40093 333 20226 58015 70000==
41863,2023,05,26,06,00,AAXX 26064 41863 02557 30901 10315 20210 30046 40088 83400 333 58017 70000 83620==
41863,2023,05,26,09,00,AAXX 26093 41863 02557 30901 10330 20210 30011 40053 83400 333 58009 70000 83620==
41863,2023,05,26,12,00,AAXX 26124 41863 02557 20902 10326 20220 30002 40044 82400 333 10335 58013 70000 82620==
41863,2023,05,26,15,00,AAXX 26154 41863 02950 00000 10284 20230 30020 40062 333 58013 70000==
41863,2023,05,26,18,00,AAXX 26184 41863 02550 20000 10271 20240 30015 40058 82400 333 59002 70000 82620==
41863,2023,05,27,00,00,AAXX 27004 41863 02950 20904 10245 20230 30011 40054 80002 333 59018 70000 82074==
41863,2023,05,27,03,00,AAXX 27034 41863 02457 43601 10272 20220 30032 40075 84500 333 20239 59019 70000 84618==
41863,2023,05,27,06,00,AAXX 27064 41863 02557 20505 10298 20220 30035 40077 82400 333 59011 70000 82620==
41863,2023,05,27,09,00,AAXX 27094 41863 02557 50504 10315 20230 30017 40059 85400 333 58006 70000 83618 85828==
41863,2023,05,27,12,00,AAXX 27124 41863 02456 70904 10300 20230 30011 40053 84520 333 10320 58009 70000 84618 87458==
41863,2023,05,27,15,00,AAXX 27154 41863 02950 00503 10270 20230 30028 40071 333 58008 70000==
41863,2023,05,27,18,00,AAXX 27184 41863 02950 00000 10246 20240 30035 40078 333 58020 70000==
41863,2023,05,27,21,00,AAXX 27214 41863 02950 00000 10244 20230 30031 40074 333 58018 70000==
41863,2023,05,28,00,00,AAXX 28004 41863 02950 00000 10239 20230 30033 40076 333 58022 70000==
41863,2023,05,28,03,00,AAXX 28034 41863 02956 00503 10280 20240 30050 40093 333 20233 58018 70000==
41863,2023,05,28,06,00,AAXX 28064 41863 02557 50504 10326 20220 30041 40083 85400 333 58006 70000 83618 85828==
41863,2023,05,28,09,00,AAXX 28094 41863 02457 51302 10340 20200 30024 40065 85400 333 58007 70000 83618 85825==
41863,2023,05,28,12,00,AAXX 28124 41863 02557 30902 10330 20210 30014 40056 83400 333 10349 58003 70000 83620==
41863,2023,05,28,15,00,AAXX 28154 41863 02956 00000 10288 20240 30036 40078 333 58008 70000==
41863,2023,05,28,18,00,AAXX 28184 41863 02956 00000 10270 20240 30041 40084 333 58006 70000==
41863,2023,05,28,21,00,AAXX 28214 41863 02956 00000 10260 20240 30040 40083 333 58009 70000==
41863,2023,05,29,00,00,AAXX 29004 41863 02956 00000 10252 20240 30045 40088 333 58012 70000==
41863,2023,05,29,03,00,AAXX 29034 41863 02957 00902 10320 20230 30057 40100 333 20245 58007 70000==
41863,2023,05,29,06,00,AAXX 29064 41863 02557 30902 10350 20210 30046 40088 83400 333 58005 70000 83825==
41863,2023,05,29,09,00,AAXX 29094 41863 02557 30902 10355 20210 30024 40065 83400 333 58000 70000 83620==
41863,2023,05,29,12,00,AAXX 29124 41863 02956 00901 10357 20210 30012 40053 333 10365 59002 70000==
41863,2023,05,29,15,00,AAXX 29154 41863 02950 00000 10300 20240 30028 40070 333 59008 70000==
41863,2023,05,29,18,00,AAXX 29184 41863 02950 00000 10275 20250 30039 40082 333 59002 70000==
41863,2023,05,29,21,00,AAXX 29214 41863 02950 00000 10271 20240 30033 40076 333 59007 70000==
41863,2023,05,30,00,00,AAXX 30004 41863 02950 00000 10260 20240 30032 40075 333 59013 70000==
41863,2023,05,30,03,00,AAXX 30034 41863 02957 00901 10344 20230 30043 40085 333 20253 59014 70000==
41863,2023,05,30,06,00,AAXX 30064 41863 02557 20902 10373 20210 30030 40071 82400 333 59016 70000 82620==
41863,2023,05,30,09,00,AAXX 30094 41863 02557 31803 10382 20200 30008 40049 83400 333 59016 70000 83620==
41863,2023,05,30,12,00,AAXX 30124 41863 02957 00000 10366 20220 39990 40031 333 10384 59022 70000==
41863,2023,05,30,15,00,AAXX 30154 41863 02956 00000 10306 20260 30015 40057 333 59013 70000==
41863,2023,05,30,21,00,AAXX 30214 41863 02950 00000 10280 20250 30008 40050 333 59025 70000==
41863,2023,05,31,00,00,AAXX 31004 41863 02950 00000 10270 20250 30009 40052 333 59023 70000==
41863,2023,05,31,03,00,AAXX 31034 41863 02957 00000 10350 20250 30021 40062 333 20264 59022 70000==
41863,2023,05,31,06,00,AAXX 31064 41863 02557 21302 10376 20230 30008 40049 82400 333 59022 70000 82620==
41863,2023,05,31,09,00,AAXX 31094 41863 02557 42301 10397 20220 39978 40019 84400 333 59030 70000 84620==
41863,2023,05,31,12,00,AAXX 31124 41863 02/56 40000 10356 20250 39968 40009 84030 333 10399 59022 70000 84362==
41863,2023,05,31,15,00,AAXX 31154 41863 02950 00000 10318 20250 39984 40026 333 59031 70000==
41863,2023,05,31,18,00,AAXX 31184 41863 02/50 20902 10312 20230 39989 40031 82030 333 59030 70000 82362==
41863,2023,05,31,21,00,AAXX 31214 41863 02550 20901 10306 20250 39985 40027 82400 333 59023 70000 82620==
41863,2023,06,01,00,00,AAXX 01004 41863 02950 20000 10278 20240 39981 40023 80002 333 70000 82074==
41863,2023,06,01,03,00,AAXX 01034 41863 02957 22704 10335 20220 39998 40039 80002 333 20272 59023 70000 82074==
41863,2023,06,01,06,00,AAXX 01064 41863 02957 02705 10390 20170 39995 40036 333 59013 70000==
41863,2023,06,01,09,00,AAXX 01094 41863 02957 02304 10410 20160 39964 40004 333 59014 70000==
41863,2023,06,01,12,00,AAXX 01124 41863 02957 02903 10385 20160 39956 49997 333 10410 59012 70000==
41863,2023,06,01,15,00,AAXX 01154 41863 02956 00000 10300 20240 39973 40015 333 59011 70000==
41863,2023,06,01,18,00,AAXX 01184 41863 02956 00000 10282 20230 39981 40023 333 59008 70000==
41863,2023,06,01,21,00,AAXX 01214 41863 02956 00000 10278 20220 39974 40016 333 59011 70000==
41881,2023,05,26,00,00,AAXX 26004 41881 32457 21202 10222 20220 30054 40074 82500 333 56900 58011 70160 82615=
41881,2023,05,26,06,00,AAXX 26064 41881 32458 31902 10301 20210 30069 40089 83500 333 56900 58019 70160 83617=
41881,2023,05,26,12,00,AAXX 26124 41881 32457 31701 10312 20220 30030 40050 83500 333 10330 56900 58021 70160 83618=
41881,2023,05,26,18,00,AAXX 26184 41881 32450 21801 10260 20220 30039 40059 82500 333 56900 59002 70000 82618=
41881,2023,05,27,00,00,AAXX 27004 41881 32456 32202 10234 20210 30034 40054 83500 333 56900 59020 70000 83618=
41881,2023,05,27,06,00,AAXX 27064 41881 11456 60901 10295 20220 30055 40075 60038 70162 83520 333 56490 59014 70030 83618 86459=
41881,2023,05,27,12,00,AAXX 27124 41881 32456 60901 10290 20220 30032 40052 83520 333 10315 56490 58002 70030 83618 86459=
41881,2023,05,27,18,00,AAXX 27184 41881 11450 41801 10250 20240 30055 40075 60053 70262 84500 333 56900 58016 70080 84618=
41881,2023,05,28,00,00,AAXX 28004 41881 32456 30901 10228 20228 30051 40071 83500 333 56900 58017 70080 83618=
41881,2023,05,28,06,00,AAXX 28064 41881 32457 50602 10324 20230 30060 40080 83520 333 56990 58005 70050 83617 85459=
41881,2023,05,28,12,00,AAXX 28124 41881 32456 20000 10310 20250 30036 40056 82500 333 10344 56900 58004 70050 82618=
41881,2023,05,28,18,00,AAXX 28184 41881 32950 01701 10260 20250 30064 40084 333 58009 70000=
41881,2023,05,29,00,00,AAXX 29004 41881 32956 00000 10250 20240 30067 40087 333 58016 70000=
41881,2023,05,29,06,00,AAXX 29064 41881 32457 53201 10340 20230 30066 40086 83520 333 56990 58006 70000 83617 85459=
41881,2023,05,29,12,00,AAXX 29124 41881 32957 00000 10344 20230 30033 40053 333 10366 59003 70000=
41881,2023,05,29,18,00,AAXX 29184 41881 32950 00000 10270 20250 30059 40079 333 59005 70000=
41881,2023,05,30,00,00,AAXX 30004 41881 32956 00000 10258 20258 30053 40073 333 59014 70000=
41881,2023,05,30,06,00,AAXX 30064 41881 32457 51801 10358 20230 30048 40068 83520 333 56990 59018 70000 83617 85459=
41881,2023,05,30,12,00,AAXX 30124 41881 32456 50000 10340 20270 30014 40034 83520 333 10375 56990 59019 70000 83617 85459=
41881,2023,05,30,18,00,AAXX 30184 41881 32950 00000 10280 20260 30040 40059 333 59019 70000=
41881,2023,05,31,00,00,AAXX 31004 41881 32956 00000 10268 20260 30034 40054 333 59019 70000=
41881,2023,05,31,06,00,AAXX 31064 41881 32458 41002 10365 20230 30034 40054 84500 333 56900 59004 70000 84620=
41881,2023,05,31,12,00,AAXX 31124 41881 32458 61801 10355 20260 39992 40012 83520 333 10390 56990 59022 70000 83620 86460=
41881,2023,05,31,18,00,AAXX 31184 41881 32950 01802 10286 20250 30015 40035 333 59025 70000=
41881,2023,06,01,00,00,AAXX 01004 41881 32957 31801 10275 20250 30011 40031 80001 333 56009 59023 70000 83082=
41881,2023,06,01,06,00,AAXX 01064 41881 32958 01801 10326 20230 30026 40046 333 59008 70000=
41881,2023,06,01,12,00,AAXX 01124 41881 32957 02701 10365 20230 39984 40003 333 10390 59008 70000=
41881,2023,06,01,18,00,AAXX 01184 41881 32950 01801 10290 20240 30012 40032 333 59003 70000=
41883,2023,05,26,00,00,AAXX 26004 41883 11450 20000 10236 20220 30055 40075 69946 70162 82500 333 58010 70378 82618==
41883,2023,05,26,03,00,AAXX 26034 41883 02/56 21302 10278 20230 30078 40098 82030 333 20222 58018 70378 82362==
41883,2023,05,26,06,00,AAXX 26064 41883 02/56 40902 10310 20200 30070 40090 84030 333 58017 70378 84362==
41883,2023,05,26,09,00,AAXX 26094 41883 02456 30902 10325 20210 30036 40056 83500 333 58006 70378 83616==
41883,2023,05,26,12,00,AAXX 26124 41883 02956 01302 10315 20230 30033 40053 333 10330 58020 70378==
41883,2023,05,26,15,00,AAXX 26154 41883 02430 60000 10300 20240 30044 40064 83510 333 58010 70378 83616 86459==
41883,2023,05,26,18,00,AAXX 26184 41883 02930 00000 10284 20240 30038 40058 333 59005 70004==
41883,2023,05,26,21,00,AAXX 26214 41883 02430 40000 10260 20240 30033 40053 82510 333 59005 70000 82616 84459==
41883,2023,05,27,00,00,AAXX 27004 41883 02450 40000 10250 20230 30033 40053 82510 333 59022 70000 82616 84459==
41883,2023,05,27,03,00,AAXX 27034 41883 02456 80000 10285 20220 30056 40076 8552/ 333 20210 59022 70000 85616 88459==
41883,2023,05,27,06,00,AAXX 27064 41883 21456 60904 10284 20220 30055 40075 70162 83520 333 59015 60027 70020 83616 86459==
41883,2023,05,27,09,00,AAXX 27094 41883 02956 21302 10300 20210 30041 40061 80001 333 58005 70020 82080==
41883,2023,05,27,12,00,AAXX 27124 41883 02956 00000 10295 20230 30036 40056 333 10310 58003 70020==
41883,2023,05,27,15,00,AAXX 27154 41883 02/30 40000 10276 20240 30048 40068 84010 333 58004 70000 84459==
41883,2023,05,27,18,00,AAXX 27184 41883 02/30 40000 10263 20240 30054 40074 84030 333 58016 70020 84362==
41883,2023,05,27,21,00,AAXX 27214 41883 02/30 40000 10256 20250 30043 40064 84030 333 58010 70020 84362==
41883,2023,05,28,00,00,AAXX 28004 41883 02940 00000 10248 20240 30055 40075 333 58022 70020==
41883,2023,05,28,03,00,AAXX 28034 41883 02450 60000 10294 20240 30068 40088 83520 333 20245 58012 70020 83618 86458==
41883,2023,05,28,06,00,AAXX 28064 41883 02450 70000 10320 20230 30061 40081 85410 333 58006 70000 82618 83828 86458==
41883,2023,05,28,09,00,AAXX 28094 41883 02456 40000 10328 20230 30045 40065 84400 333 58005 70000 82616 83828==
41883,2023,05,28,12,00,AAXX 28124 41883 02956 00000 10322 20230 30036 40056 333 10334 58000 70000==
41883,2023,05,28,15,00,AAXX 28154 41883 02930 00000 10292 20240 30053 40073 333 58005 70000==
41883,2023,05,28,18,00,AAXX 28184 41883 02930 00000 10280 20240 30063 40083 333 58009 70000==
41883,2023,05,28,21,00,AAXX 28214 41883 02430 60000 10270 20230 30057 40077 83520 333 70000 83616 86458==
41883,2023,05,29,00,00,AAXX 29004 41883 02450 60000 10260 20240 30063 40083 83520 333 58008 70000 83616 86458==
41883,2023,05,29,03,00,AAXX 29034 41883 02956 00000 10306 20240 30077 40097 333 20256 58009 70000==
41883,2023,05,29,06,00,AAXX 29064 41883 02456 62702 10344 20220 30068 40088 83510 333 58007 70000 83616 86459==
41883,2023,05,29,09,00,AAXX 29094 41883 02456 40000 10354 20220 30048 40068 84400 333 58003 70000 82618 83828==
41883,2023,05,29,12,00,AAXX 29124 41883 02950 00000 10344 20210 30032 40052 333 10362 59004 70000==
41883,2023,05,29,15,00,AAXX 29154 41883 02930 00000 10304 20240 30053 40073 333 58000 70000==
41883,2023,05,29,18,00,AAXX 29184 41883 02930 00000 10285 20260 30058 40078 333 59005 70000==
41883,2023,05,29,21,00,AAXX 29214 41883 02930 00000 10274 20250 30049 40069 333 59008 70000==
41883,2023,05,30,00,00,AAXX 30004 41883 02/56 20000 10272 20250 30055 40075 82030 333 59008 70000 82362==
41883,2023,05,30,03,00,AAXX 30034 41883 02/56 20000 10336 20240 30066 40086 82030 333 20264 59011 70000 82362==
41883,2023,05,30,06,00,AAXX 30064 41883 02456 70000 10338 20240 30060 40080 84820 333 59011 70000 83616 87459==
41883,2023,05,30,09,00,AAXX 30094 41883 02456 60000 10364 20210 30036 40056 83510 333 59012 70000 83616 86459==
41883,2023,05,30,12,00,AAXX 30124 41883 02956 00000 10346 20240 30015 40035 333 10372 59017 70000==
41883,2023,05,30,15,00,AAXX 30154 41883 02930 00000 10314 20230 30036 40056 333 59017 70000==
41883,2023,05,30,18,00,AAXX 30184 41883 02930 00000 10294 20240 30040 40060 333 59018 70000==
41883,2023,05,30,21,00,AAXX 30214 41883 02930 00000 10286 20240 30033 40053 333 59016 70000==
41883,2023,05,31,00,00,AAXX 31004 41883 02450 40000 10286 20260 30035 40055 82520 333 59020 70000 82618 84458==
41883,2023,05,31,03,00,AAXX 31034 41883 02956 00000 10330 20250 30046 40066 333 20280 59020 70000==
41883,2023,05,31,06,00,AAXX 31064 41883 02456 40000 10364 20240 30035 40055 84400 333 59018 70000 83616==
41883,2023,05,31,09,00,AAXX 31094 41883 02456 50000 10380 20210 30013 40033 83801 333 59023 70000 83616 85080==
41883,2023,05,31,12,00,AAXX 31124 41883 02950 40000 10360 20230 30000 40020 80001 333 10385 59015 70000 84080==
41883,2023,05,31,15,00,AAXX 31154 41883 02930 00000 10320 20250 30007 40027 333 59029 70000==
41883,2023,05,31,18,00,AAXX 31184 41883 02930 00000 10312 20250 30018 40038 333 59022 70000==
41883,2023,05,31,21,00,AAXX 31214 41883 02930 00000 10300 20250 30013 40033 333 59020 70000==
41883,2023,06,01,00,00,AAXX 01004 41883 02/56 40000 10290 20250 30012 40032 84010 333 59023 70000 84459==
41883,2023,06,01,03,00,AAXX 01034 41883 02/56 32302 10325 20250 30027 40047 83030 333 20285 59019 70000 83362==
41883,2023,06,01,06,00,AAXX 01064 41883 02956 32302 10372 20210 30024 40043 80001 333 59011 70000 83080==
41883,2023,06,01,09,00,AAXX 01094 41883 02956 02304 10390 20120 39997 40016 333 59016 70000==
41883,2023,06,01,12,00,AAXX 01124 41883 02956 00000 10368 20190 39984 40003 333 10393 59016 70000==
41883,2023,06,01,15,00,AAXX 01154 41883 02930 00000 10330 20220 30000 40020 333 59007 70000==
41883,2023,06,01,18,00,AAXX 01184 41883 02930 00000 10310 20240 30008 40028 333 59010 70000==
41883,2023,06,01,21,00,AAXX 01214 41883 02930 00000 10296 20250 30003 40023 333 59010 70000==
41886,2023,05,26,00,00,AAXX 26004 41886 NIL=
41886,2023,05,26,03,00,AAXX 26034 41886 02457 10000 10280 20220 30079 40100 81500 333 20228 59012 70072 81618==
41886,2023,05,26,06,00,AAXX 26064 41886 02958 00000 10310 20230 30067 40087 333 58004 70072==
41886,2023,05,26,12,00,AAXX 26124 41886 02457 20000 10316 20240 30035 40055 82500 333 10333 58015 70072 82618==
41886,2023,05,26,15,00,AAXX 26154 41886 02450 20000 10285 20270 30057 40077 82500 333 58013 70072 82618==
41886,2023,05,26,18,00,AAXX 26184 41886 02450 80000 10280 20250 30047 40067 8452/ 333 58007 70002 84616 88458==
41886,2023,05,27,00,00,AAXX 27004 41886 02456 20000 10255 20240 30035 40056 82500 333 59024 70000 82618==
41886,2023,05,27,03,00,AAXX 27034 41886 02456 70000 10280 20230 30064 40084 84410 333 20255 59015 70000 83618 87460==
41886,2023,05,27,06,00,AAXX 27064 41886 02456 80000 10295 20230 30063 40083 8452/ 333 59004 70000 84616 88458==
41886,2023,05,27,09,00,AAXX 27094 41886 02457 80000 10290 20220 30048 40068 8452/ 333 58007 70000 84616 88458==
41886,2023,05,27,12,00,AAXX 27124 41886 21457 21504 10285 20230 30041 40061 70161 82500 333 10300 58006 69925 70002 82618==
41886,2023,05,27,15,00,AAXX 27154 41886 02950 00000 10263 20240 30052 40073 333 59005 70002==
41886,2023,05,27,18,00,AAXX 27184 41886 02450 20000 10253 20240 30056 40077 82500 333 58009 70002 82618==
41886,2023,05,27,21,00,AAXX 27214 41886 02450 80000 10250 20240 30058 40079 8452/ 333 58016 70002 84616 88458==
41886,2023,05,28,00,00,AAXX 28004 41886 01440 80000 10250 20240 30059 40080 70522 8452/ 333 58024 70002 84616 88458==
41886,2023,05,28,03,00,AAXX 28034 41886 02457 30000 10285 20250 30070 40090 83400 333 20245 58006 70002 82618==
41886,2023,05,28,06,00,AAXX 28064 41886 02458 30000 10320 20240 30067 40087 83400 333 58004 70002 81618 83825==
41886,2023,05,28,09,00,AAXX 28094 41886 02558 20000 10335 20230 30048 40068 82200 333 58000 70002 82825==
41886,2023,05,28,12,00,AAXX 28124 41886 02457 10000 10325 20240 30038 40058 81500 333 10340 59003 70000 81618==
41886,2023,05,28,15,00,AAXX 28154 41886 02450 20000 10285 20270 30055 40075 82500 333 58003 70000 82618==
41886,2023,05,28,18,00,AAXX 28184 41886 02950 00000 10275 20260 30066 40086 333 58010 70000==
41886,2023,05,28,21,00,AAXX 28214 41886 02950 00000 10265 20250 30064 40084 333 58006 70000==
41886,2023,05,29,00,00,AAXX 29004 41886 01950 00000 10260 20250 30063 40084 70500 333 58004 70000==
41886,2023,05,29,03,00,AAXX 29034 41886 02957 00000 10315 20230 30080 40100 333 20255 58010 70000==
41886,2023,05,29,06,00,AAXX 29064 41886 02958 00000 10340 20210 30071 40091 333 58004 70000==
41886,2023,05,29,09,00,AAXX 29094 41886 02458 30000 10352 20220 30046 40066 83400 333 59002 70000 83618==
41886,2023,05,29,12,00,AAXX 29124 41886 02457 20000 10345 20240 30035 40055 82400 333 10360 59003 70000 82618==
41886,2023,05,29,15,00,AAXX 29154 41886 02950 00000 10290 20260 30058 40078 333 58003 70000==
41886,2023,05,29,18,00,AAXX 29184 41886 02950 00000 10282 20260 30071 40091 333 58005 70000==
41886,2023,05,29,21,00,AAXX 29214 41886 02950 00000 10270 20260 30062 40082 333 59002 70000==
41886,2023,05,30,00,00,AAXX 30004 41886 01/50 30000 10263 20260 30055 40076 70510 83030 333 59008 70000 83365==
41886,2023,05,30,03,00,AAXX 30034 41886 02/57 30000 10320 20240 30072 40092 83030 333 20263 59008 70000 83365==
41886,2023,05,30,06,00,AAXX 30064 41886 02458 60000 10352 20240 30079 40079 83470 333 59012 70000 82618 85460==
41886,2023,05,30,09,00,AAXX 30094 41886 02458 60000 10367 20240 30032 40052 83470 333 59014 70000 82618 85460==
41886,2023,05,30,12,00,AAXX 30124 41886 02457 60000 10347 20250 30021 40041 82470 333 10370 59014 70000 82618 85460==
41886,2023,05,30,15,00,AAXX 30154 41886 02450 60000 10300 20270 30040 40060 82470 333 59018 70000 82618 85460==
41886,2023,05,30,18,00,AAXX 30184 41886 02/50 30000 10286 20270 30044 40064 83030 333 59027 70000 83365==
41886,2023,05,30,21,00,AAXX 30214 41886 02/50 50000 10280 20270 30040 40060 85030 333 59022 70000 85365==
41886,2023,05,31,00,00,AAXX 31004 41886 01/50 60000 10276 20270 30042 40062 70522 86070 333 59013 70000 85365==
41886,2023,05,31,03,00,AAXX 31034 41886 02/58 40000 10340 20250 30052 40072 84030 333 20272 59020 70000 84365==
41886,2023,05,31,06,00,AAXX 31064 41886 02458 30000 10364 20230 30040 40060 83400 333 59019 70000 82618==
41886,2023,05,31,09,00,AAXX 31094 41886 02458 10000 10378 20220 30009 40029 81500 333 59023 70000 81618==
41886,2023,05,31,12,00,AAXX 31124 41886 02958 00000 10356 20270 30001 40021 333 10380 59020 70000==
41886,2023,05,31,15,00,AAXX 31154 41886 02950 00000 10324 20270 30015 40035 333 59025 70000==
41886,2023,05,31,18,00,AAXX 31184 41886 02/50 50000 10304 20260 30021 40041 85030 333 59023 70000 85365==
41886,2023,05,31,21,00,AAXX 31214 41886 02/50 50000 10296 20270 30018 40038 85030 333 59022 70000 85365==
41886,2023,06,01,00,00,AAXX 01004 41886 01456 60000 10290 20270 30020 40040 70522 83570 333 59022 70000 83618 85460==
41886,2023,06,01,03,00,AAXX 01034 41886 02457 60000 10320 20270 30040 40060 83570 333 20286 59012 70000 83618 85365==
41886,2023,06,01,06,00,AAXX 01064 41886 02458 20000 10350 20270 30032 40052 82400 333 59008 70000 82618==
41886,2023,06,01,09,00,AAXX 01094 41886 02958 00000 10365 20260 30099 40119 333 59010 70000==
41886,2023,06,01,12,00,AAXX 01124 41886 02957 00000 10353 20250 39991 40111 333 10367 59010 70000==
41886,2023,06,01,15,00,AAXX 01154 41886 02956 00000 10300 20250 30007 40027 333 59008 70000==
41886,2023,06,01,18,00,AAXX 01184 41886 02956 00000 10290 20250 30014 40034 333 59007 70000==
41886,2023,06,01,21,00,AAXX 01214 41886 02950 00000 10285 20240 30011 40031 333 59007 70000==
41888,2023,05,26,00,00,AAXX 26004 41888 11456 40901 10233 20220 30075 40085 60038 70196 81530 333 56990 58013 70300 81618 84365=
41888,2023,05,26,06,00,AAXX 26064 41888 32457 10901 10297 20230 30081 40091 81500 333 56900 58012 70300 81618=
41888,2023,05,26,12,00,AAXX 26124 41888 32957 00901 10307 20230 30042 40052 333 10325 58010 70300=
41888,2023,05,26,18,00,AAXX 26184 41888 32450 60701 10274 20250 30060 40070 82510 333 56990 58007 70030 82618 86460=
41888,2023,05,27,00,00,AAXX 27004 41888 32350 80704 10260 20230 30047 40057 8432/ 333 56999 59028 70000 82708 83616 81930 88458=
41888,2023,05,27,06,00,AAXX 27064 41888 32456 70902 10295 20250 30066 40076 82510 333 56990 59015 70000 82618 87460=
41888,2023,05,27,12,00,AAXX 27124 41888 11456 70000 10288 20240 30048 40058 60013 70162 83510 333 10302 56990 58006 70013 83618 87460=
41888,2023,05,27,18,00,AAXX 27184 41888 32950 20501 10250 20240 30061 40071 82030 333 56090 58001 70013 82365=
41888,2023,05,28,00,00,AAXX 28004 41888 31440 60701 10250 20240 30064 40074 70521 82510 333 56990 58017 70013 82618 86460=
41888,2023,05,28,06,00,AAXX 28064 41888 32458 40901 10313 20220 30071 40081 84400 333 56900 58005 70013 81618 83820=
41888,2023,05,28,12,00,AAXX 28124 41888 32957 00000 10324 20210 30045 40055 333 10339 59003 70000=
41888,2023,05,28,18,00,AAXX 28184 41888 32950 03601 10270 20250 30070 40080 333 58009 70000=
41888,2023,05,29,00,00,AAXX 29004 41888 32956 00000 10251 20250 30069 40079 333 58005 70000=
41888,2023,05,29,06,00,AAXX 29064 41888 32458 32701 10338 20220 30077 40087 83400 333 56900 58006 70000 82618=
41888,2023,05,29,12,00,AAXX 29124 41888 32957 00000 10350 20230 30039 40049 333 10363 59006 70000=
41888,2023,05,29,18,00,AAXX 29184 41888 32950 00000 10277 20260 30066 40076 333 59004 70000=
41888,2023,05,30,00,00,AAXX 30004 41888 32956 13601 10262 20250 30061 40071 81030 333 56090 59008 70000 81365=
41888,2023,05,30,06,00,AAXX 30064 41888 32457 50901 10352 20220 30065 40075 85400 333 56900 59012 70000 82618 84820=
41888,2023,05,30,12,00,AAXX 30124 41888 32457 52901 10358 20240 30026 40036 83430 333 10371 56990 59013 70000 82618 84363=
41888,2023,05,30,18,00,AAXX 30184 41888 32956 00000 10284 20260 30051 40061 333 59015 70000=
41888,2023,05,31,00,00,AAXX 31004 41888 32456 50901 10284 20260 30051 40061 81401 333 56909 59010 70000 81618 85080=
41888,2023,05,31,06,00,AAXX 31064 41888 32457 52901 10364 20230 30042 40052 83470 333 56990 59023 70000 82618 84360=
41888,2023,05,31,12,00,AAXX 31124 41888 32557 30000 10358 20250 30005 40015 80001 333 10379 56009 59021 70000 83080=
41888,2023,05,31,18,00,AAXX 31184 41888 32956 00000 10298 20280 30029 40039 333 59022 70000=
41888,2023,06,01,00,00,AAXX 01004 41888 32456 71801 10290 20270 30031 40041 83570 333 56990 59020 70000 83618 86460=
41888,2023,06,01,06,00,AAXX 01064 41888 32457 51702 10370 20240 30042 40052 82570 333 56990 58000 70000 82618 84460=
41888,2023,06,01,12,00,AAXX 01124 41888 32556 30503 10308 20240 30004 40014 83100 333 10372 56900 59001 70000 83825=
41891,2023,05,26,00,00,AAXX 26004 41891 21430 82704 10230 20220 30056 40095 70596 8532/ 333 58018 60168 70242 81710 84615 88459 81930==
41891,2023,05,26,03,00,AAXX 26034 41891 01440 80908 10254 20210 30070 40109 70522 8532/ 333 20225 58022 70242 82710 84615 88459 81930==
41891,2023,05,26,06,00,AAXX 26064 41891 01445 61304 10290 20220 30057 40095 70522 83370 333 58016 70242 83615 85460 81930==
41891,2023,05,26,09,00,AAXX 26094 41891 01450 42602 10330 20220 30027 40065 70522 82340 333 58007 70242 82615 84365 81930==
41891,2023,05,26,12,00,AAXX 26124 41891 01440 12702 10310 20220 30020 40058 70521 81500 333 10335 58014 70242 81615==
41891,2023,05,26,15,00,AAXX 26154 41891 01435 33604 10280 20230 30039 40077 70511 81530 333 58013 70242 81616 83365==
41891,2023,05,26,18,00,AAXX 26184 41891 01430 61904 10274 20250 30035 40073 71321 84330 333 58016 70162 83616 86365 81930==
41891,2023,05,26,21,00,AAXX 26214 41891 01430 61804 10263 20250 30018 40056 70521 84370 333 59024 70002 83616 84460 81930==
41891,2023,05,27,00,00,AAXX 27004 41891 01440 81204 10252 20230 30026 40064 70521 8532/ 333 59030 70000 81710 83616 88458 81930==
41891,2023,05,27,03,00,AAXX 27034 41891 01440 60502 10263 20200 30050 40089 70562 83340 333 20222 59020 70200 83615 85365 81930==
41891,2023,05,27,06,00,AAXX 27064 41891 11445 61302 10314 20210 30047 40085 60206 70562 83340 333 59010 70200 83615 85365 81930==
41891,2023,05,27,09,00,AAXX 27094 41891 01440 63104 10318 20230 30023 40060 70522 83370 333 59004 70200 83615 85460 81930==
41891,2023,05,27,12,00,AAXX 27124 41891 01435 81808 10284 20200 30030 40068 70522 8532/ 333 10327 58010 70200 82710 84615 88459 81930==
41891,2023,05,27,15,00,AAXX 27154 41891 42435 61203 10255 20220 30033 40072 59006 85365==
41891,2023,05,27,18,00,AAXX 27184 41891 42435 60503 10246 20220 30033 40072 59002 85365==
41891,2023,05,27,21,00,AAXX 27214 41891 01435 60903 10243 20220 30020 40059 70522 83340 333 58002 70200 83615 85365 81930==
41891,2023,05,28,00,00,AAXX 28004 41891 01435 61203 10249 20230 30039 40078 70522 83340 333 58013 70200 83615 85365 81930==
41891,2023,05,28,03,00,AAXX 28034 41891 01440 11303 10300 20220 30053 40091 70511 81500 333 20238 58003 70000 81615==
41891,2023,05,28,06,00,AAXX 28064 41891 01450 51103 10320 20220 30043 40081 70511 82340 333 59004 70000 82615 84365 81930==
41891,2023,05,28,09,00,AAXX 28094 41891 01450 61402 10330 20220 30022 40059 70522 83340 333 59001 70000 83615 85365 81930==
41891,2023,05,28,12,00,AAXX 28124 41891 01440 63102 10330 20230 30020 40057 70522 83340 333 10350 59010 70000 83615 85365 81930==
41891,2023,05,28,15,00,AAXX 28154 41891 01940 00304 10290 20250 30034 40072 70510 333 59001 70000==
41891,2023,05,28,18,00,AAXX 28184 41891 01940 00804 10273 20250 30039 40077 70510 333 58006 70000==
41891,2023,05,28,21,00,AAXX 28214 41891 01940 00804 10265 20250 30034 40072 70500 333 58014 70000==
41891,2023,05,29,00,00,AAXX 29004 41891 01945 00904 10260 20220 30042 40080 70500 333 58003 70000==
41891,2023,05,29,03,00,AAXX 29034 41891 01950 03602 10320 20230 30056 40094 70500 333 20252 58002 70000==
41891,2023,05,29,06,00,AAXX 29064 41891 01445 63102 10330 20230 30047 40085 70520 83340 333 58004 70000 83615 85365 81930==
41891,2023,05,29,09,00,AAXX 29094 41891 01450 62704 10345 20230 30022 40059 70522 83340 333 58000 70000 83615 85365 81930==
41891,2023,05,29,12,00,AAXX 29124 41891 01450 33504 10335 20230 30012 40049 70521 81530 333 10362 59008 70000 81615 83365==
41891,2023,05,29,15,00,AAXX 29154 41891 01940 02702 10293 20250 30035 40073 70510 333 58001 70000==
41891,2023,05,29,18,00,AAXX 29184 41891 01935 00000 10270 20250 30041 40079 70500 333 58002 70000==
41891,2023,05,29,21,00,AAXX 29214 41891 01930 00000 10263 20240 30037 40076 70500 333 58003 70000==
41891,2023,05,30,00,00,AAXX 30004 41891 01935 00000 10255 20240 30034 40073 70510 82500 333 59008 70000 82615==
41891,2023,05,30,03,00,AAXX 30034 41891 01445 30902 10320 20230 30048 40086 70511 81540 333 20255 59008 70000 81615 83365==
41891,2023,05,30,06,00,AAXX 30064 41891 01450 51303 10354 20220 30036 40073 70511 82530 333 59011 70000 82615 85365==
41891,2023,05,30,09,00,AAXX 30094 41891 01450 32506 10364 20190 30008 40045 70521 81530 333 59014 70000 81616 83365==
41891,2023,05,30,12,00,AAXX 30124 41891 01450 32804 10345 20210 39999 40036 70521 81530 333 10368 59013 70000 81616 83365==
41891,2023,05,30,15,00,AAXX 30154 41891 01940 02804 10295 20230 30019 40057 70510 333 59016 70000==
41891,2023,05,30,18,00,AAXX 30184 41891 01440 30902 10280 20240 30024 40062 70510 81530 333 59017 70000 81615 83365==
41891,2023,05,30,21,00,AAXX 30214 41891 01435 31203 10273 20240 30019 40057 70522 81530 333 59018 70000 81615 83365==
41891,2023,05,31,00,00,AAXX 31004 41891 01435 30902 10280 20240 30024 40062 70521 81530 333 59010 70000 81615 83365==
41891,2023,05,31,03,00,AAXX 31034 41891 01445 10904 10330 20240 30034 40072 70511 81500 333 20269 59014 70000 81615==
41891,2023,05,31,06,00,AAXX 31064 41891 01450 61302 10350 20240 30021 40058 70521 83340 333 59015 70000 83615 85365 81930==
41891,2023,05,31,09,00,AAXX 31094 41891 02556 13102 10370 20230 39989 40026 81100 333 59019 70000 81825==
41891,2023,05,31,12,00,AAXX 31124 41891 01540 12702 10360 20230 39976 40013 70511 81100 333 10376 59023 70000 81825==
41891,2023,05,31,15,00,AAXX 31154 41891 01930 03003 10300 20250 30002 40040 70510 333 59017 70000==
41891,2023,05,31,18,00,AAXX 31184 41891 01430 60903 10290 20250 30004 40042 70510 82510 333 59020 70000 82616 86460==
41891,2023,05,31,21,00,AAXX 31214 41891 01430 60903 10286 20250 39999 40037 70522 83510 333 59018 70000 83616 86460==
41891,2023,06,01,00,00,AAXX 01004 41891 01430 82004 10283 20250 30009 40047 70522 8532/ 333 59015 70000 81710 83616 86460 81930==
41891,2023,06,01,03,00,AAXX 01034 41891 01440 82304 10310 20240 30028 40066 70522 8532/ 333 20282 59006 70000 81710 84615 88459 81930==
41891,2023,06,01,06,00,AAXX 01064 41891 01445 71302 10334 20230 30016 40053 70522 84370 333 59005 70000 84615 86460 81930==
41891,2023,06,01,09,00,AAXX 01094 41891 01445 72703 10360 20250 39985 40022 70522 84370 333 59004 70000 84615 86460 81930==
41891,2023,06,01,12,00,AAXX 01124 41891 01440 83112 10330 20260 39979 40016 70522 8532/ 333 10365 58003 70000 82710 84615 88459 81930==
41891,2023,06,01,15,00,AAXX 01154 41891 01430 61703 10270 20250 30000 40038 72996 83340 333 59002 70018 83615 85365 81930==
41891,2023,06,01,18,00,AAXX 01184 41891 11430 81203 10274 20240 39997 40035 60026 70596 8532/ 333 59007 70018 81710 84615 88460 81930==
41891,2023,06,01,21,00,AAXX 01214 41891 01430 80903 10273 20240 39998 40036 70522 8532/ 333 59001 70018 82710 84615 88459 81930==
41895,2023,05,26,00,00,AAXX 26004 41895 02950 00902 10229 20229 30038 40060 333 58002 70024==
41895,2023,05,26,03,00,AAXX 26034 41895 02957 00000 10277 20230 30068 40090 333 20225 58019 70024==
41895,2023,05,26,06,00,AAXX 26064 41895 02957 01802 10330 20230 30061 40083 333 58017 70000==
41895,2023,05,26,09,00,AAXX 26094 41895 02457 31303 10344 20240 30034 40055 83500 333 58016 70024 83616==
41895,2023,05,26,12,00,AAXX 26124 41895 02456 82302 10315 20260 30030 40052 8452/ 333 10350 58025 70024 84615 88458==
41895,2023,05,26,15,00,AAXX 26154 41895 02450 81304 10265 20220 30034 40056 8452/ 333 59004 70016 84615 88458==
41895,2023,05,26,18,00,AAXX 26184 41895 02950 00000 10250 20230 30034 40056 333 58009 70000==
41895,2023,05,27,00,00,AAXX 27004 41895 02450 62302 10240 20220 30036 40059 83520 333 59002 70000 83616 86458==
41895,2023,05,27,03,00,AAXX 27034 41895 01450 81302 10240 20240 30056 40078 76162 8452/ 333 20234 59012 70040 84615 88458==
41895,2023,05,27,06,00,AAXX 27064 41895 21456 51304 10280 20250 30051 40073 70162 83520 333 59010 60068 70064 83616 85458==
41895,2023,05,27,09,00,AAXX 27094 41895 02456 51302 10323 20250 30037 40059 83520 333 58003 70064 83616 85458==
41895,2023,05,27,12,00,AAXX 27124 41895 02956 00000 10308 20250 30024 40046 333 10330 59006 70064==
41895,2023,05,27,15,00,AAXX 27154 41895 02950 00000 10263 20240 30040 40063 333 58006 70000==
41895,2023,05,27,18,00,AAXX 27184 41895 02950 01302 10251 20230 30043 40066 333 58009 70064==
41895,2023,05,27,21,00,AAXX 27214 41895 02950 00000 10242 20230 30041 40063 333 58003 70064==
41895,2023,05,28,00,00,AAXX 28004 41895 02950 00501 10239 20240 30043 40065 333 58007 70064==
41895,2023,05,28,03,00,AAXX 28034 41895 02957 00902 10298 20240 30062 40084 333 20235 58006 70024==
41895,2023,05,28,06,00,AAXX 28064 41895 02457 50503 10328 20250 30059 40080 83510 333 58008 70000 83616 85458==
41895,2023,05,28,09,00,AAXX 28094 41895 02457 30702 10346 20220 30041 40063 83400 333 58004 70000 82616==
41895,2023,05,28,12,00,AAXX 28124 41895 02957 21202 10315 20250 30032 40054 80001 333 10358 58008 70000 82074==
41895,2023,05,28,15,00,AAXX 28154 41895 02956 00000 10279 20260 30050 40073 333 58010 70000==
41895,2023,05,28,18,00,AAXX 28184 41895 02956 01202 10264 20240 30056 40079 333 58013 70000==
41895,2023,05,28,21,00,AAXX 28214 41895 01950 00000 10254 20240 30051 40074 70500 333 58010 70000==
41895,2023,05,29,00,00,AAXX 29004 41895 01950 00000 10250 20250 30059 40081 70500 333 58016 70000==
41895,2023,05,29,03,00,AAXX 29034 41895 02957 03102 10318 20240 30071 40093 333 20247 58009 70000==
41895,2023,05,29,06,00,AAXX 29064 41895 02457 43102 10350 20220 30063 40085 84800 333 58004 70000 82616 83825==
41895,2023,05,29,09,00,AAXX 29094 41895 02457 20502 10365 20230 30043 40065 82500 333 58002 70000 82617==
41895,2023,05,29,12,00,AAXX 29124 41895 02956 00000 10350 20250 30032 40054 333 10371 58000 70000==
41895,2023,05,29,15,00,AAXX 29154 41895 02950 00000 10295 20270 30048 40070 333 59002 70000==
41895,2023,05,29,18,00,AAXX 29184 41895 02950 00000 10280 20260 30056 40078 333 58000 70000==
41895,2023,05,29,21,00,AAXX 29214 41895 02950 00000 10275 20270 30046 40068 333 59005 70000==
41895,2023,05,30,00,00,AAXX 30004 41895 02450 20000 10270 20260 30049 40071 82500 333 59010 70000 82617==
41895,2023,05,30,03,00,AAXX 30034 41895 02957 00902 10334 20250 30057 40079 333 20265 59014 70000==
41895,2023,05,30,06,00,AAXX 30064 41895 02557 22302 10370 20250 30047 40069 82100 333 59016 70000 82825==
41895,2023,05,30,09,00,AAXX 30094 41895 02957 00901 10380 20260 30026 40047 333 59017 70000==
41895,2023,05,30,12,00,AAXX 30124 41895 02956 00000 10350 20260 30009 40031 333 10386 59023 70000==
41895,2023,05,30,15,00,AAXX 30154 41895 02950 00000 10300 20270 30025 40047 333 59023 70000==
41895,2023,05,30,18,00,AAXX 30184 41895 02950 00901 10288 20270 30031 40053 333 59025 70000==
41895,2023,05,30,21,00,AAXX 30214 41895 02950 00000 10276 20260 30025 40047 333 59021 70000==
41895,2023,05,31,00,00,AAXX 31004 41895 02950 00000 10272 20260 30028 40050 333 59021 70000==
41895,2023,05,31,03,00,AAXX 31034 41895 02957 21802 10328 20270 30039 40061 80001 333 20268 59018 70000 82074==
41895,2023,05,31,06,00,AAXX 31064 41895 02457 42302 10384 20250 30032 40053 82501 333 59015 70000 82616 83074==
41895,2023,05,31,09,00,AAXX 31094 41895 02957 01802 10392 20230 30005 40027 333 59021 70000==
41895,2023,05,31,12,00,AAXX 31124 41895 02957 22102 10340 20250 39993 40015 80001 333 10396 59016 70000 82074==
41895,2023,05,31,15,00,AAXX 31154 41895 02957 02402 10299 20220 30011 40033 333 59014 70000==
41895,2023,05,31,18,00,AAXX 31184 41895 02956 02102 10284 20250 30013 40035 333 59018 70000==
41895,2023,05,31,21,00,AAXX 31214 41895 02956 01802 10277 20250 30011 40033 333 59014 70000==
41895,2023,06,01,00,00,AAXX 01004 41895 02/56 40000 10270 20250 30014 40037 84030 333 59014 70000 84362==
41895,2023,06,01,03,00,AAXX 01034 41895 02957 22302 10328 20260 30024 40046 80001 333 20267 59015 70000 82074==
41895,2023,06,01,06,00,AAXX 01064 41895 02957 03603 10384 20210 30022 40043 333 59010 70000==
41895,2023,06,01,09,00,AAXX 01094 41895 02957 32304 10404 20210 39997 40019 80001 333 59008 70000 83074==
41895,2023,06,01,12,00,AAXX 01124 41895 02957 31302 10365 20250 39980 40002 80001 333 10405 59013 70000 83074==
41895,2023,06,01,15,00,AAXX 01154 41895 02950 01301 10315 20250 39997 40019 333 59014 70000==
41895,2023,06,01,18,00,AAXX 01184 41895 02950 02301 10300 20260 30006 40028 333 59007 70000==
41895,2023,06,01,21,00,AAXX 01214 41895 02950 02301 10285 20270 30001 40023 333 59010 70000==
41897,2023,05,26,00,00,AAXX 26004 41897 32950 00902 10230 20210 30059 40072 333 58007 70070=
41897,2023,05,26,06,00,AAXX 26064 41897 32956 01801 10305 20220 30076 40089 333 58019 70070=
41897,2023,05,26,12,00,AAXX 26124 41897 31450 31801 10300 20250 30040 40052 81510 333 10325 56990 58013 70070 81618 83458=
41897,2023,05,26,18,00,AAXX 26184 41897 NIL=
41897,2023,05,27,00,00,AAXX 27004 41897 32440 41802 10232 20220 30044 40057 82510 333 56990 59015 70000 81618 84458=
41897,2023,05,27,06,00,AAXX 27064 41897 11450 70902 10260 20240 30064 40078 70366 83510 333 56990 59012 70070 83617 87458=
41897,2023,05,27,12,00,AAXX 27124 41897 32950 01802 10280 20240 30042 40055 333 10292 58002 70070=
41897,2023,05,27,18,00,AAXX 27184 41897 NIL=
41897,2023,05,28,00,00,AAXX 28004 41897 32940 03601 10235 20235 30058 40072 333 58014 70070=
41897,2023,05,28,06,00,AAXX 28064 41897 31456 10502 10315 20220 30048 40060 70500 81500 333 56900 59016 70000 81618=
41897,2023,05,28,12,00,AAXX 28124 41897 31950 01802 10310 20260 30043 40056 70500 333 10340 58001 70000=
41897,2023,05,28,18,00,AAXX 28184 41897 31940 00000 10262 20250 30067 40080 70500 333 58010 70000=
41897,2023,05,29,00,00,AAXX 29004 41897 31940 00000 10255 20255 30067 40080 70500 333 58009 70000=
41897,2023,05,29,06,00,AAXX 29064 41897 32456 33301 10345 20240 30073 40086 83400 333 56100 58025 70000 81618 83825=
41897,2023,05,29,12,00,AAXX 29124 41897 32956 00000 10327 20270 30042 40054 333 10358 59001 70000=
41897,2023,05,29,18,00,AAXX 29184 41897 31945 00000 10270 20260 30066 40079 70500 333 59001 70000=
41897,2023,05,30,00,00,AAXX 30004 41897 31930 00000 10260 20250 30060 40073 70500 333 59007 70000=
41897,2023,05,30,06,00,AAXX 30064 41897 32956 23301 10353 20230 30062 40074 82030 333 56090 59011 70000 82363=
41897,2023,05,30,12,00,AAXX 30124 41897 32956 00000 10335 20270 30023 40036 333 10375 59018 70000=
41897,2023,05,30,18,00,AAXX 30184 41897 31940 00000 10275 20260 30048 40061 70500 333 59018 70000=
41897,2023,05,31,00,00,AAXX 31004 41897 31930 01801 10270 20250 30044 40057 70500 333 59016 70000=
41897,2023,05,31,06,00,AAXX 31064 41897 32956 00000 10360 20240 30040 40053 70500 333 59022 70000=
41897,2023,05,31,12,00,AAXX 31124 41897 32956 00000 10350 20250 30004 40017 333 10377 59019 70000=
41897,2023,05,31,18,00,AAXX 31184 41897 32950 01801 10295 20260 30022 40035 333 59026 70000=
41897,2023,06,01,00,00,AAXX 01004 41897 31940 01801 10275 20260 30022 40035 70500 333 59022 70000=
41897,2023,06,01,06,00,AAXX 01064 41897 32956 00000 10368 20220 30031 40044 333 59009 70000=
41897,2023,06,01,12,00,AAXX 01124 41897 32956 00000 10336 20260 39992 40005 333 10388 59012 70000=
41897,2023,06,01,18,00,AAXX 01184 41897 32950 00000 10295 20280 30015 40028 333 59007 70000=
41902,2023,05,26,00,00,AAXX 26004 41902 11430 70901 10232 20220 30063 40072 60066 70196 83410 333 56990 58005 70140 82614 87459=
41902,2023,05,26,06,00,AAXX 26064 41902 32450 20901 10315 20240 30077 40085 82400 333 56900 59019 70140 82614=
41902,2023,05,26,12,00,AAXX 26124 41902 32440 31801 10302 20250 30043 40051 82430 333 10330 56990 58014 70140 82614=
41902,2023,05,26,18,00,AAXX 26184 41902 NIL=
41902,2023,05,27,00,00,AAXX 27004 41902 32440 31801 10245 20240 30045 40054 82430 333 56990 59018 70000 82614=
41902,2023,05,27,06,00,AAXX 27064 41902 32450 41801 10330 20230 30058 40066 82430 333 56990 59019 70000 82614 83362=
41902,2023,05,27,12,00,AAXX 27124 41902 11450 82702 10270 20240 30051 40060 60016 70262 8532/ 333 56599 58008 70007 82712 84616 81930 88458=
41902,2023,05,27,18,00,AAXX 27184 41902 32450 30000 10243 20230 30056 40064 82420 333 56990 58000 70007 82616 83458=
41902,2023,05,28,00,00,AAXX 28004 41902 32940 00000 10238 20238 30059 40068 333 58014 70007=
41902,2023,05,28,06,00,AAXX 28064 41902 32456 30902 10325 20230 30064 40072 82420 333 56990 58006 70007 81616 83458=
41902,2023,05,28,12,00,AAXX 28124 41902 32456 20000 10325 20240 30043 40051 82400 333 10345 56900 59008 70000 81618=
41902,2023,05,28,18,00,AAXX 28184 41902 32940 00000 10267 20260 30064 40072 333 58008 70000=
41902,2023,05,29,00,00,AAXX 29004 41902 32950 00000 10255 20250 30063 40072 333 58004 70000=
41902,2023,05,29,06,00,AAXX 29064 41902 32956 10501 10342 20230 30072 40080 81030 333 56090 58008 70000 81362=
41902,2023,05,29,12,00,AAXX 29124 41902 32950 00000 10340 20220 30041 40050 333 10360 59002 70000=
41902,2023,05,29,18,00,AAXX 29184 41902 32950 10000 10298 20230 30069 40079 81030 333 56090 59002 70000 81362=
41902,2023,05,30,00,00,AAXX 30004 41902 32840 30000 10254 20240 30056 40065 82010 333 56099 59007 70000 82458 83176=
41902,2023,05,30,06,00,AAXX 30064 41902 32456 30000 10353 20220 30059 40068 82430 333 56990 59013 70000 81616 83362=
41902,2023,05,30,12,00,AAXX 30124 41902 NIL=
41902,2023,05,31,00,00,AAXX 31004 41902 32430 30000 10265 20260 30042 40050 82530 333 56990 59014 70000 82614=
41902,2023,05,31,06,00,AAXX 31064 41902 32450 73601 10357 20250 30043 40051 83410 333 56990 59016 70000 82614 87459=
41902,2023,05,31,12,00,AAXX 31124 41902 32450 30000 10340 20280 30013 40021 82530 333 10382 56990 59028 70000 82614=
41902,2023,05,31,18,00,AAXX 31184 41902 32440 32601 10290 20260 30024 40033 82530 333 56990 59018 70000 82614=
41902,2023,06,01,00,00,AAXX 01004 41902 32930 00000 10285 20270 30035 40044 333 59007 70000=
41902,2023,06,01,06,00,AAXX 01064 41902 32956 01801 10355 20270 30038 40046 333 59005 70000=
41902,2023,06,01,12,00,AAXX 01124 41902 11950 00000 10308 20250 30006 40014 60014 70296 333 10378 59007 70010=
41902,2023,06,01,18,00,AAXX 01184 41902 32440 32302 10293 20270 30015 40024 82530 333 56990 59009 70010 82614=
41907,2023,05,26,00,00,AAXX 26004 41907 02450 70000 10230 20220 30051 40066 85510 333 58019 70096 85615 86458==
41907,2023,05,26,03,00,AAXX 26034 41907 02950 01802 10295 20220 30069 40084 333 20223 58015 70096==
41907,2023,05,26,06,00,AAXX 26064 41907 02956 01802 10317 20220 30066 40080 333 58022 70096==
41907,2023,05,26,09,00,AAXX 26094 41907 02456 41802 10338 20210 30031 40046 84800 333 58007 70096 82615 83825==
41907,2023,05,26,12,00,AAXX 26124 41907 02456 41802 10307 20260 30027 40042 84800 333 10345 58021 70096 84615==
41907,2023,05,26,15,00,AAXX 26154 41907 01340 81804 10255 20220 30046 40060 71711 8692/ 333 59002 70054 85709 88458 81930==
41907,2023,05,26,18,00,AAXX 26184 41907 01340 82702 10245 20220 30034 40049 70292 8662/ 333 59002 70000 83709 84615 88458==
41907,2023,05,26,21,00,AAXX 26214 41907 02440 20000 10238 20220 30025 40040 82500 333 59012 70000 82615==
41907,2023,05,27,00,00,AAXX 27004 41907 02950 00000 10230 20210 30036 40051 333 59015 70000==
41907,2023,05,27,03,00,AAXX 27034 41907 01330 82704 10235 20220 30060 40075 79500 8692/ 333 20230 59009 70048 85709 88458 81930==
41907,2023,05,27,06,00,AAXX 27064 41907 21350 81802 10275 20240 30051 40066 70296 8662/ 333 59015 60065 70064 82709 85615 88458==
41907,2023,05,27,09,00,AAXX 27094 41907 02350 81302 10295 20250 30038 40052 8662/ 333 58007 70064 82709 85615 88458==
41907,2023,05,27,12,00,AAXX 27124 41907 02950 01302 10295 20250 30028 40042 333 10312 58001 70064==
41907,2023,05,27,15,00,AAXX 27154 41907 02940 00000 10250 20240 30042 40057 333 59004 70064==
41907,2023,05,27,18,00,AAXX 27184 41907 02940 00000 10245 20240 30053 40068 333 58019 70064==
41907,2023,05,27,21,00,AAXX 27214 41907 02940 00000 10237 20230 30042 40057 333 58017 70064==
41907,2023,05,28,00,00,AAXX 28004 41907 01308 80501 10242 20240 30046 40061 74200 8662/ 333 58010 70064 85709 88458==
41907,2023,05,28,03,00,AAXX 28034 41907 01/50 33602 10294 20230 30065 40080 70142 83030 333 20233 58005 70016 83362==
41907,2023,05,28,06,00,AAXX 28064 41907 01456 30902 10328 20240 30057 40072 70242 83800 333 58006 70000 82615==
41907,2023,05,28,09,00,AAXX 28094 41907 02456 30502 10335 20220 30042 40057 83800 333 58004 70000 81615 83825==
41907,2023,05,28,12,00,AAXX 28124 41907 02956 00000 10330 20240 30033 40047 333 10346 58005 70000==
41907,2023,05,28,15,00,AAXX 28154 41907 02940 00000 10280 20250 30045 40060 333 58003 70000==
41907,2023,05,28,18,00,AAXX 28184 41907 02940 00000 10265 20250 30056 40071 333 58003 70000==
41907,2023,05,28,21,00,AAXX 28214 41907 02940 00000 10250 20240 30050 40065 333 58003 70000==
41907,2023,05,29,00,00,AAXX 29004 41907 01940 00000 10245 20245 30050 40065 70500 333 58004 70000==
41907,2023,05,29,03,00,AAXX 29034 41907 02950 03602 10320 20230 30071 40085 333 20238 58006 70000==
41907,2023,05,29,06,00,AAXX 29064 41907 02456 40000 10345 20220 30064 40078 84800 333 58007 70000 82615 83825==
41907,2023,05,29,09,00,AAXX 29094 41907 02456 23602 10355 20220 30044 40058 82800 333 58002 70000 81615==
41907,2023,05,29,12,00,AAXX 29124 41907 02956 00000 10345 20260 30032 40046 333 10365 59001 70000==
41907,2023,05,29,15,00,AAXX 29154 41907 02940 00000 10278 20250 30051 40066 333 58006 70000==
41907,2023,05,29,18,00,AAXX 29184 41907 02940 00000 10267 20260 30056 40071 333 58000 70000==
41907,2023,05,29,21,00,AAXX 29214 41907 02940 00000 10256 20250 30049 40064 333 59001 70000==
41907,2023,05,30,00,00,AAXX 30004 41907 01940 00000 10260 20250 30048 40063 70500 333 59002 70000==
41907,2023,05,30,03,00,AAXX 30034 41907 02450 42702 10330 20250 30058 40072 84800 333 20253 59013 70000 83615==
41907,2023,05,30,06,00,AAXX 30064 41907 02456 42702 10362 20230 30049 40063 84800 333 59008 70000 83615==
41907,2023,05,30,09,00,AAXX 30094 41907 02456 41802 10370 20240 30025 40039 84400 333 59019 70000 82615 83825==
41907,2023,05,30,12,00,AAXX 30124 41907 02956 00000 10350 20270 30012 40026 333 10377 59020 70000==
41907,2023,05,30,15,00,AAXX 30154 41907 02940 00000 10295 20270 30032 40046 333 59019 70000==
41907,2023,05,30,18,00,AAXX 30184 41907 02940 00000 10285 20270 30039 40053 333 59017 70000==
41907,2023,05,30,21,00,AAXX 30214 41907 02940 00000 10278 20250 30030 40045 333 59019 70000==
41907,2023,05,31,00,00,AAXX 31004 41907 02950 61802 10275 20250 30034 40049 80001 333 59014 70000 86080==
41907,2023,05,31,03,00,AAXX 31034 41907 02950 52702 10325 20260 30044 40058 80001 333 20270 59014 70000 85080==
41907,2023,05,31,06,00,AAXX 31064 41907 02456 52702 10360 20210 30036 40050 85800 333 59013 70000 82615 83825==
41907,2023,05,31,09,00,AAXX 31094 41907 02456 52702 10380 20240 30008 40022 85800 333 59017 70000 82615 83825==
41907,2023,05,31,12,00,AAXX 31124 41907 02956 00000 10355 20270 39998 40012 333 10385 59014 70000==
41907,2023,05,31,15,00,AAXX 31154 41907 02940 00000 10320 20270 30034 40048 333 58002 70000==
41907,2023,05,31,18,00,AAXX 31184 41907 02940 00000 10295 20280 30035 40049 333 59004 70000==
41907,2023,05,31,21,00,AAXX 31214 41907 02940 00000 10275 20270 30017 40031 333 59013 70000==
41907,2023,06,01,00,00,AAXX 01004 41907 02440 72702 10272 20260 30014 40029 85510 333 59020 70000 85615 87458==
41907,2023,06,01,03,00,AAXX 01034 41907 02450 52702 10330 20240 30026 40040 85800 333 20265 59018 70000 82615 83825==
41907,2023,06,01,06,00,AAXX 01064 41907 02956 02702 10307 20210 30025 40040 333 59011 70000==
41907,2023,06,01,09,00,AAXX 01094 41907 02956 33102 10385 20200 39996 40010 80001 333 59012 70000 83080==
41907,2023,06,01,12,00,AAXX 01124 41907 02956 40000 10352 20260 39983 49997 80001 333 10392 59015 70000 84080==
41907,2023,06,01,15,00,AAXX 01154 41907 02940 00000 10300 20250 39994 40009 333 59040 70000==
41907,2023,06,01,18,00,AAXX 01184 41907 02940 00000 10290 20240 30005 40020 333 59030 70000==
41907,2023,06,01,21,00,AAXX 01214 41907 02940 00000 10275 20250 39998 40013 333 59019 70000==
41909,2023,05,26,00,00,AAXX 26004 41909 11/50 31401 10230 20210 30057 40069 60016 70196 83030 333 58006 70110 83365==
41909,2023,05,26,03,00,AAXX 26034 41909 02956 00000 10280 20220 30085 40096 333 20218 58017 70110==
41909,2023,05,26,06,00,AAXX 26064 41909 02456 51401 10322 20200 30076 40087 82510 333 58017 70110 82615 85460==
41909,2023,05,26,09,00,AAXX 26093 41909 02456 50000 10338 20210 30050 40061 82510 333 58007 70110 82618 85460==
41909,2023,05,26,12,00,AAXX 26124 41909 02956 00000 10320 20220 30039 40050 333 10345 58018 70110==
41909,2023,05,26,15,00,AAXX 26154 41909 02440 50000 10290 20240 30054 40064 82510 333 58013 70110 82615 85460==
41909,2023,05,26,18,00,AAXX 26184 41909 02440 50000 10278 20240 30042 40053 82510 333 58004 70010 85615 85360==
41909,2023,05,27,00,00,AAXX 27004 41909 02450 40000 10240 20220 30040 40051 82530 333 59017 70000 82614 83365==
41909,2023,05,27,03,00,AAXX 27034 41909 42456 80000 10284 20210 30065 40076 8352/ 333 20232 59020 83615 88458==
41909,2023,05,27,06,00,AAXX 27064 41909 01350 80000 10250 20230 30067 40078 79596 8692/ 333 59009 70050 83708 83614 88458 81930==
41909,2023,05,27,09,00,AAXX 27094 41909 01456 62202 10290 20220 30052 40063 70162 83370 333 58002 70052 83614 84460 81930==
41909,2023,05,27,12,00,AAXX 27124 41909 11456 50000 10286 20230 30041 40052 69926 70162 82530 333 10312 58002 70052 82614 84365==
41909,2023,05,27,15,00,AAXX 27154 41909 02950 00000 10255 20230 30057 40068 333 58003 70052==
41909,2023,05,27,18,00,AAXX 27184 41909 02940 00000 10250 20230 30060 40071 333 58018 70052==
41909,2023,05,27,21,00,AAXX 27214 41909 01940 00000 10245 20230 30060 40071 70500 333 58018 70052==
41909,2023,05,28,00,00,AAXX 28004 41909 01945 00000 10235 20230 30059 40071 70500 333 58019 70052==
41909,2023,05,28,03,00,AAXX 28034 41909 02956 00000 10294 20220 30072 40083 333 20220 58007 70052==
41909,2023,05,28,06,00,AAXX 28064 41909 02456 61401 10323 20220 30070 40081 82530 333 58003 70002 82615 85360==
41909,2023,05,28,09,00,AAXX 28094 41909 02456 51401 10345 20220 30054 40065 83370 333 58002 70000 83615 84460 81930==
41909,2023,05,28,12,00,AAXX 28124 41909 02956 00000 10322 20230 30040 40051 333 10345 59001 70000==
41909,2023,05,28,15,00,AAXX 28154 41909 02940 00000 10284 20240 30058 40069 333 58001 70000==
41909,2023,05,28,18,00,AAXX 28184 41909 02940 00000 10270 20240 30068 40079 333 58008 70000==
41909,2023,05,28,21,00,AAXX 28214 41909 02940 00000 10253 20230 30066 40077 333 58006 70000==
41909,2023,05,29,00,00,AAXX 29004 41909 02950 00000 10250 20230 30066 40077 333 58007 70000==
41909,2023,05,29,03,00,AAXX 29034 41909 02956 02701 10314 20230 30082 40093 333 20243 58010 70000==
41909,2023,05,29,06,00,AAXX 29064 41909 02456 52702 10347 20210 30074 40085 81530 333 58004 70000 81618 85360==
41909,2023,05,29,09,00,AAXX 29094 41909 02456 32302 10359 20210 30051 40063 83800 333 58003 70000 82615==
41909,2023,05,29,12,00,AAXX 29124 41909 02956 00000 10339 20240 30039 40052 333 10364 58001 70000==
41909,2023,05,29,15,00,AAXX 29154 41909 02940 00000 10290 20260 30061 40072 333 58003 70000==
41909,2023,05,29,18,00,AAXX 29184 41909 02940 00000 10282 20260 30063 40074 333 59005 70000==
41909,2023,05,29,21,00,AAXX 29214 41909 02940 00000 10262 20240 30060 40072 333 59006 70000==
41909,2023,05,30,00,00,AAXX 30004 41909 02956 10000 10264 20240 30062 40064 80001 333 59004 70000==
41909,2023,05,30,03,00,AAXX 30034 41909 02956 00000 10334 20220 30073 40084 333 20244 59009 70000==
41909,2023,05,30,06,00,AAXX 30064 41909 02456 42701 10354 20220 30062 40073 81530 333 59012 70000 81618 84360==
41909,2023,05,30,09,00,AAXX 30094 41909 02456 22702 10374 20190 30034 40046 82800 333 59017 70000 81618==
41909,2023,05,30,12,00,AAXX 30124 41909 02456 50000 10355 20200 30023 40035 82510 333 10380 59016 70000 82615 85460==
41909,2023,05,30,15,00,AAXX 30154 41909 02940 00000 10298 20250 30049 40055 333 59012 70000==
41909,2023,05,30,18,00,AAXX 30184 41909 02940 00000 10288 20250 30047 40058 333 59016 70000==
41909,2023,05,30,21,00,AAXX 30214 41909 02940 00000 10278 20260 30049 40060 333 59011 70000==
41909,2023,05,31,00,00,AAXX 31004 41909 02456 60000 10278 20260 30040 40051 82510 333 59022 70000 82615 86458==
41909,2023,05,31,03,00,AAXX 31034 41909 02956 00000 10317 20250 30056 40067 333 20255 59017 70000==
41909,2023,05,31,06,00,AAXX 31064 41909 02456 52301 10368 20230 30043 40055 82530 333 59019 70000 82615 85360==
41909,2023,05,31,09,00,AAXX 31094 41909 02456 52301 10368 20230 30043 40055 82530 333 59019 70000 82615 83360==
41909,2023,05,31,12,00,AAXX 31124 41909 02956 00000 10365 20240 30004 40016 333 10385 59019 70000==
41909,2023,05,31,15,00,AAXX 31154 41909 02950 00000 10319 20240 30029 40040 333 59020 70000==
41909,2023,05,31,18,00,AAXX 31184 41909 02945 00000 10297 20250 30024 40035 333 59023 70000==
41909,2023,05,31,21,00,AAXX 31214 41909 02/40 30000 10295 20260 30022 40033 83030 333 59027 70000 83365==
41909,2023,06,01,00,00,AAXX 01004 41909 02950 50000 10290 20260 30021 40032 82530 333 59019 70000 82615 84365==
41909,2023,06,01,03,00,AAXX 01034 41909 02456 62701 10330 20260 30040 40051 82510 333 20280 59016 70000 82615 86458==
41909,2023,06,01,06,00,AAXX 01064 41909 02456 61402 10361 20260 30035 40045 82510 333 59008 70000 82615 86458==
41909,2023,06,01,09,00,AAXX 01094 41909 02956 02702 10378 20220 30008 40020 333 59009 70000==
41909,2023,06,01,12,00,AAXX 01124 41909 02956 02701 10365 20240 39993 40005 333 10382 59011 70000==
41909,2023,06,01,15,00,AAXX 01154 41909 02956 02701 10365 20240 39993 40005 333 10382 59011 70000==
41909,2023,06,01,18,00,AAXX 01184 41909 02940 00000 10309 20260 30016 40027 333 59008 70000==
41909,2023,06,01,21,00,AAXX 01214 41909 02940 00000 10290 20260 30017 40028 333 59005 70000==
41915,2023,05,26,00,00,AAXX 26004 41915 21456 80000 10222 20210 30062 40088 70296 8562/ 333 58012 60448 70440 84615 88458==
41915,2023,05,26,03,00,AAXX 26034 41915 02456 60000 10258 20230 30077 40103 84430 333 20218 59016 70440 84616 83362==
41915,2023,05,26,06,00,AAXX 26064 41915 02456 40000 10312 20250 30066 40091 84400 333 59014 70440 82616==
41915,2023,05,26,09,00,AAXX 26093 41915 02456 10000 10334 20220 30034 40059 81400 333 58004 70440 81616==
41915,2023,05,26,12,00,AAXX 26124 41915 02456 50000 10314 20220 30034 40059 84430 333 10344 58016 70440 83616 83362==
41915,2023,05,26,15,00,AAXX 26154 41915 02450 50000 10282 20250 30055 40080 84420 333 58015 70440 83616 84458==
41915,2023,05,26,18,00,AAXX 26184 41915 02450 80000 10271 20250 30052 40077 8542/ 333 58019 70440 84616 88458==
41915,2023,05,27,00,00,AAXX 27004 41915 21456 20000 10250 20240 30043 40068 70162 82400 333 59019 60009 70000 82616==
41915,2023,05,27,03,00,AAXX 27034 41915 42456 72702 10294 20250 30065 40090 86470 333 20246 59012 85616 85458==
41915,2023,05,27,06,00,AAXX 27064 41915 01456 62502 10315 20250 30052 40077 70162 85310 333 59014 70010 84616 81928==
41915,2023,05,27,09,00,AAXX 27094 41915 02456 63602 10300 20250 30029 40054 85310 333 59005 70010 84616 81928==
41915,2023,05,27,12,00,AAXX 27124 41915 21456 60602 10235 20235 30043 40069 72996 84340 333 10328 58009 60587 70590 83616 81928==
41915,2023,05,27,15,00,AAXX 27154 41915 02/50 10000 10234 20220 30049 40075 81030 333 59006 70590 81362==
41915,2023,05,27,18,00,AAXX 27184 41915 02/50 10000 10226 20220 30048 40074 81030 333 59006 70590 81362==
41915,2023,05,27,21,00,AAXX 27214 41915 02/50 20000 10225 20225 30046 40072 82030 333 59003 70590 82362==
41915,2023,05,28,00,00,AAXX 28004 41915 02456 50000 10238 20238 30055 40080 84430 333 58012 70590 83616 83362==
41915,2023,05,28,03,00,AAXX 28034 41915 01456 60000 10268 20250 30068 40093 70362 86400 333 20224 58003 70630 85616==
41915,2023,05,28,06,00,AAXX 28064 41915 12456 61002 10318 20230 30059 40084 60046 86400 333 58007 70620 84616==
41915,2023,05,28,09,00,AAXX 28094 41915 02556 40000 10335 20230 30035 40060 84200 333 59006 70620 84825==
41915,2023,05,28,12,00,AAXX 28124 41915 02556 50000 10325 20230 30037 40062 85200 333 10346 59009 70030 85825==
41915,2023,05,28,15,00,AAXX 28154 41915 02/50 40000 10235 20220 30049 40075 81030 333 59006 70300 84362==
41915,2023,05,28,18,00,AAXX 28184 41915 02/50 20000 10228 20220 30049 40075 82030 333 59008 70020 82362==
41915,2023,05,28,21,00,AAXX 28214 41915 02950 00000 10250 20220 30057 40082 333 58011 70000==
41915,2023,05,29,00,00,AAXX 29004 41915 02956 00000 10254 20240 30063 40089 333 58008 70000==
41915,2023,05,29,03,00,AAXX 29034 41915 02956 00000 10320 20230 30067 40092 333 20243 59001 70000==
41915,2023,05,29,06,00,AAXX 29064 41915 02956 03401 10335 20250 30062 40087 333 58003 70000==
41915,2023,05,29,09,00,AAXX 29094 41915 02956 03602 10348 20220 30036 40060 333 58001 70000==
41915,2023,05,29,12,00,AAXX 29124 41915 02956 00000 10336 20250 30038 40054 333 10257 59017 70000==
41915,2023,05,29,15,00,AAXX 29154 41915 02950 00000 10276 20260 30052 40078 333 59008 70000==
41915,2023,05,29,18,00,AAXX 29184 41915 02950 00000 10264 20250 30054 40079 333 59001 70000==
41915,2023,05,29,21,00,AAXX 29214 41915 02950 00000 10254 20240 30048 40074 333 59009 70000==
41915,2023,05,30,00,00,AAXX 30004 41915 02956 30000 10252 20240 30056 40081 83004 333 59007 70000 83080==
41915,2023,05,30,03,00,AAXX 30034 41915 02956 00000 10323 20230 30069 40091 333 20243 58002 70000==
41915,2023,05,30,06,00,AAXX 30064 41915 02456 31602 10345 20230 30051 40075 83410 333 59011 70000 82616 83458==
41915,2023,05,30,09,00,AAXX 30094 41915 02456 31401 10352 20240 30021 40045 83410 333 59015 70000 82616 83458==
41915,2023,05,30,12,00,AAXX 30124 41915 02456 20000 10322 20270 30018 40042 82410 333 10365 59020 70000 82616==
41915,2023,05,30,18,00,AAXX 30184 41915 02450 40000 10275 20260 30039 40060 84410 333 59015 70000 83616 88458==
41915,2023,05,30,21,00,AAXX 30214 41915 02450 30000 10268 20240 30039 40065 82410 333 59009 70000 82616 83458==
41915,2023,05,31,00,00,AAXX 31004 41915 02956 20000 10271 20250 30043 40068 82001 333 59013 70000 82080==
41915,2023,05,31,03,00,AAXX 31034 41915 02956 03401 10337 20230 30045 40069 333 20256 59024 70000==
41915,2023,05,31,06,00,AAXX 31064 41915 02956 03002 10357 20240 30036 40060 333 59015 70000==
41915,2023,05,31,12,00,AAXX 31124 41915 02956 00000 10352 20240 30003 40027 333 10374 59015 70000==
41915,2023,05,31,15,00,AAXX 31154 41915 02956 00000 10294 20230 30009 40043 333 58000 70000==
41915,2023,05,31,18,00,AAXX 31184 41915 02950 00000 10284 20230 30014 40039 333 59025 70000==
41915,2023,06,01,00,00,AAXX 01004 41915 02956 20000 10267 20250 30019 40044 82001 333 59024 70000 82080==
41915,2023,06,01,03,00,AAXX 01034 41915 02956 11802 10312 20230 30041 40066 80002 333 20265 59004 70000 81080==
41915,2023,06,01,06,00,AAXX 01064 41915 02456 31802 10343 20250 30034 40058 82330 333 59002 70000 82616==
41915,2023,06,01,09,00,AAXX 01094 41915 02456 21802 10352 20260 30003 40028 82400 333 58002 70000 81616==
41915,2023,06,01,12,00,AAXX 01124 41915 02956 01301 10332 20270 39995 40020 333 10362 59008 70000==
41915,2023,06,01,15,00,AAXX 01154 41915 02450 60902 10286 20240 30003 40028 82510 333 59006 70000 82616 85459==
41915,2023,06,01,18,00,AAXX 01184 41915 02450 70901 10280 20250 30018 40043 84420 333 58004 70000 83616 87458==
41915,2023,06,01,21,00,AAXX 01214 41915 02450 40000 10272 20260 30016 40041 83520 333 58003 70000 83616 84458==
41923,2023,05,26,00,00,AAXX 26004 41923 02440 70000 10246 20220 30064 40073 84430 333 58001 70000 83615 85360==
41923,2023,05,26,03,00,AAXX 26034 41923 02456 30603 10296 20220 30089 40099 81530 333 20245 58014 70000 81616 83360==
41923,2023,05,26,06,00,AAXX 26064 41923 02956 00000 10336 20200 30078 40088 333 58013 70000==
41923,2023,05,26,09,00,AAXX 26094 41923 02456 32502 10344 20200 30048 40058 82430 333 58002 70000 82616==
41923,2023,05,26,12,00,AAXX 26124 41923 02350 60000 10320 20220 30049 40059 84630 333 10356 58021 70000 81709 84615 85362==
41923,2023,05,26,15,00,AAXX 26154 41923 02350 62502 10304 20240 30068 40078 84630 333 58017 70000 81709 84615 85362==
41923,2023,05,26,18,00,AAXX 26184 41923 21345 52506 10253 20230 30051 40060 72996 84630 333 59007 69987 70008 81708 84614==
41923,2023,05,26,21,00,AAXX 26214 41923 02345 72202 10258 20230 30047 40057 85370 333 59005 70008 82708 84614 85459 81930==
41923,2023,05,27,00,00,AAXX 27004 41923 02345 80000 10250 20210 30051 40060 8632/ 333 59013 70008 83708 84614 88458 81928==
41923,2023,05,27,03,00,AAXX 27034 41923 02450 60000 10302 20210 30074 40084 83530 333 20243 59015 70008 83615 85362==
41923,2023,05,27,06,00,AAXX 27064 41923 02356 72403 10327 20230 30061 40071 85370 333 59017 70008 82708 84614 85459 81929==
41923,2023,05,27,09,00,AAXX 27094 41923 01345 82203 10246 20230 30069 40078 79596 8692/ 333 58021 70098 83709 84614 88458 81930==
41923,2023,05,27,12,00,AAXX 27124 41923 21456 30000 10262 20220 30049 40059 70196 83400 333 10331 58000 60099 70102 80615==
41923,2023,05,27,15,00,AAXX 27154 41923 02/50 30000 10250 20230 30058 40067 83030 333 59010 70102 83360==
41923,2023,05,27,18,00,AAXX 27184 41923 02350 50000 10252 20230 30063 40072 85600 333 58012 70094 82709 84615==
41923,2023,05,27,21,00,AAXX 27214 41923 02345 30000 10240 20220 30060 40069 83600 333 58013 70094 82709==
41923,2023,05,28,00,00,AAXX 28004 41923 01/40 20000 10232 20220 30067 40076 70500 82030 333 58016 70094 82360==
41923,2023,05,28,03,00,AAXX 28034 41923 01950 00000 10300 20210 30075 40085 70500 333 20230 58001 70094==
41923,2023,05,28,06,00,AAXX 28064 41923 02456 40000 10330 20230 30069 40079 84400 333 58008 70094 82615 83824==
41923,2023,05,28,09,00,AAXX 28094 41923 02456 40000 10335 20210 30053 40063 84430 333 59016 70004 82616 83824==
41923,2023,05,28,12,00,AAXX 28124 41923 02456 40000 10330 20210 30045 40055 83431 333 10350 59004 70000 82616 83362==
41923,2023,05,28,15,00,AAXX 28154 41923 02/50 20000 10296 20240 30063 40073 82030 333 58005 70000 82362==
41923,2023,05,28,18,00,AAXX 28184 41923 02/50 20000 10287 20230 30071 40081 82030 333 58008 70000 82362==
41923,2023,05,28,21,00,AAXX 28214 41923 02/45 20000 10276 20240 30063 40073 82030 333 58003 70000 82362==
41923,2023,05,29,00,00,AAXX 29004 41923 01/40 20000 10265 20250 30072 40082 70500 82030 333 58005 70000 82362==
41923,2023,05,29,03,00,AAXX 29034 41923 01940 30000 10325 20230 30087 40097 70500 83400 333 20264 58012 70000 82616==
41923,2023,05,29,06,00,AAXX 29064 41923 02450 43602 10348 20210 30076 40086 84430 333 58007 70000 82616 83824==
41923,2023,05,29,09,00,AAXX 29094 41923 02456 31502 10358 20210 30054 40064 83400 333 58001 70000 83615==
41923,2023,05,29,12,00,AAXX 29124 41923 02456 10000 10339 20200 30043 40053 81430 333 10363 59002 70000 81616==
41923,2023,05,29,15,00,AAXX 29154 41923 02/50 20000 10311 20230 30034 40074 82030 333 58001 70000 82362==
41923,2023,05,29,18,00,AAXX 29184 41923 02950 00000 10298 20230 30069 40079 81030 333 59002 70000 81362==
41923,2023,05,29,21,00,AAXX 29214 41923 02/45 10000 10287 20240 30063 40073 81030 333 58000 70000 81362==
41923,2023,05,30,00,00,AAXX 30004 41923 02/45 20000 10271 20240 30068 40078 81031 333 59004 70000 81362==
41923,2023,05,30,03,00,AAXX 30034 41923 02956 20000 10340 20220 30076 40086 80001 333 20269 59011 70000 82071==
41923,2023,05,30,06,00,AAXX 30064 41923 02456 32202 10354 20210 30067 40077 83430 333 59009 70000 83616==
41923,2023,05,30,09,00,AAXX 30094 41923 02/56 32202 10364 20190 30039 40049 83030 333 59015 70000 83365==
41923,2023,05,30,12,00,AAXX 30124 41923 01/45 22702 10348 20210 30030 40040 70511 82030 333 10372 59013 70000 82365==
41923,2023,05,30,15,00,AAXX 30154 41923 01940 01802 10308 20230 30048 40058 70500 333 59016 70000==
41923,2023,05,30,18,00,AAXX 30184 41923 01940 00000 10292 20230 30050 40060 70500 333 59019 70000==
41923,2023,05,30,21,00,AAXX 30214 41923 01440 50000 10293 20240 30044 40054 70522 82530 333 59019 70000 82615 85365==
41923,2023,05,31,00,00,AAXX 31004 41923 01445 72702 10298 20230 30050 40060 70521 81530 333 59018 70000 81615 84365==
41923,2023,05,31,03,00,AAXX 31034 41923 02956 02402 10336 20240 30061 40071 333 20290 59015 70000==
41923,2023,05,31,06,00,AAXX 31064 41923 02456 52002 10366 20230 30049 40059 82530 333 59018 70000 82615 85365==
41923,2023,05,31,09,00,AAXX 31094 41923 02/56 32103 10376 20200 30020 40029 83030 333 59019 70000 83360==
41923,2023,05,31,12,00,AAXX 31124 41923 02956 02402 10356 20230 30012 40021 333 10378 59018 70000==
41923,2023,05,31,15,00,AAXX 31154 41923 02950 02202 10332 20250 30031 40041 333 59017 70000==
41923,2023,05,31,18,00,AAXX 31184 41923 02445 60000 10322 20230 30034 40044 82530 333 59016 70000 82615 86360==
41923,2023,05,31,21,00,AAXX 31214 41923 01440 50000 10308 20250 30024 40034 70522 82530 333 59020 70000 82615 85360==
41923,2023,06,01,00,00,AAXX 01004 41923 01440 50000 10294 20260 30033 40043 70522 82530 333 59017 70000 82615 85360==
41923,2023,06,01,03,00,AAXX 01034 41923 01450 52002 10328 20270 30050 40060 70522 82530 333 20292 59011 70000 82615 85360==
41923,2023,06,01,06,00,AAXX 01064 41923 02356 42403 10362 20240 30041 40051 84630 333 59008 70000 82709 83615 85360==
41923,2023,06,01,09,00,AAXX 01094 41923 02456 61702 10366 20250 30010 40019 84430 333 59010 70000 82616 83824 85360==
41923,2023,06,01,12,00,AAXX 01124 41923 02450 52402 10351 20260 30004 40014 83430 333 10374 59008 70000 82616 83362==
41923,2023,06,01,15,00,AAXX 01154 41923 02/50 21802 10331 20260 30018 40028 82030 333 59013 70000 82362==
41923,2023,06,01,18,00,AAXX 01184 41923 02/45 31802 10312 20260 30028 40038 83030 333 59006 70000 83360==
41923,2023,06,01,21,00,AAXX 01214 41923 02445 41802 10301 20270 30021 40031 82530 333 59003 70000 82616 83360==
41926,2023,05,26,00,00,AAXX 26004 41926 01450 60000 10225 20220 30057 40070 70192 84510 333 58010 70210 84618 86459==
41926,2023,05,26,03,00,AAXX 26034 41926 02450 20000 10280 20220 30078 40092 82500 333 20223 58017 70210 82618==
41926,2023,05,26,06,00,AAXX 26064 41926 02950 00000 10320 20220 30068 40081 333 58017 70210==
41926,2023,05,26,09,00,AAXX 26093 41926 02456 22501 10335 20230 30037 40050 82500 333 58011 70210 82616==
41926,2023,05,26,12,00,AAXX 26124 41926 02450 60000 10320 20260 30033 40046 84310 333 10340 58021 70210 83616 86459 81930==
41926,2023,05,26,15,00,AAXX 26154 41926 01450 80000 10232 20220 30057 40071 79796 8692/ 333 59004 70150 84615 88458 82928==
41926,2023,05,26,18,00,AAXX 26184 41926 22450 80000 10230 20220 30045 40059 8452/ 333 58007 60078 70070 84615 88458==
41926,2023,05,27,00,00,AAXX 27004 41926 02450 60000 10220 20210 30044 40058 83510 333 59013 70070 83616 86459==
41926,2023,05,27,03,00,AAXX 27034 41926 01356 81301 10256 20230 30063 40077 76122 8432/ 333 20220 59015 70070 82708 83615 88458 81930==
41926,2023,05,27,06,00,AAXX 27064 41926 21456 71301 10262 20230 30060 40074 70162 84510 333 59008 60047 70110 84617 87459==
41926,2023,05,27,09,00,AAXX 27094 41926 02456 50000 10292 20240 30047 40061 82510 333 58010 70110 82618 85459==
41926,2023,05,27,12,00,AAXX 27124 41926 02950 00000 10284 20240 30039 40053 333 10302 58006 70110==
41926,2023,05,27,15,00,AAXX 27154 41926 01940 00000 10254 20240 30048 40062 70500 333 59009 70040==
41926,2023,05,27,18,00,AAXX 27184 41926 01940 00000 10245 20240 30048 40062 70500 333 58003 70040==
41926,2023,05,27,21,00,AAXX 27214 41926 01930 00000 10240 20230 30049 40063 70500 333 58012 70000==
41926,2023,05,28,00,00,AAXX 28004 41926 01920 00000 10237 20237 30054 40068 71000 333 58010 70040==
41926,2023,05,28,03,00,AAXX 28034 41926 01/40 20000 10266 20250 30073 40087 70500 82010 333 20234 58010 70040 82459==
41926,2023,05,28,06,00,AAXX 28064 41926 02956 30000 10316 20250 30063 40077 83500 333 58006 70000 83618==
41926,2023,05,28,12,00,AAXX 28124 41926 02950 00000 10325 20260 30042 40055 333 10350 58003 70000==
41926,2023,05,28,15,00,AAXX 28154 41926 02950 00000 10277 20260 30056 40070 333 58008 70000==
41926,2023,05,28,18,00,AAXX 28184 41926 01940 00000 10262 20250 30065 40079 70500 333 58017 70000==
41926,2023,05,28,21,00,AAXX 28214 41926 01940 00000 10252 20230 30064 40078 70500 333 58015 70000==
41926,2023,05,29,00,00,AAXX 29004 41926 01940 00000 10245 20240 30063 40077 70500 333 58009 70000==
41926,2023,05,29,03,00,AAXX 29034 41926 02956 00501 10317 20250 30080 40094 333 20245 58007 70000==
41926,2023,05,29,06,00,AAXX 29064 41926 02456 30000 10350 20220 30071 40084 83500 333 58008 70000 83618==
41926,2023,05,29,09,00,AAXX 29094 41926 02456 40000 10356 20230 30050 40063 84400 333 58000 70000 82615 83820==
41926,2023,05,29,12,00,AAXX 29124 41926 02956 00000 10340 20250 30037 40050 333 10366 59005 70000==
41926,2023,05,29,15,00,AAXX 29154 41926 02950 00000 10290 20280 30056 40070 333 58000 70000==
41926,2023,05,29,18,00,AAXX 29184 41926 02950 00000 10275 20270 30063 40077 333 59002 70000==
41926,2023,05,29,21,00,AAXX 29214 41926 02950 00000 10270 20260 30051 40065 333 59013 70000==
41926,2023,05,30,00,00,AAXX 30004 41926 01950 00000 10265 20260 30055 40069 70500 333 59008 70000==
41926,2023,05,30,03,00,AAXX 30034 41926 02456 50000 10320 20260 30070 40083 83510 333 20265 59010 70000 83618 84459==
41926,2023,05,30,06,00,AAXX 30064 41926 02957 20000 10360 20220 30057 40070 80001 333 59014 70000 82080==
41926,2023,05,30,09,00,AAXX 30094 41926 02957 11802 10375 20240 30030 40043 80001 333 59020 70000 81080==
41926,2023,05,30,12,00,AAXX 30124 41926 02956 20000 10355 20250 30021 40034 80001 333 10382 59016 70000 82080==
41926,2023,05,30,15,00,AAXX 30154 41926 02950 00000 10302 20270 30039 40053 333 59017 70000==
41926,2023,05,30,18,00,AAXX 30184 41926 02950 00000 10280 20270 30045 40059 333 59018 70000==
41926,2023,05,30,21,00,AAXX 30214 41926 02950 00000 10270 20260 30045 40059 333 59006 70000==
41926,2023,05,31,00,00,AAXX 31004 41926 01950 20000 10267 20260 30044 40058 70500 80001 333 59011 70000 82080==
41926,2023,05,31,03,00,AAXX 31034 41926 02956 20000 10325 20270 30051 40064 80001 333 20267 59019 70000 82080==
41926,2023,05,31,06,00,AAXX 31064 41926 02457 30000 10365 20240 30042 40055 82501 333 59015 70000 82618==
41926,2023,05,31,09,00,AAXX 31094 41926 02457 51802 10377 20240 30012 40025 85400 333 59018 70000 82618 83825==
41926,2023,05,31,12,00,AAXX 31124 41926 02456 20000 10346 20270 30004 40017 82400 333 10380 59017 70000 81618==
41926,2023,05,31,15,00,AAXX 31154 41926 02950 10000 10293 20250 30023 40037 80001 333 59016 70000 81080==
41926,2023,05,31,18,00,AAXX 31184 41926 02950 00000 10280 20260 30026 40040 333 59019 70000==
41926,2023,05,31,21,00,AAXX 31214 41926 02950 00000 10276 20260 30024 40038 333 59021 70000==
41926,2023,06,01,00,00,AAXX 01004 41926 01950 00000 10272 20260 30021 40032 70500 333 59022 70000==
41926,2023,06,01,03,00,AAXX 01034 41926 02956 10000 10320 20240 30037 40050 80001 333 20270 59014 70000 81080==
41926,2023,06,01,06,00,AAXX 01064 41926 02957 20000 10365 20240 30035 40048 80001 333 59007 70000 82080==
41926,2023,06,01,09,00,AAXX 01094 41926 02957 00000 10390 20200 30004 40017 333 59008 70000==
41926,2023,06,01,12,00,AAXX 01124 41926 02950 00000 10355 20260 39992 40005 333 10395 59012 70000==
41926,2023,06,01,15,00,AAXX 01154 41926 02950 00000 10310 20260 30009 40023 333 59014 70000==
41926,2023,06,01,18,00,AAXX 01184 41926 02950 00000 10295 20270 30013 40027 333 59013 70000==
41926,2023,06,01,21,00,AAXX 01214 41926 02950 00000 10290 20270 30016 40030 333 59008 70000==
41927,2023,05,26,00,00,AAXX 26004 41927 31450 50000 10230 20220 30063 40077 70192 83510 333 56490 58011 70430 83617 84459=
41927,2023,05,26,06,00,AAXX 26064 41927 32958 01801 10310 20230 30066 40080 333 58013 70430=
41927,2023,05,26,12,00,AAXX 26124 41927 32456 60000 10310 20230 30031 40045 83510 333 10332 56490 58019 70430 83617 85459=
41927,2023,05,26,18,00,AAXX 26184 41927 11450 81802 10220 20210 30070 40085 60025 70296 8452/ 333 56499 59003 70020 84616 88458=
41927,2023,05,27,00,00,AAXX 27004 41927 32950 00000 10230 20220 30057 40071 333 59006 70020=
41927,2023,05,27,06,00,AAXX 27064 41927 11456 81603 10260 20220 30059 40074 60145 70262 8452/ 333 56499 59007 70164 84616 88458=
41927,2023,05,27,12,00,AAXX 27124 41927 32957 00000 10274 20220 30039 40054 333 10288 58008 70164=
41927,2023,05,27,18,00,AAXX 27184 41927 32956 01601 10238 20220 30061 40075 333 59008 70144=
41927,2023,05,28,00,00,AAXX 28004 41927 32956 00000 10234 20220 30055 40069 333 59002 70144=
41927,2023,05,28,06,00,AAXX 28064 41927 NIL=
41927,2023,05,28,12,00,AAXX 28124 41927 32957 00000 10318 20260 30033 40048 333 10338 59006 70000=
41927,2023,05,28,18,00,AAXX 28184 41927 NIL=
41927,2023,05,29,00,00,AAXX 29004 41927 32956 00000 10248 20240 30051 40065 333 59004 70000=
41927,2023,05,29,06,00,AAXX 29064 41927 32958 01601 10340 20210 30064 40078 333 58007 70000=
41927,2023,05,29,12,00,AAXX 29124 41927 32957 00000 10338 20230 30032 40046 333 10338 59001 70000=
41927,2023,05,29,18,00,AAXX 29184 41927 32956 01601 10278 20260 30054 40069 333 59001 70000=
41927,2023,05,30,00,00,AAXX 30004 41927 32956 00000 10268 20260 30052 40066 333 59001 70000=
41927,2023,05,30,06,00,AAXX 30064 41927 32958 00000 10356 20220 30050 40064 333 59014 70000=
41927,2023,05,30,12,00,AAXX 30124 41927 32457 30000 10350 20260 30017 40031 83400 333 10376 56400 59015 70000 82618=
41927,2023,05,30,18,00,AAXX 30184 41927 32956 00000 10290 20280 30034 40048 333 59020 70000=
41927,2023,05,31,00,00,AAXX 31004 41927 32956 01801 10276 20270 30031 40046 333 59021 70000=
41927,2023,05,31,06,00,AAXX 31064 41927 32458 52801 10365 20240 30041 40055 85400 333 56600 59009 70000 82618 83825=
41927,2023,05,31,12,00,AAXX 31124 41927 32958 20000 10352 20250 30003 40017 80001 333 10377 56009 59014 70000 82080=
41927,2023,06,01,00,00,AAXX 01004 41927 32456 60000 10280 20260 30022 40036 83510 333 56990 59009 70000 83618 86459=
41927,2023,06,01,06,00,AAXX 01064 41927 32958 02301 10357 20250 30027 40041 333 59014 70000=
41927,2023,06,01,12,00,AAXX 01124 41927 32957 40000 10355 20260 39994 40008 80001 333 10388 56009 59009 70000 84080=
41927,2023,06,01,18,00,AAXX 01184 41927 32956 01801 10300 20270 30009 40023 333 59013 70000=
41929,2023,05,26,00,00,AAXX 26004 41929 02456 61803 10244 20230 30058 40067 83510 333 58011 70000 83618 83462==
41929,2023,05,26,03,00,AAXX 26034 41929 02456 31802 10290 20230 30084 40093 83500 333 20238 58014 70000 83618==
41929,2023,05,26,06,00,AAXX 26064 41929 02457 11802 10325 20220 30079 40088 81500 333 58020 70000 81618==
41929,2023,05,26,09,00,AAXX 26093 41929 02458 11801 10335 20230 30046 40055 81500 333 58007 70000 81618==
41929,2023,05,26,12,00,AAXX 26124 41929 02/57 40000 10320 20230 30039 40048 84030 333 10340 58021 70000 84365==
41929,2023,05,26,15,00,AAXX 26154 41929 01456 82712 10270 20210 30070 40079 79522 8592/ 333 58026 70020 84616 88460 81930==
41929,2023,05,26,18,00,AAXX 26184 41929 21/56 40000 10237 20230 30053 40062 70196 84030 333 58003 60108 70102 84365==
41929,2023,05,27,00,00,AAXX 27004 41929 02456 80000 10234 20220 30042 40051 8451/ 333 59016 70102 84618 88462==
41929,2023,05,27,03,00,AAXX 27034 41929 02456 80702 10275 20230 30068 40077 8351/ 333 20223 59016 70102 83618 88462==
41929,2023,05,27,06,00,AAXX 27064 41929 01456 81802 10245 20230 30068 40077 79596 8592/ 333 59011 70020 83618 88462 81930==
41929,2023,05,27,09,00,AAXX 27094 41929 01456 60302 10267 20240 30055 40064 70196 84420 333 58009 70444 83616 83825 86458==
41929,2023,05,27,12,00,AAXX 27124 41929 11460 50000 10268 20240 30044 40054 60326 70196 83420 333 10308 58005 70444 83616 85458==
41929,2023,05,27,15,00,AAXX 27154 41929 02956 00000 10240 20230 30056 40065 333 59014 70000==
41929,2023,05,27,18,00,AAXX 27184 41929 02956 00000 10236 20235 30062 40071 333 58009 70342==
41929,2023,05,27,21,00,AAXX 27214 41929 01950 00000 10230 20230 30052 40062 70500 333 58004 70000==
41929,2023,05,28,00,00,AAXX 28004 41929 01/15 30000 10227 20225 30063 40073 71010 83030 333 58021 70342 83362==
41929,2023,05,28,03,00,AAXX 28034 41929 02956 00902 10300 20240 30072 40081 333 20220 58004 70342==
41929,2023,05,28,06,00,AAXX 28064 41929 01457 23602 10330 20230 30069 40078 70340 82500 333 58001 70320 82618==
41929,2023,05,28,09,00,AAXX 28094 41929 02458 23103 10342 20210 30051 40060 82500 333 59004 70000 82618==
41929,2023,05,28,12,00,AAXX 28124 41929 02/57 20000 10325 20230 30043 40052 82030 333 10345 59001 70000 82365==
41929,2023,05,28,15,00,AAXX 28154 41929 02957 00000 10270 20250 30057 40067 333 58001 70000==
41929,2023,05,28,18,00,AAXX 28184 41929 02957 00000 10255 20250 30072 40081 333 58010 70000==
41929,2023,05,28,21,00,AAXX 28214 41929 02956 00000 10246 20240 30051 40061 333 58001 70000==
41929,2023,05,29,00,00,AAXX 29004 41929 02956 00000 10244 20230 30066 40075 333 58003 70000==
41929,2023,05,29,03,00,AAXX 29034 41929 02956 00000 10325 20240 30082 40091 333 20238 58010 70000==
41929,2023,05,29,06,00,AAXX 29064 41929 02457 33602 10340 20240 30077 40086 83400 333 58008 70000 82618==
41929,2023,05,29,09,00,AAXX 29094 41929 02457 30000 10355 20240 30051 40060 82430 333 58000 70000 81618==
41929,2023,05,29,12,00,AAXX 29124 41929 42/57 23002 10320 20220 30035 40044 82030 333 10360 59008 82365==
41929,2023,05,29,15,00,AAXX 29154 41929 02957 00000 10280 20260 30058 40068 333 58015 70000==
41929,2023,05,29,18,00,AAXX 29184 41929 02957 00000 10270 20260 30066 40076 333 59006 70000==
41929,2023,05,29,21,00,AAXX 29214 41929 42957 00000 10264 20250 30061 40071 58010==
41929,2023,05,30,00,00,AAXX 30004 41929 02/57 20000 10260 20250 30062 40071 82030 333 59004 70000 82365==
41929,2023,05,30,03,00,AAXX 30034 41929 02/57 20000 10332 20250 30073 40082 82040 333 20255 59009 70000 82365==
41929,2023,05,30,06,00,AAXX 30064 41929 02458 20000 10360 20230 30065 40074 82500 333 59012 70000 82618==
41929,2023,05,30,09,00,AAXX 30094 41929 02458 50000 10365 20210 30035 40044 82510 333 59016 70000 82618 83462==
41929,2023,05,30,12,00,AAXX 30124 41929 02958 00000 10334 20270 30022 40031 333 10370 59013 70000==
41929,2023,05,30,15,00,AAXX 30154 41929 02957 00000 10295 20280 30040 40049 333 59018 70000==
41929,2023,05,30,18,00,AAXX 30184 41929 02957 00000 10280 20260 30052 40061 333 59014 70000==
41929,2023,05,30,21,00,AAXX 30214 41929 02956 20000 10280 20260 30047 40056 82500 333 59005 70000 82618==
41929,2023,05,31,00,00,AAXX 31004 41929 02457 60000 10274 20250 30044 40053 82510 333 59018 70000 82618 85462==
41929,2023,05,31,03,00,AAXX 31034 41929 02457 30000 10335 20270 30055 40064 82530 333 20270 59018 70000 82618==
41929,2023,05,31,06,00,AAXX 31064 41929 02457 50000 10370 20240 30047 40056 82510 333 59018 70000 82618 83462==
41929,2023,05,31,09,00,AAXX 31094 41929 02458 32302 10373 20240 30039 40048 83400 333 58004 70000 82618==
41929,2023,05,31,12,00,AAXX 31124 41929 02958 00000 10350 20270 30006 40015 333 10375 59016 70000==
41929,2023,05,31,15,00,AAXX 31154 41929 02958 00000 10300 20270 30029 40039 333 59011 70000==
41929,2023,05,31,18,00,AAXX 31184 41929 02958 00000 10290 20280 30030 40039 333 59022 70000==
41929,2023,05,31,21,00,AAXX 31214 41929 02957 00000 10280 20260 30019 40028 333 59028 70000==
41929,2023,06,01,00,00,AAXX 01004 41929 02457 50000 10275 20270 30018 40027 82510 333 59026 70000 82618 84462==
41929,2023,06,01,03,00,AAXX 01034 41929 02957 00000 10330 20280 30043 40052 333 20270 59012 70000==
41929,2023,06,01,06,00,AAXX 01064 41929 02458 20000 10356 20260 30041 40050 82500 333 59006 70000 82618==
41929,2023,06,01,09,00,AAXX 01094 41929 02458 22303 10363 20270 30011 40020 82500 333 59028 70000 82618==
41929,2023,06,01,12,00,AAXX 01124 41929 02/58 30000 10347 20290 39999 40008 83030 333 10347 59007 70000 83365==
41929,2023,06,01,15,00,AAXX 01154 41929 02/56 20000 10305 20280 30012 40021 82030 333 59017 70000 82365==
41929,2023,06,01,18,00,AAXX 01184 41929 02/56 21803 10300 20280 30019 40028 82030 333 59011 70000 82365==
41929,2023,06,01,21,00,AAXX 01214 41929 02/56 30000 10292 20270 30019 40028 83030 333 58000 70000 83365==
41933,2023,05,26,00,00,AAXX 26004 41933 02450 81802 10240 20230 30061 40070 8452/ 333 58003 70010 84616 88458==
41933,2023,05,26,03,00,AAXX 26034 41933 02456 61802 10295 20250 30086 40095 84520 333 20230 58019 70010 84618 86458==
41933,2023,05,26,06,00,AAXX 26064 41933 02456 61802 10320 20230 30078 40087 84520 333 58014 70010 84618 86458==
41933,2023,05,26,09,00,AAXX 26093 41933 02456 32201 10332 20230 30049 40058 83400 333 58000 70010 82618==
41933,2023,05,26,12,00,AAXX 26124 41933 02456 62002 10310 20240 30047 40056 82530 333 10333 58007 70010 82618 85362==
41933,2023,05,26,15,00,AAXX 26154 41933 02/50 10000 10290 20250 30061 40070 81030 333 58005 70010 81362==
41933,2023,05,26,18,00,AAXX 26184 41933 01440 81802 10254 20220 30061 40070 72196 8352/ 333 58001 70020 83616 88458==
41933,2023,05,27,00,00,AAXX 27004 41933 02450 40000 10240 20220 30054 40062 82501 333 59007 70024 82616 83074==
41933,2023,05,27,03,00,AAXX 27034 41933 02456 41801 10294 20250 30072 40080 82530 333 20235 59014 70024 82616 83362==
41933,2023,05,27,06,00,AAXX 27064 41933 02456 42202 10327 20250 30060 40069 84400 333 59018 70024 82618==
41933,2023,05,27,09,00,AAXX 27094 41933 01350 82904 10245 20230 30068 40077 79596 8692/ 333 58019 70084 83708 84615 88456 81925==
41933,2023,05,27,12,00,AAXX 27124 41933 21450 32602 10255 20230 30041 40050 70196 83500 333 10335 59006 60128 70144 83618==
41933,2023,05,27,15,00,AAXX 27154 41933 02950 00000 10230 20220 30057 40066 333 59004 70144==
41933,2023,05,27,18,00,AAXX 27184 41933 02450 30000 10235 20230 30056 40065 83500 333 59005 70120 83618==
41933,2023,05,27,21,00,AAXX 27214 41933 02450 30000 10235 20230 30056 40065 83500 333 58022 70120 83618==
41933,2023,05,28,00,00,AAXX 28004 41933 02450 30000 10235 20230 30058 40067 83500 333 59003 70120 83618==
41933,2023,05,28,03,00,AAXX 28034 41933 02450 41803 10295 20250 30073 40081 82530 333 20230 58001 70120 82618==
41933,2023,05,28,06,00,AAXX 28064 41933 02456 50000 10315 20250 30065 40074 85400 333 58005 70120 82617 83828==
41933,2023,05,28,09,00,AAXX 28094 41933 02456 40000 10330 20230 30044 40053 84400 333 59024 70060 82618 83826==
41933,2023,05,28,12,00,AAXX 28124 41933 02956 00000 10318 20240 30041 40049 333 10339 58001 70000==
41933,2023,05,28,15,00,AAXX 28154 41933 02950 00000 10280 20260 30059 40067 333 58002 70000==
41933,2023,05,28,18,00,AAXX 28184 41933 02950 00000 10264 20250 30065 40074 333 58009 70000==
41933,2023,05,28,21,00,AAXX 28214 41933 01940 00000 10255 20250 30056 40065 70500 333 58000 70000==
41933,2023,05,29,00,00,AAXX 29004 41933 01940 00000 10252 20240 30066 40075 70500 333 58008 70000==
41933,2023,05,29,03,00,AAXX 29034 41933 02456 10000 10325 20250 30078 40087 81500 333 20250 58005 70000 81618==
41933,2023,05,29,06,00,AAXX 29064 41933 02457 40302 10345 20220 30069 40077 84400 333 58004 70000 82618 83826==
41933,2023,05,29,09,00,AAXX 29094 41933 02457 40402 10352 20230 30047 40055 84400 333 58003 70000 82618 83826==
41933,2023,05,29,12,00,AAXX 29124 41933 02956 01802 10335 20230 30055 40063 333 10362 58014 70000==
41933,2023,05,29,15,00,AAXX 29154 41933 02950 00000 10295 20250 30063 40071 333 58004 70000==
41933,2023,05,29,18,00,AAXX 29184 41933 02940 00000 10275 20260 30061 40070 333 59004 70000==
41933,2023,05,29,21,00,AAXX 29214 41933 02940 00000 10262 20250 30064 40072 333 58008 70000==
41933,2023,05,30,00,00,AAXX 30004 41933 01950 00000 10255 20240 30066 40074 70500 333 58000 70000==
41933,2023,05,30,03,00,AAXX 30034 41933 02456 30000 10325 20250 30082 40090 83500 333 20254 58004 70000 83618==
41933,2023,05,30,06,00,AAXX 30064 41933 02456 52702 10350 30074 40082 84510 333 58005 70000 84618 85458==
41933,2023,05,30,09,00,AAXX 30094 41933 02456 32702 10360 20210 30031 40040 81501 333 59016 70000 81618 83074==
41933,2023,05,30,12,00,AAXX 30124 41933 02956 42701 10340 20250 30027 40036 80001 333 10366 59028 70000 84074==
41933,2023,05,30,15,00,AAXX 30154 41933 02950 00000 10296 20280 30044 40053 333 59019 70000==
41933,2023,05,30,18,00,AAXX 30184 41933 02950 30000 10284 20260 30048 40057 80001 333 59013 70000 83074==
41933,2023,05,30,21,00,AAXX 30214 41933 02950 20000 10274 20260 30035 40043 80001 333 59029 70000 82074==
41933,2023,05,31,00,00,AAXX 31004 41933 01940 40000 10270 20260 30045 40053 70520 80001 333 59021 70000 84074==
41933,2023,05,31,03,00,AAXX 31034 41933 02956 00000 10334 20240 30058 40066 333 20270 59024 70000==
41933,2023,05,31,06,00,AAXX 31064 41933 02456 42701 10346 20240 30046 40054 84400 333 59028 70000 82618 83822==
41933,2023,05,31,09,00,AAXX 31094 41933 02456 22804 10367 20220 30017 40025 82800 333 59014 70000 81618==
41933,2023,05,31,12,00,AAXX 31124 41933 02456 22602 10345 20250 30008 40016 82500 333 10370 59019 70000 82618==
41933,2023,05,31,15,00,AAXX 31154 41933 02456 40000 10305 20260 30032 40041 84400 333 59012 70000 82618 83828==
41933,2023,05,31,18,00,AAXX 31184 41933 02456 61902 10300 20270 30034 40043 83520 333 59014 70000 83618 86458==
41933,2023,05,31,21,00,AAXX 31214 41933 02456 60000 10280 20250 30036 40045 82520 333 58001 70000 82618 86458==
41933,2023,06,01,00,00,AAXX 01004 41933 02456 42502 10260 20240 30039 40048 82530 333 59006 70000 82618==
41933,2023,06,01,03,00,AAXX 01034 41933 02456 22302 10315 20260 30050 40058 82500 333 20255 59008 70000 82618==
41933,2023,06,01,06,00,AAXX 01064 41933 02456 22602 10345 20260 30043 40052 82500 333 59003 70000 82618==
41933,2023,06,01,09,00,AAXX 01094 41933 02456 41902 10350 20240 30008 40016 84400 333 59009 70000 82618 83826==
41933,2023,06,01,12,00,AAXX 01124 41933 02956 00000 10331 20250 30000 40008 333 10357 59008 70000==
41933,2023,06,01,15,00,AAXX 01154 41933 02956 00000 10304 20260 30021 40029 333 59011 70000==
41933,2023,06,01,18,00,AAXX 01184 41933 02956 00000 10290 20270 30026 40035 333 59008 70000==
41933,2023,06,01,21,00,AAXX 01214 41933 01450 50000 10280 20270 30023 40032 70520 82530 333 59013 70000 82618 85362==
41936,2023,05,26,00,00,AAXX 26004 41936 01320 70000 10230 20210 30060 40067 70562 82630 333 58022 70020 82708 83615 85362==
41936,2023,05,26,03,00,AAXX 26034 41936 01/40 20704 10274 20220 30083 40090 70596 82030 333 58022 70150 82362==
41936,2023,05,26,06,00,AAXX 26064 41936 01950 01403 10320 20220 30076 40083 70519 333 58021 70150==
41936,2023,05,26,09,00,AAXX 26094 41936 41950 22004 10340 20250 30042 40049 56090 70150 82362==
41936,2023,05,26,12,00,AAXX 26124 41936 01350 42206 10330 20250 30039 40046 70511 83630 333 10344 58026 70150 82710 83615==
41936,2023,05,26,15,00,AAXX 26154 41936 01316 82711 10242 20210 30071 40078 79596 85720 333 59002 70180 85706 83615 83760==
41936,2023,05,26,18,00,AAXX 26184 41936 01320 72104 10240 20220 30049 40056 70519 82630 333 59017 70030 82708 83615==
41936,2023,05,26,21,00,AAXX 26214 41936 01320 71803 10236 20210 30040 40047 70511 82630 333 58008 70120 82708 83615==
41936,2023,05,27,00,00,AAXX 27004 41936 02314 71303 10232 20210 30043 40050 82630 333 59014 70060 82708 83615==
41936,2023,05,27,03,00,AAXX 27034 41936 01425 30503 10284 20230 30063 40070 70520 81530 333 20230 59020 70030 81615 83362==
41936,2023,05,27,06,00,AAXX 27064 41936 01320 80510 10294 20250 30061 40068 76062 85730 333 59015 70020 85708 83615 86360==
41936,2023,05,27,09,00,AAXX 27094 41936 01430 40503 10294 20240 30048 40055 76005 82830 333 58006 70050 82815 83362==
41936,2023,05,27,12,00,AAXX 27124 41936 01/40 20903 10290 20240 30037 40044 70500 82030 333 10306 59002 70050 82362==
41936,2023,05,27,15,00,AAXX 27154 41936 01/40 10000 10256 20240 30054 40062 70511 81030 333 59016 70050 81362==
41936,2023,05,27,18,00,AAXX 27184 41936 01/40 10000 10250 20240 30054 40062 70511 81030 333 58006 70020 81362==
41936,2023,05,27,21,00,AAXX 27214 41936 01/20 20000 10244 20230 30043 40050 70511 82030 333 58003 70020 82362==
41936,2023,05,28,00,00,AAXX 28004 41936 01/07 20000 10240 20230 30056 40063 74611 82030 333 58010 70020 82362==
41936,2023,05,28,03,00,AAXX 28034 41936 01412 20906 10282 20230 30076 40083 70544 81630 333 20232 58013 70020 81615 81362==
41936,2023,05,28,06,00,AAXX 28064 41936 01/50 10505 10330 20230 30070 40077 70541 81030 333 58009 70000 81362==
41936,2023,05,28,09,00,AAXX 28094 41936 01450 30605 10352 20240 30049 40056 70511 82530 333 58001 70000 82615==
41936,2023,05,28,12,00,AAXX 28124 41936 01/50 20903 10330 20230 30042 40049 70511 82030 333 10354 58005 70000 82362==
41936,2023,05,28,15,00,AAXX 28154 41936 01950 00000 10280 20260 30050 40057 70510 333 59005 70000==
41936,2023,05,28,18,00,AAXX 28184 41936 01/50 10000 10274 20250 30066 40073 70500 81030 333 58011 70000 81362==
41936,2023,05,28,21,00,AAXX 28214 41936 01/40 10000 10258 20250 30057 40064 70510 81030 333 58014 70000 81362==
41936,2023,05,29,00,00,AAXX 29004 41936 01/14 10000 10250 20250 30079 40086 70511 81030 333 58023 70000 81362==
41936,2023,05,29,03,00,AAXX 29034 41936 01/30 10705 10304 20250 30082 40089 70511 81030 333 20244 58010 70000 81362==
41936,2023,05,29,06,00,AAXX 29064 41936 01450 20903 10358 20250 30076 40082 70511 82530 333 58005 70000 82615 81362==
41936,2023,05,29,09,00,AAXX 29094 41936 01450 30103 10366 20190 30056 40062 70511 82530 333 58006 70000 82615==
41936,2023,05,29,12,00,AAXX 29124 41936 01/50 10103 10342 20250 30041 40047 70511 81030 333 10368 59002 70000 81362==
41936,2023,05,29,15,00,AAXX 29154 41936 01/50 10000 10290 20260 30056 40063 70511 81030 333 59006 70000 81362==
41936,2023,05,29,18,00,AAXX 29184 41936 42950 10000 10286 20260 30063 40070 59003 81362==
41936,2023,05,29,21,00,AAXX 29214 41936 01/50 10000 10276 20260 30052 40059 70511 81030 333 59005 70000 81362==
41936,2023,05,30,00,00,AAXX 30004 41936 01/14 42703 10270 20250 30057 40064 70511 84030 333 59022 70000 84362==
41936,2023,05,30,03,00,AAXX 30034 41936 01/20 22903 10322 20270 30074 40081 70511 80030 333 20266 59008 70000 82362==
41936,2023,05,30,06,00,AAXX 30064 41936 01450 42403 10360 20260 30066 40072 70521 82830 333 59010 70000 82615==
41936,2023,05,30,09,00,AAXX 30094 41936 01450 42203 10376 20250 30040 40047 70521 82830 333 59015 70000 82615 81362==
41936,2023,05,30,12,00,AAXX 30124 41936 01450 32703 10340 20260 30032 40039 70522 82530 333 10376 59008 70000 82615 82362==
41936,2023,05,30,15,00,AAXX 30154 41936 01/50 21903 10306 20280 30043 40050 70511 82030 333 59013 70000 82362==
41936,2023,05,30,18,00,AAXX 30184 41936 01/50 22405 10296 20270 30054 40061 70511 82030 333 59009 70000 82362==
41936,2023,05,30,21,00,AAXX 30214 41936 01/50 22103 10276 20260 30039 40046 70511 82030 333 59013 70000 82362==
41936,2023,05,31,00,00,AAXX 31004 41936 01/16 20000 10276 20260 30045 40052 70511 82030 333 59012 70000 82362==
41936,2023,05,31,03,00,AAXX 31034 41936 01/20 32404 10330 20280 30049 40056 70511 83030 333 20262 59025 70000 83362==
41936,2023,05,31,06,00,AAXX 31064 41936 41450 32404 10370 20260 30042 40049 70511 81530 333 59023 81615 83362==
41936,2023,05,31,09,00,AAXX 31094 41936 01450 32003 10380 20240 30015 40022 70511 81530 333 59025 70000 81615 83362==
41936,2023,05,31,12,00,AAXX 31124 41936 01/50 22503 10356 20280 30004 40011 70511 82030 333 10390 59028 70000 82362==
41936,2023,05,31,15,00,AAXX 31154 41936 01/50 12203 10314 20260 30023 40030 70511 81030 333 59020 70000 81362==
41936,2023,05,31,18,00,AAXX 31184 41936 01/50 12404 10300 20270 30033 40040 70511 81030 333 59021 70000 81362==
41936,2023,05,31,21,00,AAXX 31214 41936 01940 02203 10280 20250 30025 40032 70501 333 59014 70000==
41936,2023,06,01,00,00,AAXX 01004 41936 333 70000 82362==
41936,2023,06,01,03,00,AAXX 01034 41936 01/20 12206 10328 20280 30040 40047 70511 81030 333 20274 59009 70000 81362==
41936,2023,06,01,06,00,AAXX 01064 41936 01/40 21605 10364 20250 30042 40048 70511 82030 333 58002 70000 82362==
41936,2023,06,01,09,00,AAXX 01094 41936 01450 43004 10376 20270 30014 40021 70521 82530 333 59001 70000 82615 84362==
41936,2023,06,01,12,00,AAXX 01124 41936 01/50 20000 10360 20290 30006 40013 70521 82030 333 10382 58002 70000 82362==
41936,2023,06,01,15,00,AAXX 01154 41936 01/50 20000 10340 20280 30014 40021 70521 82030 333 59009 70000 82362==
41936,2023,06,01,18,00,AAXX 01184 41936 01/50 20000 10306 20286 30013 40020 70521 82030 333 59020 70000 82362==
41936,2023,06,01,21,00,AAXX 01214 41936 01/50 20000 10290 20272 30006 40013 70521 82030 333 59019 70000 82362==
41938,2023,05,26,00,00,AAXX 26004 41938 11456 60000 10240 20220 30060 40064 69906 70162 8532/ 333 56690 58008 79999 85617 81928=
41938,2023,05,26,06,00,AAXX 26064 41938 11457 11802 10315 20220 30078 40082 69905 70162 81540 333 56490 58016 79999 81618=
41938,2023,05,26,12,00,AAXX 26124 41938 32456 70000 10311 20260 30048 40052 84411 333 10335 56599 58019 79999 83418 86459=
41938,2023,05,26,18,00,AAXX 26184 41938 11450 73002 10241 20230 30058 40062 60045 70296 84502 333 56809 59005 70044 84617 84078=
41938,2023,05,27,00,00,AAXX 27004 41938 31435 60000 10237 20230 30054 40058 70522 84411 333 56699 59006 70044 83618 83460=
41938,2023,05,27,06,00,AAXX 27064 41938 32456 72003 10320 20260 30058 40062 85971 333 56599 59020 70044 83617 81929 85460=
41938,2023,05,27,12,00,AAXX 27124 41938 11456 40000 10285 20240 30051 40055 60024 70296 83510 333 10322 56990 58003 70062 83618=
41938,2023,05,27,18,00,AAXX 27184 41938 32950 00000 10242 20230 30052 40056 333 59006 70018=
41938,2023,05,28,00,00,AAXX 28004 41938 31420 40000 10237 20230 30054 40058 70510 84500 333 56900 59008 70018 84618=
41938,2023,05,28,06,00,AAXX 28064 41938 32456 40000 10318 20240 30082 40086 84400 333 56400 58024 70018 83618=
41938,2023,05,28,12,00,AAXX 28124 41938 32456 30000 10310 20260 30064 40068 83400 333 10342 56400 58013 70000 82618=
41938,2023,05,28,18,00,AAXX 28184 41938 32950 00000 10252 20240 30070 40074 333 58018 70000=
41938,2023,05,29,00,00,AAXX 29004 41938 31920 00000 10242 20230 30061 40065 70500 333 58007 70000=
41938,2023,05,29,06,00,AAXX 29064 41938 32456 30000 10342 20220 30072 40076 83400 333 56400 59010 70000 82618=
41938,2023,05,29,12,00,AAXX 29124 41938 32956 20000 10320 20270 30049 40053 80001 333 10357 56009 59015 70000 82080=
41938,2023,05,29,18,00,AAXX 29184 41938 31950 00000 10267 20260 30066 40070 70500 333 59004 70000=
41938,2023,05,30,00,00,AAXX 30004 41938 31412 70000 10260 20250 30066 40070 71021 83411 333 56699 59011 70000 82617 85460=
41938,2023,05,30,06,00,AAXX 30064 41938 32456 62501 10350 20250 30068 40072 82411 333 56599 59004 70000 81618 83460=
41938,2023,05,30,12,00,AAXX 30124 41938 32456 20000 10335 20290 30034 40038 81410 333 10367 56990 59015 70000 81618=
41938,2023,05,30,18,00,AAXX 30184 41938 32956 22501 10295 20270 30053 40057 82010 333 56090 59013 70000 82460=
41938,2023,05,31,00,00,AAXX 31004 41938 31920 50000 10275 20270 30049 40053 71021 83011 333 56099 59017 70000 83460 83080=
41938,2023,05,31,06,00,AAXX 31064 41938 31450 52502 10354 20240 30050 40054 70521 85400 333 56500 59018 70000 83618 83824=
41938,2023,05,31,12,00,AAXX 31124 41938 31956 10000 10345 20270 30016 40020 70192 80002 333 10370 56009 59018 70000 81080=
41938,2023,05,31,18,00,AAXX 31184 41938 32956 42301 10289 20260 30034 40038 80001 333 56009 59019 70000 84080=
41938,2023,06,01,00,00,AAXX 01004 41938 31925 70000 10285 20280 30032 40036 71021 83012 333 56099 59017 70000 83460 86080=
41938,2023,06,01,06,00,AAXX 01064 41938 32456 32202 10355 20270 30043 40047 83400 333 56500 59007 70000 82618=
41938,2023,06,01,12,00,AAXX 01124 41938 31945 70000 10334 20280 30011 40015 70522 84012 333 10370 56099 59005 70000 84460 85078=
41938,2023,06,01,18,00,AAXX 01184 41938 32950 01801 10293 20260 30023 40027 333 59011 70000=
41939,2023,05,26,00,00,AAXX 26004 41939 02457 50000 10250 20220 30061 40069 83530 333 59002 70000 83618 83365==
41939,2023,05,26,03,00,AAXX 26034 41939 02458 60000 10293 20230 30080 40088 83510 333 20238 58003 70000 83618 85459==
41939,2023,05,26,06,00,AAXX 26064 41939 02959 00000 10325 20300 30086 40094 333 58024 70000==
41939,2023,05,26,09,00,AAXX 26093 41939 02960 00000 10343 20220 30060 40068 333 58019 70000==
41939,2023,05,26,12,00,AAXX 26124 41939 02450 80000 10315 20210 30056 40064 8352/ 333 10345 58031 70000 83617 88459==
41939,2023,05,26,15,00,AAXX 26154 41939 02450 80000 10290 20250 30079 40087 8352/ 333 58040 70000 83617 88459==
41939,2023,05,26,18,00,AAXX 26184 41939 21440 80000 10275 20260 30094 40102 70262 8352/ 333 58042 60015 70010 83617 88459==
41939,2023,05,27,00,00,AAXX 27004 41939 02456 40000 10232 20220 30060 40068 83530 333 58003 70010 83617 83364==
41939,2023,05,27,03,00,AAXX 27034 41939 02457 40000 10290 20240 30080 40088 82530 333 58000 70010 82617 83364==
41939,2023,05,27,06,00,AAXX 27064 41939 02458 20000 10333 20240 30054 40062 82500 333 59032 70010 82618==
41939,2023,05,27,09,00,AAXX 27094 41939 01457 70000 10235 20230 30068 40076 70296 83510 333 58008 70418 83617 87459==
41939,2023,05,27,12,00,AAXX 27124 41939 21956 00000 10275 20250 30046 40054 70192 333 10340 59010 60418 70418==
41939,2023,05,27,15,00,AAXX 27154 41939 02450 50000 10270 20240 30058 40066 82510 333 59021 70418 82618 85459==
41939,2023,05,27,18,00,AAXX 27184 41939 NIL=
41939,2023,05,27,21,00,AAXX 27214 41939 02950 00000 10250 20240 30073 40081 333 58008 70408==
41939,2023,05,28,00,00,AAXX 28004 41939 01920 00000 10245 20240 30071 40079 71011 333 58007 70408==
41939,2023,05,28,03,00,AAXX 28034 41939 02457 60000 10280 20260 30083 40091 82530 333 20230 58003 70408 82617 86459==
41939,2023,05,28,06,00,AAXX 28064 41939 02458 10000 10330 20240 30072 40080 82400 333 58018 70408 81618==
41939,2023,05,28,09,00,AAXX 28094 41939 02458 10000 10335 20260 30059 40066 82400 333 59009 70000 81618==
41939,2023,05,28,12,00,AAXX 28124 41939 02957 00000 10310 20260 30054 40062 333 10345 58008 70000==
41939,2023,05,28,15,00,AAXX 28154 41939 02456 40000 10275 20260 30060 40068 82530 333 58002 70000 82618 83364==
41939,2023,05,28,18,00,AAXX 28184 41939 02456 40000 10265 20260 30080 40088 82530 333 58010 70000 82618 83364==
41939,2023,05,28,21,00,AAXX 28214 41939 02950 00000 10260 20250 30078 40086 333 58005 70000==
41939,2023,05,29,00,00,AAXX 29004 41939 02957 00000 10255 20250 30075 40083 333 58004 70000==
41939,2023,05,29,03,00,AAXX 29034 41939 02958 00000 10303 20260 30089 40097 333 20243 58006 70000==
41939,2023,05,29,06,00,AAXX 29064 41939 02458 10000 10342 20240 30076 40085 81500 333 58004 70000 81618==
41939,2023,05,29,09,00,AAXX 29094 41939 02458 10000 10355 20220 30058 40066 81400 333 59001 70000 81618==
41939,2023,05,29,12,00,AAXX 29124 41939 02457 10000 10320 20250 30053 40060 81500 333 10357 59001 70000 81618==
41939,2023,05,29,15,00,AAXX 29154 41939 02956 00000 10280 30072 40080 333 58012 70000==
41939,2023,05,29,18,00,AAXX 29184 41939 02956 00000 10270 20250 30088 40096 333 58008 70000==
41939,2023,05,29,21,00,AAXX 29214 41939 02956 00000 10265 20250 30082 40090 333 58004 70000==
41939,2023,05,30,00,00,AAXX 30004 41939 02956 00000 10263 20250 30079 40087 333 58004 70000==
41939,2023,05,30,03,00,AAXX 30034 41939 02959 00000 10327 20270 30083 40091 333 20260 58004 70000==
41939,2023,05,30,06,00,AAXX 30064 41939 02459 40000 10348 20250 30069 40077 83430 333 59007 70000 82618==
41939,2023,05,30,09,00,AAXX 30094 41939 02459 20000 10365 20250 30040 40048 82500 333 59018 70000 82618==
41939,2023,05,30,12,00,AAXX 30124 41939 02956 00000 10330 20280 30038 40046 333 10368 59015 70000==
41939,2023,05,30,15,00,AAXX 30154 41939 02956 00000 10296 20280 30061 40069 333 59011 70000==
41939,2023,05,30,18,00,AAXX 30184 41939 02956 00000 10285 20270 30078 40086 333 59010 70000==
41939,2023,05,30,21,00,AAXX 30214 41939 02950 00000 10280 20260 30060 40068 333 59022 70000==
41939,2023,05,31,00,00,AAXX 31004 41939 02956 00000 10275 20270 30045 40053 333 59034 70000==
41939,2023,05,31,03,00,AAXX 31034 41939 02458 30000 10315 20260 30065 40073 83500 333 20268 59018 70000 83618==
41939,2023,05,31,06,00,AAXX 31064 41939 02458 40000 10352 20260 30074 40082 83430 333 58005 70000 82618==
41939,2023,05,31,09,00,AAXX 31094 41939 02458 10000 10368 20240 30024 40032 82400 333 59016 70000 81618==
41939,2023,05,31,12,00,AAXX 31124 41939 02959 00000 10335 20280 30019 40027 333 10375 59019 70000==
41939,2023,05,31,15,00,AAXX 31154 41939 02956 00000 10300 20280 30041 40049 333 59020 70000==
41939,2023,05,31,21,00,AAXX 31214 41939 02950 00000 10280 20270 30042 40050 333 59018 70000==
41939,2023,06,01,00,00,AAXX 01004 41939 02956 00000 10275 20270 30031 40039 333 59014 70000==
41939,2023,06,01,03,00,AAXX 01034 41939 02458 50000 10303 20270 30046 40054 82510 333 20268 59019 70000 82618 85459==
41939,2023,06,01,06,00,AAXX 01064 41939 02458 50000 10355 20270 30045 40053 83410 333 59029 70000 82617 85459==
41939,2023,06,01,09,00,AAXX 01094 41939 02458 20000 10365 20260 30016 40024 83430 333 59008 70000 82618==
41939,2023,06,01,12,00,AAXX 01124 41939 02456 50000 10340 20290 30013 40021 82530 333 10370 59006 70000 82618 85459==
41939,2023,06,01,15,00,AAXX 01154 41939 02456 20000 10310 20270 30029 40037 81530 333 59012 70000 81618==
41939,2023,06,01,18,00,AAXX 01184 41939 02456 20000 10300 20270 30042 40050 81530 333 59013 70000 81618==
41939,2023,06,01,21,00,AAXX 01214 41939 02956 00000 10285 20280 30038 40046 333 59004 70000==
41941,2023,05,26,00,00,AAXX 26004 41941 21450 80000 10250 20240 30057 40063 70266 8632/ 333 59006 60017 70010 85616 88458 81930==
41941,2023,05,26,03,00,AAXX 26034 41941 02456 60903 10295 20250 30091 40097 85420 333 20248 58012 70010 84616 86458==
41941,2023,05,26,06,00,AAXX 26064 41941 02457 63103 10320 20250 30091 40096 85420 333 58018 70010 84616 86458==
41941,2023,05,26,09,00,AAXX 26093 41941 02457 62702 10335 20250 30064 40069 85420 333 58006 70010 84616 86458==
41941,2023,05,26,12,00,AAXX 26124 41941 02450 80000 10315 20260 30053 40058 8632/ 333 10337 58017 70010 85616 88458 81930==
41941,2023,05,26,15,00,AAXX 26154 41941 02440 80000 10290 20260 30072 40077 8632/ 333 58020 70010 85614 88456 82926==
41941,2023,05,26,18,00,AAXX 26184 41941 01440 80000 10245 20245 30066 40072 72996 8792/ 333 58001 70130 85612 88456 82925==
41941,2023,05,27,00,00,AAXX 27004 41941 02450 70000 10240 20240 30059 40064 85420 333 58002 70120 84616 87458==
41941,2023,05,27,03,00,AAXX 27034 41941 02456 70903 10295 20250 30079 40085 85420 333 20238 59012 70120 84616 87458==
41941,2023,05,27,06,00,AAXX 27064 41941 02456 73103 10327 20260 30073 40079 84520 333 58018 70120 84616 87458==
41941,2023,05,27,09,00,AAXX 27094 41941 01440 83104 10240 20240 30071 40077 79596 8792/ 333 58007 70170 85612 88458 82925==
41941,2023,05,27,12,00,AAXX 27124 41941 21450 60403 10260 20240 30056 40062 70196 85420 333 10345 58003 60077 70190 84616 86458==
41941,2023,05,27,15,00,AAXX 27154 41941 02440 60000 10250 20250 30065 40071 85420 333 59007 70190 84616 86458==
41941,2023,05,27,18,00,AAXX 27184 41941 NIL=
41941,2023,05,27,21,00,AAXX 27214 41941 02440 60000 10244 20240 30055 40061 85420 333 59008 70070 84616 86458==
41941,2023,05,28,00,00,AAXX 28004 41941 01420 70000 10240 20240 30063 40069 71022 85420 333 58004 70070 84616 87458==
41941,2023,05,28,03,00,AAXX 28034 41941 02456 70000 10290 20260 30082 40088 85420 333 20239 58003 70070 84616 87458==
41941,2023,05,28,06,00,AAXX 28064 41941 02456 63103 10326 20250 30072 40078 85420 333 59001 70070 84616 86458==
41941,2023,05,28,09,00,AAXX 28094 41941 02456 63102 10336 20250 30062 40067 85420 333 59009 70020 84616 86458==
41941,2023,05,28,12,00,AAXX 28124 41941 02450 43103 10319 20240 30052 40057 83530 333 10351 59004 70000 83618 84362==
41941,2023,05,28,15,00,AAXX 28154 41941 02440 40000 10290 20240 30067 40073 83530 333 58002 70000 83618 84362==
41941,2023,05,28,18,00,AAXX 28184 41941 02440 40000 10282 20260 30074 40080 83530 333 58011 70000 83618 84362==
41941,2023,05,28,21,00,AAXX 28214 41941 02440 40000 10275 20260 30068 40074 83530 333 58013 70000 83618 84362==
41941,2023,05,29,00,00,AAXX 29004 41941 02450 60000 10265 20250 30074 40080 85420 333 58011 70000 84616 86458==
41941,2023,05,29,03,00,AAXX 29034 41941 02456 63103 10315 20270 30088 40093 85420 333 20265 58006 70000 84616 86458==
41941,2023,05,29,06,00,AAXX 29064 41941 02457 73103 10345 20240 30086 40092 85420 333 58014 70000 84616 87458==
41941,2023,05,29,09,00,AAXX 29094 41941 02456 72603 10355 20240 30069 40074 85420 333 58007 70000 84616 87458==
41941,2023,05,29,12,00,AAXX 29124 41941 02450 62603 10330 20250 30049 40054 85420 333 10361 59003 70000 84616 86458==
41941,2023,05,29,15,00,AAXX 29154 41941 02440 60000 10295 20260 30069 40074 85420 333 58002 70000 84616 86458==
41941,2023,05,29,18,00,AAXX 29184 41941 02440 60000 10280 20260 30076 40081 85420 333 58002 70000 84616 86458==
41941,2023,05,29,21,00,AAXX 29214 41941 02440 60000 10275 20260 30072 40077 85420 333 58004 70000 84616 86458==
41941,2023,05,30,00,00,AAXX 30004 41941 02450 60000 10270 20250 30070 40075 85420 333 59004 70000 84616 86458==
41941,2023,05,30,03,00,AAXX 30034 41941 02456 43103 10337 20230 30080 40086 83530 333 20270 59008 70000 83618 84362==
41941,2023,05,30,06,00,AAXX 30064 41941 02457 43603 10360 20250 30071 40076 83530 333 59015 70000 83618 84362==
41941,2023,05,30,09,00,AAXX 30094 41941 02457 43604 10365 20240 30045 40051 83530 333 59024 70000 83618 84362==
41941,2023,05,30,12,00,AAXX 30124 41941 02456 30000 10355 20250 30039 40045 83500 333 10375 59010 70000 83618==
41941,2023,05,30,15,00,AAXX 30154 41941 02440 30000 10300 20260 30051 40057 83500 333 59018 70000 83618==
41941,2023,05,30,21,00,AAXX 30214 41941 02440 60000 10293 20270 30058 40063 85420 333 59014 70000 84616 86458==
41941,2023,05,31,00,00,AAXX 31004 41941 02456 60000 10288 20280 30053 40058 85420 333 59017 70000 84616 86458==
41941,2023,05,31,03,00,AAXX 31034 41941 02457 32603 10336 20260 30064 40069 83500 333 20286 59016 70000 83618==
41941,2023,05,31,06,00,AAXX 31064 41941 02958 03603 10360 20230 30061 40066 333 59010 70000==
41941,2023,05,31,09,00,AAXX 31094 41941 02456 43103 10370 20240 30028 40034 84200 333 59017 70000 84828==
41941,2023,05,31,12,00,AAXX 31124 41941 02556 40000 10350 20260 30018 40024 84200 333 10377 59021 70000 84828==
41941,2023,05,31,15,00,AAXX 31154 41941 02950 02703 10315 20280 30029 40035 333 59022 70000==
41941,2023,05,31,21,00,AAXX 31214 41941 02440 70000 10290 20280 30039 40044 85420 333 59019 70000 84616 87458==
41941,2023,06,01,00,00,AAXX 01004 41941 02450 70000 10285 20280 30087 40093 85420 333 58034 70000 84616 87458==
41941,2023,06,01,03,00,AAXX 01034 41941 02456 72703 10325 20280 30053 40059 85420 333 20280 59011 70000 84616 87458==
41941,2023,06,01,06,00,AAXX 01064 41941 02457 62703 10352 20280 30054 40060 85420 333 59007 70000 84616 86458==
41941,2023,06,01,09,00,AAXX 01094 41941 02958 02703 10357 20260 30028 40033 333 58000 70000==
41941,2023,06,01,12,00,AAXX 01124 41941 02456 60000 10338 20280 30021 40027 85420 333 10367 58003 70000 84616 86458==
41941,2023,06,01,15,00,AAXX 01154 41941 02450 60000 10310 20280 30032 40038 85420 333 58019 70000 84616 86458==
41941,2023,06,01,18,00,AAXX 01184 41941 02440 70000 10300 20290 30051 40057 85420 333 58022 70000 84616 87458==
41941,2023,06,01,21,00,AAXX 01214 41941 02440 60000 10290 20280 30034 40040 85420 333 59002 70000 84616 86458==
41943,2023,05,26,00,00,AAXX 26004 41943 02430 81802 10265 20260 30064 40071 8762/ 333 58003 70000 84710 84615 88458==
41943,2023,05,26,03,00,AAXX 26034 41943 02430 51802 10300 20220 30088 40095 82530 333 20265 58013 70000 82618 84362==
41943,2023,05,26,06,00,AAXX 26064 41943 02440 52103 10324 20210 30085 40092 83430 333 58010 70000 82618 84362==
41943,2023,05,26,09,00,AAXX 26094 41943 02440 62103 10330 20230 30060 40067 83570 333 58005 70000 83616 84458==
41943,2023,05,26,12,00,AAXX 26124 41943 02440 42103 10307 20230 30054 40061 82530 333 10340 58019 70000 82618 83362==
41943,2023,05,26,15,00,AAXX 26154 41943 02930 01802 10278 20250 30072 40079 333 58013 70000==
41943,2023,05,26,18,00,AAXX 26184 41943 02430 80000 10272 20250 30078 40085 8662/ 333 58020 70000 83710 84615 88458==
41943,2023,05,26,21,00,AAXX 26214 41943 01330 80000 10250 20250 30047 40054 76202 8662/ 333 59009 70160 83710 84615 88458==
41943,2023,05,27,00,00,AAXX 27004 41943 12430 80000 10245 20240 30059 40066 60166 8662/ 333 59005 70160 83710 84615 88458==
41943,2023,05,27,03,00,AAXX 27034 41943 02430 81803 10310 20260 30076 40083 8662/ 333 20230 59012 70160 83710 84615 88458==
41943,2023,05,27,06,00,AAXX 27064 41943 02435 71504 10320 20230 30065 40072 84520 333 59020 70160 84616 86458==
41943,2023,05,27,09,00,AAXX 27094 41943 01435 81802 10320 20240 30053 40060 70362 8662/ 333 59007 70180 83710 84615 88458==
41943,2023,05,27,12,00,AAXX 27124 41943 01435 51802 10243 20220 30052 40059 70166 82520 333 10332 59002 70230 82616 84458==
41943,2023,05,27,15,00,AAXX 27154 41943 02430 50000 10238 20230 30062 40069 83520 333 59010 70230 83616 84458==
41943,2023,05,27,18,00,AAXX 27184 41943 02430 40000 10236 20230 30063 40070 82530 333 59015 70230 82618 83362==
41943,2023,05,27,21,00,AAXX 27214 41943 02430 80000 10236 20230 30059 40066 8662/ 333 58012 70070 83710 84615 88458==
41943,2023,05,28,00,00,AAXX 28004 41943 02430 70000 10235 20230 30065 40072 83520 333 58006 70070 83616 85458==
41943,2023,05,28,03,00,AAXX 28034 41943 02440 61802 10302 20240 30076 40083 84420 333 20230 58000 70070 83616 85458==
41943,2023,05,28,06,00,AAXX 28064 41943 02440 61803 10330 20230 30070 40077 84420 333 58005 70070 83616 84458==
41943,2023,05,28,09,00,AAXX 28094 41943 02440 72302 10348 20230 30048 40055 85420 333 59005 70050 84615 85458==
41943,2023,05,28,12,00,AAXX 28124 41943 02440 61802 10320 20240 30042 40049 84420 333 10352 59010 70000 83616 85458==
41943,2023,05,28,15,00,AAXX 28154 41943 02430 40000 10277 20240 30065 40072 82530 333 58003 70000 82616 83362==
41943,2023,05,28,18,00,AAXX 28184 41943 02930 00000 10259 20240 30072 40079 333 58009 70000==
41943,2023,05,28,21,00,AAXX 28214 41943 02930 00000 10252 20240 30061 40068 333 58002 70000==
41943,2023,05,29,00,00,AAXX 29004 41943 02935 00000 10247 20240 30070 40077 333 58005 70000==
41943,2023,05,29,03,00,AAXX 29034 41943 02940 03103 10320 20220 30082 40089 333 20247 58005 70000==
41943,2023,05,29,06,00,AAXX 29064 41943 02440 42702 10345 20210 30075 40082 84400 333 58005 70000 82618 83825==
41943,2023,05,29,09,00,AAXX 29094 41943 02940 03103 10362 20200 30048 40055 333 58000 70000==
41943,2023,05,29,12,00,AAXX 29124 41943 02940 03102 10345 20210 30040 40047 333 10366 59002 70000==
41943,2023,05,29,15,00,AAXX 29154 41943 02930 00000 10280 20250 30067 40074 333 58002 70000==
41943,2023,05,29,18,00,AAXX 29184 41943 02930 00000 10272 20250 30069 40076 333 59003 70000==
41943,2023,05,29,21,00,AAXX 29214 41943 02930 00000 10262 20250 30057 40064 333 59004 70000==
41943,2023,05,30,00,00,AAXX 30004 41943 01430 50000 10257 20250 30070 40077 70522 83530 333 58000 70000 83616 84362==
41943,2023,05,30,03,00,AAXX 30034 41943 01440 50000 10332 20260 30078 40085 70522 83430 333 20257 59004 70000 82618 84362==
41943,2023,05,30,06,00,AAXX 30064 41943 01440 52302 10358 20200 30066 40073 70522 83430 333 59009 70000 82618 84362==
41943,2023,05,30,09,00,AAXX 30094 41943 02440 23602 10367 20210 30035 40042 82500 333 59013 70000 82618==
41943,2023,05,30,12,00,AAXX 30124 41943 02440 52702 10346 20230 30032 40039 82530 333 10374 59008 70000 82618 84362==
41943,2023,05,30,15,00,AAXX 30154 41943 02930 00000 10298 20250 30048 40055 333 59019 70000==
41943,2023,05,30,18,00,AAXX 30184 41943 02430 60000 10295 20260 30057 40064 83520 333 59012 70000 83616 86458==
41943,2023,05,30,21,00,AAXX 30214 41943 02430 60000 10282 20260 30052 40059 83520 333 59005 70000 83616 85458==
41943,2023,05,31,00,00,AAXX 31004 41943 01435 50000 10275 20270 30052 40059 70522 83530 333 59018 70000 83617 84362==
41943,2023,05,31,03,00,AAXX 31034 41943 01/40 40000 10330 20260 30064 40071 70522 84030 333 20275 59014 70000 84362==
41943,2023,05,31,06,00,AAXX 31064 41943 01440 50000 10362 20240 30049 40056 70522 82530 333 59017 70000 82618 84362==
41943,2023,05,31,09,00,AAXX 31094 41943 02440 53602 10378 20220 30020 40027 82530 333 59008 70000 82618 84362==
41943,2023,05,31,12,00,AAXX 31124 41943 02440 53102 10348 20240 30011 40018 82530 333 10385 59021 70000 82618 84362==
41943,2023,05,31,15,00,AAXX 31154 41943 02430 40000 10316 20240 30041 40048 82530 333 59007 70000 82618 83362==
41943,2023,05,31,18,00,AAXX 31184 41943 02430 80000 10280 20220 30042 40049 8662/ 333 59015 70000 83710 84615 88458==
41943,2023,05,31,21,00,AAXX 31214 41943 02430 80000 10270 20220 30043 40050 8662/ 333 59009 70000 83710 84615 88458==
41943,2023,06,01,00,00,AAXX 01004 41943 02435 60000 10256 20230 30043 40050 83520 333 59009 70000 83616 85458==
41943,2023,06,01,03,00,AAXX 01034 41943 02440 50000 10324 20240 30058 40065 83520 333 20255 59006 70000 83616 84458==
41943,2023,06,01,06,00,AAXX 01064 41943 02440 53602 10344 20230 30046 40053 83520 333 59003 70000 83616 84458==
41943,2023,06,01,09,00,AAXX 01094 41943 02440 62303 10360 20240 30018 40025 83520 333 59002 70000 83616 84362==
41943,2023,06,01,12,00,AAXX 01124 41943 02440 62302 10338 20240 30009 40016 83520 333 10366 59009 70000 83616 84458==
41943,2023,06,01,15,00,AAXX 01154 41943 02430 40000 10302 20250 30032 40039 82530 333 59009 70000 82618 83362==
41943,2023,06,01,18,00,AAXX 01184 41943 02430 41803 10293 20260 30034 40041 82530 333 59008 70000 82618 83362==
41943,2023,06,01,21,00,AAXX 01214 41943 02430 40000 10282 20260 30034 40041 82530 333 59009 70000 82618 83362==
41944,2023,05,26,00,00,AAXX 26004 41944 NIL=
41944,2023,05,26,06,00,AAXX 26064 41944 NIL=
41944,2023,05,26,12,00,AAXX 26124 41944 NIL=
41944,2023,05,26,18,00,AAXX 26184 41944 NIL=
41944,2023,05,27,06,00,AAXX 27064 41944 NIL=
41944,2023,05,27,12,00,AAXX 27124 41944 NIL=
41944,2023,05,27,18,00,AAXX 27184 41944 NIL=
41944,2023,05,28,00,00,AAXX 28004 41944 NIL=
41944,2023,05,28,06,00,AAXX 28064 41944 NIL=
41944,2023,05,28,12,00,AAXX 28124 41944 NIL=
41944,2023,05,28,18,00,AAXX 28184 41944 NIL=
41944,2023,05,29,00,00,AAXX 29004 41944 NIL=
41944,2023,05,29,06,00,AAXX 29064 41944 NIL=
41944,2023,05,30,06,00,AAXX 30064 41944 NIL=
41944,2023,05,30,12,00,AAXX 30124 41944 NIL=
41944,2023,05,31,00,00,AAXX 31004 41944 NIL=
41944,2023,05,31,06,00,AAXX 31064 41944 NIL=
41944,2023,05,31,12,00,AAXX 31124 41944 NIL=
41944,2023,06,01,06,00,AAXX 01064 41944 NIL=
41944,2023,06,01,12,00,AAXX 01124 41944 NIL=
41946,2023,05,26,00,00,AAXX 26004 41946 11556 50000 10252 20220 30067 40071 60086 70196 83430 333 58009 70090 82620 83360==
41946,2023,05,26,03,00,AAXX 26034 41946 02/56 50000 10280 20210 30094 40099 85050 333 20230 58025 70090 85360==
41946,2023,05,26,06,00,AAXX 26064 41946 02556 60000 10322 20230 30082 40087 85430 333 58022 70090 83620 83822==
41946,2023,05,26,09,00,AAXX 26093 41946 02456 60000 10338 20250 30048 40053 83430 333 58013 70090 83618 84360==
41946,2023,05,26,12,00,AAXX 26124 41946 02456 60000 10323 20240 30050 40055 83430 333 10339 58025 70090 83618 84360==
41946,2023,05,26,15,00,AAXX 26154 41946 01456 80000 10230 20210 30087 40092 79596 8532/ 333 58007 70164 83617 88459 81927==
41946,2023,05,26,18,00,AAXX 26184 41946 21956 00000 10231 20220 30062 40067 70196 333 59013 60078 70154==
41946,2023,05,27,00,00,AAXX 27004 41946 01440 50000 10242 20230 30058 40063 70500 83530 333 59009 70074 83618==
41946,2023,05,27,03,00,AAXX 27034 41946 02456 41802 10305 20280 30067 40070 84400 333 20223 59024 70074 83618==
41946,2023,05,27,06,00,AAXX 27064 41946 22450 80000 10254 20240 30066 40069 8532/ 333 59013 60177 70244 83618 88459 81927==
41946,2023,05,27,09,00,AAXX 27094 41946 02456 60000 10336 20260 30052 40057 83520 333 58004 70244 83618 85459==
41946,2023,05,27,12,00,AAXX 27124 41946 02556 30000 10290 20250 30050 40055 83400 333 10337 58000 70244 82620==
41946,2023,05,27,15,00,AAXX 27154 41946 02956 00000 10275 20260 30065 40070 333 59022 70170==
41946,2023,05,27,18,00,AAXX 27184 41946 02956 00000 10263 20250 30061 40066 333 59001 70170==
41946,2023,05,28,00,00,AAXX 28004 41946 02456 20000 10250 20250 30060 40065 82500 333 58002 70170 82618==
41946,2023,05,28,03,00,AAXX 28034 41946 02456 20000 10310 20260 30083 40088 82500 333 20226 58013 70170 82618==
41946,2023,05,28,06,00,AAXX 28064 41946 02456 40000 10330 20230 30073 40077 84400 333 58004 70000 83618==
41946,2023,05,28,09,00,AAXX 28094 41946 02557 20000 10350 20230 30062 40067 82500 333 58010 70000 82620==
41946,2023,05,28,12,00,AAXX 28124 41946 02956 10000 10332 20230 30054 40059 80001 333 10351 58004 70000 81080==
41946,2023,05,28,15,00,AAXX 28154 41946 02556 20000 10290 20260 30070 40075 82100 333 58005 70000 82825==
41946,2023,05,28,18,00,AAXX 28184 41946 02956 00000 10277 20260 30074 40079 333 58013 70000==
41946,2023,05,28,21,00,AAXX 28214 41946 02956 00000 10271 20260 30066 40071 333 58010 70000==
41946,2023,05,29,00,00,AAXX 29004 41946 01950 00000 10260 20250 30072 40077 70500 333 58012 70000==
41946,2023,05,29,03,00,AAXX 29034 41946 02956 00000 10320 20240 30089 40092 333 20255 58009 70000==
41946,2023,05,29,06,00,AAXX 29064 41946 02557 31802 10355 20240 30084 40089 83400 333 58011 70000 82620==
41946,2023,05,29,09,00,AAXX 29094 41946 02556 30000 10363 20230 30062 40067 83400 333 58000 70000 83620==
41946,2023,05,29,12,00,AAXX 29124 41946 02957 00000 10344 20240 30053 40058 333 10365 59001 70000==
41946,2023,05,29,15,00,AAXX 29154 41946 02956 00000 10298 20280 30070 40075 333 58000 70000==
41946,2023,05,29,18,00,AAXX 29184 41946 02956 00000 10303 20250 30076 40081 333 58002 70000==
41946,2023,05,29,21,00,AAXX 29214 41946 02956 00000 10287 20270 30068 40073 333 58002 70000==
41946,2023,05,30,00,00,AAXX 30004 41946 01950 30000 10282 20270 30074 40079 70500 80001 333 58002 70000 83080==
41946,2023,05,30,03,00,AAXX 30034 41946 02556 41802 10320 20260 30082 40085 84400 333 20280 59007 70000 83620==
41946,2023,05,30,06,00,AAXX 30064 41946 02557 41802 10360 20240 30072 40077 81570 333 59012 70000 81620 83460==
41946,2023,05,30,09,00,AAXX 30094 41946 02556 60000 10360 20230 30047 40051 82231 333 59015 70000 82825 84360==
41946,2023,05,30,12,00,AAXX 30124 41946 02/56 50000 10340 20280 30033 40038 85070 333 10366 59020 70000 82459 84360==
41946,2023,05,30,15,00,AAXX 30154 41946 02956 00000 10320 20260 30055 40060 333 59015 70000==
41946,2023,05,30,18,00,AAXX 30184 41946 02956 00000 10302 20260 30059 40062 333 59014 70000==
41946,2023,05,30,21,00,AAXX 30214 41946 02956 00000 10295 20280 30055 40060 333 59013 70000==
41946,2023,05,31,00,00,AAXX 31003 41946 01950 00000 10292 20270 30059 40064 70500 333 59015 70000==
41946,2023,05,31,03,00,AAXX 31034 41946 02956 00000 10330 20270 30067 40072 333 20284 59018 70000==
41946,2023,05,31,06,00,AAXX 31064 41946 02557 31801 10355 20270 30056 40061 83500 333 59016 70000 83618==
41946,2023,05,31,09,00,AAXX 31094 41946 02557 20000 10376 20210 30028 40032 82500 333 59019 70000 82620==
41946,2023,05,31,12,00,AAXX 31124 41946 02956 10000 10370 20240 30019 40023 80001 333 10380 59014 70000 81080==
41946,2023,05,31,15,00,AAXX 31154 41946 02956 00000 10324 20260 30036 40041 333 59019 70000==
41946,2023,05,31,18,00,AAXX 31184 41946 02956 00000 10309 20270 30035 40040 333 59027 70000==
41946,2023,05,31,21,00,AAXX 31214 41946 02956 00000 10304 20270 30029 40034 333 59026 70000==
41946,2023,06,01,00,00,AAXX 01004 41946 02956 30000 10300 20280 30033 40037 80002 333 59026 70000 83080==
41946,2023,06,01,03,00,AAXX 01034 41946 02456 41802 10325 20280 30053 40058 84400 333 20285 59014 70000 83620==
41946,2023,06,01,06,00,AAXX 01064 41946 NIL=
41946,2023,06,01,09,00,AAXX 01094 41946 02956 60000 10370 20250 30020 40024 83510 333 59008 70000 83618 84460==
41946,2023,06,01,12,00,AAXX 01124 41946 02456 30000 10358 20260 30012 40016 83500 333 10372 59007 70000 83618==
41946,2023,06,01,15,00,AAXX 01154 41946 02956 00000 10327 20270 30031 40036 333 59005 70000==
41946,2023,06,01,18,00,AAXX 01184 41946 02956 01801 10309 20280 30032 40037 333 59003 70000==
41946,2023,06,01,21,00,AAXX 01214 41946 02956 00000 10304 20270 30027 40032 333 59002 70000==
41947,2023,05,26,00,00,AAXX 26004 41947 01456 50000 10250 20230 30058 40061 72162 84430 333 58009 70032 83618==
41947,2023,05,26,03,00,AAXX 26034 41947 02456 60000 10295 20220 30081 40083 83570 333 20235 58015 70032 83618 84459==
41947,2023,05,26,06,00,AAXX 26064 41947 02/56 20000 10330 20210 30079 40082 82030 333 58020 70032 82362==
41947,2023,05,26,09,00,AAXX 26093 41947 02456 61802 10338 20250 30048 40050 83570 333 58013 70032 83618 85458==
41947,2023,05,26,12,00,AAXX 26124 41947 02456 31802 10322 20240 30050 40052 83500 333 10340 58020 70032 83618==
41947,2023,05,26,15,00,AAXX 26154 41947 01350 82304 10235 20220 30091 40093 79596 8592/ 333 58030 70162 83717 88458 81928==
41947,2023,05,26,18,00,AAXX 26184 41947 NIL=
41947,2023,05,27,00,00,AAXX 27004 41947 02950 00000 10240 20230 30055 40057 333 59004 70160==
41947,2023,05,27,03,00,AAXX 27034 41947 02456 50000 10290 20250 30065 40067 83530 333 20226 59016 70160 83618==
41947,2023,05,27,06,00,AAXX 27064 41947 01350 80000 10302 20270 30055 40058 79562 8632/ 333 59024 70030 82708 83615 88458 82930==
41947,2023,05,27,09,00,AAXX 27094 41947 01456 20000 10315 20240 30051 40053 70196 82500 333 58003 70400 82618==
41947,2023,05,27,12,00,AAXX 27124 41947 11956 00000 10300 20250 30050 40052 60216 70196 333 10320 58000 70400==
41947,2023,05,27,15,00,AAXX 27154 41947 02950 00000 10275 20250 30062 40064 333 59029 70260==
41947,2023,05,27,18,00,AAXX 27184 41947 02950 00000 10265 20250 30061 40063 333 58000 70240==
41947,2023,05,27,21,00,AAXX 27214 41947 02950 00000 10255 20240 30062 40064 333 58003 70240==
41947,2023,05,28,00,00,AAXX 28004 41947 01950 00000 10248 20248 30062 40064 70500 333 58007 70240==
41947,2023,05,28,03,00,AAXX 28034 41947 02956 00000 10285 20250 30071 40074 333 20240 58007 70240==
41947,2023,05,28,06,00,AAXX 28064 41947 02957 00000 10330 20230 30064 40067 333 58009 70210==
41947,2023,05,28,09,00,AAXX 28094 41947 02457 30000 10350 20220 30054 40057 82401 333 58004 70000 81618==
41947,2023,05,28,12,00,AAXX 28124 41947 02957 20000 10334 20220 30047 40050 80001 333 10352 59002 70000 82080==
41947,2023,05,28,15,00,AAXX 28154 41947 02956 00000 10288 20260 30064 40067 333 58003 70000==
41947,2023,05,28,18,00,AAXX 28184 41947 02956 00000 10276 20260 30071 40073 333 58010 70000==
41947,2023,05,28,21,00,AAXX 28214 41947 02956 00000 10268 20260 30068 40070 333 58006 70000==
41947,2023,05,29,00,00,AAXX 29004 41947 02956 00000 10263 20250 30072 40074 333 58010 70000==
41947,2023,05,29,03,00,AAXX 29034 41947 02956 00000 10328 20240 30082 40085 333 20256 58011 70000==
41947,2023,05,29,06,00,AAXX 29064 41947 02456 40000 10352 20240 30076 40078 84500 333 58011 70000 84618==
41947,2023,05,29,09,00,AAXX 29094 41947 02456 50000 10365 20230 30058 40060 82530 333 58003 70000 82618 84362==
41947,2023,05,29,12,00,AAXX 29124 41947 02450 20000 10350 20240 30048 40050 82500 333 10366 58000 70000 82618==
41947,2023,05,29,15,00,AAXX 29154 41947 02950 00000 10304 20260 30057 40059 333 59008 70000==
41947,2023,05,29,18,00,AAXX 29184 41947 02950 00000 10300 20240 30069 40071 333 58000 70000==
41947,2023,05,29,21,00,AAXX 29214 41947 02950 00000 10290 20270 30065 40067 333 59003 70000==
41947,2023,05,30,00,00,AAXX 30004 41947 02450 20000 10280 20270 30061 40063 82500 333 59011 70000 82618==
41947,2023,05,30,03,00,AAXX 30034 41947 02456 50000 10323 20260 30075 40078 82570 333 20274 59007 70000 82618 83459==
41947,2023,05,30,06,00,AAXX 30064 41947 02456 40000 10362 20250 30069 40071 84500 333 59007 70000 84618==
41947,2023,05,30,09,00,AAXX 30094 41947 02456 31801 10370 20240 30045 40047 83500 333 59013 70000 83618==
41947,2023,05,30,12,00,AAXX 30124 41947 02456 20000 10360 20240 30035 40037 82500 333 10378 59013 70000 82618==
41947,2023,05,30,15,00,AAXX 30154 41947 02950 00000 10320 20260 30052 40054 333 59005 70000==
41947,2023,05,30,18,00,AAXX 30184 41947 02950 00000 10305 20270 30066 40068 333 59005 70000==
41947,2023,05,30,21,00,AAXX 30214 41947 02950 00000 10295 20280 30060 40062 333 59005 70000==
41947,2023,05,31,00,00,AAXX 31004 41947 02950 00000 10288 20280 30053 40055 333 59008 70000==
41947,2023,05,31,03,00,AAXX 31034 41947 02957 00000 10325 20270 30052 40055 333 20280 59023 70000==
41947,2023,05,31,06,00,AAXX 31064 41947 02457 60000 10363 20270 30047 40050 86400 333 59021 70000 83618 83820==
41947,2023,05,31,09,00,AAXX 31094 41947 02457 62403 10379 20220 30029 40031 86400 333 59016 70000 83618 83820==
41947,2023,05,31,12,00,AAXX 31124 41947 02957 20000 10365 20250 30013 40015 80001 333 10380 59022 70000 82080==
41947,2023,05,31,15,00,AAXX 31154 41947 02956 01802 10323 20240 30035 40037 333 59017 70000==
41947,2023,05,31,18,00,AAXX 31184 41947 02956 00000 10302 20270 30033 40035 333 59033 70000==
41947,2023,05,31,21,00,AAXX 31214 41947 02956 00000 10296 20280 30030 40032 333 59030 70000==
41947,2023,06,01,00,00,AAXX 01004 41947 02/56 50000 10292 20280 30030 40033 85010 333 59022 70000 85459==
41947,2023,06,01,03,00,AAXX 01034 41947 02456 50000 10320 20270 30042 40045 85400 333 20280 59010 70000 82618 83820==
41947,2023,06,01,06,00,AAXX 01064 41947 02456 70000 10338 20270 30041 40044 83570 333 59006 70000 83618 86458==
41947,2023,06,01,09,00,AAXX 01094 41947 02957 02802 10375 20240 30025 40027 333 59004 70000==
41947,2023,06,01,12,00,AAXX 01124 41947 02956 00000 10360 20250 30011 40013 333 10380 59002 70000==
41947,2023,06,01,15,00,AAXX 01154 41947 02950 00000 10325 20260 30030 40032 333 59005 70000==
41947,2023,06,01,18,00,AAXX 01184 41947 02950 01802 10305 20290 30039 40041 333 58006 70000==
41947,2023,06,01,21,00,AAXX 01214 41947 02950 00000 10302 20290 30039 40041 333 58009 70000==
41950,2023,05,26,00,00,AAXX 26004 41950 02350 70000 10244 20220 30067 40069 85610 333 58008 70240 82708 84616 87459==
41950,2023,05,26,03,00,AAXX 26034 41950 02450 50000 10290 20230 30095 40097 83510 333 20236 58020 70240 83616 84459==
41950,2023,05,26,06,00,AAXX 26064 41950 02450 51802 10318 20230 30090 40092 83530 333 58021 70240 83617 83362==
41950,2023,05,26,09,00,AAXX 26094 41950 02450 51802 10337 20240 30059 40061 83530 333 59013 70240 83616 83362==
41950,2023,05,26,12,00,AAXX 26124 41950 02450 50000 10312 20240 30054 40056 83530 333 10345 58015 70000 83616 83362==
41950,2023,05,26,15,00,AAXX 26154 41950 02350 82102 10285 20270 30083 40085 8632/ 333 58026 70000 82708 84616 88459 81928==
41950,2023,05,26,18,00,AAXX 26184 41950 21350 71802 10236 20230 30060 40063 70162 85670 333 59004 60027 70024 82708 84616 85459==
41950,2023,05,26,21,00,AAXX 26214 41950 02350 70000 10235 20235 30057 40059 85670 333 58000 70024 82708 84616 85459==
41950,2023,05,27,00,00,AAXX 27004 41950 02350 70000 10229 20229 30059 40061 85670 333 59008 70024 82708 84616 85459==
41950,2023,05,27,03,00,AAXX 27034 41950 02450 51802 10300 20220 30073 40076 83531 333 20226 59022 70024 83617 83362==
41950,2023,05,27,06,00,AAXX 27064 41950 02450 61802 10326 20260 30064 40066 83510 333 59026 70024 83616 86458==
41950,2023,05,27,09,00,AAXX 27094 41950 01350 83507 10249 20240 30061 40064 79592 8692/ 333 58002 70044 82708 84616 88458 81928==
41950,2023,05,27,12,00,AAXX 27124 41950 21450 50902 10277 20240 30051 40053 70195 83530 333 10335 59003 60025 70044 83617 83362==
41950,2023,05,27,15,00,AAXX 27154 41950 02950 00000 10252 20240 30067 40070 333 59016 70044==
41950,2023,05,27,18,00,AAXX 27184 41950 02950 00000 10244 20240 30067 40070 333 58007 70020==
41950,2023,05,27,21,00,AAXX 27214 41950 02950 00000 10236 20236 30064 40066 333 58007 70020==
41950,2023,05,28,00,00,AAXX 28004 41950 02440 50000 10243 20240 30064 40066 83530 333 58005 70020 83616 83362==
41950,2023,05,28,03,00,AAXX 28034 41950 02450 50000 10304 20260 30078 40080 85400 333 20233 58005 70020 83617==
41950,2023,05,28,06,00,AAXX 28064 41950 02450 50000 10344 20220 30074 40076 85400 333 58010 70020 83617==
41950,2023,05,28,09,00,AAXX 28094 41950 02450 50000 10350 20240 30059 40061 84400 333 59002 70000 83617==
41950,2023,05,28,12,00,AAXX 28124 41950 02450 20000 10326 20240 30055 40058 82500 333 10354 58004 70000 82617==
41950,2023,05,28,15,00,AAXX 28154 41950 02950 00000 10262 20250 30068 40070 333 58001 70000==
41950,2023,05,28,18,00,AAXX 28184 41950 02950 00000 10250 20240 30076 40078 333 58009 70000==
41950,2023,05,28,21,00,AAXX 28214 41950 02950 00000 10248 20248 30068 40070 333 58004 70000==
41950,2023,05,29,00,00,AAXX 29004 41950 01940 00000 10245 20245 30073 40076 70500 333 58009 70000==
41950,2023,05,29,03,00,AAXX 29034 41950 02950 00000 10324 20240 30093 40095 333 20242 58015 70000==
41950,2023,05,29,06,00,AAXX 29064 41950 02450 40000 10348 20230 30085 40088 84400 333 58011 70000 83617==
41950,2023,05,29,09,00,AAXX 29094 41950 02450 32702 10358 20230 30062 40064 83400 333 58003 70000 83617==
41950,2023,05,29,12,00,AAXX 29124 41950 02450 30000 10328 20260 30052 40055 82531 333 10360 59003 70000 82617==
41950,2023,05,29,15,00,AAXX 29154 41950 02950 00000 10275 20270 30069 40071 333 58001 70000==
41950,2023,05,29,18,00,AAXX 29184 41950 02950 00000 10265 20265 30072 40074 333 59004 70000==
41950,2023,05,29,21,00,AAXX 29214 41950 01945 00000 10260 20260 30075 40077 70500 333 58007 70000==
41950,2023,05,30,00,00,AAXX 30004 41950 01/45 40000 10259 20259 30075 40077 70510 83031 333 58002 70000 83362==
41950,2023,05,30,03,00,AAXX 30034 41950 02450 40000 10330 20270 30083 40086 82501 333 20253 59010 70000 82618==
41950,2023,05,30,06,00,AAXX 30064 41950 02450 42702 10354 20240 30074 40077 85400 333 59011 70000 83617==
41950,2023,05,30,09,00,AAXX 30094 41950 02450 50000 10360 20240 30050 40053 83530 333 59012 70000 83616 83362==
41950,2023,05,30,12,00,AAXX 30124 41950 02450 30000 10332 20280 30040 40043 83500 333 10370 59012 70000 83617==
41950,2023,05,30,15,00,AAXX 30154 41950 02950 00000 10305 20280 30058 40061 333 59011 70000==
41950,2023,05,30,18,00,AAXX 30184 41950 02450 20000 10293 20270 30068 40071 82500 333 59004 70000 82616==
41950,2023,05,30,21,00,AAXX 30214 41950 02450 30000 10284 20270 30055 40058 83530 333 59020 70000 83616==
41950,2023,05,31,00,00,AAXX 31004 41950 02450 30000 10272 20270 30056 40058 82530 333 59019 70000 82617==
41950,2023,05,31,03,00,AAXX 31034 41950 02450 20000 10330 20270 30067 40070 82500 333 20268 59016 70000 82617==
41950,2023,05,31,06,00,AAXX 31064 41950 02450 40000 10360 20230 30060 40063 82530 333 59014 70000 82617==
41950,2023,05,31,09,00,AAXX 31094 41950 02456 20000 10371 20240 30029 40031 82400 333 59021 70000 82617==
41950,2023,05,31,12,00,AAXX 31124 41950 02/56 10000 10345 20250 30019 40021 81030 333 10374 59021 70000 81362==
41950,2023,05,31,15,00,AAXX 31154 41950 02950 00000 10310 20230 30042 40045 333 59016 70000==
41950,2023,05,31,18,00,AAXX 31184 41950 02950 20000 10290 20260 30042 40045 80001 333 59026 70000 82080==
41950,2023,05,31,21,00,AAXX 31214 41950 02/50 30000 10285 20280 30037 40040 82031 333 59018 70000 82362==
41950,2023,06,01,00,00,AAXX 01004 41950 02450 50000 10280 20280 30042 40044 82570 333 59014 70000 82617 85459==
41950,2023,06,01,03,00,AAXX 01034 41950 02456 51802 10318 20280 30057 40060 85400 333 20274 59010 70000 84616==
41950,2023,06,01,06,00,AAXX 01064 41950 02456 40000 10350 20260 30050 40053 83430 333 59010 70000 82617==
41950,2023,06,01,09,00,AAXX 01094 41950 02450 40000 10354 20250 30020 40022 84400 333 59009 70000 83617==
41950,2023,06,01,12,00,AAXX 01124 41950 02450 40000 10340 20260 30011 40013 82531 333 10362 59008 70000 82617 83080==
41950,2023,06,01,15,00,AAXX 01154 41950 02950 20000 10302 20260 30038 40041 80001 333 59004 70000 82080==
41950,2023,06,01,18,00,AAXX 01184 41950 02/50 30000 10290 20250 30042 40045 83030 333 58000 70000 83362==
41950,2023,06,01,21,00,AAXX 01214 41950 02950 00000 10282 20280 30034 40036 333 59003 70000==
41951,2023,05,26,00,00,AAXX 26004 41951 21450 62602 10242 20230 30063 40068 70162 83510 333 58010 69925 70010 83618 85459==
41951,2023,05,26,03,00,AAXX 26034 41951 02440 80000 10295 20240 30087 40092 8452/ 333 20238 58016 70010 84618 88458==
41951,2023,05,26,06,00,AAXX 26064 41951 02456 52004 10325 20250 30084 40089 82510 333 58019 70010 82618 84459==
41951,2023,05,26,09,00,AAXX 26093 41951 02456 61302 10322 20260 30054 40059 83510 333 58004 70010 83618 85459==
41951,2023,05,26,12,00,AAXX 26124 41951 02456 31302 10308 20260 30050 40055 83500 333 10337 58018 70002 83618==
41951,2023,05,26,15,00,AAXX 26154 41951 02450 30000 10283 20260 30075 40079 83500 333 58018 70002 83618==
41951,2023,05,26,18,00,AAXX 26184 41951 21450 60000 10242 20230 30062 40067 70362 83510 333 58002 60067 70058 83618 85459==
41951,2023,05,27,00,00,AAXX 27004 41951 02450 60000 10238 20238 30055 40060 83510 333 59008 70056 83618 85459==
41951,2023,05,27,03,00,AAXX 27034 41951 02456 61302 10308 20250 30071 40076 83510 333 20230 59016 70056 83618 85459==
41951,2023,05,27,06,00,AAXX 27064 41951 02456 61302 10326 20270 30063 40068 83510 333 59021 70056 83618 85459==
41951,2023,05,27,09,00,AAXX 27094 41951 01330 83103 10248 20240 30062 40067 79522 8692/ 333 58008 70104 82706 84616 88458 82925==
41951,2023,05,27,12,00,AAXX 27124 41951 21450 60000 10277 20250 30047 40052 70196 83510 333 10338 59003 60135 70184 83618 85459==
41951,2023,05,27,15,00,AAXX 27154 41951 02450 20000 10256 20250 30060 40065 82500 333 59005 70184 82618==
41951,2023,05,27,18,00,AAXX 27184 41951 02450 20000 10250 20250 30063 40068 82500 333 58001 70128 82618==
41951,2023,05,27,21,00,AAXX 27214 41951 02950 00000 10242 20240 30060 40065 333 58000 70128==
41951,2023,05,28,00,00,AAXX 28004 41951 02950 00000 10250 20250 30058 40063 333 58003 70128==
41951,2023,05,28,03,00,AAXX 28034 41951 02450 60000 10308 20260 30070 40075 83510 333 20235 59001 70128 83618 85459==
41951,2023,05,28,06,00,AAXX 28064 41951 02456 51304 10329 20280 30072 40077 82510 333 58009 70128 82618 84459==
41951,2023,05,28,09,00,AAXX 28094 41951 02456 31303 10348 20260 30053 40058 83500 333 59009 70080 83618==
41951,2023,05,28,12,00,AAXX 28124 41951 02956 00000 10313 20260 30049 40054 333 10352 58002 70000==
41951,2023,05,28,15,00,AAXX 28154 41951 02950 00000 10272 20260 30065 40069 333 58005 70000==
41951,2023,05,28,18,00,AAXX 28184 41951 02950 00000 10266 20260 30073 40077 333 58010 70000==
41951,2023,05,28,21,00,AAXX 28214 41951 01940 00000 10255 20255 30067 40072 70500 333 58007 70000==
41951,2023,05,29,00,00,AAXX 29004 41951 01950 00000 10258 20258 30071 40076 70500 333 58013 70000==
41951,2023,05,29,03,00,AAXX 29034 41951 02956 01302 10318 20260 30082 40087 333 20246 58012 70000==
41951,2023,05,29,06,00,AAXX 29064 41951 02456 33603 10352 20240 30079 40084 83500 333 58007 70000 83618==
41951,2023,05,29,09,00,AAXX 29094 41951 02456 33202 10361 20240 30057 40062 83500 333 58004 70000 83618==
41951,2023,05,29,12,00,AAXX 29124 41951 02456 30000 10324 20270 30044 40049 83500 333 10363 59005 70000 83618==
41951,2023,05,29,15,00,AAXX 29154 41951 02950 00000 10280 20270 30072 40077 333 58009 70000==
41951,2023,05,29,18,00,AAXX 29184 41951 02450 20000 10272 20270 30069 40074 82500 333 59004 70000 82618==
41951,2023,05,29,21,00,AAXX 29214 41951 02450 20000 10263 20260 30067 40072 82500 333 58000 70000 82618==
41951,2023,05,30,00,00,AAXX 30004 41951 02450 30000 10272 20260 30067 40071 83500 333 59004 70000 83618==
41951,2023,05,30,03,00,AAXX 30034 41951 02456 53103 10324 20250 30079 40084 82510 333 20258 59003 70000 82618 84459==
41951,2023,05,30,06,00,AAXX 30064 41951 02456 32304 10360 20240 30073 40078 83500 333 59006 70000 83618==
41951,2023,05,30,09,00,AAXX 30094 41951 02456 32603 10368 20250 30044 40048 83500 333 59013 70000 83618==
41951,2023,05,30,12,00,AAXX 30124 41951 02456 30000 10345 20270 30033 40037 83500 333 10375 59011 70000 83618==
41951,2023,05,30,15,00,AAXX 30154 41951 02450 30000 10305 20280 30055 40060 83500 333 59017 70000 83618==
41951,2023,05,30,18,00,AAXX 30184 41951 02450 50000 10292 20270 30057 40062 82510 333 59012 70000 82618 84459==
41951,2023,05,30,21,00,AAXX 30214 41951 02450 60000 10286 20280 30055 40060 83510 333 59012 70000 83618 85459==
41951,2023,05,31,00,00,AAXX 31004 41951 02450 60000 10288 20280 30048 40053 83510 333 59019 70000 83618 85459==
41951,2023,05,31,03,00,AAXX 31034 41951 02456 32203 10332 20260 30061 40066 83500 333 20277 59018 70000 83618==
41951,2023,05,31,06,00,AAXX 31064 41951 02456 61305 10348 20270 30057 40062 83510 333 59016 70000 83618 85459==
41951,2023,05,31,09,00,AAXX 31094 41951 02456 32004 10373 20230 30027 40032 83500 333 59017 70000 83618==
41951,2023,05,31,12,00,AAXX 31124 41951 02956 00000 10340 20290 30013 40018 333 10375 59020 70000==
41951,2023,05,31,15,00,AAXX 31154 41951 02450 50000 10312 20240 30045 40050 82510 333 59010 70000 82618 84459==
41951,2023,05,31,18,00,AAXX 31184 41951 02450 60000 10288 20280 30037 40042 83510 333 59020 70000 83618 85459==
41951,2023,05,31,21,00,AAXX 31214 41951 02450 60000 10285 20280 30042 40047 83510 333 59013 70000 83618 85459==
41951,2023,06,01,00,00,AAXX 01004 41951 02450 61302 10292 20280 30042 40047 83510 333 59006 70000 83618 85459==
41951,2023,06,01,03,00,AAXX 01034 41951 02456 61303 10325 20280 30051 40056 83510 333 20284 59010 70000 83618 85459==
41951,2023,06,01,06,00,AAXX 01064 41951 02456 62703 10353 20270 30048 40052 83510 333 59009 70000 83618 85459==
41951,2023,06,01,09,00,AAXX 01094 41951 02456 61203 10349 20260 30023 40027 83510 333 59004 70000 83618 85459==
41951,2023,06,01,12,00,AAXX 01124 41951 02456 51302 10326 20270 30011 40015 82510 333 10360 59002 70000 82618 84459==
41951,2023,06,01,15,00,AAXX 01154 41951 02450 31802 10300 20270 30037 40042 83500 333 59008 70000 83618==
41951,2023,06,01,18,00,AAXX 01184 41951 02450 32903 10294 20270 30033 40038 83500 333 59004 70000 83618==
41951,2023,06,01,21,00,AAXX 01214 41951 02450 31802 10283 20270 30034 40039 83500 333 59008 70000 83618==
41953,2023,05,26,00,00,AAXX 26004 41953 02440 82805 10254 20230 30069 40074 8452/ 333 58003 70000 84616 88458==
41953,2023,05,26,03,00,AAXX 26034 41953 02450 31301 10314 20240 30096 40101 83400 333 20250 58019 70000 82618==
41953,2023,05,26,06,00,AAXX 26064 41953 02450 41806 10326 20260 30088 40093 84400 333 58014 70000 83618==
41953,2023,05,26,09,00,AAXX 26093 41953 02450 40502 10332 20250 30063 40068 84400 333 58006 70000 83618==
41953,2023,05,26,12,00,AAXX 26124 41953 02450 31303 10305 20270 30057 40062 83500 333 10335 58006 70000 83618==
41953,2023,05,26,15,00,AAXX 26154 41953 02940 01304 10280 20260 30074 40079 333 58008 70000==
41953,2023,05,26,18,00,AAXX 26184 41953 02940 01804 10275 20270 30077 40082 333 58008 70000==
41953,2023,05,27,00,00,AAXX 27004 41953 02450 20000 10254 20240 30064 40069 82500 333 59005 70000 82618==
41953,2023,05,27,03,00,AAXX 27034 41953 02450 31304 10315 20260 30080 40085 83500 333 20251 59016 70000 83618==
41953,2023,05,27,06,00,AAXX 27064 41953 02550 21302 10346 20260 30074 40079 82200 333 59014 70000 82825==
41953,2023,05,27,09,00,AAXX 27094 41953 02450 81301 10322 20260 30059 40064 8352/ 333 59004 70000 83616 88458==
41953,2023,05,27,12,00,AAXX 27124 41953 21440 40000 10256 20230 30054 40059 70196 82530 333 10348 59003 60035 70030 82618 83362==
41953,2023,05,27,15,00,AAXX 27154 41953 02930 00000 10246 20240 30066 40071 333 59008 70030==
41953,2023,05,27,18,00,AAXX 27184 41953 02930 00000 10240 20230 30071 40076 333 59006 70030==
41953,2023,05,27,21,00,AAXX 27214 41953 02930 00000 10240 20230 30070 40075 333 59001 70030==
41953,2023,05,28,00,00,AAXX 28004 41953 02440 10000 10244 20240 30068 40073 81500 333 58004 70030 81618==
41953,2023,05,28,03,00,AAXX 28034 41953 02450 31301 10310 20270 30083 40088 83500 333 20239 58003 70030 83618==
41953,2023,05,28,06,00,AAXX 28064 41953 02450 50000 10336 20260 30074 40079 84420 333 58000 70030 83616 85458==
41953,2023,05,28,09,00,AAXX 28094 41953 02450 40000 10355 20260 30055 40060 84400 333 59004 70030 82616 83825==
41953,2023,05,28,12,00,AAXX 28124 41953 02950 00000 10330 20230 30048 40053 333 10360 59006 70000==
41953,2023,05,28,15,00,AAXX 28154 41953 02940 00000 10275 20260 30067 40072 333 58001 70000==
41953,2023,05,28,18,00,AAXX 28184 41953 02940 00000 10264 20250 30076 40081 333 58005 70000==
41953,2023,05,28,21,00,AAXX 28214 41953 02440 50000 10260 20250 30065 40070 82520 333 59005 70000 82616 85458==
41953,2023,05,29,00,00,AAXX 29004 41953 02940 00000 10255 20250 30074 40079 333 58006 70000==
41953,2023,05,29,03,00,AAXX 29034 41953 02950 00000 10330 20240 30087 40092 333 20250 58004 70000==
41953,2023,05,29,06,00,AAXX 29064 41953 02450 20000 10352 20240 30081 40086 82400 333 58007 70000 81616==
41953,2023,05,29,09,00,AAXX 29094 41953 02950 03003 10365 20240 30057 40062 333 58002 70000==
41953,2023,05,29,12,00,AAXX 29124 41953 02950 00000 10340 20240 30048 40053 333 10370 58000 70000==
41953,2023,05,29,15,00,AAXX 29154 41953 02940 00000 10295 20260 30070 40075 333 59003 70000==
41953,2023,05,29,18,00,AAXX 29184 41953 02940 00000 10276 20270 30073 40078 333 59003 70000==
41953,2023,05,29,21,00,AAXX 29214 41953 02940 00000 10270 20260 30065 40070 333 58000 70000==
41953,2023,05,30,00,00,AAXX 30004 41953 02940 00000 10270 20250 30073 40078 333 59001 70000==
41953,2023,05,30,03,00,AAXX 30034 41953 02950 00000 10332 20240 30083 40088 333 20270 59004 70000==
41953,2023,05,30,06,00,AAXX 30064 41953 02450 20000 10370 20240 30073 40078 82500 333 59008 70000 82616==
41953,2023,05,30,09,00,AAXX 30094 41953 02450 22703 10372 20240 30041 40046 82500 333 59016 70000 82616==
41953,2023,05,30,12,00,AAXX 30124 41953 02/50 30000 10350 20260 30038 40043 83030 333 10378 59010 70000 83362==
41953,2023,05,30,15,00,AAXX 30154 41953 02/40 30000 10300 20280 30052 40057 83030 333 59018 70000 83362==
41953,2023,05,30,18,00,AAXX 30184 41953 02940 00000 10290 20270 30062 40067 333 59011 70000==
41953,2023,05,30,21,00,AAXX 30214 41953 02940 00000 10285 20280 30055 40060 333 59010 70000==
41953,2023,05,31,00,00,AAXX 31004 41953 02940 00000 10280 20270 30053 40058 333 59020 70000==
41953,2023,05,31,03,00,AAXX 31034 41953 02950 00000 10330 20240 30068 40073 333 20276 59015 70000==
41953,2023,05,31,06,00,AAXX 31064 41953 02950 00000 10360 20250 30058 40063 333 59015 70000==
41953,2023,05,31,09,00,AAXX 31094 41953 02950 03104 10368 20270 30024 40029 333 59017 70000==
41953,2023,05,31,12,00,AAXX 31124 41953 02950 00000 10340 20260 30019 40024 333 10370 59019 70000==
41953,2023,05,31,15,00,AAXX 31154 41953 02940 00000 10300 20270 30041 40046 333 59011 70000==
41953,2023,05,31,18,00,AAXX 31184 41953 02940 00000 10290 20280 30049 40054 333 59013 70000==
41953,2023,05,31,21,00,AAXX 31214 41953 02440 33104 10276 20270 30051 40056 83500 333 59004 70000 83618==
41953,2023,06,01,00,00,AAXX 01004 41953 02450 60000 10272 20260 30048 40053 83530 333 59005 70000 83618 85361==
41953,2023,06,01,03,00,AAXX 01034 41953 02450 31803 10336 20290 30061 40066 83500 333 20270 59007 70000 83618==
41953,2023,06,01,06,00,AAXX 01064 41953 02550 21301 10366 20280 30052 40057 82100 333 59006 70000 82825==
41953,2023,06,01,09,00,AAXX 01094 41953 02450 32001 10364 20250 30020 40025 83400 333 59004 70000 82618==
41953,2023,06,01,12,00,AAXX 01124 41953 02450 40000 10334 20260 30016 40021 83430 333 10370 59003 70000 82618 83362==
41953,2023,06,01,15,00,AAXX 01154 41953 02940 01302 10300 20280 30038 40043 333 59003 70000==
41953,2023,06,01,18,00,AAXX 01184 41953 02940 01302 10290 20280 30045 40050 333 59004 70000==
41953,2023,06,01,21,00,AAXX 01214 41953 02940 00000 10288 20280 30043 40048 333 59008 70000==
41955,2023,05,26,00,00,AAXX 26004 41955 NIL=
41955,2023,05,26,06,00,AAXX 26064 41955 NIL=
41955,2023,05,26,12,00,AAXX 26124 41955 NIL=
41955,2023,05,26,18,00,AAXX 26184 41955 NIL=
41955,2023,05,27,06,00,AAXX 27064 41955 NIL=
41955,2023,05,27,12,00,AAXX 27124 41955 NIL=
41955,2023,05,27,18,00,AAXX 27184 41955 NIL=
41955,2023,05,28,00,00,AAXX 28004 41955 NIL=
41955,2023,05,28,06,00,AAXX 28064 41955 NIL=
41955,2023,05,28,12,00,AAXX 28124 41955 NIL=
41955,2023,05,28,18,00,AAXX 28184 41955 NIL=
41955,2023,05,29,00,00,AAXX 29004 41955 NIL=
41955,2023,05,29,06,00,AAXX 29064 41955 NIL=
41955,2023,05,30,06,00,AAXX 30064 41955 NIL=
41955,2023,05,30,12,00,AAXX 30124 41955 NIL=
41955,2023,05,31,00,00,AAXX 31004 41955 NIL=
41955,2023,05,31,06,00,AAXX 31064 41955 NIL=
41955,2023,05,31,12,00,AAXX 31124 41955 NIL=
41955,2023,06,01,06,00,AAXX 01064 41955 NIL=
41955,2023,06,01,12,00,AAXX 01124 41955 NIL=
41958,2023,05,26,00,00,AAXX 26004 41958 31450 50000 10248 20248 30051 40053 60164 70196 83510 333 56990 58008 70160 83616 84459=
41958,2023,05,26,03,00,AAXX 26034 41958 32456 50000 10290 20240 30040 40042 83510 333 20226 56990 59026 70160 83616 84459=
41958,2023,05,26,06,00,AAXX 26064 41958 32456 50000 10330 20270 30078 40080 83510 333 56990 58028 70160 83616 84459=
41958,2023,05,26,09,00,AAXX 26093 41958 32456 51701 20270 20340 30045 40047 84410 333 56990 58013 70160 83616 84459=
41958,2023,05,26,12,00,AAXX 26124 41958 32956 01701 10318 20270 30044 40046 333 10340 58016 70160=
41958,2023,05,26,15,00,AAXX 26154 41958 31430 83102 10238 20238 30085 40087 79300 8592/ 333 56799 58031 6006/ 70220 84616 81930 88458=
41958,2023,05,26,18,00,AAXX 26184 41958 NIL=
41958,2023,05,27,00,00,AAXX 27004 41958 32450 30000 10240 20240 30049 40051 83500 333 56900 59002 70074 83616=
41958,2023,05,27,03,00,AAXX 27034 41958 32456 51701 10330 20260 30063 40065 83410 333 20225 56990 58023 70074 83616 84459=
41958,2023,05,27,06,00,AAXX 27064 41958 32456 51703 10345 20290 30050 40052 83410 333 56990 59023 70074 83616 84459=
41958,2023,05,27,09,00,AAXX 27094 41958 32456 50000 10330 20260 30046 40048 83410 333 56990 58001 70104 83616 84459=
41958,2023,05,27,12,00,AAXX 27124 41958 32456 31701 10310 20260 30038 40040 83500 333 10345 56900 59006 70104 83616=
41958,2023,05,27,15,00,AAXX 27154 41958 32950 00801 10276 20260 30051 40053 333 59034 70044=
41958,2023,05,27,18,00,AAXX 27184 41958 32940 00000 10272 20270 30053 40055 333 58011 70030=
41958,2023,05,27,21,00,AAXX 27214 41958 32940 00000 10264 20260 30048 40050 333 58004 70030=
41958,2023,05,28,00,00,AAXX 28004 41958 32450 30000 10255 20255 30054 40056 83500 333 56900 58005 70030 83616=
41958,2023,05,28,03,00,AAXX 28034 41958 32958 00000 10318 20260 30072 40074 333 20245 58009 70030=
41958,2023,05,28,06,00,AAXX 28064 41958 32958 00901 10340 20250 30071 40073 333 58021 70030=
41958,2023,05,28,09,00,AAXX 28094 41958 32958 03601 10342 20230 30054 40056 333 58008 70000=
41958,2023,05,28,12,00,AAXX 28124 41958 32956 00000 10330 20250 30046 40048 333 10345 58008 70000=
41958,2023,05,28,15,00,AAXX 28154 41958 32950 00000 10283 20260 30061 40063 333 58010 70000=
41958,2023,05,28,18,00,AAXX 28184 41958 32940 00000 10274 20250 30076 40078 333 58023 70000=
41958,2023,05,28,21,00,AAXX 28214 41958 32940 00000 10270 20270 30062 40064 333 58017 70000=
41958,2023,05,29,00,00,AAXX 29004 41958 31950 00000 10263 20260 30065 40067 70500 333 58011 70000=
41958,2023,05,29,03,00,AAXX 29034 41958 32958 02701 10328 20260 30085 40087 333 20257 58013 70000=
41958,2023,05,29,06,00,AAXX 29064 41958 32458 20000 10348 20260 30076 40078 82500 333 56900 58005 70000 82617=
41958,2023,05,29,09,00,AAXX 29094 41958 32458 20000 10356 20260 30056 40058 82500 333 56900 58002 70000 82618=
41958,2023,05,29,12,00,AAXX 29124 41958 32958 00000 10329 20270 30047 40050 333 10358 59002 70000=
41958,2023,05,29,15,00,AAXX 29154 41958 32956 00000 10292 20260 30067 40069 333 58006 70000=
41958,2023,05,29,18,00,AAXX 29184 41958 32950 00000 10280 20260 30075 40077 333 59001 70000=
41958,2023,05,29,21,00,AAXX 29214 41958 32940 00000 10275 20270 30061 40063 333 59001 70000=
41958,2023,05,30,00,00,AAXX 30004 41958 32450 20000 10273 20270 30064 40066 82500 333 56900 59001 70000 82617=
41958,2023,05,30,03,00,AAXX 30034 41958 32458 20000 10326 20280 30077 40079 82500 333 20266 56900 59008 70000 82617=
41958,2023,05,30,06,00,AAXX 30064 41958 32458 32701 10360 20270 30070 40072 83400 333 56900 59006 70000 82617=
41958,2023,05,30,09,00,AAXX 30094 41958 32458 20000 10370 20260 30042 40044 82500 333 56900 59015 70000 82617=
41958,2023,05,30,12,00,AAXX 30124 41958 32456 30000 10335 20290 30030 40032 83500 333 10375 56900 59017 70000 83617=
41958,2023,05,30,15,00,AAXX 30154 41958 32450 50000 10294 20270 30050 40052 85400 333 56900 59017 70000 84617=
41958,2023,05,30,18,00,AAXX 30184 41958 32440 40000 10280 20260 30066 40068 84400 333 56900 59009 70000 83617=
41958,2023,05,30,21,00,AAXX 30214 41958 32440 40000 10283 20270 30044 40046 84400 333 56900 59017 70000 83617=
41958,2023,05,31,00,00,AAXX 31004 41958 31450 22701 10280 20280 30046 40048 70520 82500 333 56900 59018 70000 82617=
41958,2023,05,31,03,00,AAXX 31034 41958 32458 20000 10330 20280 30059 40061 82500 333 20275 56900 59018 70000 82617=
41958,2023,05,31,06,00,AAXX 31064 41958 32458 40000 10368 20280 30051 40053 84400 333 56900 59019 70000 83617=
41958,2023,05,31,09,00,AAXX 31094 41958 32458 40000 10360 20260 30026 40028 84400 333 56900 59016 70000 83617=
41958,2023,05,31,12,00,AAXX 31124 41958 32456 50000 10348 20290 30012 40014 85400 333 10371 56500 59018 70000 84617=
41958,2023,05,31,15,00,AAXX 31154 41958 32450 50000 10300 20270 30034 40036 85400 333 56900 59016 70000 84617=
41958,2023,05,31,18,00,AAXX 31184 41958 32440 50000 10284 20260 30050 40052 85400 333 56900 59016 70000 84617=
41958,2023,05,31,21,00,AAXX 31214 41958 32440 50000 10283 20270 30026 40028 85400 333 56900 59018 70000 84617=
41958,2023,06,01,00,00,AAXX 01004 41958 32450 50000 10282 20280 30029 40031 85400 333 56900 59017 70000 84617=
41958,2023,06,01,03,00,AAXX 01034 41958 32458 50000 10328 20290 30046 40048 85400 333 20278 56900 59013 70000 84617=
41958,2023,06,01,06,00,AAXX 01064 41958 32458 50000 10365 20280 30044 40046 85400 333 56900 59007 70000 84617=
41958,2023,06,01,09,00,AAXX 01094 41958 32458 60000 10370 20280 30016 40018 85410 333 56990 59010 70000 84616 86459=
41958,2023,06,01,12,00,AAXX 01124 41958 32456 60000 10344 20270 30005 40007 85410 333 10380 56990 59007 70000 84616 86459=
41958,2023,06,01,15,00,AAXX 01154 41958 32450 61801 10298 20290 30022 40024 85410 333 56990 59012 70000 84616 86459=
41958,2023,06,01,18,00,AAXX 01184 41958 32440 50000 10287 20280 30044 40046 85400 333 56900 59006 70000 84617=
41958,2023,06,01,21,00,AAXX 01214 41958 32440 60000 10288 20280 30020 40022 85410 333 56990 59006 70000 84616 86459=
41960,2023,05,26,00,00,AAXX 26004 41960 21440 81501 10236 20236 30061 40063 72996 8632/ 333 58000 60037 70026 84617 88458 81928==
41960,2023,05,26,03,00,AAXX 26034 41960 42456 80000 10264 20240 30098 40099 84428 333 20233 58020 83618 88459==
41960,2023,05,26,06,00,AAXX 26064 41960 02458 52703 10330 20270 30089 40091 84410 333 58018 70026 83618 85459==
41960,2023,05,26,09,00,AAXX 26093 41960 02458 31801 10340 20240 30061 40062 83400 333 58007 70026 82618==
41960,2023,05,26,12,00,AAXX 26124 41960 02456 41801 10310 20260 30062 40064 84400 333 10343 58020 70026 83618==
41960,2023,05,26,15,00,AAXX 26154 41960 02440 40000 10280 20270 30081 40083 84400 333 58015 70026 83618==
41960,2023,05,26,18,00,AAXX 26184 41960 21430 40000 10240 20230 30073 40074 70262 84500 333 58005 60055 70076 84618==
41960,2023,05,27,00,00,AAXX 27004 41960 02440 40000 10240 20240 30058 40060 84401 333 59003 70050 83618 83080==
41960,2023,05,27,03,00,AAXX 27034 41960 02458 41301 10300 20250 30079 40080 84400 333 20234 59019 70050 83618==
41960,2023,05,27,06,00,AAXX 27064 41960 02458 61803 10320 20270 30071 40073 84410 333 59018 70050 83616 86459==
41960,2023,05,27,09,00,AAXX 27094 41960 02457 81601 10320 20260 30051 40053 8632/ 333 59010 70050 84617 88459 81929==
41960,2023,05,27,12,00,AAXX 27124 41960 02456 51802 10289 20240 30053 40055 82410 333 10339 59009 70050 81618 85459==
41960,2023,05,27,15,00,AAXX 27154 41960 02940 00000 10264 20250 30074 40075 333 59007 70050==
41960,2023,05,27,18,00,AAXX 27184 41960 02930 00000 10255 20250 30068 40069 333 59005 70000==
41960,2023,05,27,21,00,AAXX 27214 41960 02930 00000 10252 20250 30066 40067 333 58001 70000==
41960,2023,05,28,00,00,AAXX 28004 41960 01440 40000 10250 20250 30065 40066 70510 82430 333 58007 70000 81618 84363==
41960,2023,05,28,03,00,AAXX 28034 41960 02458 40000 10310 20260 30080 40081 84400 333 20246 58001 70000 83618==
41960,2023,05,28,06,00,AAXX 28064 41960 02458 40000 10340 20230 30075 40077 84400 333 58004 70000 83618==
41960,2023,05,28,09,00,AAXX 28094 41960 02458 33602 10357 20220 30059 40061 83400 333 58008 70000 82618==
41960,2023,05,28,12,00,AAXX 28124 41960 02956 03401 10338 20230 30052 40054 333 10360 59001 70000==
41960,2023,05,28,15,00,AAXX 28154 41960 02940 00000 10280 20260 30071 40073 333 59003 70000==
41960,2023,05,28,18,00,AAXX 28184 41960 02930 00000 10262 20250 30082 40084 333 70000==
41960,2023,05,28,21,00,AAXX 28214 41960 02930 00000 10258 20250 30079 40081 333 58013 70000==
41960,2023,05,29,00,00,AAXX 29004 41960 02940 00000 10254 20250 30076 40078 333 58011 70000==
41960,2023,05,29,03,00,AAXX 29034 41960 02958 03602 10320 20230 30095 40097 333 20250 58015 70000==
41960,2023,05,29,06,00,AAXX 29064 41960 02458 33303 10350 20220 30087 40088 83400 333 58012 70000 82618==
41960,2023,05,29,09,00,AAXX 29094 41960 02458 33303 10357 20240 30062 40063 83400 333 58003 70000 82618==
41960,2023,05,29,12,00,AAXX 29124 41960 02/56 22902 10341 20220 30053 40054 82010 333 10361 58001 70000 82459==
41960,2023,05,29,15,00,AAXX 29154 41960 02940 00000 10290 20260 30077 40079 333 58006 70000==
41960,2023,05,29,18,00,AAXX 29184 41960 02930 00000 10274 20260 30078 40080 333 59004 70000==
41960,2023,05,29,21,00,AAXX 29214 41960 02930 00000 10272 20260 30077 40079 333 59002 70000==
41960,2023,05,30,00,00,AAXX 30004 41960 02440 51802 10270 20270 30077 40079 82401 333 58001 70000 81618 85080==
41960,2023,05,30,03,00,AAXX 30034 41960 02458 33003 10322 20270 30081 40082 83500 333 20265 59014 70000 83618==
41960,2023,05,30,06,00,AAXX 30064 41960 02458 40000 10354 20250 30079 40080 84400 333 59008 70000 83618==
41960,2023,05,30,09,00,AAXX 30094 41960 02458 31802 10370 20240 30048 40050 83400 333 59014 70000 82618==
41960,2023,05,30,12,00,AAXX 30124 41960 02/56 20000 10350 20260 30038 40040 82010 333 10371 59015 70000 82459==
41960,2023,05,30,15,00,AAXX 30154 41960 02440 60000 10300 20270 30066 40067 84410 333 59011 70000 83618 86459==
41960,2023,05,30,18,00,AAXX 30184 41960 02430 62301 10290 20280 30069 40070 84410 333 59009 70000 83618 86459==
41960,2023,05,30,21,00,AAXX 30214 41960 02430 51804 10286 20280 30062 40064 84410 333 59015 70000 83618 85459==
41960,2023,05,31,00,00,AAXX 31004 41960 02440 30000 10282 20280 30054 40056 83401 333 59023 70000 82618==
41960,2023,05,31,03,00,AAXX 31034 41960 02458 61801 10318 20280 30071 40073 83410 333 20278 59010 70000 82618 86459==
41960,2023,05,31,06,00,AAXX 31064 41960 02458 41801 10363 20240 30061 40063 84400 333 59018 70000 83618==
41960,2023,05,31,09,00,AAXX 31094 41960 02/59 32502 10375 20240 30033 40035 83010 333 59015 70000 83459==
41960,2023,05,31,12,00,AAXX 31124 41960 02/56 22703 10344 20240 30019 40021 82010 333 10379 59019 70000 82459==
41960,2023,05,31,15,00,AAXX 31154 41960 02440 31801 10301 20270 30051 40052 83400 333 59015 70000 82618==
41960,2023,05,31,18,00,AAXX 31184 41960 02430 60000 10290 20280 30048 40049 84410 333 59021 70000 83618 86459==
41960,2023,05,31,21,00,AAXX 31214 41960 02430 60000 10285 20280 30047 40048 84410 333 59015 70000 83618 86459==
41960,2023,06,01,00,00,AAXX 01004 41960 02440 70000 10281 20280 30046 40048 84470 333 59008 70000 83618 85459==
41960,2023,06,01,03,00,AAXX 01034 41960 02458 40000 10322 20270 30061 40062 84400 333 20280 59010 70000 83618==
41960,2023,06,01,06,00,AAXX 01064 41960 02958 60000 10355 20270 30057 40058 84410 333 59004 70000 83618 86469==
41960,2023,06,01,09,00,AAXX 01094 41960 02458 62701 10357 20260 30026 40028 84471 333 59007 70000 83618 85459==
41960,2023,06,01,12,00,AAXX 01124 41960 02456 51501 10323 20260 30019 40021 84401 333 10367 58000 70000 83618 85080==
41960,2023,06,01,15,00,AAXX 01154 41960 02440 41802 10295 20280 30041 40042 84400 333 59010 70000 83618==
41960,2023,06,01,18,00,AAXX 01184 41960 02930 00000 10285 20280 30041 40042 333 59007 70000==
41960,2023,06,01,21,00,AAXX 01214 41960 02930 00000 10282 20280 30039 40040 333 59008 70000==
41963,2023,05,26,00,00,AAXX 26004 41963 21356 80000 10240 20240 30070 40072 72996 8472/ 333 58008 60197 70190 82712 83615 88459==
41963,2023,05,26,03,00,AAXX 26034 41963 02/56 31405 10280 20250 30089 40092 83030 333 20235 58011 70190 83363==
41963,2023,05,26,06,00,AAXX 26064 41963 02556 21605 10316 20270 30087 40089 82100 333 58012 70190 82825==
41963,2023,05,26,09,00,AAXX 26093 41963 02456 31602 10310 20270 30065 40067 83400 333 58009 70190 81618==
41963,2023,05,26,12,00,AAXX 26124 41963 02956 00000 10300 20270 30064 40066 333 10324 58017 70190==
41963,2023,05,26,15,00,AAXX 26154 41963 02956 00000 10273 20250 30083 40086 333 58018 70190==
41963,2023,05,26,18,00,AAXX 26184 41963 NIL=
41963,2023,05,27,00,00,AAXX 27004 41963 02956 00000 10272 20270 30062 40065 333 59008 70000==
41963,2023,05,27,03,00,AAXX 27034 41963 02456 31801 10273 20260 30086 40088 83500 333 58017 70190 83618==
41963,2023,05,27,06,00,AAXX 27064 41963 02458 32703 10325 20270 30071 40073 83500 333 59016 70000 83618==
41963,2023,05,27,09,00,AAXX 27094 41963 02556 11602 10328 20270 30056 40058 81100 333 59009 70000 81825==
41963,2023,05,27,12,00,AAXX 27124 41963 01556 30000 10270 20240 30057 40060 72921 82160 333 10330 59007 70000 82825 83363==
41963,2023,05,27,15,00,AAXX 27154 41963 02956 00000 10263 20260 30055 40058 333 59028 70000==
41963,2023,05,27,18,00,AAXX 27184 41963 02956 00000 10262 20260 30055 40058 333 59031 70000==
41963,2023,05,27,21,00,AAXX 27214 41963 02950 00000 10262 20260 30069 40072 333 58002 70000==
41963,2023,05,28,00,00,AAXX 28004 41963 02956 00000 10260 20260 30066 40069 333 58004 70000==
41963,2023,05,28,03,00,AAXX 28034 41963 02556 20000 10320 20250 30076 40078 82100 333 20254 59002 70000 82825==
41963,2023,05,28,06,00,AAXX 28064 41963 02556 21402 10330 20250 30074 40077 82100 333 58003 70000 82825==
41963,2023,05,28,09,00,AAXX 28094 41963 02556 11603 10335 20250 30060 40063 81100 333 58004 70000 81826==
41963,2023,05,28,12,00,AAXX 28124 41963 02956 00000 10313 20260 30054 40057 333 10340 59003 70000==
41963,2023,05,28,15,00,AAXX 28154 41963 02950 00000 10280 20260 30067 40070 333 58012 70000==
41963,2023,05,28,18,00,AAXX 28184 41963 02950 00000 10280 20270 30069 40072 333 58014 70000==
41963,2023,05,28,21,00,AAXX 28214 41963 02950 00000 10266 20260 30069 40071 333 58000 70000==
41963,2023,05,29,00,00,AAXX 29004 41963 02956 00000 10262 20260 30078 40081 333 58013 70000==
41963,2023,05,29,03,00,AAXX 29034 41963 02957 02001 10325 20260 30087 40090 333 20257 58011 70000==
41963,2023,05,29,06,00,AAXX 29064 41963 02556 20000 10346 20230 30078 40081 82100 333 58004 70000 82826==
41963,2023,05,29,09,00,AAXX 29094 41963 02458 23601 10350 20240 30061 40064 82500 333 58001 70000 82620==
41963,2023,05,29,12,00,AAXX 29124 41963 02956 00000 10320 20270 30062 40065 333 10354 58008 70000==
41963,2023,05,29,15,00,AAXX 29154 41963 02950 00000 10284 20260 30074 40077 333 58007 70000==
41963,2023,05,29,18,00,AAXX 29184 41963 02950 00000 10277 20270 30062 40065 333 59007 70000==
41963,2023,05,29,21,00,AAXX 29214 41963 02950 00000 10273 20270 30070 40073 333 58001 70000==
41963,2023,05,30,00,00,AAXX 30004 41963 02/56 40000 10270 20270 30076 40078 84040 333 59002 70000 84363==
41963,2023,05,30,03,00,AAXX 30034 41963 02958 02001 10330 20250 30082 40085 333 20263 59005 70000==
41963,2023,05,30,06,00,AAXX 30064 41963 02458 31801 10345 20250 30075 40078 83500 333 59003 70000 83618==
41963,2023,05,30,09,00,AAXX 30094 41963 02950 00000 10357 20240 30048 40050 333 59013 70000==
41963,2023,05,30,12,00,AAXX 30124 41963 02/56 30000 10328 20280 30046 40049 83060 333 10362 59016 70000 83364==
41963,2023,05,30,18,00,AAXX 30184 41963 02950 42002 10295 20280 30050 40053 80001 333 59012 70000 84080==
41963,2023,05,30,21,00,AAXX 30214 41963 02/50 40000 10292 20280 30055 40058 84030 333 59015 70000 84363==
41963,2023,05,31,00,00,AAXX 31004 41963 02/56 30000 10290 20280 30058 40061 83030 333 59018 70000 83363==
41963,2023,05,31,03,00,AAXX 31034 41963 02956 02801 10330 20270 30070 40073 333 20285 59012 70000==
41963,2023,05,31,06,00,AAXX 31064 41963 02456 11201 10340 20280 30059 40062 81500 333 59016 70000 81618==
41963,2023,05,31,09,00,AAXX 31094 41963 02956 02802 10335 20250 30033 40036 333 59015 70000==
41963,2023,05,31,12,00,AAXX 31124 41963 02956 00000 10326 20280 30031 40034 333 10357 59015 70000==
41963,2023,05,31,15,00,AAXX 31154 41963 02450 80000 10300 20280 30054 40057 8251/ 333 59009 70000 82617 88459==
41963,2023,05,31,18,00,AAXX 31184 41963 02/50 50000 10294 20280 30044 40047 85040 333 59006 70000 85363==
41963,2023,05,31,21,00,AAXX 31214 41963 02/50 30000 10287 20280 30048 40051 83030 333 59007 70000 83363==
41963,2023,06,01,00,00,AAXX 01004 41963 02/56 40000 10280 20270 30047 40050 84030 333 59011 70000 84363==
41963,2023,06,01,03,00,AAXX 01034 41963 02556 20000 10324 20270 30062 40065 82100 333 20258 59008 70000 82825==
41963,2023,06,01,06,00,AAXX 01064 41963 02456 42802 10332 20280 30052 40055 84400 333 59007 70000 81618 83825==
41963,2023,06,01,09,00,AAXX 01094 41963 02456 32402 10348 20270 30030 40033 83400 333 59003 70000 81618 83825==
41963,2023,06,01,12,00,AAXX 01124 41963 02/56 32103 10316 20270 30026 40029 83060 333 10353 59005 70000 83364==
41963,2023,06,01,15,00,AAXX 01154 41963 02950 32102 10290 20280 30043 40046 80001 333 59001 70000 83080==
41963,2023,06,01,21,00,AAXX 01214 41963 02950 00000 10281 20270 30046 40049 333 59002 70000==
41964,2023,05,26,00,00,AAXX 26004 41964 01350 80000 10247 20240 30063 40065 79596 8632/ 333 58007 70100 85708 84616 88458 81928==
41964,2023,05,26,03,00,AAXX 26034 41964 01456 41403 10285 20240 30082 40084 70196 82510 333 20239 58009 70104 82618 83460==
41964,2023,05,26,06,00,AAXX 26064 41964 02457 41501 10312 20230 30081 40083 82510 333 58015 70104 82618 83460==
41964,2023,05,26,09,00,AAXX 26094 41964 02957 01601 10320 20260 30076 40076 333 58008 70104==
41964,2023,05,26,12,00,AAXX 26124 41964 02956 00000 10298 20270 30055 40058 333 10326 58011 70104==
41964,2023,05,26,18,00,AAXX 26184 41964 02950 00000 10274 20260 30082 40084 333 58024 70104==
41964,2023,05,27,00,00,AAXX 27004 41964 02557 40000 10280 20270 30058 40061 84400 333 59005 70008 82620 82825==
41964,2023,05,27,03,00,AAXX 27034 41964 02557 52303 10310 20260 30072 40075 85410 333 20266 59010 70000 83620 83825==
41964,2023,05,27,06,00,AAXX 27064 41964 NIL=
41964,2023,05,27,09,00,AAXX 27094 41964 02458 51402 10325 20270 30051 40053 84510 333 59023 70000 83620 85860==
41964,2023,05,27,12,00,AAXX 27124 41964 01457 60000 10260 20250 30048 40051 72922 81512 333 10336 59007 70008 81618 84460==
41964,2023,05,27,15,00,AAXX 27154 41964 02457 60000 10255 20250 30060 40063 82510 333 59009 70008 82618 85460==
41964,2023,05,27,18,00,AAXX 27184 41964 02450 40000 10254 20240 30062 40064 82510 333 59020 70008 82618 84460==
41964,2023,05,27,21,00,AAXX 27214 41964 02450 20000 10258 20255 30061 40063 82510 333 59008 70008 82618==
41964,2023,05,28,00,00,AAXX 28004 41964 02456 50000 10262 20260 30060 40063 83310 333 58002 70008 83617 83460 81928==
41964,2023,05,28,03,00,AAXX 28034 41964 02457 50000 10318 20260 30090 40092 85400 333 20249 58018 70008 83618 83825==
41964,2023,05,28,06,00,AAXX 28064 41964 02558 40000 10337 20250 30061 40064 84100 333 59010 70008 84825==
41964,2023,05,28,09,00,AAXX 28094 41964 02458 21801 10342 20240 30051 40053 82500 333 58000 70008 82618==
41964,2023,05,28,12,00,AAXX 28124 41964 02957 00000 10312 20260 30043 40045 333 10346 59005 70000==
41964,2023,05,28,15,00,AAXX 28154 41964 02956 00000 10280 20260 30070 40073 333 58014 70000==
41964,2023,05,28,18,00,AAXX 28184 41964 NIL=
41964,2023,05,28,21,00,AAXX 28214 41964 02950 00000 10268 20260 30067 40070 333 58006 70000==
41964,2023,05,29,00,00,AAXX 29004 41964 02956 00000 10257 20255 30068 40071 333 58008 70000==
41964,2023,05,29,03,00,AAXX 29034 41964 02957 00000 10330 20250 30078 40081 333 20248 58013 70000==
41964,2023,05,29,06,00,AAXX 29064 41964 02458 51601 10348 20210 30083 40085 83510 333 58027 70000 83618 84460==
41964,2023,05,29,09,00,AAXX 29094 41964 02458 41501 10360 20220 30049 40052 82510 333 59002 70000 82620 83460==
41964,2023,05,29,12,00,AAXX 29124 41964 02956 20000 10320 20270 30043 40045 80002 333 10362 58000 70000 82080==
41964,2023,05,29,15,00,AAXX 29154 41964 02950 20000 10287 20270 30069 40071 56009 80002 333 59001 70000 82080==
41964,2023,05,29,18,00,AAXX 29184 41964 02950 00000 10285 20270 30067 40069 333 58001 70000==
41964,2023,05,29,21,00,AAXX 29214 41964 02950 10000 10280 20270 30070 40072 80001 333 58003 70000 81080==
41964,2023,05,30,00,00,AAXX 30004 41964 02956 30000 10275 20270 30071 40073 80002 333 58003 70000 83080==
41964,2023,05,30,03,00,AAXX 30034 41964 02957 20000 10333 20250 30077 40079 80002 333 20258 59001 70000 82080==
41964,2023,05,30,06,00,AAXX 30064 41964 02458 50000 10362 20230 30063 40065 83510 333 59020 70000 83618 84460==
41964,2023,05,30,09,00,AAXX 30094 41964 02958 01801 10365 20250 30065 40038 333 59014 70000==
41964,2023,05,30,12,00,AAXX 30124 41964 02/57 50000 10336 20270 30036 40039 84011 333 10367 59007 70000 84460 83080==
41964,2023,05,30,15,00,AAXX 30154 41964 02/57 50000 10308 20270 30063 40065 84011 333 59006 70000 84460 83080==
41964,2023,05,30,18,00,AAXX 30184 41964 02956 50000 10305 20290 30064 40066 83510 333 59003 70000 83618 84460==
41964,2023,05,30,21,00,AAXX 30214 41964 02450 40000 10300 20290 30056 40058 83510 333 59014 70000 83618 82460==
41964,2023,05,31,00,00,AAXX 31004 41964 02456 60000 10294 20280 30051 40054 85610 333 59020 70000 83712 83618 83460==
41964,2023,05,31,03,00,AAXX 31034 41964 02457 20000 10334 20260 30062 40064 81501 333 20281 59015 70000 81618 81080==
41964,2023,05,31,06,00,AAXX 31064 41964 NIL=
41964,2023,05,31,12,00,AAXX 31124 41964 02957 40000 10338 20280 30017 40020 80002 333 10364 59019 70000 84080==
41964,2023,05,31,21,00,AAXX 31214 41964 01450 80502 10290 20270 30047 40049 71392 8532/ 333 59009 70000 85617 88460 81928==
41964,2023,06,01,00,00,AAXX 01004 41964 01456 60000 10280 20260 30044 40046 70192 82531 333 59007 70000 82618 85362==
41964,2023,06,01,03,00,AAXX 01034 41964 02457 50000 10324 20270 30056 40058 84410 333 20261 59006 70000 83618 81825 83460==
41964,2023,06,01,06,00,AAXX 01064 41964 NIL=
41964,2023,06,01,09,00,AAXX 01094 41964 02458 21601 10331 20270 30028 40031 82500 333 58002 70000 82618==
41964,2023,06,01,12,00,AAXX 01124 41964 02957 42302 10310 20280 30015 40018 80002 333 10351 59002 70000 84080==
41964,2023,06,01,15,00,AAXX 01154 41964 02957 40000 10308 20270 30034 40036 80002 333 59026 70000 84080==
41964,2023,06,01,21,00,AAXX 01214 41964 02950 30000 10299 20270 30037 40039 80002 333 59010 70000 83080==
41965,2023,05,26,00,00,AAXX 26004 41965 NIL=
41965,2023,05,26,03,00,AAXX 26034 41965 02440 70000 10280 20230 30088 40096 83310 333 20243 58008 70040 83618 86460==
41965,2023,05,26,06,00,AAXX 26064 41965 11450 50000 10320 20200 30080 40088 60046 70296 84410 333 58002 70040 82618 84460==
41965,2023,05,26,09,00,AAXX 26094 41965 02956 00000 10320 20220 30070 40078 333 58003 70040==
41965,2023,05,26,12,00,AAXX 26124 41965 02450 50000 10300 20220 30070 40078 84410 333 10325 58003 70040 82618 84460==
41965,2023,05,26,18,00,AAXX 26184 41965 NIL=
41965,2023,05,27,03,00,AAXX 27034 41965 02450 50000 10300 20220 30085 40093 84410 333 20250 58000 70000==
41965,2023,05,27,06,00,AAXX 27064 41965 NIL=
41965,2023,05,27,09,00,AAXX 27094 41965 02456 50000 10320 20220 30073 40081 84410 333 59003 70000 82618 84460==
41965,2023,05,27,12,00,AAXX 27124 41965 01450 70000 10300 20220 30070 40078 71722 83310 333 10330 59003 70000 82618 86460 81928==
41965,2023,05,27,18,00,AAXX 27184 41965 NIL=
41965,2023,05,28,00,00,AAXX 28004 41965 NIL=
41965,2023,05,28,03,00,AAXX 28034 41965 02450 50000 10300 20220 30076 40084 83310 333 20240 59006 70000 82618 88460 81928==
41965,2023,05,28,06,00,AAXX 28064 41965 02456 51402 10335 20200 30073 40082 83310 333 58004 70000 82618 84460 81928==
41965,2023,05,28,09,00,AAXX 28094 41965 02456 51301 10340 20210 30058 40066 84410 333 59001 70000 82618 84460==
41965,2023,05,28,12,00,AAXX 28124 41965 02450 50000 10300 20220 30058 40066 84410 333 10345 59001 70000 82618 84460==
41965,2023,05,28,18,00,AAXX 28184 41965 NIL=
41965,2023,05,29,00,00,AAXX 29004 41965 NIL=
41965,2023,05,29,03,00,AAXX 29034 41965 02450 50000 10310 20230 30083 40091 84410 333 20240 58008 70000 82618 84460==
41965,2023,05,29,06,00,AAXX 29064 41965 02450 50000 10340 20210 30075 40083 84410 333 58007 70000 82618 84460==
41965,2023,05,29,09,00,AAXX 29094 41965 02950 00000 10350 20190 30065 40073 333 58005 70000==
41965,2023,05,29,12,00,AAXX 29124 41965 02450 50000 10310 20230 30065 40073 84410 333 10360 58003 70000 82618 84460==
41965,2023,05,30,03,00,AAXX 30034 41965 02950 00000 10310 20230 30080 40088 333 20246 59005 70000==
41965,2023,05,30,06,00,AAXX 30064 41965 02956 00000 10360 20210 30070 40078 333 59002 70000==
41965,2023,05,30,09,00,AAXX 30094 41965 02956 01301 10365 20210 30046 40054 333 59016 70000==
41965,2023,05,30,12,00,AAXX 30124 41965 NIL=
41965,2023,05,31,00,00,AAXX 31004 41965 02450 50000 10280 20250 30056 40064 84410 333 59016 70000 82618 84460==
41965,2023,05,31,03,00,AAXX 31034 41965 02450 50000 10320 20220 30060 40068 83310 333 20275 59020 70000 82618 84460 81928==
41965,2023,05,31,06,00,AAXX 31064 41965 02456 51301 10350 20220 30052 40060 84410 333 58018 70000 82618 84460==
41965,2023,05,31,09,00,AAXX 31094 41965 02456 51402 10335 20200 30038 40046 84410 333 59008 70000 82618 84460==
41965,2023,05,31,12,00,AAXX 31124 41965 02450 50000 10320 20220 30038 40046 84410 333 10363 59008 70000 82618 84460==
41965,2023,06,01,00,00,AAXX 01004 41965 02450 50000 10280 20250 30050 40058 83310 333 59006 70000 82618 84460 81928==
41965,2023,06,01,03,00,AAXX 01034 41965 02450 50000 10320 20220 30058 40066 83310 333 20275 59002 70000 82618 84460 81928==
41965,2023,06,01,06,00,AAXX 01064 41965 02456 51401 10335 20240 30052 40060 84410 333 58000 70000 82618 84460 81928==
41965,2023,06,01,09,00,AAXX 01094 41965 02456 51302 10345 20250 30040 40048 84410 333 58002 70000 82618 84460==
41965,2023,06,01,12,00,AAXX 01124 41965 02450 50000 10320 20220 30040 40048 83310 333 10350 58002 70000 82618 84460 81928==
41966,2023,05,26,00,00,AAXX 26004 41966 02440 60000 10270 20250 30020 40099 83510 333 58023 70000 83616 85460==
41966,2023,05,26,03,00,AAXX 26034 41966 01450 40000 10290 20250 30025 40103 70162 82510 333 20260 58018 70010 82616 83460==
41966,2023,05,26,06,00,AAXX 26064 41966 11450 40000 10310 20170 30020 40098 60016 70296 82510 333 58019 70010 82616 83460==
41966,2023,05,26,09,00,AAXX 26093 41966 02450 40000 10320 20190 30000 40077 82510 333 58002 70010 82616 83460==
41966,2023,05,26,12,00,AAXX 26124 41966 02440 40000 10300 20180 39991 40069 82510 333 10326 58018 70000 82616 83460==
41966,2023,05,26,15,00,AAXX 26154 41966 02430 40000 10280 20240 39999 40078 82510 333 58013 70010 82616 83460==
41966,2023,05,26,18,00,AAXX 26184 41966 NIL=
41966,2023,05,27,00,00,AAXX 27004 41966 11440 40000 10270 20250 39992 40071 69926 70262 82510 333 59028 70012 82616 83460==
41966,2023,05,27,03,00,AAXX 27034 41966 02/50 30000 10320 20210 30010 40088 83010 333 20256 59015 70002 83460==
41966,2023,05,27,06,00,AAXX 27064 41966 02450 42201 10345 20160 39999 40076 82510 333 59022 70002 82616 83460==
41966,2023,05,27,09,00,AAXX 27094 41966 02450 42001 10335 20230 39997 40074 82510 333 59003 70002 82616 83460==
41966,2023,05,27,12,00,AAXX 27124 41966 02440 60000 10300 20220 39985 40063 82510 333 10350 59006 70002 82616 85460==
41966,2023,05,27,15,00,AAXX 27154 41966 01430 60000 10278 20250 30001 40080 70262 83510 333 58002 70004 83616 85460==
41966,2023,05,27,18,00,AAXX 27184 41966 NIL=
41966,2023,05,27,21,00,AAXX 27214 41966 02420 40000 10250 20240 30003 40082 82510 333 58008 70002 82616 83460==
41966,2023,05,28,00,00,AAXX 28004 41966 02440 40000 10240 20230 30000 40080 82510 333 58009 70002 82616 83460==
41966,2023,05,28,06,00,AAXX 28064 41966 02450 40000 10340 20140 30006 40083 82510 333 58007 70002 82616 83460==
41966,2023,05,28,09,00,AAXX 28094 41966 02450 40000 10350 20110 39987 40064 82510 333 59010 70002 82616 83460==
41966,2023,05,28,12,00,AAXX 28124 41966 02/40 30000 10320 20200 39985 40062 83030 333 10356 59001 70002 83362==
41966,2023,05,28,15,00,AAXX 28154 41966 02/30 30000 10290 20240 39998 40077 83030 333 59003 70000 83362==
41966,2023,05,28,18,00,AAXX 28184 41966 NIL=
41966,2023,05,28,21,00,AAXX 28214 41966 02420 40000 10268 20260 30003 40082 82510 333 58000 70000 82616 83460==
41966,2023,05,29,00,00,AAXX 29004 41966 02440 40000 10256 20250 30000 40079 82510 333 59001 70000 82616 83460==
41966,2023,05,29,03,00,AAXX 29034 41966 02450 40000 10330 20220 30026 40104 82510 333 20250 58008 70000 82616 83460==
41966,2023,05,29,06,00,AAXX 29064 41966 02450 40000 10360 20100 30005 40082 82510 333 59001 70000 82616 83460==
41966,2023,05,29,09,00,AAXX 29094 41966 02450 40000 10370 20090 39992 40069 82510 333 58005 70000 82616 83460==
41966,2023,05,29,12,00,AAXX 29124 41966 02/50 30000 10345 20170 39977 40054 83030 333 10380 59008 70000 83362==
41966,2023,05,29,15,00,AAXX 29154 41966 02440 40000 10305 20220 39984 40061 82510 333 59016 70000 82616 83460==
41966,2023,05,29,18,00,AAXX 29184 41966 02/30 30000 10290 20270 30000 40078 83030 333 59004 70000 83362==
41966,2023,05,29,21,00,AAXX 29214 41966 02/20 30000 10276 20270 39999 40078 83030 333 59004 70000 83362==
41966,2023,05,30,00,00,AAXX 30004 41966 02/50 30000 10258 20250 30002 40081 83030 333 58002 70000 83362==
41966,2023,05,30,03,00,AAXX 30034 41966 02/50 30000 10340 20220 30009 40086 83030 333 20250 59018 70000 83362==
41966,2023,05,30,06,00,AAXX 30064 41966 02550 40000 10370 20130 39985 40062 82130 333 59020 70000 82826 83362==
41966,2023,05,30,09,00,AAXX 30094 41966 02550 40000 10375 20130 39971 40046 82130 333 59023 70000 82826 83362==
41966,2023,05,30,12,00,AAXX 30124 41966 02440 50000 10340 20130 39972 40049 82510 333 10382 59005 70000 82616 84460==
41966,2023,05,30,15,00,AAXX 30154 41966 02430 50000 10300 20220 39985 40063 82510 333 58002 70000 82616 84460==
41966,2023,05,30,21,00,AAXX 30214 41966 02420 50000 10280 20260 39997 40076 82510 333 59002 70000 82616 84460==
41966,2023,05,31,00,00,AAXX 31004 41966 NIL=
41966,2023,05,31,03,00,AAXX 31034 41966 02450 60000 10340 20250 30005 40082 83510 333 20265 59004 70000 83616 86460==
41966,2023,05,31,06,00,AAXX 31064 41966 02450 50000 10350 20240 39992 40069 82510 333 58007 70000 82616 84460==
41966,2023,05,31,09,00,AAXX 31094 41966 02450 51301 10375 20220 39954 40030 82510 333 59016 70000 82616 84460==
41966,2023,05,31,12,00,AAXX 31124 41966 02440 50000 10335 20270 39959 40036 82510 333 10380 59013 70000 82616 84460==
41966,2023,05,31,15,00,AAXX 31154 41966 01320 81802 10245 20240 39998 40078 79592 8492/ 333 58015 70140 82709 83615 88460 81930==
41966,2023,05,31,21,00,AAXX 31214 41966 02420 80000 10245 20240 39992 40071 8352/ 333 59005 70168 83616 88460==
41966,2023,06,01,00,00,AAXX 01004 41966 02440 60000 10250 20240 39988 40067 83510 333 59009 70168 83616 86460==
41966,2023,06,01,03,00,AAXX 01034 41966 02/50 30000 10320 20250 39991 40068 83030 333 20240 59014 70168 83362==
41966,2023,06,01,06,00,AAXX 01064 41966 02450 40000 10340 20250 39984 40061 82410 333 59008 70168 82616 83460==
41966,2023,06,01,09,00,AAXX 01094 41966 02450 40000 10345 20250 39961 40037 82510 333 58007 70168 82616 83460==
41966,2023,06,01,12,00,AAXX 01124 41966 21450 60901 10290 20270 39950 40028 70396 83510 333 10353 59008 60025 70188 83616 85460==
41966,2023,06,01,15,00,AAXX 01154 41966 02440 60000 10280 20250 39992 40071 83510 333 59007 70048 83616 85460==
41966,2023,06,01,21,00,AAXX 01214 41966 02420 60000 10268 20260 39989 40068 83510 333 59003 70020 83616 85460==
41977,2023,05,26,00,00,AAXX 26004 41977 01320 81302 10238 20238 30063 40101 79662 8692/ 333 59019 70140 84707 88457==
41977,2023,05,26,03,00,AAXX 26034 41977 01357 51302 10270 20220 30074 40112 70196 83670 333 20230 58013 70250 81710 83617 84459==
41977,2023,05,26,06,00,AAXX 26064 41977 11456 71104 10305 20220 30068 40106 60036 70396 85610 333 58007 70250 82710 84616 87460==
41977,2023,05,26,09,00,AAXX 26094 41977 02956 01802 10325 20240 30070 40107 333 58011 70250==
41977,2023,05,26,12,00,AAXX 26124 41977 02956 01802 10300 20250 30059 40097 333 10326 58020 70250==
41977,2023,05,26,15,00,AAXX 26154 41977 02956 00000 10275 20270 30059 40097 333 58008 70000==
41977,2023,05,26,18,00,AAXX 26184 41977 02356 70000 10275 20270 30059 40097 85610 333 59004 70250 81710 85616 87459==
41977,2023,05,27,00,00,AAXX 27004 41977 02450 50000 10262 20240 30041 40079 82531 333 59022 70030 82618 83362 85080==
41977,2023,05,27,03,00,AAXX 27034 41977 02456 61802 10310 20260 30060 40098 84570 333 20250 59014 70000 84618 84460==
41977,2023,05,27,06,00,AAXX 27064 41977 NIL=
41977,2023,05,27,09,00,AAXX 27094 41977 02457 71804 10334 20250 30037 40074 82570 333 59033 70000 82618 85460==
41977,2023,05,27,12,00,AAXX 27124 41977 02456 73602 10301 20240 30058 40096 84570 333 10334 58000 70000 84618 85460==
41977,2023,05,27,15,00,AAXX 27154 41977 02450 73602 10274 20230 30046 40084 84570 333 59013 70000 84618 85460==
41977,2023,05,27,18,00,AAXX 27184 41977 02456 30000 10265 20250 30047 40085 81530 333 59012 70000 81618 83363==
41977,2023,05,27,21,00,AAXX 27214 41977 02450 50000 10260 20240 30046 40084 83570 333 59001 70000 83618 84460==
41977,2023,05,28,00,00,AAXX 28004 41977 02450 60000 10255 20250 30045 40082 86670 333 59004 70000 82712 84616 84460==
41977,2023,05,28,03,00,AAXX 28034 41977 02456 60000 10308 20260 30061 40098 84570 333 20250 58001 70000 84618 84460==
41977,2023,05,28,06,00,AAXX 28064 41977 02456 62906 10330 20270 30081 40118 84570 333 58029 70000 84618 84460==
41977,2023,05,28,12,00,AAXX 28124 41977 02956 00000 10315 20250 30041 40078 333 10338 59017 70000==
41977,2023,05,28,15,00,AAXX 28154 41977 02956 00000 10283 20280 30046 40084 333 58000 70000==
41977,2023,05,28,18,00,AAXX 28184 41977 02956 00000 10276 20270 30051 40088 333 58004 70000==
41977,2023,05,28,21,00,AAXX 28214 41977 02450 20000 10268 20260 30045 40083 81501 333 59001 70000 81618 82080==
41977,2023,05,29,00,00,AAXX 29004 41977 02450 20000 10260 20250 30045 40083 81501 333 58000 70000 81618 82080==
41977,2023,05,29,03,00,AAXX 29034 41977 02456 40502 10325 20250 30068 40105 82501 333 20255 58007 70000 82618 84080==
41977,2023,05,29,06,00,AAXX 29064 41977 02456 63505 10344 20240 30075 40113 84570 333 59005 70000 84618 84460==
41977,2023,05,29,09,00,AAXX 29094 41977 02456 52703 10350 20240 30046 40083 83520 333 58002 70000 83618 84460==
41977,2023,05,29,12,00,AAXX 29124 41977 02956 20000 10328 20250 30039 40077 80001 333 10352 59004 70000 82080==
41977,2023,05,29,15,00,AAXX 29154 41977 02956 20000 10309 20270 30048 40085 80001 333 59011 70000 82080==
41977,2023,05,29,18,00,AAXX 29184 41977 02956 20000 10302 20260 30048 40086 58001 333 59003 70000 82080==
41977,2023,05,29,21,00,AAXX 29214 41977 02450 30000 10288 20260 30054 40091 81501 333 58009 70000 81618 83080==
41977,2023,05,30,00,00,AAXX 30004 41977 02450 60000 10272 20250 30061 40099 82571 333 58016 70000 82618 83460 85080==
41977,2023,05,30,03,00,AAXX 30034 41977 02450 23602 10345 20250 30066 40103 82500 333 20270 59002 70000 82618==
41977,2023,05,30,06,00,AAXX 30064 41977 02456 52905 10355 20230 30063 40100 83520 333 59012 70000 83618 84460==
41977,2023,05,30,09,00,AAXX 30094 41977 02956 22704 10355 20230 30035 40072 80001 333 59011 70000 82080==
41977,2023,05,30,12,00,AAXX 30124 41977 02456 72404 10337 20250 30036 40073 84310 333 10358 59023 70000 82710 84614 88460 81930==
41977,2023,05,30,15,00,AAXX 30154 41977 42456 72402 10314 20280 30035 40073 59013 88460==
41977,2023,05,30,18,00,AAXX 30184 41977 02456 70000 10300 20260 30042 40079 84570 333 59006 70000 84618 86460==
41977,2023,05,30,21,00,AAXX 30214 41977 02450 50000 10285 20270 30044 40082 82570 333 59010 70000 82618 84460==
41977,2023,05,31,00,00,AAXX 31004 41977 02450 60000 10275 20250 30042 40080 82570 333 59019 70000 82618 84460==
41977,2023,05,31,03,00,AAXX 31034 41977 02456 50000 10328 20250 30050 40087 83570 333 20273 59016 70000 83618 84460==
41977,2023,05,31,06,00,AAXX 31064 41977 02456 52704 10336 20270 30053 40090 83570 333 59010 70000 83618 84460==
41977,2023,05,31,09,00,AAXX 31094 41977 02956 22704 10343 20260 30022 40059 80001 333 59013 70000 82080==
41977,2023,05,31,12,00,AAXX 31124 41977 NIL=
41977,2023,05,31,15,00,AAXX 31154 41977 01350 82705 10318 20220 30043 40081 76122 8532/ 333 58008 70100 82709 84615 88458 81928==
41977,2023,05,31,18,00,AAXX 31184 41977 21356 80904 10257 20250 30032 40070 70262 8562/ 333 59010 60507 70502 82709 85615 88458==
41977,2023,05,31,21,00,AAXX 31214 41977 02450 60000 10263 20250 30035 40073 83520 333 59009 70502 83618 86460==
41977,2023,06,01,00,00,AAXX 01004 41977 02450 60000 10260 20250 30034 40072 82571 333 59008 70502 82618 84460==
41977,2023,06,01,03,00,AAXX 01034 41977 02456 61802 10310 20260 30047 40084 83571 333 20252 59003 70502 83618 84460==
41977,2023,06,01,06,00,AAXX 01064 41977 02456 62704 10330 20270 30043 40081 84570 333 59010 70502 84618 86460==
41977,2023,06,01,09,00,AAXX 01094 41977 02456 61504 10328 20270 30028 40065 83570 333 58006 70502 83618 84460==
41977,2023,06,01,12,00,AAXX 01124 41977 02456 71605 10303 20260 30022 40059 83570 333 10335 59007 70502 83618 84460==
41977,2023,06,01,15,00,AAXX 01154 41977 02456 71804 10300 20270 30032 40069 82570 333 59011 70402 82618 86362==
41977,2023,06,01,18,00,AAXX 01184 41977 02450 61804 10290 20270 30022 40059 83510 333 59010 70000 83618 86460==
41977,2023,06,01,21,00,AAXX 01214 41977 02456 60000 10282 20260 30027 40065 82510 333 59008 70000 82618 86459==
41978,2023,05,26,00,00,AAXX 26004 41978 01435 81508 10234 20220 30091 40097 79696 8432/ 333 58027 70040 83612 88358 82928==
41978,2023,05,26,03,00,AAXX 26034 41978 01450 71610 10266 20240 30090 40097 70266 84320 333 20228 58015 70082 83618 86460 81930==
41978,2023,05,26,06,00,AAXX 26064 41978 12450 71810 10293 20220 30088 40094 60046 84320 333 58009 70082 83616 86460 81930==
41978,2023,05,26,09,00,AAXX 26094 41978 02456 42410 10316 20250 30066 40072 82530 333 58009 70082 82618 83360==
41978,2023,05,26,12,00,AAXX 26124 41978 02456 22107 10304 20260 30056 40063 82500 333 10323 58009 70082 82618==
41978,2023,05,26,15,00,AAXX 26154 41978 333 58005 70082 82618==
41978,2023,05,26,18,00,AAXX 26184 41978 02450 30000 10274 20250 30079 40086 83400 333 58017 70082 82618==
41978,2023,05,26,21,00,AAXX 26214 41978 02450 30000 10263 20250 30050 40057 83400 333 59010 70082 82618==
41978,2023,05,27,00,00,AAXX 27004 41978 02450 31505 10265 20250 30055 40062 83400 333 59036 70042 82618==
41978,2023,05,27,03,00,AAXX 27034 41978 333 20256 59010 70000 82618==
41978,2023,05,27,06,00,AAXX 27064 41978 02456 32110 10320 20250 30072 40078 83400 333 59018 70000 82618==
41978,2023,05,27,09,00,AAXX 27094 41978 02456 52112 10323 20260 30052 40058 82520 333 59014 70000 82618 84460==
41978,2023,05,27,12,00,AAXX 27124 41978 02456 63012 10310 20270 30060 40066 84320 333 10330 58004 70000 83616 88460 81929==
41978,2023,05,27,15,00,AAXX 27154 41978 01450 20000 10282 20250 30061 40068 70511 82500 333 59014 70000 82618==
41978,2023,05,27,18,00,AAXX 27184 41978 01450 20000 10270 20240 30062 40008 70511 82500 333 59017 70000 82618==
41978,2023,05,27,21,00,AAXX 27214 41978 01450 20000 10261 20240 30060 40067 70511 82500 333 58001 70000 82618==
41978,2023,05,28,00,00,AAXX 28004 41978 01435 50000 10263 20240 30064 40070 70522 82520 333 58009 70000 82617 84460==
41978,2023,05,28,03,00,AAXX 28034 41978 01440 52104 10310 20260 30078 40085 70522 83520 333 20257 59002 70000 83618 83460==
41978,2023,05,28,06,00,AAXX 28064 41978 02456 22510 10323 20240 30071 40077 82500 333 59001 70000 82618==
41978,2023,05,28,09,00,AAXX 28094 41978 02956 02713 10328 20250 30053 40059 333 58001 70000==
41978,2023,05,28,12,00,AAXX 28124 41978 02956 02910 10320 20240 30046 40052 333 10335 59014 70000==
41978,2023,05,28,15,00,AAXX 28154 41978 02956 03003 10301 20260 30067 40073 333 58006 70000==
41978,2023,05,28,18,00,AAXX 28184 41978 02956 00000 10283 20250 30067 40073 333 58005 70000==
41978,2023,05,28,21,00,AAXX 28214 41978 01950 00000 10280 20260 30066 40072 70500 333 58006 70000==
41978,2023,05,29,00,00,AAXX 29004 41978 01911 30000 10271 20260 30070 40076 71000 80001 333 58006 70000 83080==
41978,2023,05,29,03,00,AAXX 29034 41978 01/40 20202 10322 20240 30083 40090 70511 82030 333 20270 58005 70000 82360==
41978,2023,05,29,06,00,AAXX 29064 41978 01450 33212 10332 20250 30075 40081 70511 82530 333 58004 70000 82618 83360==
41978,2023,05,29,09,00,AAXX 29094 41978 01/50 22812 10344 20250 30050 40056 70511 82030 333 59003 70000 82360==
41978,2023,05,29,12,00,AAXX 29124 41978 01/50 22710 10334 20260 30043 40050 70511 82030 333 10348 59003 70000 82360==
41978,2023,05,29,15,00,AAXX 29154 41978 01/50 32708 10312 20270 30070 40077 70511 83020 333 58003 70000 83460==
41978,2023,05,29,18,00,AAXX 29184 41978 01/50 33008 10302 20270 30067 40073 70522 83020 333 58000 70000 83460==
41978,2023,05,29,21,00,AAXX 29214 41978 01/40 30000 10282 20260 30064 40071 70522 83020 333 59004 70000 83460==
41978,2023,05,30,00,00,AAXX 30004 41978 01/31 30000 10280 20260 30073 40080 70500 83020 333 58003 70000 83460==
41978,2023,05,30,03,00,AAXX 30034 41978 01450 40000 10322 20250 30080 40086 70522 82520 333 20276 59003 70000 82618 83460==
41978,2023,05,30,06,00,AAXX 30064 41978 01440 42711 10340 20250 30067 40073 70522 82520 333 59009 70000 82618 83460==
41978,2023,05,30,09,00,AAXX 30094 41978 01450 22713 10352 20250 30040 40046 70521 82500 333 59010 70000 82618==
41978,2023,05,30,12,00,AAXX 30124 41978 01450 22507 10331 20270 30046 40052 70521 82500 333 10354 58003 70000 82618==
41978,2023,05,30,15,00,AAXX 30154 41978 333 59016 70000 82618==
41978,2023,05,30,18,00,AAXX 30184 41978 01450 30000 10302 20280 30058 40064 70511 83500 333 59009 70000 83618==
41978,2023,05,30,21,00,AAXX 30214 41978 01/50 30000 10284 20260 30050 40057 70511 83030 333 59014 70000 83360==
41978,2023,05,31,00,00,AAXX 31004 41978 01/50 30000 10274 20250 30055 40062 70511 83030 333 59018 70000 83360==
41978,2023,05,31,03,00,AAXX 31034 41978 01/50 30000 10317 20260 30070 40076 70510 83030 333 20270 59010 70000 83360==
41978,2023,05,31,06,00,AAXX 31064 41978 01/50 32612 10328 20270 30056 40062 70522 83030 333 59011 70000 83360==
41978,2023,05,31,09,00,AAXX 31094 41978 01/50 32511 10336 20270 30026 40032 70522 83030 333 59014 70000 83360==
41978,2023,05,31,12,00,AAXX 31124 41978 01/50 32410 10324 20270 30022 40028 70522 83030 333 10343 59024 70000 83360==
41978,2023,05,31,15,00,AAXX 31154 41978 01450 61507 10309 20280 30053 40059 70521 84320 333 59001 70000 82618 85460 81930==
41978,2023,05,31,18,00,AAXX 31184 41978 01450 60000 10273 20240 30050 40056 70522 84320 333 59008 70000 82618 86460 81930==
41978,2023,05,31,21,00,AAXX 31214 41978 01450 50000 10267 20250 30041 40048 70521 83520 333 59014 70000 83618 84450==
41978,2023,06,01,00,00,AAXX 01004 41978 01440 50000 10272 20240 30046 40052 70521 82520 333 59009 70000 82618 84460==
41978,2023,06,01,03,00,AAXX 01034 41978 01450 51503 10313 20260 30064 40070 70521 82520 333 20265 59006 70000 82618 84460==
41978,2023,06,01,06,00,AAXX 01064 41978 01450 52012 10322 20260 30055 40061 70521 82520 333 59001 70000 82618 84460==
41978,2023,06,01,09,00,AAXX 01094 41978 01450 52211 10320 20270 30029 40035 70522 82520 333 58003 70000 82618 84460==
41978,2023,06,01,12,00,AAXX 01124 41978 01450 62205 10308 20270 30016 40022 70522 81521 333 10328 59006 70000 81618 83460 85080==
41978,2023,06,01,15,00,AAXX 01154 41978 01445 51708 10301 20260 30040 40047 70522 82520 333 59013 70000 82618 83460==
41978,2023,06,01,18,00,AAXX 01184 41978 01445 42110 10293 20260 30039 40045 70522 81520 333 59011 70000 81618 83460==
41978,2023,06,01,21,00,AAXX 01214 41978 01445 40000 10280 20260 30037 40044 70522 81520 333 59004 70000 81618 83460==
41980,2023,05,26,00,00,AAXX 26004 41980 NIL=
41980,2023,05,26,06,00,AAXX 26064 41980 NIL=
41980,2023,05,26,12,00,AAXX 26124 41980 NIL=
41980,2023,05,26,18,00,AAXX 26184 41980 NIL=
41980,2023,05,27,00,00,AAXX 27004 41980 32950 00000 10250 20240 39960 40072 333 59027 70050=
41980,2023,05,27,06,00,AAXX 27064 41980 NIL=
41980,2023,05,27,12,00,AAXX 27124 41980 11950 40000 10300 20250 39957 40062 60046 70262 84030 333 10333 56090 59003 70040 84362=
41980,2023,05,27,18,00,AAXX 27184 41980 NIL=
41980,2023,05,28,00,00,AAXX 28004 41980 32950 00000 10305 20250 39965 40076 333 58005 70040=
41980,2023,05,28,06,00,AAXX 28064 41980 NIL=
41980,2023,05,28,12,00,AAXX 28124 41980 32956 00000 10308 20220 39944 40054 333 10352 59013 70000=
41980,2023,05,28,18,00,AAXX 28184 41980 NIL=
41980,2023,05,29,00,00,AAXX 29004 41980 32450 40000 10255 20250 39965 40077 82520 333 56990 58000 70000 82616 84459=
41980,2023,05,29,06,00,AAXX 29064 41980 NIL=
41980,2023,05,29,12,00,AAXX 29124 41980 32956 60000 10335 20240 39944 40053 86030 333 10367 56090 58000 70000 86362=
41980,2023,05,30,00,00,AAXX 30004 41980 32950 00000 10256 20250 39969 40081 333 58004 70000=
41980,2023,05,30,06,00,AAXX 30064 41980 NIL=
41980,2023,05,30,12,00,AAXX 30124 41980 32456 61802 10320 20240 39950 40060 83520 333 10372 56990 58006 70000 83616 86459=
41980,2023,05,31,00,00,AAXX 31004 41980 32450 60000 10270 20250 39956 40067 83520 333 56990 59013 70000 83616 86459=
41980,2023,05,31,06,00,AAXX 31064 41980 NIL=
41980,2023,05,31,12,00,AAXX 31124 41980 32456 61802 10314 20260 39929 40038 83520 333 10352 56990 59021 70000 83618 86459=
41980,2023,06,01,00,00,AAXX 01004 41980 11450 60000 10254 20230 39941 40053 60036 70296 83520 333 56990 59015 70030 83616 86459=
41980,2023,06,01,06,00,AAXX 01064 41980 NIL=
41980,2023,06,01,12,00,AAXX 01124 41980 11450 31802 10300 20270 39923 40033 60016 70262 83500 333 10325 56900 59006 70040 83618=
41984,2023,05,26,00,00,AAXX 26004 41984 21456 80000 10243 20240 30052 40054 70296 8352/ 333 58008 60037 70030 83618 88458==
41984,2023,05,26,03,00,AAXX 26034 41984 02457 80000 10290 20260 30075 40077 8352/ 333 20232 58012 70030 83618 88458==
41984,2023,05,26,06,00,AAXX 26064 41984 02457 82304 10327 20260 30074 40076 8352/ 333 58014 70030 83618 88458==
41984,2023,05,26,09,00,AAXX 26093 41984 02457 82301 10332 20270 30052 40054 8352/ 333 58008 70000 83618 88458==
41984,2023,05,26,12,00,AAXX 26124 41984 02457 50000 10304 20260 30046 40048 82530 333 10342 58013 70030 82618 83362==
41984,2023,05,26,15,00,AAXX 26154 41984 02440 50000 10284 20270 30058 40060 83510 333 58005 70030 83618 85458==
41984,2023,05,26,18,00,AAXX 26184 41984 21440 50000 10235 20230 30060 40062 70262 83510 333 58004 60015 70040 83618 85458==
41984,2023,05,27,00,00,AAXX 27004 41984 02456 50000 10250 20240 30045 40047 83510 333 59007 70010 83618 85458==
41984,2023,05,27,03,00,AAXX 27034 41984 02457 82302 10317 20270 30062 40064 8352/ 333 20231 59013 70010 83618 88458==
41984,2023,05,27,06,00,AAXX 27064 41984 02457 80000 10330 20270 30056 40058 8352/ 333 59018 70010 83618 88458==
41984,2023,05,27,09,00,AAXX 27094 41984 02457 20000 10343 20270 30042 40044 82500 333 59010 70010 82618==
41984,2023,05,27,12,00,AAXX 27124 41984 02457 20000 10306 20260 30040 40042 82500 333 10346 59006 70010 82618==
41984,2023,05,27,15,00,AAXX 27154 41984 02440 20000 10270 20250 30050 40052 82500 333 59008 70000 82618==
41984,2023,05,27,18,00,AAXX 27184 41984 02440 20000 10263 20250 30054 40056 82500 333 59006 70000 82618==
41984,2023,05,27,21,00,AAXX 27214 41984 01440 20000 10260 20250 30049 40051 70500 82500 333 59003 70000 82618==
41984,2023,05,28,00,00,AAXX 28004 41984 01456 20000 10259 20259 30045 40047 70500 82500 333 58000 70000 82618==
41984,2023,05,28,03,00,AAXX 28034 41984 02457 20000 10322 20270 30062 40064 82500 333 20252 58000 70000 82618==
41984,2023,05,28,06,00,AAXX 28064 41984 02457 20000 10350 20240 30061 40063 82500 333 58005 70000 82618==
41984,2023,05,28,09,00,AAXX 28094 41984 02458 20000 10358 20220 30045 40047 82500 333 58003 70000 82618==
41984,2023,05,28,12,00,AAXX 28124 41984 02457 20000 10330 20250 30041 40043 82500 333 10366 58001 70000 82618==
41984,2023,05,28,15,00,AAXX 28154 41984 02940 00000 10285 20270 30055 40057 333 58005 70000==
41984,2023,05,28,18,00,AAXX 28184 41984 02940 00000 10280 20270 30063 40065 333 58009 70000==
41984,2023,05,28,21,00,AAXX 28214 41984 02940 00000 10270 20270 30063 40065 333 58014 70000==
41984,2023,05,29,00,00,AAXX 29004 41984 02956 00000 10268 20260 30064 40066 333 58019 70000==
41984,2023,05,29,03,00,AAXX 29034 41984 02957 00000 10328 20230 30077 40079 333 20261 58015 70000==
41984,2023,05,29,06,00,AAXX 29064 41984 02957 00000 10343 20230 30073 40075 333 58012 70000==
41984,2023,05,29,09,00,AAXX 29094 41984 02958 00000 10360 20240 30051 40053 333 58006 70000==
41984,2023,05,29,12,00,AAXX 29124 41984 02957 00000 10343 20230 30040 40042 333 10364 58001 70000==
41984,2023,05,29,15,00,AAXX 29154 41984 02940 00000 10292 20270 30062 40064 333 58007 70000==
41984,2023,05,29,18,00,AAXX 29184 41984 02940 00000 10287 20280 30064 40066 333 58001 70000==
41984,2023,05,29,21,00,AAXX 29214 41984 02940 00000 10284 20270 30064 40066 333 58001 70000==
41984,2023,05,30,00,00,AAXX 30004 41984 02956 00000 10280 20280 30063 40065 333 59001 70000==
41984,2023,05,30,03,00,AAXX 30034 41984 02957 00000 10330 20270 30072 40074 333 20270 59005 70000==
41984,2023,05,30,06,00,AAXX 30064 41984 02457 20000 10356 20260 30063 40065 82500 333 70000 82618==
41984,2023,05,30,09,00,AAXX 30094 41984 02457 20000 10364 20270 30036 40038 82500 333 59015 70000 82618==
41984,2023,05,30,12,00,AAXX 30124 41984 02456 20000 10328 20270 30032 40034 82500 333 10376 59008 70000 82618==
41984,2023,05,30,15,00,AAXX 30154 41984 02940 00000 10302 20280 30049 40051 333 59013 70000==
41984,2023,05,30,18,00,AAXX 30184 41984 02940 00000 10298 20280 30051 40053 333 59013 70000==
41984,2023,05,30,21,00,AAXX 30214 41984 02940 00000 10290 20280 30048 40050 333 59016 70000==
41984,2023,05,31,00,00,AAXX 31004 41984 02956 00000 10284 20270 30043 40045 333 59020 70000==
41984,2023,05,31,03,00,AAXX 31034 41984 02957 00000 10340 20270 30056 40058 333 20280 59016 70000==
41984,2023,05,31,06,00,AAXX 31064 41984 02458 30000 10360 20260 30048 40050 83500 333 59015 70000 83618==
41984,2023,05,31,09,00,AAXX 31094 41984 02458 20000 10370 20240 30024 40026 82500 333 59012 70000 82618==
41984,2023,05,31,12,00,AAXX 31124 41984 02457 20000 10322 20280 30014 40016 82500 333 10375 59018 70000 82618==
41984,2023,05,31,15,00,AAXX 31154 41984 02940 00000 10301 20280 30036 40038 333 59013 70000==
41984,2023,05,31,18,00,AAXX 31184 41984 02940 00000 10294 20280 30033 40035 333 59018 70000==
41984,2023,06,01,00,00,AAXX 01004 41984 02456 20000 10284 20270 30033 40035 82500 333 59010 70000 82618==
41984,2023,06,01,03,00,AAXX 01034 41984 02457 30000 10330 20280 30033 40035 83500 333 20275 59023 70000 83618==
41984,2023,06,01,06,00,AAXX 01064 41984 02458 30000 10350 20270 30040 40042 83500 333 59008 70000 83618==
41984,2023,06,01,09,00,AAXX 01094 41984 02458 30000 10350 20260 30013 40015 83500 333 59011 70000 83618==
41984,2023,06,01,12,00,AAXX 01124 41984 02457 30000 10320 20270 30010 40012 83500 333 10355 59004 70000 83618==
41984,2023,06,01,15,00,AAXX 01154 41984 02440 20000 10298 20280 30028 40030 82500 333 59008 70000 82618==
41984,2023,06,01,18,00,AAXX 01184 41984 02440 20000 10296 20290 30025 40027 82500 333 59008 70000 82618==
41984,2023,06,01,21,00,AAXX 01214 41984 02440 20000 10290 20280 30024 40026 82500 333 59009 70000 82618==
41989,2023,05,26,00,00,AAXX 26004 41989 01340 81302 10237 20230 30059 40062 79296 8592/ 333 58000 70260 82710 83614 88456 81930==
41989,2023,05,26,03,00,AAXX 26034 41989 01450 71802 10265 20230 30094 40097 70196 83570 333 20233 59006 70280 83618 85460==
41989,2023,05,26,06,00,AAXX 26064 41989 11450 61403 10280 20230 30087 40090 60026 70196 84470 333 58013 70280 83618 84460==
41989,2023,05,26,09,00,AAXX 26093 41989 02456 31802 10312 20260 30062 40065 82530 333 58001 70280 82618==
41989,2023,05,26,12,00,AAXX 26124 41989 02456 21702 10307 20260 30052 40055 82500 333 10320 59001 70280 82618==
41989,2023,05,26,18,00,AAXX 26184 41989 NIL=
41989,2023,05,27,03,00,AAXX 27034 41989 02450 31803 10295 20250 30071 40075 83500 333 20236 59023 70020 83618==
41989,2023,05,27,06,00,AAXX 27064 41989 02456 21307 10327 20270 30072 40075 82500 333 59015 70000 82618==
41989,2023,05,27,09,00,AAXX 27094 41989 02450 31402 10335 20260 30063 40066 83500 333 58001 70020 83618==
41989,2023,05,27,12,00,AAXX 27124 41989 02450 31803 10310 20260 30052 40055 83500 333 10342 58000 70020 83618==
41989,2023,05,27,15,00,AAXX 27154 41989 02450 21302 10288 20260 30055 40058 82500 333 59018 70000 82618==
41989,2023,05,27,18,00,AAXX 27184 41989 02450 21402 10280 20250 30063 40066 82500 333 59016 70020 82616==
41989,2023,05,27,21,00,AAXX 27214 41989 02450 31301 10275 20260 30058 40062 82530 333 59014 70000 82618==
41989,2023,05,28,00,00,AAXX 28004 41989 02440 31402 10268 20250 30056 40059 82530 333 59007 70000 82618 83362==
41989,2023,05,28,03,00,AAXX 28034 41989 02456 21803 10312 20250 30089 40092 82500 333 20260 58017 70000 82618==
41989,2023,05,28,06,00,AAXX 28064 41989 02456 21402 10330 20230 30077 40080 82500 333 58005 70000 82618==
41989,2023,05,28,09,00,AAXX 28094 41989 02456 11704 10327 20260 30066 40069 81500 333 58003 70000 81618==
41989,2023,05,28,12,00,AAXX 28124 41989 02456 11803 10310 20230 30046 40049 81500 333 10332 59006 70000 81618==
41989,2023,05,28,15,00,AAXX 28154 41989 02450 21402 10290 20260 30061 40064 82500 333 58006 70000 82618==
41989,2023,05,28,18,00,AAXX 28184 41989 02440 31302 10280 20250 30067 40070 82500 333 58004 70000 83618==
41989,2023,05,28,21,00,AAXX 28214 41989 02440 31802 10275 20250 30057 40060 83500 333 58011 70000 83618==
41989,2023,05,29,00,00,AAXX 29004 41989 02450 31402 10270 20250 30057 40060 83500 333 58001 70000 83618==
41989,2023,05,29,03,00,AAXX 29034 41989 02450 31702 10295 20250 30084 40087 83500 333 20262 59005 70000 83618==
41989,2023,05,29,06,00,AAXX 29064 41989 02456 21803 10335 20270 30075 40078 82500 333 59002 70000 82618==
41989,2023,05,29,09,00,AAXX 29094 41989 02456 23102 10340 20250 30049 40053 82500 333 59002 70000 82618==
41989,2023,05,29,12,00,AAXX 29124 41989 02456 31303 10322 20250 30043 40046 82530 333 10351 59003 70000 82618 83362==
41989,2023,05,29,15,00,AAXX 29154 41989 02450 41702 10302 20270 30060 40063 82530 333 59001 70000 82618 84362==
41989,2023,05,29,18,00,AAXX 29184 41989 02450 31802 10290 20260 30070 40073 83530 333 58003 70000 82618==
41989,2023,05,29,21,00,AAXX 29214 41989 02450 20000 10288 20260 30064 40067 82500 333 58007 70000 82618==
41989,2023,05,30,00,00,AAXX 30004 41989 02450 20000 10293 20240 30059 40063 82500 333 58002 70000 82618==
41989,2023,05,30,03,00,AAXX 30034 41989 02456 11803 10325 20260 30089 40092 81500 333 20267 58005 70000 81618==
41989,2023,05,30,06,00,AAXX 30064 41989 02456 21402 10340 20260 30073 40077 82500 333 59002 70000 82618==
41989,2023,05,30,09,00,AAXX 30094 41989 32456 21804 10338 20270 30048 40051 82500 333 56900 59001 70000 82618=
41989,2023,05,30,12,00,AAXX 30124 41989 02456 21702 10320 20260 30039 40042 82500 333 10342 59004 70000 82618==
41989,2023,05,30,15,00,AAXX 30154 41989 02450 51704 10285 20250 30062 40065 83530 333 58002 70000 83618==
41989,2023,05,30,18,00,AAXX 30184 41989 02440 51802 10280 20260 30077 40080 83530 333 58007 70000 83618 84362==
41989,2023,05,30,21,00,AAXX 30214 41989 02450 31404 10278 20260 30068 40071 83500 333 58007 70000 83618==
41989,2023,05,31,00,00,AAXX 31004 41989 02450 31402 10275 20260 30061 40065 83500 333 58006 70000 82618==
41989,2023,05,31,03,00,AAXX 31034 41989 02450 41403 10310 20260 30080 40083 82530 333 20260 59009 70000 82618 83362==
41989,2023,05,31,06,00,AAXX 31064 41989 02456 11303 10323 20270 30066 40069 81500 333 59007 70000 81618==
41989,2023,05,31,12,00,AAXX 31124 41989 02450 23202 10320 20270 30041 40044 82500 333 10338 59016 70000 82618==
41989,2023,05,31,15,00,AAXX 31154 41989 02450 60000 10307 20270 30050 40053 83570 333 59012 70000 83618 84362==
41989,2023,05,31,21,00,AAXX 31214 41989 02450 50000 10290 20260 30055 40058 82570 333 59013 70000 82618 83362==
41989,2023,06,01,00,00,AAXX 01004 41989 02450 50000 10277 20260 30053 40057 83570 333 59008 70000 82618 83362==
41989,2023,06,01,03,00,AAXX 01034 41989 02456 61302 10302 20260 30078 40082 83570 333 20256 59008 70000 83618 84360==
41989,2023,06,01,06,00,AAXX 01064 41989 01440 71302 10282 20260 30072 40075 70362 83570 333 58006 70150 83618 84460==
41989,2023,06,01,09,00,AAXX 01094 41989 02560 31303 10308 20270 30034 40037 82530 333 59023 70150 81618 83362==
41989,2023,06,01,12,00,AAXX 01124 41989 02450 31402 10300 20260 30032 40036 333 59009 70150 83618==
41989,2023,06,01,15,00,AAXX 01154 41989 02450 33202 10285 20260 30049 40051 83500 333 59001 70150 83618==
41989,2023,06,01,18,00,AAXX 01184 41989 02450 33102 10280 20250 30059 40063 83500 333 58000 70150 83618==
41989,2023,06,01,21,00,AAXX 01214 41989 02440 53102 10278 20260 30051 40054 83530 333 59002 70150 83618 83362==
41992,2023,05,26,00,00,AAXX 26004 41992 01420 62102 10260 20240 30092 40094 70522 84530 333 58020 70000 84615 86360==
41992,2023,05,26,03,00,AAXX 26034 41992 01425 70000 10254 20230 30100 40102 70565 84310 333 20254 58013 70040 84616 87460 81925==
41992,2023,05,26,06,00,AAXX 26064 41992 11430 71803 10297 20260 30086 40088 60046 70565 84530 333 59001 70040 84616 87362==
41992,2023,05,26,09,00,AAXX 26094 41992 01430 62408 10323 20240 30068 40070 70521 82530 333 58003 70040 82616 84362==
41992,2023,05,26,12,00,AAXX 26124 41992 01430 42102 10300 20260 30064 40066 70522 83530 333 10330 58008 70040 83616 84362==
41992,2023,05,26,15,00,AAXX 26154 41992 01425 40000 10280 20260 30083 40085 70521 84500 333 58010 70040 84616==
41992,2023,05,26,18,00,AAXX 26184 41992 01425 60000 10278 20260 30088 40090 70521 84520 333 58017 70040 84616 86460==
41992,2023,05,26,21,00,AAXX 26214 41992 01425 60000 10270 20260 30081 40083 76166 8592/ 333 58001 70050 84614 88459 81925==
41992,2023,05,27,00,00,AAXX 27004 41992 21925 00000 10267 20250 30063 40065 70562 333 59029 60018 70050==
41992,2023,05,27,03,00,AAXX 27034 41992 01930 01506 10308 20260 30082 40084 70500 333 20265 59018 70010==
41992,2023,05,27,06,00,AAXX 27064 41992 01/35 21806 10324 20250 30079 40081 70510 82030 333 59007 70010 82362==
41992,2023,05,27,09,00,AAXX 27094 41992 01935 01805 10320 20250 30057 40059 70511 333 59011 70010==
41992,2023,05,27,12,00,AAXX 27124 41992 01935 00000 10305 20260 30058 40060 70510 333 10335 59006 70000==
41992,2023,05,27,15,00,AAXX 27154 41992 01925 02103 10290 20260 30067 40069 70500 333 59016 70010==
41992,2023,05,27,18,00,AAXX 27184 41992 01925 00000 10277 20260 30069 40071 70500 333 59019 70010==
41992,2023,05,27,21,00,AAXX 27214 41992 01925 00000 10270 20250 30065 40067 70500 333 59016 70000==
41992,2023,05,28,00,00,AAXX 28004 41992 01925 00000 10263 20250 30072 40074 70500 333 58009 70000==
41992,2023,05,28,03,00,AAXX 28034 41992 01430 30000 10305 20260 30083 40085 70510 83500 333 20260 58001 70000 83616==
41992,2023,05,28,06,00,AAXX 28064 41992 01535 20000 10335 20260 30073 40075 70511 82100 333 59006 70000 82825==
41992,2023,05,28,09,00,AAXX 28094 41992 01940 00302 10340 20260 30058 40060 70500 333 58001 70000==
41992,2023,05,28,12,00,AAXX 28124 41992 01935 00000 10310 20240 30051 40053 70500 333 10343 59007 70000==
41992,2023,05,28,15,00,AAXX 28154 41992 01925 00000 10285 20260 30073 40075 70500 333 58006 70000==
41992,2023,05,28,18,00,AAXX 28184 41992 01925 00000 10274 20250 30076 40078 70500 333 58007 70000==
41992,2023,05,28,21,00,AAXX 28214 41992 01925 00000 10272 20250 30064 40066 70500 333 59001 70000==
41992,2023,05,29,00,00,AAXX 29004 41992 01925 00000 10270 20250 30073 40075 70500 333 58001 70000==
41992,2023,05,29,03,00,AAXX 29034 41992 01/30 23603 10328 20240 30089 40091 70500 82030 333 20268 58006 70000 82362==
41992,2023,05,29,06,00,AAXX 29064 41992 01/35 23306 10348 20250 30080 40082 70510 82030 333 58007 70000 82362==
41992,2023,05,29,09,00,AAXX 29094 41992 01940 42706 10350 20240 30058 40060 70521 84001 333 58000 70000 84080==
41992,2023,05,29,12,00,AAXX 29124 41992 01930 62704 10325 20250 30056 40058 70522 86001 333 10355 58005 70000 86080==
41992,2023,05,29,15,00,AAXX 29154 41992 01930 00000 10300 20270 30075 40077 70520 333 58002 70000==
41992,2023,05,29,18,00,AAXX 29184 41992 01925 00000 10295 20270 30073 40075 70520 333 59002 70000==
41992,2023,05,29,21,00,AAXX 29214 41992 01925 00000 10290 20260 30068 40070 70500 333 58004 70000==
41992,2023,05,30,00,00,AAXX 30004 41992 01925 00000 10285 20270 30077 40079 70500 333 58004 70000==
41992,2023,05,30,03,00,AAXX 30034 41992 01/30 23306 10338 20250 30087 40089 70510 82030 333 20278 59002 70000 82362==
41992,2023,05,30,06,00,AAXX 30064 41992 01935 02107 10344 20260 30073 40075 70510 333 59007 70000==
41992,2023,05,30,09,00,AAXX 30094 41992 01935 02704 10340 20270 30048 40050 70500 333 59010 70000==
41992,2023,05,30,12,00,AAXX 30124 41992 01425 80000 10315 20270 30057 40059 70520 8452/ 333 10348 58001 70000 84616 88460==
41992,2023,05,30,15,00,AAXX 30154 41992 01420 82705 10275 20240 30066 40068 70522 8592/ 333 59009 70000 84615 88458 81925==
41992,2023,05,30,18,00,AAXX 30184 41992 21425 70000 10277 20250 30066 40068 70552 84530 333 59007 60007 84616 87362==
41992,2023,05,30,21,00,AAXX 30214 41992 41420 50000 10268 20240 30052 40054 70521 83530 333 59016 83616 85362==
41992,2023,05,31,00,00,AAXX 31004 41992 41420 60000 10264 20240 30064 40066 70522 84530 333 59013 84616 86362==
41992,2023,05,31,03,00,AAXX 31034 41992 41430 30000 10320 20260 30075 40077 70522 83500 333 20263 59014 83616==
41992,2023,05,31,06,00,AAXX 31064 41992 41930 00000 10330 20260 30062 40064 70520 333 59011==
41992,2023,05,31,09,00,AAXX 31094 41992 01930 02106 10340 20270 30034 40036 70500 333 59014 70000==
41992,2023,05,31,12,00,AAXX 31124 41992 01430 42104 10313 20270 30040 40042 70510 82530 333 10345 59017 70000 82616 84362==
41992,2023,05,31,15,00,AAXX 31154 41992 01425 62102 10305 20280 30052 40054 70521 84530 333 59014 70000 84616 86362==
41992,2023,05,31,18,00,AAXX 31184 41992 01425 70000 10292 20250 30051 40053 70522 84530 333 59015 70000 84616 87360==
41992,2023,05,31,21,00,AAXX 31214 41992 01425 70000 10280 20260 30044 40046 70522 84530 333 59008 70000 84615 87360==
41992,2023,06,01,00,00,AAXX 01004 41992 21420 80302 10270 20250 30052 40054 75122 8592/ 333 59015 60007 84616 84615 88458 81925==
41992,2023,06,01,03,00,AAXX 01034 41992 41425 72103 10278 20240 30074 40076 70522 84530 333 20268 59001 84615 87360==
41992,2023,06,01,06,00,AAXX 01064 41992 41430 60000 10288 20240 30060 40062 70522 84530 333 59002 84616 86362==
41992,2023,06,01,09,00,AAXX 01094 41992 41930 62705 10318 20240 30036 40038 70522 86001 333 58002 86080==
41992,2023,06,01,12,00,AAXX 01124 41992 41930 60000 10302 20230 30029 40031 70522 86001 333 10322 59011 86080==
41992,2023,06,01,15,00,AAXX 01154 41992 41/25 60000 10288 20250 30050 40052 70521 86010 333 59002 86460==
41992,2023,06,01,18,00,AAXX 01184 41992 41425 80000 10280 20260 30045 40047 70522 8452/ 333 59006 84616 88460==
41992,2023,06,01,21,00,AAXX 01214 41992 41425 80000 10275 20260 30039 40041 70522 8352/ 333 59005 83616 88460==
41998,2023,05,26,00,00,AAXX 26004 41998 NIL=
41998,2023,05,26,03,00,AAXX 26034 41998 02956 00000 10304 20270 30088 40094 333 20276 59008 70000==
41998,2023,05,26,06,00,AAXX 26064 41998 NIL=
41998,2023,05,26,12,00,AAXX 26124 41998 02456 40000 10298 20250 30069 40075 83470 333 10332 59002 70000 82618 83458==
41998,2023,05,26,18,00,AAXX 26184 41998 NIL=
41998,2023,05,27,03,00,AAXX 27034 41998 02956 00000 10300 20260 30095 40101 333 20274 58009 70000==
41998,2023,05,27,06,00,AAXX 27064 41998 NIL=
41998,2023,05,27,12,00,AAXX 27124 41998 02956 00000 10312 20260 30049 40055 333 10312 59020 70000==
41998,2023,05,27,18,00,AAXX 27184 41998 NIL=
41998,2023,05,28,00,00,AAXX 28004 41998 NIL=
41998,2023,05,28,03,00,AAXX 28034 41998 01456 60000 10304 20260 30090 40096 72162 83470 333 20280 59005 70030 82618 83456==
41998,2023,05,28,06,00,AAXX 28064 41998 NIL=
41998,2023,05,28,09,00,AAXX 28094 41998 02456 41902 10330 20260 30054 40060 83470 333 59007 70000 82618 83458==
41998,2023,05,28,12,00,AAXX 28124 41998 02456 40000 10307 20260 30055 40061 83470 333 10346 58006 70030 82618 83458==
41998,2023,05,28,18,00,AAXX 28184 41998 NIL=
41998,2023,05,29,00,00,AAXX 29004 41998 NIL=
41998,2023,05,29,06,00,AAXX 29064 41998 NIL=
41998,2023,05,29,12,00,AAXX 29124 41998 02456 40000 10310 20250 30061 40067 83470 333 10344 58006 70000 82618 83458==
41998,2023,05,30,06,00,AAXX 30064 41998 NIL=
41998,2023,05,30,09,00,AAXX 30094 41998 02456 42102 10329 20250 30045 40051 83470 333 59011 70000 82618 83458==
41998,2023,05,30,12,00,AAXX 30124 41998 02456 40000 10303 20250 30051 40957 83470 333 10338 59010 70000 82618 83458==
41998,2023,05,31,00,00,AAXX 31004 41998 02956 00000 10290 20270 30082 40088 333 58006 70000==
41998,2023,05,31,03,00,AAXX 31034 41998 02956 00000 10310 20270 30099 40105 333 20287 58009 70000==
41998,2023,05,31,06,00,AAXX 31064 41998 NIL=
41998,2023,05,31,09,00,AAXX 31094 41998 02456 41604 10334 20260 30029 40035 83470 333 59016 70000 82618 83458==
41998,2023,05,31,12,00,AAXX 31124 41998 02456 41902 10306 20270 30036 40042 83470 333 10342 59015 70000 82618 83458==
41998,2023,06,01,00,00,AAXX 01004 41998 21466 50000 10276 20260 30071 40077 72196 83470 333 59005 60079 70170 82618 84459==
41998,2023,06,01,03,00,AAXX 01034 41998 02456 80000 10290 20260 30088 40094 8442/ 333 20260 58008 70170 83618 88458==
41998,2023,06,01,06,00,AAXX 01064 41998 NIL=
41998,2023,06,01,12,00,AAXX 01124 41998 02456 40000 10301 20260 30048 40054 83470 333 10337 58012 70170 82618 83458==
