ESTACION,ANO,MES,DIA,HORA,MINUTO,PARTE
41850,2023,06,23,00,00,AAXX 23004 41850 11330 80000 10252 20250 39941 40039 61009 79596 8532/ 333 56999 59012 72300 83707 84614 81929 88458=
41850,2023,06,23,06,00,AAXX 23064 41850 11430 80000 10286 20260 39940 40037 60439 70596 8452/ 333 56999 58001 72730 84614 88458=
41850,2023,06,23,12,00,AAXX 23124 41850 31450 20000 10305 20260 39910 40006 70521 82500 333 10314 56900 59003 72730 82618=
41850,2023,06,23,18,00,AAXX 23184 41850 31450 50000 10271 20260 39926 40024 70522 82510 333 56990 59006 71430 82618 85458=
41850,2023,06,24,00,00,AAXX 24004 41850 11450 80000 10267 20250 39927 40025 60016 70562 8352/ 333 56999 59014 70440 83615 88458=
41850,2023,06,24,06,00,AAXX 24064 41850 32456 60000 10310 20250 39926 40023 82510 333 56990 59014 70010 82618 86458=
41850,2023,06,24,12,00,AAXX 24124 41850 32456 50000 10314 20260 39903 40000 82510 333 10338 56990 59007 70010 82618 85458=
41850,2023,06,24,18,00,AAXX 24184 41850 31450 20000 10279 20260 39923 40020 70521 82500 333 56900 59003 70010 82618=
41850,2023,06,25,00,00,AAXX 25004 41850 31450 20000 10272 20260 39928 40026 70511 82500 333 56900 58001 70000 82618=
41850,2023,06,25,06,00,AAXX 25064 41850 32457 60000 10322 20250 39929 40026 82510 333 56990 58003 70000 82618 86458=
41850,2023,06,25,12,00,AAXX 25124 41850 NIL=
41850,2023,06,25,18,00,AAXX 25184 41850 31940 00000 10277 20250 39926 40024 70520 333 58003 70000=
41850,2023,06,26,00,00,AAXX 26004 41850 31950 01802 10265 20260 39929 40027 70500 333 58001 70000=
41850,2023,06,26,06,00,AAXX 26064 41850 32457 70504 10324 20240 39937 40033 82510 333 56990 58008 70000 83618 87458=
41850,2023,06,26,12,00,AAXX 26124 41850 32456 30000 10332 20240 39898 49994 82510 333 10342 56900 59014 70000 83618=
41850,2023,06,26,18,00,AAXX 26184 41850 31450 20000 10289 20260 39922 40019 70511 82500 333 56900 59004 70000 82618=
41850,2023,06,27,00,00,AAXX 27004 41850 31450 80000 10270 20250 39922 40019 70522 8352/ 333 56999 59007 70000 83618 88458=
41850,2023,06,27,06,00,AAXX 27063 41850 11450 70906 10305 20270 39931 40028 60024 72162 83510 333 56990 59006 70020 83618 87458=
41850,2023,06,27,12,00,AAXX 27124 41850 31450 71304 10295 20250 39918 40015 70522 83510 333 10317 56990 58020 70020 83618 87458=
41850,2023,06,27,18,00,AAXX 27184 41850 11340 80000 10264 20250 39947 40045 60066 70562 8352/ 333 56999 58025 70080 83708 88458=
41850,2023,06,28,00,00,AAXX 28004 41850 31450 81803 10260 20250 39940 40038 70522 8252/ 333 56999 58018 70080 82618 88458=
41850,2023,06,28,06,00,AAXX 28064 41850 11356 80000 10295 20260 39947 40044 60075 72262 8372/ 333 56999 58016 70130 83708 88458=
41850,2023,06,28,12,00,AAXX 28124 41850 11450 81305 10275 20260 39929 40027 60226 70562 8452/ 333 10301 56999 58011 70350 84618 88458=
41850,2023,06,28,18,00,AAXX 28184 41850 11430 80000 10263 20260 39948 40046 60076 70562 8452/ 333 56999 58001 70360 84618 88458=
41850,2023,06,29,00,00,AAXX 29004 41850 11330 80000 10255 20250 39938 40037 60177 76166 8372/ 333 56999 59002 70530 83708 88458=
41850,2023,06,29,06,00,AAXX 29064 41850 11450 80000 10284 20250 39956 40054 60056 70562 8452/ 333 56999 58009 70510 84618 88458=
41850,2023,06,29,12,00,AAXX 29124 41850 32456 60000 10289 20260 39923 40020 83510 333 10317 56990 59006 70290 83618 86458=
41850,2023,06,29,18,00,AAXX 29184 41850 31430 80000 10256 20250 39943 40042 70522 8352/ 333 56999 59005 70220 83618 88458=
41851,2023,06,23,00,00,AAXX 23004 41851 11350 81301 10256 20250 39977 40040 60035 70262 8462/ 333 56499 58007 70090 81709 83617 88457=
41851,2023,06,23,06,00,AAXX 23064 41851 32450 60901 10307 20260 39979 40041 83510 333 56990 59002 70030 83618 84459=
41851,2023,06,23,12,00,AAXX 23124 41851 32450 50000 10305 20270 39940 40001 83510 333 10330 56990 59012 70030 83618 85458=
41851,2023,06,23,18,00,AAXX 23184 41851 32450 81301 10280 20260 39972 40034 8352/ 333 56999 59008 70030 83618 88458=
41851,2023,06,24,00,00,AAXX 24004 41851 32450 20000 10268 20260 39964 40026 82500 333 56900 59013 70000 82618=
41851,2023,06,24,06,00,AAXX 24064 41851 32450 61301 10323 20260 39966 40027 83520 333 56990 59013 70000 83618 86458=
41851,2023,06,24,12,00,AAXX 24124 41851 32450 11301 10330 20260 39938 49999 81500 333 10345 56900 59002 70000 81618=
41851,2023,06,24,18,00,AAXX 24184 41851 32950 00000 10285 20280 39972 40034 333 58000 70000=
41851,2023,06,25,00,00,AAXX 25004 41851 32950 00000 10274 20260 39963 40025 333 59001 70000=
41851,2023,06,25,06,00,AAXX 25064 41851 32450 51803 10334 20260 39975 40036 82530 333 56990 58009 70000 82618 84362=
41851,2023,06,25,12,00,AAXX 25124 41851 32450 40000 10327 20260 39949 40010 81510 333 10342 56990 58011 70000 81618 84458=
41851,2023,06,25,18,00,AAXX 25184 41851 32950 00000 10288 20270 39977 40039 333 58005 70000=
41851,2023,06,26,00,00,AAXX 26004 41851 32950 00000 10270 20250 39970 40032 333 58005 70000=
41851,2023,06,26,06,00,AAXX 26064 41851 32450 51803 10334 20240 39979 40040 82530 333 56990 58004 70000 82618 84362=
41851,2023,06,26,12,00,AAXX 26124 41851 32450 41803 10336 20260 39939 40000 82430 333 10350 56990 59010 70000 81618 83362=
41851,2023,06,26,18,00,AAXX 26184 41851 32450 31801 10278 20250 39970 40032 81530 333 56990 59007 70000=
41851,2023,06,27,00,00,AAXX 27004 41851 32350 71502 10268 20260 39961 40023 83620 333 56490 59009 70000 81709 83618 86459=
41851,2023,06,27,06,00,AAXX 27063 41851 32450 51805 10322 20250 39974 40035 82530 333 56990 59005 70000 82618 84362=
41851,2023,06,27,12,00,AAXX 27124 41851 11350 80905 10283 20260 39961 40023 60034 76522 8472/ 333 10336 56299 58022 70027 81708 84616 88456=
41851,2023,06,27,18,00,AAXX 27184 41851 11350 81202 10265 20260 39994 40057 60086 70396 8362/ 333 56299 58024 70102 81709 83617 88457=
41851,2023,06,28,00,00,AAXX 28004 41851 32450 80702 10265 20250 39984 40047 8352/ 333 56999 58023 70102 83617 88457=
41851,2023,06,28,06,00,AAXX 28064 41851 11340 81503 10270 20260 39996 40059 60067 76362 8472/ 333 56399 58022 70158 81708 84616 88456=
41851,2023,06,28,12,00,AAXX 28124 41851 11340 81802 10267 20260 39971 40033 60189 76662 8472/ 333 10296 56399 58010 70313 81708 83616 88456=
41851,2023,06,28,18,00,AAXX 28184 41851 32440 80902 10267 20250 30004 40067 8352/ 333 56999 58010 70238 83617 88457=
41851,2023,06,29,00,00,AAXX 29004 41851 32450 80902 10260 20250 39984 40047 8352/ 333 56999 58000 70238 83617 88457=
41851,2023,06,29,06,00,AAXX 29064 41851 32450 80901 10296 20260 39996 40058 8352/ 333 56999 58000 70182 83617 88457=
41851,2023,06,29,12,00,AAXX 29124 41851 32450 62302 10300 20250 39966 40028 84430 333 10320 56990 59005 70000 83618 85362=
41851,2023,06,29,18,00,AAXX 29184 41851 11450 80000 10265 20260 39988 40051 60078 70262 8352/ 333 56999 59016 70070 83618 88457=
41856,2023,06,23,00,00,AAXX 23004 41856 32440 80000 10258 20250 30010 40045 8452/ 333 56999 58007 70047 84618 88458=
41856,2023,06,23,06,00,AAXX 23064 41856 32450 51401 10310 20250 30005 40040 82530 333 56990 59001 70000 82616 85362=
41856,2023,06,23,12,00,AAXX 23124 41856 32956 20502 10314 20260 39966 40001 82030 333 10338 56090 59012 70000 82362=
41856,2023,06,23,18,00,AAXX 23184 41856 32930 20000 10276 20260 39997 40032 82030 333 56090 59017 70000 82362=
41856,2023,06,24,00,00,AAXX 24004 41856 32950 01401 10268 20250 39993 40028 333 59017 70000=
41856,2023,06,24,06,00,AAXX 24064 41856 32450 50902 10314 20250 39996 40031 82530 333 56990 59009 70000 82616 85362=
41856,2023,06,24,12,00,AAXX 24124 41856 32956 30000 10330 20240 39963 49997 83030 333 10340 56090 59003 70000 83362=
41856,2023,06,24,18,00,AAXX 24184 41856 32940 00000 10282 20260 39990 40025 333 59007 70000=
41856,2023,06,25,00,00,AAXX 25004 41856 32950 30701 10270 20250 39991 40026 83030 333 56090 59002 70000 83362=
41856,2023,06,25,06,00,AAXX 25064 41856 32956 51102 10330 20240 39999 40034 85030 333 56090 59003 70000 83362=
41856,2023,06,25,12,00,AAXX 25124 41856 32950 30000 10324 20240 39975 40010 83030 333 10346 56090 58012 70000 83362=
41856,2023,06,25,18,00,AAXX 25184 41856 32940 00000 10290 20270 39997 40032 333 58007 70000=
41856,2023,06,26,00,00,AAXX 26004 41856 32950 50000 10270 20250 39997 40032 85030 333 56090 58007 70000 83362=
41856,2023,06,26,06,00,AAXX 26064 41856 32956 51301 10322 20240 30005 40040 85030 333 56090 58006 70000 83362=
41856,2023,06,26,12,00,AAXX 26124 41856 32456 51302 10330 20240 39968 40002 83430 333 10350 56990 59007 70000 81618 83825 85362=
41856,2023,06,26,18,00,AAXX 26184 41856 32930 21302 10280 20250 39995 40030 82030 333 56090 59002 70000 82362=
41856,2023,06,27,00,00,AAXX 27004 41856 32450 51302 10265 20250 39989 40024 82520 333 56990 59008 70000 82618 85458=
41856,2023,06,27,06,00,AAXX 27063 41856 32456 61304 10308 20240 30004 40039 83420 333 56990 59001 70000 83618 86458=
41856,2023,06,27,12,00,AAXX 27124 41856 11350 81305 10264 20240 39993 40028 60134 76162 8672/ 333 10330 56499 58025 70129 83708 85614 88456=
41856,2023,06,27,18,00,AAXX 27184 41856 11430 81303 10266 20250 30024 40059 60012 70262 8662/ 333 56399 58029 70139 83708 85614 88456=
41856,2023,06,28,00,00,AAXX 28004 41856 32440 81302 10264 20240 30009 40044 8662/ 333 56399 58020 70139 83708 85614 88456=
41856,2023,06,28,06,00,AAXX 28064 41856 11340 80902 10265 20265 30024 40059 60293 76166 8672/ 333 56299 58020 70425 84708 85614 88456=
41856,2023,06,28,12,00,AAXX 28124 41856 11450 71304 10280 20250 30003 40038 60267 70162 85620 333 10290 56499 58010 70556 83709 85615 87457=
41856,2023,06,28,18,00,AAXX 28184 41856 32440 81301 10265 20250 30032 40067 8562/ 333 56999 58008 70546 82710 83618 88458=
41856,2023,06,29,00,00,AAXX 29004 41856 32440 80000 10262 20250 30009 40044 8462/ 333 56999 58000 70546 82710 83618 88458=
41856,2023,06,29,06,00,AAXX 29064 41856 32450 81301 10282 20260 30024 40059 8462/ 333 56999 58000 70260 82710 83618 88458=
41856,2023,06,29,12,00,AAXX 29124 41856 32450 81402 10292 20250 39996 40031 8452/ 333 10310 56999 59007 70000 83618 88458=
41856,2023,06,29,18,00,AAXX 29184 41856 32430 51401 10264 20240 30014 40049 82530 333 56990 59018 70000 82616 85362=
41858,2023,06,23,00,00,AAXX 23004 41858 01440 50906 10270 20250 39997 40042 70522 82520 333 58000 70102 82618 85458==
41858,2023,06,23,03,00,AAXX 23034 41858 01440 80905 10295 20260 30009 40054 70522 8452/ 333 20260 58012 70082 84615 88458==
41858,2023,06,23,06,00,AAXX 23064 41858 01450 50505 10334 20240 39994 40038 70522 85400 333 59004 70082 83618 83825==
41858,2023,06,23,09,00,AAXX 23094 41858 01550 20905 10348 20250 39965 40009 70520 82100 333 59003 70082 82825==
41858,2023,06,23,12,00,AAXX 23124 41858 01550 30905 10336 20260 39956 40000 70520 82130 333 10351 59012 70000 82825 83362==
41858,2023,06,23,15,00,AAXX 23154 41858 01440 20905 10300 20270 39977 40022 70500 82100 333 59013 70000 82825==
41858,2023,06,23,18,00,AAXX 23184 41858 01440 20906 10284 20250 39987 40032 70500 82500 333 59009 70000 82618==
41858,2023,06,23,21,00,AAXX 23214 41858 01440 20905 10282 20260 39981 40026 70500 82500 333 59010 70000 82618==
41858,2023,06,24,00,00,AAXX 24004 41858 01450 30905 10284 20260 39984 40029 70500 83500 333 59013 70000 83618==
41858,2023,06,24,03,00,AAXX 24034 41858 01450 60906 10300 20250 39990 40035 70522 83520 333 20270 59019 70000 83616 86458==
41858,2023,06,24,06,00,AAXX 24064 41858 01450 60905 10336 20260 39983 40027 70522 83520 333 59011 70000 83616 86458==
41858,2023,06,24,09,00,AAXX 24094 41858 02456 40906 10350 20250 39967 40010 84800 333 58002 70000 82618 83825==
41858,2023,06,24,12,00,AAXX 24124 41858 02556 20906 10336 20250 39951 49995 82100 333 10352 59005 70000 82825==
41858,2023,06,24,15,00,AAXX 24154 41858 01950 01205 10304 20260 39973 40018 70500 333 59004 70000==
41858,2023,06,24,18,00,AAXX 24184 41858 01950 01205 10292 20260 39979 40024 70500 333 59008 70000==
41858,2023,06,24,21,00,AAXX 24214 41858 01950 01205 10286 20260 39979 40024 70500 333 59002 70000==
41858,2023,06,25,00,00,AAXX 25004 41858 01450 31205 10278 20260 39981 40026 70520 82540 333 59003 70000 82615 83362==
41858,2023,06,25,03,00,AAXX 25034 41858 01450 41206 10315 20250 39993 40037 70522 84500 333 20264 58003 70000 84616==
41858,2023,06,25,06,00,AAXX 25064 41858 01450 50905 10345 20260 39990 40034 70522 84520 333 58007 70000 84616 85458==
41858,2023,06,25,09,00,AAXX 25094 41858 01450 51210 10357 20260 39967 40010 70522 84520 333 58000 70000 84616 85458==
41858,2023,06,25,12,00,AAXX 25124 41858 01450 40905 10332 20250 39963 40007 70522 82520 333 10361 58012 70000 82618 84458==
41858,2023,06,25,15,00,AAXX 25154 41858 01940 00905 10304 20250 30086 40031 70500 333 58013 70000==
41858,2023,06,25,18,00,AAXX 25184 41858 01940 00000 10294 20260 30001 40046 70500 333 58022 70000==
41858,2023,06,25,21,00,AAXX 25214 41858 01940 00000 10284 20250 39982 40027 70500 333 58003 70000==
41858,2023,06,26,00,00,AAXX 26004 41858 01/50 30905 10280 20260 39986 40031 70510 83030 333 58005 70000 83362==
41858,2023,06,26,03,00,AAXX 26034 41858 01550 30908 10318 20250 39998 40043 70520 83100 333 20270 58005 70000 83825==
41858,2023,06,26,06,00,AAXX 26064 41858 01550 41210 10340 20250 39996 40040 70522 83140 333 58006 70000 83825 83362==
41858,2023,06,26,09,00,AAXX 26094 41858 02556 31210 10352 20240 39963 40007 83100 333 59004 70000 83825==
41858,2023,06,26,12,00,AAXX 26124 41858 01450 61205 10344 20240 39956 40000 70522 83520 333 10355 59007 70000 83618 86458==
41858,2023,06,26,15,00,AAXX 26154 41858 01540 40905 10312 20250 39980 40024 70522 83140 333 59006 70000 83825 84362==
41858,2023,06,26,18,00,AAXX 26184 41858 01440 51205 10300 20260 39999 40044 70522 83520 333 59002 70000 83618 85458==
41858,2023,06,26,21,00,AAXX 26214 41858 01/40 41205 10282 20250 39974 40019 70522 84030 333 59008 70000 84362==
41858,2023,06,27,00,00,AAXX 27004 41858 01/50 50905 10280 20250 39977 40022 70522 85030 333 59009 70000 85362==
41858,2023,06,27,03,00,AAXX 27034 41858 01450 61208 10290 20260 39998 40038 70522 83520 333 20268 59005 70000 83615 86458==
41858,2023,06,27,06,00,AAXX 27063 41858 01550 41206 10328 20250 39991 40035 70522 83140 333 59005 70000 83625==
41858,2023,06,27,09,00,AAXX 27094 41858 02456 60912 10335 20260 39970 40014 85420 333 58007 70000 83615 83825 84460==
41858,2023,06,27,12,00,AAXX 27124 41858 01440 80908 10280 20260 39977 40022 76122 8452/ 333 10337 58021 70020 84615 88458==
41858,2023,06,27,15,00,AAXX 27154 41858 01440 60905 10274 20250 30002 40047 70562 83520 333 58022 70026 83616 86458==
41858,2023,06,27,18,00,AAXX 27184 41858 11440 60905 10270 20250 30010 40055 60016 70562 83520 333 58011 70026 83616 86458==
41858,2023,06,27,21,00,AAXX 27214 41858 01440 60904 10272 20250 30004 40049 70522 83520 333 58027 70026 83616 86458==
41858,2023,06,28,00,00,AAXX 28004 41858 01440 80905 10270 20250 39998 40043 70522 8452/ 333 58021 70026 84616 88458==
41858,2023,06,28,03,00,AAXX 28034 41858 01430 80905 10285 20280 30011 40056 72162 8452/ 333 10260 58018 70066 84616 88458==
41858,2023,06,28,06,00,AAXX 28064 41858 21420 80906 10264 20250 30013 40059 76362 8452/ 333 58022 60197 70216 84615 88458==
41858,2023,06,28,09,00,AAXX 28094 41858 01430 80910 10302 20270 30089 40034 72162 8452/ 333 58019 70278 84616 88458==
41858,2023,06,28,12,00,AAXX 28124 41858 11440 60904 10290 20260 39988 40033 60066 70562 84520 333 10305 58011 70262 84616 86458==
41858,2023,06,28,15,00,AAXX 28154 41858 01440 61204 10278 20260 30013 40058 70522 84520 333 58011 70252 84616 86458==
41858,2023,06,28,18,00,AAXX 28184 41858 01440 60905 10274 20250 30024 40069 70522 84520 333 58014 70252 84616 86458==
41858,2023,06,28,21,00,AAXX 28214 41858 01435 80000 10268 20250 30008 40053 70522 8452/ 333 58004 70252 84616 88458==
41858,2023,06,29,00,00,AAXX 29004 41858 21425 80000 10265 20260 30003 40048 71062 8452/ 333 58005 60025 70276 84616 88458==
41858,2023,06,29,03,00,AAXX 29034 41858 01440 80905 10280 20260 30013 40058 70522 8452/ 333 20258 58002 70236 84615 88458==
41858,2023,06,29,06,00,AAXX 29064 41858 01440 80905 10300 20260 30012 40057 70522 8452/ 333 59001 70086 84615 88458==
41858,2023,06,29,09,00,AAXX 29094 41858 01450 60905 10320 20260 39983 40027 70522 84520 333 59006 70024 84616 86458==
41858,2023,06,29,12,00,AAXX 29124 41858 01440 81806 10300 20250 39989 40034 75122 8452/ 333 10328 58001 70000 84616 88458==
41858,2023,06,29,15,00,AAXX 29154 41858 01440 81205 10274 20250 30005 40050 70522 8452/ 333 59008 70024 84615 88458==
41858,2023,06,29,18,00,AAXX 29184 41858 01440 80000 10270 20250 30017 40062 70522 84520 333 59007 70024 84616 88458==
41859,2023,06,23,00,00,AAXX 23004 41859 02440 81301 10263 20250 30006 40043 8562/ 333 58003 70015 82710 84618 88458==
41859,2023,06,23,03,00,AAXX 23034 41859 02450 82302 10298 20260 30017 40054 8562/ 333 20256 58015 70002 82710 84618 88458==
41859,2023,06,23,06,00,AAXX 23064 41859 02450 60902 10324 20260 30005 40041 84620 333 59005 70000 82710 83618 86458==
41859,2023,06,23,12,00,AAXX 23124 41859 02450 51302 10332 20260 39965 40001 83520 333 10347 59013 70000 83618 85458==
41859,2023,06,23,15,00,AAXX 23154 41859 02430 40000 10298 20280 39989 40026 82520 333 59010 70000 82618 84458==
41859,2023,06,23,18,00,AAXX 23184 41859 02430 40902 10290 20260 39959 40032 82520 333 59011 70000 82618 84458==
41859,2023,06,23,21,00,AAXX 23214 41859 02430 60901 10280 20260 39986 40023 83520 333 59020 70000 83618 85458==
41859,2023,06,24,00,00,AAXX 24004 41859 02435 60000 10272 20260 39988 40025 83520 333 59018 70000 83618 85458==
41859,2023,06,24,03,00,AAXX 24034 41859 02450 61302 10313 20250 39999 40035 83520 333 20267 59007 70000 83618 85458==
41859,2023,06,24,06,00,AAXX 24064 41859 02450 61302 10316 20260 39992 40029 83520 333 59013 70000 83618 86458==
41859,2023,06,24,09,00,AAXX 24094 41859 02450 41303 10336 20250 39974 40010 84400 333 58001 70000 82618 84828==
41859,2023,06,24,12,00,AAXX 24124 41859 02450 20502 10340 20260 39962 49999 82400 333 10347 59003 70000 81618 82828==
41859,2023,06,24,15,00,AAXX 24154 41859 02930 00000 10308 20270 39982 40018 333 59007 70000==
41859,2023,06,24,18,00,AAXX 24184 41859 02930 00902 10298 20260 39998 40035 333 58003 70000==
41859,2023,06,24,21,00,AAXX 24214 41859 02430 50902 10287 20270 39988 40025 83520 333 58002 70000 83618 85458==
41859,2023,06,25,00,00,AAXX 25004 41859 02435 51303 10277 20260 39990 40027 83520 333 58002 70000 83618 85458==
41859,2023,06,25,03,00,AAXX 25034 41859 02450 51302 10320 20250 30002 40038 83520 333 20274 58003 70000 83618 85458==
41859,2023,06,25,06,00,AAXX 25064 41859 02450 51302 10337 20250 39999 40035 83520 333 58007 70000 83618 85458==
41859,2023,06,25,09,00,AAXX 25094 41859 02456 31303 10347 20250 39981 40017 83500 333 58007 70000 83618==
41859,2023,06,25,12,00,AAXX 25124 41859 02456 20502 10343 20240 39969 40005 82500 333 10350 58007 70000 82618==
41859,2023,06,25,15,00,AAXX 25154 41859 02930 00000 10315 20270 39995 40031 333 58013 70000==
41859,2023,06,25,18,00,AAXX 25184 41859 02430 41303 10305 20260 30004 40040 82530 333 58006 70000 82618 84362==
41859,2023,06,25,21,00,AAXX 25214 41859 02430 61302 10290 20260 39992 40029 84630 333 58004 70000 82710 83618 86362==
41859,2023,06,26,00,00,AAXX 26004 41859 02/50 21302 10280 20260 39991 40029 82030 333 58001 70000 82362==
41859,2023,06,26,03,00,AAXX 26034 41859 02450 51302 10319 20250 30008 40044 83510 333 20275 58006 70000 83618 85458==
41859,2023,06,26,06,00,AAXX 26064 41859 02450 51302 10337 20240 30004 40040 83510 333 58005 70000 83618 85458==
41859,2023,06,26,09,00,AAXX 26094 41859 02450 41302 10350 20230 39970 40006 84430 333 59011 70000 82618 83825 84362==
41859,2023,06,26,12,00,AAXX 26124 41859 02450 61302 10342 20240 39964 40000 85470 333 10353 59005 70000 82618 83825 86362==
41859,2023,06,26,15,00,AAXX 26154 41859 02430 31302 10296 20250 39993 40030 83500 333 59002 70000 83618==
41859,2023,06,26,18,00,AAXX 26184 41859 02430 31301 10287 20250 39997 40034 83500 333 59007 70000 83618==
41859,2023,06,26,21,00,AAXX 26214 41859 02430 81302 10280 20250 39992 40029 8562/ 333 58000 70000 82710 84618 88458==
41859,2023,06,27,00,00,AAXX 27004 41859 02440 81302 10276 20260 39985 40022 8562/ 333 59006 70000 82710 84618 88458==
41859,2023,06,27,03,00,AAXX 27034 41859 02450 81302 10300 20250 30003 40040 8562/ 333 20272 59005 70000==
41859,2023,06,27,06,00,AAXX 27064 41859 02450 81302 10320 20250 30002 40038 8562/ 333 59002 70000==
41859,2023,06,27,09,00,AAXX 27094 41859 02450 80902 10323 20230 39981 40017 8562/ 333 58011 70000 82710 84618 88458==
41859,2023,06,27,12,00,AAXX 27124 41859 01440 81302 10273 20260 39988 40025 76166 8572/ 333 10330 58025 70030 83708 84616 88456==
41859,2023,06,27,15,00,AAXX 27154 41859 01430 81302 10270 20260 30012 40049 72162 8562/ 333 58019 70036 83710 84618 88458==
41859,2023,06,27,18,00,AAXX 27184 41859 11430 81302 10272 20250 30021 40058 60011 70262 8562/ 333 58024 70036 83710 84618 88458==
41859,2023,06,27,21,00,AAXX 27214 41859 02430 81302 10272 20250 30010 40047 8562/ 333 58013 70036 83710 84618 88458==
41859,2023,06,28,00,00,AAXX 28004 41859 02435 81302 10271 20250 30007 40044 8562/ 333 58022 70036 82710 84618 88458==
41859,2023,06,28,03,00,AAXX 28034 41859 01350 81302 10273 20260 30022 40059 76122 8572/ 333 20266 58019 70066 83708 84616 88458==
41859,2023,06,28,06,00,AAXX 28064 41859 21350 81302 10267 20267 30023 40060 76162 8572/ 333 58019 60379 70371 83708 84616 88456==
41859,2023,06,28,09,00,AAXX 28094 41859 01340 80502 10272 20270 39998 40035 76566 8672/ 333 58017 70773 83708 85614 88456==
41859,2023,06,28,12,00,AAXX 28124 41859 21450 80902 10285 20270 30000 40037 70262 8562/ 333 10285 58012 60418 70757 83710 84618 88458==
41859,2023,06,28,15,00,AAXX 28154 41859 02430 81302 10275 20260 30023 40060 8562/ 333 58011 70747 83710 84618 88458==
41859,2023,06,28,18,00,AAXX 28184 41859 02430 80502 10270 20250 30030 40067 8562/ 333 58009 70747 83710 84618 88458==
41859,2023,06,28,21,00,AAXX 28214 41859 02430 80502 10265 20260 30018 40055 8562/ 333 58008 70747 83710 84618 88458==
41859,2023,06,29,00,00,AAXX 29004 41859 01435 80000 10261 20260 30010 40047 70266 8562/ 333 58003 70010 83710 84619 88458==
41859,2023,06,29,03,00,AAXX 29034 41859 01440 80000 10281 20260 30024 40061 70262 8562/ 333 20258 58001 70428 82710 84618 88458==
41859,2023,06,29,06,00,AAXX 29064 41859 01350 81303 10290 20270 30020 40057 76166 8572/ 333 59003 70438 83708 85614 88456==
41859,2023,06,29,09,00,AAXX 29094 41859 01450 61302 10315 20270 39996 40032 70162 84630 333 59002 70040 82710 83618 86362==
41859,2023,06,29,12,00,AAXX 29124 41859 11450 81802 10302 20260 39996 40033 69946 70361 8562/ 333 10320 59004 70030 82710 83618 88458==
41859,2023,06,29,15,00,AAXX 29154 41859 02430 81301 10276 20260 30014 40051 8562/ 333 59009 70030 82710 84618 88458==
41859,2023,06,29,18,00,AAXX 29184 41859 02430 80000 10271 20250 30015 40052 8562/ 333 59015 70030 82710 84618 88458==
41859,2023,06,29,21,00,AAXX 29214 41859 02430 80000 10268 20260 30005 40042 8562/ 333 59013 70030 82710 84618 88458==
41863,2023,06,23,00,00,AAXX 23004 41863 02450 80901 10274 20250 39995 40038 8552/ 333 58001 70000 85618 88458==
41863,2023,06,23,03,00,AAXX 23034 41863 02456 81302 10300 20260 30007 40049 8552/ 333 20267 58011 70000 85618 88456==
41863,2023,06,23,06,00,AAXX 23064 41863 02557 50901 10330 20250 39997 40039 85400 333 58000 70000 85620==
41863,2023,06,23,09,00,AAXX 23094 41863 02557 31803 10340 20260 39963 40004 83400 333 59008 70000 83620==
41863,2023,06,23,12,00,AAXX 23124 41863 02957 31302 10341 20250 39955 49996 80002 333 10345 59010 70000 83080==
41863,2023,06,23,15,00,AAXX 23154 41863 02550 20901 10306 20270 39978 40020 82400 333 59009 70000 82620==
41863,2023,06,23,18,00,AAXX 23184 41863 02450 20000 10295 20280 39987 40029 82400 333 59008 70000 82618==
41863,2023,06,23,21,00,AAXX 23214 41863 02950 00902 10288 20270 39983 40025 333 59002 70000==
41863,2023,06,24,00,00,AAXX 24004 41863 02/50 31302 10280 20260 39981 40023 83030 333 59014 70000 83365==
41863,2023,06,24,03,00,AAXX 24034 41863 02457 40905 10317 20260 39990 40032 84400 333 20274 59017 70000 84618==
41863,2023,06,24,06,00,AAXX 24064 41863 02457 40904 10326 20260 39983 40025 84400 333 59014 70000 84618==
41863,2023,06,24,09,00,AAXX 24094 41863 02457 40904 10338 20260 39968 40009 84400 333 58005 70000 84618==
41863,2023,06,24,12,00,AAXX 24124 41863 02457 30903 10340 20250 39952 49993 83400 333 10348 59003 70000 83618==
41863,2023,06,24,15,00,AAXX 24154 41863 02950 00000 10303 20260 39975 40017 333 59003 70000==
41863,2023,06,24,18,00,AAXX 24184 41863 02950 00902 10295 20270 39990 40032 333 58003 70000==
41863,2023,06,24,21,00,AAXX 24214 41863 02950 00000 10287 20270 39977 40019 333 59006 70000==
41863,2023,06,25,00,00,AAXX 25004 41863 02450 50000 10276 20260 39980 40022 83520 333 59001 70000 83618 85458==
41863,2023,06,25,03,00,AAXX 25034 41863 02456 50903 10313 20250 39994 40038 85500 333 20270 58003 70000 85618==
41863,2023,06,25,06,00,AAXX 25064 41863 02457 51303 10333 20250 39991 40033 85400 333 58008 70000 82618 84830==
41863,2023,06,25,09,00,AAXX 25094 41863 02457 51302 10351 20250 39965 40006 85400 333 59003 70000 82618 84830==
41863,2023,06,25,12,00,AAXX 25124 41863 02457 40901 10340 20250 39962 40003 84400 333 10351 58010 70000 84618==
41863,2023,06,25,15,00,AAXX 25154 41863 02/56 20901 10310 20260 39983 40025 82030 333 58008 70000 82361==
41863,2023,06,25,18,00,AAXX 25184 41863 02456 81303 10300 20250 39995 40037 8552/ 333 58005 70000 85618 88458==
41863,2023,06,25,21,00,AAXX 25214 41863 02/50 41302 10290 20260 39988 40030 84030 333 58011 70000 84362==
41863,2023,06,26,00,00,AAXX 26004 41863 02/56 31301 10276 20260 39981 40023 83030 333 58001 70000 83362==
41863,2023,06,26,03,00,AAXX 26034 41863 02457 51304 10309 20250 39997 40039 83520 333 20272 58005 70000 83618 85458==
41863,2023,06,26,06,00,AAXX 26064 41863 02457 61305 10332 20240 39991 40033 86400 333 58000 70000 83618 85830==
41863,2023,06,26,09,00,AAXX 26094 41863 02457 40904 10353 20230 39958 49999 84400 333 59007 70000 82618 84830==
41863,2023,06,26,12,00,AAXX 26124 41863 02456 40904 10345 20240 39952 49993 84400 333 10358 59010 70000 82618 84830==
41863,2023,06,26,15,00,AAXX 26154 41863 01450 51303 10278 20260 39979 40021 70362 83520 333 59004 70044 83618 85458==
41863,2023,06,26,18,00,AAXX 26184 41863 11450 60902 10276 20260 39990 40032 60046 70362 83520 333 59005 70044 83618 85458==
41863,2023,06,26,21,00,AAXX 26214 41863 02450 60902 10273 20250 39988 40026 83520 333 59005 70044 83618 85458==
41863,2023,06,27,00,00,AAXX 27004 41863 02450 81303 10271 20250 39978 40021 8552/ 333 59003 70044 85618 88458==
41863,2023,06,27,03,00,AAXX 27034 41863 02450 81303 10295 20260 39992 40034 8452/ 333 20265 59005 70044 84618 88458==
41863,2023,06,27,06,00,AAXX 27063 41863 02456 61302 10328 20240 39989 40031 86400 333 59002 70044 83618 85830==
41863,2023,06,27,09,00,AAXX 27094 41863 02457 71805 10320 20240 39966 40008 85420 333 58008 70044 85618 87458==
41863,2023,06,27,12,00,AAXX 27124 41863 02457 70905 10310 20240 39970 40012 85420 333 10330 58018 70044 85618 87458==
41863,2023,06,27,15,00,AAXX 27154 41863 02456 71302 10275 20260 39998 40040 85520 333 58019 70000 85618 87458==
41863,2023,06,27,18,00,AAXX 27184 41863 02450 80903 10277 20260 30010 40052 8552/ 333 58020 70000 85618 88458==
41863,2023,06,27,21,00,AAXX 27214 41863 02450 81802 10275 20260 30004 40046 8552/ 333 58021 70000 85618 88458==
41863,2023,06,28,00,00,AAXX 28004 41863 02450 80901 10271 20260 30004 40047 8552/ 333 58026 70000 85618 88458==
41863,2023,06,28,03,00,AAXX 28034 41863 01350 81302 10275 20270 30011 40053 76162 8572/ 333 20264 58019 70048 83708 85617 88458==
41863,2023,06,28,06,00,AAXX 28064 41863 21450 80502 10301 20260 30010 40052 70262 8552/ 333 58021 60069 70056 85618 88458==
41863,2023,06,28,12,00,AAXX 28124 41863 21356 80000 10272 20260 39985 40028 76166 8572/ 333 10302 58015 60267 70316 83708 85614 88456==
41863,2023,06,28,15,00,AAXX 28154 41863 02450 81302 10270 20260 30014 40057 8552/ 333 58016 70316 85618 88458==
41863,2023,06,28,18,00,AAXX 28184 41863 01350 80902 10266 20260 30017 40060 76122 8572/ 333 58007 70050 83708 85614 88456==
41863,2023,06,28,21,00,AAXX 28214 41863 02450 80901 10265 20260 30013 40056 8552/ 333 58009 70368 85618 88458==
41863,2023,06,29,00,00,AAXX 29004 41863 21450 81301 10263 20250 30002 40045 70262 8552/ 333 59002 60025 70388 85618 88458==
41863,2023,06,29,03,00,AAXX 29034 41863 02456 81302 10285 20260 30012 40054 8552/ 333 20258 58001 70340 85618 88458==
41863,2023,06,29,06,00,AAXX 29064 41863 01456 81103 10302 20260 30007 40049 70262 8552/ 333 59003 70010 85618 88458==
41863,2023,06,29,09,00,AAXX 29094 41863 02557 31302 10318 20260 39982 40024 83400 333 70292 83620==
41863,2023,06,29,12,00,AAXX 29124 41863 21340 80902 10270 20260 39992 40035 76196 8592/ 333 10320 58007 60357 70416 83708 84614 88456 81930==
41863,2023,06,29,15,00,AAXX 29154 41863 01450 81302 10268 20260 30004 40047 72166 8552/ 333 59010 70486 85617 88458==
41863,2023,06,29,18,00,AAXX 29184 41863 21450 81301 10270 20260 30004 40047 70262 8552/ 333 59013 60058 70434 85617 88458==
41863,2023,06,29,21,00,AAXX 29214 41863 01440 81702 10267 20260 39995 40038 70266 8552/ 333 59018 70468 85617 88458==
41881,2023,06,23,00,00,AAXX 23004 41881 32456 50501 10262 20250 30020 40039 83520 333 56990 58013 70000 83617 85459=
41881,2023,06,23,06,00,AAXX 23064 41881 32457 60501 10325 20260 30012 40032 83520 333 56990 58000 70000 83617 86459=
41881,2023,06,23,12,00,AAXX 23124 41881 32457 40501 10326 20260 39978 49998 84500 333 10340 56900 59005 70000 84617=
41881,2023,06,23,18,00,AAXX 23184 41881 32950 00901 10290 20260 30006 40026 333 59012 70000=
41881,2023,06,24,00,00,AAXX 24004 41881 NIL=
41881,2023,06,24,06,00,AAXX 24064 41881 32458 70905 10317 20250 30001 40021 84520 333 56290 59001 70000 84618 87459=
41881,2023,06,24,12,00,AAXX 24124 41881 32458 30905 10320 20260 39975 49995 83500 333 10340 56200 59003 70000 83618=
41881,2023,06,25,00,00,AAXX 25004 41881 32457 60902 10268 20260 39998 40018 83520 333 56290 59003 70000 83618 86460=
41881,2023,06,25,06,00,AAXX 25064 41881 32458 61304 10320 20250 30006 40026 83520 333 56390 58005 70000 83618 86459=
41881,2023,06,25,12,00,AAXX 25124 41881 11457 21203 10302 20260 39981 40001 69964 70162 82500 333 10343 56900 58006 70006 82618=
41881,2023,06,25,18,00,AAXX 25184 41881 11450 20903 10268 20260 30014 40034 60025 70162 82500 333 56900 58021 70022 82618=
41881,2023,06,26,00,00,AAXX 26004 41881 32457 10903 10264 20250 30001 40021 81500 333 56900 58003 70022 81618=
41881,2023,06,26,06,00,AAXX 26064 41881 32457 60903 10310 20240 30011 40031 83520 333 56290 58005 70022 83618 86459=
41881,2023,06,26,12,00,AAXX 26124 41881 32456 61302 10310 20250 39983 40003 83520 333 10335 56290 58002 70016 83618 86459=
41881,2023,06,26,18,00,AAXX 26184 41881 11450 20902 10270 20250 30007 40027 60068 70162 82500 333 56900 59007 70060 82618=
41881,2023,06,27,00,00,AAXX 27004 41881 32456 20902 10260 20250 39999 40019 82500 333 56900 59002 70060 82618=
41881,2023,06,27,06,00,AAXX 27063 41881 11456 60903 10305 20260 30006 40026 60065 70262 83520 333 56990 59005 70120 83618 86459=
41881,2023,06,27,12,00,AAXX 27124 41881 11456 71402 10280 20260 39996 40016 60056 70262 84520 333 10320 56390 58013 70170 84617 87459=
41881,2023,06,27,18,00,AAXX 27184 41881 32450 61301 10270 20250 30022 40042 83520 333 56990 59015 70110 83618 86459=
41881,2023,06,28,00,00,AAXX 28004 41881 32450 80000 10265 20250 30016 40036 8552/ 333 56499 58017 70110 85615 88458=
41881,2023,06,28,06,00,AAXX 28064 41881 11456 81401 10300 20260 30027 40047 60026 70362 8552/ 333 56499 58021 70065 85615 88458=
41881,2023,06,28,12,00,AAXX 28124 41881 32456 71401 10285 20250 30010 40030 84520 333 10305 56390 58014 70015 84617 87459=
41881,2023,06,28,18,00,AAXX 28184 41881 32450 81401 10268 20260 30028 40048 8552/ 333 56499 58012 70015 85615 88458=
41881,2023,06,29,00,00,AAXX 29004 41881 11450 81401 10262 20260 30025 40044 60066 70252 8552/ 333 56499 58009 70075 85615 88458=
41881,2023,06,29,06,00,AAXX 29064 41881 32456 80000 10305 20270 30032 40052 8552/ 333 56499 58005 70060 85615 88458=
41881,2023,06,29,12,00,AAXX 29124 41881 11456 81301 10274 20260 30012 40032 60016 70296 8552/ 333 10305 56499 58002 70070 85615 88458=
41881,2023,06,29,18,00,AAXX 29184 41881 32450 81301 10268 20250 30014 40034 8552/ 333 56499 59014 70070 85615 88458=
41883,2023,06,23,00,00,AAXX 23004 41883 02456 80902 10274 20250 30022 40042 8552/ 333 58008 70006 85616 88459==
41883,2023,06,23,03,00,AAXX 23034 41883 02356 81302 10285 20270 30028 40048 8562/ 333 20264 58006 70006 85710 88458==
41883,2023,06,23,06,00,AAXX 23064 41883 02456 61302 10320 20250 30015 40035 84510 333 59003 70006 84616 86459==
41883,2023,06,23,09,00,AAXX 23094 41883 02456 40902 10342 20260 39987 40007 84400 333 59013 70006 82618 83828==
41883,2023,06,23,12,00,AAXX 23124 41883 02450 20000 10332 20260 39979 49999 82500 333 10344 59012 70000 82618==
41883,2023,06,23,15,00,AAXX 23154 41883 02930 00000 10310 20280 39994 40014 333 59023 70000==
41883,2023,06,23,18,00,AAXX 23184 41883 02330 80902 10290 20270 30011 40031 8562/ 333 59011 70000 85709 88458==
41883,2023,06,23,21,00,AAXX 23214 41883 02330 80902 10282 20260 39997 40017 8562/ 333 59016 70000 85709 88458==
41883,2023,06,24,00,00,AAXX 24004 41883 02350 80902 10278 20260 39995 40015 8562/ 333 59027 70000 85709 88458==
41883,2023,06,24,03,00,AAXX 24034 41883 01350 81302 10275 20270 30013 40033 76162 8572/ 333 20270 59015 70002 85709 88458==
41883,2023,06,24,06,00,AAXX 24064 41883 21556 40906 10320 20270 30002 40022 70162 82130 333 59013 69945 70004 82828 84362==
41883,2023,06,24,09,00,AAXX 24094 41883 02456 51802 10330 20250 39987 40007 85400 333 58000 70004 83616==
41883,2023,06,24,12,00,AAXX 24124 41883 02456 21302 10325 20260 39977 49997 82500 333 10340 59002 70004 82616==
41883,2023,06,24,15,00,AAXX 24154 41883 02430 20000 10304 20250 39997 40017 82500 333 58003 70004 82618==
41883,2023,06,24,18,00,AAXX 24184 41883 02930 00000 10288 20270 30013 40033 333 58002 70004==
41883,2023,06,24,21,00,AAXX 24214 41883 02430 80902 10280 20260 30000 40020 8562/ 333 58003 70004 83710 84616 88482==
41883,2023,06,25,00,00,AAXX 25004 41883 02450 80902 10274 20250 30003 40023 8562/ 333 58008 70004 83710 84616 88458==
41883,2023,06,25,03,00,AAXX 25034 41883 02456 61303 10296 20240 30015 40035 84510 333 20266 58002 70002 84616 86458==
41883,2023,06,25,06,00,AAXX 25064 41883 02456 61304 10324 20240 30011 40031 83510 333 58009 70000 83616 86458==
41883,2023,06,25,09,00,AAXX 25094 41883 02556 51305 10342 20250 39987 40007 83110 333 58000 70000 83826 85458==
41883,2023,06,25,12,00,AAXX 25124 41883 02450 51303 10320 20250 39983 40003 82530 333 10345 58006 70000 82616 85362==
41883,2023,06,25,15,00,AAXX 25154 41883 01330 80906 10300 20250 30011 40031 76062 8572/ 333 58014 70002 85709 88458==
41883,2023,06,25,18,00,AAXX 25184 41883 21930 00000 10280 20260 30017 40037 70162 333 58004 69955 70005==
41883,2023,06,25,21,00,AAXX 25214 41883 02930 00902 10276 20260 30011 40031 333 58011 70005==
41883,2023,06,26,00,00,AAXX 26004 41883 02456 30904 10272 20250 30005 40025 83500 333 58002 70005 83616==
41883,2023,06,26,03,00,AAXX 26034 41883 02456 61302 10296 20250 30016 40036 83510 333 20270 58001 70005 83616 86459==
41883,2023,06,26,06,00,AAXX 26064 41883 02456 61302 10324 20240 30013 40033 83510 333 58002 70005 83616 86459==
41883,2023,06,26,09,00,AAXX 26094 41883 01456 50904 10300 20270 39983 40003 72162 83430 333 59004 70015 81616 83828 85362==
41883,2023,06,26,12,00,AAXX 26124 41883 01456 71304 10275 20260 39983 40003 72166 85520 333 10336 58000 70053 85616 87459==
41883,2023,06,26,15,00,AAXX 26154 41883 02430 51302 10278 20260 30005 40025 83510 333 59006 70051 83616 85458==
41883,2023,06,26,18,00,AAXX 26184 41883 02330 80902 10276 20260 30010 40030 8562/ 333 59007 70048 85709 88458==
41883,2023,06,26,21,00,AAXX 26214 41883 02330 80000 10273 20250 30003 40023 8562/ 333 59008 70048 85709 88458==
41883,2023,06,27,00,00,AAXX 27004 41883 02340 81302 10270 20260 30000 40020 8562/ 333 59005 70048 85709 88458==
41883,2023,06,27,03,00,AAXX 27034 41883 01450 80904 10282 20260 30015 40035 72122 8562/ 333 20266 59001 70052 83709 84618 88458==
41883,2023,06,27,06,00,AAXX 27064 41883 21450 80904 10296 20260 30012 40032 70262 8562/ 333 59001 69945 70052 83716 88458==
41883,2023,06,27,09,00,AAXX 27094 41883 02456 61302 10314 20250 39996 40016 83510 333 58013 70042 83616 86459==
41883,2023,06,27,12,00,AAXX 27124 41883 02356 81302 10300 20250 39997 40017 8562/ 333 10314 58014 70004 85709 88458==
41883,2023,06,27,15,00,AAXX 27154 41883 02430 81302 10284 20250 30022 40042 8552/ 333 58017 70004 85616 88459==
41883,2023,06,27,18,00,AAXX 27184 41883 02430 80904 10278 20260 30032 40052 8552/ 333 58022 70004 85616 88459==
41883,2023,06,27,21,00,AAXX 27214 41883 02430 81302 10274 20250 30021 40041 8552/ 333 58018 70004 85616 88459==
41883,2023,06,28,00,00,AAXX 28004 41883 21350 80904 10270 20260 30021 40041 70262 8562/ 333 58021 60057 70054 85709 88459==
41883,2023,06,28,03,00,AAXX 28034 41883 01350 81304 10272 20260 30036 40056 76166 8572/ 333 20260 58021 70146 85709 88458==
41883,2023,06,28,06,00,AAXX 28064 41883 21350 81303 10290 20270 30034 40054 70266 8562/ 333 58022 60189 70324 85709 88458==
41883,2023,06,28,09,00,AAXX 28094 41883 01350 81302 10290 20260 30013 40033 76162 8572/ 333 58017 70334 85709 88458==
41883,2023,06,28,12,00,AAXX 28124 41883 21350 81302 10282 20260 30016 40036 70262 8562/ 333 10296 58019 60018 70334 85709 88458==
41883,2023,06,28,15,00,AAXX 28154 41883 02430 80902 10274 20250 30037 40057 8562/ 333 58015 70334 83710 84618 88458==
41883,2023,06,28,18,00,AAXX 28184 41883 02430 80000 10270 20250 30041 40061 8562/ 333 58009 70334 83710 84618 88458==
41883,2023,06,28,21,00,AAXX 28214 41883 02430 80902 10266 20250 30023 40043 8562/ 333 58002 70334 83709 84616 88456==
41883,2023,06,29,00,00,AAXX 29004 41883 21450 80000 10264 20250 30025 40045 70262 8562/ 333 58004 60027 70354 83709 84616 88458==
41883,2023,06,29,03,00,AAXX 29034 41883 02456 80904 10280 20260 30039 40059 8552/ 333 20256 58003 70208 85616==
41883,2023,06,29,06,00,AAXX 29064 41883 02456 80904 10304 20260 30035 40055 8552/ 333 58001 70030 85616 88458==
41883,2023,06,29,09,00,AAXX 29094 41883 01350 80902 10270 20250 30022 40042 79522 8592/ 333 58009 70040 83708 84615 88456 81930==
41883,2023,06,29,12,00,AAXX 29124 41883 21350 80000 10274 20250 30015 40035 76196 8572/ 333 10308 58001 60037 70050 83709 84616 88456==
41883,2023,06,29,15,00,AAXX 29154 41883 02430 80902 10270 20250 30025 40045 8552/ 333 59012 70050 85615 88458==
41883,2023,06,29,18,00,AAXX 29184 41883 42330 80902 10268 20260 30031 40051 8562/ 333 59010 85709 88458==
41883,2023,06,29,21,00,AAXX 29214 41883 02330 81302 10270 20260 30019 40039 8562/ 333 59004 70050 85709 88458==
41886,2023,06,23,00,00,AAXX 23004 41886 02456 60000 10264 20250 30026 40046 84470 333 58004 70000 83618 85460==
41886,2023,06,23,03,00,AAXX 23034 41886 02456 60000 10295 20260 30036 40056 84470 333 20258 58004 70000 83618 85460==
41886,2023,06,23,06,00,AAXX 23064 41886 02457 50000 10324 20250 30022 40042 84430 333 59010 70000 83618 84365==
41886,2023,06,23,09,00,AAXX 23094 41886 02457 61301 10333 20260 39993 40013 84470 333 59017 70000 83618 85460==
41886,2023,06,23,12,00,AAXX 23124 41886 02457 50902 10322 20260 39988 40008 84430 333 10335 59035 70000 83618 84362==
41886,2023,06,23,15,00,AAXX 23154 41886 01450 61301 10280 20260 30012 40032 70362 82510 333 59012 70005 82618 85460==
41886,2023,06,23,18,00,AAXX 23184 41886 11450 40000 10282 20260 30018 40038 69956 70162 82510 333 59008 70005 82618 84460==
41886,2023,06,23,21,00,AAXX 23214 41886 02450 60000 10280 20260 30012 40032 82510 333 59010 70005 82618 86460==
41886,2023,06,24,00,00,AAXX 24004 41886 02450 81301 10275 20260 30010 40030 8331/ 333 59016 70005 83618 88460 81930==
41886,2023,06,24,03,00,AAXX 24034 41886 02456 80902 10288 20250 30024 40044 8452/ 333 20273 59012 70005 84646 88458==
41886,2023,06,24,06,00,AAXX 24064 41886 02457 71002 10313 20260 30014 40034 84470 333 59008 70005 82618 87460==
41886,2023,06,24,09,00,AAXX 24094 41886 02457 61003 10330 20260 39994 40014 84470 333 58001 70005 82618 85365==
41886,2023,06,24,12,00,AAXX 24124 41886 01457 31004 10318 20260 39988 40008 70161 81530 333 10331 58000 70000 81618 83365==
41886,2023,06,24,15,00,AAXX 24154 41886 42450 50000 10290 20260 30005 40025 81530 333 59007 81618 85365==
41886,2023,06,24,18,00,AAXX 24184 41886 42450 50000 10286 20270 30023 40043 83470 333 58005 82618 84460==
41886,2023,06,24,21,00,AAXX 24214 41886 42450 60000 10276 20260 30015 40035 81570 333 58003 81618 85365==
41886,2023,06,25,00,00,AAXX 25004 41886 42457 30000 10272 20250 30015 40035 81530 333 58005 81618 83365==
41886,2023,06,25,03,00,AAXX 25034 41886 42457 61010 10310 20250 30030 40050 83570 333 20270 58006 83618 84460==
41886,2023,06,25,06,00,AAXX 25064 41886 42457 51206 10325 20250 30021 40041 83470 333 58007 82618 84460==
41886,2023,06,25,09,00,AAXX 25094 41886 42457 61205 10334 20250 39998 40018 85450 333 58004 84618 83365==
41886,2023,06,25,12,00,AAXX 25124 41886 21457 71302 10310 20270 39997 40017 70362 82370 333 10336 58008 60005 82618 86460 81930==
41886,2023,06,25,15,00,AAXX 25154 41886 42450 41403 10290 20260 30020 40040 81550 333 58012 81618 83365==
41886,2023,06,25,18,00,AAXX 25184 41886 42450 40000 10284 20250 30031 40051 81550 333 58008 81618 83365==
41886,2023,06,25,21,00,AAXX 25214 41886 42450 40000 10280 20250 30027 40047 81540 333 58012 81618 83365==
41886,2023,06,26,00,00,AAXX 26004 41886 42/56 20000 10276 20260 30021 40041 82040 333 58006 82365==
41886,2023,06,26,03,00,AAXX 26034 41886 42457 41406 10310 20240 30027 40047 84500 333 20272 59003 84617==
41886,2023,06,26,06,00,AAXX 26064 41886 42557 21306 10325 20250 30020 40040 82200 333 59001 82825==
41886,2023,06,26,09,00,AAXX 26094 41886 42558 51406 10335 20260 39992 40012 82230 333 59006 82825 85365==
41886,2023,06,26,12,00,AAXX 26124 41886 21457 30000 10288 20270 39994 40014 70162 81530 333 10335 59003 60035 70030 81618 83365==
41886,2023,06,26,15,00,AAXX 26154 41886 02450 20000 10285 20260 30015 40035 82500 333 59005 70030 82618==
41886,2023,06,26,18,00,AAXX 26184 41886 02450 61301 10285 20250 30023 40043 83570 333 59008 70030 83618 85460==
41886,2023,06,26,21,00,AAXX 26214 41886 02450 80000 10280 20250 30018 40038 8452/ 333 59009 70030 84616 88458==
41886,2023,06,27,00,00,AAXX 27004 41886 02356 80000 10270 20250 30013 40033 8672/ 333 59008 70030 84710 85616 88458==
41886,2023,06,27,03,00,AAXX 27034 41886 02356 81308 10286 20250 30028 40048 8672/ 333 20270 58001 70030 84710 85616 88458==
41886,2023,06,27,06,00,AAXX 27063 41886 01357 81303 10276 20260 30029 40049 72122 8561/ 333 58009 70010 83710 84616 88460==
41886,2023,06,27,09,00,AAXX 27094 41886 01357 81308 10275 20260 30010 40030 70262 8672/ 333 58018 70046 84710 85616 88458==
41886,2023,06,27,12,00,AAXX 27124 41886 01456 80000 10282 20250 30015 40035 70262 8452/ 333 10297 58021 70020 84616 88458==
41886,2023,06,27,15,00,AAXX 27154 41886 02450 71304 10276 20260 30035 40055 83510 333 58020 70020 83618 87460==
41886,2023,06,27,18,00,AAXX 27184 41886 02450 70000 10270 20250 30046 40066 83510 333 58023 70020 83618 87460==
41886,2023,06,27,21,00,AAXX 27214 41886 01350 80000 10270 20260 30037 40057 70262 8672/ 333 58019 70023 84710 85616 88458==
41886,2023,06,28,00,00,AAXX 28004 41886 11356 80000 10270 20260 30029 40049 69936 70262 8672/ 333 58016 70023 84710 85616 88458==
41886,2023,06,28,03,00,AAXX 28034 41886 02356 81306 10280 20260 30047 40067 8672/ 333 20265 58019 70023 84710 85616 88458==
41886,2023,06,28,06,00,AAXX 28064 41886 01350 81606 10272 20250 30054 40074 76122 8672/ 333 58025 70000 84710 85616 88458==
41886,2023,06,28,09,00,AAXX 28094 41886 01350 80000 10280 20260 30031 40051 76166 8572/ 333 58021 70077 82710 85616 88458==
41886,2023,06,28,12,00,AAXX 28124 41886 01450 80000 10270 20250 30036 40056 70262 8352/ 333 10283 58021 70090 83618 88460==
41886,2023,06,28,15,00,AAXX 28154 41886 02450 80000 10265 20250 30046 40066 8352/ 333 58011 70093 83618 88460==
41886,2023,06,28,18,00,AAXX 28184 41886 02450 80000 10262 20250 30051 40071 8352/ 333 58005 70093 83616 88460==
41886,2023,06,28,21,00,AAXX 28214 41886 02440 80000 10260 20250 30047 40067 8352/ 333 58010 70090 83616 88460==
41886,2023,06,29,00,00,AAXX 29004 41886 11350 80000 10258 20250 30033 40053 60332 76062 8632/ 333 58004 70420 82710 83618 88460 81930==
41886,2023,06,29,03,00,AAXX 29034 41886 01350 80000 10265 20250 30050 40070 76166 8652/ 333 20252 58003 70450 82710 83616 88460 81930==
41886,2023,06,29,06,00,AAXX 29064 41886 21350 80000 10267 20260 30044 40064 76166 8632/ 333 59010 60089 70500 82710 83616 88460 81930==
41886,2023,06,29,09,00,AAXX 29094 41886 01356 80000 10268 20260 30030 40050 76166 8632/ 333 59001 70440 82710 83618 88460 81930==
41886,2023,06,29,12,00,AAXX 29124 41886 01456 60000 10275 20250 30022 40042 70262 84470 333 10275 59014 70010 83618 85460==
41886,2023,06,29,15,00,AAXX 29154 41886 02450 60000 10267 20260 30037 40057 83570 333 59009 70420 83618 85460==
41886,2023,06,29,21,00,AAXX 29214 41886 02440 60000 10266 20260 30038 40058 83570 333 59010 70420 83616 85460==
41888,2023,06,23,00,00,AAXX 23004 41888 32440 70902 10264 20250 30035 40045 83510 333 56990 58003 70112 83618 87460=
41888,2023,06,23,06,00,AAXX 23064 41888 32456 50902 10313 20260 30033 40043 85400 333 56900 59012 70070 82618 83822=
41888,2023,06,23,12,00,AAXX 23124 41888 32557 20902 10315 20260 39995 40005 82100 333 10327 56900 59015 70000 82825=
41888,2023,06,23,18,00,AAXX 23184 41888 11440 70902 10280 20260 39927 49937 69906 70262 83520 333 56990 59006 79999 83618 87460=
41888,2023,06,24,00,00,AAXX 24004 41888 32450 80903 10275 20260 30019 40029 8352/ 333 56999 59016 79999 83618 88460=
41888,2023,06,24,06,00,AAXX 24064 41888 32457 40903 10312 20250 30021 40031 84400 333 56900 59012 79999 81618 83820=
41888,2023,06,24,12,00,AAXX 24124 41888 NIL=
41888,2023,06,25,00,00,AAXX 25004 41888 NIL=
41888,2023,06,25,06,00,AAXX 25064 41888 32456 50902 10315 20260 30031 40041 85400 333 56900 58010 70000 82618 83820=
41888,2023,06,25,12,00,AAXX 25124 41888 32456 70903 10310 20260 30004 40014 82570 333 10330 56990 58007 70000 82618 85460=
41888,2023,06,26,00,00,AAXX 26004 41888 32950 30902 10270 20250 30028 40038 83030 333 56900 58005 70000 83365=
41888,2023,06,26,06,00,AAXX 26064 41888 32456 60904 10320 20240 30030 40040 84410 333 56990 59001 70000 82618 83820 86460=
41888,2023,06,26,12,00,AAXX 26124 41888 32556 60902 10300 20260 30001 40011 82137 333 10335 56999 59003 70000 82825 83365 86275=
41888,2023,06,26,18,00,AAXX 26184 41888 11430 81802 10256 20250 30032 40042 60035 70362 8452/ 333 56999 58000 70026 84618 88460=
41888,2023,06,27,00,00,AAXX 27004 41888 11440 81102 10265 20250 30021 40031 60026 70262 8352/ 333 56999 59007 70048 83618 88460=
41888,2023,06,27,06,00,AAXX 27063 41888 32456 61104 10300 20260 30032 40042 84420 333 56990 58002 70048 83618 86460=
41888,2023,06,27,12,00,AAXX 27124 41888 11450 80902 10275 20270 30025 40035 60163 76162 8532/ 333 10310 56299 58024 70208 81710 83616 81928 88459=
41888,2023,06,27,18,00,AAXX 27184 41888 11440 80502 10270 20260 30055 40065 60126 70362 8352/ 333 56999 58023 70302 83615 88460=
41888,2023,06,28,00,00,AAXX 28004 41888 11440 80902 10265 20260 30042 40052 60055 70262 8352/ 333 56999 58021 70330 83618 88460=
41888,2023,06,28,06,00,AAXX 28064 41888 NIL=
41888,2023,06,28,12,00,AAXX 28124 41888 11456 80904 10260 20250 30047 40057 60289 70265 8452/ 333 10302 56299 58022 70593 84618 88460=
41888,2023,06,28,18,00,AAXX 28184 41888 32440 80902 10265 20260 30060 40070 8352/ 333 56999 58005 70473 83618 88460=
41888,2023,06,29,00,00,AAXX 29004 41888 11330 81803 10255 20255 30042 40052 60609 76362 8632/ 333 56499 58000 71023 82708 83612 81927 88557=
41888,2023,06,29,06,00,AAXX 29064 41888 11440 81303 10258 20250 30053 40063 60169 76196 8532/ 333 56499 59006 71040 84615 81930 88459=
41888,2023,06,29,12,00,AAXX 29124 41888 11450 82301 10270 20250 30030 40040 60058 70262 8352/ 333 10274 56999 59017 70990 83618 88460=
41891,2023,06,23,00,00,AAXX 23004 41891 21430 80704 10257 20250 30012 40050 70596 8532/ 333 59004 60028 70026 84710 88459 81930==
41891,2023,06,23,03,00,AAXX 23034 41891 01440 80902 10280 20260 30022 40060 70522 8532/ 333 20256 58000 70026 82710 84615 88459 81930==
41891,2023,06,23,06,00,AAXX 23064 41891 01445 71304 10312 20240 30011 40049 70522 83370 333 59009 70025 84615 86460 81930==
41891,2023,06,23,09,00,AAXX 23094 41891 01445 70502 10315 20270 39979 40016 70522 84370 333 59018 70020 84615 86460 81930==
41891,2023,06,23,12,00,AAXX 23124 41891 01440 60502 10320 20260 39972 40009 70522 83340 333 10338 59018 70020 83615 85365 81930==
41891,2023,06,23,15,00,AAXX 23154 41891 01320 81703 10268 20260 30006 40044 76122 8632/ 333 58000 70020 86708 88458 81925==
41891,2023,06,23,18,00,AAXX 23184 41891 21430 80503 10258 20250 30007 40045 70562 8532/ 333 59009 69945 70024 82710 84615 88459 81930==
41891,2023,06,23,21,00,AAXX 23214 41891 01430 80503 10262 20250 39998 40036 70522 8532/ 333 59016 70004 81710 84615 88460 81930==
41891,2023,06,24,00,00,AAXX 24004 41891 01430 80504 10265 20260 39999 40037 70522 8532/ 333 59013 70004 81710 84615 88460 81930==
41891,2023,06,24,03,00,AAXX 24034 41891 01435 80903 10290 20260 30008 40046 70522 8532/ 333 20255 59014 70004 82710 84615 88459 81930==
41891,2023,06,24,06,00,AAXX 24064 41891 01445 71302 10324 20230 39999 40036 70522 84370 333 59012 70004 84615 86460 81930==
41891,2023,06,24,09,00,AAXX 24094 41891 01450 61802 10340 20240 39975 40012 70522 83340 333 59004 70004 83615 85365 81930==
41891,2023,06,24,12,00,AAXX 24124 41891 01440 60522 10320 20250 30000 40037 70522 83340 333 10358 58028 70004 83615 85365 81930==
41891,2023,06,24,15,00,AAXX 24154 41891 01330 83404 10282 20260 39994 40032 76022 8532/ 333 59012 70009 82708 82616 88458 81928==
41891,2023,06,24,18,00,AAXX 24184 41891 21430 82604 10285 20260 30008 40046 70562 8532/ 333 58001 69955 70005 82710 82616 88459 81930==
41891,2023,06,24,21,00,AAXX 24214 41891 01430 80904 10278 20260 30001 40039 70522 8532/ 333 58003 70005 82710 82616 88459 81930==
41891,2023,06,25,00,00,AAXX 25004 41891 01440 80505 10270 20260 30005 40043 70522 8532/ 333 59003 70005 81710 83616 88459 81930==
41891,2023,06,25,03,00,AAXX 25034 41891 01440 60502 10310 20250 30016 40054 72162 83340 333 20270 58008 70007 83615 85365 81930==
41891,2023,06,25,06,00,AAXX 25064 41891 11445 61304 10334 20250 30006 40043 69921 70562 83340 333 58007 70007 83615 85365 81930==
41891,2023,06,25,09,00,AAXX 25094 41891 01445 62704 10332 20240 39986 40023 70522 83340 333 58011 70007 83615 85365 81930==
41891,2023,06,25,12,00,AAXX 25124 41891 01440 60502 10312 20250 39982 40020 70522 83370 333 10350 59018 70007 83615 85460 81930==
41891,2023,06,25,15,00,AAXX 25154 41891 01430 80802 10278 20260 30006 40044 72992 8532/ 333 58012 70002 81710 84615 88459 81930==
41891,2023,06,25,18,00,AAXX 25184 41891 01430 80204 10270 20250 30019 40057 70592 8532/ 333 58011 70002 81710 84615 88459 81930==
41891,2023,06,26,00,00,AAXX 26004 41891 01430 80604 10268 20250 30006 40044 70522 8532/ 333 58001 70002 81710 84615 88459 81930==
41891,2023,06,26,03,00,AAXX 26034 41891 01440 71303 10314 20250 30015 40053 70522 84370 333 20264 59001 70000 84615 86460 81930==
41891,2023,06,26,06,00,AAXX 26064 41891 01450 50902 10343 20240 30000 40037 70522 83340 333 59006 70000 82615 84365 81930==
41891,2023,06,26,09,00,AAXX 26094 41891 01450 51202 10332 20260 39978 40015 70522 83340 333 59008 70000 82615 84365 81930==
41891,2023,06,26,12,00,AAXX 26124 41891 01440 62702 10320 20260 39980 40017 70522 83340 333 10365 59002 70000 83615 85365 81930==
41891,2023,06,26,15,00,AAXX 26154 41891 01430 72604 10300 20250 30005 40043 70522 8532/ 333 59001 70000 81710 83616 87459 81930==
41891,2023,06,26,18,00,AAXX 26184 41891 21430 81804 10282 20240 30013 40051 70562 8532/ 333 59006 60025 70020 83710 81616 88459 81930==
41891,2023,06,26,21,00,AAXX 26214 41891 01430 81504 10275 20260 30001 40039 70522 8532/ 333 59012 70020 83710 81616 88459 81930==
41891,2023,06,27,00,00,AAXX 27004 41891 01440 81004 10267 20260 30006 40044 70522 8632/ 333 58000 70020 84710 81616 88459 81930==
41891,2023,06,27,03,00,AAXX 27034 41891 02440 70902 10300 20250 30018 40056 84370 333 20265 58003 70024 84615 88460 81930==
41891,2023,06,27,06,00,AAXX 27064 41891 11440 81304 10310 20250 30017 40055 69941 70562 8532/ 333 58017 70024 81710 84615 88459 81930==
41891,2023,06,27,09,00,AAXX 27094 41891 01440 82709 10281 20240 39999 40037 70522 8532/ 333 58021 70024 82710 84615 88459 81930==
41891,2023,06,27,12,00,AAXX 27124 41891 21320 80504 10262 20250 30011 40049 76162 8632/ 333 10330 58031 60157 70176 86707 88458 81925==
41891,2023,06,27,15,00,AAXX 27154 41891 01430 80502 10260 20250 30030 40069 70562 8532/ 333 58025 70191 81710 84615 88459 81930==
41891,2023,06,27,18,00,AAXX 27184 41891 11430 80000 10265 20260 30037 40075 60026 70562 8532/ 333 58024 70191 81710 84615 88459 81930==
41891,2023,06,27,21,00,AAXX 27214 41891 01430 80000 10263 20250 30033 40072 70522 8532/ 333 58032 70171 81710 84615 88459 81930==
41891,2023,06,28,00,00,AAXX 28004 41891 01435 80902 10260 20250 30022 40060 72162 8532/ 333 58016 70090 81710 84615 88459 81930==
41891,2023,06,28,03,00,AAXX 28034 41891 01320 80503 10259 20250 30045 40084 76162 8632/ 333 20256 58027 70315 86707 88458 81925==
41891,2023,06,28,06,00,AAXX 28064 41891 21320 80503 10280 20260 30043 40081 76166 8632/ 333 58026 60157 70401 86707 88458 81925==
41891,2023,06,28,09,00,AAXX 28094 41891 01445 53104 10312 20240 30014 40052 70562 83340 333 58015 70406 82615 84365 81930==
41891,2023,06,28,12,00,AAXX 28124 41891 21330 80204 10253 20240 30023 40061 76162 8632/ 333 10315 58012 60187 70434 85708 88458 81928==
41891,2023,06,28,15,00,AAXX 28154 41891 01330 80904 10255 20250 30035 40073 76066 8632/ 333 58005 74590 85708 88458 81928==
41891,2023,06,28,18,00,AAXX 28184 41891 21330 81604 10260 20250 30040 40078 76066 8632/ 333 58003 60049 74590 85708 88458 81928==
41891,2023,06,28,21,00,AAXX 28214 41891 01330 81204 10253 20250 30026 40064 76066 8632/ 333 59007 70539 85708 88458 81928==
41891,2023,06,29,00,00,AAXX 29004 41891 21330 81104 10260 20250 30022 40060 76066 8532/ 333 58000 60169 74533 84708 88458 81928==
41891,2023,06,29,03,00,AAXX 29034 41891 01440 80902 10280 20260 30036 40074 72162 8532/ 333 20252 59009 70476 81710 84615 88459 81930==
41891,2023,06,29,06,00,AAXX 29064 41891 01320 82705 10256 20250 30027 40066 79562 8632/ 333 59016 70180 86707 88458 81925==
41891,2023,06,29,09,00,AAXX 29094 41891 01320 81803 10256 20250 30014 40052 79596 8632/ 333 58000 70651 86707 88458 81925==
41891,2023,06,29,12,00,AAXX 29124 41891 21440 82703 10260 20250 30002 40040 70596 8532/ 333 10295 59021 60129 70506 81710 84615 88459 81930==
41891,2023,06,29,15,00,AAXX 29154 41891 01430 80000 10257 20250 30020 40058 70522 8532/ 333 59015 70466 81710 84615 88459 81930==
41891,2023,06,29,18,00,AAXX 29184 41891 01430 80703 10255 20250 30022 40060 70522 8532/ 333 59018 70466 81710 83616 88459 81930==
41891,2023,06,29,21,00,AAXX 29214 41891 01430 80703 10255 20250 30020 40050 70522 8532/ 333 59021 70466 81710 83616 88459 81930==
41895,2023,06,23,00,00,AAXX 23004 41895 02450 50902 10270 20260 30013 40036 83520 333 58008 70001 83616 85458==
41895,2023,06,23,03,00,AAXX 23034 41895 02456 51303 10314 20260 30018 40040 83510 333 20265 58009 70001 83616 85458==
41895,2023,06,23,06,00,AAXX 23064 41895 02456 61302 10318 20270 30009 40031 84410 333 58002 70001 83616 86458==
41895,2023,06,23,09,00,AAXX 23094 41895 02556 31204 10344 20270 39979 40000 83100 333 59008 70001 83825==
41895,2023,06,23,12,00,AAXX 23124 41895 02556 20000 10339 20270 39972 49993 82100 333 10362 59011 70000 82825==
41895,2023,06,23,15,00,AAXX 23154 41895 02956 01502 10296 20270 39990 40012 333 59014 70000==
41895,2023,06,23,18,00,AAXX 23184 41895 02956 01802 10277 20260 39997 40019 333 59017 70000==
41895,2023,06,23,21,00,AAXX 23214 41895 02956 01202 10268 20268 39988 40010 333 59015 70000==
41895,2023,06,24,00,00,AAXX 24004 41895 02450 40403 10273 20270 39991 40013 82520 333 59022 70000==
41895,2023,06,24,03,00,AAXX 24034 41895 02456 60904 10291 20270 30001 40023 83520 333 20268 59017 70000 83616 86458==
41895,2023,06,24,06,00,AAXX 24064 41895 02456 61504 10329 20270 39994 40016 83420 333 59015 70000 82616 85458==
41895,2023,06,24,09,00,AAXX 24094 41895 02457 31304 10334 20270 39979 40001 83500 333 58000 70000 83616==
41895,2023,06,24,12,00,AAXX 24124 41895 02456 61305 10320 20270 39970 49992 83520 333 10350 59002 70000 83616 86458==
41895,2023,06,24,15,00,AAXX 24154 41895 02450 30902 10300 20270 39990 40012 83500 333 58000 70000 83616==
41895,2023,06,24,18,00,AAXX 24184 41895 02450 20903 10280 20260 39999 40021 82500 333 58002 70000 82617==
41895,2023,06,24,21,00,AAXX 24214 41895 02450 50902 10275 20270 39996 40018 83520 333 58008 70000 83616 85458==
41895,2023,06,25,00,00,AAXX 25004 41895 02450 81304 10270 20260 39990 40012 8352/ 333 59001 70000 83616 88458==
41895,2023,06,25,03,00,AAXX 25034 41895 02456 60906 10304 20260 39999 40021 83510 333 20265 59002 70000 83616 86458==
41895,2023,06,25,06,00,AAXX 25064 41895 02457 40908 10334 20260 39994 40016 84800 333 58000 70000 82616 83825==
41895,2023,06,25,09,00,AAXX 25094 41895 02456 81305 10338 20260 39975 49996 8532/ 333 59004 70000 84615 88458 81928==
41895,2023,06,25,12,00,AAXX 25124 41895 02450 80904 10330 20260 39972 49994 8532/ 333 10360 58002 70000 84615 88458 81928==
41895,2023,06,25,15,00,AAXX 25154 41895 02450 40904 10292 20260 39996 40018 84500 333 58006 70000 84616==
41895,2023,06,25,21,00,AAXX 25214 41895 02450 50904 10274 20250 39992 40014 83520 333 59004 70000 83615 85458==
41895,2023,06,26,00,00,AAXX 26004 41895 02450 50903 10269 20260 39986 40009 83520 333 59004 70000 83615 85458==
41895,2023,06,26,03,00,AAXX 26034 41895 02350 80906 10294 20260 30002 40024 8562/ 333 20267 58003 70000 82710 84615 88458==
41895,2023,06,26,06,00,AAXX 26064 41895 02456 60908 10332 20260 39996 40018 84410 333 58002 70000 83616 85458==
41895,2023,06,26,09,00,AAXX 26094 41895 02456 60903 10313 20270 39972 49994 83420 333 59003 70034 83615 86458==
41895,2023,06,26,12,00,AAXX 26124 41895 11456 60904 10302 20260 39993 49995 60036 70262 84420 333 10350 58001 70034 83615 88458==
41895,2023,06,26,15,00,AAXX 26154 41895 01456 50903 10263 20260 39994 40016 70262 83520 333 59002 70098 83616 85458==
41895,2023,06,26,18,00,AAXX 26184 41895 11456 60903 10264 20250 39999 40021 60066 70262 83520 333 59001 70098 83616 86458==
41895,2023,06,26,21,00,AAXX 26214 41895 02450 50902 10264 20250 39993 40015 83520 333 58001 70098 83616 85458==
41895,2023,06,27,00,00,AAXX 27004 41895 02450 60903 10264 20250 39987 40009 83520 333 58001 70098 83616 86458==
41895,2023,06,27,03,00,AAXX 27034 41895 02450 80903 10284 20260 39999 40021 8452/ 333 20259 59003 70098 84615 88458==
41895,2023,06,27,06,00,AAXX 27063 41895 01450 80902 10310 20260 39996 40018 70262 8452/ 333 58000 70001 84615 88458==
41895,2023,06,27,09,00,AAXX 27094 41895 01456 81304 10295 20280 39984 40006 76162 8452/ 333 58012 70135 84615 88458==
41895,2023,06,27,12,00,AAXX 27124 41895 21450 81304 10290 20270 39988 40010 70262 8452/ 333 10316 58015 60078 70135 84615 88458==
41895,2023,06,27,15,00,AAXX 27154 41895 02450 80902 10280 20260 30008 40030 8352/ 333 58014 70071 83616 88458==
41895,2023,06,27,18,00,AAXX 27184 41895 02450 81304 10275 20270 30021 40044 8352/ 333 58022 70071 83616 88458==
41895,2023,06,27,21,00,AAXX 27214 41895 01440 80502 10265 20265 30009 40031 76322 8452/ 333 58016 70196 84613 88458==
41895,2023,06,28,00,00,AAXX 28004 41895 21450 80501 10255 20255 30009 40031 70262 8452/ 333 58022 60235 70296 84615 88458==
41895,2023,06,28,03,00,AAXX 28034 41895 02450 80903 10280 20260 30021 40044 8452/ 333 20250 58022 70296 84615 88458==
41895,2023,06,28,06,00,AAXX 28064 41895 02450 81306 10290 20270 30027 40050 8452/ 333 58031 70295 84615 88458==
41895,2023,06,28,09,00,AAXX 28094 41895 02450 80903 10300 20270 30000 40022 8452/ 333 58016 70225 84615 88458==
41895,2023,06,28,12,00,AAXX 28124 41895 02450 81302 10288 20270 30003 40025 8452/ 333 10305 58015 70225 84615 88458==
41895,2023,06,28,15,00,AAXX 28154 41895 01450 81302 10262 20250 30026 40048 70262 8452/ 333 58018 70233 84615 88458==
41895,2023,06,28,18,00,AAXX 28184 41895 11450 80902 10262 20260 30031 40054 60016 70262 8452/ 333 58010 70233 84615 88458==
41895,2023,06,28,21,00,AAXX 28214 41895 01450 80902 10264 20260 30011 40033 76166 8452/ 333 58002 70118 84615 88458==
41895,2023,06,29,00,00,AAXX 29004 41895 21450 80901 10262 20262 30013 40035 70262 8452/ 333 58004 60015 70018 84615 88458==
41895,2023,06,29,03,00,AAXX 29034 41895 02456 71302 10294 20270 30028 40051 83570 333 20258 58007 70018 83616 85458==
41895,2023,06,29,06,00,AAXX 29064 41895 01450 81302 10320 20280 30028 40050 72122 8532/ 333 58001 70002 84615 88458 81930==
41895,2023,06,29,09,00,AAXX 29094 41895 01456 61503 10286 20270 39994 40016 70252 84520 333 59006 70022 84616 86458==
41895,2023,06,29,12,00,AAXX 29124 41895 11456 81204 10293 20270 30004 40026 69926 70252 8452/ 333 10320 58001 70022 84615 88458==
41895,2023,06,29,15,00,AAXX 29154 41895 02456 81502 10279 20270 30016 40039 8452/ 333 59010 70022 84616 88458==
41895,2023,06,29,18,00,AAXX 29184 41895 02450 81203 10274 20260 30018 40040 8452/ 333 59013 70022 84616 88458==
41895,2023,06,29,21,00,AAXX 29214 41895 02450 81502 10273 20270 30011 40033 8452/ 333 58000 70004 84616 88458==
41897,2023,06,23,00,00,AAXX 23004 41897 32440 60902 10265 20260 30024 40037 82510 333 56990 58004 70045 82618 86458=
41897,2023,06,23,06,00,AAXX 23064 41897 32450 51302 10320 20260 30022 40035 82510 333 56990 58006 70035 82618 85458=
41897,2023,06,23,12,00,AAXX 23124 41897 32450 21803 10310 20260 30002 40015 82500 333 10340 56400 58006 70005 82618=
41897,2023,06,23,18,00,AAXX 23184 41897 32940 01302 10280 20260 30032 40045 333 58002 70000=
41897,2023,06,24,00,00,AAXX 24004 41897 32440 80903 10270 20260 30003 40016 8352/ 333 56999 59021 70000 83617 88458=
41897,2023,06,24,06,00,AAXX 24064 41897 11450 60503 10315 20270 30006 40019 60046 70262 82510 333 56290 59016 70040 82617 86458=
41897,2023,06,24,12,00,AAXX 24124 41897 11456 50901 10312 20260 39982 49995 60014 70262 81530 333 10335 56990 59020 70045 81617 85361=
41897,2023,06,24,18,00,AAXX 24184 41897 32950 00000 10280 20250 30015 40028 333 59017 70045=
41897,2023,06,25,00,00,AAXX 25004 41897 32456 50902 10320 20250 30011 40024 81510 333 56290 58005 70005 81618 85458=
41897,2023,06,25,06,00,AAXX 25064 41897 32456 50902 10320 20250 30011 40024 81510 333 56290 58005 70005 81618 85458=
41897,2023,06,25,12,00,AAXX 25124 41897 11456 50901 10316 20260 39985 49998 60015 70262 81510 333 10332 56990 58003 70010 81618 85458=
41897,2023,06,25,18,00,AAXX 25184 41897 32950 10901 10280 20250 30013 40026 81030 333 56090 59002 70010 81361=
41897,2023,06,26,00,00,AAXX 26004 41897 32450 60901 10270 20250 30008 40021 81530 333 56990 58001 70010 81618 86361=
41897,2023,06,26,06,00,AAXX 26064 41897 32456 60902 10315 20260 30011 40024 82510 333 56990 59000 70010 82618 86458=
41897,2023,06,26,12,00,AAXX 26124 41897 11456 60901 10280 20260 39988 40001 60054 72162 82510 333 10325 56990 58003 70050 82617 86458=
41897,2023,06,26,18,00,AAXX 26184 41897 32450 60901 10272 20250 30016 40029 82530 333 56990 58003 70050 82618 86361=
41897,2023,06,27,00,00,AAXX 27004 41897 32450 70901 10270 20250 30002 40015 82510 333 56990 59006 70050 82618 87458=
41897,2023,06,27,06,00,AAXX 27063 41897 11456 60901 10294 20260 30007 40020 60014 72122 82510 333 56990 59004 70060 82618 86458=
41897,2023,06,27,12,00,AAXX 27124 41897 32456 60901 10284 20240 30014 40027 82510 333 10304 56990 58032 70010 82618 86458=
41897,2023,06,27,18,00,AAXX 27184 41897 NIL=
41897,2023,06,28,00,00,AAXX 28004 41897 11350 80000 10266 20260 30025 40038 60084 76162 8372/ 333 56999 58023 70090 83707 82458=
41897,2023,06,28,06,00,AAXX 28064 41897 11350 80000 10276 20260 30028 40041 60039 76162 8372/ 333 56999 58021 70108 83707 88458=
41897,2023,06,28,12,00,AAXX 28124 41897 11445 81502 10275 20260 30024 40037 69926 70252 8352/ 333 10282 56999 58010 70110 83616 88458=
41897,2023,06,28,18,00,AAXX 28184 41897 NIL=
41897,2023,06,29,00,00,AAXX 29004 41897 32435 80000 10265 20260 30031 40044 8352/ 56999 58006 70030 83615 88458=
41897,2023,06,29,06,00,AAXX 29064 41897 11435 81702 10280 20260 30036 40049 60284 70262 8352/ 333 56999 58008 70282 83615 88458=
41897,2023,06,29,12,00,AAXX 29124 41897 11440 81702 10278 20260 30032 40045 60106 70262 8352/ 333 10281 56499 59002 70380 83615 88458=
41897,2023,06,29,18,00,AAXX 29184 41897 32435 81301 10270 20250 30035 40048 8352/ 333 56999 59014 70380 83615 88458=
41902,2023,06,23,00,00,AAXX 23004 41902 32440 30501 10272 20250 30035 40044 82530 333 56530 58002 70000 82615=
41902,2023,06,23,06,00,AAXX 23064 41902 32456 31002 10334 20270 30027 40035 82530 333 56530 59009 70000 82615=
41902,2023,06,23,12,00,AAXX 23124 41902 32456 80803 10287 20260 39995 40003 8442/ 10345 56999 59016 70000 83614 88458=
41902,2023,06,24,00,00,AAXX 24004 41902 32950 01403 10270 20250 30012 40021 333 59023 70000=
41902,2023,06,24,06,00,AAXX 24064 41902 32456 70702 10327 20270 30014 40022 84310 333 56990 59013 70000 82614 81929 87459=
41902,2023,06,24,12,00,AAXX 24124 41902 32456 41404 10312 20250 30000 40009 83420 333 10345 56999 58005 70000 82616 84458=
41902,2023,06,25,00,00,AAXX 25004 41902 32940 01404 10275 20260 30024 40032 333 58012 70000=
41902,2023,06,25,06,00,AAXX 25064 41902 32456 42801 10340 20260 30032 40041 83440 333 56490 58018 70000 83616 84458=
41902,2023,06,25,12,00,AAXX 25124 41902 32450 61303 10306 20270 30002 40010 83430 333 10345 56390 58002 70000 82614 85362=
41902,2023,06,26,00,00,AAXX 26004 41902 32450 30902 10273 20240 30023 40031 82430 333 56290 59001 70000 82614=
41902,2023,06,26,06,00,AAXX 26064 41902 32456 40903 10327 20260 30018 40026 82430 333 56290 59014 70000 82614 83362=
41902,2023,06,26,12,00,AAXX 26124 41902 32456 51802 10304 20240 30001 40010 83430 333 10342 56490 59001 70000 82614 83362=
41902,2023,06,26,18,00,AAXX 26184 41902 NIL=
41902,2023,06,27,00,00,AAXX 27004 41902 32440 50902 10266 20250 30018 40026 83430 333 56290 59005 70000 82614 84362=
41902,2023,06,27,06,00,AAXX 27063 41902 11340 80904 10273 20250 30025 40033 60041 76362 8462/ 333 56299 58007 70036 82708 83613 88459=
41902,2023,06,27,12,00,AAXX 27124 41902 11450 41303 10286 20250 30020 40028 60016 70262 83430 333 10307 56390 58019 70046 82614 83362=
41902,2023,06,27,18,00,AAXX 27184 41902 32440 40902 10270 20250 30033 40041 82430 333 56290 58009 70046 82614 83362=
41902,2023,06,28,00,00,AAXX 28004 41902 32340 61305 10271 20250 30038 40047 83630 333 56390 58020 70046 82708 83613 85362=
41902,2023,06,28,06,00,AAXX 28064 41902 11330 81703 10286 20270 30051 40059 60098 70262 8462/ 333 56499 58026 70100 82708 83613 88459=
41902,2023,06,28,12,00,AAXX 28124 41902 11330 80000 10260 20250 30041 40049 60138 70262 8462/ 333 10297 56999 58021 70220 82708 83613 88459=
41902,2023,06,28,18,00,AAXX 28184 41902 32430 61703 10270 20260 30038 40046 83430 333 56490 58005 70220 82614 85362=
41902,2023,06,29,00,00,AAXX 29004 41902 11330 81702 10272 20260 30028 40037 60097 70262 8462/ 333 56499 59010 70310 82708 83613 88459=
41902,2023,06,29,06,00,AAXX 29064 41902 11320 81702 10250 20240 30049 40058 60959 76562 8572/ 333 56499 59002 71168 83707 83612 88458=
41902,2023,06,29,12,00,AAXX 29124 41902 11430 61701 10274 20250 30028 40037 60068 70162 84430 333 10275 56490 59013 71098 82613 85362=
41907,2023,06,23,00,00,AAXX 23004 41907 02440 70000 10262 20250 30005 40020 85510 333 58006 70302 85615 87458==
41907,2023,06,23,03,00,AAXX 23034 41907 02450 70902 10310 20270 30020 40034 85810 333 20257 58005 70302 82615 83825 85458==
41907,2023,06,23,06,00,AAXX 23064 41907 02450 71802 10325 20260 30009 40023 86810 333 59001 70302 84615 83825 86458==
41907,2023,06,23,09,00,AAXX 23094 41907 02450 71802 10345 20260 39984 49998 86810 333 59021 70302 84615 83825 86458==
41907,2023,06,23,12,00,AAXX 23124 41907 02950 01302 10337 20260 39968 49982 333 10350 59020 70000==
41907,2023,06,23,15,00,AAXX 23154 41907 02940 01302 10288 20250 39989 40004 333 59013 70000==
41907,2023,06,23,18,00,AAXX 23184 41907 02940 01302 10280 20260 30001 40016 333 59008 70000==
41907,2023,06,23,21,00,AAXX 23214 41907 02440 51302 10274 20260 39994 40009 83510 333 59009 70000 83615 84458==
41907,2023,06,24,00,00,AAXX 24004 41907 02340 81302 10275 20260 39987 40001 8662/ 333 59018 70000 82709 85615 88458==
41907,2023,06,24,03,00,AAXX 24034 41907 02450 71802 10295 20270 30002 40016 85810 333 20268 59018 70000 82615 83825 85458==
41907,2023,06,24,06,00,AAXX 24064 41907 02450 41802 10340 20260 39995 40009 84800 333 59014 70000 82615 83825==
41907,2023,06,24,09,00,AAXX 24094 41907 02450 41802 10350 20260 39978 49992 84800 333 59006 70000 82615 83825==
41907,2023,06,24,12,00,AAXX 24124 41907 02450 43102 10325 20270 39970 49984 84800 333 10352 58002 70000 82615==
41907,2023,06,24,15,00,AAXX 24154 41907 02440 73102 10300 20270 39989 40004 85810 333 59001 70000 82615 83825 86458==
41907,2023,06,24,18,00,AAXX 24184 41907 02440 41302 10288 20270 30001 40016 84500 333 58000 70000 84615==
41907,2023,06,24,21,00,AAXX 24214 41907 02440 40000 10275 20270 39992 40007 84500 333 59002 70000 84615==
41907,2023,06,25,00,00,AAXX 25004 41907 02330 81302 10274 20260 39985 49999 8662/ 333 59002 70000 82709 86615 88458==
41907,2023,06,25,03,00,AAXX 25034 41907 02350 81302 10300 20250 39997 40012 8662/ 333 20268 58010 70000 82709 85615 88458==
41907,2023,06,25,06,00,AAXX 25064 41907 02450 61304 10335 20260 39993 40007 86800 333 59009 70000 85615==
41907,2023,06,25,09,00,AAXX 25094 41907 01456 40902 10302 20280 39979 49994 72122 84800 333 58001 70060 82615==
41907,2023,06,25,12,00,AAXX 25124 41907 21450 41804 10320 20240 39974 49988 70261 84800 333 10355 58004 60065 70060 82615 83825==
41907,2023,06,25,15,00,AAXX 25154 41907 02440 71802 10245 20250 39992 40007 85510 333 58003 70060 85615 87458==
41907,2023,06,25,18,00,AAXX 25184 41907 02440 71302 10280 20260 30004 40019 85510 333 58003 70060 85615 87458==
41907,2023,06,25,21,00,AAXX 25214 41907 02440 61302 10275 20260 39998 40013 83510 333 58006 70060 83615 86458==
41907,2023,06,26,00,00,AAXX 26004 41907 02340 81302 10272 20250 39991 40006 8662/ 333 58006 70060 82709 85615 88458==
41907,2023,06,26,03,00,AAXX 26034 41907 02350 81302 10295 20260 30000 40015 8662/ 333 20267 58003 70060 82709 85615 88458==
41907,2023,06,26,06,00,AAXX 26064 41907 01350 81302 10300 20270 39996 40011 72122 8662/ 333 58003 70030 82709 85615 88458==
41907,2023,06,26,09,00,AAXX 26094 41907 01350 81802 10290 20270 39981 49996 72122 8661/ 333 58002 70047 82709 84615 88458==
41907,2023,06,26,12,00,AAXX 26124 41907 21340 80908 10300 20260 39976 49991 70262 8662/ 333 10330 58002 60025 70047 85709 88458==
41907,2023,06,26,15,00,AAXX 26154 41907 01340 80000 10275 20250 39997 40011 70262 8662/ 333 58005 70050 85709 88458==
41907,2023,06,26,18,00,AAXX 26184 41907 11340 80000 10265 20260 30005 40019 69936 70262 8662/ 333 58001 70050 85709 88458==
41907,2023,06,26,21,00,AAXX 26214 41907 02340 80000 10260 20260 39994 40008 8662/ 333 59004 70050 85709 88458==
41907,2023,06,27,00,00,AAXX 27004 41907 02340 80902 10263 20250 39989 40003 8662/ 333 59002 70050 82709 85615 88458==
41907,2023,06,27,03,00,AAXX 27034 41907 02340 81304 10285 20270 30005 40020 8662/ 333 20255 58005 70050 85709 88458==
41907,2023,06,27,06,00,AAXX 27064 41907 01350 61802 10300 20260 30002 40012 72162 85610 333 58006 70028 82709 83615 85458==
41907,2023,06,27,09,00,AAXX 27094 41907 02450 61802 10310 20260 39983 49998 84810 333 58002 70013 82615 83825 85458==
41907,2023,06,27,12,00,AAXX 27124 41907 21350 81302 10285 20270 39991 40005 70362 8662/ 333 10315 58015 60015 70026 85709 88458==
41907,2023,06,27,15,00,AAXX 27154 41907 02340 81302 10280 20260 30007 40022 8662/ 333 58010 70023 85709 88458==
41907,2023,06,27,18,00,AAXX 27184 41907 02340 81302 10274 20260 30017 40032 8662/ 333 58012 70023 85709 88458==
41907,2023,06,27,21,00,AAXX 27214 41907 02340 81302 10265 20260 30009 40024 8662/ 333 58015 70023 85709 88458==
41907,2023,06,28,00,00,AAXX 28004 41907 21340 81302 10255 20255 30007 40022 70262 8662/ 333 58018 60357 70353 85709 88458==
41907,2023,06,28,03,00,AAXX 28034 41907 02345 81802 10275 20260 30027 40042 8662/ 333 20250 58022 70373 85709 88458==
41907,2023,06,28,06,00,AAXX 28064 41907 01340 81802 10265 20260 30035 40050 76122 8672/ 333 58033 70040 85709 88458==
41907,2023,06,28,09,00,AAXX 28094 41907 01340 81802 10285 20260 30008 40023 70262 8662/ 333 58025 70570 85709 88458==
41907,2023,06,28,12,00,AAXX 28124 41907 01350 81802 10280 20260 30012 40027 70262 8662/ 333 10288 58021 70170 85709 88458==
41907,2023,06,28,15,00,AAXX 28154 41907 02340 81302 10270 20250 30025 40040 8662/ 333 58018 70557 85709 88458==
41907,2023,06,28,18,00,AAXX 28184 41907 02340 81302 10265 20260 30034 40049 8662/ 333 58017 70557 85709 88458==
41907,2023,06,28,21,00,AAXX 28214 41907 02340 80000 10264 20250 30024 40039 8662/ 333 58015 70557 85709 88458==
41907,2023,06,29,00,00,AAXX 29004 41907 02340 80000 10264 20250 30016 40031 8662/ 333 58009 70207 85709 88458==
41907,2023,06,29,03,00,AAXX 29034 41907 02345 81802 10285 20280 30031 40046 8662/ 333 20255 58004 70207 85709 88458==
41907,2023,06,29,06,00,AAXX 29064 41907 01340 81802 10265 20260 30034 40049 79722 8692/ 333 59001 70230 85709 88458 81930==
41907,2023,06,29,09,00,AAXX 29094 41907 01350 81303 10270 20260 30008 40022 72996 8672/ 333 58000 70575 85709 88458==
41907,2023,06,29,12,00,AAXX 29124 41907 21350 81302 10286 20270 30005 40019 70296 8662/ 333 10310 59007 60358 70575 83709 84615 88458==
41907,2023,06,29,15,00,AAXX 29154 41907 02340 81802 10273 20260 30020 40035 8662/ 333 59005 70575 85709 88458==
41907,2023,06,29,18,00,AAXX 29184 41907 02340 81802 10267 20260 30023 40038 8662/ 333 59011 70575 85709 88458==
41907,2023,06,29,21,00,AAXX 29214 41907 02340 81802 10272 20260 30014 40029 8662/ 333 59010 70575 85709 88458==
41909,2023,06,23,00,00,AAXX 23004 41909 02456 40000 10268 20260 30023 40034 82530 333 58000 70010 82615 84360==
41909,2023,06,23,03,00,AAXX 23034 41909 01450 80000 10288 20260 30035 40046 76162 8552/ 333 20255 58006 70020 85614 88458==
41909,2023,06,23,06,00,AAXX 23064 41909 21456 80000 10325 20270 30022 40033 70262 8552/ 333 59008 60037 70030 85614==
41909,2023,06,23,09,00,AAXX 23094 41909 01456 50000 10330 20260 39993 40004 70162 82330 333 59028 70031 82615 83365 81930==
41909,2023,06,23,12,00,AAXX 23124 41909 11456 31802 10315 20260 39988 49999 69916 70162 83300 333 10345 59008 70031 82615 81930==
41909,2023,06,23,15,00,AAXX 23154 41909 02950 00000 10290 20250 30007 40018 333 59017 70031==
41909,2023,06,23,18,00,AAXX 23184 41909 02440 80000 10281 20250 30015 40026 8552/ 333 59017 70031 85614 88460==
41909,2023,06,23,21,00,AAXX 23214 41909 02340 81301 10277 20260 30009 40020 8562/ 333 59019 70031 83708 83614 88458==
41909,2023,06,24,00,00,AAXX 24004 41909 21350 81301 10272 20260 30004 40015 70262 8662/ 333 59019 60045 70073 83708 84614 88458==
41909,2023,06,24,03,00,AAXX 24034 41909 01350 81301 10284 20260 30018 40029 70262 8562/ 333 20257 59017 70071 83708 83614 88458==
41909,2023,06,24,06,00,AAXX 24064 41909 11456 61803 10325 20260 30007 40018 69986 70162 83570 333 59015 70051 83615 84460==
41909,2023,06,24,09,00,AAXX 24094 41909 02456 61802 10337 20250 39993 40004 83370 333 58000 70050 83615 84460 81930==
41909,2023,06,24,12,00,AAXX 24124 41909 02350 80901 10320 20250 39982 49994 8532/ 333 10340 59006 70050 83708 83614 88458 81930==
41909,2023,06,24,15,00,AAXX 24154 41909 02940 00000 10296 20250 30006 40017 333 59001 70050==
41909,2023,06,24,18,00,AAXX 24184 41909 02940 00000 10282 20240 30017 40028 333 58002 70050==
41909,2023,06,24,21,00,AAXX 24214 41909 02940 00000 10275 20250 30011 40022 333 58002 70050==
41909,2023,06,25,00,00,AAXX 25004 41909 02450 50901 10272 20250 30008 40019 82510 333 58004 70008 82615 84460==
41909,2023,06,25,03,00,AAXX 25034 41909 02456 61402 10300 20250 30023 40034 82510 333 20258 58005 70008 82615 86458==
41909,2023,06,25,06,00,AAXX 25064 41909 02456 61402 10327 20250 30016 40027 82510 333 58009 70000 82615 86458==
41909,2023,06,25,09,00,AAXX 25094 41909 02456 61403 10315 20250 30008 40019 82510 333 58015 70010 82615 86458==
41909,2023,06,25,12,00,AAXX 25124 41909 01456 61402 10324 20200 30001 40012 70262 82510 333 10337 58009 70010 82615 86458==
41909,2023,06,25,15,00,AAXX 25154 41909 02440 60000 10292 20240 30021 40032 82510 333 58015 70010 82615 86458==
41909,2023,06,25,18,00,AAXX 25184 41909 02440 60000 10282 20240 30028 40039 82510 333 58011 70010 82615 86458==
41909,2023,06,26,00,00,AAXX 26004 41909 02456 80000 10272 20250 30015 40026 8552/ 333 58007 70010 85615 88458==
41909,2023,06,26,03,00,AAXX 26034 41909 42456 81402 10287 20250 30023 40034 8452/ 333 20256 58000 84615 88458==
41909,2023,06,26,06,00,AAXX 26064 41909 02456 61802 10311 20240 30018 40029 82510 333 58002 70010 82615 86458==
41909,2023,06,26,09,00,AAXX 26094 41909 02440 60000 10282 20240 30028 40039 82510 333 58011 70010 82615 86458==
41909,2023,06,26,12,00,AAXX 26124 41909 02456 81302 10304 20240 39989 40000 8532/ 333 10335 59012 70000 84615 88458 81930==
41909,2023,06,26,15,00,AAXX 26154 41909 02440 61302 10282 20250 30015 40026 83530 333 59006 70000 83615 85360==
41909,2023,06,26,18,00,AAXX 26184 41909 21440 60902 10269 20250 30020 40031 70262 82530 333 59008 60025 70016 82615 85360==
41909,2023,06,26,21,00,AAXX 26214 41909 02440 61302 10269 20250 30011 40022 83530 333 59013 70016 83615 85360==
41909,2023,06,27,00,00,AAXX 27004 41909 NIL=
41909,2023,06,27,03,00,AAXX 27034 41909 02356 81302 10274 20250 30023 40034 8562/ 333 20258 58000 70016 83708 83615 88458==
41909,2023,06,27,06,00,AAXX 27063 41909 11356 81301 10291 20250 30021 40032 60012 70262 8562/ 333 58003 70026 83708 83615 88458==
41909,2023,06,27,12,00,AAXX 27124 41909 01350 81304 10290 20250 30012 40023 70262 8662/ 333 10306 58023 70027 83708 84614 88458==
41909,2023,06,27,15,00,AAXX 27154 41909 02450 81302 10272 20250 30033 40044 8552/ 333 58018 70027 85615 88460==
41909,2023,06,27,18,00,AAXX 27184 41909 02440 81802 10268 20250 30040 40051 8552/ 333 58020 70011 85615 88460==
41909,2023,06,27,21,00,AAXX 27214 41909 02340 81802 10266 20250 30030 40041 8562/ 333 58019 70011 83708 83614 88458==
41909,2023,06,28,00,00,AAXX 28004 41909 01350 81301 10265 20260 30026 40037 70262 8662/ 333 58020 70030 83708 84614 88458==
41909,2023,06,28,03,00,AAXX 28034 41909 01345 80000 10280 20250 30047 40058 76166 8672/ 333 20254 58024 70051 83708 84614 88458==
41909,2023,06,28,06,00,AAXX 28064 41909 21340 81302 10262 20250 30052 40063 76166 8672/ 333 58031 60049 70071 86708 88458==
41909,2023,06,28,09,00,AAXX 28094 41909 01340 81302 10270 20250 30028 40039 76166 8672/ 333 58023 70081 86708 88458==
41909,2023,06,28,12,00,AAXX 28124 41909 21340 80000 10270 20250 30027 40038 76166 8672/ 333 10280 58015 60027 70091 86708 88458==
41909,2023,06,28,15,00,AAXX 28154 41909 02440 80000 10267 20250 30044 40055 8552/ 333 58011 70091 85615 88458==
41909,2023,06,28,18,00,AAXX 28184 41909 02440 80000 10267 20250 30046 40057 8552/ 333 58006 70090 85615 88458==
41909,2023,06,28,21,00,AAXX 28214 41909 01440 80000 10262 20250 30031 40042 71796 333 58001 70170 86708 88458==
41909,2023,06,29,00,00,AAXX 29004 41909 21440 80000 10260 20250 30026 40037 71796 8692/ 333 58000 60087 70140 83708 84614 88458 81930==
41909,2023,06,29,03,00,AAXX 29034 41909 01340 80000 10267 20260 30050 40061 76196 8672/ 333 20245 58003 70278 86708 88458==
41909,2023,06,29,06,00,AAXX 29064 41909 21456 81302 10283 20260 30048 40059 70296 8552/ 333 59004 60158 70254 85614 88460==
41909,2023,06,29,09,00,AAXX 29094 41909 01340 81303 10275 20260 30029 40040 76166 8672/ 333 58001 70260 83708 84614 88458==
41909,2023,06,29,12,00,AAXX 29124 41909 21450 80000 10272 20250 30021 40032 70262 8552/ 333 10286 59006 60035 70260 85615 88460==
41909,2023,06,29,15,00,AAXX 29154 41909 02440 80000 10260 20250 30037 40048 8552/ 333 59007 70260 85615 88460==
41909,2023,06,29,18,00,AAXX 29184 41909 02440 80000 10258 20250 30039 40050 8552/ 333 59007 70260 85614 88460==
41909,2023,06,29,21,00,AAXX 29214 41909 02440 81302 10262 20250 30026 40037 8552/ 333 59005 70260 85614 88460==
41915,2023,06,23,00,00,AAXX 23004 41915 02456 80000 10260 20250 30025 40051 8552/ 333 59003 70018 85616 88458==
41915,2023,06,23,03,00,AAXX 23034 41915 02456 60000 10306 20250 30031 40056 85430 333 20256 59003 70018 84616 85362==
41915,2023,06,23,06,00,AAXX 23064 41915 02456 73402 10330 20270 30015 40040 85370 333 59014 70018 84616 85458 81928==
41915,2023,06,23,09,00,AAXX 23094 41915 01456 60403 10310 20260 39989 40014 70162 85330 333 59019 70024 84616 81928==
41915,2023,06,23,12,00,AAXX 23124 41915 01450 80000 10268 20260 39996 40021 72162 8632/ 333 10340 59013 70129 85616 88458 81928==
41915,2023,06,23,15,00,AAXX 23154 41915 02440 70602 10264 20250 30013 40038 85470 333 59013 70129 84616 85458==
41915,2023,06,23,18,00,AAXX 23184 41915 02440 70000 10260 20250 30016 40041 85470 333 59013 70111 84616 85458==
41915,2023,06,23,21,00,AAXX 23214 41915 02440 70000 10260 20250 30012 40037 84470 333 59008 70111 83616 85458==
41915,2023,06,24,00,00,AAXX 24004 41915 02456 70201 10274 20250 30009 40034 83530 333 59016 70111 83616 86362==
41915,2023,06,24,03,00,AAXX 24034 41915 02456 71202 10315 20260 30021 40045 85470 333 20260 59010 70111 84616 85458==
41915,2023,06,24,06,00,AAXX 24064 41915 02456 60902 10335 20260 30004 40029 85430 333 59011 70111 84616 83362==
41915,2023,06,24,09,00,AAXX 24094 41915 02456 60000 10340 20250 39985 40010 85430 333 59004 70105 84616==
41915,2023,06,24,12,00,AAXX 24124 41915 02456 60000 10295 20250 39992 40017 85430 333 10350 59004 70000 84616==
41915,2023,06,24,15,00,AAXX 24154 41915 02450 30000 10277 20250 30014 40039 82410 333 58001 70000 82616 83458==
41915,2023,06,24,18,00,AAXX 24184 41915 02450 80000 10274 20250 30018 40043 8662/ 333 58002 70000 83712 85616 88458==
41915,2023,06,24,21,00,AAXX 24214 41915 02450 80000 10268 20240 30016 40041 8662/ 333 58004 70000 83712 84616 88458==
41915,2023,06,25,00,00,AAXX 25003 41915 02456 60000 10274 20240 30021 40046 84530 333 58021 70000 83616 86362==
41915,2023,06,25,03,00,AAXX 25034 41915 02456 30902 10310 20240 30026 40051 83501 333 20355 58005 70000 83616==
41915,2023,06,25,06,00,AAXX 25064 41915 02456 60000 10337 20250 30016 40041 84530 333 58012 70000 83616 86362==
41915,2023,06,25,09,00,AAXX 25094 41915 02456 61202 10332 20250 39996 40020 84530 333 58011 70006 83616 86362==
41915,2023,06,25,12,00,AAXX 25124 41915 11456 70000 10300 20260 39993 40018 69916 70362 83530 333 10350 58001 70006 83616 86362==
41915,2023,06,25,15,00,AAXX 25154 41915 01450 30000 10286 20270 30022 40047 71321 83300 333 58008 70006 82616 81928==
41915,2023,06,25,18,00,AAXX 25184 41915 02450 20000 10272 20260 30028 40053 82510 333 58010 70006 82616==
41915,2023,06,25,21,00,AAXX 25214 41915 02450 20000 10263 20250 30027 40052 82510 333 58015 70006 82616==
41915,2023,06,26,00,00,AAXX 26004 41915 02456 20000 10275 20260 30021 40047 82510 333 58000 70006 82616==
41915,2023,06,26,03,00,AAXX 26034 41915 02456 60602 10315 20260 30026 40051 85440 333 20260 58000 70006 84616==
41915,2023,06,26,06,00,AAXX 26064 41915 01456 73601 10285 20280 30013 40038 79521 85371 333 59003 70100 84616 85458 81928==
41915,2023,06,26,09,00,AAXX 26094 41915 02456 70000 10304 20230 39999 40025 85370 333 58003 70102 84616 85458 81928==
41915,2023,06,26,12,00,AAXX 26124 41915 21456 70000 10294 20250 39994 40019 70296 85470 333 10334 58001 60065 70162 84616 85458==
41915,2023,06,26,15,00,AAXX 26154 41915 02440 80902 10274 20250 30020 40045 8632/ 333 59001 70162 82710 85616 88458 81928==
41915,2023,06,26,18,00,AAXX 26184 41915 02450 40601 10267 20250 30024 40049 83410 333 59004 70162 82616 84458==
41915,2023,06,26,21,00,AAXX 26214 41915 02440 60000 10262 20250 30018 40043 84410 333 59009 70162 84616 84458==
41915,2023,06,27,00,00,AAXX 27004 41915 02456 70000 10260 20240 30019 40044 86470 333 59001 70162 84616 86458==
41915,2023,06,27,03,00,AAXX 27034 41915 02456 73402 10296 20240 30029 40054 86470 333 20256 58003 70162 84616 85458==
41915,2023,06,27,06,00,AAXX 27063 41915 02456 70902 10324 20230 30019 40044 86470 333 58006 70060 84616 86458==
41915,2023,06,27,09,00,AAXX 27094 41915 01456 61001 10296 20260 30005 40030 70162 84530 333 58006 70128 84616 83362==
41915,2023,06,27,12,00,AAXX 27124 41915 12456 81002 10270 20250 30011 40036 60076 8642/ 333 10336 58017 70068 85616 88458==
41915,2023,06,27,15,00,AAXX 27154 41915 02450 80000 10264 20250 30041 40066 8642/ 333 58021 70068 84616 88458==
41915,2023,06,27,18,00,AAXX 27184 41915 02450 70000 10266 20260 30048 40073 85470 333 58024 70068 84616 85458==
41915,2023,06,27,21,00,AAXX 27214 41915 02440 80000 10260 20250 30040 40065 8662/ 333 58022 70068 83710 85616 88458==
41915,2023,06,28,00,00,AAXX 28004 41915 21456 80000 10260 20250 30043 40068 70262 8662/ 333 58024 60107 70167 82710 85616 88458==
41915,2023,06,28,03,00,AAXX 28034 41915 01456 80000 10271 20250 30057 40082 76162 8672/ 333 20257 58023 70177 83710 84616 88458==
41915,2023,06,28,06,00,AAXX 28064 41915 12456 80000 10305 20270 30051 40076 60262 8662/ 333 58032 70195 82710 84616 88458==
41915,2023,06,28,09,00,AAXX 28094 41915 02456 81604 10314 20240 30024 40049 8662/ 333 58019 70127 83710 85616 88458==
41915,2023,06,28,12,00,AAXX 28124 41915 01456 80000 10269 20260 30039 40064 76362 8672/ 333 10332 58028 70050 83710 84616 88458==
41915,2023,06,28,15,00,AAXX 28154 41915 01450 80000 10258 20260 30052 40077 71766 8632/ 333 58011 70371 82710 85616 88458 81928==
41915,2023,06,28,18,00,AAXX 28184 41915 21450 80000 10252 20240 30050 40075 76196 8672/ 333 58002 60327 70431 83710 84616 88458==
41915,2023,06,29,00,00,AAXX 29004 41915 NIL=
41915,2023,06,29,03,00,AAXX 29034 41915 02456 41603 10304 20250 30045 40070 83510 333 20250 59012 70322 83616 84458==
41915,2023,06,29,06,00,AAXX 29064 41915 02456 50902 10323 20240 30035 40059 83510 333 59008 70304 83616 85458==
41915,2023,06,29,09,00,AAXX 29094 41915 02456 80000 10274 20250 30028 40053 8662/ 333 58004 70454 83710 85616 88458==
41915,2023,06,29,12,00,AAXX 29124 41915 11456 70000 10286 20260 30015 40040 60156 70262 85540 333 10332 59024 70402 83712 83616 86362==
41915,2023,06,29,15,00,AAXX 29154 41915 02450 80000 10270 20260 30034 40059 8662/ 333 59018 70142 83710 85616 88458==
41915,2023,06,29,18,00,AAXX 29184 41915 02450 80000 10269 20260 30037 40062 8662/ 333 59013 70082 83710 84616 88458==
41923,2023,06,23,00,00,AAXX 23004 41923 02345 71603 10280 20260 30029 40039 86670 333 59007 70000 83708 85614 85459==
41923,2023,06,23,03,00,AAXX 23034 41923 02350 60000 10311 20250 30038 40048 84631 333 20277 59002 70000 82709 83615==
41923,2023,06,23,06,00,AAXX 23064 41923 02356 61405 10344 20250 30023 40033 86630 333 59013 70000 83709 84615==
41923,2023,06,23,09,00,AAXX 23094 41923 02456 71202 10305 20260 30001 40011 84570 333 59017 70000 84615 86460==
41923,2023,06,23,12,00,AAXX 23124 41923 02456 63302 10313 20240 39996 40006 83530 333 10355 59014 70000 83615 86365==
41923,2023,06,23,15,00,AAXX 23154 41923 01/40 41802 10301 20250 30011 40021 70511 84030 333 59021 70000 84365==
41923,2023,06,23,18,00,AAXX 23184 41923 11340 82702 10292 20240 30022 40032 60001 72122 8532/ 333 59014 81710 84614 88460 81930==
41923,2023,06,23,21,00,AAXX 23214 41923 01330 82704 10275 20270 30009 40019 76162 8632/ 333 59012 70102 83708 84614 88458 81928==
41923,2023,06,24,00,00,AAXX 24004 41923 21440 80902 10270 20260 30011 40021 70562 8532/ 333 59018 60147 70138 85614 88460 81930==
41923,2023,06,24,03,00,AAXX 24034 41923 01440 81202 10300 20260 30024 40034 70522 8532/ 333 20267 59014 70138 85614 88460 81930==
41923,2023,06,24,06,00,AAXX 24064 41923 02456 63302 10332 20250 30012 40022 83530 333 59011 70138 83615 85365==
41923,2023,06,24,09,00,AAXX 24094 41923 01356 43202 10340 20240 39996 40006 70162 84630 333 59005 70138 81709 84615==
41923,2023,06,24,12,00,AAXX 24124 41923 11350 33303 10313 20230 39992 40002 60006 70162 83630 333 10341 59004 70138 81709 83615==
41923,2023,06,24,15,00,AAXX 24154 41923 02350 33402 10295 20250 30017 40027 83630 333 58006 70138 81709 83615==
41923,2023,06,24,18,00,AAXX 24184 41923 02350 73202 10287 20250 30024 40034 86670 333 58002 70138 83708 85614==
41923,2023,06,24,21,00,AAXX 24214 41923 02345 70000 10281 20250 30011 40021 85670 333 58002 70036 83708 84614==
41923,2023,06,25,00,00,AAXX 25004 41923 42345 70504 10274 20260 30018 40028 86670 333 58007 83708 85614 85459==
41923,2023,06,25,03,00,AAXX 25034 41923 42350 80602 10296 20250 30030 40040 8762/ 333 20272 58006 84708 85614 88458==
41923,2023,06,25,06,00,AAXX 25064 41923 42350 70404 10337 20240 30020 40030 86670 333 58008 83708 85614 85459==
41923,2023,06,25,09,00,AAXX 25094 41923 01456 50403 10330 20240 30000 40010 70162 85300 333 58004 70006 82615 83824 81930==
41923,2023,06,25,12,00,AAXX 25124 41923 11456 51604 10312 20230 30002 40012 69966 70262 83430 333 10340 58010 70006 82615 83360==
41923,2023,06,25,15,00,AAXX 25154 41923 02450 50402 10300 20240 30025 40035 83430 333 58008 70006 82615 83360==
41923,2023,06,25,18,00,AAXX 25184 41923 02345 71603 10292 20240 30031 40041 86670 333 58007 70006 83709 84615 85458==
41923,2023,06,25,21,00,AAXX 25214 41923 01340 70902 10282 20240 30019 40029 70262 86670 333 58008 70008 83709 84615 85458==
41923,2023,06,26,00,00,AAXX 26004 41923 11340 70402 10278 20250 30022 40032 69926 70262 85670 333 58004 70008 82709 84615 85458==
41923,2023,06,26,03,00,AAXX 26034 41923 02350 70904 10288 20250 30030 40040 85670 333 20274 58000 70008 82709 84615 85458==
41923,2023,06,26,06,00,AAXX 26064 41923 01356 71306 10298 20250 30021 40031 72162 85670 333 58001 70010 82709 84614 85458==
41923,2023,06,26,09,00,AAXX 26094 41923 01350 71403 10308 20250 30002 40012 70262 86670 333 58002 70020 83708 84614==
41923,2023,06,26,12,00,AAXX 26124 41923 11350 81702 10298 20250 30000 40010 69986 70362 8732/ 333 10320 59002 70020 84708 85614 88458 81930==
41923,2023,06,26,15,00,AAXX 26154 41923 01345 50000 10275 20260 30019 40029 72162 84630 333 59006 70040 82708 83614==
41923,2023,06,26,18,00,AAXX 26184 41923 21345 70000 10276 20250 30025 40035 70362 86670 333 59006 60028 70040 83708 84614==
41923,2023,06,26,21,00,AAXX 26214 41923 01345 80000 10271 20250 30013 40023 70362 8662/ 333 59006 70038 83708 85614 88458==
41923,2023,06,27,00,00,AAXX 27004 41923 01335 83203 10268 20250 30013 40023 76162 8772/ 333 59009 70038 84708 85614 88458==
41923,2023,06,27,03,00,AAXX 27034 41923 01335 80603 10270 20260 30031 40041 76166 8772/ 333 20264 58001 70064 84708 85614 88458==
41923,2023,06,27,06,00,AAXX 27064 41923 21335 80000 10270 20260 30030 40040 76166 8772/ 333 58009 60079 70102 84708 85614 88458==
41923,2023,06,27,09,00,AAXX 27094 41923 01440 82402 10278 20250 30012 40022 72166 8532/ 333 58010 70116 81710 84614 88460 81930==
41923,2023,06,27,12,00,AAXX 27124 41923 21440 81802 10282 20240 30024 40034 70562 8532/ 333 10282 58024 60025 70116 81710 84614 88460 81930==
41923,2023,06,27,15,00,AAXX 27154 41923 01340 80902 10275 20250 30040 40050 70522 8532/ 333 58021 70096 81710 84614 88460 81930==
41923,2023,06,27,18,00,AAXX 27184 41923 11330 80602 10275 20260 30047 40057 60001 76022 8632/ 333 58022 70096 83708 84614 88459 81929==
41923,2023,06,27,21,00,AAXX 27214 41923 01330 80000 10275 20260 30037 40047 70562 8532/ 333 58024 70096 81710 84614 88460 81930==
41923,2023,06,28,00,00,AAXX 28004 41923 01330 81803 10268 20260 30039 40049 76162 8632/ 333 58029 70060 83708 84614 88458 81928==
41923,2023,06,28,03,00,AAXX 28034 41923 01330 81202 10256 20256 30059 40069 76166 8632/ 333 20252 58028 70420 86707 88458 81925==
41923,2023,06,28,06,00,AAXX 28064 41923 21330 82703 10260 20250 30063 40073 76366 8632/ 333 58033 60429 70496 86707 88458 81925==
41923,2023,06,28,09,00,AAXX 28094 41923 01325 80000 10254 20240 30041 40050 76196 8632/ 333 58029 70754 83708 84614 88458 81930==
41923,2023,06,28,12,00,AAXX 28124 41923 21340 81802 10263 20250 30038 40048 70296 8532/ 333 10264 58014 60299 70762 83709 84614 88458 81930==
41923,2023,06,28,15,00,AAXX 28154 41923 02340 60000 10261 20250 30055 40065 84630 333 58015 70762 82709 83614 85360==
41923,2023,06,28,18,00,AAXX 28184 41923 02340 70000 10262 20250 30056 40046 85630 333 58009 70762 82709 84615 85360==
41923,2023,06,28,21,00,AAXX 28214 41923 01330 80000 10266 20260 30039 40049 76162 8672/ 333 58011 70804 83708 84614 88458==
41923,2023,06,29,00,00,AAXX 29004 41923 21315 81904 10263 20260 30033 40043 79566 8692/ 333 59006 60449 71148 84708 84614 88458 81930==
41923,2023,06,29,03,00,AAXX 29034 41923 01320 80000 10263 20260 30055 40065 79596 8692/ 333 20248 59004 71070 84708 84614 88458 81930==
41923,2023,06,29,06,00,AAXX 29064 41923 21320 81802 10261 20250 30056 40066 76196 8632/ 333 59007 60309 71026 84708 84614 88458 81930==
41923,2023,06,29,09,00,AAXX 29094 41923 01345 82103 10268 20260 30040 40050 72166 8732/ 333 59001 70806 84708 85614 88458 81930==
41923,2023,06,29,12,00,AAXX 29124 41923 21345 70000 10270 20260 30031 40041 70162 85670 333 10273 59007 60068 70798 83708 84614 86459==
41923,2023,06,29,15,00,AAXX 29154 41923 02345 70000 10265 20260 30047 40057 85670 333 59008 70798 83708 84614 85459==
41923,2023,06,29,18,00,AAXX 29184 41923 02345 70000 10264 20250 30043 40053 85670 333 59013 70798 82708 84614 85459==
41923,2023,06,29,21,00,AAXX 29214 41923 02345 70000 10266 20260 30033 40043 85670 333 59006 70756 83708 84614 85459==
41926,2023,06,23,00,00,AAXX 23004 41926 01/50 50000 10263 20260 30017 40031 70522 85030 333 58001 70540 85362==
41926,2023,06,23,03,00,AAXX 23034 41926 02457 50000 10303 20270 30021 40035 85400 333 20253 58000 70540 82618 83825==
41926,2023,06,23,06,00,AAXX 23064 41926 02457 51802 10342 20250 30007 40020 85400 333 59011 70540 82618 83825==
41926,2023,06,23,09,00,AAXX 23094 41926 02457 61804 10335 20260 39984 49997 85410 333 59032 70246 82618 83825 86459==
41926,2023,06,23,12,00,AAXX 23124 41926 02/56 31802 10313 20250 39977 49990 83030 333 10360 59021 70000 83362==
41926,2023,06,23,15,00,AAXX 23154 41926 02/50 51801 10292 20260 39998 40012 85030 333 59006 70000 85362==
41926,2023,06,23,18,00,AAXX 23184 41926 02/50 21801 10280 20250 30002 40016 82030 333 59020 70000 82362==
41926,2023,06,23,21,00,AAXX 23214 41926 02450 50000 10275 20260 30002 40016 81510 333 59018 70000 81618 85459==
41926,2023,06,24,00,00,AAXX 24004 41926 02450 71802 10273 20250 30003 40017 83510 333 59014 70000 83618 87459==
41926,2023,06,24,03,00,AAXX 24034 41926 41350 80000 10290 20270 30003 40017 76122 8472/ 333 20272 59018 82708 83615 88458==
41926,2023,06,24,06,00,AAXX 24064 41926 21456 61801 10328 20270 39994 40007 70162 84410 333 59011 60005 83615 85459==
41926,2023,06,24,09,00,AAXX 24094 41926 01456 50000 10315 20280 39979 49992 72122 84430 333 59005 70005 83615 83362==
41926,2023,06,24,12,00,AAXX 24124 41926 21450 50000 10308 20280 39971 49984 70261 85400 333 10355 59006 60027 70021 83618==
41926,2023,06,24,15,00,AAXX 24154 41926 02950 01802 10290 20270 39995 40009 333 59003 70021==
41926,2023,06,24,18,00,AAXX 24184 41926 02450 60000 10282 20260 30001 40015 83510 333 59001 70021 83618 85459==
41926,2023,06,24,21,00,AAXX 24214 41926 02450 80000 10276 20260 39993 40007 8352/ 333 59009 70021 83618 88458==
41926,2023,06,25,00,00,AAXX 25004 41926 02450 80000 10271 20260 39994 40008 8352/ 333 59007 70021 83618 88458==
41926,2023,06,25,03,00,AAXX 25034 41926 42450 61801 10294 20260 30003 40017 83510 333 20270 58000 83618 85459==
41926,2023,06,25,06,00,AAXX 25064 41926 01450 71804 10315 20270 30000 40013 76062 83510 333 58006 70027 83617 86458==
41926,2023,06,25,09,00,AAXX 25094 41926 02450 51803 10334 20260 39974 49987 82510 333 59005 70022 82618 85459==
41926,2023,06,25,12,00,AAXX 25124 41926 02450 31801 10319 20240 39977 49990 82510 333 10338 58006 70006 82618 83459==
41926,2023,06,25,15,00,AAXX 25154 41926 02950 01801 10282 20240 39999 40013 333 58004 70006==
41926,2023,06,25,18,00,AAXX 25184 41926 02450 21802 10277 20260 30007 40021 82500 333 58006 70006 82618==
41926,2023,06,25,21,00,AAXX 25214 41926 02450 30000 10272 20250 30002 40016 83500 333 58009 70006 83618==
41926,2023,06,26,00,00,AAXX 26004 41926 11440 51801 10268 20260 39994 40008 60006 72120 82510 333 58000 70006 82618 85459==
41926,2023,06,26,06,00,AAXX 26064 41926 01350 71301 10306 20260 30002 40015 76122 84710 333 58002 70002 82708 83615 88458==
41926,2023,06,26,09,00,AAXX 26094 41926 01350 71301 10315 20280 39980 49993 70262 84710 333 58006 70032 82708 83615 87458==
41926,2023,06,26,12,00,AAXX 26124 41926 21350 80000 10268 20260 39979 49992 76162 8472/ 333 10338 58002 60067 70064 82708 83615 88458==
41926,2023,06,26,18,00,AAXX 26184 41926 21450 70000 10264 20250 30005 40019 70362 83510 333 59002 69937 70067 83618 87459==
41926,2023,06,26,21,00,AAXX 26214 41926 02450 70000 10264 20250 30001 40015 83510 333 59001 70067 83618 86459==
41926,2023,06,27,00,00,AAXX 27004 41926 02450 81802 10267 20260 39995 40009 8432/ 333 58001 70067 84617 88458==
41926,2023,06,27,03,00,AAXX 27034 41926 02350 81301 10282 20260 30005 40019 8462/ 333 20262 59002 70067 82708 83615 88458==
41926,2023,06,27,06,00,AAXX 27063 41926 21456 51301 10305 20260 30004 40017 70162 84510 333 58002 60015 70065 84615 84459==
41926,2023,06,27,09,00,AAXX 27094 41926 02456 51504 10305 20260 39987 40000 84510 333 58007 70045 84615 85459==
41926,2023,06,27,12,00,AAXX 27124 41926 02450 71502 10288 20260 39997 40011 84510 333 10320 58018 70013 84615 86459==
41926,2023,06,27,15,00,AAXX 27154 41926 02450 61502 10280 20260 30015 40029 83510 333 58014 70010 83616 86459==
41926,2023,06,27,18,00,AAXX 27184 41926 02450 61502 10275 20260 30024 40038 83510 333 58019 70010 83616 86459==
41926,2023,06,27,21,00,AAXX 27214 41926 02450 71502 10270 20250 30016 40030 84510 333 58015 70010 84615 86459==
41926,2023,06,28,00,00,AAXX 28004 41926 01350 81502 10265 20260 30020 40034 76162 8672/ 333 58025 70070 83708 84615 88459==
41926,2023,06,28,03,00,AAXX 28034 41926 01350 81502 10266 20260 30035 40049 72166 8672/ 333 20258 58030 70094 83708 84615 88458==
41926,2023,06,28,06,00,AAXX 28064 41926 01350 81502 10260 20260 30042 40056 76162 8672/ 333 58038 70148 83708 84615 88458==
41926,2023,06,28,09,00,AAXX 28094 41926 01450 71803 10273 20250 30009 40023 70162 84510 333 58022 70151 84617 87458==
41926,2023,06,28,12,00,AAXX 28124 41926 01456 71801 10286 20260 30019 40033 70262 84310 333 10297 58022 70151 83617 87458 81930==
41926,2023,06,28,15,00,AAXX 28154 41926 02450 60000 10266 20260 30037 40051 83510 333 58022 70151 83617 86459==
41926,2023,06,28,18,00,AAXX 28184 41926 02450 71802 10263 20250 30040 40054 84510 333 58016 70151 84617 87459==
41926,2023,06,28,21,00,AAXX 28214 41926 02450 70000 10263 20250 30031 40045 84510 333 58015 70151 84617 87459==
41926,2023,06,29,00,00,AAXX 29004 41926 02350 80000 10263 20260 30024 40038 8532/ 333 58004 70081 82708 83617 88458==
41926,2023,06,29,03,00,AAXX 29034 41926 02456 61802 10297 20270 30037 40051 83510 333 20260 58002 70067 83617 86459==
41926,2023,06,29,06,00,AAXX 29064 41926 02456 81801 10297 20270 30036 40050 8452/ 333 59006 70003 84617 88459==
41926,2023,06,29,09,00,AAXX 29094 41926 02456 71802 10298 20270 30010 40024 83510 333 58001 70000 83617 87459==
41926,2023,06,29,12,00,AAXX 29124 41926 02456 61802 10287 20260 30012 40026 82510 333 10307 59007 70000 82618 86459==
41926,2023,06,29,15,00,AAXX 29154 41926 02450 61802 10273 20250 30026 40040 83510 333 59011 70000 83618 86459==
41926,2023,06,29,18,00,AAXX 29184 41926 21450 71801 10268 20260 30027 40041 70362 83510 333 59013 69927 70002 83617 87458==
41927,2023,06,23,00,00,AAXX 23004 41927 32456 40000 10260 20250 30006 40020 82510 333 56490 59004 70000 82618 84459=
41927,2023,06,23,06,00,AAXX 23064 41927 32456 71302 10310 20260 30012 40026 84310 333 56390 70000 83617 81930 87459=
41927,2023,06,23,12,00,AAXX 23124 41927 32457 21603 10310 20240 39970 49984 82500 333 10345 56400 59015 70000 82618=
41927,2023,06,23,18,00,AAXX 23184 41927 32956 00000 10268 20250 39989 40003 333 59019 70000=
41927,2023,06,24,00,00,AAXX 24004 41927 32956 00000 10264 20250 39980 49994 333 59026 70000=
41927,2023,06,24,06,00,AAXX 24064 41927 32457 71801 10316 20260 39992 40006 83510 333 56490 59020 70000 83617 86459=
41927,2023,06,24,12,00,AAXX 24124 41927 32957 01602 10316 20250 39972 49986 333 10336 58002 70000=
41927,2023,06,24,18,00,AAXX 24184 41927 32956 01802 10280 20260 39988 40002 333 59001 70000=
41927,2023,06,25,00,00,AAXX 25004 41927 32456 41803 10274 20260 39989 40003 82510 333 56490 58009 70000 82618 84459=
41927,2023,06,25,06,00,AAXX 25064 41927 32458 41804 10320 20250 39998 40012 82510 333 56490 58002 70000 82618 84459=
41927,2023,06,25,12,00,AAXX 25124 41927 32957 01803 10310 20240 39970 49984 333 10332 59002 70000=
41927,2023,06,26,00,00,AAXX 26004 41927 32450 61602 10266 20260 39998 40012 83510 333 56490 58009 70000 83617 85459=
41927,2023,06,26,06,00,AAXX 26064 41927 32456 61803 10308 20250 30000 40014 83510 333 56490 58002 70000 83617 85459=
41927,2023,06,26,12,00,AAXX 26124 41927 32456 81602 10290 20260 39982 49996 8452/ 333 10323 56499 58012 70000 84616 88458=
41927,2023,06,26,18,00,AAXX 26184 41927 11450 81602 10258 20250 30003 40017 60071 70262 8452/ 333 56499 58000 70068 84616 88458=
41927,2023,06,27,00,00,AAXX 27004 41927 32956 00000 10260 20250 39998 40012 333 58000 70068=
41927,2023,06,27,06,00,AAXX 27063 41927 32457 61803 10290 20260 30004 40018 83510 333 56490 58002 70068 83617 85459=
41927,2023,06,27,12,00,AAXX 27124 41927 11456 81802 10273 20250 39990 40005 60026 70262 8452/ 333 10300 56499 58008 70088 84616 88458=
41927,2023,06,27,18,00,AAXX 27184 41927 NIL=
41927,2023,06,28,00,00,AAXX 28004 41927 32450 81802 10256 20250 30008 40023 8452/ 333 56499 58010 70020 84616 88458=
41927,2023,06,28,06,00,AAXX 28064 41927 11440 81603 10252 20250 30037 40052 60267 76562 8452/ 333 56499 58033 70282 84616 88458=
41927,2023,06,28,12,00,AAXX 28124 41927 11456 81802 10270 20240 30008 40022 60056 70262 8452/ 333 10280 56499 58018 70310 84616 88458=
41927,2023,06,28,18,00,AAXX 28184 41927 11450 81602 10262 20250 30037 40051 60035 70262 8452/ 333 56499 58022 70340 84616 88458=
41927,2023,06,29,00,00,AAXX 29004 41927 32450 80000 10258 20250 30030 40044 8452/ 333 56499 58022 70340 84616 88458=
41927,2023,06,29,06,00,AAXX 29064 41927 11456 81802 10286 20270 30027 40041 69984 70262 8452/ 333 56499 59010 70086 84616 88458=
41927,2023,06,29,12,00,AAXX 29124 41927 32456 61801 10282 20260 30007 40021 83510 333 10294 56490 58001 70038 83617 85459=
41927,2023,06,29,18,00,AAXX 29184 41927 32450 61801 10280 20260 30036 40050 83510 333 56490 59001 70008 83617 85459=
41929,2023,06,23,00,00,AAXX 23004 41929 02456 61203 10265 20265 30022 40032 82530 333 59003 70000 82616 86363==
41929,2023,06,23,03,00,AAXX 23034 41929 02456 60903 10310 20270 30033 40042 85530 333 20260 59002 70000 85618==
41929,2023,06,23,06,00,AAXX 23064 41929 02457 41405 10334 20260 30020 40029 84440 333 59014 70000 83618==
41929,2023,06,23,09,00,AAXX 23094 41929 01457 71007 10294 20260 39997 40007 76122 84520 333 59023 70002 84616 87458==
41929,2023,06,23,12,00,AAXX 23124 41929 21457 21207 10300 20270 39989 49999 70162 81530 333 10344 59015 69925 70002 81616==
41929,2023,06,23,15,00,AAXX 23154 41929 02956 01206 10282 20260 30011 40021 333 59014 70002==
41929,2023,06,23,18,00,AAXX 23184 41929 02456 61003 10277 20260 30016 40026 82520 333 59018 70002 82616 86458==
41929,2023,06,23,21,00,AAXX 23214 41929 02456 81005 10275 20270 30005 40015 8452/ 333 59025 70002 84616 88458==
41929,2023,06,24,00,00,AAXX 24004 41929 02456 81003 10274 20260 30003 40013 8452/ 333 59019 70002 84616 88458==
41929,2023,06,24,03,00,AAXX 24034 41929 02456 71802 10306 20260 30015 40024 84510 333 20268 59018 70002 84618 87462==
41929,2023,06,24,06,00,AAXX 24064 41929 02456 71805 10324 20260 30008 40017 84510 333 59012 70002 84618 87462==
41929,2023,06,24,09,00,AAXX 24094 41929 02458 51305 10330 20260 39992 40001 83430 333 59005 70000 82618 83365==
41929,2023,06,24,12,00,AAXX 24124 41929 02457 41305 10315 20260 39985 49994 83430 333 10335 59004 70000 82618 83365==
41929,2023,06,24,15,00,AAXX 24154 41929 02956 01304 10285 20260 30009 40018 333 59002 70000==
41929,2023,06,24,18,00,AAXX 24184 41929 02/56 21304 10275 20260 30017 40026 82030 333 58001 70000 82365==
41929,2023,06,24,21,00,AAXX 24214 41929 02456 71304 10274 20250 30012 40021 83570 333 58007 70000 83618 85462==
41929,2023,06,25,00,00,AAXX 25004 41929 02456 81305 10272 20260 30006 40015 8451/ 333 58003 70000 84618 88462==
41929,2023,06,25,03,00,AAXX 25034 41929 02456 71404 10310 20270 30023 40032 84510 333 20263 58008 70000 84618 87462==
41929,2023,06,25,06,00,AAXX 25064 41929 02457 51407 10330 20250 30014 40023 85440 333 58006 70000 82618 83820==
41929,2023,06,25,09,00,AAXX 25094 41929 01458 31306 10320 20250 39994 40003 70162 83400 333 58002 70022 82618==
41929,2023,06,25,12,00,AAXX 25124 41929 11457 71306 10305 20250 39991 40000 60026 70362 84470 333 10332 58006 70022 83618 85462==
41929,2023,06,25,15,00,AAXX 25154 41929 02456 61305 10285 20260 30016 40025 83530 333 58007 70022 83618 83365==
41929,2023,06,25,18,00,AAXX 25184 41929 02/56 31304 10270 20250 30024 40033 83030 333 58007 70022 83365==
41929,2023,06,25,21,00,AAXX 25214 41929 02456 71303 10270 20260 30017 40026 83570 333 58005 70022 83618 85462==
41929,2023,06,26,00,00,AAXX 26004 41929 02456 81303 10270 20260 30009 40018 8451/ 333 58003 70022 84618 88462==
41929,2023,06,26,03,00,AAXX 26034 41929 02456 81403 10290 20250 30024 40033 8451/ 333 20263 58001 70022 84618 88462==
41929,2023,06,26,06,00,AAXX 26064 41929 21456 81405 10282 20260 30019 40028 76162 8452/ 333 58005 60017 70034 84618 88460==
41929,2023,06,26,09,00,AAXX 26094 41929 01457 61305 10300 20260 39995 40004 70162 83430 333 58001 70016 82618 84365==
41929,2023,06,26,12,00,AAXX 26124 41929 11457 71306 10292 20250 39991 40000 69946 70362 83570 333 10305 58000 70016 83618 85462==
41929,2023,06,26,15,00,AAXX 26154 41929 01456 61303 10270 20260 30013 40022 70162 83530 333 59003 70081 83618 83365==
41929,2023,06,26,18,00,AAXX 26184 41929 11456 51303 10265 20260 30022 40031 60076 70162 83530 333 59002 70081 83618 83365==
41929,2023,06,26,21,00,AAXX 26214 41929 02456 71303 10265 20260 30013 40022 83570 333 59004 70081 83618 85462==
41929,2023,06,27,00,00,AAXX 27004 41929 02456 81303 10265 20260 30004 40013 8451/ 333 59005 70081 84618 88462==
41929,2023,06,27,03,00,AAXX 27034 41929 01456 80904 10272 20260 30023 40032 72122 8451/ 333 20258 59001 70096 84618 88462==
41929,2023,06,27,06,00,AAXX 27063 41929 01456 81303 10278 20270 30024 40033 76062 8452/ 333 58005 70104 84616 88460==
41929,2023,06,27,09,00,AAXX 27094 41929 01456 81304 10277 20270 30006 40015 76166 8452/ 333 58011 70145 84616 88460==
41929,2023,06,27,12,00,AAXX 27124 41929 21456 81303 10280 20260 30013 40022 70262 8451/ 333 10288 58022 60058 70145 84618 88462==
41929,2023,06,27,15,00,AAXX 27154 41929 02456 51305 10270 20260 30031 40040 82530 333 58018 70068 82618 83365==
41929,2023,06,27,18,00,AAXX 27184 41929 02456 61305 10270 20260 30043 40052 83530 333 58021 70068 83618 83365==
41929,2023,06,27,21,00,AAXX 27214 41929 02456 61303 10267 20260 30035 40044 83530 333 58022 70068 83618 83365==
41929,2023,06,28,00,00,AAXX 28004 41929 01456 81303 10263 20260 30026 40035 70362 8451/ 333 58022 70010 84618 88462==
41929,2023,06,28,03,00,AAXX 28034 41929 01456 80000 10260 20260 30053 40062 76162 8452/ 333 20252 58030 70173 84618 88462==
41929,2023,06,28,06,00,AAXX 28064 41929 21456 81802 10262 20260 30060 40069 76166 8452/ 333 58036 60299 70340 84618 88462==
41929,2023,06,28,09,00,AAXX 28094 41929 01456 81902 10265 20260 30031 40041 76166 8452/ 333 58025 70287 84618 88462==
41929,2023,06,28,12,00,AAXX 28124 41929 21456 81802 10274 20250 30032 40042 70262 8451/ 333 10275 58019 60087 70242 84618 88462==
41929,2023,06,28,15,00,AAXX 28154 41929 42456 81903 10264 20250 30049 40059 8451/ 333 40242 58018 84618 88462==
41929,2023,06,28,18,00,AAXX 28184 41929 02456 81802 10264 20250 30053 40063 8451/ 333 58010 70242 84618 88462==
41929,2023,06,28,21,00,AAXX 28214 41929 01456 81803 10264 20250 30032 40042 76162 8452/ 333 59003 70312 84618 88462==
41929,2023,06,29,00,00,AAXX 29004 41929 21450 81803 10264 20250 30037 40047 76366 8452/ 333 59005 60187 70412 84618 88462==
41929,2023,06,29,03,00,AAXX 29034 41929 01456 80000 10266 20260 30054 40063 76366 8452/ 333 20253 58001 70523 84618 88462==
41929,2023,06,29,06,00,AAXX 29064 41929 21456 81802 10272 20260 30052 40061 76366 8452/ 333 59002 60169 70418 84618 88462==
41929,2023,06,29,09,00,AAXX 29094 41929 01456 81803 10280 20260 30033 40043 76166 8452/ 333 58002 70348 84618 88462==
41929,2023,06,29,12,00,AAXX 29124 41929 21456 81803 10280 20260 30027 40037 70262 8451/ 333 10280 59005 60017 70348 84618 88462==
41929,2023,06,29,15,00,AAXX 29154 41929 02456 81803 10265 20260 30043 40053 8451/ 333 59006 70348 84618 88462==
41929,2023,06,29,18,00,AAXX 29184 41929 02456 71802 10265 20260 30043 40053 84510 333 59010 70348 84618 86462==
41929,2023,06,29,21,00,AAXX 29214 41929 02456 71902 10265 20260 30029 40039 84510 333 59003 70278 84618 86462==
41933,2023,06,23,00,00,AAXX 23004 41933 02450 61802 10270 20260 30033 40042 84520 333 59004 70000 84618 86458==
41933,2023,06,23,03,00,AAXX 23034 41933 02450 61802 10295 20250 30044 40053 84520 333 20265 58002 70000 84618 86458==
41933,2023,06,23,06,00,AAXX 23064 41933 02456 61803 10326 20260 30033 40042 84530 333 59007 70000 84618 86362==
41933,2023,06,23,09,00,AAXX 23094 41933 02456 41803 10324 20250 39995 40003 84400 333 59032 70000 82616 83824==
41933,2023,06,23,12,00,AAXX 23124 41933 02456 71802 10300 20260 39995 40003 83531 333 10336 59020 70000 83616 86362==
41933,2023,06,23,15,00,AAXX 23154 41933 02450 52003 10285 20240 30012 40021 83530 333 59025 70000 83616 85362==
41933,2023,06,23,18,00,AAXX 23184 41933 02450 61601 10274 20250 30020 40029 83530 333 59021 70000 83616 85362==
41933,2023,06,23,21,00,AAXX 23214 41933 02450 61802 10268 20260 30015 40023 83530 333 59018 70000 83616 85362==
41933,2023,06,24,00,00,AAXX 24004 41933 02456 61801 10266 20250 30011 40019 83530 333 59022 70000 83616 85362==
41933,2023,06,24,03,00,AAXX 24034 41933 02456 51802 10300 20250 30023 40031 83401 333 20265 59021 70000 82616 84074==
41933,2023,06,24,06,00,AAXX 24064 41933 02350 81803 10290 20250 30017 40025 8572/ 333 59016 70000 82708 83615 88457==
41933,2023,06,24,09,00,AAXX 24094 41933 02456 61802 10306 20260 30005 40013 84520 333 58010 70000 84618 86458==
41933,2023,06,24,12,00,AAXX 24124 41933 02456 61804 10304 20250 39997 40005 84520 333 10325 58002 70000 84618 86458==
41933,2023,06,24,15,00,AAXX 24154 41933 02450 41803 10280 20250 30021 40030 84500 333 58009 70000 84618==
41933,2023,06,24,21,00,AAXX 24214 41933 02440 61803 10266 20250 30020 40029 84520 333 58005 70000 84618 86458==
41933,2023,06,25,00,00,AAXX 25004 41933 02450 61803 10265 20250 30020 40029 84520 333 58009 70000 84618 86458==
41933,2023,06,25,03,00,AAXX 25034 41933 02456 61803 10306 20250 30036 40045 84530 333 20255 58013 70000 84618 86362==
41933,2023,06,25,06,00,AAXX 25064 41933 02456 61804 10326 20280 30026 40035 84530 333 58009 70000 84530 84618 86362==
41933,2023,06,25,09,00,AAXX 25094 41933 02456 52406 10325 20240 30003 40011 83530 333 59002 70000 83618 85362==
41933,2023,06,25,12,00,AAXX 25124 41933 333 10335 58007 70000 82618==
41933,2023,06,25,15,00,AAXX 25154 41933 02456 62103 10285 20260 30022 40030 83520 333 58001 70000 83618 86458==
41933,2023,06,25,18,00,AAXX 25184 41933 02456 62002 10280 20260 30035 40043 83520 333 58011 70000 83618 86458==
41933,2023,06,25,21,00,AAXX 25214 41933 02456 60000 10270 20250 30030 40038 83520 333 58010 70000 83618 86458==
41933,2023,06,26,00,00,AAXX 26004 41933 02456 52002 10265 20250 30025 40033 82520 333 58005 70000 82618 85458==
41933,2023,06,26,03,00,AAXX 26034 41933 02456 52102 10295 20250 30032 40041 82520 333 20260 59004 70000 82618 85458==
41933,2023,06,26,06,00,AAXX 26064 41933 01350 82005 10310 20250 30022 40031 76122 8572/ 333 59004 70000 82708 84615 88457==
41933,2023,06,26,09,00,AAXX 26094 41933 01450 61804 10299 20250 30006 40015 70162 83570 333 58003 70001 83618 85362==
41933,2023,06,26,12,00,AAXX 26124 41933 11450 71803 10290 20240 30003 40011 69916 70362 84510 333 10314 59001 84618 87459==
41933,2023,06,26,15,00,AAXX 26154 41933 02450 41702 10275 20250 30023 40032 84500 333 58001 70001 84618==
41933,2023,06,26,18,00,AAXX 26184 41933 21450 71902 10256 20250 30027 40036 72162 84510 333 59008 60067 70065 84616 87458==
41933,2023,06,26,21,00,AAXX 26214 41933 01450 71502 10257 20240 30018 40027 70262 84510 333 59012 70067 84616 87458==
41933,2023,06,27,00,00,AAXX 27004 41933 11350 81503 10260 20240 30015 40024 69926 70362 8572/ 333 59010 70067 82709 84615 88458==
41933,2023,06,27,03,00,AAXX 27034 41933 01340 81802 10265 20260 30032 40041 76162 8572/ 333 20255 58000 70093 82709 84615 88458==
41933,2023,06,27,06,00,AAXX 27063 41933 01340 81702 10269 20250 30036 40044 76162 8572/ 333 58014 70163 82709 84615 88458==
41933,2023,06,27,09,00,AAXX 27094 41933 01450 71804 10280 20260 30018 40026 70162 83510 333 58012 70164 83615 86458==
41933,2023,06,27,12,00,AAXX 27124 41933 01340 81803 10270 20250 30028 40036 76162 8572/ 333 10284 58025 70168 83708 84615 88457==
41933,2023,06,27,15,00,AAXX 27154 41933 01440 80000 10265 20260 30042 40050 70262 8352/ 333 58019 70178 83615 88457==
41933,2023,06,27,18,00,AAXX 27184 41933 01340 80000 10270 20260 30049 40057 76162 8572/ 333 58022 70114 82708 83615 88457==
41933,2023,06,27,21,00,AAXX 27214 41933 01340 81802 10268 20260 30041 40049 70266 8562/ 333 58023 70128 82708 83615 88457==
41933,2023,06,28,00,00,AAXX 28004 41933 11340 81802 10265 20260 30036 40044 60026 70262 8572/ 333 58021 70128 83708 84615 88457==
41933,2023,06,28,03,00,AAXX 28034 41933 01340 80000 10264 20264 30065 40073 76196 8572/ 333 20256 58033 70654 83708 84615 88457==
41933,2023,06,28,06,00,AAXX 28064 41933 21456 61803 10306 20270 30057 40065 70196 83520 333 58021 60599 70624 83615 85458==
41933,2023,06,28,09,00,AAXX 28094 41933 01340 81804 10300 20270 30037 40045 76196 8672/ 333 58019 70771 83709 84615 88457==
41933,2023,06,28,12,00,AAXX 28124 41933 01340 81802 10288 20270 30038 40046 76396 8672/ 333 10314 58010 70815 83709 84615 88456==
41933,2023,06,28,15,00,AAXX 28154 41933 01330 81702 10254 20240 30053 40062 76396 8672/ 333 58011 71373 83708 84615 88456==
41933,2023,06,28,18,00,AAXX 28184 41933 21350 81802 10270 20260 30057 40066 72196 8572/ 333 58008 60809 71609 82709 84616 88458==
41933,2023,06,28,21,00,AAXX 28214 41933 02450 50000 10270 20260 30046 40055 82530 333 58005 71593 82616 85362==
41933,2023,06,29,00,00,AAXX 29004 41933 02450 40000 10270 20260 30044 40053 82540 333 58008 71593 82616 84362==
41933,2023,06,29,03,00,AAXX 29034 41933 02456 51804 10305 20270 30055 40063 83540 333 20249 59010 71041 83618 85362==
41933,2023,06,29,06,00,AAXX 29064 41933 01340 81903 10253 20240 30065 40076 79522 8692/ 333 58008 70080 82709 84615 88457 81925==
41933,2023,06,29,09,00,AAXX 29094 41933 01456 71802 10286 20270 30041 40049 70196 84510 333 58004 70947 84618 87458==
41933,2023,06,29,12,00,AAXX 29124 41933 21456 71902 10280 20260 30032 40041 70262 83520 333 10314 59006 60025 70905 83618 87458==
41933,2023,06,29,15,00,AAXX 29154 41933 02456 60000 10270 20250 30045 40054 83520 333 59008 70337 83618 86458==
41933,2023,06,29,18,00,AAXX 29184 41933 02456 60000 10270 20250 30048 40057 83520 333 59009 70101 83618 86458==
41933,2023,06,29,21,00,AAXX 29214 41933 01456 70000 10265 20260 30040 40049 70362 83520 333 59006 70103 83618 87458==
41936,2023,06,23,00,00,AAXX 23004 41936 01416 52603 10268 20260 30016 40023 70522 84830 333 58000 70000 83615==
41936,2023,06,23,03,00,AAXX 23034 41936 01420 61805 10298 20280 30025 40032 70522 83830 333 20266 59003 70260 83615 84362==
41936,2023,06,23,06,00,AAXX 23064 41936 01440 80607 10334 20270 30013 40020 70522 83830 333 59009 70260 83710 83615 85360==
41936,2023,06,23,09,00,AAXX 23094 41936 01435 50905 10302 20270 39994 40001 79596 82930 333 59023 70260 82710 83362 81930==
41936,2023,06,23,12,00,AAXX 23124 41936 01440 51203 10324 20270 39979 49986 70596 82630 333 10348 59025 70010 82710 83362==
41936,2023,06,23,15,00,AAXX 23154 41936 01440 31203 10296 20270 39993 40000 70521 81530 333 59031 70010 81615 83362==
41936,2023,06,23,18,00,AAXX 23184 41936 01440 30903 10288 20280 30003 40010 70511 81530 333 59023 70010 81615 83362==
41936,2023,06,23,21,00,AAXX 23214 41936 01430 30903 10280 20260 39998 40005 70562 82530 333 59026 70010 82615 83362==
41936,2023,06,24,00,00,AAXX 24004 41936 01316 70903 10266 20260 39985 49992 70562 84362 333 59031 70030 82710 83615 86362==
41936,2023,06,24,03,00,AAXX 24034 41936 01430 51408 10308 20282 30003 40010 70562 81630 333 20260 59022 70030 81710 83615==
41936,2023,06,24,06,00,AAXX 24064 41936 01330 81712 10340 20270 39996 40003 70522 83730 333 59017 70000 83707 83615 85362==
41936,2023,06,24,09,00,AAXX 24094 41936 01325 61308 10328 20280 39993 40000 70562 81630 333 58001 70050 81710 83615==
41936,2023,06,24,12,00,AAXX 24124 41936 01330 71405 10314 20260 39982 49989 70562 83730 333 10342 58003 70000 83708 83615 85362==
41936,2023,06,24,15,00,AAXX 24154 41936 01430 61205 10300 20260 39996 40003 70522 83830 333 58003 70050 83615 84362==
41936,2023,06,24,18,00,AAXX 24184 41936 01430 40805 10288 20260 30006 40013 70522 82830 333 58003 70050 82615 83362==
41936,2023,06,24,21,00,AAXX 24214 41936 01430 40907 10278 20260 39991 49998 70522 82830 333 59007 70050 82615 83362==
41936,2023,06,25,00,00,AAXX 25004 41936 01320 70903 10272 20260 39992 49999 70522 83630 333 58007 70050 83708 83615 84362==
41936,2023,06,25,03,00,AAXX 25034 41936 01320 71210 10306 20270 30007 40011 70562 83630 333 20264 58004 70020 83708 83615 84362==
41936,2023,06,25,06,00,AAXX 25064 41936 01330 71211 10310 20270 30003 40010 70562 83630 333 58007 70000 83708 83615 84362==
41936,2023,06,25,09,00,AAXX 25094 41936 02330 71413 10330 20260 39978 49985 84630 333 59012 70000 82710 83615 85362==
41936,2023,06,25,12,00,AAXX 25124 41936 01350 71412 10300 20260 39977 49984 70522 84630 333 10330 59005 70000 82710 83615 85362==
41936,2023,06,25,15,00,AAXX 25154 41936 01450 41210 10286 20250 39991 49998 70522 82830 333 59005 70000 82615 84362==
41936,2023,06,25,18,00,AAXX 25184 41936 01330 71403 10278 20260 30002 40009 76022 84730 333 59009 70000 82710 83615 86362==
41936,2023,06,25,21,00,AAXX 25214 41936 01430 51203 10268 20250 39992 49999 70562 82630 333 58001 70050 82615 84362==
41936,2023,06,26,00,00,AAXX 26004 41936 01320 71103 10268 20250 39996 40003 70522 84730 333 59004 70050 82710 83615 85362==
41936,2023,06,26,03,00,AAXX 26034 41936 01325 71107 10302 20260 30013 40020 70522 84730 333 20264 58006 70050 83710 83615 85362==
41936,2023,06,26,06,00,AAXX 26064 41936 01320 71606 10294 20270 30008 40012 70562 82730 333 58005 70110 82708 83615 86362==
41936,2023,06,26,09,00,AAXX 26094 41936 01335 71706 10312 20260 39983 49990 76062 84730 333 58005 70170 83708 83615 86362==
41936,2023,06,26,12,00,AAXX 26124 41936 01335 72104 10278 20260 39985 49992 70562 84730 333 10340 58009 70060 83708 83615 86362==
41936,2023,06,26,15,00,AAXX 26154 41936 01335 71603 10274 20260 30004 40011 70522 84630 333 58013 70220 82710 83615 85362==
41936,2023,06,26,18,00,AAXX 26184 41936 01330 71603 10274 20260 30014 40021 70522 84630 333 58012 70220 82710 83615 85362==
41936,2023,06,26,21,00,AAXX 26214 41936 01330 71403 10272 20260 30005 40012 70522 84630 333 58003 70170 82710 83615 85362==
41936,2023,06,27,00,00,AAXX 27004 41936 01320 71404 10272 20260 39993 40000 70522 84630 333 59003 70170 82710 83615 85362==
41936,2023,06,27,03,00,AAXX 27034 41936 01320 81104 10278 20260 30010 40017 76162 84730 333 20254 59004 70190 83708 83615 87362==
41936,2023,06,27,06,00,AAXX 27064 41936 01325 71603 10300 20270 30005 40012 72162 83730 333 59003 70020 83708 83615 86362==
41936,2023,06,27,09,00,AAXX 27094 41936 01330 71704 10302 20250 39997 40004 70562 84730 333 58014 70900 83710 83615 86362==
41936,2023,06,27,12,00,AAXX 27124 41936 01330 71703 10296 20260 30000 40007 70522 84730 333 10314 58015 70400 83710 83615 86362==
41936,2023,06,27,15,00,AAXX 27154 41936 01330 71405 10280 20260 30020 40027 70522 84730 333 58016 70040 83710 83615 86362==
41936,2023,06,27,18,00,AAXX 27184 41936 01330 71404 10274 20260 30025 40032 70522 84730 333 58011 70040 83710 83615 86362==
41936,2023,06,27,21,00,AAXX 27214 41936 01330 71603 10272 20260 30017 40024 70522 84730 333 58012 70060 83710 83615 86362==
41936,2023,06,28,00,00,AAXX 28004 41936 01314 72114 10254 20240 30024 40031 79596 85930 333 58031 70150 83615 87360 81930==
41936,2023,06,28,03,00,AAXX 28034 41936 01210 81603 10260 20250 30040 40047 79596 85920 333 20242 58030 70260 85706 83612 88260==
41936,2023,06,28,06,00,AAXX 28064 41936 01212 81803 10258 20250 30050 40057 79596 85920 333 58045 70540 85706 83612 88260 81930==
41936,2023,06,28,09,00,AAXX 28094 41936 01330 81604 10274 20250 30018 40025 70596 84630 333 58021 70830 84608 83615 87362==
41936,2023,06,28,12,00,AAXX 28124 41936 01330 81604 10278 20260 30020 40027 70522 84630 333 10290 58020 70830 84610 83615 87362==
41936,2023,06,28,15,00,AAXX 28154 41936 01803 81803 10266 20250 30036 40043 76062 85620 333 58016 70830 83710 83615 86260==
41936,2023,06,28,18,00,AAXX 28184 41936 01803 71803 10266 20250 30046 40053 70562 84630 333 58021 70000 83710 83615 86362==
41936,2023,06,28,21,00,AAXX 28214 41936 01320 71803 10260 20250 30038 40045 72196 84630 333 58021 70840 82710 83615 86362==
41936,2023,06,29,00,00,AAXX 29004 41936 01316 81806 10246 20240 30028 40035 76096 85620 333 58004 70060 85708 83315 87260==
41936,2023,06,29,03,00,AAXX 29034 41936 01330 82304 10286 20270 30040 40047 70562 84630 333 20240 58000 70460 84710 83615 87362==
41936,2023,06,29,06,00,AAXX 29064 41936 01330 81703 10276 20260 30042 40049 70562 84630 333 59008 70000 84710 83415 87362==
41936,2023,06,29,09,00,AAXX 29094 41936 01330 81710 10288 20260 30026 40033 70562 84630 333 58008 70180 83710 83615 86362==
41936,2023,06,29,12,00,AAXX 29124 41936 01335 71706 10286 20260 30022 40029 70522 84630 333 10294 58002 70060 83710 83615 86362==
41936,2023,06,29,15,00,AAXX 29154 41936 01335 71803 10276 20260 30038 40045 70522 84630 333 58002 70060 82710 83615 86362==
41936,2023,06,29,18,00,AAXX 29184 41936 01330 71803 10270 20250 30048 40055 70522 84630 333 58002 70060 82710 83615 86362==
41936,2023,06,29,21,00,AAXX 29214 41936 01330 71803 10250 20230 30038 40045 70522 84630 333 58000 70030 82710 83615 86362==
41938,2023,06,23,00,00,AAXX 23004 41938 32450 30000 10265 20260 30016 40020 83500 333 56900 59005 70012 83618=
41938,2023,06,23,06,00,AAXX 23064 41938 32450 51802 10303 20260 30019 40023 84410 333 56490 59003 70012 83618 83459=
41938,2023,06,23,12,00,AAXX 23124 41938 11456 11701 10297 20260 39995 49999 60053 70162 81401 333 10321 56409 59016 70054 81618=
41938,2023,06,23,18,00,AAXX 23184 41938 32456 51602 10277 20270 30008 40012 83511 333 56499 59008 70054 83617 83460=
41938,2023,06,24,00,00,AAXX 24004 41938 32356 71303 10277 20270 30004 40008 85671 333 56399 59016 70054 81709 83617 85460=
41938,2023,06,24,06,00,AAXX 24064 41938 11456 71502 10320 20260 30005 40009 69903 72162 86470 333 56390 59014 70054 83617 84824 85460=
41938,2023,06,24,12,00,AAXX 24124 41938 11456 71301 10302 20250 39991 49995 69906 70362 82471 333 10330 56399 59004 79999 81618 85362=
41938,2023,06,24,18,00,AAXX 24184 41938 32456 51503 10277 20260 30012 40016 85400 333 56300 58004 79999 84617=
41938,2023,06,25,00,00,AAXX 25004 41938 11356 71105 10272 20260 30008 40012 60014 70162 83671 333 56399 58004 70006 81709 83617=
41938,2023,06,25,06,00,AAXX 25064 41938 11456 71303 10290 20260 30014 40018 69942 76162 85471 333 56399 58009 70007 83617 83824 85460=
41938,2023,06,25,12,00,AAXX 25124 41938 11456 51405 10289 20250 30001 40005 69905 70162 83532 333 10325 56399 58010 70007 83616=
41938,2023,06,25,18,00,AAXX 25184 41938 32456 41303 10274 20250 30019 40023 84500 333 56300 58007 70007 84616=
41938,2023,06,26,00,00,AAXX 26004 41938 11356 71204 10270 20250 30013 40017 69913 72062 85622 333 56399 59005 70002 81708 85616 85460=
41938,2023,06,26,06,00,AAXX 26064 41938 11356 81403 10292 20250 30016 40020 69925 70362 8672/ 333 56399 59002 70003 81708 86616 88460=
41938,2023,06,26,12,00,AAXX 26124 41938 11350 81403 10290 20260 39998 40002 69903 76152 8672/ 333 10315 56399 59003 70003 82708 85615 88460=
41938,2023,06,26,18,00,AAXX 26184 41938 11356 71503 10265 20260 30017 40021 60086 70262 84620 333 56390 59002 70083 81709 84616 87460=
41938,2023,06,27,00,00,AAXX 27004 41938 32356 81503 10265 20260 30007 40011 8662/ 333 56399 59006 70082 81708 86615 88460=
41938,2023,06,27,06,00,AAXX 27063 41938 11350 81603 10274 20260 30021 40025 60143 76162 8672/ 333 56499 58005 70224 82708 84614 88458=
41938,2023,06,27,12,00,AAXX 27124 41938 11450 70000 10280 20270 30013 40017 60014 84510 333 10285 56990 58015 70236 84618 84459=
41938,2023,06,27,18,00,AAXX 27184 41938 32450 50000 10273 20250 30037 40041 84510 333 45990 58000 70156 84618=
41938,2023,06,28,00,00,AAXX 28004 41938 11450 70000 10255 20250 30030 40034 60339 79596 85910 333 56590 58023 70490 84618 81928 85459=
41938,2023,06,28,06,00,AAXX 28064 41938 11450 70000 10273 20250 30062 40066 60294 79522 85810 333 56990 58041 70634 84618 81928 85459=
41938,2023,06,28,12,00,AAXX 28124 41938 11450 70000 10258 20258 30030 40034 60359 85910 333 10275 56990 58032 70967 84618 81928 85459=
41938,2023,06,28,18,00,AAXX 28184 41938 11450 70000 10255 20250 30042 40046 71796 85910 333 56590 58005 70991 84618 81928 85459=
41938,2023,06,29,00,00,AAXX 29004 41938 11450 70000 10270 20260 30042 40046 60137 79596 85910 333 56990 58005 70657 84608 81928 85459=
41938,2023,06,29,06,00,AAXX 29064 41938 11450 80000 10255 20250 30050 40054 60109 79596 8592/ 333 56999 59012 70595 84618 81928 88459=
41938,2023,06,29,12,00,AAXX 29124 41938 11450 70000 10265 20260 30026 40030 60038 70296 84510 333 10272 56990 59004 70280 84618 84459=
41938,2023,06,29,18,00,AAXX 29184 41938 32450 40000 10265 20250 30032 40036 84500 333 59010 70256 84618=
41939,2023,06,23,00,00,AAXX 23004 41939 02456 40000 10270 20260 30032 40040 82530 333 59004 70000 82617 83365==
41939,2023,06,23,03,00,AAXX 23034 41939 02457 70000 10295 20270 30040 40048 82510 333 20262 59004 70000 82617 86459==
41939,2023,06,23,06,00,AAXX 23064 41939 02457 60000 10312 20270 30031 40039 82510 333 59010 70000 82617 86459==
41939,2023,06,23,09,00,AAXX 23094 41939 01457 60000 10305 20280 39999 40007 70262 82510 333 59027 70026 82617 86459==
41939,2023,06,23,12,00,AAXX 23124 41939 21456 60000 10295 20280 30008 40016 70162 83510 333 10330 59016 60038 70026 83618 85459==
41939,2023,06,23,15,00,AAXX 23154 41939 02450 30000 10283 20260 30002 40010 83500 333 59030 70026 83618==
41939,2023,06,23,18,00,AAXX 23184 41939 02450 30000 10272 20250 30018 40026 83500 333 59023 70026 83618==
41939,2023,06,23,21,00,AAXX 23214 41939 02450 50000 10270 20250 30025 40033 83530 333 59015 70026 83617 83365==
41939,2023,06,24,00,00,AAXX 24004 41939 02456 10000 10268 20260 30010 40018 81500 333 59020 70026 81618==
41939,2023,06,24,03,00,AAXX 24034 41939 02458 40000 10310 20260 30027 40034 82530 333 20263 59013 70026 82618 83365==
41939,2023,06,24,06,00,AAXX 24064 41939 02458 60000 10323 20260 30033 40041 83510 333 59010 70026 83617 85459==
41939,2023,06,24,09,00,AAXX 24094 41939 02458 60000 10330 20270 39995 40003 83510 333 59004 70000 83618 85459==
41939,2023,06,24,12,00,AAXX 24124 41939 02457 60000 10300 20260 30008 40016 83530 333 10330 58008 70000 83617 83364==
41939,2023,06,24,15,00,AAXX 24154 41939 02456 70000 10294 20270 30018 40026 83530 333 58016 70000 83617 85459==
41939,2023,06,24,21,00,AAXX 24214 41939 02450 60000 10270 20250 30015 40023 83510 333 59010 70000 83618 85459==
41939,2023,06,25,00,00,AAXX 25004 41939 02456 60000 10270 20250 30005 40013 83510 333 59005 70000 83618 85459==
41939,2023,06,25,03,00,AAXX 25034 41939 02458 60000 10295 20270 30018 40026 83510 333 20224 59009 70000 83618 85459==
41939,2023,06,25,06,00,AAXX 25064 41939 01457 70000 10280 20260 30026 40034 76122 82510 333 58014 70030 82616 87459==
41939,2023,06,25,09,00,AAXX 25094 41939 02458 20000 10310 20260 30001 40009 82530 333 58006 70026 82618==
41939,2023,06,25,12,00,AAXX 25124 41939 02456 50000 10293 20250 30015 40023 83530 333 10330 58007 70026 83617 83365==
41939,2023,06,25,15,00,AAXX 25154 41939 01450 50000 10270 20250 30027 40035 70262 82510 333 58009 70034 82617 85459==
41939,2023,06,25,18,00,AAXX 25184 41939 11450 50000 10267 20260 30035 40043 60016 70262 82510 333 58010 70034 82617 85459==
41939,2023,06,25,21,00,AAXX 25214 41939 01456 80000 10272 20260 30030 40038 70362 8352/ 333 58015 70074 83617 88459==
41939,2023,06,26,00,00,AAXX 26004 41939 02456 70000 10270 20260 30023 40031 82510 333 58018 70074 82617 85459==
41939,2023,06,26,03,00,AAXX 26034 41939 02457 80000 10290 20260 30030 40038 8252/ 333 20160 58012 70074 82617 88459==
41939,2023,06,26,06,00,AAXX 26064 41939 01457 70000 10295 20270 30013 40021 70162 83510 333 59013 70010 83616 87459==
41939,2023,06,26,09,00,AAXX 26094 41939 02457 60000 10300 20250 39995 40003 82510 333 59006 70062 82617 86460==
41939,2023,06,26,12,00,AAXX 26124 41939 21456 80000 10287 20270 30005 40013 70266 8352/ 333 10305 59015 60079 70074 83617 88459==
41939,2023,06,26,15,00,AAXX 26154 41939 02450 60000 10280 20260 30016 40024 83510 333 59011 70066 83618 85459==
41939,2023,06,26,18,00,AAXX 26184 41939 02450 60000 10272 20260 30025 40033 83510 333 59010 70066 83618 85459==
41939,2023,06,26,21,00,AAXX 26214 41939 02450 80000 10265 20250 30022 40030 8352/ 333 59008 70026 83617 88459==
41939,2023,06,27,00,00,AAXX 27004 41939 21450 80000 10260 20250 30015 40023 70262 8352/ 333 59008 60015 70040 83617 88459==
41939,2023,06,27,03,00,AAXX 27034 41939 01456 80000 10275 20260 30030 40039 70262 8352/ 333 20248 58001 70046 83617 88459==
41939,2023,06,27,06,00,AAXX 27064 41939 01450 80000 10270 20260 30039 40047 76166 8471/ 333 58026 70376 81709 83615 88457==
41939,2023,06,27,09,00,AAXX 27094 41939 01450 80000 10275 20260 30009 40017 70262 8351/ 333 58014 70396 83616 88459==
41939,2023,06,27,12,00,AAXX 27124 41939 11456 80000 10270 20260 30014 40022 60026 70262 8352/ 333 10280 58014 70384 83617 88459==
41939,2023,06,27,15,00,AAXX 27154 41939 02450 60000 10280 20260 30026 40034 83510 333 58010 70384 83618 85459==
41939,2023,06,27,18,00,AAXX 27184 41939 02450 60000 10273 20250 30038 40046 83510 333 58013 70384 83618 85459==
41939,2023,06,27,21,00,AAXX 27214 41939 02456 80000 10265 20265 30050 40058 8352/ 333 58028 70384 83617 88459==
41939,2023,06,28,00,00,AAXX 28004 41939 21456 80000 10266 20266 30044 40052 70262 8352/ 333 58029 60097 70460 83617 88459==
41939,2023,06,28,03,00,AAXX 28034 41939 02457 80000 10280 20260 30060 40068 8352/ 333 20260 58029 70454 83617 88459==
41939,2023,06,28,06,00,AAXX 28064 41939 02456 80000 10310 20280 30057 40065 8352/ 333 58018 70110 83616 88459==
41939,2023,06,28,09,00,AAXX 28094 41939 01456 80000 10260 20260 30043 40051 76166 8352/ 333 58034 70220 83616 88458==
41939,2023,06,28,12,00,AAXX 28124 41939 21450 80000 10260 20250 30042 40050 70266 8352/ 333 10312 58028 60189 70268 83616 88459==
41939,2023,06,28,15,00,AAXX 28154 41939 01450 80000 10261 20260 30060 40068 70262 8352/ 333 58034 70278 83617 88459==
41939,2023,06,28,18,00,AAXX 28184 41939 22450 80000 10260 20250 30068 40076 8352/ 333 58030 60015 70278 83617 88459==
41939,2023,06,29,00,00,AAXX 29004 41939 01456 80000 10277 20277 30050 40058 70262 8352/ 333 58006 70283 83617 88459==
41939,2023,06,29,03,00,AAXX 29034 41939 01456 80000 10264 20260 30046 40054 76162 8352/ 333 20250 58002 70353 83617 88458==
41939,2023,06,29,06,00,AAXX 29064 41939 21356 80000 10256 20250 30062 40070 76162 8672/ 333 58005 60229 70503 83708 83615 88458==
41939,2023,06,29,09,00,AAXX 29094 41939 01458 80000 10280 20260 30045 40053 72166 8252/ 333 59004 70463 82617 88459==
41939,2023,06,29,12,00,AAXX 29124 41939 21456 70000 10278 30039 40047 70162 83510 333 10310 59003 60098 70326 83617 87459==
41939,2023,06,29,15,00,AAXX 29154 41939 02450 50000 10262 20250 30053 40061 82510 333 59007 70315 82617 85459==
41939,2023,06,29,18,00,AAXX 29184 41939 02450 50000 10260 20250 30062 40070 82510 333 59006 70315 82617 85459==
41939,2023,06,29,21,00,AAXX 29214 41939 02450 80000 10265 20260 30045 40053 8352/ 333 59010 70315 83618 88459==
41941,2023,06,23,00,00,AAXX 23004 41941 02450 81803 10275 20270 30034 40039 8632/ 333 59003 70000 85616 88458 81930==
41941,2023,06,23,03,00,AAXX 23034 41941 02456 81804 10305 20270 30043 40048 8632/ 333 20272 59012 70000 85616 88458 81930==
41941,2023,06,23,06,00,AAXX 23064 41941 02450 81804 10318 20270 30032 40037 8632/ 333 59016 70000 85616 88458 81930==
41941,2023,06,23,09,00,AAXX 23094 41941 01450 81803 10285 20280 30010 40015 70262 8632/ 333 59018 70100 85614 88456 81925==
41941,2023,06,23,12,00,AAXX 23124 41941 11450 60000 10300 20270 30002 40008 60106 70162 85420 333 10332 59017 70100 84616 86458==
41941,2023,06,23,15,00,AAXX 23154 41941 02440 61804 10285 20270 30015 40021 85420 333 59020 70100 84616 86458==
41941,2023,06,23,18,00,AAXX 23184 41941 02440 61803 10280 20260 30027 40032 85420 333 59007 70100 84616 86458==
41941,2023,06,23,21,00,AAXX 23214 41941 02440 60000 10275 20270 30025 40031 85420 333 59007 70100 84616 86458==
41941,2023,06,24,00,00,AAXX 24004 41941 02450 61803 10268 20260 30023 40029 85420 333 59011 70100 84616 86458==
41941,2023,06,24,03,00,AAXX 24034 41941 02450 71804 10305 20270 30026 40031 85420 333 20267 59017 70100 84616 87458==
41941,2023,06,24,06,00,AAXX 24064 41941 02450 71804 10315 20260 30019 40024 85420 333 59013 70100 84616 87458==
41941,2023,06,24,09,00,AAXX 24094 41941 02456 71802 10317 20250 30005 40010 85420 333 59005 70000 84616 87458==
41941,2023,06,24,12,00,AAXX 24124 41941 02450 61806 10298 20260 30001 40007 85420 333 10327 59001 70000 84616 86458==
41941,2023,06,24,15,00,AAXX 24154 41941 02440 61804 10285 20270 30023 40028 85420 333 58007 70000 84616 86458==
41941,2023,06,24,21,00,AAXX 24214 41941 02440 61802 10275 20270 30023 40029 85420 333 59002 70000 84616 86458==
41941,2023,06,25,00,00,AAXX 25004 41941 02450 61803 10270 20260 30020 40026 85420 333 59003 70000 84616 87458==
41941,2023,06,25,03,00,AAXX 25034 41941 02456 61804 10307 20260 30029 40034 85420 333 20268 58003 70000 84616 86458==
41941,2023,06,25,06,00,AAXX 25064 41941 02456 72204 10330 20220 30026 40031 85420 333 58007 70000 84616 87458==
41941,2023,06,25,09,00,AAXX 25094 41941 02456 71806 10312 20260 30009 40014 85420 333 58004 70000 84616 87458==
41941,2023,06,25,12,00,AAXX 25124 41941 02450 61803 10310 20260 30007 40012 85420 333 10337 58006 70000 84616 86458==
41941,2023,06,25,15,00,AAXX 25154 41941 02450 61506 10289 20260 30026 40031 85420 333 58003 70000 84616 86458==
41941,2023,06,25,18,00,AAXX 25184 41941 02440 61504 10283 20250 30036 40041 85420 333 58009 70000 84616 86458==
41941,2023,06,25,21,00,AAXX 25214 41941 02440 61502 10280 20260 30030 40035 85420 333 58007 70000 84616 86458==
41941,2023,06,26,00,00,AAXX 26004 41941 02450 81503 10270 20260 30034 40040 8632/ 333 58014 70000 85616 88458 81930==
41941,2023,06,26,03,00,AAXX 26034 41941 02450 81503 10275 20260 30036 40041 8632/ 333 20265 58007 70000 85616 88458 81930==
41941,2023,06,26,06,00,AAXX 26064 41941 02456 81806 10300 20250 30027 40032 8632/ 333 58001 70000 85615 88458 81928==
41941,2023,06,26,09,00,AAXX 26094 41941 02456 71804 10300 20260 30017 40022 85420 333 58008 70000 84616 87458==
41941,2023,06,26,12,00,AAXX 26124 41941 01450 80000 10280 20260 30016 40021 76162 8632/ 333 10306 58009 70020 85612 88456 81925==
41941,2023,06,26,15,00,AAXX 26154 41941 02440 71804 10270 20260 30036 40041 85420 333 58010 70020 84616 87458==
41941,2023,06,26,18,00,AAXX 26184 41941 NIL=
41941,2023,06,26,21,00,AAXX 26214 41941 01440 81805 10264 20250 30033 40039 71322 8632/ 333 58003 70030 85615 88458 81928==
41941,2023,06,27,00,00,AAXX 27004 41941 21450 80000 10250 20250 30028 40034 72162 8772/ 333 59006 60107 70130 82708 84612 88456==
41941,2023,06,27,03,00,AAXX 27034 41941 02440 61502 10280 20260 30030 40035 85420 333 58007 70000 84616 86458==
41941,2023,06,27,06,00,AAXX 27064 41941 21450 81404 10263 20260 30038 40044 76366 8772/ 333 58011 60209 70330 83708 84612 88456 81924==
41941,2023,06,27,09,00,AAXX 27094 41941 01450 81804 10270 20270 30024 40030 76166 8632/ 333 58007 70350 85612 88456 81925==
41941,2023,06,27,12,00,AAXX 27124 41941 21440 81804 10268 20260 30027 40033 72166 8632/ 333 20280 58011 60039 70340 85613 88456 81925==
41941,2023,06,27,15,00,AAXX 27154 41941 01440 80000 10265 20260 30047 40053 71322 8632/ 333 58011 70340 85616 88458 81930==
41941,2023,06,27,18,00,AAXX 27184 41941 01340 81803 10266 20260 30049 40055 71322 8772/ 333 58009 70330 82708 84612 88457 81926==
41941,2023,06,28,00,00,AAXX 28004 41941 01340 81804 10265 20265 30045 40051 72996 8792/ 333 58017 70020 82708 83612 88456 82923==
41941,2023,06,28,03,00,AAXX 28034 41941 01350 81804 10265 20265 30068 40074 72996 8792/ 333 20255 58032 70280 82708 83612 88456 82924==
41941,2023,06,28,06,00,AAXX 28064 41941 11456 81806 10290 20290 30053 40059 60096 70296 8632/ 333 58015 70140 85616 88458 81930==
41941,2023,06,28,09,00,AAXX 28094 41941 01450 81804 10270 20260 30041 40047 76261 8632/ 333 58017 70130 85616 88482 81930==
41941,2023,06,28,12,00,AAXX 28124 41941 01450 80000 10267 20267 30045 40051 72166 8632/ 333 10303 58018 70160 85612 88458 81925==
41941,2023,06,28,15,00,AAXX 28154 41941 01440 81803 10265 20265 30062 40068 76162 8632/ 333 58015 70170 85612 88456 81925==
41941,2023,06,28,18,00,AAXX 28184 41941 11440 80000 10266 20266 30064 40070 60036 71362 8632/ 333 58015 70190 85616 88458 81930==
41941,2023,06,28,21,00,AAXX 28214 41941 01440 80000 10270 20260 30054 40060 71322 8632/ 333 58015 70190 85616 88458 81930==
41941,2023,06,29,00,00,AAXX 29004 41941 02350 81804 10275 20270 30048 40054 8772/ 333 58003 70170 82708 83613 88457 81925==
41941,2023,06,29,06,00,AAXX 29064 41941 21450 82203 10255 20255 30069 40075 76366 8772/ 333 58016 60237 70310 82708 83612 88456 81924==
41941,2023,06,29,09,00,AAXX 29094 41941 01450 81803 10270 20260 30049 40055 76162 8772/ 333 58008 70320 82708 83612 88456 81924==
41941,2023,06,29,12,00,AAXX 29124 41941 01450 71804 10275 20270 30039 40045 70162 85420 333 10305 59006 70280 84616 87458==
41941,2023,06,29,15,00,AAXX 29154 41941 01440 81804 10270 20260 30041 40047 71322 8632/ 333 58021 70270 85615 88458 81928==
41941,2023,06,29,21,00,AAXX 29214 41941 01440 80000 10270 20260 30037 40043 72162 8632/ 333 59017 70260 85612 88456 81924==
41943,2023,06,23,00,00,AAXX 23004 41943 02430 80000 10260 20240 30030 40037 8662/ 333 59014 70040 83710 84615 88458==
41943,2023,06,23,03,00,AAXX 23034 41943 02440 61803 10315 20250 30038 40045 84520 333 20260 59015 70040 84616 85458==
41943,2023,06,23,06,00,AAXX 23064 41943 02440 61804 10315 20260 30026 40033 83520 333 59024 70040 83616 85458==
41943,2023,06,23,09,00,AAXX 23094 41943 02440 71805 10314 20260 30006 40013 84520 333 59020 70040 84616 86458==
41943,2023,06,23,12,00,AAXX 23124 41943 02430 81805 10295 20250 30006 40013 8662/ 333 10335 59014 70000 83710 84615 88458==
41943,2023,06,23,15,00,AAXX 23154 41943 02430 81802 10280 20250 30023 40030 8662/ 333 59013 70000 83710 84615 88458==
41943,2023,06,23,18,00,AAXX 23184 41943 02430 80000 10277 20250 30029 40036 8662/ 333 59013 70000 83710 84615 88458==
41943,2023,06,23,21,00,AAXX 23214 41943 02430 80000 10270 20250 30027 40034 8662/ 333 59013 70000 83710 84615 88458==
41943,2023,06,24,00,00,AAXX 24004 41943 01430 81302 10255 20250 30019 40026 70262 8662/ 333 59011 70100 83710 84615 88458==
41943,2023,06,24,03,00,AAXX 24034 41943 02435 61802 10310 20240 30029 40036 84520 333 20255 59009 70100 84616 85458==
41943,2023,06,24,06,00,AAXX 24064 41943 02440 81802 10315 20250 30030 40037 8662/ 333 58004 70100 83710 84615 88458==
41943,2023,06,24,09,00,AAXX 24094 41943 02440 71804 10324 20230 30009 40016 84520 333 58003 70100 84615 86458==
41943,2023,06,24,12,00,AAXX 24124 41943 02430 81802 10294 20240 30004 40011 8662/ 333 10326 59002 70100 83710 84615 88458==
41943,2023,06,24,15,00,AAXX 24154 41943 02330 81802 10274 20230 30022 40029 8662/ 333 59001 70100 83710 84615 88458==
41943,2023,06,24,21,00,AAXX 24214 41943 02330 80000 10262 20230 30026 40033 8662/ 333 59001 70100 83710 84614 88458==
41943,2023,06,25,00,00,AAXX 25004 41943 02330 80000 10258 20230 30020 40027 8662/ 333 58001 70000 83710 84615 88458==
41943,2023,06,25,03,00,AAXX 25034 41943 02440 61803 10300 20240 30038 40045 84520 333 20255 58009 70000 84616 86458==
41943,2023,06,25,06,00,AAXX 25064 41943 02440 61804 10334 20230 30032 40039 83520 333 58002 70000 83616 86458==
41943,2023,06,25,09,00,AAXX 25094 41943 02435 71804 10328 20240 30016 40023 84520 333 58007 70000 84615 87458==
41943,2023,06,25,12,00,AAXX 25124 41943 02440 61803 10298 20240 30012 40019 83520 333 10335 58008 70000 83616 85458==
41943,2023,06,25,15,00,AAXX 25154 41943 02330 81803 10284 20240 30029 40038 8662/ 333 58007 70000 83810 84615 88458==
41943,2023,06,25,18,00,AAXX 25184 41943 02330 81802 10278 20250 30045 40052 8662/ 333 58011 70000 83710 84615 88458==
41943,2023,06,25,21,00,AAXX 25214 41943 02330 80000 10270 20250 30032 40039 8662/ 333 58006 70000 83710 84614 88458==
41943,2023,06,26,00,00,AAXX 26004 41943 02330 80000 10260 20240 30024 40031 8662/ 333 58004 70000 83710 84614 88458==
41943,2023,06,26,03,00,AAXX 26034 41943 01330 81802 10270 20250 30041 40048 76162 8762/ 333 20255 58003 70010 83710 84614 88458==
41943,2023,06,26,06,00,AAXX 26064 41943 21330 81802 10268 20260 30037 40044 76262 8772/ 333 58005 60067 70060 83709 84614 88458==
41943,2023,06,26,09,00,AAXX 26094 41943 01330 81802 10294 20240 30014 40021 70262 8662/ 333 59002 70070 83710 84614 88458==
41943,2023,06,26,12,00,AAXX 26124 41943 11330 81802 10292 20240 30012 40019 60016 70262 8662/ 333 10296 58000 70070 83710 84614 88458==
41943,2023,06,26,15,00,AAXX 26154 41943 02330 81802 10278 20250 30030 40037 8662/ 333 58001 70070 83710 84614 88458==
41943,2023,06,26,18,00,AAXX 26184 41943 21330 81802 10254 20240 30041 40048 76162 8772/ 333 59004 60167 70230 83709 84614 88458==
41943,2023,06,26,21,00,AAXX 26214 41943 01330 81802 10252 20240 30032 40039 70262 8662/ 333 58000 70250 83710 84614 88458==
41943,2023,06,27,00,00,AAXX 27004 41943 11330 80000 10250 20240 30023 40030 60026 70262 8662/ 333 59001 70250 83710 84614 88458==
41943,2023,06,27,03,00,AAXX 27034 41943 02330 81804 10270 20230 30038 40045 8662/ 333 20248 59003 70250 83710 84614 88458==
41943,2023,06,27,06,00,AAXX 27064 41943 21330 81803 10265 20260 30041 40048 76166 8772/ 333 58004 60257 70440 84709 84613 88456==
41943,2023,06,27,09,00,AAXX 27094 41943 01330 81804 10270 20250 30029 40036 76166 8772/ 333 58015 70474 84708 84613 88456==
41943,2023,06,27,12,00,AAXX 27124 41943 21330 81804 10258 20250 30036 40043 70262 8762/ 333 10275 58024 60058 70484 84709 84615 88456==
41943,2023,06,27,15,00,AAXX 27154 41943 02430 61804 10265 20260 30049 40056 83520 333 58019 70484 83616 86458==
41943,2023,06,27,18,00,AAXX 27184 41943 02330 81803 10265 20260 30056 40063 8662/ 333 58015 70324 83710 84615 88458==
41943,2023,06,27,21,00,AAXX 27214 41943 01330 81802 10260 20250 30050 40057 70262 8662/ 333 58018 70344 83709 84615 88458==
41943,2023,06,28,00,00,AAXX 28004 41943 11330 81802 10257 20250 30045 40052 60046 70262 8662/ 333 58022 70344 83709 84615 88458==
41943,2023,06,28,03,00,AAXX 28034 41943 02330 81802 10270 20250 30069 40076 8662/ 333 20250 58031 70344 83709 84615 88458==
41943,2023,06,28,06,00,AAXX 28064 41943 02440 81804 10315 20260 30065 40072 8662/ 333 58024 70094 83710 84615 88458==
41943,2023,06,28,09,00,AAXX 28094 41943 02440 61806 10320 20260 30045 40052 83520 333 58016 70050 83616 85458==
41943,2023,06,28,12,00,AAXX 28124 41943 02440 81804 10300 20260 30042 40049 8662/ 333 10325 58006 70040 83710 84615 88458==
41943,2023,06,28,15,00,AAXX 28154 41943 01330 81804 10278 20260 30063 40070 70262 8662/ 333 58014 70070 83709 84615 88458==
41943,2023,06,28,18,00,AAXX 28184 41943 11330 81804 10275 20260 30068 40075 60036 70262 8662/ 333 58012 70070 83709 84615 88458==
41943,2023,06,28,21,00,AAXX 28214 41943 02330 81804 10273 20260 30056 40063 8662/ 333 58006 70030 83709 84615 88458==
41943,2023,06,29,00,00,AAXX 29004 41943 02330 81804 10272 20260 30050 40057 8662/ 333 58005 70030 83709 84615 88458==
41943,2023,06,29,03,00,AAXX 29034 41943 02440 61804 10315 20270 30064 40071 84520 333 20268 59005 70030 84616 86458==
41943,2023,06,29,06,00,AAXX 29064 41943 02440 61806 10310 20260 30065 40072 84520 333 58000 70030 84616 86458==
41943,2023,06,29,09,00,AAXX 29094 41943 01440 61805 10305 20250 30050 40057 70262 84520 333 58005 70070 84616 86458==
41943,2023,06,29,12,00,AAXX 29124 41943 01440 81803 10275 20270 30035 40042 70366 8662/ 333 10323 59007 70110 83710 84615 88458==
41943,2023,06,29,15,00,AAXX 29154 41943 02330 81802 10265 20260 30046 40053 8662/ 333 59017 73710 84615 88458==
41943,2023,06,29,18,00,AAXX 29184 41943 02330 81802 10260 20250 30053 40060 8662/ 333 59015 70080 83710 84615 88458==
41943,2023,06,29,21,00,AAXX 29214 41943 02330 81802 10260 20250 30045 40052 8662/ 333 59011 70080 83710 84615 88458==
41944,2023,06,23,00,00,AAXX 23004 41944 NIL=
41944,2023,06,23,06,00,AAXX 23064 41944 NIL=
41944,2023,06,23,12,00,AAXX 23124 41944 NIL=
41944,2023,06,24,00,00,AAXX 24004 41944 NIL=
41944,2023,06,24,06,00,AAXX 24064 41944 NIL=
41944,2023,06,24,12,00,AAXX 24124 41944 NIL=
41944,2023,06,25,00,00,AAXX 25004 41944 NIL=
41944,2023,06,25,06,00,AAXX 25064 41944 NIL=
41944,2023,06,25,12,00,AAXX 25124 41944 NIL=
41944,2023,06,26,00,00,AAXX 26004 41944 NIL=
41944,2023,06,26,06,00,AAXX 26064 41944 NIL=
41944,2023,06,26,12,00,AAXX 26124 41944 NIL=
41944,2023,06,26,18,00,AAXX 26184 41944 NIL=
41944,2023,06,27,00,00,AAXX 27004 41944 NIL=
41944,2023,06,27,06,00,AAXX 27064 41944 NIL=
41944,2023,06,27,12,00,AAXX 27124 41944 NIL=
41944,2023,06,27,18,00,AAXX 27184 41944 NIL=
41944,2023,06,28,00,00,AAXX 28004 41944 NIL=
41944,2023,06,28,06,00,AAXX 28064 41944 NIL=
41944,2023,06,28,18,00,AAXX 28184 41944 NIL=
41944,2023,06,29,00,00,AAXX 29004 41944 NIL=
41944,2023,06,29,06,00,AAXX 29064 41944 NIL=
41944,2023,06,29,12,00,AAXX 29124 41944 NIL=
41946,2023,06,23,00,00,AAXX 23004 41946 02/56 50000 10277 20270 30020 40025 84054 333 59009 70000 84360==
41946,2023,06,23,03,00,AAXX 23034 41946 02456 50000 10320 20270 30026 40030 83430 333 20282 59012 70000 82618 84360==
41946,2023,06,23,06,00,AAXX 23064 41946 01456 70000 10320 20270 30016 40020 76122 85320 333 59022 70004 84615 87459 81928==
41946,2023,06,23,12,00,AAXX 23124 41946 01456 70000 10280 20260 39988 49993 76196 85320 333 10334 59029 70214 83618 86458 81928==
41946,2023,06,23,15,00,AAXX 23154 41946 02456 60000 10285 20280 30007 40012 83520 333 59019 70218 83618 85459==
41946,2023,06,23,18,00,AAXX 23184 41946 02456 70000 10283 20270 30005 40010 85320 333 59028 70218 83618 86459 81929==
41946,2023,06,23,21,00,AAXX 23213 41946 01450 80000 10280 20270 39995 40000 79522 8592/ 333 59021 70222 82710 84617 88458 81928==
41946,2023,06,24,00,00,AAXX 24003 41946 21456 80000 10285 20280 30003 40008 70296 8532/ 333 59017 60055 70272 84617 88459 81928==
41946,2023,06,24,03,00,AAXX 24034 41946 02456 50000 10305 20270 30008 40013 83510 333 20265 59018 70272 83618 84460==
41946,2023,06,24,06,00,AAXX 24064 41946 02456 80000 10325 20280 30005 40010 8461/ 333 59011 70268 84618 88460==
41946,2023,06,24,09,00,AAXX 24094 41946 02456 61402 10319 20260 39989 49994 82530 333 59007 70088 82618 84362==
41946,2023,06,24,12,00,AAXX 24124 41946 01456 81301 10282 20270 39989 49994 76122 8532/ 333 10330 58001 70060 84617 88459 81928==
41946,2023,06,24,15,00,AAXX 24154 41946 01456 60000 10282 20270 30004 40008 72122 83520 333 59003 70116 83618 85459==
41946,2023,06,24,18,00,AAXX 24184 41946 21556 50000 10284 20260 30010 40015 70162 85400 333 58005 69925 70116 83620 83822==
41946,2023,06,24,21,00,AAXX 24214 41946 01456 60000 10280 20270 30002 40006 70362 84420 333 58007 70172 83618 85459==
41946,2023,06,25,00,00,AAXX 25003 41946 11456 50000 10277 20270 39996 40000 60066 70162 82570 333 59007 70122 82618 84459==
41946,2023,06,25,03,00,AAXX 25034 41946 02456 50000 10310 20260 30012 40017 83510 333 20270 58005 70122 83618 84460==
41946,2023,06,25,06,00,AAXX 25064 41946 01350 80000 10285 20280 30004 40009 76122 8472/ 333 59001 70020 81710 84617 88458==
41946,2023,06,25,09,00,AAXX 25094 41946 01456 81802 10300 20260 39988 49993 70262 8461/ 333 59001 70144 84618 88460==
41946,2023,06,25,12,00,AAXX 25124 41946 01456 80000 10294 20260 39996 40001 70262 8461/ 333 10310 58007 70094 84618 88460==
41946,2023,06,25,15,00,AAXX 25154 41946 02456 71401 10286 20270 30012 40017 85320 333 58008 70092 83617 87459 81929==
41946,2023,06,25,18,00,AAXX 25184 41946 21456 40000 10280 20270 30017 40022 70162 84500 333 58007 69965 70098 84618==
41946,2023,06,26,00,00,AAXX 26004 41946 02456 81401 10279 20270 30008 40013 8532/ 333 58012 70038 83618 88459 81929==
41946,2023,06,26,03,00,AAXX 26034 41946 01456 80000 10276 20270 30023 40028 70262 8352/ 333 20264 58011 70052 83617 88459==
41946,2023,06,26,06,00,AAXX 26064 41946 11456 81802 10300 20260 30017 40021 60016 70262 8532/ 333 58013 70032 83617 88459 81929==
41946,2023,06,26,09,00,AAXX 26094 41946 02457 61702 10322 20240 39995 49999 86300 333 58007 70030 83618 83820 81928==
41946,2023,06,26,12,00,AAXX 26123 41946 21556 60000 10283 20260 39995 49999 70262 83570 333 10330 59001 60017 70030 83620 84459==
41946,2023,06,26,15,00,AAXX 26154 41946 02556 60000 10272 20250 30014 40019 83570 333 58002 70030 83620 84459==
41946,2023,06,26,18,00,AAXX 26184 41946 02456 60000 10270 20260 30022 40027 83520 333 58005 70024 83618 85459==
41946,2023,06,26,21,00,AAXX 26214 41946 02456 80000 10274 20260 30002 40007 8352/ 333 59003 70024 83617 88459==
41946,2023,06,27,00,00,AAXX 27004 41946 02456 80000 10272 20260 30006 40011 8352/ 333 59002 70024 83618 88459==
41946,2023,06,27,03,00,AAXX 27034 41946 01456 80000 10280 20260 30021 40026 76166 8462/ 333 20262 59002 70050 84618 88460==
41946,2023,06,27,06,00,AAXX 27063 41946 01456 80000 10300 20260 30020 40024 70266 8352/ 333 58003 70060 83618 88459==
41946,2023,06,27,09,00,AAXX 27094 41946 02456 81803 10294 20250 30003 40008 8352/ 333 58008 70060 83618 88459==
41946,2023,06,27,12,00,AAXX 27124 41946 02456 61801 10284 20250 30014 40019 82570 333 10300 58019 70050 82618 84460==
41946,2023,06,27,15,00,AAXX 27154 41946 01356 60000 10280 20260 30027 40032 76122 84720 333 58013 70054 82710 83616 85459==
41946,2023,06,27,18,00,AAXX 27184 41946 21456 50000 10277 20270 30035 40040 70162 85400 333 58013 69945 70054 83618 83820==
41946,2023,06,27,21,00,AAXX 27214 41946 01350 80000 10270 20260 30020 40024 76162 8632/ 333 58018 70194 82709 84616 88457 81928==
41946,2023,06,28,00,00,AAXX 28004 41946 21350 80000 10260 20250 30031 40035 79596 8692/ 333 58025 60469 70514 83709 84615 88457 81928==
41946,2023,06,28,03,00,AAXX 28034 41946 01350 80000 10258 20260 30057 40062 79596 8692/ 333 20253 58036 70514 83709 84615 88457 81928==
41946,2023,06,28,06,00,AAXX 28064 41946 21350 80000 10262 20250 30058 40063 79596 8692/ 333 58038 60079 83709 84615 88457 81928==
41946,2023,06,28,09,00,AAXX 28094 41946 01456 80000 10275 20260 30033 40037 70296 8532/ 333 58030 70574 83617 88459 81929==
41946,2023,06,28,12,00,AAXX 28124 41946 01456 80000 10264 20250 30036 40041 70296 8532/ 333 10280 58022 70694 83617 88459 81929==
41946,2023,06,28,15,00,AAXX 28154 41946 01350 81802 10271 20270 30053 40058 79596 8692/ 333 58026 70788 82709 83616 88459 81928==
41946,2023,06,28,18,00,AAXX 28184 41946 21350 80000 10269 20269 30053 40058 79596 8592/ 333 58018 60149 70828 81709 83617 88459 81928==
41946,2023,06,28,21,00,AAXX 28214 41946 01350 80000 10268 20260 30038 40043 79596 8592/ 333 58018 70702 81709 83617 88459 81928==
41946,2023,06,29,00,00,AAXX 29004 41946 01350 80000 10268 20260 30043 40048 79596 8592/ 333 58012 70390 81709 83616 88459 81928==
41946,2023,06,29,03,00,AAXX 29034 41946 01350 80000 10266 20260 30056 40061 79596 8592/ 333 20252 59001 70410 81709 83616 88459 82928==
41946,2023,06,29,06,00,AAXX 29064 41946 01350 80000 10270 20250 30058 40063 79596 8592/ 333 58000 70430 81709 83616 88459 81928==
41946,2023,06,29,09,00,AAXX 29094 41946 01456 70000 10274 20250 30030 40035 70162 84520 333 59003 70394 84618 87459==
41946,2023,06,29,12,00,AAXX 29124 41946 11/56 70000 10283 20260 30028 40033 69946 70262 87070 333 10288 59008 70274 84459 85360==
41946,2023,06,29,15,00,AAXX 29154 41946 02456 50000 10272 20260 30045 40050 83520 333 59008 70180 83618 84459==
41946,2023,06,29,18,00,AAXX 29184 41946 02456 50000 10271 20260 30044 40049 83520 333 59009 70136 83618 84459==
41946,2023,06,29,21,00,AAXX 29214 41946 02456 50000 10274 20260 30036 40041 83520 333 59002 70122 83618 87459==
41947,2023,06,23,00,00,AAXX 23004 41947 02450 50000 10274 20260 30024 40026 83570 333 59001 70168 83618 85458==
41947,2023,06,23,03,00,AAXX 23034 41947 02456 71302 10315 20270 30020 40023 83570 333 20268 59009 70168 83618 85459==
41947,2023,06,23,06,00,AAXX 23064 41947 01350 80000 10283 20270 30012 40015 76162 8672/ 333 59019 70040 82709 84615 88458==
41947,2023,06,23,09,00,AAXX 23094 41947 02456 70000 10325 20270 39991 49993 85470 333 59029 70038 83618 83820 85459==
41947,2023,06,23,12,00,AAXX 23124 41947 01456 61303 10305 20280 39985 49987 76122 84470 333 10330 59031 70002 83618 84459==
41947,2023,06,23,15,00,AAXX 23154 41947 02456 41302 10287 20280 30004 40007 84500 333 59024 70040 84618==
41947,2023,06,23,18,00,AAXX 23184 41947 02456 40000 10284 20270 30011 40013 84500 333 59022 70040 84618==
41947,2023,06,23,21,00,AAXX 23214 41947 02456 40000 10276 20270 30001 40003 84500 333 59029 70040 84618==
41947,2023,06,24,00,00,AAXX 24004 41947 02456 51306 10278 20270 39998 40000 83530 333 59026 70040 83618 83362==
41947,2023,06,24,03,00,AAXX 24034 41947 01456 60000 10300 20270 39998 40001 72122 86400 333 20270 59022 70060 83618 83820==
41947,2023,06,24,06,00,AAXX 24064 41947 22456 71304 10330 20270 39997 40000 83570 333 59015 60025 70022 83618 86458==
41947,2023,06,24,09,00,AAXX 24094 41947 01456 61804 10320 20270 39989 49991 72122 83570 333 59002 70042 83618 86458==
41947,2023,06,24,12,00,AAXX 24124 41947 11456 61803 10308 20266 39989 49991 60026 70262 83570 333 10330 58004 70042 83618 85458==
41947,2023,06,24,15,00,AAXX 24154 41947 02450 61404 10288 20270 30003 40005 83570 333 59002 70042 83618 85458==
41947,2023,06,24,18,00,AAXX 24184 41947 02450 51403 10282 20260 30013 40015 83570 333 58002 70042 83618 84458==
41947,2023,06,24,21,00,AAXX 24214 41947 02450 81403 10280 20260 30008 40010 8352/ 333 58005 70042 83618 88458==
41947,2023,06,25,00,00,AAXX 25004 41947 01450 81404 10274 20260 30000 40002 70262 8352/ 333 58002 70010 83618 88458==
41947,2023,06,25,03,00,AAXX 25034 41947 01350 80000 10275 20260 30005 40008 76166 8472/ 333 20270 58007 70098 81709 83617 88458==
41947,2023,06,25,06,00,AAXX 25064 41947 01456 71804 10295 20270 30005 40008 70162 83570 333 58008 70106 83618 86458==
41947,2023,06,25,09,00,AAXX 25094 41947 02456 51805 10315 20270 39980 49982 82530 333 59009 70086 82618 84362==
41947,2023,06,25,12,00,AAXX 25124 41947 02456 61805 10292 20260 39992 49994 83530 333 10316 58003 70066 82618 84362==
41947,2023,06,25,15,00,AAXX 25154 41947 41450 61802 10284 20260 30004 40006 58001 70066 84362==
41947,2023,06,25,18,00,AAXX 25184 41947 02450 80000 10282 20260 30010 40012 8452/ 333 59001 70066 84616 88458==
41947,2023,06,25,21,00,AAXX 25214 41947 02450 80000 10280 20260 30007 40009 8452/ 333 59001 70066 84616 88458==
41947,2023,06,26,00,00,AAXX 26004 41947 02450 80000 10275 20270 30004 40006 8452/ 333 58004 70056 84616 88458==
41947,2023,06,26,03,00,AAXX 26034 41947 02456 81302 10280 20260 30017 40020 8452/ 333 20270 58012 70008 84617 88458==
41947,2023,06,26,06,00,AAXX 26064 41947 02356 81304 10293 20260 30012 40015 8562/ 333 58007 70000 82710 83617 88458==
41947,2023,06,26,09,00,AAXX 26094 41947 02356 81304 10312 20260 30002 40005 8562/ 333 58023 70000 81710 84617 88458==
41947,2023,06,26,12,00,AAXX 26124 41947 21450 81805 10282 20260 39989 49991 76162 8572/ 333 10315 59003 60029 70020 81712 84617 88458==
41947,2023,06,26,15,00,AAXX 26154 41947 01450 61802 10274 20260 30012 40014 70162 83570 333 58008 70060 83618 85458==
41947,2023,06,26,18,00,AAXX 26184 41947 11450 60000 10270 20260 30022 40024 60046 70262 83570 333 58012 70060 83618 85458==
41947,2023,06,26,21,00,AAXX 26214 41947 02450 61803 10270 20260 30015 40017 83570 333 58008 70060 83618 85458==
41947,2023,06,27,00,00,AAXX 27004 41947 01450 81804 10270 20260 30008 40010 76122 8572/ 333 58004 70030 81709 83617 88458==
41947,2023,06,27,03,00,AAXX 27034 41947 01350 80000 10270 20260 30011 40013 76162 8672/ 333 20264 59007 70098 82708 84615 88458==
41947,2023,06,27,06,00,AAXX 27063 41947 21456 81802 10292 20260 30016 40018 70262 8352/ 333 58003 60019 70104 83617 88459==
41947,2023,06,27,09,00,AAXX 27094 41947 02456 71804 10300 20260 30002 40005 84470 333 58000 70104 83618 86459==
41947,2023,06,27,12,00,AAXX 27124 41947 02456 61805 10292 20260 30013 40015 83570 333 10302 58024 70084 83618 84459==
41947,2023,06,27,15,00,AAXX 27154 41947 02456 81304 10280 20260 30033 40035 8352/ 333 58021 70044 83618 88459==
41947,2023,06,27,18,00,AAXX 27184 41947 01456 81803 10276 20270 30040 40042 70262 8352/ 333 58018 70020 83618 88459==
41947,2023,06,27,21,00,AAXX 27214 41947 01340 81803 10260 20250 30031 40033 76366 8572/ 333 58013 70184 82708 84615 88458==
41947,2023,06,28,00,00,AAXX 28004 41947 21350 80000 10264 20250 30030 40032 70262 8562/ 333 58022 60208 70234 82710 84616 88458==
41947,2023,06,28,03,00,AAXX 28034 41947 01350 80000 10272 20270 30041 40044 79196 8472/ 333 20255 58031 70256 87108 84615 88458==
41947,2023,06,28,06,00,AAXX 28064 41947 21350 80000 10260 20250 30046 40049 76196 8572/ 333 58031 60539 70750 82708 84615 88458==
41947,2023,06,28,09,00,AAXX 28094 41947 01450 80000 10265 20260 30023 40025 76166 8562/ 333 58021 70776 81708 84616 88458==
41947,2023,06,28,12,00,AAXX 28124 41947 21450 80000 10262 20260 30024 40026 76166 8572/ 333 10285 58011 60079 70820 82708 84615 88458==
41947,2023,06,28,15,00,AAXX 28154 41947 01450 80000 10262 20260 30042 40044 70262 8452/ 333 58009 70840 84616 88458==
41947,2023,06,28,18,00,AAXX 28184 41947 11450 60000 10261 20260 30049 40051 60026 70162 82530 333 58009 70820 82618 84362==
41947,2023,06,28,21,00,AAXX 28214 41947 01350 80000 10262 20260 30045 40047 79596 8632/ 333 58016 70880 82708 84615 88458 81930==
41947,2023,06,29,00,00,AAXX 29004 41947 21350 80000 10266 20260 30032 40034 79596 8632/ 333 58002 60417 71030 82708 84615 88458 81930==
41947,2023,06,29,03,00,AAXX 29034 41947 01350 80000 10262 20260 30062 40064 76166 8672/ 333 20252 58020 71044 83708 83615 88458==
41947,2023,06,29,06,00,AAXX 29064 41947 21350 80000 10260 20260 30068 40070 76166 8772/ 333 58020 60169 70664 84708 83615 88458==
41947,2023,06,29,09,00,AAXX 29094 41947 01450 80000 10266 20260 30032 40034 72162 8562/ 333 58015 70650 84709 83616 88458==
41947,2023,06,29,12,00,AAXX 29124 41947 NIL=
41947,2023,06,29,15,00,AAXX 29154 41947 02450 30000 10265 20260 30044 40046 83500 333 58002 70614 83618==
41947,2023,06,29,18,00,AAXX 29184 41947 02450 50000 10265 20260 30039 40041 83570 333 59010 70614 83618 84458==
41950,2023,06,23,00,00,AAXX 23004 41950 02350 80000 10278 20260 30030 40032 8562/ 333 59010 70000 82708 84616 88458==
41950,2023,06,23,03,00,AAXX 23034 41950 01350 81602 10288 20280 30034 40036 72122 8562/ 333 20272 59012 70036 82708 84616 88458==
41950,2023,06,23,06,00,AAXX 23064 41950 01350 80905 10280 20270 30026 40028 72162 8562/ 333 59018 70102 82708 84616 88458==
41950,2023,06,23,09,00,AAXX 23094 41950 02356 61203 10314 20260 39998 40000 85631 333 59034 70102 81708 84616==
41950,2023,06,23,12,00,AAXX 23124 41950 02450 51502 10300 20260 39995 49997 84431 333 10326 59022 70102 83616==
41950,2023,06,23,15,00,AAXX 23154 41950 02350 71402 10282 20260 30016 40018 85670 333 59018 70102 82708 84616 86459==
41950,2023,06,23,18,00,AAXX 23184 41950 01350 80000 10272 20270 30019 40021 72162 8562/ 333 59025 70030 82708 84616 88458==
41950,2023,06,23,21,00,AAXX 23214 41950 02350 80000 10270 20270 30008 40010 8562/ 333 59029 70134 82708 84616 88458==
41950,2023,06,24,00,00,AAXX 24004 41950 02450 50000 10267 20267 30011 40013 83570 333 59019 70134 83617 85459==
41950,2023,06,24,03,00,AAXX 24034 41950 02350 70000 10286 20270 30019 40021 86670 333 20266 59015 70098 82707 85616 86459==
41950,2023,06,24,06,00,AAXX 24064 41950 02450 61503 10308 20270 30014 40016 85630 333 59012 70032 81708 84616==
41950,2023,06,24,09,00,AAXX 24094 41950 02450 61203 10316 20260 30000 40002 84470 333 58002 70032 83617 84459==
41950,2023,06,24,12,00,AAXX 24124 41950 02350 61602 10298 20260 39997 49999 84671 333 10323 58002 70032 81708 83616 85459==
41950,2023,06,24,15,00,AAXX 24154 41950 02450 61602 10288 20270 30016 40018 83570 333 58000 70032 83616 85459==
41950,2023,06,24,18,00,AAXX 24184 41950 02450 51203 10277 20270 30024 40026 83510 333 58005 70000 83616 84459==
41950,2023,06,24,21,00,AAXX 24214 41950 02350 70000 10270 20270 30013 40015 85610 333 58005 70000 82708 84616 87459==
41950,2023,06,25,00,00,AAXX 25004 41950 02350 71603 10268 20260 30013 40015 85610 333 58002 70000 82708 84616 87459==
41950,2023,06,25,03,00,AAXX 25034 41950 02450 61208 10309 20260 30024 40026 84431 333 20266 58005 70000 83617==
41950,2023,06,25,06,00,AAXX 25064 41950 01350 71803 10280 20270 30024 40026 72162 85610 333 58010 70130 82708 84616 87459==
41950,2023,06,25,09,00,AAXX 25094 41950 02350 81504 10300 20260 30011 40013 8562/ 333 58011 70128 82708 84616 88458==
41950,2023,06,25,12,00,AAXX 25124 41950 02350 81603 10290 20250 30009 40011 8562/ 333 10323 58012 70128 82708 84616 88458==
41950,2023,06,25,15,00,AAXX 25154 41950 01350 71502 10274 20260 30024 40026 70162 86670 333 58008 70135 82707 85616 85459==
41950,2023,06,25,18,00,AAXX 25184 41950 01350 81202 10269 20269 30028 40030 72162 8662/ 333 58004 70145 82707 85616 88458==
41950,2023,06,25,21,00,AAXX 25214 41950 01350 80000 10265 20265 30018 40020 70262 8562/ 333 58005 70165 82707 84616 88458==
41950,2023,06,26,00,00,AAXX 26004 41950 01350 80000 10264 20260 30018 40020 72162 8562/ 333 58005 70205 82707 84616 88458==
41950,2023,06,26,03,00,AAXX 26034 41950 02350 80000 10275 20260 30034 40036 8562/ 333 20258 58010 70205 82708 84616 88458==
41950,2023,06,26,06,00,AAXX 26064 41950 11345 81502 10288 20270 30026 40028 69912 76162 8672/ 333 58002 70078 82708 84616 88458==
41950,2023,06,26,09,00,AAXX 26094 41950 01350 81402 10294 20250 30004 40006 70262 8562/ 333 59007 70082 82708 84616 88458==
41950,2023,06,26,12,00,AAXX 26124 41950 01350 81402 10290 20260 30004 40006 70262 8562/ 333 10300 59005 70004 82708 84616 88458==
41950,2023,06,26,15,00,AAXX 26154 41950 01350 81202 10266 20266 30023 40025 70262 8562/ 333 59001 70091 82708 84616 88458==
41950,2023,06,26,18,00,AAXX 26184 41950 11350 70000 10268 20268 30028 40030 60026 70162 85610 333 58000 70081 82708 84616 87459==
41950,2023,06,26,21,00,AAXX 26214 41950 01340 80000 10260 20260 30016 40018 76122 8572/ 333 59002 70083 82708 84616 88458==
41950,2023,06,27,00,00,AAXX 27004 41950 21350 80000 10260 20260 30014 40017 70262 8562/ 333 59004 60047 70063 82708 84616 88458==
41950,2023,06,27,03,00,AAXX 27034 41950 01335 80000 10267 20267 30028 40030 76166 8672/ 333 20254 59006 70145 82707 85616 88458==
41950,2023,06,27,06,00,AAXX 27064 41950 21340 80000 10270 20270 30036 40038 76166 8572/ 333 58010 60149 70198 82707 84616 88458==
41950,2023,06,27,09,00,AAXX 27094 41950 01340 81202 10265 20265 30016 40019 76166 8572/ 333 58012 70220 82708 84616 88458==
41950,2023,06,27,12,00,AAXX 27124 41950 21350 80000 10272 20260 30024 40027 70266 8562/ 333 10273 58020 60049 70230 82708 84616 88458==
41950,2023,06,27,15,00,AAXX 27154 41950 02350 80000 10270 20260 30049 40052 8562/ 333 58026 70214 82708 84616 88459==
41950,2023,06,27,18,00,AAXX 27184 41950 02350 80000 10267 20260 30050 40053 8562/ 333 58022 70214 82708 84616 88458==
41950,2023,06,27,21,00,AAXX 27214 41950 01340 80000 10267 20267 30044 40047 76162 8672/ 333 58028 70237 82708 84616 88458==
41950,2023,06,28,00,00,AAXX 28004 41950 21335 80000 10267 20267 30039 40042 76162 8672/ 333 58025 60089 70247 82708 84616 88458==
41950,2023,06,28,03,00,AAXX 28034 41950 01350 80000 10280 20280 30062 40065 70262 8562/ 333 20260 58034 70171 82708 84616 88458==
41950,2023,06,28,06,00,AAXX 28064 41950 11350 81802 10310 20280 30059 40061 60016 70262 8562/ 333 58023 70117 82708 84616 88458==
41950,2023,06,28,09,00,AAXX 28094 41950 02350 80000 10285 20260 30039 40041 8632/ 333 58023 70091 82708 84616 88458 81928==
41950,2023,06,28,12,00,AAXX 28124 41950 01330 80000 10263 20260 30046 40048 76122 8572/ 333 10314 58022 70100 82708 84616 88458==
41950,2023,06,28,15,00,AAXX 28154 41950 01350 80000 10262 20262 30061 40064 70296 8562/ 333 58012 70262 82708 84616 88458==
41950,2023,06,28,18,00,AAXX 28184 41950 11350 80000 10275 20275 30061 40064 60086 70296 8562/ 333 58011 70263 82708 84616 88458==
41950,2023,06,28,21,00,AAXX 28214 41950 02350 70000 10273 20273 30045 40048 85610 333 58001 70218 82708 84616 86459==
41950,2023,06,29,00,00,AAXX 29004 41950 02350 80000 10275 20275 30047 40050 8562/ 333 58008 70188 82708 84616 88458==
41950,2023,06,29,03,00,AAXX 29034 41950 02935 80000 10304 20270 30059 40061 8562/ 333 20252 59003 70182 82708 84616 88458==
41950,2023,06,29,06,00,AAXX 29064 41950 21340 80000 10255 20255 30064 40067 79596 8692/ 333 58005 60127 70298 82708 84616 88458 81928==
41950,2023,06,29,09,00,AAXX 29094 41950 01340 80000 10269 20260 30049 40052 76162 8672/ 333 58010 70306 83707 84615 88458==
41950,2023,06,29,12,00,AAXX 29124 41950 21350 80000 10262 20260 30038 40041 72162 8562/ 333 10305 59008 60029 70218 82708 84616 88458==
41950,2023,06,29,15,00,AAXX 29154 41950 01350 80000 10260 20260 30050 40053 70262 8562/ 333 59011 70138 82708 84616 88458==
41950,2023,06,29,18,00,AAXX 29184 41950 11350 60000 10258 20258 30049 40051 69926 70162 84670 333 59012 70138 82708 83616 85459==
41950,2023,06,29,21,00,AAXX 29214 41950 02350 80000 10267 20267 30043 40046 8562/ 333 59002 70138 82708 84616 88458==
41951,2023,06,23,00,00,AAXX 23004 41951 02450 60802 10276 20270 30021 40026 83510 333 59014 70000 83618 85459==
41951,2023,06,23,03,00,AAXX 23034 41951 01456 60904 10313 20270 30025 40030 72122 83510 333 20267 59018 70005 83618 85459==
41951,2023,06,23,06,00,AAXX 23064 41951 01456 61305 10308 20260 30027 40032 70262 83510 333 59014 70012 83618 85459==
41951,2023,06,23,09,00,AAXX 23094 41951 02456 51503 10313 20270 30003 40008 82510 333 59024 70012 82618 84459==
41951,2023,06,23,12,00,AAXX 23124 41951 02456 31303 10303 20260 39994 49999 83500 333 10324 59025 70012 83618==
41951,2023,06,23,15,00,AAXX 23154 41951 02450 50904 10285 20280 30015 40020 83510 333 59018 70012 82618 84459==
41951,2023,06,23,18,00,AAXX 23184 41951 02450 31303 10280 20270 30021 40025 83500 333 59018 70012 83618==
41951,2023,06,23,21,00,AAXX 23214 41951 02450 61303 10278 20270 30017 40021 83510 333 59015 70012 83618 85459==
41951,2023,06,24,00,00,AAXX 24004 41951 02450 61303 10275 20270 30007 40012 83510 333 59014 70012 83618 85459==
41951,2023,06,24,03,00,AAXX 24034 41951 02450 70804 10293 20260 30012 40016 83510 333 20265 59013 70007 83618 86458==
41951,2023,06,24,06,00,AAXX 24064 41951 02450 71305 10303 20260 30014 40019 83510 333 59013 70000 83618 86459==
41951,2023,06,24,09,00,AAXX 24094 41951 02456 61303 10313 20270 39999 40003 83510 333 59004 70000 83618 85459==
41951,2023,06,24,12,00,AAXX 24124 41951 21340 81503 10297 20260 30003 40008 70362 8562/ 333 10320 58009 60015 70013 81708 84618 88458==
41951,2023,06,24,15,00,AAXX 24154 41951 02450 31304 10283 20260 30023 40027 83500 333 58008 70013 83618==
41951,2023,06,24,18,00,AAXX 24184 41951 02450 61305 10278 20270 30021 40025 83510 333 58000 70013 83618 85459==
41951,2023,06,24,21,00,AAXX 24214 41951 02450 61303 10276 20260 30019 40023 83510 333 58002 70013 83618 85459==
41951,2023,06,25,00,00,AAXX 25004 41951 01450 60000 10262 20260 30010 40015 70262 83510 333 58003 70100 83618 85459==
41951,2023,06,25,03,00,AAXX 25034 41951 02450 70806 10293 20270 30020 40025 83510 333 20255 58008 70115 83616 86458==
41951,2023,06,25,06,00,AAXX 25064 41951 02340 81308 10298 20260 30030 40035 8562/ 333 58016 70115 81708 84618 88458==
41951,2023,06,25,09,00,AAXX 25094 41951 01456 61504 10317 20280 30003 40008 70166 83510 333 58004 70179 83618 85459==
41951,2023,06,25,12,00,AAXX 25124 41951 11450 71206 10290 20260 30005 40009 60066 70362 83510 333 10319 58002 70166 83618 86459==
41951,2023,06,25,15,00,AAXX 25154 41951 01450 61305 10280 20260 30026 40031 70162 83510 333 58003 70170 83618 85459==
41951,2023,06,25,18,00,AAXX 25184 41951 11340 81502 10283 20260 30033 40037 69946 70362 8562/ 333 58012 70170 81708 84618 88458==
41951,2023,06,25,21,00,AAXX 25214 41951 01340 81502 10275 20270 30027 40032 70262 8562/ 333 58008 70185 81708 84618 88458==
41951,2023,06,26,00,00,AAXX 26004 41951 11440 81502 10270 20260 30013 40018 60026 70262 8452/ 333 58003 70083 84618 88458==
41951,2023,06,26,03,00,AAXX 26034 41951 02340 81303 10278 20270 30025 40030 8562/ 333 20265 58005 70083 81708 84618 88458==
41951,2023,06,26,06,00,AAXX 26064 41951 21340 81302 10278 20270 30030 40035 76162 8672/ 333 58000 60047 70120 81708 84618 88458==
41951,2023,06,26,09,00,AAXX 26094 41951 02340 81302 10287 20260 30010 40015 8562/ 333 58007 70057 81708 84618 88458==
41951,2023,06,26,12,00,AAXX 26124 41951 02456 61302 10292 20260 30001 40006 83510 333 10302 59004 70057 83618 85459==
41951,2023,06,26,15,00,AAXX 26154 41951 01340 81502 10268 20260 30026 40031 70362 8562/ 333 58000 70067 81708 84618 88458==
41951,2023,06,26,18,00,AAXX 26184 41951 11340 81203 10272 20260 30034 40039 60016 70262 8562/ 333 58001 70067 81708 84618 88458==
41951,2023,06,26,21,00,AAXX 26214 41951 01330 81302 10264 20250 30023 40028 76322 8672/ 333 59004 70238 82706 84616 88458==
41951,2023,06,27,00,00,AAXX 27004 41951 21330 81302 10260 20260 30012 40017 76166 8672/ 333 59001 60227 70268 82706 84616 88458==
41951,2023,06,27,03,00,AAXX 27034 41951 01330 81304 10264 20250 30026 40031 76366 8672/ 333 20250 58001 70352 82706 84618 88458==
41951,2023,06,27,06,00,AAXX 27064 41951 NIL=
41951,2023,06,27,09,00,AAXX 27094 41951 01340 81802 10278 20260 30017 40022 70262 8562/ 333 58007 70384 81708 84618 88458==
41951,2023,06,27,12,00,AAXX 27124 41951 11340 81303 10270 20260 30022 40028 69926 70262 8562/ 333 10280 58022 70384 81708 84618 88458==
41951,2023,06,27,15,00,AAXX 27154 41951 01340 80000 10272 20270 30046 40051 70262 8562/ 333 58020 70374 81708 84618 88458==
41951,2023,06,27,18,00,AAXX 27184 41951 01330 80000 10268 20268 30047 40052 76262 8672/ 333 58013 70399 82706 84616 88458==
41951,2023,06,27,21,00,AAXX 27214 41951 01330 81302 10270 20270 30043 40048 76566 8672/ 333 58020 70441 82706 84616 88458==
41951,2023,06,28,00,00,AAXX 28004 41951 21330 81302 10272 20270 30035 40040 76566 8672/ 333 58023 60409 70581 82706 84616 88458==
41951,2023,06,28,03,00,AAXX 28034 41951 01330 81303 10284 20270 30056 40061 70262 8662/ 333 20258 58030 70555 82706 84616 88458==
41951,2023,06,28,06,00,AAXX 28064 41951 11350 71302 10312 20270 30058 40063 60066 70162 84610 333 58024 70487 81708 83618 86459==
41951,2023,06,28,09,00,AAXX 28094 41951 01350 71502 10288 20280 30037 40042 72122 84610 333 58030 70592 81709 83618 86459==
41951,2023,06,28,12,00,AAXX 28124 41951 21340 81502 10300 20280 30040 40045 70362 8562/ 333 10327 58017 60115 70592 81708 84618 88458==
41951,2023,06,28,15,00,AAXX 28154 41951 02340 81302 10290 20280 30060 40065 8562/ 333 58014 70588 81708 84618 88458==
41951,2023,06,28,18,00,AAXX 28184 41951 02340 81303 10288 20280 30060 40065 8562/ 333 58013 70563 81708 84618 88458==
41951,2023,06,28,21,00,AAXX 28214 41951 02440 71302 10285 20280 30050 40055 83510 333 58007 70335 83618 86459==
41951,2023,06,29,00,00,AAXX 29004 41951 02450 71303 10283 20270 30040 40045 83510 333 58005 70165 83618 85459==
41951,2023,06,29,03,00,AAXX 29034 41951 02450 71502 10313 20270 30062 40067 83510 333 20275 58006 70107 83618 86459==
41951,2023,06,29,06,00,AAXX 29064 41951 21340 80000 10268 20260 30063 40068 72162 8562/ 333 58008 60287 70389 81708 84618 88458==
41951,2023,06,29,09,00,AAXX 29094 41951 01330 80000 10266 20266 30048 40053 76196 8672/ 333 58011 70605 82706 84616 88458==
41951,2023,06,29,12,00,AAXX 29124 41951 21340 81302 10272 20260 30042 40047 70296 8562/ 333 10318 58002 60347 70622 81708 84618 88458==
41951,2023,06,29,15,00,AAXX 29154 41951 02340 82102 10263 20250 30048 40053 8562/ 333 59012 70622 81708 84618 88458==
41951,2023,06,29,18,00,AAXX 29184 41951 02450 51302 10265 20265 30049 40054 82510 333 59011 70622 82618 84459==
41951,2023,06,29,21,00,AAXX 29214 41951 02340 81302 10270 20260 30046 40051 8562/ 333 59004 70622 81708 84618 88458==
41953,2023,06,23,00,00,AAXX 23004 41953 02440 81304 10272 20260 30034 40039 8352/ 333 59014 70030 83616 88458==
41953,2023,06,23,03,00,AAXX 23034 41953 02450 81305 10297 20270 30050 40055 8352/ 333 20270 59003 70030 83616 88458==
41953,2023,06,23,06,00,AAXX 23064 41953 02450 81304 10330 20270 30027 40032 8442/ 333 59026 70000 83616 88458==
41953,2023,06,23,09,00,AAXX 23094 41953 02450 71304 10316 20270 30003 40008 84410 333 59023 70000 83616 86458==
41953,2023,06,23,12,00,AAXX 23124 41953 02440 61303 10294 20260 30003 40008 83510 333 10334 59018 70000 83616 85458==
41953,2023,06,23,15,00,AAXX 23154 41953 01430 81308 10270 20260 30025 40030 70366 8452/ 333 59013 70040 84616 88458==
41953,2023,06,23,18,00,AAXX 23184 41953 11430 81304 10268 20260 30030 40035 60046 70262 8452/ 333 59016 70040 84616 88458==
41953,2023,06,23,21,00,AAXX 23214 41953 01430 81302 10260 20260 30025 40030 76166 8452/ 333 59019 70220 84616 88458==
41953,2023,06,24,00,00,AAXX 24004 41953 21440 81302 10264 20264 30020 40025 72166 8452/ 333 59014 60329 70380 84616 88458==
41953,2023,06,24,03,00,AAXX 24034 41953 02440 81306 10300 20260 30028 40033 8452/ 333 20256 59022 70380 84615 88458==
41953,2023,06,24,06,00,AAXX 24064 41953 02450 81804 10296 20270 30025 40030 8452/ 333 59002 70360 84616 88458==
41953,2023,06,24,09,00,AAXX 24094 41953 02450 61803 10310 20260 30010 40015 83520 333 58007 70360 83616 86458==
41953,2023,06,24,12,00,AAXX 24124 41953 02450 61305 10295 20260 30005 40010 83520 333 10312 58002 70360 83616 86458==
41953,2023,06,24,15,00,AAXX 24154 41953 02440 81804 10275 20260 30025 40030 8352/ 333 58000 70320 83616 88458==
41953,2023,06,24,18,00,AAXX 24184 41953 02440 61305 10275 20260 30033 40038 83520 333 58003 70320 83616 86458==
41953,2023,06,24,21,00,AAXX 24214 41953 02440 61305 10270 20260 30025 40030 83520 333 58000 70140 83616 86458==
41953,2023,06,25,00,00,AAXX 25004 41953 02440 60000 10275 20260 30023 40028 83520 333 58003 70000 83616 86458==
41953,2023,06,25,03,00,AAXX 25034 41953 02450 51304 10304 20260 30036 40041 83520 333 20266 58008 70000 83616 85458==
41953,2023,06,25,06,00,AAXX 25064 41953 02450 41307 10320 20260 30033 40038 84400 333 58008 70000 82616 83825==
41953,2023,06,25,09,00,AAXX 25094 41953 02450 41806 10310 20250 30020 40025 84400 333 58010 70000 82616 83825==
41953,2023,06,25,12,00,AAXX 25124 41953 02450 51806 10302 20250 30011 40016 82530 333 10320 58006 70000 82616 85362==
41953,2023,06,25,15,00,AAXX 25154 41953 02440 81804 10286 20260 30025 40030 8352/ 333 58000 70000 83616 88458==
41953,2023,06,25,18,00,AAXX 25184 41953 02440 81804 10275 20260 30040 40045 8352/ 333 58007 70000 83616 88458==
41953,2023,06,25,21,00,AAXX 25214 41953 02440 81804 10270 20260 30035 40040 8352/ 333 58010 70000 83616 88458==
41953,2023,06,26,00,00,AAXX 26004 41953 11440 61805 10266 20250 30027 40032 60106 70162 83520 333 58004 70100 83616 86458==
41953,2023,06,26,03,00,AAXX 26034 41953 01440 81804 10260 20260 30041 40046 72166 8352/ 333 20256 58005 70210 83616 88458==
41953,2023,06,26,06,00,AAXX 26064 41953 01440 81804 10280 20260 30037 40042 70266 8352/ 333 58004 70220 83616 88458==
41953,2023,06,26,09,00,AAXX 26094 41953 02450 61803 10300 20260 30013 40018 83520 333 59007 70220 83616 86458==
41953,2023,06,26,12,00,AAXX 26124 41953 02450 81803 10277 20260 30011 40016 8352/ 333 10305 58000 70220 83616 88458==
41953,2023,06,26,15,00,AAXX 26154 41953 02440 80000 10270 20260 30032 40037 8352/ 333 58007 70220 83616 88458==
41953,2023,06,26,18,00,AAXX 26184 41953 01440 81303 10256 20250 30038 40043 76162 8352/ 333 59002 70050 83615 88458==
41953,2023,06,26,21,00,AAXX 26214 41953 01440 81303 10250 20240 30033 40038 76166 8352/ 333 59002 70310 83615 88458==
41953,2023,06,27,00,00,AAXX 27004 41953 21440 81303 10250 20250 30021 40026 76166 8452/ 333 59006 60139 70300 84615 88458==
41953,2023,06,27,03,00,AAXX 27034 41953 01440 81303 10250 20250 30040 40045 76166 8452/ 333 20250 59001 70450 84615 88458==
41953,2023,06,27,06,00,AAXX 27064 41953 21440 81305 10262 20260 30043 40048 76166 8452/ 333 58006 60389 70560 84614 88458==
41953,2023,06,27,09,00,AAXX 27094 41953 01440 81806 10266 20260 30027 40032 76166 8452/ 333 58014 70059 84615 88458==
41953,2023,06,27,12,00,AAXX 27124 41953 01440 81805 10264 20250 30037 40042 70262 8452/ 333 10267 58026 70030 84615 88458==
41953,2023,06,27,15,00,AAXX 27154 41953 02430 81808 10265 20260 30052 40057 8452/ 333 58020 70590 84616 88458==
41953,2023,06,27,18,00,AAXX 27184 41953 02430 81806 10266 20260 30054 40059 8452/ 333 58016 70540 84616 88458==
41953,2023,06,27,21,00,AAXX 27214 41953 01430 81804 10264 20260 30056 40061 76162 8452/ 333 58023 70710 84615 88458==
41953,2023,06,28,00,00,AAXX 28004 41953 21440 81304 10262 20262 30050 40055 76166 8452/ 333 58029 60339 70740 84614 88458==
41953,2023,06,28,03,00,AAXX 28034 41953 01440 81305 10275 20270 30069 40074 70262 8452/ 333 20258 58029 70510 84615 88458==
41953,2023,06,28,06,00,AAXX 28064 41953 NIL=
41953,2023,06,28,09,00,AAXX 28094 41953 02440 81808 10300 20260 30044 40049 8452/ 333 58017 70360 84616 88458==
41953,2023,06,28,12,00,AAXX 28124 41953 02440 61806 10296 20280 30047 40052 83520 333 10323 58010 70360 83616 85458==
41953,2023,06,28,15,00,AAXX 28154 41953 02430 81805 10285 20280 30063 40068 8452/ 333 58011 70360 84615 88458==
41953,2023,06,28,18,00,AAXX 28184 41953 02430 81806 10280 20270 30066 40071 8452/ 333 58012 70360 84615 88458==
41953,2023,06,28,21,00,AAXX 28214 41953 02430 81805 10282 20270 30058 40063 8452/ 333 58002 70150 84616 88458==
41953,2023,06,29,00,00,AAXX 29004 41953 02440 81305 10280 20270 30054 40059 8452/ 333 58004 70030 84616 88458==
41953,2023,06,29,03,00,AAXX 29034 41953 02450 61306 10320 20270 30065 40070 83570 333 20278 59004 70000 83616 84458==
41953,2023,06,29,06,00,AAXX 29064 41953 21440 81305 10270 20270 30070 40075 76162 8452/ 333 58005 60048 70040 84614 88458==
41953,2023,06,29,09,00,AAXX 29094 41953 01440 81303 10266 20260 30065 40070 76166 8452/ 333 58021 70160 84614 88458==
41953,2023,06,29,12,00,AAXX 29124 41953 21440 80000 10266 20266 30041 40046 76166 8452/ 333 10322 59006 60259 70290 84614 88458==
41953,2023,06,29,15,00,AAXX 29154 41953 02440 81305 10265 20260 30050 40055 8452/ 333 59013 70290 84616 88458==
41953,2023,06,29,18,00,AAXX 29184 41953 02430 81807 10264 20260 30054 40059 8452/ 333 59012 70290 84616 88458==
41953,2023,06,29,21,00,AAXX 29214 41953 02430 80000 10266 20260 30048 40053 8452/ 333 59010 70290 84615 88458==
41955,2023,06,23,00,00,AAXX 23004 41955 NIL=
41955,2023,06,23,06,00,AAXX 23064 41955 NIL=
41955,2023,06,23,12,00,AAXX 23124 41955 NIL=
41955,2023,06,24,00,00,AAXX 24004 41955 NIL=
41955,2023,06,24,06,00,AAXX 24064 41955 NIL=
41955,2023,06,24,12,00,AAXX 24124 41955 NIL=
41955,2023,06,25,00,00,AAXX 25004 41955 NIL=
41955,2023,06,25,06,00,AAXX 25064 41955 NIL=
41955,2023,06,25,12,00,AAXX 25124 41955 NIL=
41955,2023,06,26,00,00,AAXX 26004 41955 NIL=
41955,2023,06,26,06,00,AAXX 26064 41955 NIL=
41955,2023,06,26,12,00,AAXX 26124 41955 NIL=
41955,2023,06,26,18,00,AAXX 26184 41955 NIL=
41955,2023,06,27,00,00,AAXX 27004 41955 NIL=
41955,2023,06,27,06,00,AAXX 27064 41955 NIL=
41955,2023,06,27,12,00,AAXX 27124 41955 NIL=
41955,2023,06,27,18,00,AAXX 27184 41955 NIL=
41955,2023,06,28,00,00,AAXX 28004 41955 NIL=
41955,2023,06,28,06,00,AAXX 28064 41955 NIL=
41955,2023,06,28,18,00,AAXX 28184 41955 NIL=
41955,2023,06,29,00,00,AAXX 29004 41955 NIL=
41955,2023,06,29,06,00,AAXX 29064 41955 NIL=
41955,2023,06,29,12,00,AAXX 29124 41955 NIL=
41958,2023,06,23,00,00,AAXX 23004 41958 32450 60000 10274 20270 30013 40015 83410 333 56990 59001 70038 83616 85459=
41958,2023,06,23,06,00,AAXX 23064 41958 11457 60903 10330 20270 30010 40012 69946 70162 85410 333 56390 59027 70014 84616 86459=
41958,2023,06,23,09,00,AAXX 23094 41958 32458 50902 10348 20280 39988 49990 85400 333 56300 59035 70004 84617=
41958,2023,06,23,12,00,AAXX 23124 41958 11456 40901 10302 20270 39978 49980 69914 70162 84400 333 10350 56300 59033 70005 83617=
41958,2023,06,23,15,00,AAXX 23154 41958 32950 01601 10310 20290 39997 49999 333 59016 70005=
41958,2023,06,23,18,00,AAXX 23184 41958 32440 50901 10293 20270 30011 40013 85400 333 56900 59017 70005 84617=
41958,2023,06,23,21,00,AAXX 23214 41958 21440 80902 10280 20270 39990 49992 76162 8542/ 333 56499 59028 6001/ 70011 84616 88459=
41958,2023,06,24,00,00,AAXX 24004 41958 11450 80903 10273 20270 39993 49995 60023 76166 8542/ 333 56499 59020 70021 84616 88459=
41958,2023,06,24,03,00,AAXX 24034 41958 21457 50902 10315 20280 30001 40003 70162 85400 333 20265 56400 59020 6992/ 70023 84617=
41958,2023,06,24,06,00,AAXX 24064 41958 11458 60902 10332 20270 30002 40004 69926 70362 85410 333 56390 59008 70019 84616 86459=
41958,2023,06,24,09,00,AAXX 24094 41958 21457 81603 10311 20270 39985 49987 70362 8532/ 333 56399 59003 6004/ 70063 84616 81930 88459=
41958,2023,06,24,12,00,AAXX 24124 41958 11456 71601 10308 20270 39979 49981 60046 70162 85310 333 10338 56490 58001 70062 84616 81930 87459=
41958,2023,06,24,15,00,AAXX 24154 41958 32450 51602 10300 20280 30002 40004 85400 333 56400 58005 70062 84617=
41958,2023,06,24,18,00,AAXX 24184 41958 32440 61801 10287 20280 30019 40021 85410 333 56490 58008 70062 84616 86459=
41958,2023,06,24,21,00,AAXX 24214 41958 21440 81601 10280 20270 39989 49991 76122 8542/ 333 56499 59001 6994/ 70060 84616 88459=
41958,2023,06,25,00,00,AAXX 25004 41958 11450 81602 10271 20270 39993 49995 60013 70266 8542/ 333 56499 58000 70056 84616 88459=
41958,2023,06,25,03,00,AAXX 25034 41958 21456 81801 10280 20280 30008 40010 76166 8542/ 333 20265 56399 58007 6012/ 70194 84616 88459=
41958,2023,06,25,06,00,AAXX 25064 41958 11456 81801 10280 20270 30008 40010 60139 76166 8542/ 333 56499 58006 70188 84616 88459=
41958,2023,06,25,09,00,AAXX 25094 41958 21457 71802 10298 20270 39987 49989 70162 85410 333 56390 58002 6992/ 70146 84616 87459=
41958,2023,06,25,12,00,AAXX 25124 41958 11456 70902 10289 20270 39989 49991 6992/ 70262 85410 333 10301 56390 58010 70146 84616 87459=
41958,2023,06,25,15,00,AAXX 25154 41958 32450 51602 10279 20270 30006 40008 85400 333 56400 58004 70146 84617=
41958,2023,06,25,18,00,AAXX 25184 41958 32440 81801 10270 20260 30017 40019 8542/ 333 56399 59002 70146 84616 88459=
41958,2023,06,25,21,00,AAXX 25214 41958 21440 81801 10270 20270 39999 40001 76162 8542/ 333 56399 58010 6002/ 70158 84616 88459=
41958,2023,06,26,00,00,AAXX 26004 41958 11450 80000 10270 20270 30001 40003 60057 76166 8542/ 333 56499 58008 70186 84616 88459=
41958,2023,06,26,03,00,AAXX 26034 41958 21456 81601 10279 20270 30016 40018 76166 8542/ 333 20264 56399 58015 6003/ 70092 84615 88459=
41958,2023,06,26,06,00,AAXX 26064 41958 11457 81801 10310 20270 30010 40012 60038 70262 8542/ 333 56399 58002 70078 84616 88459=
41958,2023,06,26,09,00,AAXX 26094 41958 32457 81801 10307 20280 39995 49997 8542/ 333 56399 58008 70076 84616 88459=
41958,2023,06,26,12,00,AAXX 26124 41958 11456 81801 10280 20270 39992 49994 60027 76162 8542/ 333 10320 56390 58003 70100 84616 88459=
41958,2023,06,26,15,00,AAXX 26154 41958 21450 81801 10276 20270 30006 40008 70262 8542/ 333 56399 58000 6994/ 70104 84616 88459=
41958,2023,06,26,18,00,AAXX 26184 41958 11440 81801 10270 20270 30023 40025 69946 70262 8542/ 333 56399 58006 70104 84616 88459=
41958,2023,06,26,21,00,AAXX 26214 41958 32440 81802 10270 20260 39994 49996 8542/ 333 56399 59005 70088 84616 88459=
41958,2023,06,27,00,00,AAXX 27004 41958 32450 81803 10268 20260 39997 49999 8542/ 333 56399 59004 70054 84616 88459=
41958,2023,06,27,03,00,AAXX 27034 41958 21456 81802 10277 20270 30011 40013 76162 8542/ 333 20260 56399 59005 6001/ 70036 84616 88459=
41958,2023,06,27,06,00,AAXX 27063 41958 11456 81801 10293 20270 30019 40021 60039 76166 8542/ 333 56499 58009 70062 84616 88459=
41958,2023,06,27,12,00,AAXX 27124 41958 32456 82701 10284 20260 30009 40011 8542/ 333 10300 56499 58017 70038 84616 88459=
41958,2023,06,27,15,00,AAXX 27154 41958 32450 61802 10280 20260 30027 40029 85410 333 56490 58021 70034 84616 86459=
41958,2023,06,27,18,00,AAXX 27184 41958 11440 81801 10272 20260 30041 40043 69947 76162 8542/ 333 56499 58018 70038 84616 88459=
41958,2023,06,27,21,00,AAXX 27214 41958 21430 81801 10275 20275 30021 40023 76166 8542/ 333 56499 58027 6020/ 70238 84616 88459=
41958,2023,06,28,00,00,AAXX 28004 41958 11450 81801 10277 20277 30023 40025 60339 76166 8542/ 333 56499 58026 70370 84616 88459=
41958,2023,06,28,03,00,AAXX 28034 41958 32456 81602 10295 20290 30043 40045 8532/ 333 20260 56999 58032 70362 84616 81930 88459=
41958,2023,06,28,06,00,AAXX 28064 41958 11456 80000 10263 20260 30052 40054 60144 76196 8532/ 333 56499 58033 70480 84615 81930 88459=
41958,2023,06,28,09,00,AAXX 28094 41958 21456 80000 10264 20260 30035 40037 79596 8592/ 333 56499 58034 6009/ 70570 84614 81928 88459=
41958,2023,06,28,12,00,AAXX 28124 41958 11440 80000 10257 20257 30029 40031 60229 79596 8592/ 333 10307 56999 58020 70700 84614 81928 88459=
41958,2023,06,28,15,00,AAXX 28154 41958 21435 80000 10250 20250 30043 40045 70296 8542/ 333 56999 58016 6001/ 70708 84615 88459=
41958,2023,06,28,18,00,AAXX 28184 41958 11430 80000 10250 20250 30055 40057 6001/ 70296 8532/ 333 56999 58014 70704 84616 81930 88459=
41958,2023,06,28,21,00,AAXX 28214 41958 32430 80000 10270 20270 30029 40031 8542/ 333 56999 58008 70504 84616 88459=
41958,2023,06,29,00,00,AAXX 29004 41958 11440 80000 10280 20280 30032 40034 60037 79596 8592/ 333 56499 58009 70404 84614 81928 88459=
41958,2023,06,29,03,00,AAXX 29034 41958 21450 81802 10258 20258 30063 40065 79596 8592/ 333 20252 56499 58020 6062/ 71024 84614 81928 88459=
41958,2023,06,29,06,00,AAXX 29064 41958 11456 80000 10263 20260 30057 40059 60689 79596 8592/ 333 56499 58005 70940 84614 81928 88459=
41958,2023,06,29,09,00,AAXX 29094 41958 21456 81801 10259 20259 30038 40040 79596 8592/ 333 56499 58003 6019/ 71040 84614 81928 88459=
41958,2023,06,29,12,00,AAXX 29124 41958 11450 81601 10261 20260 30028 40030 60269 79596 8592/ 333 10264 56499 59001 70978 84614 81928 88459=
41958,2023,06,29,15,00,AAXX 29154 41958 32450 61801 10263 20250 30039 40041 85410 333 56990 59004 70970 84616 86459=
41958,2023,06,29,18,00,AAXX 29184 41958 32440 80000 10255 20255 30051 40053 8532/ 333 56999 59004 70970 84616 81930 88459=
41958,2023,06,29,21,00,AAXX 29214 41958 32440 80000 10272 20270 30028 40030 8542/ 333 56999 59001 70970 84616 88459=
41960,2023,06,23,00,00,AAXX 23004 41960 42440 71501 10274 20270 30024 40026 85470 333 59011 83618 85362==
41960,2023,06,23,03,00,AAXX 23034 41960 01450 81601 10281 20260 30031 40032 79722 8692/ 333 20271 59015 70004 84618 88459 81929==
41960,2023,06,23,06,00,AAXX 23064 41960 21350 81802 10283 20280 30024 40026 76196 8672/ 333 59025 60037 70026 81708 84617 88458==
41960,2023,06,23,09,00,AAXX 23094 41960 02450 71602 10307 20280 30003 40005 85470 333 59029 70026 83618 85459==
41960,2023,06,23,12,00,AAXX 23124 41960 21450 31801 10290 20270 39994 49996 70162 83401 333 10317 59024 60037 70060 82618==
41960,2023,06,23,15,00,AAXX 23154 41960 01330 81802 10280 20280 30017 40019 76122 8672/ 333 59017 70088 81708 84617 88458==
41960,2023,06,23,18,00,AAXX 23184 41960 21430 80000 10279 20279 30025 40027 70262 8542/ 333 59018 60045 70104 84617 88459==
41960,2023,06,23,21,00,AAXX 23214 41960 02430 61802 10278 20278 30014 40016 84470 333 59020 70104 83618 85459==
41960,2023,06,24,00,00,AAXX 24004 41960 02440 51801 10277 20277 30010 40012 84301 333 59014 70104 83618 85080 81930==
41960,2023,06,24,03,00,AAXX 24034 41960 01330 81502 10277 20277 30020 40022 76162 8672/ 333 20274 59011 70148 81708 84708 88459==
41960,2023,06,24,06,00,AAXX 24064 41960 21450 71601 10303 20260 30018 40020 70162 85470 333 59006 60058 70128 83618 85459==
41960,2023,06,24,09,00,AAXX 24094 41960 02450 71802 10308 20270 30004 40006 84470 333 58001 70128 83618 85459==
41960,2023,06,24,12,00,AAXX 24124 41960 01430 71501 10285 20280 39999 40001 76122 85470 333 10310 58005 70006 83618 85459==
41960,2023,06,24,15,00,AAXX 24154 41960 02430 51801 10278 20270 30018 40020 84410 333 58001 70072 83618 85459==
41960,2023,06,24,18,00,AAXX 24184 41960 02430 50000 10275 20270 30024 40026 85400 333 59001 70056 84618==
41960,2023,06,24,21,00,AAXX 24214 41960 01430 81802 10272 20270 30018 40020 76122 8542/ 333 58004 70062 84616 88459==
41960,2023,06,25,00,00,AAXX 25004 41960 21440 51501 10270 20270 30013 40015 70162 84410 333 58003 69965 70062 83618 85459==
41960,2023,06,25,03,00,AAXX 25034 41960 02456 71003 10306 20280 30031 40033 84410 333 20266 58011 70014 83616 87459==
41960,2023,06,25,06,00,AAXX 25064 41960 21450 81602 10277 20270 30024 40026 76162 8442/ 333 58006 60097 70102 83616 88459==
41960,2023,06,25,09,00,AAXX 25094 41960 01330 81502 10272 20260 30013 40014 76166 8672/ 333 58009 70140 81708 84616 88458==
41960,2023,06,25,12,00,AAXX 25124 41960 21350 81602 10280 20270 30007 40009 70266 8662/ 333 10309 58008 60069 70156 81708 84616 88458==
41960,2023,06,25,15,00,AAXX 25154 41960 02440 61601 10276 20270 30023 40024 84410 333 58005 70156 83618 86459==
41960,2023,06,25,18,00,AAXX 25184 41960 01430 83601 10273 20270 30033 40034 76122 8542/ 333 58009 70010 84616 88459==
41960,2023,06,26,00,00,AAXX 26004 41960 01330 81602 10266 20266 30017 40018 76162 8672/ 333 58004 70174 81708 84616 88458==
41960,2023,06,26,03,00,AAXX 26034 41960 01340 80000 10266 20266 30033 40034 76166 8672/ 333 20255 58002 70224 82708 84616 88458==
41960,2023,06,26,06,00,AAXX 26064 41960 21340 80000 10273 20270 30029 40030 76166 8672/ 333 58005 60079 70154 82708 84616 88458==
41960,2023,06,26,09,00,AAXX 26094 41960 01340 81602 10298 20280 30007 40009 76162 8672/ 333 59006 70118 82708 84616 88458==
41960,2023,06,26,12,00,AAXX 26124 41960 21340 81802 10267 20260 30008 40009 76162 8672/ 333 10299 58001 60037 70128 82708 84616 88458==
41960,2023,06,26,15,00,AAXX 26154 41960 01430 80000 10270 20270 30028 40029 70262 8542/ 333 58005 70138 84616 88459==
41960,2023,06,26,18,00,AAXX 26184 41960 11430 80901 10267 20267 30031 40032 60016 70262 8542/ 333 59002 70128 84616 88459==
41960,2023,06,26,21,00,AAXX 26214 41960 01320 81802 10263 20263 30021 40023 76162 8672/ 333 59004 70178 82708 84616 88458==
41960,2023,06,27,00,00,AAXX 27004 41960 21320 81502 10257 20257 30015 40017 76362 8672/ 333 59002 60179 70286 82708 84615 88458==
41960,2023,06,27,03,00,AAXX 27034 41960 01330 80000 10268 20268 30034 40036 76166 8672/ 333 20255 58001 70276 82708 84614 88458==
41960,2023,06,27,06,00,AAXX 27063 41960 21330 81601 10275 20275 30038 40040 76166 8672/ 333 58009 60089 70296 82708 84614 88458==
41960,2023,06,27,09,00,AAXX 27094 41960 01330 81801 10273 20270 30020 40022 76166 8672/ 333 58013 70344 82708 84614 88458==
41960,2023,06,27,12,00,AAXX 27124 41960 21330 81801 10270 20270 30029 40031 76166 8672/ 333 10276 58021 60109 70362 82708 84614 88458==
41960,2023,06,27,15,00,AAXX 27154 41960 01320 80000 10264 20264 30050 40052 76166 8672/ 333 58022 70402 82708 84614 88458==
41960,2023,06,27,18,00,AAXX 27184 41960 21320 80000 10265 20265 30050 40052 79596 8692/ 333 58019 60089 70432 84614 88458 81930==
41960,2023,06,27,21,00,AAXX 27214 41960 01320 80000 10270 20270 30049 40051 79596 8692/ 333 58028 70528 84614 88458 81930==
41960,2023,06,28,00,00,AAXX 28004 41960 21330 81803 10278 20278 30047 40049 79596 8592/ 333 58022 60469 70720 84614 88458 81930==
41960,2023,06,28,03,00,AAXX 28034 41960 02456 81802 10300 20290 30066 40067 8542/ 333 20260 58032 70680 84616 88459==
41960,2023,06,28,06,00,AAXX 28064 41960 02458 71803 10319 20280 30064 40066 85410 333 58026 70640 84618 87459==
41960,2023,06,28,09,00,AAXX 28094 41960 02457 81603 10310 20280 30044 40046 8542/ 333 58024 70590 84617 88459==
41960,2023,06,28,12,00,AAXX 28124 41960 02450 81803 10302 20280 30046 40047 8532/ 333 10330 58017 70540 84616 88459 81930==
41960,2023,06,28,15,00,AAXX 28154 41960 02430 61802 10292 20280 30063 40064 84410 333 58013 70490 83618 86459==
41960,2023,06,28,18,00,AAXX 28184 41960 02430 61602 10290 20280 30063 40064 84410 333 58013 70460 83618 86459==
41960,2023,06,28,21,00,AAXX 28214 41960 02430 61801 10287 20280 30050 40051 84410 333 58001 70300 83618 86459==
41960,2023,06,29,00,00,AAXX 29004 41960 02430 51803 10285 20280 30049 40050 84410 333 58002 70000 83616 85459==
41960,2023,06,29,03,00,AAXX 29034 41960 02458 61806 10305 20280 30066 40068 85410 333 20282 58000 70000 82618 83823 86459==
41960,2023,06,29,06,00,AAXX 29064 41960 21340 80000 10260 20260 30068 40070 79596 8592/ 333 58004 60107 70100 84614 88458 81930==
41960,2023,06,29,09,00,AAXX 29094 41960 02330 80000 10263 20260 30054 40056 8692/ 333 58010 70260 84614 88458 82930==
41960,2023,06,29,12,00,AAXX 29124 41960 21340 80000 10260 20260 30043 40045 76195 8572/ 333 10320 59003 60219 70310 82708 83614 88458==
41960,2023,06,29,15,00,AAXX 29154 41960 01430 80000 10260 20260 30053 40055 76166 8442/ 333 59010 70320 83616 88459==
41960,2023,06,29,18,00,AAXX 29184 41960 21430 60000 10262 20260 30053 40055 70166 84410 333 59010 60018 70320 83618 86459==
41960,2023,06,29,21,00,AAXX 29214 41960 02430 70000 10270 20270 30046 40047 84410 333 59004 70320 83618 87459==
41963,2023,06,23,00,00,AAXX 23004 41963 21456 51803 10277 20270 30035 40038 70162 83430 333 59010 60125 70320 82617 84363==
41963,2023,06,23,03,00,AAXX 23034 41963 01456 61605 10304 20260 30037 40040 72162 83470 333 20260 59016 70210 83616 84459==
41963,2023,06,23,06,00,AAXX 23064 41963 01356 81403 10280 20270 30037 40040 79196 8432/ 333 59015 70180 82712 83615 88458 81928==
41963,2023,06,23,09,00,AAXX 23094 41963 02456 41802 10286 20270 30012 40015 82530 333 59019 70200 82618 84362==
41963,2023,06,23,12,00,AAXX 23124 41963 NIL=
41963,2023,06,23,15,00,AAXX 23154 41963 01356 71803 10282 20270 30010 40012 70362 84370 333 10305 59017 70260 82710 88458 81928==
41963,2023,06,23,21,00,AAXX 23214 41963 01350 81803 10273 20260 30016 40019 58072 72162 333 59020 70420 82710 83615 88459==
41963,2023,06,24,00,00,AAXX 24004 41963 01456 41805 10280 20250 30020 40023 70162 83430 333 59015 70620 82618 83363==
41963,2023,06,24,03,00,AAXX 24034 41963 01356 81401 10264 20250 30031 40034 79596 8532/ 333 20255 59006 70780 82709 83615 88457 81928==
41963,2023,06,24,06,00,AAXX 24064 41963 21356 80000 10282 20270 30023 40026 72196 8571/ 333 59014 60309 70870 82710 83615 88458==
41963,2023,06,24,09,00,AAXX 24094 41963 02456 81804 10285 20260 30016 40019 8351/ 333 58004 70840 83617 88458==
41963,2023,06,24,12,00,AAXX 24124 41963 02456 61605 10290 20260 30011 40014 83460 333 10297 58001 70780 82618 84362==
41963,2023,06,24,15,00,AAXX 24154 41963 02450 31804 10285 20270 30030 40033 82530 333 58003 70730 82618 83363==
41963,2023,06,24,18,00,AAXX 24184 41963 02350 81604 10278 20270 30032 40035 8472/ 333 58008 70730 82712 83615 88458==
41963,2023,06,24,21,00,AAXX 24214 41963 42350 81802 10276 20260 30026 40029 8472/ 333 58000 82712 83615 88458==
41963,2023,06,25,00,00,AAXX 25003 41963 21/56 30000 10270 20250 30023 40026 70162 83030 333 58003 60037 70330 83363==
41963,2023,06,25,03,00,AAXX 25034 41963 02456 41608 10298 20270 30036 40039 82530 333 20250 58005 70140 82620 83363==
41963,2023,06,25,06,00,AAXX 25064 41963 NIL=
41963,2023,06,25,09,00,AAXX 25094 41963 02456 41609 10295 20250 30021 40024 83430 333 58005 70000 82617 83363==
41963,2023,06,25,12,00,AAXX 25124 41963 01356 61808 10294 20260 30019 40022 70362 84730 333 10310 58008 70010 82712 83615 84363==
41963,2023,06,25,15,00,AAXX 25154 41963 02456 51809 10285 20260 30035 40038 83530 333 58005 70010 82617 83363==
41963,2023,06,25,18,00,AAXX 25184 41963 01350 80000 10277 20270 30043 40046 72162 8572/ 333 58011 70040 82712 83615 88458==
41963,2023,06,25,21,00,AAXX 25214 41963 02350 80000 10272 20270 30040 40043 8472/ 333 58014 70080 82712 83615 88458==
41963,2023,06,26,00,00,AAXX 26004 41963 02356 80000 10265 20260 30031 40034 8572/ 333 58008 70050 82712 83615 88458==
41963,2023,06,26,03,00,AAXX 26034 41963 01350 80000 10262 20260 30039 40042 76366 8572/ 333 20250 58003 70300 82710 83614 88458==
41963,2023,06,26,06,00,AAXX 26064 41963 21356 81402 10275 20260 30037 40040 70262 8471/ 333 58003 60399 70440 82712 83615 88459==
41963,2023,06,26,09,00,AAXX 26094 41963 01356 71604 10282 20260 30019 40022 70162 84770 333 59002 70450 82712 83615 85459==
41963,2023,06,26,12,00,AAXX 26124 41963 01356 81405 10276 20260 30021 40024 72062 8572/ 333 10288 58002 70460 82711 83615 88458==
41963,2023,06,26,15,00,AAXX 26154 41963 02350 80000 10269 20260 30038 40041 8471/ 333 58003 70460 82712 83615 88459==
41963,2023,06,26,18,00,AAXX 26184 41963 NIL=
41963,2023,06,26,21,00,AAXX 26214 41963 01350 80000 10263 20250 30037 40040 72162 8472/ 333 59003 70460 82710 83616 88458==
41963,2023,06,27,00,00,AAXX 27004 41963 21356 81602 10270 20260 30023 40026 76166 8572/ 333 59008 60177 70590 82709 83614 88458==
41963,2023,06,27,03,00,AAXX 27034 41963 01356 81813 10255 20250 30041 40044 76366 8572/ 333 20245 58002 70820 82708 83614 88457==
41963,2023,06,27,06,00,AAXX 27063 41963 21356 81802 10265 20260 30044 40046 76166 8572/ 333 58007 60549 70740 82707 83614 88457==
41963,2023,06,27,09,00,AAXX 27094 41963 01356 80000 10260 20260 30034 40037 76166 8572/ 333 58015 70800 82709 83614 88458==
41963,2023,06,27,12,00,AAXX 27124 41963 21356 81801 10264 20260 30035 40038 72166 8572/ 333 10270 58014 60109 70810 82710 83615 88458==
41963,2023,06,27,15,00,AAXX 27154 41963 02350 80000 10276 20270 30054 40057 8572/ 333 58016 70810 82712 83615 88458==
41963,2023,06,27,18,00,AAXX 27184 41963 02350 80000 10274 20260 30058 40061 8572/ 333 58019 70810 82712 83615 88458==
41963,2023,06,27,21,00,AAXX 27214 41963 01350 81602 10272 20260 30055 40058 70262 8572/ 333 58018 70800 82712 83616 88458==
41963,2023,06,28,00,00,AAXX 28004 41963 11456 41802 10284 20270 30053 40056 60036 70162 83330 333 58030 70670 82617 83363 81928==
41963,2023,06,28,03,00,AAXX 28034 41963 02456 52102 10300 20280 30068 40071 83530 333 20247 58027 70190 83617 84363==
41963,2023,06,28,06,00,AAXX 28064 41963 02456 41606 10310 20280 30068 40070 83530 333 58024 70130 83618==
41963,2023,06,28,09,00,AAXX 28094 41963 01456 41804 10307 20280 30047 40050 70162 83440 333 58013 70130 82618 83363==
41963,2023,06,28,12,00,AAXX 28124 41963 11456 51803 10300 20280 30050 40053 60016 70362 83530 333 10312 58015 70040 83618 84363==
41963,2023,06,28,18,00,AAXX 28184 41963 02450 21802 10290 20280 30071 40074 82500 333 58013 70040 82618==
41963,2023,06,28,21,00,AAXX 28214 41963 02450 41602 10285 20270 30061 40064 82530 333 58006 70010 82618 83363==
41963,2023,06,29,00,00,AAXX 29004 41963 02/56 30000 10287 20280 30055 40058 83030 333 58002 70010 83364==
41963,2023,06,29,03,00,AAXX 29034 41963 02456 51803 10300 20280 30071 40074 83530 333 20280 58003 70010 83618 84363==
41963,2023,06,29,06,00,AAXX 29064 41963 02456 61804 10310 20270 30070 40072 84430 333 58002 70100 82617 83363==
41963,2023,06,29,09,00,AAXX 29094 41963 01356 71803 10302 20280 30048 40050 72992 84370 333 58001 70000 82712 83459 81928==
41963,2023,06,29,12,00,AAXX 29124 41963 21356 80000 10260 20260 30049 40052 76196 8572/ 333 10320 59001 60097 70090 82709 83615 88458==
41963,2023,06,29,15,00,AAXX 29154 41963 01350 80000 10260 20260 30057 40060 70262 8572/ 333 59011 70130 82712 83615 88458==
41963,2023,06,29,18,00,AAXX 29184 41963 01350 80000 10258 20250 30058 40061 72196 8432/ 333 59013 70150 82712 83615 88458 81928==
41963,2023,06,29,21,00,AAXX 29214 41963 02450 70000 10267 20267 30050 40053 83570 333 59011 70150 83617 85458==
41964,2023,06,23,00,00,AAXX 23004 41964 02558 61403 10283 20260 30025 40028 83432 333 59014 70068 82620 83362 85080==
41964,2023,06,23,03,00,AAXX 23034 41964 02558 51506 10312 20260 30030 40033 83431 333 20274 59015 70000 82620 83362==
41964,2023,06,23,06,00,AAXX 23064 41964 02558 71510 10318 20260 30029 40031 84472 333 59017 70000 83620 83460 85362==
41964,2023,06,23,09,00,AAXX 23094 41964 02458 51605 10316 20280 30023 40025 83510 333 59004 70000 83620 84460==
41964,2023,06,23,12,00,AAXX 23124 41964 21558 71806 10290 20270 30005 40007 70362 85432 333 10326 59014 69945 70004 84620 83362 85080==
41964,2023,06,23,15,00,AAXX 23154 41964 01357 81705 10280 20270 30021 40023 72122 8662/ 333 59013 70006 82709 85617 88460==
41964,2023,06,23,18,00,AAXX 23184 41964 21457 71606 10284 20260 30021 40023 70162 85510 333 59018 69925 70006 85617 85460==
41964,2023,06,23,21,00,AAXX 23214 41964 02557 61406 10281 20260 30017 40020 85410 333 59018 70006 84620 85460==
41964,2023,06,24,00,00,AAXX 24004 41964 02358 71306 10280 20260 30014 40017 86670 333 59011 70006 82709 85617 85460==
41964,2023,06,24,03,00,AAXX 24034 41964 02358 81506 10283 20240 30029 40031 8632/ 333 20272 59001 70006 82709 85617 88460 81930==
41964,2023,06,24,06,00,AAXX 24064 41964 21558 61407 10313 20260 30020 40023 70162 83432 333 59009 60025 70026 82620 84080==
41964,2023,06,24,09,00,AAXX 24094 41964 02358 71506 10300 20260 30022 40025 86670 333 59001 70026 82709 85617 85460==
41964,2023,06,24,12,00,AAXX 24124 41964 02558 61504 10287 20260 30006 40008 84830 333 10316 58001 70022 83620 84362==
41964,2023,06,24,15,00,AAXX 24154 41964 01458 51405 10279 20260 30024 40027 72122 82530 333 58003 70021 82618 83362==
41964,2023,06,24,18,00,AAXX 24184 41964 21357 71505 10280 20260 30027 40030 70362 85610 333 58006 69915 70021 82709 84618 85460==
41964,2023,06,24,21,00,AAXX 24214 41964 02457 61406 10276 20260 30022 40025 83510 333 58005 70021 83618 86460==
41964,2023,06,25,00,00,AAXX 25004 41964 02458 71408 10281 20250 30015 40018 83570 333 58001 70021 83618 84460 85362==
41964,2023,06,25,03,00,AAXX 25034 41964 02558 61508 10303 20260 30034 40037 84432 333 20263 58005 70021 83620==
41964,2023,06,25,06,00,AAXX 25064 41964 02458 61609 10318 20260 30031 40033 86830 333 58011 70001 84618 83825==
41964,2023,06,25,09,00,AAXX 25094 41964 01558 61908 10303 20260 30019 40021 72122 86430 333 59003 70001 84620 83825==
41964,2023,06,25,12,00,AAXX 25124 41964 21558 71506 10300 20250 30012 40014 70362 82232 333 10323 58006 60005 70001 82825 83362 85080==
41964,2023,06,25,15,00,AAXX 25154 41964 42358 81608 10285 20260 30026 40028 8662/ 333 58002 82709 85618 88460==
41964,2023,06,25,18,00,AAXX 25184 41964 01458 71507 10283 20250 30035 40038 70162 86410 333 58008 70001 85618 87460==
41964,2023,06,25,21,00,AAXX 25214 41964 02557 71407 10278 20250 30027 40030 85410 333 58005 70001 84620 87460==
41964,2023,06,26,00,00,AAXX 26004 41964 02358 81307 10281 20250 30021 40024 8662/ 333 58006 70001 82709 85618 88460==
41964,2023,06,26,03,00,AAXX 26034 41964 01358 81708 10281 20260 30033 40036 70262 8662/ 333 20258 59001 70031 83709 85617 88460==
41964,2023,06,26,06,00,AAXX 26064 41964 01357 81406 10278 20270 30035 40038 72162 8662/ 333 58004 70043 83708 85616 88460==
41964,2023,06,26,09,00,AAXX 26094 41964 02458 71506 10307 20260 30011 40013 83570 333 59008 70043 83618 84460 85362==
41964,2023,06,26,12,00,AAXX 26124 41964 02358 71407 10281 20260 30010 40012 86670 333 10309 59002 70043 82709 85618 85460 85362==
41964,2023,06,26,15,00,AAXX 26154 41964 01335 81804 10260 20260 30034 40037 76322 8772/ 333 58008 70373 85707 85615 88458==
41964,2023,06,26,18,00,AAXX 26184 41964 21357 81504 10264 20264 30035 40037 70262 8662/ 333 58000 60405 70439 82709 85616 88460==
41964,2023,06,26,21,00,AAXX 26214 41964 01340 81504 10260 20260 30029 40031 76322 8772/ 333 58002 70499 86707 85615 88457==
41964,2023,06,27,00,00,AAXX 27004 41964 21340 81405 10263 20263 30022 40024 76362 8772/ 333 58001 60187 70623 85707 85615 88457==
41964,2023,06,27,03,00,AAXX 27034 41964 01357 81505 10283 20250 30034 40036 70262 8672/ 333 20253 58001 70613 83708 85616 88458==
41964,2023,06,27,06,00,AAXX 27063 41964 01340 81502 10273 20273 30041 40043 76362 8772/ 333 58006 71109 86707 85615 88457==
41964,2023,06,27,09,00,AAXX 27094 41964 01340 81505 10272 20260 30019 40021 76366 8772/ 333 58008 71203 86707 85615 88457==
41964,2023,06,27,12,00,AAXX 27124 41964 21350 81505 10271 20271 30033 40035 76166 8772/ 333 10285 58023 60149 71253 85707 85615 88457==
41964,2023,06,27,15,00,AAXX 27154 41964 02357 81605 10276 20270 30052 40054 8662/ 333 58018 70923 83709 85616 88460==
41964,2023,06,27,18,00,AAXX 27184 41964 21350 81803 10272 20260 30053 40055 76162 8672/ 333 58018 60037 70890 85707 85615 88458==
41964,2023,06,27,21,00,AAXX 27214 41964 01350 81603 10271 20260 30048 40050 76162 8772/ 333 58019 70840 85707 85615 88458==
41964,2023,06,28,00,00,AAXX 28004 41964 01350 81403 10274 20260 30047 40049 76162 8772/ 333 58025 70726 85707 85615 88458==
41964,2023,06,28,03,00,AAXX 28034 41964 01357 81503 10280 20270 30066 40068 72166 8672/ 333 20250 58032 70732 83708 85616 88458==
41964,2023,06,28,06,00,AAXX 28064 41964 21558 71306 10310 20270 30068 40070 70162 84470 333 58027 60038 70224 83620 85460==
41964,2023,06,28,09,00,AAXX 28094 41964 02558 61807 10320 20280 30048 40051 84432 333 58029 70130 83620 83362==
41964,2023,06,28,12,00,AAXX 28124 41964 02558 61705 10293 20270 30045 40048 84432 333 10325 58012 70080 83620 83362==
41964,2023,06,28,15,00,AAXX 28154 41964 02458 61803 10287 20270 30062 40064 83532 333 58010 70080 83618 83362==
41964,2023,06,28,18,00,AAXX 28184 41964 02457 61802 10286 20280 30064 40066 84530 333 58011 70046 84618 83362==
41964,2023,06,28,21,00,AAXX 28214 41964 02457 61803 10280 20270 30058 40061 83530 333 58010 70036 83618 84362==
41964,2023,06,29,00,00,AAXX 29004 41964 02558 61803 10280 20270 30051 40054 83431 333 58004 70026 82620 83362==
41964,2023,06,29,03,00,AAXX 29034 41964 02558 61505 10310 20270 30066 40068 83470 333 20275 58000 70000 82620 85460==
41964,2023,06,29,06,00,AAXX 29064 41964 02558 71506 10320 20280 30064 40067 85470 333 59004 70000 83622 83825 85460==
41964,2023,06,29,09,00,AAXX 29094 41964 02458 62205 10317 20270 30043 40045 85830 333 59005 70000 82618 83825 85362==
41964,2023,06,29,12,00,AAXX 29124 41964 01457 72302 10268 20260 30038 40041 70362 84510 333 10326 59008 70010 84617 87460==
41964,2023,06,29,15,00,AAXX 29154 41964 02457 72102 10264 20250 30048 40051 84570 333 59014 70014 84618 86460==
41964,2023,06,29,18,00,AAXX 29184 41964 01357 82102 10266 20260 30050 40053 71322 8632/ 333 59014 70014 82709 85618 88460 81930==
41964,2023,06,29,21,00,AAXX 29214 41964 01357 80000 10270 20270 30046 40049 72162 8632/ 333 59012 70034 83708 85617 88460 81928==
41965,2023,06,23,00,00,AAXX 23004 41965 NIL=
41965,2023,06,23,03,00,AAXX 23034 41965 02450 52202 10300 20220 30052 40060 84410 333 20260 59003 70000 82618 84460==
41965,2023,06,23,06,00,AAXX 23064 41965 NIL=
41965,2023,06,23,09,00,AAXX 23094 41965 02456 72202 10320 20230 30034 40046 84610 333 59003 70000 83618 84460==
41965,2023,06,23,12,00,AAXX 23124 41965 01440 81402 10280 20230 30034 40046 76562 84610 333 10330 59003 70080 81710 83618 88460==
41965,2023,06,24,00,00,AAXX 24004 41965 NIL=
41965,2023,06,24,03,00,AAXX 24034 41965 02450 52202 10310 20230 30033 40041 84410 333 20265 59012 70080 82618 84460==
41965,2023,06,24,06,00,AAXX 24064 41965 02456 31401 10310 20220 30023 40032 83500 333 59012 70080 83618==
41965,2023,06,24,09,00,AAXX 24094 41965 02456 62202 10310 20230 30026 40034 84610 333 59011 70080 83618 84460==
41965,2023,06,24,12,00,AAXX 24124 41965 02450 60000 10300 20220 30026 40034 84610 333 10330 59009 70000 83618 84460==
41965,2023,06,25,00,00,AAXX 25004 41965 NIL=
41965,2023,06,25,03,00,AAXX 25034 41965 02950 00000 10270 20250 30028 40036 333 20265 59010 70000==
41965,2023,06,25,06,00,AAXX 25064 41965 NIL=
41965,2023,06,25,09,00,AAXX 25094 41965 02456 51402 10320 20230 30015 40023 84410 333 59009 70000 82618 84460==
41965,2023,06,25,12,00,AAXX 25124 41965 02450 50000 10300 20220 30015 40023 84410 333 10330 59002 70000 82618 84460==
41965,2023,06,26,00,00,AAXX 26004 41965 02450 50000 10280 20250 30035 40043 84410 333 59001 70000 82618 84460==
41965,2023,06,26,03,00,AAXX 26034 41965 02450 51402 10285 20260 30039 40048 84410 333 58003 70000 82618 84460==
41965,2023,06,26,06,00,AAXX 26064 41965 02450 60000 10295 20220 30036 40044 84610 333 58015 70000 83618 85460==
41965,2023,06,26,09,00,AAXX 26094 41965 02456 61402 10305 20200 30022 40030 84610 333 58009 70000 83618 85460==
41965,2023,06,26,12,00,AAXX 26124 41965 02450 50000 10310 20200 30024 40033 84410 333 58011 70000 82618 84460==
41965,2023,06,26,18,00,AAXX 26184 41965 NIL=
41965,2023,06,27,00,00,AAXX 27004 41965 NIL=
41965,2023,06,27,03,00,AAXX 27034 41965 02440 81402 10275 20256 30047 40056 8332/ 333 58008 70180 83618 88460==
41965,2023,06,27,06,00,AAXX 27063 41965 01440 80000 10270 20230 30033 40042 76122 8461/ 333 59003 70050 81710 83618 88460==
41965,2023,06,27,09,00,AAXX 27094 41965 01440 82202 10270 20240 30025 40033 79796 8432/ 333 59003 70430 81710 83618 88458 81928==
41965,2023,06,27,12,00,AAXX 27124 41965 21440 82202 10270 20240 30025 40033 79796 84310 333 10280 59003 60309 70530 81710 83618 88458 81928==
41965,2023,06,27,18,00,AAXX 27184 41965 NIL=
41965,2023,06,28,00,00,AAXX 28004 41965 NIL=
41965,2023,06,28,03,00,AAXX 28034 41965 02450 50000 10300 20256 30059 40067 84410 333 58012 70350 82618 84460==
41965,2023,06,28,06,00,AAXX 28064 41965 02456 51403 10325 20240 30053 40061 84410 333 58020 70300 82618 84460==
41965,2023,06,28,09,00,AAXX 28094 41965 02456 51302 10330 20230 30026 40034 84410 333 58001 70100 82618 84460==
41965,2023,06,28,12,00,AAXX 28124 41965 02450 51402 10332 20200 30029 40037 84410 333 58004 70000 82618 84460==
41965,2023,06,28,18,00,AAXX 28184 41965 NIL=
41965,2023,06,29,00,00,AAXX 29004 41965 NIL=
41965,2023,06,29,03,00,AAXX 29034 41965 02450 50000 10300 20230 30040 40048 84410 333 20260 58005 70000 82618 84460==
41965,2023,06,29,06,00,AAXX 29064 41965 NIL=
41965,2023,06,29,09,00,AAXX 29094 41965 02450 50000 10310 20220 30020 40028 84410 333 58003 70000 82618 84460==
41965,2023,06,29,12,00,AAXX 29124 41965 42450 50000 10300 20220 30020 40028 84410 333 10320 58003==
41966,2023,06,23,00,00,AAXX 23004 41966 02420 40000 10260 20240 39970 40049 82510 333 59005 70548 82616 83460==
41966,2023,06,23,03,00,AAXX 23034 41966 02450 40000 10312 20210 39972 40050 82510 333 20245 59010 70548 82616 83460==
41966,2023,06,23,06,00,AAXX 23064 41966 02450 41301 10335 20210 39968 40044 82510 333 59014 70548 82616 83460==
41966,2023,06,23,09,00,AAXX 23094 41966 01450 51501 10300 20260 39951 40028 70362 82510 333 59009 70556 82616 83460==
41966,2023,06,23,12,00,AAXX 23124 41966 11440 50000 10300 20210 39948 40025 60041 70262 82510 333 10340 59012 70036 82616 84460==
41966,2023,06,23,15,00,AAXX 23154 41966 02430 50000 10288 20240 39956 40034 82510 333 59012 70036 82616 84460==
41966,2023,06,23,21,00,AAXX 23214 41966 02420 50000 10275 20250 39961 40039 82510 333 59005 70036 82616 84460==
41966,2023,06,24,00,00,AAXX 24004 41966 02420 50000 10280 20250 39963 40041 82510 333 59009 70036 82616 84460==
41966,2023,06,24,03,00,AAXX 24034 41966 02450 60000 10292 20230 39971 40049 83510 333 20260 59001 70036 83616 85460==
41966,2023,06,24,06,00,AAXX 24064 41966 02450 71301 10320 20220 39968 40045 83510 333 58001 70036 83616 86460==
41966,2023,06,24,09,00,AAXX 24094 41966 01450 61501 10310 20220 39950 40027 70162 83510 333 59001 70008 83616 85460==
41966,2023,06,24,12,00,AAXX 24124 41966 01440 50000 10298 20240 39954 40031 70162 82510 333 10325 58006 70008 82616 84460==
41966,2023,06,24,15,00,AAXX 24154 41966 02430 50000 10280 20240 39959 40037 82510 333 58008 70008 82616 84460==
41966,2023,06,24,21,00,AAXX 24214 41966 02420 50000 10268 20250 39962 40040 82510 333 59001 70008 82616 84460==
41966,2023,06,25,00,00,AAXX 25004 41966 02440 60000 10270 20240 39956 40035 83510 333 59003 70008 83616 85460==
41966,2023,06,25,03,00,AAXX 25034 41966 02450 41301 10312 20200 39978 40056 82510 333 20250 58007 70008 82616 83460==
41966,2023,06,25,06,00,AAXX 25064 41966 02450 41301 10338 20170 39967 40044 82510 333 59001 70008 82616 83460==
41966,2023,06,25,09,00,AAXX 25094 41966 02450 41801 10335 20180 39947 40024 82510 333 59003 70008 82616 83460==
41966,2023,06,25,12,00,AAXX 25124 41966 02440 60000 10300 20180 39954 40031 82510 333 10342 58000 70000 82616 85460==
41966,2023,06,25,15,00,AAXX 25154 41966 02430 60000 10290 20220 39961 40039 83510 333 58002 70000 83616 85460==
41966,2023,06,25,21,00,AAXX 25214 41966 02420 40000 10270 20240 39962 40041 82510 333 58001 70000 82616 83460==
41966,2023,06,26,00,00,AAXX 26004 41966 02440 40000 10265 20250 39957 40036 82510 333 58001 70000 82616 83460==
41966,2023,06,26,03,00,AAXX 26034 41966 02450 51301 10300 20230 39989 40067 82510 333 20258 58011 70000 82616 84460==
41966,2023,06,26,06,00,AAXX 26064 41966 02450 51801 10320 20230 39970 40047 82510 333 58003 70000 82616 84460==
41966,2023,06,26,09,00,AAXX 26094 41966 01450 72001 10290 20240 39961 40039 70362 83510 333 58015 70006 83616 86460==
41966,2023,06,26,12,00,AAXX 26124 41966 01340 80000 10270 20250 39958 40036 72162 8472/ 333 10325 58005 70012 82709 83616 88460==
41966,2023,06,26,15,00,AAXX 26154 41966 02430 80901 10272 20240 39960 40038 8352/ 333 59001 70012 83616 88460==
41966,2023,06,26,18,00,AAXX 26184 41966 NIL=
41966,2023,06,26,21,00,AAXX 26214 41966 02420 50000 10265 20240 39961 40039 82510 333 59002 70012 82616 84460==
41966,2023,06,27,00,00,AAXX 27004 41966 02440 50000 10260 20230 39954 40033 82510 333 59003 70012 82616 84460==
41966,2023,06,27,06,00,AAXX 27063 41966 02450 71301 10312 20210 39969 40046 83510 333 59001 70012 83616 86460==
41966,2023,06,27,09,00,AAXX 27094 41966 02450 61801 10314 20220 39960 40037 83510 333 59002 70006 83616 85460==
41966,2023,06,27,12,00,AAXX 27124 41966 02440 80000 10295 20210 39961 40039 8352/ 333 10322 59003 70000 83616 88460==
41966,2023,06,27,15,00,AAXX 27154 41966 02430 80901 10285 20240 39978 40057 8352/ 333 58019 70000 83616 88460==
41966,2023,06,27,18,00,AAXX 27184 41966 01420 80000 10275 20260 39980 40059 72162 8352/ 333 58017 70020 83616 88460==
41966,2023,06,27,21,00,AAXX 27214 41966 02420 80000 10270 20250 39979 40058 8352/ 333 58019 70016 83616 88460==
41966,2023,06,28,00,00,AAXX 28004 41966 02440 80000 10260 20240 39984 40063 8352/ 333 58030 70016 83616 88460==
41966,2023,06,28,03,00,AAXX 28034 41966 02450 60000 10300 20230 30000 40078 83510 333 20253 58019 70016 83616 85460==
41966,2023,06,28,06,00,AAXX 28064 41966 11450 61301 10311 20230 39999 40077 60012 70262 83510 333 58031 70026 83616 85460==
41966,2023,06,28,09,00,AAXX 28094 41966 01450 51301 10315 20260 39990 40068 70162 82510 333 58031 70058 82616 84460==
41966,2023,06,28,15,00,AAXX 28154 41966 02430 50000 10270 20240 39994 40073 82510 333 58016 70058 82616 84460==
41966,2023,06,28,18,00,AAXX 28184 41966 02420 50000 10270 20240 39988 40067 82510 333 58005 70042 82616 84460==
41966,2023,06,28,21,00,AAXX 28214 41966 02420 40000 10269 20240 39969 40047 82510 333 58008 70042 82616 83460==
41966,2023,06,29,00,00,AAXX 29004 41966 02440 40000 10268 20240 39984 40063 82510 333 58000 70042 82616 83460==
41966,2023,06,29,03,00,AAXX 29034 41966 02/50 30901 10310 20220 39999 40077 83030 333 20256 59001 70042 83362==
41966,2023,06,29,06,00,AAXX 29064 41966 02550 41801 10340 20200 39996 40073 82130 333 59004 70032 82826 83362==
41966,2023,06,29,09,00,AAXX 29094 41966 02550 41802 10315 20190 39985 40062 82130 333 59006 70000 82826 83362==
41966,2023,06,29,12,00,AAXX 29124 41966 02540 40000 10305 20200 39975 40053 82130 333 10345 59016 70000 82826 83362==
41966,2023,06,29,15,00,AAXX 29154 41966 02430 40000 10290 20230 39981 40060 82510 333 59013 70000 82616 83460==
41977,2023,06,23,00,00,AAXX 23004 41977 02456 70903 10273 20250 30027 40065 84570 333 59003 70010 84617 86459==
41977,2023,06,23,03,00,AAXX 23034 41977 02457 61803 10313 20260 30023 40060 83570 333 20268 59017 70010 83617 85459==
41977,2023,06,23,06,00,AAXX 23064 41977 02456 61805 10331 20260 30025 40062 83570 333 59027 70010 83618 85459==
41977,2023,06,23,09,00,AAXX 23094 41977 01356 60903 10308 20280 30005 40043 70262 83570 333 59026 70050 83618 85460==
41977,2023,06,23,12,00,AAXX 23124 41977 01456 60903 10280 20270 39994 40032 70262 82570 333 10333 59015 70060 82618 85460==
41977,2023,06,23,15,00,AAXX 23154 41977 02456 60902 10278 20260 30011 40048 82570 333 59016 70060 82618 85460==
41977,2023,06,23,18,00,AAXX 23184 41977 02456 70000 10275 20260 30012 40049 84670 333 59017 70060 84617 86459==
41977,2023,06,23,21,00,AAXX 23214 41977 02350 80000 10272 20250 30010 40048 8662/ 333 59022 70060 82712 84616 88460==
41977,2023,06,24,00,00,AAXX 24004 41977 02350 80000 10270 20250 30008 40046 8662/ 333 59019 70060 82712 84616 88460==
41977,2023,06,24,03,00,AAXX 24034 41977 02456 61802 10295 20260 30019 40056 83570 333 20267 59004 70060 83618 84460==
41977,2023,06,24,06,00,AAXX 24064 41977 01356 71804 10293 20250 30014 40052 72062 84670 333 59010 70004 82709 84616 86459==
41977,2023,06,24,12,00,AAXX 24124 41977 02356 71802 10288 20250 39991 40028 85620 333 10320 59003 70004 82712 84616 86460==
41977,2023,06,24,18,00,AAXX 24184 41977 02456 61303 10275 20260 30030 40068 86520 333 58018 70004 84616 85459==
41977,2023,06,24,21,00,AAXX 24214 41977 02450 80000 10275 20250 30020 40058 8662/ 333 58010 70004 82712 84615 88460==
41977,2023,06,25,00,00,AAXX 25004 41977 02450 60000 10275 20250 30007 40045 84520 333 59001 70004 84618 86460==
41977,2023,06,25,03,00,AAXX 25034 41977 02456 41802 10300 20250 30024 40061 82570 333 20266 58005 70004 82618 83362==
41977,2023,06,25,06,00,AAXX 25064 41977 02456 62705 10330 20250 30029 40067 84570 333 58015 70000 84616 84360==
41977,2023,06,25,09,00,AAXX 25094 41977 02356 61005 10330 20250 30018 40056 85620 333 58017 70000 82714 84616 86460==
41977,2023,06,25,12,00,AAXX 25124 41977 02356 61804 10299 20260 30016 40054 85620 333 10335 58025 70000 82712 84616 86460==
41977,2023,06,25,15,00,AAXX 25154 41977 02456 61006 10275 20250 30035 40073 83570 333 58020 70000 83616 84360==
41977,2023,06,25,18,00,AAXX 25184 41977 02356 71002 10275 20250 30026 40063 85620 333 59004 70000 82715 84616 86460==
41977,2023,06,25,21,00,AAXX 25214 41977 02450 70000 10274 20240 30018 40055 84520 333 59002 70000 84618 85460==
41977,2023,06,26,00,00,AAXX 26004 41977 02450 71302 10272 20240 30009 40046 84520 333 58002 70000 84616 86460==
41977,2023,06,26,03,00,AAXX 26034 41977 41356 81802 10280 20250 30030 40067 70362 8662/ 333 20266 58006 82712 84615 88460==
41977,2023,06,26,06,00,AAXX 26064 41977 21330 81304 10268 20260 30036 40074 76162 8662/ 333 58007 60067 70062 82710 84615 88458==
41977,2023,06,26,09,00,AAXX 26094 41977 02456 71603 10301 20260 30021 40058 84520 333 58003 70062 84616 86460==
41977,2023,06,26,12,00,AAXX 26124 41977 01350 81405 10275 20260 30010 40045 76162 8662/ 333 10336 59006 70020 82710 84615 88458==
41977,2023,06,26,15,00,AAXX 26154 41977 01350 81404 10267 20250 30027 40065 70262 8662/ 333 59008 70082 82710 84615 88458==
41977,2023,06,26,18,00,AAXX 26184 41977 01350 81602 10260 20250 30025 40063 76162 8562/ 333 59001 70092 83709 85615 88458==
41977,2023,06,26,21,00,AAXX 26214 41977 01350 80000 10260 20250 30025 40063 70262 8662/ 333 58007 70092 82712 84616 88460==
41977,2023,06,27,00,00,AAXX 27004 41977 01350 80000 10258 20250 30022 40060 72162 8672/ 333 58013 70104 83710 84615 88460==
41977,2023,06,27,03,00,AAXX 27034 41977 02356 81302 10285 20250 30027 40065 8662/ 333 20254 59003 70104 82712 84616 88460==
41977,2023,06,27,06,00,AAXX 27063 41977 02356 81803 10305 20260 30038 40076 8662/ 333 58002 70042 82712 84615 88460==
41977,2023,06,27,09,00,AAXX 27094 41977 01350 81805 10290 20260 30031 40071 72162 8662/ 333 58012 70204 82710 84614 88458==
41977,2023,06,27,12,00,AAXX 27124 41977 01350 81805 10290 20260 30036 40074 76162 8662/ 333 58026 70160 82710 84616 88460==
41977,2023,06,27,15,00,AAXX 27154 41977 01350 81805 10270 20260 30040 40078 76162 8662/ 333 58013 70206 82710 84616 88460==
41977,2023,06,27,18,00,AAXX 27184 41977 22350 81802 10268 20260 30042 40080 8662/ 333 58017 60027 70216 82716 84616 88460==
41977,2023,06,27,21,00,AAXX 27214 41977 02350 80000 10270 20250 30040 40078 8662/ 333 58015 70216 82712 84615 88460==
41977,2023,06,28,00,00,AAXX 28004 41977 11350 80000 10270 20250 30038 40076 60006 70262 8662/ 333 58016 70204 82712 84615 88460==
41977,2023,06,28,03,00,AAXX 28034 41977 02456 81302 10310 20260 30059 40097 8662/ 333 20256 58032 70204 82712 84616 88460==
41977,2023,06,28,06,00,AAXX 28064 41977 02356 71805 10330 20270 30066 40103 8662/ 333 58028 70204 82712 84615 88460==
41977,2023,06,28,09,00,AAXX 28094 41977 02456 51808 10320 20270 30045 40083 84520 333 58012 70204 82618 84460==
41977,2023,06,28,12,00,AAXX 28124 41977 02356 71803 10300 20260 30051 40089 85620 333 10332 58015 70044 84716 85460==
41977,2023,06,28,15,00,AAXX 28154 41977 02456 71403 10283 20250 30054 40092 84520 333 58014 70020 84616 87460==
41977,2023,06,28,18,00,AAXX 28184 41977 02456 71803 10280 20260 30057 40095 85520 333 58015 70000 82610 85618 87460==
41977,2023,06,28,21,00,AAXX 28214 41977 02450 61302 10275 20260 30046 40083 83570 333 58006 70000 83618 84362==
41977,2023,06,29,00,00,AAXX 29004 41977 02450 40000 10272 20260 30040 40078 82530 333 58002 70000 82618 84362==
41977,2023,06,29,03,00,AAXX 29034 41977 02456 62002 10316 20270 30066 40104 83520 333 20268 58007 70000 82618 85460==
41977,2023,06,29,06,00,AAXX 29064 41977 02456 62206 10328 20270 30069 40106 84520 333 58003 70000 84616 86460==
41977,2023,06,29,09,00,AAXX 29094 41977 02456 61804 10330 20270 30045 40082 84520 333 58000 70000 82618 86460==
41977,2023,06,29,12,00,AAXX 29124 41977 02456 62404 10298 20270 30024 40062 83520 333 10335 59026 70000 82618 84460==
41977,2023,06,29,15,00,AAXX 29154 41977 02456 70000 10274 20250 30044 40082 84620 333 59001 70000 84710 82618 85458==
41977,2023,06,29,18,00,AAXX 29184 41977 22450 80000 10269 20270 30052 40090 8632/ 333 59005 60117 70110 84708 85615 88458 81928==
41978,2023,06,23,00,00,AAXX 23004 41978 02450 41205 10270 20260 30034 40041 82530 333 59013 70080 82618 83360==
41978,2023,06,23,03,00,AAXX 23034 41978 02456 51509 10321 20270 30040 40046 83430 333 20266 59017 70080 82618 83360==
41978,2023,06,23,06,00,AAXX 23064 41978 02456 61810 10335 20280 30031 40038 84330 333 59019 70080 83618 83360 81930==
41978,2023,06,23,09,00,AAXX 23094 41978 01450 61610 10294 20280 30011 40017 72196 83570 333 59020 70316 83616 86360==
41978,2023,06,23,12,00,AAXX 23124 41978 01450 61808 10282 20270 30014 40020 70296 83530 333 10340 59013 70352 83616 86360==
41978,2023,06,23,15,00,AAXX 23154 41978 02450 51613 10279 20260 30032 40038 82520 333 59008 70272 82617 84460==
41978,2023,06,23,18,00,AAXX 23184 41978 02450 51408 10273 20250 30030 40036 82520 333 59016 70272 82617 84460==
41978,2023,06,23,21,00,AAXX 23214 41978 02450 51506 10267 20250 30006 40012 82520 333 59024 70272 82617 84460==
41978,2023,06,24,00,00,AAXX 24004 41978 02450 61206 10270 20260 30025 40031 82521 333 59006 70272 82617 83460 85080==
41978,2023,06,24,03,00,AAXX 24034 41978 02456 61512 10308 20270 30035 40041 82521 333 20258 59005 70272 82617 83460 85080==
41978,2023,06,24,06,00,AAXX 24064 41978 02456 71718 10302 20270 30030 40036 84320 333 59001 70272 83618 86460 81930==
41978,2023,06,24,09,00,AAXX 24094 41978 02450 71710 10295 20280 30018 40024 84310 333 58007 70036 83618 87460 81930==
41978,2023,06,24,12,00,AAXX 24124 41978 02450 61811 10284 20260 30010 40017 84330 333 10323 59004 70000 83618 85362 81930==
41978,2023,06,24,15,00,AAXX 24154 41978 02450 61808 10278 20270 30032 40039 83370 333 58000 70000 83616 86360 81930==
41978,2023,06,24,18,00,AAXX 24184 41978 NIL=
41978,2023,06,24,21,00,AAXX 24214 41978 02450 61606 10278 20260 30023 40030 83530 333 58017 70000 83616 86360==
41978,2023,06,25,00,00,AAXX 25004 41978 02450 61608 10278 20260 30023 40030 83530 333 59002 70000 83616 86360==
41978,2023,06,25,03,00,AAXX 25034 41978 02456 61610 10310 20270 30039 40045 83530 333 20267 58004 70000 83616 86360==
41978,2023,06,25,06,00,AAXX 25064 41978 02456 61712 10328 20270 30033 40039 83530 333 58003 70000 83618 86360==
41978,2023,06,25,09,00,AAXX 25094 41978 02456 62117 10327 20280 30019 40025 84320 333 58001 70000 83617 85460 81930==
41978,2023,06,25,12,00,AAXX 25124 41978 01456 61811 10300 20270 30020 40026 70262 84320 333 10337 58010 70002 83617 85460 81930==
41978,2023,06,25,15,00,AAXX 25154 41978 02456 31908 10277 20260 30035 40041 83500 333 58003 70002 83618==
41978,2023,06,25,18,00,AAXX 25184 41978 02456 31409 10264 20250 30043 40050 83500 333 58004 70002 83618==
41978,2023,06,25,21,00,AAXX 25214 41978 02456 31507 10257 20250 30039 40045 83500 333 58016 70002 83618==
41978,2023,06,26,00,00,AAXX 26004 41978 02456 61509 10274 20250 30031 40038 84320 333 58003 70002 83618 86460 81930==
41978,2023,06,26,03,00,AAXX 26034 41978 01456 81715 10272 20260 30046 40052 72162 8432/ 333 20254 58007 70040 84616 88460 81929==
41978,2023,06,26,06,00,AAXX 26064 41978 01435 81812 10268 20260 30044 40050 76166 8432/ 333 58011 70096 84615 88459 81929==
41978,2023,06,26,09,00,AAXX 26094 41978 02456 72108 10300 20270 30020 40026 84320 333 58001 70094 83618 87460 81930==
41978,2023,06,26,12,00,AAXX 26124 41978 01440 71710 10276 20270 30020 40027 72162 84320 333 10310 58000 70114 83614 87460 81928==
41978,2023,06,26,15,00,AAXX 26154 41978 02440 71712 10268 20260 30043 40050 84320 333 58008 70114 83614 87460 81928==
41978,2023,06,26,18,00,AAXX 26184 41978 21440 71708 10263 20250 30041 40048 70262 84320 333 58002 60015 70124 83614 87460 81928==
41978,2023,06,26,21,00,AAXX 26214 41978 02440 70000 10260 20250 30026 40033 84320 333 59013 70124 83614 87460 81928==
41978,2023,06,27,00,00,AAXX 27004 41978 01440 80000 10260 20260 30030 40037 72162 8432/ 333 59001 70040 83612 88459 81925==
41978,2023,06,27,03,00,AAXX 27034 41978 02440 81509 10287 20260 30044 40051 8432/ 333 20255 59002 70126 83618 88460 81930==
41978,2023,06,27,06,00,AAXX 27064 41978 02440 81807 10308 20280 30042 40048 8432/ 333 59002 70070 83618 88460 81930==
41978,2023,06,27,09,00,AAXX 27094 41978 01450 81810 10294 20270 30032 40038 70262 8332/ 333 58012 70090 83614 88459 81930==
41978,2023,06,27,12,00,AAXX 27124 41978 01335 81610 10284 20270 30042 40048 76162 8432/ 333 10315 58022 70072 84709 88459 81928==
41978,2023,06,27,15,00,AAXX 27154 41978 01450 81810 10270 20260 30059 40066 70262 8432/ 333 58016 70112 84614 88458 81930==
41978,2023,06,27,18,00,AAXX 27184 41978 11450 81610 10270 20260 30064 40071 60046 70262 8332/ 333 58023 70102 83614 88458 81930==
41978,2023,06,27,21,00,AAXX 27214 41978 02450 81508 10274 20260 30053 40060 8357/ 333 58027 70102 83616 88460==
41978,2023,06,28,00,00,AAXX 28004 41978 02450 81608 10276 20270 30054 40061 8352/ 333 58024 70062 83616 88460==
41978,2023,06,28,03,00,AAXX 28034 41978 02450 61509 10313 20270 30074 40080 84620 333 20267 58030 70062 83618 85460==
41978,2023,06,28,06,00,AAXX 28064 41978 02450 61717 10322 20290 30074 40080 83530 333 58032 70062 83618 85360==
41978,2023,06,28,09,00,AAXX 28094 41978 02450 61918 10324 20290 30052 40058 83520 333 58020 70042 83618 85460==
41978,2023,06,28,15,00,AAXX 28154 41978 02450 61305 10286 20280 30069 40075 83530 333 58010 70000 83617 85362==
41978,2023,06,28,18,00,AAXX 28184 41978 02450 61505 10280 20260 30072 40078 83530 333 58008 70000 83617 85362==
41978,2023,06,28,21,00,AAXX 28214 41978 02450 61505 10278 20260 30064 40070 83530 333 58011 70000 83617 85362==
41978,2023,06,29,00,00,AAXX 29004 41978 02450 21706 10272 20250 30060 40066 82500 333 58006 70000 82618==
41978,2023,06,29,03,00,AAXX 29034 41978 02456 51812 10317 20290 30071 40077 82530 333 20266 59003 70000 82618 84360==
41978,2023,06,29,06,00,AAXX 29064 41978 02456 62012 10327 20290 30069 40075 83530 333 59005 70000 83618 86360==
41978,2023,06,29,09,00,AAXX 29094 41978 02456 62011 10324 20290 30047 40053 83530 333 59005 70000 83618 86360==
41978,2023,06,29,12,00,AAXX 29124 41978 02456 62214 10304 20280 30043 40050 83320 333 10328 59012 70000 83618 86360 81930==
41978,2023,06,29,15,00,AAXX 29154 41978 02456 73305 10282 20260 30054 40060 84320 333 59015 70000 83617 86460 81930==
41978,2023,06,29,18,00,AAXX 29184 41978 01331 80000 10272 20270 30058 40064 76362 8432/ 333 59014 70070 84708 88458 81928==
41978,2023,06,29,21,00,AAXX 29214 41978 01331 80000 10270 20270 30054 40060 76366 8432/ 333 59012 70865 84707 88456 81928==
41980,2023,06,23,00,00,AAXX 23004 41980 32440 60000 10266 20230 39935 40045 82530 333 56990 59010 70035 82616 84362=
41980,2023,06,23,06,00,AAXX 23064 41980 NIL=
41980,2023,06,23,12,00,AAXX 23124 41980 32950 41802 10280 20240 39917 40028 84030 333 10326 56090 59012 70000 84362=
41980,2023,06,24,00,00,AAXX 24004 41980 32440 80000 10256 20250 39926 40038 8462/ 333 56999 59009 70000 82710 84615 88458=
41980,2023,06,24,06,00,AAXX 24064 41980 NIL=
41980,2023,06,24,12,00,AAXX 24124 41980 32450 60000 10278 20230 39915 40026 82530 333 10325 56990 59002 70000 82616 85362=
41980,2023,06,25,00,00,AAXX 25004 41980 32440 80000 10265 20240 39926 40037 8351/ 333 56999 58000 70000 83616 88460=
41980,2023,06,25,06,00,AAXX 25064 41980 NIL=
41980,2023,06,25,12,00,AAXX 25124 41980 32450 30000 10297 20240 39923 40034 83420 333 10330 56990 58008 70000 82617=
41980,2023,06,26,00,00,AAXX 26004 41980 32950 30000 10268 20230 39930 40041 83030 333 56090 58004 70000 83362=
41980,2023,06,26,06,00,AAXX 26064 41980 NIL=
41980,2023,06,26,12,00,AAXX 26124 41980 11440 81802 10282 20240 39919 40030 60026 76202 8662/ 333 10314 56999 59004 70020 83710 84615 88458=
41980,2023,06,26,18,00,AAXX 26184 41980 NIL=
41980,2023,06,27,00,00,AAXX 27004 41980 32440 81802 10270 20220 39932 40043 8562/ 333 56999 58002 70020 82710 84615 88458=
41980,2023,06,27,06,00,AAXX 27064 41980 NIL=
41980,2023,06,27,12,00,AAXX 27124 41980 32440 81802 10299 20230 39941 40052 8662/ 333 10310 56999 58022 70000 83710 84615 88458=
41980,2023,06,27,18,00,AAXX 27184 41980 NIL=
41980,2023,06,28,00,00,AAXX 28004 41980 11440 70000 10270 20240 39959 40071 60036 70162 82520 333 56990 58027 70025 82617 86460=
41980,2023,06,28,06,00,AAXX 28064 41980 NIL=
41980,2023,06,28,12,00,AAXX 28124 41980 11340 81802 10278 20260 39958 40070 60106 76202 8662/ 333 10323 56999 58017 70125 83708 84613 88456=
41980,2023,06,28,18,00,AAXX 28184 41980 NIL=
41980,2023,06,29,00,00,AAXX 29004 41980 32940 20000 10258 20250 39960 40072 82030 333 56090 70100 82362=
41980,2023,06,29,06,00,AAXX 29064 41980 NIL=
41980,2023,06,29,12,00,AAXX 29124 41980 32450 42002 10300 20220 39942 40053 82510 333 10340 56990 59016 70000 82617 83460=
41984,2023,06,23,00,00,AAXX 23004 41984 21456 80000 10277 20270 30004 40046 70262 8352/ 333 59021 60015 70050 83618 88458==
41984,2023,06,23,03,00,AAXX 23034 41984 01356 80000 10278 20278 30013 40015 72162 8562/ 333 20264 59024 70090 82709 84616 88457==
41984,2023,06,23,06,00,AAXX 23064 41984 11456 80000 10300 20280 30011 40013 60041 70262 8352/ 333 59027 70084 83618 88458==
41984,2023,06,23,09,00,AAXX 23094 41984 02457 81802 10309 20270 30000 40002 8352/ 333 59026 70050 83618 88458==
41984,2023,06,23,12,00,AAXX 23124 41984 21457 80000 10300 20270 39979 49981 70262 8352/ 333 10312 59031 60045 70090 83618 88458==
41984,2023,06,23,15,00,AAXX 23154 41984 01440 80000 10287 20270 30003 40005 70262 8352/ 333 59012 70116 83618 88458==
41984,2023,06,23,18,00,AAXX 23184 41984 11440 82302 20270 30009 40011 60036 70262 8352/ 333 59015 70116 83618 88458==
41984,2023,06,23,21,00,AAXX 23214 41984 02440 82302 10286 20270 30003 40005 8352/ 333 59016 70106 83618 88458==
41984,2023,06,24,00,00,AAXX 24004 41984 02456 82304 10286 20280 39995 49997 8352/ 333 59009 70106 83618 88458==
41984,2023,06,24,03,00,AAXX 24034 41984 02456 80000 10282 20270 30000 40002 8352/ 333 20268 59013 70066 83618 88458==
41984,2023,06,24,06,00,AAXX 24064 41984 01356 80000 10290 20280 30003 40005 76122 8672/ 333 59008 70010 82708 84615 88456==
41984,2023,06,24,09,00,AAXX 24094 41984 02456 82308 10300 20270 39992 49994 8352/ 333 59008 70071 83618 88458==
41984,2023,06,24,12,00,AAXX 24124 41984 21456 82301 10291 20260 39985 49987 70262 8352/ 333 10306 58008 60035 70061 83618 88458==
41984,2023,06,24,15,00,AAXX 24154 41984 02440 80000 10288 20270 30003 40005 8352/ 333 58000 70035 83618 88458==
41984,2023,06,24,18,00,AAXX 24184 41984 02440 82301 10284 20260 30003 40005 8352/ 333 59006 70035 83618 88458==
41984,2023,06,25,00,00,AAXX 25004 41984 01356 80000 10283 20270 39996 49998 76122 8672/ 333 58001 70020 82707 84616 88456==
41984,2023,06,25,03,00,AAXX 25034 41984 01356 82302 10264 20260 30011 40013 76162 8672/ 333 20263 58011 70135 82707 84616 88458==
41984,2023,06,25,06,00,AAXX 25064 41984 21356 82301 10268 20268 30010 40012 76166 8672/ 333 58007 60169 70210 82707 84616 88456==
41984,2023,06,25,09,00,AAXX 25094 41984 01356 80000 10260 20260 39995 49997 76166 8672/ 333 58003 70500 82707 84616 88456==
41984,2023,06,25,12,00,AAXX 25124 41984 21356 80000 10270 20270 39993 49995 72166 8562/ 333 10276 58008 60339 70510 82709 84616 88457==
41984,2023,06,25,15,00,AAXX 25154 41984 02340 80000 10266 20266 30006 40008 8632/ 333 58003 70510 82709 84616 88458 81926==
41984,2023,06,25,18,00,AAXX 25184 41984 02440 80000 10272 20270 30011 40013 8352/ 333 58008 70510 83618 88458==
41984,2023,06,25,21,00,AAXX 25214 41984 01340 80000 10260 20260 30006 40008 76162 8632/ 333 58007 70550 83707 84615 88456 81925==
41984,2023,06,26,00,00,AAXX 26004 41984 21356 80000 10256 20256 30001 40003 76366 8672/ 333 58005 60189 70666 83707 84615 88456==
41984,2023,06,26,03,00,AAXX 26034 41984 01356 80000 10264 20260 30016 40018 76366 8672/ 333 20254 58005 70710 83707 84615 88456==
41984,2023,06,26,06,00,AAXX 26064 41984 21356 82301 10270 20270 30015 40017 76366 8672/ 333 58005 60189 70694 83707 84615 88456==
41984,2023,06,26,09,00,AAXX 26094 41984 01356 80000 10271 20270 39999 40001 76166 8672/ 333 58004 70460 83707 84615 88458==
41984,2023,06,26,12,00,AAXX 26124 41984 21356 82301 10257 20257 39997 49999 76366 8672/ 333 10286 58004 60279 70630 83707 84615 88458==
41984,2023,06,26,15,00,AAXX 26154 41984 01440 82302 10259 20259 30011 40013 70262 8352/ 333 58005 70654 83618 88458==
41984,2023,06,26,18,00,AAXX 26184 41984 01340 80000 10264 20260 30015 40017 76162 8672/ 333 58004 70694 83707 84615 88458==
41984,2023,06,26,21,00,AAXX 26214 41984 01340 80000 10262 20260 30005 40007 76366 8672/ 333 59001 70714 83707 84615 88456==
41984,2023,06,27,00,00,AAXX 27004 41984 21356 82302 10258 20258 30000 40002 76366 8672/ 333 59001 60159 70664 83707 84615 88456==
41984,2023,06,27,03,00,AAXX 27034 41984 01356 80000 10270 20270 30019 40021 76366 8672/ 333 20251 58003 70654 83707 84615 88456==
41984,2023,06,27,06,00,AAXX 27063 41984 21356 80000 10264 20260 30022 40024 76366 8672/ 333 58007 60169 70640 83707 84615 88456==
41984,2023,06,27,09,00,AAXX 27094 41984 01356 82301 10272 20270 30009 40011 76166 8672/ 333 58010 70624 83707 84615 88456==
41984,2023,06,27,12,00,AAXX 27124 41984 21356 80000 10267 20267 30011 40013 76166 8672/ 333 10276 58014 60089 70458 83707 84615 88456==
41984,2023,06,27,15,00,AAXX 27154 41984 01340 80000 10261 20260 30036 40038 76366 8672/ 333 58025 70684 83707 84615 88458==
41984,2023,06,27,18,00,AAXX 27184 41984 21340 80000 10277 20277 30035 40037 76366 8672/ 333 58020 60309 70694 83707 84615 88456==
41984,2023,06,28,00,00,AAXX 28004 41984 21456 82301 10284 20270 30028 40030 70262 8352/ 333 58028 60119 70654 83618 88458==
41984,2023,06,28,03,00,AAXX 28034 41984 02456 82302 10300 20270 30034 40036 8352/ 333 20256 58015 70544 83618 88458==
41984,2023,06,28,06,00,AAXX 28064 41984 NIL=
41984,2023,06,28,12,00,AAXX 28124 41984 02456 82302 10302 20280 30029 40031 8352/ 333 10326 58018 70410 83618 88458==
41984,2023,06,28,15,00,AAXX 28154 41984 02440 80000 10294 20280 30051 40053 8352/ 333 58015 70160 83618 88458==
41984,2023,06,28,18,00,AAXX 28184 41984 02450 31403 10280 20260 30070 40073 83530 333 58013 70010 83618==
41984,2023,06,29,00,00,AAXX 29004 41984 NIL=
41984,2023,06,29,06,00,AAXX 29064 41984 NIL=
41984,2023,06,29,12,00,AAXX 29124 41984 NIL=
41984,2023,06,29,15,00,AAXX 29154 41984 01340 80000 10264 20260 30036 40038 76166 8672/ 333 59015 70505 83707 84615 88456==
41984,2023,06,29,18,00,AAXX 29184 41984 21340 80000 10267 20260 30039 40041 70262 8632/ 333 59003 60018 70503 83708 84616 88456 81926==
41984,2023,06,29,21,00,AAXX 29214 41984 02340 80000 10272 20270 30036 40038 8632/ 333 59004 70505 83708 84616 88456 81926==
41989,2023,06,23,00,00,AAXX 23004 41989 21450 41404 10273 20260 30033 40037 70362 82530 333 59013 60035 70050 82618 83362==
41989,2023,06,23,06,00,AAXX 23064 41989 01340 81705 10298 20270 30037 40040 76121 8572/ 333 59032 70020 82710 83614 88456==
41989,2023,06,23,09,00,AAXX 23094 41989 01450 71306 10290 20260 30011 40014 70162 83570 333 59021 70200 83618 85460==
41989,2023,06,23,12,00,AAXX 23124 41989 01450 41306 10302 20260 30003 40006 70162 83530 333 10318 59013 70220 83618 84362==
41989,2023,06,23,18,00,AAXX 23184 41989 01430 61404 10268 20260 30036 40039 70362 83570 333 59007 70010 83618 84460==
41989,2023,06,24,00,00,AAXX 24004 41989 NIL=
41989,2023,06,24,03,00,AAXX 24034 41989 02456 51304 10302 20260 30050 40053 83530 333 20240 59006 70300 83618 84362==
41989,2023,06,24,06,00,AAXX 24064 41989 12350 81304 10268 20260 30043 40046 60072 8572/ 333 58006 70350 82710 83614 88456==
41989,2023,06,24,09,00,AAXX 24094 41989 01450 61805 10280 20260 30016 40019 70162 83570 333 58005 70220 83618 84460==
41989,2023,06,24,12,00,AAXX 24124 41989 NIL=
41989,2023,06,24,15,00,AAXX 24154 41989 02450 31304 10270 20250 30025 40028 82530 333 59002 70200 82618 83362==
41989,2023,06,24,18,00,AAXX 24184 41989 02450 51305 10268 20250 30036 40039 82570 333 58000 70190 82618 83362==
41989,2023,06,24,21,00,AAXX 24214 41989 02450 51805 10270 20250 30031 40034 83530 333 58002 70190 83618 84362==
41989,2023,06,25,00,00,AAXX 25004 41989 02450 61306 10267 20250 30028 40031 83570 333 58002 70090 83618 84362==
41989,2023,06,25,03,00,AAXX 25034 41989 02456 41306 10292 20260 30051 40054 82530 333 20238 58001 70090 82618 84362==
41989,2023,06,25,06,00,AAXX 25064 41989 02456 31406 10315 20260 30039 40042 82530 333 58000 70020 82618 83362==
41989,2023,06,25,09,00,AAXX 25094 41989 02456 31407 10323 20250 30018 40021 83500 333 58002 70000 83618==
41989,2023,06,25,12,00,AAXX 25124 41989 02456 51307 10283 20240 30012 40015 82570 333 10334 58007 70000 82618 83362==
41989,2023,06,26,00,00,AAXX 26004 41989 NIL=
41989,2023,06,26,03,00,AAXX 26034 41989 01340 81304 10263 20250 30050 40053 76166 8572/ 333 20240 59001 70240 82710 83614 88456==
41989,2023,06,26,06,00,AAXX 26064 41989 01450 61303 10278 20250 30044 40047 70162 83570 333 59004 70290 83618 83362==
41989,2023,06,26,09,00,AAXX 26094 41989 01440 71305 10282 20260 30020 40023 72122 83570 333 58002 70300 83618 85460==
41989,2023,06,26,12,00,AAXX 26124 41989 11450 71306 10276 20260 30014 40017 60032 70262 83570 333 10286 58002 70320 83618 84560==
41989,2023,06,26,15,00,AAXX 26154 41989 01440 61806 10263 20240 30038 40041 70162 82570 333 58011 70320 82618 84460==
41989,2023,06,26,18,00,AAXX 26184 41989 11440 61406 10260 20240 30049 40053 60006 70262 83570 333 58012 70320 83618 84460==
41989,2023,06,26,21,00,AAXX 26214 41989 02440 71706 10262 20240 30042 40045 83570 333 58012 70320 83618 84460==
41989,2023,06,27,00,00,AAXX 27004 41989 01440 61806 10258 20240 30038 40041 70162 83670 333 58011 70040 83618 84460==
41989,2023,06,27,03,00,AAXX 27034 41989 02450 61305 10294 20250 30059 40063 83570 333 20238 58009 70120 83618 83362==
41989,2023,06,27,06,00,AAXX 27064 41989 02456 71306 10302 20260 30055 40058 83570 333 58005 70070 83618 84460==
41989,2023,06,27,09,00,AAXX 27094 41989 02456 61406 10295 20260 30031 40034 83570 333 58011 70040 83618 84460==
41989,2023,06,27,12,00,AAXX 27124 41989 01440 71305 10278 20260 30020 40023 70362 83570 333 10306 58005 70000 83618 85460==
41989,2023,06,27,15,00,AAXX 27154 41989 01440 81804 10267 20260 30052 40055 76122 8572/ 333 58014 70070 82710 83614 88456==
41989,2023,06,27,18,00,AAXX 27184 41989 21440 71706 10268 20260 30060 40063 70162 83570 333 58011 60015 70080 83618 85460==
41989,2023,06,27,21,00,AAXX 27214 41989 01440 51804 10270 20250 30056 40059 70162 82570 333 58014 70090 82618 83362==
41989,2023,06,28,00,00,AAXX 28004 41989 11450 41304 10270 20250 30054 40057 60016 70162 83570 333 58016 70050 82618 84362==
41989,2023,06,28,03,00,AAXX 28034 41989 02456 31405 10305 20260 30081 40084 83530 333 20245 58022 70050 82618 83362==
41989,2023,06,28,06,00,AAXX 28064 41989 02456 21407 10330 20280 30075 40078 82500 333 58028 70050 82618==
41989,2023,06,28,12,00,AAXX 28124 41989 02456 51704 10290 20250 30041 40044 83570 333 10332 58021 70050 83618 83362==
41989,2023,06,28,18,00,AAXX 28184 41989 NIL=
41989,2023,06,29,00,00,AAXX 29004 41989 NIL=
41989,2023,06,29,03,00,AAXX 29034 41989 02456 21305 10315 20270 30072 40075 82500 333 20260 59012 70000 82618==
41989,2023,06,29,06,00,AAXX 29064 41989 02456 21306 10328 20270 30063 40067 82500 333 59012 70000 82168==
41989,2023,06,29,12,00,AAXX 29124 41989 NIL=
41992,2023,06,23,00,00,AAXX 23004 41992 01420 61502 10262 20260 30047 40049 70562 84520 333 59009 70080 84615 86458==
41992,2023,06,23,03,00,AAXX 23034 41992 01320 81806 10278 20260 30046 40048 76122 8532/ 333 20260 59018 70120 83707 85613 88458 81925==
41992,2023,06,23,06,00,AAXX 23064 41992 21430 61506 10300 20260 30045 40047 70565 84530 333 59012 60045 70120 84616 86362==
41992,2023,06,23,09,00,AAXX 23094 41992 01430 62110 10310 20250 30021 40023 70522 84530 333 59013 70120 84615 86460==
41992,2023,06,23,12,00,AAXX 23124 41992 01430 62108 10285 20260 30026 40028 70522 84530 333 10312 59008 70120 84615 86360==
41992,2023,06,23,15,00,AAXX 23154 41992 01420 82105 10270 20250 30036 40038 75122 8492/ 333 59011 70120 83614 88458 81925==
41992,2023,06,23,18,00,AAXX 23184 41992 21420 81805 10265 20250 30040 40042 76165 8432/ 333 59011 60027 70140 83614 88458 81925==
41992,2023,06,23,21,00,AAXX 23214 41992 01315 81805 10260 20250 30005 40037 76366 8692/ 333 58000 70290 83707 85614 88458 81925==
41992,2023,06,24,00,00,AAXX 24004 41992 21420 81805 10260 20250 30031 40033 76166 8592/ 333 59016 60319 70350 84614 88458 81925==
41992,2023,06,24,03,00,AAXX 24034 41992 01430 61202 10290 20260 30038 40040 70566 82530 333 20255 59008 70330 82616 84362==
41992,2023,06,24,06,00,AAXX 24064 41992 01320 81510 10253 20250 30044 40046 76362 8592/ 333 59002 70540 83707 85613 88458 81925==
41992,2023,06,24,09,00,AAXX 24094 41992 01320 80000 10264 20230 30026 40028 76166 8932/ 333 58005 70570 83707 85614 88458 81925==
41992,2023,06,24,12,00,AAXX 24124 41992 21420 80000 10255 20250 30021 40023 76166 8592/ 333 10305 59005 60049 70580 84614 88458 81925==
41992,2023,06,24,15,00,AAXX 24154 41992 01420 60902 10260 20250 30041 40043 70522 84530 333 58005 70580 84615 86360==
41992,2023,06,24,18,00,AAXX 24184 41992 01420 70000 10258 20250 30045 40047 70522 84530 333 58009 70580 84615 87360==
41992,2023,06,24,21,00,AAXX 24214 41992 01420 70000 10260 20240 30032 40034 70522 84530 333 59003 70310 84615 87360==
41992,2023,06,25,00,00,AAXX 25004 41992 01420 71502 10258 20250 30041 40043 70522 84530 333 58010 70250 84615 87360==
41992,2023,06,25,03,00,AAXX 25034 41992 01425 61504 10290 20250 30049 40051 70522 83520 333 20255 58011 70250 83616 86460==
41992,2023,06,25,06,00,AAXX 25064 41992 01430 61505 10315 20240 30043 40045 70522 84530 333 59001 70040 84616 86460==
41992,2023,06,25,09,00,AAXX 25094 41992 01430 71206 10308 20260 30027 40029 70522 84530 333 58001 70010 84616 87362==
41992,2023,06,25,12,00,AAXX 25124 41992 21320 81502 10260 20240 30031 40033 76166 8592/ 333 10332 58010 60037 70030 83707 85613 88458 81925==
41992,2023,06,25,15,00,AAXX 25154 41992 01420 71504 10265 20250 30041 40043 70522 84520 333 58000 70030 84615 87460==
41992,2023,06,25,18,00,AAXX 25184 41992 01425 71503 10262 20240 30052 40054 70562 84530 333 58007 70030 84615 87360==
41992,2023,06,25,21,00,AAXX 25214 41992 01420 71504 10260 20240 30032 40034 70522 84530 333 58000 70030 84615 87360==
41992,2023,06,26,00,00,AAXX 26004 41992 01420 61504 10260 20250 30042 40044 70522 84520 333 58001 70030 84615 86460==
41992,2023,06,26,03,00,AAXX 26034 41992 01320 81503 10278 20250 30054 40056 75166 8432/ 333 20257 58005 70160 82708 84614 88458 81925==
41992,2023,06,26,06,00,AAXX 26064 41992 21320 81506 10288 20260 30051 40053 75165 8432/ 333 58008 60039 70030 82708 84614 88458 81925==
41992,2023,06,26,09,00,AAXX 26094 41992 01320 81508 10267 20260 30034 40036 75166 8592/ 333 58007 70210 82708 84614 88458 81925==
41992,2023,06,26,12,00,AAXX 26124 41992 21320 81505 10256 20250 30031 40033 76165 8592/ 333 10298 58000 60129 70250 82708 84614 88458 81925==
41992,2023,06,26,15,00,AAXX 26154 41992 01420 81503 10255 20250 30052 40054 76166 8592/ 333 58011 70260 84614 88458 81925==
41992,2023,06,26,18,00,AAXX 26184 41992 21420 81505 10255 20250 30048 40050 76166 8592/ 333 59004 60029 70260 84614 88458 81925==
41992,2023,06,26,21,00,AAXX 26214 41992 01420 81505 10255 20250 30043 40045 76166 8592/ 333 59011 70290 84614 88458 81925==
41992,2023,06,27,00,00,AAXX 27004 41992 21425 80000 10255 20240 30036 40038 75166 8592/ 333 59006 60029 70290 84614 88458 81925==
41992,2023,06,27,03,00,AAXX 27034 41992 01320 81506 10273 20240 30053 40055 75165 8432/ 333 20255 59001 70180 82708 84614 88458 81925==
41992,2023,06,27,06,00,AAXX 27064 41992 01430 61505 10316 20260 30051 40053 70562 84530 333 58000 70180 84616 86362==
41992,2023,06,27,09,00,AAXX 27094 41992 01425 81506 10285 20260 30045 40047 76162 8592/ 333 58011 70110 84614 88458 81925==
41992,2023,06,27,12,00,AAXX 27124 41992 21320 81505 10265 20260 30051 40053 76362 8692/ 333 10320 58015 60097 70160 83707 85612 88458 81925==
41992,2023,06,27,15,00,AAXX 27154 41992 01320 81506 10265 20250 30066 40068 76166 8692/ 333 58014 70170 82708 84614 88458 81925==
41992,2023,06,27,18,00,AAXX 27184 41992 21320 81503 10267 20250 30074 40076 75165 8432/ 333 58026 60039 70160 82708 84614 88458 81925==
41992,2023,06,27,21,00,AAXX 27214 41992 01420 81503 10267 20250 30062 40064 70522 8452/ 333 58019 70140 84615 88458==
41992,2023,06,28,00,00,AAXX 28004 41992 01420 61505 10265 20250 30070 40072 70521 84530 333 59034 70140 84615 86360==
41992,2023,06,28,03,00,AAXX 28034 41992 01430 61503 10310 20260 30080 40082 70522 83530 333 20262 58027 70120 83616 86362==
41992,2023,06,28,06,00,AAXX 28064 41992 41430 61505 10325 20270 30081 40083 70522 86460==
41992,2023,06,28,09,00,AAXX 28094 41992 01425 71504 10282 20250 30063 40065 70566 84530 333 58018 70110 84615 87360==
41992,2023,06,28,15,00,AAXX 28154 41992 41/25 31502 10278 20260 30080 40082 70521 83030 333 58014 83362==
41992,2023,06,28,18,00,AAXX 28184 41992 41425 61503 10277 20260 30082 40084 70521 84530 333 58008 84616 86362==
41992,2023,06,28,21,00,AAXX 28214 41992 41420 61503 10265 20260 30064 40066 70522 84530 333 58002 84616 86362==
41992,2023,06,29,00,00,AAXX 29004 41992 41425 61504 10262 20260 30076 40078 70522 84530 333 58006 84615 86360==
41992,2023,06,29,03,00,AAXX 29034 41992 41530 21503 10307 20260 30082 40084 70511 82100 333 20260 58002 82825==
41992,2023,06,29,06,00,AAXX 29064 41992 41/35 21507 10318 20270 30079 40081 70511 82030 333 59002 82362==
41992,2023,06,29,09,00,AAXX 29094 41992 01/35 21807 10317 20270 30053 40055 70511 82030 333 59010 70000 82362==
41992,2023,06,29,12,00,AAXX 29124 41992 01/35 21503 10300 20260 30048 40050 70511 82030 333 10325 59012 70000 82362==
41992,2023,06,29,15,00,AAXX 29154 41992 01/30 30000 10288 20270 30063 40065 70511 83030 333 59017 70000==
41992,2023,06,29,18,00,AAXX 29184 41992 01425 50000 10285 20270 30065 40067 71321 85300 333 59017 70000 84616 81925==
41992,2023,06,29,21,00,AAXX 29214 41992 01425 40000 10280 20260 30060 40062 70511 84500 333 59004 70000 84616==
41998,2023,06,23,00,00,AAXX 23004 41998 NIL=
41998,2023,06,23,06,00,AAXX 23064 41998 01456 81402 10284 20260 30046 40052 70262 8442/ 333 59007 70110 83618 88458==
41998,2023,06,23,09,00,AAXX 23094 41998 01456 80000 10258 20250 30026 40032 76166 8442/ 333 59012 70230 83618 88458==
41998,2023,06,23,12,00,AAXX 23124 41998 21456 80000 10266 20260 30029 40035 70262 8442/ 333 10288 59025 60179 70260 83618 88458==
41998,2023,06,24,00,00,AAXX 24004 41998 21456 80000 10268 20260 30057 40063 70262 8442/ 333 58003 60068 70450 83618 88458==
41998,2023,06,24,03,00,AAXX 24034 41998 01456 80000 10271 20250 30062 40068 72162 8442/ 333 20257 58012 70470 83618 88458==
41998,2023,06,24,06,00,AAXX 24064 41998 NIL=
41998,2023,06,24,12,00,AAXX 24124 41998 21456 80000 10256 20250 30020 40026 72166 8442/ 333 10287 59009 60109 70520 83618 88458==
41998,2023,06,25,00,00,AAXX 25004 41998 21456 80000 10262 20250 30045 40051 72162 8442/ 333 59012 60067 70330 83618 88458==
41998,2023,06,25,03,00,AAXX 25034 41998 02456 80000 10282 20250 30048 40054 8442/ 333 20258 59014 70300 83618 88458==
41998,2023,06,25,06,00,AAXX 25064 41998 NIL=
41998,2023,06,25,09,00,AAXX 25094 41998 02456 61503 10307 20260 30027 40033 83470 333 58005 70100 83470 82618 84458==
41998,2023,06,25,12,00,AAXX 25124 41998 11456 80000 10286 20260 30032 40038 60046 70362 8442/ 333 10318 58012 70100 83618 88458==
41998,2023,06,26,00,00,AAXX 26004 41998 21456 80000 10265 20260 30038 40044 76166 8442/ 333 59007 60229 70540 83618 88458==
41998,2023,06,26,06,00,AAXX 26064 41998 NIL=
41998,2023,06,26,12,00,AAXX 26124 41998 22456 80000 10263 20250 30039 40045 8442/ 333 10282 58007 60079 70720 83618 88458==
41998,2023,06,26,18,00,AAXX 26184 41998 NIL=
41998,2023,06,27,00,00,AAXX 27004 41998 NIL=
41998,2023,06,27,03,00,AAXX 27034 41998 01456 80000 10265 20250 30048 40054 76166 8442/ 333 20250 58016 70300 83618 88458==
41998,2023,06,27,06,00,AAXX 27064 41998 NIL=
41998,2023,06,27,12,00,AAXX 27124 41998 02956 80000 10272 20250 30046 40052 8442/ 333 10291 58007 70180 83618 88458==
41998,2023,06,27,18,00,AAXX 27184 41998 NIL=
41998,2023,06,28,00,00,AAXX 28004 41998 02456 80000 10270 20260 30040 40046 8342/ 333 58002 70100 82617 88457==
41998,2023,06,28,06,00,AAXX 28064 41998 NIL=
41998,2023,06,28,18,00,AAXX 28184 41998 NIL=
41998,2023,06,29,00,00,AAXX 29004 41998 02456 60000 10275 20260 30045 40051 83470 333 58002 70080 82618 83458==
41998,2023,06,29,03,00,AAXX 29034 41998 02456 60000 10294 20260 30051 40057 83470 333 20265 58006 70080 82618 84458==
41998,2023,06,29,06,00,AAXX 29064 41998 NIL=
41998,2023,06,29,12,00,AAXX 29124 41998 02456 60000 10291 20250 30052 40058 83470 333 10324 59005 70000 82618 84458==
