ESTACION,ANO,MES,DIA,HORA,MINUTO,PARTE
41850,2023,09,29,00,00,AAXX 29004 41850 31950 00000 10254 20240 39954 40052 70500 333 59012 70000=
41850,2023,09,29,06,00,AAXX 29064 41850 32957 00000 10344 20220 39963 40058 333 59002 70000=
41850,2023,09,29,12,00,AAXX 29124 41850 32456 40000 10330 20280 39922 40018 70310 81430 333 10365 56990 59007 70000 81618 84362=
41850,2023,09,29,18,00,AAXX 29184 41850 31440 40000 10284 20260 39952 40050 70511 81530 333 56990 58001 70000 81618 84362=
41850,2023,09,30,00,00,AAXX 30004 41850 31435 70000 10272 20260 39950 40048 70511 82510 333 56990 59004 70000 82616 87458=
41850,2023,09,30,06,00,AAXX 30064 41850 11430 81702 10262 20240 39983 40082 60299 76196 8252/ 333 56399 58020 70290 82614 88458=
41850,2023,09,30,12,00,AAXX 30124 41850 32456 80000 10270 20250 39934 40035 70222 8152/ 333 10275 56999 58014 70290 81616 88458=
41850,2023,09,30,18,00,AAXX 30184 41850 31440 70000 10264 20250 39963 40062 70522 81510 333 56990 58011 70290 81616 87458=
41850,2023,10,01,00,00,AAXX 01004 41850 31440 80000 10256 20250 39950 40048 70522 8252/ 333 56999 58000 70290 82615 88458=
41850,2023,10,01,12,00,AAXX 01124 41850 11330 80000 10252 20240 39941 40039 60064 76122 8432/ 333 10334 56499 58005 70060 81708 83614 81925 88458=
41850,2023,10,01,18,00,AAXX 01184 41850 11430 80000 10257 20250 39958 40057 60016 70562 8252/ 333 56999 59005 70070 82616 88458=
41850,2023,10,02,00,00,AAXX 02004 41850 31430 80000 10252 20240 39952 40051 70522 8152/ 333 56999 58002 70070 81616 88458=
41850,2023,10,02,06,00,AAXX 02064 41850 32457 41203 10316 20250 39966 40062 82530 333 56990 58008 70070 82618 84362=
41850,2023,10,02,12,00,AAXX 02124 41850 32456 40000 10286 20250 39942 40040 82530 333 10330 56990 58001 70010 82616 84362=
41850,2023,10,02,18,00,AAXX 02184 41850 31440 40000 10270 20250 39953 40052 70511 81530 333 56990 59005 70000 81616 84362=
41850,2023,10,03,00,00,AAXX 03004 41850 11320 80000 10254 20240 39967 40066 60034 76162 8432/ 333 56999 58015 70030 81708 82614 81925 88458=
41850,2023,10,03,06,00,AAXX 03064 41850 11330 80602 10262 20250 39980 40079 60053 76162 8352/ 333 56299 58014 70080 83614 88458=
41850,2023,10,03,12,00,AAXX 03124 41850 11440 70000 10267 20260 39960 40058 60013 70562 83520 333 10295 56999 58018 70090 83617 87458=
41850,2023,10,03,18,00,AAXX 03184 41850 11435 80000 10258 20250 39980 40079 60034 76122 8352/ 333 56999 58027 70120 83617 88458=
41850,2023,10,04,00,00,AAXX 04004 41850 11330 80803 10253 20250 39972 40070 60023 72162 8562/ 333 56299 58005 70112 82708 84616 88456=
41850,2023,10,04,06,00,AAXX 04064 41850 11340 80602 10265 20260 39985 40083 60012 70562 8562/ 333 56299 58005 70074 82708 84616 88458=
41850,2023,10,04,12,00,AAXX 04124 41850 11340 80000 10245 20240 39969 40067 60163 76162 8572/ 333 10270 56299 58009 70220 82708 84615 88456=
41850,2023,10,04,18,00,AAXX 04184 41850 11330 80804 10240 20240 39977 40076 60129 76166 8572/ 333 56299 59003 70310 82708 84615 88456=
41850,2023,10,05,00,00,AAXX 05004 41850 11440 80603 10241 20230 39959 40058 60016 70562 8452/ 333 56299 59013 70298 84616 88458=
41850,2023,10,05,06,00,AAXX 05064 41850 11340 80503 10247 20240 39968 40066 60037 76162 8572/ 333 56299 59017 70316 81708 84616 88458=
41850,2023,10,05,12,00,AAXX 05124 41850 11450 60903 10260 20240 39945 40043 69966 70562 83520 333 10278 56990 59024 70166 83618 86458=
41850,2023,10,05,18,00,AAXX 05184 41850 31440 40803 10254 20230 39951 40049 70522 82510 333 56990 59026 70046 82618 84460=
41851,2023,09,29,00,00,AAXX 29004 41851 31440 40000 10265 20260 39987 40050 70510 81510 333 56990 59012 70000 81618 84459=
41851,2023,09,29,06,00,AAXX 29064 41851 32450 20902 10332 20270 39996 40057 81530 333 56990 58022 70000 81618=
41851,2023,09,29,12,00,AAXX 29124 41851 32450 80000 10324 20280 39957 40018 8352/ 333 10346 56999 59004 70000 83618 88459=
41851,2023,09,29,18,00,AAXX 29184 41851 31440 60000 10290 20280 39987 40049 70522 83530 333 56990 59002 70000 83618 85362=
41851,2023,09,30,00,00,AAXX 30004 41851 31440 80000 10278 20270 39985 40047 70522 8352/ 333 56499 59002 70000 83618 88458=
41851,2023,09,30,06,00,AAXX 30064 41851 11450 80903 10275 20270 30013 40075 60328 70296 8352/ 333 56999 58017 70324 83617 88457=
41851,2023,09,30,12,00,AAXX 30124 41851 32450 80000 10277 20260 39972 40034 8352/ 333 10289 56999 58015 70324 83618 88458=
41851,2023,09,30,18,00,AAXX 30184 41851 32450 80000 10265 20260 39997 40060 8352/ 333 56999 58010 70324 83618 88458=
41851,2023,10,01,00,00,AAXX 01004 41851 32450 80000 10260 20250 39987 40050 8352/ 333 56999 58002 70324 83618 88458=
41851,2023,10,01,12,00,AAXX 01124 41851 11450 80901 10260 20250 39970 40033 60114 70396 8352/ 333 10334 56999 59002 70112 83618 88458=
41851,2023,10,01,18,00,AAXX 01184 41851 32450 70000 10257 20250 30000 40063 82520 333 56990 58003 70112 82618 87458=
41851,2023,10,02,00,00,AAXX 02004 41851 32450 50000 10260 20250 39991 40054 82510 333 56990 58004 70112 82618 84458=
41851,2023,10,02,06,00,AAXX 02064 41851 32450 81401 10315 20270 30003 40064 8352/ 333 56999 58009 70112 83618 88458=
41851,2023,10,02,12,00,AAXX 02124 41851 32450 50000 10300 20270 39975 40037 82510 333 10335 56990 58005 70000 82618 84458=
41851,2023,10,02,18,00,AAXX 02184 41851 32450 20000 10271 20260 30008 40071 82500 333 56900 58008 70000 82618=
41851,2023,10,03,00,00,AAXX 03004 41851 11340 80000 10250 20240 30006 40069 60607 79596 8492/ 333 56499 58015 70600 81708 84616 81929 88456=
41851,2023,10,03,06,00,AAXX 03064 41851 11450 60902 10294 20260 30016 40078 60017 70162 82510 333 56990 58013 70612 82618 86458=
41851,2023,10,03,12,00,AAXX 03124 41851 32450 60000 10270 20250 39994 40057 82510 333 56990 58019 70612 82618 85458=
41851,2023,10,03,18,00,AAXX 03184 41851 32350 80000 10265 20250 30016 40079 8462/ 333 56999 58008 70612 81708 84616 88456=
41851,2023,10,04,00,00,AAXX 04004 41851 32350 80901 10256 20250 30010 40073 8462/ 333 56299 58004 70012 81708 84616 88456=
41851,2023,10,04,06,00,AAXX 04064 41851 11350 80902 10260 20250 30023 40086 60129 76162 8462/ 333 56299 58007 70119 81708 84616 88456=
41851,2023,10,04,12,00,AAXX 04124 41851 11350 80902 10250 20240 30001 40064 60079 76166 8472/ 333 10270 56299 58007 70184 81708 84616 88456=
41851,2023,10,04,18,00,AAXX 04184 41851 11350 80901 10245 20240 30018 40081 60059 76166 8472/ 333 56299 58002 70229 81708 84616 88456=
41851,2023,10,05,00,00,AAXX 05004 41851 11350 80903 10245 20240 39995 40058 60209 76166 8472/ 333 56299 59015 70432 81708 84616 88456=
41851,2023,10,05,06,00,AAXX 05064 41851 11350 80903 10262 20230 30001 40064 60129 70266 8472/ 333 56299 59022 70430 81708 84616 88456=
41851,2023,10,05,12,00,AAXX 05124 41851 11350 80704 10259 20240 39976 40039 69936 70262 8462/ 333 10270 56299 59025 70368 81709 83617 88456=
41851,2023,10,05,18,00,AAXX 05184 41851 32450 40904 10248 20230 39982 40045 82510 333 56990 59036 70323 82618 84458=
41856,2023,09,29,00,00,AAXX 29004 41856 31930 20000 10266 20266 30011 40046 70510 82030 333 56090 59014 70000 82362=
41856,2023,09,29,06,00,AAXX 29064 41856 32958 30503 10340 20260 30021 40055 83030 333 56090 59005 70000 83362=
41856,2023,09,29,12,00,AAXX 29124 41856 32950 30501 10335 20290 39980 40014 83030 333 10352 56090 59004 70000 83362=
41856,2023,09,29,18,00,AAXX 29184 41856 31930 20501 10275 20270 30023 40058 70511 82030 333 56090 58008 70000 82362=
41856,2023,09,30,00,00,AAXX 30004 41856 11320 80501 10255 20250 30012 40047 60184 76362 8672/ 333 56299 58001 70180 83708 84616 88456=
41856,2023,09,30,06,00,AAXX 30064 41856 11350 80501 10300 20260 30038 40073 60297 70266 8672/ 333 56299 58017 70470 83708 84616 88456=
41856,2023,09,30,12,00,AAXX 30124 41856 32450 50000 10280 20240 39999 40034 84430 333 10315 56990 58019 70470 83618 83362=
41856,2023,09,30,18,00,AAXX 30184 41856 32440 50000 10264 20240 30030 40066 84430 333 56990 58007 70470 83618 83362=
41856,2023,10,01,00,00,AAXX 01004 41856 32440 80000 10260 20250 30014 40049 8542/ 333 56999 58002 70290 84618 88458=
41856,2023,10,01,12,00,AAXX 01124 41856 11440 50000 10271 20250 39994 40029 60158 70162 82330 333 10335 56990 59005 70154 81618 83362=
41856,2023,10,01,18,00,AAXX 01184 41856 32440 50000 10267 20260 30023 40058 83430 333 56990 59007 70154 82618 84458=
41856,2023,10,02,00,00,AAXX 02004 41856 32440 81102 10264 20250 30016 40051 8542/ 333 56999 58002 70154 84618 88458=
41856,2023,10,02,06,00,AAXX 02064 41856 32456 60000 10310 20260 30030 40035 84430 333 56990 58012 70154 83618 84458=
41856,2023,10,02,12,00,AAXX 02124 41856 32950 20000 10295 20280 30004 40039 82030 333 10330 56090 58010 70000 82362=
41856,2023,10,02,18,00,AAXX 02184 41856 32930 50000 10270 20260 30032 40067 82037 333 56099 58009 70000 82362 84280=
41856,2023,10,03,00,00,AAXX 03004 41856 11330 82001 10263 20250 30030 40066 60014 76122 8672/ 333 56499 58014 70013 82710 84618 88456=
41856,2023,10,03,06,00,AAXX 03064 41856 32450 72002 10293 20250 30043 40078 83470 333 56390 58013 70013 82618 85362=
41856,2023,10,03,12,00,AAXX 03124 41856 11940 40000 10275 20260 30020 40055 60013 70262 83031 333 10305 56099 58016 70023 83362=
41856,2023,10,03,18,00,AAXX 03184 41856 11430 80000 10260 20260 30052 40087 60014 72122 8325/ 333 56999 58018 70033 83618 88458=
41856,2023,10,04,00,00,AAXX 04004 41856 32340 82002 10260 20240 30038 40074 8672/ 333 56999 58008 70020 83710 84618 88458=
41856,2023,10,04,06,00,AAXX 04064 41856 11330 81602 10257 20250 30049 40085 60137 76162 8772/ 333 56399 58006 70150 83708 85616 88456=
41856,2023,10,04,12,00,AAXX 04124 41856 21440 80503 10255 20250 30030 40066 60033 72162 8542/ 333 10272 56299 58010 70170 83618 88458=
41856,2023,10,04,18,00,AAXX 04184 41856 11330 80501 10250 20240 30056 40092 60179 76166 8672/ 333 56299 58004 70330 83708 84616 88456=
41856,2023,10,05,00,00,AAXX 05004 41856 11340 80501 10248 20245 30025 40061 60199 76366 8672/ 333 56299 59013 70517 83708 84616 88456=
41856,2023,10,05,06,00,AAXX 05064 41856 11450 80503 10258 20240 30031 40067 60119 70266 8552/ 333 56999 59018 70492 85618 88458=
41856,2023,10,05,12,00,AAXX 05124 41856 11340 80903 10250 20230 30004 40040 60089 72166 8672/ 333 10265 56299 59026 70550 83708 84616 88456=
41856,2023,10,05,18,00,AAXX 05184 41856 32430 60503 10245 20230 30024 40060 82520 333 56990 59032 70380 82618 86458=
41858,2023,09,29,00,00,AAXX 29004 41858 01/30 30000 10275 20270 30006 40051 70500 83030 333 59012 70000 83362==
41858,2023,09,29,03,00,AAXX 29034 41858 01/50 30504 10325 20270 30024 40068 70500 83030 333 20270 59006 70000 83362==
41858,2023,09,29,06,00,AAXX 29064 41858 01450 30505 10353 20240 30014 40058 70500 82530 333 59004 70000 82618 83362==
41858,2023,09,29,09,00,AAXX 29094 41858 01450 50304 10352 20270 30080 40023 70522 83520 333 59011 70000 83618 85458==
41858,2023,09,29,12,00,AAXX 29124 41858 01450 50904 10324 20280 39975 40019 70522 83520 333 10360 59003 70000 83618 85458==
41858,2023,09,29,15,00,AAXX 29154 41858 01440 50304 10304 20280 30008 40053 71322 83520 333 58011 70000 83616 85458 81930==
41858,2023,09,29,18,00,AAXX 29184 41858 01440 70304 10296 20280 30011 40056 71322 83520 333 58010 70000 83616 87458 81930==
41858,2023,09,29,21,00,AAXX 29214 41858 01440 70000 10290 20280 30005 40050 71792 84920 333 59005 70000 84615 86458 82930==
41858,2023,09,30,00,00,AAXX 30004 41858 01450 60000 10284 20260 30004 40049 71792 83920 333 59002 70000 83615 86458 82930==
41858,2023,09,30,03,00,AAXX 30034 41858 01450 80606 10290 20280 30026 40071 70522 8452/ 333 10278 58002 70000 84615 88458==
41858,2023,09,30,06,00,AAXX 30064 41858 41440 80305 10302 20270 30027 40072 76122 8452/ 333 58013 84615 88458==
41858,2023,09,30,09,00,AAXX 30094 41858 41450 50000 10305 20270 39999 40044 70522 83520 333 58019 83615 85458==
41858,2023,09,30,12,00,AAXX 30124 41858 41450 50000 10290 20270 39989 40034 70522 83530 333 10350 58014 83615 84362==
41858,2023,09,30,15,00,AAXX 30154 41858 41440 40000 10280 20260 30017 40062 70522 82520 333 58009 82616 84458==
41858,2023,09,30,18,00,AAXX 30184 41858 NIL=
41858,2023,09,30,21,00,AAXX 30214 41858 41430 60000 10272 20250 30008 40053 70522 83520 333 58003 83616 86458==
41858,2023,10,01,00,00,AAXX 01004 41858 01430 60904 10268 20260 30006 40051 70522 83520 333 58002 70000 83616 86458==
41858,2023,10,01,03,00,AAXX 01034 41858 41450 50905 10312 20250 30015 40060 70522 85800 333 20259 59011 83615 83825==
41858,2023,10,01,09,00,AAXX 01094 41858 02556 31205 10345 20250 39979 40023 83200 333 59020 70000 83825==
41858,2023,10,01,12,00,AAXX 01124 41858 01550 30904 10290 20260 39984 40029 70522 83200 333 10350 59005 70000 83825==
41858,2023,10,01,15,00,AAXX 01154 41858 01/50 40000 10274 20250 30010 40055 70522 84040 333 59007 70000 84362==
41858,2023,10,01,18,00,AAXX 01184 41858 01/50 40905 10268 20250 30016 40061 70522 84040 333 58000 70000 84362==
41858,2023,10,01,21,00,AAXX 01214 41858 01430 50905 10270 20250 30016 40061 70522 83520 333 58008 70000 83616 85458==
41858,2023,10,02,00,00,AAXX 02004 41858 01415 60000 10272 20260 30011 40056 71022 83520 333 58005 70000 83616 86458==
41858,2023,10,02,03,00,AAXX 02034 41858 01550 51205 10302 20260 30028 40073 70522 83140 333 20260 58022 70522 83825 85362==
41858,2023,10,02,06,00,AAXX 02064 41858 01450 80905 10315 20260 30024 40069 70522 84615 333 58014 70000 84615 88458==
41858,2023,10,02,09,00,AAXX 02094 41858 01450 51205 10330 20250 39993 40037 70522 85800 333 58014 70000 83615 83825==
41858,2023,10,02,12,00,AAXX 02124 41858 01550 30905 10300 20260 39992 40037 70522 83200 333 10336 58008 70000 83825==
41858,2023,10,02,15,00,AAXX 02154 41858 01/40 30000 10284 20260 30020 40065 70522 83030 333 58010 70000 83362==
41858,2023,10,02,18,00,AAXX 02184 41858 01/40 30000 10270 20250 30020 40065 70511 83030 333 58004 70000 83362==
41858,2023,10,02,21,00,AAXX 02214 41858 01430 80905 10268 20260 30010 40055 72196 8532/ 333 59006 70150 84615 88458 81930==
41858,2023,10,03,00,00,AAXX 03004 41858 01430 80905 10266 20260 30020 40065 70596 8542/ 333 58009 70166 84615 88458==
41858,2023,10,03,03,00,AAXX 03034 41858 01430 80906 10282 20260 30043 40088 70522 8452/ 333 20258 58015 70166 84616 88458==
41858,2023,10,03,06,00,AAXX 03064 41858 01440 80906 10312 20260 30031 40076 70522 8452/ 333 58007 70166 84615 88458==
41858,2023,10,03,09,00,AAXX 03094 41858 01550 60908 10310 20260 30000 40045 70562 83220 333 58007 70188 83825 86458==
41858,2023,10,03,12,00,AAXX 03124 41858 01450 60905 10288 20260 30008 40053 70562 83520 333 10338 58016 70188 83615 86458==
41858,2023,10,03,15,00,AAXX 03154 41858 01440 60906 10260 20250 30032 40078 72122 83520 333 58012 70190 83615 86458==
41858,2023,10,03,18,00,AAXX 03184 41858 11440 60905 10258 20250 30042 40088 60026 70562 83520 333 58022 70210 83615 86458==
41858,2023,10,03,21,00,AAXX 03214 41858 01430 80905 10264 20240 30033 40079 70522 8452/ 333 58023 70062 84615 88458==
41858,2023,10,04,00,00,AAXX 04004 41858 01430 80908 10270 20250 30025 40070 70522 8452/ 333 58005 70046 84615 88458==
41858,2023,10,04,03,00,AAXX 04034 41858 01430 80806 10270 20250 30044 40090 76162 8452/ 333 20258 58001 70134 84614 88458==
41858,2023,10,04,06,00,AAXX 04064 41858 01430 80906 10265 20260 30034 40080 76162 8452/ 333 58003 70220 84614 88458==
41858,2023,10,04,09,00,AAXX 04094 41858 01440 80910 10268 20260 30010 40055 76162 8452/ 333 58010 70300 84614 88458==
41858,2023,10,04,12,00,AAXX 04124 41858 21440 80910 10262 20240 30014 40060 76162 8452/ 333 10272 58006 60109 70348 84614 88458==
41858,2023,10,04,15,00,AAXX 04154 41858 01430 00910 10260 20240 30040 40086 76162 8452/ 333 58008 70356 84614 88458==
41858,2023,10,04,18,00,AAXX 04184 41858 21430 80910 10258 20250 30050 40096 76162 8452/ 333 58008 60019 70338 84614 88458==
41858,2023,10,05,00,00,AAXX 05004 41858 01330 80910 10258 20250 30035 40081 76162 8562/ 333 59017 70368 83708 85614 88458==
41858,2023,10,05,03,00,AAXX 05034 41858 01335 80810 10256 20250 30024 40070 76166 8672/ 333 20240 59020 70394 84708 85614 88458==
41858,2023,10,05,06,00,AAXX 05064 41858 01340 80910 10260 20250 30014 40060 76166 8572/ 333 59020 70302 84708 85614 88458==
41858,2023,10,05,09,00,AAXX 05094 41858 01335 80910 10264 20250 39992 40038 76166 8572/ 333 59010 70284 84708 85614 88458==
41858,2023,10,05,12,00,AAXX 05124 41858 11340 80909 10260 20240 39989 40035 60016 70562 8472/ 333 10300 59025 70215 83708 84614 88458==
41858,2023,10,05,15,00,AAXX 05154 41858 01440 80912 10258 20240 30007 40053 70522 8472/ 333 59033 70205 83708 84614 88458==
41858,2023,10,05,18,00,AAXX 05184 41858 01440 80910 10255 20240 30016 40062 70522 8452/ 333 59034 70201 83710 84615 88458==
41858,2023,10,05,21,00,AAXX 05214 41858 01440 80908 10258 20240 39998 40044 70522 8472/ 333 59040 70171 83708 84614 88458==
41859,2023,09,29,00,00,AAXX 29004 41859 02/30 30501 10282 20270 30011 40048 83030 333 59014 70000 83362==
41859,2023,09,29,03,00,AAXX 29034 41859 02/50 30000 10312 20260 30026 40063 83030 333 20278 59012 70000 83362==
41859,2023,09,29,06,00,AAXX 29064 41859 02450 50000 10363 20260 30019 40055 82530 333 59011 70000 82618 84362==
41859,2023,09,29,09,00,AAXX 29094 41859 02450 60502 10354 20260 39985 40021 82530 333 59011 70000 82618 85362==
41859,2023,09,29,12,00,AAXX 29124 41859 02440 70502 10338 20280 39979 40015 83520 333 10365 59007 70000 83618 87458==
41859,2023,09,29,15,00,AAXX 29154 41859 02430 70000 10310 20280 30017 40053 84520 333 58011 70000 84618 87458==
41859,2023,09,29,18,00,AAXX 29184 41859 02430 70000 10298 20270 30013 40050 84620 333 59001 70000 82710 84618 87458==
41859,2023,09,29,21,00,AAXX 29214 41859 02430 80000 10290 20260 30014 40051 8562/ 333 58002 70000 82710 83618 88458==
41859,2023,09,30,00,00,AAXX 30004 41859 01330 80502 10276 20240 30010 40047 79596 8692/ 333 59001 70000 83709 84616 88456 81930==
41859,2023,09,30,03,00,AAXX 30034 41859 42450 80502 10304 20250 30038 40075 8562/ 333 20271 58012 83710 84618 88458==
41859,2023,09,30,06,00,AAXX 30064 41859 42450 80502 10305 20260 30035 40072 8562/ 333 58016 83710 84618 88458==
41859,2023,09,30,09,00,AAXX 30094 41859 42450 80000 10312 20260 30004 40040 8562/ 333 58019 83710 84618 88458==
41859,2023,09,30,12,00,AAXX 30124 41859 42450 60000 10305 20270 39998 40034 83570 333 10315 58019 83618 86458==
41859,2023,09,30,15,00,AAXX 30154 41859 42430 70502 10285 20270 30027 40064 85610 333 58010 82710 84618 87458==
41859,2023,09,30,18,00,AAXX 30184 41859 42430 70502 10280 20260 30022 40059 85610 333 58009 82710 83618 87458==
41859,2023,09,30,21,00,AAXX 30214 41859 42430 70502 10275 20270 30014 40051 85610 333 58000 82710 84618 87458==
41859,2023,10,01,00,00,AAXX 01004 41859 02440 70902 10270 20260 30014 40051 85620 333 58000 70000 82710 83618 87458==
41859,2023,10,01,03,00,AAXX 01034 41859 02450 30902 10313 20240 30022 40058 83500 333 20265 59016 70000 83618==
41859,2023,10,01,06,00,AAXX 01064 41859 02450 60902 10330 20250 30017 40053 83510 333 59018 70000 83618 86458==
41859,2023,10,01,09,00,AAXX 01094 41859 02450 60902 10294 20250 39991 40028 83510 333 59013 70018 83618 86458==
41859,2023,10,01,12,00,AAXX 01124 41859 01450 60000 10290 20260 39994 40031 70262 83510 333 10339 59004 70060 83618 86458==
41859,2023,10,01,15,00,AAXX 01154 41859 02430 60000 10276 20270 30018 40055 83510 333 59009 70060 83618 86458==
41859,2023,10,01,18,00,AAXX 01184 41859 02430 60000 10273 20260 30021 40058 83510 333 59001 70060 83618 86458==
41859,2023,10,01,21,00,AAXX 01214 41859 02430 80000 10270 20260 30017 40054 8562/ 333 58003 70060 82710 84618 88458==
41859,2023,10,02,00,00,AAXX 02004 41859 02430 80000 10270 20260 30014 40051 8562/ 333 58000 70060 83710 84618 88458==
41859,2023,10,02,03,00,AAXX 02034 41859 02450 80000 10289 20250 30037 40074 8562/ 333 20266 58015 70060 83710 84618 88458==
41859,2023,10,02,06,00,AAXX 02064 41859 02450 80902 10309 20260 30028 40065 8562/ 333 58011 70060 83710 84618 88458==
41859,2023,10,02,09,00,AAXX 02094 41859 02450 51303 10336 20260 30000 40036 84430 333 58009 70042 82618 83828 85362==
41859,2023,10,02,12,00,AAXX 02124 41859 02/40 30902 10310 20270 30001 40037 83030 333 10336 58007 70000 83362==
41859,2023,10,02,15,00,AAXX 02154 41859 02/30 30000 10290 20270 30029 40066 83030 333 58011 70000 83362==
41859,2023,10,02,18,00,AAXX 02184 41859 01430 60502 10284 20260 30031 40068 71320 83310 333 58010 70000 82618 86458 81930==
41859,2023,10,02,21,00,AAXX 02214 41859 01330 81302 10270 20260 30025 40062 76122 8672/ 333 58008 70034 84708 85616 88456==
41859,2023,10,03,00,00,AAXX 03004 41859 01430 80502 10268 20260 30029 40066 72162 8562/ 333 58015 70064 83710 84618 88458==
41859,2023,10,03,03,00,AAXX 03034 41859 02450 80502 10289 20260 30051 40088 8562/ 333 20261 58014 70034 83710 84618 88458==
41859,2023,10,03,06,00,AAXX 03064 41859 02450 80502 10307 20260 30041 40078 8562/ 333 58013 70034 83710 84618 88458==
41859,2023,10,03,09,00,AAXX 03094 41859 01450 70503 10296 20270 30011 40048 70162 84620 333 58011 70118 82710 83618 87458==
41859,2023,10,03,12,00,AAXX 03124 41859 11440 70000 10288 20270 30017 40054 60086 70262 84620 333 10317 58016 70118 82710 83618 87458==
41859,2023,10,03,15,00,AAXX 03154 41859 02430 80902 10279 20260 30044 40081 8562/ 333 58015 70118 83710 84618 88458==
41859,2023,10,03,18,00,AAXX 03184 41859 01430 81302 10265 20260 30044 40081 72162 8562/ 333 58013 70020 83710 84618 88458==
41859,2023,10,03,21,00,AAXX 03214 41859 02430 80902 10262 20250 30037 40074 8562/ 333 58012 70134 83710 84618 88458==
41859,2023,10,04,00,00,AAXX 04004 41859 02430 80902 10267 20250 30034 40071 8562/ 333 58005 70104 83710 84618 88458==
41859,2023,10,04,03,00,AAXX 04034 41859 01350 80902 10265 20260 30056 40093 76162 8672/ 333 20258 58005 70144 83708 84616 88456==
41859,2023,10,04,06,00,AAXX 04064 41859 21350 80902 10261 20260 30046 40083 76162 8672/ 333 58005 60139 70274 83708 84616 88458==
41859,2023,10,04,09,00,AAXX 04094 41859 01350 80000 10268 20260 30019 40056 76166 8672/ 333 58008 70214 83709 84616 88456==
41859,2023,10,04,12,00,AAXX 04124 41859 21440 80000 10265 20250 30025 40062 76166 8672/ 333 10270 58008 60039 70216 83710 84617 88458==
41859,2023,10,04,15,00,AAXX 04154 41859 01330 80902 10261 20250 30051 40088 76166 8572/ 333 58007 70236 83708 84614 88456==
41859,2023,10,04,18,00,AAXX 04184 41859 21320 80902 10256 20255 30038 40075 76566 8572/ 333 59006 60149 70336 83708 85614 88456==
41859,2023,10,04,21,00,AAXX 04214 41859 01330 80902 10252 20250 30021 40058 76366 8672/ 333 59016 70466 83708 85614 88456==
41859,2023,10,05,00,00,AAXX 05004 41859 21320 80502 10254 20250 30018 40055 76366 8672/ 333 59016 60239 70566 83708 85614 88456==
41859,2023,10,05,03,00,AAXX 05034 41859 01340 80504 10259 20250 30037 40074 76166 8672/ 333 20253 59019 70569 83708 85614 88456==
41859,2023,10,05,06,00,AAXX 05064 41859 01340 80504 10259 20250 30037 40074 76166 8672/ 333 20253 59019 70569 83708 85614 88456==
41859,2023,10,05,09,00,AAXX 05094 41859 01340 80906 10260 20240 30003 40040 76166 8672/ 333 59016 70448 84708 85616 88456==
41859,2023,10,05,12,00,AAXX 05124 41859 21335 80504 10251 20240 39999 40036 76166 8672/ 333 10263 59026 60049 70468 84708 85616 88456==
41859,2023,10,05,15,00,AAXX 05154 41859 02430 80506 10254 20230 30015 40052 8562/ 333 59036 70448 83710 84618 88458==
41859,2023,10,05,18,00,AAXX 05184 41859 02430 80504 10256 20240 30005 40042 8562/ 333 59033 70328 83710 84618 88458==
41859,2023,10,05,21,00,AAXX 05214 41859 02430 80504 10255 20240 39992 40029 8562/ 333 59029 70198 83710 84618 88458==
41863,2023,09,29,00,00,AAXX 29004 41863 01940 00901 10270 20260 30005 40048 70500 333 59015 70000==
41863,2023,09,29,03,00,AAXX 29034 41863 02957 00502 10326 20270 30026 40068 333 20266 59007 70000==
41863,2023,09,29,06,00,AAXX 29064 41863 02957 00903 10350 20280 30019 40060 333 59005 70000==
41863,2023,09,29,09,00,AAXX 29094 41863 02957 00902 10354 20270 39981 40022 333 59009 70000==
41863,2023,09,29,12,00,AAXX 29124 41863 02556 30000 10328 20290 39977 40019 83400 333 10357 59005 70000 83620==
41863,2023,09,29,15,00,AAXX 29154 41863 02450 50000 10305 20230 30009 40051 82520 333 58008 70000 82618 88458==
41863,2023,09,29,18,00,AAXX 29184 41863 02450 50501 10300 20280 30008 40050 82520 333 59001 70000 82618 85458==
41863,2023,09,29,21,00,AAXX 29214 41863 01440 60000 10290 20280 30003 40045 70522 83520 333 59004 70000 83618 85458==
41863,2023,09,30,00,00,AAXX 30004 41863 01450 70000 10285 20280 30004 40046 70522 83520 333 59001 70000 83618 87458==
41863,2023,09,30,03,00,AAXX 30034 41863 02456 80901 10290 20250 30029 40071 8552/ 333 20277 58003 70000 85618 88458==
41863,2023,09,30,06,00,AAXX 30064 41863 02456 80901 10285 20270 30028 40070 8552/ 333 58009 70000 85618 88458==
41863,2023,09,30,09,00,AAXX 30094 41863 01456 80503 10294 20270 30000 40042 70262 8552/ 333 58019 70016 85618 88458==
41863,2023,09,30,12,00,AAXX 30124 41863 11456 80903 10290 20260 39990 40032 60026 70262 8452/ 333 10298 58013 70016 84618 88458==
41863,2023,09,30,15,00,AAXX 30154 41863 02450 60503 10277 20260 30017 40059 83520 333 58008 70016 83618 86458==
41863,2023,09,30,18,00,AAXX 30184 41863 01350 80903 10271 20260 30015 40058 76162 8572/ 333 58007 70010 82709 85617 88457==
41863,2023,09,30,21,00,AAXX 30214 41863 02450 80503 10270 20260 30009 40052 8452/ 333 58006 70028 84618 88458==
41863,2023,10,01,00,00,AAXX 01004 41863 02450 80902 10267 20260 30004 40047 8452/ 333 58000 70028 84618 88458==
41863,2023,10,01,03,00,AAXX 01034 41863 02457 60904 10305 20260 30014 40056 83520 333 20262 59015 70028 83618 86458==
41863,2023,10,01,09,00,AAXX 01094 41863 02457 20903 10345 20260 39980 40021 82400 333 59020 70012 82620==
41863,2023,10,01,12,00,AAXX 01124 41863 02456 30904 10300 20260 39984 40026 82402 333 10345 59006 70012 82617 83074==
41863,2023,10,01,15,00,AAXX 01154 41863 02550 30904 10275 20260 30013 40055 83400 333 59004 70012 83620==
41863,2023,10,01,18,00,AAXX 01184 41863 02550 30902 10275 20260 30018 40060 83400 333 58003 70000 83620==
41863,2023,10,01,21,00,AAXX 01214 41863 02550 30902 10273 20260 30006 40049 83400 333 59003 70000 83620==
41863,2023,10,02,00,00,AAXX 02004 41863 02450 30902 10271 20260 30006 40049 83400 333 58002 70000 83617==
41863,2023,10,02,03,00,AAXX 02034 41863 02456 40903 10300 20260 30028 40070 83402 333 20261 59001 70000 83617==
41863,2023,10,02,06,00,AAXX 02064 41863 02457 50902 10330 20250 30019 40061 82520 333 58008 70000 82618 85458==
41863,2023,10,02,09,00,AAXX 02094 41863 02457 50902 10325 20270 39996 40032 85400 333 58016 70000 83618 85825==
41863,2023,10,02,12,00,AAXX 02124 41863 02456 50902 10310 20260 39992 40034 83420 333 10330 58012 70000 83620 85458==
41863,2023,10,02,15,00,AAXX 02154 41863 02450 30902 10287 20260 30020 40062 83500 333 58007 70000 83618==
41863,2023,10,02,18,00,AAXX 02184 41863 01450 81303 10280 20250 30030 40073 71792 8692/ 333 58012 70000 82710 85617 88458 81930==
41863,2023,10,02,21,00,AAXX 02214 41863 01450 81803 10268 20260 30024 40067 72996 8562/ 333 58018 70210 83710 85617 88458==
41863,2023,10,03,00,00,AAXX 03004 41863 21450 81303 10262 20250 30019 40062 70296 8552/ 333 58013 60218 70210 85618 88458==
41863,2023,10,03,03,00,AAXX 03034 41863 02456 80903 10282 20260 30043 40086 8552/ 333 20253 58015 70210 85618 88458==
41863,2023,10,03,06,00,AAXX 03064 41863 02456 80903 10311 20250 30029 40071 8562/ 333 58010 70210 85618 88458==
41863,2023,10,03,09,00,AAXX 03094 41863 02456 80903 10318 20250 39999 40041 8552/ 333 58003 70220 85618 88458==
41863,2023,10,03,12,00,AAXX 03124 41863 01456 81302 10280 20260 30006 40049 70262 8552/ 333 10325 58014 70030 85618 88458==
41863,2023,10,03,15,00,AAXX 03154 41863 01350 80902 10277 20270 30026 40069 76166 8572/ 333 58006 70262 83708 85614 88456==
41863,2023,10,03,18,00,AAXX 03184 41863 21450 80903 10266 20260 30036 40079 70266 8552/ 333 58006 60108 70342 85618 88458==
41863,2023,10,03,21,00,AAXX 03214 41863 02450 81302 10265 20260 30033 40076 8552/ 333 58009 70132 85618 88458==
41863,2023,10,04,00,00,AAXX 04004 41863 02450 80902 10264 20250 30024 40067 8552/ 333 58005 70132 85618 88458==
41863,2023,10,04,03,00,AAXX 04034 41863 01356 80903 10265 20260 30043 40086 76166 8572/ 333 20258 58000 70262 83708 85614 88456==
41863,2023,10,04,06,00,AAXX 04064 41863 21356 80902 10268 20260 30035 40078 76166 8572/ 333 58006 60419 70545 83708 85614 88456==
41863,2023,10,04,09,00,AAXX 04094 41863 01350 81803 10270 20250 30010 40053 70262 8562/ 333 58011 70559 83710 85618 88458==
41863,2023,10,04,12,00,AAXX 04124 41863 01350 80904 10260 20250 30011 40054 76166 8572/ 333 10272 58005 70633 83709 85615 88456==
41863,2023,10,04,15,00,AAXX 04154 41863 02450 81303 10260 20250 30037 40080 8552/ 333 58011 70222 85618 88458==
41863,2023,10,04,18,00,AAXX 04184 41863 21350 81804 10258 20250 30030 40073 76166 8572/ 333 59006 60047 70571 83708 85614 88456==
41863,2023,10,04,21,00,AAXX 04214 41863 01350 80904 10256 20250 30018 40061 76166 8572/ 333 59015 70633 83708 85614 88456==
41863,2023,10,05,00,00,AAXX 05004 41863 21350 80904 10252 20250 30004 40047 76166 8572/ 333 59020 60149 70711 83708 85614 88457==
41863,2023,10,05,03,00,AAXX 05034 41863 01350 80504 10253 20250 30021 40064 76166 8572/ 333 20248 59003 70665 83708 85614 88457==
41863,2023,10,05,06,00,AAXX 05064 41863 21450 80903 10260 20250 30017 40060 76166 8552/ 333 59018 60169 70456 85617 88457==
41863,2023,10,05,09,00,AAXX 05094 41863 01450 80905 10262 20250 39992 40035 70266 8562/ 333 59018 70472 83710 84617 88458==
41863,2023,10,05,12,00,AAXX 05124 41863 01450 80905 10258 20250 39988 40031 70266 8562/ 333 10268 59023 70388 83710 84616 88458==
41863,2023,10,05,15,00,AAXX 05154 41863 02450 80904 10256 20240 30006 40049 8452/ 333 59031 70388 84617 88458==
41863,2023,10,05,18,00,AAXX 05184 41863 02450 80904 10256 20240 39994 40037 8452/ 333 59036 70350 84617 88458==
41863,2023,10,05,21,00,AAXX 05214 41863 02450 80906 10253 20230 39990 40033 8452/ 333 70288 84617 88458==
41881,2023,09,29,00,00,AAXX 29004 41881 32950 00000 10292 20280 30028 40047 333 59005 70000=
41881,2023,09,29,06,00,AAXX 29064 41881 32958 03601 10340 20290 30032 40051 333 59011 70000=
41881,2023,09,29,12,00,AAXX 29124 41881 32956 00000 10330 20300 30000 40019 333 10355 58001 70000=
41881,2023,09,29,18,00,AAXX 29184 41881 32950 03601 10280 20260 30029 40049 333 58001 70000=
41881,2023,09,30,00,00,AAXX 30004 41881 32450 43601 10260 20260 30025 40045 84500 333 56900 70000 84617=
41881,2023,09,30,06,00,AAXX 30064 41881 11456 80000 10265 20260 30041 40061 60356 70262 8552/ 333 56999 58001 70350 85616 8849=
41881,2023,09,30,12,00,AAXX 30124 41881 32456 70501 10283 20260 30006 40026 85520 333 10300 56290 58006 70350 85615 87458=
41881,2023,09,30,18,00,AAXX 30184 41881 11345 80000 10264 20250 30040 40060 60026 76162 8572/ 333 56499 58011 70370 83708 84614 88458=
41881,2023,10,01,00,00,AAXX 01004 41881 32450 70501 10262 20250 30021 40040 85520 333 56290 59002 70370 85615 87458=
41881,2023,10,01,12,00,AAXX 01124 41881 32456 40910 10300 20260 39998 40018 84500 333 10325 56900 59008 70020 84617=
41881,2023,10,01,18,00,AAXX 01184 41881 11450 80000 10268 20260 30033 40053 60025 70262 8552/ 333 56999 59007 70020 85616 88458=
41881,2023,10,02,00,00,AAXX 02004 41881 32950 00000 10262 20260 30026 40046 333 58005 70020=
41881,2023,10,02,06,00,AAXX 02064 41881 32458 60903 10310 20260 30035 40055 83520 333 56290 58005 70020 83616 86459=
41881,2023,10,02,12,00,AAXX 02124 41881 11457 60901 10290 20280 30010 40030 60014 70162 83520 333 10320 56290 58012 70030 83615 86458=
41881,2023,10,02,18,00,AAXX 02184 41881 32456 80901 10270 20260 30045 40065 333 56299 58012 70010 85616 88458=
41881,2023,10,03,00,00,AAXX 03004 41881 11456 80902 10265 20265 30035 40055 60014 76162 8552/ 333 56299 58009 70022 85615 88458=
41881,2023,10,03,06,00,AAXX 03064 41881 32457 70903 10300 20250 30049 40069 84520 333 56290 58014 70000 84615 87458=
41881,2023,10,03,12,00,AAXX 03124 41881 11456 70803 10270 20250 30024 40044 60036 70262 84520 333 10310 56290 58014 70042 84616 87458=
41881,2023,10,03,18,00,AAXX 03184 41881 32450 80903 10264 20250 30054 40074 8552/ 333 56299 58009 70042 85615 88458=
41881,2023,10,04,00,00,AAXX 04004 41881 11350 80904 10256 20256 30039 40059 60267 76162 8572/ 333 56299 58004 70290 85709 88458=
41881,2023,10,04,06,00,AAXX 04064 41881 11350 80902 10270 20260 30050 40070 60067 76166 8572/ 333 56299 58001 70370 84708 85614 88458=
41881,2023,10,04,12,00,AAXX 04124 41881 11340 80901 10272 20260 30028 40048 60017 76162 8572/ 333 10275 56299 58004 70370 85709 88458=
41881,2023,10,04,18,00,AAXX 04184 41881 32450 80902 10265 20250 30043 40063 8552/ 333 56299 59011 70370 85615 88458=
41881,2023,10,05,00,00,AAXX 05004 41881 32450 80902 10256 20250 30035 40055 8552/ 333 56299 59004 70110 85615 88458=
41881,2023,10,05,06,00,AAXX 05064 41881 11340 80503 10257 20257 30023 40042 60439 76366 8572/ 333 56399 59027 70460 83708 85615 88458=
41881,2023,10,05,12,00,AAXX 05124 41881 11350 80504 10260 20240 39998 40017 60026 70262 8572/ 333 10280 56399 59030 70446 83708 85615 88458=
41881,2023,10,05,18,00,AAXX 05184 41881 11340 83605 10252 20240 30003 40043 70262 8572/ 333 56399 59044 70457 83708 85615 88458=
41883,2023,09,29,00,00,AAXX 29004 41883 02/40 30000 10284 20260 30019 40039 83030 333 59018 70000 83362==
41883,2023,09,29,03,00,AAXX 29034 41883 02/56 30000 10330 20270 30036 40056 83030 333 20280 70000 83362==
41883,2023,09,29,06,00,AAXX 29064 41883 02456 60000 10360 20250 30029 40049 83510 333 59012 70000 83615 86458==
41883,2023,09,29,09,00,AAXX 29094 41883 02456 60000 10360 20260 39999 40018 83510 333 59010 70000 83616 86459==
41883,2023,09,29,12,00,AAXX 29124 41883 02450 40000 10330 20280 39995 40015 82500 333 10366 59004 70000 82616 84080==
41883,2023,09,29,15,00,AAXX 29154 41883 02430 70000 10306 20260 30024 40044 83520 333 58005 70000 83616 87459==
41883,2023,09,29,18,00,AAXX 29184 41883 02430 60902 10294 20260 30027 40047 82530 333 58000 70000 82616 86362==
41883,2023,09,29,21,00,AAXX 29214 41883 02430 60902 10282 20250 30019 40039 82530 333 59004 70000 82616 86362==
41883,2023,09,30,00,00,AAXX 30004 41883 02440 70000 10282 20260 30027 40047 83520 333 58008 70000 83616 87459==
41883,2023,09,30,03,00,AAXX 30034 41883 01350 80000 10264 20250 30050 40070 79596 8592/ 333 20256 58014 70320 83709 84615 88456 81930==
41883,2023,09,30,06,00,AAXX 30064 41883 21450 80902 10286 20270 30040 40060 70296 8562/ 333 58011 60338 70325 82710 84616 88458==
41883,2023,09,30,09,00,AAXX 30094 41883 02450 80502 10310 20270 30016 40036 8552/ 333 58017 70325 85615 88458==
41883,2023,09,30,12,00,AAXX 30124 41883 02450 80902 10294 20260 30008 40028 8552/ 333 10314 58013 70325 85615 88458==
41883,2023,09,30,15,00,AAXX 30154 41883 02430 80000 10284 20260 30033 40053 8552/ 333 58009 70325 85616 88459==
41883,2023,09,30,18,00,AAXX 30184 41883 02430 80000 10274 20250 30033 40053 8552/ 333 58006 70325 85616 88459==
41883,2023,09,30,21,00,AAXX 30214 41883 02430 80000 10270 20250 30027 40047 8552/ 333 58008 70325 85616 88459==
41883,2023,10,01,00,00,AAXX 01004 41883 02440 60000 10270 20250 30023 40043 83510 333 58003 70325 83616 86459==
41883,2023,10,01,03,00,AAXX 01034 41883 02456 60903 10298 20260 30035 40055 84820 333 20256 59015 70005 82616 83828 86459==
41883,2023,10,01,06,00,AAXX 01064 41883 02456 40906 10325 20260 30031 40051 84400 333 59009 70000 82616 83828==
41883,2023,10,01,09,00,AAXX 01094 41883 02456 41304 10336 20250 30000 40020 84400 333 59016 70000 82618 83828==
41883,2023,10,01,12,00,AAXX 01124 41883 02440 41302 10310 20260 30000 40020 82520 333 10338 59008 70000 82618 84458==
41883,2023,10,01,15,00,AAXX 01154 41883 02330 80000 10286 20250 30032 40052 8562/ 333 59001 70000 85709 88458==
41883,2023,10,01,18,00,AAXX 01184 41883 02930 00000 10280 20260 30037 40057 333 58004 70000==
41883,2023,10,01,21,00,AAXX 01214 41883 02930 00000 10276 20260 30029 40049 333 58002 70000==
41883,2023,10,02,00,00,AAXX 02004 41883 02440 40000 10272 20260 30029 40049 82510 333 58006 70000 82615 84458==
41883,2023,10,02,03,00,AAXX 02034 41883 02456 50903 10286 20260 30048 40068 82510 333 20270 58013 70000 82616 85459==
41883,2023,10,02,06,00,AAXX 02064 41883 02456 71302 10312 20250 30041 40061 83510 333 58010 70000 83616 87459==
41883,2023,10,02,09,00,AAXX 02094 41883 02456 51302 10320 30012 40032 83430 333 58012 70000 82616 83828 85362==
41883,2023,10,02,12,00,AAXX 02124 41883 01440 60000 10280 20260 30015 40035 72121 84520 333 10330 58015 70080 84616 86459==
41883,2023,10,02,15,00,AAXX 02154 41883 01330 80904 10280 20260 30046 40066 76122 8572/ 333 58013 70092 83709 84615 88456==
41883,2023,10,02,18,00,AAXX 02184 41883 21430 80000 10276 20270 30048 40068 70262 8562/ 333 58011 60025 70102 84618 88458==
41883,2023,10,02,21,00,AAXX 02214 41883 02430 80000 10274 20260 30043 40063 8562/ 333 58014 70102 82710 84618 88458==
41883,2023,10,03,00,00,AAXX 03004 41883 02440 80902 10272 20260 30039 40059 8532/ 333 58010 70102 82710 84616 88458==
41883,2023,10,03,03,00,AAXX 03034 41883 02456 71302 10288 20260 30041 40062 84520 333 20265 59007 70102 84616 87458==
41883,2023,10,03,06,00,AAXX 03064 41883 02456 61305 10310 20260 30050 40070 84810 333 58009 70102 84616 86459==
41883,2023,10,03,09,00,AAXX 03094 41883 01350 80902 10270 20250 30027 40047 79596 8592/ 333 58015 70150 85709 88458 81930==
41883,2023,10,03,12,00,AAXX 03124 41883 21440 80000 10268 20260 30030 40050 70296 8552/ 333 10315 58015 60095 70108 85616 88458==
41883,2023,10,03,15,00,AAXX 03154 41883 02430 80902 10270 20260 30061 40081 8552/ 333 58015 70098 85616 88459==
41883,2023,10,03,18,00,AAXX 03184 41883 02430 80000 10270 20260 30057 40077 8552/ 333 58009 70088 85616 88459==
41883,2023,10,03,21,00,AAXX 03214 41883 02430 80000 10270 20260 30042 40062 8552/ 333 59001 70088 85616 88459==
41883,2023,10,04,00,00,AAXX 04004 41883 21330 80902 10265 20260 30043 40063 76162 8572/ 333 58004 60037 70118 85709 88458==
41883,2023,10,04,03,00,AAXX 04034 41883 01350 80904 10264 20250 30062 40082 76166 8672/ 333 20258 58021 70178 83709 84615 88456==
41883,2023,10,04,06,00,AAXX 04064 41883 21350 81302 10272 20260 30054 40074 76166 8672/ 333 58004 60079 70188 83709 84615 88456==
41883,2023,10,04,09,00,AAXX 04094 41883 01350 81304 10284 20260 30024 40044 76166 8572/ 333 59003 70150 85709 88456==
41883,2023,10,04,12,00,AAXX 04124 41883 21330 81302 10278 20270 30034 40054 58062 70262 333 10286 58004 60018 70110 85709 88456==
41883,2023,10,04,15,00,AAXX 04154 41883 02330 80906 10272 20250 30058 40078 8562/ 333 59003 70110 85709 88458==
41883,2023,10,04,18,00,AAXX 04184 41883 21330 80907 10265 20260 30045 40065 72162 8562/ 333 59002 60015 70120 85709 88458==
41883,2023,10,04,21,00,AAXX 04214 41883 02330 80905 10264 20250 30028 40048 8562/ 333 59014 70120 85709 88458==
41883,2023,10,05,00,00,AAXX 05004 41883 21330 81306 10258 20250 30022 40042 76166 8572/ 333 59021 60189 70300 85709 88458==
41883,2023,10,05,03,00,AAXX 05034 41883 01330 80504 10265 20250 30039 40059 76166 8572/ 333 20254 59023 70390 85709 88458==
41883,2023,10,05,06,00,AAXX 05064 41883 01330 80504 10265 20250 30039 40059 76166 8572/ 333 20254 59023 70390 85709 88458==
41883,2023,10,05,09,00,AAXX 05094 41883 01350 80902 10266 20260 30003 40023 76166 8672/ 333 59021 70538 83709 84615 88456==
41883,2023,10,05,12,00,AAXX 05124 41883 21330 80904 10254 20240 39996 40016 76166 8672/ 333 10267 59038 60219 70728 84709 84615 88456==
41883,2023,10,05,15,00,AAXX 05154 41883 01330 80504 10256 20250 30003 40023 76166 8672/ 333 59055 70958 84709 84615 88456==
41883,2023,10,05,18,00,AAXX 05184 41883 21330 80000 10256 20250 30001 40021 76366 8572/ 333 59044 60749 71458 85709 88456==
41883,2023,10,05,21,00,AAXX 05214 41883 01330 80000 10258 20250 39995 40015 76166 8572/ 333 59033 71488 85709 88845==
41886,2023,09,29,00,00,AAXX 29004 41886 01/25 50000 10281 20280 30023 40043 71022 85030 333 59014 70000 85362==
41886,2023,09,29,03,00,AAXX 29034 41886 01/57 70000 10330 20270 30037 40057 70342 83031 333 20280 59016 70000 83362 87080==
41886,2023,09,29,06,00,AAXX 29064 41886 01/58 70403 10350 20260 30031 40051 70242 83031 333 59014 70000 83362 87080==
41886,2023,09,29,09,00,AAXX 29094 41886 02/58 70000 10355 20260 30003 40023 82031 333 59004 70000 82363 87080==
41886,2023,09,29,12,00,AAXX 29124 41886 01456 70000 10316 20270 30000 40020 71322 83370 333 10364 58002 70000 82618 86460 81930==
41886,2023,09,29,15,00,AAXX 29154 41886 01450 80000 10282 20250 30030 40050 76162 8432/ 333 58013 70002 84616 88458 81930==
41886,2023,09,29,18,00,AAXX 29184 41886 21450 80000 10275 20260 30032 40052 70262 8351/ 333 58004 69938 70003 83618 88460==
41886,2023,09,29,21,00,AAXX 29214 41886 01450 80000 10275 20270 30030 40050 71322 8331/ 333 58007 70003 83618 88460 81930==
41886,2023,09,30,00,00,AAXX 30004 41886 01450 80000 10275 20270 30034 40054 71792 8532/ 333 58011 70003 84616 88458 81930==
41886,2023,09,30,03,00,AAXX 30034 41886 01450 80000 10265 20260 30057 40077 76196 8452/ 333 20260 58020 70195 84616 88458==
41886,2023,09,30,06,00,AAXX 30064 41886 11456 70000 10300 20250 30054 40074 60196 70196 84470 333 58023 70195 83618 86460==
41886,2023,09,30,09,00,AAXX 30094 41886 02457 60903 10325 20260 30017 40037 83470 333 58014 70195 83618 86460==
41886,2023,09,30,12,00,AAXX 30124 41886 02450 60000 10300 20270 30020 40040 82540 333 10332 58020 70195 82618 85365==
41886,2023,09,30,15,00,AAXX 30154 41886 01350 70000 10270 20260 30046 40066 76162 85770 333 58016 70227 82710 83616 86460==
41886,2023,09,30,18,00,AAXX 30184 41886 21450 40000 10270 20260 30041 40061 70162 82540 333 58009 60038 70226 82618 84365==
41886,2023,10,01,00,00,AAXX 01004 41886 02/56 40000 10275 20260 30040 40060 84040 333 58006 70226 84365==
41886,2023,10,01,03,00,AAXX 01034 41886 02457 60000 10302 20260 30046 40066 85540 333 20262 59011 70034 85618 83365==
41886,2023,10,01,06,00,AAXX 01064 41886 02457 61304 10314 20260 30043 40063 85440 333 59011 70034 83618 84365==
41886,2023,10,01,09,00,AAXX 01094 41886 02457 60000 10320 20260 30008 40028 84440 333 59009 70034 83618 84365==
41886,2023,10,01,12,00,AAXX 01124 41886 02456 40000 10308 20270 30008 40028 83430 333 10327 59012 70034 82618 84362==
41886,2023,10,01,15,00,AAXX 01154 41886 02450 40000 10290 20270 30040 40060 82430 333 59006 70034 82618 84362==
41886,2023,10,01,18,00,AAXX 01184 41886 01450 80000 10270 20250 30043 40063 71722 8331/ 333 58002 70000 83616 88458 81930==
41886,2023,10,01,21,00,AAXX 01214 41886 01450 60000 10269 20260 30040 40060 70192 83510 333 58010 70000 83618 86460==
41886,2023,10,02,00,00,AAXX 02004 41886 02450 80000 10268 20260 30039 40059 8432/ 333 59001 70000 83616 88458 81930==
41886,2023,10,02,03,00,AAXX 02034 41886 41456 80000 10273 20250 30060 40080 70262 8331/ 333 20266 83616 88458 81930==
41886,2023,10,02,06,00,AAXX 02064 41886 01457 70501 10308 20270 30049 40069 72166 85470 333 58006 70002 82618 83825 86460==
41886,2023,10,02,09,00,AAXX 02094 41886 02457 60000 10310 20260 30023 40043 83470 333 58015 70002 83618 85460==
41886,2023,10,02,12,00,AAXX 02124 41886 02456 60000 10300 20270 30022 40042 83410 333 10324 58014 70002 83618 86460==
41886,2023,10,02,15,00,AAXX 02154 41886 01450 81802 10268 20250 30057 40077 79522 8432/ 333 58017 70042 83616 88458 81930==
41886,2023,10,02,18,00,AAXX 02184 41886 01450 80000 10270 20260 30056 40076 79596 8432/ 333 58013 70044 83616 88458 81930==
41886,2023,10,02,21,00,AAXX 02214 41886 02450 70000 10268 20260 30052 40072 82510 333 58012 70044 82618 86460==
41886,2023,10,03,00,00,AAXX 03004 41886 02450 60000 10265 20260 30049 40069 82510 333 58010 70044 82618 85460==
41886,2023,10,03,03,00,AAXX 03034 41886 02456 71801 10285 20260 30076 40096 83570 333 20264 58016 70044 83618 87460==
41886,2023,10,03,06,00,AAXX 03064 41886 02457 60904 10313 20250 30059 40079 84470 333 58010 70042 83618 86460==
41886,2023,10,03,09,00,AAXX 03094 41886 01456 80000 10295 20270 30032 40052 72162 8352/ 333 58009 70047 83618 88460==
41886,2023,10,03,12,00,AAXX 03124 41886 01456 80000 10265 20240 30043 40063 70262 8352/ 333 10315 58021 70070 83618 88460==
41886,2023,10,03,15,00,AAXX 03154 41886 02450 80000 10265 20250 30074 40094 8352/ 333 58017 70072 83618 88460==
41886,2023,10,03,18,00,AAXX 03184 41886 02450 80000 10265 20250 30070 40090 8352/ 333 58014 70070 83618 88460==
41886,2023,10,03,21,00,AAXX 03214 41886 02440 80000 10262 20250 30067 40087 8352/ 333 58015 70070 83618 88460==
41886,2023,10,04,00,00,AAXX 04004 41886 02450 80000 10260 20250 30058 40078 8352/ 333 58009 70070 83618 88460==
41886,2023,10,04,03,00,AAXX 04034 41886 01456 81202 10270 20250 30078 40098 72162 8352/ 333 20258 58002 70090 83618 88460==
41886,2023,10,04,06,00,AAXX 04064 41886 11456 80904 10290 20260 30064 40084 60026 70262 8352/ 333 58012 70090 83618 88460==
41886,2023,10,04,09,00,AAXX 04094 41886 01456 80902 10291 20260 30040 40060 70262 8352/ 333 58008 70092 83618 88460==
41886,2023,10,04,12,00,AAXX 04124 41886 01450 80000 10268 20250 30051 40071 72162 8352/ 333 10292 58008 70140 83618 88460==
41886,2023,10,04,15,00,AAXX 04154 41886 02450 80903 10270 20250 30072 40092 8352/ 333 59001 70156 83618 88460==
41886,2023,10,04,21,00,AAXX 04214 41886 01340 80000 10262 20250 30071 40091 76162 8432/ 333 58004 70306 83618 88460 81930==
41886,2023,10,05,00,00,AAXX 05004 41886 21350 80000 10260 20250 30038 40058 76166 8432/ 333 59020 60319 70466 83618 88460 81930==
41886,2023,10,05,03,00,AAXX 05034 41886 01350 80902 10260 20250 30071 40091 76166 8432/ 333 20254 59007 70736 83618 88460 81930==
41886,2023,10,05,06,00,AAXX 05064 41886 21350 80000 10265 20250 30045 40065 76166 8432/ 333 59019 60329 70766 83618 88460 81930==
41886,2023,10,05,09,00,AAXX 05094 41886 01450 81002 10262 20250 30018 40038 76596 8532/ 333 59022 70775 83616 88458 81930==
41886,2023,10,05,12,00,AAXX 05124 41886 21340 81003 10262 20250 30012 40032 79596 8632/ 333 10267 59039 60169 70790 83708 85615 88458 81928==
41886,2023,10,05,15,00,AAXX 05154 41886 01340 81302 10253 20250 30037 40058 79596 8632/ 333 59035 71350 83708 84615 88458 81928==
41886,2023,10,05,18,00,AAXX 05184 41886 21340 81301 10255 20250 30028 40048 79596 8532/ 333 59047 61599 72380 83710 83616 88458 81930==
41886,2023,10,05,21,00,AAXX 05214 41886 01340 80902 10252 20250 30000 40021 79596 8532/ 333 59071 72940 83710 83615 88458 81928==
41888,2023,09,29,00,00,AAXX 29004 41888 31940 63601 10280 20270 30027 40037 70522 83031 333 56099 59015 70000 83365 86080=
41888,2023,09,29,06,00,AAXX 29064 41888 32956 60502 10350 20260 30036 40046 83031 333 56099 59007 70000 83365 86080=
41888,2023,09,29,12,00,AAXX 29124 41888 32956 60000 10315 20270 30030 40013 83031 333 10360 56099 58001 70000 83365 86080=
41888,2023,09,29,18,00,AAXX 29184 41888 NIL=
41888,2023,09,30,00,00,AAXX 30004 41888 32450 80901 10275 20260 30041 40051 8352/ 333 56990 58014 70000 83618 88460=
41888,2023,09,30,06,00,AAXX 30064 41888 32956 60901 10318 20240 30054 40064 83031 333 56099 58018 70000 83365 85080=
41888,2023,09,30,12,00,AAXX 30124 41888 32956 61802 10300 20260 30030 40040 83031 333 10330 56099 58027 70000 83365 85080=
41888,2023,09,30,18,00,AAXX 30184 41888 NIL=
41888,2023,10,01,00,00,AAXX 01004 41888 32950 63601 10270 20260 30046 40056 83031 333 56099 58005 70020 83365 86080=
41888,2023,10,01,12,00,AAXX 01124 41888 32457 41201 10307 20260 30014 40024 81031 333 10325 56099 59016 70020 81365 84080=
41888,2023,10,02,00,00,AAXX 02004 41888 11440 80901 10270 20260 30048 40058 60179 76166 8352/ 333 56999 58002 70220 83617 88460=
41888,2023,10,02,06,00,AAXX 02064 41888 32450 71801 10288 20260 30058 40068 83510 333 56990 58013 70220 83617 87460=
41888,2023,10,02,12,00,AAXX 02124 41888 NIL=
41888,2023,10,03,00,00,AAXX 03004 41888 32450 80501 10265 20260 30057 40067 8352/ 333 56999 58009 70520 83617 88460=
41888,2023,10,03,06,00,AAXX 03064 41888 32456 71202 10295 20250 30069 40079 83510 333 56990 58011 70520 83617 87460=
41888,2023,10,03,12,00,AAXX 03124 41888 11450 70901 10260 20250 30052 40062 60207 76162 82510 333 10310 56990 59021 70720 82618 87460=
41888,2023,10,03,18,00,AAXX 03184 41888 11450 80901 10270 20250 30096 40106 60056 8352/ 333 56999 58031 70770 83617 88460=
41888,2023,10,04,00,00,AAXX 04004 41888 32450 80901 10265 20250 30070 40080 8352/ 333 56999 58013 70250 83617 88460=
41888,2023,10,04,06,00,AAXX 04064 41888 11450 80901 10285 20260 30077 40087 60043 72162 333 8352/ 333 56999 58008 70285 83617 88460=
41888,2023,10,04,12,00,AAXX 04124 41888 11440 80901 10265 20260 30060 40070 60024 76162 8352/ 333 56999 58008 70105 83617 88460=
41888,2023,10,05,00,00,AAXX 05004 41888 NIL=
41888,2023,10,05,06,00,AAXX 05064 41888 11350 80902 10260 20250 30057 40067 60573 72162 8462/ 333 56399 59020 70970 83709 83616 88460=
41888,2023,10,05,12,00,AAXX 05124 41888 11330 80902 10252 20250 30031 40041 60107 76162 8462/ 333 10265 56299 59029 71035 83709 83616 88460=
41888,2023,10,05,18,00,AAXX 05184 41888 11320 80905 10253 20250 30047 40057 61249 79796 8532/ 333 56299 59039 72555 83709 84616 81930 88458=
41891,2023,09,29,00,00,AAXX 29004 41891 01930 00903 10282 20260 30001 40039 70521 8533/ 333 59013 70000 84616 88365 81930==
41891,2023,09,29,03,00,AAXX 29034 41891 01440 30904 10325 20260 30015 40052 70500 82500 333 20280 59015 70000 82615 83365==
41891,2023,09,29,06,00,AAXX 29064 41891 01450 21806 10358 20210 30009 40046 70500 82500 333 59008 70000 82615==
41891,2023,09,29,09,00,AAXX 29094 41891 01450 60904 10350 20240 39982 40019 70511 83340 333 58003 70000 83615 85365 81930==
41891,2023,09,29,12,00,AAXX 29124 41891 01440 70502 10320 20260 39985 40022 70521 84370 333 10360 58010 70000 84615 86460 81930==
41891,2023,09,29,15,00,AAXX 29154 41891 01435 70000 10300 20250 30010 40048 70522 84370 333 58017 70000 84615 86460 81930==
41891,2023,09,29,18,00,AAXX 29184 41891 01430 80703 10290 20270 30013 40051 70522 8537/ 333 58020 70000 85616 86365 81930==
41891,2023,09,29,21,00,AAXX 29214 41891 01430 82703 10280 20260 30006 40044 70522 8537/ 333 58006 70000 84616 86365 81930==
41891,2023,09,30,00,00,AAXX 30004 41891 01430 82703 10280 20260 30012 40050 70522 8537/ 333 58011 70000 84616 86365 81930==
41891,2023,09,30,03,00,AAXX 30034 41891 01440 82504 10303 20270 30040 40078 70522 8532/ 333 20275 58025 70000 81710 84615 88460 81930==
41891,2023,09,30,06,00,AAXX 30064 41891 01440 82505 10320 20280 30028 40065 70522 8532/ 333 58019 70000 81710 84615 88460 84930==
41891,2023,09,30,09,00,AAXX 30094 41891 01445 70902 10324 20230 39998 40035 70522 84370 333 58016 70000 84615 86460 81930==
41891,2023,09,30,12,00,AAXX 30124 41891 01438 80502 10304 20260 30001 40039 70522 8532/ 333 10343 58016 70000 81710 84615 88459 81930==
41891,2023,09,30,15,00,AAXX 30154 41891 01430 80902 10290 20270 30021 40059 70522 8532/ 333 58011 70000 82710 84615 88459 81930==
41891,2023,09,30,18,00,AAXX 30184 41891 01430 82502 10289 20270 30022 40060 70522 8532/ 333 58009 70000 81710 84615 88459 81930==
41891,2023,09,30,21,00,AAXX 30214 41891 01430 82702 10285 20270 30016 40054 70522 8532/ 333 58010 70000 81710 84615 88459 81930==
41891,2023,10,01,00,00,AAXX 01004 41891 01320 80303 10256 20250 30020 40058 76162 8632/ 333 58008 70050 86708 88458 81925==
41891,2023,10,01,03,00,AAXX 01034 41891 01440 60904 10275 20260 30033 40071 70566 83340 333 20256 59007 70050 83615 85365 81930==
41891,2023,10,01,06,00,AAXX 01064 41891 11445 62704 10315 20250 30016 40053 60001 70562 83340 333 59012 70050 83615 85365 81930==
41891,2023,10,01,09,00,AAXX 01094 41891 01450 52704 10343 20240 39986 40023 70522 82330 333 59002 70050 82615 85365 81930==
41891,2023,10,01,12,00,AAXX 01124 41891 01440 63102 10310 20250 39987 40025 70522 83340 333 10353 59014 70050 83615 85365 81930==
41891,2023,10,01,15,00,AAXX 01154 41891 01430 82703 10297 20270 30019 40057 71322 8537/ 333 59002 70000 84616 88459 81930==
41891,2023,10,01,18,00,AAXX 01184 41891 21330 82706 10275 20270 30023 40061 79596 8632/ 333 59001 60057 70100 85708 88458 81928==
41891,2023,10,01,21,00,AAXX 01214 41891 01430 82703 10255 20250 30016 40055 79599 8637/ 333 58001 70550 85708 88458 81928==
41891,2023,10,02,00,00,AAXX 02004 41891 21330 82303 10255 20250 30024 40063 79599 8632/ 333 58004 60909 70950 85708 88458 81928==
41891,2023,10,02,03,00,AAXX 02034 41891 01440 70902 10288 20260 30047 40085 72996 84370 333 20250 58014 70954 84615 86460 81930==
41891,2023,10,02,06,00,AAXX 02064 41891 11445 60503 10324 20240 30029 40067 69941 70596 83370 333 58013 70954 83615 85460 81930==
41891,2023,10,02,09,00,AAXX 02094 41891 01445 60000 10330 20240 30000 40037 70522 83370 333 58014 70954 83615 85460 81930==
41891,2023,10,02,12,00,AAXX 02124 41891 01440 62704 10304 20250 30005 40043 70522 83370 333 10340 58018 70954 83615 85460 81930==
41891,2023,10,02,15,00,AAXX 02154 41891 41320 82702 10265 20260 30040 40078 79596 8632/ 333 58021 86708 88458 81925==
41891,2023,10,02,18,00,AAXX 02184 41891 21320 80302 10265 20260 30045 40083 79596 8632/ 333 58022 60467 71360 86708 88458 81925==
41891,2023,10,02,21,00,AAXX 02214 41891 01430 80303 10263 20250 30038 40077 70596 8532/ 333 58022 70914 82710 84615 88459 81930==
41891,2023,10,03,00,00,AAXX 03004 41891 11430 80603 10260 20250 30044 40083 69946 70596 8532/ 333 58020 70464 82710 84615 88459 81930==
41891,2023,10,03,03,00,AAXX 03034 41891 01440 80902 10283 20250 30065 40103 70522 8532/ 333 20257 58018 70460 81710 84615 88459 81930==
41891,2023,10,03,06,00,AAXX 03064 41891 01445 71303 10300 20250 30049 40087 70522 84370 333 58020 70460 84615 86460 81930==
41891,2023,10,03,09,00,AAXX 03094 41891 01445 60000 10330 20240 30016 40053 70522 83370 333 58016 70460 84615 85460 81930==
41891,2023,10,03,12,00,AAXX 03124 41891 11320 81804 10270 20250 30039 40077 69962 76162 8632/ 333 10335 58034 70466 86708 88458 81925==
41891,2023,10,03,15,00,AAXX 03154 41891 01330 80903 10263 20250 30066 40104 76066 8632/ 333 58021 70059 85708 88458 81925==
41891,2023,10,03,18,00,AAXX 03184 41891 21330 80503 10260 20250 30058 40097 76066 8532/ 333 58013 60039 70035 85708 88458 81928==
41891,2023,10,03,21,00,AAXX 03214 41891 01330 80903 10261 20250 30046 40085 70522 8532/ 333 58008 70031 84710 88458 81930==
41891,2023,10,04,00,00,AAXX 04004 41891 01330 80903 10262 20250 30049 40088 70522 8532/ 333 58005 70031 84710 88458 81930==
41891,2023,10,04,03,00,AAXX 04034 41891 01450 61302 10300 20240 30066 40104 70522 83340 333 20256 58001 70031 83615 85365 81930==
41891,2023,10,04,06,00,AAXX 04064 41891 01445 70902 10312 20250 30054 40092 70522 84370 333 58005 70031 84615 86460 81930==
41891,2023,10,04,09,00,AAXX 04094 41891 41445 80902 10315 20250 30030 40067 58014 70031 88460==
41891,2023,10,04,12,00,AAXX 04124 41891 21320 80502 10258 20250 30043 40082 79596 8632/ 333 10320 58004 60077 70095 86708 88458 81925==
41891,2023,10,04,15,00,AAXX 04154 41891 01320 80302 10255 20250 30064 40103 79596 8632/ 333 59002 70088 86708 88458 81925==
41891,2023,10,04,18,00,AAXX 04184 41891 21430 80602 10255 20250 30052 40091 70596 8532/ 333 58006 60038 70104 81710 84615 88459 81930==
41891,2023,10,04,21,00,AAXX 04214 41891 01430 80802 10256 20250 30048 40087 70522 8532/ 333 58002 70104 81710 84615 88459 81930==
41891,2023,10,05,00,00,AAXX 05004 41891 01430 80902 10256 20250 30036 40075 70522 8532/ 333 59013 70104 81710 84615 88459 81930==
41891,2023,10,05,03,00,AAXX 05034 41891 01430 81302 10270 20250 30055 40093 72122 8532/ 333 20250 59011 70106 82710 84615 88459 81930==
41891,2023,10,05,06,00,AAXX 05064 41891 01430 81302 10270 20250 30055 40093 72122 8532/ 333 20250 59011 70106 82710 84615 88459 81930==
41891,2023,10,05,09,00,AAXX 05094 41891 01325 80606 10255 20250 30015 40053 76166 8632/ 333 59015 70198 86708 88458 81925==
41891,2023,10,05,12,00,AAXX 05124 41891 21435 83602 10260 20240 30014 40052 72166 8532/ 333 10278 59029 60069 70132 82710 84615 88459 81930==
41891,2023,10,05,15,00,AAXX 05154 41891 01330 80803 10258 20250 30036 40075 76162 8632/ 333 59028 70134 85708 88458 81928==
41891,2023,10,05,18,00,AAXX 05184 41891 21330 80903 10253 20250 30028 40067 76162 8632/ 333 59024 60079 70168 85708 88458 81928==
41891,2023,10,05,21,00,AAXX 05214 41891 01330 80903 10253 20250 30031 40070 76162 8632/ 333 59017 70338 85708 88456 81926==
41895,2023,09,29,00,00,AAXX 29004 41895 02950 00000 10280 20270 30024 40046 333 59015 70000==
41895,2023,09,29,03,00,AAXX 29034 41895 02956 00901 10314 20270 30037 40059 333 20278 59014 70000==
41895,2023,09,29,06,00,AAXX 29064 41895 02957 01302 10340 20270 30029 40051 333 59015 70000==
41895,2023,09,29,09,00,AAXX 29094 41895 02456 50503 10349 20280 30001 40023 83520 333 59009 70000 83616 85458==
41895,2023,09,29,12,00,AAXX 29124 41895 02450 80000 10313 20290 30000 40022 8452/ 333 59002 70000 84615 88458==
41895,2023,09,29,15,00,AAXX 29154 41895 02450 50000 10288 20270 30021 40043 83520 333 58001 70000 83616 85458==
41895,2023,09,29,18,00,AAXX 29184 41895 01450 82705 10272 20270 30029 40051 79522 8532/ 333 58000 70050 84615 88458 81928==
41895,2023,09,29,21,00,AAXX 29214 41895 01450 83102 10265 20265 30028 40050 79596 8532/ 333 58004 70062 84615 88458 81928==
41895,2023,09,30,00,00,AAXX 30004 41895 21450 80000 10263 20260 30026 40048 76196 8452/ 333 58002 60039 70076 84615 88458==
41895,2023,09,30,03,00,AAXX 30034 41895 01450 83602 10274 20260 30045 40067 70262 8452/ 333 20258 58008 70103 84615 88458==
41895,2023,09,30,06,00,AAXX 30064 41895 11456 80503 10290 20260 30035 40057 60036 70262 8452/ 333 58006 70103 84615 88458==
41895,2023,09,30,09,00,AAXX 30094 41895 02456 71305 10309 20270 30005 40027 83520 333 58004 70103 83616 87458==
41895,2023,09,30,12,00,AAXX 30124 41895 01450 80502 10275 20270 30006 40028 76162 8452/ 333 10310 58006 70080 84615 88458==
41895,2023,09,30,15,00,AAXX 30154 41895 01450 80901 10265 20260 30031 40053 70262 8452/ 333 58010 70211 84615 88458==
41895,2023,09,30,18,00,AAXX 30184 41895 11450 80903 10270 20260 30024 40046 60036 70262 8452/ 333 59005 70163 84615 88458==
41895,2023,09,30,21,00,AAXX 30214 41895 02450 30902 10268 20260 30015 40037 83500 333 59013 70149 83616==
41895,2023,10,01,00,00,AAXX 01004 41895 02950 30902 10265 20265 30012 40034 80001 333 59014 70135 83074==
41895,2023,10,01,03,00,AAXX 01034 41895 02457 50903 10296 20270 30025 40047 83510 333 20260 59020 70108 83616 85458==
41895,2023,10,01,09,00,AAXX 01094 41895 02457 40902 10330 20260 39992 40014 84800 333 59013 70108 83616 83625==
41895,2023,10,01,12,00,AAXX 01124 41895 02450 70902 10280 20250 39997 40012 83520 333 10340 59009 70032 83616 87458==
41895,2023,10,01,15,00,AAXX 01154 41895 02450 70901 10276 20260 30025 40047 83520 333 59006 70000 83616 87458==
41895,2023,10,01,18,00,AAXX 01184 41895 02450 70901 10272 20250 30029 40051 83520 333 58005 70000 83616 87458==
41895,2023,10,01,21,00,AAXX 01214 41895 02450 70000 10268 20260 30024 40046 83520 333 58009 70000 83616 87458==
41895,2023,10,02,00,00,AAXX 02004 41895 02450 80902 10266 20266 30025 40047 8452/ 333 58013 70000 84615 88458==
41895,2023,10,02,03,00,AAXX 02034 41895 02456 60903 10294 20260 30042 40065 83510 333 20260 58017 70000 83616 86458==
41895,2023,10,02,06,00,AAXX 02064 41895 02456 60906 10312 20260 30032 40054 83510 333 58015 70000 83616 86458==
41895,2023,10,02,09,00,AAXX 02094 41895 02456 60903 10323 20260 30004 40026 83510 333 58012 70000 83616 86458==
41895,2023,10,02,12,00,AAXX 02124 41895 01450 60000 10278 20260 30010 40032 70262 83520 333 10340 58003 70010 83616 86458==
41895,2023,10,02,15,00,AAXX 02154 41895 02450 30000 10271 20260 30038 40060 83500 333 58013 70006 83616==
41895,2023,10,02,21,00,AAXX 02214 41895 02450 60902 10265 20265 30033 40055 83520 333 58009 70006 83616 86458==
41895,2023,10,03,00,00,AAXX 03004 41895 02450 60902 10267 20267 30031 40053 83520 333 58006 70006 83616 86458==
41895,2023,10,03,03,00,AAXX 03034 41895 02456 60904 10292 20260 30058 40080 83470 333 20263 58016 70006 83616 85458==
41895,2023,10,03,06,00,AAXX 03064 41895 02456 60905 10320 20260 30043 40065 84410 333 58011 70006 83616 86458==
41895,2023,10,03,09,00,AAXX 03094 41895 02456 60904 10305 20260 30014 40035 83520 333 58010 70006 83616 86458==
41895,2023,10,03,12,00,AAXX 03124 41895 21450 80901 10270 20260 30025 40047 72162 8452/ 333 10333 58015 60097 70092 84615 88458==
41895,2023,10,03,15,00,AAXX 03154 41895 02450 80903 10265 20260 30049 40072 8352/ 333 58011 70092 83616 88458==
41895,2023,10,03,18,00,AAXX 03184 41895 02450 80904 10270 20260 30049 40071 8352/ 333 58005 70092 83616 88458==
41895,2023,10,03,21,00,AAXX 03214 41895 01450 80903 10265 20265 30033 40055 76122 8452/ 333 58000 70104 84615 88458==
41895,2023,10,04,00,00,AAXX 04004 41895 21450 80904 10265 20265 30031 40053 70262 8452/ 333 58000 60025 70114 84615 88458==
41895,2023,10,04,03,00,AAXX 04034 41895 01350 80903 10268 20268 30051 40073 76162 8572/ 333 20260 59007 70142 82710 84615 88458==
41895,2023,10,04,06,00,AAXX 04064 41895 21350 80907 10280 20260 30036 40059 70262 8562/ 333 59007 60038 70144 82710 84615 88458==
41895,2023,10,04,09,00,AAXX 04094 41895 02350 80906 10288 20270 30014 40036 8562/ 333 58000 70144 82710 84615 88458==
41895,2023,10,04,12,00,AAXX 04124 41895 02450 80902 10280 20260 30019 40041 8452/ 333 10292 59006 70052 84615 88458==
41895,2023,10,04,15,00,AAXX 04154 41895 02450 80903 10270 20250 30043 40065 8452/ 333 59006 70052 84615 88458==
41895,2023,10,04,21,00,AAXX 04214 41895 01450 80902 10262 20260 30021 40043 79596 8532/ 333 59012 70896 84615 88458 81928==
41895,2023,10,05,00,00,AAXX 05004 41895 21450 80902 10259 20259 30010 40032 79596 8532/ 333 59021 61539 71656 84615 88458 81928==
41895,2023,10,05,03,00,AAXX 05034 41895 01450 80903 10256 20256 30026 40049 79596 8532/ 333 20255 59025 71898 84615 88458 81928==
41895,2023,10,05,06,00,AAXX 05064 41895 21350 81303 10264 20260 30013 40035 79596 8632/ 333 59023 60559 72446 84708 84615 88458 81928==
41895,2023,10,05,09,00,AAXX 05094 41895 01450 83104 10265 20260 39981 40003 76196 8452/ 333 59033 72416 84613 88458==
41895,2023,10,05,12,00,AAXX 05124 41895 21450 82701 10260 20260 39992 40014 76196 8452/ 333 10270 59027 60269 72440 84613 88458==
41895,2023,10,05,15,00,AAXX 05154 41895 02450 82701 10260 20260 30014 40037 8452/ 333 59029 72440 84615 88458==
41895,2023,10,05,18,00,AAXX 05184 41895 02450 82701 10255 20255 30008 40031 8452/ 333 58038 72350 84615 88458==
41895,2023,10,05,21,00,AAXX 05214 41895 02450 82302 10255 20255 30004 40027 8452/ 333 59006 71584 84615 88458==
41897,2023,09,29,00,00,AAXX 29004 41897 31450 63601 10282 20270 30028 40041 70522 82530 333 56990 59016 70000 82618 86361=
41897,2023,09,29,06,00,AAXX 29064 41897 32456 53601 10340 20280 30031 40044 82510 333 56990 59021 70000 82618 85458=
41897,2023,09,29,12,00,AAXX 29124 41897 32456 60000 10324 20300 30002 40015 83510 333 10356 56990 59000 70000 83618 86458=
41897,2023,09,29,18,00,AAXX 29184 41897 11950 20000 10281 20270 30033 40046 60028 70162 82030 333 56990 58008 70015 82362=
41897,2023,09,30,00,00,AAXX 30004 41897 11350 80000 10278 20270 30034 40047 60024 76162 8372/ 333 56999 58006 70035 83707 88458=
41897,2023,09,30,06,00,AAXX 30064 41897 11456 61802 10296 20270 30041 49054 60243 72162 82510 333 56990 58010 70277 82617 86458=
41897,2023,09,30,12,00,AAXX 30124 41897 32456 60502 10294 20260 30011 40024 82510 333 10325 56990 58009 70277 82618 86458=
41897,2023,09,30,18,00,AAXX 30184 41897 11450 41801 10275 20260 30033 40046 60126 70196 81530 333 56990 58000 70382 81618 84362=
41897,2023,10,01,00,00,AAXX 01004 41897 31450 51801 10269 20260 30027 40040 82530 56990 59007 70362 82618 85362=
41897,2023,10,01,12,00,AAXX 01124 41897 11450 80902 10290 20260 30009 40022 60013 79596 8532/ 333 10332 56399 59002 70129 85616 81928 88458=
41897,2023,10,01,18,00,AAXX 01184 41897 11950 21301 10275 20260 30039 40053 60026 70296 82040 333 56090 58006 70025 82362=
41897,2023,10,02,00,00,AAXX 02004 41897 31950 10902 10268 20268 30035 40048 70500 81010 333 56090 58008 70025 81459=
41897,2023,10,02,06,00,AAXX 02064 41897 32450 50902 10310 20250 30043 40056 84430 333 56290 58009 70025 84618 83825 85362=
41897,2023,10,02,12,00,AAXX 02124 41897 11456 41301 10275 20270 30021 40034 60053 72162 84440 333 10329 56390 58012 70068 84617 83825=
41897,2023,10,02,18,00,AAXX 02184 41897 31456 20902 10273 20250 30054 40067 70190 82500 333 56200 58015 70052 82618=
41897,2023,10,03,00,00,AAXX 03004 41897 32456 50901 10267 20260 30043 40056 83540 333 56390 58008 70052 83618 85362=
41897,2023,10,03,06,00,AAXX 03064 41897 11440 70901 10276 20260 30056 40069 60063 76162 84510 333 56390 58013 70108 84617 87458=
41897,2023,10,03,12,00,AAXX 03124 41897 11450 71301 10266 20250 30037 40050 60053 75162 83510 333 10295 56490 58016 70102 83618 87458=
41897,2023,10,03,18,00,AAXX 03184 41897 11450 40902 10267 20250 30060 40073 69926 70252 82530 333 56390 58006 70104 82618 84362=
41897,2023,10,04,00,00,AAXX 04004 41897 11340 80902 10265 20260 30045 40058 60103 76162 8572/ 333 56299 58002 70202 83709 75616 88458=
41897,2023,10,04,06,00,AAXX 04064 41897 11340 80902 10274 20250 30055 40068 60023 76162 8472/ 333 56299 59001 70161 82709 84616 88458=
41897,2023,10,04,12,00,AAXX 04124 41897 11450 81402 10275 20260 30037 40050 60026 70262 84610 333 10290 56990 58000 70135 83618 88460=
41897,2023,10,04,18,00,AAXX 04184 41897 32450 80902 10270 20250 30046 40059 84610 333 56990 59014 70133 81710 83618 88460=
41897,2023,10,05,00,00,AAXX 05004 41897 11430 81402 10263 20250 30037 40050 60199 79596 8432/ 333 56999 59007 70230 81710 83618 81928 88458=
41897,2023,10,05,06,00,AAXX 05064 41897 11430 80902 10265 20260 30030 40043 60259 79596 8432/ 333 56999 59025 70465 81710 83618 81928 88458=
41897,2023,10,05,12,00,AAXX 05124 41897 11430 81402 10260 20250 30002 40015 60579 79796 8432/ 333 10270 56999 59008 71015 82708 83616 81926 88456=
41897,2023,10,05,18,00,AAXX 05184 41897 32450 80000 10270 20260 30022 40035 8431/ 333 56999 59025 71015 81710 83618 81928 88458=
41902,2023,09,29,00,00,AAXX 29004 41902 32440 23601 10277 20260 30036 40044 82500 333 56900 59004 70000 82616=
41902,2023,09,29,06,00,AAXX 29064 41902 32457 20502 10350 20290 30029 40036 82500 333 56900 59010 70000 82616=
41902,2023,09,29,12,00,AAXX 29124 41902 11440 81002 10275 20260 30019 40027 60074 79592 8532/ 333 10370 56499 58009 70070 84710 86416 81925 88458=
41902,2023,09,29,18,00,AAXX 29184 41902 11430 81601 10276 20270 30035 40043 60036 70262 8532/ 333 56499 58004 70100 84710 86416 81925 88458=
41902,2023,09,30,00,00,AAXX 30004 41902 11440 82801 10260 20250 30041 40050 60264 70262 8532/ 333 56499 58005 70360 84710 86416 81925 88458=
41902,2023,09,30,06,00,AAXX 30064 41902 32456 22202 10317 20260 30051 40060 82500 333 56900 58022 70360 82616=
41902,2023,09,30,12,00,AAXX 30124 41902 32440 41801 10297 20260 30022 40031 82530 333 10330 56490 58003 70290 82614 84362=
41902,2023,09,30,18,00,AAXX 30184 41902 NIL=
41902,2023,10,01,00,00,AAXX 01004 41902 32430 30901 10274 20250 30032 40040 82430 333 56290 59009 70000 82614 83362=
41902,2023,10,01,12,00,AAXX 01124 41902 32440 41801 10305 20280 30013 40021 82430 333 10338 56990 59009 70000 82614 84362=
41902,2023,10,01,18,00,AAXX 01184 41902 32440 51801 10287 20260 30038 40047 83410 333 56990 58002 70000 82614 85459=
41902,2023,10,02,00,00,AAXX 02004 41902 32330 80901 10277 20260 30039 40047 8462/ 333 56290 58007 70000 82710 83614 88459=
41902,2023,10,02,06,00,AAXX 02064 41902 32450 41801 10328 20260 30048 40056 84400 333 56200 58010 70000 83614=
41902,2023,10,02,12,00,AAXX 02124 41902 32440 30901 10301 20270 30028 40037 82530 333 10338 56290 58015 70000 82614=
41902,2023,10,03,00,00,AAXX 03004 41902 32430 30902 10266 20250 30045 40053 82530 333 56290 58006 70024 82614=
41902,2023,10,03,06,00,AAXX 03064 41902 32440 30902 10331 20270 30061 40069 83400 333 56200 58013 70024 82614=
41902,2023,10,03,12,00,AAXX 03124 41902 11340 80902 10276 20250 30048 40056 60038 70262 8462/ 333 10336 56299 58020 70054 82710 83614 88459=
41902,2023,10,03,18,00,AAXX 03184 41902 32440 50902 10268 20250 30074 40082 83430 333 56290 58026 70030 82614 84362=
41902,2023,10,04,00,00,AAXX 04004 41902 32440 80902 10267 20250 30064 40072 8462/ 333 56299 58019 70030 82710 83614 88459=
41902,2023,10,04,06,00,AAXX 04064 41902 11440 80902 10292 20260 30068 40076 60016 70262 8462/ 333 56299 58020 70040 82710 83614 88459=
41902,2023,10,04,12,00,AAXX 04124 41902 11440 81402 10265 20260 30056 40065 60217 70262 8452/ 333 10325 56499 58008 70213 83614 88458=
41902,2023,10,04,18,00,AAXX 04184 41902 11440 81403 10260 20250 30066 40075 69953 76162 8452/ 333 56999 59008 70228 83614 88458=
41902,2023,10,05,00,00,AAXX 05004 41902 11320 80906 10255 20255 30047 40056 60303 76362 8672/ 333 56299 59017 70530 83707 85612 88458=
41902,2023,10,05,06,00,AAXX 05064 41902 11450 81405 10275 20260 30051 40060 60293 70262 8452/ 333 56399 59017 70812 84614 88458=
41902,2023,10,05,12,00,AAXX 05124 41902 11330 80905 10270 20260 30027 40036 60077 76162 8672/ 333 10302 56299 59029 70667 83707 85612 88458=
41902,2023,10,05,18,00,AAXX 05184 41902 11420 80909 10266 20266 30030 40039 60289 76396 8532/ 333 56999 59036 70944 84612 81925 88458=
41907,2023,09,29,00,00,AAXX 29004 41907 01440 13602 10280 20270 30023 40038 70500 81500 333 59018 70000 81616==
41907,2023,09,29,03,00,AAXX 29034 41907 02450 43602 10315 20280 30037 40052 84500 333 20275 59017 70000 84615==
41907,2023,09,29,06,00,AAXX 29064 41907 02450 43602 10344 20280 30026 40041 84500 333 59020 70000 84615==
41907,2023,09,29,09,00,AAXX 29094 41907 01350 70501 10350 20270 30005 40019 71711 86910 333 59007 70000 82709 83615 85458 81930==
41907,2023,09,29,12,00,AAXX 29124 41907 01340 80000 10313 20280 30002 40016 70392 8662/ 333 10352 58001 70000 82709 85615 88458==
41907,2023,09,29,15,00,AAXX 29154 41907 01340 80000 10290 20280 30026 40041 72122 8662/ 333 58004 70010 82709 85615 88458==
41907,2023,09,29,18,00,AAXX 29184 41907 21440 71802 10275 20260 30027 40042 71362 85370 333 59004 60015 70010 84615 86458 81930==
41907,2023,09,29,21,00,AAXX 29214 41907 01340 80000 10265 20260 30025 40040 72122 8662/ 333 59004 70052 83709 85615 88458==
41907,2023,09,30,00,00,AAXX 30004 41907 21340 80000 10265 20260 30030 40045 70262 8662/ 333 58007 60045 70052 83709 85615 88458==
41907,2023,09,30,03,00,AAXX 30034 41907 01450 83102 10290 20260 30043 40058 70262 8552/ 333 20264 58006 70092 85615 88458==
41907,2023,09,30,06,00,AAXX 30064 41907 21450 70906 10310 20260 30034 40048 70162 83570 333 58008 60048 70092 83615 86458==
41907,2023,09,30,09,00,AAXX 30094 41907 02450 71304 10315 20270 30005 40019 85810 333 58000 70092 82615 83825 85458==
41907,2023,09,30,12,00,AAXX 30124 41907 02340 71303 10292 20260 30007 40021 85610 333 10327 58005 70092 82709 83615 85458==
41907,2023,09,30,15,00,AAXX 30154 41907 02440 51304 10279 20250 30032 40047 83530 333 58006 70082 83615 83362==
41907,2023,09,30,18,00,AAXX 30184 41907 02340 81302 10278 20250 30030 40045 8662/ 333 58003 70083 82709 85615 88458==
41907,2023,09,30,21,00,AAXX 30214 41907 02340 80902 10273 20250 30025 40040 8662/ 333 58000 70040 82709 85615 88458==
41907,2023,10,01,00,00,AAXX 01004 41907 02440 60904 10267 20260 30017 40032 85510 333 58002 70040 85615 85458==
41907,2023,10,01,03,00,AAXX 01034 41907 02450 61304 10302 20260 30030 40044 85810 333 20265 59013 70000 84615 85458==
41907,2023,10,01,06,00,AAXX 01064 41907 02456 41304 10320 20260 30028 40042 84800 333 59006 70000 81615 83825==
41907,2023,10,01,09,00,AAXX 01094 41907 02456 51804 10330 20260 39998 40012 85800 333 59007 70000 82615 83825==
41907,2023,10,01,12,00,AAXX 01124 41907 02450 61802 10285 20260 30003 40017 84810 333 10333 59004 70000 83615 85458==
41907,2023,10,01,15,00,AAXX 01154 41907 02440 60000 10272 20250 30033 40048 84810 333 58001 70000 83615 85458==
41907,2023,10,01,18,00,AAXX 01184 41907 02940 00000 10270 20250 30032 40053 333 58008 70000==
41907,2023,10,01,21,00,AAXX 01214 41907 02940 00000 10265 20260 30032 40047 333 58007 70000==
41907,2023,10,02,00,00,AAXX 02004 41907 02340 81302 10270 20260 30031 40046 8662/ 333 58014 70000 83709 85615 88458==
41907,2023,10,02,03,00,AAXX 02034 41907 02350 71302 10295 20270 30047 40061 85630 333 20262 58017 70000 82709 84615 85362==
41907,2023,10,02,06,00,AAXX 02064 41907 21450 61304 10320 20270 30035 40050 70162 83530 333 58007 60077 70068 83615 84362==
41907,2023,10,02,09,00,AAXX 02094 41907 02450 40903 10322 20260 30009 40023 84800 333 58011 70068 81615 83825==
41907,2023,10,02,12,00,AAXX 02124 41907 21950 01303 10285 20270 30015 40030 70162 333 10332 58012 60035 70100==
41907,2023,10,02,15,00,AAXX 02154 41907 02940 00000 10268 20260 30042 40067 333 58010 70100==
41907,2023,10,02,18,00,AAXX 02184 41907 02440 31302 10268 20260 30048 40062 83500 333 58010 70100 83615==
41907,2023,10,02,21,00,AAXX 02214 41907 02440 30902 10265 20260 30043 40059 83500 333 58011 70100 83615==
41907,2023,10,03,00,00,AAXX 03004 41907 02440 30902 10262 20250 30035 40050 83500 333 58004 70100 83615==
41907,2023,10,03,03,00,AAXX 03034 41907 02350 60902 10290 20270 30061 40075 85610 333 20260 58014 70100 82709 84615 85458==
41907,2023,10,03,06,00,AAXX 03064 41907 02450 60902 10320 20270 30045 40060 85810 333 58010 70032 82615 83825 85458==
41907,2023,10,03,09,00,AAXX 03094 41907 01330 81302 10302 20270 30022 40037 76122 8672/ 333 58013 70052 85709 88458==
41907,2023,10,03,12,00,AAXX 03124 41907 21450 71302 10274 20250 30030 40045 70162 82510 333 10325 58015 60035 70026 82615 87458==
41907,2023,10,03,15,00,AAXX 03154 41907 02340 81303 10267 20260 30056 40071 8662/ 333 58014 70026 83709 85615 88458==
41907,2023,10,03,18,00,AAXX 03184 41907 02340 81303 10266 20260 30054 40069 8662/ 333 58006 70026 82709 85165 88458==
41907,2023,10,03,21,00,AAXX 03214 41907 01340 80902 10260 20250 30042 40057 72162 8662/ 333 59001 70136 83709 85615 88458==
41907,2023,10,04,00,00,AAXX 04004 41907 21340 81304 10265 20260 30035 40050 70262 8662/ 333 58000 60118 70136 83709 85615 88458==
41907,2023,10,04,03,00,AAXX 04034 41907 01330 81802 10265 20260 30055 40069 76122 8672/ 333 20258 59006 70156 85709 88458==
41907,2023,10,04,06,00,AAXX 04064 41907 21330 81803 10271 20260 30040 40055 76162 8672/ 333 59005 60087 70212 85709 88458==
41907,2023,10,04,09,00,AAXX 04094 41907 01330 80904 10280 20270 30020 40035 70262 8662/ 333 45299 59002 70202 85709 88458==
41907,2023,10,04,12,00,AAXX 04124 41907 11330 81304 10268 20260 30028 40043 60016 70262 8662/ 333 10283 59002 70142 85709 88458==
41907,2023,10,04,15,00,AAXX 04154 41907 01330 81302 10265 20260 30051 40066 76122 8672/ 333 59005 70208 85709 88458==
41907,2023,10,04,18,00,AAXX 04184 41907 21330 81302 10265 20260 30040 40054 76162 8672/ 333 59014 60037 70224 85709 88458==
41907,2023,10,04,21,00,AAXX 04214 41907 01320 81302 10264 20250 30028 40042 76366 8672/ 333 59014 70324 85709 88458==
41907,2023,10,05,00,00,AAXX 05004 41907 21320 81303 10260 20260 30016 40031 79596 8692/ 333 59019 60509 70614 85708 88458 81930==
41907,2023,10,05,03,00,AAXX 05034 41907 01330 81302 10261 20260 30035 40049 79596 8692/ 333 59020 70744 85708 88458==
41907,2023,10,05,06,00,AAXX 05064 41907 21330 81302 10273 20260 30022 40037 76195 8572/ 333 59018 60199 70728 85708 88458==
41907,2023,10,05,09,00,AAXX 05094 41907 01330 82704 10270 20260 39994 40009 76366 8672/ 333 59026 70895 85709 88458==
41907,2023,10,05,12,00,AAXX 05124 41907 21320 82302 10265 20260 39996 40011 79596 8692/ 333 10273 59032 60449 71157 85709 88458 81930==
41907,2023,10,05,15,00,AAXX 05154 41907 01330 82302 10265 20260 30018 40033 70296 8672/ 333 59033 71179 85709 88458==
41907,2023,10,05,18,00,AAXX 05184 41907 11330 80000 10260 20250 30009 40024 60036 70296 8662/ 333 59031 71163 85709 88458==
41907,2023,10,05,21,00,AAXX 05214 41907 02330 80000 10253 20250 30002 40017 8662/ 333 59026 70953 85709 88458==
41909,2023,09,29,00,00,AAXX 29004 41909 02450 50000 10290 20280 30024 40035 82530 333 59017 70000 82615 85360==
41909,2023,09,29,03,00,AAXX 29034 41909 02456 50000 10327 20280 30040 40051 82530 333 20265 59015 70000 82615 85360==
41909,2023,09,29,06,00,AAXX 29064 41909 02456 60000 10350 20270 333 40048 59009 70000 83510 83615 84460==
41909,2023,09,29,09,00,AAXX 29094 41909 02456 60000 10360 20260 30003 40015 83330 333 59013 70000 83615 83362 81930==
41909,2023,09,29,12,00,AAXX 29124 41909 02350 80000 10323 20270 30002 40013 8632/ 333 10365 58000 70000 83708 83614 88458 81930==
41909,2023,09,29,15,00,AAXX 29154 41909 01340 80000 10300 20270 30032 40043 70262 8562/ 333 58011 70001 83708 83614 88460==
41909,2023,09,29,18,00,AAXX 29184 41909 11440 80000 10286 20270 30033 40044 69916 70262 8552/ 333 58002 70001 85615 88460==
41909,2023,09,29,21,00,AAXX 29214 41909 02340 80000 10281 20270 30031 40042 8562/ 333 58004 70001 83708 83614 88458==
41909,2023,09,30,00,00,AAXX 30004 41909 21330 80000 10270 20270 30037 40048 76162 8672/ 333 58013 60037 70035 83708 84614 88458==
41909,2023,09,30,03,00,AAXX 30034 41909 01456 81001 10280 20260 30056 40067 70262 8552/ 333 20244 58016 70063 85614 88460==
41909,2023,09,30,06,00,AAXX 30064 41909 11456 60000 10313 20250 30043 40054 60036 70162 83510 333 58006 70063 83614 84460==
41909,2023,09,30,09,00,AAXX 30094 41909 02456 60000 10338 20260 30021 40032 83510 333 58018 70063 83614 84460==
41909,2023,09,30,12,00,AAXX 30124 41909 02450 81302 10304 20250 30014 40025 8552/ 333 10340 58012 70063 85614 88458==
41909,2023,09,30,15,00,AAXX 30154 41909 02440 60000 10290 20260 30039 40050 83510 333 58007 70062 83614 84460==
41909,2023,09,30,18,00,AAXX 30184 41909 02440 60000 10280 20250 30045 40056 83510 333 58012 70062 83614 84460==
41909,2023,09,30,21,00,AAXX 30214 41909 02440 60000 10275 20260 30041 40052 83510 333 58010 70062 83614 84460==
41909,2023,10,01,00,00,AAXX 01004 41909 02450 40000 10269 20250 30030 40041 81530 333 59007 70028 81615 83360==
41909,2023,10,01,03,00,AAXX 01034 41909 02456 51802 10300 20260 30039 40050 82530 333 20248 59017 70000 82615 83360==
41909,2023,10,01,06,00,AAXX 01064 41909 02456 51802 10329 20250 30038 40049 82530 333 59005 70000 82615 85360==
41909,2023,10,01,09,00,AAXX 01094 41909 02456 31804 10334 20240 30007 40018 83800 333 59014 70000 82615==
41909,2023,10,01,12,00,AAXX 01124 41909 01450 70000 10299 20260 30014 40025 71720 85920 333 10340 58000 70000 83615 86458 81930==
41909,2023,10,01,15,00,AAXX 01154 41909 01440 11802 10284 20250 30041 40052 70196 81500 333 58002 70001 81618==
41909,2023,10,01,18,00,AAXX 01184 41909 11940 00000 10278 20260 30043 40054 69916 70196 333 59002 70001==
41909,2023,10,01,21,00,AAXX 01214 41909 02440 60000 10274 20250 30036 40047 82530 333 59005 70001 82615 85360==
41909,2023,10,02,00,00,AAXX 02004 41909 02450 71302 10272 20250 30035 40046 84520 333 58005 70001 84615 87458==
41909,2023,10,02,03,00,AAXX 02034 41909 01456 61302 10299 20270 30056 40068 70162 83510 333 10252 58017 70015 83615 85458==
41909,2023,10,02,06,00,AAXX 02064 41909 11456 61802 10327 20260 30048 40059 60016 70262 82510 333 58010 70015 82615 86458==
41909,2023,10,02,09,00,AAXX 02094 41909 01456 51302 10289 20260 30020 40031 72122 84330 333 58013 70051 83615 81930==
41909,2023,10,02,12,00,AAXX 02124 41909 NIL=
41909,2023,10,02,15,00,AAXX 02154 41909 02440 61302 10278 20260 30051 40062 82530 333 58010 70084 82615 85360==
41909,2023,10,02,18,00,AAXX 02184 41909 02440 41302 10276 20260 30056 40067 83530 333 58013 70084 83615 83360==
41909,2023,10,02,21,00,AAXX 02214 41909 02440 41302 10266 20250 30046 40057 82530 333 58010 70084 82615 83360==
41909,2023,10,03,00,00,AAXX 03004 41909 02450 31802 10264 20240 30044 40055 81530 333 58009 70084 81615 83360==
41909,2023,10,03,03,00,AAXX 03034 41909 02456 51602 10289 20250 30069 40080 82530 333 20250 58013 70070 82615 85360==
41909,2023,10,03,06,00,AAXX 03064 41909 02456 61602 10311 20250 30059 40070 82510 333 58011 70070 82615 86458==
41909,2023,10,03,09,00,AAXX 03094 41909 01456 71301 10280 20260 30032 40043 72996 84320 333 58012 70084 83615 86458 81930==
41909,2023,10,03,12,00,AAXX 03124 41909 11350 80000 10274 20250 30040 40051 60056 70396 8462/ 333 10322 58019 70050 83708 88458==
41909,2023,10,03,15,00,AAXX 03154 41909 02440 10000 10270 20250 30070 40081 81500 333 58019 70050 81618==
41909,2023,10,03,18,00,AAXX 03184 41909 02440 41301 10270 20250 30066 40077 83530 333 58010 70050 83615 83360==
41909,2023,10,03,21,00,AAXX 03214 41909 02430 81301 10270 20250 30057 40068 8452/ 333 58011 70050 84614 88458==
41909,2023,10,04,00,00,AAXX 04004 41909 02350 81301 10270 20250 30049 40060 8562/ 333 58005 70050 84708 88458==
41909,2023,10,04,03,00,AAXX 04034 41909 01456 81302 10270 20260 30071 40082 70262 83521 333 20242 58002 70130 83615 88458==
41909,2023,10,04,06,00,AAXX 04064 41909 11456 81302 10284 20260 30062 40073 60086 70262 8352/ 333 58003 70130 83615 88458==
41909,2023,10,04,09,00,AAXX 04094 41909 01350 80000 10286 20260 30034 40045 76166 8672/ 333 58002 70090 83708 84614 88458==
41909,2023,10,04,12,00,AAXX 04124 41909 21350 81302 10270 20250 30044 40055 70262 8662/ 333 10290 58004 60018 70091 83708 84614 88458==
41909,2023,10,04,15,00,AAXX 04154 41909 02340 81301 10269 20250 30066 40077 8562/ 333 59004 70091 83708 83614 88460==
41909,2023,10,04,18,00,AAXX 04184 41909 02440 81302 10266 20250 30053 40064 8552/ 333 59013 70091 85615 88460==
41909,2023,10,04,21,00,AAXX 04214 41909 01330 81302 10262 20250 30041 40052 70262 8662/ 333 59016 70149 84708 83614 88458==
41909,2023,10,05,00,00,AAXX 05004 41909 11350 81302 10260 20250 30033 40044 60076 70262 8662/ 333 59016 70159 83708 84614 88458==
41909,2023,10,05,03,00,AAXX 05034 41909 01350 81802 10264 20250 30050 40061 79596 8692/ 333 20240 59021 70129 83708 84614 88458 81928==
41909,2023,10,05,06,00,AAXX 05064 41909 21350 81802 10267 20260 30036 40047 79596 8692/ 333 59026 60219 70289 83708 84614 88458 81928==
41909,2023,10,05,09,00,AAXX 05094 41909 01350 80000 10262 20250 30010 40021 79796 8692/ 333 59024 70999 83708 83708 84614 88458==
41909,2023,10,05,12,00,AAXX 05124 41909 21340 80000 10258 20250 30011 40022 79796 8692/ 333 10270 59033 61229 71498 83708 84614 88458 81928==
41909,2023,10,05,15,00,AAXX 05154 41909 01340 80000 10256 20250 30026 40037 76166 8662/ 333 59040 71628 83708 84614 88458==
41909,2023,10,05,18,00,AAXX 05184 41909 21340 80000 10256 20250 30013 40024 76166 8662/ 333 59040 60209 71698 83708 84614 88458==
41909,2023,10,05,21,00,AAXX 05214 41909 01340 80000 10255 20250 30012 40023 76166 8662/ 333 59029 71950 83708 84614 88458==
41915,2023,09,29,00,00,AAXX 29004 41915 02/56 40000 10265 20260 30022 40047 83031 333 59006 70000==
41915,2023,09,29,03,00,AAXX 29034 41915 02456 60000 10317 20280 30030 40055 83531 333 20263 59016 70000 83616 84362==
41915,2023,09,29,06,00,AAXX 29064 41915 02456 61303 10354 20240 30018 40042 84430 333 59013 70000 83616 84362==
41915,2023,09,29,09,00,AAXX 29094 41915 02456 61402 10342 20260 39989 40014 84430 333 59004 70000 83616 84362==
41915,2023,09,29,12,00,AAXX 29124 41915 02456 70000 10307 20260 39999 40024 85430 333 58009 70000 84616 85362==
41915,2023,09,29,15,00,AAXX 29154 41915 02450 80000 10280 20240 30030 40055 8552/ 333 58017 70000 85617 88458==
41915,2023,09,29,18,00,AAXX 29184 41915 02450 80000 10271 20250 30029 40054 8552/ 333 58007 70000 85617 88458==
41915,2023,09,29,21,00,AAXX 29214 41915 02450 80000 10262 20240 30025 40050 8552/ 333 58006 70000 84616 88458==
41915,2023,09,30,00,00,AAXX 30004 41915 02456 70000 10265 20260 30032 40058 86470 333 58010 70000 85616 85458==
41915,2023,09,30,03,00,AAXX 30034 41915 02456 50000 10322 20250 30051 40076 84430 333 20262 58021 70000 83616 83362==
41915,2023,09,30,06,00,AAXX 30064 41915 02456 50202 10321 20240 30039 40064 84430 333 58021 70000 83616 83362==
41915,2023,09,30,09,00,AAXX 30094 41915 02456 40403 10336 20260 30011 40035 83430 333 58022 70000 82616 83362==
41915,2023,09,30,12,00,AAXX 30124 41915 02456 40401 10302 20240 30014 40039 83430 333 10344 58015 70000 82616 83362==
41915,2023,09,30,15,00,AAXX 30154 41915 02450 30000 10280 20260 30037 40063 82430 333 58007 70000 82616==
41915,2023,09,30,18,00,AAXX 30184 41915 02450 50000 10267 20260 30036 40061 83430 333 58007 70000 83616 83362==
41915,2023,09,30,21,00,AAXX 30214 41915 02450 60000 10262 20250 30029 40055 84430 333 58004 70000 84616 84362==
41915,2023,10,01,00,00,AAXX 01004 41915 02456 60000 10265 20260 30028 40057 84430 333 58004 70000 84616 83362==
41915,2023,10,01,03,00,AAXX 01034 41915 02456 40000 10324 20250 30051 40076 82430 333 20261 58000 70000 82616==
41915,2023,10,01,09,00,AAXX 01094 41915 02456 50000 10325 20260 30002 40027 85430 333 59009 70000 84615==
41915,2023,10,01,12,00,AAXX 01124 41915 02450 50000 10297 20270 30004 40029 84470 333 10348 59010 70000 83616 83458==
41915,2023,10,01,15,00,AAXX 01154 41915 01450 81302 10285 20260 30025 40050 71322 8532/ 333 59012 70000 84615 88458 81928==
41915,2023,10,01,18,00,AAXX 01184 41915 21450 80000 10273 20260 30036 40061 70296 8532/ 333 58000 69965 70006 84615 88458 81928==
41915,2023,10,01,21,00,AAXX 01214 41915 02450 70000 10268 20260 30034 40059 85320 333 58005 70006 84615 87458 81928==
41915,2023,10,02,00,00,AAXX 02004 41915 02450 70000 10267 20260 30040 40065 84420 333 58012 70006 83616 87458==
41915,2023,10,02,03,00,AAXX 02034 41915 02456 60902 10308 20260 30058 40083 85430 333 20265 58007 70006 85615==
41915,2023,10,02,06,00,AAXX 02064 41915 02456 61302 10332 20250 30049 40074 85430 333 58021 70006 84615==
41915,2023,10,02,09,00,AAXX 02094 41915 02456 50502 10330 20260 30014 40039 84430 333 58012 70006 83616==
41915,2023,10,02,12,00,AAXX 02124 41915 02450 70901 10296 20270 30018 40043 85320 333 10340 58014 70006 82712 84615 87458 81928==
41915,2023,10,02,15,00,AAXX 02154 41915 01440 80902 10260 20250 30049 40075 72996 8632/ 333 58024 70118 83710 85615 88458 81925==
41915,2023,10,02,21,00,AAXX 02214 41915 02450 50901 10260 20250 30051 40076 83530 333 58017 70112 83616 84362==
41915,2023,10,03,00,00,AAXX 03004 41915 02450 30901 10255 20250 30053 40078 82530 333 58013 70112 82616==
41915,2023,10,03,03,00,AAXX 03034 41915 02456 70502 10290 20260 30071 40096 84470 333 20253 58013 70112 83616 86458==
41915,2023,10,03,06,00,AAXX 03064 41915 02456 70502 10300 20260 30053 40078 85470 333 58004 70112 84615 85458==
41915,2023,10,03,09,00,AAXX 03094 41915 01456 60902 10310 20260 30030 40055 70262 85470 333 58016 70118 84615 83458==
41915,2023,10,03,12,00,AAXX 03124 41915 01450 61302 10266 20260 30048 40073 70266 85670 333 10319 58030 70304 82712 84615 85458==
41915,2023,10,03,15,00,AAXX 03154 41915 02450 71102 10260 20250 30072 40097 85470 333 58023 70192 84615 86458==
41915,2023,10,03,18,00,AAXX 03184 41915 02450 70000 10255 20240 30068 40094 85470 333 58016 70192 84615 86458==
41915,2023,10,03,21,00,AAXX 03214 41915 02450 70000 10253 20240 30066 40091 85470 333 58015 70192 84616 86458==
41915,2023,10,04,00,00,AAXX 04004 41915 02456 40000 10260 20250 30067 40093 83530 333 58014 70192 83616==
41915,2023,10,04,03,00,AAXX 04034 41915 02456 60000 10287 20250 30077 40102 85530 333 20250 58006 70192 84616 84362==
41915,2023,10,04,06,00,AAXX 04064 41915 02456 80401 10307 20250 30065 40089 8552/ 333 58012 70192 85617 88458==
41915,2023,10,04,09,00,AAXX 04094 41915 02456 80000 10301 20260 30041 40067 8552/ 333 58012 70186 85616 88458==
41915,2023,10,04,12,00,AAXX 04124 41915 21456 80902 10257 20250 30055 40079 76362 8672/ 333 10326 58007 60117 70110 83710 83616 88458==
41915,2023,10,04,15,00,AAXX 04154 41915 02450 80000 10254 20240 30072 40098 8672/ 333 58000 70110 83710 83616 88458==
41915,2023,10,04,18,00,AAXX 04184 41915 02450 80000 10252 20240 30061 40087 8672/ 333 59007 70110 83710 83616 88458==
41915,2023,10,04,21,00,AAXX 04214 41915 02450 80000 10251 20240 30056 40081 8552/ 333 59010 70110 85616 88458==
41915,2023,10,05,00,00,AAXX 05004 41915 21456 80000 10256 20250 30048 40074 76162 8672/ 333 59019 60027 70130 87310 83616 88458==
41915,2023,10,05,06,00,AAXX 05064 41915 21456 80000 10274 20260 30045 40071 70262 8552/ 333 59020 60047 70170 85616 88458==
41915,2023,10,05,09,00,AAXX 05094 41915 01456 80000 10277 20260 30019 40044 76122 8552/ 333 59023 70182 85616 88458==
41915,2023,10,05,12,00,AAXX 05124 41915 21456 80000 10275 20260 30025 40050 70262 8552/ 333 10307 59030 60017 70182 85616 88458==
41915,2023,10,05,15,00,AAXX 05154 41915 02450 80000 10265 20260 30045 40071 8552/ 333 59027 70072 85616 88458==
41915,2023,10,05,18,00,AAXX 05184 41915 21450 80000 10260 20250 30038 40063 76162 8552/ 333 59023 60027 70093 83710 83616 88458==
41915,2023,10,05,21,00,AAXX 05214 41915 01450 80602 10257 20250 30034 40059 76366 8672/ 333 59022 70183 83710 83616 88458==
41923,2023,09,29,00,00,AAXX 29004 41923 02440 50000 10292 20240 30030 40040 82530 333 59015 70000 82615 84360==
41923,2023,09,29,03,00,AAXX 29034 41923 02456 60000 10332 20230 30046 40056 82430 333 20279 59012 70000 81616 85360==
41923,2023,09,29,06,00,AAXX 29064 41923 02456 60502 10348 20250 30036 40046 83430 333 59009 70000 82616 84362==
41923,2023,09,29,09,00,AAXX 29094 41923 02456 60000 10352 20260 30006 40016 82530 333 59004 70000 82616 85360==
41923,2023,09,29,12,00,AAXX 29124 41923 01340 80000 10297 20280 30013 40023 72997 8532/ 333 10356 58006 70050 83709 84615 88458 81930==
41923,2023,09,29,15,00,AAXX 29154 41923 02340 80000 10283 20260 30041 40051 8532/ 333 58012 70048 83709 84615 88458 81930==
41923,2023,09,29,18,00,AAXX 29184 41923 21340 70000 10283 20260 30043 40053 70162 84670 333 58009 69925 70050 82709 83615 85458==
41923,2023,09,29,21,00,AAXX 29214 41923 02340 70000 10279 20260 30034 40044 84670 333 58007 70050 82709 83615 85458==
41923,2023,09,30,00,00,AAXX 30004 41923 21340 70000 10274 20260 30043 40053 70262 85370 333 58013 60037 70078 83709 84615 86458 81930==
41923,2023,09,30,03,00,AAXX 30034 41923 02340 70602 10297 20250 30059 40069 85370 333 20266 58013 70078 83709 84615 86458 81930==
41923,2023,09,30,06,00,AAXX 30064 41923 02350 70604 10324 20240 30048 40058 85370 333 58012 70078 82709 83615 86458 81930==
41923,2023,09,30,09,00,AAXX 30094 41923 02350 70804 10328 20240 30019 40029 85370 333 58013 70078 82709 83615 86458 81930==
41923,2023,09,30,12,00,AAXX 30124 41923 02350 70603 10306 20240 30026 40036 85370 333 10335 58013 70030 82709 83615 86458 81930==
41923,2023,09,30,15,00,AAXX 30154 41923 02/40 30602 10300 20240 30045 40055 83030 333 58004 70030 83360==
41923,2023,09,30,18,00,AAXX 30184 41923 02340 60000 10292 20240 30047 40057 84630 333 58004 70028 82709 83615 85360==
41923,2023,09,30,21,00,AAXX 30214 41923 02340 60000 10284 20240 30037 40047 84630 333 58003 70028 82709 83615 85360==
41923,2023,10,01,00,00,AAXX 01004 41923 01340 80000 10278 20250 30039 40049 76122 8532/ 333 59004 70000 82709 84615 88458 81930==
41923,2023,10,01,03,00,AAXX 01034 41923 41345 60603 10306 20250 30047 40057 70162 84630 333 20275 59012 82709 83615 85360==
41923,2023,10,01,06,00,AAXX 01064 41923 11345 70804 10332 20250 30042 40052 60006 70362 85370 333 59006 82709 83615 86458 81930==
41923,2023,10,01,09,00,AAXX 01094 41923 41456 40904 10334 20230 30009 40019 72122 83430 333 59010 82615==
41923,2023,10,01,12,00,AAXX 01124 41923 21450 41803 10302 20260 30020 40030 70262 83330 333 10336 59006 60005 82615 81930==
41923,2023,10,01,15,00,AAXX 01154 41923 42445 30000 10296 20260 30049 40059 81530 333 58004 81616 83360==
41923,2023,10,01,18,00,AAXX 01184 41923 42440 41803 10292 20260 30047 40057 82530 333 58000 82615 83360==
41923,2023,10,01,21,00,AAXX 01214 41923 42340 60000 10288 20260 30038 40048 84630 333 58001 82709 83615 85360==
41923,2023,10,02,00,00,AAXX 02004 41923 42340 60000 10287 20260 30039 40049 84630 333 58000 82709 83615 85360==
41923,2023,10,02,03,00,AAXX 02034 41923 42350 60903 10296 20260 30063 40073 84630 333 20279 58016 82709 83615 85360==
41923,2023,10,02,06,00,AAXX 02064 41923 42456 50904 10330 20230 30049 40059 84430 333 58007 82615 83824==
41923,2023,10,02,09,00,AAXX 02094 41923 41450 70602 10325 20240 30026 40036 72122 85330 333 58017 83615 83824 86360 81930==
41923,2023,10,02,12,00,AAXX 02124 41923 01440 40602 10298 20250 30031 40041 70162 81531 333 10336 58011 70002 81616 83360==
41923,2023,10,02,15,00,AAXX 02154 41923 02340 60602 10295 20260 30057 40067 84630 333 58008 70002 82709 83615 85360==
41923,2023,10,02,18,00,AAXX 02184 41923 02340 60602 10290 20250 30059 40069 84630 333 58012 70002 82709 83615 85360==
41923,2023,10,02,21,00,AAXX 02214 41923 01340 80603 10280 20250 30051 40061 72162 8532/ 333 58013 70072 83709 84615 88458 81930==
41923,2023,10,03,00,00,AAXX 03004 41923 21340 80603 10268 20250 30052 40062 70262 8532/ 333 58013 60078 70072 83709 84615 88458 81930==
41923,2023,10,03,03,00,AAXX 03034 41923 02340 80903 10289 20250 30077 40087 8532/ 333 20255 58014 70072 83709 84615 88458 81930==
41923,2023,10,03,06,00,AAXX 03064 41923 01340 80602 10309 20250 30063 40073 79522 8692/ 333 58014 70000 83709 84615 88458 81930==
41923,2023,10,03,09,00,AAXX 03094 41923 01340 80802 10283 20240 30038 40048 76096 8632/ 333 58012 70212 83708 84614 88458 81930==
41923,2023,10,03,12,00,AAXX 03124 41923 01345 71202 10276 20250 30052 40062 70196 85370 333 10322 58021 70210 82708 84614 85459 81930==
41923,2023,10,03,15,00,AAXX 03154 41923 02345 70000 10275 20250 30076 40086 86370 333 58019 70210 83708 84614 85459 81930==
41923,2023,10,03,18,00,AAXX 03184 41923 02345 71902 10273 20240 30072 40082 85670 333 58013 70210 83708 84614 85459==
41923,2023,10,03,21,00,AAXX 03214 41923 02345 70000 10270 20250 30058 40068 86370 333 58007 70140 83708 84614 85459 81930==
41923,2023,10,04,00,00,AAXX 04004 41923 01340 82403 10264 20250 30059 40069 76162 8632/ 333 58007 70040 83708 85614 88458 81929==
41923,2023,10,04,03,00,AAXX 04034 41923 01350 82303 10278 20250 30080 40090 70262 8632/ 333 20262 58003 70182 83708 84614 88458 81930==
41923,2023,10,04,06,00,AAXX 04064 41923 11350 82204 10299 20250 30066 40076 69926 70262 8632/ 333 58003 70182 83708 85614 88458 81929==
41923,2023,10,04,09,00,AAXX 04094 41923 01340 82902 10270 20250 30043 40053 76162 8632/ 333 58005 70076 83708 84614 88458 81929==
41923,2023,10,04,12,00,AAXX 04124 41923 21345 82503 10270 20250 30051 40061 70262 8732/ 333 10300 59001 60049 70013 84708 85614 88458 81930==
41923,2023,10,04,15,00,AAXX 04154 41923 01340 81502 10263 20250 30075 40085 76162 8632/ 333 59001 70093 83708 84614 88458 81930==
41923,2023,10,04,18,00,AAXX 04184 41923 21320 80000 10262 20250 30060 40070 76362 8632/ 333 59012 60279 70355 83708 85614 88458 81929==
41923,2023,10,04,21,00,AAXX 04214 41923 01330 80000 10260 20260 30050 40060 76166 8632/ 333 59008 70405 83708 85614 88458 81928==
41923,2023,10,05,00,00,AAXX 05004 41923 21345 82403 10264 20250 30043 40053 72166 8632/ 333 59016 60129 70431 83708 85614 88458 81930==
41923,2023,10,05,03,00,AAXX 05034 41923 02350 80602 10280 20260 30062 40072 8632/ 333 20258 59018 70429 83708 84614 88458 81930==
41923,2023,10,05,06,00,AAXX 05064 41923 02350 80602 10280 20260 30062 40072 8632/ 333 20258 59018 70429 83708 84614 88458 81930==
41923,2023,10,05,09,00,AAXX 05094 41923 01330 81203 10275 20270 30020 40030 76162 8632/ 333 59023 70435 83708 85614 88458 81930==
41923,2023,10,05,12,00,AAXX 05124 41923 21325 80000 10272 20260 30021 40031 79596 8632/ 333 10293 59030 60139 70518 83708 84614 88458 81930==
41923,2023,10,05,15,00,AAXX 05154 41923 01325 81606 10270 20260 30042 40052 76196 8632/ 333 59033 70618 83708 84614 88458 81930==
41923,2023,10,05,18,00,AAXX 05184 41923 21325 80000 10272 20260 30027 40037 79596 8692/ 333 59033 60449 70684 83708 84614 88458 81930==
41923,2023,10,05,21,00,AAXX 05214 41923 01325 81802 10270 20260 30015 40025 76196 8632/ 333 59035 70676 83708 84615 88458 81930==
41926,2023,09,29,00,00,AAXX 29004 41926 02450 30000 10275 20275 30030 40044 83500 333 59014 70000 83618==
41926,2023,09,29,03,00,AAXX 29034 41926 02450 70000 10308 20270 30044 40057 83510 333 20275 59011 70000 83618 86459==
41926,2023,09,29,06,00,AAXX 29064 41926 02450 70000 10328 20280 30034 40047 83510 333 59015 70000 83618 86459==
41926,2023,09,29,09,00,AAXX 29094 41926 02450 80000 10340 20280 30002 40015 8432/ 333 59010 70000 83617 88459 81930==
41926,2023,09,29,12,00,AAXX 29124 41926 02450 80000 10290 20260 30008 40021 8532/ 333 10356 58004 70000 83616 88459 81930==
41926,2023,09,29,15,00,AAXX 29154 41926 02450 60000 10275 20260 30030 40043 83510 333 58006 70000 83616 86459==
41926,2023,09,29,18,00,AAXX 29184 41926 01450 80000 10272 20260 30032 40046 71722 8592/ 333 59001 70000 84616 88459 82928==
41926,2023,09,29,21,00,AAXX 29214 41926 01450 80000 10260 20250 30027 40041 72996 8532/ 333 58001 70140 84616 88458 81930==
41926,2023,09,30,00,00,AAXX 30004 41926 21450 70000 10260 20260 30029 40043 70196 83510 333 59001 60145 70140 83616 86459==
41926,2023,09,30,03,00,AAXX 30034 41926 02456 70000 10287 20260 30041 40054 84510 333 20260 59003 70140 84616 87458==
41926,2023,09,30,06,00,AAXX 30064 41926 21456 61802 10320 20260 30032 40045 70162 84430 333 59002 60005 70140 82618 83820==
41926,2023,09,30,09,00,AAXX 30094 41926 01450 61801 10302 20250 39997 40010 70262 83410 333 59005 70188 82618 85459==
41926,2023,09,30,12,00,AAXX 30124 41926 11450 31801 10285 20270 30000 40013 60056 70162 81510 333 10325 59008 70188 81618 83459==
41926,2023,09,30,15,00,AAXX 30154 41926 02450 50000 10267 20250 30025 40039 82510 333 59005 70188 82618 85459==
41926,2023,09,30,18,00,AAXX 30184 41926 21440 30000 10264 20250 30023 40036 70162 81510 333 59009 60015 70198 81618 85459==
41926,2023,09,30,21,00,AAXX 30214 41926 02440 30000 10264 20250 30017 40030 83500 333 59010 70058 83618==
41926,2023,10,01,00,00,AAXX 01004 41926 02440 30000 10264 20260 30013 40026 82500 333 59016 70058 83618==
41926,2023,10,01,03,00,AAXX 01034 41926 02450 70000 10282 20260 30026 40039 83510 333 20264 59015 70058 83617 86459==
41926,2023,10,01,09,00,AAXX 01094 41926 41450 60000 10262 20250 30003 40016 72162 84310 333 58006 83617 84459 81930==
41926,2023,10,01,12,00,AAXX 01124 41926 11450 30000 10277 20260 30001 40014 60071 70162 81530 333 10330 58001 70076 81618 83362==
41926,2023,10,01,15,00,AAXX 01154 41926 02450 51801 10268 20260 30029 40043 82510 333 58004 70076 82618 85459==
41926,2023,10,01,18,00,AAXX 01184 41926 02450 30000 10265 20260 30032 40046 82510 333 58009 70066 82618 83459==
41926,2023,10,01,21,00,AAXX 01214 41926 02450 50000 10266 20260 30026 40040 82510 333 58009 70066 82618 85459==
41926,2023,10,02,00,00,AAXX 02004 41926 02450 50000 10267 20260 30022 40035 82510 333 58009 70066 82618 85459==
41926,2023,10,02,03,00,AAXX 02034 41926 02456 50000 10295 20270 30044 40057 85400 333 20262 58018 70066 83618 83820==
41926,2023,10,02,06,00,AAXX 02064 41926 01456 81802 10310 20260 30037 40050 76122 8452/ 333 58014 70000 84615 88458==
41926,2023,10,02,09,00,AAXX 02094 41926 02456 61302 10307 20250 30011 40024 84510 333 58008 70000 84615 85459==
41926,2023,10,02,12,00,AAXX 02124 41926 02/50 20000 10280 20240 30015 40028 82030 333 10323 58014 70000 82362==
41926,2023,10,02,15,00,AAXX 02154 41926 02450 20000 10270 20250 30040 40053 82500 333 58011 70000 82615==
41926,2023,10,02,18,00,AAXX 02184 41926 02450 60000 10265 20260 30048 40062 84510 333 58016 70000 84615 86459==
41926,2023,10,02,21,00,AAXX 02214 41926 02450 60000 10263 20250 30032 40046 84510 333 58006 70000 84615 86459==
41926,2023,10,03,00,00,AAXX 03004 41926 02450 60000 10260 20250 30036 40050 83510 333 58016 70000 83616 86459==
41926,2023,10,03,03,00,AAXX 03034 41926 42456 41301 10300 20260 30059 40072 84400 333 20260 58015 83616==
41926,2023,10,03,06,00,AAXX 03064 41926 02456 61302 10320 20260 30043 40056 84410 333 58006 70000 83616 84459==
41926,2023,10,03,09,00,AAXX 03094 41926 01456 70000 10267 20250 30024 40037 72162 84510 333 58013 70030 84616 87459==
41926,2023,10,03,12,00,AAXX 03124 41926 11450 60000 10272 20250 30030 40043 60036 70162 83510 333 10330 58015 70030 83617 86459==
41926,2023,10,03,15,00,AAXX 03154 41926 02450 70000 10267 20250 30054 40067 83510 333 58014 70030 83617 87459==
41926,2023,10,03,18,00,AAXX 03184 41926 02450 81802 10260 20240 30049 40062 8452/ 333 58001 70030 84616 88458==
41926,2023,10,03,21,00,AAXX 03214 41926 02450 80000 10260 20250 30044 40057 8352/ 333 58012 70050 83616 88458==
41926,2023,10,04,00,00,AAXX 04004 41926 21450 81802 10260 20250 30040 40055 76162 8452/ 333 58004 60038 70060 84616 88458==
41926,2023,10,04,03,00,AAXX 04034 41926 01350 81302 10263 20260 30052 40066 76166 8472/ 333 20260 59007 70172 82708 83615 88458==
41926,2023,10,04,06,00,AAXX 04064 41926 21350 80000 10270 20270 30039 40053 76166 8472/ 333 59004 60079 70244 82708 83615 88458==
41926,2023,10,04,09,00,AAXX 04094 41926 01350 81802 10284 20250 30019 40032 70262 8472/ 333 59005 70217 82708 83616 88458==
41926,2023,10,04,12,00,AAXX 04124 41926 21350 81802 10267 20250 30028 40041 70262 8472/ 333 10287 59002 69939 70217 82708 83616 88458==
41926,2023,10,04,15,00,AAXX 04154 41926 01450 80000 10260 20250 30046 40059 79596 8532/ 333 59008 70624 84615 88458 81930==
41926,2023,10,04,18,00,AAXX 04184 41926 21450 81803 10260 20250 30031 40044 76196 8532/ 333 59018 60809 71016 84615 88458 81930==
41926,2023,10,04,21,00,AAXX 04214 41926 01450 80000 10260 20250 30029 40042 76596 8532/ 333 59015 71476 84615 88458 81930==
41926,2023,10,05,00,00,AAXX 05004 41926 22450 81802 10262 20250 30015 40028 8432/ 333 59025 60709 71686 83615 88458 81930==
41926,2023,10,05,03,00,AAXX 05034 41926 01350 81801 10263 20260 30035 40049 76122 8472/ 333 20256 59017 71574 82708 83615 88458==
41926,2023,10,05,06,00,AAXX 05064 41926 21350 81801 10273 20260 30021 40034 70262 8432/ 333 59018 60027 71520 82708 83615 88458 81930==
41926,2023,10,05,09,00,AAXX 05094 41926 01350 82102 10280 20260 39999 40012 76166 8532/ 333 59020 71529 83706 84615 88458 81930==
41926,2023,10,05,12,00,AAXX 05124 41926 21350 80000 10278 20270 30003 40016 70262 8572/ 333 10285 59025 60029 71539 83706 84615 88458==
41926,2023,10,05,15,00,AAXX 05154 41926 01350 80000 10270 20260 30021 40034 70262 8572/ 333 59025 71132 83706 84615 88458==
41926,2023,10,05,18,00,AAXX 05184 41926 11350 80000 10265 20260 30015 40028 60036 70262 8572/ 333 59016 70740 83706 84615 88458==
41926,2023,10,05,21,00,AAXX 05214 41926 02350 80000 10262 20250 30016 40030 8562/ 333 59013 70290 82708 84615 88458==
41927,2023,09,29,00,00,AAXX 29004 41927 32956 00000 10278 20270 30016 40031 333 59019 70000=
41927,2023,09,29,06,00,AAXX 29064 41927 32458 41801 10332 20270 30018 40032 82510 333 56490 59018 70000 82618 84459=
41927,2023,09,29,12,00,AAXX 29124 41927 32956 80000 10308 20280 39994 40008 8452/ 333 10346 56499 59004 70000 84616 88458=
41927,2023,09,29,18,00,AAXX 29184 41927 NIL=
41927,2023,09,30,00,00,AAXX 30004 41927 32450 81801 10268 20260 30016 40031 8452/ 333 56499 58000 70000 84616 88458=
41927,2023,09,30,06,00,AAXX 30064 41927 32458 51303 10306 20250 30022 40036 83510 333 56390 58004 70000 83617 84459=
41927,2023,09,30,12,00,AAXX 30124 41927 32456 81303 10284 20250 39998 40012 8452/ 333 10316 56399 58004 70000 84616 88458=
41927,2023,09,30,18,00,AAXX 30184 41927 32956 01801 10270 20250 30028 40042 333 58007 70000=
41927,2023,10,01,00,00,AAXX 01004 41927 32956 01802 10262 20250 30023 40038 333 58007 70000=
41927,2023,10,01,12,00,AAXX 01124 41927 32456 41801 10272 20230 39998 40012 82510 333 10328 56490 58000 70000 82618 84459=
41927,2023,10,01,18,00,AAXX 01184 41927 32450 51601 10258 20250 30030 40044 83510 333 56490 58002 70000 83617 84459=
41927,2023,10,02,00,00,AAXX 02004 41927 32450 51802 10255 20250 30024 40039 83510 333 56490 58001 70000 83617 84459=
41927,2023,10,02,06,00,AAXX 02064 41927 32458 41804 10318 20260 30030 40044 82510 333 56490 58018 70000 82618 84459=
41927,2023,10,02,12,00,AAXX 02124 41927 11456 61802 10282 20260 30000 40014 60026 70262 83510 333 10332 56490 58002 70023 83617 85459=
41927,2023,10,02,18,00,AAXX 02184 41927 32956 01601 10264 20250 30037 40052 333 58007 70023=
41927,2023,10,03,00,00,AAXX 03004 41927 11450 81801 10256 20250 30026 40041 60064 72122 8452/ 333 56499 58002 70083 84616 88458=
41927,2023,10,03,06,00,AAXX 03064 41927 32457 61802 10308 20260 30045 40060 84510 333 56490 58015 70083 84617 86458=
41927,2023,10,03,12,00,AAXX 03124 41927 11450 41801 10268 20260 30027 40041 60034 70162 83510 333 10320 56490 58027 83618 84458=
41927,2023,10,03,18,00,AAXX 03184 41927 11450 81801 10265 20260 30049 40063 60034 70362 8452/ 333 56499 58012 70114 84617 88458=
41927,2023,10,04,00,00,AAXX 04004 41927 11450 81801 10260 20250 30042 40058 60098 70262 8352/ 333 56499 58016 70150 83617 88458=
41927,2023,10,04,06,00,AAXX 04064 41927 11456 81501 10275 20270 30041 40055 60047 70262 8452/ 333 56399 59004 70186 84616 88458=
41927,2023,10,04,12,00,AAXX 04124 41927 32356 81702 10265 20250 30020 40034 8562/ 333 10283 56499 59007 70160 82708 83617 88458=
41927,2023,10,04,18,00,AAXX 04184 41927 11450 81701 10260 20260 30026 40040 60025 70262 8452/ 333 56499 59023 70150 84617 88458=
41927,2023,10,05,00,00,AAXX 05004 41927 11450 80000 10250 20250 30008 40022 60497 79596 8672/ 333 56499 59034 70548 84614 82928 88458=
41927,2023,10,05,06,00,AAXX 05064 41927 11350 81701 10270 20260 30021 40034 60618 70296 8562/ 333 56499 59021 71118 82708 83617 88458=
41927,2023,10,05,12,00,AAXX 05124 41927 11350 81601 10268 20268 30000 40015 60099 79596 8632/ 333 10280 56399 59020 71205 82707 83614 81929 88458=
41927,2023,10,05,18,00,AAXX 05184 41927 NIL=
41929,2023,09,29,00,00,AAXX 29004 41929 02/56 50000 10288 20280 30027 40036 85030 333 59020 70000 85365==
41929,2023,09,29,03,00,AAXX 29034 41929 02456 80000 10316 20290 30048 40057 8451/ 333 20283 59010 70000 84618 88462==
41929,2023,09,29,06,00,AAXX 29064 41929 02457 80902 10335 20270 30039 40048 8451/ 333 59010 70000 84618 88462==
41929,2023,09,29,09,00,AAXX 29094 41929 02457 80000 10337 20270 30011 40020 8451/ 333 59003 70000 84618 88462==
41929,2023,09,29,12,00,AAXX 29124 41929 01456 80000 10278 20260 30014 40023 79522 8592/ 333 10340 58006 70002 84616 88460 81930==
41929,2023,09,29,15,00,AAXX 29154 41929 01456 71802 10278 20270 30036 40045 70196 83570 333 58011 70008 83618 85462==
41929,2023,09,29,18,00,AAXX 29184 41929 11456 70000 10280 20270 30040 40049 69966 70296 83570 333 58006 70008 83618 85462==
41929,2023,09,29,21,00,AAXX 29214 41929 02456 70000 10275 20270 30034 40043 83570 333 58003 70008 83618 85462==
41929,2023,09,30,00,00,AAXX 30004 41929 21456 80902 10270 20260 30028 40037 70362 8451/ 333 58001 60015 70018 84618 88462==
41929,2023,09,30,03,00,AAXX 30034 41929 02456 81802 10290 20290 30057 40066 8451/ 333 20267 58009 70018 84618 88462==
41929,2023,09,30,06,00,AAXX 30064 41929 21457 71403 10305 20260 30047 40056 70162 84570 333 58008 69945 70022 84618 86462==
41929,2023,09,30,09,00,AAXX 30094 41929 01457 61302 10300 20270 30017 40026 70162 83430 333 58006 70036 82618 84365==
41929,2023,09,30,12,00,AAXX 30124 41929 01456 51304 10285 20260 30017 40026 70162 82430 333 10313 58003 70036 81618 83365==
41929,2023,09,30,15,00,AAXX 30154 41929 02/56 41304 10282 20250 30039 40048 84030 333 58003 70030 84365==
41929,2023,09,30,18,00,AAXX 30184 41929 02/56 51304 10275 20260 30041 40050 85030 333 58001 70030 85365==
41929,2023,09,30,21,00,AAXX 30214 41929 02/56 51304 10270 20260 30033 40042 85030 333 59001 70030 85365==
41929,2023,10,01,00,00,AAXX 01004 41929 02/56 51304 10265 20260 30024 40033 85030 333 59004 70020 85365==
41929,2023,10,01,03,00,AAXX 01034 41929 02456 51404 10302 20260 30039 40048 85540 333 20260 59018 70020 85618==
41929,2023,10,01,09,00,AAXX 01094 41929 01456 71803 10324 20250 30013 40022 70262 85410 333 59004 70030 83618 85462==
41929,2023,10,01,12,00,AAXX 01124 41929 11456 61304 10283 20250 30012 40021 60036 70162 83510 333 10330 59005 70028 83618 85462==
41929,2023,10,01,15,00,AAXX 01154 41929 02956 21303 10275 20270 30045 40054 82300 333 58006 70028 82365==
41929,2023,10,01,18,00,AAXX 01184 41929 02956 21304 10272 20260 30044 40053 82300 333 58003 70028 82365==
41929,2023,10,01,21,00,AAXX 01214 41929 02956 21305 10273 20260 30036 40045 82300 333 58003 70028 82365==
41929,2023,10,02,00,00,AAXX 02004 41929 42/56 21304 10273 20260 30029 40038 82030 333 58005 82365==
41929,2023,10,02,03,00,AAXX 02034 41929 02456 61402 10295 20270 30060 40069 84510 333 20263 58021 70028 84618 85462==
41929,2023,10,02,06,00,AAXX 02064 41929 02457 61802 10320 20250 30047 40056 83510 333 58008 70028 83618 85462==
41929,2023,10,02,09,00,AAXX 02094 41929 01457 61805 10308 20260 30027 40036 70262 84410 333 58014 70006 82618 84462==
41929,2023,10,02,12,00,AAXX 02124 41929 11456 41304 10288 20250 30026 40035 69966 70162 82510 333 10325 58014 70006 82618 83462==
41929,2023,10,02,15,00,AAXX 02154 41929 02/56 21802 10273 20260 30050 40059 82030 333 58005 70006 82365==
41929,2023,10,02,18,00,AAXX 02184 41929 02456 61302 10274 20260 30056 40065 82510 333 58012 70006 82618 85462==
41929,2023,10,02,21,00,AAXX 02214 41929 02456 61104 10272 20260 30050 40059 82510 333 58014 70006 82618 85462==
41929,2023,10,03,00,00,AAXX 03004 41929 02456 61204 10269 20260 30042 40051 82510 333 58013 70006 82618 86462==
41929,2023,10,03,03,00,AAXX 03034 41929 02456 71402 10298 20260 30071 40080 84510 333 20263 58011 70006 84618 86162==
41929,2023,10,03,06,00,AAXX 03064 41929 02456 81802 10300 20260 30060 40069 8452/ 333 58013 70006 84618 88462==
41929,2023,10,03,09,00,AAXX 03094 41929 01456 61804 10290 20260 30034 40043 70162 85410 333 58007 70134 83618 86462==
41929,2023,10,03,12,00,AAXX 03124 41929 21456 61804 10286 20260 30040 40049 70262 85410 333 10314 58014 60138 70134 83618 86462==
41929,2023,10,03,15,00,AAXX 03154 41929 02/56 21303 10270 20260 30067 40076 82030 333 58017 70134 82365==
41929,2023,10,03,18,00,AAXX 03184 41929 02456 51305 10270 20250 30064 40073 83510 333 58008 70134 83618 85462==
41929,2023,10,03,21,00,AAXX 03214 41929 02456 81305 10265 20260 30057 40066 8451/ 333 58007 70134 84618 88462==
41929,2023,10,04,00,00,AAXX 04004 41929 01456 81206 10265 20260 30049 40058 70262 8452/ 333 58007 70140 84616 88460==
41929,2023,10,04,03,00,AAXX 04034 41929 02456 81404 10280 20260 30071 40080 8451/ 333 20260 58000 70140 84618 88462==
41929,2023,10,04,06,00,AAXX 04064 41929 01456 81205 10278 20270 30062 40071 76162 333 58002 70020 85582 84615 88459==
41929,2023,10,04,09,00,AAXX 04094 41929 01456 81304 10266 20260 30038 40047 76166 8452/ 333 58004 70041 84614 88459==
41929,2023,10,04,12,00,AAXX 04124 41929 11456 81305 10270 20260 30042 40051 60016 70262 8451/ 333 10282 58002 70041 84617 88461==
41929,2023,10,04,15,00,AAXX 04154 41929 01456 81306 10266 20260 30066 40075 72162 8452/ 333 59001 70053 84614 88459==
41929,2023,10,04,18,00,AAXX 04184 41929 21456 71309 10270 20260 30053 40062 70162 83510 333 59011 60018 70053 83618 87462==
41929,2023,10,04,21,00,AAXX 04214 41929 02456 71305 10270 20260 30043 40052 83510 333 59014 70053 83618 87462==
41929,2023,10,05,00,00,AAXX 05004 41929 02456 71304 10267 20260 30033 40042 83510 333 59016 70047 83618 87462==
41929,2023,10,05,03,00,AAXX 05034 41929 01456 81803 10270 20260 30052 40061 79562 8592/ 333 20260 59019 70069 83618 88462 81932==
41929,2023,10,05,06,00,AAXX 05064 41929 21450 81802 10280 20270 30035 40044 79596 8592/ 333 59027 60109 70127 83616 88460 81930==
41929,2023,10,05,09,00,AAXX 05094 41929 01450 81302 10256 20265 30015 40024 79596 8592/ 333 59023 71299 84614 88459 81930==
41929,2023,10,05,12,00,AAXX 05124 41929 21450 81304 10260 20250 30017 40026 79596 8592/ 333 10281 59025 61559 71664 84613 88459 81928==
41929,2023,10,05,15,00,AAXX 05154 41929 01450 81311 10262 20250 30034 40043 79596 8592/ 333 59032 71896 84613 88459 81928==
41929,2023,10,05,18,00,AAXX 05184 41929 21450 81805 10276 20270 30023 40032 71796 8592/ 333 59030 60369 72008 84614 88460 81930==
41929,2023,10,05,21,00,AAXX 05214 41929 01450 81804 10276 20270 30018 40027 79596 8592/ 333 59025 72225 84613 88459 81928==
41933,2023,09,29,00,00,AAXX 29004 41933 01350 80000 10270 20250 30027 40035 79596 8692/ 333 59011 70000 83708 84615 88457 81928==
41933,2023,09,29,03,00,AAXX 29034 41933 41450 50000 10315 20270 30033 40042 70196 82530 333 20265 59014 82618 85362==
41933,2023,09,29,06,00,AAXX 29064 41933 11456 60000 10335 20290 30031 40039 60006 70396 83510 333 59013 83616 86459==
41933,2023,09,29,09,00,AAXX 29094 41933 42457 50000 10330 20280 30002 40010 83520 333 59003 83616 85458==
41933,2023,09,29,12,00,AAXX 29124 41933 42456 52103 10300 20270 30019 40027 83520 333 10345 58017 83616 85458==
41933,2023,09,29,15,00,AAXX 29154 41933 01450 81803 10265 20260 30036 40045 76196 8552/ 333 58011 70010 85614 88458==
41933,2023,09,29,18,00,AAXX 29184 41933 21450 60000 10275 20270 30039 40048 70196 84520 333 58006 60018 70010 84614 86458==
41933,2023,09,29,21,00,AAXX 29214 41933 02456 50000 10276 20270 30037 40046 83520 333 58009 70010 83614 85458==
41933,2023,09,30,00,00,AAXX 30004 41933 02456 51302 10265 20250 30039 40048 83530 333 58012 70010 83614 84362==
41933,2023,09,30,03,00,AAXX 30034 41933 01456 50902 10304 20250 30056 40065 70262 82830 333 20262 58023 70012 82615 83362==
41933,2023,09,30,06,00,AAXX 30064 41933 11456 71803 10316 20250 30049 40058 69926 70362 83530 333 58018 70012 83616 85362==
41933,2023,09,30,09,00,AAXX 30094 41933 01450 51702 10285 20250 30021 40030 72122 83430 333 58019 70012 82618 85362==
41933,2023,09,30,12,00,AAXX 30124 41933 21450 51802 10295 20250 30023 40032 70262 83430 333 10325 58004 60005 70012 82618 85362==
41933,2023,09,30,15,00,AAXX 30154 41933 01456 51803 10270 20240 30044 40053 72122 83530 333 58008 70002 83614 84362==
41933,2023,09,30,18,00,AAXX 30184 41933 21456 41802 10265 20260 30044 40053 70162 82530 333 58005 60005 70002 82616 83362==
41933,2023,09,30,21,00,AAXX 30214 41933 02456 40902 10262 20250 30035 40044 82530 333 59002 70002 82616 83362==
41933,2023,10,01,00,00,AAXX 01004 41933 02456 50903 10260 20250 30034 40043 82504 333 59005 70002 82616 85074==
41933,2023,10,01,03,00,AAXX 01034 41933 02456 41603 10295 20260 30043 40052 84400 333 20259 59013 70000 82618==
41933,2023,10,01,09,00,AAXX 01094 41933 02456 31701 10324 20240 30011 40019 83400 333 59010 70000 82618==
41933,2023,10,01,12,00,AAXX 01124 41933 02450 51802 10304 20250 30019 40027 82801 333 10336 59004 70000 81618 85074==
41933,2023,10,01,15,00,AAXX 01154 41933 41450 70000 10284 20260 30046 40054 76122 84510 333 58002 84616 87458==
41933,2023,10,01,18,00,AAXX 01184 41933 21450 30000 10274 20260 30040 40048 70162 81530 333 59004 60005 81616 83362==
41933,2023,10,01,21,00,AAXX 01214 41933 42450 50000 10266 20250 30035 40044 82530 333 58000 82616 85362==
41933,2023,10,02,00,00,AAXX 02004 41933 42450 61702 10264 20250 30041 40050 83530 333 58007 83616 85362==
41933,2023,10,02,03,00,AAXX 02034 41933 42456 61802 10286 20250 30063 40072 84530 333 20262 58020 84616 86362==
41933,2023,10,02,06,00,AAXX 02064 41933 42456 51803 10320 20250 30053 40062 83530 333 58013 83618 85362==
41933,2023,10,02,09,00,AAXX 02094 41933 42456 51903 10315 20260 30026 40034 84430 333 58015 82618 85362==
41933,2023,10,02,12,00,AAXX 02124 41933 11456 51804 10300 20250 30029 40037 60006 70262 84430 333 10328 58010 82618 85362==
41933,2023,10,02,15,00,AAXX 02154 41933 41450 21301 10278 20260 30058 40067 70162 82500 333 58012 82618==
41933,2023,10,02,18,00,AAXX 02184 41933 11450 50000 10270 20250 30061 40070 60006 70360 81510 333 58021 81616 85458==
41933,2023,10,02,21,00,AAXX 02214 41933 42450 50000 10262 20240 30048 40057 82530 333 58013 82616 84362==
41933,2023,10,03,00,00,AAXX 03004 41933 42450 40902 10257 20250 30053 40062 82530 333 58012 82616 83362==
41933,2023,10,03,03,00,AAXX 03034 41933 42456 41803 10295 20250 30074 40083 83530 333 20254 58011 83616==
41933,2023,10,03,06,00,AAXX 03064 41933 01356 61804 10283 20240 30064 40073 76122 85720 333 58011 70005 82708 84614 86458==
41933,2023,10,03,09,00,AAXX 03094 41933 01356 81804 10266 20250 30046 40055 70362 8562/ 333 58020 70007 82708 84615 88458==
41933,2023,10,03,12,00,AAXX 03124 41933 01356 81804 10262 20240 30052 40060 76162 8572/ 333 10304 58023 70007 82708 84614 88457==
41933,2023,10,03,15,00,AAXX 03154 41933 02456 61805 10260 20240 30075 40084 83520 333 58017 70007 83618 86458==
41933,2023,10,03,18,00,AAXX 03184 41933 21456 61602 10255 20250 30075 40084 70262 83520 333 58014 69955 70012 83618 86458==
41933,2023,10,03,21,00,AAXX 03214 41933 02456 60000 10260 20250 30069 40078 83520 333 58021 70012 83618 86458==
41933,2023,10,04,00,00,AAXX 04004 41933 02450 60000 10260 20240 30063 40072 83520 333 58010 70012 83618 86458==
41933,2023,10,04,03,00,AAXX 04034 41933 01450 81702 10265 20250 30080 40089 76162 8451/ 333 20253 58006 70019 84618 88458==
41933,2023,10,04,06,00,AAXX 04064 41933 01456 61804 10299 20260 30065 40073 72162 84430 333 58001 70015 83618 83828 85362==
41933,2023,10,04,09,00,AAXX 04094 41933 01356 81804 10255 20250 30051 40059 76196 8562/ 333 58005 70097 82708 83615 88457==
41933,2023,10,04,12,00,AAXX 04124 41933 21350 81803 10255 20250 30052 40060 70296 8562/ 333 10310 58000 60129 70129 82708 83615 88457==
41933,2023,10,04,15,00,AAXX 04154 41933 02440 81802 10254 20240 30080 40088 8451/ 333 58005 70129 84616 88458==
41933,2023,10,04,18,00,AAXX 04184 41933 02440 80000 10254 20240 30082 40090 8451/ 333 58007 70124 84616 88458==
41933,2023,10,04,21,00,AAXX 04214 41933 01340 81803 10254 20240 30069 40077 76566 8562/ 333 58000 70324 82708 83615 88457==
41933,2023,10,05,00,00,AAXX 05004 41933 21340 81803 10255 20250 30049 40057 76166 8562/ 333 59014 60339 70456 82708 83615 88457==
41933,2023,10,05,03,00,AAXX 05034 41933 01340 81802 10260 20250 30066 40074 76166 8572/ 333 20250 59015 70619 83708 83615 88457==
41933,2023,10,05,06,00,AAXX 05064 41933 21350 81802 10286 20260 30048 40056 70266 8462/ 333 59017 60209 70652 82708 83615 88457==
41933,2023,10,05,09,00,AAXX 05094 41933 01350 81804 10285 20260 30027 40035 70262 8562/ 333 59024 70570 83708 84614 88457==
41933,2023,10,05,12,00,AAXX 05124 41933 11350 81802 10275 20260 30028 40036 69926 70262 8562/ 333 10297 59024 70538 83708 84615 88457==
41933,2023,10,05,15,00,AAXX 05154 41933 01350 81803 10272 20260 30050 40058 76122 8562/ 333 59030 70538 82708 83615 88457==
41933,2023,10,05,18,00,AAXX 05184 41933 21340 81805 10270 20260 30037 40045 76162 8562/ 333 59045 60037 70564 83708 84615 88457==
41933,2023,10,05,21,00,AAXX 05214 41933 01340 81804 10270 20260 30032 40040 70266 8562/ 333 59037 70380 83708 84615 88457==
41936,2023,09,29,00,00,AAXX 29004 41936 01412 50000 10282 20270 30034 40041 70522 82830 333 59005 70000 82615 84362==
41936,2023,09,29,03,00,AAXX 29034 41936 01416 60204 10292 20280 30041 40048 70522 82830 333 20268 59018 70000 82615 85362==
41936,2023,09,29,06,00,AAXX 29064 41936 01420 60403 10322 20280 30039 40046 70522 82830 333 59019 70000 82615 85362==
41936,2023,09,29,09,00,AAXX 29094 41936 41420 71905 10314 20280 30012 40019 79596 84930 333 59003 82710 83615 86362 81930==
41936,2023,09,29,12,00,AAXX 29124 41936 01420 62104 10284 20270 30009 40016 70596 84630 333 10330 58003 70020 82710 83615 85362==
41936,2023,09,29,15,00,AAXX 29154 41936 01416 62403 10280 20260 30033 40040 70522 82830 333 58008 70020 82615 85362==
41936,2023,09,29,18,00,AAXX 29184 41936 01416 60000 10270 20260 30035 40042 72162 82830 333 58003 70000 82615 85362==
41936,2023,09,29,21,00,AAXX 29214 41936 01416 60000 10268 20260 30025 40032 70522 82830 333 59003 70020 82615 85362==
41936,2023,09,30,00,00,AAXX 30004 41936 01414 60000 10266 20260 30024 40031 70522 82830 333 59010 70020 82615 85362==
41936,2023,09,30,03,00,AAXX 30034 41936 01314 71608 10270 20260 30041 40048 70562 84630 333 20264 58000 70060 83708 83615 85362==
41936,2023,09,30,06,00,AAXX 30064 41936 01330 71312 10312 20270 30030 40037 70562 84630 333 59009 70040 83708 83615 85362==
41936,2023,09,30,09,00,AAXX 30094 41936 01330 71312 10316 20270 30036 40010 70566 84630 333 59009 70070 82708 83615 85362==
41936,2023,09,30,12,00,AAXX 30124 41936 01330 81312 10308 20270 39999 40006 70522 85630 333 10322 59010 70010 83708 83615 86362==
41936,2023,09,30,15,00,AAXX 30154 41936 01320 81408 10270 30020 40027 76162 84730 333 59012 70050 83708 83615 85362==
41936,2023,09,30,18,00,AAXX 30184 41936 01420 71107 10282 20270 30021 40028 76605 84630 333 59014 70000 82710 83615 85362==
41936,2023,09,30,21,00,AAXX 30214 41936 01420 51306 10270 20260 30015 40022 70562 82830 333 59010 70050 83615 84362==
41936,2023,10,01,00,00,AAXX 01004 41936 01416 51406 10262 20250 30012 40019 70522 82830 333 59012 70050 83615 84362==
41936,2023,10,01,03,00,AAXX 01034 41936 01430 51405 10292 20260 30025 40032 70522 82830 333 20260 59016 70010 83615 84362==
41936,2023,10,01,06,00,AAXX 01064 41936 01435 51410 10330 20270 30030 40037 70522 82830 333 58000 70010 83615 84362==
41936,2023,10,01,09,00,AAXX 01094 41936 01325 71512 10314 20260 30005 40012 76196 85730 333 59020 70250 82708 83615 86362==
41936,2023,10,01,12,00,AAXX 01124 41936 01430 51306 10300 20270 30006 40013 70562 83830 333 10332 59015 70240 83615 83362==
41936,2023,10,01,15,00,AAXX 01154 41936 01430 41406 10278 20250 30032 40039 70522 82830 333 58012 70240 82615 83362==
41936,2023,10,01,18,00,AAXX 01184 41936 01420 41303 10270 20250 30036 40042 70522 82830 333 58014 70240 82615 83362==
41936,2023,10,01,21,00,AAXX 01214 41936 01420 40000 10268 20260 30026 40033 70522 83830 333 58011 70240 83615 83362==
41936,2023,10,02,00,00,AAXX 02004 41936 01416 40000 10266 20260 30024 40031 70522 83830 333 58012 70240 83615 83362==
41936,2023,10,02,03,00,AAXX 02034 41936 01416 71305 10288 20270 30048 40055 70522 85730 333 20260 58023 70240 82708 83615 85362==
41936,2023,10,02,06,00,AAXX 02064 41936 01320 71612 10310 20260 30044 40051 70552 84630 333 58014 70000 82708 83615 85362==
41936,2023,10,02,09,00,AAXX 02094 41936 01430 61609 10300 20270 30021 40028 72162 83630 333 58016 70000 82710 83615==
41936,2023,10,02,12,00,AAXX 02124 41936 01440 51406 10294 20260 30020 40027 70562 82830 333 10316 58014 70000 83615 84362==
41936,2023,10,02,15,00,AAXX 02154 41936 01440 51503 10277 20250 30046 40053 70522 83830 333 58014 70000 83615 84362==
41936,2023,10,02,18,00,AAXX 02184 41936 01440 51504 10270 20250 30050 40057 70522 83830 333 58014 70000 83615 84362==
41936,2023,10,02,21,00,AAXX 02214 41936 01430 60000 10268 20260 30042 40049 70522 83630 333 58018 70000 81708 83615==
41936,2023,10,03,00,00,AAXX 03004 41936 01430 60000 10268 20260 30042 40049 70522 83630 333 58018 70000 81708 83615==
41936,2023,10,03,03,00,AAXX 03034 41936 01340 61605 10294 20260 30062 40069 70511 83630 333 20258 58014 70000 82708 83615 84362==
41936,2023,10,03,06,00,AAXX 03064 41936 41340 71705 10312 20260 30057 40064 70522 83630 333 58013 82708 83615 86362==
41936,2023,10,03,09,00,AAXX 03094 41936 01335 71706 10284 20250 30028 40035 70522 84630 333 10316 58007 70000 83708 83615 87362==
41936,2023,10,03,12,00,AAXX 03124 41936 11425 71706 10284 20250 30034 40041 69991 75122 85730 333 10316 58014 70000 84708 83615 86362==
41936,2023,10,03,15,00,AAXX 03154 41936 01425 71403 10274 20250 30053 40060 72162 84630 333 58007 70010 83710 83615 85362==
41936,2023,10,03,18,00,AAXX 03184 41936 01320 81406 10270 20250 30053 40060 76166 84730 333 58004 70020 83708 83615 86362==
41936,2023,10,03,21,00,AAXX 03214 41936 01320 81406 10264 20250 30037 40044 72166 84630 333 59004 70030 83708 83615 86362==
41936,2023,10,04,00,00,AAXX 04004 41936 01316 81407 10262 20250 30033 40040 70562 84630 333 58000 70010 83708 83615 86362==
41936,2023,10,04,03,00,AAXX 04034 41936 01320 81707 10274 20260 30056 40063 76062 84630 333 20260 59006 70040 83708 83615 86362==
41936,2023,10,04,06,00,AAXX 04064 41936 01320 81204 10290 20260 30047 40054 59010 70040 86362 333 70010==
41936,2023,10,04,09,00,AAXX 04094 41936 01320 81307 10282 20260 30038 40045 76162 84630 333 58010 70040 83708 83615 86362==
41936,2023,10,04,12,00,AAXX 04124 41936 01320 81405 10292 20260 30036 40043 58016 70130 86362 333 70090==
41936,2023,10,04,15,00,AAXX 04154 41936 01320 81606 10268 20260 30052 40059 72166 85630 333 59001 70170 83707 83615 86362==
41936,2023,10,04,18,00,AAXX 04184 41936 01320 81603 10262 20250 30041 40048 70562 85630 333 59012 70050 84708 83615 86362==
41936,2023,10,04,21,00,AAXX 04214 41936 01320 81806 10260 20250 30028 40035 70562 85630 333 59009 70150 84708 83615 86362==
41936,2023,10,05,00,00,AAXX 05004 41936 11312 81706 10258 20250 30026 40033 60206 79596 85930 333 59007 70350 84707 83615 88360 81930==
41936,2023,10,05,03,00,AAXX 05034 41936 01314 81703 10268 20250 30043 40050 76166 85630 333 20256 59013 70450 84708 83615 86362==
41936,2023,10,05,06,00,AAXX 05064 41936 01314 81706 10282 20270 30032 40039 79566 86930 333 59015 70170 84707 83615 88360 81930==
41936,2023,10,05,09,00,AAXX 05094 41936 41314 71908 10278 20270 30011 40018 59027 70450 87362==
41936,2023,10,05,12,00,AAXX 05124 41936 01314 72704 10288 20280 30011 40018 72196 84730 333 10292 59025 70030 83707 83615 86362==
41936,2023,10,05,15,00,AAXX 05154 41936 01314 71805 10278 20270 30024 40031 70522 85630 333 59028 70400 83708 83615 86362==
41936,2023,10,05,18,00,AAXX 05184 41936 01310 82305 10274 20260 30016 40023 79596 86930 333 59025 70250 84706 83615 88360 81930==
41936,2023,10,05,21,00,AAXX 05214 41936 01312 82404 10270 20260 30015 40022 79596 86930 333 59013 71380 84706 83615 88360 81930==
41938,2023,09,29,00,00,AAXX 29004 41938 31935 80000 10285 20280 30028 40032 70522 8332/ 333 56999 59019 70000 82618 81929 88459=
41938,2023,09,29,06,00,AAXX 29064 41938 31450 82201 10308 20280 30039 40043 70522 8341/ 333 56599 59014 70000 82618 88459=
41938,2023,09,29,12,00,AAXX 29124 41938 11550 70000 10282 20250 30014 40018 60014 70296 83410 333 10310 56490 58000 70010 82618 84459=
41938,2023,09,29,18,00,AAXX 29184 41938 32450 70000 10270 20260 30029 40033 84510 333 56990 56990 59002 84618 84459=
41938,2023,09,30,00,00,AAXX 30004 41938 32450 70000 10270 20260 30029 40033 84510 333 56990 58003 70010 84618 84459=
41938,2023,09,30,06,00,AAXX 30064 41938 11456 61803 10280 20270 30033 40037 60094 70162 84410 333 56490 59006 70104 83618 83459=
41938,2023,09,30,12,00,AAXX 30124 41938 32450 50000 10280 20260 30011 40015 84410 333 10300 56490 59003 70094 83618=
41938,2023,09,30,18,00,AAXX 30184 41938 32450 50000 10270 20250 30019 40023 83510 333 56990 59010 70094 83618=
41938,2023,10,01,00,00,AAXX 01004 41938 11450 50000 10255 20250 30023 40027 60025 70262 83510 333 56990 59007 70114 83618=
41938,2023,10,01,12,00,AAXX 01124 41938 11550 51501 10275 20260 30016 40020 60066 70596 81171 333 10317 56999 58005 70084 81825 83460=
41938,2023,10,01,18,00,AAXX 01184 41938 31940 31702 10269 20260 30041 40045 70521 81031 333 56099 58022 70084 81362 83080=
41938,2023,10,02,00,00,AAXX 02004 41938 11445 70000 10257 20257 30033 40037 60025 70562 81471 333 56499 58010 70088 81618 85460=
41938,2023,10,02,06,00,AAXX 02064 41938 11450 71804 10282 20240 30047 40051 60013 76162 84411 333 56499 58016 70095 83617 85460=
41938,2023,10,02,12,00,AAXX 02124 41938 32956 31801 10271 20250 30024 40028 83010 333 10312 56090 58008 70031 83460=
41938,2023,10,02,18,00,AAXX 02184 41938 11450 60000 10264 20250 30053 40057 60022 72161 82510 333 56990 58012 70055 82616 85460=
41938,2023,10,03,00,00,AAXX 03004 41938 11950 21801 10260 20250 30046 40050 69965 70162 82010 333 56090 58013 70037 82460=
41938,2023,10,03,06,00,AAXX 03064 41938 11456 81801 10280 20260 30060 40064 60017 70362 8252/ 333 56499 58013 70044 82616 88459=
41938,2023,10,03,12,00,AAXX 03124 41938 11450 81801 10270 20260 30042 40046 60023 70362 8352/ 333 10286 56499 58018 70062 83616 88459=
41938,2023,10,03,18,00,AAXX 03184 41938 11440 61803 10263 20250 30064 40068 69917 70361 83510 333 56490 58011 70039 83617 85460=
41938,2023,10,04,00,00,AAXX 04004 41938 11350 81802 10258 20250 30056 40060 60028 70262 8332/ 333 56399 58010 70051 81709 83616 81928 88458=
41938,2023,10,04,06,00,AAXX 04064 41938 11340 81802 10256 20256 30054 40058 60109 76166 8532/ 333 56399 59006 70137 82708 83615 81928 88458=
41938,2023,10,04,12,00,AAXX 04124 41938 11340 81602 10256 20256 30044 40048 6004/ 76162 8572/ 333 10268 56399 58002 70160 81708 84616 88459=
41938,2023,10,04,18,00,AAXX 04184 41938 11345 81605 10261 20260 30050 40054 60026 70562 8562/ 333 56399 59010 70179 81709 84617 88459=
41938,2023,10,05,00,00,AAXX 05004 41938 11345 81801 10263 20260 30036 40040 69928 70562 8562/ 333 56499 59022 70163 81709 84617 88459=
41938,2023,10,05,06,00,AAXX 05064 41938 11340 82002 10266 20266 30040 40044 60294 79596 8692/ 333 56499 59014 70353 82708 84615 81929 88458=
41938,2023,10,05,12,00,AAXX 05124 41938 11340 80000 10270 20270 30013 40017 60029 79596 8692/ 333 10300 56499 59031 70334 82708 84615 81928 88458=
41938,2023,10,05,18,00,AAXX 05184 41938 32450 71803 10280 20260 30029 40033 84510 333 56990 59021 70314 84618 85459=
41939,2023,09,29,00,00,AAXX 29004 41939 02450 60000 10290 20280 30030 40038 83510 333 58022 70000 83617 86459==
41939,2023,09,29,03,00,AAXX 29034 41939 02456 80000 10305 20590 30052 40059 8352/ 333 20285 59016 70000 88459==
41939,2023,09,29,06,00,AAXX 29064 41939 02458 80000 10322 20280 30035 40043 8352/ 333 59022 70000 83618 88458==
41939,2023,09,29,09,00,AAXX 29094 41939 02458 80000 10300 20270 30010 40018 8352/ 333 59004 70000 83617 88459==
41939,2023,09,29,12,00,AAXX 29124 41939 02457 80000 10285 20270 30025 40033 8352/ 333 10336 58021 70000 83617 88459==
41939,2023,09,29,15,00,AAXX 29154 41939 02456 80000 10280 20260 30044 40052 8352/ 333 58029 70000 83617 88459==
41939,2023,09,29,18,00,AAXX 29184 41939 NIL=
41939,2023,09,29,21,00,AAXX 29214 41939 02950 00000 10270 20260 30035 40043 333 59005 70000==
41939,2023,09,30,00,00,AAXX 30004 41939 02457 20000 10270 20260 30025 40033 82500 333 59005 70000 82618==
41939,2023,09,30,03,00,AAXX 30034 41939 01458 80000 10283 20260 30038 40046 70362 8352/ 333 20260 59014 70012 83617 88459==
41939,2023,09,30,06,00,AAXX 30064 41939 21457 80000 10297 20270 30057 40065 76162 8352/ 333 58003 60165 70162 83616 88458==
41939,2023,09,30,09,00,AAXX 30094 41939 01458 80000 10280 20260 30022 40030 70262 8352/ 333 58012 70177 83617 88459==
41939,2023,09,30,12,00,AAXX 30124 41939 11456 30000 10280 20260 30016 40024 60026 70162 82530 333 10305 59009 70177 82618==
41939,2023,09,30,15,00,AAXX 30154 41939 02456 30000 10278 20260 30048 40056 82530 333 58004 70177 82617==
41939,2023,09,30,18,00,AAXX 30184 41939 02450 20000 10275 20260 30060 40068 82530 333 58005 70177 82618==
41939,2023,09,30,21,00,AAXX 30214 41939 02456 50000 10272 20260 30045 40053 83530 333 58010 70177 83617 83364==
41939,2023,10,01,00,00,AAXX 01004 41939 02456 50000 10265 20260 30033 40041 83530 333 58008 70177 83617 83365==
41939,2023,10,01,03,00,AAXX 01034 41939 02458 50000 10298 20270 30046 40054 83530 333 20263 58008 70165 83617 83365==
41939,2023,10,01,09,00,AAXX 01094 41939 01456 70000 10270 20250 30017 40025 72162 83510 333 59005 70174 83616 87459==
41939,2023,10,01,12,00,AAXX 01124 41939 21456 60000 10292 20270 30011 40019 70162 83510 333 10320 59005 60178 70174 83618 85459==
41939,2023,10,01,15,00,AAXX 01154 41939 02450 20000 10285 20270 30028 40036 82500 333 59020 70174 82618==
41939,2023,10,01,18,00,AAXX 01184 41939 02450 70000 10280 20260 30036 40044 83510 333 59024 70174 83617 86459==
41939,2023,10,01,21,00,AAXX 01214 41939 02450 70000 10275 20260 30052 40060 83510 333 58007 70174 83617 86459==
41939,2023,10,02,00,00,AAXX 02004 41939 02456 50000 10273 20260 30044 40052 83530 333 58011 70174 83617 83362==
41939,2023,10,02,03,00,AAXX 02034 41939 02457 80000 10285 20270 30068 40075 8352/ 333 20264 58022 70174 83617 88459==
41939,2023,10,02,06,00,AAXX 02064 41939 02458 30000 10317 20270 30050 40057 82530 333 58001 70174 82618==
41939,2023,10,02,09,00,AAXX 02094 41939 01456 70000 10280 20260 30036 40044 72122 83510 333 58019 70056 83616 87459==
41939,2023,10,02,12,00,AAXX 02124 41939 21456 50000 10285 20270 30035 40043 70162 83530 333 10325 58024 60065 70056 83617 83364==
41939,2023,10,02,15,00,AAXX 02154 41939 02456 70000 10278 20260 30043 40051 83510 333 58015 70056 83617 86459==
41939,2023,10,02,21,00,AAXX 02214 41939 02450 60000 10274 20260 30050 40058 83510 333 59002 70056 83617 85459==
41939,2023,10,03,00,00,AAXX 03004 41939 01456 80000 10270 20260 30043 40051 70362 8352/ 333 59001 70010 83617 88459==
41939,2023,10,03,03,00,AAXX 03034 41939 02458 60000 10286 20270 30066 40074 83510 333 20261 59002 70066 83618 85459==
41939,2023,10,03,06,00,AAXX 03064 41939 01456 70000 10275 20260 30064 40073 58015 70080 87459 333 70010==
41939,2023,10,03,09,00,AAXX 03094 41939 01456 70000 10272 20260 30046 40054 76166 83510 333 58010 70050 83616 87459==
41939,2023,10,03,12,00,AAXX 03124 41939 21456 50000 10271 20260 30054 40062 70162 83530 333 10302 58019 60038 70050 83617 83362==
41939,2023,10,03,15,00,AAXX 03154 41939 02450 60000 10267 20250 30077 40085 82510 333 58034 70050 82618 86459==
41939,2023,10,03,18,00,AAXX 03184 41939 02450 60000 10265 20250 30090 40098 82510 333 58033 70050 82618 86459==
41939,2023,10,03,21,00,AAXX 03214 41939 01456 80000 10260 20250 30068 40076 76162 8352/ 333 58018 70170 83616 88458==
41939,2023,10,04,00,00,AAXX 04004 41939 21456 80902 10259 20250 30061 40069 70262 8352/ 333 58018 60238 70270 83617 88459==
41939,2023,10,04,03,00,AAXX 04034 41939 02457 81202 10285 20260 30079 40087 8352/ 333 20253 58013 70270 83617 88459==
41939,2023,10,04,06,00,AAXX 04064 41939 01456 80000 10277 20270 30060 40069 76162 333 59004 73086 84582 84616 88459==
41939,2023,10,04,09,00,AAXX 04094 41939 01450 80000 10265 20260 30050 40058 76166 8452/ 333 58004 70382 84615 88459==
41939,2023,10,04,12,00,AAXX 04124 41939 21450 80000 10265 20260 30042 40050 76166 8452/ 333 10290 59012 60029 70390 84616 88459==
41939,2023,10,04,15,00,AAXX 04154 41939 01450 80000 10260 20250 30060 40068 76166 8452/ 333 59020 70438 84616 88459==
41939,2023,10,04,18,00,AAXX 04184 41939 01450 80000 10260 20260 30068 40076 76166 8452/ 333 59025 70510 84615 88459==
41939,2023,10,04,21,00,AAXX 04214 41939 01450 80000 10258 20258 30058 40066 70262 8352/ 333 59010 70400 83617 88459==
41939,2023,10,05,00,00,AAXX 05004 41939 11456 80000 10263 20260 30037 40045 60016 70262 8352/ 333 59024 70290 83617 88459==
41939,2023,10,05,03,00,AAXX 05034 41939 02458 80000 10275 20260 30050 40058 8352/ 333 20253 59029 70290 83618 88459==
41939,2023,10,05,06,00,AAXX 05064 41939 02458 70000 10300 20270 30041 40049 83510 333 59019 70052 83617 87459==
41939,2023,10,05,09,00,AAXX 05094 41939 01456 80000 10285 20270 30018 40026 70366 8352/ 333 59032 70150 83616 88459==
41939,2023,10,05,12,00,AAXX 05124 41939 01456 80000 10265 20260 30027 40035 70262 8352/ 333 10315 59015 70142 83617 88458==
41939,2023,10,05,15,00,AAXX 05154 41939 01456 80000 10275 20270 30047 40055 76162 8352/ 333 59013 70132 83616 88459==
41939,2023,10,05,18,00,AAXX 05184 41939 21456 80000 10262 20250 30057 40065 70262 8352/ 333 59011 60069 70080 83617 88459==
41939,2023,10,05,21,00,AAXX 05214 41939 02450 80000 10268 20260 30045 40053 8352/ 333 59013 70070 83616 88459==
41941,2023,09,29,00,00,AAXX 29004 41941 02450 80000 10282 20270 30027 40032 8632/ 333 59019 70000 85616 88458 81930==
41941,2023,09,29,03,00,AAXX 29034 41941 02450 83604 10318 20280 30043 40048 8632/ 333 20280 59016 70000 85616 88458 81930==
41941,2023,09,29,06,00,AAXX 29064 41941 02450 72704 10330 20290 30039 40044 85420 333 59009 70000 84616 87458==
41941,2023,09,29,09,00,AAXX 29094 41941 02450 81404 10328 20280 30013 40019 8632/ 333 58000 70000 85616 88458 81930==
41941,2023,09,29,12,00,AAXX 29124 41941 02450 81805 10295 20280 30023 40028 8632/ 333 10345 58007 70000 85616 88482 81930==
41941,2023,09,29,15,00,AAXX 29154 41941 02440 81803 10285 20290 30036 40041 8632/ 333 58004 70000 85616 88458 81930==
41941,2023,09,29,18,00,AAXX 29184 41941 01440 81804 10280 20280 30039 40044 71322 8632/ 333 58009 70000 85616 88458 81930==
41941,2023,09,29,21,00,AAXX 29214 41941 01440 80000 10276 20276 30031 40036 71322 8632/ 333 58004 70000 85616 88458 81930==
41941,2023,09,30,00,00,AAXX 30004 41941 02450 81804 10275 20270 30036 40041 8632/ 333 58009 70000 85616 88458 81930==
41941,2023,09,30,03,00,AAXX 30034 41941 01450 81804 10280 20260 30057 40062 72162 8792/ 333 20262 58014 70050 85612 88456 82924==
41941,2023,09,30,06,00,AAXX 30064 41941 21450 82703 10306 20260 30059 40064 70262 8632/ 333 58020 60058 70050 85616 88458 81928==
41941,2023,09,30,09,00,AAXX 30094 41941 01456 72704 10310 20260 30023 40028 70162 85420 333 58010 70062 84616 87458==
41941,2023,09,30,12,00,AAXX 30124 41941 21450 70905 10290 20260 30024 40029 70262 85420 333 10322 58001 60017 70060 84616 87458==
41941,2023,09,30,15,00,AAXX 30154 41941 02440 70000 10282 20260 30044 40049 85420 333 58008 70000 84616 87458==
41941,2023,09,30,18,00,AAXX 30184 41941 02440 60904 10278 20260 30054 40059 85420 333 58015 70060 84616 86458==
41941,2023,09,30,21,00,AAXX 30214 41941 01440 80904 10274 20260 30042 40047 72162 8632/ 333 58011 70070 85612 88456 81924==
41941,2023,10,01,00,00,AAXX 01004 41941 21450 80903 10270 20260 30034 40039 70262 8632/ 333 59002 60015 70070 85616 88458 81928==
41941,2023,10,01,03,00,AAXX 01034 41941 02456 71804 10275 20270 30044 40049 85420 333 20261 59013 70020 84616 87458==
41941,2023,10,01,09,00,AAXX 01094 41941 02456 71802 10330 20260 30019 40024 85420 333 59004 70020 84616 87458==
41941,2023,10,01,12,00,AAXX 01124 41941 02450 81803 10297 20270 30023 40028 8632/ 333 10340 59001 70010 85616 88458 81928==
41941,2023,10,01,15,00,AAXX 01154 41941 02440 81803 10288 20270 30049 40054 8632/ 333 58005 70010 85616 88458 81928==
41941,2023,10,01,18,00,AAXX 01184 41941 02440 70000 10280 20270 30056 40061 85420 333 58002 70010 84616 87458==
41941,2023,10,01,21,00,AAXX 01214 41941 02440 70000 10275 20270 30050 40055 85420 333 58008 70000 84616 87458==
41941,2023,10,02,00,00,AAXX 02004 41941 02450 70903 10270 20260 30044 40050 85420 333 58010 70000 84616 87458==
41941,2023,10,02,03,00,AAXX 02034 41941 02450 81804 10280 20260 30064 40070 8632/ 333 20266 58020 70000 85616 88458==
41941,2023,10,02,06,00,AAXX 02064 41941 02456 71804 10330 20260 30059 40064 85420 333 58018 70000 84616 87458==
41941,2023,10,02,09,00,AAXX 02094 41941 01450 81803 10300 20260 30037 40042 76162 8632/ 333 58018 70020 85616 88458 81930==
41941,2023,10,02,12,00,AAXX 02124 41941 21450 81803 10288 20280 30037 40043 70262 8632/ 333 10350 58014 60075 70070 85616 88458 81930==
41941,2023,10,02,15,00,AAXX 02154 41941 02440 70000 10280 20270 30057 40063 85420 333 58008 70070 84616 87458==
41941,2023,10,02,18,00,AAXX 02184 41941 01440 81804 10260 20250 30064 40070 72162 8632/ 333 58008 70040 85614 88456 81925==
41941,2023,10,02,21,00,AAXX 02214 41941 02440 80000 10258 20258 30058 40063 8632/ 333 58008 70110 85614 88456 81925==
41941,2023,10,03,00,00,AAXX 03004 41941 02450 81803 10263 20260 30056 40062 8632/ 333 58012 70110 85616 84582 81930==
41941,2023,10,03,03,00,AAXX 03034 41941 02450 81804 10298 20260 30074 40080 8632/ 333 20258 58010 70110 85616 88458 81930==
41941,2023,10,03,06,00,AAXX 03064 41941 11450 81406 10282 20240 30064 40070 60011 72162 8632/ 333 58005 70120 85616 88458 81930==
41941,2023,10,03,09,00,AAXX 03094 41941 01450 80000 10265 20265 30045 40051 76162 8632/ 333 58008 70130 85612 88456 81930==
41941,2023,10,03,12,00,AAXX 03124 41941 01450 81406 10264 20250 30053 40059 70262 8632/ 333 10300 58016 70090 85612 88456 81924==
41941,2023,10,03,15,00,AAXX 03154 41941 01440 81404 10265 20260 30076 40082 71322 8692/ 333 58019 70090 85616 88458 81928==
41941,2023,10,03,18,00,AAXX 03184 41941 01440 81404 10264 20250 30080 40086 71322 8692/ 333 58016 70050 85616 88458 81928==
41941,2023,10,03,21,00,AAXX 03214 41941 01340 81404 10260 20260 30068 40074 76466 8792/ 333 58010 70110 82708 83612 88456 81924==
41941,2023,10,04,00,00,AAXX 04004 41941 21350 80905 10255 20255 30062 40068 72166 8792/ 333 58006 60107 70150 82708 83612 88456 81924==
41941,2023,10,04,03,00,AAXX 04034 41941 02450 81806 10270 20260 30077 40083 8632/ 333 20254 58003 70150 85616 88458 81928==
41941,2023,10,04,06,00,AAXX 04064 41941 NIL=
41941,2023,10,04,09,00,AAXX 04094 41941 01350 81805 10262 20260 30046 40052 76166 8792/ 333 58001 70280 82708 83612 88456 81924==
41941,2023,10,04,12,00,AAXX 04124 41941 21350 81806 10260 20260 30052 40058 72166 8792/ 333 10310 59001 60219 70290 82708 83612 88456 81924==
41941,2023,10,04,15,00,AAXX 04154 41941 01340 81804 10260 20260 30072 40078 76166 8792/ 333 59004 70320 82708 83612 88456 81924==
41941,2023,10,04,18,00,AAXX 04184 41941 21340 81804 10264 20250 30074 40080 76166 8792/ 333 58006 60059 70340 82708 83612 88456 81924==
41941,2023,10,04,21,00,AAXX 04214 41941 01340 81804 10260 20260 30064 40070 76366 8792/ 333 59004 70740 82708 83612 88456 81924==
41941,2023,10,05,00,00,AAXX 05004 41941 21350 81804 10255 20255 30056 40062 76366 8792/ 333 59006 60869 70110 82708 83612 88456 81924==
41941,2023,10,05,03,00,AAXX 05034 41941 01450 81804 10270 20270 30061 40067 70262 8632/ 333 20253 59016 71120 85616 88458 81928==
41941,2023,10,05,06,00,AAXX 05064 41941 11450 81806 10297 20280 30055 40061 60026 70262 8632/ 333 59020 71120 85616 88458 81928==
41941,2023,10,05,09,00,AAXX 05094 41941 02450 81804 10292 20270 30024 40030 8632/ 333 59022 70950 85616 88458 81930==
41941,2023,10,05,12,00,AAXX 05124 41941 02450 81802 10282 20260 30028 40034 8632/ 333 10312 59024 70930 85616 88458 81930==
41941,2023,10,05,15,00,AAXX 05154 41941 01440 81806 10277 20270 30055 40061 71322 8692/ 333 59017 70900 85612 88456 81924==
41941,2023,10,05,18,00,AAXX 05184 41941 21440 81804 10274 20260 30063 40069 76166 8692/ 333 59011 60027 70900 85612 88456 81924==
41941,2023,10,05,21,00,AAXX 05214 41941 01440 80000 10264 20260 30058 40064 72162 8692/ 333 59006 70450 85612 88456 81924==
41943,2023,09,29,00,00,AAXX 29004 41943 11335 80000 10260 20240 30028 40035 60106 70262 8662/ 333 59017 70100 83708 84615 88457==
41943,2023,09,29,03,00,AAXX 29034 41943 02435 50000 10305 20260 30042 40049 82520 333 20250 59017 70100 82616 85458==
41943,2023,09,29,06,00,AAXX 29064 41943 02440 61901 10335 20270 30037 40044 83530 333 59004 70100 83616 84362==
41943,2023,09,29,09,00,AAXX 29094 41943 02440 61901 10320 20270 30011 40018 83530 333 58004 70100 83616 84362==
41943,2023,09,29,12,00,AAXX 29124 41943 02435 71801 10300 20270 30018 40025 84520 333 10345 58015 70100 84615 86458==
41943,2023,09,29,15,00,AAXX 29154 41943 01335 80000 10285 20280 30045 40052 70262 8562/ 333 58012 70114 82709 83615 88457==
41943,2023,09,29,18,00,AAXX 29184 41943 11330 80000 10275 20260 30044 40051 60016 70262 8662/ 333 58004 70114 83709 84615 88458==
41943,2023,09,29,21,00,AAXX 29214 41943 02335 80000 10270 20250 30044 40051 8562/ 333 58012 70114 82709 83615 88457==
41943,2023,09,30,00,00,AAXX 30004 41943 02335 81201 10260 20240 30045 40052 8662/ 333 58017 70014 83709 84615 88457==
41943,2023,09,30,03,00,AAXX 30034 41943 02440 50000 10310 20260 30064 40071 82520 333 20260 58022 70014 82616 85458==
41943,2023,09,30,06,00,AAXX 30064 41943 02445 61702 10320 20240 30053 40060 83520 333 58016 70014 83616 85458==
41943,2023,09,30,09,00,AAXX 30094 41943 01450 51902 10315 20260 30025 40032 70162 84430 333 58014 70116 82616 83828==
41943,2023,09,30,12,00,AAXX 30124 41943 11440 61801 10292 20240 30029 40036 60106 70362 83431 333 10330 58011 70116 81615 83828 85462==
41943,2023,09,30,15,00,AAXX 30154 41943 01435 71701 10260 20240 30056 40063 70362 83570 333 58011 70172 83615 86457==
41943,2023,09,30,18,00,AAXX 30184 41943 11435 40000 10260 20250 30051 40058 60076 70162 82530 333 58007 70172 82616 83362==
41943,2023,09,30,21,00,AAXX 30214 41943 02435 40000 10255 20250 30043 40050 82570 333 59001 70174 82616 83457==
41943,2023,10,01,00,00,AAXX 01004 41943 02440 31101 10255 20250 30040 40047 82531 333 59005 70172 82616==
41943,2023,10,01,03,00,AAXX 01034 41943 02450 51802 10310 20250 30053 40060 84530 333 20254 59011 70172 84616==
41943,2023,10,01,06,00,AAXX 01064 41943 02450 51602 10318 20240 30043 40054 84430 333 59006 70172 82616 83828==
41943,2023,10,01,09,00,AAXX 01094 41943 02450 51402 10326 20240 30016 40023 84430 333 59009 70070 82616 83828==
41943,2023,10,01,12,00,AAXX 01124 41943 02435 61902 10297 20250 30026 40033 82570 333 10346 59003 70070 82615 85457==
41943,2023,10,01,15,00,AAXX 01154 41943 02435 41301 10275 20270 30053 40060 82530 333 59003 70000 82616 83362==
41943,2023,10,01,18,00,AAXX 01184 41943 02435 41401 10268 20260 30053 40060 82530 333 58002 70000 82615 83362==
41943,2023,10,01,21,00,AAXX 01214 41943 02435 71201 10260 20250 30051 40058 83520 333 58008 70000 83615 85458==
41943,2023,10,02,00,00,AAXX 02004 41943 02330 81501 10258 20250 30049 40056 8662/ 333 58009 70000 83709 84615 88457==
41943,2023,10,02,03,00,AAXX 02034 41943 02440 71201 10290 20240 30070 40077 84520 333 20258 58017 70000 84615 86457==
41943,2023,10,02,06,00,AAXX 02064 41943 02440 61701 10325 20250 30055 40062 84430 333 58005 70000 82615 83828==
41943,2023,10,02,09,00,AAXX 02094 41943 01440 42303 10315 20250 30033 40040 70162 82530 333 58017 70020 82618 84362==
41943,2023,10,02,12,00,AAXX 02124 41943 11435 62302 10290 20250 30036 40043 60026 70362 83520 333 10330 58010 70020 83616 84458==
41943,2023,10,02,15,00,AAXX 02154 41943 02430 51802 10270 20250 30065 40072 82530 333 58012 70020 82618 83362==
41943,2023,10,02,18,00,AAXX 02184 41943 02430 51802 10260 20240 30069 40076 82530 333 58016 70020 82618 83362==
41943,2023,10,02,21,00,AAXX 02214 41943 02430 50000 10256 20250 30062 40069 82530 333 58011 70020 82618 83362==
41943,2023,10,03,00,00,AAXX 03004 41943 02435 50000 10250 20240 30058 40065 82530 333 58009 70020 82618 83362==
41943,2023,10,03,03,00,AAXX 03034 41943 02440 51802 10305 20240 30083 40090 83530 333 20250 58013 70020 83618 84362==
41943,2023,10,03,06,00,AAXX 03064 41943 01330 81802 10264 20250 30073 40080 76162 8772/ 333 58018 70040 83710 84614 88458==
41943,2023,10,03,09,00,AAXX 03094 41943 41330 81802 10256 20250 30056 40063 72166 8772/ 333 40070 58023 83709 84614 88456==
41943,2023,10,03,12,00,AAXX 03124 41943 21330 81802 10260 20240 30061 40068 70262 8662/ 333 10310 58025 60038 70070 83710 84614 88458==
41943,2023,10,03,15,00,AAXX 03154 41943 02330 81802 10256 20250 30088 40095 8662/ 333 58023 70070 83710 84614 88458==
41943,2023,10,03,18,00,AAXX 03184 41943 21430 81802 10252 20240 30081 40088 70262 8662/ 333 58012 60045 70110 83710 84615 88456==
41943,2023,10,03,21,00,AAXX 03214 41943 02330 80000 10250 20240 30074 40081 8662/ 333 58012 70110 83710 84614 88458==
41943,2023,10,04,00,00,AAXX 04004 41943 02330 80000 10250 20240 30068 40075 8662/ 333 58010 70110 83710 84614 88458==
41943,2023,10,04,03,00,AAXX 04034 41943 01330 81802 10263 20250 30087 40094 70262 8662/ 333 20250 58004 70140 83710 84615 88458==
41943,2023,10,04,06,00,AAXX 04064 41943 11350 61302 10310 20250 30076 40083 60036 70162 84520 333 58003 70100 84616 85458==
41943,2023,10,04,09,00,AAXX 04094 41943 01330 81802 10246 20240 30062 40069 76166 8772/ 333 58006 70230 84708 84613 88456==
41943,2023,10,04,12,00,AAXX 04124 41943 21330 81802 10252 20240 30064 40071 70262 8662/ 333 10313 58003 60188 70250 83710 84614 88458==
41943,2023,10,04,15,00,AAXX 04154 41943 02330 81802 10250 20250 30085 40092 8662/ 333 59005 70250 83710 84614 88458==
41943,2023,10,04,18,00,AAXX 04184 41943 02330 81802 10254 20240 30076 40083 8662/ 333 59005 70210 83710 84615 88458==
41943,2023,10,04,21,00,AAXX 04214 41943 02330 80000 10252 20240 30070 40077 8662/ 333 59004 70210 84614 88458==
41943,2023,10,05,00,00,AAXX 05004 41943 21330 80000 10250 20250 30055 40062 76162 8772/ 333 59013 60197 70400 83709 84614 88458==
41943,2023,10,05,03,00,AAXX 05034 41943 01330 81802 10252 20240 30079 40086 76166 8772/ 333 20242 59008 70500 83708 84615 88456==
41943,2023,10,05,06,00,AAXX 05064 41943 01330 81802 10252 20240 30079 40086 76166 8772/ 333 20242 59008 70500 83708 84615 88456==
41943,2023,10,05,09,00,AAXX 05094 41943 02440 61802 10290 20260 30033 40040 83520 333 59029 70340 83616 85458==
41943,2023,10,05,12,00,AAXX 05124 41943 02330 81802 10274 20250 30035 40042 8662/ 333 10298 59029 70350 83710 84614 88458==
41943,2023,10,05,15,00,AAXX 05154 41943 02430 61802 10270 20250 30061 40068 84520 333 59024 70350 84616 85458==
41943,2023,10,05,18,00,AAXX 05184 41943 02430 81802 10265 20260 30045 40052 8662/ 333 59031 70350 83710 84615 88458==
41943,2023,10,05,21,00,AAXX 05214 41943 02330 80000 10264 20250 30042 40049 8662/ 333 59028 70350 83710 84615 88458==
41944,2023,09,29,06,00,AAXX 29064 41944 NIL=
41944,2023,09,29,12,00,AAXX 29124 41944 NIL=
41944,2023,09,29,18,00,AAXX 29184 41944 NIL=
41944,2023,09,30,00,00,AAXX 30004 41944 NIL=
41944,2023,09,30,12,00,AAXX 30124 41944 NIL=
41944,2023,09,30,18,00,AAXX 30184 41944 NIL=
41944,2023,10,01,00,00,AAXX 01004 41944 NIL=
41944,2023,10,01,12,00,AAXX 01124 41944 NIL=
41944,2023,10,02,06,00,AAXX 02064 41944 NIL=
41944,2023,10,02,12,00,AAXX 02124 41944 NIL=
41944,2023,10,03,06,00,AAXX 03064 41944 NIL=
41944,2023,10,03,12,00,AAXX 03124 41944 NIL=
41944,2023,10,03,18,00,AAXX 03184 41944 NIL=
41944,2023,10,04,00,00,AAXX 04004 41944 NIL=
41944,2023,10,04,06,00,AAXX 04064 41944 NIL=
41944,2023,10,04,12,00,AAXX 04124 41944 NIL=
41944,2023,10,05,00,00,AAXX 05004 41944 NIL=
41944,2023,10,05,12,00,AAXX 05124 41944 NIL=
41944,2023,10,05,18,00,AAXX 05184 41944 NIL=
41946,2023,09,29,00,00,AAXX 29004 41946 02/56 63002 10290 20280 30035 40040 86070 333 59024 70000 84459 84360==
41946,2023,09,29,03,00,AAXX 29034 41946 02/56 80000 10292 20280 30056 40061 8802/ 333 20285 59014 70000 88458==
41946,2023,09,29,06,00,AAXX 29064 41946 02556 70000 10309 20280 30045 40050 84420 333 59014 70000 83620 86459==
41946,2023,09,29,09,00,AAXX 29094 41946 02456 80000 10290 20270 30027 40032 8432/ 333 58004 70000 83618 88459 81928==
41946,2023,09,29,12,00,AAXX 29124 41946 02556 70000 10282 20260 30023 40028 84420 333 10310 58005 70000 83620 86459==
41946,2023,09,29,15,00,AAXX 29154 41946 02456 80000 10280 20260 30043 40048 8352/ 333 58004 70000 83618 88459==
41946,2023,09,29,18,00,AAXX 29184 41946 21456 82201 10278 20270 30042 40047 70262 8252/ 333 59004 69925 70002 82618 88459==
41946,2023,09,29,21,00,AAXX 29214 41946 02456 80000 10276 20270 30029 40034 8352/ 333 59003 70002 83618 88459==
41946,2023,09,30,00,00,AAXX 30004 41946 01456 80404 10274 20260 30026 40031 72122 8452/ 333 59009 70002 84618 88459==
41946,2023,09,30,03,00,AAXX 30034 41946 01456 70303 10285 20280 30044 40048 70162 85411 333 20268 59012 70324 84618 84460 85080==
41946,2023,09,30,06,00,AAXX 30064 41946 11456 81802 10300 20270 30032 40037 60326 70362 8532/ 333 59013 70324 84618 88459 81928==
41946,2023,09,30,09,00,AAXX 30094 41946 02456 60806 10304 20250 30000 40005 86400 333 59027 70324 85618 83820==
41946,2023,09,30,12,00,AAXX 30124 41946 01356 61005 10290 20270 30004 40009 72122 86700 333 10309 59019 70008 82710 85617==
41946,2023,09,30,15,00,AAXX 30154 41946 02456 80805 10284 20250 30036 40041 8452/ 333 59007 70332 84618 88459==
41946,2023,09,30,18,00,AAXX 30184 41946 02456 60805 10280 20260 30034 40039 86400 333 59008 70330 85618 83820==
41946,2023,09,30,21,00,AAXX 30214 41946 01350 80803 10268 20260 30024 40029 76166 8472/ 333 59005 70450 81710 84617 88459==
41946,2023,10,01,00,00,AAXX 01004 41946 21456 80000 10264 20250 30028 40033 70262 8452/ 333 58002 60149 70468 84618 88459==
41946,2023,10,01,03,00,AAXX 01034 41946 02456 61802 10303 20270 30037 40042 84510 333 20255 59007 70148 84618 85460==
41946,2023,10,01,09,00,AAXX 01094 41946 02456 70902 10311 20260 30010 40014 83520 333 58010 70178 83618 87459==
41946,2023,10,01,12,00,AAXX 01124 41946 02456 51802 10286 20260 30016 40021 83501 333 10316 58012 70170 83618==
41946,2023,10,01,15,00,AAXX 01154 41946 02456 51002 10282 20260 30041 40046 85400 333 58005 70170 84618==
41946,2023,10,01,18,00,AAXX 01184 41946 02356 60901 10282 20270 30044 40049 86600 333 58010 70170 82710 84618==
41946,2023,10,01,21,00,AAXX 01214 41946 01350 81002 10274 20260 30031 40036 76162 8672/ 333 58007 70230 82709 84617 88458==
41946,2023,10,02,00,00,AAXX 02004 41946 21450 80000 10266 20260 30034 40039 70262 8542/ 333 58006 60309 70330 84618 88458==
41946,2023,10,02,03,00,AAXX 02034 41946 02456 80000 10270 20260 30056 40061 8532/ 333 20260 58019 70300 84618 88459 81928==
41946,2023,10,02,06,00,AAXX 02064 41946 21456 81503 10280 20260 30052 40057 70262 8532/ 333 58014 69935 70303 84618 88459 81928==
41946,2023,10,02,09,00,AAXX 02094 41946 02456 81402 10295 20270 30029 40034 8532/ 333 58019 70303 84618 88459 81928==
41946,2023,10,02,12,00,AAXX 02124 41946 02456 70000 10280 20260 30035 40040 83520 333 10296 58019 70303 83618 87459==
41946,2023,10,02,15,00,AAXX 02154 41946 02956 00000 10271 20250 30055 40060 333 58014 70303==
41946,2023,10,02,18,00,AAXX 02184 41946 02456 52202 10271 20250 30059 40064 82530 333 58015 70303 82618 83362==
41946,2023,10,02,21,00,AAXX 02214 41946 02456 60000 10270 20260 30048 40053 82530 333 58017 70123 82618 84362==
41946,2023,10,03,00,00,AAXX 03004 41946 02456 50000 10269 20260 30045 40050 81510 333 58011 70003 81618 84460==
41946,2023,10,03,03,00,AAXX 03034 41946 02456 60000 10305 20260 30070 40075 83510 333 20260 58014 70003 84618 84460==
41946,2023,10,03,06,00,AAXX 03064 41946 01350 80000 10265 20260 30063 40068 76162 8572/ 333 58011 70120 82709 84617 88458==
41946,2023,10,03,09,00,AAXX 03094 41946 01350 80000 10273 20260 30040 40044 76166 8572/ 333 58011 70150 82710 84616 88458==
41946,2023,10,03,12,00,AAXX 03124 41946 21450 81403 10264 20250 30044 40048 76166 8542/ 333 10306 58009 60059 70172 83618 83820 88458==
41946,2023,10,03,15,00,AAXX 03154 41946 01456 80000 10270 20250 30068 40073 70262 8352/ 333 58013 70173 83618 88459==
41946,2023,10,03,18,00,AAXX 03184 41946 01456 80000 10270 20260 30057 40062 70262 8352/ 333 59002 70176 83618 88459==
41946,2023,10,03,21,00,AAXX 03214 41946 02456 80000 10272 20260 30043 40048 8352/ 333 59006 70176 83618 88459==
41946,2023,10,04,00,00,AAXX 04004 41946 02456 80903 10274 20260 30046 40051 8352/ 333 58001 70176 83618 88459==
41946,2023,10,04,03,00,AAXX 04034 41946 01456 81502 10275 20260 30068 40073 72162 8342/ 333 20256 59002 70256 84618 88459 81928==
41946,2023,10,04,06,00,AAXX 04064 41946 01456 80902 10275 20260 30067 40072 70262 83424 333 58004 70152 84618 88459 81928==
41946,2023,10,04,09,00,AAXX 04094 41946 01350 81802 10267 20260 30037 40042 76162 8572/ 333 59003 70306 82709 83617 88459==
41946,2023,10,04,12,00,AAXX 04124 41946 21350 81401 10273 20260 30042 40047 76196 8572/ 333 10284 59002 60269 70354 82709 84617 88459==
41946,2023,10,04,15,00,AAXX 04154 41946 01350 81702 10274 20260 30062 40066 70262 8572/ 333 59006 70355 82710 84617 88458==
41946,2023,10,04,18,00,AAXX 04184 41946 11556 60000 10274 20260 30051 40055 69926 70162 83570 333 59006 70352 83620 84459==
41946,2023,10,04,21,00,AAXX 04214 41946 02350 81702 10270 20260 30032 40037 8632/ 333 59011 70352 82710 84617 88459 81928==
41946,2023,10,05,00,00,AAXX 05004 41946 21350 81802 10263 20260 30035 40040 79596 8692/ 333 59011 60127 70472 83709 84616 88458 81928==
41946,2023,10,05,03,00,AAXX 05034 41946 41350 80000 10285 20280 30056 40061 76196 8752/ 333 20260 59012 82709 84616 88458==
41946,2023,10,05,06,00,AAXX 05064 41946 21350 80000 10290 20260 30038 40043 79596 8692/ 333 59029 60189 70566 82710 84616 88458 81928==
41946,2023,10,05,09,00,AAXX 05094 41946 01456 81802 10292 20270 30017 40022 72162 8432/ 333 59020 70402 84618 88459 81928==
41946,2023,10,05,12,00,AAXX 05124 41946 01456 80000 10284 20270 30023 40028 70262 8432/ 333 10292 59019 70340 84618 88459 81928==
41946,2023,10,05,15,00,AAXX 05154 41946 01456 81802 10281 20270 30045 40050 70262 8452/ 333 59017 70344 84618 88459==
41946,2023,10,05,18,00,AAXX 05184 41946 11456 81806 10284 20270 30038 40043 69966 71796 8592/ 333 59013 70344 84618 88459 81929==
41946,2023,10,05,21,00,AAXX 05214 41946 01456 81802 10280 20270 30027 40032 70296 8432/ 333 59005 70386 83618 88459 81929==
41947,2023,09,29,00,00,AAXX 29004 41947 01340 81804 10280 20270 30030 40032 79596 8592/ 333 59016 70120 82707 83616 88456 81925==
41947,2023,09,29,03,00,AAXX 29034 41947 02350 80000 10285 20280 30045 40047 8562/ 333 20265 59009 70120 82710 83617 88458==
41947,2023,09,29,06,00,AAXX 29064 41947 02456 80000 10303 20280 30040 40043 8352/ 333 59009 70120 83618 88458==
41947,2023,09,29,09,00,AAXX 29094 41947 01356 81802 10285 20270 30021 40023 70262 8532/ 333 58006 70122 82710 83616 88458 81930==
41947,2023,09,29,12,00,AAXX 29124 41947 11456 70000 10284 20270 30017 40019 69926 70162 83570 333 10305 58003 70122 83618 85458==
41947,2023,09,29,15,00,AAXX 29154 41947 02456 80000 10280 20270 30037 40039 8352/ 333 58003 70122 83618 88458==
41947,2023,09,29,18,00,AAXX 29184 41947 02456 60000 10275 20270 30037 40039 83510 333 59002 70122 83618 86459==
41947,2023,09,29,21,00,AAXX 29214 41947 02456 60000 10274 20260 30024 40026 83570 333 59011 70122 83618 85459==
41947,2023,09,30,00,00,AAXX 30004 41947 02356 80502 10276 20270 30022 40024 8562/ 333 59008 70002 82709 84616 88458==
41947,2023,09,30,03,00,AAXX 30034 41947 01350 80502 10275 20260 30029 40032 70262 8562/ 333 20270 59015 70004 81709 84617 88458==
41947,2023,09,30,06,00,AAXX 30064 41947 11450 81304 10315 20250 30023 40026 60026 70262 8452/ 333 59017 70004 84618 88458==
41947,2023,09,30,09,00,AAXX 30094 41947 02456 60000 10310 20260 30001 40003 83510 333 59003 70002 83618 86459==
41947,2023,09,30,12,00,AAXX 30124 41947 21450 81302 10285 20270 30005 40007 70362 8452/ 333 10320 59012 60025 70020 84618 88458==
41947,2023,09,30,15,00,AAXX 30154 41947 21450 81302 10285 20270 30005 40007 70362 8452/ 333 10320 59012 60025 70020 84618 88458==
41947,2023,09,30,18,00,AAXX 30184 41947 11450 61303 10272 20260 30037 40039 60016 70162 83510 333 58000 70030 83618 86459==
41947,2023,09,30,21,00,AAXX 30214 41947 02450 81303 10265 20260 30023 40025 8452/ 333 59001 70030 83618 88458==
41947,2023,10,01,00,00,AAXX 01004 41947 02450 81302 10263 20260 30017 40019 8352/ 333 59005 70030 83618 88458==
41947,2023,10,01,03,00,AAXX 01034 41947 02456 70902 10300 20250 30025 40028 83570 333 20258 59004 70028 83618 86458==
41947,2023,10,01,09,00,AAXX 01094 41947 01450 61402 10305 20270 30010 40012 70162 83570 333 58009 70156 83618 85458==
41947,2023,10,01,12,00,AAXX 01124 41947 11450 30000 10288 20260 30016 40018 60026 70162 83500 333 10314 58011 70138 83618==
41947,2023,10,01,15,00,AAXX 01154 41947 02950 01802 10278 20260 30043 40045 333 58010 70128==
41947,2023,10,01,18,00,AAXX 01184 41947 02950 00000 10275 20260 30043 40045 333 58006 70128==
41947,2023,10,01,21,00,AAXX 01214 41947 02450 30000 10270 20250 30038 40040 83500 333 58015 70128 83618==
41947,2023,10,02,00,00,AAXX 02004 41947 01450 80000 10260 20250 30036 40038 76122 8572/ 333 58019 70020 82709 84616 88458==
41947,2023,10,02,03,00,AAXX 02034 41947 01350 80000 10253 20250 30048 40051 76162 8672/ 333 20250 58023 70448 82708 84616 88458==
41947,2023,10,02,06,00,AAXX 02064 41947 21350 81803 10265 20260 30041 40044 76166 8672/ 333 58016 60329 70360 82708 84615 88458==
41947,2023,10,02,09,00,AAXX 02094 41947 01450 81802 10265 20260 30020 40022 76166 8672/ 333 58010 70420 82708 84615 88458==
41947,2023,10,02,12,00,AAXX 02124 41947 21450 50000 10270 20260 30030 40032 70166 83570 333 10282 58014 60098 70430 83618 84458==
41947,2023,10,02,15,00,AAXX 02154 41947 02950 00000 10268 20260 30050 40052 333 58007 70430==
41947,2023,10,02,18,00,AAXX 02184 41947 02950 00000 10265 20260 30054 40056 333 58011 70430==
41947,2023,10,02,21,00,AAXX 02214 41947 02950 00000 10265 20260 30052 40054 333 58014 70430==
41947,2023,10,03,00,00,AAXX 03004 41947 02950 00000 10265 20260 30047 40049 333 58011 70410==
41947,2023,10,03,03,00,AAXX 03034 41947 02456 80000 10284 20260 30064 40067 8352/ 333 20250 58016 70110 83617 88458==
41947,2023,10,03,06,00,AAXX 03064 41947 01350 81803 10260 20250 30061 40064 76122 8672/ 333 58020 70090 82708 84615 88458==
41947,2023,10,03,09,00,AAXX 03094 41947 01350 81810 10290 20260 30038 40040 70262 8532/ 333 58018 70136 82709 84616 88458 81929==
41947,2023,10,03,12,00,AAXX 03124 41947 01456 80000 10266 20260 30044 40046 70262 8452/ 333 10296 58014 70166 84617 88458==
41947,2023,10,03,15,00,AAXX 03154 41947 01450 81502 10266 20260 30064 40066 70262 8452/ 333 58014 70258 84616 88458==
41947,2023,10,03,18,00,AAXX 03184 41947 01340 80000 10263 20260 30060 40063 76266 8672/ 333 58007 70378 82708 84614 88458==
41947,2023,10,03,21,00,AAXX 03214 41947 01340 80000 10263 20260 30042 40045 76366 8672/ 333 58009 70628 82708 85614 88458==
41947,2023,10,04,00,00,AAXX 04004 41947 21340 80000 10264 20250 30040 40043 76366 8572/ 333 59006 60429 70798 82708 84615 88458==
41947,2023,10,04,03,00,AAXX 04034 41947 01350 80000 10270 20260 30059 40062 76166 8672/ 333 20250 59005 70868 82708 84615 88458==
41947,2023,10,04,06,00,AAXX 04064 41947 21350 81302 10270 20260 30048 40051 76166 8672/ 333 59013 60109 70812 82708 84615 88458==
41947,2023,10,04,09,00,AAXX 04094 41947 01450 81302 10270 20250 30035 40038 70266 8452/ 333 59002 70792 84618 88458==
41947,2023,10,04,12,00,AAXX 04124 41947 21340 81302 10265 20260 30039 40041 70166 8372/ 333 10272 59005 60069 70792 83708 84614 88458==
41947,2023,10,04,15,00,AAXX 04154 41947 02440 81302 10265 20260 30055 40058 8452/ 333 59008 70700 84616 88458==
41947,2023,10,04,18,00,AAXX 04184 41947 02440 81302 10260 30048 40053 8452/ 333 59010 70380 84618 88459==
41947,2023,10,04,21,00,AAXX 04214 41947 02440 80000 10272 20260 30042 40045 8452/ 333 58000 70330 84618 88458==
41947,2023,10,05,00,00,AAXX 05004 41947 02450 80000 10272 20270 30032 40034 8352/ 333 59009 70160 83618 88459==
41947,2023,10,05,03,00,AAXX 05034 41947 02450 81302 10295 20270 30043 40046 8452/ 333 20266 59016 70084 84618 88458==
41947,2023,10,05,06,00,AAXX 05064 41947 01350 81302 10285 20280 30027 40030 76162 8572/ 333 59021 70010 81708 84616 88458==
41947,2023,10,05,09,00,AAXX 05094 41947 01350 81802 10290 20270 30010 40012 79162 8532/ 333 59026 70072 82709 83617 88456 81925==
41947,2023,10,05,12,00,AAXX 05124 41947 11450 81802 10292 20260 30023 40025 60021 70262 8352/ 333 10300 59016 70032 83618 88458==
41947,2023,10,05,15,00,AAXX 05154 41947 02450 61802 10285 20280 30043 40045 83570 333 59013 70032 83618 85458==
41947,2023,10,05,18,00,AAXX 05184 41947 02450 61802 10282 20260 30035 40037 83570 333 59016 70032 83618 85458==
41947,2023,10,05,21,00,AAXX 05214 41947 02450 81802 10278 20260 30034 40036 8352/ 333 59008 70032 83618 88458==
41950,2023,09,29,00,00,AAXX 29004 41950 21350 80000 10267 20267 30030 40032 70262 8562/ 333 59016 60025 70020 82708 84616 88458==
41950,2023,09,29,03,00,AAXX 29034 41950 02450 80000 10290 20270 30053 40055 8252/ 333 20265 59010 70000 82617 88459==
41950,2023,09,29,06,00,AAXX 29064 41950 02450 81802 10295 20270 30046 40048 8452/ 333 59003 70020 84617 88459==
41950,2023,09,29,09,00,AAXX 29094 41950 02350 81802 10288 20270 30018 40020 8562/ 333 58004 70020 82708 84615 88458==
41950,2023,09,29,12,00,AAXX 29124 41950 02450 60000 10276 20270 30022 40024 83510 333 10305 58008 70020 83617 86459==
41950,2023,09,29,15,00,AAXX 29154 41950 02350 80000 10270 20270 30042 40044 8562/ 333 58008 70020 82708 84616 88459==
41950,2023,09,29,18,00,AAXX 29184 41950 02350 80000 10267 20267 30043 40045 8561/ 333 58007 70020 82708 84616 88459==
41950,2023,09,29,21,00,AAXX 29214 41950 02350 80000 10272 20260 30031 40033 8562/ 333 58001 70020 82708 84616 88459==
41950,2023,09,30,00,00,AAXX 30004 41950 01340 81202 10264 20250 30035 40037 76122 8572/ 333 58005 70020 82708 84616 88458==
41950,2023,09,30,03,00,AAXX 30034 41950 01350 71502 10300 20260 30053 40055 70162 85670 333 20257 58000 70053 82708 84616 85459==
41950,2023,09,30,06,00,AAXX 30064 41950 01350 71502 10288 20260 30045 40047 70262 85670 333 59001 70217 82708 84616 86459==
41950,2023,09,30,09,00,AAXX 30094 41950 01350 61503 10300 20260 30024 40026 70162 85610 333 70219 82708 84616 85459==
41950,2023,09,30,12,00,AAXX 30124 41950 11450 31502 10285 20260 30026 40028 69926 70162 82530 333 10312 58004 70219 82617==
41950,2023,09,30,15,00,AAXX 30154 41950 01330 80000 10270 20260 30046 40048 76121 8572/ 333 58004 70261 82708 84616 88458==
41950,2023,09,30,18,00,AAXX 30184 41950 01350 70000 10265 20265 30045 40047 72162 85670 333 58002 70281 82708 84616 86459==
41950,2023,09,30,21,00,AAXX 30214 41950 02350 80000 10265 20265 30031 40034 8562/ 333 58000 70281 82708 84616 88458==
41950,2023,10,01,00,00,AAXX 01004 41950 01445 50000 10264 20260 30037 40040 70522 82431 333 58002 70264 82616 84362==
41950,2023,10,01,03,00,AAXX 01034 41950 02450 51203 10305 20270 30046 40048 84431 333 20260 59007 70228 83616 83362==
41950,2023,10,01,06,00,AAXX 01064 41950 02350 70602 10317 20260 30044 40046 84670 333 59001 70064 81708 83616 85459==
41950,2023,10,01,09,00,AAXX 01094 41950 01456 41802 10295 20260 30017 40019 70162 83431 333 59007 70074 82617==
41950,2023,10,01,12,00,AAXX 01124 41950 11450 40000 10288 20270 30025 40027 60016 70262 82531 333 10325 59001 70074 82617 83362==
41950,2023,10,01,15,00,AAXX 01154 41950 02950 40000 10276 20270 30048 40050 82531 333 58002 70032 82617 83362==
41950,2023,10,01,18,00,AAXX 01184 41950 02/50 20000 10273 20270 30050 40052 82030 333 58005 70012 82362==
41950,2023,10,01,21,00,AAXX 01214 41950 02350 60000 10265 20260 30038 40040 84670 333 58007 70012 81708 84616 86459==
41950,2023,10,02,00,00,AAXX 02004 41950 21350 80000 10260 20250 30040 40042 70362 8562/ 333 58003 60027 70036 82708 84616 88458==
41950,2023,10,02,03,00,AAXX 02034 41950 02350 71202 10294 20260 30066 40068 85671 333 20258 58020 70036 81708 84616 85459==
41950,2023,10,02,06,00,AAXX 02064 41950 02350 70000 10298 20260 30057 40059 86370 333 58013 70036 82708 84616 86459 81928==
41950,2023,10,02,09,00,AAXX 02094 41950 01350 72302 10273 20260 30036 40038 70262 85610 333 58019 70064 82708 84616 87459==
41950,2023,10,02,12,00,AAXX 02124 41950 11/50 40000 10280 20260 30037 40039 60046 70162 82031 333 10321 58012 70064 82362 83080==
41950,2023,10,02,15,00,AAXX 02154 41950 02/50 40000 10277 20270 30058 40060 82031 333 58010 70064 82362==
41950,2023,10,02,18,00,AAXX 02184 41950 02350 80000 10270 20260 30066 40068 8562/ 333 58016 70064 82708 84616 88458==
41950,2023,10,02,21,00,AAXX 02214 41950 02450 60000 10263 20260 30059 40062 83510 333 58011 70064 83616 86459==
41950,2023,10,03,00,00,AAXX 03004 41950 21450 50000 10265 20265 30049 40052 70162 83530 333 58009 69945 70044 83616 83362==
41950,2023,10,03,03,00,AAXX 03034 41950 02350 80000 10279 20260 30077 40079 8562/ 333 20260 58011 70044 82708 84616 88458==
41950,2023,10,03,06,00,AAXX 03064 41950 11330 80000 10267 20267 30072 40074 60082 76162 8572/ 333 58015 70126 82708 84616 88458==
41950,2023,10,03,09,00,AAXX 03094 41950 01350 70000 10266 20266 30046 40048 72162 85670 333 58010 70428 82708 84616 86459==
41950,2023,10,03,12,00,AAXX 03124 41950 21350 81402 10270 20260 30051 40053 70362 333 10285 58014 60308 70388 82708 84616 88458==
41950,2023,10,03,15,00,AAXX 03154 41950 02350 80000 10265 20260 30078 40081 8562/ 333 58020 70388 82708 84616 88458==
41950,2023,10,03,18,00,AAXX 03184 41950 21340 80000 10256 20256 30072 40075 76162 8572/ 333 58006 60017 70400 82708 84616 88458==
41950,2023,10,03,21,00,AAXX 03214 41950 01330 80000 10255 20255 30061 40064 76166 8572/ 333 58012 70560 82708 84616 88458==
41950,2023,10,04,00,00,AAXX 04004 41950 21350 81502 10256 20256 30058 40061 70262 8662/ 333 58009 60178 70564 83708 84616 88458==
41950,2023,10,04,03,00,AAXX 04034 41950 02350 80902 10280 20260 30077 40080 8562/ 333 20253 58000 70564 82708 84616 88458==
41950,2023,10,04,06,00,AAXX 04064 41950 01335 80000 10252 20250 30069 40072 76162 8572/ 333 59003 70330 82708 84616 88458==
41950,2023,10,04,09,00,AAXX 04094 41950 01340 80000 10260 20260 30055 40058 76162 8572/ 333 58009 70372 82708 84616 88458==
41950,2023,10,04,12,00,AAXX 04124 41950 21340 80000 10255 20255 30057 40060 76166 8672/ 333 10290 58006 60229 70556 82707 84615 88458==
41950,2023,10,04,15,00,AAXX 04154 41950 01340 80000 10265 20265 30072 40075 76166 8672/ 333 59006 70588 82708 84616 88458==
41950,2023,10,04,18,00,AAXX 04184 41950 21330 80000 10257 20257 30060 40063 76166 8672/ 333 59012 60109 70646 82708 84616 88458==
41950,2023,10,04,21,00,AAXX 04214 41950 01330 80000 10254 20254 30047 40050 76166 8672/ 333 59014 70638 82708 84616 88458==
41950,2023,10,05,00,00,AAXX 05004 41950 21350 80000 10260 20260 30049 40052 70262 8562/ 333 59009 60158 70630 82708 84616 88458==
41950,2023,10,05,03,00,AAXX 05034 41950 01350 81702 10272 20270 30067 40070 70262 8562/ 333 20243 59010 70654 82708 84616 88458==
41950,2023,10,05,06,00,AAXX 05064 41950 01350 81702 10272 20270 30067 40070 70262 8562/ 333 20243 59010 70654 82708 84616 88458==
41950,2023,10,05,09,00,AAXX 05094 41950 02450 71804 10300 20250 30025 40027 83570 333 59030 70462 83616 86459==
41950,2023,10,05,12,00,AAXX 05124 41950 02350 80000 10285 20270 30030 40032 8532/ 333 10316 59027 70278 81708 84616 88458 81928==
41950,2023,10,05,15,00,AAXX 05154 41950 02350 80000 10278 20270 30051 40053 8562/ 333 59021 70246 82708 84616 88458==
41950,2023,10,05,18,00,AAXX 05184 41950 02350 80000 10278 20270 30042 40044 8562/ 333 59018 70176 82708 84616 88458==
41950,2023,10,05,21,00,AAXX 05214 41950 02350 81602 10277 20270 30031 40034 8562/ 333 59016 70024 82708 84616 88458==
41951,2023,09,29,00,00,AAXX 29004 41951 02340 80000 10270 20270 30025 40030 8562/ 333 59017 70000 81708 84618 88458==
41951,2023,09,29,03,00,AAXX 29034 41951 02340 80000 10302 20270 30046 40051 8562/ 333 20265 59007 70000 81708 84618 88458==
41951,2023,09,29,06,00,AAXX 29064 41951 02340 81303 10312 20270 30043 40048 8562/ 333 59004 70000 81708 84618 88458==
41951,2023,09,29,09,00,AAXX 29094 41951 02340 81503 10296 20270 30016 40021 8562/ 333 58007 70000 81708 84618 88458==
41951,2023,09,29,12,00,AAXX 29124 41951 02340 80000 10280 20260 30014 40018 8562/ 333 10322 58006 70000 81708 84618 88458==
41951,2023,09,29,15,00,AAXX 29154 41951 02340 80000 10276 20276 30043 40047 8562/ 333 58004 70000 81708 84618 88458==
41951,2023,09,29,18,00,AAXX 29184 41951 02340 70000 10276 20276 30040 40044 84610 333 58001 70000 81708 83618 86459==
41951,2023,09,29,21,00,AAXX 29214 41951 02340 60000 10274 20250 30034 40038 84610 333 58001 70000 81708 83618 85459==
41951,2023,09,30,00,00,AAXX 30004 41951 02340 81302 10266 20260 30031 40036 8562/ 333 58006 70000 81708 84618 88458==
41951,2023,09,30,03,00,AAXX 30034 41951 01340 81303 10288 20260 30050 40055 70262 8562/ 333 20260 58004 70004 81708 84618 88458==
41951,2023,09,30,06,00,AAXX 30064 41951 01330 83403 10277 20270 30050 40055 76062 8672/ 333 58007 70028 82706 84618==
41951,2023,09,30,09,00,AAXX 30094 41951 01340 80503 10276 20260 30020 40025 70262 8562/ 333 58004 70057 81708 84618 88458==
41951,2023,09,30,12,00,AAXX 30124 41951 11450 31303 10284 20260 30019 40024 60031 70162 83500 333 10306 58005 70057 83618==
41951,2023,09,30,15,00,AAXX 30154 41951 01330 81302 10272 20270 30050 40055 76120 8672/ 333 58007 70059 82706 84616 88458==
41951,2023,09,30,18,00,AAXX 30184 41951 01340 81202 10266 20260 30044 40049 72162 8562/ 333 58004 70088 81708 84618 88458==
41951,2023,09,30,21,00,AAXX 30214 41951 02340 81302 10264 20260 30039 40044 8562/ 333 58005 70088 81708 84618 88458==
41951,2023,10,01,00,00,AAXX 01004 41951 21450 60000 10268 20268 30032 40037 70162 83510 333 58001 69925 70090 83618 85459==
41951,2023,10,01,03,00,AAXX 01034 41951 02456 61304 10306 20270 30047 40052 83510 333 20258 59003 70086 83618 85459==
41951,2023,10,01,09,00,AAXX 01094 41951 02456 61506 10326 20270 30016 40021 83510 333 59004 70049 83618 85459==
41951,2023,10,01,12,00,AAXX 01124 41951 01450 51302 10288 20280 30018 40023 72162 82510 333 10328 59001 70020 82618 84459==
41951,2023,10,01,15,00,AAXX 01154 41951 02340 80000 10280 20270 30051 40055 8562/ 333 58001 70065 81708 84618 88458==
41951,2023,10,01,18,00,AAXX 01184 41951 02340 80000 10278 20278 30049 40053 8562/ 333 58005 70036 81708 84618 88458==
41951,2023,10,01,21,00,AAXX 01214 41951 02340 80000 10275 20275 30043 40047 8562/ 333 58004 70036 81708 84618 88458==
41951,2023,10,02,00,00,AAXX 02004 41951 01340 70000 10262 20260 30040 40045 72162 84610 333 58008 70080 81708 83618 86459==
41951,2023,10,02,03,00,AAXX 02034 41951 02340 71303 10298 20270 30060 40065 84610 333 20255 58013 70114 81708 83618 86459==
41951,2023,10,02,06,00,AAXX 02064 41951 01456 61302 10324 20270 30052 40057 70162 83510 333 58011 70020 83618 85459==
41951,2023,10,02,09,00,AAXX 02094 41951 01456 61203 10316 20280 30035 40040 70262 83510 333 58019 70128 83618 85459==
41951,2023,10,02,12,00,AAXX 02124 41951 11456 50000 10290 20270 30027 40032 60016 70162 82510 333 10330 58009 70110 82618 84459==
41951,2023,10,02,15,00,AAXX 02154 41951 01330 80000 10274 20260 30061 40065 76322 8672/ 333 58010 70151 82706 84616 88458==
41951,2023,10,02,21,00,AAXX 02214 41951 01340 71302 10266 20260 30054 40058 70162 84610 333 58011 70253 81708 83618 86458==
41951,2023,10,03,00,00,AAXX 03004 41951 11450 60000 10268 20268 30048 40053 60036 70162 83510 333 58008 70173 83618 85459==
41951,2023,10,03,03,00,AAXX 03034 41951 01330 81302 10270 20260 30080 40085 76162 8672/ 333 20250 58020 70180 82706 84616 88458==
41951,2023,10,03,06,00,AAXX 03064 41951 21330 81202 10262 20260 30072 40077 76162 8672/ 333 58020 60129 70271 82706 84616 88458==
41951,2023,10,03,09,00,AAXX 03094 41951 01340 71202 10283 20270 30046 40051 70166 84610 333 58011 70388 81708 83618 86459==
41951,2023,10,03,12,00,AAXX 03124 41951 11340 81503 10272 20260 30054 40059 60136 70362 84610 333 10285 58027 70388 81708 84618 88458==
41951,2023,10,03,15,00,AAXX 03154 41951 01340 80000 10268 20260 30083 40088 70262 8562/ 333 58022 70349 81708 84618 88458==
41951,2023,10,03,18,00,AAXX 03184 41951 01340 81203 10274 20260 30072 40077 72162 8662/ 333 58012 70291 82706 84616 88458==
41951,2023,10,03,21,00,AAXX 03214 41951 01330 81303 10266 20266 30067 40072 76122 8672/ 333 58013 70345 82706 84616 88458==
41951,2023,10,04,00,00,AAXX 04004 41951 21330 81303 10260 20260 30055 40060 76366 8672/ 333 58007 60137 70383 82706 84616 88458==
41951,2023,10,04,03,00,AAXX 04034 41951 02456 60806 10282 20260 30075 40080 83510 333 20252 59005 70390 83618 85459==
41951,2023,10,04,06,00,AAXX 04064 41951 01330 81303 10264 20260 30070 40075 76062 8672/ 333 59002 70378 82706 84616 88458==
41951,2023,10,04,09,00,AAXX 04094 41951 01340 81506 10270 20260 30046 40051 70266 8662/ 333 58000 70461 82706 84616 88458==
41951,2023,10,04,12,00,AAXX 04124 41951 01330 80000 10265 20265 30057 40062 76062 8672/ 333 10302 58003 70359 82706 84616 88458==
41951,2023,10,04,15,00,AAXX 04154 41951 01340 81202 10274 20260 30076 40081 72166 8562/ 333 59007 70417 81708 84618 88458==
41951,2023,10,04,18,00,AAXX 04184 41951 01330 82408 10267 20267 30064 40069 76462 8672/ 333 59008 71005 82706 84616 88458==
41951,2023,10,04,21,00,AAXX 04214 41951 01330 82406 10267 20267 30061 40066 76566 8672/ 333 59006 71088 82706 84616 88458==
41951,2023,10,05,00,00,AAXX 05004 41951 21330 80000 10266 20266 30044 40049 76566 8672/ 333 59011 60489 71358 82706 84616 88458==
41951,2023,10,05,03,00,AAXX 05034 41951 01340 81504 10272 20260 30062 40067 70262 8562/ 333 20254 59013 71376 81706 84616 88458==
41951,2023,10,05,06,00,AAXX 05064 41951 11350 71303 10305 20260 30050 40055 60036 70162 84610 333 59020 71280 81708 83618 86459==
41951,2023,10,05,09,00,AAXX 05094 41951 02340 82404 10302 20270 30024 40029 8562/ 333 59022 71229 81708 84618 88458==
41951,2023,10,05,12,00,AAXX 05124 41951 02340 81304 10286 20270 30022 40027 8562/ 333 10323 59035 71169 81708 84618 88458==
41951,2023,10,05,15,00,AAXX 05154 41951 02340 81203 10282 20270 30052 40057 8562/ 333 59024 71109 81708 84618 88458==
41951,2023,10,05,18,00,AAXX 05184 41951 02340 81204 10282 20270 30042 40047 8562/ 333 59022 70505 81708 84618 88458==
41951,2023,10,05,21,00,AAXX 05214 41951 02340 81303 10278 20270 30044 40049 8562/ 333 59017 70333 81708 84618 88458==
41953,2023,09,29,00,00,AAXX 29004 41953 21440 80000 10266 20260 30028 40033 70262 8352/ 333 59020 60075 70070 83616 88458==
41953,2023,09,29,03,00,AAXX 29034 41953 01450 70000 10292 20260 30053 40058 70522 83510 333 20265 59008 70070 83616 86458==
41953,2023,09,29,06,00,AAXX 29064 41953 02450 81301 10324 20270 30042 40047 8352/ 333 59005 70070 83616 88458==
41953,2023,09,29,09,00,AAXX 29094 41953 02450 71302 10320 20270 30016 40021 83510 333 58010 70070 83616 86458==
41953,2023,09,29,12,00,AAXX 29124 41953 02440 80000 10302 20270 30021 40026 8352/ 333 10328 58013 70070 83616 88458==
41953,2023,09,29,15,00,AAXX 29154 41953 01430 80000 10286 20280 30048 40053 70262 8352/ 333 58010 70080 83616 88458==
41953,2023,09,29,18,00,AAXX 29184 41953 11430 80000 10284 20270 30050 40055 60016 70362 8352/ 333 58009 70080 83616 88458==
41953,2023,09,29,21,00,AAXX 29214 41953 02430 80000 10280 20270 30048 40053 8352/ 333 58015 70010 83616 88458==
41953,2023,09,30,00,00,AAXX 30004 41953 02440 81304 10275 20270 30046 40051 8352/ 333 58018 70010 83616 88458==
41953,2023,09,30,03,00,AAXX 30034 41953 02450 81304 10290 20260 30057 40062 8352/ 333 20270 70010 83616 88458==
41953,2023,09,30,06,00,AAXX 30064 41953 02450 71309 10316 20260 30053 40058 84410 333 58011 70010 83616 85458==
41953,2023,09,30,09,00,AAXX 30094 41953 02450 81308 10314 20250 30034 40039 8352/ 333 58018 70010 83616 88458==
41953,2023,09,30,12,00,AAXX 30124 41953 02450 41306 10290 20260 30026 40031 84400 333 10320 58005 70010 83616==
41953,2023,09,30,15,00,AAXX 30154 41953 02430 71308 10280 20260 30055 40060 83510 333 58007 70000 83616 86458==
41953,2023,09,30,18,00,AAXX 30184 41953 02430 71309 10274 20250 30057 40062 83510 333 58007 70000 83616 86458==
41953,2023,09,30,21,00,AAXX 30214 41953 02430 81303 10270 20260 30051 40056 8352/ 333 58004 70000 83616 88458==
41953,2023,10,01,00,00,AAXX 01004 41953 21440 51301 10264 20250 30042 40047 70162 82510 333 59004 60045 70040 82618 84458==
41953,2023,10,01,03,00,AAXX 01034 41953 02450 50902 10304 20260 30054 40059 84430 333 20262 59003 70040 82618 83825==
41953,2023,10,01,09,00,AAXX 01094 41953 02450 51303 10320 20260 30021 40026 84430 333 59013 70040 82616 83825==
41953,2023,10,01,12,00,AAXX 01124 41953 02450 50000 10295 20260 30028 40033 83430 333 10325 58002 70040 82616 85362==
41953,2023,10,01,15,00,AAXX 01154 41953 02440 50000 10285 20270 30053 40058 82510 333 59002 70040 82616 85458==
41953,2023,10,01,18,00,AAXX 01184 41953 02440 81303 10275 20260 30055 40060 8352/ 333 59002 70040 83616 88458==
41953,2023,10,01,21,00,AAXX 01214 41953 02440 80000 10270 20260 30050 40055 8352/ 333 59001 70040 83616 88458==
41953,2023,10,02,00,00,AAXX 02004 41953 02440 80000 10256 20250 30049 40054 8352/ 333 58007 70000 83616 88458==
41953,2023,10,02,03,00,AAXX 02034 41953 02450 81303 10280 20260 30071 40076 8352/ 333 20255 58017 70000 83616 88458==
41953,2023,10,02,06,00,AAXX 02064 41953 02450 51303 10318 20260 30057 40062 84430 333 58007 70000 82616 83825==
41953,2023,10,02,09,00,AAXX 02094 41953 02450 61303 10320 20270 30038 40043 84410 333 58017 70000 83616 86458==
41953,2023,10,02,12,00,AAXX 02124 41953 02450 61303 10292 20260 30038 40043 82530 333 10325 58010 70000 82616 86362==
41953,2023,10,02,15,00,AAXX 02154 41953 02440 61303 10280 20260 30064 40069 82510 333 58011 70000 82616 86458==
41953,2023,10,02,18,00,AAXX 02184 41953 02440 61303 10275 20260 30069 40074 83510 333 58014 70000 83616 86458==
41953,2023,10,02,21,00,AAXX 02214 41953 02440 61303 10270 20260 30065 40070 83510 333 58015 70000 83616 86458==
41953,2023,10,03,00,00,AAXX 03004 41953 21440 81303 10266 20260 30058 40063 70362 8352/ 333 58009 60255 70250 83616 88458==
41953,2023,10,03,03,00,AAXX 03034 41953 01450 81303 10273 20250 30086 40091 76122 8352/ 333 20260 58015 70250 83616 88458==
41953,2023,10,03,06,00,AAXX 03064 41953 21440 80000 10260 20250 30076 40081 76162 8352/ 333 58019 60057 70300 83615 88458==
41953,2023,10,03,09,00,AAXX 03094 41953 01440 81303 10255 20250 30056 40061 76166 8352/ 333 58018 70420 83615 88458==
41953,2023,10,03,12,00,AAXX 03124 41953 21440 80000 10260 20250 30064 40069 72166 8352/ 333 10275 58026 60159 70450 83616 88458==
41953,2023,10,03,15,00,AAXX 03154 41953 01440 80000 10260 20250 30085 40090 70262 8352/ 333 58021 70500 83616 88458==
41953,2023,10,03,18,00,AAXX 03184 41953 11440 80000 10260 20250 30083 40088 60056 70262 8352/ 333 58014 70500 83616 88458==
41953,2023,10,03,21,00,AAXX 03214 41953 02440 80000 10260 20250 30075 40080 8352/ 333 58010 70500 83616 88458==
41953,2023,10,04,00,00,AAXX 04004 41953 21440 81305 10252 20250 30072 40077 76162 8352/ 333 58014 60197 70440 83615 88458==
41953,2023,10,04,03,00,AAXX 04034 41953 01440 81303 10260 20250 30087 40092 76166 8352/ 333 20250 58001 70520 83615 88458==
41953,2023,10,04,06,00,AAXX 04064 41953 21440 81805 10266 20260 30079 40084 76166 8452/ 333 58003 60209 70590 84615 88458==
41953,2023,10,04,09,00,AAXX 04094 41953 01440 81306 10250 20240 30059 40064 76166 8452/ 333 58003 70770 84614 88458==
41953,2023,10,04,12,00,AAXX 04124 41953 21430 80000 10255 20250 30062 40067 70266 8452/ 333 10266 59002 60338 70770 84615 88458==
41953,2023,10,04,15,00,AAXX 04154 41953 02420 81305 10260 20250 30084 40089 8352/ 333 59001 70770 83616 88458==
41953,2023,10,04,18,00,AAXX 04184 41953 01420 81305 10265 20260 30072 40077 76162 8452/ 333 59011 70060 84614 88458==
41953,2023,10,04,21,00,AAXX 04214 41953 01420 81305 10264 20250 30074 40079 76166 8452/ 333 59001 70930 84614 88458==
41953,2023,10,05,00,00,AAXX 05004 41953 21430 81305 10260 20260 30059 40064 76166 8452/ 333 59013 60269 70850 84614 88458==
41953,2023,10,05,03,00,AAXX 05034 41953 01440 81308 10266 20260 30077 40082 70262 8352/ 333 20250 59010 70790 83615 88458==
41953,2023,10,05,06,00,AAXX 05064 41953 11450 81307 10296 20270 30061 40066 60026 70262 8352/ 333 59018 70670 83616 88458==
41953,2023,10,05,09,00,AAXX 05094 41953 02450 81304 10296 20270 30034 40039 8352/ 333 59025 70370 83616 88458==
41953,2023,10,05,12,00,AAXX 05124 41953 02430 81302 10280 20260 30039 40044 8452/ 333 10298 59023 70340 84616 88458==
41953,2023,10,05,15,00,AAXX 05154 41953 02430 61301 10278 20270 30062 40067 83510 333 59022 70340 83616 85458==
41953,2023,10,05,18,00,AAXX 05184 41953 02430 81302 10272 20260 30059 40064 8352/ 333 59013 70280 83616 88458==
41953,2023,10,05,21,00,AAXX 05214 41953 02430 81303 10270 20260 30055 40060 8352/ 333 59019 70130 83616 88458==
41955,2023,09,29,06,00,AAXX 29064 41955 NIL=
41955,2023,09,29,12,00,AAXX 29124 41955 NIL=
41955,2023,09,29,18,00,AAXX 29184 41955 NIL=
41955,2023,09,30,00,00,AAXX 30004 41955 NIL=
41955,2023,09,30,12,00,AAXX 30124 41955 NIL=
41955,2023,09,30,18,00,AAXX 30184 41955 NIL=
41955,2023,10,01,00,00,AAXX 01004 41955 NIL=
41955,2023,10,01,12,00,AAXX 01124 41955 NIL=
41955,2023,10,02,06,00,AAXX 02064 41955 NIL=
41955,2023,10,02,12,00,AAXX 02124 41955 NIL=
41955,2023,10,03,06,00,AAXX 03064 41955 NIL=
41955,2023,10,03,12,00,AAXX 03124 41955 NIL=
41955,2023,10,03,18,00,AAXX 03184 41955 NIL=
41955,2023,10,04,00,00,AAXX 04004 41955 NIL=
41955,2023,10,04,06,00,AAXX 04064 41955 NIL=
41955,2023,10,04,12,00,AAXX 04124 41955 NIL=
41955,2023,10,05,00,00,AAXX 05004 41955 NIL=
41955,2023,10,05,12,00,AAXX 05124 41955 NIL=
41955,2023,10,05,18,00,AAXX 05184 41955 NIL=
41958,2023,09,29,00,00,AAXX 29004 41958 11440 80000 10266 20266 30030 40032 69924 79592 333 56999 59014 70002 84616 82930 88459=
41958,2023,09,29,03,00,AAXX 29034 41958 32450 80000 10269 20260 30049 40051 8532/ 333 20254 56999 59009 70002 84616 81930 88459=
41958,2023,09,29,06,00,AAXX 29064 41958 32456 80000 10278 20260 30044 40046 8532/ 333 56999 59005 70002 84616 81930 88459=
41958,2023,09,29,09,00,AAXX 29094 41958 21456 80000 10279 20270 30016 40018 70262 8532/ 333 56999 58007 6001/ 70012 84616 81930 88459=
41958,2023,09,29,12,00,AAXX 29124 41958 11450 80000 10277 20270 30011 40013 60016 70262 8532/ 333 10280 56999 58003 70012 84616 81930 88459=
41958,2023,09,29,15,00,AAXX 29154 41958 32440 80000 10274 20260 30031 40033 8542/ 333 56999 58008 70012 84616 88459=
41958,2023,09,29,18,00,AAXX 29184 41958 32440 80000 10270 20270 30039 40041 8542/ 333 56999 58007 70012 84616 88459=
41958,2023,09,29,21,00,AAXX 29214 41958 21435 80000 10264 20260 30009 40011 76162 8542/ 333 56999 59019 6005/ 70058 84616 88459=
41958,2023,09,30,00,00,AAXX 30004 41958 11450 81601 10262 20260 30012 40014 60217 76166 8532/ 333 56399 59018 70218 84616 81930 88459=
41958,2023,09,30,03,00,AAXX 30034 41958 21457 61203 10288 20270 30033 40035 70162 85410 333 20256 56390 59016 6003/ 70246 84616 86459=
41958,2023,09,30,06,00,AAXX 30064 41958 11457 60903 10310 20260 30020 40022 60036 70162 85410 333 56390 59024 70246 84616 86459=
41958,2023,09,30,09,00,AAXX 30094 41958 21456 80903 10290 20280 30000 40002 76122 8532/ 333 56399 59016 6001/ 70244 84616 81930 88459=
41958,2023,09,30,12,00,AAXX 30124 41958 11450 81604 10290 20270 39999 40001 60015 70262 8542/ 333 10320 56399 59012 70244 84616 88459=
41958,2023,09,30,15,00,AAXX 30154 41958 32440 81601 10280 20260 30025 40027 8542/ 333 56399 59006 70244 84616 88459=
41958,2023,09,30,18,00,AAXX 30184 41958 32430 81601 10271 20260 30031 40033 8542/ 333 56399 59008 70244 84616 88459=
41958,2023,09,30,21,00,AAXX 30214 41958 21430 81601 10269 20260 30013 40015 76162 8542/ 333 56399 58004 6993/ 70201 84616 88459=
41958,2023,10,01,00,00,AAXX 01004 41958 11450 81601 10266 20266 30016 40018 60017 70262 8542/ 333 56499 58004 70048 84616 88459=
41958,2023,10,01,03,00,AAXX 01034 41958 32457 50901 10308 20270 30025 40027 85400 333 20260 56300 59008 70018 84617=
41958,2023,10,01,09,00,AAXX 01094 41958 32458 61601 10313 20270 30004 40006 85410 333 56390 58004 70011 84616 86459=
41958,2023,10,01,12,00,AAXX 01124 41958 32456 41601 10280 20260 30009 40011 84400 333 10330 56300 58010 70011 83617=
41958,2023,10,01,18,00,AAXX 01184 41958 32440 61601 10270 20270 30040 40042 85410 333 56390 58009 70011 84616 86459=
41958,2023,10,01,21,00,AAXX 01214 41958 32440 60901 10267 20260 30020 40022 85410 333 56390 58007 70008 84616 86459=
41958,2023,10,02,00,00,AAXX 02004 41958 11450 80902 10264 20260 30023 40025 60037 76162 8542/ 333 56399 58007 70033 84616 88459=
41958,2023,10,02,03,00,AAXX 02034 41958 21450 80000 10266 20260 30049 40051 76166 8542/ 333 20256 56399 58024 6020/ 70233 84616 88459=
41958,2023,10,02,06,00,AAXX 02064 41958 11456 81601 10276 20270 30049 40051 60519 76166 8542/ 333 56399 58018 70538 84616 88459=
41958,2023,10,02,09,00,AAXX 02094 41958 21450 80801 10282 20260 30021 40023 76166 8542/ 333 56299 58017 6001/ 70548 84616 88458=
41958,2023,10,02,12,00,AAXX 02124 41958 11450 80000 10282 20270 30020 40022 60015 70262 8542/ 333 10290 56999 58011 70548 84616 88458=
41958,2023,10,02,15,00,AAXX 02154 41958 32450 81701 10274 20260 30044 40046 8442/ 333 56499 58015 70548 84646 88458=
41958,2023,10,02,18,00,AAXX 02184 41958 32440 80000 10270 20270 30044 40046 8442/ 333 56999 58004 70548 84616 88458=
41958,2023,10,02,21,00,AAXX 02214 41958 32440 80000 10268 20268 30035 40037 8442/ 333 56999 58015 70548 84616 88458=
41958,2023,10,03,00,00,AAXX 03004 41958 32450 50000 10267 20267 30033 40035 83410 333 56990 58010 70516 83616 84459=
41958,2023,10,03,03,00,AAXX 03034 41958 32450 81301 10283 20270 30064 40066 8542/ 333 20260 56399 58015 70316 84616 88458=
41958,2023,10,03,06,00,AAXX 03064 41958 11430 80000 10268 20260 30059 40061 60126 76162 8542/ 333 56999 58010 70130 84616 88458=
41958,2023,10,03,09,00,AAXX 03094 41958 21430 80000 10268 20260 30046 40048 76162 8542/ 333 56999 58025 6016/ 70280 84616 88458=
41958,2023,10,03,12,00,AAXX 03124 41958 11440 81302 10272 20270 30035 40037 60185 70262 8542/ 333 10308 58015 70300 84616 88458=
41958,2023,10,03,15,00,AAXX 03154 41958 21430 81301 10268 20268 30061 40063 76162 8542/ 333 56399 58017 6001/ 70310 84616 88458=
41958,2023,10,03,18,00,AAXX 03184 41958 11430 81301 10266 20266 30046 40048 60114 76166 8542/ 333 56399 58002 70410 84616 88458=
41958,2023,10,03,21,00,AAXX 03214 41958 21430 81301 10264 20260 30037 40039 76166 8542/ 333 56399 58002 6011/ 70520 84616 88458=
41958,2023,10,04,00,00,AAXX 04004 41958 11430 81301 10263 20260 30035 40037 60189 76166 8542/ 333 56399 58002 70590 84616 88458=
41958,2023,10,04,03,00,AAXX 04034 41958 21430 81301 10267 20267 30062 40064 76166 8542/ 333 20258 56399 59002 6012/ 70710 84616 88458=
41958,2023,10,04,06,00,AAXX 04064 41958 11430 81301 10260 20260 30051 40053 60309 76166 8542/ 333 56399 59008 70770 84616 88458=
41958,2023,10,04,09,00,AAXX 04094 41958 21450 81302 10280 20260 30028 40030 70262 8542/ 333 56399 59018 6001/ 70620 84616 88458=
41958,2023,10,04,12,00,AAXX 04124 41958 11430 81302 10264 20260 30032 40034 60083 76162 8542/ 333 10280 56399 59003 70670 84616 88458=
41958,2023,10,04,15,00,AAXX 04154 41958 21440 81302 10270 20270 30052 40054 70262 8542/ 333 56399 59009 6012/ 70780 84616 88458=
41958,2023,10,04,21,00,AAXX 04214 41958 32440 81301 10272 20270 30030 40032 8542/ 333 56399 59005 70570 84616 88458=
41958,2023,10,05,00,00,AAXX 05004 41958 32440 81301 10283 20270 30028 40030 8542/ 333 56399 59007 70500 84616 88458=
41958,2023,10,05,03,00,AAXX 05034 41958 32450 81702 10310 20280 30050 40052 8542/ 333 20258 56499 59012 70380 84616 88458=
41958,2023,10,05,06,00,AAXX 05064 41958 11450 81702 10297 20290 30034 40036 60176 70262 8542/ 333 56499 59017 70370 84616 88458=
41958,2023,10,05,09,00,AAXX 05094 41958 32456 61705 10315 20280 30008 40010 83410 333 56490 59020 70360 83616 85459=
41958,2023,10,05,12,00,AAXX 05124 41958 32450 81702 10295 20280 30013 40015 8442/ 333 10317 56499 59019 70290 84616 88458=
41958,2023,10,05,15,00,AAXX 05154 41958 32450 81304 10285 20280 30044 40046 8542/ 333 56399 59008 70170 84616 88458=
41958,2023,10,05,18,00,AAXX 05184 41958 32440 81302 10283 20280 30023 40025 8542/ 333 56399 58006 70170 84616 88458=
41958,2023,10,05,21,00,AAXX 05214 41958 32440 81301 10280 20280 30026 40028 8542/ 333 56399 59004 70170 84616 88458=
41960,2023,09,29,00,00,AAXX 29004 41960 02450 80000 10280 20250 30027 40029 8342/ 333 59025 70000 82618 88459==
41960,2023,09,29,03,00,AAXX 29034 41960 02450 80000 10286 20280 30059 40061 8542/ 333 20276 59003 70000 83617 88458==
41960,2023,09,29,06,00,AAXX 29064 41960 01450 80000 10274 20260 30054 40055 71796 8592/ 333 58004 70210 84616 88458 81929==
41960,2023,09,29,09,00,AAXX 29094 41960 01320 81802 10275 20270 30028 40029 76396 8572/ 333 58011 70244 82709 84615 88458==
41960,2023,09,29,12,00,AAXX 29124 41960 21440 80000 10277 20270 30024 40026 70296 8542/ 333 10293 59002 60058 70262 84617 88459==
41960,2023,09,29,15,00,AAXX 29154 41960 02440 70000 10274 20260 30044 40045 85410 333 59009 70262 84618 87459==
41960,2023,09,29,18,00,AAXX 29184 41960 02440 60000 10274 20260 30046 40047 84411 333 59007 70262 83618 86459==
41960,2023,09,29,21,00,AAXX 29214 41960 02440 80000 10270 20270 30039 40040 8542/ 333 58005 70262 84616 83822 88459==
41960,2023,09,30,00,00,AAXX 30004 41960 21440 80000 10262 20260 30031 40033 72162 8532/ 333 58004 60037 70287 83616 88459 81929==
41960,2023,09,30,03,00,AAXX 30034 41960 01450 61202 10298 20290 30051 40052 70162 85410 333 20258 59008 70315 83617 83822 86459==
41960,2023,09,30,06,00,AAXX 30064 41960 01450 62708 10315 20280 30042 40044 72162 84411 333 59012 70159 83618 86459==
41960,2023,09,30,09,00,AAXX 30094 41960 01330 81307 10290 20280 30018 40020 76166 8672/ 333 59010 70139 82709 84614 88459==
41960,2023,09,30,12,00,AAXX 30124 41960 21330 81802 10280 20270 30021 40022 76166 8672/ 333 10316 59003 60049 70149 82708 84614 88458==
41960,2023,09,30,15,00,AAXX 30154 41960 01430 80000 10270 20270 30050 40051 72166 8542/ 333 58006 70241 84616 88459==
41960,2023,09,30,18,00,AAXX 30184 41960 01430 80000 10268 20268 30046 40048 70262 8542/ 333 58000 70257 84617 88459==
41960,2023,09,30,21,00,AAXX 30214 41960 01440 80000 10265 20265 30041 40043 70262 8542/ 333 58002 70287 83617 88459==
41960,2023,10,01,00,00,AAXX 01004 41960 11440 30000 10268 20268 30035 40037 60036 70562 82401 333 58004 70262 81618 83078==
41960,2023,10,01,03,00,AAXX 01034 41960 02450 60902 10302 20280 30046 40047 85410 333 20261 59005 70234 83617 83822 86459==
41960,2023,10,01,09,00,AAXX 01094 41960 01456 21602 10298 20260 30019 40020 70166 82440 333 58001 70578 81618==
41960,2023,10,01,12,00,AAXX 01124 41960 11450 50000 10290 20270 30024 40025 60396 70362 84410 333 10323 58003 70550 83618 85459==
41960,2023,10,01,15,00,AAXX 01154 41960 02450 30000 10279 20270 30051 40052 82410 333 58001 70458 81618 83459==
41960,2023,10,01,18,00,AAXX 01184 41960 02440 70000 10277 20277 30051 40052 84470 333 58005 70442 83618 85459==
41960,2023,10,01,21,00,AAXX 01214 41960 01320 80000 10268 20268 30046 40048 76162 8572/ 333 58005 70502 82709 84615 88458==
41960,2023,10,02,00,00,AAXX 02004 41960 21440 40000 10270 20270 30041 40043 70562 83311 333 58006 60118 70522 82618 81929==
41960,2023,10,02,03,00,AAXX 02034 41960 02450 51302 10292 20270 30065 40066 84411 333 20265 58019 70522 83617 85459==
41960,2023,10,02,06,00,AAXX 02064 41960 21450 82704 10318 20270 30055 40057 70396 8542/ 333 58011 60027 70520 84617 88459==
41960,2023,10,02,09,00,AAXX 02094 41960 01450 60000 10278 20270 30038 40040 72166 85471 333 58019 70240 83618 85459==
41960,2023,10,02,12,00,AAXX 02124 41960 01450 30000 10284 20270 30035 40036 70162 83401 333 10320 58011 70248 82618==
41960,2023,10,02,15,00,AAXX 02154 41960 02450 60000 10279 20270 30060 40061 84411 333 58009 70248 83618 86459==
41960,2023,10,02,18,00,AAXX 02184 41960 01430 80000 10271 20270 30063 40064 72162 8542/ 333 58012 70040 84617 88458==
41960,2023,10,02,21,00,AAXX 02214 41960 02440 60000 10270 20270 30060 40062 85410 333 58014 70198 83617 86459==
41960,2023,10,03,00,00,AAXX 03004 41960 01430 50000 10270 20270 30055 40057 76162 85410 333 58014 70020 83617 85459==
41960,2023,10,03,03,00,AAXX 03034 41960 01450 80000 10272 20270 30075 40077 72166 8542/ 333 20264 58010 70350 84616 88459==
41960,2023,10,03,06,00,AAXX 03064 41960 01430 80000 10267 20260 30076 40078 76166 8542/ 333 58021 70360 84616 88459==
41960,2023,10,03,09,00,AAXX 03094 41960 01450 61603 10292 20270 30049 40050 72166 85411 333 58011 70258 83616 86459==
41960,2023,10,03,12,00,AAXX 03124 41960 01330 81801 10262 20260 30054 40056 76166 8672/ 333 10296 58019 70272 82707 84614 88458==
41960,2023,10,03,15,00,AAXX 03154 41960 01330 80000 10259 20250 30078 40080 76166 8672/ 333 58018 70292 82707 84614 88458==
41960,2023,10,03,18,00,AAXX 03184 41960 21430 80000 10270 20270 30074 40076 72166 8542/ 333 58011 60069 70294 84616 88458==
41960,2023,10,03,21,00,AAXX 03214 41960 01330 81702 10268 20268 30066 40068 76166 8572/ 333 58006 70362 82709 83616 88459==
41960,2023,10,04,00,00,AAXX 04004 41960 21330 81802 10267 20267 30058 40060 76166 8572/ 333 58003 60129 70392 82708 83616 88459==
41960,2023,10,04,03,00,AAXX 04034 41960 01430 80000 10280 20270 30078 40070 76196 8532/ 333 20263 58003 70245 83618 88459 81929==
41960,2023,10,04,06,00,AAXX 04064 41960 21420 80000 10264 20260 30074 40076 76396 8532/ 333 59002 60449 70653 83616 88458 81928==
41960,2023,10,04,09,00,AAXX 04094 41960 01210 81804 10270 20270 30056 40058 79596 8692/ 333 58007 70753 83706 84612 88458 82928==
41960,2023,10,04,12,00,AAXX 04124 41960 21430 80000 10260 20260 30057 40059 72196 8542/ 333 10283 58003 60589 71199 84614 88458==
41960,2023,10,04,15,00,AAXX 04154 41960 01430 80000 10268 20268 30073 40075 76162 8542/ 333 59005 71185 84615 88459==
41960,2023,10,04,18,00,AAXX 04184 41960 01320 81806 10260 20260 30067 40069 79596 8692/ 333 59007 71435 82706 84612 88458 81928==
41960,2023,10,04,21,00,AAXX 04214 41960 01320 80000 10258 20258 30059 40061 76196 8672/ 333 59007 71467 82708 84614 88458==
41960,2023,10,05,00,00,AAXX 05004 41960 21340 80000 10260 20260 30050 40052 70296 8662/ 333 59008 60159 71465 82709 84615 88458==
41960,2023,10,05,03,00,AAXX 05034 41960 01440 60000 10277 20270 30072 40074 70596 85470 333 20250 59006 71532 83617 85459==
41960,2023,10,05,06,00,AAXX 05064 41960 11450 61506 10308 20280 30055 40056 60076 70296 84410 333 59019 71089 83618 86459==
41960,2023,10,05,09,00,AAXX 05094 41960 02450 61807 10307 20270 30035 40036 85410 333 59021 70986 83617 83822 86459==
41960,2023,10,05,12,00,AAXX 05124 41960 02450 82504 10290 20270 30034 40035 8542/ 333 10314 59023 70518 84617 88459==
41960,2023,10,05,15,00,AAXX 05154 41960 02440 80000 10283 20270 30058 40059 8542/ 333 59015 70512 84617 88459==
41960,2023,10,05,18,00,AAXX 05184 41960 02440 80000 10282 20270 30049 40050 8542/ 333 59018 70220 84616 88458==
41960,2023,10,05,21,00,AAXX 05214 41960 01440 71802 10280 20270 30047 40049 70522 83470 333 59012 70120 82617 85460==
41963,2023,09,29,00,00,AAXX 29004 41963 21356 80000 10270 20250 30027 40030 70262 8471/ 333 59019 60015 70010 82710 83615 88458==
41963,2023,09,29,03,00,AAXX 29034 41963 02456 80000 10294 20270 30048 40051 8251/ 333 20264 59015 70010 82616 88459==
41963,2023,09,29,06,00,AAXX 29064 41963 02456 61804 10310 20280 30045 40048 82570 333 59001 70010 82617 84458==
41963,2023,09,29,09,00,AAXX 29094 41963 02/56 42104 10304 20260 30017 40020 84030 333 58001 70010 84363==
41963,2023,09,29,12,00,AAXX 29124 41963 01456 80000 10285 20270 30020 40023 72122 8351/ 333 10310 58005 70010 83616 88458==
41963,2023,09,29,15,00,AAXX 29154 41963 02/50 30000 10280 20270 30045 40048 83030 333 58009 70020 83363==
41963,2023,09,29,18,00,AAXX 29184 41963 NIL=
41963,2023,09,29,21,00,AAXX 29214 41963 02450 70000 10275 20270 30040 40043 83570 333 58008 70020 83617 84458==
41963,2023,09,30,00,00,AAXX 30004 41963 01456 71803 10260 20260 30039 40042 72162 83570 333 58012 70080 83616 84458==
41963,2023,09,30,03,00,AAXX 30034 41963 01456 61306 10290 20270 30058 40061 72122 84570 333 20255 58010 70094 84616 83458==
41963,2023,09,30,06,00,AAXX 30064 41963 01456 61606 10300 20260 30051 40054 70262 83530 333 58006 70098 83616 84363==
41963,2023,09,30,09,00,AAXX 30094 41963 01456 61803 10290 20260 30028 40031 70262 83570 333 58011 70100 83616 83458==
41963,2023,09,30,12,00,AAXX 30124 41963 NIL=
41963,2023,09,30,15,00,AAXX 30154 41963 01456 50000 10285 20260 30030 40033 70162 83530 333 10307 58010 70110 83617 83362==
41963,2023,09,30,18,00,AAXX 30184 41963 NIL=
41963,2023,09,30,21,00,AAXX 30214 41963 02450 61603 10283 20260 30048 40051 83570 333 58008 70110 83616 84458==
41963,2023,10,01,00,00,AAXX 01004 41963 21456 40000 10270 20270 30037 40040 70162 83530 333 59002 60067 70070 83616 83363==
41963,2023,10,01,03,00,AAXX 01034 41963 02456 41303 10300 20270 30051 40054 84400 333 20257 59007 70086 82618 83825==
41963,2023,10,01,09,00,AAXX 01094 41963 02456 31603 10310 20270 30023 40026 83400 333 59005 70080 82618==
41963,2023,10,01,12,00,AAXX 01124 41963 02456 30000 10290 20270 30034 40037 81560 333 10315 58004 70060 81618 83363==
41963,2023,10,01,15,00,AAXX 01154 41963 02450 40000 10280 20270 30055 40058 82540 333 58000 70060 82618 84363==
41963,2023,10,01,18,00,AAXX 01184 41963 02/50 30000 10275 20260 30056 40059 83030 333 58006 70060 83363==
41963,2023,10,01,21,00,AAXX 01214 41963 01450 60000 10267 20267 30054 40057 72162 83570 333 58006 70120 83616 84458==
41963,2023,10,02,00,00,AAXX 02004 41963 01356 80000 10260 20260 30051 40054 70362 8471/ 333 58014 70150 82710 83615 88459==
41963,2023,10,02,03,00,AAXX 02034 41963 02456 40000 10293 20260 30069 40072 82530 333 20254 58018 70150 82618 84363==
41963,2023,10,02,06,00,AAXX 02064 41963 02456 31303 10310 20270 30062 40064 83500 333 58009 70150 83617==
41963,2023,10,02,09,00,AAXX 02094 41963 02456 42002 10310 20270 30039 40042 82560 333 58016 70150 82618 83362==
41963,2023,10,02,12,00,AAXX 02124 41963 02456 31802 10290 20260 30039 40042 83500 333 10314 58005 70150 83618==
41963,2023,10,02,15,00,AAXX 02154 41963 02450 21603 10288 20250 30067 40070 82500 333 58012 70150 82618==
41963,2023,10,02,21,00,AAXX 02214 41963 02456 61302 10280 20260 30065 40068 83530 333 58011 70090 83617 84458==
41963,2023,10,03,00,00,AAXX 03004 41963 21356 70000 10270 20260 30059 40062 70362 84770 333 58008 60135 70130 82710 83615 84458==
41963,2023,10,03,03,00,AAXX 03034 41963 01356 80000 10258 20258 30080 40083 76166 8472/ 333 20245 58011 70720 82708 83614 88457==
41963,2023,10,03,06,00,AAXX 03064 41963 21256 80000 10255 20255 30076 40079 76166 8572/ 333 58014 61079 71200 82707 83614 88457==
41963,2023,10,03,09,00,AAXX 03094 41963 01456 80000 10260 20258 30055 40058 72166 8462/ 333 58016 71280 84615 88458==
41963,2023,10,03,12,00,AAXX 03124 41963 01350 81603 10260 20260 30064 40067 76262 8472/ 333 10266 58025 71340 82708 83614 88457==
41963,2023,10,03,15,00,AAXX 03154 41963 01350 80000 10270 20260 30087 40090 72162 8472/ 333 58020 71350 82709 83614 88458==
41963,2023,10,03,18,00,AAXX 03184 41963 11350 80000 10270 20260 30080 40083 60011 70262 8472/ 333 58013 71350 82709 83615 88458==
41963,2023,10,03,21,00,AAXX 03214 41963 02350 80000 10268 20260 30076 40079 8572/ 333 58011 71350 82709 83615 88458==
41963,2023,10,04,00,00,AAXX 04004 41963 01356 81302 10260 20260 30067 40070 72196 8572/ 333 58008 70160 82708 83614 88458==
41963,2023,10,04,03,00,AAXX 04034 41963 01356 81303 10280 20260 30084 40087 70262 8472/ 333 20247 58004 70800 82709 83615 88458==
41963,2023,10,04,06,00,AAXX 04064 41963 11456 71304 10290 20270 30084 40087 60016 70162 84670 333 58008 70320 84616 85458==
41963,2023,10,04,09,00,AAXX 04094 41963 01456 81603 10255 20255 30062 40065 76166 8462/ 333 58007 70460 84615 88458==
41963,2023,10,04,12,00,AAXX 04124 41963 21456 81302 10265 20250 30060 40063 70262 8362/ 333 10290 59004 60238 70410 83616 88458==
41963,2023,10,04,15,00,AAXX 04154 41963 02350 81602 10277 20270 30082 40085 8472/ 333 59005 70400 82710 83615 88458==
41963,2023,10,04,18,00,AAXX 04184 41963 01356 81303 10272 20260 30070 40073 70262 8472/ 333 59010 70010 82710 83615 88458==
41963,2023,10,04,21,00,AAXX 04214 41963 02350 81802 10270 20270 30066 40069 8472/ 333 59010 70410 82710 83615 88458==
41963,2023,10,05,00,00,AAXX 05004 41963 21356 81803 10268 20260 30056 40059 70262 8472/ 333 59011 60345 70590 82709 83614 88458==
41963,2023,10,05,03,00,AAXX 05034 41963 01256 80000 10269 20269 30077 40080 72166 8472/ 333 59007 70850 82707 83614 88458==
41963,2023,10,05,06,00,AAXX 05064 41963 21456 41804 10307 20270 30059 40062 70162 84400 333 59025 60278 70850 83618==
41963,2023,10,05,09,00,AAXX 05094 41963 02456 61802 10300 20270 30038 40041 84530 333 59024 70630 84617 84363==
41963,2023,10,05,12,00,AAXX 05124 41963 02456 41803 10285 20270 30039 40042 84500 333 10310 59021 70620 84617==
41963,2023,10,05,15,00,AAXX 05154 41963 02450 82102 10284 20270 30064 40067 8352/ 333 59018 70620 83616 88458==
41963,2023,10,05,18,00,AAXX 05184 41963 NIL=
41963,2023,10,05,21,00,AAXX 05214 41963 02450 70000 10277 20277 30054 40057 83570 333 59012 70610 83616 84458==
41964,2023,09,29,00,00,AAXX 29004 41964 01356 80501 10265 20263 30022 40025 70296 8562/ 333 59017 70003 83709 83617 88460==
41964,2023,09,29,03,00,AAXX 29034 41964 02457 81401 10300 20270 30046 40049 8552/ 333 20256 59008 70003 85617 88460==
41964,2023,09,29,06,00,AAXX 29064 41964 02457 60000 10320 20270 30042 40044 84510 333 58013 70003 84618 86460==
41964,2023,09,29,09,00,AAXX 29094 41964 02457 63601 10320 20280 30017 40019 84510 333 58000 70003 84618 86460==
41964,2023,09,29,12,00,AAXX 29124 41964 01330 80000 10285 20270 30018 40021 79596 8632/ 333 10326 58013 70030 84708 83616 88458 81928==
41964,2023,09,29,15,00,AAXX 29154 41964 01440 80000 10285 20270 30047 40049 70296 8452/ 333 58018 70035 84618 88460==
41964,2023,09,29,18,00,AAXX 29184 41964 21440 80000 10283 20270 30055 40058 70296 8452/ 333 58027 69945 70035 84618 88460==
41964,2023,09,29,21,00,AAXX 29214 41964 02450 81405 10281 20270 30047 40050 8452/ 333 58022 70035 84618 88460==
41964,2023,09,30,00,00,AAXX 30004 41964 02456 81406 10280 20250 30043 40046 8552/ 333 58021 70032 85617 88460==
41964,2023,09,30,03,00,AAXX 30034 41964 02457 71407 10295 20260 30056 40059 84510 333 58010 70032 84617 85460==
41964,2023,09,30,06,00,AAXX 30064 41964 02457 71306 10315 20280 30059 40062 84510 333 58017 70032 84618 85460==
41964,2023,09,30,09,00,AAXX 30094 41964 01458 31407 10310 20250 30029 40032 70162 83500 333 58012 70033 83618==
41964,2023,09,30,12,00,AAXX 30124 41964 11357 71402 10290 20260 30026 40029 69916 70362 85610 333 10326 58008 70005 83709 83617 85460==
41964,2023,09,30,15,00,AAXX 30154 41964 02457 30000 10287 20260 30063 40066 83500 333 58016 70001 83620==
41964,2023,09,30,18,00,AAXX 30184 41964 NIL=
41964,2023,09,30,21,00,AAXX 30214 41964 02450 61403 10280 20260 30042 40045 84510 333 59005 70001 84618 84460==
41964,2023,10,01,00,00,AAXX 01004 41964 02356 81403 10275 20270 30035 40038 8562/ 333 59008 70001 83709 83617 88459==
41964,2023,10,01,03,00,AAXX 01034 41964 02458 21406 10310 20260 30046 40049 82500 333 20260 59010 70001 82618==
41964,2023,10,01,09,00,AAXX 01094 41964 02458 41405 10317 20260 30016 40018 83510 333 59013 70000 83618 83460==
41964,2023,10,01,12,00,AAXX 01124 41964 02357 61402 10295 20270 30022 40024 84610 333 10328 59004 70000 82709 83617 84460==
41964,2023,10,01,15,00,AAXX 01154 41964 02356 81402 10285 20270 30048 40050 8662/ 333 59015 70000 84709 83617 88459==
41964,2023,10,01,21,00,AAXX 01214 41964 01335 81403 10270 20263 30050 40053 72996 8632/ 333 58008 70230 84708 83616 88458 81928==
41964,2023,10,02,00,00,AAXX 02004 41964 21350 82301 10268 20260 30047 40050 70296 8662/ 333 58012 60238 70230 84709 83617 88459==
41964,2023,10,02,03,00,AAXX 02034 41964 02457 51405 10311 20270 30065 40068 83501 333 20254 58019 70230 83618 83080==
41964,2023,10,02,06,00,AAXX 02064 41964 02457 71406 10318 20260 30056 40058 84511 333 58013 70230 84618 83460==
41964,2023,10,02,09,00,AAXX 02094 41964 02457 72304 10309 20250 30034 40036 85510 333 58018 70230 85617 86459==
41964,2023,10,02,12,00,AAXX 02124 41964 02456 71402 10281 20260 30039 40041 85510 333 10326 58017 70230 85617 86459==
41964,2023,10,02,15,00,AAXX 02154 41964 02456 71405 10280 20260 30062 40065 86510 333 58014 70230 86618 86460==
41964,2023,10,02,21,00,AAXX 02214 41964 02450 71405 10272 20260 30058 40061 84510 333 58008 70000 84618 85460==
41964,2023,10,03,00,00,AAXX 03004 41964 02356 71405 10270 20250 30055 40058 85610 333 58008 70000 83709 83618 86460==
41964,2023,10,03,03,00,AAXX 03034 41964 01350 82304 10265 20260 30080 40083 76122 8672/ 333 20258 58015 70026 84708 83616 88458==
41964,2023,10,03,06,00,AAXX 03064 41964 21330 81403 10251 20250 30076 40078 76362 8772/ 333 58020 60217 70210 85707 83615 88458==
41964,2023,10,03,09,00,AAXX 03094 41964 01335 81403 10260 20260 30053 40055 76166 8772/ 333 58019 70390 85707 83614 88458==
41964,2023,10,03,12,00,AAXX 03124 41964 21350 80000 10265 20260 30061 40063 70262 8662/ 333 10285 58022 60198 70400 83709 83617 88459==
41964,2023,10,03,15,00,AAXX 03154 41964 01456 61704 10260 20250 30084 40086 70162 83510 333 58022 70416 83618 84460==
41964,2023,10,03,18,00,AAXX 03184 41964 NIL=
41964,2023,10,03,21,00,AAXX 03214 41964 02356 81404 10255 20250 30078 40080 8562/ 333 58020 70416 83709 83617 88459==
41964,2023,10,04,00,00,AAXX 04004 41964 01340 81403 10255 20250 30069 40071 76122 8672/ 333 58014 70030 84708 83616 88458==
41964,2023,10,04,03,00,AAXX 04034 41964 01456 71407 10288 20260 30082 40084 70162 84510 333 20245 58002 70438 84618 85460==
41964,2023,10,04,06,00,AAXX 04064 41964 11357 81606 10307 20270 30072 40074 60026 70362 8462/ 333 59004 70254 83709 82618 88460==
41964,2023,10,04,09,00,AAXX 04094 41964 01340 81404 10260 20258 30060 40062 76162 8672/ 333 58007 70212 84708 83616 88458==
41964,2023,10,04,12,00,AAXX 04124 41964 21345 81403 10260 20260 30061 40063 70262 8562/ 333 10309 58000 60178 70232 83709 83617 88459==
41964,2023,10,04,15,00,AAXX 04154 41964 02450 71402 10269 20267 30079 40081 84510 333 59005 70216 84618 84460==
41964,2023,10,04,21,00,AAXX 04214 41964 01330 81805 10261 20260 30071 40073 76322 8672/ 333 59007 70286 84708 84616 88458==
41964,2023,10,05,00,00,AAXX 05004 41964 21325 82007 10263 20260 30061 40063 76362 8772/ 333 59008 60277 70454 84707 84615 88458==
41964,2023,10,05,03,00,AAXX 05034 41964 01340 81405 10269 20269 30075 40077 76166 8772/ 333 20243 59007 70718 84707 84615 88457==
41964,2023,10,05,06,00,AAXX 05064 41964 21350 81406 10268 20266 30056 40058 76166 8762/ 333 59016 60589 84708 84616 88459==
41964,2023,10,05,12,00,AAXX 05124 41964 01456 81804 10278 20270 30034 40036 70362 8552/ 333 10304 59027 70010 85617 88459==
41964,2023,10,05,15,00,AAXX 05154 41964 01330 82007 10272 20270 30061 40063 76322 8772/ 333 59018 71044 84707 84615 88457==
41964,2023,10,05,18,00,AAXX 05184 41964 21330 81802 10270 20260 30049 40051 70262 8772/ 333 59037 60238 71202 84707 84618 88458==
41964,2023,10,05,21,00,AAXX 05214 41964 41340 81805 10272 20270 30046 40048 59025 71024 88459==
41965,2023,09,29,00,00,AAXX 29004 41965 11440 80000 10255 20220 30025 40033 60086 70262 8461/ 333 59017 70180 81710 83618 88460==
41965,2023,09,29,03,00,AAXX 29034 41965 02440 81801 10298 20240 30050 40058 8431/ 333 20235 59006 70180 83618 88460 81928==
41965,2023,09,29,06,00,AAXX 29064 41965 02450 81402 10320 20240 30036 40045 8431/ 333 59003 70180 83618 88460 81928==
41965,2023,09,29,09,00,AAXX 29094 41965 02456 80000 10320 20240 30009 40018 8461/ 333 58004 70180 81710 83618 88460==
41965,2023,09,29,12,00,AAXX 29124 41965 01430 80000 10285 20250 30016 40024 79796 8461/ 333 10340 58013 70050 81710 83618 88460==
41965,2023,09,29,15,00,AAXX 29154 41965 02430 80000 10270 20230 30047 40055 8461/ 333 58014 70230 81710 83618 88460==
41965,2023,09,29,18,00,AAXX 29184 41965 NIL=
41965,2023,09,30,00,00,AAXX 30004 41965 02440 30000 10265 20230 30049 40058 83600 333 58024 70000 83618==
41965,2023,09,30,03,00,AAXX 30034 41965 02450 61002 10295 20230 30064 40072 84410 333 20255 58008 70050 83618 83360==
41965,2023,09,30,06,00,AAXX 30064 41965 02456 61402 10310 20210 30051 40060 84410 333 58015 70050 83618 83360==
41965,2023,09,30,09,00,AAXX 30094 41965 02456 62204 10320 20220 30027 40035 84410 333 58018 70050 83618 83360==
41965,2023,09,30,12,00,AAXX 30124 41965 01440 80000 10345 20240 30032 40041 70362 8461/ 333 58016 70020 83618 88460==
41965,2023,09,30,15,00,AAXX 30154 41965 02440 60000 10265 20230 30054 40063 84410 333 58007 70020 83618 83360==
41965,2023,09,30,18,00,AAXX 30184 41965 NIL=
41965,2023,09,30,21,00,AAXX 30214 41965 01440 30000 10270 20220 30037 40046 70542 83600 333 59010 70020 83618==
41965,2023,10,01,00,00,AAXX 01004 41965 01440 30000 10260 20230 30040 40049 70542 83600 333 59009 70020 83618==
41965,2023,10,01,03,00,AAXX 01034 41965 02456 31402 10310 20255 30049 40058 83600 333 59015 70020 83618==
41965,2023,10,01,09,00,AAXX 01094 41965 02456 30000 10325 20230 30014 40023 83600 333 59013 70020 83618==
41965,2023,10,01,12,00,AAXX 01124 41965 02440 80000 10345 20230 30028 40037 8431/ 333 59004 70000 83618 88460 81928==
41965,2023,10,02,00,00,AAXX 02004 41965 02440 33102 10260 20210 30049 40058 83600 333 58009 70000 83618==
41965,2023,10,02,03,00,AAXX 02034 41965 02456 30000 10315 20257 30068 40077 83600 333 58019 70000 83618==
41965,2023,10,02,06,00,AAXX 02064 41965 02440 80000 10300 20220 30056 40065 8461/ 333 58010 70000 83618 88460==
41965,2023,10,02,09,00,AAXX 02094 41965 02440 80000 10305 20230 30035 40044 8431/ 333 58021 70000 83618 88460 81928==
41965,2023,10,02,12,00,AAXX 02124 41965 02440 81402 10332 20230 30041 40050 8431/ 333 58013 70000 83618 88460 81928==
41965,2023,10,03,00,00,AAXX 03004 41965 01440 30000 10260 20210 30050 40059 70542 83600 333 58001 70000 83618==
41965,2023,10,03,03,00,AAXX 03034 41965 02440 81402 10285 20254 30082 40091 8461/ 333 58014 70000 83618 88460==
41965,2023,10,03,06,00,AAXX 03064 41965 NIL=
41965,2023,10,03,09,00,AAXX 03094 41965 01440 81402 10260 20230 30057 40066 76162 8461/ 333 58022 70160 81710 83618 88460==
41965,2023,10,03,12,00,AAXX 03124 41965 21440 80000 10315 20210 30067 40076 72161 8461/ 333 58026 60188 70180 81710 83618 88460==
41965,2023,10,03,18,00,AAXX 03184 41965 NIL=
41965,2023,10,04,00,00,AAXX 04004 41965 02440 50000 10265 20210 30073 40082 84410 333 58023 70180 83618 84460==
41965,2023,10,04,03,00,AAXX 04034 41965 02450 53102 10300 20252 30086 40095 84410 333 58003 70180 83618 84460==
41965,2023,10,04,06,00,AAXX 04064 41965 02456 51402 10315 20210 30074 40083 84410 333 59002 70180 83618 84460==
41965,2023,10,04,09,00,AAXX 04094 41965 01440 81403 10235 20220 30065 40074 76162 8461/ 333 58008 70130 81710 83618 88456==
41965,2023,10,04,12,00,AAXX 04124 41965 21440 80000 10330 20220 30066 40075 72160 8461/ 333 59001 60138 70130 81710 83618 88460==
41965,2023,10,05,00,00,AAXX 05004 41965 01440 80000 10255 20230 30067 40076 76162 8461/ 333 58006 70020 81710 83618 88456==
41965,2023,10,05,03,00,AAXX 05034 41965 01440 80000 10260 20250 30081 40090 76162 8461/ 333 59005 70290 81710 83618 88456==
41965,2023,10,05,06,00,AAXX 05064 41965 21440 81403 10265 20240 30067 40076 76662 8461/ 333 59007 60209 70350 81710 83618 88456==
41965,2023,10,05,09,00,AAXX 05094 41965 01450 81304 10275 20240 30036 40045 72166 8461/ 333 59029 70450 81710 83618 88460==
41965,2023,10,05,12,00,AAXX 05124 41965 21440 80000 10300 20230 30042 40051 70262 8461/ 333 59024 60217 70430 81710 83618 88460==
41965,2023,10,05,18,00,AAXX 05184 41965 NIL=
41966,2023,09,29,00,00,AAXX 29004 41966 02430 70000 10260 20230 39958 40037 83510 333 59020 70186 83616 86460==
41966,2023,09,29,03,00,AAXX 29034 41966 02450 60000 10315 20260 39982 40060 83510 333 20248 59004 70186 83616 85460==
41966,2023,09,29,06,00,AAXX 29064 41966 02450 50000 10325 20250 39978 40054 82510 333 59003 70186 82616 84460==
41966,2023,09,29,09,00,AAXX 29094 41966 01450 60000 10300 20270 39951 40028 72162 83510 333 58005 70236 83616 85460==
41966,2023,09,29,12,00,AAXX 29124 41966 01440 70901 10265 20250 39956 40035 72162 83510 333 10330 58027 70248 83616 86460==
41966,2023,09,29,15,00,AAXX 29154 41966 02420 71201 10265 20250 39964 40042 83510 333 58015 70248 83616 86460==
41966,2023,09,29,18,00,AAXX 29184 41966 NIL=
41966,2023,09,29,21,00,AAXX 29214 41966 02420 50000 10258 20240 39969 40048 82510 333 58006 70088 82616 84460==
41966,2023,09,30,00,00,AAXX 30004 41966 02440 50000 10260 20240 39979 40058 82510 333 58021 70088 82616 84460==
41966,2023,09,30,03,00,AAXX 30034 41966 02450 51301 10305 20250 30000 40078 82510 333 20248 58018 70088 82616 84460==
41966,2023,09,30,06,00,AAXX 30064 41966 02450 51301 10320 20180 39990 40067 82510 333 58013 70088 82616 84460==
41966,2023,09,30,09,00,AAXX 30094 41966 02450 61801 10335 20190 39977 40053 83510 333 58025 70038 83616 85460==
41966,2023,09,30,12,00,AAXX 30124 41966 01430 60000 10278 20240 39968 40046 70262 83510 333 10340 58011 70030 83616 86460==
41966,2023,09,30,15,00,AAXX 30154 41966 02420 60000 10272 20240 39979 40058 83510 333 58016 70058 83616 85460==
41966,2023,09,30,18,00,AAXX 30184 41966 NIL=
41966,2023,09,30,21,00,AAXX 30214 41966 02420 50000 10266 20240 39973 40051 82510 333 58003 70032 82616 84460==
41966,2023,10,01,00,00,AAXX 01004 41966 02440 50000 10260 20230 39979 40058 82510 333 58000 70032 82616 84460==
41966,2023,10,01,03,00,AAXX 01034 41966 02/50 31301 10306 20210 39986 40064 83030 333 20252 59014 70032 83362==
41966,2023,10,01,09,00,AAXX 01094 41966 02450 60000 10325 20230 39959 40036 83510 333 59017 70032 83616 85460==
41966,2023,10,01,12,00,AAXX 01124 41966 01430 70000 10270 20240 39964 40043 72162 83510 333 10340 59003 70020 83616 86460==
41966,2023,10,01,15,00,AAXX 01154 41966 01420 70000 10265 20250 39975 40054 72166 83510 333 59004 70046 83616 86460==
41966,2023,10,01,21,00,AAXX 01214 41966 02420 60000 10260 20230 39975 40054 83510 333 58003 70046 83616 85460==
41966,2023,10,02,00,00,AAXX 02004 41966 02440 60000 10255 20230 39983 40062 83510 333 58004 70046 83616 85460==
41966,2023,10,02,03,00,AAXX 02034 41966 02450 61301 10300 20210 30001 40079 83510 333 20250 58015 70046 83616 85460==
41966,2023,10,02,06,00,AAXX 02064 41966 02450 41301 10320 20190 39990 40067 82510 333 58010 70046 82616 85460==
41966,2023,10,02,09,00,AAXX 02094 41966 02450 41801 10315 20230 39978 40055 82510 333 58019 70046 82616 83460==
41966,2023,10,02,12,00,AAXX 02124 41966 01440 60000 10270 20240 39972 40051 72122 83510 333 10325 58008 70010 83616 85460==
41966,2023,10,02,21,00,AAXX 02214 41966 02420 50000 10262 20230 39993 40072 82510 333 58018 70010 82616 84460==
41966,2023,10,03,00,00,AAXX 03004 41966 02440 50000 10260 20230 39994 40073 82510 333 58011 70010 82616 84460==
41966,2023,10,03,03,00,AAXX 03034 41966 02450 61801 10295 20210 30029 40107 83510 333 20248 58028 70010 83616 85460==
41966,2023,10,03,06,00,AAXX 03064 41966 01450 72001 10275 20240 30012 40090 72162 83510 333 58023 70004 83616 86460==
41966,2023,10,03,09,00,AAXX 03094 41966 01340 81301 10255 20230 30003 40082 76162 8472/ 333 58027 70026 82709 83615 88460==
41966,2023,10,03,12,00,AAXX 03124 41966 21430 60000 10260 20230 39998 40077 70162 83510 333 10310 58026 60037 70036 83616 85460==
41966,2023,10,03,15,00,AAXX 03154 41966 02420 60000 10260 20230 30002 40081 83510 333 58023 70036 83616 85460==
41966,2023,10,03,18,00,AAXX 03184 41966 02420 60000 10260 20230 30011 40090 83510 333 58017 70036 83616 85460==
41966,2023,10,03,21,00,AAXX 03214 41966 02420 60000 10260 20230 30012 40091 83510 333 58019 70036 83616 85460==
41966,2023,10,04,00,00,AAXX 04004 41966 02440 60000 10262 20230 30014 40094 83510 333 58021 70036 83616 85460==
41966,2023,10,04,03,00,AAXX 04034 41966 02450 41301 10306 20200 30021 40099 82510 333 20254 59008 70036 82616 83460==
41966,2023,10,04,06,00,AAXX 04064 41966 02450 62001 10310 20200 30009 40087 83510 333 59003 70032 83616 85460==
41966,2023,10,04,09,00,AAXX 04094 41966 01450 72401 10285 20250 30010 40088 70362 83510 333 58006 70056 83616 83460==
41966,2023,10,04,12,00,AAXX 04124 41966 11430 70000 10266 20240 30001 40080 60041 70262 83510 333 10320 58003 70036 83616 86460==
41966,2023,10,04,15,00,AAXX 04154 41966 02420 70000 10265 20240 30007 40086 83510 333 58005 70036 83616 86460==
41966,2023,10,04,21,00,AAXX 04214 41966 02420 50000 10265 20240 30004 40083 82510 333 59008 70036 82616 84460==
41966,2023,10,05,00,00,AAXX 05004 41966 02440 50000 10270 20240 39996 40075 82510 333 59019 70036 82616 84460==
41966,2023,10,05,03,00,AAXX 05034 41966 02450 71301 10275 20230 30022 40100 83510 333 20257 58001 70036 83616 86460==
41966,2023,10,05,06,00,AAXX 05064 41966 02450 70000 10295 20250 30002 40080 83510 333 59007 70036 83616 86460==
41966,2023,10,05,09,00,AAXX 05094 41966 01450 70000 10280 20250 39974 40052 72122 83510 333 59036 70010 83616 86460==
41966,2023,10,05,12,00,AAXX 05124 41966 01440 71201 10270 20240 39979 40058 72162 83510 333 10298 59022 70036 83616 86460==
41966,2023,10,05,15,00,AAXX 05154 41966 02430 70000 10268 20240 39990 40069 84510 333 59017 70036 83616 86460==
41966,2023,10,05,18,00,AAXX 05184 41966 NIL=
41966,2023,10,05,21,00,AAXX 05214 41966 02420 60000 10263 20220 39996 40075 82510 333 59008 70036 82616 85460==
41977,2023,09,29,00,00,AAXX 29004 41977 11350 80000 10265 20260 30014 40051 60006 70296 8562/ 333 59020 70010 82712 84612 88462==
41977,2023,09,29,03,00,AAXX 29034 41977 02350 80000 10295 20280 30037 40075 8562/ 333 20255 59006 70010 82712 84616 88460==
41977,2023,09,29,06,00,AAXX 29064 41977 02356 81603 10310 20280 30027 40065 8562/ 333 59002 70010 82712 84616 88460==
41977,2023,09,29,09,00,AAXX 29094 41977 02450 72704 10300 20280 30005 40042 85370 333 58011 70010 84615 85460 81928==
41977,2023,09,29,12,00,AAXX 29124 41977 21350 80000 10270 20260 30007 40045 76196 8732/ 333 10315 58017 60147 70154 83708 84615 88458 81928==
41977,2023,09,29,15,00,AAXX 29154 41977 01350 80902 10270 20270 30029 40067 75062 8572/ 333 58014 70154 82708 84615 88459==
41977,2023,09,29,18,00,AAXX 29184 41977 21456 50000 10267 20267 30029 40067 70152 82530 333 58013 60008 70144 82618 85362==
41977,2023,09,29,21,00,AAXX 29214 41977 02450 50000 10262 20250 30027 40065 82570 333 58011 70144 82618 83362==
41977,2023,09,30,00,00,AAXX 30004 41977 02350 70000 10262 20250 30024 40062 85670 333 58010 70144 82710 83515 85362==
41977,2023,09,30,03,00,AAXX 30034 41977 02456 61304 10300 20260 30052 40089 83530 333 10260 58015 70140 83618 86362==
41977,2023,09,30,06,00,AAXX 30064 41977 02456 61805 10322 20250 30040 40077 83530 333 58013 70144 83618 86362==
41977,2023,09,30,09,00,AAXX 30094 41977 02456 62204 10330 20270 30020 40057 83530 333 58015 70144 83618 86362==
41977,2023,09,30,12,00,AAXX 30124 41977 11456 80000 10298 20280 30021 40058 60006 70352 8732/ 333 10335 58014 70000 83708 84616 88258 81928==
41977,2023,09,30,15,00,AAXX 30154 41977 01456 60000 10275 20270 30040 40076 70162 83530 333 58011 70020 83618 86362==
41977,2023,09,30,18,00,AAXX 30184 41977 11456 20000 10272 20260 30034 40074 60026 70162 82500 333 58015 70020 82618==
41977,2023,09,30,21,00,AAXX 30214 41977 02450 50000 10268 20260 30032 40070 83530 333 58005 70020 83618 84362==
41977,2023,10,01,00,00,AAXX 01004 41977 02450 50000 10265 20260 30027 40065 83531 333 58003 70020 83618 83362==
41977,2023,10,01,03,00,AAXX 01034 41977 02456 41203 10310 20260 30035 40073 82530 333 20262 59017 70020 82618 83360==
41977,2023,10,01,09,00,AAXX 01094 41977 01456 52703 10322 20270 30002 40039 70162 83530 333 59018 70024 83618 85362==
41977,2023,10,01,12,00,AAXX 01124 41977 01450 72103 10298 20270 30015 40052 76162 84570 333 10335 59006 70026 84615 85460==
41977,2023,10,01,15,00,AAXX 01154 41977 01350 81202 10270 20270 30039 40077 76152 8572/ 333 59001 70026 83708 84615 88460==
41977,2023,10,01,18,00,AAXX 01184 41977 21356 70902 10269 20260 30039 40077 70162 85670 333 58005 60048 70030 82710 84616 85459==
41977,2023,10,01,21,00,AAXX 01214 41977 02350 70000 10265 20260 30038 40076 85670 333 58006 70030 82710 84616 85460==
41977,2023,10,02,00,00,AAXX 02004 41977 02450 70000 10265 20260 30036 40074 85670 333 58009 70030 82710 83616 84460==
41977,2023,10,02,03,00,AAXX 02034 41977 02450 70000 10295 20260 30055 40093 84670 333 58020 70030 82710 83617 84460==
41977,2023,10,02,06,00,AAXX 02064 41977 02456 71803 10318 20280 30054 40092 86670 333 58020 70030 82710 84616 85460==
41977,2023,10,02,09,00,AAXX 02094 41977 01350 82103 10292 20260 30027 40065 76162 8732/ 333 58025 70046 83708 84615 88458 81928==
41977,2023,10,02,12,00,AAXX 02124 41977 01450 71804 10278 20270 30032 40070 70162 85370 333 10320 58017 70092 84615 85460 81928==
41977,2023,10,02,18,00,AAXX 02184 41977 02356 71802 10265 20260 30054 40092 86570 333 58015 70068 82710 84616 86459==
41977,2023,10,02,21,00,AAXX 02214 41977 02350 71802 10265 20260 30045 40083 85670 333 58007 70068 82710 84616 85460==
41977,2023,10,03,00,00,AAXX 03004 41977 02350 70000 10265 20250 30045 40083 85670 333 58009 70068 82710 84616 85460==
41977,2023,10,03,03,00,AAXX 03034 41977 02350 71602 10288 20260 30068 40106 86670 333 20260 58013 70068 83710 84616 85460==
41977,2023,10,03,06,00,AAXX 03064 41977 02350 81902 10295 20270 30068 40106 8662/ 333 58014 70068 82710 84616 88460==
41977,2023,10,03,09,00,AAXX 03094 41977 01350 82103 10260 20260 30047 40085 76162 8732/ 333 58020 70128 83708 84615 88458 81928==
41977,2023,10,03,12,00,AAXX 03124 41977 01450 60000 10268 20260 30051 40089 70162 84530 333 10298 58019 70082 84617 86362==
41977,2023,10,03,15,00,AAXX 03154 41977 01456 70000 10265 20260 30073 40111 70362 84650 333 58022 70082 82710 84618 87460==
41977,2023,10,03,18,00,AAXX 03184 41977 11456 81802 10266 20260 30066 40104 60006 70362 8562/ 333 58012 70082 82710 85615 88460==
41977,2023,10,03,21,00,AAXX 03214 41977 02350 70000 10265 20260 30063 40101 86670 333 58014 70082 82612 84616 84460==
41977,2023,10,04,00,00,AAXX 04004 41977 02450 71802 10265 20250 30061 40099 86670 333 58016 70082 82710 84616 84460==
41977,2023,10,04,03,00,AAXX 04034 41977 02456 71203 10303 20260 30074 40112 86670 333 20250 58006 70082 82710 84616 84460==
41977,2023,10,04,06,00,AAXX 04064 41977 02456 70902 10315 20270 30055 40092 85670 333 59013 70082 82712 83616 84460==
41977,2023,10,04,09,00,AAXX 04094 41977 01350 80504 10264 20260 30051 40089 76162 8732/ 333 58004 70072 83708 84615 88458 81928==
41977,2023,10,04,12,00,AAXX 04124 41977 21350 80000 10266 20260 30052 40090 70262 8632/ 333 10318 58001 60108 70096 82708 84615 88458 81928==
41977,2023,10,04,18,00,AAXX 04184 41977 02456 21304 10265 20260 30060 40098 82500 333 59006 70096 82617==
41977,2023,10,04,21,00,AAXX 04214 41977 02450 60000 10265 20260 30052 40090 83570 333 59011 70096 83618 84460==
41977,2023,10,05,00,00,AAXX 05004 41977 02350 70000 10265 20260 30045 40083 86620 333 59016 70096 82712 84615 85460==
41977,2023,10,05,03,00,AAXX 05034 41977 01350 80000 10264 20260 30073 40112 76162 8632/ 333 20256 59001 70166 82708 84614 88458 81928==
41977,2023,10,05,06,00,AAXX 05064 41977 21350 81602 10278 20270 30055 40093 76162 8672/ 333 58000 60119 70206 82710 84616 88458==
41977,2023,10,05,09,00,AAXX 05094 41977 01350 81803 10270 20260 30028 40066 72166 8732/ 333 59023 70252 83710 84615 88458 81928==
41977,2023,10,05,12,00,AAXX 05124 41977 21450 80000 10268 20268 30029 40067 70262 8532/ 333 10280 59023 60148 70250 84615 88458 81928==
41977,2023,10,05,15,00,AAXX 05154 41977 02450 81802 10278 20270 30048 40086 8562/ 333 59017 70250 82710 84616 88460==
41977,2023,10,05,18,00,AAXX 05184 41977 02350 70000 10276 20270 30035 40073 84610 333 59025 70250 81710 84616 87460==
41977,2023,10,05,21,00,AAXX 05214 41977 02350 70000 10270 20270 30037 40075 84620 333 59015 70250 82712 84615 87460==
41978,2023,09,29,00,00,AAXX 29004 41978 01440 80000 10263 20250 30030 40037 70522 8432/ 333 59014 70040 83618 88460 81930==
41978,2023,09,29,03,00,AAXX 29034 41978 01440 80000 10290 20280 30054 40060 70522 8432/ 333 20257 59003 70040 83617 88460 81930==
41978,2023,09,29,06,00,AAXX 29064 41978 02456 61716 10310 20280 30044 40050 83320 333 58004 70040 83617 86460 81930==
41978,2023,09,29,09,00,AAXX 29094 41978 02450 72609 10308 20290 30018 40024 84320 333 58010 70040 83618 86460 81930==
41978,2023,09,29,12,00,AAXX 29124 41978 21440 81704 10271 20260 30021 40027 72162 8432/ 333 10328 58016 60197 70230 83616 88460 81928==
41978,2023,09,29,15,00,AAXX 29154 41978 02450 81204 10270 20270 30049 40055 8432/ 333 58012 70230 83616 88460 81928==
41978,2023,09,29,18,00,AAXX 29184 41978 02450 61203 10270 20260 30048 40054 83520 333 58012 70230 83618 85460==
41978,2023,09,29,21,00,AAXX 29214 41978 02450 61103 10267 20260 30042 40048 83520 333 58007 70230 83618 85460==
41978,2023,09,30,00,00,AAXX 30004 41978 02450 61004 10260 20250 30044 40050 83520 333 58007 70230 83618 86460==
41978,2023,09,30,03,00,AAXX 30034 41978 02456 61708 10298 20260 30063 40069 83520 333 20258 58009 70190 83618 85460==
41978,2023,09,30,06,00,AAXX 30064 41978 02456 61514 10313 20270 30057 40063 83520 333 58013 70190 83618 85460==
41978,2023,09,30,09,00,AAXX 30094 41978 02456 51612 10326 20280 30028 40034 82520 333 58010 70190 82618 84460==
41978,2023,09,30,12,00,AAXX 30124 41978 01440 70913 10298 20280 30029 40035 76122 84320 333 10336 58008 70010 84615 86459 81929==
41978,2023,09,30,15,00,AAXX 30154 41978 01456 41508 10275 20270 30059 40065 70162 82520 333 58010 70056 82618 83460==
41978,2023,09,30,18,00,AAXX 30184 41978 01456 41105 10272 20260 30054 40060 70262 82520 333 58006 70040 82618 83460==
41978,2023,09,30,21,00,AAXX 30214 41978 02456 41305 10270 20260 30049 40055 82520 333 58007 70056 82618 83460==
41978,2023,10,01,00,00,AAXX 01004 41978 02556 41004 10267 20260 30044 40050 81101 333 58000 70056 81828 83080==
41978,2023,10,01,03,00,AAXX 01034 41978 02456 41308 10310 20280 30054 40060 82501 333 20263 58009 70056 82618 83080==
41978,2023,10,01,06,00,AAXX 01064 41978 02556 41906 10333 20260 30049 40056 82101 333 59008 70056 82828 83080==
41978,2023,10,01,09,00,AAXX 01094 41978 02456 31708 10323 20270 30015 40022 83500 333 59014 70056 83618==
41978,2023,10,01,12,00,AAXX 01124 41978 02456 31511 10302 20270 30030 40036 84310 333 10340 58001 70044 83618 85460 81930==
41978,2023,10,01,15,00,AAXX 01154 41978 01450 81005 10273 20270 30057 40063 76162 8432/ 333 59002 70014 83616 88460 81928==
41978,2023,10,01,18,00,AAXX 01184 41978 21450 61205 10270 20260 30056 40063 70162 83520 333 58002 60028 70018 83618 85460==
41978,2023,10,01,21,00,AAXX 01214 41978 02450 61305 10265 20260 30051 40057 83520 333 58002 70018 83618 85460==
41978,2023,10,02,00,00,AAXX 02004 41978 02450 51005 10263 20250 30049 40055 82520 333 58005 70018 82618 84460==
41978,2023,10,02,03,00,AAXX 02034 41978 02456 61505 10306 20270 30073 40079 83520 333 20261 58019 70014 83618 85460==
41978,2023,10,02,06,00,AAXX 02064 41978 02456 72206 10315 20270 30060 40066 84320 333 58011 70018 83618 86460 81930==
41978,2023,10,02,09,00,AAXX 02094 41978 01412 81611 10271 20270 30042 40048 76362 8432/ 333 58027 70074 83608 88458 81928==
41978,2023,10,02,12,00,AAXX 02124 41978 01440 71509 10278 20270 30047 40054 70162 84320 333 10328 58017 70184 83616 86458 81929==
41978,2023,10,02,15,00,AAXX 02154 41978 02450 61606 10268 20250 30073 40080 83530 333 58016 70170 83616 85360==
41978,2023,10,02,18,00,AAXX 02184 41978 02450 61605 10268 20260 30070 40077 83530 333 58014 70166 83616 85360==
41978,2023,10,02,21,00,AAXX 02214 41978 02450 61504 10266 20260 30065 40072 83530 333 58014 70166 83616 86360==
41978,2023,10,03,00,00,AAXX 03004 41978 02450 71004 10262 20250 30060 40067 83570 333 58011 70166 83615 86360==
41978,2023,10,03,03,00,AAXX 03034 41978 02456 71608 10290 20260 30088 40094 84320 333 20260 58015 70166 83616 86460 81928==
41978,2023,10,03,06,00,AAXX 03064 41978 02450 71708 10300 20270 30083 40089 84320 333 58023 70166 83616 86460 81928==
41978,2023,10,03,09,00,AAXX 03094 41978 01440 81606 10260 20260 30061 40067 76166 8432/ 333 58019 70270 83614 88459 81928==
41978,2023,10,03,12,00,AAXX 03124 41978 21450 61004 10270 20260 30064 40071 70162 83520 333 10305 58017 60178 70170 83618 85460==
41978,2023,10,03,15,00,AAXX 03154 41978 02450 61707 10267 20260 30091 40098 84310 333 58018 70170 83618 85460 81930==
41978,2023,10,03,18,00,AAXX 03184 41978 02450 61205 10263 20250 30082 40089 84310 333 58012 70170 83618 85460 81930==
41978,2023,10,03,21,00,AAXX 03214 41978 02450 61206 10254 20240 30078 40084 84310 333 58013 70170 83618 85460 81930==
41978,2023,10,04,00,00,AAXX 04004 41978 02440 61305 10269 20250 30075 40081 84310 333 58015 70170 83618 86460 81930==
41978,2023,10,04,03,00,AAXX 04034 41978 02450 71708 10307 20270 30091 40098 84320 333 20251 58003 70170 83618 86460 81930==
41978,2023,10,04,06,00,AAXX 04064 41978 02556 61912 10328 20270 30082 40088 83220 333 59001 70170 83828 85460==
41978,2023,10,04,09,00,AAXX 04094 41978 01325 82110 10258 20258 30068 40074 76162 8432/ 333 58007 70154 84708 88458 81928==
41978,2023,10,04,12,00,AAXX 04124 41978 21440 81003 10262 20260 30068 40074 70262 8332/ 333 10330 58004 60189 70176 83614 88459 81928==
41978,2023,10,04,15,00,AAXX 04154 41978 01440 61204 10263 20260 30087 40093 70522 84320 333 58005 70176 83616 86460 81930==
41978,2023,10,04,18,00,AAXX 04184 41978 01450 51303 10268 20260 30081 40087 70522 83520 333 58001 70176 83616 85460==
41978,2023,10,04,21,00,AAXX 04214 41978 01450 51405 10267 20260 30066 40072 70522 83520 333 59012 70176 83616 85460==
41978,2023,10,05,00,00,AAXX 05004 41978 01450 71205 10265 20260 30059 40065 70522 84320 333 59016 70176 83616 87460 81930==
41978,2023,10,05,03,00,AAXX 05034 41978 01431 81505 10270 20270 30086 40092 76162 84327 333 20257 58001 70226 83616 81328 88458==
41978,2023,10,05,06,00,AAXX 05064 41978 01431 81505 10270 20270 30086 40092 76162 84327 333 20257 58001 70226 83616 81328 88458==
41978,2023,10,05,09,00,AAXX 05094 41978 01440 81808 10271 20270 30041 40048 72166 8432/ 333 59027 70409 83615 88459 81928==
41978,2023,10,05,12,00,AAXX 05124 41978 01440 71704 10274 20260 30043 40049 70162 84320 333 10281 59025 70395 83616 87460 81928==
41978,2023,10,05,15,00,AAXX 05154 41978 01440 71606 10274 20260 30065 40072 70522 84570 333 59022 70395 84616 86360==
41978,2023,10,05,18,00,AAXX 05184 41978 01440 71606 10272 20260 30054 40061 70522 83530 333 59020 70395 83616 86360==
41978,2023,10,05,21,00,AAXX 05214 41978 01440 81505 10270 20260 30048 40055 76122 8352/ 333 59018 70455 84614 88458==
41980,2023,09,29,00,00,AAXX 29004 41980 32450 70000 10260 20250 39929 40040 83520 333 56990 59015 70000 83616 87459=
41980,2023,09,29,06,00,AAXX 29064 41980 NIL=
41980,2023,09,29,12,00,AAXX 29124 41980 11340 80000 10252 20240 39927 40039 60299 70296 8662/ 333 10322 56999 58020 70290 82710 84616 88458=
41980,2023,09,29,18,00,AAXX 29184 41980 NIL=
41980,2023,09,30,00,00,AAXX 30004 41980 32450 80000 10262 20250 39938 40049 8352/ 333 56999 58009 70300 83616 88458=
41980,2023,09,30,12,00,AAXX 30124 41980 11450 20000 10276 20270 39922 40032 60068 70162 82500 333 10324 56900 59005 70070 82618=
41980,2023,09,30,18,00,AAXX 30184 41980 NIL=
41980,2023,10,01,00,00,AAXX 01004 41980 32450 20000 10260 20250 39947 40057 82500 333 56900 58009 70060 82618=
41980,2023,10,01,12,00,AAXX 01124 41980 11340 80000 10258 20250 39931 40043 60103 76166 8662/ 333 10325 56999 58009 70100 82709 84614 88459=
41980,2023,10,02,00,00,AAXX 02004 41980 32450 60000 10248 20240 39955 40067 82530 333 56990 58008 70150 82616 86362=
41980,2023,10,02,06,00,AAXX 02064 41980 NIL=
41980,2023,10,02,12,00,AAXX 02124 41980 32450 50000 10257 20250 39948 40060 83530 333 10317 56990 58017 70220 83616 84362=
41980,2023,10,03,00,00,AAXX 03004 41980 32450 30000 10246 20250 39965 40078 82500 333 56990 58011 70220 82617=
41980,2023,10,03,06,00,AAXX 03064 41980 NIL=
41980,2023,10,03,12,00,AAXX 03124 41980 32450 20000 10258 20250 39952 40064 82500 333 10290 56990 58004 70030 82618=
41980,2023,10,03,18,00,AAXX 03184 41980 NIL=
41980,2023,10,04,00,00,AAXX 04004 41980 NIL=
41980,2023,10,04,06,00,AAXX 04064 41980 NIL=
41980,2023,10,04,12,00,AAXX 04124 41980 11450 40000 10250 20240 39967 40079 70261 83510 333 10317 56990 58015 70140 83617=
41980,2023,10,05,00,00,AAXX 05004 41980 32350 40000 10258 20250 39973 40086 82510 333 56990 59009 82614 83458=
41980,2023,10,05,12,00,AAXX 05124 41980 11350 40000 10264 20250 39944 40056 83510 333 10306 56990 59023 70070 84614 83457=
41980,2023,10,05,18,00,AAXX 05184 41980 NIL=
41984,2023,09,29,00,00,AAXX 29004 41984 01456 80000 10290 20280 30013 40015 71792 8592/ 333 59024 70000 82708 84615 88456 81926==
41984,2023,09,29,03,00,AAXX 29034 41984 01457 80000 10272 20270 30050 40052 70296 8352/ 333 20270 58003 70010 83618 88458==
41984,2023,09,29,06,00,AAXX 29064 41984 11457 80000 10275 20270 30040 40042 60016 71796 8492/ 333 58001 70010 84618 88458 81926==
41984,2023,09,29,09,00,AAXX 29094 41984 01457 80000 10272 20270 30015 40017 72162 8352/ 333 58014 70062 83618 88458==
41984,2023,09,29,12,00,AAXX 29124 41984 21456 80000 10277 20270 30009 40011 70262 8352/ 333 10282 58003 60058 70062 83618 88458==
41984,2023,09,29,15,00,AAXX 29154 41984 02440 80000 10272 20260 30026 40028 8352/ 333 59002 70062 83618 88458==
41984,2023,09,29,18,00,AAXX 29184 41984 02440 80000 10280 20260 30026 40028 8352/ 333 59003 70062 83618 88458==
41984,2023,09,29,21,00,AAXX 29214 41984 01340 80000 10270 20270 30022 40024 76162 8672/ 333 58001 70152 82707 84616 88456==
41984,2023,09,30,00,00,AAXX 30004 41984 21356 80000 10260 20260 30015 40017 76166 8672/ 333 58002 60219 70272 82707 84616 88456==
41984,2023,09,30,03,00,AAXX 30034 41984 01457 81803 10298 20270 30036 40038 70262 8352/ 333 20252 59014 70292 83618 88458==
41984,2023,09,30,06,00,AAXX 30064 41984 01457 81805 10301 20270 30027 40029 70262 8352/ 333 59013 70305 83618 88458==
41984,2023,09,30,09,00,AAXX 30094 41984 02457 81804 10306 20270 30001 40003 8352/ 333 59014 70255 83618 88458==
41984,2023,09,30,12,00,AAXX 30124 41984 02456 81805 10290 20260 30004 40006 8352/ 333 10317 59005 70255 83618 88458==
41984,2023,09,30,15,00,AAXX 30154 41984 02440 80000 10280 20270 30029 40031 8352/ 333 58002 70255 83518 88458==
41984,2023,09,30,18,00,AAXX 30184 41984 01340 80000 10272 20270 30032 40034 76122 8572/ 333 58006 70010 82708 84615 88456==
41984,2023,09,30,21,00,AAXX 30214 41984 01440 80000 10277 20270 30025 40027 70262 8352/ 333 58003 70195 83618 88458==
41984,2023,10,01,00,00,AAXX 01004 41984 11456 80000 10280 20270 30015 40017 60026 70262 8352/ 333 58000 70075 83618 88458==
41984,2023,10,01,03,00,AAXX 01034 41984 01457 61804 10314 20270 30026 40028 72122 83510 333 20262 59010 70075 83618 85458==
41984,2023,10,01,06,00,AAXX 01064 41984 21457 81805 10310 20260 30031 40033 70362 8352/ 333 58004 60035 70060 83618 88458==
41984,2023,10,01,09,00,AAXX 01094 41984 02457 81806 10300 20270 30006 40008 8352/ 333 58005 70060 83618 88458==
41984,2023,10,01,12,00,AAXX 01124 41984 02456 60000 10290 20280 30009 40011 82570 333 10320 58005 70060 82618 85458==
41984,2023,10,01,15,00,AAXX 01154 41984 02440 60000 10280 20270 30035 40037 82570 333 58006 70060 82618 85458==
41984,2023,10,01,18,00,AAXX 01184 41984 02440 60000 10282 20270 30036 40038 82510 333 58004 70050 82618 85458==
41984,2023,10,01,21,00,AAXX 01214 41984 02440 80000 10275 20270 30039 40041 8352/ 333 58014 70030 83618 88458==
41984,2023,10,02,00,00,AAXX 02004 41984 01456 80000 10272 20270 30024 40026 70522 8352/ 333 58009 70030 83618 88458==
41984,2023,10,02,03,00,AAXX 02034 41984 02457 80000 10300 20250 30052 40054 8352/ 333 20270 58026 70000 83618 88458==
41984,2023,10,02,06,00,AAXX 02064 41984 02457 81805 10320 20270 30028 40030 8352/ 333 59003 70000 83618 88458==
41984,2023,10,02,09,00,AAXX 02094 41984 02457 81802 10310 20270 30026 40028 8352/ 333 58020 70000 83618 88458==
41984,2023,10,02,12,00,AAXX 02124 41984 02456 80000 10290 20260 30021 40023 8352/ 333 10321 58012 70000 83618 88458==
41984,2023,10,02,15,00,AAXX 02154 41984 02440 80000 10280 20260 30044 40046 8352/ 333 58009 70000 83618 88458==
41984,2023,10,02,18,00,AAXX 02184 41984 02340 80000 10274 20260 30047 40049 8562/ 333 58011 70010 82709 84616 88457==
41984,2023,10,02,21,00,AAXX 02214 41984 02440 80000 10276 20270 30043 40045 8352/ 333 58004 70006 83618 88458==
41984,2023,10,03,00,00,AAXX 03004 41984 21356 80000 10274 20260 30039 40041 76122 8672/ 333 58015 60057 70056 82707 84616 88456==
41984,2023,10,03,03,00,AAXX 03034 41984 01457 80000 10280 20270 30061 40063 70262 8352/ 333 20260 58009 70066 83618 88458==
41984,2023,10,03,06,00,AAXX 03064 41984 11457 80000 10282 20260 30060 40062 60016 70262 8352/ 333 58032 70066 83618 88458==
41984,2023,10,03,09,00,AAXX 03094 41984 01356 80000 10288 20280 30038 40040 76162 8672/ 333 58012 70096 82707 84616 88456==
41984,2023,10,03,12,00,AAXX 03124 41984 01456 80000 10264 20260 30039 40041 72162 8352/ 333 10305 58018 70246 83618 88458==
41984,2023,10,03,15,00,AAXX 03154 41984 01340 80000 10258 20258 30065 40067 76362 8672/ 333 58021 70366 83707 84615 88456==
41984,2023,10,03,18,00,AAXX 03184 41984 21340 80000 10280 20270 30058 40060 76166 8672/ 333 58011 60149 70386 83707 84615 88456==
41984,2023,10,03,21,00,AAXX 03214 41984 01340 81805 10270 20270 30039 40041 76366 8672/ 333 59004 70580 83707 84615 88456==
41984,2023,10,04,00,00,AAXX 04004 41984 21356 81804 10268 20268 30039 40041 76166 8672/ 333 58000 60269 70590 83707 84615 88456==
41984,2023,10,04,03,00,AAXX 04034 41984 01356 81805 10280 20280 30061 40063 76166 8632/ 333 20250 58000 70600 83707 84615 88456 81926==
41984,2023,10,04,06,00,AAXX 04064 41984 21356 80000 10270 20270 30064 40066 76366 8632/ 333 58004 60289 70860 83707 84615 88456 81925==
41984,2023,10,04,09,00,AAXX 04094 41984 01356 80000 10280 20280 30041 40043 79596 8692/ 333 58003 70850 82707 84615 88456 81925==
41984,2023,10,04,12,00,AAXX 04124 41984 21356 80000 10270 20270 30041 40043 76396 8672/ 333 10285 58002 60349 71020 83707 84615 88456==
41984,2023,10,04,15,00,AAXX 04154 41984 01340 80000 10260 20260 30060 40062 76166 8672/ 333 59005 70940 83707 84615 88456==
41984,2023,10,04,18,00,AAXX 04184 41984 21340 80000 10265 20265 30057 40059 79596 8692/ 333 59001 60799 71670 83707 84615 88456 81925==
41984,2023,10,04,21,00,AAXX 04214 41984 01340 81803 10260 20260 30047 40049 76366 8672/ 333 58008 71690 83707 84615 88456==
41984,2023,10,05,00,00,AAXX 05004 41984 21356 80000 10262 20260 30035 40037 76366 8672/ 333 59004 60329 71730 83707 84615 88456==
41984,2023,10,05,03,00,AAXX 05034 41984 02357 80000 10290 20280 30057 40059 8632/ 333 20256 59004 71710 83708 84615 88456 81926==
41984,2023,10,05,06,00,AAXX 05064 41984 02457 81807 10310 20280 30019 40051 8352/ 333 59015 71450 83618 88458==
41984,2023,10,05,09,00,AAXX 05094 41984 02457 81304 10296 20290 30023 40025 8352/ 333 59018 71430 83618 88458==
41984,2023,10,05,12,00,AAXX 05124 41984 02456 80000 10286 20280 30025 40027 8352/ 333 10315 59016 71070 83618 88458==
41984,2023,10,05,15,00,AAXX 05154 41984 02440 81804 10283 20280 30045 40047 8352/ 333 59015 71070 83618 88458==
41984,2023,10,05,18,00,AAXX 05184 41984 02440 81804 10284 20270 30038 40040 8352/ 333 59019 70320 83618 88458==
41984,2023,10,05,21,00,AAXX 05214 41984 02440 61806 10280 20270 30030 40032 82510 333 59017 70100 82618 85458==
41989,2023,09,29,00,00,AAXX 29004 41989 02440 50000 10274 20260 30035 40038 82570 333 59010 70020 82618 84360==
41989,2023,09,29,03,00,AAXX 29034 41989 02440 51402 10295 20280 30047 40050 82570 333 20252 70020 83618 83460==
41989,2023,09,29,06,00,AAXX 29064 41989 02450 51802 10310 20260 30052 40055 83500 333 58002 70020 83618 84362==
41989,2023,09,29,09,00,AAXX 29094 41989 02450 71703 10293 20260 30029 40032 83570 333 58000 70020 83618 85460==
41989,2023,09,29,12,00,AAXX 29124 41989 21450 71803 10263 20260 30023 40026 70262 83570 333 10317 58010 60115 70130 83618 84460==
41989,2023,09,29,15,00,AAXX 29154 41989 02440 51403 10270 20250 30051 40055 83530 333 58019 70110 83618 83362==
41989,2023,09,29,18,00,AAXX 29184 41989 NIL=
41989,2023,09,29,21,00,AAXX 29214 41989 42450 51402 10260 20240 30047 40050 58009 83362==
41989,2023,09,30,00,00,AAXX 30004 41989 02450 51802 10258 20240 30037 40040 83530 333 58002 70110 83618 83362==
41989,2023,09,30,06,00,AAXX 30064 41989 02456 41705 10315 20260 30053 40057 82530 333 58001 70110 82618 84362==
41989,2023,09,30,09,00,AAXX 30094 41989 02450 41403 10310 20260 30041 40044 83530 333 58012 70010 83618 83362==
41989,2023,09,30,12,00,AAXX 30124 41989 02440 50502 10300 20250 30034 40038 83530 333 10325 58011 70000 83618 83362==
41989,2023,09,30,15,00,AAXX 30154 41989 02450 31806 10281 20260 30053 40057 82530 333 58002 70000 82618==
41989,2023,09,30,18,00,AAXX 30184 41989 NIL=
41989,2023,09,30,21,00,AAXX 30214 41989 02450 21403 10273 20250 30057 40061 82500 333 58010 70000 82618==
41989,2023,10,01,00,00,AAXX 01004 41989 02450 21702 10268 20250 30046 40049 82618 333 58009 70000 82618==
41989,2023,10,01,03,00,AAXX 01034 41989 42460 21704 10315 20253 30050 40053 59018 82618==
41989,2023,10,01,09,00,AAXX 01094 41989 02456 21305 10322 20250 30022 40025 82500 333 59019 70000 82618==
41989,2023,10,01,12,00,AAXX 01124 41989 02450 41403 10298 20250 30015 40018 82530 333 10330 59019 70000 82618 84362==
41989,2023,10,01,15,00,AAXX 01154 41989 01440 61803 10280 20260 30045 40048 72122 83570 333 59008 70020 83618 84460==
41989,2023,10,01,21,00,AAXX 01214 41989 02440 51802 10270 20250 30050 40053 83530 333 59007 70020 83618 84362==
41989,2023,10,02,00,00,AAXX 02004 41989 02430 61403 10267 20250 30036 40041 83570 333 59005 70020 83618 84460==
41989,2023,10,02,03,00,AAXX 02034 41989 02450 61403 10300 20250 30058 40061 83570 333 20242 58008 70020 83618 84460==
41989,2023,10,02,06,00,AAXX 02064 41989 02456 51804 10318 20260 30064 40067 82570 333 58002 70020 82618 83460==
41989,2023,10,02,09,00,AAXX 02094 41989 02450 63103 10280 20260 30043 40047 83570 333 58021 70050 83618 84460==
41989,2023,10,02,12,00,AAXX 02124 41989 01440 61804 10275 20260 30034 40037 70262 84470 333 10324 58019 70050 83618 84460==
41989,2023,10,02,15,00,AAXX 02154 41989 01440 51704 10267 20250 30071 40074 70162 82570 333 58026 70040 82618 83362==
41989,2023,10,02,21,00,AAXX 02214 41989 02440 51703 10265 20250 30069 40072 83570 333 58019 70040 83618 83460==
41989,2023,10,03,00,00,AAXX 03004 41989 21450 31304 10261 20240 30063 40066 70162 82530 333 58027 60025 70060 82618 83362==
41989,2023,10,03,03,00,AAXX 03034 41989 01340 81304 10262 20250 30081 40084 76362 8572/ 333 20250 58023 70120 81708 84614 88458==
41989,2023,10,03,06,00,AAXX 03064 41989 21450 51303 10290 20260 30070 40073 70162 84530 333 58006 60088 70140 82618 83362==
41989,2023,10,03,09,00,AAXX 03094 41989 01450 51805 10282 20250 30065 40068 70262 82570 333 58022 70130 82618 82262==
41989,2023,10,03,12,00,AAXX 03124 41989 11450 31404 10272 20250 30056 40059 60026 70162 82530 333 10297 58022 70130 82618 83362==
41989,2023,10,03,18,00,AAXX 03184 41989 NIL=
41989,2023,10,03,21,00,AAXX 03214 41989 02430 41403 10258 20240 30070 40073 83530 333 58001 70150 83618 83362==
41989,2023,10,04,00,00,AAXX 04004 41989 01430 61402 10255 20250 30062 40066 72162 83570 333 59009 70050 83618 84460==
41989,2023,10,04,03,00,AAXX 04034 41989 02450 61402 10300 20250 30084 40087 83570 333 20247 58003 70180 83618 84460==
41989,2023,10,04,06,00,AAXX 04064 41989 02456 51807 10313 20260 30082 40085 82570 333 58012 70100 82618 83362==
41989,2023,10,04,09,00,AAXX 04094 41989 01350 81703 10260 20250 30066 40069 76362 8572/ 333 58001 70230 82708 83614 83614 88456==
41989,2023,10,04,12,00,AAXX 04124 41989 21440 61803 10270 20250 30035 40058 70162 84470 333 10320 59001 60158 70050 83618 84460==
41989,2023,10,04,15,00,AAXX 04154 41989 02450 51304 10272 20260 30082 40085 82570 333 59011 70200 82618 83362==
41989,2023,10,04,18,00,AAXX 04184 41989 02450 41704 10270 20260 30089 40092 82530 333 58007 70200 82618 84362==
41989,2023,10,04,21,00,AAXX 04214 41989 02450 41403 10274 20250 30083 40086 83530 333 58013 70200 83618==
41989,2023,10,05,00,00,AAXX 05004 41989 NIL=
41989,2023,10,05,03,00,AAXX 05034 41989 02450 71802 10275 20260 30079 40082 82570 333 20255 59005 70150 83618 84460==
41989,2023,10,05,06,00,AAXX 05064 41989 21430 61402 10273 20250 30084 40087 72162 84470 333 58002 60257 70400 83618 84460==
41989,2023,10,05,09,00,AAXX 05094 41989 01330 81705 10260 20250 30048 40051 76266 8572/ 333 59018 70460 82708 83614 88456==
41989,2023,10,05,12,00,AAXX 05124 41989 NIL=
41989,2023,10,05,15,00,AAXX 05154 41989 02430 51403 10275 20260 30051 40055 83530 333 59031 70510 83618 83362==
41989,2023,10,05,18,00,AAXX 05184 41989 NIL=
41992,2023,09,29,00,00,AAXX 29004 41992 01425 80000 10275 20260 30036 40038 71022 8432/ 333 59009 70010 83616 88460 81925==
41992,2023,09,29,03,00,AAXX 29034 41992 01430 82105 10288 20260 30058 40060 70522 8532/ 333 20275 59003 70010 84615 88458 81925==
41992,2023,09,29,06,00,AAXX 29064 41992 01430 62106 10310 20260 30053 40055 70521 84520 333 58010 70010 84616 86460==
41992,2023,09,29,09,00,AAXX 29094 41992 01425 82105 10270 20260 30021 40023 76162 8592/ 333 58006 70130 84614 88458 81925==
41992,2023,09,29,12,00,AAXX 29124 41992 11425 80000 10270 20250 30026 40028 60126 70565 8432/ 333 10345 58010 70120 83616 88460 81925==
41992,2023,09,29,15,00,AAXX 29154 41992 01425 80000 10270 20250 30053 40055 70522 8592/ 333 58008 70120 84616 88460 81925==
41992,2023,09,29,18,00,AAXX 29184 41992 01425 60000 10268 20240 30052 40054 70522 84530 333 58018 70120 84616 86360==
41992,2023,09,29,21,00,AAXX 29214 41992 01425 60000 10265 20250 30050 40052 70522 84530 333 58020 70120 84616 86360==
41992,2023,09,30,00,00,AAXX 30004 41992 01425 61505 10265 20250 30049 40051 70522 84530 333 58013 70120 84616 86360==
41992,2023,09,30,03,00,AAXX 30034 41992 01425 70000 10285 20240 30073 40075 70522 85320 333 20255 58021 70120 84616 87460 81925==
41992,2023,09,30,06,00,AAXX 30064 41992 21430 70000 10294 20240 30058 40060 70562 85330 333 58005 60005 70120 84616 87362 81925==
41992,2023,09,30,09,00,AAXX 30094 41992 41425 61508 10310 20260 30034 40036 70522 84530 333 58013 84616 86360==
41992,2023,09,30,12,00,AAXX 30124 41992 41425 61806 10285 20240 30038 40040 70522 84530 333 10315 58012 84616 86360==
41992,2023,09,30,15,00,AAXX 30154 41992 01425 30000 10275 20260 30066 40068 70521 83500 333 58013 70000 83616==
41992,2023,09,30,18,00,AAXX 30184 41992 01425 60000 10265 20250 30060 40062 70522 84530 333 58008 70000 84616 86362==
41992,2023,09,30,21,00,AAXX 30214 41992 01425 60000 10260 20240 30054 40056 70522 83530 333 58004 70000 83616 86362==
41992,2023,10,01,00,00,AAXX 01004 41992 01425 60000 10260 20240 30047 40049 70522 84530 333 59002 70000 84616 86362==
41992,2023,10,01,03,00,AAXX 01034 41992 01/40 10000 10308 20250 30058 40060 70521 81030 333 20255 59015 70000 81362==
41992,2023,10,01,06,00,AAXX 01064 41992 01445 30000 10319 20260 30053 40055 70521 81530 333 59005 70000 81616 83362==
41992,2023,10,01,09,00,AAXX 01094 41992 01440 30000 10305 20260 30023 40025 70511 82530 333 59011 70000 82616 83362==
41992,2023,10,01,12,00,AAXX 01124 41992 01530 60000 10290 20260 30038 40040 70521 82130 333 10325 58000 70000 82825 86362==
41992,2023,10,01,15,00,AAXX 01154 41992 01425 70000 10285 20270 30062 40064 70522 85320 333 58004 70000 84616 87460 81925==
41992,2023,10,01,18,00,AAXX 01184 41992 21425 70000 10265 20260 30064 40066 70562 85320 333 58004 60085 70080 84616 87460 81925==
41992,2023,10,01,21,00,AAXX 01214 41992 01425 70000 10265 20260 30055 40057 70522 85320 333 58001 70080 84616 87460 81925==
41992,2023,10,02,00,00,AAXX 02004 41992 01425 70000 10255 20250 30057 40059 70522 85320 333 58010 70080 84616 87460 81925==
41992,2023,10,02,03,00,AAXX 02034 41992 01435 50000 10305 20260 30078 40080 70522 82530 333 20252 58020 70080 82616 85362==
41992,2023,10,02,06,00,AAXX 02064 41992 01435 51805 10315 20260 30068 40070 70522 82530 333 58015 70080 82616 85362==
41992,2023,10,02,09,00,AAXX 02094 41992 01430 81805 10265 20250 30051 40053 76162 8532/ 333 58028 70120 84614 88458 81925==
41992,2023,10,02,12,00,AAXX 02124 41992 11425 81805 10270 20250 30055 40057 60056 75165 8592/ 333 10320 58017 70130 84614 88458 81925==
41992,2023,10,02,15,00,AAXX 02154 41992 01425 80000 10258 20250 30082 40084 75155 8492/ 333 58020 70130 83614 88458 81925==
41992,2023,10,02,18,00,AAXX 02184 41992 01425 80000 10252 20240 30079 40081 75155 8592/ 333 58015 70050 84614 88458 81925==
41992,2023,10,02,21,00,AAXX 02214 41992 01425 80000 10250 20240 30073 40075 76166 8592/ 333 58018 70160 84614 88458 81925==
41992,2023,10,03,00,00,AAXX 03004 41992 21425 80000 10250 20250 30067 40069 76166 8592/ 333 58010 60129 70170 84614 88458 81925==
41992,2023,10,03,03,00,AAXX 03034 41992 01425 80000 10252 20250 30097 40099 76166 8592/ 333 20250 58019 70430 84614 88458 81925==
41992,2023,10,03,06,00,AAXX 03064 41992 01430 80000 10280 20250 30090 40092 70562 8592/ 333 58022 70260 84614 88458 81925==
41992,2023,10,03,09,00,AAXX 03094 41992 01425 80000 10270 20250 30070 40072 76166 8592/ 333 58019 70410 84614 88458 81925==
41992,2023,10,03,12,00,AAXX 03124 41992 21425 80000 10262 20240 30073 40075 70562 8532/ 333 10320 58018 60025 70400 84616 88460 81925==
41992,2023,10,03,15,00,AAXX 03154 41992 01425 80000 10260 20250 30097 40099 76162 8592/ 333 58015 70400 84614 88458 81925==
41992,2023,10,03,18,00,AAXX 03184 41992 21425 80000 10256 20250 30093 40095 70522 8532/ 333 58014 60105 70500 84616 88460 81925==
41992,2023,10,03,21,00,AAXX 03214 41992 01425 80000 10256 20250 30090 40092 70522 8532/ 333 70500 84616 88460 81925==
41992,2023,10,04,00,00,AAXX 04004 41992 11425 80000 10255 20250 30081 40083 60036 76162 8592/ 333 58014 70410 84614 88458 81925==
41992,2023,10,04,03,00,AAXX 04034 41992 01435 40000 10294 20250 30099 40101 70565 81530 333 20248 58002 70210 81616 84362==
41992,2023,10,04,06,00,AAXX 04064 41992 01425 80000 10275 20270 30091 40093 76162 8592/ 333 58001 70260 84614 88458 81925==
41992,2023,10,04,09,00,AAXX 04094 41992 02430 61508 10305 20260 30073 40075 84530 333 58003 70240 84616 86360==
41992,2023,10,04,12,00,AAXX 04124 41992 41425 61502 10275 20260 30077 40079 70522 84530 333 10310 58004 84616 86360==
41992,2023,10,04,15,00,AAXX 04154 41992 01425 80000 10270 20250 30095 40097 70522 8432/ 333 58000 70140 83616 88460 81925==
41992,2023,10,04,18,00,AAXX 04184 41992 01425 80000 10270 20250 30090 40092 70522 8432/ 333 59003 70140 83616 88460 81925==
41992,2023,10,04,21,00,AAXX 04214 41992 01425 80000 10270 20250 30085 40087 70522 8432/ 333 59005 70140 83616 88460 81925==
41992,2023,10,05,00,00,AAXX 05004 41992 01425 80000 10268 20250 30067 40069 70522 8432/ 333 58006 70110 83616 88460 81925==
41992,2023,10,05,03,00,AAXX 05034 41992 01425 80000 10284 20260 30092 40094 76122 8592/ 333 20265 59007 70050 84614 88458 81925==
41992,2023,10,05,06,00,AAXX 05064 41992 01425 80000 10284 20260 30092 40094 76122 8592/ 333 20265 59007 70050 84614 88458 81925==
41992,2023,10,05,09,00,AAXX 05094 41992 01430 80605 10305 20290 30049 40051 70522 8432/ 333 59024 70040 83616 88460 81925==
41992,2023,10,05,12,00,AAXX 05124 41992 01425 60000 10290 20260 30048 40050 70522 83520 333 10315 59029 70040 83616 86460==
41992,2023,10,05,15,00,AAXX 05154 41992 01425 60000 10280 20270 30072 40074 70522 84530 333 59023 70040 84616 86360==
41992,2023,10,05,18,00,AAXX 05184 41992 01425 60000 10274 20260 30066 40068 70522 84530 333 59024 70040 84616 86360==
41992,2023,10,05,21,00,AAXX 05214 41992 01425 60000 10270 20260 30060 40062 70522 84530 333 59025 70040 84616 86360==
41998,2023,09,29,03,00,AAXX 29034 41998 01456 80000 10288 20260 30047 40053 76166 8342/ 333 20258 59007 70070 83616 88456==
41998,2023,09,29,06,00,AAXX 29064 41998 21456 80000 10282 20250 30031 40037 76166 8342/ 333 59004 60079 70110 83616 88456==
41998,2023,09,29,09,00,AAXX 29094 41998 01456 81404 10270 20250 30015 40021 76166 8342/ 333 58000 70170 82618 88556==
41998,2023,09,29,12,00,AAXX 29124 41998 22456 81701 10268 20260 30019 40025 8342/ 333 10294 58009 60078 70180 82618 88456==
41998,2023,09,29,18,00,AAXX 29184 41998 NIL=
41998,2023,09,30,00,00,AAXX 30004 41998 02456 80000 10257 20250 30011 40017 8342/ 333 59027 70140 82618 88458==
41998,2023,09,30,03,00,AAXX 30034 41998 01456 80000 10288 20260 30045 40051 72162 8442/ 333 20250 58008 70140 83616 88456==
41998,2023,09,30,09,00,AAXX 30094 41998 02456 61702 10307 20260 30022 40028 83470 333 58007 70060 82618 83458==
41998,2023,09,30,12,00,AAXX 30124 41998 02456 60000 10278 20250 30030 40036 83470 333 10312 58011 70050 82618 83458==
41998,2023,09,30,18,00,AAXX 30184 41998 NIL=
41998,2023,10,01,00,00,AAXX 01004 41998 NIL=
41998,2023,10,01,03,00,AAXX 01034 41998 02456 80000 10290 20260 30046 40052 8442/ 333 20260 59004 70020 83618 88458==
41998,2023,10,01,12,00,AAXX 01124 41998 02456 60000 10281 20250 30029 40035 83470 333 10318 59001 70000 83618 83458==
41998,2023,10,01,15,00,AAXX 01154 41998 01456 80000 10278 20260 30046 40052 76162 8442/ 333 58010 70150 83616 88456==
41998,2023,10,02,00,00,AAXX 02004 41998 02456 80000 10270 20260 30054 40060 84370 333 59008 70180 82618 83458==
41998,2023,10,02,03,00,AAXX 02034 41998 02456 60000 10296 20260 30058 40064 84370 333 20262 58012 70180 82618 83458==
41998,2023,10,02,06,00,AAXX 02064 41998 21456 80000 10288 20270 30052 40058 76162 8442/ 333 58021 60059 70230 83616 88456==
41998,2023,10,02,09,00,AAXX 02094 41998 01456 81602 10272 20250 30047 40053 76166 8442/ 333 58023 70270 83616 88456==
41998,2023,10,02,12,00,AAXX 02124 41998 21456 81401 10270 20250 30055 40061 76166 8442/ 333 10293 58026 60079 70300 83616 88456==
41998,2023,10,03,00,00,AAXX 03004 41998 21456 80000 10260 20250 30078 40084 76166 8342/ 333 58024 60259 70680 82616 88456==
41998,2023,10,03,03,00,AAXX 03034 41998 01456 80000 10279 20260 30084 40090 76166 8442/ 333 20246 58026 70740 83616 88456==
41998,2023,10,03,06,00,AAXX 03064 41998 21456 80000 10280 20260 30067 40073 76166 8442/ 333 58015 60109 70730 83616 88456==
41998,2023,10,03,09,00,AAXX 03094 41998 01456 81403 10266 20250 30068 40074 76166 8442/ 333 58021 70780 83616 88456==
41998,2023,10,03,12,00,AAXX 03124 41998 21456 80000 10264 20250 30072 40078 72166 8442/ 333 10284 58017 60139 70790 83616 88456==
41998,2023,10,03,18,00,AAXX 03184 41998 NIL=
41998,2023,10,04,00,00,AAXX 04004 41998 21456 80000 10246 20230 30085 40091 76166 8342/ 333 58007 60069 70380 82616 88456==
41998,2023,10,04,03,00,AAXX 04034 41998 01456 80000 10282 20260 30076 40082 72162 8442/ 333 20240 59008 70340 83618 88458==
41998,2023,10,04,06,00,AAXX 04064 41998 22456 60000 10299 20260 30071 40077 82420 333 58004 60035 70310 82618 83458==
41998,2023,10,04,09,00,AAXX 04094 41998 02456 41902 10312 20250 30064 40070 82470 333 59004 70220 81616 83458==
41998,2023,10,04,12,00,AAXX 04124 41998 02456 40000 10282 20250 30075 40081 82470 333 10324 58003 70180 81618 83458==
41998,2023,10,05,00,00,AAXX 05004 41998 02456 60000 10268 20250 30090 40096 83470 333 58005 70030 82618 83459==
41998,2023,10,05,03,00,AAXX 05034 41998 02456 60000 10288 20270 30084 40090 83470 333 20262 58008 70010 83618 83458==
41998,2023,10,05,09,00,AAXX 05094 41998 02456 62302 10298 20260 30047 40053 83470 333 59017 70000 82618 83458==
41998,2023,10,05,12,00,AAXX 05124 41998 02456 60000 10281 20260 30053 40059 83470 333 10310 59022 70000 82618 83458==
41998,2023,10,05,18,00,AAXX 05184 41998 NIL=
