ESTACION,ANO,MES,DIA,HORA,MINUTO,PARTE
41850,2024,08,09,00,00,AAXX 09004 41850 11340 80802 10251 20250 39956 40054 60759 76166 8672/ 333 56999 58014 70960 82708 84616 88456=
41850,2024,08,09,06,00,AAXX 09064 41850 11350 80203 10278 20260 39968 40065 60077 70562 8562/ 333 56299 58011 70830 82708 84616 88458=
41850,2024,08,09,12,00,AAXX 09124 41850 32456 50000 10293 20260 39935 40032 82530 333 10310 56990 58000 70830 82618 85362=
41850,2024,08,09,18,00,AAXX 09184 41850 31440 70000 10270 20260 39956 40054 70522 83520 333 56990 59005 70820 83617 87459=
41850,2024,08,10,00,00,AAXX 10004 41850 11450 71602 10260 20250 39946 40044 60016 70562 83520 333 56990 59010 70080 83617 87458=
41850,2024,08,10,06,00,AAXX 10064 41850 31450 82002 10270 20250 39950 40048 70522 8452/ 333 56999 59018 70010 84617 88458=
41850,2024,08,10,12,00,AAXX 10124 41850 31450 81002 10275 20260 39923 40020 70522 8352/ 333 56999 59012 70010 83617 88458=
41850,2024,08,10,18,00,AAXX 10184 41850 31440 80000 10260 20250 39946 40044 70522 8352/ 333 56999 59010 70010 83617 88458=
41850,2024,08,11,00,00,AAXX 11004 41850 31450 60802 10263 20260 39926 40024 70522 83520 333 56990 59020 70000 83617 86458=
41850,2024,08,11,06,00,AAXX 11064 41850 32456 51002 10294 20250 39943 40040 82530 333 56990 59007 70000 82618 85362=
41850,2024,08,11,12,00,AAXX 11124 41850 32456 80000 10295 20260 39915 40011 8352/ 333 10324 56999 59008 70000 83618 88458=
41850,2024,08,11,18,00,AAXX 11184 41850 31445 60000 10268 20260 39940 40038 70522 82510 333 56990 59006 70000 82618 86458=
41850,2024,08,12,00,00,AAXX 12004 41850 31440 80000 10265 20265 39943 40041 70522 8352/ 333 56999 58017 70000 83618 88458=
41850,2024,08,12,06,00,AAXX 12064 41850 32457 20000 10304 20260 39938 40035 82500 333 56900 59005 70000 82618=
41850,2024,08,12,12,00,AAXX 12124 41850 31450 80000 10282 20250 39926 40023 8352/ 333 10315 56999 58011 70000 83618 88458=
41850,2024,08,13,00,00,AAXX 13004 41850 31440 80000 10267 20260 39947 40045 8352/ 333 56999 58004 70000 83618 88458=
41850,2024,08,13,06,00,AAXX 13064 41850 31450 80000 10297 20270 39952 40049 70522 8352/ 333 56999 58014 70000 83618 88458=
41850,2024,08,13,12,00,AAXX 13124 41850 31450 20000 10303 20280 39930 40021 70521 82500 333 10338 56900 58004 70000 82618=
41850,2024,08,13,18,00,AAXX 13184 41850 31440 80000 10288 20270 39961 40058 70522 8352/ 333 56999 58011 70000 83618 88458=
41850,2024,08,14,00,00,AAXX 14004 41850 31440 80000 10275 20270 39949 40046 70522 8352/ 333 56999 58002 70000 83618 88458=
41850,2024,08,14,06,00,AAXX 14064 41850 32457 60000 10330 20270 39947 40043 82510 333 56990 59005 70000 82618 86458=
41850,2024,08,14,12,00,AAXX 14124 41850 31450 80000 10305 20270 39922 40018 70522 8352/ 333 10346 56999 59008 70000 83618 88458=
41850,2024,08,15,00,00,AAXX 15004 41850 11440 60000 10260 20250 39935 40033 60287 70562 82510 333 56990 59014 70280 82618 86458=
41850,2024,08,15,06,00,AAXX 15064 41850 32456 80902 10317 20270 39936 40032 8352/ 333 56999 59011 70280 83618 88458=
41850,2024,08,15,12,00,AAXX 15124 41850 32456 50000 10320 20270 39912 40008 82510 333 10342 56990 59010 70280 82618 85458=
41850,2024,08,15,18,00,AAXX 15184 41850 11445 60000 10258 20250 39946 40044 60108 70562 82510 333 56990 59002 70380 82618 86458=
41851,2024,08,09,00,00,AAXX 09004 41851 32450 80000 10274 20240 30002 40065 8352/ 333 56999 58023 70212 83618 88458=
41851,2024,08,09,06,00,AAXX 09064 41851 32450 81801 10320 20260 39998 40059 8352/ 333 56999 58008 70198 83618 88458=
41851,2024,08,09,12,00,AAXX 09124 41851 32450 81801 10294 20260 39971 40033 8352/ 333 10325 56999 58003 70198 83618 88458=
41851,2024,08,09,18,00,AAXX 09184 41851 11340 80000 10265 20260 39993 40056 60233 79562 8492/ 333 56299 59003 70229 81708 84616 81929 88456=
41851,2024,08,10,00,00,AAXX 10004 41851 11350 80000 10270 20260 39983 40046 60519 70296 8462/ 333 56299 59019 70742 81708 84616 88456=
41851,2024,08,10,06,00,AAXX 10064 41851 11350 81801 10278 20270 39986 40048 60243 79596 8492/ 333 56499 59012 70986 81708 84616 81929 88456=
41851,2024,08,10,12,00,AAXX 10124 41851 11450 80000 10290 20260 39957 40019 60056 70262 8352/ 333 10300 56999 59014 71039 83618 88458=
41851,2024,08,10,18,00,AAXX 10184 41851 11450 80000 10267 20260 39983 40046 60018 70262 8352/ 333 56999 59010 70820 83618 88458=
41851,2024,08,11,00,00,AAXX 11004 41851 32450 80000 10270 20260 39965 40027 8352/ 333 56999 59018 70307 83618 88458=
41851,2024,08,11,06,00,AAXX 11064 41851 11340 80000 10282 20260 39977 40039 60054 79562 8492/ 333 56499 59009 70114 81708 84616 81929 88456=
41851,2024,08,11,12,00,AAXX 11124 41851 11450 80000 10296 20280 39952 40014 60056 70296 8352/ 333 10320 56999 59005 70111 83618 88458=
41851,2024,08,11,18,00,AAXX 11184 41851 32450 80000 10283 20270 39978 40040 8352/ 333 56999 59005 70101 83618 88458=
41851,2024,08,12,00,00,AAXX 12004 41851 32350 80000 10275 20270 39974 40036 8462/ 333 56499 58009 70101 81708 84616 88456=
41851,2024,08,12,06,00,AAXX 12064 41851 32450 60000 10330 20260 39978 40039 82520 333 56990 58001 70050 82618 86458=
41851,2024,08,12,12,00,AAXX 12124 41851 11450 80000 10300 20270 39960 40022 60066 70262 8352/ 333 56999 58008 70058 83618 88458=
41851,2024,08,12,18,00,AAXX 12184 41851 32450 80000 10279 20270 39977 40039 8352/ 333 56999 59001 70058 83618 88458=
41851,2024,08,13,00,00,AAXX 13004 41851 32450 80000 10276 20270 39984 40046 8352/ 333 56999 58010 70058 83618 88458=
41851,2024,08,13,06,00,AAXX 13064 41851 32450 80000 10306 20270 39991 40053 8352/ 333 56999 58013 70058 83618 88458=
41851,2024,08,13,12,00,AAXX 13124 41851 11450 80000 10311 20280 39963 40024 60056 70262 8352/ 333 10330 56999 58003 70048 83618 88458=
41851,2024,08,13,18,00,AAXX 13184 41851 32450 80000 10280 20270 39992 40054 8352/ 333 56999 58015 70048 83618 88458=
41851,2024,08,14,00,00,AAXX 14004 41851 32450 80000 10282 20270 39984 40046 8352/ 333 56999 58000 70048 83618 88458=
41851,2024,08,14,06,00,AAXX 14064 41851 32450 80000 10345 20270 39985 40046 8352/ 333 56999 59006 70048 83618 88458=
41851,2024,08,14,12,00,AAXX 14124 41851 32450 60000 10333 20280 39952 40013 83510 333 10357 56990 59011 70000 83618 85459=
41851,2024,08,14,18,00,AAXX 14184 41851 32450 80000 10296 20290 39990 40051 8352/ 333 56999 59002 70000 83618 88458=
41851,2024,08,15,06,00,AAXX 15064 41851 32450 60000 10327 20270 39973 40034 83530 333 56990 59012 70145 83618 83362=
41851,2024,08,15,12,00,AAXX 15124 41851 11450 50000 10312 20270 39950 40011 60045 70162 83510 333 10340 56990 59002 70187 83618 84459=
41851,2024,08,15,18,00,AAXX 15184 41851 32450 30000 10272 20240 39983 40046 82530 333 56990 59007 70187 82618=
41856,2024,08,09,00,00,AAXX 09004 41856 32940 41401 10267 20260 30018 40053 84030 333 56090 58013 70010 84362=
41856,2024,08,09,06,00,AAXX 09064 41856 32450 61402 10315 20260 30027 40062 83510 333 56990 58010 70010 83618 84658=
41856,2024,08,09,12,00,AAXX 09124 41856 32450 80000 10304 20250 39996 40031 8562/ 333 10324 56999 58004 70000 84618 88458=
41856,2024,08,09,18,00,AAXX 09184 41856 32430 60000 10278 20260 30022 40057 84430 333 56990 59002 70000 83618 83362=
41856,2024,08,10,00,00,AAXX 10004 41856 32440 61401 10270 20260 30011 40046 84430 333 56990 59007 70000 83618 83362=
41856,2024,08,10,06,00,AAXX 10064 41856 32450 51301 10320 20250 30011 40046 83430 333 56990 59016 70000 83618 83362=
41856,2024,08,10,12,00,AAXX 10124 41856 11440 60501 10282 20260 39988 40023 60024 72162 83520 333 10351 56990 59008 70022 83618 86458=
41856,2024,08,10,18,00,AAXX 10184 41856 32430 80902 10276 20270 30010 40045 8452/ 333 56999 59012 84618 88458=
41856,2024,08,11,00,00,AAXX 11004 41856 32440 60000 10270 20260 39989 40024 83520 333 56990 59022 70022 83618 86458=
41856,2024,08,11,06,00,AAXX 11064 41856 11350 61301 10280 20270 30002 40037 60164 76196 83720 333 56290 59009 70188 81709 83615 86456=
41856,2024,08,11,12,00,AAXX 11124 41856 11450 41801 10295 20270 39981 40016 60017 70162 83430 333 10310 56990 59007 70172 82618 84362=
41856,2024,08,11,18,00,AAXX 11184 41856 32430 60000 10274 20260 30007 40042 83520 333 56990 59003 70163 83618 86458=
41856,2024,08,12,00,00,AAXX 12004 41856 32440 80000 10270 20260 30001 40036 8662/ 333 56499 58012 70163 83710 86615 88457=
41856,2024,08,12,06,00,AAXX 12064 41856 32450 61301 10310 20260 30007 40042 84420 333 56990 58005 70005 83618 86458=
41856,2024,08,12,12,00,AAXX 12124 41856 32950 41902 10316 20270 39983 40018 84030 333 10330 56090 58002 70000 84362=
41856,2024,08,12,18,00,AAXX 12184 41856 32430 41401 10285 20270 30007 40042 84400 333 56900 58000 70000 83618=
41856,2024,08,13,00,00,AAXX 13004 41856 32330 81301 10273 20260 30008 40043 8672/ 333 56499 58007 70000 83710 83618 88458=
41856,2024,08,13,06,00,AAXX 13064 41856 32450 81301 10300 20270 30021 40056 8442/ 333 56999 58014 70000 82618 88458=
41856,2024,08,13,12,00,AAXX 13124 41856 32450 61201 10296 20280 39991 40026 82510 333 10340 56990 58008 70000 82618 86458=
41856,2024,08,13,18,00,AAXX 13184 41856 32930 60000 10285 20280 30017 40052 86030 333 56090 58010 70000 86362=
41856,2024,08,14,00,00,AAXX 14004 41856 32450 70000 10282 20270 30012 40047 83430 333 56990 58004 70000 82618 85362=
41856,2024,08,14,06,00,AAXX 14064 41856 32456 41402 10335 20270 30013 40047 84400 333 56900 59008 70000 81618 83830=
41856,2024,08,14,12,00,AAXX 14124 41856 32956 50000 10331 20280 39977 40012 85030 333 10360 56090 59014 70000 84362=
41856,2024,08,14,18,00,AAXX 14184 41856 32440 60000 10298 20290 30005 40040 84430 333 56990 59012 70000 83618 83458=
41856,2024,08,15,00,00,AAXX 15004 41856 32440 60000 10272 20260 30005 40040 84430 333 56990 59007 70000 83618 83458=
41856,2024,08,15,06,00,AAXX 15064 41856 32450 71401 10328 20270 39999 40034 84430 333 56990 59014 70000 83618 84458=
41856,2024,08,15,12,00,AAXX 15124 41856 32450 30000 10324 20260 39978 40013 83030 333 56090 58001 70000 83362=
41856,2024,08,15,18,00,AAXX 15184 41856 32940 30000 10294 20280 30003 40038 83030 333 56090 59002 70000 83362=
41858,2024,08,09,00,00,AAXX 09004 41858 01440 70000 10280 20260 30008 40053 70522 84520 333 58013 70000 84615 86458==
41858,2024,08,09,03,00,AAXX 09034 41858 01440 71205 10298 20260 30021 40066 70522 84520 333 20275 58007 70000 84615 86458==
41858,2024,08,09,06,00,AAXX 09064 41858 01440 61204 10325 20260 30016 40060 70522 84520 333 58008 70000 84616 86458==
41858,2024,08,09,09,00,AAXX 09094 41858 01550 51510 10324 20250 39991 40035 70522 83230 333 58007 70000 83825 85362==
41858,2024,08,09,12,00,AAXX 09124 41858 01450 41505 10304 20250 39988 40033 70522 84800 333 10340 58003 70000 83615 83825==
41858,2024,08,09,15,00,AAXX 09154 41858 01440 80000 10288 20260 30011 40056 76122 8452/ 333 59002 70002 84616 88458==
41858,2024,08,09,18,00,AAXX 09184 41858 21440 80000 10282 20260 30025 40070 70562 8452/ 333 59002 60015 70010 84616 88458==
41858,2024,08,10,00,00,AAXX 10004 41858 01430 80000 10280 20260 30001 40046 70522 8452/ 333 59007 70010 84616 88458==
41858,2024,08,10,03,00,AAXX 10034 41858 01440 61805 10310 20260 30010 40055 70522 83520 333 20272 59011 70010 83616 86458==
41858,2024,08,10,06,00,AAXX 10064 41858 01440 61805 10312 20260 30002 40047 70562 83520 333 59014 70010 83616 86458==
41858,2024,08,10,09,00,AAXX 10094 41858 01440 80305 10302 20260 39980 40025 70562 8452/ 333 59011 70024 84616 88458==
41858,2024,08,10,12,00,AAXX 10124 41858 01440 80000 10300 20260 39976 40020 70522 8452/ 333 10325 59012 70024 84615 88458==
41858,2024,08,10,15,00,AAXX 10154 41858 01430 80000 10274 20250 39996 40041 76162 8452/ 333 59015 70142 84614 88458==
41858,2024,08,10,18,00,AAXX 10184 41858 21430 80000 10274 20250 30015 40060 70562 8452/ 333 59010 60137 70144 84614 88458==
41858,2024,08,10,21,00,AAXX 10214 41858 01330 80000 10276 20270 30002 40047 70522 8572/ 333 58004 70144 83708 85614 88458==
41858,2024,08,11,00,00,AAXX 11004 41858 01330 80000 10278 20270 39979 40024 70522 8572/ 333 59022 70144 83708 85614 88458==
41858,2024,08,11,03,00,AAXX 11034 41858 01435 80000 10295 20270 30001 40046 70522 8452/ 333 20266 59009 70144 84615 88458==
41858,2024,08,11,06,00,AAXX 11064 41858 01330 80000 10295 20280 39996 40041 76122 8562/ 333 59007 70000 84708 85614 88458==
41858,2024,08,11,09,00,AAXX 11094 41858 01430 80000 10294 20260 39975 40020 76162 8452/ 333 59005 70150 84614 88458==
41858,2024,08,11,12,00,AAXX 11124 41858 21440 60000 10300 20260 39970 40014 70562 84520 333 10307 59006 60027 70150 84616 86458==
41858,2024,08,11,15,00,AAXX 11154 41858 01440 60000 10280 20260 39982 40027 70522 83520 333 59014 70030 83615 86458==
41858,2024,08,11,18,00,AAXX 11184 41858 01440 60000 10275 20270 39999 40044 70522 83520 333 59016 70020 83615 86458==
41858,2024,08,11,21,00,AAXX 11214 41858 01435 80000 10274 20260 39993 40038 70522 8452/ 333 59009 70020 84616 88458==
41858,2024,08,12,00,00,AAXX 12004 41858 01430 80000 10282 20260 39994 40039 70522 8452/ 333 58015 70020 84616 88458==
41858,2024,08,12,03,00,AAXX 12034 41858 01430 80000 10290 20270 30003 40048 72162 8452/ 333 20272 58002 70030 84616 88458==
41858,2024,08,12,06,00,AAXX 12064 41858 21440 60000 10325 20270 39996 40040 70562 83520 333 58000 60018 70030 83616 86458==
41858,2024,08,12,09,00,AAXX 12094 41858 01435 80000 10300 20260 39974 40019 70522 8452/ 333 59001 70010 84615 88458==
41858,2024,08,12,12,00,AAXX 12124 41858 01435 60000 10310 20270 39974 40018 70522 83520 333 10335 58004 70010 83615 85458==
41858,2024,08,12,15,00,AAXX 12154 41858 01/35 30000 10298 20280 39998 40043 70520 83040 333 58016 70010 83362==
41858,2024,08,12,18,00,AAXX 12184 41858 01/30 30000 10292 20270 30004 40049 70520 83040 333 58005 70010 83362==
41858,2024,08,12,21,00,AAXX 12214 41858 01430 70000 10286 20270 39993 40038 70522 84520 333 58000 70010 84615 86458==
41858,2024,08,13,00,00,AAXX 13004 41858 01420 80000 10284 20260 39998 40043 71022 8452/ 333 58004 70010 84615 88458==
41858,2024,08,13,03,00,AAXX 13034 41858 01330 80000 10298 20270 30017 40062 70522 8562/ 333 20276 58014 70000 83708 85614 88458==
41858,2024,08,13,06,00,AAXX 13064 41858 01435 70000 10322 20270 30008 40052 70520 84520 333 58012 70000 84615 87458==
41858,2024,08,13,09,00,AAXX 13094 41858 01/40 41205 10332 20260 39982 40026 70522 84020 333 58008 70000 84460==
41858,2024,08,13,12,00,AAXX 13124 41858 01540 50000 10324 20270 39980 40024 70522 83220 333 10335 58006 70000 83825 84460==
41858,2024,08,13,15,00,AAXX 13154 41858 01440 80000 10284 20270 30008 40053 76162 8452/ 333 58010 70086 84614 88458==
41858,2024,08,13,18,00,AAXX 13184 41858 11440 80000 10280 20270 30024 40069 60096 70562 8452/ 333 58020 70086 84615 88458==
41858,2024,08,13,21,00,AAXX 13214 41858 01430 80000 10286 20280 39998 40043 70522 8452/ 333 58005 70086 84615 88458==
41858,2024,08,14,00,00,AAXX 14004 41858 01415 80000 10290 20280 30002 40047 71022 8452/ 333 58004 70086 84615 88458==
41858,2024,08,14,03,00,AAXX 14034 41858 01435 60000 10315 20280 30011 40055 70522 83520 333 20278 59006 70086 83615 85458==
41858,2024,08,14,06,00,AAXX 14064 41858 01440 50804 10350 20270 30006 40050 70522 85800 333 59002 70086 83615 83825==
41858,2024,08,14,09,00,AAXX 14094 41858 01550 30000 10352 20240 39974 40018 70520 83100 333 59008 70086 83825==
41858,2024,08,14,12,00,AAXX 14124 41858 01550 60000 10344 20250 39968 40012 70522 83201 333 10356 59012 70068 83825 85074==
41858,2024,08,14,15,00,AAXX 14154 41858 01440 40000 10320 20270 39994 40038 70522 83530 333 59014 70000 83616 84362==
41858,2024,08,14,21,00,AAXX 14214 41858 01430 80000 10280 20270 39986 40031 70562 8452/ 333 59012 70060 84616 88458==
41858,2024,08,15,00,00,AAXX 15004 41858 11440 60000 10278 20270 39992 40037 60066 70562 84520 333 59010 70060 84616 86458==
41858,2024,08,15,03,00,AAXX 15034 41858 01440 50904 10305 20270 39996 40041 70522 83520 333 20255 59015 70060 83615 85458==
41858,2024,08,15,06,00,AAXX 15064 41858 01/50 41205 10336 20280 39988 40032 70522 84030 333 59018 70060 84362==
41858,2024,08,15,09,00,AAXX 15094 41858 01450 51805 10358 20270 39972 40015 70522 83520 333 59002 70060 83616 85458==
41858,2024,08,15,12,00,AAXX 15124 41858 01450 50902 10342 20270 39967 40011 70522 83520 333 10362 59001 70060 83618 85458==
41858,2024,08,15,15,00,AAXX 15154 41858 01440 60000 10308 20270 39990 40035 70522 83540 333 59004 70060 83615 85362==
41858,2024,08,15,18,00,AAXX 15184 41858 01430 60905 10290 20270 39996 40041 79522 83920 333 59012 70050 83615 86458 82930==
41858,2024,08,15,21,00,AAXX 15214 41858 01430 80000 10280 20260 39987 40032 70596 8452/ 333 58001 70170 84615 88458==
41859,2024,08,09,00,00,AAXX 09004 41859 02430 80000 10273 20273 30018 40055 8562/ 333 58013 70018 83710 84618 88458==
41859,2024,08,09,03,00,AAXX 09034 41859 02450 71802 10298 20260 30030 40067 8562/ 333 20269 58009 70018 83710 84618 87458==
41859,2024,08,09,06,00,AAXX 09064 41859 02450 61302 10327 20250 30025 40061 84620 333 58008 70018 82710 83618 86458==
41859,2024,08,09,09,00,AAXX 09094 41859 02450 71302 10320 20270 39999 40035 85420 333 58009 70018 82618 84828 87458==
41859,2024,08,09,12,00,AAXX 09124 41859 02450 41302 10315 20270 39997 40033 83430 333 10325 58000 70018 81618 83828 84362==
41859,2024,08,09,15,00,AAXX 09154 41859 01430 80000 10282 20260 30021 40058 72162 8562/ 333 59006 70028 83710 84618 88458==
41859,2024,08,09,18,00,AAXX 09184 41859 21430 81302 10284 20270 30020 40057 70262 8562/ 333 59002 60018 70010 83710 84618 88458==
41859,2024,08,09,21,00,AAXX 09214 41859 02430 81802 10282 20260 30008 40045 8562/ 333 59005 70010 83710 84618 88458==
41859,2024,08,10,00,00,AAXX 10004 41859 02435 81302 10278 20270 30007 40044 8562/ 333 59011 70010 83710 84618 88458==
41859,2024,08,10,03,00,AAXX 10034 41859 02450 81302 10303 20260 30018 40054 8562/ 333 20270 59012 70010 82710 84618 88458==
41859,2024,08,10,06,00,AAXX 10064 41859 21340 81302 10318 20270 30011 40047 71762 8692/ 333 59014 60047 70050 83709 84616 88457 81930==
41859,2024,08,10,09,00,AAXX 10094 41859 01450 70000 10325 20270 39985 40021 70166 84420 333 59014 70092 83618 87458==
41859,2024,08,10,12,00,AAXX 10124 41859 01340 80000 10272 20272 39986 40023 79596 8692/ 333 10335 59011 70366 83709 84616 88456 81930==
41859,2024,08,10,15,00,AAXX 10154 41859 01420 81302 10265 20265 30003 40040 72996 8562/ 333 59018 70696 83710 85618 88458==
41859,2024,08,10,18,00,AAXX 10184 41859 21430 80902 10272 20270 30009 40046 70296 8562/ 333 59011 60348 70696 83710 85618 88458==
41859,2024,08,10,21,00,AAXX 10214 41859 02340 80901 10274 20270 39997 40034 8562/ 333 59011 70696 83710 84618 88458==
41859,2024,08,11,00,00,AAXX 11004 41859 02440 80000 10275 20270 39988 40025 8562/ 333 59019 70696 83710 84618 88458==
41859,2024,08,11,03,00,AAXX 11034 41859 02450 80000 10289 20280 30008 40045 8562/ 333 20257 59010 70656 83710 84618 88458==
41859,2024,08,11,06,00,AAXX 11064 41859 01340 80000 10279 20270 30003 40040 79562 8672/ 333 59008 70040 83708 84616 88456==
41859,2024,08,11,09,00,AAXX 11094 41859 02440 81302 10290 20280 39985 40022 8562/ 333 58000 70686 83710 84618 88458==
41859,2024,08,11,12,00,AAXX 11124 41859 11440 81302 10292 20270 39979 40016 60036 70262 8562/ 333 10300 59007 70412 82710 83618 88458==
41859,2024,08,11,15,00,AAXX 11154 41859 02430 80000 10282 20270 39997 40034 8562/ 333 59006 70072 83710 84618 88458==
41859,2024,08,11,18,00,AAXX 11184 41859 02430 80000 10277 20270 30008 40045 8562/ 333 59001 70072 83710 84618 88458==
41859,2024,08,11,21,00,AAXX 11214 41859 02430 80000 10273 20260 39994 40031 8562/ 333 59003 70072 83710 84618 88458==
41859,2024,08,12,00,00,AAXX 12004 41859 02430 80000 10270 20260 30001 40038 8562/ 333 58013 70072 83710 84618 88458==
41859,2024,08,12,03,00,AAXX 12034 41859 02450 80000 10301 20270 30011 40047 8562/ 333 20268 58003 70072 82710 84618 88458==
41859,2024,08,12,06,00,AAXX 12064 41859 02450 80902 10318 20270 30003 40039 8562/ 333 58000 70032 82710 83618 88458==
41859,2024,08,12,09,00,AAXX 12094 41859 41450 72103 10330 20270 39980 40016 70162 84610 333 59005 82710 83618 87458==
41859,2024,08,12,12,00,AAXX 12124 41859 11450 52101 10315 20280 39984 40020 60006 70162 83430 333 10330 58005 81618 82828 85362==
41859,2024,08,12,15,00,AAXX 12154 41859 42/30 30000 10294 20280 30002 40039 83030 333 58005 83362==
41859,2024,08,12,18,00,AAXX 12184 41859 41430 80000 10290 20280 30006 40043 7562/ 333 59002 82710 84618 88458==
41859,2024,08,12,21,00,AAXX 12214 41859 42430 81302 10285 20280 30003 40040 8562/ 333 58009 82710 84618 88458==
41859,2024,08,13,00,00,AAXX 13004 41859 01335 81302 10280 20260 30005 40042 76122 8672/ 333 58004 70000 84708 85616 88456==
41859,2024,08,13,03,00,AAXX 13034 41859 42450 81301 10296 20270 30025 40062 8562/ 333 20275 58014 82710 83618 88458==
41859,2024,08,13,06,00,AAXX 13064 41859 01340 80000 10298 20280 30021 40057 79522 8592/ 333 58018 70010 83708 84616 88456 81930==
41859,2024,08,13,09,00,AAXX 13094 41859 02450 70000 10335 20270 39988 40025 84470 333 58008 70012 83618 86458==
41859,2024,08,13,12,00,AAXX 13124 41859 02450 70000 10327 20270 39989 40028 84470 333 10340 58005 70012 83618 86458==
41859,2024,08,13,15,00,AAXX 13154 41859 02430 70000 10305 20290 30017 40053 84470 333 58015 70012 83618 86458==
41859,2024,08,13,18,00,AAXX 13184 41859 02430 70000 10305 20290 30017 40053 84470 333 58015 70012 83618 86458==
41859,2024,08,13,21,00,AAXX 13214 41859 02430 80000 10290 20280 30009 40046 8562/ 333 58006 70012 82710 84618 88458==
41859,2024,08,14,00,00,AAXX 14004 41859 02430 80000 10287 20280 30004 40041 8562/ 333 59001 70012 82710 84618 88458==
41859,2024,08,14,03,00,AAXX 14034 41859 02450 50000 10331 20260 30020 40056 83510 333 20284 59001 70012 83618 85458==
41859,2024,08,14,06,00,AAXX 14064 41859 02450 50000 10349 20270 30015 40051 83510 333 59006 70012 83618 85458==
41859,2024,08,14,09,00,AAXX 14094 41859 02450 61302 10360 20260 39981 40018 83510 333 59007 70000 83618 86458==
41859,2024,08,14,12,00,AAXX 14124 41859 02440 61302 10342 20260 39974 40011 83510 333 10362 70000 83618 86458==
41859,2024,08,14,15,00,AAXX 14154 41859 02430 51302 10318 20290 39999 40035 82530 333 59018 70000 82618 83362==
41859,2024,08,14,18,00,AAXX 14184 41859 02430 81302 10308 20280 30018 40054 8562/ 333 58001 70000 82710 83618 88458==
41859,2024,08,14,21,00,AAXX 14214 41859 02430 81302 10292 20270 30008 40045 8562/ 333 59001 70000 82710 84618 88458==
41859,2024,08,15,00,00,AAXX 15004 41859 02435 81302 10277 20260 30004 40041 8562/ 333 58000 70000 82710 84618 88458==
41859,2024,08,15,03,00,AAXX 15034 41859 02450 71302 10339 20250 30000 40037 84620 333 20265 59020 70000 82710 83618 87458==
41859,2024,08,15,06,00,AAXX 15064 41859 02450 81302 10343 20260 39997 40033 8562/ 333 59018 70000 83710 84618 88458==
41859,2024,08,15,09,00,AAXX 15094 41859 02450 61302 10350 20260 39977 40014 84430 333 59004 70000 82618 83828 86362==
41859,2024,08,15,12,00,AAXX 15124 41859 02450 60000 10338 20270 39977 40014 84430 333 10350 58003 70000 82618 83828 86362==
41859,2024,08,15,15,00,AAXX 15154 41859 02430 70000 10315 20290 30000 40036 84620 333 58001 70000 82710 83618 87458==
41859,2024,08,15,18,00,AAXX 15184 41859 01430 80902 10285 20260 30008 40045 71722 8532/ 333 59010 70000 83710 85618 88458 81930==
41859,2024,08,15,21,00,AAXX 15214 41859 02430 50902 10280 20250 39983 40020 84630 333 59025 70000 82710 83618 85362==
41863,2024,08,09,00,00,AAXX 09004 41863 02/56 20901 10275 20260 30004 40046 82030 333 58007 70008 82362==
41863,2024,08,09,03,00,AAXX 09034 41863 02457 61303 10300 20260 30022 40064 86400 333 20270 58009 70008 84618 86825==
41863,2024,08,09,06,00,AAXX 09064 41863 02457 81302 10330 20260 30013 40056 8552/ 333 58004 70008 85618 88458==
41863,2024,08,09,09,00,AAXX 09094 41863 01350 81801 10290 20270 39990 40032 76162 8572/ 333 58008 70076 83708 84614 88456==
41863,2024,08,09,12,00,AAXX 09124 41863 21556 50000 10290 39990 40032 70166 83430 333 10326 58003 60195 70192 83620 84365==
41863,2024,08,09,15,00,AAXX 09154 41863 02450 80000 10286 20280 30009 40051 8452/ 333 59006 70192 84618 88458==
41863,2024,08,09,18,00,AAXX 09184 41863 02550 30000 10282 20270 30014 40056 83400 333 58001 70192 83620==
41863,2024,08,09,21,00,AAXX 09214 41863 02450 31802 10280 20270 30001 40043 83400 333 59010 70192 83618==
41863,2024,08,10,00,00,AAXX 10004 41863 02450 81702 10280 20270 30001 40043 8552/ 333 59003 70192 85618 88458==
41863,2024,08,10,03,00,AAXX 10034 41863 02456 81302 10290 20270 30012 40054 8552/ 333 20274 59010 70192 88458==
41863,2024,08,10,06,00,AAXX 10064 41863 02557 31802 10330 20270 30002 40044 83400 333 59011 70192 83620==
41863,2024,08,10,12,00,AAXX 10124 41863 21457 70901 10300 20260 39979 40021 70162 84510 333 10332 59011 69955 70005 85618 87458==
41863,2024,08,10,15,00,AAXX 10154 41863 01350 81301 10275 20270 30000 40042 76162 8552/ 333 59009 70022 82707 85614 88456==
41863,2024,08,10,18,00,AAXX 10184 41863 21350 80000 10274 20260 30002 40045 70266 8562/ 333 59012 60049 70040 82707 85614 88456==
41863,2024,08,10,21,00,AAXX 10214 41863 02340 80901 10273 20260 39992 40035 8562/ 333 59009 70040 82707 85614 88456==
41863,2024,08,11,00,00,AAXX 11004 41863 02356 80901 10276 20270 39980 40022 8562/ 333 59021 70040 82707 85614 88456==
41863,2024,08,11,03,00,AAXX 11034 41863 02456 61802 10294 20270 30003 40045 83520 333 20268 59009 70040 83618 86458==
41863,2024,08,11,06,00,AAXX 11064 41863 02456 80903 10308 20270 39997 40039 8452/ 333 59005 70040 84618 88458==
41863,2024,08,11,09,00,AAXX 11094 41863 02456 80000 10305 20270 39998 40018 8552/ 333 59001 70104 85616 88459==
41863,2024,08,11,12,00,AAXX 11124 41863 21456 80000 10300 20270 39971 40013 70062 8552/ 333 10320 59008 60075 70105 85618 88458==
41863,2024,08,11,15,00,AAXX 11154 41863 02450 50000 10288 20280 39987 40029 82520 333 59013 70088 82618 85458==
41863,2024,08,11,18,00,AAXX 11184 41863 02450 50000 10285 20280 30000 40042 82520 333 59002 70070 82618 85458==
41863,2024,08,11,21,00,AAXX 11214 41863 02440 60000 10283 20260 39998 40040 83520 333 58006 70070 83618 86458==
41863,2024,08,12,00,00,AAXX 12004 41863 02450 70901 10281 20270 39994 40036 84520 333 58014 70070 84614 87458==
41863,2024,08,12,03,00,AAXX 12034 41863 01450 80902 10278 20270 30004 40046 76362 8452/ 333 20274 58001 70284 84616 88457==
41863,2024,08,12,06,00,AAXX 12064 41863 21457 51303 10322 20260 30001 40043 70166 85400 333 58004 60248 70312 83618 85825==
41863,2024,08,12,09,00,AAXX 12094 41863 02456 81302 10322 20260 39975 40017 8552/ 333 58001 70242 85618 88458==
41863,2024,08,12,12,00,AAXX 12124 41863 02456 80000 10315 20270 39975 40017 8552/ 333 10327 58004 70242 85618 88458==
41863,2024,08,12,15,00,AAXX 12154 41863 02/56 30000 10293 20270 39998 40040 83030 333 58011 70242 83362==
41863,2024,08,12,18,00,AAXX 12184 41863 02456 80000 10285 20280 30000 40042 8552/ 333 58000 70242 85618 88458==
41863,2024,08,12,21,00,AAXX 12214 41863 02456 80901 10282 20270 30001 40043 8552/ 333 58003 70242 85618 88458==
41863,2024,08,13,00,00,AAXX 13004 41863 02450 81302 10280 20260 30002 40044 8552/ 333 58008 70242 85618 88458==
41863,2024,08,13,03,00,AAXX 13034 41863 02456 80000 10294 20270 30017 40059 8552/ 333 20266 58013 70028 85618 88458==
41863,2024,08,13,06,00,AAXX 13064 41863 02457 60903 10330 20270 30008 40050 84520 333 58007 70000 84618 86458==
41863,2024,08,13,09,00,AAXX 13094 41863 02457 51702 10330 20270 39982 40024 82530 333 58007 70000 82618 83362==
41863,2024,08,13,12,00,AAXX 13124 41863 02/57 40000 10320 20270 39981 40023 84030 333 10336 58006 70000 84362==
41863,2024,08,13,15,00,AAXX 13154 41863 01456 80000 10292 20270 30004 40046 72122 8452/ 333 58006 70010 84618 88458==
41863,2024,08,13,18,00,AAXX 13184 41863 21456 80000 10292 20270 30012 40054 70262 8452/ 333 58012 60017 70010 84618 88458==
41863,2024,08,13,21,00,AAXX 13214 41863 02456 80000 10288 20280 30002 40044 8452/ 333 58001 70010 84618 88458==
41863,2024,08,14,00,00,AAXX 14004 41863 02456 80902 10287 20280 30003 40045 8452/ 333 58001 70010 84618 88458==
41863,2024,08,14,03,00,AAXX 14034 41863 02456 70903 10312 20280 30012 40054 84520 333 20284 59005 70010 84618 87458==
41863,2024,08,14,06,00,AAXX 14064 41863 02457 50903 10346 20270 30007 40048 85400 333 59001 70010 83618 85828==
41863,2024,08,14,09,00,AAXX 14094 41863 02457 30902 10360 20270 39976 40017 83400 333 59006 70010 83618==
41863,2024,08,14,12,00,AAXX 14124 41863 02557 30000 10350 20270 39972 40013 83400 333 10360 59009 70010 83620==
41863,2024,08,14,15,00,AAXX 14154 41863 02950 00000 10308 20280 39998 40040 333 59006 70000==
41863,2024,08,14,18,00,AAXX 14184 41863 02550 30000 10301 20280 30013 40055 83400 333 58001 70000 83620==
41863,2024,08,14,21,00,AAXX 14214 41863 01450 80903 10275 20270 39999 40041 70396 8592/ 333 59003 70042 85617 88458 81930==
41863,2024,08,15,00,00,AAXX 15004 41863 11450 80902 10280 20270 39993 40035 60046 70296 8552/ 333 59010 70042 85618 88458==
41863,2024,08,15,03,00,AAXX 15034 41863 02457 50903 10305 20280 39997 40039 83520 333 20267 59015 70042 83618 85458==
41863,2024,08,15,06,00,AAXX 15064 41863 02457 61303 10342 20270 39993 40034 86400 333 59014 70042 83618 86828==
41863,2024,08,15,09,00,AAXX 15094 41863 02457 60901 10345 20270 39969 40010 86400 333 59007 70042 83618 86828==
41863,2024,08,15,12,00,AAXX 15124 41863 02/57 40000 10308 20270 39967 40009 84030 333 10351 59005 70042 84362==
41863,2024,08,15,15,00,AAXX 15154 41863 02/50 43101 10302 20280 39991 40033 84030 333 59007 70042 84362==
41863,2024,08,15,18,00,AAXX 15184 41863 22450 50503 10295 20270 30000 40042 83520 333 59013 69925 70044 83618 85458==
41863,2024,08,15,21,00,AAXX 15214 41863 02450 50502 10285 20270 39991 40033 83520 333 59008 70002 83618 85458==
41881,2024,08,09,00,00,AAXX 09004 41881 11456 70901 10268 20268 30029 40049 60054 70262 84520 333 56290 58009 70050 84616 87458=
41881,2024,08,09,06,00,AAXX 09064 41881 32457 71703 10310 20260 30035 40055 84520 333 56490 58006 70050 84617 87459=
41881,2024,08,09,12,00,AAXX 09124 41881 32456 71804 10294 20250 30009 40028 84520 333 10322 56490 59001 70050 84618 87459=
41881,2024,08,09,18,00,AAXX 09184 41881 32450 31002 10280 20270 30039 40059 83500 333 56900 59003 70050 83618=
41881,2024,08,10,00,00,AAXX 10004 41881 32456 71801 10270 20260 30022 40042 84520 333 56490 59007 70000 84618 87459=
41881,2024,08,10,06,00,AAXX 10064 41881 32457 61802 10320 20270 30026 40045 83520 333 56990 59009 70000 83617 86459=
41881,2024,08,10,12,00,AAXX 10124 41881 32456 70901 10310 20270 30001 40021 84520 333 10340 56490 59008 70000 84618 87459=
41881,2024,08,10,18,00,AAXX 10184 41881 11340 80901 10270 20260 30028 40048 60313 70262 8562/ 333 56299 59011 70310 83710 85616 88458=
41881,2024,08,11,00,00,AAXX 11004 41881 32450 80901 10266 20260 30024 40044 85521 333 56299 58002 70310 85617 88458=
41881,2024,08,11,06,00,AAXX 11064 41881 32456 80901 10295 20280 30020 40039 85521 333 56299 59006 70310 85617 88458=
41881,2024,08,11,12,00,AAXX 11124 41881 32456 70901 10300 20270 39995 40015 84520 333 10305 56490 59006 70310 84618 87459=
41881,2024,08,11,18,00,AAXX 11184 41881 32450 61601 10290 20270 30014 40034 83520 333 56990 59014 70000 83617 86459=
41881,2024,08,12,00,00,AAXX 12004 41881 32456 70901 10277 20270 30009 40029 84520 333 56490 59015 70000 84617 87459=
41881,2024,08,12,06,00,AAXX 12064 41881 11456 71802 10302 20280 30022 40042 60076 70162 84520 333 56490 58002 70070 84615 87458=
41881,2024,08,12,12,00,AAXX 12124 41881 11450 81801 10302 20280 39998 42218 69985 70262 8552/ 333 10310 56499 58003 70078 85615 88458=
41881,2024,08,12,18,00,AAXX 12184 41881 32450 71802 10275 20270 30025 40044 84520 333 56490 58011 70078 84615 87458=
41881,2024,08,13,00,00,AAXX 13004 41881 32450 70902 10275 20270 30020 40039 84520 333 56290 58011 70078 84616 87459=
41881,2024,08,13,06,00,AAXX 13064 41881 32456 61701 10325 20270 30034 40054 83520 333 56490 58012 70008 83616 86459=
41881,2024,08,13,12,00,AAXX 13124 41881 11456 61601 10310 20270 39999 40018 60086 70262 83520 333 10330 56990 58001 70080 83615 86458=
41881,2024,08,13,18,00,AAXX 13184 41881 11450 80901 10278 20270 30037 40056 69960 70262 8552/ 333 56999 58012 70086 85615 88458=
41881,2024,08,14,00,00,AAXX 14004 41881 31440 80000 10284 20270 30024 40044 70522 8552/ 333 56999 58004 70086 85616 88459=
41881,2024,08,14,06,00,AAXX 14064 41881 32456 61001 10330 20260 30026 40046 83520 333 56290 59008 70086 83616 86459=
41881,2024,08,14,12,00,AAXX 14124 41881 11456 80000 10290 20270 39997 40017 60014 70362 8552/ 333 10347 56999 59002 70016 85615 88458=
41881,2024,08,14,18,00,AAXX 14184 41881 32450 50501 10284 20270 30028 40047 83520 333 56990 59009 70010 83615 85458=
41881,2024,08,15,00,00,AAXX 15004 41881 32456 50802 10270 20260 30017 40037 83520 333 56990 59007 70010 83616 85459=
41881,2024,08,15,06,00,AAXX 15064 41881 32457 60502 10325 20250 30012 40032 83520 333 56290 59014 70010 83616 86459=
41881,2024,08,15,12,00,AAXX 15124 41881 32457 50000 10320 20270 39987 40007 83520 333 10337 56990 59010 70000 83617 85460=
41881,2024,08,15,18,00,AAXX 15184 41881 NIL=
41883,2024,08,09,00,00,AAXX 09004 41883 02440 80000 10274 20250 30032 40052 8552/ 333 58013 70066 85616 88459==
41883,2024,08,09,03,00,AAXX 09034 41883 02456 60902 10292 20260 30045 40065 83510 333 20272 58008 70066 83616 86459==
41883,2024,08,09,06,00,AAXX 09064 41883 01356 80902 10280 20260 30043 40063 76162 8572/ 333 58012 70030 85709 88458==
41883,2024,08,09,09,00,AAXX 09094 41883 01456 71304 10314 20260 30020 40040 70262 84820 333 58010 70092 84616 87459==
41883,2024,08,09,12,00,AAXX 09124 41883 11/50 60000 10298 20260 30014 40034 60016 70162 84011 333 10318 59002 70052 84459 86080==
41883,2024,08,09,15,00,AAXX 09154 41883 02430 60000 10292 20270 30035 40055 82520 333 59005 70036 82618 86458==
41883,2024,08,09,18,00,AAXX 09184 41883 02430 61802 10284 20260 30038 40058 8452/ 333 59003 70036 84618 88458==
41883,2024,08,09,21,00,AAXX 09214 41883 02430 80902 10280 20260 30025 40041 8462/ 333 59010 70036 82710 84618 88458==
41883,2024,08,10,00,00,AAXX 10004 41883 21450 80000 10276 20270 30024 40044 70262 8462/ 333 59008 60025 70056 82610 83618 88458==
41883,2024,08,10,03,00,AAXX 10034 41883 02456 70000 10295 20270 30037 40057 85420 333 20272 59007 70056 83616 83828 87459==
41883,2024,08,10,06,00,AAXX 10064 41883 02456 61802 10334 20250 30024 40044 84630 333 59019 70026 81616 83828 86362==
41883,2024,08,10,09,00,AAXX 10094 41883 02456 60902 10336 20270 39999 40019 83520 333 59021 70026 83618 86458==
41883,2024,08,10,12,00,AAXX 10124 41883 01450 80000 10288 20270 30002 40022 70396 8462/ 333 10340 59012 70010 82710 83616 88456==
41883,2024,08,10,15,00,AAXX 10154 41883 02430 81302 10292 20270 30023 40043 8552/ 333 59012 70030 85616 88458==
41883,2024,08,10,18,00,AAXX 10184 41883 21330 80000 10284 20270 30025 40045 72162 8562/ 333 59013 60027 70108 85709 88458==
41883,2024,08,10,21,00,AAXX 10214 41883 02330 80000 10280 20270 30019 40039 8562/ 333 59006 70108 85709 88458==
41883,2024,08,11,00,00,AAXX 11004 41883 02340 80000 10280 20270 30015 40035 8562/ 333 59009 70088 85709 88458==
41883,2024,08,11,03,00,AAXX 11034 41883 01356 81302 10290 20280 30022 40042 76022 8572/ 333 20273 59015 70088 85709 88458==
41883,2024,08,11,06,00,AAXX 11064 41883 21356 80000 10290 20270 30020 40040 70262 8562/ 333 59004 60028 70104 85709 88458==
41883,2024,08,11,09,00,AAXX 11094 41883 02456 80000 10305 20270 39998 40018 8552/ 333 59001 70104 85616 88459==
41883,2024,08,11,12,00,AAXX 11124 41883 02456 80902 10300 20280 39994 40014 8552/ 333 10306 59008 70094 85616 88459==
41883,2024,08,11,15,00,AAXX 11154 41883 02430 80000 10290 20280 30017 40037 8552/ 333 59006 70094 85616 88459==
41883,2024,08,11,18,00,AAXX 11184 41883 02430 80000 10284 20260 30020 40040 8552/ 333 59005 70016 85616 88459==
41883,2024,08,11,21,00,AAXX 11214 41883 01330 80000 10280 20260 30015 40035 76102 8572/ 333 59004 70266 85709 88458==
41883,2024,08,12,00,00,AAXX 12004 41883 21340 80000 10275 20270 30017 40037 76166 8572/ 333 58002 60409 70416 85709 88458==
41883,2024,08,12,03,00,AAXX 12034 41883 01450 80000 10290 20260 30025 40045 70262 8562/ 333 20265 58003 70420 82710 84616 88458==
41883,2024,08,12,06,00,AAXX 12064 41883 01450 80000 10284 20270 30027 40047 76162 8672/ 333 58007 70464 83709 84615 88456==
41883,2024,08,12,09,00,AAXX 12094 41883 01456 80000 10300 20280 39999 40019 72996 8552/ 333 58001 70588 85616 88459==
41883,2024,08,12,12,00,AAXX 12124 41883 21456 60000 10312 20280 30001 40021 70196 83510 333 10325 58007 60128 70588 83616 86459==
41883,2024,08,12,15,00,AAXX 12154 41883 01430 81302 10270 20260 30016 40036 72996 8552/ 333 59001 70708 85616 88459==
41883,2024,08,12,18,00,AAXX 12184 41883 21430 80902 10280 20270 30025 40045 79292 333 58005 60128 70708 85616 88458==
41883,2024,08,12,21,00,AAXX 12214 41883 02430 80902 10280 20270 30019 40039 8552/ 333 58004 70458 85616 88459==
41883,2024,08,13,00,00,AAXX 13004 41883 02450 80000 10280 20270 30021 40041 8552/ 333 58004 70308 85709 88458==
41883,2024,08,13,03,00,AAXX 13034 41883 02456 80902 10295 20270 30039 40059 8552/ 333 20266 58014 70304 85616 88459==
41883,2024,08,13,06,00,AAXX 13064 41883 02456 80902 10295 20270 30039 40059 8552/ 333 20266 58014 70304 85616 88459==
41883,2024,08,13,09,00,AAXX 13094 41883 02456 60000 10336 20280 30004 40024 83520 333 58005 70120 83618 86458==
41883,2024,08,13,12,00,AAXX 13124 41883 02450 80902 10314 20270 30004 40024 8452/ 333 10338 58003 70120 84618 88458==
41883,2024,08,13,15,00,AAXX 13154 41883 02430 80000 10295 20280 30031 40051 8552/ 333 58015 70000 85616 88459==
41883,2024,08,13,18,00,AAXX 13184 41883 02430 80000 10292 20270 30033 40053 8552/ 333 58008 70000 85616 88459==
41883,2024,08,13,21,00,AAXX 13214 41883 02430 80000 10288 20280 30025 40045 8552/ 333 58006 70000 85616 88459==
41883,2024,08,14,00,00,AAXX 14004 41883 02440 80000 10286 20280 30023 40043 8552/ 333 58002 70000 85616 88459==
41883,2024,08,14,03,00,AAXX 14034 41883 02456 71302 10312 20270 30036 40056 84520 333 20285 59003 70000 84616 87459==
41883,2024,08,14,06,00,AAXX 14064 41883 02456 61302 10338 20270 30027 40047 83510 333 59006 70000 83616 86459==
41883,2024,08,14,09,00,AAXX 14094 41883 02456 61302 10340 20270 30000 40020 84510 333 59004 70000 84616 86459==
41883,2024,08,14,12,00,AAXX 14124 41883 02/50 60000 10330 20270 39996 40016 83031 333 10345 59008 70000 83362 86080==
41883,2024,08,14,15,00,AAXX 14154 41883 02430 60000 10306 20280 30018 40038 83520 333 59013 70000 83618 86458==
41883,2024,08,14,18,00,AAXX 14184 41883 01430 80902 10290 20270 30036 40056 70362 8562/ 333 58003 70004 82710 84618 88458==
41883,2024,08,14,21,00,AAXX 14214 41883 02430 80000 10286 20280 30023 40043 8452/ 333 59002 70004 84618 88458==
41883,2024,08,15,00,00,AAXX 15004 41883 02440 80000 10284 20270 30020 40040 8452/ 333 59003 70004 84618 88458==
41883,2024,08,15,03,00,AAXX 15034 41883 02456 70902 10305 20280 30018 40038 85420 333 20278 59018 70004 83616 83828 87459==
41883,2024,08,15,06,00,AAXX 15064 41883 02456 60904 10335 20270 30014 40034 84420 333 59013 70004 82616 83828 86459==
41883,2024,08,15,09,00,AAXX 15094 41883 02456 60000 10340 20260 39992 40012 84420 333 59008 70004 82616 83828 86459==
41883,2024,08,15,12,00,AAXX 15124 41883 02456 60902 10330 20260 39986 40006 84420 333 10345 59010 70004 82616 83828 86459==
41883,2024,08,15,15,00,AAXX 15154 41883 02430 60902 10310 20250 30010 40030 84420 333 59008 70004 82616 83828 86459==
41883,2024,08,15,18,00,AAXX 15184 41883 02430 80000 10300 20270 30017 40037 333 59019 70000 85582 85616 88469==
41883,2024,08,15,21,00,AAXX 15214 41883 02430 80000 10280 20260 39997 40017 8552/ 333 59026 70000 85616 88459==
41886,2024,08,09,00,00,AAXX 09004 41886 02350 81304 10270 20250 30043 40064 8672/ 333 58016 70086 84710 85616 88458==
41886,2024,08,09,03,00,AAXX 09034 41886 02450 81202 10280 20260 30060 40081 8352/ 333 20270 58011 70086 83618 88460==
41886,2024,08,09,06,00,AAXX 09064 41886 02456 60902 10305 20270 30050 40070 84470 333 58006 70086 83618 85460==
41886,2024,08,09,09,00,AAXX 09094 41886 01456 80000 10287 20280 30032 40052 70262 8352/ 333 58010 70096 83618 88460==
41886,2024,08,09,12,00,AAXX 09124 41886 11456 60000 10293 20260 30024 40044 60012 70162 84470 333 10316 59002 70010 83618 85460==
41886,2024,08,09,15,00,AAXX 09154 41886 01450 80000 10280 20260 30044 40064 70362 8352/ 333 59007 70090 83618 88460==
41886,2024,08,09,21,00,AAXX 09214 41886 02450 80000 10272 20260 30044 40065 8352/ 333 59003 70090 83616 88458==
41886,2024,08,10,00,00,AAXX 10004 41886 11450 80000 10275 20260 30046 40067 60082 70262 8352/ 333 59005 70090 83616 88458==
41886,2024,08,10,03,00,AAXX 10034 41886 02456 81302 10290 20260 30047 40067 8532/ 333 20270 59013 70090 83616 88458 81930==
41886,2024,08,10,06,00,AAXX 10064 41886 21457 71302 10315 20270 30036 40056 70162 84570 333 59014 60025 70106 84618 87460==
41886,2024,08,10,09,00,AAXX 10094 41886 01456 80000 10293 20250 30014 40034 72996 8457/ 333 59018 70106 84617 88460==
41886,2024,08,10,12,00,AAXX 10124 41886 11450 80000 10275 20260 30011 40031 60016 70296 8257/ 333 10320 59013 70106 82618 88462==
41886,2024,08,10,15,00,AAXX 10154 41886 02440 80000 10270 20260 30033 40053 8352/ 333 59011 70026 83618 88460==
41886,2024,08,10,18,00,AAXX 10184 41886 02440 80000 10273 20260 30032 40052 8352/ 333 59014 70026 83618 88462==
41886,2024,08,10,21,00,AAXX 10214 41886 02440 80000 10275 20270 30022 40043 8452/ 333 59022 70026 84616 88460==
41886,2024,08,11,00,00,AAXX 11004 41886 02440 81802 10275 20270 30016 40037 8562/ 333 59022 70026 82710 84615 88458==
41886,2024,08,11,03,00,AAXX 11034 41886 02350 80000 10282 20260 30032 40053 8672/ 333 20273 59015 70026 82710 85616 88458==
41886,2024,08,11,06,00,AAXX 11064 41886 02456 80000 10306 20270 30025 40045 8552/ 333 59011 70010 85616 88458==
41886,2024,08,11,09,00,AAXX 11094 41886 01350 80000 10282 20270 30010 40030 79596 8532/ 333 59004 70084 83710 84616 88458 81930==
41886,2024,08,11,12,00,AAXX 11124 41886 21456 80000 10288 20280 30098 40024 70296 8331/ 333 10325 59007 60098 70088 83616 88458 81930==
41886,2024,08,11,15,00,AAXX 11154 41886 01450 80000 10273 20270 30022 40044 72122 8331/ 333 59010 70148 83616 88458 81930==
41886,2024,08,11,18,00,AAXX 11184 41886 21450 80000 10275 20270 30029 40050 70262 8351/ 333 59003 60065 70148 83618 88460==
41886,2024,08,11,21,00,AAXX 11214 41886 02450 80000 10276 20270 30025 40046 8432/ 333 58003 70148 83616 88458 81930==
41886,2024,08,12,00,00,AAXX 12004 41886 01350 80000 10277 20270 30026 40047 70292 8672/ 333 58010 70148 82710 85616 88458==
41886,2024,08,12,03,00,AAXX 12034 41886 01456 80000 10286 20280 30038 40058 70262 8632/ 333 20272 58006 70150 84616 88458 81930==
41886,2024,08,12,06,00,AAXX 12064 41886 11440 80000 10290 20280 30037 40057 69926 70562 8632/ 333 58012 70150 84616 88458 81930==
41886,2024,08,12,09,00,AAXX 12094 41886 02456 70000 10302 20270 30011 40031 85510 333 58001 70066 85616 86460==
41886,2024,08,12,12,00,AAXX 12124 41886 02/56 70000 10292 20270 30013 40033 87070 333 10305 58009 70062 84460 85362==
41886,2024,08,12,15,00,AAXX 12154 41886 02/50 70000 10282 20270 30027 40048 87070 333 58004 70002 84460 85362==
41886,2024,08,12,18,00,AAXX 12184 41886 02/50 80000 10280 20270 30030 40051 8801/ 333 58002 70002 88460==
41886,2024,08,12,21,00,AAXX 12214 41886 02450 80000 10278 20270 30034 40054 8552/ 333 58009 70002 85616 88458==
41886,2024,08,13,00,00,AAXX 13004 41886 02450 80000 10276 20270 30037 40057 8552/ 333 58011 70002 85616 88458==
41886,2024,08,13,03,00,AAXX 13034 41886 01450 80000 10282 20270 30045 40066 72162 8552/ 333 20272 58007 70008 85616 88458==
41886,2024,08,13,06,00,AAXX 13064 41886 21456 80904 10305 20280 30043 40063 70262 8332/ 333 58006 69988 70008 83616 88458 81930==
41886,2024,08,13,09,00,AAXX 13094 41886 02456 70902 10326 20270 30011 40031 84370 333 58000 70008 82618 85460 81930==
41886,2024,08,13,12,00,AAXX 13124 41886 02456 60000 10316 20280 30010 40030 83470 333 10328 59003 70008 82618 85460==
41886,2024,08,13,15,00,AAXX 13154 41886 02540 60000 10300 20290 30034 40054 82170 333 58007 70008 82825 85363==
41886,2024,08,13,18,00,AAXX 13184 41886 02/40 60000 10290 20280 30037 40057 86070 333 58007 70008 85363==
41886,2024,08,13,21,00,AAXX 13214 41886 02440 70000 10286 20280 30030 40050 82570 333 59004 70008 82618 85460==
41886,2024,08,14,00,00,AAXX 14004 41886 01450 70000 10280 20270 30024 40044 70522 82570 333 59011 70008 82618 85460==
41886,2024,08,14,03,00,AAXX 14034 41886 01456 50000 10305 20270 30041 40061 70162 82430 333 20278 59004 70022 82618 84362==
41886,2024,08,14,06,00,AAXX 14064 41886 11557 50000 10332 20260 30036 40056 60016 70262 82230 333 59007 70014 82825 85363==
41886,2024,08,14,09,00,AAXX 14094 41886 02458 60000 10345 20270 30006 40026 82430 333 59005 70014 81618 86363==
41886,2024,08,14,12,00,AAXX 14124 41886 02/57 50000 10325 20280 39999 40019 85030 333 10346 59011 70014 85363==
41886,2024,08,14,15,00,AAXX 14154 41886 02/50 50000 10305 20290 30023 40043 85030 333 59011 70014 85363==
41886,2024,08,14,18,00,AAXX 14184 41886 01430 80000 10286 20280 30037 40057 76122 8532/ 333 58000 70020 84616 88458 81930==
41886,2024,08,14,21,00,AAXX 14214 41886 01450 60000 10280 20270 30032 40053 70162 82570 333 58002 70041 82618 85460==
41886,2024,08,15,00,00,AAXX 15004 41886 11/56 50000 10275 20270 30027 40048 69976 70162 85030 333 58003 70041 85363==
41886,2024,08,15,03,00,AAXX 15034 41886 02456 50903 10306 20270 30028 40048 83530 333 20275 59013 70027 83618 84365==
41886,2024,08,15,06,00,AAXX 15064 41886 02456 51202 10327 20270 30020 40040 84430 333 59016 70027 83618 83365==
41886,2024,08,15,09,00,AAXX 15094 41886 02457 51802 10340 20260 39998 40018 82520 333 59008 70027 82618 84462==
41886,2024,08,15,12,00,AAXX 15124 41886 02450 60000 10325 20270 39991 40011 83520 333 10346 59008 70027 83617 85462==
41886,2024,08,15,15,00,AAXX 15154 41886 02/40 20000 10306 20280 30020 40040 82010 333 59003 70027 82465==
41886,2024,08,15,18,00,AAXX 15184 41886 02/40 30000 10294 20270 30019 40039 83030 333 59018 70007 83365==
41886,2024,08,15,21,00,AAXX 15214 41886 01440 80000 10270 20260 30014 40035 76396 8472/ 333 59018 70300 82710 84615 88458==
41888,2024,08,09,00,00,AAXX 09004 41888 32350 81501 10270 20250 30052 40062 8462/ 333 56499 58018 82710 84616 88458=
41888,2024,08,09,06,00,AAXX 09064 41888 32456 71503 10295 20250 30062 40072 82510 333 56990 58010 70006 83618 87460=
41888,2024,08,09,12,00,AAXX 09124 41888 11457 61201 10267 20250 30032 40042 60023 72162 83362 333 10304 56990 58006 70025 83618 81930 85460=
41888,2024,08,09,18,00,AAXX 09184 41888 11456 81001 10274 20250 30059 40069 60014 72162 8332/ 333 56999 58002 70031 83618 81930 88460=
41888,2024,08,10,00,00,AAXX 10004 41888 32456 71002 10270 20260 30052 40062 83510 333 56990 59005 70031 83618 87460=
41888,2024,08,10,06,00,AAXX 10064 41888 32457 71003 10306 20260 30042 40052 83510 333 56990 59020 70031 83618 87460=
41888,2024,08,10,12,00,AAXX 10124 41888 NIL=
41888,2024,08,11,00,00,AAXX 11004 41888 32450 70901 10270 20260 30030 40040 83510 333 56990 59017 70055 83618 87460=
41888,2024,08,11,06,00,AAXX 11064 41888 32456 60901 10305 20270 30032 40042 82510 333 56990 59010 70055 82618 86460=
41888,2024,08,11,12,00,AAXX 11124 41888 11456 80501 10280 20270 30010 40020 70189 70262 8252/ 333 10315 56999 59010 70175 83616 88459=
41888,2024,08,11,18,00,AAXX 11184 41888 11450 81201 10270 20250 30027 40037 60028 70262 8352/ 333 56999 59009 70190 83616 88459=
41888,2024,08,12,00,00,AAXX 12004 41888 11450 80901 10268 20260 30032 40042 60389 76162 8352/ 333 56999 58002 70570 83616 88459=
41888,2024,08,12,06,00,AAXX 12064 41888 11450 80501 10270 20260 30043 40053 60039 76166 8352/ 333 56999 58011 70595 83616 88459=
41888,2024,08,12,12,00,AAXX 12124 41888 32456 60501 10285 20270 30020 40030 82510 333 10292 56990 59010 70420 82618 86460=
41888,2024,08,13,00,00,AAXX 13004 41888 32450 80701 10275 20270 30045 40055 8352/ 333 56999 58014 70025 83616 88459=
41888,2024,08,13,06,00,AAXX 13064 41888 11456 60501 10305 20270 30047 40057 60026 70162 82510 333 56990 58004 70018 83618 86460=
41888,2024,08,13,12,00,AAXX 13124 41888 32456 40501 10310 20250 30016 40026 82530 333 10320 56990 59004 70018 82618 84365=
41888,2024,08,13,18,00,AAXX 13184 41888 NIL=
41888,2024,08,14,00,00,AAXX 14004 41888 32456 60901 10275 20260 30035 40045 83510 333 56990 59011 70018 83617 86460=
41888,2024,08,14,06,00,AAXX 14064 41888 32456 40901 10320 20260 30041 40051 82530 333 56990 59006 70000 82618 84362=
41888,2024,08,14,12,00,AAXX 14124 41888 32457 41201 10325 20260 30006 40016 82530 333 10335 56990 59010 70000 82618 84362=
41888,2024,08,15,00,00,AAXX 15004 41888 11456 60501 10285 20270 30035 40045 60016 70162 82510 333 56990 58000 70021 82618 86460=
41888,2024,08,15,06,00,AAXX 15064 41888 32457 60801 10315 20270 30026 40036 83510 333 56990 59015 70021 83618 86460=
41888,2024,08,15,12,00,AAXX 15124 41888 32456 60501 10310 20270 39998 40008 83510 333 10350 56990 59008 70021 83618 86460=
41888,2024,08,15,18,00,AAXX 15184 41888 NIL=
41891,2024,08,09,00,00,AAXX 09004 41891 01325 80000 10261 20250 30034 40073 76122 8532/ 333 58011 70010 82708 84615 88456 81930==
41891,2024,08,09,03,00,AAXX 09034 41891 01430 81704 10290 20240 30054 40092 70562 8532/ 333 20260 58017 70128 82710 84615 88458 81930==
41891,2024,08,09,06,00,AAXX 09064 41891 01440 80000 10301 20250 30040 40078 70562 8532/ 333 58007 70126 82710 84615 88458 81930==
41891,2024,08,09,09,00,AAXX 09094 41891 01440 80000 10275 20260 30018 40056 72162 8532/ 333 58006 70130 82708 84615 88458 81930==
41891,2024,08,09,12,00,AAXX 09124 41891 01430 60000 10280 20250 30014 40052 70562 84320 333 10311 59003 70114 83616 85458 81930==
41891,2024,08,09,15,00,AAXX 09154 41891 01430 80303 10260 20250 30035 40074 72166 8532/ 333 59006 70160 82710 84615 88458 81930==
41891,2024,08,09,18,00,AAXX 09184 41891 11430 81203 10263 20250 30034 40073 60056 70562 8532/ 333 59006 70160 82710 84615 88458 81930==
41891,2024,08,09,21,00,AAXX 09214 41891 01320 81803 10261 20250 30030 40068 76066 8632/ 333 59005 70188 86708 88458 81925==
41891,2024,08,10,00,00,AAXX 10004 41891 01430 82103 10260 20250 30026 40064 70566 8532/ 333 59008 70184 82710 84615 88458 81930==
41891,2024,08,10,01,00,AAXX 10014 41891 01320 81803 10261 20250 30030 40068 76066 8632/ 333 59005 70188 86708 88458 81925==
41891,2024,08,10,03,00,AAXX 10034 41891 01440 81903 10285 20250 30036 40074 70522 8532/ 333 20257 59001 70184 82710 83616 88458 81930==
41891,2024,08,10,06,00,AAXX 10064 41891 01330 81903 10298 20260 30025 40063 76122 8632/ 333 59015 70184 85708 88456 81926==
41891,2024,08,10,09,00,AAXX 10094 41891 01350 60000 10313 20250 30000 40038 70562 84330 333 59018 70082 83616 84362 81930==
41891,2024,08,10,12,00,AAXX 10124 41891 11330 80000 10285 20270 39999 40037 60006 71762 8492/ 333 10323 59015 70080 82708 83615 88458 81930==
41891,2024,08,10,15,00,AAXX 10154 41891 01330 81804 10278 20260 30024 40062 70516 8532/ 333 59011 70074 82708 84615 88458 81928==
41891,2024,08,10,18,00,AAXX 10184 41891 11430 80000 10274 20250 30018 40056 60046 70562 8532/ 333 59016 70074 82710 84615 88458 81930==
41891,2024,08,10,21,00,AAXX 10214 41891 01430 80000 10270 20250 30006 40044 70562 8532/ 333 59024 70046 82710 84615 88458 81930==
41891,2024,08,11,00,00,AAXX 11004 41891 11320 80000 10260 20250 30026 40065 60056 76162 8632/ 333 58000 70090 86708 88458 81925==
41891,2024,08,11,03,00,AAXX 11034 41891 01440 80000 10268 20260 30022 40060 70566 8532/ 333 20257 59014 70180 84616 88458 81930==
41891,2024,08,11,06,00,AAXX 11064 41891 11440 80000 10290 20260 30015 40053 60096 70562 8432/ 333 59010 70180 84618 88458 81930==
41891,2024,08,11,09,00,AAXX 11094 41891 01440 80000 10294 20250 39994 40032 70562 8432/ 333 59006 73616 88458 81930==
41891,2024,08,11,12,00,AAXX 11124 41891 01320 80000 10250 20240 39996 40034 79562 8492/ 333 10300 59003 70302 82708 83615 88458 81928==
41891,2024,08,11,15,00,AAXX 11154 41891 41330 81803 10256 20256 30006 40044 76162 8632/ 333 59018 85708 88456 81926==
41891,2024,08,11,18,00,AAXX 11184 41891 01330 81503 10265 20260 30012 40050 76062 8532/ 333 59006 70385 84708 88456 81926==
41891,2024,08,11,21,00,AAXX 11214 41891 01330 81503 10265 20260 30010 40048 76062 8532/ 333 58004 70385 84708 88456 81926==
41891,2024,08,12,00,00,AAXX 12004 41891 21330 82103 10267 20260 30009 40047 76066 8532/ 333 59017 60009 70335 84708 88458 81928==
41891,2024,08,12,03,00,AAXX 12034 41891 01330 80000 10254 20240 30023 40062 79566 8592/ 333 20245 58001 70535 83708 84615 88458 81928==
41891,2024,08,12,06,00,AAXX 12064 41891 21320 80000 10258 20250 30016 40054 76196 8572/ 333 58001 60639 70879 83708 84615 88458==
41891,2024,08,12,09,00,AAXX 12094 41891 01430 80903 10270 20260 39996 40034 72166 8532/ 333 58002 70891 82710 84615 88458 81930==
41891,2024,08,12,12,00,AAXX 12124 41891 11430 80603 10272 20260 39997 40035 60036 70562 8532/ 333 10282 58001 70791 82710 84615 88458 81930==
41891,2024,08,12,15,00,AAXX 12154 41891 01440 80000 10265 20260 30012 40050 70522 8432/ 333 58006 70671 84618 88458 81930==
41891,2024,08,12,18,00,AAXX 12184 41891 01440 80000 10265 20260 30018 40056 70522 8432/ 333 58006 70668 84618 88458 81930==
41891,2024,08,12,21,00,AAXX 12214 41891 01440 80000 10260 20250 30016 40054 70522 8532/ 333 58006 70668 84617 88457 81930==
41891,2024,08,13,00,00,AAXX 13004 41891 01430 80000 10261 20260 30019 40057 70562 8532/ 333 58010 70000 85617 88457 81930==
41891,2024,08,13,03,00,AAXX 13034 41891 01430 80000 10285 20260 30030 40068 70522 8532/ 333 20260 58007 70378 83616 88458 81930==
41891,2024,08,13,06,00,AAXX 13064 41891 01440 80000 10304 20250 30021 40059 70522 8432/ 333 58005 70034 83616 88458 81930==
41891,2024,08,13,09,00,AAXX 13094 41891 01440 80904 10325 20260 30088 40025 70522 8532/ 333 59008 70000 83616 88458 81930==
41891,2024,08,13,12,00,AAXX 13124 41891 01440 60000 10308 20260 39987 40025 70522 84330 333 10337 59010 70000 83616 85362 81930==
41891,2024,08,13,15,00,AAXX 13154 41891 41440 63203 10284 20260 30014 40052 70520 83340 333 58002 83615 85365 81930==
41891,2024,08,13,18,00,AAXX 13184 41891 41440 53403 10273 20260 30018 40056 70520 82530 333 58000 82615 83365==
41891,2024,08,13,21,00,AAXX 13214 41891 41440 50903 10265 20260 30017 40055 70522 82530 333 58001 82615 83365==
41891,2024,08,14,00,00,AAXX 14004 41891 01440 31203 10263 20250 30018 40056 70521 81530 333 59001 70000 81615 83365==
41891,2024,08,14,03,00,AAXX 14034 41891 01450 30000 10310 20240 30022 40060 70500 82530 333 20258 59008 70000 82616==
41891,2024,08,14,06,00,AAXX 14064 41891 02450 50000 10325 20260 30013 40520 84330 333 59008 70000 83616 81928==
41891,2024,08,14,09,00,AAXX 14094 41891 01450 62903 10345 20270 39977 40014 70522 84610 333 59011 70000 81710 83616 86458==
41891,2024,08,14,12,00,AAXX 14124 41891 01450 73503 10322 20270 39980 40018 70522 85610 333 10348 59007 70000 82710 83616 87458==
41891,2024,08,14,15,00,AAXX 14154 41891 01440 50000 10305 20280 30006 40044 70522 82530 333 59008 70000 82616 85365==
41891,2024,08,14,18,00,AAXX 14184 41891 21430 60000 10275 20270 30019 40057 70596 85320 333 58001 60045 70040 82710 83615 86458==
41891,2024,08,14,21,00,AAXX 14214 41891 01430 80000 10276 20260 30011 40049 70562 8532/ 333 59006 70040 85615 88458 81930==
41891,2024,08,15,00,00,AAXX 15004 41891 01430 80000 10277 20260 30014 40052 70522 8532/ 333 59004 70040 85615 88458 81930==
41891,2024,08,15,03,00,AAXX 15034 41891 01450 61902 10296 20260 30017 40055 70522 83530 333 20266 59005 70040 83616 84362==
41891,2024,08,15,06,00,AAXX 15064 41891 01450 40802 10330 20260 30003 40040 70522 84300 333 59018 70040 83616 81930==
41891,2024,08,15,09,00,AAXX 15094 41891 01340 83102 10320 20260 39975 40012 70522 8562/ 333 59002 70040 81708 84618 88458==
41891,2024,08,15,12,00,AAXX 15124 41891 01440 80000 10302 20240 39964 40002 70522 8432/ 333 10343 59016 70040 84618 88458 81930==
41891,2024,08,15,15,00,AAXX 15154 41891 01430 83303 10295 20280 39994 40032 71322 8532/ 333 59012 70040 81710 83616 88458 81928==
41891,2024,08,15,18,00,AAXX 15184 41891 01320 80806 10255 20255 30016 40054 79596 8692/ 333 59003 70440 86708 88456 81926==
41891,2024,08,15,21,00,AAXX 15214 41891 01330 80804 10255 20255 30006 40044 79599 8692/ 333 59005 70540 86708 88456 81926==
41895,2024,08,09,00,00,AAXX 09004 41895 02450 80902 10273 20260 30026 40048 8452/ 333 58009 70012 84616 88458==
41895,2024,08,09,03,00,AAXX 09034 41895 02350 80902 10280 20270 30044 40066 8562/ 333 20270 58013 70012 83710 84615 88458==
41895,2024,08,09,06,00,AAXX 09064 41895 02456 51803 10330 20260 30033 40055 84401 333 58006 70012 82616 83820==
41895,2024,08,09,09,00,AAXX 09094 41895 01450 83602 10268 20268 30015 40037 79596 8532/ 333 58010 70350 84615 88458 81930==
41895,2024,08,09,12,00,AAXX 09124 41895 01456 80902 10276 20270 30011 40033 76396 8452/ 333 10335 58003 70500 84616 88458==
41895,2024,08,09,15,00,AAXX 09154 41895 02450 50901 10275 20275 30025 40057 84520 333 58002 70292 83616 85458==
41895,2024,08,09,21,00,AAXX 09214 41895 02450 60902 10272 20270 30019 40041 84520 333 59012 70492 84616 86458==
41895,2024,08,10,00,00,AAXX 10004 41895 02456 80903 10275 20275 30023 40045 8452/ 333 59003 70492 84616 88458==
41895,2024,08,10,03,00,AAXX 10034 41895 02457 71802 10300 20280 30055 40057 84520 333 20263 59009 70492 84615 87458==
41895,2024,08,10,06,00,AAXX 10064 41895 01458 51803 10315 20280 30022 40044 72122 84430 333 59011 70020 82616 83820==
41895,2024,08,10,09,00,AAXX 10094 41895 02558 51303 10334 20280 30001 40022 83230 333 59014 70144 83825 84362==
41895,2024,08,10,12,00,AAXX 10124 41895 01350 80000 10290 20280 30001 40024 70362 8452/ 333 10342 59010 70100 84616 88458==
41895,2024,08,10,15,00,AAXX 10154 41895 02450 80000 10284 20270 30024 40046 8452/ 333 59011 70106 84616 88458==
41895,2024,08,10,18,00,AAXX 10184 41895 02450 80901 10280 20270 30020 40042 8452/ 333 59015 70106 84615 88458==
41895,2024,08,10,21,00,AAXX 10214 41895 02450 80902 10278 20270 30012 40035 8452/ 333 59007 70106 84616 88458==
41895,2024,08,11,00,00,AAXX 11004 41895 02450 80000 10275 20270 30003 40025 8452/ 333 59020 70106 84616 88458==
41895,2024,08,11,03,00,AAXX 11034 41895 02450 81802 10290 20270 30024 40046 8452/ 333 20273 59011 70106 84615 88458==
41895,2024,08,11,06,00,AAXX 11064 41895 02457 72303 10314 20270 30017 40038 84470 333 59005 70106 83615 85458==
41895,2024,08,11,09,00,AAXX 11094 41895 02458 70000 10340 20270 39996 40010 84510 333 59005 70104 82615 87458==
41895,2024,08,11,12,00,AAXX 11124 41895 02450 60000 10313 20270 39988 40010 83520 333 10330 59013 70000 83616 86458==
41895,2024,08,11,21,00,AAXX 11214 41895 02450 80901 10280 20280 30023 40045 8452/ 333 58021 70000 84615 88458==
41895,2024,08,12,00,00,AAXX 12004 41895 02450 80000 10282 20280 30016 40038 8452/ 333 58013 70000 84615 88458==
41895,2024,08,12,03,00,AAXX 12034 41895 02450 82302 10308 20280 30023 40045 8452/ 333 20268 59001 70000 84615 88458==
41895,2024,08,12,06,00,AAXX 12064 41895 02456 61303 10336 20270 30019 40041 83510 333 58002 70000 83616 86458==
41895,2024,08,12,09,00,AAXX 12094 41895 02450 80000 10332 20270 39994 40016 8542/ 333 59002 70000 84615 88458==
41895,2024,08,12,12,00,AAXX 12124 41895 21450 81403 10298 20270 39998 40020 79596 8532/ 333 10358 59013 69925 70002 84615 88458 81930==
41895,2024,08,12,15,00,AAXX 12154 41895 01450 80000 10278 20270 30016 40038 72162 8452/ 333 58011 70015 84615 88458==
41895,2024,08,12,18,00,AAXX 12184 41895 21450 80000 10280 20270 30020 40042 70262 8452/ 333 58011 60015 70016 84615 88458==
41895,2024,08,12,21,00,AAXX 12214 41895 02450 83603 10273 20270 30021 40043 8452/ 333 59002 70016 84615 88458==
41895,2024,08,13,00,00,AAXX 13004 41895 01450 80000 10266 20266 30021 40043 70262 8452/ 333 58005 70006 84615 88458==
41895,2024,08,13,03,00,AAXX 13034 41895 02450 81302 10296 20280 30038 40060 8542/ 333 20264 58015 70022 84615 88458==
41895,2024,08,13,06,00,AAXX 13064 41895 02456 62302 10330 20270 30031 40053 84410 333 58012 70022 83616 86458==
41895,2024,08,13,09,00,AAXX 13094 41895 02456 50602 10324 20270 30004 40026 83510 333 58010 70022 83616 85458==
41895,2024,08,13,12,00,AAXX 13124 41895 02450 80903 10305 20280 30004 40026 8452/ 333 10340 58006 70020 84616 88458==
41895,2024,08,13,15,00,AAXX 13154 41895 02450 60000 10290 20280 30030 40052 84410 333 58014 70006 83616 86458==
41895,2024,08,13,18,00,AAXX 13184 41895 02450 60000 10280 20270 30031 40054 84410 333 58011 70006 83616 86458==
41895,2024,08,14,00,00,AAXX 14004 41895 01450 51301 10278 20278 30024 40047 70522 83401 333 58003 70000 82616 84074==
41895,2024,08,14,03,00,AAXX 14034 41895 02457 51302 10309 20270 30036 40058 83430 333 20275 59002 70000 82616 83362==
41895,2024,08,14,06,00,AAXX 14064 41895 02557 50903 10345 20270 30021 40043 83230 333 59010 70000 83825 83362==
41895,2024,08,14,09,00,AAXX 14094 41895 02458 61303 10356 20280 39995 40016 85330 333 59009 70000 82615 83820 81930==
41895,2024,08,14,12,00,AAXX 14124 41895 11450 80000 10318 20290 39990 40012 60076 70362 8452/ 333 10360 59014 70072 84615 88458==
41895,2024,08,14,15,00,AAXX 14154 41895 01450 50000 10286 20280 30024 40046 70162 83520 333 59006 70092 83616 85458==
41895,2024,08,14,18,00,AAXX 14184 41895 11450 50000 10280 20270 30029 40051 60026 70262 83520 333 59002 70092 83616 85458==
41895,2024,08,14,21,00,AAXX 14214 41895 02450 50501 10280 20270 30021 40043 83520 333 59007 70092 83616 85458==
41895,2024,08,15,00,00,AAXX 15004 41895 02450 50501 10279 20279 30018 40040 83520 333 59006 70092 83616 85458==
41895,2024,08,15,03,00,AAXX 15034 41895 02457 61804 10310 20280 30014 40036 85430 333 20276 59022 70092 82615 83820 85362==
41895,2024,08,15,06,00,AAXX 15064 41895 02457 71802 10319 20280 30013 40035 85470 333 59008 70092 83615 84458==
41895,2024,08,15,09,00,AAXX 15094 41895 02557 70903 10335 20280 39988 40009 83202 333 59007 70092 83820 85074==
41895,2024,08,15,12,00,AAXX 15124 41895 02456 60502 10327 20280 39985 40006 84520 333 10352 59005 70092 84616 86458==
41895,2024,08,15,15,00,AAXX 15154 41895 02450 62202 10288 20260 30014 40036 84520 333 59010 70000 84616 86458==
41895,2024,08,15,18,00,AAXX 15184 41895 02450 50000 10280 20270 30014 40036 83520 333 59015 70000 83616 85458==
41895,2024,08,15,21,00,AAXX 15214 41895 02450 60000 10279 20270 30007 40029 84520 333 59014 70000 84616 86458==
41897,2024,08,09,00,00,AAXX 09004 41897 11440 80000 10270 20260 30037 40050 60024 76122 8462/ 333 56999 58006 70060 81710 83620 88460=
41897,2024,08,09,06,00,AAXX 09064 41897 32450 80000 10290 20260 30045 40058 8462/ 333 56999 58012 70060 81710 83620 88460=
41897,2024,08,09,12,00,AAXX 09124 41897 32450 80000 10290 20260 30028 40041 84610 333 10300 56990 58010 70020 83620 88460=
41897,2024,08,09,18,00,AAXX 09184 41897 32456 80000 10280 20270 30044 40057 84610 333 56990 59005 70020 81710 83620 84460=
41897,2024,08,10,00,00,AAXX 10004 41897 32456 80000 10275 20270 30034 40047 8462/ 333 56999 59003 70000 81710 83620 88460=
41897,2024,08,10,06,00,AAXX 10064 41897 32456 51402 10320 20260 30035 40048 84310 333 56990 59005 70000 82620 84460=
41897,2024,08,10,12,00,AAXX 10124 41897 11450 81402 10300 20260 30004 40017 60055 71796 8432/ 333 10335 56999 59020 70050 81710 83620 81930 88460=
41897,2024,08,10,18,00,AAXX 10184 41897 32456 80000 10282 20270 30035 40048 8432/ 333 56999 59015 70050 82620 81930 88460=
41897,2024,08,11,00,00,AAXX 11004 41897 32456 81402 10275 20270 30014 40027 8432/ 333 56999 59020 70050 81710 83620 81930 88460=
41897,2024,08,11,06,00,AAXX 11064 41897 11450 82202 10300 20270 30024 40037 60078 70296 8432/ 333 56999 59006 6005/ 70120 81710 83620 81930 88460=
41897,2024,08,11,12,00,AAXX 11124 41897 32450 81501 10300 20270 30000 40012 8352/ 333 10320 56999 59012 70070 83616 88459=
41897,2024,08,11,18,00,AAXX 11184 41897 32440 81301 10285 20280 30029 40042 8352/ 333 56999 59003 70070 83615 88458=
41897,2024,08,12,00,00,AAXX 12004 41897 11430 81802 10280 20270 30024 40037 60106 70262 8352/ 333 56499 59010 70170 83615 88458=
41897,2024,08,12,06,00,AAXX 12064 41897 32450 61501 10320 20270 30030 40043 83530 333 56990 58006 70100 83616 86360=
41897,2024,08,12,12,00,AAXX 12124 41897 32450 81502 10312 20270 30008 40021 8352/ 333 10335 56999 58008 70100 83615 88458=
41897,2024,08,12,18,00,AAXX 12184 41897 32445 70000 10285 20270 30038 40038 83530 333 56990 59004 70100 83616 87360=
41897,2024,08,13,00,00,AAXX 13004 41897 11430 80000 10280 20270 30027 40040 69924 70262 8352/ 333 56999 58003 70002 83615 88458=
41897,2024,08,13,06,00,AAXX 13064 41897 11450 60901 10317 20280 30039 40052 60013 71766 83920 333 56990 58009 70013 83616 81925 86459=
41897,2024,08,13,12,00,AAXX 13124 41897 32456 60000 10325 20270 30012 40025 82530 333 10335 56990 58004 70013 82617 86362=
41897,2024,08,13,18,00,AAXX 13184 41897 32440 50000 10292 20270 30041 40054 82530 333 56990 58016 70013 82617 85360=
41897,2024,08,14,00,00,AAXX 14004 41897 32440 60000 10280 20260 30030 40042 82530 333 56990 58003 70011 82617 86362=
41897,2024,08,14,06,00,AAXX 14064 41897 32456 30901 10335 20280 30032 40044 83400 333 56900 59007 70000 82617 83825=
41897,2024,08,14,12,00,AAXX 14124 41897 11450 31801 10300 20280 30004 40017 60025 70162 81510 333 10345 56990 59008 70020 81618 83458=
41897,2024,08,15,00,00,AAXX 15004 41897 32440 31401 10280 20270 30026 40039 81530 56990 59004 70020 81618 83362=
41897,2024,08,15,06,00,AAXX 15064 41897 32450 61802 10315 20270 30018 40031 83510 333 56990 59014 70020 82616 86458=
41897,2024,08,15,12,00,AAXX 15124 41897 32950 01402 10325 20260 39993 40006 333 10345 59011 70000=
41897,2024,08,15,18,00,AAXX 15184 41897 NIL=
41902,2024,08,09,00,00,AAXX 09004 41902 32430 51303 10267 20250 30049 40058 83430 333 56390 58018 70000 82614 84362=
41902,2024,08,09,12,00,AAXX 09124 41902 11450 51702 10290 20250 30030 40038 69946 70262 82430 333 10308 56490 59004 70024 82614 84362=
41902,2024,08,10,00,00,AAXX 10004 41902 11430 71703 10272 20260 30041 40049 60046 70262 83410 333 56490 59009 70064 83614 87459=
41902,2024,08,10,06,00,AAXX 10064 41902 NIL=
41902,2024,08,10,12,00,AAXX 10124 41902 32440 41802 10295 20260 30015 40024 82430 333 10320 56490 59015 70040 82614 84362=
41902,2024,08,11,00,00,AAXX 11004 41902 32430 61803 10275 20270 30024 40032 83430 333 56490 59017 70000 82614 85362=
41902,2024,08,11,06,00,AAXX 11064 41902 11430 81302 10285 20280 30024 40034 60054 76362 8442/ 333 56399 59015 70050 83614 88459=
41902,2024,08,11,12,00,AAXX 11124 41902 11440 61802 10287 20260 30014 40022 60196 70296 82530 333 10312 56990 59001 70236 82615 86362=
41902,2024,08,11,18,00,AAXX 11184 41902 31440 71802 10277 20260 30029 40037 71322 83520 333 56990 59001 70236 83615 81928 87459=
41902,2024,08,12,00,00,AAXX 12004 41902 32440 81802 10277 20270 30026 40034 8352/ 333 56999 58002 70236 83614 88458=
41902,2024,08,12,06,00,AAXX 12064 41902 11440 81803 10274 20250 30036 40045 69924 72962 8352/ 333 56999 58010 70188 83614 81928 88458=
41902,2024,08,12,12,00,AAXX 12124 41902 32440 71804 10296 20270 30019 40027 83520 333 56990 58005 70002 83615 87459=
41902,2024,08,12,18,00,AAXX 12184 41902 32440 71802 10277 20260 30034 40043 83520 333 56990 58005 70002 83615 87459=
41902,2024,08,13,00,00,AAXX 13004 41902 32440 80901 10277 20260 30036 40045 8352/ 333 56999 58010 70002 83615 88458=
41902,2024,08,13,06,00,AAXX 13064 41902 32450 60901 10322 20270 30040 40048 82530 333 56990 58004 70000 82616 86362=
41902,2024,08,13,12,00,AAXX 13124 41902 32450 63101 10307 20280 30013 40022 82430 333 56990 59006 70000 82616 86362=
41902,2024,08,13,18,00,AAXX 13184 41902 11440 60000 10290 20270 30041 40049 69915 70262 82530 333 56990 58007 70001 82615 86362=
41902,2024,08,14,00,00,AAXX 14004 41902 11450 72201 10260 20260 30030 40039 60889 76196 83520 333 56990 59006 70877 83615 87459=
41902,2024,08,14,06,00,AAXX 14064 41902 32450 53101 10330 20270 30033 40042 82430 333 56990 59007 70877 82616 85362=
41902,2024,08,14,12,00,AAXX 14124 41902 32450 50000 10320 20270 30004 40012 82530 333 10345 56990 59009 70877 82616 85362=
41902,2024,08,14,18,00,AAXX 14184 41902 11430 72202 10288 20280 30040 40048 60087 70296 83520 333 56990 59001 70956 83614 87459=
41902,2024,08,15,00,00,AAXX 15004 41902 32450 73601 10280 20260 30034 40042 83520 333 56990 58004 70080 83615 87459=
41902,2024,08,15,06,00,AAXX 15064 41902 32450 21401 10331 20270 30022 40031 82430 333 56990 59011 70080 82616=
41902,2024,08,15,12,00,AAXX 15124 41902 NIL=
41902,2024,08,15,18,00,AAXX 15184 41902 11440 71904 10294 20260 30022 40030 60025 70396 83520 333 56990 59018 70020 83615 87459=
41907,2024,08,09,00,00,AAXX 09004 41907 02340 81803 10275 20260 30030 40045 8662/ 333 58017 70100 83709 85615 88458==
41907,2024,08,09,03,00,AAXX 09034 41907 01350 81802 10290 20280 30049 40064 70262 8662/ 333 20263 58013 70180 83709 85615 88458==
41907,2024,08,09,06,00,AAXX 09064 41907 11350 81802 10315 20270 30042 40056 60086 70262 8662/ 333 58013 70180 83709 85615 88458==
41907,2024,08,09,09,00,AAXX 09094 41907 02350 81302 10307 20270 30020 40035 8662/ 333 58009 70080 83709 85615 88458==
41907,2024,08,09,12,00,AAXX 09124 41907 02/50 50000 10300 20270 30016 40030 84011 333 10311 58002 70080 84458==
41907,2024,08,09,15,00,AAXX 09154 41907 02440 50000 10285 20270 30036 40051 82510 333 59004 70080 82615 85458==
41907,2024,08,09,18,00,AAXX 09184 41907 02440 70000 10276 20260 39940 40055 85510 333 58001 70080 85615 85458==
41907,2024,08,09,21,00,AAXX 09214 41907 02440 70000 10275 20270 30032 40047 85510 333 59001 70080 85615 85458==
41907,2024,08,10,00,00,AAXX 10004 41907 02450 60000 10274 20260 30026 40041 85530 333 59004 70080 85615==
41907,2024,08,10,03,00,AAXX 10034 41907 02450 71802 10302 20250 30038 40052 85810 333 10272 59011 70080 83615 83825 87458==
41907,2024,08,10,06,00,AAXX 10064 41907 01350 82703 10305 20270 30028 40042 76122 8662/ 333 59014 70020 83709 85615 88458==
41907,2024,08,10,09,00,AAXX 10094 41907 01450 72302 10330 20280 30006 40020 70262 85510 333 59014 70030 85615 87458==
41907,2024,08,10,12,00,AAXX 10124 41907 11350 82302 10315 20280 30003 40012 60016 70262 8662/ 333 10342 59013 70030 83709 85615 88458==
41907,2024,08,10,15,00,AAXX 10154 41907 02440 80000 10280 20270 30027 40042 8552/ 333 59009 70030 85615 88458==
41907,2024,08,10,18,00,AAXX 10184 41907 02440 80000 10277 20270 30025 40040 8552/ 333 59015 70030 85615 88458==
41907,2024,08,10,21,00,AAXX 10214 41907 02440 80000 10277 20270 30013 40027 8552/ 333 59019 70030 85615 88458==
41907,2024,08,11,00,00,AAXX 11004 41907 01340 80000 10275 20260 30009 40023 79522 8672/ 333 59017 70020 83709 85615 88458 81930==
41907,2024,08,11,03,00,AAXX 11034 41907 01350 80000 10275 20260 30028 40042 76196 8672/ 333 20272 59010 70058 85709 88458==
41907,2024,08,11,06,00,AAXX 11064 41907 21350 82702 10310 20270 30021 40036 70296 8662/ 333 59007 60028 70048 82709 85615 88458==
41907,2024,08,11,09,00,AAXX 11094 41907 02450 80000 10326 20270 30002 40017 8552/ 333 59004 70038 85615 88458==
41907,2024,08,11,12,00,AAXX 11124 41907 02450 80000 10315 20280 39993 40008 8552/ 333 10329 59010 70038 85615 88458==
41907,2024,08,11,15,00,AAXX 11154 41907 02440 80000 10290 20270 30016 40030 8552/ 333 59011 70038 85615 88458==
41907,2024,08,11,18,00,AAXX 11184 41907 02440 80000 10285 20280 30020 40034 8552/ 333 59005 70038 85615 88458==
41907,2024,08,11,21,00,AAXX 11214 41907 02340 80000 10280 20270 30015 40030 8562/ 333 58002 70038 82709 85615 88458==
41907,2024,08,12,00,00,AAXX 12004 41907 02340 82302 10280 20270 30019 40034 8662/ 333 59010 70020 82709 85615 88458==
41907,2024,08,12,03,00,AAXX 12034 41907 02450 81802 10302 20270 30028 40043 8552/ 333 20275 58000 70010 85615 88458==
41907,2024,08,12,06,00,AAXX 12064 41907 02456 52702 10338 20270 30023 40037 85800 333 58002 70000 82615 83825==
41907,2024,08,12,09,00,AAXX 12094 41907 02456 52702 10350 20250 39996 40011 82510 333 59006 70000 82615 84458==
41907,2024,08,12,12,00,AAXX 12124 41907 02450 70000 10300 20260 30002 40017 82510 333 10356 58009 70000 82615 86458==
41907,2024,08,12,15,00,AAXX 12154 41907 02440 80000 10285 20270 30020 40035 8552/ 333 58004 70000 85615 88458==
41907,2024,08,12,18,00,AAXX 12184 41907 02440 80000 10285 20270 30028 40043 8552/ 333 58008 70000 85615 88458==
41907,2024,08,12,21,00,AAXX 12214 41907 01330 80000 10270 20260 30023 40037 79592 8692/ 333 58008 70500 85708 88458 82930==
41907,2024,08,13,00,00,AAXX 13004 41907 11440 80000 10260 20260 30023 40037 60836 72196 8552/ 333 58004 70830 85615 88458==
41907,2024,08,13,03,00,AAXX 13034 41907 02450 80000 10300 20270 30041 40055 8552/ 333 20257 58013 70830 85615 88458==
41907,2024,08,13,06,00,AAXX 13064 41907 02450 80902 10330 20270 30034 40049 8552/ 333 58011 70730 85615 88458==
41907,2024,08,13,09,00,AAXX 13094 41907 02450 80902 10340 20270 30028 40042 8552/ 333 58032 70730 85615 88458==
41907,2024,08,13,12,00,AAXX 13124 41907 02450 81302 10325 20280 30007 40021 85810 333 10350 58005 70730 82615 83825 86458==
41907,2024,08,13,15,00,AAXX 13154 41907 02440 60000 10290 20280 30034 40049 83510 333 58014 70730 83615 85458==
41907,2024,08,13,18,00,AAXX 13184 41907 02440 80000 10285 20280 30040 40055 8552/ 333 58012 70830 85615 88458==
41907,2024,08,13,21,00,AAXX 13214 41907 02440 80000 10280 20270 30032 40047 8552/ 333 58009 70330 85615 88458==
41907,2024,08,14,00,00,AAXX 14004 41907 02440 70000 10275 20270 30025 40040 85530 333 58002 70000 85615 85362==
41907,2024,08,14,03,00,AAXX 14034 41907 02450 60000 10300 20270 30039 40054 84510 333 20274 59002 70000 84615 86458==
41907,2024,08,14,06,00,AAXX 14064 41907 02450 61802 10343 20270 30025 40040 84410 333 59009 70000 83615 83825 85458==
41907,2024,08,14,09,00,AAXX 14094 41907 02456 31802 10350 20270 30000 40014 83500 333 59028 70000 83615==
41907,2024,08,14,12,00,AAXX 14124 41907 02450 80000 10285 20270 30000 40015 8452/ 333 10355 59007 70000 84615 88458==
41907,2024,08,14,15,00,AAXX 14154 41907 02/40 30000 10290 20270 30025 40040 83030 333 59009 70000 83362==
41907,2024,08,14,18,00,AAXX 14184 41907 02440 50000 10285 20280 30035 40050 82530 333 59005 70000 82615 84362==
41907,2024,08,14,21,00,AAXX 14214 41907 02440 60000 10280 20270 30027 40042 83510 333 59005 70000 83615 84458==
41907,2024,08,15,00,00,AAXX 15004 41907 02445 40000 10277 20270 30021 40036 82501 333 59004 70000 82615 83080==
41907,2024,08,15,03,00,AAXX 15034 41907 02456 61302 10310 20260 30018 40032 83501 333 20275 59021 70000 83615 84080==
41907,2024,08,15,06,00,AAXX 15064 41907 02456 71302 10332 20260 30015 40029 85810 333 59010 70000 84615 85458==
41907,2024,08,15,09,00,AAXX 15094 41907 02450 70902 10340 20260 39993 40007 85810 333 59007 70000 84615 85458==
41907,2024,08,15,12,00,AAXX 15124 41907 02450 60000 10330 20290 39986 40001 84802 333 10347 59014 70000 83615 85080==
41907,2024,08,15,15,00,AAXX 15154 41907 02440 70000 10295 20270 30016 40031 84510 333 59006 70000 84615 87458==
41907,2024,08,15,18,00,AAXX 15184 41907 02440 80000 10290 20270 30022 40036 8552/ 333 59013 70000 85615 88458==
41907,2024,08,15,21,00,AAXX 15214 41907 02440 80000 10285 20280 30015 40029 8552/ 333 59012 70000 85615 88458==
41909,2024,08,09,00,00,AAXX 09004 41909 02456 61802 10274 20250 30042 40053 83530 333 58018 70000 83615 85360==
41909,2024,08,09,03,00,AAXX 09034 41909 02456 51802 10294 20250 30057 40068 82530 333 20262 58012 70000 82615 85360==
41909,2024,08,09,06,00,AAXX 09064 41909 01350 81802 10267 20260 30053 40064 79596 8592/ 333 58011 70500 84708 88458 81928==
41909,2024,08,09,09,00,AAXX 09094 41909 01450 80000 10282 20260 30030 40041 70296 8562/ 333 58012 70530 84614 88458==
41909,2024,08,09,12,00,AAXX 09124 41909 11456 11801 10304 20260 30019 40030 60036 70196 81500 333 10307 59006 70530 81615==
41909,2024,08,09,15,00,AAXX 09154 41909 02440 40000 10281 20260 30045 40056 82530 333 59006 70530 82615 83360==
41909,2024,08,09,18,00,AAXX 09184 41909 02430 61801 10278 20260 30048 40059 83530 333 58003 70530 83615 85360==
41909,2024,08,09,21,00,AAXX 09214 41909 01330 81801 10274 20250 30044 40055 70362 8562/ 333 58003 70550 84614 88458==
41909,2024,08,10,00,00,AAXX 10004 41909 21450 81801 10270 20260 30033 40044 70262 8552/ 333 59009 60025 70550 84615 88460==
41909,2024,08,10,03,00,AAXX 10034 41909 02456 52302 10294 20260 30045 40056 82530 333 20245 59012 70550 82615 85360==
41909,2024,08,10,06,00,AAXX 10064 41909 02456 51802 10324 20250 30035 40046 82530 333 59018 70050 82615 85360==
41909,2024,08,10,09,00,AAXX 10094 41909 02456 71002 10320 20270 30014 40025 84370 333 59016 70020 84614 86460 81930==
41909,2024,08,10,12,00,AAXX 10124 41909 21456 81302 10300 20260 30008 40019 70362 8552/ 333 10332 59011 60015 70034 85615 88460==
41909,2024,08,10,15,00,AAXX 10154 41909 02350 80000 10286 20270 30032 40043 8562/ 333 59013 70034 83708 83614 88460==
41909,2024,08,10,18,00,AAXX 10184 41909 02330 80000 10280 20260 30031 40042 8662/ 333 59017 70034 83708 84614 88458==
41909,2024,08,10,21,00,AAXX 10214 41909 01330 81802 10278 20260 30026 40037 70262 8562/ 333 59018 70016 83708 83614 88460==
41909,2024,08,11,00,00,AAXX 11004 41909 21450 81804 10276 20260 30015 40026 70262 8552/ 333 59018 69925 70016 85615 88460==
41909,2024,08,11,03,00,AAXX 11034 41909 02456 81802 10294 20270 30029 40040 8352/ 333 20265 59016 70016 83615 88458==
41909,2024,08,11,06,00,AAXX 11064 41909 21356 81802 10286 20270 30028 40039 79522 8592/ 333 59007 60087 70096 85708 88458 81926==
41909,2024,08,11,09,00,AAXX 11094 41909 01456 71802 10308 20270 30009 40020 70196 84420 333 59005 70106 83615 87458==
41909,2024,08,11,12,00,AAXX 11124 41909 11456 40000 10299 20270 39999 40010 60016 70196 81530 333 10310 59009 70092 81615 83360==
41909,2024,08,11,15,00,AAXX 11154 41909 02940 00000 10288 20270 30021 40032 333 59011 70092==
41909,2024,08,11,18,00,AAXX 11184 41909 02440 20000 10282 20260 30030 40041 82500 333 59001 70092 82615==
41909,2024,08,11,21,00,AAXX 11214 41909 02440 20000 10276 20260 30026 40037 82500 333 58000 70090 82615==
41909,2024,08,12,00,00,AAXX 12004 41909 02456 30000 10274 20250 30028 40039 82530 333 58013 70090 82615==
41909,2024,08,12,03,00,AAXX 12034 41909 02456 81802 10300 20270 30036 40047 8352/ 333 20262 58007 70090 83615 88458==
41909,2024,08,12,06,00,AAXX 12064 41909 02456 81802 10317 20270 30034 40045 82510 333 58006 70010 82615 86458==
41909,2024,08,12,09,00,AAXX 12094 41909 02456 81801 10320 20270 30010 40021 8352/ 333 58001 70000 83615 88460==
41909,2024,08,12,12,00,AAXX 12124 41909 02956 00000 10310 20270 30010 40041 333 10330 58011 70000==
41909,2024,08,12,15,00,AAXX 12154 41909 02940 00000 10288 20260 30026 40037 333 58005 70000==
41909,2024,08,12,18,00,AAXX 12184 41909 02330 80000 10285 20260 30035 40046 8562/ 333 58005 70000 84708 88458==
41909,2024,08,12,21,00,AAXX 12214 41909 02330 80000 10284 20260 30031 40042 8562/ 333 58005 70000 83708 88458==
41909,2024,08,13,00,00,AAXX 13004 41909 02350 80000 10283 20260 30028 40039 8562/ 333 58000 70000 83708 88458==
41909,2024,08,13,03,00,AAXX 13034 41909 02350 80000 10297 20270 30044 40055 8562/ 333 20265 58008 70000 83708 88458==
41909,2024,08,13,06,00,AAXX 13064 41909 02456 60000 10317 20270 30042 40053 82510 333 58008 70000 82615 86458==
41909,2024,08,13,09,00,AAXX 13094 41909 01356 80000 10299 20270 30015 40026 76122 8562/ 333 58005 70000 83708 88458==
41909,2024,08,13,12,00,AAXX 13124 41909 02350 80000 10295 20280 30012 40023 8562/ 333 10320 58002 70005 83708 88458==
41909,2024,08,13,15,00,AAXX 13154 41909 02440 60000 10292 20270 30035 40046 82510 333 58009 70005 82615 86458==
41909,2024,08,13,18,00,AAXX 13184 41909 NIL=
41909,2024,08,14,00,00,AAXX 14004 41909 02440 80000 10280 20270 30027 40039 8552/ 333 59001 70005 85615 88458==
41909,2024,08,14,03,00,AAXX 14034 41909 02456 61801 10315 20270 30043 40054 82510 333 20264 59001 70005 82615 86458==
41909,2024,08,14,06,00,AAXX 14064 41909 02456 61801 10336 20270 30036 40047 82510 333 59006 70000 82615 86458==
41909,2024,08,14,09,00,AAXX 14094 41909 02456 61302 10345 20270 30003 40015 83530 333 59012 70000 83615 84365==
41909,2024,08,14,12,00,AAXX 14124 41909 02/56 30000 10334 20260 30001 40012 83030 333 10355 59011 70000 83365==
41909,2024,08,14,18,00,AAXX 14184 41909 02940 00000 10300 20260 30041 40052 333 58001 70000==
41909,2024,08,14,21,00,AAXX 14214 41909 02440 40000 10293 20260 30030 40041 82530 333 59006 70000 82615 83365==
41909,2024,08,15,00,00,AAXX 15004 41909 02450 80000 10285 20270 30024 40085 8552/ 333 59003 70000 85615 88460==
41909,2024,08,15,03,00,AAXX 15034 41909 02450 80000 10314 20260 30026 40037 8552/ 333 20275 59017 70000 85615 88460==
41909,2024,08,15,06,00,AAXX 15064 41909 02456 61801 10335 20260 30019 40030 82510 333 59017 70000 82615 86458==
41909,2024,08,15,09,00,AAXX 15094 41909 02456 50000 10344 20250 39996 40007 83830 333 59007 70000 82615 83360==
41909,2024,08,15,12,00,AAXX 15124 41909 02456 21802 10334 20260 39992 40003 81501 333 10348 59009 70000 81618==
41909,2024,08,15,15,00,AAXX 15154 41909 02940 00000 10308 20260 30019 40030 333 59011 70000==
41909,2024,08,15,18,00,AAXX 15184 41909 02940 00000 10296 20270 30028 40039 333 59013 70000==
41909,2024,08,15,21,00,AAXX 15214 41909 02440 60000 10289 20260 30016 40027 83530 333 59014 70000 83615 85360==
41915,2024,08,09,00,00,AAXX 09004 41915 02450 61301 10260 20240 30044 40070 85430 333 58012 70003 84615 84362==
41915,2024,08,09,03,00,AAXX 09034 41915 02356 81208 10294 20240 30061 40084 8531/ 333 20254 58012 70003 84709 88460 81930==
41915,2024,08,09,09,00,AAXX 09094 41915 02456 51706 10304 20240 30028 40053 85400 333 59002 70000 83615 83820==
41915,2024,08,09,21,00,AAXX 09214 41915 02456 30000 10270 20250 30050 40075 83400 333 58010 70000 82618==
41915,2024,08,10,00,00,AAXX 10004 41915 02456 30000 10270 20250 30039 40075 83400 333 58005 70000 82616==
41915,2024,08,10,06,00,AAXX 10064 41915 NIL=
41915,2024,08,10,09,00,AAXX 10094 41915 01456 41806 10317 20260 30018 40043 70162 84400 333 59010 70022 83616==
41915,2024,08,10,12,00,AAXX 10124 41915 NIL=
41915,2024,08,11,00,00,AAXX 11004 41915 NIL=
41915,2024,08,11,06,00,AAXX 11064 41915 NIL=
41915,2024,08,11,09,00,AAXX 11094 41915 02456 71306 10314 20260 30006 40031 85470 333 59012 70014 84616 85458==
41915,2024,08,11,12,00,AAXX 11124 41915 02456 71301 10300 20260 30008 40033 84570 333 10318 59008 70014 84616 85458==
41915,2024,08,12,00,00,AAXX 12004 41915 NIL=
41915,2024,08,12,03,00,AAXX 12034 41915 02456 81302 10285 20260 30039 40064 8642/ 333 20266 58001 70000 85616 88458==
41915,2024,08,12,06,00,AAXX 12064 41915 01456 80000 10290 20270 30033 40058 76122 8662/ 333 58013 70008 82710 85616 88458==
41915,2024,08,12,09,00,AAXX 12094 41915 01456 81301 10312 20260 30010 40035 70262 8541/ 333 58004 70010 84615 88458==
41915,2024,08,12,12,00,AAXX 12124 41915 01450 81802 10270 20260 30015 40040 76062 8672/ 333 10316 58007 70014 83710 84615 88458==
41915,2024,08,12,18,00,AAXX 12184 41915 11450 70000 10265 20260 30033 40058 60066 70262 84470 333 58012 70070 83616 85458==
41915,2024,08,12,21,00,AAXX 12214 41915 02450 80000 10265 20260 30033 40058 8552/ 333 58010 70070 85616 88458==
41915,2024,08,13,00,00,AAXX 13004 41915 02456 80000 10260 20250 30035 40061 8552/ 333 58012 70070 85616 88458==
41915,2024,08,13,03,00,AAXX 13034 41915 02456 41303 10305 20260 30041 40065 82510 333 20258 58002 70070 82616 83460==
41915,2024,08,13,06,00,AAXX 13064 41915 02456 71302 10330 20260 30032 40056 84470 333 59001 70062 83616 86362==
41915,2024,08,13,09,00,AAXX 13094 41915 02356 71403 10328 20280 30000 40025 84610 333 59010 70060 86460==
41915,2024,08,13,12,00,AAXX 13124 41915 02456 30000 10322 20270 30001 40026 83500 333 10356 59014 70056 83616==
41915,2024,08,13,15,00,AAXX 13154 41915 02440 80000 10300 20270 30029 40054 8562/ 333 59001 70000 83712 84615 88458==
41915,2024,08,13,18,00,AAXX 13184 41915 NIL=
41915,2024,08,13,21,00,AAXX 13214 41915 01420 81302 10255 20255 30028 40053 79596 8792/ 333 59005 70970 84708 84614 88456 81925==
41915,2024,08,14,00,00,AAXX 14004 41915 21450 61301 10250 20250 30029 40054 70196 83530 333 59006 60738 71072 83616 85362==
41915,2024,08,14,03,00,AAXX 14034 41915 02456 41403 10300 20260 30036 40061 84400 333 10237 59003 71072 83616==
41915,2024,08,14,06,00,AAXX 14064 41915 02456 40000 10330 20270 30026 40051 84400 333 59006 71072 83616==
41915,2024,08,14,09,00,AAXX 14094 41915 02456 50000 10335 20280 39992 40017 85400 333 58008 71072 84616==
41915,2024,08,14,12,00,AAXX 14124 41915 02456 50000 10330 20280 39996 40021 84331 333 10346 58005 71072 83616 81928==
41915,2024,08,14,15,00,AAXX 14154 41915 01350 80000 10260 20240 30028 40053 79592 8492/ 333 59001 71120 83708 88458 81925==
41915,2024,08,14,21,00,AAXX 14214 41915 02456 40000 10254 20230 30025 40050 84500 333 59003 70150 84616==
41915,2024,08,15,00,00,AAXX 15004 41915 02456 40000 10254 20230 30022 40047 84400 333 59007 70048 84616==
41915,2024,08,15,03,00,AAXX 15034 41915 02456 41301 10310 20260 30031 40056 84430 333 20252 59005 70048 83616==
41915,2024,08,15,06,00,AAXX 15064 41915 02456 51302 10332 20250 30013 40038 84430 333 59013 70048 83616==
41915,2024,08,15,09,00,AAXX 15094 41915 02456 40000 10350 20270 39983 40007 84400 333 59009 70048 83616==
41915,2024,08,15,12,00,AAXX 15124 41915 02450 73102 10321 20260 39978 40003 85320 333 10364 59018 70048 85615 87458 81928==
41915,2024,08,15,15,00,AAXX 15154 41915 01440 70000 10268 20250 30014 40039 71396 85370 333 59014 70006 84616 85458 81928==
41915,2024,08,15,18,00,AAXX 15184 41915 NIL=
41915,2024,08,15,21,00,AAXX 15214 41915 01440 81302 10260 20250 30016 40041 72162 8662/ 333 59009 70030 83710 85616 88458==
41923,2024,08,09,00,00,AAXX 09004 41923 21330 80000 10265 20260 30050 40060 76162 8632/ 333 58015 60027 70018 83708 84613 88458 81928==
41923,2024,08,09,03,00,AAXX 09034 41923 01340 81202 10291 20260 30067 40077 76166 8632/ 333 20265 58013 70030 83708 84613 88458 81928==
41923,2024,08,09,06,00,AAXX 09064 41923 21350 81302 10292 20250 30062 40072 72162 8632/ 333 58011 60018 70030 84613 88458 81928==
41923,2024,08,09,09,00,AAXX 09094 41923 02456 51602 10324 20230 30034 40044 84430 333 58002 70030 82615 83824==
41923,2024,08,09,12,00,AAXX 09124 41923 02456 51804 10306 20260 30030 40040 84430 333 10330 59007 70030 82615 83824==
41923,2024,08,09,15,00,AAXX 09154 41923 02450 50000 10270 20260 30058 40068 84430 333 58001 70030 83615==
41923,2024,08,09,18,00,AAXX 09184 41923 02345 71803 10282 20250 30056 40066 85670 333 58000 70030 82709 84515 85458==
41923,2024,08,09,21,00,AAXX 09214 41923 02440 50000 10280 20260 30044 40054 82530 333 59008 70030 82615 84360==
41923,2024,08,10,00,00,AAXX 10004 41923 02440 61802 10278 20260 30045 40055 83430 333 59005 70012 82615 85360==
41923,2024,08,10,03,00,AAXX 10034 41923 42450 61803 10308 20260 30051 40061 85630 333 20277 59016 82709 84615==
41923,2024,08,10,06,00,AAXX 10064 41923 01340 71803 10322 20250 30043 40053 76166 85770 333 59019 70000 82709 84615 85458==
41923,2024,08,10,09,00,AAXX 10094 41923 01445 71702 10315 20260 30022 40032 70262 85430 333 59012 70020 83615 83824 85360==
41923,2024,08,10,12,00,AAXX 10124 41923 01445 60000 10292 20250 30018 40028 70162 83430 333 10331 59012 70022 82615 85360==
41923,2024,08,10,15,00,AAXX 10154 41923 01345 60000 10289 20260 30041 40051 72122 84670 333 59017 70022 81709 83615 85458==
41923,2024,08,10,18,00,AAXX 10184 41923 21340 70000 10287 20270 30040 40050 70362 84670 333 59016 60005 70022 82709 84615 86458==
41923,2024,08,10,21,00,AAXX 10214 41923 02340 70000 10285 20270 30029 40039 85670 333 59015 70022 82709 84615 86458==
41923,2024,08,11,00,00,AAXX 11004 41923 02340 80000 10282 20260 30025 40035 8532/ 333 59028 70022 83709 84615 88458 81930==
41923,2024,08,11,03,00,AAXX 11034 41923 02345 71802 10304 20250 30038 40048 84670 333 20280 59013 70022 81709 83615 86458==
41923,2024,08,11,06,00,AAXX 11064 41923 01450 61803 10314 20260 30033 40043 70162 84430 333 59010 70008 83615 85360==
41923,2024,08,11,09,00,AAXX 11094 41923 01330 81602 10282 20260 30021 40031 79596 8692/ 333 59001 70012 83709 84615 88458 81930==
41923,2024,08,11,12,00,AAXX 11124 41923 21340 81802 10294 20260 30011 40021 72296 8632/ 333 10320 59007 69968 70014 82709 84615 88458 81930==
41923,2024,08,11,15,00,AAXX 11154 41923 01340 60000 10286 20270 30029 40039 70162 84670 333 59012 70016 82709 83615 85360==
41923,2024,08,11,18,00,AAXX 11184 41923 11/40 30000 10282 20260 30037 40047 69926 70162 83030 333 59003 70016 83360==
41923,2024,08,11,21,00,AAXX 11214 41923 02340 60000 10282 20260 30030 40040 84670 333 58001 70016 82709 83615 85360==
41923,2024,08,12,00,00,AAXX 12004 41923 02340 80000 10280 20270 30032 40042 8632/ 333 58007 70016 82709 84615 88458 81930==
41923,2024,08,12,03,00,AAXX 12034 41923 01340 81802 10308 20270 30043 40053 70262 8632/ 333 20276 58005 70016 82709 84615 88458 81930==
41923,2024,08,12,06,00,AAXX 12064 41923 11340 80000 10326 20260 30037 40047 60006 70262 8632/ 333 58004 70008 82709 84615 88458 81930==
41923,2024,08,12,09,00,AAXX 12094 41923 01340 80000 10289 20270 30016 40026 76162 8632/ 333 59005 70028 83708 84614 88458 81930==
41923,2024,08,12,12,00,AAXX 12124 41923 01340 80000 10285 20270 30020 40030 76162 8632/ 333 10330 58009 70072 83709 84615 88458 81930==
41923,2024,08,12,15,00,AAXX 12154 41923 01340 60000 10277 20270 30037 40047 72166 85370 333 58008 70074 81709 83615 86458 81930==
41923,2024,08,12,18,00,AAXX 12184 41923 21340 70000 10277 20270 30042 40052 70362 84670 333 58005 69948 70074 82709 84615 86458==
41923,2024,08,12,21,00,AAXX 12214 41923 02340 70000 10277 20270 30038 40048 84670 333 58008 70074 82709 83615 86458==
41923,2024,08,13,00,00,AAXX 13004 41923 02340 70000 10277 20270 30035 40045 84670 333 58003 70074 82709 84615 86458==
41923,2024,08,13,03,00,AAXX 13034 41923 02340 71602 10302 20260 30051 40061 84670 333 20275 58008 70074 82709 84615 86458==
41923,2024,08,13,06,00,AAXX 13064 41923 02450 61702 10325 20250 30044 40054 84430 333 58007 70074 82615 83824 86360==
41923,2024,08,13,09,00,AAXX 13094 41923 01450 80000 10328 20270 30018 40028 70362 8552/ 333 58002 70052 85615 88459==
41923,2024,08,13,12,00,AAXX 13124 41923 21340 80000 10297 20270 30015 40025 76162 8632/ 333 10342 59005 60037 70036 83708 84613 88458 81928==
41923,2024,08,13,15,00,AAXX 13154 41923 01440 80000 10281 20260 30044 40054 72162 8532/ 333 58007 70038 85615 88459 81930==
41923,2024,08,13,18,00,AAXX 13184 41923 21440 80000 10280 20270 30047 40057 70262 8532/ 333 58005 69968 70038 85615 88459 81930==
41923,2024,08,13,21,00,AAXX 13214 41923 01440 80000 10277 20270 30039 40049 70522 8532/ 333 58001 70038 85615 88459 81930==
41923,2024,08,14,00,00,AAXX 14004 41923 01440 80000 10277 20270 30035 40045 70522 8532/ 333 58000 70038 85615 88459 81930==
41923,2024,08,14,03,00,AAXX 14034 41923 02450 60902 10309 20250 30050 40060 83530 333 20273 59001 70038 83615 86365==
41923,2024,08,14,06,00,AAXX 14064 41923 02450 81202 10326 20270 30038 40048 8552/ 333 59006 70038 85615 88458==
41923,2024,08,14,09,00,AAXX 14094 41923 02456 51304 10350 20260 30010 40020 83430 333 59008 70038 82616 83360==
41923,2024,08,14,12,00,AAXX 14124 41923 02456 61802 10334 20250 30009 40019 83430 333 10355 59016 70006 82615 84360==
41923,2024,08,14,15,00,AAXX 14154 41923 02450 30000 10306 20260 30039 40049 81530 333 59005 70000 81616 83360==
41923,2024,08,14,18,00,AAXX 14184 41923 01340 80000 10294 20260 30039 40049 76122 8472/ 333 59008 70000 82709 84614 88458==
41923,2024,08,14,21,00,AAXX 14214 41923 42340 70000 10290 20260 30036 40046 84670 333 59003 82709 83615 85458==
41923,2024,08,15,00,00,AAXX 15004 41923 42440 70000 10286 20270 30032 40042 84370 333 59003 83615 85458 81930==
41923,2024,08,15,03,00,AAXX 15034 41923 42450 61802 10313 20260 30035 40045 84430 333 20284 59015 83615 83360==
41923,2024,08,15,06,00,AAXX 15064 41923 42456 61802 10340 20250 30024 40034 84430 333 59014 83615 83824==
41923,2024,08,15,09,00,AAXX 15094 41923 42450 71602 10342 20250 30002 40012 84370 333 59008 83615 85458 81930==
41923,2024,08,15,12,00,AAXX 15124 41923 42350 60000 10326 20250 39997 40007 84670 333 10349 59012 82709 83615 85458==
41923,2024,08,15,15,00,AAXX 15154 41923 42/50 20000 10308 20260 30026 40036 82030 333 59013 82360==
41923,2024,08,15,18,00,AAXX 15184 41923 02/40 20000 10296 20260 30026 40036 82030 333 59013 70000 82360==
41923,2024,08,15,21,00,AAXX 15214 41923 02340 60000 10288 20260 30023 40033 84670 333 59013 70000 82709 83615 85458==
41926,2024,08,09,00,00,AAXX 09004 41926 02450 70000 10265 20260 30034 40048 84510 333 58013 70018 84616 86459==
41926,2024,08,09,03,00,AAXX 09034 41926 02450 50000 10295 20270 30051 40064 83510 333 20265 58014 70018 83618 84459==
41926,2024,08,09,06,00,AAXX 09064 41926 02450 70000 10305 20270 30040 40053 84510 333 58007 70000 84616 86459==
41926,2024,08,09,09,00,AAXX 09094 41926 01350 80000 10300 20280 30019 40032 70362 8572/ 333 58009 70010 82708 84614 88458==
41926,2024,08,09,12,00,AAXX 09124 41926 11450 70000 10295 20280 30015 40028 60016 70162 84410 333 10313 59002 70010 83616 86459==
41926,2024,08,09,15,00,AAXX 09154 41926 01450 70000 10275 20270 30037 40051 70262 84510 333 59003 70030 84615 86459==
41926,2024,08,09,18,00,AAXX 09184 41926 11450 70000 10275 20270 30040 40054 60026 70262 84510 333 58002 70030 83615 86459==
41926,2024,08,09,21,00,AAXX 09214 41926 02450 70000 10273 20260 30026 40040 84510 333 59002 70030 84615 86459==
41926,2024,08,10,00,00,AAXX 10004 41926 02450 80000 10270 20270 30028 40042 8452/ 333 59006 70030 84615 88458==
41926,2024,08,10,03,00,AAXX 10034 41926 01456 70000 10297 20270 30039 40052 76122 84510 333 20270 59012 70034 84615 87459==
41926,2024,08,10,06,00,AAXX 10064 41926 21456 70000 10310 20280 30028 40041 70262 84510 333 59012 60067 70094 84615 87459==
41926,2024,08,10,09,00,AAXX 10094 41926 01450 80000 10277 20270 30007 40020 79596 8432/ 333 59012 70096 83617 88458 81930==
41926,2024,08,10,12,00,AAXX 10124 41926 01450 80000 10278 20270 30007 40020 76196 8432/ 333 10330 59008 70118 83617 88458 81930==
41926,2024,08,10,15,00,AAXX 10154 41926 02450 80000 10274 20260 30027 40041 8452/ 333 59010 70098 84618 88458==
41926,2024,08,10,18,00,AAXX 10184 41926 21450 80000 10275 20275 30026 40039 70262 8452/ 333 59014 60155 70246 86418 88458==
41926,2024,08,10,21,00,AAXX 10214 41926 02450 80000 10275 20270 30016 40029 8452/ 333 59010 70246 86418 88458==
41926,2024,08,11,00,00,AAXX 11004 41926 01450 80000 10274 20260 30006 40019 72996 8432/ 333 59022 70040 83617 88458 81928==
41926,2024,08,11,03,00,AAXX 11034 41926 01450 80000 10284 20270 30030 40044 73162 8452/ 333 20268 59009 70428 84617 88458==
41926,2024,08,11,06,00,AAXX 11064 41926 21450 70000 10313 20270 30023 40036 70162 83510 333 59005 60158 70368 83618 85459==
41926,2024,08,11,09,00,AAXX 11094 41926 02450 60000 10320 20270 30006 40019 83310 333 59001 70356 82618 85459 81930==
41926,2024,08,11,12,00,AAXX 11124 41926 02450 60000 10300 20260 39997 40010 83510 333 10332 59010 70334 83618 85459==
41926,2024,08,11,15,00,AAXX 11154 41926 02450 50000 10284 20270 30020 40033 82510 333 59007 70334 82618 85459==
41926,2024,08,11,18,00,AAXX 11184 41926 02450 50000 10278 20270 30029 40043 82510 333 58003 70186 82618 85459==
41926,2024,08,11,21,00,AAXX 11214 41926 02/50 30000 10277 20270 30024 40037 83010 333 58008 70186 83459==
41926,2024,08,12,00,00,AAXX 12004 41926 02/50 30000 10276 20270 30020 40033 83010 333 58014 70150 83459==
41926,2024,08,12,03,00,AAXX 12034 41926 02450 60000 10303 20270 30028 40041 83510 333 20275 59002 70000 83618 86459==
41926,2024,08,12,06,00,AAXX 12064 41926 02456 50000 10342 20260 30025 40038 82510 333 58002 70000 82618 85459==
41926,2024,08,12,09,00,AAXX 12094 41926 01450 81801 10317 20280 30005 40018 71722 8492/ 333 59001 70000 84618 88458 81928==
41926,2024,08,12,12,00,AAXX 12124 41926 11450 80000 10280 20270 30001 40014 60062 76096 8452/ 333 10350 58004 70058 84618 88458==
41926,2024,08,12,15,00,AAXX 12154 41926 02450 80000 10280 20270 30023 40037 8452/ 333 58003 70058 84616 88458==
41926,2024,08,12,18,00,AAXX 12184 41926 02450 80000 10277 20270 30027 40041 8452/ 333 59002 70058 84616 88458==
41926,2024,08,12,21,00,AAXX 12214 41926 02450 80000 10270 20260 30018 40032 8452/ 333 59006 70058 84615 88458==
41926,2024,08,13,00,00,AAXX 13004 41926 21450 80000 10260 20250 30024 40038 70262 8452/ 333 58004 60065 70120 84615 88458==
41926,2024,08,13,03,00,AAXX 13034 41926 02456 80000 10300 20280 30040 40053 8452/ 333 20258 58012 70120 84615 88458==
41926,2024,08,13,06,00,AAXX 13064 41926 02456 60000 10340 20260 30032 40045 84510 333 58007 70120 84615 86459==
41926,2024,08,13,09,00,AAXX 13094 41926 02456 70000 10344 20260 30009 40022 83510 333 58004 70120 83616 87459==
41926,2024,08,13,12,00,AAXX 13124 41926 02456 60000 10288 20270 30013 40026 83510 333 10348 58012 70062 83617 86459==
41926,2024,08,13,15,00,AAXX 13154 41926 02450 50000 10282 20260 30039 40052 82510 333 58016 70062 82618 85459==
41926,2024,08,13,18,00,AAXX 13184 41926 02450 50000 10278 20270 30038 40051 82510 333 58011 70062 82618 85459==
41926,2024,08,13,21,00,AAXX 13214 41926 02450 50000 10275 20270 30034 40047 82510 333 58016 70062 82618 85459==
41926,2024,08,14,00,00,AAXX 14004 41926 02450 60000 10268 20260 30031 40045 83510 333 58007 70000 83617 86459==
41926,2024,08,14,03,00,AAXX 14034 41926 02450 70000 10290 20260 30039 40052 84510 333 20267 59001 70000 84617 87459==
41926,2024,08,14,06,00,AAXX 14064 41926 02456 50000 10335 20270 30026 40039 83510 333 59006 70000 83617 85459==
41926,2024,08,14,09,00,AAXX 14094 41926 02456 51201 10348 20280 30001 40014 85400 333 59008 70000 82617 83825==
41926,2024,08,14,12,00,AAXX 14124 41926 21450 50000 10290 20270 30002 40015 70262 82501 333 10353 59011 69935 70003 82617 84080==
41926,2024,08,14,15,00,AAXX 14154 41926 02450 50000 10285 20280 30031 40044 82510 333 59008 70003 82618 85459==
41926,2024,08,14,18,00,AAXX 14184 41926 02450 50000 10280 20270 30033 40046 82510 333 59005 70003 82618 85459==
41926,2024,08,14,21,00,AAXX 14214 41926 02450 50000 10275 20270 30030 40043 82510 333 59004 70003 82618 85459==
41926,2024,08,15,00,00,AAXX 15004 41926 02450 50000 10274 20260 30028 40042 81501 333 59003 70003 81618 84080==
41926,2024,08,15,03,00,AAXX 15034 41926 02456 60000 10308 20280 30021 40034 83510 333 20273 59018 70003 83617 86459==
41926,2024,08,15,06,00,AAXX 15064 41926 02450 60000 10340 20260 30015 40028 83510 333 59011 70003 83617 86459==
41926,2024,08,15,09,00,AAXX 15094 41926 02450 71802 10340 20260 39991 40004 84510 333 59010 70003 84615 86459==
41926,2024,08,15,12,00,AAXX 15124 41926 02450 71802 10320 20280 39990 40003 84510 333 10348 59012 70000 84615 87459==
41926,2024,08,15,15,00,AAXX 15154 41926 01450 50000 10287 20280 30019 40032 70162 82510 333 59012 70044 82618 84459==
41926,2024,08,15,18,00,AAXX 15184 41926 11450 50000 10282 20270 30021 40035 60046 70262 82510 333 59012 70044 82618 84459==
41926,2024,08,15,21,00,AAXX 15214 41926 02450 50000 10275 20270 39997 40011 82530 333 59033 70044 82618 84362==
41927,2024,08,09,00,00,AAXX 09004 41927 NIL=
41927,2024,08,10,06,00,AAXX 10064 41927 NIL=
41927,2024,08,10,12,00,AAXX 10124 41927 NIL=
41927,2024,08,11,00,00,AAXX 11004 41927 NIL=
41927,2024,08,11,06,00,AAXX 11064 41927 NIL=
41927,2024,08,11,12,00,AAXX 11124 41927 32457 81801 10290 20270 39997 40012 8452/ 333 10312 56499 59004 70792 84617 88458=
41927,2024,08,12,00,00,AAXX 12004 41927 NIL=
41927,2024,08,12,12,00,AAXX 12124 41927 32456 62202 10285 20250 30004 40019 83510 333 10340 56590 58007 70000 83617 85459=
41927,2024,08,13,00,00,AAXX 13004 41927 32456 71802 10270 20260 30021 40036 83510 333 56490 59002 70000 83617 87459=
41927,2024,08,13,12,00,AAXX 13124 41927 32956 31401 10305 20260 30007 40022 83030 333 10334 56090 58003 70000 83362=
41927,2024,08,13,18,00,AAXX 13184 41927 NIL=
41927,2024,08,14,00,00,AAXX 14004 41927 NIL=
41927,2024,08,14,06,00,AAXX 14064 41927 32458 51801 10335 20260 30027 40041 85400 333 56400 59007 70000 82618 83825=
41927,2024,08,14,12,00,AAXX 14124 41927 NIL=
41927,2024,08,15,00,00,AAXX 15004 41927 32956 00000 10278 20270 30028 40043 333 58004 70000=
41927,2024,08,15,06,00,AAXX 15064 41927 32457 61802 10330 20260 30016 40030 83510 333 56490 59011 70000 83617 85459=
41927,2024,08,15,12,00,AAXX 15124 41927 NIL=
41927,2024,08,15,18,00,AAXX 15184 41927 NIL=
41929,2024,08,09,00,00,AAXX 09004 41929 02456 61304 10272 20260 30043 40052 83510 333 58017 70010 83618 85462==
41929,2024,08,09,03,00,AAXX 09034 41929 01456 81802 10290 20270 30062 40071 76122 8352/ 333 20266 58011 70012 83618 88462==
41929,2024,08,09,06,00,AAXX 09064 41929 21456 71803 10312 20250 30055 40064 70162 83570 333 58006 69925 70002 83618 86462==
41929,2024,08,09,09,00,AAXX 09094 41929 02456 41304 10333 20250 30032 40041 84410 333 58004 70002 82618==
41929,2024,08,09,12,00,AAXX 09124 41929 02556 31802 10315 20260 30026 40035 83110 333 10334 59007 70002 83825==
41929,2024,08,09,15,00,AAXX 09154 41929 02456 61303 10290 20270 30053 40063 84510 333 58005 70002 84618==
41929,2024,08,09,18,00,AAXX 09184 41929 01456 61304 10277 20270 30050 40059 70262 84510 333 58007 70003 84618==
41929,2024,08,09,21,00,AAXX 09214 41929 02456 81304 10277 20270 30043 40052 8451/ 333 58000 70005 84618 88463==
41929,2024,08,10,00,00,AAXX 10004 41929 02456 71304 10280 20270 30038 40047 84510 333 59005 70005 84618 86462==
41929,2024,08,10,03,00,AAXX 10034 41929 02456 51802 10305 20280 30047 40056 84540 333 20270 59015 70003 84618==
41929,2024,08,10,06,00,AAXX 10064 41929 21456 61802 10320 20260 30044 40053 70362 84540 333 59011 60025 70023 84618 85365==
41929,2024,08,10,09,00,AAXX 10094 41929 02457 62704 10340 20260 30021 40030 85470 333 59011 70023 83825==
41929,2024,08,10,12,00,AAXX 10124 41929 02456 51803 10295 20270 30017 40026 83570 333 10342 59009 70023 83618==
41929,2024,08,10,15,00,AAXX 10154 41929 02456 51802 10290 20270 30041 40050 83510 333 59013 70023 83618==
41929,2024,08,10,18,00,AAXX 10184 41929 02456 51802 10290 20270 30036 40045 83570 333 59014 70020 83618==
41929,2024,08,10,21,00,AAXX 10214 41929 02456 81802 10290 20270 30028 40037 8351/ 333 59015 70020 83618 88462==
41929,2024,08,11,00,00,AAXX 11004 41929 02456 81803 10285 20280 30019 40028 8351/ 333 59019 70020 83618 88462==
41929,2024,08,11,06,00,AAXX 11064 41929 01456 82702 10310 20270 30032 40041 70262 8351/ 333 59012 70011 83618 88462==
41929,2024,08,11,09,00,AAXX 11094 41929 02456 81802 10303 20270 30019 40028 8351/ 333 59002 70011 83618 88462==
41929,2024,08,11,12,00,AAXX 11124 41929 02456 81802 10300 20280 30011 40020 8351/ 333 10341 59006 70011 83618 88462==
41929,2024,08,11,15,00,AAXX 11154 41929 02/56 20000 10286 20280 30028 40037 82030 333 59013 70011 82365==
41929,2024,08,11,18,00,AAXX 11184 41929 02/56 21802 10280 20270 30023 40032 82030 333 59013 70011 82365==
41929,2024,08,11,21,00,AAXX 11214 41929 02456 50000 10280 20270 30029 40038 83570 333 58001 70011 83618==
41929,2024,08,12,00,00,AAXX 12004 41929 02456 50000 10282 20270 30029 40038 83510 333 58010 70011 83618 84462==
41929,2024,08,12,03,00,AAXX 12034 41929 02456 52302 10320 20270 30039 40048 83510 333 20274 59001 70010 83618 84462==
41929,2024,08,12,06,00,AAXX 12064 41929 02456 81802 10332 20260 30034 40043 8351/ 333 58002 70000 83618 88462==
41929,2024,08,12,09,00,AAXX 12094 41929 02456 71802 10328 20230 30012 40021 83510 333 59007 70000 83618 86462==
41929,2024,08,12,12,00,AAXX 12124 41929 02456 71802 10306 20280 30015 40024 84410 333 10342 58004 70000 82618 86462==
41929,2024,08,12,15,00,AAXX 12154 41929 02456 71802 10288 20270 30036 40045 83510 333 58008 70000 83618 86462==
41929,2024,08,12,18,00,AAXX 12184 41929 02456 70000 10282 20260 30039 40048 83570 333 58106 70000 83618 84462==
41929,2024,08,12,21,00,AAXX 12214 41929 02456 61302 10282 20260 30034 40043 83510 333 58005 70000 83618 85462==
41929,2024,08,13,00,00,AAXX 13004 41929 02456 80000 10282 20270 30031 40040 8351/ 333 58002 70000 83618 88462==
41929,2024,08,13,03,00,AAXX 13034 41929 02456 61302 10317 20270 30048 40057 83510 333 20274 58009 70000 83618 84462==
41929,2024,08,13,06,00,AAXX 13064 41929 02456 70902 10342 20260 30040 40049 83510 333 58006 70000 83618 86462==
41929,2024,08,13,09,00,AAXX 13094 41929 01456 80000 10325 20260 30022 40031 71722 8491/ 333 58010 70000 83618 88462 81930==
41929,2024,08,13,12,00,AAXX 13124 41929 01456 40000 10315 20270 30014 40023 70192 84410 333 10346 59001 70000 82618==
41929,2024,08,13,15,00,AAXX 13154 41929 02456 50000 10295 20280 30045 40054 83570 333 58009 70000 83618==
41929,2024,08,13,18,00,AAXX 13184 41929 02456 50000 10290 20270 30046 40055 83510 333 58007 70000 83618 84462==
41929,2024,08,14,00,00,AAXX 14004 41929 02456 60000 10281 20270 30032 40041 83510 333 58001 70000 83618 86462==
41929,2024,08,14,03,00,AAXX 14034 41929 02456 41303 10311 20270 30045 40054 83410 333 20275 59003 70000 82618==
41929,2024,08,14,06,00,AAXX 14064 41929 02456 61302 10336 20270 30033 40042 84470 333 59007 70000 83618==
41929,2024,08,14,09,00,AAXX 14094 41929 02556 41803 10353 20250 30011 40020 83130 333 59011 70000 83825 84365==
41929,2024,08,14,12,00,AAXX 14124 41929 02456 31302 10329 20260 30005 40014 83510 333 10355 59009 70000 83618==
41929,2024,08,14,15,00,AAXX 14154 41929 02456 21302 10305 20280 30035 40044 82510 333 59010 70000 82618==
41929,2024,08,14,18,00,AAXX 14184 41929 02456 40000 10292 20270 30040 40049 84510 333 59006 70000 84618==
41929,2024,08,14,21,00,AAXX 14214 41929 02456 41304 10292 20270 30033 40042 84510 333 59013 70000 84618==
41929,2024,08,15,00,00,AAXX 15004 41929 02456 60000 10280 20270 30025 40034 84410 333 59007 70000 82618 86462==
41929,2024,08,15,03,00,AAXX 15034 41929 02456 40000 10310 20260 30032 40041 84400 333 20274 59013 70000 83618==
41929,2024,08,15,06,00,AAXX 15064 41929 02456 50903 10340 20260 30025 40034 84410 333 59008 70000 83618 85462==
41929,2024,08,15,09,00,AAXX 15094 41929 02456 41302 10350 20260 30001 40010 84410 333 59010 70000 83825==
41929,2024,08,15,12,00,AAXX 15124 41929 02456 41302 10326 20270 39995 40004 84430 333 10352 59010 70000 82618==
41929,2024,08,15,15,00,AAXX 15154 41929 02456 40000 10305 20290 30026 40035 84510 333 59009 70000 84618==
41929,2024,08,15,18,00,AAXX 15184 41929 02456 20000 10294 20280 30026 40035 82500 333 59014 70000 82618==
41929,2024,08,15,21,00,AAXX 15214 41929 02/56 20000 10294 20280 30021 40030 82030 333 59012 70000 82365==
41933,2024,08,09,00,00,AAXX 09004 41933 01340 81802 10260 20250 30054 40062 76162 8572/ 333 58011 70030 82709 84615 88457==
41933,2024,08,09,03,00,AAXX 09034 41933 01340 80000 10260 20250 30075 40083 76166 8572/ 333 20255 58013 70142 82709 84618 88457==
41933,2024,08,09,06,00,AAXX 09064 41933 21340 80000 10275 20260 30067 40075 76166 8572/ 333 58004 60109 70142 82709 84615 88457==
41933,2024,08,09,09,00,AAXX 09094 41933 01350 81302 10280 20260 30045 40054 76166 8572/ 333 58001 70142 83708 85616 88456==
41933,2024,08,09,12,00,AAXX 09124 41933 21350 81802 10285 20260 30041 40049 70262 8562/ 333 10308 59005 60015 70142 83710 84618 88458==
41933,2024,08,09,15,00,AAXX 09154 41933 02430 41302 10277 20260 30062 40070 83520 333 59002 70142 83618 84458==
41933,2024,08,09,18,00,AAXX 09184 41933 02430 81302 10270 20250 30062 40070 8562/ 333 58005 70142 82710 84618 88458==
41933,2024,08,09,21,00,AAXX 09214 41933 02430 81302 10267 20250 30057 40065 8562/ 333 58009 70142 82710 84618 88458==
41933,2024,08,10,00,00,AAXX 10004 41933 02440 81302 10264 20240 30050 40058 8562/ 333 59004 70110 82710 84618 88458==
41933,2024,08,10,03,00,AAXX 10034 41933 02456 71802 10275 20260 30055 40063 84520 333 20250 59020 70022 84618 87458==
41933,2024,08,10,06,00,AAXX 10064 41933 01350 81802 10284 20260 30052 40060 76162 8572/ 333 59015 70046 82709 84615 88458==
41933,2024,08,10,09,00,AAXX 10094 41933 01456 71502 10280 20260 30026 40034 70162 84520 333 59019 70110 84618 87458==
41933,2024,08,10,12,00,AAXX 10124 41933 01340 81502 10270 20260 30024 40032 76162 8572/ 333 10291 59017 70136 82709 84615 88458==
41933,2024,08,10,15,00,AAXX 10154 41933 01440 80000 10270 20250 30049 40057 70262 8562/ 333 59013 70136 82709 84618 88458==
41933,2024,08,10,18,00,AAXX 10184 41933 11440 60000 10270 20250 30042 40050 60006 70162 83520 333 59020 70137 83618 86458==
41933,2024,08,10,21,00,AAXX 10214 41933 02440 60000 10270 20260 30036 40044 83520 333 59021 70137 83618 86458==
41933,2024,08,11,00,00,AAXX 11004 41933 21440 80000 10270 20260 30032 40040 70362 8562/ 333 59018 60015 70149 82709 84618 88458==
41933,2024,08,11,03,00,AAXX 11034 41933 02450 81702 10281 20260 30049 40057 8562/ 333 20265 59006 70148 82710 84618 88458==
41933,2024,08,11,06,00,AAXX 11064 41933 02450 71802 10290 20260 30042 40050 83550 333 59010 70114 83618 87458==
41933,2024,08,11,09,00,AAXX 11094 41933 02456 81802 10290 20260 30027 40035 8462/ 333 58001 70026 82710 84618 88458==
41933,2024,08,11,12,00,AAXX 11124 41933 02450 81802 10280 20250 30020 40028 8462/ 333 10300 59004 70012 82710 84618 88458==
41933,2024,08,11,15,00,AAXX 11154 41933 02950 00000 10272 20250 30030 40038 333 59019 70012==
41933,2024,08,11,18,00,AAXX 11184 41933 02450 31502 10270 20260 30033 40042 83500 333 59009 70012 83618==
41933,2024,08,11,21,00,AAXX 11214 41933 01340 80000 10265 20260 30026 40034 76160 8572/ 333 59010 70080 82709 84615 87457==
41933,2024,08,12,00,00,AAXX 12004 41933 21350 80000 10265 20260 30028 40036 72160 8572/ 333 59004 60139 70130 82709 84615 88458==
41933,2024,08,12,03,00,AAXX 12034 41933 01350 60000 10280 20260 30051 40059 70162 83520 333 20265 58002 70130 83618 86458==
41933,2024,08,12,06,00,AAXX 12064 41933 11456 61803 10315 20270 30043 40051 60006 70262 83520 333 58001 70130 83618 86458==
41933,2024,08,12,09,00,AAXX 12094 41933 02456 71702 10300 20260 30033 40042 83520 333 58006 70130 83618 87458==
41933,2024,08,12,12,00,AAXX 12124 41933 21456 70000 10285 20270 30027 40036 70262 83520 333 10325 58007 60005 70130 83618 87458==
41933,2024,08,12,15,00,AAXX 12154 41933 02430 51802 10277 20260 30040 40049 82520 333 58010 70130 82618 85458==
41933,2024,08,12,18,00,AAXX 12184 41933 02430 81302 10272 20260 30054 40063 8562/ 333 58021 70130 82710 84618 88458==
41933,2024,08,12,21,00,AAXX 12214 41933 02430 81302 10268 20260 30048 40057 8562/ 333 58022 70062 82710 84618 88458==
41933,2024,08,13,00,00,AAXX 13004 41933 42440 80000 10265 20260 30044 40053 8562/ 333 58016 82710 84618 88458==
41933,2024,08,13,03,00,AAXX 13034 41933 42456 60000 10290 20260 30050 40058 83510 333 20263 59001 83616 86459==
41933,2024,08,13,06,00,AAXX 13064 41933 42456 50000 10320 20270 30042 40051 82530 333 59001 82616 85362==
41933,2024,08,13,09,00,AAXX 13094 41933 42456 60000 10315 20280 30016 40025 83410 333 59013 82616 83826 86459==
41933,2024,08,13,12,00,AAXX 13124 41933 02456 70000 10319 20260 30016 40024 84510 333 10344 59011 70000 84616 87458==
41933,2024,08,13,15,00,AAXX 13154 41933 02456 50000 10300 20270 30046 40054 83530 333 58006 70000 83618 85362==
41933,2024,08,13,18,00,AAXX 13184 41933 02456 60000 10290 20280 30045 40054 83520 333 59009 70000 83618 86458==
41933,2024,08,13,21,00,AAXX 13214 41933 02450 60000 10280 20260 30039 40048 83520 333 59009 70000 83618 86458==
41933,2024,08,14,00,00,AAXX 14004 41933 02450 60000 10275 20260 30035 40044 83520 333 59009 70000 83618 86458==
41933,2024,08,14,03,00,AAXX 14034 41933 02456 41702 10302 20260 30052 40061 82520 333 20274 58002 70000 82618 84458==
41933,2024,08,14,06,00,AAXX 14064 41933 02456 41702 10322 20260 30041 40050 82520 333 59001 70000 82618 84458==
41933,2024,08,14,09,00,AAXX 14094 41933 02456 32202 10338 20270 30015 40023 83500 333 59001 70000 83618==
41933,2024,08,14,12,00,AAXX 14124 41933 02456 22302 10316 20260 30006 40014 82500 333 10344 59010 70000 82618==
41933,2024,08,14,15,00,AAXX 14154 41933 02456 61802 10295 20270 30040 40048 83510 333 59006 70000 83618 86459==
41933,2024,08,14,18,00,AAXX 14184 41933 21450 60000 10282 20270 30041 40049 70262 83510 333 59004 69925 70002 83616 86459==
41933,2024,08,14,21,00,AAXX 14214 41933 02450 70000 10270 20260 30031 40040 84520 333 59002 70002 84616 87458==
41933,2024,08,15,00,00,AAXX 15004 41933 02450 70000 10270 20260 30030 40039 84510 333 59005 70002 84618 87459==
41933,2024,08,15,03,00,AAXX 15034 41933 02450 60000 10300 20260 30043 40052 83520 333 10270 59009 70002 83618 86458==
41933,2024,08,15,06,00,AAXX 15064 41933 02450 51802 10320 20260 30025 40033 82530 333 59016 70002 82618 85362==
41933,2024,08,15,09,00,AAXX 15094 41933 02450 41702 10330 20250 30005 40013 84400 333 59010 70002 83618==
41933,2024,08,15,12,00,AAXX 15124 41933 02450 41802 10315 20260 39997 40006 84400 333 10335 59009 70002 83618==
41933,2024,08,15,15,00,AAXX 15154 41933 02430 21302 10290 20260 30040 40048 82500 333 58000 70002 82618==
41933,2024,08,15,18,00,AAXX 15184 41933 02430 31302 10278 20260 30026 40034 83500 333 59015 70000 83618==
41933,2024,08,15,21,00,AAXX 15214 41933 02430 31302 10270 20250 30024 40032 82530 333 59007 70000 82618 83362==
41936,2024,08,09,00,00,AAXX 09004 41936 01420 61403 10276 20260 30035 40042 70522 83730 333 58013 70010 84708 83615 86362==
41936,2024,08,09,03,00,AAXX 09034 41936 01420 52406 10304 20270 30052 40059 70562 84630 333 20272 58020 70010 82710 83615 85362==
41936,2024,08,09,06,00,AAXX 09064 41936 01330 72306 10304 20270 30048 40055 70562 85630 333 58000 70010 83708 83615 86362==
41936,2024,08,09,09,00,AAXX 09094 41936 01430 51804 10332 20270 30026 40033 70562 83730 333 58006 70010 82710 84615==
41936,2024,08,09,12,00,AAXX 09124 41936 01440 51806 10304 20260 30028 40035 70522 83730 333 10334 58006 70010 82710 84615==
41936,2024,08,09,15,00,AAXX 09154 41936 01430 61803 10292 20270 30042 40049 70522 85630 333 58000 70010 83710 83615 86362==
41936,2024,08,09,18,00,AAXX 09184 41936 01430 61803 10286 20280 30043 40050 70522 84630 333 59003 70010 82710 83615 86362==
41936,2024,08,09,21,00,AAXX 09214 41936 01425 61703 10282 20260 30032 40039 70522 84630 333 58000 70010 82710 83615 86362==
41936,2024,08,10,00,00,AAXX 10004 41936 01420 51803 10278 20270 30031 40038 70522 83630 333 59004 70010 81710 83615 85362==
41936,2024,08,10,03,00,AAXX 10034 41936 01420 51706 10302 20270 30042 40049 70522 83630 333 20274 59010 70010 81710 83615 85362==
41936,2024,08,10,06,00,AAXX 10064 41936 01420 52005 10310 20280 30040 40047 59008 70270 85362 333 70270==
41936,2024,08,10,09,00,AAXX 10094 41936 01430 51603 10314 20270 30020 40027 70522 83630 333 59006 70270 81710 83615 85362==
41936,2024,08,10,12,00,AAXX 10124 41936 01430 31906 10290 20270 30012 40019 70522 83630 333 10316 59016 70270 82615 83362==
41936,2024,08,10,15,00,AAXX 10154 41936 01440 51803 10286 20270 30030 40037 70522 83730 333 58012 70270 81710 83615==
41936,2024,08,10,18,00,AAXX 10184 41936 01430 61803 10282 20260 30030 40037 70522 84730 333 59013 70270 82710 83615==
41936,2024,08,10,21,00,AAXX 10214 41936 01330 61904 10280 20260 30016 40023 70522 84730 333 59016 70270 82708 83615 85362==
41936,2024,08,11,00,00,AAXX 11004 41936 01316 71903 10276 20270 30012 40019 71796 85930 333 59019 70010 83708 83615 86362 81930==
41936,2024,08,11,03,00,AAXX 11034 41936 01312 72003 10266 20260 30036 40043 79196 85930 333 59006 70460 84707 83615 87360==
41936,2024,08,11,06,00,AAXX 11064 41936 01330 62204 10320 20270 30028 40035 70522 85930 333 59012 70460 83708 83615 86362==
41936,2024,08,11,09,00,AAXX 11094 41936 01330 61904 10310 20280 30016 40023 70562 85930 333 59004 70190 83708 83615 86362==
41936,2024,08,11,12,00,AAXX 11124 41936 11325 62004 10300 20270 30004 40011 60001 70562 85930 333 10322 59008 70190 83708 83615 86362==
41936,2024,08,11,15,00,AAXX 11154 41936 01325 31603 10284 20260 30018 40025 70522 85930 333 59012 70190 82615 83362==
41936,2024,08,11,18,00,AAXX 11184 41936 01325 31703 10284 20260 30032 40039 70522 85930 333 58002 70190 82615 83362==
41936,2024,08,11,21,00,AAXX 11214 41936 01325 31903 10284 20260 30022 40029 70522 85930 333 58006 70190 82615 83362==
41936,2024,08,12,00,00,AAXX 12004 41936 01314 31903 10280 20270 30024 40031 70522 85930 333 58012 70180 82615 83362==
41936,2024,08,12,03,00,AAXX 12034 41936 41316 62604 10310 20280 30034 40041 70522 84730 333 20276 59002 82708 83615 85362==
41936,2024,08,12,06,00,AAXX 12064 41936 42325 62006 10336 20280 30030 40037 333 58002 84730 82708 83615 85362==
41936,2024,08,12,09,00,AAXX 12094 41936 41430 72903 10324 20280 30009 40016 70522 85630 333 59007 83710 83615 86362==
41936,2024,08,12,12,00,AAXX 12124 41936 11430 62703 10304 20280 30007 40014 60001 72162 83630 333 10352 58003 81710 83615 85362==
41936,2024,08,12,15,00,AAXX 12154 41936 41330 61604 10294 20280 30026 40033 70522 84730 333 58008 82708 83615 85362==
41936,2024,08,12,18,00,AAXX 12184 41936 41330 61803 10290 20280 30026 40033 70522 84730 333 59006 82708 83615 85362==
41936,2024,08,12,21,00,AAXX 12214 41936 41325 61703 10280 20260 30021 40028 70522 84730 333 59001 82708 83615 85362==
41936,2024,08,13,00,00,AAXX 13004 41936 41318 31803 10280 20270 30029 40037 70522 85930 333 58006 82615 83362==
41936,2024,08,13,03,00,AAXX 13034 41936 41425 51604 10314 20280 30041 40048 70522 83630 333 20277 58007 81710 83615 85362==
41936,2024,08,13,06,00,AAXX 13064 41936 41435 50903 10350 20270 30032 40039 70522 83630 333 58002 81710 83615 85362==
41936,2024,08,13,09,00,AAXX 13094 41936 41430 70803 10330 20270 30008 40015 70522 84630 333 59001 83710 83615 86362==
41936,2024,08,13,12,00,AAXX 13124 41936 01430 41805 10290 20280 30010 40017 70596 82530 333 10352 58003 70540 82615==
41936,2024,08,13,15,00,AAXX 13154 41936 01430 40000 10270 20250 30036 40043 70522 82830 333 58010 70540 82615 83362==
41936,2024,08,13,18,00,AAXX 13184 41936 01420 40000 10268 20260 30043 40051 70522 82830 333 58018 70540 82615 83362==
41936,2024,08,13,21,00,AAXX 13214 41936 01420 50000 10272 20260 30030 40037 70522 83830 333 58009 70540 83615 84362==
41936,2024,08,14,00,00,AAXX 14004 41936 01412 50000 10270 20260 30026 40033 70522 83630 333 59004 70540 81710 83615==
41936,2024,08,14,03,00,AAXX 14034 41936 01415 51904 10294 20280 30040 40047 70522 83630 333 20264 59001 70540 81710 83615==
41936,2024,08,14,06,00,AAXX 14064 41936 01435 51604 10342 20292 30036 40043 70522 83630 333 58004 70540 81710 83615==
41936,2024,08,14,09,00,AAXX 14094 41936 01440 71810 10320 20260 30012 40019 72122 84630 333 58004 70540 83710 83615 86362==
41936,2024,08,14,12,00,AAXX 14124 41936 11440 42904 10352 20280 30002 40009 59006 60002 79999 83362==
41936,2024,08,14,15,00,AAXX 14154 41936 41440 41603 10292 20270 30027 40034 70522 81530 333 59009 81615 83362==
41936,2024,08,14,18,00,AAXX 14184 41936 41440 60000 10286 20270 30032 40039 70522 83630 333 59012 82710 83615 85362==
41936,2024,08,14,21,00,AAXX 14214 41936 41440 50000 10280 20260 30018 40025 70522 83630 333 59012 81710 83615==
41936,2024,08,15,00,00,AAXX 15004 41936 41418 50000 10278 20270 30018 40025 70522 83630 333 59008 81710 83362==
41936,2024,08,15,03,00,AAXX 15034 41936 41420 41936 10310 20280 30026 40033 70522 83630 333 59014 81710 83362==
41936,2024,08,15,06,00,AAXX 15064 41936 41430 41408 10320 20270 30020 40027 70522 83630 333 59016 81710 83362==
41936,2024,08,15,09,00,AAXX 15094 41936 01435 41706 10348 20270 39997 40003 70522 83630 333 59016 70000 81710 83362==
41936,2024,08,15,12,00,AAXX 15124 41936 01435 41806 10320 20290 39998 40005 70522 83630 333 10350 59004 70000 81710 83362==
41936,2024,08,15,15,00,AAXX 15154 41936 01420 41803 10304 20280 30018 40025 70522 83630 333 59009 70000 81710 83362==
41936,2024,08,15,18,00,AAXX 15184 41936 41430 41803 10286 20270 30026 40033 70522 83630 333 59006 81710 83362==
41936,2024,08,15,21,00,AAXX 15214 41936 41420 41800 10260 30006 40013 70522 83630 333 59012 82615 83362==
41938,2024,08,09,00,00,AAXX 09004 41938 32456 81802 10270 20260 30045 40049 8552/ 333 56499 58018 70257 85617 88459=
41938,2024,08,09,06,00,AAXX 09064 41938 11456 81503 10277 20260 30056 40060 60029 70166 8341/ 333 56399 58010 70147 82617 88460=
41938,2024,08,09,12,00,AAXX 09124 41938 11456 40000 10300 20260 39973 49977 60063 84400 333 10335 56400 58013 70068 83618=
41938,2024,08,09,18,00,AAXX 09184 41938 32450 30000 10275 20270 30043 40047 83500 333 56900 59005 70022 83618=
41938,2024,08,10,00,00,AAXX 10004 41938 32450 30000 10270 20260 30043 40047 83500 333 56900 59007 70022 83618=
41938,2024,08,10,06,00,AAXX 10064 41938 32456 50000 10322 20260 30041 40045 84410 333 56490 59015 70000 82618 84459=
41938,2024,08,10,12,00,AAXX 10124 41938 11456 82002 10290 20260 30022 40026 60116 70362 8432/ 333 10321 56499 59011 70112 83616 81926 88458=
41938,2024,08,10,18,00,AAXX 10184 41938 32456 51801 10280 20270 30035 40039 82510 333 56490 59008 70112 82617 84460=
41938,2024,08,11,00,00,AAXX 11004 41938 32456 82002 10280 20260 30028 40031 8432/ 333 56499 59017 70112 83616 81927 88458=
41938,2024,08,11,06,00,AAXX 11064 41938 11456 52002 10295 20280 30034 40038 69944 72121 82510 333 56490 58007 70116 82616 84460=
41938,2024,08,11,12,00,AAXX 11124 41938 32456 52201 10287 20270 30017 40021 81510 333 10310 56590 59005 70004 81618 85460=
41938,2024,08,11,18,00,AAXX 11184 41938 32456 21802 10275 20270 30036 40040 82010 333 56090 58001 70004 82460=
41938,2024,08,12,00,00,AAXX 12004 41938 32456 62201 10280 20270 30030 40034 83510 333 56590 58002 70004 83616 84460=
41938,2024,08,12,06,00,AAXX 12064 41938 11456 62001 10306 20280 30037 40041 69956 76022 83510 333 56490 58003 70005 70005 83616 84460=
41938,2024,08,12,12,00,AAXX 12124 41938 11950 70000 10272 20260 30021 40025 60103 76162 85012 333 10328 56099 58004 70106 85459 85078=
41938,2024,08,12,18,00,AAXX 12184 41938 32950 50000 10272 20260 30036 40040 83011 333 56099 58000 70106 83460 83080=
41938,2024,08,13,00,00,AAXX 13004 41938 31440 80000 10276 20270 30036 40040 70522 8352/ 333 56499 58006 70106 83617 88459=
41938,2024,08,13,06,00,AAXX 13064 41938 32456 70000 10327 20280 30039 40043 83410 333 56390 58002 70101 81618 83825 85460=
41938,2024,08,13,12,00,AAXX 13124 41938 11456 40000 10290 20260 30029 40033 60214 70262 84400 333 10330 56400 58008 70210 83618=
41938,2024,08,13,18,00,AAXX 13184 41938 32450 30000 10274 20260 30041 40045 83500 333 56900 58005 70210 83618=
41938,2024,08,14,00,00,AAXX 14004 41938 32450 30000 10270 20250 30023 40027 83500 333 56900 59013 70210 83618=
41938,2024,08,14,06,00,AAXX 14064 41938 32456 41802 10316 20260 30035 40039 84430 333 56490 59004 70210 83618=
41938,2024,08,14,12,00,AAXX 14124 41938 32556 61303 10299 20270 30011 40015 81172 333 10335 56999 59018 70000 81824 83362 83080=
41938,2024,08,14,18,00,AAXX 14184 41938 11456 71801 10280 20270 30036 40040 69957 70162 82510 333 56490 59005 70005 82617 87460=
41938,2024,08,15,00,00,AAXX 15004 41938 11450 71802 10276 20270 30028 40032 69934 72122 84510 333 56490 59005 70008 84616 87460=
41938,2024,08,15,06,00,AAXX 15064 41938 11350 71304 10310 20270 30026 40030 69904 76122 85770 333 56390 59009 70008 81710 84616 85460=
41938,2024,08,15,12,00,AAXX 15124 41938 32556 51801 10305 20270 30003 40007 82132 333 10334 56999 59008 70008 82824 85080=
41938,2024,08,15,18,00,AAXX 15184 41938 32956 20000 10275 20260 30027 40031 81011 333 56099 59009 70003 81460=
41939,2024,08,09,00,00,AAXX 09004 41939 02456 50000 10273 20260 30060 40068 83530 333 58020 70041 83617 83364==
41939,2024,08,09,03,00,AAXX 09034 41939 02458 80000 10278 20260 30076 40084 8352/ 333 20260 58015 70007 83617 88458==
41939,2024,08,09,06,00,AAXX 09064 41939 21458 60000 10285 20280 30087 40095 70162 83510 333 58012 60027 70029 83618 85459==
41939,2024,08,09,09,00,AAXX 09094 41939 02458 60000 10318 20260 30040 40048 83530 333 58001 70029 83618 83365==
41939,2024,08,09,12,00,AAXX 09124 41939 02457 60000 10293 20250 30038 40046 83530 333 10320 58000 70022 83617 83363==
41939,2024,08,09,15,00,AAXX 09154 41939 02456 20000 10277 20260 30060 40068 81530 333 58008 70022 81618==
41939,2024,08,09,18,00,AAXX 09184 41939 02456 30000 10270 20250 30072 40080 82530 333 58007 70022 82618==
41939,2024,08,09,21,00,AAXX 09214 41939 02940 00000 10272 20260 30060 40068 333 58003 70022==
41939,2024,08,10,00,00,AAXX 10004 41939 02457 50000 10274 20260 30048 40056 82530 333 59012 70022 82618 83365==
41939,2024,08,10,03,00,AAXX 10034 41939 02458 60000 10292 20260 30064 40072 83510 333 20263 59012 70022 83618 85459==
41939,2024,08,10,06,00,AAXX 10064 41939 02458 60000 10305 20270 30047 40055 82510 333 59040 70000 82617 86459==
41939,2024,08,10,09,00,AAXX 10094 41939 02458 60000 10312 20270 30032 40040 83510 333 59019 70000 83618 86459==
41939,2024,08,10,12,00,AAXX 10124 41939 02458 60000 10295 20260 30026 40034 83510 333 10320 59012 70000 83617 86459==
41939,2024,08,10,15,00,AAXX 10154 41939 02456 60000 10285 20260 30050 40058 83530 333 59010 70000 83618 83364==
41939,2024,08,10,18,00,AAXX 10184 41939 02456 60000 10276 20260 30063 40071 83530 333 59009 70000 83618 83365==
41939,2024,08,10,21,00,AAXX 10214 41939 02456 60000 10275 20270 30040 40048 82510 333 59020 70000 82618 85460==
41939,2024,08,11,00,00,AAXX 11004 41939 02456 60000 10275 30031 40039 82510 333 59017 70000 82618 85460==
41939,2024,08,11,03,00,AAXX 11034 41939 02458 40000 10303 20270 30047 40055 82530 333 20270 59017 70000 82618 83363==
41939,2024,08,11,06,00,AAXX 11064 41939 02457 70000 10304 20260 30025 40033 83510 333 59022 70000 83617 87458==
41939,2024,08,11,09,00,AAXX 11094 41939 02456 70000 10295 20280 30028 40036 83510 333 59004 70000 83616 87459==
41939,2024,08,11,12,00,AAXX 11124 41939 02456 80000 10292 20260 30018 40026 8352/ 333 10335 59008 70000 83617 88459==
41939,2024,08,11,15,00,AAXX 11154 41939 02440 30000 10285 20270 30029 40037 81530 333 59021 70000 81618==
41939,2024,08,11,18,00,AAXX 11184 41939 02440 50000 10280 20260 30040 40048 82510 333 59023 70000 82618 85459==
41939,2024,08,11,21,00,AAXX 11214 41939 02456 40000 10278 20270 30048 40056 82530 333 58012 70000 82618 83365==
41939,2024,08,12,00,00,AAXX 12004 41939 02456 50000 10282 20270 30040 40048 83530 333 58017 70000 83617 83365==
41939,2024,08,12,03,00,AAXX 12034 41939 02458 50000 10292 20270 30051 40059 83530 333 20270 58004 70000 83618 83365==
41939,2024,08,12,06,00,AAXX 12064 41939 02458 40000 10332 20270 30035 40043 82530 333 58010 70000 82618 83362==
41939,2024,08,12,09,00,AAXX 12094 41939 01456 70000 10280 20260 30024 40031 76162 83510 333 59004 70368 83616 87459==
41939,2024,08,12,12,00,AAXX 12124 41939 21456 60000 10280 20270 30023 40031 70162 83510 333 10345 58005 60378 70368 83617 86459==
41939,2024,08,12,15,00,AAXX 12154 41939 02450 80000 10275 20270 30041 40049 8352/ 333 58012 70368 83617 88459==
41939,2024,08,12,18,00,AAXX 12184 41939 02450 80000 10270 20260 30050 40058 8352/ 333 58010 70368 83617 88459==
41939,2024,08,12,21,00,AAXX 12214 41939 02440 60000 10276 20270 30046 40054 83510 333 59002 70368 83618 85459==
41939,2024,08,13,00,00,AAXX 13004 41939 02457 70000 10280 20270 30042 40050 83510 333 58002 70368 83618 87459==
41939,2024,08,13,03,00,AAXX 13034 41939 02458 50000 10292 20280 30060 40068 83510 333 20263 58009 70368 83618 85459==
41939,2024,08,13,06,00,AAXX 13064 41939 01456 60000 10305 20280 30045 40053 72122 83510 333 58010 70050 83617 86459==
41939,2024,08,13,09,00,AAXX 13094 41939 02459 20000 10325 20280 30022 40030 81530 333 59002 70048 81618==
41939,2024,08,13,12,00,AAXX 13124 41939 02457 40000 10310 20260 30023 40031 82530 333 10350 58000 70048 82618 83364==
41939,2024,08,13,15,00,AAXX 13154 41939 02456 40000 10285 20280 30040 40048 82530 333 59001 70048 82618 83365==
41939,2024,08,13,18,00,AAXX 13184 41939 NIL=
41939,2024,08,13,21,00,AAXX 13214 41939 02556 40000 10278 30048 40056 82530 333 58002 70048 82618 83365==
41939,2024,08,14,00,00,AAXX 14004 41939 02469 30000 10276 20570 30042 40050 82530 333 58000 70048 82618==
41939,2024,08,14,03,00,AAXX 14034 41939 02458 50000 10303 20260 30053 40061 83510 333 20263 59007 70048 83618 85459==
41939,2024,08,14,06,00,AAXX 14064 41939 02459 30000 10330 20270 30036 40044 81530 333 59009 70000 81618 83362==
41939,2024,08,14,09,00,AAXX 14094 41939 02460 20000 10332 20260 30014 40022 81530 333 59008 70000 81618==
41939,2024,08,14,12,00,AAXX 14124 41939 02956 00000 10315 20260 30017 40025 333 10340 59011 70000==
41939,2024,08,14,15,00,AAXX 14154 41939 02940 00000 10298 20270 30034 40042 333 59006 70000==
41939,2024,08,14,18,00,AAXX 14184 41939 02440 80000 10285 20270 30050 40058 8352/ 333 59002 70000 83618 88459==
41939,2024,08,14,21,00,AAXX 14214 41939 02456 40000 10280 20270 30043 40051 82530 333 59005 70048 82618 83365==
41939,2024,08,15,00,00,AAXX 15004 41939 02456 40000 10277 20270 30045 40053 82530 333 58003 70048 82618 83365==
41939,2024,08,15,03,00,AAXX 15034 41939 02458 50000 10305 20270 30043 40051 83530 333 20273 59010 70000 83617 83365==
41939,2024,08,15,06,00,AAXX 15064 41939 02458 50000 10325 20270 30027 40035 82530 333 59009 70000 82618 83362==
41939,2024,08,15,09,00,AAXX 15094 41939 02459 40000 10325 20260 30006 40014 82530 333 59008 70000 82618 83362==
41939,2024,08,15,12,00,AAXX 15124 41939 02457 20000 10305 20280 30004 40012 81530 333 10330 59013 70000 81618==
41939,2024,08,15,15,00,AAXX 15154 41939 02456 30000 10287 20270 30032 40040 81530 333 59002 70000 81618 83365==
41939,2024,08,15,18,00,AAXX 15184 41939 02456 30000 10280 20260 30046 40054 81530 333 59004 70000 81618 83365==
41939,2024,08,15,21,00,AAXX 15214 41939 02440 80000 10275 20260 30035 40043 8352/ 333 59008 70000 83618 88459==
41941,2024,08,09,00,00,AAXX 09004 41941 21450 81803 10260 20260 30054 40060 76166 8692/ 333 58012 60199 70260 85612 88456 81924==
41941,2024,08,09,03,00,AAXX 09034 41941 01450 81803 10270 20270 30076 40082 76166 8692/ 333 20258 58013 70320 85612 88456 81924==
41941,2024,08,09,06,00,AAXX 09064 41941 21456 51802 10304 20260 30065 40071 70162 83510 333 58009 60159 70390 83614 84458==
41941,2024,08,09,09,00,AAXX 09094 41941 02457 41802 10315 20260 30038 40043 83410 333 59002 70390 82614 83458==
41941,2024,08,09,12,00,AAXX 09124 41941 02456 51802 10293 20260 30036 40041 83520 333 10324 58004 70360 83614 85458==
41941,2024,08,09,15,00,AAXX 09154 41941 01450 51802 10275 20270 30056 40062 70262 83520 333 58008 70364 83614 85458==
41941,2024,08,09,18,00,AAXX 09184 41941 11450 41802 10276 20270 30059 40065 69946 70162 82520 333 59002 70344 82616 83458==
41941,2024,08,09,21,00,AAXX 09214 41941 02350 71802 10272 20260 30048 40054 86620 333 58000 70244 83708 84612 87458==
41941,2024,08,10,00,00,AAXX 10004 41941 01350 81802 10265 20265 30046 40052 76362 8672/ 333 59008 70100 83708 84612 88456==
41941,2024,08,10,03,00,AAXX 10034 41941 01310 81802 10276 20270 30057 40063 76166 8672/ 333 20263 59019 70232 83707 84612 88458==
41941,2024,08,10,06,00,AAXX 10064 41941 21340 80000 10275 20270 30050 40055 76366 8672/ 333 59015 60189 70292 83708 84612 88456==
41941,2024,08,10,09,00,AAXX 10094 41941 01350 81802 10306 20260 30030 40036 70262 8662/ 333 59008 70297 83708 84614 88457==
41941,2024,08,10,12,00,AAXX 10124 41941 11350 81802 10292 20260 30034 40040 69956 70262 8662/ 333 10314 59002 70297 83708 84614 88457==
41941,2024,08,10,15,00,AAXX 10154 41941 02350 80000 10285 20270 30050 40056 8662/ 333 59006 70293 83708 84615 88457==
41941,2024,08,10,21,00,AAXX 10214 41941 02350 81802 10280 20260 30040 40046 8662/ 333 59008 70293 83708 84615 88457==
41941,2024,08,11,00,00,AAXX 11004 41941 02350 81802 10275 20270 30034 40040 8662/ 333 59012 70189 83708 84615 88457==
41941,2024,08,11,03,00,AAXX 11034 41941 02456 71802 10290 20270 30048 40054 84520 333 20270 59009 70135 84616 87458==
41941,2024,08,11,06,00,AAXX 11064 41941 02456 71803 10310 20270 30038 40043 85420 333 59012 70005 84616 87458==
41941,2024,08,11,09,00,AAXX 11094 41941 02456 71802 10290 20280 30024 40030 85420 333 59006 70000 84616 87458==
41941,2024,08,11,12,00,AAXX 11124 41941 02456 71802 10290 20270 30020 40025 85420 333 10325 59014 70000 84616 87458==
41941,2024,08,11,15,00,AAXX 11154 41941 02440 71802 10288 20270 30032 40037 85420 333 59018 70000 84616 87458==
41941,2024,08,11,18,00,AAXX 11184 41941 02440 71802 10280 20270 30042 40047 85420 333 59012 70000 84616 87458==
41941,2024,08,11,21,00,AAXX 11214 41941 02440 71802 10274 20260 30028 40034 85420 333 59012 70000 84616 87458==
41941,2024,08,12,00,00,AAXX 12004 41941 02450 71803 10275 20270 30032 40037 85420 333 59002 70000 84616 87458==
41941,2024,08,12,03,00,AAXX 12034 41941 02456 71802 10300 20280 30045 40050 85420 333 20273 59003 70000 84616 87458==
41941,2024,08,12,06,00,AAXX 12064 41941 02456 61803 10331 20270 30041 40046 85420 333 58003 70000 84616 86458==
41941,2024,08,12,09,00,AAXX 12094 41941 02450 81803 10312 20260 30027 40032 8632/ 333 58003 70000 85616 88458 81930==
41941,2024,08,12,12,00,AAXX 12124 41941 11450 80000 10290 20270 30023 40028 60026 70262 8632/ 333 10341 58003 70020 85616 88458 81930==
41941,2024,08,12,15,00,AAXX 12154 41941 02440 80000 10286 20280 30042 40047 8632/ 333 58010 70020 85616 88458 81930==
41941,2024,08,12,18,00,AAXX 12184 41941 02440 80000 10280 20270 30052 40057 8632/ 333 58010 70020 85616 88458 81930==
41941,2024,08,12,21,00,AAXX 12214 41941 02440 81803 10276 20276 30047 40053 8632/ 333 58019 70020 85616 88458 81930==
41941,2024,08,13,00,00,AAXX 13004 41941 02450 61802 10272 20260 30042 40048 85420 333 58010 70020 84616 86458==
41941,2024,08,13,03,00,AAXX 13034 41941 02450 81502 10310 20270 30054 40060 8632/ 333 20270 58009 70020 85616 88458 81930==
41941,2024,08,13,06,00,AAXX 13064 41941 02456 61802 10332 20270 30043 40048 85420 333 58002 70020 83614 83825 86458==
41941,2024,08,13,09,00,AAXX 13094 41941 02457 41802 10320 20270 30021 40026 84800 333 59006 70020 82616 83828==
41941,2024,08,13,12,00,AAXX 13124 41941 02457 42102 10312 20260 30019 40024 84800 333 10340 59004 70020 82616 83828==
41941,2024,08,13,15,00,AAXX 13154 41941 02457 30000 10295 20280 30045 40050 82530 333 58003 70000 82616 83362==
41941,2024,08,13,18,00,AAXX 13184 41941 02456 40000 10283 20270 30048 40053 333 59004 70000 83616 84362==
41941,2024,08,13,21,00,AAXX 13214 41941 02456 40000 10276 20270 30036 40042 82530 333 59011 70000 82616 83362==
41941,2024,08,14,00,00,AAXX 14004 41941 02456 40000 10278 20270 30038 40044 81530 333 59004 70000 81618 84362==
41941,2024,08,14,03,00,AAXX 14034 41941 02456 50000 10305 20280 30048 40053 83530 333 20276 59006 70000 83616 84362==
41941,2024,08,14,06,00,AAXX 14064 41941 02456 51802 10326 20260 30044 40049 83530 333 58001 70000 83616 84362==
41941,2024,08,14,09,00,AAXX 14094 41941 02457 41802 10336 20270 30027 40032 82530 333 58006 70000 82616 84362==
41941,2024,08,14,12,00,AAXX 14124 41941 02456 41802 10318 20270 30015 40020 82530 333 10345 59004 70000 82616 84362==
41941,2024,08,14,15,00,AAXX 14154 41941 02950 00000 10296 20270 30041 40046 333 59004 70000==
41941,2024,08,14,21,00,AAXX 14214 41941 02450 41802 10280 20270 30033 40038 83530 333 59003 70000 83616 84362==
41941,2024,08,15,00,00,AAXX 15004 41941 02450 41802 10276 20270 30036 40041 83530 333 59002 70000 83616 84362==
41941,2024,08,15,03,00,AAXX 15034 41941 02456 61802 10306 20270 30045 40050 84530 333 20270 59003 70000 84616 86362==
41941,2024,08,15,06,00,AAXX 15064 41941 02456 61803 10340 20260 30027 40033 85420 333 59017 70000 84616 86458==
41941,2024,08,15,09,00,AAXX 15094 41941 02456 61803 10335 20280 30011 40017 85420 333 59016 70000 84616 86458==
41941,2024,08,15,12,00,AAXX 15124 41941 02456 61802 10320 20260 30007 40013 85420 333 10350 59008 70000 84616 86458==
41941,2024,08,15,15,00,AAXX 15154 41941 02440 71802 10314 20260 30024 40030 85420 333 59017 70000 84616 87458==
41941,2024,08,15,18,00,AAXX 15184 41941 02440 71802 10294 20270 30032 40038 85420 333 59012 70000 84616 87457==
41941,2024,08,15,21,00,AAXX 15214 41941 02440 71802 10280 20270 30024 40030 85420 333 59009 70000 84616 87458==
41943,2024,08,09,00,00,AAXX 09004 41943 02430 81602 10260 20250 30063 40070 8762/ 333 58017 70200 84709 84615 88458==
41943,2024,08,09,03,00,AAXX 09034 41943 01330 81802 10260 20260 30081 40088 76366 8772/ 333 20252 58013 70430 84708 84613 88456==
41943,2024,08,09,06,00,AAXX 09064 41943 21330 81803 10264 20250 30078 40085 76166 8772/ 333 58010 60309 70380 84709 84613 88456==
41943,2024,08,09,09,00,AAXX 09094 41943 01330 81802 10264 20250 30055 40062 76166 8772/ 333 58012 70450 84709 84614 88457==
41943,2024,08,09,12,00,AAXX 09124 41943 21435 71802 10270 20250 30042 40049 70162 84520 333 10270 59003 60179 70470 84616 86458==
41943,2024,08,09,15,00,AAXX 09154 41943 02430 61802 10267 20250 30063 40070 83520 333 59005 70470 83616 85458==
41943,2024,08,09,18,00,AAXX 09184 41943 42430 60000 10256 20260 30069 40076 83520==
41943,2024,08,09,21,00,AAXX 09214 41943 02430 70000 10260 20250 30062 40069 84520 333 59002 70470 83616 86458==
41943,2024,08,10,00,00,AAXX 10004 41943 01330 80000 10256 20250 30055 40063 76162 8772/ 333 59008 70030 84709 83614 88456==
41943,2024,08,10,03,00,AAXX 10034 41943 01330 81803 10264 20250 30064 40071 76162 8772/ 333 20255 59017 70400 84709 84613 88456==
41943,2024,08,10,06,00,AAXX 10064 41943 21330 81802 10270 20250 30061 40068 70262 8662/ 333 59007 60169 70360 84710 83614 88458==
41943,2024,08,10,09,00,AAXX 10094 41943 02330 81803 10276 20260 30040 40047 8662/ 333 59015 70210 84710 83614 88458==
41943,2024,08,10,12,00,AAXX 10124 41943 21335 81802 10264 20240 30034 40041 70262 8662/ 333 10280 59008 60055 70240 83710 83614 88458==
41943,2024,08,10,15,00,AAXX 10154 41943 01330 81802 10257 20250 30050 40057 76162 8772/ 333 59013 70270 84709 84613 88457==
41943,2024,08,10,18,00,AAXX 10184 41943 21330 81802 10256 20250 30053 40060 70262 8662/ 333 59016 60055 70290 84710 84614 88458==
41943,2024,08,10,21,00,AAXX 10214 41943 01330 81802 10256 20250 30042 40049 76262 8772/ 333 59020 70400 84609 83614 88458==
41943,2024,08,11,00,00,AAXX 11004 41943 21330 80000 10256 20256 30034 40041 76162 8772/ 333 59024 60259 70510 84709 83614 88456==
41943,2024,08,11,03,00,AAXX 11034 41943 01335 81802 10280 20260 30050 40057 70262 8662/ 333 20254 59014 70410 84710 83614 88458==
41943,2024,08,11,06,00,AAXX 11064 41943 01335 61802 10266 20260 30048 40055 76162 8772/ 333 59013 70420 84709 83613 88456==
41943,2024,08,11,09,00,AAXX 11094 41943 01335 81802 10265 20260 30029 40056 70262 8662/ 333 59011 70870 84709 83614 88458==
41943,2024,08,11,12,00,AAXX 11124 41943 11330 81802 10268 20260 30020 40027 60456 70262 8662/ 333 10295 59014 70820 84710 83614 88458==
41943,2024,08,11,15,00,AAXX 11154 41943 02330 81802 10266 20260 30038 40045 8662/ 333 59012 70790 84710 83616 88458==
41943,2024,08,11,21,00,AAXX 11214 41943 01330 80000 10258 20250 30042 40049 76162 8772/ 333 58000 70860 84709 84614 88456==
41943,2024,08,12,00,00,AAXX 12004 41943 01330 80000 10254 20240 30041 40048 76366 8772/ 333 58007 71220 84708 84613 88456==
41943,2024,08,12,03,00,AAXX 12034 41943 01330 80000 10265 20260 30053 40060 70262 8662/ 333 20250 58003 71380 84710 83614 88458==
41943,2024,08,12,06,00,AAXX 12064 41943 11440 71802 10302 20260 30048 40055 60306 70162 84520 333 58000 71450 84615 86458==
41943,2024,08,12,09,00,AAXX 12094 41943 02440 81802 10285 20270 30031 40038 8662/ 333 58002 71000 83710 84615 88458==
41943,2024,08,12,12,00,AAXX 12124 41943 02335 81802 10282 20260 30025 40032 8662/ 333 10302 58005 71000 83710 83614 88458==
41943,2024,08,12,15,00,AAXX 12154 41943 02330 81802 10270 20250 30045 40052 8662/ 333 58007 71000 83710 83614 88458==
41943,2024,08,12,18,00,AAXX 12184 41943 02330 81802 10267 20260 30050 40057 8662/ 333 58007 70960 83710 83614 88458==
41943,2024,08,12,21,00,AAXX 12214 41943 02330 80000 10264 20250 30047 40054 8662/ 333 58005 70800 83710 83614 88458==
41943,2024,08,13,00,00,AAXX 13004 41943 02430 80000 10260 20250 30045 40052 8662/ 333 58004 70300 83710 83614 88458==
41943,2024,08,13,03,00,AAXX 13034 41943 02435 71802 10295 20250 30055 40062 84520 333 20260 58002 70000 84615 86458==
41943,2024,08,13,06,00,AAXX 13064 41943 02435 71802 10295 20250 30055 40062 84520 333 20260 58002 70000 84615 86458==
41943,2024,08,13,09,00,AAXX 13094 41943 02450 61802 10335 20260 30022 40029 83520 333 59009 70000 83616 86458==
41943,2024,08,13,12,00,AAXX 13124 41943 02450 41902 10305 20270 30023 40030 82531 333 10345 59002 70000 82616==
41943,2024,08,13,15,00,AAXX 13154 41943 02440 41801 10285 20270 30049 40056 81510 333 58004 70000 81616 83458==
41943,2024,08,13,18,00,AAXX 13184 41943 02435 21901 10280 20260 30051 40058 81530 333 58001 70000 81616==
41943,2024,08,13,21,00,AAXX 13214 41943 02435 71801 10275 20270 30047 40054 84520 333 58000 70000 84616 85458==
41943,2024,08,14,00,00,AAXX 14004 41943 21435 61801 10270 20250 30042 40049 70162 84530 333 58004 60047 70040 84616 83362==
41943,2024,08,14,03,00,AAXX 14034 41943 02440 50000 10310 20250 30051 40058 83530 333 20270 59004 70040 83616 84362==
41943,2024,08,14,06,00,AAXX 14064 41943 02445 51901 10325 20260 30042 40049 84430 333 59015 70040 82616 83828==
41943,2024,08,14,09,00,AAXX 14094 41943 02450 51902 10338 20240 30019 40026 84430 333 59003 70040 82616 83828==
41943,2024,08,14,12,00,AAXX 14124 41943 02440 41802 10306 20260 30017 40024 83510 333 10345 59006 70040 83616==
41943,2024,08,14,15,00,AAXX 14154 41943 02435 51802 10285 20260 30048 40055 82520 333 59001 70040 82616 83458==
41943,2024,08,14,18,00,AAXX 14184 41943 02430 51802 10280 20260 30048 40055 82520 333 59003 70040 82616 83458==
41943,2024,08,14,21,00,AAXX 14214 41943 02435 61701 10270 20250 30042 40049 83520 333 59005 70040 83616 83458==
41943,2024,08,15,00,00,AAXX 15004 41943 02435 81302 10265 20260 30035 40042 8662/ 333 59007 70000 83710 84616 87458==
41943,2024,08,15,03,00,AAXX 15034 41943 02440 51802 10305 20260 30041 40048 83530 333 20265 59010 70000 83616 84362==
41943,2024,08,15,06,00,AAXX 15064 41943 02450 51702 10325 20260 30031 40038 84430 333 59011 70000 83616 83828==
41943,2024,08,15,09,00,AAXX 15094 41943 02450 51702 10330 20240 30008 40015 84430 333 59011 70000 83616 83828==
41943,2024,08,15,12,00,AAXX 15124 41943 02445 41801 10306 20250 30006 40013 83530 333 10346 59011 70000 83616==
41943,2024,08,15,15,00,AAXX 15154 41943 02440 51701 10280 20250 30038 40045 83520 333 59010 70000 83616 83458==
41943,2024,08,15,18,00,AAXX 15184 41943 02435 61801 10275 20260 30031 40038 83520 333 59017 70000 83616 84458==
41943,2024,08,15,21,00,AAXX 15214 41943 02435 51801 10270 20250 30022 40029 83530 333 59020 70000 83616 83362==
41944,2024,08,09,00,00,AAXX 09004 41944 NIL=
41944,2024,08,10,06,00,AAXX 10064 41944 NIL=
41944,2024,08,10,12,00,AAXX 10124 41944 NIL=
41944,2024,08,11,00,00,AAXX 11004 41944 NIL=
41944,2024,08,11,06,00,AAXX 11064 41944 NIL=
41944,2024,08,11,12,00,AAXX 11124 41944 NIL=
41944,2024,08,12,00,00,AAXX 12004 41944 NIL=
41944,2024,08,12,12,00,AAXX 12124 41944 NIL=
41944,2024,08,13,00,00,AAXX 13004 41944 NIL=
41944,2024,08,13,18,00,AAXX 13184 41944 NIL=
41944,2024,08,14,00,00,AAXX 14004 41944 NIL=
41944,2024,08,14,06,00,AAXX 14064 41944 NIL=
41944,2024,08,14,12,00,AAXX 14124 41944 NIL=
41944,2024,08,15,06,00,AAXX 15064 41944 NIL=
41944,2024,08,15,12,00,AAXX 15124 41944 NIL=
41944,2024,08,15,18,00,AAXX 15184 41944 NIL=
41946,2024,08,09,00,00,AAXX 09004 41946 02356 71401 10280 20270 30044 40049 85720 333 58007 70050 82710 83618 86459==
41946,2024,08,09,03,00,AAXX 09034 41946 02/56 80000 10290 20280 30066 40071 8802/ 333 20260 58009 70050 88460==
41946,2024,08,09,06,00,AAXX 09064 41946 02456 71703 10299 20270 30058 40063 84420 333 58006 70020 82618 83820 86459==
41946,2024,08,09,09,00,AAXX 09094 41946 01356 80903 10306 20280 30036 40041 79522 8492/ 333 58006 70020 83617 88459 81929==
41946,2024,08,09,12,00,AAXX 09124 41946 01350 81404 10287 20280 30033 40038 76096 8472/ 333 10310 58001 70028 81710 83617 88459==
41946,2024,08,09,15,00,AAXX 09154 41946 01456 21402 10283 20270 30056 40061 70162 82500 333 58006 70052 82618==
41946,2024,08,09,18,00,AAXX 09184 41946 11456 30000 10280 20270 30058 40063 60026 70362 83500 333 58002 70032 83618==
41946,2024,08,09,21,00,AAXX 09214 41946 02456 50000 10280 20270 30040 40045 83530 333 59007 70032 83618==
41946,2024,08,10,00,00,AAXX 10004 41946 02456 71003 10279 20270 30042 40047 82570 333 59002 70032 82618 85460==
41946,2024,08,10,03,00,AAXX 10034 41946 01356 80000 10280 20260 30058 40063 70362 8472/ 333 20275 59008 70034 81710 84617 88459==
41946,2024,08,10,06,00,AAXX 10064 41946 01456 61803 10320 20270 30043 40046 70162 84410 333 59012 70036 83618 86460==
41946,2024,08,10,09,00,AAXX 10094 41946 01356 80000 10284 20260 30026 40031 76122 8472/ 333 59010 70042 81710 84617 88459==
41946,2024,08,10,12,00,AAXX 10124 41946 21456 60000 10290 20270 30026 40031 70162 84410 333 10322 59007 69965 70034 83618 86460==
41946,2024,08,10,15,00,AAXX 10154 41946 02456 50000 10288 20280 30043 40048 82510 333 59013 70010 83618 86460==
41946,2024,08,10,18,00,AAXX 10184 41946 02456 50000 10290 20280 30041 40046 82510 333 59017 70010 82618 84460==
41946,2024,08,10,21,00,AAXX 10214 41946 02456 80000 10285 20280 30027 40032 8332/ 333 59013 70010 82618 88460 81928==
41946,2024,08,11,00,00,AAXX 11004 41946 21340 80000 10275 20280 30029 40034 79596 8592/ 333 59013 60257 70260 81710 83617 88459 81928==
41946,2024,08,11,03,00,AAXX 11034 41946 01450 81806 10290 20280 30048 40053 76166 8472/ 333 20260 59010 70298 81710 83617 88459==
41946,2024,08,11,06,00,AAXX 11064 41946 21456 81808 10290 20270 30042 40047 70296 8432/ 333 59004 60058 70306 83618 88459 81928==
41946,2024,08,11,09,00,AAXX 11094 41946 02456 71702 10304 20270 30025 40030 84420 333 59001 70300 83618 86459==
41946,2024,08,11,12,00,AAXX 11124 41946 02456 61703 10300 20280 30018 40023 84520 333 10308 59008 70300 84618 85459==
41946,2024,08,11,15,00,AAXX 11154 41946 02/56 30000 10290 20280 30031 40036 83030 333 59012 70300 83362==
41946,2024,08,11,18,00,AAXX 11184 41946 02456 30000 10287 20280 30042 40047 83400 333 58001 70300 82620==
41946,2024,08,11,21,00,AAXX 11214 41946 02556 50000 10287 20280 30036 40041 83520 333 58009 70300 83620 84459==
41946,2024,08,12,00,00,AAXX 12004 41946 02456 71903 10286 20280 30034 40039 85420 333 58005 70050 83618 83822 86459==
41946,2024,08,12,03,00,AAXX 12034 41946 02456 60000 10310 20270 30046 40051 85420 333 20280 59002 70040 84618 84460==
41946,2024,08,12,06,00,AAXX 12064 41946 02456 61809 10335 20270 30039 40043 85410 333 59003 70000 84618 84460==
41946,2024,08,12,09,00,AAXX 12094 41946 02456 70000 10317 20260 30024 40028 84320 333 59001 70000 83618 86459 81929==
41946,2024,08,12,12,00,AAXX 12124 41946 02456 81403 10300 20280 30017 40022 8452/ 333 10342 59001 70000 84618 88459==
41946,2024,08,12,15,00,AAXX 12154 41946 02456 80000 10298 20280 30038 40043 8351/ 333 58007 70000 83618 88460==
41946,2024,08,12,18,00,AAXX 12184 41946 02456 80000 10290 20270 30044 40049 8352/ 333 58002 70000 83618 88459==
41946,2024,08,12,21,00,AAXX 12214 41946 02456 80000 10289 20280 30038 40043 8252/ 333 58002 70000 82618 88459==
41946,2024,08,13,00,00,AAXX 13004 41946 02456 70000 10288 20280 30040 40045 84320 333 58006 70000 83618 87459 81929==
41946,2024,08,13,03,00,AAXX 13034 41946 02456 60000 10310 20290 30051 40056 84420 333 20282 58005 70000 83618 86460==
41946,2024,08,13,06,00,AAXX 13064 41946 01456 70000 10335 20290 30042 40047 70362 84420 333 58004 70000 83618 87460==
41946,2024,08,13,09,00,AAXX 13094 41946 42456 81809 10300 20280 30026 40031 8432/ 333 58002 83618 88459 81928==
41946,2024,08,13,12,00,AAXX 13124 41946 21456 80000 10275 20260 30021 40026 70292 8442/ 333 10340 58004 60527 70520 83618 88459==
41946,2024,08,13,15,00,AAXX 13154 41946 02456 50000 10278 20270 30051 40056 82520 333 58013 70520 82618 85460==
41946,2024,08,13,18,00,AAXX 13184 41946 02456 50000 10278 20270 30052 40057 82520 333 58008 70520 82618 85460==
41946,2024,08,13,21,00,AAXX 13214 41946 02456 50000 10280 20270 30040 40045 82520 333 58002 70520 82618 85460==
41946,2024,08,14,00,00,AAXX 14004 41946 02456 70000 10283 20280 30041 40046 82520 333 58001 70520 82618 85460==
41946,2024,08,14,03,00,AAXX 14034 41946 02456 61804 10310 20280 30053 40058 83410 333 20260 58002 70520 82618 86460==
41946,2024,08,14,06,00,AAXX 14064 41946 02456 51804 10320 20270 30040 40045 84401 333 59003 70520 83618==
41946,2024,08,14,09,00,AAXX 14094 41946 01450 70000 10329 20280 30018 40022 71722 84920 333 59008 70520 83618 87459 81928==
41946,2024,08,14,12,00,AAXX 14124 41946 21456 80000 10296 20280 30015 40020 70396 82502 333 10340 59006 60027 70016 82618 86080==
41946,2024,08,14,15,00,AAXX 14154 41946 02/56 20000 10289 20280 30042 40047 82030 333 59009 70016 82362==
41946,2024,08,14,18,00,AAXX 14184 41946 42956 10000 10286 20280 30042 40047 80001 333 59010 81080==
41946,2024,08,14,21,00,AAXX 14214 41946 02456 40000 10287 20280 30029 40034 83530 333 59011 70016 83618==
41946,2024,08,15,00,00,AAXX 15004 41946 02456 70000 10287 20280 30030 40035 83320 333 59011 70016 82618 86459 81929==
41946,2024,08,15,03,00,AAXX 15034 41946 02456 40000 10315 20280 30037 40042 84400 333 20282 59016 70016 83618==
41946,2024,08,15,06,00,AAXX 15064 41946 11356 81808 10325 20280 30032 40036 60062 76062 8572/ 333 59008 70076 81710 84617 88459==
41946,2024,08,15,09,00,AAXX 15094 41946 02456 51704 10320 20270 30005 40009 85400 333 59013 70076 84618==
41946,2024,08,15,12,00,AAXX 15124 41946 02456 51702 10300 20270 30009 40014 83402 333 10328 59006 70060 82618 84080==
41946,2024,08,15,15,00,AAXX 15154 41946 02/56 30000 10290 20270 30032 40037 83030 333 59010 70060 83362==
41946,2024,08,15,18,00,AAXX 15184 41946 02556 50000 10290 20280 30032 40036 83530 333 59010 70060 83620 84360==
41946,2024,08,15,21,00,AAXX 15214 41946 02/56 40000 10288 20280 30020 40025 84030 333 59009 70060 84362==
41947,2024,08,09,00,00,AAXX 09004 41947 02450 80000 10275 20275 30048 40050 8452/ 333 58010 70104 84616 88458==
41947,2024,08,09,03,00,AAXX 09034 41947 01350 80000 10275 20270 30071 40074 76166 8472/ 333 20260 58012 70096 81709 83616 88458==
41947,2024,08,09,06,00,AAXX 09064 41947 21350 80000 10290 20260 30064 40067 70262 8352/ 333 58007 60018 70042 83618 88458==
41947,2024,08,09,09,00,AAXX 09094 41947 02456 61804 10305 20270 30039 40041 83470 333 58004 70022 82618 84459==
41947,2024,08,09,12,00,AAXX 09124 41947 21456 51803 10290 20270 30035 40037 70162 83470 333 10308 58001 60025 70034 82618 84459==
41947,2024,08,09,15,00,AAXX 09154 41947 02456 31803 10286 20280 30057 40059 83500 333 58005 70034 83618==
41947,2024,08,09,18,00,AAXX 09184 41947 02456 41803 10282 20270 30057 40059 84500 333 59003 70034 84617==
41947,2024,08,09,21,00,AAXX 09214 41947 02456 41803 10280 20270 30048 40050 84500 333 59004 70034 84617==
41947,2024,08,10,00,00,AAXX 10004 41947 02456 61802 10280 20270 30046 40048 83570 333 59002 70034 83618 84459==
41947,2024,08,10,03,00,AAXX 10034 41947 01450 80000 10288 20270 30057 40060 70362 8352/ 333 20270 59014 70030 83618 88458==
41947,2024,08,10,06,00,AAXX 10064 41947 11450 80000 10283 20260 30048 40051 60016 70262 8452/ 333 59009 70028 84617 88458==
41947,2024,08,10,09,00,AAXX 10094 41947 01456 81802 10285 20280 30036 40038 70262 8352/ 333 59003 70038 83618 88458==
41947,2024,08,10,12,00,AAXX 10124 41947 11450 61802 10292 20270 30030 40032 60016 70162 83570 333 10320 59005 70016 83618 85458==
41947,2024,08,10,15,00,AAXX 10154 41947 02450 31802 10288 20280 30047 40049 83500 333 59010 70016 83618==
41947,2024,08,10,18,00,AAXX 10184 41947 02450 21801 10285 20280 30046 40048 82500 333 59011 70016 82618==
41947,2024,08,10,21,00,AAXX 10214 41947 02450 20000 10282 20260 30038 40040 82500 333 59010 70016 82618==
41947,2024,08,11,00,00,AAXX 11004 41947 02450 20000 10280 20260 30033 40035 82500 333 59010 70016 82618==
41947,2024,08,11,03,00,AAXX 11034 41947 02456 71802 10300 20270 30047 40049 83570 333 20265 59011 70010 83618 85458==
41947,2024,08,11,06,00,AAXX 11064 41947 01356 80000 10303 20260 30039 40041 70362 8662/ 333 59010 70002 82710 84617 88458==
41947,2024,08,11,09,00,AAXX 11094 41947 02456 81802 10295 20280 30028 40030 8352/ 333 59008 70002 83618 88458==
41947,2024,08,11,12,00,AAXX 11124 41947 02456 20000 10292 20270 30021 40023 82500 333 10306 59009 70002 82618==
41947,2024,08,11,15,00,AAXX 11154 41947 02950 01802 10284 20270 30035 40037 333 59012 70002==
41947,2024,08,11,18,00,AAXX 11184 41947 02950 01802 10282 20270 30046 40048 333 58000 70002==
41947,2024,08,11,21,00,AAXX 11214 41947 02450 32302 10284 20270 30043 40045 83500 333 58005 70002 83618==
41947,2024,08,12,00,00,AAXX 12004 41947 02456 60000 10285 20280 30041 40043 83570 333 58008 70002 83618 85458==
41947,2024,08,12,03,00,AAXX 12034 41947 02456 60000 10315 20280 30046 40048 83570 333 20278 59001 70002 83618 84459==
41947,2024,08,12,06,00,AAXX 12064 41947 02456 60000 10340 20260 30041 40043 83570 333 58002 70000 83618 84459==
41947,2024,08,12,09,00,AAXX 12094 41947 01456 81303 10300 20260 30028 40030 71722 8492/ 333 58000 70000 83618 88458 81929==
41947,2024,08,12,12,00,AAXX 12124 41947 01456 81302 10292 20270 30021 40023 70292 8352/ 333 10345 58000 70000 83618 88458==
41947,2024,08,12,15,00,AAXX 12154 41947 02450 81802 10290 20280 30040 40042 8352/ 333 58005 70000 83618 88459==
41947,2024,08,12,18,00,AAXX 12184 41947 02950 00000 10290 20280 30047 40049 333 58001 70000==
41947,2024,08,12,21,00,AAXX 12214 41947 02450 30000 10286 20280 30042 40044 83500 333 59001 70000 83618==
41947,2024,08,13,00,00,AAXX 13004 41947 02450 60000 10284 20270 30040 40042 83570 333 59001 70000 83618 84459==
41947,2024,08,13,03,00,AAXX 13034 41947 02456 60000 10310 20280 30054 40055 86400 333 20280 58007 70000 83618 83820==
41947,2024,08,13,06,00,AAXX 13064 41947 02456 60000 10322 20270 30044 40047 86400 333 58004 70000 83618 83820==
41947,2024,08,13,09,00,AAXX 13094 41947 01350 81802 10280 20280 30030 40032 76162 8572/ 333 58002 70206 83710 83616 88458==
41947,2024,08,13,12,00,AAXX 13124 41947 11456 30000 10290 20270 30022 40024 60216 70162 83500 333 10350 58001 70206 83618==
41947,2024,08,13,15,00,AAXX 13154 41947 02450 20000 10282 20270 30054 40056 82500 333 58014 70206 83618==
41947,2024,08,13,18,00,AAXX 13184 41947 02450 20000 10280 20270 30053 40055 82500 333 58006 70206 82618==
41947,2024,08,13,21,00,AAXX 13214 41947 02450 30000 10280 20270 30048 40050 83500 333 58006 70206 83618==
41947,2024,08,14,00,00,AAXX 14004 41947 02450 80000 10280 20270 30039 40041 8352/ 333 59001 70206 83618 88458==
41947,2024,08,14,03,00,AAXX 14034 41947 02456 70000 10310 20270 30054 40057 83570 333 20270 58002 70206 83618 86458==
41947,2024,08,14,06,00,AAXX 14064 41947 02456 70000 10310 20270 30054 40057 83570 333 20270 58002 70206 83618 86458==
41947,2024,08,14,09,00,AAXX 14094 41947 02456 80000 10310 20260 30019 40021 8452/ 333 59011 70000 84616 88458==
41947,2024,08,14,12,00,AAXX 14124 41947 21456 30000 10290 20270 30017 40019 70162 83500 333 10345 59005 60137 70130 83618==
41947,2024,08,14,15,00,AAXX 14154 41947 02950 00000 10288 20280 30044 40046 333 59010 70130==
41947,2024,08,14,18,00,AAXX 14184 41947 02950 00000 10286 20280 30046 40048 333 59007 70130==
41947,2024,08,14,21,00,AAXX 14214 41947 02450 30000 10285 20280 30038 40040 83500 333 59010 70130 83618==
41947,2024,08,15,00,00,AAXX 15004 41947 02456 60000 10282 20270 30032 40034 83570 333 59007 70130 83618 85458==
41947,2024,08,15,03,00,AAXX 15034 41947 02456 71302 10318 20280 30037 40039 83570 333 20276 59018 70130 83618 85459==
41947,2024,08,15,06,00,AAXX 15064 41947 02456 71404 10312 20280 30031 40033 83570 333 59010 70130 83618 85458==
41947,2024,08,15,09,00,AAXX 15094 41947 02456 71304 10310 20260 30008 40010 83570 333 59011 70130 83618 85459==
41947,2024,08,15,12,00,AAXX 15124 41947 02456 60000 10300 20260 30009 40011 83570 333 10326 59008 70000 83618 85459==
41947,2024,08,15,15,00,AAXX 15154 41947 02450 60000 10286 20270 30033 40035 83570 333 59011 70000 83618 85459==
41947,2024,08,15,18,00,AAXX 15184 41947 02450 60000 10285 20270 30035 40037 83510 333 59011 70000 83618 85459==
41947,2024,08,15,21,00,AAXX 15214 41947 02450 60000 10275 20270 30016 40018 83570 333 59015 70000 83618 85459==
41950,2024,08,09,00,00,AAXX 09004 41950 21330 80000 10260 20260 30057 40060 76162 8572/ 333 58027 60147 70228 82708 84616 88458==
41950,2024,08,09,03,00,AAXX 09034 41950 01330 80000 10257 20257 30077 40080 76366 8572/ 333 20255 58012 70534 82707 84615 88458==
41950,2024,08,09,06,00,AAXX 09064 41950 21450 72102 10308 20260 30066 40068 70162 84470 333 58001 60338 70506 84616 85459==
41950,2024,08,09,09,00,AAXX 09094 41950 01350 70000 10275 20260 30044 40046 72962 84670 333 58004 70528 81708 84616 86459==
41950,2024,08,09,12,00,AAXX 09124 41950 01450 61802 10278 20270 30042 40044 70196 83570 333 10315 58000 70546 83617 86459==
41950,2024,08,09,15,00,AAXX 09154 41950 02450 40000 10274 20260 30061 40063 83530 333 58000 70528 83616==
41950,2024,08,09,18,00,AAXX 09184 41950 02450 30000 10274 20260 30060 40063 82530 333 59006 70528 82617==
41950,2024,08,09,21,00,AAXX 09214 41950 02350 80000 10275 20275 30051 40054 8562/ 333 59011 70528 82708 84616 88458==
41950,2024,08,10,00,00,AAXX 10004 41950 21330 81502 10266 20266 30049 40052 76162 8572/ 333 59008 60137 70518 82707 84615 88458==
41950,2024,08,10,03,00,AAXX 10034 41950 01350 80000 10275 20270 30059 40062 72162 8562/ 333 20255 59018 70188 82708 84616 88458==
41950,2024,08,10,06,00,AAXX 10064 41950 11340 80000 10274 20260 30047 40050 60831 76162 8572/ 333 59019 70266 87208 84616 88458==
41950,2024,08,10,09,00,AAXX 10094 41950 01340 71802 10285 20280 30033 40035 79596 85910 333 59011 70266 81708 84616 87459 81928==
41950,2024,08,10,12,00,AAXX 10124 41950 21450 60000 10289 20270 30026 40028 70196 84330 333 10292 60048 70248 83617 83362 81928==
41950,2024,08,10,15,00,AAXX 10154 41950 02450 60000 10275 20270 30057 40060 83510 333 59004 70248 83617 86459==
41950,2024,08,10,18,00,AAXX 10184 41950 02450 40000 10270 20270 30047 40050 83530 333 59013 70248 83617==
41950,2024,08,10,21,00,AAXX 10214 41950 02450 50000 10268 20268 30032 40035 83510 333 59019 70248 83617 85459==
41950,2024,08,11,00,00,AAXX 11004 41950 01340 80000 10267 20267 30035 40038 70522 8562/ 333 59014 70118 82708 84616 88458==
41950,2024,08,11,03,00,AAXX 11034 41950 02350 80000 10295 20270 30046 40048 8562/ 333 20265 59013 70046 82708 84616 88458==
41950,2024,08,11,06,00,AAXX 11064 41950 21350 81203 10291 20270 30044 40046 71762 8692/ 333 59003 60067 70098 82708 84616 88458 81928==
41950,2024,08,11,09,00,AAXX 11094 41950 01340 80000 10273 20270 30037 40040 76166 8562/ 333 59004 70092 82708 84616 88458==
41950,2024,08,11,12,00,AAXX 11124 41950 21450 40000 10288 20250 30021 40023 70162 82531 333 10300 59005 60038 70096 82617==
41950,2024,08,11,15,00,AAXX 11154 41950 02450 40000 10275 20275 30030 40032 83530 333 59027 70096 83617==
41950,2024,08,11,18,00,AAXX 11184 41950 02450 60000 10278 20270 30043 40045 83510 333 59004 70096 83617 86459==
41950,2024,08,11,21,00,AAXX 11214 41950 01340 80000 10264 20260 30039 40042 76166 8572/ 333 58007 70386 82708 84616 88458==
41950,2024,08,12,00,00,AAXX 12004 41950 21450 60000 10262 20260 30036 40039 70162 83531 333 58001 60298 70386 83617 83362==
41950,2024,08,12,03,00,AAXX 12034 41950 02450 50000 10294 20260 30046 40048 83501 333 20257 58000 70386 83617 83080==
41950,2024,08,12,06,00,AAXX 12064 41950 02350 80000 10318 20280 30046 40048 8562/ 333 58002 70324 82708 84616 88458==
41950,2024,08,12,09,00,AAXX 12094 41950 01340 80000 10296 20280 30026 40028 75122 8572/ 333 59011 70296 82708 84616 88458==
41950,2024,08,12,12,00,AAXX 12124 41950 01350 80000 10282 20270 30022 40024 70252 8532/ 333 10321 58001 70294 82708 84616 88458 81928==
41950,2024,08,12,15,00,AAXX 12154 41950 02350 70000 10280 20270 30040 40042 84610 333 58010 70294 81708 83617==
41950,2024,08,12,18,00,AAXX 12184 41950 02350 80000 10276 20276 30052 40054 8562/ 333 58009 70294 82708 84616 88458==
41950,2024,08,12,21,00,AAXX 12214 41950 02350 80000 10278 20278 30040 40042 8562/ 333 58001 70004 82708 84616 88458==
41950,2024,08,13,00,00,AAXX 13004 41950 21350 80000 10282 20280 30043 40045 70262 8562/ 333 58007 60025 70020 82708 84616 88458==
41950,2024,08,13,03,00,AAXX 13034 41950 02456 50000 10300 20270 30051 40053 84431 333 20275 58005 70020 83617 83362==
41950,2024,08,13,06,00,AAXX 13064 41950 02450 71202 10336 20270 30044 40046 86330 333 59002 70020 84616 83825 81928==
41950,2024,08,13,09,00,AAXX 13094 41950 02450 32702 10320 20270 30028 40030 83430 333 58002 70018 82617==
41950,2024,08,13,12,00,AAXX 13124 41950 01/50 20000 10298 20270 30022 40024 70162 82030 333 10337 58000 70010 82362==
41950,2024,08,13,15,00,AAXX 13154 41950 02/50 10000 10276 20260 30048 40050 81030 333 58008 70024 81362==
41950,2024,08,13,18,00,AAXX 13184 41950 02350 80000 10275 20270 30049 40051 8562/ 333 59003 70024 82708 84616 88458==
41950,2024,08,13,21,00,AAXX 13214 41950 02350 80000 10275 20275 30043 40045 8562/ 333 58003 70024 82708 84616 88458==
41950,2024,08,14,00,00,AAXX 14004 41950 02350 80000 10275 20275 30040 40042 8532/ 333 59003 70008 82708 84616 88458 81928==
41950,2024,08,14,03,00,AAXX 14034 41950 01340 80000 10277 20277 30054 40056 76162 8572/ 333 20267 58003 70048 82708 84616 88458==
41950,2024,08,14,06,00,AAXX 14064 41950 11450 40000 10320 20270 30039 40041 60046 70162 83530 333 59005 70048 83617==
41950,2024,08,14,09,00,AAXX 14094 41950 02450 60000 10330 20260 30017 40019 84431 333 59011 70048 83617 83362==
41950,2024,08,14,12,00,AAXX 14124 41950 02450 60000 10305 20270 30017 40019 82531 333 10345 59005 70040 82617 84362==
41950,2024,08,14,15,00,AAXX 14154 41950 02350 70000 10288 20270 30044 40046 84610 333 59004 70040 81708 84616 87459==
41950,2024,08,14,18,00,AAXX 14184 41950 02350 80000 10284 20260 30050 40052 8562/ 333 58001 70040 82708 84616 88458==
41950,2024,08,14,21,00,AAXX 14214 41950 02350 80000 10280 20270 30032 40034 8562/ 333 59011 70040 82708 84616 88458==
41950,2024,08,15,00,00,AAXX 15004 41950 02350 80000 10275 20275 30035 40037 8562/ 333 59005 70040 82708 84616 88458==
41950,2024,08,15,03,00,AAXX 15034 41950 02350 70902 10307 20270 30037 40039 85670 333 20267 59017 70000 81708 84616 86459==
41950,2024,08,15,06,00,AAXX 15064 41950 02450 61503 10329 20260 30028 40030 84431 333 59011 70000 83617==
41950,2024,08,15,09,00,AAXX 15094 41950 02450 61503 10329 20260 30010 40013 84470 333 59007 70000 83617 84459==
41950,2024,08,15,12,00,AAXX 15124 41950 02350 70000 10300 20260 30007 40009 84610 333 10332 59010 70000 81708 83617 87459==
41950,2024,08,15,15,00,AAXX 15154 41950 02350 60000 10280 20260 30032 40034 84610 333 59012 70000 81708 84616 86459==
41950,2024,08,15,18,00,AAXX 15184 41950 02450 30000 10276 20270 30028 40030 82530 333 59022 70000 82617==
41950,2024,08,15,21,00,AAXX 15214 41950 02350 70000 10270 20260 30022 40024 85610 333 59010 70000 81708 84616 87459==
41951,2024,08,09,00,00,AAXX 09004 41951 21330 80000 10262 20260 30053 40058 76366 8672/ 333 58021 60199 70262 82706 84616 88458==
41951,2024,08,09,03,00,AAXX 09034 41951 01340 81303 10280 20270 30073 40078 72166 8562/ 333 20259 58017 70429 81708 84618 88458==
41951,2024,08,09,06,00,AAXX 09064 41951 21456 61304 10314 20260 30063 40068 70162 83510 333 58003 60218 70391 83618 85459==
41951,2024,08,09,09,00,AAXX 09094 41951 02350 81303 10306 20270 30043 40048 8562/ 333 58006 70400 81709 84618 88458==
41951,2024,08,09,12,00,AAXX 09124 41951 01456 61302 10287 20270 30034 40039 72162 83510 333 10324 59003 70004 83618 85459==
41951,2024,08,09,15,00,AAXX 09154 41951 02450 60000 10282 20270 30061 40066 83510 333 59003 70402 83618 85459==
41951,2024,08,09,18,00,AAXX 09184 41951 02450 60000 10278 20270 30062 40067 83510 333 58004 70397 83618 85459==
41951,2024,08,09,21,00,AAXX 09214 41951 01330 80000 10274 20270 30050 40055 72162 8562/ 333 59003 70382 81708 84618 88458==
41951,2024,08,10,00,00,AAXX 10004 41951 01340 81302 10272 20270 30032 40037 72162 8662/ 333 59021 70222 82706 84616 88458==
41951,2024,08,10,03,00,AAXX 10034 41951 01330 80000 10270 20270 30053 40058 76162 8672/ 333 20257 59020 70207 82706 84616 88458==
41951,2024,08,10,06,00,AAXX 10064 41951 01330 80000 10284 20270 30044 40049 76062 8672/ 333 59019 70550 82706 84616 88458==
41951,2024,08,10,09,00,AAXX 10094 41951 01340 80000 10285 20280 30030 40035 72162 8462/ 333 59013 70621 81708 84618 88458==
41951,2024,08,10,12,00,AAXX 10124 41951 21340 81302 10283 20260 30023 40028 70262 8662/ 333 10308 59011 60075 70617 82708 84618 88458==
41951,2024,08,10,15,00,AAXX 10154 41951 02340 80000 10282 20270 30046 40051 8562/ 333 59015 70617 81708 84618 88458==
41951,2024,08,10,18,00,AAXX 10184 41951 02340 80000 10280 20280 30040 40045 8562/ 333 59022 70617 81708 84618 88458==
41951,2024,08,10,21,00,AAXX 10214 41951 02340 80000 10273 20270 30034 40039 8562/ 333 59016 70612 81708 84618 88458==
41951,2024,08,11,00,00,AAXX 11004 41951 02340 80000 10270 20270 30027 40032 8562/ 333 59005 70604 81708 84618 88458==
41951,2024,08,11,03,00,AAXX 11034 41951 02340 82203 10300 20270 30041 40046 8562/ 333 20265 59012 70414 81708 84618 88458==
41951,2024,08,11,06,00,AAXX 11064 41951 02330 81502 10283 20260 30044 40049 8672/ 333 58000 70083 82706 84616 88458==
41951,2024,08,11,09,00,AAXX 11094 41951 01340 80000 10278 20270 30026 40031 72166 8662/ 333 59004 70042 82708 84618 88458==
41951,2024,08,11,12,00,AAXX 11124 41951 11456 60000 10294 20270 30014 40019 60036 70162 83510 333 10303 59009 70042 83618 85459==
41951,2024,08,11,15,00,AAXX 11154 41951 02340 80000 10276 20270 30032 40037 8562/ 333 59014 70042 81708 84618 88458==
41951,2024,08,11,18,00,AAXX 11184 41951 02340 80000 10282 20280 30042 40047 8562/ 333 58007 70042 81708 84618 88458==
41951,2024,08,11,21,00,AAXX 11214 41951 02340 80000 10278 20278 30038 40043 8562/ 333 58004 70042 81708 84618 88458==
41951,2024,08,12,00,00,AAXX 12004 41951 01340 80000 10262 20260 30033 40038 72162 8562/ 333 58006 70100 81708 84618 88458==
41951,2024,08,12,03,00,AAXX 12034 41951 02340 82202 10304 20270 30043 40048 8562/ 333 20258 58002 70140 81708 84618 88458==
41951,2024,08,12,06,00,AAXX 12064 41951 02450 71703 10318 20270 30040 40045 83510 333 59004 70128 83618 86459==
41951,2024,08,12,09,00,AAXX 12094 41951 02350 80000 10310 20280 30028 40033 8562/ 333 58002 70098 81708 84618 88458==
41951,2024,08,12,12,00,AAXX 12124 41951 02450 70000 10290 20260 30013 40018 83510 333 10324 59001 70098 83618 86459==
41951,2024,08,12,15,00,AAXX 12154 41951 01330 80000 10278 20270 30040 40045 76322 8672/ 333 58008 70128 82706 84616 88458==
41951,2024,08,12,18,00,AAXX 12184 41951 21330 80000 10276 20276 30050 40055 76162 8672/ 333 58008 60097 70183 82706 84616 88458==
41951,2024,08,12,21,00,AAXX 12214 41951 01340 80000 10273 20270 30044 40049 72162 8662/ 333 58006 70201 81706 84616 88458==
41951,2024,08,13,00,00,AAXX 13004 41951 01330 81302 10272 20270 30038 40043 76062 8672/ 333 58005 70113 81706 84616 88458==
41951,2024,08,13,03,00,AAXX 13034 41951 01456 60000 10305 20270 30047 40052 70162 83510 333 20262 58004 70187 83618 85459==
41951,2024,08,13,06,00,AAXX 13064 41951 11456 60000 10322 20270 30041 40046 60076 70262 83510 333 58001 70187 83618 85459==
41951,2024,08,13,09,00,AAXX 13094 41951 02456 60000 10332 20270 30019 40024 83510 333 59008 70187 83618 85459==
41951,2024,08,13,12,00,AAXX 13124 41951 02456 61803 10303 20270 30016 40021 83510 333 10334 58003 70187 83618 85459==
41951,2024,08,13,15,00,AAXX 13154 41951 02440 80000 10284 20270 30049 40054 8452/ 333 58009 70157 84618 88458==
41951,2024,08,13,18,00,AAXX 13184 41951 02450 30000 10278 20278 30051 40055 83500 333 58011 70102 83618==
41951,2024,08,13,21,00,AAXX 13214 41951 02340 80000 10280 20280 30046 40050 8562/ 333 58002 70084 81708 84618 88458==
41951,2024,08,14,00,00,AAXX 14004 41951 02340 80000 10278 20278 30032 40038 8562/ 333 59006 70074 81708 84618 88458==
41951,2024,08,14,03,00,AAXX 14034 41951 01456 60000 10312 20270 30044 40049 70162 83510 333 20270 59003 70126 83618 85459==
41951,2024,08,14,06,00,AAXX 14064 41951 01456 61302 10320 20280 30037 40042 70262 83510 333 59004 70142 83618 85459==
41951,2024,08,14,09,00,AAXX 14094 41951 02456 61403 10315 20270 30017 40022 83510 333 59002 70142 83618 85459==
41951,2024,08,14,12,00,AAXX 14124 41951 02456 60000 10305 20280 30008 40013 83510 333 10332 59008 70142 83618 85459==
41951,2024,08,14,15,00,AAXX 14154 41951 02340 80000 10290 20270 30043 40047 8562/ 333 59006 70142 81708 84618 88458==
41951,2024,08,14,18,00,AAXX 14184 41951 02340 80000 10282 20260 30042 40045 8562/ 333 59010 70142 81078 84618 88458==
41951,2024,08,14,21,00,AAXX 14214 41951 02340 80000 10276 20270 30029 40033 8652/ 333 59017 70142 81708 84618 88458==
41951,2024,08,15,00,00,AAXX 15004 41951 02340 80000 10272 20270 30026 40030 8562/ 333 59006 70142 81708 84618 88458==
41951,2024,08,15,03,00,AAXX 15034 41951 02456 61302 10318 20270 30040 40045 83510 333 20268 59004 70016 83618 85459==
41951,2024,08,15,06,00,AAXX 15064 41951 02456 61302 10328 20270 30025 40030 83510 333 59012 70000 83618 85459==
41951,2024,08,15,09,00,AAXX 15094 41951 02456 61503 10324 20260 30003 40008 83510 333 59014 70000 83618 85459==
41951,2024,08,15,12,00,AAXX 15124 41951 02456 60000 10306 20270 39998 40003 83510 333 10335 59010 70000 83618 85459==
41951,2024,08,15,15,00,AAXX 15154 41951 02340 80000 10283 20260 30034 40038 8562/ 333 59009 70000 81708 84618 88458==
41951,2024,08,15,18,00,AAXX 15184 41951 02340 80000 10280 20270 30023 40028 8562/ 333 59018 70000 81708 84618 88458==
41951,2024,08,15,21,00,AAXX 15214 41951 02340 80000 10278 20270 30014 40019 8652/ 333 59015 70000 81708 84618 88458==
41953,2024,08,09,00,00,AAXX 09004 41953 21435 81801 10258 20258 30065 40070 76162 8452/ 333 58018 60217 70590 84614 88456==
41953,2024,08,09,03,00,AAXX 09034 41953 01440 81802 10270 20260 30082 40087 72166 8352/ 333 20256 58019 70640 83616 88458==
41953,2024,08,09,06,00,AAXX 09064 41953 11445 81803 10290 20260 30074 40079 60106 70262 8352/ 333 58006 70580 83616 88458==
41953,2024,08,09,09,00,AAXX 09094 41953 01450 81805 10290 20260 30054 40059 70162 83510 333 58011 70620 83616 86458==
41953,2024,08,09,12,00,AAXX 09124 41953 11445 81804 10280 20260 30046 40051 60066 70262 83510 333 10302 59004 70420 83616 86458==
41953,2024,08,09,15,00,AAXX 09154 41953 02430 81803 10278 20270 30067 40072 8352/ 333 59004 70370 83616 88458==
41953,2024,08,09,18,00,AAXX 09184 41953 02430 81803 10275 20270 30072 40077 8352/ 333 59001 70370 83616 88458==
41953,2024,08,09,21,00,AAXX 09214 41953 02430 81304 10265 20260 30064 40069 8352/ 333 59005 70290 83616 88458==
41953,2024,08,10,00,00,AAXX 10004 41953 21440 81304 10262 20260 30059 40064 76162 8452/ 333 59006 60169 70320 84614 88458==
41953,2024,08,10,03,00,AAXX 10034 41953 01445 81304 10270 20250 30071 40076 76166 8452/ 333 20260 59011 70280 84614 88458==
41953,2024,08,10,06,00,AAXX 10064 41953 21445 81301 10282 20260 30059 40064 70266 8352/ 333 59015 60119 70330 83616 88458==
41953,2024,08,10,09,00,AAXX 10094 41953 01440 81301 10272 20260 30036 40041 76122 8452/ 333 59018 70330 84614 88456==
41953,2024,08,10,12,00,AAXX 10124 41953 21440 81301 10270 20260 30035 40040 70266 8352/ 333 10295 59011 60085 70350 83616 88458==
41953,2024,08,10,15,00,AAXX 10154 41953 02430 80000 10270 20260 30052 40057 8352/ 333 59015 70350 83616 88458==
41953,2024,08,10,18,00,AAXX 10184 41953 02425 80000 10268 20260 30061 40066 8352/ 333 59018 70350 83616 88458==
41953,2024,08,10,21,00,AAXX 10214 41953 02425 80000 10268 20260 30051 40056 8352/ 333 59013 70350 83616 88458==
41953,2024,08,11,00,00,AAXX 11004 41953 01435 80000 10266 20266 30039 40044 72122 8352/ 333 59020 70020 83616 88458==
41953,2024,08,11,03,00,AAXX 11034 41953 02445 61802 10316 20280 30051 40056 84410 333 20265 59020 70150 83616 85458==
41953,2024,08,11,06,00,AAXX 11064 41953 01440 80000 10275 20270 30049 40054 76162 8352/ 333 59010 70120 83615 88458==
41953,2024,08,11,09,00,AAXX 11094 41953 01440 80000 10265 20260 30038 40043 76166 8352/ 333 58002 70550 83615 88458==
41953,2024,08,11,12,00,AAXX 11124 41953 21450 60000 10288 20270 30023 40028 70166 83510 333 10320 59012 60418 70550 83616 86458==
41953,2024,08,11,15,00,AAXX 11154 41953 02440 60000 10275 20270 30040 40045 83510 333 59012 70550 83616 86458==
41953,2024,08,11,18,00,AAXX 11184 41953 02440 80000 10275 20270 30049 40054 8352/ 333 59007 70550 83616 88458==
41953,2024,08,11,21,00,AAXX 11214 41953 02440 80000 10270 20260 30040 40045 8352/ 333 59011 70550 83616 88458==
41953,2024,08,12,00,00,AAXX 12004 41953 02440 80000 10265 20260 30041 40046 8352/ 333 58002 70530 83616 88458==
41953,2024,08,12,03,00,AAXX 12034 41953 02450 60000 10285 20280 30051 40056 83510 333 20260 58000 70530 83616 86458==
41953,2024,08,12,06,00,AAXX 12064 41953 02450 80000 10300 20270 30048 40053 8352/ 333 59001 70410 83616 88458==
41953,2024,08,12,09,00,AAXX 12094 41953 01440 80000 10280 20260 30030 40035 76166 8352/ 333 59008 70050 83615 88458==
41953,2024,08,12,12,00,AAXX 12124 41953 21440 80000 10285 20280 30027 40032 70266 8352/ 333 10305 58004 60035 70030 83616 88458==
41953,2024,08,12,15,00,AAXX 12154 41953 02440 80000 10280 20270 30045 40050 8352/ 333 58005 70030 83616 88458==
41953,2024,08,12,18,00,AAXX 12184 41953 02440 80000 10275 20270 30055 40060 8352/ 333 58006 70030 83616 88458==
41953,2024,08,12,21,00,AAXX 12214 41953 02440 80000 10270 20260 30045 40050 8352/ 333 58005 70030 83616 88458==
41953,2024,08,13,00,00,AAXX 13004 41953 21440 80000 10265 20260 30047 40052 70266 8352/ 333 58006 60295 70320 83616 88458==
41953,2024,08,13,03,00,AAXX 13034 41953 02450 80000 10290 20270 30058 40063 8352/ 333 20256 58007 70320 83616 88458==
41953,2024,08,13,06,00,AAXX 13064 41953 02450 60000 10325 20280 30048 40053 83510 333 58000 70320 83616 86458==
41953,2024,08,13,09,00,AAXX 13094 41953 02450 40000 10335 20270 30027 40032 84400 333 59003 70290 82616 83825==
41953,2024,08,13,12,00,AAXX 13124 41953 02450 50000 10310 20260 30025 40030 83410 333 10340 59002 70290 82616 85458==
41953,2024,08,13,15,00,AAXX 13154 41953 02440 80000 10285 20280 30050 40055 8352/ 333 58005 70290 83616 88458==
41953,2024,08,13,18,00,AAXX 13184 41953 02440 80000 10285 20280 30055 40060 8352/ 333 58000 70290 83616 88458==
41953,2024,08,13,21,00,AAXX 13214 41953 02440 80000 10280 20270 30050 40055 8352/ 333 58005 70290 83616 88458==
41953,2024,08,14,00,00,AAXX 14004 41953 21440 80000 10270 20270 30043 40048 70262 8352/ 333 59004 60065 70060 83616 88458==
41953,2024,08,14,03,00,AAXX 14034 41953 02450 60000 10305 20270 30055 40060 83510 333 20270 59003 70060 83616 86458==
41953,2024,08,14,06,00,AAXX 14064 41953 01450 81803 10316 20280 30044 40049 72162 83510 333 59004 70030 83616 85458==
41953,2024,08,14,09,00,AAXX 14094 41953 02450 41304 10330 20250 30023 40028 84400 333 59004 70090 83618==
41953,2024,08,14,12,00,AAXX 14124 41953 NIL=
41953,2024,08,14,15,00,AAXX 14154 41953 02440 31804 10290 20280 30051 40056 83400 333 58001 70090 82618==
41953,2024,08,14,18,00,AAXX 14184 41953 02435 41803 10286 20280 30055 40060 84400 333 58000 70090 83618==
41953,2024,08,14,21,00,AAXX 14214 41953 02430 61303 10280 20270 30047 40052 83510 333 59003 70090 83616 85458==
41953,2024,08,15,00,00,AAXX 15004 41953 02440 60503 10276 20270 30036 40041 83510 333 59007 70030 83616 86458==
41953,2024,08,15,03,00,AAXX 15034 41953 02450 41304 10310 20270 30052 40057 84400 333 20274 59003 70030 83616==
41953,2024,08,15,06,00,AAXX 15064 41953 02450 71803 10320 20260 30034 40039 84410 333 59010 70000 83616 86458==
41953,2024,08,15,09,00,AAXX 15094 41953 02450 61802 10328 20270 30012 40017 84410 333 59011 70000 83616 84458==
41953,2024,08,15,12,00,AAXX 15124 41953 02445 40000 10304 20260 30011 40016 83530 333 10328 59010 70000 83616==
41953,2024,08,15,15,00,AAXX 15154 41953 02430 80000 10286 20260 30040 40045 8352/ 333 59011 70000 83616 88458==
41953,2024,08,15,18,00,AAXX 15184 41953 02430 80000 10282 20250 30044 40049 8352/ 333 59011 70000 83616 88458==
41953,2024,08,15,21,00,AAXX 15214 41953 02430 80000 10276 20260 30039 40044 8352/ 333 59008 70000 83616 88458==
41955,2024,08,09,00,00,AAXX 09004 41955 NIL=
41955,2024,08,10,06,00,AAXX 10064 41955 NIL=
41955,2024,08,10,12,00,AAXX 10124 41955 NIL=
41955,2024,08,11,00,00,AAXX 11004 41955 NIL=
41955,2024,08,11,06,00,AAXX 11064 41955 NIL=
41955,2024,08,11,12,00,AAXX 11124 41955 NIL=
41955,2024,08,12,00,00,AAXX 12004 41955 NIL=
41955,2024,08,12,12,00,AAXX 12124 41955 NIL=
41955,2024,08,13,00,00,AAXX 13004 41955 NIL=
41955,2024,08,13,18,00,AAXX 13184 41955 NIL=
41955,2024,08,14,00,00,AAXX 14004 41955 NIL=
41955,2024,08,14,06,00,AAXX 14064 41955 NIL=
41955,2024,08,14,12,00,AAXX 14124 41955 NIL=
41955,2024,08,15,06,00,AAXX 15064 41955 NIL=
41955,2024,08,15,12,00,AAXX 15124 41955 NIL=
41955,2024,08,15,18,00,AAXX 15184 41955 NIL=
41958,2024,08,09,00,00,AAXX 09004 41958 11450 81801 10260 20260 30048 40050 60115 76162 8542/ 333 56499 58020 70440 82708 84616 88459=
41958,2024,08,09,03,00,AAXX 09034 41958 21456 80000 10270 20270 30071 40073 76166 8542/ 333 20256 56499 58012 70366 82708 84614 88459=
41958,2024,08,09,06,00,AAXX 09064 41958 11457 81201 10287 20270 30064 40066 60089 70166 8542/ 333 56499 58010 70256 84616 88459=
41958,2024,08,09,09,00,AAXX 09094 41958 21457 80000 10272 20260 30037 40039 76162 8542/ 333 57400 58003 6017/ 70352 82708 84616 88459=
41958,2024,08,09,12,00,AAXX 09124 41958 11450 80000 10288 20280 30034 40036 60255 70262 8542/ 333 10320 56999 59001 70432 84616 88458=
41958,2024,08,09,15,00,AAXX 09154 41958 32450 30000 10277 20270 30056 40058 83400 333 56900 58003 70432 83616=
41958,2024,08,09,21,00,AAXX 09214 41958 32440 30000 10275 20275 30042 40044 83400 333 56900 59005 70432 83616=
41958,2024,08,10,00,00,AAXX 10004 41958 32450 50000 10276 20276 30041 40043 83510 333 56990 59007 70322 83616 84459=
41958,2024,08,10,03,00,AAXX 10034 41958 21450 80000 10300 20290 30054 40056 70362 8542/ 333 20268 56999 59017 6009/ 70366 84616 88458=
41958,2024,08,10,06,00,AAXX 10064 41958 11430 80000 10290 20280 30042 40044 60253 79596 8592/ 333 56999 59022 70496 84616 82930 88458=
41958,2024,08,10,09,00,AAXX 10094 41958 21440 80000 10272 20270 30032 40034 79196 8592/ 333 56999 59005 6019/ 70520 84616 81929 88458=
41958,2024,08,10,12,00,AAXX 10124 41958 11450 60000 10288 20280 30026 40028 60215 70196 83410 333 10328 56990 59008 70460 83616 85459=
41958,2024,08,10,15,00,AAXX 10154 41958 32450 61701 10281 20280 30045 40047 83410 333 59011 70460 83616 85459=
41958,2024,08,10,21,00,AAXX 10214 41958 32440 60000 10280 20280 30032 40034 83410 333 56990 59010 70460 83616 85459=
41958,2024,08,11,00,00,AAXX 11004 41958 32450 30000 10278 20278 30029 40031 83400 333 56900 59012 70460 83616=
41958,2024,08,11,03,00,AAXX 11034 41958 32450 81701 10306 20300 30044 40046 8542/ 333 20268 56499 59010 70370 84616 88458=
41958,2024,08,11,06,00,AAXX 11064 41958 32450 80000 10292 20280 30040 40042 8542/ 333 56999 59002 70210 84616 88458=
41958,2024,08,11,09,00,AAXX 11094 41958 21450 81701 10292 20270 30028 40030 70262 8542/ 333 56499 59004 6996/ 70026 84616 88458=
41958,2024,08,11,12,00,AAXX 11124 41958 11450 61701 10292 20270 30017 40019 69966 70162 83410 333 10310 56490 59009 70006 83616 85459=
41958,2024,08,11,15,00,AAXX 11154 41958 32950 01701 10284 20270 30032 40034 333 59013 70006=
41958,2024,08,11,21,00,AAXX 11214 41958 32440 30000 10280 20280 30037 40039 83400 333 56900 58005 70006 83616=
41958,2024,08,12,00,00,AAXX 12004 41958 32450 50000 10280 20280 30036 40038 83410 333 56990 58007 70006 83616 85459=
41958,2024,08,12,03,00,AAXX 12034 41958 32450 80000 10306 20290 30045 40047 8542/ 333 20277 56999 58001 70006 84616 88458=
41958,2024,08,12,06,00,AAXX 12064 41958 32456 60000 10330 20290 30038 40040 83410 333 56990 59002 70006 83616 85459=
41958,2024,08,12,09,00,AAXX 12094 41958 21430 80000 10270 20270 30028 40030 79396 8592/ 333 56999 58000 6079/ 70790 84616 82929 88458=
41958,2024,08,12,12,00,AAXX 12124 41958 11450 80000 10285 20270 30019 40021 60806 70296 8452/ 333 10340 56999 58002 70800 84616 88458=
41958,2024,08,12,15,00,AAXX 12154 41958 32450 80000 10282 20280 30037 40039 8542/ 333 56999 58005 70800 84616 88458=
41958,2024,08,12,18,00,AAXX 12184 41958 32440 80000 10281 20280 30043 40045 8542/ 333 56999 59001 70800 84616 88458=
41958,2024,08,12,21,00,AAXX 12214 41958 21440 80000 10280 20280 30041 40043 70262 8542/ 333 56999 58004 6001/ 70810 84616 88458=
41958,2024,08,13,00,00,AAXX 13004 41958 11450 80000 10280 20280 30038 40040 60016 70262 8542/ 333 56999 58002 70810 84616 88458=
41958,2024,08,13,03,00,AAXX 13034 41958 32450 81701 10308 20280 30049 40051 8542/ 333 20260 56499 58004 70810 84616 88458=
41958,2024,08,13,06,00,AAXX 13064 41958 32450 80000 10285 20270 30046 40048 8542/ 333 56999 58008 70810 84616 88458=
41958,2024,08,13,09,00,AAXX 13094 41958 21440 81701 10282 20280 30031 40033 76122 8572/ 333 56499 58003 6002/ 70040 81708 84616 88458=
41958,2024,08,13,12,00,AAXX 13124 41958 11450 30000 10287 20250 30023 40025 60026 70162 83400 333 10332 56900 58004 70060 83616=
41958,2024,08,13,15,00,AAXX 13154 41958 32450 30000 10278 20278 30045 40047 83400 333 56900 58008 70030 83616=
41958,2024,08,13,18,00,AAXX 13184 41958 NIL=
41958,2024,08,13,21,00,AAXX 13214 41958 32440 30000 10280 20280 30039 40041 83400 333 56900 59002 70020 83616=
41958,2024,08,14,00,00,AAXX 14004 41958 32450 30000 10278 20278 30033 40035 83400 333 56900 59005 70020 83616=
41958,2024,08,14,03,00,AAXX 14034 41958 32450 80000 10298 20290 30053 40055 8542/ 333 20274 56999 58004 70020 84616 88458=
41958,2024,08,14,06,00,AAXX 14064 41958 32450 80000 10330 20270 30037 40039 8542/ 333 56999 59009 70020 84616 88458=
41958,2024,08,14,09,00,AAXX 14094 41958 21430 80000 10292 20280 30017 40019 76362 8562/ 333 56999 59014 6005/ 70050 81708 84616 88458=
41958,2024,08,14,12,00,AAXX 14124 41958 11440 50000 10280 20270 30018 40020 60209 70166 82530 333 10330 56990 59005 70196 82616 85362=
41958,2024,08,14,15,00,AAXX 14154 41958 32940 30000 10276 20270 30038 40040 83030 333 56090 59007 70196 83362=
41958,2024,08,14,18,00,AAXX 14184 41958 32440 20000 10272 20260 30051 40054 82500 333 56400 58004 70196 82617=
41958,2024,08,14,21,00,AAXX 14214 41958 32440 50000 10280 20270 30023 40025 85400 333 56900 59016 70196 84616=
41958,2024,08,15,00,00,AAXX 15004 41958 32440 80000 10280 20280 30027 40029 8542/ 333 56999 59006 70196 84616 88459=
41958,2024,08,15,03,00,AAXX 15034 41958 32450 50000 10308 20280 30034 40036 83530 333 20275 56990 59019 70196 83616 85362=
41958,2024,08,15,06,00,AAXX 15064 41958 32457 81702 10300 20270 30031 40033 8542/ 333 56499 59006 70196 84616 88459=
41958,2024,08,15,09,00,AAXX 15094 41958 32456 70000 10300 20270 30007 40009 85470 333 56990 59010 70146 84616 86459=
41958,2024,08,15,12,00,AAXX 15124 41958 32450 51701 10294 20260 30008 40010 85400 333 10308 56400 59010 70000 84616=
41958,2024,08,15,15,00,AAXX 15154 41958 32940 10000 10274 20260 30026 40028 80001 333 56009 59012 70000 81080=
41958,2024,08,15,18,00,AAXX 15184 41958 32440 50000 10272 20270 30032 40034 85400 333 56400 59019 70000 84616=
41958,2024,08,15,21,00,AAXX 15214 41958 32440 50000 10276 20270 30006 40008 85400 333 56900 59017 70000 84616=
41960,2024,08,09,00,00,AAXX 09004 41960 21320 80000 10263 20263 30062 40064 76166 8672/ 333 58018 60089 70446 82708 84615 88458==
41960,2024,08,09,06,00,AAXX 09064 41960 21456 61802 10300 20270 30071 40072 70162 85410 333 58015 60278 70482 83618 86459==
41960,2024,08,09,09,00,AAXX 09094 41960 01450 81802 10300 20280 30049 40050 72162 8542/ 333 58005 70486 84617 83822 88459==
41960,2024,08,09,12,00,AAXX 09124 41960 01350 81801 10277 20270 30041 40042 76062 8672/ 333 10310 58000 70496 83707 84615 88456==
41960,2024,08,09,15,00,AAXX 09154 41960 01450 60000 10278 20270 30059 40060 70162 84410 333 59004 70432 83618 86459==
41960,2024,08,09,18,00,AAXX 09184 41960 11450 60000 10280 20270 30064 40065 69986 70262 84410 333 58000 70368 83618 86459==
41960,2024,08,09,21,00,AAXX 09214 41960 02350 80000 10275 20270 30057 40058 8662/ 333 58005 70324 82708 84616 88459==
41960,2024,08,10,00,00,AAXX 10004 41960 01320 80000 10268 20268 30050 40051 76162 8672/ 333 58012 70130 82708 84616 88458==
41960,2024,08,10,03,00,AAXX 10034 41960 01340 82712 20260 30064 40066 76166 8672/ 333 20260 59015 70240 82708 84616 88458==
41960,2024,08,10,06,00,AAXX 10064 41960 01430 81601 10292 20270 30051 40052 76162 8542/ 333 59020 70242 84617 88458==
41960,2024,08,10,09,00,AAXX 10094 41960 02440 81802 10292 20270 30038 40039 8542/ 333 59011 70238 84617 88459==
41960,2024,08,10,12,00,AAXX 10124 41960 02440 80000 10292 20270 30031 40032 8542/ 333 10300 59010 70224 84617 88459==
41960,2024,08,10,15,00,AAXX 10154 41960 02440 80000 10280 20270 30049 40050 8542/ 333 59010 70216 84618 88459==
41960,2024,08,10,18,00,AAXX 10184 41960 02440 30000 10278 20278 30051 40052 83500 333 59013 70216 83618==
41960,2024,08,10,21,00,AAXX 10214 41960 02440 70000 10278 20278 30043 40044 85410 333 59014 70216 83617 87459==
41960,2024,08,11,00,00,AAXX 11004 41960 01430 61801 10278 20278 30036 40037 76121 85310 333 59014 70010 83617 86459 81929==
41960,2024,08,11,03,00,AAXX 11034 41960 01450 60000 10296 20290 30047 40048 72162 85410 333 20266 59017 70092 83618 88458==
41960,2024,08,11,06,00,AAXX 11064 41960 01350 81802 10270 20270 30044 40045 76162 8672/ 333 59007 70200 82708 84616 88458==
41960,2024,08,11,09,00,AAXX 11094 41960 01450 71802 10289 20270 30035 40036 70262 85410 333 59003 70210 84617 87459==
41960,2024,08,11,12,00,AAXX 11124 41960 11456 71801 10300 20270 30021 40023 60016 70262 83510 333 10308 59010 70210 83618 87458==
41960,2024,08,11,15,00,AAXX 11154 41960 02450 70000 10285 20280 30036 40037 85410 333 59013 70210 83618 87459==
41960,2024,08,11,18,00,AAXX 11184 41960 02450 80000 10281 20280 30049 40050 8542/ 333 59002 70210 84617 88459==
41960,2024,08,11,21,00,AAXX 11214 41960 01420 80000 10270 20270 30045 40046 76196 8692/ 333 58002 70270 82708 84615 88458 81929==
41960,2024,08,12,00,00,AAXX 12004 41960 21440 80000 10262 20262 30041 40043 71796 8692/ 333 58005 60109 70304 84617 88459 81929==
41960,2024,08,12,03,00,AAXX 12034 41960 01456 80000 10296 20280 30050 40055 70292 8542/ 333 58003 70234 84618 88459==
41960,2024,08,12,06,00,AAXX 12064 41960 01456 81802 10296 20290 30046 40047 70292 8452/ 333 58002 70114 84618 88459==
41960,2024,08,12,09,00,AAXX 12094 41960 01450 81802 10323 20280 30031 40033 71792 8592/ 333 59004 70104 84618 83822 88459 81930==
41960,2024,08,12,12,00,AAXX 12124 41960 01350 81801 10300 20290 30021 40023 76196 8672/ 333 10330 58000 70010 83708 84615 88456==
41960,2024,08,12,15,00,AAXX 12154 41960 02450 60000 10290 20280 30042 40044 84410 333 58006 70114 83618 86459==
41960,2024,08,12,18,00,AAXX 12184 41960 02450 80000 10288 20280 30049 40051 8542/ 333 58000 70114 84617 88458==
41960,2024,08,12,21,00,AAXX 12214 41960 02450 80000 10285 20285 30047 40049 8542/ 333 58002 70054 84617 88459==
41960,2024,08,13,00,00,AAXX 13004 41960 02440 80000 10283 20280 30045 40046 58004 88459 333 70000==
41960,2024,08,13,03,00,AAXX 13034 41960 01456 80000 10286 20280 30053 40055 72162 8642/ 333 20280 58003 70040 84618 88459==
41960,2024,08,13,06,00,AAXX 13064 41960 11456 61803 10320 20280 30054 40051 60036 70162 84416 333 58004 70040 83618 85459==
41960,2024,08,13,09,00,AAXX 13094 41960 02450 61802 10328 20280 30032 40034 86410 333 58001 70040 84617 83822 86459==
41960,2024,08,13,12,00,AAXX 13124 41960 02456 41802 10300 20260 30027 40029 81530 333 10337 58006 70030 81618 83362==
41960,2024,08,13,15,00,AAXX 13154 41960 02950 00000 10280 20270 30051 40053 333 58009 70030==
41960,2024,08,13,18,00,AAXX 13184 41960 02450 30000 10282 20280 30052 40054 83500 333 58003 70030 83618==
41960,2024,08,13,21,00,AAXX 13214 41960 01440 70000 10275 20275 30046 40048 70366 85410 333 59001 70078 83618 87459==
41960,2024,08,14,00,00,AAXX 14004 41960 11440 50000 10271 20271 30041 40042 60056 70162 85310 333 59004 70078 83618 81930==
41960,2024,08,14,03,00,AAXX 14034 41960 02456 60000 10302 20270 30051 40053 83510 333 20265 59002 70048 83618 86459==
41960,2024,08,14,06,00,AAXX 14064 41960 02456 81802 10326 20280 30042 40044 85410 333 59008 70048 83618 85459==
41960,2024,08,14,09,00,AAXX 14094 41960 01450 51802 10320 20270 30022 40024 70262 84410 333 59010 70049 83618 85459==
41960,2024,08,14,12,00,AAXX 14124 41960 01450 60000 10305 20280 30014 40016 70362 84410 333 10333 59013 70053 83618 86459==
41960,2024,08,14,15,00,AAXX 14154 41960 02450 70000 10289 20280 30043 40045 84410 333 59008 70053 83618 87459==
41960,2024,08,14,18,00,AAXX 14184 41960 02450 80000 10280 20270 30048 40050 8542/ 333 59004 70053 84617 88459==
41960,2024,08,14,21,00,AAXX 14214 41960 02440 80000 10280 20270 30040 40042 8542/ 333 59006 70005 84618 88459==
41960,2024,08,15,00,00,AAXX 15004 41960 01440 80000 10280 20280 30033 40034 71792 8592/ 333 59008 70005 83618 88459 81930==
41960,2024,08,15,03,00,AAXX 15034 41960 01456 61802 10305 20280 30039 40041 70192 85410 333 20275 59012 70005 83618 85459==
41960,2024,08,15,06,00,AAXX 15064 41960 01456 81802 10310 20280 30035 40037 70392 8452/ 333 59007 70005 84618 88459==
41960,2024,08,15,09,00,AAXX 15094 41960 02450 60000 10313 20260 30010 40012 85410 333 59012 70004 83618 86459==
41960,2024,08,15,12,00,AAXX 15124 41960 02450 81801 10292 20260 30010 40012 8352/ 333 10320 59004 70000 83618 88458==
41960,2024,08,15,15,00,AAXX 15154 41960 02450 80000 10280 20270 30031 40033 8542/ 333 59012 70000 83618 88459==
41960,2024,08,15,18,00,AAXX 15184 41960 02450 80000 10280 20270 30032 40034 8542/ 333 59016 70000 84618 88459==
41960,2024,08,15,21,00,AAXX 15214 41960 02440 80000 10272 20270 30025 40026 8542/ 333 59015 70000 83618 88458==
41963,2024,08,09,00,00,AAXX 09004 41963 01340 81802 10265 20265 30058 40061 76162 8372/ 333 58014 70020 82708 83615 88458==
41963,2024,08,09,03,00,AAXX 09034 41963 01450 71801 10280 20260 30082 40085 70162 82510 333 20252 58016 70290 82618 87458==
41963,2024,08,09,06,00,AAXX 09064 41963 01450 71801 10276 20276 30067 40070 72162 82510 333 58004 70330 82618 87458==
41963,2024,08,09,09,00,AAXX 09094 41963 02450 51802 10290 20270 30054 40057 82510 333 58007 70270 82618 85458==
41963,2024,08,09,12,00,AAXX 09124 41963 02450 51801 10280 20260 30047 40050 82510 333 10280 59007 70270 82618 85458==
41963,2024,08,09,15,00,AAXX 09154 41963 01940 01801 10272 20272 30067 40070 70500 333 59002 70270==
41963,2024,08,09,21,00,AAXX 09214 41963 01940 01301 10268 20268 30069 40072 70500 333 59002 70250==
41963,2024,08,10,00,00,AAXX 10004 41963 01440 41801 10280 20270 30060 40083 70520 82510 333 58002 70230 82618 84582==
41963,2024,08,10,03,00,AAXX 10034 41963 01340 81301 10265 20265 30065 40068 76162 8372/ 333 20260 59002 70260 82708 83618 88458==
41963,2024,08,10,06,00,AAXX 10064 41963 21340 81803 10280 20280 30057 40060 76166 8372/ 333 59010 60369 70360 82708 83616 88458==
41963,2024,08,10,09,00,AAXX 10094 41963 01340 81801 10280 20270 30038 40041 76366 8372/ 333 59016 70390 82708 83618 88458==
41963,2024,08,10,12,00,AAXX 10124 41963 21340 81801 10270 20270 30031 40034 70662 8372/ 333 10288 59016 60068 70420 82708 83616 88458==
41963,2024,08,10,15,00,AAXX 10154 41963 01340 80000 10276 20276 30049 40052 70522 8372/ 333 59018 70420 82708 83616 88458==
41963,2024,08,10,21,00,AAXX 10214 41963 01340 81801 10271 20271 30052 40055 70522 8372/ 333 59021 70420 82708 83615 88458==
41963,2024,08,11,00,00,AAXX 11004 41963 01340 81801 10268 20268 30047 40050 76162 8372/ 333 59013 70050 82708 83615 88458==
41963,2024,08,11,03,00,AAXX 11034 41963 01450 61801 10300 20220 30055 40058 70162 82510 333 20260 59010 70042 82618 84558 82618 86458==
41963,2024,08,11,06,00,AAXX 11064 41963 21450 61802 10306 30051 40054 70262 82510 333 59006 60018 70170 82618 86458==
41963,2024,08,11,09,00,AAXX 11094 41963 02450 61801 10310 20280 30032 40034 82510 333 59006 70170 82618 86458==
41963,2024,08,11,12,00,AAXX 11124 41963 01350 81801 10290 20270 30028 40031 70362 8372/ 333 10320 59003 70020 82708 83616 88458==
41963,2024,08,11,15,00,AAXX 11154 41963 02440 61801 10280 20280 30043 40046 82510 333 59006 70130 82618 86458==
41963,2024,08,11,21,00,AAXX 11214 41963 01440 61801 10275 20275 30046 40049 70522 82510 333 59009 70130 82618 86458==
41963,2024,08,12,00,00,AAXX 12004 41963 01440 61801 10272 20270 30037 40040 70522 82510 333 59010 70030 82618 86458==
41963,2024,08,12,03,00,AAXX 12034 41963 02456 51801 10295 20270 30047 40050 82510 333 20264 59008 70020 82618 85458==
41963,2024,08,12,06,00,AAXX 12064 41963 02356 81801 10285 20270 30045 40048 8372/ 333 59006 70020 86180 88458==
41963,2024,08,12,09,00,AAXX 12094 41963 02456 71801 10294 20270 30038 40040 82510 333 59004 70020 82618 87458==
41963,2024,08,12,12,00,AAXX 12124 41963 42450 71801 10310 20270 30033 40036 58005 87458==
41963,2024,08,12,15,00,AAXX 12154 41963 02440 61801 10280 20280 30040 40043 82510 333 59003 70000 82618 86458==
41963,2024,08,12,21,00,AAXX 12214 41963 02440 61801 10275 20275 30044 40046 82510 333 59002 70000 82618 86458==
41963,2024,08,13,00,00,AAXX 13004 41963 01440 61801 10276 20276 30038 40041 70522 82510 333 58001 70000 82618 86458==
41963,2024,08,13,06,00,AAXX 13064 41963 11456 51801 10310 20260 30046 40048 60156 70162 82510 333 58001 70150 82618 85458==
41963,2024,08,13,09,00,AAXX 13094 41963 02456 21801 10316 20270 30036 40038 82500 333 59002 70150 82618==
41963,2024,08,13,12,00,AAXX 13124 41963 02450 21801 10300 20270 30033 40035 82500 333 10330 58000 70150 82618==
41963,2024,08,13,15,00,AAXX 13154 41963 02440 21801 10285 20280 30059 40061 82500 333 58019 70150 82618==
41963,2024,08,13,18,00,AAXX 13184 41963 NIL=
41963,2024,08,13,21,00,AAXX 13214 41963 02440 41801 10280 20260 30058 40061 82510 333 58014 70150 82618 84458==
41963,2024,08,14,00,00,AAXX 14004 41963 01440 51801 10280 20260 30058 40056 70522 82510 333 58015 70150 82618 85458==
41963,2024,08,14,03,00,AAXX 14034 41963 02456 61801 10300 20270 30052 40055 82510 333 20300 58008 70000 82618 86458==
41963,2024,08,14,06,00,AAXX 14064 41963 02456 61801 10312 20280 30040 40042 82510 333 58006 70000 82618 86458==
41963,2024,08,14,09,00,AAXX 14094 41963 02456 31801 10320 20270 30030 40032 82500 333 59006 70000 82618==
41963,2024,08,14,12,00,AAXX 14124 41963 02450 51801 10296 20280 30026 40028 82510 333 10326 59007 70000 82618 85458==
41963,2024,08,14,15,00,AAXX 14154 41963 02/40 40000 10287 20270 30060 40063 84040 333 58001 70000 84363==
41963,2024,08,14,21,00,AAXX 14214 41963 02440 40000 10277 20270 30050 40053 83530 333 59008 70000 83617 83363==
41963,2024,08,15,00,00,AAXX 15004 41963 02457 50000 10280 20260 30043 40046 82540 333 59010 70000 82618 84363==
41963,2024,08,15,03,00,AAXX 15034 41963 02457 21303 10303 20260 30051 40053 82500 333 20273 59001 70000 82618==
41963,2024,08,15,06,00,AAXX 15064 41963 02457 21305 10318 20270 30038 40040 82500 333 59002 70000 82618==
41963,2024,08,15,09,00,AAXX 15094 41963 02457 31304 10313 20270 30022 40024 83400 333 59008 70000 82618==
41963,2024,08,15,12,00,AAXX 15124 41963 02457 60000 10288 20260 30024 40027 83470 333 10324 59002 70000 82618 83459==
41963,2024,08,15,15,00,AAXX 15154 41963 02440 80000 10280 20260 30048 40050 8472/ 333 59012 70000 82712 83616 88458==
41963,2024,08,15,18,00,AAXX 15184 41963 NIL=
41963,2024,08,15,21,00,AAXX 15214 41963 02340 80000 10278 20270 30036 40039 8472/ 333 59014 70000 82712 83616 88458==
41964,2024,08,09,00,00,AAXX 09004 41964 02457 81604 10273 20250 30062 40064 8642/ 333 58018 70048 85618 88460==
41964,2024,08,09,03,00,AAXX 09034 41964 01325 81403 10266 20265 30081 40083 76322 8772/ 333 20257 58015 70136 85708 83616 88458==
41964,2024,08,09,06,00,AAXX 09064 41964 21456 71803 10295 20280 30061 40063 70162 83510 333 59006 60127 70130 83618 86460==
41964,2024,08,09,09,00,AAXX 09094 41964 41456 71903 10295 20270 30064 40066 58020 70164 86460==
41964,2024,08,09,12,00,AAXX 09124 41964 11456 51703 10283 20260 30046 40048 60036 70162 85401 333 10298 59003 70164 84618==
41964,2024,08,09,15,00,AAXX 09154 41964 02456 71602 10272 20260 30066 40068 85410 333 59002 70154 84618 85460==
41964,2024,08,09,18,00,AAXX 09184 41964 02356 81802 10277 20270 30065 40067 8662/ 333 59001 70154 82709 85616 88460==
41964,2024,08,09,21,00,AAXX 09214 41964 02356 81402 10272 20260 30060 40062 8662/ 333 59004 70154 82708 85616 88458==
41964,2024,08,10,00,00,AAXX 10004 41964 01320 81203 10265 20265 30054 40056 76362 8772/ 333 59008 70170 86707 84613 88457==
41964,2024,08,10,03,00,AAXX 10034 41964 01325 81704 10260 20260 30065 40067 79796 8732/ 333 20255 59016 70502 86707 84613 88457 81927==
41964,2024,08,10,06,00,AAXX 10064 41964 21330 81801 10264 20260 30060 40062 59001 71112 88456 333 60919==
41964,2024,08,10,09,00,AAXX 10094 41964 01340 81901 10280 20280 30048 40050 70296 8632/ 333 59016 71142 84707 84616 88458 81928==
41964,2024,08,10,12,00,AAXX 10124 41964 01325 81602 10265 20265 30037 40039 76196 8672/ 333 10287 59009 71198 85707 84615 88457==
41964,2024,08,10,15,00,AAXX 10154 41964 01356 81802 10274 20274 30047 40049 72166 8672/ 333 59019 71878 83708 85616 88460==
41964,2024,08,10,18,00,AAXX 10184 41964 01356 80000 10275 20275 30045 40047 72162 8662/ 333 59020 71888 83708 85616 88458==
41964,2024,08,10,21,00,AAXX 10214 41964 01325 80000 10264 20264 30039 40041 76366 8772/ 333 59021 72098 85707 85613 88457==
41964,2024,08,11,00,00,AAXX 11004 41964 21320 80000 10266 20266 30034 40036 79766 8732/ 333 59020 60479 72188 86707 84613 88457 81928==
41964,2024,08,11,03,00,AAXX 11034 41964 01356 81403 10284 20270 30048 40050 70296 8662/ 333 20253 59017 71920 84709 83617 88459==
41964,2024,08,11,06,00,AAXX 11064 41964 21456 71802 10300 20290 30047 40049 70196 83510 333 59013 60018 71290 83618 86460==
41964,2024,08,11,09,00,AAXX 11094 41964 02456 71401 10300 20280 30035 40037 83510 333 59013 71226 83618 86460==
41964,2024,08,11,12,00,AAXX 11124 41964 02356 81602 10284 20270 30021 40023 8662/ 333 10306 59016 71170 82709 85616 88460==
41964,2024,08,11,15,00,AAXX 11154 41964 02456 81602 10282 20270 30034 40036 8552/ 333 59013 70490 85617 88460==
41964,2024,08,11,18,00,AAXX 11184 41964 02456 70000 10279 20270 30043 40045 85510 333 59002 70480 85617 85460==
41964,2024,08,11,21,00,AAXX 11214 41964 02456 70000 10277 20277 30039 40041 85510 333 58000 70270 85616 86460==
41964,2024,08,12,00,00,AAXX 12004 41964 21456 71802 10280 20270 30037 40039 70162 84510 333 58003 60015 70020 84617 86460==
41964,2024,08,12,03,00,AAXX 12034 41964 01456 72101 10278 20270 30045 40047 72162 84510 333 20265 59003 70032 84617 86459==
41964,2024,08,12,06,00,AAXX 12064 41964 01456 70000 10300 20290 30047 40049 75165 84510 333 58000 70038 84618 86459==
41964,2024,08,12,09,00,AAXX 12094 41964 01456 70000 10282 20270 30033 40035 75166 84510 333 59002 70040 84510 86460==
41964,2024,08,12,12,00,AAXX 12124 41964 21456 81802 10280 20270 30024 40026 70265 8552/ 333 10301 58003 60018 70042 85616 88460==
41964,2024,08,12,15,00,AAXX 12154 41964 02456 60000 10275 20270 30039 40041 82510 333 58005 70042 82618 86460==
41964,2024,08,12,18,00,AAXX 12184 41964 02456 60000 10273 20260 30046 40048 83510 333 58003 70042 83618 86460==
41964,2024,08,12,21,00,AAXX 12214 41964 02456 60000 10268 20260 30045 40047 82510 333 58006 70042 82618 85460==
41964,2024,08,13,00,00,AAXX 13004 41964 02456 70000 10267 20260 30044 40046 82570 333 58007 70032 82618 83460 85362==
41964,2024,08,13,03,00,AAXX 13034 41964 02457 50901 10305 20270 30051 40053 82570 333 20257 58006 70020 82618 83362==
41964,2024,08,13,06,00,AAXX 13064 41964 02457 51803 10320 20260 30049 40051 83510 333 58002 70014 83618 84460==
41964,2024,08,13,09,00,AAXX 13094 41964 42457 51902 10318 20280 30027 40029 59006 84460==
41964,2024,08,13,12,00,AAXX 13124 41964 02457 51502 10297 20270 30025 40028 83430 333 10329 58001 70000 82618 83362==
41964,2024,08,13,15,00,AAXX 13154 41964 02457 30000 10285 20270 30050 40053 83430 333 58011 70000 82618==
41964,2024,08,13,18,00,AAXX 13184 41964 02457 10000 10280 20270 30048 40051 81500 333 58002 70000 81618==
41964,2024,08,13,21,00,AAXX 13214 41964 02456 40000 10274 20260 30044 40047 83530 333 59001 70000 83618==
41964,2024,08,14,00,00,AAXX 14004 41964 02457 41302 10275 20270 30038 40041 83430 333 59006 70000 82618==
41964,2024,08,14,03,00,AAXX 14034 41964 02457 61602 10300 20270 30047 40050 84410 333 20270 59004 70000 83618 83460==
41964,2024,08,14,06,00,AAXX 14064 41964 02457 41802 10323 20260 30045 40048 83510 333 59004 70000 83618 83460==
41964,2024,08,14,09,00,AAXX 14094 41964 42457 41801 10315 20270 30026 40029 59001 83460==
41964,2024,08,14,12,00,AAXX 14124 41964 02457 62103 10298 20270 30019 40021 83432 333 10328 59006 70000 82618 84078==
41964,2024,08,14,15,00,AAXX 14154 41964 02456 61802 10289 20270 30046 40048 85430 333 59004 70000 84618 83362==
41964,2024,08,14,18,00,AAXX 14184 41964 01350 81802 10286 20270 30044 40047 76122 8672/ 333 59004 70002 84708 85617 88460==
41964,2024,08,14,21,00,AAXX 14214 41964 02356 81502 10280 20270 30038 40041 8662/ 333 59006 70002 82709 85617 88460==
41964,2024,08,15,00,00,AAXX 15004 41964 01456 70000 10270 20270 30030 40032 72162 84510 333 59008 70030 84617 87460==
41964,2024,08,15,03,00,AAXX 15034 41964 02457 51202 10300 20270 30038 40041 82530 333 20263 59009 70032 82618 85362==
41964,2024,08,15,06,00,AAXX 15064 41964 02457 51802 10320 20270 30032 40035 83510 333 59013 70032 83618 84460==
41964,2024,08,15,09,00,AAXX 15094 41964 02457 41901 10320 20270 30022 40024 83510 333 59004 70032 83618 84460==
41964,2024,08,15,12,00,AAXX 15124 41964 02457 61603 10292 20260 30010 40012 85412 333 10326 59009 70032 84618 85460==
41964,2024,08,15,15,00,AAXX 15154 41964 01356 70000 10277 20270 30032 40035 70362 86610 333 59014 70036 82709 85617 86460==
41964,2024,08,15,18,00,AAXX 15184 41964 11356 81302 10280 20260 30028 40031 69946 70362 8662/ 333 59016 70034 82708 85616 88460==
41964,2024,08,15,21,00,AAXX 15214 41964 02356 81302 10277 20260 30023 40026 8562/ 333 59015 70034 82709 85617 88458==
41965,2024,08,09,00,00,AAXX 09004 41965 02440 51801 10265 20240 30067 40076 84610 333 58018 70040 83618 84460==
41965,2024,08,09,03,00,AAXX 09034 41965 02430 81403 10280 20230 30085 40094 8461/ 333 20255 58014 70000 83618 88460==
41965,2024,08,09,09,00,AAXX 09094 41965 01440 81803 10280 20230 30053 40062 76166 8461/ 333 58009 70060 81710 83618 88460==
41965,2024,08,09,12,00,AAXX 09124 41965 21440 61402 10278 20240 30047 40056 70262 84610 333 10323 59005 60135 70130 83618 84456==
41965,2024,08,09,21,00,AAXX 09214 41965 02430 60000 10265 20250 30066 40075 84610 333 59010 70130 83618 84460==
41965,2024,08,10,00,00,AAXX 10004 41965 02430 51402 10266 20250 30061 40070 8461/ 333 59006 70130 81710 83618 88460==
41965,2024,08,10,03,00,AAXX 10034 41965 01430 80000 10270 20250 30068 40077 76162 8461/ 333 20260 59017 70200 81710 83618 88456==
41965,2024,08,10,06,00,AAXX 10064 41965 21430 80000 10255 20240 30062 40071 76266 8461/ 333 59002 60799 70920 81710 83618 88456==
41965,2024,08,10,09,00,AAXX 10094 41965 01440 81801 10275 20260 30037 40046 79596 8461/ 333 59016 71710 81710 83618 88456==
41965,2024,08,10,12,00,AAXX 10124 41965 21430 81403 10280 20250 30037 40046 70296 8461/ 333 10276 59010 60858 71640 83618 88460==
41965,2024,08,10,15,00,AAXX 10154 41965 01430 80000 10275 20260 30079 40088 76162 8461/ 333 58009 71710 81710 83618 88456==
41965,2024,08,10,21,00,AAXX 10214 41965 01430 81402 10260 20240 30080 40089 76166 8461/ 333 58014 72170 81710 83618 88456==
41965,2024,08,11,00,00,AAXX 11004 41965 11440 81402 10263 20250 30037 40046 60216 76166 8461/ 333 59024 72170 81710 83618 88460==
41965,2024,08,11,03,00,AAXX 11034 41965 01440 80000 10275 20200 30049 40058 70262 8461/ 333 20253 59019 72170 81710 83618 88456==
41965,2024,08,11,06,00,AAXX 11064 41965 11440 81402 10290 20240 30051 40060 60076 70262 8461/ 333 59011 71450 83618 88460==
41965,2024,08,11,09,00,AAXX 11094 41965 01450 61402 10296 20250 30028 40037 70262 84610 333 59009 70630 83618 84460==
41965,2024,08,11,12,00,AAXX 11124 41965 11440 71801 10279 20240 30023 40032 60036 70262 84610 333 10306 59014 70630 83618 86460==
41965,2024,08,11,18,00,AAXX 11184 41965 02430 60000 10265 20250 30039 40048 84610 333 59041 70310 83618 84460==
41965,2024,08,11,21,00,AAXX 11214 41965 02430 50000 10265 20250 30041 40050 84610 333 59039 70100 83618 84460==
41965,2024,08,12,00,00,AAXX 12004 41965 02440 51402 10272 20250 30043 40052 84610 333 58006 70100 83618 84460==
41965,2024,08,12,03,00,AAXX 12034 41965 02440 80000 10290 20260 30046 40055 8461/ 333 20265 59003 70030 83618 88460==
41965,2024,08,12,06,00,AAXX 12064 41965 01440 80000 10280 20230 30049 40058 70262 8461/ 333 59002 70060 83618 88460==
41965,2024,08,12,09,00,AAXX 12094 41965 01440 81402 10270 20250 30031 40040 76162 8461/ 333 58003 70110 81710 83618 88456==
41965,2024,08,12,12,00,AAXX 12124 41965 11440 81801 10276 20260 30026 40035 60056 70262 8461/ 333 10300 58003 70110 83618 88460==
41965,2024,08,12,21,00,AAXX 12214 41965 02430 60000 10265 20250 30047 40058 84610 333 58006 70110 83618 84460==
41965,2024,08,13,00,00,AAXX 13004 41965 02440 60000 10265 20250 30047 40056 84610 333 58004 70110 83618 84460==
41965,2024,08,13,06,00,AAXX 13064 41965 02456 51302 10314 20250 30066 40055 84610 333 59003 70050 83618 84460==
41965,2024,08,13,09,00,AAXX 13094 41965 02456 31802 10324 20260 30025 40034 83600 333 59006 70000 83618==
41965,2024,08,13,12,00,AAXX 13124 41965 02450 51402 10291 20260 30028 40037 84610 333 10330 58002 70000 83618 84460==
41965,2024,08,13,15,00,AAXX 13154 41965 02440 51801 10280 20250 30051 40060 84610 333 58005 70000 83618 84460==
41965,2024,08,13,18,00,AAXX 13184 41965 NIL=
41965,2024,08,13,21,00,AAXX 13214 41965 02430 30000 10270 20250 30054 40063 83600 333 58007 70000 83618==
41965,2024,08,14,00,00,AAXX 14004 41965 02440 51401 10268 20240 30046 40055 84610 333 59001 70000 83618 84460==
41965,2024,08,14,03,00,AAXX 14034 41965 02456 30000 10310 20250 30050 40059 83600 333 20261 59003 70000 83618==
41965,2024,08,14,06,00,AAXX 14064 41965 02456 31402 10325 20240 30042 40051 83600 333 59004 70000 83618==
41965,2024,08,14,09,00,AAXX 14094 41965 02456 51403 10315 20250 30030 40039 84610 333 58005 70000 83618 84460==
41965,2024,08,14,12,00,AAXX 14124 41965 02450 61801 10289 20240 30024 40033 84610 333 10333 59004 70000 83618 84460==
41965,2024,08,14,15,00,AAXX 14154 41965 02440 30000 10285 20250 30050 40059 83600 333 59001 70000 83618==
41965,2024,08,14,21,00,AAXX 14214 41965 02430 30000 10270 20240 30053 40062 83600 333 59001 70000 83618==
41965,2024,08,15,00,00,AAXX 15004 41965 02440 41402 10265 20250 30036 40045 83600 333 59010 70000 83618==
41965,2024,08,15,03,00,AAXX 15034 41965 02450 30000 10305 20260 30039 40048 83600 333 20260 59011 70000 83618==
41965,2024,08,15,06,00,AAXX 15064 41965 02456 31403 10320 20240 30034 40043 83600 333 59008 70000 83618==
41965,2024,08,15,09,00,AAXX 15094 41965 02456 51402 10316 20260 30009 40018 84610 333 59011 70000 83618 84460==
41965,2024,08,15,12,00,AAXX 15124 41965 02440 72202 10290 20240 30011 40020 84610 333 10325 59013 70000 83618 84660==
41965,2024,08,15,18,00,AAXX 15184 41965 NIL=
41965,2024,08,15,21,00,AAXX 15214 41965 02430 60000 10265 20240 30034 40043 84610 333 59019 70000 83618 84460==
41966,2024,08,09,00,00,AAXX 09004 41966 02440 61301 10260 20250 30003 40082 83510 333 58012 70016 83616 85460==
41966,2024,08,09,03,00,AAXX 09034 41966 01440 71301 10265 20250 30026 40105 72162 83510 333 20252 58023 70005 83616 86460==
41966,2024,08,09,06,00,AAXX 09064 41966 01450 71501 10290 20260 30015 40093 70266 83510 333 58012 70061 83616 86460==
41966,2024,08,09,09,00,AAXX 09094 41966 02450 61601 10305 20250 39992 40070 83510 333 58009 70061 82616 85460==
41966,2024,08,09,12,00,AAXX 09124 41966 01440 71701 10275 20270 39988 40067 72162 83510 333 10310 58005 70040 83616 86460==
41966,2024,08,09,15,00,AAXX 09154 41966 02430 61801 10275 20270 30003 40081 82510 333 58000 70097 82616 85460==
41966,2024,08,09,21,00,AAXX 09214 41966 02420 51701 10265 20260 30002 40080 82510 333 58001 70097 82616 84460==
41966,2024,08,10,00,00,AAXX 10004 41966 02440 51501 10260 20250 39994 40073 82510 333 59009 70097 82616 84460==
41966,2024,08,10,03,00,AAXX 10034 41966 02450 71801 10280 20240 30003 40082 83510 333 20250 59027 70092 83616 86460==
41966,2024,08,10,06,00,AAXX 10064 41966 21450 72101 10305 20270 30000 40078 70262 83510 333 59015 60015 70046 83616 86460==
41966,2024,08,10,09,00,AAXX 10094 41966 01450 51801 10300 20220 39967 40044 70162 82510 333 59026 70046 82616 84460==
41966,2024,08,10,12,00,AAXX 10124 41966 11440 61201 10290 20250 39977 40055 69966 70362 83510 333 10310 59012 70016 83616 85460==
41966,2024,08,10,21,00,AAXX 10214 41966 02420 71201 10265 20260 39986 40065 83510 333 59015 70016 83616 86460==
41966,2024,08,11,00,00,AAXX 11004 41966 01440 71301 10260 20250 39974 40052 72162 83510 333 59021 70060 83616 86460==
41966,2024,08,11,03,00,AAXX 11034 41966 02440 71201 10275 20250 39989 40067 83510 333 20250 59015 70076 83616 86460==
41966,2024,08,11,06,00,AAXX 11064 41966 21350 81802 10290 20280 39989 40067 72162 8372/ 333 59011 60227 70286 82709 83616 88460==
41966,2024,08,11,09,00,AAXX 11094 41966 01350 81501 10272 20250 39967 40046 76162 8472/ 333 58002 70310 82709 83616 88460==
41966,2024,08,11,12,00,AAXX 11124 41966 21440 71801 10275 20260 39966 40044 70166 83510 333 10315 59011 60048 70320 83616 86460==
41966,2024,08,11,15,00,AAXX 11154 41966 02430 61501 10271 20260 39978 40057 83510 333 59005 70320 83616 85460==
41966,2024,08,11,21,00,AAXX 11214 41966 02420 41701 10265 20260 39975 40053 82510 333 59012 70320 82616 83460==
41966,2024,08,12,00,00,AAXX 12004 41966 02440 41201 10260 20250 39983 40062 82510 333 59010 70260 82616 83460==
41966,2024,08,12,03,00,AAXX 12034 41966 02450 41501 10300 20260 39992 40070 82510 333 20253 58003 70260 82616 83460==
41966,2024,08,12,06,00,AAXX 12064 41966 02450 61801 10315 20250 39983 40061 83510 333 59006 70040 83616 85460==
41966,2024,08,12,09,00,AAXX 12094 41966 01450 72101 10280 20250 39973 40052 72162 83510 333 59006 70150 83615 86460==
41966,2024,08,12,12,00,AAXX 12124 41966 01440 61801 10270 20260 39970 40049 70162 83510 333 10320 58005 70150 83616 85460==
41966,2024,08,12,15,00,AAXX 12154 41966 02430 61501 10270 20260 39987 40066 83510 333 58009 70150 83616 85460==
41966,2024,08,12,21,00,AAXX 12214 41966 02420 51801 10263 20250 39984 40063 82510 333 58010 70150 82616 84460==
41966,2024,08,13,00,00,AAXX 13004 41966 02440 51601 10256 20250 39986 40065 83510 333 58003 70150 83616 84460==
41966,2024,08,13,03,00,AAXX 13034 41966 02450 41701 10290 20250 39994 40072 82510 333 20250 58002 70150 82616 83460==
41966,2024,08,13,09,00,AAXX 13094 41966 02550 41501 10325 20250 39960 40037 82130 333 59015 70010 82826 83362==
41966,2024,08,13,12,00,AAXX 13124 41966 02540 41601 10296 20250 39964 40041 82130 333 10330 59008 70000 82826 83362==
41966,2024,08,13,15,00,AAXX 13154 41966 02530 41501 10285 20270 39981 40059 82130 333 59007 70000 82826 83362==
41966,2024,08,13,18,00,AAXX 13184 41966 NIL=
41966,2024,08,13,21,00,AAXX 13214 41966 02420 61701 10275 20270 39981 40060 83510 333 59003 70000 83616 85460==
41966,2024,08,14,00,00,AAXX 14004 41966 02440 61301 10267 20260 39979 40058 83510 333 59007 70000 83616 85460==
41966,2024,08,14,03,00,AAXX 14034 41966 02450 31801 10310 20240 39987 40065 81510 333 20258 59007 70000 81616 83460==
41966,2024,08,14,06,00,AAXX 14064 41966 02450 41501 10330 20230 39979 40056 82510 333 59007 70000 82616 83460==
41966,2024,08,14,09,00,AAXX 14094 41966 02550 41601 10340 20240 39954 40030 82130 333 59007 70000 82826 83362==
41966,2024,08,14,12,00,AAXX 14124 41966 02440 71501 10300 20270 39964 40042 83510 333 10345 58001 70000 83616 86460==
41966,2024,08,14,21,00,AAXX 14214 41966 02420 51501 10265 20260 39976 40055 82510 333 59005 70240 82616 84460==
41966,2024,08,15,00,00,AAXX 15004 41966 02440 51201 10260 20250 39974 40053 82510 333 59005 70240 82616 84460==
41966,2024,08,15,03,00,AAXX 15034 41966 02550 51801 10300 20250 39976 40054 82130 333 20250 59011 70240 82836 84362==
41966,2024,08,15,06,00,AAXX 15064 41966 02550 51701 10320 20240 39966 40043 82130 333 59013 70240 82826 84362==
41966,2024,08,15,09,00,AAXX 15094 41966 02450 71801 10310 20270 39947 40024 83510 333 59006 70240 83616 86460==
41966,2024,08,15,12,00,AAXX 15124 41966 21440 71702 10285 20260 39944 40022 70262 83510 333 10325 59020 60015 70250 83616 86460==
41966,2024,08,15,15,00,AAXX 15154 41966 02430 51601 10280 20260 39970 40048 82510 333 59006 70010 82616 84460==
41966,2024,08,15,18,00,AAXX 15184 41966 NIL=
41966,2024,08,15,21,00,AAXX 15214 41966 02420 62101 10265 20260 39971 40049 82510 333 59006 70010 83616 85460==
41977,2024,08,09,00,00,AAXX 09004 41977 01450 81303 10262 20250 30057 40095 7452/ 333 58021 70042 84616 85458==
41977,2024,08,09,03,00,AAXX 09034 41977 01330 81802 10260 20260 30077 40115 76362 8672/ 333 20255 58019 70050 84707 88458==
41977,2024,08,09,06,00,AAXX 09064 41977 21456 71803 10292 20260 30066 40104 70162 83570 333 58016 60079 70074 83618 86459==
41977,2024,08,09,09,00,AAXX 09094 41977 02456 71803 10300 20260 30039 40076 85640 333 58010 70074 82709 84616 86459==
41977,2024,08,09,12,00,AAXX 09124 41977 01450 72602 10285 20260 30037 40075 70262 83570 333 10315 59001 70108 83618 86459==
41977,2024,08,09,15,00,AAXX 09154 41977 02456 20000 10271 20260 30053 40091 82500 333 59009 70108 82618==
41977,2024,08,09,18,00,AAXX 09184 41977 02456 70000 10268 20260 30051 40089 84510 333 59008 70108 84618 86460==
41977,2024,08,09,21,00,AAXX 09214 41977 02456 70000 10263 20250 30039 40077 84510 333 59012 70108 84618 87460==
41977,2024,08,10,00,00,AAXX 10004 41977 02456 70000 10269 20260 30042 40080 84510 333 59015 70108 84618 87460==
41977,2024,08,10,03,00,AAXX 10034 41977 01330 80000 10272 20270 30055 40093 79596 8692/ 333 20260 59022 70094 83707 88458 81928==
41977,2024,08,10,06,00,AAXX 10064 41977 21356 81302 10285 20280 30048 40086 70296 8562/ 333 59018 60059 70084 81710 85616 88458==
41977,2024,08,10,09,00,AAXX 10094 41977 02456 72302 10300 20270 30031 40069 84510 333 59008 70084 84618 87460==
41977,2024,08,10,12,00,AAXX 10124 41977 02456 81803 10294 20260 30019 40057 84510 333 10310 59018 70050 84618 87460==
41977,2024,08,10,15,00,AAXX 10154 41977 02450 61704 10278 20250 30039 40077 83530 333 59014 70050 83618 86362==
41977,2024,08,10,18,00,AAXX 10184 41977 01440 81803 10272 20260 30038 40076 7452/ 333 58013 70002 84615 88458==
41977,2024,08,10,21,00,AAXX 10214 41977 01330 81504 10264 20250 30022 40060 79596 8692/ 333 59017 70172 83708 84615 88458 81928==
41977,2024,08,11,00,00,AAXX 11004 41977 01440 70000 10265 20260 30027 40065 70196 84570 333 59015 70216 84617 85460==
41977,2024,08,11,03,00,AAXX 11034 41977 01415 80000 10265 20265 30038 40076 76366 8472/ 333 20258 59017 70616 84709 88458==
41977,2024,08,11,06,00,AAXX 11064 41977 21425 80000 10278 20278 30034 40072 76166 8472/ 333 59014 60549 70702 84708 88458==
41977,2024,08,11,12,00,AAXX 11124 41977 21440 70000 10280 20270 30010 40048 76262 84570 333 10288 59009 60078 70765 84617 85460==
41977,2024,08,11,15,00,AAXX 11154 41977 02456 70000 10273 20270 30028 40066 83570 333 59011 70767 83618 85460==
41977,2024,08,11,18,00,AAXX 11184 41977 02450 70904 10270 20250 30038 40076 84570 333 58000 70760 84617 85460==
41977,2024,08,11,21,00,AAXX 11214 41977 02450 71505 10268 20260 30028 40066 84570 333 58006 70645 84617 85460==
41977,2024,08,12,00,00,AAXX 12004 41977 02450 81804 10268 20268 30030 40068 8452/ 333 58003 70601 84615 88458==
41977,2024,08,12,03,00,AAXX 12034 41977 02356 80000 10297 20270 30036 40074 8562/ 333 20263 59002 70161 81710 85616 88458==
41977,2024,08,12,06,00,AAXX 12064 41977 01330 82304 10270 20270 30035 40073 76362 8672/ 333 58001 70020 84707 88458==
41977,2024,08,12,09,00,AAXX 12094 41977 01330 82202 10268 20260 30020 40058 76366 8672/ 333 58001 70086 84708 88458==
41977,2024,08,12,12,00,AAXX 12124 41977 21330 80000 10277 20270 30013 40051 76162 8562/ 333 10305 58003 60078 70096 81710 85616 88458==
41977,2024,08,12,15,00,AAXX 12154 41977 02450 80000 10269 20260 30031 40069 8452/ 333 58003 70096 84616 88460==
41977,2024,08,12,18,00,AAXX 12184 41977 02456 30000 10266 20266 30041 40079 83500 333 58003 70096 83618==
41977,2024,08,13,00,00,AAXX 13004 41977 01456 70000 10268 20268 30032 40070 74510 333 58002 70096 84618 87460==
41977,2024,08,13,06,00,AAXX 13064 41977 02356 81802 10298 20270 30037 40075 8562/ 333 58002 70072 81710 85616 88458==
41977,2024,08,13,09,00,AAXX 13094 41977 01456 52702 10317 20270 30012 40050 70162 84530 333 59008 70030 84616 85363==
41977,2024,08,13,15,00,AAXX 13154 41977 02456 70000 10288 20260 30040 40077 84570 333 58009 70010 84617 86459==
41977,2024,08,13,18,00,AAXX 13184 41977 01450 81703 10280 20260 30042 40080 72162 8452/ 333 58001 70006 84615 88458==
41977,2024,08,13,21,00,AAXX 13214 41977 02450 70000 10274 20260 30028 40066 84570 333 58001 70016 84617 85460==
41977,2024,08,14,00,00,AAXX 14004 41977 01450 71302 10270 20260 30033 40071 74570 333 58001 75460==
41977,2024,08,14,03,00,AAXX 14034 41977 02456 60000 10301 20260 30033 40071 83530 333 20264 59010 70016 83618 85362==
41977,2024,08,14,06,00,AAXX 14064 41977 02456 40000 10317 20270 30029 40067 84400 333 59008 70016 83618==
41977,2024,08,14,09,00,AAXX 14094 41977 02456 42602 10322 20270 30001 40039 84400 333 59011 70006 83618==
41977,2024,08,14,12,00,AAXX 14124 41977 02450 61802 10294 20260 30009 40046 83530 333 10330 59007 70006 83618 85362==
41977,2024,08,14,15,00,AAXX 14154 41977 41350 80000 10288 20270 30037 40074 75122 8572/ 333 59003 82709 85615 88458==
41977,2024,08,14,18,00,AAXX 14184 41977 21350 61803 10278 20260 30036 40074 70152 83530 333 59006 60005 83618 86362==
41977,2024,08,14,21,00,AAXX 14214 41977 42450 61302 10268 20260 30020 40058 83531 333 59008 83618 85362==
41977,2024,08,15,00,00,AAXX 15004 41977 42450 70000 10268 20260 30024 40062 83531 333 59009 83618 86362==
41977,2024,08,15,03,00,AAXX 15034 41977 42456 50000 10315 20270 30027 40065 81530 333 20265 59006 81618 85363==
41977,2024,08,15,06,00,AAXX 15064 41977 42456 51803 10327 20270 30016 40053 82430 333 58013 82617 85363==
41977,2024,08,15,09,00,AAXX 15094 41977 42456 72203 10310 20260 39995 40033 84570 333 59006 84617 86460==
41977,2024,08,15,12,00,AAXX 15124 41977 42350 81802 10288 20270 30000 40038 8572/ 333 10330 59009 82709 85615 88458==
41977,2024,08,15,15,00,AAXX 15154 41977 02456 60000 10278 20260 30023 40060 83510 333 59014 70000 83618 86460==
41977,2024,08,15,18,00,AAXX 15184 41977 02456 71802 10271 20260 30014 40051 84510 333 59022 70000 84618 87460==
41977,2024,08,15,21,00,AAXX 15214 41977 02456 70000 10266 20260 30002 40040 84510 333 59018 70000 84618 87460==
41978,2024,08,09,00,00,AAXX 09004 41978 02457 60605 10261 20250 30072 40078 84320 333 58020 70069 83616 86460 81928==
41978,2024,08,09,03,00,AAXX 09034 41978 01314 81808 10260 20260 30093 40099 76362 8632/ 333 20255 58015 70210 85709 88458 81920==
41978,2024,08,09,06,00,AAXX 09064 41978 21439 71506 10293 20250 30078 40086 70162 83870 333 58008 60199 70209 83618 85460==
41978,2024,08,09,09,00,AAXX 09094 41978 01450 82118 10294 20260 30060 40066 76122 8432/ 333 58012 70210 83614 88458 81928==
41978,2024,08,09,12,00,AAXX 09124 41978 21458 62012 10287 20260 30051 40057 70162 83420 333 10316 59006 60015 70220 83617 85460==
41978,2024,08,09,15,00,AAXX 09154 41978 02458 61604 10276 20260 30071 40077 333 59008 70200 83617 85460==
41978,2024,08,09,18,00,AAXX 09184 41978 02458 61504 10273 20250 30072 40078 82420 333 46990 59001 70200 83617 85460==
41978,2024,08,09,21,00,AAXX 09214 41978 02458 61504 10265 20260 30064 40070 83520 333 59006 70200 83617 85460==
41978,2024,08,10,00,00,AAXX 10004 41978 02458 71505 10270 20250 30060 40066 84320 333 59012 70200 84617 87460 81929==
41978,2024,08,10,03,00,AAXX 10034 41978 01450 81407 10276 20260 30068 40075 79596 8432/ 333 10255 59025 70069 83614 88459 81928==
41978,2024,08,10,06,00,AAXX 10064 41978 21450 81708 10284 20260 30064 40071 79596 8432/ 333 59016 60029 70075 83614 88459 81928==
41978,2024,08,10,09,00,AAXX 10094 41978 01458 61809 10300 20270 30043 70196 83832 333 59017 70043 83618 83363==
41978,2024,08,10,12,00,AAXX 10124 41978 11558 71608 10292 20260 30039 40046 69966 70396 82332 333 10304 59012 70032 82620 86080 81930==
41978,2024,08,10,15,00,AAXX 10154 41978 02456 71704 10280 20260 30054 40060 84320 333 59017 70032 83618 87460 81930==
41978,2024,08,10,18,00,AAXX 10184 41978 02456 71506 10275 20270 30053 40060 84320 333 59019 70032 83616 87460 81928==
41978,2024,08,10,21,00,AAXX 10214 41978 01450 71404 10270 20260 30044 40050 72166 84320 333 59020 70090 83616 87460 81928==
41978,2024,08,11,00,00,AAXX 11004 41978 21456 71103 10266 20260 30039 40046 70162 84320 333 59021 60068 70090 83616 87460 81928==
41978,2024,08,11,03,00,AAXX 11034 41978 01325 81603 10263 20263 30059 40065 76166 8432/ 333 20261 59009 70384 83708 88458 81926==
41978,2024,08,11,06,00,AAXX 11064 41978 21450 81606 10288 20270 30054 40061 76166 8432/ 333 59010 60349 70408 83615 88459 81928==
41978,2024,08,11,09,00,AAXX 11094 41978 01456 81308 10276 20260 30035 40042 76162 8432/ 333 59008 70042 83614 88459 81928==
41978,2024,08,11,12,00,AAXX 11124 41978 01456 81405 10284 20260 30022 40029 70362 8432/ 333 10293 70413 83614 88459 81928==
41978,2024,08,11,15,00,AAXX 11154 41978 02457 61606 10277 20260 30042 40049 84910 333 59012 70413 83618 85460 81930==
41978,2024,08,11,18,00,AAXX 11184 41978 02457 71606 10273 20260 30052 40059 84320 333 59001 70413 83618 87460 81930==
41978,2024,08,11,21,00,AAXX 11214 41978 02457 81606 10272 20260 30044 40051 8432/ 333 58000 70355 83616 88460 81930==
41978,2024,08,12,00,00,AAXX 12004 41978 02457 81608 10270 20260 30046 40053 8432/ 333 58007 70355 83616 88460 81930==
41978,2024,08,12,03,00,AAXX 12034 41978 02456 71606 10308 20270 30054 40060 84320 333 20263 59005 70041 83618 87460 81930==
41978,2024,08,12,06,00,AAXX 12064 41978 02450 82512 10288 20260 30053 40059 8432/ 333 59001 70011 83616 88460 81928==
41978,2024,08,12,09,00,AAXX 12094 41978 01350 81703 10264 20250 30039 40046 76166 8432/ 333 58004 70411 82708 88458 81926==
41978,2024,08,12,12,00,AAXX 12124 41978 21457 61404 10280 20260 30028 40035 70164 8432/ 333 10321 58006 60448 70442 83618 86460 81930==
41978,2024,08,12,15,00,AAXX 12154 41978 02457 71005 10271 20260 30050 40056 83320 333 58007 70442 83616 87460 81929==
41978,2024,08,12,18,00,AAXX 12184 41978 02457 71305 10269 20260 30052 40059 83320 333 58000 70442 83616 87460 81929==
41978,2024,08,12,21,00,AAXX 12214 41978 02457 71205 10267 20260 30047 40054 84320 333 58003 70442 83616 87460 81929==
41978,2024,08,13,00,00,AAXX 13004 41978 02456 81503 10264 20250 30050 40056 8432/ 333 58009 70442 83616 87460 81929==
41978,2024,08,13,03,00,AAXX 13034 41978 02450 71604 10288 20270 30059 40066 84320 333 20262 58005 70442 83616 87460 81928==
41978,2024,08,13,06,00,AAXX 13064 41978 02456 72309 10305 20260 30052 40058 84320 333 59001 70442 83618 86460 81930==
41978,2024,08,13,09,00,AAXX 13094 41978 02457 62307 10312 20260 30030 40036 83520 333 59009 70032 83618 85460==
41978,2024,08,13,12,00,AAXX 13124 41978 02457 71810 10302 20270 30032 40038 84320 333 10320 58004 70000 84617 86460 81929==
41978,2024,08,13,15,00,AAXX 13154 41978 02457 72104 10288 20270 30057 40063 84320 333 58007 70000 83616 86460 81929==
41978,2024,08,13,18,00,AAXX 13184 41978 01457 61205 10282 20260 30056 40062 72162 83520 333 58404 70010 83616 86460==
41978,2024,08,13,21,00,AAXX 13214 41978 02457 61303 10278 20260 30044 40050 83530 333 59003 70010 83616 86460==
41978,2024,08,14,00,00,AAXX 14004 41978 02457 51103 10267 20260 30048 40054 83520 333 59002 70010 83616 85460==
41978,2024,08,14,03,00,AAXX 14034 41978 02458 41707 10300 20260 30051 40057 84839 333 20264 59008 70010 83618==
41978,2024,08,14,06,00,AAXX 14064 41978 02560 42110 10320 20270 30047 40053 83940 333 59005 70010 83620 81930==
41978,2024,08,14,09,00,AAXX 14094 41978 02459 42208 10317 20270 30028 40034 82530 333 59002 70010 82618 83362==
41978,2024,08,14,12,00,AAXX 14124 41978 02459 61811 10292 20260 30026 40032 83330 333 10322 59006 70010 83617 85362 81929==
41978,2024,08,14,15,00,AAXX 14154 41978 02459 62107 10290 20270 30054 40060 83520 333 59003 70010 83617 85460==
41978,2024,08,14,18,00,AAXX 14184 41978 02459 61605 10282 20260 30052 40058 83520 333 59004 70000 83617 85460==
41978,2024,08,14,21,00,AAXX 14214 41978 02459 61605 10275 20270 30046 40052 83520 333 58002 70000 83617 85460==
41978,2024,08,15,00,00,AAXX 15004 41978 02459 61004 10265 20260 30040 40046 82510 333 59008 70000 82618 85460==
41978,2024,08,15,03,00,AAXX 15034 41978 02459 61505 10298 20270 30042 40048 82502 333 20263 59009 70000 82618 86080==
41978,2024,08,15,06,00,AAXX 15064 41978 02459 62009 10318 20270 30032 40038 82502 333 59015 70000 82618 86080==
41978,2024,08,15,09,00,AAXX 15094 41978 02460 52110 10308 20270 30013 40019 85801 333 59015 70000 83618 83822==
41978,2024,08,15,12,00,AAXX 15124 41978 01459 72110 10290 20260 30017 40024 72111 85370 333 10325 59009 70000 82710 83615 85460 81925==
41978,2024,08,15,15,00,AAXX 15154 41978 42456 41504 10280 20260 30040 40046 82530 333 59014 82618 83362==
41978,2024,08,15,18,00,AAXX 15184 41978 42556 21803 10272 20250 30030 40036 82100 333 59022 82826==
41978,2024,08,15,21,00,AAXX 15214 41978 42456 61704 10270 20260 30025 40031 83520 333 59021 83618 86460==
41980,2024,08,09,00,00,AAXX 09004 41980 32450 80000 10250 20240 39971 40084 8462/ 333 56999 58013 70000 81710 83616 88458=
41980,2024,08,09,12,00,AAXX 09124 41980 32450 60000 10272 20240 39955 40067 83510 333 10304 56990 59005 70070 83647 83458=
41980,2024,08,10,00,00,AAXX 10004 41980 32450 60000 10261 20250 39960 48872 83510 333 56990 59011 70000 83617 82458=
41980,2024,08,10,06,00,AAXX 10064 41980 NIL=
41980,2024,08,10,12,00,AAXX 10124 41980 32450 30000 10272 20230 39954 40066 82510 333 10315 56990 59001 70020 82617=
41980,2024,08,11,00,00,AAXX 11004 41980 11340 60000 10258 20250 39944 40056 60145 70362 83510 333 56990 59016 70160 83617 83458=
41980,2024,08,11,06,00,AAXX 11064 41980 NIL=
41980,2024,08,11,12,00,AAXX 11124 41980 32450 60000 10276 20260 39928 40039 60056 83510 333 10298 56990 59026 70034 83617 83458=
41980,2024,08,12,00,00,AAXX 12004 41980 32450 60000 10266 20260 39949 40063 83510 333 56990 58005 70200 83617 83458=
41980,2024,08,12,12,00,AAXX 12124 41980 11340 80000 10258 20250 39934 40046 60237 70262 8462/ 333 10307 56999 58006 70230 81708 83617 88458=
41980,2024,08,13,00,00,AAXX 13004 41980 NIL=
41980,2024,08,13,18,00,AAXX 13184 41980 NIL=
41980,2024,08,14,00,00,AAXX 14004 41980 32450 60000 10256 20250 39948 40060 83510 333 56990 59001 70240 83617 83450=
41980,2024,08,14,06,00,AAXX 14064 41980 NIL=
41980,2024,08,14,12,00,AAXX 14124 41980 11340 80000 10275 20270 39924 40035 60084 76162 8472/ 333 10332 56999 59022 70080 82708 83617 88458=
41980,2024,08,15,00,00,AAXX 15004 41980 32450 60000 10253 20240 39940 40053 60026 70162 83510 333 56990 59008 70100 83617 83458=
41980,2024,08,15,06,00,AAXX 15064 41980 NIL=
41980,2024,08,15,12,00,AAXX 15124 41980 32450 60000 10276 20260 39919 40030 83510 333 10325 56990 59005 70020 83617 83458=
41980,2024,08,15,18,00,AAXX 15184 41980 NIL=
41984,2024,08,09,00,00,AAXX 09004 41984 21340 82303 10266 20266 30048 40050 76166 8672/ 333 58016 60239 70430 83708 84614 88458==
41984,2024,08,09,03,00,AAXX 09034 41984 01340 80000 10268 20268 30067 40069 76166 8672/ 333 20253 58016 70430 83708 84614 88458==
41984,2024,08,09,06,00,AAXX 09064 41984 21440 80000 10295 20280 30059 40061 76166 8542/ 333 58012 60079 70430 84616 88459==
41984,2024,08,09,15,00,AAXX 09154 41984 02440 80000 10282 20270 30049 40051 8352/ 333 59005 70340 83618 88458==
41984,2024,08,09,18,00,AAXX 09184 41984 01440 80000 10280 20260 30054 40056 70262 8352/ 333 58000 70020 83618 88458==
41984,2024,08,09,21,00,AAXX 09214 41984 02430 80000 10280 20260 30046 40048 8542/ 333 59005 70230 84616 88459==
41984,2024,08,10,00,00,AAXX 10004 41984 02435 82304 10280 20260 30042 40044 8672/ 333 58006 70100 83708 84616 88459==
41984,2024,08,10,06,00,AAXX 10064 41984 21450 82108 10300 20270 30045 40047 76166 8672/ 333 59014 60069 70060 83708 84616 88459==
41984,2024,08,10,12,00,AAXX 10124 41984 NIL=
41984,2024,08,10,15,00,AAXX 10154 41984 02440 80000 10280 20270 30043 40045 8352/ 333 59006 70060 83618 88458==
41984,2024,08,10,18,00,AAXX 10184 41984 02440 80000 10280 20270 30039 40041 8352/ 333 59015 70040 83618 88458==
41984,2024,08,10,21,00,AAXX 10214 41984 02430 80000 10280 20270 30033 40035 8542/ 333 59013 70040 84616 88459==
41984,2024,08,11,00,00,AAXX 11004 41984 02440 60000 10280 20270 30027 40029 85410 333 59016 70040 84616 86459==
41984,2024,08,11,03,00,AAXX 11034 41984 02450 82302 10303 20270 30041 40043 8542/ 333 20268 59011 70020 84616 88459==
41984,2024,08,11,06,00,AAXX 11064 41984 01440 80000 10280 20270 30040 40042 76122 8452/ 333 59005 70060 84614 88459==
41984,2024,08,11,09,00,AAXX 11094 41984 02450 80000 10311 20260 30021 40023 8353/ 333 59006 70060 83618 88458==
41984,2024,08,11,12,00,AAXX 11124 41984 02450 80000 10300 20270 30011 40013 8352/ 333 10321 59010 70060 83618 88458==
41984,2024,08,11,15,00,AAXX 11154 41984 02440 80000 10286 20280 30026 40028 8352/ 333 59017 70060 83618 88458==
41984,2024,08,11,18,00,AAXX 11184 41984 02440 80000 10286 20280 30033 40035 8352/ 333 59006 70060 83618 88458==
41984,2024,08,11,21,00,AAXX 11214 41984 01420 80000 10268 20268 30036 40038 79566 8692/ 333 58003 70580 84614 88458 82930==
41984,2024,08,12,00,00,AAXX 12004 41984 21440 80000 10268 20268 30034 40036 76196 8542/ 333 58007 60929 70980 84616 88458==
41984,2024,08,12,03,00,AAXX 12034 41984 01340 80000 10282 20280 30042 40044 76166 8672/ 333 20260 58001 70990 83708 84616 88458==
41984,2024,08,12,06,00,AAXX 12064 41984 21450 81802 10310 20290 30037 40039 76166 8452/ 333 59003 60029 70940 84616 88459==
41984,2024,08,12,12,00,AAXX 12124 41984 NIL=
41984,2024,08,12,15,00,AAXX 12154 41984 02440 80000 10286 20280 30032 40034 8352/ 333 58006 70940 83618 88458==
41984,2024,08,12,18,00,AAXX 12184 41984 02440 80000 10283 20280 30037 40039 8352/ 333 58004 70940 83618 88458==
41984,2024,08,12,21,00,AAXX 12214 41984 02430 80000 10282 20280 30035 40037 8542/ 333 59001 70420 84616 88459==
41984,2024,08,13,00,00,AAXX 13004 41984 01430 80000 10280 20280 30033 40035 76122 8542/ 333 59001 70010 84616 88459==
41984,2024,08,13,03,00,AAXX 13034 41984 01440 80000 10285 20280 30046 40048 76166 8542/ 333 20275 58004 70100 84616 88459==
41984,2024,08,13,06,00,AAXX 13064 41984 21456 60000 10318 20280 30040 40042 70166 85410 333 58003 60099 70100 84616 86459==
41984,2024,08,13,12,00,AAXX 13124 41984 02456 80000 10296 20280 30017 40019 8352/ 333 10335 58007 70010 82618 88458==
41984,2024,08,13,15,00,AAXX 13154 41984 02440 80000 10284 20270 30042 40044 8352/ 333 58010 70100 83618 88458==
41984,2024,08,13,18,00,AAXX 13184 41984 21340 80000 10262 20260 30046 40048 76162 8672/ 333 58009 60157 70250 82707 84616 88456==
41984,2024,08,14,00,00,AAXX 14004 41984 NIL=
41984,2024,08,14,03,00,AAXX 14034 41984 02340 80000 10275 20270 30044 40046 8672/ 333 20260 59002 70710 83708 84616 88458==
41984,2024,08,14,06,00,AAXX 14064 41984 NIL=
41984,2024,08,14,12,00,AAXX 14124 41984 02450 80000 10295 20280 30004 40006 8352/ 333 10325 59013 70710 83618 88458==
41984,2024,08,14,15,00,AAXX 14154 41984 02440 80000 10281 20260 30035 40037 8352/ 333 59007 70710 83618 88458==
41984,2024,08,14,18,00,AAXX 14184 41984 02440 80000 10280 20260 30036 40038 8352/ 333 59010 70560 83618 88458==
41984,2024,08,14,21,00,AAXX 14214 41984 02430 80000 10280 20260 30027 40029 8542/ 333 59012 70230 84618 88450==
41984,2024,08,15,00,00,AAXX 15004 41984 02440 80000 10280 20260 30021 40023 8532/ 333 59012 70030 84618 88459 81930==
41984,2024,08,15,03,00,AAXX 15034 41984 01330 80000 10270 20260 30032 40034 79596 8592/ 333 20268 59012 70030 84616 88458 81930==
41984,2024,08,15,06,00,AAXX 15064 41984 21330 81802 10281 20270 30024 40026 76196 8672/ 333 59005 60109 70100 82708 84614 88458==
41984,2024,08,15,12,00,AAXX 15124 41984 NIL=
41984,2024,08,15,18,00,AAXX 15184 41984 NIL=
41984,2024,08,15,21,00,AAXX 15214 41984 01420 80000 10266 20266 30009 40011 76166 8452/ 333 59018 70190 84616 88458==
41989,2024,08,09,00,00,AAXX 09004 41989 NIL=
41989,2024,08,09,21,00,AAXX 09214 41989 02440 61803 10263 20240 30066 40069 83530 333 59003 70240 83618 84362==
41989,2024,08,10,00,00,AAXX 10004 41989 02440 51804 10270 20250 30068 40071 83530 333 58010 70140 82618 84362==
41989,2024,08,10,03,00,AAXX 10034 41989 02450 51803 10280 20250 30081 40084 83530 333 20250 58004 70080 83618 83362==
41989,2024,08,10,06,00,AAXX 10064 41989 02456 61703 10301 20270 30057 40060 82570 333 59022 70010 82618 84460==
41989,2024,08,10,12,00,AAXX 10124 41989 02440 51403 10288 20260 30041 40044 83530 333 10308 59006 70000 83618 83362==
41989,2024,08,10,21,00,AAXX 10214 41989 01330 81404 10272 20260 30055 40058 72162 8572/ 333 59011 70260 82710 83614 88456==
41989,2024,08,11,00,00,AAXX 11004 41989 01320 81305 10268 20270 30045 40048 76362 8572/ 333 59023 70300 82708 83614 88456==
41989,2024,08,11,06,00,AAXX 11064 41989 01330 81303 10270 20260 30057 40060 76162 8572/ 333 58000 71060 82708 83614 88456==
41989,2024,08,11,09,00,AAXX 11094 41989 02450 51805 10286 20280 30041 40045 82570 333 59002 71060 82618 83362==
41989,2024,08,11,12,00,AAXX 11124 41989 02456 31304 10284 20260 30033 40036 83500 333 10292 59005 71060 83618==
41989,2024,08,11,15,00,AAXX 11154 41989 02450 51803 10270 20250 30053 40056 83530 333 58001 71060 83618 84362==
41989,2024,08,12,00,00,AAXX 12004 41989 NIL=
41989,2024,08,12,03,00,AAXX 12034 41989 01450 51803 10288 20250 30063 40066 70262 83530 333 20253 58006 70070 83618 83362==
41989,2024,08,12,06,00,AAXX 12064 41989 11450 51703 10295 20250 30059 40062 60016 70262 83530 333 58002 70010 83618 83362==
41989,2024,08,12,09,00,AAXX 12094 41989 02450 61403 10288 20260 30045 40048 83530 333 58004 70010 83618 83362==
41989,2024,08,12,12,00,AAXX 12124 41989 21450 61804 10285 20270 30041 40044 70262 83530 333 10301 58006 60015 70020 83618 84362==
41989,2024,08,12,15,00,AAXX 12154 41989 02440 51803 10275 20250 30059 40062 83530 333 58006 70020 82618 84362==
41989,2024,08,12,18,00,AAXX 12184 41989 02440 41804 10270 20250 30069 40072 82530 333 58014 70020 82618 83362==
41989,2024,08,13,00,00,AAXX 13004 41989 01440 51803 10265 20260 30059 40062 72122 84470 333 58005 70020 83618 84460==
41989,2024,08,13,03,00,AAXX 13034 41989 02450 51803 10280 20250 30069 40073 83530 333 20250 58006 70030 83618 83362==
41989,2024,08,13,09,00,AAXX 13094 41989 02450 51803 10318 20260 30035 40039 82530 333 59010 70030 82618 84362==
41989,2024,08,13,12,00,AAXX 13124 41989 02440 51504 10292 20260 30032 40036 83530 333 10325 59009 70020 83618 84362==
41989,2024,08,13,15,00,AAXX 13154 41989 02440 41403 10280 20260 30060 40064 83530 333 58001 70020 83618 83362==
41989,2024,08,13,18,00,AAXX 13184 41989 NIL=
41989,2024,08,14,00,00,AAXX 14004 41989 NIL=
41989,2024,08,14,03,00,AAXX 14034 41989 02450 31402 10292 20240 30058 40062 83500 333 20255 59013 70000 83618==
41989,2024,08,14,06,00,AAXX 14064 41989 02450 51804 10305 20260 30050 40054 82530 333 59015 70000 82618 84362==
41989,2024,08,14,09,00,AAXX 14094 41989 02450 51402 10318 20270 30039 40043 83530 333 58004 70000 83618 83362==
41989,2024,08,14,12,00,AAXX 14124 41989 02450 61809 10290 20260 30033 40037 83570 333 10325 58004 70000 83618 84460==
41989,2024,08,14,21,00,AAXX 14214 41989 02440 51704 10278 20240 30047 40050 83530 333 59005 70000 83618 83362==
41989,2024,08,15,00,00,AAXX 15004 41989 02450 51403 10270 20250 30043 40046 83500 333 59005 70000 83618==
41989,2024,08,15,03,00,AAXX 15034 41989 02450 41803 10295 20240 30055 40059 83500 333 20259 59003 70000 84618==
41989,2024,08,15,06,00,AAXX 15064 41989 NIL=
41989,2024,08,15,09,00,AAXX 15094 41989 02450 31404 10320 20260 30057 40060 83500 333 58007 70000 83618==
41989,2024,08,15,12,00,AAXX 15124 41989 NIL=
41989,2024,08,15,18,00,AAXX 15184 41989 NIL=
41989,2024,08,15,21,00,AAXX 15214 41989 02440 51403 10270 20250 30041 40044 82530 333 59006 70000 82618 84362==
41992,2024,08,09,00,00,AAXX 09004 41992 21320 81503 10250 20250 30081 40083 76166 8692/ 333 58019 60169 70350 84613 88458 81925==
41992,2024,08,09,03,00,AAXX 09034 41992 01320 80000 10255 20250 30088 40090 76166 8692/ 333 10250 58003 70700 83707 85612 88458 81925==
41992,2024,08,09,06,00,AAXX 09064 41992 21425 80000 10285 20270 30086 40088 75166 8592/ 333 58007 60489 70670 84614 88458 81925==
41992,2024,08,09,09,00,AAXX 09094 41992 01430 61808 10308 20260 30067 40069 70522 84501 333 58006 70670 84616 86080==
41992,2024,08,09,12,00,AAXX 09124 41992 01430 61806 10285 20260 30066 40068 70522 84530 333 10311 58001 70670 84616 86360==
41992,2024,08,09,15,00,AAXX 09154 41992 01320 81503 10263 20250 30082 40084 75165 8432/ 333 59005 70670 82708 84614 88458 81925==
41992,2024,08,09,18,00,AAXX 09184 41992 01420 71802 10258 20250 30082 40084 70565 84530 333 59001 70670 84615 87360==
41992,2024,08,09,21,00,AAXX 09214 41992 01420 61502 10255 20250 30067 40069 70522 84530 333 59004 70570 84615 86460==
41992,2024,08,10,00,00,AAXX 10004 41992 01320 81502 10260 20250 30070 40072 75162 8452/ 333 59011 70020 84615 88458 81925==
41992,2024,08,10,03,00,AAXX 10034 41992 01430 41703 10293 20270 30079 40081 70565 83330 333 20250 59009 70080 82616 84362 81925==
41992,2024,08,10,06,00,AAXX 10064 41992 11435 51805 10302 20270 30071 40073 60016 70565 82530 333 59015 70060 82616 85362==
41992,2024,08,10,09,00,AAXX 10094 41992 01430 51510 10300 20250 30056 40058 70522 84530 333 59011 70060 84616 85362==
41992,2024,08,10,12,00,AAXX 10124 41992 21430 71503 10275 20260 30058 40060 70562 84520 333 10312 59008 60155 70210 84615 87460==
41992,2024,08,10,15,00,AAXX 10154 41992 01420 80000 10270 20260 30065 40067 75155 8592/ 333 59017 70180 84614 88458 81925==
41992,2024,08,10,18,00,AAXX 10184 41992 21420 80000 10270 20260 30064 40066 75165 8592/ 333 59017 60009 70180 84614 88458 81925==
41992,2024,08,10,21,00,AAXX 10214 41992 01420 81805 10270 20250 30049 40051 70522 8592/ 333 59018 70180 84615 88458 81925==
41992,2024,08,11,00,00,AAXX 11004 41992 01420 81805 10270 20260 30051 40053 70522 8592/ 333 59019 70160 84615 88460 81925==
41992,2024,08,11,03,00,AAXX 11034 41992 01320 80000 10262 20250 30069 40071 76196 8692/ 333 20253 59010 70570 83707 85613 88458 81925==
41992,2024,08,11,06,00,AAXX 11064 41992 21325 81704 10274 20260 30067 40069 75196 8592/ 333 59004 60439 70580 83707 85614 88458 81925==
41992,2024,08,11,09,00,AAXX 11094 41992 01430 81803 10295 20260 30046 40048 70522 8592/ 333 59010 70580 84615 88460 81925==
41992,2024,08,11,12,00,AAXX 11124 41992 21430 61502 10285 20270 30038 40040 70562 84520 333 10300 59020 60055 70480 84615 86460==
41992,2024,08,11,15,00,AAXX 11154 41992 01425 50000 10268 20250 30051 40053 70522 83530 333 59014 70480 83616 85362==
41992,2024,08,11,18,00,AAXX 11184 41992 01425 70000 10264 20250 30058 40060 70522 84530 333 59006 70000 84616 87362==
41992,2024,08,11,21,00,AAXX 11214 41992 01420 61502 10263 20260 30046 40048 70522 84520 333 59003 70480 84615 86460==
41992,2024,08,12,00,00,AAXX 12004 41992 01420 61502 10262 20260 30053 40055 71022 84520 333 58002 70480 84615 86460==
41992,2024,08,12,03,00,AAXX 12034 41992 01435 51803 10302 20270 30061 40063 70522 82530 333 20258 59008 70060 82616 85362==
41992,2024,08,12,06,00,AAXX 12064 41992 01435 61503 10320 20270 30059 40061 70522 82530 333 59008 70050 82616 86362==
41992,2024,08,12,09,00,AAXX 12094 41992 01430 70000 10285 20270 30044 40046 70522 84520 333 59003 70050 84616 87460==
41992,2024,08,12,12,00,AAXX 12124 41992 21425 60000 10285 20260 30036 40038 70562 83530 333 10325 59002 60005 83616 86362==
41992,2024,08,12,15,00,AAXX 12154 41992 41425 50000 10277 20260 30056 40058 70522 83530 333 58005 83616 85362==
41992,2024,08,12,18,00,AAXX 12184 41992 41425 30000 10272 20250 30058 40060 70521 82530 333 58000 82616 83362==
41992,2024,08,12,21,00,AAXX 12214 41992 01415 82105 10262 20260 30051 40053 76166 8592/ 333 58005 70070 84615 88458 81925==
41992,2024,08,13,00,00,AAXX 13004 41992 22420 81802 10262 20260 30060 40062 8592/ 333 58007 60187 70180 84615 88458 81925==
41992,2024,08,13,03,00,AAXX 13034 41992 01430 70000 10285 20260 30067 40069 70565 84330 333 20256 58006 70200 83616 87360 81925==
41992,2024,08,13,06,00,AAXX 13064 41992 11435 60000 10306 20260 30061 40063 60026 70565 83530 333 58002 70200 83616 86362==
41992,2024,08,13,09,00,AAXX 13094 41992 01430 62406 10305 20260 30041 40043 70522 84530 333 59003 70200 84616 86462==
41992,2024,08,13,12,00,AAXX 13124 41992 01430 61803 10290 20260 30044 40046 70522 84520 333 10310 58008 70200 84615 86460==
41992,2024,08,13,15,00,AAXX 13154 41992 01425 80000 10275 20270 30066 40068 76122 8592/ 333 58010 70200 84614 88458 81925==
41992,2024,08,13,18,00,AAXX 13184 41992 21425 80000 10270 20260 30067 40069 71062 8432/ 333 58009 60005 70200 83616 88460 81925==
41992,2024,08,13,21,00,AAXX 13214 41992 01420 81804 10267 20260 30044 40046 76162 8692/ 333 59007 70140 84615 88460 81925==
41992,2024,08,14,00,00,AAXX 14004 41992 21420 81503 10264 20260 30054 40046 76166 8592/ 333 59006 60119 70130 84615 88460 81925==
41992,2024,08,14,03,00,AAXX 14034 41992 01435 41803 10291 20260 30061 40063 70565 82530 333 20258 59006 70300 82616 84362==
41992,2024,08,14,06,00,AAXX 14064 41992 11435 62104 10312 20270 30055 40057 60196 70565 82530 333 59006 70300 82616 86362==
41992,2024,08,14,09,00,AAXX 14094 41992 01430 51810 10305 20260 30034 40036 70522 83530 333 59007 70300 83616 85362==
41992,2024,08,14,12,00,AAXX 14124 41992 01425 81810 10285 20260 30034 40036 70522 8592/ 333 10315 59002 70300 84615 88460 81925==
41992,2024,08,14,15,00,AAXX 14154 41992 01425 50000 10272 20250 30058 40060 70522 83530 333 59008 70300 83616 85362==
41992,2024,08,14,18,00,AAXX 14184 41992 01425 70000 10262 20240 30061 40063 70522 84530 333 59006 70300 84616 87360==
41992,2024,08,14,21,00,AAXX 14214 41992 01420 80902 10262 20260 30042 40044 70562 8592/ 333 59002 70300 84615 88460 81925==
41992,2024,08,15,00,00,AAXX 15004 41992 21425 60302 10262 20250 30048 40050 70562 84520 333 59009 60015 70200 84615 86460==
41992,2024,08,15,03,00,AAXX 15034 41992 01/35 51803 10300 20260 30055 40057 70522 83031 333 20260 59006 70010 83362 85080==
41992,2024,08,15,06,00,AAXX 15064 41992 01435 61805 10308 20260 30045 40047 70522 83530 333 59010 70010 83616 86362==
41992,2024,08,15,09,00,AAXX 15094 41992 01430 61805 10290 20260 30029 40031 70522 83520 333 59005 70010 83616 86460==
41992,2024,08,15,12,00,AAXX 15124 41992 01430 80000 10275 20260 30028 40030 70522 8352/ 333 10315 59007 70010 83616 88460==
41992,2024,08,15,15,00,AAXX 15154 41992 01425 50000 10268 20250 30048 40050 70522 83530 333 59010 70010 83616 85362==
41992,2024,08,15,18,00,AAXX 15184 41992 01425 70000 10267 20250 30044 40046 70522 84530 333 59017 70010 84616 87360==
41992,2024,08,15,21,00,AAXX 15214 41992 02420 81502 10260 20250 30030 40032 8592/ 333 59012 70050 84615 88458 81925==
41998,2024,08,09,00,00,AAXX 09004 41998 NIL=
41998,2024,08,09,03,00,AAXX 09034 41998 02456 80000 10288 20260 30076 40082 8442/ 333 20260 58009 70140 83618 88458==
41998,2024,08,09,09,00,AAXX 09094 41998 02456 61702 10302 20260 30055 40051 83470 333 58001 70030 82618 84458==
41998,2024,08,09,12,00,AAXX 09124 41998 02456 60000 10284 20250 30061 40067 83470 333 10326 58003 70000 82618 84458==
41998,2024,08,10,03,00,AAXX 10034 41998 02450 60000 10290 20260 30066 40072 83470 333 20261 59010 70080 82618 83458==
41998,2024,08,10,06,00,AAXX 10064 41998 NIL=
41998,2024,08,10,09,00,AAXX 10094 41998 01456 81701 10284 20260 30048 40054 72166 8442/ 333 59007 70160 83616 88456==
41998,2024,08,10,12,00,AAXX 10124 41998 21456 80000 10274 20250 30055 40061 70262 8442/ 333 10302 58016 60058 83616 88456==
41998,2024,08,11,00,00,AAXX 11004 41998 NIL=
41998,2024,08,11,03,00,AAXX 11034 41998 02456 80000 10289 20260 30054 40060 8442/ 333 20261 59010 70000 83618 88458==
41998,2024,08,11,06,00,AAXX 11064 41998 21456 80000 10280 20260 30057 40063 76366 8442/ 333 58000 60229 70220 83616 88446==
41998,2024,08,11,09,00,AAXX 11094 41998 01456 81402 10286 20270 30041 40047 70262 8442/ 333 59007 70300 83618 88456==
41998,2024,08,11,12,00,AAXX 11124 41998 11456 80000 10279 20270 30042 40048 60086 70262 8442/ 333 10292 59013 70300 83616 88456==
41998,2024,08,12,00,00,AAXX 12004 41998 NIL=
41998,2024,08,12,03,00,AAXX 12034 41998 02456 60000 10290 20260 30046 40052 83470 333 20260 59008 70300 82618 83458==
41998,2024,08,12,12,00,AAXX 12124 41998 02456 80000 10283 20250 30041 40047 8442/ 333 10306 59001 70000 83618 88458==
41998,2024,08,13,00,00,AAXX 13004 41998 02456 80000 10280 20260 30049 40055 8442/ 333 59009 70000 83618 88458==
41998,2024,08,13,03,00,AAXX 13034 41998 02456 80000 10295 20260 30046 40052 8442/ 333 20266 58000 70000 83618 88458==
41998,2024,08,13,12,00,AAXX 13124 41998 02/56 80000 10287 20260 30045 40051 8002/ 333 10297 58004 70000 83618 88458==
41998,2024,08,13,18,00,AAXX 13184 41998 NIL=
41998,2024,08,14,00,00,AAXX 14004 41998 02456 60000 10281 20260 30050 40056 83470 333 59004 70000 82618 83458==
41998,2024,08,14,03,00,AAXX 14034 41998 02456 60000 10298 20260 30046 40052 83470 333 20270 58000 70000 82818 83458==
41998,2024,08,14,06,00,AAXX 14064 41998 NIL=
41998,2024,08,14,09,00,AAXX 14094 41998 02456 80000 10300 20260 30035 40041 8442/ 333 59098 70000 83618 88458==
41998,2024,08,14,12,00,AAXX 14124 41998 02456 80000 10286 20260 30036 40042 8442/ 333 10320 59009 70000 83618 88458==
41998,2024,08,15,03,00,AAXX 15034 41998 02456 60000 10299 20260 30048 40054 83470 333 20268 58003 70000 82618 83458==
41998,2024,08,15,06,00,AAXX 15064 41998 21456 80000 10290 20260 30037 40043 76162 8442/ 333 58002 60039 70030 83616 88456==
41998,2024,08,15,09,00,AAXX 15094 41998 01456 80000 10283 20260 30024 40030 70262 8442/ 333 59011 70050 83618 88458==
41998,2024,08,15,12,00,AAXX 15124 41998 01456 80000 10271 20250 30026 40032 72162 8442/ 333 10307 59010 70100 83616 88456==
41998,2024,08,15,18,00,AAXX 15184 41998 NIL=
