ESTACION,ANO,MES,DIA,HORA,MINUTO,PARTE
41850,2024,03,15,00,00,AAXX 15004 41850 31930 00000 10145 20140 30001 40103 70500 333 59014 70000=
41850,2024,03,15,06,00,AAXX 15064 41850 32956 00904 10276 20150 30033 40133 333 58015 70000=
41850,2024,03,15,12,00,AAXX 15124 41850 31950 00000 10272 20160 30004 40102 70500 333 10312 58024 70000=
41850,2024,03,15,18,00,AAXX 15184 41850 31930 01803 10190 20180 30037 40139 70500 333 58030 70000=
41850,2024,03,16,00,00,AAXX 16004 41850 31930 01802 10165 20160 30035 40137 70500 333 58034 70000=
41850,2024,03,16,06,00,AAXX 16064 41850 32956 00906 10302 20140 30032 40130 333 59003 70000=
41850,2024,03,16,12,00,AAXX 16124 41850 32956 01803 10290 20090 30000 40098 333 10330 59004 70000=
41850,2024,03,16,18,00,AAXX 16184 41850 31930 00901 10192 20150 30027 40129 70500 333 59010 70000=
41850,2024,03,17,00,00,AAXX 17004 41850 31930 00902 10150 20140 30038 40141 70500 333 58003 70000=
41850,2024,03,17,06,00,AAXX 17064 41850 32956 01802 10306 20120 30049 40146 333 58017 70000=
41850,2024,03,17,12,00,AAXX 17124 41850 31950 00000 10290 20090 30002 40101 70500 333 10339 58002 70000=
41850,2024,03,17,18,00,AAXX 17184 41850 31930 02702 10191 20150 30032 40134 70500 333 58005 70000=
41850,2024,03,18,00,00,AAXX 18004 41850 31930 00000 10145 20140 30026 40129 70500 333 59012 70000=
41850,2024,03,18,06,00,AAXX 18064 41850 32456 21803 10306 20090 30037 40134 82500 333 56900 59012 70000 82618=
41850,2024,03,18,12,00,AAXX 18124 41850 31940 02301 10280 20110 39994 40092 70500 333 10329 59008 70000=
41850,2024,03,18,15,00,AAXX 18154 41850 31930 00000 10209 20160 30020 40120 70500 333 59002 70000=
41850,2024,03,18,18,00,AAXX 18184 41850 31930 01405 10183 20160 30029 40131 70500 333 59003 70000=
41850,2024,03,19,00,00,AAXX 19004 41850 31930 00000 10154 20140 30024 40126 70500 333 59002 70000=
41850,2024,03,19,06,00,AAXX 19064 41850 32956 00904 10310 20100 30034 40131 333 59003 70000=
41850,2024,03,19,12,00,AAXX 19124 41850 31450 60000 10283 20170 30004 40102 70522 83520 333 10328 56990 58010 70000 83617 86458=
41850,2024,03,19,18,00,AAXX 19184 41850 31430 31803 10203 20190 30033 40134 70521 83500 333 56900 58004 70000 83618=
41850,2024,03,20,00,00,AAXX 20004 41850 11440 80000 10195 20170 30035 40136 70596 8352/ 333 56999 58011 70020 83617 88457=
41850,2024,03,20,06,00,AAXX 20064 41850 11450 81807 10198 20180 30071 40172 60035 70562 8352/ 333 56999 58037 70050 83617 88458=
41850,2024,03,20,12,00,AAXX 20124 41850 11340 80905 10194 20180 30048 40150 60033 70562 8562/ 333 10205 56999 58044 70080 83708 84615 88458=
41850,2024,03,20,18,00,AAXX 20184 41850 NIL=
41850,2024,03,21,00,00,AAXX 21004 41850 11450 73604 10181 20160 30050 40152 60026 70562 83520 333 56990 58015 70076 83617 87458=
41850,2024,03,21,06,00,AAXX 21064 41850 32456 60604 10235 20150 30052 40152 83520 333 56990 59019 70046 83617 86458=
41850,2024,03,21,12,00,AAXX 21124 41850 32450 50503 10223 20140 30014 40114 82510 333 10251 56990 59034 70016 82618 85458=
41850,2024,03,21,18,00,AAXX 21184 41850 32940 50604 10183 20160 30041 40143 83510 333 56990 59020 70016 83618 85458=
41851,2024,03,15,00,00,AAXX 15004 41851 31940 00000 10160 20150 30036 40101 70500 333 59015 70000=
41851,2024,03,15,06,00,AAXX 15064 41851 31945 00000 10294 20130 30073 40136 70500 333 58011 70000=
41851,2024,03,15,12,00,AAXX 15124 41851 32950 00000 10287 20170 30041 40104 333 10315 58021 70000=
41851,2024,03,15,18,00,AAXX 15184 41851 31940 00000 10190 20180 30075 40140 70500 333 58031 70000=
41851,2024,03,16,00,00,AAXX 16004 41851 31940 00000 10170 20160 30072 40137 70500 333 58036 70000=
41851,2024,03,16,06,00,AAXX 16064 41851 31945 01801 10306 20160 30085 40147 70510 333 58012 70000=
41851,2024,03,16,12,00,AAXX 16124 41851 32950 00000 10275 20140 30043 40106 333 10325 58002 70000=
41851,2024,03,16,18,00,AAXX 16184 41851 32950 00000 10191 20180 30075 40140 333 58000 70000=
41851,2024,03,17,00,00,AAXX 17004 41851 31430 20000 10170 20160 30074 40139 70510 81530 333 56990 58002 70000 81618=
41851,2024,03,17,06,00,AAXX 17064 41851 32950 02202 10298 20150 30086 40149 333 58001 70000=
41851,2024,03,17,12,00,AAXX 17124 41851 32950 00000 10285 20180 30040 40103 333 10333 59003 70000=
41851,2024,03,17,18,00,AAXX 17184 41851 32950 00000 10190 20170 30064 40129 333 59011 70000=
41851,2024,03,18,00,00,AAXX 18004 41851 31430 30000 10166 20160 30064 40129 70510 81530 333 56990 59010 70000 81618 83362=
41851,2024,03,18,06,00,AAXX 18064 41851 32450 50000 10318 20140 30079 40141 82530 333 56990 59007 70000 82618 85362=
41851,2024,03,18,12,00,AAXX 18124 41851 32450 40000 10281 20190 30033 40096 81530 333 10330 56990 59007 70000 81618 83362=
41851,2024,03,18,15,00,AAXX 18154 41851 NIL=
41851,2024,03,18,18,00,AAXX 18184 41851 31445 40000 10200 20180 30062 40126 70520 81510 333 56990 59002 70000 81618 84459=
41851,2024,03,19,00,00,AAXX 19004 41851 31440 40000 10183 20170 30052 40117 70522 81510 333 56990 59012 70000 81618 84459=
41851,2024,03,19,06,00,AAXX 19064 41851 31440 82102 10303 20170 30077 40140 70522 8352/ 333 56999 59002 70000 83618 88458=
41851,2024,03,19,12,00,AAXX 19124 41851 31440 81801 10275 20220 30040 40103 70522 8352/ 333 10317 56999 58007 70000 83618 88458=
41851,2024,03,19,18,00,AAXX 19184 41851 11340 81802 10209 20190 30064 40128 60097 71796 8492/ 333 56999 58002 70086 81709 84617 81929 88456=
41851,2024,03,20,00,00,AAXX 20004 41851 11335 81803 10190 20180 30079 40141 60054 79596 8492/ 333 56999 58027 70136 81708 84616 81929 88456=
41851,2024,03,20,06,00,AAXX 20064 41851 11335 81503 10200 20180 30102 40167 60139 76196 8472/ 333 56499 58025 70262 81708 84616 88456=
41851,2024,03,20,12,00,AAXX 20124 41851 11340 81503 10192 20160 30088 40153 60049 76166 8472/ 333 10205 56499 58048 70304 81708 83616 88457=
41851,2024,03,20,18,00,AAXX 20184 41851 11340 80000 10188 20170 30100 40165 60016 76122 8472/ 333 56499 58036 70228 81708 83616 88457=
41851,2024,03,21,00,00,AAXX 21004 41851 11340 81302 10185 20170 30079 40144 60026 76122 8472/ 333 56499 58000 70193 81708 83616 88457=
41851,2024,03,21,06,00,AAXX 21064 41851 32450 11303 10250 20180 30091 40155 81500 333 56900 59011 70067 81618=
41851,2024,03,21,12,00,AAXX 21124 41851 11350 80000 10205 20170 30049 40113 60025 71796 8532/ 333 10260 56999 59039 70041 81710 83616 81930 88458=
41851,2024,03,21,18,00,AAXX 21184 41851 32950 00000 10180 20160 30071 40136 333 59029 70031=
41856,2024,03,15,00,00,AAXX 15004 41856 31415 41602 10210 20210 30071 40107 71022 84400 333 56900 59005 70000 82618 83830=
41856,2024,03,15,06,00,AAXX 15064 41856 32950 01201 10306 20120 30099 40134 333 58007 70000=
41856,2024,03,15,12,00,AAXX 15124 41856 32950 01802 10285 20170 30070 40105 333 10333 58021 70000=
41856,2024,03,15,18,00,AAXX 15184 41856 31930 01801 10185 20180 30105 40142 70500 333 58033 70000=
41856,2024,03,16,00,00,AAXX 16004 41856 31930 00000 10180 20170 30102 40139 70500 333 58031 70000=
41856,2024,03,16,06,00,AAXX 16064 41856 32950 22303 10306 20170 30114 40149 82030 333 56090 58015 70000 82362=
41856,2024,03,16,12,00,AAXX 16124 41856 32950 32302 10290 20140 30073 40108 83030 333 10340 56090 58003 70000 83362=
41856,2024,03,16,18,00,AAXX 16184 41856 32930 00000 10196 20180 30103 40140 333 59002 70000=
41856,2024,03,17,00,00,AAXX 17004 41856 31930 40000 10185 20180 30099 40136 70521 84030 333 56090 59003 70000 84362=
41856,2024,03,17,06,00,AAXX 17064 41856 32956 21802 10320 20150 30112 40147 82030 333 56090 59002 70000 82362=
41856,2024,03,17,12,00,AAXX 17124 41856 32950 02201 10306 20180 30068 40103 333 10342 59005 70000=
41856,2024,03,17,18,00,AAXX 17184 41856 31930 02201 10200 20190 30093 40130 70500 333 59010 70000=
41856,2024,03,18,00,00,AAXX 18004 41856 31920 00000 10172 20160 30093 40130 71000 333 59006 70000=
41856,2024,03,18,06,00,AAXX 18064 41856 32956 00501 10320 20120 30105 40140 333 59007 70000=
41856,2024,03,18,12,00,AAXX 18124 41856 32950 00000 10290 20200 30059 40094 333 10345 59009 70000=
41856,2024,03,18,15,00,AAXX 18154 41856 31930 00000 10225 20210 30083 40119 70500 333 59006 70000=
41856,2024,03,18,18,00,AAXX 18184 41856 31930 00000 10215 20200 30087 40123 70500 333 59006 70000=
41856,2024,03,19,00,00,AAXX 19004 41856 31930 20000 10206 20190 30086 40122 70511 82030 333 56090 59007 70000 82362=
41856,2024,03,19,06,00,AAXX 19064 41856 32950 50503 10294 20150 30104 40139 82510 333 56990 59001 70000 82618 84459=
41856,2024,03,19,12,00,AAXX 19124 41856 32440 70000 10290 20210 30068 40103 84530 333 10320 56990 58009 70000 83618 84458=
41856,2024,03,19,18,00,AAXX 19184 41856 32440 70000 10231 20190 30101 40137 84530 333 56990 58014 70000 83618 84458=
41856,2024,03,20,00,00,AAXX 20004 41856 32440 81602 10194 20170 30107 40144 8563/ 333 56999 58021 70000 84617 88456=
41856,2024,03,20,06,00,AAXX 20064 41856 11330 80502 10194 20180 30134 40171 60259 76166 8632/ 333 56999 58030 70254 83710 84616 88456=
41856,2024,03,20,12,00,AAXX 20124 41856 11340 80503 10190 20170 30117 40154 60099 72166 8632/ 333 10200 56999 58049 70348 82710 84616 88456=
41856,2024,03,20,18,00,AAXX 20184 41856 32440 80502 10182 20160 30129 40166 8443/ 333 56999 58028 70348 84618 85458=
41856,2024,03,21,00,00,AAXX 21004 41856 11440 80501 10190 20170 30109 40146 60024 70262 8452/ 333 56999 58002 70364 82710 84616 88455=
41856,2024,03,21,06,00,AAXX 21064 41856 32450 70701 10244 20170 30117 40153 84430 333 56990 59017 70110 83618 83458=
41856,2024,03,21,12,00,AAXX 21124 41856 11440 50000 10217 20180 30081 40117 60125 79601 82510 333 10260 56990 59036 70133 82618 84459=
41856,2024,03,21,18,00,AAXX 21184 41856 31430 50000 10186 20170 30099 40136 70522 82510 333 56990 59030 70133 82618 84459=
41858,2024,03,15,00,00,AAXX 15004 41858 01930 01805 10190 20150 30067 40113 70500 333 59006 70000==
41858,2024,03,15,03,00,AAXX 15034 41858 01940 02405 10254 20140 30089 40135 70500 333 20162 59004 70000==
41858,2024,03,15,06,00,AAXX 15064 41858 01950 02705 10320 20150 30090 40135 70500 333 58004 70000==
41858,2024,03,15,09,00,AAXX 15094 41858 01950 02708 10336 20150 30065 40106 70500 333 58016 70000==
41858,2024,03,15,12,00,AAXX 15124 41858 01950 02405 10300 20170 30063 40108 70500 333 10344 58022 70000==
41858,2024,03,15,15,00,AAXX 15154 41858 01950 00000 10235 20190 30084 40131 70500 333 58020 70000==
41858,2024,03,15,18,00,AAXX 15184 41858 02940 00000 10210 20180 30094 40140 333 58020 70000==
41858,2024,03,15,21,00,AAXX 15214 41858 01930 00000 10198 20180 30090 40136 70500 333 58019 70000==
41858,2024,03,16,00,00,AAXX 16004 41858 01920 01805 10186 20170 30092 40139 71000 333 58025 70000==
41858,2024,03,16,03,00,AAXX 16034 41858 01435 20000 10268 20160 30117 40163 70500 82500 333 58028 70000 82618==
41858,2024,03,16,06,00,AAXX 16064 41858 01450 51805 10300 20150 30104 40149 70520 83520 333 58014 70000 83616 85458==
41858,2024,03,16,09,00,AAXX 16094 41858 01950 02708 10340 20120 30071 40115 70500 333 58006 70000==
41858,2024,03,16,12,00,AAXX 16124 41858 01/50 32105 10300 20170 30068 40113 70500 83030 333 10344 58005 70000 83362==
41858,2024,03,16,15,00,AAXX 16154 41858 01940 00000 10240 20160 30080 40127 70500 333 59004 70000==
41858,2024,03,16,18,00,AAXX 16184 41858 01940 00000 10225 20170 30085 40131 70500 333 59009 70000==
41858,2024,03,17,03,00,AAXX 17034 41858 01935 02704 10268 20170 30116 40162 70500 333 20186 59001 70000==
41858,2024,03,17,06,00,AAXX 17064 41858 NIL=
41858,2024,03,17,09,00,AAXX 17094 41858 01950 02705 10350 20150 30070 40114 70500 333 59001 70000==
41858,2024,03,17,12,00,AAXX 17124 41858 01950 00000 10304 20180 30063 40108 70500 333 10354 59005 70000==
41858,2024,03,17,15,00,AAXX 17154 41858 01940 00000 10246 20210 30078 40124 70500 333 59002 70000==
41858,2024,03,17,18,00,AAXX 17184 41858 01935 02402 10230 20200 30087 40138 70500 333 58002 70000==
41858,2024,03,17,21,00,AAXX 17214 41858 01930 00000 10220 20190 30084 40130 70500 333 59005 70000==
41858,2024,03,18,00,00,AAXX 18004 41858 01910 00000 10192 20180 30086 40133 71000 333 59006 70000==
41858,2024,03,18,03,00,AAXX 18034 41858 01/25 30000 10258 20180 30101 40147 71000 83030 333 20184 59015 70000 83362==
41858,2024,03,18,06,00,AAXX 18064 41858 01940 00000 10324 20160 30097 40142 70500 333 59007 70000==
41858,2024,03,18,09,00,AAXX 18094 41858 01/50 31805 10345 20150 30065 40109 70522 83030 333 59005 70000 83362==
41858,2024,03,18,12,00,AAXX 18124 41858 01/50 32105 10302 20120 30050 40095 70522 83030 333 10360 59013 70000==
41858,2024,03,18,15,00,AAXX 18154 41858 01950 00000 10250 20200 30073 40119 70500 333 59005 70000==
41858,2024,03,18,18,00,AAXX 18184 41858 01940 00000 10232 20200 30082 40128 70500 333 59005 70000==
41858,2024,03,18,21,00,AAXX 18214 41858 01930 00000 10218 20180 30086 40132 70500 333 58002 70000==
41858,2024,03,19,03,00,AAXX 19034 41858 01422 50305 10256 20170 30100 40146 71022 83520 333 20202 59001 70000 83615 85458==
41858,2024,03,19,06,00,AAXX 19064 41858 01435 50305 10304 20170 30094 40139 70522 83520 333 59003 70000 83615 85458==
41858,2024,03,19,09,00,AAXX 19094 41858 01450 61405 10320 20170 30064 40109 70522 83410 333 59001 70000 82616 86460==
41858,2024,03,19,12,00,AAXX 19124 41858 01430 60903 10284 20170 30058 40104 70522 83410 333 10320 58008 70000 83616 86460==
41858,2024,03,19,15,00,AAXX 19154 41858 01/25 60504 10264 20200 30380 40126 71022 86020 333 58007 70000 86460==
41858,2024,03,19,18,00,AAXX 19184 41858 01425 60000 10250 20220 30091 40137 71022 83420 333 58009 70000 83616 86460==
41858,2024,03,19,21,00,AAXX 19214 41858 01420 80000 10224 20200 30099 40145 79522 8432/ 333 58013 70008 84615 88458 82930==
41858,2024,03,20,00,00,AAXX 20004 41858 21412 80000 10196 20190 30102 40149 79596 8532/ 333 58018 60067 70058 84615 88458 82930==
41858,2024,03,20,03,00,AAXX 20034 41858 01320 80905 10196 20180 30127 40174 76196 8662/ 333 20184 58027 70138 83708 86614 88458==
41858,2024,03,20,06,00,AAXX 20064 41858 21430 80906 10206 20200 30118 40164 76196 8552/ 333 58024 60159 70208 85614 88458==
41858,2024,03,20,09,00,AAXX 20094 41858 01420 80905 10203 20190 30104 40151 76166 8572/ 333 58040 70266 82710 83615 88458==
41858,2024,03,20,12,00,AAXX 20124 41858 21422 80909 10193 20170 30102 40149 72166 8462/ 333 10205 58044 60089 70284 82710 83615 88460==
41858,2024,03,20,15,00,AAXX 20154 41858 01430 80910 10185 20160 30119 40166 70522 83420 333 58039 70284 83616 86460==
41858,2024,03,20,18,00,AAXX 20184 41858 01430 80608 10183 20150 30127 40174 70522 8342/ 333 58036 70284 83616 88460==
41858,2024,03,20,21,00,AAXX 20214 41858 01430 50605 10185 20170 30114 40161 70522 83520 333 58015 70276 83616 85458==
41858,2024,03,21,00,00,AAXX 21004 41858 01420 40000 10186 20170 30101 40148 71022 82520 333 59001 70226 82616 84482==
41858,2024,03,21,03,00,AAXX 21034 41858 01430 50905 10220 20180 30121 40167 70522 83520 333 20172 59006 70146 83615 85458==
41858,2024,03,21,06,00,AAXX 21064 41858 01550 30905 10274 20180 30106 40152 70522 83100 333 59012 70076 83825==
41858,2024,03,21,09,00,AAXX 21094 41858 01450 60905 10262 20220 30078 40122 71722 83320 333 59028 70056 83615 86458 81928==
41858,2024,03,21,12,00,AAXX 21124 41858 01450 70905 10220 20170 30072 40118 70592 84520 333 10320 59030 70000 84615 87458==
41858,2024,03,21,15,00,AAXX 21154 41858 01450 60805 10200 20160 30095 40142 70522 83520 333 59024 70000 83615 86458==
41858,2024,03,21,18,00,AAXX 21184 41858 01440 60805 10188 20160 30104 40151 70522 83520 333 59023 70000 83615 86458==
41858,2024,03,21,21,00,AAXX 21214 41858 01425 70000 10184 20170 30061 40108 71022 84520 333 59043 70000 84615 86458==
41859,2024,03,15,00,00,AAXX 15004 41859 01930 00000 10200 20180 30069 40107 70500 333 59008 70000==
41859,2024,03,15,03,00,AAXX 15034 41859 01940 42201 10236 20210 30099 40137 70520 82520 333 20190 59002 70000 82618 84458==
41859,2024,03,15,06,00,AAXX 15064 41859 01940 02302 10302 20180 30098 40135 70520 333 58002 70000==
41859,2024,03,15,09,00,AAXX 15094 41859 02950 02303 10321 20150 30079 40116 333 58023 70000==
41859,2024,03,15,12,00,AAXX 15124 41859 02950 00000 10307 20150 30071 40107 333 10332 58026 70000==
41859,2024,03,15,15,00,AAXX 15154 41859 31930 00000 10232 20180 30092 40130 70500 333 58018 70000=
41859,2024,03,15,18,00,AAXX 15184 41859 01930 00000 10210 20170 30101 40139 70500 333 58028 70000==
41859,2024,03,15,21,00,AAXX 15214 41859 01930 00000 10200 20180 30100 40138 70500 333 58040 70000==
41859,2024,03,16,00,00,AAXX 16004 41859 01930 00000 10205 20200 30100 40138 70500 333 58031 70000==
41859,2024,03,16,03,00,AAXX 16034 41859 01940 00000 10269 20190 30124 40161 70500 333 20190 58025 70000==
41859,2024,03,16,06,00,AAXX 16064 41859 02940 00000 10309 20100 30117 40154 333 58018 70000==
41859,2024,03,16,09,00,AAXX 16094 41859 02950 02301 10325 20100 30078 40114 333 59001 70000==
41859,2024,03,16,12,00,AAXX 16124 41859 02450 60000 10290 20150 30076 40113 84610 333 10330 58005 70000 82710 83618 86458==
41859,2024,03,16,15,00,AAXX 16154 41859 02430 20000 10246 20180 30090 40127 82500 333 59002 70000 82618==
41859,2024,03,16,18,00,AAXX 16184 41859 02430 70000 10233 20170 30101 40139 84620 333 58000 70000 82710 83618 86458==
41859,2024,03,16,21,00,AAXX 16214 41859 02430 80000 10218 20190 30094 40132 8562/ 333 59006 70000 82710 84618 88458==
41859,2024,03,17,00,00,AAXX 17004 41859 01430 80000 10211 20190 30098 40136 70522 8562/ 333 59002 70000 82710 84618 88458==
41859,2024,03,17,03,00,AAXX 17034 41859 01440 50000 10259 20200 30124 40161 70522 84610 333 20206 58000 70000==
41859,2024,03,17,06,00,AAXX 17064 41859 02440 50000 10313 20140 30115 40152 84610 333 59002 70000 82710 83618 85458==
41859,2024,03,17,09,00,AAXX 17094 41859 02950 02302 10338 20150 30076 40112 333 59002 70000==
41859,2024,03,17,12,00,AAXX 17124 41859 02950 02302 10306 20180 30070 40107 333 10338 59006 70000==
41859,2024,03,17,15,00,AAXX 17154 41859 02930 00000 10245 20200 30087 40124 333 59003 70000==
41859,2024,03,17,18,00,AAXX 17184 41859 02930 00000 10225 20200 30093 40131 333 59008 70000==
41859,2024,03,17,21,00,AAXX 17214 41859 02430 80000 10216 20200 30088 40126 8562/ 333 59006 70000 82710 84618 88458==
41859,2024,03,18,00,00,AAXX 18004 41859 01430 80000 10207 20190 30092 40130 70522 8562/ 333 59006 70000 82710 84618 88458==
41859,2024,03,18,03,00,AAXX 18034 41859 01440 50000 10273 20180 30111 40148 70522 84620 333 20198 59013 70000 82710 83618 85458==
41859,2024,03,18,06,00,AAXX 18064 41859 02450 50000 10326 20110 30108 40144 84620 333 70000 82710 83618 85458==
41859,2024,03,18,09,00,AAXX 18094 41859 02950 00000 10335 20140 30071 40107 333 59005 70000==
41859,2024,03,18,12,00,AAXX 18124 41859 02950 00000 10310 20170 30058 40094 333 10340 59012 70000==
41859,2024,03,18,15,00,AAXX 18154 41859 02930 00000 10258 20190 30084 40121 333 59003 70000==
41859,2024,03,18,18,00,AAXX 18184 41859 02430 80000 10250 20170 30091 40128 8462/ 333 59002 70000 82710 83618 88458==
41859,2024,03,18,21,00,AAXX 18214 41859 02430 80000 10241 20180 30080 40118 8462/ 333 59008 70000 82710 83618 88458==
41859,2024,03,19,00,00,AAXX 19004 41859 02430 80902 10231 20190 30083 40121 8562/ 333 59009 70000 82710 84618 88458==
41859,2024,03,19,03,00,AAXX 19034 41859 02440 80000 10251 20180 30111 40148 8562/ 333 20228 58000 70000 82710 84618 88458==
41859,2024,03,19,06,00,AAXX 19064 41859 02450 80000 10302 20160 30106 40143 8562/ 333 59002 70000 82710 84618 88458==
41859,2024,03,19,09,00,AAXX 19094 41859 02450 81302 10311 20160 30072 40108 8562/ 333 58001 70000 82710 85618 88458==
41859,2024,03,19,12,00,AAXX 19124 41859 02450 81301 10301 20210 30067 40104 8562/ 333 10316 58009 70000 82710 85618 88458==
41859,2024,03,19,15,00,AAXX 19154 41859 02430 80000 10258 20180 30095 40132 8561/ 333 58011 70000 82710 85618 88458==
41859,2024,03,19,18,00,AAXX 19184 41859 02430 80000 10242 20180 30100 40138 8561/ 333 58009 70000 82710 85618 88458==
41859,2024,03,19,21,00,AAXX 19214 41859 01330 80000 10215 20200 30091 40129 79522 8632/ 333 58011 70066 83709 85617 88456 81930==
41859,2024,03,20,00,00,AAXX 20004 41859 21330 80000 10196 20190 30103 40141 79596 8632/ 333 58020 60127 70124 83709 85616 88456 81930==
41859,2024,03,20,03,00,AAXX 20034 41859 01330 80502 10200 20190 30138 40176 76166 8572/ 333 20195 58027 70200 83708 85614 88456==
41859,2024,03,20,06,00,AAXX 20064 41859 21330 80502 10201 20190 30134 40172 76166 8572/ 333 58028 60119 70236 83708 85614 88456==
41859,2024,03,20,09,00,AAXX 20094 41859 01340 80503 10199 20199 30112 40150 76166 8572/ 333 58040 70328 83708 85616 88456==
41859,2024,03,20,12,00,AAXX 20124 41859 21340 80503 10191 20180 30114 40152 76166 8572/ 333 10206 58047 60119 70344 83708 85616 88456==
41859,2024,03,20,15,00,AAXX 20154 41859 01330 80503 10194 20150 30127 40165 70262 8562/ 333 58032 70344 83708 85618 88458==
41859,2024,03,20,18,00,AAXX 20184 41859 01330 80502 10196 20160 30124 40162 76162 8672/ 333 58024 70344 84708 85616 88456==
41859,2024,03,20,21,00,AAXX 20214 41859 02330 80501 10194 20170 30103 40141 8562/ 333 58012 70278 83708 85618 88458==
41859,2024,03,21,00,00,AAXX 21004 41859 02430 80000 10192 20170 30105 40143 8562/ 333 58002 70220 83710 84618 88458==
41859,2024,03,21,03,00,AAXX 21034 41859 02440 70502 10219 20200 30125 40163 84620 333 20186 59003 70144 82710 83618 87458==
41859,2024,03,21,06,00,AAXX 21064 41859 02440 70502 10256 20180 30114 40152 84620 333 59020 70108 82710 83618 87458==
41859,2024,03,21,09,00,AAXX 21094 41859 01430 81302 10258 20190 30080 40117 71762 8532/ 333 59032 70022 83710 85616 88458 81930==
41859,2024,03,21,12,00,AAXX 21124 41859 01330 80000 10202 20180 30078 40116 79596 8592/ 333 10265 59036 70032 83708 85614 88456 81930==
41859,2024,03,21,15,00,AAXX 21154 41859 01330 70502 10196 20180 30106 40144 70196 84620 333 59021 70040 82710 83618 87458==
41859,2024,03,21,18,00,AAXX 21184 41859 11340 70000 10190 20170 30095 40133 60016 70292 85620 333 59029 70040 83710 84618 87458==
41859,2024,03,21,21,00,AAXX 21214 41859 02430 70000 10184 20170 30073 40111 85620 333 59030 70040 83710 84618 87458==
41863,2024,03,15,00,00,AAXX 15004 41863 01950 00000 10167 20160 30061 40105 70500 333 59015 70000==
41863,2024,03,15,03,00,AAXX 15034 41863 02957 02302 10265 20130 30093 40136 333 20160 59004 70000==
41863,2024,03,15,06,00,AAXX 15064 41863 02957 02302 10310 20110 30100 40142 333 58010 70000==
41863,2024,03,15,09,00,AAXX 15094 41863 02957 02703 10330 20110 30067 40109 333 58016 70000==
41863,2024,03,15,12,00,AAXX 15124 41863 02956 02702 10310 20100 30064 40106 333 10334 58021 70000==
41863,2024,03,15,15,00,AAXX 15154 41863 01950 00000 10218 20180 30090 40134 70500 333 58029 70000==
41863,2024,03,15,18,00,AAXX 15184 41863 01950 00000 10200 20170 30094 40138 70500 333 58028 70000==
41863,2024,03,15,21,00,AAXX 15214 41863 01940 00000 10185 20170 30086 40130 70500 333 58037 70000==
41863,2024,03,16,00,00,AAXX 16004 41863 01950 02301 10180 20160 30094 40138 70500 333 58033 70000==
41863,2024,03,16,03,00,AAXX 16034 41863 02956 02701 10240 20160 30116 40159 333 20172 58023 70000==
41863,2024,03,16,06,00,AAXX 16064 41863 21456 61801 10290 20170 30112 40155 70362 83520 333 58012 60035 70030 83618 86458==
41863,2024,03,16,09,00,AAXX 16094 41863 02957 02704 10321 20090 30072 40114 333 58005 70030==
41863,2024,03,16,12,00,AAXX 16124 41863 02/56 32303 10295 20130 30073 40115 83030 333 10325 58009 70030 83362==
41863,2024,03,16,15,00,AAXX 16154 41863 02950 00000 10225 20180 30087 40131 333 59003 70030==
41863,2024,03,16,18,00,AAXX 16184 41863 02950 02301 10207 20160 30091 40135 333 59003 70030==
41863,2024,03,16,21,00,AAXX 16214 41863 02950 00000 10198 20170 30093 40137 333 58010 70030==
41863,2024,03,17,00,00,AAXX 17004 41863 02950 00000 10189 20170 30095 40139 333 58001 70030==
41863,2024,03,17,03,00,AAXX 17034 41863 02956 02703 10250 20160 30118 40161 333 20182 58002 70030==
41863,2024,03,17,06,00,AAXX 17064 41863 02957 03103 10315 20130 30109 40151 333 59003 70000==
41863,2024,03,17,09,00,AAXX 17094 41863 02957 02402 10334 20140 30071 40123 333 59001 70000==
41863,2024,03,17,12,00,AAXX 17124 41863 02957 02802 10306 20160 30066 40108 333 10338 59007 70000==
41863,2024,03,17,15,00,AAXX 17154 41863 02956 00000 10228 20180 30081 40125 333 59006 70000==
41863,2024,03,17,18,00,AAXX 17184 41863 02956 00000 10210 20190 30085 40129 333 59006 70000==
41863,2024,03,17,21,00,AAXX 17214 41863 02950 02702 10198 20190 30078 40122 333 59015 70000==
41863,2024,03,18,00,00,AAXX 18004 41863 01950 00000 10182 20170 30085 40129 70500 333 59010 70000==
41863,2024,03,18,03,00,AAXX 18034 41863 02956 02303 10264 20180 30102 40145 333 20177 59016 70000==
41863,2024,03,18,06,00,AAXX 18064 41863 02957 00902 10325 20090 30100 40142 333 59009 70000==
41863,2024,03,18,09,00,AAXX 18094 41863 02/57 40000 10339 20140 30064 40106 84030 333 59007 70000 84362==
41863,2024,03,18,12,00,AAXX 18124 41863 02/57 20000 10307 20170 30052 40094 82030 333 10340 59014 70000 82362==
41863,2024,03,18,15,00,AAXX 18154 41863 02/56 20000 10240 20200 30067 40110 82030 333 59014 70000 82362==
41863,2024,03,18,18,00,AAXX 18184 41863 01/50 33601 10225 20200 30081 40125 70500 83030 333 59004 70000 83362==
41863,2024,03,18,21,00,AAXX 18214 41863 42950 40000 10223 20190 30070 40114 59008 84362==
41863,2024,03,19,00,00,AAXX 19004 41863 01450 60000 10205 20190 30080 40124 70522 83520 333 59005 70000 83618 86458==
41863,2024,03,19,03,00,AAXX 19034 41863 02956 60502 10251 20180 30102 40145 83520 333 20201 58000 70000 83618 86458==
41863,2024,03,19,06,00,AAXX 19064 41863 02456 61303 10302 20180 30097 40140 84520 333 59003 70000 84618 86458==
41863,2024,03,19,09,00,AAXX 19094 41863 02/56 51804 10315 20190 30065 40107 85020 333 58001 70000 85458==
41863,2024,03,19,12,00,AAXX 19124 41863 02456 80000 10301 20190 30061 40103 8452/ 333 10315 58009 70000 84618 88458==
41863,2024,03,19,15,00,AAXX 19154 41863 02/50 50000 10270 20230 30087 40130 85020 333 58020 70000 85458==
41863,2024,03,19,18,00,AAXX 19184 41863 02450 80901 10246 20210 30086 40129 8452/ 333 58005 70000 84618 88458==
41863,2024,03,19,21,00,AAXX 19214 41863 02450 80903 10240 20210 30074 40117 8452/ 333 58004 70000 84618 88458==
41863,2024,03,20,00,00,AAXX 20004 41863 21440 80905 10192 20190 30095 40139 72996 8592/ 333 58015 60307 70296 84617 88458 81930==
41863,2024,03,20,03,00,AAXX 20034 41863 01350 80904 10198 20180 30125 40169 76162 8572/ 333 20188 58023 70324 82709 85617 88457==
41863,2024,03,20,06,00,AAXX 20064 41863 21450 80904 10198 20190 30121 40165 76166 8452/ 333 58024 60109 70400 84617 88457==
41863,2024,03,20,09,00,AAXX 20094 41863 01350 83102 10196 20190 30107 40151 76166 8572/ 333 58042 70500 83708 85614 88456==
41863,2024,03,20,12,00,AAXX 20124 41863 21350 83104 10200 20170 30100 40144 76166 8572/ 333 10197 58039 60169 70560 83708 85614 88456==
41863,2024,03,20,15,00,AAXX 20154 41863 01450 80904 10190 20170 30118 40162 70262 8552/ 333 58031 70570 85618 88458==
41863,2024,03,20,18,00,AAXX 20184 41863 11450 80904 10188 20170 30116 40160 60016 70262 8552/ 333 58030 70570 85618 88458==
41863,2024,03,20,21,00,AAXX 20214 41863 01440 40902 10180 20170 30113 40157 70520 82520 333 58039 70570 82618 84458==
41863,2024,03,21,00,00,AAXX 21004 41863 01440 40902 10180 20170 30113 40157 70520 82520 333 58039 70570 82618 84458==
41863,2024,03,21,03,00,AAXX 21034 41863 02956 00904 10220 20180 30118 40162 333 20160 59007 70246==
41863,2024,03,21,06,00,AAXX 21064 41863 02456 50903 10260 20180 30111 40154 83520 333 59010 70170 83618 85458==
41863,2024,03,21,09,00,AAXX 21094 41863 02456 50903 10268 20170 30077 40120 85400 333 59030 70070 83618 85825==
41863,2024,03,21,12,00,AAXX 21124 41863 01340 82703 10195 20190 30073 40117 79596 8692/ 333 10276 59027 70180 83707 85615 88456 81925==
41863,2024,03,21,18,00,AAXX 21184 41863 21450 80000 10190 20180 30094 40138 70296 8562/ 333 59022 60048 70218 83710 85617 88458==
41863,2024,03,21,21,00,AAXX 21214 41863 02450 80901 10180 20170 30077 40121 8562/ 333 59036 70218 82710 85617 88458==
41881,2024,03,15,00,00,AAXX 15004 41881 32950 01801 10198 20190 30092 40113 333 59003 70000=
41881,2024,03,15,06,00,AAXX 15064 41881 32957 02701 10315 20200 30116 40136 58001 70000=
41881,2024,03,15,12,00,AAXX 15124 41881 32956 00000 10290 20220 30088 40108 333 10340 58020 70000=
41881,2024,03,15,18,00,AAXX 15184 41881 32950 00000 10220 20190 30115 40135 333 58016 70000=
41881,2024,03,16,00,00,AAXX 16004 41881 32950 00000 10190 20180 30117 40138 333 58025 70000=
41881,2024,03,16,06,00,AAXX 16064 41881 32956 03501 10292 20130 30132 40152 333 58016 70000=
41881,2024,03,16,12,00,AAXX 16124 41881 32956 40000 10280 20190 30095 40115 84500 333 10325 56700 58007 70000 84620=
41881,2024,03,16,18,00,AAXX 16184 41881 32450 71801 10230 20200 30113 40133 84520 333 56990 59002 70000 84617 87459=
41881,2024,03,17,00,00,AAXX 17004 41881 32450 40000 10210 20190 30119 40140 84500 333 56700 58002 70000 84620=
41881,2024,03,17,06,00,AAXX 17064 41881 32957 00000 10298 20160 30128 40148 333 59004 70000=
41881,2024,03,17,12,00,AAXX 17124 41881 32956 01801 10290 20180 30089 40109 333 10330 59013 70000=
41881,2024,03,17,18,00,AAXX 17184 41881 32950 00000 10230 20210 30111 40131 333 59002 70000=
41881,2024,03,18,00,00,AAXX 18004 41881 32950 00000 10210 20200 30104 40125 333 59015 70000=
41881,2024,03,18,06,00,AAXX 18064 41881 32957 00000 10300 20220 30128 40148 333 58000 70000=
41881,2024,03,18,12,00,AAXX 18124 41881 32956 01801 10290 20230 30079 40099 333 10337 59010 70000=
41881,2024,03,18,15,00,AAXX 18154 41881 32950 01801 10266 20240 30095 40115 333 59008 70000=
41881,2024,03,18,18,00,AAXX 18184 41881 32450 71801 10250 20230 30107 40127 84520 333 56490 59004 70000 84618 87460=
41881,2024,03,19,00,00,AAXX 19004 41881 32450 50000 10228 20220 30100 40121 83510 333 56690 59004 70000 83620 85460=
41881,2024,03,19,06,00,AAXX 19064 41881 32456 70000 10300 20230 30117 40137 84520 333 56490 59011 70000 84618 87460=
41881,2024,03,19,12,00,AAXX 19124 41881 32956 70000 10280 20230 30085 40105 84520 333 10315 56990 58006 70000 84617 87459=
41881,2024,03,19,18,00,AAXX 19184 41881 32450 70000 10245 20230 30111 40131 84520 333 56990 58005 70000 84617 87459=
41881,2024,03,20,00,00,AAXX 20004 41881 32450 70602 10210 20190 30114 40134 84520 333 56490 58014 70000 84618 87460=
41881,2024,03,20,06,00,AAXX 20064 41881 11450 80701 10200 20190 30140 40161 60039 76166 8652/ 333 56999 58023 70030 86618 88458=
41881,2024,03,20,12,00,AAXX 20124 41881 11450 80902 10200 20190 30113 40134 60079 76166 8652/ 333 10205 56999 58028 70100 86618 88458=
41881,2024,03,20,18,00,AAXX 20184 41881 32450 80501 10190 20180 30135 40155 8652/ 333 56999 58024 70100 86618 88458=
41881,2024,03,21,00,00,AAXX 21004 41881 31935 00000 10167 20160 30123 40144 70500 333 58009 70100=
41881,2024,03,21,06,00,AAXX 21064 41881 32456 62602 10252 20170 30129 40149 83520 333 56990 59011 70070 83618 86459=
41881,2024,03,21,12,00,AAXX 21124 41881 32456 32302 10244 20190 30089 40110 83500 333 10272 56900 59024 70000 83620=
41881,2024,03,21,18,00,AAXX 21184 41881 32450 20000 10189 20180 30109 40129 82500 333 56900 59026 70000 82620=
41883,2024,03,15,00,00,AAXX 15004 41883 02930 00000 10228 20220 30092 40113 333 59003 70000==
41883,2024,03,15,03,00,AAXX 15034 41883 01450 80000 10246 20220 30118 40138 70520 8352/ 333 20214 58001 70000 83618 88458==
41883,2024,03,15,06,00,AAXX 15064 41883 02956 00000 10310 20220 30116 40136 333 58009 70000==
41883,2024,03,15,09,00,AAXX 15094 41883 02956 00000 10335 20150 30092 40112 333 58015 70000==
41883,2024,03,15,12,00,AAXX 15124 41883 02956 00000 10305 20180 30090 40110 333 10338 58022 70000==
41883,2024,03,15,15,00,AAXX 15154 41883 32930 00000 10246 20190 30113 40133 333 58019 70000=
41883,2024,03,15,18,00,AAXX 15184 41883 02930 00000 10237 20180 30117 40138 333 58024 70000==
41883,2024,03,15,21,00,AAXX 15214 41883 02930 00000 10229 20180 30111 40132 333 58028 70000==
41883,2024,03,16,00,00,AAXX 16004 41883 02930 00000 10223 20200 30113 40134 333 58021 70000==
41883,2024,03,16,03,00,AAXX 16034 41883 02956 00000 10270 20210 30139 40159 333 20214 58021 70000==
41883,2024,03,16,06,00,AAXX 16064 41883 02956 00000 10324 20110 30129 40149 333 58013 70000==
41883,2024,03,16,09,00,AAXX 16094 41883 02956 02702 10326 20100 30099 40119 333 58007 70000==
41883,2024,03,16,12,00,AAXX 16124 41883 02/50 40000 10300 20140 30095 40115 84030 333 10335 58005 70000 84362==
41883,2024,03,16,15,00,AAXX 16154 41883 02430 60000 10274 20180 30109 40129 82520 333 59004 70000 82618 86458==
41883,2024,03,16,18,00,AAXX 16184 41883 02430 80000 10262 20210 30115 40135 8452/ 333 59002 70000 84618 88458==
41883,2024,03,16,21,00,AAXX 16214 41883 02930 00000 10240 20180 30108 40129 333 59003 70000==
41883,2024,03,17,00,00,AAXX 17004 41883 02430 40000 10226 20190 30113 40134 82520 333 58000 70000 82618 84458==
41883,2024,03,17,03,00,AAXX 17034 41883 02/50 30000 10266 20190 30141 40161 83030 333 20220 58002 70000 83362==
41883,2024,03,17,06,00,AAXX 17064 41883 02956 02702 10316 20180 30131 40151 333 58002 70000==
41883,2024,03,17,09,00,AAXX 17094 41883 02956 00000 10326 20170 30097 40117 333 59002 70000==
41883,2024,03,17,12,00,AAXX 17124 41883 02950 00000 10300 20210 30091 40111 333 10333 59004 70000==
41883,2024,03,17,15,00,AAXX 17154 41883 02930 00000 10260 20220 30105 40125 333 59004 70000==
41883,2024,03,17,18,00,AAXX 17184 41883 02930 00000 10242 20220 30108 40129 333 59007 70000==
41883,2024,03,17,21,00,AAXX 17214 41883 02930 00000 10234 20210 30101 40122 333 59007 70000==
41883,2024,03,18,00,00,AAXX 18004 41883 02930 00000 10226 20210 30106 40127 333 59007 70000==
41883,2024,03,18,03,00,AAXX 18034 41883 02/50 20000 10284 20200 30124 40144 82030 333 20222 59017 70000 82362==
41883,2024,03,18,06,00,AAXX 18064 41883 02450 61302 10320 20190 30121 40141 83520 333 59010 70000 83618 86458==
41883,2024,03,18,09,00,AAXX 18094 41883 02456 60000 10326 20190 30089 40109 82530 333 59008 70000 82616 86382==
41883,2024,03,18,12,00,AAXX 18124 41883 02/56 20000 10310 20180 30078 40098 81030 333 10334 59013 70000 82362==
41883,2024,03,18,15,00,AAXX 18154 41883 02430 60000 10274 20210 30093 40113 83510 333 59012 70000 83616 86459==
41883,2024,03,18,18,00,AAXX 18184 41883 02430 80000 10268 20220 30108 40128 8552/ 333 58000 70000 85616 88459==
41883,2024,03,18,21,00,AAXX 18214 41883 02430 80000 10257 20220 30099 40119 8552/ 333 59002 70000 85616 88459==
41883,2024,03,19,00,00,AAXX 19004 41883 02430 81303 10250 20220 30096 40116 8552/ 333 59010 70000 85616 88459==
41883,2024,03,19,03,00,AAXX 19034 41883 02450 80000 10270 20220 30123 40143 8452/ 333 20246 59001 70000 84618 88458==
41883,2024,03,19,06,00,AAXX 19064 41883 02450 81302 10310 20230 30116 40136 8452/ 333 59006 70000 84618 88458==
41883,2024,03,19,09,00,AAXX 19094 41883 02456 80000 10306 20250 30087 40107 8552/ 333 59002 70000 85616 88459==
41883,2024,03,19,12,00,AAXX 19124 41883 02340 80906 10280 20190 30089 40109 8562/ 333 10315 58011 70000 85710 88459==
41883,2024,03,19,15,00,AAXX 19154 41883 02430 81304 10248 20190 30109 40129 8552/ 333 58016 70000 85616 88459==
41883,2024,03,19,18,00,AAXX 19184 41883 02430 80000 10242 20180 30109 40130 8552/ 333 58001 70000 85616 88459==
41883,2024,03,19,21,00,AAXX 19214 41883 02430 80000 10230 20210 30097 40118 8552/ 333 59002 70000 85616 88459==
41883,2024,03,20,00,00,AAXX 20004 41883 01330 82702 10216 20210 30113 40134 76162 8572/ 333 58017 70050 85709 88458==
41883,2024,03,20,03,00,AAXX 20034 41883 01340 80000 10205 20200 30143 40163 76166 8572/ 333 20214 58021 70130 85709 88458==
41883,2024,03,20,06,00,AAXX 20064 41883 21450 80000 10210 20200 30141 40161 76166 8572/ 333 58025 60119 70160 85709 88458==
41883,2024,03,20,09,00,AAXX 20094 41883 01350 80000 10212 20200 30120 40140 76166 8572/ 333 58033 70200 85709 88458==
41883,2024,03,20,12,00,AAXX 20124 41883 21340 80000 10210 20200 30118 40138 76166 8572/ 333 10215 58029 60069 70220 85709 88458==
41883,2024,03,20,15,00,AAXX 20154 41883 02430 80000 10200 20190 30128 40148 8552/ 333 58019 70220 85616 88459==
41883,2024,03,20,18,00,AAXX 20184 41883 02430 80000 10200 20190 30130 40150 8552/ 333 58021 70220 85616 88459==
41883,2024,03,20,21,00,AAXX 20214 41883 02430 80000 10195 20190 30121 40141 8552/ 333 58024 70220 85616 88459==
41883,2024,03,21,00,00,AAXX 21004 41883 02430 80000 10190 20180 30118 40138 8552/ 333 58005 70170 85616 88459==
41883,2024,03,21,03,00,AAXX 21034 41883 02456 60000 10234 20180 30142 40163 83530 333 20182 59002 70090 83616 86362==
41883,2024,03,21,06,00,AAXX 21064 41883 02456 72303 10250 20160 30133 40154 85420 333 59008 70060 83616 84828 87459==
41883,2024,03,21,09,00,AAXX 21094 41883 02456 60000 10270 20160 30097 40117 84510 333 59023 70020 84616 86459==
41883,2024,03,21,12,00,AAXX 21124 41883 02440 60000 10256 20180 30086 40106 83510 333 10275 59032 70000 83616 86459==
41883,2024,03,21,15,00,AAXX 21154 41883 01330 80000 10214 20170 30115 40135 71392 8532/ 333 59013 70000 85616 88458 81930==
41883,2024,03,21,18,00,AAXX 21184 41883 02430 80000 10195 20180 30109 40129 8552/ 333 59021 70000 85616 88458==
41883,2024,03,21,21,00,AAXX 21214 41883 02430 80000 10186 20180 30082 40102 8552/ 333 59039 70000 85616 88458==
41886,2024,03,15,00,00,AAXX 15004 41886 01440 80902 10220 20210 30102 40123 70521 8452/ 333 58001 70000 84617 88460==
41886,2024,03,15,03,00,AAXX 15034 41886 01440 70903 10242 20220 30126 40147 70522 84570 333 20215 58001 70000 84617 86460==
41886,2024,03,15,06,00,AAXX 15064 41886 01456 60902 10286 20230 30123 40144 70522 84570 333 58009 70000 84618 85460==
41886,2024,03,15,09,00,AAXX 15094 41886 02/57 31503 10306 20220 30101 40121 83030 333 58025 70000 83460==
41886,2024,03,15,12,00,AAXX 15124 41886 02956 00901 10287 20220 30097 40118 333 10312 58023 70000==
41886,2024,03,15,15,00,AAXX 15154 41886 01950 00901 10248 20230 30119 40140 70500 333 58019 70000==
41886,2024,03,15,18,00,AAXX 15184 41886 01950 00000 10230 20220 30122 40143 70500 333 58023 70000==
41886,2024,03,15,21,00,AAXX 15214 41886 01930 00000 10225 20220 30123 40144 71044 333 58023 70000==
41886,2024,03,16,00,00,AAXX 16004 41886 01920 00000 10220 20220 30124 40145 71044 333 58022 70000==
41886,2024,03,16,03,00,AAXX 16034 41886 01950 01203 10262 20220 30146 40167 70540 333 20216 58020 70000==
41886,2024,03,16,06,00,AAXX 16064 41886 01450 40000 10310 20230 30135 40156 70541 84500 333 58012 70000 84618==
41886,2024,03,16,09,00,AAXX 16094 41886 01456 60502 10280 20210 30104 40125 70196 82570 333 58003 70036 82618 85460==
41886,2024,03,16,12,00,AAXX 16124 41886 21456 70502 10266 20210 30104 40125 70396 84370 333 10320 58007 60045 70036 82618 86460 81930==
41886,2024,03,16,15,00,AAXX 16154 41886 01450 80000 10240 20220 30119 40140 70522 8431/ 333 58000 70036 82618 88460 81930==
41886,2024,03,16,18,00,AAXX 16184 41886 02450 80000 10240 20210 30116 40137 8442/ 333 59006 70036 83618 88460==
41886,2024,03,16,21,00,AAXX 16214 41886 01450 80000 10230 20200 30125 40147 70522 8252/ 333 58002 70036 82618 88460==
41886,2024,03,17,00,00,AAXX 17004 41886 01450 80501 10218 20200 30129 40150 70522 8252/ 333 58005 70036 82618 88460==
41886,2024,03,17,03,00,AAXX 17034 41886 02956 01304 10260 20190 30145 40166 333 20216 59001 70036==
41886,2024,03,17,06,00,AAXX 17064 41886 02957 01301 10300 20180 30135 40156 333 58000 70036==
41886,2024,03,17,09,00,AAXX 17094 41886 02957 01802 10315 20190 30099 40119 333 59005 70000==
41886,2024,03,17,12,00,AAXX 17124 41886 02950 00000 10298 20230 30094 40115 333 10318 59010 70000==
41886,2024,03,17,15,00,AAXX 17154 41886 02940 00000 10254 20220 30112 40133 333 59007 70000==
41886,2024,03,17,18,00,AAXX 17184 41886 02940 00000 10237 20220 30112 40133 333 59004 70000==
41886,2024,03,17,21,00,AAXX 17214 41886 01940 00000 10223 20210 30111 40132 70500 333 59014 70000==
41886,2024,03,18,00,00,AAXX 18004 41886 01930 00000 10216 20210 30110 40131 70500 333 59019 70000==
41886,2024,03,18,03,00,AAXX 18034 41886 01950 00000 10267 20230 30129 40150 70500 333 20214 59016 70000==
41886,2024,03,18,06,00,AAXX 18064 41886 02956 00000 10310 20200 30125 40145 333 59010 70000==
41886,2024,03,18,09,00,AAXX 18094 41886 02457 61804 10315 20160 30096 40116 82540 333 59003 70000 82618 86363==
41886,2024,03,18,12,00,AAXX 18124 41886 02456 21801 10290 20210 30082 40103 82500 333 10320 59012 70000 82618==
41886,2024,03,18,15,00,AAXX 18154 41886 02950 00000 10245 20230 30101 40122 333 59011 70000==
41886,2024,03,18,18,00,AAXX 18184 41886 02950 00000 10235 20220 30110 40131 333 59002 70000==
41886,2024,03,18,21,00,AAXX 18214 41886 02450 80000 10233 20210 30107 40128 8252/ 333 59004 70000 82618 88460==
41886,2024,03,19,00,00,AAXX 19004 41886 02450 80000 10230 20210 30102 40123 8252/ 333 59008 70000 82618 88460==
41886,2024,03,19,03,00,AAXX 19034 41886 01450 80000 10256 20210 30128 40149 70522 8352/ 333 20223 59001 70000 83618 88461==
41886,2024,03,19,06,00,AAXX 19064 41886 01450 83602 10294 20180 30120 40141 70522 8251/ 333 59005 70000 82618 88462==
41886,2024,03,19,09,00,AAXX 19094 41886 02450 80000 10302 20190 30089 40109 8352/ 333 59006 70000 83618 88460==
41886,2024,03,19,12,00,AAXX 19124 41886 11450 80000 10235 20200 30101 40121 60016 70296 8352/ 333 10313 58019 70010 83618 88460==
41886,2024,03,19,15,00,AAXX 19154 41886 02450 80000 10237 20200 30119 40139 8352/ 333 58018 70010 83618 88460==
41886,2024,03,19,18,00,AAXX 19184 41886 02450 80000 10230 20200 30109 40129 8352/ 333 59001 70010 83618 88460==
41886,2024,03,19,21,00,AAXX 19214 41886 02440 80000 10220 20200 30106 40127 8352/ 333 58010 70010 83618 88460==
41886,2024,03,20,00,00,AAXX 20004 41886 12440 83202 10214 20200 30123 40144 60016 8352/ 333 58021 70016 83618 88460==
41886,2024,03,20,03,00,AAXX 20034 41886 01440 80000 10210 20200 30151 40172 76162 8432/ 333 20214 58023 70046 83616 88458 81930==
41886,2024,03,20,06,00,AAXX 20064 41886 21450 83202 10213 20190 30135 40156 76166 8432/ 333 58015 60059 70064 83618 88460 81930==
41886,2024,03,20,09,00,AAXX 20094 41886 01350 83304 10218 20200 30123 40144 70262 8672/ 333 58034 70066 83709 85616 88458==
41886,2024,03,20,12,00,AAXX 20124 41886 21450 83302 10216 20190 30129 40150 70262 8552/ 333 10264 58028 69928 70056 85616 88458==
41886,2024,03,20,15,00,AAXX 20154 41886 02450 30000 10205 20190 30131 40152 82530 333 58012 70056 82618 83362==
41886,2024,03,20,18,00,AAXX 20184 41886 01350 80000 10194 20170 30138 40159 76121 8672/ 333 58029 70002 82710 85616 88458==
41886,2024,03,20,21,00,AAXX 20214 41886 02450 80000 10190 20180 30130 40151 8252/ 333 58024 70058 82616 88458==
41886,2024,03,21,00,00,AAXX 21004 41886 01/56 70000 10194 20170 30124 40145 70162 87070 333 59027 70002 84460 85362==
41886,2024,03,21,03,00,AAXX 21034 41886 02/56 72301 10218 20190 30147 40168 87070 333 20190 59004 70024 86460==
41886,2024,03,21,06,00,AAXX 21064 41886 02/56 71803 10250 20160 30141 40162 87070 333 58006 70006 86460==
41886,2024,03,21,09,00,AAXX 21094 41886 01450 80903 10250 20170 30108 40129 71722 8432/ 333 59015 70004 83616 88458 81930==
41886,2024,03,21,12,00,AAXX 21124 41886 01450 80000 10230 20200 30098 40119 70292 8432/ 333 10260 59010 70000 83616 88458 81930==
41886,2024,03,21,15,00,AAXX 21154 41886 02450 70902 10217 20200 30120 40141 83510 333 59011 70000 83618 88460==
41886,2024,03,21,18,00,AAXX 21184 41886 02/50 30000 10200 20190 30115 40136 83030 333 59023 70002 83365==
41886,2024,03,21,21,00,AAXX 21214 41886 02/50 30000 10195 20190 30103 40124 83030 333 59022 70002 83365==
41888,2024,03,15,00,00,AAXX 15004 41888 31440 80901 10215 20210 30108 40118 70522 8352/ 333 56999 59002 70000 83616 88458=
41888,2024,03,15,06,00,AAXX 15064 41888 32456 60902 10280 20220 30132 40142 83410 333 56990 58012 70000=
41888,2024,03,15,12,00,AAXX 15124 41888 32956 00000 10290 20220 30101 40110 333 10306 58020 70000=
41888,2024,03,15,18,00,AAXX 15184 41888 32950 00000 10334 20220 30129 40139 333 58022 70000=
41888,2024,03,16,00,00,AAXX 16004 41888 31930 00902 10214 20210 30128 40138 70500 333 58020 70000=
41888,2024,03,16,06,00,AAXX 16064 41888 32956 00902 10298 20220 30142 40152 333 58010 70000=
41888,2024,03,16,12,00,AAXX 16124 41888 11950 01301 10260 20210 30107 40117 60126 70262 333 10315 58006 70120=
41888,2024,03,17,00,00,AAXX 17004 41888 31940 50901 10215 20200 30134 40144 70520 82530 333 56990 58006 70120 82618 85364=
41888,2024,03,17,06,00,AAXX 17064 41888 32956 02201 10300 20190 30138 40148 333 59004 70120=
41888,2024,03,17,12,00,AAXX 17124 41888 32956 02201 10265 20240 30102 40112 333 10315 59005 70000=
41888,2024,03,17,18,00,AAXX 17184 41888 NIL=
41888,2024,03,18,00,00,AAXX 18004 41888 31940 01901 10210 20210 30117 40127 70500 333 59017 70000=
41888,2024,03,18,06,00,AAXX 18064 41888 32456 52601 10305 20190 30129 40139 82530 333 56990 59009 70000 82618 85362=
41888,2024,03,18,12,00,AAXX 18124 41888 32456 51901 10280 20200 30088 40098 82530 333 10315 56990 59014 70000 82618 85364=
41888,2024,03,18,15,00,AAXX 18154 41888 NIL=
41888,2024,03,19,00,00,AAXX 19004 41888 31440 40000 10215 20210 30110 40120 70511 82530 333 56990 59007 70000 82618 84362=
41888,2024,03,19,06,00,AAXX 19064 41888 32456 50901 10285 20190 30122 40132 82530 333 56990 59007 70000 82618 85362=
41888,2024,03,19,12,00,AAXX 19124 41888 11440 62701 10240 20220 30105 40115 60017 70596 82510 333 10310 56990 58017 70010 82617 86460=
41888,2024,03,19,18,00,AAXX 19184 41888 NIL=
41888,2024,03,20,00,00,AAXX 20004 41888 11440 80901 10215 20210 30128 40138 69937 76162 83520 333 56990 58013 70013 83616 88460=
41888,2024,03,20,06,00,AAXX 20064 41888 11450 62901 10215 20200 30137 40147 60049 70162 82530 333 56990 58015 70054 82617 86460=
41888,2024,03,20,12,00,AAXX 20124 41888 32450 63601 10210 20180 30131 40141 82520 333 10225 56990 58026 70044 82617 86460=
41888,2024,03,20,18,00,AAXX 20184 41888 NIL=
41888,2024,03,21,06,00,AAXX 21064 41888 32456 60901 10255 20170 30142 40152 83520 333 56990 58005 70000 82617 86460=
41888,2024,03,21,12,00,AAXX 21124 41888 32450 60903 10230 20190 30106 40116 83520 333 10262 56990 59025 70000 82617 86460=
41891,2024,03,15,00,00,AAXX 15004 41891 01430 30903 10215 20200 30089 40128 70522 8532/ 333 59001 70010 82710 83616 88459 81930==
41891,2024,03,15,03,00,AAXX 15034 41891 01435 60904 10244 20190 30106 40145 70522 83340 333 20215 59002 70000 83615 85364 81930==
41891,2024,03,15,06,00,AAXX 15064 41891 01445 51804 10300 20220 30104 40142 70522 82340 333 58005 70000 82615 85365 81930==
41891,2024,03,15,09,00,AAXX 15094 41891 01450 52702 10330 20180 30077 40115 70522 82340 333 58018 70000 82615 85365 81930==
41891,2024,03,15,12,00,AAXX 15124 41891 01440 22903 10295 20200 30075 40113 70521 82500 333 10336 58021 70000 82615==
41891,2024,03,15,15,00,AAXX 15154 41891 31440 13602 10256 20230 30096 40135 70511 81500 333 56900 58017 70000 81615=
41891,2024,03,15,18,00,AAXX 15184 41891 01430 30902 10228 20210 30102 40141 70511 81530 333 58017 70000 81615 83365==
41891,2024,03,15,21,00,AAXX 15214 41891 01430 30603 10216 20200 30102 40141 70511 81530 333 58020 70000 81615 83365==
41891,2024,03,16,00,00,AAXX 16004 41891 01430 30902 10210 20190 30108 40147 70511 81530 333 58019 70000 81615 83365==
41891,2024,03,16,03,00,AAXX 16034 41891 01435 10503 10250 20160 30125 40164 70511 81500 333 20210 58019 70000 81615==
41891,2024,03,16,06,00,AAXX 16064 41891 01945 00308 10308 20180 30113 40151 70511 333 58009 70000==
41891,2024,03,16,09,00,AAXX 16094 41891 01445 32503 10313 20110 30081 40119 70521 8532/ 333 58004 70000 81710 83616 88458 81930==
41891,2024,03,16,12,00,AAXX 16124 41891 01440 32703 10277 20160 30084 40122 70521 82530 333 10342 58009 70000 82616 83365==
41891,2024,03,16,15,00,AAXX 16154 41891 01930 00000 10235 20200 30100 40139 70510 333 58004 70000==
41891,2024,03,16,18,00,AAXX 16184 41891 01430 60000 10233 20190 30104 40143 70520 83530 333 58002 70000 82615 85365==
41891,2024,03,16,21,00,AAXX 16214 41891 01430 83103 10220 20180 30107 40146 70522 8532/ 333 58005 70000 81710 83616 88458 81930==
41891,2024,03,17,00,00,AAXX 17004 41891 01430 83104 10215 20180 30111 40150 70522 8532/ 333 58003 70000 81710 83616 88458 81930==
41891,2024,03,17,03,00,AAXX 17034 41891 01440 30903 10252 20180 30122 40161 70521 81530 333 20215 59003 70000 81615 83365==
41891,2024,03,17,06,00,AAXX 17064 41891 01945 01203 10318 20180 30108 40146 70510 333 59005 70000==
41891,2024,03,17,09,00,AAXX 17094 41891 01950 01804 10335 20190 30073 40111 70500 333 59008 70000==
41891,2024,03,17,12,00,AAXX 17124 41891 01950 02604 10305 20190 30071 40109 70500 333 10344 59013 70000==
41891,2024,03,17,15,00,AAXX 17154 41891 01950 00000 10257 20210 30090 40129 70500 333 59010 70000==
41891,2024,03,17,18,00,AAXX 17184 41891 01935 00904 10238 20210 30094 40133 70500 333 59010 70000==
41891,2024,03,17,21,00,AAXX 17214 41891 01935 00000 10230 20210 30091 40130 70500 333 59016 70000==
41891,2024,03,18,00,00,AAXX 18004 41891 01432 31302 10218 20190 30088 40127 70500 81530 333 59023 70000 81615 83364==
41891,2024,03,18,03,00,AAXX 18034 41891 01440 31205 10266 20170 30108 40147 70500 81530 333 20215 59014 70000 81615 83364==
41891,2024,03,18,06,00,AAXX 18064 41891 01450 61704 10314 20120 30094 40132 70521 82530 333 59014 70000 82615 85365==
41891,2024,03,18,09,00,AAXX 18094 41891 01450 62705 10325 20140 30069 40107 70522 83340 333 59004 70000 83615 85365==
41891,2024,03,18,12,00,AAXX 18124 41891 01440 63503 10292 20170 30062 40100 70522 83340 333 10336 59009 70000 83615 85365==
41891,2024,03,18,15,00,AAXX 18154 41891 01930 00503 10243 20170 30081 40119 70500 333 59009 70000==
41891,2024,03,18,18,00,AAXX 18184 41891 01930 00903 10230 20170 30086 40124 70500 333 59008 70000==
41891,2024,03,18,21,00,AAXX 18214 41891 01930 00903 10222 20140 30085 40124 70500 333 59006 70000==
41891,2024,03,19,00,00,AAXX 19004 41891 01930 00903 10215 20140 30083 40122 70510 81530 333 59005 70000 81616 83365==
41891,2024,03,19,03,00,AAXX 19034 41891 01435 70904 10241 20150 30106 40145 70511 84370 333 20215 59002 70000 84615 86460 81930==
41891,2024,03,19,06,00,AAXX 19064 41891 01440 61302 10304 20140 30096 40134 70521 83340 333 58002 70000 83615 85365 81930==
41891,2024,03,19,09,00,AAXX 19094 41891 01445 60902 10322 20140 30065 40103 70522 83340 333 59004 70000 83615 85365 81930==
41891,2024,03,19,12,00,AAXX 19124 41891 01440 80000 10287 20200 30071 40109 70522 8532/ 333 10332 58009 70000 82710 83615 88458 81930==
41891,2024,03,19,15,00,AAXX 19154 41891 41325 80000 10265 20210 30091 40129 76166 8632/ 333 58010 86708 88458 81925==
41891,2024,03,19,18,00,AAXX 19184 41891 21430 80903 10242 20200 30093 40132 70562 8532/ 333 58007 60005 81710 84615 88459 81930==
41891,2024,03,19,21,00,AAXX 19214 41891 41430 80902 10233 20200 30091 40130 70522 8532/ 333 58006 82710 84615 88459 81930==
41891,2024,03,20,00,00,AAXX 20004 41891 01320 80603 10215 20190 30088 40127 76162 8632/ 333 58005 70010 86708 88458 81925==
41891,2024,03,20,03,00,AAXX 20034 41891 01435 80904 10234 20160 30113 40152 70522 333 20215 59007 70012 81710 84615 88460 81930==
41891,2024,03,20,06,00,AAXX 20064 41891 11440 82504 10272 20150 30104 40143 60001 70562 8532/ 333 58008 70012 81710 84615 88460 81930==
41891,2024,03,20,09,00,AAXX 20094 41891 02445 80612 10292 20110 30081 40119 85310 333 58012 70012 81710 83616 87459 81930==
41891,2024,03,20,12,00,AAXX 20124 41891 02440 80505 10260 20130 30087 40125 8532/ 333 10300 58016 70012 81710 83616 88458 81930==
41891,2024,03,20,15,00,AAXX 20154 41891 01430 30806 10252 20130 30112 40151 70522 81530 333 58021 70012 81615 83365==
41891,2024,03,20,18,00,AAXX 20184 41891 01430 30806 10235 20130 30103 40142 70511 81530 333 58010 70012 81615 83365==
41891,2024,03,20,21,00,AAXX 20214 41891 01430 51510 10223 20140 30101 40140 70521 82530 333 58010 70000 82615 84365==
41891,2024,03,21,00,00,AAXX 21004 41891 01435 82804 10208 20180 30108 40147 70522 8532/ 333 20215 58020 70000 81710 84615 88459 81930==
41891,2024,03,21,03,00,AAXX 21034 41891 01440 81208 10210 20180 30126 40165 70522 8532/ 333 20205 58013 70000 82710 84615 88459 81930==
41891,2024,03,21,06,00,AAXX 21064 41891 11435 81203 10235 20180 30116 40155 60002 70562 8532/ 333 58012 82710 84615 88459 81930==
41891,2024,03,21,09,00,AAXX 21094 41891 41440 80903 10233 20180 30091 40130 70522 8532/ 333 58010 81710 83616 88458 81930==
41891,2024,03,21,12,00,AAXX 21124 41891 41430 80903 10230 20190 30086 40125 70522 8532/ 333 10245 59001 81710 83616 88458 81930==
41891,2024,03,21,15,00,AAXX 21154 41891 41430 60902 10210 20180 30100 40139 70522 83330 333 59012 82615 85365 81930==
41891,2024,03,21,18,00,AAXX 21184 41891 41430 60000 10202 20190 30100 40140 70522 83330 333 59003 83615 85365 81930==
41891,2024,03,21,21,00,AAXX 21214 41891 01430 80903 10195 20190 30082 40122 72122 8532/ 333 59019 70032 82710 84615 88458 81930==
41895,2024,03,15,00,00,AAXX 15004 41895 01950 01801 10214 20200 30088 40109 70500 333 59010 70000==
41895,2024,03,15,03,00,AAXX 15034 41895 01408 82301 10234 20220 30120 40142 74240 8452/ 333 20202 58004 70000 84615 88458==
41895,2024,03,15,06,00,AAXX 15064 41895 01958 02302 10326 20150 30114 40136 70040 333 58008 70000==
41895,2024,03,15,09,00,AAXX 15094 41895 02958 02702 10354 20090 30088 40110 333 58015 70000==
41895,2024,03,15,12,00,AAXX 15124 41895 02957 00000 10315 20160 30086 40108 333 10358 58018 70000==
41895,2024,03,15,15,00,AAXX 15154 41895 02950 00000 10235 20190 30116 40138 333 58020 70000==
41895,2024,03,15,18,00,AAXX 15184 41895 02950 00000 10215 20180 30114 40137 333 58016 70000==
41895,2024,03,15,21,00,AAXX 15214 41895 02950 00000 10210 20190 30107 40130 333 58008 70000==
41895,2024,03,16,00,00,AAXX 16004 41895 02950 00000 10205 20200 30114 40137 333 58026 70000==
41895,2024,03,16,03,00,AAXX 16034 41895 01956 02704 10261 20200 30142 40164 70500 333 20204 58022 70000==
41895,2024,03,16,06,00,AAXX 16064 41895 02/57 32703 10325 20150 30131 40153 83030 333 58017 70000 83362==
41895,2024,03,16,09,00,AAXX 16094 41895 02958 00503 10334 20100 30097 40119 333 58009 70000==
41895,2024,03,16,12,00,AAXX 16124 41895 02450 53602 10292 20160 30095 40117 83520 333 10341 58009 70000 83616 85458==
41895,2024,03,16,15,00,AAXX 16154 41895 01450 61302 10265 20190 30109 40132 71722 84320 333 59007 70000 83616 86458 81930==
41895,2024,03,16,18,00,AAXX 16184 41895 01450 60000 10245 20210 30111 40134 70292 83520 333 59003 70000 83616 86458==
41895,2024,03,16,21,00,AAXX 16214 41895 02950 01301 10215 20190 30111 40134 333 58004 70000==
41895,2024,03,17,00,00,AAXX 17004 41895 02450 30000 10200 20180 30118 40141 83500 333 58004 70000 83616==
41895,2024,03,17,03,00,AAXX 17034 41895 01956 02702 10258 20180 30139 40161 70500 333 20195 59003 70000==
41895,2024,03,17,06,00,AAXX 17064 41895 02958 00505 10314 20150 30131 40153 333 58000 70000==
41895,2024,03,17,09,00,AAXX 17094 41895 02958 00506 10330 20160 30096 40118 333 59001 70000==
41895,2024,03,17,12,00,AAXX 17124 41895 02956 00000 10294 20200 30091 40113 333 10340 59004 70000==
41895,2024,03,17,15,00,AAXX 17154 41895 02950 00000 10240 20210 30110 40133 333 58001 70000==
41895,2024,03,17,18,00,AAXX 17184 41895 NIL=
41895,2024,03,17,21,00,AAXX 17214 41895 02950 00000 10223 20210 30096 40119 333 59015 70000==
41895,2024,03,18,00,00,AAXX 18004 41895 01950 00000 10210 20200 30101 40124 70500 333 59017 70000==
41895,2024,03,18,03,00,AAXX 18034 41895 01956 23602 10276 20230 30125 40147 70510 80002 333 20208 59014 70000 82080==
41895,2024,03,18,06,00,AAXX 18064 41895 02456 60903 10320 20210 30121 40143 83510 333 59010 70000 83616 86458==
41895,2024,03,18,09,00,AAXX 18094 41895 02456 52301 10337 20190 30085 40107 83402 333 59011 70000 82616 84080==
41895,2024,03,18,12,00,AAXX 18124 41895 02456 51301 10315 20210 30073 40095 83520 333 10344 59018 70000 83616 85458==
41895,2024,03,18,15,00,AAXX 18154 41895 01450 61405 10242 20180 30107 40129 72996 84320 333 59003 70002 83616 86458 81930==
41895,2024,03,18,18,00,AAXX 18184 41895 21450 80000 10210 20190 30103 40126 70396 333 59009 60065 70063 84615 88458==
41895,2024,03,18,21,00,AAXX 18214 41895 02450 83601 10220 20190 30093 40116 8452/ 333 59003 70063 84616 88458==
41895,2024,03,19,00,00,AAXX 19004 41895 02450 60000 10222 20210 30101 40124 83520 333 58000 70063 83616 86458==
41895,2024,03,19,03,00,AAXX 19034 41895 02456 60000 10257 20220 30123 40145 83510 333 20198 59002 70063 83616 86458==
41895,2024,03,19,06,00,AAXX 19064 41895 02456 82301 10294 20210 30120 40142 8452/ 333 59001 70063 84615 88458==
41895,2024,03,19,09,00,AAXX 19094 41895 02456 61801 10316 20190 30087 40109 83510 333 58002 70063 83616 86458==
41895,2024,03,19,12,00,AAXX 19124 41895 02450 62702 10286 20210 30087 40109 83520 333 10320 58014 70063 83616 86458==
41895,2024,03,19,15,00,AAXX 19154 41895 02450 60902 10255 20210 30114 40136 83520 333 58007 70061 83616 86458==
41895,2024,03,19,18,00,AAXX 19184 41895 02450 81301 10245 20210 30108 40130 8352/ 333 58005 70000 83616 88458==
41895,2024,03,19,21,00,AAXX 19214 41895 01450 82301 10235 20220 30095 40118 76122 8452/ 333 58002 70004 84615 88458==
41895,2024,03,20,00,00,AAXX 20004 41895 21450 82302 10201 20200 30103 40126 76162 8452/ 333 59001 60057 70054 84614 88458==
41895,2024,03,20,03,00,AAXX 20034 41895 01440 80902 10210 20200 30137 40160 76166 8452/ 333 20198 58014 70070 84614 88458==
41895,2024,03,20,06,00,AAXX 20064 41895 21430 81802 10217 20210 30139 40162 76166 8532/ 333 58019 60039 70080 84614 88458 81925==
41895,2024,03,20,09,00,AAXX 20094 41895 01430 81802 10215 20210 30120 40142 76166 8532/ 333 58033 70120 84614 88458 81925==
41895,2024,03,20,12,00,AAXX 20124 41895 21430 81402 10206 20206 30120 40143 76166 8532/ 333 10226 58033 60039 70149 84614 88458 81925==
41895,2024,03,20,15,00,AAXX 20154 41895 01450 81802 10199 20190 30138 40161 70262 8452/ 333 58024 70150 84615 88458==
41895,2024,03,20,18,00,AAXX 20184 41895 11450 81802 10190 20180 30143 40166 69916 70262 8452/ 333 58035 70150 84615 88458==
41895,2024,03,20,21,00,AAXX 20214 41895 02950 00000 10180 20170 30118 40141 333 58023 70000==
41895,2024,03,21,00,00,AAXX 21004 41895 01940 00000 10178 20178 30123 40146 70500 333 58020 70096==
41895,2024,03,21,03,00,AAXX 21034 41895 01440 50000 10204 20180 30139 40162 70520 84520 333 20173 58002 70080 84615 83458==
41895,2024,03,21,06,00,AAXX 21064 41895 02557 22302 10260 20180 30128 40150 82200 333 59011 70070 82825==
41895,2024,03,21,09,00,AAXX 21094 41895 02457 72303 10254 20160 30101 40123 82570 333 59019 70030 82615 85458==
41895,2024,03,21,12,00,AAXX 21124 41895 02456 62302 10240 20190 30088 40111 83520 333 10277 59032 70001 83616 86458==
41895,2024,03,21,15,00,AAXX 21154 41895 02450 62702 10218 20200 30114 40137 83510 333 59024 70000 83616 86458==
41895,2024,03,21,18,00,AAXX 21184 41895 02450 60000 10210 20200 30112 40135 83510 333 59033 70000 83616 86458==
41895,2024,03,21,21,00,AAXX 21214 41895 02950 00000 10188 20180 30085 40108 333 59033 70000==
41897,2024,03,15,00,00,AAXX 15004 41897 NIL=
41897,2024,03,15,06,00,AAXX 15064 41897 31450 31402 10310 20230 30119 40132 70500 84400 333 56900 58005 70000 83618=
41897,2024,03,15,12,00,AAXX 15124 41897 31450 00000 10280 20220 30095 40108 70500 333 10344 58003 70000=
41897,2024,03,15,18,00,AAXX 15184 41897 NIL=
41897,2024,03,16,00,00,AAXX 16004 41897 31940 00000 10230 20220 30106 40119 70500 333 58003 70000=
41897,2024,03,16,06,00,AAXX 16064 41897 31950 02202 10310 20180 30125 40138 70500 333 58012 70000=
41897,2024,03,16,12,00,AAXX 16124 41897 31940 30000 10280 20210 30105 40118 70500 80009 333 10333 58002 70000 83180=
41897,2024,03,17,00,00,AAXX 17004 41897 31940 50000 10220 20210 30122 40135 70522 84610 333 56990 58007 70000 82618 84460=
41897,2024,03,17,06,00,AAXX 17064 41897 31950 03602 10300 20160 30137 40150 70500 333 58010 70000=
41897,2024,03,17,12,00,AAXX 17124 41897 31950 00000 10290 20220 30099 40112 70500 333 10320 59005 70000=
41897,2024,03,17,18,00,AAXX 17184 41897 31940 00000 10235 20220 30115 40128 70500 333 59003 70000=
41897,2024,03,18,00,00,AAXX 18004 41897 31930 00000 10216 20200 30117 40130 70500 333 59011 70000=
41897,2024,03,18,06,00,AAXX 18064 41897 31945 01301 10306 20220 30129 40142 70500 333 59008 70000=
41897,2024,03,18,12,00,AAXX 18124 41897 31950 20601 10288 20250 30083 40096 70521 82030 333 10325 56090 59016 70000 82362=
41897,2024,03,18,15,00,AAXX 18154 41897 31945 00000 10255 20240 30104 40118 70500 333 59002 70000=
41897,2024,03,18,18,00,AAXX 18184 41897 11340 81804 10250 20230 30114 40127 69904 79192 8492/ 333 56499 59001 79999 82709 83615 81925 88458=
41897,2024,03,19,00,00,AAXX 19004 41897 31440 80000 10234 20230 30108 40121 70522 8352/ 333 56999 59009 79999 83615 88458=
41897,2024,03,19,06,00,AAXX 19064 41897 31450 60000 10300 20220 30122 40135 70522 83530 333 56990 59007 79999 83617 86360=
41897,2024,03,19,12,00,AAXX 19124 41897 31450 80902 10262 20180 30096 40109 70522 8352/ 333 10325 56299 58013 79999 83616 88459=
41897,2024,03,19,18,00,AAXX 19184 41897 32445 61301 10233 20180 30114 40128 82530 333 56990 58000 70000 82615 86360=
41897,2024,03,20,00,00,AAXX 20004 41897 11330 80601 10210 20200 30112 40126 60044 76162 8562/ 333 56999 58004 70035 83708 85612 88458=
41897,2024,03,20,06,00,AAXX 20064 41897 11335 80602 10210 20200 30146 40159 60049 76166 8352/ 333 56999 58024 70070 83708 85612 88458=
41897,2024,03,20,12,00,AAXX 20124 41897 11330 81402 10200 20190 30120 40133 60069 76166 8562/ 333 10220 56999 58024 70130 83708 85612 88458=
41897,2024,03,20,18,00,AAXX 20184 41897 11330 51802 10200 20190 30140 40014 70222 83510 333 56990 58026 70140 83617 85458=
41897,2024,03,21,00,00,AAXX 21004 41897 31430 30902 10190 20190 30121 40134 70520 81510 333 56990 58009 70105 81618 83458=
41897,2024,03,21,06,00,AAXX 21064 41897 31450 30902 10255 20180 30137 40137 70500 82510 333 56990 59009 70070 82618 85826=
41897,2024,03,21,12,00,AAXX 21124 41897 31430 60000 10245 20210 30093 40107 71793 84310 333 10275 56990 59027 70010 83617 81929 86458=
41897,2024,03,21,18,00,AAXX 21184 41897 31430 33602 10195 20180 30125 40138 70500 81530 333 56990 59015 70000 81618 83362=
41902,2024,03,15,00,00,AAXX 15004 41902 31415 80503 10222 20210 30104 40113 71044 8352/ 333 56999 59014 70000 83614 88458=
41902,2024,03,15,06,00,AAXX 15064 41902 31450 63201 10285 20220 30124 40133 70544 83530 333 56990 58009 70000 83614 86362=
41902,2024,03,15,12,00,AAXX 15124 41902 32950 03601 10284 20240 30107 40116 333 10320 58013 70000=
41902,2024,03,15,18,00,AAXX 15184 41902 31930 01201 10230 20220 30122 40131 70544 333 58016 70000=
41902,2024,03,16,00,00,AAXX 16004 41902 31915 03601 10212 20210 30122 40131 71044 333 58018 70000=
41902,2024,03,16,12,00,AAXX 16124 41902 31450 52702 10257 20210 30106 40115 70544 82530 333 10322 56990 59001 70000 82614 84362=
41902,2024,03,17,00,00,AAXX 17004 41902 31920 20502 10216 20200 30124 40132 71044 84030 333 56090 58002 70000 84362=
41902,2024,03,17,06,00,AAXX 17064 41902 31950 02701 10304 20200 30132 40141 70040 333 59007 70000=
41902,2024,03,17,12,00,AAXX 17124 41902 31940 00901 10285 20240 30098 40106 70500 333 10329 59008 70000=
41902,2024,03,17,18,00,AAXX 17184 41902 NIL=
41902,2024,03,18,00,00,AAXX 18004 41902 31420 23301 10216 20210 30114 40123 71044 82500 333 56900 59010 70000 82614=
41902,2024,03,18,06,00,AAXX 18064 41902 31450 20901 10305 20210 30122 40131 70340 83500 333 56900 59010 70000 83614=
41902,2024,03,18,12,00,AAXX 18124 41902 32940 30000 10273 20190 30088 40096 83030 333 10308 56090 59010 70000 83362=
41902,2024,03,18,15,00,AAXX 18154 41902 31930 00000 10228 20210 30100 40109 70544 333 59013 70000=
41902,2024,03,18,18,00,AAXX 18184 41902 31430 10000 10227 20200 30095 40104 70544 81500 333 56900 59015 70000 81614=
41902,2024,03,19,00,00,AAXX 19004 41902 31930 43601 10226 20210 30115 40124 70544 84030 333 56090 58001 70000 84362=
41902,2024,03,19,06,00,AAXX 19064 41902 31950 23601 10307 20200 30115 40123 70040 82030 333 56090 59007 70000 82362=
41902,2024,03,19,12,00,AAXX 19124 41902 11440 72702 10268 20230 30098 40107 72996 83190 333 10320 56990 58010 70001 82614 81929 87459=
41902,2024,03,19,18,00,AAXX 19184 41902 NIL=
41902,2024,03,20,00,00,AAXX 20004 41902 11320 82701 10220 20210 30122 40131 60027 76162 8462/ 333 56699 58007 70039 82710 83613 88459=
41902,2024,03,20,06,00,AAXX 20064 41902 11440 63603 10245 20200 30130 40139 60026 70162 83530 333 56890 58015 70041 83614 85362=
41902,2024,03,20,12,00,AAXX 20124 41902 31440 73603 10225 20190 30122 40130 70544 83520 333 10258 56990 58024 70040 83615 87459=
41902,2024,03,20,18,00,AAXX 20184 41902 31440 73602 10196 20190 30134 40143 70544 83520 333 56990 58025 70020 83615 87459=
41902,2024,03,21,06,00,AAXX 21064 41902 32456 72202 10265 20190 30140 40148 83510 333 56990 58010 70012 83615 87459=
41902,2024,03,21,12,00,AAXX 21124 41902 31440 73101 10227 20210 30104 40113 70522 83520 333 10265 56990 59018 70012 83615 87459=
41907,2024,03,15,00,00,AAXX 15004 41907 01935 00000 10200 20190 30094 40109 70521 333 59006 70000==
41907,2024,03,15,03,00,AAXX 15034 41907 01940 02302 10260 20170 30121 40136 70500 333 20200 58000 70000==
41907,2024,03,15,06,00,AAXX 15064 41907 02950 02702 10335 20210 30116 40130 333 58004 70000==
41907,2024,03,15,09,00,AAXX 15094 41907 02957 00000 10355 20090 30092 40106 333 58018 70000==
41907,2024,03,15,12,00,AAXX 15124 41907 02956 00000 10305 20190 30090 40105 333 10357 58019 70000==
41907,2024,03,15,15,00,AAXX 15154 41907 32940 00000 10240 20180 30115 40130 333 58019 70000=
41907,2024,03,15,18,00,AAXX 15184 41907 02940 00000 10212 20180 30118 40133 333 58019 70000==
41907,2024,03,15,21,00,AAXX 15214 41907 02940 00000 10210 20190 30118 40133 333 58026 70000==
41907,2024,03,16,00,00,AAXX 16004 41907 01940 00000 10207 20190 30118 40133 70500 333 58024 70000==
41907,2024,03,16,03,00,AAXX 16034 41907 01945 03102 10265 20190 30145 40160 70500 333 20204 58024 70000==
41907,2024,03,16,06,00,AAXX 16064 41907 02456 33602 10327 20180 30131 40146 83500 333 58015 70000 83616==
41907,2024,03,16,09,00,AAXX 16094 41907 02456 50501 10335 20150 30010 40115 85500 333 58008 70000 85615==
41907,2024,03,16,12,00,AAXX 16124 41907 02430 80501 10285 20190 30095 40110 8552/ 333 10340 58005 70000 85615 88458==
41907,2024,03,16,15,00,AAXX 16154 41907 01430 80000 10225 20210 30116 40131 70296 8552/ 333 58001 70040 85615 88458==
41907,2024,03,16,18,00,AAXX 16184 41907 11330 80000 10220 20190 30114 40129 60046 70296 8662/ 333 59004 70040 83709 85615 88458==
41907,2024,03,16,21,00,AAXX 16214 41907 02330 80000 10210 20190 30108 40123 8662/ 333 59010 70040 83709 85615 88458==
41907,2024,03,17,00,00,AAXX 17004 41907 02430 70000 10198 20190 30110 40126 85510 333 59008 70040 85615 87458==
41907,2024,03,17,03,00,AAXX 17034 41907 02450 60000 10245 20180 30142 40157 83530 333 20190 59003 70040 83615 85360==
41907,2024,03,17,06,00,AAXX 17064 41907 02956 03602 10310 20170 30134 40149 333 58003 70040==
41907,2024,03,17,09,00,AAXX 17094 41907 02956 00502 10325 20150 30100 40114 333 58000 70000==
41907,2024,03,17,12,00,AAXX 17124 41907 02956 00000 10300 20220 30095 40109 333 10330 58000 70040==
41907,2024,03,17,15,00,AAXX 17154 41907 02940 00000 10248 20210 30109 40124 333 59007 70000==
41907,2024,03,17,18,00,AAXX 17184 41907 02940 00000 10220 20200 30115 40130 333 59001 70000==
41907,2024,03,17,21,00,AAXX 17214 41907 02940 00000 10215 20210 30107 40122 333 59001 70000==
41907,2024,03,18,00,00,AAXX 18004 41907 01930 00000 10210 20200 30106 40121 70500 333 59004 70000==
41907,2024,03,18,03,00,AAXX 18034 41907 01940 00000 10260 20210 30128 40142 70500 333 20200 59014 70000==
41907,2024,03,18,06,00,AAXX 18064 41907 02450 71302 10315 20210 30125 40140 83510 333 59009 70000 83615 86458==
41907,2024,03,18,09,00,AAXX 18094 41907 02450 70000 10335 20190 30090 40105 84510 333 59010 70000 84615 85458==
41907,2024,03,18,12,00,AAXX 18124 41907 02950 00000 10305 20230 30077 40091 333 10340 59018 70000==
41907,2024,03,18,15,00,AAXX 18154 41907 02930 00000 10260 20230 30112 40127 333 59003 70000==
41907,2024,03,18,18,00,AAXX 18184 41907 01330 81302 10237 20210 30101 40116 72100 8662/ 333 59014 70010 82709 85615 88458==
41907,2024,03,18,21,00,AAXX 18214 41907 02430 81302 10225 20200 30098 40113 8552/ 333 59009 70010 85615 88458==
41907,2024,03,19,00,00,AAXX 19004 41907 02330 81802 10212 20190 30103 40118 8562/ 333 59003 70010 82709 84615 88458==
41907,2024,03,19,03,00,AAXX 19034 41907 02440 80000 10265 20210 30124 40139 8551/ 333 20210 59004 70010 85615 88458==
41907,2024,03,19,06,00,AAXX 19064 41907 02440 71302 10325 20200 30120 40134 84510 333 59005 70010 84615 85458==
41907,2024,03,19,09,00,AAXX 19094 41907 02440 81302 10330 20150 30089 40103 8452/ 333 59001 70010 84615 88458==
41907,2024,03,19,12,00,AAXX 19124 41907 02440 70000 10310 20200 30087 40102 83572 333 10333 58010 70010 83615 85458==
41907,2024,03,19,15,00,AAXX 19154 41907 02340 81303 10265 20220 30118 40133 8662/ 333 58006 70010 83709 85615 88458==
41907,2024,03,19,18,00,AAXX 19184 41907 02340 80000 10245 20220 30119 40134 8662/ 333 58018 70000 83709 85615 88458==
41907,2024,03,19,21,00,AAXX 19214 41907 02340 80000 10230 20210 30112 40127 8662/ 333 58014 70000 83709 85615 88458==
41907,2024,03,20,00,00,AAXX 20004 41907 01340 82302 10203 20200 30111 40126 76122 8662/ 333 58008 70020 84709 85615 88458==
41907,2024,03,20,03,00,AAXX 20034 41907 01330 80000 10210 20200 30136 40151 76166 8662/ 333 20200 58012 70040 82709 84615 88458==
41907,2024,03,20,06,00,AAXX 20064 41907 01330 80000 10218 20200 30141 40156 76162 8662/ 333 58021 70048 82709 85615 88458==
41907,2024,03,20,09,00,AAXX 20094 41907 01330 81301 10217 20210 30127 40142 76166 8662/ 333 58038 70108 83708 84615 88458==
41907,2024,03,20,12,00,AAXX 20124 41907 21330 80000 10207 20200 30114 40129 72166 8662/ 333 10220 58027 60089 70128 83709 84615 88458==
41907,2024,03,20,15,00,AAXX 20154 41907 02330 80000 10200 20190 30140 40155 8662/ 333 58022 70128 83709 84615 88458==
41907,2024,03,20,18,00,AAXX 20184 41907 02330 80000 10195 20190 30147 40162 8662/ 333 58028 70128 83709 85615 88458==
41907,2024,03,20,21,00,AAXX 20214 41907 02330 80000 10193 20180 30139 40154 8662/ 333 58027 70128 83709 85615 88458==
41907,2024,03,21,00,00,AAXX 21004 41907 01330 80000 10180 20170 30117 40132 70522 8662/ 333 58006 70108 83709 85615 88458==
41907,2024,03,21,03,00,AAXX 21034 41907 02440 70000 10215 20190 30144 40159 84510 333 20170 58008 70088 84615 85458==
41907,2024,03,21,06,00,AAXX 21064 41907 02450 71302 10252 20180 30134 40149 84510 333 59007 70000 84615 87458==
41907,2024,03,21,09,00,AAXX 21094 41907 02450 80000 10265 20180 30102 40116 8552/ 333 59025 70020 85615 88458==
41907,2024,03,21,12,00,AAXX 21124 41907 02450 72702 10245 20190 30089 40104 85510 333 10278 59025 70000 85615 86458==
41907,2024,03,21,15,00,AAXX 21154 41907 02430 70000 10213 20160 30112 40128 84510 333 59028 70000 84615 86458==
41907,2024,03,21,18,00,AAXX 21184 41907 02430 80000 10205 20180 30117 40132 8552/ 333 59030 70000 85615 88458==
41907,2024,03,21,21,00,AAXX 21214 41907 02930 00000 10190 20170 30104 40119 333 59035 70000==
41909,2024,03,15,00,00,AAXX 15004 41909 01940 01301 10220 20200 30095 40107 70520 333 59014 70000==
41909,2024,03,15,03,00,AAXX 15034 41909 02956 00000 10250 20200 30126 40138 333 20216 58000 70000==
41909,2024,03,15,06,00,AAXX 15064 41909 02456 41302 10315 20230 30122 40133 82530 333 58003 70000 82615 83365==
41909,2024,03,15,09,00,AAXX 15094 41909 02456 40000 10335 20190 30101 40112 82530 333 58019 70000 82615 83360==
41909,2024,03,15,12,00,AAXX 15124 41909 02956 00000 10310 20180 30095 40106 333 10340 58018 70000==
41909,2024,03,15,15,00,AAXX 15154 41909 02940 00000 10259 20200 30120 40132 333 58019 70000==
41909,2024,03,15,18,00,AAXX 15184 41909 02940 00000 10248 20200 30124 40136 333 58021 70000==
41909,2024,03,15,21,00,AAXX 15214 41909 02940 00000 10238 20200 30120 40132 333 58028 70000==
41909,2024,03,16,00,00,AAXX 16004 41909 02440 80000 10235 20220 30118 40130 8552/ 333 58009 70000 85614 88458==
41909,2024,03,16,03,00,AAXX 16034 41909 02956 00000 10274 20210 30148 40160 333 20232 58022 70000==
41909,2024,03,16,06,00,AAXX 16064 41909 02956 02302 10317 20210 30138 40149 333 58012 70000==
41909,2024,03,16,09,00,AAXX 16094 41909 02957 00000 10337 20170 30114 40125 333 58013 70000==
41909,2024,03,16,12,00,AAXX 16124 41909 02450 80000 10314 20200 30102 40113 8552/ 333 10342 58007 70000 85614 88458==
41909,2024,03,16,15,00,AAXX 16154 41909 02430 60000 10272 20210 30122 40133 83530 333 58002 70000 83615 86360==
41909,2024,03,16,18,00,AAXX 16184 41909 02330 80000 10260 20190 30113 40125 8562/ 333 59011 70000 84708 85614 88458==
41909,2024,03,16,21,00,AAXX 16214 41909 02430 80000 10230 20200 30116 40128 8552/ 333 59002 70000 85615 88460==
41909,2024,03,17,00,00,AAXX 17004 41909 02450 80000 10225 20180 30120 40132 8552/ 333 58002 70000 85615 88460==
41909,2024,03,17,03,00,AAXX 17034 41909 02956 01802 10267 20190 30150 40162 333 20223 58002 70000==
41909,2024,03,17,06,00,AAXX 17064 41909 02956 02302 10314 20160 30138 40149 333 58000 70000==
41909,2024,03,17,09,00,AAXX 17094 41909 02956 00000 10335 20180 30102 40113 333 59012 70000==
41909,2024,03,17,12,00,AAXX 17124 41909 02956 00000 10315 20190 30094 40105 333 10342 59008 70000==
41909,2024,03,17,15,00,AAXX 17154 41909 02950 00000 10260 20220 30112 40124 333 59010 70000==
41909,2024,03,17,18,00,AAXX 17184 41909 02940 00000 10244 20210 30114 40126 333 58001 70000==
41909,2024,03,17,21,00,AAXX 17214 41909 01930 00000 10236 20220 30112 40124 70500 333 59004 70000==
41909,2024,03,18,00,00,AAXX 18004 41909 01940 00000 10230 20210 30108 40120 70500 333 59012 70000==
41909,2024,03,18,03,00,AAXX 18034 41909 01950 00000 10264 20200 30131 40143 70500 333 20228 59019 70000==
41909,2024,03,18,06,00,AAXX 18064 41909 02/56 50000 10312 20200 30124 40135 85010 333 59014 70000 85458==
41909,2024,03,18,09,00,AAXX 18094 41909 02456 60000 10328 20190 30100 40111 83530 333 59002 70000 83615 83360==
41909,2024,03,18,12,00,AAXX 18124 41909 02450 80000 10312 20220 30085 40096 8552/ 333 10335 59009 70000 85614 88458==
41909,2024,03,18,15,00,AAXX 18154 41909 32450 80000 10312 20220 30085 40096 8552/ 333 10335 56999 59009 70000 85614 88458=
41909,2024,03,18,18,00,AAXX 18184 41909 02440 60000 10250 20220 30112 40124 83530 333 59002 70000 83615 86460==
41909,2024,03,18,21,00,AAXX 18214 41909 02440 60000 10122 30110 40122 83530 333 59002 70000 83615 86460==
41909,2024,03,19,00,00,AAXX 19004 41909 02440 60000 10244 20220 30103 40115 83530 333 59005 70000 83615 86458==
41909,2024,03,19,03,00,AAXX 19034 41909 02450 60000 10278 20220 30129 40140 83530 333 20240 59002 70000 83615 86360==
41909,2024,03,19,06,00,AAXX 19064 41909 02456 60000 10322 20200 30120 40131 83530 333 59004 70000 83615 86360==
41909,2024,03,19,09,00,AAXX 19094 41909 01350 80000 10232 20200 30097 40109 79596 8692/ 333 59003 70104 85708 88458 81930==
41909,2024,03,19,12,00,AAXX 19124 41909 21450 81302 10242 20180 30101 40113 70296 8332/ 333 10336 58016 60168 70164 83615 88458 81930==
41909,2024,03,19,15,00,AAXX 19154 41909 02440 81302 10244 20160 30127 40139 8352/ 333 58022 70164 83615 88458==
41909,2024,03,19,18,00,AAXX 19184 41909 01440 81302 10234 20180 30111 40123 70292 8452/ 333 59001 70164 84615 88458==
41909,2024,03,19,21,00,AAXX 19214 41909 02440 80000 10230 20180 30106 40118 8352/ 333 59004 70164 83615 88458==
41909,2024,03,20,00,00,AAXX 20004 41909 01340 80000 10220 20200 30118 40130 76162 8572/ 333 58015 70006 84708 88458==
41909,2024,03,20,03,00,AAXX 20034 41909 01350 80000 10216 20210 30143 40155 76196 8532/ 333 58014 70340 84708 88458 81930==
41909,2024,03,20,06,00,AAXX 20064 41909 21450 80000 10216 20200 30143 40155 72196 8532/ 333 58023 60189 70346 84615 88458 81930==
41909,2024,03,20,09,00,AAXX 20094 41909 02350 80000 10222 20190 30124 40136 8462/ 333 58027 70242 83708 88458==
41909,2024,03,20,12,00,AAXX 20124 41909 11350 80000 10217 20200 30128 40140 60016 72122 8572/ 333 10225 58027 70194 84708 88458==
41909,2024,03,20,15,00,AAXX 20154 41909 02440 51801 10210 20190 30133 40145 82530 333 58006 70194 82615 85360==
41909,2024,03,20,18,00,AAXX 20184 41909 01330 81801 10204 20190 30142 40154 70522 8572/ 333 58031 70194 84708 88458==
41909,2024,03,20,21,00,AAXX 20214 41909 01430 80000 10202 20190 30131 40143 70522 8552/ 333 58025 70194 85615 88458==
41909,2024,03,21,00,00,AAXX 21004 41909 01450 80000 10198 20190 30129 40141 70522 8552/ 333 58011 70188 85615 88458==
41909,2024,03,21,03,00,AAXX 21034 41909 01450 80000 10221 20200 30148 40159 70522 8552/ 333 20195 58005 70018 85615 88458==
41909,2024,03,21,06,00,AAXX 21064 41909 01450 80000 10251 20180 30141 40153 70522 8552/ 333 59003 70012 85615 88458==
41909,2024,03,21,09,00,AAXX 21094 41909 02456 61302 10261 20180 30104 40116 83530 333 59020 70012 83615 84365==
41909,2024,03,21,12,00,AAXX 21124 41909 02456 31301 10250 20180 30094 40106 81530 333 10265 59034 70000 81615 83365==
41909,2024,03,21,15,00,AAXX 21154 41909 01330 80000 10220 20190 30111 40123 76160 8572/ 333 59022 70010 83708 83614 88458==
41909,2024,03,21,18,00,AAXX 21184 41909 21430 60000 10200 20180 30112 40124 70162 83530 333 59030 60015 70011 83615 84365==
41909,2024,03,21,21,00,AAXX 21214 41909 01430 61301 10193 20170 30096 40108 70522 83530 333 59035 70011 83615 84365==
41915,2024,03,15,00,00,AAXX 15004 41915 02450 81302 10222 20190 30095 40121 8542/ 333 59013 70000 84615 88458==
41915,2024,03,15,03,00,AAXX 15034 41915 02956 01802 10270 20210 30121 40146 333 20191 59004 70000==
41915,2024,03,15,06,00,AAXX 15064 41915 02456 50000 10310 20200 30116 40141 85400 333 58001 70000 84616==
41915,2024,03,15,09,00,AAXX 15094 41915 02456 21703 10340 20120 30093 40118 82500 333 58017 70000 82616==
41915,2024,03,15,12,00,AAXX 15124 41915 02956 00000 10290 20200 30087 40113 333 10344 58014 70000==
41915,2024,03,15,15,00,AAXX 15154 41915 02950 00000 10220 20200 30114 40140 333 58018 70000==
41915,2024,03,15,18,00,AAXX 15184 41915 NIL=
41915,2024,03,15,21,00,AAXX 15214 41915 02950 00000 10194 20180 30104 40130 333 58011 70000==
41915,2024,03,16,00,00,AAXX 16004 41915 01912 00000 10191 20190 30120 40146 71040 333 58025 70000==
41915,2024,03,16,03,00,AAXX 16034 41915 02956 00000 10274 20220 30135 40160 333 20188 58014 70000==
41915,2024,03,16,06,00,AAXX 16064 41915 02956 01803 10323 20170 30121 40146 333 58005 70000==
41915,2024,03,16,09,00,AAXX 16094 41915 02456 42705 10322 20130 30093 40118 84300 333 58000 70000 83616 81930==
41915,2024,03,16,12,00,AAXX 16124 41915 21956 00000 10260 20200 30097 40123 70062 333 10333 58010 60005==
41915,2024,03,16,15,00,AAXX 16154 41915 42956 00000 10222 20190 30119 40145 333 58005==
41915,2024,03,16,18,00,AAXX 16184 41915 42950 00000 10208 20200 30118 40143 333 59001==
41915,2024,03,16,21,00,AAXX 16214 41915 42450 30000 10208 20200 30107 40133 83500 333 58003 83616==
41915,2024,03,17,00,00,AAXX 17004 41915 42450 80000 10204 20190 30120 40146 8452/ 333 58000 84614 88460==
41915,2024,03,17,03,00,AAXX 17034 41915 02956 01102 10270 20190 30138 40164 333 20200 58003 70000==
41915,2024,03,17,06,00,AAXX 17064 41915 42956 33102 10315 20170 30126 40151 80002 333 58005 83080==
41915,2024,03,17,09,00,AAXX 17094 41915 42956 00000 10330 20120 30093 40118 333 58000==
41915,2024,03,17,12,00,AAXX 17124 41915 02956 00000 10295 20200 30088 40113 333 10346 59009 70000==
41915,2024,03,17,15,00,AAXX 17154 41915 02950 00000 10226 20210 30107 40133 333 59012 70000==
41915,2024,03,17,18,00,AAXX 17184 41915 02950 00000 10220 20210 30105 40131 333 59013 70000==
41915,2024,03,17,21,00,AAXX 17214 41915 01940 00000 10200 20190 30098 40124 70500 333 59009 70000==
41915,2024,03,18,00,00,AAXX 18004 41915 01940 40000 10192 20190 30101 40127 70520 80002 333 59019 70000 84080==
41915,2024,03,18,03,00,AAXX 18034 41915 02956 10000 10271 20190 30122 40147 80001 333 20189 59016 70000 81080==
41915,2024,03,18,06,00,AAXX 18064 41915 02/56 40404 10327 20130 30113 40138 84030 333 59013 70000 84362==
41915,2024,03,18,09,00,AAXX 18094 41915 02456 41905 10324 20120 30085 40110 84500 333 59008 70000 84616==
41915,2024,03,18,12,00,AAXX 18124 41915 02456 40000 10280 20150 30081 40106 84500 333 10334 59007 70000 84616==
41915,2024,03,18,15,00,AAXX 18154 41915 02/50 50000 10226 20210 30098 40124 85050 333 59009 70000 85362==
41915,2024,03,18,18,00,AAXX 18184 41915 02/50 20000 10216 20210 30104 40130 82030 333 59001 70000 82372==
41915,2024,03,18,21,00,AAXX 18214 41915 02450 50000 10205 20200 30104 40130 82530 333 58006 70000 82616 84362==
41915,2024,03,19,00,00,AAXX 19004 41915 01435 60000 10200 20190 30098 40124 70522 83530 333 59003 70000 83616 85462==
41915,2024,03,19,03,00,AAXX 19034 41915 01550 40000 10270 20200 30120 40146 70522 83530 333 20199 59002 70000 83616 85362==
41915,2024,03,19,06,00,AAXX 19064 41915 02456 62003 10320 20110 30109 40134 82530 333 59004 70000 82616 86362==
41915,2024,03,19,09,00,AAXX 19094 41915 02456 40502 10340 20140 30081 40105 83430 333 59004 70000 82616==
41915,2024,03,19,12,00,AAXX 19124 41915 02450 80000 10282 20210 30087 40112 8542/ 333 10345 58006 70000 84615 88458==
41915,2024,03,19,15,00,AAXX 19154 41915 02450 60000 10252 20210 30101 40126 84510 333 58002 70000 84616 86460==
41915,2024,03,19,18,00,AAXX 19184 41915 02450 60000 10240 20220 30107 40132 83510 333 58003 70000 83616 86460==
41915,2024,03,19,21,00,AAXX 19214 41915 01450 60000 10228 20220 30108 40134 70262 84510 333 58004 70010 84616 86460==
41915,2024,03,20,00,00,AAXX 20004 41915 11450 60000 10220 20210 30098 40124 60016 70262 84510 333 58000 70010 84616 86460==
41915,2024,03,20,03,00,AAXX 20034 41915 02456 53602 10255 20210 30124 40149 82510 333 20210 58004 70010 82616 85458==
41915,2024,03,20,06,00,AAXX 20064 41915 02456 73104 10275 20190 30118 40144 82510 333 58009 70010 82616 87458==
41915,2024,03,20,09,00,AAXX 20094 41915 02456 72908 10280 20170 30099 40124 85430 333 58017 70010 84615 86360==
41915,2024,03,20,12,00,AAXX 20124 41915 02450 83002 10242 20190 30106 40132 8642/ 333 10293 58019 70010 85616 88458==
41915,2024,03,20,15,00,AAXX 20154 41915 02950 00000 10215 20200 30126 40152 333 58025 70010==
41915,2024,03,20,18,00,AAXX 20184 41915 NIL=
41915,2024,03,20,21,00,AAXX 20214 41915 01950 50000 10195 20190 30119 40145 70520 83520 333 58011 70000 83616 85458==
41915,2024,03,21,00,00,AAXX 21004 41915 01450 80000 10196 20190 30122 40148 70520 8542/ 333 58024 70000 84615 88458==
41915,2024,03,21,03,00,AAXX 21034 41915 01450 80201 10212 20190 30138 40162 70522 8642/ 333 20190 58014 70000 85616 88458==
41915,2024,03,21,06,00,AAXX 21064 41915 21456 80000 10228 20190 30131 40156 70262 8642/ 333 58013 69925 70002 85616 88458==
41915,2024,03,21,09,00,AAXX 21094 41915 02456 81403 10254 20170 30107 40133 8642/ 333 58008 70002 85616 88458==
41915,2024,03,21,12,00,AAXX 21124 41915 02456 80000 10233 20190 30097 40123 8642/ 333 10257 59009 70002 85616 88458==
41915,2024,03,21,15,00,AAXX 21154 41915 02/50 50000 10198 20170 30118 40144 85030 333 59008 70002 85362==
41915,2024,03,21,18,00,AAXX 21184 41915 02/50 50000 10190 20170 30115 40141 85030 333 59010 70002 85362==
41915,2024,03,21,21,00,AAXX 21214 41915 02450 60000 10180 20160 30099 40125 84510 333 59020 70002 84616 86458==
41923,2024,03,15,00,00,AAXX 15004 41923 21340 70000 10218 20210 30106 40116 70562 85670 333 59009 60065 70117 82708 84615 85459==
41923,2024,03,15,03,00,AAXX 15034 41923 02950 00000 10279 20200 30135 40144 333 20209 59003 70117==
41923,2024,03,15,06,00,AAXX 15064 41923 02/56 10000 10322 20200 30127 40137 81030 333 58006 70117 81362==
41923,2024,03,15,09,00,AAXX 15094 41923 02456 30000 10340 20140 30104 40114 83400 333 58015 70063 82616==
41923,2024,03,15,12,00,AAXX 15124 41923 02956 00000 10311 20170 30101 40111 333 10345 58011 70063==
41923,2024,03,15,15,00,AAXX 15154 41923 32945 00000 10264 20200 30127 40136 333 58015 70063=
41923,2024,03,15,18,00,AAXX 15184 41923 02440 42402 10263 20210 30132 40141 81530 333 58022 70063 81616 83362==
41923,2024,03,15,21,00,AAXX 15214 41923 01340 60000 10255 20230 30116 40125 70521 84670 333 58024 70000 81709 83615 85360==
41923,2024,03,16,00,00,AAXX 16004 41923 01340 70000 10249 20240 30135 40144 70522 84670 333 58029 70000 81709 83615 85458==
41923,2024,03,16,03,00,AAXX 16034 41923 02/50 20000 10298 20210 30148 40158 82030 333 20242 58013 70000 82365==
41923,2024,03,16,06,00,AAXX 16064 41923 02/56 20000 10331 20190 30137 40147 82030 333 58010 70000 82365==
41923,2024,03,16,09,00,AAXX 16094 41923 02456 32702 10336 20170 30108 40118 82430 333 58004 70000 81616==
41923,2024,03,16,12,00,AAXX 16124 41923 02450 40000 10316 20180 30110 40120 84300 333 10346 58009 70000 83615 81930==
41923,2024,03,16,15,00,AAXX 16154 41923 02450 40000 10260 20190 30130 40140 82530 333 58003 70000 82616 83360==
41923,2024,03,16,18,00,AAXX 16184 41923 02445 60000 10258 20200 30134 40144 84530 333 58002 70000 84615 83360==
41923,2024,03,16,21,00,AAXX 16214 41923 01340 72403 10227 20190 30114 40124 70366 84370 333 59002 70022 82709 83615 85458 81930==
41923,2024,03,17,00,00,AAXX 17004 41923 11340 70000 10226 20190 30128 40138 60026 70562 84670 333 59007 70022 82709 83615 85458==
41923,2024,03,17,03,00,AAXX 17034 41923 01/50 20000 10267 20190 30152 40162 70520 82030 333 20220 58004 70022 82360==
41923,2024,03,17,06,00,AAXX 17064 41923 01450 52902 10310 20160 30144 40154 70522 82530 333 58007 70022 82616 84360==
41923,2024,03,17,09,00,AAXX 17094 41923 02956 03302 10335 20170 30108 40118 333 58000 70022==
41923,2024,03,17,12,00,AAXX 17124 41923 01950 02403 10307 20180 30103 40113 70500 333 10340 59007 70022==
41923,2024,03,17,15,00,AAXX 17154 41923 01940 02202 10265 20210 30119 40128 70500 333 59011 70022==
41923,2024,03,17,18,00,AAXX 17184 41923 01940 02602 10253 20200 30120 40129 70500 333 59014 70022==
41923,2024,03,17,21,00,AAXX 17214 41923 01440 60000 10253 20190 30109 40118 70522 83530 333 59005 70000 83616 86365==
41923,2024,03,18,00,00,AAXX 18004 41923 01440 80000 10256 20200 30114 40123 70522 8552/ 333 59014 70000 85615 88460==
41923,2024,03,18,03,00,AAXX 18034 41923 01445 60303 10288 20200 30137 40147 70522 83530 333 20245 59015 70000 83615 86365==
41923,2024,03,18,06,00,AAXX 18064 41923 01450 60302 10314 20180 30133 40143 70522 83530 333 59004 70000 83615 86365==
41923,2024,03,18,09,00,AAXX 18094 41923 01450 52402 10328 20180 30102 40112 70522 82530 333 59006 70000 82615 85365==
41923,2024,03,18,12,00,AAXX 18124 41923 01450 60000 10305 20210 30091 40101 70522 83530 333 10333 59012 70000 83615 85360==
41923,2024,03,18,15,00,AAXX 18154 41923 01/45 20000 10263 20180 30112 40121 70520 82030 333 59007 70000 82362==
41923,2024,03,18,18,00,AAXX 18184 41923 01345 70000 10260 20200 30114 40123 70520 85670 333 59006 70000 83708 84614 85459==
41923,2024,03,18,21,00,AAXX 18214 41923 01340 70000 10259 20210 30106 40115 70522 85670 333 59003 70000 82709 84615 85459==
41923,2024,03,19,00,00,AAXX 19004 41923 01340 70000 10258 20220 30112 40121 70522 85670 333 59002 70000 82709 84615 85459==
41923,2024,03,19,03,00,AAXX 19034 41923 01445 20502 10288 20190 30134 40144 70520 81530 333 20251 59003 70000 81616==
41923,2024,03,19,06,00,AAXX 19064 41923 02450 30703 10332 20170 30124 40134 81530 333 59009 70000 81616 83362==
41923,2024,03,19,09,00,AAXX 19094 41923 01350 70404 10325 20180 30094 40104 71720 85970 333 59008 70000 83708 84614 86459 81928==
41923,2024,03,19,12,00,AAXX 19124 41923 21350 83406 10260 20160 30101 40110 71796 8692/ 333 10343 58010 69955 70005 83708 85614 88458 81928==
41923,2024,03,19,15,00,AAXX 19154 41923 01345 70000 10224 20180 30125 40135 72196 84670 333 58013 70109 82709 83615 85360==
41923,2024,03,19,18,00,AAXX 19184 41923 21345 70000 10242 20170 30123 40132 70596 84670 333 58009 60118 70109 82709 83615 85360==
41923,2024,03,19,21,00,AAXX 19214 41923 01340 70000 10226 20180 30113 40123 76122 84670 333 58007 70121 82709 83615 85360==
41923,2024,03,20,00,00,AAXX 20004 41923 21330 80000 10218 20180 30124 40134 76162 8562/ 333 58011 60027 70131 82709 84615 88458==
41923,2024,03,20,03,00,AAXX 20034 41923 01930 80302 10224 20200 30147 40157 76166 8562/ 333 20212 58013 70135 82709 84615 88458==
41923,2024,03,20,06,00,AAXX 20064 41923 21340 70602 10268 20180 30137 40146 70166 84670 333 58013 60018 70137 82709 83615 86360==
41923,2024,03,20,09,00,AAXX 20094 41923 02340 83402 10257 20200 30123 40132 8562/ 333 58029 70137 83709 84615 88458==
41923,2024,03,20,12,00,AAXX 20124 41923 42340 83203 10234 20180 30132 40142 8562/ 333 10275 58031 82709 84615 88458==
41923,2024,03,20,15,00,AAXX 20154 41923 01340 80000 10226 20190 30144 40154 70262 8562/ 333 58019 70028 83709 84615 88458==
41923,2024,03,20,18,00,AAXX 20184 41923 01335 82402 10220 20190 30147 40157 76162 8572/ 333 58024 70032 83708 84614 88458==
41923,2024,03,20,21,00,AAXX 20214 41923 01330 80000 10212 20190 30126 40136 76166 8672/ 333 58013 70042 84708 85614 88458==
41923,2024,03,21,00,00,AAXX 21004 41923 21330 80000 10206 20200 30134 40144 72166 8562/ 333 58010 60039 70042 83709 84615 88458==
41923,2024,03,21,03,00,AAXX 21034 41923 02340 80000 10228 20190 30155 40165 8562/ 333 20202 58008 70038 83709 84615 88458==
41923,2024,03,21,06,00,AAXX 21064 41923 02340 82102 10258 20160 30141 40150 8562/ 333 58004 70036 82709 84615 88458==
41923,2024,03,21,09,00,AAXX 21094 41923 02350 71602 10260 20170 30109 40119 85670 333 59014 70036 82709 84615 85458==
41923,2024,03,21,12,00,AAXX 21124 41923 02450 50000 10258 20180 30102 40112 84430 333 10268 59030 70036 82615 83824==
41923,2024,03,21,15,00,AAXX 21154 41923 01340 80903 10190 20160 30129 40139 79596 8592/ 333 59015 70176 83709 84614 88458 81930==
41923,2024,03,21,18,00,AAXX 21184 41923 21340 81802 10200 20180 30115 40125 76196 8532/ 333 59032 60169 70192 83709 84614 88458 81930==
41923,2024,03,21,21,00,AAXX 21214 41923 01440 50000 10192 20180 30097 40107 70162 82530 333 59029 70171 82616 84360==
41926,2024,03,15,00,00,AAXX 15004 41926 01450 20000 10245 20240 30095 40108 70500 82500 333 59011 70000 82618==
41926,2024,03,15,03,00,AAXX 15034 41926 01450 70000 10260 20240 30125 40139 70520 83510 333 20240 58001 70000 83618 86459==
41926,2024,03,15,06,00,AAXX 15064 41926 02456 10000 10330 20160 30118 40131 81500 333 58001 70000 81618==
41926,2024,03,15,09,00,AAXX 15094 41926 02956 00000 10358 20130 30093 40106 333 70000 85011==
41926,2024,03,15,12,00,AAXX 15124 41926 02950 30000 10315 20200 30091 40104 80002 333 10360 58018 70000 83080==
41926,2024,03,15,15,00,AAXX 15154 41926 01950 00000 10244 20200 30117 40131 70500 333 58021 70000==
41926,2024,03,15,18,00,AAXX 15184 41926 01950 01803 10245 20200 30122 40135 70500 333 58022 70000==
41926,2024,03,15,21,00,AAXX 15214 41926 01950 00000 10225 20210 30115 40129 70500 333 58028 70000==
41926,2024,03,16,00,00,AAXX 16004 41926 01950 00000 10205 20200 30123 40137 70500 333 58028 70000==
41926,2024,03,16,03,00,AAXX 16034 41926 01956 00000 10270 20220 30146 40160 70500 333 20203 58021 70000==
41926,2024,03,16,06,00,AAXX 16064 41926 02456 52302 10322 20210 30135 40149 83510 333 58017 70000 83618 85459==
41926,2024,03,16,09,00,AAXX 16094 41926 02956 30000 10330 20200 30100 40113 82510 333 58007 70000 82618 83459==
41926,2024,03,16,12,00,AAXX 16124 41926 02/50 20000 10305 20220 30096 40109 82010 333 10340 58005 70000 82459==
41926,2024,03,16,15,00,AAXX 16154 41926 01450 80000 10257 20190 30121 40135 71720 8332/ 333 58004 70000 82618 88458 81930==
41926,2024,03,16,18,00,AAXX 16184 41926 21450 80000 10212 20180 30123 40137 70296 8332/ 333 58001 60005 82618 88458 81930==
41926,2024,03,16,21,00,AAXX 16214 41926 42450 60000 10205 20190 30122 40136 82510 333 58007 82618 86459==
41926,2024,03,17,00,00,AAXX 17004 41926 42450 50000 10198 20190 30122 40136 82510 333 58001 82618 85459==
41926,2024,03,17,03,00,AAXX 17034 41926 42450 50000 10248 20190 30147 40161 82510 333 20197 58001 82618 85459==
41926,2024,03,17,06,00,AAXX 17064 41926 42956 00000 10305 20190 30138 40152 333 58003==
41926,2024,03,17,09,00,AAXX 17094 41926 02956 00000 10328 20180 30102 40115 333 58002 70000==
41926,2024,03,17,12,00,AAXX 17124 41926 42950 00000 10295 20210 30099 40113 333 10336 58003==
41926,2024,03,17,15,00,AAXX 17154 41926 02950 00000 10254 20210 30112 40126 333 59009 70000==
41926,2024,03,17,18,00,AAXX 17184 41926 01950 00000 10229 20210 30114 40128 70500 333 59009 70000==
41926,2024,03,17,21,00,AAXX 17214 41926 01450 20000 10218 20210 30110 40124 70500 82500 333 59012 70000 82618==
41926,2024,03,18,00,00,AAXX 18004 41926 01450 50000 10208 20200 30108 40120 70520 82510 333 59016 70000 82618 84459==
41926,2024,03,18,03,00,AAXX 18034 41926 01450 60000 10256 20230 30132 40146 70522 83530 333 20208 59015 70000 83618 86362==
41926,2024,03,18,06,00,AAXX 18064 41926 02450 72701 10305 20230 30133 40147 83510 333 59005 70000 83618 87459==
41926,2024,03,18,09,00,AAXX 18094 41926 02456 50000 10320 20190 30093 40106 82570 333 59009 70000 82618 84459==
41926,2024,03,18,12,00,AAXX 18124 41926 02/50 30000 10292 20210 30079 40093 83030 333 10335 59014 70000 83362==
41926,2024,03,18,15,00,AAXX 18154 41926 01950 00000 10255 20230 30110 40123 70500 333 59002 70000==
41926,2024,03,18,18,00,AAXX 18184 41926 01450 30000 10250 20230 30109 40122 70500 83500 333 59005 70000 83618==
41926,2024,03,18,21,00,AAXX 18214 41926 01450 30000 10240 20220 30092 40106 70500 83500 333 59018 70000 83618==
41926,2024,03,19,00,00,AAXX 19004 41926 01450 70000 10232 20220 30107 40121 70520 83510 333 58001 70000 83618 86459==
41926,2024,03,19,03,00,AAXX 19034 41926 01450 60000 10258 20210 30128 40142 70522 82530 333 20232 59004 70000 82618 86362==
41926,2024,03,19,06,00,AAXX 19064 41926 02450 60000 10322 20170 30125 40138 83510 333 59008 70000 83618 86459==
41926,2024,03,19,09,00,AAXX 19094 41926 02456 70000 10327 20150 30090 40103 83510 333 59003 70000 83618 87459==
41926,2024,03,19,12,00,AAXX 19124 41926 02456 60000 10293 20170 30091 40105 81510 333 10342 58012 70000 81618 86459==
41926,2024,03,19,15,00,AAXX 19154 41926 01450 70000 10250 20210 30117 40131 70522 82510 333 58007 70000 82618 87459==
41926,2024,03,19,18,00,AAXX 19184 41926 01450 70000 10242 20200 30116 40130 70522 82510 333 58007 70000 82618 87459==
41926,2024,03,19,21,00,AAXX 19214 41926 01450 82202 10230 20210 30118 40132 70522 8352/ 333 58026 70000 83617 88458==
41926,2024,03,20,00,00,AAXX 20004 41926 21450 80000 10200 20190 30120 40134 76162 8352/ 333 58013 60047 70044 83617 88458==
41926,2024,03,20,03,00,AAXX 20034 41926 01350 80000 10205 20200 30140 40154 76166 8472/ 333 20200 58012 70067 82708 83615 88458==
41926,2024,03,20,06,00,AAXX 20064 41926 21350 80000 10210 20200 30147 40161 76166 8472/ 333 58022 60039 70077 82708 83615 88458==
41926,2024,03,20,09,00,AAXX 20094 41926 01350 80000 10207 20200 30125 40139 76166 8472/ 333 58035 70132 82708 83615 88458==
41926,2024,03,20,12,00,AAXX 20124 41926 21350 82702 10202 20190 30125 40139 76166 8472/ 333 10220 58034 60039 70157 82708 83615 88458==
41926,2024,03,20,15,00,AAXX 20154 41926 01450 70000 10190 20180 30143 40157 76166 82510 333 58026 70159 82617 87459==
41926,2024,03,20,18,00,AAXX 20184 41926 21450 60000 10182 20170 30141 40155 70562 82510 333 58025 69927 70159 82618 86459==
41926,2024,03,20,21,00,AAXX 20214 41926 01440 50000 10175 20170 30137 40151 70522 81510 333 58019 70159 81618 85459==
41926,2024,03,21,00,00,AAXX 21004 41926 01/20 30000 10173 20160 30134 40148 71020 83030 333 58014 70115 83362==
41926,2024,03,21,03,00,AAXX 21034 41926 01350 80000 10198 20190 30147 40161 70542 8462/ 333 20170 58007 70092 82708 83615 88458==
41926,2024,03,21,06,00,AAXX 21064 41926 01450 62302 10246 20180 30138 40152 70142 83510 333 59009 70082 83618 86459==
41926,2024,03,21,09,00,AAXX 21094 41926 02450 70000 10267 20170 30105 40119 83510 333 59020 70027 83616 86459==
41926,2024,03,21,12,00,AAXX 21124 41926 02450 80000 10245 20200 30091 40105 8452/ 333 10272 59034 70002 84616 88459==
41926,2024,03,21,15,00,AAXX 21154 41926 02450 80000 10206 20180 30117 40131 8452/ 333 59026 70000 84615 88458==
41926,2024,03,21,18,00,AAXX 21184 41926 01450 30000 10200 20180 30113 40127 70521 83500 333 59028 70000 83618==
41926,2024,03,21,21,00,AAXX 21214 41926 01450 30000 10192 20180 30087 40101 70500 83500 333 59050 70000 83618==
41927,2024,03,15,00,00,AAXX 15004 41927 32450 30000 10208 20200 30094 40108 83500 333 56400 59012 70180 83617=
41927,2024,03,15,06,00,AAXX 15064 41927 32958 01801 10328 20210 30118 40133 333 59002 70180=
41927,2024,03,15,12,00,AAXX 15124 41927 32957 00000 10304 20230 30090 40104 333 10344 58020 70180=
41927,2024,03,15,18,00,AAXX 15184 41927 NIL=
41927,2024,03,16,00,00,AAXX 16004 41927 31950 00000 10214 20200 30100 40115 70500 333 58006 70000=
41927,2024,03,16,06,00,AAXX 16064 41927 32457 22801 10315 20220 30132 40147 82500 333 56500 58014 70000 82618=
41927,2024,03,16,12,00,AAXX 16124 41927 32457 61302 10260 20140 30099 40114 84310 333 10340 56290 58009 70000 83617 81928 86458=
41927,2024,03,16,18,00,AAXX 16184 41927 31450 51801 10210 20190 30113 40128 60126 70396 82510 333 56990 58001 70118 82618 85459=
41927,2024,03,17,00,00,AAXX 17004 41927 32450 50000 10200 20190 30118 40133 82510 333 56490 58018 70118 82618 85459=
41927,2024,03,17,06,00,AAXX 17064 41927 32957 00000 10300 20160 30140 40155 333 58008 70118=
41927,2024,03,17,12,00,AAXX 17124 41927 32957 00000 10252 20220 30095 40110 333 10330 59004 70118=
41927,2024,03,17,18,00,AAXX 17184 41927 32950 00000 10230 20210 30110 40125 333 59003 70000=
41927,2024,03,18,00,00,AAXX 18004 41927 31950 00000 10215 20210 30105 40120 70500 333 59013 70000=
41927,2024,03,18,06,00,AAXX 18064 41927 32457 51901 10305 20220 30127 40142 82510 333 56990 59013 70000 82618 85459=
41927,2024,03,18,12,00,AAXX 18124 41927 32957 20000 10300 20210 30078 40093 82010 333 10330 56090 59017 70000 82459=
41927,2024,03,18,15,00,AAXX 18154 41927 32956 30000 10267 20220 30103 40118 83010 333 56090 59006 70000 83459=
41927,2024,03,18,18,00,AAXX 18184 41927 32956 30000 10232 20200 30109 40124 83010 333 56090 59001 70000 83459=
41927,2024,03,19,00,00,AAXX 19004 41927 31450 62601 10237 20230 30102 40117 70522 83510 333 56690 59003 70000 83618 86459=
41927,2024,03,19,06,00,AAXX 19064 41927 32957 71901 10315 20180 30115 40130 83510 333 56490 59012 70000 83617 87459=
41927,2024,03,19,12,00,AAXX 19124 41927 32456 60000 10294 20220 30089 40104 83510 333 10327 56990 58011 70000 83618 86459=
41927,2024,03,19,18,00,AAXX 19184 41927 32456 71701 10230 20200 30100 40115 83510 333 56490 59009 70000 83617 87458=
41927,2024,03,20,00,00,AAXX 20004 41927 11350 82601 10200 20190 30114 40129 60047 76162 8572/ 333 56699 58012 70040 82708 83616 88458=
41927,2024,03,20,06,00,AAXX 20064 41927 11456 82602 10210 20200 30140 40155 60048 70262 8452/ 333 56699 58025 70080 84616 88458=
41927,2024,03,20,12,00,AAXX 20124 41927 11450 82603 10204 20190 30110 40125 60023 72166 8572/ 333 10220 56999 58021 70104 82708 83616 88458=
41927,2024,03,20,18,00,AAXX 20184 41927 11450 71601 10198 20190 30143 40157 69965 70362 83510 333 56490 58043 70110 83616 87459=
41927,2024,03,21,00,00,AAXX 21004 41927 31450 50000 10185 20180 30125 40139 70520 83510 333 56490 58011 70070 83617 84459=
41927,2024,03,21,06,00,AAXX 21064 41927 32457 51801 10248 20160 30136 40151 83510 333 56490 59004 70030 83617 84459=
41927,2024,03,21,12,00,AAXX 21124 41927 32456 60000 10244 20180 30093 40107 83510 333 10280 56490 59017 70006 83617 85459=
41927,2024,03,21,18,00,AAXX 21184 41927 32450 61801 10195 20180 30133 40147 83510 333 56490 59010 70000 83616 85459=
41929,2024,03,15,00,00,AAXX 15004 41929 11/50 20000 10220 20210 30106 40115 60076 70196 82030 333 59005 70068 82362==
41929,2024,03,15,03,00,AAXX 15034 41929 02956 00000 10276 20240 30132 40141 333 20206 59001 70068==
41929,2024,03,15,06,00,AAXX 15064 41929 02457 22702 10320 20220 30126 40135 82500 333 58004 70068 82618==
41929,2024,03,15,09,00,AAXX 15094 41929 02/57 30000 10344 20160 30101 40111 83030 333 58012 70068 83362==
41929,2024,03,15,12,00,AAXX 15124 41929 02957 00802 10310 20170 30096 40106 333 10350 58010 70068==
41929,2024,03,15,15,00,AAXX 15154 41929 02956 00000 10250 20220 30117 40127 333 58017 70068==
41929,2024,03,15,18,00,AAXX 15184 41929 02956 01802 10250 20220 30135 40145 333 58029 70068==
41929,2024,03,15,21,00,AAXX 15214 41929 02956 02002 10244 20230 30122 40131 333 58027 70000==
41929,2024,03,16,00,00,AAXX 16004 41929 02956 00000 10230 20220 30135 40144 333 58029 70000==
41929,2024,03,16,03,00,AAXX 16034 41929 02956 03202 10284 20220 30152 40161 333 20223 58020 70000==
41929,2024,03,16,06,00,AAXX 16064 41929 02958 00000 10320 20220 30142 40151 333 58016 70000==
41929,2024,03,16,09,00,AAXX 16094 41929 02458 23102 10340 20190 30108 40117 82500 333 58007 70000 82618==
41929,2024,03,16,12,00,AAXX 16124 41929 02/57 50000 10315 20210 30111 40120 85030 333 10343 58015 70000 85365==
41929,2024,03,16,15,00,AAXX 16154 41929 02956 00902 10255 20200 30127 40136 333 58010 70000==
41929,2024,03,16,18,00,AAXX 16184 41929 01450 82303 10222 20200 30160 40170 79592 8592/ 333 58025 70020 84616 88458 81930==
41929,2024,03,16,21,00,AAXX 16214 41929 01/56 40000 10219 20200 30139 40149 70196 84030 333 58017 70025 84365==
41929,2024,03,17,00,00,AAXX 17004 41929 11/56 50000 10216 20200 30118 40128 60016 70396 85030 333 59017 70025 85365==
41929,2024,03,17,03,00,AAXX 17034 41929 02956 00902 10270 20190 30152 40161 333 20210 58000 70025==
41929,2024,03,17,06,00,AAXX 17064 41929 02958 00902 10300 20170 30144 40153 83030 333 58002 70025 82365==
41929,2024,03,17,09,00,AAXX 17094 41929 02958 03102 10327 20160 30110 40119 333 58002 70025==
41929,2024,03,17,12,00,AAXX 17124 41929 02957 00000 10302 20220 30103 40112 333 10332 59008 70025==
41929,2024,03,17,15,00,AAXX 17154 41929 02956 00000 10262 20210 30117 40126 333 59010 70025==
41929,2024,03,17,18,00,AAXX 17184 41929 01950 00000 10238 20220 30121 40130 70500 333 59039 70010==
41929,2024,03,17,21,00,AAXX 17214 41929 01950 00000 10229 20210 30115 40124 70500 333 59024 70000==
41929,2024,03,18,00,00,AAXX 18004 41929 01950 00000 10220 20210 30109 40119 70500 333 59009 70000==
41929,2024,03,18,03,00,AAXX 18034 41929 02456 60000 10274 20210 30137 40146 83510 333 20215 59015 70000 83618 86462==
41929,2024,03,18,06,00,AAXX 18064 41929 02456 80000 10302 20210 30137 40146 8351/ 333 59007 70000 83618 88462==
41929,2024,03,18,09,00,AAXX 18094 41929 02/57 50000 10320 20240 30102 40111 85030 333 59008 70000 85365==
41929,2024,03,18,12,00,AAXX 18124 41929 02/57 30000 10302 20220 30090 40099 83030 333 10326 59013 70000 83365==
41929,2024,03,18,15,00,AAXX 18154 41929 02/56 50000 10255 20240 30111 40120 85030 333 59006 70000 85365==
41929,2024,03,18,18,00,AAXX 18184 41929 02456 73102 10262 20220 30118 40127 83570 333 59003 70000 83618 85459==
41929,2024,03,18,21,00,AAXX 18214 41929 02456 70000 10252 20220 30111 40120 83570 333 59004 70000 83618 85459==
41929,2024,03,19,00,00,AAXX 19004 41929 02456 70000 10242 20220 30103 40112 83570 333 59006 70000 83618 85459==
41929,2024,03,19,03,00,AAXX 19034 41929 02456 70000 10282 20220 30135 40144 83570 333 20234 59002 70000 83618 85459==
41929,2024,03,19,06,00,AAXX 19064 41929 02957 00000 10325 20210 30129 40138 84030 333 59008 70000 84365==
41929,2024,03,19,09,00,AAXX 19094 41929 02/57 40000 10328 20200 30094 40103 84030 333 59008 70000 84365==
41929,2024,03,19,12,00,AAXX 19124 41929 02457 60000 10310 20200 30094 40103 83530 333 10342 58004 70000 83618 83365==
41929,2024,03,19,15,00,AAXX 19154 41929 02/56 50904 10240 20160 30126 40136 85030 333 58015 70000 85365==
41929,2024,03,19,18,00,AAXX 19184 41929 02456 70000 10235 20190 30122 40131 83570 333 58004 70000 83618 85459==
41929,2024,03,19,21,00,AAXX 19214 41929 02456 80000 10230 20200 30122 40131 8451/ 333 58011 70000 84618 88459==
41929,2024,03,20,00,00,AAXX 20004 41929 21456 82702 10225 20210 30121 40130 76162 8452/ 333 58018 60017 70013 84616 88458==
41929,2024,03,20,03,00,AAXX 20034 41929 01456 82702 10208 20200 30145 40155 76166 8452/ 333 20206 58010 70023 84616 88458==
41929,2024,03,20,06,00,AAXX 20064 41929 21456 83202 10242 20210 30146 40156 70262 8452/ 333 58017 60015 70023 84616 88458==
41929,2024,03,20,09,00,AAXX 20094 41929 02457 73603 10250 20190 30132 40141 83570 333 58038 70023 83618 85459==
41929,2024,03,20,12,00,AAXX 20124 41929 02456 83602 10235 20210 30130 40140 8451/ 333 10260 58036 70023 84618 88459==
41929,2024,03,20,15,00,AAXX 20154 41929 02/56 40903 10220 20200 30138 40148 84030 333 58012 70023 84365==
41929,2024,03,20,18,00,AAXX 20184 41929 02/56 53103 10215 20200 30155 40165 85030 333 58033 70023 85365==
41929,2024,03,20,21,00,AAXX 20214 41929 01/50 50000 10208 20200 30142 40152 70522 85030 333 58020 70023 85365==
41929,2024,03,21,00,00,AAXX 21004 41929 01/50 50000 10200 20190 30128 40138 70522 85030 333 58007 70010 85365==
41929,2024,03,21,03,00,AAXX 21034 41929 02456 60902 10230 20190 30151 40161 83540 333 20196 58006 70000 83618 85365==
41929,2024,03,21,06,00,AAXX 21064 41929 02456 61802 10252 20160 30145 40154 83540 333 59001 70000 83618 85365==
41929,2024,03,21,09,00,AAXX 21094 41929 02457 61303 10272 20140 30108 40117 83430 333 59024 70000 82618 83365==
41929,2024,03,21,12,00,AAXX 21124 41929 02456 60000 10256 20190 30102 40111 85430 333 10274 59028 70000 83618==
41929,2024,03,21,15,00,AAXX 21154 41929 02457 61303 10272 20140 30108 40117 83430 333 59024 70000 82618 83365==
41929,2024,03,21,18,00,AAXX 21184 41929 11456 70000 10212 20180 30119 40129 69916 70296 84510 333 59036 70001 84618 84462==
41929,2024,03,21,21,00,AAXX 21214 41929 01450 30000 10212 20180 30110 40120 70521 83530 333 59032 70001 83618==
41933,2024,03,15,00,00,AAXX 15004 41933 01440 72102 10215 20190 30096 40105 70562 84520 333 59014 70130 84616 87458==
41933,2024,03,15,03,00,AAXX 15034 41933 01440 70000 10255 20220 30133 40141 70522 83520 333 20210 59005 70136 83618 87458==
41933,2024,03,15,06,00,AAXX 15064 41933 01440 61802 10290 20240 30135 40143 70522 82510 333 58010 70136 82618 86458==
41933,2024,03,15,09,00,AAXX 15094 41933 02456 60000 10316 20230 30120 40129 83520 333 58027 70134 83618 86458==
41933,2024,03,15,12,00,AAXX 15124 41933 02450 40000 10302 20230 30109 40118 82520 333 10320 58011 70132 82618 84458==
41933,2024,03,15,15,00,AAXX 15154 41933 02940 00000 10250 20240 30127 40136 333 58019 70132==
41933,2024,03,15,18,00,AAXX 15184 41933 01440 10000 10238 20230 30129 40138 70510 81500 333 58017 70132 81616==
41933,2024,03,15,21,00,AAXX 15214 41933 01930 00000 10238 20230 30124 40133 71000 333 58029 70132==
41933,2024,03,16,00,00,AAXX 16004 41933 01900 00000 10224 20224 30131 40140 74540 89/// 333 58035 70000==
41933,2024,03,16,03,00,AAXX 16034 41933 01420 40000 10240 20230 30154 40163 71044 84500 333 20222 58021 70000 84616==
41933,2024,03,16,06,00,AAXX 16064 41933 01450 20902 10315 20220 30134 40143 70542 82500 333 59001 70000 82618==
41933,2024,03,16,09,00,AAXX 16094 41933 01450 22402 10325 20210 30105 40114 70500 82500 333 59015 70000 82618==
41933,2024,03,16,12,00,AAXX 16124 41933 01950 00000 10305 20220 30108 40117 70500 333 10326 59001 70000==
41933,2024,03,16,15,00,AAXX 16154 41933 01940 00000 10255 20210 30131 40139 70500 333 58004 70000==
41933,2024,03,16,18,00,AAXX 16184 41933 01940 00000 10246 20210 30137 40145 70500 333 58008 70000==
41933,2024,03,16,21,00,AAXX 16214 41933 01930 00000 10230 20210 30129 40138 70500 333 58004 70000==
41933,2024,03,17,00,00,AAXX 17004 41933 01430 40000 10225 20210 30129 40138 70520 82520 333 59002 70000 82618 84458==
41933,2024,03,17,03,00,AAXX 17034 41933 01450 10902 10274 20220 30150 40159 70510 81500 333 20215 59004 70000 81618==
41933,2024,03,17,06,00,AAXX 17064 41933 01950 02701 10320 20170 30137 40146 70500 333 58003 70000==
41933,2024,03,17,09,00,AAXX 17094 41933 01/50 12102 10327 20180 30108 40116 70500 81030 333 58003 70000 81362==
41933,2024,03,17,12,00,AAXX 17124 41933 01950 00000 10294 20190 30100 40108 70500 333 10335 59008 70000==
41933,2024,03,17,15,00,AAXX 17154 41933 01950 00000 10245 20230 30112 40121 70500 333 59019 70000==
41933,2024,03,17,18,00,AAXX 17184 41933 01950 00000 10230 20220 30114 40122 70500 333 59023 70000==
41933,2024,03,17,21,00,AAXX 17214 41933 01940 00000 10220 20210 30113 40121 70500 333 59016 70000==
41933,2024,03,18,00,00,AAXX 18004 41933 01420 60000 10210 20200 30111 40119 71000 82520 333 59018 70000 82618 86458==
41933,2024,03,18,03,00,AAXX 18034 41933 01450 62202 10265 20210 30135 40144 70522 82520 333 20208 59015 70000 82618 86458==
41933,2024,03,18,06,00,AAXX 18064 41933 01450 63102 10325 20180 30129 40138 70522 83520 333 59008 70000 83618 86458==
41933,2024,03,18,09,00,AAXX 18094 41933 01/50 33403 10325 20200 30098 40106 70520 83030 333 59010 70000 83362==
41933,2024,03,18,12,00,AAXX 18124 41933 01/50 63401 10292 20190 30091 40099 70521 86030 333 10327 59009 70000 86362==
41933,2024,03,18,15,00,AAXX 18154 41933 01450 60000 10269 20190 30104 40112 70522 83530 333 59008 70000 83618 85362==
41933,2024,03,18,18,00,AAXX 18184 41933 01440 70000 10231 20200 30108 40116 70522 83510 333 59006 70000 83618 87458==
41933,2024,03,18,21,00,AAXX 18214 41933 01/40 50602 10248 20200 30098 40106 70522 85030 333 59015 70000 85362==
41933,2024,03,19,00,00,AAXX 19004 41933 01/40 53502 10236 20180 30105 40113 70522 85030 333 59006 70000 85362==
41933,2024,03,19,03,00,AAXX 19034 41933 01440 50000 10275 20200 30130 40139 70522 82530 333 20230 59005 70000 82618 85362==
41933,2024,03,19,06,00,AAXX 19064 41933 01440 63002 10305 20200 30121 40130 70522 83520 333 59008 70000 83618 86458==
41933,2024,03,19,09,00,AAXX 19094 41933 01440 73002 10305 20210 30095 40104 70522 83520 333 59003 70000 83618 87458==
41933,2024,03,19,12,00,AAXX 19124 41933 01440 83102 10285 20220 30093 40102 70562 8452/ 333 10322 58002 70000 84617 88457==
41933,2024,03,19,15,00,AAXX 19154 41933 41/40 30000 10261 20210 30123 40131 70521 83030 333 58019 83362==
41933,2024,03,19,18,00,AAXX 19184 41933 41/40 40000 10240 20210 30123 40131 70520 84010 333 58015 84458==
41933,2024,03,19,21,00,AAXX 19214 41933 41440 60000 10230 20210 30101 40110 70562 82510 333 58003 82616 86458==
41933,2024,03,20,00,00,AAXX 20004 41933 21430 80000 10230 20220 30108 40117 71062 8251/ 333 58003 60009 82616 88458==
41933,2024,03,20,03,00,AAXX 20034 41933 41440 53302 10260 20210 30134 40143 70522 82530 333 20227 58002 82618 85362==
41933,2024,03,20,06,00,AAXX 20064 41933 41450 73507 10285 20190 30128 40137 70522 83510 333 58007 83618 87459==
41933,2024,03,20,09,00,AAXX 20094 41933 41450 63405 10290 20210 30108 40117 70522 82510 333 58013 82618 86458==
41933,2024,03,20,12,00,AAXX 20124 41933 41450 73305 10260 20180 30119 40128 70522 83520 333 10303 58026 83618 87458==
41933,2024,03,20,15,00,AAXX 20154 41933 41940 03603 10232 20170 30127 40136 70520 333 58002==
41933,2024,03,20,18,00,AAXX 20184 41933 41435 43103 10212 20190 30129 40138 70522 82520 333 58006 82618 84458==
41933,2024,03,20,21,00,AAXX 20214 41933 41430 53102 10210 20190 30128 40137 70522 82520 333 58027 82618 85458==
41933,2024,03,21,00,00,AAXX 21004 41933 01430 63102 10210 20190 30126 40135 70522 83520 333 58018 70000 83618 86458==
41933,2024,03,21,03,00,AAXX 21034 41933 41440 80000 10224 20190 30152 40161 70562 8352/ 333 20205 58018 83616 88458==
41933,2024,03,21,06,00,AAXX 21064 41933 11450 80000 10236 20190 30150 40158 60006 70562 8452/ 333 58022 84616 88458==
41933,2024,03,21,09,00,AAXX 21094 41933 41450 81802 10242 20180 30113 40121 70522 8452/ 333 58005 84616 88458==
41933,2024,03,21,12,00,AAXX 21124 41933 41450 71702 10234 20170 30109 40117 70522 84510 333 10257 59010 84616 87458==
41933,2024,03,21,15,00,AAXX 21154 41933 41450 80000 10210 20180 30128 40136 70522 8452/ 333 58001 84616 88458==
41933,2024,03,21,18,00,AAXX 21184 41933 21450 80000 10190 20180 30109 40117 70596 8452/ 333 59020 60057 70050 84616 88457==
41933,2024,03,21,21,00,AAXX 21214 41933 01440 60000 10185 20180 30104 40113 70522 83520 333 59024 70050 83618 86458==
41936,2024,03,15,00,00,AAXX 15004 41936 01/14 20000 10226 20220 30098 40105 70522 82030 333 59008 70000 82362==
41936,2024,03,15,03,00,AAXX 15034 41936 01/12 31703 10274 20230 30123 40130 70511 83030 333 20224 58001 70000 83362==
41936,2024,03,15,06,00,AAXX 15064 41936 01420 32003 10334 20200 30124 40131 70511 82530 333 58001 70000 82615==
41936,2024,03,15,09,00,AAXX 15094 41936 01/50 11204 10356 20130 30097 40103 70511 81030 333 58013 70000 81362==
41936,2024,03,15,12,00,AAXX 15124 41936 01/50 10000 10326 20190 30096 40103 70511 81030 333 10358 58018 70000 81362==
41936,2024,03,15,15,00,AAXX 15154 41936 01/40 11603 10258 20230 30121 40128 70511 81030 333 58021 70000 81362==
41936,2024,03,15,18,00,AAXX 15184 41936 01420 32003 10242 20220 30121 40129 70521 82530 333 58018 70000 82615==
41936,2024,03,15,21,00,AAXX 15214 41936 01/14 10000 10226 20220 30115 40122 70511 81030 333 58016 70000 81362==
41936,2024,03,16,00,00,AAXX 16004 41936 01/14 10000 10210 20200 30121 40129 70511 81030 333 58024 70000 81362==
41936,2024,03,16,03,00,AAXX 16034 41936 01914 40000 10256 20220 30144 40151 70511 82530 333 20208 58021 70000 82615 84362==
41936,2024,03,16,06,00,AAXX 16064 41936 01/20 33205 10318 20240 30134 40141 70511 83030 333 58010 70000 83362==
41936,2024,03,16,09,00,AAXX 16094 41936 01/50 33605 10340 20210 30110 40114 70511 83030 333 58027 70000 83362==
41936,2024,03,16,12,00,AAXX 16124 41936 01/50 32705 10310 20230 30111 40118 70511 83030 333 10346 58015 70000 83362==
41936,2024,03,16,15,00,AAXX 16154 41936 01430 31603 10270 20230 30121 40128 70511 82530 333 58000 70000 82615 83362==
41936,2024,03,16,18,00,AAXX 16184 41936 01320 71610 10204 20190 30144 40152 70596 85630 333 58023 70170 83708 83615 86362==
41936,2024,03,16,21,00,AAXX 16214 41936 01420 50000 10202 20190 30114 40122 70522 82530 333 58000 70170 82615 85362==
41936,2024,03,17,00,00,AAXX 17004 41936 01420 50000 10204 20190 30118 40125 70522 83530 333 59004 70170 83615 84362==
41936,2024,03,17,03,00,AAXX 17034 41936 01/30 40303 10240 20200 30150 40158 70522 84030 333 20198 58007 70170 84362==
41936,2024,03,17,06,00,AAXX 17064 41936 01/40 33503 10306 20200 30141 40148 70521 83030 333 58007 70170 83362==
41936,2024,03,17,09,00,AAXX 17094 41936 41950 00303 10330 20200 30109 40116 59001 70170==
41936,2024,03,17,12,00,AAXX 17124 41936 01950 00000 10294 20200 30109 40110 70500 333 10332 59008 70170==
41936,2024,03,17,15,00,AAXX 17154 41936 01950 00000 10248 20220 30116 40123 70500 333 59002 70170==
41936,2024,03,17,18,00,AAXX 17184 41936 01950 00000 10240 20220 30115 40122 70500 333 59030 70000==
41936,2024,03,17,21,00,AAXX 17214 41936 01925 00000 10232 20210 30103 40110 70500 333 59012 70000==
41936,2024,03,18,00,00,AAXX 18004 41936 01907 00000 10218 20210 30107 40114 74440 333 59011 70000==
41936,2024,03,18,03,00,AAXX 18034 41936 01409 30000 10254 20210 30135 40142 74244 333 20216 59016 70000 83362==
41936,2024,03,18,06,00,AAXX 18064 41936 01409 52505 10280 20220 30137 40144 74440 333 59004 70000 83615 85362==
41936,2024,03,18,09,00,AAXX 18094 41936 42414 32705 10310 20200 30099 40106 59010 83362==
41936,2024,03,18,12,00,AAXX 18124 41936 01416 30000 10280 20220 30087 40094 70511 333 10312 59016 70000 83362==
41936,2024,03,18,15,00,AAXX 18154 41936 01416 50000 10250 20230 30111 40118 70511 83530 333 59005 70000 83615 84362==
41936,2024,03,18,18,00,AAXX 18184 41936 01416 60000 10246 20230 30113 40120 70522 84630 333 59002 70000 82710 83615 85362==
41936,2024,03,18,21,00,AAXX 18214 41936 41414 40000 10240 20230 30103 40110 70562 82530 333 58000 82615 84362==
41936,2024,03,19,00,00,AAXX 19004 41936 01407 60000 10228 20220 30100 40108 74464 84630 333 59006 70000 82710 83615 85362==
41936,2024,03,19,03,00,AAXX 19034 41936 41/07 30106 10270 20230 30132 40139 74244 83030 333 20224 59003 83362==
41936,2024,03,19,06,00,AAXX 19064 41936 41/15 31503 10316 20200 30126 40133 70540 83030 333 59011 83362==
41936,2024,03,19,09,00,AAXX 19094 41936 41/40 32606 10328 20210 30095 40102 70511 83030 333 59004 83362==
41936,2024,03,19,12,00,AAXX 19124 41936 41425 72304 10294 20220 30095 40102 70522 84630 333 10338 58008 82710 83615 86362==
41936,2024,03,19,15,00,AAXX 19154 41936 41420 70000 10260 20230 30117 40124 70522 84630 333 58006 82710 83615 86362==
41936,2024,03,19,18,00,AAXX 19184 41936 41/20 30000 10242 20234 30113 40120 70521 83030 333 58000 83362==
41936,2024,03,19,21,00,AAXX 19214 41936 42314 72106 10230 20220 30106 40113 58003 87360==
41936,2024,03,20,00,00,AAXX 20004 41936 02310 73005 10204 20190 30120 40128 58020 87360 333 70060==
41936,2024,03,20,03,00,AAXX 20034 41936 01309 73403 10214 20200 30142 40149 76196 85730 333 20202 58010 70070 83708 83615 86362==
41936,2024,03,20,06,00,AAXX 20064 41936 01320 73408 10222 20200 30144 40151 72196 84630 333 58018 70030 82708 83615 86362==
41936,2024,03,20,09,00,AAXX 20094 41936 01320 72904 10230 20210 30137 40144 70522 84630 333 58042 70090 82708 83615 86362==
41936,2024,03,20,12,00,AAXX 20124 41936 01318 70803 10216 20200 30120 40127 72162 84630 333 10232 58025 70000 82708 83615 86362==
41936,2024,03,20,15,00,AAXX 20154 41936 01316 71708 10210 20190 30120 40127 76166 85730 333 58003 70120 83708 83615 86362==
41936,2024,03,20,18,00,AAXX 20184 41936 01316 72006 10200 20190 30146 40153 76166 85730 333 58033 70040 83708 83615 86360==
41936,2024,03,20,21,00,AAXX 20214 41936 01416 50000 10190 20180 30125 40133 70562 83530 333 58020 70120 83615 85362==
41936,2024,03,21,00,00,AAXX 21004 41936 01407 50000 10190 20180 30131 40139 74464 83530 333 58011 70000 83615 85362==
41936,2024,03,21,03,00,AAXX 21034 41936 01412 41403 10222 20200 30147 40154 70544 81530 333 10184 58005 70060 81615 84362==
41936,2024,03,21,06,00,AAXX 21064 41936 01450 22104 10280 20170 30138 40145 70541 82530 333 59006 70040 82615 81362==
41936,2024,03,21,09,00,AAXX 21094 41936 01450 40804 10296 20190 30103 40110 70511 81530 333 58032 70040 81615 84360==
41936,2024,03,21,12,00,AAXX 21124 41936 01316 72008 10260 20216 30107 40114 79691 85730 333 10300 59013 70040 83707 83615 87360 81936==
41936,2024,03,21,15,00,AAXX 21154 41936 01316 71803 10200 20180 30120 40127 70522 84630 333 58000 70040 82708 83615 86362==
41936,2024,03,21,18,00,AAXX 21184 41936 01416 50000 10198 20190 30120 40127 70596 83530 333 59026 70000 83615 85362==
41936,2024,03,21,21,00,AAXX 21214 41936 01/14 30000 10194 20180 30105 40112 70511 83030 333 59021 70030 83362==
41938,2024,03,15,00,00,AAXX 15004 41938 31930 50000 10232 20220 30102 40106 70511 81510 333 56490 59016 70000 81617 85460=
41938,2024,03,15,06,00,AAXX 15064 41938 32450 31801 10330 20200 30123 40127 70510 82410 333 56590 58004 70000 81618 83460=
41938,2024,03,15,12,00,AAXX 15124 41938 31950 10000 10305 20210 30101 40105 70500 80001 333 10343 56009 58008 70000 81080=
41938,2024,03,15,18,00,AAXX 15184 41938 32456 72103 10265 20250 30131 40135 84510 333 56590 58025 70000 84617 84460=
41938,2024,03,16,00,00,AAXX 16004 41938 31915 00000 10210 20200 30125 40129 71021 333 58023 70000=
41938,2024,03,16,06,00,AAXX 16064 41938 31450 32202 10311 20220 30142 40146 70510 83400 333 56500 58019 70000 82618=
41938,2024,03,16,12,00,AAXX 16124 41938 31940 30000 10295 20220 30109 40112 70500 83010 333 10334 56090 58008 70000 83460=
41938,2024,03,16,18,00,AAXX 16184 41938 11430 83210 10220 20210 30156 40160 69944 79510 8332/ 333 56999 58025 70004 83615 81927 88458=
41938,2024,03,17,00,00,AAXX 17004 41938 11440 63001 10215 20200 30118 40122 69946 70396 83510 333 56690 59007 70008 83617 85460=
41938,2024,03,17,06,00,AAXX 17064 41938 32950 63402 10298 20190 30147 40151 86070 333 56090 58005 70000 84460=
41938,2024,03,17,12,00,AAXX 17124 41938 32950 00000 10292 20200 30108 40112 333 10327 59001 70000=
41938,2024,03,17,18,00,AAXX 17184 41938 31940 00000 10220 20210 30112 40116 70500 333 59044 70000=
41938,2024,03,18,00,00,AAXX 18004 41938 31930 20000 10210 20200 30113 40117 70510 80001 333 56009 70000 82080=
41938,2024,03,18,06,00,AAXX 18064 41938 31440 60000 10300 20210 30135 40139 70520 83510 333 56990 59012 70000 83618 84459=
41938,2024,03,18,12,00,AAXX 18124 41938 31930 30000 10277 20230 30095 40099 70521 83070 333 10330 56090 59013 70000 83460=
41938,2024,03,18,15,00,AAXX 18154 41938 NIL=
41938,2024,03,18,18,00,AAXX 18184 41938 31440 73001 10242 20220 30112 40116 70521 82570 333 56690 58000 70000 82619 86460=
41938,2024,03,19,00,00,AAXX 19004 41938 31905 70000 10218 20210 30109 40113 74642 85011 333 56099 59004 70000 85460 83080=
41938,2024,03,19,06,00,AAXX 19064 41938 31440 80000 10297 20220 30127 40131 70542 8351/ 333 56999 59008 70000 82619 88460=
41938,2024,03,19,12,00,AAXX 19124 41938 31430 80000 10279 20230 30103 40107 70522 8252/ 333 10306 56999 58008 70000 82618 88459=
41938,2024,03,19,18,00,AAXX 19184 41938 11356 80000 10235 20210 30122 40126 69914 76062 8472/ 333 56999 58010 70001 81709 84616 88458=
41938,2024,03,20,00,00,AAXX 20004 41938 11425 82705 10220 20190 30118 40122 60018 71062 8352/ 333 56699 58009 70011 83616 88459=
41938,2024,03,20,06,00,AAXX 20064 41938 11450 73405 10250 20190 30143 40147 69904 72122 82570 333 56790 58016 70011 82616 86460 85362=
41938,2024,03,20,12,00,AAXX 20124 41938 32450 83402 10232 20180 30132 40136 8352/ 333 10258 56599 58029 70011 83617 88459=
41938,2024,03,20,18,00,AAXX 20184 41938 32440 63203 10216 20200 30153 40157 82510 333 56990 58031 70010 82617 85460=
41938,2024,03,21,00,00,AAXX 21004 41938 11425 80000 10194 20180 30133 40137 69968 71062 8352/ 333 56999 58015 70006 83616 88458=
41938,2024,03,21,06,00,AAXX 21064 41938 32956 41801 10263 20160 30141 40145 84010 333 56090 59002 70006 84460=
41938,2024,03,21,12,00,AAXX 21124 41938 31450 60000 10250 20200 30114 40118 71792 84410 333 10277 56490 59018 70006 83618 81928=
41938,2024,03,21,18,00,AAXX 21184 41938 11440 40000 10184 20170 30118 40122 83510 333 56990 59023 70070 83618=
41939,2024,03,15,00,00,AAXX 15004 41939 02950 00000 10228 20220 30113 40121 333 59007 70000==
41939,2024,03,15,03,00,AAXX 15034 41939 02958 00000 10285 20250 30138 40146 333 20223 59004 70220==
41939,2024,03,15,06,00,AAXX 15064 41939 02959 00000 10325 20230 30131 40139 333 58011 70220==
41939,2024,03,15,09,00,AAXX 15094 41939 02960 00000 10330 20220 30108 40116 333 58011 70000==
41939,2024,03,15,12,00,AAXX 15124 41939 02956 00000 10312 20210 30115 40123 333 10332 58010 70000==
41939,2024,03,15,15,00,AAXX 15154 41939 02940 00000 10260 20210 30123 40131 333 58013 70000==
41939,2024,03,15,18,00,AAXX 15184 41939 02940 00000 10250 20210 30131 40139 333 58013 70000==
41939,2024,03,15,21,00,AAXX 15214 41939 02956 00000 10230 20220 30130 40138 333 58013 70000==
41939,2024,03,16,00,00,AAXX 16004 41939 02956 00000 10216 20210 30125 40133 333 58012 70000==
41939,2024,03,16,03,00,AAXX 16034 41939 02958 00000 10270 20230 30175 40183 333 20212 58037 70000==
41939,2024,03,16,06,00,AAXX 16064 41939 02958 00000 10318 20230 30125 40133 333 59006 70000==
41939,2024,03,16,09,00,AAXX 16094 41939 02959 00000 10330 20200 30113 40121 333 58005 70000==
41939,2024,03,16,12,00,AAXX 16124 41939 02956 00000 10322 20200 30118 40123 333 10332 58000 70000==
41939,2024,03,16,15,00,AAXX 16154 41939 02940 00000 10265 20240 30125 40133 333 58002 70000==
41939,2024,03,16,18,00,AAXX 16184 41939 02440 80000 10244 20210 30131 40139 8352/ 333 58000 70000 83617 88459==
41939,2024,03,17,00,00,AAXX 17004 41939 02956 80000 10218 20200 30132 40140 8352/ 333 58007 70000 83617 88459==
41939,2024,03,17,03,00,AAXX 17034 41939 02958 00000 10272 20190 30160 40168 333 20206 59015 70000==
41939,2024,03,17,06,00,AAXX 17064 41939 02458 40000 10318 20190 30138 40146 82530 333 58013 70000 82617 83362==
41939,2024,03,17,09,00,AAXX 17094 41939 02/58 20000 10180 20180 30113 40121 82030 333 58000 70000 82362==
41939,2024,03,17,12,00,AAXX 17124 41939 02957 00000 10300 20220 30115 40123 333 10333 59005 70000==
41939,2024,03,17,15,00,AAXX 17154 41939 02456 50000 10248 20220 30125 40133 83530 333 58000 70000==
41939,2024,03,17,18,00,AAXX 17184 41939 02456 40000 10238 20220 30135 40143 82530 333 58004 70000==
41939,2024,03,18,00,00,AAXX 18004 41939 02950 00000 10215 20210 30123 40131 333 59009 70000==
41939,2024,03,18,03,00,AAXX 18034 41939 02957 00000 10278 20210 30143 40151 333 20209 59017 70000==
41939,2024,03,18,06,00,AAXX 18064 41939 02450 50000 10318 20140 30128 40136 82530 333 59010 70000 82618 85362==
41939,2024,03,18,09,00,AAXX 18094 41939 02450 40000 10300 20210 30105 40113 82530 333 59008 70000 82618 84362==
41939,2024,03,18,12,00,AAXX 18124 41939 02456 50000 10295 20220 30112 40120 82530 333 10318 59012 70000 82618 83365==
41939,2024,03,18,15,00,AAXX 18154 41939 02440 60000 10248 20220 30116 40124 83510 333 59009 70000 83618 85459==
41939,2024,03,18,18,00,AAXX 18184 41939 02440 40000 10226 20210 30127 40135 82530 333 59008 70000 82618 84365==
41939,2024,03,18,21,00,AAXX 18214 41939 02456 40000 10225 20220 30125 40133 82530 333 59010 70000 82617 83364==
41939,2024,03,19,00,00,AAXX 19004 41939 02456 50000 10220 20210 30122 40130 83530 333 59008 70000 83617 83364==
41939,2024,03,19,03,00,AAXX 19034 41939 02458 50000 10265 20230 30140 40148 83530 333 20218 59003 70000 83617 83364==
41939,2024,03,19,06,00,AAXX 19064 41939 02456 60000 10316 20200 30125 40133 83510 333 59003 70000 83618 86460==
41939,2024,03,19,09,00,AAXX 19094 41939 02450 70000 10295 20250 30100 40108 83510 333 59005 70000 83617 87459==
41939,2024,03,19,12,00,AAXX 19124 41939 02450 80000 10282 20240 30110 40118 8352/ 333 10316 59002 70000 83617 88459==
41939,2024,03,19,15,00,AAXX 19154 41939 02440 80000 10253 20220 30130 40138 8352/ 333 58014 70000 83617 88459==
41939,2024,03,19,18,00,AAXX 19184 41939 02440 80000 10243 20220 30135 40143 8352/ 333 58008 70000 83617 88459==
41939,2024,03,19,21,00,AAXX 19214 41939 01950 80000 10220 20210 30120 40128 70262 8352/ 333 59005 70010 83617 88459==
41939,2024,03,20,00,00,AAXX 20004 41939 21450 80000 10220 20200 30127 40135 70262 8352/ 333 58005 60018 70010 83617 88459==
41939,2024,03,20,03,00,AAXX 20034 41939 02956 80000 10228 20200 30152 40160 8352/ 333 20212 58012 70010 83617 88459==
41939,2024,03,20,06,00,AAXX 20064 41939 02457 40000 10279 20200 30141 40149 82530 333 58016 70010 82618 83362==
41939,2024,03,20,09,00,AAXX 20094 41939 02457 60000 10265 20200 30128 40136 83510 333 58028 70010 83617 86460==
41939,2024,03,20,12,00,AAXX 20124 41939 02457 60000 10242 20180 30138 40146 83530 333 10280 58028 70010 83617 83364==
41939,2024,03,20,15,00,AAXX 20154 41939 02456 50000 10224 20200 30152 40160 83530 333 58022 70010 83617 83364==
41939,2024,03,20,18,00,AAXX 20184 41939 02456 50000 10215 20200 30160 40168 83530 333 58025 70010 83617 83364==
41939,2024,03,20,21,00,AAXX 20214 41939 01440 80000 10210 20200 30148 40156 70262 8352/ 333 59012 79998 83617 88459==
41939,2024,03,21,00,00,AAXX 21004 41939 21450 80000 10208 20200 30141 40150 70262 8352/ 333 58014 60029 70016 83617 88459==
41939,2024,03,21,03,00,AAXX 21034 41939 02457 60000 10225 20190 30160 40168 82510 333 20201 58008 70016 82618 86459==
41939,2024,03,21,06,00,AAXX 21064 41939 02457 60000 10260 20180 30142 40150 82510 333 58001 70016 82617 86460==
41939,2024,03,21,09,00,AAXX 21094 41939 02457 70000 10262 20190 30112 40120 83510 333 59016 70016 83616 87459==
41939,2024,03,21,12,00,AAXX 21124 41939 02450 60000 10262 20210 30120 40128 83510 333 10275 59018 70016 83618 85459==
41939,2024,03,21,15,00,AAXX 21154 41939 01440 80000 10190 20170 30128 40136 72992 8532/ 333 59024 70108 84616 88458 81929==
41939,2024,03,21,18,00,AAXX 21184 41939 21440 80000 10182 20170 30132 40140 70292 8352/ 333 59028 60098 70108 83617 88459==
41939,2024,03,21,21,00,AAXX 21214 41939 02456 40000 10185 20180 30125 40133 83530 333 59023 70100 83617 83364==
41941,2024,03,15,00,00,AAXX 15004 41941 02/50 70000 10235 20230 30097 40102 87010 333 59017 70130 87458==
41941,2024,03,15,03,00,AAXX 15034 41941 02956 01802 10280 20250 30133 40139 333 20235 59004 70130==
41941,2024,03,15,06,00,AAXX 15064 41941 02456 22302 10305 20250 30132 40138 82500 333 58012 70130 82616==
41941,2024,03,15,09,00,AAXX 15094 41941 02456 22302 10327 20220 30106 40112 82500 333 58006 70000 82616==
41941,2024,03,15,12,00,AAXX 15124 41941 02/57 20000 10300 20230 30102 40108 82031 333 10331 58007 70000 82362==
41941,2024,03,15,15,00,AAXX 15154 41941 02956 00000 10270 20240 30122 40128 333 58011 70000==
41941,2024,03,15,18,00,AAXX 15184 41941 02956 00000 10260 20250 30130 40136 333 58018 70000==
41941,2024,03,15,21,00,AAXX 15214 41941 01940 00000 10248 20240 30123 40129 70500 333 58020 70000==
41941,2024,03,16,00,00,AAXX 16004 41941 01920 00000 10235 20235 30121 40127 71000 333 58024 70000==
41941,2024,03,16,03,00,AAXX 16034 41941 02956 00903 10270 20240 30156 40162 333 20230 58023 70000==
41941,2024,03,16,06,00,AAXX 16064 41941 02957 03603 10315 20220 30140 40146 333 58008 70000==
41941,2024,03,16,09,00,AAXX 16094 41941 02957 03601 10330 20190 30100 40106 333 59006 70000==
41941,2024,03,16,12,00,AAXX 16124 41941 02956 03603 10302 20190 30109 40115 333 10333 58007 70000==
41941,2024,03,16,15,00,AAXX 16154 41941 02956 00000 10257 20220 30125 40131 333 58003 70000==
41941,2024,03,16,18,00,AAXX 16184 41941 02950 00000 10250 20220 30133 40139 333 58003 70000==
41941,2024,03,16,21,00,AAXX 16214 41941 02450 53604 10240 20210 30104 40109 84520 333 59019 70000 84614 85458==
41941,2024,03,17,00,00,AAXX 17004 41941 02450 63604 10235 20200 30124 40129 84520 333 58003 70000 84614 86458==
41941,2024,03,17,03,00,AAXX 17034 41941 02956 03603 10285 20200 30148 40154 333 20227 59008 70000==
41941,2024,03,17,06,00,AAXX 17064 41941 02456 63602 10307 20190 30137 40143 85420 333 59003 70000 84616 86458==
41941,2024,03,17,09,00,AAXX 17094 41941 02456 63602 10325 20180 30111 40117 85420 333 58011 70000 84616 86458==
41941,2024,03,17,12,00,AAXX 17124 41941 02450 60000 10300 20190 30106 40112 85420 333 10330 59003 70000 84616 86458==
41941,2024,03,17,15,00,AAXX 17154 41941 02940 00000 10250 20220 30118 40124 333 59007 70000==
41941,2024,03,17,18,00,AAXX 17184 41941 02940 00000 10247 20220 30127 40133 333 59006 70000==
41941,2024,03,17,21,00,AAXX 17214 41941 02940 00000 10244 20220 30118 40124 333 58014 70000==
41941,2024,03,18,00,00,AAXX 18004 41941 02950 02602 10240 20220 30111 40117 333 59013 70000==
41941,2024,03,18,03,00,AAXX 18034 41941 02956 03602 10285 20210 30144 40150 333 20232 59008 70000==
41941,2024,03,18,06,00,AAXX 18064 41941 02450 63602 10310 20220 30129 40135 85420 333 59008 70000 84616 86458==
41941,2024,03,18,09,00,AAXX 18094 41941 02450 60000 10313 20220 30101 40107 85420 333 59010 70000 84616 86458==
41941,2024,03,18,12,00,AAXX 18124 41941 02450 60000 10295 20220 30093 40099 85420 333 10322 59013 70000 84616 86458==
41941,2024,03,18,15,00,AAXX 18154 41941 32450 60000 10295 20220 30093 40099 85420 333 10322 56990 59013 70000 84616 86458=
41941,2024,03,18,18,00,AAXX 18184 41941 02940 00000 10255 20240 30131 40137 333 58004 70000==
41941,2024,03,18,21,00,AAXX 18214 41941 02940 03602 10248 20200 30126 40132 333 58008 70000==
41941,2024,03,19,00,00,AAXX 19004 41941 02450 63602 10240 20200 30108 40114 85420 333 59003 70000 84616 86458==
41941,2024,03,19,03,00,AAXX 19034 41941 02450 60000 10292 20200 30146 40152 85420 333 20236 58002 70000 84616 86458==
41941,2024,03,19,06,00,AAXX 19064 41941 02450 83603 10316 20240 30124 40130 8632/ 333 59005 70000 85616 88458 81928==
41941,2024,03,19,09,00,AAXX 19094 41941 02450 80000 10310 20210 30098 40104 8632/ 333 59003 70000 85616 88458 81928==
41941,2024,03,19,12,00,AAXX 19124 41941 02450 80000 10282 20220 30096 40102 8632/ 333 10335 58003 70000 85616 88458 81926==
41941,2024,03,19,15,00,AAXX 19154 41941 01440 83604 10260 20190 30123 40129 71322 8692/ 333 58010 70000 85616 88458 81926==
41941,2024,03,19,18,00,AAXX 19184 41941 01440 80000 10250 20190 30132 40138 71322 8692/ 333 58001 70000 85616 88456 81926==
41941,2024,03,19,21,00,AAXX 19214 41941 01440 80000 10246 20200 30127 40133 71322 8692/ 333 58001 70000 85616 88458 81926==
41941,2024,03,20,00,00,AAXX 20004 41941 02440 83604 10234 20190 30110 40116 8632/ 333 58002 70000 85616 88458 81928==
41941,2024,03,20,03,00,AAXX 20034 41941 02456 63604 10250 20220 30145 40151 85420 333 20230 59001 70000 84616 86458==
41941,2024,03,20,06,00,AAXX 20064 41941 02456 63606 10274 20210 30135 40141 85420 333 58011 70000 84616 87458==
41941,2024,03,20,09,00,AAXX 20094 41941 02456 73604 10290 20180 30114 40120 85420 333 58016 70000 84616 87458==
41941,2024,03,20,12,00,AAXX 20124 41941 02456 70308 10252 20190 30124 40130 85420 333 10300 58028 70000 84616 87458==
41941,2024,03,20,15,00,AAXX 20154 41941 02450 73603 10234 20210 30147 40153 85420 333 58024 70000 84616 87458==
41941,2024,03,20,18,00,AAXX 20184 41941 02440 70000 10224 20200 30147 40152 85420 333 58015 70000 84616 87458==
41941,2024,03,20,21,00,AAXX 20214 41941 02440 70000 10220 20200 30140 40145 85420 333 58013 70000 84616 87458==
41941,2024,03,21,00,00,AAXX 21004 41941 01440 83604 10214 20200 30128 40133 72162 8692/ 333 58018 70010 85612 88456 81924==
41941,2024,03,21,03,00,AAXX 21034 41941 02456 73603 10230 20180 30155 40160 85420 333 20214 58006 70010 84616 87458==
41941,2024,03,21,06,00,AAXX 21064 41941 02456 71303 10250 20180 30148 40153 84520 333 58013 70010 84616 87458==
41941,2024,03,21,09,00,AAXX 21094 41941 02456 81803 10265 20190 30116 40121 85520 333 58002 70010 85616 88458==
41941,2024,03,21,12,00,AAXX 21124 41941 02456 51802 10252 20200 30104 40109 83520 333 10270 59020 70010 83616 85458==
41941,2024,03,21,15,00,AAXX 21154 41941 01330 81303 10225 20210 30132 40138 79592 8692/ 333 59015 70060 82707 84612 88456 81928==
41941,2024,03,21,18,00,AAXX 21184 41941 21456 40000 10185 20185 30116 40122 70196 82520 333 59031 60125 70130 82614 84458==
41941,2024,03,21,21,00,AAXX 21214 41941 02450 50000 10194 20180 30109 40115 83520 333 59031 70130 83616 85458==
41943,2024,03,15,00,00,AAXX 15004 41943 01330 81401 10210 20200 30113 40120 76162 8762/ 333 59001 70100 83709 84615 88457==
41943,2024,03,15,03,00,AAXX 15034 41943 02330 40000 10245 20220 30137 40145 83530 333 20210 59003 70424 82618 83362==
41943,2024,03,15,06,00,AAXX 15064 41943 11445 41901 10305 20230 30136 40143 60046 70262 83510 333 58008 70424 83616 83458==
41943,2024,03,15,09,00,AAXX 15094 41943 02445 40000 10330 20210 30108 40116 83510 333 59003 70174 83616 83458==
41943,2024,03,15,12,00,AAXX 15124 41943 02945 10000 10298 20220 30105 40112 80001 333 10335 58002 70140 81074==
41943,2024,03,15,15,00,AAXX 15154 41943 01445 11801 10255 20230 30130 40137 70511 81500 333 58013 70140 81616==
41943,2024,03,15,18,00,AAXX 15184 41943 01935 00000 10240 20220 30129 40137 70500 333 58011 70000==
41943,2024,03,15,21,00,AAXX 15214 41943 01435 61801 10238 20230 30130 40137 70522 83520 333 58014 70140 83616 83458==
41943,2024,03,16,00,00,AAXX 16004 41943 01330 80000 10235 20230 30131 40138 70522 8662/ 333 58018 70040 83709 83615 88457==
41943,2024,03,16,03,00,AAXX 16034 41943 01330 80000 10245 20190 30158 40166 70522 8662/ 333 20234 58021 70000 83709 83616 88457==
41943,2024,03,16,06,00,AAXX 16064 41943 01950 01701 10320 20200 30131 40138 70520 333 59005 70000==
41943,2024,03,16,09,00,AAXX 16094 41943 01950 00000 10345 20130 30105 40113 70500 333 59003 70000==
41943,2024,03,16,12,00,AAXX 16124 41943 01945 00000 10300 20220 30113 40120 70500 333 10355 58008 70000==
41943,2024,03,16,15,00,AAXX 16154 41943 01/45 10000 10248 20200 30128 40135 70510 81030 333 59002 70000 81362==
41943,2024,03,16,18,00,AAXX 16184 41943 01935 00000 10230 20210 30131 40139 70500 333 58002 70000==
41943,2024,03,16,21,00,AAXX 16214 41943 01935 50000 10228 20220 30130 40137 70520 83520 333 58000 70000 83616 83458==
41943,2024,03,17,00,00,AAXX 17004 41943 01335 80000 10220 20200 30129 40137 70522 8662/ 333 59002 70000 83709 83615 88457==
41943,2024,03,17,03,00,AAXX 17034 41943 01/45 13601 10275 20200 30148 40155 70521 81030 333 20216 59010 70000 81362==
41943,2024,03,17,06,00,AAXX 17064 41943 01950 03501 10330 20190 30137 40144 70510 333 58006 70000==
41943,2024,03,17,12,00,AAXX 17124 41943 02/45 10000 10292 20200 30104 40111 81030 333 10345 59009 70000 81362==
41943,2024,03,17,15,00,AAXX 17154 41943 01945 00000 10237 20220 30117 40124 70500 333 59011 70000==
41943,2024,03,17,18,00,AAXX 17184 41943 01940 00000 10230 20210 30118 40125 70500 333 59013 70000==
41943,2024,03,17,21,00,AAXX 17214 41943 01940 00000 10210 20190 30117 40124 70500 333 59013 70000==
41943,2024,03,18,00,00,AAXX 18004 41943 01940 10000 10205 20190 30115 40122 70510 80001 333 59014 70000 81074==
41943,2024,03,18,03,00,AAXX 18034 41943 01945 03601 10268 20200 30132 40139 70500 333 20205 59016 70000==
41943,2024,03,18,06,00,AAXX 18064 41943 02950 00000 10323 20170 30125 40132 333 59012 70000==
41943,2024,03,18,09,00,AAXX 18094 41943 02/50 53103 10335 20180 30096 40103 85030 333 59011 70000 85362==
41943,2024,03,18,12,00,AAXX 18124 41943 02440 63102 10286 20200 30087 40094 83520 333 10338 59017 70000 83616 85458==
41943,2024,03,18,15,00,AAXX 18154 41943 02430 60000 10250 20210 30107 40114 83520 333 58010 70000 83616 84458==
41943,2024,03,18,18,00,AAXX 18184 41943 02430 40000 10240 20220 30110 40117 82520 333 59008 70000 82618 84458==
41943,2024,03,18,21,00,AAXX 18214 41943 02430 50000 10230 20210 30107 40115 83530 333 59010 70000 83616 84362==
41943,2024,03,19,00,00,AAXX 19004 41943 02435 50000 10214 20190 30105 40113 83530 333 59010 70000 83616 83362==
41943,2024,03,19,03,00,AAXX 19034 41943 02440 40000 10275 20190 30134 40141 82530 333 20213 58002 70000 82618 83362==
41943,2024,03,19,06,00,AAXX 19064 41943 02440 53602 10310 20180 30125 40132 83510 333 58000 70000 83616 84458==
41943,2024,03,19,09,00,AAXX 19094 41943 02440 80000 10298 20210 30095 40102 8562/ 333 59001 70000 82710 83616 88458==
41943,2024,03,19,12,00,AAXX 19124 41943 02430 80000 10276 20230 30093 40100 8662/ 333 10320 58006 70000 83710 83616 88458==
41943,2024,03,19,15,00,AAXX 19154 41943 02430 80000 10260 20220 30129 40136 8662/ 333 58022 70000 83710 84615 88458==
41943,2024,03,19,18,00,AAXX 19184 41943 21330 80000 10220 20190 30126 40133 70262 8662/ 333 58016 60015 70010 83709 84615 88458==
41943,2024,03,19,21,00,AAXX 19214 41943 02330 80000 10217 20200 30114 40122 8662/ 333 58007 70010 83710 84615 88458==
41943,2024,03,20,00,00,AAXX 20004 41943 02330 80000 10214 20200 30106 40114 8662/ 333 58001 70010 83710 84615 88458==
41943,2024,03,20,03,00,AAXX 20034 41943 02/40 43602 10265 20190 30135 40142 84030 333 20214 58001 70010 84362==
41943,2024,03,20,06,00,AAXX 20064 41943 02440 53104 10292 20180 30129 40136 83530 333 58004 70010 82618 84362==
41943,2024,03,20,09,00,AAXX 20094 41943 02950 02703 10310 20190 30106 40113 333 58011 70010==
41943,2024,03,20,12,00,AAXX 20124 41943 02440 52702 10268 20190 30115 40122 82510 333 10320 58022 70010 82618 84458==
41943,2024,03,20,15,00,AAXX 20154 41943 02430 40000 10236 20190 30142 40149 82530 333 58013 70000 82618 83362==
41943,2024,03,20,18,00,AAXX 20184 41943 02/30 43103 10215 20190 30145 40152 84030 333 58019 70000 84362==
41943,2024,03,20,21,00,AAXX 20214 41943 02430 50000 10213 20190 30142 40150 82510 333 58028 70000 82618 84458==
41943,2024,03,21,00,00,AAXX 21004 41943 02430 70000 10210 20190 30133 40141 83520 333 58027 70000 83616 86458==
41943,2024,03,21,03,00,AAXX 21034 41943 01440 83603 10216 20190 30147 40154 70262 8662/ 333 20210 58012 70010 83710 84616 88458==
41943,2024,03,21,06,00,AAXX 21064 41943 11440 83602 10235 20190 30157 40164 60016 70262 8662/ 333 58028 70010 83710 84615 88458==
41943,2024,03,21,09,00,AAXX 21094 41943 02450 61804 10254 20160 30119 40126 82520 333 58013 70010 82616 85458==
41943,2024,03,21,12,00,AAXX 21124 41943 02440 61803 10235 20170 30113 40120 83520 333 10258 59002 70010 83616 86458==
41943,2024,03,21,15,00,AAXX 21154 41943 02430 81802 10202 20170 30133 40140 8662/ 333 59009 70010 83710 84615 88458==
41943,2024,03,21,18,00,AAXX 21184 41943 01330 81802 10195 20180 30114 40121 70262 8662/ 333 59031 70010 83709 84615 88458==
41943,2024,03,21,21,00,AAXX 21214 41943 01430 80000 10190 20180 30108 40116 70522 8662/ 333 59034 70020 83710 84615 88458==
41944,2024,03,15,00,00,AAXX 15004 41944 NIL=
41944,2024,03,15,06,00,AAXX 15064 41944 NIL=
41944,2024,03,15,12,00,AAXX 15124 41944 NIL=
41944,2024,03,15,18,00,AAXX 15184 41944 NIL=
41944,2024,03,16,12,00,AAXX 16124 41944 NIL=
41944,2024,03,17,06,00,AAXX 17064 41944 NIL=
41944,2024,03,17,18,00,AAXX 17184 41944 NIL=
41944,2024,03,18,06,00,AAXX 18064 41944 NIL=
41944,2024,03,18,15,00,AAXX 18154 41944 NIL=
41944,2024,03,19,06,00,AAXX 19064 41944 NIL=
41944,2024,03,19,12,00,AAXX 19124 41944 NIL=
41944,2024,03,19,18,00,AAXX 19184 41944 NIL=
41944,2024,03,20,00,00,AAXX 20004 41944 NIL=
41944,2024,03,20,06,00,AAXX 20064 41944 NIL=
41944,2024,03,20,12,00,AAXX 20124 41944 NIL=
41944,2024,03,20,18,00,AAXX 20184 41944 NIL=
41944,2024,03,21,06,00,AAXX 21064 41944 NIL=
41944,2024,03,21,12,00,AAXX 21124 41944 NIL=
41946,2024,03,15,00,00,AAXX 15004 41946 02556 30000 10260 20250 30105 40110 83400 333 59013 70000 82620==
41946,2024,03,15,03,00,AAXX 15034 41946 02556 50000 10294 20260 30136 40140 83530 333 20254 59002 70000 83620 84362==
41946,2024,03,15,06,00,AAXX 15064 41946 02556 41702 10330 20260 30134 40139 84400 333 58004 70000 82620 83822==
41946,2024,03,15,09,00,AAXX 15094 41946 02557 10902 10339 20190 30107 40111 81500 333 58013 70000 81620==
41946,2024,03,15,12,00,AAXX 15124 41946 02456 20000 10313 20220 30107 40112 82500 333 10343 58015 70000 82618==
41946,2024,03,15,15,00,AAXX 15154 41946 01456 41802 10283 20240 30139 40144 71300 84300 333 58028 70000 83618 81929==
41946,2024,03,15,18,00,AAXX 15184 41946 21956 00901 10233 20210 30137 40142 70196 333 58023 60077 70068==
41946,2024,03,15,21,00,AAXX 15214 41946 01450 20000 10236 20230 30121 40126 70500 82500 333 58014 70068 82618==
41946,2024,03,16,00,00,AAXX 16004 41946 01450 80000 10238 20230 30136 40141 70510 8252/ 333 58031 70068 82618 88460==
41946,2024,03,16,03,00,AAXX 16034 41946 01450 50000 10265 20250 30161 40166 70542 82520 333 20220 58025 70068 82618 84460==
41946,2024,03,16,06,00,AAXX 16064 41946 01456 50000 10305 20250 30146 40151 70242 82520 333 58012 70068 82618 84460==
41946,2024,03,16,09,00,AAXX 16094 41946 02457 21802 10326 20220 30119 40124 82500 333 58012 70068 82618==
41946,2024,03,16,12,00,AAXX 16124 41946 02456 20000 10300 20250 30114 40119 82500 333 10327 58007 70068 82618==
41946,2024,03,16,15,00,AAXX 16154 41946 02956 00000 10268 20250 30135 40140 333 59004 70068==
41946,2024,03,16,18,00,AAXX 16184 41946 01456 50000 10222 20200 30149 40154 70396 82520 333 58012 70050 82618 84460==
41946,2024,03,16,21,00,AAXX 16214 41946 01450 80000 10222 20210 30121 40126 70522 8252/ 333 58000 70050 82618 88460==
41946,2024,03,17,00,00,AAXX 17004 41946 01450 80000 10222 20210 30129 40134 70522 8252/ 333 59007 70050 82618 88460==
41946,2024,03,17,03,00,AAXX 17034 41946 02456 83603 10240 20210 30166 40171 8252/ 333 20215 58005 70050 82618 88460==
41946,2024,03,17,06,00,AAXX 17064 41946 02456 63602 10270 20210 30154 40159 83570 333 58008 70050 83618 84460==
41946,2024,03,17,09,00,AAXX 17094 41946 02957 01202 10314 20210 30120 40124 333 58001 70050==
41946,2024,03,17,12,00,AAXX 17124 41946 02956 20000 10291 20230 30116 40121 80004 333 10317 58002 70050 82080==
41946,2024,03,17,15,00,AAXX 17154 41946 02956 00000 10244 20220 30126 40131 333 59009 70050==
41946,2024,03,17,18,00,AAXX 17184 41946 02956 00000 10237 20230 30128 40133 333 58007 70000==
41946,2024,03,17,21,00,AAXX 17214 41946 01950 00000 10226 20220 30118 40123 70500 333 59003 70000==
41946,2024,03,18,00,00,AAXX 18004 41946 01940 00000 10218 20210 30114 40119 70500 333 59015 70000==
41946,2024,03,18,03,00,AAXX 18034 41946 02956 52704 10270 20240 30145 40150 80001 333 20212 59021 70000 85080==
41946,2024,03,18,06,00,AAXX 18064 41946 02456 82702 10275 20250 30152 40157 8352/ 333 58002 70000 83618 88460==
41946,2024,03,18,09,00,AAXX 18094 41946 02456 63602 10291 20240 30106 40111 82530 333 59014 70000 82618 86362==
41946,2024,03,18,12,00,AAXX 18124 41946 02/56 10000 10283 20240 30098 40103 81030 333 10301 59018 70000 81362==
41946,2024,03,18,15,00,AAXX 18154 41946 01450 60000 10251 20240 30126 40131 70510 82520 333 58000 70000 82618 86460==
41946,2024,03,18,18,00,AAXX 18184 41946 01430 60000 10246 20240 30123 40128 70521 82570 333 59005 70000 82618 84460==
41946,2024,03,18,21,00,AAXX 18214 41946 01408 70000 10236 20236 30111 40116 74442 82520 333 59007 70000 82618 87460==
41946,2024,03,19,00,00,AAXX 19004 41946 01404 80000 10229 20229 30117 40122 74642 8252/ 333 58003 70000 82618 88460==
41946,2024,03,19,03,00,AAXX 19034 41946 01450 60000 10260 20220 30145 40150 70542 83510 333 20225 58000 70000 83618 86460==
41946,2024,03,19,06,00,AAXX 19064 41946 01456 60000 10290 20220 30143 40148 70242 83510 333 59009 70000 83618 86460==
41946,2024,03,19,09,00,AAXX 19094 41946 02456 60000 10300 20210 30111 40116 83510 333 58005 70000 83618 86460==
41946,2024,03,19,12,00,AAXX 19124 41946 02456 60000 10284 20240 30107 40112 83510 333 10302 58009 70000 83618 86460==
41946,2024,03,19,15,00,AAXX 19154 41946 02456 60000 10266 20230 30134 40139 82520 333 58008 70000 82618 86460==
41946,2024,03,19,18,00,AAXX 19184 41946 02456 80000 10250 20230 30129 40134 8252/ 333 58006 70000 82618 88460==
41946,2024,03,19,21,00,AAXX 19214 41946 01350 83005 10210 20190 30123 40128 76166 8672/ 333 58012 70050 83707 84616 88458==
41946,2024,03,20,00,00,AAXX 20004 41946 21450 83003 10200 20190 30131 40136 70562 8352/ 333 58014 60079 70070 82618 88460==
41946,2024,03,20,03,00,AAXX 20034 41946 01456 70000 10210 20200 30147 40152 70162 83520 333 20194 58002 70090 83618 87460==
41946,2024,03,20,06,00,AAXX 20064 41946 11456 73104 10240 20220 30157 40162 60026 70262 83510 333 58014 70090 83618 87460==
41946,2024,03,20,09,00,AAXX 20094 41946 02456 72802 10224 20200 30144 40149 84420 333 58033 70090 83618 86459==
41946,2024,03,20,12,00,AAXX 20124 41946 02556 60000 10209 20190 30138 40143 83520 333 10243 58031 70090 83620 85459==
41946,2024,03,20,15,00,AAXX 20154 41946 01450 81202 10198 20190 30135 40140 76162 8542/ 333 58001 70104 84618 88458==
41946,2024,03,20,18,00,AAXX 20184 41946 21450 80000 10197 20190 30162 40167 76162 8542/ 333 58033 60039 70120 84618 88458==
41946,2024,03,20,21,00,AAXX 20214 41946 02/56 60000 10194 20180 30146 40151 86020 333 58023 70070 86459==
41946,2024,03,21,00,00,AAXX 21004 41946 01550 30000 10192 20180 30132 40136 70520 83400 333 58001 70050 82620==
41946,2024,03,21,03,00,AAXX 21034 41946 02956 30000 10235 20200 30158 40163 80001 333 20185 58011 70030 83080==
41946,2024,03,21,06,00,AAXX 21064 41946 02456 31804 10270 20210 30146 40151 83500 333 58011 70030 83620==
41946,2024,03,21,09,00,AAXX 21094 41946 02456 40902 10274 20180 30114 40119 84500 333 59030 70030 84618==
41946,2024,03,21,12,00,AAXX 21124 41946 01456 80503 10206 20200 30117 40122 72196 8352/ 333 10278 59021 70020 83618 88460==
41946,2024,03,21,15,00,AAXX 21154 41946 01456 70000 10203 20180 30128 40133 70162 82530 333 59007 70040 82618 86362==
41946,2024,03,21,18,00,AAXX 21184 41946 11456 80000 10201 20190 30127 40132 69926 70362 8352/ 333 59035 70024 83618 88459==
41946,2024,03,21,21,00,AAXX 21214 41946 01450 20000 10196 20190 30107 40112 70520 82500 333 59039 70024 82618==
41947,2024,03,15,00,00,AAXX 15004 41947 02450 30000 10240 20240 30111 40113 83500 333 59004 70180 83618==
41947,2024,03,15,03,00,AAXX 15034 41947 02456 40000 10280 20250 30138 40141 84500 333 20230 58000 70180 84618==
41947,2024,03,15,06,00,AAXX 15064 41947 02456 40000 10320 20240 30135 40138 84400 333 58008 70180 81618 83820==
41947,2024,03,15,09,00,AAXX 15094 41947 02956 00000 10335 20210 30107 40109 83500 333 58012 70180 83618==
41947,2024,03,15,12,00,AAXX 15124 41947 02956 00000 10318 20200 30108 40110 333 10340 58012 70180==
41947,2024,03,15,15,00,AAXX 15154 41947 02950 01802 10278 20250 30139 40141 333 58021 70000==
41947,2024,03,15,18,00,AAXX 15184 41947 02450 50000 10270 20250 30143 40145 83570 333 58028 70000 83618 84458==
41947,2024,03,15,21,00,AAXX 15214 41947 01950 00000 10250 20230 30137 40139 70500 333 58030 70000==
41947,2024,03,16,00,00,AAXX 16004 41947 01950 00000 10228 20220 30134 40136 70500 333 58023 70000==
41947,2024,03,16,03,00,AAXX 16034 41947 01450 60000 10258 20240 30158 40160 70522 83570 333 20220 58019 70000 83618 85458==
41947,2024,03,16,06,00,AAXX 16064 41947 02456 50000 10305 20240 30147 40149 82530 333 58011 70000 82618 83362==
41947,2024,03,16,09,00,AAXX 16094 41947 02456 50000 10320 20220 30118 40120 82530 333 58011 70000 82618 83362==
41947,2024,03,16,12,00,AAXX 16124 41947 02456 20000 10310 20230 30114 40116 82500 333 10325 58006 70000 82618==
41947,2024,03,16,15,00,AAXX 16154 41947 02950 00000 10275 20230 30130 40132 333 59010 70000==
41947,2024,03,16,18,00,AAXX 16184 41947 02950 00000 10265 20240 30133 40135 333 59010 70000==
41947,2024,03,16,21,00,AAXX 16214 41947 02950 00000 10245 20220 30120 40122 333 59017 70000==
41947,2024,03,17,00,00,AAXX 17004 41947 01450 80000 10230 20210 30124 40126 70521 8452/ 333 59010 70000 84616 88458==
41947,2024,03,17,03,00,AAXX 17034 41947 02456 50000 10250 20210 30150 40152 82530 333 20225 59008 70000 82618 83362==
41947,2024,03,17,06,00,AAXX 17064 41947 02456 50000 10290 20190 30148 40150 82530 333 58001 70000 82618 83362==
41947,2024,03,17,09,00,AAXX 17094 41947 02456 22802 10320 20190 30119 40121 82500 333 58012 70000 82618==
41947,2024,03,17,12,00,AAXX 17124 41947 02956 00000 10298 20220 30114 40116 333 10325 58006 70000==
41947,2024,03,17,15,00,AAXX 17154 41947 02950 00000 10285 20240 30126 40128 333 59013 70000==
41947,2024,03,17,18,00,AAXX 17184 41947 NIL=
41947,2024,03,18,00,00,AAXX 18004 41947 01950 00000 10225 20220 30118 40120 70500 333 59006 70000==
41947,2024,03,18,03,00,AAXX 18034 41947 02450 70000 10270 20220 30144 40147 83570 333 20220 59005 70000 83618 86458==
41947,2024,03,18,06,00,AAXX 18064 41947 02450 80000 10270 20230 30147 40150 8352/ 333 58000 70000 83618 88458==
41947,2024,03,18,09,00,AAXX 18094 41947 02456 80000 10290 20230 30106 40108 8452/ 333 59013 70000 84617 88458==
41947,2024,03,18,12,00,AAXX 18124 41947 02/56 20000 10288 20240 30098 40100 82030 333 10310 59016 70000 82362==
41947,2024,03,18,15,00,AAXX 18154 41947 02456 80000 10260 20240 30122 40124 8352/ 333 59004 70000 83618 88459==
41947,2024,03,18,18,00,AAXX 18184 41947 02456 60000 10254 20240 30123 40125 83510 333 59007 70000 83618 85459==
41947,2024,03,18,21,00,AAXX 18214 41947 01/50 30000 10246 20240 30109 40111 70521 83030 333 59014 70000 83362==
41947,2024,03,19,00,00,AAXX 19004 41947 01/50 40000 10232 20220 30116 40118 70521 84030 333 59002 70000 84362==
41947,2024,03,19,03,00,AAXX 19034 41947 01450 70000 10268 20220 30142 40145 70522 83570 333 20228 59002 70000 83618 86458==
41947,2024,03,19,06,00,AAXX 19064 41947 02456 70000 10308 20220 30136 40139 83570 333 59011 70000 83618 86458==
41947,2024,03,19,09,00,AAXX 19094 41947 02450 80000 10302 20220 30110 40112 8352/ 333 58004 70000 83618 88458==
41947,2024,03,19,12,00,AAXX 19124 41947 02450 80000 10282 20230 30107 40109 8352/ 333 10312 58009 70000 83618 88458==
41947,2024,03,19,15,00,AAXX 19154 41947 02450 80000 10265 20230 30132 40134 8352/ 333 58010 70000 83618 88458==
41947,2024,03,19,18,00,AAXX 19184 41947 21350 80000 10250 20230 30129 40131 76162 8472/ 333 58006 69967 79996 82709 84618 88458==
41947,2024,03,19,21,00,AAXX 19214 41947 02950 80000 10230 20210 30128 40130 8352/ 333 58019 70006 83618 88458==
41947,2024,03,20,00,00,AAXX 20004 41947 02450 83203 10220 20200 30127 40129 8352/ 333 58011 70006 83618 88458==
41947,2024,03,20,03,00,AAXX 20034 41947 02450 80000 10228 20200 30146 40149 8352/ 333 20213 58004 70006 83618 88458==
41947,2024,03,20,06,00,AAXX 20064 41947 02450 80000 10242 20190 30152 40155 8352/ 333 58016 70006 83618 88458==
41947,2024,03,20,09,00,AAXX 20094 41947 02450 83602 10244 20200 30139 40141 8452/ 333 58029 70006 84616 88458==
41947,2024,03,20,12,00,AAXX 20124 41947 02450 80000 10235 20220 30133 40135 8452/ 333 10260 58026 70006 84616 88458==
41947,2024,03,20,15,00,AAXX 20154 41947 02450 80000 10224 20200 30150 40152 8452/ 333 58018 70006 84616 88458==
41947,2024,03,20,18,00,AAXX 20184 41947 02450 80000 10220 20210 30153 40155 8452/ 333 58026 70000 84616 88458==
41947,2024,03,20,21,00,AAXX 20214 41947 01450 80000 10210 20200 30133 40135 70262 8452/ 333 58005 70008 84616 88458==
41947,2024,03,21,00,00,AAXX 21004 41947 11450 80000 10200 20190 30138 40140 69986 70262 8452/ 333 58011 70008 84616 88458==
41947,2024,03,21,03,00,AAXX 21034 41947 02456 70000 10230 20180 30155 40158 83570 333 20195 58009 70008 83618 86458==
41947,2024,03,21,06,00,AAXX 21064 41947 02456 50000 10260 20170 30146 40149 85400 333 59006 70008 82618 83820==
41947,2024,03,21,09,00,AAXX 21094 41947 02456 41202 10290 20180 30113 40115 84400 333 70000 82618 83825==
41947,2024,03,21,12,00,AAXX 21124 41947 01340 82605 10255 20220 30118 40120 79522 8692/ 333 10292 59015 70010 83707 85614 88458 82930==
41947,2024,03,21,15,00,AAXX 21154 41947 01430 62702 10205 20170 30126 40128 70162 83510 333 59007 70034 83618 86459==
41947,2024,03,21,18,00,AAXX 21184 41947 11440 60000 10195 20180 30127 40129 60026 70026 83510 333 59028 70034 83618 86459==
41947,2024,03,21,21,00,AAXX 21214 41947 02440 80000 10196 20190 30113 40115 8352/ 333 59020 70026 83618 88459==
41950,2024,03,15,00,00,AAXX 15004 41950 02350 70000 10239 20239 30110 40113 85610 333 59005 70000 82708 84616 87459==
41950,2024,03,15,03,00,AAXX 15034 41950 02450 51902 10274 20240 30136 40139 83510 333 20234 59002 70000 83617 85459==
41950,2024,03,15,06,00,AAXX 15064 41950 02450 31802 10323 20230 30132 40134 83500 333 58005 70000 83617==
41950,2024,03,15,09,00,AAXX 15094 41950 02450 20000 10330 20200 30107 40109 82500 333 58003 70000 82617==
41950,2024,03,15,12,00,AAXX 15124 41950 02950 00000 10300 20230 30109 40111 333 10333 58006 70000==
41950,2024,03,15,15,00,AAXX 15154 41950 32950 00000 10260 20200 30133 40135 333 58015 70000=
41950,2024,03,15,18,00,AAXX 15184 41950 02950 00000 10255 20240 30140 40143 333 58025 70000==
41950,2024,03,15,21,00,AAXX 15214 41950 01950 00000 10238 20238 30127 40129 70500 333 58014 70000==
41950,2024,03,16,00,00,AAXX 16004 41950 01940 00000 10220 20220 30132 40135 70500 333 58022 70000==
41950,2024,03,16,03,00,AAXX 16034 41950 02950 00000 10270 20230 30158 40161 333 20215 58022 70000==
41950,2024,03,16,06,00,AAXX 16064 41950 02450 10000 10319 20210 30143 40145 81500 333 58011 70000 81617==
41950,2024,03,16,09,00,AAXX 16094 41950 02450 40000 10338 20190 30112 40114 84400 333 58005 70000 83617==
41950,2024,03,16,12,00,AAXX 16124 41950 02950 00000 10307 20230 30114 40116 333 10341 58005 70000==
41950,2024,03,16,15,00,AAXX 16154 41950 02950 00000 10255 20240 30130 40132 333 59003 70000==
41950,2024,03,16,18,00,AAXX 16184 41950 02/50 20000 10249 20220 30137 40139 82030 333 59003 70000 82362==
41950,2024,03,16,21,00,AAXX 16214 41950 02450 70000 10220 20200 30124 40127 83570 333 59003 70000 83617 86459==
41950,2024,03,17,00,00,AAXX 17004 41950 02450 70000 10217 20200 30130 40133 83570 333 59002 70000 83617 86459==
41950,2024,03,17,03,00,AAXX 17034 41950 02450 50903 10270 20190 30154 40157 83530 333 20214 59004 70000 83617 83362==
41950,2024,03,17,06,00,AAXX 17064 41950 02450 63202 10318 20190 30145 40147 83530 333 58002 70000 83617 85362==
41950,2024,03,17,09,00,AAXX 17094 41950 02450 60000 10317 20200 30115 40117 83530 333 58003 70000 83617 85362==
41950,2024,03,17,12,00,AAXX 17124 41950 02950 00000 10295 20230 30108 40110 333 10320 59006 70000==
41950,2024,03,17,15,00,AAXX 17154 41950 02950 00000 10242 20220 30121 40124 333 59009 70000==
41950,2024,03,17,18,00,AAXX 17184 41950 02950 00000 10236 20220 30124 40127 333 59013 70000==
41950,2024,03,17,21,00,AAXX 17214 41950 02950 00000 10222 20220 30112 40115 333 59012 70000==
41950,2024,03,18,00,00,AAXX 18004 41950 01940 00000 10210 20210 30115 40118 70500 333 59015 70000==
41950,2024,03,18,03,00,AAXX 18034 41950 02950 00000 10276 20210 30138 40141 333 20206 59016 70000==
41950,2024,03,18,06,00,AAXX 18064 41950 02450 70000 10308 20200 30138 40140 83510 333 59007 70000 83617 87459==
41950,2024,03,18,09,00,AAXX 18094 41950 02450 70000 10316 20220 30102 40104 83510 333 59013 70000 83617 87459==
41950,2024,03,18,12,00,AAXX 18124 41950 02450 60000 10288 20230 30096 40098 84410 333 10328 59012 70000 83617 85459==
41950,2024,03,18,15,00,AAXX 18154 41950 02/50 20000 10243 20230 30115 40118 82030 333 59006 70000 82362==
41950,2024,03,18,18,00,AAXX 18184 41950 02/50 30000 10200 20190 30120 40122 83030 333 59004 70000 83362==
41950,2024,03,18,21,00,AAXX 18214 41950 02450 40000 10205 20200 30109 40111 83530 333 59003 70000 83617==
41950,2024,03,19,00,00,AAXX 19004 41950 01440 50000 10210 20210 30113 40116 70521 83531 333 59002 70000 83617==
41950,2024,03,19,03,00,AAXX 19034 41950 02450 40000 10275 20230 30136 40139 82531 333 20200 59002 70000 82617==
41950,2024,03,19,06,00,AAXX 19064 41950 02450 70000 10303 20210 30132 40134 83510 333 59006 70000 83617 87459==
41950,2024,03,19,09,00,AAXX 19094 41950 02350 80000 10300 20240 30107 40109 8562/ 333 58005 70000 82708 84617 88458==
41950,2024,03,19,12,00,AAXX 19124 41950 02350 80000 10274 20240 30106 40108 8562/ 333 10310 58010 70000 82708 84616 88458==
41950,2024,03,19,15,00,AAXX 19154 41950 02450 80000 10264 20210 30134 40137 8452/ 333 58019 70000 84617 88458==
41950,2024,03,19,18,00,AAXX 19184 41950 21345 80000 10240 20230 30125 40128 76162 8572/ 333 58005 69987 70008 82708 84616 88458==
41950,2024,03,19,21,00,AAXX 19214 41950 02350 80000 10239 20230 30120 40123 8562/ 333 58011 70008 82708 84616 88458==
41950,2024,03,20,00,00,AAXX 20004 41950 02350 80000 10238 20230 30120 40123 8562/ 333 58007 70008 82708 84616 88458==
41950,2024,03,20,03,00,AAXX 20034 41950 02350 73004 10242 20210 30150 40152 85610 333 20228 58015 70008 82708 83617 87459==
41950,2024,03,20,06,00,AAXX 20064 41950 02450 50000 10277 20190 30138 40141 83530 333 58006 70008 83617 84362==
41950,2024,03,20,09,00,AAXX 20094 41950 02450 72704 10274 20200 30124 40127 83510 333 58017 70008 83617 85459==
41950,2024,03,20,12,00,AAXX 20124 41950 02450 63302 10247 20190 30133 40136 82530 333 10295 58027 70008 82617 85362==
41950,2024,03,20,15,00,AAXX 20154 41950 02950 00000 10218 20200 30152 40154 333 58018 70008==
41950,2024,03,20,18,00,AAXX 20184 41950 02/50 30000 10212 20200 30152 40154 80030 333 58027 70000 83362==
41950,2024,03,20,21,00,AAXX 20214 41950 02350 80000 10210 20170 30142 40144 8562/ 333 58022 70000 82708 84616 88458==
41950,2024,03,21,00,00,AAXX 21004 41950 01340 80000 10208 20180 30142 40144 76121 8572/ 333 58022 70002 82708 84616 88458==
41950,2024,03,21,03,00,AAXX 21034 41950 01450 50000 10248 20160 30152 40154 70162 83570 333 20198 58002 70006 83617 85459==
41950,2024,03,21,06,00,AAXX 21064 41950 11350 80000 10258 20170 30144 40146 69946 70362 8562/ 333 58006 70006 82708 84616 88458==
41950,2024,03,21,09,00,AAXX 21094 41950 02450 70902 10270 20200 30112 40115 83510 333 59012 70006 83617 87450==
41950,2024,03,21,12,00,AAXX 21124 41950 02450 30000 10248 20190 30107 40110 81530 333 10274 59026 70006 81617 83362==
41950,2024,03,21,15,00,AAXX 21154 41950 02350 80000 10190 20190 30129 40131 8532/ 333 59023 70126 82708 84616 88458 81928==
41950,2024,03,21,18,00,AAXX 21184 41950 21350 80000 10185 20180 30131 40133 70296 8562/ 333 59021 60128 70126 82708 84616 88458==
41950,2024,03,21,21,00,AAXX 21214 41950 02950 70000 10190 20190 30106 40108 84610 333 59036 70126 81708 84616 87459==
41951,2024,03,15,00,00,AAXX 15004 41951 01940 00000 10247 20240 30103 40108 70522 8562/ 333 59007 70000 81708 84618 88458==
41951,2024,03,15,03,00,AAXX 15034 41951 01340 82202 10276 20260 30127 40132 70522 8562/ 333 20240 59003 70000 81708 84618 88458==
41951,2024,03,15,06,00,AAXX 15064 41951 02456 61303 10322 20250 30128 40133 83510 333 58003 70000 83618 85459==
41951,2024,03,15,09,00,AAXX 15094 41951 02456 31304 10317 20250 30108 40113 83500 333 58004 70000 83618==
41951,2024,03,15,12,00,AAXX 15124 41951 02456 31403 10292 20250 30111 40116 83500 333 10322 58013 70000 83618==
41951,2024,03,15,15,00,AAXX 15154 41951 02950 00000 10262 20250 30134 40139 333 58017 70000==
41951,2024,03,15,18,00,AAXX 15184 41951 02950 03102 10248 20240 30137 40142 333 58023 70000==
41951,2024,03,15,21,00,AAXX 15214 41951 01940 00000 10236 20236 30128 40133 70500 333 58019 70000==
41951,2024,03,16,00,00,AAXX 16004 41951 01904 00000 10228 20228 30123 40128 74340 89/// 333 58020 70000==
41951,2024,03,16,03,00,AAXX 16034 41951 01450 60502 10258 20250 30150 40155 70542 83510 333 20222 58020 70000 83618 85459==
41951,2024,03,16,06,00,AAXX 16064 41951 01456 30502 10318 20230 30135 40140 70142 83500 333 58007 70000 83618==
41951,2024,03,16,09,00,AAXX 16094 41951 02956 00503 10318 20240 30112 40117 333 58004 70000==
41951,2024,03,16,12,00,AAXX 16124 41951 02956 20000 10293 20240 30114 40119 80008 333 10325 58003 70000 82278==
41951,2024,03,16,15,00,AAXX 16154 41951 01950 00000 10250 20240 30133 40138 70500 333 59001 70000==
41951,2024,03,16,18,00,AAXX 16184 41951 01940 00000 10240 20230 30135 40140 70500 333 59002 70000==
41951,2024,03,16,21,00,AAXX 16214 41951 01440 50000 10228 20190 30127 40132 70520 82510 333 59001 70000 82618 84459==
41951,2024,03,17,00,00,AAXX 17004 41951 01440 60502 10215 20210 30121 40126 70522 83510 333 59002 70000 83618 85459==
41951,2024,03,17,03,00,AAXX 17034 41951 02456 60503 10276 20210 30148 40153 83510 333 20210 59002 70000 83618 85459==
41951,2024,03,17,06,00,AAXX 17064 41951 02456 20302 10322 20200 30146 40151 82500 333 58011 70000 82618==
41951,2024,03,17,09,00,AAXX 17094 41951 02456 63302 10324 20190 30114 40119 83510 333 58002 70000 83618 85459==
41951,2024,03,17,12,00,AAXX 17124 41951 02456 20000 10288 20220 30106 40111 82500 333 10332 59008 70000 82618==
41951,2024,03,17,15,00,AAXX 17154 41951 01950 00000 10240 20220 30121 40126 70500 333 59012 70000==
41951,2024,03,17,18,00,AAXX 17184 41951 01940 00000 10230 20220 30121 40126 70500 333 59014 70000==
41951,2024,03,17,21,00,AAXX 17214 41951 01940 00000 10223 20210 30118 40123 70500 333 59009 70000==
41951,2024,03,18,00,00,AAXX 18004 41951 01940 00000 10210 20210 30107 40112 70500 333 59014 70000==
41951,2024,03,18,03,00,AAXX 18034 41951 02956 00502 10278 20220 30131 40136 333 20206 59017 70000==
41951,2024,03,18,06,00,AAXX 18064 41951 02456 62803 10320 20210 30130 40135 83510 333 59016 70000 83618 85459==
41951,2024,03,18,09,00,AAXX 18094 41951 02350 70502 10322 20200 30104 40109 84610 333 59010 70000 81709 83618 86459==
41951,2024,03,18,12,00,AAXX 18124 41951 02450 60000 10288 20220 30094 40099 83510 333 10330 59012 70000 83618 85459==
41951,2024,03,18,15,00,AAXX 18154 41951 01440 60000 10243 20230 30115 40120 70522 83510 333 59006 70000 83618 85459==
41951,2024,03,18,18,00,AAXX 18184 41951 01340 80000 10246 20240 30117 40122 70522 8562/ 333 59004 70000 81708 84618 88458==
41951,2024,03,18,21,00,AAXX 18214 41951 01440 70000 10234 20230 30114 40119 70522 83510 333 59004 70000 83618 86459==
41951,2024,03,19,00,00,AAXX 19004 41951 01440 60000 10225 20225 30110 40115 70522 83510 333 58003 70000 83618 85459==
41951,2024,03,19,03,00,AAXX 19034 41951 01440 70000 10272 20210 30133 40138 70522 83510 333 20220 58002 70000 83618 86459==
41951,2024,03,19,06,00,AAXX 19064 41951 01340 80000 10303 20220 30125 40130 70522 8562/ 333 59005 70000 81708 84618 88458==
41951,2024,03,19,09,00,AAXX 19094 41951 01340 83102 10300 20240 30102 40107 70522 8562/ 333 59002 70000 81708 84618 88458==
41951,2024,03,19,12,00,AAXX 19124 41951 01340 80000 10273 20240 30103 40108 70522 8562/ 333 10313 58009 70000 81708 84618 88458==
41951,2024,03,19,15,00,AAXX 19154 41951 01340 81302 10262 20180 30099 40104 70522 8562/ 333 59016 70000 81708 84618 88458==
41951,2024,03,19,18,00,AAXX 19184 41951 21340 80000 10230 20220 30130 40135 70562 8562/ 333 58017 69937 70003 81708 84618 88458==
41951,2024,03,19,21,00,AAXX 19214 41951 01340 80000 10228 20220 30121 40126 70522 8562/ 333 58007 70003 81708 84618 88458==
41951,2024,03,20,00,00,AAXX 20004 41951 01440 70000 10226 20220 30111 40116 70522 83510 333 58001 70003 83618 86459==
41951,2024,03,20,03,00,AAXX 20034 41951 02450 62204 10266 20210 30133 40138 83510 333 20220 58000 70000 83618 85459==
41951,2024,03,20,06,00,AAXX 20064 41951 01456 30304 10293 20200 30133 40138 73500 333 58008 70003 83618==
41951,2024,03,20,09,00,AAXX 20094 41951 02350 73105 10292 20190 30116 40121 84610 333 58014 70003 81709 83618 86459==
41951,2024,03,20,12,00,AAXX 20124 41951 02450 62704 10248 20190 30128 40133 83510 333 10306 58025 70003 83618 85459==
41951,2024,03,20,15,00,AAXX 20154 41951 02450 30000 10226 20210 30152 40157 83500 333 58053 70003 83618==
41951,2024,03,20,18,00,AAXX 20184 41951 01340 81302 10222 20210 30146 40151 70520 8562/ 333 58016 70000 81708 84618 88458==
41951,2024,03,20,21,00,AAXX 20214 41951 01340 80000 10214 20200 30133 40138 70522 8562/ 333 58012 70000 81708 84618 88458==
41951,2024,03,21,00,00,AAXX 21004 41951 01340 80000 10208 20190 30123 40128 76162 8672/ 333 58012 70006 82708 84618 88458==
41951,2024,03,21,03,00,AAXX 21034 41951 02450 62203 10230 20190 30141 40146 83510 333 20205 58008 70006 83618 85459==
41951,2024,03,21,06,00,AAXX 21064 41951 02450 70803 10262 20200 30142 40147 83510 333 58009 70006 83618 86459==
41951,2024,03,21,09,00,AAXX 21094 41951 02340 81304 10257 20190 30116 40121 8562/ 333 58008 70000 81708 84618 88458==
41951,2024,03,21,12,00,AAXX 21124 41951 02340 81303 10250 20190 30111 40116 8562/ 333 10272 59017 70006 81708 84618 88458==
41951,2024,03,21,15,00,AAXX 21154 41951 01330 81302 10190 20180 30134 40139 70596 8692/ 333 59018 70051 82706 84618 88458 82925==
41951,2024,03,21,18,00,AAXX 21184 41951 21340 82702 10195 20190 30123 40128 70296 8562/ 333 59023 60058 70054 81708 84618 88458==
41953,2024,03,15,00,00,AAXX 15004 41953 01430 80000 10248 20240 30110 40115 71022 8352/ 333 59008 70110 83616 88458==
41953,2024,03,15,03,00,AAXX 15034 41953 01430 60000 10266 20230 30137 40142 71022 82510 333 20210 59005 70110 82616 86458==
41953,2024,03,15,06,00,AAXX 15064 41953 01445 51303 10306 20240 30137 40142 70522 82510 333 58011 70110 82618 84458==
41953,2024,03,15,09,00,AAXX 15094 41953 01450 21301 10316 20220 30111 40116 70521 82500 333 59005 70000 82618==
41953,2024,03,15,12,00,AAXX 15124 41953 01440 30000 10296 20240 30109 40114 70521 83500 333 10318 58006 70000 83618==
41953,2024,03,15,15,00,AAXX 15154 41953 01930 00000 10254 20230 30134 40139 71010 333 58015 70000==
41953,2024,03,15,18,00,AAXX 15184 41953 01925 00000 10248 20240 30137 40142 71010 333 58014 70000==
41953,2024,03,15,21,00,AAXX 15214 41953 01908 00000 10240 20240 30135 40140 74240 333 58017 70000==
41953,2024,03,16,00,00,AAXX 16004 41953 01902 00000 10234 20234 30136 40141 74744 89/// 333 58026 70000==
41953,2024,03,16,03,00,AAXX 16034 41953 01430 80000 10246 20240 30162 40167 71044 8352/ 333 20231 58025 70000 83616 88458==
41953,2024,03,16,06,00,AAXX 16064 41953 01950 01305 10320 20220 30137 40142 70540 333 58000 70000==
41953,2024,03,16,09,00,AAXX 16094 41953 01450 21303 10327 20230 30110 40115 70510 82500 333 59001 70000 82618==
41953,2024,03,16,12,00,AAXX 16124 41953 01940 00000 10296 20230 30117 40122 70510 333 10329 58008 70000==
41953,2024,03,16,15,00,AAXX 16154 41953 01930 00000 10256 20240 30131 40136 71000 333 59003 70000==
41953,2024,03,16,18,00,AAXX 16184 41953 01925 00000 10250 20240 30134 40139 71000 333 59003 70000==
41953,2024,03,16,21,00,AAXX 16214 41953 01425 63603 10232 20220 30136 40141 71020 83530 333 58001 70000 83616 84361==
41953,2024,03,17,00,00,AAXX 17004 41953 01430 63604 10220 20210 30137 40142 71022 83530 333 58001 70000 83616 84361==
41953,2024,03,17,03,00,AAXX 17034 41953 01940 00405 10270 20180 30154 40159 70520 333 20218 59008 70000==
41953,2024,03,17,06,00,AAXX 17064 41953 01450 20502 10322 20170 30142 40147 70521 82500 333 58005 70000 82618==
41953,2024,03,17,09,00,AAXX 17094 41953 01450 70502 10320 20170 30113 40117 70522 83570 333 58003 70000 83616 84458==
41953,2024,03,17,12,00,AAXX 17124 41953 01945 00000 10298 20190 30113 40118 70520 333 10325 59004 70000==
41953,2024,03,17,15,00,AAXX 17154 41953 01930 00000 10254 20220 30123 40128 71000 333 59008 70000==
41953,2024,03,17,18,00,AAXX 17184 41953 01925 00000 10248 20240 30127 40132 71000 333 59007 70000==
41953,2024,03,17,21,00,AAXX 17214 41953 01925 00000 10238 20230 30123 40128 71000 333 59013 70000==
41953,2024,03,18,00,00,AAXX 18004 41953 01930 00000 10216 20210 30119 40124 71000 333 59018 70000==
41953,2024,03,18,03,00,AAXX 18034 41953 01945 00000 10286 20210 30136 40141 70500 333 20225 59018 70000==
41953,2024,03,18,06,00,AAXX 18064 41953 01440 60508 10320 20180 30130 40135 70520 83510 333 59012 70000 83616 85458==
41953,2024,03,18,09,00,AAXX 18094 41953 01450 70505 10322 20170 30098 40103 70522 83510 333 59015 70000 83616 86458==
41953,2024,03,18,12,00,AAXX 18124 41953 01440 83104 10294 20190 30094 40099 70522 8352/ 333 10325 59019 70000 83616 88458==
41953,2024,03,18,15,00,AAXX 18154 41953 01430 63104 10268 20210 30113 40118 70522 83510 333 59010 70000 83616 85458==
41953,2024,03,18,18,00,AAXX 18184 41953 01425 33103 10250 20220 30122 40127 71021 83500 333 59005 70000 83618==
41953,2024,03,19,00,00,AAXX 19004 41953 01430 50000 10230 20210 30119 40124 71022 82530 333 58000 70000 82616 84361==
41953,2024,03,19,03,00,AAXX 19034 41953 01440 63103 10275 20200 30139 40144 70522 83510 333 20226 58003 70000 83616 85458==
41953,2024,03,19,06,00,AAXX 19064 41953 01440 83101 10300 20190 30128 40133 70522 8352/ 333 59002 70000 83616 88458==
41953,2024,03,19,09,00,AAXX 19094 41953 01440 80000 10302 20210 30101 40106 70522 8352/ 333 58003 70000 83616 88458==
41953,2024,03,19,12,00,AAXX 19124 41953 01435 80000 10280 20230 30100 40105 70522 8352/ 333 10303 58006 70000 83616 88458==
41953,2024,03,19,15,00,AAXX 19154 41953 01425 80000 10244 20200 30138 40143 76122 8352/ 333 58025 70010 83616 88458==
41953,2024,03,19,18,00,AAXX 19184 41953 21425 80000 10234 20210 30139 40144 71066 8352/ 333 58017 60025 70020 83616 88458==
41953,2024,03,19,21,00,AAXX 19214 41953 01425 80000 10232 20210 30131 40136 71022 8352/ 333 58010 70020 83616 88458==
41953,2024,03,20,00,00,AAXX 20004 41953 01430 80000 10230 20210 30119 40124 71022 8352/ 333 58000 70020 83616 88458==
41953,2024,03,20,03,00,AAXX 20034 41953 01445 22702 10262 20210 30141 40146 70521 82500 333 20225 58002 70020 82618==
41953,2024,03,20,06,00,AAXX 20064 41953 01450 33104 10288 20180 30133 40138 70520 83500 333 58005 70020 83618==
41953,2024,03,20,09,00,AAXX 20094 41953 01450 33103 10306 20190 30110 40115 70521 83500 333 58009 70020 83616==
41953,2024,03,20,12,00,AAXX 20124 41953 01440 53104 10270 20190 30124 40129 70521 82530 333 10308 58024 70020 82618 85362==
41953,2024,03,20,15,00,AAXX 20154 41953 01440 53103 10240 20190 30146 40151 70522 82530 333 58008 70010 82618 85362==
41953,2024,03,20,18,00,AAXX 20184 41953 01430 60000 10226 20210 30153 40158 71022 83510 333 58014 70000 83616 86458==
41953,2024,03,20,21,00,AAXX 20214 41953 01430 60000 10224 20200 30145 40150 71022 83510 333 58014 70000 83616 86458==
41953,2024,03,21,00,00,AAXX 21004 41953 01430 80000 10220 20210 30142 40147 71022 8352/ 333 58023 70000 83616 88458==
41953,2024,03,21,03,00,AAXX 21034 41953 01430 81803 10222 20180 30150 40155 71062 8352/ 333 20215 58009 70030 83616 88458==
41953,2024,03,21,06,00,AAXX 21064 41953 11440 81303 10238 20190 30150 40155 60036 70562 8352/ 333 58017 70030 83616 88458==
41953,2024,03,21,09,00,AAXX 21094 41953 01440 80000 10250 20190 30125 40130 70522 8352/ 333 58015 70030 83616 88458==
41953,2024,03,21,12,00,AAXX 21124 41953 01440 81303 10240 20180 30114 40119 70522 8352/ 333 10255 59010 70030 83616 88458==
41953,2024,03,21,15,00,AAXX 21154 41953 01430 80000 10216 20180 30134 40139 71022 8352/ 333 59012 70030 83616 88458==
41953,2024,03,21,18,00,AAXX 21184 41953 21430 80000 10185 20170 30122 40127 71062 8352/ 333 59031 60055 70080 83616 88458==
41953,2024,03,21,21,00,AAXX 21214 41953 01430 80000 10180 20170 30115 40120 71022 8352/ 333 59030 70080 83616 88458==
41955,2024,03,15,00,00,AAXX 15004 41955 NIL=
41955,2024,03,15,06,00,AAXX 15064 41955 NIL=
41955,2024,03,15,12,00,AAXX 15124 41955 NIL=
41955,2024,03,15,18,00,AAXX 15184 41955 NIL=
41955,2024,03,16,12,00,AAXX 16124 41955 NIL=
41955,2024,03,17,06,00,AAXX 17064 41955 NIL=
41955,2024,03,17,18,00,AAXX 17184 41955 NIL=
41955,2024,03,18,06,00,AAXX 18064 41955 NIL=
41955,2024,03,18,15,00,AAXX 18154 41955 NIL=
41955,2024,03,19,06,00,AAXX 19064 41955 NIL=
41955,2024,03,19,12,00,AAXX 19124 41955 NIL=
41955,2024,03,19,18,00,AAXX 19184 41955 NIL=
41955,2024,03,20,00,00,AAXX 20004 41955 NIL=
41955,2024,03,20,06,00,AAXX 20064 41955 NIL=
41955,2024,03,20,12,00,AAXX 20124 41955 NIL=
41955,2024,03,20,18,00,AAXX 20184 41955 NIL=
41955,2024,03,21,06,00,AAXX 21064 41955 NIL=
41955,2024,03,21,12,00,AAXX 21124 41955 NIL=
41958,2024,03,15,00,00,AAXX 15004 41958 32450 60000 10257 20257 30104 40106 85410 333 56990 59009 70000 84616 86459=
41958,2024,03,15,03,00,AAXX 15034 41958 32457 60000 10290 20260 30137 40139 85410 333 20248 56990 59003 70000 84616 86459=
41958,2024,03,15,06,00,AAXX 15064 41958 32458 60000 10332 20230 30128 40130 85410 333 56990 58002 70000 84616 86459=
41958,2024,03,15,09,00,AAXX 15094 41958 32458 20000 10340 20190 30103 40105 82500 333 56900 58010 70000 82617=
41958,2024,03,15,12,00,AAXX 15124 41958 32450 20000 10310 20230 30104 40106 82500 333 10344 58012 70000 82617=
41958,2024,03,15,15,00,AAXX 15154 41958 32950 01701 10270 20250 30134 40136 333 58020 70000=
41958,2024,03,15,18,00,AAXX 15184 41958 32450 83103 10253 20200 30142 40144 8542/ 333 56799 58029 70000 84616 88458=
41958,2024,03,15,21,00,AAXX 15214 41958 32940 00000 10244 20230 30129 40131 333 58027 70000=
41958,2024,03,16,00,00,AAXX 16004 41958 32940 00000 10234 20220 30128 40130 333 58024 70000=
41958,2024,03,16,03,00,AAXX 16034 41958 32450 80000 10272 20220 30156 40158 8542/ 333 20227 56999 58019 70000 84616 88458=
41958,2024,03,16,09,00,AAXX 16094 41958 32957 00000 10335 20230 30112 40114 333 58009 70000=
41958,2024,03,16,12,00,AAXX 16124 41958 32950 00000 10300 20240 30113 40115 333 10338 58009 70000=
41958,2024,03,16,15,00,AAXX 16154 41958 32950 00000 10264 20220 30130 40132 333 59004 70000=
41958,2024,03,16,21,00,AAXX 16214 41958 32440 80501 10250 20230 30121 40123 8542/ 333 56199 59008 70000 84616 88458=
41958,2024,03,17,00,00,AAXX 17004 41958 32440 80501 10240 20220 30118 40120 8542/ 333 56199 59010 70000 84616 88458=
41958,2024,03,17,03,00,AAXX 17034 41958 32450 80000 10270 20220 30155 40157 8542/ 333 20232 56999 59001 70000 84616 88458=
41958,2024,03,17,06,00,AAXX 17064 41958 32456 80000 10305 20220 30146 40148 8542/ 333 56999 58010 70000 84616 88458=
41958,2024,03,17,12,00,AAXX 17124 41958 32950 00000 10294 20200 30109 40111 333 10325 59004 70000=
41958,2024,03,17,15,00,AAXX 17154 41958 32950 00000 10250 20220 30121 40123 333 59009 70000=
41958,2024,03,17,18,00,AAXX 17184 41958 32940 00000 10236 20220 30123 40125 333 59023 70000=
41958,2024,03,17,21,00,AAXX 17214 41958 32940 00000 10232 20230 30121 40123 333 59008 70000=
41958,2024,03,18,00,00,AAXX 18004 41958 31940 00000 10228 20228 30114 40116 70500 333 59004 70000=
41958,2024,03,18,03,00,AAXX 18034 41958 31950 03101 10285 20220 30137 40139 70500 333 20224 59018 70000=
41958,2024,03,18,06,00,AAXX 18064 41958 32450 80000 10315 20240 30142 40144 8542/ 333 56999 59004 70000 84616 88458=
41958,2024,03,18,09,00,AAXX 18094 41958 32456 60000 10298 20230 30104 40106 83410 333 56990 59012 70000 83616 85459=
41958,2024,03,18,12,00,AAXX 18124 41958 32950 00000 10286 20240 30112 40114 333 10311 58003 70000=
41958,2024,03,18,15,00,AAXX 18154 41958 32450 60000 10255 20240 30112 40114 83410 333 56990 59003 70000 83616 85459=
41958,2024,03,18,18,00,AAXX 18184 41958 32940 00000 10250 20240 30119 40121 333 59004 70000=
41958,2024,03,18,21,00,AAXX 18214 41958 31940 00000 10240 20240 30103 40105 70500 333 59018 70000=
41958,2024,03,19,00,00,AAXX 19004 41958 31930 00000 10236 20236 30111 40113 70500 333 59003 70000=
41958,2024,03,19,03,00,AAXX 19034 41958 31450 80000 10275 20240 30141 40143 70500 8542/ 333 20234 56999 58004 70000 84616 88459=
41958,2024,03,19,06,00,AAXX 19064 41958 32457 80000 10305 20230 30131 40133 8542/ 333 56999 59011 70000 84616 88459=
41958,2024,03,19,09,00,AAXX 19094 41958 32457 80000 10287 20230 30104 40106 8542/ 333 56999 58000 70000 84616 88459=
41958,2024,03,19,12,00,AAXX 19124 41958 32456 80000 10270 20220 30102 40104 8532/ 333 10310 56999 59010 70000 84616 81930 88459=
41958,2024,03,19,15,00,AAXX 19154 41958 32440 83201 10254 20220 30133 40135 8532/ 333 56999 58015 70000 84616 81930 88459=
41958,2024,03,19,18,00,AAXX 19184 41958 11440 80000 10237 20230 30123 40125 60017 76162 8532/ 333 56999 58004 70006 84616 81930 88459=
41958,2024,03,19,21,00,AAXX 19214 41958 32440 80000 10233 20210 30113 40115 8542/ 333 56999 58010 70006 84616 88459=
41958,2024,03,20,00,00,AAXX 20004 41958 32440 80000 10229 20210 30118 40120 8542/ 333 56999 58007 70006 84616 88459=
41958,2024,03,20,03,00,AAXX 20034 41958 32457 60000 10245 20210 30142 40145 85410 333 20215 56990 58001 70006 84616 86459=
41958,2024,03,20,06,00,AAXX 20064 41958 32458 80000 10272 20210 30148 40150 8542/ 333 56999 58017 70006 84616 88459=
41958,2024,03,20,09,00,AAXX 20094 41958 32458 80000 10262 20200 30137 40139 8542/ 333 56999 58033 70006 84616 88459=
41958,2024,03,20,12,00,AAXX 20124 41958 32456 80000 10245 20190 30132 40134 8542/ 333 10277 56999 58030 70006 84616 88459=
41958,2024,03,20,15,00,AAXX 20154 41958 32450 70000 10225 20200 30147 40150 85410 333 56690 58014 70006 84616 87459=
41958,2024,03,20,18,00,AAXX 20184 41958 32440 80000 10225 20210 30147 40149 8532/ 333 56999 58024 70000 84616 81930 88459=
41958,2024,03,20,21,00,AAXX 20214 41958 21440 80000 10210 20200 30122 40124 79596 8532/ 333 56999 58009 6001/ 70010 84616 81930 88459=
41958,2024,03,21,00,00,AAXX 21004 41958 11440 80000 10200 20180 30124 40126 60018 70296 8542/ 333 56699 58006 70010 84616 88459=
41958,2024,03,21,03,00,AAXX 21034 41958 32457 60000 10245 20190 30149 40151 85410 333 20195 56990 58007 70010 84616 86459=
41958,2024,03,21,06,00,AAXX 21064 41958 32458 63201 10278 20190 30136 40138 85410 333 56690 59012 70000 84616 86459=
41958,2024,03,21,09,00,AAXX 21094 41958 32458 50000 10290 20190 30107 40109 85400 333 56900 59030 70010 84617=
41958,2024,03,21,12,00,AAXX 21124 41958 11450 80000 10210 20180 30104 40106 60014 79596 8592/ 333 10291 56499 59028 70018 84616 82928 88459=
41958,2024,03,21,15,00,AAXX 21154 41958 21440 80901 10200 20180 30125 40127 70296 8532/ 333 56699 59022 6010/ 70114 84616 81930 88459=
41958,2024,03,21,18,00,AAXX 21184 41958 11440 60000 10202 20180 30122 40124 60106 70196 85410 333 56690 59025 70114 84616 86459=
41958,2024,03,21,21,00,AAXX 21214 41958 32440 60000 10201 20200 30097 40099 85410 333 56690 59025 70104 84616 86459=
41960,2024,03,15,00,00,AAXX 15004 41960 01440 80000 10252 20252 30113 40114 70522 8442/ 333 59008 70000 82618 88459==
41960,2024,03,15,03,00,AAXX 15034 41960 01450 80000 10282 20250 30135 40137 70522 8542/ 333 20250 59003 70000 83618 88459==
41960,2024,03,15,06,00,AAXX 15064 41960 02456 62103 10324 20230 30132 40134 85410 333 58000 70000 83618 84459==
41960,2024,03,15,09,00,AAXX 15094 41960 02456 62002 10320 20220 30108 40110 85410 333 58008 70000 83618 86459==
41960,2024,03,15,12,00,AAXX 15124 41960 02450 31801 10278 20220 30113 40115 83401 333 10343 58009 70000 82618==
41960,2024,03,15,15,00,AAXX 15154 41960 02950 00000 10244 20210 30135 40137 333 58015 70000==
41960,2024,03,15,18,00,AAXX 15184 41960 01940 00000 10234 20220 30137 40139 70500 333 58015 70000==
41960,2024,03,15,21,00,AAXX 15214 41960 01420 60000 10234 20230 30136 40138 71020 84410 333 58018 70000 82618 86459==
41960,2024,03,16,00,00,AAXX 16004 41960 01408 80000 10235 20235 30135 40136 74442 8542/ 333 58022 70000 83618 88459==
41960,2024,03,16,03,00,AAXX 16034 41960 01412 80000 10250 20240 30158 40159 74044 8542/ 333 20230 58023 70000 83618 88458==
41960,2024,03,16,06,00,AAXX 16064 41960 01450 31802 10300 20230 30139 40141 70540 83400 333 58007 70000 82618==
41960,2024,03,16,09,00,AAXX 16094 41960 02457 21902 10338 20220 30117 40119 82400 333 58009 70000 81618==
41960,2024,03,16,12,00,AAXX 16124 41960 02450 20000 10307 20220 30116 40118 82400 333 10341 58003 70000 81618==
41960,2024,03,16,15,00,AAXX 16154 41960 02950 00000 10261 20240 30134 40136 333 59001 70000==
41960,2024,03,16,18,00,AAXX 16184 41960 01940 00000 10250 20230 30143 40145 70500 333 58006 70000==
41960,2024,03,16,21,00,AAXX 16214 41960 02450 40000 10240 20220 30135 40136 83410 333 59001 70000 82618 84460==
41960,2024,03,17,00,00,AAXX 17004 41960 02450 70000 10230 20210 30126 40127 85470 333 59009 70000 83618 85460==
41960,2024,03,17,03,00,AAXX 17034 41960 02456 60000 10272 20210 30152 40153 84470 333 20226 59006 70000 83618 84459==
41960,2024,03,17,06,00,AAXX 17064 41960 02457 21803 10310 20200 30142 40144 82530 333 59003 70000 82618==
41960,2024,03,17,09,00,AAXX 17094 41960 02457 63402 10328 20190 30114 40116 83470 333 59003 70000 82618 83460==
41960,2024,03,17,12,00,AAXX 17124 41960 02456 20000 10300 20220 30109 40111 82400 333 10334 59007 70000 81618==
41960,2024,03,17,15,00,AAXX 17154 41960 02950 00000 10250 20230 30123 40125 333 59011 70000==
41960,2024,03,17,18,00,AAXX 17184 41960 02950 00000 10235 20230 30124 40125 333 59019 70000==
41960,2024,03,17,21,00,AAXX 17214 41960 02950 00000 10230 20220 30120 40121 333 59015 70000==
41960,2024,03,18,00,00,AAXX 18004 41960 02950 00000 10220 20210 30116 40118 333 59010 70000==
41960,2024,03,18,03,00,AAXX 18034 41960 02956 00000 10274 20200 30134 40136 333 20216 59018 70000==
41960,2024,03,18,06,00,AAXX 18064 41960 02456 62104 10317 20200 30132 40134 83510 333 59010 70000 83618 85459==
41960,2024,03,18,09,00,AAXX 18094 41960 02450 83403 10312 20200 30103 40105 8542/ 333 59011 70000 83618 88459==
41960,2024,03,18,12,00,AAXX 18124 41960 02450 50000 10295 20230 30098 40100 82430 333 10324 59011 70000 81618 85362==
41960,2024,03,18,15,00,AAXX 18154 41960 02950 30000 10256 20240 30120 40121 80001 333 59003 70000 83080==
41960,2024,03,18,18,00,AAXX 18184 41960 02450 60000 10251 20230 30119 40121 84410 333 58005 70000 83618 86459==
41960,2024,03,18,21,00,AAXX 18214 41960 01440 50000 10246 20240 30117 40118 70522 84410 333 59003 70000 82618 85459==
41960,2024,03,19,00,00,AAXX 19004 41960 01440 30000 10243 20230 30115 40117 70522 83400 333 59001 70000 82618==
41960,2024,03,19,03,00,AAXX 19034 41960 01450 50000 10270 20230 30138 40139 70521 85400 333 20241 59004 70000 83618==
41960,2024,03,19,06,00,AAXX 19064 41960 02456 83203 10296 20230 30130 40132 8542/ 333 59002 70000 83618 88459==
41960,2024,03,19,09,00,AAXX 19094 41960 02450 83003 10308 20220 30111 40113 8542/ 333 58008 70000 83618 88459==
41960,2024,03,19,12,00,AAXX 19124 41960 21340 82702 10277 20240 30105 40106 72162 8562/ 333 10320 58007 60007 81708 84617 88458==
41960,2024,03,19,15,00,AAXX 19154 41960 01440 80000 10240 20220 30131 40132 76162 8542/ 333 58011 70008 84616 88458==
41960,2024,03,19,18,00,AAXX 19184 41960 01440 80000 10239 20230 30128 40130 70262 8542/ 333 58009 70010 83617 88459==
41960,2024,03,19,21,00,AAXX 19214 41960 02450 82101 10235 20230 30126 40128 8542/ 333 58009 70010 83618 88459==
41960,2024,03,20,00,00,AAXX 20004 41960 02450 82703 10232 20220 30123 40125 8342/ 333 58008 70010 82618 88459==
41960,2024,03,20,03,00,AAXX 20034 41960 02456 32705 10250 20210 30147 40149 83400 333 20228 58009 70000 82618==
41960,2024,03,20,06,00,AAXX 20064 41960 02957 02906 10286 20210 30137 40139 333 58007 70000==
41960,2024,03,20,09,00,AAXX 20094 41960 02450 82712 10292 20190 30127 40128 8542/ 333 58016 70010 83618 83822 88459==
41960,2024,03,20,12,00,AAXX 20124 41960 02450 52710 10250 20190 30132 40134 84401 333 10300 58027 70010 83618 83080==
41960,2024,03,20,15,00,AAXX 20154 41960 02450 42701 10230 20200 30156 40158 82410 333 58025 70002 81618 84459==
41960,2024,03,20,18,00,AAXX 20184 41960 01940 30000 10223 20210 30152 40154 70511 80001 333 58024 70000 83080==
41960,2024,03,20,21,00,AAXX 20214 41960 01450 60000 10212 20190 30142 40144 70521 84410 333 58016 70000 82618 86459==
41960,2024,03,21,00,00,AAXX 21004 41960 01450 81202 10202 20180 30132 40134 72162 8542/ 333 58009 70004 83617 83822 88459==
41960,2024,03,21,03,00,AAXX 21034 41960 02456 60000 10238 20190 30160 40162 85410 333 20201 58013 70004 83618 85459==
41960,2024,03,21,06,00,AAXX 21064 41960 02457 80000 10258 20200 30145 40147 8542/ 333 58008 70004 83618 88459==
41960,2024,03,21,09,00,AAXX 21094 41960 01450 71602 10250 20210 30120 40122 76162 85410 333 59007 70007 83617 87459==
41960,2024,03,21,12,00,AAXX 21124 41960 21450 50000 10249 20200 30106 40108 71762 85901 333 10285 59026 69948 70008 83618 83080 81930==
41960,2024,03,21,18,00,AAXX 21184 41960 21440 80000 10191 20180 30125 40127 70596 8542/ 333 59027 60098 70098 84617 88459==
41960,2024,03,21,21,00,AAXX 21214 41960 01440 80000 10195 20190 30115 40117 70522 8542/ 333 59027 70094 84617 88459==
41963,2024,03,15,00,00,AAXX 15004 41963 01910 00000 10227 20227 30109 40112 71000 333 59004 70000==
41963,2024,03,15,03,00,AAXX 15034 41963 01450 61801 10280 20250 30142 40145 70520 82510 333 20196 59004 70040 82618 86458==
41963,2024,03,15,06,00,AAXX 15064 41963 02456 61802 10290 20170 30136 40138 82510 333 58014 70400 82618 86458==
41963,2024,03,15,09,00,AAXX 15094 41963 02456 21302 10290 20240 30112 40114 82500 333 58006 70080 82618==
41963,2024,03,15,12,00,AAXX 15124 41963 02950 00000 10272 20240 30109 40112 333 10295 59001 70000==
41963,2024,03,15,15,00,AAXX 15154 41963 01930 00000 10242 20242 30132 40135 70500 333 58015 70000==
41963,2024,03,15,18,00,AAXX 15184 41963 NIL=
41963,2024,03,15,21,00,AAXX 15214 41963 01915 00000 10236 20236 30133 40136 71000 333 58013 70000==
41963,2024,03,16,00,00,AAXX 16004 41963 01920 00000 10240 20240 30119 40122 70500 333 58010 70000==
41963,2024,03,16,03,00,AAXX 16034 41963 02450 51301 10272 20240 30162 40165 82510 333 20215 58020 70000 82618 85458==
41963,2024,03,16,06,00,AAXX 16064 41963 02956 01801 10300 20220 30132 40134 333 59004 70000==
41963,2024,03,16,09,00,AAXX 16094 41963 02957 01801 10335 20100 30117 40120 333 58005 70000==
41963,2024,03,16,12,00,AAXX 16124 41963 NIL=
41963,2024,03,16,15,00,AAXX 16154 41963 01915 01801 10240 20230 30130 40133 70500 333 59002 70000==
41963,2024,03,16,21,00,AAXX 16214 41963 01915 00000 10230 20230 30130 40133 71000 333 58003 70000==
41963,2024,03,17,00,00,AAXX 17004 41963 01910 00000 10220 20220 30114 40117 71000 333 59005 70000==
41963,2024,03,17,03,00,AAXX 17034 41963 01960 01801 10280 20200 30144 40147 70500 333 20200 59018 70000==
41963,2024,03,17,06,00,AAXX 17064 41963 02456 21301 10310 20190 30135 40138 82500 333 59003 70000 82618==
41963,2024,03,17,09,00,AAXX 17094 41963 02957 01301 10330 20200 30113 40115 333 59004 70000==
41963,2024,03,17,15,00,AAXX 17154 41963 01920 00000 10241 20241 30115 40118 71000 333 59015 70000==
41963,2024,03,17,18,00,AAXX 17184 41963 NIL=
41963,2024,03,17,21,00,AAXX 17214 41963 01915 00000 10234 20234 30118 40121 71000 333 59012 70000==
41963,2024,03,18,00,00,AAXX 18004 41963 01912 00000 10221 20221 30104 40107 71000 333 59010 70000==
41963,2024,03,18,03,00,AAXX 18034 41963 02950 03601 10290 20190 30130 40133 333 20198 59014 70000==
41963,2024,03,18,06,00,AAXX 18064 41963 02956 03601 10320 20200 30122 40125 333 59013 70000==
41963,2024,03,18,09,00,AAXX 18094 41963 02456 23601 10330 20200 30094 40096 82500 333 59019 70000 82618==
41963,2024,03,18,12,00,AAXX 18124 41963 02450 63601 10280 20240 30094 40096 82510 333 10335 59013 70000 82618 86458==
41963,2024,03,18,15,00,AAXX 18154 41963 01920 03601 10250 20230 30109 40112 70500 333 59009 70000==
41963,2024,03,18,21,00,AAXX 18214 41963 01915 00000 10237 20237 30110 40113 71000 333 59008 70000==
41963,2024,03,19,00,00,AAXX 19004 41963 01912 00000 10230 20230 30102 40105 71000 333 59002 70000==
41963,2024,03,19,03,00,AAXX 19034 41963 02940 53601 10280 20210 30135 40138 82510 333 20210 58005 70000 82618 85458==
41963,2024,03,19,06,00,AAXX 19064 41963 02450 73601 10270 20220 30124 40127 82510 333 58002 70000 82618 87458==
41963,2024,03,19,09,00,AAXX 19094 41963 02450 73601 10290 20200 30093 40096 82510 333 70000 82618 87458==
41963,2024,03,19,12,00,AAXX 19124 41963 02430 73601 10265 20240 30104 40107 82510 333 10295 58010 70000 82618 87458==
41963,2024,03,19,15,00,AAXX 19154 41963 02430 53601 10265 20230 30131 40134 82510 333 58022 70000 82618 85458==
41963,2024,03,19,18,00,AAXX 19184 41963 NIL=
41963,2024,03,19,21,00,AAXX 19214 41963 02420 53601 10250 20230 30131 40134 82510 333 58021 70000 82618 85458==
41963,2024,03,20,00,00,AAXX 20004 41963 01915 00000 10225 20225 30102 40105 71000 333 58000 70000==
41963,2024,03,20,03,00,AAXX 20034 41963 02950 03601 10280 20200 30132 40135 333 20205 59003 70000==
41963,2024,03,20,06,00,AAXX 20064 41963 02957 03601 10320 20180 30125 40127 333 58001 70000==
41963,2024,03,20,09,00,AAXX 20094 41963 02957 03603 10310 20210 30107 40110 333 58014 70000==
41963,2024,03,20,12,00,AAXX 20124 41963 02450 33603 10270 20220 30118 40121 82500 333 10325 58014 70000 82618==
41963,2024,03,20,15,00,AAXX 20154 41963 01930 03603 10230 20180 30142 40145 70500 333 58011 70000==
41963,2024,03,20,18,00,AAXX 20184 41963 NIL=
41963,2024,03,20,21,00,AAXX 20214 41963 01930 03602 10210 20190 30144 40147 70500 333 58013 70000==
41963,2024,03,21,00,00,AAXX 21004 41963 01320 83601 10220 20200 30133 40135 72162 8252/ 333 58031 70020 82708 83616 88458==
41963,2024,03,21,03,00,AAXX 21034 41963 02440 61804 10280 20230 30151 40154 82510 333 20190 58019 70020 82618 86458==
41963,2024,03,21,06,00,AAXX 21064 41963 02440 81802 10240 20190 30150 40153 8252/ 333 58025 70000 82708 83618 88458==
41963,2024,03,21,09,00,AAXX 21094 41963 02450 51803 10250 20180 30120 40122 82510 333 58013 70020 82618 85458==
41963,2024,03,21,12,00,AAXX 21124 41963 02440 31802 10240 20170 30112 40114 83500 333 10282 59006 70020 83618==
41963,2024,03,21,15,00,AAXX 21154 41963 01930 00000 10210 20190 30135 40138 70500 333 59007 70020==
41963,2024,03,21,21,00,AAXX 21214 41963 01930 00000 10205 20200 30137 40140 70500 333 59007 70020==
41964,2024,03,15,00,00,AAXX 15004 41964 01340 80000 10255 20253 30117 40119 70522 8662/ 333 59005 70035 84709 83618 88460==
41964,2024,03,15,03,00,AAXX 15034 41964 01350 71403 10264 20240 30136 40138 70522 85610 333 20225 58000 70035 83709 83618 85460==
41964,2024,03,15,06,00,AAXX 15064 41964 02956 03601 10302 20220 30133 40136 333 59002 70035==
41964,2024,03,15,09,00,AAXX 15094 41964 02957 00000 10320 20210 30118 40120 333 58004 70000==
41964,2024,03,15,12,00,AAXX 15124 41964 02956 32001 10290 20220 30103 40106 80002 333 10323 58001 70000 83080==
41964,2024,03,15,15,00,AAXX 15154 41964 02950 00000 10240 20230 30139 40141 333 58023 70000==
41964,2024,03,15,18,00,AAXX 15184 41964 NIL=
41964,2024,03,16,00,00,AAXX 16004 41964 01335 81401 10239 20237 30135 40137 70522 8662/ 333 58018 70000 84709 83618 88460==
41964,2024,03,16,03,00,AAXX 16034 41964 01450 33202 10277 20240 30153 40155 70521 83500 333 20226 58017 70000 83619==
41964,2024,03,16,09,00,AAXX 16094 41964 02957 00000 10350 20120 30113 40115 333 59005 70000==
41964,2024,03,16,12,00,AAXX 16124 41964 02956 02302 10302 20230 30105 40107 333 10355 58002 70000==
41964,2024,03,16,15,00,AAXX 16154 41964 02950 00000 10250 20230 30124 40127 333 59015 70000==
41964,2024,03,17,00,00,AAXX 17004 41964 01/50 60000 10220 20210 30130 40132 70522 86070 333 59005 70000 83460 83362==
41964,2024,03,17,03,00,AAXX 17034 41964 02956 00302 10300 20210 30142 40145 333 20205 59011 70000==
41964,2024,03,17,06,00,AAXX 17064 41964 02957 00000 10322 20180 30134 40136 333 59002 70000==
41964,2024,03,17,09,00,AAXX 17094 41964 02957 00000 10342 20160 30107 40109 333 59006 70000==
41964,2024,03,17,12,00,AAXX 17124 41964 02956 00000 10299 20240 30099 40101 333 10347 59006 70000==
41964,2024,03,17,15,00,AAXX 17154 41964 02950 00000 10235 20210 30126 40129 333 58002 70000==
41964,2024,03,17,18,00,AAXX 17184 41964 NIL=
41964,2024,03,17,21,00,AAXX 17214 41964 01945 00000 10225 20220 30117 40119 70500 333 59013 70000==
41964,2024,03,18,00,00,AAXX 18004 41964 01950 00000 10217 20210 30114 40116 70500 333 59016 70000==
41964,2024,03,18,03,00,AAXX 18034 41964 02956 03602 10300 20200 30123 40126 333 20206 59019 70000==
41964,2024,03,18,06,00,AAXX 18064 41964 02956 03602 10335 20180 30119 40121 333 59015 70000==
41964,2024,03,18,09,00,AAXX 18094 41964 02957 00502 10345 20210 30104 40106 333 59003 70000==
41964,2024,03,18,12,00,AAXX 18124 41964 02456 70000 10301 20220 30085 40088 84570 333 10347 59014 70000 84617 84460 83362==
41964,2024,03,18,15,00,AAXX 18154 41964 02450 70000 10250 20230 30116 40119 84570 333 59010 70000 84617 84460 83362==
41964,2024,03,18,21,00,AAXX 18214 41964 01445 50000 10232 20220 30113 40115 70522 83510 333 59004 70000 83618 84460==
41964,2024,03,19,00,00,AAXX 19004 41964 01445 60501 10228 20220 30114 40116 70522 83530 333 58000 70000 83618 85362==
41964,2024,03,19,03,00,AAXX 19034 41964 01450 62301 10288 20200 30123 40126 70522 83510 333 20217 58000 70000 83618 85460==
41964,2024,03,19,06,00,AAXX 19064 41964 02450 80000 10282 20210 30131 40133 84510 333 58012 70000 84618 88460==
41964,2024,03,19,09,00,AAXX 19094 41964 02450 80000 10320 20200 30094 40096 8452/ 333 59010 70000 84618 88460==
41964,2024,03,19,12,00,AAXX 19124 41964 01450 80000 10278 20240 30092 40095 70522 8652/ 333 10322 70000 86617 88459==
41964,2024,03,19,15,00,AAXX 19154 41964 02450 80502 10270 30132 40135 8452/ 333 58016 70000 84618 88460==
41964,2024,03,19,18,00,AAXX 19184 41964 NIL=
41964,2024,03,19,21,00,AAXX 19214 41964 01450 63401 10237 20230 30120 40122 70522 83510 333 58007 70000 83618 84460==
41964,2024,03,20,00,00,AAXX 20004 41964 01/50 50000 10228 20220 30114 40116 70522 85030 333 58000 70000 85362==
41964,2024,03,20,03,00,AAXX 20034 41964 02956 03202 10284 20190 30126 40129 333 20210 58003 70000==
41964,2024,03,20,06,00,AAXX 20064 41964 02956 03601 10322 20180 30132 40134 333 58001 70000==
41964,2024,03,20,09,00,AAXX 20094 41964 02/57 23205 10327 20180 30101 40103 82030 333 58007 70000 82360==
41964,2024,03,20,12,00,AAXX 20124 41964 02/56 43203 10285 20220 30107 40109 83032 333 10332 58015 70000 83362==
41964,2024,03,20,15,00,AAXX 20154 41964 02456 43203 10244 20200 30140 40142 82530 333 58008 70000 82618 83362==
41964,2024,03,20,18,00,AAXX 20184 41964 01450 30000 10229 20200 30144 40146 70511 81530 333 58018 70000 81618 83362==
41964,2024,03,20,21,00,AAXX 20214 41964 01450 50000 10224 20210 30140 40143 70521 83510 333 58020 70000 83617 84460==
41964,2024,03,21,00,00,AAXX 21004 41964 01340 80502 10220 20210 30136 40139 76122 8632/ 333 58022 70000 83708 85615 88458 81930==
41964,2024,03,21,03,00,AAXX 21034 41964 01/56 61403 10216 20210 30147 40150 70166 85012 333 20195 58021 70018 85460 83080==
41964,2024,03,21,06,00,AAXX 21064 41964 11456 61303 10230 20200 30111 40113 60026 70262 83520 333 59021 70018 83618 85460==
41964,2024,03,21,09,00,AAXX 21094 41964 02456 61402 10250 20180 30125 40127 83510 333 58024 70018 83618 85460==
41964,2024,03,21,12,00,AAXX 21124 41964 02457 61302 10236 20180 30111 40114 82512 333 10261 58004 70018 82618 83460 85078==
41964,2024,03,21,15,00,AAXX 21154 41964 02/56 61402 10202 20190 30135 40138 86012 333 59005 70018 86460==
41964,2024,03,21,18,00,AAXX 21184 41964 01440 30000 10194 20180 30118 40121 70596 82530 333 59026 70001 82618==
41964,2024,03,21,21,00,AAXX 21214 41964 01450 50902 10191 20180 30112 40114 70522 83510 333 59028 70019 83617 84460==
41965,2024,03,15,00,00,AAXX 15004 41965 NIL=
41965,2024,03,15,03,00,AAXX 15034 41965 01440 61402 10230 20170 30142 40151 75262 84610 333 20215 58003 70110 83618 84460==
41965,2024,03,15,06,00,AAXX 15064 41965 11456 30000 10305 20110 30126 40135 60116 70162 83600 333 58006 70110 83618==
41965,2024,03,15,09,00,AAXX 15094 41965 02456 31402 10320 20180 30105 40114 83600 333 58006 70110 83618==
41965,2024,03,15,12,00,AAXX 15124 41965 01940 00000 10270 20200 30105 40114 70500 333 10330 58005 70110==
41965,2024,03,15,15,00,AAXX 15154 41965 01930 00000 10230 20200 30131 40140 70500 333 58014 70110==
41965,2024,03,15,18,00,AAXX 15184 41965 NIL=
41965,2024,03,15,21,00,AAXX 15214 41965 01930 00000 10210 20170 30136 40145 70500 333 58015 70110==
41965,2024,03,16,00,00,AAXX 16004 41965 01930 00000 10220 20170 30137 40146 70500 333 58013 70110==
41965,2024,03,16,03,00,AAXX 16034 41965 01950 02601 10280 20210 30155 40164 70500 333 20206 58013 70000==
41965,2024,03,16,06,00,AAXX 16064 41965 01956 01402 10320 20160 30128 40137 70500 333 58002 70000==
41965,2024,03,16,09,00,AAXX 16094 41965 01456 30000 10355 20130 30101 40110 70542 83600 333 59004 70000 83618==
41965,2024,03,16,12,00,AAXX 16124 41965 01930 00000 10300 20120 30106 40115 70500 333 10358 58001 70000==
41965,2024,03,16,21,00,AAXX 16214 41965 01930 00000 10215 20190 30128 40137 70500 333 59008 70000==
41965,2024,03,17,03,00,AAXX 17034 41965 01450 30000 10300 20180 30142 40151 70541 83600 333 20196 59013 70000 82618==
41965,2024,03,17,06,00,AAXX 17064 41965 01456 31403 10340 20100 30129 40138 70541 83600 333 58001 70000 83618==
41965,2024,03,17,09,00,AAXX 17094 41965 42456 32801 10354 20100 30102 40111 56125 83618==
41965,2024,03,17,12,00,AAXX 17124 41965 01430 30000 10300 20120 30100 40109 70541 83600 333 10361 59006 70000 83618==
41965,2024,03,17,18,00,AAXX 17184 41965 NIL=
41965,2024,03,17,21,00,AAXX 17214 41965 01930 00000 10200 20160 30120 40129 70500 333 59008 70000==
41965,2024,03,18,00,00,AAXX 18004 41965 01930 00000 10199 20180 30114 40123 70500 333 59021 70000==
41965,2024,03,18,03,00,AAXX 18034 41965 01950 00000 10310 20120 30123 40132 70500 333 20185 59019 70000==
41965,2024,03,18,06,00,AAXX 18064 41965 02456 31402 10340 20110 30116 40125 83600 333 59013 70000 83618==
41965,2024,03,18,09,00,AAXX 18094 41965 02456 31001 10345 20150 30089 40098 83600 333 59013 70000 83618==
41965,2024,03,18,12,00,AAXX 18124 41965 02430 30000 10295 20120 30085 40094 83600 333 10360 59015 70000 83618==
41965,2024,03,18,15,00,AAXX 18154 41965 01430 30000 10235 20180 30104 40113 70542 83600 333 59010 70000 83618==
41965,2024,03,18,18,00,AAXX 18184 41965 01930 00000 10210 20170 30107 40116 70500 333 59010 70000==
41965,2024,03,18,21,00,AAXX 18214 41965 01930 00000 10210 20170 30112 40121 70500 333 59008 70000==
41965,2024,03,19,00,00,AAXX 19004 41965 01430 30000 10210 20150 30109 40118 70500 83600 333 59005 70000 83618==
41965,2024,03,19,03,00,AAXX 19034 41965 01450 50000 10304 20150 30126 40135 70541 84610 333 20205 58003 70000 83618 86460==
41965,2024,03,19,06,00,AAXX 19064 41965 02440 81403 10305 20110 30123 40132 8461/ 333 58007 70000 83618 88460==
41965,2024,03,19,09,00,AAXX 19094 41965 02440 80501 10315 20160 30092 40101 8461/ 333 58003 70000 83618 88460==
41965,2024,03,19,12,00,AAXX 19124 41965 02430 80000 10270 20160 30093 40102 8461/ 333 10325 58008 70000 83618 88460==
41965,2024,03,19,15,00,AAXX 19154 41965 02430 81403 10265 20180 30126 40135 8461/ 333 58022 70000 83618 88460==
41965,2024,03,19,18,00,AAXX 19184 41965 NIL=
41965,2024,03,19,21,00,AAXX 19214 41965 02430 30000 10240 20190 30131 40140 83600 333 58019 70000 83618==
41965,2024,03,20,00,00,AAXX 20004 41965 02430 30000 10206 20160 30112 40121 83600 333 58003 70000 83618==
41965,2024,03,20,03,00,AAXX 20034 41965 02450 31401 10292 20130 30128 40137 83600 333 20194 58002 70000 83618==
41965,2024,03,20,06,00,AAXX 20064 41965 02450 33102 10330 20130 30114 40123 83600 333 59009 70000 83618==
41965,2024,03,20,09,00,AAXX 20094 41965 02450 33201 10328 20140 30097 40106 83600 333 58005 70000 83618==
41965,2024,03,20,12,00,AAXX 20124 41965 02430 33101 10280 20130 30110 40119 83600 333 10348 58017 70000 83618==
41965,2024,03,20,18,00,AAXX 20184 41965 NIL=
41965,2024,03,20,21,00,AAXX 20214 41965 02430 30000 10220 20180 30146 40155 83600 333 58015 70000 83618==
41965,2024,03,21,00,00,AAXX 21004 41965 02430 80000 10205 20170 30158 40166 8461/ 333 58046 70000 81710 83618 88460==
41965,2024,03,21,03,00,AAXX 21034 41965 02440 81302 10210 20170 30153 40161 8461/ 333 20195 58025 70000 81710 83618 88460==
41965,2024,03,21,06,00,AAXX 21064 41965 02440 81402 10220 20130 30157 40166 8461/ 333 58043 70000 83618 81710 88460==
41965,2024,03,21,09,00,AAXX 21094 41965 02440 81802 10244 20140 30112 40121 8461/ 333 58015 70000 83618 81710 88460==
41965,2024,03,21,12,00,AAXX 21124 41965 02430 81001 10225 20140 30113 40122 8461/ 333 10255 58003 70000 81710 83618 88460==
41965,2024,03,21,18,00,AAXX 21184 41965 02430 30000 10185 20150 30139 40148 83600 333 59006 70000 83618==
41965,2024,03,21,21,00,AAXX 21214 41965 02430 30000 10185 20150 30132 40141 83600 333 59014 70000 83618==
41966,2024,03,15,00,00,AAXX 15004 41966 02440 70901 10230 20220 30048 40129 82510 333 59005 70000 82616 86460==
41966,2024,03,15,03,00,AAXX 15034 41966 01450 71801 10218 20200 30084 40165 72162 83510 333 20210 58004 70018 83616 86460==
41966,2024,03,15,06,00,AAXX 15064 41966 21/50 31301 10275 20130 30070 40149 70162 83030 333 58006 60028 70018 83460==
41966,2024,03,15,09,00,AAXX 15094 41966 02/50 30901 10335 20000 30043 40121 83010 333 58011 70018 83460==
41966,2024,03,15,12,00,AAXX 15124 41966 02/40 30501 10270 20180 30041 40120 83010 333 10340 59003 70018 83460==
41966,2024,03,15,15,00,AAXX 15154 41966 02435 40401 10240 20200 30048 40128 82510 333 58001 70018 83616 83460==
41966,2024,03,15,18,00,AAXX 15184 41966 NIL=
41966,2024,03,15,21,00,AAXX 15214 41966 02/35 30501 10220 20210 30055 40136 83010 333 58006 70018 83460==
41966,2024,03,16,00,00,AAXX 16004 41966 02/40 30901 10200 20190 30066 40147 83010 333 58018 70018 83460==
41966,2024,03,16,03,00,AAXX 16034 41966 02/50 33602 10290 20170 30088 40167 83030 333 20190 58001 70000 83362==
41966,2024,03,16,06,00,AAXX 16064 41966 02/50 33601 10340 20030 30066 40144 83030 333 59005 70000 83362==
41966,2024,03,16,09,00,AAXX 16094 41966 02/50 30501 10365 20040 30038 40115 83030 333 59006 70000 83362==
41966,2024,03,16,12,00,AAXX 16124 41966 02/40 30000 10298 20160 30036 40115 83030 333 10370 59005 70000 83362==
41966,2024,03,16,15,00,AAXX 16154 41966 02/35 42702 10260 20200 30045 40125 84010 333 59003 70000 84460==
41966,2024,03,17,00,00,AAXX 17004 41966 02440 40501 10202 20190 30060 40141 82510 333 59006 70000 82616 83460==
41966,2024,03,17,03,00,AAXX 17034 41966 02/50 30000 10285 20150 30085 40164 83030 333 20195 59003 70000 83362==
41966,2024,03,17,06,00,AAXX 17064 41966 02/50 33602 10340 20060 30056 40133 83030 333 59011 70000 83362==
41966,2024,03,17,09,00,AAXX 17094 41966 02/50 30902 10350 20000 30040 40117 83030 333 58002 70000 83362==
41966,2024,03,17,12,00,AAXX 17124 41966 02/40 30501 10310 20160 30037 40115 83030 333 10355 58000 70000 83362==
41966,2024,03,17,15,00,AAXX 17154 41966 02935 40901 10240 20200 30047 40127 82510 333 58002 70000 82616 83460==
41966,2024,03,17,18,00,AAXX 17184 41966 NIL=
41966,2024,03,17,21,00,AAXX 17214 41966 02435 41201 10230 20220 30051 40132 82510 333 59001 70000 82616 83460==
41966,2024,03,18,00,00,AAXX 18004 41966 02435 40902 10240 20200 30047 40127 82510 333 58002 70000 82616 83460==
41966,2024,03,18,03,00,AAXX 18034 41966 02950 00401 10295 20160 30065 40143 333 20192 59021 70000==
41966,2024,03,18,06,00,AAXX 18064 41966 02950 03501 10345 20150 30052 40129 333 59004 70000==
41966,2024,03,18,09,00,AAXX 18094 41966 02450 50401 10355 20100 30023 40099 82510 333 59018 70000 82616 84460==
41966,2024,03,18,15,00,AAXX 18154 41966 NIL=
41966,2024,03,18,21,00,AAXX 18214 41966 02435 70401 10240 20230 30041 40121 83510 333 59003 70000 83616 86460==
41966,2024,03,19,00,00,AAXX 19004 41966 02440 70901 10230 20220 30044 40124 83510 333 10229 20210 40121 58005 70000 83616 86460 82500 82618==
41966,2024,03,19,03,00,AAXX 19034 41966 02450 50401 10295 20200 30062 40140 82510 333 20220 59003 70000 82616 84460==
41966,2024,03,19,06,00,AAXX 19064 41966 02450 60401 10330 20160 30053 40130 83510 333 58001 70000 83616 85460==
41966,2024,03,19,09,00,AAXX 19094 41966 02450 72601 10288 20240 30030 40108 83510 333 58009 70000 83616 86460==
41966,2024,03,19,12,00,AAXX 19124 41966 02440 72701 10280 20230 30030 40109 83510 333 10335 58011 70000 83616 86460==
41966,2024,03,19,15,00,AAXX 19154 41966 02435 73102 10250 20220 30039 40118 83510 333 58005 70000 83616 86460==
41966,2024,03,19,18,00,AAXX 19184 41966 NIL=
41966,2024,03,19,21,00,AAXX 19214 41966 02435 43101 10225 20210 30044 40124 82510 333 58003 70000 82616 83460==
41966,2024,03,20,00,00,AAXX 20004 41966 02440 40000 10210 20200 30043 40124 82510 333 58000 70000 82616 83460==
41966,2024,03,20,03,00,AAXX 20034 41966 02950 03501 10300 20190 30064 40143 333 20202 58003 70000==
41966,2024,03,20,06,00,AAXX 20064 41966 02950 00401 10330 20120 30052 40130 333 58000 70000==
41966,2024,03,20,09,00,AAXX 20094 41966 02950 02001 10352 20090 30024 40101 333 59007 70000==
41966,2024,03,20,12,00,AAXX 20124 41966 02435 42101 10300 20200 30041 40122 82510 333 10360 58013 70000 82616 83460==
41966,2024,03,20,15,00,AAXX 20154 41966 02435 41501 10265 20230 30045 40124 82510 333 58006 70000 82616 83460==
41966,2024,03,20,18,00,AAXX 20184 41966 NIL=
41966,2024,03,20,21,00,AAXX 20214 41966 01435 70901 10220 20220 30054 40135 70262 83510 333 58011 70010 83616 86460==
41966,2024,03,21,00,00,AAXX 21004 41966 11440 70901 10210 20200 30071 40152 60016 70262 83510 333 58028 70010 83616 86460==
41966,2024,03,21,03,00,AAXX 21034 41966 01440 81301 10212 20200 30105 40186 76162 8352/ 333 20200 58043 70032 83616 88460==
41966,2024,03,21,06,00,AAXX 21064 41966 21450 81501 10211 20200 30087 40168 76166 8352/ 333 58038 60047 70052 83616 88460==
41966,2024,03,21,09,00,AAXX 21094 41966 01450 72401 10215 20170 30057 40137 70162 83510 333 58036 70056 83616 86460==
41966,2024,03,21,12,00,AAXX 21124 41966 11435 72702 10210 20160 30053 40134 69946 70562 83510 333 10220 58012 70056 83616 86460==
41966,2024,03,21,15,00,AAXX 21154 41966 02435 72701 10205 20180 30048 40129 83510 333 58005 70056 83616 86460==
41977,2024,03,15,00,00,AAXX 15004 41977 41440 80000 10246 20230 30095 40134 70522 8452/ 333 59003 84618 88460==
41977,2024,03,15,03,00,AAXX 15034 41977 41440 80000 10256 20230 30128 40167 70522 8462/ 333 20237 58000 82710 84615 88460==
41977,2024,03,15,06,00,AAXX 15064 41977 21450 40902 10298 20190 30126 40164 70162 84520 333 58010 60025 70020 84618 84462==
41977,2024,03,15,09,00,AAXX 15094 41977 01450 22704 10332 20200 30094 40131 70521 82500 333 58003 70020 82618==
41977,2024,03,15,12,00,AAXX 15124 41977 01/50 32702 10288 20210 30093 40131 70521 83030 333 10335 58004 70020 83362==
41977,2024,03,15,15,00,AAXX 15154 41977 01/50 20000 10252 20240 30116 40155 70521 82030 333 58014 70020 82362==
41977,2024,03,15,18,00,AAXX 15184 41977 01950 00000 10245 20240 30121 40160 70521 333 58021 70020==
41977,2024,03,15,21,00,AAXX 15214 41977 01450 50000 10245 20240 30117 40156 70521 83570 333 58029 70020 83616 84460==
41977,2024,03,16,00,00,AAXX 16004 41977 01340 70000 10245 20240 30113 40152 70521 86670 333 58018 70020 82710 84616 85460==
41977,2024,03,16,03,00,AAXX 16034 41977 01450 20000 10279 20230 30137 40175 70521 82500 333 20234 58009 70020 82518==
41977,2024,03,16,06,00,AAXX 16064 41977 01950 00000 10336 20200 30115 40152 70520 333 59011 70000==
41977,2024,03,16,12,00,AAXX 16124 41977 01950 00000 10310 20260 30090 40127 70500 333 10368 59003 70000==
41977,2024,03,16,18,00,AAXX 16184 41977 01950 00000 10258 20200 30112 40150 70500 333 59009 70000==
41977,2024,03,16,21,00,AAXX 16214 41977 01950 00000 10252 20200 30110 40148 70500 333 59007 70000==
41977,2024,03,17,00,00,AAXX 17004 41977 01940 00000 10233 20210 30106 40145 70500 333 59007 70000==
41977,2024,03,17,03,00,AAXX 17034 41977 01945 00000 10300 20200 30121 40158 70500 333 20230 59018 70000==
41977,2024,03,17,06,00,AAXX 17064 41977 01950 00000 10345 20150 30129 40167 70500 333 58014 70000==
41977,2024,03,17,09,00,AAXX 17094 41977 01950 00000 10355 20180 30085 40122 70500 333 58001 70000==
41977,2024,03,17,12,00,AAXX 17124 41977 01940 00000 10305 20200 30084 40122 70500 333 10355 59006 70000==
41977,2024,03,17,15,00,AAXX 17154 41977 01940 01302 10260 20190 30100 40138 70500 333 59006 70000==
41977,2024,03,17,18,00,AAXX 17184 41977 01940 00000 10248 20190 30097 40135 70500 333 59015 70000==
41977,2024,03,17,21,00,AAXX 17214 41977 01940 00000 10240 20180 30089 40127 70500 333 59021 70000==
41977,2024,03,18,00,00,AAXX 18004 41977 01940 00000 10243 20180 30096 40134 70500 333 59010 70000==
41977,2024,03,18,03,00,AAXX 18034 41977 01950 01004 10293 20180 30108 40146 70500 333 20230 59013 70000==
41977,2024,03,18,06,00,AAXX 18064 41977 01950 00000 10350 20180 30104 40142 70500 333 59024 70000==
41977,2024,03,18,09,00,AAXX 18094 41977 01450 42704 10344 20170 30079 40116 70521 82570 333 59006 70000 82618 83362==
41977,2024,03,18,12,00,AAXX 18124 41977 01450 40000 10310 20220 30069 40106 70521 82530 333 10360 59015 70000 82618 84362==
41977,2024,03,18,15,00,AAXX 18154 41977 01450 50000 10271 20220 30087 40125 70521 82530 333 59013 70000 82618 84362==
41977,2024,03,18,18,00,AAXX 18184 41977 01450 20000 10250 20200 30087 40125 70521 82500 333 59010 70000 82618==
41977,2024,03,18,21,00,AAXX 18214 41977 01450 60000 10245 20210 30081 40119 70521 83530 333 59008 70000 83618 85362==
41977,2024,03,19,00,00,AAXX 19004 41977 01450 70000 10244 20200 30084 40122 70521 84520 333 59012 70000 84618 87460==
41977,2024,03,19,03,00,AAXX 19034 41977 01450 50000 10300 20180 30128 40167 70522 84570 333 20238 58020 70000 84618 86460==
41977,2024,03,19,06,00,AAXX 19064 41977 01950 83602 10317 20180 30105 40142 70522 8562/ 333 59001 70000 81710 84617 88458==
41977,2024,03,19,09,00,AAXX 19094 41977 01450 83602 10323 20180 30078 40115 70522 8352/ 333 59001 70000 83617 88458==
41977,2024,03,19,12,00,AAXX 19124 41977 01450 70000 10290 20220 30079 40117 70522 83570 333 10323 58010 70000 83617 86459==
41977,2024,03,19,15,00,AAXX 19154 41977 01450 80000 10275 20220 30108 40146 70522 8352/ 333 58021 70000 83616 88460==
41977,2024,03,19,18,00,AAXX 19184 41977 01350 80000 10262 20190 30109 40147 70522 8562/ 333 58022 70000 81712 84616 88460==
41977,2024,03,19,21,00,AAXX 19214 41977 01450 70000 10250 20190 30102 40140 70522 83570 333 58021 70000 83616 85460==
41977,2024,03,20,00,00,AAXX 20004 41977 01450 70000 10240 20190 30087 40125 70522 84570 333 58003 70000 84616 85460==
41977,2024,03,20,03,00,AAXX 20034 41977 01950 00000 10298 20180 30121 40159 70520 333 20230 59007 70000==
41977,2024,03,20,06,00,AAXX 20064 41977 01950 02304 10322 20150 30107 40144 70520 333 58002 70000==
41977,2024,03,20,09,00,AAXX 20094 41977 01950 02303 10328 20180 30086 40124 70500 333 58008 70000==
41977,2024,03,20,12,00,AAXX 20124 41977 01/50 30000 10294 20200 30091 40129 75010 83030 333 10335 58012 70000 83362==
41977,2024,03,20,15,00,AAXX 20154 41977 01440 71304 10266 20210 30126 40164 70511 84570 333 58018 70000 84617 85460==
41977,2024,03,20,18,00,AAXX 20184 41977 01440 52903 10248 20200 30129 40167 70521 82530 333 58020 70000 82617 85362==
41977,2024,03,20,21,00,AAXX 20214 41977 41440 73103 10232 20200 30125 40164 70552 84570 333 58023 84615 85460==
41977,2024,03,21,00,00,AAXX 21004 41977 11340 83303 10220 20200 30128 40167 60012 76196 8632/ 333 58041 70010 82708 84615 88458 81928==
41977,2024,03,21,03,00,AAXX 21034 41977 01340 81203 10217 20200 30143 40182 76161 8632/ 333 20216 58022 70030 82708 84615 88458 81928==
41977,2024,03,21,06,00,AAXX 21064 41977 21340 81403 10220 20180 30147 40186 76166 8632/ 333 58040 60019 70040 82710 84616 88460 81930==
41977,2024,03,21,09,00,AAXX 21094 41977 41440 80000 10229 20180 30099 40138 58013 70046 88460==
41977,2024,03,21,12,00,AAXX 21124 41977 21440 80000 10226 20170 30100 40139 70562 8432/ 333 10235 58009 69968 70046 84616 88460 81930==
41977,2024,03,21,15,00,AAXX 21154 41977 01440 80000 10200 20180 30117 40156 70521 8432/ 333 59009 70046 84616 88460 81930==
41977,2024,03,21,18,00,AAXX 21184 41977 01440 72602 10203 20160 30105 40144 70521 84570 333 59024 70046 84616 87460==
41977,2024,03,21,21,00,AAXX 21214 41977 01440 70000 10200 20170 30102 40141 70521 84570 333 59023 70046 84616 87460==
41978,2024,03,15,00,00,AAXX 15004 41978 01431 60000 10242 20230 30114 40120 70521 83520 333 59010 70024 83617 85460==
41978,2024,03,15,03,00,AAXX 15034 41978 01432 61104 10263 20240 30145 40151 70522 83520 333 20228 58001 70024 83617 85460==
41978,2024,03,15,06,00,AAXX 15064 41978 01450 60708 10289 20200 30139 40146 70522 83520 333 58008 70024 83617 85460==
41978,2024,03,15,09,00,AAXX 15094 41978 01456 52908 10311 20210 30111 40117 70522 82530 333 58001 70014 82617 84360==
41978,2024,03,15,12,00,AAXX 15124 41978 01450 42806 10291 20210 30109 40115 70522 82530 333 10328 58003 70000 82618 83360==
41978,2024,03,15,15,00,AAXX 15154 41978 31450 23102 10268 20250 30129 40136 70521 82500 333 56900 58006 70000 82618=
41978,2024,03,15,18,00,AAXX 15184 41978 01440 20000 10255 20250 30133 40140 70521 82500 333 58013 70000 82618==
41978,2024,03,15,21,00,AAXX 15214 41978 01431 20303 10250 20230 30131 40137 70511 82500 333 58027 70000 82618==
41978,2024,03,16,00,00,AAXX 16004 41978 01431 63505 10247 20240 30134 40141 70511 83520 333 58020 70000 83616 85460==
41978,2024,03,16,03,00,AAXX 16034 41978 01422 60706 10256 20240 30153 40160 71011 83520 333 20237 58008 70000 83616 85460==
41978,2024,03,16,06,00,AAXX 16064 41978 01450 60807 10321 20180 30136 40143 70511 83520 333 59003 70000 83618 85460==
41978,2024,03,16,09,00,AAXX 16094 41978 01950 33107 10324 20190 30102 40106 70510 80001 333 59010 70000 83080==
41978,2024,03,16,12,00,AAXX 16124 41978 01/50 22909 10298 20240 30109 40115 70510 82030 333 10367 58000 70000 82365==
41978,2024,03,16,15,00,AAXX 16154 41978 01950 03508 10290 20240 30127 40133 70500 333 59002 70000==
41978,2024,03,16,18,00,AAXX 16184 41978 01940 00604 10258 20210 30129 40135 70500 333 59004 70000==
41978,2024,03,16,21,00,AAXX 16214 41978 01940 00404 10250 20210 30121 40128 70500 333 59010 70000==
41978,2024,03,17,00,00,AAXX 17004 41978 01935 00303 10241 20210 30122 40128 70500 333 59012 70000==
41978,2024,03,17,03,00,AAXX 17034 41978 01/45 30305 10285 20210 30145 40151 70510 83030 333 20230 59008 70000 83362==
41978,2024,03,17,06,00,AAXX 17064 41978 01/50 33207 10333 20210 30132 40139 70510 83020 333 59004 70000 83460==
41978,2024,03,17,09,00,AAXX 17094 41978 01/45 30305 10285 20210 30145 40151 70511 83030 333 20234 59008 70000 83362==
41978,2024,03,17,12,00,AAXX 17124 41978 01/57 33108 10320 20180 30102 40108 70500 83039 333 10348 59007 70000 83365==
41978,2024,03,17,15,00,AAXX 17154 41978 01956 03303 10290 20200 30118 40124 70511 333 59009 70000==
41978,2024,03,17,18,00,AAXX 17184 41978 01940 00000 10261 20210 30112 40118 70510 333 59017 70000==
41978,2024,03,17,21,00,AAXX 17214 41978 01940 00000 10246 20220 30108 40114 70500 333 59013 70000==
41978,2024,03,18,00,00,AAXX 18004 41978 01935 00904 10230 20200 30114 40120 70500 333 59008 70000==
41978,2024,03,18,03,00,AAXX 18034 41978 01940 00607 10280 20200 30127 40134 70500 333 20224 59018 70000==
41978,2024,03,18,06,00,AAXX 18064 41978 01940 02810 10331 20200 30120 40126 70500 333 59012 70000==
41978,2024,03,18,09,00,AAXX 18094 41978 01/57 43013 10342 20170 30091 40098 70500 82032 333 59016 70000 82365 83080==
41978,2024,03,18,12,00,AAXX 18124 41978 01/56 33012 10312 20210 30088 40094 70510 83030 333 10349 59014 70000 83365==
41978,2024,03,18,15,00,AAXX 18154 41978 01/50 33205 10298 20220 30104 40110 70511 83020 333 59014 70000 83460==
41978,2024,03,18,18,00,AAXX 18184 41978 01/45 33203 10274 20230 30107 40114 70511 83020 333 59005 70000 83460==
41978,2024,03,18,21,00,AAXX 18214 41978 01445 53103 10264 20220 30099 40106 70521 82520 333 59009 70000 82618 84460==
41978,2024,03,19,00,00,AAXX 19004 41978 01435 63602 10252 20200 30104 40110 70521 83520 333 59010 70000 83618 85460==
41978,2024,03,19,03,00,AAXX 19034 41978 01435 62807 10282 20190 30126 40133 70522 83520 333 20249 59001 70000 83618 85460==
41978,2024,03,19,06,00,AAXX 19064 41978 01940 62810 10294 20200 30122 40129 70522 83520 333 58002 70000 83618 85460==
41978,2024,03,19,09,00,AAXX 19094 41978 01450 60605 10321 20160 30095 40101 70522 83520 333 58004 70000 83617 85460==
41978,2024,03,19,12,00,AAXX 19124 41978 01440 60000 10298 20230 30096 40102 70522 83530 333 10332 58008 70000 83617 85362==
41978,2024,03,19,15,00,AAXX 19154 41978 01440 63407 10292 20220 30121 40127 70522 83530 333 58017 70000 83617 85362==
41978,2024,03,19,18,00,AAXX 19184 41978 01940 53505 10272 20220 30119 40125 70522 82530 333 58012 70000 82617 84362==
41978,2024,03,19,21,00,AAXX 19214 41978 01/40 43505 10257 20210 30099 40105 70522 84030 333 58000 70000 84362==
41978,2024,03,20,00,00,AAXX 20004 41978 01/31 30505 10241 20200 30107 40113 70522 83030 333 58003 70000 83362==
41978,2024,03,20,03,00,AAXX 20034 41978 01/35 23205 10280 20190 30130 40137 70510 82030 333 20236 58003 70000 82362==
41978,2024,03,20,06,00,AAXX 20064 41978 01/50 22810 10313 20160 30122 40129 70511 82030 333 58002 70000 82362==
41978,2024,03,20,09,00,AAXX 20094 41978 01956 02808 10322 20180 30101 40108 70500 333 58006 70000==
41978,2024,03,20,12,00,AAXX 20124 41978 01950 22912 10290 20240 30107 40114 70500 80001 333 10326 58011 70000 82080==
41978,2024,03,20,15,00,AAXX 20154 41978 01440 53214 10271 20210 30143 40150 70511 82530 333 58022 70000 82617 84362==
41978,2024,03,20,18,00,AAXX 20184 41978 01440 53312 10251 20200 30143 40149 70521 82530 333 58024 70000 82617 84362==
41978,2024,03,20,21,00,AAXX 20214 41978 01440 73508 10241 20210 30132 40138 76222 84320 333 58033 70010 83617 86460 81928==
41978,2024,03,21,00,00,AAXX 21004 41978 21435 70205 10226 20210 30136 40143 70562 84320 333 58029 60015 70010 83617 87460 81928==
41978,2024,03,21,03,00,AAXX 21034 41978 01331 71010 10220 20210 30167 40174 76111 84370 333 20217 58037 70030 83710 86460 81928==
41978,2024,03,21,06,00,AAXX 21064 41978 21435 71012 10216 20200 30142 40149 70561 84370 333 58020 60037 70040 83714 86460 81928==
41978,2024,03,21,09,00,AAXX 21094 41978 02458 71504 10228 20190 30120 40127 84370 333 58019 70040 83615 85460 81928==
41978,2024,03,21,12,00,AAXX 21124 41978 02458 71103 10220 20180 30115 40121 83570 333 10236 58008 70040 83618 85460==
41978,2024,03,21,15,00,AAXX 21154 41978 01/56 40000 10200 20170 30134 40140 70522 84020 333 59009 70040 84460==
41978,2024,03,21,18,00,AAXX 21184 41978 01/45 40705 10197 20180 30122 40128 70522 84020 333 59021 70040 84460==
41978,2024,03,21,21,00,AAXX 21214 41978 01/40 40705 10190 20170 30106 40112 70522 84020 333 59026 70030 84460==
41980,2024,03,15,00,00,AAXX 15004 41980 31950 00000 10232 20210 30011 40125 333 58004 70000=
41980,2024,03,15,06,00,AAXX 15064 41980 NIL=
41980,2024,03,15,12,00,AAXX 15124 41980 31950 00000 10290 20150 30005 40117 333 20332 58000 70000=
41980,2024,03,15,18,00,AAXX 15184 41980 NIL=
41980,2024,03,16,00,00,AAXX 16004 41980 31950 00000 10201 20180 30028 40144 70500 333 58017 70000=
41980,2024,03,16,12,00,AAXX 16124 41980 31950 00000 10300 20160 30013 40124 333 10357 58008 70000=
41980,2024,03,17,00,00,AAXX 17004 41980 31950 03602 10250 20170 30021 40135 70500 333 59007 70000=
41980,2024,03,17,06,00,AAXX 17064 41980 NIL=
41980,2024,03,17,12,00,AAXX 17124 41980 32450 60000 10295 20150 30003 40114 333 10354 59010 70000 83617 84458=
41980,2024,03,17,18,00,AAXX 17184 41980 NIL=
41980,2024,03,18,00,00,AAXX 18004 41980 32950 03203 10243 20150 30007 40121 333 59017 70000=
41980,2024,03,18,06,00,AAXX 18064 41980 NIL=
41980,2024,03,18,12,00,AAXX 18124 41980 32950 03203 10312 20140 39987 40098 333 59016 70000=
41980,2024,03,18,15,00,AAXX 18154 41980 NIL=
41980,2024,03,19,00,00,AAXX 19004 41980 32950 53203 10244 20150 39998 40122 70500 82510 333 56990 70000 82618 83458=
41980,2024,03,19,06,00,AAXX 19064 41980 NIL=
41980,2024,03,19,12,00,AAXX 19124 41980 32450 50000 10280 20160 39997 40109 83510 333 20335 56990 58010 70000 82618 83458=
41980,2024,03,19,18,00,AAXX 19184 41980 NIL=
41980,2024,03,20,00,00,AAXX 20004 41980 32950 03203 10236 20160 30002 40116 70510 333 58004 70000=
41980,2024,03,20,06,00,AAXX 20064 41980 NIL=
41980,2024,03,20,12,00,AAXX 20124 41980 32950 00000 10285 20210 30010 40122 333 10345 58013 70000=
41980,2024,03,20,18,00,AAXX 20184 41980 NIL=
41980,2024,03,21,00,00,AAXX 21004 41980 32950 00000 10214 20170 30036 40151 70500 333 58034 70000=
41980,2024,03,21,06,00,AAXX 21064 41980 NIL=
41980,2024,03,21,12,00,AAXX 21124 41980 32440 60000 10195 20180 30019 40134 83510 333 10210 56990 58009 70080 83617 84458=
41984,2024,03,15,00,00,AAXX 15004 41984 01440 80000 10250 20250 30093 40095 70522 8352/ 333 59010 70000 83618 88458==
41984,2024,03,15,03,00,AAXX 15034 41984 01456 80000 10294 20260 30125 40127 70522 8352/ 333 20244 58002 70000 83618 88458==
41984,2024,03,15,06,00,AAXX 15064 41984 02457 80000 10338 20260 30115 40118 8352/ 333 58003 70000 83618 88458==
41984,2024,03,15,09,00,AAXX 15094 41984 02457 61802 10333 20260 30103 40105 83510 333 58014 70000 83618 85458==
41984,2024,03,15,12,00,AAXX 15124 41984 01456 51801 10240 20240 30104 40106 72162 83510 333 10340 58015 70210 83618 85458==
41984,2024,03,15,15,00,AAXX 15154 41984 01440 50000 10254 20250 30122 40124 70522 8352/ 333 58017 70210 83616 85458==
41984,2024,03,15,18,00,AAXX 15184 41984 01430 50000 10250 20250 30123 40125 71022 83510 333 58016 70210 83618 85458==
41984,2024,03,15,21,00,AAXX 15214 41984 01430 50000 10250 20250 30119 40121 71022 83510 333 58017 70210 83618 85458==
41984,2024,03,16,00,00,AAXX 16004 41984 41405 50000 10249 20249 30115 40117 74044 83510 333 58022 83618 85458==
41984,2024,03,16,03,00,AAXX 16034 41984 01456 50000 10256 20250 30140 40142 70544 83510 333 20230 58015 70210 83618 85458==
41984,2024,03,16,06,00,AAXX 16064 41984 02457 50000 10310 20250 30132 40134 83510 333 58017 70210 83618 85458==
41984,2024,03,16,09,00,AAXX 16094 41984 02457 50000 10336 20260 30102 40104 83510 333 59001 70000 83618 85458==
41984,2024,03,16,12,00,AAXX 16124 41984 02456 50000 10310 20250 30105 40107 83510 333 10341 58001 70000 83618 85458==
41984,2024,03,16,15,00,AAXX 16154 41984 01440 50000 10250 20250 30121 40123 70522 83510 333 59001 70000 83618 85458==
41984,2024,03,16,18,00,AAXX 16184 41984 01440 50000 10249 20249 30125 40127 70522 83510 333 58002 70000 83618 85458==
41984,2024,03,16,21,00,AAXX 16214 41984 01440 50000 10238 20238 30112 40114 70522 83510 333 59007 70000 83618 85458==
41984,2024,03,17,00,00,AAXX 17004 41984 01440 50000 10230 20230 30101 40103 70522 83510 333 59014 70000 83618 85458==
41984,2024,03,17,03,00,AAXX 17034 41984 02457 30000 10290 20250 30136 40138 83500 333 20222 59004 70000 83618==
41984,2024,03,17,06,00,AAXX 17064 41984 NIL=
41984,2024,03,17,09,00,AAXX 17094 41984 02457 30000 10340 20220 30103 40105 83500 333 58001 70000 83618==
41984,2024,03,17,12,00,AAXX 17124 41984 02456 30000 10300 20240 30100 40102 83500 333 10346 59005 70000 83618==
41984,2024,03,17,15,00,AAXX 17154 41984 01440 30000 10252 20240 30109 40112 70500 83500 333 59012 70000 83618==
41984,2024,03,17,18,00,AAXX 17184 41984 01440 30000 10236 20230 30113 40115 70500 83500 333 59012 70000 83618==
41984,2024,03,17,21,00,AAXX 17214 41984 01440 30000 10230 20220 30103 40105 70500 83500 333 59009 70000 83618==
41984,2024,03,18,00,00,AAXX 18004 41984 01440 30000 10224 20220 30097 40099 70500 83500 333 59004 70000 83618==
41984,2024,03,18,03,00,AAXX 18034 41984 01456 30000 10292 20220 30124 40126 70500 83500 333 20215 59012 70000 83618==
41984,2024,03,18,06,00,AAXX 18064 41984 02457 60000 10320 20230 30120 40122 83510 333 59010 70000 83618 85458==
41984,2024,03,18,09,00,AAXX 18094 41984 02457 60000 10328 20230 30098 40100 83510 333 59005 70000 83618 85458==
41984,2024,03,18,12,00,AAXX 18124 41984 02456 60000 10307 20240 30089 40091 83510 333 10334 59011 70000 83618 85458==
41984,2024,03,18,15,00,AAXX 18154 41984 01440 60000 10253 20240 30104 40106 70500 83510 333 59005 70000 83618 85458==
41984,2024,03,18,18,00,AAXX 18184 41984 01440 60000 10253 20240 30113 40115 70522 83510 333 58000 70000 83618 85458==
41984,2024,03,18,21,00,AAXX 18214 41984 01440 60000 10250 20240 30102 40104 70522 83510 333 59001 70000 83618 85458==
41984,2024,03,19,00,00,AAXX 19004 41984 01440 60000 10244 20240 30093 40095 70522 83510 333 59004 70000 83618 85458==
41984,2024,03,19,03,00,AAXX 19034 41984 01456 80000 10280 20240 30123 40125 70522 8352/ 333 20239 59001 70000 83618 85458==
41984,2024,03,19,06,00,AAXX 19064 41984 02457 80000 10300 20240 30120 40122 8352/ 333 58000 70000 83618 88458==
41984,2024,03,19,09,00,AAXX 19094 41984 02457 80000 10314 20230 30095 40098 8352/ 333 59003 70000 83618 88458==
41984,2024,03,19,12,00,AAXX 19124 41984 02456 80000 10290 20250 30091 40093 8352/ 333 10320 58002 70000 83618 88458==
41984,2024,03,19,15,00,AAXX 19154 41984 02440 80000 10248 20210 30113 40115 8352/ 333 58009 70000 83618 88458==
41984,2024,03,19,18,00,AAXX 19184 41984 02440 80000 10239 20220 30124 40126 8352/ 333 58011 70000 83618 88458==
41984,2024,03,19,21,00,AAXX 19214 41984 01440 80000 10236 20230 30111 40113 70522 8352/ 333 58009 70000 83618 88458==
41984,2024,03,20,00,00,AAXX 20004 41984 01440 80000 10234 20220 30101 40103 70522 8352/ 333 58008 70000 83618 88458==
41984,2024,03,20,03,00,AAXX 20034 41984 02450 80000 10258 20220 30126 40128 8352/ 333 20225 58003 70000 83618 88458==
41984,2024,03,20,06,00,AAXX 20064 41984 02456 60000 10296 20230 30125 40127 83510 333 58005 70000 83618 85458==
41984,2024,03,20,09,00,AAXX 20094 41984 02457 83603 10306 20230 30112 40114 8352/ 333 58017 70000 83618 88458==
41984,2024,03,20,12,00,AAXX 20124 41984 02456 63604 10260 20220 30111 40113 83510 333 10322 58020 70000 83618 85458==
41984,2024,03,20,15,00,AAXX 20154 41984 02440 63601 10229 20210 30144 40146 83510 333 58031 70000 83618 85458==
41984,2024,03,20,18,00,AAXX 20184 41984 01440 60000 10222 20210 30145 40147 70522 83510 333 58021 70000 83618 85458==
41984,2024,03,20,21,00,AAXX 20214 41984 01440 80000 10217 20210 30132 40134 70522 8352/ 333 58021 70000 83618 88458==
41984,2024,03,21,00,00,AAXX 21004 41984 01340 80000 10210 20200 30118 40120 72122 8562/ 333 58017 70010 82709 84616 88457==
41984,2024,03,21,03,00,AAXX 21034 41984 02450 80000 10255 20210 30136 40138 8352/ 333 20206 58010 70006 83618 88458==
41984,2024,03,21,06,00,AAXX 21064 41984 02456 80000 10266 20210 30137 40139 8352/ 333 58012 70006 83618 88458==
41984,2024,03,21,09,00,AAXX 21094 41984 02457 81804 10270 20220 30106 40108 8352/ 333 59006 70006 83618 88458==
41984,2024,03,21,12,00,AAXX 21124 41984 02456 81803 10250 20220 30096 40098 8352/ 333 10282 59015 70006 83618 88458==
41984,2024,03,21,15,00,AAXX 21154 41984 02440 81802 10210 20190 30117 40119 8352/ 333 59027 70006 83618 88458==
41984,2024,03,21,18,00,AAXX 21184 41984 01440 80000 10198 20198 30118 40120 70522 8352/ 333 59027 70006 83618 88458==
41989,2024,03,15,00,00,AAXX 15004 41989 NIL=
41989,2024,03,15,03,00,AAXX 15034 41989 01440 63202 10285 20240 30136 40139 70521 83530 333 20207 58001 70000 83618 83362==
41989,2024,03,15,06,00,AAXX 15064 41989 02450 63202 10306 20210 30136 40139 83530 333 59008 70000 83618 83362==
41989,2024,03,15,09,00,AAXX 15094 41989 02450 33202 10310 20230 30114 40118 83500 333 58006 70000 83618==
41989,2024,03,15,12,00,AAXX 15124 41989 02450 33203 10283 20230 30111 40114 83500 333 10320 58014 70000 83618==
41989,2024,03,15,15,00,AAXX 15154 41989 01430 20000 10257 20240 30123 40126 70511 82500 333 59007 70000 82618==
41989,2024,03,15,18,00,AAXX 15184 41989 NIL=
41989,2024,03,15,21,00,AAXX 15214 41989 01430 30000 10234 20210 30129 40132 70511 83500 333 59004 70000 83618==
41989,2024,03,16,00,00,AAXX 16004 41989 01430 50000 10245 20240 30123 40126 70521 82530 333 58001 70000 82618 84362==
41989,2024,03,16,03,00,AAXX 16034 41989 01440 23202 10286 20240 30133 40136 70521 82500 333 20232 59003 70000 82618==
41989,2024,03,16,09,00,AAXX 16094 41989 02450 31803 10323 20240 30104 40107 82530 333 59010 70000 82618==
41989,2024,03,16,12,00,AAXX 16124 41989 02450 21702 10281 20210 30096 40099 82500 333 10336 59015 70000 82618==
41989,2024,03,16,15,00,AAXX 16154 41989 02450 31803 10260 20230 30118 40121 83500 333 59005 70000 83618==
41989,2024,03,17,00,00,AAXX 17004 41989 01430 31802 10246 20220 30110 40113 70521 83500 333 59013 70000 83618==
41989,2024,03,17,03,00,AAXX 17034 41989 02450 23202 10298 20210 30135 40138 82500 333 20230 58002 70000 82618==
41989,2024,03,17,06,00,AAXX 17064 41989 02450 13103 10320 20220 30136 40139 81500 333 59010 70000 81618==
41989,2024,03,17,09,00,AAXX 17094 41989 02450 23202 10310 20140 30114 40118 82500 333 58010 70000 82618==
41989,2024,03,17,12,00,AAXX 17124 41989 02450 23202 10280 20230 30109 40112 82500 333 10340 58013 70000 82618==
41989,2024,03,17,15,00,AAXX 17154 41989 01440 31802 10265 20240 30112 40115 70521 82530 333 59006 70000 82618==
41989,2024,03,17,18,00,AAXX 17184 41989 NIL=
41989,2024,03,17,21,00,AAXX 17214 41989 01440 20000 10240 20220 30117 40120 70511 82500 333 58006 70000 82618==
41989,2024,03,18,00,00,AAXX 18004 41989 01440 10000 10226 20200 30113 40116 70511 81500 333 58003 70000 81618==
41989,2024,03,18,03,00,AAXX 18034 41989 02450 23203 10295 20240 30116 40119 82500 333 20225 59019 70000 82618==
41989,2024,03,18,06,00,AAXX 18064 41989 02450 23202 10320 20200 30121 40125 82500 333 59015 70000 82618==
41989,2024,03,18,09,00,AAXX 18094 41989 02456 21803 10317 20210 30100 40103 82500 333 59014 70000 82618==
41989,2024,03,18,12,00,AAXX 18124 41989 02450 31702 10283 20210 30093 40096 83500 333 10341 59016 70000 83618==
41989,2024,03,18,15,00,AAXX 18154 41989 02450 31803 10270 20240 30117 40120 83500 333 58005 70000 83618==
41989,2024,03,18,18,00,AAXX 18184 41989 02440 23202 10260 20240 30126 40129 82500 333 58005 70000 82618==
41989,2024,03,18,21,00,AAXX 18214 41989 02440 23202 10240 20220 30119 40122 82500 333 58002 70000 82618==
41989,2024,03,19,00,00,AAXX 19004 41989 31430 21802 10229 20210 30118 40121 70521 82500 333 56900 58005 70000 82618=
41989,2024,03,19,03,00,AAXX 19034 41989 02440 51802 10290 20270 30135 40138 82530 333 20212 58019 70000 82618 83362==
41989,2024,03,19,06,00,AAXX 19064 41989 02450 61704 10291 20230 30129 40132 82570 333 58008 70000 82618 84460==
41989,2024,03,19,09,00,AAXX 19094 41989 02450 61802 10300 20240 30101 40104 83570 333 58002 70000 83618 84362==
41989,2024,03,19,12,00,AAXX 19124 41989 02450 53202 10280 20230 30095 40098 83500 333 10320 58002 70000 83618 84362==
41989,2024,03,19,15,00,AAXX 19154 41989 01440 40000 10263 20240 30116 40119 70521 82530 333 59001 70000 82618 84362==
41989,2024,03,19,18,00,AAXX 19184 41989 NIL=
41989,2024,03,19,21,00,AAXX 19214 41989 01440 50000 10240 20220 30119 40122 70521 82570 333 58000 70000 82618 83362==
41989,2024,03,20,00,00,AAXX 20004 41989 01440 20000 10222 20200 30107 40110 70521 82500 333 59011 70000 82618==
41989,2024,03,20,03,00,AAXX 20034 41989 02450 23202 10300 20220 30135 40138 82500 333 20218 58000 70000 82618==
41989,2024,03,20,06,00,AAXX 20064 41989 02950 03202 10305 20210 30115 40119 333 59013 70000==
41989,2024,03,20,09,00,AAXX 20094 41989 02950 03104 10312 20230 30100 40203 333 59001 70000==
41989,2024,03,20,12,00,AAXX 20124 41989 02450 23102 10284 20230 30093 40096 82500 333 10320 59002 70000 82618==
41989,2024,03,20,18,00,AAXX 20184 41989 NIL=
41989,2024,03,20,21,00,AAXX 20214 41989 02440 33207 10250 20220 30130 40133 82530 333 58015 70000 82618 83362==
41989,2024,03,21,00,00,AAXX 21004 41989 01430 63206 10218 20180 30116 40120 70562 83570 333 58009 70010 83618 84460==
41989,2024,03,21,03,00,AAXX 21034 41989 01330 83205 10214 20200 30172 40175 76162 8572/ 333 20214 58037 70060 81708 84614 88458==
41989,2024,03,21,06,00,AAXX 21064 41989 21430 73107 10208 20200 30143 40147 70162 83570 333 58028 60089 70080 83618 85460==
41989,2024,03,21,09,00,AAXX 21094 41989 01440 61804 10215 20180 30124 40128 70262 84470 333 58024 70090 83618 84460==
41989,2024,03,21,12,00,AAXX 21124 41989 11440 73202 10205 20180 30121 40124 60016 70262 83570 333 10223 58028 70090 83618 84460==
41989,2024,03,21,15,00,AAXX 21154 41989 02440 31802 10193 20170 30127 40130 82530 333 58011 70090 82618 83362==
41989,2024,03,21,21,00,AAXX 21214 41989 01440 41302 10185 20170 30134 40137 70521 82530 333 58004 70090 82618 84362==
41992,2024,03,15,00,00,AAXX 15004 41992 01/20 40902 10242 20220 30114 40116 70510 84030 333 59017 70000 84362==
41992,2024,03,15,03,00,AAXX 15034 41992 01425 30000 10290 20230 30147 40149 70511 83500 333 20234 59002 70000 83616==
41992,2024,03,15,06,00,AAXX 15064 41992 01430 42403 10312 20230 30139 40141 70511 84500 333 58000 70000 84616==
41992,2024,03,15,09,00,AAXX 15094 41992 01935 02104 10300 20230 30117 40119 70500 333 58005 70000==
41992,2024,03,15,12,00,AAXX 15124 41992 01930 00000 10270 20240 30116 40118 70500 333 10315 58012 70000==
41992,2024,03,15,15,00,AAXX 15154 41992 31925 02102 10260 20240 30136 40138 70500 333 58008 70000=
41992,2024,03,15,18,00,AAXX 15184 41992 01425 70302 10256 20240 30137 40139 70510 84530 333 58009 70000 84616 87362==
41992,2024,03,15,21,00,AAXX 15214 41992 01/20 43102 10253 20230 30122 40124 70510 84030 333 58016 70000 84362==
41992,2024,03,16,00,00,AAXX 16004 41992 01/20 43304 10250 20230 30133 40135 70511 84030 333 58019 70000 84362==
41992,2024,03,16,03,00,AAXX 16034 41992 01/25 23603 10278 20230 30157 40159 70511 82030 333 20243 58010 70000 82362==
41992,2024,03,16,06,00,AAXX 16064 41992 01/35 33304 10350 20130 30137 40139 70511 83030 333 59002 70000 83362==
41992,2024,03,16,09,00,AAXX 16094 41992 01/35 23004 10360 20040 30107 40109 70511 82030 333 59010 70000 82362==
41992,2024,03,16,12,00,AAXX 16124 41992 01930 33604 10270 20240 30118 40120 70511 80001 333 10371 70000 83080==
41992,2024,03,16,15,00,AAXX 16154 41992 01925 03602 10262 20240 30133 40135 70500 333 59003 70000==
41992,2024,03,16,18,00,AAXX 16184 41992 01925 03602 10255 20240 30134 40136 70500 333 59003 70000==
41992,2024,03,16,21,00,AAXX 16214 41992 01920 03305 10253 20230 30120 40122 70500 333 59002 70000==
41992,2024,03,17,00,00,AAXX 17004 41992 01920 03305 10250 20230 30134 40136 70500 333 58001 70000==
41992,2024,03,17,03,00,AAXX 17034 41992 01930 00309 10290 20200 30147 40149 70500 333 20240 59010 70000==
41992,2024,03,17,06,00,AAXX 17064 41992 01935 03609 10344 20150 30133 40135 70500 333 59004 70000==
41992,2024,03,17,09,00,AAXX 17094 41992 01935 03310 10340 20180 30110 40112 70500 333 58003 70000==
41992,2024,03,17,12,00,AAXX 17124 41992 01930 03305 10300 20210 30108 40110 70500 333 10366 59010 70000==
41992,2024,03,17,15,00,AAXX 17154 41992 01925 03304 10275 20230 30121 40123 70500 333 59012 70000==
41992,2024,03,17,18,00,AAXX 17184 41992 01925 03003 10258 20230 30118 40120 70500 333 59016 70000==
41992,2024,03,17,21,00,AAXX 17214 41992 01925 00302 10253 20210 30101 40103 70500 333 59019 70000==
41992,2024,03,18,00,00,AAXX 18004 41992 01925 00303 10245 20220 30113 40115 70500 333 59021 70000==
41992,2024,03,18,03,00,AAXX 18034 41992 01935 03303 10300 20170 30127 40129 70500 333 20237 59020 70000==
41992,2024,03,18,06,00,AAXX 18064 41992 01935 03005 10342 20210 30121 40123 70500 333 59012 70000==
41992,2024,03,18,09,00,AAXX 18094 41992 01935 00304 10345 20170 30099 40101 70500 333 59011 70000==
41992,2024,03,18,12,00,AAXX 18124 41992 01930 00000 10290 20200 30094 40096 70500 333 10354 59014 70000==
41992,2024,03,18,15,00,AAXX 18154 41992 01925 00302 10280 20220 30108 40110 70500 333 59013 70000==
41992,2024,03,18,18,00,AAXX 18184 41992 01/25 30302 10270 20240 30110 40112 70510 83030 333 59008 70000 83362==
41992,2024,03,18,21,00,AAXX 18214 41992 01925 00302 10265 20240 30091 40093 70500 333 59010 70000==
41992,2024,03,19,00,00,AAXX 19004 41992 01925 00302 10255 20240 30106 40108 70500 333 59007 70000==
41992,2024,03,19,03,00,AAXX 19034 41992 01430 30000 10290 20180 30131 40133 70510 83500 333 20253 58004 70000 83616==
41992,2024,03,19,06,00,AAXX 19064 41992 01430 50000 10323 20190 30123 40125 70521 83530 333 58002 70000 83616 85362==
41992,2024,03,19,09,00,AAXX 19094 41992 01435 73303 10320 20190 30100 40102 70522 83530 333 58001 70000 83616 87362==
41992,2024,03,19,12,00,AAXX 19124 41992 01430 60000 10300 20190 30098 40100 70522 83530 333 10332 58004 70000 83616 86362==
41992,2024,03,19,15,00,AAXX 19154 41992 01/20 43303 10275 20220 30120 40122 70521 84030 333 58012 70000 84362==
41992,2024,03,19,18,00,AAXX 19184 41992 01925 03304 10265 20240 30124 40126 70510 333 58014 70000==
41992,2024,03,19,21,00,AAXX 19214 41992 01925 03303 10250 20220 30100 40102 70500 333 58009 70000==
41992,2024,03,20,00,00,AAXX 20004 41992 01920 03302 10240 20220 30114 40116 70500 333 58008 70000==
41992,2024,03,20,03,00,AAXX 20034 41992 01935 00000 10306 20190 30135 40137 70500 333 20233 58004 70000==
41992,2024,03,20,06,00,AAXX 20064 41992 01935 03604 10320 20180 30129 40131 70500 333 58006 70000==
41992,2024,03,20,09,00,AAXX 20094 41992 01935 03303 10316 20210 30108 40110 70500 333 58008 70000==
41992,2024,03,20,12,00,AAXX 20124 41992 01930 00000 10280 20220 30117 40119 70500 333 10336 58019 70000==
41992,2024,03,20,15,00,AAXX 20154 41992 01/25 43305 10270 20240 30144 40146 70510 84030 333 58024 70000 84362==
41992,2024,03,20,18,00,AAXX 20184 41992 01/25 43306 10252 20200 30144 40146 70510 84030 333 58020 70000 84362==
41992,2024,03,20,21,00,AAXX 20214 41992 01425 63602 10240 20210 30136 40138 79521 84920 333 58036 70020 83615 86460 81925==
41992,2024,03,21,00,00,AAXX 21004 41992 01420 60305 10230 20210 30144 40146 70596 84520 333 58030 70020 84615 86460==
41992,2024,03,21,03,00,AAXX 21034 41992 01420 80000 10222 20200 30185 40187 76166 8532/ 333 20218 58050 70080 85614 88458 81925==
41992,2024,03,21,06,00,AAXX 21064 41992 21420 80906 10207 20190 30159 40161 76166 8532/ 333 58030 60109 70120 85614 88458 81925==
41992,2024,03,21,09,00,AAXX 21094 41992 01420 81507 10204 20180 30109 40111 76166 8532/ 333 58001 70140 85614 88458 81925==
41992,2024,03,21,12,00,AAXX 21124 41992 01425 80000 10210 20160 30119 40121 70562 8432/ 333 10233 58002 70150 83616 88458 81925==
41992,2024,03,21,15,00,AAXX 21154 41992 01925 00305 10195 20160 30133 40135 70500 333 59011 70150==
41992,2024,03,21,18,00,AAXX 21184 41992 01925 00000 10185 20170 30135 40137 70500 333 59009 70150==
41992,2024,03,21,21,00,AAXX 21214 41992 01925 00602 10185 20170 30101 40103 70500 333 59035 70130==
41998,2024,03,15,00,00,AAXX 15004 41998 NIL=
41998,2024,03,15,03,00,AAXX 15034 41998 02956 00000 10280 20230 30107 40113 333 20205 58018 70000==
41998,2024,03,15,06,00,AAXX 15064 41998 NIL=
41998,2024,03,15,09,00,AAXX 15094 41998 02956 02704 10298 20230 30086 40092 333 59007 70000==
41998,2024,03,15,12,00,AAXX 15124 41998 02956 00000 10279 20240 30095 40101 333 10313 59005 70000==
41998,2024,03,15,18,00,AAXX 15184 41998 NIL=
41998,2024,03,16,03,00,AAXX 16034 41998 02956 00000 10278 20240 30127 40133 333 20206 58020 70000==
41998,2024,03,16,09,00,AAXX 16094 41998 02956 02803 10309 20250 30096 40102 333 58010 70000==
41998,2024,03,16,12,00,AAXX 16124 41998 02956 00000 10277 20250 30102 40108 333 10330 58007 70000==
41998,2024,03,17,03,00,AAXX 17034 41998 02956 00000 10280 20220 30123 40129 333 20208 59004 70000==
41998,2024,03,17,06,00,AAXX 17064 41998 NIL=
41998,2024,03,17,09,00,AAXX 17094 41998 02956 02705 10312 20240 30101 40107 333 58005 70000==
41998,2024,03,17,12,00,AAXX 17124 41998 02956 00000 10282 20250 30108 40114 333 10338 58006 70000==
41998,2024,03,17,18,00,AAXX 17184 41998 NIL=
41998,2024,03,18,03,00,AAXX 18034 41998 02956 00000 10282 20220 30113 40119 333 20206 59010 70000==
41998,2024,03,18,06,00,AAXX 18064 41998 NIL=
41998,2024,03,18,09,00,AAXX 18094 41998 02956 02804 10311 20240 30092 40098 333 59009 70000==
41998,2024,03,18,12,00,AAXX 18124 41998 02956 00000 10283 20250 30093 40099 333 10335 59015 70000==
41998,2024,03,18,15,00,AAXX 18154 41998 32956 00000 10283 20250 30093 40099 333 10335 59015 70000=
41998,2024,03,19,00,00,AAXX 19004 41998 02956 00000 10258 20220 30123 40129 333 58004 70000==
41998,2024,03,19,03,00,AAXX 19034 41998 02956 00000 10278 20230 30116 40122 333 20200 58004 70000==
41998,2024,03,19,06,00,AAXX 19064 41998 NIL=
41998,2024,03,19,09,00,AAXX 19094 41998 02956 02103 10314 20200 30094 40100 333 58002 70000==
41998,2024,03,19,12,00,AAXX 19124 41998 NIL=
41998,2024,03,19,18,00,AAXX 19184 41998 NIL=
41998,2024,03,20,00,00,AAXX 20004 41998 NIL=
41998,2024,03,20,03,00,AAXX 20034 41998 02956 00000 10290 20220 30107 40113 333 20210 59006 70000==
41998,2024,03,20,06,00,AAXX 20064 41998 NIL=
41998,2024,03,20,09,00,AAXX 20094 41998 02956 02503 10308 20250 30092 40098 333 59002 70000==
41998,2024,03,20,12,00,AAXX 20124 41998 02956 00000 10284 20240 30097 40103 333 10336 58004 70000==
41998,2024,03,20,18,00,AAXX 20184 41998 NIL=
41998,2024,03,21,03,00,AAXX 21034 41998 02456 80000 10265 20220 30149 40155 8442/ 333 20195 58042 70020 83618 88458==
41998,2024,03,21,06,00,AAXX 21064 41998 NIL=
41998,2024,03,21,09,00,AAXX 21094 41998 01456 82703 10248 20240 30135 40141 72166 8442/ 333 58043 70070 83618 88458==
41998,2024,03,21,12,00,AAXX 21124 41998 01456 81802 10246 20230 30138 40144 70262 8442/ 333 10282 58041 70090 83618 88458==
