ESTACION,ANO,MES,DIA,HORA,MINUTO,PARTE
41850,2023,09,08,00,00,AAXX 08004 41850 11440 80904 10250 20240 39943 40041 60237 72166 8452/ 333 56999 59007 70230 84616 88458=
41850,2023,09,08,06,00,AAXX 08064 41850 31450 82304 10303 20250 39969 40066 70522 8452/ 333 56999 58014 70230 84618 88458=
41850,2023,09,09,00,00,AAXX 09004 41850 31435 70000 10261 20260 39966 40064 70521 83510 333 56990 58023 70000 83616 87458=
41850,2023,09,09,06,00,AAXX 09064 41850 11330 80000 10282 20260 39966 40063 60014 76162 8572/ 333 56799 59003 70010 83707 84614 88458=
41850,2023,09,09,12,00,AAXX 09124 41850 31450 30000 10310 20270 39928 40024 70562 83030 333 10329 56090 58016 70020 83362=
41850,2023,09,09,18,00,AAXX 09184 41850 NIL=
41850,2023,09,10,00,00,AAXX 10004 41850 31450 00000 10260 20260 39936 40034 70500 333 59029 70020=
41850,2023,09,10,06,00,AAXX 10064 41850 32457 51803 10336 20240 39927 40022 82510 333 56990 59039 70010 82618 85458=
41850,2023,09,10,12,00,AAXX 10124 41850 31450 50000 10318 20260 39903 49999 70522 82510 333 10356 56990 59025 70000 82618 85458=
41850,2023,09,10,18,00,AAXX 10184 41850 31440 60000 10284 20260 39931 40028 70522 82510 333 56990 59020 70000 82618 86458=
41850,2023,09,11,00,00,AAXX 11004 41850 31450 00000 10267 20260 39921 40018 70520 333 59015 70000=
41850,2023,09,11,06,00,AAXX 11064 41850 32456 60502 10333 20250 39928 40024 82510 333 56990 58001 70000 82618 86458=
41850,2023,09,11,12,00,AAXX 11124 41850 32456 41803 10325 20260 39894 49990 82530 333 10350 56490 59010 70000 82618 84362=
41850,2023,09,12,06,00,AAXX 12064 41850 32456 61204 10330 20260 39929 40024 82510 333 56990 58001 70000 82616 86458=
41850,2023,09,12,12,00,AAXX 12124 41850 32456 60000 10294 20240 39911 40008 81530 333 10341 56990 58017 70000 81616 86362=
41850,2023,09,12,18,00,AAXX 12184 41850 31440 60000 10275 20270 39931 40029 70522 82530 333 56990 58000 70000 82617 86362=
41850,2023,09,13,00,00,AAXX 13004 41850 31425 30000 10265 20260 39923 40021 71021 81530 333 56990 58001 70000 81616 83360=
41850,2023,09,13,06,00,AAXX 13064 41850 31457 30000 10332 20250 39937 40033 82530 333 56990 58008 70000 81618 83362=
41850,2023,09,13,12,00,AAXX 13124 41850 32456 20000 10310 20260 39905 40002 82500 333 10350 56900 59006 70000 82618=
41850,2023,09,13,18,00,AAXX 13184 41850 31435 20000 10274 20250 39933 40032 70511 82500 333 56900 58002 70000 82618=
41850,2023,09,14,00,00,AAXX 14004 41850 31435 20000 10272 20260 39943 40041 71011 82500 333 56900 58020 70000 82618=
41850,2023,09,14,06,00,AAXX 14064 41850 32456 61803 10298 20260 39955 40053 83510 333 56390 58018 70000 83616 86458=
41850,2023,09,14,12,00,AAXX 14124 41850 32456 30000 10305 20270 39922 40018 81530 333 10345 56990 58017 70000 81616 83362=
41850,2023,09,14,18,00,AAXX 14184 41850 31440 20000 10276 20260 39948 40046 70511 82500 333 56900 58015 70000 82616=
41851,2023,09,08,00,00,AAXX 08004 41851 11350 80902 10259 20250 39995 40058 60305 70296 8462/ 333 56499 58007 70300 81709 83617 88457=
41851,2023,09,08,06,00,AAXX 08064 41851 11340 80903 10289 20260 30008 40070 69954 76122 8472/ 333 56499 58015 70305 81708 83616 88456=
41851,2023,09,09,00,00,AAXX 09004 41851 32450 80000 10267 20260 30000 40063 8352/ 333 56999 58005 70005 83618 88458=
41851,2023,09,09,06,00,AAXX 09064 41851 32450 80000 10309 20260 30001 40063 8352/ 333 56999 59007 70000 83618 88458=
41851,2023,09,09,12,00,AAXX 09124 41851 32450 30000 10328 20260 39961 40022 83500 333 10345 56900 59018 70000 83618=
41851,2023,09,09,18,00,AAXX 09184 41851 31940 00000 10278 20270 39982 40044 70520 333 59025 70000=
41851,2023,09,10,00,00,AAXX 10004 41851 31430 30000 10270 20260 39972 40034 83500 333 56900 59028 70000 83618=
41851,2023,09,10,06,00,AAXX 10064 41851 32450 32801 10333 20260 39969 40030 83500 333 56900 59032 70000 83618=
41851,2023,09,10,12,00,AAXX 10124 41851 32450 50000 10320 20280 39939 40000 82510 333 10355 56990 59022 70000 82618 84459=
41851,2023,09,10,18,00,AAXX 10184 41851 31940 00000 10286 20280 39970 40032 70520 333 59012 70000=
41851,2023,09,11,00,00,AAXX 11004 41851 31440 10000 10272 20260 39955 40017 70500 81500 333 56900 59017 70000 81618=
41851,2023,09,11,06,00,AAXX 11064 41851 32450 50000 10340 20260 39961 40022 83510 333 56990 59008 70000 83618 84459=
41851,2023,09,11,12,00,AAXX 11124 41851 32450 40000 10315 20280 39932 49993 83430 333 10354 56990 59007 70000 82618 83362=
41851,2023,09,11,18,00,AAXX 11184 41851 32450 51801 10280 20260 39965 40027 82520 333 56990 59005 70000 82618 85458=
41851,2023,09,12,00,00,AAXX 12004 41851 31435 80000 10270 20260 39962 40024 70522 8352/ 333 56999 58007 70000 83618 88458=
41851,2023,09,12,06,00,AAXX 12064 41851 32450 71501 10343 20270 39965 40026 83520 333 56990 58004 70000 83618 87458=
41851,2023,09,12,12,00,AAXX 12124 41851 11450 40000 10288 20280 39950 40012 60506 70196 81530 333 10344 56990 58018 70500 81618 83362=
41851,2023,09,12,18,00,AAXX 12184 41851 32450 70000 10273 20260 39970 40032 83520 333 56990 58005 70500 83618 87458=
41851,2023,09,13,00,00,AAXX 13004 41851 31330 80000 10274 20260 39959 40021 70522 8462/ 333 56399 59003 70500 81709 83617 88457=
41851,2023,09,13,06,00,AAXX 13064 41851 11340 81803 10300 20280 39973 40035 60034 79522 8492/ 333 56999 58008 70538 81708 83616 81929 88456=
41851,2023,09,13,12,00,AAXX 13124 41851 32450 60000 10304 20280 39942 40004 82410 333 10336 56990 59008 70038 81618 85458=
41851,2023,09,13,18,00,AAXX 13184 41851 31440 10000 10281 20270 39985 40047 81500 333 56900 58015 70038 81618=
41851,2023,09,14,00,00,AAXX 14004 41851 31440 10000 10271 20260 39977 40040 70511 81500 333 56900 58018 70038 81618=
41851,2023,09,14,06,00,AAXX 14064 41851 11450 21301 10330 20260 39992 40053 60025 70162 82530 333 56990 58017 70015 82618=
41851,2023,09,14,12,00,AAXX 14124 41851 32450 50000 10316 20270 39957 40018 82410 333 10347 56990 58015 70015 81618 85458=
41851,2023,09,14,18,00,AAXX 14184 41851 32350 80000 10288 20270 39999 40061 8462/ 333 56999 58014 70015 81709 83617 88457=
41856,2023,09,08,00,00,AAXX 08004 41856 32440 80903 10268 20260 30021 40056 8562/ 333 56499 58010 70000 83710 85615 88458=
41856,2023,09,08,06,00,AAXX 08064 41856 11350 80903 10268 20260 30040 40075 60032 76162 8672/ 333 56299 58019 70025 84708 86614 88458=
41856,2023,09,08,18,00,AAXX 08184 41856 32430 50000 10270 20250 30034 40069 83430 333 56990 58018 70057 82618 85362=
41856,2023,09,09,06,00,AAXX 09064 41856 32450 51401 10315 20260 30030 40065 83430 333 56990 59010 70032 82618 85362=
41856,2023,09,09,12,00,AAXX 09124 41856 32950 23301 10322 20260 39988 40023 82030 333 10347 56090 59019 70000 82362=
41856,2023,09,09,18,00,AAXX 09184 41856 31930 03302 10278 20270 30009 40044 70500 333 59025 70000=
41856,2023,09,10,00,00,AAXX 10004 41856 31930 23101 10270 20270 39999 40034 70511 82030 333 56090 59030 70000 82362=
41856,2023,09,10,06,00,AAXX 10064 41856 11450 60000 10345 20270 39996 40030 60047 70362 84430 333 56990 59034 70034 83618 83362=
41856,2023,09,10,12,00,AAXX 10124 41856 32950 60000 10290 20260 39969 40004 86070 333 10345 56090 59019 70034 86362=
41856,2023,09,10,18,00,AAXX 10184 41856 31930 00000 10278 20275 39996 40031 70500 333 59013 70034=
41856,2023,09,11,00,00,AAXX 11004 41856 31930 20000 10271 20270 39981 40016 70511 82030 333 56090 59018 70034 82362=
41856,2023,09,11,06,00,AAXX 11064 41856 32450 50000 10338 20270 39990 40024 85430 333 56990 59006 70000 82618 83830=
41856,2023,09,11,12,00,AAXX 11124 41856 32450 50000 10304 20260 39961 49996 83320 333 10355 56990 59008 70000 82618 84458=
41856,2023,09,12,06,00,AAXX 12064 41856 11450 81601 10304 20260 39996 40031 60115 70262 8452/ 333 56999 58006 70106 83618 88458=
41856,2023,09,12,12,00,AAXX 12124 41856 32450 80000 10301 20270 39972 40007 8442/ 333 10318 56999 58011 70106 83618 88458=
41856,2023,09,12,18,00,AAXX 12184 41856 31930 50000 10281 20260 39999 40034 70522 85030 333 56090 58010 70106 83362=
41856,2023,09,13,00,00,AAXX 13004 41856 31920 30000 10273 20260 39985 40020 70511 83030 333 56090 59001 70106 83362=
41856,2023,09,13,06,00,AAXX 13064 41856 32450 60000 10330 20250 30000 40035 84430 333 56990 58004 70000 83618 84458=
41856,2023,09,13,12,00,AAXX 13124 41856 32450 30000 10320 20250 39969 40004 82430 333 10320 56990 59003 70000 81618 83362=
41856,2023,09,13,18,00,AAXX 13184 41856 32930 00000 10276 20270 30013 40048 333 58014 70000=
41856,2023,09,14,00,00,AAXX 14004 41856 32430 80000 10274 20260 30006 40041 8562/ 333 56299 58021 70000 83710 85615 88458=
41856,2023,09,14,06,00,AAXX 14064 41856 32956 11304 10330 20230 30019 40054 81030 333 56090 58019 70000 81362=
41856,2023,09,14,12,00,AAXX 14124 41856 32450 40000 10316 20270 39988 40023 82430 333 10346 56990 58019 70000 81618 84362=
41856,2023,09,14,18,00,AAXX 14184 41856 32930 51303 10280 20250 30027 40062 85030 333 56090 58014 70000 85362=
41858,2023,09,08,00,00,AAXX 08004 41858 01450 80905 10276 20260 30008 40053 70522 8452/ 333 58008 70000 84615 88458==
41858,2023,09,08,03,00,AAXX 08034 41858 01450 61507 10302 20260 30023 40068 70522 83520 333 58006 70000 83615 86459==
41858,2023,09,08,06,00,AAXX 08064 41858 01425 80910 10290 20260 30024 40069 76122 8452/ 333 58014 70006 84615 88458==
41858,2023,09,08,09,00,AAXX 08094 41858 01450 80906 10280 20260 30004 40049 76162 8452/ 333 58024 70036 84615 88458==
41858,2023,09,08,12,00,AAXX 08124 41858 01450 70000 10280 20260 39998 40043 70562 85320 333 10310 58018 70054 84615 86458 81930==
41858,2023,09,08,18,00,AAXX 08184 41858 11440 60804 10290 20260 30022 40067 69986 70562 83520 333 58007 70062 83615 86458==
41858,2023,09,09,00,00,AAXX 09004 41858 01320 80905 10276 20260 30018 40063 71022 8362/ 333 58010 70062 83708==
41858,2023,09,09,03,00,AAXX 09034 41858 01430 81305 10296 20270 30037 40082 70522 8452/ 333 20265 58014 70062 84616 88458==
41858,2023,09,09,06,00,AAXX 09064 41858 01450 60000 10325 20250 30018 40062 70522 83520 333 59006 70056 83616 86458==
41858,2023,09,09,09,00,AAXX 09094 41858 01550 21807 10348 20260 39988 40032 70520 82100 333 59016 70026 82825==
41858,2023,09,09,12,00,AAXX 09124 41858 01/50 22105 10325 20260 39979 40023 70520 82030 333 10351 59019 70008 83362==
41858,2023,09,09,15,00,AAXX 09154 41858 01/50 20702 10310 20260 39998 40043 70511 82030 333 59005 70000 82362==
41858,2023,09,09,18,00,AAXX 09184 41858 01950 00000 10300 20270 30004 40049 70500 333 59018 70000==
41858,2023,09,09,21,00,AAXX 09214 41858 01430 40000 10290 20270 39999 40044 70522 82520 333 59020 70000 82616 84458==
41858,2023,09,10,00,00,AAXX 10004 41858 01412 40000 10282 20270 39995 40040 71022 82520 333 59023 70000 82616 84458==
41858,2023,09,10,03,00,AAXX 10034 41858 01440 40000 10320 20270 30002 40046 70522 83520 333 20274 59035 70000 83616 84458==
41858,2023,09,10,06,00,AAXX 10064 41858 01450 51805 10352 20260 39986 40030 70522 83520 333 59032 70000 83616 85458==
41858,2023,09,10,09,00,AAXX 10094 41858 01450 51808 10362 20250 39966 40009 70522 83520 333 59022 70000 83616 85458==
41858,2023,09,10,12,00,AAXX 10124 41858 01450 41804 10320 20270 39960 40004 70522 82520 333 10364 59019 70000 82618 84458==
41858,2023,09,10,15,00,AAXX 10154 41858 01940 01805 10296 20280 39975 40020 70500 333 59023 70000==
41858,2023,09,10,18,00,AAXX 10184 41858 01940 01804 10290 20270 39988 40033 70500 333 59016 70000==
41858,2023,09,10,21,00,AAXX 10214 41858 01925 01805 10288 20280 39982 40027 71000 333 59017 70000==
41858,2023,09,11,00,00,AAXX 11004 41858 01/20 21504 10285 20280 39975 40020 71020 82030 333 59020 70000 82362==
41858,2023,09,11,03,00,AAXX 11034 41858 01/40 21806 10328 20270 39989 40033 70500 82030 333 20280 59013 70000 82362==
41858,2023,09,11,06,00,AAXX 11064 41858 01550 31805 10360 20260 39981 40024 70511 83100 333 59005 70000 83825==
41858,2023,09,11,09,00,AAXX 11094 41858 01450 52110 10366 20260 39952 49995 70521 83520 333 59014 70000 83618 85458==
41858,2023,09,11,12,00,AAXX 11124 41858 01450 41802 10336 20280 39951 49995 70522 83520 333 10367 59009 70000 83618 84458==
41858,2023,09,11,15,00,AAXX 11154 41858 01440 40000 10310 20280 39977 40021 70522 83520 333 58002 70000 83618 84458==
41858,2023,09,11,18,00,AAXX 11184 41858 01440 40000 10300 20280 39993 40038 70522 83520 333 58005 70000 83618 84458==
41858,2023,09,12,06,00,AAXX 12064 41858 01440 80905 10306 20250 39985 40029 71742 8592/ 333 58004 70000 84615 88458 82930==
41858,2023,09,12,09,00,AAXX 12094 41858 01435 80306 10302 20260 39964 40008 70596 8452/ 333 58012 70002 84615 88458==
41858,2023,09,12,12,00,AAXX 12124 41858 01435 80902 10302 20270 39964 40008 70522 8452/ 333 10336 58013 70002 84616 88458==
41858,2023,09,12,15,00,AAXX 12154 41858 01440 50302 10290 20280 39990 40035 70522 83520 333 58013 70002 83618 85458==
41858,2023,09,12,18,00,AAXX 12184 41858 01440 50902 10288 20280 39996 40041 70522 82520 333 58003 70002 82618 85458==
41858,2023,09,12,21,00,AAXX 12214 41858 01430 60302 10286 20280 39983 40028 70522 83520 333 59002 70002 83618 86458==
41858,2023,09,13,00,00,AAXX 13004 41858 01908 00902 10284 20270 39978 40023 74022 89/// 333 59003 70002==
41858,2023,09,13,03,00,AAXX 13034 41858 02430 61205 10310 20270 39995 40040 83520 333 20274 59002 73615 86458==
41858,2023,09,13,06,00,AAXX 13064 41858 01435 81505 10300 20270 39995 40040 71796 8492/ 333 58010 70000 84615 88458 82930==
41858,2023,09,13,09,00,AAXX 13094 41858 41430 60000 10310 20280 39968 40012 70522 83520 333 58004 83615 85458==
41858,2023,09,13,12,00,AAXX 13124 41858 41/50 50000 10308 20270 39959 40003 70522 85030 333 10324 59005 85362==
41858,2023,09,13,15,00,AAXX 13154 41858 41/40 30000 10298 20270 39993 40038 70522 83030 333 58003 83362==
41858,2023,09,13,18,00,AAXX 13184 41858 41/40 20000 10294 20270 30002 40044 70511 82030 333 58006 82362==
41858,2023,09,13,21,00,AAXX 13214 41858 41/40 30000 10280 20260 39992 40037 70510 83030 333 58009 83362==
41858,2023,09,14,00,00,AAXX 14004 41858 41450 50904 10275 20260 39997 40042 70520 83520 333 58019 83615 84460==
41858,2023,09,14,03,00,AAXX 14034 41858 42456 41605 10300 20260 30016 40061 83520 333 20265 58021 83618==
41858,2023,09,14,06,00,AAXX 14064 41858 02456 30905 10338 20250 30008 40052 83500 333 58013 70000 83618==
41858,2023,09,14,09,00,AAXX 14094 41858 02556 31506 10352 20250 39982 40031 83825 333 58014 70000 83825==
41858,2023,09,14,12,00,AAXX 14124 41858 02556 31205 10325 20260 39974 40018 82140 333 10354 58016 70000 82825 83362==
41858,2023,09,14,15,00,AAXX 14154 41858 02/56 31303 10300 20270 30010 40055 83030 333 58017 70000 83362==
41858,2023,09,14,18,00,AAXX 14184 41858 02/56 20000 10298 20270 30018 40063 82030 333 58015 70000 82362==
41858,2023,09,14,21,00,AAXX 14214 41858 01950 00000 10292 20260 30011 40056 70500 333 58019 70000==
41859,2023,09,08,00,00,AAXX 08004 41859 02435 80502 10280 20260 30015 40052 8562/ 333 58005 70000 83710 84618 88458==
41859,2023,09,08,03,00,AAXX 08034 41859 02450 80502 10301 20250 30033 40070 8562/ 333 20276 58008 70000 83710 84618 88458==
41859,2023,09,08,06,00,AAXX 08064 41859 01350 80502 10291 20270 30034 40071 76162 8672/ 333 58009 70010 83708 84616 88456==
41859,2023,09,08,09,00,AAXX 08094 41859 01450 80503 10291 20270 30011 40048 70262 8562/ 333 58022 70026 83710 84618 88458==
41859,2023,09,08,12,00,AAXX 08124 41859 11450 61302 10290 20270 30007 40044 60026 70162 84620 333 10301 58019 70026 82710 83618 86458==
41859,2023,09,08,15,00,AAXX 08154 41859 01430 80501 10281 20270 30028 40065 70362 8562/ 333 58008 70036 83710 84618 88458==
41859,2023,09,08,18,00,AAXX 08184 41859 11430 80501 10271 20260 30033 40070 60016 70262 8562/ 333 58018 70036 82710 84618 88458==
41859,2023,09,08,21,00,AAXX 08214 41859 02430 80902 10270 20260 30026 40063 8562/ 333 58011 70036 82710 84618 88458==
41859,2023,09,09,00,00,AAXX 09004 41859 02430 80901 10273 20260 30023 40060 8562/ 333 58008 70036 82710 84618 88458==
41859,2023,09,09,03,00,AAXX 09034 41859 02450 80902 10291 20270 30046 40083 8562/ 333 20267 58013 70036 82710 84618 88458==
41859,2023,09,09,06,00,AAXX 09064 41859 02450 50902 10333 20260 30030 40066 84620 333 59004 70016 82710 83618 85458==
41859,2023,09,09,09,00,AAXX 09094 41859 02450 52302 10350 20250 39993 40029 83520 333 59018 70010 83618 85458==
41859,2023,09,09,12,00,AAXX 09124 41859 02/50 32301 10325 20270 39988 40024 83030 333 10352 59019 70010 83362==
41859,2023,09,09,15,00,AAXX 09154 41859 02/30 30000 10301 20280 30006 40043 83030 333 59022 70000 83362==
41859,2023,09,09,18,00,AAXX 09184 41859 02930 00000 10290 20280 30008 40045 333 59025 70000==
41859,2023,09,09,21,00,AAXX 09214 41859 02430 40000 10286 20280 30003 40040 82520 333 59023 70000 82618 84458==
41859,2023,09,10,00,00,AAXX 10004 41859 02435 80000 10282 20270 39999 40036 8562/ 333 59023 70000 82710 84618 88458==
41859,2023,09,10,03,00,AAXX 10034 41859 02450 50000 10314 20270 30009 40045 83510 333 20280 59037 70000 83618 85458==
41859,2023,09,10,06,00,AAXX 10064 41859 02450 50502 10355 20250 39994 40031 83520 333 59036 70000 83618 85458==
41859,2023,09,10,09,00,AAXX 10094 41859 41450 80000 10340 20260 39974 40010 76122 8572/ 333 59019 82710 84618 88458==
41859,2023,09,10,12,00,AAXX 10124 41859 21450 60000 10312 20270 39967 40003 70162 83570 333 10365 59021 60005 83618 85458==
41859,2023,09,10,15,00,AAXX 10154 41859 42430 61301 10300 20280 39988 40025 82530 333 59018 82618 85362==
41859,2023,09,10,18,00,AAXX 10184 41859 42/30 50000 10295 20290 39997 40034 85030 333 59011 85362==
41859,2023,09,10,21,00,AAXX 10214 41859 42/30 30000 10290 20280 39998 40035 83030 333 59005 83362==
41859,2023,09,11,00,00,AAXX 11004 41859 42/40 30000 10288 20280 39983 40020 83030 333 59016 83362==
41859,2023,09,11,03,00,AAXX 11034 41859 42/50 30000 10327 20270 39994 40031 83030 333 20280 58000 83362==
41859,2023,09,11,06,00,AAXX 11064 41859 42450 60502 10356 20260 39988 40023 83520 333 59006 83618 86458==
41859,2023,09,11,09,00,AAXX 11094 41859 42450 72302 10362 20260 39960 49996 83520 333 59014 83618 86458==
41859,2023,09,11,12,00,AAXX 11124 41859 02440 80902 10320 20270 39959 49995 8562/ 333 10368 59008 70000 82710 84618 88458==
41859,2023,09,11,15,00,AAXX 11154 41859 02430 80000 10308 20280 39985 40021 8562/ 333 59003 70000 82710 84618 88458==
41859,2023,09,11,18,00,AAXX 11184 41859 02430 80000 10300 20270 39992 40029 8562/ 333 59005 70000 82710 84618 88458==
41859,2023,09,11,21,00,AAXX 11214 41859 02430 80000 10290 20270 39976 40013 8562/ 333 59022 70000 82710 82710 84618 88458==
41859,2023,09,12,00,00,AAXX 12004 41859 02435 80000 10287 20270 39987 40024 8562/ 333 58004 70000 82710 84618 88458==
41859,2023,09,12,03,00,AAXX 12034 41859 02450 80502 10312 20270 30005 40041 8562/ 333 20286 58011 70000 82710 84618 88458==
41859,2023,09,12,06,00,AAXX 12064 41859 21450 80502 10311 20280 39994 40030 70262 8565/ 333 58006 69977 70007 82710 84618 88458==
41859,2023,09,12,09,00,AAXX 12094 41859 02450 80000 10320 20270 39970 40006 8562/ 333 58010 70007 82710 84618 88458==
41859,2023,09,12,12,00,AAXX 12124 41859 02440 80502 10306 20280 39974 40010 8562/ 333 10320 58015 70007 82710 84618 88458==
41859,2023,09,12,15,00,AAXX 12154 41859 02430 70502 10294 20280 39995 40032 84610 333 58010 70007 82710 83618 87458==
41859,2023,09,12,18,00,AAXX 12184 41859 02430 70501 10290 20280 39995 40032 84610 333 58003 70007 82710 83618 87458==
41859,2023,09,12,21,00,AAXX 12214 41859 02430 80501 10289 20280 39987 40024 8562/ 333 58011 70007 82710 84618 88458==
41859,2023,09,13,00,00,AAXX 13004 41859 02430 80000 10287 20280 39984 40021 8562/ 333 59003 70007 82710 84618 88458==
41859,2023,09,13,03,00,AAXX 13034 41859 02450 61302 10313 20270 30002 40038 84610 333 20283 59003 70007 82710 83618 86458==
41859,2023,09,13,06,00,AAXX 13064 41859 21450 81302 10317 20280 30000 40037 70362 8462/ 333 59012 60017 70012 82710 83618 88458==
41859,2023,09,13,09,00,AAXX 13094 41859 02450 60902 10334 20260 39974 40010 84620 333 58004 70012 82710 83618 86458==
41859,2023,09,13,12,00,AAXX 13124 41859 02450 60000 10312 20270 39967 40003 83520 333 10337 59007 70012 83618 86458==
41859,2023,09,13,15,00,AAXX 13154 41859 02430 70901 10297 20280 30002 40039 85620 333 58007 70012 82710 83618 87458==
41859,2023,09,13,18,00,AAXX 13184 41859 02/30 21302 10290 20280 30012 40049 82030 333 58017 70012 82362==
41859,2023,09,13,21,00,AAXX 13214 41859 02430 50902 10286 20280 30009 40046 83530 333 58022 70012 83618 85362==
41859,2023,09,14,00,00,AAXX 14004 41859 02450 50902 10282 20270 30004 40041 83430 333 58020 70012 81618 82828 84362==
41859,2023,09,14,03,00,AAXX 14034 41859 02450 80902 10315 20260 30025 40061 8352/ 333 20275 58023 70012 83618 88458==
41859,2023,09,14,06,00,AAXX 14064 41859 02450 60504 10341 20260 30020 40057 83520 333 58020 70000 83618 86458==
41859,2023,09,14,09,00,AAXX 14094 41859 02450 50000 10355 20250 39991 40027 83430 333 58017 70000 83618 84362==
41859,2023,09,14,12,00,AAXX 14124 41859 02450 70000 10330 20250 39985 40021 83430 333 10358 58018 70000 83618 86362==
41859,2023,09,14,15,00,AAXX 14154 41859 02430 40000 10307 30020 40056 82530 333 58018 70000 82618 84362==
41859,2023,09,14,18,00,AAXX 14184 41859 02430 61301 10293 20260 30025 40062 83530 333 58013 70000 83618 86362==
41859,2023,09,14,21,00,AAXX 14214 41859 02430 41301 10284 20250 30023 40060 82520 333 58014 70000 82618 84458==
41863,2023,09,08,00,00,AAXX 08004 41863 02450 81804 10280 20260 30007 40049 8452/ 333 58006 70000 84617 88458==
41863,2023,09,08,03,00,AAXX 08034 41863 02450 81304 10288 20260 30025 40067 8452/ 333 20268 58008 70000 84617 88458==
41863,2023,09,08,06,00,AAXX 08064 41863 01356 81305 10291 20270 30023 40065 76162 8572/ 333 58012 70020 83708 84614 88456==
41863,2023,09,08,09,00,AAXX 08094 41863 01456 80902 10275 20270 30004 40046 70262 8552/ 333 58024 70322 85618 88458==
41863,2023,09,08,18,00,AAXX 08184 41863 02450 81303 10274 20270 30023 40066 8552/ 333 58015 70360 85618 88458==
41863,2023,09,09,03,00,AAXX 09034 41863 02456 61802 10295 20280 30037 40079 84520 333 20260 58012 70374 84618 86458==
41863,2023,09,09,06,00,AAXX 09064 41863 02456 60902 10325 20270 30031 40073 84520 333 58008 70354 84618 86458==
41863,2023,09,09,09,00,AAXX 09094 41863 02457 51301 10345 20270 39987 40028 82520 333 59017 70052 82618 85458==
41863,2023,09,09,12,00,AAXX 09124 41863 02950 00000 10330 20270 39984 40026 333 10345 59013 70014==
41863,2023,09,09,15,00,AAXX 09154 41863 02950 00000 10290 20270 39998 40040 333 59020 70014==
41863,2023,09,09,18,00,AAXX 09184 41863 02950 00000 10287 20280 30002 40044 333 59017 70014==
41863,2023,09,09,21,00,AAXX 09214 41863 02950 00000 10282 20270 30000 40042 333 59018 70014==
41863,2023,09,10,00,00,AAXX 10004 41863 02950 02701 10278 20270 39994 40036 333 59024 70000==
41863,2023,09,10,03,00,AAXX 10034 41863 02556 31301 10300 20270 30003 40045 83400 333 20272 59034 70000 83620==
41863,2023,09,10,06,00,AAXX 10064 41863 02457 52702 10349 20270 39990 40031 83520 333 59041 70000 83618 85458==
41863,2023,09,10,09,00,AAXX 10094 41863 02456 60000 10334 20270 39970 40011 84520 333 59017 70000 84618 86458==
41863,2023,09,10,12,00,AAXX 10124 41863 21456 60902 10316 20280 39960 40002 70296 84520 333 10350 59024 60087 70084 84618 86458==
41863,2023,09,10,15,00,AAXX 10154 41863 02550 30000 10294 20280 39979 40021 83400 333 59019 70084 83620==
41863,2023,09,10,18,00,AAXX 10184 41863 02550 30000 10286 20280 39990 40032 83400 333 59012 70084 83620==
41863,2023,09,10,21,00,AAXX 10214 41863 02950 00000 10282 20270 39984 40026 333 59016 70084==
41863,2023,09,11,00,00,AAXX 11004 41863 01950 00000 10278 20270 39975 40017 70500 333 59019 70084==
41863,2023,09,11,03,00,AAXX 11034 41863 02956 00000 10320 20280 39989 40031 333 20272 59014 70084==
41863,2023,09,11,06,00,AAXX 11064 41863 02557 30501 10353 20250 39982 40023 83400 333 59008 70084 83620==
41863,2023,09,11,09,00,AAXX 11094 41863 02557 30901 10350 20270 39955 49996 83400 333 59015 70084 83620==
41863,2023,09,11,12,00,AAXX 11124 41863 02557 30901 10350 20260 39951 49992 83400 333 10361 59009 70000 83620==
41863,2023,09,11,15,00,AAXX 11154 41863 02950 02701 10306 20290 39979 40021 333 58000 70000==
41863,2023,09,12,00,00,AAXX 12004 41863 02550 30000 10291 20280 39975 40021 83400 333 58004 70000 83620==
41863,2023,09,12,06,00,AAXX 12064 41863 02456 80501 10337 20280 39983 40024 8462/ 333 58001 70000 84618 88458==
41863,2023,09,12,09,00,AAXX 12094 41863 02456 80000 10290 20270 39965 40007 8552/ 333 58010 70000 85618 88458==
41863,2023,09,12,12,00,AAXX 12124 41863 02456 80901 10297 20270 39965 40007 8552/ 333 10337 58014 70000 85618 88458==
41863,2023,09,12,15,00,AAXX 12154 41863 02450 80000 10287 20280 39991 40033 8552/ 333 58012 70000 85618 88458==
41863,2023,09,12,18,00,AAXX 12184 41863 02450 80901 10282 20270 39991 40033 8552/ 333 58009 70000 85618 88458==
41863,2023,09,12,21,00,AAXX 12214 41863 02450 80000 10282 20270 39986 40028 8552/ 333 58008 70000 85618 88458==
41863,2023,09,13,00,00,AAXX 13004 41863 01429 80501 10282 20270 39981 40023 70522 8552/ 333 58002 70000 85618 88458==
41863,2023,09,13,03,00,AAXX 13034 41863 02456 61301 10318 20280 39997 40039 84520 333 20275 59002 70000 84618 86458==
41863,2023,09,13,06,00,AAXX 13064 41863 01350 80901 10310 20270 39994 40036 76122 8572/ 333 58011 70008 83708 85616 88456==
41863,2023,09,13,09,00,AAXX 13094 41863 02456 80901 10300 20270 39969 40011 8552/ 333 58004 70008 85618 88458==
41863,2023,09,13,12,00,AAXX 13124 41863 02456 71301 10303 20280 39958 40000 84520 333 10337 59007 70008 84618 87458==
41863,2023,09,13,15,00,AAXX 13154 41863 02950 00901 10290 20280 39992 40034 333 58001 70008==
41863,2023,09,13,18,00,AAXX 13184 41863 02950 00901 10280 20270 30003 40045 333 58012 70008==
41863,2023,09,13,21,00,AAXX 13214 41863 02950 00501 10275 20270 30000 40042 333 58014 70008==
41863,2023,09,14,00,00,AAXX 14004 41863 02950 00901 10272 20260 39996 40039 333 59015 70008==
41863,2023,09,14,03,00,AAXX 14034 41863 02556 30902 10308 20260 30016 40058 83400 333 20266 59019 70008 83620==
41863,2023,09,14,06,00,AAXX 14064 41863 02557 41303 10336 20250 30011 40052 84400 333 58017 70000 84625==
41863,2023,09,14,09,00,AAXX 14094 41863 02557 40904 10337 20270 39987 40028 84400 333 58018 70000 84625==
41863,2023,09,14,12,00,AAXX 14124 41863 02556 30903 10330 20270 39974 40015 83400 333 10342 58016 70000 83620==
41863,2023,09,14,15,00,AAXX 14154 41863 02550 30902 10299 20270 30012 40054 333 58020 70000 83620==
41863,2023,09,14,18,00,AAXX 14184 41863 02950 00901 10288 20270 30016 40058 333 58013 70000==
41863,2023,09,14,21,00,AAXX 14214 41863 02950 01303 10276 20260 30013 40055 333 58013 70000==
41881,2023,09,08,00,00,AAXX 08004 41881 11356 81606 10265 20265 30019 40039 60044 76162 8562/ 333 56499 59004 70071 83708 84614 88458=
41881,2023,09,08,06,00,AAXX 08064 41881 11457 70803 10304 20260 30036 40056 60145 70162 84520 333 56290 58012 70211 84615 87458=
41881,2023,09,09,06,00,AAXX 09064 41881 32457 61301 10324 20250 30044 40064 83520 333 56990 58008 70773 83618 86459=
41881,2023,09,09,12,00,AAXX 09124 41881 32456 41801 10310 20270 30005 40025 84500 333 10335 56900 59012 70000 84618=
41881,2023,09,09,18,00,AAXX 09184 41881 32950 00000 10280 20260 30032 40052 333 59003 70000=
41881,2023,09,10,00,00,AAXX 10004 41881 32950 01301 10269 20260 30028 40048 333 59015 70000=
41881,2023,09,10,06,00,AAXX 10064 41881 32458 51301 10335 20260 30014 40034 83520 333 56990 59030 70000 83618 85459=
41881,2023,09,10,12,00,AAXX 10124 41881 32456 42701 10330 20260 39984 40004 84500 333 10345 56900 59021 70000 84618=
41881,2023,09,10,18,00,AAXX 10184 41881 32950 00000 10295 20290 30013 40033 333 59019 70000=
41881,2023,09,11,00,00,AAXX 11004 41881 32956 01301 10284 20240 30008 40028 333 59020 70000=
41881,2023,09,11,06,00,AAXX 11064 41881 32458 41502 10335 20260 30004 40024 84400 333 56490 59010 70000 83618 84825=
41881,2023,09,11,12,00,AAXX 11124 41881 11457 70000 10295 20280 39974 49994 60054 72162 84520 333 10356 56990 59010 70050 84615 87458=
41881,2023,09,11,18,00,AAXX 11184 41881 32456 41302 10282 20270 30006 40026 84500 333 56900 59007 70000 84616=
41881,2023,09,12,00,00,AAXX 12004 41881 32457 80000 10275 20270 30001 40021 8452/ 333 56999 59007 70050 84616 88459=
41881,2023,09,12,06,00,AAXX 12064 41881 32457 40901 10330 20260 30015 40035 84400 333 56200 58011 70000 82616 83825=
41881,2023,09,12,12,00,AAXX 12124 41881 11456 80000 10286 20270 39989 40009 60016 70262 8452/ 333 10348 56999 58015 70010 84616 88458=
41881,2023,09,12,18,00,AAXX 12184 41881 32450 60000 10284 20270 30011 40031 83520 333 56990 58005 70001 83618 86459=
41881,2023,09,13,00,00,AAXX 13004 41881 32456 50000 10280 20270 39998 40018 83520 333 56990 59003 70000 83618=
41881,2023,09,13,06,00,AAXX 13064 41881 32457 61401 10315 20270 30008 40028 84520 333 56990 59007 70010 83618 86459=
41881,2023,09,13,12,00,AAXX 13124 41881 32456 70501 10300 20270 39981 40001 84520 333 10332 56990 59008 70000 84616 87459=
41881,2023,09,13,18,00,AAXX 13184 41881 32450 51402 10282 20270 30023 40043 83520 333 56990 58012 70000 83618 85459=
41881,2023,09,14,00,00,AAXX 14004 41881 32456 51802 10275 20260 30014 40034 83520 333 56990 58016 70000 83618 85459=
41881,2023,09,14,06,00,AAXX 14064 41881 32458 60902 10318 20250 30031 40051 83520 333 56990 58023 70000 83618 86459=
41881,2023,09,14,12,00,AAXX 14124 41881 32456 60902 10315 20260 39998 40017 83520 333 10340 56990 58017 70000 83618 86459=
41881,2023,09,14,18,00,AAXX 14184 41881 32950 01302 10280 20250 30040 40059 333 58017 70000=
41883,2023,09,08,00,00,AAXX 08004 41883 21340 80902 10262 20250 30022 40042 79596 8692/ 333 59002 60059 70066 83709 84615 88456 81930==
41883,2023,09,08,03,00,AAXX 08034 41883 01350 80902 10280 20270 30044 40034 76196 8572/ 333 20255 58009 70076 85709 88458==
41883,2023,09,08,06,00,AAXX 08064 41883 21456 81302 10305 20270 30036 40056 70296 8552/ 333 58003 60019 70078 85616 88459==
41883,2023,09,08,09,00,AAXX 08094 41883 01450 80902 10296 20270 30019 40039 72162 8552/ 333 58016 70248 85615 88458==
41883,2023,09,08,12,00,AAXX 08124 41883 21350 80902 10284 20260 30018 40039 72162 8562/ 333 10305 58018 60249 70318 85709 88458==
41883,2023,09,08,15,00,AAXX 08154 41883 02330 80000 10280 20260 30042 40062 8562/ 333 58007 70312 85709 88458==
41883,2023,09,08,18,00,AAXX 08184 41883 02330 80000 10278 20270 30048 40068 8562/ 333 58018 70302 85709 88458==
41883,2023,09,08,21,00,AAXX 08214 41883 02330 80000 10276 20270 30040 40060 8562/ 333 58017 70292 85709 88458==
41883,2023,09,09,00,00,AAXX 09004 41883 02330 80000 10274 20260 30042 40062 8562/ 333 58020 70252 85709 88458==
41883,2023,09,09,03,00,AAXX 09034 41883 02456 70000 10302 20270 30057 40077 84520 333 20270 58013 70242 84616 86459==
41883,2023,09,09,06,00,AAXX 09064 41883 02456 40000 10330 20230 30041 40061 84400 333 58005 70072 83616==
41883,2023,09,09,09,00,AAXX 09094 41883 02450 61302 10336 20250 30010 40030 83520 333 59009 70070 83618 86458==
41883,2023,09,09,12,00,AAXX 09124 41883 02450 41302 10334 20260 30001 40021 82520 333 10345 59018 70000 82618 84458==
41883,2023,09,09,15,00,AAXX 09154 41883 02930 00902 10304 20260 30021 40041 333 59021 70000==
41883,2023,09,09,18,00,AAXX 09184 41883 02930 00000 10292 20260 30026 40046 333 59022 70000==
41883,2023,09,09,21,00,AAXX 09214 41883 02930 00000 10290 20270 30018 40038 333 59022 70000==
41883,2023,09,10,00,00,AAXX 10004 41883 02940 00000 10288 20280 30016 40036 333 59026 70000==
41883,2023,09,10,03,00,AAXX 10034 41883 02450 40000 10316 20270 30027 40047 84400 333 20280 59030 70000 82618 83828==
41883,2023,09,10,06,00,AAXX 10064 41883 02450 41302 10344 20260 30014 40034 85400 333 59027 70000 82618 83828==
41883,2023,09,10,09,00,AAXX 10094 41883 02456 20000 10350 20250 39990 40010 82500 333 59011 70000 82616==
41883,2023,09,10,12,00,AAXX 10124 41883 02950 30000 10335 20260 39985 40005 80001 333 10355 59016 70000 83080==
41883,2023,09,10,15,00,AAXX 10154 41883 02930 30000 10310 20270 30002 40022 80001 333 59019 70000 83080==
41883,2023,09,10,18,00,AAXX 10184 41883 02930 00000 10305 20280 30012 40032 333 59014 70000==
41883,2023,09,10,21,00,AAXX 10214 41883 02930 00000 10296 20280 39996 40016 333 59022 70000==
41883,2023,09,11,00,00,AAXX 11004 41883 02/50 31302 10292 20280 39999 40019 83030 333 59017 70000 83362==
41883,2023,09,11,03,00,AAXX 11034 41883 02456 40000 10318 20280 30014 40034 82530 333 20285 59013 70000 82616 84362==
41883,2023,09,11,06,00,AAXX 11064 41883 02556 61802 10344 20260 30006 40026 83110 333 59008 70000 83826 86459==
41883,2023,09,11,09,00,AAXX 11094 41883 02456 62302 10344 20250 39976 49996 84430 333 59014 70000 82616 83828 86362==
41883,2023,09,11,12,00,AAXX 11124 41883 02456 62302 10332 20270 39977 49997 82530 333 10348 58008 70000 82616 86362==
41883,2023,09,11,15,00,AAXX 11154 41883 02430 81302 10300 20260 30000 40020 8552/ 333 59002 70000 85616 88459==
41883,2023,09,11,18,00,AAXX 11184 41883 02430 80000 10292 20260 30009 40029 8552/ 333 59003 70000 85616 88459==
41883,2023,09,11,21,00,AAXX 11214 41883 02430 80000 10285 20260 30001 40021 8552/ 333 70000 83616 88459==
41883,2023,09,12,00,00,AAXX 12004 41883 02440 80000 10280 20260 30003 40023 8552/ 333 58004 70000 85616 88459==
41883,2023,09,12,03,00,AAXX 12034 41883 02456 60000 10306 20280 30020 40040 83510 333 20276 58006 70000 83615 86458==
41883,2023,09,12,06,00,AAXX 12064 41883 02456 61302 10344 20260 30006 40026 83510 333 58000 70000 83615 86458==
41883,2023,09,12,09,00,AAXX 12094 41883 02456 61802 10334 20270 39985 40005 84810 333 58009 70000 83615 85458==
41883,2023,09,12,12,00,AAXX 12124 41883 02440 70000 10310 20270 39989 40009 84820 333 10350 58012 70000 84615 87458==
41883,2023,09,12,15,00,AAXX 12154 41883 02430 60000 10302 20270 30008 40028 83520 333 58008 70000 83618 86458==
41883,2023,09,12,18,00,AAXX 12184 41883 02430 80000 10296 20280 30011 40031 8562/ 333 58002 70000 82710 84618 88458==
41883,2023,09,12,21,00,AAXX 12214 41883 02430 40000 10288 20280 30003 40023 82520 333 59002 70000 82618 84458==
41883,2023,09,13,00,00,AAXX 13004 41883 02440 21302 10284 20270 30001 40021 82500 333 59002 70000 82618==
41883,2023,09,13,03,00,AAXX 13034 41883 02456 80000 10294 20270 30019 40039 8352/ 333 20278 59001 70000 83616 88459==
41883,2023,09,13,06,00,AAXX 13064 41883 02456 60904 10334 20250 30012 40032 83430 333 58006 70000 81616 83828 86362==
41883,2023,09,13,09,00,AAXX 13094 41883 02456 60902 10334 20260 39990 40010 83510 333 58005 70000 83615 86458==
41883,2023,09,13,12,00,AAXX 13124 41883 02456 60000 10330 20270 39980 40000 83510 333 59003 70000 83615 86458==
41883,2023,09,13,15,00,AAXX 13154 41883 02930 00000 10297 20270 30003 40023 333 59005 70000==
41883,2023,09,13,18,00,AAXX 13184 41883 02430 60602 10290 20260 30026 40046 82510 333 58015 70000 82616 86459==
41883,2023,09,13,21,00,AAXX 13214 41883 02/30 40902 10284 20250 30017 40037 84030 333 58014 70000 84362==
41883,2023,09,14,00,00,AAXX 14004 41883 02440 41303 10280 20250 30017 40037 82510 333 58016 70000 82616 84459==
41883,2023,09,14,03,00,AAXX 14034 41883 02450 41304 10306 20260 30033 40053 82510 333 20275 58014 70000 82618 84458==
41883,2023,09,14,06,00,AAXX 14064 41883 02456 50904 10328 20250 30031 40051 85400 333 58019 70000 82618 83828==
41883,2023,09,14,09,00,AAXX 14094 41883 02556 20905 10345 20260 30002 40022 82100 333 58012 70000 82828==
41883,2023,09,14,12,00,AAXX 14124 41883 02456 51802 10320 20270 30002 40022 85400 333 10346 58022 70000 83616 83828==
41883,2023,09,14,15,00,AAXX 14154 41883 02430 80902 10298 20260 30030 40050 8552/ 333 58027 70000 85615 88458==
41883,2023,09,14,18,00,AAXX 14184 41883 02930 00902 10286 20260 30037 40057 333 58011 70000==
41883,2023,09,14,21,00,AAXX 14214 41883 02930 00902 10282 20260 30034 40054 333 58017 70000==
41886,2023,09,08,00,00,AAXX 08004 41886 02450 80000 10276 20260 30037 40057 8552/ 333 59003 70139 85616 88458==
41886,2023,09,08,03,00,AAXX 08034 41886 01356 81304 10288 20260 30056 40076 70262 8672/ 333 20256 58005 70111 82710 85616 88458==
41886,2023,09,08,06,00,AAXX 08064 41886 01457 80000 10302 20260 30056 40076 70262 8441/ 333 58012 70107 83618 88460==
41886,2023,09,08,09,00,AAXX 08094 41886 02457 70000 10310 20260 30029 40049 83510 333 58019 70107 83618 87460==
41886,2023,09,08,12,00,AAXX 08124 41886 01450 80000 10263 20250 30031 40052 79592 8532/ 333 10313 58021 70090 85616 88458 81930==
41886,2023,09,08,15,00,AAXX 08154 41886 01450 80000 10280 20270 30054 40074 70296 8452/ 333 58005 70190 84616 88458==
41886,2023,09,09,03,00,AAXX 09034 41886 02456 80000 10292 20260 30066 40086 8452/ 333 20263 58010 70102 84616 88458==
41886,2023,09,09,06,00,AAXX 09064 41886 02457 60000 10320 20270 30050 40070 84410 333 59006 70090 82618 83825 86460==
41886,2023,09,09,09,00,AAXX 09094 41886 02458 20000 10325 20270 30017 40037 82400 333 59012 70090 81618==
41886,2023,09,09,12,00,AAXX 09124 41886 42456 20000 10300 20270 30009 40029 82500 333 10330 59022 82618==
41886,2023,09,09,15,00,AAXX 09154 41886 02450 20000 10290 20280 30029 40049 82500 333 59025 70000 82618==
41886,2023,09,09,18,00,AAXX 09184 41886 NIL=
41886,2023,09,09,21,00,AAXX 09214 41886 02450 20000 10283 20270 30023 40043 82500 333 59027 70000 82618==
41886,2023,09,10,00,00,AAXX 10004 41886 01450 50000 10280 20270 30021 40041 70521 82570 333 59028 70000 82618 84460==
41886,2023,09,10,03,00,AAXX 10034 41886 02457 60000 10315 20270 30031 40051 82430 333 20280 59035 70000 81618 86363==
41886,2023,09,10,06,00,AAXX 10064 41886 02457 30000 10339 20250 30012 40032 83400 333 59038 70000 81618==
41886,2023,09,10,09,00,AAXX 10094 41886 02458 60000 10355 20260 39994 40014 84410 333 59023 70000 82618 83825 86460==
41886,2023,09,10,12,00,AAXX 10124 41886 02456 60000 10312 20270 39990 40010 83470 333 10355 59019 70000 82618 85460==
41886,2023,09,10,15,00,AAXX 10154 41886 02450 70000 10300 20290 30007 40027 83510 333 59022 70000 83618 87460==
41886,2023,09,10,18,00,AAXX 10184 41886 02450 20000 10295 20290 30016 40036 82500 333 59010 70000 82618==
41886,2023,09,10,21,00,AAXX 10214 41886 02450 20000 10290 20280 30009 40029 82500 333 59014 70000 82618==
41886,2023,09,11,00,00,AAXX 11004 41886 01450 80000 10285 20280 30002 40022 70521 8452/ 333 59019 70000 84616 88458==
41886,2023,09,11,03,00,AAXX 11034 41886 01450 70000 10310 20270 30021 40041 70522 84410 333 20285 59010 70000 83618 87460==
41886,2023,09,11,06,00,AAXX 11064 41886 01456 80000 10275 20260 30015 40035 71796 8532/ 333 58003 70220 84616 88458 81930==
41886,2023,09,11,09,00,AAXX 11094 41886 01457 60000 10302 20280 39979 49999 53470 70192 333 59015 70222 82618 85460==
41886,2023,09,11,12,00,AAXX 11124 41886 01457 70000 10298 20270 39984 40004 70392 83470 333 10320 59006 70222 82618 86460==
41886,2023,09,11,15,00,AAXX 11154 41886 02450 70000 10284 20260 30001 40021 83470 333 59006 70222 82618 86460==
41886,2023,09,11,18,00,AAXX 11184 41886 02450 70000 10278 20270 30010 40030 83470 333 59006 70222 82618 86460==
41886,2023,09,11,21,00,AAXX 11214 41886 02450 70000 10278 20270 30009 40029 83470 333 58000 70222 82618 86460==
41886,2023,09,12,03,00,AAXX 12034 41886 01440 80000 10280 20260 30031 40051 79594 8532/ 333 20274 58010 70222 83616 88460 81930==
41886,2023,09,12,06,00,AAXX 12064 41886 21450 80000 10279 20270 30019 40039 76196 8432/ 333 58004 60047 70036 84616 88458 81930==
41886,2023,09,12,09,00,AAXX 12094 41886 01457 60000 10312 20270 39991 40011 72162 83570 333 58012 70036 83617 85460==
41886,2023,09,12,12,00,AAXX 12124 41886 11457 70000 10302 20270 39990 40010 60006 70392 83470 333 10320 58006 70036 82618 85460==
41886,2023,09,12,15,00,AAXX 12154 41886 02450 70000 10288 20260 30013 40033 83470 333 58012 70036 82618 86460==
41886,2023,09,12,18,00,AAXX 12184 41886 02440 50000 10280 20280 30021 40041 81530 333 58011 70036 81618 85362==
41886,2023,09,12,21,00,AAXX 12214 41886 02440 70000 10280 20270 30014 40034 83470 333 58005 70036 82618 86460==
41886,2023,09,13,00,00,AAXX 13004 41886 01456 80000 10274 20270 30005 40025 76162 8442/ 333 59004 70030 83618 88460==
41886,2023,09,13,03,00,AAXX 13034 41886 02456 60000 10297 20270 30030 40050 84440 333 20270 59001 70068 82618 86460==
41886,2023,09,13,06,00,AAXX 13064 41886 02457 70000 10312 20260 30023 40043 82570 333 58004 70032 82618 85460==
41886,2023,09,13,09,00,AAXX 13094 41886 02457 70000 10303 20260 39997 40017 84470 333 58006 70000 83618 86460==
41886,2023,09,13,12,00,AAXX 13124 41886 02456 60000 10295 20260 39992 40012 84430 333 10313 58002 70032 83618 85365==
41886,2023,09,13,15,00,AAXX 13154 41886 02456 60000 10283 20260 30016 40036 84470 333 58003 70032 83618 85460==
41886,2023,09,13,18,00,AAXX 13184 41886 NIL=
41886,2023,09,13,21,00,AAXX 13214 41886 02450 60000 10275 20260 30017 40037 84470 333 58003 70032 83618 85460==
41886,2023,09,14,00,00,AAXX 14004 41886 02450 80000 10270 20260 30027 40047 8352/ 333 58022 70000 83618 88460==
41886,2023,09,14,03,00,AAXX 14034 41886 02457 50000 10305 20260 30046 40066 84430 333 20268 58016 70000 83618 83365==
41886,2023,09,14,06,00,AAXX 14064 41886 02458 41204 10330 20250 30040 40060 84400 333 58017 70000 83618==
41886,2023,09,14,09,00,AAXX 14094 41886 02458 41304 10335 20260 30011 40031 84400 333 58014 70000 83618==
41886,2023,09,14,12,00,AAXX 14124 41886 02457 60000 10315 20260 30011 40031 84470 333 10337 58019 70000 83618 85460==
41886,2023,09,14,15,00,AAXX 14154 41886 02456 60000 10286 20270 30042 40062 84470 333 58026 70000 83618 85460==
41886,2023,09,14,18,00,AAXX 14184 41886 NIL=
41886,2023,09,14,21,00,AAXX 14214 41886 02440 60000 10277 20270 30041 40061 84470 333 58024 70000 83618 85460==
41888,2023,09,08,00,00,AAXX 08004 41888 11340 80907 10280 20260 30045 40055 60017 70562 8432/ 333 56999 59007 70297 82710 83616 81930 88458=
41888,2023,09,08,06,00,AAXX 08064 41888 11350 80903 10290 20270 30061 40071 60017 70562 8432/ 333 56999 58011 70186 82710 83617 81930 88458=
41888,2023,09,09,06,00,AAXX 09064 41888 32456 83602 10290 20270 30054 40064 8462/ 333 56899 58007 70105 82710 83616 88458=
41888,2023,09,09,12,00,AAXX 09124 41888 32456 40902 10307 20270 30017 40027 83530 333 10330 56999 59027 70091 83618 84365=
41888,2023,09,09,18,00,AAXX 09184 41888 NIL=
41888,2023,09,10,00,00,AAXX 10004 41888 32456 50501 10280 20270 30033 40043 83530 333 56990 59021 70000 83618 85362=
41888,2023,09,10,06,00,AAXX 10064 41888 32457 50000 10335 20260 30022 40032 83530 333 56990 59032 70000 83618 85365=
41888,2023,09,10,12,00,AAXX 10124 41888 32457 52701 10302 20270 39994 40004 83530 333 10355 56990 59023 70000 83618 85365=
41888,2023,09,11,00,00,AAXX 11004 41888 32456 71801 10285 20280 30010 40020 83510 333 56990 59023 70000 83617 87460=
41888,2023,09,11,06,00,AAXX 11064 41888 32457 50901 10330 20260 30016 40026 83530 333 56990 59006 70000 83618 85365=
41888,2023,09,11,12,00,AAXX 11124 41888 32456 52701 10310 20270 39988 49998 83530 333 56990 59006 70000 83618 85365=
41888,2023,09,12,00,00,AAXX 12004 41888 32456 80000 10276 20270 30017 40027 83520 333 56999 58007 70000 83616 88459=
41888,2023,09,12,06,00,AAXX 12064 41888 11356 80901 10280 20260 30025 40035 60079 70262 8462/ 333 56299 58009 70070 82710 83617 88460=
41888,2023,09,12,12,00,AAXX 12124 41888 32456 50901 10295 20270 39999 40009 83530 333 10320 56990 58011 70070 83618 85362=
41888,2023,09,13,00,00,AAXX 13004 41888 31430 80122 10270 20260 30013 40023 70522 8352/ 333 56999 59004 70070 83617 88460=
41888,2023,09,13,06,00,AAXX 13064 41888 11456 80901 10285 20270 30031 40041 69987 70262 8352/ 333 56999 58006 70078 83618 88458=
41888,2023,09,13,12,00,AAXX 13124 41888 32456 40901 10290 20260 30000 40010 82530 333 10305 56990 58001 70008 83618 84365=
41888,2023,09,13,18,00,AAXX 13184 41888 NIL=
41888,2023,09,14,00,00,AAXX 14004 41888 11340 80501 10270 20260 30040 40050 60039 76162 8472/ 333 56999 58027 70038 82709 83617 88458=
41888,2023,09,14,06,00,AAXX 14064 41888 32458 20501 10327 20250 30044 40054 82500 333 56900 58013 70038 82618=
41888,2023,09,14,12,00,AAXX 14124 41888 32457 20901 10307 20250 30020 40030 82530 333 10335 56900 58020 70030 82618=
41888,2023,09,14,18,00,AAXX 14184 41888 NIL=
41891,2023,09,08,00,00,AAXX 08004 41891 11430 80804 10265 20260 30028 40066 60026 70596 8532/ 333 58009 70042 81710 84615 88459 81930==
41891,2023,09,08,03,00,AAXX 08034 41891 01435 81606 10284 20250 30049 40087 70522 8532/ 333 20259 58016 70042 82710 84615 88459 81930==
41891,2023,09,08,06,00,AAXX 08064 41891 01445 61302 10314 20250 30037 40075 70522 83340 333 58013 70042 83615 85365 81930==
41891,2023,09,08,09,00,AAXX 08094 41891 01320 83003 10270 20260 30022 40060 79596 8632/ 333 58031 70160 86708 88458 81925==
41891,2023,09,08,12,00,AAXX 08124 41891 21430 81804 10268 20260 30019 40057 72886 8532/ 333 10331 58029 60157 70188 83710 84615 88459 81930==
41891,2023,09,08,15,00,AAXX 08154 41891 01430 80604 10265 20260 30041 40079 70521 83300 333 58021 70188 81710 81616 81930==
41891,2023,09,08,18,00,AAXX 08184 41891 01430 80903 10265 20260 30037 40077 70521 8532/ 333 58006 70168 84710 88459 81930==
41891,2023,09,08,21,00,AAXX 08214 41891 01430 80903 10265 20260 30031 40069 70522 8532/ 333 58005 70146 84710 88459 81930==
41891,2023,09,09,00,00,AAXX 09004 41891 01430 80903 10263 20260 30034 40072 70522 8532/ 333 58004 70146 84710 88459 81930==
41891,2023,09,09,03,00,AAXX 09034 41891 01445 71302 10294 20250 30047 40085 70522 84370 333 20260 59002 70146 84615 86460 81930==
41891,2023,09,09,06,00,AAXX 09064 41891 01440 72704 10320 20260 30027 40065 70522 84370 333 59010 70146 84615 86460 81930==
41891,2023,09,09,09,00,AAXX 09094 41891 01445 70000 10325 20260 39991 40028 70522 84370 333 59031 70028 84615 86460 81930==
41891,2023,09,09,12,00,AAXX 09124 41891 01440 61802 10302 20260 39992 40030 70522 83370 333 10335 59027 70000 83615 85460 81930==
41891,2023,09,09,15,00,AAXX 09154 41891 01435 80302 10285 20280 30008 40046 70522 8532/ 333 59033 70000 82710 84615 88459 81930==
41891,2023,09,09,18,00,AAXX 09184 41891 01430 80902 10285 20280 30009 40047 70522 8532/ 333 59030 70000 82710 84615 88459 81930==
41891,2023,09,09,21,00,AAXX 09214 41891 01430 80902 10280 20270 30006 40044 70522 8532/ 333 59025 70000 81710 84615 88459 81930==
41891,2023,09,10,00,00,AAXX 10004 41891 01435 81202 10275 20270 30003 40041 70522 8532/ 333 59031 70000 81710 84615 88459 81930==
41891,2023,09,10,03,00,AAXX 10034 41891 01440 71302 10304 20260 30009 40047 70522 84370 333 20275 59038 70000 84615 86460 81930==
41891,2023,09,10,06,00,AAXX 10064 41891 01440 62702 10338 20260 39996 40033 70522 83340 333 59031 70000 83615 85365 81930==
41891,2023,09,10,09,00,AAXX 10094 41891 01445 80904 10332 20250 39978 40015 70522 8532/ 333 58013 70000 81710 84615 88460 81930==
41891,2023,09,10,12,00,AAXX 10124 41891 11440 63102 10307 20270 39966 40003 69981 70562 83370 333 10352 59026 70008 83615 85460 81930==
41891,2023,09,10,15,00,AAXX 10154 41891 01430 72703 10290 20280 39990 40028 70522 85310 333 59018 70008 81710 83616 87459==
41891,2023,09,10,18,00,AAXX 10184 41891 01430 70903 10288 20280 39998 40036 70522 8532/ 333 59011 70008 81710 83616 87459==
41891,2023,09,10,21,00,AAXX 10214 41891 01330 81004 10262 20260 39990 40028 79596 8632/ 333 59016 70108 84710 81616 88458 81930==
41891,2023,09,11,00,00,AAXX 11004 41891 21330 81204 10253 20250 39983 40021 70596 85330 333 59020 60189 70188 82616 88459 81930==
41891,2023,09,11,03,00,AAXX 11034 41891 01450 60502 10304 20250 30002 40040 70522 83340 333 20250 59007 70188 83615 85365 81930==
41891,2023,09,11,06,00,AAXX 11064 41891 01450 63602 10344 20260 39985 40022 70522 83340 333 59011 70188 83615 85365 81930==
41891,2023,09,11,09,00,AAXX 11094 41891 01450 32704 10350 20260 39956 49993 70522 82530 333 59022 70188 82615 83365==
41891,2023,09,11,12,00,AAXX 11124 41891 01440 63102 10312 20260 39958 49995 70522 83340 333 10354 59008 70180 83615 85365 81930==
41891,2023,09,11,15,00,AAXX 11154 41891 01435 62502 10300 20270 39984 40022 70522 83340 333 59006 70180 83615 85365 81930==
41891,2023,09,11,18,00,AAXX 11184 41891 01430 82703 10287 20260 39994 40032 70522 8532/ 333 59004 70180 81710 84615 88459 81930==
41891,2023,09,11,21,00,AAXX 11214 41891 01320 81203 10265 20260 39988 40026 79596 8632/ 333 59002 70144 86708 88458 81925==
41891,2023,09,12,00,00,AAXX 12004 41891 21320 80902 10260 20250 39998 40036 79596 8632/ 333 58015 60187 70184 86708 88458 81925==
41891,2023,09,12,03,00,AAXX 12034 41891 01320 80904 10274 20260 30013 40051 79596 8632/ 333 20255 58011 70188 86708 88458 81925==
41891,2023,09,12,06,00,AAXX 12064 41891 01440 62304 10320 20260 39991 40028 72996 83370 333 58006 70190 83615 85460 81930==
41891,2023,09,12,09,00,AAXX 12094 41891 01450 62704 10325 20250 39963 40000 70522 82330 333 58007 70188 82615 85365 81930==
41891,2023,09,12,12,00,AAXX 12124 41891 01440 63102 10302 20260 39964 40002 70522 83340 333 10338 58006 70190 83615 85365 81930==
41891,2023,09,12,15,00,AAXX 12154 41891 01430 42804 10290 20270 39991 40029 70522 83310 333 58007 70190 82616 84459 81930==
41891,2023,09,12,18,00,AAXX 12184 41891 01430 52804 10285 20280 30001 40039 71322 83310 333 58007 70190 82616 85459 81930==
41891,2023,09,12,21,00,AAXX 12214 41891 01330 80903 10260 20250 39990 40028 79596 8692/ 333 58002 70226 85708 88458 81928==
41891,2023,09,13,00,00,AAXX 13004 41891 21330 80903 10258 20260 39996 40034 79596 8692/ 333 59002 60229 70226 85708 88458 81928==
41891,2023,09,13,03,00,AAXX 13034 41891 01435 80502 10264 20250 30015 40053 72996 8532/ 333 20256 58002 70456 83710 84615 88459 81930==
41891,2023,09,13,06,00,AAXX 13064 41891 11440 70902 10304 20250 30006 40044 60236 70596 84370 333 58015 70454 84615 86460 81930==
41891,2023,09,13,09,00,AAXX 13094 41891 01450 62804 10335 20260 39970 40007 70522 83340 333 58007 70454 83615 85365 81930==
41891,2023,09,13,12,00,AAXX 13124 41891 01440 62702 10310 20260 39973 40010 70522 83340 333 10340 58009 70454 83615 85365 81930==
41891,2023,09,13,15,00,AAXX 13154 41891 01435 62702 10292 20270 39996 40034 70522 83340 333 10340 58005 70454 83615 85365 81930==
41891,2023,09,13,18,00,AAXX 13184 41891 01320 82105 10280 20260 30019 40057 79596 8692/ 333 58018 70010 85708 88458 81926==
41891,2023,09,13,21,00,AAXX 13214 41891 01320 82704 10268 20260 30016 40054 79596 8692/ 333 58026 70496 86707 88458 81925==
41891,2023,09,14,00,00,AAXX 14004 41891 21430 82702 10260 20250 30011 40049 72196 8532/ 333 58015 60239 70476 82710 84615 88459 81930==
41891,2023,09,14,03,00,AAXX 14034 41891 01440 70502 10304 20250 30030 40068 70522 84370 333 20260 58015 70242 84615 86460 81930==
41891,2023,09,14,06,00,AAXX 14064 41891 01445 61304 10340 20230 30020 40057 70522 83340 333 58014 70242 83615 85365 81930==
41891,2023,09,14,09,00,AAXX 14094 41891 01450 41005 10345 20260 39996 40033 70522 83330 333 58000 70242 81616 84365 81930==
41891,2023,09,14,12,00,AAXX 14124 41891 01450 42004 10305 30003 40041 70522 83330 333 10350 58030 70242 82616 84365 81930==
41891,2023,09,14,15,00,AAXX 14154 41891 01430 82103 10285 20260 30032 40070 70522 8532/ 333 58036 70242 81710 84615 88459 81930==
41891,2023,09,14,18,00,AAXX 14184 41891 01430 82103 10280 20250 30041 40079 70522 8532/ 333 58022 70232 81710 84615 88459 81930==
41891,2023,09,14,21,00,AAXX 14214 41891 01430 82103 10275 20260 30036 40074 70522 8532/ 333 58020 70100 81710 84615 88459 81930==
41895,2023,09,08,00,00,AAXX 08004 41895 01450 80902 10266 20266 30015 40037 76162 8452/ 333 59002 70200 84615 88458==
41895,2023,09,08,03,00,AAXX 08034 41895 01456 80902 10282 20270 30038 40060 70262 8452/ 333 20257 58007 70294 84615 88458==
41895,2023,09,08,06,00,AAXX 08064 41895 11456 61303 10326 20280 30032 40053 60026 70162 83520 333 58009 70268 83616 86458==
41895,2023,09,08,09,00,AAXX 08094 41895 02456 61302 10290 20270 30009 40032 83520 333 58012 70298 83616 86458==
41895,2023,09,08,12,00,AAXX 08124 41895 11456 61302 10295 20270 30012 40034 69946 70262 83520 333 10340 58018 70236 83616 86458==
41895,2023,09,08,15,00,AAXX 08154 41895 02450 80501 10286 20280 30037 40059 8452/ 333 58015 70228 84615 88458==
41895,2023,09,08,18,00,AAXX 08184 41895 02450 83102 10280 20270 30041 40064 8452/ 333 58013 70228 84615 88458==
41895,2023,09,09,00,00,AAXX 09004 41895 02450 80000 10274 20270 30036 40058 8452/ 333 58021 70028 84615 88458==
41895,2023,09,09,03,00,AAXX 09034 41895 02456 62301 10310 20270 30052 40074 83520 333 20268 58014 70004 83616 86458==
41895,2023,09,09,06,00,AAXX 09064 41895 02457 62302 10346 20270 30039 40061 83520 333 58007 70004 83616 86458==
41895,2023,09,09,09,00,AAXX 09094 41895 01456 82304 10290 20260 30011 40034 76122 8452/ 333 58002 70008 84615 88458==
41895,2023,09,09,12,00,AAXX 09124 41895 21456 52301 10295 20280 30003 40025 70162 83520 333 10350 59009 60015 70008 83616 85458==
41895,2023,09,09,15,00,AAXX 09154 41895 02450 30000 10285 20280 30021 40044 83500 333 59016 70008 83616==
41895,2023,09,09,18,00,AAXX 09184 41895 02450 30000 10280 20270 30024 40046 83500 333 59017 70008 83616==
41895,2023,09,09,21,00,AAXX 09214 41895 02450 20000 10280 20270 30018 40040 82500 333 59015 70008 82617==
41895,2023,09,10,00,00,AAXX 10004 41895 02950 31301 10275 20275 30014 40037 80001 333 59022 70000 83074==
41895,2023,09,10,03,00,AAXX 10034 41895 02457 21802 10300 20280 30026 40048 82500 333 20270 59026 70008 82616==
41895,2023,09,10,06,00,AAXX 10064 41895 02557 21303 10344 20250 30015 40037 82100 333 59024 70008 82825==
41895,2023,09,10,09,00,AAXX 10094 41895 02457 21302 10350 20270 39990 40012 82500 333 59021 70000 82616==
41895,2023,09,10,12,00,AAXX 10124 41895 02456 21302 10330 20280 39983 40005 82500 333 10360 59020 70000 82616==
41895,2023,09,10,15,00,AAXX 10154 41895 02950 00000 10300 20290 39998 40020 333 59023 70000==
41895,2023,09,10,18,00,AAXX 10184 41895 02950 00000 10290 20280 30011 40033 333 59013 70000==
41895,2023,09,10,21,00,AAXX 10214 41895 02950 00000 10284 20270 30004 40026 333 59014 70000==
41895,2023,09,11,00,00,AAXX 11004 41895 02450 61301 10278 20278 39997 40019 83520 333 59017 70000 83616 86458==
41895,2023,09,11,03,00,AAXX 11034 41895 02457 32702 10310 20270 30013 40035 81501 333 20275 59013 70000 81616 83074==
41895,2023,09,11,06,00,AAXX 11064 41895 02557 41302 10350 20270 30006 40027 82101 333 59009 70000 82825 83074==
41895,2023,09,11,09,00,AAXX 11094 41895 02557 40902 10350 20260 39976 49998 82101 333 59014 70000 82825 83074==
41895,2023,09,11,12,00,AAXX 11124 41895 02450 51301 10338 20280 39972 49993 83510 333 10360 59011 70000 83616 85458==
41895,2023,09,11,15,00,AAXX 11154 41895 01450 81802 10270 20250 30005 40027 76122 8452/ 333 58007 70008 84615 88458==
41895,2023,09,11,18,00,AAXX 11184 41895 11450 62302 10268 20260 30006 40028 60016 70162 83520 333 59005 70008 83616 86458==
41895,2023,09,11,21,00,AAXX 11214 41895 02450 60000 10270 20270 30003 40025 83520 333 59001 70008 83616 86458==
41895,2023,09,12,03,00,AAXX 12034 41895 02456 61302 10308 20280 30013 40035 83510 333 20266 58000 70008 83616 86458==
41895,2023,09,12,06,00,AAXX 12064 41895 02457 52701 10336 20280 30003 40024 83410 333 59003 70008 82616 83820 85458==
41895,2023,09,12,09,00,AAXX 12094 41895 01456 80000 10280 20260 39987 40009 76192 8452/ 333 58011 70020 84615 88458==
41895,2023,09,12,12,00,AAXX 12124 41895 21450 80000 10285 20280 39989 40011 70296 8452/ 333 10340 58017 60015 70022 84615 88458==
41895,2023,09,12,15,00,AAXX 12154 41895 02450 80000 10280 20270 30010 40033 8352/ 333 58005 70014 83616 88458==
41895,2023,09,12,18,00,AAXX 12184 41895 02450 80000 10275 20275 30011 40034 8352/ 333 58005 70014 83616 88458==
41895,2023,09,12,21,00,AAXX 12214 41895 02450 50000 10275 20275 30004 40026 83520 333 58001 70014 83616 85458==
41895,2023,09,13,00,00,AAXX 13004 41895 02950 80000 10270 20260 39998 40020 80001 333 59003 70014 83074==
41895,2023,09,13,03,00,AAXX 13034 41895 02456 60502 10303 20280 30015 40037 83510 333 20265 58002 70014 83616 86458==
41895,2023,09,13,06,00,AAXX 13064 41895 02456 70904 10324 20260 30010 40032 84470 333 58007 70014 83616 86458==
41895,2023,09,13,09,00,AAXX 13094 41895 02456 70503 10337 20270 39984 40005 84470 333 59003 70002 83616 86458==
41895,2023,09,13,12,00,AAXX 13124 41895 02450 30902 10320 20260 39973 49994 83500 333 10341 59016 70000 83616==
41895,2023,09,13,15,00,AAXX 13154 41895 02450 30901 10293 20270 30001 40023 83500 333 59009 70000 83616==
41895,2023,09,13,18,00,AAXX 13184 41895 01450 50000 10266 20260 30018 40040 72162 83520 333 58007 70110 83616 85458==
41895,2023,09,13,21,00,AAXX 13214 41895 02450 50902 10270 20260 30006 40028 83520 333 58002 70110 83616 85458==
41895,2023,09,14,00,00,AAXX 14004 41895 02450 50903 10272 20260 30004 40026 83520 333 58006 70110 83616 85458==
41895,2023,09,14,03,00,AAXX 14034 41895 02457 30906 10296 20260 30024 40046 83500 333 20264 58009 70110 83616==
41895,2023,09,14,06,00,AAXX 14064 41895 02457 40907 10320 20260 30024 40046 84400 333 58014 72616 83820==
41895,2023,09,14,09,00,AAXX 14094 41895 02557 30506 10339 20260 39993 40015 83100 333 58009 70110 83825==
41895,2023,09,14,12,00,AAXX 14124 41895 02456 30504 10305 20260 39998 40020 83500 333 10340 58025 70110 83616==
41895,2023,09,14,15,00,AAXX 14154 41895 02950 00901 10285 20270 30023 40045 333 58022 70110==
41895,2023,09,14,18,00,AAXX 14184 41895 02950 00904 10280 20260 30030 40053 333 59012 70000==
41895,2023,09,14,21,00,AAXX 14214 41895 02450 30902 10280 20260 30026 40049 83500 333 58020 70000 83616==
41897,2023,09,08,00,00,AAXX 08004 41897 11440 80903 10265 20260 30030 40043 60179 76166 8472/ 333 56990 58000 70320 83707 88458=
41897,2023,09,08,06,00,AAXX 08064 41897 11450 71802 10310 20260 30042 40055 60097 70362 82510 333 56990 58010 70410 82617 87458=
41897,2023,09,08,18,00,AAXX 08184 41897 32440 61802 10280 20260 30054 40067 82510 333 56990 58021 70280 82618 86458=
41897,2023,09,09,00,00,AAXX 09004 41897 32440 61802 10275 20270 30045 40058 82530 333 56990 58015 70110 82618 86362=
41897,2023,09,09,06,00,AAXX 09064 41897 32450 51802 10335 20250 30048 40061 82530 333 56990 58006 70020 82618 85458=
41897,2023,09,09,12,00,AAXX 09124 41897 32450 31802 10315 20260 30012 40025 81530 333 10350 56990 59011 70000 81618 83362=
41897,2023,09,09,18,00,AAXX 09184 41897 32940 00000 10285 20280 30032 40045 333 59022 70000=
41897,2023,09,10,00,00,AAXX 10004 41897 32940 01802 10276 20270 30024 40037 333 59011 70000=
41897,2023,09,10,06,00,AAXX 10064 41897 32456 31802 10340 20240 30023 40035 81510 333 56990 59025 70000 81618 83458=
41897,2023,09,10,12,00,AAXX 10124 41897 32456 31801 10330 20270 39991 40004 81510 333 10360 56690 59021 70000 81618 83459=
41897,2023,09,10,18,00,AAXX 10184 41897 32956 01301 10294 20280 30018 40031 333 59014 70000=
41897,2023,09,11,00,00,AAXX 11004 41897 32956 11801 10280 20270 30004 40017 81010 333 56090 59020 70000 81459=
41897,2023,09,11,06,00,AAXX 11064 41897 31450 41501 10339 20260 30016 40029 70500 82410 333 56490 59007 70000 81618 84459=
41897,2023,09,11,12,00,AAXX 11124 41897 31456 61101 10322 20260 39984 49997 71722 83310 333 10352 56490 59007 70000 83618 81930 86458=
41897,2023,09,12,06,00,AAXX 12064 41897 11450 50901 10318 20270 30014 40027 69934 72121 84470 333 56490 59002 70003 84618 85459=
41897,2023,09,12,12,00,AAXX 12124 41897 32456 81501 10308 20280 39993 40006 8452/ 333 10338 56390 58009 70003 84618 88458=
41897,2023,09,12,18,00,AAXX 12184 41897 32956 00000 10285 20280 30019 40032 333 58004 70003=
41897,2023,09,13,00,00,AAXX 13004 41897 11456 80901 10270 20270 30005 40018 60012 79596 8532/ 333 56399 59003 70017 85617 81928 88458=
41897,2023,09,13,06,00,AAXX 13064 41897 11456 31302 10330 20250 30020 40033 60016 70196 83430 333 56290 58006 70021 83618 83362=
41897,2023,09,13,12,00,AAXX 13124 41897 32456 50901 10310 20270 39987 40000 82530 333 10344 56990 59006 70021 82618 85362=
41897,2023,09,13,18,00,AAXX 13184 41897 32450 50902 10288 20270 30030 40043 82530 333 56990 59011 70011 82618 85362=
41897,2023,09,14,00,00,AAXX 14004 41897 32450 60902 10270 20250 30026 40039 82530 333 56990 58021 70007 82618 86362=
41897,2023,09,14,06,00,AAXX 14064 41897 32456 40902 10315 20250 30038 40051 82530 333 56990 58018 70000 82618 85362=
41897,2023,09,14,12,00,AAXX 14124 41897 32456 40902 10320 20260 30002 40015 81530 333 10335 56990 58015 70000 81618 84362=
41897,2023,09,14,18,00,AAXX 14184 41897 32450 51801 10284 20240 30042 40055 82530 333 56990 58012 70000 82618 85362=
41902,2023,09,08,00,00,AAXX 08004 41902 32430 60903 10280 20260 30039 40047 84410 333 56290 58002 70345 83614 86459=
41902,2023,09,08,06,00,AAXX 08064 41902 32440 60902 10300 20260 30056 40064 83430 333 56290 58017 70235 82614 85362=
41902,2023,09,09,00,00,AAXX 09004 41902 32430 50901 10275 20260 30053 40061 82530 333 56290 58014 70000 82614 85362=
41902,2023,09,09,06,00,AAXX 09064 41902 32440 60802 10333 20270 30049 40057 83400 333 56200 59007 70000 82614=
41902,2023,09,09,12,00,AAXX 09124 41902 32440 50501 10307 20280 30012 40021 82410 333 10340 56190 59022 70000 82614 85459=
41902,2023,09,09,18,00,AAXX 09184 41902 NIL=
41902,2023,09,10,00,00,AAXX 10004 41902 32430 40000 10275 20270 30025 40033 82530 333 56990 59028 70000 82614 83362=
41902,2023,09,10,06,00,AAXX 10064 41902 32440 40501 10315 20260 30018 40026 83430 333 56990 59031 70000 82614 83362=
41902,2023,09,10,12,00,AAXX 10124 41902 11440 52201 10290 20270 39995 40004 69916 70162 82520 333 10336 56990 59012 70001 82615 85458=
41902,2023,09,10,18,00,AAXX 10184 41902 32440 21801 10285 20280 30016 40024 82540 333 56900 59009 70001 82616=
41902,2023,09,11,00,00,AAXX 11004 41902 31430 80000 10280 20270 30011 40020 71792 8592/ 333 56999 59014 70001 84615 81928 88458=
41902,2023,09,11,06,00,AAXX 11064 41902 11440 50501 10335 20270 30008 40017 60028 70162 82430 333 56990 59010 70020 82616 85362=
41902,2023,09,11,12,00,AAXX 11124 41902 32440 72201 10302 20270 39992 40001 83520 333 10345 56990 59003 70020 83615 87459=
41902,2023,09,11,18,00,AAXX 11184 41902 32430 62203 10280 20260 30012 40021 82520 333 56990 59004 70020 82615 86459=
41902,2023,09,12,00,00,AAXX 12004 41902 11430 80501 10272 20260 30014 40022 60023 79592 8692/ 333 56999 58004 70035 84613 88458=
41902,2023,09,12,06,00,AAXX 12064 41902 11450 60501 10312 20260 30018 40026 60176 70162 82510 333 56990 58010 70181 82615 86259=
41902,2023,09,12,12,00,AAXX 12124 41902 32450 60502 10297 20270 39995 40004 82570 333 10320 56990 58003 70181 82615 86362=
41902,2023,09,12,18,00,AAXX 12184 41902 31440 72702 10285 20280 30021 40029 71322 85320 333 56990 58009 70181 82615 81928 87459=
41902,2023,09,13,00,00,AAXX 13004 41902 11450 81801 10275 20270 30010 40019 60076 70396 8452/ 333 56999 59004 70230 84614 88458=
41902,2023,09,13,06,00,AAXX 13064 41902 32456 60504 10330 20280 30021 40030 82430 333 56990 58003 70065 82616 86362=
41902,2023,09,13,12,00,AAXX 13124 41902 32450 50502 10302 20270 39999 40008 82430 333 10340 56990 58004 70065 82616 85362=
41902,2023,09,13,18,00,AAXX 13184 41902 NIL=
41902,2023,09,14,00,00,AAXX 14004 41902 32450 50503 10276 20260 30033 40041 82530 333 56990 58023 70025 82616 85362=
41902,2023,09,14,06,00,AAXX 14064 41902 32457 50502 10350 20280 30037 40046 82430 333 56990 58016 70025 82616 85362=
41902,2023,09,14,12,00,AAXX 14124 41902 11450 71402 10295 20260 30024 40033 60085 70362 83520 333 10355 56490 58025 70105 83615 87459=
41902,2023,09,14,18,00,AAXX 14184 41902 32430 72403 10282 20250 30054 40062 83520 333 56490 58022 70080 83615 88459=
41907,2023,09,08,00,00,AAXX 08004 41907 01340 81302 10275 20270 30017 40031 76162 8672/ 333 59003 70020 85709 88458==
41907,2023,09,08,03,00,AAXX 08034 41907 01450 81304 10286 20270 30043 40058 70262 8551/ 333 20268 58009 70067 85615 88458==
41907,2023,09,08,06,00,AAXX 08064 41907 11350 81304 10315 20270 30035 40050 60016 70262 8662/ 333 58010 70042 83709 85615 88458==
41907,2023,09,08,09,00,AAXX 08094 41907 01450 81302 10305 20270 30014 40028 70262 8452/ 333 58016 70124 84615 88458==
41907,2023,09,08,12,00,AAXX 08124 41907 11450 60902 10290 20260 30019 40033 60086 70162 82530 333 10322 58019 70124 82615 86360==
41907,2023,09,08,15,00,AAXX 08154 41907 02440 80000 10275 20260 30042 40056 8552/ 333 58015 70112 85615 88458==
41907,2023,09,08,18,00,AAXX 08184 41907 02440 81302 10275 20260 30046 40061 8552/ 333 58016 70112 85615 88458==
41907,2023,09,08,21,00,AAXX 08214 41907 02440 81302 10271 20260 30039 40054 8552/ 333 58025 70112 85615 88458==
41907,2023,09,09,00,00,AAXX 09004 41907 02440 81302 10270 20260 30039 40054 8552/ 333 58022 70092 85615 88458==
41907,2023,09,09,03,00,AAXX 09034 41907 02450 50902 10302 20270 30047 40062 84830 333 20268 58004 70082 82615 84362==
41907,2023,09,09,06,00,AAXX 09064 41907 02450 51302 10340 20270 30043 40057 85800 333 58008 70082 82615 83825==
41907,2023,09,09,09,00,AAXX 09094 41907 02456 31304 10352 20250 30008 40023 83800 333 59006 70000 82615==
41907,2023,09,09,12,00,AAXX 09124 41907 02450 52702 10310 20270 30007 40022 83501 333 10360 59012 70000 83615==
41907,2023,09,09,15,00,AAXX 09154 41907 02940 00000 10285 20280 30026 40040 333 59016 70000==
41907,2023,09,09,18,00,AAXX 09184 41907 02940 00000 10278 20270 30028 40042 333 59018 70000==
41907,2023,09,09,21,00,AAXX 09214 41907 02940 00000 10275 20270 30023 40037 333 59016 70000==
41907,2023,09,10,00,00,AAXX 10004 41907 02940 00000 10272 20260 30018 40033 333 59021 70000==
41907,2023,09,10,03,00,AAXX 10034 41907 02950 02302 10315 20270 30031 40045 333 20027 59016 70000==
41907,2023,09,10,06,00,AAXX 10064 41907 02450 62302 10347 20300 30018 40032 85530 333 59025 70000 85615 86360==
41907,2023,09,10,09,00,AAXX 10094 41907 02450 42302 10358 20250 39993 40007 84800 333 59015 70000 82615==
41907,2023,09,10,12,00,AAXX 10124 41907 02450 61301 10328 20280 39989 40004 83810 333 10360 59018 70000 83615 85458==
41907,2023,09,10,15,00,AAXX 10154 41907 02940 00000 10290 20280 30005 40019 333 59021 70000==
41907,2023,09,10,18,00,AAXX 10184 41907 02940 01802 10288 20280 30016 40031 333 59012 70000==
41907,2023,09,10,21,00,AAXX 10214 41907 02940 00000 10282 20260 30007 40022 333 59016 70000==
41907,2023,09,11,00,00,AAXX 11004 41907 02/40 51802 10272 20270 30000 40015 83031 333 59018 70000 83360 80380==
41907,2023,09,11,03,00,AAXX 11034 41907 02/50 21802 10316 20270 30017 40032 82030 333 20275 59014 70000 82360==
41907,2023,09,11,06,00,AAXX 11064 41907 02450 62202 10340 20250 30009 40023 83830 333 59009 70000 82615 85362==
41907,2023,09,11,09,00,AAXX 11094 41907 02450 62302 10363 20250 39978 49992 83830 333 59015 70000 82615 85362==
41907,2023,09,11,12,00,AAXX 11124 41907 02350 82302 10340 20280 39979 49993 8662/ 333 10367 59010 70000 82709 85615 88458==
41907,2023,09,11,15,00,AAXX 11154 41907 01340 80000 10290 20270 30009 40023 70262 8662/ 333 58004 70050 85709 88458==
41907,2023,09,11,18,00,AAXX 11184 41907 21340 80000 10280 20260 30014 40029 70262 8662/ 333 59002 60058 70050 82709 85615 88458==
41907,2023,09,11,21,00,AAXX 11214 41907 02340 80000 10270 20260 30007 40022 8662/ 333 58000 70050 82709 85615 88458==
41907,2023,09,12,00,00,AAXX 12004 41907 02340 80000 10269 20260 30004 40019 8662/ 333 58004 70050 82709 85615 88458==
41907,2023,09,12,03,00,AAXX 12034 41907 02450 70000 10310 20270 30024 40038 85810 333 20263 58007 70050 84615 87458==
41907,2023,09,12,06,00,AAXX 12064 41907 02345 80000 10330 20270 30009 40023 8632/ 333 58000 70050 85615 88458 81930==
41907,2023,09,12,09,00,AAXX 12094 41907 02550 62702 10320 20260 39987 40002 82170 333 58009 70050 82825 85458==
41907,2023,09,12,12,00,AAXX 12124 41907 01440 82202 10272 20260 39991 40006 72162 8552/ 333 10338 58012 70050 85615 88458==
41907,2023,09,12,15,00,AAXX 12154 41907 02440 80000 10280 20260 30012 40027 8552/ 333 58004 70052 85615 88458==
41907,2023,09,12,18,00,AAXX 12184 41907 02440 80000 10273 20260 30020 40035 8552/ 333 58006 70052 85615 88458==
41907,2023,09,12,21,00,AAXX 12214 41907 02440 80000 10268 20260 30011 40026 8552/ 333 58004 70052 83615 88458==
41907,2023,09,13,00,00,AAXX 13004 41907 01330 80000 10267 20267 30004 40019 70522 8662/ 333 58000 70052 83709 85615 88458==
41907,2023,09,13,03,00,AAXX 13034 41907 02450 81802 10290 20280 30018 40032 8452/ 333 20263 59006 70052 84615 88458==
41907,2023,09,13,06,00,AAXX 13064 41907 02450 60904 10325 20270 30013 40028 84810 333 58004 70052 81615 83825 85458==
41907,2023,09,13,09,00,AAXX 13094 41907 02450 30905 10343 20250 39985 49999 83800 333 59002 70052 82825==
41907,2023,09,13,12,00,AAXX 13124 41907 02445 20000 10312 20260 39979 49993 83800 333 10350 59012 70000 82825==
41907,2023,09,13,15,00,AAXX 13154 41907 02440 70000 10288 20270 30013 40028 84510 333 58001 70000 84615 85458==
41907,2023,09,13,18,00,AAXX 13184 41907 02940 01302 10288 20260 30021 40036 333 58001 70000==
41907,2023,09,13,21,00,AAXX 13214 41907 02440 61302 10282 20250 30014 40029 83510 333 58003 70000 83615 85458==
41907,2023,09,14,00,00,AAXX 14004 41907 01440 71303 10274 20250 30008 40023 70362 85510 333 58004 70006 85615 85458==
41907,2023,09,14,03,00,AAXX 14034 41907 02350 60904 10295 20260 30029 40043 85610 333 20270 58011 70006 82615 83615 85458==
41907,2023,09,14,06,00,AAXX 14064 41907 02450 51802 10325 20280 30027 40041 85800 333 58014 70006 82615 83825==
41907,2023,09,14,09,00,AAXX 14094 41907 02956 01310 10325 20250 30001 40016 333 58016 70006==
41907,2023,09,14,12,00,AAXX 14124 41907 02950 01306 10300 20260 30002 40017 333 10332 58023 70006==
41907,2023,09,14,15,00,AAXX 14154 41907 02940 00000 10282 20260 30030 40045 333 58017 70006==
41907,2023,09,14,18,00,AAXX 14184 41907 02440 51302 10278 20260 30036 40050 82510 333 58015 70006 82615 85458==
41907,2023,09,14,21,00,AAXX 14214 41907 02440 51302 10278 20260 30029 40043 82510 333 59015 70006 82615 85458==
41909,2023,09,08,00,00,AAXX 08004 41909 21340 80000 10268 20260 30028 40039 79596 8592/ 333 59003 60389 70560 84708 88458 81930==
41909,2023,09,08,03,00,AAXX 08034 41909 01350 81802 10293 20270 30051 40062 70296 8592/ 333 20245 58005 70640 84708 88458 81930==
41909,2023,09,08,06,00,AAXX 08064 41909 01456 80000 10299 20270 30049 40060 76162 8552/ 333 58013 70650 85614 88458==
41909,2023,09,08,09,00,AAXX 08094 41909 01456 81801 10308 20260 30027 40038 70262 8552/ 333 58021 70650 85614 88458==
41909,2023,09,08,15,00,AAXX 08154 41909 02430 81801 10289 20260 30052 40063 8452/ 333 58017 70500 83614 88458==
41909,2023,09,08,18,00,AAXX 08184 41909 02430 81801 10282 20260 30056 40067 8452/ 333 58018 70480 83614 88458==
41909,2023,09,08,21,00,AAXX 08214 41909 02430 60000 10280 20260 30052 40063 83530 333 58018 70300 83615 86362==
41909,2023,09,09,00,00,AAXX 09004 41909 02450 60000 10279 20260 30049 40060 83530 333 58021 70100 83615 86362==
41909,2023,09,09,03,00,AAXX 09034 41909 02356 81801 10299 20260 30065 40076 8362/ 333 20250 58014 70020 82708 85614 88460==
41909,2023,09,09,06,00,AAXX 09064 41909 02456 51801 10334 20250 30049 40060 82530 333 58000 70010 82615 85362==
41909,2023,09,09,09,00,AAXX 09094 41909 02456 71302 10330 20290 30018 40029 84370 333 59009 70000 84614 86460 81930==
41909,2023,09,09,12,00,AAXX 09124 41909 02456 50000 10320 20270 30011 40022 82530 333 10345 59014 70000 82615 84365==
41909,2023,09,09,15,00,AAXX 09154 41909 02950 00000 10295 20270 30032 40043 333 59020 70000==
41909,2023,09,09,18,00,AAXX 09184 41909 02940 00000 10283 20260 30032 40043 333 59024 70000==
41909,2023,09,09,21,00,AAXX 09214 41909 02940 00000 10282 20270 30029 40040 333 59023 70000==
41909,2023,09,10,00,00,AAXX 10004 41909 01/45 30000 10280 20270 30024 40035 70500 83030 333 59025 70000 83365==
41909,2023,09,10,03,00,AAXX 10034 41909 02456 82302 10304 20270 30034 40045 8352/ 333 20258 59031 70000 83615 88458==
41909,2023,09,10,06,00,AAXX 10064 41909 02456 50000 10330 20260 30023 40034 82530 333 59026 70000 82615 85362==
41909,2023,09,10,09,00,AAXX 10094 41909 02456 70000 10344 20270 30002 40014 84570 333 59016 70000 84614 85460==
41909,2023,09,10,12,00,AAXX 10124 41909 02450 70000 10328 20280 39991 40003 84570 333 10350 59020 70000 84614 85460==
41909,2023,09,10,15,00,AAXX 10154 41909 02940 00000 10298 20270 30011 40022 333 59021 70000==
41909,2023,09,10,18,00,AAXX 10184 41909 02940 00000 10290 20270 30010 40029 333 59014 70000==
41909,2023,09,10,21,00,AAXX 10214 41909 02940 00000 10285 20270 30016 40027 333 59013 70000==
41909,2023,09,11,00,00,AAXX 11004 41909 01450 50000 10285 20270 30004 40015 70500 82530 333 59020 70000 82615 85362==
41909,2023,09,11,03,00,AAXX 11034 41909 02456 60000 10301 20260 30023 40034 83510 333 20275 59011 70000 83615 86458==
41909,2023,09,11,06,00,AAXX 11064 41909 02456 81801 10322 20270 30016 40027 8452/ 333 59007 70000 84615 88458==
41909,2023,09,11,09,00,AAXX 11094 41909 01350 81801 10324 20270 39987 49998 71722 8592/ 333 59015 70030 83708 85614 88458 81930==
41909,2023,09,11,12,00,AAXX 11124 41909 01350 81801 10284 20260 39988 49999 72996 8562/ 333 10350 59003 70050 83708 85614 88458==
41909,2023,09,11,15,00,AAXX 11154 41909 02430 50000 10282 20260 30010 40021 82530 333 59001 70050 82615 84365==
41909,2023,09,11,21,00,AAXX 11214 41909 02940 00000 10281 20260 30014 40025 333 59002 70050==
41909,2023,09,12,00,00,AAXX 12004 41909 01450 50000 10282 20270 30009 40020 70500 82530 333 58005 70050 82615 84365==
41909,2023,09,12,03,00,AAXX 12034 41909 01450 80000 10294 20270 30028 40039 70520 8352/ 333 20256 58005 70050 83615 88458==
41909,2023,09,12,06,00,AAXX 12064 41909 02456 61801 10322 20270 30017 40028 82510 333 58001 70050 82615 86458==
41909,2023,09,12,09,00,AAXX 12094 41909 02456 60000 10325 20270 39990 40001 83530 333 58003 70020 83615 84365==
41909,2023,09,12,12,00,AAXX 12124 41909 02450 50000 10308 20270 39992 40003 82530 333 10330 58004 70000 82615 84365==
41909,2023,09,12,15,00,AAXX 12154 41909 02/50 40000 10292 20270 30013 40024 84030 333 58003 70000 84365==
41909,2023,09,12,18,00,AAXX 12184 41909 02940 00000 10286 20280 30022 40033 333 58006 70000==
41909,2023,09,12,21,00,AAXX 12214 41909 02440 60000 10284 20260 30016 40027 83530 333 58002 70000 83614 84362==
41909,2023,09,13,00,00,AAXX 13004 41909 02350 80000 10283 20260 30007 40018 8662/ 333 59002 70000 83708 84614 88458==
41909,2023,09,13,03,00,AAXX 13034 41909 02456 81802 10317 20270 30024 40035 8352/ 333 20260 59004 70000 83615 88458==
41909,2023,09,13,06,00,AAXX 13064 41909 02456 51802 10340 20250 30021 40032 82530 333 58004 70000 82615 85362==
41909,2023,09,13,09,00,AAXX 13094 41909 02456 61802 10345 20240 39995 40007 82530 333 58005 70000 82615 84365==
41909,2023,09,13,12,00,AAXX 13124 41909 02450 71802 10320 20290 39988 49999 84570 333 10350 59004 70000 84614 85460==
41909,2023,09,13,15,00,AAXX 13154 41909 02440 80000 10296 20270 30018 40029 8662/ 333 58005 70000 83708 84614 88458==
41909,2023,09,13,18,00,AAXX 13184 41909 02440 80000 10296 20270 30018 40029 8662/ 333 58005 70000 83708 84614 88458==
41909,2023,09,13,21,00,AAXX 13214 41909 02440 80000 10275 20270 30024 40035 8352/ 333 58004 70000 83615 88458==
41909,2023,09,14,00,00,AAXX 14004 41909 02450 81802 10265 20260 30024 40035 8352/ 333 58017 70000 83615 88458==
41909,2023,09,14,03,00,AAXX 14034 41909 02456 21304 10314 20230 30037 40048 82500 333 20252 58013 70000 82618==
41909,2023,09,14,06,00,AAXX 14064 41909 02456 21304 10333 20240 30039 40050 82500 333 58018 70000 82618==
41909,2023,09,14,09,00,AAXX 14094 41909 02456 21304 10333 20240 30039 40050 82500 333 58018 70000 82618==
41909,2023,09,14,12,00,AAXX 14124 41909 02456 31302 10308 20260 30011 40022 82830 333 10345 58023 70000 81618 83360==
41909,2023,09,14,15,00,AAXX 14154 41909 02440 11802 10289 20260 30043 40054 81500 333 58025 70000 81618==
41909,2023,09,14,18,00,AAXX 14184 41909 02940 01802 10278 20260 30041 40052 333 58012 70000==
41909,2023,09,14,21,00,AAXX 14214 41909 02440 61802 10274 20250 30036 40047 81530 333 58012 70000 81615 85360==
41915,2023,09,08,00,00,AAXX 08004 41915 02456 80000 10277 20260 30046 40071 8552/ 333 58010 70018 85617 88458==
41915,2023,09,08,03,00,AAXX 08034 41915 02456 71301 10296 20270 30059 40084 85420 333 20265 59009 74615 87458==
41915,2023,09,08,06,00,AAXX 08064 41915 02456 71302 10324 20250 30046 40070 85420 333 58013 70000 84616 87458==
41915,2023,09,08,09,00,AAXX 08094 41915 01456 80000 10270 20260 30032 40057 76162 8672/ 333 58033 70070 83710 83616 88458==
41915,2023,09,08,15,00,AAXX 08154 41915 02450 70000 10254 20240 30050 40075 85420 333 58011 70072 84616 87458==
41915,2023,09,08,18,00,AAXX 08184 41915 02450 50000 10285 20260 30051 40076 84420 333 58014 70072 83616 85458==
41915,2023,09,09,06,00,AAXX 09064 41915 NIL=
41915,2023,09,09,09,00,AAXX 09094 41915 02456 60000 10326 20260 30003 40028 84430 333 59029 70002 84616 85362==
41915,2023,09,09,12,00,AAXX 09124 41915 02456 50000 10300 20280 30003 40028 84454 333 10342 59030 70000 83616 83362==
41915,2023,09,09,15,00,AAXX 09154 41915 02456 30000 10280 20270 30020 40045 82410 333 59030 70000 82616==
41915,2023,09,09,18,00,AAXX 09184 41915 02450 20000 10273 20260 30023 40048 82410 333 59028 70000 81616==
41915,2023,09,09,21,00,AAXX 09214 41915 02450 60000 10270 20250 30019 40044 84430 333 59027 70000 83616 85362==
41915,2023,09,10,00,00,AAXX 10004 41915 02456 80000 10266 20260 30014 40039 8552/ 333 59034 70000 85617 84858==
41915,2023,09,10,03,00,AAXX 10034 41915 02456 50000 10301 20260 30027 40052 83540 333 20265 59028 70000 82617 83362==
41915,2023,09,10,06,00,AAXX 10064 41915 02456 61302 10320 20250 30008 40033 84470 333 59031 70000 83616 83458==
41915,2023,09,10,09,00,AAXX 10094 41915 02456 52702 10322 20250 39992 40017 83430 333 59011 70000 82616 83362==
41915,2023,09,10,12,00,AAXX 10124 41915 02456 42601 10306 20280 39984 40009 83320 333 10340 59019 70000 82616 83458 81930==
41915,2023,09,10,15,00,AAXX 10154 41915 02450 40000 10283 20270 30009 40034 82510 333 59011 70000 82616 83459==
41915,2023,09,10,18,00,AAXX 10184 41915 02450 40000 10275 20270 30014 40039 82570 333 59009 70000 82616 83459==
41915,2023,09,10,21,00,AAXX 10214 41915 01440 70000 10275 20270 30004 40029 70522 83510 333 59015 70000 83616 87459==
41915,2023,09,11,00,00,AAXX 11004 41915 21435 51301 10272 20270 30000 40025 70562 82570 333 59014 69925 70002 82616 84458==
41915,2023,09,11,03,00,AAXX 11034 41915 02456 60000 10310 20260 30014 40039 84510 333 20272 59014 70002 84616 83458==
41915,2023,09,11,06,00,AAXX 11064 41915 02456 70000 10326 20270 39999 40024 86410 333 59009 70002 84616 85458==
41915,2023,09,11,09,00,AAXX 11094 41915 02457 33102 10345 20260 39966 49990 83302 333 59026 70002 82616 81930==
41915,2023,09,12,06,00,AAXX 12064 41915 11457 43101 10330 20260 30002 40027 69966 70162 84430 333 58003 70060 83616==
41915,2023,09,12,09,00,AAXX 12094 41915 02456 60000 10330 20270 39974 49998 85411 333 58008 70060 84616 84458==
41915,2023,09,12,12,00,AAXX 12124 41915 02450 72302 10300 20280 39982 40007 85320 333 10350 58006 70060 84615 87458 81928==
41915,2023,09,12,15,00,AAXX 12154 41915 02440 80000 10284 20260 30012 40037 85420 333 58004 70060 84616 86458==
41915,2023,09,12,18,00,AAXX 12184 41915 01440 71303 10280 20260 30017 40042 71322 85320 333 58005 70052 84616 87458 81928==
41915,2023,09,12,21,00,AAXX 12214 41915 01440 80000 10264 20240 30012 40037 71792 8632/ 333 58010 70020 82712 85616 88458 81928==
41915,2023,09,13,00,00,AAXX 13004 41915 21456 70901 10260 20250 30010 40035 70196 85420 333 59003 60067 70066 84616 87458==
41915,2023,09,13,03,00,AAXX 13034 41915 02456 73602 10288 20260 30025 40050 85410 333 20259 59001 70060 84615 87459==
41915,2023,09,13,06,00,AAXX 13064 41915 02456 71501 10318 20260 30018 40043 84470 333 58016 70060 83616 84459==
41915,2023,09,13,09,00,AAXX 13094 41915 02456 60000 10330 20240 39983 40008 85402 333 58009 70060 84616==
41915,2023,09,13,12,00,AAXX 13124 41915 02456 60000 10292 20270 39992 40017 85402 333 10345 58010 70060 84616==
41915,2023,09,13,15,00,AAXX 13154 41915 02450 70000 10283 20250 30023 40048 86420 333 58011 70060 85616 87458==
41915,2023,09,13,18,00,AAXX 13184 41915 02450 80000 10279 20260 30028 40053 8552/ 333 58011 70060 85616 88458==
41915,2023,09,13,21,00,AAXX 13214 41915 01440 81801 10266 20260 30025 40050 79596 8692/ 333 58013 70082 85615 88458 81925==
41915,2023,09,14,00,00,AAXX 14004 41915 21450 71301 10265 20260 30027 40052 70196 85620 333 58017 60028 70022 82712 84615 87458==
41915,2023,09,14,03,00,AAXX 14034 41915 02456 70000 10280 20260 30044 40069 85470 333 20262 58019 70022 84616 84458==
41915,2023,09,14,06,00,AAXX 14064 41915 02456 60602 10320 20260 30034 40059 85430 333 58016 70022 84616 84362==
41915,2023,09,14,09,00,AAXX 14094 41915 01456 80601 10322 20250 30015 40048 71722 8962/ 333 58032 70022 82710 85616 88458 81928==
41915,2023,09,14,12,00,AAXX 14124 41915 21450 71301 10282 20270 30011 40036 70196 85320 333 10351 58019 60057 70072 84615 85458 81928==
41915,2023,09,14,15,00,AAXX 14154 41915 02450 20000 10275 20260 30030 40056 81510 333 58007 70072 81616==
41915,2023,09,14,18,00,AAXX 14184 41915 02450 80000 10266 20250 30051 40076 8552/ 333 58023 70072 85617 88458==
41915,2023,09,14,21,00,AAXX 14214 41915 02450 80000 10260 20250 30039 40064 8552/ 333 58014 70050 85617 88458==
41923,2023,09,08,00,00,AAXX 08004 41923 01340 80302 10279 20260 30037 40047 70262 8532/ 333 59001 70054 82709 84615 88458 81930==
41923,2023,09,08,03,00,AAXX 08034 41923 01340 80302 10283 20260 30061 40071 76122 8632/ 333 20275 58010 70054 83709 84615 88458 81930==
41923,2023,09,08,06,00,AAXX 08064 41923 21340 81802 10312 20250 30059 40069 70262 8532/ 333 58022 60007 70054 83709 84615 88458 81930==
41923,2023,09,08,09,00,AAXX 08094 41923 02450 71804 10314 20250 30034 40044 85370 333 58026 70054 83615 83824 85458 81930==
41923,2023,09,08,12,00,AAXX 08124 41923 02450 71803 10300 20250 30036 40046 85370 333 10325 58016 70006 83615 83825 85458 81930==
41923,2023,09,08,15,00,AAXX 08154 41923 02345 40903 10284 20240 30061 40071 84600 333 58017 70004 82709 83615==
41923,2023,09,08,18,00,AAXX 08184 41923 02340 70000 10284 20250 30063 40073 85370 333 58020 70004 82709 84615 85458 81930==
41923,2023,09,08,21,00,AAXX 08214 41923 02340 70000 10282 20250 30055 40065 85670 333 58018 79994 82709 84615 85458==
41923,2023,09,09,00,00,AAXX 09004 41923 42340 70000 10280 20260 30056 40066 85370 333 58019 82709 84615 85458 81930==
41923,2023,09,09,03,00,AAXX 09034 41923 42450 70000 10308 20260 30067 40077 84430 333 20277 58006 83615 85360==
41923,2023,09,09,06,00,AAXX 09064 41923 02456 70000 10326 20260 30051 40061 85330 333 59008 70000 84615 85360 81930==
41923,2023,09,09,09,00,AAXX 09094 41923 02456 30502 10324 20250 30019 40029 83430 333 59015 70000 83615==
41923,2023,09,09,12,00,AAXX 09124 41923 02350 52403 10304 20250 30020 40030 83630 333 10338 59016 70000 81709 83615==
41923,2023,09,09,15,00,AAXX 09154 41923 333 59024 70000 82616==
41923,2023,09,09,18,00,AAXX 09184 41923 02/50 20000 10284 20260 30038 40048 82030 333 59025 70000 82362==
41923,2023,09,09,21,00,AAXX 09214 41923 02/45 20000 10283 20260 30033 40043 82030 333 59022 70000 82362==
41923,2023,09,10,00,00,AAXX 10004 41923 02/45 20000 10282 20260 30028 40038 82031 333 59028 70000 82362==
41923,2023,09,10,03,00,AAXX 10034 41923 02350 41902 10320 20270 30041 40051 83630 333 20280 59026 70000 81709 83615==
41923,2023,09,10,06,00,AAXX 10064 41923 01350 71403 10315 20260 30026 40036 72121 85670 333 59025 70000 83708 84614 86459==
41923,2023,09,10,09,00,AAXX 10094 41923 42356 50000 10320 20270 30006 40016 83630 333 59013 81709 83615==
41923,2023,09,10,12,00,AAXX 10124 41923 42350 70000 10312 20260 39998 40008 85670 333 10330 59022 83708 84615 86458==
41923,2023,09,10,15,00,AAXX 10154 41923 42350 70000 10298 20270 30020 40030 85670 333 59017 83709 84615 86458==
41923,2023,09,10,18,00,AAXX 10184 41923 42/50 20000 10294 20260 30024 40034 82030 333 59014 82360==
41923,2023,09,10,21,00,AAXX 10214 41923 42340 40000 10286 20270 30012 40022 83630 333 59021 81709 83615==
41923,2023,09,11,00,00,AAXX 11004 41923 42340 70000 10280 20270 30011 40021 85670 333 59017 83708 84615 86458==
41923,2023,09,11,03,00,AAXX 11034 41923 42350 50000 10322 20260 30028 40038 83630 333 20280 59013 81709 83615==
41923,2023,09,11,06,00,AAXX 11064 41923 01350 80000 10306 20270 30017 40027 79596 8692/ 333 59009 70160 83708 84614 88458 81930==
41923,2023,09,11,09,00,AAXX 11094 41923 01340 80000 10266 20260 39997 40007 79196 8532/ 333 59009 70428 83708 84614 88458 81930==
41923,2023,09,11,12,00,AAXX 11124 41923 01440 60000 10285 20270 39995 40005 70196 82570 333 10332 59003 70430 82616 85458==
41923,2023,09,11,15,00,AAXX 11154 41923 02340 80000 10286 20270 30022 40032 8532/ 333 58002 70430 83709 84615 88458 81930==
41923,2023,09,11,18,00,AAXX 11184 41923 02340 80000 10285 20270 30023 40033 8532/ 333 59001 70430 83709 84615 88458 81930==
41923,2023,09,11,21,00,AAXX 11214 41923 02340 80000 10282 20260 30019 40029 8532/ 333 58007 70430 82709 84615 88458 81930==
41923,2023,09,12,00,00,AAXX 12004 41923 02340 70000 10279 20270 30014 40027 84670 333 58006 70430 82709 83615 86458==
41923,2023,09,12,03,00,AAXX 12034 41923 02340 80000 10306 20260 30033 40043 8532/ 333 20270 58005 70340 83709 84615 88458 81930==
41923,2023,09,12,06,00,AAXX 12064 41923 01340 80000 10292 20260 30023 40033 76122 8632/ 333 58006 70006 83708 84614 88458 81930==
41923,2023,09,12,09,00,AAXX 12094 41923 01456 60000 10320 20260 39990 40000 76096 83430 333 59007 70251 82615 84360==
41923,2023,09,12,12,00,AAXX 12124 41923 01345 70000 10288 20270 30000 40010 79596 85970 333 10334 58005 70277 82708 84614 85458 81930==
41923,2023,09,12,15,00,AAXX 12154 41923 01440 50000 10278 20260 30022 40032 70162 83430 333 58000 70277 82615 83360==
41923,2023,09,12,18,00,AAXX 12184 41923 11440 40000 10276 20270 30030 40040 59007 60006 70277 81930==
41923,2023,09,12,21,00,AAXX 12214 41923 02340 70000 10274 20260 30016 40026 84670 333 59003 70277 82709 83615 85458==
41923,2023,09,13,00,00,AAXX 13004 41923 01340 70000 10274 20260 30012 40022 70262 84670 333 59005 70010 82709 83614 85458==
41923,2023,09,13,03,00,AAXX 13034 41923 02350 60903 10302 20250 30029 40039 84630 333 20266 59004 70287 82709 83615 85360==
41923,2023,09,13,06,00,AAXX 13064 41923 02456 60903 10340 20250 30023 40033 85430 333 58000 70281 83615 83824==
41923,2023,09,13,09,00,AAXX 13094 41923 02456 40804 10338 20250 39993 40003 83430 333 58003 70038 83615==
41923,2023,09,13,12,00,AAXX 13124 41923 02350 50603 10316 20250 39995 40005 84331 333 10344 59005 70010 82709 83615 81930==
41923,2023,09,13,15,00,AAXX 13154 41923 01/50 20000 10300 20240 30023 40033 70162 82030 333 58001 70014 82362==
41923,2023,09,13,18,00,AAXX 13184 41923 11350 70903 10287 20260 30034 40044 69946 70362 86630 333 58004 70014 83708 84614 85362==
41923,2023,09,13,21,00,AAXX 13214 41923 02345 60503 10282 20250 30022 40032 85630 333 58006 70014 82709 84615==
41923,2023,09,14,00,00,AAXX 14004 41923 02445 30603 10271 20250 30035 40045 82530 333 58023 70004 82616==
41923,2023,09,14,03,00,AAXX 14034 41923 02456 41004 10316 20240 30047 40057 84430 333 20269 58018 70004 83615==
41923,2023,09,14,06,00,AAXX 14064 41923 02356 60405 10331 20250 30042 40052 85630 333 58019 70004 81709 84615==
41923,2023,09,14,09,00,AAXX 14094 41923 02356 60903 10312 20250 30018 40028 84630 333 58025 70004 82709 83615 85360==
41923,2023,09,14,12,00,AAXX 14124 41923 01350 61502 10298 20250 30022 40032 70262 84630 333 10331 58027 70000 82709 83615 85460==
41923,2023,09,14,15,00,AAXX 14154 41923 02350 50000 10290 20250 30049 40059 83630 333 58026 70002 81709 83615==
41923,2023,09,14,18,00,AAXX 14184 41923 02350 50902 10288 20260 30053 40063 83630 333 58019 70002 81709 83615==
41923,2023,09,14,21,00,AAXX 14214 41923 02340 60000 10282 20250 30042 40052 84630 333 58020 70002 82709 83615 85360==
41926,2023,09,08,00,00,AAXX 08004 41926 21450 70000 10267 20267 30018 40031 70262 84510 333 59002 69985 70020 84615 86459==
41926,2023,09,08,03,00,AAXX 08034 41926 02450 70000 10288 20270 30043 40056 84510 333 20267 58011 70008 84616 86459==
41926,2023,09,08,06,00,AAXX 08064 41926 02456 61802 10315 20270 30034 40047 84470 333 58011 70008 83616 84459==
41926,2023,09,08,09,00,AAXX 08094 41926 02450 61803 10295 20260 30014 40027 84510 333 58019 70008 84615 86459==
41926,2023,09,08,15,00,AAXX 08154 41926 01450 80000 10275 20270 30046 40059 72162 8452/ 333 58022 70038 84615 88458==
41926,2023,09,08,18,00,AAXX 08184 41926 21450 80000 10270 20260 30046 40059 70262 8452/ 333 58024 60035 70038 84615 88459==
41926,2023,09,09,00,00,AAXX 09004 41926 02450 80000 10270 20270 30040 40053 8452/ 333 58022 70030 84615 86459==
41926,2023,09,09,03,00,AAXX 09034 41926 02450 60000 10296 20270 30056 40069 84510 333 20270 58013 70030 84615 86459==
41926,2023,09,09,06,00,AAXX 09064 41926 02456 50000 10330 20260 30041 40054 84410 333 58007 70000 83615 84459==
41926,2023,09,09,09,00,AAXX 09094 41926 02456 50000 10337 20260 30010 40023 85400 333 59004 70000 82618==
41926,2023,09,09,12,00,AAXX 09124 41926 02950 30000 10307 20280 30011 40024 80001 333 10348 59010 70030 83080==
41926,2023,09,09,15,00,AAXX 09154 41926 02/50 30000 10287 20280 30028 40041 83010 333 59018 70000 83459==
41926,2023,09,09,18,00,AAXX 09184 41926 02950 00000 10280 20260 30029 40042 333 59017 70000==
41926,2023,09,09,21,00,AAXX 09214 41926 02950 00000 10275 20270 30024 40037 333 59008 70000==
41926,2023,09,10,00,00,AAXX 10004 41926 02450 10000 10270 20260 30019 40032 81500 333 59021 70000 81618==
41926,2023,09,10,03,00,AAXX 10034 41926 02450 50000 10312 20260 30030 40043 85400 333 20270 59026 70000 82618 83828==
41926,2023,09,10,06,00,AAXX 10064 41926 02456 50000 10346 20260 30020 40033 85400 333 59021 70000 82618 83828==
41926,2023,09,10,09,00,AAXX 10094 41926 02456 50000 10360 20240 39997 40010 85400 333 59013 70000 82618 83828==
41926,2023,09,10,12,00,AAXX 10124 41926 02450 50000 10328 20270 39990 40003 81110 333 10364 59021 70000 81828 85482==
41926,2023,09,10,15,00,AAXX 10154 41926 02950 00000 10296 20280 30009 40022 333 59019 70000==
41926,2023,09,10,18,00,AAXX 10184 41926 02950 00000 10285 20280 30017 40030 333 59012 70000==
41926,2023,09,10,21,00,AAXX 10214 41926 02950 00000 10278 20270 30010 40023 333 59014 70000==
41926,2023,09,11,00,00,AAXX 11004 41926 02950 10000 10272 20260 30002 40015 80001 333 59017 70000 81080==
41926,2023,09,11,03,00,AAXX 11034 41926 02456 41801 10306 20270 30018 40031 83401 333 20270 59012 70000 81618 83820==
41926,2023,09,11,06,00,AAXX 11064 41926 02456 50000 10342 20250 30011 40024 85400 333 59009 70000 82618 83820==
41926,2023,09,11,09,00,AAXX 11094 41926 02456 50000 10355 20260 39982 49995 85400 333 59015 70000 82618 83820==
41926,2023,09,11,12,00,AAXX 11124 41926 11356 80000 10300 20280 39984 49997 60082 79562 8532/ 333 10366 59006 70080 82708 83615 88458 81930==
41926,2023,09,11,15,00,AAXX 11154 41926 02450 80000 10280 20260 30010 40023 8452/ 333 58001 70000 84616 88459==
41926,2023,09,11,21,00,AAXX 11214 41926 02450 60000 10275 20270 30002 40015 83510 333 59008 70080 83616 86459==
41926,2023,09,12,06,00,AAXX 12064 41926 01456 60000 10320 20270 30009 40022 70362 84430 333 59002 70010 83618 83362==
41926,2023,09,12,09,00,AAXX 12094 41926 02456 83402 10290 20250 39989 40002 8432/ 333 58007 70094 83617 88458 81930==
41926,2023,09,12,12,00,AAXX 12124 41926 21450 80000 10272 20260 39992 40005 70296 8352/ 333 10340 58008 60107 70114 83616 88458==
41926,2023,09,12,15,00,AAXX 12154 41926 01450 70000 10267 20260 30019 40032 70162 82510 333 58009 70128 82617 87459==
41926,2023,09,12,18,00,AAXX 12184 41926 11450 60000 10265 20260 30020 40033 60016 70162 82510 333 58008 70128 82618 86459==
41926,2023,09,12,21,00,AAXX 12214 41926 01450 60000 10265 20260 30014 40027 70522 82510 333 58012 70128 82618 86459==
41926,2023,09,13,00,00,AAXX 13004 41926 01450 50000 10265 20260 30002 40015 70522 81530 333 59005 70128 81618 85362==
41926,2023,09,13,03,00,AAXX 13034 41926 02456 50901 10310 20260 30014 40027 83530 333 20265 59011 70128 83618 84362==
41926,2023,09,13,06,00,AAXX 13064 41926 02457 60000 10325 20270 30011 40024 84401 333 58002 70114 82618 83820==
41926,2023,09,13,09,00,AAXX 13094 41926 02456 53403 10332 20250 39980 49993 85400 333 59009 70114 82618 83820==
41926,2023,09,13,12,00,AAXX 13124 41926 02456 53402 10310 20260 39980 49993 85400 333 10351 59012 70014 82618 83820==
41926,2023,09,13,15,00,AAXX 13154 41926 02/50 30000 10290 20250 30010 40023 83030 333 58018 70000 83362==
41926,2023,09,13,18,00,AAXX 13184 41926 02/50 30000 10286 20260 30016 40029 83030 333 59004 70000 83362==
41926,2023,09,13,21,00,AAXX 13214 41926 02/50 20000 10275 20260 30010 40023 82030 333 59004 70000 82362==
41926,2023,09,14,00,00,AAXX 14004 41926 02456 53402 10267 20260 30008 40021 82530 333 58006 70000 82618 85362==
41926,2023,09,14,03,00,AAXX 14034 41926 02456 60904 10294 20250 30025 40038 84510 333 20266 58011 70000 84615 86459==
41926,2023,09,14,06,00,AAXX 14064 41926 02457 50905 10318 20260 30021 40034 84430 333 58010 70000 82618 83820==
41926,2023,09,14,09,00,AAXX 14094 41926 02456 50904 10315 20270 39998 40011 84530 333 58018 70000 84618 83362==
41926,2023,09,14,12,00,AAXX 14124 41926 02450 70902 10290 20260 30006 40019 84510 333 10335 58026 70000 84616 86459==
41926,2023,09,14,15,00,AAXX 14154 41926 02450 50000 10275 20260 30030 40043 83510 333 58020 70000 83616 84459==
41926,2023,09,14,18,00,AAXX 14184 41926 02450 51502 10275 20260 30032 40045 83510 333 58016 70000 83616 84459==
41926,2023,09,14,21,00,AAXX 14214 41926 02450 70000 10275 20260 30032 40045 84510 333 58022 70000 84615 86459==
41927,2023,09,08,00,00,AAXX 08004 41927 11356 80000 10262 20260 30017 40031 60087 72162 8572/ 333 56499 59003 70142 82708 83615 88458=
41927,2023,09,08,06,00,AAXX 08064 41927 11457 61701 10305 20270 30032 40046 60024 70162 84410 333 56490 58009 70100 83617 86459=
41927,2023,09,09,00,00,AAXX 09004 41927 32456 71802 10270 20260 30033 40047 83510 333 56490 58016 70024 83617 87459=
41927,2023,09,09,06,00,AAXX 09064 41927 32458 51802 10365 20240 30042 40056 85400 333 56400 58010 70000 82618 83828=
41927,2023,09,09,12,00,AAXX 09124 41927 32957 40000 10320 20250 30006 40020 80001 333 10370 56009 59012 70000 84080=
41927,2023,09,09,18,00,AAXX 09184 41927 NIL=
41927,2023,09,10,00,00,AAXX 10004 41927 32456 00000 10270 20270 30015 40030 333 59018 70000=
41927,2023,09,10,06,00,AAXX 10064 41927 32458 50000 10345 20260 30014 40028 85400 333 56400 59028 70000 82618 83828=
41927,2023,09,10,12,00,AAXX 10124 41927 32958 20000 10325 20260 30000 40014 80001 333 10355 56009 59006 70000 82080=
41927,2023,09,10,18,00,AAXX 10184 41927 32956 00000 10290 20260 30005 40019 333 59011 70000=
41927,2023,09,11,00,00,AAXX 11004 41927 32956 20000 10275 20270 30004 40018 80001 333 56009 59011 70000 82080=
41927,2023,09,11,06,00,AAXX 11064 41927 NIL=
41927,2023,09,11,12,00,AAXX 11124 41927 11456 81804 10275 20270 39986 40000 60134 79596 8532/ 333 10350 56499 59014 70130 84615 81929 88458=
41927,2023,09,12,06,00,AAXX 12064 41927 11457 60802 10300 20270 30009 40023 60044 72122 84310 333 56290 59005 70165 83616 82929 86459=
41927,2023,09,12,12,00,AAXX 12124 41927 31456 62501 10285 20260 39986 40000 70192 83510 333 10340 56690 58000 70035 83618 86459=
41927,2023,09,13,00,00,AAXX 13004 41927 32456 61601 10275 20270 30003 40017 83510 333 56490 58000 70035 83617 86459=
41927,2023,09,13,06,00,AAXX 13064 41927 11457 52202 10325 20260 30003 40017 60045 70162 83510 333 56590 59006 70040 83618 85459=
41927,2023,09,13,12,00,AAXX 13124 41927 32456 40000 10310 20280 39979 49993 84500 333 10340 56000 59007 70040 83618=
41927,2023,09,13,18,00,AAXX 13184 41927 32956 01801 10286 20270 30008 40022 333 58001 70040=
41927,2023,09,14,00,00,AAXX 14004 41927 32956 01801 10274 20260 30003 40017 333 58000 70040=
41927,2023,09,14,06,00,AAXX 14064 41927 32958 01304 10314 20250 30010 40024 333 58007 70000=
41927,2023,09,14,12,00,AAXX 14124 41927 32457 41804 10290 20260 30003 40017 82510 333 10324 56490 58024 70000 82618 84459=
41927,2023,09,14,18,00,AAXX 14184 41927 32956 01802 10276 20260 30028 40042 333 58021 70000=
41929,2023,09,08,00,00,AAXX 08004 41929 21456 80904 10270 20260 30026 40035 72162 8452/ 333 59003 60067 70082 84616 88460==
41929,2023,09,08,03,00,AAXX 08034 41929 02456 81402 10285 20280 30056 40065 8451/ 333 20265 58009 70078 84618 88462==
41929,2023,09,08,06,00,AAXX 08064 41929 02456 80902 10292 20270 30053 40062 8451/ 333 58019 70078 84618 88462==
41929,2023,09,08,09,00,AAXX 08094 41929 02456 71804 10308 20270 30029 40038 84510 333 58019 70078 84618 86462==
41929,2023,09,08,15,00,AAXX 08154 41929 02/56 51302 10282 20260 30055 40064 85010 333 58026 70064 85462==
41929,2023,09,08,18,00,AAXX 08184 41929 02/56 21303 10277 20270 30057 40066 82030 333 58029 70064 82365==
41929,2023,09,09,00,00,AAXX 09004 41929 02456 81304 10275 20270 30050 40059 8452/ 333 58024 70000 84618 88462==
41929,2023,09,09,03,00,AAXX 09034 41929 02456 71402 10296 20270 30066 40075 84530 333 20270 58010 70000 84618 86365==
41929,2023,09,09,06,00,AAXX 09064 41929 02457 61502 10332 20260 30054 40063 83430 333 58001 70000 83618 85365==
41929,2023,09,09,09,00,AAXX 09094 41929 02458 50000 10335 20260 30020 40029 83430 333 59009 70000 82618 83365==
41929,2023,09,09,12,00,AAXX 09124 41929 02/57 60000 10317 20270 30015 40024 86070 333 10345 59012 70000 85365==
41929,2023,09,09,15,00,AAXX 09154 41929 02/56 30000 10292 20280 30035 40044 83030 333 59020 70000 83365==
41929,2023,09,09,18,00,AAXX 09184 41929 02/56 30000 10287 20280 30038 40047 83030 333 59019 70000 83365==
41929,2023,09,09,21,00,AAXX 09214 41929 02/56 30000 10282 20270 30031 40040 83030 333 59022 70000 83365==
41929,2023,09,10,00,00,AAXX 10004 41929 02/56 30000 10276 20270 30024 40033 83030 333 59026 70000 83365==
41929,2023,09,10,03,00,AAXX 10034 41929 02456 30000 10316 20270 30040 40049 83400 333 20273 59026 70000 82618==
41929,2023,09,10,06,00,AAXX 10064 41929 02457 32702 10346 20270 30030 40039 83400 333 59024 70000 82618==
41929,2023,09,10,09,00,AAXX 10094 41929 02457 71502 10340 20260 30009 40018 84410 333 59011 70000 82618 85462==
41929,2023,09,10,12,00,AAXX 10124 41929 02456 40000 10321 20270 39998 40007 84410 333 10354 59017 70000 82618==
41929,2023,09,10,15,00,AAXX 10154 41929 02/56 20000 10298 20280 30018 40027 82030 333 59017 70000 82365==
41929,2023,09,10,18,00,AAXX 10184 41929 02/56 20000 10291 20280 30024 40033 82030 333 59014 70000 82365==
41929,2023,09,10,21,00,AAXX 10214 41929 02/56 20000 10291 20280 30013 40022 82030 333 59018 70000 82365==
41929,2023,09,11,00,00,AAXX 11004 41929 02456 40000 10283 20270 30008 40017 82530 333 59016 70000 82618 83365==
41929,2023,09,11,03,00,AAXX 11034 41929 02456 40000 10316 20270 30027 40036 84540 333 20276 59013 70000 84618==
41929,2023,09,11,06,00,AAXX 11064 41929 02457 71802 10330 20270 30017 40026 84510 333 59013 70000 84618 86462==
41929,2023,09,11,09,00,AAXX 11094 41929 01457 81803 10308 20270 39997 40006 70362 8442/ 333 59012 70004 82618 88462==
41929,2023,09,11,12,00,AAXX 11124 41929 11456 81802 10290 20270 39995 40004 69946 70262 333 10338 59003 70004 84482 82618 88462==
41929,2023,09,11,15,00,AAXX 11154 41929 02/56 50000 10285 20280 30012 40021 85010 333 59006 70006 85462==
41929,2023,09,11,18,00,AAXX 11184 41929 02/56 20000 10285 20280 30021 40030 82030 333 59003 70004 82365==
41929,2023,09,12,06,00,AAXX 12064 41929 02456 71802 10302 20260 30021 40030 84510 333 58004 70004 84618 87462==
41929,2023,09,12,09,00,AAXX 12094 41929 01457 60502 10315 20270 39995 40004 70162 83430 333 59002 70004 82618 84365==
41929,2023,09,12,12,00,AAXX 12124 41929 11456 70000 10300 20270 39997 40006 69946 70362 83570 333 10323 58002 70004 83618 85462==
41929,2023,09,12,15,00,AAXX 12154 41929 02/56 30000 10287 20280 30015 40024 83030 333 58003 70004 83365==
41929,2023,09,12,18,00,AAXX 12184 41929 02/56 30000 10285 20280 30026 40035 83030 333 58005 70004 83365==
41929,2023,09,12,21,00,AAXX 12214 41929 02/56 40000 10281 20270 30016 40025 84030 333 59001 70004 84365==
41929,2023,09,13,00,00,AAXX 13004 41929 02/56 50000 10277 20270 30006 40015 85030 333 59006 70004 85365==
41929,2023,09,13,03,00,AAXX 13034 41929 02457 61302 10307 20260 30024 40033 83430 333 20272 59008 70004 82618 84365==
41929,2023,09,13,06,00,AAXX 13064 41929 02457 51304 10335 20270 30022 40031 83430 333 58001 70004 82618 83365==
41929,2023,09,13,09,00,AAXX 13094 41929 02457 51505 10335 20260 30989 49998 83430 333 59006 70000 82618 83365==
41929,2023,09,13,12,00,AAXX 13124 41929 42457 51603 10314 20250 39991 40001 83430 333 10344 59006 82618 83365==
41929,2023,09,13,15,00,AAXX 13154 41929 02/57 31003 10290 20260 30017 40027 83090 333 58002 70000 83365==
41929,2023,09,13,18,00,AAXX 13184 41929 02457 51103 10290 20260 30027 40037 84530 333 58001 70000 84618==
41929,2023,09,13,21,00,AAXX 13214 41929 01456 30903 10270 20260 30013 40023 72162 84530 333 59003 70020 84618==
41929,2023,09,14,00,00,AAXX 14004 41929 11456 61005 10276 20260 30021 40031 60026 70262 84570 333 58015 70020 84618 83462==
41929,2023,09,14,03,00,AAXX 14034 41929 02456 40904 10310 20250 30040 40049 83540 333 20263 58016 70020 83618==
41929,2023,09,14,06,00,AAXX 14064 41929 01456 81504 10270 20250 30043 40052 76122 8352/ 333 58021 70010 83618 88462==
41929,2023,09,14,09,00,AAXX 14094 41929 02457 51405 10320 20260 30015 40025 83570 333 58026 70034 83618 83365==
41929,2023,09,14,12,00,AAXX 14124 41929 02457 51103 10300 20250 30016 40026 84430 333 10324 58025 70034 83618 83365==
41929,2023,09,14,15,00,AAXX 14154 41929 02457 41103 10280 20260 30042 40052 82530 333 58025 70034 82618 83365==
41929,2023,09,14,18,00,AAXX 14184 41929 02457 41003 10280 20260 30049 40059 82530 333 58025 70034 82618 83365==
41929,2023,09,14,21,00,AAXX 14214 41929 02457 60904 10280 20260 30037 40047 84570 333 58024 70014 84618 83462==
41933,2023,09,08,00,00,AAXX 08004 41933 01340 81602 10266 20260 30037 40046 76162 8572/ 333 58002 70199 82708 83615 88457==
41933,2023,09,08,03,00,AAXX 08034 41933 01340 81702 10265 20260 30061 40070 76166 8572/ 333 20261 58019 70315 82709 84615 88457==
41933,2023,09,08,06,00,AAXX 08064 41933 01340 81802 10270 20260 30064 40073 76162 8572/ 333 58023 70329 82709 84615 88457==
41933,2023,09,08,09,00,AAXX 08094 41933 01456 61803 10283 20250 30038 40047 70162 85520 333 58024 70335 85614 86458==
41933,2023,09,08,12,00,AAXX 08124 41933 11456 61803 10283 20250 30042 40052 69966 70262 83520 333 10290 58021 70257 83614 86458==
41933,2023,09,08,15,00,AAXX 08154 41933 02456 61503 10274 20250 30062 40071 83520 333 58023 70254 83616 86458==
41933,2023,09,08,18,00,AAXX 08184 41933 02450 61802 10266 20250 30059 40068 84520 333 58018 70254 84616 86458==
41933,2023,09,09,00,00,AAXX 09004 41933 02456 71802 10260 20250 30054 40062 83530 333 58017 70136 83614 87362==
41933,2023,09,09,03,00,AAXX 09034 41933 02456 41803 10297 20270 30065 40073 82501 333 20258 58004 70020 82616 84074==
41933,2023,09,09,06,00,AAXX 09064 41933 02457 41802 10330 20260 30048 40057 83531 333 59016 70006 83616==
41933,2023,09,09,09,00,AAXX 09094 41933 02456 51702 10340 20260 30014 40022 84440 333 59024 70000 82618 83826==
41933,2023,09,09,12,00,AAXX 09124 41933 02456 40000 10315 20260 30013 40021 82541 333 10346 59030 70000 82618==
41933,2023,09,09,15,00,AAXX 09154 41933 02450 40000 10284 20280 30033 40041 82541 333 59029 70000 82618==
41933,2023,09,09,18,00,AAXX 09184 41933 NIL=
41933,2023,09,09,21,00,AAXX 09214 41933 02440 61802 10280 20260 30028 40037 84530 333 59024 70000 84616 86362==
41933,2023,09,10,00,00,AAXX 10004 41933 02450 61802 10278 20260 30027 40036 84530 333 59027 70000 84616 86362==
41933,2023,09,10,03,00,AAXX 10034 41933 02456 62102 10299 20270 30038 40047 84520 333 20274 59027 70000 84616 86458==
41933,2023,09,10,06,00,AAXX 10064 41933 01456 61302 10312 20260 30022 40031 79522 85920 333 59026 70000 83614 86458 81930==
41933,2023,09,10,09,00,AAXX 10094 41933 01450 60000 10292 20260 30003 40011 70296 84432 333 59011 70040 83618 83828==
41933,2023,09,10,12,00,AAXX 10124 41933 11450 50000 10302 20260 39996 40004 60046 70196 82530 333 10326 59017 70040 82616 85362==
41933,2023,09,10,15,00,AAXX 10154 41933 02/50 10000 10285 20280 30016 40025 81040 333 59017 70040 81362==
41933,2023,09,10,18,00,AAXX 10184 41933 02950 00000 10281 20270 30021 40030 333 59008 70040==
41933,2023,09,10,21,00,AAXX 10214 41933 01440 60000 10281 20270 30013 40022 70520 83510 333 59015 70040 83616 86458==
41933,2023,09,11,00,00,AAXX 11004 41933 01435 70000 10280 20270 30011 40020 70520 84520 333 59016 70040 84616 87458==
41933,2023,09,11,03,00,AAXX 11034 41933 02456 61802 10305 20280 30025 40034 84520 333 20279 59013 70040 84616 86458==
41933,2023,09,11,06,00,AAXX 11064 41933 02456 61803 10316 20270 30019 40028 84520 333 59003 70040 84618 86458==
41933,2023,09,11,09,00,AAXX 11094 41933 02456 42404 10324 20260 39983 49992 84510 333 59020 70000 84616==
41933,2023,09,11,12,00,AAXX 11124 41933 01450 72403 10305 20270 39993 40001 71722 86320 333 10327 59003 70000 85614 87458 81930==
41933,2023,09,11,15,00,AAXX 11154 41933 01440 60000 10284 20270 30019 40027 70196 83510 333 58003 70348 83615 85458==
41933,2023,09,12,03,00,AAXX 12034 41933 02450 50000 10305 20260 30030 40039 84430 333 20264 58005 70354 82618 83326==
41933,2023,09,12,06,00,AAXX 12064 41933 02456 50000 10330 20270 30013 40022 84430 333 59006 70354 82618 83826==
41933,2023,09,12,09,00,AAXX 12094 41933 02456 51802 10338 20280 39984 49993 84830 333 58001 70354 82618 83828==
41933,2023,09,12,12,00,AAXX 12124 41933 02456 51802 10315 20270 30091 40010 84430 333 10343 59002 70348 82618 83828==
41933,2023,09,12,15,00,AAXX 12154 41933 02450 50000 10296 20280 30022 40030 84430 333 58003 70006 82618 83826==
41933,2023,09,12,18,00,AAXX 12184 41933 01340 81802 10285 20260 30018 40026 76162 8662/ 333 59002 70020 82708 84615 88457==
41933,2023,09,12,21,00,AAXX 12214 41933 01440 81802 10280 20260 30016 40024 70262 8452/ 333 58008 70032 84615 88457==
41933,2023,09,13,00,00,AAXX 13004 41933 11450 81802 10272 20270 30017 40025 60016 70262 8452/ 333 58002 70026 84616 88457==
41933,2023,09,13,03,00,AAXX 13034 41933 02456 50000 10304 20250 30024 40033 82531 333 20266 59006 70026 82616 84074==
41933,2023,09,13,06,00,AAXX 13064 41933 02456 61702 10323 20240 30021 40030 84430 333 58008 70026 83616 85458==
41933,2023,09,13,09,00,AAXX 13094 41933 02456 51702 10327 20260 39990 49999 84401 333 58006 70026 82616 84074==
41933,2023,09,13,12,00,AAXX 13124 41933 02450 61705 10310 20250 30000 40009 83301 333 10340 58009 70026 83616 85074 81925==
41933,2023,09,13,15,00,AAXX 13154 41933 02950 41504 10275 20260 30023 40031 82530 333 58001 70026 82618 84362==
41933,2023,09,13,18,00,AAXX 13184 41933 21450 41503 10274 20250 30033 40041 70262 82530 333 58015 60005 70012 82618 84362==
41933,2023,09,13,21,00,AAXX 13214 41933 42450 50000 10270 20250 30027 40036 82530 333 58011 82616 85362==
41933,2023,09,14,00,00,AAXX 14004 41933 42450 50000 10264 20240 30027 40036 82530 333 58010 82616 85362==
41933,2023,09,14,03,00,AAXX 14034 41933 42456 53502 10312 20240 30039 40048 83530 333 20260 58015 83616 85362==
41933,2023,09,14,06,00,AAXX 14064 41933 42456 61304 10322 20250 30043 40052 84430 333 58022 82616 82826 86362==
41933,2023,09,14,09,00,AAXX 14094 41933 41456 71806 10290 20260 30024 40033 72162 85431 333 58034 82616 83826 86362==
41933,2023,09,14,12,00,AAXX 14124 41933 41456 61805 10282 20240 30023 40032 70162 85430 333 10322 58023 82616 83826 86362==
41933,2023,09,14,15,00,AAXX 14154 41933 42450 10902 10275 20260 30046 40055 81500 333 58023 81616==
41933,2023,09,14,18,00,AAXX 14184 41933 42450 31802 10270 20250 30049 40058 81510 333 58016 81616 83458==
41933,2023,09,14,21,00,AAXX 14214 41933 42450 51601 10268 20250 30047 40056 82510 333 58020 82616 84458==
41936,2023,09,08,00,00,AAXX 08004 41936 01320 81504 10270 20260 30020 40027 70522 85630 333 58001 70110 83708 83615 87362==
41936,2023,09,08,03,00,AAXX 08034 41936 42320 81607 10290 20266 30048 40055 58015 86362==
41936,2023,09,08,06,00,AAXX 08064 41936 01320 81806 10300 20270 30043 40050 70562 84630 333 58017 70110 83708 83615 86362==
41936,2023,09,08,09,00,AAXX 08094 41936 01320 72006 10290 20270 30025 40032 72162 83630 333 58016 70100 82708 83615 86362==
41936,2023,09,08,12,00,AAXX 08124 41936 01320 71706 10290 20270 30027 40034 70522 83630 333 10302 58027 70000 82708 83615 86362==
41936,2023,09,08,15,00,AAXX 08154 41936 01320 81806 10280 20270 30050 40057 70522 83630 333 58031 70100 82708 83615 86362==
41936,2023,09,08,18,00,AAXX 08184 41936 01320 81706 10280 20270 30050 40057 70522 83630 333 58031 70100 82708 83615 86362==
41936,2023,09,08,21,00,AAXX 08214 41936 02320 61706 10280 20270 30043 40050 50522 83630 333 58031 70500 82708 83615 85362==
41936,2023,09,09,00,00,AAXX 09004 41936 41320 61606 10272 20260 30047 40054 70522 83630 333 58027 82708 83615 85362==
41936,2023,09,09,03,00,AAXX 09034 41936 41425 61606 10300 20280 30060 40067 70522 83630 333 20268 58011 82710 83615==
41936,2023,09,09,06,00,AAXX 09064 41936 41440 62206 10326 20270 30048 40055 70522 83630 333 58017 82710 83615==
41936,2023,09,09,09,00,AAXX 09094 41936 01440 51608 10346 20260 30018 40025 70522 83830 333 59007 70000 83615 84362==
41936,2023,09,09,12,00,AAXX 09124 41936 41440 41904 10320 20260 30015 40022 70522 83830 333 10350 59012 82615 83362==
41936,2023,09,09,15,00,AAXX 09154 41936 01440 41903 10294 20280 30031 40038 70522 83830 333 59019 70000 82615 83615==
41936,2023,09,09,18,00,AAXX 09184 41936 01440 40000 10292 20280 30032 40039 70522 83830 333 59018 70000 82615 83615==
41936,2023,09,09,21,00,AAXX 09214 41936 01435 40000 10284 20270 30027 40034 70522 83830 333 59017 70000 82615 83615==
41936,2023,09,10,00,00,AAXX 10004 41936 01416 41605 10276 20270 30025 40032 70522 82830 333 59022 70000 81615 83362==
41936,2023,09,10,03,00,AAXX 10034 41936 01440 42005 10310 20280 30028 40035 70522 82830 333 20274 59024 70000 83615 83362==
41936,2023,09,10,06,00,AAXX 10064 41936 01450 42205 10350 20260 30025 40032 70522 82830 333 59024 70000 83615 83362==
41936,2023,09,10,09,00,AAXX 10094 41936 01450 32106 10354 20260 30004 40010 70511 82830 333 59015 70000 82615==
41936,2023,09,10,12,00,AAXX 10124 41936 41450 32204 10320 20260 39996 40002 70511 82830 333 10362 59020 82615==
41936,2023,09,10,15,00,AAXX 10154 41936 01450 32205 10300 20270 30010 40017 70511 82830 333 59021 70000 82615 83362==
41936,2023,09,10,18,00,AAXX 10184 41936 01450 32103 10290 20270 30012 40019 70511 82830 333 59020 70000 82615 83362==
41936,2023,09,10,21,00,AAXX 10214 41936 01440 30000 10282 20270 30000 40007 70511 82830 333 59027 70000 82615 83362==
41936,2023,09,11,00,00,AAXX 11004 41936 01420 30000 10280 20260 30000 40007 70511 82830 333 59025 70000 82615 83362==
41936,2023,09,11,03,00,AAXX 11034 41936 01430 41803 10310 20270 30021 40028 70522 82830 333 20278 59007 70000 82615 83362==
41936,2023,09,11,06,00,AAXX 11064 41936 01440 52403 10342 20260 30015 40022 70522 83830 333 59009 70000 83615 83362==
41936,2023,09,11,09,00,AAXX 11094 41936 41340 61805 10314 20270 39990 49997 56035 76122 83630 333 59013 82708 83615 85362==
41936,2023,09,11,12,00,AAXX 11124 41936 01340 50804 10296 20280 39990 49997 70562 83830 333 10352 59005 70000 83615 83362==
41936,2023,09,11,15,00,AAXX 11154 41936 41330 50000 10290 20270 30009 40016 70522 83830 333 59001 83615 83362==
41936,2023,09,11,18,00,AAXX 11184 41936 41330 50000 10284 20270 30016 40023 70522 83830 333 58004 83615 83362==
41936,2023,09,11,21,00,AAXX 11214 41936 41325 50000 10278 20270 30070 40011 70522 83830 333 58004 83615 83362==
41936,2023,09,12,00,00,AAXX 12004 41936 41316 70000 10280 20270 30011 40018 70522 83830 333 58011 83615 86362==
41936,2023,09,12,03,00,AAXX 12034 41936 41440 41804 10318 20270 30025 40032 70521 83830 333 20276 58004 82615==
41936,2023,09,12,06,00,AAXX 12064 41936 01440 61503 10328 20270 30011 40018 70551 84630 333 59004 70000 82710 83615==
41936,2023,09,12,09,00,AAXX 12094 41936 41440 41605 10350 20270 39985 49992 70565 82830 333 59005 83615 84362==
41936,2023,09,12,12,00,AAXX 12124 41936 41330 40000 10330 20270 39996 40000 70596 83630 333 10352 58006 82710 83615 85362==
41936,2023,09,12,15,00,AAXX 12154 41936 41430 60000 10284 20260 30013 40020 70522 83830 333 58004 83615 85362==
41936,2023,09,12,18,00,AAXX 12184 41936 41430 60000 10276 20260 30023 40030 70522 83830 333 58007 83615 85362==
41936,2023,09,12,21,00,AAXX 12214 41936 41420 60000 10270 20260 30008 40015 70522 83830 333 58004 83615 85362==
41936,2023,09,13,00,00,AAXX 13004 41936 41420 60000 10272 20260 30003 40010 70522 83830 333 59008 83615 85362==
41936,2023,09,13,03,00,AAXX 13034 41936 41440 30906 10310 20260 30018 40025 70521 83530 333 20268 59007 83615==
41936,2023,09,13,06,00,AAXX 13064 41936 41440 51105 10332 20270 30012 40019 70511 83830 333 58001 83615==
41936,2023,09,13,09,00,AAXX 13094 41936 41440 50912 10342 20260 39985 49992 70511 83830 333 58001 83615==
41936,2023,09,13,12,00,AAXX 13124 41936 41440 51110 10326 20260 39978 49985 70511 83830 333 10344 59018 83615==
41936,2023,09,13,15,00,AAXX 13154 41936 01440 51408 10292 20260 30006 40013 70522 83830 333 59007 70000 83615 84362==
41936,2023,09,13,18,00,AAXX 13184 41936 01440 51307 10286 20260 30014 40021 70511 83830 333 59011 70000 82615 83362==
41936,2023,09,13,21,00,AAXX 13214 41936 01430 61204 10276 20270 30010 40017 70522 83830 333 58002 70000 83615 85362==
41936,2023,09,14,00,00,AAXX 14004 41936 01420 40904 10272 20266 30004 40011 70562 82820 333 58002 70010 82615 83362==
41936,2023,09,14,03,00,AAXX 14034 41936 01440 40910 10294 20260 30025 40032 72166 82830 333 20266 58007 70020 82615 83362==
41936,2023,09,14,06,00,AAXX 14064 41936 01440 61414 10310 20260 30025 40032 70566 84630 333 58014 70010 82710 83615==
41936,2023,09,14,09,00,AAXX 14094 41936 01440 71411 10304 20250 30006 40013 76062 84730 333 58011 70020 83710 83615 86362==
41936,2023,09,14,12,00,AAXX 14124 41936 01430 71505 10275 20250 30005 40012 76066 84730 333 10326 58027 70030 87310 83615 86362==
41936,2023,09,14,15,00,AAXX 14154 41936 01430 41507 10276 20260 30029 40036 70562 82830 333 58023 70050 83615 84362==
41936,2023,09,14,18,00,AAXX 14184 41936 01430 41405 10276 20260 30033 40040 70522 82830 333 58019 70000 83615 84362==
41936,2023,09,14,21,00,AAXX 14214 41936 01430 41504 10274 20250 30024 40031 70522 82830 333 58014 70050 83615 84362==
41938,2023,09,08,00,00,AAXX 08004 41938 11450 80000 10265 20265 30031 40035 60063 70562 8342/ 333 56499 58004 70421 82618 88459=
41938,2023,09,08,06,00,AAXX 08064 41938 11450 81801 10276 20270 30047 40051 69969 76166 8542/ 333 56499 58016 70396 84616 88459=
41938,2023,09,09,00,00,AAXX 09004 41938 32450 50000 10270 20260 30030 40034 83510 333 56990 58005 70008 83618 83459=
41938,2023,09,09,03,00,AAXX 09034 41938 32456 40000 10324 20260 30051 40055 84400 333 56400 58004 70002 83618=
41938,2023,09,09,06,00,AAXX 09064 41938 NIL=
41938,2023,09,09,12,00,AAXX 09124 41938 32456 20000 10305 20290 30018 40022 81411 333 10335 56999 59016 70000 81618=
41938,2023,09,09,18,00,AAXX 09184 41938 32950 20000 10274 20260 30034 40038 82010 333 56090 58004 70000 82460=
41938,2023,09,10,00,00,AAXX 10004 41938 32450 40000 10265 20260 30028 40032 70510 81510 333 56990 59025 70000 81618 84460=
41938,2023,09,10,06,00,AAXX 10064 41938 32450 50000 10330 20270 30031 40035 83410 333 56490 59020 70000 82617 83460=
41938,2023,09,10,12,00,AAXX 10124 41938 32456 50000 10312 20260 30005 40009 82411 333 10350 56699 59013 70000 82618 83080=
41938,2023,09,10,18,00,AAXX 10184 41938 31945 00000 10280 20260 30023 40027 70510 333 59011 70000=
41938,2023,09,11,00,00,AAXX 11004 41938 31540 70000 10280 20270 30012 40016 70521 81171 333 56999 59016 70000 81825 86460=
41938,2023,09,11,06,00,AAXX 11064 41938 31456 72301 10312 20250 30018 40022 71722 84911 333 56599 59013 70000 81617 83824 81929 85460=
41938,2023,09,11,12,00,AAXX 11124 41938 32450 60000 10293 20270 30013 40017 84410 333 10318 56490 58008 70000 83618 84459=
41938,2023,09,12,00,00,AAXX 12004 41938 32450 40000 10273 20270 30023 40027 83510 333 56990 58011 70000 83618=
41938,2023,09,12,06,00,AAXX 12064 41938 11456 40000 10308 20290 30012 40016 60024 70262 84400 333 56400 59006 70018 83618=
41938,2023,09,12,12,00,AAXX 12124 41938 11450 50000 10275 20270 30000 40004 60074 76162 84410 333 10317 56490 59013 70090 83618=
41938,2023,09,12,18,00,AAXX 12184 41938 11450 40000 10278 20270 30021 40025 60026 70262 83500 333 56990 59002 70108 83618=
41938,2023,09,13,00,00,AAXX 13004 41938 11450 40000 10265 20260 30009 40013 60094 70262 83531 333 56999 59014 70198 83618=
41938,2023,09,13,06,00,AAXX 13064 41938 32456 40000 10316 20270 30004 40008 84411 333 56499 59008 70180 83618=
41938,2023,09,13,12,00,AAXX 13124 41938 32456 51104 10293 20250 39995 49999 81471 333 10326 56299 59005 70108 81618 83460=
41938,2023,09,13,18,00,AAXX 13184 41938 32450 30901 10276 20260 30017 40021 82501 333 56209 59004 70090 82617=
41938,2023,09,14,00,00,AAXX 14004 41938 11356 70903 10270 20270 30019 40023 60044 72162 84671 333 56299 58010 70036 81709 83617=
41938,2023,09,14,06,00,AAXX 14064 41938 11456 71102 10295 20280 30032 40036 60043 72162 85671 333 56299 58028 70074 81709 83617 85460=
41938,2023,09,14,12,00,AAXX 14124 41938 11456 51602 10282 20260 30016 40020 69923 70162 82570 333 10296 56390 58021 70076 82017 83460=
41938,2023,09,14,18,00,AAXX 14184 41938 32450 61603 10275 20260 30038 40042 83510 333 56390 58021 70076 83616 85460=
41939,2023,09,08,00,00,AAXX 08004 41939 21456 80000 10278 20270 30041 40049 70262 8352/ 333 59004 69945 70410 83617 88459==
41939,2023,09,08,03,00,AAXX 08034 41939 01456 80000 10275 20260 30068 40076 76122 8352/ 333 20265 58013 70016 83617 88458==
41939,2023,09,08,06,00,AAXX 08064 41939 21456 80000 10280 20260 30060 40068 76162 8352/ 333 58009 60027 70032 83616 88459==
41939,2023,09,08,09,00,AAXX 08094 41939 02457 80000 10288 20270 30035 40043 8352/ 333 58025 70026 83617 88459==
41939,2023,09,08,15,00,AAXX 08154 41939 02456 80000 10278 20260 30065 40073 8352/ 333 58047 70026 83618 88459==
41939,2023,09,08,18,00,AAXX 08184 41939 02450 80000 10275 20260 30069 40077 8352/ 333 58040 70026 83618 88459==
41939,2023,09,08,21,00,AAXX 08214 41939 01450 80000 10266 20260 30056 40064 72122 8352/ 333 58021 70033 83616 88459==
41939,2023,09,09,00,00,AAXX 09004 41939 21457 80000 10270 20260 30052 70262 8352/ 333 58011 60015 70029 83618 88459==
41939,2023,09,09,03,00,AAXX 09034 41939 02458 80000 10285 20270 30068 40076 8352/ 333 20260 58000 70023 83618 88459==
41939,2023,09,09,06,00,AAXX 09064 41939 02459 30000 10342 20250 30051 40059 83430 333 58001 70007 82618==
41939,2023,09,09,09,00,AAXX 09094 41939 02458 30000 10333 20260 30020 40028 83430 333 59015 70007 82618==
41939,2023,09,09,12,00,AAXX 09124 41939 02456 30000 10310 20270 30024 40032 82530 333 10345 59017 70007 82618==
41939,2023,09,09,15,00,AAXX 09154 41939 02456 60000 10290 20280 30043 40051 82510 333 59022 70007 82618 86459==
41939,2023,09,09,18,00,AAXX 09184 41939 02450 60000 10285 20280 30050 40058 82510 333 59019 70007 82618 86459==
41939,2023,09,09,21,00,AAXX 09214 41939 02950 00000 10280 20270 30032 40040 333 59024 70000==
41939,2023,09,10,00,00,AAXX 10004 41939 02456 60000 10273 20270 30026 40034 83510 333 59026 70000 83618 85459==
41939,2023,09,10,03,00,AAXX 10034 41939 02458 80000 10290 20270 30051 40059 8352/ 333 20267 59017 70000 83618 88459==
41939,2023,09,10,06,00,AAXX 10064 41939 02459 30000 10337 20260 30028 40036 83430 333 59023 70000 82618==
41939,2023,09,10,09,00,AAXX 10094 41939 02459 30000 10339 20260 30006 40014 83430 333 59014 70000 82618==
41939,2023,09,10,12,00,AAXX 10124 41939 02457 20000 10320 20280 39995 40003 82500 333 10345 59029 70000 82618==
41939,2023,09,10,15,00,AAXX 10154 41939 02950 00000 10306 20280 30007 40015 333 59036 70000==
41939,2023,09,10,18,00,AAXX 10184 41939 02950 00000 10295 20280 30018 40026 333 59024 70000==
41939,2023,09,10,21,00,AAXX 10214 41939 02450 50000 10290 20280 30020 40028 82510 333 59012 70000 82617 85459==
41939,2023,09,11,00,00,AAXX 11004 41939 02456 80000 10283 20270 30018 40026 8352/ 333 59008 70000 83617 88459==
41939,2023,09,11,03,00,AAXX 11034 41939 02458 50000 10312 20280 30034 40041 82510 333 20276 59017 70000 82617 85460==
41939,2023,09,11,06,00,AAXX 11064 41939 01456 60000 10290 20270 30021 40029 72122 83510 333 59007 70050 83616 86459==
41939,2023,09,11,09,00,AAXX 11094 41939 02457 50000 10306 20280 39999 40007 82510 333 59007 70048 82617 85460==
41939,2023,09,11,12,00,AAXX 11124 41939 02457 70000 10298 20280 30003 40012 83510 333 10335 58008 70048 83617 86459==
41939,2023,09,11,15,00,AAXX 11154 41939 02456 50000 10283 20270 30016 40024 83530 333 58009 70048 83617 83364==
41939,2023,09,12,03,00,AAXX 12034 41939 01458 80000 10296 20270 30028 40036 70262 8352/ 333 20270 59006 70074 83618 88459==
41939,2023,09,12,06,00,AAXX 12064 41939 02458 40000 10307 20290 30015 40022 82530 333 59006 70020 82618==
41939,2023,09,12,09,00,AAXX 12094 41939 02459 30000 10335 20260 39995 40003 82430 333 59004 70026 82618==
41939,2023,09,12,12,00,AAXX 12124 41939 02556 20000 10307 20280 30006 40014 81530 333 10340 58003 70026 81618==
41939,2023,09,12,15,00,AAXX 12154 41939 02456 30000 10295 20280 30014 40022 81530 333 59002 70026 81618 83365==
41939,2023,09,12,18,00,AAXX 12184 41939 02450 30000 10290 20270 30023 40031 81530 333 59002 70026 81618 83365==
41939,2023,09,12,21,00,AAXX 12214 41939 02456 50000 10277 20270 30020 40028 83530 333 58000 70026 83617 83364==
41939,2023,09,13,00,00,AAXX 13004 41939 02456 50000 10274 20260 30014 40022 83530 333 59001 70026 83617 83364==
41939,2023,09,13,03,00,AAXX 13034 41939 02458 40000 10298 20260 30028 40036 82530 333 20268 58000 70000 82618 83365==
41939,2023,09,13,06,00,AAXX 13064 41939 02459 40000 10320 20250 30020 40028 83530 333 58005 70000 82618==
41939,2023,09,13,09,00,AAXX 13094 41939 02459 20000 10318 20260 39995 40003 82530 333 58000 70000 82618==
41939,2023,09,13,12,00,AAXX 13124 41939 02457 20000 10313 20260 39990 49998 82500 333 10327 59016 70000 82618==
41939,2023,09,13,15,00,AAXX 13154 41939 01450 60000 10285 20270 30022 40027 70362 82510 333 58008 70004 82617 86459==
41939,2023,09,13,18,00,AAXX 13184 41939 NIL=
41939,2023,09,13,21,00,AAXX 13214 41939 01450 80000 10270 20260 30026 40034 76162 8352/ 333 58006 70044 83616 88459==
41939,2023,09,14,00,00,AAXX 14004 41939 21456 80000 10267 20260 30020 40028 76162 8352/ 333 58006 60079 70078 83616 88459==
41939,2023,09,14,03,00,AAXX 14034 41939 02458 80000 10285 20270 30040 40048 8352/ 333 20263 58012 70078 83617 88459==
41939,2023,09,14,06,00,AAXX 14064 41939 21456 80000 10285 20270 30040 40048 72162 8352/ 333 58020 60107 70180 83616 88459==
41939,2023,09,14,09,00,AAXX 14094 41939 02457 50000 10298 20260 30023 40031 82510 333 58028 70180 82617 85460==
41939,2023,09,14,12,00,AAXX 14124 41939 02456 70000 10290 20260 30027 40035 83510 333 10300 58037 70180 83617 86459==
41939,2023,09,14,15,00,AAXX 14154 41939 02456 80000 10275 20250 30050 40058 8352/ 333 58028 70176 83617 88459==
41939,2023,09,14,18,00,AAXX 14184 41939 02456 80000 10270 20250 30062 40070 8352/ 333 58029 70176 83617 88459==
41939,2023,09,14,21,00,AAXX 14214 41939 02450 60000 10272 20250 30053 40061 83510 333 58027 70102 83617 85459==
41941,2023,09,08,00,00,AAXX 08004 41941 01440 80000 10270 20270 30037 40042 72162 8632/ 333 58009 70050 85612 88456 81925==
41941,2023,09,08,03,00,AAXX 08034 41941 02456 81804 10280 20260 30065 40070 8632/ 333 20266 58012 70250 85616 88458 81930==
41941,2023,09,08,06,00,AAXX 08064 41941 NIL=
41941,2023,09,08,09,00,AAXX 08094 41941 02450 81804 10290 20270 30044 40049 8632/ 333 58033 70300 85616 88458 81930==
41941,2023,09,08,12,00,AAXX 08124 41941 11330 81802 10280 20260 30050 40057 60026 70362 8662/ 333 10295 58022 70200 83710 84615 88458==
41941,2023,09,08,15,00,AAXX 08154 41941 01440 81804 10275 20270 30048 40053 71322 8632/ 333 58011 70100 85616 88458 81930==
41941,2023,09,08,21,00,AAXX 08214 41941 01440 81804 10272 20260 30042 40048 71322 8362/ 333 58010 70100 85616 88458 81930==
41941,2023,09,09,00,00,AAXX 09004 41941 02450 80000 10270 20270 30054 40060 85420 333 58017 70050 85616 88458 81930==
41941,2023,09,09,03,00,AAXX 09034 41941 02456 71803 10310 20270 30071 40076 85420 333 20265 58006 70050 84616 87458==
41941,2023,09,09,06,00,AAXX 09064 41941 02450 70000 10325 20270 30058 40063 85420 333 59009 70000 84616 87458==
41941,2023,09,09,09,00,AAXX 09094 41941 01450 80904 10285 20280 30028 40033 72162 8632/ 333 59016 70040 85612 88456 81925==
41941,2023,09,09,12,00,AAXX 09124 41941 21450 70000 10305 20280 30021 40026 70162 85420 333 10340 59019 60045 70040 84616 87458==
41941,2023,09,09,15,00,AAXX 09154 41941 02440 61802 10292 20280 30041 40046 85420 333 59007 70040 84616 86458==
41941,2023,09,09,18,00,AAXX 09184 41941 02440 70000 10285 20280 30045 40050 85420 333 59007 70040 84616 87458==
41941,2023,09,09,21,00,AAXX 09214 41941 02440 70000 10280 20270 30038 40044 85420 333 59004 70040 84616 87458==
41941,2023,09,10,00,00,AAXX 10004 41941 02450 80000 10276 20276 30026 40031 8632/ 333 59028 70040 85616 88458 81930==
41941,2023,09,10,03,00,AAXX 10034 41941 02450 81804 10310 20260 30045 40050 8632/ 333 20275 59026 70040 85616 88458 81930==
41941,2023,09,10,06,00,AAXX 10064 41941 02456 73604 10335 20270 30033 40038 85420 333 59025 70040 84616 87458==
41941,2023,09,10,09,00,AAXX 10094 41941 02450 83606 10332 20270 30007 40012 8632/ 333 59021 70000 84616 88458 81930==
41941,2023,09,10,12,00,AAXX 10124 41941 02450 70000 10305 20280 30005 40010 85420 333 10347 59016 70000 84616 87458==
41941,2023,09,10,15,00,AAXX 10154 41941 02440 61803 10295 20290 30026 40031 85420 333 59015 70000 84616 87458==
41941,2023,09,10,18,00,AAXX 10184 41941 02440 60000 10293 20280 30029 40034 85420 333 59016 70000 84616 86458==
41941,2023,09,10,21,00,AAXX 10214 41941 02440 62603 10289 20280 30021 40026 85420 333 59017 70000 84616 86458==
41941,2023,09,11,00,00,AAXX 11004 41941 02450 60000 10286 20280 30013 40018 85420 333 59013 70000 84616 86458==
41941,2023,09,11,03,00,AAXX 11034 41941 02450 60000 10315 20270 30030 40035 85420 333 20277 59015 70000 84616 86458==
41941,2023,09,11,06,00,AAXX 11064 41941 21450 80000 10290 20270 30025 40030 70362 8632/ 333 59008 60015 70010 85616 88458 81930==
41941,2023,09,11,09,00,AAXX 11094 41941 02456 60000 10310 20270 39999 40005 85420 333 59008 70010 84616 86458==
41941,2023,09,11,12,00,AAXX 11124 41941 02450 60000 10300 20260 30003 40009 85420 333 10317 59002 70010 84616 86458==
41941,2023,09,11,15,00,AAXX 11154 41941 02440 60000 10290 20270 30019 40024 85420 333 59007 70010 84616 86458==
41941,2023,09,12,03,00,AAXX 12034 41941 02456 60000 10311 20270 30031 40036 85420 333 20280 58001 70010 84616 86458==
41941,2023,09,12,06,00,AAXX 12064 41941 02456 61803 10325 20280 30021 40026 85420 333 59004 70000 84616 86458==
41941,2023,09,12,09,00,AAXX 12094 41941 02456 60803 10331 20270 30003 40008 85420 333 58004 70000 84616 86458==
41941,2023,09,12,12,00,AAXX 12124 41941 02450 60000 10305 20270 30009 40014 85420 333 10345 58006 70000 84616 86458==
41941,2023,09,12,15,00,AAXX 12154 41941 02440 60000 10300 20270 30023 40028 85420 333 58004 70000 84616 86458==
41941,2023,09,12,18,00,AAXX 12184 41941 02440 80000 10290 20270 30033 40038 8632/ 333 58005 70000 85616 88458 81930==
41941,2023,09,12,21,00,AAXX 12214 41941 02440 81803 10285 20280 30027 40032 8632/ 333 58003 70000 85616 88458 81930==
41941,2023,09,13,00,00,AAXX 13004 41941 02450 81803 10275 20270 30017 40022 8632/ 333 59005 70000 83616 88458 81930==
41941,2023,09,13,03,00,AAXX 13034 41941 02456 61804 10312 20250 30026 40031 85420 333 20273 59005 70000 84616 86458==
41941,2023,09,13,06,00,AAXX 13064 41941 02450 81804 10326 20260 30025 40030 8632/ 333 59004 70000 85616 88458 81930==
41941,2023,09,13,09,00,AAXX 13094 41941 02456 71804 10335 20260 39995 40000 85420 333 59008 70000 84616 87458==
41941,2023,09,13,12,00,AAXX 13124 41941 02456 70000 10314 20250 39996 40001 85420 333 10343 59013 70000 84616 87458==
41941,2023,09,13,15,00,AAXX 13154 41941 02450 71803 10290 20260 30023 40028 85420 333 58000 70000 84616 87458==
41941,2023,09,13,18,00,AAXX 13184 41941 02440 71804 10284 20250 30036 40041 85420 333 58003 70000 84616 87458==
41941,2023,09,13,21,00,AAXX 13214 41941 02440 70000 10280 20260 30032 40037 85420 333 58005 70000 84616 87458==
41941,2023,09,14,00,00,AAXX 14004 41941 02450 80904 10274 20250 30036 40041 8632/ 333 58019 70000 85616 88458 81928==
41941,2023,09,14,03,00,AAXX 14034 41941 02450 71806 10306 20260 30047 40052 85420 333 20270 58021 70000 84616 87458==
41941,2023,09,14,06,00,AAXX 14064 41941 02456 71804 10316 20260 30043 40048 85420 333 58018 70000 84616 87458==
41941,2023,09,14,09,00,AAXX 14094 41941 01450 81804 10290 20260 30019 40024 72162 8632/ 333 58024 70050 85612 88456 81924==
41941,2023,09,14,12,00,AAXX 14124 41941 01450 81804 10284 20260 30024 40029 70262 8632/ 333 10335 58024 70080 85612 88456 81924==
41941,2023,09,14,15,00,AAXX 14154 41941 02440 71804 10275 20270 30047 40052 85420 333 58024 70080 84616 87458==
41941,2023,09,14,18,00,AAXX 14184 41941 02440 71804 10274 20260 30052 40057 85420 333 58016 70080 84616 87458==
41941,2023,09,14,21,00,AAXX 14214 41941 01440 81804 10270 20270 30042 40048 71322 8632/ 333 58010 70080 85616 88458 81930==
41943,2023,09,08,00,00,AAXX 08004 41943 01330 81501 10260 20250 30047 40054 72162 8772/ 333 58006 70020 84708 84614 88457==
41943,2023,09,08,03,00,AAXX 08034 41943 01435 71602 10270 20260 30074 40081 72166 86620 333 10255 58027 70232 83710 84615 87457==
41943,2023,09,08,06,00,AAXX 08064 41943 21340 81802 10266 20250 30074 40081 70266 8662/ 333 58035 60149 70352 83709 84615 88458==
41943,2023,09,08,09,00,AAXX 08094 41943 01440 61802 10292 20250 30043 40050 70162 83520 333 58031 70372 83616 86458==
41943,2023,09,08,12,00,AAXX 08124 41943 11330 81802 10280 20260 30050 40057 60026 70362 8662/ 333 10295 58022 70200 83710 84615 88458==
41943,2023,09,08,15,00,AAXX 08154 41943 02330 81802 10267 20250 30067 40074 8662/ 333 58020 70186 83710 84615 88458==
41943,2023,09,08,18,00,AAXX 08184 41943 02330 80000 10258 20250 30067 40074 8662/ 333 58016 70186 83710 84615 88458==
41943,2023,09,08,21,00,AAXX 08214 41943 02330 80000 10265 20250 30062 40069 8662/ 333 58013 70164 83710 84615 88458==
41943,2023,09,09,00,00,AAXX 09004 41943 02330 80000 10254 20240 30059 40066 8662/ 333 58012 70164 83710 84615 88458==
41943,2023,09,09,03,00,AAXX 09034 41943 02440 50000 10315 20260 30071 40078 83520 333 20252 59003 70140 83616 85458==
41943,2023,09,09,06,00,AAXX 09064 41943 02440 61802 10334 20230 30054 40061 83520 333 59020 70020 85458==
41943,2023,09,09,09,00,AAXX 09094 41943 02440 40000 10347 20250 30020 40027 82530 333 59023 70000 83618 84362==
41943,2023,09,09,12,00,AAXX 09124 41943 02435 51802 10316 20260 30019 40026 83530 333 10352 59031 70000 83616 83462==
41943,2023,09,09,15,00,AAXX 09154 41943 02430 51802 10290 20260 30039 40046 83530 333 70000 83616 84362==
41943,2023,09,09,18,00,AAXX 09184 41943 02430 50000 10280 20260 30044 40051 83530 333 59023 70000 83616 84362==
41943,2023,09,09,21,00,AAXX 09214 41943 02430 60000 10276 20260 30037 40044 84520 333 59025 70000 84616 86458==
41943,2023,09,10,00,00,AAXX 10004 41943 21330 80000 10274 20260 30029 40036 70362 8662/ 333 59030 60025 70020 83710 84615 88458==
41943,2023,09,10,03,00,AAXX 10034 41943 01330 81802 10284 20260 30046 40053 76162 8772/ 333 20274 59025 70030 83709 84614 88458==
41943,2023,09,10,06,00,AAXX 10064 41943 21440 61802 10304 20260 30026 40033 70162 84520 333 59028 60035 70050 84616 85458==
41943,2023,09,10,09,00,AAXX 10094 41943 02440 52702 10336 20250 30006 40011 84520 333 59016 70050 83616 84458==
41943,2023,09,10,12,00,AAXX 10124 41943 02435 52702 10302 20260 30002 40009 83520 333 10340 59017 70050 83616 84458==
41943,2023,09,10,15,00,AAXX 10154 41943 02430 62702 10288 20270 30024 40031 83520 333 59015 70050 83616 85548==
41943,2023,09,10,18,00,AAXX 10184 41943 02430 60000 10286 20260 30032 40039 83520 333 59012 70050 83616 85458==
41943,2023,09,10,21,00,AAXX 10214 41943 02430 70000 10280 20260 30020 40029 83520 333 59015 70050 83616 86458==
41943,2023,09,11,00,00,AAXX 11004 41943 02330 80000 10280 20270 30013 40020 8662/ 333 59016 70030 83710 84615 88458==
41943,2023,09,11,03,00,AAXX 11034 41943 01330 81802 10282 20260 30034 40041 70262 8662/ 333 20270 59012 70030 83710 84615 88458==
41943,2023,09,11,06,00,AAXX 11064 41943 11330 81802 10302 20250 30023 40030 60016 70262 8662/ 333 59003 70010 83710 84615 88458==
41943,2023,09,11,09,00,AAXX 11094 41943 02440 51802 10330 20260 39993 40001 84520 333 59009 70010 83616 84458==
41943,2023,09,11,12,00,AAXX 11124 41943 02435 51802 10294 20250 39999 40006 83520 333 10335 59003 70010 83616 84458==
41943,2023,09,11,15,00,AAXX 11154 41943 02430 60000 10280 20260 30024 40031 83520 333 58000 70010 83616 85458==
41943,2023,09,11,18,00,AAXX 11184 41943 02430 60000 10276 20260 30032 40039 83520 333 58000 70010 83616 85458==
41943,2023,09,11,21,00,AAXX 11214 41943 01330 80000 10268 20260 30026 40033 70362 8662/ 333 58004 70080 81710 84615 88458==
41943,2023,09,12,00,00,AAXX 12004 41943 11330 80000 10257 20250 30020 40027 60076 70262 8662/ 333 58007 70080 83710 84615 88458==
41943,2023,09,12,03,00,AAXX 12034 41943 02440 61802 10284 20250 30037 40044 84520 333 20253 58003 70070 83616 85458==
41943,2023,09,12,06,00,AAXX 12064 41943 02440 61802 10315 20270 30025 40032 84520 333 58002 70070 83616 85458==
41943,2023,09,12,09,00,AAXX 12094 41943 02440 61802 10340 20260 39994 40002 84520 333 58001 70070 83616 85458==
41943,2023,09,12,12,00,AAXX 12124 41943 02430 42102 10310 20260 39998 40005 83430 333 10350 59001 70070 82618 83362==
41943,2023,09,12,15,00,AAXX 12154 41943 02430 51902 10286 20260 30030 40037 83520 333 58006 70070 83616 84458==
41943,2023,09,12,18,00,AAXX 12184 41943 01330 80000 10275 20260 30036 40043 76062 8772/ 333 58004 70010 84709 84614 88456==
41943,2023,09,12,21,00,AAXX 12214 41943 01330 80000 10268 20260 30020 40027 70266 8662/ 333 59006 70020 83710 84615 88458==
41943,2023,09,13,00,00,AAXX 13004 41943 11430 80000 10263 20250 30014 40021 60016 70262 8662/ 333 59006 70020 83710 84615 88458==
41943,2023,09,13,03,00,AAXX 13034 41943 05435 41802 10300 20250 30029 40036 83430 333 20263 59008 70020 84618 83362==
41943,2023,09,13,06,00,AAXX 13064 41943 02435 52302 10330 20240 30027 40034 83430 333 58002 70020 82618 83362==
41943,2023,09,13,09,00,AAXX 13094 41943 02440 51802 10325 20250 39994 40003 83430 333 58000 70020 82618 83362==
41943,2023,09,13,12,00,AAXX 13124 41943 02430 71302 10305 20260 30006 40013 84420 333 10335 58008 70020 83616 85458==
41943,2023,09,13,15,00,AAXX 13154 41943 02430 81802 10284 20250 30030 40037 8662/ 333 58000 70020 83710 84615 88458==
41943,2023,09,13,18,00,AAXX 13184 41943 02430 81302 10274 20250 30040 40047 8662/ 333 58004 70010 83710 84615 88458==
41943,2023,09,13,21,00,AAXX 13214 41943 02430 60000 10270 20260 30028 40035 83520 333 58008 70000 83616 84458==
41943,2023,09,14,00,00,AAXX 14004 41943 02430 80000 10255 20250 30032 40039 8662/ 333 58018 70000 83710 84615 88458==
41943,2023,09,14,03,00,AAXX 14034 41943 02430 61802 10300 20240 30055 40062 84520 333 20255 58026 70000 83616 85458==
41943,2023,09,14,06,00,AAXX 14064 41943 02435 71603 10305 20250 30049 40056 84420 333 58022 70000 83616 85458==
41943,2023,09,14,09,00,AAXX 14094 41943 01335 81603 10285 20260 30030 40037 70262 8762/ 333 58036 70010 84709 84615 88458==
41943,2023,09,14,12,00,AAXX 14124 41943 21430 81802 10270 20250 30033 40040 70266 8662/ 333 10325 58027 60035 70030 83710 84615 88458==
41943,2023,09,14,15,00,AAXX 14154 41943 02430 61802 10268 20260 30054 40061 84520 333 58024 70030 83616 85458==
41943,2023,09,14,18,00,AAXX 14184 41943 02430 80000 10263 20250 30057 40064 8662/ 333 58017 70030 83710 84615 88458==
41943,2023,09,14,21,00,AAXX 14214 41943 02430 80000 10262 20250 30051 40058 8662/ 333 58023 70030 83710 84615 88458==
41944,2023,09,08,00,00,AAXX 08004 41944 NIL=
41944,2023,09,08,06,00,AAXX 08064 41944 NIL=
41944,2023,09,09,06,00,AAXX 09064 41944 NIL=
41944,2023,09,09,12,00,AAXX 09124 41944 NIL=
41944,2023,09,09,18,00,AAXX 09184 41944 NIL=
41944,2023,09,10,00,00,AAXX 10004 41944 NIL=
41944,2023,09,10,12,00,AAXX 10124 41944 NIL=
41944,2023,09,11,00,00,AAXX 11004 41944 NIL=
41944,2023,09,11,06,00,AAXX 11064 41944 NIL=
41944,2023,09,12,06,00,AAXX 12064 41944 NIL=
41944,2023,09,12,12,00,AAXX 12124 41944 NIL=
41944,2023,09,13,12,00,AAXX 13124 41944 NIL=
41944,2023,09,13,18,00,AAXX 13184 41944 NIL=
41944,2023,09,14,06,00,AAXX 14064 41944 NIL=
41944,2023,09,14,18,00,AAXX 14184 41944 NIL=
41946,2023,09,08,00,00,AAXX 08004 41946 01350 81701 10272 20260 30028 40033 72162 8472/ 333 59002 70044 82710 83618 88459==
41946,2023,09,08,03,00,AAXX 08034 41946 01456 61702 10280 20270 30056 40061 76122 85420 333 20261 58015 70054 84618 85458==
41946,2023,09,08,06,00,AAXX 08064 41946 21356 71801 10281 20260 30053 40058 76162 85720 333 58024 60027 70052 82710 84617 86459==
41946,2023,09,08,09,00,AAXX 08094 41946 01456 81802 10290 20270 30035 40040 70362 8452/ 333 58029 70058 84618 88459==
41946,2023,09,08,15,00,AAXX 08154 41946 02456 71801 10286 20280 30059 40064 83520 333 58030 70044 83618 87459==
41946,2023,09,08,18,00,AAXX 08184 41946 02/56 20000 10278 20270 30059 40064 82030 333 58026 70044 82362==
41946,2023,09,09,03,00,AAXX 09034 41946 02456 50000 10310 20280 30068 40073 84430 333 20270 58012 70000 83618 83362==
41946,2023,09,09,06,00,AAXX 09064 41946 02456 51802 10320 20270 30058 40063 85400 333 58005 70006 83618 83820==
41946,2023,09,09,09,00,AAXX 09094 41946 02556 51601 10333 20250 30020 40024 85400 333 59015 70000 83620 83822==
41946,2023,09,09,12,00,AAXX 09124 41946 02556 61901 10322 20260 30020 40024 82201 333 10344 59017 70000 82825 84080==
41946,2023,09,09,15,00,AAXX 09154 41946 02456 20000 10302 20270 30045 40050 82500 333 59014 70000 82618==
41946,2023,09,09,18,00,AAXX 09184 41946 02456 20000 10290 20270 30043 40048 82500 333 59016 70000 82618==
41946,2023,09,09,21,00,AAXX 09214 41946 02456 60000 10283 20270 30032 40037 83530 333 59015 70000 83618 84362==
41946,2023,09,10,00,00,AAXX 10004 41946 02456 60000 10280 20270 30036 40041 83530 333 59025 70000 83618 84362==
41946,2023,09,10,03,00,AAXX 10034 41946 02456 62702 10310 20260 30045 40050 85430 333 20273 59023 70000 84618 83820==
41946,2023,09,10,06,00,AAXX 10064 41946 02456 51801 10340 20260 30039 40043 84401 333 59013 70000 83618==
41946,2023,09,10,09,00,AAXX 10094 41946 02557 31802 10350 20240 30011 40015 82501 333 59009 70000 82620==
41946,2023,09,10,12,00,AAXX 10124 41946 02456 60000 10309 20260 30009 40013 81501 333 10352 59011 70000 81618 85080==
41946,2023,09,10,15,00,AAXX 10154 41946 02/56 20000 10300 20280 30019 40023 82030 333 59026 70000 82362==
41946,2023,09,10,18,00,AAXX 10184 41946 02556 40000 10294 20270 30031 40035 82530 333 58012 70000 82620 83362==
41946,2023,09,10,21,00,AAXX 10214 41946 02556 30000 10290 20270 30011 40016 83500 333 59021 70000 83620==
41946,2023,09,11,00,00,AAXX 11004 41946 02556 40000 10284 20270 30014 40019 81101 333 59022 70000 81825 83080==
41946,2023,09,11,03,00,AAXX 11034 41946 02556 40000 10320 20270 30033 40038 82501 333 20270 59012 70000 82618 83080==
41946,2023,09,11,06,00,AAXX 11064 41946 02556 50000 10340 20260 30026 40030 83401 333 59019 70000 82618 83080==
41946,2023,09,11,09,00,AAXX 11094 41946 02556 60000 10330 20260 30001 40005 83501 333 59010 70000 83620 84080==
41946,2023,09,11,12,00,AAXX 11124 41946 02556 60000 10303 20250 30003 40008 83501 333 10340 59006 70000 83620 84080==
41946,2023,09,11,15,00,AAXX 11154 41946 02/56 30000 10294 20260 30024 40029 83030 333 59005 70000 83362==
41946,2023,09,12,03,00,AAXX 12034 41946 02456 60000 10320 20270 30037 40042 83409 333 20284 58004 70000 82618 83080==
41946,2023,09,12,06,00,AAXX 12064 41946 02456 61802 10340 20270 30022 40026 83401 333 59004 70000 82618 84080==
41946,2023,09,12,09,00,AAXX 12094 41946 02556 61002 10340 20250 39997 40002 86300 333 59004 70000 83620 83822 81929==
41946,2023,09,12,12,00,AAXX 12124 41946 01350 71803 10280 20270 30004 40009 79522 85920 333 10342 58001 70070 82710 84616 86458 81928==
41946,2023,09,12,15,00,AAXX 12154 41946 01456 60000 10287 20280 30028 40033 70196 82530 333 58004 70071 82618 84362==
41946,2023,09,12,18,00,AAXX 12184 41946 01456 60000 10288 20280 30031 40036 70296 82530 333 58005 70001 82618 84362==
41946,2023,09,12,21,00,AAXX 12214 41946 02456 60000 10284 20260 30009 40014 82530 333 59001 70071 82618 84362==
41946,2023,09,13,00,00,AAXX 13004 41946 02456 60000 10280 20270 30014 40019 82530 333 59005 70071 82618 84362==
41946,2023,09,13,03,00,AAXX 13034 41946 02456 60000 10305 20270 30023 40028 83401 333 20270 59014 70071 82618 83080==
41946,2023,09,13,06,00,AAXX 13064 41946 02456 61302 10330 20270 30018 40020 84301 333 59006 70071 83618 84080 81928==
41946,2023,09,13,09,00,AAXX 13094 41946 01456 50905 10310 20270 39989 49993 70162 83320 333 59008 70117 82618 85460 81929==
41946,2023,09,13,12,00,AAXX 13124 41946 01456 70906 10292 20260 39989 49994 72162 83301 333 10340 59015 70057 82618 84080 81929==
41946,2023,09,13,15,00,AAXX 13154 41946 02456 51402 10288 20260 30010 40015 85400 333 59018 70056 83618 83820==
41946,2023,09,13,18,00,AAXX 13184 41946 02556 30000 10282 20260 30017 40021 83400 333 59014 70056 82620==
41946,2023,09,13,21,00,AAXX 13214 41946 02556 40901 10282 20260 39999 40003 82530 333 59010 70056 82620 83360==
41946,2023,09,14,00,00,AAXX 14004 41946 02356 60504 10280 20260 30005 40010 84630 333 59009 70056 82710 83618==
41946,2023,09,14,03,00,AAXX 14034 41946 02456 63604 10292 20260 30030 40035 85430 333 20274 58007 70056 84618 83820==
41946,2023,09,14,06,00,AAXX 14064 41946 02456 80306 10308 20260 30026 40030 8442/ 333 58010 70010 83618 88460==
41946,2023,09,14,09,00,AAXX 14094 41946 02456 80504 10300 20260 30010 40015 8442/ 333 58021 70010 83618 88460==
41946,2023,09,14,12,00,AAXX 14124 41946 02456 80000 10295 20270 30012 40017 8252/ 333 10310 58023 70000 82618 88460==
41946,2023,09,14,15,00,AAXX 14154 41946 02456 41303 10290 20270 30039 40044 84500 333 58029 70000 84618==
41946,2023,09,14,18,00,AAXX 14184 41946 02456 51302 10284 20260 30043 40048 85400 333 58026 70000 83618==
41946,2023,09,14,21,00,AAXX 14214 41946 02456 60000 10276 20270 30034 40039 84320 333 58035 70000 83618 85459 81929==
41947,2023,09,08,00,00,AAXX 08004 41947 11456 80000 10270 20260 30027 40029 60056 70362 8352/ 333 58005 70080 83618 88458==
41947,2023,09,08,03,00,AAXX 08034 41947 01350 80000 10273 20260 30054 40056 76162 8672/ 333 20260 58025 70060 82708 84615 88458==
41947,2023,09,08,06,00,AAXX 08064 41947 21350 81802 10280 20260 30053 40055 76166 8672/ 333 58034 60029 70070 82708 84615 88458==
41947,2023,09,08,09,00,AAXX 08094 41947 02450 81802 10290 20270 30033 40035 8352/ 333 58029 70070 83618 88458==
41947,2023,09,08,12,00,AAXX 08124 41947 02450 80000 10285 20270 30035 40037 83500 333 10290 70070 83618==
41947,2023,09,08,15,00,AAXX 08154 41947 02450 20000 10280 20260 30061 40063 82500 333 58029 70070 82618==
41947,2023,09,08,18,00,AAXX 08184 41947 02450 20000 10280 20260 30058 40060 82500 333 58024 70066 82618==
41947,2023,09,09,03,00,AAXX 09034 41947 02456 71302 10298 20270 30063 40065 83570 333 20268 58009 70010 83618 85459==
41947,2023,09,09,06,00,AAXX 09064 41947 02456 60000 10332 20250 30052 40055 85430 333 58000 70000 82618 83820==
41947,2023,09,09,09,00,AAXX 09094 41947 02457 30000 10348 20250 30023 40025 83500 333 59010 70000 83618==
41947,2023,09,09,12,00,AAXX 09124 41947 02456 30000 10328 20270 30018 40020 83500 333 10350 59017 70000 83618==
41947,2023,09,09,15,00,AAXX 09154 41947 01450 60000 10280 20270 30044 40046 72122 83570 333 59017 70040 83618 85458==
41947,2023,09,09,18,00,AAXX 09184 41947 21450 50000 10285 20280 30041 40043 70162 83570 333 59017 60045 70040 83618 84458==
41947,2023,09,09,21,00,AAXX 09214 41947 02450 50000 10282 20270 30036 40034 83570 333 59020 70040 83618 84458==
41947,2023,09,10,00,00,AAXX 10004 41947 02450 80000 10278 20270 30031 40033 8352/ 333 59024 70040 83618 88458==
41947,2023,09,10,03,00,AAXX 10034 41947 02456 70000 10310 20260 30031 40034 83570 333 20270 59031 70040 83618 86458==
41947,2023,09,10,06,00,AAXX 10064 41947 02456 60000 10332 20260 30023 40026 86400 333 59029 70040 83618 83820==
41947,2023,09,10,09,00,AAXX 10094 41947 02457 30000 10355 20240 30005 40007 83400 333 59018 70040 82620==
41947,2023,09,10,12,00,AAXX 10124 41947 02456 30000 10310 20260 39998 40001 83400 333 10356 59019 70040 82618==
41947,2023,09,10,15,00,AAXX 10154 41947 02450 20000 10300 20270 30018 40021 82500 333 59025 70000 82618==
41947,2023,09,10,18,00,AAXX 10184 41947 02950 00000 10295 20280 30024 40027 333 59016 70000==
41947,2023,09,10,21,00,AAXX 10214 41947 02950 00000 10290 20280 30020 40023 333 59015 70000==
41947,2023,09,11,00,00,AAXX 11004 41947 02450 60000 10282 20270 30010 40013 82570 333 59020 70000 82618 85362==
41947,2023,09,11,03,00,AAXX 11034 41947 02456 70000 10310 20260 30015 40018 83570 333 20276 59016 70000 83618 86458==
41947,2023,09,11,06,00,AAXX 11064 41947 02456 70000 10336 20250 30011 40014 83570 333 59012 70000 83618 86458==
41947,2023,09,11,09,00,AAXX 11094 41947 02456 81502 10315 20270 39999 40001 8351/ 333 59006 70000 83618 88459==
41947,2023,09,11,12,00,AAXX 11124 41947 02456 62302 10305 20270 39999 40001 83470 333 10336 58000 70000 82618 84459==
41947,2023,09,11,15,00,AAXX 11154 41947 02456 80000 10293 20260 30017 40020 8352/ 333 59001 70000 83618 88459==
41947,2023,09,12,03,00,AAXX 12034 41947 02456 70000 10315 20270 30022 40025 83570 333 20280 58007 70000 83618 86458==
41947,2023,09,12,06,00,AAXX 12064 41947 02456 70000 10333 20250 30007 40010 83570 333 59004 70000 83618 86458==
41947,2023,09,12,09,00,AAXX 12094 41947 01350 80000 10278 20270 39996 49998 76162 8572/ 333 59003 70180 82709 83617 88458==
41947,2023,09,12,12,00,AAXX 12124 41947 11450 60000 10275 20270 30002 40004 60282 72162 83570 333 10335 59003 70280 83618 86458==
41947,2023,09,12,18,00,AAXX 12184 41947 02450 30000 10277 20270 30032 40034 83500 333 58011 70280 83618==
41947,2023,09,12,21,00,AAXX 12214 41947 01450 60000 10275 20270 30022 40024 70362 83570 333 58007 70310 83618 86458==
41947,2023,09,13,00,00,AAXX 13004 41947 11456 30000 10270 20260 30008 40010 60036 70162 83500 333 59004 70310 83618==
41947,2023,09,13,03,00,AAXX 13034 41947 02456 70903 10305 20270 30014 40016 83570 333 20260 59009 70310 83618 84459==
41947,2023,09,13,06,00,AAXX 13064 41947 02456 70902 10324 20260 30009 40012 83570 333 58002 70310 83618 85459==
41947,2023,09,13,09,00,AAXX 13094 41947 02456 71404 10330 20260 39987 49989 83570 333 59009 70130 83618 85458==
41947,2023,09,13,12,00,AAXX 13124 41947 02456 61402 10298 20270 39990 49992 83570 333 10335 59012 70030 83618 85458==
41947,2023,09,13,15,00,AAXX 13154 41947 02450 31402 10280 20260 30011 40013 83500 333 59019 70030 83618==
41947,2023,09,13,18,00,AAXX 13184 41947 02450 31404 10280 20260 30017 40019 83500 333 59015 70030 83618==
41947,2023,09,13,21,00,AAXX 13214 41947 02450 61403 10280 20260 30014 40016 83570 333 59008 70000 83618 85458==
41947,2023,09,14,00,00,AAXX 14004 41947 21450 81404 10276 20270 30013 40015 70362 8352/ 333 58005 60087 70080 83618 88458==
41947,2023,09,14,03,00,AAXX 14034 41947 02356 81303 10280 20260 30023 40026 8462/ 333 20268 58010 70080 81709 84617 88458==
41947,2023,09,14,06,00,AAXX 14064 41947 21350 81303 10305 20270 30021 40024 70262 8462/ 333 58012 69925 70082 81709 84617 88458==
41947,2023,09,14,09,00,AAXX 14094 41947 01456 81303 10296 20270 30011 40013 70262 8352/ 333 58024 70086 83618 88458==
41947,2023,09,14,12,00,AAXX 14124 41947 11356 71302 10288 20280 30012 40014 69946 70162 85670 333 10305 58022 70086 82710 84616 85458==
41947,2023,09,14,15,00,AAXX 14154 41947 02/56 41503 10286 20280 30037 40039 84010 333 58026 70086 84459==
41947,2023,09,14,18,00,AAXX 14184 41947 02456 81503 10282 20260 30042 40044 8352/ 333 58025 70086 83618 88458==
41947,2023,09,14,21,00,AAXX 14214 41947 01450 81302 10274 20260 30035 40037 72122 8352/ 333 58027 70018 83618 88458==
41950,2023,09,08,00,00,AAXX 08004 41950 01350 80000 10270 20270 30035 40037 70262 8562/ 333 59001 70150 82708 84616 88458==
41950,2023,09,08,03,00,AAXX 08034 41950 01340 80000 10265 20265 30070 40072 76162 8572/ 333 20262 58018 70060 82708 84616 88458==
41950,2023,09,08,06,00,AAXX 08064 41950 21350 80000 10274 20260 30063 40065 72162 8562/ 333 58025 60049 70065 82708 84616 88458==
41950,2023,09,08,09,00,AAXX 08094 41950 01350 80000 10280 20260 30037 40039 70262 8562/ 333 58023 70047 82708 84616 88458==
41950,2023,09,08,12,00,AAXX 08124 41950 11350 80000 10275 20270 30043 40045 69926 70262 8562/ 333 10292 58025 70041 82708 84616 88458==
41950,2023,09,08,15,00,AAXX 08154 41950 02350 80000 10272 20260 30066 40068 8562/ 333 58026 70041 82708 84616 88458==
41950,2023,09,08,18,00,AAXX 08184 41950 02350 80000 10272 20270 30066 40068 8562/ 333 58025 70041 82708 84616 88458==
41950,2023,09,08,21,00,AAXX 08214 41950 12350 80000 10266 20266 30059 60062 8562/ 333 58029 70037 82708 84616 88458==
41950,2023,09,09,00,00,AAXX 09004 41950 21350 80000 10265 20265 30059 40062 70262 8562/ 333 58024 60137 70167 82708 84616 88458==
41950,2023,09,09,03,00,AAXX 09034 41950 02350 70000 10289 20260 30070 40072 8562/ 333 20259 58000 70147 81708 84616 86459==
41950,2023,09,09,06,00,AAXX 09064 41950 02450 60000 10335 20260 30056 40058 85431 333 59007 70132 84617==
41950,2023,09,09,09,00,AAXX 09094 41950 02450 60000 10330 20260 30024 40026 85431 333 59013 70130 84617==
41950,2023,09,09,12,00,AAXX 09124 41950 02450 60000 10300 20270 30028 40030 85331 333 10347 59015 70130 84617 81928==
41950,2023,09,09,15,00,AAXX 09154 41950 01350 80000 10278 20278 30045 40047 72122 8562/ 333 59021 70133 82708 84616 88458==
41950,2023,09,09,18,00,AAXX 09184 41950 21/50 20000 10275 20275 30044 40046 70162 82030 333 59022 69935 70133 82362==
41950,2023,09,09,21,00,AAXX 09214 41950 02350 70000 10270 20270 30035 40037 84670 333 59024 70133 81708 84616 85459==
41950,2023,09,10,00,00,AAXX 10004 41950 01340 80000 10269 20269 30035 40037 70521 8562/ 333 59024 70003 82708 84616 88458==
41950,2023,09,10,03,00,AAXX 10034 41950 02450 10000 10317 20260 30046 40048 81530 333 20266 59024 70003 81617==
41950,2023,09,10,06,00,AAXX 10064 41950 02450 50000 10338 20270 30034 40036 84401 333 59022 70003 83617==
41950,2023,09,10,09,00,AAXX 10094 41950 02450 50000 10352 20240 30006 40008 84430 333 59018 70003 83617==
41950,2023,09,10,12,00,AAXX 10124 41950 02350 70000 10310 20280 30004 40007 84610 333 10360 59024 70003 82708 83616 87459==
41950,2023,09,10,15,00,AAXX 10154 41950 01340 81702 10285 20280 30029 40031 79592 8692/ 333 59016 70004 82708 84616 88458 81928==
41950,2023,09,10,18,00,AAXX 10184 41950 21350 50000 10278 20278 30030 40032 70196 83530 333 59014 69945 70004 83617 83362==
41950,2023,09,10,21,00,AAXX 10214 41950 02450 50000 10277 20277 30020 40022 83530 333 59015 70004 83617 83362==
41950,2023,09,11,00,00,AAXX 11004 41950 02350 80000 10280 20280 30015 40017 8562/ 333 59020 70004 82708 84616 88458==
41950,2023,09,11,03,00,AAXX 11034 41950 02350 80000 10287 20280 30036 40038 8562/ 333 20273 59010 70004 82708 84616 88458==
41950,2023,09,11,06,00,AAXX 11064 41950 01350 80000 10290 20260 30029 40031 70262 333 59005 70010 82708 84616 88458==
41950,2023,09,11,09,00,AAXX 11094 41950 02456 62102 10322 20250 30002 40005 83431 333 59004 70014 83617 84362==
41950,2023,09,11,12,00,AAXX 11124 41950 02450 60000 10300 20270 30004 40006 82431 333 10326 58000 70014 82617 84080==
41950,2023,09,11,15,00,AAXX 11154 41950 02450 20000 10278 20270 30024 40026 82530 333 59005 70010 82617==
41950,2023,09,11,18,00,AAXX 11184 41950 02950 20000 10272 20270 30029 40031 80001 333 59001 70010 82080==
41950,2023,09,11,21,00,AAXX 11214 41950 02450 50000 10270 20270 30018 40020 83511 333 59002 70010 83617 85459==
41950,2023,09,12,00,00,AAXX 12004 41950 02350 80000 10272 20272 30022 40024 8562/ 333 59007 70010 82708 84616 88458==
41950,2023,09,12,03,00,AAXX 12034 41950 02450 70000 10306 20270 30037 40039 85431 333 20270 58001 70010 84616 84362==
41950,2023,09,12,06,00,AAXX 12064 41950 02456 60000 10326 20290 30023 40025 85431 333 59006 70000 84616==
41950,2023,09,12,09,00,AAXX 12094 41950 02450 60902 10329 20250 39992 49994 84431 333 59010 70000 83617==
41950,2023,09,12,12,00,AAXX 12124 41950 02350 60000 10305 20270 30004 40007 84670 333 10337 58000 70000 81708 84616 86459==
41950,2023,09,12,15,00,AAXX 12154 41950 02950 00000 10278 20270 30026 40028 333 58002 70000==
41950,2023,09,12,18,00,AAXX 12184 41950 02350 80000 10284 20270 30034 40036 8562/ 333 58005 70000 82708 84616 88458==
41950,2023,09,12,21,00,AAXX 12214 41950 02450 50000 10272 20260 30008 40010 83530 333 59010 70000 83616 83362==
41950,2023,09,13,00,00,AAXX 13004 41950 02450 60000 10274 20260 30008 40010 83570 333 59014 70000 83616 84459==
41950,2023,09,13,03,00,AAXX 13034 41950 02450 60903 10310 20260 30024 40026 85431 333 20266 59013 70000 84617==
41950,2023,09,13,06,00,AAXX 13064 41950 02350 71902 10312 20260 30021 40024 86610 333 59002 70000 82708 84616 87459==
41950,2023,09,13,09,00,AAXX 13094 41950 02450 50903 10320 20290 39992 49995 85401 333 58000 70000 84617==
41950,2023,09,13,12,00,AAXX 13124 41950 01350 71402 10288 20280 30004 40006 72122 85671 333 10330 58000 70003 82708 84616 86458==
41950,2023,09,13,15,00,AAXX 13154 41950 02350 61202 10280 20270 30020 40022 83670 333 59006 70003 81708 83616 85459==
41950,2023,09,13,18,00,AAXX 13184 41950 02350 80000 10275 20270 30027 40029 8562/ 333 59007 70003 82708 84616 88458==
41950,2023,09,13,21,00,AAXX 13214 41950 02350 80000 10274 20260 30018 40020 8562/ 333 59010 70003 82708 84616 88458==
41950,2023,09,14,00,00,AAXX 14004 41950 11340 81202 10271 20260 30026 40028 60022 76162 8572/ 333 58018 70018 82708 84616 88458==
41950,2023,09,14,03,00,AAXX 14034 41950 01340 81202 10274 20250 30038 40040 76166 8572/ 333 20264 58014 70028 82708 84616 88458==
41950,2023,09,14,06,00,AAXX 14064 41950 21350 80000 10280 20260 30044 40046 72166 8562/ 333 58023 60079 70089 82708 84616 88458==
41950,2023,09,14,09,00,AAXX 14094 41950 01350 80000 10290 20280 30021 40023 70262 8562/ 333 58029 70094 82708 84616 88458==
41950,2023,09,14,12,00,AAXX 14124 41950 11350 70000 10285 20280 30024 40026 69946 70162 85610 333 10293 58020 70091 82708 84616 87459==
41950,2023,09,14,15,00,AAXX 14154 41950 02350 81302 10279 20270 30046 40048 8562/ 333 58026 70091 82708 84616 88458==
41950,2023,09,14,18,00,AAXX 14184 41950 21350 80000 10270 20270 30054 40056 70262 8562/ 333 58027 69925 70091 82708 84616 88458==
41950,2023,09,14,21,00,AAXX 14214 41950 01350 80000 10267 20260 30046 40048 70262 8562/ 333 58028 70173 82708 84616 88458==
41951,2023,09,08,00,00,AAXX 08004 41951 01330 80000 10275 20275 30038 40042 72162 8662/ 333 58007 70376 82706 84618 88458==
41951,2023,09,08,03,00,AAXX 08034 41951 01330 81302 10264 20260 30062 40066 76362 8672/ 333 20256 58020 70396 82706 84616 88458==
41951,2023,09,08,06,00,AAXX 08064 41951 21340 81302 10275 20275 30065 40070 70262 8562/ 333 58028 60238 70445 81708 84618 88458==
41951,2023,09,08,09,00,AAXX 08094 41951 01340 81302 10280 20270 30040 40045 72166 8562/ 333 58030 70407 81708 84618 88458==
41951,2023,09,08,15,00,AAXX 08154 41951 02340 80000 10276 20276 30064 40069 8562/ 333 58021 70376 81708 84618 88458==
41951,2023,09,08,18,00,AAXX 08184 41951 02340 81302 10276 20270 30059 40063 8562/ 333 58021 70376 81708 84618 88458==
41951,2023,09,09,00,00,AAXX 09004 41951 21340 70000 10268 20268 30053 40058 71062 84610 333 58015 69935 70244 81708 83618 86458==
41951,2023,09,09,03,00,AAXX 09034 41951 02456 61302 10302 20270 30064 40069 83510 333 20260 58002 70066 83618 85459==
41951,2023,09,09,06,00,AAXX 09064 41951 02456 61302 10328 20280 30053 40058 83510 333 59012 70017 83618 85459==
41951,2023,09,09,09,00,AAXX 09094 41951 02456 51102 10322 20270 30019 40024 82510 333 59021 70003 82618 84459==
41951,2023,09,09,12,00,AAXX 09124 41951 02456 61803 10316 20270 30020 40025 83510 333 10333 59016 70003 83618 85459==
41951,2023,09,09,15,00,AAXX 09154 41951 02450 20000 10287 20280 30043 40048 82500 333 59021 70003 82618==
41951,2023,09,09,18,00,AAXX 09184 41951 02450 20000 10280 20280 30042 40047 82500 333 59017 70003 82618==
41951,2023,09,09,21,00,AAXX 09214 41951 02450 50000 10278 20278 30035 40040 82510 333 59020 70003 82618 84459==
41951,2023,09,10,00,00,AAXX 10004 41951 01440 70000 10275 20275 30024 40028 70522 83510 333 59029 70000 83618 86459==
41951,2023,09,10,03,00,AAXX 10034 41951 02456 21302 10326 20270 30037 40042 82500 333 20270 59027 70000 82618==
41951,2023,09,10,06,00,AAXX 10064 41951 02456 51302 10342 20260 30027 40032 82510 333 59026 70000 82618 84456==
41951,2023,09,10,09,00,AAXX 10094 41951 02456 30000 10358 20250 30007 40012 83500 333 59012 70000 83618==
41951,2023,09,10,12,00,AAXX 10124 41951 02456 50000 10320 20280 39999 40004 82510 333 10360 59021 70000 82618 84459==
41951,2023,09,10,15,00,AAXX 10154 41951 01340 82402 10282 20250 30027 40032 71722 8692/ 333 59016 70000 81708 84618 88458 82925==
41951,2023,09,10,21,00,AAXX 10214 41951 02440 60000 10279 20270 30024 40029 83510 333 59011 70000 83618 85459==
41951,2023,09,11,00,00,AAXX 11004 41951 02340 80000 10283 20280 30012 40017 8562/ 333 59012 70000 81708 84618 88458==
41951,2023,09,11,03,00,AAXX 11034 41951 01330 81302 10263 20260 30036 40040 79596 8792/ 333 20260 59001 70128 82706 84618 88458 82925==
41951,2023,09,11,06,00,AAXX 11064 41951 21456 61302 10300 20270 30022 40027 70196 83510 333 59005 60138 70132 83618 85459==
41951,2023,09,11,09,00,AAXX 11094 41951 02456 51403 10317 20270 30002 40007 82510 333 59005 70132 82618 84459==
41951,2023,09,11,12,00,AAXX 11124 41951 02456 51802 10302 20270 39997 40002 82510 333 10320 59002 70132 82618 84459==
41951,2023,09,11,15,00,AAXX 11154 41951 02450 30000 10282 20270 30029 40034 83500 333 58002 70132 83618==
41951,2023,09,12,06,00,AAXX 12064 41951 02456 61302 10326 20260 30025 40030 83510 333 58003 70005 83618 85459==
41951,2023,09,12,09,00,AAXX 12094 41951 02456 61102 10333 20270 39996 40001 83510 333 59006 70005 83618 85459==
41951,2023,09,12,12,00,AAXX 12124 41951 02456 61302 10310 20270 39999 40004 83510 333 10335 58002 70005 83618 85459==
41951,2023,09,12,15,00,AAXX 12154 41951 02450 30000 10290 20280 30034 40039 83500 333 58005 70005 83618==
41951,2023,09,12,18,00,AAXX 12184 41951 01330 80000 10276 20270 30032 40037 79192 8672/ 333 58003 70004 82706 84616 88458==
41951,2023,09,12,21,00,AAXX 12214 41951 01340 80000 10273 20260 30022 40027 70262 8562/ 333 59005 70022 81708 84618 88458==
41951,2023,09,13,00,00,AAXX 13004 41951 11340 81303 10276 20270 30005 40010 60016 70262 8562/ 333 59011 70017 81708 84618 88458==
41951,2023,09,13,03,00,AAXX 13034 41951 02450 61302 10293 20260 30018 40023 84610 333 20270 59013 70017 81708 83618 85459==
41951,2023,09,13,06,00,AAXX 13064 41951 02456 60904 10315 20260 30024 40029 83510 333 59001 70017 83618 85459==
41951,2023,09,13,09,00,AAXX 13094 41951 02456 60908 10312 20260 39992 49997 83510 333 59004 70017 83618 85459==
41951,2023,09,13,12,00,AAXX 13124 41951 02456 61308 10300 20250 39997 40002 83510 333 10326 59002 70017 83618 85459==
41951,2023,09,13,15,00,AAXX 13154 41951 01340 71304 10283 20260 30026 40031 70362 84610 333 59008 70019 81708 83618 86459==
41951,2023,09,13,18,00,AAXX 13184 41951 01340 80905 10283 20260 30029 40034 72162 8562/ 333 59003 70019 81708 84618 88458==
41951,2023,09,13,21,00,AAXX 13214 41951 01340 80904 10280 20260 30027 40032 70262 8562/ 333 58005 70010 81708 84618 88458==
41951,2023,09,14,00,00,AAXX 14004 41951 01340 80000 10267 20267 30023 40027 76262 8672/ 333 58018 70067 82706 84616 88458==
41951,2023,09,14,03,00,AAXX 14034 41951 01340 81302 10278 20270 30037 40041 76166 8672/ 333 20260 58019 70103 82706 84616 88458==
41951,2023,09,14,06,00,AAXX 14064 41951 21340 82905 10293 20270 30043 40047 70262 8562/ 333 58019 60058 70121 81708 84618 88458==
41951,2023,09,14,09,00,AAXX 14094 41951 01340 81303 10288 20270 30023 40027 70262 8662/ 333 58031 70130 82706 84616 88458==
41951,2023,09,14,12,00,AAXX 14124 41951 01330 81304 10280 20270 30021 40025 76062 8672/ 333 10297 58024 70146 82706 84616 88458==
41951,2023,09,14,15,00,AAXX 14154 41951 02340 81205 10282 20270 30051 40055 8562/ 333 58025 70144 81708 84618 88458==
41951,2023,09,14,18,00,AAXX 14184 41951 02340 81202 10282 20270 30053 40058 8562/ 333 58024 70140 81708 84618 88458==
41951,2023,09,14,21,00,AAXX 14214 41951 02340 81302 10275 20270 30050 40055 8562/ 333 58023 70136 81708 84618 88458==
41953,2023,09,08,00,00,AAXX 08004 41953 11440 81808 10266 20266 30055 40060 60216 70262 8452/ 333 58011 70240 84615 88458==
41953,2023,09,08,03,00,AAXX 08034 41953 01440 81306 10265 20265 30080 40085 76162 8452/ 333 20264 58027 70310 84614 88458==
41953,2023,09,08,06,00,AAXX 08064 41953 21440 81302 10264 20250 30074 40079 76166 8452/ 333 58027 60129 70360 84614 88456==
41953,2023,09,08,09,00,AAXX 08094 41953 01440 81303 10276 20270 30043 40048 72166 8452/ 333 58031 70420 84616 88458==
41953,2023,09,08,12,00,AAXX 08124 41953 21440 81301 10276 20260 30051 40056 70262 8352/ 333 10265 58037 60068 70840 82618 84460==
41953,2023,09,08,15,00,AAXX 08154 41953 02430 51302 10274 20260 30071 40076 83510 333 58024 70390 83616 84458==
41953,2023,09,08,18,00,AAXX 08184 41953 02430 51302 10270 20260 30073 40078 82510 333 58022 70390 82618 84458==
41953,2023,09,09,03,00,AAXX 09034 41953 02450 81302 10292 20260 30081 40086 8352/ 333 20260 58001 70110 83616 88458==
41953,2023,09,09,06,00,AAXX 09064 41953 02450 61306 10334 20260 30065 40070 83470 333 59009 70060 82616 84458==
41953,2023,09,09,09,00,AAXX 09094 41953 02450 61303 10325 20260 30021 40026 83470 333 59025 70000 82618 84458==
41953,2023,09,09,12,00,AAXX 09124 41953 02450 31302 10315 20290 30028 40033 83400 333 10337 59023 70000 82618==
41953,2023,09,09,15,00,AAXX 09154 41953 02440 20000 10300 20280 30044 40049 82500 333 59027 70000 82618==
41953,2023,09,09,18,00,AAXX 09184 41953 02440 20000 10290 20280 30058 40063 82500 333 59015 70000 82618==
41953,2023,09,09,21,00,AAXX 09214 41953 02440 60000 10286 20280 30048 40053 83520 333 59020 70000 83616 86458==
41953,2023,09,10,00,00,AAXX 10004 41953 NIL=
41953,2023,09,10,03,00,AAXX 10034 41953 02450 52304 10310 20270 30065 40070 82520 333 20280 59016 70000 82618 85458==
41953,2023,09,10,06,00,AAXX 10064 41953 01440 80000 10286 20280 30037 40042 72122 8452/ 333 59028 70030 84616 88458==
41953,2023,09,10,09,00,AAXX 10094 41953 02450 40000 10332 20260 30009 40014 84400 333 59012 70030 82618==
41953,2023,09,10,12,00,AAXX 10124 41953 01440 80000 10284 20270 30006 40011 72122 8452/ 333 10334 59022 70040 84616 88458==
41953,2023,09,10,15,00,AAXX 10154 41953 02430 80000 10288 20280 30031 40036 8352/ 333 59013 70070 83616 88458==
41953,2023,09,10,18,00,AAXX 10184 41953 02430 50000 10284 20270 30034 40039 82510 333 59024 70070 82616 84458==
41953,2023,09,10,21,00,AAXX 10214 41953 02430 80000 10282 20270 30025 40030 8352/ 333 59023 70070 83616 88458==
41953,2023,09,11,00,00,AAXX 11004 41953 01440 80000 10282 20280 30021 40026 72122 8352/ 333 59013 70020 83616 88458==
41953,2023,09,11,03,00,AAXX 11034 41953 01440 80000 10260 20260 30037 40042 76162 8452/ 333 20259 59028 70150 84616 88458==
41953,2023,09,11,06,00,AAXX 11064 41953 21450 62304 10310 20280 30029 40034 70162 82570 333 59008 60095 70150 82616 84458==
41953,2023,09,11,09,00,AAXX 11094 41953 02450 81803 10315 20290 30003 40008 8352/ 333 59003 70150 83616 88458==
41953,2023,09,11,12,00,AAXX 11124 41953 02450 60000 10300 20270 30002 40007 82520 333 10317 59004 70110 82616 85458==
41953,2023,09,11,15,00,AAXX 11154 41953 02440 20000 10292 20270 30024 40029 82500 333 59007 70110 82618==
41953,2023,09,12,00,00,AAXX 12004 41953 02450 80000 10272 20270 30023 40029 8352/ 333 58003 70090 83616 88458==
41953,2023,09,12,06,00,AAXX 12064 41953 02450 51302 10330 20270 30029 40034 85400 333 58000 70030 83616 83825==
41953,2023,09,12,09,00,AAXX 12094 41953 02450 51304 10332 20270 39997 40002 85400 333 59006 70000 83616 83825==
41953,2023,09,12,12,00,AAXX 12124 41953 02440 50000 10300 20260 30005 40010 82510 333 10334 58003 70000 82616 84458==
41953,2023,09,12,15,00,AAXX 12154 41953 02430 60000 10292 20260 30035 40040 83510 333 58011 70000 83616 85458==
41953,2023,09,12,21,00,AAXX 12214 41953 01430 80000 10280 20260 30025 40030 70362 8352/ 333 58002 70020 83616 88458==
41953,2023,09,13,00,00,AAXX 13004 41953 11440 80000 10266 20260 30017 40022 60026 70262 8352/ 333 59007 70020 83616 88458==
41953,2023,09,13,03,00,AAXX 13034 41953 02450 71302 10290 20260 30035 40040 83510 333 20265 59009 70020 83616 86458==
41953,2023,09,13,06,00,AAXX 13064 41953 02450 41303 10326 20250 30031 40036 84400 333 58002 70020 82616 83825==
41953,2023,09,13,09,00,AAXX 13094 41953 02450 41303 10322 20250 30001 40006 84400 333 58004 70020 82616 83825==
41953,2023,09,13,12,00,AAXX 13124 41953 02450 51303 10295 20250 30008 40013 83430 333 10330 58003 70020 82616 85362==
41953,2023,09,13,15,00,AAXX 13154 41953 02440 81304 10288 20250 30026 40031 8352/ 333 59009 70020 83616 88458==
41953,2023,09,13,18,00,AAXX 13184 41953 02440 81305 10280 20250 30039 40044 8352/ 333 58000 70020 83616 88458==
41953,2023,09,13,21,00,AAXX 13214 41953 02440 81305 10276 20260 30033 40038 8352/ 333 58008 70000 83616 88458==
41953,2023,09,14,00,00,AAXX 14004 41953 02440 81303 10270 20250 30032 40037 8352/ 333 58015 70000 83616 88458==
41953,2023,09,14,03,00,AAXX 14034 41953 02450 51305 10310 20250 30053 40058 83430 333 20266 58018 70000 82616 85362==
41953,2023,09,14,06,00,AAXX 14064 41953 02450 81303 10310 20260 30049 40054 8352/ 333 58018 70000 83616 88458==
41953,2023,09,14,09,00,AAXX 14094 41953 02450 81304 10300 20260 30028 40033 8352/ 333 58027 70000 83616 88458==
41953,2023,09,14,12,00,AAXX 14124 41953 02450 81303 10270 20260 30011 40022 82830 333 10345 58023 70000 81618 83360==
41953,2023,09,14,15,00,AAXX 14154 41953 02440 81303 10275 20260 30055 40060 8352/ 333 58029 70000 83616 88458==
41953,2023,09,14,18,00,AAXX 14184 41953 02440 81303 10275 20270 30061 40066 8352/ 333 58022 70000 83616 88458==
41953,2023,09,14,21,00,AAXX 14214 41953 02440 81303 10270 20260 30055 40060 8352/ 333 58022 70000 83616 88458==
41955,2023,09,08,00,00,AAXX 08004 41955 NIL=
41955,2023,09,08,06,00,AAXX 08064 41955 NIL=
41955,2023,09,09,06,00,AAXX 09064 41955 NIL=
41955,2023,09,09,12,00,AAXX 09124 41955 NIL=
41955,2023,09,09,18,00,AAXX 09184 41955 NIL=
41955,2023,09,10,00,00,AAXX 10004 41955 NIL=
41955,2023,09,10,12,00,AAXX 10124 41955 NIL=
41955,2023,09,11,00,00,AAXX 11004 41955 NIL=
41955,2023,09,11,06,00,AAXX 11064 41955 NIL=
41955,2023,09,12,06,00,AAXX 12064 41955 NIL=
41955,2023,09,12,12,00,AAXX 12124 41955 NIL=
41955,2023,09,13,12,00,AAXX 13124 41955 NIL=
41955,2023,09,13,18,00,AAXX 13184 41955 NIL=
41955,2023,09,14,06,00,AAXX 14064 41955 NIL=
41955,2023,09,14,18,00,AAXX 14184 41955 NIL=
41958,2023,09,08,00,00,AAXX 08004 41958 11440 71502 10270 20270 30027 40029 60027 70262 85310 333 56390 58004 70202 84616 81930 87459=
41958,2023,09,08,03,00,AAXX 08034 41958 21450 81502 10278 20278 30053 40055 76166 8532/ 333 20260 56399 58019 6003/ 70186 84616 81930 88459=
41958,2023,09,08,06,00,AAXX 08064 41958 11450 81503 10278 20270 30049 40051 60019 76166 8532/ 333 56399 58024 70196 84616 81930 88459=
41958,2023,09,08,09,00,AAXX 08094 41958 32456 81502 10290 20270 30031 40033 8542/ 333 56499 58033 70196 84616 88459=
41958,2023,09,08,18,00,AAXX 08184 41958 32440 31502 10272 20260 30054 40056 83500 333 56300 58025 70054 83617=
41958,2023,09,09,00,00,AAXX 09004 41958 11440 51502 10276 20276 30045 40047 69926 70262 82530 333 56390 58018 70040 82617 85362=
41958,2023,09,09,03,00,AAXX 09034 41958 32450 51502 10304 20280 30059 40061 83530 333 20268 56390 58006 70012 83617 85362=
41958,2023,09,09,06,00,AAXX 09064 41958 32457 51502 10332 20270 30047 40049 84401 333 56409 59002 70002 83617=
41958,2023,09,09,09,00,AAXX 09094 41958 32458 30000 10348 20280 30012 40014 83401 333 56309 59019 70002 82617=
41958,2023,09,09,12,00,AAXX 09124 41958 32456 31502 10308 20280 30016 40018 83300 333 10351 56900 59010 70002 82617 81930=
41958,2023,09,09,15,00,AAXX 09154 41958 31950 21501 10288 20280 30036 40038 70191 82030 333 56090 59017 70002 82362=
41958,2023,09,09,18,00,AAXX 09184 41958 31940 00000 10284 20270 30035 40037 70191 333 59019 70002=
41958,2023,09,09,21,00,AAXX 09214 41958 32940 20000 10276 20270 30020 40022 80001 333 56009 59023 70000 82080=
41958,2023,09,10,00,00,AAXX 10004 41958 32950 50000 10274 20260 30023 40025 80002 333 56009 59022 70000 85078=
41958,2023,09,10,03,00,AAXX 10034 41958 32457 51801 10308 20280 30037 40039 82530 333 20270 56490 59022 70000 82617 85362=
41958,2023,09,10,06,00,AAXX 10064 41958 32558 30000 10338 20280 30027 40029 81130 333 56990 59020 70000 81825 83362=
41958,2023,09,10,09,00,AAXX 10094 41958 32458 52504 10342 20280 30007 40009 85300 333 56500 59005 70000 83616 81930=
41958,2023,09,10,12,00,AAXX 10124 41958 32956 22702 10300 20280 30001 40003 80001 333 10358 56009 59015 70000 82080=
41958,2023,09,10,15,00,AAXX 10154 41958 32950 00000 10286 20280 30021 40023 333 59015 70000=
41958,2023,09,10,18,00,AAXX 10184 41958 32940 00000 10282 20270 30023 40025 333 59012 70000=
41958,2023,09,10,21,00,AAXX 10214 41958 32940 00000 10280 20280 30005 40007 333 59015 70000=
41958,2023,09,11,00,00,AAXX 11004 41958 32950 30000 10278 20278 30009 40011 80001 333 56009 59014 70000 83080=
41958,2023,09,11,03,00,AAXX 11034 41958 32957 50000 10302 20280 30024 40026 80002 333 20274 56009 59013 70000 85078=
41958,2023,09,11,06,00,AAXX 11064 41958 32457 80000 10320 20280 30018 40020 8532/ 333 56999 59009 70000 84616 81930 88459=
41958,2023,09,11,09,00,AAXX 11094 41958 32457 70000 10317 20280 39997 49999 85310 333 56990 59010 70000 84616 81930 87459=
41958,2023,09,11,12,00,AAXX 11124 41958 32456 60000 10300 20270 39995 49997 85310 333 20324 56390 59006 70000 84616 81930 86459=
41958,2023,09,11,15,00,AAXX 11154 41958 32450 50000 10290 20270 30010 40012 85400 333 56300 59011 70000 84617=
41958,2023,09,12,06,00,AAXX 12064 41958 32458 51601 10327 20260 30016 40018 85400 333 56300 59002 70000 84617=
41958,2023,09,12,09,00,AAXX 12094 41958 21458 60901 10338 20280 39988 49990 70362 85310 333 56390 59009 6991/ 70001 84616 81930 86459=
41958,2023,09,12,12,00,AAXX 12124 41958 11456 50000 10285 20280 39997 49999 60068 70166 85400 333 10346 56900 58002 70059 84617=
41958,2023,09,12,15,00,AAXX 12154 41958 32450 00000 10290 20280 30006 40008 333 59004 70059=
41958,2023,09,12,18,00,AAXX 12184 41958 32440 60000 10284 20270 30020 40022 85310 333 56990 59008 70059 84616 81930 86459=
41958,2023,09,12,21,00,AAXX 12214 41958 32440 40000 10277 20270 39993 49995 84400 333 56300 59012 70059 83617=
41958,2023,09,13,00,00,AAXX 13004 41958 32450 50000 10273 20270 39995 49997 85400 333 56300 59013 70059 84617=
41958,2023,09,13,03,00,AAXX 13034 41958 32457 60901 10300 20270 30013 40015 85310 333 20269 56390 59014 70059 84616 81930 86459=
41958,2023,09,13,06,00,AAXX 13064 41958 32458 60902 10324 20270 30007 40009 85410 333 56390 59009 70059 84616 86459=
41958,2023,09,13,09,00,AAXX 13094 41958 21458 60902 10318 20270 39975 49977 70261 85410 333 56390 59013 6003/ 70086 84616 86459=
41958,2023,09,13,12,00,AAXX 13124 41958 11456 60902 10280 20260 39984 49986 60039 70266 85410 333 10330 56390 59013 70029 84616 86459=
41958,2023,09,13,15,00,AAXX 13154 41958 32450 60902 10282 20260 39998 40000 85410 333 56390 59008 70029 84616 86459=
41958,2023,09,13,18,00,AAXX 13184 41958 32440 60902 10278 20270 30003 40005 85410 333 56390 59017 70029 84616 86459=
41958,2023,09,13,21,00,AAXX 13214 41958 32430 60902 10277 20270 39995 49997 85410 333 56390 58002 70029 84616 86459=
41958,2023,09,14,00,00,AAXX 14004 41958 32450 70903 10275 20270 39997 49999 85310 333 56390 58002 70029 84616 81930 87459=
41958,2023,09,14,03,00,AAXX 14034 41958 21456 80901 10275 20270 30019 40021 70362 8542/ 333 20270 56399 58006 6002/ 70051 84616 88459=
41958,2023,09,14,06,00,AAXX 14064 41958 11456 80901 10277 20270 30022 40024 60069 76166 8542/ 333 56399 58015 70085 84616 88459=
41958,2023,09,14,09,00,AAXX 14094 41958 21456 80000 10272 20270 30007 40009 79596 8592/ 333 56399 58032 6008/ 70139 84616 81930 88459=
41958,2023,09,14,12,00,AAXX 14124 41958 11450 80000 10280 20280 30007 40009 60167 76196 8532/ 333 10295 56399 58023 70218 84616 81930 88459=
41958,2023,09,14,15,00,AAXX 14154 41958 32440 80000 10283 20270 30025 40027 8532/ 333 56399 58027 70218 84616 81930 88459=
41958,2023,09,14,18,00,AAXX 14184 41958 32430 80000 10277 20277 30029 40031 8532/ 333 56399 58026 70218 84616 81930 88459=
41958,2023,09,14,21,00,AAXX 14214 41958 32430 80000 10275 20270 30033 40035 8532/ 333 56399 58038 70218 84616 81930 88459=
41960,2023,09,08,00,00,AAXX 08004 41960 02440 80000 10276 20276 30043 40044 8542/ 333 58006 70238 83616 88459==
41960,2023,09,08,03,00,AAXX 08034 41960 01430 80000 10266 20266 30058 40060 76166 8542/ 333 20262 58007 70268 84616 88459==
41960,2023,09,08,06,00,AAXX 08064 41960 21450 81801 10277 20270 30067 40068 70266 8542/ 333 58028 60089 70208 84617 88459==
41960,2023,09,08,09,00,AAXX 08094 41960 01440 80000 10280 20270 30044 40045 70262 8542/ 333 58031 70132 84617 88458==
41960,2023,09,08,15,00,AAXX 08154 41960 02430 80000 10275 20270 30066 40067 8542/ 333 58023 70094 84617 88459==
41960,2023,09,08,18,00,AAXX 08184 41960 02430 80000 10271 20270 30061 40062 8442/ 333 58018 70094 83616 88459==
41960,2023,09,08,21,00,AAXX 08214 41960 01430 80000 10260 20260 30060 40062 70262 8442/ 333 58019 70128 82618 88459==
41960,2023,09,09,00,00,AAXX 09004 41960 11435 80000 10262 20260 30061 60036 70562 8442/ 333 58018 70128 82618 88459==
41960,2023,09,09,03,00,AAXX 09034 41960 02456 70000 10302 20270 30074 40076 85410 333 58016 70058 84618 87459==
41960,2023,09,09,06,00,AAXX 09064 41960 02457 41601 10336 20270 30060 40062 84401 333 59007 70044 83618==
41960,2023,09,09,09,00,AAXX 09094 41960 02458 52102 10340 20260 30028 40030 84410 333 59016 70034 83618 85459==
41960,2023,09,09,12,00,AAXX 09124 41960 01450 60000 10304 20280 30029 40031 72162 84410 333 10349 59014 70020 83618 86459==
41960,2023,09,09,15,00,AAXX 09154 41960 01430 30000 10290 20280 30046 40048 70162 83400 333 59020 70060 82618==
41960,2023,09,09,18,00,AAXX 09184 41960 11930 00000 10283 20280 30047 40049 60016 70162 333 59014 70060==
41960,2023,09,09,21,00,AAXX 09214 41960 01435 60000 10280 20280 30042 40043 70520 85410 333 59018 70026 83618 86459==
41960,2023,09,10,00,00,AAXX 10004 41960 01420 80000 10278 20278 30038 40039 71020 8542/ 333 59023 70026 83618 88459==
41960,2023,09,10,03,00,AAXX 10034 41960 02456 30000 10318 20260 30050 40051 83400 333 20275 59024 70026 82618==
41960,2023,09,10,06,00,AAXX 10064 41960 02457 31802 10343 20250 30037 40039 83400 333 59023 70026 82618==
41960,2023,09,10,09,00,AAXX 10094 41960 02457 32502 10357 20260 30010 40012 83300 333 59018 70026 82618 81930==
41960,2023,09,10,12,00,AAXX 10124 41960 02450 61801 10325 20280 30007 40009 84411 333 10360 59022 70010 83618 86459==
41960,2023,09,10,15,00,AAXX 10154 41960 01430 60000 10300 20280 30031 40033 71722 85910 333 59015 70000 83618 86459 81930==
41960,2023,09,10,18,00,AAXX 10184 41960 01430 40000 10293 20280 30036 40038 70192 84400 333 59011 70000 83618==
41960,2023,09,10,21,00,AAXX 10214 41960 02440 50000 10288 20280 30028 40030 84410 333 59014 70000 82618 85460==
41960,2023,09,11,00,00,AAXX 11004 41960 01440 60000 10282 20280 30019 40021 70521 84470 333 59019 70000 82618 85460==
41960,2023,09,11,03,00,AAXX 11034 41960 01430 80000 10285 20280 30041 40043 76122 8442/ 333 20280 59009 70010 83616 88459==
41960,2023,09,11,06,00,AAXX 11064 41960 21430 80000 10272 20270 30031 40032 72196 8542/ 333 59006 60057 70054 84616 88459==
41960,2023,09,11,09,00,AAXX 11094 41960 02457 40000 10315 20280 30010 40012 84440 333 58000 70054 82618==
41960,2023,09,11,12,00,AAXX 11124 41960 02450 40000 10308 20270 30005 40007 84401 333 10320 59002 70054 83618 83080==
41960,2023,09,11,15,00,AAXX 11154 41960 02430 40000 10285 20280 30025 40027 84400 333 59006 70054 83618==
41960,2023,09,11,21,00,AAXX 11214 41960 02440 80000 10280 20280 30029 40031 8442/ 333 58001 70054 83618 88459==
41960,2023,09,12,06,00,AAXX 12064 41960 02456 60000 10325 20270 30027 40029 86410 333 59004 70002 83618 83823 86459==
41960,2023,09,12,09,00,AAXX 12094 41960 02450 40000 10315 20270 30001 40003 84340 333 59009 70002 82618 81929==
41960,2023,09,12,12,00,AAXX 12124 41960 02450 60000 10306 20280 30006 40008 84311 333 10330 59001 70002 83618 86459 81930==
41960,2023,09,12,15,00,AAXX 12154 41960 02950 00000 10287 20280 30024 40026 333 59001 70002==
41960,2023,09,12,18,00,AAXX 12184 41960 01420 80000 10272 20270 30035 40037 79592 8592/ 333 58001 70004 84616 88459 81930==
41960,2023,09,12,21,00,AAXX 12214 41960 01440 60000 10273 20270 30024 40025 70196 85410 333 59005 70024 83617 86459==
41960,2023,09,13,00,00,AAXX 13004 41960 11440 20901 10276 20270 30008 40009 60026 70196 82401 333 59015 70022 81618==
41960,2023,09,13,03,00,AAXX 13034 41960 02456 70000 10295 20280 30017 40018 85410 333 20268 59022 70022 84616 87459==
41960,2023,09,13,06,00,AAXX 13064 41960 01456 71806 10310 20270 30023 40025 70262 85410 333 59004 70010 84617 87459==
41960,2023,09,13,09,00,AAXX 13094 41960 01457 30907 10302 20270 39993 49995 72121 83310 333 59008 70035 82616 81929==
41960,2023,09,13,12,00,AAXX 13124 41960 01430 81501 10276 20270 30002 40004 76162 8542/ 333 10317 59004 70077 84616 88458==
41960,2023,09,13,15,00,AAXX 13154 41960 02430 40000 10278 20270 30020 40021 84400 333 59004 70077 83618==
41960,2023,09,13,18,00,AAXX 13184 41960 02430 61001 10282 20260 30027 40028 84410 333 59008 70073 83618 86459==
41960,2023,09,13,21,00,AAXX 13214 41960 01320 80904 10262 20260 30025 40026 76166 8672/ 333 58001 70105 82709 84615 88459==
41960,2023,09,14,00,00,AAXX 14004 41960 21440 80905 10268 20260 30021 40023 71762 8592/ 333 58013 60078 70121 83616 88459 82928==
41960,2023,09,14,03,00,AAXX 14034 41960 01320 81002 10270 20270 30038 40039 79596 8592/ 333 20255 58021 70157 84614 88458 81928==
41960,2023,09,14,06,00,AAXX 14064 41960 21430 81801 10280 20270 30042 40043 76196 8542/ 333 58019 60149 70247 84615 88458==
41960,2023,09,14,09,00,AAXX 14094 41960 01330 80000 10282 20280 30024 40025 76166 8672/ 333 58031 70286 82708 84614 88458==
41960,2023,09,14,12,00,AAXX 14124 41960 21440 80000 10288 20280 30024 40025 70262 8542/ 333 10290 58022 60048 70248 84618 88459==
41960,2023,09,14,15,00,AAXX 14154 41960 01420 80000 10263 20263 30051 40052 79596 8692/ 333 58031 70368 84614 88459 82930==
41960,2023,09,14,18,00,AAXX 14184 41960 21420 80000 10275 20275 30053 40055 76196 8542/ 333 58026 60139 70378 84616 88459==
41960,2023,09,14,21,00,AAXX 14214 41960 01420 80000 10272 20272 30050 40052 76166 8542/ 333 58025 70366 84616 88459==
41963,2023,09,08,00,00,AAXX 08004 41963 01340 81802 10274 20274 30051 40013 76162 8372/ 333 58010 70170 82708 83616 88458==
41963,2023,09,08,03,00,AAXX 08034 41963 01340 81801 10260 20260 30075 40078 76166 8372/ 333 20255 58022 70420 82708 83616 88458==
41963,2023,09,08,06,00,AAXX 08064 41963 21340 81801 10250 20250 30072 40075 76166 8372/ 333 58033 60299 70470 82708 83616 88458==
41963,2023,09,08,09,00,AAXX 08094 41963 01340 81801 10270 20270 30047 40050 76166 8372/ 333 58028 70520 82708 83616 88458==
41963,2023,09,08,15,00,AAXX 08154 41963 02440 81801 10275 20275 30067 40070 8372/ 333 58026 70530 82708 83616 88458==
41963,2023,09,08,18,00,AAXX 08184 41963 02440 41803 10280 20260 30070 40073 83510 333 58024 70520 82618 84458==
41963,2023,09,09,03,00,AAXX 09034 41963 02456 21801 10300 20270 30071 40074 82510 333 20250 59004 70110 82618==
41963,2023,09,09,06,00,AAXX 09064 41963 02456 21801 10300 20270 30071 40074 82510 333 20250 59004 70110 82618==
41963,2023,09,09,09,00,AAXX 09094 41963 02456 31801 10315 20280 30013 40015 83500 333 59034 70000 83618==
41963,2023,09,09,12,00,AAXX 09124 41963 02450 31801 10300 20280 30024 40026 83500 333 10325 59018 70000 83616==
41963,2023,09,09,15,00,AAXX 09154 41963 02940 00000 10280 20270 30043 40045 333 59024 70000==
41963,2023,09,09,18,00,AAXX 09184 41963 02440 31801 10280 20270 30054 40057 83500 333 59016 70000 83618==
41963,2023,09,10,00,00,AAXX 10004 41963 02440 70000 10280 20280 30041 40044 83510 333 59007 70000 83618 87458==
41963,2023,09,10,03,00,AAXX 10034 41963 02456 21801 10315 20270 30046 40048 82500 333 20270 59025 70000 82618==
41963,2023,09,10,06,00,AAXX 10064 41963 02456 61801 10300 20270 30035 40037 82510 333 59018 70000 82618 86458==
41963,2023,09,10,09,00,AAXX 10094 41963 02456 31801 10340 20260 30016 40018 83500 333 58003 70000 83618==
41963,2023,09,10,12,00,AAXX 10124 41963 02450 30000 10310 20280 30013 40015 83500 333 10350 59011 70000 83618==
41963,2023,09,10,15,00,AAXX 10154 41963 02440 31801 10290 20260 30035 40037 83500 333 59008 70000 83618==
41963,2023,09,10,18,00,AAXX 10184 41963 02440 50000 10290 20260 30037 40040 82510 333 59017 70000 82618 85458==
41963,2023,09,11,00,00,AAXX 11004 41963 01340 81801 10270 20270 30029 40032 79621 8592/ 333 70050 82708 83618 88458 81926==
41963,2023,09,11,03,00,AAXX 11034 41963 01340 81801 10260 20260 30047 40050 76162 8372/ 333 20256 58001 70400 82708 83616 88458==
41963,2023,09,11,06,00,AAXX 11064 41963 21556 40000 10307 20270 30028 40030 70162 82160 333 59007 60378 70420 82828 83363==
41963,2023,09,11,09,00,AAXX 11094 41963 02556 42402 10314 20270 30009 40011 82160 333 59007 70420 82826 83363==
41963,2023,09,11,12,00,AAXX 11124 41963 02556 40000 10300 20280 30014 40016 81140 333 10325 58001 70420 81825 83363==
41963,2023,09,11,15,00,AAXX 11154 41963 02450 60000 10285 20260 30037 40039 83470 333 58002 70420 83617 84459==
41963,2023,09,12,03,00,AAXX 12034 41963 01456 60000 10300 20270 30040 40043 70162 83440 333 20256 59007 70150 82617 83459==
41963,2023,09,12,06,00,AAXX 12064 41963 11456 31302 10307 20270 30033 40035 60016 70162 83400 333 58005 70130 81618==
41963,2023,09,12,09,00,AAXX 12094 41963 02556 40000 10313 20280 30007 40010 82160 333 59002 70130 81825 83363==
41963,2023,09,12,12,00,AAXX 12124 41963 02556 40000 10300 20270 30014 40016 82260 333 10320 58000 70130 82826 83363==
41963,2023,09,12,18,00,AAXX 12184 41963 21350 80000 10283 20260 30040 40043 70262 8472/ 333 58001 60015 70130 82710 83616 88458==
41963,2023,09,12,21,00,AAXX 12214 41963 01350 81603 10277 20250 30017 40020 70262 8472/ 333 59017 70100 82710 83616 88458==
41963,2023,09,13,00,00,AAXX 13004 41963 11456 41204 10285 20250 30019 40022 60016 70162 84500 333 59018 70030 84616==
41963,2023,09,13,03,00,AAXX 13034 41963 02456 41304 10294 20250 30032 40035 84500 333 20270 59008 70020 84616==
41963,2023,09,13,06,00,AAXX 13064 41963 02456 41305 10310 20260 30027 40030 83430 333 59006 70020 82617 83363==
41963,2023,09,13,09,00,AAXX 13094 41963 01456 31403 10300 20260 30004 40007 70162 82540 333 59004 70060 82617 83363==
41963,2023,09,13,12,00,AAXX 13124 41963 11456 61305 10292 20260 30009 40012 60046 70362 84460 333 10313 59005 70060 83617 84362==
41963,2023,09,13,15,00,AAXX 13154 41963 01450 31606 10280 20260 30029 40032 72162 83500 333 59010 70140 83616==
41963,2023,09,13,18,00,AAXX 13184 41963 NIL=
41963,2023,09,13,21,00,AAXX 13214 41963 42450 71603 10277 20250 30024 40027 84530 333 58007 84616 83363==
41963,2023,09,14,00,00,AAXX 14004 41963 21456 61603 10280 20260 30036 40039 70362 84560 333 58017 60045 70220 84616 83363==
41963,2023,09,14,03,00,AAXX 14034 41963 01356 81403 10266 20266 30053 40056 72162 8472/ 333 20264 58021 70290 82712 83615 88459==
41963,2023,09,14,06,00,AAXX 14064 41963 01356 81203 10280 20270 30044 40047 72162 8472/ 333 58017 70330 82712 83615 88459==
41963,2023,09,14,09,00,AAXX 14094 41963 01356 81303 10275 20260 30032 40035 76022 8472/ 333 58028 70300 82712 83615 88458==
41963,2023,09,14,12,00,AAXX 14124 41963 21356 80000 10274 20260 30037 40040 70296 8472/ 333 10285 58028 60075 82712 83615 88459==
41963,2023,09,14,15,00,AAXX 14154 41963 02350 81304 10286 20270 30057 40060 8471/ 333 58028 70280 82712 83615 88459==
41963,2023,09,14,18,00,AAXX 14184 41963 NIL=
41963,2023,09,14,21,00,AAXX 14214 41963 02350 80000 10280 20260 30052 40055 8472/ 333 58028 70220 82712 83615 88459==
41964,2023,09,08,00,00,AAXX 08004 41964 01325 81302 10265 20265 30042 40045 79762 8732/ 333 58008 70740 86707 85615 88457 81928==
41964,2023,09,08,03,00,AAXX 08034 41964 01320 82902 10262 20262 30071 40074 76596 8772/ 333 20253 58025 71300 86707 85614 88457==
41964,2023,09,08,06,00,AAXX 08064 41964 21330 80000 10258 20258 30071 40073 76396 8772/ 333 58033 61129 71856 86707 85614 88457==
41964,2023,09,08,09,00,AAXX 08094 41964 01450 72101 10288 20270 30044 40047 70296 84520 333 58022 71880 84618 86460==
41964,2023,09,08,18,00,AAXX 08184 41964 02457 20000 10266 20260 30060 40062 82500 333 58013 71880 82618==
41964,2023,09,08,21,00,AAXX 08214 41964 02457 61302 10267 20267 30059 40061 82530 333 58015 71880 82618 85362==
41964,2023,09,09,00,00,AAXX 09004 41964 02457 71301 10266 20266 30055 40057 82571 333 58013 71140 82618 83460 85362==
41964,2023,09,09,03,00,AAXX 09034 41964 02557 50000 10301 20270 30066 40068 85410 333 20246 59005 70580 84623==
41964,2023,09,09,06,00,AAXX 09064 41964 02558 61402 10322 20270 30054 40057 85401 333 59017 70024 84622 83080==
41964,2023,09,09,09,00,AAXX 09094 41964 02458 41401 10332 20260 30019 40022 82510 333 59025 70000 82618 83460==
41964,2023,09,09,12,00,AAXX 09124 41964 02558 52102 10301 20270 30019 40021 82101 333 10341 59028 70000 82825 84080==
41964,2023,09,09,15,00,AAXX 09154 41964 02558 20000 10290 20280 30037 40039 81101 333 59026 70000 81825==
41964,2023,09,09,18,00,AAXX 09184 41964 02557 40000 10280 20270 30041 40044 84300 333 59019 70000 83622 81930==
41964,2023,09,09,21,00,AAXX 09214 41964 01340 80000 10278 20278 30034 40037 76122 8632/ 333 59025 70004 85708 85615 88458 81928==
41964,2023,09,10,00,00,AAXX 10004 41964 21340 80000 10280 20280 30027 40030 76162 8672/ 333 59028 60017 70012 85708 85615 88458==
41964,2023,09,10,03,00,AAXX 10034 41964 02556 70000 10307 20290 30038 40041 85411 333 20273 59028 70012 83620 83825 83460==
41964,2023,09,10,06,00,AAXX 10064 41964 01350 81602 10298 20290 30030 40032 76122 8632/ 333 59024 70040 85708 85615 88458 81928==
41964,2023,09,10,09,00,AAXX 10094 41964 02450 60000 10335 20280 30015 40018 83510 333 59004 70052 83618 85460==
41964,2023,09,10,12,00,AAXX 10124 41964 02457 50000 10303 20280 30001 40003 82531 333 10346 59018 70052 82618 83080==
41964,2023,09,10,15,00,AAXX 10154 41964 01557 40000 10293 20280 30021 40023 71322 84330 333 59016 70052 83622 81930==
41964,2023,09,10,18,00,AAXX 10184 41964 02457 40000 10284 20270 30025 40027 84500 333 59016 70056 84618==
41964,2023,09,10,21,00,AAXX 10214 41964 01330 81502 10270 20270 30020 40023 79596 8732/ 333 59014 70142 86708 85614 88457 81928==
41964,2023,09,11,00,00,AAXX 11004 41964 21330 80000 10262 20262 30016 40019 79596 8732/ 333 59011 60289 70324 86708 85614 88457 81927==
41964,2023,09,11,03,00,AAXX 11034 41964 01357 80000 10277 20270 30028 40031 72196 8732/ 333 20254 59011 70374 82709 86615 88458 81928==
41964,2023,09,11,06,00,AAXX 11064 41964 21358 81802 10309 20270 30020 40022 70296 8632/ 333 59010 60058 70330 82709 85615 88460 81930==
41964,2023,09,11,09,00,AAXX 11094 41964 02458 40000 10315 20270 30011 40014 82510 333 59004 70330 82618 83460==
41964,2023,09,11,12,00,AAXX 11124 41964 02558 82202 10300 20270 39999 40001 81132 333 10326 59002 70330 81825 84080==
41964,2023,09,11,15,00,AAXX 11154 41964 02557 70000 10285 20280 30021 40023 86310 333 58000 70330 83622 83825 85460 81930==
41964,2023,09,11,21,00,AAXX 11214 41964 01340 80000 10262 20262 30021 40024 76166 8772/ 333 58001 70280 85708 85615 88457==
41964,2023,09,12,06,00,AAXX 12064 41964 02558 62103 10321 20260 30021 40024 85431 333 58001 70060 83622 83362==
41964,2023,09,12,09,00,AAXX 12094 41964 02458 61801 10318 20270 39997 49999 84510 333 59014 70060 83618 85460==
41964,2023,09,12,12,00,AAXX 12124 41964 02558 61602 10302 20260 39999 40001 82131 333 10331 58000 70060 82825 84362==
41964,2023,09,12,15,00,AAXX 12154 41964 01457 60000 10287 20280 30025 40027 71322 86310 333 58004 70060 85617 85460 81930==
41964,2023,09,12,18,00,AAXX 12184 41964 21457 71402 10278 20270 30029 40032 70396 85410 333 58003 60017 70060 84616 87460==
41964,2023,09,12,21,00,AAXX 12214 41964 02457 51302 10272 20260 30023 40026 83510 333 58002 70032 83618 85460==
41964,2023,09,13,00,00,AAXX 13004 41964 02557 51202 10267 20260 30010 40013 82131 333 59005 70012 82825 83362==
41964,2023,09,13,03,00,AAXX 13034 41964 02458 51405 10318 20260 30023 40026 82512 333 20261 59005 70012 82618 83460 83080==
41964,2023,09,13,06,00,AAXX 13064 41964 02558 61205 10318 20250 30023 40026 85432 333 58002 70012 84622 83362==
41964,2023,09,13,09,00,AAXX 13094 41964 01458 41401 10303 20250 39996 49998 72122 83510 333 59001 70012 83618 84460==
41964,2023,09,13,12,00,AAXX 13124 41964 21558 61503 10297 20260 30001 40003 70362 82132 333 10331 58002 60005 70012 82825 83362 85080==
41964,2023,09,13,15,00,AAXX 13154 41964 02457 61304 10288 20260 30022 40024 82512 333 59003 70012 82618 83460 85080==
41964,2023,09,13,18,00,AAXX 13184 41964 42457 61304 10284 20250 30031 40033 85510 333 58002 85618 83460==
41964,2023,09,13,21,00,AAXX 13214 41964 42457 61303 10280 20250 30027 40030 84510 333 58004 84618 86460==
41964,2023,09,14,00,00,AAXX 14004 41964 42457 71203 10278 20250 30025 40028 84570 333 58015 84618 84460 85362==
41964,2023,09,14,03,00,AAXX 14034 41964 01356 71405 10285 20270 30049 40052 70262 85610 333 20268 58026 70004 83709 83617 86460==
41964,2023,09,14,06,00,AAXX 14064 41964 01357 81307 10303 20260 30047 40049 70362 8632/ 333 58024 70008 82709 85616 88460 81930==
41964,2023,09,14,09,00,AAXX 14094 41964 01457 71401 10300 20260 30027 40030 76162 84510 333 58031 70014 84618 86460==
41964,2023,09,14,12,00,AAXX 14124 41964 21456 81405 10282 20260 30030 40033 70262 8452/ 333 10311 58029 60015 70020 84618 88460==
41964,2023,09,14,15,00,AAXX 14154 41964 02457 81404 10280 20260 30052 40055 8452/ 333 58030 70020 84617 88460==
41964,2023,09,14,18,00,AAXX 14184 41964 02457 71502 10282 20260 30055 40058 85410 333 58024 70020 84618 86460==
41964,2023,09,14,21,00,AAXX 14214 41964 02457 81403 10278 20260 30053 40056 8552/ 333 58026 70020 85618 88460==
41965,2023,09,08,00,00,AAXX 08004 41965 21430 80000 10270 20240 30075 40083 76366 84610 333 58027 60109 70150 81710 83618 88460==
41965,2023,09,08,03,00,AAXX 08034 41965 01450 80000 10275 20240 30080 40088 70266 84610 333 20260 58027 70210 81710 83618 88460==
41965,2023,09,08,06,00,AAXX 08064 41965 21430 80000 10280 20240 30060 40068 76366 84610 333 58027 60219 70420 81710 83618 88460==
41965,2023,09,08,09,00,AAXX 08094 41965 02450 70000 10300 20220 30045 40053 84610 333 58020 70360 83618 86460==
41965,2023,09,09,03,00,AAXX 09034 41965 02450 50000 10310 20230 30070 40078 84401 333 20255 59005 70150 82618 83080==
41965,2023,09,09,06,00,AAXX 09064 41965 02450 50000 10330 20230 30044 40052 84410 333 59009 70000 82618 84460==
41965,2023,09,09,09,00,AAXX 09094 41965 02450 50000 10330 20240 30034 40042 84410 333 59009 70000 82618 84460==
41965,2023,09,09,12,00,AAXX 09124 41965 02450 50000 10310 20240 30024 40032 84410 333 10340 59038 70000 83618 84460==
41965,2023,09,09,18,00,AAXX 09184 41965 NIL=
41965,2023,09,10,00,00,AAXX 10004 41965 NIL=
41965,2023,09,10,03,00,AAXX 10034 41965 01430 80000 10270 20240 30034 40042 79522 84310 333 58000 70040 81710 83618 88460 81928==
41965,2023,09,10,06,00,AAXX 10064 41965 02450 50000 10330 20220 30028 40036 84410 333 59026 70040 83618 84460==
41965,2023,09,10,09,00,AAXX 10094 41965 02450 62202 10335 20230 30020 40028 84310 333 59025 70040 83618 84460==
41965,2023,09,10,12,00,AAXX 10124 41965 02450 80000 10300 20250 30003 40011 84310 333 10345 59021 70040 83618 88460==
41965,2023,09,11,00,00,AAXX 11004 41965 21430 80000 10260 20240 30026 40036 79796 8431/ 333 59010 60339 70430 81710 83618 88460 81928==
41965,2023,09,11,03,00,AAXX 11034 41965 01430 80000 10280 20250 30024 40032 79796 8431/ 333 59013 70100 81710 83618 88460 81928==
41965,2023,09,11,06,00,AAXX 11064 41965 02450 80000 10305 20220 30021 40029 8431/ 333 59007 70430 81710 83618 81228 88460==
41965,2023,09,11,09,00,AAXX 11094 41965 02450 80000 10320 20220 30014 40022 84310 333 59008 70430 83618 88460==
41965,2023,09,11,12,00,AAXX 11124 41965 02450 80000 10290 20230 30002 40010 8431/ 333 10330 58001 70430 83618 88460 81928==
41965,2023,09,12,03,00,AAXX 12034 41965 02456 80000 10290 20220 30034 40042 8431/ 333 20255 58001 70500 83618 88460==
41965,2023,09,12,06,00,AAXX 12064 41965 02450 81302 10310 20230 30021 40029 8431/ 333 58001 70500 83618 88460==
41965,2023,09,12,09,00,AAXX 12094 41965 02456 81402 10320 20220 39994 40002 8431/ 333 59011 70500 83618 88460==
41965,2023,09,12,12,00,AAXX 12124 41965 02450 80000 10300 20240 30002 40010 84310 333 10345 58000 70500 83618 88460==
41965,2023,09,13,03,00,AAXX 13034 41965 02450 52202 10300 20220 30027 40035 84410 333 20255 59007 70000 83618 84460==
41965,2023,09,13,06,00,AAXX 13064 41965 02450 51402 10330 20220 30024 40032 84410 333 58003 70000 83618 84460==
41965,2023,09,13,09,00,AAXX 13094 41965 02450 50000 10340 20220 30000 40008 84410 333 59008 70000 83618 84460==
41965,2023,09,13,12,00,AAXX 13124 41965 42450 50000 10280 20280 30005 40013 84410 333 10350 58003 83618 84460==
41965,2023,09,13,18,00,AAXX 13184 41965 NIL=
41965,2023,09,14,03,00,AAXX 14034 41965 02450 50000 10300 20240 30044 40052 84410 333 20263 58015 70000 82618 84460==
41965,2023,09,14,06,00,AAXX 14064 41965 42450 81801 10310 20220 30049 40057 8431/ 333 58025 81810 83618 88460 81928==
41965,2023,09,14,09,00,AAXX 14094 41965 01450 80000 10270 20220 30034 40042 70296 8431/ 333 58029 70030 81710 83618 88460 81928==
41965,2023,09,14,12,00,AAXX 14124 41965 11450 80000 10275 20220 30033 40041 60036 70296 8431/ 333 10350 58028 70030 81710 83618 88460 81928==
41965,2023,09,14,18,00,AAXX 14184 41965 NIL=
41966,2023,09,08,00,00,AAXX 08004 41966 NIL=
41966,2023,09,08,03,00,AAXX 08034 41966 02450 51301 10295 20240 30011 40089 82510 333 20256 58038 70398 82616 84460==
41966,2023,09,08,06,00,AAXX 08064 41966 02450 72001 10290 20230 30002 40081 83510 333 58031 70398 83616 86460==
41966,2023,09,08,09,00,AAXX 08094 41966 01450 70000 10290 20250 39980 40058 70262 83510 333 58034 70422 83616 86460==
41966,2023,09,09,00,00,AAXX 09004 41966 02440 60000 10250 20230 39996 40075 82510 333 58004 70024 82616 85460==
41966,2023,09,09,03,00,AAXX 09034 41966 02450 51301 10300 20190 30002 40080 82510 333 20246 59009 70024 82616 84460==
41966,2023,09,09,06,00,AAXX 09064 41966 02450 40401 10325 20180 39998 40075 82510 333 59006 70024 82616 83460==
41966,2023,09,09,09,00,AAXX 09094 41966 02450 40000 10335 20170 39960 40036 82510 333 59022 70000 82616 83460==
41966,2023,09,09,12,00,AAXX 09124 41966 02440 40000 10300 20200 39938 40015 82510 333 10340 59047 70000 82616 83460==
41966,2023,09,09,15,00,AAXX 09154 41966 02430 50000 10290 20230 39950 40028 82510 333 59037 70000 82616 84460==
41966,2023,09,09,18,00,AAXX 09184 41966 NIL=
41966,2023,09,09,21,00,AAXX 09214 41966 02420 50000 10270 20240 39965 40043 82510 333 59022 70000 82616 84460==
41966,2023,09,10,00,00,AAXX 10004 41966 21440 70000 10260 20240 39980 40059 72162 83510 333 59016 60177 70170 83616 86460==
41966,2023,09,10,03,00,AAXX 10034 41966 02450 50401 10310 20240 39983 40061 82510 333 20254 59019 70170 82616 84460==
41966,2023,09,10,06,00,AAXX 10064 41966 02450 50000 10335 20200 39960 40036 82510 333 59039 70170 82616 84460==
41966,2023,09,10,09,00,AAXX 10094 41966 02450 40000 10342 20180 39939 40015 82510 333 59021 70170 82616 83460==
41966,2023,09,10,12,00,AAXX 10124 41966 02440 60000 10285 20250 39929 40007 83510 333 10350 59008 70170 83616 85460==
41966,2023,09,10,15,00,AAXX 10154 41966 02430 60000 10280 20250 39944 40022 83510 333 59006 70170 83616 85460==
41966,2023,09,10,21,00,AAXX 10214 41966 01320 80000 10260 20230 39961 40039 76366 8472/ 333 59004 70575 82709 83615 88460==
41966,2023,09,11,00,00,AAXX 11004 41966 21430 70901 10250 20230 39948 40027 72166 83510 333 59032 60349 70438 83616 86460==
41966,2023,09,11,03,00,AAXX 11034 41966 02450 60901 10290 20230 39962 40040 83510 333 20245 59021 70438 83616 85460==
41966,2023,09,11,06,00,AAXX 11064 41966 02450 51301 10330 39951 40028 333 59008 70438 82616 84460==
41966,2023,09,11,09,00,AAXX 11094 41966 02450 50000 10338 20230 39937 40013 82510 333 59002 70438 82616 84460==
41966,2023,09,11,12,00,AAXX 11124 41966 02430 50901 10290 20250 39927 40004 82510 333 10342 59003 70438 82616 84460==
41966,2023,09,11,15,00,AAXX 11154 41966 02420 60000 10280 20250 39949 40027 82510 333 58008 70438 82616 85460==
41966,2023,09,12,00,00,AAXX 12004 41966 21330 80901 10260 20230 39956 40035 76166 8472/ 333 58008 60119 70120 82709 83615 88460==
41966,2023,09,12,06,00,AAXX 12064 41966 11450 51301 10325 20200 39959 40036 69926 70262 82510 333 58008 70122 82616 84460==
41966,2023,09,12,09,00,AAXX 12094 41966 02450 50401 10320 20190 39937 40014 82510 333 58001 70122 82616 84460==
41966,2023,09,12,12,00,AAXX 12124 41966 02440 50000 10300 20200 39925 40003 82510 333 10340 59001 70120 82616 84460==
41966,2023,09,12,21,00,AAXX 12214 41966 02420 50000 10265 20240 39962 40040 82510 333 58001 70162 82616 84460==
41966,2023,09,13,00,00,AAXX 13004 41966 02440 50000 10260 20230 39943 40022 82510 333 59013 70077 82616 84460==
41966,2023,09,13,03,00,AAXX 13034 41966 02/50 30901 10310 20200 39955 40033 83030 333 20255 59022 70075 83362==
41966,2023,09,13,06,00,AAXX 13064 41966 02/50 31201 10330 20210 39956 40032 83030 333 59004 70075 83362==
41966,2023,09,13,09,00,AAXX 13094 41966 02/50 30901 10330 20190 39926 40003 83030 333 59011 70075 83362==
41966,2023,09,13,12,00,AAXX 13124 41966 NIL=
41966,2023,09,13,15,00,AAXX 13154 41966 02420 60000 10270 20240 39957 40036 83510 333 58006 70010 83616 85460==
41966,2023,09,13,18,00,AAXX 13184 41966 NIL=
41966,2023,09,13,21,00,AAXX 13214 41966 02420 50000 10265 20240 39964 40042 82510 333 58002 70000 82616 84460==
41966,2023,09,14,00,00,AAXX 14004 41966 02440 50000 10265 20240 39973 40052 82510 333 58030 70000 82616 84460==
41966,2023,09,14,03,00,AAXX 14034 41966 02440 50901 10300 20190 39983 40061 82510 333 20254 58028 70000 82616 84460==
41966,2023,09,14,06,00,AAXX 14064 41966 01450 60000 10298 20260 39983 40061 72122 83510 333 58029 70008 83616 85460==
41966,2023,09,14,09,00,AAXX 14094 41966 01340 80801 10270 20240 39971 40049 76166 8472/ 333 58046 70144 82709 83615 88460==
41966,2023,09,14,12,00,AAXX 14124 41966 21430 60000 10268 20240 39973 40051 70166 83510 333 10305 58034 60149 70150 83616 85460==
41966,2023,09,14,15,00,AAXX 14154 41966 02420 60000 10265 20240 39975 40054 83510 333 58018 70150 83616 85460==
41966,2023,09,14,18,00,AAXX 14184 41966 NIL=
41966,2023,09,14,21,00,AAXX 14214 41966 02420 60000 10263 20230 39967 40046 83510 333 58004 70150 83616 85460==
41977,2023,09,08,00,00,AAXX 08004 41977 02350 80000 10272 20260 30034 40072 8662/ 333 58008 70016 82716 84616 88460==
41977,2023,09,08,03,00,AAXX 08034 41977 02350 80000 10266 20266 30068 40106 8672/ 333 20260 58029 70066 82710 84614 88460==
41977,2023,09,08,06,00,AAXX 08064 41977 21350 80000 10265 20265 30061 40099 76162 8672/ 333 58022 60169 70176 82710 84614 88458==
41977,2023,09,08,09,00,AAXX 08094 41977 01356 71303 10288 20270 30030 40067 70162 85610 333 58026 70196 82710 85616 87459==
41977,2023,09,08,18,00,AAXX 08184 41977 02456 41202 10265 20260 30049 40087 82570 333 58013 70180 82618 84362==
41977,2023,09,08,21,00,AAXX 08214 41977 02450 60000 10260 20250 30047 40085 84570 333 58020 70038 84615 88459==
41977,2023,09,09,00,00,AAXX 09004 41977 02450 50000 10257 20250 30045 40083 82531 333 58011 70180 82618 83362==
41977,2023,09,09,03,00,AAXX 09034 41977 02456 51804 10294 20260 30054 40091 82531 333 20255 58014 70130 82618 83362==
41977,2023,09,09,06,00,AAXX 09064 41977 02456 72103 10317 20270 30040 40078 85370 333 59021 70020 84615 85460 81928==
41977,2023,09,09,09,00,AAXX 09094 41977 02456 42604 10328 20270 30010 40047 82531 333 59020 70000 82618 83362==
41977,2023,09,09,12,00,AAXX 09124 41977 02456 52302 10300 20270 30008 40044 81531 333 10334 59031 70000 81618 83363 85080==
41977,2023,09,09,15,00,AAXX 09154 41977 02456 40000 10293 20270 30022 40059 82531 333 59033 70000 82618 83362==
41977,2023,09,09,18,00,AAXX 09184 41977 02456 70000 10290 20270 30026 40063 85370 333 59023 70000 84615 85460 81928==
41977,2023,09,09,21,00,AAXX 09214 41977 01350 80000 10285 20280 30021 40058 76162 8632/ 333 59026 70014 82710 84615 88460 81928==
41977,2023,09,10,00,00,AAXX 10004 41977 21350 80000 10278 20278 30017 40054 70262 8632/ 333 59028 60027 70020 82710 84615 88460 81928==
41977,2023,09,10,03,00,AAXX 10034 41977 02456 60000 10300 20270 30037 40075 84570 333 20267 59017 70020 84617 85360==
41977,2023,09,10,06,00,AAXX 10064 41977 02456 80000 10320 20270 30027 40065 8662/ 333 59013 70020 82714 84616 88460==
41977,2023,09,10,09,00,AAXX 10094 41977 02456 62104 10322 20270 39995 40032 83531 333 59015 70020 83618 84362==
41977,2023,09,10,12,00,AAXX 10124 41977 02456 60000 10310 20260 39992 40029 82531 333 10335 59016 70020 82618 83362 85080==
41977,2023,09,10,15,00,AAXX 10154 41977 02456 60000 10294 20270 30009 40046 82531 333 59013 70020 82618 83362 85080==
41977,2023,09,10,18,00,AAXX 10184 41977 02456 70000 10285 20280 30012 40049 85610 333 59014 70020 82710 85616 87459==
41977,2023,09,10,21,00,AAXX 10214 41977 01350 80000 10275 20270 30009 40046 79522 8692/ 333 59012 70046 82708 84615 88460 81928==
41977,2023,09,11,00,00,AAXX 11004 41977 21340 80000 10260 20260 30002 40040 76196 8632/ 333 59015 60097 70090 82708 84615 88458 81928==
41977,2023,09,11,03,00,AAXX 11034 41977 01450 82702 10274 20260 30023 40061 76166 8532/ 333 20255 59014 70130 84615 88458 81928==
41977,2023,09,11,06,00,AAXX 11064 41977 21450 72303 10304 20260 30006 40044 70162 85370 333 59021 60048 70130 84615 85460 81928==
41977,2023,09,11,09,00,AAXX 11094 41977 02456 60903 10314 20260 39991 40028 84570 333 59004 70130 84618 85760==
41977,2023,09,11,12,00,AAXX 11124 41977 02456 60000 10298 20270 39997 40035 83570 333 10315 58005 70130 83618 84760==
41977,2023,09,11,15,00,AAXX 11154 41977 02456 60000 10291 20270 30004 40041 83570 333 59005 70130 83618 84760==
41977,2023,09,11,18,00,AAXX 11184 41977 21450 80000 10270 20270 30011 40048 76166 8532/ 333 59001 60027 70150 84615 88458 81928==
41977,2023,09,11,21,00,AAXX 11214 41977 01350 80000 10270 20270 30010 40047 70262 8632/ 333 58001 70118 82708 84615 88458 81928==
41977,2023,09,12,00,00,AAXX 12004 41977 01350 80000 10267 20267 30008 40045 70262 8632/ 333 58006 70082 82708 84615 88458 81928==
41977,2023,09,12,06,00,AAXX 12064 41977 02456 63104 10320 20270 30009 40046 83531 333 58003 70042 83618 84362==
41977,2023,09,12,09,00,AAXX 12094 41977 01456 62702 10308 20270 39999 40037 70262 8662/ 333 58006 70042 82712 84616 86460==
41977,2023,09,12,12,00,AAXX 12124 41977 11456 81602 10302 20260 39993 40031 60006 70362 8662/ 333 10325 59004 70042 82712 84616 88460==
41977,2023,09,12,15,00,AAXX 12154 41977 01450 81802 10287 20270 30013 40051 75152 8472/ 333 58009 70042 82710 84616 88460==
41977,2023,09,12,18,00,AAXX 12184 41977 01450 71302 10280 20260 30025 40063 70152 84620 333 58014 70042 82710 84616 87460==
41977,2023,09,12,21,00,AAXX 12214 41977 02450 60000 10275 20260 30008 40045 83570 333 59002 70014 83618 84460==
41977,2023,09,13,00,00,AAXX 13004 41977 42450 60000 10265 20250 39998 40035 83571 333 59010 83618 84362==
41977,2023,09,13,03,00,AAXX 13034 41977 42456 61602 10310 20260 30016 40053 83570 333 20262 59003 83618 84360==
41977,2023,09,13,06,00,AAXX 13064 41977 42456 71806 10325 20260 30014 40051 84570 333 58005 84617 85360==
41977,2023,09,13,09,00,AAXX 13094 41977 01456 40905 10312 20260 39989 40026 70162 82530 333 59010 70002 82618 84362==
41977,2023,09,13,12,00,AAXX 13124 41977 01450 61303 10302 20260 39993 40031 70362 82531 333 10330 58000 70002 82618 85362==
41977,2023,09,13,15,00,AAXX 13154 41977 02450 61302 10278 20270 30017 40054 82530 333 58004 70002 82618 85362==
41977,2023,09,13,18,00,AAXX 13184 41977 02450 60000 10276 20270 30024 40061 82530 333 59001 70002 82618 85362==
41977,2023,09,13,21,00,AAXX 13214 41977 02450 60000 10274 20260 30017 40054 82530 333 58009 70002 82618 85362==
41977,2023,09,14,00,00,AAXX 14004 41977 02450 61302 10272 20250 30019 40056 83570 333 58021 70002 84618 85362==
41977,2023,09,14,03,00,AAXX 14034 41977 02450 80000 10295 20260 30047 40085 8662/ 333 20258 58031 70002 82712 84616 88460==
41977,2023,09,14,06,00,AAXX 14064 41977 02456 81005 10310 20260 30036 40074 8462/ 333 58022 70002 82712 84616 88460==
41977,2023,09,14,09,00,AAXX 14094 41977 02456 71304 10304 20260 30018 40056 84570 333 58029 70000 84617 85460==
41977,2023,09,14,12,00,AAXX 14124 41977 01350 81305 10280 20270 30025 40063 76122 8732/ 333 10315 58032 70002 83708 84614 88458 81928==
41977,2023,09,14,15,00,AAXX 14154 41977 01350 81302 10269 20260 30034 40072 75162 8672/ 333 58017 70014 83708 84614 88458==
41977,2023,09,14,18,00,AAXX 14184 41977 21350 71303 10276 20260 30046 40086 70152 85610 333 58022 60018 70014 82710 84615 87459==
41977,2023,09,14,21,00,AAXX 14214 41977 02350 80000 10274 20250 30049 40087 8662/ 333 58032 70014 82712 84615 88460==
41978,2023,09,08,00,00,AAXX 08004 41978 02450 81106 10270 20260 30054 40060 8332/ 333 58014 70050 83616 88460 81930==
41978,2023,09,08,03,00,AAXX 08034 41978 01435 81510 10263 20260 30080 40087 76166 8432/ 333 20259 58029 70230 83610 88458 81928==
41978,2023,09,08,06,00,AAXX 08064 41978 21435 81503 10264 20260 30080 40087 76166 8432/ 333 58039 60329 70370 83610 88458 81928==
41978,2023,09,08,09,00,AAXX 08094 41978 01450 71208 10280 20270 30047 40053 72166 84320 333 58020 70394 83616 86460 81930==
41978,2023,09,08,12,00,AAXX 08124 41978 21450 71305 10268 20260 30055 40062 70262 84320 333 10283 58025 60028 70344 83616 86460 81928==
41978,2023,09,08,15,00,AAXX 08154 41978 02450 60905 10266 20250 30071 40078 84320 333 58020 70344 83618 85460 81930==
41978,2023,09,08,18,00,AAXX 08184 41978 02450 61004 10263 20250 30065 40072 84320 333 58011 70344 83618 85460 81930==
41978,2023,09,08,21,00,AAXX 08214 41978 02450 50906 10256 20250 30060 40066 82530 333 58008 70344 82618 84362==
41978,2023,09,09,00,00,AAXX 09004 41978 02450 51105 10255 20250 30063 40070 82530 333 58009 70344 82618 84362==
41978,2023,09,09,03,00,AAXX 09034 41978 02556 51605 10310 20260 30073 40079 82130 333 20254 59007 70164 82828 84362==
41978,2023,09,09,06,00,AAXX 09064 41978 02456 62606 10318 20270 30056 40062 83520 333 59024 70024 83618 85460==
41978,2023,09,09,09,00,AAXX 09094 41978 02556 52306 10325 20270 30022 40028 82120 333 59025 70000 82828 84460==
41978,2023,09,09,12,00,AAXX 09124 41978 02456 52509 10311 20280 30026 40032 81520 333 10330 59029 70000 81618 84460==
41978,2023,09,09,15,00,AAXX 09154 41978 02456 42308 10298 20280 30044 40050 82530 333 59027 70000 82618 83360==
41978,2023,09,09,18,00,AAXX 09184 41978 02456 42205 10286 20270 30046 40053 82530 333 59019 70000 82618 84360==
41978,2023,09,09,21,00,AAXX 09214 41978 02450 60000 10284 20270 30038 40045 83530 333 59022 70000 83618 86360==
41978,2023,09,10,00,00,AAXX 10004 41978 21450 70000 10282 20280 30030 40037 70362 84370 333 59033 60015 70010 83616 86360 81930==
41978,2023,09,10,03,00,AAXX 10034 41978 01450 70000 10280 20280 30047 40054 72162 83370 333 20272 59026 70056 83614 86360 81930==
41978,2023,09,10,06,00,AAXX 10064 41978 21456 62203 10322 20270 30031 40038 70262 83430 333 59025 60055 70056 83618 85360==
41978,2023,09,10,09,00,AAXX 10094 41978 02456 62613 10327 20290 30006 40012 83520 333 59016 70056 83618 85460==
41978,2023,09,10,12,00,AAXX 10124 41978 02450 62805 10315 20290 30006 40012 83520 333 10330 59020 70056 83618 85460==
41978,2023,09,10,15,00,AAXX 10154 41978 01450 62004 10300 20280 30031 40037 70522 83520 333 59013 70056 83618 85460==
41978,2023,09,10,18,00,AAXX 10184 41978 01450 61303 10292 20280 30029 40035 70522 83520 333 59017 70056 83618 85460==
41978,2023,09,10,21,00,AAXX 10214 41978 01450 61303 10288 20280 30019 40025 70522 83520 333 59019 70056 83618 85460==
41978,2023,09,11,00,00,AAXX 11004 41978 11435 80000 10267 20267 30024 40030 69926 76122 8432/ 333 59006 70048 84612 83458 81929==
41978,2023,09,11,03,00,AAXX 11034 41978 01440 81005 10276 20270 30037 40044 70262 8432/ 333 20260 59010 70044 83616 88460 81929==
41978,2023,09,11,06,00,AAXX 11064 41978 11440 71707 10303 20284 30022 40028 60046 70562 84320 333 59009 70044 83618 87460 81960==
41978,2023,09,11,09,00,AAXX 11094 41978 02450 62306 10318 20280 39999 40005 83330 333 59007 70044 83618 81930==
41978,2023,09,11,12,00,AAXX 11124 41978 02456 62408 10304 20280 30004 40010 83530 333 10320 59002 70044 83618 86360==
41978,2023,09,11,15,00,AAXX 11154 41978 02450 61805 10294 20270 30026 40033 83530 333 59005 70044 83618 86360==
41978,2023,09,11,18,00,AAXX 11184 41978 01450 71503 10288 20280 30030 40037 70262 84320 333 58001 70010 83618 87460 81930==
41978,2023,09,11,21,00,AAXX 11214 41978 02450 70000 10270 20270 30024 40031 84320 333 58011 70054 83618 87460 81930==
41978,2023,09,12,00,00,AAXX 12004 41978 02450 71203 10270 20270 30024 40031 84320 333 58006 70052 83618 81430 87460==
41978,2023,09,12,03,00,AAXX 12034 41978 02456 61104 10311 20260 30033 40039 83530 333 20267 59004 70010 83618 85362==
41978,2023,09,12,06,00,AAXX 12064 41978 02456 72110 10327 20280 30025 40031 84320 333 58003 70010 83618 87460 81930==
41978,2023,09,12,09,00,AAXX 12094 41978 01456 62108 10312 20270 39999 40005 70162 84320 333 58000 70040 83618 86460 81930==
41978,2023,09,12,12,00,AAXX 12124 41978 11456 61905 10303 20280 30004 40010 60036 70262 84320 333 10330 58000 70040 83618 86460 81930==
41978,2023,09,12,15,00,AAXX 12154 41978 01450 71504 10283 20280 30033 40040 76122 83320 333 58007 70080 83614 87460 81930==
41978,2023,09,12,18,00,AAXX 12184 41978 21450 71404 10282 20280 30038 40045 70262 83570 333 58008 60045 70072 83614 86360==
41978,2023,09,12,21,00,AAXX 12214 41978 02450 60000 10274 20260 30017 40023 83530 333 59007 70072 83616 86360==
41978,2023,09,13,00,00,AAXX 13004 41978 02450 61103 10268 20260 30013 40020 83530 333 59011 70072 83616 86360==
41978,2023,09,13,03,00,AAXX 13034 41978 02456 61510 10302 20260 30030 40036 83530 333 20265 59003 70072 83616 86360==
41978,2023,09,13,06,00,AAXX 13064 41978 02456 61508 10320 20270 30023 40029 83530 333 59002 70072 83616 86360==
41978,2023,09,13,09,00,AAXX 13094 41978 02456 61204 10313 20260 39998 40004 83530 333 59001 70042 83618 85360==
41978,2023,09,13,12,00,AAXX 13124 41978 02456 61306 10302 20270 30007 40010 84320 333 10326 58003 70042 83618 86460 81930==
41978,2023,09,13,15,00,AAXX 13154 41978 02456 51407 10283 20260 30032 40039 83510 333 59001 70002 83618 85460==
41978,2023,09,13,18,00,AAXX 13184 41978 02456 51105 10272 20260 30040 40047 83510 333 58002 70000 83618 85460==
41978,2023,09,13,21,00,AAXX 13214 41978 02456 51007 10268 20260 30030 40036 83510 333 58013 70000 83618 85460==
41978,2023,09,14,00,00,AAXX 14004 41978 02456 61308 10272 20260 30034 40041 83530 333 58021 70000 83618 86362==
41978,2023,09,14,03,00,AAXX 14034 41978 02450 71815 10306 20270 30059 40065 84320 333 20266 58029 70000 83616 87460 81930==
41978,2023,09,14,06,00,AAXX 14064 41978 02456 71415 10313 20280 30050 40056 83520 333 58027 70000 83618 87460==
41978,2023,09,14,09,00,AAXX 14094 41978 02456 81510 10300 20280 30036 40042 8432/ 333 58038 70000 83617 88460 81930==
41978,2023,09,14,12,00,AAXX 14124 41978 01450 81407 10274 20250 30046 40046 76144 8432/ 333 10317 58033 70001 83615 88459 81930==
41978,2023,09,14,15,00,AAXX 14154 41978 01440 81105 10272 20270 30058 40064 72166 8432/ 333 58026 70035 83616 88459 81930==
41978,2023,09,14,18,00,AAXX 14184 41978 21440 61306 10270 20260 30062 40068 70162 84320 333 58022 60037 70035 83616 86460 81930==
41978,2023,09,14,21,00,AAXX 14214 41978 02440 61206 10267 20260 30059 40065 84320 333 58029 70035 83616 86460 81930==
41980,2023,09,08,00,00,AAXX 08004 41980 32440 80000 10270 20240 39955 40067 8562/ 333 56999 58014 70030 83710 84615 88458=
41980,2023,09,08,06,00,AAXX 08064 41980 NIL=
41980,2023,09,09,06,00,AAXX 09064 41980 NIL=
41980,2023,09,09,12,00,AAXX 09124 41980 32940 00000 10291 20250 39927 40039 333 10335 59030 70000=
41980,2023,09,09,18,00,AAXX 09184 41980 NIL=
41980,2023,09,10,00,00,AAXX 10004 41980 NIL=
41980,2023,09,10,12,00,AAXX 10124 41980 11440 80000 10278 20270 39910 40022 60025 70362 8462/ 333 10340 56999 59017 70420 82710 83615 88460=
41980,2023,09,11,00,00,AAXX 11004 41980 11330 80000 10245 20240 39930 40043 60736 76166 8672/ 333 56999 59003 70750 84708 85613 88456=
41980,2023,09,11,06,00,AAXX 11064 41980 NIL=
41980,2023,09,11,12,00,AAXX 11124 41980 32440 81802 10289 20260 39908 40019 8562/ 333 10326 56999 59003 71050 83710 84615 88458=
41980,2023,09,12,06,00,AAXX 12064 41980 NIL=
41980,2023,09,12,12,00,AAXX 12124 41980 11440 80000 10280 20260 39905 40017 60077 70262 8672/ 333 10331 56999 59003 70120 83710 85615 88458=
41980,2023,09,13,00,00,AAXX 13004 41980 11440 50000 10261 20230 39915 40027 60078 70162 82520 333 56990 59009 70140 82616 84460=
41980,2023,09,13,12,00,AAXX 13124 41980 32440 81602 10286 20250 39912 40024 8352/ 333 10323 56999 58007 70070 83616 88460=
41980,2023,09,13,18,00,AAXX 13184 41980 NIL=
41980,2023,09,14,00,00,AAXX 14004 41980 32440 80000 10269 20230 39938 40051 8352/ 333 56999 58023 70000 83616 88458=
41980,2023,09,14,06,00,AAXX 14064 41980 NIL=
41980,2023,09,14,12,00,AAXX 14124 41980 11440 80000 10270 20240 39942 40054 60016 70262 8462/ 333 10305 56999 58030 70006 82710 84615 88458=
41980,2023,09,14,18,00,AAXX 14184 41980 NIL=
41984,2023,09,08,00,00,AAXX 08004 41984 02456 80000 10280 20260 30024 40026 8532/ 333 58010 70101 82708 84615 88456 81925==
41984,2023,09,08,03,00,AAXX 08034 41984 01356 80000 10266 20266 30046 40048 76162 8672/ 333 20262 58016 70121 82708 84616 88456==
41984,2023,09,08,06,00,AAXX 08064 41984 21356 80000 10277 20270 30052 40054 76166 8672/ 333 58030 60119 70155 83707 84615 88456==
41984,2023,09,08,09,00,AAXX 08094 41984 01456 80000 10284 20260 30030 40032 70262 8352/ 333 58027 70165 83618 88458==
41984,2023,09,08,15,00,AAXX 08154 41984 02440 80000 10281 20280 30048 40050 8352/ 333 58026 70125 83618 88458==
41984,2023,09,08,18,00,AAXX 08184 41984 21340 80000 10277 20277 40039 50051 76162 8672/ 333 58023 60037 70155 82708 84615 88456==
41984,2023,09,09,03,00,AAXX 09034 41984 02457 60000 10300 20270 30058 40060 83570 333 20260 58012 70126 83618 84458==
41984,2023,09,09,06,00,AAXX 09064 41984 02457 80000 10310 20260 30049 40051 8352/ 333 59003 70086 83618 88458==
41984,2023,09,09,09,00,AAXX 09094 41984 41457 60000 10308 20290 30016 40018 70162 83510 333 59014==
41984,2023,09,09,12,00,AAXX 09124 41984 11456 60000 10300 20270 30017 40019 60146 70262 83510 333 10332 59013 70216 83618 85458==
41984,2023,09,09,15,00,AAXX 09154 41984 02440 60000 10280 20270 30031 40033 83530 333 59017 70216 83618 83362==
41984,2023,09,09,18,00,AAXX 09184 41984 02440 40000 10274 20270 30033 40035 83530 333 59016 70186 83618==
41984,2023,09,09,21,00,AAXX 09214 41984 02440 60000 10272 20270 30028 40030 83510 333 59016 70140 83618 85458==
41984,2023,09,10,00,00,AAXX 10004 41984 01456 80000 10270 20270 30020 40022 70522 8352/ 333 59023 70140 83618 88458==
41984,2023,09,10,03,00,AAXX 10034 41984 02457 80000 10326 20280 30035 40037 8352/ 333 20268 59023 70140 83618 88458==
41984,2023,09,10,06,00,AAXX 10064 41984 02457 80000 10341 20260 30024 40026 8352/ 333 59025 70140 83618 88458==
41984,2023,09,10,09,00,AAXX 10094 41984 02457 60000 10344 20270 30004 40006 83570 333 59012 70000 83618 83362==
41984,2023,09,10,12,00,AAXX 10124 41984 02456 50000 10312 20280 39997 49999 82530 333 10355 59020 70000 82618 83362==
41984,2023,09,10,15,00,AAXX 10154 41984 01440 60000 10290 20280 30015 40017 71322 83330 333 59016 70000 83618 83362 81926==
41984,2023,09,10,18,00,AAXX 10184 41984 02440 60000 10285 20280 30020 40022 83530 333 59013 70000 83618 83362==
41984,2023,09,10,21,00,AAXX 10214 41984 01440 60000 10280 20270 30017 40019 70522 83530 333 59011 70000 83618 83362==
41984,2023,09,11,00,00,AAXX 11004 41984 01456 80000 10276 20270 30007 40009 70522 8352/ 333 59013 70000 83618 88458==
41984,2023,09,11,03,00,AAXX 11034 41984 02457 80000 10290 20280 30023 40025 8352/ 333 20272 59012 70000 83618 88458==
41984,2023,09,11,06,00,AAXX 11064 41984 21356 80000 10276 20270 30017 40019 76162 8672/ 333 59007 60017 70010 83707 84615 88456==
41984,2023,09,11,09,00,AAXX 11094 41984 02457 50000 10310 20270 39999 40001 82531 333 59005 70010 82618 83362==
41984,2023,09,11,12,00,AAXX 11124 41984 02456 50000 10300 20280 39993 49995 83510 333 10325 59004 70010 83618 85458==
41984,2023,09,11,15,00,AAXX 11154 41984 02440 60000 10283 20270 30013 40015 83510 333 59002 70010 83618 85458==
41984,2023,09,11,21,00,AAXX 11214 41984 01440 60000 10276 20276 30012 40014 70522 83510 333 59005 70010 83618 85458==
41984,2023,09,12,06,00,AAXX 12064 41984 02457 80000 10323 20270 30013 40015 8352/ 333 59004 70000 83618 88458==
41984,2023,09,12,09,00,AAXX 12094 41984 01457 80000 10320 20270 39990 49992 70262 8352/ 333 59009 70030 83618 88458==
41984,2023,09,12,12,00,AAXX 12124 41984 11456 80000 10294 20270 39990 49993 60036 70262 8352/ 333 10334 59003 70030 83618 88458==
41984,2023,09,12,15,00,AAXX 12154 41984 02440 50000 10281 20270 30011 40013 82510 333 59002 70030 82618 85458==
41984,2023,09,12,18,00,AAXX 12184 41984 02440 80000 10275 20270 30013 40015 8352/ 333 59004 70030 83618 88458==
41984,2023,09,12,21,00,AAXX 12214 41984 02440 80000 10273 20270 39999 40001 8352/ 333 59013 70030 83618 88458==
41984,2023,09,13,00,00,AAXX 13004 41984 02456 80000 10276 20270 39991 49993 8352/ 333 59014 70030 83618 88458==
41984,2023,09,13,03,00,AAXX 13034 41984 01357 80000 10282 20270 30003 40005 76162 8672/ 333 20270 59018 70070 82708 84615 88456==
41984,2023,09,13,06,00,AAXX 13064 41984 01457 80000 10316 20280 39998 40000 70262 8352/ 333 59015 70080 83618 88458==
41984,2023,09,13,09,00,AAXX 13094 41984 01357 60000 10285 20280 39977 49979 70162 83530 333 59013 70120 83618 83362==
41984,2023,09,13,12,00,AAXX 13124 41984 01456 81803 10280 20260 39979 49981 70362 8352/ 333 10324 59011 70200 83618 88458==
41984,2023,09,13,15,00,AAXX 13154 41984 01440 80000 10270 20260 30005 40007 70262 8352/ 333 59006 70310 83618 88458==
41984,2023,09,13,18,00,AAXX 13184 41984 11440 80000 10277 20270 30005 40007 60116 70262 8352/ 333 59008 70310 83618 88458==
41984,2023,09,13,21,00,AAXX 13214 41984 01340 81305 10275 20270 30000 40002 76162 8572/ 333 58001 70330 83708 84615 88456==
41984,2023,09,14,00,00,AAXX 14004 41984 21356 81303 10272 20260 39997 49999 76166 8572/ 333 58006 60049 70350 83708 84615 88456==
41984,2023,09,14,03,00,AAXX 14034 41984 01356 80000 10266 20266 30023 40025 76162 8672/ 333 20256 58020 70350 83707 84615 88456==
41984,2023,09,14,06,00,AAXX 14064 41984 21457 80000 10292 20270 30020 40022 70262 8662/ 333 58022 60058 70350 83708 84615 88456==
41984,2023,09,14,09,00,AAXX 14094 41984 01457 82203 10300 20270 30010 40012 70262 8352/ 333 58033 70300 83618 88458==
41984,2023,09,14,12,00,AAXX 14124 41984 11456 82202 10292 20270 30013 40015 60026 70262 8352/ 333 10307 58034 70220 83618 88458==
41984,2023,09,14,15,00,AAXX 14154 41984 02440 80000 10290 20280 30033 40035 8352/ 333 58028 70110 83618 88458==
41984,2023,09,14,18,00,AAXX 14184 41984 02440 80000 10290 20270 30033 40035 8352/ 333 58028 70110 83618 88458==
41984,2023,09,14,21,00,AAXX 14214 41984 02440 80000 10286 20270 30033 40035 8352/ 333 58033 70090 83618 88458==
41989,2023,09,08,00,00,AAXX 08004 41989 01330 81803 10262 20250 30050 40053 76222 8572/ 333 58008 70100 82709 83614 88456==
41989,2023,09,08,03,00,AAXX 08034 41989 01330 81703 10257 20250 30068 40071 76166 8572/ 333 20238 58011 70260 82710 83614 88456==
41989,2023,09,08,06,00,AAXX 08064 41989 21330 81803 10258 20260 30077 40080 76266 8572/ 333 58033 60639 70760 82708 83614 88456==
41989,2023,09,08,09,00,AAXX 08094 41989 01440 71304 10260 20250 30050 40053 70162 83570 333 58030 70840 83618 85460==
41989,2023,09,08,21,00,AAXX 08214 41989 02440 51302 10263 20240 30078 40081 83530 333 58026 70810 83618 84362==
41989,2023,09,09,00,00,AAXX 09004 41989 42440 41702 10260 20250 30071 40074 82530 333 58021 82618 84362==
41989,2023,09,09,03,00,AAXX 09034 41989 02456 31402 10308 20260 30088 40091 83500 333 20240 58021 70680 83618==
41989,2023,09,09,06,00,AAXX 09064 41989 02450 51402 10320 20270 30066 40069 82530 333 59011 70080 82618 84362==
41989,2023,09,09,09,00,AAXX 09094 41989 02456 21303 10322 20250 30032 40035 82500 333 59018 70000 82618==
41989,2023,09,09,12,00,AAXX 09124 41989 42456 21402 10306 20260 30022 40025 82500 333 10355 59025 82618==
41989,2023,09,09,15,00,AAXX 09154 41989 02450 31803 10290 20270 30049 40052 83530 333 58025 70000 83618==
41989,2023,09,09,18,00,AAXX 09184 41989 02440 31802 10285 20270 30060 40063 83500 333 59025 70000 83618==
41989,2023,09,10,00,00,AAXX 10004 41989 02440 51802 10255 20250 30040 40043 83530 333 59031 70000 83618 83362==
41989,2023,09,10,03,00,AAXX 10034 41989 02450 51802 10300 20250 30065 40069 82530 333 20244 59023 70000 83618 83362==
41989,2023,09,10,06,00,AAXX 10064 41989 01456 31803 10315 20270 30037 40040 70162 82530 333 59029 70100 82618 83362==
41989,2023,09,10,09,00,AAXX 10094 41989 02450 31403 10318 20270 30034 40037 83500 333 58002 70100 83618==
41989,2023,09,10,12,00,AAXX 10124 41989 NIL=
41989,2023,09,10,15,00,AAXX 10154 41989 02450 41302 10288 20280 30032 40035 82530 333 59017 70100 82618 84362==
41989,2023,09,10,18,00,AAXX 10184 41989 02450 50000 10282 20260 30044 40047 82570 333 59016 70100 82618 83365==
41989,2023,09,10,21,00,AAXX 10214 41989 02440 71302 10275 20270 30036 40040 83570 333 59017 70100 83618 84460==
41989,2023,09,11,00,00,AAXX 11004 41989 21330 81402 10258 20260 30030 40033 76262 8572/ 333 59010 61228 71320 82710 83614 88456==
41989,2023,09,11,03,00,AAXX 11034 41989 01450 51802 10298 20260 30046 40049 70162 83570 333 20250 59013 71370 83618 83362==
41989,2023,09,11,06,00,AAXX 11064 41989 11450 51803 10305 20260 30040 40044 60056 70262 82570 333 58003 71270 82618 83460==
41989,2023,09,11,09,00,AAXX 11094 41989 02456 41303 10304 20250 30003 40006 82570 333 59032 71270 82618 83362==
41989,2023,09,11,12,00,AAXX 11124 41989 01440 71802 10282 20260 39995 49998 72122 83570 333 10313 59029 70000 83618 85460==
41989,2023,09,11,15,00,AAXX 11154 41989 01430 61403 10280 20260 30033 40037 70160 84470 333 58001 71290 83618 83460==
41989,2023,09,11,21,00,AAXX 11214 41989 02440 51702 10270 20250 30051 40054 82530 333 58015 71290 82618 84362==
41989,2023,09,12,00,00,AAXX 12004 41989 01430 51802 10260 20240 30035 40038 72162 83530 333 58005 70130 83618 83362==
41989,2023,09,12,06,00,AAXX 12064 41989 02456 31304 10317 20260 30030 40033 82530 333 59010 70150 82618 83362==
41989,2023,09,12,09,00,AAXX 12094 41989 02450 41402 10320 20260 30017 40020 82530 333 58017 70150 82618 84362==
41989,2023,09,12,12,00,AAXX 12124 41989 21430 51803 10295 20270 30011 40014 70362 83570 333 10328 58016 60227 70370 82618 84362==
41989,2023,09,12,15,00,AAXX 12154 41989 02440 51303 10282 20260 30031 40034 82570 333 59002 70350 82618 83362==
41989,2023,09,12,21,00,AAXX 12214 41989 02440 41702 10270 20250 30032 40035 83530 333 59019 70350 83618==
41989,2023,09,13,00,00,AAXX 13004 41989 02440 51802 10265 20250 30027 40030 83570 333 59008 70220 83618 83460==
41989,2023,09,13,03,00,AAXX 13034 41989 42456 31302 10312 20260 30037 40040 83500 333 20250 59015 83618==
41989,2023,09,13,06,00,AAXX 13064 41989 02450 51403 10315 20260 30031 40035 83530 333 58001 70220 83618 84362==
41989,2023,09,13,09,00,AAXX 13094 41989 02456 51803 10305 20270 30004 40007 83570 333 59013 70220 83618 83362==
41989,2023,09,13,12,00,AAXX 13124 41989 02450 61405 10278 20260 30000 40003 83570 333 10320 59011 70000 83618 84460==
41989,2023,09,13,15,00,AAXX 13154 41989 02440 51402 10270 20250 30032 40035 83500 333 58001 70000 83618 83362==
41989,2023,09,13,18,00,AAXX 13184 41989 NIL=
41989,2023,09,14,00,00,AAXX 14004 41989 02430 51803 10256 20240 30033 40036 83530 333 58006 70000 83618 83362==
41989,2023,09,14,03,00,AAXX 14034 41989 02450 61402 10295 20250 30045 40049 83570 333 20252 58008 70000 83618 84362==
41989,2023,09,14,06,00,AAXX 14064 41989 02450 51803 10300 20250 30054 40057 83530 333 58023 70000 83618 83362==
41989,2023,09,14,09,00,AAXX 14094 41989 01440 51402 10295 20270 30034 40038 72162 84430 333 58030 70020 83618 84362==
41989,2023,09,14,12,00,AAXX 14124 41989 11430 51402 10285 20260 30032 40035 60026 70162 83530 333 10305 58032 70020 83618 83362==
41989,2023,09,14,15,00,AAXX 14154 41989 01440 71804 10272 20250 30062 40065 70162 83570 333 58030 70050 83618 85460==
41989,2023,09,14,18,00,AAXX 14184 41989 11440 61802 10270 20250 30067 40070 60026 70162 83570 333 58035 70050 83618 84460==
41989,2023,09,14,21,00,AAXX 14214 41989 02440 41402 10265 20250 30064 40067 82530 333 58019 70050 82619 83362==
41992,2023,09,08,00,00,AAXX 08004 41992 21320 80000 10262 20240 30058 40060 76366 8532/ 333 58018 60499 70660 84614 88458 81925==
41992,2023,09,08,03,00,AAXX 08034 41992 01325 80000 10272 20260 30087 40089 76166 8592/ 333 20250 58034 70730 83708 85614 88458 81925==
41992,2023,09,08,06,00,AAXX 08064 41992 01325 80000 10279 20270 30087 40089 76166 8592/ 333 58044 70880 83708 85614 88458 81925==
41992,2023,09,08,09,00,AAXX 08094 41992 01325 80000 10270 20260 30061 40063 76166 8592/ 333 58033 70910 83708 85614 88458 81925==
41992,2023,09,08,12,00,AAXX 08124 41992 01425 80000 10272 20250 30062 40064 70565 8432/ 333 10280 58012 70930 84616 88460 81925==
41992,2023,09,08,15,00,AAXX 08154 41992 01425 60000 10265 20260 30080 40082 71022 84320 333 58018 70860 83616 81925==
41992,2023,09,08,18,00,AAXX 08184 41992 01425 80000 10255 20250 30073 40075 71022 8432/ 333 58007 70740 83616 88460 81925==
41992,2023,09,08,21,00,AAXX 08214 41992 01425 80000 10250 20240 30068 40070 71022 8432/ 333 58006 70570 83616 88460 81925==
41992,2023,09,09,00,00,AAXX 09004 41992 01425 80000 10255 20250 30067 40069 71022 8432/ 333 58009 70250 83616 88460 81925==
41992,2023,09,09,03,00,AAXX 09034 41992 01430 40000 10295 20270 30075 40077 70522 81530 333 20250 59012 70180 81616 84362==
41992,2023,09,09,06,00,AAXX 09064 41992 01/35 40000 10317 20250 30063 40065 70521 84030 333 59024 70030 84362==
41992,2023,09,09,09,00,AAXX 09094 41992 41935 00000 10320 20260 30028 40030 70511 333 59033==
41992,2023,09,09,12,00,AAXX 09124 41992 01430 30000 10290 20260 30039 40041 70511 83500 333 10330 59023 70000 83616==
41992,2023,09,09,15,00,AAXX 09154 41992 01425 30000 10288 20270 30047 40049 70511 83500 333 59033 70000 83616==
41992,2023,09,09,18,00,AAXX 09184 41992 01425 60000 10280 20270 30055 40057 70522 84530 333 59018 70000 84616 86360==
41992,2023,09,09,21,00,AAXX 09214 41992 01425 60000 10274 20260 30046 40048 70522 84530 333 59022 70000 84616 86360==
41992,2023,09,10,00,00,AAXX 10004 41992 01425 60000 10270 20260 30038 40040 70522 84530 333 59029 70000 84616 86360==
41992,2023,09,10,03,00,AAXX 10034 41992 01430 60000 10292 20260 30051 40053 70521 83530 333 20255 59024 70000 83616 86362==
41992,2023,09,10,06,00,AAXX 10064 41992 01435 30000 10322 20260 30039 40041 70521 81530 333 59024 70000 81616 83362==
41992,2023,09,10,09,00,AAXX 10094 41992 01435 30000 10318 20270 30011 40013 70522 81530 333 59011 70000 81616 83362==
41992,2023,09,10,12,00,AAXX 10124 41992 01320 80000 10285 20280 30017 40019 76122 8592/ 333 10335 59022 70010 83708 85614 88458==
41992,2023,09,10,15,00,AAXX 10154 41992 01425 80000 10280 20270 30040 40042 71066 8432/ 333 59007 70010 83616 88460 81925==
41992,2023,09,10,18,00,AAXX 10184 41992 01425 80000 10275 20270 30038 40040 76162 8432/ 333 59017 70010 83614 88458 81925==
41992,2023,09,10,21,00,AAXX 10214 41992 01425 80000 10270 20260 30031 40033 75155 8492/ 333 59015 70010 83614 88458 81925==
41992,2023,09,11,00,00,AAXX 11004 41992 11425 80000 10265 20250 30028 40030 60001 70552 8432/ 333 59010 70010 83616 88460 81925==
41992,2023,09,11,03,00,AAXX 11034 41992 01430 60000 10302 20250 30042 40044 70522 82530 333 20265 59009 70010 82616 86362==
41992,2023,09,11,06,00,AAXX 11064 41992 01430 60000 10307 20260 30028 40030 70522 82530 333 59011 70010 82616 86362==
41992,2023,09,11,09,00,AAXX 11094 41992 01430 60000 10310 20260 30005 40007 70522 82530 333 59006 70010 82616 86362==
41992,2023,09,11,12,00,AAXX 11124 41992 41425 60000 10285 20260 30015 40017 70522 83520 333 10325 59002 83616 86460==
41992,2023,09,11,15,00,AAXX 11154 41992 01425 60000 10280 20260 30035 40037 76122 83520 333 59005 70010 83616 86460==
41992,2023,09,11,18,00,AAXX 11184 41992 01320 80000 10270 20260 30035 40037 76166 8592/ 333 59003 70060 83708 85614 88458==
41992,2023,09,11,21,00,AAXX 11214 41992 01300 80000 10254 20026 30024 76166 8592/ 333 59007 70110 83708 85614 88458==
41992,2023,09,12,00,00,AAXX 12004 41992 21320 80000 10260 20250 30028 40030 76166 8592/ 333 58000 60109 70160 83708 85614 88458==
41992,2023,09,12,03,00,AAXX 12034 41992 01430 41504 10302 20250 30040 40042 70562 82530 333 20253 59002 70160 82616 84362==
41992,2023,09,12,06,00,AAXX 12064 41992 11435 50000 10306 20270 30030 40032 60006 70562 83530 333 58002 70160 83616 85362==
41992,2023,09,12,09,00,AAXX 12094 41992 41325 80000 10290 20270 30004 40006 76152 8592/ 333 59001 83708 85614 88458==
41992,2023,09,12,12,00,AAXX 12124 41992 01425 50000 10290 20240 30007 40009 70565 83530 333 10325 59008 70010 83616 85362==
41992,2023,09,12,15,00,AAXX 12154 41992 01425 60000 10280 20260 30043 40045 70522 83520 333 58004 70160 83616 86460==
41992,2023,09,12,18,00,AAXX 12184 41992 01425 60000 10268 20260 30044 40046 76122 8432/ 333 58009 70010 83614 86458 81925==
41992,2023,09,12,21,00,AAXX 12214 41992 01425 80000 10265 20260 30019 40021 71022 8432/ 333 59005 70070 83616 88460 81925==
41992,2023,09,13,00,00,AAXX 13004 41992 01425 70000 10260 20240 30015 40017 70522 84330 333 59015 70020 83616 87362 81925==
41992,2023,09,13,03,00,AAXX 13034 41992 01435 50000 10300 20250 30032 40034 70522 82530 333 20260 59008 70020 82626 85362==
41992,2023,09,13,06,00,AAXX 13064 41992 01425 81204 10282 20260 30031 40033 72122 8532/ 333 58001 70000 84615 88458 81925==
41992,2023,09,13,09,00,AAXX 13094 41992 01430 60000 10300 20250 30004 40006 70522 84320 333 58000 70020 83616 88460 81925==
41992,2023,09,13,12,00,AAXX 13124 41992 01425 80000 10265 20250 30019 40021 76162 8492/ 333 10320 58012 70010 83614 88458 81925==
41992,2023,09,13,15,00,AAXX 13154 41992 01425 80000 10260 20240 30038 40040 76165 8492/ 333 59005 70040 83614 88458 81925==
41992,2023,09,13,18,00,AAXX 13184 41992 21420 80000 10260 20250 30044 40046 76166 8492/ 333 58000 60049 70060 83614 88458 81925==
41992,2023,09,13,21,00,AAXX 13214 41992 01420 80000 10260 20250 30042 40044 76166 8492/ 333 58023 70060 83614 88458 81925==
41992,2023,09,14,00,00,AAXX 14004 41992 21420 80000 10260 20250 30038 40040 76166 8492/ 333 58023 60029 70070 83614 88458 81925==
41992,2023,09,14,03,00,AAXX 14034 41992 01325 80000 10270 20250 30064 40066 76162 8592/ 333 20256 58032 70080 83708 85614 88458 81925==
41992,2023,09,14,06,00,AAXX 14064 41992 21325 80000 10264 20250 30062 40064 76162 8592/ 333 58031 60049 70110 83708 85614 88458 81925==
41992,2023,09,14,09,00,AAXX 14094 41992 01325 80000 10278 20270 30046 40048 76166 8592/ 333 58042 70170 83708 85614 88458 81925==
41992,2023,09,14,12,00,AAXX 14124 41992 21325 80000 10262 20250 30046 40048 76166 8592/ 333 10285 58027 60129 70220 83708 85614 88458 81925==
41992,2023,09,14,15,00,AAXX 14154 41992 01425 80000 10265 20260 30067 40069 76166 8592/ 333 58029 70210 84614 88458 81925==
41992,2023,09,14,18,00,AAXX 14184 41992 21420 80000 10255 20255 30073 40075 76166 8592/ 333 58024 60139 70310 84614 88458 81925==
41992,2023,09,14,21,00,AAXX 14214 41992 01425 80000 10255 20255 30066 40068 76166 8592/ 333 58024 70300 84614 88458 81925==
41998,2023,09,08,00,00,AAXX 08004 41998 21456 80000 10261 20260 30017 40023 76166 8342/ 333 60289 70049 83616 88456==
41998,2023,09,08,06,00,AAXX 08064 41998 NIL=
41998,2023,09,09,03,00,AAXX 09034 41998 02456 60000 10285 20260 30062 40069 82470 333 20264 59033 70280 82618 86458==
41998,2023,09,09,06,00,AAXX 09064 41998 NIL=
41998,2023,09,09,09,00,AAXX 09094 41998 02456 61202 10301 20250 30026 40032 82470 333 59012 70070 82618 83458==
41998,2023,09,09,12,00,AAXX 09124 41998 02456 60000 10284 20240 30034 40040 82470 333 10327 59019 70030 82618 83458==
41998,2023,09,09,18,00,AAXX 09184 41998 NIL=
41998,2023,09,10,00,00,AAXX 10004 41998 NIL=
41998,2023,09,10,03,00,AAXX 10034 41998 02456 50000 10282 20250 30052 40058 82470 333 20265 59005 70000 82618 83458==
41998,2023,09,10,12,00,AAXX 10124 41998 11456 80000 10278 20260 30012 40018 60016 70262 8342/ 333 10310 59022 70010 83618 88458==
41998,2023,09,11,00,00,AAXX 11004 41998 21456 80000 10267 20260 30027 40033 72152 8342/ 333 59009 60047 70050 82617 88457==
41998,2023,09,11,06,00,AAXX 11064 41998 NIL=
41998,2023,09,11,09,00,AAXX 11094 41998 02456 41802 10312 20260 30015 40021 82470 333 59007 70040 82618 83458==
41998,2023,09,12,06,00,AAXX 12064 41998 NIL=
41998,2023,09,12,12,00,AAXX 12124 41998 02456 60000 10286 20250 30012 40018 83420 333 10322 58002 70110 82618 86458==
41998,2023,09,13,00,00,AAXX 13004 41998 21456 80000 10255 20250 30020 40026 76166 8342/ 333 59032 60067 70210 82616 88616==
41998,2023,09,13,06,00,AAXX 13064 41998 21456 80000 10272 20260 30023 40029 76166 333 59013 60098 70240 83618 88456==
41998,2023,09,13,09,00,AAXX 13094 41998 01456 81904 10266 20260 30004 40010 76166 8442/ 333 59010 70310 83616 88456==
41998,2023,09,13,12,00,AAXX 13124 41998 21456 80000 10266 20260 30008 40014 76166 8442/ 333 10281 59004 60129 70350 83618 88456==
41998,2023,09,13,18,00,AAXX 13184 41998 NIL=
41998,2023,09,14,00,00,AAXX 14004 41998 21456 80000 10260 20250 30049 40055 76166 8342/ 333 59003 60079 70370 82616 88456==
41998,2023,09,14,03,00,AAXX 14034 41998 01456 80000 10278 20260 30053 40059 76166 8342/ 333 59021 70380 81616 88456==
41998,2023,09,14,06,00,AAXX 14064 41998 21456 81702 10261 20250 30025 40031 76166 8442/ 333 58001 60149 70430 83618 88456==
41998,2023,09,14,09,00,AAXX 14094 41998 01456 81602 10267 20260 30008 40014 76166 8442/ 333 58004 70430 83618 88458==
41998,2023,09,14,12,00,AAXX 14124 41998 21456 80000 10264 20250 30018 40024 76166 8442/ 333 10277 58010 60179 70490 83618 88456==
41998,2023,09,14,18,00,AAXX 14184 41998 NIL=
