ESTACION,ANO,MES,DIA,HORA,MINUTO,PARTE
41850,2023,06,09,00,00,AAXX 09004 41850 31450 30000 10251 20220 39898 49996 70511 83500 333 56900 59010 70000 83618=
41850,2023,06,09,06,00,AAXX 09064 41850 32456 80505 10309 20220 39912 40008 8352/ 333 56999 59004 70000 83618 88458=
41850,2023,06,09,12,00,AAXX 09124 41850 32456 60000 10314 20220 39876 49973 82510 333 10332 56990 59001 70000 82618 86458=
41850,2023,06,09,18,00,AAXX 09184 41850 NIL=
41850,2023,06,10,00,00,AAXX 10004 41850 31450 30000 10252 20240 39885 49984 70521 83030 333 56090 59013 70000 83362=
41850,2023,06,10,06,00,AAXX 10064 41850 31450 80503 10295 20260 39902 49999 70522 8352/ 333 56999 59010 70000 83617 88458=
41850,2023,06,10,12,00,AAXX 10124 41850 31450 71803 10295 20250 39877 49974 70522 83510 333 10308 56990 58001 70000 83618 87458=
41850,2023,06,11,00,00,AAXX 11004 41850 31950 30000 10256 20250 39887 49985 70521 83030 333 56090 59002 70000 83362=
41850,2023,06,11,06,00,AAXX 11064 41850 32457 51302 10330 20230 39886 49982 82510 333 56990 59016 70000 82618 85458=
41850,2023,06,11,12,00,AAXX 11124 41850 31450 80912 10289 20230 39861 49958 70522 8352/ 333 10352 56999 59016 70000 83616 88458=
41850,2023,06,11,18,00,AAXX 11184 41850 11450 80000 10248 20240 39880 49979 60106 70596 8352/ 333 56999 59012 70100 83616 88458=
41850,2023,06,12,00,00,AAXX 12004 41850 11440 80000 10234 20230 39893 49992 61039 72996 8352/ 333 56999 58006 71130 83615 88458=
41850,2023,06,12,06,00,AAXX 12064 41850 31450 81802 10275 20240 39906 40004 70522 8352/ 333 56999 58020 71130 83618 88458=
41850,2023,06,12,12,00,AAXX 12124 41850 31450 40902 10292 20240 39875 49972 70522 84500 333 10310 56900 58014 71130 84618=
41850,2023,06,12,18,00,AAXX 12184 41850 31930 01803 10260 20240 39826 49994 70500 333 58016 71030=
41850,2023,06,13,00,00,AAXX 13004 41850 31430 81304 10263 20250 39897 49995 70522 8252/ 333 56999 58004 70000 82618 88458=
41850,2023,06,13,06,00,AAXX 13064 41850 32456 40902 10305 20250 39886 49983 84500 333 56900 59020 70000 84618=
41850,2023,06,13,12,00,AAXX 13124 41850 31450 40000 10305 20250 39865 49961 70511 84500 333 10329 56900 59010 70000 84618=
41850,2023,06,13,18,00,AAXX 13184 41850 31930 01803 10270 20250 39876 49974 70500 333 59020 70000=
41850,2023,06,14,00,00,AAXX 14004 41850 11430 80000 10238 20230 39887 49986 60206 70566 8252/ 333 56999 59010 70200 82618 88458=
41850,2023,06,14,12,00,AAXX 14124 41850 31450 80000 10298 20250 39868 49964 70522 8252/ 333 10319 56999 58003 70200 82618 88458=
41850,2023,06,14,18,00,AAXX 14184 41850 11430 80000 10252 20240 39869 49977 60075 70562 8252/ 333 56999 58003 70270 82618 88458=
41850,2023,06,15,00,00,AAXX 15004 41850 11430 80000 10240 20240 39871 49969 60177 72996 8532/ 333 56999 59016 70240 84614 81928 88458=
41850,2023,06,15,06,00,AAXX 15064 41850 32956 42706 10293 20250 39886 49983 84500 333 56900 58002 70240 84618=
41850,2023,06,15,12,00,AAXX 15124 41850 31450 30000 10302 20260 39856 49953 70511 83500 333 10317 56900 59012 70240 83618=
41850,2023,06,15,18,00,AAXX 15183 41850 31430 80913 10260 20240 39886 49984 70522 8252/ 333 56999 58007 70170 82618 88458=
41851,2023,06,09,00,00,AAXX 09004 41851 32450 80301 10284 20230 39939 40001 8352/ 333 56999 58009 70000 83618 88458=
41851,2023,06,09,06,00,AAXX 09064 41851 32450 80904 10285 20240 39951 40013 8352/ 333 56999 59009 70000 83618 88458=
41851,2023,06,09,12,00,AAXX 09124 41851 32350 81502 10255 20240 39951 40014 8462/ 333 10258 56499 58005 71029 81709 83617 88457=
41851,2023,06,09,18,00,AAXX 09184 41851 32450 80000 10270 20250 39941 40003 8352/ 333 56999 59004 70000 83618 88458=
41851,2023,06,10,00,00,AAXX 10004 41851 32450 80000 10265 20260 39930 49992 8352/ 333 56999 59009 70000 83618 88458=
41851,2023,06,10,06,00,AAXX 10064 41851 32450 81802 10294 20240 39949 40011 8362/ 333 56499 59002 70000 81709 83618 88458=
41851,2023,06,10,12,00,AAXX 10124 41851 32450 71501 10295 20250 39914 49975 83520 333 10312 56990 58000 70000 83618 87458=
41851,2023,06,10,18,00,AAXX 10184 41851 32450 61201 10268 20260 39939 40001 83520 333 56990 59002 70000 83618 86458=
41851,2023,06,11,00,00,AAXX 11004 41851 11350 81802 10268 20250 39932 49994 60015 70262 8462/ 333 56499 58002 70010 81709 83617 88457=
41851,2023,06,11,06,00,AAXX 11064 41851 32450 62102 10315 20260 39935 49996 83520 333 56990 59014 70010 83618 86458=
41851,2023,06,11,12,00,AAXX 11124 41851 32450 61801 10308 20260 39904 49965 82530 333 10342 56990 59010 70010 82618 83362=
41851,2023,06,11,18,00,AAXX 11184 41851 31350 81202 10282 20250 39933 49995 70292 8462/ 333 56999 59006 70010 81709 84617 88457=
41851,2023,06,12,00,00,AAXX 12004 41851 11350 83204 10254 20240 39943 40006 60254 71796 8492/ 333 56499 58011 70250 81708 84616 81929 88456=
41851,2023,06,12,06,00,AAXX 12064 41851 11450 80000 10266 20250 39948 40010 60328 70296 8352/ 333 56999 58013 70572 83617 88457=
41851,2023,06,12,12,00,AAXX 12124 41851 32450 43201 10294 20240 39911 49972 81510 333 10297 56990 58007 70572 81618 84458=
41851,2023,06,12,18,00,AAXX 12184 41851 32950 00000 10265 20260 39945 40007 333 58012 70572=
41851,2023,06,13,00,00,AAXX 13004 41851 32450 63201 10262 20240 39936 49999 82520 333 56990 59007 70322 82618 86458=
41851,2023,06,13,06,00,AAXX 13064 41851 11450 81802 10276 20260 39937 49999 60014 70296 8352/ 333 56999 59011 70022 83618 88458=
41851,2023,06,13,12,00,AAXX 13124 41851 32450 41801 10300 20250 39898 49959 81510 333 10308 56990 59013 70010 81618 84459=
41851,2023,06,13,18,00,AAXX 13184 41851 32350 81502 10268 20250 39917 49979 8462/ 333 56999 59028 70010 81709 83617 88457=
41851,2023,06,14,00,00,AAXX 14004 41851 11350 82101 10250 20240 39929 49992 60117 79596 8492/ 333 56599 59007 70120 81708 83616 81929 88456=
41851,2023,06,14,12,00,AAXX 14124 41851 32450 62302 10310 20250 39890 49951 83510 333 10337 56990 59008 70110 83618 84458=
41851,2023,06,14,18,00,AAXX 14184 41851 11440 82702 10270 20260 39890 49952 60074 71792 8492/ 333 56999 59027 70180 81710 83618 81930 88458=
41851,2023,06,15,00,00,AAXX 15004 41851 11440 82302 10230 20230 39890 49953 60278 70296 8462/ 333 56599 59039 70344 81710 83618 88458=
41851,2023,06,15,06,00,AAXX 15064 41851 32450 81801 10310 20260 39905 49966 8351/ 333 56999 59023 70344 83618 88458=
41851,2023,06,15,12,00,AAXX 15124 41851 32450 71303 10290 20250 39886 49947 83510 333 10328 56990 59004 70344 83618 86458=
41851,2023,06,15,18,00,AAXX 15183 41851 11430 82301 10252 20240 39896 49958 60045 71796 8492/ 333 56999 58006 70314 81710 83618 81930 88458=
41856,2023,06,09,00,00,AAXX 09004 41856 32440 81801 10292 20280 39962 49997 8452/ 333 56999 59020 70000 84618 88458=
41856,2023,06,09,06,00,AAXX 09064 41856 11450 81801 10247 20247 39990 40026 60569 72196 8652/ 333 56699 58002 70560 83708 85614 88456 81930=
41856,2023,06,09,12,00,AAXX 09124 41856 11440 80000 10252 20240 39980 40016 60019 70262 8562/ 333 10280 56699 58002 70680 83710 85618 88458=
41856,2023,06,09,18,00,AAXX 09184 41856 32430 80000 10265 20260 39970 40005 8452/ 333 56999 58000 70560 84618 88458=
41856,2023,06,10,00,00,AAXX 10004 41856 32440 80000 10262 20250 39962 49997 8452/ 333 56999 58000 70560 84618 88458=
41856,2023,06,10,06,00,AAXX 10064 41856 11450 80502 10275 20260 39972 40007 60117 76166 8452/ 333 56999 59018 70106 84618 88458=
41856,2023,06,10,12,00,AAXX 10124 41856 11450 50000 10290 20240 39939 49974 60014 70162 83470 333 10306 56990 58000 70116 82618 84458=
41856,2023,06,10,18,00,AAXX 10184 41856 32440 50000 10271 20260 39968 40003 83470 333 56990 59002 70116 82618 84458=
41856,2023,06,11,00,00,AAXX 11004 41856 32440 70000 10260 20250 39957 49992 83530 333 56990 59005 70116 82618 86458=
41856,2023,06,11,06,00,AAXX 11064 41856 32450 70000 10300 20250 39963 49998 83530 333 56990 59009 70010 82618 86458=
41856,2023,06,11,12,00,AAXX 11124 41856 32950 00000 10304 20250 39933 49968 333 10323 59006 70000 84458=
41856,2023,06,11,18,00,AAXX 11184 41856 32440 72102 10280 20260 39964 49999 83530 333 56990 59004 70000 83618 86458=
41856,2023,06,12,00,00,AAXX 12004 41856 11440 81102 10261 20250 39966 40001 60034 72162 8462/ 333 56999 58009 70034 84618 88458=
41856,2023,06,12,06,00,AAXX 12064 41856 11450 81401 10274 20230 39976 40011 60024 70262 8462/ 333 56999 58013 70055 84618 88458=
41856,2023,06,12,12,00,AAXX 12124 41856 32450 80601 10310 20250 39938 49973 8452/ 333 10318 56999 58005 70055 84618 88458=
41856,2023,06,12,18,00,AAXX 12184 41856 32440 81501 10276 20260 39973 40008 8452/ 333 56999 58009 70055 84618 88458=
41856,2023,06,13,00,00,AAXX 13004 41856 32440 81301 10264 20240 39960 49995 8452/ 333 56999 59006 70021 84618 88458=
41856,2023,06,13,06,00,AAXX 13064 41856 11450 81501 10252 20240 39960 49995 60388 70262 8462/ 333 56999 59016 70401 84618 88458=
41856,2023,06,13,12,00,AAXX 13124 41856 32950 20000 10300 20260 39924 49959 82030 333 10300 56090 59014 70380 82362=
41856,2023,06,13,18,00,AAXX 13184 41856 31430 80902 10266 20260 39945 49980 71391 8532/ 333 56699 59028 70380 83710 85618 88458 81930=
41856,2023,06,14,00,00,AAXX 14004 41856 11340 81802 10250 20240 39949 49985 60189 79599 8692/ 333 56699 59011 70556 84708 85614 88456 81930=
41856,2023,06,14,12,00,AAXX 14124 41856 32450 61302 10308 20270 39932 49967 83520 333 10332 56990 58008 70252 83618 86458=
41856,2023,06,14,18,00,AAXX 14184 41856 31430 81303 10274 20240 39923 40058 71392 8632/ 333 56699 59022 70252 83709 85615 88457 81930=
41856,2023,06,15,00,00,AAXX 15004 41856 11440 80902 10232 20220 39940 49976 60189 72996 8662/ 333 56499 59009 70258 84709 85615 88456=
41856,2023,06,15,06,00,AAXX 15064 41856 32450 71302 10322 20280 39952 49987 83520 333 56990 59002 70182 83615 87458=
41856,2023,06,15,12,00,AAXX 15124 41856 11450 71302 10260 20240 39951 49986 60117 72196 84620 333 10344 56990 58019 70295 81709 83615 87457=
41856,2023,06,15,18,00,AAXX 15183 41856 11430 81302 10247 20240 39949 49984 60034 70296 8562/ 333 56699 58026 70325 83708 85614 88457 81930=
41858,2023,06,09,00,00,AAXX 09004 41858 01412 80905 10300 20280 39957 40002 71022 8552/ 333 59019 70000 85614 88458==
41858,2023,06,09,03,00,AAXX 09034 41858 01325 80908 10262 20240 39981 40027 79522 8572/ 333 20258 59001 70052 82708 84615 88458 82925==
41858,2023,06,09,06,00,AAXX 09064 41858 21440 80908 10296 20240 39968 40012 70596 8452/ 333 59008 60055 70052 84616 88458==
41858,2023,06,09,09,00,AAXX 09094 41858 01450 80906 10320 20240 39947 40091 70522 8452/ 333 58001 70052 84616 88458==
41858,2023,06,09,12,00,AAXX 09124 41858 01450 80906 10304 20240 39930 49974 70522 8452/ 333 10323 59005 70052 83618 88458==
41858,2023,06,09,15,00,AAXX 09154 41858 01440 50905 10282 20240 39956 40001 70522 83530 333 58002 70052 83618 84362==
41858,2023,06,09,18,00,AAXX 09184 41858 01440 60905 10272 20250 39970 40015 70522 84520 333 58010 70052 84615 85458==
41858,2023,06,09,21,00,AAXX 09214 41858 01430 70504 10270 20250 39954 49999 70522 84520 333 59002 70052 84615 86458==
41858,2023,06,10,00,00,AAXX 10004 41858 01420 80505 10272 20250 39949 49994 71022 8452/ 333 59008 70052 84615 88458==
41858,2023,06,10,03,00,AAXX 10034 41858 01435 70907 10300 20250 39966 40011 70522 84520 333 20264 59015 70000 83615 87458==
41858,2023,06,10,06,00,AAXX 10064 41858 01450 71206 10324 20240 39966 40011 70522 84520 333 59002 70000 84615 87458==
41858,2023,06,10,09,00,AAXX 10094 41858 01456 50906 10315 20260 39940 49984 70522 85420 333 59007 70000 83615 84460==
41858,2023,06,10,12,00,AAXX 10124 41858 01450 70605 10310 20250 39930 49974 70522 83530 333 10335 58000 70000 83618 86362==
41858,2023,06,10,15,00,AAXX 10154 41858 01440 60905 10290 20260 39953 49998 70522 83530 333 59003 70000 83618 86362==
41858,2023,06,10,18,00,AAXX 10184 41858 01440 70905 10270 20250 39974 40019 70522 83530 333 58004 70000 83618 86458==
41858,2023,06,11,00,00,AAXX 11004 41858 21425 81505 10284 20250 39951 49996 71022 8352/ 333 58002 60007 83710 84618 88458==
41858,2023,06,11,03,00,AAXX 11034 41858 41440 80905 10295 20260 39958 40002 70522 8452/ 333 20265 59008 84615 88458==
41858,2023,06,11,06,00,AAXX 11064 41858 41440 60905 10340 20260 39950 49994 70522 84420 333 59016 83615 83825==
41858,2023,06,11,09,00,AAXX 11094 41858 41440 40608 10358 20270 39926 49970 70522 83800 333 59014 83615 83825==
41858,2023,06,11,12,00,AAXX 11124 41858 41450 61208 10325 20270 39920 49964 70522 83520 333 10358 59010 83615 86458==
41858,2023,06,11,15,00,AAXX 11154 41858 01430 80910 10260 20240 39944 49989 79596 8592/ 333 59009 70150 84614 88458 82930==
41858,2023,06,11,18,00,AAXX 11184 41858 21440 80905 10260 20250 39953 49998 79596 8532/ 333 59021 60237 70228 84615 88458 82930==
41858,2023,06,11,21,00,AAXX 11214 41858 01430 80905 10264 20250 39953 49998 70522 8452/ 333 59009 70228 84615 88458==
41858,2023,06,12,00,00,AAXX 12004 41858 01318 80905 10270 20260 39956 40001 71022 8562/ 333 58005 70228 84708 85615 88458==
41858,2023,06,12,03,00,AAXX 12034 41858 01325 80606 10260 20240 39967 40012 75152 8562/ 333 20238 58009 70238 84708 85614 88458==
41858,2023,06,12,06,00,AAXX 12064 41858 01435 80907 10294 20240 39965 40010 70522 8452/ 333 58015 70010 83710 85618 88458==
41858,2023,06,12,09,00,AAXX 12093 41858 01450 50503 10320 20260 39939 49983 70522 85400 333 58013 70238 83615 83828==
41858,2023,06,12,12,00,AAXX 12124 41858 01550 30905 10310 20260 39929 49973 70522 83100 333 10325 58010 70238 83825==
41858,2023,06,12,15,00,AAXX 12154 41858 01940 00605 10284 20260 39948 49993 70500 333 58004 70088==
41858,2023,06,12,18,00,AAXX 12184 41858 NIL=
41858,2023,06,12,21,00,AAXX 12214 41858 01430 80906 10268 20250 39949 49994 70522 8452/ 333 59004 70010 84615 88458==
41858,2023,06,13,00,00,AAXX 13004 41858 01430 80906 10260 20250 39951 49996 70522 8452/ 333 59005 70010 84615 88458==
41858,2023,06,13,03,00,AAXX 13034 41858 01420 82710 10264 20240 39968 40013 79596 8592/ 333 20250 58001 70030 84614 88458 82930==
41858,2023,06,13,06,00,AAXX 13064 41858 21450 80000 10274 20250 39955 40000 70596 8452/ 333 59010 60278 70270 84615 88458==
41858,2023,06,13,09,00,AAXX 13093 41858 01450 81503 10308 20270 39931 49975 70522 8352/ 333 59008 70270 83618 88458==
41858,2023,06,13,12,00,AAXX 13124 41858 01950 30904 10304 20260 39913 49957 70521 80001 333 10316 59016 70270 83074==
41858,2023,06,13,15,00,AAXX 13154 41858 01/40 40905 10282 20260 39934 49980 70511 84030 333 59014 70270 84362==
41858,2023,06,13,18,00,AAXX 13184 41858 01/40 40905 10272 20250 39943 49988 70511 84030 333 59011 70270 84362==
41858,2023,06,13,21,00,AAXX 13214 41858 01430 80905 10262 20250 39940 49985 70596 8452/ 333 59009 70420 84615 88458==
41858,2023,06,14,00,00,AAXX 14004 41858 01425 80505 10260 20250 39948 49993 76196 8452/ 333 59003 70436 84615 88458==
41858,2023,06,14,12,00,AAXX 14124 41858 01440 60905 10320 20260 39920 49964 70522 83520 333 10352 59007 70200 83616 86458==
41858,2023,06,14,15,00,AAXX 14154 41858 01440 81208 10300 20270 39932 49977 70522 8452/ 333 59002 70200 84615 88458==
41858,2023,06,14,18,00,AAXX 14184 41858 01440 80908 10290 20270 39938 49983 70522 8452/ 333 59005 70200 84615 88458==
41858,2023,06,14,21,00,AAXX 14214 41858 01440 80906 10274 20250 39932 49977 70522 8452/ 333 59008 70050 84615 88458==
41858,2023,06,15,00,00,AAXX 15004 41858 01450 80906 10258 20230 39927 49972 70522 8552/ 333 59021 70034 85614 88458==
41858,2023,06,15,03,00,AAXX 15034 41858 01450 41305 10304 20250 39935 49979 70522 84800 333 20248 59009 70000 83618==
41858,2023,06,15,06,00,AAXX 15064 41858 01/50 31810 10366 20260 39941 49984 70522 83030 333 59002 70000 83362==
41858,2023,06,15,09,00,AAXX 15094 41858 01550 22110 10396 20260 39911 49954 70520 82100 333 59015 70000 82825==
41858,2023,06,15,12,00,AAXX 15124 41858 01450 80606 10326 20250 39916 49953 70522 8452/ 333 10401 59004 70000 84615 88458==
41858,2023,06,15,15,00,AAXX 15154 41858 01440 80908 10280 20260 39938 49983 71722 8592/ 333 58006 70000 84615 88458 81925==
41858,2023,06,15,18,00,AAXX 15183 41858 NIL=
41858,2023,06,15,21,00,AAXX 15214 41858 01430 80905 10270 20250 39942 49987 70522 8452/ 333 58010 70000 84616 88458==
41859,2023,06,09,00,00,AAXX 09004 41859 02440 81702 10302 20280 39960 49996 8562/ 333 59020 70000 82710 84618 88458==
41859,2023,06,09,03,00,AAXX 09034 41859 01340 80904 10248 20248 30002 40039 79522 8592/ 333 20236 59012 70370 83708 85616 88456 81930==
41859,2023,06,09,06,00,AAXX 09064 41859 21340 80904 10251 20240 39983 40020 76196 8572/ 333 60497 70494 83708 85616 88456==
41859,2023,06,09,09,00,AAXX 09094 41859 01450 60503 10307 20260 39955 49991 70162 85630 333 58000 70500 82710 84618 86362==
41859,2023,06,09,12,00,AAXX 09124 41859 11450 70502 10285 20260 39938 49975 69966 70362 85630 333 10310 59004 70500 82710 84618 87362==
41859,2023,06,09,15,00,AAXX 09154 41859 02430 80901 10277 20260 39965 40002 8562/ 333 58002 70500 83710 84618 88458==
41859,2023,06,09,18,00,AAXX 09184 41859 02430 80000 10275 20260 39970 40007 8562/ 333 59001 70500 83710 84618 88458==
41859,2023,06,09,21,00,AAXX 09214 41859 02430 80000 10273 20250 39958 49995 8562/ 333 59006 70500 83710 84618 88458==
41859,2023,06,10,00,00,AAXX 10004 41859 02435 80000 10270 20260 39952 49989 8562/ 333 59008 70500 83710 84618 88458==
41859,2023,06,10,03,00,AAXX 10034 41859 02450 80902 10281 20250 39975 40012 8562/ 333 20234 59027 70130 83710 84618 88458==
41859,2023,06,10,06,00,AAXX 10064 41859 01450 80902 10282 20240 39974 40004 76122 8572/ 333 59009 70010 83710 84617 88458==
41859,2023,06,10,09,00,AAXX 10094 41859 01450 60502 10304 20250 39943 49979 70262 84620 333 59012 70012 82710 83618 86458==
41859,2023,06,10,12,00,AAXX 10124 41859 11450 80501 10301 20250 39940 49976 69926 70362 8562/ 333 10315 58002 70012 82710 84618 88458==
41859,2023,06,10,15,00,AAXX 10154 41859 02430 80902 10280 20260 39963 40000 8562/ 333 59002 70012 82710 84618 88458==
41859,2023,06,10,18,00,AAXX 10184 41859 02430 81303 10282 20260 39966 40003 8562/ 333 59004 70012 83710 85618 88458==
41859,2023,06,10,21,00,AAXX 10214 41859 02430 81302 10275 20260 39954 49991 8562/ 333 59004 70012 82710 84618 88458==
41859,2023,06,11,00,00,AAXX 11004 41859 02440 80000 10270 20250 39956 49993 8562/ 333 58004 70012 82710 84618 88458==
41859,2023,06,11,03,00,AAXX 11034 41859 02450 80000 10295 20260 39966 40003 8562/ 333 20265 59009 70012 83710 84618 88458==
41859,2023,06,11,06,00,AAXX 11064 41859 02450 80000 10317 20260 39962 49998 85621 333 59012 70002 83718 84618 88458==
41859,2023,06,11,09,00,AAXX 11094 41859 02450 82302 10328 20270 39937 49973 8561/ 333 59006 70000 82710 84618 88458==
41859,2023,06,11,12,00,AAXX 11124 41859 02440 71302 10322 20260 39931 49967 85610 333 10331 59009 70000 82710 83618 87458==
41859,2023,06,11,15,00,AAXX 11154 41859 02430 80000 10301 20250 39954 49990 8562/ 333 59009 70000 82710 84618 88458==
41859,2023,06,11,18,00,AAXX 11184 41859 01330 80902 10288 20260 39956 49993 79592 8692/ 333 59010 70007 84708 85614 88456 81929==
41859,2023,06,11,21,00,AAXX 11214 41859 01430 80902 10281 20260 39959 49996 70292 8562/ 333 58005 70018 83710 84618 88458==
41859,2023,06,12,00,00,AAXX 12004 41859 01440 80902 10275 20260 39961 49998 70292 8562/ 333 58005 70010 83710 84618 88458==
41859,2023,06,12,03,00,AAXX 12034 41859 02450 80902 10280 20260 39979 40016 8462/ 333 20268 58013 70018 83710 84618 88458==
41859,2023,06,12,06,00,AAXX 12064 41859 02450 80902 10271 20250 39975 40012 8462/ 333 58013 70018 83710 84618 88458==
41859,2023,06,12,09,00,AAXX 12094 41859 02450 61302 10315 20260 39947 49983 84430 333 58010 70018 82618 83828 86362==
41859,2023,06,12,12,00,AAXX 12124 41859 02550 30902 10310 20260 39938 49974 81130 333 10320 58007 70018 81828 83362==
41859,2023,06,12,15,00,AAXX 12154 41859 02430 80902 10290 20260 39957 49994 8462/ 333 58004 70018 82710 84618 88458==
41859,2023,06,12,18,00,AAXX 12184 41859 02430 81302 10285 20270 39973 40010 8562/ 333 58017 70011 82710 84618 88458==
41859,2023,06,12,21,00,AAXX 12214 41859 02430 81302 10273 20250 39960 49997 8562/ 333 58001 70000 82710 84618 88458==
41859,2023,06,13,00,00,AAXX 13004 41859 02435 81302 10266 20250 39957 49994 8562/ 333 59004 70000 83710 84618 88458==
41859,2023,06,13,03,00,AAXX 13034 41859 01350 81302 10259 20250 39972 40009 76122 8572/ 333 20250 59007 70080 84616 88456==
41859,2023,06,13,06,00,AAXX 13064 41859 21350 80000 10256 20250 39960 49997 76162 8572/ 333 59015 60227 70220 83708 84616 88456==
41859,2023,06,13,09,00,AAXX 13094 41859 01450 81302 10281 20260 39942 49979 70262 8562/ 333 59005 70222 82710 84618 88458==
41859,2023,06,13,12,00,AAXX 13124 41859 11450 81301 10304 20260 39924 49960 69926 70262 8562/ 333 10308 59014 70222 82710 84618 88458==
41859,2023,06,13,15,00,AAXX 13154 41859 02430 80502 10285 20280 39944 40081 8562/ 333 59013 70222 82710 84618 88458==
41859,2023,06,13,18,00,AAXX 13184 41859 02430 80503 10276 20240 39945 49982 8562/ 333 59028 70222 83710 85618 88458==
41859,2023,06,13,21,00,AAXX 13214 41859 01320 80506 10255 20250 39944 49981 79696 8692/ 333 59016 70456 83708 85614 88456 81930==
41859,2023,06,14,00,00,AAXX 14004 41859 21430 80903 10265 20260 39958 49995 70296 8562/ 333 58001 60278 70496 83710 85618 88458==
41859,2023,06,14,03,00,AAXX 14034 41859 NIL=
41859,2023,06,14,09,00,AAXX 14094 41859 02450 80000 10344 20260 39935 49971 8562/ 333 59007 70307 82710 84618 88458==
41859,2023,06,14,12,00,AAXX 14124 41859 02440 80901 10322 20280 39933 49969 8562/ 333 10344 58009 70307 81710 84618 88458==
41859,2023,06,14,15,00,AAXX 14154 41859 02430 80000 10291 20260 39944 49981 8562/ 333 58000 70307 82710 84618 88458==
41859,2023,06,14,18,00,AAXX 14184 41859 02430 81303 10279 20260 39944 49981 8562/ 333 59001 70307 82710 84618 88458==
41859,2023,06,14,21,00,AAXX 14214 41859 01430 81302 10266 20250 39939 49976 70292 8562/ 333 59005 70073 82710 84618 88458==
41859,2023,06,15,00,00,AAXX 15004 41859 01430 81302 10256 20240 39936 49973 70292 8562/ 333 59022 70033 82710 84618 88458==
41859,2023,06,15,03,00,AAXX 15034 41859 02450 81302 10279 20250 39946 49983 8562/ 333 20248 59009 70000 82710 84618 88458==
41859,2023,06,15,06,00,AAXX 15064 41859 02450 81302 10350 20270 39950 49986 8562/ 333 58000 70000 82710 84618 88458==
41859,2023,06,15,09,00,AAXX 15094 41859 02450 61802 10383 20250 39924 49959 85620 333 59011 70000 82710 83618 86458==
41859,2023,06,15,12,00,AAXX 15124 41859 01450 81304 10277 20240 39935 49971 71792 8692/ 333 10385 58002 70000 83710 84618 88458 81930==
41859,2023,06,15,15,00,AAXX 15154 41859 01325 81302 10255 20250 39948 49985 79596 8692/ 333 58004 70130 84708 85616 88456 81930==
41859,2023,06,15,18,00,AAXX 15184 41859 21430 81302 10264 20240 39942 49979 70296 8562/ 333 59002 60248 70240 83710 84618 88458==
41859,2023,06,15,21,00,AAXX 15214 41859 02430 80502 10264 20240 39948 49985 8562/ 333 58009 70240 83710 84618 88458==
41863,2023,06,09,00,00,AAXX 09004 41863 02450 80000 10298 20280 39958 40000 8452/ 333 59017 70000 84618 88458==
41863,2023,06,09,03,00,AAXX 09034 41863 02450 80904 10286 20220 39973 40015 8452/ 333 20278 59011 70000 84618 88458==
41863,2023,06,09,06,00,AAXX 09064 41863 02456 70905 10315 20240 39974 40016 84520 333 59004 70000 84618 87458==
41863,2023,06,09,09,00,AAXX 09094 41863 02456 71304 10323 20230 39948 49990 84520 333 59002 70000 84618 87458==
41863,2023,06,09,12,00,AAXX 09124 41863 02456 70502 10312 20240 39930 49972 8552/ 333 10332 59002 70000 85618 87458==
41863,2023,06,09,15,00,AAXX 09154 41863 02456 80902 10285 20250 39958 40000 8552/ 333 58002 70000 85618 88458==
41863,2023,06,09,18,00,AAXX 09184 41863 02450 61301 10275 20250 39964 40006 84520 333 59003 70000 84618 86458==
41863,2023,06,09,21,00,AAXX 09214 41863 02450 60501 10273 20240 39959 40001 84520 333 58001 70000 84618 86458==
41863,2023,06,10,00,00,AAXX 10004 41863 02450 60501 10270 20250 39950 49992 84520 333 59008 70000 84618 86458==
41863,2023,06,10,03,00,AAXX 10034 41863 02456 80902 10292 20250 39969 40011 8552/ 333 20260 59004 70000 85618 88458==
41863,2023,06,10,06,00,AAXX 10064 41863 02456 81304 10315 20250 39966 40008 8552/ 333 59008 70000 85618 88458==
41863,2023,06,10,09,00,AAXX 10094 41863 02456 60903 10335 20250 39939 49980 83520 333 59009 70000 83618 86458==
41863,2023,06,10,12,00,AAXX 10124 41863 02456 61303 10320 20250 39930 49971 83520 333 10337 58000 70000 83618 86458==
41863,2023,06,10,15,00,AAXX 10154 41863 02450 50502 10295 20260 39952 49994 82520 333 59006 70000 82618 85458==
41863,2023,06,10,18,00,AAXX 10184 41863 02450 50000 10286 20260 39962 40004 82520 333 59002 70000 82618 85458==
41863,2023,06,11,00,00,AAXX 11004 41863 02950 80901 10275 20260 39952 49994 8552/ 333 58002 70000 85618 88458==
41863,2023,06,11,03,00,AAXX 11034 41863 02956 81301 10310 20260 39956 49998 8552/ 333 20266 59013 70000 85618 88458==
41863,2023,06,11,06,00,AAXX 11064 41863 02457 61301 10342 20250 39949 49990 83520 333 59017 70000 83618 86458==
41863,2023,06,11,09,00,AAXX 11094 41863 02457 60902 10355 20260 39925 49966 84520 333 59014 70000 84618 86458==
41863,2023,06,11,12,00,AAXX 11124 41863 02456 51304 10337 20260 39916 49957 85500 333 10355 59014 70000 85618==
41863,2023,06,11,15,00,AAXX 11154 41863 41350 80902 10265 20250 39939 49981 76192 8692/ 333 59013 82708 85617 88456==
41863,2023,06,11,18,00,AAXX 11184 41863 21450 80902 10262 20240 39957 49999 70296 8552/ 333 59005 69985 70008 85618 88458==
41863,2023,06,11,21,00,AAXX 11214 41863 02450 80902 10262 20240 39951 49993 8552/ 333 59003 70008 85618 88458==
41863,2023,06,12,00,00,AAXX 12004 41863 02450 82703 10262 20240 39965 40007 8552/ 333 58013 70008 85618 88458==
41863,2023,06,12,03,00,AAXX 12034 41863 01450 81301 10265 20260 39967 40009 72196 8562/ 333 20252 58011 70168 82710 86517 88458==
41863,2023,06,12,06,00,AAXX 12064 41863 21456 71302 10300 20250 39966 40008 70196 83520 333 58017 60168 70168 83618 87458==
41863,2023,06,12,09,00,AAXX 12093 41863 02457 50902 10328 20250 39940 49981 83520 333 58015 70168 83618 85458==
41863,2023,06,12,12,00,AAXX 12124 41863 02456 50503 10320 20250 39926 49967 83520 333 10331 58010 70168 83618 85458==
41863,2023,06,12,15,00,AAXX 12154 41863 02950 00503 10290 20260 39950 49992 333 58011 70168==
41863,2023,06,12,18,00,AAXX 12184 41863 02450 80902 10286 20270 39966 40008 8552/ 333 70160 85618 88458==
41863,2023,06,12,21,00,AAXX 12214 41863 02450 81303 10283 20260 39951 49993 8452/ 333 58000 70160 84618 88458==
41863,2023,06,13,00,00,AAXX 13004 41863 02450 81303 10275 20260 39946 49988 8552/ 333 59019 70160 85618 88458==
41863,2023,06,13,03,00,AAXX 13034 41863 01450 80503 10240 20230 39967 40010 76222 8562/ 333 10235 58000 70352 83708 85617 88457==
41863,2023,06,13,06,00,AAXX 13064 41863 21456 80901 10265 20250 39958 40000 70262 8552/ 333 59008 60385 70376 85618 88458==
41863,2023,06,13,09,00,AAXX 13093 41863 02557 30902 10321 20260 39929 49971 83400 333 59011 70376 83620==
41863,2023,06,13,12,00,AAXX 13124 41863 02957 30901 10316 20250 39915 49956 80002 333 10325 59011 70376 82074==
41863,2023,06,13,15,00,AAXX 13154 41863 02550 30902 10290 20270 39935 49977 83400 333 59015 70376 83620==
41863,2023,06,13,18,00,AAXX 13184 41863 02450 80904 10286 20270 39937 49979 8452/ 333 59027 70376 84618 88458==
41863,2023,06,13,21,00,AAXX 13214 41863 01440 80903 10272 20250 39935 49977 70296 8452/ 333 59016 70486 84618 88458==
41863,2023,06,14,00,00,AAXX 14004 41863 11450 80903 10262 20250 39949 49991 60116 70296 8452/ 333 58003 70486 84618 88458==
41863,2023,06,14,12,00,AAXX 14124 41863 02556 30901 10340 20260 39920 49961 83400 333 10348 58005 70110 83620==
41863,2023,06,14,15,00,AAXX 14154 41863 02550 30901 10307 20280 39933 49974 83400 333 59002 70110 83620==
41863,2023,06,14,18,00,AAXX 14184 41863 02450 51302 10285 20270 39919 49961 82520 333 59018 70110 82618 85458==
41863,2023,06,14,21,00,AAXX 14214 41863 02450 61303 10276 20260 39915 49957 83520 333 59020 70000 83618 86458==
41863,2023,06,15,00,00,AAXX 15004 41863 02450 80901 10260 20240 39930 49972 8552/ 333 59019 70000 85618 88458==
41863,2023,06,15,03,00,AAXX 15034 41863 02556 51303 10320 20260 39937 49979 85400 333 20255 59010 70000 85620==
41863,2023,06,15,06,00,AAXX 15064 41863 02557 22302 10375 20250 39941 49982 82400 333 59002 70000 82625==
41863,2023,06,15,09,00,AAXX 15094 41863 02957 00905 10402 20230 39913 49953 333 59012 70000==
41863,2023,06,15,12,00,AAXX 15124 41863 02450 81303 10370 20230 39904 49945 8552/ 333 10402 59016 70000 85617 88458==
41863,2023,06,15,15,00,AAXX 15154 41863 02450 80905 10305 20260 39939 49981 8592/ 333 58006 70000 85617 88458 81930==
41863,2023,06,15,18,00,AAXX 15183 41863 02440 81303 10296 20270 39929 49971 8552/ 333 58010 70000 85617 88458==
41863,2023,06,15,21,00,AAXX 15214 41863 02450 81703 10290 20260 39935 49977 8452/ 333 58020 70000 84617 88458==
41881,2023,06,09,00,00,AAXX 09004 41881 32456 81801 10295 20290 39978 49998 8552/ 333 56999 59016 70000 85618 88459=
41881,2023,06,09,06,00,AAXX 09064 41881 32458 70204 10302 20240 39991 40011 84520 333 56890 59004 70000 84618 87459=
41881,2023,06,09,12,00,AAXX 09124 41881 11457 80802 10280 20240 39953 49973 69904 76122 8552/ 333 10335 56199 59008 79999 85615 88458=
41881,2023,06,09,18,00,AAXX 09184 41881 NIL=
41881,2023,06,10,00,00,AAXX 10004 41881 32457 70000 10252 20240 39972 49991 84520 333 56990 59006 79999 84616 87459=
41881,2023,06,10,06,00,AAXX 10064 41881 32457 70403 10320 20230 39979 49999 84520 333 56199 59012 79999 84617 87459=
41881,2023,06,10,12,00,AAXX 10124 41881 32456 50501 10322 20240 39949 49969 83520 333 10354 56990 59004 70000 83618 85459=
41881,2023,06,10,18,00,AAXX 10184 41881 32450 81404 10286 20250 39981 40001 8552/ 333 56999 58007 70000 85617 88459=
41881,2023,06,11,00,00,AAXX 11004 41881 32956 01002 10270 20250 39971 49991 8552/ 333 56999 59001 70000 85617 88459=
41881,2023,06,11,06,00,AAXX 11064 41881 32457 50901 10330 20250 39973 49992 83520 333 56990 59006 70000 83618 85459=
41881,2023,06,11,12,00,AAXX 11124 41881 32456 60501 10335 20260 39940 49959 83520 333 10355 56990 59009 70000 83617 86459=
41881,2023,06,11,18,00,AAXX 11184 41881 11450 80901 10256 20250 39974 49994 60257 8552/ 333 56999 59007 70250 85617 88459=
41881,2023,06,12,00,00,AAXX 12004 41881 32450 80901 10265 20260 39984 40004 8552/ 333 56999 58013 70250 85617 88459=
41881,2023,06,12,06,00,AAXX 12064 41881 11457 60901 10306 20250 39985 40005 60056 70162 83520 333 56990 58012 70300 83616 86458=
41881,2023,06,12,12,00,AAXX 12124 41881 32457 20702 10317 20260 39948 49968 82500 333 10342 56900 58008 70300 82618=
41881,2023,06,12,18,00,AAXX 12184 41881 32950 50903 10274 20250 39983 40003 83520 333 56990 58009 70050 83617 85459=
41881,2023,06,13,00,00,AAXX 13004 41881 32456 80902 10260 20240 39970 49990 8552/ 333 56999 59014 70050 85617 88459=
41881,2023,06,13,06,00,AAXX 13064 41881 32457 70802 10293 20220 39975 49995 84520 333 56990 59010 70000 84617 87459=
41881,2023,06,13,12,00,AAXX 13124 41881 32456 60802 10316 20270 39928 49949 83520 333 10332 56990 59020 70000 83618 86459=
41881,2023,06,13,18,00,AAXX 13184 41881 32450 82305 10286 20280 39974 49993 8552/ 333 56999 59009 70000 85617 88459=
41881,2023,06,14,00,00,AAXX 14004 41881 11456 80703 10250 20240 39960 49980 60045 70262 8552/ 333 56999 59010 70041 85616 88458=
41881,2023,06,14,12,00,AAXX 14124 41881 32456 50502 10326 20290 39938 49958 83520 333 10373 56990 58030 70041 83617 85459=
41881,2023,06,14,18,00,AAXX 14184 41881 32450 50501 10185 20280 39952 49979 83520 333 56990 59022 70041 83617 85459=
41881,2023,06,15,00,00,AAXX 15004 41881 32456 81402 10288 20270 39952 49972 8552/ 333 56999 58008 70000 85617 88459=
41881,2023,06,15,06,00,AAXX 15064 41881 32457 51802 10363 20240 39963 49983 83520 333 56990 58005 70000 83617 85459=
41881,2023,06,15,12,00,AAXX 15124 41881 32456 71403 10345 20290 39937 49957 84520 333 10380 56990 59021 70000 84617 87459=
41881,2023,06,15,18,00,AAXX 15183 41881 32450 81404 10282 20250 39962 49982 84520 333 56990 58010 70000 85617 88459=
41883,2023,06,09,00,00,AAXX 09004 41883 02450 80000 10296 20280 39980 40000 8562/ 333 59015 70000 82710 84618 88458==
41883,2023,06,09,03,00,AAXX 09034 41883 02356 80000 10315 20290 39994 40014 8562/ 333 20290 59014 70000 85710 88458==
41883,2023,06,09,06,00,AAXX 09064 41883 21356 80000 10268 20240 39993 40013 70262 8562/ 333 59010 60015 70006 85710 88458==
41883,2023,06,09,09,00,AAXX 09094 41883 02350 80000 10270 20240 39971 49991 85623 333 59005 70006 85709 88458==
41883,2023,06,09,12,00,AAXX 09124 41883 02340 80000 10264 20230 39960 49980 8562/ 333 10330 58000 70006 85709 88458==
41883,2023,06,09,15,00,AAXX 09154 41883 02330 80000 10262 20240 39975 49995 8562/ 333 59008 70000 85709 88458==
41883,2023,06,09,18,00,AAXX 09184 41883 02330 80000 10260 20240 39985 40005 8562/ 333 59001 70006 85709 88458==
41883,2023,06,09,21,00,AAXX 09214 41883 02330 80000 10258 20240 39975 49995 8562/ 333 59002 70006 85709 88458==
41883,2023,06,10,00,00,AAXX 10004 41883 02450 60000 10254 20230 39973 49993 83510 333 58007 70006 83616 86459==
41883,2023,06,10,03,00,AAXX 10034 41883 02456 60000 10288 20250 39986 40006 83530 333 20250 59008 70006 83616 86362==
41883,2023,06,10,06,00,AAXX 10064 41883 02456 40000 10327 20240 39976 49996 81530 333 59017 70000 81616 84362==
41883,2023,06,10,09,00,AAXX 10094 41883 02/56 20000 10334 20230 39958 49978 82030 333 59013 70000 82362==
41883,2023,06,10,12,00,AAXX 10124 41883 02456 40000 10330 20230 39951 49971 84500 333 10340 59009 70000 84616==
41883,2023,06,10,15,00,AAXX 10154 41883 02/30 50000 10300 20260 39975 49995 85030 333 58000 70000 85362==
41883,2023,06,10,18,00,AAXX 10184 41883 02430 70000 10287 20260 39987 40007 85520 333 58002 70000 85615 87458==
41883,2023,06,10,21,00,AAXX 10214 41883 02430 70000 10282 20260 39980 40000 84520 333 58005 70000 84615 87458==
41883,2023,06,11,00,00,AAXX 11004 41883 02340 80000 10274 20250 39973 49993 8562/ 333 58000 70000 85709 88458==
41883,2023,06,11,03,00,AAXX 11034 41883 02350 80000 10280 20260 39981 40001 8562/ 333 20268 59005 70000 85709 88458==
41883,2023,06,11,06,00,AAXX 11064 41883 02456 80000 10320 20260 39975 49995 8552/ 333 59001 70000 85616 88459==
41883,2023,06,11,09,00,AAXX 11094 41883 02456 60000 10344 20250 39951 49970 84430 333 59007 70000 82616 83828 86362==
41883,2023,06,11,12,00,AAXX 11124 41883 02456 41302 10332 20260 39943 49963 81530 333 10348 59008 70000 81616 84362==
41883,2023,06,11,15,00,AAXX 11154 41883 02430 80000 10306 20270 39966 49986 8552/ 333 58015 70000 85616 88459==
41883,2023,06,11,18,00,AAXX 11184 41883 11330 80000 10280 20250 39976 49996 60016 71796 8532/ 333 59011 70008 85709 88458 81930==
41883,2023,06,11,21,00,AAXX 11214 41883 02330 80000 10274 20250 39969 49989 8562/ 333 59011 70008 85709 88458==
41883,2023,06,12,00,00,AAXX 12004 41883 02340 80000 10270 20260 39983 40003 8562/ 333 58010 70008 85709 88458==
41883,2023,06,12,03,00,AAXX 12034 41883 01350 80000 10274 20250 39989 40009 72166 8562/ 333 20265 58008 70038 85709 88458==
41883,2023,06,12,06,00,AAXX 12064 41883 11350 80000 10284 20260 39987 40007 60036 70262 8562/ 333 58012 70038 85709 88458==
41883,2023,06,12,09,00,AAXX 12094 41883 02456 40000 10326 20260 39960 49980 82510 333 58009 70038 82616 84459==
41883,2023,06,12,12,00,AAXX 12124 41883 02956 00000 10324 20240 39954 49974 333 10336 58011 70038==
41883,2023,06,12,15,00,AAXX 12154 41883 02430 71304 10290 20240 39977 49997 83520 333 58011 70038 83616 87459==
41883,2023,06,12,18,00,AAXX 12184 41883 02430 61303 10276 20250 39986 40006 82520 333 58010 70030 82616 86459==
41883,2023,06,12,21,00,AAXX 12214 41883 02430 61304 10270 20250 39978 49998 82520 333 58009 70030 82616 86459==
41883,2023,06,13,00,00,AAXX 13004 41883 02456 40904 10265 20250 39974 49994 81530 333 59009 70030 81616 84362==
41883,2023,06,13,03,00,AAXX 13034 41883 02450 80502 10286 20260 39984 40004 8562/ 333 20258 59005 70000 82710 84618 88458==
41883,2023,06,13,06,00,AAXX 13064 41883 02450 80502 10284 20240 39979 49999 8462/ 333 59008 70000 82710 83618 88458==
41883,2023,06,13,09,00,AAXX 13094 41883 02456 51303 10324 20250 39950 49970 83510 333 59010 70000 83616 86459==
41883,2023,06,13,12,00,AAXX 13124 41883 02950 50902 10314 20260 39938 49958 80001 333 10332 59016 70000 85080==
41883,2023,06,13,15,00,AAXX 13154 41883 02930 00000 10300 20270 39953 49973 333 59024 70000==
41883,2023,06,13,18,00,AAXX 13184 41883 02930 00902 10286 20270 39955 49975 333 59031 70000==
41883,2023,06,13,21,00,AAXX 13214 41883 21330 83102 10268 20250 39958 49978 76162 8572/ 333 59019 60015 70014 85709 88458==
41883,2023,06,14,00,00,AAXX 14004 41883 01350 82702 10264 20240 39960 49980 76162 8572/ 333 59014 70010 85709 88458==
41883,2023,06,14,06,00,AAXX 14064 41883 01456 60902 10340 20260 39963 49982 70162 84510 333 59016 70062 84616 86459==
41883,2023,06,14,09,00,AAXX 14094 41883 02456 80000 10368 20260 39949 49968 8441/ 333 59001 70062 82618 83828 88458==
41883,2023,06,14,12,00,AAXX 14124 41883 02450 40902 10324 20280 39942 49962 82520 333 10374 58004 70062 82618 84458==
41883,2023,06,14,15,00,AAXX 14154 41883 02930 01302 10292 20260 39956 49976 333 58003 70062==
41883,2023,06,14,18,00,AAXX 14184 41883 02330 81302 10284 20260 39965 49985 8552/ 333 58010 70062 85615 88458==
41883,2023,06,14,21,00,AAXX 14214 41883 02430 80000 10278 20260 39957 49977 8552/ 333 58004 70062 85615 88458==
41883,2023,06,15,00,00,AAXX 15004 41883 02340 81302 10296 20290 39960 49980 8562/ 333 58000 70042 85709 88458==
41883,2023,06,15,03,00,AAXX 15034 41883 02456 61306 10330 20280 39969 49989 82530 333 20278 59011 70000 82616 86362==
41883,2023,06,15,06,00,AAXX 15064 41883 02456 61804 10355 20270 39969 49988 82530 333 58006 70000 82616 86362==
41883,2023,06,15,09,00,AAXX 15094 41883 02456 71802 10365 20280 39945 49964 84520 333 59004 70000 84616 87459==
41883,2023,06,15,12,00,AAXX 15124 41883 02450 81304 10345 20290 39949 49968 8552/ 333 10371 58007 70000 85616 88459==
41883,2023,06,15,15,00,AAXX 15154 41883 02430 80904 10294 20240 39970 49990 8562/ 333 58014 70000 82710 84618 88458==
41883,2023,06,15,18,00,AAXX 15184 41883 02430 80904 10284 20240 39972 49992 8562/ 333 58007 70000 82710 84618 88458==
41883,2023,06,15,21,00,AAXX 15214 41883 02430 80905 10278 20240 39955 49975 8562/ 333 59002 70000 83710 84618 88458==
41886,2023,06,09,00,00,AAXX 09004 41886 02456 80000 10274 20250 39994 40014 8552/ 333 59002 70004 85616 88458==
41886,2023,06,09,03,00,AAXX 09034 41886 02456 80000 10290 20260 30002 40022 8452/ 333 20270 59009 70004 84616 88458==
41886,2023,06,09,06,00,AAXX 09064 41886 02456 70000 10320 20290 39995 40015 83570 333 59013 70004 83617 86460==
41886,2023,06,09,09,00,AAXX 09094 41886 41456 80000 10250 20230 39972 49992 72162 8532/ 333 59005 83617 88460 81930==
41886,2023,06,09,12,00,AAXX 09124 41886 21456 80000 10260 20240 39961 49981 70262 8532/ 333 10324 59010 60075 70074 83617 88460 81930==
41886,2023,06,09,15,00,AAXX 09154 41886 02450 80000 10256 20240 39979 49999 8442/ 333 59013 70070 83618 88460==
41886,2023,06,09,18,00,AAXX 09184 41886 02450 80000 10256 20250 39993 40013 8342/ 333 58001 70070 82618 88460==
41886,2023,06,09,21,00,AAXX 09214 41886 02450 60000 10256 20250 39982 40002 81570 333 59008 70070 81618 85460==
41886,2023,06,10,00,00,AAXX 10004 41886 01456 60000 10256 20250 39977 49997 70522 82570 333 59019 70070 82618 85460==
41886,2023,06,10,03,00,AAXX 10034 41886 01456 80000 10284 20240 39993 40013 70522 8352/ 333 20254 59009 70070 83618 88460==
41886,2023,06,10,06,00,AAXX 10064 41886 21456 70000 10320 20280 39981 40001 70162 84470 333 59014 69925 70072 82618 85460==
41886,2023,06,10,09,00,AAXX 10094 41886 02457 70000 10330 20270 39962 49982 83570 333 59010 70002 83618 86460==
41886,2023,06,10,12,00,AAXX 10124 41886 02456 71204 10285 20240 39966 49986 83570 333 10334 58005 70002 83618 86460==
41886,2023,06,10,15,00,AAXX 10154 41886 02456 80000 10280 20260 39988 40108 8352/ 333 58009 70002 83618 88460==
41886,2023,06,11,00,00,AAXX 11004 41886 02456 60000 10260 20250 39979 49999 83570 333 58007 70002 83618 85460==
41886,2023,06,11,03,00,AAXX 11034 41886 02456 60000 10280 20260 39990 40110 83570 333 20257 59003 70002 83618 85460==
41886,2023,06,11,06,00,AAXX 11064 41886 02457 60000 10300 20260 39985 40105 83570 333 58004 70000 83618 85460==
41886,2023,06,11,09,00,AAXX 11094 41886 02457 50902 10325 20280 39962 49982 84470 333 58000 70000 83618 84460==
41886,2023,06,11,12,00,AAXX 11124 41886 02456 50000 10300 20270 39957 49977 84470 333 10326 59009 70000 83618 84460==
41886,2023,06,11,15,00,AAXX 11154 41886 02456 80000 10282 20260 39981 40101 8352/ 333 59007 70000 83618 88460==
41886,2023,06,11,18,00,AAXX 11184 41886 NIL=
41886,2023,06,11,21,00,AAXX 11214 41886 02450 80000 10275 20250 39982 40102 8352/ 333 59007 70000 83616 88460==
41886,2023,06,12,00,00,AAXX 12004 41886 02456 80000 10270 20260 39984 40104 8352/ 333 58005 70000 83618 88460==
41886,2023,06,12,03,00,AAXX 12034 41886 02456 80000 10283 20260 30102 40122 8352/ 333 20263 58012 70000 83618 88460==
41886,2023,06,12,06,00,AAXX 12064 41886 02456 80000 10290 20260 39995 40115 8352/ 333 58010 70000 83618 88460==
41886,2023,06,12,09,00,AAXX 12093 41886 41456 60901 10300 20250 39971 49991 70162 83570 333 58009 83618 85460==
41886,2023,06,12,12,00,AAXX 12124 41886 01456 60000 10300 20270 39963 49983 70262 83570 333 10310 58006 70000 83618 85460==
41886,2023,06,12,15,00,AAXX 12154 41886 42456 60000 10270 20250 39983 40103 83570 333 58002 83618 85460==
41886,2023,06,12,18,00,AAXX 12184 41886 NIL=
41886,2023,06,12,21,00,AAXX 12214 41886 42450 80000 10262 20250 39985 40105 8352/ 333 58003 83616 88460==
41886,2023,06,13,00,00,AAXX 13004 41886 42456 80000 10260 20250 39988 40108 8352/ 333 58004 83618 88460==
41886,2023,06,13,03,00,AAXX 13034 41886 42456 80000 10300 20270 39995 40115 8352/ 333 20256 59006 83618 88460==
41886,2023,06,13,06,00,AAXX 13064 41886 NIL=
41886,2023,06,13,09,00,AAXX 13094 41886 02457 80602 10310 20250 39983 40003 8352/ 333 58012 70000 83618 88460==
41886,2023,06,13,12,00,AAXX 13124 41886 02457 40901 10300 20250 30068 40088 83410 333 10330 58005 70000 82618 84460==
41886,2023,06,13,15,00,AAXX 13154 41886 02450 60000 10275 20260 30090 40010 82510 333 58007 70000 82618 85460==
41886,2023,06,13,18,00,AAXX 13184 41886 02450 20000 10285 20280 39970 49990 82500 333 59017 70000 82618==
41886,2023,06,13,21,00,AAXX 13214 41886 02450 80000 10275 20260 39972 49992 8432/ 333 59013 70000 83616 88458 81930==
41886,2023,06,14,00,00,AAXX 14004 41886 21450 80000 10271 20260 39974 49994 70262 8432/ 333 59014 69915 70001 83616 88458 81930==
41886,2023,06,14,12,00,AAXX 14124 41886 02456 60902 10286 20280 39961 49981 82570 333 10304 59007 70271 82618 85460==
41886,2023,06,14,15,00,AAXX 14154 41886 02450 70903 10266 20260 39970 49990 83470 333 58008 70271 82618 85460==
41886,2023,06,14,18,00,AAXX 14184 41886 02450 70906 10260 20240 39979 49999 84470 333 58009 70271 83618 85460==
41886,2023,06,14,21,00,AAXX 14214 41886 02450 70903 10264 20240 39977 49997 84470 333 58005 70271 83618 86460==
41886,2023,06,15,00,00,AAXX 15004 41886 02356 80903 10266 20260 39976 49996 8532/ 333 58002 70270 84710 83617 88460 81930==
41886,2023,06,15,03,00,AAXX 15034 41886 02456 81601 10306 20290 39991 40011 8531/ 333 20260 58001 70000 84617 88460 81930==
41886,2023,06,15,06,00,AAXX 15064 41886 02457 71606 10332 20310 39993 40013 85310 333 58011 70000 84617 87459 81930==
41886,2023,06,15,09,00,AAXX 15094 41886 02457 81612 10325 20270 39970 49990 8552/ 333 58003 70000 85616 88458==
41886,2023,06,15,12,00,AAXX 15124 41886 02456 80000 10292 20260 39961 49981 8632/ 333 10335 58000 70000 85616 88458 81930==
41886,2023,06,15,15,00,AAXX 15154 41886 01350 83410 10240 20240 39994 40015 71796 8632/ 333 58024 70430 82710 85616 88458 81930==
41886,2023,06,15,18,00,AAXX 15183 41886 21450 81703 10250 20230 39988 40009 70296 85528 333 58009 60438 70430 85616 88458==
41886,2023,06,15,21,00,AAXX 15214 41886 02450 80000 10250 20230 39981 40002 8352/ 333 58004 70430 83616 88458==
41888,2023,06,09,00,00,AAXX 09004 41888 32440 83601 10270 20260 39995 40005 8432/ 333 56999 59010 70016 83618 81930 88460=
41888,2023,06,09,06,00,AAXX 09064 41888 32456 80903 10290 20260 30001 40011 8532/ 333 56999 59007 70016 84618 81930 88460=
41888,2023,06,09,12,00,AAXX 09124 41888 32456 82702 10294 20260 39960 49970 8432/ 333 10306 56999 59017 70000 84618 81930 88460=
41888,2023,06,09,18,00,AAXX 09184 41888 32456 82701 10258 20240 30000 40010 8532/ 333 56999 58006 70000 84618 81930 88460=
41888,2023,06,10,00,00,AAXX 10004 41888 32456 40901 10259 20250 39990 40000 83430 333 56990 59005 70000 82618 83363=
41888,2023,06,10,06,00,AAXX 10064 41888 32457 40902 10312 20260 39984 49994 83430 333 56990 59017 70000 82618 83362=
41888,2023,06,10,12,00,AAXX 10124 41888 11557 70902 10274 20260 39970 40080 69984 72122 84310 333 10343 56990 58010 70008 83618 81930 87460=
41888,2023,06,10,18,00,AAXX 10184 41888 11456 81202 10262 20250 39999 40009 69925 70262 8432/ 333 56999 59001 70010 84618 81930 88460=
41888,2023,06,11,00,00,AAXX 11004 41888 11457 80901 10257 20257 39990 40000 69934 72162 8532/ 333 56999 58000 70013 84616 81930 88460=
41888,2023,06,11,06,00,AAXX 11064 41888 32457 80902 10296 20260 39989 49999 8432/ 333 56999 58005 70013 83618 81930 88460=
41888,2023,06,11,12,00,AAXX 11124 41888 11457 71804 10293 20260 39966 49976 60014 70162 84310 333 10317 56990 59004 70016 83618 81930 87460=
41888,2023,06,11,18,00,AAXX 11184 41888 32456 51203 10267 20260 39995 40005 83470 333 56990 59004 70014 82618 84460=
41888,2023,06,12,00,00,AAXX 12004 41888 32456 80903 10265 20260 39997 40007 8432/ 333 56999 58007 70011 83618 81930 88460=
41888,2023,06,12,06,00,AAXX 12064 41888 11456 81203 10264 20250 30000 40010 60017 79562 8532/ 333 56399 58011 70022 81710 83616 81930 88460=
41888,2023,06,12,12,00,AAXX 12124 41888 11456 61302 10286 20240 39971 49981 69926 70196 80001 333 10295 56009 58005 70013 86080=
41888,2023,06,12,18,00,AAXX 12184 41888 32440 60000 10256 20250 30006 40016 84410 333 56990 58011 70013 83618 86460=
41888,2023,06,13,00,00,AAXX 13004 41888 32440 81301 10256 20250 39996 40006 8351/ 333 56999 59001 70013 83618 88460=
41888,2023,06,13,06,00,AAXX 13064 41888 32456 81302 10316 20250 39992 40002 8441/ 333 56999 59008 70002 83618 88460=
41888,2023,06,13,12,00,AAXX 13124 41888 32456 40502 10292 20240 39952 49962 82530 333 10324 56990 59019 70000 82618 84365=
41888,2023,06,13,18,00,AAXX 13184 41888 32940 41303 10284 20260 39972 49982 84030 333 56090 59034 70000 84365=
41888,2023,06,14,00,00,AAXX 14004 41888 11440 80901 10270 20260 39983 49993 69904 76122 8532/ 333 56999 59013 79999 84618 81930 88460=
41888,2023,06,14,12,00,AAXX 14124 41888 32450 80906 10270 20250 39968 49978 8252/ 333 10295 56399 59003 79999 82618 88460=
41888,2023,06,14,18,00,AAXX 14184 41888 11430 80906 10245 20230 39989 49999 60105 71396 8432/ 333 56999 58017 70097 83618 81930 88460=
41888,2023,06,15,00,00,AAXX 15004 41888 32440 80903 10260 20240 39985 49995 8352/ 333 56399 58002 70097 83618 88460=
41888,2023,06,15,06,00,AAXX 15064 41888 32456 60903 10308 20270 30002 40012 84410 333 56990 58012 70097 83618 86460=
41888,2023,06,15,18,00,AAXX 15183 41888 NIL=
41891,2023,06,09,00,00,AAXX 09004 41891 01430 82604 10280 20260 39970 40008 70522 8532/ 333 59012 70000 81710 83616 88460 81930==
41891,2023,06,09,03,00,AAXX 09034 41891 01320 82704 10278 20270 39980 40018 79522 8632/ 333 20276 59013 70030 86707 88458 81925==
41891,2023,06,09,06,00,AAXX 09064 41891 21445 71302 10330 20250 39970 40007 70596 84370 333 59009 60045 70040 84615 86460 81930==
41891,2023,06,09,09,00,AAXX 09094 41891 01445 72702 10330 20250 39942 49979 70522 84370 333 59009 70040 84615 86460 81930==
41891,2023,06,09,12,00,AAXX 09124 41891 01440 80502 10292 20240 39939 49977 70522 8532/ 333 10350 59010 70040 81710 84615 88459 81930==
41891,2023,06,09,15,00,AAXX 09154 41891 41320 81803 10280 20260 39968 40006 59009 70042 88458==
41891,2023,06,09,18,00,AAXX 09184 41891 21320 81203 10270 20260 39971 40009 59003 70124 88458 333 60087==
41891,2023,06,09,21,00,AAXX 09214 41891 01425 81003 10265 20260 39966 40004 72166 8532/ 333 58001 70446 82710 84615 88459 81930==
41891,2023,06,10,00,00,AAXX 10004 41891 21430 80903 10260 20250 39962 40000 70562 8532/ 333 59008 60328 70446 82710 84615 88459 81930==
41891,2023,06,10,03,00,AAXX 10034 41891 01440 60902 10304 20250 39970 40008 70522 83340 333 20255 59010 70416 83615 85365 81930==
41891,2023,06,10,06,00,AAXX 10064 41891 01445 61302 10340 20250 39956 49993 70522 83340 333 49014 70406 83615 85365 81930==
41891,2023,06,10,09,00,AAXX 10094 41891 01325 81803 10320 20270 39939 49976 76122 8632/ 333 59003 70416 86708 88458 81925==
41891,2023,06,10,12,00,AAXX 10124 41891 01435 82702 10270 20250 39951 49989 72996 8532/ 333 10356 58012 70428 82710 84615 88459 81930==
41891,2023,06,10,15,00,AAXX 10154 41891 01330 83604 10260 20250 39970 40008 76162 8632/ 333 58002 70446 85708 88458 81928==
41891,2023,06,10,18,00,AAXX 10184 41891 21330 80404 10255 20250 39970 40008 76062 8632/ 333 59001 60067 70446 85708 88458 81928==
41891,2023,06,10,21,00,AAXX 10214 41891 01330 80804 10255 20250 39951 49990 76166 8632/ 333 59015 70132 85708 88458 81928==
41891,2023,06,11,00,00,AAXX 11004 41891 21330 80804 10255 20250 39957 49995 76366 8632/ 333 59005 60259 70332 85708 88458 81928==
41891,2023,06,11,03,00,AAXX 11034 41891 01320 81802 10263 20250 39960 49998 76366 8632/ 333 20252 59010 70382 86707 88458 81930==
41891,2023,06,11,06,00,AAXX 11064 41891 21435 82708 10268 20250 39965 40003 72166 8532/ 333 58009 60159 70482 82710 84615 88459 81930==
41891,2023,06,11,09,00,AAXX 11094 41891 01440 81806 10295 20260 39944 49982 70522 8532/ 333 58005 70472 82710 84615 88459 81930==
41891,2023,06,11,12,00,AAXX 11124 41891 01320 80904 10259 20250 39949 49987 76162 8632/ 333 10300 59002 70008 86708 88458 81925==
41891,2023,06,11,15,00,AAXX 11154 41891 01430 80503 10255 20250 39972 40010 70562 8532/ 333 58002 70448 82710 84615 88459 81930==
41891,2023,06,11,18,00,AAXX 11184 41891 01430 80903 10255 20250 39973 40011 70562 8532/ 333 58003 70410 82710 84615 88459 81930==
41891,2023,06,11,21,00,AAXX 11214 41891 01430 80903 10253 20240 39971 40011 70566 8532/ 333 58020 70960 82710 84615 88459 81930==
41891,2023,06,12,00,00,AAXX 12004 41891 21430 80903 10253 20240 39976 40014 70562 8532/ 333 58019 60608 70760 82710 84615 88459 81930==
41891,2023,06,12,03,00,AAXX 12034 41891 01320 80502 10258 20250 39988 40026 76162 8632/ 333 20248 58028 70734 86708 88458 81925==
41891,2023,06,12,06,00,AAXX 12064 41891 01435 80904 10266 20250 39982 40020 72162 8532/ 333 58017 70636 82710 84615 88459 81930==
41891,2023,06,12,09,00,AAXX 12094 41891 01440 70902 10284 20240 39956 49994 70522 84370 333 58012 70636 84615 81930==
41891,2023,06,12,12,00,AAXX 12124 41891 01440 81303 10274 20250 39951 49989 70522 8532/ 333 10295 58002 70628 82710 84615 88459 81930==
41891,2023,06,12,15,00,AAXX 12154 41891 01430 30903 10267 20260 39969 40007 70521 82310 333 59003 70628 81710 83459 81930==
41891,2023,06,12,18,00,AAXX 12184 41891 01430 31504 10260 20250 39978 40016 70521 82310 333 58005 70626 81710 83365 81930==
41891,2023,06,12,21,00,AAXX 12214 41891 01430 81504 10258 20250 39973 40011 70522 82310 333 58002 70026 81616 84659 81930==
41891,2023,06,13,00,00,AAXX 13004 41891 01430 81404 10255 20250 39968 40006 70521 8537/ 333 59008 70026 84616 86365 81930==
41891,2023,06,13,03,00,AAXX 13034 41891 01440 72704 10302 20250 39982 40020 70522 84370 333 20250 59006 70002 84615 86460 81930==
41891,2023,06,13,06,00,AAXX 13064 41891 01445 60902 10323 20240 39968 40005 70522 83370 333 59014 70000 83615 85460 81930==
41891,2023,06,13,09,00,AAXX 13094 41891 01445 63602 10334 20230 39943 49980 70522 83340 333 59013 70000 83615 85365 81930==
41891,2023,06,13,12,00,AAXX 13124 41891 01440 81302 10293 20240 39932 49970 70522 8532/ 333 10342 59019 70000 81710 84615 88459 81930==
41891,2023,06,13,15,00,AAXX 13154 41891 01430 81503 10282 20240 39956 49994 70522 8532/ 333 59013 70000 82710 84615 88459 81930==
41891,2023,06,13,18,00,AAXX 13184 41891 01430 81204 10275 20260 39960 49998 70522 8532/ 333 59018 70000 82710 84615 88459 81930==
41891,2023,06,13,21,00,AAXX 13214 41891 01320 81003 10250 20230 39962 40000 76162 8632/ 333 59011 70010 86708 88458 81925==
41891,2023,06,14,00,00,AAXX 14004 41891 21430 81203 10234 20220 39964 40003 72996 8532/ 333 59004 60467 70470 82710 84615 88459 81930==
41891,2023,06,14,06,00,AAXX 14064 41891 21315 81804 10242 20240 39976 40015 79596 8632/ 333 58008 61519 71980 86707 88458 81925==
41891,2023,06,14,09,00,AAXX 14094 41891 01430 80904 10250 20240 39967 40005 72196 8532/ 333 58024 71994 82710 84615 88459 81930==
41891,2023,06,14,12,00,AAXX 14124 41891 11435 80902 10252 20230 39952 49990 60011 70596 8532/ 333 10260 58020 71994 81710 84616 88459 81930==
41891,2023,06,14,15,00,AAXX 14154 41891 01435 81804 10235 20230 39970 40008 79596 8632/ 333 58014 72164 85708 88458 81928==
41891,2023,06,14,18,00,AAXX 14184 41891 21330 80904 10237 20230 39978 40017 79596 8632/ 333 58018 60179 72166 85708 88458 81928==
41891,2023,06,14,21,00,AAXX 14214 41891 01330 80910 10227 20227 39976 40015 79599 8632/ 333 58014 72716 85708 88456 81926==
41891,2023,06,15,00,00,AAXX 15004 41891 21330 81604 10230 20220 39971 40004 76099 8632/ 333 58007 61029 72716 85708 88458 81928==
41891,2023,06,15,03,00,AAXX 15034 41891 01315 81804 10230 20230 39998 40037 79596 8632/ 333 20227 58027 72852 86707 88458 81925==
41891,2023,06,15,06,00,AAXX 15064 41891 21430 80505 10228 20220 30000 40039 71796 8532/ 333 58024 61029 72226 82710 84615 88459 81930==
41891,2023,06,15,09,00,AAXX 15094 41891 41445 60905 10252 20220 39975 40013 58008 72212 85460==
41891,2023,06,15,12,00,AAXX 15124 41891 01435 81305 10240 20210 39968 40006 70592 8532/ 333 10265 58016 72212 82710 84615 88459 81930==
41891,2023,06,15,15,00,AAXX 15154 41891 01430 80803 10245 20230 39980 40018 70522 8532/ 333 58010 72042 82710 84615 88459 81930==
41891,2023,06,15,18,00,AAXX 15184 41891 01320 81203 10245 20240 39983 40021 79596 8632/ 333 58005 70050 86708 88458 81925==
41891,2023,06,15,21,00,AAXX 15214 41891 01320 81003 10226 20220 39979 40018 79599 8632/ 333 58003 71744 86708 88458 81925==
41895,2023,06,09,00,00,AAXX 09004 41895 02450 61802 10294 20280 39973 49995 83520 333 59017 70000 83616 86458==
41895,2023,06,09,03,00,AAXX 09034 41895 02450 61302 10315 20290 39980 40001 83520 333 20290 59021 70000 83616 86458==
41895,2023,06,09,06,00,AAXX 09064 41895 02456 61302 10360 20290 39977 49999 83520 333 59021 70000 83616 86458==
41895,2023,06,09,09,00,AAXX 09094 41895 01456 80902 10302 20260 39955 49977 71722 8492/ 333 59012 70000 84615 88458 82928==
41895,2023,06,09,12,00,AAXX 09124 41895 01456 80902 10277 20240 39954 49976 70292 8452/ 333 10362 59003 70000 84616 88458==
41895,2023,06,09,15,00,AAXX 09154 41895 41456 81202 10261 20240 39972 49995 70295 8452/ 333 58001 84616 88458==
41895,2023,06,09,18,00,AAXX 09184 41895 21456 80000 10258 20240 39975 49997 70295 8452/ 333 59008 60007 84616 88458==
41895,2023,06,09,21,00,AAXX 09214 41895 42450 80903 10257 20250 39958 49981 8352/ 333 59015 83616 88458==
41895,2023,06,10,00,00,AAXX 10004 41895 42/50 40000 10259 20250 39968 49990 84030 333 59005 84362==
41895,2023,06,10,03,00,AAXX 10034 41895 42456 60000 10294 20240 39981 40003 83520 333 20255 58001 83616 85458==
41895,2023,06,10,06,00,AAXX 10064 41895 42/56 30000 10334 20240 39971 49993 83030 333 59009 83362==
41895,2023,06,10,09,00,AAXX 10094 41895 42456 50902 10352 20240 39957 49978 83520 333 58002 83616 85458==
41895,2023,06,10,12,00,AAXX 10124 41895 42456 50901 10340 20260 39947 49969 83520 333 10360 59007 83616 85458==
41895,2023,06,10,15,00,AAXX 10154 41895 02450 50000 10300 20260 39961 49983 83520 333 59011 70000 83616 85458==
41895,2023,06,10,18,00,AAXX 10184 41895 02450 51802 10296 20270 39974 49996 83520 333 59001 70000 83616 85458==
41895,2023,06,11,00,00,AAXX 11004 41895 02450 51801 10273 20250 39964 49986 83520 333 59004 70000 83616 85458==
41895,2023,06,11,03,00,AAXX 11034 41895 02457 41802 10323 20260 39969 49991 82501 333 20270 59013 70000 82616 83074==
41895,2023,06,11,06,00,AAXX 11064 41895 02457 51303 10360 20270 39965 49986 83510 333 59006 70000 83616 85458==
41895,2023,06,11,09,00,AAXX 11094 41895 02457 31303 10374 20270 39947 49969 83500 333 59010 70000 83616==
41895,2023,06,11,12,00,AAXX 11124 41895 02957 30902 10340 20280 39936 49958 80001 333 10376 59011 70000 83074==
41895,2023,06,11,15,00,AAXX 11154 41895 02450 30904 10315 20280 39956 49977 83500 333 59005 70000 83616==
41895,2023,06,11,18,00,AAXX 11184 41895 02450 50504 10295 20270 39970 49991 83520 333 59004 70000 83616 85458==
41895,2023,06,11,21,00,AAXX 11214 41895 02450 60901 10290 20270 39969 49991 83520 333 58000 70000 83616 86458==
41895,2023,06,12,00,00,AAXX 12003 41895 02450 80901 10280 20260 39974 49996 8452/ 333 58010 70000 84615 88458==
41895,2023,06,12,03,00,AAXX 12034 41895 01456 60503 10280 20260 39976 49998 70162 83510 333 20248 58007 70010 83616 86458==
41895,2023,06,12,06,00,AAXX 12064 41895 11456 41302 10340 20270 39978 49999 60016 70162 82510 333 58013 70010 82616 84458==
41895,2023,06,12,09,00,AAXX 12093 41895 02457 41301 10359 20280 30050 40072 82510 333 58003 70010 82616 84458==
41895,2023,06,12,12,00,AAXX 12124 41895 02457 21203 10334 20280 39946 49968 82500 333 10370 58010 70010 82626==
41895,2023,06,12,15,00,AAXX 12154 41895 02456 81503 10299 20250 39970 49992 8452/ 333 58014 70010 83616 88458==
41895,2023,06,12,18,00,AAXX 12184 41895 02456 41302 10279 20260 39978 40000 82520 333 58008 70010 82616 84458==
41895,2023,06,12,21,00,AAXX 12214 41895 02456 81203 10273 20250 39961 49983 8352/ 333 59008 70010 83616 88458==
41895,2023,06,13,00,00,AAXX 13004 41895 02456 81503 10275 20260 39965 49987 8352/ 333 59009 70010 83616 88458==
41895,2023,06,13,03,00,AAXX 13034 41895 02457 41303 10320 20270 39969 49991 82501 333 20263 59007 70000 82616 83074==
41895,2023,06,13,06,00,AAXX 13064 41895 02457 61303 10356 20280 39966 49987 83510 333 59012 70000 83616 86458==
41895,2023,06,13,09,00,AAXX 13094 41895 02457 31304 10389 20290 39937 49958 83500 333 59013 70000 83616==
41895,2023,06,13,12,00,AAXX 13124 41895 02957 01303 10360 20280 39921 49942 333 10390 59025 70000==
41895,2023,06,13,15,00,AAXX 13154 41895 02450 20902 10325 20290 39950 49972 82500 333 59020 70000 82617==
41895,2023,06,13,18,00,AAXX 13184 41895 02450 53104 10295 20260 39981 40003 83520 333 58003 70000 83616 85458==
41895,2023,06,13,21,00,AAXX 13214 41895 02450 61301 10290 20260 39960 49982 83520 333 59001 70000 83616 86458==
41895,2023,06,14,00,00,AAXX 14004 41895 02450 81303 10285 20270 39955 49977 8452/ 333 59010 70000 84615 88458==
41895,2023,06,14,12,00,AAXX 14124 41895 02456 52302 10363 20240 39931 49952 83520 333 10407 58010 70000 83616 85458==
41895,2023,06,14,15,00,AAXX 14154 41895 02450 51802 10315 20230 39942 49964 83520 333 59008 70000 83616 85458==
41895,2023,06,14,21,00,AAXX 14214 41895 02450 51803 10298 20280 39951 49972 83520 333 59009 70000 83616 85458==
41895,2023,06,15,00,00,AAXX 15004 41895 02450 51802 10295 20290 39949 49970 83520 333 59006 70000 83616 85458==
41895,2023,06,15,03,00,AAXX 15034 41895 02456 61803 10337 20260 39967 49988 83510 333 20291 59003 70000 83616 86458==
41895,2023,06,15,06,00,AAXX 15064 41895 02/56 61804 10382 20270 39966 49988 83031 333 58009 70000 83362 85074==
41895,2023,06,15,09,00,AAXX 15094 41895 02456 61703 10386 20290 39944 49965 83520 333 58004 70000 83616 86458==
41895,2023,06,15,12,00,AAXX 15124 41895 02456 61802 10358 20290 39932 49953 83520 333 10405 58001 70000 83616 86456==
41895,2023,06,15,15,00,AAXX 15154 41895 42450 61803 10330 20290 39963 49985 8352/ 333 58021 83615 86456==
41895,2023,06,15,18,00,AAXX 15183 41895 02450 81802 10310 20280 39957 49979 8452/ 333 58006 70000 84615 88456==
41895,2023,06,15,21,00,AAXX 15214 41895 02450 81802 10300 20280 39950 49971 8452/ 333 59001 70000 84615 88456==
41897,2023,06,09,00,00,AAXX 09004 41897 31450 60000 10285 20280 39998 40011 70522 83530 333 56990 59005 70000 83618 86361=
41897,2023,06,09,06,00,AAXX 09064 41897 32456 53603 10338 20260 39992 40005 82510 333 56990 59014 70000 82618 85458=
41897,2023,06,09,12,00,AAXX 09124 41897 32450 71802 10265 20230 39967 49980 83510 333 10388 56990 59002 70000 82618 87458=
41897,2023,06,09,18,00,AAXX 09184 41897 32440 60902 10255 20240 39986 40000 82510 333 56990 59016 70000 82618 86458=
41897,2023,06,10,00,00,AAXX 10004 41897 32440 50902 10250 20240 39977 49990 82510 333 56990 59021 70000 82618 85458=
41897,2023,06,10,06,00,AAXX 10064 41897 32456 30902 10320 20250 39981 49993 81510 333 56990 59011 70000 81618 83458=
41897,2023,06,10,12,00,AAXX 10124 41897 32940 20902 10320 20220 39959 49972 81300 333 10345 56900 59008 70000 82362=
41897,2023,06,10,18,00,AAXX 10184 41897 32940 01802 10275 20260 39990 40003 333 58003 70000=
41897,2023,06,11,00,00,AAXX 11004 41897 31450 30902 10265 20250 39978 49991 70500 81530 333 56990 58001 70000 81618 83362=
41897,2023,06,11,06,00,AAXX 11064 41897 31450 61802 10325 20260 39978 49991 70500 82510 333 56990 59003 70000 82618 86458=
41897,2023,06,11,12,00,AAXX 11124 41897 31450 31302 10325 20270 39949 49962 70500 81530 333 10348 56990 59020 70000 81618 83362=
41897,2023,06,11,18,00,AAXX 11184 41897 NIL=
41897,2023,06,12,00,00,AAXX 12004 41897 31450 70902 10265 20260 39981 49994 70500 82510 333 56990 58000 70150 82617 87458=
41897,2023,06,12,06,00,AAXX 12064 41897 11450 71301 10255 20240 39994 40007 60315 70596 82510 333 56990 58016 70460 82617 87458=
41897,2023,06,12,12,00,AAXX 12124 41897 31950 00000 10305 20260 39960 49973 70500 333 10315 58011 70460=
41897,2023,06,12,18,00,AAXX 12184 41897 31940 01301 10265 20250 39993 40006 70500 333 58003 70310=
41897,2023,06,13,00,00,AAXX 13004 41897 31440 71302 10260 20240 39981 49994 70500 82510 333 56990 58000 70310 82617 87458=
41897,2023,06,13,06,00,AAXX 13064 41897 31950 50902 10320 20270 39987 49994 70500 82510 333 56990 59014 70000 82618 85458=
41897,2023,06,13,12,00,AAXX 13124 41897 31450 50902 10315 20280 39937 49949 70500 82510 333 10345 56990 59023 70000 82618 85458=
41897,2023,06,14,00,00,AAXX 14004 41897 11440 71802 10270 20250 39964 49977 69925 70562 82510 333 56990 59017 70002 82617 87458=
41897,2023,06,14,12,00,AAXX 14124 41897 31950 01802 10350 20270 39946 49959 70500 333 10380 58009 70002=
41897,2023,06,14,18,00,AAXX 14184 41897 31940 01804 10300 20260 39974 49987 70500 333 58008 70002=
41897,2023,06,15,00,00,AAXX 15004 41897 31940 01804 10295 20290 39963 49976 70500 333 58001 70000=
41897,2023,06,15,06,00,AAXX 15064 41897 31456 31803 10355 20280 39982 49995 70500 81530 333 56990 58015 70000 81618 83362=
41897,2023,06,15,12,00,AAXX 15124 41897 11456 51803 10334 20280 39977 49990 60014 70162 82530 333 10375 56990 58031 70010 82618 85362=
41897,2023,06,15,18,00,AAXX 15183 41897 32450 51803 10304 20270 39979 49992 82530 333 56990 58005 70010 82618 86362=
41902,2023,06,09,00,00,AAXX 09004 41902 32440 81802 10270 20260 39991 40008 70522 8562/ 333 56499 59011 70287 82712 84616 88458=
41902,2023,06,09,06,00,AAXX 09064 41902 11450 80902 10280 20250 39999 40007 60043 70262 8462/ 333 56499 59004 70328 82712 83616 88458=
41902,2023,06,09,12,00,AAXX 09124 41902 32450 80000 10265 20250 39975 49984 8442/ 333 10286 56999 59007 70045 83616 88458=
41902,2023,06,09,18,00,AAXX 09184 41902 32440 60000 10255 20250 39996 40004 83420 333 56990 59005 70041 82616 86458=
41902,2023,06,10,00,00,AAXX 10004 41902 31440 60000 10259 20259 39984 49992 70522 83430 333 56990 59007 70041 82616 86362=
41902,2023,06,10,06,00,AAXX 10064 41902 32456 70000 10340 20250 39984 49993 84620 333 56990 59015 70000 81712 83616 86458=
41902,2023,06,10,12,00,AAXX 10124 41902 11440 83601 10270 20250 39984 49992 60027 76162 8572/ 333 10340 56499 58009 70020 83710 84615 88458=
41902,2023,06,11,00,00,AAXX 11004 41902 11440 83601 10258 20255 39992 40000 60454 76162 8572/ 333 56499 58008 70065 83710 84615 88458=
41902,2023,06,11,06,00,AAXX 11064 41902 32450 81402 10303 20250 39988 49996 83420 333 56990 58004 70065 82616 85458=
41902,2023,06,11,12,00,AAXX 11124 41902 NIL=
41902,2023,06,11,18,00,AAXX 11184 41902 32440 53601 10262 20250 39996 40004 83420 333 56990 59001 70045 82616 85458=
41902,2023,06,12,00,00,AAXX 12004 41902 31440 61001 10260 20260 39997 40006 70522 83430 333 56990 58005 70000 82616 86362=
41902,2023,06,12,06,00,AAXX 12064 41902 11440 81801 10272 20260 39995 40005 60204 79562 8532/ 333 56499 58009 70200 83710 84615 81925 88458=
41902,2023,06,12,12,00,AAXX 12124 41902 11440 62101 10267 20250 39979 49988 60015 70122 83430 333 10300 56990 58004 70210 82616 86362=
41902,2023,06,12,18,00,AAXX 12184 41902 NIL=
41902,2023,06,13,00,00,AAXX 13004 41902 NIL=
41902,2023,06,13,06,00,AAXX 13064 41902 NIL=
41902,2023,06,13,12,00,AAXX 13124 41902 32450 61802 10312 20260 39966 49974 83430 333 10335 56990 59013 70000 82614=
41902,2023,06,14,00,00,AAXX 14004 41902 31430 81903 10278 20270 39982 49990 70522 8562/ 333 56999 59017 70000 83710 84615 88458=
41902,2023,06,14,12,00,AAXX 14124 41902 11440 60903 10276 20260 39972 49981 69946 70296 82530 333 10338 56990 59006 70174 82614 85362=
41902,2023,06,15,00,00,AAXX 15004 41902 32430 81804 10288 20270 39987 49995 8342/ 333 56499 58005 70174 82614 88459=
41902,2023,06,15,06,00,AAXX 15064 41902 32450 61805 10325 20250 39999 40008 82530 333 56490 58012 70004 82614 85362=
41902,2023,06,15,12,00,AAXX 15124 41902 32440 81804 10307 20280 39979 49988 8342/ 333 10330 56499 58007 70000 82614 88459=
41902,2023,06,15,18,00,AAXX 15183 41902 NIL=
41907,2023,06,09,00,00,AAXX 09004 41907 02440 81802 10294 20280 39978 49992 8552/ 333 59010 70000 85615 88458==
41907,2023,06,09,03,00,AAXX 09034 41907 02450 82704 10322 20270 39986 40000 8552/ 333 20290 59019 70000 85615 88458==
41907,2023,06,09,04,00,AAXX 09044 41907 02450 82704 10322 20270 39986 40000 8552/ 333 20290 59019 70000 85615 88458==
41907,2023,06,09,06,00,AAXX 09064 41907 02450 70000 10345 20270 39983 49998 85510 333 59017 70000 85615 86458==
41907,2023,06,09,09,00,AAXX 09094 41907 02450 81802 10295 20240 39965 49980 8552/ 333 59005 70000 85615 88458==
41907,2023,06,09,12,00,AAXX 09124 41907 01350 81802 10270 20240 39956 49971 72192 8662/ 333 10360 59007 70000 83709 85615 88458==
41907,2023,06,09,15,00,AAXX 09154 41907 42340 81302 10260 20230 39972 49987 8662/ 333 59005 82709 84615 88458==
41907,2023,06,09,18,00,AAXX 09184 41907 42340 80000 10256 20240 39978 49993 8662/ 333 59007 83709 85615 88458==
41907,2023,06,09,21,00,AAXX 09214 41907 42440 80000 10252 20240 39969 49984 8552/ 333 59006 85615 88458==
41907,2023,06,10,00,00,AAXX 10004 41907 42440 80000 10255 20250 39967 49981 8552/ 333 59011 85615 88458==
41907,2023,06,10,03,00,AAXX 10034 41907 42450 81302 10295 20250 39979 49994 8552/ 333 20250 59007 85615 88458==
41907,2023,06,10,06,00,AAXX 10064 41907 42456 31302 10340 20230 39973 49987 83500 333 59010 83615==
41907,2023,06,10,09,00,AAXX 10094 41907 42456 71802 10350 20230 39957 49972 85510 333 59008 85615 86458==
41907,2023,06,10,12,00,AAXX 10124 41907 02450 81802 10330 20250 39950 49965 8552/ 333 10355 59006 70000 85615 88458==
41907,2023,06,10,15,00,AAXX 10154 41907 02440 81802 10300 20260 39970 49984 8552/ 333 59002 70000 85615 88458==
41907,2023,06,10,18,00,AAXX 10184 41907 02440 80000 10285 20270 39980 49994 8552/ 333 58002 70000 85615 88458==
41907,2023,06,10,21,00,AAXX 10214 41907 02440 80000 10270 20250 30076 49991 8552/ 333 58007 70000 85615 88458==
41907,2023,06,11,00,00,AAXX 11004 41907 02940 00000 10268 20260 39974 49989 8662/ 333 58007 70000 81709 85615 88458==
41907,2023,06,11,03,00,AAXX 11034 41907 02456 41802 10315 20270 39974 49989 82530 333 20262 59005 70000 82615 83362==
41907,2023,06,11,06,00,AAXX 11064 41907 02456 71302 10350 20260 39968 49982 85510 333 59005 70000 85615 85458==
41907,2023,06,11,09,00,AAXX 11094 41907 02456 71302 10360 20250 39946 49960 85510 333 59011 70000 85615 85458==
41907,2023,06,11,12,00,AAXX 11124 41907 02956 01802 10337 20280 39939 49953 333 10362 59011 70000==
41907,2023,06,11,15,00,AAXX 11154 41907 02440 31302 10300 20270 39963 49977 83500 333 59007 70000 83615==
41907,2023,06,11,18,00,AAXX 11184 41907 02440 70000 10288 20270 39979 49994 85510 333 59001 70000 85615 87458==
41907,2023,06,11,21,00,AAXX 11214 41907 02340 80000 10275 20270 39972 49987 8562/ 333 59004 70000 82709 85615 88458==
41907,2023,06,12,00,00,AAXX 12004 41907 02440 71302 10270 20260 39966 49981 86510 333 59008 70000 86615 87458==
41907,2023,06,12,03,00,AAXX 12034 41907 01340 81303 10272 20250 39974 49989 72122 8672/ 333 20260 58000 70022 83709 85615 88458==
41907,2023,06,12,06,00,AAXX 12064 41907 21450 71303 10320 20270 39979 49994 70162 85510 333 58011 60025 70022 85615 86458==
41907,2023,06,12,09,00,AAXX 12094 41907 02456 31302 10355 20270 39953 49968 83500 333 58007 70022 83615==
41907,2023,06,12,12,00,AAXX 12124 41907 02956 01303 10320 20260 39949 49964 333 10358 58010 70022==
41907,2023,06,12,15,00,AAXX 12154 41907 02440 71802 10290 20240 39965 49990 85510 333 58002 70022 85615 84758==
41907,2023,06,12,18,00,AAXX 12184 41907 02440 71302 10275 20250 39987 40002 85510 333 58008 70022 85615 87458==
41907,2023,06,12,21,00,AAXX 12214 41907 02440 71302 10270 20250 39975 49990 85510 333 58003 70000 85615 87458==
41907,2023,06,13,00,00,AAXX 13004 41907 02340 81302 10265 20250 39964 49978 8662/ 333 59002 70000 82709 85615 88458==
41907,2023,06,13,03,00,AAXX 13034 41907 02445 61302 10317 20270 39976 49991 84510 333 20258 58002 70000 84615 85458==
41907,2023,06,13,06,00,AAXX 13064 41907 02450 61302 10342 20270 39968 49982 85510 333 59011 70000 85615 88458==
41907,2023,06,13,09,00,AAXX 13094 41907 02456 41803 10370 20260 39941 49955 84500 333 59012 70000 84615==
41907,2023,06,13,12,00,AAXX 13124 41907 02956 01303 10347 20280 39929 49943 333 10378 59020 70000==
41907,2023,06,13,15,00,AAXX 13154 41907 02940 01303 10312 20260 39956 49970 333 59009 70000==
41907,2023,06,13,18,00,AAXX 13184 41907 02940 01802 10285 20240 39961 49976 333 59016 70000==
41907,2023,06,13,21,00,AAXX 13214 41907 02340 81302 10278 20240 39957 49972 8562/ 333 59018 70000 82709 84615 88458==
41907,2023,06,14,00,00,AAXX 14004 41907 02340 81802 10272 20240 39953 49968 8662/ 333 59011 70000 83709 84615 88458==
41907,2023,06,14,06,00,AAXX 14064 41907 02450 61802 10346 20260 39959 49973 85510 333 59009 70000 85615 86458==
41907,2023,06,14,09,00,AAXX 14094 41907 02456 21802 10393 20250 39943 49958 82500 333 58002 70000 82615==
41907,2023,06,14,12,00,AAXX 14124 41907 02456 41302 10370 20260 39940 49955 84500 333 10398 58011 70000 84616==
41907,2023,06,14,15,00,AAXX 14154 41907 02940 01802 10311 20210 39948 49963 333 59008 70000==
41907,2023,06,14,18,00,AAXX 14184 41907 02440 71302 10305 20250 39964 49978 85510 333 58003 70000 85615 87458==
41907,2023,06,14,21,00,AAXX 14214 41907 02440 81802 10302 20270 39956 49970 8552/ 333 59001 70000 85615 88458==
41907,2023,06,15,00,00,AAXX 15004 41907 02440 81803 10302 20280 39956 49970 8552/ 333 58003 70000 85615 88458==
41907,2023,06,15,03,00,AAXX 15034 41907 02445 81802 10327 20280 39970 49984 85510 333 20298 58103 70000 85615 88458==
41907,2023,06,15,06,00,AAXX 15064 41907 02450 42304 10360 20280 39973 49987 84500 333 58014 70000 84615==
41907,2023,06,15,09,00,AAXX 15094 41907 02456 42304 10382 20280 39957 49971 84500 333 58014 70000 84615==
41907,2023,06,15,12,00,AAXX 15124 41907 02550 81804 10350 20270 39938 49952 8662/ 333 10385 59002 70000 82709 85615 88458==
41907,2023,06,15,15,00,AAXX 15154 41907 02340 82303 10323 20270 39951 49966 8662/ 333 58003 70000 81709 85615 88458==
41907,2023,06,15,18,00,AAXX 15184 41907 02340 82303 10315 20280 39965 49979 8662/ 333 58001 70000 82709 85615 88458==
41907,2023,06,15,21,00,AAXX 15214 41907 02340 82303 10305 20280 39953 49968 8662/ 333 59003 70000 82709 85615 88458==
41909,2023,06,09,00,00,AAXX 09004 41909 02450 80000 10283 20260 39987 49998 8452/ 333 59011 70000 84615 88460==
41909,2023,06,09,03,00,AAXX 09034 41909 02450 80000 10310 20270 30000 40011 8352/ 333 20268 59018 70000 83615 88460==
41909,2023,06,09,06,00,AAXX 09064 41909 01350 83601 10240 20260 39988 40000 79595 8592/ 333 59023 70020 84708 81614 88458 81930==
41909,2023,06,09,09,00,AAXX 09094 41909 01340 81801 10280 20260 39980 49991 79596 8692/ 333 59008 70810 83708 83614 88458 81930==
41909,2023,06,09,12,00,AAXX 09124 41909 21350 81301 10260 20230 39968 49979 70296 8562/ 333 10342 59008 60828 70838 83708 83614 88459==
41909,2023,06,09,15,00,AAXX 09154 41909 02440 80000 10255 20240 39992 40003 8552/ 333 58002 70838 85615 88460==
41909,2023,06,09,18,00,AAXX 09184 41909 02440 80000 10253 20230 39990 40001 8552/ 333 59010 70838 85615 88460==
41909,2023,06,09,21,00,AAXX 09214 41909 01440 80000 10253 20230 39986 49997 70522 8552/ 333 59010 70838 85615 88460==
41909,2023,06,10,00,00,AAXX 10004 41909 01445 80000 10252 20240 39976 49987 70522 8552/ 333 59010 70838 85614 88460==
41909,2023,06,10,03,00,AAXX 10034 41909 01450 80000 10280 20250 39991 40002 70522 8552/ 333 20231 59009 70838 85614 88460==
41909,2023,06,10,06,00,AAXX 10064 41909 02456 70000 10310 20260 39982 49993 84370 333 59006 70818 84615 86460 81930==
41909,2023,06,10,09,00,AAXX 10094 41909 02450 80000 10335 20240 30069 49981 8452/ 333 59022 70028 84615 88460==
41909,2023,06,10,12,00,AAXX 10124 41909 21450 80000 10290 20260 39966 49977 70262 8552/ 333 10336 59002 60035 70030 85614 88458==
41909,2023,06,10,15,00,AAXX 10154 41909 02330 80000 10280 20260 39982 49993 8562/ 333 59010 70030 82708 85614 88458==
41909,2023,06,10,18,00,AAXX 10184 41909 02430 40000 10270 20250 39993 40004 82530 333 58003 70030 82618 84360==
41909,2023,06,11,00,00,AAXX 11004 41909 02450 80000 10265 20240 39980 49991 8552/ 333 58004 70030 85615 88460==
41909,2023,06,11,03,00,AAXX 11034 41909 02450 80000 10318 20270 30018 40029 8552/ 333 20290 58002 70000 85614 88458==
41909,2023,06,11,06,00,AAXX 11064 41909 02456 80000 10340 20270 30011 40022 8552/ 333 58000 70000 85614 88458==
41909,2023,06,11,09,00,AAXX 11094 41909 02456 81402 10333 20270 30062 40074 8552/ 333 59007 70030 85615 88458==
41909,2023,06,11,12,00,AAXX 11124 41909 NIL=
41909,2023,06,11,15,00,AAXX 11153 41909 02456 60000 10289 20260 30007 40014 333 58004 70000 82615 86458==
41909,2023,06,11,18,00,AAXX 11184 41909 02450 60000 10279 20260 39992 40003 82510 333 59001 70000 82615 88458==
41909,2023,06,11,21,00,AAXX 11214 41909 02440 60000 10270 20250 39978 49992 82510 333 59001 70000 82615 86458==
41909,2023,06,12,00,00,AAXX 12004 41909 02450 80000 10268 20250 39978 49989 8552/ 333 59001 70000 85614 88458==
41909,2023,06,12,03,00,AAXX 12034 41909 02450 80000 10289 20260 30000 40011 8552/ 333 20255 58010 70000 85614 88458==
41909,2023,06,12,06,00,AAXX 12064 41909 11450 80000 10260 20240 39990 40001 60082 70296 8552/ 333 58007 70080 85614 88458==
41909,2023,06,12,09,00,AAXX 12093 41909 02456 71801 10302 20240 39970 49981 84510 333 58008 70080 84615 87458==
41909,2023,06,12,12,00,AAXX 12124 41909 02456 31302 10298 20240 39963 49974 82530 333 10305 58008 70080 82615==
41909,2023,06,12,15,00,AAXX 12154 41909 02/40 21302 10270 20240 39990 40001 82030 333 58016 70080 82360==
41909,2023,06,12,18,00,AAXX 12184 41909 02440 31402 10280 20240 30018 40021 83500 333 58019 70000 83618==
41909,2023,06,12,21,00,AAXX 12214 41909 02/40 30902 10260 20230 39987 49998 83030 333 58009 70080 83360==
41909,2023,06,13,00,00,AAXX 13004 41909 02350 80902 10259 20240 39989 40000 8562/ 333 58011 70080 84708 88458==
41909,2023,06,13,03,00,AAXX 13034 41909 02450 81402 10290 20250 39994 40005 8552/ 333 20236 59006 70080 84614 88458==
41909,2023,06,13,06,00,AAXX 13064 41909 02456 81402 10329 20260 39985 49996 8552/ 333 59015 70000 84614 88458==
41909,2023,06,13,09,00,AAXX 13093 41909 02456 51301 10353 20260 39956 49968 82330 333 59014 70000 82614 83362 81930==
41909,2023,06,13,12,00,AAXX 13124 41909 02956 00000 10330 20250 39940 49952 333 10355 59023 70000==
41909,2023,06,13,15,00,AAXX 13154 41909 02940 00000 10299 20280 39969 49980 333 59021 70000==
41909,2023,06,13,18,00,AAXX 13184 41909 02940 01802 10282 20250 39969 49980 333 59025 70000==
41909,2023,06,13,21,00,AAXX 13214 41909 02340 81804 10274 20250 39966 49977 8562/ 333 59021 70000 84708 88458==
41909,2023,06,14,00,00,AAXX 14004 41909 21356 81804 10260 20240 39971 49982 72162 8562/ 333 59018 60137 70130 84708 88458==
41909,2023,06,14,12,00,AAXX 14124 41909 02956 01801 10356 20270 39951 49963 333 10374 58011 70130==
41909,2023,06,14,15,00,AAXX 14154 41909 02940 01801 10324 20270 39963 49975 333 59006 70130==
41909,2023,06,14,18,00,AAXX 14184 41909 02940 01801 10304 20270 39967 49978 333 59002 70130==
41909,2023,06,14,21,00,AAXX 14214 41909 02330 81801 10300 20270 39969 49980 8552/ 333 58003 70130 85614 88458==
41909,2023,06,15,00,00,AAXX 15004 41909 02350 81802 10300 20270 39974 49985 8552/ 333 58003 70000 85614 88458==
41909,2023,06,15,03,00,AAXX 15034 41909 02450 81402 10324 20270 39984 49995 8552/ 333 20285 58001 70000 85614 88458==
41909,2023,06,15,06,00,AAXX 15064 41909 02450 81402 10324 20270 39984 49995 8552/ 333 20285 58001 70000 85614 88458==
41909,2023,06,15,09,00,AAXX 15094 41909 02456 81802 10344 20270 39973 49985 8552/ 333 58018 70000 85614 88458==
41909,2023,06,15,12,00,AAXX 15124 41909 02456 81802 10330 20280 39972 49983 8552/ 333 10346 58021 70000 85614 88458==
41909,2023,06,15,15,00,AAXX 15154 41909 02340 81802 10312 20270 39985 49996 8552/ 333 58022 70000 85614 88458==
41909,2023,06,15,18,00,AAXX 15183 41909 01340 80000 10300 20280 39990 40001 72162 8552/ 333 58023 70010 85614 88458==
41909,2023,06,15,21,00,AAXX 15214 41909 02340 80000 10293 20270 39984 49995 8552/ 333 58015 70010 85614 88458==
41915,2023,06,09,00,00,AAXX 09004 41915 21450 80000 10264 20250 39993 40018 76362 8672/ 333 59001 60187 70200 83710 83616 88458==
41915,2023,06,09,03,00,AAXX 09034 41915 01456 80000 10264 20250 39998 40023 76166 8772/ 333 20254 59006 70540 82710 86616 88458==
41915,2023,06,09,06,00,AAXX 09064 41915 21456 63402 10315 20270 39986 40011 70162 84430 333 59001 60408 70597 83616 84362==
41915,2023,06,09,09,00,AAXX 09094 41915 02456 63602 10331 20260 39955 49979 84430 333 59016 70597 83616 84362==
41915,2023,06,09,12,00,AAXX 09124 41915 21456 80000 10276 20260 39957 49982 70362 8772/ 333 10335 20445 59009 60057 70629 82710 86616 88458==
41915,2023,06,09,15,00,AAXX 09154 41915 02450 80000 10265 20260 39978 40003 8772/ 333 59012 70629 82710 86616 88458==
41915,2023,06,09,18,00,AAXX 09184 41915 02450 80000 10263 20250 39984 40001 8772/ 333 59005 70629 82710 86616 88458==
41915,2023,06,09,21,00,AAXX 09214 41915 02450 70000 10259 20240 39980 40005 86420 333 58007 70629 82710 84616 87458==
41915,2023,06,10,00,00,AAXX 10004 41915 02456 50000 10266 20260 39972 49997 83540 333 58004 70449 82616 84362==
41915,2023,06,10,03,00,AAXX 10034 41915 02456 73601 10312 20250 39984 40008 85430 333 20258 59014 70109 84616 85362==
41915,2023,06,10,06,00,AAXX 10064 41915 02456 70000 10316 20250 39973 49997 85470 333 59013 70052 84616 84458==
41915,2023,06,10,09,00,AAXX 10094 41915 01456 82802 10272 20260 39970 49995 76362 8672/ 333 58015 70122 83710 83616 88458==
41915,2023,06,10,12,00,AAXX 10124 41915 21456 83001 10260 20260 39963 49988 76366 8672/ 333 10335 58006 60179 70170 83710 84616 88458==
41915,2023,06,10,15,00,AAXX 10154 41915 01450 80000 10255 20260 39979 40005 72166 8772/ 333 58001 70220 82710 86616 88458==
41915,2023,06,10,18,00,AAXX 10184 41915 21450 80000 10254 20250 39987 40012 70262 8772/ 333 58003 60059 70220 82710 86616 88458==
41915,2023,06,11,00,00,AAXX 11004 41915 21456 83601 10256 20250 39969 49995 76166 8672/ 333 59003 60059 70270 83710 83616 88458==
41915,2023,06,11,03,00,AAXX 11034 41915 01450 82302 10264 20250 39986 40011 72166 8662/ 333 20252 58002 70342 83710 85616 88457==
41915,2023,06,11,06,00,AAXX 11064 41915 01456 80000 10275 20260 39983 40008 70262 8662/ 333 58010 70344 82710 85616 88458==
41915,2023,06,11,09,00,AAXX 11094 41915 02456 81302 10306 20250 39963 49986 8561/ 333 59007 70274 82712 84615 88458==
41915,2023,06,11,12,00,AAXX 11124 41915 02456 81302 10286 20240 39962 49986 8662/ 333 10310 59002 70174 82712 85615 88458==
41915,2023,06,11,15,00,AAXX 11154 41915 02450 80902 10266 20250 30082 40007 8662/ 333 58003 70124 83712 85615 88458==
41915,2023,06,11,18,00,AAXX 11184 41915 NIL=
41915,2023,06,11,21,00,AAXX 11214 41915 02450 80000 10263 20260 39977 40002 8662/ 333 58005 70094 82712 85615 88458==
41915,2023,06,12,00,00,AAXX 12004 41915 02450 81301 10262 20250 39985 40010 8662/ 333 58016 70074 83710 85615 88458==
41915,2023,06,12,03,00,AAXX 12034 41915 02456 70000 10293 20250 39998 40023 85410 333 20260 58012 70002 84616 86458==
41915,2023,06,12,06,00,AAXX 12064 41915 02456 80000 10310 20260 39988 40013 8642/ 333 58005 70000 84616 88458==
41915,2023,06,12,09,00,AAXX 12094 41915 01440 70901 10250 20240 39965 49990 79596 86920 333 58002 70130 83710 84615 87458 81925==
41915,2023,06,12,12,00,AAXX 12124 41915 21450 71302 10255 20250 39964 49989 70296 85610 333 10315 58003 60157 70150 81712 84615 87458==
41915,2023,06,12,15,00,AAXX 12154 41915 01450 40000 10250 20240 39985 40010 70196 83510 333 58003 70150 83616 84458==
41915,2023,06,12,18,00,AAXX 12184 41915 02450 40000 10245 20250 39993 40018 83510 333 58013 70150 83616 88458==
41915,2023,06,12,21,00,AAXX 12214 41915 02450 60000 10244 20220 39988 40015 84520 333 58011 70150 84616 86458==
41915,2023,06,13,00,00,AAXX 13004 41915 02456 70000 10248 20250 39974 49999 85520 333 58014 70150 84616 87458==
41915,2023,06,13,03,00,AAXX 13034 41915 02456 70000 10284 20260 39993 40018 84410 333 59005 70150 83616 86458==
41915,2023,06,13,06,00,AAXX 13064 41915 02456 70000 10325 20260 39978 40003 85410 333 59010 70150 84616 85458==
41915,2023,06,13,09,00,AAXX 13093 41915 02456 40000 10344 20250 39954 49978 83410 333 59011 70020 83616 84458==
41915,2023,06,13,12,00,AAXX 13124 41915 21456 83602 10277 20250 39950 49975 76122 8672/ 333 10354 59014 60027 70018 83710 83616 88458==
41915,2023,06,13,15,00,AAXX 13154 41915 01450 70000 10267 20260 39971 49995 70162 85420 333 59014 70020 83616 86458==
41915,2023,06,13,18,00,AAXX 13184 41915 21450 80000 10271 20260 39969 49994 70362 8552/ 333 59024 69927 70020 84616 88458==
41915,2023,06,13,21,00,AAXX 13214 41915 02450 80000 10270 20250 39964 49989 8552/ 333 59024 70020 85616 88458==
41915,2023,06,14,00,00,AAXX 14004 41915 02456 80000 10282 20250 39972 49997 8662/ 333 59002 70020 83710 84616 88458==
41915,2023,06,14,12,00,AAXX 14124 41915 02456 81302 10273 20240 39963 49988 8662/ 333 10285 58013 70382 82710 85616 88458==
41915,2023,06,14,15,00,AAXX 14154 41915 01440 80602 10260 20240 39980 40005 71322 8632/ 333 58009 70380 85616 88458 81928==
41915,2023,06,14,21,00,AAXX 14214 41915 01440 80902 10238 20230 39980 40005 72122 8662/ 333 58016 70734 82710 85616 88458==
41915,2023,06,15,00,00,AAXX 15004 41915 21456 80602 10260 20250 39983 40008 70262 8662/ 333 58011 69945 70734 82710 85616 88458==
41915,2023,06,15,03,00,AAXX 15034 41915 02456 80000 10297 20260 39995 40020 8662/ 333 20220 58023 70674 82710 85616 88458==
41915,2023,06,15,06,00,AAXX 15064 41915 41456 80602 10281 20240 30004 40029 58018 70354 88458==
41915,2023,06,15,09,00,AAXX 15094 41915 02456 81601 10295 20270 39982 40007 83510 333 58011 70354 83616 85458==
41915,2023,06,15,12,00,AAXX 15124 41915 02456 80000 10295 20250 39978 40003 8562/ 333 10327 58015 70354 82710 86516 88458==
41915,2023,06,15,15,00,AAXX 15154 41915 02450 80000 10282 20250 39993 40018 8562/ 333 58013 70354 82710 84616 88458==
41915,2023,06,15,18,00,AAXX 15183 41915 21440 83005 10230 20220 39995 40020 71796 8632/ 333 58006 60207 70204 82710 85616 88458 81928==
41915,2023,06,15,21,00,AAXX 15214 41915 01450 83602 10228 20210 39986 40011 71796 8632/ 333 58006 70300 82710 85616 88458 81928==
41923,2023,06,09,00,00,AAXX 09004 41923 21340 70000 10284 20260 39994 40004 70562 85630 333 59011 69945 70020 81709 84615==
41923,2023,06,09,03,00,AAXX 09034 41923 02350 70000 10321 20270 30006 40016 85670 333 20268 59014 70020 82709 84615 85458==
41923,2023,06,09,06,00,AAXX 09064 41923 01320 80902 10261 20260 30005 40015 79562 8692/ 333 59006 70350 84708 84614 88458 81928==
41923,2023,06,09,09,00,AAXX 09094 41923 01330 82706 10250 20240 30000 40010 79596 8695/ 333 58013 70486 84708 84614 88458 81928==
41923,2023,06,09,12,00,AAXX 09124 41923 21435 82002 10254 20240 39972 49982 70296 8532/ 333 10321 59004 60125 70470 85614 88460 81930==
41923,2023,06,09,15,00,AAXX 09154 41923 01935 81802 10260 20240 39998 40008 70522 8532/ 333 58003 70470 85615 88460 81930==
41923,2023,06,09,18,00,AAXX 09184 41923 01435 81802 10265 20250 39996 40006 70522 8532/ 333 59011 70470 85615 88460 81930==
41923,2023,06,09,21,00,AAXX 09214 41923 01430 80000 10266 20250 39983 49993 70522 8532/ 333 59009 70470 85614 88460 81930==
41923,2023,06,10,00,00,AAXX 10004 41923 01430 80602 10266 20250 39981 49991 70522 8532/ 333 59013 70466 85614 88460 81930==
41923,2023,06,10,03,00,AAXX 10034 41923 01440 80602 10236 20260 39995 40005 70522 8532/ 333 20240 59011 70466 85614 88460 81930==
41923,2023,06,10,06,00,AAXX 10064 41923 01450 80302 10326 20250 39986 49996 70522 8332/ 333 59019 70116 85614 88460 81930==
41923,2023,06,10,09,00,AAXX 10094 41923 01340 80000 10282 20260 39978 49988 76162 8532/ 333 59022 70014 83708 84614 88458 81930==
41923,2023,06,10,12,00,AAXX 10124 41923 21340 80000 10286 20260 39973 49983 70262 8532/ 333 10327 58001 69967 70006 83708 84614 88458 81930==
41923,2023,06,10,15,00,AAXX 10154 41923 01340 60000 10272 20250 39990 40000 76122 84630 333 59008 70006 82709 83615 85360==
41923,2023,06,10,18,00,AAXX 10184 41923 21340 60000 10268 20250 39997 40007 70262 84630 333 58001 60008 70006 82709 83615 85360==
41923,2023,06,10,21,00,AAXX 10214 41923 02340 80000 10268 20250 39983 49993 8532/ 333 58000 70006 83708 84614 88458 81930==
41923,2023,06,11,00,00,AAXX 11004 41923 02340 80000 10270 20250 39988 49998 8532/ 333 58007 70006 83708 84614 88458 81930==
41923,2023,06,11,03,00,AAXX 11034 41923 02340 80000 10298 20250 39998 40008 8532/ 333 20266 58003 70006 83708 84614 88458 81930==
41923,2023,06,11,06,00,AAXX 11064 41923 02340 80302 10302 20250 39990 40000 8532/ 333 58004 70006 83708 84614 88458 81930==
41923,2023,06,11,09,00,AAXX 11094 41923 42340 80000 10310 20250 39970 49980 8532/ 333 59008 83709 84614 88458 81930==
41923,2023,06,11,12,00,AAXX 11124 41923 42340 80602 10298 20250 39968 49978 8532/ 333 10319 59005 83709 84615 88458 81930==
41923,2023,06,11,15,00,AAXX 11154 41923 02340 70000 10284 20240 39984 49994 85670 333 59006 70000 82709 84615 86458==
41923,2023,06,11,18,00,AAXX 11184 41923 02340 70000 10276 20250 39995 40005 85670 333 59002 70000 82709 85458==
41923,2023,06,11,21,00,AAXX 11214 41923 02340 70000 10276 20260 39983 49993 85670 333 58000 70000 82709 84615 85458==
41923,2023,06,12,00,00,AAXX 12004 41923 02340 71804 10278 20250 39991 40001 85670 333 59003 70000 82709 84615 85458==
41923,2023,06,12,03,00,AAXX 12034 41923 02350 71802 10300 20260 30003 40013 86670 333 20272 58005 70000 83709 84615 85458==
41923,2023,06,12,06,00,AAXX 12064 41923 01315 80000 10251 20250 30007 40017 79596 8692/ 333 58017 70370 84708 84615 88458 81930==
41923,2023,06,12,09,00,AAXX 12094 41923 01430 80602 10267 20260 39978 49988 70296 8532/ 333 58008 70394 85614 88460 81930==
41923,2023,06,12,12,00,AAXX 12124 41923 21440 80302 10276 20240 39973 49983 70296 8532/ 333 10319 58005 60025 70394 85614 88460 81930==
41923,2023,06,12,15,00,AAXX 12154 41923 01440 80000 10267 20230 39991 40001 70522 8532/ 333 58007 70394 85614 88460 81930==
41923,2023,06,12,18,00,AAXX 12184 41923 01440 80000 10265 20250 30003 40013 70522 8532/ 333 58008 70394 85614 88460 81930==
41923,2023,06,12,21,00,AAXX 12214 41923 01440 80000 10258 20250 39994 40004 70522 8532/ 333 58011 70394 85614 88460 81930==
41923,2023,06,13,00,00,AAXX 13004 41923 01440 50000 10253 20240 39989 49999 70522 82530 333 59002 70394 82615 85365==
41923,2023,06,13,03,00,AAXX 13034 41923 01450 51802 10132 20250 30001 40011 70522 82530 333 20248 59002 70394 82615 85365==
41923,2023,06,13,06,00,AAXX 13064 41923 02456 61802 10336 20260 39984 49994 83530 333 59023 70024 83615 86365==
41923,2023,06,13,09,00,AAXX 13094 41923 02456 60000 10343 20260 39966 49976 84430 333 59012 70000 82615 83824 85360==
41923,2023,06,13,12,00,AAXX 13124 41923 02450 51802 10328 20260 39954 49964 82531 333 10351 59019 70000 82615 83360==
41923,2023,06,13,15,00,AAXX 13154 41923 02450 51803 10308 20270 39967 49977 82530 333 59024 70000 82615 83360==
41923,2023,06,13,18,00,AAXX 13184 41923 02450 42102 10286 20260 39975 49985 82530 333 59028 70000 82615 83360==
41923,2023,06,13,21,00,AAXX 13214 41923 02340 62102 10285 20260 39971 49981 84630 333 59023 70000 81709 83615 85360==
41923,2023,06,14,00,00,AAXX 14004 41923 01340 81802 10291 20270 39988 49998 70522 8632/ 333 59001 70000 83709 84615 88458 81930==
41923,2023,06,14,03,00,AAXX 14034 41923 NIL=
41923,2023,06,14,06,00,AAXX 14064 41923 02450 71802 10349 20260 39981 49991 85430 333 59003 70000 83615 83824==
41923,2023,06,14,09,00,AAXX 14094 41923 02456 31803 10368 20250 39967 49976 82530 333 58001 70000 82616==
41923,2023,06,14,12,00,AAXX 14124 41923 02456 42403 10340 20270 39966 49976 83530 333 10368 58012 70000 83615 83362==
41923,2023,06,14,15,00,AAXX 14154 41923 02450 41805 10312 20270 39976 49986 83530 333 58009 70000 83616 83362==
41923,2023,06,14,18,00,AAXX 14184 41923 02350 71602 10306 20280 39990 40000 85670 333 58015 70000 83708 84615 85459==
41923,2023,06,14,21,00,AAXX 14214 41923 02345 70000 10302 20270 39986 49996 85670 333 58015 70000 83708 84615 85459==
41923,2023,06,15,00,00,AAXX 15004 41923 01340 81803 10298 20270 39989 49999 76122 8632/ 333 58001 70000 83708 85614 88345 81928==
41923,2023,06,15,03,00,AAXX 15034 41923 42350 71803 10311 20250 30004 40014 85670 333 20297 58012 82708 84614 85459==
41923,2023,06,15,06,00,AAXX 15064 41923 42350 71904 10308 20260 30016 40016 85370 333 58025 82708 84615 85459 81928==
41923,2023,06,15,09,00,AAXX 15094 41923 42456 62503 10338 20280 39984 49994 83530 333 58017 83615 86365==
41923,2023,06,15,12,00,AAXX 15124 41923 41440 82403 10322 20270 39969 49979 70522 8532/ 333 10341 58003 85614 88460 81930==
41923,2023,06,15,15,00,AAXX 15154 41923 41440 83004 10309 20270 39992 40002 70522 8532/ 333 58016 85614 88460 81930==
41923,2023,06,15,18,00,AAXX 15184 41923 41440 83302 10306 20280 39997 40007 70522 8532/ 333 58007 85614 88460 81930==
41923,2023,06,15,21,00,AAXX 15214 41923 41440 82704 10299 20270 39992 40002 70522 8532/ 333 58006 85614 88460 81930==
41926,2023,06,09,00,00,AAXX 09004 41926 02450 70000 10290 20280 39985 49999 84510 333 59012 70000 84616 86459==
41926,2023,06,09,03,00,AAXX 09034 41926 02450 80000 10320 20280 39992 40005 8452/ 333 20270 59015 70000 84616 88459==
41926,2023,06,09,06,00,AAXX 09064 41926 02450 40000 10355 20270 39982 49995 84400 333 59023 70000 83618==
41926,2023,06,09,09,00,AAXX 09094 41926 41450 83602 10300 20250 39961 49974 79522 8592/ 333 59016 84616 88458 82928==
41926,2023,06,09,12,00,AAXX 09124 41926 21450 80000 10250 20240 39959 49973 71796 8592/ 333 10370 59008 60197 70190 84616 88458 82928==
41926,2023,06,09,15,00,AAXX 09154 41926 01450 80000 10250 20240 39980 49994 76162 8572/ 333 59006 70200 82708 84615 88458==
41926,2023,06,09,18,00,AAXX 09184 41926 21450 80000 10260 20240 39975 49989 70262 8452/ 333 59018 60018 70200 84615 88458==
41926,2023,06,09,21,00,AAXX 09214 41926 02450 80000 10255 20240 39971 49985 8452/ 333 59010 70200 84615 88458==
41926,2023,06,10,00,00,AAXX 10004 41926 02450 60000 10250 20240 39973 49987 83510 333 59012 70200 83616 85459==
41926,2023,06,10,03,00,AAXX 10034 41926 02456 70000 10278 20240 39986 49999 83510 333 20238 59006 70200 83618 87459==
41926,2023,06,10,06,00,AAXX 10064 41926 02956 40000 10332 20210 39978 49991 80002 333 59004 70200 84080==
41926,2023,06,10,09,00,AAXX 10094 41926 02456 50000 10332 20210 39962 49975 82510 333 58001 70200 82618 85459==
41926,2023,06,10,12,00,AAXX 10124 41926 02450 50000 10317 20250 39957 49970 82510 333 10346 59002 70000 82618 85459==
41926,2023,06,10,18,00,AAXX 10184 41926 02/40 61801 10280 20260 39982 49996 86010 333 58007 70000 86459==
41926,2023,06,11,00,00,AAXX 11004 41926 02440 50000 10272 20250 39972 49986 82510 333 59001 70000 82618 85459==
41926,2023,06,11,03,00,AAXX 11034 41926 02450 60000 10304 20260 39979 49993 83510 333 20272 59007 70000 83618 85459==
41926,2023,06,11,06,00,AAXX 11064 41926 02456 50000 10336 20270 39970 49983 82510 333 59008 70000 82618 85459==
41926,2023,06,11,09,00,AAXX 11094 41926 02456 60000 10356 20270 39948 49962 83510 333 59013 70000 83618 85459==
41926,2023,06,11,12,00,AAXX 11124 41926 02956 00000 10345 20270 39940 49953 333 10356 59017 70000==
41926,2023,06,11,15,00,AAXX 11154 41926 02450 60000 10292 20240 39962 49975 82310 333 59020 70000 81618 85459 81930==
41926,2023,06,11,18,00,AAXX 11184 41926 02440 60000 10285 20260 39978 49991 82310 333 59004 70000 81618 85459 81930==
41926,2023,06,11,21,00,AAXX 11214 41926 02440 70000 10276 20260 39969 49983 83310 333 59010 70000 82618 86459 81930==
41926,2023,06,12,00,00,AAXX 12004 41926 02440 60000 10270 20250 39970 49984 82510 333 59002 70000 82618 85459==
41926,2023,06,12,03,00,AAXX 12034 41926 02450 80000 10298 20270 39988 40002 8352/ 333 20270 58009 70000 83618 88458==
41926,2023,06,12,06,00,AAXX 12064 41926 02456 61801 10346 20280 39980 49993 82510 333 58010 70000 82618 85459==
41926,2023,06,12,09,00,AAXX 12093 41926 02456 40000 10354 20270 39954 49967 82510 333 58005 70000 82618 84459==
41926,2023,06,12,12,00,AAXX 12124 41926 02450 50000 10326 20270 39955 49968 83410 333 10365 58015 70000 82618 84459==
41926,2023,06,12,15,00,AAXX 12154 41926 02950 00000 10290 20250 39973 49986 333 58033 70000==
41926,2023,06,12,18,00,AAXX 12184 41926 02950 01802 10272 20230 39985 49999 333 58007 70000==
41926,2023,06,12,21,00,AAXX 12214 41926 02950 01802 10266 20250 39977 49991 333 58008 70000==
41926,2023,06,13,00,00,AAXX 13004 41926 02950 01802 10263 20250 39972 49986 333 58002 70000==
41926,2023,06,13,03,00,AAXX 13034 41926 02456 61803 10305 20280 39981 49995 83510 333 20262 59007 70000 83615 86459==
41926,2023,06,13,06,00,AAXX 13064 41926 02350 81802 10355 20270 39968 49981 8462/ 333 59012 70000 82708 83615 88458==
41926,2023,06,13,09,00,AAXX 13093 41926 02457 51801 10356 20270 39944 49954 85410 333 59007 70000 82618 83825==
41926,2023,06,13,12,00,AAXX 13124 41926 02456 61803 10346 20270 39937 49950 82510 333 10365 59018 70000 82618 86459==
41926,2023,06,13,18,00,AAXX 13184 41926 02/50 51801 10273 20230 39966 49980 85030 333 59019 70000 85362==
41926,2023,06,13,21,00,AAXX 13214 41926 02450 61801 10273 20230 39965 49979 82510 333 59012 70000 82618 85459==
41926,2023,06,14,00,00,AAXX 14004 41926 02450 71803 10272 20250 39966 49980 83510 333 59006 70000 83618 87459==
41926,2023,06,14,12,00,AAXX 14124 41926 01456 81803 10267 20240 39949 49963 79596 8432/ 333 10397 58012 70120 83617 88458 81930==
41926,2023,06,14,15,00,AAXX 14154 41926 02450 61802 10298 20270 39960 49974 81510 333 59001 70122 81618 86459==
41926,2023,06,14,18,00,AAXX 14184 41926 02450 51801 10305 20270 39969 49982 81530 333 58003 70122 81618 85362==
41926,2023,06,15,00,00,AAXX 15004 41926 02450 81802 10300 20290 39970 49984 8352/ 333 58004 70122 83617 88459==
41926,2023,06,15,03,00,AAXX 15034 41926 01350 81804 10315 20290 39981 49995 70262 8462/ 333 20264 58010 70132 82708 83615 88458==
41926,2023,06,15,06,00,AAXX 15064 41926 11456 61803 10362 20280 39982 49995 60016 70162 82410 333 58014 70132 82615 86459==
41926,2023,06,15,09,00,AAXX 15094 41926 02456 41803 10365 20300 39959 49972 84500 333 58012 70132 84616==
41926,2023,06,15,12,00,AAXX 15124 41926 02456 61806 10340 20280 39945 49958 82532 333 10373 59004 70010 82616 83362==
41926,2023,06,15,15,00,AAXX 15154 41926 02450 31804 10315 20290 39976 49989 83500 333 58016 70010 83616==
41926,2023,06,15,18,00,AAXX 15183 41926 02450 31801 10302 20270 39972 49985 83500 333 58003 70010 83616==
41926,2023,06,15,21,00,AAXX 15214 41926 02450 31802 10300 20280 39977 49990 83500 333 58006 70010 83616==
41927,2023,06,09,00,00,AAXX 09004 41927 32450 80000 10282 20270 39970 49984 8452/ 333 56499 59013 70000 84616 88458=
41927,2023,06,09,06,00,AAXX 09064 41927 32457 60000 10338 20270 39977 49991 83510 333 56490 59010 70000 83617 85459=
41927,2023,06,09,12,00,AAXX 09124 41927 32456 81603 10270 20230 39941 49955 8452/ 333 10352 56499 59018 70000 84616 88458=
41927,2023,06,09,18,00,AAXX 09184 41927 NIL=
41927,2023,06,10,00,00,AAXX 10004 41927 32450 50000 10246 20240 39974 49988 83510 333 56490 58004 70000 83617 84459=
41927,2023,06,10,06,00,AAXX 10064 41927 32458 41801 10332 20230 39971 49985 82510 333 56490 59006 70000 82618 84459=
41927,2023,06,10,12,00,AAXX 10124 41927 32457 31802 10310 20260 39943 49957 83500 333 10348 56400 58002 70000 83618=
41927,2023,06,10,18,00,AAXX 10184 41927 32456 31601 10268 20250 39971 49986 83500 333 56400 59012 70000 83618=
41927,2023,06,11,00,00,AAXX 11004 41927 32450 60000 10264 20250 39964 49978 83510 333 56490 59010 70000 83617 85459=
41927,2023,06,11,06,00,AAXX 11064 41927 32457 61802 10330 20290 39966 49980 83510 333 56490 59005 70000 83617 85459=
41927,2023,06,11,12,00,AAXX 11124 41927 32457 30000 10330 20250 39937 49951 83500 333 10360 56400 59006 70000 83618=
41927,2023,06,11,18,00,AAXX 11184 41927 NIL=
41927,2023,06,12,00,00,AAXX 12004 41927 32450 50000 10260 20250 39957 49972 83510 333 56490 59007 70000 83617 84459=
41927,2023,06,12,06,00,AAXX 12064 41927 32457 61602 10298 20260 39988 40002 83510 333 56490 58022 70000 83617 85459=
41927,2023,06,12,12,00,AAXX 12124 41927 32957 01603 10306 20240 39955 49969 333 10342 58006 70000=
41927,2023,06,12,18,00,AAXX 12184 41927 32956 01602 10270 20250 39987 40002 333 58026 70000=
41927,2023,06,13,00,00,AAXX 13004 41927 32956 00000 10256 20250 39971 49985 333 59014 70000=
41927,2023,06,13,06,00,AAXX 13064 41927 32456 61602 10330 20250 39972 49986 83510 333 56490 59016 70000 83617 85459=
41927,2023,06,13,12,00,AAXX 13124 41927 32957 21802 10340 20260 39941 49955 82030 333 10355 56090 59014 70000 82362=
41927,2023,06,13,18,00,AAXX 13184 41927 32456 51602 10280 20260 39972 49986 83510 333 56490 59015 70000 83617 84459=
41927,2023,06,14,00,00,AAXX 14004 41927 32456 60000 10263 20250 39963 49978 83510 333 56490 59008 70000 83617 85459=
41927,2023,06,14,12,00,AAXX 14124 41927 32456 72201 10360 20250 39947 49960 84370 333 10385 56590 58006 70000 83617 81930 85459=
41927,2023,06,14,18,00,AAXX 14184 41927 32956 01601 10296 20280 39958 49972 333 59014 70000=
41927,2023,06,15,00,00,AAXX 15004 41927 32456 61802 10298 20290 39958 49972 83510 333 56490 59005 70000 83617 85459=
41927,2023,06,15,06,00,AAXX 15064 41927 32558 21304 10350 20260 39979 49993 82100 333 56300 58005 70000 82825=
41927,2023,06,15,12,00,AAXX 15124 41927 32958 31902 10337 20280 39951 49965 83010 333 10375 56090 58004 70000 83459=
41927,2023,06,15,18,00,AAXX 15183 41927 NIL=
41929,2023,06,09,00,00,AAXX 09004 41929 42457 82002 10280 20260 39992 40001 8451/ 333 59003 84618 88462==
41929,2023,06,09,03,00,AAXX 09034 41929 02457 80000 10310 20280 30002 40011 8451/ 333 20273 59009 70000 84618 88462==
41929,2023,06,09,06,00,AAXX 09064 41929 42457 80000 10320 20290 39994 40003 8451/ 333 59015 84618 88462==
41929,2023,06,09,09,00,AAXX 09094 41929 01456 83605 10237 20220 39995 40004 79596 8532/ 333 58015 70110 84616 88460 81930==
41929,2023,06,09,12,00,AAXX 09124 41929 01456 80000 10253 20230 39968 49977 70296 8451/ 333 10324 59006 70128 84618 88462==
41929,2023,06,09,15,00,AAXX 09154 41929 02456 60000 10253 20230 39973 49982 83530 333 59016 70128 83618 83365==
41929,2023,06,09,18,00,AAXX 09184 41929 02456 60902 10250 20230 39987 49996 83530 333 59013 70128 83618 83365==
41929,2023,06,09,21,00,AAXX 09214 41929 02456 70000 10252 20240 39980 49989 83570 333 59012 70128 83618 85462==
41929,2023,06,10,00,00,AAXX 10004 41929 02456 80000 10253 20240 39972 49981 8451/ 333 59020 70128 84618 88462==
41929,2023,06,10,03,00,AAXX 10034 41929 02456 71402 10290 20260 39990 49999 84510 333 20228 59012 70128 84618 87462==
41929,2023,06,10,06,00,AAXX 10064 41929 02457 71402 10322 20250 39982 49991 84510 333 59012 70128 84618 88462==
41929,2023,06,10,09,00,AAXX 10094 41929 02458 61303 10323 20250 39970 49979 82530 333 59025 70018 82618 84365==
41929,2023,06,10,12,00,AAXX 10124 41929 02457 71303 10285 20260 39964 49973 83570 333 10335 59004 70000 83618 85462==
41929,2023,06,10,15,00,AAXX 10154 41929 02/56 30000 10270 20250 39982 49991 83030 333 58009 70000 83365==
41929,2023,06,10,18,00,AAXX 10184 41929 02456 50000 10268 20260 39995 40004 83530 333 58008 70000 83618 83365==
41929,2023,06,11,00,00,AAXX 11004 41929 02456 80000 10265 20260 39976 49985 8451/ 333 58004 70000 84618 88462==
41929,2023,06,11,03,00,AAXX 11034 41929 02456 81402 10292 20260 39990 49999 8451/ 333 20258 58000 70000 84618 88462==
41929,2023,06,11,06,00,AAXX 11064 41929 02457 81404 10314 20270 39980 49989 8451/ 333 59002 70000 84618 88462==
41929,2023,06,11,09,00,AAXX 11094 41929 02458 51304 10327 20280 39959 49968 83430 333 59036 70000 82618 83365==
41929,2023,06,11,12,00,AAXX 11124 41929 02458 51304 10307 20270 39954 49963 82530 333 10335 59014 70000 82618 83365==
41929,2023,06,11,15,00,AAXX 11154 41929 02456 61305 10283 20260 39973 49982 83530 333 58000 70000 83618 83365==
41929,2023,06,11,18,00,AAXX 11184 41929 02/56 41304 10270 20250 39985 49994 84030 333 59002 70000 84365==
41929,2023,06,11,21,00,AAXX 11214 41929 02/56 41304 10269 20260 39977 49986 84030 333 59003 70000 84365==
41929,2023,06,12,00,00,AAXX 12004 41929 02/56 51304 10267 20260 39975 49984 85030 333 59001 70000 85365==
41929,2023,06,12,03,00,AAXX 12034 41929 02456 61802 10310 20270 39994 40003 84510 333 20258 58004 70000 84618 85462==
41929,2023,06,12,06,00,AAXX 12064 41929 02457 73201 10304 20250 39994 40003 84510 333 58014 70000 84618 86462==
41929,2023,06,12,09,00,AAXX 12093 41929 01/57 51302 10305 20260 39966 49975 70196 85030 333 58007 70004 85365==
41929,2023,06,12,12,00,AAXX 12124 41929 11/57 51305 10300 20250 39961 49970 69946 70296 85030 333 10330 58007 70004 85365==
41929,2023,06,12,15,00,AAXX 12154 41929 02/56 41803 10268 20250 39983 49992 84030 333 58010 70004 84365==
41929,2023,06,12,18,00,AAXX 12184 41929 02/56 30000 10262 20250 39992 40001 83030 333 58007 70004 83365==
41929,2023,06,12,21,00,AAXX 12214 41929 02/56 30000 10260 20250 39986 49995 83030 333 58009 70004 83365==
41929,2023,06,13,00,00,AAXX 13004 41929 02/56 31302 10257 20250 39979 49988 83030 333 58004 70004 83365==
41929,2023,06,13,03,00,AAXX 13034 41929 02456 71802 10305 20270 39990 49999 83510 333 20251 59004 70004 83618 86462==
41929,2023,06,13,06,00,AAXX 13064 41929 02458 50902 10345 20270 39977 49986 85500 333 59017 70004 85618==
41929,2023,06,13,09,00,AAXX 13093 41929 01458 60000 10300 20260 39956 49965 72162 83510 333 59010 70010 83618 85462==
41929,2023,06,13,12,00,AAXX 13124 41929 11458 60000 10300 20260 39941 49950 60016 70262 83510 333 10350 59020 70010 83618 85462==
41929,2023,06,13,15,00,AAXX 13154 41929 02457 61803 10260 20240 39969 49978 83510 333 59024 70010 83618 85462==
41929,2023,06,13,18,00,AAXX 13184 41929 02957 61702 10260 20240 39972 49981 83510 333 59020 70010 83618 85462==
41929,2023,06,13,21,00,AAXX 13214 41929 02457 81002 10270 20250 39975 49985 8451/ 333 59015 70010 84618 88462==
41929,2023,06,14,00,00,AAXX 14004 41929 02457 81902 10270 20250 39972 49982 8451/ 333 59003 70010 84618 88462==
41929,2023,06,14,12,00,AAXX 14124 41929 02458 41903 10350 20270 39954 49963 82510 333 10377 58013 70000 82618 83462==
41929,2023,06,14,15,00,AAXX 14154 41929 02958 01803 10320 20270 39961 49970 333 59008 70000==
41929,2023,06,14,18,00,AAXX 14184 41929 02457 41903 10300 20290 39982 49991 84500 333 58010 70000 84618==
41929,2023,06,14,21,00,AAXX 14214 41929 02457 82006 10300 20290 39964 49973 8451/ 333 59011 70000 84618 85462==
41929,2023,06,15,00,00,AAXX 15004 41929 01457 80000 10290 20280 39979 49988 70262 8451/ 333 58007 70040 84618 88462==
41929,2023,06,15,03,00,AAXX 15034 41929 01456 71802 10290 20270 39991 40000 72162 84510 333 20283 58013 70045 84618 87462==
41929,2023,06,15,06,00,AAXX 15064 41929 11457 81805 10315 20290 39995 40004 60016 70262 8451/ 333 58019 70045 84618 88462==
41929,2023,06,15,09,00,AAXX 15094 41929 02457 81805 10340 20280 39981 49990 8451/ 333 58019 70045 84618 88462==
41929,2023,06,15,12,00,AAXX 15124 41929 02457 61804 10320 20280 39965 49974 83510 333 10340 58011 70045 83618 84462==
41929,2023,06,15,15,00,AAXX 15154 41929 02457 61906 10305 20290 39988 49998 83510 333 58021 70045 83618 84462==
41929,2023,06,15,18,00,AAXX 15183 41929 02457 62003 10300 20280 39994 40004 83510 333 58012 70045 83618 84462==
41929,2023,06,15,21,00,AAXX 15214 41929 41457 71903 10294 20280 39980 49990 58016 70045 85462==
41933,2023,06,09,00,00,AAXX 09004 41933 02450 60000 10265 20260 39989 49995 84520 333 59016 70038 84616 86458==
41933,2023,06,09,03,00,AAXX 09034 41933 02450 80000 10286 20270 30004 40013 8452/ 333 20255 59014 70038 84616 88457==
41933,2023,06,09,06,00,AAXX 09064 41933 21350 81802 10265 20260 30008 40017 79596 8692/ 333 58011 60627 70656 83708 84615 88456 81927==
41933,2023,06,09,09,00,AAXX 09094 41933 01456 82602 10274 20230 39983 49991 70296 8351/ 333 59005 70828 83615 88458==
41933,2023,06,09,12,00,AAXX 09124 41933 01456 80000 10278 20250 39974 49983 70296 8551/ 333 10289 59025 70832 85615 88458==
41933,2023,06,09,15,00,AAXX 09154 41933 02440 80000 10265 20260 39995 40003 8351/ 333 59005 70832 83616 88458==
41933,2023,06,09,18,00,AAXX 09184 41933 02440 80000 10264 20250 39997 40006 8351/ 333 58002 70832 83616 88458==
41933,2023,06,09,21,00,AAXX 09214 41933 02440 82601 10262 20250 39976 49985 8251/ 333 59013 70832 82616 88458==
41933,2023,06,10,00,00,AAXX 10004 41933 02456 60000 10260 20250 39975 49983 82530 333 59012 70832 82616 86362==
41933,2023,06,10,03,00,AAXX 10034 41933 02456 60000 10294 20250 39992 40001 83570 333 20256 59012 70832 83616 85362==
41933,2023,06,10,06,00,AAXX 10064 41933 01340 80000 10270 20250 39990 49999 76162 8572/ 333 59018 70030 82708 83615 88457==
41933,2023,06,10,09,00,AAXX 10094 41933 01340 82002 10260 20250 39976 49985 76162 8752/ 333 59007 70136 82708 83615 88457==
41933,2023,06,10,12,00,AAXX 10124 41933 21340 81802 10255 20250 39971 49980 76162 8572/ 333 10307 59003 60189 70212 82708 83615 88457==
41933,2023,06,10,15,00,AAXX 10154 41933 01340 81902 10255 20250 39981 49990 76162 8572/ 333 59013 70252 82708 83615 88457==
41933,2023,06,10,18,00,AAXX 10184 41933 21440 80000 10257 20250 39993 40002 70262 8452/ 333 59004 60045 70252 84615 88458==
41933,2023,06,11,00,00,AAXX 11004 41933 02440 80000 10260 20250 39987 49996 8452/ 333 58012 70252 84615 88458==
41933,2023,06,11,03,00,AAXX 11034 41933 02440 80000 10270 20250 30001 40009 8452/ 333 20252 58009 70252 84616 88458==
41933,2023,06,11,06,00,AAXX 11064 41933 01340 80000 10265 20250 39995 40003 76122 8572/ 333 58005 70000 82708 83615 88457==
41933,2023,06,11,09,00,AAXX 11094 41933 02650 80402 10280 20240 39985 49993 8572/ 333 58009 70120 82708 83615 88457==
41933,2023,06,11,12,00,AAXX 11124 41933 02450 80000 10275 20240 39989 49997 8452/ 333 10292 58018 70040 84615 88458==
41933,2023,06,11,15,00,AAXX 11154 41933 02440 60000 10266 20250 39999 40007 84520 333 58018 70000 84616 86458==
41933,2023,06,11,18,00,AAXX 11184 41933 NIL=
41933,2023,06,11,21,00,AAXX 11214 41933 02440 60000 10260 20240 39995 40003 84520 333 58005 70000 84616 86458==
41933,2023,06,12,00,00,AAXX 12004 41933 02450 60000 10255 20250 39993 40002 84520 333 58006 70000 84616 86458==
41933,2023,06,12,03,00,AAXX 12034 41933 02450 61802 10290 20260 30004 40012 84520 333 20254 58003 70000 84616 86458==
41933,2023,06,12,06,00,AAXX 12064 41933 02450 71804 10320 20270 39995 40003 85420 333 58000 70000 82616 83828 86457==
41933,2023,06,12,09,00,AAXX 12093 41933 01350 80000 10250 20240 39977 49986 72196 8772/ 333 59008 70458 83708 84615 88457==
41933,2023,06,12,12,00,AAXX 12124 41933 01350 80000 10246 20240 39974 49983 76196 8572/ 333 10320 59015 70464 82708 83615 88457==
41933,2023,06,12,15,00,AAXX 12154 41933 01440 80000 10246 20240 39987 49996 70262 8352/ 333 59012 70466 83615 88458==
41933,2023,06,12,18,00,AAXX 12184 41933 21440 60000 10245 20240 39998 40006 70162 82510 333 59001 69925 70466 82615 85458==
41933,2023,06,12,21,00,AAXX 12214 41933 02440 60000 10248 20240 39986 49994 82510 333 59009 70466 82615 85458==
41933,2023,06,13,00,00,AAXX 13004 41933 02450 50000 10250 20240 39989 49997 81531 333 59004 70466 81615 85074==
41933,2023,06,13,03,00,AAXX 13034 41933 02450 81802 10294 20270 30000 40008 8352/ 333 20244 59004 70466 83615 88458==
41933,2023,06,13,06,00,AAXX 13064 41933 02456 41803 10336 20280 39986 49994 84400 333 59009 70466 82618 83824==
41933,2023,06,13,09,00,AAXX 13094 41933 02456 42603 10330 20270 39966 49975 84400 333 59011 70008 82618 83828==
41933,2023,06,13,12,00,AAXX 13124 41933 21450 70000 10290 20280 39952 49960 72196 83520 333 10337 59022 60277 70288 83618 88458==
41933,2023,06,13,15,00,AAXX 13154 41933 02450 72603 10290 20270 39980 49988 83520 333 59007 70286 83618 87458==
41933,2023,06,13,18,00,AAXX 13184 41933 02450 62502 10290 20280 39983 49991 82520 333 59015 70286 82618 86458==
41933,2023,06,13,21,00,AAXX 13214 41933 02450 60000 10290 20280 39986 49994 82520 333 58000 70286 82618 88458==
41933,2023,06,14,00,00,AAXX 14004 41933 02450 72304 10290 20270 39989 49997 84520 333 58000 70286 84616 87458==
41933,2023,06,14,12,00,AAXX 14124 41933 02450 61808 10316 20270 39982 49991 85420 333 10344 58030 70000 83616 84457==
41933,2023,06,14,15,00,AAXX 14154 41933 02450 61809 10302 20270 39993 40001 84520 333 58013 70000 84616 86458==
41933,2023,06,14,21,00,AAXX 14214 41933 02440 61804 10286 20280 39999 40007 84520 333 58013 70000 84616 86458==
41933,2023,06,15,00,00,AAXX 15004 41933 01450 81803 10285 20280 30007 40016 76122 8552/ 333 58018 70000 85615 88457==
41933,2023,06,15,03,00,AAXX 15034 41933 01450 81807 10296 20280 30005 40014 70262 8652/ 333 20275 58015 70070 86615 88457==
41933,2023,06,15,06,00,AAXX 15064 41933 01456 61806 10296 20250 30017 40026 70162 84520 333 58029 70070 84616 86458==
41933,2023,06,15,09,00,AAXX 15094 41933 01456 51806 10320 20270 39992 40000 70162 85400 333 58007 70070 82616 84824==
41933,2023,06,15,12,00,AAXX 15124 41933 11456 61803 10310 20260 39986 49994 60006 70362 84402 333 10324 58004 70070 82616 83824 86074==
41933,2023,06,15,15,00,AAXX 15154 41933 02450 61804 10300 20270 39995 40004 84410 333 58002 70070 83616 85458==
41933,2023,06,15,18,00,AAXX 15183 41933 NIL=
41933,2023,06,15,21,00,AAXX 15214 41933 02450 61803 10292 20270 39995 40003 85610 333 59004 70070 82708 83615 85458==
41936,2023,06,09,00,00,AAXX 09004 41936 01415 71903 10288 20280 39989 49996 70522 83530 333 59011 70000 83615 86362==
41936,2023,06,09,03,00,AAXX 09034 41936 42420 72705 10324 20284 39989 49996 59014 86362==
41936,2023,06,09,06,00,AAXX 09064 41936 01415 72405 10344 20290 39989 49999 70522 83530 333 59019 70000 83615 86362==
41936,2023,06,09,09,00,AAXX 09094 41936 01420 71808 10344 20290 39970 71722 83530 333 59010 74000 83708 83615 86362 81930==
41936,2023,06,09,12,00,AAXX 09124 41936 01420 73307 10260 20240 39983 49990 79596 85930 333 10344 58010 70009 85707 84612 86360 81930==
41936,2023,06,09,15,00,AAXX 09154 41936 01320 82003 10260 20240 39994 40001 76099 85730 333 58007 70000 83707 83615 86360==
41936,2023,06,09,18,00,AAXX 09184 41936 01330 80000 10254 20240 39976 49980 70529 85630 333 59020 70009 83708 83615 86362==
41936,2023,06,09,21,00,AAXX 09214 41936 01330 80000 10254 20240 39972 49979 70522 85630 333 59012 70000 83708 83615 86362==
41936,2023,06,10,00,00,AAXX 10004 41936 01316 50000 10254 20240 39972 49979 70522 83530 333 59017 70000 83615 83362==
41936,2023,06,10,03,00,AAXX 10034 41936 01420 63203 10288 20250 39991 49998 70522 83530 333 20254 58002 70000 83615 85362==
41936,2023,06,10,06,00,AAXX 10064 41936 01430 60403 10330 20230 39985 49992 70522 83530 333 59007 70000 83615 85362==
41936,2023,06,10,09,00,AAXX 10094 41936 01430 62203 10338 20200 39967 49974 70562 83530 333 59003 70000 83615 85362==
41936,2023,06,10,12,00,AAXX 10124 41936 01430 61806 10316 20230 39961 49968 70562 82530 333 10342 59022 70009 82615 86362==
41936,2023,06,10,15,00,AAXX 10154 41936 01/30 41703 10290 20260 39982 49989 70511 84030 333 59012 70000 84362==
41936,2023,06,10,18,00,AAXX 10184 41936 01/30 51604 10284 20250 39990 49997 70522 85030 333 58014 70000 85362==
41936,2023,06,10,21,00,AAXX 10214 41936 01/30 41705 10280 20250 39981 49988 70511 84030 333 58009 70000 84362==
41936,2023,06,11,00,00,AAXX 11004 41936 41416 51404 10274 20250 39974 49981 70522 83530 333 58002 83615 83362==
41936,2023,06,11,03,00,AAXX 11034 41936 01325 71406 10300 20270 39982 49989 70522 83630 333 10270 59002 70000 81710 83615 85362==
41936,2023,06,11,06,00,AAXX 11064 41936 01435 62204 10352 20270 39975 49982 70522 83830 333 59010 70000 82615 85362==
41936,2023,06,11,09,00,AAXX 11094 41936 01440 61803 10376 20270 39958 49964 70522 83830 333 59010 70000 83615 84362==
41936,2023,06,11,12,00,AAXX 11124 41936 01450 31704 10354 20260 39949 49955 70522 82830 333 10378 59013 70000 82615==
41936,2023,06,11,15,00,AAXX 11154 41936 01930 71608 10302 20250 39974 49981 71792 84930 333 59008 70000 82710 83615 85362 81930==
41936,2023,06,11,18,00,AAXX 11184 41936 01430 51603 10290 20260 39973 49980 70529 82830 333 59017 70000 83615 85362==
41936,2023,06,11,21,00,AAXX 11214 41936 01420 51504 10280 20260 39969 49976 70522 82830 333 59012 70000 83615 85362==
41936,2023,06,12,00,00,AAXX 12004 41936 41316 71603 10264 20250 39971 49978 70522 84630 333 59003 82710 83615 86362==
41936,2023,06,12,03,00,AAXX 12034 41936 01425 51609 10320 20280 39993 40000 70522 83530 333 20264 58011 70000 83615 84362==
41936,2023,06,12,06,00,AAXX 12064 41936 01440 51405 10356 20280 39988 49995 70522 83530 333 58013 70000 83615 83362==
41936,2023,06,12,09,00,AAXX 12094 41936 01450 51405 10374 20260 39970 49977 70522 83830 333 58013 70000 83615 84362==
41936,2023,06,12,12,00,AAXX 12124 41936 01440 51407 10324 20260 39961 49967 70592 83830 333 10376 58012 70000 83615 84362==
41936,2023,06,12,15,00,AAXX 12154 41936 01440 51605 10290 20220 39978 49985 70522 83530 333 58004 70000 83615 84362==
41936,2023,06,12,18,00,AAXX 12184 41936 01440 41803 10278 20240 39988 49995 70522 82530 333 58015 70000 82615 82362==
41936,2023,06,12,21,00,AAXX 12214 41936 01430 40000 10272 20250 39978 49985 70522 82530 333 58009 70000 82615 83362==
41936,2023,06,13,00,00,AAXX 13004 41936 01420 41405 10270 20250 39986 49993 70522 82530 333 58015 70000 82615 83362==
41936,2023,06,13,03,00,AAXX 13034 41936 01425 42106 10320 20270 39989 49996 70522 81530 333 20266 59004 70000 81615 83362==
41936,2023,06,13,06,00,AAXX 13064 41936 01450 41806 10352 20270 39975 49982 70522 82530 333 59013 70000 82615 83362==
41936,2023,06,13,09,00,AAXX 13094 41936 01440 61805 10352 20280 39955 49961 70522 82830 333 59016 70000 83615 85362==
41936,2023,06,13,12,00,AAXX 13124 41936 01330 71410 10302 20260 39948 49955 70522 84930 333 10358 59015 70000 83708 83615 87362 81930==
41936,2023,06,13,15,00,AAXX 13154 41936 01/20 40000 10266 20220 39962 49969 70596 84030 333 59016 70000 84362==
41936,2023,06,13,18,00,AAXX 13184 41936 01/20 30000 10264 20230 39969 49976 70520 83030 333 59019 70000 83362==
41936,2023,06,13,21,00,AAXX 13214 41936 01/20 30000 10258 20230 39961 49968 70510 83030 333 59017 70000 83362==
41936,2023,06,14,00,00,AAXX 14004 41936 01/20 21206 10270 20250 39967 49974 70510 82030 333 59019 70000 83262==
41936,2023,06,14,06,00,AAXX 14064 41936 01/50 12210 10270 20240 39976 49983 70510 81030 333 58001 70000 81362==
41936,2023,06,14,09,00,AAXX 14094 41936 01/50 22310 10398 20250 39967 49974 70511 82030 333 58013 70000 82362==
41936,2023,06,14,12,00,AAXX 14124 41936 01450 31912 10364 20240 39956 49963 70511 81530 333 10400 58008 70000 81615 83362==
41936,2023,06,14,15,00,AAXX 14154 41936 01450 42109 10328 20280 39961 49968 70511 81530 333 59001 70000 81615 83362==
41936,2023,06,14,18,00,AAXX 14184 41936 02440 52507 10308 20290 39968 49988 83530 333 58012 70000 83615 83362==
41936,2023,06,14,21,00,AAXX 14214 41936 01440 41906 10300 20290 39973 49980 70511 82530 333 58012 70000 82615 83362==
41936,2023,06,15,00,00,AAXX 15004 41936 01416 72408 10298 20290 39970 49977 71791 83990 333 58003 70020 83708 83615 87360 81930==
41936,2023,06,15,03,00,AAXX 15034 41936 01430 62008 10310 20260 39994 40001 70596 83830 333 20294 58014 70020 86315 84362==
41936,2023,06,15,06,00,AAXX 15064 41936 01440 62108 10350 20280 39995 40002 70522 83830 333 58019 70020 86315 84362==
41936,2023,06,15,09,00,AAXX 15094 41936 01440 62012 10362 20270 39978 49985 70522 83830 333 70020 83615 84362==
41936,2023,06,15,12,00,AAXX 15124 41936 01/40 31817 10338 20280 39963 49969 70522 83030 333 10370 58006 70020 83362==
41936,2023,06,15,15,00,AAXX 15154 41936 333 58020 70020 82362==
41936,2023,06,15,18,00,AAXX 15184 41936 01440 51610 10306 20280 39990 49997 70522 82630 333 58009 70020 82615 84362==
41936,2023,06,15,21,00,AAXX 15214 41936 01440 52210 10304 20280 39977 49984 70522 82630 333 58004 70020 82615 84362==
41938,2023,06,09,00,00,AAXX 09004 41938 31925 80000 10280 20270 39996 40000 71022 8802/ 333 56099 59003 70026 88460=
41938,2023,06,09,06,00,AAXX 09064 41938 11335 82201 10305 20290 30001 40005 69943 76152 8472/ 333 56599 59014 70020 81709 84617 88460=
41938,2023,06,09,12,00,AAXX 09124 41938 11450 60000 10240 20230 39977 49981 60314 84510 333 10325 56990 59015 70314 84618 83459=
41938,2023,06,09,18,00,AAXX 09184 41938 32450 40000 10250 20230 39993 49997 84500 333 56900 59011 70314 84618=
41938,2023,06,10,00,00,AAXX 10004 41938 32450 40000 10255 20230 39990 49994 84500 333 56900 59006 70314 84618=
41938,2023,06,10,06,00,AAXX 10064 41938 32456 40000 10325 20270 39986 49990 83510 333 56990 59015 70310 83618=
41938,2023,06,10,12,00,AAXX 10124 41938 32456 82001 10285 20250 39979 49983 8252/ 333 10325 56599 58002 70000 82618 88459=
41938,2023,06,10,18,00,AAXX 10184 41938 32456 50000 10267 20250 39995 49999 81511 333 56599 58002 70000 81618 83080=
41938,2023,06,11,00,00,AAXX 11004 41938 31445 82301 10270 20260 39988 49992 70522 8252/ 333 56599 59002 70000 82618 88459=
41938,2023,06,11,06,00,AAXX 11064 41938 32456 71503 10328 20280 39985 40089 83410 333 56390 59002 70000 83618 86460=
41938,2023,06,11,12,00,AAXX 11124 41938 31450 81602 10300 20260 39968 49972 70592 8441/ 333 10347 56399 59011 70000 83617 88460=
41938,2023,06,11,18,00,AAXX 11184 41938 32950 01503 10270 20250 39987 49991 333 59008 70000=
41938,2023,06,12,00,00,AAXX 12004 41938 31450 71801 10275 20260 39985 49989 70521 82511 333 56499 59003 70000 82617 85460=
41938,2023,06,12,06,00,AAXX 12064 41938 32456 72001 10340 20270 39990 49994 82410 333 56590 58005 70000 81618 86460=
41938,2023,06,12,12,00,AAXX 12124 41938 11456 81801 10259 20230 39974 49978 60035 70296 8332/ 333 10350 56499 58006 70026 81617 81930 88460=
41938,2023,06,12,18,00,AAXX 12184 41938 32456 72001 10256 20250 39991 49995 81520 333 56490 58004 70026 81617 87460=
41938,2023,06,13,00,00,AAXX 13004 41938 31435 81801 10265 20260 39986 49990 70522 8552/ 333 56499 58001 70026 85616 88460=
41938,2023,06,13,06,00,AAXX 13064 41938 31450 71804 10332 20270 39982 49986 70522 84412 333 56499 59008 70026 83617 85460 85080=
41938,2023,06,13,12,00,AAXX 13124 41938 11450 81802 10249 20240 39960 49964 60415 70296 8352/ 333 10360 56499 59014 70412 83616 88460=
41938,2023,06,13,18,00,AAXX 13184 41938 31956 61801 10255 20250 39978 49982 70192 86010 333 56090 59013 70412 86460=
41938,2023,06,14,00,00,AAXX 14004 41938 31430 61803 10280 20270 39978 49982 70522 83512 333 56499 59008 70412 83616 83460 85080=
41938,2023,06,14,12,00,AAXX 14124 41938 32956 20000 10305 20260 39973 49977 80001 333 10365 56009 58013 70000 82080=
41938,2023,06,14,18,00,AAXX 14184 41938 32450 60000 10302 20270 39996 40000 84510 333 46990 58018 70000 84618 84459=
41938,2023,06,15,00,00,AAXX 15004 41938 11450 70000 10275 20250 39984 49988 60083 79596 85910 333 56990 58006 70075 84618 81928 86459=
41938,2023,06,15,06,00,AAXX 15064 41938 32456 60000 10320 20280 39999 40003 84510 333 56990 58017 70075 84618 84459=
41938,2023,06,15,12,00,AAXX 15124 41938 32456 31803 10310 20290 39978 49982 83500 333 10326 56900 58005 70075 83618=
41938,2023,06,15,18,00,AAXX 15183 41938 32456 30000 10290 20270 39991 49995 83500 333 56900 59005 70075 83618=
41939,2023,06,09,00,00,AAXX 09004 41939 02450 70000 10280 20270 39999 40007 83510 333 59011 70060 83617 87459==
41939,2023,06,09,03,00,AAXX 09034 41939 02457 80000 10300 20280 30019 40027 8352/ 333 20254 59015 70060 83617 88459==
41939,2023,06,09,06,00,AAXX 09064 41939 01456 80000 10285 20270 30025 40033 76122 8352/ 333 59018 70010 83617 88459==
41939,2023,06,09,09,00,AAXX 09094 41939 01456 80000 10263 20240 39989 49997 76122 8352/ 333 58003 70017 83616 88459==
41939,2023,06,09,12,00,AAXX 09124 41939 21456 80000 10263 20250 39980 49988 70262 8352/ 333 10308 59005 60027 70030 83617 88459==
41939,2023,06,09,15,00,AAXX 09154 41939 02456 50000 10264 20250 30004 40012 83530 333 58004 70030 83617 83364==
41939,2023,06,09,18,00,AAXX 09184 41939 02456 40000 10255 20250 30015 40023 83530 333 58005 70030 83617 83364==
41939,2023,06,09,21,00,AAXX 09214 41939 02450 80000 10260 20240 30000 40008 8352/ 333 59016 70030 83617 88459==
41939,2023,06,10,00,00,AAXX 10004 41939 02456 80000 10260 20240 39972 49980 8352/ 333 59027 70030 83617 88459==
41939,2023,06,10,03,00,AAXX 10034 41939 02458 80000 10280 20250 39988 49996 8352/ 333 20248 59031 70030 83617 88459==
41939,2023,06,10,06,00,AAXX 10064 41939 02456 80000 10315 20270 39994 40002 8352/ 333 59004 70020 83617 88459==
41939,2023,06,10,09,00,AAXX 10094 41939 02456 80000 10280 20250 39985 49993 8352/ 333 59004 70013 83617 88459==
41939,2023,06,10,12,00,AAXX 10124 41939 02457 40000 10280 20260 39978 49986 83530 333 10320 58002 70000 83618 83365==
41939,2023,06,10,15,00,AAXX 10154 41939 02456 50000 10260 20250 30010 40018 83530 333 58006 70000 83618 83364==
41939,2023,06,10,18,00,AAXX 10184 41939 02456 50000 10255 20250 30017 40025 83530 333 58002 70000 83618 83364==
41939,2023,06,11,00,00,AAXX 11004 41939 02456 50000 10268 20260 39991 49999 83530 333 58019 70000 83617 83364==
41939,2023,06,11,03,00,AAXX 11034 41939 02458 80000 10293 20250 30001 40009 8252/ 333 58013 70000 82617 88459==
41939,2023,06,11,06,00,AAXX 11064 41939 02457 80000 10315 20280 39992 40000 8351/ 333 59002 70000 83616 88459==
41939,2023,06,11,09,00,AAXX 11094 41939 02456 60000 10320 20290 39971 49979 82510 333 59014 70000 82616 86459==
41939,2023,06,11,12,00,AAXX 11124 41939 02456 60000 10295 20280 39962 49970 83510 333 10330 59016 70000 83618 85459==
41939,2023,06,11,15,00,AAXX 11154 41939 02450 50000 10275 20270 39976 49984 82510 333 59034 70000 82618 85459==
41939,2023,06,11,18,00,AAXX 11184 41939 02450 40000 10267 20260 39990 49998 81530 333 59027 70000 81618 83365==
41939,2023,06,11,21,00,AAXX 11214 41939 02450 30000 10267 20260 30010 40018 81530 333 59005 70000 81618 83365==
41939,2023,06,12,00,00,AAXX 12004 41939 02456 30000 10272 20260 39997 40005 82530 333 58006 70000 82618==
41939,2023,06,12,03,00,AAXX 12034 41939 02458 50000 10320 20280 30006 40014 82530 333 20263 58005 70000 82618 83365==
41939,2023,06,12,06,00,AAXX 12064 41939 02457 60000 10302 20250 39998 40006 83510 333 58006 70000 83618 86460==
41939,2023,06,12,09,00,AAXX 12094 41939 01450 80000 10265 20250 39974 49982 70396 8352/ 333 58003 70294 83616 88459==
41939,2023,06,12,12,00,AAXX 12124 41939 21456 80000 10260 20250 39977 49985 70296 8252/ 333 10345 58016 60298 70294 82617 88459==
41939,2023,06,12,15,00,AAXX 12154 41939 02456 80000 10258 20250 39993 40001 8352/ 333 58017 70294 83617 88459==
41939,2023,06,12,18,00,AAXX 12184 41939 NIL=
41939,2023,06,12,21,00,AAXX 12214 41939 02450 80000 10260 20250 39995 40003 8352/ 333 59015 70294 83618 88459==
41939,2023,06,13,00,00,AAXX 13004 41939 02456 80000 10263 20250 39984 49992 8352/ 333 59013 70294 83618 88459==
41939,2023,06,13,03,00,AAXX 13034 41939 02458 70000 10290 20260 39996 40004 83510 333 20250 59010 70294 83618 86459==
41939,2023,06,13,06,00,AAXX 13064 41939 02458 50000 10350 20280 39982 49990 82510 333 59016 70294 82617 85459==
41939,2023,06,13,09,00,AAXX 13094 41939 02456 70000 10343 20280 39969 49977 83510 333 59005 70000 83616 87459==
41939,2023,06,13,12,00,AAXX 13124 41939 02456 80000 10272 20230 39959 49967 8352/ 333 10352 59018 70000 83617 88459==
41939,2023,06,13,15,00,AAXX 13154 41939 02450 60000 10270 20240 30000 40008 82510 333 58007 70000 82617 86459==
41939,2023,06,13,18,00,AAXX 13184 41939 02450 60000 10266 20250 30015 40023 82510 333 58010 70000 82617 85459==
41939,2023,06,13,21,00,AAXX 13214 41939 02456 40000 10260 20250 30010 40018 82530 333 58015 70000 82618 83364==
41939,2023,06,14,00,00,AAXX 14004 41939 02456 50000 10290 20280 39992 40000 83530 333 58008 70000 83617 83364==
41939,2023,06,14,12,00,AAXX 14124 41939 02957 00000 10347 20280 39962 49970 333 10380 58003 70000==
41939,2023,06,14,15,00,AAXX 14154 41939 02950 00000 10316 20270 39978 49986 333 59022 70000==
41939,2023,06,14,18,00,AAXX 14184 41939 02950 00000 10300 20270 39986 49994 333 59029 70000==
41939,2023,06,14,21,00,AAXX 14214 41939 02450 60000 10295 20280 39995 40005 82530 333 58002 70000 82617 86459==
41939,2023,06,15,00,00,AAXX 15004 41939 11450 80000 10290 20280 39999 40007 60056 76122 8352/ 333 58007 70048 83616 88458==
41939,2023,06,15,03,00,AAXX 15034 41939 02456 80000 10260 20240 30016 40024 8352/ 333 20250 58001 70048 83617 88459==
41939,2023,06,15,06,00,AAXX 15064 41939 02457 80000 10309 20220 30011 40018 8351/ 333 58004 70048 83616 88459==
41939,2023,06,15,09,00,AAXX 15094 41939 02458 60000 10332 20270 39967 49975 83510 333 59009 70048 83618 85459==
41939,2023,06,15,12,00,AAXX 15124 41939 02457 40000 10320 20270 39982 49990 82530 333 10336 58020 70048 82618 83365==
41939,2023,06,15,15,00,AAXX 15154 41939 02456 40000 10300 20270 39992 40000 82530 333 58014 70048 82618 83364==
41939,2023,06,15,18,00,AAXX 15183 41939 02456 50000 10288 20280 30015 40023 83530 333 58029 70048 83617 83364==
41939,2023,06,15,21,00,AAXX 15214 41939 02450 60000 10280 20260 30006 40014 83510 333 58009 70048 83618 85459==
41941,2023,06,09,00,00,AAXX 09004 41941 02450 80000 10280 20280 30007 40012 8632/ 333 59009 70050 85616 88458 81930==
41941,2023,06,09,03,00,AAXX 09034 41941 02456 80000 10308 20270 30014 40019 8632/ 333 20270 59012 70050 85616 88458 81930==
41941,2023,06,09,06,00,AAXX 09064 41941 11440 80903 10260 20260 30017 40022 60022 79596 8792/ 333 59002 70100 85612 88456 82925==
41941,2023,06,09,09,00,AAXX 09094 41941 01450 80000 10262 20262 39992 49997 72996 8792/ 333 59001 70266 85612 88456 82925==
41941,2023,06,09,12,00,AAXX 09124 41941 21450 83603 10253 20250 39989 49994 70296 8632/ 333 10316 59005 60207 70266 85616 88458 81930==
41941,2023,06,09,15,00,AAXX 09154 41941 01440 80000 10260 20260 39992 49997 71322 8632/ 333 59014 70266 85616 88458 81930==
41941,2023,06,09,18,00,AAXX 09184 41941 01440 80000 10265 20265 30008 40013 71322 8632/ 333 59008 70266 85616 88458 81930==
41941,2023,06,09,21,00,AAXX 09214 41941 01440 80000 10264 20260 30003 40008 71322 8632/ 333 59004 70266 85616 88458 81930==
41941,2023,06,10,00,00,AAXX 10004 41941 01450 80000 10264 20260 39993 49999 71322 8632/ 333 59014 70266 85616 88458 81930==
41941,2023,06,10,03,00,AAXX 10034 41941 02450 80000 10285 20280 39998 40003 8632/ 333 20255 59016 70266 85616 88458 81930==
41941,2023,06,10,06,00,AAXX 10064 41941 01440 80403 10265 20265 39997 40002 76162 8632/ 333 59020 70020 85612 88456 81925==
41941,2023,06,10,09,00,AAXX 10094 41941 01450 80000 10260 20260 39990 49995 72166 8632/ 333 59002 70070 85613 88456 81926==
41941,2023,06,10,12,00,AAXX 10124 41941 11456 70000 10278 20260 39979 49987 60056 70166 85420 333 10308 59010 70070 84616 87458==
41941,2023,06,10,15,00,AAXX 10154 41941 02450 60000 10265 20260 39996 40002 85420 333 58004 70070 84616 86458==
41941,2023,06,11,00,00,AAXX 11004 41941 02450 80000 10265 20260 39991 49997 8632/ 333 59002 70070 85616 88458 81928==
41941,2023,06,11,03,00,AAXX 11034 41941 01450 80903 10270 20260 30003 40009 70262 8632/ 333 20260 58005 70090 85613 88456 81925==
41941,2023,06,11,06,00,AAXX 11064 41941 11450 80902 10305 20260 39998 40003 60026 70262 8632/ 333 58001 70070 85615 88458 81928==
41941,2023,06,11,09,00,AAXX 11094 41941 02450 80903 10306 20260 39981 49986 8632/ 333 59009 70020 85615 88458 81928==
41941,2023,06,11,12,00,AAXX 11124 41941 02450 61802 10284 20250 39979 49984 85420 333 10317 58000 70020 84616 86458==
41941,2023,06,11,15,00,AAXX 11154 41941 02440 61802 10273 20250 39995 40000 85420 333 59001 70020 84616 86458==
41941,2023,06,11,18,00,AAXX 11184 41941 NIL=
41941,2023,06,11,21,00,AAXX 11214 41941 02440 60000 10266 20260 30004 40010 85420 333 58006 70020 84616 86458==
41941,2023,06,12,00,00,AAXX 12004 41941 02450 80000 10265 20260 39999 40005 8632/ 333 58008 70020 85615 88458 81928==
41941,2023,06,12,03,00,AAXX 12034 41941 02450 81803 10305 20280 30009 40015 8632/ 333 20260 58006 70000 85615 88458 81928==
41941,2023,06,12,06,00,AAXX 12064 41941 02450 61802 10332 20280 30003 40009 85420 333 58005 70000 84616 86458==
41941,2023,06,12,09,00,AAXX 12094 41941 01450 81803 10263 20250 39983 49988 72996 8632/ 333 58002 70050 85614 88456 81925==
41941,2023,06,12,12,00,AAXX 12124 41941 11450 81802 10260 20250 39986 49992 60056 70296 8632/ 333 10336 58007 70050 85614 88456 81925==
41941,2023,06,12,15,00,AAXX 12154 41941 02440 80000 10257 20250 39999 40005 8632/ 333 58004 70050 85614 88456 81925==
41941,2023,06,12,18,00,AAXX 12184 41941 02440 60000 10255 20250 30013 40019 85420 333 58006 70050 84616 86458==
41941,2023,06,12,21,00,AAXX 12214 41941 02440 60000 10255 20250 30010 40015 85420 333 58006 70050 84616 86458==
41941,2023,06,13,00,00,AAXX 13004 41941 02450 80000 10255 20255 39998 40003 8632/ 333 59001 70050 85616 88458 81930==
41941,2023,06,13,03,00,AAXX 13034 41941 02450 81802 10305 20290 30004 40010 8632/ 333 20255 59005 70050 85616 88458 81930==
41941,2023,06,13,06,00,AAXX 13064 41941 02450 81802 10335 20290 39993 49998 8632/ 333 59010 70050 85616 88458 81930==
41941,2023,06,13,09,00,AAXX 13094 41941 02456 61803 10347 20260 39981 49987 85420 333 59002 70000 84618 86458==
41941,2023,06,13,12,00,AAXX 13124 41941 02450 81804 10320 20270 39965 49971 8632/ 333 10352 59021 70000 85616 88458 81930==
41941,2023,06,13,15,00,AAXX 13154 41941 02440 81802 10290 20270 39991 49996 8632/ 333 59008 70000 85616 88458 81930==
41941,2023,06,13,18,00,AAXX 13184 41941 02440 81803 10288 20260 39986 49991 8632/ 333 59027 70000 85616 88458 81930==
41941,2023,06,13,21,00,AAXX 13214 41941 02440 61804 10287 20260 39990 49995 85420 333 59020 70000 84616 86458==
41941,2023,06,14,00,00,AAXX 14004 41941 02450 61806 10295 20290 39992 49997 85420 333 59006 70000 84616 86458==
41941,2023,06,14,12,00,AAXX 14124 41941 02450 61805 10325 20290 39980 49986 85420 333 10370 59015 70000 84616 86458==
41941,2023,06,14,15,00,AAXX 14154 41941 02440 61803 10305 20290 39991 49997 85420 333 58000 70000 84616 86458==
41941,2023,06,14,18,00,AAXX 14184 41941 02440 61804 10300 20290 39999 40005 85420 333 58013 70000 84616 86458==
41941,2023,06,14,21,00,AAXX 14214 41941 02440 61804 10298 20290 39992 49998 85420 333 58002 70000 84616 86458==
41941,2023,06,15,00,00,AAXX 15004 41941 01450 61804 10287 20287 30000 40006 72122 85420 333 58008 70040 84616 86458==
41941,2023,06,15,03,00,AAXX 15034 41941 02450 81806 10261 20240 30012 40018 8632/ 333 20261 58016 70040 85616 88458 81930==
41941,2023,06,15,06,00,AAXX 15064 41941 02456 71403 10280 20240 30017 40022 85420 333 58023 70040 84616 87458==
41941,2023,06,15,09,00,AAXX 15094 41941 02456 71403 10320 20290 30000 40006 85420 333 58012 70040 84616 87458==
41941,2023,06,15,12,00,AAXX 15124 41941 02456 71804 10315 20290 39993 49999 85420 333 10335 58013 70040 84616 87458==
41941,2023,06,15,15,00,AAXX 15154 41941 02450 71803 10305 20290 30005 40010 85420 333 58014 70040 84616 87458==
41941,2023,06,15,18,00,AAXX 15183 41941 NIL=
41941,2023,06,15,21,00,AAXX 15214 41941 01440 71803 10295 20290 30004 40010 71322 8632/ 333 58012 70040 85616 88458 81930==
41943,2023,06,09,00,00,AAXX 09004 41943 02430 80000 10265 20260 39997 40004 8662/ 333 59012 70990 83710 84615 88458==
41943,2023,06,09,03,00,AAXX 09034 41943 02430 80000 10280 20260 30010 40018 8662/ 333 20245 59010 70980 83710 82615 88458==
41943,2023,06,09,04,00,AAXX 09044 41943 02430 80000 10280 20260 30010 40018 8662/ 333 20245 59010 70980 83710 82615 88458==
41943,2023,06,09,06,00,AAXX 09064 41943 01330 80000 10260 20250 30009 40016 76066 8772/ 333 59008 70250 84709 84614 88456==
41943,2023,06,09,09,00,AAXX 09094 41943 01430 63102 10300 20250 39983 49990 70162 83520 333 59004 70270 83616 85458==
41943,2023,06,09,12,00,AAXX 09124 41943 11430 80000 10275 20240 39976 49983 60016 70362 8662/ 333 10305 59010 70260 83710 84615 88458==
41943,2023,06,09,15,00,AAXX 09154 41943 02430 81302 10270 20250 30002 40009 8662/ 333 59005 70260 83710 84615 88458==
41943,2023,06,09,18,00,AAXX 09184 41943 02430 80000 10268 20250 30009 40016 8662/ 333 58000 70260 83710 84615 88458==
41943,2023,06,09,21,00,AAXX 09214 41943 02430 80000 10267 20250 30004 40011 8662/ 333 59003 70260 83710 84615 88458==
41943,2023,06,10,00,00,AAXX 10004 41943 02430 80000 10255 20250 39978 49985 8662/ 333 59019 70260 83710 84615 88458==
41943,2023,06,10,03,00,AAXX 10034 41943 02440 80000 10270 20250 30002 40009 8762/ 333 20255 59008 70260 84709 84615 88458==
41943,2023,06,10,06,00,AAXX 10064 41943 21330 83302 10252 20250 39993 40000 79596 8792/ 333 59016 60197 70200 84708 84612 88456 82925==
41943,2023,06,10,09,00,AAXX 10094 41943 01330 83602 10250 20240 39971 49978 76166 8772/ 333 59012 70320 84708 84613 88456==
41943,2023,06,10,12,00,AAXX 10124 41943 21330 80902 10255 20250 39961 49968 76166 8772/ 333 10275 59015 60219 70400 84708 84613 88456==
41943,2023,06,10,15,00,AAXX 10154 41943 02430 80000 10255 20250 39988 49995 8662/ 333 59014 70400 83710 84615 88458==
41943,2023,06,10,18,00,AAXX 10184 41943 02430 81802 10260 20250 30001 40008 8662/ 333 59008 70400 84710 84615 88458==
41943,2023,06,10,21,00,AAXX 10214 41943 02430 80000 10256 20250 39992 49999 8662/ 333 59012 70400 83710 84615 88458==
41943,2023,06,11,00,00,AAXX 11004 41943 02430 81802 10257 20250 39991 49998 8662/ 333 58013 70400 83710 84615 88458==
41943,2023,06,11,03,00,AAXX 11034 41943 02330 81302 10258 20240 30011 40118 8762/ 333 20245 58009 70400 84709 84615 88456==
41943,2023,06,11,06,00,AAXX 11064 41943 21330 81302 10250 20240 30002 40009 76366 8772/ 333 58009 60217 70420 84708 84613 88456==
41943,2023,06,11,09,00,AAXX 11094 41943 02430 81802 10270 20240 39985 49992 8662/ 333 58014 70290 83710 84615 88458==
41943,2023,06,11,12,00,AAXX 11124 41943 02430 80000 10270 20240 39975 49982 8662/ 333 10273 58011 70210 83710 84615 88458==
41943,2023,06,11,15,00,AAXX 11154 41943 02430 80000 10264 20240 39992 49999 8662/ 333 58004 70210 83710 84615 88458==
41943,2023,06,11,18,00,AAXX 11184 41943 02430 80000 10259 20250 39999 40006 333 58004 70000==
41943,2023,06,11,21,00,AAXX 11214 41943 02430 80000 10250 20240 39996 40003 8662/ 333 58004 70210 83710 84615 88458==
41943,2023,06,12,00,00,AAXX 12004 41943 02430 81302 10247 20240 39999 40006 8662/ 333 58008 70210 83710 84615 88458==
41943,2023,06,12,03,00,AAXX 12034 41943 02435 71803 10305 20260 30010 40017 84520 333 20246 59001 70210 84616 85458==
41943,2023,06,12,06,00,AAXX 12064 41943 01340 81802 10285 20280 30006 40013 76162 8772/ 333 58004 70040 83709 84613 88458==
41943,2023,06,12,09,00,AAXX 12094 41943 01440 71802 10314 20260 39988 49995 70162 84520 333 58003 70050 84315 87458==
41943,2023,06,12,12,00,AAXX 12124 41943 01330 80000 10246 20246 39982 49989 70362 8662/ 333 10320 58007 70070 83710 84614 88458==
41943,2023,06,12,15,00,AAXX 12154 41943 02330 80000 10246 20240 39992 49997 8662/ 333 58000 70070 83710 84614 88458==
41943,2023,06,12,18,00,AAXX 12184 41943 02330 80000 10248 20240 30005 40012 8662/ 333 58006 70070 83710 84615 88458==
41943,2023,06,12,21,00,AAXX 12214 41943 02330 80000 10250 20250 30002 40009 8662/ 333 58006 70070 83710 84614 88458==
41943,2023,06,13,00,00,AAXX 13004 41943 02330 80000 10254 20240 39992 49999 8662/ 333 59007 70070 83710 84614 88458==
41943,2023,06,13,03,00,AAXX 13034 41943 02435 61804 10304 20250 30006 40013 84520 333 20240 59004 70070 84616 85458==
41943,2023,06,13,06,00,AAXX 13064 41943 02440 61804 10327 20270 30005 40012 84520 333 59001 70030 84616 84458==
41943,2023,06,13,09,00,AAXX 13094 41943 02440 51802 10334 20260 39979 49986 83530 333 59009 70020 83616 83362==
41943,2023,06,13,12,00,AAXX 13124 41943 02330 80000 10298 20260 39976 49983 8662/ 333 10345 59006 70000 83710 84615 88458==
41943,2023,06,13,15,00,AAXX 13154 41943 02330 80000 10290 20260 39990 49997 8662/ 333 59002 70000 83710 84615 88458==
41943,2023,06,13,18,00,AAXX 13184 41943 02330 81804 10292 20260 39994 40001 8662/ 333 59011 70000 83710 84615 88458==
41943,2023,06,13,21,00,AAXX 13214 41943 02330 81803 10286 20270 39995 40002 8662/ 333 59007 70000 84615 88458==
41943,2023,06,14,00,00,AAXX 14004 41943 02330 81802 10280 20260 39997 40004 8662/ 333 58005 70000 83710 84615 88458==
41943,2023,06,14,06,00,AAXX 14064 41943 02440 61804 10340 20260 30002 40009 83520 333 59003 70000 83616 84458==
41943,2023,06,14,09,00,AAXX 14094 41943 02440 61804 10330 20260 39989 49996 83520 333 58010 70000 83616 84458==
41943,2023,06,14,12,00,AAXX 14124 41943 02440 61802 10306 20270 39988 49995 83520 333 10346 58012 70000 83616 84458==
41943,2023,06,14,15,00,AAXX 14154 41943 02330 81804 10294 20250 39999 40006 8662/ 333 58009 70000 83710 84615 88458==
41943,2023,06,14,18,00,AAXX 14184 41943 02330 81804 10292 20260 30012 40019 8662/ 333 58018 70000 83710 84615 88458==
41943,2023,06,14,21,00,AAXX 14214 41943 02330 81802 10260 20260 30014 40021 8662/ 333 58019 70000 83710 84615 88458==
41943,2023,06,15,00,00,AAXX 15004 41943 02330 80000 10288 20260 30016 40023 8662/ 333 58019 70000 83710 84615 88458==
41943,2023,06,15,03,00,AAXX 15034 41943 01330 81806 10270 20240 30025 40032 70362 8662/ 333 20270 58021 70120 83710 84615 88458==
41943,2023,06,15,06,00,AAXX 15064 41943 11330 81802 10252 20230 30026 40033 60126 70262 8662/ 333 58024 70120 83710 84615 88458==
41943,2023,06,15,09,00,AAXX 15094 41943 01435 71802 10312 20260 30006 40013 74520 333 58017 70120 84615 86458==
41943,2023,06,15,12,00,AAXX 15124 41943 02440 51802 10298 20260 39999 40006 83520 333 10316 58011 70120 83616 84458==
41943,2023,06,15,15,00,AAXX 15154 41943 02330 81802 10290 20270 30009 40016 8662/ 333 58010 70120 83710 84615 88458==
41943,2023,06,15,18,00,AAXX 15184 41943 02330 81804 10287 20270 30012 40019 8662/ 333 58000 70120 83710 84615 88458==
41943,2023,06,15,21,00,AAXX 15214 41943 02330 81802 10287 20270 30011 40018 8662/ 333 59003 70120 83710 84615 88458==
41944,2023,06,09,06,00,AAXX 09064 41944 NIL=
41944,2023,06,09,12,00,AAXX 09124 41944 NIL=
41944,2023,06,09,18,00,AAXX 09184 41944 NIL=
41944,2023,06,10,00,00,AAXX 10004 41944 NIL=
41944,2023,06,10,06,00,AAXX 10064 41944 NIL=
41944,2023,06,11,12,00,AAXX 11124 41944 NIL=
41944,2023,06,11,18,00,AAXX 11184 41944 NIL=
41944,2023,06,12,00,00,AAXX 12004 41944 NIL=
41944,2023,06,12,06,00,AAXX 12064 41944 NIL=
41944,2023,06,12,12,00,AAXX 12124 41944 NIL=
41944,2023,06,12,18,00,AAXX 12184 41944 NIL=
41944,2023,06,13,00,00,AAXX 13004 41944 NIL=
41944,2023,06,13,06,00,AAXX 13064 41944 NIL=
41944,2023,06,13,12,00,AAXX 13124 41944 NIL=
41944,2023,06,14,00,00,AAXX 14004 41944 NIL=
41944,2023,06,15,00,00,AAXX 15004 41944 NIL=
41944,2023,06,15,06,00,AAXX 15064 41944 NIL=
41944,2023,06,15,18,00,AAXX 15183 41944 NIL=
41946,2023,06,09,00,00,AAXX 09004 41946 42456 80000 10290 20280 30002 40007 8352/ 333 59008 83618 88460==
41946,2023,06,09,03,00,AAXX 09034 41946 42456 80000 10320 20270 30006 40011 8352/ 333 20288 59018 83618 88460==
41946,2023,06,09,06,00,AAXX 09064 41946 42456 80000 10332 20270 39997 40002 8352/ 333 59022 83618 88460==
41946,2023,06,09,09,00,AAXX 09094 41946 02456 71802 10330 20260 39980 49985 83520 333 59010 70000 83618 87460==
41946,2023,06,09,12,00,AAXX 09124 41946 01350 83101 10238 20230 30003 40008 79522 8692/ 333 20341 58014 70280 82708 84616 88458 81929==
41946,2023,06,09,15,00,AAXX 09154 41946 01356 82201 10250 20230 30010 40015 76196 8532/ 333 58008 70574 81710 83617 88459 81929==
41946,2023,06,09,18,00,AAXX 09184 41946 01456 82201 10261 20210 39986 49991 70296 8352/ 333 59022 70578 83618 88460==
41946,2023,06,09,21,00,AAXX 09214 41946 02456 80000 10256 20230 39972 49977 8252/ 333 59028 70578 82618 88460==
41946,2023,06,10,00,00,AAXX 10004 41946 02456 80000 10250 20240 39983 49988 8252/ 333 59019 70578 82618 88460==
41946,2023,06,10,03,00,AAXX 10034 41946 02456 80000 10290 20210 39998 40003 8352/ 333 20225 59008 70578 82618 88460==
41946,2023,06,10,06,00,AAXX 10064 41946 02456 80000 20230 39994 49999 8254/ 333 59003 70578 82618 88460==
41946,2023,06,10,09,00,AAXX 10094 41946 02456 80000 10325 20250 39979 49984 8251/ 333 59001 70578 82618 88460==
41946,2023,06,10,12,00,AAXX 10124 41946 02/56 60000 10320 20230 39970 49975 86070 333 10325 59033 70296 84460 83362==
41946,2023,06,10,15,00,AAXX 10154 41946 02556 60000 10293 20260 39995 49999 83420 333 59015 70004 82620 84459==
41946,2023,06,10,18,00,AAXX 10184 41946 02/56 50000 10288 20260 39994 49998 85020 333 58008 70000 85459==
41946,2023,06,11,00,00,AAXX 11004 41946 02/56 70000 10282 20270 39980 49984 87020 333 59003 70000 87459==
41946,2023,06,11,03,00,AAXX 11034 41946 02456 71802 10320 20260 39994 49999 82510 333 20275 59004 70000 82618 85460==
41946,2023,06,11,06,00,AAXX 11063 41946 02456 70000 10350 20270 39981 49986 86410 333 59013 70000 84618 83460==
41946,2023,06,11,09,00,AAXX 11094 41946 02557 60000 10350 20270 39960 49964 84320 333 59019 70000 83620 84459 81929==
41946,2023,06,11,12,00,AAXX 11124 41946 02456 51602 10337 20260 39955 49959 85400 333 10355 59015 70000 83618 83820==
41946,2023,06,11,15,00,AAXX 11153 41946 02456 80000 10275 20250 39998 40003 8532/ 333 58003 70000 83618 88459 81929==
41946,2023,06,11,18,00,AAXX 11184 41946 21456 80000 10270 20250 39987 49992 70296 8352/ 333 59007 60015 70010 83618 88460==
41946,2023,06,11,21,00,AAXX 11214 41946 02456 80000 10285 20290 39986 49991 8352/ 333 58011 70010 83618 88460==
41946,2023,06,12,00,00,AAXX 12003 41946 02456 80000 10290 20280 39991 49996 8352/ 333 58011 70010 83618 88460==
41946,2023,06,12,03,00,AAXX 12033 41946 02456 70000 10330 20290 39997 40002 83510 333 20255 58003 70010 83618 85460==
41946,2023,06,12,06,00,AAXX 12064 41946 02456 71801 10350 20280 39992 49997 83510 333 58011 70010 83618 85460==
41946,2023,06,12,09,00,AAXX 12093 41946 02557 40000 10361 20260 39967 49971 83501 333 58007 70010 83620==
41946,2023,06,12,12,00,AAXX 12124 41946 02456 60000 10321 20250 39973 49978 83320 333 10363 58018 70010 82618 86460 81929==
41946,2023,06,12,15,00,AAXX 12154 41946 02/56 30000 10310 20270 39984 49989 83010 333 59014 70010 83459==
41946,2023,06,12,18,00,AAXX 12184 41946 02456 60000 10296 20270 39996 40001 83420 333 58009 70000 82618 85459==
41946,2023,06,12,21,00,AAXX 12214 41946 02556 50000 10292 20270 39980 49985 85400 333 59006 70000 84620==
41946,2023,06,13,00,00,AAXX 13004 41946 02456 60000 10288 20280 39984 49989 84420 333 59007 70000 83618 84459==
41946,2023,06,13,03,00,AAXX 13034 41946 02456 60000 10322 20260 39997 40002 84420 333 20285 58000 70000 83618 84459==
41946,2023,06,13,06,00,AAXX 13064 41946 02456 60000 10340 20270 39980 49985 84420 333 58007 70000 83618 84459==
41946,2023,06,13,09,00,AAXX 13093 41946 02456 60000 10377 20260 39957 49961 84420 333 59010 70000 83618 84459==
41946,2023,06,13,12,00,AAXX 13124 41946 02456 80000 10330 20290 39959 49964 8352/ 333 10378 59014 70000 83618 88460==
41946,2023,06,13,15,00,AAXX 13154 41946 01356 81801 10278 20240 39978 49983 76196 8532/ 333 59006 70360 81709 83617 88459 81929==
41946,2023,06,13,18,00,AAXX 13184 41946 01456 20000 10300 20280 39980 49985 70196 82500 333 59016 70364 82618==
41946,2023,06,13,21,00,AAXX 13214 41946 02456 20000 10302 20270 39980 49985 82500 333 58000 70364 82618==
41946,2023,06,14,00,00,AAXX 14004 41946 02456 41701 10304 20270 39981 49986 81502 333 59003 70364 81618 83080==
41946,2023,06,14,12,00,AAXX 14124 41946 02956 21701 10350 20260 39966 49970 80001 333 10385 58007 70364 82080==
41946,2023,06,14,15,00,AAXX 14154 41946 02956 20000 10322 20270 39983 49988 80001 333 58005 70004 82080==
41946,2023,06,14,18,00,AAXX 14184 41946 02456 20000 10315 20290 39991 49996 82500 333 58011 70000 82618==
41946,2023,06,14,21,00,AAXX 14214 41946 02456 71802 10300 20270 39983 49988 83320 333 58003 70000 82618 87460 81929==
41946,2023,06,15,00,00,AAXX 15004 41946 01456 70000 10288 20270 39993 49998 70296 83320 333 58012 70040 82618 87460 81929==
41946,2023,06,15,03,00,AAXX 15034 41946 01456 80000 10310 20290 30010 40015 72122 8462/ 333 20260 58017 70040 84618 88460==
41946,2023,06,15,06,00,AAXX 15064 41946 21456 71802 10350 20280 30005 40010 70162 83510 333 58020 60005 70040 83618 86460==
41946,2023,06,15,09,00,AAXX 15094 41946 02456 61802 10352 20280 39988 49993 82520 333 58018 70040 82618 86460==
41946,2023,06,15,12,00,AAXX 15124 41946 02456 61802 10326 20280 39976 49981 82502 333 10355 58010 70040 82618 84080==
41946,2023,06,15,15,00,AAXX 15154 41946 02456 51604 10311 20280 39995 40000 85400 333 58012 70040 83618 83820==
41946,2023,06,15,18,00,AAXX 15183 41946 02556 40000 10308 20280 39993 49998 84400 333 58002 70040 83620==
41946,2023,06,15,21,00,AAXX 15214 41946 02556 40000 10307 20290 39980 49985 84500 333 59003 70040 84620==
41947,2023,06,09,00,00,AAXX 09004 41947 02450 80000 10295 20280 39997 49999 8352/ 333 58002 70004 83618 88458==
41947,2023,06,09,03,00,AAXX 09034 41947 02450 80000 10315 20270 30097 40100 333 20288 59015 70004 83618 88458==
41947,2023,06,09,06,00,AAXX 09064 41947 02450 80000 10330 20280 39993 49996 8352/ 333 59018 70000 83618 88458==
41947,2023,06,09,09,00,AAXX 09094 41947 02456 71805 10320 20270 39981 49983 83510 333 59006 70000 83618 87459==
41947,2023,06,09,12,00,AAXX 09124 41947 01350 80000 10255 20250 39977 49980 79162 8532/ 333 10335 59011 70020 82709 84616 88459 81930==
41947,2023,06,09,15,00,AAXX 09154 41947 01456 82102 10260 20250 39997 49999 70262 8352/ 333 59001 70036 83618 88459==
41947,2023,06,09,18,00,AAXX 09184 41947 11456 81802 10260 20240 39990 49993 60026 70262 8352/ 333 59017 70036 83618 88459==
41947,2023,06,09,21,00,AAXX 09214 41947 02456 80000 10264 20250 39976 49978 8352/ 333 59034 70036 83618 88459==
41947,2023,06,10,00,00,AAXX 10004 41947 02456 80000 10262 20240 39974 49976 8352/ 333 59023 70036 83618 88459==
41947,2023,06,10,03,00,AAXX 10034 41947 02456 80000 10282 20240 39988 49990 8352/ 333 20248 59009 70036 83618 88459==
41947,2023,06,10,06,00,AAXX 10064 41947 02456 80000 10308 20240 39983 49986 8352/ 333 59010 70036 83618 88459==
41947,2023,06,10,09,00,AAXX 10094 41947 02456 81802 10320 20240 39974 49976 8452/ 333 59007 70036 84616 88458==
41947,2023,06,10,12,00,AAXX 10124 41947 02456 81802 10302 20250 39966 49968 8452/ 333 10325 59012 70016 84616 88458==
41947,2023,06,10,15,00,AAXX 10154 41947 02450 81802 10282 20260 39984 49986 8452/ 333 58007 70000 84616 88458==
41947,2023,06,10,18,00,AAXX 10184 41947 02450 80000 10276 20260 39998 40000 8452/ 333 58006 70000 84616 88458==
41947,2023,06,11,00,00,AAXX 11004 41947 02450 80000 10275 20270 39972 49974 8452/ 333 59002 70000 84616 88458==
41947,2023,06,11,03,00,AAXX 11034 41947 02456 81303 10315 20280 39984 49987 8352/ 333 20272 59003 70000 83618 88459==
41947,2023,06,11,06,00,AAXX 11064 41947 02456 70000 10350 20270 39977 49979 83570 333 59007 70000 83618 85459==
41947,2023,06,11,09,00,AAXX 11094 41947 02457 60902 10352 20260 39960 49962 86300 333 59014 70000 83618 83820 81930==
41947,2023,06,11,12,00,AAXX 11124 41947 02/57 21305 10318 20250 39957 49959 82030 333 10363 59009 70000 82362==
41947,2023,06,11,15,00,AAXX 11154 41947 02456 60000 10290 20250 39980 49982 83510 333 59004 70000 83618 84459==
41947,2023,06,11,18,00,AAXX 11184 41947 02456 31302 10282 20250 39985 49988 83500 333 59012 70000 83618==
41947,2023,06,11,21,00,AAXX 11214 41947 02456 30000 10286 20260 39980 49982 83500 333 59002 70000 83618==
41947,2023,06,12,00,00,AAXX 12004 41947 02456 61503 10288 20280 39978 49981 83570 333 58007 70000 83618 84459==
41947,2023,06,12,03,00,AAXX 12034 41947 02456 61302 10320 20270 39991 49994 86400 333 20276 58007 70000 83618 83820==
41947,2023,06,12,06,00,AAXX 12064 41947 02456 71802 10350 20270 39982 49985 83570 333 58006 70000 83618 86458==
41947,2023,06,12,09,00,AAXX 12093 41947 01456 81801 10318 20240 39967 49969 72922 8532/ 333 58007 70000 84616 88458 81930==
41947,2023,06,12,12,00,AAXX 12124 41947 01450 81802 10284 20230 39962 49964 70292 8452/ 333 10365 58001 70000 84616 88458==
41947,2023,06,12,15,00,AAXX 12154 41947 02450 81802 10278 20240 39980 49982 8452/ 333 58000 70000 84616 88458==
41947,2023,06,12,18,00,AAXX 12184 41947 02450 80000 10275 20240 39987 49989 8452/ 333 58001 70000 84616 88458==
41947,2023,06,12,21,00,AAXX 12214 41947 02450 80000 10273 20250 39990 49992 8452/ 333 58010 70000 84616 88458==
41947,2023,06,13,00,00,AAXX 13004 41947 02450 80000 10270 20260 39984 49986 8452/ 333 58005 70000 84616 88458==
41947,2023,06,13,03,00,AAXX 13034 41947 02456 71802 10325 20280 39986 49989 83570 333 20265 59005 70000 83618 86458==
41947,2023,06,13,06,00,AAXX 13064 41947 02456 61802 10351 20280 39971 49974 86400 333 59011 70000 83618 83820==
41947,2023,06,13,09,00,AAXX 13093 41947 02456 61802 10370 20260 39965 49967 83570 333 59002 70000 83618 85458==
41947,2023,06,13,12,00,AAXX 13124 41947 02456 81804 10298 20250 39954 49956 8352/ 333 10375 59008 70000 83618 88458==
41947,2023,06,13,15,00,AAXX 13154 41947 01450 81403 10270 20240 39972 49974 70292 8352/ 333 59008 70000 83618 88458==
41947,2023,06,13,18,00,AAXX 13184 41947 01450 60000 10270 20240 39974 49976 70192 83570 333 59006 70000 83618 85458==
41947,2023,06,13,21,00,AAXX 13214 41947 02450 30000 10295 20290 39975 49977 83500 333 59010 70000 83618==
41947,2023,06,14,00,00,AAXX 14004 41947 02450 20000 10300 20290 39980 49982 82500 333 59004 70000 82618==
41947,2023,06,14,12,00,AAXX 14124 41947 02957 22106 10362 20240 39966 49968 80001 333 10400 58012 70000 82080==
41947,2023,06,14,15,00,AAXX 14154 41947 02/56 32105 10323 20270 39983 49986 83030 333 58012 70000 83362==
41947,2023,06,14,18,00,AAXX 14184 41947 02456 82103 10310 20290 30004 40006 8352/ 333 58031 70000 83618 88459==
41947,2023,06,14,21,00,AAXX 14214 41947 02456 82106 10302 20280 30002 40004 8352/ 333 58027 70000 83618 88459==
41947,2023,06,15,00,00,AAXX 15004 41947 01356 81504 10300 20290 39998 40000 72122 8562/ 333 58018 70020 81710 84616 88458==
41947,2023,06,15,03,00,AAXX 15034 41947 02450 80000 10300 20280 30003 40006 8352/ 333 20296 58017 70020 83618 88458==
41947,2023,06,15,06,00,AAXX 15064 41947 11450 81803 10333 20290 39997 40000 69992 70262 8352/ 333 58018 70022 83618 88458==
41947,2023,06,15,09,00,AAXX 15094 41947 02450 81805 10352 20270 39986 49988 83521 333 58016 70022 83618 88458==
41947,2023,06,15,12,00,AAXX 15124 41947 02450 51807 10328 20270 39980 49982 83570 333 10355 58014 70022 83618 88458==
41947,2023,06,15,15,00,AAXX 15154 41947 02950 31804 10310 20280 30002 40004 83500 333 58016 70022 83618==
41947,2023,06,15,18,00,AAXX 15184 41947 02450 31805 10300 20280 39993 49995 83500 333 59010 70022 83618==
41950,2023,06,09,00,00,AAXX 09004 41950 01340 80000 10277 20277 30002 40004 70522 8562/ 333 59003 70154 82708 84616 88458==
41950,2023,06,09,03,00,AAXX 09034 41950 01340 80000 10296 20280 30014 40016 76122 8572/ 333 20250 59011 70142 82708 84616 88458==
41950,2023,06,09,06,00,AAXX 09064 41950 21350 81802 10292 20260 30014 40016 70262 8562/ 333 59020 60037 70098 82708 84616 88458==
41950,2023,06,09,09,00,AAXX 09094 41950 01340 80902 10285 20270 39996 49998 75162 8572/ 333 58002 70028 82708 84616 88459==
41950,2023,06,09,12,00,AAXX 09124 41950 01350 80000 10274 20250 39988 49990 70265 8562/ 333 10309 59008 70032 82708 84616 88458==
41950,2023,06,09,15,00,AAXX 09154 41950 02350 80000 10272 20250 30004 40006 8562/ 333 59004 70032 82708 84616 88458==
41950,2023,06,09,18,00,AAXX 09184 41950 02350 80000 10260 20240 30006 40008 8562/ 333 59008 70032 82708 84616 88458==
41950,2023,06,09,21,00,AAXX 09214 41950 02350 80000 10260 20250 39980 49983 8562/ 333 59018 70032 82708 84616 88458==
41950,2023,06,10,00,00,AAXX 10004 41950 02350 80000 10260 20250 39977 49980 8562/ 333 59025 70032 82708 84616 88458==
41950,2023,06,10,03,00,AAXX 10034 41950 02350 70000 10290 20260 39997 49999 85670 333 20255 59017 70032 82708 84616 86459==
41950,2023,06,10,06,00,AAXX 10064 41950 02350 81202 10281 20250 39998 40000 8662/ 333 59016 70006 82707 85616 88458==
41950,2023,06,10,09,00,AAXX 10094 41950 01340 80000 10273 20250 39988 49990 76122 8672/ 333 59008 70004 82708 84616 88458==
41950,2023,06,10,12,00,AAXX 10124 41950 21350 80000 10273 20250 39977 49980 70262 8562/ 333 10314 59011 69927 70002 82708 84616 88458==
41950,2023,06,10,15,00,AAXX 10154 41950 02350 80000 10265 20260 39999 40001 8562/ 333 59005 70002 82708 84616 88458==
41950,2023,06,10,18,00,AAXX 10184 41950 02350 80000 10268 20260 30003 40005 8562/ 333 59003 70002 82708 84616 88458==
41950,2023,06,10,21,00,AAXX 10214 41950 02350 80000 10270 20260 39987 49989 8562/ 333 58007 70002 82708 84616 88458==
41950,2023,06,11,00,00,AAXX 11004 41950 01340 80000 10272 20260 39989 49991 76122 8572/ 333 58012 70004 82708 84616 88458==
41950,2023,06,11,03,00,AAXX 11034 41950 01350 80000 10296 20280 30004 40006 70262 8562/ 333 20258 58007 70007 82708 84616 88458==
41950,2023,06,11,06,00,AAXX 11064 41950 11350 80000 10313 20260 39994 49996 69916 70262 8562/ 333 59004 70007 82708 84616 88458==
41950,2023,06,11,09,00,AAXX 11094 41950 02350 81002 10304 20260 39984 49986 8562/ 333 59004 70007 82708 84616 88458==
41950,2023,06,11,12,00,AAXX 11124 41950 02350 80000 10287 20260 39976 49979 8562/ 333 10320 59001 70005 82708 84616 88458==
41950,2023,06,11,15,00,AAXX 11154 41950 02350 70000 10274 20250 39987 49989 85610 333 59012 70005 82708 83617 87459==
41950,2023,06,11,18,00,AAXX 11184 41950 02350 60000 10270 20260 39997 49999 84610 333 59004 70005 81708 83617 86459==
41950,2023,06,11,21,00,AAXX 11214 41950 02450 50000 10270 20260 39994 49996 83510 333 58007 70005 83617 84459==
41950,2023,06,12,00,00,AAXX 12004 41950 02450 30000 10272 20260 39994 49996 82530 333 58005 70001 82617==
41950,2023,06,12,03,00,AAXX 12034 41950 02350 60902 10314 20270 30004 40006 84610 333 20270 58000 70000 81708 84616 86459==
41950,2023,06,12,06,00,AAXX 12064 41950 02450 61702 10342 20280 39997 49999 83410 333 58003 70000 83617 86459==
41950,2023,06,12,09,00,AAXX 12094 41950 01330 83605 10306 20280 39984 49986 79522 8592/ 333 58000 70020 82708 84616 88458 81928==
41950,2023,06,12,12,00,AAXX 12124 41950 21350 80000 10252 20250 39984 49987 71796 8592/ 333 10348 58008 60437 70430 82708 84616 88458 81928==
41950,2023,06,12,15,00,AAXX 12154 41950 01350 80000 10257 20250 39999 40001 72162 8562/ 333 58012 70438 82708 84616 88458==
41950,2023,06,12,18,00,AAXX 12184 41950 21350 80000 10257 20257 30005 40007 70262 8562/ 333 59008 69988 70438 82708 84616 88458==
41950,2023,06,12,21,00,AAXX 12214 41950 02450 30000 10257 20257 39990 49992 83500 333 59004 70438 83616==
41950,2023,06,13,00,00,AAXX 13004 41950 01440 30000 10257 20257 39993 49996 70521 82501 333 59001 70438 82616==
41950,2023,06,13,03,00,AAXX 13034 41950 02350 71702 10302 20280 30004 40006 85610 333 20246 58000 70438 82708 84616 87459==
41950,2023,06,13,06,00,AAXX 13064 41950 02450 61803 10347 20270 39992 49995 83510 333 59005 70438 83616 85459==
41950,2023,06,13,09,00,AAXX 13094 41950 02456 51804 10343 20260 39975 49977 84430 333 59009 70418 83617==
41950,2023,06,13,12,00,AAXX 13124 41950 01350 80000 10260 20240 39959 49962 71796 8592/ 333 10354 59025 70030 82708 84616 88458 81928==
41950,2023,06,13,15,00,AAXX 13154 41950 02350 81702 10266 20250 39992 49994 8562/ 333 59007 70030 82708 84616 88458==
41950,2023,06,13,18,00,AAXX 13184 41950 02350 70000 10272 20260 30087 40089 85670 333 59016 70030 82708 84616 86459==
41950,2023,06,13,21,00,AAXX 13214 41950 02350 60000 10278 20278 39991 49993 84610 333 58001 70030 81708 84616 86459==
41950,2023,06,14,00,00,AAXX 14004 41950 02350 80000 10285 20280 39994 49996 8562/ 333 58001 70030 82708 84616 88458==
41950,2023,06,14,06,00,AAXX 14064 41950 02456 21802 10352 20270 39993 49995 81531 333 58001 70030 81617==
41950,2023,06,14,09,00,AAXX 14094 41950 02456 21802 10363 20270 39980 49983 82500 333 58005 70030 82617==
41950,2023,06,14,12,00,AAXX 14124 41950 02950 21902 10331 20270 39980 49982 80001 333 10363 58021 70000 82616==
41950,2023,06,14,15,00,AAXX 14154 41950 02350 42106 10308 20280 39990 49993 84600 333 59002 70000 81708 84616==
41950,2023,06,14,18,00,AAXX 14184 41950 02350 71808 10303 20280 30001 40004 86670 333 58014 70000 82708 85616 85459==
41950,2023,06,14,21,00,AAXX 14214 41950 01350 82102 10299 20280 39994 79997 8662/ 333 58004 70000 82708 85616 88458==
41950,2023,06,15,00,00,AAXX 15004 41950 02350 82105 10299 20280 39998 40001 8562/ 333 58004 70000 82708 84616 88458==
41950,2023,06,15,03,00,AAXX 15034 41950 01350 80903 10245 20245 30016 40018 72995 86328 333 20237 58018 70296 82708 84616 88458 81928==
41950,2023,06,15,06,00,AAXX 15064 41950 21350 81902 10294 20280 30016 40018 70296 8662/ 333 58023 60308 70296 82708 84616 88458==
41950,2023,06,15,09,00,AAXX 15094 41950 02350 71806 10334 20280 30002 40004 85610 333 58022 70296 82708 84616 86459==
41950,2023,06,15,12,00,AAXX 15124 41950 02450 61803 10317 20280 39992 49995 83510 333 10360 58012 70296 83617 85459==
41950,2023,06,15,15,00,AAXX 15154 41950 02450 61802 10302 20280 30002 40005 83510 333 58012 70296 83617 85459==
41950,2023,06,15,18,00,AAXX 15184 41950 02450 60000 10302 20280 30012 40015 83510 333 58011 70296 83616 85459==
41950,2023,06,15,21,00,AAXX 15214 41950 02350 80000 10298 20280 30004 40006 8562/ 333 58010 70296 82708 84616 88458==
41951,2023,06,09,00,00,AAXX 09004 41951 21440 80000 10280 20280 39995 49999 70262 8452/ 333 59006 60015 70135 84618 88458==
41951,2023,06,09,03,00,AAXX 09034 41951 01330 81302 10286 20280 30007 40012 76162 8662/ 333 20263 59013 70127 82706 84616 88458==
41951,2023,06,09,06,00,AAXX 09064 41951 01330 80000 10284 20270 30010 40014 76062 8672/ 333 59007 70090 82706 84616 88458==
41951,2023,06,09,09,00,AAXX 09094 41951 01330 82602 10255 20250 39998 40003 76166 8672/ 333 58006 70090 82706 84616 88458==
41951,2023,06,09,12,00,AAXX 09124 41951 21340 80000 10278 20260 39983 49988 70262 8562/ 333 10293 59007 60048 70097 81706 84616 88458==
41951,2023,06,09,15,00,AAXX 09154 41951 02340 80000 10272 20260 30001 40006 8562/ 333 59006 70097 81708 84618 88458==
41951,2023,06,09,18,00,AAXX 09184 41951 02340 80000 10272 20260 30001 40006 8562/ 333 59008 70097 81708 84618 88458==
41951,2023,06,09,21,00,AAXX 09214 41951 02440 80000 10260 20250 39987 49992 8452/ 333 59014 70084 84618 88458==
41951,2023,06,10,00,00,AAXX 10004 41951 02440 80000 10263 20260 39977 49982 8452/ 333 59018 70084 84618 88458==
41951,2023,06,10,03,00,AAXX 10034 41951 02440 80502 10295 20280 39986 49991 8452/ 333 20250 59021 70068 84618 88458==
41951,2023,06,10,06,00,AAXX 10064 41951 01330 80302 10262 20250 39998 40003 76122 8672/ 333 59012 70005 82706 84616 88458==
41951,2023,06,10,09,00,AAXX 10094 41951 01340 83502 10270 20260 39983 49988 72166 8562/ 333 59015 70073 81708 84618 88458==
41951,2023,06,10,12,00,AAXX 10124 41951 21450 70000 10278 20260 39975 49980 70162 83510 333 59008 60068 70066 83618 85458==
41951,2023,06,10,15,00,AAXX 10154 41951 02340 80000 10268 20260 39998 40003 8562/ 333 59003 70066 81708 84618 88458==
41951,2023,06,10,18,00,AAXX 10184 41951 02340 81302 10268 20260 30002 40007 8562/ 333 58001 70066 81708 84618 88458==
41951,2023,06,11,00,00,AAXX 11004 41951 01330 80000 10270 20270 39987 49992 70262 8562/ 333 58010 70007 81706 84616 88458==
41951,2023,06,11,03,00,AAXX 11034 41951 02330 81303 10280 20260 39997 40002 8562/ 333 20250 58011 70073 81706 84616 88458==
41951,2023,06,11,06,00,AAXX 11064 41951 02450 70906 10293 20260 39999 40004 83510 333 58011 70068 83618 86459==
41951,2023,06,11,09,00,AAXX 11094 41951 02450 70902 10287 20260 39984 49989 83510 333 58001 70007 83618 86459==
41951,2023,06,11,12,00,AAXX 11124 41951 02440 80504 10280 20250 39974 49979 8452/ 333 10299 59001 70007 84618 88458==
41951,2023,06,11,15,00,AAXX 11154 41951 02440 80502 10276 20270 39993 49998 8452/ 333 59005 70007 84618 88458==
41951,2023,06,11,18,00,AAXX 11184 41951 02440 70000 10274 20260 30000 40005 83510 333 59002 70007 83618 86459==
41951,2023,06,11,21,00,AAXX 11214 41951 02440 70000 10270 20260 39996 40001 83510 333 58001 70007 83618 86459==
41951,2023,06,12,00,00,AAXX 12003 41951 02440 60000 10272 20260 39993 49998 83510 333 58016 70000 83618 85459==
41951,2023,06,12,03,00,AAXX 12034 41951 02450 61302 10313 20270 30000 40005 83510 333 20265 58003 70000 83618 85459==
41951,2023,06,12,06,00,AAXX 12064 41951 02456 61003 10346 20280 30000 40005 83510 333 58016 70000 83618 85459==
41951,2023,06,12,09,00,AAXX 12094 41951 02340 80602 10310 20280 39982 49987 8562/ 333 59002 70000 81708 84618 88458==
41951,2023,06,12,12,00,AAXX 12124 41951 21330 80000 10252 20250 39981 49986 72196 8662/ 333 10349 58007 60257 70248 82706 84616 88458==
41951,2023,06,12,15,00,AAXX 12154 41951 02330 80000 10255 20255 39996 40001 8672/ 333 58003 70268 82706 84616 88458==
41951,2023,06,12,18,00,AAXX 12184 41951 21340 80000 10262 20250 30001 40006 70262 8562/ 333 58001 60028 70268 81708 84618 88458==
41951,2023,06,12,21,00,AAXX 12214 41951 02440 60000 10258 20258 39992 49997 83510 333 59004 70268 83618 85459==
41951,2023,06,13,00,00,AAXX 13004 41951 02450 30000 10266 20266 39987 49992 83500 333 59006 70268 83618==
41951,2023,06,13,03,00,AAXX 13034 41951 02456 61302 10322 20290 39998 40003 83510 333 20244 59002 70268 83616 85459==
41951,2023,06,13,06,00,AAXX 13064 41951 02456 51107 10353 20270 39991 49996 82510 333 59009 70268 82618 84459==
41951,2023,06,13,09,00,AAXX 13093 41951 02456 51002 10348 20280 39979 49984 82510 333 59003 70268 82618 84459==
41951,2023,06,13,12,00,AAXX 13124 41951 01330 80503 10270 20260 39966 49971 79522 8662/ 333 10357 59015 70110 82706 84616 88458==
41951,2023,06,13,15,00,AAXX 13154 41951 02340 82403 10270 20260 30001 40005 8562/ 333 58005 70110 81708 84618 88458==
41951,2023,06,13,18,00,AAXX 13184 41951 02450 51302 10282 20270 39991 49995 82510 333 59010 70110 82618 84459==
41951,2023,06,13,21,00,AAXX 13214 41951 02450 51302 10278 20270 39987 49991 82510 333 59005 70110 82618 84459==
41951,2023,06,14,00,00,AAXX 14004 41951 02340 81303 10296 20290 39988 49992 8562/ 333 58001 70110 81708 84618 88459==
41951,2023,06,14,12,00,AAXX 14124 41951 02456 30609 10325 20270 39986 49991 83500 333 10367 58020 70000 83618==
41951,2023,06,14,15,00,AAXX 14154 41951 02450 61603 10308 20290 39997 40002 83510 333 59004 70000 83618 85459==
41951,2023,06,14,18,00,AAXX 14184 41951 02440 71504 10304 20280 30005 40010 83510 333 58011 70000 83618 86459==
41951,2023,06,14,21,00,AAXX 14214 41951 02440 81403 10300 20280 30001 40006 8452/ 333 58014 70000 84618 88458==
41951,2023,06,15,00,00,AAXX 15004 41951 02440 81304 10298 20280 39999 40004 8452/ 333 58011 70000 84618 88458==
41951,2023,06,15,03,00,AAXX 15034 41951 01330 80803 10243 20240 30009 40014 72996 8662/ 333 20245 58015 70374 82706 84616 88458==
41951,2023,06,15,06,00,AAXX 15064 41951 21340 81604 10310 20290 30022 40027 70296 8662/ 333 58025 60378 70374 81708 84618 88458==
41951,2023,06,15,09,00,AAXX 15094 41951 02350 72410 10330 20290 30005 40010 84610 333 58019 70374 81708 83618 86459==
41951,2023,06,15,12,00,AAXX 15124 41951 02450 61304 10316 20290 39989 49994 83510 333 10335 58003 70374 83618 85459==
41951,2023,06,15,15,00,AAXX 15154 41951 02340 81305 10308 20290 30012 40017 8562/ 333 58017 70374 81708 84618 88458==
41951,2023,06,15,18,00,AAXX 15183 41951 02340 81502 10307 20290 30004 40009 8562/ 333 59001 70374 81708 84618 88458==
41951,2023,06,15,21,00,AAXX 15214 41951 02340 81303 10302 20280 30002 40007 8562/ 333 58001 70374 81708 84618 88458==
41953,2023,06,09,00,00,AAXX 09004 41953 02440 80000 10270 20270 30000 40005 8352/ 333 59008 70160 83616 88458==
41953,2023,06,09,03,00,AAXX 09034 41953 01440 80000 10265 20260 30018 40023 76122 8452/ 333 20255 59009 70160 84615 88458==
41953,2023,06,09,06,00,AAXX 09064 41953 11440 80000 10284 20270 30013 40018 60146 70262 8452/ 333 59009 70140 84616 88458==
41953,2023,06,09,09,00,AAXX 09094 41953 02440 82305 10286 20270 39993 49998 8452/ 333 59007 70170 84616 88458==
41953,2023,06,09,12,00,AAXX 09124 41953 02440 81304 10280 20250 39986 49991 8452/ 333 10288 59006 70170 84616 88458==
41953,2023,06,09,15,00,AAXX 09154 41953 02430 80000 10276 20260 30004 40009 8452/ 333 58002 70170 84616 88458==
41953,2023,06,09,18,00,AAXX 09184 41953 02430 80000 10274 20260 30005 40010 8452/ 333 59009 70170 84616 88458==
41953,2023,06,09,21,00,AAXX 09214 41953 02430 80000 10270 20260 39990 49995 8452/ 333 59015 70170 84616 88458==
41953,2023,06,10,00,00,AAXX 10004 41953 02440 80000 10265 20265 39979 49984 8452/ 333 59021 70170 84616 88458==
41953,2023,06,10,03,00,AAXX 10034 41953 02440 81304 10270 20260 30003 40008 8452/ 333 20255 59015 70140 84616 88458==
41953,2023,06,10,06,00,AAXX 10064 41953 21330 80504 10246 20246 39992 49997 76162 8632/ 333 59021 60537 70530 85709 84614 88458==
41953,2023,06,10,09,00,AAXX 10094 41953 01440 83102 10255 20255 39974 49979 76166 8452/ 333 59019 70600 84614 88458==
41953,2023,06,10,12,00,AAXX 10124 41953 21440 83104 10255 20255 39970 49975 70266 8452/ 333 10272 59016 60098 70620 84616 88458==
41953,2023,06,10,15,00,AAXX 10154 41953 02430 80000 10250 20250 39983 49988 8452/ 333 59021 70620 84616 88458==
41953,2023,06,11,00,00,AAXX 11004 41953 02440 81302 10264 20250 39998 40003 8452/ 333 58019 70620 84616 88458==
41953,2023,06,11,03,00,AAXX 11034 41953 01440 80902 10250 20250 30009 40014 72166 8452/ 333 20245 58006 70880 84616 88458==
41953,2023,06,11,06,00,AAXX 11064 41953 21440 81303 10266 20250 30004 40009 70262 8452/ 333 58012 60268 70350 84616 88458==
41953,2023,06,11,09,00,AAXX 11094 41953 02440 81304 10270 20250 39984 49989 8452/ 333 58010 70280 84616 88458==
41953,2023,06,11,12,00,AAXX 11124 41953 02440 81302 10274 20250 39977 49982 8352/ 333 10275 58003 70260 83616 88458==
41953,2023,06,11,15,00,AAXX 11154 41953 02430 80000 10260 20250 39987 49992 8352/ 333 58004 70260 83616 88458==
41953,2023,06,11,18,00,AAXX 11184 41953 NIL=
41953,2023,06,11,21,00,AAXX 11214 41953 02430 80000 10258 20250 30003 40008 8352/ 333 58004 70260 83616 88458==
41953,2023,06,12,00,00,AAXX 12004 41953 02440 80000 10265 20260 30004 40009 8352/ 333 58006 70260 83616 88458==
41953,2023,06,12,03,00,AAXX 12034 41953 02440 81802 10310 20270 30010 40015 8352/ 333 20250 58001 70000 83616 88458==
41953,2023,06,12,06,00,AAXX 12064 41953 02450 81305 10320 20260 30007 40012 8352/ 333 58003 70000 83616 88458==
41953,2023,06,12,09,00,AAXX 12093 41953 02450 81804 10326 20270 39987 49992 8352/ 333 58003 70000 84616 88458==
41953,2023,06,12,12,00,AAXX 12124 41953 21440 81304 10250 20240 30980 49985 70040 8452/ 333 10328 58003 60047 70040 84616 88458==
41953,2023,06,12,15,00,AAXX 12154 41953 02430 80000 10255 20250 39993 49998 8452/ 333 58006 70040 84616 88458==
41953,2023,06,12,18,00,AAXX 12184 41953 02430 80000 10256 20250 30004 40009 8452/ 333 58001 70040 84616 88458==
41953,2023,06,12,21,00,AAXX 12214 41953 02430 80000 10258 20250 30006 40011 8452/ 333 58003 70040 84616 88458==
41953,2023,06,13,00,00,AAXX 13004 41953 01440 30000 10260 20260 39999 40004 70522 83500 333 59005 70040 83616==
41953,2023,06,13,03,00,AAXX 13034 41953 01450 61805 10320 20290 30009 40014 70522 83570 333 20250 59001 70040 83616 84458==
41953,2023,06,13,06,00,AAXX 13064 41953 02450 41808 10335 20270 30001 40006 84400 333 59006 70040 83616==
41953,2023,06,13,09,00,AAXX 13093 41953 02450 41805 10332 20270 39983 49988 84400 333 59004 70040 83616==
41953,2023,06,13,12,00,AAXX 13124 41953 02440 81305 10310 20280 39976 49981 8352/ 333 10338 59004 70000 83616 88458==
41953,2023,06,13,15,00,AAXX 13154 41953 02430 81808 10298 20280 39991 49996 8352/ 333 59002 70000 83616 88458==
41953,2023,06,13,18,00,AAXX 13184 41953 02430 81805 10290 20280 39995 40000 8352/ 333 59009 70000 83616 88458==
41953,2023,06,13,21,00,AAXX 13214 41953 02430 81808 10290 20280 30004 40009 8352/ 333 59002 70000 83616 88458==
41953,2023,06,14,00,00,AAXX 14004 41953 02450 61805 10292 20280 30001 40006 83520 333 58002 70000 83616 84458==
41953,2023,06,14,12,00,AAXX 14124 41953 02440 81303 10310 20280 39990 49995 8352/ 333 10355 58014 70000 83616 88458==
41953,2023,06,14,15,00,AAXX 14154 41953 02430 61305 10298 20280 30001 40006 83510 333 58010 70000 83616 85458==
41953,2023,06,14,18,00,AAXX 14184 41953 02430 81305 10295 20290 30008 40013 8352/ 333 58023 70000 83616 88458==
41953,2023,06,14,21,00,AAXX 14214 41953 02430 81305 10295 20280 30011 40016 8352/ 333 58007 70000 83616 88458==
41953,2023,06,15,00,00,AAXX 15004 41953 02440 81306 10298 20280 30014 40019 8352/ 333 58013 70000 83616 88458==
41953,2023,06,15,03,00,AAXX 15034 41953 01430 80901 10238 20230 30024 40029 71762 8632/ 333 20237 58019 70030 84615 88458 81930==
41953,2023,06,15,06,00,AAXX 15064 41953 21440 81805 10280 20260 30028 40033 70296 8352/ 333 58025 60045 70040 83616 88458==
41953,2023,06,15,09,00,AAXX 15094 41953 02450 81804 10315 20280 30007 40012 8352/ 333 58018 70040 83616 88458==
41953,2023,06,15,12,00,AAXX 15124 41953 02450 81804 10305 20290 39999 40004 8352/ 333 10320 58009 70040 83616 88458==
41953,2023,06,15,15,00,AAXX 15154 41953 02440 81805 10300 20280 30011 40016 8352/ 333 58010 70040 83616 88458==
41953,2023,06,15,18,00,AAXX 15183 41953 02440 81803 10298 20280 30013 40018 8352/ 333 58005 70040 83616 88458==
41953,2023,06,15,21,00,AAXX 15214 41953 02440 81804 10296 20280 30005 40010 8352/ 333 59006 70040 83616 88458==
41955,2023,06,09,06,00,AAXX 09064 41955 NIL=
41955,2023,06,09,12,00,AAXX 09124 41955 NIL=
41955,2023,06,09,18,00,AAXX 09184 41955 NIL=
41955,2023,06,10,00,00,AAXX 10004 41955 NIL=
41955,2023,06,10,06,00,AAXX 10064 41955 NIL=
41955,2023,06,11,12,00,AAXX 11124 41955 NIL=
41955,2023,06,11,18,00,AAXX 11184 41955 NIL=
41955,2023,06,12,00,00,AAXX 12004 41955 NIL=
41955,2023,06,12,06,00,AAXX 12064 41955 NIL=
41955,2023,06,12,12,00,AAXX 12124 41955 NIL=
41955,2023,06,12,18,00,AAXX 12184 41955 NIL=
41955,2023,06,13,00,00,AAXX 13004 41955 NIL=
41955,2023,06,13,06,00,AAXX 13064 41955 NIL=
41955,2023,06,13,12,00,AAXX 13124 41955 NIL=
41955,2023,06,14,00,00,AAXX 14004 41955 NIL=
41955,2023,06,15,00,00,AAXX 15004 41955 NIL=
41955,2023,06,15,06,00,AAXX 15064 41955 NIL=
41955,2023,06,15,18,00,AAXX 15183 41955 NIL=
41958,2023,06,09,00,00,AAXX 09004 41958 32450 80000 10287 20280 39987 49989 8542/ 333 56999 59012 70006 84616 88458=
41958,2023,06,09,03,00,AAXX 09034 41958 32450 80000 10312 20280 30005 40007 8542/ 333 20280 56999 59009 70006 84616 88458=
41958,2023,06,09,06,00,AAXX 09064 41958 32450 81701 10323 20270 39995 49997 8542/ 333 56499 59028 70000 84616 88458=
41958,2023,06,09,09,00,AAXX 09094 41958 32450 81702 10323 20270 39978 49980 8542/ 333 56499 59007 70000 84616 88458=
41958,2023,06,09,12,00,AAXX 09124 41958 32450 80803 10270 20270 39986 49988 8542/ 333 10332 56299 58005 70000 84616 88458=
41958,2023,06,09,15,00,AAXX 09154 41958 21440 83102 10250 20250 30001 40003 70262 8542/ 333 56799 58013 6994/ 70004 84616 88458=
41958,2023,06,09,18,00,AAXX 09184 41958 11440 80000 10250 20240 39988 49990 69946 70262 8542/ 333 56999 59019 70004 84616 88458=
41958,2023,06,09,21,00,AAXX 09214 41958 32440 81701 10258 20240 39976 49978 8542/ 333 56999 59016 70004 84616 88458=
41958,2023,06,10,00,00,AAXX 10004 41958 32450 80000 10262 20240 39965 40067 8542/ 333 56999 59022 70004 84616 88458=
41958,2023,06,10,03,00,AAXX 10034 41958 32450 80000 10282 20270 39987 49989 8542/ 333 20246 56999 59017 70004 84616 88458=
41958,2023,06,10,06,00,AAXX 10064 41958 32457 80000 10308 20250 39985 49987 8532/ 333 56999 59010 70004 84616 81930 88459=
41958,2023,06,10,09,00,AAXX 10094 41958 32457 80301 10320 20250 39978 49980 8542/ 333 56999 58000 70004 84616 88459=
41958,2023,06,10,12,00,AAXX 10124 41958 32457 81601 10298 20260 39971 49973 8542/ 333 10322 56999 59015 70004 84616 88459=
41958,2023,06,10,15,00,AAXX 10154 41958 32450 80000 10280 20260 39992 49994 8542/ 333 56999 59009 70000 84616 88459=
41958,2023,06,10,18,00,AAXX 10184 41958 32440 81601 10270 20260 30001 40003 8542/ 333 56999 59013 70000 84616 88459=
41958,2023,06,11,00,00,AAXX 11004 41958 32450 80000 10280 20270 39976 49978 8542/ 333 56999 58011 70000 84616 88459=
41958,2023,06,11,03,00,AAXX 11034 41958 32457 81601 10320 20290 39989 49991 8542/ 333 20275 56999 58001 70000 84616 88459=
41958,2023,06,11,06,00,AAXX 11064 41958 32458 70000 10363 20280 39977 49979 85410 333 56490 59008 70000 84616 87459=
41958,2023,06,11,09,00,AAXX 11094 41958 31458 80901 10368 20290 39958 49960 72922 8592/ 333 56499 59020 70000 84616 81930 88459=
41958,2023,06,11,12,00,AAXX 11124 41958 11456 81603 10275 20260 39963 49965 60014 70296 8532/ 333 10376 56999 59008 70004 84616 81930 88459=
41958,2023,06,11,15,00,AAXX 11154 41958 32450 81601 10272 20250 39975 49977 8542/ 333 56999 59017 70004 84616 88459=
41958,2023,06,11,18,00,AAXX 11184 41958 32440 81801 10270 20260 30000 40002 8542/ 333 56999 59001 70004 84616 88459=
41958,2023,06,11,21,00,AAXX 11214 41958 32440 81601 10280 20270 39978 49980 8542/ 333 56499 58004 70004 84616 88459=
41958,2023,06,12,00,00,AAXX 12004 41958 32450 81602 10287 20280 39980 49982 8542/ 333 56499 58004 70004 84616 88459=
41958,2023,06,12,03,00,AAXX 12034 41958 32457 71801 10340 20290 39996 49998 85410 333 20265 56490 58007 70004 84617 87459=
41958,2023,06,12,06,00,AAXX 12064 41958 32458 81601 10358 20280 39987 49989 8542/ 333 56499 58010 70004 84616 88459=
41958,2023,06,12,09,00,AAXX 12093 41958 32457 81802 10350 20290 39961 49963 8532/ 333 56499 58003 70004 84616 81930 88459=
41958,2023,06,12,12,00,AAXX 12124 41958 11456 80901 10264 20240 39968 49970 60345 70296 8532/ 333 10372 56999 58005 70344 84616 81930 88459=
41958,2023,06,12,15,00,AAXX 12154 41958 32450 81801 10270 20250 39987 49989 8542/ 333 56999 58012 70344 84616 88459=
41958,2023,06,12,18,00,AAXX 12184 41958 32440 81602 10266 20260 39998 40000 8542/ 333 56999 59002 70344 84616 88459=
41958,2023,06,12,21,00,AAXX 12214 41958 32440 81601 10271 20260 39980 49982 8542/ 333 56999 58002 70344 84616 88459=
41958,2023,06,13,00,00,AAXX 13004 41958 32440 81601 10276 20270 39983 49985 8542/ 333 56499 58003 70344 84616 88459=
41958,2023,06,13,03,00,AAXX 13034 41958 32457 71801 10322 20290 39992 49994 85410 333 20257 56490 59004 70344 84616 87459=
41958,2023,06,13,06,00,AAXX 13064 41958 32458 61601 10365 20230 39978 49980 85410 333 56490 59009 70344 84616 86459=
41958,2023,06,13,09,00,AAXX 13093 41958 32458 61801 10373 20280 39964 49966 85410 333 56490 58003 70344 84616 86459=
41958,2023,06,13,12,00,AAXX 13124 41958 32456 81803 10320 20280 39954 49957 8532/ 333 10377 56499 59014 70000 84616 81930 88459=
41958,2023,06,13,15,00,AAXX 13154 41958 21440 81601 10250 20240 39968 49971 70296 8532/ 333 56999 59019 6014/ 70136 84616 81930 88459=
41958,2023,06,13,18,00,AAXX 13184 41958 11440 81801 10262 20250 39980 49982 60146 70296 8542/ 333 56999 59018 70136 84616 88459=
41958,2023,06,13,21,00,AAXX 13214 41958 32440 61601 10280 20270 39975 49977 85410 333 56990 59005 70136 84616 86459=
41958,2023,06,14,00,00,AAXX 14004 41958 32450 50000 10298 20290 39978 49980 85400 333 56900 59005 70136 84617=
41958,2023,06,14,12,00,AAXX 14124 41958 32456 20901 10342 20270 39967 49969 82500 333 10388 56900 58013 70136 82617=
41958,2023,06,14,15,00,AAXX 14154 41958 32950 01802 10314 20290 39976 49978 333 58008 70000=
41958,2023,06,14,18,00,AAXX 14184 41958 32440 41601 10284 20270 39996 49998 84500 333 56900 58016 70000 83617=
41958,2023,06,15,00,00,AAXX 15004 41958 32450 81603 10301 20280 39981 49983 8542/ 333 56499 58003 70000 84616 88459=
41958,2023,06,15,03,00,AAXX 15034 41958 21456 81601 10305 20300 30006 40008 70262 8542/ 333 20278 56499 58020 6002/ 70020 84616 88459=
41958,2023,06,15,06,00,AAXX 15064 41958 11458 81802 10340 20300 30004 40006 60028 70266 8542/ 333 56499 58020 70022 84616 88459=
41958,2023,06,15,09,00,AAXX 15094 41958 32458 81601 10340 20300 39989 49991 8542/ 333 56999 58020 70022 84616 88459=
41958,2023,06,15,12,00,AAXX 15124 41958 32456 40000 10325 20290 39978 49980 84400 333 10344 56900 58011 70022 83617=
41958,2023,06,15,15,00,AAXX 15154 41958 32450 41802 10310 20290 39993 49995 84400 333 56400 58017 70022 83617=
41958,2023,06,15,18,00,AAXX 15183 41958 32440 61601 10300 20290 30007 40009 85410 333 56990 58011 70022 84616 86459=
41958,2023,06,15,21,00,AAXX 15214 41958 32440 81601 10296 20280 39989 49991 8542/ 333 56999 58011 70022 84616 88459=
41960,2023,06,09,00,00,AAXX 09004 41960 02440 80000 10283 20280 30000 40002 8542/ 333 59007 70116 84618 88459==
41960,2023,06,09,03,00,AAXX 09034 41960 01450 71801 10288 20280 30021 40023 76162 84410 333 20266 59008 70116 83616 87459==
41960,2023,06,09,06,00,AAXX 09064 41960 21456 81801 10300 20250 30016 40018 76166 8442/ 333 59013 60019 70018 83616 88459==
41960,2023,06,09,09,00,AAXX 09094 41960 01456 83301 10299 20250 39994 49996 71792 8692/ 333 59002 70012 84617 88459 81929==
41960,2023,06,09,12,00,AAXX 09124 41960 01450 80000 10291 20260 39992 49994 70292 8532/ 333 10305 59006 70012 83618 88459 81929==
41960,2023,06,09,15,00,AAXX 09154 41960 02430 80000 10278 20260 30009 40011 8542/ 333 59005 70012 84617 88459==
41960,2023,06,09,18,00,AAXX 09184 41960 02430 60000 10265 20250 30005 40007 84410 333 59008 70012 83618 86459==
41960,2023,06,09,21,00,AAXX 09214 41960 02430 71804 10264 20250 39994 49996 85470 333 59013 70012 83618 85459==
41960,2023,06,10,00,00,AAXX 10004 41960 01330 83601 10261 20250 39982 49984 76122 8672/ 333 59018 70002 81708 84617 88458==
41960,2023,06,10,03,00,AAXX 10034 41960 02456 83301 10288 20260 39998 40000 8442/ 333 20256 59023 70004 83617 88459==
41960,2023,06,10,06,00,AAXX 10064 41960 02450 80301 10285 20260 30000 40002 8442/ 333 59016 70002 83618 88459==
41960,2023,06,10,09,00,AAXX 10094 41960 01456 80000 10290 20250 39988 49990 70262 8542/ 333 59006 70002 84617 88459==
41960,2023,06,10,12,00,AAXX 10124 41960 11450 70000 10284 20240 39978 49980 60006 70162 84470 333 10302 59014 70002 83618 85459==
41960,2023,06,10,15,00,AAXX 10154 41960 02440 60000 10270 20250 30000 40002 84410 333 59009 70002 83618 86459==
41960,2023,06,10,18,00,AAXX 10184 41960 02430 60000 10270 20260 30007 40009 84410 333 58002 70002 83618 86459==
41960,2023,06,11,00,00,AAXX 11004 41960 42440 70000 10274 20270 39990 49992 84470 333 58008 83618 85459==
41960,2023,06,11,03,00,AAXX 11034 41960 42457 71002 10313 20270 30002 40004 84410 333 20266 58004 83618 87459==
41960,2023,06,11,06,00,AAXX 11064 41960 01456 80000 10300 20260 39994 49996 79522 8692/ 333 59006 70000 84616 88459 82930==
41960,2023,06,11,09,00,AAXX 11094 41960 41456 81802 10292 20260 39980 49982 70296 8542/ 333 59008 84617 88459==
41960,2023,06,11,12,00,AAXX 11124 41960 NIL=
41960,2023,06,11,15,00,AAXX 11154 41960 42430 80000 10273 20260 39993 49995 8542/ 333 59007 84618 88459==
41960,2023,06,11,18,00,AAXX 11184 41960 42430 60000 10270 20260 30001 40003 84410 333 59006 83618 86459==
41960,2023,06,11,21,00,AAXX 11214 41960 42430 61802 10271 20260 30000 40002 84470 333 58002 83618 85459==
41960,2023,06,12,00,00,AAXX 12004 41960 42440 70000 10273 20260 39999 40001 84470 333 58009 83618 85459==
41960,2023,06,12,03,00,AAXX 12034 41960 42458 71003 10320 20280 30009 40011 84410 333 20268 58007 83617 87459==
41960,2023,06,12,06,00,AAXX 12064 41960 42458 61803 10350 20280 30002 40003 84410 333 58008 83618 86459==
41960,2023,06,12,09,00,AAXX 12093 41960 02458 41803 10341 20280 39977 49978 84410 333 59003 70000 83618==
41960,2023,06,12,12,00,AAXX 12124 41960 01330 81501 10251 20250 39989 49991 79796 8692/ 333 10353 58012 70470 81708 84615 88458 81928==
41960,2023,06,12,15,00,AAXX 12154 41960 01430 80000 10260 20250 30002 40004 76196 8542/ 333 58009 70484 84616 88459==
41960,2023,06,12,18,00,AAXX 12184 41960 21430 70000 10260 20260 30004 40006 70196 84410 333 58003 60018 70484 83617 87459==
41960,2023,06,12,21,00,AAXX 12214 41960 02430 70000 10262 20260 39999 40001 84470 333 59001 70484 83618 85459==
41960,2023,06,13,00,00,AAXX 13004 41960 02440 40000 10263 20263 39995 49997 83401 333 59004 70484 82618 84080==
41960,2023,06,13,03,00,AAXX 13034 41960 02458 61003 10324 20280 30006 40008 84410 333 20246 59003 70484 83618 86459==
41960,2023,06,13,06,00,AAXX 13064 41960 02458 41403 10345 20280 39995 49996 84400 333 59007 70484 83618==
41960,2023,06,13,09,00,AAXX 13093 41960 02458 51803 10348 20280 39981 49983 84410 333 58004 70484 83618 85459==
41960,2023,06,13,12,00,AAXX 13124 41960 01330 81502 10261 20250 39966 49968 79592 8692/ 333 10354 59023 70130 84616 88458 81928==
41960,2023,06,13,15,00,AAXX 13154 41960 02430 83004 10273 20260 30004 40006 8532/ 333 58002 70130 84616 88459 81930==
41960,2023,06,13,18,00,AAXX 13184 41960 02430 30000 10265 20250 39989 49991 83400 333 59015 70130 82618==
41960,2023,06,13,21,00,AAXX 13214 41960 02430 51804 10285 20280 39993 49995 84410 333 59006 70130 83618 85459==
41960,2023,06,14,00,00,AAXX 14004 41960 02440 71802 10296 20290 39997 49999 84470 333 58002 70130 83618 85459==
41960,2023,06,14,12,00,AAXX 14124 41960 02/56 21802 10330 20280 39990 49992 82010 333 10370 58024 70000 82459==
41960,2023,06,14,15,00,AAXX 14154 41960 02940 01804 10305 20290 39999 40000 333 59005 70000==
41960,2023,06,14,18,00,AAXX 14184 41960 02430 41804 10303 20280 30015 40017 84500 333 58026 70000 84618==
41960,2023,06,14,21,00,AAXX 14214 41960 02430 41804 10301 20280 30010 40012 84500 333 58017 70000 84618==
41960,2023,06,15,00,00,AAXX 15004 41960 02456 41803 10300 20290 30007 40009 84400 333 58010 70000 83618==
41960,2023,06,15,03,00,AAXX 15034 41960 41356 81802 10276 20260 30022 40024 71796 8692/ 333 20275 58017 81708 84617 88459 81928==
41960,2023,06,15,06,00,AAXX 15064 41960 11457 81603 10327 20300 30025 40027 60006 70296 8542/ 333 58036 84617 88459==
41960,2023,06,15,09,00,AAXX 15094 41960 42456 71806 10332 20280 30005 40006 84470 333 58017 83618 85459==
41960,2023,06,15,12,00,AAXX 15124 41960 42456 61802 10318 20290 39998 40000 84471 333 10339 58008 83618 83080==
41960,2023,06,15,15,00,AAXX 15154 41960 42450 71802 10309 20290 30012 40013 85470 333 58013 83618 85459==
41960,2023,06,15,18,00,AAXX 15183 41960 42440 72703 10302 20270 30010 40012 85470 333 59005 83618 85459==
41960,2023,06,15,21,00,AAXX 15214 41960 42440 81804 10300 20280 30009 40011 8542/ 333 59001 84617 88459==
41963,2023,06,09,00,00,AAXX 09004 41963 01330 80000 10250 20250 30013 40016 76362 8372/ 333 59003 70280 82708 83616 88458==
41963,2023,06,09,03,00,AAXX 09034 41963 01450 60000 10280 20260 30016 40019 70162 82510 333 20240 59029 70530 82618 86458==
41963,2023,06,09,06,00,AAXX 09064 41963 01456 51801 10315 20270 30014 40016 70162 82530 333 59014 70450 82618 85458==
41963,2023,06,09,09,00,AAXX 09094 41963 02456 51801 10305 20260 30001 40004 82510 333 59005 70450 82618 86458==
41963,2023,06,09,12,00,AAXX 09124 41963 02450 50000 10280 20260 39995 49998 82510 333 10320 58003 70450 82618 85458==
41963,2023,06,09,15,00,AAXX 09154 41963 01440 60000 10280 20260 30004 40007 70522 82510 333 59007 70450 82618 86458==
41963,2023,06,09,18,00,AAXX 09184 41963 NIL=
41963,2023,06,10,00,00,AAXX 10004 41963 01330 80000 10270 20270 30000 40002 72162 8372/ 333 59013 70040 82708 83616 88458==
41963,2023,06,10,03,00,AAXX 10034 41963 01340 81801 10250 20250 30016 40019 76152 8372/ 333 20240 58000 70260 82708 83616 88458==
41963,2023,06,10,06,00,AAXX 10064 41963 21340 81301 10260 20260 39993 49996 76162 8372/ 333 59021 60359 70390 82708 83616 88458==
41963,2023,06,10,09,00,AAXX 10094 41963 01340 81301 10262 20262 39994 49997 76166 8372/ 333 59007 70430 82708 83616 88458==
41963,2023,06,10,12,00,AAXX 10124 41963 11440 70000 10270 20250 39992 49995 60056 70162 82510 333 10280 59003 70440 82618 87458==
41963,2023,06,10,15,00,AAXX 10154 41963 01440 50000 10260 20260 30011 40014 70522 82510 333 58007 70440 82618 85458==
41963,2023,06,11,00,00,AAXX 11004 41963 01340 81301 10270 20260 30003 40006 70522 8372/ 333 58003 70040 82708 83616 88458==
41963,2023,06,11,03,00,AAXX 11034 41963 01340 81801 10270 20260 30011 40014 72162 8372/ 333 20260 59005 70220 82708 83616 88458==
41963,2023,06,11,06,00,AAXX 11064 41963 21340 80000 10270 20260 30009 40012 70262 8372/ 333 58016 60035 70080 82708 83616 88458==
41963,2023,06,11,09,00,AAXX 11094 41963 02340 80000 10265 20260 39995 49998 8372/ 333 58001 70040 82708 83616 88458==
41963,2023,06,11,12,00,AAXX 11124 41963 01340 81801 10270 20250 39987 49990 70522 8372/ 333 10276 59005 70030 82708 83616 88458==
41963,2023,06,11,15,00,AAXX 11154 41963 01340 81304 10280 20250 30000 40003 70522 8372/ 333 59011 70003 82708 83616 88458==
41963,2023,06,11,18,00,AAXX 11184 41963 NIL=
41963,2023,06,12,00,00,AAXX 12004 41963 01440 51801 10280 20270 30009 40012 70522 82510 333 58006 70030 82616 85458==
41963,2023,06,12,03,00,AAXX 12034 41963 02450 61301 10300 20270 30012 40014 82510 333 20255 58001 70000 82618 86458==
41963,2023,06,12,06,00,AAXX 12064 41963 02456 71801 10310 20280 30016 40019 82510 333 58007 70000 82618 87458==
41963,2023,06,12,09,00,AAXX 12094 41963 02456 21802 10310 20280 39994 49997 82500 333 59001 70000 82618==
41963,2023,06,12,12,00,AAXX 12124 41963 01350 81301 10250 20250 39999 40002 79596 8592/ 333 10320 58012 70260 82708 83616 88458 82926==
41963,2023,06,12,15,00,AAXX 12154 41963 01330 80000 10260 20260 39997 40000 71396 8592/ 333 59003 70360 82618 83616 88458 81926==
41963,2023,06,12,18,00,AAXX 12184 41963 21430 60000 10262 20262 30011 40014 70296 82510 333 58007 60105 70360 82618 86458==
41963,2023,06,13,00,00,AAXX 13004 41963 01440 61801 10250 20250 30000 40003 70522 82510 333 59009 70360 82618 86458==
41963,2023,06,13,03,00,AAXX 13034 41963 02456 61802 10310 20280 30009 40011 82510 333 20250 59003 70360 82618 86458==
41963,2023,06,13,06,00,AAXX 13064 41963 02456 61801 10320 20290 30012 40015 82510 333 59004 70360 82618 86458==
41963,2023,06,13,09,00,AAXX 13094 41963 02456 61802 10320 20290 39994 49997 82510 333 58000 70360 82618 86482==
41963,2023,06,13,12,00,AAXX 13124 41963 02450 61801 10305 20230 39984 49987 82510 333 10326 59015 70360 82618 86458==
41963,2023,06,13,15,00,AAXX 13154 41963 01330 81801 10260 20240 39992 49994 70362 8372/ 333 59005 70050 82708 83616 88458==
41963,2023,06,14,00,00,AAXX 14004 41963 02450 51802 10300 20280 30014 40016 82510 333 58014 70050 82618 85458==
41963,2023,06,14,12,00,AAXX 14124 41963 02450 31803 10310 20280 30005 40008 83500 333 10336 58021 70050 83618==
41963,2023,06,14,15,00,AAXX 14154 41963 02450 61804 10300 20290 30014 40016 82510 333 58022 70050 82618 86458==
41963,2023,06,14,18,00,AAXX 14184 41963 01440 61804 10300 20290 30009 40011 70522 82510 333 58011 70000 82618 86458==
41963,2023,06,15,00,00,AAXX 15004 41963 01440 61802 10290 20285 30007 40010 70522 82510 333 59007 70000 82618 86458==
41963,2023,06,15,03,00,AAXX 15034 41963 01350 71801 10302 20290 30037 40039 72162 83710 333 20280 58019 70020 82708 83616 87458==
41963,2023,06,15,06,00,AAXX 15064 41963 01350 71803 10300 20230 30034 40037 70262 83710 333 58022 70050 82708 83616 88458==
41963,2023,06,15,09,00,AAXX 15094 41963 02456 51810 10315 20280 30016 40018 82510 333 58008 70050 82618 85458==
41963,2023,06,15,12,00,AAXX 15124 41963 02450 51806 10300 20295 30007 40010 82510 333 10326 58002 70050 82618 85458==
41963,2023,06,15,15,00,AAXX 15154 41963 02440 51805 10300 20295 30017 40020 82510 333 58003 70050 82618 85458==
41963,2023,06,15,18,00,AAXX 15183 41963 NIL=
41964,2023,06,09,00,00,AAXX 09004 41964 02356 80000 10281 20270 39996 49998 8562/ 333 59009 70736 83709 83617 88459==
41964,2023,06,09,03,00,AAXX 09034 41964 02457 72304 10286 20270 30008 40010 84510 333 20246 59015 70020 84617 86460==
41964,2023,06,09,06,00,AAXX 09064 41964 NIL=
41964,2023,06,09,09,00,AAXX 09094 41964 02457 80000 10300 20260 39995 49997 8452/ 333 58009 70000 84617 88458==
41964,2023,06,09,12,00,AAXX 09124 41964 01356 80000 10274 20260 39987 49989 70262 8462/ 333 10326 59001 70020 83709 83617 88459==
41964,2023,06,09,15,00,AAXX 09154 41964 02450 50000 10267 20260 30002 40005 83510 333 58000 70016 83618 84460==
41964,2023,06,09,18,00,AAXX 09184 41964 02450 30000 10266 20240 30023 40026 83500 333 58008 70016 83618==
41964,2023,06,09,21,00,AAXX 09214 41964 02450 80000 10267 20260 30004 40006 8452/ 333 59003 70016 84617 88459==
41964,2023,06,10,00,00,AAXX 10004 41964 02350 80000 10269 20260 39976 49978 8562/ 333 59020 70016 83709 83617 88459==
41964,2023,06,10,03,00,AAXX 10034 41964 01350 80503 10256 20254 39982 49985 76162 8672/ 333 20246 59026 70148 84708 83616 88458==
41964,2023,06,10,06,00,AAXX 10064 41964 21340 80307 10254 20254 39972 49975 79596 8732/ 333 59033 60269 70274 85707 84615 88458 81928==
41964,2023,06,10,09,00,AAXX 10094 41964 01340 81203 10263 20250 39972 40075 70296 8732/ 333 59023 70302 85707 84616 88458 81928==
41964,2023,06,10,12,00,AAXX 10124 41964 01340 82301 10260 20259 39971 49974 76196 8672/ 333 10266 59016 70296 84708 83616 88458==
41964,2023,06,10,15,00,AAXX 10154 41964 01440 80000 10260 20259 30008 40011 70296 8242/ 333 58006 70298 84618 88460==
41964,2023,06,10,18,00,AAXX 10184 41964 11440 50000 10258 20250 30000 40003 69926 70196 83510 333 59023 70298 83618 84460==
41964,2023,06,11,00,00,AAXX 11004 41964 01335 80000 10260 20258 39990 49993 76162 8672/ 333 58014 70362 84708 83616 88458==
41964,2023,06,11,03,00,AAXX 11034 41964 01340 80401 10248 20246 30006 40008 76196 8772/ 333 20241 58024 70704 85707 84615 88458==
41964,2023,06,11,06,00,AAXX 11064 41964 21350 80504 10264 20240 39997 49999 70296 8662/ 333 58025 60488 70586 84709 84617 88459==
41964,2023,06,11,09,00,AAXX 11094 41964 02350 80000 10271 20260 39977 49979 8662/ 333 58005 70558 84709 84617 88459==
41964,2023,06,11,12,00,AAXX 11124 41964 02350 80000 10260 20250 39978 49980 8562/ 333 10272 58007 70548 83709 83618 88459==
41964,2023,06,11,15,00,AAXX 11154 41964 02450 70000 10259 20250 39988 49990 84510 333 59020 70546 84618 87460==
41964,2023,06,11,18,00,AAXX 11184 41964 02450 70000 10253 20240 39993 49995 84510 333 59007 70546 84618 87460==
41964,2023,06,11,21,00,AAXX 11214 41964 02450 60000 10258 20255 39993 49995 83510 333 59002 70546 83618 84460==
41964,2023,06,12,00,00,AAXX 12004 41964 02456 50000 10270 20260 39996 49998 83510 333 58006 70482 83618 84460==
41964,2023,06,12,03,00,AAXX 12033 41964 02356 81403 10300 20270 30007 40010 8562/ 333 20240 58001 70008 83709 83617 88459==
41964,2023,06,12,06,00,AAXX 12064 41964 02457 71404 10315 20280 30001 40004 84510 333 58004 70000 84618 87460==
41964,2023,06,12,09,00,AAXX 12094 41964 02457 31403 10325 20280 39980 49983 83500 333 58003 70000 83618==
41964,2023,06,12,12,00,AAXX 12124 41964 02356 80502 10263 20250 39985 49988 8562/ 333 10327 58007 70000 83709 83617 88459==
41964,2023,06,12,15,00,AAXX 12154 41964 01350 81401 10260 20250 39987 49990 72122 8662/ 333 59001 70004 84709 83617 88459==
41964,2023,06,12,18,00,AAXX 12184 41964 NIL=
41964,2023,06,12,21,00,AAXX 12214 41964 02340 80000 10270 20250 39992 49995 8562/ 333 59001 70004 83709 83617 88459==
41964,2023,06,13,00,00,AAXX 13004 41964 01350 80000 10287 20280 39995 49998 72122 8562/ 333 59001 70002 83709 83617 88459==
41964,2023,06,13,03,00,AAXX 13034 41964 02456 81405 10309 20280 30005 40007 8562/ 333 20255 59002 70006 83710 83618 88460==
41964,2023,06,13,06,00,AAXX 13064 41964 02457 71404 10326 20290 39995 49997 85410 333 59006 70006 84618 84460==
41964,2023,06,13,09,00,AAXX 13093 41964 02458 51704 10320 20280 39982 49984 85800 333 58002 70006 82618 83825==
41964,2023,06,13,12,00,AAXX 13124 41964 02458 51606 10301 20280 39975 49977 84501 333 10331 59010 70006 84618==
41964,2023,06,13,15,00,AAXX 13154 41964 02458 51705 10297 20290 39990 49992 84500 333 58003 70002 84618==
41964,2023,06,13,18,00,AAXX 13184 41964 02358 71408 10296 20280 39991 49993 86610 333 58001 70002 82709 85617 85460==
41964,2023,06,13,21,00,AAXX 13214 41964 02358 71807 10296 20280 39997 49999 85610 333 58005 70002 82709 84618 86460==
41964,2023,06,14,00,00,AAXX 14004 41964 02358 82107 10297 20280 39999 40001 8661/ 333 58004 70000 82709 85618 88460==
41964,2023,06,14,12,00,AAXX 14124 41964 02558 62108 10307 20290 39993 49996 85802 333 10336 58018 70000 82620 83825==
41964,2023,06,14,15,00,AAXX 14154 41964 02458 41805 10300 20270 30001 40004 84500 333 58011 70000 84618==
41964,2023,06,14,18,00,AAXX 14184 41964 02458 61806 10295 20280 30013 40015 85510 333 58022 70000 85618 84460==
41964,2023,06,14,21,00,AAXX 14214 41964 02558 71607 10294 20270 30010 40012 86410 333 58013 70000 85620 86460==
41964,2023,06,15,00,00,AAXX 15004 41964 01357 81706 10292 20280 30011 40013 72122 8662/ 333 58012 70002 82708 85617 88460==
41964,2023,06,15,03,00,AAXX 15034 41964 01357 81905 10288 20270 30052 40054 71722 8632/ 333 20281 58048 70002 82709 84617 88460 81930==
41964,2023,06,15,06,00,AAXX 15064 41964 21358 81506 10280 20270 30024 40027 70296 8632/ 333 58018 60427 70422 82709 85618 88460 81930==
41964,2023,06,15,09,00,AAXX 15094 41964 02558 82108 10310 20280 30009 40011 8642/ 333 58014 70422 85620 88460==
41964,2023,06,15,12,00,AAXX 15124 41964 02458 51808 10302 20280 30002 40004 82501 333 10314 58009 70422 82618 84080==
41964,2023,06,15,15,00,AAXX 15154 41964 02358 62107 10299 20280 30013 40015 86600 333 58012 70422 82709 85618==
41964,2023,06,15,18,00,AAXX 15183 41964 02358 71904 10297 20290 30011 40013 86610 333 59002 70422 82709 85618 85460==
41964,2023,06,15,21,00,AAXX 15214 41964 02457 71606 10295 20290 30012 40014 85610 333 58002 70422 82709 84618 87460==
41965,2023,06,09,03,00,AAXX 09034 41965 02450 80000 10290 20240 30026 40034 83310 333 20265 58000 70000 83618 88460 81928==
41965,2023,06,09,06,00,AAXX 09064 41965 02456 80000 10300 20230 30002 40010 83310 333 59007 70000 81718 83618 88460 81928==
41965,2023,06,09,09,00,AAXX 09094 41965 02456 80000 10300 20240 30000 40008 83310 333 59003 70000 81710 83618 88460 81928==
41965,2023,06,09,12,00,AAXX 09124 41965 01440 80000 10280 20240 30000 40008 79596 83310 333 10310 58000 70120 81710 83618 88460 81928==
41965,2023,06,09,15,00,AAXX 09154 41965 01450 80000 10260 20230 30004 40012 79596 83310 333 58003 70160 81710 83618 88460 81928==
41965,2023,06,09,18,00,AAXX 09184 41965 NIL=
41965,2023,06,10,00,00,AAXX 10004 41965 02440 80000 10260 20240 30010 40018 84610 333 58003 70200 81710 83618 88460==
41965,2023,06,10,03,00,AAXX 10034 41965 01440 82202 10260 20230 30012 40020 76566 84610 333 20250 58005 70300 81710 83618 88458==
41965,2023,06,10,06,00,AAXX 10064 41965 21440 82202 10260 20240 39990 40098 79596 8431/ 333 59005 60189 70380 81710 83618 88458 81928==
41965,2023,06,10,09,00,AAXX 10094 41965 01450 81402 10260 20230 39965 49973 70296 8432/ 333 59025 70430 81710 83618 88458 81928==
41965,2023,06,10,12,00,AAXX 10124 41965 01450 80000 10260 20240 39965 49973 70296 8432/ 333 10270 59025 70050 83618 88460 81928==
41965,2023,06,11,00,00,AAXX 11004 41965 02450 80000 10250 20230 39980 49988 8462/ 333 59007 70230 81710 83618 88460==
41965,2023,06,11,03,00,AAXX 11034 41965 01430 80000 10250 20230 30005 40013 79796 8432/ 333 20240 58016 70280 81708 83616 88456 81926==
41965,2023,06,11,06,00,AAXX 11064 41965 21440 80000 10235 20210 30002 40012 79796 8432/ 333 58023 61137 71180 81708 83616 88456 81926==
41965,2023,06,11,09,00,AAXX 11094 41965 01440 80000 10265 20220 39995 40103 70296 8432/ 333 58022 71170 81710 83618 88458 81928==
41965,2023,06,11,12,00,AAXX 11124 41965 01450 80000 10265 20230 39985 49993 70296 8432/ 333 10270 58009 70040 81710 83618 88460 81928==
41965,2023,06,11,18,00,AAXX 11184 41965 NIL=
41965,2023,06,12,00,00,AAXX 12004 41965 02450 60000 10260 20240 30006 40014 84610 333 58008 71170 83618 84460==
41965,2023,06,12,03,00,AAXX 12034 41965 02450 60000 10290 20230 30014 40022 84610 333 20250 58009 71020 83618 84460==
41965,2023,06,12,06,00,AAXX 12064 41965 02456 61402 10310 20220 39999 40007 84610 333 59003 70040 83618 84460==
41965,2023,06,12,09,00,AAXX 12093 41965 02456 60000 10330 20230 39985 49993 84610 333 58003 70000 83618 84460==
41965,2023,06,12,12,00,AAXX 12124 41965 01440 80000 10280 20230 39985 49993 79596 8431/ 333 10335 58009 70050 81710 83618 88460 81928==
41965,2023,06,12,18,00,AAXX 12184 41965 NIL=
41965,2023,06,13,00,00,AAXX 13004 41965 NIL=
41965,2023,06,13,03,00,AAXX 13034 41965 02450 60000 10300 20220 39997 40005 84610 333 20255 59009 70040 83618 84460==
41965,2023,06,13,06,00,AAXX 13064 41965 02456 61402 10330 20240 39998 40006 84410 333 59001 70040 82618 84460==
41965,2023,06,13,09,00,AAXX 13094 41965 02456 50000 10330 20220 39983 49993 84410 333 59002 70040 82618 84460==
41965,2023,06,13,12,00,AAXX 13124 41965 02450 80000 10300 20220 39985 49993 84610 333 10335 58000 70000 83618 88460==
41965,2023,06,14,00,00,AAXX 14004 41965 NIL=
41965,2023,06,14,12,00,AAXX 14124 41965 02450 50000 10300 20220 39990 49998 84410 333 10340 58005 70000 82618 84460==
41965,2023,06,15,00,00,AAXX 15004 41965 02450 80000 10270 20230 30014 40022 84610 333 58012 70000 81710 83618 88460==
41965,2023,06,15,03,00,AAXX 15034 41965 01440 81402 10280 20250 30026 40034 79596 8431/ 333 20268 58015 70060 81710 83618 88460 81928==
41965,2023,06,15,06,00,AAXX 15064 41965 21440 80000 10260 20220 30027 40036 79596 8461/ 333 58024 60367 70360 81710 83618 88456==
41965,2023,06,15,09,00,AAXX 15094 41965 02450 80000 10265 20220 30020 40028 84610 333 58007 70360 83618 88460==
41965,2023,06,15,12,00,AAXX 15124 41965 01450 60000 10290 20220 30016 40025 70296 84610 333 10300 58022 70020 82618 84460==
41965,2023,06,15,18,00,AAXX 15183 41965 NIL=
41966,2023,06,09,00,00,AAXX 09004 41966 02440 80000 10270 20250 39932 40010 8252/ 333 59006 70040 83616 88460==
41966,2023,06,09,03,00,AAXX 09034 41966 02450 60000 10306 20260 39950 40027 83510 333 20262 58002 70040 83616 85460==
41966,2023,06,09,04,00,AAXX 09044 41966 02450 60000 10306 20260 39950 40027 83510 333 20262 58002 70040 83616 85460==
41966,2023,06,09,06,00,AAXX 09064 41966 02450 60000 10308 20260 39949 40026 82510 333 58006 70040 82616 85460==
41966,2023,06,09,09,00,AAXX 09094 41966 02450 60000 10275 20270 39929 40006 83510 333 58013 70042 83616 85460==
41966,2023,06,09,12,00,AAXX 09124 41966 01440 80000 10275 20230 39930 40008 76296 8352/ 333 10325 58006 70028 83616 88460==
41966,2023,06,09,15,00,AAXX 09154 41966 01420 80000 10260 20250 39933 40012 72162 8352/ 333 59002 70034 83616 88460==
41966,2023,06,09,18,00,AAXX 09184 41966 NIL=
41966,2023,06,09,21,00,AAXX 09214 41966 02420 70000 10260 20250 39925 40003 83510 333 59012 70034 83616 86460==
41966,2023,06,10,00,00,AAXX 10004 41966 02440 60000 10260 20240 39932 40010 83510 333 58000 70034 83616 85460==
41966,2023,06,10,03,00,AAXX 10034 41966 01450 80000 10255 20240 39934 40012 76162 8352/ 333 20251 59015 70124 83616 88460==
41966,2023,06,10,06,00,AAXX 10064 41966 NIL=
41966,2023,06,10,09,00,AAXX 10094 41966 01450 80000 10270 20240 39911 49989 70262 8352/ 333 59017 70142 83616 88460==
41966,2023,06,10,12,00,AAXX 10124 41966 11440 80901 10270 20240 39911 49989 60026 70262 8352/ 333 10275 59019 70138 83616 88460==
41966,2023,06,10,15,00,AAXX 10154 41966 02430 80000 10265 20250 39924 40002 8352/ 333 59010 70108 83616 88460==
41966,2023,06,11,00,00,AAXX 11004 41966 21440 80000 10240 20230 39927 40006 72162 8352/ 333 59004 60057 70160 83616 88460==
41966,2023,06,11,03,00,AAXX 11034 41966 01450 80000 10256 20240 39936 40014 76162 8352/ 333 20230 58002 70070 83616 88460==
41966,2023,06,11,06,00,AAXX 11064 41966 01340 80000 10255 20240 39945 40023 76166 8472/ 333 58034 70130 82709 83615 88460==
41966,2023,06,11,09,00,AAXX 11094 41966 01450 60000 10280 20230 39924 40002 70162 83510 333 58013 70214 83616 85460==
41966,2023,06,11,12,00,AAXX 11124 41966 11440 80000 10280 20240 39909 49987 60036 70362 8352/ 333 10285 59002 70214 83616 88460==
41966,2023,06,11,15,00,AAXX 11154 41966 02430 60000 10275 20250 39906 40004 82510 333 58002 70214 82616 85460==
41966,2023,06,11,18,00,AAXX 11184 41966 NIL=
41966,2023,06,11,21,00,AAXX 11214 41966 02420 60000 10250 20230 39936 40015 82510 333 58013 70214 82616 85460==
41966,2023,06,12,00,00,AAXX 12004 41966 02440 60000 10250 20230 39935 40014 82510 333 58008 70162 82616 85460==
41966,2023,06,12,03,00,AAXX 12034 41966 02450 50000 10295 20250 39941 40019 82510 333 20245 58005 70160 82616 84460==
41966,2023,06,12,06,00,AAXX 12064 41966 02450 70000 10320 20220 39931 40007 83510 333 59016 70030 83616 86460==
41966,2023,06,12,09,00,AAXX 12094 41966 02450 70000 10320 20220 39929 40005 83510 333 58003 70000 83616 86460==
41966,2023,06,12,12,00,AAXX 12124 41966 01340 80901 10270 20210 39924 40002 71722 8432/ 333 10335 58015 70000 82709 83615 88460 81930==
41966,2023,06,12,15,00,AAXX 12154 41966 01420 60000 10265 20250 39925 40003 70196 82510 333 59001 70035 82616 85460==
41966,2023,06,12,18,00,AAXX 12184 41966 NIL=
41966,2023,06,12,21,00,AAXX 12214 41966 02420 60000 10268 20250 39931 40009 82510 333 59006 70035 82616 85460==
41966,2023,06,13,00,00,AAXX 13004 41966 02440 50000 10270 20250 39926 40004 82510 333 59010 70035 82616 84460==
41966,2023,06,13,03,00,AAXX 13034 41966 02450 51301 10305 20240 39932 40008 82510 333 20255 59011 70035 82616 84460==
41966,2023,06,13,06,00,AAXX 13064 41966 02450 61801 10332 20240 39927 40004 83510 333 59003 70035 83616 85460==
41966,2023,06,13,09,00,AAXX 13094 41966 02450 60000 10335 20240 39924 40001 83510 333 59004 70035 83616 85460==
41966,2023,06,13,12,00,AAXX 13124 41966 02540 50000 10310 20250 39907 49984 82110 333 10345 59018 70035 82826 84460==
41966,2023,06,13,15,00,AAXX 13154 41966 02430 60000 10290 20250 39919 49996 83510 333 59007 70000 83616 85460==
41966,2023,06,13,18,00,AAXX 13184 41966 02420 60000 10285 20250 39930 40008 83510 333 59002 70000 83616 85460==
41966,2023,06,13,21,00,AAXX 13214 41966 02420 60000 10280 20240 39934 40012 83510 333 58003 70000 83616 85460==
41966,2023,06,14,00,00,AAXX 14004 41966 02440 60000 10275 20240 39940 40018 83510 333 58004 70000 83616 85460==
41966,2023,06,14,12,00,AAXX 14124 41966 21440 50000 10300 20230 39935 40012 70296 82510 333 10325 58028 60025 70020 82616 84460==
41966,2023,06,14,15,00,AAXX 14154 41966 02430 41802 10290 20250 39943 40020 82510 333 58024 70020 82616 83460==
41966,2023,06,14,21,00,AAXX 14214 41966 02420 40000 10282 20250 39956 40034 82510 333 58022 70020 82616 83460==
41966,2023,06,15,00,00,AAXX 15004 41966 02440 60000 10280 20250 39953 40031 83510 333 58013 70020 83616 85460==
41966,2023,06,15,03,00,AAXX 15034 41966 01440 70000 10285 20270 39967 40045 72122 83510 333 20270 58026 70056 83616 86460==
41966,2023,06,15,06,00,AAXX 15064 41966 01340 80901 10255 20240 39963 40042 79596 8492/ 333 58019 70286 82709 83615 88460 81930==
41966,2023,06,15,09,00,AAXX 15094 41966 01440 60000 10295 20260 39950 40028 70196 83510 333 58024 70276 83616 85460==
41966,2023,06,15,15,00,AAXX 15154 41966 02430 60000 10280 20250 39950 40028 83510 333 58008 70276 83616 85460==
41966,2023,06,15,18,00,AAXX 15183 41966 NIL=
41966,2023,06,15,21,00,AAXX 15214 41966 02420 60000 10270 20240 39955 40033 83510 333 59001 70276 83616 85460==
41977,2023,06,09,00,00,AAXX 09004 41977 01350 81302 10272 20260 39986 40023 75122 8672/ 333 59006 70120 82709 85615 88458==
41977,2023,06,09,03,00,AAXX 09034 41977 01356 80000 10295 20270 39992 40029 70265 8562/ 333 20270 59024 70034 82710 85616 88458==
41977,2023,06,09,06,00,AAXX 09064 41977 11350 82704 10312 20260 39984 40022 69946 70262 8462/ 333 59027 70034 82710 84616 88460==
41977,2023,06,09,09,00,AAXX 09094 41977 01350 80000 10266 20266 39988 40026 76162 8632/ 333 59003 70164 82710 84615 88460 81930==
41977,2023,06,09,12,00,AAXX 09124 41977 01350 80000 10275 20270 39991 40029 70262 8462/ 333 10316 59002 70280 82710 84616 88460==
41977,2023,06,09,15,00,AAXX 09154 41977 01350 80000 10268 20270 39998 40036 70262 8632/ 333 59009 70304 82710 84615 88458 81930==
41977,2023,06,09,18,00,AAXX 09184 41977 01356 80000 10260 20260 39986 40024 72166 8562/ 333 59012 70334 82709 85615 88458==
41977,2023,06,09,21,00,AAXX 09214 41977 02350 80000 10260 20260 39964 40002 8562/ 333 59028 70334 82710 84615 88460==
41977,2023,06,10,00,00,AAXX 10004 41977 01350 80000 10260 20260 39956 49994 76122 8672/ 333 59030 70008 82710 84615 88460==
41977,2023,06,10,03,00,AAXX 10034 41977 01350 80502 10265 20260 39966 40004 72166 8672/ 333 20255 59026 70370 82710 84615 88460==
41977,2023,06,10,06,00,AAXX 10064 41977 NIL=
41977,2023,06,10,09,00,AAXX 10094 41977 21350 82305 10262 20260 39953 49991 76166 8672/ 333 59031 60139 70472 84610 88458==
41977,2023,06,10,12,00,AAXX 10124 41977 21330 82302 10260 20260 39973 40011 76166 8672/ 333 10270 59018 60179 70362 84708 88458==
41977,2023,06,10,18,00,AAXX 10184 41977 01356 81602 10265 20260 39994 40032 72166 8562/ 333 58008 70372 83709 85615 88458==
41977,2023,06,11,00,00,AAXX 11004 41977 21350 80000 10248 20248 39982 40020 70262 8662/ 333 58026 60309 70664 82712 84615 88460==
41977,2023,06,11,03,00,AAXX 11034 41977 01350 80000 10270 20250 39995 40033 76122 8672/ 333 20242 58029 70644 82712 84615 88460==
41977,2023,06,11,06,00,AAXX 11064 41977 21350 80000 10260 20250 39989 40027 70262 8562/ 333 58036 60147 70672 82710 84615 88460==
41977,2023,06,11,09,00,AAXX 11094 41977 01350 80000 10270 20260 39981 40018 76162 8662/ 333 58023 70632 82710 84615 88460==
41977,2023,06,11,12,00,AAXX 11124 41977 21350 80000 10248 20240 39979 40017 70262 8662/ 333 10280 58006 60025 70522 82710 84615 88460==
41977,2023,06,11,18,00,AAXX 11184 41977 02350 80000 10250 20240 39988 40026 8662/ 333 59006 70462 82710 84615 88460==
41977,2023,06,11,21,00,AAXX 11214 41977 02450 50000 10255 20250 39987 40025 83570 333 58000 70252 83618 84460==
41977,2023,06,12,00,00,AAXX 12004 41977 02450 30000 10262 20250 39984 40022 81530 333 58002 70162 81618 83362==
41977,2023,06,12,03,00,AAXX 12034 41977 02456 61802 10300 20250 30001 40038 84670 333 20240 58006 70150 84618 84460==
41977,2023,06,12,06,00,AAXX 12064 41977 02456 71605 10325 20260 39989 40026 84610 333 58000 70020 84618 86460==
41977,2023,06,12,09,00,AAXX 12094 41977 02456 62703 10330 20260 39989 40026 84610 333 58008 70010 84618 84460==
41977,2023,06,12,12,00,AAXX 12124 41977 02456 82802 10285 20250 39992 40030 8672/ 333 10336 58013 70000 83710 85616 88460==
41977,2023,06,12,15,00,AAXX 12154 41977 02456 72702 10278 20270 39977 40015 84610 333 59002 70000 84618 86460==
41977,2023,06,12,18,00,AAXX 12184 41977 01356 80000 10286 20280 39988 40025 76122 8672/ 333 58000 70010 83710 85616 88460==
41977,2023,06,12,21,00,AAXX 12214 41977 02350 80000 10282 20270 39985 40023 8662/ 333 59002 70010 82710 84616 88460==
41977,2023,06,13,00,00,AAXX 13004 41977 02450 80000 10278 20270 39980 40018 8662/ 333 59005 70010 82712 84616 88460==
41977,2023,06,13,03,00,AAXX 13034 41977 02350 81302 10302 20270 39997 40034 8662/ 333 20275 59004 70010 82712 84616 88460==
41977,2023,06,13,06,00,AAXX 13064 41977 02350 81204 10320 20270 30011 40048 8662/ 333 58022 70010 82710 84616 88460==
41977,2023,06,13,09,00,AAXX 13094 41977 02456 61805 10330 20270 39981 40018 84610 333 59008 70010 84618 86460==
41977,2023,06,13,12,00,AAXX 13124 41977 02456 41408 10305 20280 39991 40027 82570 333 10335 59001 70010 82618 83460==
41977,2023,06,13,18,00,AAXX 13184 41977 02456 61404 10290 20270 39977 40015 84610 333 59011 70000 84618 86460==
41977,2023,06,13,21,00,AAXX 13214 41977 02450 81302 10288 20280 39988 40025 8662/ 333 58003 70000 82710 84618 88460==
41977,2023,06,14,00,00,AAXX 14004 41977 02350 81302 10285 20270 39996 40033 8662/ 333 58016 70000 82712 84616 88460==
41977,2023,06,14,15,00,AAXX 14154 41977 02350 61805 10305 20300 39992 40030 8461/ 333 58008 70000 84710 86618==
41977,2023,06,14,21,00,AAXX 14214 41977 02350 81302 10285 20280 30009 40046 8662/ 333 58021 70000 82712 84618 88460==
41977,2023,06,15,00,00,AAXX 15004 41977 01350 81302 10280 20260 30012 40049 72122 8662/ 333 58016 70004 82710 84616 88460==
41977,2023,06,15,03,00,AAXX 15034 41977 01356 80000 10285 20280 30024 40061 72996 8662/ 333 58025 70174 82710 84615 88460==
41977,2023,06,15,06,00,AAXX 15064 41977 11350 81304 10271 20250 30031 40068 60211 70296 8662/ 333 58025 70214 82710 84615 88460==
41977,2023,06,15,09,00,AAXX 15094 41977 02456 81406 10305 20290 30007 40045 8662/ 333 58011 70214 82710 84615 88460==
41977,2023,06,15,12,00,AAXX 15124 41977 02456 82306 10302 20280 30005 40041 8662/ 333 10306 58010 70214 82710 84616 88460==
41977,2023,06,15,15,00,AAXX 15154 41977 02456 82305 10299 20280 30002 40040 8662/ 333 58010 70214 82710 84616 88460==
41977,2023,06,15,18,00,AAXX 15183 41977 02456 82303 10300 20280 30004 40041 8662/ 333 59005 70214 82710 84616 88460==
41977,2023,06,15,21,00,AAXX 15214 41977 02356 81803 10295 20280 30006 40044 8662/ 333 59003 70214 82710 85615 88458==
41978,2023,06,09,00,00,AAXX 09004 41978 02440 80000 10270 20260 30003 40010 8332/ 333 59007 70196 83616 88460 81930==
41978,2023,06,09,03,00,AAXX 09034 41978 01450 60000 10301 20250 30007 40013 70262 83520 333 20268 59024 70076 83616 85460==
41978,2023,06,09,06,00,AAXX 09064 41978 12450 73011 10309 20260 30002 40008 60016 84320 333 59013 70076 83616 86460 81930==
41978,2023,06,09,09,00,AAXX 09094 41978 01420 83605 10274 20270 39987 49994 76122 8432/ 333 59002 70202 83618 88458 81927==
41978,2023,06,09,12,00,AAXX 09124 41978 21440 73109 10290 20270 39983 49989 70562 83520 333 10320 59011 60177 70224 83618 86460==
41978,2023,06,09,15,00,AAXX 09154 41978 01428 80000 10262 20250 30004 40011 79596 8392/ 333 59006 70414 83614 88459 82928==
41978,2023,06,09,18,00,AAXX 09184 41978 01440 83604 10260 20250 30000 40007 72196 8432/ 333 59001 70594 83614 88460 81930==
41978,2023,06,09,21,00,AAXX 09214 41978 02450 80206 10264 20250 39967 49974 8332/ 333 59027 70504 83614 88460 81930==
41978,2023,06,10,00,00,AAXX 10004 41978 01440 81010 10270 20250 39970 49976 76122 8432/ 333 59033 70002 83614 88460 81930==
41978,2023,06,10,03,00,AAXX 10034 41978 01440 80612 10267 20250 39976 49983 70262 8432/ 333 20252 59031 70586 83614 88459 81928==
41978,2023,06,10,06,00,AAXX 10064 41978 01440 81220 10264 20260 39960 49967 72162 8432/ 333 59042 70626 83612 88459 81928==
41978,2023,06,10,09,00,AAXX 10094 41978 01432 81618 10268 20260 39973 49980 76122 8432/ 333 59014 70590 83709 88458 81928==
41978,2023,06,10,12,00,AAXX 10124 41978 01422 82306 10264 20260 39977 49983 79596 8432/ 333 10297 59006 70822 83709 88458 81928==
41978,2023,06,10,15,00,AAXX 10154 41978 NIL=
41978,2023,06,10,18,00,AAXX 10184 41978 11440 81705 10264 20250 30004 40011 60026 70296 8432/ 333 58004 70520 83618 88460 81930==
41978,2023,06,10,21,00,AAXX 10214 41978 01435 81903 10259 20250 39990 49996 76122 8432/ 333 58016 70616 83709 88460 81928==
41978,2023,06,11,00,00,AAXX 11004 41978 21440 80000 10263 20250 39993 40000 70562 8432/ 333 58023 60105 70614 83618 88460 81930==
41978,2023,06,11,03,00,AAXX 11034 41978 01435 81506 10267 20250 30010 40017 76162 8432/ 333 20248 58024 70544 83612 88459 81928==
41978,2023,06,11,06,00,AAXX 11064 41978 21440 80908 10277 20250 30010 40017 70262 8432/ 333 58050 60045 70524 83614 88459 81928==
41978,2023,06,11,09,00,AAXX 11094 41978 01432 81603 10270 20260 39986 49992 76122 8432/ 333 58013 70438 84615 88459 81929==
41978,2023,06,11,12,00,AAXX 11124 41978 21435 81604 10242 20220 39979 49985 76162 8432/ 333 10280 58002 60017 70168 84616 88459 81929==
41978,2023,06,11,15,00,AAXX 11154 41978 01440 81503 10246 20230 39998 40004 70262 8432/ 333 58000 70154 83616 88459 81930==
41978,2023,06,11,18,00,AAXX 11184 41978 11440 71706 10247 20240 30004 40010 69946 70162 84320 333 58000 70154 83616 86460 81930==
41978,2023,06,11,21,00,AAXX 11214 41978 02440 61608 10245 20240 30000 40006 83520 333 58004 70058 83616 85460==
41978,2023,06,12,00,00,AAXX 12004 41978 02440 51508 10264 20250 30001 40007 82520 333 58008 70058 82616 85460==
41978,2023,06,12,03,00,AAXX 12034 41978 01450 61206 10300 20260 30017 40023 70522 83520 333 20236 58007 70038 83618 85460==
41978,2023,06,12,06,00,AAXX 12064 41978 01450 61810 10325 20270 30010 40016 70562 83520 333 58000 70006 83618 85460==
41978,2023,06,12,09,00,AAXX 12094 41978 01450 42209 10330 20270 39986 49992 70522 82520 333 58000 70020 82618 83460==
41978,2023,06,12,12,00,AAXX 12124 41978 01445 62410 10306 20270 39989 49995 70522 83320 333 10337 58010 70010 83617 85460 81930==
41978,2023,06,12,15,00,AAXX 12154 41978 01445 62113 10297 20280 39992 49998 70522 83320 333 59006 70006 83617 85460 81930==
41978,2023,06,12,18,00,AAXX 12184 41978 01445 61508 10292 20270 30008 40014 70522 83520 333 58004 70006 83617 85460==
41978,2023,06,12,21,00,AAXX 12214 41978 01445 61508 10285 20280 39996 40002 70522 83520 333 59004 70006 83617 85460==
41978,2023,06,13,00,00,AAXX 13004 41978 01440 81304 10280 20260 30002 40008 70522 8432/ 333 58001 70006 83617 88460 81930==
41978,2023,06,13,03,00,AAXX 13034 41978 01450 71510 10302 20270 30013 40019 70522 83520 333 20277 59004 70006 83618 86460==
41978,2023,06,13,06,00,AAXX 13064 41978 01450 62110 10327 20280 30004 40010 70522 83520 333 59006 70000 83618 85460==
41978,2023,06,13,09,00,AAXX 13094 41978 01450 32508 10332 20280 39984 49991 70522 83500 333 59002 70000 83618==
41978,2023,06,13,12,00,AAXX 13124 41978 01450 31810 10310 20280 39981 49988 70521 82530 333 10338 59008 70000 82618 83360==
41978,2023,06,13,15,00,AAXX 13154 41978 01440 61814 10298 20270 30003 40010 70521 83520 333 58011 70000 83618 85460==
41978,2023,06,13,18,00,AAXX 13184 41978 01440 61810 10290 20270 30001 40007 70521 83520 333 59007 70000 83618 85460==
41978,2023,06,13,21,00,AAXX 13214 41978 01440 71810 10284 20260 30004 40011 70521 84320 333 58008 70000 83618 86460 81930==
41978,2023,06,14,00,00,AAXX 14004 41978 01440 71512 10282 20260 30010 40017 70522 84320 333 58008 70000 83618 86460 81930==
41978,2023,06,14,06,00,AAXX 14064 41978 02450 71806 10322 20270 30014 40020 84320 333 58010 70000 83616 86460 81930==
41978,2023,06,14,09,00,AAXX 14094 41978 01450 61819 10333 20290 39998 40002 70522 83520 333 58014 70000 83618 85460==
41978,2023,06,14,12,00,AAXX 14124 41978 01445 51917 10319 20290 30002 40008 70522 83520 333 10340 58021 70000 83618 85460==
41978,2023,06,14,15,00,AAXX 14154 41978 01445 61610 10304 20280 30011 40017 70522 83530 333 58008 70000 83618 86360==
41978,2023,06,14,18,00,AAXX 14184 41978 01450 61810 10292 20270 30020 40026 70522 83530 333 58019 70000 83618 86360==
41978,2023,06,14,21,00,AAXX 14214 41978 01450 71608 10284 20270 30014 40021 70522 83570 333 58010 70000 83618 86360==
41978,2023,06,15,00,00,AAXX 15004 41978 01345 81610 10280 20270 30020 40027 72122 8432/ 333 58010 70020 83709 88459 81930==
41978,2023,06,15,03,00,AAXX 15034 41978 01440 71710 10290 20280 30036 40042 70196 84320 333 20265 58019 70133 83616 86460 81928==
41978,2023,06,15,06,00,AAXX 15064 41978 01440 81505 10269 20260 30028 40035 72196 8432/ 333 58014 70143 83616 88460 81928==
41978,2023,06,15,09,00,AAXX 15094 41978 02440 72112 10313 20270 30016 40022 84320 333 58016 70143 83616 86460 81928==
41978,2023,06,15,12,00,AAXX 15124 41978 02450 72115 10308 20280 30011 40017 84320 333 10314 58009 70143 83616 86460 81928==
41978,2023,06,15,15,00,AAXX 15154 41978 02450 41813 10299 20280 30022 40029 84400 333 58011 70143 83618==
41978,2023,06,15,18,00,AAXX 15184 41978 02450 41819 10283 20270 30022 40028 84400 333 58002 70143 83618==
41978,2023,06,15,21,00,AAXX 15214 41978 02450 41809 10268 20260 30011 40017 84400 333 59003 70143 83618==
41980,2023,06,09,00,00,AAXX 09004 41980 11450 80000 10254 20240 39895 40007 60085 76202 8352/ 333 56999 59011 70110 83616 88458=
41980,2023,06,09,06,00,AAXX 09064 41980 NIL=
41980,2023,06,09,12,00,AAXX 09124 41980 11340 80000 10260 20240 39889 40000 60213 76196 8662/ 333 10313 56999 59008 70290 83709 84614 88456=
41980,2023,06,09,18,00,AAXX 09184 41980 NIL=
41980,2023,06,10,00,00,AAXX 10004 41980 11340 80000 10251 20240 39873 49985 60129 76166 8662/ 333 56999 59022 70330 83709 84614 88456=
41980,2023,06,10,06,00,AAXX 10064 41980 NIL=
41980,2023,06,10,12,00,AAXX 10124 41980 11340 81802 10259 20240 39881 49992 60039 76166 8662/ 333 10285 56999 59008 70190 83709 84614 88456=
41980,2023,06,11,00,00,AAXX 11004 41980 32440 81802 10260 20240 39897 40008 8452/ 333 56999 58024 70070 84616 88458=
41980,2023,06,11,12,00,AAXX 11124 41980 11440 80000 10248 20250 39879 49991 60139 70266 8462/ 333 10282 56999 59002 70130 82710 83615 88458=
41980,2023,06,11,18,00,AAXX 11184 41980 NIL=
41980,2023,06,12,00,00,AAXX 12004 41980 32440 80000 10240 20260 39902 40014 8472/ 333 56999 59012 70130 82710 83615 88458=
41980,2023,06,12,06,00,AAXX 12064 41980 NIL=
41980,2023,06,12,12,00,AAXX 12124 41980 11440 80000 10282 20250 39889 49999 60034 76122 8672/ 333 10332 56999 70030 83710 84615 88457=
41980,2023,06,12,18,00,AAXX 12184 41980 NIL=
41980,2023,06,13,00,00,AAXX 13004 41980 11440 80000 10260 20250 39898 40010 60024 70262 8452/ 333 56999 59004 70050 84616 88458=
41980,2023,06,13,06,00,AAXX 13064 41980 NIL=
41980,2023,06,13,12,00,AAXX 13124 41980 32440 30000 10304 20250 39882 49992 82520 333 10339 56990 59007 70020 82617=
41980,2023,06,14,00,00,AAXX 14004 41980 32440 80000 10275 20250 39919 40030 8452/ 333 56999 58021 70000 84615 88458=
41980,2023,06,14,12,00,AAXX 14124 41980 32440 81802 10302 20270 39907 40017 8562/ 333 10326 56599 58025 70000 82710 84615 88458=
41980,2023,06,15,00,00,AAXX 15004 41980 11440 80000 10270 20250 39930 40042 60016 72122 8562/ 333 56999 58011 70010 82710 84615 88458=
41980,2023,06,15,06,00,AAXX 15064 41980 NIL=
41980,2023,06,15,12,00,AAXX 15124 41980 32440 61802 10304 20250 39914 40025 83520 333 10317 56990 58007 70010 83616 85460=
41980,2023,06,15,18,00,AAXX 15183 41980 NIL=
41984,2023,06,09,00,00,AAXX 09004 41984 02456 80000 10278 20270 39989 49991 8352/ 333 58001 70180 83618 88458==
41984,2023,06,09,03,00,AAXX 09034 41984 02456 80000 10281 20260 30003 40005 8352/ 333 20253 59017 70130 83618 88458==
41984,2023,06,09,06,00,AAXX 09064 41984 01356 80000 10286 20270 30005 40007 76162 8662/ 333 59014 70005 82708 84615 88456==
41984,2023,06,09,09,00,AAXX 09094 41984 02456 80000 10298 20250 39980 49982 8352/ 333 59006 70005 83618 88458==
41984,2023,06,09,12,00,AAXX 09124 41984 02456 80000 10290 20260 39976 49978 8352/ 333 10304 59007 70005 83618 88458==
41984,2023,06,09,15,00,AAXX 09154 41984 02440 80000 10280 20260 39999 40001 8352/ 333 58000 70005 83618 88458==
41984,2023,06,09,18,00,AAXX 09184 41984 01440 80000 10257 20250 39997 49999 70262 8352/ 333 59002 70010 83618 88458==
41984,2023,06,09,21,00,AAXX 09214 41984 02440 80000 10259 20250 39981 49983 8352/ 333 59013 70015 83618 88458==
41984,2023,06,10,00,00,AAXX 10004 41984 21456 80000 10261 20260 39965 49967 70262 8352/ 333 59038 60015 70020 83618 88458==
41984,2023,06,10,03,00,AAXX 10034 41984 02456 80000 10290 20260 39982 49984 8352/ 333 20250 59021 70020 83618 88458==
41984,2023,06,10,06,00,AAXX 10064 41984 02456 80000 10302 20250 39980 49982 8352/ 333 59025 70015 83618 88458==
41984,2023,06,10,09,00,AAXX 10094 41984 02457 80000 10296 20250 39974 49976 8352/ 333 59006 70015 83618 88458==
41984,2023,06,10,12,00,AAXX 10124 41984 02456 80000 10291 20260 39970 49972 8352/ 333 10310 59006 70015 83618 88458==
41984,2023,06,10,15,00,AAXX 10154 41984 02440 80000 10277 20260 39988 49990 8352/ 333 59011 70015 83618 88458==
41984,2023,06,10,18,00,AAXX 10184 41984 02440 80000 10278 20270 39993 49995 8352/ 333 59004 70005 83618 88458==
41984,2023,06,11,00,00,AAXX 11004 41984 02456 80000 10288 20270 39980 49982 8352/ 333 58015 70000 83618 88458==
41984,2023,06,11,03,00,AAXX 11034 41984 02456 80000 10316 20290 39984 49987 8352/ 333 10270 59002 70000 83618 88458==
41984,2023,06,11,06,00,AAXX 11064 41984 02457 80000 10336 20290 39979 49981 8352/ 333 59001 70000 83618 88458==
41984,2023,06,11,09,00,AAXX 11094 41984 01356 81806 10306 20260 39966 49969 79522 8692/ 333 59008 70010 83707 84615 88456 81925==
41984,2023,06,11,12,00,AAXX 11124 41984 01356 81801 10270 20270 39969 49971 79596 8692/ 333 10342 59001 73708 84615 88456 81926==
41984,2023,06,11,15,00,AAXX 11153 41984 01440 80000 10270 20250 39979 40081 70292 8352/ 333 59009 70012 83618 88458==
41984,2023,06,11,18,00,AAXX 11184 41984 01440 50000 10290 20260 39985 49987 71092 82510 333 59008 70012 83618 85458==
41984,2023,06,11,21,00,AAXX 11214 41984 02440 60000 10292 20280 39985 49987 83510 333 59001 70012 83618 85458==
41984,2023,06,12,00,00,AAXX 12004 41984 02456 80000 10293 20280 39985 49987 8352/ 333 58005 70012 83618 88458==
41984,2023,06,12,03,00,AAXX 12034 41984 02457 61302 10327 20290 39991 49993 83530 333 20260 58007 70012 83618 83362==
41984,2023,06,12,06,00,AAXX 12064 41984 02457 81302 10342 20280 39992 49994 8352/ 333 58013 70012 83618 88458==
41984,2023,06,12,09,00,AAXX 12094 41984 02457 81302 10332 20280 39969 49971 8352/ 333 58003 70002 83618 88458==
41984,2023,06,12,12,00,AAXX 12124 41984 21356 80401 10250 20250 39981 49983 79522 8692/ 333 10346 58012 60047 70036 83707 84615 88456 81926==
41984,2023,06,12,15,00,AAXX 12154 41984 01440 80000 10264 20250 39987 49989 70296 8352/ 333 58008 70070 83618 88458==
41984,2023,06,12,18,00,AAXX 12184 41984 11440 80000 10274 20260 39987 49989 60036 70292 8352/ 333 58002 70070 83618 88458==
41984,2023,06,12,21,00,AAXX 12214 41984 02440 80000 10274 20260 39982 49984 8352/ 333 59003 70070 83618 88458==
41984,2023,06,13,00,00,AAXX 13004 41984 02456 80000 10274 20270 39980 49982 8352/ 333 59005 70070 83618 88458==
41984,2023,06,13,03,00,AAXX 13034 41984 02457 81801 10330 20280 39994 49996 8352/ 333 10245 58003 70070 83618 88458==
41984,2023,06,13,06,00,AAXX 13064 41984 02457 81805 10336 20290 39985 49987 8352/ 333 59007 70070 83618 88458==
41984,2023,06,13,09,00,AAXX 13094 41984 02457 81803 10332 20290 39968 49970 8352/ 333 59001 70070 83618 88458==
41984,2023,06,13,12,00,AAXX 13124 41984 02456 81804 10312 20280 39959 49961 8352/ 333 20344 59022 70034 83618 88458==
41984,2023,06,13,15,00,AAXX 13154 41984 02440 82302 10307 20290 39996 49998 8352/ 333 58009 70000 83618 88458==
41984,2023,06,13,18,00,AAXX 13184 41984 21440 81306 10296 20290 39974 49976 70296 8352/ 333 58013 60005 83618 88458==
41984,2023,06,13,21,00,AAXX 13214 41984 42440 81806 10300 20280 39979 49981 8352/ 333 59003 83618 88458==
41984,2023,06,14,00,00,AAXX 14004 41984 42456 81805 10306 20290 39982 49984 8352/ 333 58002 83618 88458==
41984,2023,06,14,12,00,AAXX 14124 41984 42457 62303 10325 20290 39981 49983 82510 333 10361 58022 82618 85458==
41984,2023,06,14,15,00,AAXX 14154 41984 42440 62305 10308 20290 39988 49990 83510 333 59008 83618 85458==
41984,2023,06,14,18,00,AAXX 14184 41984 02440 62306 10304 20280 30001 40003 83510 333 58027 70000 83618 85458==
41984,2023,06,14,21,00,AAXX 14214 41984 02440 62304 10304 20270 30000 40002 83510 333 58021 70000 83618 85458==
41984,2023,06,15,00,00,AAXX 15004 41984 02456 82303 10303 20270 39997 49999 8352/ 333 58015 70000 83618 88458==
41984,2023,06,15,03,00,AAXX 15034 41984 01457 82307 10302 20280 30004 40006 70292 8352/ 333 20298 58010 70000 83618 88458==
41984,2023,06,15,06,00,AAXX 15064 41984 01457 82305 10332 20270 30010 40012 70292 8352/ 333 58023 70000 83618 88458==
41984,2023,06,15,09,00,AAXX 15094 41984 02457 82305 10326 20290 39997 49999 8352/ 333 58018 70000 83618 88458==
41984,2023,06,15,12,00,AAXX 15124 41984 02456 82304 10316 20290 39990 49992 8352/ 333 10340 58009 70000 83618 88458==
41984,2023,06,15,15,00,AAXX 15154 41984 02440 82306 10308 20290 30004 40006 8352/ 333 58016 70000 83618 88458==
41984,2023,06,15,18,00,AAXX 15183 41984 02440 82304 10306 20290 30006 40008 8352/ 333 58005 70000 83618 88458==
41984,2023,06,15,21,00,AAXX 15214 41984 02440 82306 10302 20280 30000 40002 8352/ 333 58000 70000 83618 88458==
41989,2023,06,09,00,00,AAXX 09004 41989 01430 51802 10255 20250 30023 40026 70162 83530 333 59012 70020 83618 83362==
41989,2023,06,09,03,00,AAXX 09034 41989 02450 53102 10280 20230 30047 40051 83530 333 20240 58003 70010 83618 83362==
41989,2023,06,09,06,00,AAXX 09064 41989 02450 51803 10300 20250 30030 40033 84470 333 58011 70100 83618 83362==
41989,2023,06,09,12,00,AAXX 09124 41989 NIL=
41989,2023,06,09,18,00,AAXX 09184 41989 NIL=
41989,2023,06,10,00,00,AAXX 10004 41989 NIL=
41989,2023,06,10,03,00,AAXX 10034 41989 02450 51806 10260 20220 30030 40034 83530 333 20230 59014 70300 83618 83362==
41989,2023,06,10,06,00,AAXX 10064 41989 11450 51705 10285 20270 30016 40020 60036 70162 83530 333 59014 70030 83618 83362==
41989,2023,06,10,09,00,AAXX 10094 41989 01440 61804 10275 20250 30006 40009 72162 83530 333 59017 70130 83618 83362==
41989,2023,06,10,12,00,AAXX 10124 41989 21340 80000 10286 20260 39973 49983 70262 8532/ 333 10327 58001 69967 70006 83708 84614 88458 81930==
41989,2023,06,11,00,00,AAXX 11004 41989 02430 53102 10245 20230 30010 40013 83530 333 59010 70220 83618 84362==
41989,2023,06,11,03,00,AAXX 11034 41989 02450 51803 10268 20240 30036 40039 83570 333 20231 58006 70200 83618 83362==
41989,2023,06,11,06,00,AAXX 11064 41989 01440 51704 10290 20270 30008 40011 70262 82530 333 59008 70210 83618 84362==
41989,2023,06,11,09,00,AAXX 11094 41989 01440 51802 10250 20280 30002 40005 72162 84470 333 59004 70410 83618 83362==
41989,2023,06,11,12,00,AAXX 11124 41989 01440 41403 10240 20220 39989 49992 70162 83530 333 10293 59004 70350 83618 83362==
41989,2023,06,11,15,00,AAXX 11154 41989 02450 61302 10245 20230 39988 49992 83570 333 59035 70340 83614 83362==
41989,2023,06,11,18,00,AAXX 11184 41989 02450 61402 10250 20230 39999 40003 83570 333 59025 70340 83618 83460==
41989,2023,06,11,21,00,AAXX 11214 41989 02440 41802 10252 20230 39993 49996 82530 333 59026 70340 83618 84362==
41989,2023,06,12,00,00,AAXX 12004 41989 02440 41402 10253 20230 39988 49992 83530 333 59022 70340 83618==
41989,2023,06,12,03,00,AAXX 12034 41989 02450 51302 10302 20260 30023 40027 82570 333 20215 59013 70330 82618 83362==
41989,2023,06,12,06,00,AAXX 12064 41989 02450 41402 10310 20260 30014 40017 52494 333 58006 70320 82618 83362==
41989,2023,06,12,09,00,AAXX 12094 41989 02456 31404 10330 20270 39988 49991 82530 333 59014 70020 82618 83362==
41989,2023,06,12,12,00,AAXX 12124 41989 02456 31403 10308 20270 30077 40080 83530 333 10337 59012 70000 83618==
41989,2023,06,12,15,00,AAXX 12154 41989 02450 31803 10290 20240 39997 40000 83510 333 58012 70000 83618==
41989,2023,06,12,18,00,AAXX 12184 41989 02440 31402 10280 20240 30018 40021 83500 333 58019 70000 83618==
41989,2023,06,12,21,00,AAXX 12214 41989 02440 31402 10270 20240 30007 40010 83500 333 58014 70000 83618==
41989,2023,06,13,00,00,AAXX 13004 41989 02440 41403 10260 20240 30005 40008 84500 333 58017 70000 84618==
41989,2023,06,13,06,00,AAXX 13064 41989 02456 41306 10328 20280 30006 40009 82570 333 59008 70000 82618 83362==
41989,2023,06,13,09,00,AAXX 13094 41989 02456 31402 10325 20280 39997 40000 83500 333 58009 70000 83618==
41989,2023,06,13,12,00,AAXX 13124 41989 02450 31402 10310 20260 39982 49986 83500 333 10338 58005 70000 82618==
41989,2023,06,13,15,00,AAXX 13154 41989 02450 31306 10293 20270 30005 40008 82530 333 58008 70000 82618 83362==
41989,2023,06,13,18,00,AAXX 13184 41989 02450 41405 10290 20270 30014 40017 82570 333 59004 70000 82618 83362==
41989,2023,06,13,21,00,AAXX 13214 41989 02450 41804 10285 20270 30006 40009 83530 333 59001 70000 83618 84362==
41989,2023,06,14,00,00,AAXX 14004 41989 02450 61705 10282 20260 30003 40007 83570 333 59002 70000 83618 84460==
41989,2023,06,14,09,00,AAXX 14094 41989 02456 31805 10338 20280 39999 40002 83500 333 58002 70000 83618==
41989,2023,06,14,15,00,AAXX 14154 41989 02450 31402 10300 20260 30008 40011 83500 333 58003 70000 82618==
41989,2023,06,15,00,00,AAXX 15004 41989 02450 31402 10283 20260 40010 50006 83500 333 58003 70000 83618==
41989,2023,06,15,03,00,AAXX 15034 41989 02450 51803 10300 20250 30030 40034 83530 333 20255 58005 70000 83618 83362==
41989,2023,06,15,06,00,AAXX 15064 41989 02456 61306 10302 20270 30037 40040 83570 333 59016 70000 83618 84460==
41989,2023,06,15,09,00,AAXX 15094 41989 02450 51806 10320 20260 30007 40010 83530 333 58005 70000 83618 83362==
41989,2023,06,15,12,00,AAXX 15124 41989 02450 51805 10305 20280 30001 40004 82570 333 10335 58007 70000 82618 84360==
41989,2023,06,15,15,00,AAXX 15154 41989 02450 61307 10298 20280 30029 40032 83570 333 58021 70000 83618 84362==
41989,2023,06,15,18,00,AAXX 15183 41989 NIL=
41992,2023,06,09,00,00,AAXX 09004 41992 01425 80000 10265 20250 30002 40004 70522 8432/ 333 59018 70340 83616 88460 81925==
41992,2023,06,09,03,00,AAXX 09034 41992 01430 61503 10283 20240 30013 40015 70522 83530 333 20262 59021 70330 83616 86362==
41992,2023,06,09,06,00,AAXX 09064 41992 01435 41203 10323 20240 30003 40005 70521 82530 333 59019 70250 82616 84362==
41992,2023,06,09,09,00,AAXX 09094 41992 01430 81503 10310 20240 39982 49984 70522 8452/ 333 59012 70170 84616 88460==
41992,2023,06,09,12,00,AAXX 09124 41992 41425 80000 10290 20240 39984 49986 70522 8432/ 333 10330 59014 83616 88460 81925==
41992,2023,06,09,15,00,AAXX 09154 41992 01425 60000 10282 20230 30005 40007 70522 83530 333 59007 70000 83616 86362==
41992,2023,06,09,18,00,AAXX 09184 41992 01425 70000 10274 20220 39990 49992 70522 84530 333 59018 70000 84616 87362==
41992,2023,06,09,21,00,AAXX 09214 41992 01425 70904 10270 20230 39966 49968 70522 84530 333 59035 70000 84615 87360==
41992,2023,06,10,00,00,AAXX 10004 41992 01320 80907 10252 20240 39948 49950 76162 8592/ 333 59054 70010 83707 85613 88458 81925==
41992,2023,06,10,03,00,AAXX 10034 41992 01315 82515 10265 20260 39984 49986 76566 8692/ 333 20250 59027 70280 83707 85612 88458 81925==
41992,2023,06,10,06,00,AAXX 10064 41992 21315 81905 10265 20250 39998 40000 79596 8692/ 333 59005 60359 70360 83707 85612 88458 81925==
41992,2023,06,10,09,00,AAXX 10094 41992 01320 81504 10267 20250 39992 49994 76166 8592/ 333 58010 70380 83707 85613 88458 81925==
41992,2023,06,10,12,00,AAXX 10124 41992 21320 81503 10264 20250 39988 49990 76166 8592/ 333 10282 58004 60089 70440 83707 85613 88458 81925==
41992,2023,06,10,15,00,AAXX 10154 41992 01320 80000 10265 20260 30009 40011 75165 8592/ 333 58001 70440 82708 84614 88458 81925==
41992,2023,06,10,18,00,AAXX 10184 41992 21320 80000 10267 20260 30013 40015 75155 8432/ 333 58023 60009 70440 82708 84614 88458 81925==
41992,2023,06,10,21,00,AAXX 10214 41992 02320 80000 10265 20260 39998 40000 8532/ 333 58029 70440 82708 84614 88458 81925==
41992,2023,06,11,00,00,AAXX 11004 41992 01320 80000 10262 20250 30004 40006 70522 8532/ 333 58056 70430 82708 84614 88458 81925==
41992,2023,06,11,03,00,AAXX 11034 41992 01425 71502 10282 20250 30016 40018 70522 84530 333 20260 58032 70160 84616 87360==
41992,2023,06,11,06,00,AAXX 11064 41992 01430 71504 10298 20260 30009 40011 70522 84530 333 58011 70080 84616 87362==
41992,2023,06,11,09,00,AAXX 11094 41992 01320 83606 10240 20240 30003 40005 76196 8592/ 333 58011 70350 82708 84614 88458 81925==
41992,2023,06,11,12,00,AAXX 11124 41992 21320 83602 10245 20230 39991 49993 75196 8592/ 333 10305 58003 60319 70310 82708 84614 88458 81925==
41992,2023,06,11,15,00,AAXX 11154 41992 01420 80000 10240 20220 30002 40004 75155 8432/ 333 59007 70310 83614 88458 81925==
41992,2023,06,11,18,00,AAXX 11184 41992 21420 80000 10235 20220 30012 40014 75155 8492/ 333 59001 60008 70310 83616 88458 81925==
41992,2023,06,11,21,00,AAXX 11214 41992 01420 80000 10230 20210 30006 40008 70522 8432/ 333 58008 70310 83616 88460 81925==
41992,2023,06,12,00,00,AAXX 12004 41992 01425 80000 10255 20240 30008 40010 70522 84520 333 58004 70310 84616 86460==
41992,2023,06,12,03,00,AAXX 12034 41992 01430 31202 10292 20260 30024 40026 70522 82530 333 20230 58008 70310 82616 83362==
41992,2023,06,12,06,00,AAXX 12064 41992 01430 61206 10318 20250 30018 40020 70521 84530 333 58009 70310 84616 86362==
41992,2023,06,12,09,00,AAXX 12094 41992 01/35 21506 10318 20260 39993 49995 70511 82030 333 59010 70020 82362==
41992,2023,06,12,12,00,AAXX 12124 41992 41930 00000 10300 20260 39992 49994 70510 333 10335 58000==
41992,2023,06,12,15,00,AAXX 12154 41992 41925 00000 10285 20270 30007 40009 70500 333 58005==
41992,2023,06,12,18,00,AAXX 12184 41992 01425 70000 10282 20260 30014 40016 70521 84530 333 58002 70000 84616 87362==
41992,2023,06,12,21,00,AAXX 12214 41992 01420 60000 10280 20260 39998 40000 70522 84530 333 59008 70000 84616 86362==
41992,2023,06,13,00,00,AAXX 13004 41992 01420 60000 10268 20260 30004 40006 70522 84530 333 59004 70000 84616 86362==
41992,2023,06,13,03,00,AAXX 13034 41992 01430 80000 10300 20260 30022 40024 70522 8352/ 333 20266 59002 70000 83616 88460==
41992,2023,06,13,06,00,AAXX 13064 41992 01430 61810 10315 20270 30012 40014 70522 84520 333 59006 70000 84616 86460==
41992,2023,06,13,09,00,AAXX 13094 41992 01/30 31808 10317 20270 39996 49998 70521 83030 333 58003 70000 83362==
41992,2023,06,13,12,00,AAXX 13124 41992 01430 61506 10298 20260 39991 49993 70521 84530 333 10324 59001 70000 84616 86362==
41992,2023,06,13,15,00,AAXX 13154 41992 01425 60000 10288 20270 30012 40014 70522 84530 333 58005 70000 84616 86362==
41992,2023,06,13,18,00,AAXX 13184 41992 01425 70000 10278 20260 30010 40012 70522 84530 333 59004 70000 84616 87362==
41992,2023,06,13,21,00,AAXX 13214 41992 01425 71502 10280 20260 30016 40018 70522 84530 333 58018 70000 84616 87362==
41992,2023,06,14,00,00,AAXX 14004 41992 01420 71502 10268 20250 30022 40024 70522 84530 333 58018 70000 84616 87362==
41992,2023,06,14,06,00,AAXX 14064 41992 01430 61506 10320 20270 30027 40029 70521 84530 333 58015 70000 84616 86362==
41992,2023,06,14,09,00,AAXX 14094 41992 01/30 21508 10322 20270 30013 40015 70522 82030 333 58017 70000 82362==
41992,2023,06,14,12,00,AAXX 14124 41992 01430 41504 10305 20270 30016 40018 70521 82530 333 10330 58025 70000 82616 84362==
41992,2023,06,14,15,00,AAXX 14154 41992 01425 31508 10295 20270 30025 40027 70511 83500 333 58013 70000 83616==
41992,2023,06,14,18,00,AAXX 14184 41992 01425 41502 10290 20270 30035 40037 70511 84500 333 58025 70000 84616==
41992,2023,06,14,21,00,AAXX 14214 41992 01425 31503 10285 20270 30030 40032 70511 83500 333 58014 70000 83616==
41992,2023,06,15,00,00,AAXX 15004 41992 01425 61806 10290 20260 30033 40035 70521 84520 333 58011 70000 84616 86460==
41992,2023,06,15,03,00,AAXX 15034 41992 41320 81804 10294 20280 30049 40051 76122 8432/ 333 20278 58018 82707 84613 88458 81925==
41992,2023,06,15,06,00,AAXX 15064 41992 21430 71504 10317 20270 30043 40045 70562 84530 333 58016 60005 84616 87362==
41992,2023,06,15,09,00,AAXX 15094 41992 41530 61505 10320 20270 30028 40030 70522 82130 333 58015 82825 86362==
41992,2023,06,15,12,00,AAXX 15124 41992 41430 61808 10300 20260 30019 40021 70522 84520 333 10325 58003 84616 86460==
41992,2023,06,15,15,00,AAXX 15154 41992 41425 62110 10295 20280 30041 40043 70522 84520 333 58016 84616 86460==
41992,2023,06,15,18,00,AAXX 15184 41992 41425 61804 10294 20270 30042 40044 70522 84530 333 58007 84616 86360==
41992,2023,06,15,21,00,AAXX 15214 41992 41425 61810 10292 20270 30021 40023 70522 84530 333 59023 84616 86360==
41998,2023,06,09,03,00,AAXX 09034 41998 02456 80000 10290 20260 30068 40074 8442/ 333 20260 59005 70130 82618 88458==
41998,2023,06,09,06,00,AAXX 09064 41998 NIL=
41998,2023,06,09,09,00,AAXX 09094 41998 01456 81704 10278 20260 39984 49990 72166 8442/ 333 59005 70080 83618 88458==
41998,2023,06,09,12,00,AAXX 09124 41998 01456 80000 10276 20260 39987 49993 70262 8442/ 333 10296 59002 70030 83618 88458==
41998,2023,06,09,18,00,AAXX 09184 41998 NIL=
41998,2023,06,10,00,00,AAXX 10004 41998 21456 80000 10260 20257 30016 40022 76166 8352/ 333 58016 60139 70310 83616 88456==
41998,2023,06,10,03,00,AAXX 10034 41998 01456 80000 10280 20260 30009 40015 76166 8442/ 333 20252 58010 70400 83616 88456==
41998,2023,06,10,06,00,AAXX 10064 41998 NIL=
41998,2023,06,10,12,00,AAXX 10124 41998 02456 80000 10277 20260 39992 49998 8442/ 333 10286 58005 73618 88458==
41998,2023,06,11,00,00,AAXX 11004 41998 02456 80000 10275 20270 30017 40023 8342/ 333 58001 70150 82618 88458==
41998,2023,06,11,03,00,AAXX 11034 41998 02456 60000 10293 20260 30025 40031 83470 333 20267 58019 70060 82618 83458==
41998,2023,06,11,09,00,AAXX 11094 41998 01456 81702 10268 20250 30003 40009 76166 8442/ 333 58018 70080 83618 88458==
41998,2023,06,11,12,00,AAXX 11124 41998 11456 81601 10266 20250 30011 40017 60056 70262 8442/ 333 10293 58019 70100 83618 88459==
41998,2023,06,11,18,00,AAXX 11184 41998 NIL=
41998,2023,06,12,00,00,AAXX 12004 41998 02456 80000 10266 20260 30029 40035 8342/ 333 58012 70100 82618 88458==
41998,2023,06,12,03,00,AAXX 12033 41998 41456 80000 10294 20267 30030 40036 58005 70040 88458==
41998,2023,06,12,06,00,AAXX 12064 41998 NIL=
41998,2023,06,12,12,00,AAXX 12124 41998 02456 60000 10291 20250 30015 40021 83470 333 10322 58004 70000 82618 84458==
41998,2023,06,12,18,00,AAXX 12184 41998 NIL=
41998,2023,06,13,00,00,AAXX 13004 41998 NIL=
41998,2023,06,13,03,00,AAXX 13034 41998 02456 80000 10300 20260 30040 40046 8442/ 333 20268 58010 70000 82618 88458==
41998,2023,06,13,06,00,AAXX 13064 41998 NIL=
41998,2023,06,13,12,00,AAXX 13124 41998 02456 60000 10293 20250 30002 40008 83420 333 10328 59013 70000 82618 84458==
41998,2023,06,14,00,00,AAXX 14004 41998 NIL=
41998,2023,06,14,12,00,AAXX 14124 41998 11456 60000 10284 20260 30014 40020 60026 72122 83420 333 10330 58012 70020 82618 84458==
41998,2023,06,15,00,00,AAXX 15004 41998 02456 80000 10288 20270 30037 40043 8342/ 333 58011 70020==
41998,2023,06,15,03,00,AAXX 15034 41998 02456 80000 10306 20270 30040 40046 8442/ 333 20272 58015 70020 82618 88458==
41998,2023,06,15,06,00,AAXX 15064 41998 02456 80000 10320 20270 30033 40039 8342/ 333 59003 70020 82618 88458==
41998,2023,06,15,07,00,AAXX 15074 41998 02456 80000 10320 20270 30033 40039 8342/ 333 59003 70020 82618 88458==
41998,2023,06,15,18,00,AAXX 15183 41998 NIL=
