ESTACION,ANO,MES,DIA,HORA,MINUTO,PARTE
41850,2024,11,08,00,00,AAXX 08004 41850 31940 00000 10194 20180 30041 40143 70500 333 58011 70000=
41850,2024,11,08,03,00,AAXX 08034 41850 31950 00000 10255 20200 30065 40164 70500 333 20190 58009 70000=
41850,2024,11,08,06,00,AAXX 08064 41850 32956 00902 10286 20200 30054 40152 333 58013 70000=
41850,2024,11,08,09,00,AAXX 08094 41850 32457 40000 10301 20210 30018 40115 84500 333 56900 58006 70000 84618=
41850,2024,11,08,12,00,AAXX 08124 41850 31440 80000 10255 20240 30023 40122 70522 8352/ 333 10309 56999 59003 70000 83618 88458=
41850,2024,11,08,15,00,AAXX 08154 41850 31430 31802 10230 20200 30046 40146 70520 83500 333 56900 59003 70000 83618=
41850,2024,11,08,18,00,AAXX 08184 41850 31930 00000 10218 20210 30048 40148 70500 333 59004 70000=
41850,2024,11,08,21,00,AAXX 08214 41850 31930 00000 10209 20200 30046 40147 70500 333 59001 70000=
41850,2024,11,09,00,00,AAXX 09004 41850 31940 00000 10200 20190 30044 40145 70500 333 58003 70000=
41850,2024,11,09,03,00,AAXX 09034 41850 32956 01803 10255 20190 30068 40167 333 20196 58003 70000=
41850,2024,11,09,06,00,AAXX 09064 41850 32957 00000 10292 20180 30050 40148 333 59004 70000=
41850,2024,11,09,09,00,AAXX 09094 41850 32957 00000 10312 20150 30019 40116 333 58001 70000=
41850,2024,11,09,12,00,AAXX 09124 41850 31940 00000 10260 20210 30019 40118 70500 333 10318 59004 70000=
41850,2024,11,09,15,00,AAXX 09154 41850 31930 00000 10210 20200 30043 40144 70500 333 59003 70000=
41850,2024,11,09,18,00,AAXX 09184 41850 31930 00000 10200 20190 30046 40147 70500 333 59002 70000=
41850,2024,11,09,21,00,AAXX 09214 41850 31930 00000 10189 20180 30044 40146 70500 59002 70000=
41850,2024,11,10,00,00,AAXX 10004 41850 31930 00000 10177 20170 30042 40144 70500 333 59002 70000=
41850,2024,11,10,03,00,AAXX 10034 41850 31940 00000 10205 20180 30053 40154 70500 333 20174 59015 70000=
41850,2024,11,10,06,00,AAXX 10064 41850 31950 01802 10255 20150 30042 40141 70500 333 59008 70000=
41850,2024,11,10,09,00,AAXX 10094 41850 32957 00000 10305 20190 30017 40115 333 59002 70000=
41850,2024,11,10,12,00,AAXX 10124 41850 31940 00000 10258 20210 30016 40115 70500 333 10314 59003 70000=
41850,2024,11,10,15,00,AAXX 10154 41850 31930 00902 10216 20210 30040 40140 70500 333 59004 70000=
41850,2024,11,10,18,00,AAXX 10184 41850 31930 00000 10203 20190 30042 40143 70500 333 59004 70000=
41850,2024,11,10,21,00,AAXX 10214 41850 31930 00000 10192 20180 30041 40143 70500 333 59003 70000=
41850,2024,11,11,00,00,AAXX 11004 41850 31930 00000 10180 20170 30040 40142 70500 333 59002 70000=
41850,2024,11,11,03,00,AAXX 11034 41850 31950 00000 10260 20190 30061 40160 70500 333 20177 58008 70000=
41850,2024,11,11,06,00,AAXX 11064 41850 32957 01302 10297 20180 30039 40137 333 59003 70000=
41850,2024,11,11,09,00,AAXX 11094 41850 32957 00000 10310 20170 30009 40106 333 59008 70000=
41850,2024,11,11,12,00,AAXX 11124 41850 31940 00000 10250 20210 30012 40110 70500 333 10320 59005 70000=
41850,2024,11,11,15,00,AAXX 11154 41850 31930 00000 10210 20200 30036 40137 70500 333 59004 70000=
41850,2024,11,11,18,00,AAXX 11184 41850 31930 02701 10200 20190 30041 40142 70500 333 59001 70000=
41850,2024,11,11,21,00,AAXX 11214 41850 31930 00000 10190 20190 30038 40140 70500 333 59003 70000=
41850,2024,11,12,00,00,AAXX 12004 41850 31930 00000 10180 20180 30035 40137 70500 333 59005 70000=
41850,2024,11,12,03,00,AAXX 12034 41850 31950 00902 10240 20190 30057 40157 70500 333 20177 59004 70000=
41850,2024,11,12,06,00,AAXX 12064 41850 32956 00000 10281 20160 30042 40140 333 59003 70000=
41850,2024,11,12,09,00,AAXX 12094 41850 32957 00000 10302 20160 30002 40099 333 59007 70000=
41850,2024,11,12,12,00,AAXX 12124 41850 31940 00000 10242 20210 30002 40101 70500 333 10313 59009 70000=
41850,2024,11,12,15,00,AAXX 12154 41850 31930 00000 10220 20210 30017 40122 70500 333 59019 70000=
41850,2024,11,12,18,00,AAXX 12184 41850 NIL=
41850,2024,11,12,21,00,AAXX 12214 41850 31930 00000 10195 20190 30019 40120 70500 333 59010 70000=
41850,2024,11,13,00,00,AAXX 13004 41850 31930 00000 10182 20180 30016 40117 70500 333 59019 70000=
41850,2024,11,13,03,00,AAXX 13034 41850 31940 00000 10222 20200 30040 40140 70500 333 20179 59017 70000=
41850,2024,11,13,06,00,AAXX 13064 41850 31950 01302 10280 20190 30029 40127 70500 333 59013 70000=
41850,2024,11,13,09,00,AAXX 13094 41850 31950 00000 10293 20180 30004 40102 70500 333 58002 70000=
41850,2024,11,13,12,00,AAXX 13124 41850 31930 00000 10240 20220 30010 40109 70500 333 10299 58008 70000=
41850,2024,11,13,15,00,AAXX 13154 41850 31930 00000 10214 20200 30024 40124 70500 333 58008 70000=
41850,2024,11,13,18,00,AAXX 13184 41850 31930 00000 10205 20200 30027 40128 70500 333 58005 70000=
41850,2024,11,13,21,00,AAXX 13214 41850 31930 00000 10191 20190 30029 40131 70500 333 58010 70000=
41850,2024,11,14,00,00,AAXX 14004 41850 31930 00000 10176 20170 30031 40133 70500 333 58015 70000=
41850,2024,11,14,03,00,AAXX 14034 41850 31940 00000 10225 20210 30058 40158 70500 333 20174 58018 70000=
41850,2024,11,14,06,00,AAXX 14064 41850 31950 00902 10282 20190 30040 40138 70500 333 58011 70000=
41850,2024,11,14,09,00,AAXX 14094 41850 32956 00000 10296 20170 30012 40109 333 58009 70000=
41850,2024,11,14,12,00,AAXX 14124 41850 31930 00000 10230 20220 30014 40114 70500 333 10301 58004 70000=
41850,2024,11,14,15,00,AAXX 14154 41850 31930 00000 10206 20200 30030 40131 70500 333 58006 70000=
41850,2024,11,14,18,00,AAXX 14180 41850 31930 00000 10193 20180 30032 40134 70500 333 58005 58005=
41850,2024,11,14,21,00,AAXX 14214 41850 31930 00000 10179 20170 30030 40132 70500 333 58001 70000=
41851,2024,11,08,00,00,AAXX 08004 41851 31950 00000 10205 20200 30080 40145 70500 333 58011 70000=
41851,2024,11,08,03,00,AAXX 08034 41851 31950 00000 10250 20210 30099 40163 70500 333 20205 58007 70000=
41851,2024,11,08,06,00,AAXX 08064 41851 32950 02701 10295 20190 30080 40143 333 58005 70000=
41851,2024,11,08,09,00,AAXX 08094 41851 31950 00000 10310 20190 30055 40117 70500 333 58006 70000=
41851,2024,11,08,12,00,AAXX 08124 41851 31950 00000 10265 20220 30058 40121 70500 333 10320 59003 70000=
41851,2024,11,08,15,00,AAXX 08154 41851 31950 00000 10224 20200 30080 40144 70500 333 59006 70000=
41851,2024,11,08,18,00,AAXX 08184 41851 31945 00000 10216 20210 30083 40147 70500 333 59006 70000=
41851,2024,11,08,21,00,AAXX 08214 41851 32950 00000 10208 20200 30080 40145 70500 333 59003 70000=
41851,2024,11,09,00,00,AAXX 09004 41851 31950 00000 10200 20190 30082 40147 70500 333 58002 70000=
41851,2024,11,09,03,00,AAXX 09034 41851 31950 00902 10256 20200 30099 40162 70500 333 20200 58000 70000=
41851,2024,11,09,06,00,AAXX 09064 41851 31950 00902 10303 20170 30079 40142 70500 333 59001 70000=
41851,2024,11,09,09,00,AAXX 09094 41851 32950 00701 10312 20170 30054 40116 333 59001 70000=
41851,2024,11,09,12,00,AAXX 09124 41851 32950 00000 10261 20240 30059 40122 333 10318 58001 70000=
41851,2024,11,09,15,00,AAXX 09154 41851 31945 00000 10220 20210 30080 40144 70500 333 58000 70000=
41851,2024,11,09,18,00,AAXX 09184 41851 31945 00000 10205 20200 30080 40145 70500 333 59000 70000=
41851,2024,11,09,21,00,AAXX 09214 41851 31940 00000 10200 20190 30073 40137 70500 333 59007 70000=
41851,2024,11,10,00,00,AAXX 10004 41851 31920 00000 10190 20180 30080 40145 71000 333 59002 70000=
41851,2024,11,10,03,00,AAXX 10034 41851 31940 00702 10250 20190 30102 40166 70500 333 20190 58003 70000=
41851,2024,11,10,06,00,AAXX 10064 41851 32950 00702 10296 20190 30086 40149 333 58007 70000=
41851,2024,11,10,09,00,AAXX 10094 41851 32450 20701 10320 20190 30058 40120 81530 333 56990 58004 70000 81618=
41851,2024,11,10,12,00,AAXX 10124 41851 31940 00000 10255 20220 30060 40123 70510 333 10320 58001 70000=
41851,2024,11,10,15,00,AAXX 10154 41851 31940 00000 10223 20210 30080 40144 70500 333 58000 70000=
41851,2024,11,10,18,00,AAXX 10184 41851 31940 00000 10210 20200 30079 40144 70500 333 59001 70000=
41851,2024,11,10,21,00,AAXX 10214 41851 31940 00000 10201 20190 30070 40134 70500 333 59003 70000=
41851,2024,11,11,00,00,AAXX 11004 41851 31940 00000 10191 20180 30075 40140 70500 333 59005 70000=
41851,2024,11,11,03,00,AAXX 11034 41851 31445 30701 10260 20200 30098 40161 70500 81530 333 20191 56990 59004 70000 81618=
41851,2024,11,11,06,00,AAXX 11064 41851 32950 00901 10295 20190 30078 40141 333 59008 70000=
41851,2024,11,11,09,00,AAXX 11094 41851 32450 30000 10312 20180 30046 40108 81501 333 56990 59012 70000=
41851,2024,11,11,12,00,AAXX 11124 41851 31440 30000 10255 20220 30049 40112 70510 81530 333 10318 56990 59011 70000 81618=
41851,2024,11,11,15,00,AAXX 11154 41851 31440 40000 10225 20210 30073 40137 70521 82530 333 56990 59007 70000 82618 83362=
41851,2024,11,11,18,00,AAXX 11184 41851 31440 40000 10215 20210 30071 40135 70521 82530 333 56990 59008 70000 82618 83362=
41851,2024,11,11,21,00,AAXX 11214 41851 31430 30000 10200 20190 30064 40128 70521 81530 333 56990 59006 70000 81618=
41851,2024,11,12,00,00,AAXX 12004 41851 31415 30000 10190 20180 30075 40140 71021 81530 333 56990 58000 70000 81618=
41851,2024,11,12,03,00,AAXX 12034 41851 31945 00901 10268 20200 30096 40159 70510 333 20190 59002 70000=
41851,2024,11,12,06,00,AAXX 12064 41851 32450 30901 10303 20170 30072 40134 83400 333 56900 59006 70000=
41851,2024,11,12,09,00,AAXX 12094 41851 32450 10000 10315 20160 30039 40101 81400 333 56900 59007 70000 81618=
41851,2024,11,12,12,00,AAXX 12124 41851 31940 00000 10255 20210 30040 40103 70510 333 10320 59009 70000=
41851,2024,11,12,15,00,AAXX 12154 41851 31940 00000 10220 20210 30060 40124 70500 333 59013 70000=
41851,2024,11,12,18,00,AAXX 12184 41851 31940 00000 10208 20200 30062 40126 70500 333 59009 70000=
41851,2024,11,12,21,00,AAXX 12214 41851 31930 00000 10200 20190 30056 40120 70500 333 59008 70000=
41851,2024,11,13,00,00,AAXX 13004 41851 31910 00000 10190 20180 30056 40121 71000 333 59019 70000=
41851,2024,11,13,03,00,AAXX 13034 41851 31930 00000 10225 20210 30077 40141 70500 333 20190 59019 70000=
41851,2024,11,13,06,00,AAXX 13064 41851 31440 20902 10283 20200 30064 40127 70500 82500 333 56900 59008 70000 82618=
41851,2024,11,13,09,00,AAXX 13094 41851 31940 00000 10302 20190 30038 40101 70500 333 56900 70000=
41851,2024,11,13,12,00,AAXX 13124 41851 31440 30000 10254 20220 30045 40108 70500 83500 333 10310 56900 58005 70000 83618=
41851,2024,11,13,15,00,AAXX 13154 41851 31940 00000 10224 20210 30062 40126 70500 333 58002 70000=
41851,2024,11,13,18,00,AAXX 13184 41851 31940 00000 10212 20200 30064 40128 70500 333 58002 70000=
41851,2024,11,13,21,00,AAXX 13214 41851 31930 00000 10199 20190 30071 40136 70500 333 58015 70000=
41851,2024,11,14,00,00,AAXX 14004 41851 31910 00000 10194 20180 30072 40137 71000 333 58016 70000=
41851,2024,11,14,03,00,AAXX 14034 41851 31930 00000 10230 20200 30092 40156 70500 333 20190 58015 70000=
41851,2024,11,14,06,00,AAXX 14064 41851 31940 03601 10280 20190 30077 40140 70500 333 58013 70000=
41851,2024,11,14,09,00,AAXX 14094 41851 31445 10000 10305 20180 30049 40111 70500 81500 333 56900 58011 70000 81618=
41851,2024,11,14,12,00,AAXX 14124 41851 31940 00000 10245 20230 30051 40114 70500 333 10308 58006 70000=
41851,2024,11,14,15,00,AAXX 14154 41851 31940 00000 10215 20210 30069 40133 70500 333 58007 70000=
41851,2024,11,14,18,00,AAXX 14184 41851 31940 00000 10204 20190 30067 40131 70500 333 58003 70000=
41851,2024,11,14,21,00,AAXX 14214 41851 31930 00000 10190 20180 30065 40130 70500 333 59006 70000=
41856,2024,11,08,00,00,AAXX 08004 41856 31930 20901 10202 20190 30105 40142 70511 82030 333 56090 58011 70000 82362=
41856,2024,11,08,03,00,AAXX 08034 41856 32950 00901 10250 20210 30123 40159 333 20202 58007 70000=
41856,2024,11,08,06,00,AAXX 08064 41856 32950 00902 10274 20200 30106 40142 333 58009 70000=
41856,2024,11,08,09,00,AAXX 08094 41856 32950 00902 10290 20170 30080 40115 333 58001 70000=
41856,2024,11,08,12,00,AAXX 08124 41856 32930 00502 10250 20210 30087 40123 333 10295 59004 70000=
41856,2024,11,08,15,00,AAXX 08154 41856 31930 00501 10212 20200 30106 40142 70500 333 59006 70000=
41856,2024,11,08,18,00,AAXX 08184 41856 31930 00901 10205 20200 30104 40140 70500 333 59006 70000=
41856,2024,11,08,21,00,AAXX 08214 41856 31930 00901 10200 20190 30099 40138 70500 333 59006 70000=
41856,2024,11,09,00,00,AAXX 09004 41856 31930 00901 10192 20180 30106 40143 70500 333 58001 70000=
41856,2024,11,09,03,00,AAXX 09034 41856 32950 00501 10250 20200 30124 40160 333 20190 58001 70000=
41856,2024,11,09,06,00,AAXX 09064 41856 32950 00501 10280 20200 30108 40144 333 58002 70000=
41856,2024,11,09,09,00,AAXX 09094 41856 32950 00501 10294 20180 30079 40114 333 59001 70000=
41856,2024,11,09,12,00,AAXX 09124 41856 32930 00000 10240 20220 30087 40123 333 10300 58000 70000=
41856,2024,11,09,15,00,AAXX 09154 41856 31930 00000 10216 20210 30106 40142 70500 333 58000 70000=
41856,2024,11,09,18,00,AAXX 09184 41856 31930 00000 10205 20200 30103 40139 70500 333 59001 70000=
41856,2024,11,09,21,00,AAXX 09214 41856 31930 00000 10195 20190 30104 40141 70500 333 58005 70000=
41856,2024,11,10,00,00,AAXX 10004 41856 31930 00501 10190 20180 30105 40142 70500 333 59001 70000=
41856,2024,11,10,03,00,AAXX 10034 41856 32940 00502 10256 20210 30125 40161 333 20188 58001 70000=
41856,2024,11,10,06,00,AAXX 10064 41856 32950 00502 10286 20210 30106 40141 333 59002 70000=
41856,2024,11,10,09,00,AAXX 10094 41856 32950 00000 10305 20200 30083 40118 333 58004 70000=
41856,2024,11,10,12,00,AAXX 10124 41856 32930 00000 10250 20240 30087 40123 333 10312 58000 70000=
41856,2024,11,10,15,00,AAXX 10154 41856 31930 00000 10220 20210 30107 40143 70500 333 58001 70000=
41856,2024,11,10,18,00,AAXX 10184 41856 31930 00000 10206 20200 30105 40141 70500 333 58002 70000=
41856,2024,11,10,21,00,AAXX 10214 41856 31930 00000 10198 20190 30103 40140 70500 333 59001 70000=
41856,2024,11,11,00,00,AAXX 11004 41856 31930 00000 10191 20180 30101 40138 70500 333 59004 70000=
41856,2024,11,11,03,00,AAXX 11034 41856 32940 10501 10256 20210 30121 40157 81030 333 20190 56090 59004 70000 81362=
41856,2024,11,11,06,00,AAXX 11064 41856 32450 30000 10294 20190 30098 40133 82430 333 56990 59010 70000 81618 83362=
41856,2024,11,11,09,00,AAXX 11094 41856 32450 30901 10308 20200 30071 40106 82430 333 56990 59012 70000 81618 83362=
41856,2024,11,11,12,00,AAXX 11124 41856 31940 00000 10248 20220 30078 40114 70500 333 10312 59009 70000=
41856,2024,11,11,15,00,AAXX 11154 41856 31930 00000 10217 20210 30101 40137 70500 333 59006 70000=
41856,2024,11,11,18,00,AAXX 11184 41856 31920 00000 10204 20190 30099 40136 70500 333 59006 70000=
41856,2024,11,11,21,00,AAXX 11214 41856 31920 00000 10196 20190 30098 40135 70500 333 59005 70000=
41856,2024,11,12,00,00,AAXX 12004 41856 31920 00000 10188 20188 30097 40134 70500 333 59004 70000=
41856,2024,11,12,03,00,AAXX 12034 41856 32950 00501 10254 20210 30118 40154 333 20185 59003 70000=
41856,2024,11,12,06,00,AAXX 12064 41856 32456 30000 10293 20200 30096 40131 83200 333 56900 59002 70000 83830=
41856,2024,11,12,09,00,AAXX 12094 41856 32456 10000 10303 20180 30066 40101 81100 333 56900 59005 70000 81830=
41856,2024,11,12,12,00,AAXX 12124 41856 31940 00000 10244 20220 30066 40102 70500 333 10315 59012 70000=
41856,2024,11,12,15,00,AAXX 12154 41856 31930 00000 10213 20200 30086 40122 70500 333 59015 70000=
41856,2024,11,12,18,00,AAXX 12184 41856 31920 00000 10200 20190 30092 40129 70500 333 59007 70000=
41856,2024,11,12,21,00,AAXX 12214 41856 31920 00000 10193 20180 30087 40124 70500 333 59011 70000=
41856,2024,11,13,00,00,AAXX 13004 41856 31920 00000 10186 20186 30082 40119 70500 333 59015 70000=
41856,2024,11,13,03,00,AAXX 13034 41856 31930 00000 10245 20220 30105 40141 70500 333 20183 59013 70000=
41856,2024,11,13,06,00,AAXX 13064 41856 32950 00000 10290 20200 30090 40125 333 59006 70000=
41856,2024,11,13,09,00,AAXX 13094 41856 32950 00902 10300 20190 30066 40101 333 58000 70000=
41856,2024,11,13,12,00,AAXX 13124 41856 31930 00000 10260 20220 30070 40106 70500 333 10305 58004 70000=
41856,2024,11,13,15,00,AAXX 13154 41856 31930 00000 10218 20210 30089 40125 70500 333 58003 70000=
41856,2024,11,13,18,00,AAXX 13184 41856 31930 00000 10205 20200 30095 40131 70500 333 58003 70000=
41856,2024,11,13,21,00,AAXX 13214 41856 31930 00000 10201 20190 30089 40126 70500 333 58002 70000=
41856,2024,11,14,00,00,AAXX 14004 41856 31930 00000 10187 20187 30097 40134 70500 333 58015 70000=
41856,2024,11,14,03,00,AAXX 14034 41856 32950 00000 10250 20210 30118 40154 333 20187 58013 70000=
41856,2024,11,14,06,00,AAXX 14064 41856 32950 30902 10290 20230 30100 40135 83030 333 56090 58010 70000 83362=
41856,2024,11,14,09,00,AAXX 14094 41856 32950 30000 10295 20200 30073 40108 83030 333 56090 58007 70000 83362=
41856,2024,11,14,12,00,AAXX 14124 41856 31930 00000 10246 20230 30076 40112 70500 333 10305 58006 70000=
41856,2024,11,14,15,00,AAXX 14154 41856 31920 00000 10214 20200 30095 40131 71000 333 58006 70000=
41856,2024,11,14,18,00,AAXX 14184 41856 31920 00000 10204 20190 30099 40136 71000 333 58004 70000=
41856,2024,11,14,21,00,AAXX 14214 41856 31920 00000 10200 20190 30093 40130 71000 333 58004 70000=
41858,2024,11,08,00,00,AAXX 08004 41858 01940 00000 10220 20210 30097 40143 70500 333 58006 70000==
41858,2024,11,08,03,00,AAXX 08034 41858 01950 00605 10264 20200 30114 40160 70500 333 20210 58006 70000==
41858,2024,11,08,06,00,AAXX 08064 41858 01550 20605 10295 20200 30100 40145 70500 82100 333 58009 70000 82825==
41858,2024,11,08,09,00,AAXX 08094 41858 01950 00505 10310 20180 30072 40117 70500 333 58003 70000==
41858,2024,11,08,12,00,AAXX 08124 41858 01950 00000 10262 20210 30077 40123 70500 333 10315 59006 70000==
41858,2024,11,08,15,00,AAXX 08154 41858 01940 00000 10244 20200 30100 40146 70500 333 59003 70000==
41858,2024,11,08,18,00,AAXX 08184 41858 01935 00000 10240 20200 30103 40149 70500 333 58009 70000==
41858,2024,11,08,21,00,AAXX 08214 41858 01935 00000 10224 20200 30096 40142 70500 333 59007 70000==
41858,2024,11,09,00,00,AAXX 09004 41858 01930 00000 10210 20190 30099 40145 70500 333 58002 70000==
41858,2024,11,09,03,00,AAXX 09034 41858 01950 00606 10260 20200 30116 40162 70500 333 20200 58002 70000==
41858,2024,11,09,06,00,AAXX 09064 41858 01950 00606 10310 20190 30099 40144 70500 333 59001 70000==
41858,2024,11,09,09,00,AAXX 09094 41858 01950 00302 10315 20190 30072 40117 70500 333 58000 70000==
41858,2024,11,09,12,00,AAXX 09124 41858 01940 00000 10275 20220 30079 40125 70500 333 10320 58002 70000==
41858,2024,11,09,15,00,AAXX 09154 41858 01940 00000 10252 20210 30097 40143 70500 333 59003 70000==
41858,2024,11,09,18,00,AAXX 09184 41858 01935 00000 10240 20220 30103 40149 70500 333 58000 70000==
41858,2024,11,09,21,00,AAXX 09214 41858 01930 00000 10224 20200 30096 40142 70500 333 58000 70000==
41858,2024,11,10,00,00,AAXX 10004 41858 01920 00000 10210 20190 30099 40145 71000 333 58000 70000==
41858,2024,11,10,03,00,AAXX 10034 41858 01935 00605 10252 20190 30118 40164 70500 333 20199 58002 70000==
41858,2024,11,10,06,00,AAXX 10064 41858 01/50 30905 10300 20200 30099 40144 70500 83030 333 58000 70000 83362==
41858,2024,11,10,09,00,AAXX 10094 41858 01550 30905 10304 20190 30076 40121 70521 83200 333 58004 70000 83825==
41858,2024,11,10,12,00,AAXX 10124 41858 01950 00000 10270 20210 30077 40123 70500 333 10320 59002 70000==
41858,2024,11,10,15,00,AAXX 10154 41858 01940 00000 10250 20210 30097 40143 70500 333 58000 70000==
41858,2024,11,10,18,00,AAXX 10184 41858 01935 00000 10240 20210 30103 40149 70500 333 58000 70000==
41858,2024,11,10,21,00,AAXX 10214 41858 01930 00000 10222 20200 30092 40138 70500 333 59004 70000==
41858,2024,11,11,00,00,AAXX 11004 41858 01925 00000 10212 20200 30095 40141 71000 333 59004 70000==
41858,2024,11,11,03,00,AAXX 11034 41858 01935 00000 10258 20210 30114 40160 70500 333 20198 59004 70000==
41858,2024,11,11,06,00,AAXX 11064 41858 01450 30000 10320 20200 30090 40135 70500 83500 333 59009 70000==
41858,2024,11,11,09,00,AAXX 11094 41858 01550 20305 10314 20180 30064 40109 70520 82100 333 59012 70000 82825==
41858,2024,11,11,12,00,AAXX 11124 41858 01950 00000 10265 20220 30068 40114 70520 333 10320 59009 70000==
41858,2024,11,11,15,00,AAXX 11154 41858 01940 00000 10238 20220 30092 40139 70500 333 59005 70000==
41858,2024,11,11,18,00,AAXX 11184 41858 01940 00000 10232 20210 30099 40145 70500 333 59004 70000==
41858,2024,11,12,00,00,AAXX 12004 41858 01/08 30000 10210 20200 30093 40139 74040 83030 333 59002 70000 83362==
41858,2024,11,12,03,00,AAXX 12034 41858 01930 00000 10262 20210 30110 40156 70540 333 10198 59004 70000==
41858,2024,11,12,06,00,AAXX 12064 41858 01450 40000 10305 20190 30091 40136 70540 84800 333 59001 70000 82618 83825==
41858,2024,11,12,09,00,AAXX 12094 41858 01550 30000 10320 20180 30058 40103 70511 83200 333 59006 70000 83825==
41858,2024,11,12,12,00,AAXX 12124 41858 01950 00000 10276 20210 30057 40103 70500 333 10325 59011 70000==
41858,2024,11,12,15,00,AAXX 12154 41858 01950 00000 10240 20220 30076 40123 70500 333 59016 70000==
41858,2024,11,12,18,00,AAXX 12184 41858 01940 00000 10230 20210 30086 40132 70500 333 59013 70000==
41858,2024,11,12,21,00,AAXX 12214 41858 01920 00000 10220 20200 30079 40125 71000 333 59010 70000==
41858,2024,11,13,00,00,AAXX 13004 41858 01908 00000 10210 20190 30075 40121 74000 333 59018 70000==
41858,2024,11,13,03,00,AAXX 13034 41858 01912 00000 10235 20210 30097 40143 71000 333 20195 59013 70000==
41858,2024,11,13,06,00,AAXX 13064 41858 01918 00000 10274 20220 30081 40127 71000 333 59010 70000==
41858,2024,11,13,09,00,AAXX 13094 41858 01922 00000 10304 20180 30058 40103 71000 333 58000 70000==
41858,2024,11,13,12,00,AAXX 13124 41858 01920 00000 10256 20230 30063 40109 71000 333 10310 58006 70000==
41858,2024,11,13,15,00,AAXX 13154 41858 01920 00000 10240 20220 30081 40128 71000 333 58005 70000==
41858,2024,11,13,18,00,AAXX 13184 41858 01918 00000 10226 20220 30089 40135 71000 333 58003 70000==
41858,2024,11,13,21,00,AAXX 13214 41858 01908 00000 10218 20210 30083 40129 74200 333 58004 70000==
41858,2024,11,14,00,00,AAXX 14004 41858 01901 00000 10210 20200 30091 40137 74540 89/// 333 58016 70000==
41858,2024,11,14,03,00,AAXX 14034 41858 01906 00000 10220 20210 30111 40157 74244 333 20198 58014 70000==
41858,2024,11,14,06,00,AAXX 14064 41858 01930 00000 10300 20240 30094 40139 70540 333 58013 70000==
41858,2024,11,14,09,00,AAXX 14094 41858 01435 40000 10302 20210 30068 40113 70500 83520 333 58010 70000 83618 84458==
41858,2024,11,14,12,00,AAXX 14124 41858 01/30 20000 10266 20230 30069 40115 70521 82020 333 10306 58006 70000 82658==
41858,2024,11,14,15,00,AAXX 14154 41858 01925 00000 10242 20220 30087 40134 71000 333 58006 70000==
41858,2024,11,14,18,00,AAXX 14184 41858 41920 00000 10234 20220 30095 40141 71000 333 58006==
41858,2024,11,14,21,00,AAXX 14214 41858 01915 00000 10204 20190 30081 40127 71000 333 59002 70000==
41859,2024,11,08,00,00,AAXX 08004 41859 01/30 30000 10220 20210 30102 40140 70511 83030 333 58008 70000 83362==
41859,2024,11,08,03,00,AAXX 08034 41859 01/50 33602 10263 20210 30120 40157 70511 83030 333 20216 58003 70000 83362==
41859,2024,11,08,06,00,AAXX 08064 41859 02/50 33602 10296 20200 30109 40146 83030 333 58010 70000 83362==
41859,2024,11,08,09,00,AAXX 08094 41859 02956 01304 10308 20200 30080 40117 333 58003 70000==
41859,2024,11,08,12,00,AAXX 08124 41859 02950 00000 10261 20210 30087 40124 333 10310 59005 70000==
41859,2024,11,08,15,00,AAXX 08154 41859 02950 00000 10236 20210 30105 40143 333 59006 70000==
41859,2024,11,08,18,00,AAXX 08184 41859 02950 00000 10231 20200 30104 40142 333 59006 70000==
41859,2024,11,08,21,00,AAXX 08214 41859 01950 00000 10222 20210 30105 40143 70500 333 59006 70000==
41859,2024,11,09,00,00,AAXX 09004 41859 01940 00502 10213 20200 30107 40145 70500 333 58005 70000==
41859,2024,11,09,03,00,AAXX 09034 41859 01950 00502 10263 20200 30124 40161 70500 333 20207 58004 70000==
41859,2024,11,09,06,00,AAXX 09064 41859 02950 00502 10299 20190 30107 40144 333 58002 70000==
41859,2024,11,09,09,00,AAXX 09093 41859 02950 00501 10315 20190 30079 40116 333 59001 70000==
41859,2024,11,09,12,00,AAXX 09124 41859 02930 00000 10266 20220 30088 40125 333 10318 58001 70000==
41859,2024,11,09,15,00,AAXX 09154 41859 02930 00000 10238 20220 30105 40143 333 58000 70000==
41859,2024,11,09,18,00,AAXX 09184 41859 02930 00000 10227 20220 30105 40143 333 58001 70000==
41859,2024,11,09,21,00,AAXX 09214 41859 01930 00000 10221 20210 30103 40141 70500 333 59002 70000==
41859,2024,11,10,00,00,AAXX 10004 41859 01930 00502 10215 20210 30105 40143 70500 333 59002 70000==
41859,2024,11,10,03,00,AAXX 10034 41859 02950 00502 10261 20200 30124 40161 333 20213 58000 70000==
41859,2024,11,10,06,00,AAXX 10064 41859 02950 00502 10305 20220 30110 40147 333 58003 70000==
41859,2024,11,10,09,00,AAXX 10094 41859 02550 20502 10316 20210 30082 40119 82100 333 58003 70000==
41859,2024,11,10,12,00,AAXX 10124 41859 02530 20000 10275 20220 30087 40127 82100 333 10316 59001 70000 82828==
41859,2024,11,10,15,00,AAXX 10154 41859 01930 00000 10240 20220 30107 40145 70510 333 58002 70000==
41859,2024,11,10,18,00,AAXX 10184 41859 01930 00000 10230 20220 30108 40146 70510 333 58003 70000==
41859,2024,11,10,21,00,AAXX 10214 41859 01930 00502 10225 20220 30095 40133 70500 333 59008 70000==
41859,2024,11,11,00,00,AAXX 11004 41859 01930 00502 10220 20210 30101 40139 70500 333 59004 70000==
41859,2024,11,11,03,00,AAXX 11034 41859 01950 00502 10260 20240 30122 40159 70500 333 20215 59002 70000==
41859,2024,11,11,06,00,AAXX 11064 41859 02950 00502 10299 20190 30104 40141 333 59006 70000==
41859,2024,11,11,09,00,AAXX 11094 41859 02450 40502 10316 20200 30071 40107 82520 333 59011 70000 82618 84458==
41859,2024,11,11,12,00,AAXX 11124 41859 02430 20000 10267 20230 30077 40114 82500 333 10320 59010 70000 82618==
41859,2024,11,11,15,00,AAXX 11154 41859 02430 20000 10242 20220 30100 40138 82500 333 59007 70000 82618==
41859,2024,11,11,18,00,AAXX 11184 41859 01930 00000 10228 20220 30102 40140 70510 333 59006 70000==
41859,2024,11,11,21,00,AAXX 11214 41859 01930 00000 10217 20210 30092 40130 70500 333 59003 70000==
41859,2024,11,12,00,00,AAXX 12004 41859 01930 00000 10210 20210 30099 40137 70500 333 59002 70000==
41859,2024,11,12,03,00,AAXX 12034 41859 01950 00000 10269 20210 30118 40155 70500 333 20205 59006 70000==
41859,2024,11,12,06,00,AAXX 12064 41859 02950 00000 10296 20210 30100 40138 333 59004 70000==
41859,2024,11,12,09,00,AAXX 12094 41859 02956 00000 10311 20170 30065 40101 333 59006 70000==
41859,2024,11,12,12,00,AAXX 12124 41859 02950 00000 10263 20210 30066 40103 333 10322 59011 70000==
41859,2024,11,12,15,00,AAXX 12153 41859 NIL=
41859,2024,11,12,18,00,AAXX 12184 41859 01940 00000 10224 20200 30086 40124 70500 333 59016 70000==
41859,2024,11,12,21,00,AAXX 12214 41859 01940 00000 10216 20210 30084 40122 70500 333 59008 70000==
41859,2024,11,13,00,00,AAXX 13004 41859 01940 00502 10208 20200 30083 40121 70500 333 59016 70000==
41859,2024,11,13,03,00,AAXX 13034 41859 01950 00502 10246 20210 30105 40142 70500 333 20205 59013 70000==
41859,2024,11,13,06,00,AAXX 13064 41859 02950 00000 10303 20200 30092 40129 333 59008 70000==
41859,2024,11,13,09,00,AAXX 13094 41859 02450 40902 10303 20200 30064 40101 82520 333 59001 70000 82618 84458==
41859,2024,11,13,12,00,AAXX 13124 41859 01430 40000 10255 20240 30071 40108 70521 82520 333 10310 58005 70000 82618 84458==
41859,2024,11,13,15,00,AAXX 13154 41859 01930 00000 10240 20230 30091 40129 70500 333 58005 70000==
41859,2024,11,13,18,00,AAXX 13184 41859 01930 00000 10230 20220 30093 40131 70500 333 58007 70000==
41859,2024,11,13,21,00,AAXX 13214 41859 01920 00000 10225 20220 30092 40130 70500 333 58008 70000==
41859,2024,11,14,00,00,AAXX 14004 41859 01920 00000 10218 20210 30096 40134 70500 333 58013 70000==
41859,2024,11,14,03,00,AAXX 14034 41859 01950 00000 10244 20200 30118 40155 70500 333 20208 58000 70000==
41859,2024,11,14,06,00,AAXX 14064 41859 02950 00000 10296 20210 30103 40139 333 58008 70000==
41859,2024,11,14,09,00,AAXX 14094 41859 02450 50000 10311 20190 30074 40110 82510 333 58010 70000 82618 85458==
41859,2024,11,14,12,00,AAXX 14124 41859 01430 40000 10256 20230 30078 40115 70522 82520 333 10314 58007 70000 82618 84458==
41859,2024,11,14,15,00,AAXX 14154 41859 01930 00000 10233 20220 30095 40133 70500 333 58004 70000==
41859,2024,11,14,18,00,AAXX 14184 41859 01930 00000 10221 20210 30095 40133 70500 333 58002 70000==
41859,2024,11,14,21,00,AAXX 14214 41859 01930 00000 10212 20200 30093 40131 70500 333 58001 70000==
41863,2024,11,08,00,00,AAXX 08004 41863 01950 00901 10210 20200 30097 40141 70500 333 58010 70000==
41863,2024,11,08,03,00,AAXX 08034 41863 02957 00503 10270 20210 30117 40160 333 20202 58005 70000==
41863,2024,11,08,06,00,AAXX 08064 41863 02957 03604 10301 20200 30105 40148 333 58011 70000==
41863,2024,11,08,09,00,AAXX 08094 41863 02957 03601 10315 20200 30073 40115 333 58000 70000==
41863,2024,11,08,12,00,AAXX 08124 41863 02956 00000 10275 20230 30078 40121 333 10316 59003 70000==
41863,2024,11,08,15,00,AAXX 08154 41863 01950 00000 10225 20210 30100 40144 70500 333 59005 70000==
41863,2024,11,08,18,00,AAXX 08184 41863 01950 00000 10210 20190 30100 40144 70500 333 59006 70000==
41863,2024,11,08,21,00,AAXX 08214 41863 01950 00000 10206 20190 30098 40142 70500 333 59005 70000==
41863,2024,11,09,00,00,AAXX 09004 41863 01950 00000 10195 20190 30102 40146 70500 333 58005 70000==
41863,2024,11,09,03,00,AAXX 09034 41863 02957 00901 10257 20210 30117 40160 333 20191 58000 70000==
41863,2024,11,09,06,00,AAXX 09064 41863 02957 00901 10306 20210 30106 40148 333 58001 70000==
41863,2024,11,09,09,00,AAXX 09094 41863 02957 00502 10313 20190 30075 40117 333 58002 70000==
41863,2024,11,09,12,00,AAXX 09124 41863 02956 00000 10265 20230 30078 40121 333 10315 58000 70000==
41863,2024,11,09,15,00,AAXX 09154 41863 01950 00000 10220 20200 30098 40142 70500 333 59002 70000==
41863,2024,11,09,18,00,AAXX 09184 41863 01950 00000 10205 20200 30102 40146 70500 333 58002 70000==
41863,2024,11,09,21,00,AAXX 09214 41863 01940 00000 10200 20190 30099 40143 70500 333 58001 70000==
41863,2024,11,10,00,00,AAXX 10004 41863 01940 00000 10192 20180 30098 40142 70500 333 59004 70000==
41863,2024,11,10,03,00,AAXX 10034 41863 02956 00903 10266 20210 30120 40163 333 20188 58003 70000==
41863,2024,11,10,06,00,AAXX 10064 41863 02457 20903 10300 20190 30104 40147 82500 333 59002 70000 82618==
41863,2024,11,10,09,00,AAXX 10094 41863 02557 20901 10315 20210 30078 40120 82400 333 59003 70000 82620==
41863,2024,11,10,12,00,AAXX 10124 41863 02956 00000 10271 20230 30079 40122 333 10316 58001 70000==
41863,2024,11,10,15,00,AAXX 10154 41863 01950 00000 10231 20210 30098 40142 70500 333 58000 70000==
41863,2024,11,10,18,00,AAXX 10184 41863 01950 00000 10212 20210 30099 40143 70500 333 59003 70000==
41863,2024,11,10,21,00,AAXX 10214 41863 01950 00000 10205 20205 30097 40141 70500 333 59002 70000==
41863,2024,11,11,00,00,AAXX 11004 41863 01950 00000 10200 20190 30094 40138 70500 333 59004 70000==
41863,2024,11,11,03,00,AAXX 11034 41863 02956 00000 10265 20210 30116 40159 333 20195 59004 70000==
41863,2024,11,11,06,00,AAXX 11064 41863 02457 30905 10305 20200 30098 40140 83500 333 59006 70000 83618==
41863,2024,11,11,09,00,AAXX 11094 41863 02457 30902 10308 20190 30067 40109 83500 333 59017 70000 83618==
41863,2024,11,11,12,00,AAXX 11124 41863 02950 00000 10265 20220 30069 40112 333 10320 59010 70000==
41863,2024,11,11,15,00,AAXX 11154 41863 01950 00000 10230 20210 30091 40135 70500 333 59007 70000==
41863,2024,11,11,18,00,AAXX 11184 41863 01950 00000 10225 20220 30095 40139 70500 333 59004 70000==
41863,2024,11,11,21,00,AAXX 11214 41863 01950 00000 10220 20210 30093 40137 70500 333 59004 70000==
41863,2024,11,12,00,00,AAXX 12004 41863 01950 00000 10205 20200 30094 40138 70500 333 58000 70000==
41863,2024,11,12,03,00,AAXX 12034 41863 02456 30501 10266 20210 30114 40157 83500 333 20194 59002 70000 83618==
41863,2024,11,12,06,00,AAXX 12064 41863 02457 50902 10308 20180 30094 40136 85400 333 59004 70000 83618 85830==
41863,2024,11,12,09,00,AAXX 12094 41863 02457 31302 10317 20180 30061 40103 83500 333 59006 70000 83618==
41863,2024,11,12,12,00,AAXX 12124 41863 02956 00000 10255 20220 30060 40103 333 10325 59009 70000==
41863,2024,11,12,15,00,AAXX 12154 41863 01950 00000 10226 20210 30081 40125 70500 333 59010 70000==
41863,2024,11,12,18,00,AAXX 12184 41863 01950 00000 10215 20210 30081 40125 70500 333 59014 70000==
41863,2024,11,12,21,00,AAXX 12214 41863 01950 00000 10208 20200 30077 40121 70500 333 59016 70000==
41863,2024,11,13,00,00,AAXX 13004 41863 01950 00000 10200 20190 30076 40120 70500 333 59018 70000==
41863,2024,11,13,03,00,AAXX 13034 41863 01950 00501 10248 20220 30100 40143 70500 333 20193 59014 70000==
41863,2024,11,13,06,00,AAXX 13064 41863 02956 00000 10290 20210 30088 40131 333 59006 70000==
41863,2024,11,13,09,00,AAXX 13094 41863 02957 00000 10296 20210 30059 40101 333 59002 70000==
41863,2024,11,13,12,00,AAXX 13124 41863 01950 00000 10255 20220 30063 40106 70500 333 10305 58003 70000==
41863,2024,11,13,15,00,AAXX 13154 41863 01940 00000 10231 20210 30084 40128 70500 333 58003 70000==
41863,2024,11,13,18,00,AAXX 13184 41863 01940 00000 10214 20200 30088 40132 70500 333 58007 70000==
41863,2024,11,13,21,00,AAXX 13214 41863 01940 00000 10207 20200 30085 40129 70500 333 58008 70000==
41863,2024,11,14,00,00,AAXX 14004 41863 01915 00000 10195 20195 30090 40134 71040 333 58014 70000==
41863,2024,11,14,03,00,AAXX 14034 41863 01940 02701 10230 20200 30113 40157 70540 333 20188 58013 70000==
41863,2024,11,14,06,00,AAXX 14064 41863 02956 02703 10286 20220 30101 40144 333 58013 70000==
41863,2024,11,14,09,00,AAXX 14094 41863 02956 00000 10302 20200 30070 40112 333 58011 70000==
41863,2024,11,14,12,00,AAXX 14124 41863 01950 00000 10255 20230 30072 40115 70500 333 10306 58009 70000==
41863,2024,11,14,15,00,AAXX 14154 41863 01950 00000 10220 20200 30089 40133 70500 333 58005 70000==
41863,2024,11,14,18,00,AAXX 14184 41863 01930 00000 10204 20190 30091 40135 70500 333 58003 70000==
41863,2024,11,14,21,00,AAXX 14214 41863 01920 00000 10198 20190 30085 40129 71000 333 58000 70000==
41881,2024,11,08,00,00,AAXX 08004 41881 31940 03601 10200 20200 30118 40138 70500 333 59004 70000=
41881,2024,11,08,03,00,AAXX 08034 41881 32956 00402 10244 20220 30132 40152 333 20196 59001 70000=
41881,2024,11,08,06,00,AAXX 08064 41881 32956 03601 10296 20230 30117 40137 333 58001 70000=
41881,2024,11,08,09,00,AAXX 08094 41881 32456 23501 10297 20220 30092 40112 82500 333 56900 59002 70000 82618=
41881,2024,11,08,12,00,AAXX 08124 41881 32956 00000 10252 20230 30100 40120 333 10310 59009 70000=
41881,2024,11,08,15,00,AAXX 08154 41881 32950 00000 10223 20210 30122 40142 333 59006 70000=
41881,2024,11,08,21,00,AAXX 08214 41881 32950 03601 10200 20200 30119 40139 333 59002 70000=
41881,2024,11,09,00,00,AAXX 09004 41881 31940 03601 10192 20190 30119 40139 70500 333 58001 70000=
41881,2024,11,09,03,00,AAXX 09034 41881 32956 00502 10260 20230 30139 40159 333 20190 58007 70000=
41881,2024,11,09,06,00,AAXX 09064 41881 32956 00402 10297 20220 30120 40140 333 58003 70000=
41881,2024,11,09,09,00,AAXX 09094 41881 32957 03601 10305 20220 30097 40117 333 58005 70000=
41881,2024,11,09,12,00,AAXX 09124 41881 32950 00000 10265 20240 30101 40121 333 10310 58001 70000=
41881,2024,11,09,15,00,AAXX 09154 41881 32950 00000 10230 20220 30121 40141 333 59001 70000=
41881,2024,11,09,18,00,AAXX 09184 41881 32950 03601 10210 20200 30126 40147 333 58008 70000=
41881,2024,11,09,21,00,AAXX 09214 41881 32950 00000 10202 20200 30125 40146 333 58006 70000=
41881,2024,11,10,00,00,AAXX 10004 41881 31940 03601 10194 20190 30124 40145 70500 333 58005 70000=
41881,2024,11,10,03,00,AAXX 10034 41881 32950 03601 10250 20220 30138 40159 333 20192 59001 70000=
41881,2024,11,10,06,00,AAXX 10064 41881 32456 33602 10297 20220 30123 40143 83500 333 56900 58003 70000 83618=
41881,2024,11,10,09,00,AAXX 10094 41881 32457 20000 10310 20200 30095 40115 82500 333 56900 59002 70000 82618=
41881,2024,11,10,12,00,AAXX 10124 41881 32956 00000 10250 20230 30104 40124 333 10320 58003 70000=
41881,2024,11,10,15,00,AAXX 10154 41881 32956 00000 10225 20220 30122 40142 333 58001 70000=
41881,2024,11,10,18,00,AAXX 10184 41881 32950 00000 10208 20200 30125 40145 333 59001 70000=
41881,2024,11,10,21,00,AAXX 10214 41881 31930 00000 10200 20200 30121 40141 70500 333 59004 70000=
41881,2024,11,11,00,00,AAXX 11004 41881 31912 00000 10195 20195 30118 40138 71000 333 59006 70000=
41881,2024,11,11,03,00,AAXX 11034 41881 32956 00000 10255 20230 30136 40156 333 20190 59002 70000=
41881,2024,11,11,06,00,AAXX 11064 41881 32456 22701 10300 20200 30114 40134 82500 333 56900 59009 70000 82618=
41881,2024,11,11,09,00,AAXX 11094 41881 32457 20000 10310 20200 30088 40108 82500 333 56900 59007 70000 82618=
41881,2024,11,11,12,00,AAXX 11124 41881 32956 00000 10250 20220 30095 40115 333 10322 59009 70000=
41881,2024,11,11,15,00,AAXX 11154 41881 32950 00000 10220 20210 30116 40136 333 59006 70000=
41881,2024,11,11,18,00,AAXX 11184 41881 32950 00000 10208 20200 30114 40134 333 59011 70000=
41881,2024,11,11,21,00,AAXX 11214 41881 31940 00000 10200 20190 30113 40134 70500 333 59008 70000=
41881,2024,11,12,00,00,AAXX 12004 41881 31915 00000 10190 20190 30113 40133 71000 333 59005 70000=
41881,2024,11,12,03,00,AAXX 12034 41881 32956 00201 10256 10220 30133 40153 333 20188 59003 70000=
41881,2024,11,12,06,00,AAXX 12064 41881 32456 33601 10290 20200 30118 40138 83500 333 56900 58004 70000 83618=
41881,2024,11,12,09,00,AAXX 12094 41881 32957 03601 10305 20190 30084 40104 333 59004 70000=
41881,2024,11,12,12,00,AAXX 12124 41881 32950 00000 10250 20220 30083 40103 333 10310 59012 70000=
41881,2024,11,12,15,00,AAXX 12154 41881 32950 00000 10220 20210 30102 40123 333 59014 70000=
41881,2024,11,12,18,00,AAXX 12184 41881 32950 00000 10210 20190 30111 40131 333 59003 70000=
41881,2024,11,12,21,00,AAXX 12214 41881 32950 00000 10198 20190 30109 40129 333 59004 70000=
41881,2024,11,13,00,00,AAXX 13004 41881 31930 00000 10187 20187 30107 40127 70500 333 59006 70000=
41881,2024,11,13,03,00,AAXX 13034 41881 32956 03601 10235 20220 30124 40145 333 20185 59009 70000=
41881,2024,11,13,06,00,AAXX 13064 41881 32956 00000 10285 20220 30112 40132 333 59006 70000=
41881,2024,11,13,09,00,AAXX 13094 41881 32957 03601 10295 20210 30085 40105 333 58001 70000=
41881,2024,11,13,12,00,AAXX 13124 41881 32950 00000 10255 20240 30087 40107 333 10301 58004 70000=
41881,2024,11,13,15,00,AAXX 13154 41881 32950 00000 10216 20210 30109 40129 333 58007 70000=
41881,2024,11,13,18,00,AAXX 13184 41881 32950 03601 10205 20200 30114 40134 333 58003 70000=
41881,2024,11,13,21,00,AAXX 13214 41881 31940 00000 10197 20190 30113 40133 70500 333 58004 70000=
41881,2024,11,14,00,00,AAXX 14004 41881 31915 00000 10189 20189 30112 40132 71000 333 58005 70000=
41881,2024,11,14,03,00,AAXX 14034 41881 32956 03601 10230 20210 30137 40157 333 20187 58013 70000=
41881,2024,11,14,06,00,AAXX 14064 41881 32956 03601 10282 20200 30119 40139 333 58007 70000=
41881,2024,11,14,09,00,AAXX 14094 41881 32956 03502 10290 20190 30093 40112 333 58008 70000=
41881,2024,11,14,12,00,AAXX 14124 41881 32956 00000 10231 20210 30096 40116 333 10300 58009 70000=
41881,2024,11,14,15,00,AAXX 14154 41881 32950 00000 10211 20200 30114 40134 333 58005 70000=
41881,2024,11,14,18,00,AAXX 14184 41881 32950 00000 10200 20190 30117 40137 333 58003 70000=
41881,2024,11,14,21,00,AAXX 14214 41881 31935 00000 10191 20180 30114 40134 70500 333 58001 70000=
41883,2024,11,08,00,00,AAXX 08004 41883 02930 00000 10224 20210 30113 40134 333 58002 70000==
41883,2024,11,08,03,00,AAXX 08034 41883 02950 00000 10264 20220 30133 40153 333 20220 58004 70000==
41883,2024,11,08,06,00,AAXX 08064 41883 02456 31302 10304 20230 30117 40137 83500 333 58003 70000 83618==
41883,2024,11,08,09,00,AAXX 08094 41883 02/56 50000 10316 20220 30090 40110 85010 333 59003 70000 85459==
41883,2024,11,08,12,00,AAXX 08124 41883 02940 00000 10274 20220 30102 40122 333 10320 59004 70000==
41883,2024,11,08,15,00,AAXX 08154 41883 02930 03602 10255 20230 30120 40140 333 59005 70000==
41883,2024,11,08,18,00,AAXX 08184 41883 02930 00000 10240 20220 30118 40139 333 59009 70000==
41883,2024,11,08,21,00,AAXX 08214 41883 02930 00000 10230 20220 30110 40131 333 59007 70000==
41883,2024,11,09,00,00,AAXX 09004 41883 02930 00000 10224 20210 30114 40135 333 58001 70000==
41883,2024,11,09,03,00,AAXX 09034 41883 02956 00000 10258 20220 30136 40157 333 20220 58003 70000==
41883,2024,11,09,06,00,AAXX 09064 41883 02956 00000 10312 20190 30121 40141 333 58001 70000==
41883,2024,11,09,09,00,AAXX 09093 41883 02956 00000 10325 20180 30090 40110 333 58000 70000==
41883,2024,11,09,12,00,AAXX 09124 41883 02930 00000 10270 20210 30100 40120 333 10326 59002 70000==
41883,2024,11,09,15,00,AAXX 09154 41883 02930 00000 10254 20220 30119 40139 333 59001 70000==
41883,2024,11,09,18,00,AAXX 09184 41883 02930 00000 10244 20210 30119 40139 333 58000 70000==
41883,2024,11,09,21,00,AAXX 09214 41883 02930 00000 10232 20210 30113 40134 333 58003 70000==
41883,2024,11,10,00,00,AAXX 10004 41883 02930 00000 10218 20210 30115 40136 333 58001 70000==
41883,2024,11,10,03,00,AAXX 10034 41883 02956 00000 10265 20230 30135 40155 333 20214 59001 70000==
41883,2024,11,10,06,00,AAXX 10064 41883 02956 00502 10314 20180 30121 40141 333 58000 70000==
41883,2024,11,10,09,00,AAXX 10094 41883 02456 20000 10320 20190 30095 40115 82500 333 58005 70000 82618==
41883,2024,11,10,12,00,AAXX 10124 41883 02930 00000 10272 20220 30102 40122 333 10324 58002 70000==
41883,2024,11,10,15,00,AAXX 10154 41883 02930 00000 10250 20230 30121 40141 333 58002 70000==
41883,2024,11,10,18,00,AAXX 10184 41883 02930 00000 10240 20220 30122 40142 333 58003 70000==
41883,2024,11,10,21,00,AAXX 10214 41883 02930 00000 10234 20210 30116 40136 333 58003 70000==
41883,2024,11,11,00,00,AAXX 11004 41883 02930 00000 10220 20210 30115 40136 333 58000 70000==
41883,2024,11,11,03,00,AAXX 11034 41883 02956 00000 10260 20220 30135 40156 333 20220 58000 70000==
41883,2024,11,11,06,00,AAXX 11064 41883 02456 40000 10300 20200 30114 40134 84400 333 59007 70000 83616==
41883,2024,11,11,09,00,AAXX 11094 41883 02456 40000 10326 20170 30088 40108 84400 333 59002 70000 83618==
41883,2024,11,11,12,00,AAXX 11124 41883 02930 00000 10265 20200 30094 40114 333 10326 59008 70000==
41883,2024,11,11,15,00,AAXX 11154 41883 02930 00000 10245 20210 30116 40136 333 59005 70000==
41883,2024,11,11,18,00,AAXX 11184 41883 02930 00000 10230 20200 30115 40136 333 59007 70000==
41883,2024,11,11,21,00,AAXX 11214 41883 02930 00000 10224 20200 30108 40129 333 59008 70000==
41883,2024,11,12,00,00,AAXX 12004 41883 02930 00000 10210 20210 30110 40131 333 59005 70000==
41883,2024,11,12,03,00,AAXX 12034 41883 02956 00000 10278 20210 30131 40151 333 20210 59004 70000==
41883,2024,11,12,06,00,AAXX 12064 41883 02456 43602 10316 20190 30113 40133 83810 333 59001 70000 82616 84459==
41883,2024,11,12,09,00,AAXX 12094 41883 02456 61401 10310 20190 30082 40102 83520 333 59006 70000 83618 86458==
41883,2024,11,12,12,00,AAXX 12124 41883 02930 00000 10265 20210 30081 40101 333 10320 59013 70000==
41883,2024,11,12,15,00,AAXX 12153 41883 02930 00000 10242 20200 30102 40123 333 59014 70000==
41883,2024,11,12,18,00,AAXX 12184 41883 02930 00000 10232 20210 30107 40128 333 59008 70000==
41883,2024,11,12,21,00,AAXX 12214 41883 02930 00000 10220 20200 30099 40120 333 59009 70000==
41883,2024,11,13,00,00,AAXX 13004 41883 02930 00000 10214 20190 30096 40117 333 59014 70000==
41883,2024,11,13,03,00,AAXX 13034 41883 02956 03102 10260 20210 30121 40141 333 20208 59010 70000==
41883,2024,11,13,06,00,AAXX 13064 41883 02456 33102 10305 20210 30106 40126 83500 333 59007 70000 83616==
41883,2024,11,13,09,00,AAXX 13094 41883 02956 00000 10312 20200 30081 40101 333 59001 70000==
41883,2024,11,13,12,00,AAXX 13124 41883 02930 00000 10258 20210 30087 40107 333 10315 58006 70000==
41883,2024,11,13,15,00,AAXX 13154 41883 02930 00000 10238 20220 30107 40127 333 58005 70000==
41883,2024,11,13,18,00,AAXX 13184 41883 02930 00000 10228 20210 30109 40130 333 58002 70000==
41883,2024,11,13,21,00,AAXX 13214 41883 02930 00000 10220 20210 30103 40124 333 58004 70000==
41883,2024,11,14,00,00,AAXX 14004 41883 01930 00000 10211 20200 30113 40134 70500 333 58017 70000==
41883,2024,11,14,03,00,AAXX 14034 41883 02950 02302 10244 20210 30132 40153 333 20205 58011 70000==
41883,2024,11,14,06,00,AAXX 14064 41883 02450 42702 10304 20200 30116 40136 82520 333 58010 70000 82618 84458==
41883,2024,11,14,09,00,AAXX 14094 41883 02450 43102 10305 20200 30081 40110 82520 333 58009 70000 82618 84458==
41883,2024,11,14,12,00,AAXX 14124 41883 02930 00000 10260 20220 30092 40112 333 10310 58005 70000==
41883,2024,11,14,15,00,AAXX 14154 41883 02930 00000 10238 20220 30113 40134 333 58006 70000==
41883,2024,11,14,18,00,AAXX 14184 41883 02930 00000 10224 20200 30113 40134 333 58004 70000==
41883,2024,11,14,21,00,AAXX 14214 41883 02930 00000 10214 20200 30103 40124 333 58000 70000==
41886,2024,11,08,00,00,AAXX 08004 41886 01940 00000 10225 20225 30127 40148 70500 333 58015 70000==
41886,2024,11,08,03,00,AAXX 08034 41886 02956 01304 10276 20210 30139 40160 333 20219 58005 70000==
41886,2024,11,08,06,00,AAXX 08064 41886 02456 20504 10300 20220 30120 40140 81550 333 58002 70000 81618==
41886,2024,11,08,09,00,AAXX 08094 41886 02957 00502 10300 20200 30094 40114 333 59001 70000==
41886,2024,11,08,12,00,AAXX 08124 41886 02956 00000 10266 20230 30102 40123 333 10310 59006 70000==
41886,2024,11,08,15,00,AAXX 08154 41886 01940 00000 10236 20220 30123 40144 70500 333 59006 70000==
41886,2024,11,08,18,00,AAXX 08184 41886 01940 00000 10226 20220 30121 40142 70500 333 59005 70000==
41886,2024,11,08,21,00,AAXX 08214 41886 01940 00000 10220 20210 30112 40133 70500 333 59014 70000==
41886,2024,11,09,03,00,AAXX 09034 41886 01950 00501 10278 20200 30139 40160 70500 333 20210 58000 70000==
41886,2024,11,09,06,00,AAXX 09064 41886 02957 00904 10300 20190 30121 40141 333 58001 70000==
41886,2024,11,09,09,00,AAXX 09094 41886 02957 00402 10305 20190 30098 40118 333 58004 70000==
41886,2024,11,09,12,00,AAXX 09124 41886 02950 00000 10255 20220 30103 40124 333 10312 58001 70000==
41886,2024,11,09,15,00,AAXX 09154 41886 02950 00000 10225 20210 30119 40140 333 59004 70000==
41886,2024,11,09,18,00,AAXX 09184 41886 01940 00000 10215 20210 30121 40142 70500 333 58000 70000==
41886,2024,11,09,21,00,AAXX 09214 41886 01940 00000 10210 20200 30119 40140 70500 333 58007 70000==
41886,2024,11,10,00,00,AAXX 10004 41886 01940 00000 10205 20205 30117 40138 70500 333 58001 70000==
41886,2024,11,10,03,00,AAXX 10034 41886 02956 00202 10270 20220 30138 40159 333 20205 59001 70000==
41886,2024,11,10,06,00,AAXX 10064 41886 02456 20402 10311 20190 30121 40141 82500 333 58000 70000 82618==
41886,2024,11,10,09,00,AAXX 10094 41886 02957 00000 10314 20190 30099 40120 333 58001 70000==
41886,2024,11,10,12,00,AAXX 10124 41886 02940 00000 10262 20220 30104 40125 333 10322 58001 70000==
41886,2024,11,10,15,00,AAXX 10154 41886 02930 00000 10250 20230 30123 40144 333 58004 70000==
41886,2024,11,10,18,00,AAXX 10184 41886 01930 00000 10234 20220 30119 40140 70500 333 59002 70000==
41886,2024,11,10,21,00,AAXX 10214 41886 01910 00000 10210 20200 30118 40139 74440 333 59001 70000==
41886,2024,11,11,00,00,AAXX 11004 41886 01904 00000 10197 20190 30117 40138 74444 333 58000 70000==
41886,2024,11,11,03,00,AAXX 11034 41886 01950 00000 10267 20220 30138 40159 70540 333 20196 58000 70000==
41886,2024,11,11,06,00,AAXX 11064 41886 01957 00000 10306 20200 30115 40136 70540 333 59006 70000==
41886,2024,11,11,09,00,AAXX 11094 41886 02957 00000 10321 20180 30092 40112 333 59007 70000==
41886,2024,11,11,12,00,AAXX 11124 41886 01950 00000 10258 20220 30096 40117 70500 333 10324 59008 70000==
41886,2024,11,11,15,00,AAXX 11154 41886 01940 00000 10230 20210 30118 40139 70500 333 59005 70000==
41886,2024,11,11,18,00,AAXX 11184 41886 NIL=
41886,2024,11,11,21,00,AAXX 11214 41886 01908 00000 10210 20200 30118 40139 74244 333 58000 70000==
41886,2024,11,12,00,00,AAXX 12004 41886 01905 00000 10200 20200 30113 40134 74444 333 59004 70000==
41886,2024,11,12,03,00,AAXX 12034 41886 01930 00000 10257 20220 30132 40153 70544 333 20197 59006 70000==
41886,2024,11,12,06,00,AAXX 12064 41886 01950 00000 10292 20210 30115 40136 70540 333 58000 70000==
41886,2024,11,12,09,00,AAXX 12094 41886 02456 52702 10310 20180 30084 40104 81550 333 59008 70000 81618 85365==
41886,2024,11,12,12,00,AAXX 12124 41886 01/50 40000 10250 20210 30084 40105 70521 84040 333 10315 59012 70000 84365==
41886,2024,11,12,15,00,AAXX 12154 41886 01950 00000 10225 20210 30104 40125 70521 333 59014 70000==
41886,2024,11,12,18,00,AAXX 12184 41886 01950 00000 10220 20200 30102 40123 70521 333 59017 70000==
41886,2024,11,12,21,00,AAXX 12214 41886 01940 00000 10210 20210 30102 40123 70500 333 59016 70000==
41886,2024,11,13,00,00,AAXX 13004 41886 01902 00000 10195 20195 30102 40123 74440 333 59011 70000==
41886,2024,11,13,03,00,AAXX 13034 41886 01950 00504 10262 20230 30123 40144 70540 333 20190 59009 70000==
41886,2024,11,13,06,00,AAXX 13064 41886 01456 11304 10286 20170 30108 40129 70340 81500 333 59007 70000 81618==
41886,2024,11,13,09,00,AAXX 13094 41886 02957 00703 10300 20160 30084 40104 333 58000 70000==
41886,2024,11,13,12,00,AAXX 13124 41886 01950 00000 10250 20210 30086 40106 70500 333 10308 58002 70000==
41886,2024,11,13,15,00,AAXX 13154 41886 01940 00000 10220 20200 30108 40129 70500 333 58004 70000==
41886,2024,11,13,18,00,AAXX 13184 41886 01940 00000 10210 20200 30109 40130 70500 333 58007 70000==
41886,2024,11,13,21,00,AAXX 13214 41886 01915 00000 10200 20180 30107 40128 71040 333 58005 70000==
41886,2024,11,14,00,00,AAXX 14004 41886 01906 00000 10193 20180 30112 40133 74244 333 58010 70000==
41886,2024,11,14,03,00,AAXX 14034 41886 01940 03103 10250 20210 30130 40151 70544 333 20188 58007 70000==
41886,2024,11,14,06,00,AAXX 14064 41886 01957 01501 10298 20210 30114 40134 70040 333 58006 70000==
41886,2024,11,14,09,00,AAXX 14094 41886 02957 00000 10310 20190 30091 40111 333 58007 70000==
41886,2024,11,14,12,00,AAXX 14124 41886 01950 00000 10255 20220 30093 40114 70500 333 10317 58007 70000==
41886,2024,11,14,15,00,AAXX 14154 41886 01940 00000 10220 20210 30113 40134 70500 333 58005 70000==
41886,2024,11,14,18,00,AAXX 14184 41886 01940 00000 10210 20200 30112 40133 70500 333 58003 70000==
41886,2024,11,14,21,00,AAXX 14214 41886 01920 00000 10200 20190 30108 40129 71040 333 58001 70000==
41888,2024,11,08,00,00,AAXX 08004 41888 31930 00901 10220 20210 30134 40144 71040 333 58014 70000=
41888,2024,11,08,03,00,AAXX 08034 41888 31940 00901 10265 20230 30143 40153 70540 333 20220 58009 70000=
41888,2024,11,08,06,00,AAXX 08064 41888 32450 00901 10285 20270 30127 40137 333 58008 70000=
41888,2024,11,08,09,00,AAXX 08094 41888 32959 01801 10302 20190 30101 40111 333 58000 70000=
41888,2024,11,08,12,00,AAXX 08124 41888 31950 00000 10256 20220 30111 40121 70500 333 10306 59005 70000=
41888,2024,11,08,15,00,AAXX 08154 41888 31940 00000 10234 20220 30130 40140 70500 333 59004 70000=
41888,2024,11,08,18,00,AAXX 08184 41888 31940 00000 10220 20210 30124 40134 70500 333 59006 70000=
41888,2024,11,08,21,00,AAXX 08214 41888 31940 00000 10210 20210 30124 40134 70500 333 59008 70000=
41888,2024,11,09,00,00,AAXX 09004 41888 31940 00000 10204 20204 30127 40137 70500 333 59007 70000=
41888,2024,11,09,03,00,AAXX 09034 41888 32956 00901 10260 20220 30140 40150 333 20204 59003 70000=
41888,2024,11,09,06,00,AAXX 09064 41888 32557 10901 10294 20220 30124 40134 81400 333 56900 59003 70000 81620=
41888,2024,11,09,09,00,AAXX 09094 41888 32958 00501 10315 20250 30103 40113 333 58002 70000=
41888,2024,11,09,12,00,AAXX 09124 41888 31956 00000 10268 20250 30107 40117 70500 333 10268 59004 70000=
41888,2024,11,09,15,00,AAXX 09154 41888 31940 10000 10225 20220 30125 40135 70500 81030 333 56090 59005 70000 81365=
41888,2024,11,09,18,00,AAXX 09184 41888 31940 00000 10220 20220 30125 40135 70500 333 58001 70000=
41888,2024,11,09,21,00,AAXX 09214 41888 31930 00000 10213 20210 30126 40136 71040 333 58002 70000=
41888,2024,11,10,00,00,AAXX 10004 41888 31930 00501 10210 20200 30128 40138 71040 333 58001 70000=
41888,2024,11,10,03,00,AAXX 10034 41888 31950 00501 10270 20240 30145 40155 70540 333 20205 58005 70000=
41888,2024,11,10,06,00,AAXX 10064 41888 31956 00904 10294 20170 30126 40136 70040 333 58002 70000=
41888,2024,11,10,09,00,AAXX 10094 41888 32957 00903 10305 20180 30105 40115 333 58002 70000=
41888,2024,11,10,12,00,AAXX 10124 41888 32956 00000 10274 20220 30107 40117 333 10315 58000 70000=
41888,2024,11,10,15,00,AAXX 10154 41888 31940 00000 10226 20220 30127 40137 70500 333 58002 70000=
41888,2024,11,10,18,00,AAXX 10184 41888 31908 00000 10210 20210 30130 40140 74040 333 58005 70000=
41888,2024,11,10,21,00,AAXX 10214 41888 31950 00000 10200 20200 30126 40136 74244 333 58000 70000=
41888,2024,11,11,00,00,AAXX 11004 41888 31904 00000 10194 20190 30124 40134 74444 333 59004 70000=
41888,2024,11,11,03,00,AAXX 11034 41888 31950 00902 10265 20220 30143 40153 70544 333 20194 59002 70000=
41888,2024,11,11,06,00,AAXX 11064 41888 31956 00901 10290 20210 30129 40139 70040 333 59003 70000=
41888,2024,11,11,09,00,AAXX 11094 41888 NIL=
41888,2024,11,11,12,00,AAXX 11124 41888 31950 00000 10244 20230 30106 40116 70500 333 10325 59001 70000=
41888,2024,11,11,15,00,AAXX 11154 41888 31940 00000 10224 20210 30125 40135 70500 333 59002 70000=
41888,2024,11,11,18,00,AAXX 11184 41888 31940 00000 10124 20200 30124 40134 70500 333 59006 70000=
41888,2024,11,11,21,00,AAXX 11214 41888 31920 00000 10203 20203 30124 40134 71040 333 59002 70000=
41888,2024,11,12,00,00,AAXX 12004 41888 31510 10000 10196 20196 30122 40132 71040 81400 333 56900 59002 70000 81620=
41888,2024,11,12,03,00,AAXX 12034 41888 32956 00901 10258 20210 30138 40148 333 20196 59005 70000=
41888,2024,11,12,06,00,AAXX 12064 41888 32457 40901 10303 20190 30116 40126 82430 333 56990 59013 70000 81618 83365=
41888,2024,11,12,09,00,AAXX 12094 41888 32958 02703 10305 20190 30088 40098 333 59006 70000=
41888,2024,11,12,12,00,AAXX 12124 41888 32956 40000 10260 20210 30086 40096 80001 333 10310 56090 59020 70000 84080=
41888,2024,11,12,15,00,AAXX 12154 41888 31930 00000 10220 20220 30109 40109 71040 333 59016 70000=
41888,2024,11,12,18,00,AAXX 12184 41888 31908 00000 10210 20210 30108 40118 74140 333 59016 70000=
41888,2024,11,12,21,00,AAXX 12214 41888 31904 00000 10200 20200 30106 40116 74244 333 59018 70000=
41888,2024,11,13,00,00,AAXX 13004 41888 31904 00000 10195 20195 30104 40114 74444 333 59008 70000=
41888,2024,11,13,03,00,AAXX 13034 41888 31950 00501 10245 20190 30128 40138 70544 333 20195 59010 70000=
41888,2024,11,13,06,00,AAXX 13064 41888 31956 00902 10276 20190 30115 40125 70040 333 59001 70000=
41888,2024,11,13,09,00,AAXX 13094 41888 32958 00902 10290 20190 30087 40097 333 59029 70000=
41888,2024,11,13,12,00,AAXX 13124 41888 32956 00000 10255 20220 30089 40099 333 10300 58003 70000=
41888,2024,11,13,15,00,AAXX 13154 41888 31908 00000 10215 20220 30113 40123 74040 333 58004 70000=
41888,2024,11,13,21,00,AAXX 13214 41888 31904 00000 10195 20195 30122 40132 74444 333 58016 70000=
41888,2024,11,14,00,00,AAXX 14004 41888 31904 00000 10192 20192 30120 40130 74444 333 58016 70000=
41888,2024,11,14,03,00,AAXX 14034 41888 31940 00902 10256 20210 30140 40150 70544 333 20192 58012 70000=
41888,2024,11,14,06,00,AAXX 14064 41888 31556 10903 10285 20210 30117 40127 70340 81100 333 56900 58002 70000 81825=
41888,2024,11,14,09,00,AAXX 14094 41888 32557 12302 10305 20190 30097 40107 81100 333 56900 58010 70000 81825=
41888,2024,11,14,12,00,AAXX 14124 41888 32956 00000 10274 20210 30097 40107 333 10320 58008 70000=
41888,2024,11,14,15,00,AAXX 14154 41888 31908 00000 10225 20220 30117 40127 74040 333 58004 70000=
41888,2024,11,14,18,00,AAXX 14184 41888 31905 00000 10211 20210 30116 40126 74240 333 59009 70000=
41888,2024,11,14,21,00,AAXX 14214 41888 31904 00000 10202 20202 30116 40126 74444 333 59006 70000=
41891,2024,11,08,00,00,AAXX 08004 41891 01430 50000 10215 20180 30098 40137 70522 83340 333 58006 70000 83615 85365 81930==
41891,2024,11,08,03,00,AAXX 08034 41891 02960 01404 10265 20190 30116 40155 333 20208 58008 70000==
41891,2024,11,08,06,00,AAXX 08064 41891 02470 11403 10287 20180 30096 40134 81500 333 58000 70000 81618==
41891,2024,11,08,09,00,AAXX 08094 41891 02957 01002 10295 20170 30071 40109 333 59002 70000==
41891,2024,11,08,12,00,AAXX 08124 41891 02440 20000 10256 20210 30083 40121 82500 333 10302 58000 70000 82616==
41891,2024,11,08,15,00,AAXX 08154 41891 01440 10303 10240 20210 30102 40141 70511 81500 333 59004 70000 81615==
41891,2024,11,08,18,00,AAXX 08184 41891 01440 20902 10227 20190 30095 40134 70511 82500 333 59009 70000 82615==
41891,2024,11,08,21,00,AAXX 08214 41891 01430 20902 10212 20180 30096 40136 70511 82500 333 59005 70000 82615==
41891,2024,11,09,00,00,AAXX 09004 41891 01930 00902 10203 20180 30096 40136 70510 333 59002 70000==
41891,2024,11,09,03,00,AAXX 09034 41891 02960 00906 10267 20160 30117 40156 333 20201 58001 70000==
41891,2024,11,09,06,00,AAXX 09064 41891 02960 01303 10297 20140 30094 40132 333 59002 70000==
41891,2024,11,09,09,00,AAXX 09094 41891 02556 10000 10300 20150 30071 40109 81100 333 58000 70000 81822==
41891,2024,11,09,12,00,AAXX 09124 41891 02440 10000 10256 20200 30081 40119 81500 333 10308 59002 70000 81618==
41891,2024,11,09,15,00,AAXX 09154 41891 01930 00000 10230 20210 30097 40136 70500 333 59005 70000==
41891,2024,11,09,18,00,AAXX 09184 41891 01930 00000 10230 20210 30096 40135 70500 333 58001 70000==
41891,2024,11,09,21,00,AAXX 09214 41891 01930 00000 10210 20190 30097 40136 70500 333 58001 70000==
41891,2024,11,10,00,00,AAXX 10004 41891 01930 00000 10208 20190 30102 40141 70500 333 58006 70000==
41891,2024,11,10,03,00,AAXX 10034 41891 01450 10605 10265 20190 30116 40155 70511 81500 333 20205 59001 70000 81615==
41891,2024,11,10,06,00,AAXX 10064 41891 01450 11203 10295 20180 30098 40136 70511 81500 333 58004 70000 81615==
41891,2024,11,10,09,00,AAXX 10094 41891 02556 11002 10305 20190 30073 40111 81100 333 58002 70000 81822==
41891,2024,11,10,12,00,AAXX 10124 41891 02540 10000 10260 20220 30080 40118 81100 333 10316 59001 70000 81822==
41891,2024,11,10,15,00,AAXX 10154 41891 01930 00000 10235 20220 30098 40137 70500 333 58001 70000==
41891,2024,11,10,18,00,AAXX 10184 41891 01930 00000 10225 20240 30103 40142 70500 333 58007 70000==
41891,2024,11,10,21,00,AAXX 10214 41891 01930 00000 10215 20200 30098 40137 70500 333 58001 70000==
41891,2024,11,11,00,00,AAXX 11004 41891 01935 00000 10209 20180 30095 40134 70500 333 59007 70000==
41891,2024,11,11,03,00,AAXX 11034 41891 01440 20000 10270 20190 30116 40155 70510 82500 333 20203 58000 70000 82616==
41891,2024,11,11,06,00,AAXX 11064 41891 01550 10902 10304 20200 30091 40129 70510 81100 333 59007 70000 81825==
41891,2024,11,11,09,00,AAXX 11094 41891 02456 20000 10319 20200 30066 40104 82800 333 59007 70000 81616==
41891,2024,11,11,12,00,AAXX 11124 41891 02540 10000 10270 20220 30071 40109 81100 333 10330 59009 70000 81825==
41891,2024,11,11,15,00,AAXX 11154 41891 01440 12902 10245 20220 30093 40132 70510 81500 333 59005 70000 81615==
41891,2024,11,11,18,00,AAXX 11184 41891 01440 23602 10223 20210 30094 40133 70510 82500 333 59009 70000 82615==
41891,2024,11,11,21,00,AAXX 11214 41891 01435 30602 10214 20180 30094 40133 70521 81530 333 59004 70000 81615 83365==
41891,2024,11,12,00,00,AAXX 12004 41891 01435 50902 10212 20170 30094 40133 70521 82530 333 59001 70000 82615 83365==
41891,2024,11,12,03,00,AAXX 12034 41891 01545 10904 10270 20180 30108 40147 70522 81100 333 20203 59008 70000 81825==
41891,2024,11,12,06,00,AAXX 12064 41891 01550 20503 10308 20210 30086 40124 70521 81130 333 59005 70000 81825 82365==
41891,2024,11,12,09,00,AAXX 12094 41891 01550 20502 10315 20220 30059 40097 70522 81130 333 59007 70000 81825 82365==
41891,2024,11,12,12,00,AAXX 12124 41891 01440 20502 10273 20200 30059 40097 70522 82500 333 10328 59012 70000 82616==
41891,2024,11,12,15,00,AAXX 12153 41891 01930 00000 10245 20210 30078 40117 70510 333 59015 70000==
41891,2024,11,12,18,00,AAXX 12184 41891 01930 00000 10225 20220 30078 40117 70510 333 59016 70000==
41891,2024,11,12,21,00,AAXX 12214 41891 01930 00000 10210 20200 30076 40115 70510 333 59018 70000==
41891,2024,11,13,00,00,AAXX 13004 41891 01930 00000 10205 20190 30078 40117 70510 333 59016 70000==
41891,2024,11,13,03,00,AAXX 13034 41891 01950 00904 10256 20210 30101 40140 70500 333 20204 59007 70000==
41891,2024,11,13,06,00,AAXX 13064 41891 01550 10902 10294 20210 30084 40122 70500 81100 333 59002 70000 81825==
41891,2024,11,13,09,00,AAXX 13094 41891 01550 10302 10308 20180 30054 40092 70510 81100 333 59005 70000 81825==
41891,2024,11,13,12,00,AAXX 13124 41891 01440 12902 10267 20200 30062 40100 70511 81100 333 10318 58003 70000 81825==
41891,2024,11,13,15,00,AAXX 13154 41891 01935 00902 10245 20220 30085 40124 70500 333 58007 70000==
41891,2024,11,13,18,00,AAXX 13184 41891 01930 00602 10226 20210 30087 40126 70500 333 58011 70000==
41891,2024,11,13,21,00,AAXX 13214 41891 01930 00000 10215 20210 30088 40127 70500 333 58012 70000==
41891,2024,11,14,00,00,AAXX 14004 41891 01935 00000 10210 20200 30089 40128 70500 333 58011 70000==
41891,2024,11,14,03,00,AAXX 14034 41891 01945 00000 10260 20220 30111 40150 70500 333 20203 58010 70000==
41891,2024,11,14,06,00,AAXX 14064 41891 01950 00000 10305 20200 30086 40124 70500 333 58002 70000==
41891,2024,11,14,09,00,AAXX 14094 41891 01450 20000 10308 20160 30063 40101 70510 82400 333 58009 70000 81618==
41891,2024,11,14,12,00,AAXX 14124 41891 01940 00000 10272 20190 30069 40107 70510 333 10318 58007 70000==
41891,2024,11,14,15,00,AAXX 14154 41891 01430 13002 10245 20220 30087 40126 70500 81500 333 58002 70000 81615==
41891,2024,11,14,18,00,AAXX 14184 41891 01930 00302 10223 20210 30086 40125 70510 333 59001 70000==
41891,2024,11,14,21,00,AAXX 14214 41891 01930 00602 10215 20210 30083 40122 70500 333 59005 70000==
41895,2024,11,08,00,00,AAXX 08004 41895 01950 00000 10222 20220 30110 40133 70500 333 59007 70000==
41895,2024,11,08,03,00,AAXX 08034 41895 01956 00502 10265 20240 30135 40158 70500 333 20215 58005 70000==
41895,2024,11,08,06,00,AAXX 08064 41895 02957 03601 10300 20220 30119 40142 333 58003 70000==
41895,2024,11,08,09,00,AAXX 08094 41895 02956 03602 10310 20190 30091 40113 333 59003 70000==
41895,2024,11,08,12,00,AAXX 08124 41895 02950 00000 10255 20230 30099 40121 333 10317 59002 70000==
41895,2024,11,08,15,00,AAXX 08154 41895 02950 00000 10234 20220 30120 40143 333 59007 70000==
41895,2024,11,08,18,00,AAXX 08184 41895 02950 00000 10225 20225 30118 40141 333 59011 70000==
41895,2024,11,08,21,00,AAXX 08214 41895 01950 00000 10220 20210 30110 40133 70500 333 59025 70000==
41895,2024,11,09,00,00,AAXX 09004 41895 01950 03601 10215 20215 30118 40141 70500 333 58008 70000==
41895,2024,11,09,03,00,AAXX 09034 41895 01956 03602 10250 20230 30136 40159 70500 333 20210 58001 70000==
41895,2024,11,09,06,00,AAXX 09064 41895 01457 33602 10305 20220 30118 40140 70510 83500 333 59001 70000 83616==
41895,2024,11,09,09,00,AAXX 09094 41895 01457 30502 10313 20200 30094 40116 70511 83500 333 58003 70000 83616==
41895,2024,11,09,12,00,AAXX 09124 41895 01950 52701 10258 20240 30101 40124 70521 83510 333 10320 58002 70000 83616 85458==
41895,2024,11,09,15,00,AAXX 09154 41895 02950 00000 10238 20230 30118 40140 333 59002 70000==
41895,2024,11,09,18,00,AAXX 09184 41895 01950 00000 10230 20220 30116 40139 70500 333 59002 70000==
41895,2024,11,09,21,00,AAXX 09214 41895 01950 00000 10215 20215 30113 40136 70500 333 58003 70000==
41895,2024,11,10,00,00,AAXX 10004 41895 01950 00000 10206 20206 30119 40142 70500 333 58001 70000==
41895,2024,11,10,03,00,AAXX 10034 41895 01956 03603 10210 30136 40159 70500 333 20205 58000 70000==
41895,2024,11,10,06,00,AAXX 10064 41895 02958 03602 10300 20210 30122 40144 333 58004 70000==
41895,2024,11,10,09,00,AAXX 10094 41895 02956 03602 10305 20220 30097 40119 333 58003 70000==
41895,2024,11,10,12,00,AAXX 10124 41895 02950 00000 10260 20220 30102 40124 333 10318 58001 70000==
41895,2024,11,10,15,00,AAXX 10154 41895 01950 00000 10235 20230 30121 40143 70500 333 58003 70000==
41895,2024,11,10,18,00,AAXX 10184 41895 01950 00000 10225 20220 30119 40141 70500 333 58003 70000==
41895,2024,11,10,21,00,AAXX 10214 41895 01950 00000 10225 20220 30115 40137 70500 333 58002 70000==
41895,2024,11,11,00,00,AAXX 11004 41895 01950 00000 10205 20200 30117 40139 70500 333 59003 70000==
41895,2024,11,11,03,00,AAXX 11034 41895 01956 03601 10268 20230 30134 40157 70500 333 20200 59002 70000==
41895,2024,11,11,06,00,AAXX 11064 41895 02458 40000 10290 20200 30116 40139 84800 333 59006 70000 82616 83825==
41895,2024,11,11,09,00,AAXX 11094 41895 02458 30000 10312 20200 30091 40113 83500 333 59006 70000 83616==
41895,2024,11,11,12,00,AAXX 11124 41895 02950 00000 10255 20230 30094 40116 333 10315 59008 70000==
41895,2024,11,11,15,00,AAXX 11154 41895 02950 00000 10226 20220 30118 40141 333 59003 70000==
41895,2024,11,11,18,00,AAXX 11184 41895 02950 00000 10217 20210 30116 40139 333 59003 70000==
41895,2024,11,11,21,00,AAXX 11214 41895 01450 30000 10208 20200 30115 40138 70510 83500 333 58000 70000 83616==
41895,2024,11,12,00,00,AAXX 12004 41895 01450 30000 10198 20198 30114 40113 70511 83500 333 59003 70000==
41895,2024,11,12,03,00,AAXX 12034 41895 01957 23601 10260 20210 30132 40155 70511 80001 333 20195 59002 70000 82080==
41895,2024,11,12,06,00,AAXX 12064 41895 02458 43602 10304 20180 30116 40138 84800 333 58000 70000 82616 83825==
41895,2024,11,12,09,00,AAXX 12094 41895 02457 40503 10300 20190 30083 40106 84800 333 59008 70000 82616 83825==
41895,2024,11,12,12,00,AAXX 12124 41895 02950 00000 10246 20220 30083 40105 333 10310 59011 70000==
41895,2024,11,12,15,00,AAXX 12154 41895 01950 00000 10220 20210 30105 40128 70500 333 59013 70000==
41895,2024,11,12,18,00,AAXX 12184 41895 01950 00000 10215 20210 30102 40125 70500 333 59014 70000==
41895,2024,11,12,21,00,AAXX 12214 41895 01950 00000 10208 20200 30094 40116 70500 333 59021 70000==
41895,2024,11,13,00,00,AAXX 13004 41895 01950 00000 10200 20190 30100 40123 70500 333 59014 70000==
41895,2024,11,13,03,00,AAXX 13034 41895 01450 53601 10244 20220 30122 40145 70520 82510 333 20197 59010 70000 82616 85458==
41895,2024,11,13,06,00,AAXX 13064 41895 01450 53602 10290 20210 30108 40130 70522 82510 333 59008 70000 82616 85458==
41895,2024,11,13,09,00,AAXX 13094 41895 01450 63602 10300 20220 30083 40105 70522 83510 333 58000 70000 83616 86458==
41895,2024,11,13,12,00,AAXX 13124 41895 01950 00000 10240 20220 30090 40112 70510 333 10303 58007 70000==
41895,2024,11,13,15,00,AAXX 13154 41895 01950 00000 10220 20210 30109 40132 70500 333 58004 70000==
41895,2024,11,13,18,00,AAXX 13184 41895 01950 00000 10207 20200 30111 40134 70500 333 58009 70000==
41895,2024,11,13,21,00,AAXX 13214 41895 01950 00000 10200 20200 30115 40138 70500 333 58021 70000==
41895,2024,11,14,00,00,AAXX 14004 41895 01940 00000 10190 20190 30113 40136 70500 333 58013 70000==
41895,2024,11,14,03,00,AAXX 14034 41895 01/30 53602 10236 20220 30135 40158 71020 85010 333 20188 58013 70000 85458==
41895,2024,11,14,06,00,AAXX 14064 41895 01/50 53602 10284 20210 30120 40143 70522 85010 333 58012 70000 85458==
41895,2024,11,14,09,00,AAXX 14094 41895 01/50 50000 10295 20200 30093 40115 70522 85010 333 58010 70000 85458==
41895,2024,11,14,12,00,AAXX 14124 41895 01/50 50000 10240 20210 30095 40117 70522 85010 333 10300 58005 70000 85458==
41895,2024,11,14,15,00,AAXX 14154 41895 01950 00000 10215 20200 30115 40137 70500 333 58006 70000==
41895,2024,11,14,18,00,AAXX 14184 41895 01950 00000 10205 20200 30117 40139 70500 333 58006 70000==
41895,2024,11,14,21,00,AAXX 14214 41895 01950 00000 10200 20190 30114 40136 70500 333 59001 70000==
41897,2024,11,08,00,00,AAXX 08004 41897 31925 00901 10215 20210 30122 40136 70500 333 58000 70000=
41897,2024,11,08,03,00,AAXX 08034 41897 31930 00901 10270 20230 30143 40156 70500 333 20210 58007 70000=
41897,2024,11,08,06,00,AAXX 08064 41897 31950 20901 10295 20220 30133 40146 70500 82030 333 56090 58011 70000 82362=
41897,2024,11,08,09,00,AAXX 08094 41897 31950 03602 10305 20220 30097 40110 70500 333 59004 70000=
41897,2024,11,08,12,00,AAXX 08124 41897 31930 00000 10255 20240 30107 40121 70500 333 10315 59001 70000=
41897,2024,11,08,15,00,AAXX 08154 41897 31930 00602 10240 20220 30126 40140 70500 333 59007 70000=
41897,2024,11,08,21,00,AAXX 08214 41897 31930 00601 20220 20210 30117 40131 70500 333 59005 70000=
41897,2024,11,09,00,00,AAXX 09004 41897 31930 00601 10210 20200 30120 40133 70500 333 59002 70000=
41897,2024,11,09,03,00,AAXX 09034 41897 31940 00601 10270 20220 30144 40157 70500 333 10210 58001 70000=
41897,2024,11,09,06,00,AAXX 09064 41897 31450 20601 10310 20220 30120 40133 70500 82500 333 56900 59013 70000 82618=
41897,2024,11,09,09,00,AAXX 09094 41897 31450 20601 10310 20210 30097 40110 70500 82500 333 56900 58000 70000 82618=
41897,2024,11,09,12,00,AAXX 09124 41897 31930 00601 10260 20240 30108 40121 70500 333 10320 58001 70000=
41897,2024,11,09,15,00,AAXX 09154 41897 31930 00601 10237 20220 30124 40138 70500 333 59002 70000=
41897,2024,11,09,21,00,AAXX 09214 41897 31930 00601 10230 20220 30122 40136 70500 333 58000 70000=
41897,2024,11,10,00,00,AAXX 10004 41897 31930 03601 10210 20210 30123 40136 70500 333 58003 70000=
41897,2024,11,10,03,00,AAXX 10034 41897 31940 00602 10265 20180 30141 40154 70500 333 20210 59003 70000=
41897,2024,11,10,06,00,AAXX 10064 41897 31950 00602 10315 20220 30137 40150 70500 333 58017 70000=
41897,2024,11,10,09,00,AAXX 10094 41897 31950 00000 10312 20220 30101 40114 70500 333 58004 70000=
41897,2024,11,10,12,00,AAXX 10124 41897 31930 00000 10255 20230 30111 40124 70500 333 10320 58003 70000=
41897,2024,11,10,15,00,AAXX 10154 41897 31930 00000 10230 20220 30128 40142 70500 333 58004 70000=
41897,2024,11,10,18,00,AAXX 10184 41897 31930 00000 10225 20220 30123 40137 70500 333 58001 70000=
41897,2024,11,10,21,00,AAXX 10214 41897 31930 00000 10220 20210 30122 40136 70500 333 58002 70000=
41897,2024,11,11,00,00,AAXX 11004 41897 31930 00000 10210 20200 30121 40134 70500 333 59003 70000=
41897,2024,11,11,03,00,AAXX 11034 41897 31940 00601 10280 20220 30140 40153 70500 333 20210 59001 70000=
41897,2024,11,11,06,00,AAXX 11064 41897 31950 03602 10305 20210 30119 40132 70500 333 59018 70000=
41897,2024,11,11,09,00,AAXX 11094 41897 31950 00000 10315 20180 30095 40108 70500 333 59006 70000=
41897,2024,11,11,12,00,AAXX 11124 41897 31930 00000 10250 20220 30104 40117 70500 333 10320 59007 70000=
41897,2024,11,11,15,00,AAXX 11154 41897 31930 00000 10222 20210 30124 40137 70500 333 59004 70000=
41897,2024,11,11,18,00,AAXX 11184 41897 31930 00601 10215 20210 30119 40133 70500 333 59004 70000=
41897,2024,11,11,21,00,AAXX 11214 41897 31930 00601 10205 20200 30119 40132 70500 333 59003 70000=
41897,2024,11,12,00,00,AAXX 12004 41897 31930 00901 10195 20190 30117 40130 70500 333 59004 70000=
41897,2024,11,12,03,00,AAXX 12034 41897 31940 03602 10265 20220 30137 40150 70500 333 20195 59003 70000=
41897,2024,11,12,06,00,AAXX 12064 41897 31950 03602 10295 20220 30118 40130 70500 333 59001 70000=
41897,2024,11,12,09,00,AAXX 12094 41897 31450 50000 10310 20210 30092 40105 70500 84430 333 56990 59003 70000 82620 83360=
41897,2024,11,12,12,00,AAXX 12124 41897 31440 50000 10260 20230 30096 40109 70500 84430 333 10315 56990 59003 70000 82620 83360=
41897,2024,11,12,15,00,AAXX 12154 41897 31440 50000 10235 20220 30107 40120 70500 84430 333 56990 59017 70000 82620 83360=
41897,2024,11,12,18,00,AAXX 12184 41897 31940 00000 10225 20220 30112 40125 70500 333 59007 70000=
41897,2024,11,12,21,00,AAXX 12214 41897 31930 00000 10220 20210 30105 40118 70500 333 59007 70000=
41897,2024,11,13,00,00,AAXX 13004 41897 31930 00000 10215 20210 30103 40116 70500 333 59009 70000=
41897,2024,11,13,03,00,AAXX 13034 41897 31930 00000 10250 20220 30127 40140 70500 333 20203 59010 70000=
41897,2024,11,13,06,00,AAXX 13064 41897 31950 50000 10295 20230 30110 40123 70500 84430 333 56990 59008 70000 82620 83360=
41897,2024,11,13,09,00,AAXX 13094 41897 31950 50000 10305 20230 30102 40115 70500 84430 333 56990 59008 70000 82620 83360=
41897,2024,11,13,12,00,AAXX 13124 41897 31930 00000 10250 20220 30096 40109 70500 333 10310 58000 70000=
41897,2024,11,13,15,00,AAXX 13154 41897 31930 00000 10225 20220 30110 40123 70500 333 58002 70000=
41897,2024,11,13,18,00,AAXX 13184 41897 31930 00000 10220 20210 30117 40130 70500 333 58003 70000=
41897,2024,11,13,21,00,AAXX 13214 41897 31930 00000 10215 20210 30114 40127 70500 333 59003 70000=
41897,2024,11,14,00,00,AAXX 14004 41897 31930 00000 10210 20200 30112 40125 70500 333 58003 70000=
41897,2024,11,14,03,00,AAXX 14034 41897 31930 00000 10245 20220 30140 40153 70500 333 20200 58010 70000=
41897,2024,11,14,06,00,AAXX 14064 41897 31950 00000 10285 20230 30125 40138 70500 333 58010 70000=
41897,2024,11,14,09,00,AAXX 14094 41897 31950 00000 10295 20230 30110 40123 70500 333 58008 70000=
41897,2024,11,14,12,00,AAXX 14124 41897 31930 00000 10245 20220 30102 40115 70500 333 10300 58010 70000=
41897,2024,11,14,15,00,AAXX 14154 41897 31930 00000 10220 20200 30120 40133 70500 333 58010 70000=
41897,2024,11,14,18,00,AAXX 14184 41897 31930 00000 10215 20210 30118 40131 70500 333 58010 70000=
41897,2024,11,14,21,00,AAXX 14214 41897 31930 00000 10210 20200 30115 40128 70500 333 58005 70000=
41902,2024,11,08,00,00,AAXX 08004 41902 31440 60502 10220 20210 30126 40135 70544 82530 333 56990 58005 70000 82616 86362=
41902,2024,11,08,03,00,AAXX 08034 41902 31440 13602 10244 20210 30141 40150 70544 81500 333 10216 56990 58002 70000 81616=
41902,2024,11,08,06,00,AAXX 08064 41902 32456 13602 10302 20210 30114 40123 81500 333 56990 59008 70000 81616=
41902,2024,11,08,09,00,AAXX 08094 41902 32456 12801 10304 20230 30100 40109 81500 333 56990 59001 70000 81616=
41902,2024,11,08,12,00,AAXX 08124 41902 32440 13601 10257 20220 30110 40119 81500 333 10310 56990 59001 70000 82616=
41902,2024,11,08,15,00,AAXX 08154 41902 32440 10501 10240 20220 30128 40136 81500 333 56990 59008 70000 81616=
41902,2024,11,08,18,00,AAXX 08184 41902 31430 13601 10230 20210 30123 40132 70544 81500 333 56990 59003 70000 81616=
41902,2024,11,09,00,00,AAXX 09004 41902 31950 03602 10220 20210 30126 40135 70544 333 58000 70000=
41902,2024,11,09,03,00,AAXX 09034 41902 NIL=
41902,2024,11,09,06,00,AAXX 09064 41902 NIL=
41902,2024,11,09,09,00,AAXX 09094 41902 32956 03601 10297 20250 30099 40108 333 59001 70000=
41902,2024,11,09,12,00,AAXX 09124 41902 32950 03201 10260 20220 30109 40118 333 10307 59002 70000=
41902,2024,11,09,15,00,AAXX 09154 41902 31940 02801 10230 20220 30126 40135 70544 333 59010 70000=
41902,2024,11,09,18,00,AAXX 09184 41902 31940 00000 10230 20210 30124 40133 70544 333 58001 70000=
41902,2024,11,10,00,00,AAXX 10004 41902 31950 00501 10215 20210 30130 40139 70544 333 58004 70000=
41902,2024,11,10,03,00,AAXX 10034 41902 31956 03602 10275 20220 30144 40153 70544 333 20210 58000 70000=
41902,2024,11,10,06,00,AAXX 10064 41902 NIL=
41902,2024,11,10,09,00,AAXX 10094 41902 32956 00501 10315 20230 30126 40135 58027 70000=
41902,2024,11,10,12,00,AAXX 10124 41902 32950 03201 10284 20220 30111 40119 333 10320 58002 70000=
41902,2024,11,10,15,00,AAXX 10154 41902 31940 03101 10242 20220 30126 40135 70544 333 58000 70000=
41902,2024,11,10,18,00,AAXX 10184 41902 31930 00000 10227 20220 30124 40133 70544 333 58000 70000=
41902,2024,11,11,00,00,AAXX 11004 41902 31940 03601 10210 20200 30125 40134 70544 333 59005 70000=
41902,2024,11,11,03,00,AAXX 11034 41902 31956 03601 10280 20230 30140 40149 70544 333 20210 59004 70000=
41902,2024,11,11,09,00,AAXX 11094 41902 NIL=
41902,2024,11,11,12,00,AAXX 11124 41902 31940 10000 10261 20220 30099 40107 70500 81500 333 10321 56900 58012 70000 81614=
41902,2024,11,11,15,00,AAXX 11154 41902 31930 00000 10245 20230 30122 40131 70544 333 59004 70000=
41902,2024,11,11,18,00,AAXX 11184 41902 NIL=
41902,2024,11,11,21,00,AAXX 11214 41902 31930 00000 10225 20220 30112 40120 70544 333 59010 70000=
41902,2024,11,12,00,00,AAXX 12004 41902 31430 10000 10220 20210 30118 40126 70544 81500 333 56900 59007 70000 81614=
41902,2024,11,12,03,00,AAXX 12034 41902 31450 10501 10278 20210 30137 40145 70544 81500 333 20216 56900 59003 70000 81614=
41902,2024,11,12,06,00,AAXX 12064 41902 31456 23601 10305 20190 30118 40126 70344 82500 333 56900 59017 70000 82614=
41902,2024,11,12,09,00,AAXX 12094 41902 32456 23601 10308 20200 30089 40097 82500 333 56900 59006 70000 82614=
41902,2024,11,12,12,00,AAXX 12124 41902 31450 30000 10256 20210 30089 40097 70500 83500 333 10325 56900 59010 70000 83614=
41902,2024,11,12,15,00,AAXX 12154 41902 31930 00000 10235 20230 30110 40118 70544 333 59012 70000=
41902,2024,11,12,18,00,AAXX 12184 41902 NIL=
41902,2024,11,12,21,00,AAXX 12214 41902 31930 00000 10220 20210 30103 40112 70544 333 59009 70000=
41902,2024,11,13,00,00,AAXX 13004 41902 31430 10000 10215 20210 30114 40123 70544 81500 333 56900 59004 70000 81614=
41902,2024,11,13,03,00,AAXX 13034 41902 31940 00000 10257 20220 30128 40136 70544 333 20215 59009 70000=
41902,2024,11,13,06,00,AAXX 13064 41902 31450 12701 10288 20220 30113 40121 70544 81500 333 56900 58005 70000 81614=
41902,2024,11,13,09,00,AAXX 13094 41902 32456 12701 10301 20240 30086 40094 81500 333 56900 59003 70000 81614=
41902,2024,11,13,12,00,AAXX 13124 41902 31450 10000 10258 20200 30092 40100 70500 81500 333 10310 56900 58003 70000 81614=
41902,2024,11,13,15,00,AAXX 13154 41902 31930 00000 10228 20220 30112 40121 70544 333 58002 70000=
41902,2024,11,13,21,00,AAXX 13214 41902 31930 00000 10214 20200 30108 40117 70544 333 56900 58005 70000=
41902,2024,11,14,00,00,AAXX 14004 41902 31930 00000 10208 20200 30118 40127 70544 333 58004 70000=
41902,2024,11,14,03,00,AAXX 14034 41902 31940 00000 10254 20200 30138 40146 70544 333 20204 58010 70000=
41902,2024,11,14,06,00,AAXX 14064 41902 31956 00000 10294 20200 30118 40126 70044 333 58005 70000=
41902,2024,11,14,09,00,AAXX 14094 41902 32956 00000 10303 20180 30095 40103 333 58009 70000=
41902,2024,11,14,12,00,AAXX 14124 41902 31940 00000 10265 20220 30098 40106 70500 333 10308 58006 70000=
41902,2024,11,14,15,00,AAXX 14154 41902 31930 00000 10232 20220 30119 40128 70544 333 58007 70000=
41902,2024,11,14,18,00,AAXX 14184 41902 NIL=
41902,2024,11,14,21,00,AAXX 14214 41902 31930 00000 10211 20200 30112 40121 70544 333 58004 70000=
41907,2024,11,08,00,00,AAXX 08004 41907 01935 00000 10220 20220 30117 40132 70500 333 58006 70000==
41907,2024,11,08,03,00,AAXX 08034 41907 01940 00000 10246 20230 30137 40152 70500 333 20215 58006 70000==
41907,2024,11,08,06,00,AAXX 08064 41907 01950 00000 10300 20220 30119 40134 70500 333 58002 70000==
41907,2024,11,08,09,00,AAXX 08094 41907 01450 23602 10315 20210 30092 40107 70500 82500 333 59005 70000 82616==
41907,2024,11,08,12,00,AAXX 08124 41907 01940 00000 10256 20240 30101 40116 70500 333 10315 59005 70000==
41907,2024,11,08,15,00,AAXX 08154 41907 01940 00000 10232 20220 30122 40137 70500 333 59007 70000==
41907,2024,11,08,18,00,AAXX 08184 41907 01935 00000 10225 20220 30121 40136 70500 333 59010 70000==
41907,2024,11,08,21,00,AAXX 08214 41907 01930 00000 10220 20210 30112 40127 70500 333 59010 70000==
41907,2024,11,09,00,00,AAXX 09004 41907 01930 00000 10213 20200 30116 40131 70500 333 59001 70000==
41907,2024,11,09,03,00,AAXX 09034 41907 42940 00000 10245 20210 30138 40153 58001==
41907,2024,11,09,06,00,AAXX 09064 41907 01450 53602 10302 20210 30119 40134 70500 85800 333 58000 70000 82615 83825==
41907,2024,11,09,09,00,AAXX 09093 41907 01450 50000 10313 20200 30096 40111 70522 85800 333 58004 70000 82615 83825==
41907,2024,11,09,12,00,AAXX 09124 41907 01940 00000 10255 20240 30104 40119 70522 333 10315 58003 70000==
41907,2024,11,09,15,00,AAXX 09154 41907 01940 00000 10235 20230 30120 40135 70500 333 59002 70000==
41907,2024,11,09,18,00,AAXX 09184 41907 01940 00000 10225 20220 30120 40135 70500 333 59001 70000==
41907,2024,11,09,21,00,AAXX 09214 41907 01940 00000 10215 20210 30119 40134 70500 333 58007 70000==
41907,2024,11,10,00,00,AAXX 10004 41907 01940 00000 10207 20207 30119 40134 70500 333 58003 70000==
41907,2024,11,10,03,00,AAXX 10034 41907 01940 00000 10245 20230 30137 40152 70500 333 20207 59001 70000==
41907,2024,11,10,06,00,AAXX 10064 41907 01450 23602 10300 20200 30123 40138 70500 82500 333 58004 70000 82615==
41907,2024,11,10,09,00,AAXX 10094 41907 01450 32702 10317 20200 30098 40113 70500 83500 333 58002 70000 82615==
41907,2024,11,10,12,00,AAXX 10124 41907 01940 00000 10255 20250 30106 40121 70500 333 10320 58002 70000==
41907,2024,11,10,15,00,AAXX 10154 41907 01440 30000 10233 20220 30124 40139 70500 83500 333 58004 70000 83615==
41907,2024,11,10,18,00,AAXX 10184 41907 01440 30000 10230 20220 30124 40139 70500 83500 333 58004 70000 83615==
41907,2024,11,10,21,00,AAXX 10214 41907 01435 30000 10220 20210 30118 40133 70500 83500 333 59001 70000 83615==
41907,2024,11,11,00,00,AAXX 11004 41907 01935 00000 10211 20200 30118 40133 70500 333 59001 70000==
41907,2024,11,11,03,00,AAXX 11034 41907 01940 00000 10248 20230 30136 40151 70500 333 20203 59001 70000==
41907,2024,11,11,06,00,AAXX 11064 41907 01450 33602 10302 20190 30119 40133 70500 333 59004 70000 82616==
41907,2024,11,11,09,00,AAXX 11094 41907 01450 30000 10310 20190 30093 40107 70500 83800 333 59005 70000 82616==
41907,2024,11,11,12,00,AAXX 11124 41907 01940 00000 10245 20220 30099 40114 70500 333 10320 59007 70000==
41907,2024,11,11,15,00,AAXX 11154 41907 01940 00000 10222 20210 30120 40135 70500 333 59004 70000==
41907,2024,11,11,18,00,AAXX 11184 41907 01940 00000 10215 20210 30122 40137 70500 333 59002 70000==
41907,2024,11,11,21,00,AAXX 11214 41907 01935 00000 10210 20200 30118 40133 70500 333 58000 70000==
41907,2024,11,12,00,00,AAXX 12004 41907 01935 00000 10203 20190 30112 40127 70500 333 59006 70000==
41907,2024,11,12,03,00,AAXX 12034 41907 01440 23602 10250 20210 30131 40146 70500 82500 333 20195 59005 70000 82615==
41907,2024,11,12,06,00,AAXX 12064 41907 01440 53602 10300 20180 30119 40134 70500 85800 333 58000 70000 82615 83825==
41907,2024,11,12,09,00,AAXX 12094 41907 01440 33102 10310 20170 30087 40102 70522 83800 333 59006 70000 82615==
41907,2024,11,12,12,00,AAXX 12124 41907 01940 00000 10250 20220 30085 40100 70520 333 10319 59014 70000==
41907,2024,11,12,15,00,AAXX 12153 41907 01940 00000 10215 20210 30108 40123 70500 333 59012 70000==
41907,2024,11,12,18,00,AAXX 12184 41907 01935 00000 10218 20210 30106 40122 70500 333 59016 70000==
41907,2024,11,12,21,00,AAXX 12214 41907 01930 00000 10210 20200 30092 40107 70500 333 59026 70000==
41907,2024,11,13,00,00,AAXX 13004 41907 01930 00000 10202 20190 30098 40113 70500 333 59014 70000==
41907,2024,11,13,03,00,AAXX 13034 41907 01940 00000 10240 20220 30122 40137 70500 333 20200 59009 70000==
41907,2024,11,13,06,00,AAXX 13064 41907 01950 00000 10290 20220 30110 40125 70500 333 59009 70000==
41907,2024,11,13,09,00,AAXX 13094 41907 01440 50000 10300 20200 30086 40100 70500 85500 333 59001 70000 85615==
41907,2024,11,13,12,00,AAXX 13124 41907 01940 00000 10237 20220 30091 40106 70520 333 10302 58006 70000==
41907,2024,11,13,15,00,AAXX 13154 41907 01940 00000 10220 20210 30111 40126 70500 333 59003 70000==
41907,2024,11,13,18,00,AAXX 13184 41907 01940 00000 10210 20200 30112 40127 70500 333 58006 70000==
41907,2024,11,13,21,00,AAXX 13214 41907 01940 00000 10205 20200 30110 40125 70500 333 58018 70000==
41907,2024,11,14,00,00,AAXX 14004 41907 01930 00000 10197 20197 30116 40131 70500 333 58018 70000==
41907,2024,11,14,03,00,AAXX 14034 41907 01940 00000 10230 20220 30137 40152 70500 333 20193 58015 70000==
41907,2024,11,14,06,00,AAXX 14064 41907 01950 00000 10285 20210 30119 40134 70500 333 58009 70000==
41907,2024,11,14,09,00,AAXX 14094 41907 01940 03102 10298 20200 30095 40110 70500 333 58009 70000==
41907,2024,11,14,12,00,AAXX 14124 41907 01940 00000 10240 20220 30098 40113 70500 333 10300 58007 70000==
41907,2024,11,14,15,00,AAXX 14154 41907 01940 00000 10220 20200 30118 40133 70500 333 58007 70000==
41907,2024,11,14,18,00,AAXX 14184 41907 01935 00000 10210 20200 30121 40136 70500 333 58009 70000==
41907,2024,11,14,21,00,AAXX 14214 41907 01935 00000 10202 20190 30110 40125 70500 333 58000 70000==
41909,2024,11,08,00,00,AAXX 08004 41909 02940 00000 10225 20220 30119 40131 333 58005 70000==
41909,2024,11,08,03,00,AAXX 08034 41909 02956 00000 10264 20220 30138 40150 333 20210 58004 70000==
41909,2024,11,08,06,00,AAXX 08064 41909 02956 00000 10314 20200 30120 40131 333 59001 70000==
41909,2024,11,08,09,00,AAXX 08094 41909 02456 20000 10320 20200 30095 40106 82500 333 59005 70000 82615==
41909,2024,11,08,12,00,AAXX 08124 41909 02950 00000 10270 20220 30104 40115 333 10330 59001 70000==
41909,2024,11,08,15,00,AAXX 08154 41909 02940 00000 10250 20210 30125 40137 333 59005 70000==
41909,2024,11,08,18,00,AAXX 08184 41909 02940 00000 10236 20220 30123 40135 333 59003 70000==
41909,2024,11,08,21,00,AAXX 08214 41909 02940 00000 10223 20210 30116 40128 333 59005 70000==
41909,2024,11,09,00,00,AAXX 09004 41909 02950 00000 10212 20200 30119 40131 333 58000 70000==
41909,2024,11,09,03,00,AAXX 09034 41909 02956 00000 10272 20200 30140 40152 333 20206 58002 70000==
41909,2024,11,09,06,00,AAXX 09064 41909 02956 03202 10312 20170 30122 40133 333 58002 70000==
41909,2024,11,09,09,00,AAXX 09094 41909 02956 03601 10324 20170 30100 40112 333 58005 70000==
41909,2024,11,09,12,00,AAXX 09124 41909 02940 00000 10258 20210 30106 40118 333 10332 58002 70000==
41909,2024,11,09,15,00,AAXX 09154 41909 02940 00000 10239 20220 30124 40136 333 59001 70000==
41909,2024,11,09,18,00,AAXX 09184 41909 02940 00000 10232 20210 30121 40133 333 59002 70000==
41909,2024,11,09,21,00,AAXX 09214 41909 02940 00000 10222 20210 30116 40128 333 58000 70000==
41909,2024,11,10,00,00,AAXX 10004 41909 01940 00000 10215 20210 30120 40132 70500 333 58001 70000==
41909,2024,11,10,03,00,AAXX 10034 41909 02956 00000 10274 20200 30139 40151 333 20202 59001 70000==
41909,2024,11,10,06,00,AAXX 10064 41909 02956 00000 10310 20180 30126 40137 333 58004 70000==
41909,2024,11,10,09,00,AAXX 10094 41909 02456 20000 10327 20180 30101 40112 82500 333 58001 70000 82615==
41909,2024,11,10,12,00,AAXX 10124 41909 02940 00000 10262 20210 30107 40118 333 10330 58001 70000==
41909,2024,11,10,15,00,AAXX 10154 41909 02940 00000 10244 20220 30125 40137 333 58001 70000==
41909,2024,11,10,18,00,AAXX 10184 41909 01940 00000 10230 20210 30125 40137 70500 333 58004 70000==
41909,2024,11,10,21,00,AAXX 10214 41909 01940 00000 10220 20200 30120 40132 70500 333 58004 70000==
41909,2024,11,11,00,00,AAXX 11004 41909 01950 00000 10213 20200 30118 40130 70500 333 59002 70000==
41909,2024,11,11,03,00,AAXX 11034 41909 02956 00000 10274 20200 30137 40149 333 20200 59002 70000==
41909,2024,11,11,06,00,AAXX 11064 41909 02956 02702 10314 20190 30120 40131 333 59006 70000==
41909,2024,11,11,09,00,AAXX 11094 41909 02456 20000 10328 20170 30095 40106 82500 333 59006 70000 82615==
41909,2024,11,11,12,00,AAXX 11124 41909 02940 00000 10264 20190 30096 40107 333 59011 70000==
41909,2024,11,11,15,00,AAXX 11154 41909 02940 00000 10234 20190 30121 40133 333 59004 70000==
41909,2024,11,11,18,00,AAXX 11184 41909 02940 00000 10228 20200 30126 40138 333 58001 70000==
41909,2024,11,11,21,00,AAXX 11214 41909 02940 00000 10220 20200 30124 40136 333 58004 70000==
41909,2024,11,12,00,00,AAXX 12004 41909 02950 00000 10214 20190 30115 40127 333 59003 70000==
41909,2024,11,12,03,00,AAXX 12034 41909 02956 00000 10274 20190 30131 40142 333 20196 59006 70000==
41909,2024,11,12,06,00,AAXX 12064 41909 02956 00000 10310 20180 30121 40132 333 58001 70000==
41909,2024,11,12,09,00,AAXX 12094 41909 02456 10000 10315 20170 30088 40099 81500 333 59007 70000 81615==
41909,2024,11,12,12,00,AAXX 12124 41909 02950 00000 10253 20200 30087 40099 333 10320 59009 70000==
41909,2024,11,12,15,00,AAXX 12154 41909 02940 00000 10225 20210 30108 40120 333 59013 70000==
41909,2024,11,12,18,00,AAXX 12184 41909 01940 00000 10221 20200 30108 40120 70500 333 59018 70000==
41909,2024,11,12,21,00,AAXX 12214 41909 01935 00000 10216 20210 30096 40108 70500 333 59028 70000==
41909,2024,11,13,00,00,AAXX 13004 41909 01940 00000 10210 20200 30100 40112 70500 333 59015 70000==
41909,2024,11,13,03,00,AAXX 13034 41909 01950 00000 10240 20210 30125 40137 70500 333 20198 59006 70000==
41909,2024,11,13,06,00,AAXX 13064 41909 02456 33102 10300 20200 30111 40122 83500 333 59010 70000 83615==
41909,2024,11,13,09,00,AAXX 13094 41909 02456 23102 10314 20170 30085 40096 82800 333 59003 70000 81615==
41909,2024,11,13,12,00,AAXX 13124 41909 02940 00000 10254 20210 30091 40103 333 10322 58004 70000==
41909,2024,11,13,15,00,AAXX 13154 41909 02940 00000 10228 20210 30112 40124 333 58004 70000==
41909,2024,11,13,18,00,AAXX 13184 41909 02940 00000 10214 20190 30114 40124 333 58006 70000==
41909,2024,11,13,21,00,AAXX 13214 41909 01940 00000 10209 20200 30111 40123 70500 333 58015 70000==
41909,2024,11,14,00,00,AAXX 14004 41909 01940 00000 10204 20190 30117 40129 70500 333 58017 70000==
41909,2024,11,14,03,00,AAXX 14034 41909 01950 03602 10248 20220 30136 40148 70500 333 20195 58011 70000==
41909,2024,11,14,06,00,AAXX 14064 41909 02956 03602 10304 20200 30116 40127 333 59005 70000==
41909,2024,11,14,09,00,AAXX 14094 41909 02456 23601 10304 20190 30094 40105 82500 333 58009 70000 82615==
41909,2024,11,14,12,00,AAXX 14124 41909 02950 00000 10248 20200 30098 40110 333 10312 58007 70000==
41909,2024,11,14,15,00,AAXX 14154 41909 02940 00000 10235 20210 30119 40131 333 58007 70000==
41909,2024,11,14,18,00,AAXX 14184 41909 01940 00000 10223 20200 30116 40128 70500 333 58002 70000==
41909,2024,11,14,21,00,AAXX 14214 41909 01940 00000 10210 20200 30113 40125 70500 333 58002 70000==
41915,2024,11,08,00,00,AAXX 08004 41915 01940 00000 10192 20190 30108 40134 70500 333 58000 70000==
41915,2024,11,08,03,00,AAXX 08034 41915 01950 03601 10270 20190 30125 40151 70500 333 20190 58003 70000==
41915,2024,11,08,06,00,AAXX 08064 41915 02956 00103 10296 20200 30100 40125 333 59007 70000==
41915,2024,11,08,09,00,AAXX 08094 41915 02956 03603 10300 20180 30083 40108 333 59006 70000==
41915,2024,11,08,12,00,AAXX 08124 41915 02950 00000 10245 20220 30097 40122 333 10306 59001 70000==
41915,2024,11,08,15,00,AAXX 08154 41915 01940 00000 10219 20210 30112 40138 70500 333 59009 70000==
41915,2024,11,08,21,00,AAXX 08214 41915 02950 00000 10190 20180 30105 40131 333 59006 70000==
41915,2024,11,09,00,00,AAXX 09004 41915 02950 00000 10180 20180 30109 40135 333 58001 70000==
41915,2024,11,09,03,00,AAXX 09034 41915 02956 00501 10255 20210 30122 40148 333 59003 70000==
41915,2024,11,09,06,00,AAXX 09064 41915 02956 00501 10300 20200 30108 40133 333 58008 70000==
41915,2024,11,09,09,00,AAXX 09094 41915 02456 20000 10305 20200 30087 40112 82400 333 58004 70000 81617==
41915,2024,11,09,15,00,AAXX 09154 41915 01940 00000 10220 20210 30102 40128 70500 333 59010 70000==
41915,2024,11,09,18,00,AAXX 09184 41915 01930 00000 10207 20190 30111 40137 70500 333 59002 70000==
41915,2024,11,09,21,00,AAXX 09214 41915 01930 00000 10202 20200 30111 40137 70500 333 58006 70000==
41915,2024,11,10,00,00,AAXX 10004 41915 01930 00000 10187 20187 30111 40137 70500 333 58002 70000==
41915,2024,11,10,03,00,AAXX 10034 41915 02956 00000 10270 20210 30130 40155 333 20187 58008 70000==
41915,2024,11,10,06,00,AAXX 10064 41915 02956 03101 10305 20200 30110 40135 333 58002 70000==
41915,2024,11,10,09,00,AAXX 10094 41915 02956 03102 10316 20210 30086 40111 333 59001 70000==
41915,2024,11,10,12,00,AAXX 10124 41915 02950 00000 10256 20230 30097 40122 333 10330 58005 70000==
41915,2024,11,10,15,00,AAXX 10154 41915 01950 00000 10232 20220 30111 40136 70500 333 58009 70000==
41915,2024,11,10,21,00,AAXX 10214 41915 01950 00000 10206 20200 30108 40134 70500 333 59003 70000==
41915,2024,11,11,00,00,AAXX 11004 41915 01/50 20000 10208 20200 30107 40133 70500 82030 333 59004 70000 82362==
41915,2024,11,11,03,00,AAXX 11034 41915 01450 60000 10272 20220 30125 40150 70521 83510 333 20203 59005 70000 83618 86460==
41915,2024,11,11,06,00,AAXX 11064 41915 01/56 13601 10312 20200 30108 40133 70521 81030 333 59022 70000 81362==
41915,2024,11,11,09,00,AAXX 11094 41915 02456 30000 10326 20180 30082 40107 83400 333 59004 70000 82616==
41915,2024,11,11,12,00,AAXX 11124 41915 02440 40000 10267 20220 30085 40110 82530 333 10332 58012 70000 82616 83362==
41915,2024,11,11,15,00,AAXX 11154 41915 01440 40000 10235 20230 30108 40133 56035 70522 81530 333 59003 70000 81616 84364==
41915,2024,11,11,18,00,AAXX 11184 41915 01440 30000 10230 20220 30109 40134 70521 81530 333 59003 70000 81616 83364==
41915,2024,11,11,21,00,AAXX 11214 41915 01430 30000 10220 20200 30105 40131 70511 81530 333 59002 70000 81616 83364==
41915,2024,11,12,00,00,AAXX 12004 41915 01430 30000 10208 20200 30105 40131 70511 81530 333 59002 70000 81616 83364==
41915,2024,11,12,03,00,AAXX 12034 41915 01950 00000 10280 20210 30119 40144 70510 333 20206 59006 70000==
41915,2024,11,12,06,00,AAXX 12064 41915 02956 23402 10320 20170 30101 40126 80002 333 59007 70000 82080==
41915,2024,11,12,09,00,AAXX 12094 41915 42/56 52801 10310 20180 30072 40097 59010 85080==
41915,2024,11,12,12,00,AAXX 12124 41915 01950 50000 10258 20230 30074 40099 70521 80002 333 10330 59011 70000 85080==
41915,2024,11,12,15,00,AAXX 12154 41915 01940 00000 10230 20220 30093 40118 70520 333 59015 70000==
41915,2024,11,12,18,00,AAXX 12184 41915 01940 00000 10214 20200 30096 40122 70520 333 59012 70000==
41915,2024,11,12,21,00,AAXX 12214 41915 01940 00000 10196 20190 30094 40120 70500 333 59012 70000==
41915,2024,11,13,00,00,AAXX 13004 41915 01420 20000 10183 20170 30092 40119 71041 82400 333 59013 70000 81616==
41915,2024,11,13,03,00,AAXX 13034 41915 01956 00000 10270 20200 30111 40136 70140 333 20182 59008 70000==
41915,2024,11,13,06,00,AAXX 13064 41915 01556 13102 10300 20190 30093 40118 70340 81100 333 59008 70000 81822==
41915,2024,11,13,09,00,AAXX 13094 41915 02456 33201 10310 20190 30069 40093 81510 333 59003 70000 81618 83460==
41915,2024,11,13,12,00,AAXX 13124 41915 01950 00000 10240 20220 30077 40103 70510 333 10318 58003 70000==
41915,2024,11,13,15,00,AAXX 13154 41915 01940 00000 10215 20210 30100 40126 70500 333 58007 70000==
41915,2024,11,13,21,00,AAXX 13214 41915 01935 00000 10183 20180 30100 40126 70500 333 58006 70000==
41915,2024,11,14,00,00,AAXX 14004 41915 01935 00000 10175 20175 30104 40130 70500 333 58012 70000==
41915,2024,11,14,03,00,AAXX 14034 41915 01950 00000 10255 20220 30122 40147 70500 333 20173 58011 70000==
41915,2024,11,14,06,00,AAXX 14064 41915 02456 33602 10290 20200 30097 40122 81510 333 58004 70000 81618 83460==
41915,2024,11,14,09,00,AAXX 14094 41915 02456 20000 10306 20200 30078 40103 82500 333 58009 70000 82617==
41915,2024,11,14,12,00,AAXX 14124 41915 01440 20000 10253 20220 30085 40111 70511 82500 333 10310 58008 70000 82617==
41915,2024,11,14,15,00,AAXX 14154 41915 01935 00000 10208 20200 30099 40125 70510 333 59001 70000==
41915,2024,11,14,18,00,AAXX 14184 41915 01930 00000 10195 20190 30100 40126 70510 333 59002 70000==
41915,2024,11,14,21,00,AAXX 14214 41915 01930 00000 10185 20180 30098 40124 70500 333 59002 70000==
41923,2024,11,08,00,00,AAXX 08004 41923 01940 00000 10230 20210 30117 40127 70500 333 58006 70000==
41923,2024,11,08,03,00,AAXX 08034 41923 01940 00000 10282 20190 30143 40152 70500 333 20224 58004 70000==
41923,2024,11,08,06,00,AAXX 08064 41923 02956 00000 10307 20160 30122 40132 333 59002 70000==
41923,2024,11,08,09,00,AAXX 08094 41923 02/56 20000 10316 20190 30099 40109 82030 333 59003 70000 82360==
41923,2024,11,08,12,00,AAXX 08124 41923 02/50 20000 10278 20200 30110 40120 82030 333 10325 59004 70000 82360==
41923,2024,11,08,15,00,AAXX 08154 41923 02940 00000 10260 20190 30130 40139 333 59005 70000==
41923,2024,11,08,18,00,AAXX 08184 41923 01940 00000 10238 20200 30125 40135 70500 333 59015 70000==
41923,2024,11,08,21,00,AAXX 08214 41923 01940 00000 10232 20200 30121 40131 70500 333 59009 70000==
41923,2024,11,09,00,00,AAXX 09004 41923 01940 00000 10226 20200 30122 40132 70500 333 59005 70000==
41923,2024,11,09,03,00,AAXX 09034 41923 01940 00000 10276 20170 30143 40152 70500 333 20220 58000 70000==
41923,2024,11,09,06,00,AAXX 09064 41923 02956 00000 10302 20150 30125 40135 333 58003 70000==
41923,2024,11,09,09,00,AAXX 09093 41923 02956 00000 10320 20180 30101 40111 333 58002 70000==
41923,2024,11,09,12,00,AAXX 09124 41923 02950 00000 10276 20180 30108 40118 333 10322 59002 70000==
41923,2024,11,09,15,00,AAXX 09154 41923 42945 00000 10242 20200 30127 40137 59003==
41923,2024,11,09,18,00,AAXX 09184 41923 02940 00000 10232 20200 30127 40137 333 58002 70000==
41923,2024,11,09,21,00,AAXX 09214 41923 02940 00000 10222 20190 30122 40132 333 58001 70000==
41923,2024,11,10,00,00,AAXX 10004 41923 01940 00000 10214 20190 30123 40133 70500 333 58001 70000==
41923,2024,11,10,03,00,AAXX 10034 41923 02956 00000 10288 20190 30144 40154 333 20213 58001 70000==
41923,2024,11,10,06,00,AAXX 10064 41923 02456 20000 10314 20180 30125 40135 82400 333 58000 70000 81616==
41923,2024,11,10,09,00,AAXX 10094 41923 01/50 30000 10306 20200 30104 40114 70511 83030 333 58003 70000 83365==
41923,2024,11,10,12,00,AAXX 10124 41923 01940 00000 10272 20200 30112 40121 70510 333 10325 58004 70000==
41923,2024,11,10,15,00,AAXX 10154 41923 01940 00000 10248 20210 30129 40138 70500 333 58002 70000==
41923,2024,11,10,18,00,AAXX 10184 41923 01940 00000 10238 20210 30131 40140 70500 333 58004 70000==
41923,2024,11,10,21,00,AAXX 10214 41923 01940 00000 10230 20210 30119 40129 70500 333 59003 70000==
41923,2024,11,11,00,00,AAXX 11004 41923 01935 00000 10222 20200 30124 40134 70500 333 58001 70000==
41923,2024,11,11,03,00,AAXX 11034 41923 01950 00902 10295 20190 30141 40151 70500 333 20220 59003 70000==
41923,2024,11,11,06,00,AAXX 11064 41923 02956 00000 10319 20150 30122 40132 333 59003 70000==
41923,2024,11,11,09,00,AAXX 11094 41923 02456 40000 10318 20170 30096 40106 83430 333 59008 70000 82616==
41923,2024,11,11,12,00,AAXX 11124 41923 02/50 20000 10285 20200 30103 40113 82030 333 10330 59009 70000 82360==
41923,2024,11,11,15,00,AAXX 11154 41923 02/40 30000 10272 20190 30123 40132 82030 333 59006 70000 82365==
41923,2024,11,11,18,00,AAXX 11184 41923 01/40 30000 10254 20170 30125 40135 70511 83030 333 59006 70000 83365==
41923,2024,11,11,21,00,AAXX 11214 41923 01/40 30000 10242 20180 30118 40127 70511 83030 333 59001 70000 83365==
41923,2024,11,12,00,00,AAXX 12004 41923 01/40 30000 10231 20190 30122 40132 70511 83030 333 59002 70000 83365==
41923,2024,11,12,03,00,AAXX 12034 41923 01/40 40000 10290 20180 30138 40148 70511 83031 333 20227 59003 70000 83365==
41923,2024,11,12,06,00,AAXX 12064 41923 02/50 43402 10324 20140 30119 40129 83031 333 59003 70000 83365==
41923,2024,11,12,09,00,AAXX 12094 41923 02456 60000 10312 20150 30090 40100 81531 333 59006 70000 81616 83360 85080==
41923,2024,11,12,12,00,AAXX 12124 41923 02450 40000 10280 20170 30091 40101 82530 333 10329 59012 70000 82616 83360==
41923,2024,11,12,15,00,AAXX 12153 41923 02/50 20000 10254 20180 30113 40123 82030 333 59010 70000 82360==
41923,2024,11,12,18,00,AAXX 12184 41923 02/45 23202 10252 20180 30113 40123 82030 333 59012 70000 82360==
41923,2024,11,12,21,00,AAXX 12214 41923 01/40 20000 10234 20180 30102 40112 70500 82030 333 59016 70000 82360==
41923,2024,11,13,00,00,AAXX 13004 41923 01/40 20000 10221 20190 30105 40115 70500 82030 333 59017 70000 82360==
41923,2024,11,13,03,00,AAXX 13034 41923 01950 00000 10280 20180 30129 40139 70500 333 20218 59009 70000==
41923,2024,11,13,06,00,AAXX 13064 41923 02456 32903 10302 20160 30113 40123 83400 333 59006 70000 82616==
41923,2024,11,13,09,00,AAXX 13094 41923 02/56 30000 10315 20160 30088 40098 83030 333 59002 70000 83365==
41923,2024,11,13,12,00,AAXX 13124 41923 01940 00000 10268 20180 30095 40104 70510 333 10315 58004 70000==
41923,2024,11,13,15,00,AAXX 13154 41923 01940 00000 10249 20190 30117 40126 70500 333 58004 70000==
41923,2024,11,13,18,00,AAXX 13184 41923 01940 00000 10242 20200 30117 40126 70500 333 58004 70000==
41923,2024,11,13,21,00,AAXX 13214 41923 01940 00000 10236 20200 30116 40125 70500 333 58014 70000==
41923,2024,11,14,00,00,AAXX 14004 41923 01940 00000 10232 20190 30121 40130 70500 333 58016 70000==
41923,2024,11,14,03,00,AAXX 14034 41923 01945 00000 10277 20190 30140 40149 70500 333 20220 58011 70000==
41923,2024,11,14,06,00,AAXX 14064 41923 01/50 20000 10304 20170 30121 40131 70510 82030 333 58008 70000 82366==
41923,2024,11,14,09,00,AAXX 14094 41923 02956 02703 10308 20160 30094 40104 333 58006 70000==
41923,2024,11,14,12,00,AAXX 14124 41923 01/50 20000 10276 20190 30103 40113 70500 82030 333 10318 58008 70000 82360==
41923,2024,11,14,15,00,AAXX 14154 41923 01950 00000 10260 20190 30122 40132 70500 333 58005 70000==
41923,2024,11,14,18,00,AAXX 14184 41923 01945 00000 10252 20190 30120 40130 70500 333 58003 70000==
41923,2024,11,14,21,00,AAXX 14214 41923 01940 00000 10242 20190 30114 40123 70500 333 59002 70000==
41926,2024,11,08,00,00,AAXX 08004 41926 01940 00000 10215 20210 30121 40135 70500 333 59001 70000==
41926,2024,11,08,03,00,AAXX 08034 41926 01950 00000 10270 20240 30139 40153 70500 333 20212 58007 70000==
41926,2024,11,08,06,00,AAXX 08064 41926 01450 30000 10308 20210 30120 40134 70500 83500 333 58002 70000 83618==
41926,2024,11,08,09,00,AAXX 08094 41926 01450 20000 10314 20230 30094 40107 70500 82500 333 59003 70000 82618==
41926,2024,11,08,12,00,AAXX 08124 41926 01950 00000 10260 20240 30104 40118 70500 333 10318 58002 70000==
41926,2024,11,08,15,00,AAXX 08154 41926 01950 00000 10235 20230 30123 40137 70500 333 59009 70000==
41926,2024,11,08,18,00,AAXX 08184 41926 01950 00000 10230 20220 30121 40135 70500 333 59009 70000==
41926,2024,11,08,21,00,AAXX 08214 41926 01950 00000 10220 20210 30117 40131 70500 333 58000 70000==
41926,2024,11,09,00,00,AAXX 09004 41926 01940 00000 10210 20200 30122 40136 70500 333 58001 70000==
41926,2024,11,09,03,00,AAXX 09034 41926 01950 00000 10260 20220 30138 40152 70500 333 20210 59001 70000==
41926,2024,11,09,06,00,AAXX 09064 41926 02456 40000 10305 20210 30121 40134 84500 333 58001 70000 84618==
41926,2024,11,09,09,00,AAXX 09094 41926 02456 10000 10317 20200 30096 40109 81500 333 58002 70000 81618==
41926,2024,11,09,12,00,AAXX 09124 41926 01440 10000 10264 20230 30105 40119 70500 81500 333 10324 58001 70000 81618==
41926,2024,11,09,15,00,AAXX 09154 41926 01940 00000 10236 20230 30122 40136 70500 333 59001 70000==
41926,2024,11,09,18,00,AAXX 09184 41926 01940 00000 10225 20220 30122 40136 70500 333 58001 70000==
41926,2024,11,09,21,00,AAXX 09214 41926 01930 00000 10216 20210 30120 40134 70500 333 58003 70000==
41926,2024,11,10,00,00,AAXX 10004 41926 01930 00000 10208 20200 30119 40133 70500 333 58003 70000==
41926,2024,11,10,03,00,AAXX 10034 41926 01950 00000 10262 20230 30136 40150 70500 333 20206 59002 70000==
41926,2024,11,10,06,00,AAXX 10064 41926 02450 10000 10302 20190 30124 40138 81500 333 58003 70000 81618==
41926,2024,11,10,09,00,AAXX 10094 41926 02450 20000 10310 20190 30099 40112 82400 333 58003 70000 81618==
41926,2024,11,10,12,00,AAXX 10124 41926 01950 00000 10260 20230 30106 40120 70500 333 10320 58001 70000==
41926,2024,11,10,15,00,AAXX 10154 41926 01940 00000 10230 20210 30125 40139 70500 333 58003 70000==
41926,2024,11,10,18,00,AAXX 10184 41926 01940 00000 10217 20210 30123 40137 70500 333 58001 70000==
41926,2024,11,10,21,00,AAXX 10214 41926 01940 00000 10210 20200 30122 40136 70500 333 58002 70000==
41926,2024,11,11,00,00,AAXX 11004 41926 01440 10000 10200 20190 30120 40134 70500 81500 333 58001 70000 81618==
41926,2024,11,11,03,00,AAXX 11034 41926 01950 00000 10270 20210 30138 40152 70500 333 20200 58002 70000==
41926,2024,11,11,06,00,AAXX 11064 41926 02456 10000 10310 20230 30121 40134 81500 333 59003 70000 81618==
41926,2024,11,11,09,00,AAXX 11094 41926 02456 10000 10312 20160 30094 40107 81500 333 59005 70000 81618==
41926,2024,11,11,12,00,AAXX 11124 41926 01/50 30000 10258 20230 30100 40114 70500 83030 333 10325 59006 70000 83362==
41926,2024,11,11,15,00,AAXX 11154 41926 01950 00000 10225 20210 30121 40135 70500 333 59004 70000==
41926,2024,11,11,18,00,AAXX 11184 41926 01950 00000 10215 20200 30119 40133 70500 333 59004 70000==
41926,2024,11,11,21,00,AAXX 11214 41926 01940 00000 10206 20200 30118 40132 70500 333 59004 70000==
41926,2024,11,12,00,00,AAXX 12004 41926 01920 00000 10194 20180 30119 40133 71000 333 59001 70000==
41926,2024,11,12,03,00,AAXX 12034 41926 01950 30000 10254 20210 30135 40149 70500 80001 333 20194 59003 70000 83080==
41926,2024,11,12,06,00,AAXX 12064 41926 02456 40000 10295 20180 30120 40134 81501 333 59001 70000 81618 83080==
41926,2024,11,12,09,00,AAXX 12094 41926 02956 20000 10305 20190 30091 40104 80001 333 59003 70000 82080==
41926,2024,11,12,12,00,AAXX 12124 41926 01950 10000 10238 20220 30089 40103 70500 80001 333 10310 59011 70000 81080==
41926,2024,11,12,15,00,AAXX 12154 41926 01950 00000 10225 20210 30112 40126 70500 333 59009 70000==
41926,2024,11,12,18,00,AAXX 12184 41926 01950 00000 10220 20200 30105 40119 70500 333 59009 70000==
41926,2024,11,12,21,00,AAXX 12214 41926 01940 00000 10205 20200 30112 40126 70500 333 59006 70000==
41926,2024,11,13,00,00,AAXX 13004 41926 01920 00000 10193 20180 30110 40124 71000 333 59009 70000==
41926,2024,11,13,03,00,AAXX 13034 41926 01950 00000 10243 20210 30126 40140 70500 333 20193 59009 70000==
41926,2024,11,13,06,00,AAXX 13064 41926 02456 50000 10290 20210 30114 40128 82510 333 59006 70000 82618 85459==
41926,2024,11,13,09,00,AAXX 13094 41926 02456 50000 10298 20210 30086 40100 81510 333 59005 70000 81618 85459==
41926,2024,11,13,12,00,AAXX 13124 41926 01/50 10000 10248 20220 30095 40109 70520 81030 333 10307 58006 70000 81362==
41926,2024,11,13,15,00,AAXX 13154 41926 01950 00000 10223 20210 30116 40130 70500 333 58004 70000==
41926,2024,11,13,18,00,AAXX 13184 41926 01950 00000 10220 20210 30112 40126 70500 333 58007 70000==
41926,2024,11,13,21,00,AAXX 13214 41926 01940 00000 10210 20190 30117 40131 70500 333 58005 70000==
41926,2024,11,14,00,00,AAXX 14004 41926 01920 00000 10190 20180 30125 40139 70500 333 58015 70000==
41926,2024,11,14,03,00,AAXX 14034 41926 01950 00000 10230 20220 30138 40152 70500 333 20190 58012 70000==
41926,2024,11,14,06,00,AAXX 14064 41926 01456 10000 10285 20210 30125 40139 70500 81500 333 58011 70000 81618==
41926,2024,11,14,09,00,AAXX 14094 41926 01450 20000 10294 20170 30098 40112 70500 82500 333 58012 70000 82618==
41926,2024,11,14,12,00,AAXX 14124 41926 01950 00000 10245 20230 30100 40114 70500 333 10300 58005 70000==
41926,2024,11,14,15,00,AAXX 14154 41926 01950 00000 10210 20200 30122 40136 70500 333 58006 70000==
41926,2024,11,14,18,00,AAXX 14184 41926 01950 00000 10200 20190 30119 40133 70500 333 58007 70000==
41926,2024,11,14,21,00,AAXX 14214 41926 01950 00000 10190 20180 30112 40126 70500 333 59005 70000==
41927,2024,11,08,00,00,AAXX 08004 41927 31940 00000 10220 20220 30123 40137 70500 333 58006 70000=
41927,2024,11,08,03,00,AAXX 08034 41927 32957 00000 10270 20220 30139 40153 333 20220 58006 70000=
41927,2024,11,08,06,00,AAXX 08064 41927 32958 00000 10304 20190 30114 40129 333 59005 70000=
41927,2024,11,08,09,00,AAXX 08094 41927 32958 02701 10310 20190 30093 40108 333 59003 70000=
41927,2024,11,08,12,00,AAXX 08124 41927 32956 00000 10260 20230 30103 40117 333 10320 59004 70000=
41927,2024,11,08,15,00,AAXX 08154 41927 31950 02701 10242 20230 30121 40135 70500 333 59002 70000=
41927,2024,11,08,21,00,AAXX 08214 41927 31940 00000 10228 20228 30122 40136 70500 333 59002 70000=
41927,2024,11,09,00,00,AAXX 09004 41927 31940 00000 10234 20220 30124 40138 70500 333 59005 70000=
41927,2024,11,09,03,00,AAXX 09034 41927 32957 03101 10268 20210 30139 40153 333 20222 58000 70000=
41927,2024,11,09,06,00,AAXX 09064 41927 32958 00000 10300 20200 30119 40134 333 58005 70000=
41927,2024,11,09,09,00,AAXX 09094 41927 32958 03101 10304 20200 30096 40111 333 58003 70000=
41927,2024,11,09,12,00,AAXX 09124 41927 32956 00000 10260 20240 30106 40120 333 10313 58003 70000=
41927,2024,11,09,15,00,AAXX 09154 41927 31950 00000 10238 20230 30119 40133 70500 333 58002 70000=
41927,2024,11,09,18,00,AAXX 09184 41927 31940 00000 10232 20220 30123 40137 70500 333 59001 70000=
41927,2024,11,09,21,00,AAXX 09214 41927 31940 00000 10226 20226 30122 40136 70500 333 58000 70000=
41927,2024,11,10,00,00,AAXX 10004 41927 31940 00000 10216 20216 30121 40135 70500 333 58000 70000=
41927,2024,11,10,03,00,AAXX 10034 41927 31950 00000 10280 20200 30138 40152 70500 333 20216 59001 70000=
41927,2024,11,10,06,00,AAXX 10064 41927 32957 00000 10305 20200 30120 40135 333 58001 70000=
41927,2024,11,10,09,00,AAXX 10094 41927 32957 00000 10310 20190 30099 40114 333 58003 70000=
41927,2024,11,10,12,00,AAXX 10124 41927 32956 02801 10266 20250 30106 40120 333 10320 58000 70000=
41927,2024,11,10,15,00,AAXX 10154 41927 31950 02701 10242 20220 30123 40137 70500 333 58004 70000=
41927,2024,11,10,21,00,AAXX 10214 41927 31950 00000 10224 20210 30121 40135 70500 333 59001 70000=
41927,2024,11,11,00,00,AAXX 11004 41927 31940 00000 10212 20210 30118 40132 70500 333 59003 70000=
41927,2024,11,11,03,00,AAXX 11034 41927 32957 02801 10278 20220 30137 40151 333 20212 59001 70000=
41927,2024,11,11,06,00,AAXX 11064 41927 32957 02801 10315 20180 30117 40132 333 59003 70000=
41927,2024,11,11,09,00,AAXX 11094 41927 32957 00000 10315 20180 30090 40105 333 59009 70000=
41927,2024,11,11,12,00,AAXX 11124 41927 32956 00000 10265 20250 30096 40110 333 10320 59010 70000=
41927,2024,11,11,15,00,AAXX 11154 41927 31950 00000 10230 20210 30118 40132 70500 333 59005 70000=
41927,2024,11,11,18,00,AAXX 11184 41927 31950 00000 10220 20210 30122 40136 70500 333 59004 70000=
41927,2024,11,11,21,00,AAXX 11214 41927 31950 00000 10215 20210 30118 40132 70500 333 59003 70000=
41927,2024,11,12,00,00,AAXX 12004 41927 31940 00000 10205 20200 30115 40129 70500 333 59003 70000=
41927,2024,11,12,03,00,AAXX 12034 41927 32956 00000 10260 20190 30128 40142 333 20205 59009 70000=
41927,2024,11,12,06,00,AAXX 12064 41927 32957 00000 10305 20190 30114 40129 333 59003 70000=
41927,2024,11,12,09,00,AAXX 12094 41927 32957 00000 10305 20180 30087 40102 333 59003 70000=
41927,2024,11,12,12,00,AAXX 12124 41927 32956 22801 10250 20230 30088 40102 82030 333 10310 56090 59008 70000 82362=
41927,2024,11,12,15,00,AAXX 12154 41927 31950 00000 10226 20220 30108 40122 70500 333 59010 70000=
41927,2024,11,12,18,00,AAXX 12184 41927 31950 00000 10218 20210 30113 40127 70500 333 59009 70000=
41927,2024,11,12,21,00,AAXX 12214 41927 31950 00000 10210 20200 30109 40123 70500 333 59009 70000=
41927,2024,11,13,00,00,AAXX 13004 41927 31940 00000 10203 20190 30101 40115 70500 333 59014 70000=
41927,2024,11,13,03,00,AAXX 13034 41927 32956 03201 10255 20210 30126 40140 333 20203 59002 70000=
41927,2024,11,13,06,00,AAXX 13064 41927 32957 02201 10296 20200 30110 40125 333 59004 70000=
41927,2024,11,13,09,00,AAXX 13094 41927 32958 00000 10304 20190 30086 40101 333 59001 70000=
41927,2024,11,13,12,00,AAXX 13124 41927 32956 00000 10246 20220 30093 40107 333 10310 58005 70000=
41927,2024,11,13,15,00,AAXX 13154 41927 31950 00000 10220 20210 30110 40124 70500 333 58003 70000=
41927,2024,11,13,21,00,AAXX 13214 41927 31940 00000 10204 20200 30112 40126 70500 333 58003 70000=
41927,2024,11,14,00,00,AAXX 14004 41927 31940 00000 10198 20198 30103 40117 70500 333 58002 70000=
41927,2024,11,14,03,00,AAXX 14034 41927 31950 02701 10242 20220 30137 40151 70500 333 20198 58011 70000=
41927,2024,11,14,06,00,AAXX 14064 41927 32958 02702 10290 20200 30118 40133 333 58008 70000=
41927,2024,11,14,09,00,AAXX 14094 41927 32958 02702 10296 20190 30093 40108 333 58007 70000=
41927,2024,11,14,12,00,AAXX 14124 41927 32956 00000 10246 20220 30101 40115 333 10300 58008 70000=
41927,2024,11,14,15,00,AAXX 14154 41927 31950 00000 10220 20200 30116 40130 70500 333 58006 70000=
41927,2024,11,14,18,00,AAXX 14184 41927 NIL=
41927,2024,11,14,21,00,AAXX 14214 41927 31940 00000 10204 20190 30113 40127 70500 333 58001 70000=
41929,2024,11,08,00,00,AAXX 08004 41929 01950 00000 10230 20220 30122 40131 70500 333 58003 70000==
41929,2024,11,08,03,00,AAXX 08034 41929 01950 00902 10282 20210 30143 40152 70500 333 20224 58006 70000==
41929,2024,11,08,06,00,AAXX 08064 41929 02456 20902 10308 20220 30124 40133 82500 333 58000 70000 82618==
41929,2024,11,08,09,00,AAXX 08094 41929 02456 30000 10320 20210 30098 40107 83400 333 59004 70000 82618==
41929,2024,11,08,12,00,AAXX 08124 41929 02956 00000 10284 20230 30105 40114 333 10322 59001 70000==
41929,2024,11,08,15,00,AAXX 08154 41929 01950 00000 10252 20240 30129 40138 70500 333 59007 70000==
41929,2024,11,08,18,00,AAXX 08184 41929 01950 00000 10235 20220 30126 40136 70500 333 59011 70000==
41929,2024,11,08,21,00,AAXX 08214 41929 01950 00000 10225 20220 30123 40132 70500 333 59007 70000==
41929,2024,11,09,00,00,AAXX 09004 41929 01950 00000 10215 20210 30119 40129 70500 333 59003 70000==
41929,2024,11,09,03,00,AAXX 09034 41929 01950 00000 10284 20210 30144 40153 70500 333 20210 58001 70000==
41929,2024,11,09,06,00,AAXX 09064 41929 02956 00902 10310 20180 30126 40135 333 58002 70000==
41929,2024,11,09,09,00,AAXX 09094 41929 02956 00000 10320 20180 30103 40113 333 58005 70000==
41929,2024,11,09,12,00,AAXX 09124 41929 02956 00000 10274 20230 30110 40119 333 10322 58005 70000==
41929,2024,11,09,15,00,AAXX 09154 41929 02956 00000 10240 20220 30129 40138 333 58000 70000==
41929,2024,11,09,18,00,AAXX 09184 41929 02956 00000 10230 20210 30128 40137 333 58002 70000==
41929,2024,11,09,21,00,AAXX 09214 41929 01950 00000 10220 20200 30123 40132 70500 333 58000 70000==
41929,2024,11,10,00,00,AAXX 10004 41929 01950 00000 10214 20190 30126 40135 70500 333 58007 70000==
41929,2024,11,10,03,00,AAXX 10034 41929 01950 01402 10290 20210 30143 40152 70500 333 20212 58001 70000==
41929,2024,11,10,06,00,AAXX 10064 41929 02456 11402 10315 20190 30126 40135 81500 333 58000 70000 81618==
41929,2024,11,10,09,00,AAXX 10094 41929 02456 31502 10315 20200 30104 40114 83400 333 58001 70000 81618==
41929,2024,11,10,12,00,AAXX 10124 41929 02956 00000 10264 20230 30113 40122 333 10323 58003 70000==
41929,2024,11,10,15,00,AAXX 10154 41929 02956 00000 10240 20220 30128 40137 333 59001 70000==
41929,2024,11,10,18,00,AAXX 10184 41929 02956 00000 10230 20210 30126 40135 333 59002 70000==
41929,2024,11,10,21,00,AAXX 10214 41929 01950 00000 10224 20210 30122 40131 70500 333 70000 89001==
41929,2024,11,11,00,00,AAXX 11004 41929 01950 00000 10220 20210 30125 40134 70500 333 58008 70000==
41929,2024,11,11,03,00,AAXX 11034 41929 02956 01402 10290 20210 30142 40151 333 20215 59001 70000==
41929,2024,11,11,06,00,AAXX 11064 41929 02956 01402 10315 20180 30126 40135 333 58000 70000==
41929,2024,11,11,09,00,AAXX 11094 41929 02/56 31202 10326 20180 30098 40108 83030 333 58004 70000 83365==
41929,2024,11,11,12,00,AAXX 11124 41929 02956 01302 10275 20210 30104 40114 333 10335 59009 70000==
41929,2024,11,11,15,00,AAXX 11154 41929 02956 00000 10240 20220 30125 40135 333 59003 70000==
41929,2024,11,11,18,00,AAXX 11184 41929 02956 00000 10230 20210 30123 40132 333 59003 70000==
41929,2024,11,11,21,00,AAXX 11214 41929 02950 00000 10220 20200 30119 40128 333 59003 70000==
41929,2024,11,12,00,00,AAXX 12004 41929 01950 00000 10220 20210 30122 40131 70500 333 59003 70000==
41929,2024,11,12,03,00,AAXX 12034 41929 01950 01402 10280 20200 30138 40147 70500 333 20215 59004 70000==
41929,2024,11,12,06,00,AAXX 12064 41929 02/56 43202 10315 20180 30124 40133 84040 333 59002 70000 84365==
41929,2024,11,12,09,00,AAXX 12094 41929 02956 50000 10310 20190 30093 40103 333 59005 70000 83032 83365 83078==
41929,2024,11,12,12,00,AAXX 12124 41929 02/56 40000 10260 20220 30095 40104 82032 333 10328 59009 70000 82365 83078==
41929,2024,11,12,15,00,AAXX 12154 41929 02956 20000 10230 20210 30115 40124 82002 333 59010 70000 82078==
41929,2024,11,12,18,00,AAXX 12184 41929 02956 00000 10220 20200 30113 40122 333 59010 70000==
41929,2024,11,12,21,00,AAXX 12214 41929 01950 00000 10215 20210 30103 40112 70500 333 59016 70000==
41929,2024,11,13,00,00,AAXX 13004 41929 01950 00000 10210 20200 30106 40115 70500 333 59016 70000==
41929,2024,11,13,03,00,AAXX 13034 41929 02956 00000 10270 20210 30132 40141 333 20205 59006 70000==
41929,2024,11,13,06,00,AAXX 13064 41929 02456 31003 10305 20220 30112 40122 83400 333 59012 70000 81618==
41929,2024,11,13,09,00,AAXX 13094 41929 02456 21102 10315 20190 30090 40100 82400 333 59003 70000 81618==
41929,2024,11,13,12,00,AAXX 13124 41929 02956 00000 10260 20220 30097 40106 333 10320 58002 70000==
41929,2024,11,13,15,00,AAXX 13154 41929 02956 03302 10234 20210 30120 40129 333 58005 70000==
41929,2024,11,13,18,00,AAXX 13184 41929 02956 00000 10224 20210 30117 40126 333 58004 70000==
41929,2024,11,13,21,00,AAXX 13214 41929 02950 00000 10214 20200 30115 40124 333 58008 70000==
41929,2024,11,14,00,00,AAXX 14004 41929 01950 00000 10215 20220 30122 40131 70500 333 58016 70000==
41929,2024,11,14,03,00,AAXX 14034 41929 01950 03202 10260 20220 30141 40150 70500 333 20210 58009 70000==
41929,2024,11,14,06,00,AAXX 14064 41929 02956 03202 10298 20200 30126 40135 333 58014 70000==
41929,2024,11,14,09,00,AAXX 14094 41929 02956 03102 10317 20170 30100 40109 333 58010 70000==
41929,2024,11,14,12,00,AAXX 14124 41929 02956 00000 10265 20220 30102 40111 333 10318 58005 70000==
41929,2024,11,14,15,00,AAXX 14154 41929 01950 00000 10235 20220 30124 40133 70500 333 58004 70000==
41929,2024,11,14,18,00,AAXX 14184 41929 01950 00000 10222 20200 30123 40133 70500 333 58006 70000==
41929,2024,11,14,21,00,AAXX 14214 41929 01950 00000 10216 20210 30119 40129 70500 333 58004 70000==
41933,2024,11,08,00,00,AAXX 08004 41933 01920 00000 10215 20210 30119 40128 71000 333 58003 70000==
41933,2024,11,08,03,00,AAXX 08034 41933 01940 00000 10279 20240 30145 40153 70500 333 20212 58006 70000==
41933,2024,11,08,06,00,AAXX 08064 41933 01450 20000 10304 20200 30122 40130 70500 82500 333 58003 70000 82618==
41933,2024,11,08,09,00,AAXX 08094 41933 01450 20000 10305 20190 30091 40099 70500 82500 333 59005 70000 82618==
41933,2024,11,08,12,00,AAXX 08124 41933 01940 00000 10275 20220 30103 40112 70500 333 59003 70000==
41933,2024,11,08,15,00,AAXX 08154 41933 01940 03002 10255 20220 30124 40133 70500 333 59012 70000==
41933,2024,11,08,18,00,AAXX 08184 41933 01940 00000 10235 20220 30126 40135 70500 333 59002 70000==
41933,2024,11,08,21,00,AAXX 08214 41933 01935 00000 10220 20200 30121 40130 70500 333 58006 70000==
41933,2024,11,09,00,00,AAXX 09004 41933 01935 00000 10210 20130 30119 40128 70500 333 58000 70000==
41933,2024,11,09,03,00,AAXX 09034 41933 01945 12702 10270 20200 30135 40143 70510 81500 333 20205 59010 70000 81616==
41933,2024,11,09,06,00,AAXX 09064 41933 01445 12801 10313 20190 30111 40119 70511 81500 333 59011 70000 81616==
41933,2024,11,09,09,00,AAXX 09094 41933 01450 21701 10310 20180 30092 40101 70511 82500 333 58001 70000 82616==
41933,2024,11,09,12,00,AAXX 09124 41933 01440 12701 10283 20210 30100 40109 70511 81500 333 10325 59003 70000 81616==
41933,2024,11,09,15,00,AAXX 09154 41933 01935 00000 10255 20220 30121 40130 70500 333 59003 70000==
41933,2024,11,09,18,00,AAXX 09184 41933 01935 00000 10250 20220 30123 40132 70500 333 59003 70000==
41933,2024,11,09,21,00,AAXX 09214 41933 01930 00000 10220 20210 30121 40130 70500 333 58000 70000==
41933,2024,11,10,00,00,AAXX 10004 41933 01935 00000 10215 20210 30116 40125 70500 333 59003 70000==
41933,2024,11,10,03,00,AAXX 10034 41933 01940 00000 10284 20210 30136 40145 70500 333 20214 58001 70000==
41933,2024,11,10,06,00,AAXX 10064 41933 01450 10702 10310 20180 30119 40128 70500 81500 333 58009 70000==
41933,2024,11,10,09,00,AAXX 10094 41933 01950 00000 10319 20190 30098 40107 70500 333 58006 70000==
41933,2024,11,10,12,00,AAXX 10124 41933 01950 00000 10280 20210 30107 40116 70500 333 10337 58007 70000==
41933,2024,11,10,15,00,AAXX 10154 41933 01940 00000 10258 20230 30123 40131 70500 333 58002 70000==
41933,2024,11,10,18,00,AAXX 10184 41933 01/40 20000 10245 20230 30123 40131 70500 82030 333 58000 70000 82362==
41933,2024,11,10,21,00,AAXX 10214 41933 01/40 20000 10240 20220 30114 40123 70500 82030 333 59007 70000 82618==
41933,2024,11,11,00,00,AAXX 11004 41933 01/40 30000 10230 20220 30118 40127 70500 83030 333 58002 70000 83362==
41933,2024,11,11,03,00,AAXX 11034 41933 01940 00000 10295 20220 30136 40145 70500 333 20228 58000 70000==
41933,2024,11,11,06,00,AAXX 11064 41933 01940 03002 10325 20220 30118 40127 70500 333 59001 70000==
41933,2024,11,11,09,00,AAXX 11094 41933 01440 20000 10320 20190 30095 40103 70500 82500 333 59003 70000 82618==
41933,2024,11,11,12,00,AAXX 11124 41933 01440 40000 10290 20210 30091 40099 70521 82530 333 10330 59016 70000 82618 84362==
41933,2024,11,11,15,00,AAXX 11154 41933 01440 50000 10260 20240 30121 40129 70522 82530 333 59002 70000 82618 85362==
41933,2024,11,11,18,00,AAXX 11184 41933 01440 50000 10255 20240 30120 40128 70522 82530 333 59003 70000 82618 85362==
41933,2024,11,11,21,00,AAXX 11214 41933 01440 50000 10250 20220 30119 40128 70522 82530 333 58005 70000 82618 85362==
41933,2024,11,12,00,00,AAXX 12004 41933 01440 50000 10240 20220 30116 40125 70522 82530 333 59002 70000 82618 85362==
41933,2024,11,12,03,00,AAXX 12034 41933 01945 20802 10290 20200 30131 40140 70521 81501 333 20240 59005 70000 81616==
41933,2024,11,12,06,00,AAXX 12064 41933 01445 40702 10315 20200 30112 40121 70521 81502 333 59006 70000 81616 83074==
41933,2024,11,12,09,00,AAXX 12094 41933 01445 42902 10316 20190 30085 40094 70522 81510 333 59010 70000 81616 83458==
41933,2024,11,12,12,00,AAXX 12124 41933 01940 40000 10285 20210 30083 40092 70522 81511 333 10325 59008 70000 81616 83458==
41933,2024,11,12,15,00,AAXX 12154 41933 01440 10000 10246 20230 30106 40115 70521 81500 333 59015 70000 81616==
41933,2024,11,12,18,00,AAXX 12184 41933 01935 00000 10243 20220 30105 40114 70500 333 59015 70000==
41933,2024,11,12,21,00,AAXX 12214 41933 01935 00000 10225 20220 30103 40112 70500 333 59016 70000==
41933,2024,11,13,00,00,AAXX 13004 41933 01930 10000 10220 20210 30100 40109 70510 80001 333 59016 70000 81074==
41933,2024,11,13,03,00,AAXX 13034 41933 01950 00602 10285 20200 30119 40128 70500 333 20214 59012 70000==
41933,2024,11,13,06,00,AAXX 13064 41933 01950 00802 10306 20180 30105 40114 70500 333 59007 70000==
41933,2024,11,13,09,00,AAXX 13094 41933 01950 00102 10315 20190 30083 40091 70500 333 59002 70000==
41933,2024,11,13,12,00,AAXX 13124 41933 01940 00000 10270 20160 30085 40094 70500 333 10324 58002 70000==
41933,2024,11,13,15,00,AAXX 13154 41933 01940 00000 10244 20200 30105 40114 70500 333 59001 70000==
41933,2024,11,13,18,00,AAXX 13184 41933 01940 00000 10217 20210 30102 40111 70500 333 59003 70000==
41933,2024,11,13,21,00,AAXX 13214 41933 01925 00000 10214 20200 30100 40109 71000 333 59003 70000==
41933,2024,11,14,00,00,AAXX 14004 41933 01909 00000 10200 20200 30105 40114 74600 333 58005 70000==
41933,2024,11,14,03,00,AAXX 14034 41933 01940 00000 10270 20200 30126 40135 70544 333 20198 58007 70000==
41933,2024,11,14,06,00,AAXX 14064 41933 NIL=
41933,2024,11,14,09,00,AAXX 14094 41933 01940 02902 10305 20200 30118 40126 70544 333 58013 70000==
41933,2024,11,14,12,00,AAXX 14124 41933 01940 00000 10280 20190 30092 40101 70500 333 10315 58007 70000==
41933,2024,11,14,15,00,AAXX 14154 41933 01940 00000 10225 20210 30116 40125 70500 333 58011 70000==
41933,2024,11,14,18,00,AAXX 14184 41933 01940 00000 10220 20200 30118 40127 70500 333 58016 70000==
41933,2024,11,14,21,00,AAXX 14214 41933 01935 00000 10210 20190 30116 40125 70500 333 58016 70000==
41936,2024,11,08,00,00,AAXX 08004 41936 01907 00000 10220 20210 30119 40127 74440 333 59005 70000==
41936,2024,11,08,03,00,AAXX 08034 41936 01912 00000 10156 20240 30137 40144 70541 333 20218 58004 70000==
41936,2024,11,08,06,00,AAXX 08064 41936 01930 00000 10310 20230 30125 40132 70500 333 58006 70000==
41936,2024,11,08,09,00,AAXX 08094 41936 01440 30504 10320 20220 30097 40104 70500 82830 333 58000 70000 82615==
41936,2024,11,08,12,00,AAXX 08124 41936 01450 33400 10276 20250 30103 40112 70500 82830 333 59008 70000 82615==
41936,2024,11,08,15,00,AAXX 08154 41936 01950 00000 10254 20230 30129 40136 70500 333 59002 70000==
41936,2024,11,08,18,00,AAXX 08184 41936 01950 00000 10244 20230 30131 40138 70500 333 59003 70000==
41936,2024,11,08,21,00,AAXX 08214 41936 01916 00000 10240 20230 30123 40130 70500 333 59004 70000==
41936,2024,11,09,00,00,AAXX 09004 41936 01907 00000 10216 20210 30136 40138 70500 333 58011 70000==
41936,2024,11,09,03,00,AAXX 09034 41936 01930 00603 10252 20210 30138 40145 70544 333 20214 58001 70000==
41936,2024,11,09,06,00,AAXX 09064 41936 01950 00303 10310 20220 30122 40129 70541 81500 333 59003 70000 81615==
41936,2024,11,09,09,00,AAXX 09093 41936 01450 10902 10310 20220 30101 40109 70500 81500 333 58004 70000 81615==
41936,2024,11,09,12,00,AAXX 09124 41936 01950 00000 10268 20240 30105 40112 70500 333 10322 58002 70000==
41936,2024,11,09,15,00,AAXX 09154 41936 01950 00000 10240 20230 30125 40132 70500 333 59004 70000==
41936,2024,11,09,18,00,AAXX 09184 41936 01950 00000 10238 20230 30122 40129 70500 333 59009 70000==
41936,2024,11,09,21,00,AAXX 09214 41936 01916 00000 10228 20220 30111 40118 70500 333 59012 70000==
41936,2024,11,10,00,00,AAXX 10004 41936 01907 00000 10216 20210 30119 40126 74440 333 59012 70000==
41936,2024,11,10,03,00,AAXX 10034 41936 01910 00000 10248 20230 30140 40147 72844 333 20202 58002 70000==
41936,2024,11,10,06,00,AAXX 10064 41936 01950 00505 10310 20210 30124 40131 70541 333 58002 70000==
41936,2024,11,10,09,00,AAXX 10094 41936 01950 00903 10322 20210 30101 40108 70541 333 10326 58000 70000==
41936,2024,11,10,12,00,AAXX 10124 41936 01950 00000 10284 20230 30113 40120 70500 333 10326 58008 70000==
41936,2024,11,10,15,00,AAXX 10154 41936 01950 00000 10250 20230 30126 40133 70500 333 58001 70000==
41936,2024,11,10,18,00,AAXX 10184 41936 01940 00000 10234 20220 30126 40133 70500 333 58004 70000==
41936,2024,11,10,21,00,AAXX 10214 41936 01920 00000 10224 20210 30117 40124 70500 333 58006 70000==
41936,2024,11,11,00,00,AAXX 11004 41936 01/09 10000 10212 20200 30117 40125 74141 81030 333 59001 70000 81362==
41936,2024,11,11,03,00,AAXX 11034 41936 01/20 10603 10248 20230 30139 40146 72841 81030 333 20208 59001 70000 81362==
41936,2024,11,11,06,00,AAXX 11064 41936 01/50 10603 10308 20250 30123 40130 70541 81030 333 59001 70000 81362==
41936,2024,11,11,09,00,AAXX 11094 41936 01/50 10703 10320 20210 30094 40101 70511 81030 333 59007 70000 81362==
41936,2024,11,11,12,00,AAXX 11124 41936 01/50 10903 10270 20230 30101 40108 70511 81030 333 10324 59012 70000 81362==
41936,2024,11,11,15,00,AAXX 11154 41936 01950 00000 10240 20220 30123 40130 70500 333 59003 70000==
41936,2024,11,11,18,00,AAXX 11184 41936 01940 00000 10234 20220 30121 40128 70500 333 59005 70000==
41936,2024,11,11,21,00,AAXX 11214 41936 01920 00000 10226 20220 30113 40120 70500 333 59004 70000==
41936,2024,11,12,00,00,AAXX 12004 41936 01909 00000 10210 20200 30114 40122 74141 333 59002 70000==
41936,2024,11,12,03,00,AAXX 12034 41936 01/20 20704 10250 20220 30134 40141 72841 82030 333 20206 59005 70000==
41936,2024,11,12,06,00,AAXX 12064 41936 01/50 20206 10320 20190 30119 40126 70541 82030 333 59004 70000 82362==
41936,2024,11,12,09,00,AAXX 12094 41936 01/50 20503 10312 20200 30090 40097 70511 82030 333 59004 70000 82362==
41936,2024,11,12,12,00,AAXX 12124 41936 01/50 20000 10260 20230 30091 40098 70511 82030 333 10324 59010 70000 82362==
41936,2024,11,12,15,00,AAXX 12153 41936 01950 00000 10244 20220 30113 40120 70500 333 59010 70000==
41936,2024,11,12,18,00,AAXX 12184 41936 01950 00000 10232 20220 30110 40117 70500 333 59011 70000==
41936,2024,11,12,21,00,AAXX 12214 41936 01916 00000 10222 20210 30103 40110 70500 333 59010 70000==
41936,2024,11,13,00,00,AAXX 13004 41936 01907 00000 10200 20190 30102 40109 74440 333 59013 70000==
41936,2024,11,13,03,00,AAXX 13034 41936 01910 00000 10234 20210 30126 40133 70544 333 20196 59008 70000==
41936,2024,11,13,06,00,AAXX 13064 41936 01930 00708 10306 20200 30114 40121 70500 333 59005 70000==
41936,2024,11,13,09,00,AAXX 13094 41936 01430 10203 10304 20210 30091 40098 70511 333 58001 70000 81615==
41936,2024,11,13,12,00,AAXX 13124 41936 01918 00000 10254 20230 30095 40102 70500 333 10312 58004 70000==
41936,2024,11,13,15,00,AAXX 13154 41936 01920 00000 10230 20220 30115 40122 70500 333 58002 70000==
41936,2024,11,13,18,00,AAXX 13184 41936 01916 00000 10224 20210 30116 40124 70500 333 58007 70000==
41936,2024,11,13,21,00,AAXX 13214 41936 01909 00000 10204 20190 30108 40116 74440 333 58006 70000==
41936,2024,11,14,00,00,AAXX 14004 41936 01904 00000 10196 20190 30118 40125 74644 333 58003 70000==
41936,2024,11,14,03,00,AAXX 14034 41936 01907 00000 10236 20220 30140 40147 74644 333 20194 58014 70000==
41936,2024,11,14,06,00,AAXX 14064 41936 01912 00000 10300 20210 30123 40130 70511 333 59009 70000==
41936,2024,11,14,09,00,AAXX 14094 41936 01912 00405 10308 20200 30096 40103 70500 333 58005 70000==
41936,2024,11,14,12,00,AAXX 14124 41936 01910 00000 10254 20210 30103 40110 70500 333 10314 58008 70000==
41936,2024,11,14,15,00,AAXX 14154 41936 01914 00000 10230 20220 30124 40132 70500 333 58010 70000==
41936,2024,11,14,18,00,AAXX 14184 41936 01910 00000 10224 20210 30118 40126 70500 333 58002 70000==
41936,2024,11,14,21,00,AAXX 14214 41936 01909 00000 10210 20200 30114 40122 70500 333 58006 70000==
41938,2024,11,08,00,00,AAXX 08004 41938 31920 00000 10222 20210 30117 40120 71000 333 58002 70000=
41938,2024,11,08,03,00,AAXX 08034 41938 32956 03201 10275 20220 30129 40133 333 20222 59003 70000=
41938,2024,11,08,06,00,AAXX 08064 41938 32456 13402 10301 20210 30121 40124 81500 333 56800 59003 70000 81618=
41938,2024,11,08,09,00,AAXX 08094 41938 32456 20301 10307 20210 30103 40107 82500 333 56800 58002 70000 82618=
41938,2024,11,08,12,00,AAXX 08124 41938 31945 00000 10263 20230 30111 40115 70500 333 10311 58004 70000=
41938,2024,11,08,15,00,AAXX 08154 41938 31940 00000 10250 20230 30122 40126 70500 333 59010 70000=
41938,2024,11,08,18,00,AAXX 08184 41938 31940 00000 10231 20220 30122 40126 70500 333 59006 70000=
41938,2024,11,08,21,00,AAXX 08214 41938 31930 00000 10220 20210 30120 40124 70500 333 58000 70000=
41938,2024,11,09,00,00,AAXX 09004 41938 31930 00000 10210 20200 30119 40123 70500 333 58002 70000=
41938,2024,11,09,03,00,AAXX 09034 41938 32456 00302 10272 20210 30137 40141 333 20210 58008 70000=
41938,2024,11,09,06,00,AAXX 09064 41938 32957 00503 10302 20190 30125 40129 333 58004 70000=
41938,2024,11,09,09,00,AAXX 09094 41938 32957 00303 10311 20190 30104 40108 333 58001 70000=
41938,2024,11,09,12,00,AAXX 09124 41938 31950 00000 10252 20220 30110 40114 70500 333 10312 59001 70000=
41938,2024,11,09,15,00,AAXX 09154 41938 NIL=
41938,2024,11,09,18,00,AAXX 09184 41938 31935 00000 10225 20220 30126 40130 70500 333 58004 70000=
41938,2024,11,09,21,00,AAXX 09214 41938 31930 00000 10220 20210 30122 40126 70500 333 58002 70000=
41938,2024,11,10,00,00,AAXX 10004 41938 31912 00000 10216 20210 30122 40126 71000 333 58003 70000=
41938,2024,11,10,03,00,AAXX 10034 41938 31950 00301 10270 20210 30135 40139 70500 333 20213 59002 70000=
41938,2024,11,10,06,00,AAXX 10064 41938 32457 20501 10307 20200 30122 40126 81510 333 56190 59003 70000 81617=
41938,2024,11,10,09,00,AAXX 10094 41938 NIL=
41938,2024,11,10,12,00,AAXX 10124 41938 32956 00000 10262 20230 30110 40114 333 10315 58000 70000=
41938,2024,11,10,15,00,AAXX 10154 41938 32956 00000 10237 20230 30124 40128 333 58006 70000=
41938,2024,11,10,18,00,AAXX 10184 41938 31950 00000 10230 20220 30124 40128 70500 333 59002 70000=
41938,2024,11,10,21,00,AAXX 10214 41938 31950 30000 10230 20220 30119 40123 70510 83030 333 56090 59003 70000 83362=
41938,2024,11,11,00,00,AAXX 11004 41938 31920 53601 10235 20230 30120 40124 71021 85030 333 56090 59002 70000 85080=
41938,2024,11,11,03,00,AAXX 11034 41938 31950 63601 10269 20220 30137 40141 70521 86050 333 20228 56090 58002 70000 86362=
41938,2024,11,11,06,00,AAXX 11064 41938 32956 33603 10309 20200 30124 40128 83030 333 56090 58002 70000 83362=
41938,2024,11,11,09,00,AAXX 11094 41938 32956 53601 10314 20200 30102 40106 85030 333 56090 59004 70000 85362=
41938,2024,11,11,12,00,AAXX 11124 41938 32956 10000 10270 20240 30103 40107 81020 333 10320 56090 59007 70000 81460=
41938,2024,11,11,15,00,AAXX 11154 41938 32956 20000 10245 20240 30122 40126 82030 333 56090 59002 70000 82362=
41938,2024,11,11,18,00,AAXX 11184 41938 31950 10000 10239 20230 30121 40125 70500 80001 333 56009 59003 70000 81080=
41938,2024,11,11,21,00,AAXX 11214 41938 31950 10000 10233 20220 30116 40120 70500 81020 333 56090 59003 70000 81460=
41938,2024,11,12,00,00,AAXX 12004 41938 31935 20000 10225 20220 30117 40121 70500 82070 333 56090 59003 70000 81460=
41938,2024,11,12,03,00,AAXX 12034 41938 31950 50503 10280 20200 30130 40134 70521 81032 333 20225 56099 59007 70000 81362 84080=
41938,2024,11,12,06,00,AAXX 12064 41938 32956 63603 10296 20200 30123 40127 84052 333 56099 59001 70000 84362 84080=
41938,2024,11,12,09,00,AAXX 12094 41938 32956 62701 10305 20200 30099 40103 83011 333 56099 59003 70000 83460 84082=
41938,2024,11,12,12,00,AAXX 12124 41938 32950 60000 10256 20230 30094 40098 86010 333 10310 56090 59009 70000 86460=
41938,2024,11,12,15,00,AAXX 12154 41938 31945 00000 10235 20220 30109 40113 70520 333 59013 70000=
41938,2024,11,12,18,00,AAXX 12184 41938 31940 30000 10223 20210 30109 40113 70520 83010 333 56090 59011 70000 83460=
41938,2024,11,12,21,00,AAXX 12214 41938 31940 00000 10206 20200 30105 40109 70500 333 59011 70000=
41938,2024,11,13,00,00,AAXX 13004 41938 31940 12701 10199 20190 30104 40108 70500 333 59013 70000 81460=
41938,2024,11,13,03,00,AAXX 13034 41938 32956 02701 10268 20210 30124 40128 333 20199 59006 70000=
41938,2024,11,13,06,00,AAXX 13064 41938 32456 13001 10306 20190 30113 40117 81500 333 56800 59010 70000 81618=
41938,2024,11,13,09,00,AAXX 13094 41938 32456 13001 10308 20190 30091 40095 81500 333 56800 59008 70000 81618=
41938,2024,11,13,12,00,AAXX 13124 41938 32950 00000 10254 20220 30094 40098 333 10312 58000 70000=
41938,2024,11,13,15,00,AAXX 13154 41938 31950 00000 10226 20210 30114 40118 70500 333 58005 70000=
41938,2024,11,13,18,00,AAXX 13184 41938 31940 03001 10222 20200 30111 40115 70500 333 58002 70000=
41938,2024,11,13,21,00,AAXX 13214 41938 31930 00000 10210 20200 30112 40116 70500 333 58007 70000=
41938,2024,11,14,00,00,AAXX 14004 41938 31920 03201 10204 20190 30115 40119 71000 333 58011 70000=
41938,2024,11,14,03,00,AAXX 14034 41938 31930 03602 10250 20220 30134 40138 70500 333 20204 58010 70000=
41938,2024,11,14,06,00,AAXX 14064 41938 31950 03603 10293 20180 30126 40130 70500 333 58013 70000=
41938,2024,11,14,09,00,AAXX 14094 41938 31950 00000 10301 20170 30103 40107 70500 333 58012 70000=
41938,2024,11,14,12,00,AAXX 14124 41938 31940 00000 10238 20210 30101 40105 70500 333 10310 58007 70000=
41938,2024,11,14,18,00,AAXX 14184 41938 31925 00000 10205 20200 30119 40123 71000 333 58008 70000=
41938,2024,11,14,21,00,AAXX 14214 41938 31909 00000 10198 20190 30117 40121 74600 333 58005 70000=
41939,2024,11,08,00,00,AAXX 08004 41939 01950 00000 10223 20210 30133 40141 70500 333 58007 70000==
41939,2024,11,08,03,00,AAXX 08034 41939 42958 00000 10255 20230 30145 40153 333 20215 58004==
41939,2024,11,08,06,00,AAXX 08064 41939 02959 00000 10314 20220 30138 40146 333 58014 70000==
41939,2024,11,08,09,00,AAXX 08094 41939 02959 00000 10306 20210 30101 40108 333 59006 70000==
41939,2024,11,08,12,00,AAXX 08124 41939 02956 00000 10268 20240 30113 40121 333 10317 59002 70000==
41939,2024,11,08,15,00,AAXX 08154 41939 01950 00000 10243 20230 30128 40136 70500 333 59005 70000==
41939,2024,11,08,18,00,AAXX 08184 41939 01950 00000 10233 20220 30139 40147 70500 333 59001 70000==
41939,2024,11,08,21,00,AAXX 08214 41939 01950 00000 10218 20210 30138 40146 70500 333 59004 70000==
41939,2024,11,09,00,00,AAXX 09004 41939 01950 00000 10216 20210 30136 40144 70500 333 58003 70000==
41939,2024,11,09,03,00,AAXX 09034 41939 02957 00000 10244 20220 30145 40153 333 20210 58000 70000==
41939,2024,11,09,06,00,AAXX 09064 41939 02958 00000 10282 20230 30150 40158 333 58005 70000==
41939,2024,11,09,09,00,AAXX 09094 41939 02960 00000 10305 20210 30110 40118 333 58009 70000==
41939,2024,11,09,12,00,AAXX 09124 41939 02956 00000 10250 20230 30115 40123 333 10316 58002 70000==
41939,2024,11,09,15,00,AAXX 09154 41939 02956 00000 10233 20220 30133 40141 333 58005 70000==
41939,2024,11,09,18,00,AAXX 09184 41939 01950 00000 10230 20220 30145 40153 70500 333 58006 70000==
41939,2024,11,09,21,00,AAXX 09214 41939 01950 00000 10220 20210 30135 40143 70500 333 59003 70000==
41939,2024,11,10,00,00,AAXX 10004 41939 01950 00000 10210 20210 30125 40133 70500 333 59011 70000==
41939,2024,11,10,03,00,AAXX 10034 41939 02957 00000 10240 20220 30138 40146 333 20205 59007 70000==
41939,2024,11,10,06,00,AAXX 10064 41939 02458 20000 10309 20220 30124 40132 82500 333 59026 70000 82618==
41939,2024,11,10,09,00,AAXX 10094 41939 02458 10000 10305 20220 30109 40117 81500 333 59001 70000 81618==
41939,2024,11,10,12,00,AAXX 10124 41939 02957 00000 10255 20240 30116 40124 333 10315 58001 70000==
41939,2024,11,10,15,00,AAXX 10154 41939 02956 00000 10234 20220 30136 40144 333 58003 70000==
41939,2024,11,10,21,00,AAXX 10214 41939 01950 00000 10235 20220 30135 40143 70500 333 58000 70000==
41939,2024,11,11,00,00,AAXX 11004 41939 01950 00000 10227 20220 30148 40156 70500 333 58003 70000==
41939,2024,11,11,03,00,AAXX 11034 41939 02958 00000 10275 20220 30146 40154 333 20208 58008 70000==
41939,2024,11,11,06,00,AAXX 11064 41939 02458 30000 10294 20200 30130 40138 83500 333 58006 70000 83618==
41939,2024,11,11,09,00,AAXX 11094 41939 02457 40000 10302 20240 30102 40110 81530 333 59007 70000 81618 84362==
41939,2024,11,11,12,00,AAXX 11124 41939 02456 30000 10262 20230 30110 40118 83500 333 10317 59003 70000 83618==
41939,2024,11,11,15,00,AAXX 11154 41939 01950 00000 10246 20240 30122 40130 70500 333 59014 70000==
41939,2024,11,11,18,00,AAXX 11184 41939 01950 00000 10238 20230 30131 40139 70500 333 59017 70000==
41939,2024,11,11,21,00,AAXX 11214 41939 01950 00000 10217 20210 30138 40146 70500 333 58003 70000==
41939,2024,11,12,00,00,AAXX 12004 41939 01950 00000 10215 20210 30135 40143 70500 333 58005 70000==
41939,2024,11,12,03,00,AAXX 12034 41939 02957 00000 10270 20220 30145 40153 333 20213 58001 70000==
41939,2024,11,12,06,00,AAXX 12064 41939 02958 00000 10313 20190 30125 40133 333 59005 70000==
41939,2024,11,12,09,00,AAXX 12094 41939 02957 00000 10305 20220 30098 40106 333 59004 70000==
41939,2024,11,12,12,00,AAXX 12124 41939 02956 10000 10250 20230 30097 40105 81500 333 10315 59013 70000 81618==
41939,2024,11,12,15,00,AAXX 12154 41939 02956 00000 10237 20230 30116 40124 333 59006 70000==
41939,2024,11,12,18,00,AAXX 12184 41939 NIL=
41939,2024,11,12,21,00,AAXX 12214 41939 01950 00000 10215 20210 30118 40126 70500 333 59020 70000==
41939,2024,11,13,00,00,AAXX 13004 41939 01950 00000 10205 20200 30108 40116 70500 333 59027 70000==
41939,2024,11,13,03,00,AAXX 13034 41939 02957 00000 10260 20220 30128 40136 333 20200 59017 70000==
41939,2024,11,13,06,00,AAXX 13064 41939 02458 10000 10314 20220 30110 40118 81500 333 59015 70000 81618==
41939,2024,11,13,09,00,AAXX 13094 41939 02458 10000 10300 20210 30093 40101 81500 333 59005 70000 81618==
41939,2024,11,13,12,00,AAXX 13124 41939 02956 00000 10245 20230 30098 40106 333 10315 58001 70000==
41939,2024,11,13,15,00,AAXX 13154 41939 02956 00000 10235 20220 30120 40128 333 58004 70000==
41939,2024,11,13,21,00,AAXX 13214 41939 01940 00000 10215 20210 30132 40140 70500 333 58014 70000==
41939,2024,11,14,00,00,AAXX 14004 41939 01940 00000 10210 20200 30129 40137 70500 333 58021 70000==
41939,2024,11,14,03,00,AAXX 14034 41939 01957 00000 10245 20230 30143 40151 70500 333 20200 58014 70000==
41939,2024,11,14,06,00,AAXX 14064 41939 02958 00000 10302 20200 30125 40133 333 58015 70000==
41939,2024,11,14,09,00,AAXX 14094 41939 02958 00000 10300 20190 30102 40110 333 58009 70000==
41939,2024,11,14,12,00,AAXX 14124 41939 02956 00000 10263 20230 30112 40120 333 10305 58002 70000==
41939,2024,11,14,15,00,AAXX 14154 41939 01950 00000 10225 20220 30128 40136 70500 333 58008 70000==
41939,2024,11,14,18,00,AAXX 14184 41939 NIL=
41939,2024,11,14,21,00,AAXX 14214 41939 01950 00000 10212 20200 30128 40136 70500 333 59004 70000==
41941,2024,11,08,00,00,AAXX 08004 41941 01940 00000 10223 20220 30125 40130 70500 333 58005 70000==
41941,2024,11,08,03,00,AAXX 08034 41941 02956 00000 10288 20210 30138 40144 333 20223 59001 70000==
41941,2024,11,08,06,00,AAXX 08064 41941 02957 03603 10308 20210 30122 40127 333 58000 70000==
41941,2024,11,08,09,00,AAXX 08094 41941 02956 03603 10315 20250 30093 40098 333 59010 70000==
41941,2024,11,08,12,00,AAXX 08124 41941 02940 03602 10265 20230 30099 40105 333 10325 59009 70000==
41941,2024,11,08,15,00,AAXX 08154 41941 02940 03602 10254 20220 30110 40115 333 59021 70000==
41941,2024,11,08,18,00,AAXX 08184 41941 02940 03602 10248 20230 30116 40122 333 59015 70000==
41941,2024,11,08,21,00,AAXX 08214 41941 02940 00000 10240 20230 30109 40115 333 59013 70000==
41941,2024,11,09,00,00,AAXX 09004 41941 02950 03602 10224 20210 30116 40122 333 59009 70000==
41941,2024,11,09,03,00,AAXX 09034 41941 02956 03603 10280 20210 30133 40138 333 20222 59006 70000==
41941,2024,11,09,06,00,AAXX 09064 41941 02957 03102 10300 20220 30121 40127 333 59002 70000==
41941,2024,11,09,09,00,AAXX 09094 41941 02957 00503 10304 20190 30098 40104 333 58005 70000==
41941,2024,11,09,12,00,AAXX 09124 41941 02956 00000 10265 20220 30108 40114 333 10320 58009 70000==
41941,2024,11,09,15,00,AAXX 09154 41941 02956 00000 10250 20210 30128 40134 333 58018 70000==
41941,2024,11,09,18,00,AAXX 09184 41941 02956 00000 10243 20210 30125 40131 333 58009 70000==
41941,2024,11,09,21,00,AAXX 09214 41941 01950 00000 10228 20220 30124 40130 70500 333 58014 70000==
41941,2024,11,10,00,00,AAXX 10004 41941 01950 00000 10225 20220 30123 40128 70500 333 58007 70000==
41941,2024,11,10,03,00,AAXX 10034 41941 02956 00000 10285 20230 30141 40147 333 20224 58008 70000==
41941,2024,11,10,06,00,AAXX 10064 41941 02/56 31802 10316 20210 30134 40140 83030 333 58013 70000 83362==
41941,2024,11,10,09,00,AAXX 10094 41941 02956 03602 10318 20270 30107 40113 333 58009 70000==
41941,2024,11,10,12,00,AAXX 10124 41941 02950 03602 10266 20250 30117 40123 333 10326 58009 70000==
41941,2024,11,10,15,00,AAXX 10154 41941 02950 00000 10260 20240 30127 40133 333 59001 70000==
41941,2024,11,10,21,00,AAXX 10214 41941 02940 00000 10250 20240 30129 40135 333 58005 70000==
41941,2024,11,11,00,00,AAXX 11004 41941 01440 50000 10246 20246 30131 40137 70522 84530 333 58008 70000 84616 85362==
41941,2024,11,11,03,00,AAXX 11034 41941 02956 03601 10285 20230 30140 40146 333 20245 59001 70000==
41941,2024,11,11,06,00,AAXX 11064 41941 02956 03102 10320 20270 30124 40130 333 59010 70000==
41941,2024,11,11,09,00,AAXX 11094 41941 02956 03603 10316 20290 30099 40105 333 59008 70000==
41941,2024,11,11,12,00,AAXX 11124 41941 02450 63603 10280 20260 30106 40112 85420 333 10328 59011 70000 84616 86458==
41941,2024,11,11,15,00,AAXX 11154 41941 02950 03602 10269 20250 30125 40131 333 59002 70000==
41941,2024,11,11,18,00,AAXX 11184 41941 02940 03602 10260 20240 30126 40132 333 59002 70000==
41941,2024,11,11,21,00,AAXX 11214 41941 02940 00000 10250 20240 30122 40128 333 59007 70000==
41941,2024,11,12,00,00,AAXX 12004 41941 01950 03602 10240 20220 30118 40124 70500 333 59013 70000==
41941,2024,11,12,03,00,AAXX 12034 41941 02956 03602 10290 20250 30136 40142 333 20237 59004 70000==
41941,2024,11,12,06,00,AAXX 12064 41941 02957 03603 10307 20280 30116 40121 333 59008 70000==
41941,2024,11,12,09,00,AAXX 12094 41941 02456 53602 10312 20200 30092 40098 84420 333 59007 70000 83616 85458==
41941,2024,11,12,12,00,AAXX 12124 41941 02440 60000 10264 20220 30089 40095 85420 333 10318 59018 70000 84616 86458==
41941,2024,11,12,15,00,AAXX 12154 41941 02440 60000 10254 20220 30101 40107 85420 333 59023 70000 84616 86458==
41941,2024,11,12,18,00,AAXX 12184 41941 NIL=
41941,2024,11,12,21,00,AAXX 12214 41941 02940 00000 10240 20230 30101 40106 333 59021 70000==
41941,2024,11,13,00,00,AAXX 13004 41941 02950 03602 10222 20210 30105 40110 333 59013 70000==
41941,2024,11,13,03,00,AAXX 13034 41941 02956 03602 10275 20220 30125 40130 333 20218 59011 70000==
41941,2024,11,13,06,00,AAXX 13064 41941 02956 03602 10304 20210 30119 40125 333 58003 70000==
41941,2024,11,13,09,00,AAXX 13094 41941 02956 00000 10305 20200 30089 40095 333 59003 70000==
41941,2024,11,13,12,00,AAXX 13124 41941 02950 03602 10256 20220 30096 40102 333 10324 58007 70000==
41941,2024,11,13,15,00,AAXX 13154 41941 02950 00000 10252 20220 30117 40123 333 58016 70000==
41941,2024,11,13,18,00,AAXX 13184 41941 02940 00000 10238 20220 30119 40125 333 58010 70000==
41941,2024,11,13,21,00,AAXX 13214 41941 02940 00000 10230 20220 30122 40128 333 58021 70000==
41941,2024,11,14,00,00,AAXX 14004 41941 02940 00000 10225 20225 30122 40128 333 58017 70000==
41941,2024,11,14,03,00,AAXX 14034 41941 02956 03601 10262 20220 30139 40145 333 20222 58014 70000==
41941,2024,11,14,06,00,AAXX 14064 41941 02956 03603 10302 20190 30117 40122 333 59002 70000==
41941,2024,11,14,09,00,AAXX 14094 41941 02956 03604 10305 20170 30094 40099 333 58005 70000==
41941,2024,11,14,12,00,AAXX 14124 41941 02940 00000 10250 20210 30102 40107 333 10316 58006 70000==
41941,2024,11,14,15,00,AAXX 14154 41941 02940 00000 10245 20220 30120 40125 333 58003 70000==
41941,2024,11,14,18,00,AAXX 14184 41941 02940 03602 10240 20210 30131 40136 333 58012 70000==
41941,2024,11,14,21,00,AAXX 14214 41941 02930 00000 10230 20220 30126 40131 333 58004 70000==
41943,2024,11,08,00,00,AAXX 08004 41943 01940 00000 10198 20190 30123 40130 70500 333 58004 70000==
41943,2024,11,08,03,00,AAXX 08034 41943 02950 01202 10272 20190 30138 40145 333 20198 59002 70000==
41943,2024,11,08,06,00,AAXX 08064 41943 02950 01202 10317 20170 30118 40125 333 59003 70000==
41943,2024,11,08,09,00,AAXX 08094 41943 02950 03102 10320 20170 30095 40102 333 59004 70000==
41943,2024,11,08,12,00,AAXX 08124 41943 02940 00000 10246 20220 30107 40114 333 10328 59004 70000==
41943,2024,11,08,15,00,AAXX 08154 41943 01935 00000 10272 20210 30126 40133 70500 333 59010 70000==
41943,2024,11,08,18,00,AAXX 08184 41943 01935 00000 10220 20210 30121 40128 70500 333 59011 70000==
41943,2024,11,08,21,00,AAXX 08214 41943 01935 00000 10210 20200 30120 40127 70500 333 59008 70000==
41943,2024,11,09,00,00,AAXX 09004 41943 02945 00000 10200 20190 30118 40125 333 59005 70000==
41943,2024,11,09,03,00,AAXX 09034 41943 02956 00000 10283 20220 30137 40144 333 20200 59001 70000==
41943,2024,11,09,06,00,AAXX 09064 41943 02556 33203 10325 20190 30118 40125 83400 333 58000 70000 82620==
41943,2024,11,09,09,00,AAXX 09093 41943 02556 30000 10327 20190 30097 40104 83400 333 58002 70000 82620==
41943,2024,11,09,12,00,AAXX 09124 41943 02456 20000 10252 20220 30109 40116 81530 333 10336 58002 70000 81618==
41943,2024,11,09,15,00,AAXX 09154 41943 01450 10000 10230 20210 30126 40133 70511 81500 333 58000 70000 81618==
41943,2024,11,09,18,00,AAXX 09184 41943 01950 00000 10224 20210 30123 40130 70510 333 58002 70000==
41943,2024,11,09,21,00,AAXX 09214 41943 01950 00000 10214 20200 30125 40132 70500 333 58005 70000==
41943,2024,11,10,00,00,AAXX 10004 41943 01950 00000 10211 20200 30122 40129 70500 333 58004 70000==
41943,2024,11,10,03,00,AAXX 10034 41943 02/56 20000 10286 20220 30142 40149 82030 333 20209 58005 70000 82362==
41943,2024,11,10,06,00,AAXX 10064 41943 02556 21302 10344 20180 30122 40129 82400 333 58004 70000 81620==
41943,2024,11,10,09,00,AAXX 10094 41943 02556 50000 10318 20210 30101 40108 83430 333 58004 70000 82620 83362==
41943,2024,11,10,12,00,AAXX 10124 41943 02456 40000 10267 20240 30110 40117 81530 333 10345 58001 70000 81618 84362==
41943,2024,11,10,15,00,AAXX 10154 41943 01/50 40000 10257 20240 30129 40136 70522 84030 333 58003 70000 84362==
41943,2024,11,10,18,00,AAXX 10184 41943 01450 40000 10247 20230 30126 40133 70522 81530 333 58003 70000 81618 83362==
41943,2024,11,10,21,00,AAXX 10214 41943 01/50 20000 10227 20220 30123 40130 70511 82030 333 59002 70000 82362==
41943,2024,11,11,00,00,AAXX 11004 41943 02/56 20000 10225 20220 30120 40127 82030 333 59002 70000 82362==
41943,2024,11,11,03,00,AAXX 11034 41943 02956 00302 10288 20220 30137 40144 333 20224 59005 70000==
41943,2024,11,11,06,00,AAXX 11064 41943 02/56 10602 10334 20190 30116 40123 81030 333 59006 70000 81362==
41943,2024,11,11,09,00,AAXX 11094 41943 02556 43403 10316 20210 30095 40102 84400 333 59006 70000 82620 83825==
41943,2024,11,11,12,00,AAXX 11124 41943 02/56 20000 10270 20240 30101 40108 82030 333 10343 59009 70000 82362==
41943,2024,11,11,15,00,AAXX 11154 41943 02/56 30000 10252 20230 30123 40130 83030 333 59006 70000 83362==
41943,2024,11,11,18,00,AAXX 11184 41943 02/56 20000 10247 20230 30122 40129 82030 333 59004 70000 82362==
41943,2024,11,11,21,00,AAXX 11214 41943 02/56 40000 10240 20220 30120 40127 84030 333 59003 70000 84362==
41943,2024,11,12,00,00,AAXX 12004 41943 42956 40000 10231 20210 30117 40124 59003 84362==
41943,2024,11,12,03,00,AAXX 12034 41943 02/56 23602 10296 20200 30133 40140 81031 333 20230 59004 70000 81362==
41943,2024,11,12,06,00,AAXX 12064 41943 02556 53602 10337 20200 30113 40120 81142 333 59003 70000 81825 83078==
41943,2024,11,12,09,00,AAXX 12094 41943 01940 03102 10314 20190 30088 40095 70500 333 59007 70000==
41943,2024,11,12,12,00,AAXX 12124 41943 01/30 40000 10272 20210 30087 40094 70522 83031 333 10345 59014 70000 83362 83080==
41943,2024,11,12,15,00,AAXX 12153 41943 01/30 50000 10245 20230 30107 40114 70522 83031 333 59016 70000 83362 84080==
41943,2024,11,12,18,00,AAXX 12184 41943 01/30 50000 10240 20220 30108 40115 70522 83031 333 59014 70000 83362 84078==
41943,2024,11,12,21,00,AAXX 12214 41943 01/30 50000 10230 20220 30103 40110 70522 83031 333 59017 70000 83362 84075==
41943,2024,11,13,00,00,AAXX 13004 41943 01430 60000 10220 20210 30100 40107 70522 82531 333 59017 70000 82618 83362==
41943,2024,11,13,03,00,AAXX 13034 41943 01435 53602 10270 20200 30127 40134 70522 82530 333 20220 59006 70000 82618 84362==
41943,2024,11,13,06,00,AAXX 13064 41943 01940 03602 10317 20180 30107 40114 70500 333 59006 70000==
41943,2024,11,13,09,00,AAXX 13094 41943 01940 03602 10330 20180 30086 40093 70500 333 59002 70000==
41943,2024,11,13,12,00,AAXX 13124 41943 01930 00000 10242 20210 30091 40098 70500 333 10330 58004 70000==
41943,2024,11,13,15,00,AAXX 13154 41943 01930 00000 10225 20210 30112 40119 70500 333 58005 70000==
41943,2024,11,13,18,00,AAXX 13184 41943 01930 00000 10210 20200 30113 40120 70500 333 58005 70000==
41943,2024,11,13,21,00,AAXX 13214 41943 01930 00000 10205 20200 30114 40121 70500 333 58011 70000==
41943,2024,11,14,00,00,AAXX 14004 41943 01930 00000 10189 20180 30115 40122 70500 333 58015 70000==
41943,2024,11,14,03,00,AAXX 14034 41943 01940 03602 10255 20230 30136 40143 70500 333 20188 58009 70000==
41943,2024,11,14,06,00,AAXX 14064 41943 01945 03602 10320 20150 30113 40120 70500 333 58006 70000==
41943,2024,11,14,09,00,AAXX 14094 41943 01950 03403 10321 20160 30095 40102 70500 333 58009 70000==
41943,2024,11,14,12,00,AAXX 14124 41943 01950 00000 10236 20210 30100 40107 70500 333 10328 58009 70000==
41943,2024,11,14,15,00,AAXX 14154 41943 01950 00000 10213 20190 30121 40128 70500 333 58009 70000==
41943,2024,11,14,18,00,AAXX 14184 41943 01950 00000 10209 20200 30118 40125 70500 333 58005 70000==
41943,2024,11,14,21,00,AAXX 14214 41943 01950 00000 10194 20180 30115 40122 70500 333 58001 70000==
41944,2024,11,08,00,00,AAXX 08004 41944 NIL=
41944,2024,11,08,06,00,AAXX 08064 41944 NIL=
41944,2024,11,08,09,00,AAXX 08094 41944 NIL=
41944,2024,11,08,12,00,AAXX 08124 41944 NIL=
41944,2024,11,08,15,00,AAXX 08154 41944 NIL=
41944,2024,11,09,03,00,AAXX 09034 41944 NIL=
41944,2024,11,09,06,00,AAXX 09064 41944 NIL=
41944,2024,11,09,09,00,AAXX 09094 41944 NIL=
41944,2024,11,09,15,00,AAXX 09154 41944 NIL=
41944,2024,11,10,03,00,AAXX 10034 41944 NIL=
41944,2024,11,10,06,00,AAXX 10064 41944 NIL=
41944,2024,11,10,09,00,AAXX 10094 41944 NIL=
41944,2024,11,10,12,00,AAXX 10124 41944 NIL=
41944,2024,11,10,15,00,AAXX 10154 41944 NIL=
41944,2024,11,11,09,00,AAXX 11094 41944 NIL=
41944,2024,11,11,12,00,AAXX 11124 41944 NIL=
41944,2024,11,11,15,00,AAXX 11154 41944 NIL=
41944,2024,11,11,18,00,AAXX 11184 41944 NIL=
41944,2024,11,12,03,00,AAXX 12034 41944 NIL=
41944,2024,11,12,09,00,AAXX 12094 41944 NIL=
41944,2024,11,12,15,00,AAXX 12154 41944 NIL=
41944,2024,11,12,18,00,AAXX 12184 41944 NIL=
41944,2024,11,13,03,00,AAXX 13034 41944 NIL=
41944,2024,11,13,06,00,AAXX 13064 41944 NIL=
41944,2024,11,13,12,00,AAXX 13124 41944 NIL=
41944,2024,11,13,15,00,AAXX 13154 41944 NIL=
41944,2024,11,14,03,00,AAXX 14034 41944 NIL=
41944,2024,11,14,06,00,AAXX 14064 41944 NIL=
41944,2024,11,14,09,00,AAXX 14094 41944 NIL=
41944,2024,11,14,12,00,AAXX 14124 41944 NIL=
41944,2024,11,14,18,00,AAXX 14184 41944 NIL=
41946,2024,11,08,00,00,AAXX 08004 41946 01950 00000 10237 20240 30136 40141 70500 333 58005 70000==
41946,2024,11,08,03,00,AAXX 08034 41946 02956 00000 10272 20230 30147 40152 333 20234 58003 70000==
41946,2024,11,08,06,00,AAXX 08064 41946 02956 00000 10318 20230 30144 40139 333 58007 70000==
41946,2024,11,08,09,00,AAXX 08094 41946 02456 40000 10310 20220 30107 40112 84400 333 59002 70000 83618==
41946,2024,11,08,12,00,AAXX 08124 41946 02956 00000 10277 20250 30117 40122 333 10320 58000 70000==
41946,2024,11,08,15,00,AAXX 08154 41946 02956 00000 10254 20240 30133 40138 333 59009 70000==
41946,2024,11,08,18,00,AAXX 08184 41946 01950 00000 10250 20240 30131 40136 70500 333 59010 70000==
41946,2024,11,08,21,00,AAXX 08214 41946 01950 00000 10244 20230 30124 40129 70500 333 59001 70000==
41946,2024,11,09,00,00,AAXX 09004 41946 01950 00000 10238 20230 30127 40132 70500 333 59009 70000==
41946,2024,11,09,03,00,AAXX 09034 41946 02956 03604 10280 20220 30151 40156 333 20235 58004 70000==
41946,2024,11,09,06,00,AAXX 09064 41946 02456 23606 10305 20210 30139 40144 82500 333 58005 70000 82618==
41946,2024,11,09,09,00,AAXX 09094 41946 02957 03602 10314 20180 30111 40116 333 58004 70000==
41946,2024,11,09,12,00,AAXX 09124 41946 02956 00000 10272 20220 30118 40123 333 10316 58001 70000==
41946,2024,11,09,15,00,AAXX 09154 41946 02956 00000 10250 20230 30135 40140 333 58002 70000==
41946,2024,11,09,21,00,AAXX 09214 41946 01950 00000 10238 20230 30132 40137 70500 333 58001 70000==
41946,2024,11,10,00,00,AAXX 10004 41946 01950 00000 10228 20220 30134 40139 70500 333 58007 70000==
41946,2024,11,10,03,00,AAXX 10034 41946 02956 00000 10275 20220 30150 40155 333 20225 59001 70000==
41946,2024,11,10,06,00,AAXX 10064 41946 02956 03608 10305 20210 30138 40143 333 59001 70000==
41946,2024,11,10,09,00,AAXX 10094 41946 02957 00000 10315 20210 30112 40117 333 58001 70000==
41946,2024,11,10,12,00,AAXX 10124 41946 02956 00000 10274 20220 30120 40125 333 10316 58002 70000==
41946,2024,11,10,15,00,AAXX 10154 41946 02956 00000 10250 20230 30137 40142 333 58002 70000==
41946,2024,11,10,18,00,AAXX 10184 41946 01950 00000 10240 20230 30133 40138 70500 333 58001 70000==
41946,2024,11,10,21,00,AAXX 10214 41946 01950 00000 10236 20230 30124 40129 70500 333 59005 70000==
41946,2024,11,11,00,00,AAXX 11004 41946 01/50 33602 10237 20220 30127 40132 70500 83030 333 59007 70000 83362==
41946,2024,11,11,03,00,AAXX 11034 41946 02456 60000 10270 20220 30150 40155 82570 333 20230 58000 70000 82618 84460==
41946,2024,11,11,06,00,AAXX 11064 41946 02456 70000 10290 20220 30135 40140 83510 333 59003 70000 83618 87460==
41946,2024,11,11,09,00,AAXX 11094 41946 02456 70000 10297 20220 30111 40116 84470 333 59001 70000 83618 85460==
41946,2024,11,11,12,00,AAXX 11124 41946 02/56 20000 10268 20250 30114 40119 82030 333 10300 59006 70000 82362==
41946,2024,11,11,15,00,AAXX 11154 41946 02/56 20000 10252 20240 30134 40139 82030 333 59003 70000 82362==
41946,2024,11,11,18,00,AAXX 11184 41946 02/56 20000 10245 20240 30131 40136 82030 333 59002 70000 82362==
41946,2024,11,12,00,00,AAXX 12004 41946 01/50 20000 10235 20220 30133 40138 70500 82030 333 58006 70000 82362==
41946,2024,11,12,03,00,AAXX 12034 41946 02956 40000 10270 20220 30148 40153 80001 333 20230 59002 70000 84080==
41946,2024,11,12,06,00,AAXX 12064 41946 02956 53606 10300 20210 30131 40136 80001 333 59004 70000 85080==
41946,2024,11,12,09,00,AAXX 12094 41946 02956 60000 10308 20200 30103 40108 80001 333 59008 70000 86080==
41946,2024,11,12,12,00,AAXX 12124 41946 02956 50000 10265 20240 30103 40108 80001 333 10310 59011 70000 85080==
41946,2024,11,12,15,00,AAXX 12154 41946 02956 20000 10244 20220 30126 40131 80001 333 59008 70000 82080==
41946,2024,11,12,18,00,AAXX 12184 41946 01950 00000 10234 20210 30120 40125 70500 333 59011 70000==
41946,2024,11,12,21,00,AAXX 12214 41946 01950 00000 10228 20210 30109 40114 70500 333 59018 70000==
41946,2024,11,13,00,00,AAXX 13004 41946 01950 00000 10218 20210 30113 40118 70500 333 59020 70000==
41946,2024,11,13,03,00,AAXX 13034 41946 02956 00000 10270 20200 30140 40145 333 20212 59008 70000==
41946,2024,11,13,06,00,AAXX 13064 41946 02956 23603 10302 20210 30122 40127 80001 333 59009 70000 82080==
41946,2024,11,13,09,00,AAXX 13094 41946 02557 13602 10312 20180 30098 40103 81100 333 59005 70000 81825==
41946,2024,11,13,12,00,AAXX 13124 41946 02956 00000 10265 20240 30104 40109 333 10314 58001 70000==
41946,2024,11,13,15,00,AAXX 13154 41946 02956 00000 10245 20230 30128 40133 333 58002 70000==
41946,2024,11,13,18,00,AAXX 13184 41946 01950 00000 10235 20230 30124 40129 70500 333 58004 70000==
41946,2024,11,13,21,00,AAXX 13214 41946 01950 00000 10228 20220 30122 40127 70500 333 58013 70000==
41946,2024,11,14,00,00,AAXX 14004 41946 01950 00000 10220 20210 30134 40139 70500 333 58021 70000==
41946,2024,11,14,03,00,AAXX 14034 41946 02956 00000 10265 20220 30151 40156 333 20214 58011 70000==
41946,2024,11,14,06,00,AAXX 14064 41946 02956 23606 10295 20200 30138 40143 80001 333 58016 70000 82080==
41946,2024,11,14,09,00,AAXX 14094 41946 02956 03603 10300 20170 30110 40115 333 58012 70000==
41946,2024,11,14,12,00,AAXX 14124 41946 02956 00000 10258 20220 30115 40120 333 10312 58011 70000==
41946,2024,11,14,15,00,AAXX 14154 41946 01950 00000 10232 20200 30135 40140 70500 333 58007 70000==
41946,2024,11,14,18,00,AAXX 14184 41946 01950 00000 10217 20210 30132 40137 70500 333 58008 70000==
41946,2024,11,14,21,00,AAXX 14214 41946 01950 00000 10206 20200 30122 40127 70500 333 58000 70000==
41947,2024,11,08,00,00,AAXX 08004 41947 02950 00000 10232 20230 30126 40128 333 58003 70000==
41947,2024,11,08,03,00,AAXX 08034 41947 02956 00000 10290 20230 30147 40149 333 20230 58003 70000==
41947,2024,11,08,06,00,AAXX 08064 41947 02/56 20000 10308 20220 30128 40130 82030 333 58000 70000 82362==
41947,2024,11,08,09,00,AAXX 08094 41947 02956 00000 10315 20220 30106 40108 333 59002 70000==
41947,2024,11,08,12,00,AAXX 08124 41947 02450 20000 10280 20230 30116 40118 82500 333 10325 58000 70000 82618==
41947,2024,11,08,15,00,AAXX 08154 41947 02950 00000 10260 20240 30132 40134 333 59010 70000==
41947,2024,11,08,18,00,AAXX 08184 41947 02950 00000 10250 20230 30133 40135 333 59008 70000==
41947,2024,11,08,21,00,AAXX 08214 41947 02950 00000 10240 20220 30130 40132 333 58001 70000==
41947,2024,11,09,00,00,AAXX 09004 41947 02950 00000 10228 20228 30128 40130 333 58002 70000==
41947,2024,11,09,03,00,AAXX 09034 41947 02956 00000 10283 20210 30148 40150 333 20222 58001 70000==
41947,2024,11,09,06,00,AAXX 09064 41947 02956 00000 10302 20190 30132 40134 333 58004 70000==
41947,2024,11,09,09,00,AAXX 09094 41947 02956 00000 10318 20210 30107 40109 333 58001 70000==
41947,2024,11,09,12,00,AAXX 09124 41947 02950 00000 10280 20220 30114 40116 333 10320 59002 70000==
41947,2024,11,09,15,00,AAXX 09154 41947 02950 00000 10250 20230 30133 40135 333 58001 70000==
41947,2024,11,09,18,00,AAXX 09184 41947 02950 00000 10248 20240 30137 40139 333 58004 70000==
41947,2024,11,09,21,00,AAXX 09214 41947 02950 00000 10240 20230 30132 40134 333 59002 70000==
41947,2024,11,10,00,00,AAXX 10004 41947 02950 00000 10224 20220 30127 40129 333 59001 70000==
41947,2024,11,10,03,00,AAXX 10034 41947 02956 00000 10280 20210 30148 40150 333 20220 58000 70000==
41947,2024,11,10,06,00,AAXX 10064 41947 02956 00000 10310 20210 30133 40135 333 58001 70000==
41947,2024,11,10,09,00,AAXX 10094 41947 02956 00000 10327 20210 30112 40114 333 58005 70000==
41947,2024,11,10,12,00,AAXX 10124 41947 02950 00000 10280 20210 30118 40120 333 10330 58004 70000==
41947,2024,11,10,15,00,AAXX 10154 41947 02950 00000 10248 20230 30136 40138 333 58003 70000==
41947,2024,11,10,18,00,AAXX 10184 41947 02950 00000 10245 20230 30136 40138 333 59002 70000==
41947,2024,11,10,21,00,AAXX 10214 41947 02950 00000 10244 20220 30126 40128 333 59006 70000==
41947,2024,11,11,00,00,AAXX 11004 41947 02950 00000 10242 20220 30128 40130 333 58001 70000==
41947,2024,11,11,03,00,AAXX 11034 41947 02456 70000 10285 20230 30148 40150 83570 333 20232 58000 70000 83618 86458==
41947,2024,11,11,06,00,AAXX 11064 41947 02/56 40000 10310 20200 30132 40134 84030 333 59001 70000 84362==
41947,2024,11,11,09,00,AAXX 11094 41947 02456 80000 10308 20220 30106 40108 8352/ 333 59006 70000 83618 88459==
41947,2024,11,11,12,00,AAXX 11124 41947 02/56 20000 10275 20260 30112 40114 82030 333 10320 59006 70000 82362==
41947,2024,11,11,15,00,AAXX 11154 41947 02/56 30000 10260 20240 30132 40134 83030 333 59004 70000 83362==
41947,2024,11,11,18,00,AAXX 11184 41947 01950 00000 10256 20250 30130 40132 70510 333 59005 70000==
41947,2024,11,11,21,00,AAXX 11214 41947 01950 00000 10250 20240 30120 40122 70500 333 59006 70000==
41947,2024,11,12,00,00,AAXX 12004 41947 01950 00000 10240 20220 30126 40128 70500 333 59002 70000==
41947,2024,11,12,03,00,AAXX 12034 41947 02/56 40000 10285 20220 30144 40146 84030 333 20236 59004 70000 84362==
41947,2024,11,12,06,00,AAXX 12064 41947 02456 60000 10308 20200 30131 40133 82530 333 59001 70000 82618 84362==
41947,2024,11,12,09,00,AAXX 12094 41947 02450 63602 10312 20200 30101 40103 85430 333 59005 70000 82618 83824 86362==
41947,2024,11,12,12,00,AAXX 12124 41947 02450 60000 10270 20220 30100 40102 85430 333 10323 59012 70000 82618 83825 86362==
41947,2024,11,12,15,00,AAXX 12154 41947 02950 00000 10250 20230 30124 40126 333 59008 70000==
41947,2024,11,12,18,00,AAXX 12184 41947 02950 00000 10245 20240 30118 40120 333 59012 70000==
41947,2024,11,12,21,00,AAXX 12214 41947 01950 00000 10220 20210 30111 40113 70500 333 59009 70000==
41947,2024,11,13,00,00,AAXX 13004 41947 01950 00000 10210 20200 30112 40114 70500 333 59014 70000==
41947,2024,11,13,03,00,AAXX 13034 41947 02956 00000 10280 20200 30136 40138 333 20208 59008 70000==
41947,2024,11,13,06,00,AAXX 13064 41947 02956 00000 10308 20190 30122 40124 333 59009 70000==
41947,2024,11,13,09,00,AAXX 13094 41947 02950 00000 10310 20190 30097 40099 333 59004 70000==
41947,2024,11,13,12,00,AAXX 13124 41947 02950 00000 10275 20230 30099 40101 333 10320 59001 70000==
41947,2024,11,13,15,00,AAXX 13154 41947 02950 00000 10244 20220 30125 40127 333 58001 70000==
41947,2024,11,13,18,00,AAXX 13184 41947 02950 00000 10240 20220 30124 40126 333 58006 70000==
41947,2024,11,13,21,00,AAXX 13214 41947 02950 00000 10220 20210 30122 40124 333 58011 70000==
41947,2024,11,14,00,00,AAXX 14004 41947 01950 00000 10215 20210 30127 40129 70500 333 58015 70000==
41947,2024,11,14,03,00,AAXX 14034 41947 02956 00000 10260 20220 30147 40150 333 20208 58012 70000==
41947,2024,11,14,06,00,AAXX 14064 41947 02956 00000 10300 20180 30134 40136 333 58012 70000==
41947,2024,11,14,09,00,AAXX 14094 41947 02950 00000 10305 20170 30107 40109 333 58010 70000==
41947,2024,11,14,12,00,AAXX 14124 41947 02950 00000 10260 20200 30111 40113 333 10315 58012 70000==
41947,2024,11,14,15,00,AAXX 14154 41947 01950 00000 10230 20220 30133 40135 70500 333 58008 70000==
41947,2024,11,14,18,00,AAXX 14184 41947 01950 00000 10225 20220 30129 40131 70500 333 58005 70000==
41947,2024,11,14,21,00,AAXX 14214 41947 01950 00000 10210 20200 30127 40129 70500 333 58005 70000==
41950,2024,11,08,00,00,AAXX 08004 41950 01940 00000 10222 20222 30125 40127 70500 333 58001 70000==
41950,2024,11,08,03,00,AAXX 08034 41950 02950 03602 10282 20230 30140 40142 333 20218 59001 70000==
41950,2024,11,08,06,00,AAXX 08064 41950 02956 03602 10309 20180 30121 40123 333 59007 70000==
41950,2024,11,08,09,00,AAXX 08094 41950 02/50 20000 10305 20200 30102 40104 82030 333 59004 70000 82362==
41950,2024,11,08,12,00,AAXX 08124 41950 02950 00000 10262 20220 30114 40116 333 10325 59002 70000==
41950,2024,11,08,15,00,AAXX 08154 41950 02950 00000 10240 20230 30131 40133 333 59011 70000==
41950,2024,11,08,18,00,AAXX 08184 41950 02950 00000 10229 20229 30128 40130 333 59010 70000==
41950,2024,11,08,21,00,AAXX 08214 41950 02950 00000 10229 20229 30128 40130 333 59010 70000==
41950,2024,11,09,00,00,AAXX 09004 41950 02950 00000 10214 20214 30120 40122 333 59008 70000==
41950,2024,11,09,03,00,AAXX 09034 41950 02950 00000 10278 20220 30144 40146 333 20210 58004 70000==
41950,2024,11,09,06,00,AAXX 09064 41950 02956 03602 10308 20190 30124 40126 333 58003 70000==
41950,2024,11,09,09,00,AAXX 09093 41950 02956 00000 10323 20180 30104 40106 333 58002 70000==
41950,2024,11,09,12,00,AAXX 09124 41950 02950 00000 10260 20230 30115 40117 333 58001 70000==
41950,2024,11,09,15,00,AAXX 09154 41950 02950 00000 10240 20230 30130 40132 333 59001 70000==
41950,2024,11,09,18,00,AAXX 09184 41950 02950 00000 10227 20227 30129 40131 333 58001 70000==
41950,2024,11,09,21,00,AAXX 09214 41950 02950 00000 10216 20216 30124 40126 333 58002 70000==
41950,2024,11,10,00,00,AAXX 10004 41950 02950 00000 10211 20211 30125 40127 333 58005 70000==
41950,2024,11,10,03,00,AAXX 10034 41950 02950 00000 10277 20220 30146 40148 333 20208 58002 70000==
41950,2024,11,10,06,00,AAXX 10064 41950 02456 10000 10307 20210 30129 40131 81500 333 58005 70000==
41950,2024,11,10,09,00,AAXX 10094 41950 02450 20000 10318 20200 30108 40110 82400 333 58004 70000 82617==
41950,2024,11,10,12,00,AAXX 10124 41950 02/50 10000 10264 20230 30118 40120 81030 333 10320 58003 70000 81362==
41950,2024,11,10,15,00,AAXX 10154 41950 02/50 10000 10250 20250 30134 40136 81030 333 58005 70000 81362==
41950,2024,11,10,18,00,AAXX 10184 41950 02950 10000 10232 20230 30132 40134 80001 333 58003 70000 81080==
41950,2024,11,10,21,00,AAXX 10214 41950 02950 10000 10231 20230 30128 40130 333 58004 70000 81080==
41950,2024,11,11,00,00,AAXX 11004 41950 01/40 20000 10230 20230 30127 40129 70510 82030 333 58002 70000 82362==
41950,2024,11,11,03,00,AAXX 11034 41950 02/50 20000 10290 20220 30143 40145 82030 333 20225 59003 70000 82362==
41950,2024,11,11,06,00,AAXX 11064 41950 02450 30000 10318 20210 30126 40128 82431 333 59003 70000 82618==
41950,2024,11,11,09,00,AAXX 11094 41950 02450 50000 10304 20230 30102 40104 84330 333 59006 70000 84617 81928==
41950,2024,11,11,12,00,AAXX 11124 41950 02450 60000 10278 20250 30109 40111 83530 333 10323 59009 70000 83617 84362==
41950,2024,11,11,15,00,AAXX 11154 41950 02950 00000 10256 20250 30127 40129 333 59007 70000==
41950,2024,11,11,18,00,AAXX 11184 41950 02/50 30000 10249 20240 30129 40131 83030 333 59003 70000 83617==
41950,2024,11,11,21,00,AAXX 11214 41950 02/50 20000 10236 20230 30124 40126 82030 333 59004 70000 82362==
41950,2024,11,12,00,00,AAXX 12004 41950 02450 20000 10229 20229 30123 40125 81530 333 59004 70000 81617==
41950,2024,11,12,03,00,AAXX 12034 41950 02450 40000 10286 20200 30141 40143 82531 333 20226 59002 70000 82617==
41950,2024,11,12,06,00,AAXX 12064 41950 02/50 40000 10312 20200 30122 40124 83031 333 59004 70000 83362==
41950,2024,11,12,09,00,AAXX 12094 41950 02/50 40000 10318 20200 30097 40099 83031 333 59005 70000 83362==
41950,2024,11,12,12,00,AAXX 12124 41950 02/50 20000 10267 20240 30097 40099 82030 333 10320 59012 70000 82362==
41950,2024,11,12,15,00,AAXX 12153 41950 02/50 30000 10250 20230 30117 40119 83030 333 59010 70000 83362==
41950,2024,11,12,18,00,AAXX 12184 41950 02/50 30000 10244 20220 30117 40119 83030 333 59012 70000 83362==
41950,2024,11,12,21,00,AAXX 12214 41950 02/50 20000 10219 20210 30110 40112 82030 333 70000 82362==
41950,2024,11,13,00,00,AAXX 13004 41950 02950 20000 10217 20210 30107 40109 82001 333 59016 70000 82080==
41950,2024,11,13,03,00,AAXX 13034 41950 02950 00000 10280 20200 30135 40137 333 20213 59006 70000==
41950,2024,11,13,06,00,AAXX 13064 41950 02450 13602 10310 20180 30116 40118 81500 333 59008 70000 81617==
41950,2024,11,13,09,00,AAXX 13094 41950 02956 00000 10310 20190 30094 40096 333 59003 70000==
41950,2024,11,13,12,00,AAXX 13124 41950 02950 00000 10255 20230 30100 40102 333 10317 58003 70000==
41950,2024,11,13,15,00,AAXX 13154 41950 02950 00000 10232 20230 30122 40124 333 58005 70000==
41950,2024,11,13,18,00,AAXX 13184 41950 02950 00000 10222 20210 30118 40120 333 58001 70000==
41950,2024,11,13,21,00,AAXX 13214 41950 02950 00000 10217 20217 30116 40118 333 58006 70000==
41950,2024,11,14,00,00,AAXX 14004 41950 01945 00000 10205 20205 30125 40127 70500 333 58018 70000==
41950,2024,11,14,03,00,AAXX 14034 41950 01945 00000 10258 20210 30145 40147 70500 333 20202 58010 70000==
41950,2024,11,14,06,00,AAXX 14064 41950 02950 03202 10305 20190 30127 40129 333 58011 70000==
41950,2024,11,14,09,00,AAXX 14094 41950 02950 03602 10309 20170 30103 40105 333 58009 70000==
41950,2024,11,14,12,00,AAXX 14124 41950 02950 00000 10250 20230 30109 40111 333 10315 58009 70000==
41950,2024,11,14,15,00,AAXX 14154 41950 02950 00000 10222 20210 30128 40130 333 58006 70000==
41950,2024,11,14,18,00,AAXX 14184 41950 02950 00000 10215 20210 30130 40132 333 58012 70000==
41950,2024,11,14,21,00,AAXX 14214 41950 02950 00000 10206 20206 30119 40121 333 58003 70000==
41951,2024,11,08,00,00,AAXX 08004 41951 01940 00000 10218 20218 30116 40121 70500 333 58002 70000==
41951,2024,11,08,03,00,AAXX 08034 41951 01950 03502 10286 20240 30131 40136 70500 333 20214 58001 70000==
41951,2024,11,08,06,00,AAXX 08064 41951 02956 03502 10312 20200 30113 40118 333 59005 70000==
41951,2024,11,08,09,00,AAXX 08094 41951 02956 00000 10332 20200 30093 40098 333 59004 70000==
41951,2024,11,08,12,00,AAXX 08124 41951 01940 00000 10254 20230 30102 40107 70500 333 10335 59003 70000==
41951,2024,11,08,15,00,AAXX 08154 41951 01940 00000 10242 20230 30123 40128 70500 333 59007 70000==
41951,2024,11,08,18,00,AAXX 08184 41951 01935 00000 10232 20230 30119 40124 70500 333 59002 70000==
41951,2024,11,08,21,00,AAXX 08214 41951 01935 00000 10224 20220 30114 40119 70500 333 59004 70000==
41951,2024,11,09,00,00,AAXX 09004 41951 01940 00000 10215 20215 30113 40118 70500 333 59003 70000==
41951,2024,11,09,03,00,AAXX 09034 41951 01950 00000 10280 20210 30134 40139 70500 333 20210 58003 70000==
41951,2024,11,09,06,00,AAXX 09064 41951 02956 02802 10312 20200 30115 40120 333 58002 70000==
41951,2024,11,09,09,00,AAXX 09094 41951 02956 03502 10330 20210 30096 40101 333 58003 70000==
41951,2024,11,09,12,00,AAXX 09124 41951 01940 00000 10252 20230 30105 40110 70500 333 10335 58003 70000==
41951,2024,11,09,15,00,AAXX 09154 41951 01940 00000 10240 20230 30124 40129 70500 333 58001 70000==
41951,2024,11,09,18,00,AAXX 09184 41951 01935 00000 10228 20228 30121 40126 70500 333 58002 70000==
41951,2024,11,09,21,00,AAXX 09214 41951 01935 00000 10221 20220 30117 40122 70500 333 58003 70000==
41951,2024,11,10,00,00,AAXX 10004 41951 01940 00000 10208 20208 30117 40122 70500 333 58004 70000==
41951,2024,11,10,03,00,AAXX 10034 41951 01950 00000 10280 20220 30137 40142 70500 333 20205 58003 70000==
41951,2024,11,10,06,00,AAXX 10064 41951 02956 03502 10322 20210 30119 40124 333 58004 70000==
41951,2024,11,10,09,00,AAXX 10094 41951 02956 00000 10320 20200 30098 40103 333 58002 70000==
41951,2024,11,10,12,00,AAXX 10124 41951 01440 20000 10264 20240 30105 40110 70500 82500 333 10326 58000 70000 82618==
41951,2024,11,10,15,00,AAXX 10154 41951 01440 60000 10248 20240 30130 40135 70520 83510 333 58006 70000 83618 85459==
41951,2024,11,10,18,00,AAXX 10184 41951 01340 80000 10252 20240 30123 40128 70522 8562/ 333 58002 70000 81709 84618 88458==
41951,2024,11,10,21,00,AAXX 10214 41951 01440 60000 10244 20230 30117 40122 70522 83510 333 58000 70000 83618 85459==
41951,2024,11,11,00,00,AAXX 11004 41951 01940 00000 10234 20220 30113 40118 70520 333 59004 70000==
41951,2024,11,11,03,00,AAXX 11034 41951 02950 00000 10298 20240 30135 40140 333 20230 59002 70000==
41951,2024,11,11,06,00,AAXX 11064 41951 02956 03102 10325 20230 30118 40123 333 59001 70000==
41951,2024,11,11,09,00,AAXX 11094 41951 02456 30000 10320 20210 30098 40103 83500 333 58000 70000 83618==
41951,2024,11,11,12,00,AAXX 11124 41951 01/40 30000 10272 20250 30102 40107 70500 83030 333 10332 59003 70000 83362==
41951,2024,11,11,15,00,AAXX 11154 41951 01940 00000 10256 20250 30125 40130 70500 333 59005 70000==
41951,2024,11,11,18,00,AAXX 11184 41951 01/40 50000 10251 20250 30122 40127 70522 85030 333 59001 70000 85362==
41951,2024,11,11,21,00,AAXX 11214 41951 01440 20000 10242 20230 30114 40119 70520 82500 333 59003 70000 82618==
41951,2024,11,12,00,00,AAXX 12004 41951 01/40 30000 10233 20220 30108 40113 70500 83030 333 59005 70000 83362==
41951,2024,11,12,03,00,AAXX 12034 41951 01/50 30000 10292 20230 30134 40139 70500 83030 333 20227 59001 70000 83362==
41951,2024,11,12,06,00,AAXX 12064 41951 02456 53102 10315 20230 30112 40117 82510 333 59006 70000 82618 85458==
41951,2024,11,12,09,00,AAXX 12094 41951 02/56 32702 10318 20220 30089 40094 83030 333 59009 70000 83362==
41951,2024,11,12,12,00,AAXX 12124 41951 02450 50000 10264 20240 30091 40096 82510 333 10324 59011 70000 82618 85458==
41951,2024,11,12,15,00,AAXX 12154 41951 02450 80000 10250 20240 30109 40114 8352/ 333 59016 70000 83618 88458==
41951,2024,11,12,18,00,AAXX 12184 41951 01950 60000 10239 20230 30109 40114 70522 83520 333 59013 70000 83618 86458==
41951,2024,11,12,21,00,AAXX 12214 41951 01/50 40000 10233 20220 30103 40108 70500 84030 333 59011 70000 84362==
41951,2024,11,13,00,00,AAXX 13004 41951 01/40 20000 10227 20220 30102 40107 70500 82030 333 59006 70000 82362==
41951,2024,11,13,03,00,AAXX 13034 41951 02950 00502 10287 20220 30125 40130 333 20220 59009 70000==
41951,2024,11,13,06,00,AAXX 13064 41951 02456 20502 10314 20210 30109 40114 82500 333 59003 70000 82618==
41951,2024,11,13,09,00,AAXX 13094 41951 02956 03102 10319 20190 30088 40093 333 59001 70000==
41951,2024,11,13,12,00,AAXX 13124 41951 01940 00000 10250 20230 30093 40098 70500 333 10325 58002 70000==
41951,2024,11,13,15,00,AAXX 13154 41951 01940 00000 10230 20230 30114 40119 70500 333 58005 70000==
41951,2024,11,13,18,00,AAXX 13184 41951 01940 00000 10220 20210 30113 40118 70500 333 58004 70000==
41951,2024,11,13,21,00,AAXX 13214 41951 01940 00000 10215 20215 30115 40120 70500 333 58012 70000==
41951,2024,11,14,00,00,AAXX 14004 41951 01940 00000 10210 20210 30116 40121 70500 333 58014 70000==
41951,2024,11,14,03,00,AAXX 14034 41951 01940 00000 10264 20230 30136 40141 70500 333 20202 58011 70000==
41951,2024,11,14,06,00,AAXX 14064 41951 02956 00402 10303 20210 30122 40127 333 58013 70000==
41951,2024,11,14,09,00,AAXX 14094 41951 02956 00000 10314 20200 30098 40103 333 58010 70000==
41951,2024,11,14,12,00,AAXX 14124 41951 01940 00000 10248 20240 30103 40108 70500 333 10317 58010 70000==
41951,2024,11,14,15,00,AAXX 14154 41951 01940 00000 10228 20220 30119 40124 70500 333 58005 70000==
41951,2024,11,14,18,00,AAXX 14184 41951 01940 00000 10216 20216 30118 40123 70500 333 58005 70000==
41951,2024,11,14,21,00,AAXX 14214 41951 01940 00000 10209 20209 30118 40123 70500 333 58003 70000==
41953,2024,11,08,00,00,AAXX 08004 41953 01940 00000 10225 20225 30129 40134 70500 333 58004 70000==
41953,2024,11,08,03,00,AAXX 08034 41953 01945 00000 10270 20230 30147 40152 70500 333 20223 58003 70000==
41953,2024,11,08,06,00,AAXX 08064 41953 01945 00000 10306 20200 30123 40128 70500 333 59004 70000==
41953,2024,11,08,09,00,AAXX 08094 41953 01950 00000 10308 20200 30100 40105 70500 333 59004 70000==
41953,2024,11,08,12,00,AAXX 08124 41953 01935 00000 10274 20220 30110 40115 70500 333 10309 59001 70000==
41953,2024,11,08,15,00,AAXX 08154 41953 01930 00000 10250 20230 30131 40136 71000 333 59008 70000==
41953,2024,11,08,18,00,AAXX 08184 41953 01925 00000 10242 20230 30129 40133 71000 333 59008 70000==
41953,2024,11,08,21,00,AAXX 08214 41953 01925 00000 10236 20230 30127 40132 71000 333 59007 70000==
41953,2024,11,09,00,00,AAXX 09004 41953 01930 00000 10230 20220 30124 40129 71000 333 59005 70000==
41953,2024,11,09,03,00,AAXX 09034 41953 01945 00000 10280 20210 30149 40154 70500 333 20226 58002 70000==
41953,2024,11,09,06,00,AAXX 09064 41953 01950 00000 10315 20190 30122 40127 70500 333 59001 70000==
41953,2024,11,09,09,00,AAXX 09094 41953 01950 00000 10320 20180 30102 40107 70500 333 58002 70000==
41953,2024,11,09,12,00,AAXX 09124 41953 01940 00000 10272 20230 30111 40116 70500 333 10326 58001 70000==
41953,2024,11,09,15,00,AAXX 09154 41953 01940 00000 10250 20230 30130 40135 70500 333 59001 70000==
41953,2024,11,09,18,00,AAXX 09184 41953 01940 00000 10242 20230 30128 40133 70500 333 59001 70000==
41953,2024,11,09,21,00,AAXX 09214 41953 01940 00000 10236 20230 30123 40128 70500 333 59004 70000==
41953,2024,11,10,00,00,AAXX 10004 41953 01930 00000 10230 20220 30123 40128 71000 333 59001 70000==
41953,2024,11,10,03,00,AAXX 10034 41953 01940 00000 10290 20210 30145 40150 70500 333 20230 59004 70000==
41953,2024,11,10,06,00,AAXX 10064 41953 01950 00000 10315 20210 30128 40133 70500 333 58006 70000==
41953,2024,11,10,09,00,AAXX 10094 41953 01450 40000 10305 20220 30105 40110 70522 84400 333 58003 70000 83616==
41953,2024,11,10,12,00,AAXX 10124 41953 01940 00000 10280 20240 30112 40117 70500 333 10330 58001 70000==
41953,2024,11,10,15,00,AAXX 10154 41953 01435 60000 10268 20240 30132 40137 70520 83510 333 58002 70000 83616 85458==
41953,2024,11,10,18,00,AAXX 10184 41953 01435 50000 10262 20230 30131 40136 70522 82510 333 58003 70000 82616 85458==
41953,2024,11,10,21,00,AAXX 10214 41953 01435 50000 10256 20240 30125 40130 70522 82510 333 58002 70000 82616 85458==
41953,2024,11,11,00,00,AAXX 11004 41953 01435 50000 10245 20230 30123 40128 70522 82510 333 58000 70000 82616 85458==
41953,2024,11,11,03,00,AAXX 11034 41953 01940 00000 10290 20210 30141 40146 70500 333 20245 59004 70000==
41953,2024,11,11,06,00,AAXX 11064 41953 01950 00000 10320 20210 30117 40122 70500 333 59011 70000==
41953,2024,11,11,09,00,AAXX 11094 41953 01450 40000 10300 20220 30100 40105 70522 84400 333 59005 70000 83616==
41953,2024,11,11,12,00,AAXX 11124 41953 01940 00000 10280 20240 30105 40110 70500 333 10330 59007 70000==
41953,2024,11,11,15,00,AAXX 11154 41953 01940 00000 10275 20240 30126 40131 70500 333 59006 70000==
41953,2024,11,11,18,00,AAXX 11184 41953 01940 00000 10265 20250 30127 40132 70500 333 59004 70000==
41953,2024,11,11,21,00,AAXX 11214 41953 01940 00000 10260 20240 30120 40125 70500 333 59005 70000==
41953,2024,11,12,00,00,AAXX 12004 41953 01430 60000 10255 20230 30120 40125 70522 83510 333 59003 70000 83616 86458==
41953,2024,11,12,03,00,AAXX 12034 41953 01440 50000 10280 20210 30135 40140 70522 82510 333 20250 59006 70000 82616 85458==
41953,2024,11,12,06,00,AAXX 12064 41953 01450 33604 10318 20170 30122 40127 70522 83500 333 58005 70000 83618==
41953,2024,11,12,09,00,AAXX 12094 41953 01450 63603 10310 20170 30094 40099 70522 83510 333 59006 70000 83616 85458==
41953,2024,11,12,12,00,AAXX 12124 41953 01440 20000 10275 20210 30093 40098 70521 82500 333 10325 59012 70000 82618==
41953,2024,11,12,15,00,AAXX 12154 41953 01435 20000 10265 20220 30113 40118 70511 82500 333 59013 70000 82618==
41953,2024,11,12,18,00,AAXX 12184 41953 01435 60000 10256 20220 30103 40108 70521 83530 333 59024 70000 83616 84361==
41953,2024,11,12,21,00,AAXX 12214 41953 01435 60000 10245 20220 30104 40109 70522 83510 333 59016 70000 83616 85458==
41953,2024,11,13,00,00,AAXX 13004 41953 01440 60000 10240 20210 30107 40112 70522 83510 333 59013 70000 83616 85458==
41953,2024,11,13,03,00,AAXX 13034 41953 01445 40000 10278 20210 30129 40134 70522 84400 333 20238 59006 70000 83618==
41953,2024,11,13,06,00,AAXX 13064 41953 01950 03103 10306 20190 30112 40117 70520 333 59010 70000==
41953,2024,11,13,09,00,AAXX 13094 41953 01950 03101 10310 20180 30091 40096 70500 333 59003 70000==
41953,2024,11,13,12,00,AAXX 13124 41953 01935 00000 10270 20200 30096 40101 70500 333 10312 58003 70000==
41953,2024,11,13,15,00,AAXX 13154 41953 01930 00000 10246 20210 30117 40122 71000 333 58004 70000==
41953,2024,11,13,21,00,AAXX 13214 41953 01925 00000 10230 20210 30122 40127 71000 333 58018 70000==
41953,2024,11,14,00,00,AAXX 14004 41953 01930 00000 10220 20210 30122 40127 71000 333 58015 70000==
41953,2024,11,14,03,00,AAXX 14034 41953 01945 00202 10280 20200 30141 40146 70500 333 20219 58006 70000==
41953,2024,11,14,06,00,AAXX 14064 41953 02950 00504 10306 20180 30122 40127 333 58010 70000==
41953,2024,11,14,09,00,AAXX 14094 41953 02950 03604 10310 20170 30102 40107 333 58011 70000==
41953,2024,11,14,12,00,AAXX 14124 41953 02940 00000 10275 20210 30101 40106 333 10316 58005 70000==
41953,2024,11,14,15,00,AAXX 14154 41953 01935 00000 10240 20220 30126 40131 70500 333 58009 70000==
41953,2024,11,14,18,00,AAXX 14184 41953 01935 00000 10230 20210 30122 40127 70500 333 58009 70000==
41953,2024,11,14,21,00,AAXX 14214 41953 01935 00000 10228 20220 30115 40120 70500 333 59007 70000==
41955,2024,11,08,00,00,AAXX 08004 41955 NIL=
41955,2024,11,08,06,00,AAXX 08064 41955 NIL=
41955,2024,11,08,09,00,AAXX 08094 41955 NIL=
41955,2024,11,08,12,00,AAXX 08124 41955 NIL=
41955,2024,11,08,15,00,AAXX 08154 41955 NIL=
41955,2024,11,09,03,00,AAXX 09034 41955 NIL=
41955,2024,11,09,06,00,AAXX 09064 41955 NIL=
41955,2024,11,09,09,00,AAXX 09094 41955 NIL=
41955,2024,11,09,15,00,AAXX 09154 41955 NIL=
41955,2024,11,10,03,00,AAXX 10034 41955 NIL=
41955,2024,11,10,06,00,AAXX 10064 41955 NIL=
41955,2024,11,10,09,00,AAXX 10094 41955 NIL=
41955,2024,11,10,12,00,AAXX 10124 41955 NIL=
41955,2024,11,10,15,00,AAXX 10154 41955 NIL=
41955,2024,11,11,09,00,AAXX 11094 41955 NIL=
41955,2024,11,11,12,00,AAXX 11124 41955 NIL=
41955,2024,11,11,15,00,AAXX 11154 41955 NIL=
41955,2024,11,11,18,00,AAXX 11184 41955 NIL=
41955,2024,11,12,03,00,AAXX 12034 41955 NIL=
41955,2024,11,12,09,00,AAXX 12094 41955 NIL=
41955,2024,11,12,15,00,AAXX 12154 41955 NIL=
41955,2024,11,12,18,00,AAXX 12184 41955 NIL=
41955,2024,11,13,03,00,AAXX 13034 41955 NIL=
41955,2024,11,13,06,00,AAXX 13064 41955 NIL=
41955,2024,11,13,12,00,AAXX 13124 41955 NIL=
41955,2024,11,13,15,00,AAXX 13154 41955 NIL=
41955,2024,11,14,03,00,AAXX 14034 41955 NIL=
41955,2024,11,14,06,00,AAXX 14064 41955 NIL=
41955,2024,11,14,09,00,AAXX 14094 41955 NIL=
41955,2024,11,14,12,00,AAXX 14124 41955 NIL=
41955,2024,11,14,18,00,AAXX 14184 41955 NIL=
41958,2024,11,08,00,00,AAXX 08004 41958 31940 00000 10236 20236 30125 40127 70500 333 58003 70000=
41958,2024,11,08,03,00,AAXX 08034 41958 32950 00000 10280 20230 30140 40142 333 20230 58000 70000=
41958,2024,11,08,06,00,AAXX 08064 41958 32556 10502 10312 20220 30134 40136 81100 333 56100 58008 70000 81825=
41958,2024,11,08,09,00,AAXX 08094 41958 32956 00000 10300 20220 30103 40105 333 59002 70000=
41958,2024,11,08,12,00,AAXX 08124 41958 32950 00000 10264 20230 30111 40113 333 10312 58001 70000=
41958,2024,11,08,15,00,AAXX 08154 41958 32950 00000 10248 20240 30128 40130 333 59012 70000=
41958,2024,11,08,21,00,AAXX 08214 41958 32940 00000 10233 20230 30121 40123 333 58000 70000=
41958,2024,11,09,00,00,AAXX 09004 41958 32940 00000 10230 20220 30116 40118 333 59009 70000=
41958,2024,11,09,03,00,AAXX 09034 41958 32950 00000 10281 20230 30132 40134 333 20220 59008 70000=
41958,2024,11,09,06,00,AAXX 09064 41958 32457 10000 10300 20210 30126 40128 81500 333 56900 59008 70000 81617=
41958,2024,11,09,09,00,AAXX 09094 41958 32957 03301 10310 20200 30104 40106 333 58001 70000=
41958,2024,11,09,12,00,AAXX 09124 41958 32950 00000 10278 20210 30109 40111 333 10312 59002 70000=
41958,2024,11,09,15,00,AAXX 09154 41958 32940 00000 10246 20240 30131 40133 333 58003 70000=
41958,2024,11,09,18,00,AAXX 09184 41958 32940 00000 10240 20230 30129 40131 333 59002 70000=
41958,2024,11,09,21,00,AAXX 09214 41958 32940 00000 10232 20220 30124 40126 333 58003 70000=
41958,2024,11,10,00,00,AAXX 10004 41958 32950 00000 10230 20220 30125 40127 333 58009 70000=
41958,2024,11,10,03,00,AAXX 10034 41958 32957 00501 10284 20210 30143 40145 333 20221 58011 70000=
41958,2024,11,10,06,00,AAXX 10064 41958 32957 00901 10310 20190 30130 40133 333 58004 70000=
41958,2024,11,10,09,00,AAXX 10094 41958 32957 00000 10320 20220 30107 40109 333 58003 70000=
41958,2024,11,10,12,00,AAXX 10124 41958 32950 00000 10257 20220 30114 40116 333 10322 58005 70000=
41958,2024,11,10,15,00,AAXX 10154 41958 32950 00000 10234 20220 30132 40134 333 58001 70000=
41958,2024,11,10,18,00,AAXX 10184 41958 32940 00000 10234 30133 30220 40135 333 58004 70000=
41958,2024,11,10,21,00,AAXX 10214 41958 32440 30000 10245 20230 30121 40123 83500 333 56400 59003 70000 83616=
41958,2024,11,11,00,00,AAXX 11004 41958 32450 40000 10250 20230 30122 40124 84500 333 56400 59003 70000 84615=
41958,2024,11,11,03,00,AAXX 11034 41958 32456 71302 10272 20230 30143 40145 84510 333 20233 56390 58000 70000 84615 87458=
41958,2024,11,11,06,00,AAXX 11064 41958 32456 71301 10298 20220 30128 40130 84510 333 56390 59002 70000 84616 87457=
41958,2024,11,11,09,00,AAXX 11094 41958 32456 70000 10310 20230 30104 40106 82510 333 56390 59003 70000 82616 87458=
41958,2024,11,11,12,00,AAXX 11124 41958 32450 50000 10270 20240 30108 40110 82530 333 10312 56390 59006 70000 82615 85362=
41958,2024,11,11,15,00,AAXX 11154 41958 32450 50000 10255 20250 30129 40131 82530 333 56490 59003 70000 82616 85362=
41958,2024,11,11,18,00,AAXX 11184 41958 32450 50000 10250 20240 30132 40135 82530 333 56490 59001 70000 82615 85362=
41958,2024,11,11,21,00,AAXX 11214 41958 32450 60000 10250 20240 30118 40120 83510 333 56490 59003 70000 83615 86458=
41958,2024,11,12,00,00,AAXX 12004 41958 32450 00000 10250 20230 30120 40122 83510 333 56490 59002 70000 83615 86458=
41958,2024,11,12,03,00,AAXX 12034 41958 32456 60000 10270 20220 30139 40141 83510 333 20240 56490 59004 70000 83615 86458=
41958,2024,11,12,06,00,AAXX 12064 41958 32456 70000 10300 20220 30125 40127 83510 333 56390 59003 70000 83615 87458=
41958,2024,11,12,09,00,AAXX 12094 41958 32457 50000 10305 20220 30100 40102 82530 333 56990 59004 70000 82615 85362=
41958,2024,11,12,12,00,AAXX 12124 41958 32450 50000 10264 20230 30096 40098 82530 333 10310 56990 59012 70000 82615 85362=
41958,2024,11,12,15,00,AAXX 12154 41958 32450 50000 10254 20240 30114 40116 82530 333 56490 59015 70000 82615 85362=
41958,2024,11,12,18,00,AAXX 12184 41958 32950 50000 10250 20240 30118 40120 80030 333 56090 59014 70000 85362=
41958,2024,11,12,21,00,AAXX 12214 41958 32950 30000 10245 20240 30106 40108 80030 333 56090 59011 70000 83362=
41958,2024,11,13,00,00,AAXX 13004 41958 32950 30000 10235 20230 30107 40109 80030 333 56090 59013 70000 83363=
41958,2024,11,13,03,00,AAXX 13034 41958 32956 20501 10275 20210 30133 40135 80030 333 20225 56090 59006 70000 82362=
41958,2024,11,13,06,00,AAXX 13064 41958 32957 03102 10305 20200 30118 40120 333 59007 70000=
41958,2024,11,13,09,00,AAXX 13094 41958 32957 03601 10315 20210 30093 40095 333 59007 70000=
41958,2024,11,13,12,00,AAXX 13124 41958 32950 00000 10265 20220 30097 40099 333 10318 58001 70000=
41958,2024,11,13,15,00,AAXX 13154 41958 32950 00000 10253 20220 30121 40123 333 58007 70000=
41958,2024,11,13,18,00,AAXX 13184 41958 32950 00000 10246 20230 30127 40129 333 58009 70000=
41958,2024,11,13,21,00,AAXX 13214 41958 31940 00000 10235 20230 30122 40124 70500 333 58016 70000=
41958,2024,11,14,00,00,AAXX 14004 41958 31940 00000 10230 20220 30126 40128 70500 333 58017 70000=
41958,2024,11,14,03,00,AAXX 14034 41958 31950 03101 10265 20220 30143 40145 70500 333 20220 58010 70000=
41958,2024,11,14,06,00,AAXX 14064 41958 31950 02701 10298 20200 30129 40131 70500 333 58011 70000=
41958,2024,11,14,09,00,AAXX 14094 41958 31950 02701 10310 20210 30106 40108 70500 333 58013 70000=
41958,2024,11,14,12,00,AAXX 14124 41958 31950 00000 10250 20220 30109 40111 70500 333 10311 58012 70000=
41958,2024,11,14,15,00,AAXX 14154 41958 31940 00000 10243 20230 30129 40132 70500 333 58008 70000=
41958,2024,11,14,18,00,AAXX 14184 41958 31940 00000 10238 20238 30132 40134 70500 333 58005 70000=
41958,2024,11,14,21,00,AAXX 14214 41958 31940 00000 10225 20225 30121 40123 70500 333 59001 70000=
41960,2024,11,08,00,00,AAXX 08004 41960 01940 00000 10230 20230 30122 40124 70500 333 58004 70000==
41960,2024,11,08,03,00,AAXX 08034 41960 01950 00000 10276 20230 30142 40144 70500 333 20225 58000 70000==
41960,2024,11,08,06,00,AAXX 08064 41960 02456 13202 10300 20210 30122 40124 81500 333 59001 70000 81618==
41960,2024,11,08,09,00,AAXX 08094 41960 02957 00000 10308 20190 30101 40103 333 59005 70000==
41960,2024,11,08,12,00,AAXX 08124 41960 01940 00000 10270 20240 30109 40110 70500 333 10320 59002 70000==
41960,2024,11,08,15,00,AAXX 08154 41960 01940 00000 10240 20230 30129 40131 70500 333 59014 70000==
41960,2024,11,08,18,00,AAXX 08184 41960 01940 00000 10235 20235 30125 40126 70500 333 59011 70000==
41960,2024,11,08,21,00,AAXX 08214 41960 01940 00000 10229 20229 30122 40123 70500 333 59005 70000==
41960,2024,11,09,00,00,AAXX 09004 41960 01940 00000 10224 20224 30119 40121 70500 333 59003 70000==
41960,2024,11,09,03,00,AAXX 09034 41960 01940 03602 10264 20230 30140 40142 70500 333 20220 59002 70000==
41960,2024,11,09,06,00,AAXX 09064 41960 01450 23401 10307 20220 30126 40127 70510 82500 333 59004 70000 82618==
41960,2024,11,09,09,00,AAXX 09094 41960 01450 20000 10317 20210 30104 40106 70510 82500 333 58003 70000 82618==
41960,2024,11,09,12,00,AAXX 09124 41960 01950 00000 10273 20230 30113 40114 70510 333 10322 58004 70000==
41960,2024,11,09,15,00,AAXX 09154 41960 01940 00000 10242 20240 30130 40131 70500 333 59001 70000==
41960,2024,11,09,18,00,AAXX 09184 41960 01940 00000 10235 20235 30131 40132 70500 333 58006 70000==
41960,2024,11,09,21,00,AAXX 09214 41960 01940 00000 10232 20230 30129 40131 70500 333 58007 70000==
41960,2024,11,10,00,00,AAXX 10004 41960 01940 00000 10228 20228 30126 40128 70500 333 58007 70000==
41960,2024,11,10,03,00,AAXX 10034 41960 01950 00000 10270 20250 30142 40144 70500 333 20220 58002 70000==
41960,2024,11,10,06,00,AAXX 10064 41960 02456 23202 10300 20210 30122 40124 82400 333 59001 70000 81618==
41960,2024,11,10,09,00,AAXX 10094 41960 02450 40000 10305 20240 30109 40111 84400 333 58005 70000 82618==
41960,2024,11,10,12,00,AAXX 10124 41960 01440 10000 10276 20260 30118 40120 70500 81500 333 10323 58005 70000 81618==
41960,2024,11,10,15,00,AAXX 10154 41960 01440 60000 10265 20260 30132 40133 70521 84410 333 58002 70000 83618 86459==
41960,2024,11,10,18,00,AAXX 10184 41960 01440 70000 10265 20260 30130 40131 70522 84410 333 59001 70000 83618 87459==
41960,2024,11,10,21,00,AAXX 10214 41960 01440 60000 10258 20250 30125 40126 70522 85410 333 59004 70000 83618 86459==
41960,2024,11,11,00,00,AAXX 11004 41960 01440 20000 10250 20230 30123 40125 70521 82400 333 59003 70000 81618==
41960,2024,11,11,03,00,AAXX 11034 41960 01450 40000 10275 20230 30140 40141 70521 82530 333 20246 59002 70000 82618 83362==
41960,2024,11,11,06,00,AAXX 11064 41960 02456 33602 10312 20220 30124 40126 83400 333 59004 70000 82618==
41960,2024,11,11,09,00,AAXX 11094 41960 02456 50000 10308 20220 30105 40107 85410 333 59004 70000 83618 85459==
41960,2024,11,11,12,00,AAXX 11124 41960 01440 50000 10285 20250 30104 40106 70522 85410 333 10324 59014 70000 83618==
41960,2024,11,11,15,00,AAXX 11154 41960 01440 30000 10260 20250 30127 40128 70521 83500 333 59005 70000 83618==
41960,2024,11,11,18,00,AAXX 11184 41960 02440 20000 10255 20250 30129 40130 82500 333 59001 70000 82618==
41960,2024,11,11,21,00,AAXX 11214 41960 01440 30000 10248 20240 30126 40127 70500 83400 333 58001 70000 82618==
41960,2024,11,12,00,00,AAXX 12004 41960 01440 30000 10243 20230 30121 40123 70500 83440 333 59002 70000 82618==
41960,2024,11,12,03,00,AAXX 12034 41960 01450 50000 10280 20220 30138 40139 70520 83430 333 20241 59002 70000 82618 83362==
41960,2024,11,12,06,00,AAXX 12064 41960 01450 30902 10312 20220 30122 40124 70520 83441 333 59002 70000 82618==
41960,2024,11,12,09,00,AAXX 12094 41960 01450 23602 10310 20230 30099 40101 70500 81531 333 59006 70000 81618==
41960,2024,11,12,12,00,AAXX 12124 41960 01450 80000 10284 20230 30096 40098 70521 8352/ 333 10320 59008 70000 83618 88459==
41960,2024,11,12,15,00,AAXX 12154 41960 01440 60000 10265 20240 30115 40116 70522 83510 333 59012 70000 83618 86459==
41960,2024,11,12,18,00,AAXX 12184 41960 01440 80000 10254 20220 30114 40115 70500 8542/ 333 59015 70000 84618 88459==
41960,2024,11,12,21,00,AAXX 12214 41960 01440 40000 10240 20220 30111 40113 70521 83410 333 59015 70000 82618 84460==
41960,2024,11,13,00,00,AAXX 13004 41960 01540 20000 10232 20220 30109 40111 70521 81141 333 59012 70000 81825==
41960,2024,11,13,03,00,AAXX 13034 41960 01950 03602 10268 20220 30130 40132 70500 333 20228 59008 70000==
41960,2024,11,13,06,00,AAXX 13064 41960 02956 03603 10302 20200 30119 40120 333 59003 70000==
41960,2024,11,13,09,00,AAXX 13094 41960 02956 03602 10308 20200 30095 40097 333 59004 70000==
41960,2024,11,13,12,00,AAXX 13124 41960 01940 00000 10258 20230 30100 40102 70500 333 10315 58004 70000==
41960,2024,11,13,15,00,AAXX 13154 41960 01940 00000 10240 20230 30119 40121 70500 333 58004 70000==
41960,2024,11,13,18,00,AAXX 13184 41960 01940 00000 10233 20230 30121 40122 70500 333 58007 70000==
41960,2024,11,13,21,00,AAXX 13214 41960 01935 00000 10225 20225 30122 40124 70500 333 58011 70000==
41960,2024,11,14,00,00,AAXX 14004 41960 01935 00000 10220 20220 30124 40126 70500 333 58015 70000==
41960,2024,11,14,03,00,AAXX 14034 41960 01950 00000 10258 20220 30142 40144 70500 333 20212 58012 70000==
41960,2024,11,14,06,00,AAXX 14064 41960 01956 03602 10298 20200 30128 40130 70500 333 58009 70000==
41960,2024,11,14,09,00,AAXX 14094 41960 01940 00000 10308 20180 30104 40106 70500 333 58009 70000==
41960,2024,11,14,12,00,AAXX 14124 41960 01940 00000 10258 20230 30106 40107 70500 333 10313 58006 70000==
41960,2024,11,14,15,00,AAXX 14154 41960 01940 00000 10230 20210 30128 40129 70500 333 58009 70000==
41960,2024,11,14,18,00,AAXX 14184 41960 01940 00000 10214 20200 30122 40124 70500 333 58001 70000==
41960,2024,11,14,21,00,AAXX 14214 41960 01920 00000 10210 20210 30124 40126 71000 333 58002 70000==
41963,2024,11,08,00,00,AAXX 08004 41963 01915 00000 10223 20223 30127 40130 71044 333 59004 70000==
41963,2024,11,08,03,00,AAXX 08034 41963 01957 00000 10290 20220 30138 40141 70140 333 20218 59005 70000==
41963,2024,11,08,06,00,AAXX 08064 41963 02957 00401 10300 20220 30123 40126 333 59007 70000==
41963,2024,11,08,09,00,AAXX 08094 41963 02957 00000 10317 20210 30107 40109 333 58001 70000==
41963,2024,11,08,12,00,AAXX 08124 41963 01930 00000 10250 20230 30113 40116 70500 333 10320 59004 70000==
41963,2024,11,08,15,00,AAXX 08154 41963 01930 00000 10237 20230 30125 40128 70544 333 59016 70000==
41963,2024,11,08,21,00,AAXX 08214 41963 01930 00000 10226 20226 30124 40127 70544 333 59006 70000==
41963,2024,11,09,00,00,AAXX 09004 41963 01930 00000 10220 20220 30130 40133 70544 333 58003 70000==
41963,2024,11,09,03,00,AAXX 09034 41963 01956 00000 10290 20220 30142 40145 70140 333 20218 58004 70000==
41963,2024,11,09,06,00,AAXX 09064 41963 02957 00000 10310 20190 30125 40127 333 58002 70000==
41963,2024,11,09,09,00,AAXX 09094 41963 NIL=
41963,2024,11,09,12,00,AAXX 09124 41963 02957 00000 10318 20200 30113 40115 333 58006 70000==
41963,2024,11,09,15,00,AAXX 09154 41963 01930 00000 10232 20220 30135 40138 70544 333 58010 70000==
41963,2024,11,09,18,00,AAXX 09184 41963 01930 00000 10224 20210 30133 40136 70544 333 58008 70000==
41963,2024,11,09,21,00,AAXX 09214 41963 01930 00000 10224 20224 30137 40140 70544 333 58013 70000==
41963,2024,11,10,00,00,AAXX 10004 41963 01940 00000 10230 20230 30131 40134 70544 333 58001 70000==
41963,2024,11,10,03,00,AAXX 10034 41963 01950 00401 10300 20230 30145 40148 70140 333 20223 58003 70000==
41963,2024,11,10,06,00,AAXX 10064 41963 02/57 30000 10315 20230 30132 40134 83030 333 58017 70000 83363==
41963,2024,11,10,09,00,AAXX 10094 41963 02456 50000 10313 20230 30102 40104 84510 333 59011 70000 84618 85459==
41963,2024,11,10,12,00,AAXX 10124 41963 01440 50000 10275 20260 30122 40124 70522 83530 333 10325 58006 70000 83618 83363==
41963,2024,11,10,15,00,AAXX 10154 41963 02440 40000 10265 20260 30125 40127 83530 333 59010 70000 83618==
41963,2024,11,10,21,00,AAXX 10214 41963 01/30 30000 10254 20254 30127 40130 70544 83030 333 59010 70000 83363==
41963,2024,11,11,00,00,AAXX 11004 41963 01/30 30000 10250 20250 30128 40131 70544 83030 333 59003 70000 83363==
41963,2024,11,11,03,00,AAXX 11034 41963 01950 00000 10308 20250 30131 40134 70540 333 20243 59014 70000==
41963,2024,11,11,06,00,AAXX 11064 41963 01450 30000 10315 20250 30114 40117 70510 83400 333 59018 70000 82618==
41963,2024,11,11,09,00,AAXX 11094 41963 01450 30000 10325 20230 30095 40098 70511 82430 333 59007 70000 81618==
41963,2024,11,11,12,00,AAXX 11124 41963 01440 30000 10272 20260 30103 40106 70511 82431 333 10332 59019 70000 81618==
41963,2024,11,11,15,00,AAXX 11154 41963 01930 00000 10260 20250 30130 40133 70500 333 58005 70000==
41963,2024,11,11,18,00,AAXX 11184 41963 NIL=
41963,2024,11,12,00,00,AAXX 12004 41963 01930 00000 10242 20240 30118 40121 70500 333 59010 70000==
41963,2024,11,12,03,00,AAXX 12034 41963 02956 00000 10300 20230 30136 40139 333 20238 58005 70000==
41963,2024,11,12,06,00,AAXX 12064 41963 02956 00000 10320 20230 30123 40126 333 58009 70000==
41963,2024,11,12,09,00,AAXX 12094 41963 02956 00000 10320 20230 30125 40128 333 58030 70000==
41963,2024,11,12,12,00,AAXX 12124 41963 01/40 20000 10270 20250 30100 40102 70511 82030 333 10325 59003 70000 82363==
41963,2024,11,12,15,00,AAXX 12154 41963 NIL=
41963,2024,11,12,18,00,AAXX 12184 41963 NIL=
41963,2024,11,13,03,00,AAXX 13034 41963 02956 00402 10293 20210 30117 40120 333 20243 59019 70000==
41963,2024,11,13,06,00,AAXX 13064 41963 NIL=
41963,2024,11,13,12,00,AAXX 13124 41963 NIL=
41963,2024,11,13,15,00,AAXX 13154 41963 NIL=
41963,2024,11,14,03,00,AAXX 14034 41963 NIL=
41963,2024,11,14,06,00,AAXX 14064 41963 02956 00402 10300 20210 30119 40122 333 58014 70000==
41963,2024,11,14,09,00,AAXX 14094 41963 02956 00802 10275 20220 30128 40131 333 20210 58011 70000==
41963,2024,11,14,12,00,AAXX 14124 41963 NIL=
41963,2024,11,14,18,00,AAXX 14184 41963 NIL=
41964,2024,11,08,00,00,AAXX 08004 41964 01940 00000 10224 20220 30122 40124 70500 333 59009 70000==
41964,2024,11,08,06,00,AAXX 08064 41964 42457 10000 10313 20210 30117 40120 81500 333 58008 81620==
41964,2024,11,08,09,00,AAXX 08094 41964 02457 10000 10320 20200 30098 40100 81500 333 59008 70000 81620==
41964,2024,11,08,12,00,AAXX 08124 41964 02956 00000 10262 20240 30100 40102 333 10325 59006 70000==
41964,2024,11,08,15,00,AAXX 08154 41964 NIL=
41964,2024,11,08,21,00,AAXX 08214 41964 01940 00000 10224 20220 30121 40123 70500 333 59003 70000==
41964,2024,11,09,00,00,AAXX 09004 41964 01950 00000 10222 20220 30118 40120 70500 333 59004 70000==
41964,2024,11,09,03,00,AAXX 09034 41964 02956 00000 10287 20230 30129 40131 333 20210 58002 70000==
41964,2024,11,09,06,00,AAXX 09064 41964 02957 03601 10325 20220 30111 40113 333 59006 70000==
41964,2024,11,09,09,00,AAXX 09094 41964 02957 00000 10322 20220 30099 40102 333 58001 70000==
41964,2024,11,09,12,00,AAXX 09124 41964 02956 00000 10270 20250 30102 40105 333 10331 58002 70000==
41964,2024,11,09,15,00,AAXX 09154 41964 01950 00000 10244 20230 30121 40123 70500 333 58010 70000==
41964,2024,11,09,18,00,AAXX 09184 41964 01950 00000 10242 20230 30129 40132 70500 333 58006 70000==
41964,2024,11,09,21,00,AAXX 09214 41964 01950 00000 10234 20230 30124 40126 70500 333 58003 70000==
41964,2024,11,10,00,00,AAXX 10004 41964 02/50 50000 10231 20230 30120 40122 85010 333 58002 70000 85460==
41964,2024,11,10,03,00,AAXX 10034 41964 02956 00000 10300 20250 30133 40135 333 20220 58004 70000==
41964,2024,11,10,06,00,AAXX 10064 41964 02/57 33601 10325 20210 30120 40122 83010 333 58009 70000 83460==
41964,2024,11,10,09,00,AAXX 10094 41964 02457 60000 10310 20230 30108 40111 83510 333 58009 70000 83618 85460==
41964,2024,11,10,12,00,AAXX 10124 41964 02456 60000 10282 20260 30105 40108 83510 333 10337 58003 70000 83618 85460==
41964,2024,11,10,15,00,AAXX 10154 41964 NIL=
41964,2024,11,10,18,00,AAXX 10184 41964 02950 50000 10258 20250 30125 40127 83510 333 59005 70000 83618 84460==
41964,2024,11,11,06,00,AAXX 11064 41964 02457 20000 10323 20230 30113 40115 82500 333 59007 70000 82620==
41964,2024,11,11,09,00,AAXX 11094 41964 02457 20000 10325 20230 30094 40096 82500 333 59014 70000 82620==
41964,2024,11,11,12,00,AAXX 11124 41964 02956 00000 10278 20260 30102 40105 333 10345 59003 70000==
41964,2024,11,11,15,00,AAXX 11154 41964 01/50 40000 10261 20250 30124 40127 70521 84010 333 58006 70000 84460==
41964,2024,11,11,18,00,AAXX 11184 41964 NIL=
41964,2024,11,11,21,00,AAXX 11214 41964 01/50 50000 10254 20240 30123 40125 70521 85010 333 59003 70000 85460==
41964,2024,11,12,00,00,AAXX 12004 41964 01/50 50000 10250 20240 30118 40121 70522 85030 333 59012 70000 85365==
41964,2024,11,12,03,00,AAXX 12034 41964 02/56 30000 10307 20230 30130 40133 83010 333 20240 59003 70000 83460==
41964,2024,11,12,06,00,AAXX 12064 41964 02457 20000 10330 20230 30105 40107 82500 333 59008 70000 82620==
41964,2024,11,12,09,00,AAXX 12094 41964 02957 00000 10325 20240 30087 40090 333 59007 70000==
41964,2024,11,12,12,00,AAXX 12124 41964 02/56 40000 10275 20250 30089 40092 83012 333 10336 59013 70000 83460==
41964,2024,11,12,15,00,AAXX 12154 41964 01/50 50000 10256 20250 30107 40110 70522 85011 333 59017 70000 85460==
41964,2024,11,12,18,00,AAXX 12184 41964 NIL=
41964,2024,11,12,21,00,AAXX 12214 41964 01/50 50000 10244 20230 30110 40112 70522 85030 333 59013 70000 85365==
41964,2024,11,13,00,00,AAXX 13004 41964 01/56 50000 10240 20230 30112 40114 70522 85030 333 59006 70000 85365==
41964,2024,11,13,03,00,AAXX 13034 41964 02/57 40000 10296 20220 30125 40128 82011 333 20229 59005 70000 82460 83080==
41964,2024,11,13,06,00,AAXX 13064 41964 42957 03601 10312 20210 30108 40111 58003==
41964,2024,11,13,12,00,AAXX 13124 41964 02956 00000 10256 20230 30092 40095 333 10326 58003 70000==
41964,2024,11,13,15,00,AAXX 13154 41964 02950 00000 10242 20230 30101 40104 333 59006 70000==
41964,2024,11,13,21,00,AAXX 13214 41964 01950 00000 10214 20210 30116 40119 70500 333 58006 70000==
41964,2024,11,14,00,00,AAXX 14004 41964 01950 00000 10212 20210 30120 40123 70500 333 58008 70000==
41964,2024,11,14,03,00,AAXX 14034 41964 02956 00502 10285 20220 30136 40139 333 20200 58011 70000==
41964,2024,11,14,06,00,AAXX 14064 41964 NIL=
41964,2024,11,14,09,00,AAXX 14094 41964 NIL=
41964,2024,11,14,12,00,AAXX 14124 41964 02956 00000 10243 20220 30102 40105 333 10319 58010 70000==
41964,2024,11,14,15,00,AAXX 14154 41964 02957 03501 10310 20200 30109 40111 333 58004 70000==
41964,2024,11,14,18,00,AAXX 14184 41964 NIL=
41964,2024,11,14,21,00,AAXX 14214 41964 01940 00000 10214 20210 30120 40122 70500 333 58004 70000==
41965,2024,11,08,00,00,AAXX 08004 41965 01918 00000 10222 20210 30133 40142 71000 333 58010 70000==
41965,2024,11,08,03,00,AAXX 08034 41965 01930 00000 10288 20210 30133 40142 70500 333 20215 58000 70000==
41965,2024,11,08,06,00,AAXX 08064 41965 02956 00000 10310 20220 30117 40126 333 59003 70000==
41965,2024,11,08,09,00,AAXX 08094 41965 02456 61402 10295 20240 30094 40103 84530 333 59001 70000 84618 86362==
41965,2024,11,08,12,00,AAXX 08124 41965 01440 41402 10260 20240 30104 40113 70521 84500 333 10325 59003 70000 84618==
41965,2024,11,08,15,00,AAXX 08154 41965 01430 20000 10250 20230 30122 40131 70511 82500 333 59012 70000 82618==
41965,2024,11,08,21,00,AAXX 08214 41965 01920 00000 10232 20220 30120 40129 71000 333 59005 70000==
41965,2024,11,09,00,00,AAXX 09004 41965 01915 00000 10220 20210 30128 40137 71000 333 59005 70000==
41965,2024,11,09,03,00,AAXX 09034 41965 01950 00000 10300 20210 30132 40142 70500 333 20215 59001 70000==
41965,2024,11,09,06,00,AAXX 09064 41965 02956 01802 10328 20200 30119 40128 333 58002 70000==
41965,2024,11,09,09,00,AAXX 09094 41965 NIL=
41965,2024,11,09,12,00,AAXX 09124 41965 02956 00000 10330 20210 30108 40117 333 58014 70000==
41965,2024,11,09,15,00,AAXX 09154 41965 01920 00000 10236 20210 30124 40133 70500 333 58001 70000==
41965,2024,11,10,00,00,AAXX 10004 41965 01910 00000 10200 20190 30135 40144 71000 333 58007 70000==
41965,2024,11,10,03,00,AAXX 10034 41965 01940 01302 10285 20220 30137 40146 70500 333 20198 58005 70000==
41965,2024,11,10,06,00,AAXX 10064 41965 02956 00000 10330 20190 30126 40135 333 58007 70000==
41965,2024,11,10,09,00,AAXX 10094 41965 02956 00000 10320 20210 30099 40108 333 58009 70000==
41965,2024,11,10,12,00,AAXX 10124 41965 01930 00000 10270 20210 30108 40117 70500 333 10340 58005 70000==
41965,2024,11,10,15,00,AAXX 10154 41965 01925 00000 10258 20230 30126 40135 70500 333 58002 70000==
41965,2024,11,11,03,00,AAXX 11034 41965 02945 00000 10315 20220 30140 40149 333 20204 58003 70000==
41965,2024,11,11,06,00,AAXX 11064 41965 02956 00000 10335 20240 30116 40125 333 59010 70000==
41965,2024,11,11,09,00,AAXX 11094 41965 02956 00000 10330 20210 30091 40100 333 59008 70000==
41965,2024,11,11,12,00,AAXX 11124 41965 01940 00000 10290 20240 30096 40105 70500 333 10340 59012 70000==
41965,2024,11,11,15,00,AAXX 11154 41965 01925 00000 10255 20240 30119 40128 70500 333 59007 70000==
41965,2024,11,11,18,00,AAXX 11184 41965 NIL=
41965,2024,11,12,00,00,AAXX 12004 41965 01910 00000 10215 20210 30139 40148 71000 333 59004 70000==
41965,2024,11,12,03,00,AAXX 12034 41965 01940 00000 10305 20220 30127 40136 70500 333 20200 59013 70000==
41965,2024,11,12,06,00,AAXX 12064 41965 02965 00000 10330 20210 30109 40118 333 59007 70000==
41965,2024,11,12,09,00,AAXX 12094 41965 02456 43102 10335 20210 30083 40092 84500 333 59008 70000 84618==
41965,2024,11,12,12,00,AAXX 12124 41965 01440 30000 10270 20220 30087 40096 70521 83600 333 10342 59009 70000 83618==
41965,2024,11,12,15,00,AAXX 12154 41965 01930 00000 10245 20230 30105 40114 70500 333 59014 70000==
41965,2024,11,12,18,00,AAXX 12184 41965 NIL=
41965,2024,11,12,21,00,AAXX 12214 41965 01915 00000 10225 20220 30102 40111 71000 333 59020 70000==
41965,2024,11,13,00,00,AAXX 13004 41965 01910 00000 10215 20210 30100 40109 71000 333 59039 70000==
41965,2024,11,13,03,00,AAXX 13034 41965 01950 00000 10298 20160 30121 40130 70500 333 20208 59006 70000==
41965,2024,11,13,06,00,AAXX 13064 41965 02956 00000 10325 20190 30103 40112 333 59006 70000==
41965,2024,11,13,09,00,AAXX 13094 41965 02956 00000 10330 20180 30082 40091 333 59001 70000==
41965,2024,11,13,12,00,AAXX 13124 41965 01930 00000 10245 20230 30091 40101 70500 333 10340 58004 70000==
41965,2024,11,13,15,00,AAXX 13154 41965 01930 03102 10230 20200 30106 40115 70500 333 58005 70000==
41965,2024,11,14,03,00,AAXX 14034 41965 01940 00000 10280 20200 30131 40140 70500 333 20194 58010 70000==
41965,2024,11,14,06,00,AAXX 14064 41965 02956 00000 10320 20180 30115 40124 333 58012 70000==
41965,2024,11,14,09,00,AAXX 14094 41965 02956 00000 10315 20170 30092 40101 333 58010 70000==
41965,2024,11,14,12,00,AAXX 14124 41965 01930 00000 10245 20220 30096 40105 70500 333 10330 58005 70000==
41965,2024,11,14,15,00,AAXX 14154 41965 01930 00000 10205 20190 30119 40128 70500 333 58013 70000==
41965,2024,11,14,18,00,AAXX 14184 41965 NIL=
41966,2024,11,08,00,00,AAXX 08004 41966 02440 40901 10202 20190 30053 40134 82510 333 58001 70000 82616 83460==
41966,2024,11,08,03,00,AAXX 08034 41966 02450 40501 10270 20210 30073 40153 82510 333 20195 58001 70000 82616 83460==
41966,2024,11,08,06,00,AAXX 08064 41966 02550 40000 10290 20170 30048 40127 82130 333 58000 70000 82826 83362==
41966,2024,11,08,09,00,AAXX 08094 41966 02550 40501 10305 20110 30031 40109 82130 333 58000 70000 82826 83362==
41966,2024,11,08,12,00,AAXX 08124 41966 02530 40000 10246 20220 30041 40121 82130 333 10308 59005 70000 82826 83362==
41966,2024,11,08,15,00,AAXX 08154 41966 02420 50000 10235 20230 30054 40134 82510 333 59003 70000 82616 84460==
41966,2024,11,08,21,00,AAXX 08214 41966 02420 60000 10225 20220 30046 40126 83510 333 59005 70000 83616 85460==
41966,2024,11,09,00,00,AAXX 09004 41966 02420 50000 10230 20220 30051 40131 82510 333 59001 70000 82616 84460==
41966,2024,11,09,03,00,AAXX 09034 41966 02550 40501 10270 20210 30063 40143 82130 333 20210 59010 70000 82826 83362==
41966,2024,11,09,06,00,AAXX 09064 41966 02550 40401 10310 20130 30058 40136 82130 333 58009 70000 82826 83362==
41966,2024,11,09,09,00,AAXX 09094 41966 02/50 30000 10310 20100 30033 40112 83030 333 58003 70000 83362==
41966,2024,11,09,12,00,AAXX 09124 41966 02/30 30501 10250 20220 30041 40120 83030 333 10315 59001 70000 83362==
41966,2024,11,09,15,00,AAXX 09154 41966 02420 40401 10245 20240 30054 40134 82510 333 58000 70000 82616 84460==
41966,2024,11,09,21,00,AAXX 09214 41966 02420 50000 10225 20220 30050 40131 82510 333 58005 70000 82616 84460==
41966,2024,11,10,00,00,AAXX 10004 41966 02430 50000 10220 20210 30053 40134 82510 333 58002 70000 82616 84460==
41966,2024,11,10,03,00,AAXX 10034 41966 02450 40501 10280 20230 30073 40152 82510 333 20210 58009 70000 82616 83460==
41966,2024,11,10,06,00,AAXX 10064 41966 02550 40901 10315 20170 30053 40131 82130 333 59005 70000 82826 83362==
41966,2024,11,10,09,00,AAXX 10094 41966 02550 40901 10310 20120 30035 40113 82130 333 58001 70000 82826 83362==
41966,2024,11,10,12,00,AAXX 10124 41966 02430 60000 10260 20230 30045 40124 333 10320 58004 70000 82616 85460==
41966,2024,11,10,15,00,AAXX 10154 41966 02420 60000 10250 20240 30056 40136 82510 333 58002 70000 82616 85460==
41966,2024,11,11,03,00,AAXX 11034 41966 02450 50501 10300 20250 30070 40149 82510 333 20232 59003 70000 82616 84460==
41966,2024,11,11,06,00,AAXX 11064 41966 02550 50901 10320 20210 30056 40134 82130 333 58003 70000 82826 83362==
41966,2024,11,11,09,00,AAXX 11094 41966 02550 40000 10330 20210 30025 40103 81130 333 59010 70000 81826 83362==
41966,2024,11,11,12,00,AAXX 11124 41966 02430 40000 10275 20250 30033 40112 82510 333 10332 59012 70000 82616 83460==
41966,2024,11,11,15,00,AAXX 11154 41966 02420 40901 10258 20250 30057 40137 82510 333 58001 70000 82616 83460==
41966,2024,11,11,18,00,AAXX 11184 41966 NIL=
41966,2024,11,11,21,00,AAXX 11214 41966 02420 50000 10245 20245 30053 40133 82510 333 59002 70000 82616 84460==
41966,2024,11,12,00,00,AAXX 12004 41966 02440 50901 10240 20240 30050 40130 82510 333 59003 70000 82616 84460==
41966,2024,11,12,03,00,AAXX 12034 41966 02/50 30000 10275 20240 30066 40145 83030 333 20230 59004 70000 83362==
41966,2024,11,12,06,00,AAXX 12064 41966 02956 00000 10320 20230 30041 40118 333 59015 70000==
41966,2024,11,12,09,00,AAXX 12094 41966 02456 43602 10330 20220 30018 40095 84800 333 59007 70000 81616 83825==
41966,2024,11,12,12,00,AAXX 12124 41966 02/40 60000 10270 20250 30044 40124 83031 333 10332 58011 70000 83362 83080==
41966,2024,11,12,15,00,AAXX 12154 41966 02/30 30000 10248 20230 30041 40121 83030 333 59016 70000 83362==
41966,2024,11,12,18,00,AAXX 12184 41966 02420 70000 10240 20220 30038 40118 83510 333 59017 70000 83615 87458==
41966,2024,11,12,21,00,AAXX 12214 41966 02420 70000 10235 20220 30038 40118 83510 333 59018 70000 83615 87458==
41966,2024,11,13,00,00,AAXX 13004 41966 02440 70000 10230 20210 30037 40117 83501 333 59013 70000 83615 85080==
41966,2024,11,13,03,00,AAXX 13034 41966 02950 03102 10288 20220 30057 40136 333 20225 59009 70000==
41966,2024,11,13,06,00,AAXX 13064 41966 02956 00902 10315 20230 30036 40114 333 59005 70000==
41966,2024,11,13,09,00,AAXX 13094 41966 02956 00000 10325 20220 30016 40093 333 59002 70000==
41966,2024,11,13,12,00,AAXX 13124 41966 02940 00000 10256 20230 30021 40100 333 10325 59023 70000==
41966,2024,11,13,15,00,AAXX 13154 41966 02930 00501 10235 20230 30045 40125 333 58004 70000==
41966,2024,11,13,18,00,AAXX 13184 41966 02930 03102 10225 20210 30045 40125 333 58007 70000==
41966,2024,11,13,21,00,AAXX 13214 41966 02930 00000 10215 20210 30047 40127 333 58009 70000==
41966,2024,11,14,00,00,AAXX 14004 41966 01930 00000 10210 20200 30049 40130 70500 333 58012 70000==
41966,2024,11,14,03,00,AAXX 14034 41966 02940 00501 10265 20210 30049 40128 333 20205 59008 70000==
41966,2024,11,14,06,00,AAXX 14064 41966 02950 00401 10295 20150 30033 40112 333 59002 70000==
41966,2024,11,14,09,00,AAXX 14094 41966 02950 03602 10305 20200 30027 40105 333 58011 70000==
41966,2024,11,14,12,00,AAXX 14124 41966 02940 00000 10250 20220 30028 40107 333 10326 58007 70000==
41966,2024,11,14,15,00,AAXX 14154 41966 02940 00000 10213 20200 30053 40134 333 58008 70000==
41966,2024,11,14,18,00,AAXX 14184 41966 02940 00000 10200 20190 30051 40132 333 58006 70000==
41966,2024,11,14,21,00,AAXX 14214 41966 02940 00000 10195 20190 30053 40134 333 58006 70000==
41977,2024,11,08,00,00,AAXX 08004 41977 01950 00000 10228 20220 30106 40144 70500 333 58002 70000==
41977,2024,11,08,03,00,AAXX 08034 41977 01956 01002 10288 20230 30117 40155 70500 333 20223 59002 70000==
41977,2024,11,08,06,00,AAXX 08064 41977 01456 50402 10295 20220 30096 40133 70520 82510 333 59006 70000 82618 84362==
41977,2024,11,08,09,00,AAXX 08094 41977 01456 30000 10317 20200 30078 40166 70511 83400 333 59005 70000 82618==
41977,2024,11,08,12,00,AAXX 08124 41977 41956 00000 10254 20220 30092 40131 70510 333 10330 59007==
41977,2024,11,08,15,00,AAXX 08154 41977 01950 00000 10244 20220 30110 40149 70500 333 59002 70000==
41977,2024,11,08,18,00,AAXX 08184 41977 01950 00000 10238 20230 30105 40143 70500 333 59005 70000==
41977,2024,11,08,21,00,AAXX 08214 41977 01950 00000 10230 20220 30100 40138 70500 333 59012 70000==
41977,2024,11,09,00,00,AAXX 09004 41977 01950 00000 10226 20226 30103 40141 70500 333 59003 70000==
41977,2024,11,09,03,00,AAXX 09034 41977 01956 00902 10282 20210 30118 40157 70500 333 20222 58001 70000==
41977,2024,11,09,06,00,AAXX 09064 41977 01956 32602 10318 20210 30103 40140 70510 83300 333 58007 70000 83362==
41977,2024,11,09,09,00,AAXX 09094 41977 NIL=
41977,2024,11,09,12,00,AAXX 09124 41977 01956 00000 10256 20230 30088 40126 70510 333 10323 59004 70000==
41977,2024,11,09,15,00,AAXX 09154 41977 01956 00000 10245 20240 30105 40143 70500 333 59005 70000==
41977,2024,11,09,18,00,AAXX 09184 41977 01950 00000 10242 20230 30106 40145 70500 333 58001 70000==
41977,2024,11,09,21,00,AAXX 09214 41977 01940 00000 10240 20230 30104 40143 70500 333 58004 70000==
41977,2024,11,10,00,00,AAXX 10004 41977 01440 80000 10242 20230 30101 40139 70522 8532/ 333 59002 70000 84617 88460 81928==
41977,2024,11,10,03,00,AAXX 10034 41977 01445 40000 10276 20230 30134 40172 70522 84530 333 20233 58016 70000 83618 84360==
41977,2024,11,10,06,00,AAXX 10064 41977 01450 32902 10330 20200 30103 40141 70521 82530 333 58000 70000 82618 83360==
41977,2024,11,10,09,00,AAXX 10094 41977 42456 73102 10318 20210 30084 40124 58000 87363==
41977,2024,11,10,12,00,AAXX 10124 41977 01456 70000 10284 20230 30094 40132 70522 84530 333 10335 58006 70000 85617 87360==
41977,2024,11,10,15,00,AAXX 10154 41977 NIL=
41977,2024,11,11,00,00,AAXX 11004 41977 11450 70000 10252 20250 30102 40140 60016 70562 83530 333 58004 70012 83617 86360==
41977,2024,11,11,03,00,AAXX 11034 41977 01950 00000 10295 20240 30119 40157 70522 333 20248 59015 70012==
41977,2024,11,11,06,00,AAXX 11064 41977 01450 52702 10325 20210 30111 40148 70522 84530 333 58011 70012 84618 84360==
41977,2024,11,11,09,00,AAXX 11094 41977 01/50 32802 10328 20210 30076 40113 70511 83030 333 59008 70012 83363==
41977,2024,11,11,12,00,AAXX 11124 41977 01450 32702 10285 20250 30088 40126 70511 82530 333 10335 59006 70012 82618 83362==
41977,2024,11,11,15,00,AAXX 11154 41977 01450 50000 10265 20250 30103 40141 70511 84530 333 59007 70012 84618 84360==
41977,2024,11,11,18,00,AAXX 11184 41977 01450 50000 10264 20250 30103 40141 70511 84530 333 59007 70012 84618 84360==
41977,2024,11,11,21,00,AAXX 11214 41977 01450 50000 10262 20250 30101 40139 70511 84530 333 59004 70000 84618 84360==
41977,2024,11,12,00,00,AAXX 12004 41977 01440 40000 10252 20240 30096 40134 70522 84530 333 70000 83618 84360==
41977,2024,11,12,03,00,AAXX 12034 41977 01450 30000 10305 20240 30131 40168 70522 82530 333 20248 58012 70000 82618 83362==
41977,2024,11,12,06,00,AAXX 12064 41977 01950 00000 10338 20210 30103 40141 70500 333 59008 70000==
41977,2024,11,12,09,00,AAXX 12094 41977 01450 32802 10330 20230 30066 40104 70511 81530 333 59010 70000 81618 83363==
41977,2024,11,12,12,00,AAXX 12124 41977 01450 52902 10278 20240 30075 40113 70521 82531 333 10345 59013 70000 82618 84080==
41977,2024,11,12,15,00,AAXX 12154 41977 01450 50000 10265 20230 30093 40131 70522 82531 333 59010 70000 82618 84080==
41977,2024,11,12,18,00,AAXX 12184 41977 01450 70000 10260 20220 30087 40125 70522 83530 333 59016 70000 83617 87363==
41977,2024,11,12,21,00,AAXX 12214 41977 01450 70000 10258 20220 30078 40125 70522 83530 333 59014 70000 83617 87363==
41977,2024,11,13,00,00,AAXX 13004 41977 01450 60000 10240 20220 30068 40123 70522 83530 333 59010 70000 83617 86363==
41977,2024,11,13,03,00,AAXX 13034 41977 01950 00000 10295 20190 30116 40154 70521 333 20230 59015 70000==
41977,2024,11,13,06,00,AAXX 13064 41977 01950 00000 10330 20170 30084 40121 70500 333 59019 70000==
41977,2024,11,13,09,00,AAXX 13094 41977 01950 03102 10324 20200 30065 40103 70500 333 59001 70000==
41977,2024,11,13,12,00,AAXX 13124 41977 01950 00000 10280 20200 30074 40112 70500 333 10338 59001 70000==
41977,2024,11,13,15,00,AAXX 13154 41977 01950 00000 10255 20220 30090 40128 70500 333 59003 70000==
41977,2024,11,13,21,00,AAXX 13214 41977 01950 00000 10240 20190 30093 40131 70500 333 58006 70000==
41977,2024,11,14,00,00,AAXX 14004 41977 01950 00000 10226 20210 30091 40130 70500 333 58005 70000==
41977,2024,11,14,03,00,AAXX 14034 41977 01950 00000 10280 20200 30108 40146 70500 333 20213 59008 70000==
41977,2024,11,14,06,00,AAXX 14064 41977 01950 02902 10315 20180 30095 40133 70500 333 58011 70000==
41977,2024,11,14,09,00,AAXX 14094 41977 01950 02802 10328 20140 30075 40112 70500 333 58010 70000==
41977,2024,11,14,12,00,AAXX 14124 41977 01950 00000 10255 20210 30080 40119 70500 333 10334 58006 70000==
41977,2024,11,14,15,00,AAXX 14154 41977 01950 00000 10244 20200 30104 40143 70500 333 58014 70000==
41977,2024,11,14,18,00,AAXX 14184 41977 01950 00000 10224 20190 30101 40140 70500 333 58006 70000==
41977,2024,11,14,21,00,AAXX 14214 41977 01950 00000 10220 20200 30095 40134 70500 333 58002 70000==
41978,2024,11,08,00,00,AAXX 08004 41978 01435 20703 10228 20220 30123 40130 70511 82500 333 58003 70000 82618==
41978,2024,11,08,03,00,AAXX 08034 41978 01950 01105 10280 20220 30136 40142 70500 333 20224 58000 70000==
41978,2024,11,08,06,00,AAXX 08064 41978 02557 33003 10298 20200 30114 40121 83200 333 59008 70000 83828==
41978,2024,11,08,09,00,AAXX 08094 41978 02558 32307 10302 20190 30094 40101 83200 333 59005 70000 83828==
41978,2024,11,08,12,00,AAXX 08124 41978 02557 23003 10284 20210 30106 40113 82100 333 10306 59007 70000 82828==
41978,2024,11,08,15,00,AAXX 08154 41978 02456 20000 10258 20230 30127 40133 82500 333 59007 70000 82618==
41978,2024,11,08,18,00,AAXX 08184 41978 02456 20000 10247 20220 30120 40126 82500 333 59012 70000 82618==
41978,2024,11,08,21,00,AAXX 08214 41978 02450 20000 10233 20220 30111 40117 82500 333 59013 70000 82618==
41978,2024,11,09,00,00,AAXX 09004 41978 01440 20404 10232 20220 30119 40125 70511 82500 333 59004 70000 82618==
41978,2024,11,09,03,00,AAXX 09034 41978 NIL=
41978,2024,11,09,06,00,AAXX 09064 41978 NIL=
41978,2024,11,09,09,00,AAXX 09093 41978 02457 32602 10310 20170 30099 40106 83400 333 58005 70000 82618==
41978,2024,11,09,12,00,AAXX 09124 41978 01450 32802 10273 20220 30109 40115 70511 83500 333 10320 58003 70000 83618==
41978,2024,11,09,15,00,AAXX 09154 41978 01450 33004 10262 20220 30125 40132 70511 82500 333 59002 70000 83618==
41978,2024,11,09,18,00,AAXX 09184 41978 01440 31003 10251 20220 30124 40130 70511 83500 333 58004 70000 83618==
41978,2024,11,09,21,00,AAXX 09214 41978 01440 30000 10241 20220 30122 40128 70511 333 58011 70000 82617==
41978,2024,11,10,00,00,AAXX 10004 41978 01435 70504 10237 20220 30124 40130 70511 83520 333 58005 70000 83617 87460==
41978,2024,11,10,03,00,AAXX 10034 41978 01456 50506 10273 20220 30140 40147 70522 83530 333 20234 58006 70000 83618 85360==
41978,2024,11,10,06,00,AAXX 10064 41978 01457 40404 10324 20200 30119 40125 70511 82530 333 58001 70000 82618 84360==
41978,2024,11,10,09,00,AAXX 10094 41978 02558 62905 10313 20200 30099 40105 82120 333 58000 70000 82828 85460==
41978,2024,11,10,12,00,AAXX 10124 41978 02458 72505 10294 20210 30114 40120 83520 333 10330 58005 70000 83617 86460==
41978,2024,11,10,15,00,AAXX 10154 41978 02457 62602 10282 20220 30129 40136 83520 333 58004 70000 83618 86460==
41978,2024,11,10,18,00,AAXX 10184 41978 02456 61002 10270 20240 30124 40131 83520 333 58000 70000 83618 85460==
41978,2024,11,10,21,00,AAXX 10214 41978 02456 70902 10268 20250 30118 40124 83420 333 59004 70000 83618 86460 81930==
41978,2024,11,11,00,00,AAXX 11004 41978 21440 70102 10264 20250 30118 40124 70562 84320 333 59006 60015 70010 83616 87460 81928==
41978,2024,11,11,03,00,AAXX 11034 41978 02456 20606 10303 20230 30134 40141 82500 333 20260 59006 70010 82618==
41978,2024,11,11,06,00,AAXX 11064 41978 02458 32902 10321 20220 30112 40119 83400 333 59006 70010 82618==
41978,2024,11,11,09,00,AAXX 11094 41978 02558 22708 10326 20210 30093 40099 82200 333 59006 70010 82828==
41978,2024,11,11,12,00,AAXX 11124 41978 02958 22604 10300 20240 30102 40108 80001 333 10331 59012 70010 82080==
41978,2024,11,11,15,00,AAXX 11154 41978 02457 32804 10293 20240 30125 40131 83500 333 59004 70010 83618==
41978,2024,11,11,18,00,AAXX 11184 41978 01456 43403 10284 20240 30121 40127 70511 83530 333 59003 70010 82618 83360==
41978,2024,11,11,21,00,AAXX 11214 41978 01456 40304 10274 20240 30115 40121 70511 83530 333 59003 70010 82618 83360==
41978,2024,11,12,00,00,AAXX 12004 41978 01435 40305 10261 20240 30114 40120 70511 83530 333 59004 70000 82618 83362==
41978,2024,11,12,03,00,AAXX 12034 41978 02558 30506 10296 20240 30129 40136 81130 333 20255 59005 70000 81825 83365==
41978,2024,11,12,06,00,AAXX 12064 41978 02559 20208 10328 20200 30106 40112 81105 333 59007 70000 81825==
41978,2024,11,12,09,00,AAXX 12094 41978 02458 33206 10317 20220 30084 40090 83400 333 59009 70000 82618==
41978,2024,11,12,12,00,AAXX 12124 41978 02457 33104 10302 20220 30087 40094 83400 333 10342 59015 70000 82618==
41978,2024,11,12,15,00,AAXX 12153 41978 02957 23402 10291 20210 30107 40113 80001 333 59018 70000 82080==
41978,2024,11,12,18,00,AAXX 12184 41978 02957 00105 10280 20220 30104 40110 333 59017 70000==
41978,2024,11,12,21,00,AAXX 12214 41978 02957 00105 10267 20230 30098 40104 333 59017 70000==
41978,2024,11,13,00,00,AAXX 13004 41978 02457 40404 10254 20210 30100 40106 82530 333 59014 70000 82618 83362==
41978,2024,11,13,03,00,AAXX 13034 41978 01957 20306 10296 20210 30121 40127 70500 80005 333 20250 59008 70000 82270==
41978,2024,11,13,06,00,AAXX 13064 41978 01557 23408 10328 20180 30102 40108 70500 81105 333 59004 70000 81825==
41978,2024,11,13,09,00,AAXX 13094 41978 01557 12809 10317 20200 30082 40089 70500 81100 333 59002 70000 81825==
41978,2024,11,13,12,00,AAXX 13124 41978 01457 13007 10298 20190 30091 40097 70500 81500 333 10336 58004 70000 81618==
41978,2024,11,13,15,00,AAXX 13154 41978 02957 03603 10284 20160 30110 40116 333 58003 70000==
41978,2024,11,13,18,00,AAXX 13184 41978 02956 00106 10267 20190 30111 40118 333 58007 70000==
41978,2024,11,13,21,00,AAXX 13214 41978 02950 00402 10249 20210 30105 40111 333 58007 70000==
41978,2024,11,14,00,00,AAXX 14004 41978 01935 00504 10240 20200 30114 40120 70500 333 58014 70000==
41978,2024,11,14,03,00,AAXX 14034 41978 01950 00209 10277 20190 30133 40140 70500 333 20233 58012 70000==
41978,2024,11,14,06,00,AAXX 14064 41978 02956 00507 10313 20160 30111 40118 333 58009 70000==
41978,2024,11,14,09,00,AAXX 14094 41978 01957 03010 10312 20180 30093 40096 70500 333 58011 70000==
41978,2024,11,14,12,00,AAXX 14124 41978 01957 23505 10290 20190 30098 40105 70500 80005 333 10318 58007 70000 82270==
41978,2024,11,14,15,00,AAXX 14154 41978 01950 03206 10278 20170 30119 40125 70500 333 58009 70000==
41978,2024,11,14,18,00,AAXX 14184 41978 01945 00304 10247 20200 30115 40122 70500 333 58004 70000==
41978,2024,11,14,21,00,AAXX 14214 41978 01945 00203 10236 20200 30105 40112 70500 333 58000 70000==
41980,2024,11,08,00,00,AAXX 08004 41980 31940 00000 10222 20210 30018 40132 70500 333 56090 59006 70000=
41980,2024,11,08,03,00,AAXX 08034 41980 31940 00000 10256 20230 30032 40145 70500 333 20204 59002 70000=
41980,2024,11,08,06,00,AAXX 08064 41980 NIL=
41980,2024,11,08,09,00,AAXX 08094 41980 32450 00000 10302 20190 39992 40103 333 56900 59012 70000 82618=
41980,2024,11,08,12,00,AAXX 08124 41980 31950 00000 10251 20220 30012 40125 70500 333 10306 58000 70000=
41980,2024,11,08,15,00,AAXX 08154 41980 NIL=
41980,2024,11,09,00,00,AAXX 09004 41980 31940 00000 10220 20210 30023 40137 70500 333 58003 70000=
41980,2024,11,09,03,00,AAXX 09034 41980 31940 00000 10266 20230 30011 40123 70500 333 20202 59023 70000=
41980,2024,11,09,06,00,AAXX 09064 41980 NIL=
41980,2024,11,09,09,00,AAXX 09094 41980 32950 00000 10304 20200 39988 40099 333 59004 70000=
41980,2024,11,09,12,00,AAXX 09124 41980 31940 00000 10252 20220 30004 40117 70500 333 10308 59008 70000=
41980,2024,11,09,15,00,AAXX 09154 41980 NIL=
41980,2024,11,10,00,00,AAXX 10004 41980 31440 60000 10218 20210 30013 40127 70522 83520 333 56990 59010 70000 83616 86459=
41980,2024,11,10,03,00,AAXX 10034 41980 31940 40000 10270 20230 30023 40135 70522 84030 333 20206 56090 58012 84362=
41980,2024,11,10,06,00,AAXX 10064 41980 NIL=
41980,2024,11,10,09,00,AAXX 10094 41980 32450 60000 10312 20220 39998 40108 83420 333 56990 58010 70000 82618 86459=
41980,2024,11,10,12,00,AAXX 10124 41980 32450 60000 10256 20230 30005 40117 83520 333 10322 56990 58001 70000 83616 86459=
41980,2024,11,10,15,00,AAXX 10154 41980 NIL=
41980,2024,11,11,00,00,AAXX 11004 41980 32450 60000 10244 20230 30005 40118 83520 333 56990 59008 70000 83618 86459=
41980,2024,11,11,03,00,AAXX 11034 41980 32950 63102 10282 20220 30031 40143 86030 333 10236 56090 58008 70000 86362=
41980,2024,11,11,09,00,AAXX 11094 41980 32450 30000 10306 20250 39996 40106 83500 333 56900 58000 70000 83618=
41980,2024,11,11,12,00,AAXX 11124 41980 32450 20000 10256 20240 39995 40107 82500 333 10316 56900 59010 70000 82618=
41980,2024,11,11,15,00,AAXX 11154 41980 NIL=
41980,2024,11,11,18,00,AAXX 11184 41980 NIL=
41980,2024,11,12,00,00,AAXX 12004 41980 32950 30000 10248 20240 30019 40145 83030 333 56090 58014 70000 83362=
41980,2024,11,12,03,00,AAXX 12034 41980 32950 43602 10288 20230 30034 40146 84030 333 20242 56090 58003 70000 84362=
41980,2024,11,12,09,00,AAXX 12094 41980 32450 23102 10316 20220 39988 40098 83500 333 56900 59008 70000 82618=
41980,2024,11,12,12,00,AAXX 12124 41980 32450 00000 10262 20230 39988 40100 333 10328 59008 70000=
41980,2024,11,12,15,00,AAXX 12154 41980 NIL=
41980,2024,11,12,18,00,AAXX 12184 41980 NIL=
41980,2024,11,13,03,00,AAXX 13034 41980 32450 32702 10272 20230 30018 40130 83400 333 20234 56900 59016 70000 83825=
41980,2024,11,13,06,00,AAXX 13064 41980 NIL=
41980,2024,11,13,09,00,AAXX 13094 41980 32450 00502 10306 20210 39982 40092 333 59006 70000=
41980,2024,11,13,12,00,AAXX 13124 41980 32950 00000 10264 20230 39983 40095 333 10318 59007 70000=
41980,2024,11,13,15,00,AAXX 13154 41980 NIL=
41980,2024,11,14,00,00,AAXX 14004 41980 31940 00000 10238 20230 30010 40123 70500 333 58006 70000=
41980,2024,11,14,03,00,AAXX 14034 41980 31940 03102 10278 20220 30022 40134 70500 333 20230 58004 70000=
41980,2024,11,14,06,00,AAXX 14064 41980 NIL=
41980,2024,11,14,09,00,AAXX 14094 41980 32956 03102 10308 20210 39992 40102 333 58010 70000=
41980,2024,11,14,12,00,AAXX 14124 41980 32950 00000 10254 20230 39998 40111 333 10316 58013 70000=
41980,2024,11,14,18,00,AAXX 14184 41980 NIL=
41984,2024,11,08,00,00,AAXX 08004 41984 02956 00000 10228 20228 30115 40117 333 58005 70000==
41984,2024,11,08,03,00,AAXX 08034 41984 02957 00000 10290 20220 30128 40130 333 20219 59002 70000==
41984,2024,11,08,06,00,AAXX 08064 41984 02957 00000 10316 20210 30116 40118 333 58001 70000==
41984,2024,11,08,09,00,AAXX 08094 41984 02457 30000 10314 20200 30095 40097 83500 333 58003 70000 83618==
41984,2024,11,08,12,00,AAXX 08124 41984 02440 30000 10263 20230 30099 40101 83500 333 10325 59005 70000 83618==
41984,2024,11,08,15,00,AAXX 08154 41984 02940 00000 10240 20230 30115 40117 333 59008 70000==
41984,2024,11,08,18,00,AAXX 08184 41984 02940 00000 10233 20230 30118 40120 333 59015 70000==
41984,2024,11,08,21,00,AAXX 08214 41984 02940 00000 10226 20226 30114 40116 333 59010 70000==
41984,2024,11,09,00,00,AAXX 09004 41984 02956 00000 10220 20220 30110 40112 333 59005 70000==
41984,2024,11,09,03,00,AAXX 09034 41984 02957 00000 10290 20220 30128 40130 333 20214 58000 70000==
41984,2024,11,09,06,00,AAXX 09064 41984 02957 00000 10320 20210 30113 40015 333 59003 70000==
41984,2024,11,09,09,00,AAXX 09094 41984 02457 30000 10306 20220 30095 40097 83500 333 58000 70000 83618==
41984,2024,11,09,12,00,AAXX 09124 41984 02440 30000 10264 20240 30103 40105 83500 333 10331 58004 70000 83618==
41984,2024,11,09,15,00,AAXX 09154 41984 02440 30000 10242 20230 30118 40120 83500 333 58003 70000 83618==
41984,2024,11,09,18,00,AAXX 09184 41984 02940 00000 10230 20230 30117 40119 333 59001 70000==
41984,2024,11,09,21,00,AAXX 09214 41984 01935 00000 10228 20228 30110 40112 70510 333 59004 70000==
41984,2024,11,10,00,00,AAXX 10004 41984 01945 00000 10225 20225 30113 40115 70510 333 58003 70000==
41984,2024,11,10,03,00,AAXX 10034 41984 02956 00000 10295 20230 30129 40131 333 20218 58001 70000==
41984,2024,11,10,06,00,AAXX 10064 41984 02457 11802 10314 20200 30118 40120 81500 333 58005 70000 81618==
41984,2024,11,10,09,00,AAXX 10094 41984 02456 50000 10305 20230 30096 40099 84410 333 58001 70000 83618 84458==
41984,2024,11,10,12,00,AAXX 10124 41984 02/45 20000 10275 20250 30101 40103 82030 333 10332 59002 70000 82362==
41984,2024,11,10,15,00,AAXX 10154 41984 02/40 20000 10270 20250 30118 40120 82030 333 58000 70000 82362==
41984,2024,11,10,18,00,AAXX 10184 41984 02440 30000 10263 20250 30114 40117 82530 333 59003 70000 82618==
41984,2024,11,11,00,00,AAXX 11004 41984 02445 40501 10255 20240 30108 40110 83530 333 59005 70000 83618==
41984,2024,11,11,03,00,AAXX 11034 41984 02450 40000 10286 20230 30125 40127 83530 333 20250 59004 70000 83618==
41984,2024,11,11,06,00,AAXX 11064 41984 02456 40000 10308 20230 30106 40109 84400 333 59012 70000 83618==
41984,2024,11,11,09,00,AAXX 11094 41984 02450 70000 10297 20240 30087 40089 84520 333 59009 70000 84618 87458==
41984,2024,11,11,12,00,AAXX 11124 41984 02445 30000 10275 20250 30099 40102 82530 333 10315 59002 70000 82618==
41984,2024,11,11,15,00,AAXX 11154 41984 02/40 20000 10257 20250 30113 40115 82030 333 59005 70000 82362==
41984,2024,11,11,18,00,AAXX 11184 41984 02440 20000 10250 20250 30116 40118 82530 333 58002 70000 82618==
41984,2024,11,12,00,00,AAXX 12004 41984 01/40 10000 10242 20230 30105 40107 70511 81031 333 59003 70000 81362==
41984,2024,11,12,03,00,AAXX 12034 41984 02/56 10000 10285 20220 30124 40126 81030 333 20238 59001 70000 81362==
41984,2024,11,12,06,00,AAXX 12064 41984 02457 33202 10320 20230 30109 40112 333 58003 70000 83500 83618==
41984,2024,11,12,09,00,AAXX 12094 41984 02457 30402 10312 20220 30089 40092 83400 333 58002 70000 82618==
41984,2024,11,12,12,00,AAXX 12124 41984 02945 20000 10270 20240 30086 40088 80001 333 10326 59013 70000 82080==
41984,2024,11,12,15,00,AAXX 12154 41984 02/40 20000 10260 20240 30101 40103 82031 333 59012 70000 82362==
41984,2024,11,12,18,00,AAXX 12184 41984 02440 20000 10250 20230 30101 40103 82530 333 59015 70000 82618==
41984,2024,11,12,21,00,AAXX 12214 41984 02440 20000 10242 20230 30096 40098 82500 333 59021 70000 82618==
41984,2024,11,13,00,00,AAXX 13004 41984 02/40 20000 10235 20220 30093 40095 82030 333 59012 70000 82362==
41984,2024,11,13,03,00,AAXX 13034 41984 02956 10502 10280 20200 30122 40124 80001 333 20230 70000==
41984,2024,11,13,06,00,AAXX 13064 41984 02957 00000 10305 20200 30098 40101 333 59011 70000==
41984,2024,11,13,09,00,AAXX 13094 41984 02957 00000 10305 20200 30081 40083 333 59008 70000==
41984,2024,11,13,12,00,AAXX 13124 41984 02945 00000 10252 20230 30087 40089 333 10320 58001 70000==
41984,2024,11,13,15,00,AAXX 13154 41984 02940 00000 10233 20220 30101 40104 333 58000 70000==
41984,2024,11,13,18,00,AAXX 13184 41984 02940 00000 10222 20210 30103 40105 333 58002 70000==
41984,2024,11,13,21,00,AAXX 13214 41984 02935 00000 10220 20210 30108 40110 333 58012 70000==
41984,2024,11,14,00,00,AAXX 14004 41984 01935 00000 10217 20217 30111 40111 70500 333 58018 70000==
41984,2024,11,14,03,00,AAXX 14034 41984 01945 00000 10265 20220 30128 40130 70500 333 20210 58006 70000==
41984,2024,11,14,06,00,AAXX 14064 41984 02956 00000 10300 20200 30111 40113 333 58013 70000==
41984,2024,11,14,09,00,AAXX 14094 41984 02956 00501 10300 20180 30094 40096 333 58013 70000==
41984,2024,11,14,12,00,AAXX 14124 41984 02940 00000 10235 20220 30095 40097 333 10310 58008 70000==
41984,2024,11,14,15,00,AAXX 14154 41984 02940 00000 10214 20200 30114 40116 333 58013 70000==
41984,2024,11,14,18,00,AAXX 14184 41984 02940 00000 10205 20200 30111 40113 333 58008 70000==
41984,2024,11,14,21,00,AAXX 14214 41984 02935 00000 10201 20200 30110 40112 333 58002 70000==
41989,2024,11,08,00,00,AAXX 08004 41989 01330 10000 10228 20220 30113 40116 70511 81500 333 59006 70000 81618==
41989,2024,11,08,03,00,AAXX 08034 41989 01440 13102 10297 20230 30129 40132 70511 81500 333 20223 59001 70000 81618==
41989,2024,11,08,06,00,AAXX 08064 41989 02450 23203 10303 20230 30123 40126 82500 333 59002 70000 82618==
41989,2024,11,08,09,00,AAXX 08094 41989 02450 13203 10308 20230 30095 40098 81500 333 59001 70000 81618==
41989,2024,11,08,12,00,AAXX 08124 41989 01440 20000 10283 20230 30088 40091 70511 82500 333 10313 58000 70000 82618==
41989,2024,11,08,15,00,AAXX 08154 41989 01430 10000 10251 20230 30119 40122 70511 81590 333 59009 70000 81618==
41989,2024,11,08,21,00,AAXX 08214 41989 01430 20000 10238 20230 30119 40122 70511 82500 333 59011 70000 82618==
41989,2024,11,09,00,00,AAXX 09004 41989 01430 10000 10230 20220 30105 40108 70511 81500 333 59008 70000 81618==
41989,2024,11,09,03,00,AAXX 09034 41989 01459 23103 10294 20220 30119 40122 70511 82500 333 20224 59011 70000 82618==
41989,2024,11,09,06,00,AAXX 09064 41989 02450 31403 10314 20240 30129 40132 83500 333 58006 70000 83618==
41989,2024,11,09,09,00,AAXX 09094 41989 02450 13104 10312 20220 30104 40107 81500 333 58009 70000 81618==
41989,2024,11,09,12,00,AAXX 09124 41989 41440 13202 10283 20230 30098 40101 70511 81500 333 10317 58010 81618==
41989,2024,11,09,15,00,AAXX 09154 41989 01450 31803 10245 20230 30127 40130 70521 83500 333 58008 70000 83618==
41989,2024,11,10,00,00,AAXX 10004 41989 01440 51303 10248 20230 30127 40130 70521 83530 333 59010 70000 83618 83362==
41989,2024,11,10,03,00,AAXX 10034 41989 02450 41402 10300 20240 30141 40144 83530 333 20235 58023 70000 83618 83362==
41989,2024,11,10,06,00,AAXX 10064 41989 02456 33103 10320 20230 30117 40120 82530 333 59012 70000 82618==
41989,2024,11,10,09,00,AAXX 10094 41989 02450 31403 10322 20230 30108 40111 83500 333 58004 70000 83618==
41989,2024,11,10,12,00,AAXX 10124 41989 02450 41803 10295 20230 30096 40100 83530 333 10334 59001 70000 83618 83362==
41989,2024,11,10,15,00,AAXX 10154 41989 01440 43202 10262 20240 30117 40120 70521 82530 333 59010 70000 82618 84362==
41989,2024,11,10,21,00,AAXX 10214 41989 01440 30000 10253 20230 30122 40125 70521 83500 333 59011 70000 83618==
41989,2024,11,11,00,00,AAXX 11004 41989 01440 20000 10248 20240 30109 40112 70521 82500 333 59018 70000 82618==
41989,2024,11,11,03,00,AAXX 11034 41989 02450 23103 10292 20230 30122 40125 82500 333 20242 59019 70000 82618==
41989,2024,11,11,09,00,AAXX 11094 41989 02450 23104 10328 20250 30096 40099 82500 333 59012 70000 82618==
41989,2024,11,11,12,00,AAXX 11124 41989 02450 33102 10296 20250 30089 40092 83500 333 10331 59007 70000 83618==
41989,2024,11,11,15,00,AAXX 11154 41989 NIL=
41989,2024,11,11,18,00,AAXX 11184 41989 NIL=
41989,2024,11,12,00,00,AAXX 12004 41989 01430 31803 10255 20240 30118 40121 70521 83500 333 58009 70000 83618==
41989,2024,11,12,03,00,AAXX 12034 41989 02450 31402 10310 20250 30129 40132 83500 333 20244 58007 70000 83618==
41989,2024,11,12,06,00,AAXX 12064 41989 02456 21804 10323 20250 30109 40112 82500 333 59011 70000 82618==
41989,2024,11,12,09,00,AAXX 12094 41989 02450 31403 10330 20240 30095 40098 83500 333 59001 70000 83618==
41989,2024,11,12,15,00,AAXX 12154 41989 01460 23102 10277 20250 30103 40107 70511 82500 333 59025 70000 82618==
41989,2024,11,12,18,00,AAXX 12184 41989 NIL=
41989,2024,11,12,21,00,AAXX 12214 41989 01440 20000 10262 20250 30106 40109 70511 82500 333 59018 70000 82618==
41989,2024,11,13,00,00,AAXX 13004 41989 01440 41702 10250 20220 30087 40090 70521 82530 333 59031 70000 82618 84362==
41989,2024,11,13,03,00,AAXX 13034 41989 02450 31804 10297 20240 30105 40108 82530 333 20236 59011 70000 82618==
41989,2024,11,13,06,00,AAXX 13064 41989 02450 41403 10315 20230 30114 40118 82530 333 58005 70000 82618 83362==
41989,2024,11,13,09,00,AAXX 13094 41989 02456 13104 20230 30082 40085 81500 333 59013 70000 81618==
41989,2024,11,13,12,00,AAXX 13124 41989 02456 13203 10285 20210 30078 40082 81500 333 10320 59006 70000 81618==
41989,2024,11,13,15,00,AAXX 13154 41989 02450 21802 10280 20230 30104 40108 82500 333 58001 70000 82618==
41989,2024,11,13,21,00,AAXX 13214 41989 01430 31403 10250 20230 30120 40123 70521 83500 333 58014 70000 83618==
41989,2024,11,14,00,00,AAXX 14004 41989 01440 21403 10238 20220 30118 40121 70521 82500 333 58031 70000 82618==
41989,2024,11,14,03,00,AAXX 14034 41989 01450 33102 10295 20230 30137 40140 70521 83500 333 20230 58032 70000 83618==
41989,2024,11,14,06,00,AAXX 14064 41989 02956 03105 10310 20210 30102 40105 333 59012 70000==
41989,2024,11,14,09,00,AAXX 14094 41989 02450 23202 10315 20210 30090 40093 82500 333 59005 70000 82618==
41989,2024,11,14,12,00,AAXX 14124 41989 02450 23202 10290 20240 30083 40087 82500 333 10330 58005 70000 82616==
41989,2024,11,14,15,00,AAXX 14154 41989 01450 13102 10258 20210 30116 40119 70511 81500 333 58012 70000 81618==
41989,2024,11,14,18,00,AAXX 14184 41989 NIL=
41989,2024,11,14,21,00,AAXX 14214 41989 01440 20000 10242 20210 30119 40122 70511 82500 333 59001 70000 82618==
41992,2024,11,08,00,00,AAXX 08004 41992 01925 01202 10235 20220 30128 40130 70500 333 58002 70000==
41992,2024,11,08,03,00,AAXX 08034 41992 01935 00000 10293 20210 30140 40142 70500 333 20228 59003 70000==
41992,2024,11,08,06,00,AAXX 08064 41992 333 59006 70000 82616==
41992,2024,11,08,09,00,AAXX 08094 41992 01430 22406 10312 20210 30103 40105 70510 82500 333 59002 70000 82616==
41992,2024,11,08,12,00,AAXX 08124 41992 01925 03302 10280 20200 30114 40116 70500 333 10320 58000 70000==
41992,2024,11,08,15,00,AAXX 08154 41992 01925 00000 10250 20230 30133 40135 70500 333 59010 70000==
41992,2024,11,08,18,00,AAXX 08184 41992 01925 00000 10245 20230 30127 40129 70500 333 59009 70000==
41992,2024,11,08,21,00,AAXX 08214 41992 01925 00000 10240 20220 30111 40113 70500 333 58005 70000==
41992,2024,11,09,00,00,AAXX 09004 41992 01925 00000 10235 20220 30126 40128 70500 333 59002 70000==
41992,2024,11,09,03,00,AAXX 09034 41992 01930 00000 10290 20220 30140 40142 70500 333 20230 58000 70000==
41992,2024,11,09,06,00,AAXX 09064 41992 01935 02105 10317 20200 30124 40126 70500 333 58003 70000==
41992,2024,11,09,09,00,AAXX 09093 41992 01935 03303 10315 20210 30105 40107 70500 333 58002 70000==
41992,2024,11,09,12,00,AAXX 09124 41992 01430 30000 10280 20200 30116 40118 70510 83500 333 10330 58002 70000 83616==
41992,2024,11,09,15,00,AAXX 09154 41992 01430 60000 10270 20230 30133 40135 70511 83530 333 58000 70000 83616 86362==
41992,2024,11,09,18,00,AAXX 09184 41992 01430 70000 10266 20230 30127 40129 70521 84530 333 58000 70000 84616 87362==
41992,2024,11,09,21,00,AAXX 09214 41992 01425 61502 10262 20230 30116 40118 70522 84530 333 58005 70000 84616 86362==
41992,2024,11,10,00,00,AAXX 10004 41992 01425 60902 10260 20240 30124 40126 70522 84520 333 59002 70000 84615 86460==
41992,2024,11,10,03,00,AAXX 10034 41992 01430 40000 10300 20220 30140 40142 70521 84500 333 20258 58000 70000 84616==
41992,2024,11,10,06,00,AAXX 10064 41992 01435 30000 10317 20230 30124 40126 70521 83500 333 58000 70000 83616==
41992,2024,11,10,09,00,AAXX 10094 41992 01430 62102 10315 20220 30107 40109 70522 84520 333 58002 70000 84615 86460==
41992,2024,11,10,12,00,AAXX 10124 41992 01425 61802 10280 20220 30116 40118 70522 84520 333 10320 58000 70000 84615 86460==
41992,2024,11,10,15,00,AAXX 10154 41992 01425 60000 10277 20240 30136 40138 70522 83530 333 58003 70000 83616 86362==
41992,2024,11,10,18,00,AAXX 10184 41992 01425 70000 10270 20230 30128 40130 70522 84530 333 58001 70000 84616 87362==
41992,2024,11,10,21,00,AAXX 10214 41992 01425 60000 10265 20250 30116 40118 70522 84530 333 58000 70000 84616 86362==
41992,2024,11,11,00,00,AAXX 11004 41992 01425 60302 10255 20240 30122 40124 70522 84530 333 59002 70000 84616 86362==
41992,2024,11,11,03,00,AAXX 11034 41992 01935 03606 10308 20230 30138 40140 70522 333 20250 59002 70000==
41992,2024,11,11,06,00,AAXX 11064 41992 01935 03004 10327 20230 30120 40122 70520 333 59004 70000==
41992,2024,11,11,09,00,AAXX 11094 41992 01930 00302 10325 20230 30100 40102 70500 333 59016 70000==
41992,2024,11,11,12,00,AAXX 11124 41992 01425 43302 10292 20220 30109 40111 70521 84001 333 10338 59007 70000 84080==
41992,2024,11,11,15,00,AAXX 11154 41992 01925 00000 10268 20250 30131 40133 70510 333 59005 70000==
41992,2024,11,11,18,00,AAXX 11184 41992 01925 00000 10260 20240 30127 40129 70510 333 59001 70000==
41992,2024,11,11,21,00,AAXX 11214 41992 01425 60000 10258 20240 30111 40113 70522 84530 333 59005 70000 84616 86462==
41992,2024,11,12,00,00,AAXX 12004 41992 01425 60000 10255 20240 30116 40118 70522 84530 333 59006 70000 84616 86362==
41992,2024,11,12,03,00,AAXX 12034 41992 01930 23004 10308 20250 30131 40133 70522 80001 333 20250 59007 70000 82080==
41992,2024,11,12,06,00,AAXX 12064 41992 01435 22106 10332 20210 30111 40113 70521 82500 333 59009 70000 82616==
41992,2024,11,12,09,00,AAXX 12094 41992 01535 22705 10315 20240 30090 40092 70511 82100 333 59010 70000 82825==
41992,2024,11,12,12,00,AAXX 12124 41992 01930 00000 10290 20240 30095 40097 70510 333 10340 59014 70000==
41992,2024,11,12,15,00,AAXX 12153 41992 01925 33401 10270 20250 30110 40112 70500 80001 333 59021 70000 83080==
41992,2024,11,12,18,00,AAXX 12184 41992 01925 20000 10267 20250 30107 40109 70510 80001 333 59020 70000 82080==
41992,2024,11,12,21,00,AAXX 12214 41992 01425 60000 10265 20240 30091 40093 70522 84530 333 59019 70000 84616 86362==
41992,2024,11,13,00,00,AAXX 13004 41992 01425 60000 10260 20240 30102 40104 70522 84530 333 59014 70000 84616 86362==
41992,2024,11,13,03,00,AAXX 13034 41992 01/30 30000 10300 20220 30125 40127 70521 83030 333 20255 59006 70000 83362==
41992,2024,11,13,06,00,AAXX 13064 41992 01935 03305 10328 20220 30103 40105 70520 333 59008 70000==
41992,2024,11,13,09,00,AAXX 13094 41992 01930 03312 10325 20220 30086 40088 70500 333 59004 70000==
41992,2024,11,13,12,00,AAXX 13124 41992 01925 03305 10290 20220 30092 40094 70500 333 10332 59003 70000==
41992,2024,11,13,15,00,AAXX 13154 41992 01925 03603 10272 20220 30111 40113 70500 333 58001 70000==
41992,2024,11,13,18,00,AAXX 13184 41992 01925 03605 10265 20220 30114 40116 70500 333 58006 70000==
41992,2024,11,13,21,00,AAXX 13214 41992 01925 00308 10250 20210 30101 40103 70500 333 58010 70000==
41992,2024,11,14,00,00,AAXX 14004 41992 01925 03606 10245 20210 30118 40120 70500 333 58016 70000==
41992,2024,11,14,03,00,AAXX 14034 41992 01935 00308 10290 20190 30136 40138 70500 333 20240 58010 70000==
41992,2024,11,14,06,00,AAXX 14064 41992 01935 03308 10318 20210 30116 40118 70500 333 58013 70000==
41992,2024,11,14,09,00,AAXX 14094 41992 01930 03008 10315 20190 30098 40100 70500 333 58012 70000==
41992,2024,11,14,12,00,AAXX 14124 41992 01925 03305 10285 20200 30104 40106 70522 333 10330 58012 70000==
41992,2024,11,14,15,00,AAXX 14154 41992 01925 00000 10260 20220 30123 40125 70500 333 58012 70000==
41992,2024,11,14,18,00,AAXX 14184 41992 01925 00000 10254 20220 30117 40119 70500 333 58003 70000==
41992,2024,11,14,21,00,AAXX 14214 41992 01925 00302 10245 20220 30103 40105 70500 333 58002 70000==
41998,2024,11,08,00,00,AAXX 08004 41998 NIL=
41998,2024,11,08,03,00,AAXX 08034 41998 02956 00000 10282 20250 30126 40132 333 20242 58005 70000==
41998,2024,11,08,06,00,AAXX 08064 41998 NIL=
41998,2024,11,08,09,00,AAXX 08094 41998 NIL=
41998,2024,11,08,12,00,AAXX 08124 41998 01956 00000 10273 20250 30106 40112 70500 333 10305 58001 70000==
41998,2024,11,08,15,00,AAXX 08154 41998 01950 00000 10270 20250 30121 40127 70500 333 59006 70000==
41998,2024,11,09,03,00,AAXX 09034 41998 NIL=
41998,2024,11,09,06,00,AAXX 09064 41998 NIL=
41998,2024,11,09,09,00,AAXX 09094 41998 NIL=
41998,2024,11,09,15,00,AAXX 09154 41998 NIL=
41998,2024,11,10,03,00,AAXX 10034 41998 NIL=
41998,2024,11,10,06,00,AAXX 10064 41998 02456 62601 10304 20240 30107 40113 83420 333 58003 70000 82618 83458==
41998,2024,11,10,09,00,AAXX 10094 41998 02456 62701 10298 20250 30096 40102 83420 333 58003 70000 82618 83458==
41998,2024,11,10,12,00,AAXX 10124 41998 01950 60000 10283 20260 30105 40111 70522 83420 333 10308 58016 70000 82618 83458==
41998,2024,11,10,15,00,AAXX 10154 41998 NIL=
41998,2024,11,11,00,00,AAXX 11004 41998 01450 60000 10263 20250 30136 40142 70500 83420 333 58009 70000 82618 83458==
41998,2024,11,11,09,00,AAXX 11094 41998 02956 02902 10312 20260 30097 40103 333 59001 70000==
41998,2024,11,11,12,00,AAXX 11124 41998 01950 00000 10283 20250 30104 40110 70500 333 10315 59001 70000==
41998,2024,11,11,15,00,AAXX 11154 41998 NIL=
41998,2024,11,11,18,00,AAXX 11184 41998 NIL=
41998,2024,11,12,00,00,AAXX 12004 41998 01950 00000 10252 20240 30131 40137 70500 333 59005 70000==
41998,2024,11,12,03,00,AAXX 12034 41998 NIL=
41998,2024,11,12,06,00,AAXX 12064 41998 02956 00000 10296 20250 30118 40124 333 58007 70000==
41998,2024,11,12,09,00,AAXX 12094 41998 NIL=
41998,2024,11,12,12,00,AAXX 12124 41998 01950 00000 10284 20250 30107 40113 70500 333 10316 58003 70000==
41998,2024,11,12,15,00,AAXX 12154 41998 02956 00000 10276 20260 30109 40115 333 59008 70000==
41998,2024,11,12,18,00,AAXX 12184 41998 NIL=
41998,2024,11,13,00,00,AAXX 13004 41998 01950 00000 10250 20240 30119 40125 70500 333 59012 70000==
41998,2024,11,13,03,00,AAXX 13034 41998 02956 00000 10285 20260 30128 40134 333 20240 58006 70000==
41998,2024,11,13,06,00,AAXX 13064 41998 NIL=
41998,2024,11,13,09,00,AAXX 13094 41998 02956 00000 10285 20260 30128 40134 333 20240 58006 70000==
41998,2024,11,13,12,00,AAXX 13124 41998 01950 00000 10283 20250 30112 40118 70500 333 10322 58006 70000==
41998,2024,11,13,15,00,AAXX 13154 41998 NIL=
41998,2024,11,14,00,00,AAXX 14004 41998 01950 00000 10243 20240 30123 40129 70500 333 58003 70000==
41998,2024,11,14,03,00,AAXX 14034 41998 NIL=
41998,2024,11,14,06,00,AAXX 14064 41998 NIL=
41998,2024,11,14,09,00,AAXX 14094 41998 02956 02903 10307 20230 30107 40113 333 58005 70000==
41998,2024,11,14,12,00,AAXX 14124 41998 01950 00000 10284 20250 30115 40121 70500 333 10318 58003 70000==
41998,2024,11,14,18,00,AAXX 14184 41998 NIL=
