ESTACION,ANO,MES,DIA,HORA,MINUTO,PARTE
41850,2024,07,12,00,00,AAXX 12004 41850 11340 80203 10255 20255 39892 49990 60113 76192 8572/ 333 56999 59024 70310 82708 84616 88456=
41850,2024,07,12,06,00,AAXX 12064 41850 11350 80802 10263 20250 39907 40005 60283 70562 8562/ 333 56999 59005 70510 83708 84616 88456=
41850,2024,07,12,12,00,AAXX 12124 41850 11450 60000 10266 20250 39883 49980 70162 83520 333 10275 56990 58004 70930 83617 86458=
41850,2024,07,12,18,00,AAXX 12184 41850 31440 80000 10264 20260 39901 49999 70522 8352/ 333 56999 58004 70780 83617 88458=
41850,2024,07,13,00,00,AAXX 13004 41850 31450 80000 10262 20250 39891 49989 70522 8352/ 333 56999 59001 70670 83617 88458=
41850,2024,07,13,06,00,AAXX 13064 41850 32456 61802 10307 20250 39891 49987 83520 333 56990 59016 70390 83618 86458=
41850,2024,07,13,12,00,AAXX 13124 41850 32456 51602 10322 20240 39865 49960 83530 333 10335 56990 59018 70000 83618 85362=
41850,2024,07,13,18,00,AAXX 13184 41850 31440 80000 10282 20260 39895 49992 70522 8352/ 333 56999 59006 70000 83618 88458=
41850,2024,07,14,00,00,AAXX 14004 41850 11430 80000 10257 20257 39889 49987 60484 79596 8532/ 333 56999 59002 70480 84615 81928 88456=
41850,2024,07,14,06,00,AAXX 14064 41850 11456 40802 10314 20260 39888 49984 60386 70196 82510 333 56990 59003 70860 82617 84460=
41850,2024,07,14,12,00,AAXX 14124 41850 32456 40000 10322 20260 39873 49968 82530 333 10347 56990 58008 70860 82618 84362=
41850,2024,07,14,18,00,AAXX 14184 41850 32440 80203 10286 20270 39913 40010 8352/ 333 56999 58018 70860 83618 88458=
41850,2024,07,15,00,00,AAXX 15004 41850 31450 30000 10280 20260 39920 40017 70521 83030 333 56090 58031 70000 83362=
41850,2024,07,15,06,00,AAXX 15064 41850 32457 30000 10342 20250 39911 40006 82510 333 56990 58023 70000 82618 83460=
41850,2024,07,15,12,00,AAXX 15124 41850 32456 62003 10310 20260 39895 49991 83520 333 10362 56990 58022 70000 83618 86458=
41850,2024,07,16,00,00,AAXX 16004 41850 32450 81602 10270 20260 39939 40037 83520 333 56990 58019 70056 83618 87458=
41850,2024,07,16,06,00,AAXX 16064 41850 32456 70803 10296 20260 39938 40035 83520 333 56990 58027 70056 83618 87458=
41850,2024,07,16,12,00,AAXX 16124 41850 32456 50000 10315 20260 39915 40011 82510 333 56990 58023 70056 82618 85458=
41850,2024,07,16,18,00,AAXX 16184 41850 32440 70000 10287 20280 39932 40029 83520 333 56990 58012 70000 83618 87458=
41850,2024,07,17,00,00,AAXX 17004 41850 32450 60000 10280 20270 39922 40019 83520 333 56990 59017 70000 83618 86458=
41850,2024,07,17,06,00,AAXX 17064 41850 32456 60000 10330 20260 39922 40017 83520 333 56990 59016 70000 83618 86458=
41850,2024,07,17,12,00,AAXX 17124 41850 32456 50000 10323 20250 39884 49980 83520 333 10358 56990 59023 70000 83618 85458=
41850,2024,07,17,18,00,AAXX 17184 41850 32440 80000 10296 20280 39919 40015 8352/ 333 56999 59013 70000 83618 88458=
41850,2024,07,18,00,00,AAXX 18004 41850 11450 70000 10268 20260 39916 40013 60016 70562 83520 333 56990 59006 70014 83617 87458=
41850,2024,07,18,06,00,AAXX 18064 41850 32456 70000 10317 20270 39914 40010 83520 333 56990 59008 70014 83617 87458=
41850,2024,07,18,12,00,AAXX 18124 41850 32456 31802 10327 20270 39875 49970 82510 333 10348 56990 59009 70014 82618 83460=
41851,2024,07,12,00,00,AAXX 12004 41851 11450 81801 10264 20250 39932 49995 60059 70296 8352/ 333 56999 59021 70088 83618 88458=
41851,2024,07,12,06,00,AAXX 12064 41851 32350 81802 10280 20250 39944 40006 8462/ 333 56499 59013 70088 81709 83616 88458=
41851,2024,07,12,12,00,AAXX 12124 41851 11340 83502 10285 20270 39919 49980 60294 76522 8472/ 333 10315 56999 58005 70376 82708 83614 88457=
41851,2024,07,12,18,00,AAXX 12184 41851 11340 80000 10260 20260 39944 40007 60429 76196 8472/ 333 56999 58006 70746 82708 83614 88457=
41851,2024,07,13,00,00,AAXX 13004 41851 11450 80000 10258 20258 39927 49990 60148 70262 8352/ 333 56999 59005 70845 83618 88458=
41851,2024,07,13,06,00,AAXX 13064 41851 32450 80000 10305 20270 39931 49992 8352/ 333 56999 59013 70845 83618 88458=
41851,2024,07,13,12,00,AAXX 13124 41851 32450 51802 10324 20260 39901 49962 83510 333 10340 56990 59018 70559 83618 84459=
41851,2024,07,13,18,00,AAXX 13184 41851 32450 80000 10290 20270 39929 49991 8352/ 333 56999 59015 70144 83618 88458=
41851,2024,07,14,00,00,AAXX 14004 41851 32450 80000 10282 20260 39924 49986 8352/ 333 56999 59003 70000 83618 88458=
41851,2024,07,14,06,00,AAXX 14064 41851 32450 50902 10318 20280 39930 49991 83510 333 56999 58001 70000 83618 84459=
41851,2024,07,14,12,00,AAXX 14124 41851 32450 50902 10330 20270 39902 49963 82510 333 10340 56990 58001 70000 82618 84459=
41851,2024,07,14,18,00,AAXX 14184 41851 32450 80000 10298 20280 39950 40012 8352/ 333 56999 58021 70000 83618 88458=
41851,2024,07,15,00,00,AAXX 15004 41851 32450 50901 10288 20280 39957 40019 83510 333 56990 58019 70000 83618 84459=
41851,2024,07,15,06,00,AAXX 15064 41851 32450 51302 10338 20260 39943 40004 82510 333 56990 58013 70000 82618 84459=
41851,2024,07,15,12,00,AAXX 15124 41851 31450 61502 10330 20270 39928 49989 70392 83410 333 10365 56990 58026 70000 82618 85459=
41851,2024,07,15,18,00,AAXX 15184 41851 11350 80902 10282 20260 39967 40029 60017 76196 8472/ 333 56999 58017 70014 81708 83616 88456=
41851,2024,07,16,00,00,AAXX 16004 41851 11350 80901 10264 20250 39974 40037 60099 76166 8472/ 333 56299 58017 70102 81708 83616 88456=
41851,2024,07,16,06,00,AAXX 16064 41851 32350 80901 10298 20270 39981 40043 8462/ 333 56399 58038 70102 81709 83617 88457=
41851,2024,07,16,12,00,AAXX 16124 41851 32450 41501 10320 20270 39943 40004 81530 333 10335 56990 58015 70102 81618 83362=
41851,2024,07,16,18,00,AAXX 16184 41851 32450 41501 10294 20280 39969 40031 81530 333 56990 58002 70088 81618 83362=
41851,2024,07,17,00,00,AAXX 17004 41851 11340 81802 10275 20270 39962 40024 60044 76322 8472/ 333 56499 59012 70038 81708 84616 88456=
41851,2024,07,17,06,00,AAXX 17064 41851 11450 41801 10346 20270 39960 40021 60086 70196 82430 333 56990 59021 70121 81618 83362=
41851,2024,07,17,12,00,AAXX 17124 41851 32450 51801 10338 20270 39916 49976 83410 333 10365 56990 59027 70121 82618 84459=
41851,2024,07,17,18,00,AAXX 17184 41851 31450 60701 10285 20270 39955 40017 70292 82510 333 56990 59014 70121 82618 86459=
41851,2024,07,18,00,00,AAXX 18004 41851 32350 80901 10275 20260 39954 40016 8462/ 333 56399 59008 70083 81709 83617 88457=
41851,2024,07,18,06,00,AAXX 18064 41851 32450 60702 10317 20270 39952 40013 82520 333 56990 59008 70000 82618 86458=
41851,2024,07,18,12,00,AAXX 18124 41851 32450 10000 10331 20260 39912 49973 81500 333 10350 56900 59004 70000 81618=
41856,2024,07,12,00,00,AAXX 12004 41856 11340 80501 10251 20250 39959 49994 60079 76166 8672/ 333 56599 59020 70366 83708 84616 88456=
41856,2024,07,12,06,00,AAXX 12064 41856 11450 81402 10285 20260 39973 40008 60016 70262 8352/ 333 56999 59010 70216 83618 88457=
41856,2024,07,12,12,00,AAXX 12124 41856 NIL=
41856,2024,07,12,18,00,AAXX 12184 41856 32930 20901 10282 20250 39965 40000 82030 333 56090 59005 70076 82362=
41856,2024,07,13,00,00,AAXX 13004 41856 32440 80901 10268 20260 39954 49989 8352/ 333 56999 59005 70006 83618 88457=
41856,2024,07,13,06,00,AAXX 13064 41856 11350 80501 10297 20270 39954 49989 60024 76122 8672/ 333 56499 59019 70020 83708 84618 88456=
41856,2024,07,13,12,00,AAXX 13124 41856 11450 70000 10300 20260 39932 49967 60016 70362 85430 333 10336 56990 59011 70032 84618 85458=
41856,2024,07,13,18,00,AAXX 13184 41856 32440 60000 10283 20270 39949 49984 84430 333 56990 59016 70032 83618 84458=
41856,2024,07,14,00,00,AAXX 14004 41856 32440 70000 10273 20260 39951 49986 85430 333 56990 59003 70032 84618 85458=
41856,2024,07,14,06,00,AAXX 14064 41856 32450 71301 10320 20260 39956 49991 84430 333 56990 58002 70012 83618 85458=
41856,2024,07,14,12,00,AAXX 14124 41856 32456 50000 10314 20250 39931 49966 83430 333 10336 56990 59001 70000 82618 83458=
41856,2024,07,14,18,00,AAXX 14184 41856 32440 50000 10288 20280 39964 49999 83430 333 56990 58015 70000 82618 83458=
41856,2024,07,15,00,00,AAXX 15004 41856 32440 50000 10281 20260 39980 40015 83430 333 56990 58029 70000 82618 83458=
41856,2024,07,15,06,00,AAXX 15064 41856 32456 51302 10344 20260 39977 40011 83430 333 56990 58021 70000 82618 83362=
41856,2024,07,15,12,00,AAXX 15124 41856 31440 80501 10295 20270 39961 49996 71722 8532/ 333 10360 56399 58030 70000 84618 88458 81925=
41856,2024,07,15,18,00,AAXX 15184 41856 11420 80902 10283 20270 39991 40026 60013 70296 8452/ 333 56999 58027 70010 84618 88458=
41856,2024,07,16,00,00,AAXX 16004 41856 11430 80000 10274 20260 30000 40035 60044 76162 8452/ 333 56999 58020 70048 84618 88458=
41856,2024,07,16,06,00,AAXX 16064 41856 11450 60401 10304 20260 30004 40039 60049 70166 83430 333 56390 58027 70090 82618 84362=
41856,2024,07,16,12,00,AAXX 16124 41856 32950 40000 10313 20250 39970 40005 84030 333 10325 56090 58009 70090 84362=
41856,2024,07,16,18,00,AAXX 16184 41856 32930 30000 10285 20270 39994 40029 83030 333 56090 58003 70080 83362=
41856,2024,07,17,00,00,AAXX 17004 41856 32940 30000 10280 20270 39983 40018 83030 333 56090 59017 70042 83362=
41856,2024,07,17,06,00,AAXX 17064 41856 32450 31301 10348 20250 39983 40017 82130 333 56990 59021 70000 82830=
41856,2024,07,17,12,00,AAXX 17124 41856 32456 31801 10340 20260 39950 49984 82430 333 10367 56990 59020 70000 81618 83362=
41856,2024,07,17,18,00,AAXX 17184 41856 32930 20000 10300 20290 39979 40014 82030 333 56090 59015 70000 82362=
41856,2024,07,18,00,00,AAXX 18004 41856 11335 80000 10282 20270 39977 40012 60014 76162 8672/ 333 56699 59006 70006 83708 85615 88457=
41856,2024,07,18,06,00,AAXX 18064 41856 11450 50000 10310 20270 39977 40012 60026 70162 83430 333 56990 59006 70021 82618 85362=
41856,2024,07,18,12,00,AAXX 18124 41856 32956 30501 10325 20280 39937 49971 83030 333 10334 56090 59013 70021 83362=
41858,2024,07,12,00,00,AAXX 12004 41858 01425 80000 10272 20260 39956 40001 76062 8552/ 333 59015 70308 85615 88458==
41858,2024,07,12,03,00,AAXX 12034 41858 01430 80000 10275 20260 39963 40008 70562 8452/ 333 20255 59015 70310 84615 88458==
41858,2024,07,12,06,00,AAXX 12064 41858 21440 80000 10300 20260 39963 40007 70562 8452/ 333 59011 69927 70310 84615 88458==
41858,2024,07,12,09,00,AAXX 12094 41858 01440 71805 10325 20270 39943 49987 70522 84520 333 58000 70310 84615 86458==
41858,2024,07,12,12,00,AAXX 12124 41858 01550 50000 10310 20260 39931 49975 70522 83120 333 10332 58000 70310 83825 84460==
41858,2024,07,12,15,00,AAXX 12154 41858 01440 83305 10285 20270 39951 49996 76122 8452/ 333 59012 70108 84615 88458==
41858,2024,07,12,18,00,AAXX 12184 41858 21420 80000 10275 20270 39963 40008 76166 8452/ 333 59015 60617 70640 84614 88458==
41858,2024,07,12,21,00,AAXX 12214 41858 01320 80905 10270 20260 39954 49999 76166 8572/ 333 59004 71062 84708 85614 88458==
41858,2024,07,13,00,00,AAXX 13004 41858 21320 80905 10272 20260 39944 49989 71066 8572/ 333 59012 60458 71062 84708 85614 88458==
41858,2024,07,13,03,00,AAXX 13034 41858 01440 80000 10290 20270 39952 49997 70522 8452/ 333 20265 59011 71060 84616 88458==
41858,2024,07,13,06,00,AAXX 13064 41858 01440 80000 10316 20260 39944 49988 70522 84520 333 59019 71060 84616 86458==
41858,2024,07,13,09,00,AAXX 13094 41858 01440 70000 10294 20260 39929 49974 76162 84520 333 59014 71110 84615 86458==
41858,2024,07,13,12,00,AAXX 13124 41858 11450 70000 10300 20260 39921 49965 60051 70562 84520 333 10324 59010 71110 84615 86458==
41858,2024,07,13,15,00,AAXX 13154 41858 01440 80000 10290 20260 39934 49979 70522 8452/ 333 59017 71100 84615 88458==
41858,2024,07,13,18,00,AAXX 13184 41858 01435 80000 10284 20260 39950 49995 70522 8452/ 333 59013 70500 84615 88458==
41858,2024,07,13,21,00,AAXX 13214 41858 01430 60000 10286 20260 39947 49992 70522 83520 333 59007 70200 83615 85458==
41858,2024,07,14,00,00,AAXX 14004 41858 01/20 50000 10282 20250 39944 49989 71022 85030 333 58000 70050 85362==
41858,2024,07,14,03,00,AAXX 14034 41858 01435 60804 10315 20280 39952 49996 70522 83520 333 20275 58000 70050 83615 85458==
41858,2024,07,14,06,00,AAXX 14064 41858 01440 81205 10310 20270 39948 49992 70522 8452/ 333 58004 70050 84615 88458==
41858,2024,07,14,09,00,AAXX 14094 41858 01550 31205 10335 20260 39931 49974 70520 83100 333 58002 70000 83825==
41858,2024,07,14,12,00,AAXX 14124 41858 01550 31505 10335 20260 39921 49964 70520 83200 333 10344 58001 70000 83825==
41858,2024,07,14,15,00,AAXX 14154 41858 01550 31205 10308 20270 39948 49992 70511 83200 333 58014 70000 83825==
41858,2024,07,14,18,00,AAXX 14184 41858 01440 40000 10290 20260 39964 40009 70522 82520 333 58014 70000 82615 84458==
41858,2024,07,14,21,00,AAXX 14214 41858 01/40 40000 10288 20260 39970 40015 70522 84030 333 58023 70000 84362==
41858,2024,07,15,00,00,AAXX 15004 41858 01440 50000 10290 20270 39973 40018 70522 83520 333 58029 70000 83615 84458==
41858,2024,07,15,03,00,AAXX 15034 41858 01450 40000 10328 20270 39977 40021 70522 83520 333 20282 58025 70000 83616 83458==
41858,2024,07,15,06,00,AAXX 15064 41858 01450 50000 10356 20260 39969 40012 70522 84520 333 58021 70000 84616 85458==
41858,2024,07,15,09,00,AAXX 15094 41858 01450 41805 10358 20270 39949 49993 70522 84800 333 58017 70000 82615 83825==
41858,2024,07,15,12,00,AAXX 15124 41858 NIL=
41858,2024,07,15,21,00,AAXX 15214 41858 01430 80000 10280 20270 39990 40035 70562 8452/ 333 58020 70030 84615 88458==
41858,2024,07,16,00,00,AAXX 16004 41858 01430 80000 10274 20250 39991 40036 76062 8452/ 333 58018 70070 84615 88458==
41858,2024,07,16,03,00,AAXX 16034 41858 01435 80805 10280 20250 30002 40047 75162 8452/ 333 20265 58025 70074 84615 88458==
41858,2024,07,16,06,00,AAXX 16064 41858 11440 80805 10304 20270 39993 40038 69966 70562 8452/ 333 58024 70076 84615 88458==
41858,2024,07,16,09,00,AAXX 16094 41858 01440 61204 10332 20260 39969 40013 70522 84520 333 58020 70076 84616 86458==
41858,2024,07,16,12,00,AAXX 16124 41858 01440 40902 10322 20260 39959 40003 70522 82520 333 10336 58013 70076 82618 84458==
41858,2024,07,16,15,00,AAXX 16154 41858 01940 00000 10300 20270 39975 40020 70500 333 58001 70076==
41858,2024,07,16,18,00,AAXX 16184 41858 01/40 50000 10290 20270 39989 40028 70522 85040 333 58003 70076 85362==
41858,2024,07,16,21,00,AAXX 16214 41858 01440 60000 10286 20270 39978 40023 72992 83520 333 59012 70046 83615 86459==
41858,2024,07,17,00,00,AAXX 17004 41858 01430 40000 10280 20260 39978 40023 70592 83520 333 59013 70006 83615 84459==
41858,2024,07,17,03,00,AAXX 17034 41858 01450 40000 10330 20260 39988 40032 70522 84800 333 20268 59014 70002 82618 83825==
41858,2024,07,17,06,00,AAXX 17064 41858 01450 40000 10352 20260 39978 40023 70522 84800 333 59015 70000 82618 83825==
41858,2024,07,17,09,00,AAXX 17094 41858 01450 51202 10362 20250 39953 49996 70522 83520 333 59016 70000 83618 85458==
41858,2024,07,17,12,00,AAXX 17124 41858 01450 41804 10336 20260 39938 49981 70522 82520 333 10366 59021 70000 82618 84458==
41858,2024,07,17,15,00,AAXX 17154 41858 01440 40000 10322 20260 39961 40005 70522 82520 333 59014 70000 82618 84458==
41858,2024,07,17,18,00,AAXX 17184 41858 02440 40000 10312 20260 39978 40022 82520 333 59005 70000 82618 84458==
41858,2024,07,17,21,00,AAXX 17214 41858 01440 60000 10300 20260 39963 40007 70522 83520 333 59015 70000 83615 85460==
41858,2024,07,18,00,00,AAXX 18004 41858 01440 80905 10290 20260 39970 40015 70522 8452/ 333 59008 70000 84615 88458==
41858,2024,07,18,03,00,AAXX 18034 41858 01440 60000 10290 20270 39978 40023 70522 84520 333 20282 59010 70000 84616 86458==
41858,2024,07,18,06,00,AAXX 18064 41858 01450 50505 10334 20260 39968 40012 70522 83520 333 59010 70000 83616 85458==
41858,2024,07,18,09,00,AAXX 18094 41858 01450 53604 10348 20270 39945 49988 70522 83520 333 59008 70000 83618 84460==
41858,2024,07,18,12,00,AAXX 18124 41858 NIL=
41859,2024,07,12,00,00,AAXX 12004 41859 11440 80000 10266 20266 39958 49995 60016 70262 8562/ 333 59020 70376 83710 84618 88458==
41859,2024,07,12,03,00,AAXX 12034 41859 01440 80000 10279 20260 39973 40009 70262 8562/ 333 20252 59013 70344 83710 84618 88458==
41859,2024,07,12,06,00,AAXX 12064 41859 11450 81302 10301 20250 39971 40007 60006 70262 8562/ 333 59013 83710 84618 88458==
41859,2024,07,12,09,00,AAXX 12094 41859 02450 51802 10325 20270 39949 49986 84430 333 59005 70204 82618 83828 85362==
41859,2024,07,12,12,00,AAXX 12124 41859 02450 71302 10323 20260 39941 49977 85620 333 10330 58001 70184 82710 83618 87458==
41859,2024,07,12,15,00,AAXX 12154 41859 02430 71301 10293 20260 39958 49995 85620 333 59011 70174 82710 83618 87458==
41859,2024,07,12,18,00,AAXX 12183 41859 01330 82301 10280 20260 39965 40002 76122 8672/ 333 59003 70010 84708 85616 88456==
41859,2024,07,12,21,00,AAXX 12214 41859 01430 80000 10270 20260 39957 49994 70262 8562/ 333 59003 70356 83710 84618 88458==
41859,2024,07,13,00,00,AAXX 13004 41859 11435 80000 10267 20260 39956 49993 60346 70262 8562/ 333 59002 70356 83710 84618 88458==
41859,2024,07,13,03,00,AAXX 13034 41859 02440 80000 10289 20270 39959 49995 8562/ 333 20262 59014 70356 83710 84618 88458==
41859,2024,07,13,06,00,AAXX 13064 41859 02450 80000 10319 20270 39953 49989 8562/ 333 59018 70356 83710 84618 88458==
41859,2024,07,13,09,00,AAXX 13094 41859 02450 80000 10332 20270 39934 49971 8452/ 333 59015 70356 84618 88458==
41859,2024,07,13,12,00,AAXX 13124 41859 01350 80000 10290 20260 39931 49967 76162 8572/ 333 10335 59010 70010 83709 84617 88458==
41859,2024,07,13,15,00,AAXX 13154 41859 01430 81302 10290 20270 39945 49981 70262 8562/ 333 59013 70370 82710 84618 88458==
41859,2024,07,13,18,00,AAXX 13184 41859 11430 81302 10290 20280 39956 49992 69946 70262 8562/ 333 59009 70370 83710 84618 88458==
41859,2024,07,13,21,00,AAXX 13214 41859 02430 81302 10285 20280 39951 49987 8562/ 333 59006 70014 82710 84618 88458==
41859,2024,07,14,00,00,AAXX 14004 41859 02440 61302 10280 20270 39950 49986 84630 333 59006 70014 82710 83618 86362==
41859,2024,07,14,03,00,AAXX 14034 41859 02450 80000 10304 20275 39964 40000 8562/ 333 20275 58005 70014 83710 84618 88458==
41859,2024,07,14,06,00,AAXX 14064 41859 02450 70000 10319 20270 39956 49992 84620 333 58003 70004 83710 84618 87458==
41859,2024,07,14,09,00,AAXX 14094 41859 02450 61302 10342 20260 39938 49975 83520 333 58004 70014 83618 86458==
41859,2024,07,14,12,00,AAXX 14124 41859 02450 41302 10338 20260 39929 49965 82520 333 10346 59002 70004 82618 84458==
41859,2024,07,14,15,00,AAXX 14154 41859 02430 40000 10308 20270 39959 49995 82520 333 58014 70000 82618 84458==
41859,2024,07,14,18,00,AAXX 14184 41859 02430 80000 10298 20270 39973 40009 8562/ 333 58017 70000 82710 84618 88458==
41859,2024,07,14,21,00,AAXX 14214 41859 02430 80000 10290 20270 39975 40011 8562/ 333 58024 70000 82710 84618 88458==
41859,2024,07,15,00,00,AAXX 15004 41859 02430 80000 10290 20280 39980 40017 8562/ 333 58030 70000 82710 84618 88458==
41859,2024,07,15,03,00,AAXX 15034 41859 02450 60000 10336 20280 39984 40020 84620 333 20286 58020 70000 82710 83618 86458==
41859,2024,07,15,06,00,AAXX 15064 41859 02450 60000 10349 20270 39977 40013 84620 333 58021 70000 82710 83618 86458==
41859,2024,07,15,09,00,AAXX 15094 41859 02450 61802 10356 20260 39956 49993 84620 333 58018 70000 82710 83618 86458==
41859,2024,07,15,12,00,AAXX 15124 41859 02440 81302 10330 20270 39956 49992 8562/ 333 10365 58027 70000 83710 84618 88458==
41859,2024,07,15,15,00,AAXX 15154 41859 02430 80502 10305 20280 39983 40019 8562/ 333 58024 70000 83710 84618 88458==
41859,2024,07,15,18,00,AAXX 15184 41859 21430 80502 10294 20280 39990 40027 70262 8562/ 333 58017 60005 83710 84618 88458==
41859,2024,07,15,21,00,AAXX 15214 41859 42430 80502 10286 20280 39993 40030 8562/ 333 58018 83710 84618 88458==
41859,2024,07,16,00,00,AAXX 16004 41859 21440 80502 10275 20275 39996 40033 76162 8672/ 333 58016 60067 70060 84708 85616 88456==
41859,2024,07,16,03,00,AAXX 16034 41859 01340 80000 10281 20270 30013 40050 76162 8672/ 333 20270 58029 70072 84708 85616 88456==
41859,2024,07,16,06,00,AAXX 16064 41859 01340 80000 10303 20270 30006 40042 76162 8672/ 333 58029 70082 84708 85616 88458==
41859,2024,07,16,09,00,AAXX 16094 41859 02450 80000 10335 20260 39976 40013 8562/ 333 58020 70082 82710 84618 88458==
41859,2024,07,16,12,00,AAXX 16124 41859 02450 40000 10325 20270 39967 40004 83570 333 10338 58011 70082 83618 84458==
41859,2024,07,16,15,00,AAXX 16154 41859 02/30 30000 10301 20280 39983 40019 83030 333 58000 70082 83362==
41859,2024,07,16,18,00,AAXX 16184 41859 02430 80000 10294 20280 39995 40032 8562/ 333 58005 70082 82710 84618 88458==
41859,2024,07,16,21,00,AAXX 16214 41859 02430 80000 10292 20280 39986 40023 8562/ 333 59007 70082 82710 84618 88458==
41859,2024,07,17,00,00,AAXX 17004 41859 02435 80000 10288 20280 39983 40020 8562/ 333 70022 82710 83618 88458==
41859,2024,07,17,03,00,AAXX 17034 41859 02450 60000 10331 20270 39995 40031 85620 333 20270 59018 70010 82710 83618 86458==
41859,2024,07,17,06,00,AAXX 17064 41859 02450 60000 10351 20250 39985 40021 84620 333 59021 70000 82710 83618 86458==
41859,2024,07,17,09,00,AAXX 17094 41859 02450 61302 10358 20260 39959 49995 84430 333 59017 70000 82618 83828 86362==
41859,2024,07,17,12,00,AAXX 17124 41859 02450 52302 10350 20260 39945 49982 82530 333 10367 59022 70000 82618 85362==
41859,2024,07,17,15,00,AAXX 17154 41859 02430 70000 10323 20270 39972 40008 83510 333 59011 70000 83618 87458==
41859,2024,07,17,18,00,AAXX 17184 41859 02430 70000 10310 20280 39978 40014 85610 333 59017 70000 82710 84618 87458==
41859,2024,07,17,21,00,AAXX 17214 41859 02430 80000 10300 20280 39970 40006 8562/ 333 59016 70000 82710 84618 88458==
41859,2024,07,18,00,00,AAXX 18004 41859 02430 80000 10290 20270 39978 40015 8562/ 333 59005 70000 82710 84618 88458==
41859,2024,07,18,03,00,AAXX 18034 41859 01450 80000 10295 20280 39985 40021 70262 8562/ 333 20286 59010 70000 83710 84618 88458==
41859,2024,07,18,06,00,AAXX 18064 41859 11450 50000 10340 20250 39977 40013 69926 70162 84620 333 59008 70000 82710 83618 86458==
41859,2024,07,18,09,00,AAXX 18094 41859 02450 60000 10350 20270 39952 49989 83510 333 59007 70002 83618 86458==
41859,2024,07,18,12,00,AAXX 18124 41859 02440 50000 10336 20270 39934 49971 83510 333 10353 59011 70002 83618 85458==
41859,2024,07,18,18,00,AAXX 18184 41859 NIL=
41863,2024,07,12,00,00,AAXX 12004 41863 21350 81301 10266 20260 39949 49991 70266 8562/ 333 59024 60039 70883 82707 85614 88456==
41863,2024,07,12,03,00,AAXX 12034 41863 02456 60000 10290 20270 39962 40004 83520 333 20256 59018 70883 83618 86458==
41863,2024,07,12,06,00,AAXX 12064 41863 02456 71301 10310 20260 39963 40005 84510 333 59010 70883 84618 87458==
41863,2024,07,12,09,00,AAXX 12094 41863 02456 51802 10334 20270 39940 49981 82520 333 59005 70883 82618 85458==
41863,2024,07,12,12,00,AAXX 12124 41863 02456 71801 10310 20270 39931 49973 84520 333 10334 58001 70883 84618 87458==
41863,2024,07,12,15,00,AAXX 12154 41863 01450 83101 10282 20260 39953 49995 70362 8552/ 333 59010 70116 85618 88458==
41863,2024,07,12,18,00,AAXX 12184 41863 01340 80000 10270 20260 39960 40002 76162 8572/ 333 58001 70250 83708 85614 88456==
41863,2024,07,12,21,00,AAXX 12214 41863 01440 80000 10269 20260 39953 49995 72166 8552/ 333 58010 70388 85618 88458==
41863,2024,07,13,00,00,AAXX 13004 41863 21450 80901 10268 20260 39946 49988 70266 8552/ 333 59003 60127 70373 85618 88458==
41863,2024,07,13,03,00,AAXX 13034 41863 01356 80901 10282 20270 39953 49995 76122 8572/ 333 20262 59009 70403 83708 85614 88456==
41863,2024,07,13,06,00,AAXX 13064 41863 21456 60901 10320 20270 39946 49988 70262 83520 333 59017 60035 70403 83618 86458==
41863,2024,07,13,07,00,AAXX 13074 41863 21456 60901 10320 20270 39946 49988 70262 83520 333 59017 60035 70403 83618 86458==
41863,2024,07,13,09,00,AAXX 13094 41863 02557 31802 10346 20270 39923 49964 83400 333 59017 70403 83620==
41863,2024,07,13,12,00,AAXX 13124 41863 02/56 31801 10305 20270 39920 49961 83030 333 10346 59011 70403 83365==
41863,2024,07,13,15,00,AAXX 13154 41863 02450 50000 10295 20280 39936 49978 83520 333 59017 70380 83618 88458==
41863,2024,07,13,18,00,AAXX 13184 41863 02450 50000 10295 20280 39946 49988 83420 333 59014 70150 83618 85458==
41863,2024,07,13,21,00,AAXX 13214 41863 02450 51802 10292 20270 39935 49977 83520 333 59018 70030 83618 85458==
41863,2024,07,14,00,00,AAXX 14004 41863 02550 51702 10282 20270 39943 49985 83430 333 59003 70030 83620 85365==
41863,2024,07,14,03,00,AAXX 14034 41863 02556 51303 10318 20280 39981 40023 83430 333 20275 58028 70000 83620 85365==
41863,2024,07,14,06,00,AAXX 14064 41863 02456 81804 10340 20270 39946 49987 8452/ 333 58000 70000 84618 88458==
41863,2024,07,14,09,00,AAXX 14094 41863 01456 70901 10305 20280 39932 49974 70162 85520 333 58009 70020 85618 87458==
41863,2024,07,14,12,00,AAXX 14124 41863 11556 31302 10340 20280 39922 49963 60026 70162 83400 333 10340 58002 70020 83620==
41863,2024,07,14,15,00,AAXX 14154 41863 02956 00000 10300 20280 39948 49990 333 58012 70020==
41863,2024,07,14,18,00,AAXX 14184 41863 02956 00000 10295 20280 39966 40008 333 58020 70020==
41863,2024,07,14,21,00,AAXX 14214 41863 02956 00000 10290 20270 39961 40003 333 58026 70020==
41863,2024,07,15,00,00,AAXX 15004 41863 02456 50000 10288 20280 39974 40016 83530 333 58031 70020 83618 85362==
41863,2024,07,15,03,00,AAXX 15034 41863 02457 80904 10324 20250 39979 40021 83530 333 20280 59002 70020 83618 85362==
41863,2024,07,15,06,00,AAXX 15064 41863 02457 51304 10348 20260 39971 40012 85400 333 58025 70020 82618 83825==
41863,2024,07,15,09,00,AAXX 15094 41863 02557 30903 10360 20250 39952 49993 83400 333 58020 70000 83620==
41863,2024,07,15,12,00,AAXX 15124 41863 02456 51804 10340 20270 39947 49988 84520 333 10361 58025 70000 84618 85458==
41863,2024,07,15,15,00,AAXX 15154 41863 02450 41802 10300 20270 39949 49991 84400 333 58001 70000 84618==
41863,2024,07,15,18,00,AAXX 15184 41863 02450 40000 10306 20290 39983 40025 84500 333 58017 70000 84618==
41863,2024,07,15,21,00,AAXX 15214 41863 02450 81803 10290 20270 39984 40026 8452/ 333 58023 70000 84618 88458==
41863,2024,07,16,00,00,AAXX 16004 41863 02450 81803 10282 20270 39991 40033 8452/ 333 58017 70000 84618 88458==
41863,2024,07,16,03,00,AAXX 16034 41863 01450 80902 10280 20260 30002 40044 70262 8452/ 333 20267 58023 70040 84618 88458==
41863,2024,07,16,06,00,AAXX 16064 41863 11456 81803 10302 20270 39996 40038 60046 70262 8452/ 333 58025 70040 84618 88458==
41863,2024,07,16,09,00,AAXX 16094 41863 02456 70502 10327 20270 39969 40010 84510 333 58017 70040 84618 87458==
41863,2024,07,16,12,00,AAXX 16124 41863 02456 70501 10316 20280 39958 40000 84510 333 10327 58011 70040 84618 87458==
41863,2024,07,16,15,00,AAXX 16154 41863 02550 40000 10295 20280 39977 40019 84400 333 58025 70040 84625==
41863,2024,07,16,18,00,AAXX 16184 41863 02450 60501 10295 20280 39988 40030 83520 333 58005 70040 83618 86458==
41863,2024,07,16,21,00,AAXX 16214 41863 02/50 30501 10288 20280 39983 40025 83030 333 59001 70040 83362==
41863,2024,07,17,00,00,AAXX 17004 41863 02/50 20000 10279 20270 39977 40019 82030 333 59014 70040 82362==
41863,2024,07,17,03,00,AAXX 17034 41863 02/57 21802 10333 20270 39988 40030 82030 333 20272 59014 70000 82362==
41863,2024,07,17,06,00,AAXX 17064 41863 02457 50502 10347 20270 39980 40021 85400 333 59016 70000 83618 85825==
41863,2024,07,17,09,00,AAXX 17094 41863 02457 51802 10366 20260 39956 49997 85400 333 59013 70000 85620==
41863,2024,07,17,12,00,AAXX 17124 41863 02456 41801 10355 20260 39940 49981 84400 333 10366 59018 70000==
41863,2024,07,17,15,00,AAXX 17154 41863 02950 01801 10320 20270 39965 40007 333 59012 70000==
41863,2024,07,17,18,00,AAXX 17184 41863 02950 00000 10300 20280 39971 40013 333 59017 70000==
41863,2024,07,17,21,00,AAXX 17214 41863 02950 00000 10295 20290 39960 40002 333 59023 70000==
41863,2024,07,18,00,00,AAXX 18004 41863 02456 30901 10290 20280 39971 40013 83500 333 59006 70000 83618==
41863,2024,07,18,03,00,AAXX 18034 41863 02456 60503 10295 20270 39977 40019 83520 333 20284 59011 70000 83618 86458==
41863,2024,07,18,06,00,AAXX 18064 41863 02457 50902 10333 20260 39969 40010 83530 333 59011 70000 83618 85362==
41863,2024,07,18,12,00,AAXX 18124 41863 02557 40902 10340 20270 39971 82101 333 10360 59010 70000 82825 83074==
41881,2024,07,12,00,00,AAXX 12004 41881 11340 81801 10263 20260 39989 40009 60099 70262 8562/ 333 56499 59007 70260 83710 85615 88458=
41881,2024,07,12,06,00,AAXX 12064 41881 32356 81602 10300 20260 39987 40007 8562/ 333 56490 59010 70260 83710 85616 88458=
41881,2024,07,12,12,00,AAXX 12124 41881 32457 41603 10304 20250 39957 49976 84500 333 10322 56900 58005 70260 84618=
41881,2024,07,12,18,00,AAXX 12184 41881 32450 21502 10284 20260 39975 49995 82500 333 56900 59018 70090 82618=
41881,2024,07,13,00,00,AAXX 13004 41881 32456 70000 10275 20275 39967 49986 84520 333 56990 59022 70000 84617 87459=
41881,2024,07,13,06,00,AAXX 13064 41881 32458 71702 10325 20270 39963 49983 84520 333 56490 59024 70000 84618 87460=
41881,2024,07,13,12,00,AAXX 13124 41881 32458 60901 10322 20260 39941 49961 83520 333 10345 56990 59016 70000 83618 86460=
41881,2024,07,13,18,00,AAXX 13184 41881 32456 40901 10290 20270 39960 49980 84500 333 56900 59015 70000 84618=
41881,2024,07,14,00,00,AAXX 14004 41881 32457 81001 10285 20280 39963 49983 8552/ 333 56499 59004 70000 85616 88459=
41881,2024,07,14,06,00,AAXX 14064 41881 32457 60901 10330 20260 39972 49992 83520 333 56990 58009 70000 83618 86460=
41881,2024,07,14,12,00,AAXX 14124 41881 32457 20901 10330 20260 39945 49964 82500 333 10335 56900 58004 70000 82618=
41881,2024,07,14,18,00,AAXX 14184 41881 32450 40901 10290 20270 39989 40009 84500 333 56900 58029 70000 84618=
41881,2024,07,15,00,00,AAXX 15004 41881 32456 80901 10280 20260 39985 40005 8552/ 333 56499 58022 70000 85616 88459=
41881,2024,07,15,06,00,AAXX 15064 41881 32457 51003 10330 20260 39993 40012 83520 333 56990 58021 70000 83618 85459=
41881,2024,07,15,12,00,AAXX 15124 41881 32458 70902 10325 20280 39970 49990 84520 333 10348 56290 58025 70000 84618 87460=
41881,2024,07,15,18,00,AAXX 15184 41881 32456 40902 10295 20260 30002 40022 84500 333 56900 58013 70000 84618=
41881,2024,07,16,00,00,AAXX 16004 41881 32457 80901 10282 20260 30008 40028 8552/ 333 56299 58023 70000 85618 88460=
41881,2024,07,16,06,00,AAXX 16064 41881 32457 71003 10314 20260 30009 40029 84520 333 56990 58016 70000 84617 87459=
41881,2024,07,16,12,00,AAXX 16124 41881 32458 60902 10317 20270 39978 49997 83520 333 10333 56990 58008 70000 83618 86460=
41881,2024,07,16,18,00,AAXX 16184 41881 32450 30000 10290 20270 30006 40026 83500 333 56990 58004 70000 83620=
41881,2024,07,17,00,00,AAXX 17004 41881 32957 30000 10280 20270 39998 40018 83030 333 56090 59010 70000 83362=
41881,2024,07,17,06,00,AAXX 17064 41881 32457 50901 10335 20260 30009 40028 83520 333 56990 58000 70000 83617 85459=
41881,2024,07,17,12,00,AAXX 17124 41881 32457 41801 10324 20260 39964 49984 84500 333 10353 56900 59014 70000 84618=
41881,2024,07,17,18,00,AAXX 17184 41881 32450 30901 10300 20270 39997 40017 83500 333 56900 59009 70000 83620=
41881,2024,07,18,00,00,AAXX 18004 41881 32456 40901 10282 20270 39993 40013 84500 333 56900 59005 70000 84618=
41881,2024,07,18,06,00,AAXX 18064 41881 32458 43603 10355 20270 39983 40003 84400 333 56800 59026 70000 82618 83825=
41881,2024,07,18,12,00,AAXX 18124 41881 32458 60503 10338 20260 39946 49933 83520 333 10365 56190 59018 70000 83618 86460=
41883,2024,07,12,00,00,AAXX 12004 41883 21340 81302 10266 20260 39977 49997 76166 8572/ 333 59020 60099 70726 85709 88458==
41883,2024,07,12,03,00,AAXX 12034 41883 01350 80000 10270 20260 39992 40012 70262 8562/ 333 20260 59015 70734 85709 88458==
41883,2024,07,12,06,00,AAXX 12064 41883 12356 80000 10300 20260 39989 40009 60011 8562/ 333 59008 70734 85709 88458==
41883,2024,07,12,09,00,AAXX 12094 41883 02456 60904 10310 20250 39968 49988 82530 333 58001 70734 82616 86362==
41883,2024,07,12,12,00,AAXX 12124 41883 02456 71302 10302 20260 39961 49981 85520 333 10314 58009 70732 85616 87459==
41883,2024,07,12,15,00,AAXX 12154 41883 02430 80902 10288 20270 39976 49996 8552/ 333 59014 70422 85616 88459==
41883,2024,07,12,18,00,AAXX 12183 41883 02430 80901 10284 20260 39983 40003 8552/ 333 59013 70098 85616 88459==
41883,2024,07,12,21,00,AAXX 12214 41883 02430 80000 10278 20270 39976 49996 8552/ 333 59015 70018 85709 88458==
41883,2024,07,13,00,00,AAXX 13004 41883 02440 80000 10278 20270 39970 49990 8552/ 333 59007 70008 85616 88458==
41883,2024,07,13,03,00,AAXX 13034 41883 02456 60000 10310 20270 39974 49994 84420 333 20266 59018 70000 82616 83828 86459==
41883,2024,07,13,06,00,AAXX 13064 41883 02456 82703 10320 20270 39970 49990 8542/ 333 59019 70000 83616 83828 88459==
41883,2024,07,13,09,00,AAXX 13094 41883 05256 61302 10325 20270 39951 49971 82510 333 59017 70000 82616 86459==
41883,2024,07,13,12,00,AAXX 13124 41883 02456 40000 10315 20270 39944 49964 82510 333 10335 59017 70000 82616 84459==
41883,2024,07,13,15,00,AAXX 13154 41883 02/30 40902 10302 20270 39963 49983 84030 333 59013 70000 84362==
41883,2024,07,13,18,00,AAXX 13184 41883 02430 60904 10296 20270 39969 49986 82520 333 59014 70000 82616 86459==
41883,2024,07,13,21,00,AAXX 13214 41883 02430 60000 10294 20270 39961 49981 82530 333 59015 70000 82616 86362==
41883,2024,07,14,00,00,AAXX 14004 41883 02340 81303 10292 20280 39966 49986 8562/ 333 59004 70000 85709 88459==
41883,2024,07,14,03,00,AAXX 14034 41883 01456 61802 10306 20280 39976 49996 70262 83510 333 20266 58002 70054 83616 86459==
41883,2024,07,14,06,00,AAXX 14064 41883 11456 60904 10326 20280 39973 49993 60056 70262 84810 333 58003 70054 83616 86459==
41883,2024,07,14,09,00,AAXX 14094 41883 02456 61302 10340 20260 39952 49971 83420 333 58001 70054 82618 86458==
41883,2024,07,14,12,00,AAXX 14124 41883 02/50 30000 10330 20260 39945 49965 83030 333 10344 58001 70054 83362==
41883,2024,07,14,15,00,AAXX 14154 41883 02/30 20000 10305 20280 39971 49991 82030 333 70054 82361==
41883,2024,07,14,18,00,AAXX 14184 41883 02430 60000 10300 20280 39988 40008 83510 333 58019 70054 83616 86459==
41883,2024,07,14,21,00,AAXX 14214 41883 02430 60000 10294 20270 39983 40003 83510 333 58022 70054 83616 86459==
41883,2024,07,15,00,00,AAXX 15004 41883 02450 60000 10288 20280 39993 40013 84510 333 58027 70054 84616 86459==
41883,2024,07,15,03,00,AAXX 15034 41883 02466 60000 10315 20270 39999 40019 84510 333 20285 58023 70054 84616 86459==
41883,2024,07,15,06,00,AAXX 15064 41883 02456 60000 10325 20260 39997 40017 84510 333 58024 70000 84616 86459==
41883,2024,07,15,09,00,AAXX 15094 41883 02/56 31802 10342 20250 39977 49997 83030 333 58025 70000 83362==
41883,2024,07,15,12,00,AAXX 15124 41883 02/56 30000 10335 20270 39970 49990 83030 333 10352 58025 70000 83362==
41883,2024,07,15,15,00,AAXX 15154 41883 02430 60000 10316 20270 39993 40013 82520 333 58022 70000 82618 86458==
41883,2024,07,15,18,00,AAXX 15184 41883 02430 81302 10304 20250 30004 40024 8452/ 333 58021 70000 84618 88458==
41883,2024,07,15,21,00,AAXX 15214 41883 02430 81302 10294 20260 39997 40017 8452/ 333 58014 70000 84618 88458==
41883,2024,07,16,00,00,AAXX 16004 41883 01450 80000 10282 20260 30008 40028 72122 8642/ 333 58015 70004 82710 83618 88458==
41883,2024,07,16,03,00,AAXX 16034 41883 02456 80902 10295 20280 30022 40042 8552/ 333 20275 58023 70004 85616 88459==
41883,2024,07,16,06,00,AAXX 16064 41883 02456 70902 10324 20250 30011 40031 84420 333 58014 70004 82616 83828 87459==
41883,2024,07,16,09,00,AAXX 16094 41883 02456 80000 10330 20260 39992 40012 8552/ 333 58015 70004 85616 88459==
41883,2024,07,16,12,00,AAXX 16124 41883 02456 80902 10325 20270 39980 40000 8552/ 333 10335 58010 70004 85616 88459==
41883,2024,07,16,15,00,AAXX 16154 41883 02430 80000 10310 20270 39994 40014 8552/ 333 58001 70004 85616 88459==
41883,2024,07,16,18,00,AAXX 16184 41883 02430 80000 10300 20270 30008 40028 8552/ 333 58004 70004 85616 88459==
41883,2024,07,16,21,00,AAXX 16214 41883 02430 80000 10290 20260 39995 40015 8552/ 333 59002 70004 85616 88459==
41883,2024,07,17,00,00,AAXX 17004 41883 02450 80000 10285 20280 39999 40019 8552/ 333 59009 70000 85616 88459==
41883,2024,07,17,03,00,AAXX 17034 41883 02456 60000 10320 20270 30010 40030 84510 333 20275 59012 70000 84616 86459==
41883,2024,07,17,06,00,AAXX 17064 41883 02456 60000 10345 20270 30002 40022 84510 333 59009 70000 84616 86459==
41883,2024,07,17,09,00,AAXX 17094 41883 02456 40000 10360 20260 39977 49996 84400 333 59015 70000 82616 83828==
41883,2024,07,17,12,00,AAXX 17124 41883 02556 41302 10345 20260 39966 49985 81130 333 10360 59014 70000 81828 83362==
41883,2024,07,17,15,00,AAXX 17154 41883 02430 70902 10320 20270 39990 40010 84520 333 59004 70000 84616 87459==
41883,2024,07,17,18,00,AAXX 17184 41883 02430 70902 10312 20270 39995 40015 85520 333 59013 70000 85616 87459==
41883,2024,07,17,21,00,AAXX 17214 41883 02430 70000 10306 20280 39990 40010 85520 333 59005 70000 85616 87459==
41883,2024,07,18,00,00,AAXX 18004 41883 02/40 50000 10296 20280 39990 40010 85030 333 59009 70000 85362==
41883,2024,07,18,03,00,AAXX 18034 41883 02456 60000 10328 20280 39995 40015 83510 333 20290 59015 70000 83616 86459==
41883,2024,07,18,06,00,AAXX 18064 41883 02456 61302 10350 20270 39987 40007 83810 333 59015 70000 83616 86459==
41883,2024,07,18,09,00,AAXX 18094 41883 02/56 30902 10365 20250 39961 49980 83030 333 59016 70000 83362==
41883,2024,07,18,12,00,AAXX 18124 41883 02/56 20000 10340 20260 39946 49965 82030 333 10372 59020 70000 82362==
41886,2024,07,12,00,00,AAXX 12004 41886 21350 80000 10260 20250 39993 40014 76166 8562/ 333 59016 60189 70480 82710 83616 88458==
41886,2024,07,12,03,00,AAXX 12034 41886 01350 80000 10277 20270 39998 40019 72166 8562/ 333 20257 59018 70520 82710 83616 88458==
41886,2024,07,12,06,00,AAXX 12064 41886 01456 60000 10315 20270 39996 40016 70162 84470 333 59009 70040 83618 85460==
41886,2024,07,12,09,00,AAXX 12094 41886 02456 80000 10322 20260 39972 49992 8432/ 333 59005 70520 83616 88458 81930==
41886,2024,07,12,12,00,AAXX 12124 41886 02456 70000 10297 20270 39966 49986 84470 333 10323 59007 70520 83618 87460==
41886,2024,07,12,15,00,AAXX 12154 41886 01450 80000 10270 20260 39987 40007 72996 8351/ 333 59011 70670 83618 88460==
41886,2024,07,12,18,00,AAXX 12184 41886 21450 60000 10277 20270 39986 40006 70196 82510 333 59014 60158 70670 82618 85460==
41886,2024,07,12,21,00,AAXX 12214 41886 02450 80000 10276 20270 39977 49997 8352/ 333 59020 70270 83618 88460==
41886,2024,07,13,00,00,AAXX 13004 41886 02450 80000 10275 20270 39974 49994 8352/ 333 59019 70190 83616 88458 81930==
41886,2024,07,13,03,00,AAXX 13034 41886 02456 70000 10295 20270 39982 40002 83570 333 20264 59016 70150 83618 87460==
41886,2024,07,13,06,00,AAXX 13064 41886 02456 80902 10300 20270 39979 49999 8452/ 333 59017 70150 84616 88458==
41886,2024,07,13,09,00,AAXX 13094 41886 02456 80000 10320 20270 39959 49979 8552/ 333 59013 70150 85616 88458==
41886,2024,07,13,12,00,AAXX 13124 41886 21456 70000 10298 20270 39956 49976 70162 81570 333 10326 59010 69965 70156 81618 84460 85362==
41886,2024,07,13,15,00,AAXX 13154 41886 02450 80000 10290 20270 39978 49998 8252/ 333 59009 70006 82616 88458==
41886,2024,07,13,18,00,AAXX 13184 41886 02450 80000 10288 20270 39978 49998 8252/ 333 59008 70006 82616 88458==
41886,2024,07,13,21,00,AAXX 13214 41886 02450 80000 10288 20270 39978 49998 8252/ 333 58001 70006 82616 88458==
41886,2024,07,14,00,00,AAXX 14004 41886 01456 80000 10284 20270 39980 40000 72122 8452/ 333 58006 70004 84616 88458==
41886,2024,07,14,03,00,AAXX 14034 41886 02457 60000 10310 20270 39986 40006 84410 333 20276 58004 70010 82618 83825 86460==
41886,2024,07,14,06,00,AAXX 14064 41886 02457 60000 10320 20270 39982 40002 83430 333 58003 70010 82618 86363==
41886,2024,07,14,09,00,AAXX 14094 41886 02558 30000 10333 20260 39959 49979 81230 333 58000 70010 81825 83365==
41886,2024,07,14,12,00,AAXX 14124 41886 02/57 10000 10330 20260 39952 49972 81030 333 10336 59004 70004 81365==
41886,2024,07,14,15,00,AAXX 14154 41886 02/50 20000 10300 20270 39977 49997 82030 333 59001 70004 82365==
41886,2024,07,14,18,00,AAXX 14184 41886 02450 30000 10295 20280 39993 40013 83500 333 58015 70004 83618==
41886,2024,07,14,21,00,AAXX 14214 41886 02450 80000 10290 20280 39994 40014 8432/ 333 58016 70004 84616 88458 81930==
41886,2024,07,15,00,00,AAXX 15004 41886 01456 80000 10285 20280 39996 40016 72162 8452/ 333 58016 70020 84616 88458==
41886,2024,07,15,03,00,AAXX 15034 41886 01456 80000 10281 20270 30010 40031 76196 8472/ 333 20280 58024 70030 82710 83615 88458==
41886,2024,07,15,06,00,AAXX 15064 41886 21456 60000 10312 20260 30002 40022 70196 83520 333 58020 60025 70032 83617 86460==
41886,2024,07,15,09,00,AAXX 15094 41886 02456 61803 10340 20270 39981 40001 83570 333 58022 70032 83618 85365==
41886,2024,07,15,12,00,AAXX 15124 41886 02/56 50000 10328 20270 39977 49997 85070 333 10342 58025 70032 84460==
41886,2024,07,15,15,00,AAXX 15154 41886 02/50 50000 10300 20280 39998 40018 85070 333 58021 70032 85365==
41886,2024,07,15,18,00,AAXX 15184 41886 02440 70000 10300 20270 30011 40031 82570 333 58018 70032 82618 85460==
41886,2024,07,15,21,00,AAXX 15214 41886 02440 80000 10296 20280 30014 40034 8252/ 333 58020 70032 82618 88460==
41886,2024,07,16,00,00,AAXX 16004 41886 02456 80000 10290 20280 30015 40035 8252/ 333 58019 70016 82618 88460==
41886,2024,07,16,03,00,AAXX 16034 41886 02456 70000 10304 20260 30031 40051 85550 333 20280 58021 70002 85616 85362==
41886,2024,07,16,06,00,AAXX 16064 41886 02456 70000 10320 20270 30020 40040 84570 333 59002 70000 84616 84460 85362==
41886,2024,07,16,09,00,AAXX 16094 41886 02/47 40000 10328 20270 39996 40016 84040 333 58015 70000 84362==
41886,2024,07,16,12,00,AAXX 16124 41886 02456 80000 10322 20270 39985 40015 8352/ 333 10337 58008 70000 83617 88462==
41886,2024,07,16,15,00,AAXX 16154 41886 02/40 30000 10313 20260 30002 40022 83020 333 58004 70000 83462==
41886,2024,07,16,18,00,AAXX 16184 41886 01440 80000 10295 20270 30012 40032 72121 8452/ 333 58001 70010 84616 88460==
41886,2024,07,16,21,00,AAXX 16214 41886 02440 80000 10290 20270 30010 40030 8352/ 333 59004 70010 83617 88462==
41886,2024,07,17,00,00,AAXX 17004 41886 02450 50000 10284 20270 30005 40026 83520 333 59010 70010 83617 84462==
41886,2024,07,17,03,00,AAXX 17034 41886 02457 50000 10323 20270 30018 40038 83430 333 20284 59013 70010 82618 85363==
41886,2024,07,17,06,00,AAXX 17064 41886 02457 50000 10343 20260 30008 40028 83430 333 59012 70010 82618 85363==
41886,2024,07,17,09,00,AAXX 17094 41886 02457 50000 10355 20280 39982 40002 85400 333 59014 70010 84618==
41886,2024,07,17,12,00,AAXX 17124 41886 02456 60000 10330 20270 39971 49991 84470 333 10356 59014 70010 83618 85460==
41886,2024,07,17,15,00,AAXX 17154 41886 02456 60000 10310 20290 39993 40013 84470 333 59009 70010 83618 85460==
41886,2024,07,17,18,00,AAXX 17184 41886 02450 60000 10302 20290 39998 40018 84470 333 59014 70000 83618 85460==
41886,2024,07,17,21,00,AAXX 17214 41886 02450 60000 10302 20280 39994 40014 84470 333 59016 70000 83618 85460==
41886,2024,07,18,00,00,AAXX 18004 41886 02450 50000 10290 20290 39993 40013 83570 333 59012 70000 83618 84460==
41886,2024,07,18,03,00,AAXX 18034 41886 02456 70000 10315 20280 30003 40023 83540 333 20285 59015 70000 83618 85362==
41886,2024,07,18,06,00,AAXX 18064 41886 02457 60000 10352 20270 39988 40008 83540 333 59020 70000 83618 84362==
41886,2024,07,18,12,00,AAXX 18124 41886 02457 60000 10350 20270 39948 49968 83430 333 10368 59023 70000 82618 85362==
41888,2024,07,12,00,00,AAXX 12004 41888 11440 81202 10259 20259 30002 40012 60053 76162 8532/ 333 56399 59017 70754 81710 84616 81930 88457=
41888,2024,07,12,06,00,AAXX 12064 41888 NIL=
41888,2024,07,12,12,00,AAXX 12124 41888 NIL=
41888,2024,07,12,18,00,AAXX 12184 41888 32450 41801 10280 20260 39996 40006 82510 333 56990 59011 70059 82618 84460=
41888,2024,07,13,00,00,AAXX 13004 41888 32456 80601 10270 20260 39982 49992 8352/ 333 56999 59020 70010 83617 88459=
41888,2024,07,13,06,00,AAXX 13064 41888 32456 80904 10290 20260 39986 49996 8352/ 333 56999 59020 70000 83617 88460=
41888,2024,07,13,12,00,AAXX 13124 41888 32456 30901 10298 20260 39962 49972 81510 333 10305 56990 59015 70000 81618 83460=
41888,2024,07,13,18,00,AAXX 13184 41888 32450 60901 10289 20270 39986 49996 82510 333 56990 59010 70000 82618 86460=
41888,2024,07,14,00,00,AAXX 14004 41888 11340 80902 10269 20260 39983 49993 60287 72162 8462/ 333 56999 58001 70275 82708 84616 88458=
41888,2024,07,14,06,00,AAXX 14064 41888 11456 70601 10295 20270 39991 40001 69924 70162 83510 333 56990 58005 70277 83618 87460=
41888,2024,07,14,12,00,AAXX 14124 41888 32957 10901 10315 20260 39962 49972 80001 333 10323 56009 58000 70277 81080=
41888,2024,07,14,18,00,AAXX 14184 41888 32950 00601 10292 20280 39999 40009 333 58013 70277=
41888,2024,07,15,00,00,AAXX 15004 41888 11340 83401 10289 20280 30006 40016 69974 76062 8472/ 333 56999 58023 70009 82708 84616 88458=
41888,2024,07,15,06,00,AAXX 15064 41888 11457 50601 10324 20270 30006 40016 60036 70162 84410 333 56990 58015 70034 82618 83822 85460=
41888,2024,07,15,12,00,AAXX 15124 41888 32457 51201 10329 20280 39982 49992 83410 333 10343 56990 58020 70034 82618 85460=
41888,2024,07,15,18,00,AAXX 15184 41888 31440 82403 10314 20270 30021 40031 70522 8432/ 333 56999 58022 70034 83618 81930 88460=
41888,2024,07,16,00,00,AAXX 16004 41888 32456 81201 10289 20270 30024 40034 60014 70262 8352/ 333 56999 58018 70037 83618 88460=
41888,2024,07,16,06,00,AAXX 16064 41888 32456 80901 10315 20260 30028 40038 8251/ 333 56999 58022 70010 82618 88460=
41888,2024,07,16,12,00,AAXX 16124 41888 32457 70901 10315 20260 39993 40003 82510 333 10330 56990 58011 70010 82618 87460=
41888,2024,07,16,18,00,AAXX 16184 41888 32440 80601 10300 20270 30020 40030 8252/ 333 56999 59001 70010 82618 88459=
41888,2024,07,17,00,00,AAXX 17004 41888 32456 72101 10288 20270 30012 40022 82510 333 56990 59012 70000 82618 87460=
41888,2024,07,17,06,00,AAXX 17064 41888 32457 31802 10334 20250 30013 40023 82430 333 56990 59015 70000 81618 83360=
41888,2024,07,17,12,00,AAXX 17124 41888 32557 61201 10330 20270 39977 49987 82210 333 10360 56990 59016 70000 82822 86460=
41888,2024,07,17,18,00,AAXX 17184 41888 32950 20000 10308 20290 30008 40018 82030 333 56090 59012 70000 82364=
41888,2024,07,18,00,00,AAXX 18004 41888 32456 51801 10299 20290 39998 40008 82530 333 56990 59014 70000 82618 85364=
41888,2024,07,18,06,00,AAXX 18064 41888 32457 70601 10346 20280 39994 40004 83470 333 56990 59019 70000 82618 86460=
41888,2024,07,18,12,00,AAXX 18124 41888 NIL=
41891,2024,07,12,00,00,AAXX 12004 41891 01320 80000 10255 20250 39977 40015 76162 8632/ 333 59024 70100 86708 88457 81925==
41891,2024,07,12,03,00,AAXX 12034 41891 01330 80000 10256 20255 39988 40026 72196 8672/ 333 20250 59020 70704 85708 88457==
41891,2024,07,12,06,00,AAXX 12064 41891 01430 81004 10273 20260 39981 40019 70562 8532/ 333 59013 70898 82710 84615 88458 81930==
41891,2024,07,12,09,00,AAXX 12094 41891 01440 70905 10295 20270 39960 49998 70522 84370 333 59026 70818 84615 86460 83365 81930==
41891,2024,07,12,12,00,AAXX 12124 41891 11320 82704 10282 20260 39956 49994 60002 76122 8632/ 333 10300 59007 70818 86708 88458 81925==
41891,2024,07,12,15,00,AAXX 12154 41891 01320 80404 10263 20260 39968 40006 76166 8632/ 333 59012 70928 86708 88456 81925==
41891,2024,07,12,18,00,AAXX 12183 41891 21330 80702 10260 20260 39975 40013 76166 8632/ 333 59011 60199 71008 86708 88456 81926==
41891,2024,07,12,21,00,AAXX 12214 41891 01330 82004 10260 20260 39971 40009 76166 8632/ 333 59010 71008 86708 88456 81926==
41891,2024,07,13,00,00,AAXX 13004 41891 21330 82004 10261 20250 39965 40003 76166 8632/ 333 59012 60009 70908 86708 88456 81926==
41891,2024,07,13,03,00,AAXX 13034 41891 01445 61502 10285 20270 39969 40007 70562 84330 333 20256 59019 70390 83615 85365 81930==
41891,2024,07,13,06,00,AAXX 13064 41891 11445 81802 10310 20260 39964 40001 60006 70562 8532/ 333 59017 70190 82708 83615 88458 81930==
41891,2024,07,13,09,00,AAXX 13094 41891 01445 83502 10300 20250 39946 49984 70522 8532/ 333 59014 70190 82710 84615 88458 81930==
41891,2024,07,13,12,00,AAXX 13124 41891 01440 80204 10317 20250 39935 49972 70522 84330 333 10326 59021 70190 83615 85365 81930==
41891,2024,07,13,15,00,AAXX 13154 41891 01440 53604 10283 20260 39952 49990 70522 82530 333 59016 70080 83615 85365==
41891,2024,07,13,18,00,AAXX 13184 41891 41430 80404 10276 20270 39959 49997 70522 8532/ 333 59016 82710 84615 88459 81930==
41891,2024,07,13,21,00,AAXX 13214 41891 01320 80404 10274 20260 39960 49998 76322 8632/ 333 59011 70140 86708 88458 81925==
41891,2024,07,14,00,00,AAXX 14004 41891 21320 80404 10272 20260 39962 40000 76162 8632/ 333 59003 60177 70170 86708 88458 81925==
41891,2024,07,14,03,00,AAXX 14034 41891 01330 81204 10294 20270 39970 40008 76066 8632/ 333 20267 58001 70180 86708 88458 81925==
41891,2024,07,14,06,00,AAXX 14064 41891 11430 81504 10315 20260 39963 40000 60011 70562 8632/ 333 59001 70180 86708 88458 81930==
41891,2024,07,14,09,00,AAXX 14094 41891 01440 83504 10322 20260 39938 49975 70522 84330 333 59008 70180 84615 85365 81930==
41891,2024,07,14,12,00,AAXX 14124 41891 01440 83504 10328 20260 39937 49974 70522 84330 333 10345 58002 70180 84615 85365 81930==
41891,2024,07,14,15,00,AAXX 14154 41891 01440 83605 10292 20270 39960 49998 70522 84330 333 58008 70180 84615 85365 81930==
41891,2024,07,14,18,00,AAXX 14184 41891 01430 83604 10290 20280 39975 40013 70522 8532/ 333 58016 70180 82710 84615 88458 81930==
41891,2024,07,14,21,00,AAXX 14214 41891 01320 80504 10276 20270 39978 40016 76162 8632/ 333 58018 70080 86708 88458 81925==
41891,2024,07,15,00,00,AAXX 15004 41891 21320 80704 10270 20260 39980 40018 76166 8632/ 333 58018 60129 70130 86708 88458 81925==
41891,2024,07,15,03,00,AAXX 15034 41891 01440 61002 10300 20280 39987 40025 70162 84430 333 20265 58025 70122 83616 83822==
41891,2024,07,15,06,00,AAXX 15064 41891 11440 60804 10330 20270 39976 40013 60026 70562 84370 333 58013 70122 84615 85365 81930==
41891,2024,07,15,09,00,AAXX 15094 41891 01450 72105 10350 20260 39956 49994 70522 84370 333 58018 70122 83616 86365 81930==
41891,2024,07,15,12,00,AAXX 15124 41891 01450 53305 10325 20270 39957 49995 70522 83330 333 10360 58020 70122 83616 85365 81930==
41891,2024,07,15,15,00,AAXX 15154 41891 01430 80902 10306 20290 39984 40022 71322 8532/ 333 58024 70122 82710 83615 88458 81930==
41891,2024,07,15,18,00,AAXX 15184 41891 21325 80902 10270 20250 30001 40039 79596 8632/ 333 58026 60037 70147 86708 88458 81925==
41891,2024,07,15,21,00,AAXX 15214 41891 01325 80902 10270 20260 30000 40038 79596 8632/ 333 58022 70227 86708 88458 81925==
41891,2024,07,16,00,00,AAXX 16004 41891 21325 80000 10270 20260 39999 40037 79596 8632/ 333 58019 60339 70327 86708 88458 81925==
41891,2024,07,16,03,00,AAXX 16034 41891 01440 60000 10295 20280 30013 40051 70592 84430 333 20265 58026 70337 82616 83822==
41891,2024,07,16,06,00,AAXX 16064 41891 11450 50000 10325 20240 30000 40037 60016 70596 84830 333 58024 70337 83615==
41891,2024,07,16,09,00,AAXX 16094 41891 01450 62502 10346 20270 39974 40010 70522 83340 333 58018 70337 83615 85365==
41891,2024,07,16,12,00,AAXX 16124 41891 01445 63603 10315 20270 39967 40003 70522 83340 333 10352 58010 70337 83615 85365==
41891,2024,07,16,15,00,AAXX 16154 41891 01430 33604 10295 20280 39984 40022 70521 82530 333 58000 70337 82616 83365==
41891,2024,07,16,18,00,AAXX 16184 41891 01430 63604 10292 20270 39993 40031 70521 84330 333 59008 70312 83616 85365 81930==
41891,2024,07,16,21,00,AAXX 16214 41891 01430 83604 10285 20280 39940 40008 70522 8632/ 333 59006 70192 83710 81616 88458 81928==
41891,2024,07,17,00,00,AAXX 17004 41891 01430 83404 10282 20270 39990 40028 71762 8632/ 333 59008 70020 83710 82616 88458 81928==
41891,2024,07,17,03,00,AAXX 17034 41891 01445 63002 10305 20280 39994 40032 70592 83330 333 20280 59019 70020 83616 85365 81930==
41891,2024,07,17,06,00,AAXX 17064 41891 01450 62702 10330 20280 39987 40024 70592 83330 333 59013 70020 83616 85365 81930==
41891,2024,07,17,09,00,AAXX 17094 41891 01450 63004 10327 20260 39961 49998 70522 84330 333 59013 70020 83616 85365 81930==
41891,2024,07,17,12,00,AAXX 17124 41891 01440 62703 10320 20260 39951 49988 70522 83330 333 10340 59016 70020 83616 85365 81930==
41891,2024,07,17,15,00,AAXX 17154 41891 01440 52703 10298 20280 39972 40010 70522 82530 333 59012 70020 83615 83365==
41891,2024,07,17,18,00,AAXX 17184 41891 01440 62703 10290 20280 39978 40016 70522 83340 333 59015 70020 83615 85365==
41891,2024,07,17,21,00,AAXX 17214 41891 01440 72703 10285 20280 39968 40006 70522 84370 333 59002 70020 84615 85365 81930==
41891,2024,07,18,00,00,AAXX 18004 41891 01435 80804 10290 20280 39972 40010 70522 8532/ 333 59018 70000 82710 84615 88459 81930==
41891,2024,07,18,03,00,AAXX 18034 41891 41450 71204 10325 20280 39983 40021 70562 84370 333 20285 59011 83616 85459 81930==
41891,2024,07,18,06,00,AAXX 18064 41891 11450 70704 10345 20280 39968 40006 69946 70562 84370 333 59019 70004 83616 85459 81930==
41891,2024,07,18,09,00,AAXX 18094 41891 01450 61502 10353 20270 39938 49975 70522 83330 333 59023 70004 83616 85365 81930==
41891,2024,07,18,12,00,AAXX 18124 41891 01445 61502 10351 20290 39923 49960 70522 83330 333 10360 59028 70004 83616 85365 81930==
41895,2024,07,12,00,00,AAXX 12004 41895 21450 80000 10260 20260 39979 40001 76196 8452/ 333 59017 60109 71346 84616 88458==
41895,2024,07,12,03,00,AAXX 12034 41895 01450 80902 10280 20270 39988 40010 72162 8452/ 333 20253 59016 71354 84615 88458==
41895,2024,07,12,06,00,AAXX 12064 41895 11450 81302 10298 20280 39987 40009 60016 70262 8452/ 333 59008 71354 84615 88458==
41895,2024,07,12,09,00,AAXX 12094 41895 02450 81301 10304 20270 39971 49993 8452/ 333 58008 71354 84615 88458==
41895,2024,07,12,12,00,AAXX 12124 41895 02456 60000 10304 20280 39956 49978 84520 333 10315 59005 71354 84616 86458==
41895,2024,07,12,15,00,AAXX 12154 41895 02450 50000 10286 20280 39976 49998 83520 333 59014 70194 83616 85458==
41895,2024,07,12,18,00,AAXX 12184 41895 02450 50000 10276 20270 39979 40010 83520 333 59011 70104 83616 85458==
41895,2024,07,12,21,00,AAXX 12214 41895 02450 60000 10275 20270 39973 49995 84520 333 59006 70012 84616 86458==
41895,2024,07,13,00,00,AAXX 13004 41895 01450 81801 10273 20270 39967 49989 70522 8452/ 333 59005 70008 84616 88458==
41895,2024,07,13,03,00,AAXX 13034 41895 01456 81302 10290 20270 39975 49997 70522 8452/ 333 20265 59012 70000 84615 88458==
41895,2024,07,13,06,00,AAXX 13064 41895 02457 61802 10340 20270 39968 49989 84410 333 59019 70000 82615 83820 85458==
41895,2024,07,13,09,00,AAXX 13094 41895 02558 30902 10356 20280 39944 49965 83200 333 59027 70000 83825==
41895,2024,07,13,12,00,AAXX 13124 41895 02456 71802 10335 20280 39942 49963 84520 333 10360 59014 70000 84616 87458==
41895,2024,07,13,15,00,AAXX 13154 41895 02450 50501 10300 20270 39958 49980 83520 333 59018 70000 83616 85458==
41895,2024,07,13,18,00,AAXX 13184 41895 02450 50501 10290 20280 39967 49989 83520 333 59012 70000 83616 85458==
41895,2024,07,13,21,00,AAXX 13214 41895 02450 50000 10289 20280 39965 49987 83520 333 59008 70000 83616 85458==
41895,2024,07,14,00,00,AAXX 14004 41895 02450 60000 10288 20280 39963 49985 84520 333 59004 70000 84616 86458==
41895,2024,07,14,03,00,AAXX 14034 41895 02557 50903 10320 20270 39973 49994 82201 333 20282 59002 70000 82825 84074==
41895,2024,07,14,06,00,AAXX 14064 41895 02458 60902 10339 20270 39967 49988 84330 333 59001 70000 82615 83820 81930==
41895,2024,07,14,09,00,AAXX 14094 41895 02558 60902 10350 20270 39949 49971 82201 333 59005 70000 82825 84074==
41895,2024,07,14,12,00,AAXX 14124 41895 02456 51303 10338 20270 39944 49965 83401 333 10355 58002 70000 82616 83074==
41895,2024,07,14,15,00,AAXX 14154 41895 02450 20000 10300 20280 39971 49993 82500 333 58013 70000 82616==
41895,2024,07,14,18,00,AAXX 14184 41895 02450 60000 10290 20270 39982 40004 84520 333 58015 70000 84616 86458==
41895,2024,07,14,21,00,AAXX 14214 41895 02450 60502 10285 20280 39985 40007 84520 333 58020 70000 84616 86458==
41895,2024,07,15,00,00,AAXX 15004 41895 01450 60502 10282 20270 39991 40013 70502 83401 333 58022 70000 82616 85074==
41895,2024,07,15,03,00,AAXX 15034 41895 01450 80904 10304 20250 39998 40020 70522 8452/ 333 20277 58025 70000 84615 88458==
41895,2024,07,15,06,00,AAXX 15064 41895 02457 50904 10344 20270 39988 40010 83431 333 58021 70000 82616 83362==
41895,2024,07,15,09,00,AAXX 15094 41895 02457 50905 10317 20270 39972 49994 83401 333 58023 70000 82616 83074==
41895,2024,07,15,12,00,AAXX 15124 41895 02457 50902 10340 20270 39966 49988 83401 333 10354 58022 70000 82616 83074==
41895,2024,07,15,15,00,AAXX 15154 41895 02450 20000 10298 20280 39992 40014 82500 333 58021 70000 82617==
41895,2024,07,15,18,00,AAXX 15184 41895 02450 60902 10290 20280 30003 40025 84520 333 58021 70000 84616 86457==
41895,2024,07,15,21,00,AAXX 15214 41895 02450 60902 10287 20270 39987 40003 84520 333 58002 70000 84616 86458==
41895,2024,07,16,00,00,AAXX 16004 41895 01450 60000 10280 20270 30002 40024 70502 83401 333 58008 70000 82616 85074==
41895,2024,07,16,03,00,AAXX 16034 41895 01450 80902 10304 20270 30016 40038 70522 8452/ 333 20276 58018 70000 84615 88458==
41895,2024,07,16,06,00,AAXX 16064 41895 21456 60906 10322 20270 30005 40027 70162 83510 333 58017 60015 70008 83616 86458==
41895,2024,07,16,09,00,AAXX 16094 41895 02457 50504 10342 20280 39984 40005 83431 333 58012 70008 82616 83074==
41895,2024,07,16,12,00,AAXX 16124 41895 02456 70502 10320 20270 39976 49998 84420 333 10345 58010 70008 83616 86458==
41895,2024,07,16,15,00,AAXX 16154 41895 02450 50902 10291 20270 39994 40016 83431 333 58002 70008 82616 83074==
41895,2024,07,16,18,00,AAXX 16184 41895 02450 40502 10287 20280 30006 40028 82520 333 58003 70008 82616 83458==
41895,2024,07,16,21,00,AAXX 16214 41895 02550 50902 10281 20270 39993 40015 82201 333 59006 70008 82825 84074==
41895,2024,07,17,00,00,AAXX 17004 41895 01550 50902 10278 20278 39998 40020 70522 82201 333 59004 70008 82825 84074==
41895,2024,07,17,03,00,AAXX 17034 41895 02558 40000 10309 20280 30009 40031 82201 333 20275 59007 70008 82825==
41895,2024,07,17,06,00,AAXX 17064 41895 02558 51302 10352 20260 39999 40020 83240 333 59006 70000 83825 83362==
41895,2024,07,17,09,00,AAXX 17094 41895 32558 31802 10362 20280 39976 49997 56909 59008 70000 82201 82825=
41895,2024,07,17,12,00,AAXX 17124 41895 02556 31103 10343 20260 39965 49986 82201 333 10367 59011 70000 82825==
41895,2024,07,17,15,00,AAXX 17154 41895 02550 30901 10305 20280 39987 40009 82201 333 59007 70000 82825==
41895,2024,07,17,18,00,AAXX 17184 41895 02550 50501 10295 20290 39995 40017 82201 333 59011 70000 82825 84074==
41895,2024,07,18,00,00,AAXX 18004 41895 01550 50000 10283 20270 39990 40012 70522 82201 333 59008 70000 82825 84074==
41895,2024,07,18,03,00,AAXX 18034 41895 02457 60000 10320 20280 39994 40016 83510 333 20280 59015 70000 83616 85458==
41895,2024,07,18,06,00,AAXX 18064 41895 02458 41802 10352 20270 39984 40005 84809 333 59015 70000 82616 83825==
41895,2024,07,18,09,00,AAXX 18094 41895 02558 40502 10349 20280 39959 49980 84301 333 59017 70000 83825 81930==
41895,2024,07,18,12,00,AAXX 18124 41895 02456 51802 10352 20280 39944 49965 83520 333 10368 59021 70000 83616 85458==
41897,2024,07,12,00,00,AAXX 12004 41897 11440 80000 10265 20260 39984 49997 60249 76166 8272/ 333 56999 59038 70450 83707 88458=
41897,2024,07,12,06,00,AAXX 12064 41897 11450 71402 10295 20250 39997 40010 60016 70562 82510 333 56990 59003 70460 82617 87458=
41897,2024,07,12,12,00,AAXX 12124 41897 31950 21801 10300 20250 39965 49977 70520 82030 333 20325 56090 59007 70460 82362=
41897,2024,07,12,18,00,AAXX 12184 41897 31940 31402 10285 20280 39987 40000 70500 82030 333 56090 59014 79250 83362=
41897,2024,07,13,00,00,AAXX 13004 41897 31440 51402 10278 20270 39973 49986 70520 81530 333 56990 59011 70010 81618 85362=
41897,2024,07,13,06,00,AAXX 13064 41897 31450 61802 10330 20260 39975 49988 70522 82510 333 56990 59002 70000 82617 86458=
41897,2024,07,13,12,00,AAXX 13124 41897 32450 31401 10325 20250 39952 49964 81530 333 10345 56990 59013 70000 81618 82362=
41897,2024,07,13,18,00,AAXX 13184 41897 32440 31402 10295 20280 39972 49985 81530 333 56990 59015 70000 81618 83362=
41897,2024,07,14,00,00,AAXX 14004 41897 11440 81802 10290 20270 39971 40084 60086 70262 8252/ 333 56999 59002 70080 82617 88458=
41897,2024,07,14,06,00,AAXX 14064 41897 32450 51402 10322 20250 39978 49991 82530 333 56990 58003 70080 82618 85362=
41897,2024,07,14,12,00,AAXX 14124 41897 32456 30000 10330 20260 39954 49967 83400 333 10342 56900 58002 70080 83618=
41897,2024,07,14,18,00,AAXX 14184 41897 NIL=
41897,2024,07,15,00,00,AAXX 15004 41897 32450 80000 10290 20280 39996 40009 84310 333 56990 58027 70000 83618 81928 88458=
41897,2024,07,15,06,00,AAXX 15064 41897 32456 51402 10330 20270 39998 40011 84410 333 56990 58020 70000 82618 84458=
41897,2024,07,15,12,00,AAXX 15124 41897 32456 51402 10325 20260 39976 49989 84302 333 10338 56909 58022 70000 82618 83080=
41897,2024,07,15,18,00,AAXX 15184 41897 32456 81402 10300 20260 30000 40013 84310 333 56990 58015 70000 82620 81930 88458=
41897,2024,07,16,00,00,AAXX 16004 41897 32456 81402 10290 20270 30003 40015 84310 333 56990 58005 70000 82620 81930 88458=
41897,2024,07,16,06,00,AAXX 16064 41897 32456 81402 10320 20260 30014 40027 84310 333 56990 58016 70000 82620 81930 88458=
41897,2024,07,16,12,00,AAXX 16124 41897 32456 51402 10315 20260 39986 49999 84310 333 10330 56990 58010 70000 82620 84458=
41897,2024,07,16,18,00,AAXX 16184 41897 32456 50000 10300 20270 30005 40018 84310 333 56990 58002 70000 82620 84460=
41897,2024,07,17,00,00,AAXX 17004 41897 32456 50000 10285 20270 30005 40018 84310 333 56990 58001 70000 82620 84460=
41897,2024,07,17,06,00,AAXX 17064 41897 32456 51402 10335 20260 30009 40022 84610 333 56990 59005 70000 82620 84460=
41897,2024,07,17,12,00,AAXX 17124 41897 32456 50000 10330 20260 39994 40007 84610 333 10355 56990 59005 70000 82620 84460=
41897,2024,07,17,18,00,AAXX 17184 41897 32456 50000 10310 20270 30004 40017 84610 333 56990 59004 70000 82620 84460=
41897,2024,07,18,00,00,AAXX 18004 41897 32456 50000 10295 20270 30006 40019 80009 333 56009 58003 70000 85180=
41897,2024,07,18,06,00,AAXX 18064 41897 32456 52202 10345 20270 39988 40001 84609 333 56909 59018 70000 82620 83180=
41897,2024,07,18,12,00,AAXX 18124 41897 32456 50000 10330 20270 39972 49985 84610 333 10360 56990 59015 70000 82618 84460=
41902,2024,07,12,00,00,AAXX 12004 41902 11340 83602 10260 20250 30005 40013 60409 79596 8672/ 333 56399 59022 70400 82707 84610 88458=
41902,2024,07,12,06,00,AAXX 12064 41902 NIL=
41902,2024,07,12,12,00,AAXX 12124 41902 32456 71503 10292 20260 39986 49995 83520 333 10325 56990 58002 70550 83615 87459=
41902,2024,07,13,00,00,AAXX 13004 41902 NIL=
41902,2024,07,13,06,00,AAXX 13064 41902 NIL=
41902,2024,07,13,12,00,AAXX 13124 41902 32456 73601 10304 20270 39971 49980 83521 333 10330 56990 59015 70000 83615 87457=
41902,2024,07,14,00,00,AAXX 14004 41902 32350 81802 10284 20270 39985 49993 8672/ 333 56399 59003 70000 82707 84610 88458=
41902,2024,07,14,06,00,AAXX 14064 41902 NIL=
41902,2024,07,14,12,00,AAXX 14124 41902 32450 30902 10327 20280 39967 49975 82530 333 10340 56990 59004 70000 82614=
41902,2024,07,14,18,00,AAXX 14184 41902 NIL=
41902,2024,07,15,00,00,AAXX 15004 41902 11430 60901 10286 20280 39997 40006 60026 70262 83430 333 56990 58012 70020 83614 85362=
41902,2024,07,15,06,00,AAXX 15064 41902 11450 41301 10330 20260 30001 40009 60086 70162 82530 333 56990 58013 70100 82614 83362=
41902,2024,07,15,12,00,AAXX 15124 41902 32450 30000 10326 20280 39983 49991 82530 333 10348 56990 58016 70100 82614=
41902,2024,07,16,00,00,AAXX 16004 41902 11430 60901 10286 20280 30012 40021 60026 70162 83430 333 56990 58015 70100 83614 85362=
41902,2024,07,16,06,00,AAXX 16064 41902 32450 30901 10337 20280 30019 40028 82530 333 56990 58018 70020 82614=
41902,2024,07,16,18,00,AAXX 16184 41902 32430 20000 10300 20270 30002 40011 82500 333 56900 59005 70020 82614=
41902,2024,07,17,00,00,AAXX 17004 41902 32430 20501 10287 20270 30003 40012 82500 333 56900 59009 70000 82614=
41902,2024,07,17,06,00,AAXX 17064 41902 32450 30501 10346 20280 30014 40023 83400 333 56900 59005 70000 82614=
41902,2024,07,17,12,00,AAXX 17124 41902 32950 10501 10331 20270 39981 49990 81030 333 10353 56090 59012 70000 81362=
41902,2024,07,17,18,00,AAXX 17184 41902 32940 10000 10300 20280 39990 49999 81030 333 56090 59012 70000 81362=
41902,2024,07,18,00,00,AAXX 18004 41902 NIL=
41902,2024,07,18,06,00,AAXX 18064 41902 32450 30501 10354 20280 39992 40001 82530 333 56990 59023 70000 82614=
41902,2024,07,18,12,00,AAXX 18124 41902 NIL=
41907,2024,07,12,00,00,AAXX 12004 41907 21335 80000 10263 20260 39981 49996 59023 70230 88458 333 60119==
41907,2024,07,12,03,00,AAXX 12034 41907 01340 81802 10275 20250 39993 40008 76166 8672/ 333 20255 59017 70270 85709 88458==
41907,2024,07,12,06,00,AAXX 12064 41907 21350 81802 10298 20260 39994 40009 70262 8672/ 333 59004 60038 70255 83709==
41907,2024,07,12,09,00,AAXX 12094 41907 02350 82702 10325 20260 39974 49988 8662/ 333 59007 70255 83709 85615 88458==
41907,2024,07,12,12,00,AAXX 12124 41907 02/56 60000 10307 20270 39961 49975 85011 333 10324 59003 70255 85458 83030==
41907,2024,07,12,15,00,AAXX 12154 41907 NIL=
41907,2024,07,12,18,00,AAXX 12183 41907 02/40 20000 10275 20270 39986 40001 82030 333 59007 70135 82362==
41907,2024,07,12,21,00,AAXX 12214 41907 02940 00000 10272 20260 39978 49992 333 59007 70075==
41907,2024,07,13,00,00,AAXX 13004 41907 01940 00000 10270 20260 39971 49985 70500 333 59010 70025==
41907,2024,07,13,03,00,AAXX 13034 41907 02450 82702 10300 20260 39977 49992 8552/ 333 20268 59016 70005 85615 88458==
41907,2024,07,13,06,00,AAXX 13064 41907 02450 80000 10322 20260 39972 49987 8552/ 333 59022 70000 85615 88458==
41907,2024,07,13,09,00,AAXX 13094 41907 02456 50000 10345 20270 39948 49962 85800 333 59026 70000 82615 83825==
41907,2024,07,13,12,00,AAXX 13124 41907 02456 61302 10320 20270 39944 49959 83501 333 10352 59017 70000 83615 85080==
41907,2024,07,13,15,00,AAXX 13154 41907 02940 00000 10291 20270 39963 49978 333 59016 70000==
41907,2024,07,13,18,00,AAXX 13184 41907 02440 80000 10287 20280 39971 49985 8552/ 333 59015 70000 85615 88458==
41907,2024,07,13,21,00,AAXX 13214 41907 02440 80902 10283 20260 39964 49978 8552/ 333 59014 70000 85615 88458==
41907,2024,07,14,00,00,AAXX 14004 41907 02445 80000 10282 20260 39966 49981 8552/ 333 59005 70000 85615 88458==
41907,2024,07,14,03,00,AAXX 14034 41907 02450 51302 10315 20270 39976 49991 83530 333 20280 59001 70000 83615 83362==
41907,2024,07,14,06,00,AAXX 14064 41907 02456 61303 10340 20270 39971 49985 86800 333 59001 70000 83615 83825==
41907,2024,07,14,09,00,AAXX 14094 41907 02456 51303 10360 20260 39952 49966 85800 333 58004 70000 82615 83825==
41907,2024,07,14,12,00,AAXX 14124 41907 02450 40903 10340 20260 39948 49962 83801 333 10360 58004 70000 82615==
41907,2024,07,14,15,00,AAXX 14154 41907 02340 70000 10320 20270 39977 49992 86610 333 58014 70000 82709 85615 87458==
41907,2024,07,14,18,00,AAXX 14184 41907 02440 40000 10298 20270 39987 40001 82510 333 58016 70000 82615 84458==
41907,2024,07,14,21,00,AAXX 14214 41907 02440 40000 10290 20280 39979 49993 82510 333 58015 70000 82615 84458==
41907,2024,07,15,00,00,AAXX 15004 41907 02440 70000 10280 20270 39990 40005 85510 333 58024 70000 85615 87458==
41907,2024,07,15,03,00,AAXX 15034 41907 02450 71302 10295 20270 30000 40014 85501 333 20277 58004 70000 85615 87458==
41907,2024,07,15,06,00,AAXX 15064 41907 02350 81302 10325 20280 39996 40010 8672/ 333 58023 70000 83709 85615 88458==
41907,2024,07,15,09,00,AAXX 15094 41907 01456 61305 10350 20260 39975 49989 70162 85830 333 58023 70004 82615 83825==
41907,2024,07,15,12,00,AAXX 15124 41907 11956 51305 10335 20260 39970 49985 69946 70162 80002 333 10350 58022 70004 85080==
41907,2024,07,15,15,00,AAXX 15154 41907 02440 60902 10300 20260 39993 40007 84570 333 58016 70004 84615 85458==
41907,2024,07,15,18,00,AAXX 15184 41907 02340 80902 10290 20270 30009 40024 8662/ 333 58022 70004 82709 85615 88458==
41907,2024,07,15,21,00,AAXX 15214 41907 02440 80902 10286 20270 30002 40018 8552/ 333 58025 70004 85615 88458==
41907,2024,07,16,00,00,AAXX 16004 41907 02445 80902 10280 20260 30003 40018 8552/ 333 58013 70004 85615 88458==
41907,2024,07,16,03,00,AAXX 16034 41907 01350 81302 10305 20280 30019 40034 70262 8662/ 333 20280 58019 70006 82709 85615 88458==
41907,2024,07,16,06,00,AAXX 16064 41907 11350 80902 10310 20270 30011 40025 69926 70262 8662/ 333 58015 70006 82709 84615 88458==
41907,2024,07,16,09,00,AAXX 16094 41907 02456 71304 10332 20270 39989 40003 82801 333 58014 70002 81616 86080==
41907,2024,07,16,12,00,AAXX 16124 41907 02456 71303 10315 20270 39981 49995 82501 333 10340 58011 70002 82615 86080==
41907,2024,07,16,15,00,AAXX 16154 41907 02940 40000 10290 20280 39996 40011 80001 333 58003 70002 84080==
41907,2024,07,16,18,00,AAXX 16184 41907 02940 30000 10288 20280 30009 40023 80001 333 58000 70002 83080==
41907,2024,07,16,21,00,AAXX 16214 41907 02440 50000 10282 20270 39997 40012 83501 333 59007 70002 83615 83080==
41907,2024,07,17,00,00,AAXX 17004 41907 02450 70000 10276 20270 39998 40013 85531 333 59005 70002 85615 85080==
41907,2024,07,17,03,00,AAXX 17034 41907 02450 51802 10320 20270 30012 40026 85800 333 20275 59007 70000 82615 83825==
41907,2024,07,17,06,00,AAXX 17064 41907 02450 51802 10350 20270 30003 40017 85830 333 59008 70000 83615==
41907,2024,07,17,09,00,AAXX 17094 41907 02456 51304 10360 20260 39981 49995 82801 333 59008 70000 81615 84080==
41907,2024,07,17,12,00,AAXX 17124 41907 02956 40000 10345 20270 39967 49981 80001 333 10365 59014 70000 84080==
41907,2024,07,17,15,00,AAXX 17154 41907 02940 00000 10302 20270 39989 40004 333 58008 70000==
41907,2024,07,17,18,00,AAXX 17184 41907 02940 30000 10290 20270 30000 40015 80001 333 59009 70000 83080==
41907,2024,07,17,21,00,AAXX 17214 41907 02/40 50000 10284 20260 39992 40007 83031 333 59005 70000 83362 83080==
41907,2024,07,18,00,00,AAXX 18004 41907 02/45 70000 10280 20270 39991 40006 86031 333 59007 70000 86362==
41907,2024,07,18,03,00,AAXX 18034 41907 02456 40902 10326 20280 39996 40010 81501 333 20275 59016 70000 81615 84080==
41907,2024,07,18,06,00,AAXX 18064 41907 02456 51302 10356 20270 39986 40001 85800 333 59017 70000 83615 83825==
41907,2024,07,18,09,00,AAXX 18094 41907 02456 50000 10358 20270 39963 49977 85844 333 59018 70000 83615 83825==
41907,2024,07,18,12,00,AAXX 18124 41907 02456 30000 10355 20270 39949 49963 81501 333 10368 59018 70000 81615 83080==
41909,2024,07,12,00,00,AAXX 12004 41909 21350 80000 10259 20250 39989 40000 79596 8692/ 333 59019 60519 71052 85708 88458 81930==
41909,2024,07,12,03,00,AAXX 12034 41909 01456 61802 10274 20250 39997 40008 70196 83510 333 20244 59019 71082 82615 86458==
41909,2024,07,12,06,00,AAXX 12064 41909 01356 81802 10284 20250 39997 40008 76196 8472/ 333 59009 70040 84708 88458==
41909,2024,07,12,09,00,AAXX 12094 41909 01456 40000 10320 20260 39973 49984 70162 82530 333 59002 71092 82615 83365==
41909,2024,07,12,12,00,AAXX 12124 41909 11350 81804 10300 20250 39968 49979 60006 70362 8662/ 333 10325 58000 71080 83708 84614 88458==
41909,2024,07,12,15,00,AAXX 12154 41909 01330 80000 10270 20250 39982 49993 76162 8672/ 333 59011 71150 86708 88458==
41909,2024,07,12,18,00,AAXX 12184 41909 21440 60000 10275 20270 39986 49997 70162 83530 333 59021 60105 70648 83615 84365==
41909,2024,07,12,21,00,AAXX 12214 41909 02440 80000 10272 20260 39978 49989 8552/ 333 59023 70338 85614 88460==
41909,2024,07,13,00,00,AAXX 13004 41909 02450 80000 10270 20250 39975 49986 8552/ 333 59014 70138 85615 88460==
41909,2024,07,13,03,00,AAXX 13034 41909 02456 51802 10300 20260 39982 49993 82530 333 20242 59015 70108 82615 85360==
41909,2024,07,13,06,00,AAXX 13064 41909 02456 51801 10317 20270 39979 49990 82530 333 59018 70908 82615 85360==
41909,2024,07,13,09,00,AAXX 13094 41909 01356 81802 10310 20280 39959 49970 72122 8532/ 333 59014 70102 84708 88458 81930==
41909,2024,07,13,12,00,AAXX 13124 41909 01456 71802 10309 20280 39951 49962 70162 84370 333 10328 59017 70106 83615 81930==
41909,2024,07,13,15,00,AAXX 13154 41909 02440 70000 10294 20270 39970 49981 82520 333 59012 70036 82615 85458==
41909,2024,07,13,18,00,AAXX 13184 41909 01340 81802 10274 20260 39978 49989 72162 8562/ 333 59008 70150 84708 88458==
41909,2024,07,13,21,00,AAXX 13214 41909 02340 81802 10274 20260 39974 49985 8462/ 333 59004 70158 83708 88458==
41909,2024,07,14,00,00,AAXX 14004 41909 02356 80000 10274 20250 39972 49983 8362/ 333 59003 70158 82708 88458==
41909,2024,07,14,03,00,AAXX 14034 41909 02456 51802 10311 20260 30082 49993 82530 333 20272 58000 70158 82615 85360==
41909,2024,07,14,06,00,AAXX 14064 41909 02456 51801 10330 20270 39981 49992 82530 333 58002 70158 82615 85360==
41909,2024,07,14,09,00,AAXX 14094 41909 02456 50000 10343 20260 39957 49969 82530 333 59002 70154 82615 85360==
41909,2024,07,14,12,00,AAXX 14124 41909 02450 51802 10332 20260 39950 49962 82530 333 10347 59001 70150 82615 85360==
41909,2024,07,14,15,00,AAXX 14154 41909 02940 00000 10305 20260 39980 49991 333 58010 70150==
41909,2024,07,14,18,00,AAXX 14184 41909 02940 00000 10295 20270 39992 40003 333 58014 70000==
41909,2024,07,14,21,00,AAXX 14214 41909 02940 00000 10288 20270 39988 49999 333 58014 70000==
41909,2024,07,15,00,00,AAXX 15004 41909 02450 80000 10288 20270 39988 49999 8352/ 333 58016 70000 84708 88458==
41909,2024,07,15,03,00,AAXX 15034 41909 02456 61802 10300 20270 30008 40019 83510 333 70000 82615 86458==
41909,2024,07,15,06,00,AAXX 15064 41909 02456 52302 10324 20250 30002 40013 82530 333 58021 70000 82615 85360==
41909,2024,07,15,09,00,AAXX 15094 41909 02456 51302 10343 20260 39984 49996 82530 333 58027 70000 82615 85360==
41909,2024,07,15,12,00,AAXX 15124 41909 02456 51301 10336 20260 39974 49986 81530 333 10348 58024 70000 81615 85360==
41909,2024,07,15,15,00,AAXX 15154 41909 02430 50000 10307 20250 30004 40015 83530 333 58024 70000 82615 85360==
41909,2024,07,15,18,00,AAXX 15184 41909 02330 81301 10300 20260 30013 40024 8562/ 333 58021 70000 84708 88458==
41909,2024,07,15,21,00,AAXX 15214 41909 02330 80000 10294 20260 30010 40021 8562/ 333 58022 70000 84708 88458==
41909,2024,07,16,00,00,AAXX 16004 41909 02350 80000 10290 20260 30012 40023 8562/ 333 58024 70000 84708 88458==
41909,2024,07,16,03,00,AAXX 16034 41909 02356 80000 10307 20260 30027 40038 8562/ 333 20270 58019 70000 84708 88458==
41909,2024,07,16,06,00,AAXX 16064 41909 02456 71302 10325 20260 30019 40030 84570 333 58017 70000 84615 86460==
41909,2024,07,16,09,00,AAXX 16094 41909 02456 41302 10340 20260 39996 40007 82530 333 58012 70000 82615 83365==
41909,2024,07,16,12,00,AAXX 16124 41909 02/56 51802 10330 20250 39985 49996 85030 333 10348 58011 70000 85365==
41909,2024,07,16,15,00,AAXX 16154 41909 02/50 20000 10305 20270 30002 40013 82030 333 59002 70000 82365==
41909,2024,07,16,18,00,AAXX 16184 41909 02940 00000 10298 20270 30014 40025 333 58001 70000==
41909,2024,07,16,21,00,AAXX 16214 41909 02440 40000 10293 20260 30004 40015 82530 333 59006 70000 82615 83365==
41909,2024,07,17,00,00,AAXX 17004 41909 02456 50000 10285 20270 30002 40013 82530 333 59010 70000 82615 84365==
41909,2024,07,17,03,00,AAXX 17034 41909 02456 50000 10325 20270 30016 40027 82530 333 20274 59011 70000 82615 84365==
41909,2024,07,17,06,00,AAXX 17064 41909 02456 51301 10346 20260 30011 40022 82530 333 59008 70000 82615 85365==
41909,2024,07,17,09,00,AAXX 17094 41909 02456 41802 10354 20260 39984 49996 84800 333 59012 70000 82615 83825==
41909,2024,07,17,12,00,AAXX 17124 41909 02456 21802 10339 20270 39969 49981 82800 333 10360 59016 70000 81618==
41909,2024,07,17,15,00,AAXX 17154 41909 02940 01802 10319 20270 30004 40015 333 58002 70000==
41909,2024,07,17,18,00,AAXX 17184 41909 02940 41802 10300 20270 30004 40015 80005 333 59010 70000 84270==
41909,2024,07,17,21,00,AAXX 17214 41909 02/40 20000 10296 20280 39996 40007 82030 333 49008 70000 82360==
41909,2024,07,18,00,00,AAXX 18004 41909 02/56 20000 10294 20270 39994 40005 82030 333 59008 70000 82360==
41909,2024,07,18,03,00,AAXX 18034 41909 02956 00000 10336 20260 30002 40013 333 20282 59011 70000==
41909,2024,07,18,06,00,AAXX 18064 41909 02956 00000 10356 20260 39992 40004 333 59019 70000==
41909,2024,07,18,12,00,AAXX 18124 41909 02450 60000 10352 20260 39949 49961 83510 333 10365 59020 70000 82615 86458==
41915,2024,07,12,00,00,AAXX 12004 41915 02450 71302 10275 20259 30003 40028 85620 333 59020 70000 81712 85615 87458==
41915,2024,07,12,03,00,AAXX 12034 41915 02456 81602 10290 20270 39997 40022 8542/ 333 20270 59022 70000 84616 88458==
41915,2024,07,12,06,00,AAXX 12064 41915 02456 81802 10310 20260 39994 40019 8642/ 333 59013 70000 85616 88458==
41915,2024,07,12,09,00,AAXX 12094 41915 02456 71302 10330 20260 39973 49997 85470 333 59010 70000 84616 85458==
41915,2024,07,12,12,00,AAXX 12124 41915 21456 70000 10318 20270 39967 49992 70262 85420 333 10335 59009 69925 70002 84616 86458==
41915,2024,07,12,15,00,AAXX 12154 41915 02440 70000 10288 20260 39984 40009 85410 333 59013 70002 84616 84458==
41915,2024,07,12,18,00,AAXX 12184 41915 02440 80000 10280 20260 39984 40009 8542/ 333 59012 70002 84616 88458==
41915,2024,07,12,21,00,AAXX 12214 41915 02440 80000 10272 20250 39977 40002 8642/ 333 59016 70002 84616 88458==
41915,2024,07,13,00,00,AAXX 13004 41915 02456 80000 10266 20250 39979 40004 8642/ 333 59024 70002 85616 88458==
41915,2024,07,13,03,00,AAXX 13034 41915 02456 71302 10286 20240 39982 40006 84420 333 20266 59015 70002 83616 87458==
41915,2024,07,13,06,00,AAXX 13064 41915 01456 70000 10302 20260 39975 49999 72122 85420 333 59019 70008 84615 87458==
41915,2024,07,13,09,00,AAXX 13094 41915 01456 63102 10307 20270 39959 49983 70162 83432 333 59014 70020 83616 83362==
41915,2024,07,13,12,00,AAXX 13124 41915 11456 20502 10307 20270 39948 49972 60016 70162 81402 333 10335 59019 70018 81616==
41915,2024,07,13,21,00,AAXX 13214 41915 02440 70000 10271 20260 39974 49999 84620 333 59003 70069 82612 84615 87458==
41915,2024,07,14,00,00,AAXX 14004 41915 21450 83601 10270 20260 39975 40000 76162 8572/ 333 59004 69987 70077 83712 84615 88458==
41915,2024,07,14,03,00,AAXX 14034 41915 01456 80000 10280 20270 39986 40011 70262 8542/ 333 20267 58004 70082 84616 88458==
41915,2024,07,14,06,00,AAXX 14064 41915 11456 70000 10320 20260 39977 40001 69956 70162 85470 333 58002 70074 84616 85458==
41915,2024,07,14,09,00,AAXX 14094 41915 02456 63202 10334 20260 39947 49972 84430 333 59012 70064 83616 83362==
41915,2024,07,14,12,00,AAXX 14124 41915 02456 60000 10325 20290 39951 49976 84412 333 10343 58003 70064 83616 83458==
41915,2024,07,14,15,00,AAXX 14154 41915 02440 80000 10300 20270 39973 49998 8552/ 333 59001 70030 85616 88458==
41915,2024,07,14,18,00,AAXX 14184 41915 02440 70000 10290 20280 39988 40013 84520 333 58013 70013 84616 86458==
41915,2024,07,14,21,00,AAXX 14214 41915 01440 80000 10270 20260 39990 40015 71796 8632/ 333 58016 70191 85616 88458 81928==
41915,2024,07,15,00,00,AAXX 15004 41915 21456 70000 10268 20268 39996 40021 70196 85470 333 58021 60188 70183 84616 86458==
41915,2024,07,15,03,00,AAXX 15034 41915 02456 61301 10318 20280 30000 40025 84432 333 20260 58014 70178 83616 84362==
41915,2024,07,15,06,00,AAXX 15064 41915 02456 71501 10336 20270 39995 40020 85410 333 58018 70178 84615 87458==
41915,2024,07,15,09,00,AAXX 15094 41915 02456 61801 10350 20240 39975 40000 84432 333 58028 70178 83616 83362==
41915,2024,07,15,12,00,AAXX 15124 41915 02456 60000 10336 20290 39967 49991 84410 333 10365 58016 70178 83616 86460==
41915,2024,07,15,15,00,AAXX 15154 41915 01430 80000 10266 20266 30004 40029 79596 8692/ 333 58031 70594 83710 84615 88458 81925==
41915,2024,07,15,18,00,AAXX 15184 41915 21440 80000 10270 20270 30016 40041 72996 8432/ 333 58028 60479 70644 85615 88458 81928==
41915,2024,07,15,21,00,AAXX 15214 41915 01430 81302 10262 20250 30011 40036 76366 8532/ 333 58021 70524 85615 88458 81928==
41915,2024,07,16,00,00,AAXX 16004 41915 21450 80000 10265 20260 30010 40035 72166 8562/ 333 58014 60079 70532 82710 85615 88458==
41915,2024,07,16,03,00,AAXX 16034 41915 02456 70000 10290 20270 30026 40051 85470 333 20262 58026 70532 84616 86458==
41915,2024,07,16,06,00,AAXX 16064 41915 02456 71302 10332 20260 30012 40037 85470 333 58017 70532 83616 84458==
41915,2024,07,16,09,00,AAXX 16094 41915 02456 71301 10335 20270 39991 40016 85470 333 58016 70532 84616 85458==
41915,2024,07,16,12,00,AAXX 16124 41915 02456 70000 10330 20290 39981 40006 85470 333 10352 58014 70532 84616 85458==
41915,2024,07,16,15,00,AAXX 16154 41915 01440 81302 10290 20270 30002 40027 79522 8632/ 333 59002 70122 82710 85616 88458 81928==
41915,2024,07,16,18,00,AAXX 16184 41915 21440 40000 10280 20270 30010 40035 70196 83430 333 59002 60107 70168 82616==
41915,2024,07,16,21,00,AAXX 16214 41915 02440 70000 10275 20270 30004 40029 84470 333 59006 70110 83616 84458==
41915,2024,07,17,00,00,AAXX 17004 41915 02456 70000 10272 20260 30002 40027 84470 333 59007 70102 83616 84458==
41915,2024,07,17,03,00,AAXX 17034 41915 02456 70000 10312 20260 30013 40038 85410 333 20272 59013 70102 84615 86460==
41915,2024,07,17,06,00,AAXX 17064 41915 11456 60000 10315 20270 30003 40028 69926 72162 85430 333 59009 70104 84615 83362==
41915,2024,07,17,09,00,AAXX 17094 41915 32457 52301 10342 20260 39973 49998 83412 333 56599 59018 70104 82616 83460=
41915,2024,07,17,12,00,AAXX 17124 41915 02556 43102 10333 20260 39963 49987 82102 333 10352 59018 70104 82825 83080==
41915,2024,07,17,15,00,AAXX 17154 41915 01450 81301 10301 20280 39991 40016 71322 8332/ 333 59011 70098 83616 88458 81928==
41915,2024,07,17,21,00,AAXX 17214 41915 01450 80000 10288 20280 39988 40013 70262 8432/ 333 59016 70005 84615 88458 81928==
41915,2024,07,18,00,00,AAXX 18004 41915 01450 71301 10286 20280 39985 40010 70166 85470 333 59017 70011 84615 84458==
41915,2024,07,18,03,00,AAXX 18034 41915 02456 60000 10320 20270 39997 40022 84432 333 20285 59016 70011 83616==
41915,2024,07,18,06,00,AAXX 18064 41915 02456 60000 10350 20270 39980 40005 84402 333 59023 70009 83616 83080==
41915,2024,07,18,12,00,AAXX 18124 41915 02456 51301 10356 20280 39941 49965 84202 333 10366 59022 70009 84825==
41923,2024,07,12,00,00,AAXX 12004 41923 01330 81302 10280 20260 30000 40010 76122 8632/ 333 59022 70006 83709 84614 88458 81930==
41923,2024,07,12,03,00,AAXX 12034 41923 01312 81304 10260 20260 30015 40025 79596 8692/ 333 20258 59011 70606 84708 84614 88458 81930==
41923,2024,07,12,06,00,AAXX 12064 41923 21330 80000 10268 20268 30001 40011 79196 8632/ 333 59013 61309 71306 83708 84614 88458 81930==
41923,2024,07,12,09,00,AAXX 12094 41923 01340 81802 10308 20260 39978 49988 70262 8632/ 333 59014 71316 83709 84615 88458 81930==
41923,2024,07,12,12,00,AAXX 12124 41923 11340 72102 10289 20260 39979 49989 60016 70162 84630 333 10310 59006 71311 82709 83615 85360==
41923,2024,07,12,15,00,AAXX 12154 41923 02340 80000 10280 20260 39990 40000 8532/ 333 59017 71311 82709 84615 88458 81930==
41923,2024,07,12,18,00,AAXX 12183 41923 21340 80000 10277 20260 39997 40007 70262 8532/ 333 59010 60005 71311 82709 84615 88458 81930==
41923,2024,07,12,21,00,AAXX 12214 41923 01340 80000 10276 20260 39983 49993 70262 8532/ 333 59010 71311 82709 84615 88458 81930==
41923,2024,07,13,00,00,AAXX 13004 41923 11340 80000 10275 20260 39983 49993 60006 70262 8532/ 333 59017 71310 82709 84615 88458 81930==
41923,2024,07,13,03,00,AAXX 13034 41923 02340 71802 10305 20260 39989 49999 84670 333 20247 59026 70700 82709 83615 86458==
41923,2024,07,13,06,00,AAXX 13064 41923 02340 81703 10319 20250 39984 49994 8532/ 333 59017 70010 82709 84615 88458 81930==
41923,2024,07,13,09,00,AAXX 13094 41923 42450 70000 10320 20260 39963 49973 84330 333 59015 83615 85360 81930==
41923,2024,07,13,12,00,AAXX 13124 41923 42450 61803 10320 20260 39957 49967 83430 333 10327 59022 82615 84360==
41923,2024,07,13,15,00,AAXX 13154 41923 42450 40000 10300 20260 39979 49989 81530 333 59011 81616 84360==
41923,2024,07,13,18,00,AAXX 13184 41923 42/50 30000 10292 20260 39986 49996 83030 333 59011 83360==
41923,2024,07,13,21,00,AAXX 13214 41923 02445 30000 10288 20260 39973 49983 81530 333 59010 70000 81616 83360==
41923,2024,07,14,00,00,AAXX 14004 41923 02340 70000 10282 20260 39981 49991 84670 333 59002 70000 82709 83615 85458==
41923,2024,07,14,03,00,AAXX 14034 41923 02456 61602 10320 20260 39988 49998 84430 333 20280 59001 70000 82615 83824==
41923,2024,07,14,06,00,AAXX 14064 41923 02456 70000 10326 20260 39985 49995 85330 333 58001 70000 83615 83824 81930==
41923,2024,07,14,09,00,AAXX 14094 41923 02450 70000 10323 20260 39965 49975 85330 333 58002 70000 83615 83824 85360 81930==
41923,2024,07,14,12,00,AAXX 14124 41923 21450 60000 10313 20270 39960 49970 70162 84430 333 10345 58803 60055 70050 82709 83824 85360==
41923,2024,07,14,15,00,AAXX 14154 41923 02/50 20000 10297 20250 39983 49993 82030 333 58004 70050 82365==
41923,2024,07,14,18,00,AAXX 14184 41923 02/45 20000 10286 20270 30000 40010 82030 333 58014 70050 82360==
41923,2024,07,14,21,00,AAXX 14214 41923 02440 50000 10285 20270 39999 40009 82530 333 58026 70050 82615 85360==
41923,2024,07,15,00,00,AAXX 15004 41923 21340 70000 10284 20260 30004 40014 70362 84670 333 58023 60005 70052 82709 83615 85458==
41923,2024,07,15,03,00,AAXX 15034 41923 02350 70602 10320 20260 30011 40021 84670 333 20284 58023 70052 82709 83615 85458==
41923,2024,07,15,06,00,AAXX 15064 41923 21350 70000 10348 20240 30005 40014 70262 84670 333 58020 60005 70052 82709 83615 85458==
41923,2024,07,15,09,00,AAXX 15094 41923 02340 80903 10342 20250 39989 49999 8532/ 333 58024 70052 82709 84615 88458 81930==
41923,2024,07,15,12,00,AAXX 15124 41923 02450 61802 10327 20250 39983 49993 84430 333 10349 58023 70002 82616 83824 85360==
41923,2024,07,15,15,00,AAXX 15154 41923 02340 71602 10306 20260 30006 40016 84617 333 58023 70002 81709 84615 86458==
41923,2024,07,15,18,00,AAXX 15184 41923 01350 71802 10300 20250 30016 40026 72122 84370 333 58016 70000 82709 84615 87458 81930==
41923,2024,07,15,21,00,AAXX 15214 41923 02340 70000 10296 20250 30012 40022 85370 333 58013 70002 82709 84615 86458 81930==
41923,2024,07,16,00,00,AAXX 16004 41923 42340 80602 10293 20240 30017 40027 8532/ 333 58013 82709 84615 88458 81930==
41923,2024,07,16,03,00,AAXX 16034 41923 42340 80603 10306 20250 30033 40043 8532/ 333 20290 58022 82709 84615 88458 81930==
41923,2024,07,16,06,00,AAXX 16064 41923 01340 70602 10316 20260 30023 40033 72122 85370 333 58018 70000 82709 84615 86458 81930==
41923,2024,07,16,09,00,AAXX 16094 41923 01450 71802 10311 20260 30004 40014 72162 84570 333 58039 70004 84615 86460==
41923,2024,07,16,12,00,AAXX 16124 41923 11450 51202 10325 20260 39993 40003 69946 70162 82530 333 10340 58033 70004 82615 85365==
41923,2024,07,16,15,00,AAXX 16154 41923 01440 50000 10307 20270 30009 40019 70522 82530 333 58003 70004 82615 85365==
41923,2024,07,16,18,00,AAXX 16184 41923 01440 50000 10298 20270 30019 40029 70522 82530 333 58003 70004 82615 85365==
41923,2024,07,16,21,00,AAXX 16214 41923 01440 50000 10291 20260 30012 40022 70522 82530 333 58000 70004 82615 85365==
41923,2024,07,17,00,00,AAXX 17004 41923 01440 60000 10285 20270 30011 40021 70522 83530 333 59006 70004 83615 86365==
41923,2024,07,17,03,00,AAXX 17034 41923 02456 61802 10320 20260 30021 40031 83530 333 20282 59002 70004 83615 86365==
41923,2024,07,17,06,00,AAXX 17064 41923 02456 60902 10333 20260 30016 40026 83530 333 59007 70004 83615 86365==
41923,2024,07,17,09,00,AAXX 17094 41923 02456 71603 10350 20260 39989 49999 85430 333 59015 70000 83615 83824 85360==
41923,2024,07,17,12,00,AAXX 17124 41923 02456 50000 10338 20260 39979 49989 82431 333 10354 59014 70000 81616 83080==
41923,2024,07,17,15,00,AAXX 17154 41923 02450 50000 10310 20260 30003 40013 82530 333 59003 70000 82616 84360==
41923,2024,07,17,18,00,AAXX 17184 41923 02450 60000 10301 20250 30008 40018 82530 333 59011 70000 82616 85360==
41923,2024,07,17,21,00,AAXX 17214 41923 02450 60000 10292 20260 39993 40003 82530 333 59019 70000 82616 85360==
41923,2024,07,18,00,00,AAXX 18004 41923 02450 60000 10285 20260 39997 40007 82530 333 59014 70000 82616 85360==
41923,2024,07,18,03,00,AAXX 18034 41923 02456 50000 10338 20240 30006 40016 81531 333 20284 59015 70000 81616 83360==
41923,2024,07,18,06,00,AAXX 18064 41923 02456 50902 10356 20260 39995 40004 84430 333 59021 70000 82616 83824==
41923,2024,07,18,09,00,AAXX 18094 41923 02456 50000 10368 20250 39966 49975 82530 333 59023 70000 82615 85360==
41923,2024,07,18,12,00,AAXX 18124 41923 02450 50000 10354 20250 39955 49965 82530 333 10380 59024 70000 82615 85360==
41923,2024,07,18,18,00,AAXX 18184 41923 NIL=
41923,2024,07,18,21,00,AAXX 18214 41923 NIL=
41926,2024,07,12,00,00,AAXX 12004 41926 01350 80000 10268 20268 39981 49995 76162 8672/ 333 59026 70030 83708 84615 88458==
41926,2024,07,12,03,00,AAXX 12034 41926 01350 80000 10275 20270 39993 40007 76166 8672/ 333 20264 59020 70054 83708 84615 88458==
41926,2024,07,12,06,00,AAXX 12064 41926 21350 81502 10280 20260 39991 40005 70262 8672/ 333 59012 60038 70060 82708 84615 88458==
41926,2024,07,12,09,00,AAXX 12094 41926 02450 80000 10304 20250 39975 49989 8452/ 333 59028 70060 84615 88458==
41926,2024,07,12,12,00,AAXX 12124 41926 02450 40000 10295 20270 39968 49982 84500 333 10310 58002 70060 84618==
41926,2024,07,12,15,00,AAXX 12154 41926 02450 20000 10280 20260 39981 49995 82500 333 59013 70060 82618==
41926,2024,07,12,18,00,AAXX 12184 41926 02450 20000 10275 20260 39984 49998 82500 333 59008 70060 82618==
41926,2024,07,12,21,00,AAXX 12214 41926 02450 60000 10270 20260 39968 49982 83510 333 59017 70060 83616 86459==
41926,2024,07,13,00,00,AAXX 13004 41926 02450 80000 10265 20260 39971 49995 8452/ 333 59010 70030 84615 88458==
41926,2024,07,13,03,00,AAXX 13034 41926 02450 60000 10302 20260 39977 49990 84510 333 20264 59016 70006 84615 86459==
41926,2024,07,13,06,00,AAXX 13064 41926 02456 50000 10340 20260 39972 49985 85400 333 59019 70000 83618 83820==
41926,2024,07,13,09,00,AAXX 13094 41926 02456 20000 10335 20260 39952 49965 82500 333 59023 70000 82618==
41926,2024,07,13,12,00,AAXX 13124 41926 02450 20000 10322 20250 39945 49958 82500 333 10358 59023 70000 82618==
41926,2024,07,13,15,00,AAXX 13154 41926 02450 50000 10302 20270 39963 49976 82510 333 59017 70000 82618 85459==
41926,2024,07,13,18,00,AAXX 13184 41926 02450 50000 10292 20270 39971 49984 82510 333 59013 70000 82618 85459==
41926,2024,07,13,21,00,AAXX 13214 41926 02450 20000 10282 20260 39968 49981 82500 333 58000 70000 82618==
41926,2024,07,14,00,00,AAXX 14004 41926 02450 10000 10276 20270 39965 49978 81500 333 59006 70000 81618==
41926,2024,07,14,03,00,AAXX 14034 41926 02450 50000 10310 20260 39975 49988 85400 333 20276 59002 70000 83618==
41926,2024,07,14,06,00,AAXX 14064 41926 02456 50000 10345 20270 39972 49984 85400 333 58000 70000 83618==
41926,2024,07,14,09,00,AAXX 14094 41926 02456 30000 10358 20260 39950 49963 83400 333 59002 70000 82618==
41926,2024,07,14,12,00,AAXX 14124 41926 02450 30000 10323 20270 39951 49964 83300 333 10368 58006 70000 82618 81930==
41926,2024,07,14,15,00,AAXX 14154 41926 02450 10000 10297 20260 39972 49985 81500 333 58009 70000 81618==
41926,2024,07,14,18,00,AAXX 14184 41926 02450 10000 10285 20280 39984 49997 81500 333 58013 70000 81618==
41926,2024,07,14,21,00,AAXX 14214 41926 02450 10000 10280 20260 39984 49997 81500 333 58016 70000 81618==
41926,2024,07,15,00,00,AAXX 15004 41926 02450 20000 10278 20260 39986 49999 82500 333 58021 70000 82618==
41926,2024,07,15,03,00,AAXX 15034 41926 02450 80000 10307 20260 39997 40010 8452/ 333 20277 58022 70000 84616 88458==
41926,2024,07,15,06,00,AAXX 15064 41926 01456 40000 10317 20280 39991 40004 70162 83401 333 58019 70030 82618 83080==
41926,2024,07,15,09,00,AAXX 15094 41926 02456 70000 10340 20270 39974 49987 84410 333 58024 70032 83618 87459==
41926,2024,07,15,12,00,AAXX 15124 41926 02456 50000 10323 20250 39968 49981 85400 333 10348 58017 70032 85618==
41926,2024,07,15,15,00,AAXX 15154 41926 02450 20000 10295 20270 39992 40005 82500 333 58020 70032 82618==
41926,2024,07,15,18,00,AAXX 15184 41926 02450 50000 10286 20270 30003 40016 82510 333 58019 70032 82618 85459==
41926,2024,07,15,21,00,AAXX 15214 41926 02450 60000 10282 20260 30002 40015 83510 333 58018 70032 83618 85459==
41926,2024,07,16,00,00,AAXX 16004 41926 02450 60000 10278 20270 39999 40012 83510 333 58013 70032 83618 85459==
41926,2024,07,16,03,00,AAXX 16034 41926 02350 80000 10295 20270 30015 40028 8462/ 333 20278 58018 70032 82708 83615 88458==
41926,2024,07,16,06,00,AAXX 16064 41926 21456 50000 10315 20280 30011 40024 72162 84510 333 58020 69927 70002 84615 85459==
41926,2024,07,16,09,00,AAXX 16094 41926 02456 51802 10347 20270 39984 49997 85400 333 58010 70002 82618 83825==
41926,2024,07,16,12,00,AAXX 16124 41926 02956 31802 10320 20270 39978 49991 80001 333 10356 58010 70002 83080==
41926,2024,07,16,18,00,AAXX 16184 41926 02950 20000 10290 20280 30006 40019 80001 333 58003 70002 82080==
41926,2024,07,16,21,00,AAXX 16214 41926 02950 20000 10285 20270 30004 40017 80001 333 58002 70002 82080==
41926,2024,07,17,00,00,AAXX 17004 41926 02950 30000 10282 20270 30001 40014 80001 333 70002 83080==
41926,2024,07,17,03,00,AAXX 17034 41926 02456 50000 10318 20270 30011 40024 84401 333 20277 59004 70002 83618 83080==
41926,2024,07,17,06,00,AAXX 17064 41926 02456 60000 10344 20270 30005 40018 85401 333 59006 70000 83618 83820==
41926,2024,07,17,09,00,AAXX 17094 41926 32456 51801 10350 20260 39979 49992 85400 333 56900 59005 70000 82618 83820=
41926,2024,07,17,12,00,AAXX 17124 41926 02956 30000 10325 20260 39976 49989 80001 333 10362 59002 70000 83080==
41926,2024,07,17,15,00,AAXX 17154 41926 02950 30000 10300 20270 39992 40005 80001 333 59004 70000 83080==
41926,2024,07,17,18,00,AAXX 17184 41926 02950 30000 10295 20280 30001 40014 80001 333 59005 70000 83080==
41926,2024,07,17,21,00,AAXX 17214 41926 02950 20000 10285 20270 39997 40010 80001 333 59007 70000 82080==
41926,2024,07,18,00,00,AAXX 18004 41926 02950 30000 10278 20260 39991 40004 80001 333 59010 70000 83080==
41926,2024,07,18,03,00,AAXX 18034 41926 02956 40000 10336 20270 39993 40006 80001 333 20275 59018 70000 84080==
41926,2024,07,18,06,00,AAXX 18064 41926 02456 50000 10367 20260 39988 40001 84401 333 59017 70000 82618 83820==
41926,2024,07,18,09,00,AAXX 18094 41926 02456 60000 10370 20260 39959 49972 85430 333 59020 70000 83618 83820==
41926,2024,07,18,12,00,AAXX 18124 41926 02450 60000 10350 20270 39948 49961 84401 333 10376 59028 70000 82618 83820==
41927,2024,07,12,00,00,AAXX 12004 41927 11340 81801 10257 20257 39982 49997 60999 76596 8672/ 333 56499 59025 71107 82707 84615 88458=
41927,2024,07,12,06,00,AAXX 12064 41927 11456 80000 10280 20250 39996 40011 60036 70262 8352/ 333 56499 59006 71133 83618 88458=
41927,2024,07,12,12,00,AAXX 12124 41927 32457 51801 10297 20260 39964 49978 82510 333 10302 56490 59006 71023 82618 85459=
41927,2024,07,12,18,00,AAXX 12184 41927 32956 30000 10270 20260 39986 40001 83010 333 56090 59002 71011 83459=
41927,2024,07,13,00,00,AAXX 13004 41927 31950 30000 10255 20255 39972 49987 70500 83010 333 56090 59010 70026 83459=
41927,2024,07,13,06,00,AAXX 13064 41927 32457 31701 10332 20260 39974 49988 83400 333 56400 59022 70000 82618=
41927,2024,07,13,12,00,AAXX 13124 41927 32457 61901 10310 20270 39947 49961 83511 333 10340 56499 59017 70000 83618 85459=
41927,2024,07,14,00,00,AAXX 14004 41927 32950 30000 10280 20270 39968 49983 83010 333 56090 59004 70000 83459=
41927,2024,07,14,06,00,AAXX 14064 41927 32458 51701 10327 20260 39971 49985 85400 333 56400 59003 70000 82618 83828=
41927,2024,07,14,12,00,AAXX 14124 41927 32458 41601 10315 20270 39953 49967 84400 333 10345 56400 58006 70000 81618 83829=
41927,2024,07,14,18,00,AAXX 14184 41927 NIL=
41927,2024,07,15,00,00,AAXX 15004 41927 32956 31801 10280 20260 39998 40013 83010 333 56090 58030 70000 83459=
41927,2024,07,15,06,00,AAXX 15064 41927 11456 61303 10320 20270 39993 40007 69964 72162 84410 333 56390 58022 70006 83617 85459=
41927,2024,07,15,12,00,AAXX 15124 41927 32456 61603 10318 20260 39972 49986 83510 333 10340 56490 58019 70006 83617 85459=
41927,2024,07,16,00,00,AAXX 16004 41927 32456 60000 10275 20270 30004 40019 83510 333 56590 58006 70006 83617 85459=
41927,2024,07,16,06,00,AAXX 16064 41927 32457 51802 10303 20260 30017 40032 85400 333 56400 58024 70000 82618 83825=
41927,2024,07,16,12,00,AAXX 16124 41927 32457 41802 10302 20260 39980 49995 82510 333 56490 58008 70000 82618 84459=
41927,2024,07,17,00,00,AAXX 17004 41927 32956 01801 10275 20270 39998 40013 333 59006 70000=
41927,2024,07,17,06,00,AAXX 17064 41927 32457 61802 10330 20260 30004 40018 83510 333 56490 59013 70000 83617 85459=
41927,2024,07,17,12,00,AAXX 17124 41927 32957 01801 10334 20270 39968 49982 333 10344 59012 70000=
41927,2024,07,17,18,00,AAXX 17184 41927 32956 01801 10290 20270 30000 40015 333 59002 70000=
41927,2024,07,18,00,00,AAXX 18004 41927 32956 00000 10280 20270 39990 40005 333 59008 70000=
41927,2024,07,18,06,00,AAXX 18064 41927 32458 21802 10346 20250 39990 40004 82500 333 56400 59014 70000 82618=
41927,2024,07,18,12,00,AAXX 18124 41927 NIL=
41929,2024,07,12,00,00,AAXX 12004 41929 01450 80000 10260 20250 39994 40004 76162 8652/ 333 59022 70020 86617 88458==
41929,2024,07,12,03,00,AAXX 12034 41929 01456 80000 10265 20260 30000 40009 76166 8552/ 333 20255 59022 70560 83616 88458==
41929,2024,07,12,06,00,AAXX 12064 41929 21456 80000 10288 20260 30003 40012 70262 8551/ 333 59008 60329 70565 85618 88462==
41929,2024,07,12,09,00,AAXX 12094 41929 02456 81602 10310 20270 39981 49991 8551/ 333 59005 70357 85617 88460==
41929,2024,07,12,12,00,AAXX 12124 41929 01450 80000 10276 20270 39979 49989 76166 8652/ 333 10315 58000 70190 86616 88458==
41929,2024,07,12,15,00,AAXX 12154 41929 01450 60000 10270 20260 39992 40002 70162 83510 333 59008 70557 83617 86460==
41929,2024,07,12,18,00,AAXX 12184 41929 11450 60000 10270 20260 39993 40003 60036 70262 83510 333 58000 70557 83618 86460==
41929,2024,07,12,21,00,AAXX 12214 41929 02450 60000 10270 20260 39982 49992 83510 333 59006 70557 83618 86460==
41929,2024,07,13,00,00,AAXX 13004 41929 02456 60000 10270 20260 39982 49992 83510 333 59012 70537 83618 86460==
41929,2024,07,13,03,00,AAXX 13034 41929 02456 60000 10305 20270 39987 49996 83510 333 20260 59013 70221 83618 86462==
41929,2024,07,13,06,00,AAXX 13064 41929 02457 50902 10338 20260 39983 49992 85400 333 59020 70216 82618 83825==
41929,2024,07,13,09,00,AAXX 13094 41929 02457 61902 10345 20270 39961 49971 84470 333 59020 70216 82618 83460==
41929,2024,07,13,12,00,AAXX 13124 41929 02457 61902 10320 20280 39953 49963 84470 333 10350 59026 70026 82618 83460==
41929,2024,07,13,15,00,AAXX 13154 41929 01456 80000 10285 20280 39975 49985 70362 8452/ 333 59007 70080 84617 88460==
41929,2024,07,13,18,00,AAXX 13184 41929 11456 50000 10285 20280 39980 49990 60086 70162 82510 333 59013 70080 82618 84460==
41929,2024,07,13,21,00,AAXX 13214 41929 02456 50000 10280 20270 39977 49987 82510 333 59005 70080 82618 84460==
41929,2024,07,14,00,00,AAXX 14004 41929 02456 50000 10280 20270 39975 49985 82510 333 59007 70080 82618 84460==
41929,2024,07,14,03,00,AAXX 14034 41929 02456 51602 10306 20270 39986 49995 83510 333 20274 59001 70080 83618 85462==
41929,2024,07,14,06,00,AAXX 14064 41929 02457 40902 10332 20270 39983 49992 84400 333 58000 70080 81618 83825==
41929,2024,07,14,09,00,AAXX 14094 41929 02457 80802 10345 20270 39961 49971 83430 333 58000 70080 82618 83365==
41929,2024,07,14,12,00,AAXX 14124 41929 02457 40000 10330 20260 39961 49971 83430 333 10350 59008 70080 82618 83365==
41929,2024,07,14,15,00,AAXX 14154 41929 02457 40000 10300 20270 39987 49997 82530 333 58012 70000 82618 83365==
41929,2024,07,14,18,00,AAXX 14184 41929 02457 40000 10290 20270 39996 40006 82530 333 58016 70000 82618 83365==
41929,2024,07,14,21,00,AAXX 14214 41929 02457 40000 10280 20260 39995 40005 82530 333 58018 70000 82618 83365==
41929,2024,07,15,00,00,AAXX 15004 41929 02/57 30000 10285 20270 39997 40007 83030 333 58022 70000 83365==
41929,2024,07,15,03,00,AAXX 15034 41929 02457 61804 10318 20250 30007 40016 83430 333 58021 70000 82618 85365==
41929,2024,07,15,06,00,AAXX 15064 41929 02457 61404 10340 20260 30002 40011 82540 333 58019 70000 82618 85365==
41929,2024,07,15,12,00,AAXX 15124 41929 02457 61605 10320 20250 39980 49990 83430 333 10345 58019 70000 82618 83365==
41929,2024,07,15,18,00,AAXX 15184 41929 02457 61403 10290 20270 30014 40024 83430 333 58018 70000 83618 83365==
41929,2024,07,15,21,00,AAXX 15214 41929 02457 60000 10284 20260 30004 40014 83430 333 58009 70000 83618 83365==
41929,2024,07,16,00,00,AAXX 16004 41929 02456 80902 10286 20270 30011 40021 8351/ 333 58018 70000 83617 88460==
41929,2024,07,16,03,00,AAXX 16034 41929 02456 80903 10292 20260 30029 40038 8352/ 333 20280 58022 70000 83618 88462==
41929,2024,07,16,06,00,AAXX 16064 41929 02456 81403 10325 20280 30021 40030 8352/ 333 58019 70000 83618 88462==
41929,2024,07,16,09,00,AAXX 16094 41929 01456 81302 10295 20290 30001 40010 72162 8452/ 333 58014 70148 84616 88459==
41929,2024,07,16,12,00,AAXX 16124 41929 11457 51803 10323 20260 39989 49998 60151 70162 83430 333 10327 58009 70148 82618 84365==
41929,2024,07,16,15,00,AAXX 16154 41929 02/56 30000 10294 20270 30005 40014 83030 333 58000 70148 83365==
41929,2024,07,16,18,00,AAXX 16184 41929 02/56 30000 10285 20280 30017 40026 83030 333 58003 70148 83365==
41929,2024,07,16,21,00,AAXX 16214 41929 02/56 30000 10283 20270 30010 40019 83030 333 58006 70148 83365==
41929,2024,07,17,00,00,AAXX 17004 41929 02/56 50000 10280 20270 30003 40012 85030 333 59008 70148 85365==
41929,2024,07,17,03,00,AAXX 17034 41929 02457 61802 10322 20260 30019 40028 83430 333 20275 59010 70148 82618 84365==
41929,2024,07,17,06,00,AAXX 17064 41929 02457 60000 10330 20270 30014 40023 83430 333 59007 70148 82618 84365==
41929,2024,07,17,09,00,AAXX 17094 41929 02457 60000 10350 20270 39992 40001 84430 333 59009 70000 83618 83365==
41929,2024,07,17,12,00,AAXX 17124 41929 02557 51802 10340 20250 39978 49987 82130 333 10352 59011 70000 82825 83365==
41929,2024,07,17,15,00,AAXX 17154 41929 02/56 40000 10302 20280 39998 40007 84030 333 59007 70000 84365==
41929,2024,07,17,18,00,AAXX 17184 41929 02/56 50000 10293 20280 30008 40017 85030 333 59009 70000 85365==
41929,2024,07,17,21,00,AAXX 17214 41929 02/56 50000 10289 20280 30000 40009 85030 333 59010 70000 85365==
41929,2024,07,18,00,00,AAXX 18004 41929 02/56 40000 10285 20280 39992 40001 84030 333 59011 70000 84365==
41929,2024,07,18,03,00,AAXX 18034 41929 02457 40000 10340 20260 30003 40012 82540 333 20260 59016 70000 82618 83365==
41929,2024,07,18,06,00,AAXX 18064 41929 02458 21602 10355 20270 39996 40005 82540 333 59018 70000 82618==
41929,2024,07,18,09,00,AAXX 18094 41929 02458 40902 10360 20260 39969 49978 83430 333 59023 70000 82618 83365==
41929,2024,07,18,12,00,AAXX 18124 41929 02558 51302 10353 20270 39955 49964 82130 333 10367 59023 70000 82825 83365==
41933,2024,07,12,00,00,AAXX 12004 41933 02450 70000 10265 20260 30004 40013 83520 333 59026 70235 83618 87458==
41933,2024,07,12,03,00,AAXX 12034 41933 02356 81804 10290 20260 30014 40023 8562/ 333 20261 59014 70232 83710 83616 88457==
41933,2024,07,12,06,00,AAXX 12064 41933 02356 82206 10305 20260 30006 40016 8672/ 333 59015 70232 83709 83615 88456==
41933,2024,07,12,09,00,AAXX 12094 41933 01456 71702 10280 20260 39979 49988 72162 84530 333 59024 70358 84617 86362==
41933,2024,07,12,12,00,AAXX 12124 41933 21356 71804 10280 20260 39984 49993 70262 85630 333 10318 59013 60138 70306 83710 83617 85362==
41933,2024,07,12,15,00,AAXX 12154 41933 02456 61703 10279 20260 39992 40001 83510 333 59015 70126 83618 86459==
41933,2024,07,12,18,00,AAXX 12184 41933 01350 81802 10270 20260 39996 40005 76122 8572/ 333 59019 70126 82709 84615 88458==
41933,2024,07,12,21,00,AAXX 12214 41933 01450 80000 10268 20260 39989 49998 70262 8452/ 333 59019 70128 84616 88458==
41933,2024,07,13,00,00,AAXX 13004 41933 11450 80000 10265 20260 39983 49992 69926 70262 8452/ 333 59021 70128 84616 88458==
41933,2024,07,13,03,00,AAXX 13034 41933 02450 61802 10285 20260 39987 49996 83520 333 20265 59027 70128 83618 86458==
41933,2024,07,13,06,00,AAXX 13064 41933 02450 60000 10300 20260 39984 49993 83520 333 59024 70128 83618 86458==
41933,2024,07,13,09,00,AAXX 13094 41933 02456 61902 10310 20260 39968 49977 83520 333 59011 70002 83618 86458==
41933,2024,07,13,12,00,AAXX 13124 41933 02456 50000 10310 20260 39962 49970 82530 333 10325 59022 70002 82618 85362==
41933,2024,07,13,15,00,AAXX 13154 41933 02/56 31902 10290 20270 39981 49989 83030 333 59011 70002 83362==
41933,2024,07,13,18,00,AAXX 13184 41933 42456 31704 10280 20260 39989 49997 81530 333 59007 81618 83362==
41933,2024,07,13,21,00,AAXX 13214 41933 02456 31703 10278 20260 39985 49993 82530 333 59004 70000 82618 83362==
41933,2024,07,14,00,00,AAXX 14004 41933 02456 71803 10272 20260 39983 49992 81531 333 58000 70000 81618 83362 85074==
41933,2024,07,14,03,00,AAXX 14034 41933 02456 51802 10304 20250 39988 49996 84440 333 20272 58001 70000 82618 83826==
41933,2024,07,14,06,00,AAXX 14064 41933 02456 50000 10325 20260 39984 49992 84440 333 58000 70000 82618 83826==
41933,2024,07,14,09,00,AAXX 14094 41933 02456 51702 10343 20260 39951 49959 83442 333 59017 70000 81618 83827==
41933,2024,07,14,12,00,AAXX 14124 41933 02556 51802 10324 20260 39960 49969 82242 333 10346 59002 70000 82828 85080==
41933,2024,07,14,15,00,AAXX 14154 41933 02456 40000 10290 20270 39982 49991 84400 333 58001 70000 83618==
41933,2024,07,14,18,00,AAXX 14184 41933 02456 40000 10290 20270 30002 40010 84400 333 58013 70000 83618==
41933,2024,07,14,21,00,AAXX 14214 41933 02456 50000 10280 20260 30003 40011 82520 333 58018 70000 82618 85458==
41933,2024,07,15,00,00,AAXX 15004 41933 02450 50000 10280 20270 30004 40012 82520 333 58021 70000 82618 85458==
41933,2024,07,15,03,00,AAXX 15034 41933 02456 71802 10318 20250 30014 40022 83841 333 20280 58026 70000 82618 83362==
41933,2024,07,15,06,00,AAXX 15064 41933 02456 61805 10340 20260 30006 40015 83841 333 58020 70000 81618 83827==
41933,2024,07,15,09,00,AAXX 15094 41933 02456 61805 10350 20270 39985 49994 83841 333 58033 70000 81618 83827==
41933,2024,07,15,12,00,AAXX 15124 41933 02456 71905 10310 20280 39987 49996 82847 333 10355 58027 70000 81618 83362 86074==
41933,2024,07,15,15,00,AAXX 15154 41933 02456 61802 10295 20260 30009 40017 83510 333 58027 70000 83618 86459==
41933,2024,07,15,18,00,AAXX 15184 41933 02450 60000 10290 20270 30020 40028 83510 333 58018 70000 83616 86459==
41933,2024,07,15,21,00,AAXX 15214 41933 02950 40000 10282 20250 30004 40012 81540 333 58001 70000 81618 84362==
41933,2024,07,16,00,00,AAXX 16004 41933 02456 50000 10280 20260 30010 40018 82542 333 58006 70000 82618 84362==
41933,2024,07,16,03,00,AAXX 16034 41933 02456 41902 10310 20250 30030 40038 84400 333 20277 58016 70000 83618==
41933,2024,07,16,06,00,AAXX 16064 41933 02456 61802 10325 20270 30020 40028 83520 333 58014 70000 83618 86458==
41933,2024,07,16,09,00,AAXX 16094 41933 02456 61803 10325 20260 30000 40008 83520 333 58015 70000 83618 86458==
41933,2024,07,16,12,00,AAXX 16124 41933 02456 40000 10325 20270 39990 49999 84400 333 10338 58003 70000 83618==
41933,2024,07,16,15,00,AAXX 16154 41933 02/56 40000 10295 20280 30016 40024 82041 333 58007 70000 82362 83074==
41933,2024,07,16,18,00,AAXX 16184 41933 02456 72204 10288 20270 30023 40031 83571 333 58003 70000 83618 85458==
41933,2024,07,16,21,00,AAXX 16214 41933 02456 82103 10285 20280 30009 40017 8457/ 333 58005 70000 84618 86458==
41933,2024,07,17,00,00,AAXX 17004 41933 02456 70000 10280 20270 30014 40022 81538 333 58005 70000 81618 84362 86080==
41933,2024,07,17,03,00,AAXX 17034 41933 02456 60000 10306 20270 30021 40029 83440 333 20277 59009 70000 82618 83826 85362==
41933,2024,07,17,06,00,AAXX 17064 41933 02556 50000 10336 20270 30009 40017 82240 333 59011 70000 82828 85362==
41933,2024,07,17,09,00,AAXX 17094 41933 02556 50000 10345 20270 39986 49994 82240 333 59014 70000 82828 85362==
41933,2024,07,17,12,00,AAXX 17124 41933 02556 60000 10325 20280 39978 49987 82242 333 10355 59012 70000 82828 85362==
41933,2024,07,17,15,00,AAXX 17154 41933 02456 60000 10310 20280 30003 40012 83520 333 59013 70000 83618 86458==
41933,2024,07,17,18,00,AAXX 17184 41933 02456 60000 10300 20280 30008 40017 83520 333 59015 70000 83618 86458==
41933,2024,07,17,21,00,AAXX 17214 41933 02456 60000 10290 20280 30002 40011 83520 333 59007 70000 83618 86458==
41933,2024,07,18,00,00,AAXX 18004 41933 02450 70000 10285 20280 39998 40007 84520 333 59016 70000 84618 87458==
41933,2024,07,18,03,00,AAXX 18034 41933 02456 70000 10315 20280 30010 40018 83831 333 20284 59011 70000 82618 84362 85074==
41933,2024,07,18,06,00,AAXX 18064 41933 02456 50802 10344 20260 39992 40001 83831 333 59017 70000 81618 83827==
41933,2024,07,18,09,00,AAXX 18094 41933 02456 42303 10365 20280 39967 49975 83830 333 59019 70000 81618 83827==
41933,2024,07,18,12,00,AAXX 18124 41933 02456 72203 10341 20270 39959 49967 8487/ 333 10371 59019 70000 81618 83827 85458==
41936,2024,07,12,00,00,AAXX 12004 41936 01310 83205 10252 20240 39984 49991 79596 85920 333 59033 70500 85707 83615 87460 81930==
41936,2024,07,12,03,00,AAXX 12034 41936 01320 81803 10206 20250 39998 40005 76296 86720 333 20250 59012 70120 85707 83615 87462==
41936,2024,07,12,06,00,AAXX 12064 41936 01320 81903 10274 20260 30002 40009 76296 86720 333 59013 70020 85707 83615 87462==
41936,2024,07,12,09,00,AAXX 12094 41936 01320 82103 10300 20270 39982 49989 70562 85630 333 58000 70660 84708 83615 87360==
41936,2024,07,12,12,00,AAXX 12124 41936 01340 61503 10304 20270 39972 49979 70562 84630 333 10318 59004 70020 83708 83615 86362==
41936,2024,07,12,15,00,AAXX 12154 41936 01340 62003 10302 20270 39982 49989 70522 84630 333 59007 70610 83708 83615 86362==
41936,2024,07,12,18,00,AAXX 12183 41936 01330 61702 10280 20270 39984 49991 70522 84630 333 59013 70610 83708 83615 86362==
41936,2024,07,12,21,00,AAXX 12214 41936 01330 61903 10274 20260 39978 49985 70522 86320 333 59006 70610 83708 83615 86362==
41936,2024,07,13,00,00,AAXX 13004 41936 01318 61303 10274 20260 39978 49985 70522 84630 333 70160 83708 83615 86362==
41936,2024,07,13,03,00,AAXX 13034 41936 01430 41605 10306 20270 39983 49990 70521 82530 333 20260 59015 70040 82615 83362==
41936,2024,07,13,06,00,AAXX 13064 41936 01430 61606 10324 20290 39977 49984 70522 84630 333 59018 70020 83708 83615 86362==
41936,2024,07,13,09,00,AAXX 13094 41936 01325 71704 10294 20270 39960 49967 71796 84930 333 59022 70060 83708 83615 86362 81930==
41936,2024,07,13,12,00,AAXX 13124 41936 01335 41704 10320 20270 39952 49959 70596 82830 333 10326 59022 70060 82615 84362==
41936,2024,07,13,15,00,AAXX 13154 41936 01435 41803 10298 20280 39970 49976 70521 82830 333 59013 70060 82615 84362==
41936,2024,07,13,18,00,AAXX 13184 41936 01435 41604 10296 20280 39978 49984 70521 82830 333 59007 70060 82615 84362==
41936,2024,07,13,21,00,AAXX 13214 41936 01430 41703 10290 20270 39927 49978 70521 82830 333 59007 70060 82615 84362==
41936,2024,07,14,00,00,AAXX 14004 41936 01416 40000 10274 20260 39972 49979 70511 82530 333 59006 70060 82615 83362==
41936,2024,07,14,03,00,AAXX 14034 41936 01440 51606 10308 20270 39979 49986 70521 83830 333 20272 59004 70060 83615 83362==
41936,2024,07,14,06,00,AAXX 14064 41936 01440 31705 10332 20270 39976 49983 70521 333 59001 70060 82615 82362==
41936,2024,07,14,09,00,AAXX 14094 41936 01450 31306 10354 20270 39957 49964 70522 83880 333 59003 70000 83615 82362==
41936,2024,07,14,12,00,AAXX 14124 41936 01450 41408 10316 20270 39955 49962 70522 83830 333 10356 58003 70000 83615 84362==
41936,2024,07,14,15,00,AAXX 14154 41936 41/50 21303 10296 20260 39976 49983 70521 82030 333 59010 82362==
41936,2024,07,14,18,00,AAXX 14184 41936 41/50 21103 20260 39978 49985 70511 82030 333 58001 82362==
41936,2024,07,14,21,00,AAXX 14214 41936 41/50 21103 10286 20270 39977 49984 70511 82030 333 58006 82362==
41936,2024,07,15,00,00,AAXX 15004 41936 41925 21003 10280 20270 39987 49994 70511 81530 333 58015 81615==
41936,2024,07,15,03,00,AAXX 15034 41936 41440 61410 10314 20260 39998 40005 70522 84630 333 20276 58019 83710 83615==
41936,2024,07,15,06,00,AAXX 15064 41936 01440 61610 10312 20260 39994 40001 72162 84630 333 58018 70000 83710 83615==
41936,2024,07,15,09,00,AAXX 15094 41936 41340 61409 10332 20270 39979 49986 70562 84630 333 58022 83708 83615==
41936,2024,07,15,12,00,AAXX 15124 41936 11440 61608 10308 20280 39973 49981 60002 70562 84630 333 20338 58019 82710 83615 85362==
41936,2024,07,15,15,00,AAXX 15154 41936 41440 51406 10296 20270 39988 49995 70522 83830 333 58012 83615 84362==
41936,2024,07,15,18,00,AAXX 15184 41936 41440 61406 10290 20270 30002 40009 70522 84630 333 58024 82710 83615==
41936,2024,07,15,21,00,AAXX 15214 41936 41430 51603 10286 20270 39994 40001 70522 83830 333 58017 83615 84362==
41936,2024,07,16,00,00,AAXX 16004 41936 41425 61004 10278 20260 39998 40005 70522 83630 333 58011 81710 83615==
41936,2024,07,16,03,00,AAXX 16034 41936 41330 71004 10294 20270 30014 40021 75152 86630 333 20274 58016 85708 83615 87362==
41936,2024,07,16,06,00,AAXX 16064 41936 01340 31605 10334 20270 30011 40018 70565 83630 333 58017 70010 83615==
41936,2024,07,16,09,00,AAXX 16094 41936 01440 52504 10300 20280 39995 40002 70596 84630 333 58016 70040 82710 83615==
41936,2024,07,16,12,00,AAXX 16124 41936 01450 41406 10320 20270 39981 49988 70596 81530 333 58007 70030 81615 84362==
41936,2024,07,16,15,00,AAXX 16154 41936 01/50 21504 10302 20270 39996 40003 70511 82030 333 58008 70040 82362==
41936,2024,07,16,18,00,AAXX 16184 41936 01/50 21504 10298 20280 30006 40013 70511 82030 333 58004 70040 82362==
41936,2024,07,16,21,00,AAXX 16214 41936 01440 41403 10292 20270 39998 40005 70511 83630 333 58004 70040 81710 83615==
41936,2024,07,17,00,00,AAXX 17004 41936 01/20 21403 10278 20270 30000 40007 70511 82030 333 58002 70040 82362==
41936,2024,07,17,03,00,AAXX 17034 41936 01450 51405 10310 20280 30014 40021 70521 84630 333 20276 58000 70040 82710 83615==
41936,2024,07,17,06,00,AAXX 17064 41936 01450 61405 10332 20270 30006 40013 70522 85630 333 59005 70030 83710 83615 85362==
41936,2024,07,17,09,00,AAXX 17094 41936 01450 61105 10350 20294 39985 49991 70522 84630 333 59011 70030 82710 83615==
41936,2024,07,17,12,00,AAXX 17124 41936 01440 41605 10324 20270 39971 49978 70522 83830 333 10352 59010 70000 83615 83362==
41936,2024,07,17,15,00,AAXX 17154 41936 41440 20000 10310 20280 39996 40003 70521 82530 333 58000 82615==
41936,2024,07,17,18,00,AAXX 17184 41936 41440 31703 10300 20270 30004 40011 70521 82530 333 59002 82615==
41936,2024,07,17,21,00,AAXX 17214 41936 41440 30000 10290 20280 39992 49999 70511 82530 333 59006 82615 83362==
41936,2024,07,18,00,00,AAXX 18004 41936 41/20 21703 10278 20270 39991 49998 70511 82030 333 59009 82362==
41936,2024,07,18,03,00,AAXX 18034 41936 41450 30904 10318 20280 30000 40007 70511 81530 333 20276 59014 81615 83362==
41936,2024,07,18,06,00,AAXX 18064 41936 41450 31106 10344 20270 39999 49998 70511 83530 333 59015 83615 83362==
41936,2024,07,18,09,00,AAXX 18094 41936 41450 41507 10358 20280 39966 49972 70511 83830 333 59015 83615 83362==
41936,2024,07,18,12,00,AAXX 18124 41936 01320 71805 10300 20280 39957 49964 79596 85920 333 10360 59014 70010 83708 83615 87462 81930==
41936,2024,07,18,15,00,AAXX 18154 41936 01435 60000 10294 20270 39973 49980 70596 83830 333 59023 70010 83615 85362==
41938,2024,07,12,00,00,AAXX 12004 41938 31445 81801 10285 20280 39995 49999 70522 8342/ 333 56599 59029 70732 82618 88459=
41938,2024,07,12,06,00,AAXX 12064 41938 11350 82701 10258 20258 39998 40002 60043 76162 8532/ 333 56699 59022 70772 81717 84617 81929 88459=
41938,2024,07,12,12,00,AAXX 12124 41938 11450 70000 10277 20260 39981 49985 69934 70262 84510 333 10278 56990 59010 70064 84618 84459=
41938,2024,07,12,18,00,AAXX 12184 41938 32450 40000 10263 20250 39979 49983 84510 333 56990 59023 70043 84618=
41938,2024,07,13,00,00,AAXX 13004 41938 32450 40000 10263 20250 39979 49983 84510 333 56990 70043 84618=
41938,2024,07,13,06,00,AAXX 13064 41938 32456 40000 10335 20270 39984 49988 84400 333 56400 59014 70003 83618=
41938,2024,07,13,12,00,AAXX 13124 41938 32457 21803 10324 20260 39962 49966 82811 333 10340 56999 59019 70000 81618=
41938,2024,07,13,18,00,AAXX 13184 41938 32956 02102 10284 20260 39978 49982 333 59001 70000=
41938,2024,07,14,00,00,AAXX 14004 41938 11450 51803 10279 20270 39976 49980 69904 72121 83502 333 56409 59009 79999 83616 83080=
41938,2024,07,14,06,00,AAXX 14064 41938 32457 41803 10345 20270 39978 49982 84801 333 56409 59006 79999 82618 83825=
41938,2024,07,14,12,00,AAXX 14124 41938 11456 51603 10312 20260 39966 49970 60077 70165 83311 333 10346 56399 58004 70066 82617 81927 83460=
41938,2024,07,14,18,00,AAXX 14184 41938 32956 31801 10281 20260 39990 49994 83010 333 56090 58012 70066 83460=
41938,2024,07,15,00,00,AAXX 15004 41938 32956 30000 10281 20250 39989 49992 81511 333 56399 58013 70066 81618=
41938,2024,07,15,06,00,AAXX 15064 41938 32456 51605 10328 20270 39999 40003 83411 333 56399 58021 70066 83618 83460=
41938,2024,07,15,12,00,AAXX 15124 41938 11450 40000 10297 20260 39989 49993 60014 70262 84400 333 10330 56400 58023 70013 83618=
41938,2024,07,15,18,00,AAXX 15184 41938 32450 40000 10285 20270 39999 40003 84500 333 56900 58025 70013 83618=
41938,2024,07,16,00,00,AAXX 16004 41938 32450 40000 10281 20250 39989 49992 84500 333 56900 58020 70013 83618=
41938,2024,07,16,06,00,AAXX 16064 41938 32456 40000 10330 20270 30018 40022 84400 333 56400 58019 70013 83618=
41938,2024,07,16,12,00,AAXX 16124 41938 11456 41501 10313 20260 39995 49999 60036 70362 81402 333 10337 56309 58006 70026 81618 84079=
41938,2024,07,16,18,00,AAXX 16184 41938 11950 71601 10282 20270 30013 40017 69946 70361 85012 333 56099 58011 70030 85460 85078=
41938,2024,07,17,00,00,AAXX 17004 41938 32456 61301 10280 20270 30006 40010 81472 333 56399 59014 70030 81617 83460=
41938,2024,07,17,06,00,AAXX 17064 41938 32457 71101 10340 20270 30007 40011 82412 333 56299 59011 70030 81618 83460 85078=
41938,2024,07,17,12,00,AAXX 17124 41938 32457 51601 10327 20280 39984 49988 81802 333 10345 56909 59011 70004 81618 85080=
41938,2024,07,17,18,00,AAXX 17184 41938 32956 52101 10290 20270 30004 40008 83072 333 56099 59009 70000 83460 83080=
41938,2024,07,18,00,00,AAXX 18004 41938 32956 70000 10279 20270 39999 40003 83032 333 56099 59007 70000 83362 86080=
41938,2024,07,18,06,00,AAXX 18064 41938 32457 60703 10330 20280 39996 40000 86401 333 56209 59011 70000 83617 83824=
41938,2024,07,18,12,00,AAXX 18124 41938 NIL=
41939,2024,07,12,00,00,AAXX 12004 41939 02456 60000 10283 20270 30000 40008 83510 333 59028 70145 83617 86459==
41939,2024,07,12,03,00,AAXX 12034 41939 02458 80000 10292 20280 30008 40016 8352/ 333 20262 59034 70145 83617 88459==
41939,2024,07,12,06,00,AAXX 12064 41939 01459 80000 10285 20260 30022 40030 72162 8252/ 333 58000 70010 82617 88459==
41939,2024,07,12,09,00,AAXX 12094 41939 02458 80000 10290 20270 39988 49996 8352/ 333 59010 70075 83617 88459==
41939,2024,07,12,12,00,AAXX 12124 41939 02456 80000 10285 20260 39982 49990 8452/ 333 10295 59011 70025 84616 88459==
41939,2024,07,12,15,00,AAXX 12154 41939 01440 80000 10270 20260 39995 40003 70262 8352/ 333 59015 70022 83617 88459==
41939,2024,07,12,18,00,AAXX 12184 41939 11440 80000 10275 20270 30010 40018 60016 70262 8352/ 333 59010 70022 83617 88459==
41939,2024,07,12,21,00,AAXX 12214 41939 02456 40000 10272 20270 30006 40014 83530 333 59007 70022 83617 83364==
41939,2024,07,13,00,00,AAXX 13004 41939 02456 50000 10270 20260 39988 49996 83530 333 59012 70022 83617 83364==
41939,2024,07,13,03,00,AAXX 13034 41939 02958 00000 10290 20280 30003 40011 83530 333 20260 59005 70022 83617 83365==
41939,2024,07,13,06,00,AAXX 13064 41939 02458 60000 10320 20290 30005 40013 83510 333 58008 70022 83618 85459==
41939,2024,07,13,09,00,AAXX 13094 41939 02456 20000 10338 20300 39978 49986 82500 333 59010 70014 82618==
41939,2024,07,13,12,00,AAXX 13124 41939 02457 10000 10315 20280 39962 49970 81500 333 10342 59020 70014 81618==
41939,2024,07,13,15,00,AAXX 13154 41939 02956 00000 10292 20270 39980 49987 333 59015 70000==
41939,2024,07,13,18,00,AAXX 13184 41939 02956 00000 10283 20280 39997 40005 333 59013 70000==
41939,2024,07,13,21,00,AAXX 13214 41939 02940 00000 10282 20260 39990 49998 333 59016 70000==
41939,2024,07,14,00,00,AAXX 14004 41939 02456 20000 10280 20260 39980 49988 82500 333 59008 70000 82618==
41939,2024,07,14,03,00,AAXX 14034 41939 02458 30000 10305 20270 30006 40014 83500 333 20263 58003 70000 83618==
41939,2024,07,14,06,00,AAXX 14064 41939 02458 50000 10335 20290 39983 49991 83510 333 59025 70000 83618 85460==
41939,2024,07,14,09,00,AAXX 14094 41939 02459 20000 10340 20300 39967 49975 81530 333 59011 70000 81618==
41939,2024,07,14,12,00,AAXX 14124 41939 02456 20000 10315 20280 39972 49979 81530 333 10343 58010 70000 81618==
41939,2024,07,14,15,00,AAXX 14154 41939 02456 10000 10295 20270 39989 49997 81500 333 58009 70000 81618==
41939,2024,07,14,18,00,AAXX 14184 41939 02456 10000 10285 20280 30002 40010 81500 333 58005 70000 81618==
41939,2024,07,14,21,00,AAXX 14214 41939 02456 40000 10280 20260 30012 40020 82530 333 58022 70000 82618 83364==
41939,2024,07,15,00,00,AAXX 15004 41939 02457 40000 10298 20270 30003 40011 82530 333 58023 70000 82618 83364==
41939,2024,07,15,03,00,AAXX 15034 41939 02459 50000 10300 20270 30015 40023 83530 333 20275 58009 70000 83618 83365==
41939,2024,07,15,06,00,AAXX 15064 41939 02459 30000 10330 20290 30008 40016 81530 333 58025 70000 81618 83362==
41939,2024,07,15,09,00,AAXX 15094 41939 02459 30000 10335 20300 39992 40000 81530 333 58025 70000 81618 83364==
41939,2024,07,15,12,00,AAXX 15124 41939 02457 50000 10310 20290 39990 49998 83510 333 10340 58018 70000 83618 85459==
41939,2024,07,15,15,00,AAXX 15154 41939 02440 20000 10290 20270 30005 40013 82500 333 58016 70000 82618==
41939,2024,07,15,18,00,AAXX 15184 41939 02940 00000 10285 20270 30016 40024 333 58014 70000==
41939,2024,07,15,21,00,AAXX 15214 41939 02456 70000 10287 20260 30020 40028 83510 333 58008 70000 83617 87459==
41939,2024,07,16,00,00,AAXX 16004 41939 02457 70000 10290 20260 30015 40023 83530 333 58012 70000 83617 86459==
41939,2024,07,16,03,00,AAXX 16034 41939 02458 80000 10288 20280 30025 40033 8352/ 333 20283 58010 70000 83617 88459==
41939,2024,07,16,06,00,AAXX 16064 41939 01458 50000 10325 20290 30023 40031 70162 83530 333 58015 70010 83617 83360==
41939,2024,07,16,09,00,AAXX 16094 41939 02459 30000 10327 20300 30004 40012 82530 333 58012 70010 82618==
41939,2024,07,16,12,00,AAXX 16124 41939 02457 30000 10318 20290 39999 40007 81530 333 10330 58009 70010 81618 83365==
41939,2024,07,16,15,00,AAXX 16154 41939 02456 40000 10295 20280 30012 40020 82530 333 58007 70010 82618 83365==
41939,2024,07,16,18,00,AAXX 16184 41939 02456 40000 10285 20270 30020 40028 82530 333 58004 70010 82618 83365==
41939,2024,07,16,21,00,AAXX 16214 41939 02940 00000 10284 20260 30015 40023 333 59005 70010==
41939,2024,07,17,00,00,AAXX 17004 41939 02456 40000 10283 20270 30012 40020 81530 333 59003 70010 81618 83365==
41939,2024,07,17,03,00,AAXX 17034 41939 02458 50000 10303 20270 30025 40033 82530 333 20278 58000 70010 82618 83365==
41939,2024,07,17,06,00,AAXX 17064 41939 02459 50000 10330 20280 30014 40021 82530 333 59009 70000 82618 83362==
41939,2024,07,17,09,00,AAXX 17094 41939 02459 30000 10342 20280 39994 40002 82530 333 59010 70000 82618==
41939,2024,07,17,12,00,AAXX 17124 41939 02458 20000 10330 20270 39990 49998 82500 333 10345 59009 70000 82618==
41939,2024,07,17,15,00,AAXX 17154 41939 02440 60000 10308 20280 30000 40008 83510 333 59012 70000 83618 85459==
41939,2024,07,17,18,00,AAXX 17184 41939 02440 50000 10295 20280 30015 40023 82510 333 59005 70000 82618 85459==
41939,2024,07,18,00,00,AAXX 18004 41939 NIL=
41939,2024,07,18,03,00,AAXX 18034 41939 02458 30000 10320 20270 30011 40019 81530 333 20280 59014 70000 81618 83365==
41939,2024,07,18,06,00,AAXX 18064 41939 02459 40000 10350 20270 39994 40002 82530 333 59020 70000 82618 83362==
41939,2024,07,18,09,00,AAXX 18094 41939 02460 30000 10357 20280 39969 49977 81530 333 59025 70000 81618==
41939,2024,07,18,12,00,AAXX 18124 41939 02458 70000 10330 20300 39965 49973 83510 333 10363 59025 70000 83617 86459==
41941,2024,07,12,00,00,AAXX 12004 41941 02450 81802 10280 20280 30022 40028 8632/ 333 59012 70560 85616 88458 81928==
41941,2024,07,12,03,00,AAXX 12034 41941 01450 80902 10265 20265 30022 40027 76162 8692/ 333 20263 59015 70620 85612 88456 81924==
41941,2024,07,12,06,00,AAXX 12064 41941 21330 82102 10276 20270 30005 40011 76396 8672/ 333 59014 60239 70794 83707 84612 88456==
41941,2024,07,12,09,00,AAXX 12094 41941 01350 80000 10284 20270 39978 49983 70262 8672/ 333 59031 70994 83707 84612 88458==
41941,2024,07,12,12,00,AAXX 12124 41941 11350 81802 10284 20260 39981 49986 60206 70262 8672/ 333 10296 59019 70444 83707 84612 88458==
41941,2024,07,12,15,00,AAXX 12154 41941 02456 41801 10268 20260 39995 40000 82520 333 59021 70444 82616 83458==
41941,2024,07,12,18,00,AAXX 12184 41941 01350 81802 10270 20270 30000 40005 76122 8672/ 333 59021 70010 83708 84612 88456==
41941,2024,07,12,21,00,AAXX 12214 41941 01350 81801 10272 20270 39985 49990 70262 8672/ 333 59027 70474 83708 84612 88458==
41941,2024,07,13,00,00,AAXX 13004 41941 11350 81801 10273 20270 39987 49992 60036 70262 8672/ 333 59035 70474 83708 84612 88458==
41941,2024,07,13,03,00,AAXX 13034 41941 02456 81802 10294 20270 39991 49996 8662/ 333 20266 59031 70414 83708 84614 88458==
41941,2024,07,13,06,00,AAXX 13064 41941 11350 81802 10295 20290 39991 49996 60042 72162 8672/ 333 59014 70280 82708 84612 88456==
41941,2024,07,13,07,00,AAXX 13074 41941 01350 81802 10295 20290 39991 49996 72162 8672/ 333 59014 70280 82708 84612 88456==
41941,2024,07,13,09,00,AAXX 13094 41941 02356 80000 10320 20280 39984 49989 8662/ 333 58006 70080 82708 84615 88458==
41941,2024,07,13,12,00,AAXX 13124 41941 02456 40000 10320 20270 39978 40083 83520 333 10324 59003 70080 83616 84458==
41941,2024,07,13,15,00,AAXX 13154 41941 02450 60000 10295 20290 39988 49993 84520 333 59007 70080 84616 86458==
41941,2024,07,13,21,00,AAXX 13214 41941 02450 61802 10282 20270 39990 49995 84520 333 58005 70040 84616 86458==
41941,2024,07,14,00,00,AAXX 14004 41941 02450 61802 10275 20270 39990 49995 84520 333 58003 70040 84616 86458==
41941,2024,07,14,03,00,AAXX 14034 41941 02456 60000 10302 20270 39994 49999 84520 333 20274 58003 70040 84616 86458==
41941,2024,07,14,06,00,AAXX 14064 41941 02356 71802 10315 20270 39997 40003 86620 333 58006 70000 82708 84615 87458==
41941,2024,07,14,09,00,AAXX 14094 41941 02456 63102 10330 20280 39988 49994 85420 333 58004 70000 84616 86458==
41941,2024,07,14,12,00,AAXX 14124 41941 02456 61802 10314 20270 39978 49984 85420 333 10350 58000 70000 84616 86458==
41941,2024,07,14,15,00,AAXX 14154 41941 02440 70000 10305 20280 39987 49993 85420 333 59001 70000 84616 87458==
41941,2024,07,14,18,00,AAXX 14184 41941 NIL=
41941,2024,07,14,21,00,AAXX 14214 41941 02440 71802 10285 20280 39996 40001 85420 333 58006 70000 84616 87458==
41941,2024,07,15,00,00,AAXX 15004 41941 02450 80000 10285 20285 30000 40005 8632/ 333 58001 70000 85616 88458 81928==
41941,2024,07,15,03,00,AAXX 15034 41941 02456 61803 10310 20260 30010 40015 85420 333 20284 58016 70000 84616 86458==
41941,2024,07,15,06,00,AAXX 15064 41941 02456 41801 10332 20260 30008 40013 83550 333 58011 70000 83616==
41941,2024,07,15,09,00,AAXX 15094 41941 02457 41801 10345 20260 39988 49994 83550 333 58000 70000 83615==
41941,2024,07,15,12,00,AAXX 15124 41941 02456 51802 10310 20250 39986 49992 84420 333 10351 58008 70000 83616 85458==
41941,2024,07,15,15,00,AAXX 15154 41941 02456 51804 10295 20270 30006 40011 83520 333 58019 70000 83616 85458==
41941,2024,07,15,18,00,AAXX 15184 41941 02456 51804 10290 20270 30021 40026 84520 333 58022 70000 84616 86458==
41941,2024,07,15,21,00,AAXX 15214 41941 02456 71803 10288 20260 30012 40017 83520 333 58016 70000 83616 87458==
41941,2024,07,16,00,00,AAXX 16004 41941 02456 71802 10285 20260 30015 40020 83520 333 58015 70000 83616 87458==
41941,2024,07,16,03,00,AAXX 16034 41941 02456 61804 10305 20270 30029 40034 84520 333 20281 58010 70000 84616 86458==
41941,2024,07,16,06,00,AAXX 16064 41941 01356 71802 10316 20290 30024 40029 72122 86620 333 58016 70000 82708 84615 87457==
41941,2024,07,16,09,00,AAXX 16094 41941 01356 71802 10322 20280 30013 40018 70262 86620 333 58025 70032 82708 84615 87458==
41941,2024,07,16,12,00,AAXX 16124 41941 11456 50000 10330 20260 30010 40016 60036 70162 83520 333 10336 58024 70032 83616 85458==
41941,2024,07,16,15,00,AAXX 16154 41941 02450 50000 10295 20280 30013 40018 83520 333 58007 70032 83616 85458==
41941,2024,07,16,18,00,AAXX 16184 41941 02450 50000 10290 20280 30025 40030 83520 333 58004 70032 83616 85458==
41941,2024,07,16,21,00,AAXX 16214 41941 02450 51802 10285 20280 30024 40029 83520 333 58012 70032 83616 85458==
41941,2024,07,17,00,00,AAXX 17004 41941 02450 61802 10282 20270 30023 40028 84520 333 58008 70032 84616 86458==
41941,2024,07,17,03,00,AAXX 17034 41941 02456 61802 10310 20270 30025 40030 84520 333 20280 59004 70032 84616 86458==
41941,2024,07,17,06,00,AAXX 17064 41941 02456 71403 10334 20260 30015 40020 85420 333 59009 70032 84616 87458==
41941,2024,07,17,09,00,AAXX 17094 41941 32456 71803 10330 20260 39994 49999 85420 333 56990 59019 70000 84616 87458=
41941,2024,07,17,12,00,AAXX 17124 41941 02456 72302 10325 20270 39983 49988 85420 333 10340 59027 70000 84616 87458==
41941,2024,07,17,15,00,AAXX 17154 41941 02440 70000 10305 20270 39994 40000 85420 333 59019 70000 84616 87458==
41941,2024,07,17,18,00,AAXX 17184 41941 02440 70000 10300 20270 30015 40020 85420 333 59010 70000 84616 87458==
41941,2024,07,17,21,00,AAXX 17214 41941 02440 71802 10296 20280 30011 40016 85420 333 59013 70000 84616 87458==
41941,2024,07,18,00,00,AAXX 18004 41941 02450 70000 10295 20290 30013 40018 85420 333 59010 70000 84616 87458==
41941,2024,07,18,03,00,AAXX 18034 41941 02456 61803 10325 20280 30015 40020 85420 333 20284 59010 70000 84616 86458==
41941,2024,07,18,06,00,AAXX 18064 41941 02457 52103 10352 20270 39995 40000 83511 333 59020 70000 83616 84458==
41941,2024,07,18,12,00,AAXX 18124 41941 02456 41803 10330 20280 39963 49968 82510 333 10365 59020 70000 82616 84458==
41943,2024,07,12,00,00,AAXX 12004 41943 01435 80000 10255 20250 30011 40018 70262 8662/ 333 59005 70040 83710 84615 88458==
41943,2024,07,12,03,00,AAXX 12034 41943 01440 61802 10290 20260 30017 40024 70162 83520 333 20255 59022 70340 83616 86458==
41943,2024,07,12,06,00,AAXX 12064 41943 21430 81302 10275 20250 30014 40021 70362 8662/ 333 59015 60017 70320 82710 84615 88458==
41943,2024,07,12,09,00,AAXX 12094 41943 01330 81803 10265 20260 39992 49999 76566 8772/ 333 59005 71040 84708 84613 88456==
41943,2024,07,12,12,00,AAXX 12124 41943 22440 61802 10275 20260 39986 49993 83520 333 10305 59012 60978 71064 83616 85458==
41943,2024,07,12,15,00,AAXX 12154 41943 02430 41802 10270 20250 30000 40007 82520 333 59018 71024 82616 84458==
41943,2024,07,12,18,00,AAXX 12183 41943 02430 80000 10263 20240 30004 40011 8662/ 333 59016 71024 83710 83615 88458==
41943,2024,07,12,21,00,AAXX 12214 41943 02430 80000 10260 20240 39991 49998 8662/ 333 59025 71024 83710 84615 88458==
41943,2024,07,13,00,00,AAXX 13004 41943 02430 80000 10257 20250 39987 49994 8662/ 333 59024 70984 83710 84615 88458==
41943,2024,07,13,03,00,AAXX 13034 41943 02440 61802 10287 20260 39993 40000 83520 333 20255 59024 70974 83618 86458==
41943,2024,07,13,06,00,AAXX 13064 41943 02440 51803 10322 20260 39991 49998 82520 333 59023 70974 82616 85458==
41943,2024,07,13,09,00,AAXX 13094 41943 02445 41803 10325 20250 39973 49980 83530 333 59019 70024 83616==
41943,2024,07,13,12,00,AAXX 13124 41943 02440 51802 10305 20260 39967 49974 84530 333 10330 59019 70000 84616==
41943,2024,07,13,15,00,AAXX 13154 41943 02440 11902 10280 20260 39983 49990 81500 333 59017 70000 81616==
41943,2024,07,13,18,00,AAXX 13184 41943 02435 11801 10275 20260 39991 49998 81500 333 59013 70000 81616==
41943,2024,07,13,21,00,AAXX 13214 41943 01430 71801 10270 20260 39987 49994 70362 85620 333 59040 70012 83710 83615 87457==
41943,2024,07,14,00,00,AAXX 14004 41943 11435 51202 10268 20260 39984 49991 60016 70162 83530 333 59003 70012 83616 83362==
41943,2024,07,14,03,00,AAXX 14034 41943 02440 51902 10305 20260 39995 40002 84530 333 20267 58002 70012 84616==
41943,2024,07,14,06,00,AAXX 14064 41943 02445 61803 10335 20260 39991 49998 84430 333 58000 70012 82616 83828==
41943,2024,07,14,09,00,AAXX 14094 41943 02450 51802 10330 20240 39966 40073 84530 333 59007 70000 84618==
41943,2024,07,14,12,00,AAXX 14124 41943 02445 61902 10315 20260 39969 49976 84530 333 10350 58002 70012 84616 83362==
41943,2024,07,14,15,00,AAXX 14154 41943 02435 51802 10290 20260 39988 49995 83520 333 58005 70012 83616 83458==
41943,2024,07,14,18,00,AAXX 14184 41943 02435 51802 10280 20260 30003 40010 83520 333 58012 70012 83616 83458==
41943,2024,07,14,21,00,AAXX 14214 41943 02435 51801 10278 20260 30005 40012 83530 333 58018 70000 83616 83362==
41943,2024,07,15,00,00,AAXX 15004 41943 02440 51502 10275 20260 30007 40014 82530 333 58023 70000 82616 83362==
41943,2024,07,15,03,00,AAXX 15034 41943 02440 51502 10320 20240 30015 40022 82530 333 20275 58020 70000 82616 83362==
41943,2024,07,15,06,00,AAXX 15064 41943 02445 51802 10342 20240 30006 40013 84430 333 58015 70000 82616 83828==
41943,2024,07,15,09,00,AAXX 15094 41943 02450 51802 10350 20250 39989 49996 84430 333 58023 70000 83616 83828==
41943,2024,07,15,12,00,AAXX 15124 41943 02445 61802 10315 20260 39990 49997 84530 333 10360 58021 70000 84616 84362==
41943,2024,07,15,15,00,AAXX 15154 41943 02440 41702 10295 20260 30005 40013 82510 333 58017 70000 82616 83458==
41943,2024,07,15,18,00,AAXX 15184 41943 02430 41802 10378 20260 30028 40035 82510 333 58025 70000 82618 82458==
41943,2024,07,15,21,00,AAXX 15214 41943 02440 41801 10275 20270 30022 40029 81510 333 58017 70000 81616 83458==
41943,2024,07,16,00,00,AAXX 16004 41943 02445 41901 10270 20250 30019 40026 81530 333 58012 70000 81616 83362==
41943,2024,07,16,03,00,AAXX 16034 41943 02450 51702 10315 20250 30031 40038 84430 333 20270 58016 70000 82616 83828==
41943,2024,07,16,06,00,AAXX 16064 41943 02450 41802 10345 20250 30027 40034 83530 333 58021 70000 83616==
41943,2024,07,16,09,00,AAXX 16094 41943 02440 51802 10335 20260 30010 40025 83530 333 58029 70020 83616 84362==
41943,2024,07,16,12,00,AAXX 16124 41943 11435 61802 10314 20250 30003 40010 60026 70362 83510 333 10345 58014 70020 83616 85458==
41943,2024,07,16,15,00,AAXX 16154 41943 02430 51802 10290 20260 30016 40023 83530 333 58011 70020 83616 83362==
41943,2024,07,16,18,00,AAXX 16184 41943 02430 51802 10284 20260 30025 40032 83530 333 59003 70020 83616 83362==
41943,2024,07,16,21,00,AAXX 16214 41943 02430 50000 10280 20260 30018 40025 83530 333 58004 70020 83616 83362==
41943,2024,07,17,00,00,AAXX 17004 41943 02435 60000 10267 20260 30010 40017 83530 333 59009 70020 83616 84362==
41943,2024,07,17,03,00,AAXX 17034 41943 02440 51802 10315 20260 30023 40030 83530 333 20265 59008 70020 83616 83362==
41943,2024,07,17,06,00,AAXX 17064 41943 02440 61803 10344 20240 30014 40021 83530 333 59013 70020 83616 84362==
41943,2024,07,17,09,00,AAXX 17094 41943 02440 51802 10335 20260 39991 49998 83530 333 59027 70000 83616 83362==
41943,2024,07,17,12,00,AAXX 17124 41943 02435 51802 10320 20260 39981 49988 83530 333 10355 59022 70000 83616 83362==
41943,2024,07,17,15,00,AAXX 17154 41943 02430 51802 10294 20250 30008 40015 83530 333 59008 70000 83616 83362==
41943,2024,07,17,18,00,AAXX 17184 41943 02430 51802 10286 20270 30016 40023 83530 333 59009 70000 83616 83362==
41943,2024,07,17,21,00,AAXX 17214 41943 02430 70000 10280 20260 30011 40018 84510 333 59007 70000 84615 86458==
41943,2024,07,18,00,00,AAXX 18004 41943 02430 80000 10276 20270 39998 40005 8662/ 333 59012 70000 83710 84614 88458==
41943,2024,07,18,03,00,AAXX 18034 41943 02435 53602 10320 20270 30008 40015 83570 333 20275 59015 70000 83616 85458==
41943,2024,07,18,06,00,AAXX 18064 41943 02440 51302 10354 20260 39997 40004 83530 333 59017 70000 83616 83362==
41943,2024,07,18,09,00,AAXX 18094 41943 02440 51802 10350 20270 39969 49976 83530 333 59022 70000 83616 83362==
41943,2024,07,18,12,00,AAXX 18124 41943 02440 61802 10326 20270 39957 49964 83510 333 10376 59024 70000 83616 85458==
41944,2024,07,12,00,00,AAXX 12004 41944 NIL=
41944,2024,07,12,06,00,AAXX 12064 41944 NIL=
41944,2024,07,12,12,00,AAXX 12124 41944 NIL=
41944,2024,07,13,00,00,AAXX 13004 41944 NIL=
41944,2024,07,13,06,00,AAXX 13064 41944 NIL=
41944,2024,07,13,12,00,AAXX 13124 41944 NIL=
41944,2024,07,14,00,00,AAXX 14004 41944 NIL=
41944,2024,07,14,06,00,AAXX 14064 41944 NIL=
41944,2024,07,14,12,00,AAXX 14124 41944 NIL=
41944,2024,07,14,18,00,AAXX 14184 41944 NIL=
41944,2024,07,15,00,00,AAXX 15004 41944 NIL=
41944,2024,07,15,12,00,AAXX 15124 41944 NIL=
41944,2024,07,16,06,00,AAXX 16064 41944 NIL=
41944,2024,07,17,00,00,AAXX 17004 41944 NIL=
41944,2024,07,17,06,00,AAXX 17064 41944 NIL=
41944,2024,07,17,12,00,AAXX 17124 41944 NIL=
41944,2024,07,18,00,00,AAXX 18004 41944 NIL=
41944,2024,07,18,12,00,AAXX 18124 41944 NIL=
41946,2024,07,12,00,00,AAXX 12004 41946 01340 81706 10252 20250 30004 40009 76362 8572/ 333 59021 70310 81710 84617 88458==
41946,2024,07,12,03,00,AAXX 12034 41946 41350 80000 10260 20250 30015 40020 76166 8572/ 333 20248 59015 81710 84617 88458==
41946,2024,07,12,06,00,AAXX 12064 41946 21350 81802 10280 20260 30006 40011 76166 8572/ 333 59014 60279 70580 81710 84617 88458==
41946,2024,07,12,09,00,AAXX 12094 41946 01456 60000 10303 20250 39998 40003 70162 84520 333 58006 70590 84618 85459==
41946,2024,07,12,12,00,AAXX 12124 41946 11456 52001 10288 20280 39987 49992 60061 70162 83530 333 10306 58001 70590 83618 84360==
41946,2024,07,12,15,00,AAXX 12154 41946 02/56 60000 10280 20260 39997 40002 86070 333 59008 70590 83459 84360==
41946,2024,07,12,18,00,AAXX 12184 41946 02556 40000 10280 20270 39999 40004 84400 333 59008 70590 83620==
41946,2024,07,12,21,00,AAXX 12214 41946 02456 30000 10280 20270 39994 49999 83500 333 58000 70590 83618==
41946,2024,07,13,00,00,AAXX 13004 41946 02356 40000 10277 20270 39981 49985 84600 333 59023 70280 82710 83618==
41946,2024,07,13,03,00,AAXX 13034 41946 02456 60000 10310 20280 39992 49996 84320 333 20255 59020 70050 83618 85460 81928==
41946,2024,07,13,06,00,AAXX 13064 41946 02350 70000 10305 20270 39986 49990 84620 333 59020 70010 81710 83618 86460==
41946,2024,07,13,09,00,AAXX 13094 41946 01456 40905 10323 20280 39966 49970 70162 84500 333 59032 70004 84618==
41946,2024,07,13,12,00,AAXX 13124 41946 11/56 20000 10320 20270 39961 49965 69946 70162 82030 333 10330 59026 70004 82362==
41946,2024,07,13,15,00,AAXX 13154 41946 02456 41404 10304 20260 39980 49985 82530 333 59017 70004 82618==
41946,2024,07,13,18,00,AAXX 13184 41946 02456 11803 10289 20270 39988 49993 81500 333 59011 70004 81618==
41946,2024,07,13,21,00,AAXX 13214 41946 02456 40000 10287 20280 39979 49984 81501 333 59015 70004 81618 83080==
41946,2024,07,14,00,00,AAXX 14004 41946 02456 70905 10284 20270 39978 49983 81501 333 59003 70004 81618 86080==
41946,2024,07,14,03,00,AAXX 14034 41946 02456 60000 10315 20270 39990 49994 85400 333 20280 59002 70004 83618 83820==
41946,2024,07,14,06,00,AAXX 14064 41946 02456 50000 10340 20270 39981 49985 85400 333 59005 70004 84618==
41946,2024,07,14,09,00,AAXX 14094 41946 01360 80000 10322 20280 39965 49969 76022 8572/ 333 59001 70010 81710 84617 88458==
41946,2024,07,14,12,00,AAXX 14124 41946 21456 60000 10314 20270 39964 49968 70162 333 10348 58003 60015 70010 84618 83820==
41946,2024,07,14,15,00,AAXX 14154 41946 02456 50000 10305 20270 39988 49992 85400 333 58008 70010 84618==
41946,2024,07,14,18,00,AAXX 14184 41946 02456 20000 10295 20280 39997 40002 82500 333 58009 70010 82618==
41946,2024,07,14,21,00,AAXX 14214 41946 02456 50000 10292 20270 39994 49999 82520 333 58015 70010 82618 85459==
41946,2024,07,15,00,00,AAXX 15004 41946 02456 60000 10290 20280 39992 49997 82520 333 58014 70010 82618 86459==
41946,2024,07,15,03,00,AAXX 15034 41946 02456 60905 10315 20270 30005 40009 85320 333 20285 58015 70010 84618 85460 81928==
41946,2024,07,15,06,00,AAXX 15064 41946 01456 70904 10310 20280 30002 40006 72162 83520 333 58021 70020 83618 85460==
41946,2024,07,15,09,00,AAXX 15094 41946 01456 61002 10330 20280 39984 49988 70162 84320 333 58019 70040 83618 85459 81929==
41946,2024,07,15,12,00,AAXX 15124 41946 01556 60209 10300 20280 39978 49983 70262 82270 333 10333 58014 70050 82825==
41946,2024,07,15,15,00,AAXX 15154 41946 02/56 51004 10300 20270 30000 40005 85070 333 58012 70050 83459 83360==
41946,2024,07,15,18,00,AAXX 15184 41946 02556 50000 10289 20280 30010 40015 85400 333 58013 70050 84620==
41946,2024,07,15,21,00,AAXX 15214 41946 01450 80000 10282 20270 30007 40012 76122 8542/ 333 58013 70090 84618 88458==
41946,2024,07,16,00,00,AAXX 16004 41946 01456 81001 10284 20270 30004 40009 70262 8352/ 333 58012 70120 83618 88458==
41946,2024,07,16,03,00,AAXX 16034 41946 01356 80000 10300 20280 30026 40031 76122 8472/ 333 20275 58021 70130 81710 83617 88459==
41946,2024,07,16,06,00,AAXX 16064 41946 21456 60904 10330 20280 30017 40021 70162 85401 333 58015 60015 70110 84618 84080==
41946,2024,07,16,09,00,AAXX 16094 41946 01457 50604 10322 20280 30000 40004 70162 82570 333 58016 70096 82618 84460==
41946,2024,07,16,12,00,AAXX 16124 41946 11456 70905 10319 20280 39991 49995 69966 70362 83302 333 10335 58013 70086 82618 84080 81928==
41946,2024,07,16,15,00,AAXX 16154 41946 02956 21705 10300 20280 30009 40014 80001 333 58009 70086 82080==
41946,2024,07,16,18,00,AAXX 16184 41946 02456 80902 10292 20280 30018 40023 8252/ 333 58008 70086 82618 88460==
41946,2024,07,16,21,00,AAXX 16214 41946 02456 60000 10290 20280 30009 40014 81530 333 58002 70046 81618 85362==
41946,2024,07,17,00,00,AAXX 17004 41946 02456 60000 10288 20280 30010 40015 82530 333 58006 70016 82618 84362==
41946,2024,07,17,03,00,AAXX 17034 41946 02456 60000 10320 20270 30022 40026 84501 333 20285 58004 70006 84618 83080==
41946,2024,07,17,06,00,AAXX 17064 41946 02456 80904 10325 20280 30015 40019 8532/ 333 59002 70006 84618 88460 81928==
41946,2024,07,17,09,00,AAXX 17094 41946 32456 81708 10337 20270 39994 49998 8532/ 333 56499 59006 70000 84618 81928 88460=
41946,2024,07,17,12,00,AAXX 17124 41946 02456 81803 10326 20280 39983 49987 8532/ 333 10348 59008 70000 84618 88460 81928==
41946,2024,07,17,15,00,AAXX 17154 41946 02456 50000 10313 20270 30005 40009 82530 333 59004 70000 82618 84362==
41946,2024,07,17,18,00,AAXX 17184 41946 02456 50000 10298 20280 30012 40017 82530 333 59006 70000 82618 84362==
41946,2024,07,17,21,00,AAXX 17214 41946 02456 50000 10294 20270 39997 40002 82530 333 59012 70000 82618 84362==
41946,2024,07,18,00,00,AAXX 18004 41946 02456 50000 10290 20280 30002 40007 82530 333 59008 70000 82618 84362==
41946,2024,07,18,03,00,AAXX 18034 41946 02456 50000 10330 20270 30005 40009 83401 333 20285 59017 70000 82618 83080==
41946,2024,07,18,06,00,AAXX 18064 41946 02456 60904 10340 20280 39999 40003 84320 333 59016 70000 83618 84460 81928==
41946,2024,07,18,09,00,AAXX 18094 41946 02456 60902 10350 20270 39970 49974 86300 333 59024 70000 83618 83822 81928==
41946,2024,07,18,12,00,AAXX 18124 41946 21556 50000 10320 20270 39962 49966 70196 82231 333 10354 59021 60125 70120 82825 83362==
41947,2024,07,12,00,00,AAXX 12004 41947 02450 82805 10292 20280 39999 40002 8352/ 333 59029 70340 83618 88458==
41947,2024,07,12,03,00,AAXX 12034 41947 01350 80000 10260 20260 30014 40021 76166 8672/ 333 20255 59021 70890 82708 84615 88458==
41947,2024,07,12,06,00,AAXX 12064 41947 21350 80000 10270 20270 30004 40007 76166 8572/ 333 59017 60639 70966 81708 83615 88458==
41947,2024,07,12,09,00,AAXX 12094 41947 01456 80000 10295 20270 39990 49992 70266 8452/ 333 59013 70971 84618 88459==
41947,2024,07,12,12,00,AAXX 12124 41947 11456 80000 10285 20270 39984 49986 60016 70262 8352/ 333 10295 59008 70631 83618 88459==
41947,2024,07,12,15,00,AAXX 12154 41947 02450 30000 10282 20260 39996 49998 83500 333 59015 70631 83618==
41947,2024,07,12,18,00,AAXX 12184 41947 02450 30000 10280 20260 30000 40002 83500 333 59015 70631 83618==
41947,2024,07,12,21,00,AAXX 12214 41947 02450 30000 10275 20260 39993 49995 333 59011 70631 83618==
41947,2024,07,13,00,00,AAXX 13004 41947 02456 20000 10272 20270 39983 49985 82500 333 59017 70631 82618==
41947,2024,07,13,03,00,AAXX 13034 41947 02456 70000 10310 20280 39992 49995 83570 333 20252 59019 70081 83618 86458==
41947,2024,07,13,06,00,AAXX 13064 41947 NIL=
41947,2024,07,13,09,00,AAXX 13094 41947 02456 31805 10335 20270 39967 49969 83400 333 59023 70000 82618==
41947,2024,07,13,12,00,AAXX 13124 41947 02456 21803 10325 20280 39962 49964 82400 333 10343 59022 70000 81618==
41947,2024,07,13,15,00,AAXX 13154 41947 02456 31803 10310 20280 39980 49982 83500 333 59016 70000 83618==
41947,2024,07,13,18,00,AAXX 13184 41947 02456 31802 10295 20280 39989 49991 83500 333 59011 70000 83618==
41947,2024,07,13,21,00,AAXX 13214 41947 02456 30000 10288 20280 39981 49983 83500 333 59012 70000 83618==
41947,2024,07,14,00,00,AAXX 14004 41947 02456 50000 10280 20270 39980 49982 82401 333 59003 70000 81618 83080==
41947,2024,07,14,03,00,AAXX 14034 41947 02456 60000 10322 20270 39990 49992 83570 333 20280 59003 70000 83618 84459==
41947,2024,07,14,06,00,AAXX 14064 41947 02457 61802 10350 20270 39983 49985 86400 333 59004 70000 83618 83820==
41947,2024,07,14,09,00,AAXX 14094 41947 01356 81402 10290 20280 39969 49971 76122 8572/ 333 59002 70050 82709 83617 88456==
41947,2024,07,14,12,00,AAXX 14124 41947 01456 30000 10298 20290 39968 49970 70162 83500 333 10348 58006 70140 83618==
41947,2024,07,14,15,00,AAXX 14154 41947 02950 00000 10298 20270 39989 49991 333 58009 70140==
41947,2024,07,14,18,00,AAXX 14184 41947 NIL=
41947,2024,07,14,21,00,AAXX 14214 41947 02950 01402 10285 20280 39998 40000 333 58017 70140==
41947,2024,07,15,00,00,AAXX 15004 41947 02456 21402 10280 20270 39998 40000 82500 333 58018 70140 82618==
41947,2024,07,15,03,00,AAXX 15034 41947 02456 71302 10315 20270 30008 40010 83570 333 20275 58018 70140 83618 85459==
41947,2024,07,15,06,00,AAXX 15064 41947 01456 71303 10325 20290 30003 40005 70262 83570 333 58020 70020 83618 85459==
41947,2024,07,15,09,00,AAXX 15094 41947 02456 61303 10345 20270 39989 49991 83530 333 58020 70110 83618 84362==
41947,2024,07,15,12,00,AAXX 15124 41947 21456 71303 10305 20280 39983 49985 70362 83530 333 10350 58015 60025 70040 83618 87458==
41947,2024,07,15,15,00,AAXX 15154 41947 02450 51803 10300 20280 39999 40001 82530 333 58010 70040 82618 83362==
41947,2024,07,15,18,00,AAXX 15184 41947 02450 51802 10294 20270 30006 40008 82530 333 58007 70040 84618 83362==
41947,2024,07,15,21,00,AAXX 15214 41947 02450 80000 10290 20280 30004 40006 8452/ 333 58006 70000 84616 88458==
41947,2024,07,16,00,00,AAXX 16004 41947 21450 80000 10285 20280 30006 40008 70262 8452/ 333 58008 60015 70050 84616 88458==
41947,2024,07,16,03,00,AAXX 16034 41947 02456 70000 10308 20280 30026 40029 83570 333 20280 58019 70050 83618 86458==
41947,2024,07,16,06,00,AAXX 16064 41947 02456 71803 10340 20270 30021 40024 83570 333 58019 70030 83618 86458==
41947,2024,07,16,09,00,AAXX 16094 41947 02456 81302 10320 20280 30005 40007 8542/ 333 58010 70030 83618 83820 88458==
41947,2024,07,16,12,00,AAXX 16124 41947 01456 51802 10310 20280 39994 49996 70162 82510 333 10340 58011 70020 82618 85459==
41947,2024,07,16,15,00,AAXX 16154 41947 02450 81802 10300 20290 30008 40010 8352/ 333 58009 70030 83618 88458==
41947,2024,07,16,18,00,AAXX 16184 41947 02450 61802 10290 20280 30020 40022 83570 333 58014 70030 83618 85459==
41947,2024,07,16,21,00,AAXX 16214 41947 02450 60000 10285 20270 30013 40015 83510 333 58009 70030 83618 86459==
41947,2024,07,17,00,00,AAXX 17004 41947 02456 60000 10283 20280 30008 40010 84510 333 58002 70020 84618 86459==
41947,2024,07,17,03,00,AAXX 17034 41947 02456 70000 10313 20270 30021 40024 83570 333 20280 59003 70020 83618 86458==
41947,2024,07,17,06,00,AAXX 17064 41947 02456 60000 10342 20270 30013 40016 86400 333 59008 70020 83618 83820==
41947,2024,07,17,09,00,AAXX 17094 41947 01456 70000 10312 20290 39996 49998 70362 84470 333 59009 70060 83618 85459==
41947,2024,07,17,12,00,AAXX 17124 41947 21456 61302 10328 20280 39984 49986 70162 83410 333 10348 59010 60048 70040 82618 85459==
41947,2024,07,17,15,00,AAXX 17154 41947 02456 60000 10310 20290 30006 40008 83510 333 59002 70040 83618 85459==
41947,2024,07,17,18,00,AAXX 17184 41947 02456 60000 10300 20280 30013 40015 82510 333 59007 70040 82618 85459==
41947,2024,07,17,21,00,AAXX 17214 41947 02456 60000 10295 20290 39996 49998 82510 333 59017 70040 82618 85459==
41947,2024,07,18,00,00,AAXX 18004 41947 02456 60000 10288 20280 30001 40003 82570 333 59007 70040 82618 84459==
41947,2024,07,18,03,00,AAXX 18034 41947 02456 61302 10330 20270 30006 40008 83570 333 20280 59016 70040 83618 84459==
41947,2024,07,18,06,00,AAXX 18064 41947 02456 61302 10345 20290 30001 40003 83570 333 59013 70040 83618 84459==
41947,2024,07,18,09,00,AAXX 18094 41947 02456 51408 10354 20270 39972 49974 83570 333 59028 70000 83618 84458==
41947,2024,07,18,12,00,AAXX 18124 41947 02456 31403 10308 20270 39968 49970 83500 333 10355 59016 70000 83618==
41950,2024,07,12,00,00,AAXX 12004 41950 02350 80000 10287 20280 30002 40004 8562/ 333 59030 70002 82708 84616 88458==
41950,2024,07,12,03,00,AAXX 12034 41950 02350 81904 10310 20270 30010 40012 8562/ 333 20282 59022 70002 82708 84616 88458==
41950,2024,07,12,06,00,AAXX 12064 41950 01340 80000 10268 20268 30004 40006 76162 8572/ 333 59018 70110 82708 84616 88458==
41950,2024,07,12,09,00,AAXX 12094 41950 01330 80000 10276 20270 39987 49989 76166 8572/ 333 59016 70125 82708 84616 88458==
41950,2024,07,12,12,00,AAXX 12124 41950 21330 80000 10266 20260 39987 49989 76166 8572/ 333 10313 59011 60069 70163 82708 84616 88458==
41950,2024,07,12,15,00,AAXX 12154 41950 02350 70000 10265 20265 30001 40003 84610 333 59007 70163 81708 83617 87459==
41950,2024,07,12,18,00,AAXX 12183 41950 02350 80000 10270 20270 30006 40008 8562/ 333 59008 70163 82708 84616 88458==
41950,2024,07,12,21,00,AAXX 12214 41950 02350 80000 10268 20268 39986 49988 8562/ 333 59022 70163 82708 84616 88458==
41950,2024,07,13,00,00,AAXX 13004 41950 02450 60000 10268 20268 39989 49991 83571 333 59013 70163 83617 84459==
41950,2024,07,13,03,00,AAXX 13034 41950 02450 41802 10313 20260 39994 49996 84401 333 20260 59016 70163 83617==
41950,2024,07,13,06,00,AAXX 13064 41950 02450 50000 10323 20250 39990 49992 84430 333 59014 70058 83617==
41950,2024,07,13,09,00,AAXX 13094 41950 02450 41702 10338 20270 39969 49971 84400 333 59018 70038 82617 83825==
41950,2024,07,13,12,00,AAXX 13124 41950 02450 60000 10324 20260 39963 49965 84310 333 10342 59024 70000 83617 84459 81928==
41950,2024,07,13,15,00,AAXX 13154 41950 02450 20000 10295 20260 39985 49987 82500 333 59016 70000 82617==
41950,2024,07,13,18,00,AAXX 13184 41950 02450 20000 10285 20270 39994 49996 82500 333 59012 70000 82617==
41950,2024,07,13,21,00,AAXX 13214 41950 02/50 20000 10280 20270 39979 49981 82030 333 59007 70000 82362==
41950,2024,07,14,00,00,AAXX 14004 41950 02450 30000 10277 20277 39983 49985 82530 333 59006 70000 82617==
41950,2024,07,14,03,00,AAXX 14034 41950 02450 51402 10317 20270 39990 49992 84430 333 20273 59004 70000 83617==
41950,2024,07,14,06,00,AAXX 14064 41950 02450 60000 10325 20270 39985 49987 85410 333 59005 70000 84617 85459==
41950,2024,07,14,09,00,AAXX 14094 41950 02450 41002 10338 20270 39967 49979 84400 333 59002 70000 83617==
41950,2024,07,14,12,00,AAXX 14124 41950 02450 41602 10316 20260 39972 49974 83430 333 10341 58009 70000 82617==
41950,2024,07,14,15,00,AAXX 14154 41950 02450 21702 10295 20260 39983 49986 81501 333 59002 70000 81617==
41950,2024,07,14,18,00,AAXX 14184 41950 02450 30000 10287 20270 39998 40000 83500 333 58004 70000 83617==
41950,2024,07,14,21,00,AAXX 14214 41950 02450 20000 10285 20270 39997 49999 82500 333 58018 70000 82617==
41950,2024,07,15,00,00,AAXX 15004 41950 02450 40000 10284 20260 39999 40001 82501 333 58016 70000 82617 83080==
41950,2024,07,15,03,00,AAXX 15034 41950 02450 51203 10317 20260 30014 40016 83530 333 20278 58024 70000 83617 83362==
41950,2024,07,15,06,00,AAXX 15064 41950 02450 50904 10338 20250 30010 40012 84430 333 58025 70000 83617==
41950,2024,07,15,09,00,AAXX 15094 41950 02350 71205 10318 20260 39994 49997 85670 333 58027 70000 81708 84616 85459==
41950,2024,07,15,12,00,AAXX 15124 41950 01450 60000 10296 20280 39988 49991 70162 84431 333 10342 58016 70010 83617 83362==
41950,2024,07,15,15,00,AAXX 15154 41950 02450 30000 10288 20270 30004 40006 82530 333 58021 70010 82617==
41950,2024,07,15,18,00,AAXX 15184 41950 02350 80000 10287 20270 30024 40026 8562/ 333 58027 70010 82708 84616 88458==
41950,2024,07,15,21,00,AAXX 15214 41950 02350 80000 10283 20260 30009 40011 8562/ 333 58012 70010 82708 84616 88458==
41950,2024,07,16,00,00,AAXX 16004 41950 02350 80902 10284 20260 30009 40011 8562/ 333 58010 70010 82708 84616 88458==
41950,2024,07,16,03,00,AAXX 16034 41950 02350 70000 10312 20270 30028 40030 85671 333 20276 58014 70010 81708 84616 86459==
41950,2024,07,16,06,00,AAXX 16064 41950 02450 61203 10334 20270 30023 40025 84431 333 58013 70010 83616 83362==
41950,2024,07,16,09,00,AAXX 16094 41950 01450 50000 10320 20270 30004 40006 72122 84331 333 58010 70020 83617 81928==
41950,2024,07,16,12,00,AAXX 16124 41950 21450 51802 10310 20260 39996 49999 70262 84431 333 10337 58008 60015 70010 83617==
41950,2024,07,16,15,00,AAXX 16154 41950 02450 20000 10295 20280 30011 40014 82500 333 58007 70010 82616==
41950,2024,07,16,18,00,AAXX 16184 41950 02350 80000 10289 20280 30021 40024 8562/ 333 58003 70010 82708 84616 88459==
41950,2024,07,16,21,00,AAXX 16214 41950 02450 60000 10283 20270 30012 40014 84570 333 58003 70010 84616 85459==
41950,2024,07,17,00,00,AAXX 17004 41950 02450 50000 10280 20270 30014 40016 82531 333 58005 70010 82616 83362==
41950,2024,07,17,03,00,AAXX 17034 41950 02450 51402 10320 20260 30020 40023 83431 333 20278 59008 70010 83617==
41950,2024,07,17,06,00,AAXX 17064 41950 02450 50902 10340 20260 30013 40016 83431 333 59010 70010 83617==
41950,2024,07,17,09,00,AAXX 17094 41950 02450 51202 10349 20260 39995 49998 85401 333 59009 70000 84617==
41950,2024,07,17,12,00,AAXX 17124 41950 02450 60902 10329 20260 39982 49985 84401 333 10354 59014 70000 83617 84080==
41950,2024,07,17,15,00,AAXX 17154 41950 02450 50000 10300 20270 30012 40015 82510 333 58001 70000 82617 85459==
41950,2024,07,17,18,00,AAXX 17184 41950 02450 50000 10294 20260 30015 40018 83510 333 59006 70000 83617 85459==
41950,2024,07,17,21,00,AAXX 17214 41950 02450 50000 10286 20280 30000 40002 82510 333 59012 70000 82617 85459==
41950,2024,07,18,00,00,AAXX 18004 41950 02350 80000 10282 20280 30002 40004 8562/ 333 59012 70000 82708 84616 88458==
41950,2024,07,18,03,00,AAXX 18034 41950 02450 50602 10328 20260 30004 40006 82431 333 20280 59016 70000 82617==
41950,2024,07,18,06,00,AAXX 18064 41950 02450 60902 10349 20270 30000 40003 85401 333 59013 70000 84617==
41950,2024,07,18,09,00,AAXX 18094 41950 02450 60000 10345 20280 39979 49981 84431 333 59016 70000 83617==
41950,2024,07,18,12,00,AAXX 18124 41950 42450 31602 10355 20240 39969 49971 59013 82617==
41950,2024,07,18,15,00,AAXX 18154 41950 02450 40000 10303 20260 39989 49992 83530 333 59023 70000 83617==
41951,2024,07,12,00,00,AAXX 12004 41951 11340 80000 10286 20280 30005 40009 69926 70262 8562/ 333 59026 70046 81709 84618 88458==
41951,2024,07,12,03,00,AAXX 12034 41951 02450 71302 10308 20280 30007 40012 83510 333 20277 59030 70046 83618 85459==
41951,2024,07,12,06,00,AAXX 12064 41951 01330 81302 10275 20270 30005 40009 76162 8672/ 333 59014 70040 82706 84616 88458==
41951,2024,07,12,09,00,AAXX 12094 41951 01340 80000 10280 20270 39985 49990 70266 8562/ 333 59016 70062 81708 84618 88458==
41951,2024,07,12,12,00,AAXX 12124 41951 01340 80000 10272 20260 39990 49995 76062 8562/ 333 10320 59007 70066 81708 84618 88458==
41951,2024,07,12,15,00,AAXX 12154 41951 02340 80000 10275 20275 30000 40005 8562/ 333 59009 70066 81708 84618 88458==
41951,2024,07,12,18,00,AAXX 12184 41951 02340 81302 10275 20270 30001 40005 8562/ 333 59011 70066 81708 84618 88458==
41951,2024,07,12,21,00,AAXX 12214 41951 02340 80000 10277 20277 39992 49997 8562/ 333 59015 70064 81708 84618 88458==
41951,2024,07,13,00,00,AAXX 13004 41951 02340 80000 10277 20270 39985 49990 8562/ 333 59020 70064 81709 84618 88458==
41951,2024,07,13,03,00,AAXX 13034 41951 01450 70000 10313 20270 39991 49996 72122 83510 333 20267 59016 70066 83618 86459==
41951,2024,07,13,06,00,AAXX 13064 41951 21350 81302 10310 20270 39990 49995 70362 8562/ 333 59015 69925 70022 81708 84618 88458==
41951,2024,07,13,07,00,AAXX 13074 41951 21350 81302 10310 20270 39990 49995 70362 8562/ 333 59015 69925 70022 81708 84618 88458==
41951,2024,07,13,09,00,AAXX 13094 41951 02456 51302 10340 20280 39976 49981 82510 333 59009 70006 82618 84459==
41951,2024,07,13,12,00,AAXX 13124 41951 02456 51302 10320 20270 39970 49975 82510 333 10342 59020 70002 82618 84459==
41951,2024,07,13,15,00,AAXX 13154 41951 02950 00000 10290 20280 39983 49988 333 59017 70002==
41951,2024,07,13,18,00,AAXX 13184 41951 02950 00000 10283 20270 39991 49995 333 59010 70002==
41951,2024,07,13,21,00,AAXX 13214 41951 02450 30000 10280 20270 39986 49990 83500 333 59006 70002 83618==
41951,2024,07,14,00,00,AAXX 14004 41951 02450 70000 10282 20270 39984 49988 83510 333 59001 70002 83618 86459==
41951,2024,07,14,03,00,AAXX 14034 41951 02450 70302 10312 20270 39991 49996 83510 333 20272 58000 70000 83618 86459==
41951,2024,07,14,06,00,AAXX 14064 41951 02456 60303 10330 20270 39987 49992 83510 333 59003 70000 83618 85459==
41951,2024,07,14,09,00,AAXX 14094 41951 02456 51307 10338 20260 39973 49978 85400 333 59003 70000 83618 83825==
41951,2024,07,14,12,00,AAXX 14124 41951 02456 51302 10318 20270 39972 49977 82508 333 10342 58002 70000 82618 84278==
41951,2024,07,14,15,00,AAXX 14154 41951 02450 60000 10293 20270 39991 49996 83510 333 58008 70000 83618 85459==
41951,2024,07,14,18,00,AAXX 14184 41951 02450 60000 10293 20270 39999 40004 83510 333 58008 70000 83618 85459==
41951,2024,07,14,21,00,AAXX 14214 41951 02350 80000 10285 20280 30000 40005 8562/ 333 58014 70000 82708 83618 88458==
41951,2024,07,15,00,00,AAXX 15004 41951 21350 60000 10275 20270 30000 40005 70162 83510 333 58016 60055 70050 83618 85459==
41951,2024,07,15,03,00,AAXX 15034 41951 02456 61305 10312 20270 30011 40016 83510 333 20274 58020 70050 83618 85459==
41951,2024,07,15,06,00,AAXX 15064 41951 02456 51010 10337 20270 30005 40010 82510 333 58018 70050 82618 84459==
41951,2024,07,15,09,00,AAXX 15094 41951 02456 61309 10332 20230 39988 49993 83510 333 58015 70050 83618 85459==
41951,2024,07,15,12,00,AAXX 15124 41951 21450 71304 10308 20270 39989 49994 70362 83510 333 10339 58017 69925 70052 83618 86459==
41951,2024,07,15,15,00,AAXX 15154 41951 02450 31303 10298 20270 30011 40016 83500 333 58021 70052 83618==
41951,2024,07,15,18,00,AAXX 15184 41951 02450 61304 10293 20270 30017 40022 83510 333 58018 70052 83618 85459==
41951,2024,07,15,21,00,AAXX 15214 41951 41450 61402 10291 20270 30023 40028 58023 70052 85459==
41951,2024,07,16,00,00,AAXX 16004 41951 02350 81408 10290 20260 30010 40015 8662/ 333 58010 70002 82708 84618 88458==
41951,2024,07,16,03,00,AAXX 16034 41951 02450 71504 10310 20280 30026 40031 83510 333 20284 58015 70002 83618 86459==
41951,2024,07,16,06,00,AAXX 16064 41951 11450 70000 10308 20280 30027 40032 69952 72162 83510 333 58022 70007 83618 86459==
41951,2024,07,16,09,00,AAXX 16094 41951 02456 51303 10333 20270 30001 40006 82510 333 58013 70007 82618 84459==
41951,2024,07,16,12,00,AAXX 16124 41951 02456 61502 10317 20270 39998 40003 83510 333 10335 58009 70005 83618 85459==
41951,2024,07,16,15,00,AAXX 16154 41951 02450 60000 10290 20270 30012 40017 83510 333 59005 70005 83618 84459==
41951,2024,07,16,18,00,AAXX 16184 41951 02450 60000 10290 20280 30021 40026 83510 333 58004 70005 83618 85459==
41951,2024,07,16,21,00,AAXX 16214 41951 02450 60000 10280 20270 30015 40020 83510 333 59008 70005 83618 84459==
41951,2024,07,17,00,00,AAXX 17004 41951 02350 60000 10283 20270 30011 40015 84610 333 58001 70005 82708 83618 84459==
41951,2024,07,17,03,00,AAXX 17034 41951 01450 60000 10320 20270 30021 40026 70262 83510 333 20276 59005 70007 83618 85459==
41951,2024,07,17,06,00,AAXX 17064 41951 11456 61303 10325 20280 30011 40016 69926 70262 83510 333 59016 70002 83618 85459==
41951,2024,07,17,09,00,AAXX 17094 41951 02456 51503 10336 20270 39995 40000 82510 333 59006 70002 82618 84459==
41951,2024,07,17,12,00,AAXX 17124 41951 02456 50000 10318 20280 39987 49992 82510 333 10338 59011 70002 82618 84459==
41951,2024,07,17,15,00,AAXX 17154 41951 02450 70000 10298 20280 30009 40014 83510 333 59003 70002 83618 85459==
41951,2024,07,17,18,00,AAXX 17184 41951 02450 70000 10292 20280 30006 40010 83510 333 59015 70002 83618 86459==
41951,2024,07,17,21,00,AAXX 17214 41951 02340 80000 10287 20280 30003 40008 8562/ 333 59012 70002 81709 84618 88458==
41951,2024,07,18,00,00,AAXX 18004 41951 02340 80000 10285 20280 30000 40005 8562/ 333 59011 70002 81709 84618 88458==
41951,2024,07,18,03,00,AAXX 18034 41951 02456 60502 10322 20280 30007 40012 83510 333 20279 59014 70000 83618 85459==
41951,2024,07,18,06,00,AAXX 18064 41951 02456 61302 10343 20270 39997 40001 83510 333 59014 70000 83618 85459==
41951,2024,07,18,09,00,AAXX 18094 41951 02456 62004 10347 20290 39982 49986 83510 333 59013 70000 83618 85459==
41951,2024,07,18,12,00,AAXX 18124 41951 02456 50000 10323 20260 39972 49976 82510 333 10354 59015 70000 82618 84459==
41951,2024,07,18,15,00,AAXX 18154 41951 02350 71303 10304 20260 39995 40000 84610 333 59014 70000 81708 83618 86459==
41953,2024,07,12,00,00,AAXX 12004 41953 21440 81304 10275 20275 30012 40017 70262 8352/ 333 59039 60067 70210 83616 88458==
41953,2024,07,12,03,00,AAXX 12034 41953 02445 71303 10300 20270 30036 40041 83510 333 20272 59016 70210 83616 86458==
41953,2024,07,12,06,00,AAXX 12064 41953 01445 81304 10280 20260 30009 40014 72122 8352/ 333 59017 70010 83616 88458==
41953,2024,07,12,09,00,AAXX 12094 41953 01445 81304 10272 20260 39986 49991 76166 8452/ 333 59033 70290 84615 88458==
41953,2024,07,12,12,00,AAXX 12124 41953 21445 81802 10286 20270 39987 49992 70266 8352/ 333 10303 59015 60088 70240 83616 88458==
41953,2024,07,12,15,00,AAXX 12154 41953 02435 21801 10270 20250 30002 40007 82500 333 59019 70150 82618==
41953,2024,07,12,18,00,AAXX 12184 41953 02430 21801 10268 20260 30007 40012 82500 333 59017 70150 82618==
41953,2024,07,12,21,00,AAXX 12214 41953 02430 51301 10268 20260 39998 40003 83510 333 59034 70150 83616 84458==
41953,2024,07,13,00,00,AAXX 13004 41953 02435 80000 10270 20260 39992 49997 8352/ 333 59015 70090 83616 88458==
41953,2024,07,13,03,00,AAXX 13034 41953 02445 81302 10290 20270 39996 40001 8352/ 333 20266 59037 70090 83616 88458==
41953,2024,07,13,06,00,AAXX 13064 41953 02445 61304 10317 20280 39995 40000 83510 333 59014 70080 83616 86458==
41953,2024,07,13,09,00,AAXX 13094 41953 02450 41805 10327 20260 39982 49982 84400 333 70010 83618==
41953,2024,07,13,12,00,AAXX 13124 41953 02450 41804 10304 20270 39969 49974 84400 333 10328 59018 70000 83618==
41953,2024,07,13,15,00,AAXX 13154 41953 02440 21804 10290 20280 39988 49993 82500 333 59014 70000 82618==
41953,2024,07,13,18,00,AAXX 13184 41953 02435 41304 10280 20270 39994 49999 84400 333 59013 70000 83618==
41953,2024,07,13,21,00,AAXX 13214 41953 02430 81304 10280 20270 39992 49997 8352/ 333 59006 70000 83616 88458==
41953,2024,07,14,00,00,AAXX 14004 41953 02440 81305 10280 20270 39986 49991 8352/ 333 59006 70000 83616 88458==
41953,2024,07,14,03,00,AAXX 14034 41953 02450 61804 10310 20270 30005 40010 83510 333 20278 58006 70000 83616 86458==
41953,2024,07,14,06,00,AAXX 14064 41953 02450 61304 10326 20270 39993 49998 84410 333 59002 70000 83616 84458==
41953,2024,07,14,09,00,AAXX 14094 41953 02450 41802 10334 20260 39969 49974 84400 333 59008 70000 82618 83825==
41953,2024,07,14,12,00,AAXX 14124 41953 02550 41802 10324 20250 39975 49980 82130 333 10336 58006 70000 82825 83362==
41953,2024,07,14,15,00,AAXX 14154 41953 02440 30000 10290 20270 39992 49997 83500 333 58004 70000 83618==
41953,2024,07,14,18,00,AAXX 14184 41953 02435 60000 10285 20270 39999 40004 83510 333 58005 70000 83616 84458==
41953,2024,07,14,21,00,AAXX 14214 41953 02430 30000 10284 20260 30003 40008 83500 333 58006 70000 83618==
41953,2024,07,15,00,00,AAXX 15004 41953 02445 31302 10286 20270 30006 40011 83500 333 58020 70000 83618==
41953,2024,07,15,03,00,AAXX 15034 41953 02450 61303 10320 20260 30017 40022 83510 333 20276 58012 70000 83616 84458==
41953,2024,07,15,06,00,AAXX 15064 41953 02450 41304 10335 20250 30010 40015 83410 333 58017 70000 82616 84458==
41953,2024,07,15,09,00,AAXX 15094 41953 02450 61304 10335 20250 39998 40003 84410 333 58029 70000 83616 86458==
41953,2024,07,15,12,00,AAXX 15124 41953 02450 61803 10306 20260 39992 49997 83510 333 10340 58017 70000 83616 86458==
41953,2024,07,15,15,00,AAXX 15154 41953 02440 81303 10295 20260 30010 40015 8352/ 333 58018 70000 83616 88458==
41953,2024,07,15,18,00,AAXX 15184 41953 02440 61303 10290 20250 30027 40032 83510 333 58028 70000 83616 86458==
41953,2024,07,15,21,00,AAXX 15214 41953 02440 61303 10285 20270 30020 40025 83510 333 58022 70000 83616 86458==
41953,2024,07,16,00,00,AAXX 16004 41953 02440 61305 10285 20250 30020 40025 83510 333 58014 70000 83616 86458==
41953,2024,07,16,03,00,AAXX 16034 41953 02450 61304 10315 20270 30032 40037 84410 333 20284 58015 70000 83616 86458==
41953,2024,07,16,06,00,AAXX 16064 41953 02450 61304 10330 20270 30030 40035 84410 333 58020 70000 83616 86458==
41953,2024,07,16,09,00,AAXX 16094 41953 02450 61304 10332 20270 30011 40016 84410 333 58013 70000 83616 86458==
41953,2024,07,16,12,00,AAXX 16124 41953 02450 51303 10320 20260 30000 40005 83410 333 10340 58008 70000 82616 85458==
41953,2024,07,16,15,00,AAXX 16154 41953 02440 60000 10295 20280 30018 40023 83510 333 58008 70000 83616 86458==
41953,2024,07,16,18,00,AAXX 16184 41953 02440 80000 10290 20280 30027 40032 8352/ 333 58000 70000 83616 88458==
41953,2024,07,16,21,00,AAXX 16214 41953 02440 80000 10285 20280 30020 40025 8352/ 333 58000 70000 83616 88458==
41953,2024,07,17,00,00,AAXX 17004 41953 02440 80000 10280 20270 30015 40020 8352/ 333 59005 70000 83616 88458==
41953,2024,07,17,03,00,AAXX 17034 41953 02450 61303 10320 20260 30022 40027 84410 333 20280 59010 70000 83616 86458==
41953,2024,07,17,06,00,AAXX 17064 41953 02450 61302 10332 20260 30018 40023 84410 333 59012 70000 83618 85458==
41953,2024,07,17,09,00,AAXX 17094 41953 02450 60000 10340 20260 39999 40004 84410 333 59012 70000 83616 86458==
41953,2024,07,17,12,00,AAXX 17124 41953 02450 60000 10325 20270 39985 49990 84410 333 10350 59015 70000 83616 86458==
41953,2024,07,17,15,00,AAXX 17154 41953 02440 80000 10300 20280 30010 40015 8352/ 333 59008 70000 83616 88458==
41953,2024,07,17,18,00,AAXX 17184 41953 02440 80000 10292 20270 30015 40020 8352/ 333 59012 70000 83616 88458==
41953,2024,07,17,21,00,AAXX 17214 41953 02440 80000 10286 20280 30010 40015 8352/ 333 59010 70000 83616 88458==
41953,2024,07,18,00,00,AAXX 18004 41953 02440 80000 10290 20280 30002 40007 8352/ 333 59013 70000 83616 88458==
41953,2024,07,18,03,00,AAXX 18034 41953 02450 60000 10325 20280 30010 40015 84410 333 20285 59012 70000 83616 86458==
41953,2024,07,18,06,00,AAXX 18064 41953 02450 41302 10345 20280 30007 40012 84400 333 59011 70000 83618==
41953,2024,07,18,09,00,AAXX 18094 41953 02450 40000 10353 20270 39995 40000 84400 333 59004 70000 83618==
41953,2024,07,18,12,00,AAXX 18124 41953 02450 61803 10328 20260 39968 49973 83510 333 10354 59017 70000 83616 85458==
41955,2024,07,12,00,00,AAXX 12004 41955 NIL=
41955,2024,07,12,06,00,AAXX 12064 41955 NIL=
41955,2024,07,12,12,00,AAXX 12124 41955 NIL=
41955,2024,07,13,00,00,AAXX 13004 41955 NIL=
41955,2024,07,13,06,00,AAXX 13064 41955 NIL=
41955,2024,07,13,12,00,AAXX 13124 41955 NIL=
41955,2024,07,14,00,00,AAXX 14004 41955 NIL=
41955,2024,07,14,06,00,AAXX 14064 41955 NIL=
41955,2024,07,14,12,00,AAXX 14124 41955 NIL=
41955,2024,07,14,18,00,AAXX 14184 41955 NIL=
41955,2024,07,15,00,00,AAXX 15004 41955 NIL=
41955,2024,07,15,12,00,AAXX 15124 41955 NIL=
41955,2024,07,16,06,00,AAXX 16064 41955 NIL=
41955,2024,07,17,00,00,AAXX 17004 41955 NIL=
41955,2024,07,17,06,00,AAXX 17064 41955 NIL=
41955,2024,07,17,12,00,AAXX 17124 41955 NIL=
41955,2024,07,18,00,00,AAXX 18004 41955 NIL=
41955,2024,07,18,12,00,AAXX 18124 41955 NIL=
41958,2024,07,12,00,00,AAXX 12004 41958 32450 60000 10290 20280 39993 49995 83410 333 56990 59031 70008 83616 85459=
41958,2024,07,12,03,00,AAXX 12034 41958 21450 80000 10272 20270 30003 40005 72162 8542/ 333 20276 56999 59027 6004/ 70048 84616 88458=
41958,2024,07,12,06,00,AAXX 12064 41958 11440 82201 10274 20260 30006 40008 60179 76162 8572/ 333 56599 59010 70178 82708 84616 88458=
41958,2024,07,12,09,00,AAXX 12094 41958 32450 80000 10320 20260 39986 49988 8542/ 333 56999 59011 70170 84616 88458=
41958,2024,07,12,12,00,AAXX 12124 41958 32450 60000 10297 20270 39983 49985 83410 333 10320 59011 70170 83616 85459=
41958,2024,07,12,18,00,AAXX 12184 41958 32440 81701 10274 20260 39994 49996 8542/ 333 56499 59017 70170 84616 88458=
41958,2024,07,12,21,00,AAXX 12214 41958 32440 30000 10272 20270 39985 49987 83400 333 56900 59012 70170 83616=
41958,2024,07,13,00,00,AAXX 13004 41958 32450 30000 10270 20270 39983 49985 83400 333 56900 59010 70170 83616=
41958,2024,07,13,03,00,AAXX 13034 41958 32456 61701 10320 20280 39992 49994 83410 333 20256 56490 59011 70130 83616 85459=
41958,2024,07,13,06,00,AAXX 13064 41958 32450 80000 10316 20280 39988 49990 8542/ 333 56999 59018 70000 84616 88458=
41958,2024,07,13,09,00,AAXX 13094 41958 21456 61701 10334 20290 39967 49969 70162 83410 333 56490 59021 6050/ 70500 83616 85459=
41958,2024,07,13,12,00,AAXX 13124 41958 11456 61701 10320 20270 39958 49960 60506 70262 83410 333 10340 56490 59025 83616 85458=
41958,2024,07,13,15,00,AAXX 13154 41958 32950 01701 10290 20280 39980 49982 333 59015 70500=
41958,2024,07,13,18,00,AAXX 13184 41958 32440 61701 10284 20270 39989 49991 83410 333 56490 59005 70500 83616 85459=
41958,2024,07,13,21,00,AAXX 13214 41958 32440 61701 10283 20280 39977 49979 83410 333 56490 59008 70500 83616 85459=
41958,2024,07,14,00,00,AAXX 14004 41958 11450 81301 10282 20280 39975 49977 60015 70362 8542/ 333 56399 59008 70510 84616 88458=
41958,2024,07,14,03,00,AAXX 14034 41958 32456 61301 10324 20270 39985 49987 83410 333 20275 56390 59007 70510 83616 85459=
41958,2024,07,14,06,00,AAXX 14064 41958 32457 61302 10350 20270 39978 49980 83410 333 56390 59010 70510 83616 85459=
41958,2024,07,14,09,00,AAXX 14094 41958 32457 31702 10336 20270 39965 49967 83400 333 56400 59002 70010 83616=
41958,2024,07,14,12,00,AAXX 14124 41958 32456 31703 10322 20270 39962 49964 83400 333 10350 56400 58004 70010 83616=
41958,2024,07,14,15,00,AAXX 14154 41958 32950 01701 10295 20280 39982 49984 333 58002 70010=
41958,2024,07,14,18,00,AAXX 14184 41958 32440 30000 10292 20290 39993 49995 83400 333 56400 58004 70010 83616=
41958,2024,07,14,21,00,AAXX 14214 41958 32440 31701 10288 20280 39991 49993 83400 333 56400 58014 70010 83616=
41958,2024,07,15,00,00,AAXX 15004 41958 32450 81702 10284 20270 39988 49990 8542/ 333 56499 58013 70000 84616 88458=
41958,2024,07,15,03,00,AAXX 15034 41958 21450 81701 10290 20280 30001 40003 72122 8542/ 333 20280 56499 58016 6993/ 70003 84616 88458=
41958,2024,07,15,06,00,AAXX 15064 41958 11450 81904 10298 20280 30000 40002 60023 76162 8532/ 333 56499 58022 70021 84616 81930 88459=
41958,2024,07,15,09,00,AAXX 15094 41958 32957 31503 10318 20290 39987 49989 83040 333 56090 58002 70021 83362=
41958,2024,07,15,12,00,AAXX 15124 41958 11456 51103 10306 20270 39979 49981 69984 70362 82502 333 10338 56309 58017 70029 82616 85078=
41958,2024,07,15,15,00,AAXX 15154 41958 32950 31103 10292 20250 39995 49997 83030 333 56090 58013 70029 83362=
41958,2024,07,15,18,00,AAXX 15184 41958 32940 30000 10290 20260 30011 40013 83030 333 56090 58018 70029 83362=
41958,2024,07,15,21,00,AAXX 15214 41958 32440 31101 10282 20270 30002 40004 83500 333 56300 58011 70029 83617=
41958,2024,07,16,00,00,AAXX 16004 41958 11350 61103 10280 20270 30005 40007 69924 72122 85710 333 56390 58017 70031 82708 84616 86459=
41958,2024,07,16,03,00,AAXX 16034 41958 32457 51102 10304 20280 30023 40026 83530 333 20278 56390 58022 70028 83617 85362=
41958,2024,07,16,06,00,AAXX 16064 41958 11457 51302 10306 20300 30017 40019 60014 72122 85310 333 56390 58017 70020 83616 81930 85459=
41958,2024,07,16,09,00,AAXX 16094 41958 21457 41102 10330 20290 39998 40000 70162 84400 333 56300 58011 6996/ 70026 83616=
41958,2024,07,16,12,00,AAXX 16124 41958 11456 31102 10316 20280 39991 49993 69966 70162 81501 333 10338 56309 58012 70018 81617 83080=
41958,2024,07,16,15,00,AAXX 16154 41958 32450 31302 10294 20270 30007 40009 83500 333 56300 58012 70018 83617=
41958,2024,07,16,18,00,AAXX 16184 41958 11440 31302 10288 20280 30020 40022 69925 70262 83500 333 56300 58009 70020 83617=
41958,2024,07,16,21,00,AAXX 16214 41958 32440 20000 10286 20280 30003 40005 82500 333 56300 58001 70020 82617=
41958,2024,07,17,00,00,AAXX 17004 41958 32450 30901 10286 20280 30009 40011 81501 333 56309 58004 70018 81617 83080=
41958,2024,07,17,03,00,AAXX 17034 41958 32457 30902 10326 20280 30018 40020 83530 333 20280 56390 59005 70018 83616=
41958,2024,07,17,06,00,AAXX 17064 41958 32458 30903 10340 20270 30013 40015 83501 333 56309 59004 70008 83616=
41958,2024,07,17,09,00,AAXX 17094 41958 32458 30902 10340 20280 39992 49994 83530 333 56390 59006 70002 83616=
41958,2024,07,17,12,00,AAXX 17124 41958 32456 41502 10320 20270 39983 49985 81501 333 10345 56309 59008 70002 83616=
41958,2024,07,17,15,00,AAXX 17154 41958 32950 31502 10300 20280 30003 40005 80001 333 56009 59004 70002 83080=
41958,2024,07,17,18,00,AAXX 17184 41958 32940 31502 10296 20290 30011 40013 80001 333 56009 59009 70000 83080=
41958,2024,07,17,21,00,AAXX 17214 41958 32440 20000 10288 20280 39992 49994 80001 333 56009 59011 70000 82080=
41958,2024,07,18,00,00,AAXX 18004 41958 32950 30901 10286 20280 39996 49998 81031 333 56099 59013 70000 81362 83080=
41958,2024,07,18,03,00,AAXX 18034 41958 32457 30903 10332 20270 30002 40004 81501 333 20282 56309 59016 70000 81617 83080=
41958,2024,07,18,06,00,AAXX 18064 41958 32458 31104 10342 20290 39998 40000 83501 333 56309 59015 70000 83616=
41958,2024,07,18,09,00,AAXX 18094 41958 32458 41104 10330 20290 39973 49975 84501 333 56309 59019 70000 84616=
41958,2024,07,18,12,00,AAXX 18124 41958 32956 21103 10316 20270 39963 49965 80001 333 10345 56009 59020 70000 82080=
41960,2024,07,12,00,00,AAXX 12004 41960 01440 50000 10285 20285 30004 40006 76122 85470 333 59030 70001 83618 83460==
41960,2024,07,12,03,00,AAXX 12034 41960 01350 80000 10280 20270 30010 40012 76362 8672/ 333 20263 59029 70363 83707 84615 88456==
41960,2024,07,12,06,00,AAXX 12064 41960 21340 80000 10267 20260 30005 40007 76362 8672/ 333 59022 60427 70463 83707 84615 88456==
41960,2024,07,12,09,00,AAXX 12094 41960 02450 80000 10298 20250 39993 49995 8642/ 333 59015 70423 84617 83822 88459==
41960,2024,07,12,12,00,AAXX 12124 41960 02440 80000 10284 20260 39993 49995 8452/ 333 10300 59001 70423 84618 88459==
41960,2024,07,12,15,00,AAXX 12154 41960 02440 30000 10279 20270 30003 40005 83400 333 59012 70423 82618==
41960,2024,07,12,18,00,AAXX 12184 41960 02450 60000 10275 20270 30007 40009 85410 333 59012 70421 84618 86459==
41960,2024,07,12,21,00,AAXX 12214 41960 02450 40000 10272 20270 30002 40004 83410 333 59010 70421 82618 84460==
41960,2024,07,13,00,00,AAXX 13004 41960 02/50 20000 10270 20270 39995 49997 82030 333 59009 70420 82363==
41960,2024,07,13,03,00,AAXX 13034 41960 02456 30000 10315 20270 39995 49997 83500 333 20260 59015 70010 83618==
41960,2024,07,13,06,00,AAXX 13064 41960 02450 50000 10342 20260 39992 49993 85400 333 59013 70000 83618==
41960,2024,07,13,09,00,AAXX 13094 41960 02456 31904 10342 20270 39975 49976 83400 333 59018 70000 82618==
41960,2024,07,13,12,00,AAXX 13124 41960 02450 31801 10320 20270 39970 49971 83400 333 10346 59023 70000 82618==
41960,2024,07,13,15,00,AAXX 13154 41960 02950 00000 10291 20270 39985 49987 333 59018 70000==
41960,2024,07,13,18,00,AAXX 13184 41960 02450 40000 10286 20280 39993 49995 84400 333 59014 70000 83618==
41960,2024,07,13,21,00,AAXX 13214 41960 02450 40000 10282 20280 39988 49990 84400 333 59014 70000 82618==
41960,2024,07,14,00,00,AAXX 14004 41960 02450 30000 10280 20280 39982 49984 81501 333 59013 70000 81618 83080==
41960,2024,07,14,03,00,AAXX 14034 41960 02456 50000 10320 20270 39991 49993 83410 333 20274 59004 70000 83618 84459==
41960,2024,07,14,06,00,AAXX 14064 41960 02456 81802 10324 20280 39988 49990 8352/ 333 59004 70000 83618 88459==
41960,2024,07,14,09,00,AAXX 14094 41960 02457 41804 10335 20270 39972 49973 84410 333 59003 70000 83618==
41960,2024,07,14,12,00,AAXX 14124 41960 02457 40000 10315 20270 39975 49976 83530 333 10338 58005 70000 83618==
41960,2024,07,14,15,00,AAXX 14154 41960 02450 50000 10292 20270 39986 49988 84401 333 58001 70000 83618 83080==
41960,2024,07,14,18,00,AAXX 14184 41960 02450 80000 10291 20270 39998 40000 8542/ 333 58005 70000 84618 88459==
41960,2024,07,14,21,00,AAXX 14214 41960 02450 60901 20270 30000 40002 85410 333 58012 70000 83618 86459==
41960,2024,07,15,00,00,AAXX 15004 41960 02450 40902 10284 20260 39999 40001 84400 333 58017 70000 82618==
41960,2024,07,15,03,00,AAXX 15034 41960 02456 60905 10306 20280 30004 40006 83410 333 20277 58013 70000 82618 85459==
41960,2024,07,15,06,00,AAXX 15064 41960 02456 60904 10328 20270 30006 40007 83470 333 58018 70000 84459==
41960,2024,07,15,09,00,AAXX 15094 41960 01456 71802 10306 20289 39994 49995 72122 85410 333 58022 70016 83618 87459==
41960,2024,07,15,12,00,AAXX 15124 41960 21456 81802 10300 20270 39985 49986 70362 8352/ 333 10328 58010 60025 70016 83618 88456==
41960,2024,07,15,15,00,AAXX 15154 41960 02450 80000 10290 20270 30006 40008 8542/ 333 58020 70016 84618 88459==
41960,2024,07,15,18,00,AAXX 15184 41960 02450 60000 10290 20280 30018 40020 84410 333 58020 70016 83618 86459==
41960,2024,07,15,21,00,AAXX 15214 41960 02450 70000 10284 20270 30016 40018 85410 333 58016 70016 83617 87459==
41960,2024,07,16,00,00,AAXX 16004 41960 01450 30000 10280 20280 30013 40015 70162 83440 333 58014 70010 82618==
41960,2024,07,16,03,00,AAXX 16034 41960 02456 81803 10312 20280 30022 40024 8352/ 333 20277 58018 70026 83618 88459==
41960,2024,07,16,06,00,AAXX 16064 41960 01456 81802 10298 20290 30023 40025 70262 8452/ 333 58015 70020 84618 88459==
41960,2024,07,16,09,00,AAXX 16094 41960 02456 51501 10322 20270 30007 40009 84410 333 58013 70030 83618 85459==
41960,2024,07,16,12,00,AAXX 16124 41960 02450 51501 10296 20280 30001 40003 83410 333 10329 58026 70030 82618 85459==
41960,2024,07,16,15,00,AAXX 16154 41960 01450 70000 10289 20280 30011 40013 72162 85410 333 58005 70032 83618 87459==
41960,2024,07,16,18,00,AAXX 16184 41960 01450 80000 10288 20280 30022 40024 70362 8542/ 333 58004 70032 84618 88458==
41960,2024,07,16,21,00,AAXX 16214 41960 02450 60000 10284 20270 30018 40020 85410 333 58002 70032 83618 86459==
41960,2024,07,17,00,00,AAXX 17004 41960 02450 40000 10282 20270 30014 40016 83470 333 58001 70022 82618==
41960,2024,07,17,03,00,AAXX 17034 41960 02456 61802 10306 20280 30023 40025 85470 333 20276 58001 70022 83618 84459==
41960,2024,07,17,06,00,AAXX 17064 41960 02456 61802 10340 20270 30014 40016 85430 333 59009 70002 82618 83825==
41960,2024,07,17,09,00,AAXX 17094 41960 02450 41802 10345 20280 30000 40002 84301 333 59007 70002 82618==
41960,2024,07,17,12,00,AAXX 17124 41960 02450 50000 10322 20270 39989 49990 82531 333 10348 59012 70002 82618 83362==
41960,2024,07,17,15,00,AAXX 17154 41960 02450 60000 10297 20280 30008 40010 84410 333 59003 70000 83618 86459==
41960,2024,07,17,18,00,AAXX 17184 41960 02450 60000 10290 20280 30013 40015 84410 333 59009 70000 83618 86459==
41960,2024,07,17,21,00,AAXX 17214 41960 02450 60000 10288 20280 30007 40009 84410 333 59011 70000 82618 86459==
41960,2024,07,18,00,00,AAXX 18004 41960 02450 60000 10287 20280 30002 40003 83410 333 59012 70000 82618 86459==
41960,2024,07,18,03,00,AAXX 18034 41960 02456 70000 10312 20280 30006 40008 84410 333 20283 59017 70000 83618 87459==
41960,2024,07,18,06,00,AAXX 18064 41960 02456 81802 10330 20280 30004 40006 8452/ 333 59010 70000 84618 88458==
41960,2024,07,18,09,00,AAXX 18094 41960 01456 21804 10340 20260 39982 49984 70162 82401 333 59018 70002 81618==
41960,2024,07,18,12,00,AAXX 18124 41960 11456 31802 10320 20260 39970 49972 69926 70362 83431 333 10345 59019 70002 82618==
41963,2024,07,12,00,00,AAXX 12004 41963 02440 61801 10275 20270 30013 40016 82510 333 59049 70300 82618 86458==
41963,2024,07,12,03,00,AAXX 12034 41963 01450 71802 10290 20280 30019 40022 70362 82510 333 20262 59045 70450 82618 87458==
41963,2024,07,12,06,00,AAXX 12064 41963 01340 81801 10274 20274 30015 40018 76362 8372/ 333 59022 70460 82708 83616 88456==
41963,2024,07,12,09,00,AAXX 12094 41963 01340 81801 10270 20260 39999 40002 76166 8372/ 333 59010 70570 82708 83616 88456==
41963,2024,07,12,12,00,AAXX 12124 41963 21440 71801 10275 20270 30000 40003 70162 82510 333 10300 59012 60148 70560 82618 87458==
41963,2024,07,12,15,00,AAXX 12154 41963 01930 00000 10272 20270 30007 40010 70520 333 59007 70460==
41963,2024,07,12,18,00,AAXX 12184 41963 01930 00000 10270 20265 30011 40014 70500 333 59010 70460==
41963,2024,07,12,21,00,AAXX 12214 41963 01430 21801 10271 20270 30008 40011 70510 82500 333 59011 70046 82618==
41963,2024,07,13,00,00,AAXX 13004 41963 01430 31801 10267 20265 30009 40012 70520 83500 333 59004 70460 83618==
41963,2024,07,13,03,00,AAXX 13034 41963 02456 51801 10295 20280 30010 40012 82510 333 20260 59009 70310 82618 85458==
41963,2024,07,13,06,00,AAXX 13064 41963 02457 51801 10320 20220 30002 40004 82510 333 59013 70140 82618 85458==
41963,2024,07,13,09,00,AAXX 13094 41963 02457 51803 10310 20280 39985 49988 82510 333 59014 70010 82618 85458==
41963,2024,07,13,12,00,AAXX 13124 41963 02450 31801 10300 20280 39980 49983 83500 333 10325 59019 70000 83618==
41963,2024,07,13,15,00,AAXX 13154 41963 02440 31801 10290 20280 39987 49990 83500 333 59020 70000 83618==
41963,2024,07,13,18,00,AAXX 13184 41963 02440 31801 10288 20280 39992 49995 83500 333 59019 70000 83618==
41963,2024,07,13,21,00,AAXX 13214 41963 02440 30000 10285 20280 39989 49992 82500 333 59019 70000 83618==
41963,2024,07,14,00,00,AAXX 14004 41963 02440 21801 10282 20270 39983 49986 82500 333 59026 70000 82618==
41963,2024,07,14,03,00,AAXX 14034 41963 02456 51803 10302 20270 30001 40003 82510 333 20270 59009 70000 82618 85458==
41963,2024,07,14,06,00,AAXX 14064 41963 02457 20503 10315 20260 39998 40001 82500 333 59004 70000 82618==
41963,2024,07,14,09,00,AAXX 14094 41963 02457 21802 10320 20260 39981 49984 82500 333 59004 70000 82618==
41963,2024,07,14,12,00,AAXX 14124 41963 02456 11301 10300 20270 39980 49983 81500 333 10324 58000 70000 81618==
41963,2024,07,14,15,00,AAXX 14154 41963 02440 21801 10294 20260 39997 40000 82500 333 58010 70000 82618==
41963,2024,07,14,18,00,AAXX 14184 41963 02440 21801 10292 20260 30006 40009 82500 333 58014 70000 82618==
41963,2024,07,14,21,00,AAXX 14214 41963 02440 21801 10290 20280 30003 40006 82500 333 58014 70000 82618==
41963,2024,07,15,00,00,AAXX 15004 41963 02430 31802 10287 20280 30008 40010 83500 333 58025 70000 83618==
41963,2024,07,15,03,00,AAXX 15034 41963 02957 31304 10305 20260 30014 40016 80001 333 20276 58013 70000 83080==
41963,2024,07,15,06,00,AAXX 15064 41963 02957 21304 10320 20260 30013 40015 80001 333 58015 70000 82618==
41963,2024,07,15,09,00,AAXX 15094 41963 02457 41805 10315 20270 30010 40012 82530 333 58029 70000 82618 84362==
41963,2024,07,15,12,00,AAXX 15124 41963 02450 71803 10295 20280 30001 40004 82510 333 10330 58021 70000 82618 87458==
41963,2024,07,15,15,00,AAXX 15154 41963 02440 61801 10298 20270 30016 40018 82510 333 58019 70000 82618 86458==
41963,2024,07,15,18,00,AAXX 15184 41963 02440 61803 10295 20280 30020 40022 82510 333 58014 70000 82618 86458==
41963,2024,07,16,06,00,AAXX 16064 41963 NIL=
41963,2024,07,16,09,00,AAXX 16094 41963 02957 21802 10320 20270 30009 40011 80001 333 59001 70000 82080==
41963,2024,07,16,12,00,AAXX 16124 41963 02450 31802 10300 20270 30010 40012 83500 333 10330 58009 70000 83618==
41963,2024,07,16,15,00,AAXX 16154 41963 02440 61802 10290 20280 30015 40017 82510 333 59001 70000 82618 86458==
41963,2024,07,16,18,00,AAXX 16184 41963 02440 61802 10288 20280 30020 40022 82510 333 58000 70000 82618 86458==
41963,2024,07,16,21,00,AAXX 16214 41963 02440 61802 10284 20270 30017 40020 82510 333 58000 70000 82618 86458==
41963,2024,07,17,00,00,AAXX 17004 41963 02440 51801 10283 20280 30011 40014 82510 333 58000 70000 82618 85458==
41963,2024,07,17,03,00,AAXX 17034 41963 01456 61801 10310 20270 30027 40029 70362 82510 333 20274 59005 70030 82618 86458==
41963,2024,07,17,06,00,AAXX 17064 41963 11457 41802 10320 20270 30020 40022 60036 70162 82510 333 59009 70030 82618 84458==
41963,2024,07,17,09,00,AAXX 17094 41963 02457 41802 10325 20280 30001 40004 82501 333 59008 70030 82618 84080==
41963,2024,07,17,12,00,AAXX 17124 41963 02456 31802 10310 20280 39997 40000 83500 333 10335 59013 70030 83618==
41963,2024,07,17,15,00,AAXX 17154 41963 02440 51801 10292 20280 30013 40016 82510 333 59002 70030 82618 85458==
41963,2024,07,17,18,00,AAXX 17184 41963 02440 51801 10290 20280 30020 40022 82510 333 58000 70030 82618 85458==
41963,2024,07,17,21,00,AAXX 17214 41963 02440 51801 10288 20270 30013 40015 82510 333 59004 70030 82618 85458==
41963,2024,07,18,00,00,AAXX 18004 41963 02440 41801 10282 20270 30010 40013 82510 333 59001 70000 82618 84458==
41963,2024,07,18,03,00,AAXX 18034 41963 02450 61801 10310 20280 30015 40017 82510 333 20273 59012 70000 82618 86458==
41963,2024,07,18,06,00,AAXX 18064 41963 02457 31802 10330 20270 30008 40010 83500 333 59012 70000 83618==
41963,2024,07,18,09,00,AAXX 18094 41963 02957 51802 10340 20270 30086 40089 80001 333 59015 70000 85080==
41963,2024,07,18,12,00,AAXX 18124 41963 02450 51801 10304 20260 30084 40087 82510 333 10350 59013 70000 82618 85458==
41964,2024,07,12,00,00,AAXX 12004 41964 21340 81303 10268 20268 30010 40012 76166 8772/ 333 59024 61219 72194 85707 85614 88457==
41964,2024,07,12,03,00,AAXX 12034 41964 01356 81404 10294 20260 30018 40021 70262 8662/ 333 20245 59022 72179 84709 84617 88459==
41964,2024,07,12,06,00,AAXX 12064 41964 01350 81804 10286 20270 30014 40016 76162 8432/ 333 59019 72113 83617 88458 81928==
41964,2024,07,12,09,00,AAXX 12094 41964 01356 81903 10274 20260 30007 40009 76162 8432/ 333 59014 71897 83618 88458==
41964,2024,07,12,12,00,AAXX 12124 41964 21456 62104 10288 20270 39987 49990 70162 84432 333 10293 59016 60118 71883 83618 83078==
41964,2024,07,12,15,00,AAXX 12154 41964 02456 51603 10277 20270 39997 40000 83530 333 59020 71809 83618 83362==
41964,2024,07,12,18,00,AAXX 12184 41964 02456 71602 10279 20260 30001 40004 85410 333 59016 71329 84617 86460==
41964,2024,07,12,21,00,AAXX 12214 41964 02456 70000 10273 20260 39998 40001 85410 333 59017 70619 84618 87460==
41964,2024,07,13,00,00,AAXX 13004 41964 02457 61802 10270 20260 39990 49993 84430 333 59020 70119 83618 83362==
41964,2024,07,13,03,00,AAXX 13034 41964 02357 81402 10290 20270 39992 49995 8562/ 333 20264 59026 70114 83709 83618 88460==
41964,2024,07,13,06,00,AAXX 13064 41964 02557 72104 10310 20270 39989 49992 85430 333 59025 70110 83620 83825 86362==
41964,2024,07,13,09,00,AAXX 13094 41964 02457 62002 10312 20280 39977 49980 83510 333 59030 70006 83618 85460==
41964,2024,07,13,12,00,AAXX 13124 41964 02557 62103 10299 20280 39969 49971 85430 333 10315 59018 70000 84620 83362==
41964,2024,07,13,15,00,AAXX 13154 41964 02556 41803 10286 20280 39984 49986 84400 333 59017 70000 83620==
41964,2024,07,13,18,00,AAXX 13184 41964 02456 20000 10282 20270 39989 49991 82500 333 59012 70000 82618==
41964,2024,07,13,21,00,AAXX 13214 41964 02456 50000 10278 20270 39987 49989 83410 333 59011 70000 82618 83460==
41964,2024,07,14,00,00,AAXX 14004 41964 02456 50000 10276 20270 39982 49985 84430 333 59008 70000 83618 83362==
41964,2024,07,14,03,00,AAXX 14034 41964 02457 51404 10302 20260 39993 49995 85400 333 20268 58001 70000 84618==
41964,2024,07,14,06,00,AAXX 14064 41964 02458 31802 10330 20270 39990 49992 83500 333 58001 70000 83618==
41964,2024,07,14,09,00,AAXX 14094 41964 02458 31901 10335 20270 39975 49977 83500 333 59002 70000 83618==
41964,2024,07,14,12,00,AAXX 14124 41964 02458 51803 10312 20270 39970 49972 83402 333 10337 58001 70000 82618 83080==
41964,2024,07,14,15,00,AAXX 14154 41964 02456 70000 10297 20280 39987 49989 85410 333 58003 70000 84618 87460==
41964,2024,07,14,18,00,AAXX 14184 41964 02456 20000 10287 20280 39997 49999 82500 333 58008 70000 82618==
41964,2024,07,14,21,00,AAXX 14214 41964 02456 60000 10284 20270 39998 40000 84410 333 58011 70000 83618 85460==
41964,2024,07,15,00,00,AAXX 15004 41964 02457 50000 10282 20270 30002 40004 83432 333 58020 70000 82618 83078==
41964,2024,07,15,03,00,AAXX 15034 41964 02457 41304 10314 20260 30010 40012 82512 333 20276 58017 70000 82618==
41964,2024,07,15,06,00,AAXX 15064 41964 02557 31605 10335 20260 30003 40005 81101 333 58013 70000 81825 83080==
41964,2024,07,15,09,00,AAXX 15094 41964 02457 21803 10340 20270 30002 40005 82500 333 58027 70000 82618==
41964,2024,07,15,12,00,AAXX 15124 41964 02457 61804 10302 20260 39988 49991 82511 333 10346 58018 70000 82618 85460==
41964,2024,07,15,15,00,AAXX 15154 41964 02/57 21703 10297 20260 30008 40010 82030 333 58021 70000 82362==
41964,2024,07,15,18,00,AAXX 15184 41964 02/57 21603 10290 20260 30021 40023 82030 333 58024 70000 82362==
41964,2024,07,15,21,00,AAXX 15214 41964 02456 61502 10286 20260 30015 40017 83510 333 58017 70000 83618 85460==
41964,2024,07,16,00,00,AAXX 16004 41964 02357 81402 10284 20250 30013 40015 8662/ 333 58011 70000 82709 84615 88460==
41964,2024,07,16,03,00,AAXX 16034 41964 02457 41405 10302 20260 30028 40030 82502 333 10274 58018 70000 82618 83080==
41964,2024,07,16,06,00,AAXX 16064 41964 02457 51806 10332 20250 30030 40032 83501 333 58027 70000 83618 84080==
41964,2024,07,16,09,00,AAXX 16094 41964 02957 21904 10335 20270 30019 40021 82500 333 58017 70000 82618==
41964,2024,07,16,12,00,AAXX 16124 41964 02457 51802 10301 20270 39999 40002 83510 333 20337 58011 70000 83618 84460==
41964,2024,07,16,15,00,AAXX 16154 41964 02457 50000 10293 20270 30020 40022 83510 333 58012 70000 83618 84460==
41964,2024,07,16,21,00,AAXX 16214 41964 02440 61802 10285 20280 30020 40022 83520 333 58005 70001 83618 85460==
41964,2024,07,17,00,00,AAXX 17004 41964 02456 60000 10284 20270 30016 40018 83510 333 58003 70001 83618 85460==
41964,2024,07,17,03,00,AAXX 17034 41964 02457 51203 10320 20270 30019 40021 83402 333 20270 59009 70001 82618 83080==
41964,2024,07,17,06,00,AAXX 17064 41964 02457 51802 10340 20260 30012 40014 83501 333 59018 70001 83618 84080==
41964,2024,07,17,09,00,AAXX 17094 41964 02457 51901 10338 20270 30000 40002 83501 333 59019 70001 83618 84080==
41964,2024,07,17,12,00,AAXX 17124 41964 02357 61801 10310 20270 39984 49987 84610 333 10341 59015 70001 82709 83618 84460==
41964,2024,07,17,15,00,AAXX 17154 41964 02456 70000 10291 20280 30007 40010 82510 333 59013 70001 82618 86460==
41964,2024,07,17,18,00,AAXX 17184 41964 02456 70000 10287 20280 30018 40020 82510 333 59014 70001 82618 86460==
41964,2024,07,17,21,00,AAXX 17214 41964 02440 70000 10286 20270 30006 40008 83520 333 59014 70000 83618 86460==
41964,2024,07,18,00,00,AAXX 18004 41964 02456 50000 10300 20280 30000 40002 83510 333 59016 70000 83618 84460==
41964,2024,07,18,03,00,AAXX 18034 41964 02457 41001 10320 20280 30003 40006 83510 333 20279 59016 70000 83618 83460==
41964,2024,07,18,06,00,AAXX 18064 41964 02457 70000 10345 20270 39985 49988 83520 333 59027 70000 83618 86460==
41964,2024,07,18,09,00,AAXX 18094 41964 02457 70000 10344 20260 39977 49980 83520 333 59023 70000 83618 86460==
41964,2024,07,18,12,00,AAXX 18124 41964 02457 61802 10311 20270 39971 49974 83510 333 10351 59013 70000 83618 85460==
41965,2024,07,12,00,00,AAXX 12004 41965 21440 81301 10257 20240 30013 40022 76366 8461/ 333 59025 60519 71020 81710 83618 88456==
41965,2024,07,12,03,00,AAXX 12034 41965 02440 81402 10290 20240 30019 40028 8461/ 333 20246 59024 71020 83618 88460==
41965,2024,07,12,06,00,AAXX 12064 41965 02450 30000 10300 20240 30011 40020 83600 333 59020 71020 83618==
41965,2024,07,12,09,00,AAXX 12094 41965 02450 71302 10291 20250 39993 40002 84610 333 59014 70920 83618 86460==
41965,2024,07,12,12,00,AAXX 12124 41965 02440 62003 10284 20250 39990 49999 84610 333 10306 59016 70920 83618 84460==
41965,2024,07,12,15,00,AAXX 12154 41965 02430 50000 10270 20240 30002 40011 84610 333 59023 70870 83618 84460==
41965,2024,07,12,18,00,AAXX 12184 41965 02430 51401 10265 20250 30003 40012 84610 333 59024 70510 83618 84460==
41965,2024,07,12,21,00,AAXX 12214 41965 02430 51301 10240 30005 40014 84610 333 59024 70100 83618 84460==
41965,2024,07,13,00,00,AAXX 13004 41965 02440 81402 10261 20250 39991 40000 8461/ 333 59022 70000 83618 88460==
41965,2024,07,13,03,00,AAXX 13034 41965 02440 60000 10295 20250 30995 40004 84610 333 20256 59024 70000 83618 84460==
41965,2024,07,13,06,00,AAXX 13064 41965 02440 61402 10305 20240 39993 40002 84610 333 59018 70000 83618 84460==
41965,2024,07,13,09,00,AAXX 13094 41965 02456 30000 10320 20250 39992 40001 83600 333 59001 70000 83618==
41965,2024,07,13,12,00,AAXX 13124 41965 02440 30000 10290 20250 39971 49980 83600 333 10325 59019 70000 83618==
41965,2024,07,13,15,00,AAXX 13154 41965 02430 31402 10280 20250 39983 49992 83600 333 59019 70000 83618==
41965,2024,07,13,21,00,AAXX 13214 41965 02430 31402 10268 20250 39986 49995 83600 333 59019 70000 83618==
41965,2024,07,14,00,00,AAXX 14004 41965 02440 51301 10264 20250 39982 49991 84610 333 59009 70000 83618 84460==
41965,2024,07,14,03,00,AAXX 14034 41965 02450 50000 10320 20240 39992 40001 84610 333 20261 59003 70000 83618 84460==
41965,2024,07,14,06,00,AAXX 14064 41965 02456 30000 10320 20240 39988 49997 83600 333 59005 70000 83618==
41965,2024,07,14,09,00,AAXX 14094 41965 02456 51301 10330 20240 39966 49975 84610 333 59026 70000 83618 84460==
41965,2024,07,14,12,00,AAXX 14124 41965 02450 51401 10346 20260 39970 49980 84610 333 10346 58000 70000 83618 84460==
41965,2024,07,14,15,00,AAXX 14154 41965 02430 50000 10290 20270 39989 49998 84610 333 58006 70000 83618 84460==
41965,2024,07,14,18,00,AAXX 14184 41965 NIL=
41965,2024,07,14,21,00,AAXX 14214 41965 02430 61401 10280 20250 30001 40010 84610 333 58015 70000 83618 84460==
41965,2024,07,15,00,00,AAXX 15004 41965 02440 60000 10279 20250 30006 40015 84610 333 58024 70000 83618 84460==
41965,2024,07,15,03,00,AAXX 15034 41965 02456 31402 10315 20240 30012 40021 83600 333 20270 58020 70000 83618==
41965,2024,07,15,06,00,AAXX 15064 41965 02456 51302 10348 20240 30002 40011 84610 333 58014 70000 83618 84460==
41965,2024,07,15,09,00,AAXX 15094 41965 02456 51401 10325 20260 39990 49999 84610 333 58024 70000 83618 84460==
41965,2024,07,15,12,00,AAXX 15124 41965 02440 62202 10300 20240 39997 40006 84610 333 10355 58026 70000 83618 84460==
41965,2024,07,15,15,00,AAXX 15154 41965 02430 81403 10286 20240 30016 40025 8461/ 333 58027 70000 83618 88460==
41965,2024,07,15,21,00,AAXX 15214 41965 42430 61301 10278 20240 30019 40028 84610 333 58018 83618 84460==
41965,2024,07,16,00,00,AAXX 16004 41965 02440 51801 10275 20240 30020 40029 84610 333 58014 70000 83618 84460==
41965,2024,07,16,03,00,AAXX 16034 41965 02450 61802 10330 20240 30028 40037 84610 333 20265 58016 70000 83618 84460==
41965,2024,07,16,06,00,AAXX 16064 41965 02456 30000 10345 20270 30027 40036 83600 333 58025 70000 83618==
41965,2024,07,16,09,00,AAXX 16094 41965 02456 51901 10345 20250 30001 40010 84610 333 58011 70000 83618 84460==
41965,2024,07,16,12,00,AAXX 16124 41965 02450 51801 10301 20260 30004 40013 84610 333 10350 58008 70000 83618 84460==
41965,2024,07,16,15,00,AAXX 16154 41965 02430 60000 10290 20250 30020 40029 84610 333 58004 70000 83618 84460==
41965,2024,07,16,21,00,AAXX 16214 41965 02430 51301 20250 30023 40032 84610 333 58004 70000 83618 84460==
41965,2024,07,17,00,00,AAXX 17004 41965 02440 51401 10268 20250 30012 40021 84610 333 59008 70000 83618 84460==
41965,2024,07,17,03,00,AAXX 17034 41965 02450 50000 10324 20250 30020 40029 84610 333 20264 59008 70000 83618 84460==
41965,2024,07,17,06,00,AAXX 17064 41965 02456 63501 10338 20220 30007 40016 84610 333 59020 70000 83618 84460==
41965,2024,07,17,09,00,AAXX 17094 41965 02456 52601 10336 20250 39995 40004 84610 333 59006 70000 83618 84460==
41965,2024,07,17,12,00,AAXX 17124 41965 02440 50000 10303 20260 39990 49999 84610 333 10348 59012 70000 83618 84460==
41965,2024,07,17,21,00,AAXX 17214 41965 02430 60000 10280 20250 30010 40019 84610 333 59013 70000 83618 84460==
41965,2024,07,18,00,00,AAXX 18004 41965 02440 81801 10280 20260 39999 40008 8461/ 333 59013 70000 83618 88460==
41965,2024,07,18,03,00,AAXX 18034 41965 02456 30000 10330 20250 30006 40015 83600 333 20275 59014 70000 83618==
41965,2024,07,18,06,00,AAXX 18064 41965 02456 30000 10350 20250 39991 40000 333 59016 70000 83618==
41965,2024,07,18,12,00,AAXX 18124 41965 NIL=
41966,2024,07,12,00,00,AAXX 12004 41966 02440 50901 10270 20240 39953 40032 82510 333 59020 70000 82616 84460==
41966,2024,07,12,03,00,AAXX 12034 41966 02450 61501 10256 20240 39963 40040 83510 333 20258 59023 70000 83616 85460==
41966,2024,07,12,06,00,AAXX 12064 41966 02450 51301 10320 20210 39951 40028 82510 333 59023 70000 82616 84460==
41966,2024,07,12,09,00,AAXX 12094 41966 02450 61501 10310 20230 39932 40009 83510 333 59018 70000 83616 85460==
41966,2024,07,12,12,00,AAXX 12124 41966 02440 61201 10290 20250 39928 40006 82510 333 10325 59023 70000 83616 85460==
41966,2024,07,12,15,00,AAXX 12154 41966 02430 71501 10280 20250 39938 40016 83510 333 59013 70000 83616 86460==
41966,2024,07,12,18,00,AAXX 12184 41966 02420 71801 10270 20250 39953 40032 83510 333 59010 70000 83616 86460==
41966,2024,07,12,21,00,AAXX 12214 41966 01420 61701 10265 20250 39948 40027 70162 82510 333 59010 70020 82616 85460==
41966,2024,07,13,00,00,AAXX 13004 41966 11420 60901 10260 20240 39928 40006 60026 70262 83510 333 59026 70020 83616 85460==
41966,2024,07,13,03,00,AAXX 13034 41966 02450 41201 10305 20240 39951 40028 82510 333 20250 59012 70020 82616 83460==
41966,2024,07,13,06,00,AAXX 13064 41966 02550 41501 10325 20240 39947 40024 82130 333 59004 70020 82826 83362==
41966,2024,07,13,07,00,AAXX 13074 41966 02550 41501 10325 20240 39947 40024 82130 333 59004 70020 82826 83362==
41966,2024,07,13,09,00,AAXX 13094 41966 02450 71201 10310 20230 39906 49983 83510 333 59026 70020 83616 86460==
41966,2024,07,13,12,00,AAXX 13124 41966 21430 61501 10290 20270 39906 49984 70162 83510 333 10330 59022 60067 70080 83616 85460==
41966,2024,07,13,15,00,AAXX 13154 41966 02420 61801 10280 20260 39921 49999 83510 333 59017 70080 83616 85460==
41966,2024,07,13,21,00,AAXX 13214 41966 02420 41601 10265 20260 39943 40022 82510 333 59005 70060 82616 83460==
41966,2024,07,14,00,00,AAXX 14004 41966 02440 41201 10260 20250 39931 40009 82510 333 58003 70060 82616 83460==
41966,2024,07,14,06,00,AAXX 14064 41966 02450 41201 10320 20210 39943 40020 82510 333 59004 70060 82616 83460==
41966,2024,07,14,09,00,AAXX 14094 41966 02450 51502 10335 20270 39901 49977 83510 333 59006 70060 83616 84460==
41966,2024,07,14,12,00,AAXX 14124 41966 02440 61801 10320 20250 39903 49980 83510 333 10338 59004 70000 83616 85460==
41966,2024,07,14,15,00,AAXX 14154 41966 01430 61801 10270 20250 39924 40002 70262 83510 333 58003 70106 83616 85460==
41966,2024,07,14,18,00,AAXX 14184 41966 NIL=
41966,2024,07,14,21,00,AAXX 14214 41966 02420 51801 10265 20250 39950 40029 82510 333 58007 70106 82616 84460==
41966,2024,07,15,00,00,AAXX 15004 41966 02440 50901 10268 20260 39944 40023 82510 333 58014 70106 82616 84460==
41966,2024,07,15,03,00,AAXX 15034 41966 02450 41301 10315 20230 39955 40032 82510 333 20258 58014 70106 82616 84460==
41966,2024,07,15,06,00,AAXX 15064 41966 02450 51301 10341 20200 39942 40018 82510 333 59002 70106 82616 84460==
41966,2024,07,15,09,00,AAXX 15094 41966 02450 60000 10330 20230 39924 40000 83510 333 58023 70106 82616 84460==
41966,2024,07,15,12,00,AAXX 15124 41966 02440 61201 10310 20240 39934 40011 83510 333 10350 58031 70106 83616 85460==
41966,2024,07,15,15,00,AAXX 15154 41966 02430 41501 10295 20240 39941 40018 82510 333 58016 70000 82616 83460==
41966,2024,07,15,21,00,AAXX 15214 41966 02420 41701 10275 20260 39952 40030 82510 333 58001 70000 82616 83460==
41966,2024,07,16,00,00,AAXX 16004 41966 02440 41201 10265 20250 39951 40029 82510 333 58006 70000 82616 83460==
41966,2024,07,16,03,00,AAXX 16034 41966 02450 41801 10320 20210 39969 40046 82510 333 20260 58014 70000 82616 83460==
41966,2024,07,16,06,00,AAXX 16064 41966 02450 51301 10325 20210 39964 40041 82510 333 58023 70000 82616 84460==
41966,2024,07,16,09,00,AAXX 16094 41966 02450 51801 10330 20240 39938 40015 82510 333 58015 70000 82616 84460==
41966,2024,07,16,12,00,AAXX 16124 41966 02440 51201 10305 20260 39933 40011 82510 333 10345 58000 70000 82616 84460==
41966,2024,07,16,15,00,AAXX 16154 41966 42420 71501 10285 20260 39943 40021 58003 86460==
41966,2024,07,16,21,00,AAXX 16214 41966 02420 62101 10268 20250 39953 40032 83510 333 58002 70072 83616 85460==
41966,2024,07,17,00,00,AAXX 17004 41966 02430 61301 10260 20250 39951 40030 83510 333 58001 70072 83616 85460==
41966,2024,07,17,03,00,AAXX 17034 41966 02450 50801 10320 20230 39960 40037 82510 333 20256 59009 70072 82616 84460==
41966,2024,07,17,06,00,AAXX 17064 41966 02450 53101 10335 20210 39944 40021 82510 333 59020 70072 82616 84460==
41966,2024,07,17,09,00,AAXX 17094 41966 32450 53101 10330 20260 39923 49999 82510 333 56990 59016 70072 82616 84460=
41966,2024,07,17,12,00,AAXX 17124 41966 02440 51301 10300 20230 39920 49997 82510 333 10346 59914 70072 82616 84460==
41966,2024,07,17,15,00,AAXX 17154 41966 02430 51301 10290 20270 39940 40040 82510 333 59003 70072 82616 84460==
41966,2024,07,17,18,00,AAXX 17184 41966 02420 61201 10280 20260 39950 40029 83510 333 59005 70000 83616 85460==
41966,2024,07,17,21,00,AAXX 17214 41966 02420 61501 10270 20250 39949 40028 83510 333 59004 70000 83616 85460==
41966,2024,07,18,00,00,AAXX 18004 41966 02440 60901 10268 20260 39936 40015 82510 333 59015 70000 82616 85460==
41966,2024,07,18,03,00,AAXX 18034 41966 02450 60401 10315 20260 39943 40020 82510 333 20258 59017 70000 82616 85460==
41966,2024,07,18,06,00,AAXX 18064 41966 02450 51801 10335 20240 39930 40006 82510 333 59015 70000 82616 84460==
41966,2024,07,18,09,00,AAXX 18094 41966 02450 41801 10355 20240 39904 49979 82510 333 59020 70000 82616 83482==
41966,2024,07,18,12,00,AAXX 18124 41966 NIL=
41977,2024,07,12,00,00,AAXX 12004 41977 21356 81803 10261 20260 39998 40036 59030 70180 88458 333 60057==
41977,2024,07,12,03,00,AAXX 12034 41977 02456 81503 10293 20260 30007 40045 8432/ 333 20258 59030 70148 83618 88460 81930==
41977,2024,07,12,06,00,AAXX 12064 41977 02456 81702 10309 20260 39996 40034 8332/ 333 59029 70118 82618 88460 81930==
41977,2024,07,12,09,00,AAXX 12094 41977 01350 81802 10295 20270 39984 40022 75122 8452/ 333 59014 70054 81710 84616 88460==
41977,2024,07,12,12,00,AAXX 12124 41977 21356 81802 10290 20270 39981 40019 70262 8452/ 333 10315 59013 69999 70054 81710 84616 88460==
41977,2024,07,12,15,00,AAXX 12154 41977 02456 61303 10270 20250 39991 40029 83530 333 59022 70050 83616 86361==
41977,2024,07,12,18,00,AAXX 12184 41977 02456 61802 10270 20250 39990 40029 83530 333 59019 70050 83616 86363==
41977,2024,07,12,21,00,AAXX 12214 41977 02450 70903 10265 20250 39972 40010 84570 333 59031 70050 84617 85460==
41977,2024,07,13,00,00,AAXX 13004 41977 21450 40000 10268 20250 39980 40018 70152 82531 333 59018 60005 82618 83362==
41977,2024,07,13,03,00,AAXX 13034 41977 42456 51802 10313 20260 39982 40020 83530 333 20265 59005 83617 84363==
41977,2024,07,13,06,00,AAXX 13064 41977 42456 71804 10317 20260 39979 40016 84570 333 59017 84617 86459==
41977,2024,07,13,09,00,AAXX 13094 41977 02456 42604 10318 20260 39970 40007 82530 333 59014 70000 82618 83362==
41977,2024,07,13,12,00,AAXX 13124 41977 02456 71304 10299 20260 39956 49993 84530 333 10320 59025 70000 84617 87361==
41977,2024,07,13,15,00,AAXX 13154 41977 42456 60000 10289 20270 39972 40009 84530 333 59019 84618 86362==
41977,2024,07,13,18,00,AAXX 13184 41977 21456 70000 10280 20270 39974 40012 70362 84510 333 59016 60005 84618 87460==
41977,2024,07,13,21,00,AAXX 13214 41977 42456 50000 10268 20260 39959 49997 83530 333 59013 83618 84362==
41977,2024,07,14,00,00,AAXX 14004 41977 42456 20000 10272 20260 39969 40007 82500 333 59011 82618==
41977,2024,07,14,03,00,AAXX 14034 41977 42456 41304 10320 20260 39981 40018 82530 333 20265 59001 82618 83362==
41977,2024,07,14,06,00,AAXX 14064 41977 42456 52105 10334 20260 39975 40012 84430 333 59004 83618 85362==
41977,2024,07,14,09,00,AAXX 14094 41977 42456 52304 10333 20260 39954 49991 84410 333 59016 83617 85460==
41977,2024,07,14,12,00,AAXX 14124 41977 02456 72304 10308 20280 39955 49993 84510 333 10337 59001 70000 86460 84618==
41977,2024,07,14,15,00,AAXX 14154 41977 01330 80000 10294 20280 39978 40015 76322 8672/ 333 58006 70014 84707 88458==
41977,2024,07,14,18,00,AAXX 14184 41977 21356 70000 10288 20288 39986 40023 70162 85610 333 58012 60035 70028 81710 84616 87459==
41977,2024,07,14,21,00,AAXX 14214 41977 02456 70000 10284 20270 39988 40025 84510 333 58029 70028 84616 87459==
41977,2024,07,15,00,00,AAXX 15004 41977 02456 70000 10280 20260 39990 40027 84570 333 58021 70028 84617 86459==
41977,2024,07,15,03,00,AAXX 15034 41977 02456 31202 10319 20250 39995 40033 80001 333 20272 58014 70028 83074==
41977,2024,07,15,06,00,AAXX 15064 41977 02456 22504 10346 20270 39988 40025 82500 333 58013 70028 82618==
41977,2024,07,15,09,00,AAXX 15094 41977 02456 71805 10345 20260 39975 40012 84570 333 58021 70028 84616 85459==
41977,2024,07,15,12,00,AAXX 15124 41977 02450 71802 10310 20270 39974 40012 84570 333 10350 58019 70028 84616 86459==
41977,2024,07,15,15,00,AAXX 15154 41977 02456 31803 10290 20260 39997 40035 82530 333 58019 70014 82617 83363==
41977,2024,07,15,18,00,AAXX 15184 41977 02450 31302 10288 20270 30012 40049 81501 333 58026 70000 81618 83080==
41977,2024,07,15,21,00,AAXX 15214 41977 02450 21102 10284 20260 30004 40042 82500 333 58016 70000 82618==
41977,2024,07,16,00,00,AAXX 16004 41977 02450 61302 10282 20250 30009 40047 84530 333 58019 70000 84617 86362==
41977,2024,07,16,03,00,AAXX 16034 41977 02456 71302 10312 20260 30014 40051 82530 333 20276 58019 70000 82618 87363==
41977,2024,07,16,06,00,AAXX 16064 41977 02456 71802 10317 20270 30014 40051 84570 333 58026 70000 84616 85460==
41977,2024,07,16,09,00,AAXX 16094 41977 41456 72303 10322 20270 39989 40026 58014 70016 85361==
41977,2024,07,16,12,00,AAXX 16124 41977 11456 71403 10305 20280 39986 40023 60026 70362 84570 333 10326 58012 70016 84616 86460==
41977,2024,07,16,15,00,AAXX 16154 41977 01456 70000 10296 20280 30006 40043 71722 84310 333 59009 70016 83618 87460 81930==
41977,2024,07,16,18,00,AAXX 16184 41977 21456 70000 10287 20270 30006 40043 70262 84510 333 59006 69925 70018 84618 87460==
41977,2024,07,16,21,00,AAXX 16214 41977 02456 70000 10272 20260 39991 40032 84510 333 59013 70018 84618 87460==
41977,2024,07,17,00,00,AAXX 17004 41977 02456 70000 10273 20260 39997 40034 84510 333 59012 70018 84618 87460==
41977,2024,07,17,03,00,AAXX 17034 41977 02456 71302 10328 20260 30005 40042 83410 333 20268 59009 70018 82618 87460==
41977,2024,07,17,06,00,AAXX 17064 41977 02456 62303 10328 20270 39993 40030 83410 333 59021 70018 82618 86460==
41977,2024,07,17,09,00,AAXX 17094 41977 32456 62102 10324 20270 39984 40021 83410 333 56490 59005 70002 82618 86460=
41977,2024,07,17,12,00,AAXX 17124 41977 02450 61802 10308 20270 39978 40016 83410 333 10342 59008 70002 82618 86460==
41977,2024,07,17,15,00,AAXX 17154 41977 02456 50000 10291 20280 39993 40031 82510 333 59013 70002 82618 85460==
41977,2024,07,17,18,00,AAXX 17184 41977 02450 70000 10290 20280 39996 40033 84530 333 59010 70000 84617 86360==
41977,2024,07,17,21,00,AAXX 17214 41977 02450 70000 10284 20270 39978 40015 84570 333 59013 70000 84617 85460==
41977,2024,07,18,00,00,AAXX 18004 41977 02450 70000 10282 20270 39987 40024 84570 333 59010 70000 84617 85460==
41977,2024,07,18,03,00,AAXX 18034 41977 02450 30000 10339 20230 39984 40021 83500 333 20266 59021 70000 83618==
41977,2024,07,18,06,00,AAXX 18064 41977 02456 40000 10345 20280 39979 40016 84400 333 59014 70000 83618==
41977,2024,07,18,12,00,AAXX 18124 41977 NIL=
41978,2024,07,12,00,00,AAXX 12004 41978 21450 81710 10268 20260 30018 40024 70262 8432/ 333 59027 60015 70290 83616 89460 81928==
41978,2024,07,12,03,00,AAXX 12034 41978 02458 61709 10288 20260 30026 40033 84320 333 20263 59026 70230 83616 85460 81928==
41978,2024,07,12,06,00,AAXX 12064 41978 02458 51809 10316 20260 30016 40022 83530 333 59026 70090 83618 84362==
41978,2024,07,12,09,00,AAXX 12094 41978 01450 81806 10294 20260 30003 40009 70262 8432/ 333 59017 70011 84612 88459 81926==
41978,2024,07,12,12,00,AAXX 12124 41978 11457 81709 10289 20260 39992 49999 69916 70262 8432/ 333 10318 59022 70011 83616 88460 81928==
41978,2024,07,12,15,00,AAXX 12154 41978 02457 61506 10272 20250 30007 40014 83520 333 59013 70011 83618 86460==
41978,2024,07,12,18,00,AAXX 12183 41978 02457 71303 10270 20250 30007 40014 84320 333 59017 70011 83616 87460 81928==
41978,2024,07,12,21,00,AAXX 12214 41978 02457 71303 10267 20250 39988 49995 83530 333 58026 70001 83616 87460 81928==
41978,2024,07,13,00,00,AAXX 13004 41978 02457 51304 10263 20250 39993 40000 83530 333 58025 70001 83616 84362==
41978,2024,07,13,03,00,AAXX 13034 41978 02456 51708 10305 20260 39999 40005 83420 333 20260 59027 70001 82618 84460==
41978,2024,07,13,06,00,AAXX 13064 41978 02450 61810 10319 20260 39996 40002 83520 333 59020 70001 83618 86460==
41978,2024,07,13,09,00,AAXX 13094 41978 02558 32008 10318 20260 39977 49983 82101 333 59026 70000 82825 81080==
41978,2024,07,13,12,00,AAXX 13124 41978 02458 52011 10297 20270 39974 49980 82830 333 10326 59018 70000 82620 83362==
41978,2024,07,13,15,00,AAXX 13154 41978 02457 61707 10291 20270 39987 49993 83530 333 59020 70000 83618 86360==
41978,2024,07,13,18,00,AAXX 13184 41978 02457 61605 10289 20270 30000 40006 83530 333 59007 70000 83618 86360==
41978,2024,07,13,21,00,AAXX 13214 41978 02457 61605 10286 20270 39990 49996 83530 333 58002 70000 83618 86360==
41978,2024,07,14,00,00,AAXX 14004 41978 02456 51005 10270 20260 39986 49993 82530 333 59007 70000 82618 83360==
41978,2024,07,14,03,00,AAXX 14034 41978 02557 41505 10325 20260 39995 40002 82120 333 20267 59004 70000 82826 84460==
41978,2024,07,14,06,00,AAXX 14064 41978 02557 32309 10334 20250 39990 49996 83200 333 59006 70000 83826==
41978,2024,07,14,09,00,AAXX 14094 41978 02557 42408 10328 20270 39968 49974 82201 333 59007 70000 82827 83080==
41978,2024,07,14,12,00,AAXX 14124 41978 02457 42206 10317 20280 39974 49980 82501 333 10340 58000 70000 82618 83080==
41978,2024,07,14,15,00,AAXX 14154 41978 01457 61704 10296 20280 39990 49997 72162 84320 333 58003 70020 83616 86460 81929==
41978,2024,07,14,18,00,AAXX 14184 41978 11457 50705 10287 20280 30002 40009 60021 70262 85320 333 58002 70020 83618 85460==
41978,2024,07,14,21,00,AAXX 14214 41978 02457 50703 10284 20270 30002 40008 85330 333 58012 70020 83618 84360==
41978,2024,07,15,00,00,AAXX 15004 41978 02457 60905 10280 20260 30008 40014 83520 333 58022 70020 83617 85460==
41978,2024,07,15,03,00,AAXX 15034 41978 02558 41208 10321 20260 30015 40021 82120 333 20276 58020 70020 82826 84460==
41978,2024,07,15,06,00,AAXX 15064 41978 02558 41212 10336 20260 30007 40013 82120 333 58017 70020 82826 84460==
41978,2024,07,15,09,00,AAXX 15094 41978 02458 52109 10337 20270 39991 49997 83310 333 58023 70020 81618 83828 85460 81929==
41978,2024,07,15,12,00,AAXX 15124 41978 02458 71605 10310 20270 39994 40000 84320 333 10352 58020 70020 83616 87460 81929==
41978,2024,07,15,15,00,AAXX 15154 41978 02458 11304 10291 20260 30015 40021 81500 333 58025 70000 81618==
41978,2024,07,15,18,00,AAXX 15184 41978 02458 20000 10287 20270 30028 40034 82500 333 58026 70000 82618==
41978,2024,07,15,21,00,AAXX 15214 41978 02458 20000 10286 20270 30022 40028 82500 333 58020 70000 82618==
41978,2024,07,16,00,00,AAXX 16004 41978 02458 71204 10282 20250 30026 40032 83520 333 58018 70000 83616 87460==
41978,2024,07,16,03,00,AAXX 16034 41978 02458 61406 10312 20270 30030 40036 83530 333 20274 58015 70000 83618 86360==
41978,2024,07,16,06,00,AAXX 16064 41978 02458 71905 10331 20270 30031 40037 83530 333 58024 70000 83618 87360==
41978,2024,07,16,09,00,AAXX 16094 41978 02458 62107 10337 20270 30010 40016 83530 333 58019 70000 83618 86360==
41978,2024,07,16,12,00,AAXX 16124 41978 02458 62112 10306 20270 30001 40007 84910 333 10341 58017 70000 83618 85460 81930==
41978,2024,07,16,15,00,AAXX 16154 41978 02456 61704 10300 20270 30014 40020 84320 333 59001 70000 83618 86460 81930==
41978,2024,07,16,18,00,AAXX 16184 41978 21456 61503 10289 20260 30026 40032 70262 84320 333 59002 60005 83618 86460 81930==
41978,2024,07,16,21,00,AAXX 16214 41978 42456 71503 10285 20270 30015 40021 84320 333 59007 83616 87460 81928==
41978,2024,07,17,00,00,AAXX 17004 41978 42456 71004 10275 20260 30015 40021 84320 333 59011 83616 87460 81928==
41978,2024,07,17,03,00,AAXX 17034 41978 42458 41105 10317 20260 30022 40028 82801 333 20271 59008 82620 83080==
41978,2024,07,17,06,00,AAXX 17064 41978 42558 42405 10336 20260 30010 40016 82101 333 59021 82826 83080==
41978,2024,07,17,09,00,AAXX 17094 41978 42458 62209 10338 20260 39997 40004 83530 333 59013 83618 86360==
41978,2024,07,17,12,00,AAXX 17124 41978 42458 62207 10316 20270 39987 49993 83530 333 10343 59014 83618 86360==
41978,2024,07,17,15,00,AAXX 17154 41978 42458 60006 10300 20270 30011 40017 83530 333 59003 83618 86360==
41978,2024,07,17,18,00,AAXX 17184 41978 02457 60000 10290 20270 30011 40017 83530 333 59015 70000 83618 86360==
41978,2024,07,17,21,00,AAXX 17214 41978 02456 60000 10288 20270 39994 40000 83530 333 59021 70000 83616 86360==
41978,2024,07,18,00,00,AAXX 18004 41978 02457 70703 10287 20270 30002 40008 84320 333 59015 70000 83616 87460 81930==
41978,2024,07,18,03,00,AAXX 18034 41978 02458 30407 10327 20270 30005 40011 82501 333 20284 59017 70000 82618 81080==
41978,2024,07,18,06,00,AAXX 18064 41978 02457 62208 10334 20280 39998 40004 84330 333 59012 70000 83618 84360 81930==
41978,2024,07,18,09,00,AAXX 18094 41978 41457 62108 10320 20280 39978 49984 72122 83320 333 59001 83617 85460 81929==
41978,2024,07,18,12,00,AAXX 18124 41978 21457 61705 10311 20270 39976 49982 70262 83320 333 10351 59011 60005 83614 85460 81929==
41978,2024,07,18,18,00,AAXX 18184 41978 NIL=
41980,2024,07,12,00,00,AAXX 12004 41980 11340 80000 10253 20250 39920 40032 70262 8462/ 333 56999 59021 70170 81710 83617 88458=
41980,2024,07,12,06,00,AAXX 12064 41980 NIL=
41980,2024,07,12,12,00,AAXX 12124 41980 NIL=
41980,2024,07,13,00,00,AAXX 13004 41980 32450 50000 10258 20250 39893 40005 82510 333 56990 59027 70000 82617 83458=
41980,2024,07,13,06,00,AAXX 13064 41980 NIL=
41980,2024,07,13,12,00,AAXX 13124 41980 11450 60000 10263 20250 39881 49993 60054 70362 83510 333 10321 56990 59021 70050 83617 83458=
41980,2024,07,14,00,00,AAXX 14004 41980 32450 50000 10256 20250 39885 49997 82510 333 56990 59008 70050 82617 83458=
41980,2024,07,14,06,00,AAXX 14064 41980 NIL=
41980,2024,07,14,12,00,AAXX 14124 41980 32450 50000 10307 20270 39870 49979 82510 333 10325 56990 59018 70000 82617 83458=
41980,2024,07,14,18,00,AAXX 14184 41980 NIL=
41980,2024,07,15,00,00,AAXX 15004 41980 11450 51303 10262 20250 39910 40022 60024 70262 82510 333 56990 58025 70020 82617 83458=
41980,2024,07,15,12,00,AAXX 15124 41980 32450 50000 10300 20240 39895 40005 52510 333 10343 56990 58025 70020 82617 83458=
41980,2024,07,16,00,00,AAXX 16004 41980 32450 30000 10265 20260 39922 40033 82510 333 56990 58012 70000 82617=
41980,2024,07,16,06,00,AAXX 16064 41980 NIL=
41980,2024,07,16,12,00,AAXX 16124 41980 32450 60000 10296 20260 39906 40016 60026 83510 333 10332 56990 58011 70020 83617 83458=
41980,2024,07,17,00,00,AAXX 17004 41980 32450 30000 10268 20260 39913 40025 82510 333 56990 59009 70020 82617=
41980,2024,07,17,06,00,AAXX 17064 41980 NIL=
41980,2024,07,17,12,00,AAXX 17124 41980 11450 60000 10282 20250 39893 40004 60165 70162 83510 333 10345 56990 59002 70160 83617 83458=
41980,2024,07,18,00,00,AAXX 18004 41980 32450 50000 10273 20260 39899 40010 82510 333 56990 59014 70160 82617 83458=
41980,2024,07,18,12,00,AAXX 18124 41980 32340 81803 10292 20290 39878 49986 60045 8472/ 333 10348 56499 59015 70040 81710 83617 88458=
41984,2024,07,12,00,00,AAXX 12004 41984 22345 80000 10286 20280 39992 49994 8562/ 333 59028 60017 70310 81707 84617 88458==
41984,2024,07,12,03,00,AAXX 12034 41984 01345 81302 10300 20280 30000 40002 70252 8562/ 333 20271 59026 70296 81707 84618 88458==
41984,2024,07,12,06,00,AAXX 12064 41984 01456 81301 10278 20260 30003 40005 70262 8352/ 333 59012 70302 83618 88458==
41984,2024,07,12,09,00,AAXX 12094 41984 02456 80000 10305 20270 39979 49998 8452/ 333 59019 70292 84618 88458==
41984,2024,07,12,12,00,AAXX 12124 41984 02456 70000 10291 20260 39979 49981 84570 333 10317 59011 70020 84618 84458==
41984,2024,07,12,15,00,AAXX 12154 41984 02445 50000 10276 20270 39988 49990 83530 333 59017 70020 83618 83362==
41984,2024,07,12,18,00,AAXX 12184 41984 02445 50000 10271 20270 39994 49996 83530 333 59012 70020 83618 83362==
41984,2024,07,12,21,00,AAXX 12214 41984 02445 50000 10271 20270 39991 49993 83630 333 59013 70020 83618 83362==
41984,2024,07,13,00,00,AAXX 13004 41984 01445 50000 10270 20270 39978 49980 70522 83530 333 59014 70010 83618 83362==
41984,2024,07,13,03,00,AAXX 13034 41984 02450 60000 10320 20270 39984 49986 85410 333 59016 70006 82618 84458==
41984,2024,07,13,06,00,AAXX 13064 41984 02456 61802 10325 20280 39982 49984 85410 333 59021 70000 82618 84458==
41984,2024,07,13,07,00,AAXX 13074 41984 02456 61802 10325 20280 39982 49984 85410 333 59021 70000 82618 84458==
41984,2024,07,13,09,00,AAXX 13094 41984 02457 51301 10332 20270 39965 49967 85400 333 59014 70000 83618==
41984,2024,07,13,12,00,AAXX 13124 41984 02456 51301 10302 20270 39958 49960 85400 333 10341 59021 70000 83618==
41984,2024,07,13,15,00,AAXX 13154 41984 02440 50000 10290 20280 39970 49972 83510 333 59018 70000 83618 85458==
41984,2024,07,13,18,00,AAXX 13184 41984 02440 60000 10285 20280 39977 49979 84510 333 59017 70000 84618 85458==
41984,2024,07,13,21,00,AAXX 13214 41984 02440 40000 10282 20270 39977 49979 84400 333 59012 70000 84618==
41984,2024,07,14,00,00,AAXX 14004 41984 02445 30000 10278 20278 39980 49982 83400 333 58004 70000 82618==
41984,2024,07,14,03,00,AAXX 14034 41984 02456 80000 10310 20260 39981 49983 8352/ 333 20261 59003 70000 83618 88458==
41984,2024,07,14,06,00,AAXX 14064 41984 21456 81302 10317 20280 39976 49978 70162 83510 333 59002 60065 70060 83618 85458==
41984,2024,07,14,09,00,AAXX 14094 41984 02457 61304 10320 20270 39960 40062 83510 333 59005 70060 83618 85458==
41984,2024,07,14,12,00,AAXX 14124 41984 02456 62202 10304 20270 39960 49962 83510 333 10332 58002 70060 83618 85458==
41984,2024,07,14,15,00,AAXX 14154 41984 02440 52201 10290 20280 39974 49977 83510 333 58004 70060 83618 85458==
41984,2024,07,14,18,00,AAXX 14184 41984 42440 50000 10290 20270 39981 49983 83510 333 58004 83618 85458==
41984,2024,07,14,21,00,AAXX 14214 41984 02440 50000 10288 20280 39981 49983 83510 333 58004 70060 83618 85458==
41984,2024,07,15,00,00,AAXX 15004 41984 02456 50000 10286 20280 39982 49984 83510 333 58002 70060 83618 85458==
41984,2024,07,15,03,00,AAXX 15034 41984 01356 81304 10300 20280 39991 49993 72122 8562/ 333 20273 58010 70080 82707 84616 88456==
41984,2024,07,15,06,00,AAXX 15064 41984 21456 81307 10316 20290 39990 49992 70262 8352/ 333 58014 60025 70020 83618 88458==
41984,2024,07,15,09,00,AAXX 15094 41984 02456 81308 10318 20280 39980 49982 8352/ 333 58020 70020 83618 88458==
41984,2024,07,15,12,00,AAXX 15124 41984 02456 81305 10300 20270 39975 49978 8352/ 333 10325 58015 70020 83618 88458==
41984,2024,07,15,15,00,AAXX 15154 41984 02440 61302 10298 20270 39993 49995 83510 333 58019 70020 83618 85458==
41984,2024,07,15,18,00,AAXX 15184 41984 02440 61302 10294 20270 30001 40003 83510 333 58020 70020 83618 85458==
41984,2024,07,15,21,00,AAXX 15214 41984 02440 60000 10287 20280 30000 40002 83510 333 58019 70080 83618 85458==
41984,2024,07,16,00,00,AAXX 16004 41984 01456 80000 10280 20280 39997 49999 70262 8352/ 333 58015 70060 83618 88458==
41984,2024,07,16,03,00,AAXX 16034 41984 01456 80000 10302 20280 30013 40015 70262 8352/ 333 70070 83618 88458==
41984,2024,07,16,06,00,AAXX 16064 41984 01457 61302 10324 20280 30012 40014 70162 83510 333 58022 70077 83618 85458==
41984,2024,07,16,09,00,AAXX 16094 41984 01457 61302 10323 20280 30004 40006 70262 83510 333 58024 70084 83618 85458==
41984,2024,07,16,12,00,AAXX 16124 41984 11456 61302 10303 20270 39990 49992 60016 70262 83510 333 10334 58015 70084 83618 85458==
41984,2024,07,16,15,00,AAXX 16154 41984 02440 60000 10292 20270 39996 49999 83510 333 58003 70084 83618 85458==
41984,2024,07,16,18,00,AAXX 16184 41984 02440 60000 10290 20280 30006 40008 83510 333 58005 70084 83618 85458==
41984,2024,07,16,21,00,AAXX 16214 41984 02440 60000 10294 20270 30007 40009 83510 333 58007 70084 83618 85458==
41984,2024,07,17,00,00,AAXX 17004 41984 02456 60000 10297 20280 30008 40010 83510 333 58011 70024 83618 85458==
41984,2024,07,17,03,00,AAXX 17034 41984 02457 61302 10330 20280 30010 40012 83510 333 20277 59003 70014 85458==
41984,2024,07,17,06,00,AAXX 17064 41984 02457 61302 10330 20280 30004 40006 83510 333 59008 70008 83618 85458==
41984,2024,07,17,09,00,AAXX 17094 41984 02457 61302 10326 20280 39985 49987 83510 333 59019 70000 83618 85458==
41984,2024,07,17,12,00,AAXX 17124 41984 02456 61302 10310 20270 39978 49980 83510 333 10336 59012 70000 83618 85458==
41984,2024,07,17,15,00,AAXX 17154 41984 02440 61301 10294 20280 39999 40001 83510 333 58003 70000 83618 85458==
41984,2024,07,17,18,00,AAXX 17184 41984 02440 60000 10290 20280 30007 40008 83510 333 58001 70000 83618 85458==
41984,2024,07,17,21,00,AAXX 17214 41984 02440 60000 10288 20280 39996 49999 83510 333 59011 70000 83618 85458==
41984,2024,07,18,00,00,AAXX 18004 41984 02456 60000 10287 20280 39981 49983 83510 333 59027 70000 83618 85458==
41984,2024,07,18,03,00,AAXX 18034 41984 02457 60000 10330 20270 39994 49996 83510 333 20280 59016 70000 83618 85458==
41984,2024,07,18,06,00,AAXX 18064 41984 02457 61302 10334 20270 39991 49993 83510 333 59013 70000 83618 85458==
41984,2024,07,18,09,00,AAXX 18094 41984 02457 61305 10330 20270 39977 49979 83510 333 59008 70000 83618 85458==
41984,2024,07,18,12,00,AAXX 18124 41984 02456 81302 10310 20270 39960 49962 83510 333 10344 59018 70000 83618 85458==
41989,2024,07,12,00,00,AAXX 12004 41989 01440 61304 10258 20250 30025 40028 70162 83570 333 59033 70890 83618 83362==
41989,2024,07,12,03,00,AAXX 12034 41989 02450 61405 10286 20250 30032 40035 82570 333 20250 59030 70480 82618 84460==
41989,2024,07,12,06,00,AAXX 12064 41989 NIL=
41989,2024,07,12,09,00,AAXX 12094 41989 01440 71706 10277 20270 30005 40008 72122 83570 333 59029 70130 83618 85460==
41989,2024,07,12,12,00,AAXX 12124 41989 21450 61305 10278 20260 39999 40002 70162 83570 333 10306 59019 60055 70090 83618 83362==
41989,2024,07,12,15,00,AAXX 12154 41989 02450 51404 10270 20250 30020 40023 83530 333 59007 70090 83618 83362==
41989,2024,07,12,21,00,AAXX 12214 41989 02430 61704 10270 20250 30010 40013 83570 333 59019 70090 83618 84460==
41989,2024,07,13,00,00,AAXX 13004 41989 02450 41804 10275 20260 30005 40008 83501 333 59020 70050 83618 83080==
41989,2024,07,13,03,00,AAXX 13034 41989 02450 51803 10288 20250 30037 40040 83530 333 20258 59009 70050 83618 83362==
41989,2024,07,13,06,00,AAXX 13064 41989 02456 31305 10319 20270 39999 40002 83530 333 59035 70050 83618==
41989,2024,07,13,09,00,AAXX 13094 41989 02450 41403 10315 20270 39984 49987 83530 333 59021 70000 83618 83362==
41989,2024,07,13,12,00,AAXX 13124 41989 02450 41803 10300 20250 39974 49977 82501 333 10325 59025 70000 82618 83080==
41989,2024,07,13,15,00,AAXX 13154 41989 02450 21304 10283 20260 39985 49988 82500 333 59035 70000 82618==
41989,2024,07,13,21,00,AAXX 13214 41989 02450 71702 10275 20260 39989 49992 83500 333 59021 70000 83618==
41989,2024,07,14,00,00,AAXX 14004 41989 02450 21803 10270 20250 39986 49989 333 59019 70000 82618==
41989,2024,07,14,03,00,AAXX 14034 41989 02456 21804 10306 20260 30000 40003 82500 333 20262 59037 70000 82618==
41989,2024,07,14,06,00,AAXX 14064 41989 NIL=
41989,2024,07,14,09,00,AAXX 14094 41989 02456 31705 10333 20270 39973 49976 83500 333 59011 70000 83618==
41989,2024,07,14,12,00,AAXX 14124 41989 02456 21303 10308 20270 39966 49969 82500 333 10336 59008 70000 82618==
41989,2024,07,14,15,00,AAXX 14154 41989 02450 31402 10300 20250 30000 40004 83500 333 58015 70000 83618==
41989,2024,07,14,18,00,AAXX 14184 41989 NIL=
41989,2024,07,15,00,00,AAXX 15004 41989 02440 41403 10288 20260 30005 40008 82530 333 58019 70000 82618 84362==
41989,2024,07,15,03,00,AAXX 15034 41989 02450 41804 10298 20250 30021 40024 83530 333 20268 58024 70000 83618 84362==
41989,2024,07,15,06,00,AAXX 15064 41989 02456 51305 10337 20260 30005 40008 82570 333 59001 70000 82618 83360==
41989,2024,07,15,09,00,AAXX 15094 41989 02450 41403 10335 20270 39998 40001 82530 333 58025 70000 82618 83682==
41989,2024,07,15,12,00,AAXX 15124 41989 02458 41803 10295 20250 39989 49992 82501 333 58013 70000 82618 83080==
41989,2024,07,15,15,00,AAXX 15154 41989 02450 31305 10290 20260 30013 40016 83500 333 58013 70000 83618==
41989,2024,07,15,21,00,AAXX 15214 41989 02450 41804 10282 20260 30018 40022 83530 333 58011 70000 83618==
41989,2024,07,16,00,00,AAXX 16004 41989 02450 51304 10277 20269 30015 40018 82570 333 58010 70000 82618 83362==
41989,2024,07,16,03,00,AAXX 16034 41989 02456 41805 10312 20270 30033 40037 82530 333 20267 58013 70000 83618 84362==
41989,2024,07,16,06,00,AAXX 16064 41989 02450 41803 10330 20270 30039 40042 83530 333 58034 70000 83618 83362==
41989,2024,07,16,09,00,AAXX 16094 41989 41450 61308 10300 20270 30013 40016 70162 82570 333 58015 82618 84460==
41989,2024,07,16,12,00,AAXX 16124 41989 11456 51804 10298 20260 30005 40008 60036 70162 82570 333 10332 58016 70030 82618 83362==
41989,2024,07,17,00,00,AAXX 17004 41989 NIL=
41989,2024,07,17,03,00,AAXX 17034 41989 02450 41803 10314 20260 30037 40041 83501 333 20265 58003 70030 83618 83080==
41989,2024,07,17,06,00,AAXX 17064 41989 02456 31805 10334 20250 30026 40029 83500 333 59013 70030 83618==
41989,2024,07,17,09,00,AAXX 17094 41989 02450 31403 10320 20260 30014 40017 83500 333 58001 70000 83618==
41989,2024,07,17,12,00,AAXX 17124 41989 02450 31404 10300 20270 30008 40011 80001 333 10345 58003 70000 83080==
41989,2024,07,17,15,00,AAXX 17154 41989 02450 51304 10293 20270 30013 40016 82570 333 59015 70000 82618 83362==
41989,2024,07,17,21,00,AAXX 17214 41989 02450 31403 10285 20270 30017 40020 83530 333 59007 70000 83618==
41989,2024,07,18,00,00,AAXX 18004 41989 02450 51803 10279 20270 30007 40010 82530 333 59011 70000 82618 84362==
41989,2024,07,18,03,00,AAXX 18034 41989 02456 41303 10326 20270 30020 40023 82530 333 20272 59016 70000 82618 83362==
41989,2024,07,18,06,00,AAXX 18064 41989 02456 41803 10345 20270 30020 40023 83530 333 59006 70000 83618 83362==
41989,2024,07,18,09,00,AAXX 18094 41989 02456 21406 10338 20260 39984 49987 82500 333 59030 70000 82618==
41989,2024,07,18,12,00,AAXX 18124 41989 02450 51304 10298 20260 39976 49979 82570 333 10347 59032 70000 82618 83362==
41992,2024,07,12,00,00,AAXX 12004 41992 21320 80902 10252 20250 30030 40032 76166 8692/ 333 59018 60129 73090 82708 84613 88456 81925==
41992,2024,07,12,03,00,AAXX 12034 41992 01325 81803 10278 20260 30036 40038 75166 8432/ 333 20250 59029 72280 82708 84614 88458 81925==
41992,2024,07,12,06,00,AAXX 12064 41992 21325 81803 10282 20250 30033 40035 75165 8432/ 333 59020 60159 72090 82708 84614 88458 81925==
41992,2024,07,12,09,00,AAXX 12094 41992 01420 81805 10270 20250 30011 40013 76165 8592/ 333 59013 71680 84614 88458 81925==
41992,2024,07,12,12,00,AAXX 12124 41992 21420 81805 10268 20260 30009 40011 76165 8592/ 333 10310 59017 60057 70860 84614 88458 81925==
41992,2024,07,12,15,00,AAXX 12154 41992 01420 80602 10260 20250 30017 40019 75165 8592/ 333 59026 70570 84615 88458 81925==
41992,2024,07,12,18,00,AAXX 12183 41992 21320 81501 10253 20250 30018 40020 76365 8532/ 333 59018 60119 70430 83707 85613 88458 81925==
41992,2024,07,12,21,00,AAXX 12214 41992 01420 80903 10255 20250 30000 40002 76166 8592/ 333 59026 70460 84615 88458 81925==
41992,2024,07,13,00,00,AAXX 13004 41992 21420 81502 10252 20250 30001 40003 75165 8592/ 333 59029 60059 70360 84615 88458 81925==
41992,2024,07,13,03,00,AAXX 13034 41992 01430 60000 10285 20260 30011 40013 70552 83330 333 20250 59025 70230 82616 86362 81925==
41992,2024,07,13,06,00,AAXX 13064 41992 11430 62104 10298 20260 30005 40007 60006 70552 83330 333 59028 70210 82616 86362 81925==
41992,2024,07,13,09,00,AAXX 13094 41992 01435 61507 10310 20260 39989 49991 70522 82530 333 59022 70190 82616 86362==
41992,2024,07,13,12,00,AAXX 13124 41992 01/30 31805 10290 20260 39981 49983 70521 83030 333 10315 59028 70160 83362==
41992,2024,07,13,15,00,AAXX 13154 41992 01/25 20000 10277 20260 39996 49998 70511 82030 333 59021 70150 82362==
41992,2024,07,13,18,00,AAXX 13184 41992 01425 70000 10272 20250 30004 40006 70521 84530 333 59014 70050 84616 87360==
41992,2024,07,13,21,00,AAXX 13214 41992 41425 61502 10265 20260 39989 49991 70522 84520 333 59011 84615 86460==
41992,2024,07,14,00,00,AAXX 14004 41992 41/30 21502 10265 20260 39994 49996 70521 82030 333 59007 82362==
41992,2024,07,14,03,00,AAXX 14034 41992 01435 21703 10310 20250 30001 40003 70510 82500 333 20258 59010 70000 82616==
41992,2024,07,14,06,00,AAXX 14064 41992 01445 51803 10318 20270 39995 49997 70521 83530 333 59010 70000 83616 85362==
41992,2024,07,14,09,00,AAXX 14094 41992 01440 41508 10325 20280 39975 49977 70511 82530 333 59014 70000 82616 84362==
41992,2024,07,14,12,00,AAXX 14124 41992 01430 61512 10300 20270 39977 49979 70522 84530 333 10330 59004 70000 84616 86462==
41992,2024,07,14,15,00,AAXX 14154 41992 01925 01805 10285 20260 39996 49998 70520 333 59021 70000==
41992,2024,07,14,18,00,AAXX 14184 41992 01925 00000 10280 20250 30004 40006 70520 333 59014 70000==
41992,2024,07,14,21,00,AAXX 14214 41992 01420 50604 10275 20260 30002 40004 70522 83530 333 58013 70000 83616 85362==
41992,2024,07,15,00,00,AAXX 15004 41992 01425 40302 10270 20250 30012 40014 70521 82530 333 58018 70000 82616 84362==
41992,2024,07,15,03,00,AAXX 15034 41992 01435 31803 10305 20260 30017 40019 70511 83500 333 20266 58016 70000 83616==
41992,2024,07,15,06,00,AAXX 15064 41992 01435 71705 10317 20250 30015 40017 70521 84530 333 58020 70000 84616 87360==
41992,2024,07,15,09,00,AAXX 15094 41992 01430 51510 10325 20250 30002 40004 70521 84530 333 58027 70000 84616 85362==
41992,2024,07,15,12,00,AAXX 15124 41992 01430 60305 10295 20260 30000 40002 70522 84530 333 10332 58023 70000 84616 86362==
41992,2024,07,15,15,00,AAXX 15154 41992 01425 31503 10280 20250 30016 40018 70522 82530 333 58020 70000 82616 83362==
41992,2024,07,15,18,00,AAXX 15184 41992 01/25 20902 10277 20250 30030 40032 70521 82030 333 58026 70000 82362==
41992,2024,07,15,21,00,AAXX 15214 41992 01420 81502 10265 20260 30021 40023 70522 8452/ 333 58019 70000 84615 88460==
41992,2024,07,16,00,00,AAXX 16004 41992 21320 81503 10265 20260 30030 40032 76162 8692/ 333 58018 60047 70040 82708 84615 88458 81925==
41992,2024,07,16,03,00,AAXX 16034 41992 01425 60000 10300 20260 30039 40041 70565 83330 333 20262 58022 70060 82616 86362 81925==
41992,2024,07,16,06,00,AAXX 16064 41992 01430 51807 11232 20260 30031 40033 70565 82330 333 70060 85016 82616 85362==
41992,2024,07,16,09,00,AAXX 16094 41992 01430 41805 10300 20280 30014 40016 70565 84300 333 58012 70080 83616 81925==
41992,2024,07,16,12,00,AAXX 16124 41992 21430 81802 10295 20270 30010 40012 70562 8352/ 333 10325 58010 60025 70080 83616 88460==
41992,2024,07,16,15,00,AAXX 16154 41992 01/25 20000 10282 20260 30025 40027 70522 82030 333 58009 70080 82362==
41992,2024,07,16,18,00,AAXX 16184 41992 01/25 21504 10277 20250 30026 40028 70521 82030 333 59004 70080 82362==
41992,2024,07,16,21,00,AAXX 16214 41992 01/25 20302 10268 20260 30012 40014 70521 82030 333 59009 70040 82362==
41992,2024,07,17,00,00,AAXX 17004 41992 01430 61503 10270 20250 30020 40022 70522 84530 333 59010 70040 84616 86462==
41992,2024,07,17,03,00,AAXX 17034 41992 01/35 40000 10310 20250 30023 40025 70522 84030 333 20265 59016 70020 84362==
41992,2024,07,17,06,00,AAXX 17064 41992 01435 61704 10305 20270 30022 40024 70521 84530 333 59009 70020 84616 86362==
41992,2024,07,17,09,00,AAXX 17094 41992 01930 62108 10325 20270 39998 40000 70522 86001 333 59016 70000 86080==
41992,2024,07,17,12,00,AAXX 17124 41992 01430 81503 10300 20270 39993 49995 70522 8452/ 333 10330 59017 70000 84615 88460==
41992,2024,07,17,15,00,AAXX 17154 41992 01425 40000 10290 20270 30016 40018 70521 84500 333 59009 70000 84616==
41992,2024,07,17,18,00,AAXX 17184 41992 01425 80000 10285 20270 30016 40018 70522 8432/ 333 59010 70000 83616 88460 81925==
41992,2024,07,17,21,00,AAXX 17214 41992 01425 60302 10278 20270 39993 49995 70521 84520 333 59019 70000 84616 86460==
41992,2024,07,18,00,00,AAXX 18004 41992 01425 61803 10276 20270 30001 40003 70522 84520 333 59019 70000 84615 86460==
41992,2024,07,18,03,00,AAXX 18034 41992 01435 50000 10321 20250 30014 40016 70522 83530 333 20273 59009 70000 83616 85362==
41992,2024,07,18,06,00,AAXX 18064 41992 01435 61203 10325 20270 30007 40009 70522 84530 333 59015 70000 84614 86362==
41992,2024,07,18,09,00,AAXX 18094 41992 01430 62106 10320 20270 39983 49985 70522 84530 333 59015 70000 84616 86362==
41992,2024,07,18,12,00,AAXX 18124 41992 01425 82406 10295 20270 39979 49981 70522 8452/ 333 10336 59014 70000 84616 88460==
41998,2024,07,12,00,00,AAXX 12004 41998 NIL=
41998,2024,07,12,03,00,AAXX 12034 41998 01456 80000 10270 20250 30038 40044 76166 8442/ 333 20252 59028 70870 83616 88456==
41998,2024,07,12,06,00,AAXX 12064 41998 NIL=
41998,2024,07,12,09,00,AAXX 12094 41998 01456 81401 10276 20260 30011 40017 70262 8442/ 333 59020 70800 83618 88458==
41998,2024,07,12,12,00,AAXX 12124 41998 01456 80000 10274 20250 30013 40019 76162 8442/ 333 10284 59020 70820 83618 88458==
41998,2024,07,13,00,00,AAXX 13004 41998 NIL=
41998,2024,07,13,03,00,AAXX 13034 41998 01450 80000 10268 20250 30044 40050 76166 8442/ 333 20250 59012 70620 83616 88456==
41998,2024,07,13,06,00,AAXX 13064 41998 21456 80000 10278 20240 30018 40024 72162 8442/ 333 59009 60095 70550 83618 88458==
41998,2024,07,13,07,00,AAXX 13074 41998 21456 80000 10278 20240 30018 40024 72162 8442/ 333 59009 60095 70550 83618 88458==
41998,2024,07,13,09,00,AAXX 13094 41998 02456 41202 10314 20250 39980 49986 82420 333 59031 70530 82618 83458==
41998,2024,07,13,12,00,AAXX 13124 41998 02456 40000 10293 20250 39981 49987 82420 333 10322 59032 70510 82618 83458==
41998,2024,07,14,00,00,AAXX 14004 41998 NIL=
41998,2024,07,14,03,00,AAXX 14034 41998 42456 60000 10296 20260 30040 40046 59004 83458==
41998,2024,07,14,06,00,AAXX 14064 41998 02456 40000 10303 20250 30022 40028 82420 333 58002 70000 82618 83458==
41998,2024,07,14,09,00,AAXX 14094 41998 02456 41902 10308 20260 30092 40098 83420 333 58012 70000 82618 83458==
41998,2024,07,14,12,00,AAXX 14124 41998 02456 41703 10281 20260 39990 49996 82420 333 10326 58009 70000 82618 83458==
41998,2024,07,14,18,00,AAXX 14184 41998 NIL=
41998,2024,07,15,00,00,AAXX 15004 41998 NIL=
41998,2024,07,15,03,00,AAXX 15034 41998 02456 60000 10290 20260 30040 40046 82470 333 20261 58016 70000 82618 83459==
41998,2024,07,15,12,00,AAXX 15124 41998 NIL=
41998,2024,07,16,03,00,AAXX 16034 41998 01456 80000 10288 20260 30044 40050 76166 8347/ 333 20257 58013 70060 83616 88458==
41998,2024,07,16,06,00,AAXX 16064 41998 NIL=
41998,2024,07,16,09,00,AAXX 16094 41998 01456 81201 10274 20250 30021 40027 72162 8442/ 333 58019 70060 83618 88458==
41998,2024,07,16,12,00,AAXX 16124 41998 02456 80000 10268 20250 30022 40028 8442/ 333 10293 58013 70060 83618 88458==
41998,2024,07,17,00,00,AAXX 17004 41998 NIL=
41998,2024,07,17,03,00,AAXX 17034 41998 02456 40000 10293 20250 30021 40027 82470 333 20260 59011 70020 82618==
41998,2024,07,17,06,00,AAXX 17064 41998 NIL=
41998,2024,07,17,09,00,AAXX 17094 41998 02456 41402 10334 20260 30003 40009 82470 333 59018 70000 82470 81618==
41998,2024,07,17,12,00,AAXX 17124 41998 02456 40000 10286 20260 30002 40008 82470 333 10337 59020 70000 81618==
41998,2024,07,17,15,00,AAXX 17154 41998 02456 40000 10278 20260 30019 40025 82470 333 59013 70000 81618==
41998,2024,07,17,18,00,AAXX 17184 41998 02456 40000 10275 20260 30022 40028 82470 333 59016 70000 81618==
41998,2024,07,18,00,00,AAXX 18004 41998 02456 40000 10268 20260 30033 40039 82470 333 59011 70000 81618==
41998,2024,07,18,03,00,AAXX 18034 41998 02456 42803 10298 20260 30008 40014 81618 333 20263 59013 70000==
41998,2024,07,18,12,00,AAXX 18124 41998 NIL=
