ESTACION,ANO,MES,DIA,HORA,MINUTO,PARTE
41850,2024,12,06,00,00,AAXX 06004 41850 31915 00000 10125 20125 30018 40121 71000 333 59006 70000=
41850,2024,12,06,03,00,AAXX 06034 41850 31930 00402 10165 20160 30039 40141 70500 333 20123 59008 70000=
41850,2024,12,06,06,00,AAXX 06064 41850 31940 00000 10216 20170 30026 40126 70500 333 59001 70000=
41850,2024,12,06,09,00,AAXX 06094 41850 31940 01802 10234 20160 39994 40094 333 59008 70000=
41850,2024,12,06,12,00,AAXX 06124 41850 31930 00000 10185 20180 30002 40103 70500 333 10237 59005 70000=
41850,2024,12,06,15,00,AAXX 06154 41850 31930 00000 10154 20130 30023 40125 70500 333 58003 70000=
41850,2024,12,06,18,00,AAXX 06184 41850 NIL=
41850,2024,12,06,21,00,AAXX 06214 41850 31915 00000 10140 20140 30022 40125 71000 333 58003 70000=
41850,2024,12,07,00,00,AAXX 07004 41850 31906 00000 10155 20155 30021 40123 74240 333 58003 70000=
41850,2024,12,07,03,00,AAXX 07033 41850 31905 00402 10173 20170 30043 40145 74444 333 20125 58004 70000=
41850,2024,12,07,06,00,AAXX 07064 41850 31930 01002 10217 20170 30035 40135 70540 333 58009 70000=
41850,2024,12,07,09,00,AAXX 07094 41850 31950 00000 10243 20110 30015 40114 70500 333 58021 70000=
41850,2024,12,07,12,00,AAXX 07124 41850 31940 00000 10171 20160 30022 40124 70500 333 10245 58020 70000=
41850,2024,12,07,15,00,AAXX 07154 41850 31930 00000 10145 20140 30048 40151 70500 333 58025 70000=
41850,2024,12,07,18,00,AAXX 07184 41850 31915 00000 10138 20130 30043 40146 71000 333 58019 70000=
41850,2024,12,07,21,00,AAXX 07214 41850 31908 00000 10130 20130 30038 40142 74240 333 58016 70000=
41850,2024,12,08,00,00,AAXX 08004 41850 31906 00000 10121 20120 30034 40138 74444 333 58013 70000=
41850,2024,12,08,03,00,AAXX 08034 41850 31940 00000 10155 20150 30059 40162 70540 333 20115 58016 70000=
41850,2024,12,08,06,00,AAXX 08064 41850 31950 01602 10218 20170 30050 40150 70540 333 58015 70000=
41850,2024,12,08,18,00,AAXX 08184 41850 NIL=
41850,2024,12,08,21,00,AAXX 08214 41850 31935 00000 10130 20120 30036 40140 70500 333 59002 70000=
41850,2024,12,09,00,00,AAXX 09004 41850 31930 00000 10110 20110 30031 40136 70500 333 59003 70000=
41850,2024,12,09,03,00,AAXX 09034 41850 31950 00000 10173 20150 30056 40168 70500 333 20109 59003 70000=
41850,2024,12,09,06,00,AAXX 09064 41850 32956 00000 10235 20150 30035 40135 333 59015 70000=
41850,2024,12,09,09,00,AAXX 09094 41850 32956 00000 10238 20170 30018 40117 333 58000 70000=
41850,2024,12,09,12,00,AAXX 09124 41850 31950 00000 10171 20160 30015 40117 70500 333 10247 59010 70000=
41850,2024,12,09,15,00,AAXX 09154 41850 31945 00000 10152 20140 30036 40139 70500 333 59014 70000=
41850,2024,12,09,18,00,AAXX 09184 41850 31940 00000 10140 20140 30039 40142 70500 333 59013 70000=
41850,2024,12,09,21,00,AAXX 09214 41850 31935 00000 10144 20140 30032 40135 70500 333 59004 70000=
41850,2024,12,10,00,00,AAXX 10004 41850 31925 00000 10148 20148 30025 40128 71000 333 59006 70000=
41850,2024,12,10,03,00,AAXX 10034 41850 31906 00000 10147 20147 30054 40157 74444 333 20137 59002 70000=
41850,2024,12,10,06,00,AAXX 10064 41850 31950 00000 10177 20160 30039 40141 70544 333 58004 70000=
41850,2024,12,10,09,00,AAXX 10094 41850 31950 00000 10195 20170 30020 40121 70540 333 58002 70000=
41850,2024,12,10,12,00,AAXX 10124 41850 31945 00000 10168 20160 30035 40137 70540 333 10199 58020 70000=
41850,2024,12,10,21,00,AAXX 10214 41850 31930 00000 10135 20135 30064 40167 70500 333 58032 70000=
41850,2024,12,11,00,00,AAXX 11004 41850 31905 00000 10136 20136 30061 40164 74444 333 58036 70000=
41850,2024,12,11,03,00,AAXX 11034 41850 31904 00000 10142 20140 30082 40186 74644 333 20128 58028 70000=
41850,2024,12,11,06,00,AAXX 11064 41850 31950 00000 10205 20160 30053 40154 70540 333 58014 70000=
41850,2024,12,11,09,00,AAXX 11094 41850 31950 00000 10207 20160 30035 40136 70500 333 58015 70000=
41850,2024,12,11,12,00,AAXX 11124 41850 31950 00000 10162 20150 30037 40140 70500 333 10218 58002 70000=
41850,2024,12,11,15,00,AAXX 11154 41850 31925 00000 10140 20140 30048 40151 71000 333 59019 70000=
41850,2024,12,11,18,00,AAXX 11184 41850 NIL=
41850,2024,12,12,00,00,AAXX 12004 41850 31906 00000 10128 20128 30033 40137 74444 333 59028 70000=
41850,2024,12,12,03,00,AAXX 12034 41850 31940 00000 10140 20140 30062 40165 70540 333 20126 59020 70000=
41850,2024,12,12,06,00,AAXX 12064 41850 32456 00000 10221 20120 30046 40146 333 59007 70000=
41850,2024,12,12,09,00,AAXX 12094 41850 32456 00000 10237 20130 30012 40111 333 59023 70000=
41850,2024,12,12,12,00,AAXX 12124 41850 31950 00000 10175 20150 30020 40121 70500 333 10248 59017 70000=
41850,2024,12,12,15,00,AAXX 12154 41850 NIL=
41850,2024,12,12,18,00,AAXX 12184 41850 31945 00000 10147 20140 30040 40143 70500 333 59004 70000=
41850,2024,12,12,21,00,AAXX 12214 41850 31930 00000 10118 20118 30042 40146 70500 333 58002 70000=
41851,2024,12,06,00,00,AAXX 06004 41851 31910 00000 10144 20130 30054 40120 71000 333 59010 70000=
41851,2024,12,06,03,00,AAXX 06034 41851 31910 00000 10150 20150 30073 40139 71000 333 20144 59011 70000=
41851,2024,12,06,06,00,AAXX 06064 41851 31930 00000 10235 20160 30065 40129 70500 333 59005 70000=
41851,2024,12,06,09,00,AAXX 06094 41851 31410 00000 10220 20180 30035 40099 71021 8352/ 333 56999 59006 70000 83618 88458=
41851,2024,12,06,12,00,AAXX 06124 41851 31410 00000 10190 20180 30038 40103 71021 8352/ 333 10235 56999 59005 70000 83618 88458=
41851,2024,12,06,15,00,AAXX 06154 41851 31/01 90000 10155 20155 30062 40127 74742 89/// 333 56999 58003 70000=
41851,2024,12,06,18,00,AAXX 06184 41851 31/01 90000 10150 20150 30060 40126 74742 89/// 333 56999 58003 70000=
41851,2024,12,06,21,00,AAXX 06214 41851 31/01 90000 10140 20140 30057 40123 74744 89/// 333 56999 58001 70000=
41851,2024,12,07,00,00,AAXX 07004 41851 31/01 90000 10130 20130 30061 40127 74744 89/// 333 56999 58007 70000=
41851,2024,12,07,03,00,AAXX 07033 41851 31/01 90000 10140 20140 30082 40148 74744 89/// 333 20125 56999 58009 70000=
41851,2024,12,07,06,00,AAXX 07064 41851 31/09 90701 10194 20160 30076 40141 74344 89/// 333 56999 58011 70000=
41851,2024,12,07,09,00,AAXX 07094 41851 31425 70701 10220 20170 30053 40117 71042 82510 333 56990 58018 70000 82618 86459=
41851,2024,12,07,12,00,AAXX 07124 41851 31412 60000 10190 20180 30060 40125 71042 82510 333 10226 56990 58022 70000 82618 85459=
41851,2024,12,07,15,00,AAXX 07154 41851 31/09 90000 10165 20160 30083 40148 74322 89/// 333 56999 58021 70000=
41851,2024,12,07,18,00,AAXX 07184 41851 31/08 90000 10156 20156 30079 40145 74342 89/// 333 56999 58019 70000=
41851,2024,12,07,21,00,AAXX 07214 41851 31/05 90000 10150 20150 30071 40137 74744 89/// 333 56999 58014 70000=
41851,2024,12,08,00,00,AAXX 08004 41851 31/03 90000 10145 20145 30072 40138 74744 89/// 333 56999 58011 70000=
41851,2024,12,08,03,00,AAXX 08034 41851 31/03 90000 10154 20150 30099 40165 74744 89/// 333 20140 56999 58017 70000=
41851,2024,12,08,06,00,AAXX 08063 41851 31435 40701 10220 20170 30087 40151 70542 81510 333 56990 58011 70000 81618 84459=
41851,2024,12,08,09,00,AAXX 08094 41851 31435 60000 10238 20170 30057 40121 70522 82510 333 56990 58004 70000 82618 86459=
41851,2024,12,08,12,00,AAXX 08124 41851 31430 60000 10205 20190 30058 40122 70522 82510 333 10240 56990 59002 70000 82618 86459=
41851,2024,12,08,15,00,AAXX 08154 41851 31930 00000 10170 20160 30067 40132 70521 333 59016 70000=
41851,2024,12,08,18,00,AAXX 08184 41851 31930 00000 10160 20160 30063 40128 70520 333 59016 70000=
41851,2024,12,08,21,00,AAXX 08214 41851 31910 00000 10140 20140 30059 40125 71000 333 59012 70000=
41851,2024,12,09,00,00,AAXX 09004 41851 31/05 90000 10135 20120 30070 40136 74700 89/// 333 56999 59002 70000=
41851,2024,12,09,03,00,AAXX 09034 41851 31430 60000 10164 20150 30094 40160 70542 82520 333 20135 56990 59005 70000 82618 86458=
41851,2024,12,09,06,00,AAXX 09064 41851 31435 80000 10205 20170 30088 40053 70542 8352/ 333 56699 58001 70000 83618 88458=
41851,2024,12,09,09,00,AAXX 09094 41851 31440 80000 10215 20170 30057 40121 70542 8352/ 333 56699 58000 70000 83618 88458=
41851,2024,12,09,12,00,AAXX 09124 41851 31440 80000 10185 20180 30054 40119 70542 8352/ 333 10225 56699 59004 70000 83618 88458=
41851,2024,12,09,15,00,AAXX 09154 41851 31940 00000 10160 20160 30071 40136 70521 333 58004 70000=
41851,2024,12,09,18,00,AAXX 09184 41851 31930 00000 10158 20150 30068 40133 70520 333 58005 70000=
41851,2024,12,09,21,00,AAXX 09214 41851 31910 00000 10156 20150 30069 40134 71000 333 58010 70000=
41851,2024,12,10,00,00,AAXX 10004 41851 31/03 90000 10162 20160 30069 40134 74744 89/// 333 56999 59001 70000=
41851,2024,12,10,03,00,AAXX 10034 41851 31/03 90000 10164 20150 30094 40160 74744 89/// 333 20145 56999 58000 70000=
41851,2024,12,10,06,00,AAXX 10064 41851 31435 60701 10172 20160 30083 40149 70542 81510 333 56009 59005 70000 81618 84459=
41851,2024,12,10,09,00,AAXX 10094 41851 31440 60000 10180 20150 30062 40127 70522 81510 333 56990 58005 70000 81618 84459=
41851,2024,12,10,12,00,AAXX 10124 41851 31430 60000 10163 20150 30070 40135 70522 81510 333 10240 56990 58016 70000 81618 84459=
41851,2024,12,10,18,00,AAXX 10184 41851 31930 00000 10135 20130 30099 40165 70520 333 58031 70000=
41851,2024,12,11,00,00,AAXX 11004 41851 31910 00000 10145 20140 30102 40170 333 58033 70000=
41851,2024,12,11,03,00,AAXX 11034 41851 31930 01102 10167 20160 30120 40185 70500 333 20135 58026 70000=
41851,2024,12,11,06,00,AAXX 11064 41851 31930 01301 10203 20160 30099 40164 70500 333 58016 70000=
41851,2024,12,11,09,00,AAXX 11094 41851 31930 00000 10215 20170 30071 40135 70500 333 58009 70000=
41851,2024,12,11,12,00,AAXX 11124 41851 31930 00000 10180 20160 30070 40135 70500 333 10250 58000 70000=
41851,2024,12,11,15,00,AAXX 11154 41851 31930 00000 10150 20150 30080 40146 70500 333 59017 70000=
41851,2024,12,11,18,00,AAXX 11184 41851 31930 00000 10154 20150 30099 40144 70500 333 59021 70000=
41851,2024,12,12,00,00,AAXX 12004 41851 31910 00000 10145 20140 30070 40135 71000 333 59035 70000=
41851,2024,12,12,03,00,AAXX 12034 41851 31910 00000 10148 20130 30098 40164 71000 333 20145 59028 70000=
41851,2024,12,12,06,00,AAXX 12064 41851 31930 00000 10195 20160 30086 40151 70500 333 59013 70000=
41851,2024,12,12,12,00,AAXX 12124 41851 NIL=
41851,2024,12,12,15,00,AAXX 12154 41851 31940 00000 10165 20150 30077 40143 70500 333 59003 70000=
41851,2024,12,12,18,00,AAXX 12184 41851 31940 00000 10160 20150 30077 40143 70500 333 59001 70000=
41851,2024,12,12,21,00,AAXX 12214 41851 31930 00000 10130 20120 30073 40139 70500 333 59001 70000=
41856,2024,12,06,00,00,AAXX 06004 41856 31/06 90000 10146 20146 30082 40119 74544 89/// 333 59009 70000=
41856,2024,12,06,03,00,AAXX 06034 41856 31920 00000 10172 20170 30106 40143 72844 333 20145 59006 70000=
41856,2024,12,06,06,00,AAXX 06064 41856 31940 00000 10247 20160 30087 40123 70540 333 59011 70000=
41856,2024,12,06,09,00,AAXX 06094 41856 31940 02301 10250 20120 30059 40095 70500 333 59008 70000=
41856,2024,12,06,12,00,AAXX 06124 41856 31920 00000 10178 20170 30069 40106 71000 333 10260 59003 70000=
41856,2024,12,06,15,00,AAXX 06154 41856 31910 00000 10160 20150 30090 40127 71000 333 58008 70000=
41856,2024,12,06,18,00,AAXX 06184 41856 31908 00000 10150 20150 30096 40133 74440 333 58004 70000=
41856,2024,12,06,21,00,AAXX 06214 41856 31/05 90000 10137 20137 30092 40129 74544 89/// 333 59004 70000=
41856,2024,12,07,00,00,AAXX 07004 41856 31/05 90000 10125 20125 30087 40124 74544 89/// 333 58005 70000=
41856,2024,12,07,03,00,AAXX 07033 41856 31/09 90000 10145 20145 30110 40147 74544 89/// 333 20124 58004 70000=
41856,2024,12,07,06,00,AAXX 07064 41856 31940 00000 10213 20140 30099 40135 70544 333 58012 70000=
41856,2024,12,07,09,00,AAXX 07094 41856 31940 00000 10235 20150 30079 40115 70500 333 58020 70000=
41856,2024,12,07,12,00,AAXX 07124 41856 31920 00000 10192 20170 30087 40124 71000 333 10240 58018 70000=
41856,2024,12,07,15,00,AAXX 07154 41856 31920 00000 10155 20155 30109 40146 71000 333 58015 70000=
41856,2024,12,07,18,00,AAXX 07184 41856 31908 00000 10144 20140 30106 40143 74440 333 58010 70000=
41856,2024,12,07,21,00,AAXX 07214 41856 31908 00000 10133 20130 30103 40140 74440 333 58011 70000=
41856,2024,12,08,00,00,AAXX 08004 41856 31905 00000 10130 20130 30100 40137 74644 333 58013 70000=
41856,2024,12,08,03,00,AAXX 08034 41856 31920 00000 10177 20170 30122 40159 71040 333 20130 58012 70000=
41856,2024,12,08,06,00,AAXX 08063 41856 31940 00000 10232 20170 30110 40146 70500 333 58011 70000=
41856,2024,12,08,09,00,AAXX 08094 41856 31940 00000 10245 20180 30081 40117 70500 333 58002 70000=
41856,2024,12,08,12,00,AAXX 08124 41856 31930 00000 10198 20190 30086 40123 70500 333 10248 59001 70000=
41856,2024,12,08,15,00,AAXX 08154 41856 31/02 90000 10162 20150 30093 40130 74640 89/// 333 59016 70000=
41856,2024,12,08,18,00,AAXX 08184 41856 31/01 90000 10145 20145 30089 40126 74440 89/// 333 59017 70000=
41856,2024,12,08,21,00,AAXX 08214 41856 31/02 90000 10140 20140 30092 40129 74444 89/// 333 59011 70000=
41856,2024,12,09,00,00,AAXX 09004 41856 31/02 90000 10136 20136 30094 40131 74544 89/// 333 59006 70000=
41856,2024,12,09,03,00,AAXX 09034 41856 31/02 90000 10161 20160 30120 40157 74544 89/// 333 20131 59002 70000=
41856,2024,12,09,06,00,AAXX 09064 41856 31420 80000 10201 20180 30109 40146 71042 8352/ 333 56999 59001 70000 83618 88458=
41856,2024,12,09,09,00,AAXX 09094 41856 31430 80000 10210 20170 30086 40122 70522 8352/ 333 56999 58005 70000 83618 88458=
41856,2024,12,09,12,00,AAXX 09124 41856 31412 80000 10189 20180 30080 40117 71022 8352/ 333 10215 56999 59006 70000 83618 88458=
41856,2024,12,09,15,00,AAXX 09154 41856 31/01 90000 10154 20150 30097 40134 74642 89/// 333 58004 70000=
41856,2024,12,09,18,00,AAXX 09184 41856 31/01 90000 10165 20165 30094 40131 74442 89/// 333 58005 70000=
41856,2024,12,09,21,00,AAXX 09214 41856 31/05 90000 10164 20160 30092 40129 74344 89/// 333 58000 70000=
41856,2024,12,10,00,00,AAXX 10004 41856 31/08 90000 10165 20160 30092 40129 74344 89/// 333 59002 70000=
41856,2024,12,10,03,00,AAXX 10034 41856 31/08 90000 10169 20160 30119 40156 74544 89/// 333 20155 59001 70000=
41856,2024,12,10,06,00,AAXX 10064 41856 31320 80501 10173 20150 30112 40149 71042 8562/ 333 56999 58003 70000 82710 84618 88458=
41856,2024,12,10,09,00,AAXX 10094 41856 31430 60501 10193 20150 30090 40127 70522 83520 333 56990 58004 70000 83618 86458=
41856,2024,12,10,12,00,AAXX 10124 41856 31930 00000 10164 20150 30097 40134 70500 333 10198 58017 70000=
41856,2024,12,10,15,00,AAXX 10154 41856 31930 00000 10140 20140 30122 40159 70500 333 58025 70000=
41856,2024,12,10,18,00,AAXX 10184 41856 31920 00000 10130 20130 30128 40165 71000 333 58034 70000=
41856,2024,12,11,00,00,AAXX 11004 41856 31915 00501 10130 20130 30124 40161 71000 333 58032 70000=
41856,2024,12,11,03,00,AAXX 11034 41856 NIL=
41856,2024,12,11,06,00,AAXX 11064 41856 31440 60000 10194 20150 30130 40167 70522 83620 333 56290 58018 70000 81710 83615 86458=
41856,2024,12,11,09,00,AAXX 11094 41856 32940 00901 10225 20170 30095 40131 333 58005 70000=
41856,2024,12,11,12,00,AAXX 11124 41856 31930 00000 10176 20170 30094 40131 70500 333 10232 59003 70000=
41856,2024,12,11,18,00,AAXX 11184 41856 31920 02701 10150 20150 30105 40142 71000 333 59023 70000=
41856,2024,12,12,00,00,AAXX 12004 41856 31915 00501 10150 20150 30097 40134 71000 333 59027 70000=
41856,2024,12,12,03,00,AAXX 12034 41856 31430 80501 10160 20150 30124 40161 70520 8562/ 333 20142 56299 59023 70000 83710 85616 88458=
41856,2024,12,12,06,00,AAXX 12064 41856 31940 20501 10205 20160 30110 40146 70521 82030 333 56090 59020 70000 82362=
41856,2024,12,12,12,00,AAXX 12124 41856 31930 00401 10184 20170 30081 40118 70500 333 10240 59013 70000=
41856,2024,12,12,15,00,AAXX 12154 41856 31920 00000 10152 20150 30103 40140 71000 333 58003 70000=
41856,2024,12,12,18,00,AAXX 12184 41856 31915 00000 10140 20140 30107 40144 71000 333 58002 70000=
41856,2024,12,12,21,00,AAXX 12214 41856 31905 00000 10130 20130 30109 40146 74444 333 58009 70000=
41858,2024,12,06,00,00,AAXX 06004 41858 01905 00000 10135 20130 30077 40125 74440 333 59004 70000==
41858,2024,12,06,03,00,AAXX 06034 41858 01910 00000 10172 20150 30097 40144 72844 333 20125 59008 70000==
41858,2024,12,06,06,00,AAXX 06064 41858 01920 02705 10246 20160 30081 40127 71040 333 59007 70000==
41858,2024,12,06,09,00,AAXX 06094 41858 01935 02802 10262 20130 30054 40100 71000 333 59006 70000==
41858,2024,12,06,12,00,AAXX 06124 41858 01930 00000 10210 20160 30059 40105 71000 333 10264 59004 70000==
41858,2024,12,06,15,00,AAXX 06154 41858 01925 00000 10168 20160 30081 40128 71000 333 58003 70000==
41858,2024,12,06,18,00,AAXX 06184 41858 01920 00000 10160 20150 30087 40136 71000 333 59002 70000==
41858,2024,12,07,00,00,AAXX 07004 41858 01908 00000 10125 20120 30081 40129 74040 333 58004 70000==
41858,2024,12,07,03,00,AAXX 07033 41858 01915 00000 10166 20140 30100 40147 71040 333 20112 58003 70000==
41858,2024,12,07,06,00,AAXX 07064 41858 01930 00000 10252 20110 30092 40138 70540 333 58011 70000==
41858,2024,12,07,09,00,AAXX 07094 41858 01935 00000 10260 20120 30069 40115 70500 333 58015 70000==
41858,2024,12,07,12,00,AAXX 07124 41858 01930 00000 10208 20150 30079 40125 70500 333 10266 58020 70000==
41858,2024,12,07,15,00,AAXX 07154 41858 01928 00000 10170 20150 30100 40147 71000 333 58019 70000==
41858,2024,12,07,18,00,AAXX 07184 41858 01922 00000 10162 20150 30110 40157 71000 333 58023 70000==
41858,2024,12,07,21,00,AAXX 07214 41858 01904 00000 10160 20150 30101 40148 74440 333 58025 70000==
41858,2024,12,08,00,00,AAXX 08004 41858 01900 00000 10158 20150 30093 40140 74544 89/// 333 58012 70000==
41858,2024,12,08,03,00,AAXX 08034 41858 01900 00000 10165 20160 30115 40162 74544 89/// 333 20148 58015 70000==
41858,2024,12,08,06,00,AAXX 08063 41858 01925 00000 10230 20170 30104 40150 71040 333 58012 70000==
41858,2024,12,08,09,00,AAXX 08094 41858 01435 30000 10250 20170 30074 40117 70500 83500 333 58005 70000 83618==
41858,2024,12,08,12,00,AAXX 08124 41858 01930 00000 10208 20180 30079 40125 70510 333 10252 58000 70000==
41858,2024,12,08,15,00,AAXX 08154 41858 01925 00000 10174 20160 30085 40132 71000 333 59015 70000==
41858,2024,12,08,18,00,AAXX 08184 41858 01915 00000 10168 20160 30093 40140 71000 333 59017 70000==
41858,2024,12,08,21,00,AAXX 08214 41858 01908 00000 10158 20150 30082 40129 74200 333 59019 70000==
41858,2024,12,09,00,00,AAXX 09004 41858 01900 00000 10150 20140 30085 40133 74340 89/// 333 59008 70000==
41858,2024,12,09,03,00,AAXX 09034 41858 NIL=
41858,2024,12,09,06,00,AAXX 09064 41858 01415 80000 10196 20180 30109 40156 71042 8452/ 333 58003 70000 84615 88458==
41858,2024,12,09,09,00,AAXX 09094 41858 01420 82402 10214 20170 30084 40130 71022 8452/ 333 58010 70000 84615 88458==
41858,2024,12,09,12,00,AAXX 09124 41858 01418 80000 10184 20150 30073 40120 71022 8452/ 333 10216 59006 70000 84615 88458==
41858,2024,12,09,15,00,AAXX 09154 41858 01901 00000 10150 20140 30090 40137 74340 89/// 333 58005 70000==
41858,2024,12,09,18,00,AAXX 09184 41858 01901 00000 10145 20140 30100 40148 74344 89/// 333 58007 70000==
41858,2024,12,09,21,00,AAXX 09214 41858 01901 00000 10152 20140 30083 40131 74544 89/// 333 58003 70000==
41858,2024,12,10,00,00,AAXX 10004 41858 01901 00000 10160 20150 30087 40134 74544 89/// 333 58002 70000==
41858,2024,12,10,03,00,AAXX 10034 41858 01307 80000 10166 20160 30111 40158 74444 8562/ 333 20145 59001 70000 84708 84615 88458==
41858,2024,12,10,06,00,AAXX 10064 41858 01418 70000 10196 20150 30106 40153 71042 84520 333 59003 70000 84615 86458==
41858,2024,12,10,09,00,AAXX 10094 41858 01925 02102 10222 20150 30079 40125 71020 333 59005 70000==
41858,2024,12,10,12,00,AAXX 10124 41858 01920 00000 10182 20150 30089 40136 71000 333 10224 58016 70000==
41858,2024,12,10,15,00,AAXX 10154 41858 01915 00000 10160 20140 30111 40158 71000 333 58021 70000==
41858,2024,12,10,18,00,AAXX 10184 41858 01915 00000 10150 20140 30117 40165 71000 333 58017 71000==
41858,2024,12,10,21,00,AAXX 10214 41858 01904 00000 10150 20140 30117 40165 74440 333 58034 70000==
41858,2024,12,11,00,00,AAXX 11004 41858 01900 00000 10150 20140 30118 40166 74540 89/// 333 58031 70000==
41858,2024,12,11,03,00,AAXX 11034 41858 01305 80000 10166 20160 30136 40183 74442 8562/ 333 20138 58025 70000 84708 85614 88458==
41858,2024,12,11,06,00,AAXX 11064 41858 01415 60000 10195 20160 30123 40170 71042 83520 333 58017 70000 83615 85458==
41858,2024,12,11,09,00,AAXX 11094 41858 01420 42705 10226 20170 30095 40141 71022 84500 333 58016 70000 84618==
41858,2024,12,11,12,00,AAXX 11124 41858 01415 42705 10174 20140 30090 40137 71022 84500 333 10228 58001 70000 84618==
41858,2024,12,11,15,00,AAXX 11154 41858 01918 02802 10160 20140 30103 40149 71020 333 59008 70000==
41858,2024,12,11,18,00,AAXX 11184 41858 01915 00000 10156 20140 30111 40158 71000 333 59006 70000==
41858,2024,12,12,00,00,AAXX 12004 41858 01901 00000 10154 20140 30091 40139 59000 74540 333 59027 70000==
41858,2024,12,12,03,00,AAXX 12034 41858 01303 80000 10160 20150 30118 40165 74444 8672/ 333 20142 59018 70000 86708 88458==
41858,2024,12,12,06,00,AAXX 12064 41858 01415 60305 10190 20160 30109 40156 71042 84520 333 59014 70000 83615 86458==
41858,2024,12,12,09,00,AAXX 12094 41858 01930 03105 10232 20160 30074 40120 70500 333 59021 70000==
41858,2024,12,12,12,00,AAXX 12124 41858 01930 00000 10196 20170 30075 40121 70500 333 10234 59015 70000==
41858,2024,12,12,15,00,AAXX 12154 41858 01925 00000 10170 20150 30097 40144 71000 333 59006 70000==
41858,2024,12,12,18,00,AAXX 12184 41858 01918 00000 10158 20140 30107 40154 71000 333 59004 70000==
41858,2024,12,12,21,00,AAXX 12214 41858 01912 00000 10134 20120 30093 40141 71000 333 59011 70000==
41859,2024,12,06,00,00,AAXX 06004 41859 01930 00000 10156 20150 30086 40124 70500 333 59001 70000==
41859,2024,12,06,03,00,AAXX 06034 41859 31950 00000 10176 20140 30105 40143 70500 333 20150 59007 70000=
41859,2024,12,06,06,00,AAXX 06064 41859 01950 00000 10231 20140 30091 40129 70500 333 59005 70000==
41859,2024,12,06,09,00,AAXX 06094 41859 01950 02301 10255 20140 30061 40098 70500 333 59007 70000==
41859,2024,12,06,12,00,AAXX 06124 41859 01930 00000 10201 20170 30067 40105 70500 333 10257 59002 70000==
41859,2024,12,06,15,00,AAXX 06154 41859 01930 00000 10172 20160 30090 40129 70500 333 58004 70000==
41859,2024,12,06,18,00,AAXX 06184 41859 01930 00000 10157 20157 30091 40130 70500 333 58002 70000==
41859,2024,12,06,21,00,AAXX 06214 41859 01930 00000 10143 20140 30088 40127 70500 333 58002 70000==
41859,2024,12,07,00,00,AAXX 07004 41859 01930 00000 10132 20130 30087 40126 70500 333 58001 70000==
41859,2024,12,07,03,00,AAXX 07033 41859 01940 00000 10168 20140 30106 40145 70500 333 20127 58001 70000==
41859,2024,12,07,06,00,AAXX 07064 41859 01940 01301 10237 20140 30098 40136 70500 333 58007 70000==
41859,2024,12,07,09,00,AAXX 07094 41859 01440 60501 10245 20190 30077 40114 70520 83510 333 58016 70000 83618 86458==
41859,2024,12,07,12,00,AAXX 07124 41859 01430 60502 10207 20190 30088 40126 70522 84610 333 10250 58021 70000 82710 83618 86458==
41859,2024,12,07,15,00,AAXX 07154 41859 01920 00501 10178 20160 30109 40147 70520 333 58019 70000==
41859,2024,12,07,18,00,AAXX 07184 41859 01908 00000 10161 20160 30105 40144 74120 333 58014 70000==
41859,2024,12,07,21,00,AAXX 07214 41859 01907 00000 10141 20140 30098 40137 74144 333 58010 70000==
41859,2024,12,08,00,00,AAXX 08004 41859 01907 00000 10151 20150 30100 40139 74144 333 58013 70000==
41859,2024,12,08,03,00,AAXX 08034 41859 01408 80000 10165 20165 30122 40161 72844 8561/ 333 20140 58016 70000 83710 85618 88458==
41859,2024,12,08,06,00,AAXX 08064 41859 01440 50000 10227 20180 30111 40149 70542 83510 333 58013 70000 83618 85458==
41859,2024,12,08,09,00,AAXX 08094 41859 01440 50501 10245 20160 30079 40116 70522 83510 333 58002 70000 83618 85458==
41859,2024,12,08,12,00,AAXX 08124 41859 01430 50000 10204 20190 30084 40122 70522 83510 333 10246 59004 70000 83618 85458==
41859,2024,12,08,15,00,AAXX 08154 41859 01430 50000 10178 20170 30090 40128 70522 82530 333 59019 70000 82618 83362==
41859,2024,12,08,18,00,AAXX 08184 41859 01/30 30000 10164 20150 30086 40125 70522 83030 333 59019 70000 83362==
41859,2024,12,08,21,00,AAXX 08214 41859 01908 00000 10152 20140 30086 40125 74142 89/// 333 59012 70000==
41859,2024,12,09,00,00,AAXX 09004 41859 01908 00000 10140 20140 30091 40130 74142 89/// 333 59009 70000==
41859,2024,12,09,03,00,AAXX 09034 41859 01440 50000 10161 20150 30119 40158 70542 82520 333 20137 59003 70000 82618 85458==
41859,2024,12,09,06,00,AAXX 09064 41859 01440 80000 10201 20170 30111 40149 70542 8562/ 333 58000 70000 82710 84618 88458==
41859,2024,12,09,09,00,AAXX 09094 41859 01440 82301 10210 20170 30089 40127 70522 8562/ 333 58010 70000 84616 88458==
41859,2024,12,09,12,00,AAXX 09124 41859 01430 80000 10193 20180 30080 40118 70522 8562/ 333 10214 59004 70000 82710 84618 88458==
41859,2024,12,09,15,00,AAXX 09154 41859 01905 00000 10178 20178 30099 40137 74722 89/// 333 58009 70000==
41859,2024,12,09,18,00,AAXX 09184 41859 01905 00000 10175 20175 30094 40132 74542 89/// 333 58008 70000==
41859,2024,12,09,21,00,AAXX 09214 41859 01905 00000 10170 20170 30090 40129 74544 89/// 333 58004 70000==
41859,2024,12,10,00,00,AAXX 10004 41859 01905 00000 10157 20157 30093 40132 74544 89/// 333 58002 70000==
41859,2024,12,10,03,00,AAXX 10034 41859 01408 80000 10158 20158 30120 40159 74144 8452/ 333 20146 58001 70000 84616 88458==
41859,2024,12,10,06,00,AAXX 10064 41859 01440 82702 10191 20150 30112 40150 70542 8452/ 333 58001 70000 84616 88458==
41859,2024,12,10,09,00,AAXX 10094 41859 01450 62702 10220 20160 30087 40125 70522 83510 333 59002 70000 83616 86458==
41859,2024,12,10,12,00,AAXX 10124 41859 01440 60000 10183 20160 30095 40133 70522 83520 333 10220 59015 70000 83618 86458==
41859,2024,12,10,15,00,AAXX 10154 41859 01430 50000 10168 20150 30123 40161 70522 82520 333 59024 70000 82618 85458==
41859,2024,12,10,18,00,AAXX 10184 41859 01907 00000 10152 20150 30131 40170 74742 89/// 333 59037 70000==
41859,2024,12,10,21,00,AAXX 10214 41859 01905 00000 10146 20146 30128 40167 74544 89/// 333 59038 70000==
41859,2024,12,11,00,00,AAXX 11004 41859 01905 00000 10141 20140 30125 40164 74544 89/// 333 59032 70000==
41859,2024,12,11,03,00,AAXX 11034 41859 01905 00000 10160 20160 30145 40184 74544 89/// 333 20128 58025 70000==
41859,2024,12,11,06,00,AAXX 11064 41859 01450 70000 10190 20160 30133 40171 70542 84520 333 58021 70000 84616 87458==
41859,2024,12,11,09,00,AAXX 11094 41859 01450 62302 10227 20160 30099 40137 70522 83510 333 58012 70000 83616 86458==
41859,2024,12,11,12,00,AAXX 11124 41859 01930 02701 10180 20160 30098 40136 70520 333 10228 58003 70000==
41859,2024,12,11,15,00,AAXX 11154 41859 01930 00000 10157 20157 30109 40148 70520 333 59014 70000==
41859,2024,12,11,18,00,AAXX 11184 41859 01908 00000 10160 20150 30107 40146 74744 89/// 333 59024 70000==
41859,2024,12,11,21,00,AAXX 11214 41859 01905 00000 10158 20158 30102 40141 74544 89/// 333 59026 70000==
41859,2024,12,12,00,00,AAXX 12004 41859 01905 00501 10154 20150 30097 40136 74544 89/// 333 59028 70000==
41859,2024,12,12,03,00,AAXX 12034 41859 01909 00501 10160 20150 30121 40160 74544 89/// 333 20148 59024 70000==
41859,2024,12,12,06,00,AAXX 12064 41859 01430 83102 10186 20160 30111 40149 70544 8562/ 333 59022 70000 82710 83618 88458==
41859,2024,12,12,09,00,AAXX 12094 41859 01950 03602 10230 20170 30079 40117 70520 333 59020 70000==
41859,2024,12,12,12,00,AAXX 12124 41859 01930 00000 10195 20180 30083 40121 70520 333 10230 59015 70000==
41859,2024,12,12,15,00,AAXX 12154 41859 01930 00000 10166 20160 30105 40144 70500 333 59004 70000==
41859,2024,12,12,18,00,AAXX 12184 41859 01930 00000 10160 20150 30107 40146 70500 333 58000 70000==
41859,2024,12,12,21,00,AAXX 12214 41859 01930 00000 10138 20138 30105 40144 70500 333 58003 70000==
41863,2024,12,06,00,00,AAXX 06004 41863 01940 00000 10132 20120 30078 40123 70500 333 59005 70000==
41863,2024,12,06,03,00,AAXX 06034 41863 01950 02702 10170 20130 30100 40145 70500 333 20118 59004 70000==
41863,2024,12,06,06,00,AAXX 06064 41863 02956 02704 10235 20140 30087 40130 333 59005 70000==
41863,2024,12,06,09,00,AAXX 06094 41863 02956 02703 10261 20070 30055 40098 333 59008 70000==
41863,2024,12,06,12,00,AAXX 06124 41863 01950 00000 10191 20140 30059 40103 70500 333 10261 59005 70000==
41863,2024,12,06,15,00,AAXX 06154 41863 01940 00000 10191 20130 30084 40129 70500 333 58003 70000==
41863,2024,12,06,18,00,AAXX 06184 41863 01940 00000 10130 20120 30087 40132 70500 333 58007 70000==
41863,2024,12,06,21,00,AAXX 06214 41863 01940 00000 10118 20110 30083 40128 70500 333 58004 70000==
41863,2024,12,07,00,00,AAXX 07004 41863 01940 00000 10110 20100 30084 40130 70500 333 58006 70000==
41863,2024,12,07,03,00,AAXX 07033 41863 01950 00000 10155 20130 30102 40147 70500 333 20101 58002 70000==
41863,2024,12,07,06,00,AAXX 07064 41863 02956 00000 10242 20110 30096 40139 333 58009 70000==
41863,2024,12,07,09,00,AAXX 07094 41863 02956 00000 10260 20110 30072 40115 333 58017 70000==
41863,2024,12,07,12,00,AAXX 07124 41863 01950 00000 10190 20150 30080 40124 70500 333 10261 58021 70000==
41863,2024,12,07,15,00,AAXX 07154 41863 01940 00000 10155 20150 30104 40149 70500 333 58020 70000==
41863,2024,12,07,18,00,AAXX 07184 41863 01940 00000 10136 20130 30108 40153 70500 333 58021 70000==
41863,2024,12,07,21,00,AAXX 07214 41863 01940 00000 10145 20140 30099 40144 70500 333 58016 70000==
41863,2024,12,08,00,00,AAXX 08004 41863 01925 00000 10150 20140 30096 40141 71000 333 58012 70000==
41863,2024,12,08,03,00,AAXX 08034 41863 01902 00000 10159 20250 30117 40162 74540 89/// 333 20135 58015 70000==
41863,2024,12,08,06,00,AAXX 08063 41863 01940 00000 10220 20180 30106 40150 70540 333 58010 70000==
41863,2024,12,08,09,00,AAXX 08094 41863 02956 00000 10246 20180 30077 40120 333 58005 70000==
41863,2024,12,08,12,00,AAXX 08124 41863 01950 00000 10200 20170 30081 40125 70500 333 10252 58001 70000==
41863,2024,12,08,15,00,AAXX 08154 41863 01940 00000 10165 20160 30087 40132 70500 333 59014 70000==
41863,2024,12,08,18,00,AAXX 08184 41863 01930 00000 10150 20140 30085 40130 70500 333 59020 70000==
41863,2024,12,08,21,00,AAXX 08214 41863 01930 00000 10145 20140 30081 40126 70500 333 59018 70000==
41863,2024,12,09,00,00,AAXX 09004 41863 01905 00000 10142 20140 30087 40132 74340 89/// 333 59009 70000==
41863,2024,12,09,03,00,AAXX 09034 41863 01908 00000 10170 20160 30114 40159 74344 89/// 333 20132 59003 70000==
41863,2024,12,09,06,00,AAXX 09064 41863 01440 80501 10195 20180 30112 40156 70544 8552/ 333 58006 70000 85618 88458==
41863,2024,12,09,09,00,AAXX 09094 41863 01440 80000 10210 20180 30085 40129 70522 8552/ 333 58008 70000 85617 88458==
41863,2024,12,09,12,00,AAXX 09124 41863 01932 00000 10191 20170 30073 40117 70522 8452/ 333 10215 59008 70000 84617 88458==
41863,2024,12,09,15,00,AAXX 09154 41863 01902 00000 10176 20176 30092 40136 74640 333 58005 70000==
41863,2024,12,09,18,00,AAXX 09184 41863 01902 00000 10163 20160 30095 40140 74744 89/// 333 58010 70000==
41863,2024,12,09,21,00,AAXX 09214 41863 01902 00000 10155 20155 30093 40138 74544 89/// 333 58012 70000==
41863,2024,12,10,00,00,AAXX 10004 41863 01905 00000 10152 20150 30094 40139 74244 333 58007 70000==
41863,2024,12,10,03,00,AAXX 10034 41863 01915 00000 10156 20155 30115 40160 71044 333 20135 58001 70000==
41863,2024,12,10,06,00,AAXX 10064 41863 01940 80000 10178 20150 30108 40152 70542 8352/ 333 59004 70000 83616 88458==
41863,2024,12,10,09,00,AAXX 10094 41863 02/50 30000 10208 20160 30083 40127 83030 333 59002 70000 83362==
41863,2024,12,10,12,00,AAXX 10124 41863 01950 00000 10180 20150 30088 40132 70500 333 10210 58015 70000==
41863,2024,12,10,15,00,AAXX 10154 41863 01940 00000 10140 20130 30116 40161 70500 333 58024 70000==
41863,2024,12,10,18,00,AAXX 10184 41863 01925 00000 10135 20130 30122 40167 71000 333 58027 70000==
41863,2024,12,10,21,00,AAXX 10214 41863 01903 00000 10134 20120 30119 40164 74340 89/// 333 59026 70000==
41863,2024,12,11,00,00,AAXX 11004 41863 01902 00000 10144 20130 30117 40162 74544 89/// 333 59023 70000==
41863,2024,12,11,03,00,AAXX 11034 41863 01901 00000 10148 20147 30140 40185 74744 89/// 333 20130 58025 70000==
41863,2024,12,11,06,00,AAXX 11064 41863 01925 00501 10172 20160 30131 40176 71044 333 58023 70000==
41863,2024,12,11,09,00,AAXX 11094 41863 01935 80000 10175 20160 30100 40144 70510 8252/ 333 58017 70000 82616 88458==
41863,2024,12,11,12,00,AAXX 11124 41863 01925 83302 10161 20150 30094 40139 71020 8252/ 333 10177 58006 70000 82616 88458==
41863,2024,12,11,15,00,AAXX 11154 41863 01412 80000 10161 20150 30106 40151 71042 8452/ 333 58010 70000 84617 88458==
41863,2024,12,11,18,00,AAXX 11184 41863 01410 80000 10160 20150 30100 40145 71042 8452/ 333 59022 70000 84617 88458==
41863,2024,12,12,00,00,AAXX 12004 41863 01410 80000 10146 20140 30096 40141 71042 8452/ 333 59021 70000 84617 88458==
41863,2024,12,12,03,00,AAXX 12034 41863 01415 80000 10145 20140 30122 40167 71042 8352/ 333 20129 59018 70000 83616 88458==
41863,2024,12,12,06,00,AAXX 12064 41863 01940 00102 10191 20150 30110 40154 70542 333 59021 70000==
41863,2024,12,12,09,00,AAXX 12094 41863 02950 02702 10232 20160 30076 40120 333 59024 70000==
41863,2024,12,12,12,00,AAXX 12124 41863 01940 00000 10182 20160 30078 40122 70500 333 10235 59016 70000==
41863,2024,12,12,15,00,AAXX 12154 41863 01930 00000 10148 20140 30101 40146 70500 333 59005 70000==
41863,2024,12,12,18,00,AAXX 12184 41863 01920 00000 10135 20130 30102 40147 71000 333 58002 70000==
41863,2024,12,12,21,00,AAXX 12214 41863 01920 00000 10132 20120 30097 40142 71040 333 58001 70000==
41881,2024,12,06,00,00,AAXX 06004 41881 31915 00000 10122 20120 30101 40123 71000 333 59012 70000=
41881,2024,12,06,03,00,AAXX 06034 41881 32950 02801 10191 20130 30124 40145 333 20120 59004 70000=
41881,2024,12,06,06,00,AAXX 06064 41881 32957 02705 10252 20050 30108 40128 333 59005 70000=
41881,2024,12,06,09,00,AAXX 06094 41881 32958 02708 10262 20050 30081 40101 333 59003 70000=
41881,2024,12,06,12,00,AAXX 06124 41881 32956 02703 10175 20120 30088 40108 333 10270 59002 70000=
41881,2024,12,06,15,00,AAXX 06154 41881 32950 02801 10140 20130 30110 40131 333 58005 70000=
41881,2024,12,06,18,00,AAXX 06184 41881 NIL=
41881,2024,12,06,21,00,AAXX 06214 41881 31930 00000 10110 20110 30107 40128 70500 333 58000 70000=
41881,2024,12,07,00,00,AAXX 07004 41881 31912 02601 10100 20100 30105 40126 71000 333 58004 70000=
41881,2024,12,07,03,00,AAXX 07033 41881 32950 02601 10162 20130 30126 40147 333 20099 58002 70000=
41881,2024,12,07,06,00,AAXX 07064 41881 32956 03501 10244 20090 30116 40136 333 58008 70000=
41881,2024,12,07,09,00,AAXX 07094 41881 32957 00000 10250 20080 30094 40114 333 58013 70000=
41881,2024,12,07,12,00,AAXX 07124 41881 32956 00000 10192 20130 30101 40121 333 10260 58013 70000=
41881,2024,12,07,15,00,AAXX 07154 41881 32950 00000 10140 20130 30126 40147 333 58016 70000=
41881,2024,12,07,21,00,AAXX 07214 41881 31904 00000 10118 20118 30121 40142 74240 333 58014 70000=
41881,2024,12,08,00,00,AAXX 08004 41881 31902 00000 10107 20107 30116 40137 74644 333 58011 70000=
41881,2024,12,08,03,00,AAXX 08034 41881 31908 03601 10145 20145 30141 40162 74244 333 20106 58015 70000=
41881,2024,12,08,06,00,AAXX 08063 41881 31950 00401 10235 20170 30126 40147 70044 333 58010 70000=
41881,2024,12,08,09,00,AAXX 08094 41881 32956 02701 10256 20140 30095 40115 333 58001 70000=
41881,2024,12,08,12,00,AAXX 08124 41881 32950 03601 10196 20170 30100 40121 333 10262 59001 70000=
41881,2024,12,08,15,00,AAXX 08154 41881 32950 00000 10160 20150 30110 40131 333 59016 70000=
41881,2024,12,08,18,00,AAXX 08184 41881 32950 00000 10146 20140 30113 40134 333 59015 70000=
41881,2024,12,08,21,00,AAXX 08214 41881 31908 00000 10136 20136 30109 40130 74240 333 59012 70000=
41881,2024,12,09,00,00,AAXX 09004 41881 31904 00000 10126 20126 30104 40125 74644 333 59012 70000=
41881,2024,12,09,03,00,AAXX 09034 41881 31408 60000 10151 20150 30137 40158 74244 83520 333 20124 56990 59004 70000 83618 86460=
41881,2024,12,09,06,00,AAXX 09064 41881 31430 82701 10180 20170 30134 40155 70544 8552/ 333 56999 70000 85618 88459=
41881,2024,12,09,09,00,AAXX 09094 41881 31430 82701 10190 20180 30108 40129 70522 8552/ 333 56999 58013 70000 85618 88459=
41881,2024,12,09,12,00,AAXX 09124 41881 31430 82701 10185 20180 30103 40124 70522 8552/ 333 10195 56999 58003 70000 85618 88459=
41881,2024,12,09,15,00,AAXX 09154 41881 31930 00000 10160 20150 30111 40132 70500 333 58001 70000=
41881,2024,12,09,18,00,AAXX 09184 41881 31915 02701 10154 20140 30119 40140 71000 333 58006 70000=
41881,2024,12,09,21,00,AAXX 09214 41881 31908 00000 10144 20140 30117 40138 74240 333 58008 70000=
41881,2024,12,10,00,00,AAXX 10004 41881 31904 00000 10133 20130 30115 40136 74644 333 58011 70000=
41881,2024,12,10,03,00,AAXX 10034 41881 31408 82701 10150 20150 30140 40161 74244 8552/ 333 20131 56999 58003 70000 85618 88459=
41881,2024,12,10,06,00,AAXX 10064 41881 31450 82801 10180 20160 30132 40152 70244 8552/ 333 56999 59002 70000 85618 88460=
41881,2024,12,10,09,00,AAXX 10094 41881 32956 00000 10195 20160 30107 40127 333 59001 70000=
41881,2024,12,10,12,00,AAXX 10124 41881 31940 00000 10160 20150 30113 40133 70500 333 10205 58010 70000=
41881,2024,12,10,15,00,AAXX 10154 41881 31915 00000 10134 20130 30139 40160 71000 333 58018 70000=
41881,2024,12,10,18,00,AAXX 10184 41881 31904 00000 10120 20120 30143 40164 333 58024 70000=
41881,2024,12,10,21,00,AAXX 10214 41881 31903 00000 10120 20120 30141 40162 74444 333 58024 70000=
41881,2024,12,11,00,00,AAXX 11004 41881 31902 03601 10120 20120 30139 40160 74644 333 58024 70000=
41881,2024,12,11,03,00,AAXX 11034 41881 31903 00000 10132 20130 30163 40185 74444 333 20117 58023 70000=
41881,2024,12,11,06,00,AAXX 11064 41881 31908 03601 10158 20158 30151 40172 74244 333 58019 70000=
41881,2024,12,11,09,00,AAXX 11094 41881 31420 83601 10167 20160 30119 40140 71044 8552/ 333 56199 58012 70000 85620 88460=
41881,2024,12,11,12,00,AAXX 11124 41881 31915 03601 10150 20150 30116 40137 71044 333 10172 58003 70000=
41881,2024,12,11,15,00,AAXX 11154 41881 31902 03601 10142 20140 30126 40148 74644 333 59013 70000=
41881,2024,12,11,18,00,AAXX 11184 41881 31903 03601 10142 20140 30125 40147 74644 333 59018 70000=
41881,2024,12,12,00,00,AAXX 12004 41881 31403 03601 10142 20140 30115 40136 74644 8552/ 333 56999 59024 70000 85616 88459=
41881,2024,12,12,03,00,AAXX 12034 41881 31402 83601 10145 20145 30139 40145 74644 8552/ 333 20130 56999 59024 70000 85616 88459=
41881,2024,12,12,06,00,AAXX 12064 41881 31408 83601 10156 20156 30133 40154 74244 8552/ 333 56999 70000 85616 88459=
41881,2024,12,12,12,00,AAXX 12124 41881 32950 02701 10175 20170 30101 40122 333 10210 59015 70000=
41881,2024,12,12,15,00,AAXX 12154 41881 31930 01801 10140 20140 30125 40146 70500 333 59001 70000=
41881,2024,12,12,18,00,AAXX 12184 41881 31915 01801 10126 20126 30134 40155 71000 333 58009 70000=
41881,2024,12,12,21,00,AAXX 12214 41881 31908 03601 10117 20117 30132 40154 74244 333 58012 70000=
41883,2024,12,06,00,00,AAXX 06004 41883 02930 00000 10150 20130 30100 40121 333 59008 70000==
41883,2024,12,06,03,00,AAXX 06034 41883 32950 02702 10200 20130 30124 40145 333 20144 59005 70000=
41883,2024,12,06,06,00,AAXX 06064 41883 02956 02704 10260 20160 30111 40131 333 58000 70000==
41883,2024,12,06,09,00,AAXX 06094 41883 02956 02702 10268 20070 30081 40101 333 59001 70000==
41883,2024,12,06,12,00,AAXX 06124 41883 02930 00000 10205 20110 30085 40106 333 10272 59004 70000==
41883,2024,12,06,15,00,AAXX 06154 41883 02930 00000 10170 20120 30109 40130 333 58005 70000==
41883,2024,12,06,18,00,AAXX 06184 41883 02930 00000 10158 20130 30110 40131 333 58005 70000==
41883,2024,12,06,21,00,AAXX 06214 41883 02930 00000 10144 20120 30103 40124 333 58004 70000==
41883,2024,12,07,00,00,AAXX 07004 41883 02930 00000 10132 20110 30103 40124 333 58003 70000==
41883,2024,12,07,03,00,AAXX 07033 41883 02956 00000 10165 20120 30125 40146 333 20122 58001 70000==
41883,2024,12,07,06,00,AAXX 07064 41883 02956 02704 10236 20100 30133 40154 333 58022 70000==
41883,2024,12,07,09,00,AAXX 07094 41883 02950 00000 10260 20090 30094 40114 333 58013 70000==
41883,2024,12,07,12,00,AAXX 07124 41883 02930 00000 10195 20130 30103 40124 333 10265 58018 70000==
41883,2024,12,07,15,00,AAXX 07154 41883 02930 00000 10166 20130 30125 40146 333 58016 70000==
41883,2024,12,07,18,00,AAXX 07184 41883 02930 00000 10156 20130 30120 40141 333 58010 70000==
41883,2024,12,07,21,00,AAXX 07214 41883 02930 00000 10150 20130 30111 40132 333 58008 70000==
41883,2024,12,08,00,00,AAXX 08004 41883 01930 00000 10144 20140 30114 40135 70500 333 58011 70000==
41883,2024,12,08,03,00,AAXX 08034 41883 01950 00000 10192 20160 30140 40161 70500 333 20138 58015 70000==
41883,2024,12,08,06,00,AAXX 08064 41883 02956 00000 10245 20150 30123 40143 333 59010 70000==
41883,2024,12,08,09,00,AAXX 08094 41883 02950 02701 10260 20140 30094 40114 333 58000 70000==
41883,2024,12,08,12,00,AAXX 08124 41883 02930 00000 10200 20140 30101 40122 333 10265 59002 70000==
41883,2024,12,08,15,00,AAXX 08154 41883 02930 00000 10175 20160 30109 40130 333 59016 70000==
41883,2024,12,08,18,00,AAXX 08184 41883 02930 00000 10168 20150 30108 40129 333 59012 70000==
41883,2024,12,08,21,00,AAXX 08214 41883 02930 00000 10160 20150 30103 40124 333 59008 70000==
41883,2024,12,09,00,00,AAXX 09004 41883 02930 00000 10145 20140 30107 40128 333 59007 70000==
41883,2024,12,09,03,00,AAXX 09034 41883 01440 80000 10180 20160 30135 40156 70520 8352/ 333 20140 59005 70000 83618 88458==
41883,2024,12,09,06,00,AAXX 09064 41883 01450 80000 10196 20180 30129 40150 70522 8452/ 333 58006 70000 84618 88458==
41883,2024,12,09,09,00,AAXX 09094 41883 01450 80000 10200 20170 30104 40125 70522 8452/ 333 58010 70000 84618 88458==
41883,2024,12,09,12,00,AAXX 09124 41883 01430 80000 10194 20180 30100 40121 70522 8452/ 333 10200 59001 70000 84618 88458==
41883,2024,12,09,15,00,AAXX 09154 41883 01930 00000 10180 20170 30114 40135 70520 333 58005 70000==
41883,2024,12,09,18,00,AAXX 09184 41883 01430 62702 10176 20170 30114 40135 70520 82520 333 58006 70000 82616 86459==
41883,2024,12,09,21,00,AAXX 09214 41883 01430 60000 10168 20160 30110 40131 70522 83520 333 58007 70000 82616 86459==
41883,2024,12,10,00,00,AAXX 10004 41883 01430 60000 10160 20150 30112 40133 70522 82520 333 58005 70000 82616 86459==
41883,2024,12,10,03,00,AAXX 10034 41883 01340 80000 10160 20150 30136 40157 70522 8562/ 333 20152 58001 70000 85710 88458==
41883,2024,12,10,06,00,AAXX 10064 41883 01450 62303 10192 20150 30131 40152 70522 83510 333 58002 70000 83616 86459==
41883,2024,12,10,09,00,AAXX 10094 41883 01950 00000 10220 20160 30106 40127 70500 333 58002 70000==
41883,2024,12,10,12,00,AAXX 10124 41883 01930 00000 10185 20170 30111 40132 70500 333 10220 58011 70000==
41883,2024,12,10,15,00,AAXX 10154 41883 01930 00000 10170 20160 30136 40157 70500 333 58022 70000==
41883,2024,12,10,18,00,AAXX 10184 41883 01930 00000 10160 20150 30141 40162 70500 333 58022 70000==
41883,2024,12,10,21,00,AAXX 10214 41883 01930 00000 10156 20150 30133 40154 70500 333 58023 70000==
41883,2024,12,11,00,00,AAXX 11004 41883 01930 00000 10140 30135 40156 70500 333 58023 70000==
41883,2024,12,11,03,00,AAXX 11034 41883 01940 00000 10157 20150 30161 40182 70500 333 20144 58025 70000==
41883,2024,12,11,06,00,AAXX 11064 41883 01950 03102 10190 20160 30146 40167 70500 333 58015 70000==
41883,2024,12,11,09,00,AAXX 11094 41883 01950 02702 10205 20160 30116 40137 70500 333 58010 70000==
41883,2024,12,11,12,00,AAXX 11124 41883 01930 03202 10167 20160 30115 40136 70500 333 10210 58004 70000==
41883,2024,12,11,15,00,AAXX 11154 41883 01930 00000 10158 20150 30123 40144 70500 333 58012 70000==
41883,2024,12,11,18,00,AAXX 11184 41883 01930 00000 10150 20140 30125 40146 70500 333 59016 70000==
41883,2024,12,11,21,00,AAXX 11214 41883 01930 00000 10144 20130 30119 40140 70500 333 59014 70000==
41883,2024,12,12,00,00,AAXX 12004 41883 01930 00000 10140 20130 30114 40135 70500 333 59021 70000==
41883,2024,12,12,03,00,AAXX 12034 41883 01440 82702 10160 20150 30136 40157 70520 8352/ 333 20138 59025 70000 83618 88458==
41883,2024,12,12,06,00,AAXX 12064 41883 01450 82702 10188 20140 30131 40152 70522 8462/ 333 59015 70000 82710 83618 88458==
41883,2024,12,12,09,00,AAXX 12094 41883 01950 02702 10220 20150 30096 40117 70510 333 59020 70000==
41883,2024,12,12,12,00,AAXX 12124 41883 01930 00000 10175 20160 30102 40123 70500 333 10222 59013 70000==
41883,2024,12,12,15,00,AAXX 12154 41883 01930 00000 10156 20150 30125 40146 70500 333 58002 70000==
41883,2024,12,12,18,00,AAXX 12184 41883 01930 00000 10150 20140 30125 40146 70500 333 58000 70000==
41883,2024,12,12,21,00,AAXX 12214 41883 01930 00000 10140 20130 30121 40142 70500 333 58002 70000==
41886,2024,12,06,00,00,AAXX 06004 41886 01901 00000 10166 20166 30107 40128 74544 89/// 333 59005 70000==
41886,2024,12,06,03,00,AAXX 06034 41886 01915 00501 10182 20170 30128 40149 71044 333 20158 59006 70000==
41886,2024,12,06,06,00,AAXX 06064 41886 01940 00000 10245 20190 30113 40134 70540 333 59007 70000==
41886,2024,12,06,09,00,AAXX 06094 41886 02950 00000 10265 20080 30082 40103 333 59005 70000==
41886,2024,12,06,12,00,AAXX 06124 41886 01950 00000 10193 20150 30091 40112 70500 333 10266 59001 70000==
41886,2024,12,06,15,00,AAXX 06154 41886 01940 00000 10157 20140 30113 40135 70500 333 58006 70000==
41886,2024,12,06,18,00,AAXX 06184 41886 NIL=
41886,2024,12,07,00,00,AAXX 07004 41886 01915 00000 10140 20140 30107 40129 71044 333 58000 70000==
41886,2024,12,07,03,00,AAXX 07033 41886 01925 00000 10180 20160 30129 40150 71044 333 20134 58001 70000==
41886,2024,12,07,06,00,AAXX 07064 41886 01950 00000 10240 20140 30118 40139 70540 333 58005 70000==
41886,2024,12,07,09,00,AAXX 07094 41886 02956 02703 10256 20070 30096 40117 333 58014 70000==
41886,2024,12,07,12,00,AAXX 07124 41886 01950 02302 10185 20140 30108 40129 70500 333 10264 58017 70000==
41886,2024,12,07,15,00,AAXX 07154 41886 01950 00000 10150 20130 30128 40150 70500 333 58015 70000==
41886,2024,12,07,18,00,AAXX 07184 41886 01950 00000 10146 20140 30124 40146 70500 333 58009 70000==
41886,2024,12,07,21,00,AAXX 07214 41886 01940 00000 10142 20140 30120 40142 70500 333 58008 70000==
41886,2024,12,08,00,00,AAXX 08004 41886 01902 00502 10140 20140 30123 40145 74540 89/// 333 58016 70000==
41886,2024,12,08,03,00,AAXX 08034 41886 01902 00902 10162 20160 30141 40163 74544 89/// 333 20110 58012 70000==
41886,2024,12,08,06,00,AAXX 08063 41886 01950 01801 10226 20180 30126 40147 70544 333 58008 70000==
41886,2024,12,08,09,00,AAXX 08094 41886 01950 01302 10252 20120 30097 40118 70544 333 58001 70000==
41886,2024,12,08,12,00,AAXX 08124 41886 01940 00000 10190 20170 30103 40124 70544 333 10260 59005 70000==
41886,2024,12,08,15,00,AAXX 08154 41886 01925 00000 10160 20150 30110 40132 71044 333 59018 70000==
41886,2024,12,08,18,00,AAXX 08184 41886 01906 00000 10150 20150 30108 40130 74244 333 59016 70000==
41886,2024,12,08,21,00,AAXX 08214 41886 01902 00000 10140 20140 30108 40130 74544 89/// 333 59012 70000==
41886,2024,12,09,00,00,AAXX 09004 41886 01901 00000 10126 20126 30113 40135 74544 89/// 333 59010 70000==
41886,2024,12,09,03,00,AAXX 09034 41886 01908 00802 10172 20170 30134 40156 74244 333 20120 59007 70000==
41886,2024,12,09,06,00,AAXX 09064 41886 01/40 70000 10232 20160 30125 40146 70542 87070 333 59001 70000 85460==
41886,2024,12,09,09,00,AAXX 09094 41886 01450 83103 10225 20170 30103 40124 70522 8452/ 333 58006 70000 84616 88458==
41886,2024,12,09,12,00,AAXX 09124 41886 01440 83101 10200 20170 30101 40122 70522 8452/ 333 10241 59002 70000 84616 88458==
41886,2024,12,09,15,00,AAXX 09154 41886 01440 80000 10190 20180 30110 40131 70522 8452/ 333 58000 70000 84616 88458==
41886,2024,12,09,18,00,AAXX 09184 41886 01425 83103 10186 20180 30114 40135 71042 8351/ 333 58006 70000 83618 88460==
41886,2024,12,09,21,00,AAXX 09214 41886 01440 83101 10178 20170 30112 40133 70542 8452/ 333 58004 70000 84616 88458==
41886,2024,12,10,00,00,AAXX 10004 41886 01440 82701 10172 20160 30111 40132 70542 8452/ 333 59002 70000 84616 88458==
41886,2024,12,10,03,00,AAXX 10034 41886 01425 83103 10180 20160 30136 40158 71042 8351/ 333 20170 58002 70000 83618 88460==
41886,2024,12,10,06,00,AAXX 10064 41886 01440 23103 10225 20170 30131 40152 70541 82500 333 58006 70000 82618==
41886,2024,12,10,09,00,AAXX 10094 41886 01950 00000 10245 20150 30106 40127 70510 333 58003 70000==
41886,2024,12,10,12,00,AAXX 10124 41886 NIL=
41886,2024,12,10,15,00,AAXX 10154 41886 01940 02702 10178 20170 30134 40156 70500 333 58023 70000==
41886,2024,12,11,00,00,AAXX 11004 41886 NIL=
41886,2024,12,11,03,00,AAXX 11034 41886 01940 02702 10178 20170 30134 40156 70500 333 58024 70000==
41886,2024,12,11,05,00,AAXX 11054 41886 01912 03102 10167 20160 30160 40181 71044 333 20150 58023 70000==
41886,2024,12,11,06,00,AAXX 11064 41886 01940 03104 10210 20160 30142 40163 70544 333 58011 70000==
41886,2024,12,11,09,00,AAXX 11094 41886 01940 02903 10236 20160 30109 40130 70500 333 58003 70000==
41886,2024,12,11,12,00,AAXX 11124 41886 01930 03002 10197 20170 30110 40131 70500 333 10242 58001 70000==
41886,2024,12,11,15,00,AAXX 11154 41886 01930 00000 10182 20170 30124 40145 70500 333 59010 70000==
41886,2024,12,11,18,00,AAXX 11184 41886 01930 00000 10177 20170 30119 40140 70500 333 59016 70000==
41886,2024,12,12,00,00,AAXX 12004 41886 01930 03602 10165 20160 30115 40136 70500 333 59025 70000==
41886,2024,12,12,03,00,AAXX 12034 41886 01440 60000 10172 20150 30137 40158 70521 83520 333 20160 59022 70000 83618 84460==
41886,2024,12,12,06,00,AAXX 12064 41886 01940 02702 10202 20160 30122 40143 70521 333 59020 70000==
41886,2024,12,12,09,00,AAXX 12094 41886 01950 12704 10236 20170 30093 40114 70510 80001 333 59016 70000 81080==
41886,2024,12,12,12,00,AAXX 12124 41886 01/40 22704 10192 20170 30102 40123 70510 82040 333 10241 59008 70000 82365==
41886,2024,12,12,15,00,AAXX 12154 41886 01940 02702 10168 20160 30124 40145 70541 333 58000 70000==
41886,2024,12,12,18,00,AAXX 12184 41886 01940 00000 10152 20150 30126 40148 70541 333 58007 70000==
41886,2024,12,12,21,00,AAXX 12214 41886 01940 00000 10151 20150 30122 40143 70544 333 58005 70000==
41888,2024,12,06,00,00,AAXX 06004 41888 31/02 91101 10160 20160 30111 40121 74544 89/// 333 59010 70000=
41888,2024,12,06,03,00,AAXX 06034 41888 31920 00502 10190 20170 30130 40143 71044 333 20155 59008 70000=
41888,2024,12,06,06,00,AAXX 06064 41888 31940 00000 10230 20180 30120 40130 70544 333 58002 70000=
41888,2024,12,06,09,00,AAXX 06094 41888 31940 00901 10265 20110 30087 40097 70544 333 59006 70000=
41888,2024,12,06,12,00,AAXX 06124 41888 31940 00000 10215 20160 30096 40106 70544 333 10265 58000 70000=
41888,2024,12,06,15,00,AAXX 06154 41888 31920 00000 10160 20150 30118 40128 71044 333 58005 70000=
41888,2024,12,06,18,00,AAXX 06184 41888 NIL=
41888,2024,12,06,21,00,AAXX 06214 41888 31908 00000 10130 20130 30115 40125 74244 333 58004 70000=
41888,2024,12,07,00,00,AAXX 07004 41888 31908 00000 10125 20125 30115 40125 74244 333 58004 70000=
41888,2024,12,07,03,00,AAXX 07033 41888 31930 00000 10175 20170 30133 40143 71040 333 20125 58000 70000=
41888,2024,12,07,06,00,AAXX 07064 41888 31940 02701 10225 20190 30122 40132 70540 333 58002 70000=
41888,2024,12,07,09,00,AAXX 07094 41888 32956 02701 10260 20100 30101 40111 333 58014 70000=
41888,2024,12,07,12,00,AAXX 07124 41888 31950 02702 10190 20150 30112 40122 70500 333 10265 58016 70000=
41888,2024,12,07,15,00,AAXX 07154 41888 31908 02701 10156 20150 30133 40143 74244 333 58015 70000=
41888,2024,12,07,21,00,AAXX 07214 41888 31906 93201 10134 20130 30127 40138 74544 89/// 333 58012 70000=
41888,2024,12,08,00,00,AAXX 08004 41888 31906 93401 10130 20130 30129 40140 74544 89/// 333 58014 70000=
41888,2024,12,08,03,00,AAXX 08034 41888 31920 00901 10175 20170 30147 40157 71040 333 20130 58014 70000=
41888,2024,12,08,06,00,AAXX 08063 41888 31950 00901 10230 20170 30128 40138 70540 333 56006 70000=
41888,2024,12,08,09,00,AAXX 08094 41888 32956 01201 10255 20130 30101 40111 333 58000 70000=
41888,2024,12,08,12,00,AAXX 08124 41888 31940 01201 10192 20160 30111 40121 70500 333 10263 59001 70000=
41888,2024,12,08,15,00,AAXX 08154 41888 31920 00901 10165 20160 30117 40127 71040 333 59016 70000=
41888,2024,12,08,18,00,AAXX 08184 41888 NIL=
41888,2024,12,08,21,00,AAXX 08214 41888 31906 00000 10128 20128 30120 40130 74544 89/// 333 56999 59007 70000=
41888,2024,12,09,00,00,AAXX 09004 41888 31906 00000 10125 20125 30124 40134 74544 89/// 333 56999 59005 70000=
41888,2024,12,09,03,00,AAXX 09034 41888 31920 00901 10165 20160 30142 40152 71042 333 20125 59005 70000=
41888,2024,12,09,06,00,AAXX 09064 41888 31450 01201 10240 20230 30124 40134 70542 82530 333 56990 59004 70000 82618 83362=
41888,2024,12,09,09,00,AAXX 09094 41888 31450 62701 10220 20120 30107 40117 70540 83520 333 56990 58006 70000 83618 86460=
41888,2024,12,09,12,00,AAXX 09124 41888 31440 41201 10200 20160 30110 40120 70542 82530 333 10245 56990 59001 70000 82618 83362=
41888,2024,12,09,15,00,AAXX 09154 41888 31430 60901 10190 20170 30117 40127 70542 82530 333 56990 58000 70000 82618 84362=
41888,2024,12,09,18,00,AAXX 09184 41888 31420 63101 10180 20170 30118 40128 71042 82510 333 56990 58000 70000 82618 86460=
41888,2024,12,09,21,00,AAXX 09214 41888 31420 62701 10173 20160 30120 40130 74042 82510 333 56990 58000 70000 82618 86460=
41888,2024,12,10,00,00,AAXX 10004 41888 31920 93101 10173 20160 30124 40134 71044 89/// 333 56999 58000 70000=
41888,2024,12,10,03,00,AAXX 10034 41888 31940 93201 10185 20160 30143 40153 70540 83/// 333 20173 56999 58001 70000=
41888,2024,12,10,06,00,AAXX 10064 41888 31450 52701 10232 20150 30131 40141 70542 82510 333 56990 58007 70000 82618 85460=
41888,2024,12,10,09,00,AAXX 10094 41888 32456 23101 10244 20150 30109 40119 81530 333 56990 58002 70000 81618 82362=
41888,2024,12,10,12,00,AAXX 10124 41888 31940 01201 10190 20160 30115 40125 70500 333 10255 58005 70000=
41888,2024,12,10,15,00,AAXX 10154 41888 31930 02701 10170 20150 30138 40148 70500 333 58021 70000=
41888,2024,12,10,21,00,AAXX 10214 41888 31908 03103 10145 20140 30145 40155 74244 333 58021 70000=
41888,2024,12,11,00,00,AAXX 11004 41888 31908 02703 20145 20140 30145 40155 74244 333 58021 70000=
41888,2024,12,11,03,00,AAXX 11034 41888 31920 00502 10157 20140 30164 40174 71044 333 20145 58021 70000=
41888,2024,12,11,06,00,AAXX 11064 41888 31950 03002 10227 20160 30142 40152 70540 333 58011 70000=
41888,2024,12,11,09,00,AAXX 11094 41888 31950 03002 10245 20150 30112 40122 70500 333 58003 70000=
41888,2024,12,11,12,00,AAXX 11124 41888 31940 03001 10190 20160 30115 40125 70500 333 10255 58000 70000=
41888,2024,12,11,15,00,AAXX 11154 41888 31930 03102 10170 20160 30126 40136 71040 333 59012 70000=
41888,2024,12,11,18,00,AAXX 11184 41888 31920 03102 10160 20160 30126 40136 71040 333 59014 70000=
41888,2024,12,11,21,00,AAXX 11214 41888 31920 03102 10160 20160 30125 40135 71044 333 59020 70000=
41888,2024,12,12,00,00,AAXX 12004 41888 31410 63101 10160 20160 30123 40133 71044 83530 333 56990 59022 70000 83618 84360=
41888,2024,12,12,03,00,AAXX 12034 41888 31430 53101 10175 20160 30145 40155 70542 83530 333 20157 56990 59019 70000 83618 83360=
41888,2024,12,12,06,00,AAXX 12064 41888 NIL=
41888,2024,12,12,12,00,AAXX 12124 41888 31940 02701 10210 20170 30099 40109 70500 333 10250 59016 70000=
41888,2024,12,12,15,00,AAXX 12154 41888 31930 02701 10172 20160 30129 40139 70500 333 58003 70000=
41888,2024,12,12,18,00,AAXX 12184 41888 31920 02701 10160 20160 30134 40144 71040 333 58008 70000=
41888,2024,12,12,21,00,AAXX 12214 41888 31908 02701 10160 20160 30133 40143 74244 333 58008 70000=
41891,2024,12,06,00,00,AAXX 06004 41891 01930 00000 10180 20170 30097 40137 70500 333 58002 70000==
41891,2024,12,06,03,00,AAXX 06034 41891 01940 01302 10195 20170 30105 40145 70500 333 20168 59010 70000==
41891,2024,12,06,06,00,AAXX 06064 41891 01940 01803 10228 20190 30086 40125 70500 333 59009 70000==
41891,2024,12,06,09,00,AAXX 06094 41891 01940 00000 10238 20160 30060 40099 70500 333 59004 70000==
41891,2024,12,06,12,00,AAXX 06124 41891 01930 00000 10204 20180 30068 40107 70500 333 10240 59005 70000==
41891,2024,12,06,15,00,AAXX 06154 41891 01930 00000 10186 20180 30086 40126 70500 333 58001 70000==
41891,2024,12,06,18,00,AAXX 06184 41891 NIL=
41891,2024,12,07,00,00,AAXX 07004 41891 01930 00902 10169 20160 30091 40131 70500 333 59006 70000==
41891,2024,12,07,03,00,AAXX 07033 41891 01930 00000 10180 20160 30104 40144 70500 85570 333 20164 59001 70000==
41891,2024,12,07,06,00,AAXX 07064 41891 01430 60000 10210 20140 30094 40133 70520 83570 333 58008 70000 83616 85365==
41891,2024,12,07,09,00,AAXX 07094 41891 01940 00000 10244 20170 30073 40112 70520 333 58013 70000==
41891,2024,12,07,12,00,AAXX 07124 41891 01920 00000 10206 20190 30086 40125 71020 333 10250 58018 70000==
41891,2024,12,07,15,00,AAXX 07154 41891 01920 00000 10185 20180 30104 40144 71000 333 58018 70000==
41891,2024,12,07,18,00,AAXX 07184 41891 01920 00000 10175 20170 30102 40142 71000 333 58013 70000==
41891,2024,12,07,21,00,AAXX 07214 41891 01920 00000 10171 20160 30098 40138 71000 333 58008 70000==
41891,2024,12,08,00,00,AAXX 08004 41891 01920 00902 10159 20150 30093 40133 71000 333 58002 70000==
41891,2024,12,08,03,00,AAXX 08034 41891 01935 01202 10200 20160 30112 40152 70500 333 20155 58008 70000==
41891,2024,12,08,06,00,AAXX 08064 41891 01950 00602 10242 20150 30097 40136 70500 333 58003 70000==
41891,2024,12,08,09,00,AAXX 08094 41891 01950 10000 10250 20120 30072 40111 70500 80001 333 59001 70000 81074==
41891,2024,12,08,12,00,AAXX 08124 41891 01930 00000 10203 20150 30077 40116 70500 333 10260 59009 70000==
41891,2024,12,08,15,00,AAXX 08154 41891 01930 00000 10176 20160 30087 40127 70500 333 59017 70000==
41891,2024,12,08,18,00,AAXX 08184 41891 01930 00000 10170 20160 30091 40131 70500 333 59011 70000==
41891,2024,12,08,21,00,AAXX 08214 41891 01930 00000 10165 20150 30090 40130 70500 333 59008 70000==
41891,2024,12,09,00,00,AAXX 09004 41891 01930 00000 10159 20140 30089 40129 70500 333 59004 70000==
41891,2024,12,09,03,00,AAXX 09034 41891 01940 00000 10206 20150 30115 40155 70500 333 20142 58003 70000==
41891,2024,12,09,06,00,AAXX 09064 41891 01950 00000 10255 20170 30101 40140 70500 333 58004 70000==
41891,2024,12,09,09,00,AAXX 09094 41891 01440 61804 10258 20240 30075 40114 70500 83340 333 58003 70000 83615 85365 81930==
41891,2024,12,09,12,00,AAXX 09124 41891 01430 80000 10222 20180 30076 40115 70520 8532/ 333 10272 59001 70000 81710 84615 88460 81930==
41891,2024,12,09,15,00,AAXX 09154 41891 01430 82902 10212 20140 30084 40123 70522 8532/ 333 59003 70000 82710 84615 88460 81930==
41891,2024,12,09,18,00,AAXX 09184 41891 01430 82702 10205 20160 30082 40121 70522 8532/ 333 59009 70000 81710 84615 88460 81930==
41891,2024,12,09,21,00,AAXX 09214 41891 01430 80000 10182 20170 30085 40125 70522 8532/ 333 59005 70000 81710 84615 88460 81930==
41891,2024,12,10,00,00,AAXX 10004 41891 01430 80000 10174 20160 30090 40130 70522 8532/ 333 58001 70000 81710 84615 88460 81930==
41891,2024,12,10,03,00,AAXX 10034 41891 01925 00000 10204 20180 30114 40154 71020 333 20164 59001 70000==
41891,2024,12,10,06,00,AAXX 10064 41891 01935 00000 10230 20170 30102 40141 70520 333 58001 70000==
41891,2024,12,10,09,00,AAXX 10094 41891 01940 00000 10255 20160 30078 40117 70500 333 58003 70000==
41891,2024,12,10,12,00,AAXX 10124 41891 01930 00000 10210 20160 30080 40119 70500 333 10268 58004 70000==
41891,2024,12,10,15,00,AAXX 10154 41891 01930 03202 10187 20160 30104 40144 70500 333 58020 70000==
41891,2024,12,10,18,00,AAXX 10184 41891 01930 03001 10172 20160 30108 40148 70500 333 58026 70000==
41891,2024,12,10,21,00,AAXX 10214 41891 01930 03202 10166 20160 30110 40150 70500 333 58025 70000==
41891,2024,12,11,00,00,AAXX 11004 41891 01930 00000 10155 20150 30111 40151 70500 333 58021 70000==
41891,2024,12,11,03,00,AAXX 11034 41891 01930 00802 10192 20160 30130 40170 71000 333 20150 58016 70000==
41891,2024,12,11,06,00,AAXX 11064 41891 01950 00902 10240 20150 30108 40147 70500 333 58006 70000==
41891,2024,12,11,09,00,AAXX 11094 41891 01945 01804 10250 20170 30078 40117 70500 333 58000 70000==
41891,2024,12,11,12,00,AAXX 11124 41891 01930 00000 10212 20170 30083 40122 70500 333 10270 58003 70000==
41891,2024,12,11,15,00,AAXX 11154 41891 01930 00000 10182 20160 30094 40134 70500 333 59010 70000==
41891,2024,12,11,18,00,AAXX 11184 41891 01930 00000 10171 20160 30095 40135 70500 333 59013 70000==
41891,2024,12,11,21,00,AAXX 11214 41891 01930 00000 10165 20160 30091 40131 70500 333 59019 70000==
41891,2024,12,12,00,00,AAXX 12004 41891 01920 00902 10162 20150 30088 40128 71000 333 59023 70000==
41891,2024,12,12,03,00,AAXX 12034 41891 01320 80000 10170 20160 30112 40152 71020 8562/ 333 20153 59018 70000 82708 84615 88457==
41891,2024,12,12,06,00,AAXX 12064 41891 01950 00000 10220 20150 30088 40127 70520 333 59020 70000==
41891,2024,12,12,09,00,AAXX 12094 41891 01956 00000 10238 20130 30062 40101 70500 333 59016 70000==
41891,2024,12,12,12,00,AAXX 12124 41891 01930 00000 10208 20170 30073 40112 70500 333 10253 59010 70000==
41891,2024,12,12,15,00,AAXX 12154 41891 01930 00000 10191 20170 30093 40133 70500 333 59001 70000==
41891,2024,12,12,18,00,AAXX 12184 41891 01930 00000 10175 20170 30098 40138 70500 333 59003 70000==
41891,2024,12,12,21,00,AAXX 12214 41891 01930 00000 10175 20170 30098 40138 70500 333 58007 70000==
41895,2024,12,06,00,00,AAXX 06004 41895 01950 00000 10125 20125 30103 40126 70500 333 59005 70000==
41895,2024,12,06,03,00,AAXX 06034 41895 01956 02702 10188 20150 30127 40150 70500 333 20121 59002 70000==
41895,2024,12,06,06,00,AAXX 06064 41895 02958 02706 10264 20070 30113 40135 333 58001 70000==
41895,2024,12,06,09,00,AAXX 06094 41895 02958 02704 10264 20060 30084 40106 333 59004 70000==
41895,2024,12,06,12,00,AAXX 06124 41895 01950 00000 10184 20130 30088 40111 70500 333 10272 59004 70000==
41895,2024,12,06,15,00,AAXX 06154 41895 01950 00000 10150 20140 30108 40131 70500 333 58002 70000==
41895,2024,12,06,18,00,AAXX 06184 41895 NIL=
41895,2024,12,07,00,00,AAXX 07004 41895 01950 03601 10116 20116 30107 40130 70500 333 58004 70000==
41895,2024,12,07,06,00,AAXX 07064 41895 01950 02702 10176 20160 30128 40152 70500 333 20114 58001 70000==
41895,2024,12,07,09,00,AAXX 07094 41895 02957 02703 10254 20090 30098 40120 333 58014 70000==
41895,2024,12,07,12,00,AAXX 07124 41895 01950 00000 10172 20130 30106 40128 70500 333 10258 58018 70000==
41895,2024,12,07,15,00,AAXX 07154 41895 01950 00000 10150 20140 30124 40146 70500 333 58016 70000==
41895,2024,12,07,18,00,AAXX 07184 41895 01950 00000 10135 20130 30125 40147 70500 333 58013 70000==
41895,2024,12,07,21,00,AAXX 07214 41895 01950 00000 10125 20120 30123 40145 70500 333 58014 70000==
41895,2024,12,08,00,00,AAXX 08004 41895 01950 00000 10115 20110 30115 40137 70500 333 58008 70000==
41895,2024,12,08,03,00,AAXX 08034 41895 01930 00000 10172 20150 30141 40164 71000 333 20112 58013 70000==
41895,2024,12,08,06,00,AAXX 08063 41895 01950 02702 10238 20140 30129 40152 70500 333 58008 70000==
41895,2024,12,08,09,00,AAXX 08094 41895 01950 02702 10254 20140 30098 40120 70500 333 58000 70000==
41895,2024,12,08,12,00,AAXX 08124 41895 01950 00000 10190 20160 30100 40123 70500 333 10262 59006 70000==
41895,2024,12,08,15,00,AAXX 08154 41895 01950 00000 10154 20130 30111 40134 70500 333 59013 70000==
41895,2024,12,08,18,00,AAXX 08184 41895 01950 00000 10144 20130 30109 40132 70500 333 59016 70000==
41895,2024,12,08,21,00,AAXX 08214 41895 01950 00000 10139 20130 30105 40128 70500 333 59004 70000==
41895,2024,12,09,00,00,AAXX 09004 41895 01950 00000 10125 20125 30103 40126 70500 333 59005 70000==
41895,2024,12,09,03,00,AAXX 09034 41895 01908 00000 10170 20170 30137 40160 74440 333 20123 59004 70000==
41895,2024,12,09,06,00,AAXX 09064 41895 01409 80000 10185 20180 30129 40152 74244 8551/ 333 58000 70000 85614 88458==
41895,2024,12,09,09,00,AAXX 09094 41895 01406 80000 10185 20180 30104 40127 76164 8452/ 333 58006 70000 84614 88458==
41895,2024,12,09,12,00,AAXX 09124 41895 21405 81803 10179 20170 30100 40123 76164 8452/ 333 10191 58000 60017 70010 84614 88458==
41895,2024,12,09,15,00,AAXX 09154 41895 01405 40000 10148 20148 30117 40140 74444 82530 333 58006 70010 82616 83362==
41895,2024,12,09,18,00,AAXX 09184 41895 01903 00000 10156 20156 30113 40136 74644 89/// 333 58004 70010==
41895,2024,12,09,21,00,AAXX 09214 41895 01903 00000 10152 20150 30115 40138 74544 89/// 333 58010 70010==
41895,2024,12,10,00,00,AAXX 10004 41895 01903 00000 10150 20150 30117 40140 74544 89/// 333 58014 70010==
41895,2024,12,10,03,00,AAXX 10034 41895 01930 00000 10159 20159 30136 40159 74544 89/// 333 20140 59001 70010==
41895,2024,12,10,06,00,AAXX 10064 41895 01420 72302 10186 20170 30131 40154 71044 84510 333 58002 70010 84614 87458==
41895,2024,12,10,09,00,AAXX 10094 41895 01940 00000 10212 20170 30107 40130 70500 333 58003 70010==
41895,2024,12,10,12,00,AAXX 10124 41895 01940 00000 10185 20180 30109 40131 70500 333 10224 58009 70000==
41895,2024,12,10,15,00,AAXX 10154 41895 01940 00000 10150 20150 30137 40159 70500 333 58020 70000==
41895,2024,12,10,18,00,AAXX 10184 41895 01950 00000 10132 20130 30141 40163 70500 333 58028 70000==
41895,2024,12,10,21,00,AAXX 10214 41895 01903 00000 10130 20130 30143 40165 74544 89/// 333 58028 70000==
41895,2024,12,11,00,00,AAXX 11004 41895 01903 00000 10144 20140 30137 40159 74544 89/// 333 58020 70000==
41895,2024,12,11,03,00,AAXX 11034 41895 01901 00000 10143 20143 30161 40184 74744 89/// 333 20130 58025 70000==
41895,2024,12,11,06,00,AAXX 11064 41895 01940 03603 10175 20160 30150 40173 70544 333 58019 70000==
41895,2024,12,11,09,00,AAXX 11094 41895 01950 03603 10221 20120 30116 40139 70500 333 58009 70000==
41895,2024,12,11,12,00,AAXX 11124 41895 01950 00000 10165 20160 30116 40139 70500 333 10230 58007 70000==
41895,2024,12,11,15,00,AAXX 11154 41895 01950 00000 10142 20140 30129 40153 70500 333 59008 70000==
41895,2024,12,11,18,00,AAXX 11184 41895 01950 00000 10125 20125 30125 40148 70500 333 59016 70000==
41895,2024,12,12,00,00,AAXX 12004 41895 01904 00000 10120 20120 30115 40138 74444 333 59022 70000==
41895,2024,12,12,03,00,AAXX 12034 41895 01430 53602 10138 20130 30139 40163 72842 82510 333 20118 59022 70000 82616 85458==
41895,2024,12,12,06,00,AAXX 12064 41895 01940 03604 10193 20140 30126 40149 70540 333 59024 70000==
41895,2024,12,12,09,00,AAXX 12094 41895 01940 00502 10218 20160 30099 40122 70500 333 59017 70000==
41895,2024,12,12,12,00,AAXX 12124 41895 01940 00000 10180 20170 30105 40128 70500 333 10229 59011 70000==
41895,2024,12,12,15,00,AAXX 12154 41895 NIL=
41895,2024,12,12,18,00,AAXX 12184 41895 01940 00000 10130 20120 30128 40152 70500 333 58003 70000==
41895,2024,12,12,21,00,AAXX 12214 41895 01940 00000 10116 20116 30125 40149 70500 333 58007 70000==
41897,2024,12,06,00,00,AAXX 06004 41897 31908 00000 10150 20140 30106 40119 70500 333 59005 70000=
41897,2024,12,06,03,00,AAXX 06034 41897 31930 00000 10190 20150 30132 40145 70500 333 20140 59005 70000=
41897,2024,12,06,06,00,AAXX 06064 41897 31950 01802 10255 20140 30116 40129 70500 333 59005 70000=
41897,2024,12,06,09,00,AAXX 06094 41897 31950 03602 10250 20110 30088 40101 70500 333 59010 70000=
41897,2024,12,06,12,00,AAXX 06124 41897 31945 03601 10180 20120 30096 40110 70500 333 10258 59002 70000=
41897,2024,12,06,15,00,AAXX 06154 41897 31940 00000 10152 20140 30116 40130 70500 333 58006 70000=
41897,2024,12,06,18,00,AAXX 06184 41897 31935 00000 10140 20130 30118 40132 70500 333 58000 70000=
41897,2024,12,06,21,00,AAXX 06214 41897 31930 00000 10135 20130 30108 40121 70500 333 59006 70000=
41897,2024,12,07,00,00,AAXX 07004 41897 31925 00000 10126 20120 30112 40125 70500 333 58000 70000=
41897,2024,12,07,03,00,AAXX 07033 41897 31925 03601 10177 20130 30134 40147 70500 333 20123 58000 70000=
41897,2024,12,07,06,00,AAXX 07064 41897 31935 03602 10242 20080 30123 40136 70500 333 58006 70000=
41897,2024,12,07,09,00,AAXX 07094 41897 31950 00301 10245 20100 30102 40115 70500 333 58014 70000=
41897,2024,12,07,12,00,AAXX 07124 41897 31945 00000 10190 20140 30111 40124 70500 333 10252 58015 70000=
41897,2024,12,07,15,00,AAXX 07154 41897 31940 00000 10152 20140 30132 40145 70500 333 58016 70000=
41897,2024,12,07,18,00,AAXX 07184 41897 31935 00000 10140 20130 30128 40141 70500 333 58010 70000=
41897,2024,12,07,21,00,AAXX 07214 41897 31930 00000 10133 20120 30115 40128 70500 333 58007 70000=
41897,2024,12,08,00,00,AAXX 08004 41897 31920 00000 10123 20110 30122 40136 71000 333 58010 70000=
41897,2024,12,08,03,00,AAXX 08034 41897 31930 00000 10175 20150 30146 40159 70500 333 20122 58012 70000=
41897,2024,12,08,06,00,AAXX 08063 41897 31940 01701 10250 20110 30129 40142 70500 333 58006 70000=
41897,2024,12,08,09,00,AAXX 08094 41897 31945 03601 10250 20130 30100 40113 70500 333 59002 70000=
41897,2024,12,08,12,00,AAXX 08124 41897 31940 00000 10195 20160 30106 40120 70500 333 10257 59005 70000=
41897,2024,12,08,15,00,AAXX 08154 41897 31935 00000 10160 20150 30116 40130 70500 333 59016 70000=
41897,2024,12,08,18,00,AAXX 08184 41897 31925 00000 10150 20140 30113 40126 70500 333 59015 70000=
41897,2024,12,08,21,00,AAXX 08214 41897 31920 00000 10142 20140 30105 40118 71000 333 59010 70000=
41897,2024,12,09,00,00,AAXX 09004 41897 31915 00000 10127 20127 30116 40129 71040 333 59006 70000=
41897,2024,12,09,03,00,AAXX 09034 41897 31925 50000 10170 20150 30145 40158 70540 85030 333 20125 56990 59001 70000 85360=
41897,2024,12,09,06,00,AAXX 09064 41897 31425 63601 10195 20170 30134 40147 70540 333 56990 58005 70000 83616 85360=
41897,2024,12,09,09,00,AAXX 09094 41897 31425 60000 10190 20117 30111 40124 70540 83530 333 56990 58011 70000 83616 85360=
41897,2024,12,09,12,00,AAXX 09124 41897 11450 70000 10175 20175 30110 40124 60017 72166 83510 333 10195 56990 58004 70010 83616 87458=
41897,2024,12,09,15,00,AAXX 09154 41897 31925 00000 10170 20160 30120 40133 70500 333 58004 70000=
41897,2024,12,09,18,00,AAXX 09184 41897 31925 00000 10165 20160 30116 40129 70500 333 58003 70010=
41897,2024,12,09,21,00,AAXX 09214 41897 31925 00000 10160 20150 30114 40127 70500 333 58009 70010=
41897,2024,12,10,00,00,AAXX 10004 41897 31425 30000 10155 20155 30122 40136 70500 82510 333 56990 58006 70010 82618 83458=
41897,2024,12,10,03,00,AAXX 10034 41897 31430 60901 10165 20150 30145 40158 70522 83510 333 20155 56990 58000 70010 83617 86458=
41897,2024,12,10,06,00,AAXX 10064 41897 31940 03602 10215 20160 30129 40142 70500 333 59006 70010=
41897,2024,12,10,09,00,AAXX 10094 41897 31940 03602 10222 20160 30109 40123 70500 333 59002 70010=
41897,2024,12,10,12,00,AAXX 10124 41897 31930 03601 10182 20170 30118 40131 70500 333 10226 58002 70000=
41897,2024,12,10,18,00,AAXX 10184 41897 31930 03601 10160 20150 30133 40146 70500 333 58017 70000=
41897,2024,12,10,21,00,AAXX 10214 41897 31920 00000 10150 20140 30131 40144 71040 333 58017 70000=
41897,2024,12,11,00,00,AAXX 11004 41897 31908 00000 10135 20135 30147 40160 74444 333 58025 70000=
41897,2024,12,11,03,00,AAXX 11034 41897 31908 00901 10145 20140 30150 40164 74444 333 10130 58005 70000=
41897,2024,12,11,06,00,AAXX 11064 41897 31920 02702 10165 20160 30155 40168 71040 333 58026 70000=
41897,2024,12,11,09,00,AAXX 11094 41897 31930 00000 10200 20140 30127 40140 70500 333 58018 70000=
41897,2024,12,11,12,00,AAXX 11124 41897 31930 00000 10165 20150 30130 40143 70500 333 10205 58020 70000=
41897,2024,12,11,15,00,AAXX 11154 41897 31908 00000 10145 20140 30142 40155 74444 333 58010 70000=
41897,2024,12,11,18,00,AAXX 11184 41897 31908 00000 10140 20130 30145 40158 74444 333 58010 70000=
41897,2024,12,12,00,00,AAXX 12004 41897 31908 00000 10130 20130 30124 40137 74444 333 59010 70000=
41897,2024,12,12,03,00,AAXX 12034 41897 31908 00000 10150 20140 30135 40148 74444 333 20130 59010 70000=
41897,2024,12,12,06,00,AAXX 12064 41897 31920 01802 10165 20140 30130 40143 71040 333 59020 70000=
41897,2024,12,12,12,00,AAXX 12124 41897 31930 01802 10170 20150 30110 40123 70500 333 10200 59015 70000=
41897,2024,12,12,15,00,AAXX 12154 41897 31908 00000 10150 20140 30133 40146 70500 333 59010 70000=
41897,2024,12,12,21,00,AAXX 12214 41897 31908 00000 10140 20130 30125 40138 74444 333 59009 70000=
41902,2024,12,06,00,00,AAXX 06004 41902 NIL=
41902,2024,12,06,03,00,AAXX 06034 41902 31420 73601 10190 20190 30133 40142 71044 83520 333 20160 56990 59009 70000 83615 87459=
41902,2024,12,06,06,00,AAXX 06064 41902 31420 72801 10225 20210 30116 40125 71044 83520 333 56990 58009 70000 83615 87459=
41902,2024,12,06,09,00,AAXX 06094 41902 31956 03301 10248 20120 30087 40095 70040 333 59012 70000=
41902,2024,12,06,12,00,AAXX 06124 41902 31940 00000 10196 20160 30096 40105 70500 333 10257 59004 70000=
41902,2024,12,06,15,00,AAXX 06154 41902 31940 00000 10167 20140 30118 40127 70544 333 58005 70000=
41902,2024,12,06,18,00,AAXX 06184 41902 NIL=
41902,2024,12,06,21,00,AAXX 06214 41902 31930 00000 10143 20130 30118 40125 70544 333 58007 70000=
41902,2024,12,07,00,00,AAXX 07004 41902 31930 00000 10137 20137 30118 40127 70544 333 58000 70000=
41902,2024,12,07,03,00,AAXX 07033 41902 31/02 90501 10177 20177 30135 40144 74744 89/// 333 20135 56999 58002 70000=
41902,2024,12,07,06,00,AAXX 07064 41902 31440 22701 10235 20200 30120 40129 70544 82500 333 56900 58004 70000 82614=
41902,2024,12,07,12,00,AAXX 07124 41902 31940 00000 10186 20150 30115 40124 70540 333 10258 58019 70000=
41902,2024,12,07,15,00,AAXX 07154 41902 31930 00000 10158 20140 30133 40142 70544 333 58015 70000=
41902,2024,12,07,21,00,AAXX 07214 41902 31930 00000 10142 20130 30122 40131 70544 333 58006 70000=
41902,2024,12,08,00,00,AAXX 08004 41902 31420 20000 10131 20120 30124 40133 71044 82500 333 56900 58006 70000 82614=
41902,2024,12,08,03,00,AAXX 08034 41902 31/02 90501 10164 20160 30145 40154 74744 89/// 333 20130 56999 58010 70000=
41902,2024,12,08,06,00,AAXX 08063 41902 NIL=
41902,2024,12,08,09,00,AAXX 08094 41902 31930 02701 10226 20200 30103 40112 70544 333 59003 70000=
41902,2024,12,08,12,00,AAXX 08124 41902 31920 00000 10182 20170 30111 40120 71044 333 10230 59004 70000=
41902,2024,12,08,15,00,AAXX 08154 41902 31903 00000 10162 20160 30118 40127 74444 333 59015 70000=
41902,2024,12,08,18,00,AAXX 08184 41902 NIL=
41902,2024,12,08,21,00,AAXX 08214 41902 31903 00000 10146 20140 30114 40123 74444 333 59008 70000=
41902,2024,12,09,00,00,AAXX 09004 41902 31/02 90000 10140 20140 30123 40132 74744 89/// 333 56999 59001 70000=
41902,2024,12,09,03,00,AAXX 09034 41902 31404 20000 10155 20155 30144 40153 74244 82500 333 20135 56900 59001 70000 82614=
41902,2024,12,09,06,00,AAXX 09064 41902 31940 03301 10220 20180 30136 40145 70544 333 58006 70000=
41902,2024,12,09,09,00,AAXX 09094 41902 31440 72701 10227 20150 30103 40111 70544 83520 333 56990 58000 70000 83615 87459=
41902,2024,12,09,12,00,AAXX 09124 41902 31440 63101 10200 20160 30108 40117 70544 82530 333 10242 56990 59003 70000 82615 86362=
41902,2024,12,09,15,00,AAXX 09154 41902 31440 50000 10192 20170 30117 40126 70544 82530 333 56990 59001 70000 82615 85362=
41902,2024,12,09,18,00,AAXX 09184 41902 31430 43101 10187 20180 30116 40125 70544 81530 333 56990 58000 70000 81615 84362=
41902,2024,12,09,21,00,AAXX 09214 41902 31904 03101 10170 20160 30115 40124 74444 333 58001 70000=
41902,2024,12,10,00,00,AAXX 10004 41902 31/02 92201 10164 20160 30126 40135 74744 89/// 333 56999 58003 70000=
41902,2024,12,10,03,00,AAXX 10034 41902 31420 62701 10185 20170 30143 40152 70544 82570 333 20152 56990 59001 70000 82615 86362=
41902,2024,12,10,06,00,AAXX 10064 41902 NIL=
41902,2024,12,10,09,00,AAXX 10094 41902 NIL=
41902,2024,12,10,12,00,AAXX 10124 41902 NIL=
41902,2024,12,11,00,00,AAXX 11004 41902 NIL=
41902,2024,12,11,03,00,AAXX 11034 41902 NIL=
41902,2024,12,11,06,00,AAXX 11064 41902 31930 03601 10220 20160 30140 40149 70544 333 58008 70000=
41902,2024,12,11,09,00,AAXX 11094 41902 31950 03101 10242 20140 30113 40122 70544 333 58003 70000=
41902,2024,12,11,12,00,AAXX 11124 41902 31930 02701 10185 20160 30116 40125 70544 333 10245 58002 70000=
41902,2024,12,11,15,00,AAXX 11154 41902 31930 02702 10162 20140 30126 40135 70544 333 59012 70000=
41902,2024,12,11,18,00,AAXX 11184 41902 31903 02702 10154 20150 30118 40127 74444 333 59025 70000=
41902,2024,12,12,00,00,AAXX 12004 41902 31908 00000 10164 20150 30123 40132 74244 333 59022 70000=
41902,2024,12,12,03,00,AAXX 12034 41902 31920 03101 10174 20150 30143 40152 70544 333 20152 59020 70000=
41902,2024,12,12,06,00,AAXX 12064 41902 31930 03101 10192 20150 30127 40136 70544 333 59013 70000=
41902,2024,12,12,12,00,AAXX 12124 41902 31930 02701 10177 20170 30108 40117 70544 333 10228 59008 70000=
41902,2024,12,12,15,00,AAXX 12154 41902 31930 02702 10160 20150 30118 40127 70544 333 59008 70000=
41902,2024,12,12,18,00,AAXX 12184 41902 31905 02702 10152 20150 30131 40140 74444 333 59005 70000=
41907,2024,12,06,00,00,AAXX 06004 41907 01930 00000 10134 20130 30108 40124 70500 333 59006 70000==
41907,2024,12,06,03,00,AAXX 06034 41907 31940 00000 10175 20160 30129 40144 70500 333 20131 59002 70000=
41907,2024,12,06,06,00,AAXX 06064 41907 01940 03602 10255 20100 30118 40133 70500 333 59002 70000==
41907,2024,12,06,09,00,AAXX 06094 41907 01940 02703 10262 20060 30087 40102 70500 333 59004 70000==
41907,2024,12,06,12,00,AAXX 06124 41907 01940 00000 10195 20140 30090 40106 70500 333 10268 59003 70000==
41907,2024,12,06,15,00,AAXX 06154 41907 01935 00000 10155 20140 30112 40127 70500 333 58003 70000==
41907,2024,12,06,18,00,AAXX 06184 41907 01935 00000 10145 20140 30120 40135 70500 333 58011 70000==
41907,2024,12,06,21,00,AAXX 06214 41907 01930 00000 10140 20130 30118 40133 70500 333 58016 70000==
41907,2024,12,07,00,00,AAXX 07004 41907 01930 00000 10127 20120 30108 40123 70500 333 58000 70000==
41907,2024,12,07,03,00,AAXX 07033 41907 01935 00000 10160 20150 30129 40144 70500 333 20120 58000 70000==
41907,2024,12,07,06,00,AAXX 07064 41907 01945 03602 10245 20090 30122 40137 70500 333 58004 70000==
41907,2024,12,07,09,00,AAXX 07094 41907 01945 03603 10250 20090 30100 40114 70500 333 58013 70000==
41907,2024,12,07,12,00,AAXX 07124 41907 01940 00000 10178 20130 30109 40124 70500 333 10258 58019 70000==
41907,2024,12,07,15,00,AAXX 07154 41907 01930 00000 10140 20120 30127 40143 70500 333 58015 70000==
41907,2024,12,07,18,00,AAXX 07184 41907 01930 00000 10132 20120 30124 40140 70500 333 58004 70000==
41907,2024,12,07,21,00,AAXX 07214 41907 01930 00000 10128 20120 30120 40136 70500 333 58002 70000==
41907,2024,12,08,00,00,AAXX 08004 41907 01930 00000 10124 20110 30118 40133 70500 333 58010 70000==
41907,2024,12,08,03,00,AAXX 08034 41907 01940 00000 10160 20150 30142 40157 70500 333 20118 58013 70000==
41907,2024,12,08,06,00,AAXX 08064 41907 01940 00000 10240 20140 30129 40144 70500 333 58007 70000==
41907,2024,12,08,09,00,AAXX 08094 41907 01940 03602 10252 20120 30098 40112 70500 333 59002 70000==
41907,2024,12,08,12,00,AAXX 08124 41907 01940 00000 10184 20150 30103 40118 70500 333 10256 59006 70000==
41907,2024,12,08,15,00,AAXX 08154 41907 01940 00000 10157 20150 30112 40128 70500 333 59015 70000==
41907,2024,12,08,18,00,AAXX 08184 41907 01935 00000 10150 20140 30113 40128 70500 333 59011 70000==
41907,2024,12,08,21,00,AAXX 08214 41907 01935 00000 10138 20130 30104 40119 70500 333 59016 70000==
41907,2024,12,09,00,00,AAXX 09004 41907 01930 00000 10133 20130 30111 40127 70500 333 59007 70000==
41907,2024,12,09,03,00,AAXX 09034 41907 01435 80000 10168 20160 30139 40155 70500 8552/ 333 20127 59003 70000 85615 88458==
41907,2024,12,09,06,00,AAXX 09064 41907 01440 80000 10198 20170 30131 40147 70520 8552/ 333 59002 70000==
41907,2024,12,09,09,00,AAXX 09094 41907 01440 80000 10193 20160 30105 40121 70522 8552/ 333 58007 70000 85615 88458==
41907,2024,12,09,12,00,AAXX 09124 41907 01435 80000 10185 20170 30108 40123 70522 8552/ 333 10200 58005 70000 85615 88458==
41907,2024,12,09,15,00,AAXX 09154 41907 01935 00000 10160 20150 30114 40130 70522 333 58002 70000==
41907,2024,12,09,18,00,AAXX 09184 41907 01935 00000 10153 20140 30120 40135 70520 333 58007 70000==
41907,2024,12,09,21,00,AAXX 09214 41907 01935 00000 10145 20140 30112 40127 70500 333 58008 70000==
41907,2024,12,10,00,00,AAXX 10004 41907 01430 80000 10149 20149 30121 40137 70500 8552/ 333 58010 70000 85615 88458==
41907,2024,12,10,03,00,AAXX 10034 41907 01908 00000 10158 20150 30140 40155 74322 89/// 333 20145 58001 70000==
41907,2024,12,10,06,00,AAXX 10064 41907 01930 02702 10210 20160 30130 40145 70542 333 59001 70000==
41907,2024,12,10,09,00,AAXX 10094 41907 42940 03102 10228 20160 30109 40124 59002==
41907,2024,12,10,12,00,AAXX 10124 41907 01940 00000 10190 20170 30107 40122 70500 333 10230 59001 70000==
41907,2024,12,11,00,00,AAXX 11004 41907 01930 00000 10137 20130 30139 40155 70500 333 58018 70000==
41907,2024,12,11,03,00,AAXX 11034 41907 01905 00000 10143 20130 30163 40178 74300 89/// 333 20125 58023 70000==
41907,2024,12,11,06,00,AAXX 11064 41907 01918 03602 10185 20170 30152 40167 71040 333 58022 70000==
41907,2024,12,11,09,00,AAXX 11094 41907 01930 03602 10225 20160 30120 40134 70500 333 58011 70000==
41907,2024,12,11,12,00,AAXX 11124 41907 01930 00000 10166 20150 30118 40133 70500 333 10228 58011 70000==
41907,2024,12,11,15,00,AAXX 11154 41907 01930 00000 10142 20130 30130 40145 70500 333 59004 70000==
41907,2024,12,11,18,00,AAXX 11184 41907 01905 00000 10128 20120 30129 40145 74500 89/// 333 59016 70000==
41907,2024,12,11,21,00,AAXX 11214 41907 01905 00000 10128 20120 30125 40141 74544 89/// 333 59018 70000==
41907,2024,12,12,00,00,AAXX 12004 41907 01905 00000 10128 20128 30128 40134 74344 89/// 333 59020 70000==
41907,2024,12,12,03,00,AAXX 12034 41907 01907 03602 10145 20140 30140 40156 74344 89/// 333 20118 59023 70000==
41907,2024,12,12,06,00,AAXX 12064 41907 01907 03603 10164 20140 30128 40143 74544 89/// 333 59024 70000==
41907,2024,12,12,09,00,AAXX 12094 41907 01907 03602 10186 20160 30104 40120 74544 89/// 333 59016 70000==
41907,2024,12,12,12,00,AAXX 12124 41907 01906 00000 10165 20160 30106 40121 74544 89/// 333 10191 59012 70000==
41907,2024,12,12,15,00,AAXX 12154 41907 01930 00000 10140 20130 30130 40145 70544 333 58000 70000==
41907,2024,12,12,18,00,AAXX 12184 41907 01930 00000 10132 20120 30136 40151 70540 333 58007 70000==
41907,2024,12,12,21,00,AAXX 12214 41907 01930 00000 10125 20120 30128 40143 70500 333 58003 70000==
41909,2024,12,06,00,00,AAXX 06004 41909 01940 00000 10150 20130 30107 40119 70500 333 59007 70000==
41909,2024,12,06,03,00,AAXX 06034 41909 01950 00000 10193 20160 30130 40142 70500 333 20132 59006 70000==
41909,2024,12,06,06,00,AAXX 06064 41909 02956 03202 10260 20090 30118 40130 333 59005 70000==
41909,2024,12,06,09,00,AAXX 06094 41909 02956 00000 10264 20060 30090 40101 333 58000 70000==
41909,2024,12,06,12,00,AAXX 06124 41909 02940 00000 10210 20120 30092 40104 333 10270 59002 70000==
41909,2024,12,06,15,00,AAXX 06154 41909 02940 00000 10165 20120 30115 40127 333 58005 70000==
41909,2024,12,06,18,00,AAXX 06184 41909 02940 00000 10152 20120 30118 40130 333 58008 70000==
41909,2024,12,06,21,00,AAXX 06214 41909 01940 00000 10145 20130 30114 40126 70500 333 58006 70000==
41909,2024,12,07,00,00,AAXX 07004 41909 01940 00000 10134 20120 30109 40121 70500 333 58002 70000==
41909,2024,12,07,03,00,AAXX 07033 41909 02956 00000 10184 20120 30130 40142 333 20120 58000 70000==
41909,2024,12,07,06,00,AAXX 07064 41909 02956 02702 10244 20080 30123 40135 333 58005 70000==
41909,2024,12,07,09,00,AAXX 07094 41909 02956 02701 10252 20060 30102 40114 333 58012 70000==
41909,2024,12,07,12,00,AAXX 07124 41909 02950 00000 10190 20120 30111 40123 333 10262 58019 70000==
41909,2024,12,07,15,00,AAXX 07154 41909 01940 00000 10164 20130 30130 40142 70500 333 58015 70000==
41909,2024,12,07,18,00,AAXX 07184 41909 01940 00000 10150 20140 30126 40138 70500 333 58008 70000==
41909,2024,12,07,21,00,AAXX 07214 41909 01940 00000 10140 20130 30122 40134 70500 333 58008 70000==
41909,2024,12,08,00,00,AAXX 08004 41909 01940 00000 10130 20120 30118 40130 70500 333 58009 70000==
41909,2024,12,08,03,00,AAXX 08034 41909 01950 00000 10170 20140 30142 40154 70500 333 20114 58012 70000==
41909,2024,12,08,06,00,AAXX 08063 41909 02956 00000 10254 20100 30127 40139 333 58004 70000==
41909,2024,12,08,09,00,AAXX 08094 41909 02956 00000 10260 20120 30099 40111 333 59003 70000==
41909,2024,12,08,12,00,AAXX 08124 41909 01940 00000 10190 20150 30106 40118 70500 333 10270 59005 70000==
41909,2024,12,08,15,00,AAXX 08154 41909 01940 00000 10170 20150 30113 40125 70500 333 59017 70000==
41909,2024,12,08,18,00,AAXX 08184 41909 01930 00000 10156 20140 30112 40124 70500 333 59014 70000==
41909,2024,12,08,21,00,AAXX 08214 41909 01930 00000 10151 20130 30108 40120 70500 333 59014 70000==
41909,2024,12,09,00,00,AAXX 09004 41909 01930 00000 10140 20120 30115 40127 70500 333 59003 70000==
41909,2024,12,09,03,00,AAXX 09034 41909 01950 00000 10173 20130 30138 40150 70500 333 20120 59004 70000==
41909,2024,12,09,06,00,AAXX 09064 41909 02456 60000 10234 20150 30126 40138 82510 333 59001 70000 82615 86458==
41909,2024,12,09,09,00,AAXX 09094 41909 01440 80000 10214 20170 30107 40119 70522 8552/ 333 58008 70000 85615 88458==
41909,2024,12,09,12,00,AAXX 09124 41909 21440 80000 10198 20180 30109 40121 70562 8452/ 333 10245 58003 60005 84615 88458==
41909,2024,12,09,15,00,AAXX 09154 41909 41440 60000 10194 20170 30112 40124 70522 83530 333 59001 83615 85360==
41909,2024,12,09,18,00,AAXX 09184 41909 41940 00000 10182 20160 30126 40138 70522 333 58014==
41909,2024,12,09,21,00,AAXX 09214 41909 41940 00000 10167 20160 30116 40128 70500 333 58008==
41909,2024,12,10,00,00,AAXX 10004 41909 41940 00000 10165 20160 30119 40131 70500 333 58004==
41909,2024,12,10,03,00,AAXX 10034 41909 42950 00000 10174 20150 30139 40151 58001==
41909,2024,12,10,06,00,AAXX 10064 41909 02956 00000 10232 20150 30130 40142 333 58004 70000==
41909,2024,12,10,09,00,AAXX 10094 41909 42956 03601 10240 20140 30109 40121 333 58002==
41909,2024,12,10,12,00,AAXX 10124 41909 01940 00000 10192 20160 30113 40125 70500 333 10254 58004 70000==
41909,2024,12,10,15,00,AAXX 10154 41909 01940 00000 10174 20150 30140 40152 70500 333 58028 70000==
41909,2024,12,10,18,00,AAXX 10184 41909 01930 00000 10167 20160 30145 40157 70500 333 58019 70000==
41909,2024,12,10,21,00,AAXX 10214 41909 01930 00000 10160 20150 30138 40150 70500 333 58022 70000==
41909,2024,12,11,00,00,AAXX 11004 41909 01930 00000 10154 20140 30141 40153 70500 333 58022 70000==
41909,2024,12,11,03,00,AAXX 11034 41909 01930 00000 10160 20150 30162 40174 70500 333 20140 58023 70000==
41909,2024,12,11,06,00,AAXX 11064 41909 01950 00000 10207 20160 30149 40161 70500 333 58019 70000==
41909,2024,12,11,09,00,AAXX 11094 41909 02950 00000 10235 20120 30117 40129 333 58008 70000==
41909,2024,12,11,12,00,AAXX 11124 41909 01940 00000 10194 20150 30112 40124 70500 333 10240 59001 70000==
41909,2024,12,11,15,00,AAXX 11154 41909 01940 00000 10168 20150 30129 40141 70500 333 59011 70000==
41909,2024,12,11,18,00,AAXX 11184 41909 01940 00000 10158 20150 30134 40146 70500 333 59011 70000==
41909,2024,12,12,00,00,AAXX 12004 41909 01940 00000 10144 20130 30115 40127 70500 333 59026 70000==
41909,2024,12,12,03,00,AAXX 12034 41909 01940 00000 10152 20140 30141 40153 70500 333 20125 59021 70000==
41909,2024,12,12,06,00,AAXX 12064 41909 01950 00000 10170 20140 30131 40143 70500 333 59018 70000==
41909,2024,12,12,09,00,AAXX 12094 41909 02950 00000 10215 20170 30101 40113 333 59016 70000==
41909,2024,12,12,12,00,AAXX 12124 41909 01940 00000 10180 20150 30106 40118 70500 333 10220 59006 70000==
41909,2024,12,12,15,00,AAXX 12154 41909 01930 00000 10155 20150 30129 40141 70500 333 58000 70000==
41909,2024,12,12,18,00,AAXX 12184 41909 01907 00000 10144 20140 30131 40143 74544 89/// 333 59003 70000==
41909,2024,12,12,21,00,AAXX 12214 41909 01906 00000 10143 20140 30124 40136 74544 89/// 333 59002 70000==
41915,2024,12,06,00,00,AAXX 06004 41915 01906 00000 10140 20130 30101 40127 74444 333 59007 70000==
41915,2024,12,06,03,00,AAXX 06034 41915 01915 00000 10200 20170 30120 40146 71044 333 20136 59011 70000==
41915,2024,12,06,06,00,AAXX 06064 41915 01950 00000 10260 20170 30096 40121 70540 333 59012 70000==
41915,2024,12,06,09,00,AAXX 06094 41915 01940 00000 10270 20150 30073 40098 70500 333 59007 70000==
41915,2024,12,06,12,00,AAXX 06124 41915 01910 00000 10210 20190 30081 40107 71040 333 10274 59003 70000==
41915,2024,12,06,15,00,AAXX 06154 41915 01900 00000 10166 20166 30106 40132 74640 333 58003 70000==
41915,2024,12,06,18,00,AAXX 06184 41915 NIL=
41915,2024,12,07,00,00,AAXX 07004 41915 01900 00000 10143 20140 30109 40135 74744 89/// 333 58008 70000==
41915,2024,12,07,03,00,AAXX 07033 41915 01900 00000 10166 20166 30120 40146 74544 89/// 333 20135 58000 70000==
41915,2024,12,07,06,00,AAXX 07064 41915 01/08 83402 10205 20190 30108 40134 74244 8801/ 333 58012 70000 88458==
41915,2024,12,07,09,00,AAXX 07094 41915 01940 03302 10240 20190 30091 40116 70542 333 58018 70000==
41915,2024,12,07,12,00,AAXX 07124 41915 01906 00000 10202 20190 30097 40123 74644 333 10243 58016 70000==
41915,2024,12,07,15,00,AAXX 07154 41915 01905 00000 10153 20140 30122 40148 74644 333 58016 70000==
41915,2024,12,07,18,00,AAXX 07184 41915 01902 00000 10150 20150 30116 40142 74544 333 58013 70000==
41915,2024,12,07,21,00,AAXX 07214 41915 01900 00000 10150 20150 30108 40136 74744 333 58005 70000==
41915,2024,12,08,00,00,AAXX 08004 41915 01900 00000 10155 20155 30112 40138 74744 333 58003 70000==
41915,2024,12,08,03,00,AAXX 08034 41915 01900 00000 10170 20170 30132 40158 74744 333 20143 58012 70000==
41915,2024,12,08,06,00,AAXX 08063 41915 01456 33401 10214 20170 30117 40143 70544 83500 333 58009 70000 83616==
41915,2024,12,08,09,00,AAXX 08094 41915 02956 03202 10246 20180 30089 40114 333 59002 70000==
41915,2024,12,08,15,00,AAXX 08154 41915 01910 00000 10145 20140 30105 40131 71000 333 59017 70000==
41915,2024,12,08,18,00,AAXX 08184 41915 01902 00000 10145 20145 30102 40128 74640 333 59014 70000==
41915,2024,12,08,21,00,AAXX 08214 41915 01900 00000 10140 20140 30100 40126 74744 333 59008 70000==
41915,2024,12,09,00,00,AAXX 09004 41915 01900 00000 10140 20140 30108 40134 74744 333 59004 70000==
41915,2024,12,09,03,00,AAXX 09034 41915 01901 03601 10155 20155 30130 40156 74344 89/// 333 20135 59002 70000==
41915,2024,12,09,06,00,AAXX 09064 41915 01950 13103 10223 20170 30114 40139 70544 80002 333 59003 70000 81080==
41915,2024,12,09,09,00,AAXX 09094 41915 01450 60000 10248 20170 30093 40118 70521 82510 333 58004 70000 82616 86460==
41915,2024,12,09,12,00,AAXX 09124 41915 01440 80000 10210 20180 30091 40117 70521 8352/ 333 10262 59008 70000 83616 88458==
41915,2024,12,09,15,00,AAXX 09154 41915 01420 40000 10178 20170 30105 40131 71042 82520 333 58000 70000 82616 84458==
41915,2024,12,09,18,00,AAXX 09184 41915 01420 70000 10170 20170 30103 40129 71044 83570 333 58001 70000 83616 86458==
41915,2024,12,09,21,00,AAXX 09214 41915 01415 50000 10144 20140 30100 40126 71044 82570 333 58000 70000 82616 83460==
41915,2024,12,10,00,00,AAXX 10004 41915 01408 60000 10137 20137 30108 40134 74144 83570 333 58000 70000 83616 84460==
41915,2024,12,10,03,00,AAXX 10034 41915 01940 00000 10203 20160 30130 40156 70540 333 20135 58000 70000==
41915,2024,12,10,06,00,AAXX 10064 41915 01450 43003 10222 20180 30117 40143 70542 81530 333 58002 70000 81616 84364==
41915,2024,12,10,09,00,AAXX 10094 41915 01550 13102 10246 20160 30095 40120 70521 81100 333 58002 70000 81822==
41915,2024,12,10,12,00,AAXX 10124 41915 01940 00000 10188 20170 30098 40124 70520 333 10255 58007 70000==
41915,2024,12,10,15,00,AAXX 10154 41915 01930 00000 10153 20150 30120 40146 70500 333 58015 70000==
41915,2024,12,10,18,00,AAXX 10184 41915 01920 00000 10140 20130 30127 40153 71000 333 58024 70000==
41915,2024,12,10,21,00,AAXX 10214 41915 01900 00000 10130 20130 30112 40138 74744 89/// 333 58012 70000==
41915,2024,12,11,00,00,AAXX 11004 41915 01900 00000 10125 20125 30125 40152 74744 89/// 333 58017 70000==
41915,2024,12,11,03,00,AAXX 11034 41915 01900 00000 10160 20160 30148 40174 74544 89/// 333 20122 58016 70000==
41915,2024,12,11,06,00,AAXX 11064 41915 01908 00000 10176 20176 30132 40158 74344 89/// 333 58015 70000==
41915,2024,12,11,09,00,AAXX 11094 41915 01940 00000 10222 20170 30098 40123 70540 333 58003 70000==
41915,2024,12,11,12,00,AAXX 11124 41915 01925 00000 10178 20170 30101 40127 71040 333 10229 58003 70000==
41915,2024,12,11,15,00,AAXX 11154 41915 01908 00000 10141 20140 30112 40138 74444 333 59008 70000==
41915,2024,12,11,18,00,AAXX 11184 41915 NIL=
41915,2024,12,11,21,00,AAXX 11214 41915 01900 00000 10150 20150 30101 40127 74744 89/// 333 59011 70000==
41915,2024,12,12,00,00,AAXX 12004 41915 01900 00000 10155 20155 30103 40129 74544 89/// 333 59022 70000==
41915,2024,12,12,03,00,AAXX 12034 41915 01905 00000 10168 20168 30128 40154 74344 89/// 333 20118 59022 70000==
41915,2024,12,12,06,00,AAXX 12064 41915 01910 03602 10178 20170 30113 40139 71040 333 59019 70000==
41915,2024,12,12,09,00,AAXX 12094 41915 01950 00000 10230 20170 30084 40109 70540 333 59014 70000==
41915,2024,12,12,12,00,AAXX 12124 41915 01915 00000 10176 20170 30093 40118 71040 333 10236 59008 70000==
41915,2024,12,12,15,00,AAXX 12154 41915 01905 00000 10140 20140 30115 40141 74640 333 58003 70000==
41915,2024,12,12,18,00,AAXX 12184 41915 01905 00000 10125 20125 30119 40145 74440 333 58009 70000==
41915,2024,12,12,21,00,AAXX 12214 41915 01901 00000 10140 20140 30119 40145 74744 89/// 333 58018 70000==
41923,2024,12,06,00,00,AAXX 06004 41923 01935 00000 10187 20140 30114 40124 70500 333 59008 70000==
41923,2024,12,06,03,00,AAXX 06034 41923 31935 00000 10226 20140 30135 40145 70500 333 20172 59009 70000=
41923,2024,12,06,06,00,AAXX 06064 41923 01940 00000 10271 20090 30119 40128 70500 333 59007 70000==
41923,2024,12,06,09,00,AAXX 06094 41923 02950 02902 10268 20050 30093 40102 333 59003 70000==
41923,2024,12,06,12,00,AAXX 06124 41923 01950 00000 10222 20100 30100 40110 70500 333 10280 59001 70000==
41923,2024,12,06,15,00,AAXX 06154 41923 01945 00000 10200 20100 30122 40132 70500 333 58005 70000==
41923,2024,12,06,18,00,AAXX 06184 41923 01945 00000 10176 20120 30121 40131 70500 333 58006 70000==
41923,2024,12,06,21,00,AAXX 06214 41923 01940 00000 10164 20100 30114 40124 70500 333 58004 70000==
41923,2024,12,07,00,00,AAXX 07004 41923 01940 00000 10158 20110 30116 40126 70500 333 58002 70000==
41923,2024,12,07,03,00,AAXX 07033 41923 01940 00000 10224 20100 30136 40146 70500 333 20156 58001 70000==
41923,2024,12,07,06,00,AAXX 07064 41923 02950 02804 10270 20060 30126 40136 333 58007 70000==
41923,2024,12,07,09,00,AAXX 07094 41923 02950 02202 10272 20030 30105 40114 333 58012 70000==
41923,2024,12,07,12,00,AAXX 07124 41923 01940 00000 10222 20080 30115 40125 70500 333 10275 58015 70000==
41923,2024,12,07,15,00,AAXX 07154 41923 01940 00000 10186 20110 30134 40144 70500 333 58013 70000==
41923,2024,12,07,18,00,AAXX 07184 41923 01940 00000 10167 20110 30131 40141 70500 333 58010 70000==
41923,2024,12,07,21,00,AAXX 07214 41923 01940 00000 10155 20120 30121 40131 70500 333 58007 70000==
41923,2024,12,08,00,00,AAXX 08004 41923 01935 00000 10148 20110 30124 40134 70500 333 58008 70000==
41923,2024,12,08,03,00,AAXX 08034 41923 01945 00000 10218 20110 30148 40158 70500 333 20145 58012 70000==
41923,2024,12,08,06,00,AAXX 08064 41923 02950 00000 10257 20060 30132 40141 333 58006 70000==
41923,2024,12,08,09,00,AAXX 08094 41923 02950 00000 10270 20080 30105 40114 333 58000 70000==
41923,2024,12,08,12,00,AAXX 08124 41923 01940 00000 10218 20120 30111 40121 70500 333 10273 59004 70000==
41923,2024,12,08,15,00,AAXX 08154 41923 01940 00000 10190 20130 30119 40129 70500 333 59016 70000==
41923,2024,12,08,18,00,AAXX 08184 41923 01935 00000 10178 20140 30117 40127 70500 333 59014 70000==
41923,2024,12,08,21,00,AAXX 08214 41923 01935 00000 10166 20150 30112 40122 70500 333 59009 70000==
41923,2024,12,09,00,00,AAXX 09004 41923 01930 00000 10156 20150 30120 40130 70500 333 59004 70000==
41923,2024,12,09,03,00,AAXX 09034 41923 01/40 20000 10210 20140 30144 40154 70500 82030 333 20156 59004 70000 82360==
41923,2024,12,09,06,00,AAXX 09064 41923 01/45 20000 10258 20130 30129 40138 70500 82030 333 59003 70000 82360==
41923,2024,12,09,09,00,AAXX 09094 41923 01440 63602 10250 20130 30106 40115 70520 83430 333 58001 70000 82616 85360==
41923,2024,12,09,12,00,AAXX 09124 41923 01440 62702 10228 20140 30111 40121 70522 84430 333 10264 58000 70000 83615 85360==
41923,2024,12,09,15,00,AAXX 09154 41923 41440 40000 10210 20160 30119 40129 70562 82430 333 58000 81616 83360==
41923,2024,12,09,18,00,AAXX 09184 41923 11435 30000 10186 20170 30119 40129 60006 70562 81530 333 58002 81616 83360==
41923,2024,12,09,21,00,AAXX 09214 41923 41435 50000 10180 20160 30116 40126 70521 82530 333 58004 82616 84360==
41923,2024,12,10,00,00,AAXX 10004 41923 41435 50000 10174 20160 30123 40133 70522 82530 333 58003 82616 84360==
41923,2024,12,10,03,00,AAXX 10034 41923 41920 00000 10200 20160 30144 40154 71042 333 20168 58000==
41923,2024,12,10,06,00,AAXX 10064 41923 41940 00000 10254 20140 30131 40140 70540 333 58002==
41923,2024,12,10,09,00,AAXX 10094 41923 41940 00000 10254 20120 30110 40119 70500 333 58004==
41923,2024,12,10,12,00,AAXX 10124 41923 41/40 20000 10224 20150 30117 40127 70500 82030 333 10262 58006 82360==
41923,2024,12,10,15,00,AAXX 10154 41923 01/35 20000 10206 20160 30142 40152 70500 82030 333 58023 70000 82360==
41923,2024,12,10,18,00,AAXX 10184 41923 01930 03002 10192 20150 30146 40156 70500 333 58027 70000==
41923,2024,12,10,21,00,AAXX 10214 41923 01930 00000 10172 20140 30140 40150 70500 333 58024 70000==
41923,2024,12,11,00,00,AAXX 11004 41923 01/30 20000 10158 20150 30146 40156 70500 82030 333 58023 70000 82360==
41923,2024,12,11,03,00,AAXX 11034 41923 01/30 20000 10180 20140 30166 40176 70500 82030 333 20155 58022 70000 82360==
41923,2024,12,11,06,00,AAXX 11064 41923 01435 52702 10238 20140 30146 40156 70520 82530 333 58015 70000 82616 84360==
41923,2024,12,11,09,00,AAXX 11094 41923 01940 03002 10247 20050 30118 40127 70500 333 58008 70000==
41923,2024,12,11,12,00,AAXX 11124 41923 01940 02702 10216 20100 30120 40130 70500 333 10254 58003 70000==
41923,2024,12,11,15,00,AAXX 11154 41923 01940 03302 10188 20160 30133 40143 70500 333 59009 70000==
41923,2024,12,11,18,00,AAXX 11184 41923 01935 02802 10172 20140 30134 40144 70500 333 59012 70000==
41923,2024,12,11,21,00,AAXX 11214 41923 01420 80000 10165 20150 30117 40127 71020 8552/ 333 59023 70000 85615 88459==
41923,2024,12,12,00,00,AAXX 12004 41923 01420 82702 10158 20150 30120 40130 71020 8552/ 333 59026 70000 85615 88459==
41923,2024,12,12,03,00,AAXX 12034 41923 01920 00000 10162 20140 30144 40154 71020 333 20148 59012 70000==
41923,2024,12,12,06,00,AAXX 12064 41923 01430 83302 10190 20140 30130 40140 70520 8552/ 333 59016 70000 85615 88459==
41923,2024,12,12,09,00,AAXX 12094 41923 01930 02703 10210 20150 30107 40117 70500 333 59011 70000==
41923,2024,12,12,12,00,AAXX 12124 41923 01925 00000 10180 20150 30114 40124 71000 333 10212 59006 70000==
41923,2024,12,12,15,00,AAXX 12154 41923 01925 03202 10166 20140 30134 40144 71000 333 58001 70000==
41923,2024,12,12,18,00,AAXX 12184 41923 01920 00000 10160 20140 30138 40148 71040 333 58004 70000==
41923,2024,12,12,21,00,AAXX 12214 41923 01415 50000 10156 20150 30132 40142 71042 83530 333 58015 70000 83615 83360==
41926,2024,12,06,00,00,AAXX 06004 41926 01940 00000 10135 20135 30108 40122 70500 333 59008 70000==
41926,2024,12,06,03,00,AAXX 06034 41926 01950 00000 10185 20150 30134 40148 70500 333 20132 59002 70000==
41926,2024,12,06,06,00,AAXX 06064 41926 01950 00000 10257 20100 30119 40133 70500 333 59002 70000==
41926,2024,12,06,09,00,AAXX 06094 41926 01950 00000 10262 20100 30090 40104 70500 333 59002 70000==
41926,2024,12,06,12,00,AAXX 06124 41926 01950 00000 10195 20160 30095 40109 70500 333 10274 58001 70000==
41926,2024,12,06,15,00,AAXX 06154 41926 01950 00000 10160 20150 30115 40129 70500 333 58001 70000==
41926,2024,12,06,18,00,AAXX 06184 41926 01950 00000 10145 20140 30116 40130 70500 333 58004 70000==
41926,2024,12,06,21,00,AAXX 06214 41926 01950 00000 10135 20130 30114 40128 70500 333 58004 70000==
41926,2024,12,07,00,00,AAXX 07004 41926 01950 00000 10122 20120 30113 40127 70500 333 58005 70000==
41926,2024,12,07,03,00,AAXX 07033 41926 01950 00000 10170 20140 30131 40145 70500 333 20122 59003 70000==
41926,2024,12,07,06,00,AAXX 07064 41926 01950 00000 10252 20070 30128 40142 70500 333 58009 70000==
41926,2024,12,07,09,00,AAXX 07094 41926 02956 00000 10260 20070 30102 40116 333 58012 70000==
41926,2024,12,07,12,00,AAXX 07124 41926 01950 00000 10188 20150 30108 40122 70500 333 10270 58013 70000==
41926,2024,12,07,15,00,AAXX 07154 41926 01940 00000 10148 20140 30128 40142 70500 333 58013 70000==
41926,2024,12,07,18,00,AAXX 07184 41926 01940 00000 10135 20130 30127 40141 70500 333 58011 70000==
41926,2024,12,07,21,00,AAXX 07214 41926 01940 00000 10125 20120 30122 40136 70500 333 58008 70000==
41926,2024,12,08,00,00,AAXX 08004 41926 01940 00000 10114 20100 30119 40133 70500 333 58006 70000==
41926,2024,12,08,03,00,AAXX 08034 41926 01950 00000 10122 20100 30145 40159 70500 333 10112 58014 70000==
41926,2024,12,08,06,00,AAXX 08063 41926 01956 00000 10242 20130 30132 40146 70500 333 58004 70000==
41926,2024,12,08,09,00,AAXX 08094 41926 01956 00000 10252 20100 30101 40115 70500 333 59001 70000==
41926,2024,12,08,12,00,AAXX 08124 41926 01950 00000 10187 20160 30105 40119 70500 333 10262 59003 70000==
41926,2024,12,08,15,00,AAXX 08154 41926 01950 00000 10143 20130 30117 40131 70500 333 59011 70000==
41926,2024,12,08,18,00,AAXX 08184 41926 01950 00000 10130 20120 30111 40125 70500 333 59016 70000==
41926,2024,12,08,21,00,AAXX 08214 41926 01940 00000 10131 20120 30112 40126 70500 333 59010 70000==
41926,2024,12,09,00,00,AAXX 09004 41926 01920 00000 10133 20120 30115 40129 71000 333 59004 70000==
41926,2024,12,09,03,00,AAXX 09034 41926 01430 70000 10166 20150 30138 40152 71020 81530 333 20125 59007 70000 81618 87362==
41926,2024,12,09,06,00,AAXX 09064 41926 01430 80000 10226 20170 30128 40142 71022 8352/ 333 59004 70000 83618 88458==
41926,2024,12,09,09,00,AAXX 09094 41926 01440 80000 10210 20160 30105 40119 70522 8452/ 333 58004 70000 84618 88458==
41926,2024,12,09,12,00,AAXX 09124 41926 01440 70000 10187 20180 30110 40124 71062 83510 333 10230 58005 70000 83616 86458==
41926,2024,12,09,15,00,AAXX 09154 41926 41940 00000 10170 20160 30115 40129 70520 333 59002==
41926,2024,12,09,18,00,AAXX 09184 41926 41930 00000 10156 20150 30115 40129 70500 333 58004==
41926,2024,12,09,21,00,AAXX 09214 41926 41920 00000 10154 20140 30117 40131 71000 333 58005==
41926,2024,12,10,00,00,AAXX 10004 41926 41908 00000 10155 20150 30120 40134 74240 333 58008==
41926,2024,12,10,03,00,AAXX 10034 41926 41403 80000 10160 20150 30139 40153 74644 8252/ 333 20150 58001 82618 88458==
41926,2024,12,10,06,00,AAXX 10064 41926 41940 00000 10210 20160 30132 40146 70542 333 58004==
41926,2024,12,10,09,00,AAXX 10094 41926 01950 00000 10227 20160 30109 40123 70500 333 58004 70000==
41926,2024,12,10,12,00,AAXX 10124 41926 01950 00000 10180 20160 30114 40128 70500 333 10237 58004 70000==
41926,2024,12,10,15,00,AAXX 10154 41926 01950 00000 10152 20140 30116 40130 70500 333 58001 70000==
41926,2024,12,11,00,00,AAXX 11004 41926 NIL=
41926,2024,12,11,03,00,AAXX 11034 41926 01901 00000 10146 20146 30164 40178 74744 89/// 333 20140 58025 70000==
41926,2024,12,11,06,00,AAXX 11064 41926 01940 00000 10190 20160 30152 40166 72844 333 58020 70000==
41926,2024,12,11,09,00,AAXX 11094 41926 01950 03602 10227 20120 30117 40131 70500 333 58008 70000==
41926,2024,12,11,12,00,AAXX 11124 41926 01950 00000 10175 20140 30118 40132 70500 333 10234 58013 70000==
41926,2024,12,11,15,00,AAXX 11154 41926 01950 00000 10138 20120 30134 40149 70500 333 58018 70000==
41926,2024,12,11,18,00,AAXX 11184 41926 01950 00000 10123 20110 30129 40144 70500 333 59018 70000==
41926,2024,12,12,00,00,AAXX 12004 41926 01940 00000 10102 20100 30118 40133 70500 333 59023 70000==
41926,2024,12,12,03,00,AAXX 12034 41926 01920 00000 10127 20127 30141 40156 71000 333 20102 59023 70000==
41926,2024,12,12,06,00,AAXX 12064 41926 01950 03101 10200 20130 30127 40141 70500 333 59025 70000==
41926,2024,12,12,09,00,AAXX 12094 41926 01950 03303 10218 20160 30105 40119 70500 333 59012 70000==
41926,2024,12,12,12,00,AAXX 12124 41926 01950 00000 10175 20160 30111 40125 70500 333 10228 59007 70000==
41926,2024,12,12,15,00,AAXX 12154 41926 01940 00000 10144 20130 30132 40146 70500 333 59002 70000==
41926,2024,12,12,18,00,AAXX 12184 41926 01905 00000 10130 20130 30134 40148 74640 333 58005 70000==
41926,2024,12,12,21,00,AAXX 12214 41926 01930 00000 10122 20120 30131 40145 71044 333 58006 70000==
41927,2024,12,06,00,00,AAXX 06004 41927 31935 00000 10143 20130 30107 40122 70500 333 59008 70000=
41927,2024,12,06,03,00,AAXX 06034 41927 31950 00000 10176 20150 30130 40144 70500 333 20140 59003 70000=
41927,2024,12,06,06,00,AAXX 06064 41927 32958 02802 10260 20040 30119 40133 333 58001 70000=
41927,2024,12,06,09,00,AAXX 06094 41927 32958 02702 10262 20050 30093 40107 333 58002 70000=
41927,2024,12,06,12,00,AAXX 06124 41927 32956 00000 10205 20160 30093 40107 333 10270 59002 70000=
41927,2024,12,06,15,00,AAXX 06154 41927 31950 00000 10160 20140 30111 40126 70500 333 59002 70000=
41927,2024,12,06,18,00,AAXX 06184 41927 NIL=
41927,2024,12,06,21,00,AAXX 06214 41927 31940 00000 10140 20130 30110 40125 70500 333 58002 70000=
41927,2024,12,07,00,00,AAXX 07004 41927 31940 00000 10130 20120 30111 40126 70500 333 58004 70000=
41927,2024,12,07,03,00,AAXX 07033 41927 31950 00000 10176 20150 30133 40148 70500 333 20130 58003 70000=
41927,2024,12,07,06,00,AAXX 07064 41927 32957 00000 10255 20060 30122 40136 333 58003 70000=
41927,2024,12,07,09,00,AAXX 07094 41927 32958 03601 10270 20060 30100 40114 333 58007 70000=
41927,2024,12,07,12,00,AAXX 07124 41927 31950 00000 10176 20150 30111 40125 70500 333 10278 58018 70000=
41927,2024,12,07,15,00,AAXX 07154 41927 31950 00000 10148 20130 30126 40141 70500 333 58015 70000=
41927,2024,12,07,21,00,AAXX 07214 41927 31940 00000 10130 20120 30127 40142 70500 333 58017 70000=
41927,2024,12,08,00,00,AAXX 08004 41927 31940 00000 10120 20120 30126 40141 70500 333 58015 70000=
41927,2024,12,08,03,00,AAXX 08034 41927 31950 03601 10180 20150 30143 40157 70500 333 20120 58010 70000=
41927,2024,12,08,06,00,AAXX 08063 41927 32958 00000 10254 20090 30126 40140 333 58004 70000=
41927,2024,12,08,09,00,AAXX 08094 41927 32958 02801 10256 20110 30099 40113 333 59001 70000=
41927,2024,12,08,15,00,AAXX 08154 41927 31950 00000 10150 20140 30117 40132 70500 333 59009 70000=
41927,2024,12,08,18,00,AAXX 08184 41927 31950 00000 10140 20130 30123 40138 70500 333 59007 70000=
41927,2024,12,08,21,00,AAXX 08214 41927 31940 00000 10138 20130 30113 40128 70500 333 59014 70000=
41927,2024,12,09,00,00,AAXX 09004 41927 31920 00000 10136 20130 30111 40126 71000 333 59015 70000=
41927,2024,12,09,03,00,AAXX 09034 41927 31940 00000 10175 20160 30138 40153 70500 333 20136 59005 70000=
41927,2024,12,09,06,00,AAXX 09064 41927 31450 73601 10226 20160 30129 40143 70520 83510 333 56890 58003 70000 83617 86459=
41927,2024,12,09,09,00,AAXX 09094 41927 31450 72801 10220 20140 30103 40117 70522 83510 333 56790 58004 70000 83617 86459=
41927,2024,12,09,12,00,AAXX 09124 41927 31450 62801 10190 20160 30113 40127 70522 83510 333 10230 56790 58009 70000 83617 85459=
41927,2024,12,09,15,00,AAXX 09154 41927 31450 20000 10172 20160 30116 40130 70520 82500 333 56700 59001 70000 82617=
41927,2024,12,09,18,00,AAXX 09184 41927 31950 00000 10163 20150 30118 40133 70500 333 59005 70000=
41927,2024,12,09,21,00,AAXX 09214 41927 31950 00000 10157 20150 30115 40130 70500 333 58002 70000=
41927,2024,12,10,00,00,AAXX 10004 41927 31440 71801 10152 20140 30117 40132 70520 83510 333 56690 58006 70000 83617 87459=
41927,2024,12,10,03,00,AAXX 10034 41927 31930 00000 10167 20140 30136 40151 70500 333 20152 59002 70000=
41927,2024,12,10,06,00,AAXX 10064 41927 32957 03201 10225 20160 30125 40139 333 59004 70000=
41927,2024,12,10,09,00,AAXX 10094 41927 32957 03201 10243 20150 30107 40121 333 58004 70000=
41927,2024,12,10,12,00,AAXX 10124 41927 31950 00000 10190 20170 30112 40126 70500 333 10245 59001 70000=
41927,2024,12,11,00,00,AAXX 11004 41927 NIL=
41927,2024,12,11,03,00,AAXX 11034 41927 NIL=
41927,2024,12,11,06,00,AAXX 11064 41927 31950 03601 10205 20150 30145 40159 70540 333 58020 70000=
41927,2024,12,11,09,00,AAXX 11094 41927 32956 03601 10233 20110 30116 40130 333 58009 70000=
41927,2024,12,11,12,00,AAXX 11124 41927 31950 03601 10180 20160 30122 40136 70500 333 10235 58010 70000=
41927,2024,12,11,15,00,AAXX 11154 41927 31950 00000 10140 20130 30128 40143 70500 333 59003 70000=
41927,2024,12,11,18,00,AAXX 11184 41927 NIL=
41927,2024,12,12,00,00,AAXX 12004 41927 31940 00000 10118 20118 30130 40145 70500 333 58000 70000=
41927,2024,12,12,03,00,AAXX 12034 41927 31940 00000 10145 20140 30138 40153 70500 333 20118 59024 70000=
41927,2024,12,12,06,00,AAXX 12064 41927 31950 03601 10160 20150 30130 40145 70500 333 59015 70000=
41927,2024,12,12,09,00,AAXX 12094 41927 31450 73601 10180 20150 30106 40120 70520 83510 333 56890 59010 70000 83617 87459=
41927,2024,12,12,12,00,AAXX 12124 41927 31940 00000 10150 20140 30111 40126 70520 333 10180 59011 70000=
41927,2024,12,12,15,00,AAXX 12154 41927 31940 00000 10132 20120 30120 40135 70500 333 59008 70000=
41927,2024,12,12,21,00,AAXX 12214 41927 31940 00000 10116 20116 30119 40134 70500 333 59008 70000=
41929,2024,12,06,00,00,AAXX 06004 41929 01950 00000 10143 20130 30111 40121 70500 333 59008 70000==
41929,2024,12,06,03,00,AAXX 06034 41929 01950 03202 10215 20140 30138 40148 70500 333 20136 59007 70000==
41929,2024,12,06,06,00,AAXX 06064 41929 02956 00000 10258 20110 30127 40136 333 58003 70000==
41929,2024,12,06,09,00,AAXX 06094 41929 02956 03102 10270 20100 30096 40105 333 59001 70000==
41929,2024,12,06,12,00,AAXX 06124 41929 02956 00000 10220 20120 30098 40108 333 10275 59002 70000==
41929,2024,12,06,15,00,AAXX 06154 41929 01950 00000 10167 20140 30122 40132 70500 333 58003 70000==
41929,2024,12,06,18,00,AAXX 06184 41929 01950 00000 10150 20140 30121 40131 70500 333 58004 70000==
41929,2024,12,06,21,00,AAXX 06214 41929 01950 00000 10143 20130 30117 40127 70500 333 58002 70000==
41929,2024,12,07,00,00,AAXX 07004 41929 01950 00000 10135 20130 30113 40123 70500 333 58002 70000==
41929,2024,12,07,03,00,AAXX 07033 41929 01950 00000 10220 20120 30137 40147 70500 333 20128 59001 70000==
41929,2024,12,07,06,00,AAXX 07064 41929 02956 03202 10266 20080 30129 40138 333 58002 70000==
41929,2024,12,07,09,00,AAXX 07094 41929 02956 03103 10270 20040 30105 40114 333 58009 70000==
41929,2024,12,07,12,00,AAXX 07124 41929 02956 00000 10210 20130 30114 40124 333 10275 58016 70000==
41929,2024,12,07,15,00,AAXX 07154 41929 01950 00000 10160 20140 30136 40146 70500 333 58014 70000==
41929,2024,12,07,18,00,AAXX 07184 41929 01950 00000 10145 20130 30131 40141 70500 333 58010 70000==
41929,2024,12,07,21,00,AAXX 07214 41929 01950 00000 10136 20130 30126 40136 70500 333 58009 70000==
41929,2024,12,08,00,00,AAXX 08004 41929 01950 00000 10127 20120 30121 40131 70500 333 58008 70000==
41929,2024,12,08,03,00,AAXX 08034 41929 01950 00000 10202 20130 30149 40159 70500 333 20122 58012 70000==
41929,2024,12,08,06,00,AAXX 08063 41929 02956 03201 10250 20080 30136 40145 333 58007 70000==
41929,2024,12,08,09,00,AAXX 08094 41929 02956 03602 10265 20120 30107 40116 333 58002 70000==
41929,2024,12,08,12,00,AAXX 08124 41929 02956 00000 10196 20160 30112 40122 333 10267 59002 70000==
41929,2024,12,08,15,00,AAXX 08154 41929 01950 00000 10165 20160 30119 40129 70500 333 59017 70000==
41929,2024,12,08,18,00,AAXX 08184 41929 01950 00000 10150 20140 30118 40128 70500 333 59013 70000==
41929,2024,12,08,21,00,AAXX 08214 41929 01940 00000 10143 20130 30118 40128 70500 333 59008 70000==
41929,2024,12,09,00,00,AAXX 09004 41929 01940 00000 10136 20130 30117 40127 70540 333 59004 70000==
41929,2024,12,09,03,00,AAXX 09034 41929 01950 00000 10192 20160 30148 40158 70500 333 20132 59001 70000==
41929,2024,12,09,06,00,AAXX 09064 41929 02/56 53202 10255 20140 30130 40139 85030 333 59006 70000 85365==
41929,2024,12,09,09,00,AAXX 09094 41929 02456 80000 10250 20140 30109 40118 8452/ 333 58002 70000 84618 88459==
41929,2024,12,09,12,00,AAXX 09124 41929 01450 80000 10225 20170 30116 40125 70522 8452/ 333 10260 58004 70000 84618 88459==
41929,2024,12,09,15,00,AAXX 09154 41929 01940 00000 10195 20180 30120 40129 70520 333 58001 70000==
41929,2024,12,09,18,00,AAXX 09184 41929 01940 00000 10175 20170 30119 40129 70520 333 58001 70000==
41929,2024,12,09,21,00,AAXX 09214 41929 01940 00000 10171 20160 30119 40129 70500 333 58001 70000==
41929,2024,12,10,00,00,AAXX 10004 41929 01940 00000 10167 20160 30119 40129 70500 333 58002 70000==
41929,2024,12,10,03,00,AAXX 10034 41929 01450 80000 10174 20160 30148 40158 70520 8352/ 333 20162 58000 70000 83618 88462==
41929,2024,12,10,06,00,AAXX 10064 41929 01950 00000 10234 20150 30133 40142 70520 333 58003 70000==
41929,2024,12,10,09,00,AAXX 10094 41929 01950 03604 10250 20170 30112 40121 70500 333 58003 70000==
41929,2024,12,10,12,00,AAXX 10124 41929 01950 03602 10220 20170 30118 40127 70500 333 10255 58002 70000==
41929,2024,12,10,15,00,AAXX 10154 41929 01950 00000 10180 20170 30144 40153 70500 333 58024 70000==
41929,2024,12,10,18,00,AAXX 10184 41929 01950 00000 10170 20160 30148 40157 70500 333 58028 70000==
41929,2024,12,10,21,00,AAXX 10214 41929 01950 00000 10160 20150 30140 40149 70500 333 58021 70000==
41929,2024,12,11,00,00,AAXX 11004 41929 01940 03603 10154 20140 30149 40158 70500 333 58030 70000==
41929,2024,12,11,03,00,AAXX 11034 41929 01950 03602 10165 20160 30170 40179 70500 333 20150 58022 70000==
41929,2024,12,11,06,00,AAXX 11064 41929 01950 02904 10225 20170 30152 40161 70500 333 58019 70000==
41929,2024,12,11,09,00,AAXX 11094 41929 01950 02803 10250 20100 30121 40130 70500 333 58009 70000==
41929,2024,12,11,12,00,AAXX 11124 41929 01950 02902 10180 20160 30125 40134 70500 333 10253 58007 70000==
41929,2024,12,11,15,00,AAXX 11154 41929 01950 02802 10164 20140 30137 40146 70500 333 58007 70000==
41929,2024,12,11,18,00,AAXX 11184 41929 01950 02702 10150 20140 30133 40142 70500 333 59015 70000==
41929,2024,12,11,21,00,AAXX 11214 41929 01940 03001 10134 20120 30119 40128 70500 333 59021 70000==
41929,2024,12,12,00,00,AAXX 12004 41929 01920 02902 10140 20130 30124 40133 71040 333 59025 70000==
41929,2024,12,12,03,00,AAXX 12034 41929 01420 83203 10150 20120 30144 40154 71040 8252/ 333 20130 59026 70000 82618 88462==
41929,2024,12,12,06,00,AAXX 12064 41929 01450 83602 10160 20150 30138 40148 70542 8252/ 333 59014 70000 82618 88462==
41929,2024,12,12,09,00,AAXX 12094 41929 01450 83602 10184 20140 30113 40122 70522 8352/ 333 59008 70000 83618 88460==
41929,2024,12,12,12,00,AAXX 12124 41929 01950 03602 10154 20140 30119 40128 70520 333 10185 59006 70000==
41929,2024,12,12,15,00,AAXX 12154 41929 01950 03602 10140 20130 30137 40126 70500 333 58000 70000==
41929,2024,12,12,18,00,AAXX 12184 41929 01940 03602 10130 20120 30137 40146 70500 333 59004 70000==
41929,2024,12,12,21,00,AAXX 12214 41929 01920 03502 10130 20120 30128 40137 71040 333 58009 70000==
41933,2024,12,06,00,00,AAXX 06004 41933 01910 00000 10140 20140 30114 40123 74640 333 58000 70000==
41933,2024,12,06,03,00,AAXX 06034 41933 01930 00000 10188 20180 30130 40139 70544 333 20135 59013 70000==
41933,2024,12,06,06,00,AAXX 06064 41933 01940 03502 10270 20100 30112 40120 70540 333 59011 70000==
41933,2024,12,06,09,00,AAXX 06094 41933 01945 03502 10274 20100 30088 40097 70500 333 59015 70000==
41933,2024,12,06,12,00,AAXX 06124 41933 01930 00000 10210 20160 30098 40107 70500 333 10283 59003 70000==
41933,2024,12,06,15,00,AAXX 06154 41933 01930 00000 10170 20160 30117 40126 70500 333 58000 70000==
41933,2024,12,06,18,00,AAXX 06184 41933 01930 00000 10164 20150 30115 40124 70500 333 58000 70000==
41933,2024,12,06,21,00,AAXX 06214 41933 01920 00000 10140 20130 30116 40125 71000 333 58001 70000==
41933,2024,12,07,00,00,AAXX 07004 41933 01908 00000 10132 20130 30113 40122 74440 333 59001 70000==
41933,2024,12,07,03,00,AAXX 07033 41933 01940 00000 10203 20160 30128 40136 70544 333 20126 59002 70000==
41933,2024,12,07,06,00,AAXX 07064 41933 01940 00302 10265 20080 30118 40126 70540 333 58006 70000==
41933,2024,12,07,09,00,AAXX 07094 41933 01940 03502 10274 20050 30096 40103 70500 333 58008 70000==
41933,2024,12,07,12,00,AAXX 07124 41933 01935 00000 10200 20140 30105 40114 70500 333 10277 58013 70000==
41933,2024,12,07,15,00,AAXX 07154 41933 01925 00000 10165 20160 30128 40137 71000 333 58011 70000==
41933,2024,12,07,18,00,AAXX 07184 41933 01910 00000 10148 20140 30125 40134 74600 333 58010 70000==
41933,2024,12,07,21,00,AAXX 07214 41933 01905 00000 10140 20130 30119 40128 74644 333 58003 70000==
41933,2024,12,08,00,00,AAXX 08004 41933 01901 00000 10133 20130 30116 40125 74644 333 58003 70000==
41933,2024,12,08,03,00,AAXX 08034 41933 01940 00000 10180 20170 30146 40154 70544 333 20125 58018 70000==
41933,2024,12,08,06,00,AAXX 08063 41933 01940 00000 10255 20130 30127 40136 70544 333 58009 70000==
41933,2024,12,08,09,00,AAXX 08094 41933 01940 00000 10120 30101 40109 70500 333 58005 70000==
41933,2024,12,08,12,00,AAXX 08124 41933 01940 00000 10225 20160 30102 40110 70500 333 10270 59003 70000==
41933,2024,12,08,15,00,AAXX 08154 41933 01940 00000 10190 20170 30112 40121 70500 333 59016 70000==
41933,2024,12,08,18,00,AAXX 08184 41933 01935 00000 10160 20150 30114 40123 70500 333 59011 70000==
41933,2024,12,08,21,00,AAXX 08214 41933 01920 00000 10140 20130 30117 40126 71000 333 59002 70000==
41933,2024,12,09,00,00,AAXX 09004 41933 01910 00000 10135 20130 30119 40128 74640 333 58003 70000==
41933,2024,12,09,03,00,AAXX 09034 41933 01935 00000 10180 20170 30137 40146 70540 333 20125 59009 70000==
41933,2024,12,09,06,00,AAXX 09064 41933 01940 00802 10120 20140 30120 40129 70540 333 59007 70000==
41933,2024,12,09,09,00,AAXX 09094 41933 01940 03202 10260 20140 30099 40107 70500 333 59002 70000==
41933,2024,12,09,12,00,AAXX 09124 41933 01/35 40000 10225 20160 30104 40112 70522 84030 333 10266 58002 70000 84362==
41933,2024,12,09,15,00,AAXX 09154 41933 01930 43502 10210 20150 30116 40125 70522 81530 333 58004 70000 81616 83362==
41933,2024,12,09,18,00,AAXX 09184 41933 01930 10000 10183 20170 30114 40123 70511 81500 333 58000 70000 81616==
41933,2024,12,09,21,00,AAXX 09214 41933 01425 53601 10178 20170 30116 40125 71022 82530 333 59001 70000 82616 84362==
41933,2024,12,10,00,00,AAXX 10004 41933 01420 70201 10175 20170 30121 40130 71022 82530 333 58002 70000 82616 85362==
41933,2024,12,10,03,00,AAXX 10034 41933 01935 00000 10203 20170 30136 40144 70520 333 20170 59001 70000==
41933,2024,12,10,06,00,AAXX 10064 41933 01940 00102 10260 20170 30125 40133 70500 333 58005 70000==
41933,2024,12,10,09,00,AAXX 10094 41933 01940 00302 10265 20150 30098 40106 70500 333 59001 70000==
41933,2024,12,10,12,00,AAXX 10124 41933 01/40 10000 10224 20150 30105 40114 70500 81040 333 10272 58001 70000 81362==
41933,2024,12,10,15,00,AAXX 10154 41933 01935 00000 10200 20160 30126 40135 70500 333 58010 70000==
41933,2024,12,10,18,00,AAXX 10184 41933 01940 00103 10190 20160 30134 40143 70500 333 58020 70000==
41933,2024,12,10,21,00,AAXX 10214 41933 01920 00000 10167 20150 30131 40140 71000 333 58015 70000==
41933,2024,12,11,00,00,AAXX 11004 41933 01902 00000 10141 20140 30135 40144 74640 333 58014 70000==
41933,2024,12,11,03,00,AAXX 11034 41933 01935 00000 10170 20150 30161 40170 70540 333 20137 58025 70000==
41933,2024,12,11,06,00,AAXX 11064 41933 01940 03203 10230 20140 30145 40153 70540 333 58020 70000==
41933,2024,12,11,09,00,AAXX 11094 41933 01940 00000 10250 20100 30113 40121 70500 333 58015 70000==
41933,2024,12,11,12,00,AAXX 11124 41933 01940 00000 10210 20120 30115 40124 70500 333 10260 58010 70000==
41933,2024,12,11,15,00,AAXX 11154 41933 01940 00000 10160 20140 30129 40138 70500 333 58003 70000==
41933,2024,12,11,18,00,AAXX 11184 41933 01940 03204 10170 20130 30128 40136 70500 333 59006 70000==
41933,2024,12,11,21,00,AAXX 11214 41933 01920 00000 10160 20140 30121 40130 71000 333 59010 70000==
41933,2024,12,12,00,00,AAXX 12004 41933 01905 00000 10150 20150 30119 40128 74640 333 59016 70000==
41933,2024,12,12,03,00,AAXX 12034 41933 01905 03601 10155 20155 30134 40143 74344 89/// 333 20146 59027 70000==
41933,2024,12,12,06,00,AAXX 12064 41933 01412 80202 10185 20160 30121 40130 74244 8452/ 333 59024 70000 84615 87458==
41933,2024,12,12,09,00,AAXX 12094 41933 01420 83601 10200 20150 30100 40109 71042 8552/ 333 59013 70000 85616 87458==
41933,2024,12,12,12,00,AAXX 12124 41933 01930 03001 10183 20150 30104 40113 70542 333 10208 59011 70000==
41933,2024,12,12,15,00,AAXX 12154 41933 01908 00000 10145 20140 30124 40133 74400 333 59005 70000==
41933,2024,12,12,18,00,AAXX 12184 41933 01908 00000 10142 20130 30134 40143 74444 333 58006 70000==
41933,2024,12,12,21,00,AAXX 12214 41933 01905 00000 10145 20140 30132 40141 74444 333 58011 70000==
41936,2024,12,06,00,00,AAXX 06004 41936 01905 00000 10148 20140 30115 40122 74440 333 59006 70000==
41936,2024,12,06,03,00,AAXX 06034 41936 31907 00000 10180 20160 30135 40142 74244 333 20144 59002 70000=
41936,2024,12,06,06,00,AAXX 06064 41936 01920 03606 10264 20110 30124 40131 70540 333 59002 70000==
41936,2024,12,06,09,00,AAXX 06094 41936 01940 03603 10278 20110 30091 40098 70500 333 59003 70000==
41936,2024,12,06,12,00,AAXX 06124 41936 01940 00000 10206 20170 30097 40104 70500 333 10284 59005 70000==
41936,2024,12,06,15,00,AAXX 06154 41936 01920 00000 10210 20190 30122 40130 70500 333 58005 70000==
41936,2024,12,06,18,00,AAXX 06184 41936 01910 00000 10190 20180 30123 40130 70500 333 58006 70000==
41936,2024,12,06,21,00,AAXX 06214 41936 02910 00000 10166 20160 30117 40124 333 58003 70000==
41936,2024,12,07,00,00,AAXX 07004 41936 01906 00000 10148 20140 30121 40129 74641 333 58007 70000==
41936,2024,12,07,06,00,AAXX 07064 41936 01916 00203 10266 20160 30128 40135 70540 333 58005 70000==
41936,2024,12,07,09,00,AAXX 07094 41936 01940 03103 10274 20110 30104 40111 70500 333 58013 70000==
41936,2024,12,07,12,00,AAXX 07124 41936 01930 00000 10198 20150 30111 40119 70500 333 10278 58015 70000==
41936,2024,12,07,15,00,AAXX 07154 41936 01930 00000 10170 20140 30129 40136 70500 333 58006 70000==
41936,2024,12,07,18,00,AAXX 07184 41936 01920 00000 10150 20130 30127 40134 70500 333 58004 70000==
41936,2024,12,07,21,00,AAXX 07214 41936 01910 00000 10146 20140 30116 40123 70500 333 58002 70000==
41936,2024,12,08,00,00,AAXX 08004 41936 01906 00000 10132 20120 30118 40125 74641 333 59004 70000==
41936,2024,12,08,03,00,AAXX 08034 41936 01906 00000 10154 20140 30145 40152 74240 333 20120 58012 70000==
41936,2024,12,08,06,00,AAXX 08064 41936 01916 03403 10260 20198 30133 40140 70540 333 58004 70000==
41936,2024,12,08,09,00,AAXX 08094 41936 01930 03603 10270 20100 30104 40111 70500 333 58000 70000==
41936,2024,12,08,12,00,AAXX 08124 41936 01916 00000 10194 20150 30107 40115 70500 333 10282 59004 70000==
41936,2024,12,08,15,00,AAXX 08154 41936 01912 00000 10158 20150 30109 40116 70500 333 59019 70000==
41936,2024,12,08,18,00,AAXX 08184 41936 01912 00000 10140 20130 30115 40122 70500 333 59012 70000==
41936,2024,12,08,21,00,AAXX 08214 41936 01910 00000 10136 20130 30105 40112 70500 333 59011 70000==
41936,2024,12,09,00,00,AAXX 09004 41936 01905 00000 10116 20110 30105 40112 74644 333 59013 70000==
41936,2024,12,09,03,00,AAXX 09034 41936 01904 00000 10150 20130 30141 40149 74440 333 20114 59003 70000==
41936,2024,12,09,06,00,AAXX 09064 41936 01908 00903 10250 20160 30126 40133 74240 333 59007 70000==
41936,2024,12,09,09,00,AAXX 09094 41936 01910 20305 10258 20150 30105 40112 70540 333 58001 70000 82362==
41936,2024,12,09,12,00,AAXX 09124 41936 01907 60000 10210 20180 30113 40121 74442 82530 333 10270 58006 70000 82618 86362==
41936,2024,12,09,15,00,AAXX 09154 41936 41/07 20000 10178 20170 30119 40126 74411 82030 333 58009 82362==
41936,2024,12,09,18,00,AAXX 09184 41936 41/06 20000 10160 20150 30116 40123 74411 82030 333 58001 82362==
41936,2024,12,09,21,00,AAXX 09214 41936 41/05 20000 10138 20130 30111 40118 74411 82030 333 58006 82362==
41936,2024,12,10,00,00,AAXX 10004 41936 41/03 40000 10160 20150 30124 40131 74611 84030 333 58019 84362==
41936,2024,12,10,03,00,AAXX 10034 41936 41/05 23104 10182 20160 30140 40147 74211 82030 333 20156 59002 82362==
41936,2024,12,10,06,00,AAXX 10064 41936 41910 00305 10250 20170 30131 40138 70541 333 58005==
41936,2024,12,10,09,00,AAXX 10094 41936 41914 00103 10262 20150 30110 40117 70500 333 58005==
41936,2024,12,10,12,00,AAXX 10124 41936 41912 00000 10210 20170 30115 40123 70500 333 10266 58002==
41936,2024,12,10,15,00,AAXX 10154 41936 01910 00000 10178 20170 30139 40146 70500 333 58020 70000==
41936,2024,12,10,18,00,AAXX 10184 41936 01910 00000 10168 20160 30137 40144 70500 333 58021 70000==
41936,2024,12,10,21,00,AAXX 10214 41936 01906 00000 10162 20150 30129 40137 70540 333 58019 70000==
41936,2024,12,11,00,00,AAXX 11004 41936 01903 00000 10150 20146 30141 40148 74640 333 58017 70000==
41936,2024,12,11,03,00,AAXX 11034 41936 01902 00000 10162 20150 30165 40172 74644 333 20146 58025 70000==
41936,2024,12,11,06,00,AAXX 11064 41936 01409 10000 10212 20170 30151 40158 74242 83162 333 58020 70000 83162==
41936,2024,12,11,09,00,AAXX 11094 41936 01910 00103 10248 20120 30122 40129 70540 333 58012 70000==
41936,2024,12,11,12,00,AAXX 11124 41936 01909 00000 10180 20150 30121 40128 74144 333 10250 58005 70000==
41936,2024,12,11,15,00,AAXX 11154 41936 01909 00000 10150 20140 30137 40144 74244 333 59002 70000==
41936,2024,12,11,18,00,AAXX 11184 41936 01909 00000 10140 20130 30131 40138 74244 333 59006 70000==
41936,2024,12,11,21,00,AAXX 11214 41936 01907 00000 10134 20120 30121 40128 74444 333 59009 70000==
41936,2024,12,12,00,00,AAXX 12004 41936 01905 00000 10126 20120 30127 40134 74644 333 59014 70000==
41936,2024,12,12,03,00,AAXX 12034 41936 01907 03603 10150 20130 30141 40148 74240 333 20118 59024 70000==
41936,2024,12,12,06,00,AAXX 12064 41936 01912 00705 10210 20140 30126 40133 70500 333 59035 70000==
41936,2024,12,12,09,00,AAXX 12094 41936 01/12 10707 10226 20170 30106 40113 70510 81030 333 59016 70000==
41936,2024,12,12,12,00,AAXX 12124 41936 01/12 10707 10226 20170 30106 40113 70510 81030 333 59016 70000 81362==
41936,2024,12,12,15,00,AAXX 12154 41936 01909 00000 10148 20140 30133 40140 74440 333 10236 59004 70000==
41936,2024,12,12,18,00,AAXX 12184 41936 01907 00000 10136 20130 30132 40140 74440 333 59005 70000==
41936,2024,12,12,21,00,AAXX 12214 41936 41906 00000 10122 20110 30126 40134 74440 333 59005==
41938,2024,12,06,00,00,AAXX 06004 41938 31905 00000 10147 20147 30110 40114 74444 333 59012 70000=
41938,2024,12,06,03,00,AAXX 06034 41938 31930 03301 10203 20160 30133 40137 70540 333 20147 59005 70000=
41938,2024,12,06,06,00,AAXX 06064 41938 31950 03601 10260 20120 30124 40128 70540 333 59002 70000=
41938,2024,12,06,09,00,AAXX 06094 41938 31956 03203 10274 20080 30100 40104 333 59003 70000=
41938,2024,12,06,12,00,AAXX 06124 41938 31950 00000 10196 20160 30100 40104 70500 333 10275 59004 70000=
41938,2024,12,06,15,00,AAXX 06154 41938 31950 00000 10167 20150 30120 40124 70500 333 58006 70000=
41938,2024,12,06,18,00,AAXX 06184 41938 NIL=
41938,2024,12,06,21,00,AAXX 06214 41938 31940 00000 10140 20130 30114 40118 70500 333 58003 70000=
41938,2024,12,07,00,00,AAXX 07004 41938 31935 00000 10132 20120 30114 40118 70500 333 58004 70000=
41938,2024,12,07,03,00,AAXX 07033 41938 31940 03001 10202 20140 30127 40131 70500 333 20132 59006 70000=
41938,2024,12,07,06,00,AAXX 07064 41938 31950 00000 10254 20090 30127 40131 70500 333 58004 70000=
41938,2024,12,07,09,00,AAXX 07094 41938 31956 03002 10267 20100 30109 40113 70500 333 58009 70000=
41938,2024,12,07,12,00,AAXX 07124 41938 31950 12701 10190 20150 30118 40122 70500 333 10272 58018 70000=
41938,2024,12,07,15,00,AAXX 07154 41938 31950 00000 10160 20140 30130 40134 70500 333 58010 70000=
41938,2024,12,07,18,00,AAXX 07184 41938 31940 00000 10145 20140 30128 40132 70500 333 58011 70000=
41938,2024,12,07,21,00,AAXX 07214 41938 31940 00000 10132 20120 30125 40129 70500 333 58011 70000=
41938,2024,12,08,00,00,AAXX 08004 41938 31925 20000 10124 20110 30123 40127 71000 82010 333 56090 58009 70000 82460=
41938,2024,12,08,03,00,AAXX 08034 41938 31940 03001 10195 20160 30141 40145 70500 333 20124 58014 70000=
41938,2024,12,08,06,00,AAXX 08063 41938 31950 03001 10250 20110 30135 40139 70500 333 58008 70000=
41938,2024,12,08,09,00,AAXX 08094 41938 31950 03603 10260 20100 30111 40115 70500 333 58002 70000=
41938,2024,12,08,12,00,AAXX 08124 41938 31945 00000 10185 20150 30110 40114 70500 333 10265 59008 70000=
41938,2024,12,08,15,00,AAXX 08154 41938 31940 00000 10157 20140 30115 40119 70500 333 59015 70000=
41938,2024,12,08,18,00,AAXX 08184 41938 31920 00000 10145 20140 30114 40118 71000 333 59014 70000=
41938,2024,12,08,21,00,AAXX 08214 41938 31912 40000 10140 20130 30115 40119 71000 82031 333 56099 59010 70000 82362 83080=
41938,2024,12,09,00,00,AAXX 09004 41938 31908 30000 10135 20130 30117 40121 74241 80001 333 56009 59006 70000 83080=
41938,2024,12,09,03,00,AAXX 09034 41938 31925 00000 10188 20170 30139 40143 71000 333 20135 59002 70000=
41938,2024,12,09,06,00,AAXX 09064 41938 31940 40000 10252 20120 30130 40134 70541 84070 333 56090 59005 70000 84460=
41938,2024,12,09,09,00,AAXX 09094 41938 31940 50000 10258 20130 30107 40111 70521 85070 333 56090 59004 70000 85460=
41938,2024,12,09,12,00,AAXX 09124 41938 31940 52501 10222 20160 30111 40115 70521 82511 333 10262 56699 58001 70000 82619 83460=
41938,2024,12,09,15,00,AAXX 09154 41938 31930 00000 10191 20160 30115 40119 70521 333 58000 70000=
41938,2024,12,09,18,00,AAXX 09184 41938 31920 10000 10170 10160 30113 40117 71021 80001 333 56009 59001 70000 81080=
41938,2024,12,09,21,00,AAXX 09214 41938 31415 73401 10168 20160 30116 40120 71021 82571 333 56699 58001 70000 82618 86460=
41938,2024,12,10,00,00,AAXX 10004 41938 31412 73401 10164 20150 30119 40123 71021 81511 333 56699 58002 70000 81619 85460=
41938,2024,12,10,03,00,AAXX 10034 41938 31930 00301 10200 20170 30139 40143 70521 333 20164 58000 70000=
41938,2024,12,10,06,00,AAXX 10064 41938 31950 33602 10243 20120 30129 40133 70521 83011 333 56099 59001 70000 83460=
41938,2024,12,10,09,00,AAXX 10094 41938 31950 03202 10256 20160 30110 40114 70500 333 59003 70000=
41938,2024,12,10,12,00,AAXX 10124 41938 31950 03201 10202 20170 30114 40118 70500 333 10262 58003 70000=
41938,2024,12,10,15,00,AAXX 10154 41938 31945 03201 10178 20160 30134 40138 70500 333 58019 70000=
41938,2024,12,10,18,00,AAXX 10184 41938 31925 00000 10155 20150 30140 40144 71000 333 58027 70000=
41938,2024,12,10,21,00,AAXX 10214 41938 31915 00000 10146 20140 30139 40143 71000 333 58023 70000=
41938,2024,12,11,00,00,AAXX 11004 41938 NIL=
41938,2024,12,11,03,00,AAXX 11034 41938 31906 03001 10159 20150 30161 40165 74344 89/// 333 20144 56999 58022 70000=
41938,2024,12,11,06,00,AAXX 11064 41938 31940 03604 10230 20150 30152 40156 70500 333 58023 70000=
41938,2024,12,11,09,00,AAXX 11094 41938 31940 03204 10242 20090 30123 40127 70510 80001 333 56009 58013 70000=
41938,2024,12,11,12,00,AAXX 11124 41938 31940 00000 10176 20140 30124 40128 70510 333 10246 58010 70000=
41938,2024,12,11,15,00,AAXX 11154 41938 31940 00000 10150 20130 30132 40136 70500 333 59002 70000=
41938,2024,12,11,18,00,AAXX 11184 41938 31935 03201 10132 20120 30128 40132 70500 333 59012 70000=
41938,2024,12,11,21,00,AAXX 11214 41938 31915 00000 10110 20100 30123 40127 71000 333 59016 70000=
41938,2024,12,12,00,00,AAXX 12004 41938 31910 00000 10102 20090 30122 40126 71000 333 59019 70000=
41938,2024,12,12,03,00,AAXX 12034 41938 31908 93202 10140 20130 30138 40142 74300 89/// 333 20102 56999 59023 70000=
41938,2024,12,12,06,00,AAXX 12064 41938 31412 63605 10167 20140 30131 40135 71042 86500 333 56800 59021 70000 86617=
41938,2024,12,12,12,00,AAXX 12124 41938 31935 13601 10152 20130 30119 40123 70520 80001 333 10197 56009 59005 70000 81080=
41938,2024,12,12,15,00,AAXX 12154 41938 31930 00000 10133 20120 30132 40136 70500 333 58000 70000=
41938,2024,12,12,18,00,AAXX 12184 41938 31902 00000 10121 20120 30134 40138 74640 333 58006 70000=
41938,2024,12,12,21,00,AAXX 12214 41938 31/00 90000 10124 20120 30133 40137 74744 89/// 333 56999 58010 70000=
41939,2024,12,06,00,00,AAXX 06004 41939 01940 00000 10143 20130 30128 40136 70500 333 59003 70000==
41939,2024,12,06,03,00,AAXX 06034 41939 02958 00000 10210 20170 30141 40149 333 20133 59008 70000==
41939,2024,12,06,06,00,AAXX 06064 41939 02958 00000 10278 20200 30128 40136 333 59005 70000==
41939,2024,12,06,09,00,AAXX 06094 41939 02958 00000 10265 20120 30100 40108 333 59002 70000==
41939,2024,12,06,12,00,AAXX 06124 41939 02956 00000 10195 20180 30106 40114 333 10268 58001 70000==
41939,2024,12,06,15,00,AAXX 06154 41939 01950 00000 10175 20160 30124 40132 70500 333 58002 70000==
41939,2024,12,06,18,00,AAXX 06184 41939 NIL=
41939,2024,12,06,21,00,AAXX 06214 41939 01940 00000 10155 20150 30126 40134 70500 333 59004 70000==
41939,2024,12,07,00,00,AAXX 07004 41939 01940 00000 10140 20140 30118 40126 70500 333 59010 70000==
41939,2024,12,07,03,00,AAXX 07033 41939 01957 00000 10178 20160 30133 40141 70500 333 20133 59008 70000==
41939,2024,12,07,06,00,AAXX 07064 41939 02958 00000 10265 20120 30131 40139 333 58006 70000==
41939,2024,12,07,09,00,AAXX 07094 41939 02958 00000 10260 20100 30108 40116 333 58008 70000==
41939,2024,12,07,12,00,AAXX 07124 41939 02957 00000 10190 20150 30120 40128 333 10270 58014 70000==
41939,2024,12,07,15,00,AAXX 07154 41939 01950 00000 10170 20160 30136 40144 70500 333 58012 70000==
41939,2024,12,07,18,00,AAXX 07184 41939 01950 00000 10165 20160 30147 40155 70500 333 58012 70000==
41939,2024,12,07,21,00,AAXX 07214 41939 01940 00000 10140 20130 30136 40145 70500 333 58010 70000==
41939,2024,12,08,00,00,AAXX 08004 41939 01940 00000 10130 20120 30134 40143 70500 333 58016 70000==
41939,2024,12,08,03,00,AAXX 08034 41939 01957 00000 10174 20160 30151 40160 70500 333 20123 58018 70000==
41939,2024,12,08,06,00,AAXX 08064 41939 01957 00000 10252 20110 30138 40146 70500 333 58007 70000==
41939,2024,12,08,09,00,AAXX 08094 41939 02958 00000 10254 20120 30112 40120 333 58004 70000==
41939,2024,12,08,12,00,AAXX 08124 41939 02956 00000 10200 20150 30100 40108 333 10260 59020 70000==
41939,2024,12,08,15,00,AAXX 08154 41939 01950 00000 10182 20160 30116 40124 70500 333 59020 70000==
41939,2024,12,08,18,00,AAXX 08184 41939 NIL=
41939,2024,12,08,21,00,AAXX 08214 41939 01950 00000 10138 20130 30138 40146 70500 333 58002 70000==
41939,2024,12,09,00,00,AAXX 09004 41939 01950 00000 10135 20130 30140 40148 70500 333 58008 70000==
41939,2024,12,09,03,00,AAXX 09034 41939 01957 00000 10180 20170 30150 40158 70500 333 20128 59001 70000==
41939,2024,12,09,06,00,AAXX 09064 41939 01957 00000 10254 20120 30135 40143 70500 333 59005 70000==
41939,2024,12,09,09,00,AAXX 09094 41939 01957 00000 10263 20130 30107 40115 70500 333 59005 70000==
41939,2024,12,09,12,00,AAXX 09124 41939 01956 00000 10210 20170 30120 40129 70500 333 10265 58020 70000==
41939,2024,12,09,15,00,AAXX 09154 41939 01950 00000 10195 20180 30125 40134 70500 333 58009 70000==
41939,2024,12,09,21,00,AAXX 09214 41939 01940 00000 10180 20170 30130 40138 70500 333 59008 70000==
41939,2024,12,10,00,00,AAXX 10004 41939 01950 00000 10175 20170 30126 40134 70500 333 59014 70000==
41939,2024,12,10,03,00,AAXX 10034 41939 01956 00000 10200 20180 30140 40148 70500 333 20165 59010 70000==
41939,2024,12,10,06,00,AAXX 10064 41939 01957 00000 10234 20150 30138 40146 70500 333 58003 70000==
41939,2024,12,10,09,00,AAXX 10094 41939 01957 00000 10250 20160 30111 40120 70500 333 58004 70000==
41939,2024,12,10,12,00,AAXX 10124 41939 01957 00000 10200 20170 30119 40127 70500 333 10262 59001 70000==
41939,2024,12,10,18,00,AAXX 10184 41939 01950 00000 10170 20160 30155 40163 70500 333 58025 70000==
41939,2024,12,10,21,00,AAXX 10214 41939 01940 00000 10170 20160 30146 40155 70500 333 58016 70000==
41939,2024,12,11,00,00,AAXX 11004 41939 01940 00000 10162 20160 30156 40164 70500 333 58030 70000==
41939,2024,12,11,03,00,AAXX 11034 41939 01957 00000 10175 20160 30173 40181 70500 333 20148 58033 70000==
41939,2024,12,11,06,00,AAXX 11064 41939 01957 00000 10234 20170 30160 40168 70500 333 58028 70000==
41939,2024,12,11,09,00,AAXX 11094 41939 02957 00000 10245 20100 30145 40153 333 58020 70000==
41939,2024,12,11,12,00,AAXX 11124 41939 01956 00000 10184 20160 30152 40160 70500 333 10247 58015 70000==
41939,2024,12,11,18,00,AAXX 11184 41939 NIL=
41939,2024,12,11,21,00,AAXX 11214 41939 01950 00000 10120 20110 30138 40146 70500 333 59008 70000==
41939,2024,12,12,00,00,AAXX 12004 41939 01950 00000 10116 20116 30140 40148 70500 333 58016 70000==
41939,2024,12,12,03,00,AAXX 12034 41939 01956 00000 10140 20130 30145 40153 70500 333 20113 59028 70000==
41939,2024,12,12,06,00,AAXX 12064 41939 01457 70000 10158 20150 30150 40158 70522 83510 333 59010 70000==
41939,2024,12,12,09,00,AAXX 12094 41939 02957 00000 10195 20150 30115 40123 333 59030 70000==
41939,2024,12,12,12,00,AAXX 12124 41939 02950 00000 10160 20150 30119 40127 333 10198 59033 70000==
41939,2024,12,12,15,00,AAXX 12154 41939 NIL=
41939,2024,12,12,18,00,AAXX 12184 41939 02950 00000 10148 20140 30134 40143 333 59031 70000==
41939,2024,12,12,21,00,AAXX 12214 41939 01920 00000 10144 20140 30138 40146 71040 333 58000 70000==
41941,2024,12,06,00,00,AAXX 06004 41941 01420 73602 10165 20160 30113 40118 71022 85420 333 59007 70000 84616 87458==
41941,2024,12,06,03,00,AAXX 06034 41941 02956 03603 10225 20190 30132 40138 333 20162 59012 70000==
41941,2024,12,06,06,00,AAXX 06064 41941 02956 03602 10271 20140 30118 40124 333 59007 70000==
41941,2024,12,06,09,00,AAXX 06094 41941 02956 02702 10274 20120 30093 40099 333 59005 70000==
41941,2024,12,06,12,00,AAXX 06124 41941 02956 03602 10220 20140 30098 40104 333 10282 58001 70000==
41941,2024,12,06,15,00,AAXX 06154 41941 01950 03602 10198 20190 30123 40129 70500 333 58010 70000==
41941,2024,12,06,18,00,AAXX 06184 41941 NIL=
41941,2024,12,06,21,00,AAXX 06214 41941 01940 00000 10164 20140 30116 40122 70500 333 58007 70000==
41941,2024,12,07,00,00,AAXX 07004 41941 01910 02702 10153 20130 30117 40123 71000 333 58004 70000==
41941,2024,12,07,03,00,AAXX 07033 41941 02956 00000 10217 20140 30137 40142 333 20150 58005 70000==
41941,2024,12,07,06,00,AAXX 07064 41941 02956 00000 10266 20140 30130 40135 333 58012 70000==
41941,2024,12,07,09,00,AAXX 07094 41941 02956 00000 10266 20140 30130 40135 333 58012 70000==
41941,2024,12,07,12,00,AAXX 07124 41941 02950 03602 10202 20140 30117 40123 333 10276 58019 70000==
41941,2024,12,07,15,00,AAXX 07154 41941 02940 03602 10182 20150 30139 40144 333 58016 70000==
41941,2024,12,07,18,00,AAXX 07184 41941 02940 00000 10170 20150 30137 40142 333 58016 70000==
41941,2024,12,07,21,00,AAXX 07214 41941 02940 00000 10160 20150 30127 40132 333 58011 70000==
41941,2024,12,08,00,00,AAXX 08004 41941 02940 00000 10146 20140 30124 40129 333 58007 70000==
41941,2024,12,08,03,00,AAXX 08034 41941 02956 03601 10202 20110 30152 40158 333 20140 58015 70000==
41941,2024,12,08,06,00,AAXX 08063 41941 02956 03602 10250 20120 30134 40139 333 58004 70000==
41941,2024,12,08,09,00,AAXX 08094 41941 02956 03603 10262 20120 30112 40117 333 59003 70000==
41941,2024,12,08,12,00,AAXX 08124 41941 02950 03602 10205 20160 30112 40118 333 10272 59005 70000==
41941,2024,12,08,15,00,AAXX 08154 41941 02950 00000 10186 20150 30122 40127 333 59017 70000==
41941,2024,12,08,18,00,AAXX 08184 41941 NIL=
41941,2024,12,08,21,00,AAXX 08214 41941 01940 00000 10170 20140 30129 40134 70500 333 58002 70000==
41941,2024,12,09,00,00,AAXX 09004 41941 01940 00000 10155 20155 30129 40134 70500 333 59005 70000==
41941,2024,12,09,03,00,AAXX 09034 41941 02956 00000 10195 20180 30149 40154 333 20152 59003 70000==
41941,2024,12,09,06,00,AAXX 09064 41941 02956 00000 10250 20170 30136 40141 333 58002 70000==
41941,2024,12,09,09,00,AAXX 09094 41941 02956 00000 10261 20160 30106 40111 333 59006 70000==
41941,2024,12,09,12,00,AAXX 09124 41941 02940 03602 10215 20180 30114 40120 333 10266 58002 70000==
41941,2024,12,09,15,00,AAXX 09154 41941 02940 03602 10211 20170 30124 40130 333 58002 70000==
41941,2024,12,09,18,00,AAXX 09184 41941 02940 00000 10202 20160 30127 40133 333 59004 70000==
41941,2024,12,09,21,00,AAXX 09214 41941 01940 03602 10188 20170 30126 40131 70500 333 59003 70000==
41941,2024,12,10,00,00,AAXX 10004 41941 01950 03602 10180 20170 30125 40130 70500 333 59004 70000==
41941,2024,12,10,03,00,AAXX 10034 41941 02956 03602 10215 20180 30146 40151 333 20176 59003 70000==
41941,2024,12,10,06,00,AAXX 10064 41941 02956 03102 10255 20170 30127 40132 333 59009 70000==
41941,2024,12,10,09,00,AAXX 10094 41941 02956 00000 10262 20170 30100 40105 333 59006 70000==
41941,2024,12,10,12,00,AAXX 10124 41941 02940 03602 10210 20180 30101 40106 333 10265 59012 70000==
41941,2024,12,10,15,00,AAXX 10154 41941 02940 03602 10202 20190 30114 40120 333 59010 70000==
41941,2024,12,10,18,00,AAXX 10184 41941 02940 03601 10193 20180 30148 40154 333 58021 70000==
41941,2024,12,10,21,00,AAXX 10214 41941 01920 00000 10190 20180 30136 40142 71000 333 58010 70000==
41941,2024,12,11,00,00,AAXX 11004 41941 01920 03602 10162 20160 30144 40150 71000 333 59019 70000==
41941,2024,12,11,03,00,AAXX 11034 41941 01930 03602 10192 20180 30165 40171 70500 333 20159 58019 70000==
41941,2024,12,11,06,00,AAXX 11064 41941 02956 03604 10220 20170 30147 40152 333 58020 70000==
41941,2024,12,11,09,00,AAXX 11094 41941 02956 03602 10250 20130 30118 40123 333 58018 70000==
41941,2024,12,11,12,00,AAXX 11124 41941 02956 03601 10206 20150 30116 40122 333 10254 58014 70000==
41941,2024,12,11,15,00,AAXX 11154 41941 01950 03602 10180 20150 30133 40139 70500 333 58004 70000==
41941,2024,12,11,18,00,AAXX 11184 41941 01950 03604 10185 20170 30130 40135 70500 333 59018 70000==
41941,2024,12,12,00,00,AAXX 12004 41941 01900 03602 10137 20137 30123 40129 74740 89/// 333 59021 70000==
41941,2024,12,12,03,00,AAXX 12034 41941 01906 03602 10164 20150 30136 40142 74344 89/// 333 20135 59029 70000==
41941,2024,12,12,06,00,AAXX 12064 41941 01908 03602 10184 20180 30130 40136 77344 89/// 333 59017 70000==
41941,2024,12,12,09,00,AAXX 12094 41941 01430 63602 10205 20170 30112 40118 71040 84520 333 59006 70000 84616 86458==
41941,2024,12,12,12,00,AAXX 12124 41941 01940 03602 10184 20170 30113 40119 70540 333 10226 59003 70000==
41941,2024,12,12,15,00,AAXX 12154 41941 01940 03602 10168 20160 30132 40138 70500 333 59001 70000==
41941,2024,12,12,21,00,AAXX 12214 41941 01940 03602 10155 20150 30139 40145 70500 333 58012 70000==
41943,2024,12,06,00,00,AAXX 06004 41943 01930 00000 10140 20130 30115 40123 70500 333 59007 70000==
41943,2024,12,06,03,00,AAXX 06034 41943 01930 00502 10200 20160 30135 40143 70500 333 20140 59011 70000==
41943,2024,12,06,06,00,AAXX 06064 41943 01935 03105 10273 20060 30120 40127 70500 333 59004 70000==
41943,2024,12,06,09,00,AAXX 06094 41943 01935 03104 10275 20120 30094 40101 70500 333 59003 70000==
41943,2024,12,06,12,00,AAXX 06124 41943 01930 00000 10190 20150 30095 40103 70500 333 10280 59004 70000==
41943,2024,12,06,15,00,AAXX 06154 41943 01930 00000 10168 20160 30119 40127 70500 333 58000 70000==
41943,2024,12,06,18,00,AAXX 06184 41943 01930 00000 10155 20150 30121 40129 70500 333 58003 70000==
41943,2024,12,06,21,00,AAXX 06214 41943 01930 00000 10152 20140 30117 40125 70500 333 59002 70000==
41943,2024,12,07,00,00,AAXX 07004 41943 01930 00000 10148 20140 30114 40122 70500 333 59001 70000==
41943,2024,12,07,03,00,AAXX 07033 41943 01935 00000 10190 20140 30132 40140 70500 333 10148 59003 70000==
41943,2024,12,07,06,00,AAXX 07064 41943 01940 03103 10266 20080 30122 40129 70500 333 58002 70000==
41943,2024,12,07,09,00,AAXX 07094 41943 01940 03106 10273 20060 30103 40110 70500 333 58009 70000==
41943,2024,12,07,12,00,AAXX 07124 41943 01930 00000 10190 20140 30110 40117 70500 333 10285 58015 70000==
41943,2024,12,07,15,00,AAXX 07154 41943 01930 00000 10155 20150 30131 40139 70500 333 58012 70000==
41943,2024,12,07,18,00,AAXX 07184 41943 01930 00000 10145 20140 30131 40139 70500 333 58009 70000==
41943,2024,12,07,21,00,AAXX 07214 41943 01930 00000 10140 20130 30125 40133 70500 333 58008 70000==
41943,2024,12,08,00,00,AAXX 08004 41943 01930 00000 10115 20110 30120 40128 70500 333 58006 70000==
41943,2024,12,08,03,00,AAXX 08034 41943 01935 00000 10212 20160 30141 40148 70500 333 20115 58009 70000==
41943,2024,12,08,06,00,AAXX 08064 41943 01940 03303 10275 20120 30127 40134 70500 333 58005 70000==
41943,2024,12,08,09,00,AAXX 08094 41943 01940 02302 10286 20110 30101 40108 70500 333 59002 70000==
41943,2024,12,08,12,00,AAXX 08124 41943 01930 00000 10190 20150 30101 40109 70500 333 10288 59009 70000==
41943,2024,12,08,15,00,AAXX 08154 41943 01930 00000 10158 20150 30118 40126 70500 333 59013 70000==
41943,2024,12,08,18,00,AAXX 08184 41943 01930 00000 10150 20140 30115 40123 70500 333 59015 70000==
41943,2024,12,08,21,00,AAXX 08214 41943 01930 00000 10134 20130 30114 40122 70500 333 59011 70000==
41943,2024,12,09,00,00,AAXX 09004 41943 01930 00000 10130 20130 30114 40122 70500 333 59006 70000==
41943,2024,12,09,03,00,AAXX 09034 41943 01935 00000 10195 20160 30142 40150 70500 333 20130 58001 70000==
41943,2024,12,09,06,00,AAXX 09064 41943 01940 03102 10275 20120 30130 40137 70500 333 58003 70000==
41943,2024,12,09,09,00,AAXX 09094 41943 01940 03102 10268 20150 30103 40110 70500 333 58002 70000==
41943,2024,12,09,12,00,AAXX 09124 41943 01940 00000 10194 20170 30107 40114 70500 333 10280 58006 70000==
41943,2024,12,09,15,00,AAXX 09154 41943 01940 03401 10180 20160 30119 40127 70500 333 58001 70000==
41943,2024,12,09,18,00,AAXX 09184 41943 01935 00000 10174 20160 30114 40122 70500 333 58001 70000==
41943,2024,12,10,00,00,AAXX 10004 41943 01935 00000 10156 20150 30117 40125 70500 333 58003 70000==
41943,2024,12,10,03,00,AAXX 10034 41943 01/35 63601 10205 20170 30139 40147 70521 86070 333 20145 59003 70000 83460 84362==
41943,2024,12,10,06,00,AAXX 10064 41943 01/35 33602 10270 20140 30127 40134 70521 83010 333 59003 70000 83460==
41943,2024,12,10,09,00,AAXX 10094 41943 01/40 23402 10276 20140 30104 40111 70511 82010 333 58001 70000 82460==
41943,2024,12,10,12,00,AAXX 10124 41943 01/40 23602 10205 20170 30108 40115 70511 82040 333 10283 58001 70000 82362==
41943,2024,12,10,15,00,AAXX 10154 41943 01940 03401 10171 20150 30133 40141 70500 333 58014 70000==
41943,2024,12,10,18,00,AAXX 10184 41943 01940 00000 10155 20150 30143 40151 70500 333 58029 70000==
41943,2024,12,10,21,00,AAXX 10214 41943 01915 00000 10144 20144 30138 40146 71040 333 58021 70000==
41943,2024,12,11,00,00,AAXX 11004 41943 01903 02901 10143 20143 30140 40148 74540 89/// 333 58021 70000 89003==
41943,2024,12,11,03,00,AAXX 11034 41943 01420 30000 10178 20170 30160 40168 71044 83500 333 20140 58021 70000 83618==
41943,2024,12,11,06,00,AAXX 11064 41943 01940 03404 10246 20140 30140 40147 70541 333 58013 70000==
41943,2024,12,11,09,00,AAXX 11094 41943 01950 03105 10256 20100 30111 40118 70500 333 58007 70000==
41943,2024,12,11,12,00,AAXX 11124 41943 01940 00000 10177 20140 30117 40125 70500 333 10266 58009 70000==
41943,2024,12,11,15,00,AAXX 11154 41943 01940 03202 10149 20130 30126 40134 70500 333 59007 70000==
41943,2024,12,11,18,00,AAXX 11184 41943 01935 00000 10132 20120 30128 40136 70500 333 59015 70000==
41943,2024,12,11,21,00,AAXX 11214 41943 01920 00000 10131 20131 30122 40130 71040 333 59016 70000==
41943,2024,12,12,00,00,AAXX 12004 41943 01903 03402 10310 20130 30116 40124 74540 89/// 333 59024 70000 89003==
41943,2024,12,12,03,00,AAXX 12034 41943 01905 03402 10157 20150 30133 40141 74544 89/// 333 20128 59027 70000 89005==
41943,2024,12,12,06,00,AAXX 12064 41943 01430 73203 10200 20150 30122 40129 70544 85510 333 59018 70000 85618 85460==
41943,2024,12,12,09,00,AAXX 12094 41943 01440 53403 10212 20150 30101 40108 70522 85500 333 59010 70000 85618==
41943,2024,12,12,12,00,AAXX 12124 41943 01440 13603 10167 20160 30108 40116 70521 81500 333 10220 59009 70000 81618==
41943,2024,12,12,15,00,AAXX 12154 41943 01930 03402 10145 20140 30129 40137 70500 333 58003 70000==
41943,2024,12,12,18,00,AAXX 12184 41943 01430 43602 10157 20157 30136 40144 70510 84500 333 58008 70000 84618==
41943,2024,12,12,21,00,AAXX 12214 41943 01920 03602 10150 20140 30132 40140 71040 333 58010 70000==
41944,2024,12,06,00,00,AAXX 06004 41944 NIL=
41944,2024,12,06,03,00,AAXX 06034 41944 NIL=
41944,2024,12,06,15,00,AAXX 06154 41944 NIL=
41944,2024,12,06,18,00,AAXX 06184 41944 NIL=
41944,2024,12,07,15,00,AAXX 07154 41944 NIL=
41944,2024,12,08,00,00,AAXX 08004 41944 NIL=
41944,2024,12,08,06,00,AAXX 08063 41944 NIL=
41944,2024,12,08,18,00,AAXX 08184 41944 NIL=
41944,2024,12,09,00,00,AAXX 09004 41944 NIL=
41944,2024,12,09,03,00,AAXX 09034 41944 NIL=
41944,2024,12,09,06,00,AAXX 09064 41944 NIL=
41944,2024,12,09,09,00,AAXX 09094 41944 NIL=
41944,2024,12,09,12,00,AAXX 09124 41944 NIL=
41944,2024,12,10,03,00,AAXX 10034 41944 NIL=
41944,2024,12,10,06,00,AAXX 10064 41944 NIL=
41944,2024,12,10,09,00,AAXX 10094 41944 NIL=
41944,2024,12,10,12,00,AAXX 10124 41944 NIL=
41944,2024,12,11,00,00,AAXX 11004 41944 NIL=
41944,2024,12,11,03,00,AAXX 11034 41944 NIL=
41944,2024,12,11,06,00,AAXX 11064 41944 NIL=
41944,2024,12,11,09,00,AAXX 11094 41944 NIL=
41944,2024,12,11,12,00,AAXX 11124 41944 NIL=
41944,2024,12,11,18,00,AAXX 11184 41944 NIL=
41944,2024,12,12,03,00,AAXX 12034 41944 NIL=
41944,2024,12,12,06,00,AAXX 12064 41944 NIL=
41944,2024,12,12,12,00,AAXX 12124 41944 NIL=
41944,2024,12,12,15,00,AAXX 12154 41944 NIL=
41946,2024,12,06,00,00,AAXX 06004 41946 01930 00000 10165 20160 30122 40127 70500 333 59007 70000==
41946,2024,12,06,03,00,AAXX 06034 41946 02956 00000 10214 20150 30148 40153 333 20162 59005 70000==
41946,2024,12,06,06,00,AAXX 06064 41946 02956 03604 10264 20110 30133 40138 333 59005 70000==
41946,2024,12,06,09,00,AAXX 06094 41946 02956 00000 10275 20120 30103 40108 333 59001 70000==
41946,2024,12,06,12,00,AAXX 06124 41946 02956 00000 10215 20180 30107 40112 333 10276 59005 70000==
41946,2024,12,06,15,00,AAXX 06154 41946 01950 00000 10187 20170 30129 40134 70500 333 58002 70000==
41946,2024,12,06,18,00,AAXX 06184 41946 01950 00000 10172 20160 30127 40132 70500 333 58004 70000==
41946,2024,12,06,21,00,AAXX 06214 41946 01950 00000 10166 20160 30118 40123 70500 333 58004 70000==
41946,2024,12,07,00,00,AAXX 07004 41946 01950 00000 10160 20150 30123 40128 70500 333 58001 70000==
41946,2024,12,07,03,00,AAXX 07033 41946 02956 00000 10215 20140 30146 40151 333 20155 59002 70000==
41946,2024,12,07,06,00,AAXX 07064 41946 02956 00304 10250 20110 30143 40148 333 58010 70000==
41946,2024,12,07,09,00,AAXX 07094 41946 02956 00000 10267 20100 30117 40122 333 58014 70000==
41946,2024,12,07,12,00,AAXX 07124 41946 02956 00000 10208 20170 30124 40129 333 10270 58017 70000==
41946,2024,12,07,15,00,AAXX 07154 41946 01950 00000 10178 20160 30141 40146 70500 333 58012 70000==
41946,2024,12,07,21,00,AAXX 07214 41946 01950 00000 10160 20150 30134 40139 70500 333 58016 70000==
41946,2024,12,08,00,00,AAXX 08004 41946 01950 00000 10152 20150 30136 40141 70500 333 58013 70000==
41946,2024,12,08,03,00,AAXX 08034 41946 02956 00000 10215 20120 30159 40164 333 20145 58013 70000==
41946,2024,12,08,06,00,AAXX 08063 41946 02956 00000 10245 20100 30147 40152 333 58004 70000==
41946,2024,12,08,09,00,AAXX 08094 41946 02957 00000 10260 20090 30115 40120 333 59002 70000==
41946,2024,12,08,12,00,AAXX 08124 41946 02956 00000 10204 20160 30119 40124 333 10261 59005 70000==
41946,2024,12,08,15,00,AAXX 08154 41946 01950 00000 10170 20150 30128 40133 70500 333 59013 70000==
41946,2024,12,08,18,00,AAXX 08184 41946 01950 00000 10170 20160 30123 40128 70500 333 59014 70000==
41946,2024,12,08,21,00,AAXX 08214 41946 01950 00000 10164 20150 30118 40123 70500 333 59016 70000==
41946,2024,12,09,00,00,AAXX 09004 41946 01940 00000 10157 20150 30127 40132 70500 333 59009 70000==
41946,2024,12,09,03,00,AAXX 09034 41946 01950 00000 10220 20170 30151 40156 70500 333 20150 59008 70000==
41946,2024,12,09,06,00,AAXX 09064 41946 02/56 30000 10260 20130 30136 40141 83030 333 59011 70000 83362==
41946,2024,12,09,09,00,AAXX 09094 41946 02956 00000 10268 20130 30112 40117 333 59003 70000==
41946,2024,12,09,12,00,AAXX 09124 41946 01550 33602 10230 20160 30121 40126 70500 83500 333 10270 58002 70000 83620==
41946,2024,12,09,15,00,AAXX 09154 41946 01950 30000 10200 20160 30128 40133 70500 83500 333 58000 70000 83620==
41946,2024,12,09,18,00,AAXX 09184 41946 01950 00000 10180 20170 30125 40130 70500 333 58002 70000==
41946,2024,12,09,21,00,AAXX 09214 41946 01950 00000 10180 20170 30121 40126 70500 333 58003 70000==
41946,2024,12,10,00,00,AAXX 10004 41946 01940 00000 10178 20170 30135 40140 70500 333 58008 70000==
41946,2024,12,10,03,00,AAXX 10034 41946 01950 00000 10200 20170 30151 40156 70500 333 20170 58000 70000==
41946,2024,12,10,06,00,AAXX 10064 41946 02956 00000 10240 20150 30140 40145 333 59007 70000==
41946,2024,12,10,09,00,AAXX 10094 41946 02956 00000 10260 20160 30115 40120 333 58003 70000==
41946,2024,12,10,12,00,AAXX 10124 41946 02956 00000 10218 20190 30125 40130 333 10262 58004 70000==
41946,2024,12,10,15,00,AAXX 10154 41946 01950 00000 10194 20180 30152 40157 70500 333 58024 70000==
41946,2024,12,10,18,00,AAXX 10184 41946 01940 00000 10178 20170 30158 40162 70500 333 58033 70000==
41946,2024,12,10,21,00,AAXX 10214 41946 01920 00000 10170 20160 30149 40154 71000 333 58028 70000==
41946,2024,12,11,00,00,AAXX 11004 41946 01905 00000 10161 20160 30153 40158 74640 333 58018 70000==
41946,2024,12,11,03,00,AAXX 11034 41946 01940 00000 10175 20170 30178 40183 70540 333 20155 58027 70000==
41946,2024,12,11,06,00,AAXX 11064 41946 01956 00000 10220 20170 30162 40167 70040 333 58022 70000==
41946,2024,12,11,09,00,AAXX 11094 41946 02956 03304 10238 20140 30131 40136 333 58016 70000==
41946,2024,12,11,12,00,AAXX 11124 41946 01950 00000 10200 20160 30131 40136 70500 333 10240 58006 70000==
41946,2024,12,11,15,00,AAXX 11154 41946 01950 00000 10165 20160 30145 40150 70500 333 59007 70000==
41946,2024,12,11,18,00,AAXX 11184 41946 01950 00000 10160 20150 30141 40146 70500 333 59017 70000==
41946,2024,12,12,00,00,AAXX 12004 41946 01930 00000 10135 20130 30137 40142 70500 333 59016 70000==
41946,2024,12,12,03,00,AAXX 12034 41946 02956 00000 10190 20120 30149 40154 333 20130 59029 70000==
41946,2024,12,12,06,00,AAXX 12064 41946 02956 00000 10220 20100 30138 40143 333 59020 70000==
41946,2024,12,12,09,00,AAXX 12094 41946 02956 00000 10240 20110 30116 40121 333 59015 70000==
41946,2024,12,12,12,00,AAXX 12124 41946 01950 00000 10200 20160 30123 40128 70500 333 10242 59008 70000==
41946,2024,12,12,15,00,AAXX 12154 41946 01940 00000 10168 20160 30144 40149 70500 333 59001 70000==
41946,2024,12,12,18,00,AAXX 12184 41946 01940 00000 10160 20150 30144 40148 70500 333 58003 70000==
41946,2024,12,12,21,00,AAXX 12214 41946 01940 00000 10148 20140 30138 40143 70500 333 58004 70000==
41947,2024,12,06,00,00,AAXX 06004 41947 01940 00000 10174 20170 30119 40121 70500 333 59011 70000==
41947,2024,12,06,03,00,AAXX 06034 41947 01950 00000 10214 20170 30146 40148 70500 333 20162 59004 70000==
41947,2024,12,06,06,00,AAXX 06064 41947 02956 00000 10270 20120 30133 40135 333 59001 70000==
41947,2024,12,06,09,00,AAXX 06094 41947 02956 00000 10275 20090 30101 40103 333 59005 70000==
41947,2024,12,06,12,00,AAXX 06124 41947 02950 00000 10218 20160 30108 40110 333 10284 59003 70000==
41947,2024,12,06,15,00,AAXX 06154 41947 01950 00000 10185 20170 30131 40133 70500 333 58005 70000==
41947,2024,12,06,18,00,AAXX 06184 41947 01950 00000 10180 20170 30136 40138 70500 333 58014 70000==
41947,2024,12,07,00,00,AAXX 07004 41947 01950 00000 10148 20140 30127 40129 70500 333 58008 70000==
41947,2024,12,07,03,00,AAXX 07033 41947 01950 00000 10215 20120 30144 40146 70500 333 20145 59002 70000==
41947,2024,12,07,06,00,AAXX 07064 41947 02956 00000 10264 20060 30137 40139 333 58004 70000==
41947,2024,12,07,09,00,AAXX 07094 41947 02956 00000 10268 20120 30117 40119 333 58016 70000==
41947,2024,12,07,12,00,AAXX 07124 41947 02956 00000 10205 20150 30125 40125 333 10278 58015 70000==
41947,2024,12,07,15,00,AAXX 07154 41947 01950 00000 10185 20160 30137 40139 70500 333 58006 70000==
41947,2024,12,07,18,00,AAXX 07184 41947 01940 00000 10168 20160 30137 40139 70500 333 58001 70000==
41947,2024,12,07,21,00,AAXX 07214 41947 01940 00000 10155 20150 30129 40131 70500 333 58003 70000==
41947,2024,12,08,00,00,AAXX 08004 41947 01940 00000 10144 20130 30130 40132 70500 333 58003 70000==
41947,2024,12,08,03,00,AAXX 08034 41947 01950 00000 10210 20130 30157 40159 70500 333 20140 58013 70000==
41947,2024,12,08,06,00,AAXX 08063 41947 02956 00000 10255 20120 30141 40143 333 58004 70000==
41947,2024,12,08,09,00,AAXX 08094 41947 02950 00000 10265 20100 30112 40114 333 59005 70000==
41947,2024,12,08,12,00,AAXX 08124 41947 01950 00000 10202 20160 30117 40119 70500 333 10267 59006 70000==
41947,2024,12,08,15,00,AAXX 08154 41947 01950 00000 10172 20160 30127 40129 70500 333 59010 70000==
41947,2024,12,08,18,00,AAXX 08184 41947 01950 00000 10160 20150 30123 40125 70500 333 59025 70000==
41947,2024,12,08,21,00,AAXX 08214 41947 01950 00000 10157 20150 30125 40127 70500 333 59004 70000==
41947,2024,12,09,00,00,AAXX 09004 41947 01950 00000 10155 20150 30128 40130 70500 333 59002 70000==
41947,2024,12,09,03,00,AAXX 09034 41947 01950 00000 10212 20170 30151 40153 70500 333 20150 59006 70000==
41947,2024,12,09,06,00,AAXX 09064 41947 02956 00000 10265 20130 30135 40137 333 59006 70000==
41947,2024,12,09,09,00,AAXX 09094 41947 02956 00000 10270 20140 30111 40113 333 59001 70000==
41947,2024,12,09,12,00,AAXX 09124 41947 01450 60000 10236 20180 30117 40119 70520 83570 333 10278 58000 70000 83618 84459==
41947,2024,12,09,15,00,AAXX 09154 41947 01450 60000 10203 20170 30127 40129 70522 83570 333 58000 70000 83618 84459==
41947,2024,12,09,18,00,AAXX 09184 41947 01950 00000 10190 20180 30123 40125 70520 333 58000 70000==
41947,2024,12,09,21,00,AAXX 09214 41947 01950 00000 10185 20180 30123 40125 70500 333 59002 70000==
41947,2024,12,10,00,00,AAXX 10004 41947 01440 30000 10182 20170 30129 40131 70500 83500 333 58001 70000 83618==
41947,2024,12,10,03,00,AAXX 10034 41947 01950 00000 10204 20170 30149 40151 70500 333 20170 59002 70000==
41947,2024,12,10,06,00,AAXX 10064 41947 02956 00000 10250 20160 30139 40141 333 58004 70000==
41947,2024,12,10,09,00,AAXX 10094 41947 02956 03202 10260 20170 30113 40115 333 58002 70000==
41947,2024,12,10,12,00,AAXX 10124 41947 02950 00000 10220 20180 30121 40123 333 10264 58004 70000==
41947,2024,12,10,15,00,AAXX 10154 41947 01950 00000 10195 20180 30140 40142 70500 333 58013 70000==
41947,2024,12,10,18,00,AAXX 10184 41947 01950 00000 10180 20170 30155 40157 70500 333 58032 70000==
41947,2024,12,10,21,00,AAXX 10214 41947 01950 00000 10160 20150 30155 40157 70500 333 58032 70000==
41947,2024,12,11,00,00,AAXX 11004 41947 01950 00000 10150 20150 30155 40157 70500 333 58026 70000==
41947,2024,12,11,03,00,AAXX 11034 41947 01950 00000 10180 20160 30175 40177 70500 333 20148 58026 70000==
41947,2024,12,11,06,00,AAXX 11064 41947 01950 03602 10238 20150 30158 40160 70500 333 58019 70000==
41947,2024,12,11,09,00,AAXX 11094 41947 01950 00000 10250 20110 30127 40129 70500 333 58014 70000==
41947,2024,12,11,12,00,AAXX 11124 41947 01950 00000 10200 20140 30130 40132 70500 333 10252 58009 70000==
41947,2024,12,11,15,00,AAXX 11154 41947 01950 00000 10170 20140 30142 40144 70500 333 59001 70000==
41947,2024,12,11,18,00,AAXX 11184 41947 01950 00000 10168 20150 30147 40149 70500 333 59008 70000==
41947,2024,12,12,00,00,AAXX 12004 41947 01950 00000 10130 20120 30127 40129 70500 333 59028 70000==
41947,2024,12,12,03,00,AAXX 12034 41947 01950 03602 10181 20100 30147 40149 70500 333 20124 59028 70000==
41947,2024,12,12,06,00,AAXX 12064 41947 01950 00000 10220 20140 30135 40137 70500 333 59023 70000==
41947,2024,12,12,09,00,AAXX 12094 41947 01950 03602 10210 20150 30118 40120 70500 333 59009 70000==
41947,2024,12,12,12,00,AAXX 12124 41947 01950 00000 10175 20160 30121 40123 70500 333 10225 59009 70000==
41947,2024,12,12,15,00,AAXX 12154 41947 01950 00000 10155 20150 30142 40144 70500 333 58000 70000==
41947,2024,12,12,18,00,AAXX 12184 41947 01950 00000 10150 20140 30143 40145 70500 333 59004 70000==
41947,2024,12,12,21,00,AAXX 12214 41947 01950 00000 10142 20140 30141 40143 70500 333 58004 70000==
41950,2024,12,06,00,00,AAXX 06004 41950 01935 00000 10158 20158 30119 40121 70500 333 59008 70000==
41950,2024,12,06,03,00,AAXX 06034 41950 31940 00000 10219 20170 30141 40143 70500 333 20154 59009 70000=
41950,2024,12,06,06,00,AAXX 06064 41950 01945 00000 10274 20110 30127 40129 70500 333 58003 70000==
41950,2024,12,06,09,00,AAXX 06094 41950 02950 00000 10283 20100 30100 40102 333 59004 70000==
41950,2024,12,06,12,00,AAXX 06124 41950 02950 00000 10204 20170 30105 40107 333 10290 59002 70000==
41950,2024,12,06,15,00,AAXX 06154 41950 01945 00000 10174 20160 30126 40128 70500 333 58001 70000==
41950,2024,12,06,18,00,AAXX 06184 41950 01945 00000 10165 20160 30124 40126 70500 333 58004 70000==
41950,2024,12,06,21,00,AAXX 06214 41950 01940 00000 10142 20142 30120 40122 70500 333 58002 70000==
41950,2024,12,07,00,00,AAXX 07004 41950 01940 00000 10140 20140 30117 40119 70500 333 59002 70000==
41950,2024,12,07,03,00,AAXX 07033 41950 01940 00000 10208 20160 30141 40143 70500 333 20135 58003 70000==
41950,2024,12,07,06,00,AAXX 07064 41950 02950 00000 10259 20080 30131 40133 333 58004 70000==
41950,2024,12,07,09,00,AAXX 07094 41950 02950 00000 10270 20090 30113 40115 333 58013 70000==
41950,2024,12,07,12,00,AAXX 07124 41950 02950 00000 10200 20150 30122 40124 333 10276 58017 70000==
41950,2024,12,07,15,00,AAXX 07154 41950 01945 00000 10160 30138 40140 70500 333 58012 70000==
41950,2024,12,07,18,00,AAXX 07184 41950 01940 00000 10154 20140 30136 40138 70500 333 58012 70000==
41950,2024,12,07,21,00,AAXX 07214 41950 01940 00000 10141 20140 30131 40133 70500 333 58011 70000==
41950,2024,12,08,00,00,AAXX 08004 41950 01935 10000 10133 20130 30129 40131 70500 80001 333 58012 70000 81080==
41950,2024,12,08,03,00,AAXX 08034 41950 01940 00000 10205 20150 30151 40153 70510 333 20127 58010 70000==
41950,2024,12,08,06,00,AAXX 08064 41950 02950 00000 10252 20080 30136 40138 333 58005 70000==
41950,2024,12,08,09,00,AAXX 08094 41950 02950 00000 10264 20110 30111 40113 333 59002 70000==
41950,2024,12,08,12,00,AAXX 08124 41950 02950 00000 10190 20150 30116 40118 333 10267 59006 70000==
41950,2024,12,08,15,00,AAXX 08154 41950 02950 00000 10158 20150 30123 40125 333 59015 70000==
41950,2024,12,08,18,00,AAXX 08184 41950 02950 00000 10153 20150 30120 40122 333 59016 70000==
41950,2024,12,08,21,00,AAXX 08214 41950 01940 00000 10142 20140 30120 40122 70500 333 59011 70000==
41950,2024,12,09,00,00,AAXX 09004 41950 01940 00000 10135 20135 30123 40125 70500 333 59006 70000==
41950,2024,12,09,03,00,AAXX 09034 41950 01940 00000 10188 20180 30152 40154 70500 333 20133 58001 70000==
41950,2024,12,09,06,00,AAXX 09064 41950 01945 00000 10254 20150 30133 40135 70500 333 59003 70000==
41950,2024,12,09,09,00,AAXX 09094 41950 01945 00000 10267 20140 30107 40109 70500 333 59004 70000==
41950,2024,12,09,12,00,AAXX 09124 41950 01945 00000 10212 20180 30114 40116 70500 333 10270 59002 70000==
41950,2024,12,09,15,00,AAXX 09154 41950 01945 00000 10185 20180 30126 40128 70500 333 58003 70000==
41950,2024,12,09,18,00,AAXX 09184 41950 01945 00000 10176 20176 30120 40122 70500 333 58000 70000==
41950,2024,12,09,21,00,AAXX 09214 41950 01945 00000 10171 20170 30118 40120 70500 333 59002 70000==
41950,2024,12,10,00,00,AAXX 10004 41950 01940 00000 10168 20168 30127 40129 70500 333 58004 70000==
41950,2024,12,10,03,00,AAXX 10034 41950 01920 00000 10200 20180 30145 40147 71022 333 20165 59007 70000==
41950,2024,12,10,06,00,AAXX 10064 41950 01945 00000 10256 20170 30132 40134 70520 333 59001 70000==
41950,2024,12,10,09,00,AAXX 10094 41950 01945 03202 10268 20170 30109 40111 70500 333 58002 70000==
41950,2024,12,10,12,00,AAXX 10124 41950 01950 10000 10210 20180 30118 40120 70510 80001 333 10272 58004 70000 81080==
41950,2024,12,10,15,00,AAXX 10154 41950 01945 00000 10183 20170 30143 40145 70500 333 58017 70000==
41950,2024,12,10,18,00,AAXX 10184 41950 01940 00000 10170 20170 30148 40150 70500 333 58028 70000==
41950,2024,12,10,21,00,AAXX 10214 41950 01920 00000 10160 20160 30146 40148 71000 333 58028 70000==
41950,2024,12,11,00,00,AAXX 11004 41950 01901 00000 10155 20155 30147 40149 74500 333 58020 70000==
41950,2024,12,11,03,00,AAXX 11034 41950 01415 20000 10174 20160 30171 40173 72844 82500 333 20145 58026 70000 82616==
41950,2024,12,11,06,00,AAXX 11064 41950 01945 03202 10245 20150 30150 40152 70541 333 58018 70000==
41950,2024,12,11,09,00,AAXX 11094 41950 01945 00000 10252 20090 30122 40124 70500 333 58013 70000==
41950,2024,12,11,12,00,AAXX 11124 41950 01945 00000 10198 20150 30126 40128 70500 333 10258 58008 70000==
41950,2024,12,11,15,00,AAXX 11154 41950 01945 00000 10159 20130 30137 40139 70500 333 59006 70000==
41950,2024,12,11,18,00,AAXX 11184 41950 01940 00000 10150 20130 30135 40137 70500 333 59013 70000==
41950,2024,12,11,21,00,AAXX 11214 41950 01940 00000 10136 20130 30128 40130 70500 333 59018 70000==
41950,2024,12,12,00,00,AAXX 12004 41950 01935 10000 10117 20117 30125 40127 70500 80001 333 59022 70000 81080==
41950,2024,12,12,03,00,AAXX 12034 41950 01940 00000 10184 20130 30141 40143 70500 333 20112 59030 70000==
41950,2024,12,12,06,00,AAXX 12064 41950 01945 03502 10214 20140 30130 40132 70500 333 59020 70000==
41950,2024,12,12,09,00,AAXX 12094 41950 01945 00000 10220 20140 30112 40114 70500 333 59010 70000==
41950,2024,12,12,12,00,AAXX 12124 41950 01945 00000 10170 20150 30117 40119 70500 333 10226 59009 70000==
41950,2024,12,12,15,00,AAXX 12154 41950 01940 00000 10150 20150 30138 40140 70500 333 58001 70000==
41950,2024,12,12,18,00,AAXX 12184 41950 01940 00000 10132 20130 30142 40144 70500 333 58007 70000==
41950,2024,12,12,21,00,AAXX 12214 41950 01920 00000 10140 20140 30135 40137 71000 333 58007 70000==
41951,2024,12,06,00,00,AAXX 06004 41951 01925 00000 10151 20150 30110 40115 71000 333 59010 70000==
41951,2024,12,06,03,00,AAXX 06034 41951 01940 00000 10230 20200 30129 40134 70500 333 20146 59011 70000==
41951,2024,12,06,06,00,AAXX 06064 41951 02956 03202 10277 20110 30118 40122 333 58003 70000==
41951,2024,12,06,09,00,AAXX 06094 41951 02956 00000 10278 20150 30091 40096 333 59006 70000==
41951,2024,12,06,12,00,AAXX 06124 41951 01940 00000 10201 20180 30098 40102 70500 333 10283 59004 70000==
41951,2024,12,06,15,00,AAXX 06154 41951 01940 00000 10179 20170 30109 40114 70500 333 59007 70000==
41951,2024,12,06,18,00,AAXX 06184 41951 01940 00000 10160 20150 30117 40122 70500 333 58005 70000==
41951,2024,12,07,00,00,AAXX 07004 41951 01925 00000 10135 20135 30110 40115 71000 333 58000 70000==
41951,2024,12,07,03,00,AAXX 07033 41951 02956 00000 10227 20140 30127 40132 333 20132 59002 70000==
41951,2024,12,07,06,00,AAXX 07064 41951 02956 00502 10270 20100 30122 40127 333 58004 70000==
41951,2024,12,07,09,00,AAXX 07094 41951 02956 00000 10272 20120 30107 40111 333 58016 70000==
41951,2024,12,07,12,00,AAXX 07124 41951 01940 00000 10192 20170 30114 40119 70500 333 10277 58016 70000==
41951,2024,12,07,15,00,AAXX 07154 41951 01940 00000 10165 20160 30129 40134 70500 333 58020 70000==
41951,2024,12,07,18,00,AAXX 07184 41951 01940 00000 10148 20140 30128 40133 70500 333 58011 70000==
41951,2024,12,07,21,00,AAXX 07214 41951 01925 00000 10136 20136 30123 40128 71000 333 58008 70000==
41951,2024,12,08,00,00,AAXX 08004 41951 01425 20000 10130 20130 30120 40125 71000 82500 333 58010 70000 82618==
41951,2024,12,08,03,00,AAXX 08034 41951 01940 00000 10224 20150 30139 40144 70500 333 20125 58012 70000==
41951,2024,12,08,06,00,AAXX 08063 41951 02956 03101 10258 20110 30128 40133 333 58006 70000==
41951,2024,12,08,09,00,AAXX 08094 41951 02956 00000 10266 20150 30103 40108 333 59004 70000==
41951,2024,12,08,12,00,AAXX 08124 41951 01940 00000 10185 20180 30110 40115 70500 333 10274 58012 70000==
41951,2024,12,08,15,00,AAXX 08154 41951 01940 00000 10159 20150 30117 40122 70500 333 59012 70000==
41951,2024,12,08,18,00,AAXX 08184 41951 01940 00000 10146 20140 30113 40118 70500 333 59015 70000==
41951,2024,12,08,21,00,AAXX 08214 41951 01925 00000 10142 20140 30112 40117 71000 333 59011 70000==
41951,2024,12,09,00,00,AAXX 09004 41951 01925 00000 10135 20135 30116 40121 71000 333 59004 70000==
41951,2024,12,09,03,00,AAXX 09034 41951 01940 00000 10194 20180 30139 40144 70500 333 20130 58000 70000==
41951,2024,12,09,06,00,AAXX 09064 41951 02956 00502 10251 20160 30125 40130 333 59003 70000==
41951,2024,12,09,09,00,AAXX 09094 41951 02956 00000 10266 20150 30102 40107 333 59001 70000==
41951,2024,12,09,12,00,AAXX 09124 41951 01940 00000 10200 20180 30106 40111 70500 333 10272 59004 70000==
41951,2024,12,09,15,00,AAXX 09154 41951 01940 00000 10178 20170 30116 40121 70500 333 59001 70000==
41951,2024,12,09,18,00,AAXX 09184 41951 01940 00000 10172 20160 30111 40116 70500 333 59002 70000==
41951,2024,12,09,21,00,AAXX 09214 41951 01925 00000 10172 20170 30112 40117 71000 333 58000 70000==
41951,2024,12,10,00,00,AAXX 10004 41951 01925 00000 10170 20170 30117 40122 71000 333 58001 70000==
41951,2024,12,10,03,00,AAXX 10034 41951 01940 00000 10202 20190 30141 40146 70500 333 20163 58002 70000==
41951,2024,12,10,06,00,AAXX 10064 41951 01940 20000 10258 20180 30118 40123 70500 80008 333 59007 70000 82278==
41951,2024,12,10,09,00,AAXX 10094 41951 01940 20000 10264 20160 30103 40108 70500 80008 333 58001 70000 82278==
41951,2024,12,10,12,00,AAXX 10124 41951 01940 00000 10204 20180 30109 40114 70500 333 10270 58003 70000==
41951,2024,12,10,15,00,AAXX 10154 41951 01940 00000 10179 20170 30136 40141 70500 333 58020 70000==
41951,2024,12,10,18,00,AAXX 10184 41951 01940 00000 10171 20160 30138 40143 70500 333 58027 70000==
41951,2024,12,10,21,00,AAXX 10214 41951 01925 00000 10163 20160 30137 40142 71000 333 58025 70000==
41951,2024,12,11,00,00,AAXX 11004 41951 01925 00000 10150 20150 30136 40141 71000 333 58019 70000==
41951,2024,12,11,03,00,AAXX 11034 41951 01908 03102 10174 20170 30158 40163 74040 333 20145 58017 70000==
41951,2024,12,11,06,00,AAXX 11064 41951 01940 03103 10249 20140 30142 40147 70540 333 58024 70000==
41951,2024,12,11,09,00,AAXX 11094 41951 01940 00000 10257 20130 30114 40119 70500 333 58011 70000==
41951,2024,12,11,12,00,AAXX 11124 41951 01940 00000 10192 20170 30117 40122 70500 333 10263 58008 70000==
41951,2024,12,11,15,00,AAXX 11154 41951 01940 00000 10155 20150 30127 40132 70500 333 59009 70000==
41951,2024,12,11,18,00,AAXX 11184 41951 01940 00000 10153 20140 30127 40132 70500 333 59011 70000==
41951,2024,12,12,00,00,AAXX 12004 41951 01925 00000 10114 20110 30112 40117 71000 333 59024 70000==
41951,2024,12,12,03,00,AAXX 12034 41951 01940 00000 10188 20160 30129 40134 70500 333 20105 59029 70000==
41951,2024,12,12,06,00,AAXX 12064 41951 01940 03102 10239 20150 30120 40125 70500 333 59022 70000==
41951,2024,12,12,09,00,AAXX 12094 41951 01940 03104 10220 20170 30103 40108 70500 333 59011 70000==
41951,2024,12,12,12,00,AAXX 12124 41951 01940 00000 10176 20170 30106 40111 70500 333 10239 59011 70000==
41951,2024,12,12,15,00,AAXX 12154 41951 01940 00000 10154 20140 30129 40134 70500 333 58002 70000==
41951,2024,12,12,18,00,AAXX 12184 41951 01940 00000 10142 20130 30133 40138 70500 333 58006 70000==
41951,2024,12,12,21,00,AAXX 12214 41951 01425 20000 10134 20130 30131 40136 71000 82500 333 58007 70000 82618==
41953,2024,12,06,00,00,AAXX 06004 41953 01904 00000 10174 20174 30118 40124 74244 333 59010 70000==
41953,2024,12,06,03,00,AAXX 06034 41953 01930 00000 10220 20170 30138 40143 71044 333 20170 59014 70000==
41953,2024,12,06,06,00,AAXX 06064 41953 01940 03603 10270 20110 30124 40129 70540 333 59003 70000==
41953,2024,12,06,09,00,AAXX 06094 41953 01940 00000 10270 20100 30098 40103 70500 333 59002 70000==
41953,2024,12,06,12,00,AAXX 06124 41953 01940 00000 10222 20140 30100 40105 70500 333 10275 59006 70000==
41953,2024,12,06,15,00,AAXX 06154 41953 01940 00000 10190 20130 30122 40127 70500 333 59001 70000==
41953,2024,12,06,18,00,AAXX 06184 41953 01940 00000 10180 20140 30125 40130 70500 333 58000 70000==
41953,2024,12,06,21,00,AAXX 06214 41953 01940 00000 10175 20150 30120 40125 70500 333 59003 70000==
41953,2024,12,07,00,00,AAXX 07004 41953 01935 00000 10156 20140 30116 40121 70500 333 59002 70000==
41953,2024,12,07,03,00,AAXX 07033 41953 01940 00000 10210 20130 30136 40141 70500 333 20155 59002 70000==
41953,2024,12,07,06,00,AAXX 07064 41953 01940 00000 10260 20060 30128 40133 70500 333 58004 70000==
41953,2024,12,07,09,00,AAXX 07094 41953 01940 03603 10265 20090 30108 40113 70500 333 58010 70000==
41953,2024,12,07,12,00,AAXX 07124 41953 01940 00000 10205 20150 30119 40124 70500 333 10270 58019 70000==
41953,2024,12,07,15,00,AAXX 07154 41953 01940 00000 10180 20160 30135 40140 70500 333 58013 70000==
41953,2024,12,07,18,00,AAXX 07184 41953 01940 00000 10170 20150 30134 40139 70500 333 58009 70000==
41953,2024,12,07,21,00,AAXX 07214 41953 01940 00000 10166 20160 30130 40135 70500 333 58010 70000==
41953,2024,12,08,00,00,AAXX 08004 41953 01935 00000 10155 20140 30124 40129 70500 333 58008 70000==
41953,2024,12,08,03,00,AAXX 08034 41953 01940 00000 10200 20140 30147 40152 70500 333 20150 58011 70000==
41953,2024,12,08,06,00,AAXX 08063 41953 01940 00000 10256 20110 30132 40137 70500 333 58004 70000==
41953,2024,12,08,09,00,AAXX 08094 41953 01940 00000 10266 20100 30108 40113 70500 333 58000 70000==
41953,2024,12,08,12,00,AAXX 08124 41953 01940 00000 10205 20150 30107 40112 70500 333 10275 59012 70000==
41953,2024,12,08,15,00,AAXX 08154 41953 01940 00000 10186 20140 30121 40126 70500 333 59014 70000==
41953,2024,12,08,18,00,AAXX 08184 41953 01940 00000 10170 20140 30120 40125 70500 333 59014 70000==
41953,2024,12,08,21,00,AAXX 08214 41953 01940 00000 10160 20140 30115 40120 70500 333 59015 70000==
41953,2024,12,09,00,00,AAXX 09004 41953 01920 00000 10160 20150 30120 40125 71000 333 59004 70000==
41953,2024,12,09,03,00,AAXX 09034 41953 01925 00000 10200 20160 30145 40150 71000 333 20155 59002 70000==
41953,2024,12,09,06,00,AAXX 09064 41953 01940 03101 10254 20120 30130 40135 70500 333 59002 70000==
41953,2024,12,09,09,00,AAXX 09094 41953 01940 00000 10260 20140 30107 40112 70500 333 59001 70000==
41953,2024,12,09,12,00,AAXX 09124 41953 01928 00000 10214 20170 30110 40115 71000 333 10264 58003 70000==
41953,2024,12,09,15,00,AAXX 09154 41953 01920 00000 10194 20180 30122 40128 71000 333 58001 70000==
41953,2024,12,09,18,00,AAXX 09184 41953 01920 00000 10184 20170 30121 40127 71000 333 58001 70000==
41953,2024,12,09,21,00,AAXX 09214 41953 01920 00000 10180 20170 30123 40129 71000 333 58008 70000==
41953,2024,12,10,00,00,AAXX 10004 41953 01920 50000 10178 20170 30126 40132 71020 82510 333 58006 70000 82618 84458==
41953,2024,12,10,03,00,AAXX 10034 41953 01430 70000 10200 20160 30144 40150 71022 83510 333 20176 59001 70000 83616 86458==
41953,2024,12,10,06,00,AAXX 10064 41953 01940 00504 10255 20150 30131 40136 70520 333 58001 70000==
41953,2024,12,10,09,00,AAXX 10094 41953 01940 03604 10262 20140 30107 40112 70500 333 58000 70000==
41953,2024,12,10,12,00,AAXX 10124 41953 01940 00000 10220 20160 30111 40116 70500 333 10270 58001 70000==
41953,2024,12,10,15,00,AAXX 10154 41953 01935 00000 10196 20170 30137 40142 70500 333 58015 70000==
41953,2024,12,10,18,00,AAXX 10184 41953 01935 00000 10186 20180 30148 40152 70500 333 58027 70000==
41953,2024,12,10,21,00,AAXX 10214 41953 01935 03604 10170 20160 30137 40142 70500 333 58014 70000==
41953,2024,12,11,00,00,AAXX 11004 41953 01935 03604 10165 20160 30142 40147 70500 333 58016 70000==
41953,2024,12,11,03,00,AAXX 11034 41953 01940 00000 10190 20160 30165 40170 70500 333 20163 58021 70000==
41953,2024,12,11,06,00,AAXX 11064 41953 01940 03602 10242 20130 30145 40150 70500 333 58014 70000==
41953,2024,12,11,09,00,AAXX 11094 41953 01940 03102 10250 20090 30117 40122 70500 333 58010 70000==
41953,2024,12,11,12,00,AAXX 11124 41953 01930 00000 10200 20140 30119 40124 70500 333 10252 58008 70000==
41953,2024,12,11,15,00,AAXX 11154 41953 01925 03101 10184 20130 30132 40138 70500 333 59005 70000==
41953,2024,12,11,18,00,AAXX 11184 41953 NIL=
41953,2024,12,12,00,00,AAXX 12004 41953 01902 00000 10152 20150 30121 40127 74340 89/// 333 59021 70000==
41953,2024,12,12,03,00,AAXX 12034 41953 01908 03101 10164 20150 30138 40144 74244 333 20150 59027 70000==
41953,2024,12,12,06,00,AAXX 12064 41953 01430 63603 10190 20150 30126 40131 71042 83510 333 59019 70000 83616 85458==
41953,2024,12,12,09,00,AAXX 12094 41953 01430 83605 10192 20150 30108 40113 71022 8352/ 333 59009 70000 83616 88458==
41953,2024,12,12,12,00,AAXX 12124 41953 01430 30000 10180 20150 30113 40118 71022 83500 333 10200 59006 70000 83618==
41953,2024,12,12,15,00,AAXX 12154 41953 01930 03603 10165 20160 30133 40138 71020 333 58001 70000==
41953,2024,12,12,18,00,AAXX 12184 41953 01930 00000 10155 20150 30140 40145 71000 333 58005 70000==
41953,2024,12,12,21,00,AAXX 12214 41953 01930 00503 10156 20150 30134 40139 71000 333 58006 70000==
41955,2024,12,06,00,00,AAXX 06004 41955 NIL=
41955,2024,12,06,03,00,AAXX 06034 41955 NIL=
41955,2024,12,06,15,00,AAXX 06154 41955 NIL=
41955,2024,12,06,18,00,AAXX 06184 41955 NIL=
41955,2024,12,07,15,00,AAXX 07154 41955 NIL=
41955,2024,12,08,00,00,AAXX 08004 41955 NIL=
41955,2024,12,08,06,00,AAXX 08063 41955 NIL=
41955,2024,12,08,18,00,AAXX 08184 41955 NIL=
41955,2024,12,09,00,00,AAXX 09004 41955 NIL=
41955,2024,12,09,03,00,AAXX 09034 41955 NIL=
41955,2024,12,09,06,00,AAXX 09064 41955 NIL=
41955,2024,12,09,09,00,AAXX 09094 41955 NIL=
41955,2024,12,09,12,00,AAXX 09124 41955 NIL=
41955,2024,12,10,03,00,AAXX 10034 41955 NIL=
41955,2024,12,10,06,00,AAXX 10064 41955 NIL=
41955,2024,12,10,09,00,AAXX 10094 41955 NIL=
41955,2024,12,10,12,00,AAXX 10124 41955 NIL=
41955,2024,12,11,00,00,AAXX 11004 41955 NIL=
41955,2024,12,11,03,00,AAXX 11034 41955 NIL=
41955,2024,12,11,06,00,AAXX 11064 41955 NIL=
41955,2024,12,11,09,00,AAXX 11094 41955 NIL=
41955,2024,12,11,12,00,AAXX 11124 41955 NIL=
41955,2024,12,11,18,00,AAXX 11184 41955 NIL=
41955,2024,12,12,03,00,AAXX 12034 41955 NIL=
41955,2024,12,12,06,00,AAXX 12064 41955 NIL=
41955,2024,12,12,12,00,AAXX 12124 41955 NIL=
41955,2024,12,12,15,00,AAXX 12154 41955 NIL=
41958,2024,12,06,00,00,AAXX 06004 41958 31930 00000 10182 20180 30115 40117 71000 333 59008 70000=
41958,2024,12,06,03,00,AAXX 06034 41958 31950 00000 10230 20170 30140 40142 70500 333 20174 59004 70000=
41958,2024,12,06,06,00,AAXX 06064 41958 31950 00501 10270 20120 30127 40129 70500 333 59001 70000=
41958,2024,12,06,09,00,AAXX 06094 41958 31950 00000 10282 20110 30099 40101 70500 333 59004 70000=
41958,2024,12,06,12,00,AAXX 06124 41958 31950 00000 10212 20150 30102 40104 70500 333 10284 59007 70000=
41958,2024,12,06,15,00,AAXX 06154 41958 31950 00000 10187 20150 30126 40128 70500 333 58002 70000=
41958,2024,12,06,18,00,AAXX 06184 41958 NIL=
41958,2024,12,06,21,00,AAXX 06214 41958 31940 00000 10175 20175 30119 40121 70500 333 58005 70000=
41958,2024,12,07,00,00,AAXX 07004 41958 31940 00000 10165 20165 30121 40123 70500 333 58006 70000=
41958,2024,12,07,03,00,AAXX 07034 41958 31950 00501 10215 20170 30144 40146 70500 333 20158 58004 70000=
41958,2024,12,07,06,00,AAXX 07064 41958 31950 00902 10270 20090 30139 40141 70500 333 58012 70000=
41958,2024,12,07,09,00,AAXX 07094 41958 31950 03502 10280 20130 30112 40114 70500 333 58013 70000=
41958,2024,12,07,12,00,AAXX 07124 41958 31940 00000 10210 20140 30118 40121 70500 333 10282 58016 70000=
41958,2024,12,07,15,00,AAXX 07154 41958 31940 00000 10176 20160 30137 40139 70500 333 58011 70000=
41958,2024,12,07,18,00,AAXX 07184 41958 31940 00000 10170 20150 30138 40140 70500 333 58016 70000=
41958,2024,12,07,21,00,AAXX 07214 41958 31940 00000 10158 20158 30125 40127 70500 333 58006 70000=
41958,2024,12,08,00,00,AAXX 08004 41958 31940 10000 10156 20156 30128 40130 70500 80001 333 56009 58007 70000 81080=
41958,2024,12,08,03,00,AAXX 08034 41958 31940 13301 10210 20150 30151 40153 70500 80001 333 20150 58007 70000 81080=
41958,2024,12,08,06,00,AAXX 08064 41958 31950 03503 10256 20100 30136 40138 70500 333 59003 70000=
41958,2024,12,08,09,00,AAXX 08094 41958 31950 03402 10270 20130 30111 40113 70500 333 59001 70000=
41958,2024,12,08,12,00,AAXX 08124 41958 31940 00000 10196 20160 30113 40115 70500 333 10274 59005 70000=
41958,2024,12,08,15,00,AAXX 08154 41958 31940 00000 10174 20150 30123 40125 70500 333 59014 70000=
41958,2024,12,08,18,00,AAXX 08184 41958 31940 00000 10162 20150 30128 40130 70500 333 58010 70000=
41958,2024,12,08,21,00,AAXX 08214 41958 31940 00000 10160 20150 30123 40125 70500 333 59002 70000=
41958,2024,12,09,00,00,AAXX 09004 41958 31940 10000 10158 20150 30126 40128 70500 80001 333 56009 59002 70000 81080=
41958,2024,12,09,03,00,AAXX 09034 41958 31950 03301 10218 20160 30147 40149 70500 333 20154 59004 70000=
41958,2024,12,09,06,00,AAXX 09064 41958 31950 00902 10266 20140 30129 40131 70500 333 59007 70000=
41958,2024,12,09,09,00,AAXX 09094 41958 31950 10000 10270 20140 30107 40109 70500 81030 333 56090 59004 70000 81362=
41958,2024,12,09,12,00,AAXX 09124 41958 31940 20000 10226 20170 30112 40115 70500 82030 333 10275 59001 70000 82362=
41958,2024,12,09,15,00,AAXX 09154 41958 31940 00000 10210 20170 30123 40125 70500 333 58000 70000=
41958,2024,12,09,18,00,AAXX 09184 41958 31940 00000 10206 20180 30124 40126 70500 333 59004 70000=
41958,2024,12,09,21,00,AAXX 09214 41958 31940 00000 10190 20170 30126 40128 70500 333 58003 70000=
41958,2024,12,10,00,00,AAXX 10004 41958 31940 50000 10188 20170 30130 40132 70520 85030 333 56090 58004 70000 85362=
41958,2024,12,10,03,00,AAXX 10034 41958 31950 00302 10206 20170 30146 40149 70520 333 20176 59001 70000=
41958,2024,12,10,06,00,AAXX 10064 41958 31950 03301 10250 20160 30133 40135 70520 333 58004 70000=
41958,2024,12,10,09,00,AAXX 10094 41958 31950 03401 10266 20150 30110 40112 70500 333 58003 70000=
41958,2024,12,10,12,00,AAXX 10124 41958 31940 00000 10214 20180 30118 40120 70500 333 10272 58006 70000=
41958,2024,12,10,15,00,AAXX 10154 41958 31940 00000 10210 20170 30145 40147 70500 333 58022 70000=
41958,2024,12,10,21,00,AAXX 10214 41958 31/02 90000 10168 20168 30141 40143 74744 89/// 333 56999 58015 70000=
41958,2024,12,11,00,00,AAXX 11004 41958 31/00 90000 10166 20166 30147 40149 74744 89/// 333 56999 58017 70000=
41958,2024,12,11,03,00,AAXX 11034 41958 31912 00000 10188 20180 30171 40173 71044 333 20158 58025 70000=
41958,2024,12,11,06,00,AAXX 11064 41958 31940 10202 10240 20150 30152 40154 70540 80001 333 56009 58019 70000 81080=
41958,2024,12,11,09,00,AAXX 11094 41958 31950 03601 10246 20100 30125 40127 70500 333 58015 70000=
41958,2024,12,11,12,00,AAXX 11124 41958 31940 03601 10196 20150 30126 40128 70500 333 10250 58008 70000=
41958,2024,12,11,15,00,AAXX 11154 41958 31940 03501 10180 20150 30136 40138 70500 333 59009 70000=
41958,2024,12,11,18,00,AAXX 11184 41958 31940 03501 10170 20150 30138 40140 70500 333 59010 70000=
41958,2024,12,12,00,00,AAXX 12004 41958 31950 10000 10140 20120 30124 40126 70500 81030 333 56090 59023 70000 81362=
41958,2024,12,12,03,00,AAXX 12034 41958 31950 03602 10190 20130 30141 40143 70500 333 20130 59030 70000=
41958,2024,12,12,06,00,AAXX 12064 41958 31950 03505 10234 20120 30129 40132 70500 333 59023 70000=
41958,2024,12,12,12,00,AAXX 12124 41958 31940 00000 10190 20160 30116 40118 70500 333 10245 59010 70000=
41958,2024,12,12,15,00,AAXX 12154 41958 31940 00000 10170 20160 30137 40139 70500 333 58001 70000=
41958,2024,12,12,18,00,AAXX 12184 41958 31940 00000 10162 20150 30141 40143 70500 333 58003 70000=
41958,2024,12,12,21,00,AAXX 12214 41958 31940 00000 10153 20140 30131 40133 70500 333 58010 70000=
41960,2024,12,06,00,00,AAXX 06004 41960 01940 00000 10173 20173 30119 40121 70500 333 59007 70000==
41960,2024,12,06,03,00,AAXX 06034 41960 01950 00000 10206 20170 30140 40142 70500 333 20163 59007 70000==
41960,2024,12,06,06,00,AAXX 06064 41960 01950 03601 10272 20150 30123 40125 70500 333 58000 70000==
41960,2024,12,06,09,00,AAXX 06094 41960 01940 03602 10280 20150 30101 40102 70500 333 59004 70000==
41960,2024,12,06,12,00,AAXX 06124 41960 01940 03602 10208 20180 30102 40104 70500 333 10286 59005 70000==
41960,2024,12,06,15,00,AAXX 06154 41960 01940 00000 10180 20180 30124 40126 70500 333 59002 70000==
41960,2024,12,06,18,00,AAXX 06184 41960 01940 00000 10173 20173 30125 40127 70500 333 58002 70000==
41960,2024,12,06,21,00,AAXX 06214 41960 01920 00000 10160 20160 30124 40126 71000 333 58003 70000==
41960,2024,12,07,00,00,AAXX 07004 41960 01920 00000 10151 20151 30120 40122 71000 333 58001 70000==
41960,2024,12,07,03,00,AAXX 07033 41960 01940 00000 10196 20160 30142 40144 70500 333 20148 58002 70000==
41960,2024,12,07,06,00,AAXX 07064 41960 01950 00000 10262 20140 30125 40127 70500 333 58002 70000==
41960,2024,12,07,09,00,AAXX 07094 41960 01940 03605 10270 20140 30114 40115 70500 333 58013 70000==
41960,2024,12,07,12,00,AAXX 07124 41960 01940 00000 10201 20170 30116 40117 70500 333 10274 58014 70000==
41960,2024,12,07,15,00,AAXX 07154 41960 01940 00000 10170 20170 30135 40137 70500 333 59011 70000==
41960,2024,12,07,18,00,AAXX 07184 41960 01940 00000 10159 20159 30134 40136 70500 333 58009 70000==
41960,2024,12,07,21,00,AAXX 07214 41960 01930 00000 10152 20152 30131 40133 71000 333 58007 70000==
41960,2024,12,08,00,00,AAXX 08004 41960 01930 00000 10148 20148 30128 40130 71000 333 58008 70000==
41960,2024,12,08,03,00,AAXX 08034 41960 01940 00000 10195 20160 30151 40153 70500 333 20145 58009 70000==
41960,2024,12,08,06,00,AAXX 08063 41960 01950 03601 10250 20120 30138 40140 70500 333 58013 70000==
41960,2024,12,08,09,00,AAXX 08094 41960 01940 03404 10266 20140 30111 40113 70500 333 59003 70000==
41960,2024,12,08,12,00,AAXX 08124 41960 01940 00000 10195 20180 30112 40114 70500 333 10270 59004 70000==
41960,2024,12,08,15,00,AAXX 08154 41960 01940 00000 10169 20169 30123 40125 70500 333 59012 70000==
41960,2024,12,08,18,00,AAXX 08184 41960 01940 00000 10158 20158 30122 40124 70500 333 59012 70000==
41960,2024,12,08,21,00,AAXX 08214 41960 01920 00000 10153 20153 30124 40126 71000 333 59007 70000==
41960,2024,12,09,00,00,AAXX 09004 41960 01920 00000 10150 20150 30125 40127 71000 333 59013 70000==
41960,2024,12,09,03,00,AAXX 09034 41960 01940 00000 10188 20188 30147 40149 70500 333 20145 59004 70000==
41960,2024,12,09,06,00,AAXX 09064 41960 01940 00000 10265 20180 30134 40136 70500 333 59004 70000==
41960,2024,12,09,09,00,AAXX 09094 41960 01940 00000 10278 20180 30111 40113 70500 333 58000 70000==
41960,2024,12,09,12,00,AAXX 09124 41960 01940 00000 10230 20200 30104 40106 70500 333 10280 59008 70000==
41960,2024,12,09,15,00,AAXX 09154 41960 01940 00000 10193 20180 30122 40124 70500 333 59001 70000==
41960,2024,12,09,18,00,AAXX 09184 41960 01920 00000 10184 20184 30118 40120 71000 333 59004 70000==
41960,2024,12,09,21,00,AAXX 09214 41960 01920 00000 10182 20182 30121 40123 71000 333 59003 70000==
41960,2024,12,10,00,00,AAXX 10004 41960 01920 00000 10180 20180 30124 40126 71000 333 59001 70000==
41960,2024,12,10,03,00,AAXX 10034 41960 01930 00000 10200 20190 30138 40140 71000 333 20175 59009 70000==
41960,2024,12,10,06,00,AAXX 10064 41960 01940 00000 10257 20190 30127 40129 70500 333 59007 70000==
41960,2024,12,10,09,00,AAXX 10094 41960 01940 02702 10269 20190 30105 40107 70500 333 59006 70000==
41960,2024,12,10,12,00,AAXX 10124 41960 01940 00000 10266 20190 30110 40112 70500 333 10273 58006 70000==
41960,2024,12,10,15,00,AAXX 10154 41960 01940 00000 10200 20180 30142 40144 70500 333 58020 70000==
41960,2024,12,10,18,00,AAXX 10184 41960 01940 00000 10185 20180 30149 40151 70500 333 58031 70000==
41960,2024,12,10,21,00,AAXX 10214 41960 01430 50000 10175 20175 30148 40150 71022 84411 333 58027 70000 83618 85459==
41960,2024,12,11,00,00,AAXX 11004 41960 01420 60000 10168 20168 30147 40148 71022 84411 333 58022 70000 83618 86459==
41960,2024,12,11,03,00,AAXX 11034 41960 01430 60000 10175 20175 30165 40166 71044 83510 333 20165 58027 70000 83618 84459==
41960,2024,12,11,06,00,AAXX 11064 41960 01950 03604 10242 20140 30157 40159 70540 333 58030 70000==
41960,2024,12,11,09,00,AAXX 11094 41960 01940 03604 10252 20130 30121 40123 70500 333 58016 70000==
41960,2024,12,11,12,00,AAXX 11124 41960 01940 00000 10205 20160 30117 40119 70500 333 10260 58007 70000==
41960,2024,12,11,15,00,AAXX 11154 41960 01940 03302 10172 20150 30132 40134 70500 333 59010 70000==
41960,2024,12,11,18,00,AAXX 11184 41960 01940 02701 10163 20150 30137 40138 70500 333 59012 70000==
41960,2024,12,12,00,00,AAXX 12004 41960 01930 00000 10130 20130 30125 40127 71000 333 59022 70000==
41960,2024,12,12,03,00,AAXX 12034 41960 01940 03602 10172 20150 30139 40141 71000 333 20125 59026 70000==
41960,2024,12,12,06,00,AAXX 12064 41960 01950 03604 10238 20120 30121 40123 70500 333 59036 70000==
41960,2024,12,12,09,00,AAXX 12094 41960 01940 13105 10248 20150 30107 40109 70500 80001 333 59014 70000 81080==
41960,2024,12,12,12,00,AAXX 12124 41960 01940 20000 10190 20160 30110 40112 70500 80001 333 10256 59007 70000 82080==
41960,2024,12,12,15,00,AAXX 12154 41960 01940 03605 10163 20160 30134 40136 70500 333 58002 70000==
41960,2024,12,12,18,00,AAXX 12184 41960 01940 03602 10150 20150 30140 40141 70500 333 58003 70000==
41960,2024,12,12,21,00,AAXX 12214 41960 01/20 20000 10152 20152 30140 40142 71000 82010 333 58009 70000 82460==
41963,2024,12,06,00,00,AAXX 06004 41963 NIL=
41963,2024,12,06,03,00,AAXX 06034 41963 NIL=
41963,2024,12,06,09,00,AAXX 06094 41963 41940 03601 10270 20120 30096 40099 70500 333 59005==
41963,2024,12,06,12,00,AAXX 06124 41963 01930 00000 10210 20170 30095 40098 70500 333 10275 59007 70000==
41963,2024,12,06,15,00,AAXX 06154 41963 NIL=
41963,2024,12,06,18,00,AAXX 06184 41963 NIL=
41963,2024,12,07,15,00,AAXX 07154 41963 NIL=
41963,2024,12,08,00,00,AAXX 08004 41963 NIL=
41963,2024,12,08,06,00,AAXX 08063 41963 NIL=
41963,2024,12,08,18,00,AAXX 08184 41963 NIL=
41963,2024,12,09,00,00,AAXX 09004 41963 NIL=
41963,2024,12,09,03,00,AAXX 09034 41963 01420 23601 10210 20190 30148 40151 71010 82500 333 20148 58002 70000 82618==
41963,2024,12,09,06,00,AAXX 09064 41963 NIL=
41963,2024,12,09,09,00,AAXX 09094 41963 41940 03601 10270 20120 30096 40099 70500 333 59005==
41963,2024,12,09,12,00,AAXX 09124 41963 NIL=
41963,2024,12,10,00,00,AAXX 10004 41963 01912 00000 10153 20153 30114 40116 71000 333 59001 70000==
41963,2024,12,10,03,00,AAXX 10034 41963 01430 63601 10220 20180 30138 40141 70520 82510 333 20151 59010 70000 82618 85458==
41963,2024,12,10,06,00,AAXX 10064 41963 01940 03601 10260 20170 30127 40130 70500 333 59001 70000==
41963,2024,12,10,09,00,AAXX 10094 41963 NIL=
41963,2024,12,10,12,00,AAXX 10124 41963 NIL=
41963,2024,12,11,00,00,AAXX 11004 41963 NIL=
41963,2024,12,11,03,00,AAXX 11034 41963 NIL=
41963,2024,12,11,06,00,AAXX 11064 41963 01940 03602 10240 20210 30143 40146 70500 333 58016 70000==
41963,2024,12,11,09,00,AAXX 11094 41963 01940 03603 10250 20090 30113 40116 70500 333 58010 70000==
41963,2024,12,11,12,00,AAXX 11124 41963 01925 00000 10160 30115 40118 71000 333 10260 58010 70000==
41963,2024,12,11,18,00,AAXX 11184 41963 NIL=
41963,2024,12,12,03,00,AAXX 12034 41963 NIL=
41963,2024,12,12,06,00,AAXX 12064 41963 NIL=
41963,2024,12,12,12,00,AAXX 12124 41963 NIL=
41963,2024,12,12,15,00,AAXX 12154 41963 NIL=
41963,2024,12,12,21,00,AAXX 12214 41963 01910 00000 10150 20150 30126 40129 71000 333 59001 70000==
41964,2024,12,06,00,00,AAXX 06004 41964 01940 00000 10165 20165 30122 40125 70500 333 59009 70000==
41964,2024,12,06,03,00,AAXX 06034 41964 02956 00000 10240 20190 30136 40139 333 20150 59010 70000==
41964,2024,12,06,06,00,AAXX 06064 41964 02957 00502 10284 20110 30112 40114 333 59013 70000==
41964,2024,12,06,09,00,AAXX 06094 41964 02957 00000 10280 20120 30096 40099 333 58000 70000==
41964,2024,12,06,12,00,AAXX 06124 41964 01950 00000 10200 20180 30097 40100 70500 333 10290 59006 70000==
41964,2024,12,06,15,00,AAXX 06154 41964 01940 00000 10180 20170 30111 40114 70500 333 59008 70000==
41964,2024,12,06,18,00,AAXX 06184 41964 NIL=
41964,2024,12,07,00,00,AAXX 07004 41964 01940 00000 10145 20145 30121 40123 70500 333 59001 70000==
41964,2024,12,07,03,00,AAXX 07033 41964 02956 03601 10238 20150 30133 40136 333 20134 59003 70000==
41964,2024,12,07,06,00,AAXX 07064 41964 02957 00503 10273 20080 30116 40119 333 58004 70000==
41964,2024,12,07,09,00,AAXX 07094 41964 02957 00000 10275 20120 30105 40108 333 58009 70000==
41964,2024,12,07,12,00,AAXX 07124 41964 01950 00000 10196 20170 30114 40117 70500 333 10280 58017 70000==
41964,2024,12,07,15,00,AAXX 07154 41964 01940 00000 10173 20150 30127 40130 70500 333 58016 70000==
41964,2024,12,07,21,00,AAXX 07214 41964 01940 00000 10148 20148 30132 40134 70500 333 58010 70000==
41964,2024,12,08,00,00,AAXX 08004 41964 01940 00000 10146 20146 30128 40130 70500 333 58007 70000==
41964,2024,12,08,03,00,AAXX 08034 41964 02956 00301 10228 20190 30141 40144 333 20134 58008 70000==
41964,2024,12,08,06,00,AAXX 08063 41964 02957 00000 10273 20120 30123 40126 333 58007 70000==
41964,2024,12,08,09,00,AAXX 08094 41964 02957 00000 10270 20180 30099 40102 333 59006 70000==
41964,2024,12,08,12,00,AAXX 08124 41964 01950 00000 10195 20190 30106 40109 70500 333 10290 59008 70000==
41964,2024,12,08,15,00,AAXX 08154 41964 01940 00000 10176 20170 30123 40126 70500 333 59004 70000==
41964,2024,12,08,18,00,AAXX 08184 41964 NIL=
41964,2024,12,09,00,00,AAXX 09004 41964 NIL=
41964,2024,12,09,03,00,AAXX 09034 41964 02956 10000 10230 20180 30146 40149 80001 333 20145 58005 70000 81080==
41964,2024,12,09,06,00,AAXX 09064 41964 02957 00000 10267 20160 30130 40132 333 58007 70000==
41964,2024,12,09,09,00,AAXX 09094 41964 NIL=
41964,2024,12,09,12,00,AAXX 09124 41964 01950 00000 10207 20190 30110 40113 70500 333 10285 58004 70000==
41964,2024,12,09,15,00,AAXX 09154 41964 01940 00000 10186 20180 30123 40126 70500 333 58000 70000==
41964,2024,12,10,00,00,AAXX 10004 41964 01940 00000 10183 20180 30133 40135 70500 333 59002 70000==
41964,2024,12,10,03,00,AAXX 10034 41964 01950 00000 10230 20190 30139 40142 70500 333 20155 59007 70000==
41964,2024,12,10,06,00,AAXX 10064 41964 02957 03602 10273 20160 30121 40124 333 59009 70000==
41964,2024,12,10,09,00,AAXX 10094 41964 NIL=
41964,2024,12,10,12,00,AAXX 10124 41964 01950 00000 10211 20190 30106 40109 70500 333 10276 59004 70000==
41964,2024,12,11,00,00,AAXX 11004 41964 NIL=
41964,2024,12,11,03,00,AAXX 11034 41964 02956 03602 10217 20180 30159 40162 333 20150 58020 70000==
41964,2024,12,11,06,00,AAXX 11064 41964 02957 03603 10253 20150 30138 40141 333 58017 70000==
41964,2024,12,11,09,00,AAXX 11094 41964 02957 03502 10258 20140 30109 40112 333 58010 70000==
41964,2024,12,11,12,00,AAXX 11124 41964 01950 00000 10180 20150 30114 40117 70500 333 10269 58008 70000==
41964,2024,12,11,15,00,AAXX 11154 41964 01940 00000 10164 20140 30126 40129 70500 333 58003 70000==
41964,2024,12,11,18,00,AAXX 11184 41964 NIL=
41964,2024,12,12,03,00,AAXX 12034 41964 01950 00102 10192 20170 30131 40134 70521 333 20130 59028 70000==
41964,2024,12,12,06,00,AAXX 12064 41964 02957 03603 10248 20180 30107 40109 333 59031 70000==
41964,2024,12,12,09,00,AAXX 12094 41964 02957 00000 10235 20210 30096 40099 333 59013 70000==
41964,2024,12,12,12,00,AAXX 12124 41964 01950 00000 10181 20170 30109 40112 70500 333 10265 59005 70000==
41964,2024,12,12,15,00,AAXX 12154 41964 01940 00000 10156 20150 30129 40132 70500 333 58003 70000==
41965,2024,12,06,00,00,AAXX 06004 41965 NIL=
41965,2024,12,06,03,00,AAXX 06034 41965 01940 00000 10240 20100 30129 40138 70500 333 20140 59013 70000==
41965,2024,12,06,06,00,AAXX 06064 41965 01950 00000 10285 20040 30120 40129 70500 333 58005 70000==
41965,2024,12,06,09,00,AAXX 06094 41965 01950 00000 10280 20040 30091 40100 70500 333 59003 70000==
41965,2024,12,06,12,00,AAXX 06124 41965 01930 00000 10180 20120 30096 40105 70500 333 10310 59009 70000==
41965,2024,12,06,15,00,AAXX 06154 41965 01925 00000 10160 20120 30115 40124 70500 333 59003 70000==
41965,2024,12,06,18,00,AAXX 06184 41965 NIL=
41965,2024,12,07,00,00,AAXX 07004 41965 01915 00000 10140 20120 30121 40130 71000 333 58000 70000==
41965,2024,12,07,03,00,AAXX 07033 41965 01940 00000 10240 20100 30129 40138 70500 333 20130 58000 70000==
41965,2024,12,07,06,00,AAXX 07064 41965 01950 03102 10275 20020 30114 40123 70500 333 59006 70000==
41965,2024,12,07,09,00,AAXX 07094 41965 01950 00000 10270 20060 30101 40110 70500 333 58010 70000==
41965,2024,12,07,12,00,AAXX 07124 41965 01930 00000 10185 20140 30112 40121 70500 333 10290 58016 70000==
41965,2024,12,07,15,00,AAXX 07154 41965 01920 00000 10145 20120 30130 40139 70500 333 58015 70000==
41965,2024,12,07,21,00,AAXX 07214 41965 01915 00000 10140 20120 30131 40140 71000 333 58012 70000==
41965,2024,12,08,00,00,AAXX 08004 41965 01905 00000 10130 20110 30129 40138 74444 333 58008 70000==
41965,2024,12,08,03,00,AAXX 08034 41965 01940 00000 10220 20130 30137 40146 70500 333 20126 58008 70000==
41965,2024,12,08,06,00,AAXX 08063 41965 01950 03101 10278 20080 30117 40126 70500 333 58003 70000==
41965,2024,12,08,12,00,AAXX 08124 41965 01930 00000 10200 20120 30103 40112 70500 333 10298 59009 70000==
41965,2024,12,08,15,00,AAXX 08154 41965 01925 03101 10160 20120 30115 40124 70500 333 59015 70000==
41965,2024,12,08,18,00,AAXX 08184 41965 NIL=
41965,2024,12,09,00,00,AAXX 09004 41965 NIL=
41965,2024,12,09,03,00,AAXX 09034 41965 01940 00000 10220 20120 30141 40150 70500 333 20136 58004 70000==
41965,2024,12,09,06,00,AAXX 09064 41965 01950 00000 10270 20120 30123 40132 70500 333 58006 70000==
41965,2024,12,09,09,00,AAXX 09094 41965 01950 00000 10270 20140 30097 40106 70500 333 59002 70000==
41965,2024,12,09,12,00,AAXX 09124 41965 01930 00000 10200 20150 30105 40114 70500 333 10295 58002 70000==
41965,2024,12,09,15,00,AAXX 09154 41965 01925 00000 10175 20130 30116 40125 70500 333 58001 70000==
41965,2024,12,09,18,00,AAXX 09184 41965 01915 00000 10160 20140 30119 40122 71000 333 58002 70000==
41965,2024,12,09,21,00,AAXX 09214 41965 01915 00000 10160 20140 30119 40128 71000 333 58002 70000==
41965,2024,12,10,00,00,AAXX 10004 41965 01920 00000 10150 20120 30123 40132 71000 333 59008 70000==
41965,2024,12,10,03,00,AAXX 10034 41965 01940 00000 10230 20150 30135 40144 70500 333 20150 59006 70000==
41965,2024,12,10,06,00,AAXX 10064 41965 01950 00000 10280 20110 30122 40131 70500 333 59001 70000==
41965,2024,12,10,09,00,AAXX 10094 41965 01950 00000 10278 20150 30096 40105 70500 333 59001 70000==
41965,2024,12,10,12,00,AAXX 10124 41965 01930 00000 10200 20140 30107 40116 70500 333 10295 58002 70000==
41965,2024,12,11,00,00,AAXX 11004 41965 NIL=
41965,2024,12,11,03,00,AAXX 11034 41965 NIL=
41965,2024,12,11,06,00,AAXX 11064 41965 NIL=
41965,2024,12,11,09,00,AAXX 11094 41965 01940 01403 10260 20100 30105 40114 70500 333 58009 70000==
41965,2024,12,11,12,00,AAXX 11124 41965 01930 00000 10200 20120 30110 40119 70500 333 20295 58003 70000==
41965,2024,12,11,18,00,AAXX 11184 41965 NIL=
41965,2024,12,12,03,00,AAXX 12034 41965 01940 00000 10190 20110 30127 40136 70500 333 20120 59007 70000==
41965,2024,12,12,06,00,AAXX 12064 41965 01950 00000 10260 20100 30104 40113 70500 333 59005 70000==
41965,2024,12,12,09,00,AAXX 12094 41965 01950 03203 10260 20140 30089 40098 70500 333 59016 70000==
41965,2024,12,12,12,00,AAXX 12124 41965 01430 33102 10200 20120 30098 40107 70521 83500 333 10275 59012 70000 83616==
41965,2024,12,12,15,00,AAXX 12154 41965 01920 00000 10160 20130 30125 40134 71000 333 58003 70000==
41966,2024,12,06,00,00,AAXX 06004 41966 01920 00000 10170 20160 30050 40132 70500 333 59001 70000==
41966,2024,12,06,03,00,AAXX 06034 41966 01440 30000 10218 20190 30070 40150 70500 83500 333 20153 59016 70000 83616==
41966,2024,12,06,06,00,AAXX 06064 41966 01450 43602 10268 20130 30051 40131 70500 82510 333 59007 70000 82616 83458==
41966,2024,12,06,09,00,AAXX 06094 41966 01950 00000 10288 20110 30025 40103 70511 333 59007 70000==
41966,2024,12,06,12,00,AAXX 06124 41966 01920 00000 10170 20160 30051 40133 70500 333 58001 70000==
41966,2024,12,06,15,00,AAXX 06154 41966 01940 00000 10160 20140 30050 40132 70500 333 59002 70000==
41966,2024,12,06,18,00,AAXX 06184 41966 01940 00000 10145 20130 30054 40137 70500 333 58001 70000==
41966,2024,12,06,21,00,AAXX 06214 41966 01940 03602 10140 20120 30051 40134 70500 333 58001 70000==
41966,2024,12,07,00,00,AAXX 07004 41966 01930 00000 10135 20130 30048 40130 70500 333 59002 70000==
41966,2024,12,07,03,00,AAXX 07033 41966 01440 30000 10200 20170 30066 40147 70500 83500 333 20128 59003 70000 83615==
41966,2024,12,07,06,00,AAXX 07064 41966 01450 33603 10245 20160 30053 40133 70500 83500 333 58002 70000 83615==
41966,2024,12,07,09,00,AAXX 07094 41966 01950 00902 10260 20130 30038 40118 70500 333 58015 70000==
41966,2024,12,07,15,00,AAXX 07154 41966 01940 00000 10162 20150 30066 40148 70500 333 58016 70000==
41966,2024,12,07,18,00,AAXX 07184 41966 01940 00000 10150 20140 30064 40147 70500 333 58010 70000==
41966,2024,12,07,21,00,AAXX 07214 41966 01440 60000 10150 20140 30062 40145 70500 83510 333 58011 70000 83615 85458==
41966,2024,12,08,00,00,AAXX 08004 41966 01440 80000 10160 20130 30060 40142 70520 8452/ 333 58012 70000 84615 88458==
41966,2024,12,08,03,00,AAXX 08034 41966 01440 70000 10195 20170 30077 40158 70522 85510 333 20140 58011 70000 85615 87458==
41966,2024,12,08,06,00,AAXX 08063 41966 01950 00000 10257 20160 30056 40136 70522 333 58003 70000==
41966,2024,12,08,09,00,AAXX 08094 41966 02/50 40000 10272 20160 30033 40112 84010 333 59006 70000 84460==
41966,2024,12,08,12,00,AAXX 08124 41966 02940 00000 10208 20180 30036 40117 333 10280 59007 70000==
41966,2024,12,08,15,00,AAXX 08154 41966 02940 00000 10180 20160 30049 40131 333 59017 70000==
41966,2024,12,08,18,00,AAXX 08184 41966 02940 00000 10165 20160 30046 40128 333 59017 70000==
41966,2024,12,08,21,00,AAXX 08214 41966 02440 60000 10162 20150 30048 40131 83510 333 59014 70000 83615 84460==
41966,2024,12,09,00,00,AAXX 09004 41966 01440 70000 10160 20150 30052 40134 70520 83510 333 59008 70000 83615 86460==
41966,2024,12,09,03,00,AAXX 09034 41966 01440 60000 10202 20180 30079 40161 70522 83510 333 20153 58003 70000 83615 85460==
41966,2024,12,09,06,00,AAXX 09064 41966 02450 30000 10270 20180 30061 40140 82530 333 58004 70000 82616==
41966,2024,12,09,09,00,AAXX 09094 41966 02450 30501 10268 20170 30034 40113 82530 333 58001 70000 82616==
41966,2024,12,09,12,00,AAXX 09124 41966 02/30 30000 10215 20190 30039 40119 83010 333 10278 58003 70000 83460==
41966,2024,12,09,15,00,AAXX 09154 41966 01930 00000 10195 20180 30050 40131 70500 333 58000 70000==
41966,2024,12,09,18,00,AAXX 09184 41966 01930 00000 10175 20170 30052 40133 70500 333 58005 70000==
41966,2024,12,09,21,00,AAXX 09214 41966 01/30 30000 10170 20150 30053 40135 70500 83010 333 58004 70000 83460==
41966,2024,12,10,00,00,AAXX 10004 41966 01/30 50000 10163 20150 30056 40138 70500 85010 333 58004 70000 85460==
41966,2024,12,10,03,00,AAXX 10034 41966 01440 50501 10210 20180 30072 40153 70522 82510 333 10157 59007 70000 82616 84460==
41966,2024,12,10,06,00,AAXX 10064 41966 02450 50000 10270 20160 30054 40133 82510 333 59007 70000 82616 84460==
41966,2024,12,10,09,00,AAXX 10094 41966 02450 53602 10270 20170 30033 40112 82510 333 59001 70000 82616 84460==
41966,2024,12,10,12,00,AAXX 10124 41966 01430 50000 10210 20180 30038 40119 70522 82510 333 10280 59001 70000 82616 84460==
41966,2024,12,10,15,00,AAXX 10154 41966 01930 00000 10190 20170 30061 40143 70522 333 58011 70000==
41966,2024,12,10,21,00,AAXX 10214 41966 01/30 50000 10160 20150 30068 40151 70500 85010 333 58015 70000 85460==
41966,2024,12,11,00,00,AAXX 11004 41966 01/30 43602 10155 20150 30061 40151 70520 84030 333 58013 70000 84362==
41966,2024,12,11,03,00,AAXX 11034 41966 01/40 40000 10210 20170 30075 40156 70522 84010 333 20150 58003 70000 84460==
41966,2024,12,11,06,00,AAXX 11064 41966 02/50 30501 10260 20180 30063 40142 83010 333 58009 70000 83460==
41966,2024,12,11,09,00,AAXX 11094 41966 02/50 30401 10265 20160 30039 40118 83010 333 58006 70000 83460==
41966,2024,12,11,12,00,AAXX 11124 41966 01430 40000 10195 20160 30044 40125 70522 82510 333 10270 58006 70000 82616 83460==
41966,2024,12,11,15,00,AAXX 11154 41966 01930 00000 10165 20150 30056 40138 70511 333 59005 70000==
41966,2024,12,11,18,00,AAXX 11184 41966 01930 00000 10156 20150 30057 40140 70510 333 59012 70000==
41966,2024,12,12,00,00,AAXX 12004 41966 01430 60000 10143 20130 30050 40132 70500 82510 333 58019 70000 82616 85460==
41966,2024,12,12,03,00,AAXX 12034 41966 01440 70000 10185 20170 30064 40145 70522 84510 333 20135 59011 70000 84615 87458==
41966,2024,12,12,06,00,AAXX 12064 41966 01/50 30502 10242 20160 30045 40125 70522 83010 333 59018 70000 83460==
41966,2024,12,12,09,00,AAXX 12094 41966 01950 00502 10262 20130 30023 40102 70511 333 59016 70000==
41966,2024,12,12,12,00,AAXX 12124 41966 01/40 50000 10190 20170 30033 40114 70510 85070 333 10270 59011 70000 84460==
41966,2024,12,12,15,00,AAXX 12154 41966 01940 00000 10180 20170 30056 40138 70522 333 58000 70000==
41966,2024,12,12,21,00,AAXX 12214 41966 01430 60000 10175 20170 30057 40139 70500 83510 333 58003 70000 83615 84560==
41977,2024,12,06,00,00,AAXX 06004 41977 01/50 20000 10180 20170 30099 40138 70510 82030 333 59006 70000 82362==
41977,2024,12,06,03,00,AAXX 06034 41977 01950 00000 10240 20260 30122 40160 70500 333 20170 59014 70000==
41977,2024,12,06,06,00,AAXX 06064 41977 01950 02802 10288 20100 30101 40139 70500 333 59013 70000==
41977,2024,12,06,09,00,AAXX 06094 41977 01950 02802 10280 20070 30073 40111 70500 333 59004 70000==
41977,2024,12,06,12,00,AAXX 06124 41977 01950 00000 10215 20100 30080 40119 70500 333 10300 59006 70000==
41977,2024,12,06,15,00,AAXX 06154 41977 NIL=
41977,2024,12,06,18,00,AAXX 06184 41977 NIL=
41977,2024,12,06,21,00,AAXX 06214 41977 01950 00000 10168 20140 30097 40136 70500 333 58003 70000==
41977,2024,12,07,00,00,AAXX 07004 41977 01950 00000 10162 20130 30100 40140 70500 333 58001 70000==
41977,2024,12,07,03,00,AAXX 07033 41977 01950 02901 10228 20140 30113 40152 70500 333 20160 59009 70000==
41977,2024,12,07,06,00,AAXX 07064 41977 01956 03602 10272 20080 30101 40139 70500 333 58000 70000==
41977,2024,12,07,09,00,AAXX 07094 41977 01956 03602 10280 20110 30084 40122 70500 333 58011 70000==
41977,2024,12,07,12,00,AAXX 07124 41977 01950 00000 10198 20140 30095 40134 70500 333 10295 58015 70000==
41977,2024,12,07,15,00,AAXX 07154 41977 01950 00000 10180 20130 30112 40151 70500 333 58009 70000==
41977,2024,12,07,18,00,AAXX 07184 41977 01950 00000 10172 20130 30112 40150 70500 333 58009 70000==
41977,2024,12,07,21,00,AAXX 07214 41977 01950 00000 10168 20130 30107 40146 70500 333 58010 70000==
41977,2024,12,08,00,00,AAXX 08004 41977 01950 00000 10160 20140 30107 40147 70500 333 58007 70000==
41977,2024,12,08,03,00,AAXX 08034 41977 01950 00000 10200 20160 30125 40164 70500 333 20145 58012 70000==
41977,2024,12,08,06,00,AAXX 08063 41977 01950 00000 10278 20130 30103 40141 70500 333 58002 70000==
41977,2024,12,08,12,00,AAXX 08124 41977 01950 20000 10205 20170 30084 40123 70510 80001 333 10285 59011 70000==
41977,2024,12,08,15,00,AAXX 08154 41977 01950 00000 10198 20160 30103 40143 70500 333 59009 70000==
41977,2024,12,08,18,00,AAXX 08184 41977 01950 00000 10188 20170 30095 40134 70500 333 59017 70000==
41977,2024,12,08,21,00,AAXX 08214 41977 01950 00000 10184 20170 30092 40131 70500 333 59015 70000==
41977,2024,12,09,00,00,AAXX 09004 41977 01950 30000 10170 20170 30102 40141 70510 80001 333 58005 70000 83080==
41977,2024,12,09,03,00,AAXX 09034 41977 01950 00000 10210 20190 30141 40181 70500 333 20165 58016 70000==
41977,2024,12,09,06,00,AAXX 09064 41977 01950 00000 10270 20170 30114 40153 70500 333 58011 70000==
41977,2024,12,09,09,00,AAXX 09094 41977 01950 03102 10265 20150 30082 40120 70500 333 58000 70000==
41977,2024,12,09,12,00,AAXX 09124 41977 01450 60000 10215 20170 30088 40127 70520 83530 333 10278 58004 70000 83618 86362==
41977,2024,12,09,15,00,AAXX 09154 41977 01/50 30000 10200 20160 30103 40142 70511 83030 333 58000 70000 83362==
41977,2024,12,09,18,00,AAXX 09184 41977 01950 30000 10190 20180 30097 40136 70511 80001 333 58002 70000 83080==
41977,2024,12,09,21,00,AAXX 09214 41977 01950 30000 10185 20180 30094 40133 70520 80001 333 58002 70000 83080==
41977,2024,12,10,00,00,AAXX 10004 41977 01950 20000 10175 20160 30096 40135 70520 80001 333 59006 70000 82080==
41977,2024,12,10,03,00,AAXX 10034 41977 01950 00000 10221 20160 30129 40168 70510 333 20165 59012 70000==
41977,2024,12,10,06,00,AAXX 10064 41977 01450 20000 10284 20150 30106 40145 70520 333 59008 70000 80001 82080==
41977,2024,12,10,09,00,AAXX 10094 41977 01450 53602 10285 20160 30080 40118 70522 83530 333 59002 70000 83618 84362==
41977,2024,12,10,12,00,AAXX 10124 41977 01450 30000 10220 20190 30089 40129 70522 81530 333 10293 58001 70000 81618 83365==
41977,2024,12,10,15,00,AAXX 10154 41977 42450 40000 10207 20180 30114 40153 58011 84363==
41977,2024,12,10,18,00,AAXX 10184 41977 01450 40000 10200 20150 30112 40151 70522 82530 333 58015 70000 82618 84363==
41977,2024,12,10,21,00,AAXX 10214 41977 01450 40000 10190 20150 30113 40152 70522 82530 333 58019 70000 82618 84363==
41977,2024,12,11,00,00,AAXX 11004 41977 01450 30000 10170 20150 30117 40156 70522 81530 333 58021 70000 81618 83365==
41977,2024,12,11,03,00,AAXX 11034 41977 01950 00000 10205 20160 30137 40176 70520 333 20160 58008 70000==
41977,2024,12,11,06,00,AAXX 11064 41977 01950 02002 10263 20140 30126 40165 70500 333 58020 70000==
41977,2024,12,11,09,00,AAXX 11094 41977 01950 03602 10278 20110 30090 40128 70500 333 58010 70000==
41977,2024,12,11,12,00,AAXX 11124 41977 01950 03302 10212 20140 30094 40133 70500 333 10280 58005 70000==
41977,2024,12,11,15,00,AAXX 11154 41977 01950 00000 10190 20120 30104 40143 70500 333 59010 70000==
41977,2024,12,11,18,00,AAXX 11184 41977 01950 03502 10180 20130 30108 40147 70500 333 59004 70000==
41977,2024,12,12,00,00,AAXX 12004 41977 01950 03603 10162 20150 30099 40139 70500 333 59018 70000==
41977,2024,12,12,03,00,AAXX 12034 41977 01950 00000 10215 20170 30115 40154 70500 333 20155 59022 70000==
41977,2024,12,12,06,00,AAXX 12064 41977 01950 00000 10263 20130 30093 40132 70500 333 59033 70000==
41977,2024,12,12,09,00,AAXX 12094 41977 01950 02802 10260 20190 30072 40111 70500 333 59018 70000==
41977,2024,12,12,12,00,AAXX 12124 41977 01950 03102 10215 20190 30085 40124 70500 333 10285 59009 70000==
41977,2024,12,12,15,00,AAXX 12154 41977 01950 03102 10178 20170 30104 40143 70500 333 58000 70000==
41977,2024,12,12,18,00,AAXX 12184 41977 01950 03102 10170 20160 30114 40153 70500 333 58006 70000==
41977,2024,12,12,21,00,AAXX 12214 41977 01950 03102 10165 20160 30104 40143 70500 333 58005 70000==
41978,2024,12,06,00,00,AAXX 06004 41978 01918 00503 10182 20160 30114 40121 71000 333 59011 70000==
41978,2024,12,06,03,00,AAXX 06034 41978 31431 20203 10222 20160 30134 40141 70500 82500 333 20175 56900 59008 70000 82618=
41978,2024,12,06,06,00,AAXX 06064 41978 01445 23507 10282 20040 30117 40123 70500 82500 333 59005 70000 82618==
41978,2024,12,06,09,00,AAXX 06094 41978 01950 03412 10278 20010 30092 40099 70500 333 59004 70000==
41978,2024,12,06,12,00,AAXX 06124 41978 01945 03305 10258 20080 30094 40101 70500 333 10292 59011 70000==
41978,2024,12,06,15,00,AAXX 06154 41978 01940 03502 10200 20130 30119 40125 70500 333 59001 70000==
41978,2024,12,06,18,00,AAXX 06184 41978 01940 00302 10189 20140 30117 40123 70500 333 59001 70000==
41978,2024,12,06,21,00,AAXX 06214 41978 01935 00303 10177 20140 30107 40113 70500 333 59002 70000==
41978,2024,12,07,00,00,AAXX 07004 41978 01933 00404 10169 20130 30115 40121 70500 333 58001 70000==
41978,2024,12,07,03,00,AAXX 07033 41978 01935 00202 10205 20150 30131 40138 70500 333 20163 59003 70000==
41978,2024,12,07,06,00,AAXX 07064 41978 01940 00205 10270 20070 30118 40124 70500 333 58001 70000==
41978,2024,12,07,09,00,AAXX 07094 41978 01956 02703 10270 20070 30104 40110 70500 333 58012 70000==
41978,2024,12,07,12,00,AAXX 07124 41978 01950 00000 10218 20130 30115 40121 70500 333 10280 58021 70000==
41978,2024,12,07,15,00,AAXX 07154 41978 01940 00403 10200 20160 30131 40137 70500 333 58012 70000==
41978,2024,12,07,18,00,AAXX 07184 41978 01937 00303 10189 20160 30129 40135 70500 333 58012 70000==
41978,2024,12,07,21,00,AAXX 07214 41978 01936 00503 10177 20150 30122 40128 70500 333 58015 70000==
41978,2024,12,08,00,00,AAXX 08004 41978 01932 00404 10166 20150 30121 40127 70500 333 58012 70000==
41978,2024,12,08,03,00,AAXX 08034 41978 01935 00407 10218 20150 30140 40147 70500 333 20159 58009 70000==
41978,2024,12,08,06,00,AAXX 08064 41978 01956 00505 10267 20120 30120 40127 70500 333 58002 70000==
41978,2024,12,08,09,00,AAXX 08094 41978 01956 02605 10272 20110 30101 40107 70500 333 59003 70000==
41978,2024,12,08,12,00,AAXX 08124 41978 01950 22903 10240 20150 30104 40110 70510 80001 333 10276 59011 70000 82080==
41978,2024,12,08,15,00,AAXX 08154 41978 01950 23303 10224 20160 30119 40125 70511 80001 333 59012 70000 82080==
41978,2024,12,08,18,00,AAXX 08184 41978 01932 00902 10197 20170 30113 40119 70511 333 59016 70000==
41978,2024,12,08,21,00,AAXX 08214 41978 01932 00802 10190 20170 30107 40113 70500 333 59015 70000==
41978,2024,12,09,00,00,AAXX 09004 41978 01931 00504 10180 20170 30118 40124 70500 333 59003 70000==
41978,2024,12,09,03,00,AAXX 09034 41978 01335 30504 10208 20170 30144 40151 70500 82606 333 20168 58004 70000 82709 83270==
41978,2024,12,09,06,00,AAXX 09064 41978 01/56 30304 10268 20140 30128 40134 70510 82036 333 58008 70000 82365 83270==
41978,2024,12,09,09,00,AAXX 09094 41978 01950 22607 10262 20160 30101 40107 70500 80001 333 58000 70000 82080==
41978,2024,12,09,12,00,AAXX 09124 41978 01950 22803 10236 20180 30108 40115 70500 80001 333 10282 58004 70000 82080==
41978,2024,12,09,15,00,AAXX 09154 41978 01440 63504 10237 20150 30119 40125 70500 83520 333 58000 70000 83618 85460==
41978,2024,12,09,18,00,AAXX 09184 41978 01431 60203 10203 20160 30114 40121 70520 83520 333 58001 70000 83618 86360==
41978,2024,12,09,21,00,AAXX 09214 41978 01431 60104 10197 20150 30109 40116 70522 83520 333 58002 70000 83618 86460==
41978,2024,12,10,00,00,AAXX 10004 41978 01431 60203 10192 20150 30117 40124 70522 83520 333 59001 70000 83618 86460==
41978,2024,12,10,03,00,AAXX 10034 41978 01940 20104 10230 20160 30135 40142 70511 80001 333 20185 59009 70000 82080==
41978,2024,12,10,06,00,AAXX 10064 41978 01345 20208 10280 20140 30122 40128 70510 82600 333 59006 70000 82709==
41978,2024,12,10,09,00,AAXX 10094 41978 01940 00307 10287 20150 30093 40099 70510 333 59008 70000==
41978,2024,12,10,12,00,AAXX 10124 41978 01940 03505 10256 20150 30105 40112 70510 333 10292 59003 70000==
41978,2024,12,10,15,00,AAXX 10154 41978 01940 03504 10231 20150 30130 40137 70500 333 58011 70000==
41978,2024,12,10,18,00,AAXX 10184 41978 01940 03406 10216 20160 30138 40145 70500 333 58024 70000==
41978,2024,12,10,21,00,AAXX 10214 41978 01935 00204 10194 20160 30128 40135 70500 333 58019 70000==
41978,2024,12,11,00,00,AAXX 11004 41978 01931 00205 10177 20160 30134 40141 70500 333 58017 70000==
41978,2024,12,11,03,00,AAXX 11034 41978 01931 00107 10215 20160 30155 40161 70500 333 20172 58020 70000==
41978,2024,12,11,06,00,AAXX 11064 41978 01945 00106 10258 20130 30132 40139 70500 333 58010 70000==
41978,2024,12,11,09,00,AAXX 11094 41978 01950 03410 10264 20120 30103 40109 70500 333 58010 70000==
41978,2024,12,11,12,00,AAXX 11124 41978 01956 03512 10242 20120 30110 40116 70500 333 10275 58005 70000==
41978,2024,12,11,15,00,AAXX 11154 41978 01956 03506 10222 20090 30124 40130 70500 333 59006 70000==
41978,2024,12,11,18,00,AAXX 11184 41978 01956 00404 10199 20110 30121 40127 70500 333 59017 70000==
41978,2024,12,11,21,00,AAXX 11214 41978 01950 00207 10183 20120 30113 40119 70500 333 59015 70000==
41978,2024,12,12,00,00,AAXX 12004 41978 01935 00305 10173 20140 30116 40122 70500 333 59018 70000==
41978,2024,12,12,03,00,AAXX 12034 41978 01928 00105 10195 20150 30127 40133 71000 333 20158 59028 70000==
41978,2024,12,12,06,00,AAXX 12064 41978 01945 03406 10255 20130 30110 40116 70500 333 59022 70000==
41978,2024,12,12,09,00,AAXX 12094 41978 01940 03410 10252 20160 30088 40095 70500 333 59015 70000==
41978,2024,12,12,12,00,AAXX 12124 41978 01928 23410 10222 20180 30101 40107 70500 80005 333 10267 59009 70000 82270==
41978,2024,12,12,15,00,AAXX 12154 41978 01938 03507 10194 20170 30124 40130 70500 333 58000 70000==
41978,2024,12,12,18,00,AAXX 12184 41978 01937 03606 10281 20160 30132 40138 70500 333 58011 70000==
41978,2024,12,12,21,00,AAXX 12214 41978 01935 00109 10178 20160 30127 40133 70500 333 58014 70000==
41980,2024,12,06,00,00,AAXX 06004 41980 31940 00000 10191 20130 30009 40124 70500 333 59010 70000=
41980,2024,12,06,03,00,AAXX 06034 41980 31940 00000 10228 20140 30032 40146 70500 333 20165 59005 70000=
41980,2024,12,06,09,00,AAXX 06094 41980 31940 00502 10263 20070 39995 40107 70500 333 59001 70000=
41980,2024,12,06,12,00,AAXX 06124 41980 31940 00000 10195 20130 39996 40111 70500 333 10266 59007 70000=
41980,2024,12,06,15,00,AAXX 06154 41980 NIL=
41980,2024,12,06,18,00,AAXX 06184 41980 NIL=
41980,2024,12,07,00,00,AAXX 07004 41980 31940 03602 10160 20130 30009 40124 70500 333 58000 70000=
41980,2024,12,07,03,00,AAXX 07033 41980 31940 03602 10210 20120 30028 40143 70500 333 20150 59004 70000=
41980,2024,12,07,09,00,AAXX 07094 41980 31940 03602 10252 20070 39992 40105 70500 333 59003 70000=
41980,2024,12,07,12,00,AAXX 07124 41980 31940 00000 10193 20120 30013 40128 70500 333 10258 58017 70000=
41980,2024,12,07,15,00,AAXX 07154 41980 NIL=
41980,2024,12,08,00,00,AAXX 08004 41980 31940 03602 10162 20130 30015 40131 70500 333 58005 70000=
41980,2024,12,08,03,00,AAXX 08034 41980 31940 03602 10212 20120 30033 40147 70500 333 20148 58005 70000=
41980,2024,12,08,06,00,AAXX 08063 41980 NIL=
41980,2024,12,08,09,00,AAXX 08094 41980 31940 33602 10280 20150 39996 40108 70510 83001 333 56009 58004 70000 83080=
41980,2024,12,08,12,00,AAXX 08124 41980 31940 00000 10202 20120 30015 40130 70500 333 10290 58002 70000=
41980,2024,12,08,18,00,AAXX 08184 41980 NIL=
41980,2024,12,09,00,00,AAXX 09004 41980 31935 03602 10165 20160 30016 40132 70500 333 58001 70000=
41980,2024,12,09,03,00,AAXX 09034 41980 31940 00000 10198 20170 30039 40155 70500 333 20147 58011 70000=
41980,2024,12,09,06,00,AAXX 09064 41980 NIL=
41980,2024,12,09,09,00,AAXX 09094 41980 31940 03202 10280 20170 39997 40109 70500 333 59001 70000=
41980,2024,12,09,12,00,AAXX 09124 41980 NIL=
41980,2024,12,09,18,00,AAXX 09184 41980 31940 00000 10213 20140 30013 40108 70500 333 10286 59002 70000=
41980,2024,12,10,00,00,AAXX 10004 41980 31935 03202 10185 20160 30012 40128 70500 333 59004 70000=
41980,2024,12,10,03,00,AAXX 10034 41980 31940 03603 10222 20180 30033 40148 70500 333 20173 59006 70000=
41980,2024,12,10,06,00,AAXX 10064 41980 NIL=
41980,2024,12,10,09,00,AAXX 10094 41980 31940 03603 10262 20160 39995 40108 70500 333 59003 70000=
41980,2024,12,10,12,00,AAXX 10124 41980 31940 03202 10223 20170 30001 40115 70500 333 10270 59012 70000=
41980,2024,12,11,00,00,AAXX 11004 41980 31920 03602 10165 20160 30020 40136 71000 333 58008 70000=
41980,2024,12,11,03,00,AAXX 11034 41980 31930 03604 10188 20170 30050 40166 70500 333 20157 58017 70000=
41980,2024,12,11,06,00,AAXX 11064 41980 NIL=
41980,2024,12,11,09,00,AAXX 11094 41980 31940 03603 10251 20110 30001 40114 70500 333 58006 70000=
41980,2024,12,11,12,00,AAXX 11124 41980 31935 00502 10198 20150 30006 40121 70500 333 10257 58005 70000=
41980,2024,12,11,18,00,AAXX 11184 41980 NIL=
41980,2024,12,12,00,00,AAXX 12004 41980 31920 03603 10155 20146 30019 40136 71000 333 59011 70000=
41980,2024,12,12,03,00,AAXX 12034 41980 31940 03604 10179 20140 30023 40139 70500 333 20139 59027 70000=
41980,2024,12,12,06,00,AAXX 12064 41980 NIL=
41980,2024,12,12,12,00,AAXX 12124 41980 31940 00302 10195 20160 39996 40111 70500 333 10265 59010 70000=
41980,2024,12,12,15,00,AAXX 12154 41980 NIL=
41984,2024,12,06,00,00,AAXX 06004 41984 01915 00000 10163 20163 30110 40112 71000 333 59010 70000==
41984,2024,12,06,03,00,AAXX 06034 41984 01940 00000 10230 20180 30132 40134 70500 333 20150 59006 70000==
41984,2024,12,06,06,00,AAXX 06064 41984 02958 00000 10280 20120 30119 40121 333 59002 70000==
41984,2024,12,06,09,00,AAXX 06094 41984 02958 00000 10280 20120 30093 40095 333 59005 70000==
41984,2024,12,06,12,00,AAXX 06124 41984 01940 00000 10208 20180 30093 40095 70500 333 10292 59008 70000==
41984,2024,12,06,15,00,AAXX 06154 41984 01925 00000 10172 20170 30119 40121 70500 333 59001 70000==
41984,2024,12,06,18,00,AAXX 06184 41984 NIL=
41984,2024,12,06,21,00,AAXX 06214 41984 01913 00000 10148 20148 30115 40117 71000 333 58001 70000==
41984,2024,12,07,00,00,AAXX 07004 41984 01913 00000 10142 20142 30113 40115 71000 333 58003 70000==
41984,2024,12,07,06,00,AAXX 07064 41984 02958 03604 10270 20090 30119 40121 333 58000 70000==
41984,2024,12,07,09,00,AAXX 07094 41984 02958 03603 10270 20090 30107 40109 333 58014 70000==
41984,2024,12,07,12,00,AAXX 07124 41984 01940 00000 10200 20150 30111 40113 70500 333 10280 58018 70000==
41984,2024,12,07,15,00,AAXX 07154 41984 01930 00000 10163 20150 30125 40127 70500 333 58006 70000==
41984,2024,12,07,21,00,AAXX 07214 41984 01913 00000 10145 20145 30125 40127 71000 333 58010 70000==
41984,2024,12,08,00,00,AAXX 08004 41984 01912 00000 10140 20140 30119 40121 71000 333 58006 70000==
41984,2024,12,08,03,00,AAXX 08034 41984 01940 03603 10215 20160 30141 40143 70500 333 20135 58011 70000==
41984,2024,12,08,06,00,AAXX 08063 41984 02958 03403 10264 20080 30128 40130 333 58009 70000==
41984,2024,12,08,09,00,AAXX 08094 41984 02958 03606 10265 20090 30102 40104 333 59005 70000==
41984,2024,12,08,12,00,AAXX 08124 41984 01940 00000 10195 20150 30105 40107 70500 333 10275 59006 70000==
41984,2024,12,08,15,00,AAXX 08154 41984 01930 00000 10158 20150 30115 40117 70500 333 59010 70000==
41984,2024,12,08,18,00,AAXX 08184 41984 NIL=
41984,2024,12,08,21,00,AAXX 08214 41984 01912 00000 10144 20144 30119 40121 71000 333 59006 70000==
41984,2024,12,09,00,00,AAXX 09004 41984 01912 00000 10140 20140 30119 40121 71000 333 58000 70000==
41984,2024,12,09,03,00,AAXX 09034 41984 01935 00000 10217 20170 30139 40141 70500 333 20136 59002 70000==
41984,2024,12,09,06,00,AAXX 09064 41984 02956 00000 10270 20120 30124 40126 333 59004 70000==
41984,2024,12,09,09,00,AAXX 09094 41984 02956 00000 10280 20090 30101 40103 333 59001 70000==
41984,2024,12,09,12,00,AAXX 09124 41984 01440 40000 10210 20160 30102 40104 70500 84500 333 10295 59003 70000 84618==
41984,2024,12,09,15,00,AAXX 09154 41984 01440 30000 10185 20180 30113 40115 70522 83500 333 59002 70000 83618==
41984,2024,12,09,21,00,AAXX 09214 41984 01920 00000 10168 20168 30118 40120 71010 333 59001 70000==
41984,2024,12,10,00,00,AAXX 10004 41984 01920 00000 10175 20170 30114 40116 71000 333 59005 70000==
41984,2024,12,10,03,00,AAXX 10034 41984 01920 00000 10210 20180 30130 40132 71000 333 20163 59009 70000==
41984,2024,12,10,06,00,AAXX 10064 41984 01935 00000 10262 20180 30116 40118 70500 333 59008 70000==
41984,2024,12,10,09,00,AAXX 10094 41984 01940 00000 10270 20160 30094 40096 70500 333 59007 70000==
41984,2024,12,10,12,00,AAXX 10124 41984 01940 00000 10217 20190 30102 40104 70500 333 10275 58000 70000==
41984,2024,12,10,18,00,AAXX 10184 41984 01935 00000 10167 20167 30135 40138 70500 333 58016 70000==
41984,2024,12,10,21,00,AAXX 10214 41984 01930 00000 10168 20168 30133 40135 70500 333 58015 70000==
41984,2024,12,11,00,00,AAXX 11004 41984 01915 00402 10169 20169 30134 40136 71000 333 58020 70000==
41984,2024,12,11,03,00,AAXX 11034 41984 01930 00000 10196 20170 30153 40155 70500 333 20158 58023 70000==
41984,2024,12,11,06,00,AAXX 11064 41984 02950 01303 10250 20100 30135 40138 333 58019 70000==
41984,2024,12,11,09,00,AAXX 11094 41984 02956 10902 10252 20070 30106 40108 80001 333 58012 70000 81080==
41984,2024,12,11,12,00,AAXX 11124 41984 02945 10000 10195 20120 30110 40112 80001 333 10260 58008 70000 81080==
41984,2024,12,11,15,00,AAXX 11154 41984 02940 00000 10160 20130 30121 40124 333 58009 70000==
41984,2024,12,11,18,00,AAXX 11184 41984 02940 00000 10160 20130 30121 40123 333 59014 70000==
41984,2024,12,11,21,00,AAXX 11214 41984 01935 00000 10142 20130 30107 40110 70500 333 59026 70000==
41984,2024,12,12,00,00,AAXX 12004 41984 01935 00000 10120 20120 30112 40115 70500 333 59002 70000==
41984,2024,12,12,03,00,AAXX 12034 41984 01940 00000 10190 20130 30126 40128 70500 333 20115 59027 70000==
41984,2024,12,12,06,00,AAXX 12064 41984 01945 00402 10246 20100 30108 40110 70500 333 59027 70000==
41984,2024,12,12,09,00,AAXX 12094 41984 01950 03601 10252 20090 30093 40095 70500 333 59013 70000==
41984,2024,12,12,12,00,AAXX 12124 41984 02945 10000 10190 20130 30103 40105 80001 333 10260 59007 70000 81080==
41984,2024,12,12,15,00,AAXX 12154 41984 02940 00000 10156 20150 30125 40127 333 58004 70000==
41984,2024,12,12,18,00,AAXX 12184 41984 01940 00000 10144 20130 30131 40133 70510 333 58010 70000==
41984,2024,12,12,21,00,AAXX 12214 41984 01935 00000 10140 20140 30130 40133 70500 333 58023 70000==
41989,2024,12,06,00,00,AAXX 06004 41989 01430 23203 10180 20160 30115 40118 70511 82500 333 58000 70000 82618==
41989,2024,12,06,03,00,AAXX 06034 41989 01450 33202 10275 20200 30126 40130 70511 83500 333 20170 59007 70000 83618==
41989,2024,12,06,06,00,AAXX 06064 41989 01450 23303 10287 20160 30112 40115 70511 82500 333 59031 70000 82618==
41989,2024,12,06,09,00,AAXX 06094 41989 01450 23202 10290 20210 30100 40103 70511 82500 333 58003 70000 82618==
41989,2024,12,06,12,00,AAXX 06124 41989 01450 23202 10250 20200 30096 40099 70511 82500 333 10298 58005 70000 82618==
41989,2024,12,06,15,00,AAXX 06154 41989 01440 13102 10191 20150 30108 40112 70511 81500 333 59003 70000 81618==
41989,2024,12,06,18,00,AAXX 06184 41989 NIL=
41989,2024,12,06,21,00,AAXX 06214 41989 01440 20000 10178 20140 30115 40118 70511 82500 333 59004 70000 82618==
41989,2024,12,07,00,00,AAXX 07004 41989 01449 10000 10157 20140 30107 40110 70511 81500 333 59008 70000 81618==
41989,2024,12,07,03,00,AAXX 07033 41989 01450 13202 10252 20160 30125 40128 70511 81500 333 20152 58003 70000 81618==
41989,2024,12,07,06,00,AAXX 07064 41989 01450 23202 10280 20200 30126 40130 70511 82800 333 58014 70000 82618==
41989,2024,12,07,09,00,AAXX 07094 41989 01450 13303 10268 20140 30100 40103 70511 81500 333 58000 70000 81618==
41989,2024,12,07,12,00,AAXX 07124 41989 01440 13102 10226 20150 30092 40095 70511 81500 333 10282 59004 70000 81618==
41989,2024,12,07,15,00,AAXX 07154 41989 01440 33203 10190 20160 30110 40114 70511 83500 333 58002 70000 83618==
41989,2024,12,07,21,00,AAXX 07214 41989 01430 13203 10177 20160 30126 40129 70511 81500 333 58011 70000 81618==
41989,2024,12,08,00,00,AAXX 08004 41989 01440 23202 10175 20160 30124 40127 70511 82500 333 58017 70000 82618==
41989,2024,12,08,03,00,AAXX 08034 41989 01450 33203 10215 20160 30160 40143 70511 83500 333 20164 58015 70000 83618==
41989,2024,12,08,06,00,AAXX 08063 41989 01450 23102 10270 20150 30119 40122 70511 82500 333 59007 70000 82618==
41989,2024,12,08,09,00,AAXX 08094 41989 01450 33304 10272 20150 30097 40100 70511 83618 333 59003 70000 83618==
41989,2024,12,08,15,00,AAXX 08154 41989 01440 10000 10188 20160 30118 40121 70511 81500 333 58008 70000 81618==
41989,2024,12,08,18,00,AAXX 08184 41989 NIL=
41989,2024,12,08,21,00,AAXX 08214 41989 01440 20000 10176 20150 30122 40125 70511 82500 333 59004 70000 82618==
41989,2024,12,09,00,00,AAXX 09004 41989 01430 20000 10173 20160 30116 40119 70511 82618 333 59008 70000 82618==
41989,2024,12,09,03,00,AAXX 09034 41989 01450 33204 10242 20170 30133 40136 70511 83500 333 20170 59007 70000 83618==
41989,2024,12,09,06,00,AAXX 09064 41989 01450 33203 10265 20180 30130 40133 70511 83500 333 58011 70000 83618==
41989,2024,12,09,09,00,AAXX 09094 41989 01450 23304 10272 20160 30104 40107 70511 82500 333 58007 70000 82618==
41989,2024,12,09,12,00,AAXX 09124 41989 01450 43102 10228 20180 30096 40099 70521 82530 333 10276 58006 70000 82618 83362==
41989,2024,12,09,15,00,AAXX 09154 41989 01440 33203 10215 20180 30127 40130 70521 83500 333 58009 70000 83618==
41989,2024,12,09,21,00,AAXX 09214 41989 01430 33103 10198 20170 30129 40132 70521 83500 333 58007 70000 83618==
41989,2024,12,10,00,00,AAXX 10004 41989 01430 33203 10187 20170 30123 40126 70521 83500 333 58007 70000 83618==
41989,2024,12,10,03,00,AAXX 10034 41989 01450 33202 10240 20170 30135 40139 70511 83500 333 20173 58002 70000 83618==
41989,2024,12,10,06,00,AAXX 10064 41989 01450 23104 10286 20170 30125 40128 70521 82500 333 59005 70000 82618==
41989,2024,12,10,09,00,AAXX 10094 41989 01450 53202 10278 20200 30105 40108 70521 82530 333 58001 70000 82618 84362==
41989,2024,12,10,12,00,AAXX 10124 41989 01450 53103 10270 20230 30096 40099 70521 83530 333 10295 58000 70000 83618 83362==
41989,2024,12,10,15,00,AAXX 10154 41989 01440 23302 10218 20180 30122 40125 70521 82500 333 59005 70000 82618==
41989,2024,12,10,21,00,AAXX 10214 41989 01440 33102 10202 20160 30127 40131 70511 83500 333 59002 70000 83618==
41989,2024,12,11,00,00,AAXX 11004 41989 01440 23102 10178 20160 30126 40129 70511 82618 333 58003 70000 82618==
41989,2024,12,11,03,00,AAXX 11034 41989 01450 33104 10234 20180 30142 40145 70511 83500 333 20172 58007 70000 83618==
41989,2024,12,11,06,00,AAXX 11064 41989 01450 11403 10260 20170 30142 40145 70511 81500 333 58017 70000 81618==
41989,2024,12,11,09,00,AAXX 11094 41989 01450 23104 10262 20170 30111 40115 70511 82500 333 58007 70000 82618==
41989,2024,12,11,12,00,AAXX 11124 41989 01450 13203 10232 20180 30105 40108 70511 81500 333 10270 58009 70000 81618==
41989,2024,12,11,18,00,AAXX 11184 41989 NIL=
41989,2024,12,12,00,00,AAXX 12004 41989 01430 33303 10170 20140 30122 40125 70521 83500 333 59004 70000 83618==
41989,2024,12,12,03,00,AAXX 12034 41989 NIL=
41989,2024,12,12,06,00,AAXX 12064 41989 01950 03105 10253 20160 30108 40111 70510 333 59034 70000==
41989,2024,12,12,09,00,AAXX 12094 41989 01450 23203 10260 20170 30096 40099 70511 82500 333 59015 70000 82618==
41989,2024,12,12,12,00,AAXX 12124 41989 NIL=
41989,2024,12,12,15,00,AAXX 12154 41989 01440 33302 10212 20190 30115 40118 70511 83500 333 59011 70000 83618==
41989,2024,12,12,21,00,AAXX 12214 41989 01440 20000 10200 20180 30111 40114 70511 82500 333 59016 70000 82618==
41992,2024,12,06,00,00,AAXX 06004 41992 01925 00302 10200 20140 30120 40122 70500 333 59004 70000==
41992,2024,12,06,03,00,AAXX 06034 41992 31930 03603 10235 20160 30136 40138 70500 333 20193 59007 70000=
41992,2024,12,06,06,00,AAXX 06064 41992 01935 03610 10275 20090 30121 40123 70500 333 59006 70000==
41992,2024,12,06,09,00,AAXX 06094 41992 01930 03310 10290 20060 30095 40097 70500 333 59004 70000==
41992,2024,12,06,12,00,AAXX 06124 41992 01925 03308 10252 20160 30102 40104 70500 333 10295 59004 70000==
41992,2024,12,06,15,00,AAXX 06154 41992 01925 00000 10215 20130 30123 40125 70500 333 59001 70000==
41992,2024,12,06,18,00,AAXX 06184 41992 NIL=
41992,2024,12,06,21,00,AAXX 06214 41992 01925 00303 10195 20120 30108 40110 70500 333 58002 70000==
41992,2024,12,07,00,00,AAXX 07004 41992 01925 00303 10190 20110 30120 40122 70500 333 58000 70000==
41992,2024,12,07,03,00,AAXX 07033 41992 01935 03602 10225 20140 30135 40137 70500 333 20182 59001 70000==
41992,2024,12,07,06,00,AAXX 07064 41992 01935 03608 10268 20080 30120 40122 70500 333 59001 70000==
41992,2024,12,07,09,00,AAXX 07094 41992 01935 03308 10270 20100 30105 40107 70500 333 59010 70000==
41992,2024,12,07,12,00,AAXX 07124 41992 01925 00000 10235 20120 30114 40116 70500 333 10290 59012 70000==
41992,2024,12,07,15,00,AAXX 07154 41992 01925 00303 10210 20150 30133 40135 70500 333 58010 70000==
41992,2024,12,07,18,00,AAXX 07184 41992 01925 03602 10200 20160 30127 40129 70500 333 58008 70000==
41992,2024,12,07,21,00,AAXX 07214 41992 01925 03302 10195 20140 30110 40112 70500 333 58002 70000==
41992,2024,12,08,00,00,AAXX 08004 41992 01925 03303 10190 20150 30121 40123 70500 333 58001 70000==
41992,2024,12,08,03,00,AAXX 08034 41992 01/30 20000 10215 20160 30143 40145 70510 82030 333 20175 58008 70000 82362==
41992,2024,12,08,06,00,AAXX 08063 41992 01935 00000 10285 20160 30123 40125 70510 333 58003 70000==
41992,2024,12,08,09,00,AAXX 08094 41992 01930 02706 10280 20140 30105 40107 70500 333 59009 70000==
41992,2024,12,08,12,00,AAXX 08124 41992 01925 02704 10245 20160 30114 40116 70500 333 10291 58000 70000==
41992,2024,12,08,15,00,AAXX 08154 41992 01925 00000 10204 20180 30122 40124 70500 333 59011 70000==
41992,2024,12,08,18,00,AAXX 08184 41992 01925 00000 10193 20170 30119 40121 70500 333 59008 70000==
41992,2024,12,08,21,00,AAXX 08214 41992 01925 00000 10188 20170 30109 40111 70500 333 59001 70000==
41992,2024,12,09,00,00,AAXX 09004 41992 01925 00000 10182 20160 30123 40125 70500 333 58002 70000==
41992,2024,12,09,03,00,AAXX 09034 41992 01/30 20000 10220 20170 30147 40149 70510 82030 333 20172 58004 70000 82362==
41992,2024,12,09,06,00,AAXX 09064 41992 01935 00000 10267 20150 30131 40133 70510 333 58008 70000==
41992,2024,12,09,09,00,AAXX 09094 41992 01930 03306 10280 20140 30102 40104 70500 333 59003 70000==
41992,2024,12,09,12,00,AAXX 09124 41992 01/25 43304 10240 20170 30116 40118 70521 84030 333 10283 58002 70000 84362==
41992,2024,12,09,15,00,AAXX 09154 41992 01925 00000 10220 20170 30122 40124 70500 333 58000 70000==
41992,2024,12,09,18,00,AAXX 09184 41992 01925 00000 10215 20180 30118 40120 70500 333 59001 70000==
41992,2024,12,09,21,00,AAXX 09214 41992 01925 00302 10205 20170 30108 40110 70500 333 59001 70000==
41992,2024,12,10,00,00,AAXX 10004 41992 01925 00302 10195 20160 30121 40123 70500 333 59002 70000==
41992,2024,12,10,03,00,AAXX 10034 41992 01930 00000 10232 20180 30139 40141 70500 333 20193 59008 70000==
41992,2024,12,10,06,00,AAXX 10064 41992 01930 03607 10280 20140 30121 40123 70500 333 59010 70000==
41992,2024,12,10,09,00,AAXX 10094 41992 01930 40306 10295 20140 30098 40100 70521 84001 333 10300 59004 70000 84080==
41992,2024,12,10,12,00,AAXX 10124 41992 01925 03304 10255 20200 30106 40108 70500 333 10300 59010 70000==
41992,2024,12,10,15,00,AAXX 10154 41992 01925 00000 10230 20170 30130 40132 70500 333 58008 70000==
41992,2024,12,10,18,00,AAXX 10184 41992 42925 00000 10214 20180 30141 40143 58023==
41992,2024,12,10,21,00,AAXX 10214 41992 01925 03302 10205 20170 30124 40126 70500 333 58013 70000==
41992,2024,12,11,00,00,AAXX 11004 41992 01925 03303 10200 20160 30136 40138 70500 333 58015 70000==
41992,2024,12,11,03,00,AAXX 11034 41992 01930 00000 10225 20170 30157 40159 70500 333 20192 58018 70000==
41992,2024,12,11,06,00,AAXX 11064 41992 01930 03605 10258 20130 30137 40139 70500 333 58016 70000==
41992,2024,12,11,09,00,AAXX 11094 41992 01930 03610 10265 20160 30105 40107 70500 333 58007 70000==
41992,2024,12,11,12,00,AAXX 11124 41992 01925 03608 10230 20120 30112 40114 70500 333 10275 58006 70000==
41992,2024,12,11,15,00,AAXX 11154 41992 01925 03603 10216 20150 30126 40128 70500 333 59004 70000==
41992,2024,12,11,18,00,AAXX 11184 41992 01925 00303 10198 20130 30126 40128 70500 333 59015 70000==
41992,2024,12,11,21,00,AAXX 11214 41992 01925 03304 10185 20140 30107 40109 70500 333 59017 70000==
41992,2024,12,12,00,00,AAXX 12004 41992 01925 03303 10175 20140 30120 40122 70500 333 59016 70000==
41992,2024,12,12,03,00,AAXX 12034 41992 01935 00000 10205 20160 30129 40131 70500 333 20172 59028 70000==
41992,2024,12,12,06,00,AAXX 12063 41992 01935 00000 10260 20150 30113 40115 70500 333 59012 70000==
41992,2024,12,12,09,00,AAXX 12094 41992 01930 03305 10275 20150 30095 40097 70500 333 58000 70000==
41992,2024,12,12,12,00,AAXX 12124 41992 01925 03308 10240 20170 30105 40107 70500 333 10278 59007 70000==
41992,2024,12,12,15,00,AAXX 12154 41992 01925 00000 10210 20190 30125 40127 70500 333 59001 70000==
41992,2024,12,12,18,00,AAXX 12184 41992 01425 50000 10202 20180 30131 40133 70520 84530 333 58005 70000 84616 85362==
41992,2024,12,12,21,00,AAXX 12214 41992 01420 63603 10180 20170 30119 40121 70521 84520 333 58012 70000 84615 86460==
41998,2024,12,06,00,00,AAXX 06004 41998 NIL=
41998,2024,12,06,03,00,AAXX 06034 41998 NIL=
41998,2024,12,06,09,00,AAXX 06094 41998 02956 01318 10292 20180 30080 40086 333 59015 70000==
41998,2024,12,06,12,00,AAXX 06124 41998 01950 02903 10252 20200 30112 40118 70500 333 10293 59003 70000==
41998,2024,12,06,15,00,AAXX 06154 41998 NIL=
41998,2024,12,06,18,00,AAXX 06184 41998 NIL=
41998,2024,12,07,00,00,AAXX 07004 41998 01950 01416 10165 20130 30134 40140 70500 333 59007 70000==
41998,2024,12,07,03,00,AAXX 07033 41998 01950 01708 10230 20180 30121 40127 70500 333 20157 59012 70000==
41998,2024,12,07,09,00,AAXX 07094 41998 02956 02803 10294 20160 30092 40096 333 58012 70000==
41998,2024,12,07,12,00,AAXX 07124 41998 01950 00000 10241 20180 30116 40122 70500 333 10302 58004 70000==
41998,2024,12,07,15,00,AAXX 07154 41998 NIL=
41998,2024,12,08,00,00,AAXX 08004 41998 01950 00000 10163 20150 30141 40147 70500 333 58007 70000==
41998,2024,12,08,06,00,AAXX 08063 41998 NIL=
41998,2024,12,08,12,00,AAXX 08124 41998 01950 00000 10240 20200 30099 40105 70500 333 10296 59017 70000==
41998,2024,12,08,18,00,AAXX 08184 41998 NIL=
41998,2024,12,09,00,00,AAXX 09004 41998 02950 00000 10160 20130 30140 40146 333 59001 70000==
41998,2024,12,09,03,00,AAXX 09034 41998 NIL=
41998,2024,12,09,06,00,AAXX 09064 41998 NIL=
41998,2024,12,09,09,00,AAXX 09094 41998 01950 03204 10284 20140 30090 40096 70500 333 59003 70000==
41998,2024,12,09,12,00,AAXX 09124 41998 01950 00000 10237 20180 30104 40110 70500 333 58005 70000==
41998,2024,12,10,00,00,AAXX 10004 41998 01950 00000 10160 20150 30138 40144 70500 333 59002 70000==
41998,2024,12,10,03,00,AAXX 10034 41998 01950 00000 10228 20200 30121 40127 70500 333 20150 58001 70000==
41998,2024,12,10,06,00,AAXX 10064 41998 02956 00000 10288 20190 30122 40128 333 58010 70000==
41998,2024,12,10,09,00,AAXX 10094 41998 02450 61501 10307 20260 39994 40000 84420 333 59023 70010 83618 88458==
41998,2024,12,10,12,00,AAXX 10124 41998 01950 00000 10234 20170 30108 40114 70500 333 10297 58004 70000==
41998,2024,12,11,00,00,AAXX 11004 41998 NIL=
41998,2024,12,11,03,00,AAXX 11034 41998 01950 01511 10230 20180 30117 40123 70500 333 20151 59004 70000==
41998,2024,12,11,06,00,AAXX 11064 41998 NIL=
41998,2024,12,11,09,00,AAXX 11094 41998 01950 01902 10287 20180 30088 40094 70500 333 59003 70000==
41998,2024,12,11,12,00,AAXX 11124 41998 01950 00000 10224 20180 30104 40110 70500 333 10294 58004 70000==
41998,2024,12,11,18,00,AAXX 11184 41998 NIL=
41998,2024,12,12,03,00,AAXX 12034 41998 01950 00000 10216 20150 30124 40130 70500 333 20147 58007 70000==
41998,2024,12,12,06,00,AAXX 12064 41998 NIL=
41998,2024,12,12,09,00,AAXX 12094 41998 01950 02902 10286 20150 30083 40089 70500 333 59005 70000==
41998,2024,12,12,12,00,AAXX 12124 41998 01950 00000 10223 20180 30090 40096 70500 333 10293 59014 70000==
41998,2024,12,12,15,00,AAXX 12154 41998 NIL=
