ESTACION,ANO,MES,DIA,HORA,MINUTO,PARTE
41850,2023,06,16,00,00,AAXX 16004 41850 31440 81302 10248 20240 39879 49977 70522 8252/ 333 56999 58008 70000 82618 88458=
41850,2023,06,16,06,00,AAXX 16064 41850 32456 81308 10264 20230 39889 49987 8252/ 333 56999 58003 70000 83618 88458=
41850,2023,06,16,12,00,AAXX 16124 41850 31450 51306 10267 20240 39877 49974 82510 333 10295 56990 58021 70000 82618 84458=
41850,2023,06,16,15,00,AAXX 16154 41850 31430 80000 10250 20230 39898 49996 70522 8352/ 333 56999 58012 70000 83618 88458=
41850,2023,06,17,00,00,AAXX 17004 41850 31450 81803 10245 20240 39900 49999 70522 8252/ 333 56999 58021 70000 82618 88458=
41850,2023,06,17,03,00,AAXX 17034 41850 32956 81304 10250 20230 39920 40018 8352/ 333 20239 56999 58028 70000 83618 88458=
41850,2023,06,17,12,00,AAXX 17124 41850 32456 61004 10271 20240 39896 49993 83520 333 10304 56990 58019 70000 83618 86458=
41850,2023,06,17,18,00,AAXX 17184 41850 31450 81208 10253 20230 39923 40021 70522 8352/ 333 56999 58025 70000 83618 88458=
41850,2023,06,18,00,00,AAXX 18004 41850 11440 80505 10236 20235 39929 40028 60447 79596 8432/ 333 56299 58029 70440 83616 81928 88458=
41850,2023,06,18,06,00,AAXX 18064 41850 11350 80203 10246 20240 39933 40032 69946 70596 8562/ 333 56299 58019 70444 82708 84616 88458=
41850,2023,06,18,18,00,AAXX 18184 41850 31440 80804 10245 20240 39932 40031 70522 8452/ 333 56999 58009 70444 84616 88458=
41850,2023,06,19,06,00,AAXX 19064 41850 11450 80804 10247 20240 39932 40031 60068 70596 8452/ 333 56999 59001 70380 84616 88458=
41850,2023,06,19,12,00,AAXX 19124 41850 31450 80803 10248 20240 39914 40012 70522 8452/ 333 10253 56999 58005 70380 84616 88458=
41850,2023,06,20,00,00,AAXX 20004 41850 11440 80000 10238 20238 39914 40013 60173 79596 8432/ 333 56999 59009 70284 84616 81928 88458=
41850,2023,06,20,06,00,AAXX 20064 41850 11450 70403 10267 20250 39927 40025 60013 70196 84520 333 56990 59005 70238 84617 87458=
41850,2023,06,20,12,00,AAXX 20124 41850 32450 80605 10272 20250 39905 40003 8452/ 333 10288 56999 59010 70238 84617 88458=
41850,2023,06,20,18,00,AAXX 20184 41850 11440 80805 10251 20240 39920 40018 60042 79596 8432/ 333 56999 59009 70228 84616 81928 88458=
41850,2023,06,21,00,00,AAXX 21004 41850 11340 80405 10243 20240 39924 40022 61209 79596 8592/ 333 56999 58010 71254 82708 84616 81928 88456=
41850,2023,06,21,06,00,AAXX 21064 41850 11350 80603 10280 20250 39931 40029 60218 70596 8562/ 333 56299 58004 71445 82708 84616 88457=
41850,2023,06,21,12,00,AAXX 21124 41850 11450 82503 10261 20240 39913 40011 60055 70596 8432/ 333 10287 56999 58008 71495 84616 81928 88458=
41850,2023,06,21,18,00,AAXX 21184 41850 11440 80803 10250 20250 39933 40032 60077 79596 8432/ 333 56999 58013 71525 84616 81928 88458=
41850,2023,06,22,00,00,AAXX 22004 41850 11440 80000 10247 20247 39929 40028 61509 70596 8432/ 333 56999 58005 71825 84616 81928 88458=
41850,2023,06,22,06,00,AAXX 22064 41850 31450 70903 10267 20250 39939 40037 70522 84520 333 56990 58008 71620 84617 87458=
41850,2023,06,22,12,00,AAXX 22124 41850 31450 80000 10272 20250 39913 40011 70522 8452/ 333 10284 56999 58000 71570 84617 88458=
41850,2023,06,22,18,00,AAXX 22184 41850 11330 80000 10254 20250 39932 40031 61307 79596 8532/ 333 56999 59001 72800 83707 84614 81929 88458=
41851,2023,06,16,00,00,AAXX 16004 41851 11440 81303 10240 20230 39902 49965 60045 70296 8462/ 333 56399 58012 70075 82710 83618 88458=
41851,2023,06,16,06,00,AAXX 16064 41851 32450 81302 10270 20240 39920 49982 8461/ 333 56399 58015 70075 81710 83618 88458=
41851,2023,06,16,12,00,AAXX 16124 41851 32450 81303 10260 20240 39910 49972 8462/ 333 10289 56399 58024 70075 81710 84618 88458=
41851,2023,06,16,15,00,AAXX 16154 41851 32450 81302 10255 20240 39942 40005 8462/ 333 56399 58046 70035 81710 84618 88458=
41851,2023,06,17,00,00,AAXX 17004 41851 32450 81301 10248 20230 39944 40007 8462/ 333 56399 58042 70000 81710 84618 88458=
41851,2023,06,17,03,00,AAXX 17034 41851 32450 81303 10260 20240 39962 40024 8452/ 333 20248 56999 58042 70000 84618 88458=
41851,2023,06,17,12,00,AAXX 17124 41851 32450 80902 10274 20240 39935 49997 8352/ 333 10299 56999 58025 70000 83618 88458=
41851,2023,06,17,18,00,AAXX 17184 41851 31450 80904 10254 20220 39965 40028 71322 8432/ 333 56999 58023 70000 81710 83618 81929 88458=
41851,2023,06,18,00,00,AAXX 18004 41851 11340 81301 10226 20226 39969 40032 60364 79596 8492/ 333 56399 58025 70355 81708 83616 81929 88456=
41851,2023,06,18,06,00,AAXX 18064 41851 32450 81302 10254 20230 39973 40036 8462/ 333 56999 58014 70355 81710 83618 88458=
41851,2023,06,19,06,00,AAXX 19064 41851 11350 81202 10245 20240 39973 40036 60479 79596 8592/ 333 56999 58000 71029 81708 84616 81929 88456=
41851,2023,06,19,18,00,AAXX 19184 41851 31350 80000 10252 20240 39971 40034 70292 8462/ 333 56499 58001 71025 81709 83617 88457=
41851,2023,06,20,00,00,AAXX 20004 41851 11350 80902 10240 20240 39952 40015 60409 79596 8592/ 333 56399 59003 70865 82708 84616 81929 88456=
41851,2023,06,20,06,00,AAXX 20064 41851 11350 80902 10255 20240 39970 40033 69946 70296 8462/ 333 56399 59003 70406 81709 83617 88457=
41851,2023,06,20,12,00,AAXX 20124 41851 32350 80704 10265 20250 39945 40007 8462/ 333 10275 56399 59006 70404 81709 83617 88457=
41851,2023,06,20,18,00,AAXX 20184 41851 11350 80000 10244 20230 39964 40027 60417 71796 8492/ 333 56999 59007 70814 81709 83617 81929 88456=
41851,2023,06,21,00,00,AAXX 21004 41851 11340 81503 10235 20235 39960 40023 60839 79596 8592/ 333 56999 58008 71242 82708 84616 82929 88456=
41851,2023,06,21,06,00,AAXX 21064 41851 11350 81503 10252 20230 39978 40041 60058 71796 8492/ 333 56399 58008 71283 81708 83617 81930 88457=
41851,2023,06,21,12,00,AAXX 21124 41851 32350 80000 10262 20240 39952 40015 8462/ 333 10274 56399 58007 71283 81710 83618 88458=
41851,2023,06,21,18,00,AAXX 21184 41851 32450 80000 10253 20240 39973 40036 8352/ 333 56999 58009 70873 83618 88458=
41851,2023,06,22,00,00,AAXX 22004 41851 11340 80901 10250 20250 39970 40033 60279 79596 8492/ 333 56299 58010 70310 81708 83616 81930 88456=
41851,2023,06,22,06,00,AAXX 22064 41851 11350 80902 10278 20260 39981 40043 60068 70296 8462/ 333 56299 58008 70325 81710 83618 88458=
41851,2023,06,22,12,00,AAXX 22123 41851 32350 81301 10278 20260 39952 40014 8462/ 333 10295 56999 58000 70325 81709 83617 88457=
41851,2023,06,22,18,00,AAXX 22184 41851 32450 81301 10267 20260 39980 40043 8352/ 333 56999 58007 70325 83618 88458=
41856,2023,06,16,00,00,AAXX 16004 41856 32440 80000 10243 20230 39952 49987 8452/ 333 56999 58012 70143 84618 88458=
41856,2023,06,16,06,00,AAXX 16064 41856 32450 80000 10285 20250 39964 49999 8452/ 333 56999 58012 70143 84618 88458=
41856,2023,06,16,12,00,AAXX 16124 41856 32450 80902 10267 20240 39940 49975 8452/ 333 10298 56999 58011 70030 84618 88458=
41856,2023,06,16,15,00,AAXX 16154 41856 NIL=
41856,2023,06,16,18,00,AAXX 16184 41856 32450 80902 10250 20240 39972 40007 8452/ 333 56999 58023 70000 84618 88458=
41856,2023,06,17,00,00,AAXX 17004 41856 11440 80502 10245 20240 39980 40016 60034 76162 8452/ 333 56999 58028 70030 84618 88458=
41856,2023,06,17,03,00,AAXX 17034 41856 21450 80502 10255 20240 39989 40024 70262 8452/ 333 20240 56999 58023 6002/ 70050 84618 88458=
41856,2023,06,17,12,00,AAXX 17124 41856 32450 60000 10270 20240 39969 40004 84470 333 10290 56990 58018 70050 82618 86458=
41856,2023,06,17,18,00,AAXX 17184 41856 32440 81602 10254 20240 30000 40035 8462/ 333 56999 58051 70050 82710 84618 88457=
41856,2023,06,18,00,00,AAXX 18004 41856 11430 80701 10210 20210 30007 40043 60349 79596 8462/ 333 56999 58027 70364 82708 84618 88457 81929=
41856,2023,06,18,06,00,AAXX 18064 41856 11350 81302 10250 20220 30000 40035 60078 70296 8662/ 333 56999 58013 70410 82710 84618 88458=
41856,2023,06,18,12,00,AAXX 18124 41856 32450 81102 10254 20230 39978 40013 8452/ 333 10278 56999 58009 70410 83618 88458=
41856,2023,06,19,06,00,AAXX 19064 41856 11340 81801 10244 20230 30004 40040 60299 76196 8662/ 333 56999 58004 70675 82708 84618 88456=
41856,2023,06,19,18,00,AAXX 19184 41856 32430 81302 10252 20230 39997 40033 8452/ 333 56999 59007 70680 84618 88458=
41856,2023,06,20,00,00,AAXX 20004 41856 11330 81302 10248 20240 39979 40015 60024 76162 8672/ 333 56699 59012 70315 84708 85614 88456=
41856,2023,06,20,06,00,AAXX 20064 41856 11340 80901 10244 20230 39995 40031 60399 70262 8672/ 333 56299 59008 70408 84708 85614 88456=
41856,2023,06,20,12,00,AAXX 20124 41856 32450 50902 10261 20240 39974 40009 82530 333 10274 56990 59006 70403 82616 85362=
41856,2023,06,20,18,00,AAXX 20184 41856 NIL=
41856,2023,06,21,00,00,AAXX 21004 41856 11330 80901 10238 20238 39989 40025 60144 79596 8692/ 333 56499 58010 70993 84708 85614 88456 81930=
41856,2023,06,21,06,00,AAXX 21064 41856 11450 80902 10252 20240 30001 40037 60509 72996 8662/ 333 56699 58006 71107 84708 85614 88456=
41856,2023,06,21,12,00,AAXX 21124 41856 32450 80701 10263 20230 39982 40017 8462/ 333 10279 56999 58008 71107 82710 83618 88458=
41856,2023,06,21,18,00,AAXX 21184 41856 32440 80000 10254 20240 39999 40035 8452/ 333 56999 58013 70637 83618 88458=
41856,2023,06,22,00,00,AAXX 22004 41856 11340 80000 10250 20250 30003 40039 60139 76196 8572/ 333 56999 58014 70632 82707 83616 88456=
41856,2023,06,22,06,00,AAXX 22064 41856 11450 81501 10270 20250 30006 40041 60058 70262 8462/ 333 56999 58005 70180 82710 83618 88458=
41856,2023,06,22,12,00,AAXX 22123 41856 32950 41402 10288 20250 39978 40013 84030 333 10293 56090 59004 70180 84362=
41856,2023,06,22,18,00,AAXX 22184 41856 32430 50000 10262 20250 30014 40049 82530 333 56990 58015 70180 82616 85362=
41858,2023,06,16,00,00,AAXX 16004 41858 01430 80905 10270 20250 39944 49989 70522 8452/ 333 58017 70000 84616 88458==
41858,2023,06,16,03,00,AAXX 16034 41858 01440 71206 10300 20260 39950 49994 70522 84520 333 20256 58015 70000 84615 86458==
41858,2023,06,16,06,00,AAXX 16064 41858 01540 40908 10340 20280 39957 40002 70522 82130 333 59014 70000 82615 84460==
41858,2023,06,16,09,00,AAXX 16094 41858 01440 40505 10354 20280 39930 49973 70522 82520 333 58019 70000 82618 84458==
41858,2023,06,16,12,00,AAXX 16124 41858 01440 60906 10320 20270 39925 49969 70522 84520 333 10355 58009 70000 84616 86458==
41858,2023,06,16,15,00,AAXX 16154 41858 31940 30906 10270 20250 39959 40004 70520 83399 58021 70000 83362=
41858,2023,06,16,18,00,AAXX 16184 41858 42940 30906 10270 20250 39959 40004 58021 83362==
41858,2023,06,16,21,00,AAXX 16214 41858 01340 80908 10275 20260 39959 40004 70522 8562/ 333 58017 70000 83708 85614 88458==
41858,2023,06,17,00,00,AAXX 17004 41858 01350 80908 10278 20260 39958 40003 70522 8562/ 333 58014 70000 83708 85614 88458==
41858,2023,06,17,03,00,AAXX 17034 41858 01440 80906 10305 20270 39971 40015 70522 8452/ 333 20265 58021 70000 84615 88458==
41858,2023,06,17,06,00,AAXX 17064 41858 01440 80906 10332 20250 39971 40015 70522 8452/ 333 58014 70000 84616 88458==
41858,2023,06,17,09,00,AAXX 17094 41858 01450 80612 10342 20260 39944 49987 70522 8452/ 333 58014 70000 84618 88458==
41858,2023,06,17,12,00,AAXX 17124 41858 01440 80906 10302 20270 39953 49997 70522 8452/ 333 10344 58028 70000 83710 84616 88458==
41858,2023,06,17,15,00,AAXX 17154 41858 01/40 30908 10280 20240 39980 40025 70511 83030 333 58024 70000 83362==
41858,2023,06,17,18,00,AAXX 17184 41858 01440 80906 10270 20240 39978 40023 72922 8532/ 333 58019 70000 84615 88458 81930==
41858,2023,06,17,21,00,AAXX 17213 41858 01440 80903 10262 20240 39980 40026 71722 8532/ 333 58021 70000 84615 88458 82930==
41858,2023,06,18,00,00,AAXX 18004 41858 01450 80905 10236 20230 39992 40038 71796 8532/ 333 58034 70160 84615 88458 82930==
41858,2023,06,18,03,00,AAXX 18034 41858 01450 80905 10244 20220 30001 40046 70522 8552/ 333 20228 58030 70164 85614 88458==
41858,2023,06,18,06,00,AAXX 18064 41858 01450 80906 10264 20220 39990 40035 70522 8452/ 333 58019 70164 84615 88458==
41858,2023,06,18,09,00,AAXX 18094 41858 01450 80910 10290 20230 39965 40010 70522 8452/ 333 58021 70164 84615 88458==
41858,2023,06,18,12,00,AAXX 18124 41858 01440 80908 10280 20250 39958 40003 70522 8452/ 333 10295 58005 70164 84615 88458==
41858,2023,06,19,06,00,AAXX 19064 41858 21440 80905 10256 20240 39992 40038 70596 8452/ 333 58002 60308 70504 84615 88458==
41858,2023,06,19,09,00,AAXX 19094 41858 01450 80908 10282 20220 39972 40017 70522 8452/ 333 58007 70504 84615 88458==
41858,2023,06,19,12,00,AAXX 19124 41858 01450 50605 10268 20250 39966 40008 70522 83520 333 10283 58008 70504 83615 85458==
41858,2023,06,19,15,00,AAXX 19154 41858 01440 80905 10260 20240 39980 40025 70522 8452/ 333 59008 70504 84616 88458==
41858,2023,06,19,18,00,AAXX 19184 41858 01440 80905 10248 20230 39990 40036 70522 8452/ 333 59013 70504 84616 88458==
41858,2023,06,19,21,00,AAXX 19214 41858 01425 80506 10254 20230 39981 40027 76322 8452/ 333 58011 70432 84615 88458==
41858,2023,06,20,00,00,AAXX 20004 41858 21320 80505 10256 20250 39978 40024 76362 8672/ 333 59014 60077 70354 83708 84615 88458==
41858,2023,06,20,03,00,AAXX 20034 41858 01320 81205 10255 20250 39989 40035 76362 8672/ 333 20218 58002 70084 83708 84615 88458==
41858,2023,06,20,06,00,AAXX 20064 41858 21430 81205 10302 20270 39983 40028 70562 8452/ 333 59009 60017 70086 84616 88458==
41858,2023,06,20,09,00,AAXX 20094 41858 01430 80506 10310 20260 39960 40004 70522 8452/ 333 59012 70086 84615 88458==
41858,2023,06,20,12,00,AAXX 20124 41858 01435 80606 10300 20270 39956 40000 70522 333 10312 59010 70086 84615 88458==
41858,2023,06,20,15,00,AAXX 20154 41858 01435 81506 10282 20260 39973 40018 70522 8452/ 333 59007 70086 84616 88458==
41858,2023,06,20,18,00,AAXX 20184 41858 01435 81506 10268 20260 39993 40038 70522 8452/ 333 58003 70086 84616 88458==
41858,2023,06,20,21,00,AAXX 20214 41858 01430 81305 10264 20250 39983 40029 76122 8452/ 333 58002 70042 84615 88458==
41858,2023,06,21,00,00,AAXX 21004 41858 21450 83608 10260 20250 39987 40033 70262 8452/ 333 58009 69985 70038 84615 88458==
41858,2023,06,21,03,00,AAXX 21034 41858 01435 80000 10254 20240 39992 40038 70596 8452/ 333 20240 58003 70258 84615 88458==
41858,2023,06,21,06,00,AAXX 21064 41858 11440 80504 10270 20250 39990 40035 60246 70596 8452/ 333 58007 70248 84615 88458==
41858,2023,06,21,09,00,AAXX 21094 41858 01440 80605 10290 20250 39969 40014 70522 8452/ 333 58009 70248 84616 88458==
41858,2023,06,21,12,00,AAXX 21124 41858 01440 80905 10282 20260 39965 40010 70522 8452/ 333 10296 58009 70248 84615 88458==
41858,2023,06,21,15,00,AAXX 21154 41858 01440 80905 10274 20250 39989 40034 70522 8352/ 333 58016 70248 83618 88458==
41858,2023,06,21,18,00,AAXX 21184 41858 01440 80906 10268 20260 30001 40046 70522 8352/ 333 58008 70248 83618 88458==
41858,2023,06,21,21,00,AAXX 21214 41858 01430 80905 10260 20250 39988 40034 70522 8452/ 333 58005 70240 84615 88458==
41858,2023,06,22,00,00,AAXX 22004 41858 11315 80905 10262 20250 39992 40038 60032 76162 8572/ 333 58005 70272 84708 85614 88458==
41858,2023,06,22,03,00,AAXX 22034 41858 01315 81506 10278 20260 39997 40042 76162 8572/ 333 20230 58005 70052 83708 85614 88458==
41858,2023,06,22,06,00,AAXX 22064 41858 01350 80906 10298 20260 39998 40043 70562 8562/ 333 58008 70020 83708 85614 88458==
41858,2023,06,22,09,00,AAXX 22094 41858 01450 60905 10320 20270 39968 40012 70522 84520 333 59001 70052 84616 86458==
41858,2023,06,22,12,00,AAXX 22124 41858 01440 60906 10288 20270 39968 40013 72162 84520 333 10320 58003 70080 84616 86458==
41858,2023,06,22,15,00,AAXX 22154 41858 01435 60905 10270 20250 39990 40035 70522 84520 333 58001 70134 84616 86458==
41858,2023,06,22,18,00,AAXX 22184 41858 01435 60906 10266 20250 39996 40041 70522 84520 333 59005 70134 84616 86458==
41858,2023,06,22,21,00,AAXX 22214 41858 01435 50905 10268 20250 39991 40036 70522 82520 333 58000 70134 82616 85458==
41859,2023,06,16,00,00,AAXX 16004 41859 02435 81304 10266 20250 39951 49988 8562/ 333 58015 70240 83710 84618 88458==
41859,2023,06,16,03,00,AAXX 16034 41859 02450 80000 10285 20260 39961 49998 8562/ 333 20249 58015 70246 83710 84618 88458==
41859,2023,06,16,06,00,AAXX 16064 41859 02450 80902 10302 20270 39960 49996 8562/ 333 58010 70000 83710 84618 88458==
41859,2023,06,16,09,00,AAXX 16094 41859 02450 41303 10335 20300 39939 49975 82540 333 58015 70240 82618 84362==
41859,2023,06,16,12,00,AAXX 16124 41859 02450 80503 10292 20260 39935 49972 8562/ 333 10336 58000 70240 82710 84618 88458==
41859,2023,06,16,15,00,AAXX 16154 41859 02430 80902 10280 20240 39969 40006 8562/ 333 58021 70110 82710 84618 88458==
41859,2023,06,16,18,00,AAXX 16184 41859 01430 81303 10267 20250 39971 40008 70296 8562/ 333 58029 70010 83710 84618 88458==
41859,2023,06,16,21,00,AAXX 16214 41859 02430 81302 10267 20250 39959 49996 8562/ 333 59011 70010 83710 84618 88458==
41859,2023,06,17,00,00,AAXX 17004 41859 02435 80502 10270 20250 39974 40011 8562/ 333 58023 70010 83710 84618 88458==
41859,2023,06,17,03,00,AAXX 17034 41859 02450 80502 10301 20260 39983 40020 8562/ 333 20262 58022 70010 83710 84618 88458==
41859,2023,06,17,06,00,AAXX 17064 41859 02450 70502 10304 20260 39986 40022 84620 333 58026 70010 82710 83618 87458==
41859,2023,06,17,09,00,AAXX 17094 41859 02450 80503 10301 20260 39960 49996 8562/ 333 58021 70010 82710 84618 88458==
41859,2023,06,17,12,00,AAXX 17124 41859 02450 81304 10293 20250 39962 49999 8562/ 333 10320 58027 70010 82710 84618 88458==
41859,2023,06,17,15,00,AAXX 17154 41859 02430 81303 10266 20260 39992 40029 8562/ 333 58023 70010 82710 84618 88458==
41859,2023,06,17,18,00,AAXX 17184 41859 01430 80902 10260 20240 39991 40028 71792 8532/ 333 58020 70000 83710 85618 88458 81930==
41859,2023,06,17,21,00,AAXX 17214 41859 02430 81303 10260 20240 39986 40023 8562/ 333 58027 70000 83710 85618 88458==
41859,2023,06,18,00,00,AAXX 18004 41859 01330 82202 10240 20230 30005 40042 79696 8592/ 333 58031 70270 83708 85614 88456 81930==
41859,2023,06,18,03,00,AAXX 18034 41859 01340 80000 10239 20230 30013 40050 70296 8562/ 333 20224 58030 70298 83708 84616 88457==
41859,2023,06,18,06,00,AAXX 18064 41859 11350 81302 10259 20230 30001 40038 60036 70296 8562/ 333 58015 70298 83708 84616 88457==
41859,2023,06,18,09,00,AAXX 18094 41859 02450 80501 10282 20260 39975 40012 8562/ 333 58015 70298 83710 84618 88458==
41859,2023,06,18,12,00,AAXX 18124 41859 02440 80000 10278 20250 39972 40009 8562/ 333 10293 58010 70298 83701 84618 88458==
41859,2023,06,18,15,00,AAXX 18154 41859 02430 81303 10257 20240 39998 40035 8562/ 333 58006 70298 83710 84618 88458==
41859,2023,06,18,18,00,AAXX 18184 41859 02430 81302 10254 20230 30001 40038 8562/ 333 58010 70298 83710 84618 88458==
41859,2023,06,18,21,00,AAXX 18214 41859 02430 81303 10247 20240 39996 40033 8562/ 333 58010 70298 83710 84618 88458==
41859,2023,06,19,00,00,AAXX 19004 41859 21340 81304 10241 20240 39988 40025 79592 8692/ 333 59017 60477 70500 84708 85614 88456 81929==
41859,2023,06,19,03,00,AAXX 19034 41859 01340 82202 10241 20240 39998 40035 79596 8692/ 333 20232 59015 70740 84708 85614 88456 81928==
41859,2023,06,19,06,00,AAXX 19064 41859 21450 82201 10249 20240 30000 40038 70296 8562/ 333 59001 60299 70760 83710 84617 88458==
41859,2023,06,19,09,00,AAXX 19094 41859 01440 82302 10262 20240 39981 40018 70262 8562/ 333 58006 70762 83710 84618 88458==
41859,2023,06,19,12,00,AAXX 19124 41859 11440 80502 10267 20240 39976 40013 69926 70262 8562/ 333 10272 58004 70762 83710 84618 88458==
41859,2023,06,19,15,00,AAXX 19154 41859 02430 80000 10254 20240 39990 40027 8562/ 333 59008 70762 83710 84618 88458==
41859,2023,06,19,18,00,AAXX 19184 41859 02430 81802 10258 20240 39994 40031 8562/ 333 59007 70762 82710 84618 88458==
41859,2023,06,19,21,00,AAXX 19214 41859 02430 81302 10257 20240 39985 40022 8562/ 333 59011 70762 83710 84618 88458==
41859,2023,06,20,00,00,AAXX 20004 41859 01435 81302 10260 20240 39975 40012 70262 8562/ 333 59013 70002 83710 84618 88458==
41859,2023,06,20,03,00,AAXX 20034 41859 01340 81302 10251 20250 30001 40038 79596 85721 333 20244 58003 70254 83708 84616 88456==
41859,2023,06,20,06,00,AAXX 20064 41859 21450 81302 10273 20260 39993 40030 70296 8562/ 333 59007 60238 70002 83710 83617 88458==
41859,2023,06,20,09,00,AAXX 20094 41859 02450 80502 10305 20270 39969 40005 8562/ 333 59012 70232 82710 84618 88458==
41859,2023,06,20,12,00,AAXX 20124 41859 02450 80902 10288 20270 39970 40007 8562/ 333 10306 59006 70232 82710 84618 88458==
41859,2023,06,20,15,00,AAXX 20154 41859 01430 80902 10278 20260 39981 40018 70262 8562/ 333 59009 70245 82710 84618 88458==
41859,2023,06,20,18,00,AAXX 20184 41859 11430 80902 10272 20240 39995 40032 60016 71792 8692/ 333 58001 70245 83710 85618 88458 81930==
41859,2023,06,20,21,00,AAXX 20214 41859 01430 80902 10265 20250 39990 40027 70296 8562/ 333 58005 70247 83710 84618 88458==
41859,2023,06,21,00,00,AAXX 21004 41859 21435 81802 10250 20250 39991 40028 70296 8562/ 333 58016 60197 70435 83710 84618 88458==
41859,2023,06,21,03,00,AAXX 21034 41859 01340 80000 10254 20240 39995 40032 79596 8692/ 333 20242 59006 70558 83708 84616 88458 81928==
41859,2023,06,21,06,00,AAXX 21064 41859 21340 80000 10254 20240 30000 40038 79596 86921 333 58007 60379 70578 83708 84616 88456 81928==
41859,2023,06,21,09,00,AAXX 21094 41859 01350 80502 10273 20240 39980 40017 70296 8562/ 333 58011 70584 84708 85614 88456==
41859,2023,06,21,12,00,AAXX 21124 41859 11450 80502 10285 20260 39975 40012 69966 70292 8562/ 333 10290 58005 70584 82710 84618 88458==
41859,2023,06,21,15,00,AAXX 21154 41859 01430 80902 10270 20260 30001 40038 70262 8562/ 333 58020 70601 82710 84618 88458==
41859,2023,06,21,18,00,AAXX 21184 41859 11430 80000 10262 20250 39998 40035 60036 70262 8562/ 333 58003 70601 82710 84618 88458==
41859,2023,06,21,21,00,AAXX 21214 41859 02430 80000 10262 20250 39994 40031 8562/ 333 58004 70599 82710 84618 88458==
41859,2023,06,22,00,00,AAXX 22004 41859 01340 81302 10260 20260 30003 40040 76122 8572/ 333 58012 70006 83709 85616 88456==
41859,2023,06,22,03,00,AAXX 22034 41859 01350 81302 10269 20260 30002 40039 76166 8572/ 333 20248 58007 70075 83708 85616 88456==
41859,2023,06,22,06,00,AAXX 22064 41859 11350 81302 10287 20260 30010 40047 60026 76166 8572/ 333 58010 70057 83509 85616 88458==
41859,2023,06,22,09,00,AAXX 22094 41859 02450 81302 10306 20280 39983 40019 8562/ 333 58003 70051 83710 84618 88458==
41859,2023,06,22,12,00,AAXX 22124 41859 02440 81302 10294 20250 39978 40015 8562/ 333 10306 58003 70051 83710 84618 88458==
41859,2023,06,22,15,00,AAXX 22154 41859 02430 81302 10279 20260 39999 40036 8562/ 333 58002 70021 82710 84618 88458==
41859,2023,06,22,18,00,AAXX 22184 41859 02430 80000 10274 20250 30006 40043 8562/ 333 58008 70021 82710 84618 88458==
41859,2023,06,22,21,00,AAXX 22214 41859 02430 81301 10269 20250 30006 40043 8562/ 333 58012 70021 82710 84618 88458==
41863,2023,06,16,00,00,AAXX 16004 41863 02450 81303 10288 20260 39940 49982 8452/ 333 58010 70000 84617 88458==
41863,2023,06,16,03,00,AAXX 16034 41863 02557 31804 10328 20280 39951 49992 83400 333 20271 58014 70000 83620==
41863,2023,06,16,06,00,AAXX 16064 41863 02557 32703 10365 20250 39946 49987 83400 333 58005 70000 83620==
41863,2023,06,16,09,00,AAXX 16094 41863 02558 32704 10390 20200 39927 49968 83400 333 58014 70000 83620==
41863,2023,06,16,12,00,AAXX 16124 41863 02456 60904 10337 20290 39918 49959 83520 333 58014 70000 83618 86458==
41863,2023,06,16,15,00,AAXX 16154 41863 02450 80905 10290 20250 39955 49997 8452/ 333 58016 70000 84618 88458==
41863,2023,06,16,18,00,AAXX 16184 41863 02450 80504 10278 20250 39959 40001 8452/ 333 58030 70000 84618 88458==
41863,2023,06,16,21,00,AAXX 16214 41863 02450 80303 10274 20250 39953 49995 8552/ 333 58018 70000 85618 88458==
41863,2023,06,17,00,00,AAXX 17004 41863 02450 80903 10281 20260 39949 49991 8552/ 333 58009 70000 85618 88458==
41863,2023,06,17,03,00,AAXX 17034 41863 02456 50903 10325 20290 39968 40009 83520 333 20273 58017 70000 83618 85458==
41863,2023,06,17,09,00,AAXX 17094 41863 02457 60904 10345 20280 39943 49984 83520 333 58016 70000 83618 86458==
41863,2023,06,17,12,00,AAXX 17124 41863 02456 51304 10310 20260 39951 49993 83520 333 10356 58033 70000 83618 85458==
41863,2023,06,17,15,00,AAXX 17154 41863 02456 60903 10280 20240 39980 40022 84520 333 58025 70000 84618 86458==
41863,2023,06,17,18,00,AAXX 17184 41863 02456 81303 10263 20230 39977 40020 8552/ 333 58018 70000 85618 88458==
41863,2023,06,17,21,00,AAXX 17214 41863 02450 81304 10262 20230 39979 40022 8552/ 333 58026 70000 85618 88458==
41863,2023,06,18,00,00,AAXX 18004 41863 02450 80904 10264 20240 39990 40033 8552/ 333 58041 70000 85618 88458==
41863,2023,06,18,03,00,AAXX 18034 41863 02450 81303 10261 20230 39997 40040 8552/ 333 20250 58029 70000 85618 88458==
41863,2023,06,18,06,00,AAXX 18064 41863 02456 71303 10282 20240 39985 40027 85510 333 58016 70000 85618 87458==
41863,2023,06,18,09,00,AAXX 18094 41863 02456 60903 10295 20250 39965 40007 83520 333 58022 70000 83618 86458==
41863,2023,06,18,12,00,AAXX 18124 41863 02456 80902 10290 20250 39957 49999 8552/ 333 10302 58006 70000 85618 88458==
41863,2023,06,18,21,00,AAXX 18214 41863 02450 81302 10256 20240 39984 40027 8552/ 333 58005 70000 85618 85458==
41863,2023,06,19,06,00,AAXX 19064 41863 11456 81301 10260 20230 39992 40035 60356 70296 8552/ 333 58007 70390 85618 88458==
41863,2023,06,19,09,00,AAXX 19094 41863 02456 80504 10295 20250 39971 40013 8552/ 333 58006 70390 85617 88458==
41863,2023,06,19,12,00,AAXX 19124 41863 02456 50903 10277 20240 39963 40005 83520 333 10295 58006 70390 83618 85458==
41863,2023,06,19,15,00,AAXX 19154 41863 02450 50904 10262 20240 39978 40021 83520 333 59006 70390 83618 85458==
41863,2023,06,19,18,00,AAXX 19184 41863 02450 50503 10262 20240 39989 40032 83520 333 58000 70390 83618 88458==
41863,2023,06,19,21,00,AAXX 19214 41863 02440 80902 10255 20240 39975 40018 8452/ 333 59009 70390 84618 88458==
41863,2023,06,20,00,00,AAXX 20004 41863 02440 80902 10271 20260 39974 40016 8552/ 333 59024 70350 85617 88458==
41863,2023,06,20,03,00,AAXX 20034 41863 01450 81304 10260 20250 39989 40032 70266 8552/ 333 20225 58004 70010 85617 88458==
41863,2023,06,20,06,00,AAXX 20064 41863 11456 80902 10308 20280 39982 40024 60016 70262 8552/ 333 59019 70010 85618 88458==
41863,2023,06,20,09,00,AAXX 20094 41863 02456 61303 10326 20280 39958 49999 84520 333 59013 70010 84618 86458==
41863,2023,06,20,12,00,AAXX 20124 41863 02456 80502 10313 20270 39953 49995 8552/ 333 10327 59010 70010 85618 88458==
41863,2023,06,20,15,00,AAXX 20154 41863 02450 80904 10288 20270 39970 40012 8552/ 333 59008 70010 85618 88458==
41863,2023,06,20,18,00,AAXX 20184 41863 02450 81304 10282 20260 39981 40023 8552/ 333 59008 70010 85618 88458==
41863,2023,06,20,21,00,AAXX 20214 41863 02450 81302 10278 20270 39973 40015 8352/ 333 59002 70010 83618 88458==
41863,2023,06,21,00,00,AAXX 21004 41863 02450 80503 10270 20260 39983 40026 8552/ 333 58009 70010 85617 88458==
41863,2023,06,21,03,00,AAXX 21034 41863 01450 80902 10260 20250 39990 40033 70262 8552/ 333 20247 58001 70026 85617 88457==
41863,2023,06,21,06,00,AAXX 21064 41863 11456 80904 10285 20260 39986 40028 60036 70262 8452/ 333 58004 70026 84618 88458==
41863,2023,06,21,09,00,AAXX 21094 41863 02456 81302 10295 20260 39964 40006 8552/ 333 58006 70026 85618 88458==
41863,2023,06,21,12,00,AAXX 21124 41863 02456 80902 10290 20250 39965 40007 8552/ 333 10300 58012 70026 85618 88458==
41863,2023,06,21,15,00,AAXX 21154 41863 02450 60000 10272 20240 39989 40032 84520 333 58019 70026 84618 86458==
41863,2023,06,21,18,00,AAXX 21184 41863 02450 80901 10270 20250 39993 40036 8552/ 333 58012 70026 85618 88458==
41863,2023,06,21,21,00,AAXX 21214 41863 02450 80901 10269 20260 39991 40034 8552/ 333 58018 70026 85618 88458==
41863,2023,06,22,00,00,AAXX 22004 41863 02450 80000 10267 20260 39994 40037 8552/ 333 58011 70026 85617 88458==
41863,2023,06,22,03,00,AAXX 22034 41863 02456 60902 10300 20260 39996 40038 84500 333 20240 58006 70000 84618 86458==
41863,2023,06,22,06,00,AAXX 22064 41863 02456 80902 10312 20260 39997 40039 8452/ 333 58011 70000 84618 88458==
41863,2023,06,22,09,00,AAXX 22094 41863 02456 70901 10320 20270 39971 40013 84520 333 58007 70000 84618 87458==
41863,2023,06,22,12,00,AAXX 22123 41863 02456 81301 10305 20260 39965 40009 8552/ 333 10325 58000 70000 85618 88458==
41863,2023,06,22,15,00,AAXX 22154 41863 02450 81302 10290 20260 39987 40029 8552/ 333 59002 70000 85618 88458==
41863,2023,06,22,18,00,AAXX 22184 41863 02450 81302 10280 20260 39995 40037 8552/ 333 58002 70000 85618 88458==
41863,2023,06,22,21,00,AAXX 22214 41863 02450 80902 10276 20260 39985 40027 8552/ 333 59006 70000 85618 88458==
41881,2023,06,16,00,00,AAXX 16004 41881 32456 81404 10292 20280 39960 49980 8552/ 333 56999 58008 70000 85617 88459=
41881,2023,06,16,06,00,AAXX 16064 41881 32458 51802 10360 20250 39972 49991 83520 333 56990 58009 70000 83617 85459=
41881,2023,06,16,12,00,AAXX 16124 41881 32456 01802 10370 20260 39937 49956 333 10395 58000 70000=
41881,2023,06,16,15,00,AAXX 16154 41881 32450 80903 10285 20270 39983 40003 8552/ 333 56999 58021 70000 85617 88459=
41881,2023,06,17,00,00,AAXX 17004 41881 32456 81402 10276 20260 39985 40005 8552/ 333 56999 58025 70000 85617 88459=
41881,2023,06,17,03,00,AAXX 17034 41881 32457 21803 10325 20280 39992 40011 82500 333 20270 56900 58019 70000 82618=
41881,2023,06,17,12,00,AAXX 17124 41881 11456 80904 10256 20240 39972 49992 60115 70296 8552/ 333 10382 56299 58035 70112 85615 88458=
41881,2023,06,17,18,00,AAXX 17184 41881 32456 61802 10253 20240 30004 40024 83520 333 56990 58021 70112 83615 86458=
41881,2023,06,18,00,00,AAXX 18004 41881 32357 81005 10260 20250 30013 40033 8562/ 333 56399 58028 70112 84709 85615 88458=
41881,2023,06,18,06,00,AAXX 18064 41881 32458 71202 10325 20290 30002 40022 84520 333 56390 58013 70112 84616 87459=
41881,2023,06,19,06,00,AAXX 19064 41881 32458 70902 10305 20260 30008 40028 84520 333 56290 58006 70025 84616 87459=
41881,2023,06,19,18,00,AAXX 19184 41881 32456 71306 10260 20240 30006 40025 84520 333 56390 58006 70000 84616 87459=
41881,2023,06,20,00,00,AAXX 20004 41881 32357 81304 10270 20250 39993 40013 8562/ 333 56399 59002 70000 84710 85615 88458=
41881,2023,06,20,06,00,AAXX 20064 41881 11457 81805 10317 20270 30001 40021 60016 70262 8552/ 333 56499 59007 70010 85615 88458=
41881,2023,06,20,12,00,AAXX 20124 41881 32456 81704 10330 20260 39979 49998 8552/ 333 10350 56999 59006 70010 85616 88458=
41881,2023,06,20,18,00,AAXX 20184 41881 32450 51704 10274 20250 30003 40023 83520 333 56990 59003 70010 83617 85459=
41881,2023,06,21,00,00,AAXX 21004 41881 32356 81703 10280 20270 30000 40020 8562/ 333 56499 58007 70010 83710 85616 88458=
41881,2023,06,21,06,00,AAXX 21064 41881 32356 80901 10305 20280 30007 40027 8562/ 333 56499 58006 70000 83710 85616 88458=
41881,2023,06,21,12,00,AAXX 21124 41881 11450 81801 10260 20240 39990 40010 60169 76162 8562/ 333 10310 56299 58011 70160 84709 85614 88458=
41881,2023,06,21,18,00,AAXX 21184 41881 32450 60901 10265 20260 30011 40031 83520 333 56990 58008 70160 83617 86459=
41881,2023,06,22,00,00,AAXX 22004 41881 32456 81302 10270 20260 30007 40027 8552/ 333 45999 58007 70160 85616 88458=
41881,2023,06,22,06,00,AAXX 22064 41881 32457 60902 10324 20270 30012 40032 83520 333 56990 58005 70160 83617 86459=
41881,2023,06,22,12,00,AAXX 22123 41881 32456 61402 10278 20260 39983 40003 83520 333 10332 56990 59007 70000 83617 86459=
41881,2023,06,22,18,00,AAXX 22184 41881 32450 50901 10270 20260 30018 40038 83520 333 56990 58007 70000 83617 85459=
41883,2023,06,16,00,00,AAXX 16004 41883 02450 81304 10300 20270 39964 49984 8562/ 333 58004 70000 83710 84615 88458==
41883,2023,06,16,03,00,AAXX 16034 41883 02456 81802 10316 20280 39979 49999 8552/ 333 20270 58010 70000 85616 88459==
41883,2023,06,16,06,00,AAXX 16064 41883 12456 61802 10364 20270 39976 49996 63516 333 58007 70000 83615 86459==
41883,2023,06,16,09,00,AAXX 16094 41883 02556 32304 10400 20220 39950 49969 81130 333 58005 70000 81828 83362==
41883,2023,06,16,12,00,AAXX 16124 41883 02456 61304 10318 20230 39951 49971 82510 333 10402 58002 70000 82616 86459==
41883,2023,06,16,15,00,AAXX 16154 41883 02430 80904 10288 20240 39976 49996 8552/ 333 58006 70000 85616 88459==
41883,2023,06,16,18,00,AAXX 16184 41883 11330 80904 10274 20250 39985 40005 60076 72996 8562/ 333 58013 70072 85709 88458==
41883,2023,06,16,21,00,AAXX 16214 41883 02330 80000 10276 20260 39979 49999 8562/ 333 58024 70072 85709 88458==
41883,2023,06,17,00,00,AAXX 17004 41883 02340 81302 10284 20260 39980 40003 8562/ 333 58016 70072 85709 88458==
41883,2023,06,17,03,00,AAXX 17034 41883 02456 61802 10320 20280 39994 40014 83510 333 20265 58015 70072 83616 86459==
41883,2023,06,17,06,00,AAXX 17064 41883 02456 61802 10356 20270 39996 40016 83510 333 58019 70072 83616 86459==
41883,2023,06,17,09,00,AAXX 17094 41883 02450 62302 10370 20250 39967 49986 84420 333 58017 70075 82618 83828 86458==
41883,2023,06,17,12,00,AAXX 17124 41883 01450 81304 10262 20230 39985 40005 71796 8532/ 333 10375 58034 70120 82710 84616 88456 81930==
41883,2023,06,17,15,00,AAXX 17154 41883 02430 81304 10260 20240 30007 40027 8452/ 333 58031 70194 84616 88459==
41883,2023,06,17,18,00,AAXX 17184 41883 02430 81804 10258 20240 30008 40028 8552/ 333 58023 70122 85616 88459==
41883,2023,06,17,21,00,AAXX 17214 41883 02430 81304 10260 20240 30006 40026 8552/ 333 58027 70122 85616 88459==
41883,2023,06,18,00,00,AAXX 18004 41883 02450 80904 10264 20240 30014 40034 8552/ 333 58034 70122 85616 88459==
41883,2023,06,18,03,00,AAXX 18034 41883 02356 80903 10272 20250 30025 40045 8562/ 333 20252 58031 70122 85709 88458==
41883,2023,06,18,06,00,AAXX 18064 41883 02356 80902 10300 20270 30025 40045 8562/ 333 58029 70122 85709 88458==
41883,2023,06,18,09,00,AAXX 18094 41883 02450 80904 10348 20270 39984 40004 8442/ 333 58017 70122 83618 83828 88458==
41883,2023,06,18,12,00,AAXX 18124 41883 01350 81304 10260 20220 30006 40026 79522 8592/ 333 10354 58021 70010 83708 84615 88456 81930==
41883,2023,06,18,15,00,AAXX 18154 41883 01430 80904 10264 20230 30003 40023 70292 8452/ 333 59004 70010 84616 88483==
41883,2023,06,18,18,00,AAXX 18184 41883 01430 80904 10272 20250 30015 40035 70292 8562/ 333 58007 70010 82710 84617 88458==
41883,2023,06,18,21,00,AAXX 18214 41883 02430 80000 10270 20250 30001 40021 8562/ 333 59005 70010 82710 84618 88458==
41883,2023,06,19,00,00,AAXX 19004 41883 02450 80000 10272 20260 30004 40024 8562/ 333 59010 70010 82710 84616 88458==
41883,2023,06,19,03,00,AAXX 19034 41883 01456 80000 10253 20230 30011 40031 72162 8552/ 333 20245 59014 70015 85616 88458==
41883,2023,06,19,06,00,AAXX 19064 41883 11456 71303 10282 20240 30013 40033 69956 70262 85520 333 58008 70015 85616 87458==
41883,2023,06,19,09,00,AAXX 19094 41883 02456 80904 10298 20240 39995 40015 8552/ 333 58011 70015 85616 88458==
41883,2023,06,19,12,00,AAXX 19124 41883 02/56 30904 10285 20240 39989 40009 83030 333 10302 59017 70005 83362==
41883,2023,06,19,15,00,AAXX 19154 41883 02430 60904 10270 20240 30003 40023 83510 333 58018 70005 83616 86459==
41883,2023,06,19,18,00,AAXX 19184 41883 02430 80902 10264 20240 30009 40029 8552/ 333 59006 70005 85616 88459==
41883,2023,06,19,21,00,AAXX 19214 41883 02330 80902 10266 20250 30003 40023 8562/ 333 58002 70005 85709 88458==
41883,2023,06,20,00,00,AAXX 20004 41883 02350 80902 10270 20250 30001 40021 8562/ 333 59003 70005 85709 88458==
41883,2023,06,20,03,00,AAXX 20034 41883 02456 71304 10286 20270 30015 40035 84520 333 20244 58004 70000 84616 87459==
41883,2023,06,20,06,00,AAXX 20064 41883 02456 71803 10320 20270 30006 40026 85420 333 59007 70000 84616 84582==
41883,2023,06,20,09,00,AAXX 20094 41883 02456 81802 10335 20280 39997 40017 8552/ 333 58002 70000 85616 88459==
41883,2023,06,20,12,00,AAXX 20124 41883 02456 61802 10314 20260 39984 40004 83510 333 10338 59005 70000 83616 86459==
41883,2023,06,20,15,00,AAXX 20154 41883 02430 81304 10282 20260 30005 40025 8552/ 333 58002 70000 85616 88459==
41883,2023,06,20,18,00,AAXX 20184 41883 02430 81302 10278 20260 30011 40031 8552/ 333 58002 70000 85616 88459==
41883,2023,06,20,21,00,AAXX 20214 41883 02330 80000 10274 20250 30005 40025 8562/ 333 58002 70000 85710 88459==
41883,2023,06,21,00,00,AAXX 21004 41883 02350 80000 10275 20260 30005 40025 8562/ 333 58004 70000 85710 88458==
41883,2023,06,21,03,00,AAXX 21034 41883 02350 80000 10290 20270 30012 40032 8562/ 333 20269 59003 70000 85709 88458==
41883,2023,06,21,06,00,AAXX 21064 41883 01350 80902 10308 20280 30011 40031 79596 8532/ 333 58005 70040 85709 88458 81930==
41883,2023,06,21,09,00,AAXX 21094 41883 01350 80000 10256 20240 39994 40014 79596 8592/ 333 59003 70300 82709 84615 88456 81930==
41883,2023,06,21,12,00,AAXX 21124 41883 21450 80902 10264 20240 39993 40013 70296 8562/ 333 10308 58009 60268 70300 83710 84618 88458==
41883,2023,06,21,15,00,AAXX 21154 41883 02430 80000 10262 20240 30015 40035 8552/ 333 58010 70300 85616 88458==
41883,2023,06,21,18,00,AAXX 21184 41883 02330 80000 10260 20250 30017 40037 8562/ 333 58006 70300 85709 88458==
41883,2023,06,21,21,00,AAXX 21214 41883 02330 80000 10258 20250 30011 40031 8562/ 333 58006 70300 85709 88458==
41883,2023,06,22,00,00,AAXX 22004 41883 02330 80000 10268 20260 30014 40034 8562/ 333 58009 70300 85709 88458==
41883,2023,06,22,03,00,AAXX 22034 41883 02450 80000 10284 20260 30022 40042 8562/ 333 20248 58010 70300 82710 84618 88458==
41883,2023,06,22,06,00,AAXX 22064 41883 02450 80000 10324 20280 30018 40038 8562/ 333 58007 70260 83710 84618 88458==
41883,2023,06,22,09,00,AAXX 22094 41883 01350 80902 10316 20280 30000 40020 71792 8532/ 333 58006 70000 85709 88458 81930==
41883,2023,06,22,12,00,AAXX 22124 41883 01350 80000 10276 20260 39991 40011 72162 8562/ 333 10330 59002 70010 85709 88458==
41883,2023,06,22,15,00,AAXX 22154 41883 02430 80000 10282 20260 30017 40037 8552/ 333 58002 70006 85616 88459==
41883,2023,06,22,18,00,AAXX 22184 41883 02430 40902 10274 20260 30022 40043 81530 333 58005 70006 81616 84362==
41883,2023,06,22,21,00,AAXX 22214 41883 02430 60902 10272 20260 30013 40033 84520 333 58002 70006 84616 86459==
41886,2023,06,16,00,00,AAXX 16004 41886 02456 80000 10264 20250 39987 40008 8352/ 333 58011 70430 83616 88458==
41886,2023,06,16,03,00,AAXX 16034 41886 02457 71608 10272 20250 39986 40006 82570 333 20232 59005 70430 82618 87460==
41886,2023,06,16,06,00,AAXX 16064 41886 02457 80000 10305 20270 39997 40017 8452/ 333 58004 70430 84616 88458==
41886,2023,06,16,09,00,AAXX 16094 41886 02457 80908 10290 20250 39980 40000 8341/ 333 58010 70430 82618 88460==
41886,2023,06,16,12,00,AAXX 16124 41886 01456 81303 10275 20240 39970 49990 71792 8532/ 333 10317 58009 70430 85616 88458 81930==
41886,2023,06,16,15,00,AAXX 16154 41886 NIL=
41886,2023,06,16,21,00,AAXX 16214 41886 41450 81806 10242 20230 39997 40018 58016 70290 88458==
41886,2023,06,17,00,00,AAXX 17004 41886 11456 80000 10245 20240 30002 40023 60296 70296 8452/ 333 58015 70290 84616 88458==
41886,2023,06,17,03,00,AAXX 17034 41886 02457 71603 10295 20280 30011 40031 83510 333 20242 58025 70290 83618 87462==
41886,2023,06,17,06,00,AAXX 17064 41886 02457 81103 10290 20270 30017 40037 8441/ 333 58020 70290 83618 88460==
41886,2023,06,17,09,00,AAXX 17094 41886 01457 80908 10295 20280 39994 40014 72162 8441/ 333 58014 70310 83618 88460==
41886,2023,06,17,12,00,AAXX 17124 41886 01450 80000 10240 20230 30014 40035 71796 8532/ 333 10323 58044 70392 84616 88458 81930==
41886,2023,06,17,15,00,AAXX 17154 41886 01350 80000 10245 20240 30026 40047 71396 8632/ 333 58033 70395 83710 85616 88458 81930==
41886,2023,06,17,18,00,AAXX 17184 41886 11350 80000 10250 20240 30022 40043 69936 70296 8632/ 333 58035 70395 83710 85616 88458 81930==
41886,2023,06,17,21,00,AAXX 17214 41886 02350 80000 10252 20230 30024 40045 8672/ 333 58027 70105 84710 85616 88458==
41886,2023,06,18,00,00,AAXX 18004 41886 02350 80000 10255 20240 30027 40048 8672/ 333 58025 70105 84710 85616 88458==
41886,2023,06,18,03,00,AAXX 18034 41886 01350 80406 10245 20230 30047 40068 76162 8632/ 333 10240 58036 70109 84709 85615 88457 81930==
41886,2023,06,18,06,00,AAXX 18064 41886 21457 80904 10275 20250 30028 40048 70262 8451/ 333 58011 60018 70119 84617 88459==
41886,2023,06,18,09,00,AAXX 18094 41886 02456 80901 10283 20240 30004 40024 8432/ 333 58010 70099 83616 88458 81930==
41886,2023,06,18,15,00,AAXX 18154 41886 01450 81302 10260 20240 30029 40050 70292 8432/ 333 58003 70014 83618 88460 81930==
41886,2023,06,18,18,00,AAXX 18184 41886 01550 80902 10252 20230 30031 40052 70292 8351/ 333 58009 70014 83618 88460==
41886,2023,06,19,00,00,AAXX 19004 41886 01350 81803 10256 20250 39998 40041 76122 8572/ 333 58008 70040 83708 85614 88456==
41886,2023,06,19,06,00,AAXX 19064 41886 12456 80902 10237 20230 30027 40048 60196 8532/ 333 59001 70192 83616 88458 81930==
41886,2023,06,19,09,00,AAXX 19094 41886 01456 80901 10260 20230 30010 40030 70262 8532/ 333 58007 70192 84617 88460 81930==
41886,2023,06,19,12,00,AAXX 19124 41886 01456 81302 10262 20230 30005 40025 70292 8532/ 333 10274 59007 70192 83616 88460 81930==
41886,2023,06,19,15,00,AAXX 19154 41886 02450 80000 10250 20230 30015 40035 8532/ 333 59014 70192 83616 88460 81930==
41886,2023,06,19,18,00,AAXX 19184 41886 02450 80000 10260 20240 30026 40047 8532/ 333 59005 70192 83618 88460 81930==
41886,2023,06,19,21,00,AAXX 19214 41886 02450 81302 10256 20250 30020 40041 8532/ 333 59002 70192 83618 88460 81930==
41886,2023,06,20,00,00,AAXX 20004 41886 01350 81302 10253 20240 30019 40040 70522 8532/ 333 58004 70192 83710 83617 88460 81930==
41886,2023,06,20,03,00,AAXX 20034 41886 02456 80000 10268 20250 30033 40053 8532/ 333 20230 58006 70000 83618 88460 81930==
41886,2023,06,20,06,00,AAXX 20064 41886 02456 80000 10299 20270 30024 40044 8441/ 333 59003 70000 83618 88460==
41886,2023,06,20,09,00,AAXX 20094 41886 02457 71304 10288 20260 30008 40028 82550 333 59002 70000 82618 86362==
41886,2023,06,20,12,00,AAXX 20124 41886 02457 71405 10284 20250 30005 40025 83570 333 10298 58000 70000 83618 86460==
41886,2023,06,20,15,00,AAXX 20154 41886 02450 71503 10264 20240 30020 40040 83570 333 58005 70000 83618 86460==
41886,2023,06,20,18,00,AAXX 20184 41886 02450 71503 10254 20240 30027 40048 82510 333 58001 70000 82618 86460==
41886,2023,06,21,00,00,AAXX 21004 41886 02456 80000 10268 20250 30025 40045 8452/ 333 58006 70000 84616 88458==
41886,2023,06,21,03,00,AAXX 21034 41886 02456 80000 10290 20270 30027 40047 8452/ 333 20254 59006 70000 84616 88458==
41886,2023,06,21,06,00,AAXX 21064 41886 02456 70000 10320 20270 30023 40043 84570 333 59001 70000 84616 86460==
41886,2023,06,21,09,00,AAXX 21094 41886 01450 80000 10288 20270 30004 40024 79522 8592/ 333 59004 70020 84616 88458 81930==
41886,2023,06,21,12,00,AAXX 21124 41886 21450 80000 10250 20240 30023 40044 79596 8532/ 333 10328 58018 60587 70580 83616 88458 81930==
41886,2023,06,21,15,00,AAXX 21154 41886 01450 70000 10255 20250 30038 40059 70196 83510 333 58018 70600 83618 87460==
41886,2023,06,21,18,00,AAXX 21184 41886 11450 20000 10260 20250 30027 40048 60026 70196 82500 333 58000 70600 82618==
41886,2023,06,21,21,00,AAXX 21214 41886 02450 60000 10265 20260 30022 40042 82510 333 58000 70600 82618 86460==
41886,2023,06,22,00,00,AAXX 22004 41886 02450 81302 10270 20270 30022 40042 8432/ 333 59003 70600 83618 88460 81930==
41886,2023,06,22,03,00,AAXX 22034 41886 02450 81301 10280 20260 30032 40052 8532/ 333 20245 58005 70600 83616 88458 81930==
41886,2023,06,22,06,00,AAXX 22064 41886 02456 80000 10297 20270 30034 40054 8432/ 333 58011 70600 83618 88460 81930==
41886,2023,06,22,09,00,AAXX 22094 41886 02456 80000 10287 20260 30010 40030 8352/ 333 58006 70580 83618 88460==
41886,2023,06,22,12,00,AAXX 22123 41886 02456 80000 10282 20260 30003 40023 8352/ 333 10300 59017 70020 83618 88460==
41886,2023,06,22,15,00,AAXX 22154 41886 02456 80000 10275 20250 30024 40044 8352/ 333 59014 70000 83618 88460==
41886,2023,06,22,18,00,AAXX 22184 41886 02450 80000 10270 20250 30026 40046 8352/ 333 59002 70000 83618 88460==
41886,2023,06,22,21,00,AAXX 22214 41886 02450 80000 10265 20250 30022 40042 8352/ 333 58000 70000 83618 88460==
41888,2023,06,16,00,00,AAXX 16004 41888 11440 80902 10245 20240 39994 40004 60176 70296 8352/ 333 56999 58009 70880 83618 88460=
41888,2023,06,16,06,00,AAXX 16064 41888 11450 80904 10258 20240 30009 40019 60015 70262 8352/ 333 56999 58007 70885 83618 88460=
41888,2023,06,16,12,00,AAXX 16124 41888 32350 81206 10260 20240 39985 49995 8562/ 333 10270 56999 58007 70605 83710 85616 88458=
41888,2023,06,16,15,00,AAXX 16154 41888 31340 80904 10257 20240 30015 40025 71392 8392/ 333 56999 58015 70175 82710 83616 81928 88458=
41888,2023,06,17,00,00,AAXX 17004 41888 11450 80904 10244 20230 30009 40019 60178 70296 8452/ 333 56999 58015 70177 83616 88458=
41888,2023,06,17,03,00,AAXX 17034 41888 32350 80904 10260 20250 30021 40031 8462/ 333 20226 56999 58012 70177 81710 84616 88458=
41888,2023,06,17,12,00,AAXX 17124 41888 11325 83208 10248 20230 30047 40057 60014 79592 8592/ 333 10285 56999 58062 70182 83708 84616 81927 88458=
41888,2023,06,17,18,00,AAXX 17184 41888 11340 80907 10250 20230 30033 40043 60076 70296 8332/ 333 56999 58018 70249 82710 83616 81930 88458=
41888,2023,06,18,00,00,AAXX 18004 41888 32450 80905 10254 20230 30037 40047 8352/ 333 56999 58028 70077 83616 88458=
41888,2023,06,18,06,00,AAXX 18064 41888 11456 81402 10271 20230 30032 40042 60218 70296 8252/ 333 56999 58008 70284 82618 88460=
41888,2023,06,18,12,00,AAXX 18124 41888 32356 80904 10254 20230 30027 40037 8462/ 333 10295 56999 59020 70274 82710 84616 88458=
41888,2023,06,19,06,00,AAXX 19064 41888 11335 80903 10235 20235 30036 40046 60443 79596 8492/ 333 56999 58004 70437 82708 84616 81928 88457=
41888,2023,06,19,12,00,AAXX 19124 41888 11350 80902 10254 20230 30015 40025 60016 70296 8432/ 333 10260 56999 59012 70447 82710 84616 81930 88458=
41888,2023,06,19,18,00,AAXX 19184 41888 31340 80905 10246 20240 30036 40046 70522 8432/ 333 56999 59006 70447 82710 84616 81930 88458=
41888,2023,06,20,00,00,AAXX 20004 41888 32450 80902 10250 20240 30026 40036 8352/ 333 56999 58000 70445 83618 88459=
41888,2023,06,20,06,00,AAXX 20064 41888 32356 80705 10257 20240 30037 40047 8362/ 333 56999 58001 70010 81710 83618 88459=
41888,2023,06,20,12,00,AAXX 20124 41888 32350 81203 10274 20250 30019 40029 83628 333 10286 56999 58004 70000 81710 83616 88458=
41888,2023,06,20,18,00,AAXX 20184 41888 32340 80904 10258 20250 30034 40044 8432/ 333 56999 59002 70000 82710 84616 81930 88458=
41888,2023,06,21,00,00,AAXX 21004 41888 32350 80901 10256 20250 30029 40039 8462/ 333 56999 58003 70000 81710 84616 88458=
41888,2023,06,21,06,00,AAXX 21064 41888 32350 80901 10304 20270 30032 40042 8462/ 333 56999 59005 70000 81710 84616 88458=
41888,2023,06,21,12,00,AAXX 21124 41888 11350 81401 10258 20250 30015 40025 60013 79596 8492/ 333 10306 56999 59004 70008 82708 84616 81928 88458=
41888,2023,06,21,18,00,AAXX 21184 41888 11450 70902 10260 20260 30034 40044 60016 70296 83510 333 56990 58000 70016 83616 87458=
41888,2023,06,22,00,00,AAXX 22004 41888 11350 81502 10270 20270 30032 40042 69935 70262 8362/ 333 56999 58003 70019 82710 83616 88458=
41888,2023,06,22,06,00,AAXX 22064 41888 11340 80702 10252 20240 30045 40055 60044 76122 8472/ 333 56999 58013 70061 82708 83615 88457=
41888,2023,06,22,12,00,AAXX 22123 41888 NIL=
41888,2023,06,22,18,00,AAXX 22184 41888 NIL=
41891,2023,06,16,00,00,AAXX 16004 41891 21320 81205 10225 20220 39990 40029 79599 8632/ 333 58019 60289 71354 86708 88458 81925==
41891,2023,06,16,03,00,AAXX 16034 41891 01315 81308 10230 20220 39998 40037 79596 8632/ 333 20221 58000 70974 86707 88458 81925==
41891,2023,06,16,06,00,AAXX 16064 41891 21430 81406 10231 20220 39996 40035 71799 8632/ 333 59004 60759 71084 83710 84615 88459 81930==
41891,2023,06,16,09,00,AAXX 16094 41891 01445 60904 10250 20230 39985 40023 70592 83370 333 58010 71084 83615 85460 81930==
41891,2023,06,16,12,00,AAXX 16124 41891 01435 80902 10240 20220 39969 40007 70592 8532/ 333 10261 58001 71084 82710 84615 88459 81930==
41891,2023,06,16,15,00,AAXX 16154 41891 01430 80906 10240 20230 39995 40034 79596 8532/ 333 58015 71089 85710 88459 81930==
41891,2023,06,16,18,00,AAXX 16184 41891 21430 80804 10245 20240 39998 40037 70596 8532/ 333 58015 69958 71035 82710 83616 88460 81930==
41891,2023,06,16,21,00,AAXX 16214 41891 01430 81504 10240 20240 39990 40029 79596 8632/ 333 58011 71085 85708 88458 81928==
41891,2023,06,17,00,00,AAXX 17004 41891 21430 81804 10240 20240 39996 40035 79596 8632/ 333 58015 60409 71155 85708 88458 81928==
41891,2023,06,17,03,00,AAXX 17034 41891 01320 81306 10232 20230 30017 40056 79599 8632/ 333 20225 58019 71325 86708 88458 81925==
41891,2023,06,17,06,00,AAXX 17064 41891 21320 80905 10230 20230 30026 40065 79599 8632/ 333 58030 60439 70839 86708 88458 81925==
41891,2023,06,17,09,00,AAXX 17094 41891 01435 80904 10230 20220 30001 40040 72999 8532/ 333 58016 71281 82710 83616 88460 81930==
41891,2023,06,17,12,00,AAXX 17124 41891 01430 81303 10234 20220 39997 40035 72196 8532/ 333 10242 58028 71285 82710 84615 88459 81930==
41891,2023,06,17,15,00,AAXX 17154 41891 01430 80603 10236 20230 30023 40062 72162 8532/ 333 58028 71280 82710 84615 88459 81930==
41891,2023,06,17,18,00,AAXX 17184 41891 11430 81004 10243 20220 30013 40052 60001 70562 8532/ 333 58015 71280 82710 84615 88459 81930==
41891,2023,06,17,21,00,AAXX 17214 41891 01430 81204 10240 20220 30015 40054 70522 8532/ 333 58025 71080 82710 84615 88459 81930==
41891,2023,06,18,00,00,AAXX 18004 41891 11320 81504 10240 20230 30018 40057 60042 76162 8632/ 333 58022 70920 86708 88458 81925==
41891,2023,06,18,03,00,AAXX 18034 41891 01315 83608 10232 20230 30039 40078 79596 8632/ 333 20225 58022 70972 86707 88458 81925==
41891,2023,06,18,06,00,AAXX 18064 41891 21315 81304 10232 20230 30017 40056 79596 8632/ 333 59009 60819 71296 86707 88458 81925==
41891,2023,06,18,09,00,AAXX 18094 41891 01350 81205 10235 20230 30003 40042 72996 8532/ 333 58002 70894 83708 85615 88458 81930==
41891,2023,06,18,12,00,AAXX 18124 41891 11435 80902 10244 20230 39997 40037 60046 70596 8532/ 333 10250 58001 70890 82710 84615 88459 81930==
41891,2023,06,18,15,00,AAXX 18154 41891 01430 80804 10242 20230 30020 40059 70522 8532/ 333 59003 70890 82710 83616 88459 81930==
41891,2023,06,18,18,00,AAXX 18184 41891 01430 80804 10240 20230 30020 40059 70522 8532/ 333 58007 70890 82710 83616 88459 81930==
41891,2023,06,18,21,00,AAXX 18214 41891 01430 80904 10235 20230 30010 40049 70522 8532/ 333 59005 71124 85710 88459 81930==
41891,2023,06,19,00,00,AAXX 19004 41891 21330 83604 10230 20230 30006 40045 79596 8632/ 333 59012 60277 71120 85708 88457 81926==
41891,2023,06,19,03,00,AAXX 19034 41891 01320 83606 10230 20230 30018 40056 79596 8632/ 333 20225 59021 71188 86707 88458 81925==
41891,2023,06,19,06,00,AAXX 19064 41891 21320 80504 10234 20230 30024 40063 79599 8632/ 333 58007 61119 71422 86708 88458 81925==
41891,2023,06,19,09,00,AAXX 19094 41891 02330 81405 10230 20230 30000 40039 8632/ 333 59003 71512 84708 85615 88458 81930==
41891,2023,06,19,12,00,AAXX 19124 41891 21320 81303 10238 20230 39999 40038 76196 8632/ 333 10245 58001 60149 71522 86708 88458 81925==
41891,2023,06,19,15,00,AAXX 19154 41891 01430 81003 10236 20230 30008 40047 70562 8532/ 333 59012 71522 82710 84615 88459 81930==
41891,2023,06,19,21,00,AAXX 19214 41891 01430 80903 10240 20230 30009 40048 70522 8532/ 333 59001 71522 82710 84615 88459 81930==
41891,2023,06,20,00,00,AAXX 20004 41891 01430 80903 10240 20230 30009 40048 70522 8532/ 333 58003 71252 82710 84615 88459 81930==
41891,2023,06,20,03,00,AAXX 20034 41891 01320 81204 10250 20240 30021 40059 76062 8632/ 333 20229 58003 70744 86708 88458 81925==
41891,2023,06,20,06,00,AAXX 20064 41891 01320 83607 10240 20240 30014 40053 79596 8632/ 333 59010 70380 86707 88458 81925==
41891,2023,06,20,09,00,AAXX 20094 41891 01320 80904 10241 20240 30006 40045 79596 8632/ 333 58006 70440 86707 88456 81925==
41891,2023,06,20,12,00,AAXX 20124 41891 01430 81802 10260 20240 39996 40034 72996 8532/ 333 10270 59003 70432 82710 84615 88459 81930==
41891,2023,06,20,15,00,AAXX 20154 41891 01430 80903 10253 20240 30010 40048 70522 8532/ 333 58002 70432 82710 83616 88459 81930==
41891,2023,06,20,18,00,AAXX 20184 41891 01430 80903 10250 20240 30012 40050 70522 8532/ 333 58001 70432 82710 83616 88459 81930==
41891,2023,06,20,21,00,AAXX 20214 41891 01430 80903 10250 20240 30006 40044 70522 8532/ 333 58003 70432 82710 83616 88459 81930==
41891,2023,06,21,00,00,AAXX 21004 41891 01330 80804 10250 20240 30008 40046 79596 8632/ 333 59001 70050 82710 83616 88458 81928==
41891,2023,06,21,03,00,AAXX 21034 41891 01440 81302 10270 20250 30014 40052 70562 8532/ 333 20236 59007 70484 82710 84615 88459 81930==
41891,2023,06,21,06,00,AAXX 21064 41891 11440 80502 10300 20260 30013 40051 69941 70562 8532/ 333 59001 70246 82710 84615 88459 81930==
41891,2023,06,21,09,00,AAXX 21094 41891 01440 80502 10278 20250 39994 40032 70522 8532/ 333 59012 70056 82710 84615 88459 81930==
41891,2023,06,21,12,00,AAXX 21124 41891 01435 80902 10280 20260 39991 40029 70522 8532/ 333 10306 59005 70054 82710 84615 88459 81930==
41891,2023,06,21,15,00,AAXX 21154 41891 01430 82703 10270 20260 30012 40050 76122 8532/ 333 58002 70054 82710 84615 88459 81930==
41891,2023,06,21,18,00,AAXX 21184 41891 01320 83503 10262 20250 30014 40052 76162 8632/ 333 58002 70054 86708 88458 81925==
41891,2023,06,21,21,00,AAXX 21214 41891 01430 80903 10260 20250 30010 40048 72162 8532/ 333 58004 70072 82710 84615 88459 81930==
41891,2023,06,22,00,00,AAXX 22004 41891 11430 81204 10260 20250 30016 40054 60021 70562 8532/ 333 58008 70022 82710 84615 88459 81930==
41891,2023,06,22,03,00,AAXX 22034 41891 01435 81802 10270 20250 30022 40060 70522 8532/ 333 20255 58008 70018 82710 84615 88459 81930==
41891,2023,06,22,06,00,AAXX 22064 41891 11435 81304 10280 20260 30020 40058 69912 72162 8532/ 333 58007 70019 82710 84615 88459 81930==
41891,2023,06,22,09,00,AAXX 22094 41891 01435 81405 10275 20260 39997 40035 72122 8532/ 333 58003 70025 83710 84615 88459 81930==
41891,2023,06,22,12,00,AAXX 22124 41891 11435 81802 10279 20250 39990 40028 60016 70562 8532/ 333 10295 59001 70024 82710 84615 88459 81930==
41891,2023,06,22,15,00,AAXX 22154 41891 01430 80804 10270 20260 30006 40044 70522 8532/ 333 59006 70024 82710 83616 88459 81930==
41891,2023,06,22,18,00,AAXX 22184 41891 01330 80804 10267 20260 30016 40054 76122 8632/ 333 58002 70000 85708 88458 81928==
41891,2023,06,22,21,00,AAXX 22214 41891 01330 80704 10253 20240 30014 40052 76196 8632/ 333 58004 70026 85708 88458 81928==
41895,2023,06,16,00,00,AAXX 16004 41895 02456 81803 10295 20290 39953 49974 83520 333 58004 70000 83616 88458==
41895,2023,06,16,03,00,AAXX 16034 41895 02456 61803 10338 20280 39972 49993 83510 333 20290 58005 70000 83616 86458==
41895,2023,06,16,06,00,AAXX 16064 41895 02956 52303 10390 20250 39969 49991 80001 333 58003 70000 85074==
41895,2023,06,16,09,00,AAXX 16094 41895 02457 31802 10400 20250 39949 49970 83500 333 58009 70000 83616==
41895,2023,06,16,12,00,AAXX 16124 41895 02456 51302 10371 20280 39939 49961 83520 333 10413 58007 70000 83616 85458==
41895,2023,06,16,15,00,AAXX 16154 41895 02450 51803 10332 20280 39967 49989 83520 333 58004 70000 83616 85458==
41895,2023,06,16,21,00,AAXX 16214 41895 02450 51802 10302 20280 39973 49994 83520 333 58023 70000 83616 85458==
41895,2023,06,17,00,00,AAXX 17004 41895 02450 51802 10298 20290 39971 49992 83520 333 58018 70000 83616 85458==
41895,2023,06,17,03,00,AAXX 17034 41895 02456 50903 10330 20290 39993 40015 83520 333 20295 58021 70000 83616 85458==
41895,2023,06,17,06,00,AAXX 17064 41895 02456 31804 10370 20280 39986 40008 83500 333 58017 70000 83616==
41895,2023,06,17,09,00,AAXX 17094 41895 01456 81503 10326 20300 39965 49987 72922 8432/ 333 58016 70024 83616 88458 81928==
41895,2023,06,17,12,00,AAXX 17124 41895 21456 81802 10281 20240 39974 49996 70296 8452/ 333 10393 58035 60025 70024 84646 88458==
41895,2023,06,17,15,00,AAXX 17154 41895 02456 81803 10287 20240 39997 40019 8452/ 333 58030 70024 84616 88458==
41895,2023,06,17,18,00,AAXX 17184 41895 02456 41503 10279 20260 39996 40018 82520 333 58023 70024 82626 84458==
41895,2023,06,17,21,00,AAXX 17214 41895 02450 81804 10286 20280 30001 40023 8452/ 333 58028 70024 84616 88458==
41895,2023,06,18,00,00,AAXX 18004 41895 02350 81504 10289 20280 30004 40026 8562/ 333 58033 70024 82708 84615 88458==
41895,2023,06,18,03,00,AAXX 18034 41895 02350 81803 10308 20280 30007 40029 8562/ 333 20250 58014 70024 82710 84615 88458==
41895,2023,06,18,06,00,AAXX 18064 41895 02450 81303 10344 20280 30000 40022 8452/ 333 58014 70024 84615 88458==
41895,2023,06,18,09,00,AAXX 18094 41895 02456 31802 10367 20290 39976 49998 83500 333 58011 70000 83616==
41895,2023,06,18,15,00,AAXX 18154 41895 01450 81302 10265 20260 39994 40016 70296 8452/ 333 59003 70134 84615 88458==
41895,2023,06,18,21,00,AAXX 18214 41895 02450 51802 10275 20270 39995 40017 83520 333 59006 70139 83616 85458==
41895,2023,06,19,06,00,AAXX 19064 41895 02957 42303 10334 20230 30003 40024 80001 333 58003 70139 84074==
41895,2023,06,19,09,00,AAXX 19094 41895 02957 41802 10342 20250 39986 40007 80001 333 58010 70139 84074==
41895,2023,06,19,12,00,AAXX 19124 41895 02456 51302 10326 20260 39977 49998 83510 333 10353 59002 70025 83616 85458==
41895,2023,06,19,15,00,AAXX 19154 41895 02950 01802 10291 20250 39991 40013 333 59003 70005==
41895,2023,06,19,18,00,AAXX 19184 41895 02950 01802 10280 20250 39996 40018 333 59012 70000==
41895,2023,06,19,21,00,AAXX 19214 41895 02450 61803 10289 20280 39984 40006 83520 333 59011 70000 83616 86458==
41895,2023,06,20,00,00,AAXX 20004 41895 02450 61803 10289 20280 39984 40006 83520 333 59008 70000 83616 86458==
41895,2023,06,20,03,00,AAXX 20034 41895 02350 81802 10302 20280 30009 40031 8562/ 333 20285 58004 70000 82710 84615 88458==
41895,2023,06,20,06,00,AAXX 20064 41895 21450 81804 10316 20300 30001 40023 70262 8452/ 333 59002 60037 70028 84615 88458==
41895,2023,06,20,09,00,AAXX 20094 41895 02456 51803 10344 20270 39973 49994 83510 333 59013 70028 83616 85458==
41895,2023,06,20,12,00,AAXX 20124 41895 02456 61303 10335 20300 39981 40002 83520 333 10350 58004 70028 83616 86458==
41895,2023,06,20,15,00,AAXX 20154 41895 02450 61304 10295 20280 39998 40020 83520 333 58007 70028 83616 86458==
41895,2023,06,20,18,00,AAXX 20184 41895 02450 71304 10290 20280 30000 40022 83520 333 58004 70028 83616 87458==
41895,2023,06,21,00,00,AAXX 21004 41895 02450 81304 10290 20280 39994 40016 8452/ 333 58010 70028 84615 88458==
41895,2023,06,21,03,00,AAXX 21034 41895 02456 81802 10311 20280 39998 40020 8452/ 333 20280 59011 70028 84615 88458==
41895,2023,06,21,06,00,AAXX 21064 41895 01450 80502 10274 20260 30000 40022 79596 8532/ 333 59001 70070 84614 88458 81928==
41895,2023,06,21,09,00,AAXX 21094 41895 02456 80602 10268 20260 39985 40008 8452/ 333 58012 70070 84616 88458==
41895,2023,06,21,12,00,AAXX 21124 41895 01340 80404 10247 20247 39993 40015 79522 8532/ 333 10338 58012 70090 83708 84614 88458 82928==
41895,2023,06,21,15,00,AAXX 21154 41895 01450 81502 10274 20270 30007 40029 70296 8452/ 333 58009 70214 84616 88458==
41895,2023,06,21,18,00,AAXX 21184 41895 11450 61802 10264 20260 30008 40030 60056 70196 83520 333 58008 70214 83616 86458==
41895,2023,06,21,21,00,AAXX 21214 41895 02450 80000 10265 20265 30000 40023 8452/ 333 58011 70214 84616 88458==
41895,2023,06,22,00,00,AAXX 22004 41895 02450 81502 10266 20266 30005 40028 8452/ 333 58011 70214 84616 88458==
41895,2023,06,22,03,00,AAXX 22034 41895 02456 61803 10310 20280 30009 40031 83510 333 20246 58011 70226 83616 85458==
41895,2023,06,22,06,00,AAXX 22064 41895 02456 61803 10346 20280 30007 40029 83510 333 58007 70156 83616 86458==
41895,2023,06,22,09,00,AAXX 22094 41895 02456 52303 10360 20290 39987 40008 83520 333 58002 70144 83616 85458==
41895,2023,06,22,12,00,AAXX 22124 41895 21450 81304 10280 20260 39983 40005 70396 8452/ 333 10364 58010 69915 70053 84615 88458==
41895,2023,06,22,15,00,AAXX 22154 41895 02450 81302 10280 20260 30004 40026 8352/ 333 59003 70001 83616 88458==
41895,2023,06,22,18,00,AAXX 22184 41895 02450 50903 10270 20270 30014 40036 83520 333 58006 70001 83616 85458==
41895,2023,06,22,21,00,AAXX 22214 41895 02450 50902 10270 20270 30003 40025 83520 333 58003 70001 83616 85458==
41897,2023,06,16,00,00,AAXX 16004 41897 31450 61802 10295 20280 39975 49988 70522 82530 333 56990 58012 70010 82618 86361=
41897,2023,06,16,06,00,AAXX 16064 41897 32950 61802 10365 20280 39977 49990 84030 333 56090 59005 70010 84361=
41897,2023,06,16,12,00,AAXX 16124 41897 32456 61302 10315 20250 39962 49975 82510 333 10392 56990 59015 70000 82618 86458=
41897,2023,06,16,15,00,AAXX 16154 41897 32450 51302 10274 20240 30000 40013 82530 333 56990 58021 70000 82618 85361=
41897,2023,06,17,00,00,AAXX 17004 41897 31450 61801 10294 20270 39995 40008 70522 82530 333 56990 58020 70000 82618 86361=
41897,2023,06,17,03,00,AAXX 17034 41897 32456 51802 10335 20280 30001 40014 81510 333 20274 56990 58016 70000 81618 85458=
41897,2023,06,17,12,00,AAXX 17124 41897 11350 81302 10270 20230 39974 49987 60194 79596 8532/ 333 10380 56999 58012 70190 82707 83615 81929 88458=
41897,2023,06,18,00,00,AAXX 18004 41897 31450 60901 10260 20240 30019 40032 70522 82530 333 56990 58024=
41897,2023,06,18,06,00,AAXX 18064 41897 32456 61803 10340 20260 30016 40029 83530 333 56490 58016 70190 83618 86362=
41897,2023,06,19,00,00,AAXX 19004 41897 11425 81802 10280 20270 30010 40023 60066 70262 8352/ 333 56499 59009 70170 83615 88458=
41897,2023,06,19,06,00,AAXX 19064 41897 32956 31702 10330 20240 30010 40023 83030 333 56090 59006 70170 83362=
41897,2023,06,19,12,00,AAXX 19124 41897 32456 40904 10295 20250 39996 40009 82530 333 10332 56290 59010 70070 82617 84362=
41897,2023,06,19,18,00,AAXX 19184 41897 32430 61503 10270 20260 30014 40027 83530 333 56990 59004 70060 83616 86360=
41897,2023,06,20,00,00,AAXX 20004 41897 32430 61301 10273 20250 30007 40020 83530 333 56990 59003 70000 83616 86360=
41897,2023,06,20,06,00,AAXX 20064 41897 11440 81301 10312 20270 30015 40028 69924 8452/ 333 56999 58005 70002 84615 88458=
41897,2023,06,20,12,00,AAXX 20124 41897 32956 31803 10300 20250 39995 40007 83030 333 10317 56090 59001 70002 83362=
41897,2023,06,20,18,00,AAXX 20184 41897 32440 51704 10272 20250 30017 40030 83530 333 56490 58003 70002 83616 85360=
41897,2023,06,21,00,00,AAXX 21004 41897 32430 81703 10276 20270 30012 40025 8352/ 333 56499 58005 70002 83615 88458=
41897,2023,06,21,06,00,AAXX 21064 41897 32450 61703 10320 20270 30012 40024 83530 333 56490 59003 70000 83616 86360=
41897,2023,06,21,12,00,AAXX 21124 41897 11440 61802 10265 20260 30004 40017 60389 70166 82510 333 10320 56490 58009 70380 82617 86458=
41897,2023,06,21,18,00,AAXX 21184 41897 32940 01803 10270 20260 30019 40032 333 58002 70000=
41897,2023,06,22,00,00,AAXX 22004 41897 11440 81802 10255 20250 30020 40033 60159 79696 8432/ 333 5699/ 59008 70530 82707 82616 81929 88458=
41897,2023,06,22,06,00,AAXX 22064 41897 11950 70903 10318 20280 30016 40029 60019 70362 83510 333 56990 58004 70540 83617 87458=
41897,2023,06,22,12,00,AAXX 22124 41897 11440 60901 10280 20260 39996 40010 60037 70362 82510 333 10340 56990 59008 70190 82617 86458=
41897,2023,06,22,18,00,AAXX 22184 41897 11440 31302 10270 20260 30030 40043 69956 70262 81510 333 56990 58011 70195 81618 83458=
41902,2023,06,16,06,00,AAXX 16064 41902 32440 71804 10325 20280 39997 40006 83410 333 56490 59002 70650 82614 87459=
41902,2023,06,16,12,00,AAXX 16124 41902 11430 82708 10270 20250 39997 40006 60507 79596 8592/ 333 10344 56699 58018 71150 83613 82928 88458=
41902,2023,06,16,15,00,AAXX 16154 41902 NIL=
41902,2023,06,17,00,00,AAXX 17004 41902 11430 81802 10258 20250 30009 40018 60238 70296 8442/ 333 56499 58014 70790 83614 88459=
41902,2023,06,17,03,00,AAXX 17034 41902 32440 81704 10296 20280 30016 40024 8442/ 333 20222 56499 58012 70790 83613 88459=
41902,2023,06,17,06,00,AAXX 17064 41902 32450 71703 10321 20280 30009 40017 84310 333 56490 58011 70790 83614 81929 87459=
41902,2023,06,17,12,00,AAXX 17124 41902 11330 80901 10268 20260 30017 40025 60157 70296 8462/ 333 10325 56299 58020 70440 82710 83614 88459=
41902,2023,06,18,00,00,AAXX 18004 41902 32430 80901 10252 20240 30032 40041 8252/ 333 56299 58023 70224 82614 88459=
41902,2023,06,18,06,00,AAXX 18064 41902 11430 80904 10256 20250 30032 40041 69984 70262 8442/ 333 56299 58023 70232 83616 88458=
41902,2023,06,18,12,00,AAXX 18124 41902 31440 81201 10257 20240 30020 40028 8442/ 333 10295 56499 58003 70082 83618 88458=
41902,2023,06,18,18,00,AAXX 18184 41902 32440 61203 10246 20240 30037 40046 84420 333 56990 58014 70008 83616 86458=
41902,2023,06,19,00,00,AAXX 19004 41902 32440 80000 10250 20240 30024 40032 8442/ 333 56999 59008 70008 83616 88458=
41902,2023,06,19,06,00,AAXX 19064 41902 11440 80903 10240 20240 30037 40045 60204 79522 8692/ 333 56299 58005 70195 84710 85612 81925 88457=
41902,2023,06,19,12,00,AAXX 19124 41902 11440 80903 10252 20240 30014 40022 60126 70296 8442/ 333 10320 56299 59006 70315 83613 88459=
41902,2023,06,19,18,00,AAXX 19184 41902 32440 80903 10250 20250 30028 40036 8442/ 333 56999 59009 70315 83616 88458=
41902,2023,06,20,00,00,AAXX 20004 41902 32440 80903 10250 20250 30024 40032 8442/ 333 56999 58000 70315 83616 88458=
41902,2023,06,20,06,00,AAXX 20064 41902 32450 80902 10320 20270 30022 40031 8532/ 333 56499 59015 70120 82712 84615 81930 88458=
41902,2023,06,20,12,00,AAXX 20124 41902 11440 80000 10258 20250 30017 40025 60246 70296 8562/ 333 10320 56499 58003 70240 83710 84615 88458=
41902,2023,06,20,18,00,AAXX 20184 41902 32430 61502 10256 20256 30028 40037 83420 333 56990 58000 70240 82616 86458=
41902,2023,06,21,00,00,AAXX 21004 41902 32440 80000 10265 20265 30024 40032 8562/ 333 56499 58000 70240 83710 84615 88458=
41902,2023,06,21,06,00,AAXX 21064 41902 32456 81805 10320 20270 30025 40034 8562/ 333 56499 58003 70240 82712 84615 88458=
41902,2023,06,21,12,00,AAXX 21124 41902 11440 80501 10260 20260 30019 40027 60216 79596 8562/ 333 10325 56499 58002 70210 82712 84615 88458=
41902,2023,06,21,18,00,AAXX 21184 41902 11440 80501 10268 20266 30033 40042 60046 70222 8562/ 333 56499 58005 70250 82712 84615 88458=
41902,2023,06,22,00,00,AAXX 22004 41902 32440 81802 10270 20260 30033 40042 8442/ 333 56999 58009 70250 83616 88458=
41902,2023,06,22,06,00,AAXX 22064 41902 32450 81604 10308 20270 30036 40045 8442/ 333 56999 58011 70250 83616 88458=
41902,2023,06,22,12,00,AAXX 22123 41902 32450 80502 10293 20270 30011 40019 8442/ 333 10315 56999 59008 70040 83614 88458=
41902,2023,06,22,18,00,AAXX 22184 41902 32440 82001 10280 20260 30038 40046 8442/ 333 56999 58005 70000 83614 88458=
41907,2023,06,16,00,00,AAXX 16004 41907 02340 81802 10300 20280 39950 49965 8662/ 333 59006 70000 82709 85615 88458==
41907,2023,06,16,03,00,AAXX 16034 41907 02450 71804 10330 20290 39976 49990 84510 333 20296 58006 70000 84615 86458==
41907,2023,06,16,06,00,AAXX 16064 41907 02450 71804 10380 20260 39973 49987 85510 333 58000 70000 85615 86458==
41907,2023,06,16,09,00,AAXX 16094 41907 02450 41802 10392 20270 39954 49969 84800 333 59003 70000 82615 83825==
41907,2023,06,16,12,00,AAXX 16124 41907 02450 81802 10355 20290 39950 49964 8551/ 333 10402 58012 70000 85615 88458==
41907,2023,06,16,15,00,AAXX 16154 41907 02440 81802 10320 20280 39975 49990 8552/ 333 58024 70000 85615 88458==
41907,2023,06,16,18,00,AAXX 16184 41907 02440 81802 10315 20290 39989 40004 8552/ 333 58024 70000 85615 88458==
41907,2023,06,16,21,00,AAXX 16214 41907 02440 81802 10308 20290 39979 49994 8552/ 333 58026 70000 85615 88458==
41907,2023,06,17,00,00,AAXX 17004 41907 02440 81302 10300 20290 39976 49991 8552/ 333 58026 70000 85615 88458==
41907,2023,06,17,03,00,AAXX 17034 41907 02450 61803 10335 20280 39994 40008 84510 333 20291 58018 70000 84615 85458==
41907,2023,06,17,06,00,AAXX 17064 41907 02456 61804 10370 20260 39994 40008 85570 333 58021 70000 85615 85458==
41907,2023,06,17,09,00,AAXX 17094 41907 02456 62204 10365 20270 39969 49983 82570 333 58015 70000 82615 85458==
41907,2023,06,17,12,00,AAXX 17124 41907 01350 82202 10282 20240 39983 49997 70362 8662/ 333 10380 58033 70030 83709 85615 88458==
41907,2023,06,17,15,00,AAXX 17154 41907 02440 81304 10278 20250 39995 40010 8552/ 333 58020 70030 85615 88458==
41907,2023,06,17,18,00,AAXX 17184 41907 02440 81803 10275 20230 30001 40016 8552/ 333 58012 70030 85615 88458==
41907,2023,06,17,21,00,AAXX 17214 41907 02440 81302 10280 20250 30002 40017 8552/ 333 58023 70030 85615 88458==
41907,2023,06,18,00,00,AAXX 18004 41907 02440 81302 10285 20280 30005 40020 8552/ 333 58029 70030 85615 88458==
41907,2023,06,18,03,00,AAXX 18034 41907 02445 81804 10317 20290 30014 40029 8551/ 333 20270 58020 70030 85615 88458==
41907,2023,06,18,06,00,AAXX 18064 41907 02450 81802 10335 20270 30005 40019 85510 333 58011 70030 85615 88458==
41907,2023,06,18,09,00,AAXX 18094 41907 02450 61802 10357 20270 39982 49997 86800 333 58013 70030 84615 83825==
41907,2023,06,18,12,00,AAXX 18124 41907 21450 81302 10250 20230 39993 40008 76122 8662/ 333 10360 58010 60025 70016 82708 85615 88458==
41907,2023,06,18,15,00,AAXX 18154 41907 02340 81302 10268 20250 39998 40013 8662/ 333 58003 70016 82709 85615 88458==
41907,2023,06,18,18,00,AAXX 18184 41907 02340 81302 10284 20260 30003 40018 8662/ 333 58002 70016 83709 85615 88458==
41907,2023,06,18,21,00,AAXX 18214 41907 02340 81302 10284 20260 39997 40012 8662/ 333 59005 70016 82709 85615 88458==
41907,2023,06,19,00,00,AAXX 19004 41907 02350 81802 10286 20270 39991 40006 8662/ 333 59014 70016 85709 88458==
41907,2023,06,19,03,00,AAXX 19034 41907 02450 71802 10315 20250 30009 40024 85510 333 20250 59005 70016 85615 86458==
41907,2023,06,19,06,00,AAXX 19064 41907 02456 62702 10345 20220 39999 40014 85810 333 59006 70016 82615 83825 85458==
41907,2023,06,19,09,00,AAXX 19094 41907 02456 61802 10335 20220 39992 40002 85510 333 58010 70016 85615 86458==
41907,2023,06,19,12,00,AAXX 19124 41907 02456 71802 10320 20230 39982 49996 85530 333 10350 59011 70000 85615 86362==
41907,2023,06,19,15,00,AAXX 19154 41907 02440 70902 10287 20250 30000 40014 85510 333 58002 70000 85615 86458==
41907,2023,06,19,18,00,AAXX 19184 41907 02340 81302 10287 20260 30003 40018 8662/ 333 58000 70000 82709 85615 88458==
41907,2023,06,19,21,00,AAXX 19214 41907 02340 81302 10280 20260 39998 40013 8662/ 333 58001 70000 82709 85615 88458==
41907,2023,06,20,00,00,AAXX 20004 41907 02340 81302 10280 20260 39994 40009 8662/ 333 58003 70000 83709 85615 88458==
41907,2023,06,20,03,00,AAXX 20034 41907 02345 81802 10310 20270 30011 40025 8661/ 333 20278 58020 70000 83709 85615 88458==
41907,2023,06,20,06,00,AAXX 20064 41907 02350 82304 10348 20270 30004 40018 8662/ 333 58005 70000 83709 84615 88458==
41907,2023,06,20,09,00,AAXX 20094 41907 02450 71302 10345 20280 39977 49991 85510 333 59015 70000 85615 87458==
41907,2023,06,20,12,00,AAXX 20124 41907 02450 71302 10315 20260 39978 49992 85510 333 10350 59004 70000 85615 87458==
41907,2023,06,20,15,00,AAXX 20154 41907 02440 71302 10290 20250 39992 40006 85510 333 58008 70000 85615 87458==
41907,2023,06,20,18,00,AAXX 20184 41907 02440 71802 10283 20250 30005 40020 85510 333 58002 70000 85615 87458==
41907,2023,06,20,21,00,AAXX 20214 41907 02440 70000 10277 20250 39989 40004 85510 333 59009 70000 85615 87458==
41907,2023,06,21,00,00,AAXX 21004 41907 02340 82302 10275 20260 39985 40000 8662/ 333 59009 70000 82709 85615 88458==
41907,2023,06,21,03,00,AAXX 21034 41907 02350 71804 10315 20270 30002 40017 86610 333 20273 59009 70000 83709 84615 87458==
41907,2023,06,21,06,00,AAXX 21064 41907 02350 81804 10350 20270 30001 40015 8662/ 333 59003 70000 82709 85615 88458==
41907,2023,06,21,09,00,AAXX 21094 41907 01350 81802 10310 20280 39985 49999 72996 8662/ 333 58008 70008 82709 85615 88458==
41907,2023,06,21,12,00,AAXX 21124 41907 11350 80000 10285 20260 39984 49999 69986 70296 8662/ 333 10350 58006 70008 82709 85615 88458==
41907,2023,06,21,15,00,AAXX 21154 41907 02340 80000 10285 20260 39994 40009 8662/ 333 58002 70008 82709 85615 88458==
41907,2023,06,21,18,00,AAXX 21184 41907 02340 80000 10279 20260 30003 40018 8662/ 333 59002 70008 82709 85615 88458==
41907,2023,06,21,21,00,AAXX 21214 41907 02340 80000 10275 20260 39993 40007 8662/ 333 58004 70008 82709 85615 88458==
41907,2023,06,22,00,00,AAXX 22004 41907 21340 80000 10275 20270 39999 40014 70262 8662/ 333 58014 69955 70013 83709 85615 88458==
41907,2023,06,22,03,00,AAXX 22034 41907 02450 62303 10320 20280 30015 40029 84510 333 20265 58013 70013 84615 85458==
41907,2023,06,22,06,00,AAXX 22064 41907 02450 72702 10347 20260 30010 40024 85510 333 58009 70013 84615 86458==
41907,2023,06,22,09,00,AAXX 22094 41907 01330 81802 10276 20260 30005 40020 79596 8692/ 333 58020 70065 85709 88458 81930==
41907,2023,06,22,12,00,AAXX 22124 41907 21330 80000 10268 20260 39988 40002 79196 8672/ 333 10358 58004 60309 70307 85709 88458==
41907,2023,06,22,15,00,AAXX 22154 41907 02340 81302 10270 20260 30002 40017 8552/ 333 58008 70307 85615 88458==
41907,2023,06,22,18,00,AAXX 22184 41907 02440 81802 10265 20260 30009 40023 8552/ 333 58006 70307 85615 88458==
41907,2023,06,22,21,00,AAXX 22214 41907 02440 80000 10262 20250 30003 40018 8552/ 333 58010 70307 85615 88458==
41909,2023,06,16,00,00,AAXX 16004 41909 02350 81802 10290 20270 39978 49989 8552/ 333 58004 70010 85614 88458==
41909,2023,06,16,03,00,AAXX 16034 41909 02356 81803 10325 20260 39991 40002 8552/ 333 20265 58007 70010 85614 88458==
41909,2023,06,16,06,00,AAXX 16064 41909 02456 61802 10356 20270 39988 40000 82510 333 58012 70010 82615 86458==
41909,2023,06,16,09,00,AAXX 16094 41909 02456 61304 10365 20280 39971 49983 83370 333 59002 70010 83615 84460 81930==
41909,2023,06,16,12,00,AAXX 16124 41909 01340 81302 10275 20250 39974 49985 71796 8692/ 333 10370 58002 70060 83708 83614 88458 81925==
41909,2023,06,16,15,00,AAXX 16154 41909 01440 81302 10270 20250 39990 40001 70296 8552/ 333 58005 70162 85614 88482==
41909,2023,06,16,18,00,AAXX 16184 41909 11440 80000 10268 20250 39999 40010 60096 70296 8552/ 333 58009 70152 85614 88460==
41909,2023,06,16,21,00,AAXX 16214 41909 02440 80000 10271 20240 39998 40009 8552/ 333 58014 70152 85615 88460==
41909,2023,06,17,00,00,AAXX 17004 41909 02350 81802 10282 20250 39997 40008 8562/ 333 58019 70152 83708 83614 88460==
41909,2023,06,17,03,00,AAXX 17034 41909 02456 61802 10315 20280 30010 40021 83530 333 20256 58019 70152 83615 84362==
41909,2023,06,17,06,00,AAXX 17064 41909 02456 61806 10352 20260 30008 40020 83330 333 58020 70152 83615 83362 81930==
41909,2023,06,17,09,00,AAXX 17094 41909 02456 61804 10357 20270 39987 49999 83530 333 58016 70152 83615 85360==
41909,2023,06,17,12,00,AAXX 17124 41909 01350 83604 10280 20220 30018 40029 79522 8592/ 333 10360 58044 70080 85708 85614 88458 81930==
41909,2023,06,17,15,00,AAXX 17154 41909 01330 81801 10250 20230 30014 40025 71396 8592/ 333 58024 70220 83708 85614 88458 81930==
41909,2023,06,17,18,00,AAXX 17184 41909 11940 01301 10250 20230 30020 40031 60146 70196 333 58021 70220==
41909,2023,06,17,21,00,AAXX 17214 41909 02940 00000 10254 20230 30021 40032 333 58023 70000==
41909,2023,06,18,00,00,AAXX 18004 41909 02450 81801 10260 20240 30026 40037 8552/ 333 58029 70220 85615 88460==
41909,2023,06,18,03,00,AAXX 18034 41909 02456 61802 10304 20270 30027 40038 82510 333 20233 58017 70220 82615 86458==
41909,2023,06,18,06,00,AAXX 18064 41909 02456 61802 10323 20270 30019 40030 82510 333 58011 70220 82615 86458==
41909,2023,06,18,09,00,AAXX 18094 41909 02456 81802 10343 20240 30002 40014 8552/ 333 58013 70220 85614 88458==
41909,2023,06,18,12,00,AAXX 18124 41909 02456 81802 10305 20250 30014 40025 8552/ 333 10245 59004 70140 85615 88458==
41909,2023,06,19,00,00,AAXX 19004 41909 21940 00000 10260 20250 30028 40039 70262 8552/ 333 58008 60087 70000 82458 85615 88458==
41909,2023,06,19,03,00,AAXX 19034 41909 21940 00000 10260 20250 30028 40039 70262 8552/ 333 58008 60087 70000 82458 85615 88458==
41909,2023,06,19,06,00,AAXX 19064 41909 02456 81802 10336 20270 30016 40024 8452/ 333 59003 70090 84615 88458==
41909,2023,06,19,09,00,AAXX 19094 41909 02456 81802 10299 20240 30006 40017 8432/ 333 58004 70090 83615 88458 81930==
41909,2023,06,19,12,00,AAXX 19124 41909 02356 81802 10277 20240 30000 40011 8532/ 333 10338 59014 70090 84708 88458 81930==
41909,2023,06,19,15,00,AAXX 19154 41909 02340 71302 10269 20250 30020 40031 84620 333 58005 70010 83708 86458==
41909,2023,06,19,18,00,AAXX 19184 41909 02340 61302 10262 20240 30021 40032 84620 333 59007 70010 83708 85458==
41909,2023,06,19,21,00,AAXX 19214 41909 02340 81302 10262 20240 30014 40025 8362/ 333 59010 70010 83708 88458==
41909,2023,06,20,00,00,AAXX 20004 41909 02356 81302 10264 20240 30017 40028 8562/ 333 59004 70000 83708 83615 88458==
41909,2023,06,20,03,00,AAXX 20034 41909 02456 61402 10300 20260 30028 40039 82510 333 20258 58000 70000 82615 86458==
41909,2023,06,20,06,00,AAXX 20064 41909 02456 61401 10330 20270 30022 40033 82510 333 58006 70000 82615 86458==
41909,2023,06,20,09,00,AAXX 20094 41909 01350 80000 10285 20260 30004 40015 70396 8562/ 333 59002 70002 83708 83614 88460==
41909,2023,06,20,12,00,AAXX 20124 41909 11450 81302 10286 20260 30000 40011 69926 70296 8552/ 333 10333 58000 70002 85615 88460==
41909,2023,06,20,15,00,AAXX 20154 41909 02450 80000 10272 20240 30016 40027 8552/ 333 59004 70002 85615 88460==
41909,2023,06,20,18,00,AAXX 20184 41909 02440 80000 10270 20240 30021 40032 8552/ 333 58000 70002 85615 88460==
41909,2023,06,20,21,00,AAXX 20214 41909 02340 81302 10274 20250 30016 40027 8662/ 333 58002 70002 83708 84614 88460==
41909,2023,06,21,00,00,AAXX 21004 41909 02350 81302 10280 20260 30014 40025 8562/ 333 59003 70002 83708 83614 88460==
41909,2023,06,21,03,00,AAXX 21034 41909 02350 81802 10304 20270 30024 40035 8562/ 333 20252 59006 70002 83708 83614 88458==
41909,2023,06,21,06,00,AAXX 21064 41909 02456 61802 10332 20270 30021 40032 83510 333 59001 70002 83615 86458==
41909,2023,06,21,09,00,AAXX 21094 41909 01350 83102 10275 20210 30013 40025 76122 8562/ 333 58009 70050 84708 85614 88458==
41909,2023,06,21,12,00,AAXX 21124 41909 21350 80000 10265 20240 30010 40021 76196 8562/ 333 10340 58010 60187 70180 84708 85614 88458==
41909,2023,06,21,15,00,AAXX 21154 41909 01430 80000 10269 20260 30026 40037 70262 8352/ 333 58010 70190 83615 88460==
41909,2023,06,21,18,00,AAXX 21184 41909 11430 80000 10273 20260 30023 40034 60016 70262 8552/ 333 58002 70190 85614 88460==
41909,2023,06,21,21,00,AAXX 21214 41909 02430 80000 10277 20270 30023 40034 8552/ 333 58007 70190 85615 88460==
41909,2023,06,22,00,00,AAXX 22004 41909 02450 80000 10279 20270 30023 40034 8552/ 333 58009 70190 85615 88460==
41909,2023,06,22,03,00,AAXX 22034 41909 02450 81802 10290 20270 30029 40040 8552/ 333 20237 58005 70190 85615 88458==
41909,2023,06,22,06,00,AAXX 22064 41909 02456 61802 10320 20270 30030 40041 83510 333 58009 70190 83615 86458==
41909,2023,06,22,09,00,AAXX 22094 41909 01456 80000 10304 20250 30021 40032 71796 8692/ 333 58008 70140 83708 83614 88458 81925==
41909,2023,06,22,12,00,AAXX 22123 41909 01440 80000 10297 20270 39996 40007 70296 8692/ 333 10335 59014 70020 83708 83614 88458 81925==
41909,2023,06,22,18,00,AAXX 22184 41909 02940 00000 10275 20260 30032 40043 333 59009 70010==
41909,2023,06,22,21,00,AAXX 22214 41909 02940 00000 10272 20250 30028 40039 333 58005 70010==
41915,2023,06,16,00,00,AAXX 16004 41915 21450 80000 10230 20220 39996 40021 76196 8672/ 333 58013 60187 70380 82710 83616 88458==
41915,2023,06,16,03,00,AAXX 16034 41915 02456 71602 10280 20240 30002 40027 85510 333 20227 58007 70380 85616 87458==
41915,2023,06,16,06,00,AAXX 16064 41915 01456 83406 10264 20210 30016 40041 71792 8672/ 333 58002 70380 82710 85616 88458 81928==
41915,2023,06,16,09,00,AAXX 16094 41915 01456 80000 10245 20230 39991 40016 71796 8632/ 333 58009 70646 82710 85616 88458 81928==
41915,2023,06,16,12,00,AAXX 16124 41915 21456 60000 10257 20250 39979 40004 70196 85630 333 10290 58001 60278 70652 82710 84616 86362==
41915,2023,06,16,15,00,AAXX 16154 41915 02450 80000 10252 20230 30003 40028 8662/ 333 58010 70652 82710 85616 88458==
41915,2023,06,16,18,00,AAXX 16184 41915 02450 80000 10248 20230 30009 40034 8662/ 333 58014 70452 82710 85616 88458==
41915,2023,06,16,21,00,AAXX 16211 41915 01450 83001 10229 20230 30004 40029 71796 8632/ 333 58018 70692 82710 85616 88458 81928==
41915,2023,06,17,00,00,AAXX 17004 41915 21456 80000 10235 20230 30007 40032 70296 8662/ 333 58011 60547 70812 82710 85616 88458==
41915,2023,06,17,03,00,AAXX 17034 41915 02456 80000 10245 20230 30029 40054 8662/ 333 20220 58027 70812 82710 84616 88458==
41915,2023,06,17,09,00,AAXX 17094 41915 01456 83402 10235 20235 30009 40034 71796 8632/ 333 58018 70946 83710 85615 88457 81928==
41915,2023,06,17,12,00,AAXX 17124 41915 21456 80000 10245 20240 30011 40036 70296 8662/ 333 10290 58032 60408 70940 81710 86616 88458==
41915,2023,06,17,15,00,AAXX 17154 41915 02440 80804 10244 20220 30029 40054 8662/ 333 58026 70940 82712 85616 88458==
41915,2023,06,17,18,00,AAXX 17184 41915 02440 80000 10240 20220 30025 40050 8662/ 333 58016 70940 81712 85616 88458==
41915,2023,06,17,21,00,AAXX 17214 41915 02440 80000 10236 20220 30023 40048 8662/ 333 58019 70600 82712 85616 88458==
41915,2023,06,18,00,00,AAXX 18004 41915 02456 80902 10246 20230 30032 40057 8652/ 333 58025 70400 86616 88458==
41915,2023,06,18,03,00,AAXX 18034 41915 02456 81002 10280 20240 30037 40062 8662/ 333 20231 58008 70400 82712 85616 88458==
41915,2023,06,18,06,00,AAXX 18064 41915 21450 81002 10225 20225 30036 40061 79596 8732/ 333 58009 60417 70815 83710 85615 88458 81928==
41915,2023,06,18,09,00,AAXX 18094 41915 01456 81302 10235 20230 30019 40044 71796 8732/ 333 58010 70419 83710 85615 88458 81928==
41915,2023,06,18,12,00,AAXX 18124 41915 11456 80000 10238 20230 30005 40030 69946 70296 8662/ 333 10384 59006 70419 81612 85616 88458==
41915,2023,06,18,15,00,AAXX 18154 41915 02440 61303 20220 30032 40057 83510 333 58003 70419 83616 85458==
41915,2023,06,18,21,00,AAXX 18214 41915 02440 61202 10235 20220 30028 40053 84470 333 58005 70419 83616 84458==
41915,2023,06,19,06,00,AAXX 19064 41915 11456 80602 10260 20240 30026 40054 60036 70262 8662/ 333 59007 70034 83710 85616 88458==
41915,2023,06,19,09,00,AAXX 19094 41915 01456 80000 10240 20240 30017 40042 79596 8732/ 333 59002 70222 83710 85616 88458 81928==
41915,2023,06,19,12,00,AAXX 19124 41915 21450 80000 10244 20230 30010 40035 70296 8632/ 333 10288 58005 60209 70232 85616 88458 81928==
41915,2023,06,19,15,00,AAXX 19154 41915 02440 80000 10240 20240 30021 40046 8662/ 333 59011 70232 81712 86616 88458==
41915,2023,06,19,18,00,AAXX 19184 41915 02440 80000 10237 20237 30025 40050 8552/ 333 59008 70232 85616 88458==
41915,2023,06,19,21,00,AAXX 19214 41915 02440 80000 10238 20230 30023 40048 8452/ 333 59005 70232 84616 88458==
41915,2023,06,20,00,00,AAXX 20004 41915 02456 60000 10245 20240 30025 40050 83530 333 58006 70232 83616 86360==
41915,2023,06,20,03,00,AAXX 20034 41915 02456 60000 10283 20250 30028 40053 333 20235 58002 70202 83616 84658==
41915,2023,06,20,06,00,AAXX 20064 41915 02456 70000 10310 20260 30018 40043 84510 333 59011 70202 84616 87458==
41915,2023,06,20,09,00,AAXX 20093 41915 01450 80601 10270 20260 30014 40039 76162 8672/ 333 59003 70040 82710 84616 88458==
41915,2023,06,20,12,00,AAXX 20124 41915 21450 80000 10250 20240 30008 40033 76396 8672/ 333 10325 59002 60417 70413 82710 83616 88428==
41915,2023,06,20,15,00,AAXX 20154 41915 41450 80000 10246 20240 30017 40042 59004 70413 88458==
41915,2023,06,20,18,00,AAXX 20184 41915 02450 60000 10243 20230 30025 40050 84610 333 58004 70413 82710 83616 86458==
41915,2023,06,21,00,00,AAXX 21004 41915 02456 60000 10261 20250 30017 40042 83530 333 59008 70413 83616 86360==
41915,2023,06,21,03,00,AAXX 21034 41915 02456 50000 10306 20270 30024 40049 83510 333 20242 59004 70413 83616 85458==
41915,2023,06,21,06,00,AAXX 21064 41915 02456 40000 10330 20260 30022 40046 82610 333 58004 70413 82616 88458==
41915,2023,06,21,09,00,AAXX 21094 41915 41456 80000 10317 20270 39997 40021 59017 70413 88458==
41915,2023,06,21,12,00,AAXX 21124 41915 21456 80000 10267 20260 30006 40031 70296 8662/ 333 10340 59002 60217 70210 82710 85616 88458==
41915,2023,06,21,15,00,AAXX 21154 41915 02450 80000 10264 20250 30022 40047 8662/ 333 58005 70210 82710 85616 88458==
41915,2023,06,21,18,00,AAXX 21184 41915 21450 80000 10261 20250 30028 40057 76196 8672/ 333 58003 60187 70392 83710 83616 88458==
41915,2023,06,21,21,00,AAXX 21214 41915 02450 80000 10259 20250 30025 40050 8662/ 333 58003 70392 82710 85616 88458==
41915,2023,06,22,00,00,AAXX 22004 41915 02456 60000 10265 20260 30029 40055 83530 333 58012 70392 83616 86360==
41915,2023,06,22,03,00,AAXX 22034 41915 02456 70901 10285 20260 30034 40059 84510 333 20259 58010 70392 84616 86458==
41915,2023,06,22,06,00,AAXX 22064 41915 02456 71302 10310 20240 30029 40054 8642/ 333 58007 70392 85616 88458==
41915,2023,06,22,09,00,AAXX 22094 41915 01450 80000 10295 20270 30008 40033 71792 8632/ 333 58011 70392 85616 88458 81928==
41915,2023,06,22,12,00,AAXX 22124 41915 01450 80000 10290 20250 30000 40025 70292 8642/ 333 10323 58005 70182 85616 88458==
41915,2023,06,22,15,00,AAXX 22154 41915 02450 70000 10276 20260 30029 40053 84420 333 58006 70182 83616 86458==
41915,2023,06,22,18,00,AAXX 22184 41915 21440 80602 10267 20260 30030 40055 70362 8662/ 333 58003 60027 70018 82712 85616 88458==
41915,2023,06,22,21,00,AAXX 22214 41915 02440 80000 10258 20250 30020 40045 8662/ 333 59005 70018 82712 85616 88458==
41923,2023,06,16,00,00,AAXX 16004 41923 11335 83003 10293 20270 39993 40003 69921 72122 8632/ 333 58004 70002 81710 84614 88460 81930==
41923,2023,06,16,03,00,AAXX 16034 41923 01450 71804 10317 20280 30006 40016 70522 84570 333 20291 58002 70002 84615 86460==
41923,2023,06,16,06,00,AAXX 16064 41923 02456 80602 10345 20280 30002 40012 8532/ 333 59004 70002 85614 88460==
41923,2023,06,16,09,00,AAXX 16094 41923 02356 71803 10350 20270 39986 49996 85630 333 58002 70002 82709 84615 85360==
41923,2023,06,16,12,00,AAXX 16124 41923 02350 81803 10322 20270 39996 40006 8632/ 333 10355 58027 70002 83709 84615 88458 81930==
41923,2023,06,16,15,00,AAXX 16154 41923 01330 80000 10266 20250 30000 40010 72996 8632/ 333 58008 70366 83708 84614 88458 81930==
41923,2023,06,16,18,00,AAXX 16184 41923 21340 80000 10292 20270 30007 40017 70296 8632/ 333 58010 60368 70266 83709 84615 88458 81930==
41923,2023,06,16,21,00,AAXX 16214 41923 01340 80000 10294 20270 30003 40013 70522 8562/ 333 58011 70366 83709 84615 88458==
41923,2023,06,17,00,00,AAXX 17004 41923 01340 81802 10296 20270 30014 40023 70522 85670 333 58021 70364 83709 84615 86458==
41923,2023,06,17,03,00,AAXX 17034 41923 02340 62103 10319 20270 30020 40030 84670 333 20232 58014 70364 82709 83615 88458==
41923,2023,06,17,06,00,AAXX 17064 41923 02350 61803 10343 20260 30018 40028 84630 333 58016 70364 82709 83615 85360==
41923,2023,06,17,09,00,AAXX 17094 41923 02456 51802 10351 20240 39998 40008 83430 333 58012 70364 82616 83360==
41923,2023,06,17,12,00,AAXX 17124 41923 02350 71803 10318 20240 30014 40023 85370 333 10356 58014 70364 82709 84615 85458 81930==
41923,2023,06,17,15,00,AAXX 17154 41923 01325 81803 10250 20230 30029 40039 79596 8692/ 333 58029 70410 83708 84614 88458 81930==
41923,2023,06,17,18,00,AAXX 17184 41923 21340 51302 10270 20250 30025 40035 70196 84630 333 58018 60429 70422 82709 83615==
41923,2023,06,17,21,00,AAXX 17214 41923 02340 70000 10276 20260 30023 40033 85670 333 58020 70422 82709 84615 85458==
41923,2023,06,18,00,00,AAXX 18004 41923 02340 80000 10278 20260 30035 40045 8632/ 333 58021 70422 83709 84614 88458 81930==
41923,2023,06,18,03,00,AAXX 18034 41923 02350 71803 10310 20270 30038 40048 85370 333 20235 58018 70422 82709 84614 85458 81930==
41923,2023,06,18,06,00,AAXX 18064 41923 01340 81802 10307 20290 30027 40037 76162 8632/ 333 58009 70030 83709 84614 88458 81930==
41923,2023,06,18,09,00,AAXX 18094 41923 01350 80000 10289 20270 30012 40022 70262 8632/ 333 58014 70455 83709 84614 88458 81930==
41923,2023,06,18,12,00,AAXX 18124 41923 11350 80000 10284 20250 30017 40027 60006 70262 8632/ 333 10326 58003 70455 83708 86514 88458 81930==
41923,2023,06,18,15,00,AAXX 18154 41923 02345 60000 10280 20240 30030 40040 83630 333 58001 70045 81709 83615 85362==
41923,2023,06,18,18,00,AAXX 18184 41923 02345 70000 10282 20250 30031 40041 85670 333 58006 70033 82709 84615 85459==
41923,2023,06,18,21,00,AAXX 18214 41923 02345 70000 10283 20260 30027 40037 85670 333 58004 70033 82709 84615 85459==
41923,2023,06,19,00,00,AAXX 19004 41923 02345 70000 10286 20280 30030 40040 86370 333 59005 70033 83708 85614 86459 81930==
41923,2023,06,19,03,00,AAXX 19034 41923 02350 61805 10316 20270 30024 40034 85670 333 20277 59014 70033 83708 83615 85459==
41923,2023,06,19,06,00,AAXX 19064 41923 42356 71904 10335 20270 30022 40032 86670 333 59005 83708 84614 85459==
41923,2023,06,19,09,00,AAXX 19094 41923 01330 81803 10301 20260 30018 40028 76022 8632/ 333 58006 70002 83708 84614 88459 81929==
41923,2023,06,19,12,00,AAXX 19124 41923 21440 80602 10281 20260 30008 40018 70562 8532/ 333 10347 59009 60035 70034 85614 88460 81930==
41923,2023,06,19,15,00,AAXX 19154 41923 01440 81202 10276 20250 30026 40036 70522 8532/ 333 59004 70034 85614 88460 81930==
41923,2023,06,19,18,00,AAXX 19184 41923 01440 81802 10274 20250 30029 40039 70522 8532/ 333 59002 70034 85614 88460 81930==
41923,2023,06,19,21,00,AAXX 19214 41923 01440 81802 10275 20260 40031 70522 8532/ 333 59005 70034 85614 88460 81930==
41923,2023,06,20,00,00,AAXX 20004 41923 11440 83302 10279 20260 30022 40032 60001 72122 8532/ 333 59008 70034 85614 88460 81930==
41923,2023,06,20,03,00,AAXX 20034 41923 01440 71802 10307 20270 30037 40047 70522 84570 333 20271 58015 70034 84615 86460==
41923,2023,06,20,06,00,AAXX 20064 41923 11450 71802 10335 20260 30024 40034 69921 70562 84570 333 59003 70036 84615 86460==
41923,2023,06,20,09,00,AAXX 20094 41923 01340 80000 10266 20250 30012 40022 79596 8692/ 333 59006 70072 83708 84614 88458 81930==
41923,2023,06,20,12,00,AAXX 20124 41923 21340 80000 10268 20250 30010 40020 76196 8532/ 333 10350 58002 60049 70046 83709 84614 88458 81930==
41923,2023,06,20,15,00,AAXX 20154 41923 01340 70000 10272 20240 30024 40034 70162 85670 333 59002 70046 82709 84615 85458==
41923,2023,06,20,18,00,AAXX 20184 41923 11340 70000 10276 20260 30031 40041 60006 70262 85670 333 58002 70046 82709 84615 85458==
41923,2023,06,20,21,00,AAXX 20214 41923 01340 70000 10282 20260 30018 40028 70522 85670 333 59003 70046 82709 84615 85458==
41923,2023,06,21,00,00,AAXX 21004 41923 01340 70000 10286 20270 30022 40032 70522 85670 333 58000 70046 82709 84615 85458==
41923,2023,06,21,03,00,AAXX 21034 41923 02350 70000 10314 20270 30031 40041 85670 333 20265 59008 70046 82709 84615 85458==
41923,2023,06,21,06,00,AAXX 21064 41923 21345 70000 10338 20260 30027 40037 76122 85670 333 58003 60007 70044 82709 84615 85458==
41923,2023,06,21,09,00,AAXX 21094 41923 01350 71904 10325 20230 30008 40018 70262 85370 333 58004 70006 82709 83615 85458 81930==
41923,2023,06,21,12,00,AAXX 21124 41923 11350 70000 10305 20260 30013 40023 60006 70262 85370 333 10355 58003 81709 84615 85458 81930==
41923,2023,06,21,15,00,AAXX 21154 41923 42450 50000 10300 20260 30032 40042 82530 333 58008 82615 84360==
41923,2023,06,21,18,00,AAXX 21184 41923 42345 61902 10296 20270 30030 40040 85630 333 59001 82709 83615==
41923,2023,06,21,21,00,AAXX 21214 41923 42340 60000 10288 20260 30025 40035 84630 333 58009 82709 83615==
41923,2023,06,22,00,00,AAXX 22004 41923 42340 71803 10280 20260 30036 40046 85670 333 58014 82709 83615 85458==
41923,2023,06,22,03,00,AAXX 22034 41923 42456 61803 10306 20260 30040 40050 84430 333 20278 58009 82615 83824 85360==
41923,2023,06,22,06,00,AAXX 22064 41923 42356 71804 10326 20260 30036 40046 85670 333 58009 82709 84615 85360==
41923,2023,06,22,09,00,AAXX 22094 41923 02356 71904 10318 20250 30018 40028 86370 333 58010 70000 83709 84615 86459 81930==
41923,2023,06,22,12,00,AAXX 22124 41923 02350 71802 10300 20260 30010 40020 85370 333 10336 59003 70000 83708 83614 85459 81930==
41923,2023,06,22,15,00,AAXX 22154 41923 02350 62202 10291 20250 30032 40042 85630 333 58000 70000 83708 84614 85362==
41923,2023,06,22,18,00,AAXX 22184 41923 02350 40000 10286 20260 30036 40046 83630 333 58006 70000 81709 83615==
41923,2023,06,22,21,00,AAXX 22214 41923 02345 60000 10283 20250 30021 40031 84630 333 59004 70000 82709 83615 85362==
41926,2023,06,16,00,00,AAXX 16004 41926 02450 70000 10296 20280 39978 49991 84510 333 58008 70010 84616 86459==
41926,2023,06,16,03,00,AAXX 16034 41926 02456 61802 10335 20290 39987 40000 82570 333 20296 58006 70000 82618 84459==
41926,2023,06,16,06,00,AAXX 16064 41926 02456 21802 10375 20290 39982 49995 82500 333 58000 70000 82618==
41926,2023,06,16,09,00,AAXX 16094 41926 02456 21802 10385 20310 39963 49976 82500 333 58004 70000 82618==
41926,2023,06,16,12,00,AAXX 16124 41926 02450 41805 10345 20280 39958 49971 83430 333 10386 58013 70000 82618 83362==
41926,2023,06,16,15,00,AAXX 16154 41926 02450 21806 10320 20270 39951 49995 82500 333 58005 70000 82616==
41926,2023,06,16,18,00,AAXX 16184 41926 02450 31805 10307 20280 39994 40007 83500 333 58022 70000 83616==
41926,2023,06,16,21,00,AAXX 16214 41926 02450 31803 10300 20280 39986 49999 83500 333 58009 70000 83616==
41926,2023,06,17,00,00,AAXX 17004 41926 02450 61802 10295 20290 39991 40004 83510 333 58013 70000 83616 86459==
41926,2023,06,17,03,00,AAXX 17034 41926 02456 61804 10322 20280 30005 40018 83510 333 20295 58018 70000 83618 86459==
41926,2023,06,17,06,00,AAXX 17064 41926 02356 81805 10345 20270 30004 40017 8462/ 333 58022 70000 82708 83615 88458==
41926,2023,06,17,09,00,AAXX 17094 41926 02956 01802 10365 20260 39973 49985 333 58010 70000==
41926,2023,06,17,12,00,AAXX 17124 41926 01450 81805 10266 20240 30010 40024 79592 8432/ 333 10366 58052 70030 83617 88458 81930==
41926,2023,06,17,15,00,AAXX 17154 41926 01450 81801 10266 20250 30012 40026 70296 8352/ 333 58031 70058 83617 88458==
41926,2023,06,17,18,00,AAXX 17184 41926 11450 81802 10286 20280 30005 40019 60031 70296 8352/ 333 58011 70058 83618 88458==
41926,2023,06,17,21,00,AAXX 17214 41926 02440 81801 10286 20280 30006 40020 8352/ 333 58020 70058 83618 88458==
41926,2023,06,18,00,00,AAXX 18004 41926 02450 61801 10287 20280 30010 40024 83510 333 58019 70058 83618 85459==
41926,2023,06,18,03,00,AAXX 18034 41926 02450 60000 10312 20280 30023 40036 83510 333 20266 58018 70058 83618 85459==
41926,2023,06,18,06,00,AAXX 18064 41926 02450 71804 10312 20270 30013 40026 83510 333 58009 70058 83618 86459==
41926,2023,06,18,12,00,AAXX 18124 41926 02450 60000 10322 20270 30004 40017 83310 333 10350 59006 70032 83618 85459 81930==
41926,2023,06,18,15,00,AAXX 18154 41926 02450 21802 10300 20270 30006 40020 82500 333 59006 70000 82618==
41926,2023,06,18,21,00,AAXX 18214 41926 01440 81802 10285 20280 30011 40025 70262 8352/ 333 58005 70030 83617 88458==
41926,2023,06,19,00,00,AAXX 19004 41926 01440 81802 10282 20270 30007 40021 72196 8332/ 333 59003 70090 83617 88458 81930==
41926,2023,06,19,06,00,AAXX 19064 41926 21350 80000 10265 20240 30010 40024 70296 8472/ 333 59003 60039 70118 82709 83615 88458==
41926,2023,06,19,09,00,AAXX 19094 41926 02350 80000 10285 20240 30000 40014 8472/ 333 58010 70118 82709 83615 88458==
41926,2023,06,19,12,00,AAXX 19124 41926 02450 70000 10295 20250 39988 40002 84570 333 10305 58016 70118 84615 86459==
41926,2023,06,19,15,00,AAXX 19154 41926 02450 70000 10280 20260 30006 40020 84510 333 58000 70118 84615 86459==
41926,2023,06,19,18,00,AAXX 19184 41926 02450 71803 10280 20260 30008 40022 84510 333 59008 70118 84615 86459==
41926,2023,06,19,21,00,AAXX 19214 41926 02450 71802 10280 20260 30001 40015 84510 333 59010 70088 84615 86459==
41926,2023,06,20,00,00,AAXX 20004 41926 02450 70000 10280 20270 30003 40017 83510 333 59004 70028 83616 86459==
41926,2023,06,20,06,00,AAXX 20064 41926 02356 81801 10340 20270 30010 40023 8462/ 333 58000 70000 82708 83615 88458==
41926,2023,06,20,09,00,AAXX 20093 41926 42450 71801 10310 20260 39987 40000 8532/ 333 59013 84616 86459 81930==
41926,2023,06,20,12,00,AAXX 20124 41926 11450 51502 10295 20280 39989 40002 60006 70196 83530 333 10346 58001 83616 83362==
41926,2023,06,20,15,00,AAXX 20154 41926 42450 50000 10285 20270 30005 40018 83530 333 59001 83616 83362==
41926,2023,06,20,18,00,AAXX 20184 41926 42450 50000 10283 20260 30010 40024 83510 333 58002 82616 85459==
41926,2023,06,21,00,00,AAXX 21004 41926 42450 70000 10285 20270 30005 40019 83510 333 58002 83616 86459==
41926,2023,06,21,03,00,AAXX 21034 41926 42456 51803 10310 20270 30011 40024 83510 333 20278 59008 83616 85459==
41926,2023,06,21,06,00,AAXX 21064 41926 42456 71803 10338 20270 30012 40025 83510 333 58002 83616 86459==
41926,2023,06,21,09,00,AAXX 21094 41926 01450 71502 10315 20300 39990 40003 71796 84910 333 58003 70030 84616 87459 81930==
41926,2023,06,21,12,00,AAXX 21124 41926 11450 70000 10305 20280 39993 40006 60036 70296 85320 333 10345 58003 70030 84616 87459 81930==
41926,2023,06,21,15,00,AAXX 21154 41926 02450 80000 10294 20270 30017 40031 8532/ 333 58012 70030 84616 88459 81930==
41926,2023,06,21,18,00,AAXX 21184 41926 02450 60000 10290 20270 30015 40029 83510 333 58005 70030 83616 86459==
41926,2023,06,21,21,00,AAXX 21214 41926 02450 60000 10288 20280 30014 40028 83510 333 58013 70030 83616 86459==
41926,2023,06,22,00,00,AAXX 22004 41926 02450 60000 10285 20280 30016 40030 83510 333 58011 70030 83616 86459==
41926,2023,06,22,03,00,AAXX 22034 41926 02456 71801 10312 20270 30021 40034 83510 333 20282 58010 70030 83616 87459==
41926,2023,06,22,06,00,AAXX 22064 41926 02456 71801 10332 20270 30018 40031 83510 333 58006 70030 83616 87459==
41926,2023,06,22,09,00,AAXX 22094 41926 01350 81802 10265 20260 30016 40030 79796 8592/ 333 58026 70294 83708 83615 88458 81930==
41926,2023,06,22,12,00,AAXX 22123 41926 21456 71801 10267 20260 39998 40012 70196 82510 333 10336 58005 60547 70540 82617 87459==
41926,2023,06,22,15,00,AAXX 22154 41926 02450 51801 10275 20260 30004 40014 81530 333 59013 70540 81618 85362==
41926,2023,06,22,18,00,AAXX 22184 41926 02/50 51801 10266 20266 30022 40036 85030 333 58007 70540 85362==
41926,2023,06,22,21,00,AAXX 22214 41926 02/50 50000 10263 20260 30020 40034 85030 333 58006 70540 85362==
41927,2023,06,16,00,00,AAXX 16004 41927 32456 71702 10295 20290 39966 49980 83510 333 56490 58008 70000 83617 87458=
41927,2023,06,16,06,00,AAXX 16064 41927 32958 01802 10365 20270 39976 49990 333 59003 70000=
41927,2023,06,16,12,00,AAXX 16124 41927 32458 71804 10338 20270 39956 49970 83510 333 10387 56490 58005 70000 83617 87459=
41927,2023,06,16,15,00,AAXX 16154 41927 NIL=
41927,2023,06,17,00,00,AAXX 17004 41927 32456 31801 10295 20280 39977 49991 83010 333 56090 58011 70000 83459=
41927,2023,06,17,03,00,AAXX 17034 41927 NIL=
41927,2023,06,17,12,00,AAXX 17124 41927 31457 82105 10290 20220 39994 40008 71720 8532/ 333 10363 56599 58038 70000 84617 81929 88458=
41927,2023,06,17,18,00,AAXX 17184 41927 32456 51803 10275 20240 30000 40014 83510 333 56490 58020 70000 83617 85459=
41927,2023,06,18,00,00,AAXX 18004 41927 32456 71801 10280 20260 30007 40021 83510 333 56490 58030 70000 83617 87459=
41927,2023,06,18,06,00,AAXX 18064 41927 11457 71901 10315 20270 30010 40024 60014 70362 83510 333 56490 58014 70012 83617 87459=
41927,2023,06,19,06,00,AAXX 19064 41927 32458 62001 10318 20230 30009 40023 83510 333 59001 70037 83617 86459=
41927,2023,06,19,18,00,AAXX 19184 41927 32956 21601 10280 20250 30005 40019 82010 333 56090 59004 70025 82459=
41927,2023,06,20,00,00,AAXX 20004 41927 32456 81801 10273 20260 30002 40016 8452/ 333 56499 59001 70000 84617 88458=
41927,2023,06,20,06,00,AAXX 20064 41927 32458 52101 10340 20260 30013 40027 85410 333 56590 58004 70000 82618 83828=
41927,2023,06,20,12,00,AAXX 20124 41927 31457 81902 10288 20250 39992 40006 70292 8452/ 333 10350 56499 58000 70000 84618 88458=
41927,2023,06,20,18,00,AAXX 20184 41927 NIL=
41927,2023,06,21,00,00,AAXX 21004 41927 32356 51902 10270 20250 30002 40018 83610 333 56490 58002 70000 83708 85459=
41927,2023,06,21,06,00,AAXX 21064 41927 32458 62002 10340 20260 30005 40019 85410 333 56490 59008 70000 82618 83828=
41927,2023,06,21,12,00,AAXX 21124 41927 11456 81501 10267 20260 39998 40012 60165 70296 8452/ 333 10352 56399 58006 70156 84617 88458=
41927,2023,06,21,18,00,AAXX 21184 41927 32456 61801 10274 20260 30015 40030 83510 333 56490 58012 70156 83617 86459=
41927,2023,06,22,00,00,AAXX 22004 41927 32456 71801 10276 20270 30010 40025 83510 333 56490 58006 70156 83617 87459=
41927,2023,06,22,06,00,AAXX 22064 41927 32458 61601 10325 20280 30015 40029 84410 333 56490 58010 70156 83618 85459=
41927,2023,06,22,12,00,AAXX 22123 41927 31456 81803 10280 20250 39985 49999 70292 8352/ 333 10340 56499 59013 70000 83617 88459=
41927,2023,06,22,18,00,AAXX 22184 41927 32456 61801 10266 20260 30008 40023 83570 333 56490 59007 70000 83617 84459=
41929,2023,06,16,00,00,AAXX 16004 41929 01457 81803 10290 20280 39987 49997 70262 8451/ 333 58009 70000 84618 88462==
41929,2023,06,16,03,00,AAXX 16034 41929 01456 81803 10322 20280 39997 40006 70262 8451/ 333 20285 58006 70048 84618 88462==
41929,2023,06,16,06,00,AAXX 16064 41929 11457 51805 10350 20290 30002 40011 69936 70162 85500 333 58007 70003 85618==
41929,2023,06,16,09,00,AAXX 16094 41929 02458 51804 10350 20270 39982 49991 83510 333 58001 70003 83618 84462==
41929,2023,06,16,12,00,AAXX 16124 41929 02457 81907 10324 20270 39975 49985 8551/ 333 10360 58010 70033 85618 88462==
41929,2023,06,16,15,00,AAXX 16154 41929 02457 71805 10310 20260 30001 40011 84510 333 58013 70033 84618 86462==
41929,2023,06,16,18,00,AAXX 16184 41929 02457 71904 10300 20280 30005 40015 84510 333 58011 70033 84618 86462==
41929,2023,06,16,21,00,AAXX 16214 41929 02457 81902 10294 20280 30000 40010 8551/ 333 58020 70033 85618 88462==
41929,2023,06,17,00,00,AAXX 17004 41929 02457 81803 10294 20270 30011 40021 8551/ 333 58024 70033 85618 88462==
41929,2023,06,17,03,00,AAXX 17034 41929 02457 81805 10320 20280 30016 40025 8451/ 333 20288 58019 70000 84618 88462==
41929,2023,06,17,09,00,AAXX 17094 41929 02/58 41803 10340 20260 39996 40005 84030 333 58014 70000 84365==
41929,2023,06,17,12,00,AAXX 17124 41929 02457 81803 10327 20260 30008 40017 8451/ 333 10342 58033 70000 84618 88462==
41929,2023,06,17,15,00,AAXX 17154 41929 01456 81310 10273 20230 30019 40028 71322 8431/ 333 58018 70000 83618 88462 81930==
41929,2023,06,17,18,00,AAXX 17184 41929 02456 81806 10277 20250 30017 40026 8451/ 333 58012 70000 84618 88462==
41929,2023,06,17,21,00,AAXX 17214 41929 02456 81803 10284 20260 30021 40030 8451/ 333 58021 70000 84618 88462==
41929,2023,06,18,00,00,AAXX 18004 41929 02456 81803 10290 20280 30024 40033 8451/ 333 58013 70000 84618 88462==
41929,2023,06,18,03,00,AAXX 18034 41929 02456 72303 10320 20270 30030 40039 84510 333 20265 58014 70000 84618 87462==
41929,2023,06,18,06,00,AAXX 18064 41929 01456 82704 10332 20270 30027 40036 71722 8491/ 333 58010 70000 83618 88462 81932==
41929,2023,06,18,09,00,AAXX 18094 41929 01458 81303 10303 20260 30010 40019 70292 8451/ 333 58014 70000 84618 88462==
41929,2023,06,19,00,00,AAXX 19004 41929 02456 80000 10285 20280 30018 40027 8451/ 333 59006 70000 84618 88462==
41929,2023,06,19,06,00,AAXX 19064 41929 02457 41804 10328 20260 30020 40029 84500 333 59007 70000 84618==
41929,2023,06,19,09,00,AAXX 19094 41929 02/58 52704 10328 20260 30009 40018 85030 333 59001 70000 85365==
41929,2023,06,19,12,00,AAXX 19124 41929 02457 70000 10315 20250 30001 40010 83570 333 10335 59007 70000 83618 85462==
41929,2023,06,19,15,00,AAXX 19154 41929 02/56 31302 10282 20260 30020 40029 83030 333 59004 70000 83365==
41929,2023,06,19,18,00,AAXX 19184 41929 02/56 21802 10270 20250 30025 40034 82030 333 59002 70000 82365==
41929,2023,06,19,21,00,AAXX 19214 41929 02456 71302 10271 20250 30019 40028 83570 333 59004 70000 83618 85462==
41929,2023,06,20,00,00,AAXX 20004 41929 02456 81303 10272 20260 30012 40021 8451/ 333 59006 70000 84618 88462==
41929,2023,06,20,03,00,AAXX 20034 41929 02456 71802 10315 20280 30035 40044 84510 333 20258 58016 70000 84618 87462==
41929,2023,06,20,06,00,AAXX 20064 41929 01456 81802 10316 20290 30023 40032 79522 8592/ 333 58004 70030 84618 88462==
41929,2023,06,20,09,00,AAXX 20094 41929 01456 82304 10273 20260 30006 40015 79596 8592/ 333 59003 70073 84616 88460 81930==
41929,2023,06,20,12,00,AAXX 20124 41929 01456 81302 10263 20250 30005 40014 72996 8451/ 333 10340 58004 70153 84618 88462==
41929,2023,06,20,15,00,AAXX 20154 41929 02456 81302 10262 20250 30018 40027 8451/ 333 59006 70153 84618 88462==
41929,2023,06,20,18,00,AAXX 20184 41929 02456 81302 10265 20260 30030 40039 8451/ 333 58005 70153 84618 88462==
41929,2023,06,20,21,00,AAXX 20214 41929 02456 81302 10272 20260 30026 40035 8451/ 333 58007 70153 84618 88462==
41929,2023,06,21,00,00,AAXX 21004 41929 02456 81302 10278 20270 30021 40030 8451/ 333 58009 70153 84618 88462==
41929,2023,06,21,03,00,AAXX 21034 41929 02457 71805 10310 20280 30028 40037 83570 333 20255 59007 70153 83618 85462==
41929,2023,06,21,06,00,AAXX 21064 41929 02458 52304 10347 20270 30027 40036 85400 333 58004 70125 82618 83825==
41929,2023,06,21,09,00,AAXX 21094 41929 02458 72305 10345 20270 30007 40016 83570 333 58001 70080 83618 85462==
41929,2023,06,21,12,00,AAXX 21124 41929 02457 80000 10295 20270 30009 40018 8451/ 333 10349 58004 70000 84618 88462==
41929,2023,06,21,15,00,AAXX 21154 41929 02/56 50000 10285 20280 30028 40037 85030 333 58010 70000 85365==
41929,2023,06,21,18,00,AAXX 21184 41929 02456 51804 10285 20280 30032 40041 83530 333 58002 70000 82618 83360==
41929,2023,06,21,21,00,AAXX 21214 41929 02456 51302 10284 20270 30029 40038 82530 333 58003 70000 82618 83365==
41929,2023,06,22,00,00,AAXX 22004 41929 02456 81303 10282 20270 30025 40034 8451/ 333 58004 70000 84618 88462==
41929,2023,06,22,03,00,AAXX 22034 41929 02456 81803 10300 20270 30035 40044 8451/ 333 20275 58007 70000 84618 88462==
41929,2023,06,22,06,00,AAXX 22064 41929 01456 80902 10295 20260 30034 40043 71792 8451/ 333 58007 70000 84618 88462==
41929,2023,06,22,09,00,AAXX 22094 41929 02457 72304 10295 20270 30020 40029 83570 333 58013 70000 83618 85462==
41929,2023,06,22,12,00,AAXX 22123 41929 02456 71202 10292 20260 30004 40014 83530 333 10300 59005 70000 83616 87363==
41929,2023,06,22,15,00,AAXX 22154 41929 02456 41303 10274 20260 30025 40035 82520 333 59003 70000 82716 84460==
41929,2023,06,22,18,00,AAXX 22184 41929 02456 20000 10271 20260 30034 40044 81520 333 58002 70000 81616==
41929,2023,06,22,21,00,AAXX 22214 41929 02456 61203 10268 20260 30030 40040 82530 333 58001 70000 82616 86362==
41933,2023,06,16,00,00,AAXX 16004 41933 01340 81804 10290 20270 30004 40012 72162 8772/ 333 59003 70008 83708 84615 88457==
41933,2023,06,16,03,00,AAXX 16034 41933 01356 81806 10304 20270 30011 40020 72162 8562/ 333 20280 58006 70024 82708 83615 88457==
41933,2023,06,16,06,00,AAXX 16064 41933 11456 81808 10324 20260 30009 40017 60021 70262 8581/ 333 59008 70024 83616 88458==
41933,2023,06,16,09,00,AAXX 16094 41933 02456 71503 10320 20270 39998 40007 84510 333 58006 70024 84616 87458==
41933,2023,06,16,12,00,AAXX 16124 41933 02450 81805 10305 20260 39991 49999 84510 333 10335 58005 70024 84618 87458==
41933,2023,06,16,15,00,AAXX 16154 41933 01330 82804 10251 20240 30030 40039 79722 8692/ 333 58034 70222 83708 84615 88456 81924==
41933,2023,06,16,18,00,AAXX 16184 41933 21450 72203 10255 20250 30016 40025 70196 84520 333 58015 60267 70282 84618 87458==
41933,2023,06,16,21,00,AAXX 16214 41933 01450 82102 10259 20250 30010 40019 70362 8452/ 333 58015 70284 84618 88458==
41933,2023,06,17,00,00,AAXX 17004 41933 11450 82002 10265 20260 30021 40030 69926 70362 8452/ 333 58017 70276 84618 88458==
41933,2023,06,17,03,00,AAXX 17034 41933 01456 72002 10288 20270 30028 40037 70196 84510 333 20246 58017 70280 84616 87458==
41933,2023,06,17,06,00,AAXX 17064 41933 11456 62106 10309 20260 30031 40040 60026 70196 83510 333 58022 70280 83618 86458==
41933,2023,06,17,09,00,AAXX 17094 41933 02456 62005 10295 20250 30013 40022 83510 333 58015 70280 83618 86458==
41933,2023,06,17,12,00,AAXX 17124 41933 02456 71905 10275 20240 30016 40025 83520 333 10315 58025 70280 83618 87458==
41933,2023,06,17,15,00,AAXX 17154 41933 02456 82603 10265 20250 30055 40064 8452/ 333 58025 70082 84616 88458==
41933,2023,06,17,18,00,AAXX 17184 41933 21456 72502 10255 20250 30034 40043 70162 83520 333 58018 60045 70064 83618 87458==
41933,2023,06,17,21,00,AAXX 17214 41933 02456 70000 10255 20250 30036 40044 83520 333 58028 70062 83618 87458==
41933,2023,06,18,00,00,AAXX 18004 41933 02450 80000 10260 20240 30037 40046 8452/ 333 58018 70062 84618 88458==
41933,2023,06,18,03,00,AAXX 18034 41933 02456 82504 10285 20260 30042 40051 8452/ 333 20250 58014 70042 84618 88458==
41933,2023,06,18,06,00,AAXX 18064 41933 01350 82304 10315 20270 30031 40040 79522 8692/ 333 58000 70000 83708 84615 88456 81924==
41933,2023,06,18,09,00,AAXX 18094 41933 01350 81805 10245 20240 30029 40037 79596 8632/ 333 58016 70984 83708 84615 88456 81924==
41933,2023,06,18,12,00,AAXX 18124 41933 21450 81803 10245 20240 30021 40030 70196 8452/ 333 10314 58005 60948 70984 84616 88458==
41933,2023,06,19,00,00,AAXX 19004 41933 02450 81802 10265 20260 30040 40048 8452/ 333 58003 70942 84616 88458==
41933,2023,06,19,06,00,AAXX 19064 41933 02450 71804 10305 20280 30026 40034 85490 333 59005 70942 83617 85362==
41933,2023,06,19,09,00,AAXX 19094 41933 01450 81801 10277 20250 30025 40034 71762 8492/ 333 59004 70002 84615 88457 81928==
41933,2023,06,19,12,00,AAXX 19124 41933 11450 80000 10270 20250 30014 40022 69921 70296 8352/ 333 10317 59007 70002 83615 88457==
41933,2023,06,19,15,00,AAXX 19154 41933 02450 81802 10260 20240 30027 40035 8351/ 333 59034 70002 83616 88457==
41933,2023,06,19,18,00,AAXX 19184 41933 02450 21801 10254 20240 30027 40035 82500 333 59024 70002 82616==
41933,2023,06,19,21,00,AAXX 19214 41933 02450 50000 10252 20240 30023 40031 82510 333 59026 70002 82616 85458==
41933,2023,06,20,00,00,AAXX 20004 41933 02450 80000 10258 20250 30026 40035 8351/ 333 59014 70002 83616 88457==
41933,2023,06,20,03,00,AAXX 20034 41933 02350 80000 10284 20260 30037 40045 8562/ 333 20252 59004 70002 82708 83615 88458==
41933,2023,06,20,06,00,AAXX 20064 41933 01456 41804 10314 20270 30028 40037 70162 84400 333 58002 70010 82616==
41933,2023,06,20,09,00,AAXX 20094 41933 01456 82105 10305 20270 30013 40022 72922 8592/ 333 59012 70010 84616 88458 81926==
41933,2023,06,20,12,00,AAXX 20124 41933 01340 82503 10270 20250 30017 40026 79592 8592/ 333 10319 58003 70000 82709 84615 88458 81925==
41933,2023,06,20,15,00,AAXX 20154 41933 01450 60000 10265 20250 30024 40033 70196 83510 333 59003 70011 83616 86459==
41933,2023,06,20,18,00,AAXX 20184 41933 11450 60000 10275 20270 30028 40037 69916 70296 83510 333 58001 70011 83616 86459==
41933,2023,06,20,21,00,AAXX 20214 41933 02950 00000 10280 20270 30025 40034 83510 333 58002 70011 83616 86459==
41933,2023,06,21,00,00,AAXX 21004 41933 02450 71902 10280 20270 30027 40036 84520 333 58001 70011 84616 87458==
41933,2023,06,21,03,00,AAXX 21034 41933 02456 51802 10296 20270 30034 40043 82530 333 20266 59003 70011 82618 85362==
41933,2023,06,21,06,00,AAXX 21064 41933 02456 62002 10325 20280 30030 40039 83530 333 58002 70001 83618 85362==
41933,2023,06,21,09,00,AAXX 21094 41933 02456 72203 10305 20260 30016 40025 83520 333 58003 70001 83616 87458==
41933,2023,06,21,12,00,AAXX 21124 41933 01356 82003 10300 20270 30011 40020 79522 8592/ 333 10332 59006 70001 82709 84615 88458 81925==
41933,2023,06,21,15,00,AAXX 21154 41933 01456 51802 10280 20260 30035 40044 70192 82520 333 58011 70000 82618 85458==
41933,2023,06,21,18,00,AAXX 21184 41933 02456 22004 10285 20270 30036 40045 82500 333 58008 70000 82618==
41933,2023,06,21,21,00,AAXX 21214 41933 02456 62102 10280 20260 30037 40046 83520 333 58012 70000 83618 86458==
41933,2023,06,22,00,00,AAXX 22004 41933 02456 82002 10270 20250 30037 40046 8452/ 333 58010 70000 84616 88458==
41933,2023,06,22,03,00,AAXX 22034 41933 02456 61902 10290 20250 30042 40051 83520 333 20270 59008 70000 83618 88458==
41933,2023,06,22,06,00,AAXX 22064 41933 02456 82504 10305 20260 30040 40049 8452/ 333 58010 70000 84618 88458==
41933,2023,06,22,09,00,AAXX 22094 41933 02456 61904 10305 20260 30027 40036 84520 333 58011 70000 84618 86458==
41933,2023,06,22,12,00,AAXX 22123 41933 02456 61803 10300 20250 30015 40024 84520 333 10315 58004 70000 84618 86458==
41933,2023,06,22,15,00,AAXX 22154 41933 02450 41802 10285 20270 30037 40046 83520 333 58002 70000 83618 84458==
41933,2023,06,22,18,00,AAXX 22184 41933 02440 41802 10280 20260 30041 40050 83520 333 58005 70000 83618 84458==
41933,2023,06,22,21,00,AAXX 22214 41933 02440 61802 10275 20260 30033 40042 84520 333 59004 70000 84618 86458==
41936,2023,06,16,00,00,AAXX 16004 41936 41320 62206 10300 20280 39983 49990 70522 84630 333 58013 81710 83615 85362==
41936,2023,06,16,03,00,AAXX 16034 41936 01430 62307 10328 20290 30000 40007 70522 83830 333 20296 58006 70000 83615 84362==
41936,2023,06,16,06,00,AAXX 16064 41936 01430 42307 10372 20270 39994 40001 70522 82530 333 59001 70000 82615 83362==
41936,2023,06,16,09,00,AAXX 16094 41936 01440 42213 10382 20270 39976 49983 70522 82530 333 59002 70000 82615 83362==
41936,2023,06,16,12,00,AAXX 16124 41936 01440 62313 10340 20280 39963 49970 70522 83530 333 10384 58001 70000 83615 85362==
41936,2023,06,16,15,00,AAXX 16154 41936 01440 62313 10314 20260 39983 49990 70522 83530 333 58002 70000 83615 85362==
41936,2023,06,16,18,00,AAXX 16184 41936 01430 62310 10308 20270 39998 40005 70522 83530 333 58008 70000 83615 85362==
41936,2023,06,16,21,00,AAXX 16214 41936 01430 61912 10300 20280 39990 49997 70522 83830 333 58013 70000 83615 84362==
41936,2023,06,17,00,00,AAXX 17004 41936 02320 61810 10302 20280 30001 40008 84330 333 58018 70000 81710 83615 85362==
41936,2023,06,17,03,00,AAXX 17034 41936 41420 62112 10324 20270 30015 40022 70522 83830 333 20298 58015 83615 84362==
41936,2023,06,17,06,00,AAXX 17064 41936 01436 42116 10354 20250 30016 40022 70522 82830 333 58021 70000 82615 83362==
41936,2023,06,17,09,00,AAXX 17094 41936 01450 32209 10350 20270 39975 49982 70521 81530 333 58000 70000 81615 83362==
41936,2023,06,17,12,00,AAXX 17124 41936 01440 72409 10340 20270 30001 40008 70521 83830 333 10364 58038 70000 83615 86362==
41936,2023,06,17,15,00,AAXX 17154 41936 01430 71803 10270 20250 30019 40026 71796 83930 333 58036 70140 83710 83615 86362 81930==
41936,2023,06,17,18,00,AAXX 17184 41936 01430 52005 10294 20280 30010 40017 70522 83830 333 58012 70140 83710 83615 85362==
41936,2023,06,17,21,00,AAXX 17214 41936 01430 72403 10288 20280 30002 40009 70522 83530 333 58012 70140 83615 85362==
41936,2023,06,18,00,00,AAXX 18004 41936 01416 71805 10286 20280 30018 40025 70522 83830 333 58017 70140 83615 85362==
41936,2023,06,18,03,00,AAXX 18034 41936 01425 42206 10310 20280 30018 40025 70596 82530 333 20266 58003 70150 82615 83362==
41936,2023,06,18,06,00,AAXX 18064 41936 01325 72206 10324 20240 30022 40029 70596 83730 333 58007 70010 82710 83515 85362==
41936,2023,06,18,09,00,AAXX 18094 41936 01330 72210 10314 20260 39999 40006 70522 83730 333 58023 70150 82710 83615 85362==
41936,2023,06,18,12,00,AAXX 18124 41936 01330 53409 10324 20284 39997 40004 70522 83570 333 10330 59005 70150 82615 86362==
41936,2023,06,18,18,00,AAXX 18184 41936 01930 62006 10296 20270 30024 40031 70522 83830 333 58014 70010 83515 85362==
41936,2023,06,18,21,00,AAXX 18214 41936 01940 62003 10294 20270 30006 40013 70562 83830 333 58004 70020 83515 85362==
41936,2023,06,19,00,00,AAXX 19004 41936 01316 72403 10266 20250 30025 40032 70562 83630 333 58007 70010 82710 83615==
41936,2023,06,19,03,00,AAXX 19034 41936 01320 82310 10268 20240 30023 40030 79596 83930 333 20254 58005 70020 83708 83615 86362 81930==
41936,2023,06,19,06,00,AAXX 19064 41936 01430 72611 10294 20230 30012 40019 70596 83830 333 59010 70000 83615 86362==
41936,2023,06,19,09,00,AAXX 19094 41936 01440 71806 10304 20280 30003 40010 70596 83830 333 58004 70010 83615 86362==
41936,2023,06,19,12,00,AAXX 19124 41936 01440 71604 10306 20260 39997 40004 70522 83830 333 10312 58001 70010 83615 86362==
41936,2023,06,19,15,00,AAXX 19154 41936 01440 51805 10290 20270 30012 40019 70522 82830 333 59006 70010 82615 84362==
41936,2023,06,19,18,00,AAXX 19184 41936 01440 41806 10284 20260 30017 40024 70522 82830 333 59007 70010 82615 83362==
41936,2023,06,19,21,00,AAXX 19214 41936 01430 41803 10280 20270 30005 40012 70522 82830 333 59001 70010 82615 83362==
41936,2023,06,20,00,00,AAXX 20004 41936 41325 31803 10286 20280 30008 40015 70522 81630 333 59017 81710==
41936,2023,06,20,03,00,AAXX 20034 41936 41330 52308 10320 20250 30016 40023 70522 82630 333 20278 59007 82710 83615==
41936,2023,06,20,06,00,AAXX 20064 41936 01335 62203 10320 20290 30014 40031 70522 83630 333 58002 70020 83708 83615==
41936,2023,06,20,09,00,AAXX 20094 41936 01318 72206 10282 20270 30008 40015 79596 83930 333 59005 70110 83710 83615 87362 81930==
41936,2023,06,20,12,00,AAXX 20124 41936 01320 71706 10290 20280 39994 40001 70596 83630 333 10356 59003 70090 82710 83615 86362==
41936,2023,06,20,15,00,AAXX 20154 41936 01420 71603 10294 20280 30000 40007 70522 82830 333 59012 70110 82710 83615 85362==
41936,2023,06,20,18,00,AAXX 20184 41936 01420 52207 10288 20280 30020 40027 70522 83530 333 58003 70110 83615 83362==
41936,2023,06,20,21,00,AAXX 20214 41936 01420 51905 10288 20280 30008 40015 70522 83530 333 58003 70110 83615 83362==
41936,2023,06,21,00,00,AAXX 21004 41936 01420 31803 10288 20280 30010 40017 70522 82530 333 58002 70110 82615 82362==
41936,2023,06,21,03,00,AAXX 21034 41936 01335 62004 10320 20270 30021 40028 70522 82530 333 20264 58005 70110 82610 83615 85362==
41936,2023,06,21,06,00,AAXX 21064 41936 01350 32005 10350 20270 30017 40024 70511 82530 333 58003 70110 82610 83615 81312==
41936,2023,06,21,09,00,AAXX 21094 41936 01350 72208 10366 20270 39995 40002 70522 84630 333 59013 70000 82710 83615 85362==
41936,2023,06,21,12,00,AAXX 21124 41936 01440 52005 10314 20260 39995 40002 70522 84830 333 10366 58001 70000 83615 84362==
41936,2023,06,21,15,00,AAXX 21154 41936 01440 51805 10304 20270 30017 40024 70522 84830 333 58017 70000 83615 84362==
41936,2023,06,21,18,00,AAXX 21184 41936 01805 31404 10294 20270 30026 40033 70522 84830 333 58006 70000 83615 84362==
41936,2023,06,21,21,00,AAXX 21214 41936 01440 51304 10290 20270 30016 40023 70522 84830 333 58008 70000 83615 84362==
41936,2023,06,22,00,00,AAXX 22004 41936 01420 51405 10288 20270 30019 40026 70522 84830 333 58006 70000 83615 84362==
41936,2023,06,22,03,00,AAXX 22034 41936 01325 82206 10308 20280 30028 40035 71722 84930 333 20284 58007 70000 82710 83615 86362 81930==
41936,2023,06,22,06,00,AAXX 22064 41936 01325 82106 10346 20270 30023 40029 70596 84630 333 58005 70000 82710 83615 86362==
41936,2023,06,22,09,00,AAXX 22094 41936 01310 82405 10266 20260 30017 40025 79596 85930 333 58022 70210 85706 84612 88360 81930==
41936,2023,06,22,12,00,AAXX 22124 41936 01310 80605 10276 20270 30004 40011 70596 85830 333 10346 58009 70050 85706 84612 87360==
41936,2023,06,22,15,00,AAXX 22154 41936 01320 81703 10276 20270 30024 40031 75022 84630 333 58007 70000 82710 83615 86362==
41936,2023,06,22,18,00,AAXX 22184 41936 01320 81903 10274 20260 30026 40033 70522 84630 333 58000 70000 82710 83615 86362==
41936,2023,06,22,21,00,AAXX 22214 41936 01320 81503 10270 20260 30024 40031 70522 84630 333 58002 70000 82710 83615 86362==
41938,2023,06,16,00,00,AAXX 16004 41938 32450 40000 10272 20230 39987 49991 83510 333 56990 58003 70000 83618=
41938,2023,06,16,06,00,AAXX 16064 41938 32456 51802 10340 20270 30005 40009 84410 333 56490 58006 70000 83618=
41938,2023,06,16,12,00,AAXX 16124 41938 32456 81804 10316 20270 39985 49989 8332/ 333 10350 56499 58007 70000 81617 81930 88459=
41938,2023,06,16,15,00,AAXX 16154 41938 32450 61803 10300 20270 30006 40010 84510 333 56490 58015 70000 84617 84460=
41938,2023,06,17,00,00,AAXX 17004 41938 32456 81702 10296 20280 30010 40014 8352/ 333 56499 58023 70000 83617 88459=
41938,2023,06,17,03,00,AAXX 17034 41938 21456 71605 10321 20270 30019 40023 70162 83411 333 20296 56499 58021 6991/ 70001 82618 85460=
41938,2023,06,17,12,00,AAXX 17124 41938 32956 72004 10314 20240 30009 40013 87071 333 10342 56099 58024 70001 85460 83362=
41938,2023,06,17,18,00,AAXX 17184 41938 11450 31603 10278 20270 30026 40030 60078 70196 82511 333 56499 58020 70067 82617=
41938,2023,06,18,00,00,AAXX 18004 41938 32956 61801 10290 20280 30024 40028 86071 333 56099 58014 70067 84460 83362=
41938,2023,06,18,06,00,AAXX 18064 41938 11456 82002 10288 20250 30035 40039 60034 71796 8591/ 333 56599 58014 70092 82618 83825 81930 88460=
41938,2023,06,19,00,00,AAXX 19004 41938 11450 81802 10290 20270 30024 40028 69904 72122 8352/ 333 56499 58000 70026 83617 88460=
41938,2023,06,19,06,00,AAXX 19064 41938 32457 42507 10315 20250 30026 40030 82512 333 56699 59009 79999 82616=
41938,2023,06,19,12,00,AAXX 19124 41938 32456 81802 10295 20260 30006 40010 8152/ 333 10335 56499 59005 79999 81618 88460=
41938,2023,06,19,18,00,AAXX 19184 41938 32956 01803 10272 20250 30023 40027 333 59010 79999=
41938,2023,06,20,00,00,AAXX 20004 41938 31450 71802 10280 20270 30019 40023 70510 85530 333 56490 59005 70000 85616 85362=
41938,2023,06,20,06,00,AAXX 20064 41938 32457 61803 10344 20260 30024 40028 85400 333 56400 58008 70000 84617=
41938,2023,06,20,12,00,AAXX 20124 41938 11450 80000 10260 20260 30012 40016 60333 76196 8432/ 333 10352 56599 58006 70332 83617 81929 88459=
41938,2023,06,20,18,00,AAXX 20184 41938 11450 32001 10278 20278 30025 40029 69966 70162 81511 333 56599 58002 70338 81617=
41938,2023,06,21,00,00,AAXX 21004 41938 31450 70000 10282 20280 30023 40027 70521 81571 333 56499 58004 70338 81618 84460=
41938,2023,06,21,06,00,AAXX 21064 41938 32457 61802 10345 20270 30023 40027 83310 333 56490 59010 70338 81618 83825 81930 85460=
41938,2023,06,21,12,00,AAXX 21124 41938 11450 70000 10280 20270 30013 40017 60064 70296 85510 333 10348 56490 58001 70066 85618 85459=
41938,2023,06,21,18,00,AAXX 21184 41938 32450 40000 10282 20250 30021 40025 84500 333 56900 59004 70060 84618=
41938,2023,06,22,00,00,AAXX 22004 41938 32450 40000 10282 20280 30017 40021 84500 333 56900 59006 70060 84618=
41938,2023,06,22,06,00,AAXX 22064 41938 NIL=
41938,2023,06,22,12,00,AAXX 22123 41938 11450 50000 10284 20260 30011 40015 60018 70196 84410 333 10323 56490 59002 70012 83618=
41938,2023,06,22,18,00,AAXX 22184 41938 32450 30000 10270 20260 30016 40020 83500 333 56900 59005 70012 83618=
41939,2023,06,16,00,00,AAXX 16004 41939 02457 80000 10290 20280 39993 40001 8352/ 333 59006 70000 83618 88459==
41939,2023,06,16,03,00,AAXX 16034 41939 02458 80000 10326 20280 30012 40020 8352/ 333 20258 59004 70000 83618 88459==
41939,2023,06,16,06,00,AAXX 16064 41939 02459 50000 10345 20280 30013 40021 83530 333 58002 70000 83617 83365==
41939,2023,06,16,09,00,AAXX 16094 41939 02460 40000 10350 20290 39998 40006 82530 333 58031 70000 82618 83364==
41939,2023,06,16,12,00,AAXX 16124 41939 02450 80000 10315 20270 39990 49998 8352/ 333 10350 58008 70000 83617 88459==
41939,2023,06,16,15,00,AAXX 16154 41939 02450 70000 10305 20270 30019 40027 83510 333 58027 70000 83617 87459==
41939,2023,06,16,18,00,AAXX 16184 41939 02450 70000 10300 20270 30037 40045 83510 333 58022 70000 83617 87459==
41939,2023,06,16,21,00,AAXX 16214 41939 02456 40000 10290 20270 30035 40043 82530 333 58029 70000 82618 83364==
41939,2023,06,17,00,00,AAXX 17004 41939 02456 70000 10293 20270 30028 40036 83510 333 58035 70000 83617 85459==
41939,2023,06,17,03,00,AAXX 17034 41939 02458 70000 10322 20270 30040 40048 82510 333 58028 70000 82618 83364==
41939,2023,06,17,09,00,AAXX 17094 41939 02458 10000 10337 20240 30011 40019 81500 333 58013 70000 83618==
41939,2023,06,17,12,00,AAXX 17124 41939 02457 50000 10310 20250 30011 40019 82510 333 10347 58021 70000 82618 85459==
41939,2023,06,17,15,00,AAXX 17154 41939 02450 60000 10295 20250 30023 40034 83510 333 58004 70000 83618 85459==
41939,2023,06,17,18,00,AAXX 17184 41939 02450 60000 10285 20260 30031 40039 83510 333 59006 70000 83618 85459==
41939,2023,06,17,21,00,AAXX 17214 41939 02450 60000 10285 20270 30040 40048 83510 333 58005 70000 83617 85459==
41939,2023,06,18,00,00,AAXX 18004 41939 02456 70000 10290 20280 30038 40046 83510 333 58010 70000 83617 87459==
41939,2023,06,18,03,00,AAXX 18034 41939 02457 70000 10320 20280 30043 40051 83510 333 20265 58004 70000 83617 86459==
41939,2023,06,18,06,00,AAXX 18064 41939 11456 50000 10305 20280 30031 40039 60132 72162 82510 333 58004 70125 82616 85459==
41939,2023,06,18,09,00,AAXX 18094 41939 02450 70000 10300 20260 30020 40028 83510 333 58009 70125 83616 87459==
41939,2023,06,18,12,00,AAXX 18124 41939 02456 60000 10293 20240 30005 40013 82510 333 10325 59006 70125 82618 86458==
41939,2023,06,18,18,00,AAXX 18184 41939 02450 60000 10280 20260 30028 40036 82510 333 59003 70125 82618 84659==
41939,2023,06,18,21,00,AAXX 18214 41939 02456 50000 10282 20270 30038 40046 83530 333 59002 70125 83617 83364==
41939,2023,06,19,06,00,AAXX 19064 41939 02458 30000 10320 20240 30026 40033 81530 333 59005 70000 81618 83360==
41939,2023,06,19,09,00,AAXX 19094 41939 02456 70000 10300 20250 30019 40027 83510 333 59001 70000 83616 87459==
41939,2023,06,19,12,00,AAXX 19124 41939 02456 70000 10284 30014 40022 82510 333 10325 58005 70000 82617 87459==
41939,2023,06,19,15,00,AAXX 19154 41939 02450 60000 10270 20250 30034 40042 82510 333 58017 70000 82617 86459==
41939,2023,06,19,18,00,AAXX 19184 41939 02450 60000 10268 20250 30044 40052 82510 333 58016 70000 82617 86459==
41939,2023,06,19,21,00,AAXX 19214 41939 02456 40000 10272 20260 30029 40037 82530 333 59004 70000==
41939,2023,06,20,00,00,AAXX 20004 41939 02456 40000 10270 20260 30025 40033 83530 333 59003 70000 83617 83365==
41939,2023,06,20,03,00,AAXX 20034 41939 02458 61802 10320 20270 30043 40051 83530 333 20262 58015 70000 83618 83682==
41939,2023,06,20,06,00,AAXX 20064 41939 02458 61803 10342 20270 30027 40035 83530 333 58001 70000 83617 84360==
41939,2023,06,20,09,00,AAXX 20093 41939 02456 70000 10292 20240 30020 40028 83510 333 58001 70000 83616 87459==
41939,2023,06,20,12,00,AAXX 20124 41939 21450 80000 10260 20240 30008 40016 76192 8352/ 333 10345 59006 60437 70432 83616 88459==
41939,2023,06,20,15,00,AAXX 20154 41939 01440 80000 10260 20250 30017 40025 76162 8352/ 333 59017 70455 83616 88459==
41939,2023,06,20,18,00,AAXX 20184 41939 21450 80000 10262 20250 30028 40036 70262 8352/ 333 59016 60028 70455 83617 88459==
41939,2023,06,20,21,00,AAXX 20214 41939 02450 80000 10260 20250 30032 40040 8352/ 333 58003 70455 83617 88459==
41939,2023,06,21,00,00,AAXX 21004 41939 02456 80000 10280 20270 30031 40039 8352/ 333 58006 70455 83617 88459==
41939,2023,06,21,03,00,AAXX 21034 41939 02458 50000 10315 20280 30044 40052 82530 333 20250 58001 70455 82617 85459==
41939,2023,06,21,06,00,AAXX 21064 41939 02458 50000 10337 20280 30030 40038 82510 333 58003 70455 82617 85460==
41939,2023,06,21,09,00,AAXX 21094 41939 01456 70000 10250 20230 30013 40021 70396 82510 333 59007 70887 82616 87459==
41939,2023,06,21,12,00,AAXX 21124 41939 02456 80000 10293 20280 30020 40028 8252/ 333 10345 58012 70455 82617 88459==
41939,2023,06,21,15,00,AAXX 21154 41939 02456 80000 10270 20260 30030 40038 8352/ 333 58013 70432 83617 88459==
41939,2023,06,21,18,00,AAXX 21184 41939 NIL=
41939,2023,06,21,21,00,AAXX 21214 41939 02450 80000 10268 20260 30034 40042 8352/ 333 58002 70432 83618 88459==
41939,2023,06,22,00,00,AAXX 22004 41939 02456 80000 10270 20260 30030 40038 8352/ 333 59001 70432 83618 88459==
41939,2023,06,22,03,00,AAXX 22034 41939 02457 80000 10293 20270 30044 40052 8352/ 333 20263 58000 70432 83618 88459==
41939,2023,06,22,06,00,AAXX 22064 41939 02456 70000 10310 20260 30041 40049 83510 333 58011 70432 83617 87459==
41939,2023,06,22,09,00,AAXX 22094 41939 02450 80000 10285 20260 30026 40033 8352/ 333 58013 70000 83616 88459==
41939,2023,06,22,12,00,AAXX 22123 41939 02956 80000 10284 20260 30015 40023 8352/ 333 10320 59005 70000 83617 88459==
41939,2023,06,22,15,00,AAXX 22154 41939 02450 50000 10275 20270 30032 40040 82530 333 58002 70000 82617 83365==
41939,2023,06,22,18,00,AAXX 22184 41939 02450 50000 10272 20270 30041 40049 82530 333 58004 70000 82617 83365==
41939,2023,06,22,21,00,AAXX 22214 41939 02456 40000 10272 20260 30042 40050 82530 333 59003 70000 82617 83364==
41941,2023,06,16,00,00,AAXX 16004 41941 02450 81804 10295 20280 30007 40012 8632/ 333 58006 70000 85616 88458 81930==
41941,2023,06,16,03,00,AAXX 16034 41941 02456 71403 10312 20280 30017 40022 85420 333 20262 58005 70000 84616 87458==
41941,2023,06,16,06,00,AAXX 16064 41941 02456 71804 10330 20290 30015 40021 85420 333 59002 70000 84616 87458==
41941,2023,06,16,09,00,AAXX 16094 41941 02456 71806 10335 20290 30005 40011 85420 333 58005 70000 84616 87458==
41941,2023,06,16,12,00,AAXX 16124 41941 02456 81806 10315 20280 39993 49999 8632/ 333 10345 58000 70000 85616 88458 81930==
41941,2023,06,16,15,00,AAXX 16154 41941 01440 81806 10300 20290 30021 40026 71322 8632/ 333 58016 70000 85616 88458 81930==
41941,2023,06,16,21,00,AAXX 16214 41941 01440 81803 10290 20280 30020 40025 71322 8632/ 333 58016 70000 85614 88457 81925==
41941,2023,06,17,00,00,AAXX 17004 41941 02440 80000 10295 20290 30015 40020 8732/ 333 58008 70000 85612 88456 82925==
41941,2023,06,17,03,00,AAXX 17034 41941 01450 80000 10305 20290 30023 40028 70262 8632/ 333 20284 58006 70020 85616 88458 81930==
41941,2023,06,17,09,00,AAXX 17094 41941 02456 71803 10335 20260 30012 40018 85420 333 58007 70020 84616 87458==
41941,2023,06,17,12,00,AAXX 17124 41941 02456 71804 10305 20260 30021 40026 85420 333 10345 58028 70020 84616 87458==
41941,2023,06,17,15,00,AAXX 17154 41941 02450 71803 10290 20260 30054 40060 85420 333 58033 70020 84616 87458==
41941,2023,06,17,21,00,AAXX 17214 41941 01440 81804 10280 20260 30030 40035 71322 8732/ 333 58010 70020 85616 88458 81930==
41941,2023,06,18,00,00,AAXX 18004 41941 02450 81404 10284 20260 30037 40042 8632/ 333 58022 70020 85616 88458 81930==
41941,2023,06,18,03,00,AAXX 18034 41941 02450 81804 10315 20290 30044 40049 85420 333 10254 58021 70000 84616 88458 81930==
41941,2023,06,18,06,00,AAXX 18064 41941 02450 81803 10325 20290 30041 40046 8632/ 333 58005 70000 85616 88458 81930==
41941,2023,06,18,09,00,AAXX 18094 41941 02450 81804 10300 20270 30028 40033 8632/ 333 58016 70000 85616 88458 81930==
41941,2023,06,18,12,00,AAXX 18124 41941 02450 81802 10280 20250 30022 40027 8632/ 333 10342 58001 70000 85616 88458 81930==
41941,2023,06,18,18,00,AAXX 18184 41941 02440 61803 10266 20250 30043 40049 8542/ 333 59001 70000 84616 86458==
41941,2023,06,18,21,00,AAXX 18214 41941 02440 60000 10274 20260 30031 40036 85420 333 58001 70000 84616 86458==
41941,2023,06,19,00,00,AAXX 19004 41941 02450 81803 10271 20270 30034 40040 8632/ 333 59003 70000 85616 88458 81930==
41941,2023,06,19,06,00,AAXX 19064 41941 02450 81804 10320 20280 30035 40040 8632/ 333 59006 70000 85616 88458 81930==
41941,2023,06,19,09,00,AAXX 19094 41941 01450 81802 10292 20270 30026 40031 70262 8632/ 333 59012 70040 85616 88458 81930==
41941,2023,06,19,12,00,AAXX 19124 41941 01450 81803 10275 20260 30017 40022 70262 8632/ 333 10332 59005 70040 85616 88458 81930==
41941,2023,06,19,15,00,AAXX 19154 41941 01440 81804 10267 20260 30028 40034 71322 8632/ 333 59015 70040 85616 88458 81930==
41941,2023,06,19,21,00,AAXX 19214 41941 02440 81803 10265 20260 30028 40034 8632/ 333 59003 70040 85616 88458 81930==
41941,2023,06,20,00,00,AAXX 20004 41941 02450 61802 10272 20270 30038 40044 85420 333 58004 70040 84616 86458==
41941,2023,06,20,03,00,AAXX 20034 41941 02450 71804 10320 20280 30044 40049 85420 333 20265 58009 70040 84616 87458==
41941,2023,06,20,06,00,AAXX 20064 41941 02456 71804 10345 20280 30037 40042 85420 333 58002 70040 84616 87458==
41941,2023,06,20,09,00,AAXX 20094 41941 01450 80803 10300 20290 30023 40028 70296 8792/ 333 58003 70030 85614 88457 82926==
41941,2023,06,20,12,00,AAXX 20124 41941 01440 82304 10254 20250 30020 40026 79596 8792/ 333 10345 58003 70170 85612 88456 82925==
41941,2023,06,20,15,00,AAXX 20154 41941 01440 81803 10258 20258 30032 40038 72196 8632/ 333 58004 70200 85616 88458 81930==
41941,2023,06,20,18,00,AAXX 20184 41941 NIL=
41941,2023,06,20,21,00,AAXX 20214 41941 02440 80000 10274 20270 30035 40041 8632/ 333 58007 70200 85616 88458 81930==
41941,2023,06,21,00,00,AAXX 21004 41941 02450 80000 10280 20280 30035 40041 8632/ 333 59003 70200 85616 88458 81930==
41941,2023,06,21,03,00,AAXX 21034 41941 02450 81803 10305 20280 30040 40045 8632/ 333 20255 59004 70200 85616 88458 81930==
41941,2023,06,21,06,00,AAXX 21064 41941 02456 71803 10330 20290 30034 40039 85420 333 59003 70200 84616 87458==
41941,2023,06,21,09,00,AAXX 21094 41941 02457 61804 10335 20270 30019 40024 85420 333 59004 70170 84616 86458==
41941,2023,06,21,12,00,AAXX 21124 41941 02456 80000 10305 20270 30011 40016 8632/ 333 10340 59008 70030 85616 88458 81930==
41941,2023,06,21,15,00,AAXX 21154 41941 02450 71805 10295 20280 30038 40043 85420 333 58006 70000 84616 87458==
41941,2023,06,21,18,00,AAXX 21184 41941 NIL=
41941,2023,06,21,21,00,AAXX 21214 41941 02440 70000 10280 20270 30037 40042 85420 333 58002 70000 84616 87458==
41941,2023,06,22,00,00,AAXX 22004 41941 02450 80000 10275 20270 30037 40043 8632/ 333 58002 70000 85616 88458 81930==
41941,2023,06,22,03,00,AAXX 22034 41941 02456 81804 10300 20270 30055 40060 8632/ 333 20270 58005 70000 85616 88458 81930==
41941,2023,06,22,06,00,AAXX 22064 41941 02456 71803 10318 20270 30048 40053 85420 333 58014 70000 84616 87458==
41941,2023,06,22,09,00,AAXX 22094 41941 02450 81803 10305 20270 30028 40033 8632/ 333 58009 70000 85616 88458 81930==
41941,2023,06,22,12,00,AAXX 22123 41941 02450 81801 10296 20270 30019 40024 8632/ 333 10327 58008 70000 85616 88458 81930==
41941,2023,06,22,15,00,AAXX 22154 41941 02440 71802 10285 20270 30036 40041 85420 333 59002 70000 84616 87458==
41941,2023,06,22,18,00,AAXX 22184 41941 02440 71803 10280 20260 30034 40039 85420 333 59004 70000 84616 87458==
41941,2023,06,22,21,00,AAXX 22214 41941 02440 70000 10278 20270 30032 40037 85420 333 59005 70000 84616 87458==
41943,2023,06,16,00,00,AAXX 16004 41943 02430 80000 10286 20280 30011 40018 8662/ 333 59005 70120 83710 84615 88458==
41943,2023,06,16,03,00,AAXX 16034 41943 02330 81802 10296 20270 30022 40029 8662/ 333 20245 55003 70000 83710 84615 88458==
41943,2023,06,16,06,00,AAXX 16064 41943 02340 61806 10315 20270 30026 40033 83520 333 58000 70000 83616 86458==
41943,2023,06,16,09,00,AAXX 16094 41943 02340 61812 10330 20260 30012 40019 83520 333 58006 70000 83616 86458==
41943,2023,06,16,12,00,AAXX 16124 41943 02340 81807 10305 20270 30002 40009 8662/ 333 10334 58003 70000 83710 84615 88458==
41943,2023,06,16,15,00,AAXX 16154 41943 02330 81806 10290 20260 30028 40035 8662/ 333 58019 70000 83710 84615 88458==
41943,2023,06,16,18,00,AAXX 16184 41943 01330 81805 10237 20230 30032 40039 70262 8662/ 333 58020 70040 83709 84614 88458==
41943,2023,06,16,21,00,AAXX 16214 41943 02330 81803 10254 20230 30025 40032 8662/ 333 58013 70040 83710 84615 88458==
41943,2023,06,17,00,00,AAXX 17004 41943 02330 81802 10275 20270 30026 40033 8662/ 333 58015 70040 83710 84615 88458==
41943,2023,06,17,03,00,AAXX 17034 41943 01330 81802 10275 20270 30042 40049 70266 8662/ 333 20236 58020 70270 83709 84615 88456==
41943,2023,06,17,06,00,AAXX 17064 41943 11340 81804 10276 20250 30042 40049 60236 70262 8662/ 333 58016 70270 83710 84615 88458==
41943,2023,06,17,09,00,AAXX 17094 41943 02330 81803 10270 20250 30026 40033 8662/ 333 58014 70270 83710 84614 88458==
41943,2023,06,17,12,00,AAXX 17124 41943 02330 81802 10257 20220 30026 40033 8662/ 333 10276 58017 70270 83710 84614 88458==
41943,2023,06,17,15,00,AAXX 17154 41943 02330 81802 10250 20220 30052 40059 8662/ 333 58024 70270 83710 84615 88458==
41943,2023,06,17,18,00,AAXX 17184 41943 02330 80000 10248 20230 30034 40041 8662/ 333 58002 70270 83710 84615 88458==
41943,2023,06,17,21,00,AAXX 17214 41943 02330 80000 10246 20230 30032 40039 8662/ 333 58007 70230 83710 84615 88458==
41943,2023,06,18,00,00,AAXX 18004 41943 02330 80000 10244 20220 30043 40050 8662/ 333 58017 70230 83710 84615 88458==
41943,2023,06,18,03,00,AAXX 18034 41943 02440 71803 10296 20210 30049 40056 8662/ 333 20244 58007 70000 84616 86458==
41943,2023,06,18,06,00,AAXX 18064 41943 02440 51803 10322 20250 30046 40053 83520 333 58004 70000 83616 85458==
41943,2023,06,18,09,00,AAXX 18094 41943 01330 81802 10255 20240 30037 40044 79596 8772/ 333 58011 70420 84709 84613 88456==
41943,2023,06,18,12,00,AAXX 18124 41943 21330 80000 10250 20240 30023 40030 70266 8762/ 333 10325 59003 60438 70430 84708 84615 88458==
41943,2023,06,18,15,00,AAXX 18154 41943 02430 80000 10250 20230 30049 40056 8662/ 333 59003 70430 83710 84615 88458==
41943,2023,06,18,18,00,AAXX 18184 41943 02430 80000 10246 20240 30044 40051 8662/ 333 58010 70430 83710 84615 88458==
41943,2023,06,18,21,00,AAXX 18214 41943 02430 80000 10245 20240 30041 40048 8662/ 333 58009 70430 83710 84615 88458==
41943,2023,06,19,00,00,AAXX 19004 41943 02430 80000 10255 20250 30031 40039 8662/ 333 59012 70430 83710 84615 88458==
41943,2023,06,19,03,00,AAXX 19034 41943 01330 80000 10285 20280 30038 40045 76062 8772/ 333 20245 59011 70500 84709 84614 88458==
41943,2023,06,19,06,00,AAXX 19064 41943 21330 81502 10270 20260 30043 40050 76066 8772/ 333 59003 60099 70520 84709 84613 88456==
41943,2023,06,19,09,00,AAXX 19094 41943 01330 81602 10250 20240 30031 40038 76066 8772/ 333 59006 70250 84709 84613 88456==
41943,2023,06,19,12,00,AAXX 19124 41943 21330 81302 10255 20250 30021 40028 76066 8772/ 333 10295 59002 60199 70280 84709 84614 88457==
41943,2023,06,19,15,00,AAXX 19154 41943 02430 80000 10254 20240 30037 40044 8662/ 333 59012 70280 83710 84615 88458==
41943,2023,06,19,18,00,AAXX 19184 41943 02430 80000 10250 20240 30035 40042 8662/ 333 59009 70280 83710 84615 88458==
41943,2023,06,19,21,00,AAXX 19214 41943 02430 80000 10250 20240 30029 40036 8662/ 333 59012 70280 83710 84615 88458==
41943,2023,06,20,00,00,AAXX 20004 41943 02430 81302 10250 20240 30037 40044 8662/ 333 58006 70280 83710 84615 88458==
41943,2023,06,20,03,00,AAXX 20034 41943 02430 81803 10305 20260 30045 40052 8662/ 333 20250 58007 70210 83710 84615 88458==
41943,2023,06,20,06,00,AAXX 20064 41943 02430 82304 10320 20260 30039 40046 8662/ 333 58002 70190 83710 84615 88458==
41943,2023,06,20,09,00,AAXX 20094 41943 01330 80000 10275 20260 30022 40029 76066 8772/ 333 59009 70380 84709 84614 88456==
41943,2023,06,20,12,00,AAXX 20124 41943 21430 80000 10295 20270 30025 40032 70262 8762/ 333 10330 58004 60348 70340 84710 84615 88458==
41943,2023,06,20,15,00,AAXX 20154 41943 02430 80000 10285 20280 30034 40041 8662/ 333 59003 70340 83710 84615 88458==
41943,2023,06,20,18,00,AAXX 20184 41943 02430 81802 10286 20270 30036 40043 8662/ 333 58001 70340 83710 84615 88458==
41943,2023,06,20,21,00,AAXX 20214 41943 02430 81802 10274 20250 30032 40039 8662/ 333 58003 70340 83710 84615 88458==
41943,2023,06,21,00,00,AAXX 21004 41943 02430 80000 10270 20260 30032 40039 8662/ 333 59005 70340 83710 84615 88458==
41943,2023,06,21,03,00,AAXX 21034 41943 02435 71502 10298 20270 30048 40055 84520 333 20265 58003 70340 84616 86458==
41943,2023,06,21,06,00,AAXX 21064 41943 02440 71802 10325 20270 30060 40067 84520 333 58021 70340 84616 86458==
41943,2023,06,21,09,00,AAXX 21094 41943 02440 71801 10320 20270 30019 40026 84520 333 59003 70000 84616 86458==
41943,2023,06,21,12,00,AAXX 21124 41943 02430 80000 10310 20260 30020 40027 8662/ 333 10340 59005 70000 83710 84615 88458==
41943,2023,06,21,15,00,AAXX 21154 41943 02430 81802 10289 20270 30042 40049 8662/ 333 58008 70000 83710 84615 88458==
41943,2023,06,21,18,00,AAXX 21184 41943 02430 80000 10283 20260 30045 40052 8662/ 333 58009 70000 83710 84615 88458==
41943,2023,06,21,21,00,AAXX 21214 41943 02430 80000 10276 20260 30041 40048 8662/ 333 58009 70000 83710 84615 88458==
41943,2023,06,22,00,00,AAXX 22004 41943 02430 80000 10265 20250 30044 40051 8662/ 333 58012 70000 83710 84615 88458==
41943,2023,06,22,03,00,AAXX 22034 41943 02430 81302 10280 20240 30053 40060 8662/ 333 20265 58008 70000 83710 84615 88458==
41943,2023,06,22,06,00,AAXX 22064 41943 02435 81804 10305 20250 30050 40057 8662/ 333 59010 70000 83710 84615 88458==
41943,2023,06,22,09,00,AAXX 22094 41943 02430 81805 10305 20270 30026 40033 8662/ 333 58007 70000 83710 84615 88458==
41943,2023,06,22,12,00,AAXX 22124 41943 02430 80803 10295 20250 30020 40027 8662/ 333 10320 58000 70000 83710 84615 88458==
41943,2023,06,22,15,00,AAXX 22154 41943 01330 81802 10270 20250 30036 40043 76062 8772/ 333 59006 70040 84709 84614 88458==
41943,2023,06,22,18,00,AAXX 22184 41943 22430 80000 10270 20250 30044 40051 8662/ 333 59001 60045 70040 83710 84615 88458==
41943,2023,06,22,21,00,AAXX 22214 41943 02430 80000 10266 20250 30040 40047 8662/ 333 59001 70040 83710 84615 88458==
41944,2023,06,16,06,00,AAXX 16064 41944 NIL=
41944,2023,06,16,12,00,AAXX 16124 41944 NIL=
41944,2023,06,16,15,00,AAXX 16154 41944 NIL=
41944,2023,06,17,00,00,AAXX 17004 41944 NIL=
41944,2023,06,17,03,00,AAXX 17034 41944 NIL=
41944,2023,06,18,00,00,AAXX 18004 41944 NIL=
41944,2023,06,18,06,00,AAXX 18064 41944 NIL=
41944,2023,06,19,06,00,AAXX 19064 41944 NIL=
41944,2023,06,20,06,00,AAXX 20064 41944 NIL=
41944,2023,06,20,12,00,AAXX 20124 41944 NIL=
41944,2023,06,20,18,00,AAXX 20184 41944 NIL=
41944,2023,06,21,06,00,AAXX 21064 41944 NIL=
41944,2023,06,21,12,00,AAXX 21124 41944 NIL=
41944,2023,06,21,18,00,AAXX 21184 41944 NIL=
41944,2023,06,22,00,00,AAXX 22004 41944 NIL=
41944,2023,06,22,06,00,AAXX 22064 41944 NIL=
41944,2023,06,22,12,00,AAXX 22123 41944 NIL=
41944,2023,06,22,18,00,AAXX 22184 41944 NIL=
41946,2023,06,16,00,00,AAXX 16004 41946 02/56 50000 10304 20280 39994 49999 85010 333 58001 70000 85459==
41946,2023,06,16,03,00,AAXX 16034 41946 02557 31802 10333 20280 30005 40010 83500 333 20300 59005 70000 83620==
41946,2023,06,16,06,00,AAXX 16064 41946 02557 51703 10355 20290 30004 40008 83402 333 59001 70000 82620 84080==
41946,2023,06,16,09,00,AAXX 16094 41946 02557 61802 10352 20270 39993 49998 83420 333 58005 70000 82620 84459==
41946,2023,06,16,12,00,AAXX 16124 41946 02556 30000 10330 20280 39982 49987 83500 333 10362 58006 70000 83620==
41946,2023,06,16,15,00,AAXX 16154 41946 02456 81805 10313 20270 30009 40014 8352/ 333 58014 70000 83618 88460==
41946,2023,06,16,18,00,AAXX 16184 41946 02456 81803 10311 20270 30015 40020 8452/ 333 58022 70000 84618 88460==
41946,2023,06,16,21,00,AAXX 16214 41946 02456 80000 10307 20280 30004 40009 8352/ 333 58024 70000 83618 88460==
41946,2023,06,17,00,00,AAXX 17004 41946 02456 80000 10303 20280 30014 40019 8352/ 333 58020 70000 83618 88460==
41946,2023,06,17,03,00,AAXX 17034 41946 02456 61802 10325 20280 30029 40034 83510 333 20300 58024 70000 83618 86460==
41946,2023,06,17,09,00,AAXX 17094 41946 02957 31803 10344 20250 39995 40000 80001 333 58002 70000 83080==
41946,2023,06,17,12,00,AAXX 17124 41946 02556 60000 10330 20270 30016 40021 84430 333 10350 58034 70000 83620 84360==
41946,2023,06,17,15,00,AAXX 17154 41946 01456 60000 10302 20280 30029 40034 70262 83510 333 58020 70040 83618 86460==
41946,2023,06,17,18,00,AAXX 17184 41946 11456 60000 10304 20270 30020 40026 60046 70262 83510 333 58005 70040 83618 86460==
41946,2023,06,17,21,00,AAXX 17213 41946 02456 80000 10302 20280 30019 40024 8352/ 333 58015 70040 83618 88460==
41946,2023,06,18,00,00,AAXX 18004 41946 02456 80000 10302 20280 30033 40038 8352/ 333 58019 70040 83618 88460==
41946,2023,06,18,03,00,AAXX 18034 41946 01350 81802 10265 20210 30028 40033 79596 8592/ 333 20260 59001 70060 82710 84617 88458 81928==
41946,2023,06,18,06,00,AAXX 18064 41946 21450 80000 10270 20250 30040 40045 71996 8532/ 333 58011 60028 70060 84617 88459 81928==
41946,2023,06,18,09,00,AAXX 18094 41946 02456 81802 10303 20260 30007 40012 8352/ 333 58012 70060 83618 88460==
41946,2023,06,18,12,00,AAXX 18124 41946 02456 80000 10310 20280 30011 40016 8252/ 333 10311 59005 70060 82618 88460==
41946,2023,06,18,15,00,AAXX 18154 41946 02456 60000 10302 20280 30040 40044 83420 333 58011 70020 82618 85459==
41946,2023,06,19,00,00,AAXX 19004 41946 02/56 80000 10290 20280 30027 40031 8802/ 333 59006 70020 88460==
41946,2023,06,19,06,00,AAXX 19064 41946 21456 80000 10280 20260 30029 40034 70296 8562/ 333 59011 60249 70240 85618 88459==
41946,2023,06,19,12,00,AAXX 19124 41946 02456 80000 10290 20270 30008 40013 8352/ 333 10293 59003 70240 83618 88460==
41946,2023,06,19,15,00,AAXX 19154 41946 02456 61702 10287 20270 30027 40032 82520 333 59013 70240 82618 86460==
41946,2023,06,19,18,00,AAXX 19184 41946 02456 70000 10283 20270 30024 40029 82520 333 59016 70240 82618 87460==
41946,2023,06,19,21,00,AAXX 19214 41946 02456 60000 10284 20270 30012 40017 82520 333 59011 70240 82618 86460==
41946,2023,06,20,00,00,AAXX 20004 41946 02456 50000 10286 20280 30021 40026 82530 333 59006 70240 82618 83362==
41946,2023,06,20,03,00,AAXX 20034 41946 02456 60000 10310 20280 30034 40039 83510 333 20232 59016 70040 83618 85460==
41946,2023,06,20,06,00,AAXX 20064 41946 02456 61802 10345 20270 30026 40030 83510 333 59003 70000 83618 85460==
41946,2023,06,20,09,00,AAXX 20093 41946 02456 70000 10320 20260 30008 40013 82520 333 59004 70006 82618 87460==
41946,2023,06,20,12,00,AAXX 20124 41946 11456 80000 10311 20270 30006 40011 69966 70362 8352/ 333 10348 59002 70006 83618 88460==
41946,2023,06,20,15,00,AAXX 20154 41946 02456 80000 10305 20280 30024 40029 8352/ 333 59003 70006 83618 88460==
41946,2023,06,20,18,00,AAXX 20184 41946 02456 80000 10298 20270 30029 40034 8352/ 333 58005 70006 83618 88460==
41946,2023,06,21,00,00,AAXX 21004 41946 02456 80000 10295 20290 30022 40027 8352/ 333 58001 70006 83618 88460==
41946,2023,06,21,03,00,AAXX 21034 41946 02456 60000 10310 20280 30034 40039 85410 333 20282 58000 70006 84618 84460==
41946,2023,06,21,06,00,AAXX 21064 41946 02456 50000 10345 20270 30028 40033 85400 333 58002 70006 84618==
41946,2023,06,21,09,00,AAXX 21094 41946 01456 81805 10313 20260 30008 40013 72122 8432/ 333 58000 70012 83617 88459 81929==
41946,2023,06,21,12,00,AAXX 21124 41946 21456 81801 10312 20270 30015 40020 70262 8252/ 333 10361 58009 60015 70012 82618 88460==
41946,2023,06,21,15,00,AAXX 21154 41946 02456 21801 10308 20270 30026 40031 82500 333 58002 70012 82618==
41946,2023,06,21,18,00,AAXX 21184 41946 02456 10000 10296 20280 30036 40041 81500 333 58007 70012 81618==
41946,2023,06,21,21,00,AAXX 21214 41946 02456 30000 10292 20270 30023 40028 83500 333 58004 70012 83618==
41946,2023,06,22,00,00,AAXX 22004 41946 02456 60000 10288 20280 30029 40034 82510 333 58007 70012 82618 84460==
41946,2023,06,22,03,00,AAXX 22034 41946 02456 70000 10318 20280 30038 40043 83510 333 20285 58004 70012 83618 85460==
41946,2023,06,22,06,00,AAXX 22064 41946 02456 71802 10325 20280 30038 40043 83510 333 58010 70012 83618 86460==
41946,2023,06,22,09,00,AAXX 22094 41946 02456 80000 10315 20270 30020 40025 8352/ 333 58012 70000 83618 88460==
41946,2023,06,22,12,00,AAXX 22123 41946 02456 80000 10300 20260 30017 40022 8352/ 333 10328 58002 70000 83618 88460==
41946,2023,06,22,15,00,AAXX 22154 41946 02556 30000 10288 20260 30026 40030 83400 333 58000 70000 82620==
41946,2023,06,22,18,00,AAXX 22184 41946 02/56 40000 10282 20260 30033 40038 83031 333 59003 70000 83362==
41946,2023,06,22,21,00,AAXX 22214 41946 02556 50000 10280 20260 30016 40021 83530 333 59007 70000 83620 84360==
41947,2023,06,16,00,00,AAXX 16004 41947 02450 51802 10305 20290 39998 40000 83570 333 58000 70002 83618 85458==
41947,2023,06,16,03,00,AAXX 16034 41947 02456 61803 10335 20290 39997 40000 86400 333 20298 59006 70002 83618 83820==
41947,2023,06,16,06,00,AAXX 16064 41947 02456 61803 10355 20280 39997 40000 86400 333 58000 70000 83618 83820==
41947,2023,06,16,09,00,AAXX 16094 41947 02456 61804 10352 20270 39997 49999 86400 333 58011 70000 83618 83820==
41947,2023,06,16,12,00,AAXX 16124 41947 02456 61805 10335 20270 39985 49987 83570 333 10362 58005 70000 83618 84458==
41947,2023,06,16,15,00,AAXX 16154 41947 02450 31805 10310 20270 30012 40014 83500 333 58010 70000 83618==
41947,2023,06,16,18,00,AAXX 16184 41947 02450 31803 10305 20280 30017 40019 83500 333 58024 70000 83618==
41947,2023,06,16,21,00,AAXX 16214 41947 02450 31805 10305 20280 30018 40020 83500 333 58023 70000 83618==
41947,2023,06,17,00,00,AAXX 17004 41947 02450 81805 10305 20290 30018 40020 8352/ 333 58020 70000 83618 88458==
41947,2023,06,17,03,00,AAXX 17034 41947 02456 71804 10320 20270 30017 40020 83570 333 20298 58020 70000 83618 86458==
41947,2023,06,17,09,00,AAXX 17094 41947 02456 31804 10336 20260 30010 40012 83500 333 58011 70000 83618==
41947,2023,06,17,12,00,AAXX 17124 41947 02/56 51808 10334 20250 30010 40013 85030 333 10350 58026 70000 85362==
41947,2023,06,17,15,00,AAXX 17154 41947 01456 81304 10292 20270 30029 40032 70262 8352/ 333 58018 70022 83618 88458==
41947,2023,06,17,18,00,AAXX 17184 41947 11456 61810 10303 20280 30022 40024 60026 70162 83570 333 58005 70022 83618 85459==
41947,2023,06,17,21,00,AAXX 17214 41947 02456 61505 10300 20280 30022 40024 83570 333 58004 70022 83618 85459==
41947,2023,06,18,00,00,AAXX 18004 41947 02456 61806 10302 20270 30026 40028 83570 333 58008 70022 83618 85459==
41947,2023,06,18,03,00,AAXX 18034 41947 02456 81805 10320 20280 30032 40034 8352/ 333 20276 58014 70022 83617 88459==
41947,2023,06,18,06,00,AAXX 18064 41947 01356 81802 10268 20250 30034 40036 72196 8632/ 333 58012 70040 82709 83615 88458 81930==
41947,2023,06,18,09,00,AAXX 18094 41947 02456 61802 10300 20270 30006 40008 83570 333 59004 70058 83618 85458==
41947,2023,06,18,12,00,AAXX 18124 41947 02456 81805 10308 20280 30008 40010 8352/ 333 10320 59003 70058 83618 88458==
41947,2023,06,18,21,00,AAXX 18214 41947 02450 51802 10298 20280 30028 40030 83570 333 58006 70036 83618 85458==
41947,2023,06,19,00,00,AAXX 19004 41947 02456 51802 10292 20270 30027 40029 83570 333 58001 70036 83618 84458==
41947,2023,06,19,06,00,AAXX 19064 41947 02456 62204 10320 20240 30022 40025 83570 333 59011 70000 83618 84459==
41947,2023,06,19,09,00,AAXX 19094 41947 02456 71802 10325 20270 30008 40010 83510 333 58002 70000 83618 87458==
41947,2023,06,19,12,00,AAXX 19124 41947 02456 81802 10300 20250 30000 40002 8452/ 333 10330 59028 70000 84616 88458==
41947,2023,06,19,15,00,AAXX 19154 41947 02450 81802 10285 20250 30012 40014 8452/ 333 59016 70000 84616 88458==
41947,2023,06,19,18,00,AAXX 19184 41947 02450 80000 10280 20260 30020 40022 8452/ 333 59016 70000 84616 88458==
41947,2023,06,19,21,00,AAXX 19214 41947 02450 60000 10281 20260 30004 40006 83530 333 59024 70000 84618 84362==
41947,2023,06,20,00,00,AAXX 20004 41947 02456 60000 10285 20280 39998 40000 83530 333 59029 70000 83618 84362==
41947,2023,06,20,03,00,AAXX 20034 41947 02456 70000 10325 20260 30017 40020 83570 333 20275 59011 70000 83618 86458==
41947,2023,06,20,06,00,AAXX 20064 41947 02456 72303 10355 20260 30019 40022 83570 333 59003 70000 83618 86458==
41947,2023,06,20,09,00,AAXX 20094 41947 02456 82303 10338 20260 30007 40009 8352/ 333 59001 70000 83618 88458==
41947,2023,06,20,12,00,AAXX 20124 41947 02456 80000 10300 20270 30006 40008 8352/ 333 10365 58006 70000 83618 88458==
41947,2023,06,20,15,00,AAXX 20154 41947 02450 31802 10305 20280 30026 40028 83500 333 58014 70000 83618==
41947,2023,06,20,18,00,AAXX 20184 41947 02450 31802 10300 20280 30028 40030 83500 333 58008 70000 83618==
41947,2023,06,21,00,00,AAXX 21004 41947 02456 61802 10298 20280 30021 40023 83570 333 58023 70000 83618 85458==
41947,2023,06,21,03,00,AAXX 21034 41947 02456 71802 10325 20270 30025 40028 83570 333 20290 58008 70000 83618 86458==
41947,2023,06,21,06,00,AAXX 21064 41947 02456 81805 10350 20260 30019 40022 8452/ 333 58000 70000 84618 88458==
41947,2023,06,21,09,00,AAXX 21094 41947 01350 81502 10284 20270 30009 40012 76196 8532/ 333 58003 70290 82709 84616 88458 81930==
41947,2023,06,21,12,00,AAXX 21124 41947 21456 81502 10302 20280 30010 40013 70296 8352/ 333 10350 58003 60298 70290 83618 88458==
41947,2023,06,21,15,00,AAXX 21154 41947 02456 80000 10300 20280 30028 40031 8352/ 333 58003 70290 83618 88459==
41947,2023,06,21,18,00,AAXX 21184 41947 02456 31802 10296 20290 30034 40037 83500 333 58007 70290 83618==
41947,2023,06,21,21,00,AAXX 21214 41947 02456 30000 10290 20280 30029 40031 83500 333 58006 70290 83618==
41947,2023,06,22,00,00,AAXX 22004 41947 02456 61502 10290 20280 30024 40027 83570 333 58004 70290 83618 85459==
41947,2023,06,22,03,00,AAXX 22034 41947 02456 71802 10315 20280 30029 40032 83570 333 20264 58004 70290 83618 85459==
41947,2023,06,22,06,00,AAXX 22064 41947 01350 81802 10290 20280 30031 40034 79522 8632/ 333 58012 70080 82708 83615 88458 81930==
41947,2023,06,22,09,00,AAXX 22094 41947 01450 81802 10295 20270 30020 40022 70296 8362/ 333 58010 70168 82709 83617 88458==
41947,2023,06,22,12,00,AAXX 22123 41947 11450 81801 10288 20280 30016 40018 60096 70296 8352/ 333 10325 58005 70168 83618 88458==
41947,2023,06,22,15,00,AAXX 22154 41947 02450 31802 10280 20260 30028 40030 83500 333 59001 70168 83618==
41947,2023,06,22,18,00,AAXX 22184 41947 02950 01802 10280 20260 30033 40035 333 59002 70000==
41947,2023,06,22,21,00,AAXX 22214 41947 02450 30000 10278 20270 30032 40034 83500 333 58003 70168 83618==
41950,2023,06,16,00,00,AAXX 16004 41950 02350 80000 10296 20280 30004 40006 8562/ 333 58006 70296 82708 84616 88458==
41950,2023,06,16,03,00,AAXX 16034 41950 01350 61902 10314 20270 30017 40019 70196 84610 333 20256 58001 70044 81708 84616 86459==
41950,2023,06,16,06,00,AAXX 16064 41950 11350 71704 10337 20270 30015 40018 60046 70396 85671 333 59001 70044 82708 84616 86459==
41950,2023,06,16,09,00,AAXX 16094 41950 02350 71803 10340 20280 30007 40010 85670 333 58005 70044 81708 84616 85459==
41950,2023,06,16,12,00,AAXX 16124 41950 02450 61806 10316 20280 39997 40000 83570 333 10340 58005 70044 83616 85459==
41950,2023,06,16,15,00,AAXX 16154 41950 02350 61902 10304 20270 30016 40019 84610 333 58014 70044 81708 84616 85459==
41950,2023,06,16,18,00,AAXX 16184 41950 02450 61602 10301 20280 30019 40022 83510 333 58007 70044 83617 86459==
41950,2023,06,16,21,00,AAXX 16214 41950 02350 71802 10297 20280 30018 40021 84610 333 58014 70044 81708 84616 87459==
41950,2023,06,17,00,00,AAXX 17004 41950 02350 81603 10294 20280 30025 40028 8562/ 333 58021 70044 82708 84616 88458==
41950,2023,06,17,03,00,AAXX 17034 41950 02450 61803 10320 20270 30033 40036 83570 333 20284 58016 70000 83617 86459==
41950,2023,06,17,06,00,AAXX 17064 41950 02350 81804 10322 20250 30034 40037 8562/ 333 58019 70000 82708 84616 88458==
41950,2023,06,17,09,00,AAXX 17094 41950 02450 61803 10327 20250 30015 40018 84510 333 58008 70000 84616 85459==
41950,2023,06,17,12,00,AAXX 17124 41950 02450 71703 10306 20260 30024 40027 84570 333 10330 58027 70000 84616 86459==
41950,2023,06,17,15,00,AAXX 17154 41950 02350 80902 10297 20280 30057 40060 8562/ 333 58041 70000 82708 84616 88458==
41950,2023,06,17,18,00,AAXX 17184 41950 02450 61504 10288 20280 30034 40037 83510 333 58015 70000 83616 85459==
41950,2023,06,17,21,00,AAXX 17214 41950 02350 71802 10290 20280 30032 40035 85610 333 58014 70000 82708 84616 86459==
41950,2023,06,18,00,00,AAXX 18004 41950 02350 80000 10294 20280 30039 40041 8562/ 333 58014 70000 82708 84616 88458==
41950,2023,06,18,03,00,AAXX 18034 41950 02350 80000 10314 20270 30045 40048 8562/ 333 20283 58012 70000 82708 84616 88458==
41950,2023,06,18,06,00,AAXX 18064 41950 02350 81904 10308 20270 30052 40055 8562/ 333 58018 70000 82708 84616 88458==
41950,2023,06,18,09,00,AAXX 18094 41950 02350 81905 10295 20230 30016 40018 8562/ 333 58001 70000 82708 84616 88458==
41950,2023,06,18,12,00,AAXX 18124 41950 02350 81602 10290 20250 30015 40018 8562/ 333 10335 59009 70000 82708 84616 88458==
41950,2023,06,18,15,00,AAXX 18154 41950 02350 80000 10283 20260 30046 40048 8562/ 333 59011 70000 82708 84616 88458==
41950,2023,06,18,18,00,AAXX 18184 41950 02450 50000 10280 20270 30044 40046 83510 333 58010 70000 83617 84459==
41950,2023,06,18,21,00,AAXX 18214 41950 02450 50000 10280 20280 30028 40030 83510 333 59004 70000 83617 85459==
41950,2023,06,19,00,00,AAXX 19004 41950 02350 80000 10283 20270 30031 40033 8562/ 333 59008 70000 82708 84616 88458==
41950,2023,06,19,03,00,AAXX 19034 41950 02450 62104 10320 20280 30033 40036 84410 333 20278 59012 70000 83617 85459==
41950,2023,06,19,06,00,AAXX 19064 41950 01340 82203 10288 20250 30040 40042 79522 8692/ 333 59012 70004 82708 84616 88458 81928==
41950,2023,06,19,09,00,AAXX 19094 41950 01350 80000 10280 20250 30021 40023 72196 8531/ 333 58005 70014 81708 84616 88459 81928==
41950,2023,06,19,12,00,AAXX 19124 41950 21350 80000 10274 20250 30014 40016 70296 8562/ 333 10339 59001 60018 70014 82708 84616 88459==
41950,2023,06,19,15,00,AAXX 19154 41950 02450 70000 10265 20250 30036 40038 83510 333 59010 70014 83616 87459==
41950,2023,06,19,18,00,AAXX 19184 41950 02450 60000 10263 20250 30036 40038 83510 333 59008 70014 83616 85459==
41950,2023,06,19,21,00,AAXX 19214 41950 02450 60000 10272 20270 30026 40028 83510 333 59002 70014 83616 85459==
41950,2023,06,20,00,00,AAXX 20004 41950 02450 50000 10274 20270 30028 40030 83530 333 59001 70014 83616 83362==
41950,2023,06,20,03,00,AAXX 20034 41950 02456 51804 10315 20280 30040 40042 85300 333 20263 58007 70014 84616 81928==
41950,2023,06,20,06,00,AAXX 20064 41950 02456 52103 10333 20260 30033 40036 85300 333 59007 70010 84617 81928==
41950,2023,06,20,09,00,AAXX 20094 41950 02450 61703 10327 20270 30015 40018 85471 333 59006 70000 84616 85459==
41950,2023,06,20,12,00,AAXX 20124 41950 02350 80000 10283 20250 30026 40028 8562/ 333 10338 58012 70000 82708 84616 88458==
41950,2023,06,20,15,00,AAXX 20154 41950 02450 61202 10286 20280 30029 40031 83510 333 59007 70000 83617 86459==
41950,2023,06,20,18,00,AAXX 20184 41950 02450 30000 10290 20280 30037 40039 83500 333 58001 70000 83617==
41950,2023,06,20,21,00,AAXX 20214 41950 02450 50000 10286 20280 30031 40033 83530 333 58005 70000 83617 83362==
41950,2023,06,21,00,00,AAXX 21004 41950 02450 30000 10283 20280 30028 40030 82530 333 58000 70000 82617==
41950,2023,06,21,03,00,AAXX 21034 41950 02450 61802 10320 20280 30040 40043 83570 333 20275 58000 70000 83617 85459==
41950,2023,06,21,06,00,AAXX 21064 41950 02350 81503 10307 20280 30039 40042 8562/ 333 58006 70000 82708 84616 88458==
41950,2023,06,21,09,00,AAXX 21094 41950 02350 81802 10293 20250 30022 40024 8562/ 333 58007 70000 82708 84616 88458==
41950,2023,06,21,12,00,AAXX 21124 41950 02350 80000 10303 20270 30018 40020 8562/ 333 10335 59008 70000 82708 84616 88458==
41950,2023,06,21,15,00,AAXX 21154 41950 02350 80000 10291 20270 30040 40042 8562/ 333 59011 70000 82708 84616 88458==
41950,2023,06,21,18,00,AAXX 21184 41950 02350 80000 10288 20280 30044 40046 8662/ 333 58007 70000 82708 85616 88458==
41950,2023,06,21,21,00,AAXX 21214 41950 02350 80000 10280 20270 30036 40038 8562/ 333 58005 70000 82708 84616 88458==
41950,2023,06,22,00,00,AAXX 22004 41950 02450 70000 10275 20270 30040 40042 84570 333 58012 70000 84617 86459==
41950,2023,06,22,03,00,AAXX 22034 41950 02450 81802 10300 20260 30046 40048 85670 333 20270 58016 70000 82708 84616 86459==
41950,2023,06,22,06,00,AAXX 22064 41950 02350 61702 10315 20250 30044 40046 83670 333 58005 70000 81708 83617 86459==
41950,2023,06,22,09,00,AAXX 22094 41950 02350 71803 10315 20270 30032 40035 85670 333 58010 70000 81708 84616 87459==
41950,2023,06,22,12,00,AAXX 22124 41950 02350 81802 10295 20260 30017 40019 8562/ 333 10325 59001 70000 82708 84616 88458==
41950,2023,06,22,15,00,AAXX 22154 41950 02450 30000 10282 20260 30034 40036 83530 333 59006 70000 83616==
41950,2023,06,22,18,00,AAXX 22184 41950 02950 00000 10277 20270 30044 40046 333 58000 70000==
41950,2023,06,22,21,00,AAXX 22214 41950 02350 60000 10277 20270 30038 40040 85610 333 58002 70000 81708 84616 86459==
41951,2023,06,16,00,00,AAXX 16004 41951 02340 81302 10298 20280 30001 40006 8562/ 333 58002 70374 81708 84618 88458==
41951,2023,06,16,03,00,AAXX 16034 41951 01440 71504 10314 20280 30013 40018 70162 83510 333 20238 58004 70005 83616 86458==
41951,2023,06,16,06,00,AAXX 16064 41951 11450 71808 10340 20280 30021 40026 69956 70262 83510 333 59001 70005 83618 86459==
41951,2023,06,16,09,00,AAXX 16094 41951 02456 61310 10342 20270 30008 40013 83510 333 58003 70005 83618 85459==
41951,2023,06,16,12,00,AAXX 16124 41951 02450 71808 10317 20280 39999 40004 83510 333 10345 58010 70005 83618 86459==
41951,2023,06,16,15,00,AAXX 16154 41951 01340 81304 10306 20280 30022 40027 71322 8662/ 333 58010 70005 81708 84618 88458 81929==
41951,2023,06,16,18,00,AAXX 16184 41951 02340 81305 10306 20280 30020 40025 8562/ 333 58016 70005 81708 84618 88458==
41951,2023,06,16,21,00,AAXX 16214 41951 02340 81303 10300 20280 30019 40024 8562/ 333 58017 70005 81708 84618 88459==
41951,2023,06,17,00,00,AAXX 17004 41951 02440 71803 10298 20280 30020 40025 83510 333 59019 70005 83618 86459==
41951,2023,06,17,03,00,AAXX 17034 41951 02450 61307 10322 20270 30031 40036 83510 333 20295 58018 70000 83616 85459==
41951,2023,06,17,06,00,AAXX 17064 41951 02456 61310 10336 20270 30033 40038 84510 333 58012 70000 83618 85459==
41951,2023,06,17,09,00,AAXX 17094 41951 02456 60708 10325 20260 30016 40021 83510 333 58008 70000 83618 85459==
41951,2023,06,17,12,00,AAXX 17124 41951 02440 80505 10305 20270 30020 40025 8452/ 333 10340 58021 70000 84618 88459==
41951,2023,06,17,15,00,AAXX 17154 41951 02440 80000 10294 20270 30057 40062 8452/ 333 58035 70000 84618 88458==
41951,2023,06,17,18,00,AAXX 17184 41951 02450 51504 10284 20260 30031 40036 82510 333 58011 70000 82618 84459==
41951,2023,06,17,21,00,AAXX 17214 41951 02440 61503 10282 20260 30032 40037 83510 333 58013 70000 83618 85459==
41951,2023,06,18,00,00,AAXX 18004 41951 02440 81302 10296 20280 30033 40038 8562/ 333 58013 70000 81708 84618 88458==
41951,2023,06,18,03,00,AAXX 18034 41951 02456 61804 10323 20280 30039 40044 83510 333 20280 58008 70000 83618 85459==
41951,2023,06,18,06,00,AAXX 18064 41951 02456 61503 10328 20260 30039 40044 83510 333 58006 70000 83618 85459==
41951,2023,06,18,09,00,AAXX 18094 41951 02340 81502 10288 20250 30019 40024 8562/ 333 58003 70000 81708 84618 88458==
41951,2023,06,18,12,00,AAXX 18124 41951 02450 81502 10289 20260 30012 40017 8562/ 333 10352 59008 70000 81708 84618 88458==
41951,2023,06,18,15,00,AAXX 18154 41951 02450 30000 10287 20280 30039 40044 83500 333 59018 70000 83618==
41951,2023,06,18,18,00,AAXX 18184 41951 02450 61302 10288 20280 30042 40047 83510 333 58011 70000 83618 85459==
41951,2023,06,18,21,00,AAXX 18214 41951 02450 61302 10285 20280 30040 40045 83510 333 58008 70000 83618 85459==
41951,2023,06,19,06,00,AAXX 19064 41951 01340 82903 10290 20260 30033 40037 71722 8692/ 333 59006 70000 81708 84618 88458 81925==
41951,2023,06,19,09,00,AAXX 19094 41951 01340 81302 10276 20260 30020 40024 70262 8562/ 333 58001 70016 81708 84618 88458==
41951,2023,06,19,12,00,AAXX 19124 41951 11340 81302 10273 20250 30009 40013 60026 70262 8562/ 333 10342 59003 70016 81708 84618 88458==
41951,2023,06,19,15,00,AAXX 19154 41951 02340 80000 10275 20260 30035 40040 8562/ 333 59004 70016 81708 84618 88458==
41951,2023,06,19,18,00,AAXX 19184 41951 02450 60000 10276 20270 30031 40035 83510 333 59011 70016 83618 85459==
41951,2023,06,19,21,00,AAXX 19214 41951 02450 50000 10270 20260 30028 40032 82510 333 59012 70016 82618 84459==
41951,2023,06,20,00,00,AAXX 20004 41951 02450 60000 10286 20280 30023 40027 83510 333 58001 70016 83618 85459==
41951,2023,06,20,03,00,AAXX 20034 41951 02456 61303 10316 20280 30037 40042 83510 333 20260 58001 70016 83616 85459==
41951,2023,06,20,06,00,AAXX 20064 41951 02450 71302 10310 20270 30038 40043 83510 333 58005 70016 83618 85459==
41951,2023,06,20,09,00,AAXX 20094 41951 02450 71307 10327 20280 30012 40017 83510 333 59008 70000 83618 86459==
41951,2023,06,20,12,00,AAXX 20124 41951 01330 83102 10283 20260 30022 40026 70396 8662/ 333 10333 58013 70030 82708 84616 88458==
41951,2023,06,20,15,00,AAXX 20154 41951 02340 81302 10292 20280 30031 40035 8562/ 333 59004 70030 81708 84618 88458==
41951,2023,06,20,18,00,AAXX 20184 41951 02440 70000 10287 20280 30032 40037 83510 333 58001 70030 83618 86459==
41951,2023,06,20,21,00,AAXX 20214 41951 02450 60000 10282 20280 30029 40033 83510 333 58001 70030 83618 85459==
41951,2023,06,21,00,00,AAXX 21004 41951 02450 60000 10285 20280 30027 40031 83510 333 58004 70030 83618 85459==
41951,2023,06,21,03,00,AAXX 21034 41951 02456 61504 10322 20270 30036 40041 83510 333 20272 59001 70030 83618 85459==
41951,2023,06,21,06,00,AAXX 21064 41951 01330 81502 10273 20260 30041 40046 76196 8672/ 333 58003 70030 82708 84616 88458==
41951,2023,06,21,09,00,AAXX 21094 41951 01456 61902 10300 20270 30019 40024 72162 83510 333 58007 70069 83618 85459==
41951,2023,06,21,12,00,AAXX 21124 41951 01450 60000 10306 20280 30014 40019 70262 83510 333 10332 59008 70089 83618 85459==
41951,2023,06,21,15,00,AAXX 21154 41951 02450 61302 10288 20270 30040 40044 83510 333 58009 70039 83618 85459==
41951,2023,06,21,18,00,AAXX 21184 41951 02440 72403 10282 20260 30043 40047 83510 333 58011 70039 83618 86459==
41951,2023,06,21,21,00,AAXX 21214 41951 02440 60000 10273 20260 30038 40043 83510 333 58009 70039 83618 85459==
41951,2023,06,22,00,00,AAXX 22004 41951 02440 80000 10276 20260 30035 40040 8452/ 333 58008 70039 84618 88458==
41951,2023,06,22,03,00,AAXX 22034 41951 02340 81303 10286 20270 30043 40048 8562/ 333 20265 58007 70039 81708 84616 88458==
41951,2023,06,22,06,00,AAXX 22064 41951 02456 61302 10304 20270 30041 40046 83510 333 58000 70011 83618 85459==
41951,2023,06,22,09,00,AAXX 22094 41951 02456 51505 10315 20270 30027 40032 82510 333 58008 70000 82618 84459==
41951,2023,06,22,12,00,AAXX 22124 41951 02450 60000 10292 20260 30019 40023 83510 333 10317 58005 70000 83618 85459==
41951,2023,06,22,15,00,AAXX 22154 41951 02950 00000 10280 20270 30033 40037 333 59007 70000==
41951,2023,06,22,18,00,AAXX 22184 41951 02950 00000 10278 20270 30039 40043 333 59004 70000==
41951,2023,06,22,21,00,AAXX 22214 41951 02450 30000 10273 20270 30032 40036 83500 333 59006 70000 83618==
41953,2023,06,16,00,00,AAXX 16004 41953 21440 81803 10285 20280 30013 40018 70262 8352/ 333 59001 60025 70060 83616 88458==
41953,2023,06,16,03,00,AAXX 16034 41953 02450 81803 10310 20280 30024 40029 8352/ 333 20237 58000 70030 83616 88458==
41953,2023,06,16,06,00,AAXX 16064 41953 02450 81805 10325 20290 30027 40032 8352/ 333 59001 70020 83616 88458==
41953,2023,06,16,09,00,AAXX 16094 41953 02450 81807 10330 20280 30014 40019 8352/ 333 58007 70020 83616 88458==
41953,2023,06,16,12,00,AAXX 16124 41953 02450 81806 10306 20280 30006 40011 8352/ 333 10330 58007 70020 83616 88458==
41953,2023,06,16,15,00,AAXX 16154 41953 02440 81805 10298 20280 30025 40030 8352/ 333 58014 70020 83616 88458==
41953,2023,06,16,18,00,AAXX 16184 41953 02440 81805 10295 20280 30028 40033 8352/ 333 58015 70020 83616 88458==
41953,2023,06,16,21,00,AAXX 16214 41953 02440 81805 10290 20270 30023 40028 8352/ 333 58018 70020 83616 88458==
41953,2023,06,17,00,00,AAXX 17004 41953 02440 81803 10285 20260 30030 40035 8352/ 333 58017 70000 83616 88458==
41953,2023,06,17,03,00,AAXX 17034 41953 01440 81803 10300 20280 30043 40048 70262 8352/ 333 20282 58019 70150 83616 88458==
41953,2023,06,17,09,00,AAXX 17094 41953 02450 81803 10300 20250 30028 40033 8352/ 333 58014 70150 83616 88458==
41953,2023,06,17,12,00,AAXX 17124 41953 02450 81304 10278 20260 30032 40037 8352/ 333 10310 58026 70150 83616 88458==
41953,2023,06,17,15,00,AAXX 17154 41953 02440 80000 10275 20260 30055 40060 8352/ 333 58030 70150 83616 88458==
41953,2023,06,17,18,00,AAXX 17184 41953 02440 81304 10270 20250 30035 40040 8352/ 333 58007 70150 83616 88458==
41953,2023,06,17,21,00,AAXX 17214 41953 02440 81304 10268 20260 30030 40035 8352/ 333 58007 70150 83616 88458==
41953,2023,06,18,00,00,AAXX 18004 41953 02440 81303 10270 20250 30045 40050 8352/ 333 58015 70150 83616 88458==
41953,2023,06,18,03,00,AAXX 18034 41953 02450 81305 10310 20280 30050 40055 8352/ 333 20260 58007 70000 83616 88458==
41953,2023,06,18,06,00,AAXX 18064 41953 02450 81303 10330 20280 30056 40061 8352/ 333 58013 70000 83616 88458==
41953,2023,06,18,09,00,AAXX 18094 41953 01440 80902 10260 20250 30033 40038 72992 8452/ 333 58005 70140 84616 88482==
41953,2023,06,18,15,00,AAXX 18154 41953 02430 80000 10264 20240 30045 40050 8452/ 333 59010 70140 84616 88458==
41953,2023,06,18,21,00,AAXX 18214 41953 02430 81302 10265 20260 30043 40048 8352/ 333 58013 70140 83616 88458==
41953,2023,06,19,00,00,AAXX 19004 41953 02440 61303 10276 20270 30037 40042 83520 333 59008 70140 83616 86458==
41953,2023,06,19,06,00,AAXX 19064 41953 21450 81805 10260 20240 30036 40041 70262 8452/ 333 59020 60048 70180 84615 88458==
41953,2023,06,19,09,00,AAXX 19094 41953 01440 81804 10268 20260 30031 40036 76162 8452/ 333 59002 70080 84614 88458==
41953,2023,06,19,12,00,AAXX 19124 41953 21440 80000 10266 20260 30021 40026 70266 8352/ 333 10316 59004 60079 70110 83616 88458==
41953,2023,06,19,15,00,AAXX 19154 41953 02430 81302 10260 20250 30041 40046 8352/ 333 59004 70110 83616 88458==
41953,2023,06,19,21,00,AAXX 19214 41953 02430 81301 10262 20250 30041 40046 8352/ 333 59002 70110 83616 88458==
41953,2023,06,20,00,00,AAXX 20004 41953 02440 80902 10270 20260 30035 40040 8352/ 333 59002 70110 83616 88458==
41953,2023,06,20,03,00,AAXX 20034 41953 02440 81302 10302 20270 30044 40049 8452/ 333 20256 58000 70110 84616 88458==
41953,2023,06,20,06,00,AAXX 20064 41953 21450 71306 10300 20260 30042 40047 70162 85320 333 58006 60118 70180 83615 86458 81930==
41953,2023,06,20,09,00,AAXX 20094 41953 02450 61805 10310 20260 30042 40047 83570 333 59008 70140 83616 84458==
41953,2023,06,20,12,00,AAXX 20124 41953 02440 82304 10280 20260 30035 40040 8452/ 333 10313 58014 70110 84616 88458==
41953,2023,06,20,15,00,AAXX 20154 41953 01430 81305 10277 20270 30035 40040 70262 8452/ 333 59006 70150 84616 88458==
41953,2023,06,20,18,00,AAXX 20184 41953 11430 81304 10276 20270 30042 40047 60046 70262 8452/ 333 59003 70150 84616 88458==
41953,2023,06,21,00,00,AAXX 21004 41953 02440 80000 10280 20270 30049 40045 8352/ 333 58005 70150 84616 88458==
41953,2023,06,21,03,00,AAXX 21034 41953 02450 71308 10326 20290 30047 40052 83520 333 20265 58003 70150 83616 86458==
41953,2023,06,21,06,00,AAXX 21064 41953 02450 71304 10338 20280 30043 40048 83510 333 58001 70040 83616 86458==
41953,2023,06,21,09,00,AAXX 21094 41953 02450 71802 10320 20270 30019 40024 84410 333 59004 70040 83616 86458==
41953,2023,06,21,12,00,AAXX 21124 41953 01440 80000 10278 20278 30024 40029 72922 8352/ 333 10340 59011 70290 83616 88458==
41953,2023,06,21,15,00,AAXX 21154 41953 02430 81303 10274 20260 30046 40051 8352/ 333 58011 70290 83616 88458==
41953,2023,06,21,18,00,AAXX 21184 41953 02430 81302 10270 20260 30050 40055 8352/ 333 58008 70290 83616 88458==
41953,2023,06,21,21,00,AAXX 21214 41953 02430 81301 10268 20260 30049 40054 8352/ 333 58005 70290 83616 88458==
41953,2023,06,22,00,00,AAXX 22004 41953 01440 81302 10266 20266 30048 40053 72122 8352/ 333 58008 70030 83616 88458==
41953,2023,06,22,03,00,AAXX 22034 41953 02440 81301 10296 20270 30053 40058 8352/ 333 20265 58006 70320 83616 88458==
41953,2023,06,22,06,00,AAXX 22064 41953 21440 81304 10280 20260 30053 40058 76162 8452/ 333 58010 60035 70350 84614 88458==
41953,2023,06,22,09,00,AAXX 22094 41953 02440 81303 10310 20270 30026 40031 8352/ 333 58007 70350 83616 88458==
41953,2023,06,22,12,00,AAXX 22123 41953 02440 81802 10296 20270 30021 40026 8452/ 333 10313 59003 70060 84616 88458==
41953,2023,06,22,15,00,AAXX 22154 41953 02430 81805 10280 20260 30038 40043 8452/ 333 59008 70060 84616 88458==
41953,2023,06,22,18,00,AAXX 22184 41953 02430 61804 10276 20270 30046 40051 83570 333 59004 70060 83616 84458==
41953,2023,06,22,21,00,AAXX 22214 41953 02430 81804 10276 20270 30044 40049 8352/ 333 59005 70060 83616 88458==
41955,2023,06,16,06,00,AAXX 16064 41955 NIL=
41955,2023,06,16,12,00,AAXX 16124 41955 NIL=
41955,2023,06,16,15,00,AAXX 16154 41955 NIL=
41955,2023,06,17,00,00,AAXX 17004 41955 NIL=
41955,2023,06,17,03,00,AAXX 17034 41955 NIL=
41955,2023,06,18,00,00,AAXX 18004 41955 NIL=
41955,2023,06,18,06,00,AAXX 18064 41955 NIL=
41955,2023,06,19,06,00,AAXX 19064 41955 NIL=
41955,2023,06,20,06,00,AAXX 20064 41955 NIL=
41955,2023,06,20,12,00,AAXX 20124 41955 NIL=
41955,2023,06,20,18,00,AAXX 20184 41955 NIL=
41955,2023,06,21,06,00,AAXX 21064 41955 NIL=
41955,2023,06,21,12,00,AAXX 21124 41955 NIL=
41955,2023,06,21,18,00,AAXX 21184 41955 NIL=
41955,2023,06,22,00,00,AAXX 22004 41955 NIL=
41955,2023,06,22,06,00,AAXX 22064 41955 NIL=
41955,2023,06,22,12,00,AAXX 22123 41955 NIL=
41955,2023,06,22,18,00,AAXX 22184 41955 NIL=
41958,2023,06,16,00,00,AAXX 16004 41958 32450 81803 10300 20290 39992 49994 8532/ 333 56499 58011 70022 84616 81930 88459=
41958,2023,06,16,03,00,AAXX 16034 41958 32457 61802 10338 20300 30007 40009 85410 333 20295 56490 58001 70002 84616 86459=
41958,2023,06,16,06,00,AAXX 16064 41958 32458 61803 10357 20290 30005 40007 85410 333 56490 58001 70000 84616 86459=
41958,2023,06,16,09,00,AAXX 16094 41958 32457 61702 10366 20310 39984 49986 83410 333 56490 59005 70000 83616 85459=
41958,2023,06,16,12,00,AAXX 16124 41958 32456 61703 10326 20290 39983 49985 83410 333 10366 56490 58005 70000 83616 85459=
41958,2023,06,16,15,00,AAXX 16154 41958 32440 31703 10300 20280 30005 40007 83400 333 56400 59002 70000 83616=
41958,2023,06,16,21,00,AAXX 16214 41958 32440 31702 10300 20290 30013 40015 83400 333 56400 58024 70000 83616=
41958,2023,06,17,00,00,AAXX 17004 41958 31450 81701 10298 20290 30011 40013 69924 71796 8592/ 333 56499 58019 70002 84616 81930 88458=
41958,2023,06,17,03,00,AAXX 17034 41958 32456 61702 10327 20290 30025 40027 83410 333 20294 56490 58018 70002 83616 85459=
41958,2023,06,17,09,00,AAXX 17094 41958 32457 61701 10352 20260 30000 40002 83410 333 56490 58016 70002 83616 85459=
41958,2023,06,17,12,00,AAXX 17124 41958 32456 61704 10322 20270 30016 40018 83410 333 10360 56490 58033 70002 84616 85459=
41958,2023,06,17,15,00,AAXX 17154 41958 32450 81303 10304 20280 30039 40041 8542/ 333 56399 58030 70002 84616 88458=
41958,2023,06,17,18,00,AAXX 17184 41958 32440 81703 10300 20290 30025 40027 8542/ 333 56499 58020 70002 84616 88458=
41958,2023,06,17,21,00,AAXX 17214 41958 32440 81701 10300 20290 30023 40025 8542/ 333 56499 58010 70002 84616 88458=
41958,2023,06,18,00,00,AAXX 18004 41958 32450 81701 10300 20290 30021 40023 8542/ 333 56499 58010 70000 84616 88458=
41958,2023,06,18,03,00,AAXX 18034 41958 32456 81702 10315 20290 30033 40035 8442/ 333 20294 56499 58012 70000 84616 88458=
41958,2023,06,18,06,00,AAXX 18064 41958 31430 80000 10257 20250 30040 40042 60252 79596 8592/ 333 56999 58006 70250 84616 81930 88458=
41958,2023,06,18,12,00,AAXX 18124 41958 31450 81301 10308 20300 40007 40009 8542/ 333 10315 56399 59009 70254 84615 88458=
41958,2023,06,19,06,00,AAXX 19064 41958 32450 82601 10294 20260 30030 40032 8542/ 333 56799 59010 70004 84616 88458=
41958,2023,06,19,09,00,AAXX 19094 41958 32450 80000 10294 20260 30014 40016 8542/ 333 56999 58006 70000 84616 88458=
41958,2023,06,19,15,00,AAXX 19154 41958 32450 81701 10276 20260 30017 40019 8542/ 333 56499 59010 70000 84616 88458=
41958,2023,06,19,21,00,AAXX 19214 41958 32440 61701 10286 20286 30021 40023 83410 333 56490 59009 70000 83616 85459=
41958,2023,06,20,00,00,AAXX 20004 41958 32450 60000 10283 20280 30011 40013 83510 333 56990 59012 70000 83616 85459=
41958,2023,06,20,03,00,AAXX 20034 41958 32456 51701 10340 20280 30027 40029 83410 333 20262 56490 59005 70000 83616 84459=
41958,2023,06,20,06,00,AAXX 20064 41958 32457 61701 10370 20280 30017 40019 83410 333 56490 59013 70000 83616 84459=
41958,2023,06,20,09,00,AAXX 20094 41958 31450 83103 10300 20280 30013 40015 71722 8592/ 333 56799 59001 70000 84616 81930 88458=
41958,2023,06,20,12,00,AAXX 20124 41958 31450 80000 10294 20280 30002 40004 60086 70296 8452/ 333 10370 56999 59001 70076 84616 88458=
41958,2023,06,20,15,00,AAXX 20154 41958 32450 81702 10296 20290 30021 40023 8452/ 333 56499 58004 70076 84616 88458=
41958,2023,06,20,18,00,AAXX 20184 41958 32440 81701 10292 20280 30031 40033 8442/ 333 56499 58014 70076 84616 88458=
41958,2023,06,20,21,00,AAXX 20214 41958 32440 60000 10291 20280 30024 40026 83410 333 56990 58003 70076 83616 85458=
41958,2023,06,21,00,00,AAXX 21004 41958 32450 60000 10290 20280 30019 40021 83410 333 56990 58008 70076 83616 85459=
41958,2023,06,21,03,00,AAXX 21034 41958 32456 61702 10338 20310 30027 40029 83410 333 20266 56490 58000 70076 83616 85459=
41958,2023,06,21,06,00,AAXX 21064 41958 31450 80000 10347 20290 30025 40027 71702 8592/ 333 56999 58008 70076 84616 81929 88458=
41958,2023,06,21,09,00,AAXX 21094 41958 31430 80000 10297 20290 30007 40009 79596 8592/ 333 56999 59006 6056/ 70636 84616 81929 88458=
41958,2023,06,21,12,00,AAXX 21124 41958 31450 80000 10302 20290 30013 40015 60566 70296 8542/ 333 10360 56999 58011 70560 84616 88458=
41958,2023,06,21,15,00,AAXX 21154 41958 32440 81702 10292 20280 30025 40027 8542/ 333 56499 58004 70560 84616 88458=
41958,2023,06,21,18,00,AAXX 21184 41958 32440 80000 10288 20288 30036 40038 8542/ 333 56999 58003 70560 84616 88458=
41958,2023,06,21,21,00,AAXX 21214 41958 32440 61701 10286 20280 30020 40022 83410 333 56490 59004 70560 83616 85459=
41958,2023,06,22,00,00,AAXX 22004 41958 32450 61701 10285 20280 30014 40016 83410 333 56490 59005 70560 83616 85459=
41958,2023,06,22,03,00,AAXX 22034 41958 32450 81301 10314 20280 30031 40033 8452/ 333 20270 56390 58004 70560 84616 88458=
41958,2023,06,22,06,00,AAXX 22064 41958 31450 81701 10292 20280 30037 40039 60026 72196 8592/ 333 56490 58012 70584 84616 81929 88458=
41958,2023,06,22,09,00,AAXX 22094 41958 21430 80000 10290 20280 30023 40025 76266 8542/ 333 56999 58016 6001/ 70038 84646 88458=
41958,2023,06,22,12,00,AAXX 22123 41958 11450 61701 10288 20270 30011 40013 60015 70162 83410 333 10320 56490 59002 70038 83616 85459=
41958,2023,06,22,15,00,AAXX 22154 41958 32950 01301 10274 20260 30013 40015 333 59012 70038=
41958,2023,06,22,18,00,AAXX 22184 41958 32440 30000 10272 30260 30028 40030 83500 333 56900 59008 70038 83616=
41958,2023,06,22,21,00,AAXX 22214 41958 32440 61701 10273 20270 30018 40020 83410 333 56490 59002 70038 83616 85459=
41960,2023,06,16,00,00,AAXX 16004 41960 42440 81802 10298 20280 30009 40011 8632/ 333 58002 84618 88459 81930==
41960,2023,06,16,03,00,AAXX 16034 41960 02450 71804 10322 20290 30020 40022 84410 333 20266 59002 70000 83618 87459==
41960,2023,06,16,06,00,AAXX 16064 41960 02457 61506 10342 20280 30026 40027 84410 333 58001 70000 83618 86459==
41960,2023,06,16,09,00,AAXX 16094 41960 02457 71808 10335 20280 30012 40013 85470 333 58007 70000 83618 85459==
41960,2023,06,16,12,00,AAXX 16124 41960 02450 71606 10319 20280 30004 40006 85410 333 10343 58006 70000 83618 85459==
41960,2023,06,16,15,00,AAXX 16154 41960 02450 61804 10305 20290 30020 40022 84410 333 58008 70000 83618 86459==
41960,2023,06,16,18,00,AAXX 16184 41960 02440 61804 10303 20280 30022 40024 84410 333 58012 70000 83618 86459==
41960,2023,06,16,21,00,AAXX 16214 41960 02440 71808 10302 20280 30025 40027 84410 333 58016 70000 83618 87459==
41960,2023,06,17,00,00,AAXX 17004 41960 02440 81802 10301 20280 30029 40031 8632/ 333 58020 70000 84618 88459 81930==
41960,2023,06,17,03,00,AAXX 17034 41960 02450 81804 10319 20290 30041 40043 8542/ 333 20297 58021 70000 84618 88459==
41960,2023,06,17,09,00,AAXX 17094 41960 42456 81802 10330 20270 30012 40014 8542/ 333 58000 84618 88459==
41960,2023,06,17,12,00,AAXX 17124 41960 42450 81802 10310 20280 30028 40030 8542/ 333 10330 58004 84618 88459==
41960,2023,06,17,15,00,AAXX 17154 41960 42450 81802 10297 20290 30048 40050 8542/ 333 58028 84618 88459==
41960,2023,06,17,18,00,AAXX 17184 41960 01430 81602 10293 20280 30046 40048 76122 8542/ 333 58024 70000 84617 88458==
41960,2023,06,17,21,00,AAXX 17214 41960 01430 82304 10294 20280 30033 40035 70262 8542/ 333 58008 70002 84617 88459==
41960,2023,06,18,00,00,AAXX 18004 41960 11440 81802 10295 20290 30039 40041 69926 70262 8542/ 333 58010 70002 84617 88459==
41960,2023,06,18,03,00,AAXX 18034 41960 01340 81806 10310 20290 30047 40049 76122 8672/ 333 20285 58006 70004 81708 84617 88459==
41960,2023,06,18,06,00,AAXX 18064 41960 01440 71812 10288 20250 30056 40058 72162 84470 333 58015 70005 83618 85459==
41960,2023,06,18,09,00,AAXX 18094 41960 02450 81804 10301 20250 30022 40024 8542/ 333 58010 70005 84617 88459==
41960,2023,06,18,12,00,AAXX 18124 41960 02450 71802 10301 20270 30019 40021 84410 333 10315 59009 70005 83618 87458==
41960,2023,06,18,15,00,AAXX 18154 41960 02450 70000 10290 20280 30041 40043 84470 333 59007 70005 83618 85459==
41960,2023,06,18,18,00,AAXX 18184 41960 02440 51801 10290 20280 30044 40046 84410 333 59002 70005 83618 85459==
41960,2023,06,19,06,00,AAXX 19064 41960 01330 81808 10277 20260 30050 40052 79522 8692/ 333 59006 70008 81708 84617 88458 81929==
41960,2023,06,19,12,00,AAXX 19124 41960 21450 81801 10270 20260 30017 40019 70296 8542/ 333 10342 59002 60098 70096 84616 88459==
41960,2023,06,19,15,00,AAXX 19154 41960 02450 50000 10274 20260 30033 40035 84410 333 59008 70096 83618 85459==
41960,2023,06,19,18,00,AAXX 19184 41960 02440 41801 10273 20270 30035 40037 84400 333 59009 70096 83618==
41960,2023,06,19,21,00,AAXX 19214 41960 02440 42702 10276 20276 30032 40034 84400 333 58007 70096 83618==
41960,2023,06,20,00,00,AAXX 20004 41960 02/40 30000 10279 20279 30029 40031 83030 333 59005 70096 83362==
41960,2023,06,20,03,00,AAXX 20034 41960 02450 51801 10302 20290 30042 40044 84411 333 20258 58001 70096 83618 85459==
41960,2023,06,20,06,00,AAXX 20064 41960 01330 81802 10307 20290 30039 40041 76162 8672/ 333 59011 70040 81708 84617 88458==
41960,2023,06,20,09,00,AAXX 20094 41960 01456 41802 10336 20280 30017 40019 70162 84410 333 59007 70038 83618==
41960,2023,06,20,12,00,AAXX 20124 41960 11450 81501 10313 20280 30026 40028 69926 70362 8542/ 333 10342 58009 70038 84617 88459==
41960,2023,06,20,15,00,AAXX 20154 41960 02440 81801 10293 20280 30033 40034 8542/ 333 59001 70038 84617 88459==
41960,2023,06,20,18,00,AAXX 20184 41960 02440 81801 10290 20280 30037 40039 8542/ 333 59002 70038 84617 88459==
41960,2023,06,20,21,00,AAXX 20214 41960 02440 71602 10286 20286 30035 40037 84470 333 58003 70038 83618 85459==
41960,2023,06,21,00,00,AAXX 21004 41960 02440 61501 10282 20282 30033 40035 84470 333 58004 70038 83618 85459==
41960,2023,06,21,03,00,AAXX 21034 41960 02450 31601 10323 20280 30041 40043 83410 333 20278 59001 70038 82618==
41960,2023,06,21,06,00,AAXX 21064 41960 01450 81802 10309 20270 30041 40043 71722 8592/ 333 58002 70002 83618 88459 81930==
41960,2023,06,21,09,00,AAXX 21094 41960 01450 81501 10293 20280 30023 40025 70296 8542/ 333 58006 70002 84617 88459==
41960,2023,06,21,12,00,AAXX 21124 41960 11450 61602 10310 20290 30020 40022 69926 70196 84411 333 10337 59006 70002 83618 86459==
41960,2023,06,21,15,00,AAXX 21154 41960 02450 71801 10291 20280 30041 40043 84470 333 58009 70002 83618 85459==
41960,2023,06,21,18,00,AAXX 21184 41960 02440 52502 10286 20280 30048 40050 84410 333 58011 70002 83618 85459==
41960,2023,06,21,21,00,AAXX 21214 41960 02440 61802 10280 20270 30041 40043 84410 333 58006 70002 83618 86459==
41960,2023,06,22,00,00,AAXX 22004 41960 02440 80000 10273 20270 30035 40037 8542/ 333 58002 70002 84618 88459==
41960,2023,06,22,03,00,AAXX 22034 41960 01450 31402 10296 20280 30046 40048 70161 83400 333 20267 58005 70002 82618==
41960,2023,06,22,06,00,AAXX 22064 41960 11456 81606 10309 20270 30049 40051 60001 70362 8542/ 333 58008 70002 83618 88459==
41960,2023,06,22,09,00,AAXX 22094 41960 42457 71802 10309 20270 30032 40034 84470 333 58009 83618 85459==
41960,2023,06,22,12,00,AAXX 22123 41960 42450 81501 10291 20270 30020 40022 8542/ 333 10317 58000 84617 88459==
41960,2023,06,22,15,00,AAXX 22154 41960 42450 81801 10280 20270 30034 40036 8542/ 333 59007 84617 88459==
41960,2023,06,22,18,00,AAXX 22184 41960 42440 50000 10275 20275 30043 40045 84410 333 59005 83618 85459==
41960,2023,06,22,21,00,AAXX 22214 41960 42440 50000 10275 20275 30034 40036 84410 333 59007 83618 85459==
41963,2023,06,16,00,00,AAXX 16004 41963 02440 61801 10300 20290 30026 40029 82510 333 58019 70050 82618 86458==
41963,2023,06,16,03,00,AAXX 16034 41963 02456 61803 10315 20280 30033 40035 82510 333 20260 59004 70030 82618 86458==
41963,2023,06,16,06,00,AAXX 16064 41963 02456 61803 10330 20290 30030 40032 82510 333 59004 70000 82618 86458==
41963,2023,06,16,09,00,AAXX 16094 41963 02456 61803 10330 20290 30030 40032 82510 333 59004 70000 82618 86458==
41963,2023,06,16,12,00,AAXX 16124 41963 02450 61804 10305 20280 30020 40023 82510 333 58013 70000 82618 86458==
41963,2023,06,16,15,00,AAXX 16154 41963 02440 61803 10300 20290 30031 40034 82510 333 58014 70000 82618 86458==
41963,2023,06,17,00,00,AAXX 17004 41963 01440 61801 10292 20290 30035 40037 70262 82510 333 58009 70010 82618 86458==
41963,2023,06,17,03,00,AAXX 17034 41963 02456 61802 10315 20280 30043 40045 82510 333 20286 58010 70010 82618 86458==
41963,2023,06,17,09,00,AAXX 17094 41963 02356 81805 10290 20280 30035 40037 8372/ 333 58011 70010 82708 83616 88458==
41963,2023,06,17,12,00,AAXX 17124 41963 02350 81806 10280 20240 30032 40034 8372/ 333 10320 58012 70000 82708 83616 88458==
41963,2023,06,17,15,00,AAXX 17154 41963 02450 51803 10280 20260 30046 40048 82510 333 58015 70010 82618 85458==
41963,2023,06,18,00,00,AAXX 18004 41963 02340 81801 10280 20260 30041 40044 8372/ 333 58006 70000 82618 83616 88458==
41963,2023,06,18,06,00,AAXX 18064 41963 02456 40000 10313 20260 30049 40052 84400 333 58009 70000 82617 82825==
41963,2023,06,18,09,00,AAXX 18094 41963 01456 61602 10266 20250 30030 40033 72196 83570 333 59005 70030 83617 84459==
41963,2023,06,19,00,00,AAXX 19004 41963 02456 31602 10288 20280 30037 40041 83400 333 59006 70030 82818==
41963,2023,06,19,06,00,AAXX 19064 41963 01356 80000 10266 20260 30047 40050 79596 8432/ 333 59002 70070 82712 83615 88458 81928==
41963,2023,06,19,09,00,AAXX 19094 41963 01356 80000 10254 20254 30037 40040 79596 8432/ 333 58007 70540 82710 83615 88458 81928==
41963,2023,06,19,12,00,AAXX 19124 41963 21356 80000 10263 20263 30026 40029 70196 8472/ 333 10313 59003 60518 70510 82712 83615 88459==
41963,2023,06,19,15,00,AAXX 19154 41963 02450 80000 10270 20270 30039 40042 8472/ 333 59010 70580 82712 83615 88458==
41963,2023,06,19,21,00,AAXX 19214 41963 02450 61802 10274 20260 30043 40046 83570 333 59008 70580 83617 83459==
41963,2023,06,20,00,00,AAXX 20004 41963 02456 30000 10285 20270 30034 40037 83400 333 59003 70580 82617==
41963,2023,06,20,03,00,AAXX 20034 41963 02456 51804 10308 20280 30045 40048 84440 333 20250 58000 70580 82618 83363==
41963,2023,06,20,06,00,AAXX 20064 41963 02456 51604 10310 20280 30045 40047 85400 333 59002 70510 83617 83825==
41963,2023,06,20,09,00,AAXX 20094 41963 02456 41805 10308 20270 30027 40029 82560 333 59010 70040 82618 83363==
41963,2023,06,20,12,00,AAXX 20124 41963 02456 40000 10303 20280 30035 40037 82530 333 10325 58009 70000 82618 83363==
41963,2023,06,20,15,00,AAXX 20154 41963 02450 21803 10293 20280 30039 40042 82500 333 58000 70000 82618==
41963,2023,06,20,18,00,AAXX 20184 41963 02450 20000 10282 20270 30041 40044 82500 333 59006 70000 82618==
41963,2023,06,20,21,00,AAXX 20214 41963 02450 20000 10280 20270 30036 40039 82500 333 59006 70000 82618==
41963,2023,06,21,00,00,AAXX 21004 41963 02556 20000 10278 20278 30040 40043 82100 333 58006 70000 82825==
41963,2023,06,21,03,00,AAXX 21034 41963 01456 31803 10310 20280 30044 40046 70362 83400 333 20272 59001 70000 82618==
41963,2023,06,21,06,00,AAXX 21064 41963 11456 30000 10327 20270 30045 40047 60006 70262 83400 333 58000 70000 82618==
41963,2023,06,21,09,00,AAXX 21094 41963 02456 41803 10324 20270 30026 40028 82560 333 59001 70000 82618 83363==
41963,2023,06,21,12,00,AAXX 21124 41963 02456 42102 10300 20270 30032 40035 81560 333 10330 59003 70000 81618 84363==
41963,2023,06,21,15,00,AAXX 21154 41963 01450 20000 10284 20260 30048 40050 71321 82900 333 58009 70000 81618 81928==
41963,2023,06,21,18,00,AAXX 21184 41963 NIL=
41963,2023,06,21,21,00,AAXX 21214 41963 02450 61602 10272 20260 30048 40051 83570 333 58012 70000 83618 84459==
41963,2023,06,22,00,00,AAXX 22004 41963 01356 81804 10275 20260 30045 40048 70362 8572/ 333 58005 70030 82712 83615 88458==
41963,2023,06,22,03,00,AAXX 22034 41963 01356 80000 10272 20260 30053 40056 76062 8471/ 333 20268 58009 70170 82712 83616 88459==
41963,2023,06,22,06,00,AAXX 22064 41963 01456 80000 10290 20280 30052 40055 76062 8351/ 333 58007 70220 83617 88459==
41963,2023,06,22,09,00,AAXX 22094 41963 01456 61803 10293 20260 30031 40034 70162 83460 333 58005 70230 81618 84362==
41963,2023,06,22,12,00,AAXX 22123 41963 11456 61601 10292 20270 30027 40030 60016 70262 81560 333 10314 59005 70230 81618 85362==
41963,2023,06,22,15,00,AAXX 22154 41963 02450 11803 10287 20270 30041 40044 81500 333 59007 70230 81620==
41963,2023,06,22,18,00,AAXX 22184 41963 02450 31802 10284 20260 30038 40041 81530 333 59016 70230 81618 83363==
41963,2023,06,22,21,00,AAXX 22214 41963 01456 60000 10272 20270 30036 40039 72162 83570 333 59012 70350 83617 84459==
41964,2023,06,16,00,00,AAXX 16004 41964 01356 81505 10296 20290 30014 40016 76122 8672/ 333 58003 70002 83708 85417 88458==
41964,2023,06,16,03,00,AAXX 16034 41964 01357 82306 10310 20290 30032 40025 70262 8662/ 333 59029 70428 83709 84618 88459==
41964,2023,06,16,06,00,AAXX 16064 41964 11358 82108 10321 20280 30027 40029 69966 70262 8662/ 333 58003 70008 82709 85618 88460==
41964,2023,06,16,09,00,AAXX 16094 41964 02458 82001 10308 20290 30015 40017 8452/ 333 58006 70008 84618 88460==
41964,2023,06,16,12,00,AAXX 16124 41964 02458 82104 10298 20280 30008 40010 8652/ 333 10324 58006 70008 86618 88460==
41964,2023,06,16,15,00,AAXX 16154 41964 02458 51704 10292 20270 30023 40025 85500 333 58010 70008 85618==
41964,2023,06,16,18,00,AAXX 16184 41964 01458 71604 10291 20270 30030 40032 71322 85310 333 58019 70008 84618 85460 81930==
41964,2023,06,16,21,00,AAXX 16214 41964 02458 71803 10288 20280 30027 40029 85510 333 58015 70008 85618 86460==
41964,2023,06,17,00,00,AAXX 17004 41964 01356 81606 10290 20270 30022 40025 79592 8632/ 333 58008 70000 83708 84617 88458 81928==
41964,2023,06,17,03,00,AAXX 17034 41964 01350 81907 10286 20280 30039 40041 79596 8632/ 333 20281 58016 70072 83708 84617 88458 81928==
41964,2023,06,17,09,00,AAXX 17094 41964 01357 81405 10264 20250 30031 40034 70296 8662/ 333 58016 70114 82709 85617 88460==
41964,2023,06,17,12,00,AAXX 17124 41964 11457 81706 10272 20250 30026 40029 60026 70296 8452/ 333 10293 58018 70114 84618 88460==
41964,2023,06,17,15,00,AAXX 17154 41964 02457 70000 10268 20260 30050 40053 84510 333 58027 70114 84618 87460==
41964,2023,06,17,18,00,AAXX 17184 41964 02457 41502 10256 20250 30041 40043 82510 333 58011 70114 82618 83460==
41964,2023,06,17,21,00,AAXX 17214 41964 02457 40000 10263 20250 30042 40044 82510 333 58015 70114 82617 83460==
41964,2023,06,18,00,00,AAXX 18004 41964 02458 81403 10280 20260 30040 40043 8352/ 333 58018 70114 83618 88460==
41964,2023,06,18,03,00,AAXX 18034 41964 02457 51607 10310 20270 30047 40050 83510 333 20251 58008 70042 83618 84460==
41964,2023,06,18,06,00,AAXX 18064 41964 02458 51507 10323 20300 30046 40049 83502 333 58007 70018 83618 83080==
41964,2023,06,18,09,00,AAXX 18094 41964 01458 81602 10258 20250 30033 40035 72922 8432/ 333 58002 70044 83618 88458 81928==
41964,2023,06,18,21,00,AAXX 18214 41964 02557 60000 10288 20280 30038 40041 84410 333 59004 70044 83620 84460==
41964,2023,06,19,00,00,AAXX 19004 41964 02457 62102 10290 20280 30031 40034 85802 333 59009 70044 83618 83825==
41964,2023,06,19,06,00,AAXX 19064 41964 01356 81402 10292 20280 30037 40040 79596 8632/ 333 59009 70302 83709 83616 88456 81928==
41964,2023,06,19,09,00,AAXX 19094 41964 01350 81603 10260 20260 30031 40034 79596 8632/ 333 59002 70708 85708 85616 88458 81928==
41964,2023,06,19,12,00,AAXX 19124 41964 21357 80000 10260 20260 30017 40019 72196 8662/ 333 10315 59001 60509 70760 82709 85617 88458==
41964,2023,06,19,15,00,AAXX 19154 41964 02457 80000 10264 20250 30034 40036 8552/ 333 59005 70760 85617 88460==
41964,2023,06,19,18,00,AAXX 19184 41964 02457 40000 10262 20262 30032 40034 84500 333 59009 70760 84618==
41964,2023,06,19,21,00,AAXX 19214 41964 02457 50000 10264 20250 30030 40032 83530 333 59008 70760 83618 83362==
41964,2023,06,20,00,00,AAXX 20004 41964 02458 51402 10273 20260 30028 40030 81531 333 59003 70760 81618 83362==
41964,2023,06,20,03,00,AAXX 20034 41964 02457 51506 10307 20280 30040 40042 85500 333 20251 58001 70502 85617==
41964,2023,06,20,06,00,AAXX 20064 41964 02457 61601 10325 20290 30043 40046 84510 333 58006 70502 84618 85460==
41964,2023,06,20,09,00,AAXX 20094 41964 02458 32106 10323 20270 30016 40019 82530 333 59015 70052 82618==
41964,2023,06,20,12,00,AAXX 20124 41964 02458 51902 10303 20280 30022 40024 82502 333 10327 58005 70000 82618 84080==
41964,2023,06,20,15,00,AAXX 20154 41964 02458 51802 10293 20280 30034 40036 83530 333 58000 70000 83618 83362==
41964,2023,06,20,18,00,AAXX 20184 41964 02458 51503 10290 20270 30035 40037 84530 333 58003 70000 84618==
41964,2023,06,20,21,00,AAXX 20214 41964 02457 51602 10288 20280 30032 40034 84510 333 58002 70000 84618 83460==
41964,2023,06,21,00,00,AAXX 21004 41964 01356 80000 10284 20270 30030 40033 76122 8672/ 333 58002 70003 83708 85617 88460==
41964,2023,06,21,03,00,AAXX 21034 41964 02557 61604 10310 20280 30034 40037 85830 333 20278 59006 70003 83620 83825==
41964,2023,06,21,06,00,AAXX 21064 41964 02457 51602 10320 20270 30039 40042 83510 333 59004 70003 83620 84460==
41964,2023,06,21,09,00,AAXX 21094 41964 02558 62106 10324 20280 30023 40025 85402 333 58007 70003 84620 83080==
41964,2023,06,21,12,00,AAXX 21124 41964 02558 61605 10301 20270 30020 40022 83402 333 10335 59002 70003 82620 85080==
41964,2023,06,21,15,00,AAXX 21154 41964 01458 61804 10291 20270 30043 40045 71322 84302 333 58009 70003 83618 85080 81930==
41964,2023,06,21,18,00,AAXX 21184 41964 02457 61602 10288 20270 30042 40044 84510 333 58007 70003 84618 83460==
41964,2023,06,21,21,00,AAXX 21214 41964 01350 81504 10273 20260 30037 40040 79596 8632/ 333 58005 70253 85708 84616 88458 81928==
41964,2023,06,22,00,00,AAXX 22004 41964 21357 81504 10272 20260 30039 40042 70296 8662/ 333 58009 60258 70250 82709 85617 88460==
41964,2023,06,22,03,00,AAXX 22034 41964 01357 71403 10289 20270 30045 40047 70162 8661/ 333 20263 58011 70318 82709 85618 87460==
41964,2023,06,22,06,00,AAXX 22064 41964 11457 51501 10318 20270 30046 40049 60076 70162 83510 333 58007 70318 83620 84460==
41964,2023,06,22,09,00,AAXX 22094 41964 02558 72103 10308 20270 30027 40029 86810 333 58004 70318 84620 83825 86460==
41964,2023,06,22,12,00,AAXX 22123 41964 02558 61902 10296 20270 30019 40021 83432 333 10323 59001 70318 82620 85080==
41964,2023,06,22,15,00,AAXX 22154 41964 02457 61802 10285 20270 30034 40036 82512 333 59009 70318 82618 86460==
41964,2023,06,22,18,00,AAXX 22184 41964 02457 51502 10280 20270 30039 40042 85500 333 59003 70318 85618==
41964,2023,06,22,21,00,AAXX 22214 41964 02557 61402 10280 20270 30035 40038 85430 333 59002 70068 84620 83362==
41965,2023,06,16,00,00,AAXX 16004 41965 02450 82202 10270 20240 30010 40018 84610 333 59007 70380 83618 88460==
41965,2023,06,16,03,00,AAXX 16034 41965 02450 82202 10280 20230 30020 40028 84610 333 20260 59005 70320 81710 83618 88460==
41965,2023,06,16,06,00,AAXX 16064 41965 02456 80000 10300 20230 30000 40008 84610 333 58000 70020 83618 88460==
41965,2023,06,16,09,00,AAXX 16094 41965 02450 60000 10315 20230 39998 40006 83310 333 58005 70000 83618 86460 81928==
41965,2023,06,16,12,00,AAXX 16124 41965 02450 82202 10300 20220 39998 40006 84610 333 10320 58000 70000 83618 88460==
41965,2023,06,16,15,00,AAXX 16154 41965 NIL=
41965,2023,06,17,00,00,AAXX 17004 41965 02450 81402 10280 20240 30005 40013 84310 333 59003 70000 81710 83618 88460 81928==
41965,2023,06,17,03,00,AAXX 17034 41965 01440 82202 10290 20230 30012 40020 79722 84310 333 20270 59005 70060 81710 83618 88460 81928==
41965,2023,06,17,09,00,AAXX 17094 41965 02450 80000 10260 20230 30080 40088 83310 333 58020 71260 81710 83618 88460 81928==
41965,2023,06,17,12,00,AAXX 17124 41965 02450 80000 10270 20220 30070 40078 84610 333 10280 58022 71260 83618 88460==
41965,2023,06,18,00,00,AAXX 18004 41965 NIL=
41965,2023,06,18,03,00,AAXX 18034 41965 02450 50000 10290 20220 30055 40063 84410 333 20250 58013 71200 82618 84460==
41965,2023,06,18,06,00,AAXX 18064 41965 02456 51302 10325 20230 30047 40055 84410 333 58015 70000 82618 84460==
41965,2023,06,18,09,00,AAXX 18094 41965 02456 51402 10325 20240 30041 40050 84410 333 58020 70000 82618 84460==
41965,2023,06,18,12,00,AAXX 18124 41965 21430 80000 10260 20240 30041 40049 79796 8432/ 333 10330 58020 60357 70350 81710 83618 88460 81938==
41965,2023,06,19,06,00,AAXX 19064 41965 02450 81403 10310 20240 30036 40044 8332/ 333 59011 70350 83618 88460==
41965,2023,06,19,09,00,AAXX 19094 41965 01430 82202 10260 20240 30027 40035 79796 8432/ 333 59007 70300 81710 83618 88460 81928==
41965,2023,06,19,12,00,AAXX 19124 41965 21450 80000 10270 20240 30027 40035 70296 8432/ 333 10280 59005 60388 70380 83618 88460==
41965,2023,06,20,00,00,AAXX 20004 41965 02450 52202 10265 20250 30037 40045 84410 333 58000 70380 82618 84460==
41965,2023,06,20,03,00,AAXX 20034 41965 02450 61502 10300 20220 30045 40053 84410 333 20260 58000 70380 83618 84460==
41965,2023,06,20,06,00,AAXX 20064 41965 02456 51403 10320 20220 30036 40044 84410 333 58000 70380 82618 84460==
41965,2023,06,20,09,00,AAXX 20094 41965 02456 51302 10330 20230 30032 40040 84410 333 58003 70080 82618 84460==
41965,2023,06,20,12,00,AAXX 20124 41965 02450 50000 10300 20220 30032 40040 84410 333 10338 59003 70000 82618 84460==
41965,2023,06,20,18,00,AAXX 20184 41965 NIL=
41965,2023,06,21,00,00,AAXX 21004 41965 02450 50000 10280 20260 30039 40047 84410 333 58002 70000 82618 84460==
41965,2023,06,21,03,00,AAXX 21034 41965 02450 51402 10310 20230 30047 40055 84410 333 20270 58002 70000 82618 84460==
41965,2023,06,21,06,00,AAXX 21064 41965 02456 51402 10330 20220 30035 40043 84410 333 59002 70000 82618 84460==
41965,2023,06,21,09,00,AAXX 21094 41965 02456 50000 10330 20220 30027 40035 84410 333 59003 70000 82618 84460==
41965,2023,06,21,12,00,AAXX 21124 41965 02550 52202 10310 20230 30027 40035 84410 333 10340 59002 70000 82618 84460==
41965,2023,06,21,18,00,AAXX 21184 41965 NIL=
41965,2023,06,22,00,00,AAXX 22004 41965 NIL=
41965,2023,06,22,03,00,AAXX 22034 41965 01450 82202 10280 20250 30055 40063 70262 8461/ 333 20260 58008 70050 81710 83618 88460==
41965,2023,06,22,06,00,AAXX 22064 41965 NIL=
41965,2023,06,22,09,00,AAXX 22094 41965 02456 50000 10330 20230 30035 40043 84410 333 58007 70050 82618 84460==
41965,2023,06,22,12,00,AAXX 22123 41965 02450 80000 10310 20230 30035 40043 84610 333 58007 70050 83618 88460==
41965,2023,06,22,18,00,AAXX 22184 41965 NIL=
41966,2023,06,16,00,00,AAXX 16004 41966 02440 60000 10266 20240 39960 40038 83510 333 58007 70276 83616 85460==
41966,2023,06,16,03,00,AAXX 16034 41966 01440 80000 10298 20270 39981 40059 70362 8352/ 333 20260 58014 70274 83616 88460==
41966,2023,06,16,06,00,AAXX 16064 41966 11450 80000 10290 20250 39971 40049 60082 70262 8352/ 333 58007 70094 83616 88460==
41966,2023,06,16,12,00,AAXX 16124 41966 02440 60901 10300 20240 39948 40025 83510 333 10315 58004 70084 83616 85460==
41966,2023,06,16,15,00,AAXX 16154 41966 02430 60000 10290 20240 39952 40029 82510 333 58001 70084 82616 85460==
41966,2023,06,16,21,00,AAXX 16211 41966 01430 80000 10268 20240 39955 40034 70262 8352/ 333 58001 70102 83616 88460==
41966,2023,06,17,00,00,AAXX 17004 41966 12440 60000 10275 20240 39967 40045 58007 60026 85460==
41966,2023,06,17,03,00,AAXX 17034 41966 02450 80000 10300 20240 39999 40077 8352/ 333 20250 58018 70088 83616 88460==
41966,2023,06,17,09,00,AAXX 17094 41966 01450 81801 10235 20220 39985 40065 70296 8352/ 333 58038 70546 83616 88460==
41966,2023,06,17,12,00,AAXX 17124 41966 01440 70901 10240 20220 39964 40043 70196 83510 333 10305 58018 70008 83616 86460==
41966,2023,06,17,15,00,AAXX 17154 41966 02430 70000 10240 20220 39971 40051 83510 333 58022 70546 83616 86460==
41966,2023,06,17,21,00,AAXX 17214 41966 02420 60000 10240 20220 39987 40067 83510 333 58033 70528 83616 86460==
41966,2023,06,18,00,00,AAXX 18004 41966 02440 60000 10245 20230 39991 40070 83510 333 58025 70528 83616 85460==
41966,2023,06,18,03,00,AAXX 18034 41966 02450 40901 10300 20230 39991 40069 82510 333 20235 59008 70528 82616 83460==
41966,2023,06,18,06,00,AAXX 18064 41966 02450 41801 10330 20210 39989 40066 82510 333 59019 70008 82616 83460==
41966,2023,06,18,09,00,AAXX 18094 41966 02450 72001 10320 20220 39970 40047 83510 333 59018 70000 83616 86460==
41966,2023,06,18,15,00,AAXX 18154 41966 02430 60000 10250 20230 39977 40056 83510 333 58005 70020 83616 85460==
41966,2023,06,19,06,00,AAXX 19064 41966 02450 83301 10320 20220 39987 40065 8352/ 333 59001 70020 83616 88460==
41966,2023,06,19,09,00,AAXX 19094 41966 01340 80000 10250 20220 39977 40056 79596 8472/ 333 58009 70438 82709 83615 88460==
41966,2023,06,19,12,00,AAXX 19124 41966 21330 80901 10250 20230 39971 40050 72996 8472/ 333 10325 58005 60489 70478 82709 83616 88460==
41966,2023,06,19,15,00,AAXX 19154 41966 02420 70000 10250 20230 39973 40052 83510 333 59004 70478 83616 86460==
41966,2023,06,19,21,00,AAXX 19214 41966 02420 70000 10250 20230 39982 40062 83510 333 59003 70478 83616 86460==
41966,2023,06,20,00,00,AAXX 20004 41966 02440 40000 10255 20240 39974 40053 82510 333 59011 70478 82616 83460==
41966,2023,06,20,03,00,AAXX 20034 41966 02450 41301 10310 20220 39982 40060 82510 333 20241 59007 70478 82616 83460 86900==
41966,2023,06,20,06,00,AAXX 20064 41966 02450 41301 10328 20210 39980 40057 82510 333 59008 70478 82616 83460==
41966,2023,06,20,09,00,AAXX 20094 41966 02450 52001 10325 20210 39949 40028 82510 333 59030 70060 82616 84460==
41966,2023,06,20,12,00,AAXX 20124 41966 02440 40000 10300 20210 39955 40032 82510 333 10342 59018 70000 82616 83460==
41966,2023,06,20,15,00,AAXX 20154 41966 02430 40000 10285 20240 39968 40046 82510 333 59006 70000 82616 83460==
41966,2023,06,20,18,00,AAXX 20184 41966 NIL=
41966,2023,06,20,21,00,AAXX 20214 41966 02420 40000 10261 20230 39975 40054 82510 333 59008 70000 82616 83460==
41966,2023,06,21,00,00,AAXX 21004 41966 02440 40000 10256 20240 39968 40047 82510 333 59006 70000 82616 83460==
41966,2023,06,21,03,00,AAXX 21034 41966 02550 30901 10310 20240 39976 40054 82130 333 20247 59006 70000 82826 83362==
41966,2023,06,21,06,00,AAXX 21064 41966 02550 42001 10342 20210 39973 40049 82130 333 59008 70000 82826 83362==
41966,2023,06,21,09,00,AAXX 21094 41966 02550 40000 10330 20210 39953 40030 82130 333 58004 70000 82826 83362==
41966,2023,06,21,12,00,AAXX 21124 41966 02440 60901 10295 20240 39951 40028 82510 333 10350 59007 70000 82616 85460==
41966,2023,06,21,15,00,AAXX 21154 41966 42430 60000 10280 20250 39973 40051 83510 333 58005 83616 85460==
41966,2023,06,21,18,00,AAXX 21184 41966 NIL=
41966,2023,06,21,21,00,AAXX 21214 41966 02420 50000 10278 20250 39977 40055 82510 333 58001 70000 82616 84460==
41966,2023,06,22,00,00,AAXX 22004 41966 02440 60000 10270 20230 39976 40054 83510 333 58007 70000 83616 85460==
41966,2023,06,22,03,00,AAXX 22034 41966 02450 51801 10300 20220 39982 40060 81530 333 20263 58006 70000 81616 84362==
41966,2023,06,22,06,00,AAXX 22064 41966 02450 51801 10320 20210 39981 40058 82510 333 58009 70000 82616 84460==
41966,2023,06,22,09,00,AAXX 22094 41966 01450 70000 10300 20280 39959 40037 72162 83510 333 58007 70028 83616 86460==
41966,2023,06,22,12,00,AAXX 22123 41966 01340 80901 10250 20230 39958 40037 72162 8472/ 333 10335 58009 70548 82709 83616 88460==
41966,2023,06,22,15,00,AAXX 22154 41966 02430 60000 10250 20230 39967 40046 83510 333 59005 70548 83616 85460==
41966,2023,06,22,18,00,AAXX 22184 41966 NIL=
41966,2023,06,22,21,00,AAXX 22214 41966 02420 40000 10250 20230 39965 40044 82510 333 59011 70548 82616 83460==
41977,2023,06,16,00,00,AAXX 16004 41977 02356 81302 10290 20280 30009 40046 8662/ 333 59003 70210 82710 85615 88458==
41977,2023,06,16,03,00,AAXX 16034 41977 01356 81304 10298 20290 30023 40061 70262 8662/ 333 20260 59001 70045 82710 85615 88458==
41977,2023,06,16,06,00,AAXX 16064 41977 11356 81604 10300 20280 30027 40065 60016 70262 8662/ 333 59004 70005 82710 84615 88458==
41977,2023,06,16,09,00,AAXX 16094 41977 02456 71805 10315 20280 30007 40045 86520 333 58000 70005 84618 86460==
41977,2023,06,16,12,00,AAXX 16124 41977 02456 61204 10300 20260 30017 40055 84520 333 10320 58012 70005 84616 85460==
41977,2023,06,16,15,00,AAXX 16154 41977 02456 61204 10288 20250 30014 40051 84520 333 58012 70005 84616 85460==
41977,2023,06,16,18,00,AAXX 16184 41977 02456 81802 10280 20260 30020 40056 8662/ 333 58016 70005 82710 85615 88458==
41977,2023,06,16,21,00,AAXX 16214 41977 02450 61302 10280 20260 30017 40054 84570 333 58011 70005 84618 84460==
41977,2023,06,17,00,00,AAXX 17004 41977 02450 61302 10283 20270 30014 40051 84570 333 58005 70005 84618 84460==
41977,2023,06,17,03,00,AAXX 17034 41977 02456 82302 10302 20280 30034 40071 84520 333 20280 58011 70000 84616 88460==
41977,2023,06,17,09,00,AAXX 17094 41977 01356 81302 10247 20240 30020 40058 71796 8632/ 333 58013 70470 82710 85616 88458 81928==
41977,2023,06,17,12,00,AAXX 17124 41977 21356 81302 10258 20250 30022 40060 70296 8662/ 333 10305 58005 60468 70470 82712 84616 88460==
41977,2023,06,17,15,00,AAXX 17154 41977 02356 60000 10255 20250 30034 40072 8462/ 333 58002 70470 84710 86460==
41977,2023,06,17,18,00,AAXX 17184 41977 02356 70000 10250 20250 30030 40068 85610 333 58010 70470 82710 85616 87459==
41977,2023,06,17,21,00,AAXX 17214 41977 02450 71302 10255 20240 30032 40070 84520 333 58015 70470 84616 86460==
41977,2023,06,18,00,00,AAXX 18004 41977 02450 72302 10260 20240 30031 40069 84520 333 58017 70190 84618 86460 82618 86361==
41977,2023,06,18,03,00,AAXX 18034 41977 02456 41302 10308 20260 30040 40078 82531 333 20236 58006 70470 82618 83362==
41977,2023,06,18,06,00,AAXX 18064 41977 02456 43605 10334 20250 30047 40068 83520 333 58025 70460 82618 83460==
41977,2023,06,18,09,00,AAXX 18094 41977 02456 71805 10316 20288 30026 40064 84520 333 58006 70000 84618 86460==
41977,2023,06,19,06,00,AAXX 19064 41977 02456 51805 10333 20260 30048 40085 83520 333 58017 70000 83618 83460==
41977,2023,06,19,09,00,AAXX 19094 41977 01350 82704 10262 20250 30041 40078 76162 8662/ 333 58015 70040 82710 85615 88458==
41977,2023,06,19,12,00,AAXX 19124 41977 21350 80000 10265 20260 30033 40071 76162 8662/ 333 10335 58001 60077 70070 82710 85615 88458==
41977,2023,06,19,15,00,AAXX 19154 41977 02356 82702 10262 20260 30018 40056 8662/ 333 58008 70070 82710 85615 88460==
41977,2023,06,19,18,00,AAXX 19184 41977 41456 70000 10260 20260 30020 40058 59013 70070 88460==
41977,2023,06,19,21,00,AAXX 19214 41977 02450 60000 10260 20250 30018 40056 84520 333 59007 70070 84618 86460==
41977,2023,06,20,00,00,AAXX 20004 41977 02450 70000 10262 20250 30017 40055 86620 333 59003 70070 82712 84616 86460==
41977,2023,06,20,03,00,AAXX 20034 41977 02456 31302 10310 20260 30028 40066 82530 333 20255 59003 70070 82618 83362==
41977,2023,06,20,06,00,AAXX 20064 41977 02456 52206 10335 20270 30068 40106 83530 333 58020 70070 82618 84362==
41977,2023,06,20,09,00,AAXX 20094 41977 02456 51804 10330 20250 30007 40044 82530 333 59034 70030 82618 84362==
41977,2023,06,20,12,00,AAXX 20124 41977 02456 62302 10307 20270 30014 40052 83530 333 10335 59019 70000 83616 86363==
41977,2023,06,20,15,00,AAXX 20154 41977 02356 71402 10295 20280 30032 40070 86620 333 58014 70000 86710 84616 85460==
41977,2023,06,20,18,00,AAXX 20184 41977 02356 71802 10280 20270 30026 40063 84610 333 58006 70000 81710 84616 86459==
41977,2023,06,20,21,00,AAXX 20214 41977 02450 60000 10275 20260 30025 40062 83531 333 58007 70000 83618 84362==
41977,2023,06,21,00,00,AAXX 21004 41977 02450 60000 10272 20260 30025 40063 82531 333 58008 70000 82618 84362==
41977,2023,06,21,03,00,AAXX 21034 41977 02456 61302 10318 20270 30032 40069 84530 333 20270 58004 70000 84618 84362==
41977,2023,06,21,06,00,AAXX 21064 41977 02456 52605 10330 20260 30036 40074 83530 333 58002 70000 82618 84362==
41977,2023,06,21,09,00,AAXX 21094 41977 02456 52309 10321 20270 30013 40050 83530 333 58006 70000 83618 84362==
41977,2023,06,21,12,00,AAXX 21124 41977 02456 71306 10300 20270 30016 40054 84520 333 10340 58002 70000 84616 87460==
41977,2023,06,21,15,00,AAXX 21154 41977 42456 71304 10291 20270 30034 40071 58002 87460==
41977,2023,06,21,18,00,AAXX 21184 41977 01356 31302 10280 20260 30034 40071 70261 8662/ 333 58008 70010 82710 85615 88458==
41977,2023,06,21,21,00,AAXX 21214 41977 02450 80000 10270 20250 30029 40067 8662/ 333 58004 70010 82712 84615 88460==
41977,2023,06,22,00,00,AAXX 22004 41977 02450 80000 10264 20250 30030 40068 8662/ 333 58005 70010 82712 84615 88460==
41977,2023,06,22,03,00,AAXX 22034 41977 02456 61802 10288 20250 30040 40077 84570 333 20260 58008 70010 84618 84460==
41977,2023,06,22,06,00,AAXX 22064 41977 02456 71605 10318 20240 30051 40089 84570 333 58015 70010 84616 86460==
41977,2023,06,22,09,00,AAXX 22094 41977 02456 72004 10305 20270 30031 40069 84570 333 58018 70010 84616 86460==
41977,2023,06,22,12,00,AAXX 22124 41977 01350 81704 10295 20280 30009 40046 76122 8672/ 333 10325 59007 70000 82712 84615 88460==
41977,2023,06,22,15,00,AAXX 22154 41977 01450 60904 10275 20270 30027 40065 72162 86620 333 59007 70020 82712 84615 88460==
41977,2023,06,22,18,00,AAXX 22184 41977 21450 60902 10274 20260 30029 40067 70262 83520 333 59005 60015 70020 83616 86460==
41977,2023,06,22,21,00,AAXX 22214 41977 02456 70903 10273 20260 30032 40070 84510 333 58003 70010 84617 87459==
41978,2023,06,16,00,00,AAXX 16004 41978 02440 81609 10289 20280 30027 40033 8432/ 333 58007 70123 83618 88460 81930==
41978,2023,06,16,03,00,AAXX 16034 41978 01440 81713 10298 20280 30040 40046 76162 8432/ 333 20263 58004 70014 83615 88460 81928==
41978,2023,06,16,06,00,AAXX 16064 41978 21440 81607 10302 20280 30034 40041 70262 8432/ 333 58006 69948 70004 83616 88460 81928==
41978,2023,06,16,09,00,AAXX 16094 41978 02450 61713 10321 20270 30019 40025 83320 333 58003 70004 83617 86460 81930==
41978,2023,06,16,12,00,AAXX 16124 41978 02450 61712 10306 20270 30014 40020 82521 333 10326 58003 70004 82617 83460 85080==
41978,2023,06,16,15,00,AAXX 16154 41978 02450 51608 10287 20270 30032 40038 82520 333 58010 70004 83460==
41978,2023,06,16,18,00,AAXX 16184 41978 02450 51510 10282 20260 30040 40046 82520 333 58018 70004 82618 83460==
41978,2023,06,16,21,00,AAXX 16214 41978 02450 51410 10269 20260 30028 40034 82520 333 58017 70004 82618 83460==
41978,2023,06,17,00,00,AAXX 17004 41978 02450 51610 10282 20260 30036 40042 82520 333 58009 70004 82618 84460==
41978,2023,06,17,03,00,AAXX 17034 41978 42450 61612 10314 20290 30050 40056 83520 333 20273 58010 83618 85460==
41978,2023,06,17,06,00,AAXX 17064 41978 01440 81208 10274 20260 30045 40052 76122 8432/ 333 58012 70030 83614 88459 81928==
41978,2023,06,17,09,00,AAXX 17094 41978 01445 81508 10241 20270 30039 40045 76166 8432/ 333 58020 70140 83615 88459 81929==
41978,2023,06,17,12,00,AAXX 17124 41978 21450 81407 10260 20240 30030 40036 70296 8432/ 333 10320 58016 60119 70142 83617 88460 81930==
41978,2023,06,17,15,00,AAXX 17154 41978 02450 70000 10256 20250 30051 40057 83520 333 58019 70142 83617 86460==
41978,2023,06,17,18,00,AAXX 17184 41978 02450 52703 10262 20240 30050 40056 83520 333 58010 70000 82617 84460==
41978,2023,06,17,21,00,AAXX 17214 41978 02450 51507 10255 20240 30039 40045 82520 333 58011 70142 82617 84460==
41978,2023,06,18,00,00,AAXX 18004 41978 02/50 51707 10266 20230 30052 40058 85030 333 58016 70142 85362==
41978,2023,06,18,03,00,AAXX 18034 41978 02450 41710 10306 20260 30057 40063 82530 333 20235 58007 70142 82618 83362==
41978,2023,06,18,06,00,AAXX 18064 41978 02456 51609 10330 20270 30054 40060 82520 333 58008 70114 82618 84360==
41978,2023,06,18,09,00,AAXX 18094 41978 02456 61812 10328 20290 30034 40040 83530 333 59005 70002 83618==
41978,2023,06,18,12,00,AAXX 18124 41978 02457 61806 10314 20270 30022 40029 83530 333 10335 59008 70000 83618 86360==
41978,2023,06,18,15,00,AAXX 18154 41978 02450 70000 10290 20270 30044 40051 84320 333 59007 70000 83618 86460 81930==
41978,2023,06,18,18,00,AAXX 18184 41978 02356 70000 10285 20280 30043 40081 85610 333 58013 70000 82710 85616 87459==
41978,2023,06,18,21,00,AAXX 18214 41978 02450 61506 10282 20260 30040 40047 83530 333 59001 70000 83618 86360==
41978,2023,06,19,00,00,AAXX 19004 41978 02450 61206 10280 20260 30034 40041 83530 333 59018 70000 83618 86360==
41978,2023,06,19,03,00,AAXX 19034 41978 02450 51811 10318 20270 30046 40052 83530 333 20276 59011 70000 83618 84360==
41978,2023,06,19,06,00,AAXX 19064 41978 02450 52013 10333 20270 30041 40047 83530 333 59013 70000 83618 83360==
41978,2023,06,19,09,00,AAXX 19094 41978 01418 82720 10276 20260 30037 40043 76122 8452/ 333 58003 70026 83709 88459 81928==
41978,2023,06,19,12,00,AAXX 19124 41978 21440 81206 10263 20260 30026 40032 72122 8432/ 333 10337 58004 60127 70118 83618 88460 81930==
41978,2023,06,19,15,00,AAXX 19154 41978 01440 81603 10262 20250 30038 40045 70522 8332/ 333 59006 70118 83615 88460 81930==
41978,2023,06,19,18,00,AAXX 19184 41978 02450 80000 10262 20250 30036 40043 8432/ 333 59011 70118 83615 88460 81930==
41978,2023,06,19,21,00,AAXX 19214 41978 02450 80000 10262 20250 30031 40038 8352/ 333 59009 70118 83615 88460==
41978,2023,06,20,00,00,AAXX 20004 41978 02456 61206 10262 20250 30037 40043 83530 333 58003 70118 83616 86360==
41978,2023,06,20,03,00,AAXX 20034 41978 02456 41512 10308 20270 30047 40053 82530 333 20255 58001 70118 82618 83360==
41978,2023,06,20,06,00,AAXX 20064 41978 02456 42110 10327 20270 30047 40053 82530 333 58006 70118 82618 83360==
41978,2023,06,20,09,00,AAXX 20094 41978 02456 42215 10328 20270 30021 40027 82530 333 59016 70092 82618 83360==
41978,2023,06,20,12,00,AAXX 20124 41978 02450 42208 10311 20270 30029 40035 82530 333 10335 58003 70000 82618 83360==
41978,2023,06,20,15,00,AAXX 20154 41978 02450 31811 10294 20280 30042 40049 83500 333 58004 70000 83618==
41978,2023,06,20,18,00,AAXX 20184 41978 02450 31803 10275 20270 30043 40050 83500 333 58007 70000 83618==
41978,2023,06,20,21,00,AAXX 20214 41978 02450 30000 10264 20259 30049 40055 83500 333 58018 70000 83618==
41978,2023,06,21,00,00,AAXX 21004 41978 02450 30000 10271 20260 30038 40045 83500 333 58001 70000 83618==
41978,2023,06,21,03,00,AAXX 21034 41978 02456 41708 10313 20270 30045 40051 82530 333 20258 70000 89002 82618 83360==
41978,2023,06,21,06,00,AAXX 21064 41978 02456 42012 10330 20270 30045 40051 82530 333 59002 70000 82618 83360==
41978,2023,06,21,09,00,AAXX 21094 41978 02456 62214 10328 20290 30027 40033 83431 333 58006 70000 83618 86360==
41978,2023,06,21,12,00,AAXX 21124 41978 02456 62212 10307 20290 30026 40032 83430 333 10338 59003 70000 83614 86360==
41978,2023,06,21,15,00,AAXX 21154 41978 02450 61610 10293 20270 30052 40058 83530 333 58010 70000 83616 86360==
41978,2023,06,21,18,00,AAXX 21184 41978 02450 71810 10276 20270 30053 40059 84320 333 58010 70000 83616 86460 81930==
41978,2023,06,21,21,00,AAXX 21214 41978 01440 81714 10264 20250 30048 40054 70262 8432/ 333 59001 70026 83709 88458 81928==
41978,2023,06,22,00,00,AAXX 22004 41978 11450 81508 10264 20250 30047 40053 60026 70262 8432/ 333 58002 70026 83614 88459 81928==
41978,2023,06,22,03,00,AAXX 22034 41978 02356 71608 10282 20260 30057 40063 84370 333 20257 58012 70026 83709 86360 81930==
41978,2023,06,22,06,00,AAXX 22064 41978 02456 62210 10316 20270 30050 40057 83330 333 58005 70026 83618 86360 81930==
41978,2023,06,22,09,00,AAXX 22094 41978 02456 62510 10311 20280 30031 40037 84330 333 58004 70026 83616 86360 81930==
41978,2023,06,22,12,00,AAXX 22124 41978 02456 72108 10305 20280 30027 40034 84320 333 10327 58001 70026 83616 86460 81930==
41978,2023,06,22,15,00,AAXX 22154 41978 01450 71508 10274 20270 30040 40047 70262 84320 333 59012 70106 83616 86460 81928==
41978,2023,06,22,18,00,AAXX 22184 41978 01450 71504 10272 20260 30046 40053 70262 84320 333 59007 70106 83616 86460 81928==
41978,2023,06,22,21,00,AAXX 22214 41978 02450 41205 10271 20260 30030 40037 82530 333 59008 70080 82618 83360==
41980,2023,06,16,00,00,AAXX 16004 41980 32440 80000 10275 20260 39926 40037 8562/ 333 56999 59004 70000 82710 84615 88458=
41980,2023,06,16,06,00,AAXX 16064 41980 NIL=
41980,2023,06,16,12,00,AAXX 16124 41980 11440 81802 10292 20230 39916 40027 60168 70296 8351/ 333 10315 56999 58002 70160 83616 88460=
41980,2023,06,16,15,00,AAXX 16154 41980 NIL=
41980,2023,06,17,00,00,AAXX 17004 41980 32440 80000 10270 20240 39933 40044 8352/ 333 56999 58007 70160 83616 88460=
41980,2023,06,17,03,00,AAXX 17034 41980 32440 81802 10305 20250 39953 40063 8352/ 333 20256 56999 58012 70160 83616 88460=
41980,2023,06,17,12,00,AAXX 17124 41980 11440 80000 10240 20230 39930 40043 60558 70296 8562/ 333 10313 56999 58014 70545 82710 84615 88458=
41980,2023,06,18,00,00,AAXX 18004 41980 32440 80000 10259 20230 39952 40064 8352/ 333 56999 58019 70545 83616 88458=
41980,2023,06,18,06,00,AAXX 18064 41980 NIL=
41980,2023,06,19,06,00,AAXX 19064 41980 NIL=
41980,2023,06,20,00,00,AAXX 20004 41980 32440 70000 10255 20250 39941 40053 82530 333 56990 58001 70400 82617 86362=
41980,2023,06,20,06,00,AAXX 20064 41980 NIL=
41980,2023,06,20,12,00,AAXX 20124 41980 32940 30000 10299 20250 39930 40041 83020 333 10327 56090 59003 70000 83460=
41980,2023,06,20,18,00,AAXX 20184 41980 NIL=
41980,2023,06,21,00,00,AAXX 21004 41980 32950 30000 10265 20250 39940 40052 83010 333 56090 59001 70000 83460=
41980,2023,06,21,06,00,AAXX 21064 41980 NIL=
41980,2023,06,21,12,00,AAXX 21124 41980 32440 80000 10274 20250 39930 40042 8462/ 333 10332 56999 58000 70000 82710 84615 88458=
41980,2023,06,21,18,00,AAXX 21184 41980 NIL=
41980,2023,06,22,00,00,AAXX 22004 41980 11440 80000 10260 20240 39945 40057 60027 70262 8562/ 333 56999 58008 70020 82710 84615 88458=
41980,2023,06,22,06,00,AAXX 22064 41980 NIL=
41980,2023,06,22,12,00,AAXX 22123 41980 11440 80000 10270 20250 39929 40041 60043 70266 8562/ 333 10326 56999 59001 70055 82710 84615 88458=
41980,2023,06,22,18,00,AAXX 22184 41980 NIL=
41984,2023,06,16,00,00,AAXX 16004 41984 01356 82304 10300 20290 39998 40001 72122 8562/ 333 58001 70020 82709 84616 88457==
41984,2023,06,16,03,00,AAXX 16034 41984 02457 82306 10328 20290 30011 40013 8352/ 333 20295 58007 70020 83618 88458==
41984,2023,06,16,06,00,AAXX 16064 41984 02457 82307 10338 20280 30013 40015 8352/ 333 58003 70000 83618 88458==
41984,2023,06,16,09,00,AAXX 16094 41984 02457 82307 10336 20290 30002 40004 8352/ 333 58005 70020 83618 88458==
41984,2023,06,16,12,00,AAXX 16124 41984 02457 82305 10318 20280 39997 49999 8352/ 333 10344 58007 70020 83618 88458==
41984,2023,06,16,15,00,AAXX 16154 41984 02440 82307 10307 20290 30004 40006 8352/ 333 58000 70020 83618 88458==
41984,2023,06,16,18,00,AAXX 16184 41984 02440 81809 10307 20290 30009 40011 8252/ 333 58003 70020 82618 88458==
41984,2023,06,16,21,00,AAXX 16214 41984 02440 81808 10303 20280 30010 40012 8352/ 333 58010 70020 83618 88458==
41984,2023,06,17,00,00,AAXX 17004 41984 02456 82304 10302 20280 30012 40014 8352/ 333 58014 70000 83618 88458==
41984,2023,06,17,03,00,AAXX 17034 41984 01356 82306 10300 20270 30032 40034 79196 8692/ 333 20289 58021 70166 82707 84616 88457 81925==
41984,2023,06,17,06,00,AAXX 17064 41984 21356 82308 10267 20260 30033 40035 79196 8692/ 333 58020 60309 70198 82707 84616 81835 88458==
41984,2023,06,17,09,00,AAXX 17094 41984 01456 82304 10302 20270 30007 40009 70296 8632/ 333 58005 70203 82708 84616 88456 81926==
41984,2023,06,17,12,00,AAXX 17124 41984 11456 80000 10303 20270 30015 40017 69956 70296 8352/ 333 10305 58018 70203 83618 88458==
41984,2023,06,17,15,00,AAXX 17154 41984 02440 82302 10300 20280 30031 40033 8352/ 333 58027 70203 83618 88458==
41984,2023,06,17,18,00,AAXX 17184 41984 02440 82301 10300 20290 30031 40033 8352/ 333 58022 70203 83618 88458==
41984,2023,06,17,21,00,AAXX 17214 41984 02440 82301 10300 20280 30029 40031 8352/ 333 58019 70203 83618 88458==
41984,2023,06,18,00,00,AAXX 18004 41984 02456 82302 10300 20280 30027 40029 8352/ 333 58015 70203 83618 88458==
41984,2023,06,18,03,00,AAXX 18034 41984 01357 80000 10300 20280 30040 40042 71792 8692/ 333 20256 58008 70037 82708 84615 88456 81926==
41984,2023,06,18,06,00,AAXX 18064 41984 11356 82312 10252 20240 30056 40058 60152 79596 8692/ 333 58023 73707 84615 88456 81925==
41984,2023,06,18,09,00,AAXX 18094 41984 01457 80000 10290 20260 30013 40015 70296 8352/ 333 58006 70190 83618 88458==
41984,2023,06,18,18,00,AAXX 18184 41984 02440 80000 10294 20280 30032 40034 8352/ 333 58001 70190 83618 88458==
41984,2023,06,18,21,00,AAXX 18214 41984 02440 80000 10292 20280 30028 40030 8352/ 333 59001 70190 83618 88458==
41984,2023,06,19,06,00,AAXX 19064 41984 01356 80000 10266 20260 30033 40035 76122 8672/ 333 59023 70090 82707 84616 88456==
41984,2023,06,19,09,00,AAXX 19094 41984 01456 80000 10273 20250 30012 40015 70262 8052/ 333 58000 70178 83618 88458==
41984,2023,06,19,12,00,AAXX 19124 41984 11456 82301 10281 20260 30003 40005 60076 70262 8352/ 333 10335 58000 70178 83618 88458==
41984,2023,06,19,15,00,AAXX 19154 41984 02440 80000 10276 20270 30021 40023 8352/ 333 59009 70178 83618 88458==
41984,2023,06,19,18,00,AAXX 19184 41984 02440 80905 10283 20260 30020 40022 8352/ 333 59012 70178 83618 88458==
41984,2023,06,19,21,00,AAXX 19214 41984 02440 81802 10281 20270 30021 40023 333 59007 70178 83618 88458==
41984,2023,06,20,00,00,AAXX 20004 41984 02456 80000 10282 20270 30021 40023 8352/ 333 59002 70162 83618 88458==
41984,2023,06,20,03,00,AAXX 20034 41984 02457 82301 10328 20280 30025 40027 8352/ 333 20249 59002 70162 83618 88458==
41984,2023,06,20,06,00,AAXX 20064 41984 02457 82302 10336 20280 30028 40030 8352/ 333 59005 70072 83618 88458==
41984,2023,06,20,09,00,AAXX 20094 41984 02457 82302 10330 20270 30008 40010 8352/ 333 59005 70000 83618 88458==
41984,2023,06,20,12,00,AAXX 20124 41984 02457 80000 10310 20270 30008 40010 8352/ 333 10340 58005 70000 83618 88458==
41984,2023,06,20,15,00,AAXX 20154 41984 02440 82302 10300 20280 30019 40021 8352/ 333 59002 70000 83618 88458==
41984,2023,06,20,18,00,AAXX 20184 41984 02440 82302 10296 20280 30020 40022 8352/ 333 58000 70000 83618 88458==
41984,2023,06,20,21,00,AAXX 20214 41984 02440 80000 10290 20280 30018 40020 8352/ 333 59003 70000 83618 88458==
41984,2023,06,21,00,00,AAXX 21004 41984 02456 80000 10284 20270 30017 40019 8352/ 333 59004 70000 83618 88458==
41984,2023,06,21,03,00,AAXX 21034 41984 02457 81802 10322 20280 30024 40026 8352/ 333 20272 59001 70000 83618 88458==
41984,2023,06,21,06,00,AAXX 21064 41984 02457 82304 10327 20280 30024 40026 8352/ 333 59004 70000 83618 88458==
41984,2023,06,21,09,00,AAXX 21094 41984 02457 82303 10320 20270 30011 40013 8352/ 333 58003 70000 83618 88458==
41984,2023,06,21,12,00,AAXX 21124 41984 02456 82304 10310 20270 30008 40010 8352/ 333 10336 58000 70000 83618 88458==
41984,2023,06,21,15,00,AAXX 21154 41984 02440 82301 10298 20280 30029 40031 8352/ 333 58010 70000 83618 88458==
41984,2023,06,21,18,00,AAXX 21184 41984 02440 82304 10288 20280 30036 40038 8352/ 333 58016 70000 83618 88458==
41984,2023,06,21,21,00,AAXX 21214 41984 01440 80000 10280 20270 30030 40032 70262 8352/ 333 58012 70026 83618 88458==
41984,2023,06,22,00,00,AAXX 22004 41984 11456 80000 10276 20276 30025 40027 60036 70262 8352/ 333 58008 70026 83618 88458==
41984,2023,06,22,03,00,AAXX 22034 41984 02457 82302 10316 20280 30037 40039 8352/ 333 20264 58013 70026 83618 88458==
41984,2023,06,22,06,00,AAXX 22064 41984 01356 82301 10290 20270 30038 40040 72122 8562/ 333 58014 70010 82709 84616 88457==
41984,2023,06,22,09,00,AAXX 22094 41984 01356 82302 10280 20260 30026 40028 72162 8562/ 333 58015 70066 82707 84616 88457==
41984,2023,06,22,12,00,AAXX 22123 41984 11456 80000 10284 20260 30010 40012 60031 70262 8352/ 333 10340 58002 70066 83618 88458==
41984,2023,06,22,15,00,AAXX 22154 41984 02440 80000 10277 20270 30015 40017 8352/ 333 59014 70064 83618 88458==
41984,2023,06,22,18,00,AAXX 22184 41984 02440 80000 10279 20270 30024 40026 8352/ 333 59012 70064 83618 88458==
41984,2023,06,22,21,00,AAXX 22214 41984 01340 82302 10277 20270 30019 40021 76122 8572/ 333 59002 70050 82708 84615 88456==
41989,2023,06,16,00,00,AAXX 16004 41989 02456 51702 10285 20270 30023 40027 83570 333 58015 70000 83618 83362==
41989,2023,06,16,03,00,AAXX 16034 41989 01450 71302 10304 20270 30045 40049 70362 83570 333 20270 58015 70020 83618 84460==
41989,2023,06,16,06,00,AAXX 16064 41989 NIL=
41989,2023,06,16,09,00,AAXX 16094 41989 02456 41405 10308 20270 30023 40027 83530 333 58018 70000 83618==
41989,2023,06,16,12,00,AAXX 16124 41989 02456 31304 10295 20260 30012 40015 82530 333 10310 58011 70030 82618 83362==
41989,2023,06,16,15,00,AAXX 16154 41989 02450 51802 10275 20250 30034 40038 83530 333 58005 70030 83618 83362==
41989,2023,06,16,21,00,AAXX 16214 41989 02440 41802 10273 20240 30029 40032 84500 333 59004 70030 84618==
41989,2023,06,17,00,00,AAXX 17004 41989 02440 31402 10270 20250 30026 40030 83500 333 58002 70030 83618==
41989,2023,06,17,03,00,AAXX 17034 41989 02450 51803 10295 20260 30040 40044 83530 333 20248 59005 70010 82618 83362==
41989,2023,06,17,09,00,AAXX 17094 41989 01320 81402 10250 20240 30060 40064 76362 8572/ 333 58017 70600 83708 83614 88456==
41989,2023,06,17,12,00,AAXX 17124 41989 01440 61803 10255 20250 30034 40037 70162 84470 333 10317 58022 70690 83618 83460==
41989,2023,06,17,15,00,AAXX 17154 41989 02440 51304 10258 20240 30032 40035 83570 333 59002 70690 83368 83362==
41989,2023,06,17,18,00,AAXX 17184 41989 02440 41403 10260 20240 30043 40046 82530 333 58006 70690 82618 84362==
41989,2023,06,17,21,00,AAXX 17214 41989 02449 41302 39936 40039 83530 333 58007 70690 83618==
41989,2023,06,18,00,00,AAXX 18004 41989 02440 61303 10257 20240 30032 40035 83570 333 58006 70690 83618 84362==
41989,2023,06,18,06,00,AAXX 18064 41989 NIL=
41989,2023,06,18,09,00,AAXX 18094 41989 02456 41305 10328 20270 40039 82530 333 59024 70090 82616 84362==
41989,2023,06,18,18,00,AAXX 18184 41989 02450 51803 10290 20260 30033 40036 83500 333 59010 70000 83618==
41989,2023,06,18,21,00,AAXX 18214 41989 02440 31302 10285 20260 30028 40032 83500 333 59004 70000 83618==
41989,2023,06,19,00,00,AAXX 19004 41989 02440 31402 10260 20230 30038 40031 83500 333 59004 70000 83618==
41989,2023,06,19,06,00,AAXX 19064 41989 02456 21806 10330 20270 30043 40046 82500 333 59015 70000 82618==
41989,2023,06,19,15,00,AAXX 19154 41989 01440 71304 10268 20260 30036 40039 70362 83570 333 58000 70060 83618 85460==
41989,2023,06,19,18,00,AAXX 19184 41989 11440 51303 10275 20260 30043 40046 60016 70162 83570 333 58010 70060 83618 83362==
41989,2023,06,20,03,00,AAXX 20034 41989 02456 41304 10314 20270 30063 40066 82534 333 20240 58003 70060 83618 84362==
41989,2023,06,20,06,00,AAXX 20064 41989 02450 31802 10330 20270 30055 40056 83500 333 58012 70060 83618==
41989,2023,06,20,09,00,AAXX 20094 41989 02456 21706 10332 20270 30023 40026 82500 333 59007 70020 82618==
41989,2023,06,20,12,00,AAXX 20124 41989 02456 21305 10308 20270 30021 40024 82500 333 10338 59007 70010 82618==
41989,2023,06,20,18,00,AAXX 20184 41989 NIL=
41989,2023,06,21,03,00,AAXX 21034 41989 02450 31402 10310 20270 30060 40064 83500 333 20245 59007 70000 83618==
41989,2023,06,21,06,00,AAXX 21064 41989 02456 21306 10330 20260 30045 40048 82500 333 59010 70000 82618==
41989,2023,06,21,09,00,AAXX 21094 41989 02450 21403 10340 20260 30035 40038 82500 333 58009 70000 82618==
41989,2023,06,21,12,00,AAXX 21124 41989 02450 31803 10300 20260 30032 40035 83500 333 10345 58011 70000 83618==
41989,2023,06,21,15,00,AAXX 21154 41989 02456 51305 20250 30046 40049 83570 333 58008 70000 83618 83362==
41989,2023,06,21,18,00,AAXX 21184 41989 21440 61404 10268 20260 30055 40058 70362 83570 333 58006 60015 70010 83618 84460==
41989,2023,06,21,21,00,AAXX 21214 41989 02440 51804 10272 20250 30049 40053 83570 333 59009 70010 83618 83362==
41989,2023,06,22,00,00,AAXX 22004 41989 02440 61704 10263 20240 30046 40049 83570 333 58014 70010 83618 84460==
41989,2023,06,22,03,00,AAXX 22034 41989 01456 41303 10313 20260 30067 40070 70162 82530 333 20240 59007 70020 82618 84362==
41989,2023,06,22,06,00,AAXX 22064 41989 11450 41804 10330 20260 30069 40071 60016 70262 83530 333 58024 70200 83618 84362==
41989,2023,06,22,09,00,AAXX 22094 41989 01456 41306 10328 20260 30032 40035 70262 82530 333 59003 70030 82618 84362==
41989,2023,06,22,12,00,AAXX 22123 41989 11456 51403 10313 20260 30021 40024 60016 70362 82570 333 10332 59007 70030 82618 83362==
41989,2023,06,22,15,00,AAXX 22154 41989 02450 41304 10288 20260 30035 40038 83530 333 59011 70030 83618 84362==
41989,2023,06,22,18,00,AAXX 22184 41989 02450 31403 10260 20230 30043 40046 82530 333 59012 70020 82618 83362==
41989,2023,06,22,21,00,AAXX 22214 41989 02450 31303 10275 20260 30038 40042 83530 333 59011 70020 83618==
41992,2023,06,16,00,00,AAXX 16004 41992 41420 71808 10290 20270 30032 40034 70522 84520 333 59001 84615 87460==
41992,2023,06,16,03,00,AAXX 16034 41992 01420 81805 10290 20270 30052 40054 76122 8592/ 333 20284 58003 70010 84614 88458 81925==
41992,2023,06,16,06,00,AAXX 16064 41992 21420 81805 10285 20280 30040 40042 79596 8592/ 333 59003 60117 70110 84614 88458 81925==
41992,2023,06,16,09,00,AAXX 16094 41992 01320 81504 10283 20250 30027 40029 75196 8432/ 333 59001 70110 82708 84614 88458 81925==
41992,2023,06,16,12,00,AAXX 16124 41992 21430 61505 10295 20260 30025 40027 70595 84530 333 10295 58006 60007 70110 84616 86362==
41992,2023,06,16,15,00,AAXX 16154 41992 01420 61506 10280 20260 30046 40048 70522 84520 333 58005 70110 84615 86460==
41992,2023,06,16,18,00,AAXX 16184 41992 01420 61505 10277 20260 30048 40050 70522 84520 333 58006 70110 84615 86460==
41992,2023,06,16,21,00,AAXX 16214 41992 01420 71505 10274 20250 30034 40036 70522 84520 333 58013 70110 84615 87460==
41992,2023,06,17,00,00,AAXX 17004 41992 01420 71503 10270 20250 30047 40049 70522 84520 333 58015 70110 84615 87460==
41992,2023,06,17,03,00,AAXX 17034 41992 01430 31506 10312 20260 30056 40058 70522 82530 333 20267 58004 70100 82616 83362==
41992,2023,06,17,06,00,AAXX 17064 41992 41430 31508 10360 20270 30048 40050 70521 82530 333 58008 82616 83362==
41992,2023,06,17,09,00,AAXX 17094 41992 01320 81508 10252 20250 30065 40067 76196 8592/ 333 58038 70220 82708 84614 88458 81925==
41992,2023,06,17,12,00,AAXX 17124 41992 21320 81503 10250 20250 30046 40048 76196 8692/ 333 10323 58021 60299 70290 82708 84614 88458 81925==
41992,2023,06,17,15,00,AAXX 17154 41992 01420 81805 10250 20230 30054 40056 70555 8432/ 333 58005 70290 83616 88460 81925==
41992,2023,06,17,18,00,AAXX 17184 41992 11420 81505 10250 20230 30058 40060 60006 70552 8432/ 333 58010 70290 83616 88460 81925==
41992,2023,06,17,21,00,AAXX 17214 41992 01420 81503 10250 20230 30052 40054 70522 8432/ 333 58018 70290 83616 88460 81925==
41992,2023,06,18,00,00,AAXX 18004 41992 01425 80000 10248 20230 30057 40059 70522 84320 333 58010 70290 83616 86460 81925==
41992,2023,06,18,03,00,AAXX 18034 41992 01/30 21803 10314 20250 30064 40066 70522 82030 333 20245 58008 70290 82362==
41992,2023,06,18,06,00,AAXX 18064 41992 01430 61804 10330 20270 30058 40060 70521 84530 333 58010 70290 84616 86362==
41992,2023,06,18,09,00,AAXX 18094 41992 01430 21805 10320 20270 30041 40043 70511 82500 333 59024 70070 82616==
41992,2023,06,18,12,00,AAXX 18124 41992 41430 80000 10305 20260 30034 40036 70521 8452/ 333 10330 59012 84616 88460==
41992,2023,06,18,15,00,AAXX 18154 41992 01425 61506 10295 20280 30055 40057 70521 84520 333 58001 70000 84615 86460==
41992,2023,06,18,18,00,AAXX 18184 41992 01425 71802 10287 20270 30054 40056 70522 84530 333 59004 70000 84616 87362==
41992,2023,06,18,21,00,AAXX 18214 41992 01315 81805 10271 20270 30045 40047 76196 8692/ 333 59008 70290 82708 84614 88458 81925==
41992,2023,06,19,00,00,AAXX 19004 41992 21320 81804 10270 20270 30057 40059 75196 8692/ 333 58000 60339 70330 82708 84614 88458 81925==
41992,2023,06,19,03,00,AAXX 19034 41992 01430 61805 10310 20270 30056 40059 70522 83520 333 20268 58007 70330 83616 86460==
41992,2023,06,19,06,00,AAXX 19064 41992 01430 61805 10310 20260 30050 40052 70522 84520 333 59008 70330 84616 86460==
41992,2023,06,19,09,00,AAXX 19094 41992 01430 61503 10318 20260 30036 40038 70522 83530 333 59005 70330 83616 86362==
41992,2023,06,19,12,00,AAXX 19124 41992 21325 81505 10265 20260 30046 40048 76196 8592/ 333 10327 58012 60087 70410 82708 84614 88458 81925==
41992,2023,06,19,15,00,AAXX 19154 41992 01320 81502 10260 20260 30044 40046 76196 8592/ 333 59011 70490 82708 84615 88458 81925==
41992,2023,06,19,18,00,AAXX 19184 41992 21320 80000 10258 20240 30045 40047 75165 8432/ 333 59009 60089 70490 82708 84614 88458 81925==
41992,2023,06,19,21,00,AAXX 19214 41992 01320 81502 10255 20250 30039 40041 70522 8432/ 333 59006 70200 82708 84614 88458 81925==
41992,2023,06,20,00,00,AAXX 20004 41992 01420 80000 10250 20240 30049 40051 70522 8452/ 333 59008 70160 84615 88458==
41992,2023,06,20,03,00,AAXX 20034 41992 01430 31503 10307 20260 30058 40060 70522 82530 333 20248 58001 70160 82616 83362==
41992,2023,06,20,06,00,AAXX 20064 41992 01430 61806 10320 20260 30056 40058 70521 84530 333 58006 70160 84616 86362==
41992,2023,06,20,09,00,AAXX 20094 41992 01930 01810 10315 20270 30030 40032 70500 333 59006 70160==
41992,2023,06,20,12,00,AAXX 20124 41992 01430 21508 10305 20260 30037 40039 70510 82500 333 10330 59009 70080 82616==
41992,2023,06,20,15,00,AAXX 20154 41992 41425 31505 10280 20260 30056 40058 70511 83500 333 58012 83616==
41992,2023,06,20,18,00,AAXX 20184 41992 01425 41805 10280 20260 30046 40048 70511 84500 333 58001 70000 84616==
41992,2023,06,20,21,00,AAXX 20214 41992 01425 41805 10275 20260 30040 40042 70511 84500 333 58001 70000 84616==
41992,2023,06,21,00,00,AAXX 21004 41992 01425 40000 10270 20260 30044 40046 70511 84500 333 59005 70000 84616==
41992,2023,06,21,03,00,AAXX 21034 41992 01430 31503 10313 20260 30055 40057 70511 82530 333 20265 59003 70000 82616 83362==
41992,2023,06,21,06,00,AAXX 21064 41992 01430 61808 10313 20260 30056 40058 70521 84530 333 58000 70000 84616 86362==
41992,2023,06,21,09,00,AAXX 21094 41992 01430 61805 10305 20260 30040 40042 70522 83530 333 58010 70000 83616 86362==
41992,2023,06,21,12,00,AAXX 21124 41992 01425 81805 10285 20260 30039 40041 70522 8432/ 333 10325 58002 70000 83616 88460 81925==
41992,2023,06,21,15,00,AAXX 21154 41992 01315 81803 10265 20260 30063 40065 76166 8692/ 333 58007 70080 82708 84614 88458 81925==
41992,2023,06,21,18,00,AAXX 21184 41992 21320 81506 10256 20240 30061 40063 75165 8432/ 333 58015 60059 70130 82708 84614 88458 81925==
41992,2023,06,21,21,00,AAXX 21214 41992 01320 81802 10256 20250 30047 40049 70522 8452/ 333 58003 70130 84615 88458==
41992,2023,06,22,00,00,AAXX 22004 41992 01320 81502 10254 20250 30056 40058 70522 8452/ 333 58012 70130 84615 88458==
41992,2023,06,22,03,00,AAXX 22034 41992 01430 41505 10295 20250 30064 40066 70522 84500 333 20252 58009 70130 84616==
41992,2023,06,22,06,00,AAXX 22064 41992 01425 61505 10300 20260 30057 40059 76122 84320 333 58001 70130 83614 86460 81925==
41992,2023,06,22,09,00,AAXX 22094 41992 01430 41806 10304 20250 30034 40036 70521 82530 333 59006 70130 82616 84362==
41992,2023,06,22,12,00,AAXX 22124 41992 01430 71504 10297 20250 30034 40036 70521 84530 333 10320 59005 70130 84616 87362==
41992,2023,06,22,15,00,AAXX 22154 41992 01425 61503 10282 20250 30047 40049 70522 84530 333 59016 70050 84616 86362==
41992,2023,06,22,18,00,AAXX 22184 41992 41425 70000 10277 20260 30051 40053 70522 84530 333 59010 84616 87362==
41992,2023,06,22,21,00,AAXX 22214 41992 01315 81502 10265 20260 30035 40037 72166 8592/ 333 59012 70080 82708 84614 88458 81925==
41998,2023,06,16,00,00,AAXX 16004 41998 02956 00000 10290 20280 30040 40046 8342/ 333 58003 70000==
41998,2023,06,16,03,00,AAXX 16034 41998 02456 80000 10312 20270 30046 40052 8342/ 333 20276 58003 70000 82618 88458==
41998,2023,06,16,06,00,AAXX 16064 41998 NIL=
41998,2023,06,16,12,00,AAXX 16124 41998 11456 80000 10284 20250 30018 40024 60016 70262 8342/ 333 10323 58000 70010 83618 88458==
41998,2023,06,16,15,00,AAXX 16154 41998 NIL=
41998,2023,06,17,00,00,AAXX 17004 41998 02456 80000 10288 20270 30045 40051 8342/ 333 58003 70000 82618 88458==
41998,2023,06,17,03,00,AAXX 17034 41998 02456 80000 10302 20260 30035 40041 8342/ 333 20273 58004 70000 82618 88458==
41998,2023,06,17,12,00,AAXX 17124 41998 01456 80000 10268 20260 30025 40031 76162 8442/ 333 10316 58007 70030 83618 88458==
41998,2023,06,18,00,00,AAXX 18004 41998 NIL=
41998,2023,06,18,03,00,AAXX 18034 41998 02456 60000 10304 20270 30060 40066 83420 333 20268 58030 70030 82618 83458==
41998,2023,06,18,06,00,AAXX 18064 41998 NIL=
41998,2023,06,18,12,00,AAXX 18124 41998 02456 60000 10292 20260 30042 40048 83470 333 10327 58017 70000 82618 84458==
41998,2023,06,19,06,00,AAXX 19064 41998 21456 80000 10280 20260 30032 40038 59012 70470 88456 333 60479==
41998,2023,06,19,12,00,AAXX 19124 41998 21456 80000 10276 20260 30045 40051 70262 8442/ 333 10296 58003 60287 70750 83618 88458==
41998,2023,06,20,03,00,AAXX 20034 41998 02456 60000 10299 20260 30035 40041 83470 333 20267 59021 70700 82618 83458==
41998,2023,06,20,06,00,AAXX 20064 41998 NIL=
41998,2023,06,20,12,00,AAXX 20124 41998 02456 60000 10298 20260 30040 40046 83470 333 10328 59005 70000 82618 84458==
41998,2023,06,20,18,00,AAXX 20184 41998 NIL=
41998,2023,06,21,00,00,AAXX 21004 41998 02456 80000 10280 20270 30030 40036 8342/ 333 58005 70000 82618 88458==
41998,2023,06,21,03,00,AAXX 21034 41998 02456 80000 10304 20270 30040 40046 8442/ 333 20270 58005 70000 83618 88458==
41998,2023,06,21,06,00,AAXX 21064 41998 NIL=
41998,2023,06,21,12,00,AAXX 21124 41998 02456 80000 10293 20260 30041 40047 8442/ 333 10324 59011 70000 83618 88458==
41998,2023,06,21,18,00,AAXX 21184 41998 NIL=
41998,2023,06,22,00,00,AAXX 22004 41998 21456 80000 10268 20260 30035 40041 76162 8442/ 333 58005 60125 70120 83618 88458==
41998,2023,06,22,03,00,AAXX 22034 41998 02456 80000 10298 20260 30050 40056 8442/ 333 20264 58010 70120 83618 88458==
41998,2023,06,22,06,00,AAXX 22064 41998 NIL=
41998,2023,06,22,12,00,AAXX 22123 41998 01456 80000 10272 20260 30054 40060 70262 8442/ 333 10314 58012 70020 83618 88458==
41998,2023,06,22,18,00,AAXX 22184 41998 NIL=
