ESTACION,ANO,MES,DIA,HORA,MINUTO,PARTE
41850,2023,05,12,00,00,AAXX 12004 41850 31950 00000 10232 20210 39976 40076 70500 333 58001 70000=
41850,2023,05,12,06,00,AAXX 12064 41850 32958 01023 10340 20180 39982 40078 333 58004 70000=
41850,2023,05,12,12,00,AAXX 12124 41850 32957 00903 10325 20220 39947 40043 333 10352 58011 70000=
41850,2023,05,12,18,00,AAXX 12184 41850 NIL=
41850,2023,05,13,00,00,AAXX 13004 41850 31950 00000 10220 20210 39973 40073 70500 333 59003 70000=
41850,2023,05,13,06,00,AAXX 13064 41850 32958 01305 10351 20140 39971 40066 333 59011 70000=
41850,2023,05,13,12,00,AAXX 13123 41850 32957 00902 10345 20170 39934 40029 333 10369 59027 70000=
41850,2023,05,13,18,00,AAXX 13184 41850 NIL=
41850,2023,05,14,00,00,AAXX 14004 41850 31950 00000 10211 20200 39936 40036 70500 333 59037 70000=
41850,2023,05,14,06,00,AAXX 14064 41850 32958 01303 10340 20190 39928 40024 333 59043 70000=
41850,2023,05,14,12,00,AAXX 14124 41850 32957 01802 10335 20190 39882 49978 333 10362 59052 70000=
41850,2023,05,14,18,00,AAXX 14184 41850 31940 00502 10265 20190 39924 40021 333 59027 70000=
41850,2023,05,15,00,00,AAXX 15004 41850 31950 60000 10225 20190 39915 40014 70520 86030 333 56090 59027 70000 86362=
41850,2023,05,15,06,00,AAXX 15064 41850 32457 30905 10320 20160 39940 40036 83500 333 56900 58012 70000 83618=
41850,2023,05,15,12,00,AAXX 15124 41850 32457 20502 10305 20200 39908 40005 82500 333 10338 56900 58026 70000 82618=
41850,2023,05,15,18,00,AAXX 15184 41850 NIL=
41850,2023,05,16,00,00,AAXX 16004 41850 11450 70000 10225 20220 39950 40049 60074 70562 83520 333 56990 58035 70070 83616 87458=
41850,2023,05,16,06,00,AAXX 16064 41850 32457 61808 10280 20210 39968 40065 82510 333 56990 58028 70070 82618 86458=
41850,2023,05,16,12,00,AAXX 16124 41850 11456 30907 10268 20240 39940 40038 60036 72196 83030 333 10310 56090 58032 70100 83362=
41850,2023,05,16,18,00,AAXX 16184 41850 11440 60000 10197 20190 39941 40041 60154 70596 82510 333 56990 58007 70250 82618 86458=
41850,2023,05,17,00,00,AAXX 17004 41850 11340 80509 10213 20210 39967 40067 60218 72996 8562/ 333 56299 58017 70390 83707 84614 88458=
41850,2023,05,17,06,00,AAXX 17064 41850 31450 81809 10256 20210 39992 40091 70522 8352/ 333 56999 58024 70390 83616 88458=
41850,2023,05,17,12,00,AAXX 17124 41850 31440 81003 10257 20220 39973 40072 70522 8352/ 333 10282 56999 58033 70360 83616 88458=
41850,2023,05,17,18,00,AAXX 17184 41850 NIL=
41850,2023,05,18,00,00,AAXX 18004 41850 11440 80000 10205 20200 39988 40089 60116 70562 8352/ 333 56999 58021 70110 83616 88458=
41850,2023,05,18,06,00,AAXX 18064 41850 31450 81304 10255 20210 30003 40102 70522 8352/ 333 56999 58011 70110 83618 88458=
41850,2023,05,18,12,00,AAXX 18124 41850 31450 71003 10263 20210 39972 40070 70522 83520 333 10282 56990 59001 70110 83618 87458=
41850,2023,05,18,18,00,AAXX 18184 41850 31440 70903 10234 20220 39988 40088 70522 83520 333 56990 59007 70110 83618 87458=
41851,2023,05,12,00,00,AAXX 12004 41851 32950 01801 10228 20220 30023 40087 333 59002 70000=
41851,2023,05,12,06,00,AAXX 12064 41851 32950 01803 10354 20190 30023 40084 333 58003 70000=
41851,2023,05,12,12,00,AAXX 12124 41851 32950 00000 10340 20200 39978 40039 333 10365 58005 70000=
41851,2023,05,12,18,00,AAXX 12184 41851 32950 00000 10265 20220 30022 40085 333 58010 70000=
41851,2023,05,13,00,00,AAXX 13004 41851 32950 01801 10239 20190 30010 40073 333 59013 70000=
41851,2023,05,13,06,00,AAXX 13064 41851 32950 01803 10360 20160 30007 40068 333 59016 70000=
41851,2023,05,13,12,00,AAXX 13123 41851 32950 00000 10355 20180 39964 40024 333 10385 59014 70000=
41851,2023,05,13,18,00,AAXX 13184 41851 32940 00000 10247 20230 39983 40046 333 59039 70000=
41851,2023,05,14,00,00,AAXX 14004 41851 32430 60000 10220 20210 39969 40032 82570 333 56990 59041 70000 82618 85458=
41851,2023,05,14,06,00,AAXX 14064 41851 32450 51301 10360 20160 39957 40017 81530 333 56990 59050 70000 81618 84362=
41851,2023,05,14,12,00,AAXX 14124 41851 32950 02702 10326 20200 39924 49985 333 10375 59040 70000=
41851,2023,05,14,18,00,AAXX 14184 41851 32950 01802 10255 20200 39961 40023 333 59022 70000=
41851,2023,05,15,00,00,AAXX 15004 41851 32440 52201 10225 20200 39958 40021 82570 333 56990 59011 70000 82618 85458=
41851,2023,05,15,06,00,AAXX 15064 41851 32950 22202 10339 20160 39983 40044 82030 333 56090 58026 70000 82362=
41851,2023,05,15,12,00,AAXX 15124 41851 32450 50000 10315 20200 39946 40007 84430 333 10348 56990 58022 70000 83618 83362=
41851,2023,05,15,18,00,AAXX 15184 41851 32950 00000 10266 20250 30016 40079 333 58005 70000=
41851,2023,05,16,00,00,AAXX 16004 41851 11450 60901 10218 20210 39987 40051 60326 70196 83520 333 56990 58029 70325 83618 86458=
41851,2023,05,16,06,00,AAXX 16064 41851 32450 21702 10308 20220 30008 40070 82500 333 56900 58025 70325 82618=
41851,2023,05,16,12,00,AAXX 16124 41851 32450 80902 10283 20220 39977 40039 8352/ 333 10325 56999 58031 70325 83618 88458=
41851,2023,05,16,18,00,AAXX 16184 41851 11450 80000 10220 20210 30005 40069 60181 70296 8352/ 333 56999 58038 70490 83618 88458=
41851,2023,05,17,00,00,AAXX 17004 41851 11350 80000 10198 20190 30014 40078 60318 70196 8432/ 333 56999 58027 70485 81709 83616 81928 88456=
41851,2023,05,17,06,00,AAXX 17064 41851 11450 81701 10278 20220 30037 40100 69946 70296 8352/ 333 56999 58029 70489 83618 88458=
41851,2023,05,17,12,00,AAXX 17124 41851 32350 80903 10263 20220 30016 40079 8462/ 333 10302 56499 58039 70489 81709 83617 88457=
41851,2023,05,17,18,00,AAXX 17184 41851 32450 80902 10240 20220 30040 40104 8352/ 333 56999 58035 70314 83618 88458=
41851,2023,05,18,00,00,AAXX 18004 41851 NIL=
41851,2023,05,18,06,00,AAXX 18064 41851 31450 80903 10265 20220 30049 40112 71722 8492/ 333 56999 58012 70385 83617 81930 88457=
41851,2023,05,18,12,00,AAXX 18124 41851 32450 80902 10260 20210 30007 40070 8352/ 333 10285 56999 59016 70385 83618 88458=
41851,2023,05,18,18,00,AAXX 18184 41851 32450 81201 10245 20230 30025 40088 8352/ 333 56999 59015 70385 83618 88457=
41856,2023,05,12,00,00,AAXX 12004 41856 32940 40501 10233 20210 30046 40082 84030 333 56090 59001 70000 84362=
41856,2023,05,12,06,00,AAXX 12064 41856 32956 40502 10330 20200 30051 40086 84030 333 56090 58005 70000 84362=
41856,2023,05,12,12,00,AAXX 12124 41856 32950 20501 10330 20210 30005 40040 82030 333 10352 56090 58002 70000 84362=
41856,2023,05,12,18,00,AAXX 12184 41856 32930 20501 10250 20210 30047 40083 82030 333 56090 58005 70000 84362=
41856,2023,05,13,00,00,AAXX 13004 41856 32940 40502 10240 20190 30035 40071 84030 333 56090 59011 70000 84362=
41856,2023,05,13,06,00,AAXX 13063 41856 32956 00502 10335 20150 30028 40063 333 59023 70000=
41856,2023,05,13,12,00,AAXX 13123 41856 32956 00000 10333 20220 39997 40032 333 10365 59008 70000=
41856,2023,05,13,18,00,AAXX 13184 41856 32450 61201 10253 20230 30023 40059 83530 333 56990 59024 70000 82618 86458=
41856,2023,05,14,00,00,AAXX 14004 41856 32940 30000 10224 20200 39989 40025 83030 333 56090 59046 70000 83362=
41856,2023,05,14,06,00,AAXX 14064 41856 32956 31102 10340 20190 39985 40019 83030 333 56090 59043 70000 83362=
41856,2023,05,14,12,00,AAXX 14124 41856 32956 01302 10320 20180 39951 49986 333 10346 59046 70000=
41856,2023,05,14,18,00,AAXX 14184 41856 32950 01402 10261 20220 39986 40021 333 59037 70000=
41856,2023,05,15,00,00,AAXX 15004 41856 32950 30000 10223 20200 39982 40018 83030 333 56090 59007 70000=
41856,2023,05,15,06,00,AAXX 15064 41856 32456 51402 10313 20230 30009 40044 82230 333 56990 58024 70000 81618 84458=
41856,2023,05,15,12,00,AAXX 15124 41856 32450 81501 10302 20190 39976 40011 8352/ 333 10334 56999 58025 70000 83618 88458=
41856,2023,05,15,18,00,AAXX 15184 41856 32940 00000 10264 20230 30040 40076 333 58004 70000=
41856,2023,05,16,00,00,AAXX 16004 41856 11330 80000 10208 20200 30016 40005 60104 72196 8532/ 333 56999 58034 70236 83618 88458 81930=
41856,2023,05,16,06,00,AAXX 16064 41856 32456 50901 10301 20220 30035 40070 81530 333 56990 58026 70236 81618 85362=
41856,2023,05,16,12,00,AAXX 16124 41856 32450 50503 10282 20220 30000 40035 82530 333 10315 56990 58024 70236 82618 85362=
41856,2023,05,16,18,00,AAXX 16184 41856 11430 81302 10226 20210 30034 40070 60045 72996 8562/ 333 56799 58043 70276 83708 85614 88458=
41856,2023,05,17,00,00,AAXX 17004 41856 11330 80502 10213 20200 30055 40091 60247 79599 8692/ 333 56699 58039 70280 84708 85614 88456 81930=
41856,2023,05,17,06,00,AAXX 17064 41856 11456 40902 10280 20210 30064 40099 60016 70296 83430 333 56990 58029 70288 82618 84362=
41856,2023,05,17,12,00,AAXX 17124 41856 32450 60502 10265 20210 30044 40079 83520 333 10290 56990 58044 70288 83618 86458=
41856,2023,05,17,18,00,AAXX 17184 41856 32430 70504 10246 20230 30065 40101 83520 333 56990 58031 70248 83618 87458=
41856,2023,05,18,00,00,AAXX 18004 41856 11430 80503 10218 20210 30061 40097 60264 70296 8562/ 333 56699 58006 70265 84709 85615 88457=
41856,2023,05,18,06,00,AAXX 18064 41856 32456 60903 10270 20200 30082 40118 84420 333 56990 58018 70319 83616 86458=
41856,2023,05,18,12,00,AAXX 18124 41856 11450 80501 10255 20230 30036 40072 60025 70296 8562/ 333 10276 56699 59008 70339 84709 85615 88457=
41856,2023,05,18,18,00,AAXX 18184 41856 32430 60000 10240 20220 30054 40090 83520 333 56990 59011 70339 83618 86458=
41858,2023,05,12,00,00,AAXX 12004 41858 01/30 30505 10235 20220 30038 40084 70500 83030 333 59001 70000 83362==
41858,2023,05,12,03,00,AAXX 12034 41858 01940 00506 10302 20210 30054 40099 70500 333 20220 58001 70000==
41858,2023,05,12,06,00,AAXX 12064 41858 01450 50506 10344 20180 30040 40084 70520 83520 333 58000 70000 83618 84458==
41858,2023,05,12,09,00,AAXX 12094 41858 01450 50906 10362 20190 30011 40055 70522 83520 333 58007 70000 83618 84458==
41858,2023,05,12,12,00,AAXX 12124 41858 01/50 30605 10344 20210 39997 40041 70521 83030 333 10365 58004 70000 83362==
41858,2023,05,12,15,00,AAXX 12154 41858 01440 50605 10298 20240 30026 40071 70522 83520 333 58006 70000 83618 85458==
41858,2023,05,12,18,00,AAXX 12184 41858 01440 60605 10268 20240 30039 40085 70522 83520 333 58010 70000 83618 86458==
41858,2023,05,12,21,00,AAXX 12214 41858 01435 60605 10255 20220 30033 40079 70522 83520 333 59001 70000 83618 86458==
41858,2023,05,13,00,00,AAXX 13004 41858 01/30 30306 10250 20200 30026 40072 70522 83030 333 59012 70000 83362==
41858,2023,05,13,03,00,AAXX 13034 41858 01/40 30310 10302 20190 30038 40083 70521 83030 333 20244 59016 70000 83362==
41858,2023,05,13,06,00,AAXX 13064 41858 01/50 30612 10350 20190 30024 40068 70511 83030 333 59016 70000 83362==
41858,2023,05,13,09,00,AAXX 13094 41858 01950 00606 10370 20190 39994 40038 70500 333 59017 70000==
41858,2023,05,13,12,00,AAXX 13123 41858 01950 00603 10348 20210 39987 40031 70500 333 10374 59010 70000==
41858,2023,05,13,15,00,AAXX 13154 41858 01940 00000 10294 20220 30008 40053 70500 333 59018 70000==
41858,2023,05,13,18,00,AAXX 13184 41858 01940 00505 10260 20220 30016 40062 70500 333 59023 70000==
41858,2023,05,13,21,00,AAXX 13214 41858 01930 03605 10254 20220 30008 40054 70500 333 59025 70000==
41858,2023,05,14,00,00,AAXX 14004 41858 01/20 43605 10250 20220 39985 40031 71020 84020 333 59041 70000 84458==
41858,2023,05,14,03,00,AAXX 14034 41858 01/40 43605 10306 20210 39992 40037 70522 84030 333 20239 59046 70000 84362==
41858,2023,05,14,06,00,AAXX 14064 41858 01/50 30510 10358 20190 39980 40023 70522 83030 333 59044 70000 83362==
41858,2023,05,14,09,00,AAXX 14094 41858 01950 00310 10370 20190 39951 49995 70500 333 59043 70000==
41858,2023,05,14,12,00,AAXX 14124 41858 01950 00308 10340 20200 39940 49984 70500 333 10372 59047 70000==
41858,2023,05,14,15,00,AAXX 14154 41858 01950 00610 10294 20200 39972 40017 70500 333 59036 70000==
41858,2023,05,14,18,00,AAXX 14184 41858 01940 00608 10268 20210 39993 40038 70500 333 59023 70000==
41858,2023,05,14,21,00,AAXX 14214 41858 01/40 40505 10254 20190 39983 40029 70522 84020 333 59025 70000 84460==
41858,2023,05,15,00,00,AAXX 15004 41858 01/50 30505 10242 20180 39974 40020 70522 83030 333 59011 70000 83362==
41858,2023,05,15,03,00,AAXX 15034 41858 41435 61806 10268 20210 30002 40047 70522 83520 333 20232 58010 83615 86458==
41858,2023,05,15,06,00,AAXX 15064 41858 01950 01805 10330 20180 30000 40044 70500 333 58020 70000==
41858,2023,05,15,09,00,AAXX 15094 41858 41450 62106 10345 20200 39978 40022 70511 83520 333 58027 83615 85458==
41858,2023,05,15,12,00,AAXX 15124 41858 41450 73605 10322 20200 39963 40007 70522 84520 333 10352 58023 84615 86458==
41858,2023,05,15,15,00,AAXX 15154 41858 41940 00905 10290 20220 39984 40028 70500 333 58012==
41858,2023,05,15,18,00,AAXX 15183 41858 01440 80903 10275 20230 39993 40038 70596 8452/ 333 58000 70002 84615 88458==
41858,2023,05,15,21,00,AAXX 15214 41858 01/50 40606 10240 20220 39999 40045 70522 84040 333 58016 70002 84362==
41858,2023,05,16,00,00,AAXX 16004 41858 01950 00606 10221 20200 30007 40053 70500 333 58033 70002==
41858,2023,05,16,03,00,AAXX 16034 41858 01950 00906 10290 20210 30029 40074 70500 333 20212 58027 70002==
41858,2023,05,16,06,00,AAXX 16064 41858 01450 50504 10324 20200 30022 40066 70522 83520 333 58022 70002 83616 85458==
41858,2023,05,16,09,00,AAXX 16094 41858 01450 60606 10350 20220 39998 40042 70522 83520 333 58020 70002 83616 86458==
41858,2023,05,16,12,00,AAXX 16124 41858 01440 60306 10310 20230 39987 40031 70522 83520 333 10354 58024 70002 83616 86458==
41858,2023,05,16,15,00,AAXX 16154 41858 01440 83610 10265 20240 30004 40049 70522 8452/ 333 58020 70002 84616 88458==
41858,2023,05,16,18,00,AAXX 16184 41858 01440 80605 10252 20230 30031 40078 70522 8452/ 333 58038 70000 84616 88458==
41858,2023,05,16,21,00,AAXX 16214 41858 01440 80505 10244 20220 30026 40072 70522 8452/ 333 58027 70000 84615 88458==
41858,2023,05,17,00,00,AAXX 17004 41858 21440 80908 10222 20210 30036 40083 72996 8532/ 333 58029 60167 70156 84615 88458 81930==
41858,2023,05,17,03,00,AAXX 17034 41858 01450 70606 10250 20210 30053 40099 70522 83520 333 20210 58029 70156 83615 87458==
41858,2023,05,17,06,00,AAXX 17064 41858 01450 80608 10298 20200 30053 40098 70522 8452/ 333 58031 70156 84615 88458==
41858,2023,05,17,09,00,AAXX 17094 41858 01950 80506 10300 20200 30032 40077 70522 8452/ 333 58034 70156 84616 88458==
41858,2023,05,17,12,00,AAXX 17124 41858 01940 80506 10278 20220 30032 40077 70522 8452/ 333 58045 70156 84616 88458==
41858,2023,05,17,15,00,AAXX 17154 41858 01440 80606 10264 20220 30054 40100 70522 8452/ 333 58050 70156 84616 88458==
41858,2023,05,17,18,00,AAXX 17184 41858 01440 83605 10246 20230 30055 40101 70522 8452/ 333 58024 70156 84616 88458==
41858,2023,05,17,21,00,AAXX 17214 41858 01440 83010 10230 20200 30051 40098 72996 8452/ 333 58023 70426 84615 88458 81930==
41858,2023,05,18,00,00,AAXX 18003 41858 01450 80000 10220 20200 30050 40096 70522 8452/ 333 58014 70270 84616 88458==
41858,2023,05,18,03,00,AAXX 18034 41858 01440 80306 10250 20220 30069 40115 70522 8452/ 333 20198 58016 70270 84615 88458==
41858,2023,05,18,06,00,AAXX 18064 41858 01440 80905 10262 20210 30070 40115 70522 8452/ 333 58017 70270 84615 88458==
41858,2023,05,18,09,00,AAXX 18094 41858 01450 60906 10294 20190 30039 40084 70522 83520 333 58007 70270 83615 86458==
41858,2023,05,18,12,00,AAXX 18124 41858 01950 60906 10274 20210 30019 40067 70522 83520 333 10295 59013 70270 83615 86458==
41858,2023,05,18,15,00,AAXX 18154 41858 01450 60606 10256 20230 30041 40087 70522 83520 333 59019 70270 83615 86458==
41858,2023,05,18,18,00,AAXX 18184 41858 01450 60906 10246 20220 30041 40087 70522 83520 333 58014 70270 83615 86458==
41858,2023,05,18,21,00,AAXX 18214 41858 01440 80504 10245 20230 30036 40082 70522 8452/ 333 59015 70000 84616 88458==
41859,2023,05,12,00,00,AAXX 12004 41859 02440 40903 10242 20220 30044 40082 82530 333 58003 70000 82618 84362==
41859,2023,05,12,03,00,AAXX 12034 41859 02450 41302 10298 20240 30061 40098 82530 333 20240 58000 70000 82618 84362==
41859,2023,05,12,06,00,AAXX 12064 41859 02450 51302 10333 20200 30053 40089 83520 333 58003 70000 83618 85458==
41859,2023,05,12,09,00,AAXX 12094 41859 02456 20503 10357 20200 30025 40061 333 58014 70000==
41859,2023,05,12,12,00,AAXX 12124 41859 02450 50502 10347 20210 30004 40040 83520 333 10362 58001 70000 83618 85458==
41859,2023,05,12,15,00,AAXX 12154 41859 02430 80502 10306 20230 30037 40074 8562/ 333 58007 70000 82710 84618 88458==
41859,2023,05,12,18,00,AAXX 12184 41859 02430 80502 10284 20220 30044 40081 8562/ 333 58002 70000 82710 84618 88458==
41859,2023,05,12,21,00,AAXX 12214 41859 02430 80502 10272 20200 30030 40067 8562/ 333 59009 70000 82710 84618 88458==
41859,2023,05,13,00,00,AAXX 13004 41859 02435 70502 10254 20190 30031 40068 84610 333 59013 70000 82710 83618 87458==
41859,2023,05,13,03,00,AAXX 13034 41859 02450 40502 10301 20200 30044 40081 83520 333 20252 59017 70000 83618 84458==
41859,2023,05,13,06,00,AAXX 13064 41859 02450 50504 10331 20190 30032 40068 83520 333 59027 70000 83618 85458==
41859,2023,05,13,09,00,AAXX 13094 41859 02950 01302 10370 20200 39999 40035 333 59026 70000==
41859,2023,05,13,12,00,AAXX 13124 41859 02450 40502 10348 20220 39996 40032 82530 333 10370 59008 70000 82618 84362==
41859,2023,05,13,15,00,AAXX 13154 41859 02430 50000 10308 20230 30018 40054 83530 333 59019 70000 83618 85458==
41859,2023,05,13,18,00,AAXX 13184 41859 02430 50000 10291 20230 30019 40055 83520 333 59025 70000 83618 85458==
41859,2023,05,13,21,00,AAXX 13214 41859 02430 50502 10263 20210 30002 40039 83520 333 59028 70000 83618 85458==
41859,2023,05,14,00,00,AAXX 14004 41859 02430 50503 10256 20220 39987 40024 83520 333 59057 70000 83618 85458==
41859,2023,05,14,03,00,AAXX 14034 41859 02450 50502 10316 20170 39999 40036 83520 333 20250 59045 70000 83618 85458==
41859,2023,05,14,06,00,AAXX 14064 41859 02450 50502 10341 20190 39988 40024 83520 333 59056 70000 83618 85458==
41859,2023,05,14,09,00,AAXX 14094 41859 02950 03606 10358 20200 39957 49993 83030 333 59042 70000 83362==
41859,2023,05,14,12,00,AAXX 14124 41859 02/40 30504 10340 20200 39948 49984 83030 333 10362 59048 70000 83362==
41859,2023,05,14,15,00,AAXX 14154 41859 02430 40504 10296 20190 39983 40020 82530 333 59035 70000 82618 84362==
41859,2023,05,14,18,00,AAXX 14184 41859 02430 30502 10272 20190 39985 40022 82530 333 59034 70000 82618 83362==
41859,2023,05,14,21,00,AAXX 14214 41859 02430 30502 10256 20210 39983 40020 82530 333 59019 70000 82618 83362==
41859,2023,05,15,00,00,AAXX 15004 41859 02440 30502 10250 20200 39981 40018 82530 333 59006 70000 82618 83362==
41859,2023,05,15,03,00,AAXX 15034 41859 02450 70502 10280 20190 30002 40039 84620 333 20246 58003 70000 82710 82618 87458==
41859,2023,05,15,06,00,AAXX 15064 41859 02450 70502 10334 20190 30006 40042 84620 333 58018 70000 82710 83618 87458==
41859,2023,05,15,09,00,AAXX 15094 41859 02456 60502 10336 20210 39984 40020 83520 333 58027 70000 83618 86458==
41859,2023,05,15,12,00,AAXX 15124 41859 02450 81303 10331 20210 39972 40008 8562/ 333 10338 58024 70000 83710 84618 88458==
41859,2023,05,15,15,00,AAXX 15154 41859 02430 81302 10295 20220 39995 40032 8562/ 333 58012 70000 83710 84618 88458==
41859,2023,05,15,18,00,AAXX 15184 41859 01430 80906 10240 20200 30000 40037 70296 8562/ 333 58015 70020 83710 84618 88458==
41859,2023,05,15,21,00,AAXX 15214 41859 02430 81304 10228 20210 39995 40033 8562/ 333 58012 70020 83710 84618 88458==
41859,2023,05,16,00,00,AAXX 16004 41859 02435 71301 10220 20210 30012 40050 84610 333 58031 70020 82710 83618 87458==
41859,2023,05,16,03,00,AAXX 16034 41859 02450 70502 10334 20190 30006 40042 84620 333 58018 70000 82710 83618 87458==
41859,2023,05,16,06,00,AAXX 16064 41859 02450 41302 10311 20220 30034 40071 83510 333 58028 70020 83618 84458==
41859,2023,05,16,09,00,AAXX 16094 41859 02450 40902 10336 20240 30007 40043 82530 333 58023 70020 82618 84362==
41859,2023,05,16,11,00,AAXX 16114 41859 NIL=
41859,2023,05,16,12,00,AAXX 16124 41859 02450 60502 10305 20240 39998 40035 83520 333 10336 58026 70020 83618 86458==
41859,2023,05,16,15,00,AAXX 16154 41859 01330 83505 10246 20246 30034 40071 70296 8562/ 333 58039 70230 83708 85616 88456==
41859,2023,05,16,18,00,AAXX 16184 41859 11430 83502 10246 20230 30031 40068 60216 70292 8562/ 333 58031 70210 82710 84618 88458==
41859,2023,05,16,21,00,AAXX 16214 41859 01330 80504 10224 20220 30035 40073 71796 8692/ 333 58040 70242 84708 85614 88456 81929==
41859,2023,05,17,00,00,AAXX 17004 41859 21335 80506 10216 20216 30047 40085 79596 8692/ 333 58035 60378 70580 84708 85614 88456 81929==
41859,2023,05,17,03,00,AAXX 17034 41859 02450 80502 10241 20220 30061 40099 8562/ 333 20205 58021 70580 83709 84618 88458==
41859,2023,05,17,06,00,AAXX 17064 41859 02450 80502 10293 20200 30062 40099 8562/ 333 58028 70580 83709 84618 88458==
41859,2023,05,17,09,00,AAXX 17094 41859 02445 80502 10295 20220 30042 40079 8562/ 333 58035 70580 83710 84618 88458==
41859,2023,05,17,12,00,AAXX 17124 41859 02440 80901 10280 20210 30042 40079 8562/ 333 10300 58044 70580 83710 84618 88458==
41859,2023,05,17,15,00,AAXX 17154 41859 02430 80502 10262 20220 30064 40101 8562/ 333 58030 70370 83710 84618 88458==
41859,2023,05,17,18,00,AAXX 17184 41859 02430 80502 10250 20230 30064 40101 8562/ 333 58033 70370 83710 84618 88458==
41859,2023,05,17,21,00,AAXX 17214 41859 01330 82308 10236 20220 30058 40096 79592 8692/ 333 58023 70480 84708 85616 88456 81930==
41859,2023,05,18,00,00,AAXX 18004 41859 21430 82302 10223 20210 30060 40098 70296 8562/ 333 58013 60189 70176 83710 84618 88458==
41859,2023,05,18,03,00,AAXX 18034 41859 02445 80502 10233 20210 30075 40113 8562/ 333 20206 58014 70176 83710 84618 88458==
41859,2023,05,18,06,00,AAXX 18064 41859 02450 81302 10262 20200 30081 40119 8562/ 333 58019 70000 83710 84618 88458==
41859,2023,05,18,09,00,AAXX 18094 41859 02450 80902 10282 20210 30053 40090 8562/ 333 58011 70178 83710 84618 88458==
41859,2023,05,18,12,00,AAXX 18124 41859 11450 80502 10271 20220 30032 40069 60186 70262 8562/ 333 59010 70178 83710 84618 88458==
41859,2023,05,18,15,00,AAXX 18154 41859 02430 80502 10246 20230 30045 40082 8562/ 333 59019 70178 82710 83618 88458==
41859,2023,05,18,18,00,AAXX 18184 41859 02430 80502 10250 20230 30051 40088 8562/ 333 59013 70178 83710 85618 88458==
41859,2023,05,18,21,00,AAXX 18214 41859 02430 80502 10241 20230 30044 40082 8562/ 333 59014 70036 83710 85618 88458==
41863,2023,05,12,00,00,AAXX 12004 41863 02400 30503 10233 20210 30035 40078 83500 333 59001 70000 83618==
41863,2023,05,12,03,00,AAXX 12034 41863 02/57 30504 10300 20210 30054 40096 83030 333 20227 58000 70000 83362==
41863,2023,05,12,06,00,AAXX 12064 41863 02/57 30903 10340 20190 30043 40085 83030 333 59001 70000 83362==
41863,2023,05,12,09,00,AAXX 12094 41863 02/57 30903 10260 20190 30007 40048 83030 333 59002 70000 83362==
41863,2023,05,12,12,00,AAXX 12124 41863 02/56 30902 10343 20190 39998 40039 83030 333 10360 58006 70000 83362==
41863,2023,05,12,15,00,AAXX 12154 41863 02456 50902 10305 20230 30030 40072 83520 333 58010 70000 83618 85458==
41863,2023,05,12,18,00,AAXX 12184 41863 02456 50503 10280 20230 30037 40080 83520 333 58009 70000 83618 85458==
41863,2023,05,12,21,00,AAXX 12214 41863 02456 60502 10270 20220 30033 40076 84520 333 58006 70000 84618 86458==
41863,2023,05,13,00,00,AAXX 13004 41863 02/56 50502 10250 20200 30028 40071 85030 333 59007 70000 85362==
41863,2023,05,13,03,00,AAXX 13034 41863 02957 00904 10307 20180 30039 40081 333 20243 59015 70000==
41863,2023,05,13,06,00,AAXX 13063 41863 02/57 20902 10350 20180 30025 40067 82030 333 59018 70000 82362==
41863,2023,05,13,09,00,AAXX 13094 41863 02/57 20502 10365 20190 39996 40037 82030 333 59011 70000 82362==
41863,2023,05,13,12,00,AAXX 13123 41863 02/56 20501 10350 20210 39988 40029 82030 333 10366 59010 70000 82362==
41863,2023,05,13,15,00,AAXX 13154 41863 02950 00000 10300 20230 30008 40050 333 59022 70000==
41863,2023,05,13,18,00,AAXX 13184 41863 02950 00000 10284 20230 30007 40049 333 59030 70000==
41863,2023,05,13,21,00,AAXX 13214 41863 02950 00000 10255 20240 39983 40026 333 59050 70000==
41863,2023,05,14,00,00,AAXX 14004 41863 02950 00501 10246 20220 39983 40026 333 59045 70000==
41863,2023,05,14,03,00,AAXX 14034 41863 02/56 30901 10310 20210 39995 40037 83030 333 20240 59044 70000 83362==
41863,2023,05,14,06,00,AAXX 14064 41863 02/57 30501 10350 20200 39984 40025 83030 333 59041 70000 83362==
41863,2023,05,14,09,00,AAXX 14094 41863 02957 00905 10370 20150 39952 49993 333 59044 70000==
41863,2023,05,14,12,00,AAXX 14124 41863 02957 00904 10346 20210 39941 49982 333 10370 59047 70000==
41863,2023,05,14,15,00,AAXX 14154 41863 02950 00903 10300 20200 39975 40017 333 59033 70000==
41863,2023,05,14,18,00,AAXX 14184 41863 02950 00903 10275 20190 39975 40021 333 59028 70000==
41863,2023,05,14,21,00,AAXX 14214 41863 02950 00902 10265 20190 39981 40024 333 59002 70000==
41863,2023,05,15,00,00,AAXX 15004 41863 02450 40000 10240 20190 39974 40017 84500 333 59009 70000 84618==
41863,2023,05,15,03,00,AAXX 15034 41863 02557 21802 10286 20200 30006 40048 82400 333 20231 58011 70000 82620==
41863,2023,05,15,06,00,AAXX 15064 41863 02557 21802 10321 20170 30002 40044 82400 333 58018 70000 82620==
41863,2023,05,15,09,00,AAXX 15094 41863 02557 22301 10349 20170 39976 40017 82400 333 58024 70000 82620==
41863,2023,05,15,12,00,AAXX 15124 41863 02557 20902 10330 20200 39962 40003 82400 333 10350 58021 70000 82620==
41863,2023,05,15,18,00,AAXX 15183 41863 02450 60902 10284 20210 39992 40034 84520 333 58013 70000 84618 86458==
41863,2023,05,15,21,00,AAXX 15214 41863 02450 50503 10243 20210 39993 40036 83520 333 58012 70097 83618 85458==
41863,2023,05,16,00,00,AAXX 16004 41863 11450 50902 10225 20210 30000 40043 60106 70296 83520 333 58026 70097 83618 85458==
41863,2023,05,16,03,00,AAXX 16034 41863 02957 00903 10281 20210 30028 40071 333 20220 58022 70097==
41863,2023,05,16,06,00,AAXX 16064 41863 02957 01303 10325 20210 30023 40065 333 58023 70097==
41863,2023,05,16,09,00,AAXX 16094 41863 02457 31303 10345 20230 39995 40036 83500 333 58019 70097 83618==
41863,2023,05,16,12,00,AAXX 16124 41863 02456 30903 10328 20240 39985 40027 83500 333 10345 58023 70097 83618==
41863,2023,05,16,15,00,AAXX 16154 41863 02456 50902 10270 20220 30005 40048 83520 333 58022 70097 83618 85458==
41863,2023,05,16,18,00,AAXX 16184 41863 02456 81303 10260 20230 30025 40066 8552/ 333 58031 70097 85618 88458==
41863,2023,05,16,21,00,AAXX 16214 41863 02456 81303 10250 20210 30029 40072 8552/ 333 58036 70000 85618 88458==
41863,2023,05,17,00,00,AAXX 17004 41863 01450 80903 10226 20220 30034 40077 70292 8552/ 333 58034 70030 85618 88458==
41863,2023,05,17,03,00,AAXX 17034 41863 02456 80903 10250 20210 30054 40097 8552/ 333 20220 58026 70032 85618 88458==
41863,2023,05,17,09,00,AAXX 17094 41863 02456 81301 10292 20190 30033 40075 8452/ 333 58038 70032 84618 88458==
41863,2023,05,17,12,00,AAXX 17124 41863 02/56 40903 10295 20220 30029 40071 84030 333 10302 58044 70032 84362==
41863,2023,05,17,15,00,AAXX 17154 41863 02450 50902 10266 20230 30053 40096 83520 333 58048 70032 83618 85458==
41863,2023,05,17,18,00,AAXX 17184 41863 02450 60502 10254 20220 30064 40107 83520 333 58041 70032 83618 86458==
41863,2023,05,17,21,00,AAXX 17214 41863 01440 80902 10230 20210 30054 40097 70262 8552/ 333 58025 70164 85618 88458==
41863,2023,05,18,00,00,AAXX 18003 41863 11450 80501 10216 20210 30043 40087 60136 70262 8552/ 333 58009 70132 85618 88458==
41863,2023,05,18,03,00,AAXX 18034 41863 01456 80901 10240 20220 30074 40116 70262 8552/ 333 20206 58020 70154 85618 88458==
41863,2023,05,18,06,00,AAXX 18064 41863 11456 80503 10252 20220 30075 40118 60026 70262 8552/ 333 58021 70154 85618 88458==
41863,2023,05,18,09,00,AAXX 18094 41863 02450 80503 10282 20210 30042 40085 8452/ 333 58004 70000 84618 88458==
41863,2023,05,18,12,00,AAXX 18124 41863 02450 80904 10275 20230 30021 40063 8452/ 333 10290 59008 70154 84618 88458==
41863,2023,05,18,15,00,AAXX 18154 41863 02450 30903 10255 20230 30034 40077 83400 333 59019 70154 83618==
41863,2023,05,18,18,00,AAXX 18184 41863 02450 30902 10245 20230 30013 40086 83500 333 59021 70154 83618==
41863,2023,05,18,21,00,AAXX 18214 41863 02450 20903 10240 20220 30035 40078 82500 333 59019 70022 82618==
41881,2023,05,12,00,00,AAXX 12004 41881 32450 40901 10220 20200 30057 40077 82510 333 56990 59002 70020 82620 84460=
41881,2023,05,12,06,00,AAXX 12064 41881 32457 40902 10325 20230 30061 40080 84500 333 56900 59001 70020 84618=
41881,2023,05,12,12,00,AAXX 12124 41881 32456 40802 10318 20240 30019 40038 84500 333 10342 56900 58001 70000 84618=
41881,2023,05,12,18,00,AAXX 12184 41881 32450 30902 10258 20240 30054 40074 83500 333 59004 70000 83618=
41881,2023,05,13,00,00,AAXX 13004 41881 32956 30000 10238 20230 30045 40065 83030 333 56090 59012 70000 83362=
41881,2023,05,13,06,00,AAXX 13064 41881 32957 00000 10350 20220 30038 40058 333 59023 70000=
41881,2023,05,13,12,00,AAXX 13123 41881 32450 61301 10325 20230 30007 40026 82510 333 10360 56990 59012 70000 83618 86460=
41881,2023,05,13,18,00,AAXX 13184 41881 32450 60901 10270 20240 30033 40053 82510 333 56990 59021 70000 83618 86460=
41881,2023,05,14,00,00,AAXX 14004 41881 32950 30000 10230 20230 30000 40020 83030 333 56090 59045 70000 83362=
41881,2023,05,14,06,00,AAXX 14064 41881 32957 31301 10345 20210 39997 40017 83030 333 56090 59041 70000 83362=
41881,2023,05,14,12,00,AAXX 14124 41881 32456 41302 10315 20170 39962 49982 82500 333 10360 56900 59045 70000 84618=
41881,2023,05,14,18,00,AAXX 14184 41881 32450 40000 10255 20220 30002 40021 82500 333 56900 59031 70000 84618=
41881,2023,05,15,00,00,AAXX 15004 41881 32450 60903 10230 20200 39999 40019 82510 333 56990 59001 70000 83618 86460=
41881,2023,05,15,06,00,AAXX 15064 41881 32958 01704 10320 20180 30020 40040 333 58023 70000=
41881,2023,05,15,12,00,AAXX 15124 41881 32958 01002 10320 20190 39983 40003 333 10350 58021 70000=
41881,2023,05,15,18,00,AAXX 15183 41881 32956 01004 10270 20220 30011 40030 333 58009 70000=
41881,2023,05,16,00,00,AAXX 16004 41881 32957 00802 10230 20210 30027 40047 333 58028 70000=
41881,2023,05,16,06,00,AAXX 16064 41881 32458 50903 10328 20200 30037 40057 83520 333 56290 56290 58017 70000 83618 85460=
41881,2023,05,16,12,00,AAXX 16124 41881 32456 71404 10340 20230 30000 40020 84520 333 10360 56990 58017 70000 84618 87460=
41881,2023,05,16,18,00,AAXX 16184 41881 11440 20902 10227 20200 30041 40061 60198 70196 82500 333 56900 58030 70190 82618=
41881,2023,05,17,00,00,AAXX 17004 41881 32450 80507 10232 20200 30065 40085 8552/ 333 56199 58038 70190 85618 88459=
41881,2023,05,17,12,00,AAXX 17124 41881 32456 70901 10285 20220 30048 40068 84520 333 10315 56990 58048 70190 84618 87459=
41881,2023,05,17,18,00,AAXX 17184 41881 32450 60901 10250 20230 30077 40097 83520 333 56990 58036 70000 83618 86459=
41881,2023,05,18,00,00,AAXX 18004 41881 32450 70502 10234 20220 30080 40101 84520 333 56990 58015 70000 84618 87459=
41881,2023,05,18,06,00,AAXX 18064 41881 11456 42701 10294 20200 30082 40101 60248 70162 84500 333 56900 58006 70240 84618=
41881,2023,05,18,12,00,AAXX 18124 41881 32456 81402 10290 20210 30036 40056 8552/ 333 10315 56999 59012 70240 85616 88458=
41881,2023,05,18,18,00,AAXX 18184 41881 32450 80901 10256 20240 30059 40079 83520 333 56999 59018 70240 83618 86459=
41883,2023,05,12,00,00,AAXX 12004 41883 11/50 61304 10240 20200 30061 40081 60036 70262 86030 333 59002 70506 86362==
41883,2023,05,12,03,00,AAXX 12034 41883 02/56 50902 10288 20230 30074 40094 85030 333 20214 58001 70506 85362==
41883,2023,05,12,06,00,AAXX 12064 41883 02456 70502 10316 20240 30068 40086 85820 333 58003 70506 84615 87458==
41883,2023,05,12,09,00,AAXX 12094 41883 02456 60000 10340 20230 30032 40052 83510 333 58009 70456 83616 86459==
41883,2023,05,12,12,00,AAXX 12124 41883 02456 61302 10334 20200 30020 40040 83510 333 10340 59001 70384 83616 86459==
41883,2023,05,12,15,00,AAXX 12154 41883 02/30 60000 10275 20240 30050 40070 86030 333 59007 70364 86362==
41883,2023,05,12,18,00,AAXX 12184 41883 02930 00000 10272 20140 30054 40074 333 59024 70034==
41883,2023,05,12,21,00,AAXX 12214 41883 02930 00000 10267 20250 30042 40062 333 58000 70000==
41883,2023,05,13,00,00,AAXX 13004 41883 02/50 60503 10260 20240 30043 40063 86030 333 59018 70000 86362==
41883,2023,05,13,03,00,AAXX 13034 41883 02450 60000 10306 20240 30055 40075 82520 333 20254 59019 70000 82618 86458==
41883,2023,05,13,06,00,AAXX 13064 41883 02450 70502 10344 20230 30043 40063 83510 333 59025 70000 83618 87458==
41883,2023,05,13,09,00,AAXX 13094 41883 02956 61302 10354 20200 30017 40037 83531 333 59015 70000 83616 86074==
41883,2023,05,13,12,00,AAXX 13124 41883 02450 60000 10332 20220 30012 40032 83501 333 10359 59008 70000 83615 86080==
41883,2023,05,13,15,00,AAXX 13154 41883 02430 80902 10304 20230 30031 40051 8552/ 333 59019 70000 85616 88459==
41883,2023,05,13,18,00,AAXX 13184 41883 02430 80902 10290 20230 30031 40051 8552/ 333 59023 70000 85616 88459==
41883,2023,05,13,21,00,AAXX 13214 41883 02430 80902 10274 20230 30013 40033 8552/ 333 59023 70000 85616 88459==
41883,2023,05,14,00,00,AAXX 14004 41883 02450 80000 10262 20220 39999 40019 8552/ 333 59044 70000 85616 88459==
41883,2023,05,14,03,00,AAXX 14034 41883 02450 60502 10314 20200 30012 40032 82510 333 20255 59043 70000==
41883,2023,05,14,06,00,AAXX 14064 41883 02450 80904 10340 20180 30000 40020 8351/ 333 59043 70000 83618 88458==
41883,2023,05,14,09,00,AAXX 14094 41883 02/56 40904 10348 20180 39971 49990 84030 333 59046 70000 84362==
41883,2023,05,14,12,00,AAXX 14124 41883 02956 41304 10306 20180 39967 49987 80001 333 10350 59045 70000==
41883,2023,05,14,15,00,AAXX 14154 41883 02930 01302 10278 20190 30000 40020 333 59031 70000==
41883,2023,05,14,18,00,AAXX 14184 41883 02930 00000 10258 20200 30000 40020 333 59031 70000==
41883,2023,05,14,21,00,AAXX 14214 41883 02930 00000 10250 20200 39995 40015 333 59018 70000==
41883,2023,05,15,00,00,AAXX 15004 41883 02340 80000 10244 20200 30009 40029 8562/ 333 58010 70000 85709 88458==
41883,2023,05,15,03,00,AAXX 15034 41883 02956 01302 10282 20200 30023 40043 333 20240 58011 70000==
41883,2023,05,15,06,00,AAXX 15064 41883 02956 01302 10316 20190 30028 40048 333 58028 70000==
41883,2023,05,15,09,00,AAXX 15094 41883 02456 40902 10330 20200 30003 40023 82520 333 58032 70000 82618 84458==
41883,2023,05,15,12,00,AAXX 15124 41883 02950 00902 10316 20210 39991 40011 333 10335 58024 70000==
41883,2023,05,15,15,00,AAXX 15154 41883 02430 31304 10295 20230 30009 40029 81530 333 58009 70000 81616 83362==
41883,2023,05,15,18,00,AAXX 15184 41883 02930 01304 10284 20220 30010 40030 333 58010 70000==
41883,2023,05,15,21,00,AAXX 15214 41883 02930 00904 10262 20210 30011 40031 333 58016 70000==
41883,2023,05,16,00,00,AAXX 16004 41883 02950 00903 10245 20230 30029 40049 333 58020 70000==
41883,2023,05,16,03,00,AAXX 16034 41883 02/56 21304 10294 20210 30054 40074 82030 333 20240 58031 70000 82362==
41883,2023,05,16,06,00,AAXX 16064 41883 02956 01304 10335 20210 30041 40061 333 58013 70000==
41883,2023,05,16,09,00,AAXX 16094 41883 02456 41302 10350 20220 30023 40043 82510 333 58020 70000 82616 84459==
41883,2023,05,16,11,00,AAXX 16114 41883 32456 61302 10336 20240 30011 40031 83510 333 56390 58018 70000 83616 86459=
41883,2023,05,16,12,00,AAXX 16124 41883 02456 61302 10336 20240 30011 40031 83510 333 58018 70000 83616 86459==
41883,2023,05,16,15,00,AAXX 16154 41883 01330 80502 10244 20200 30029 40049 70396 85321 333 58020 70024 82709 83618 88458 81930==
41883,2023,05,16,18,00,AAXX 16184 41883 21430 80000 10252 20200 30049 40069 70296 8562/ 333 58039 60028 70024 82710 84618 88458==
41883,2023,05,16,21,00,AAXX 16214 41883 02430 80504 10246 20210 30039 40059 8462/ 333 58028 70024 82710 84618 88458==
41883,2023,05,17,00,00,AAXX 17004 41883 02450 80904 10252 20210 30050 40070 8562/ 333 58021 70024 82710 84616 88458==
41883,2023,05,17,03,00,AAXX 17034 41883 01356 81804 10242 20210 30080 40101 72996 8562/ 333 20217 58026 70164 85710 88459==
41883,2023,05,17,06,00,AAXX 17064 41883 11456 80906 10284 20200 30077 40097 60146 70296 8552/ 333 58036 70164 85616 88459==
41883,2023,05,17,09,00,AAXX 17094 41883 02456 71305 10304 20200 30053 40073 85820 333 58030 70164 84615 87458==
41883,2023,05,17,12,00,AAXX 17124 41883 02440 71302 10290 20210 30052 40072 85820 333 58047 70164 84615 87458==
41883,2023,05,17,15,00,AAXX 17154 41883 02430 81302 10274 20210 30069 40089 8552/ 333 58040 70140 85615 88458==
41883,2023,05,17,18,00,AAXX 17184 41883 02430 81302 10260 20220 30075 40095 8552/ 333 58026 70140 85615 88458==
41883,2023,05,17,21,00,AAXX 17214 41883 02330 80902 10228 20210 30071 40091 8562/ 333 58032 70140 85709 88458==
41883,2023,05,18,00,00,AAXX 18004 41883 21350 80902 10216 20210 30070 40090 76162 8572/ 333 58020 60307 70440 85709 88458==
41883,2023,05,18,03,00,AAXX 18034 41883 02/56 31302 10248 20210 30093 40113 83030 333 20208 58013 70300 83362==
41883,2023,05,18,06,00,AAXX 18064 41883 02/56 20903 10300 20200 30088 40108 82030 333 58011 70300 82362==
41883,2023,05,18,09,00,AAXX 18094 41883 02/56 51304 10310 20190 30063 40083 85030 333 58010 70300 85362==
41883,2023,05,18,12,00,AAXX 18124 41883 02450 81302 10290 20230 30044 40064 8552/ 333 10315 59008 70300 85616 88459==
41883,2023,05,18,15,00,AAXX 18154 41883 02430 80902 10274 20230 30056 40076 8552/ 333 59013 70300 85615 88458==
41883,2023,05,18,18,00,AAXX 18184 41883 02430 80902 10268 20240 30062 40082 8552/ 333 59013 70300 85615 88458==
41883,2023,05,18,21,00,AAXX 18214 41883 02430 80000 10262 20230 30057 40077 8552/ 333 59014 70300 85615 88458==
41886,2023,05,12,00,00,AAXX 12004 41886 02456 70000 10240 20220 30070 40090 81570 333 59001 70530 81618 86460==
41886,2023,05,12,03,00,AAXX 12034 41886 02/56 70000 10282 20230 30085 40106 87070 333 20214 58000 70530 86460==
41886,2023,05,12,06,00,AAXX 12064 41886 02/57 70000 10312 20230 30072 40092 87070 333 59001 70530 86460==
41886,2023,05,12,09,00,AAXX 12094 41886 02/58 70000 10330 20260 30052 40072 87070 333 58018 70530 86460==
41886,2023,05,12,12,00,AAXX 12124 41886 02456 70000 10315 20260 30028 40048 83570 333 10331 59006 70000 83618 86460==
41886,2023,05,12,15,00,AAXX 12154 41886 02450 80000 10285 20260 30053 40073 8352/ 333 59006 70000 83618 88460==
41886,2023,05,12,18,00,AAXX 12184 41886 02450 80000 10270 20260 30060 40080 8352/ 333 59004 70000 83618 88460==
41886,2023,05,12,21,00,AAXX 12214 41886 02440 80000 10255 20250 30057 40077 8352/ 333 59009 70000 83616 88460==
41886,2023,05,13,00,00,AAXX 13004 41886 01450 70000 10253 20250 30044 40064 70522 83510 333 59027 70000 83618 86460==
41886,2023,05,13,03,00,AAXX 13034 41886 02456 60000 10300 20250 30061 40081 84470 333 20250 59024 70000 83618 85460==
41886,2023,05,13,06,00,AAXX 13063 41886 02458 70000 10330 20220 30050 40070 83510 333 59022 70000 83618 87460==
41886,2023,05,13,09,00,AAXX 13094 41886 02458 70000 10345 20220 30023 40043 82510 333 59029 70000 82618 87460==
41886,2023,05,13,12,00,AAXX 13123 41886 02457 70000 10325 20240 30016 40036 83510 333 10345 59012 70000 83618 87460==
41886,2023,05,13,15,00,AAXX 13154 41886 02450 80000 10290 20240 30036 40056 8452/ 333 59017 70000 84616 88458==
41886,2023,05,13,18,00,AAXX 13184 41886 02450 80000 10270 20240 30033 40053 8452/ 333 59027 70000 84616 88458==
41886,2023,05,13,21,00,AAXX 13214 41886 02450 80000 10260 20220 30017 40037 8452/ 333 59040 70000 84616 88458==
41886,2023,05,14,00,00,AAXX 14004 41886 02456 80000 10260 20210 30001 40021 8452/ 333 59023 70000 84616 88458==
41886,2023,05,14,03,00,AAXX 14034 41886 02456 80000 10280 20200 30010 40030 8452/ 333 20256 59051 70000 84616 88458==
41886,2023,05,14,06,00,AAXX 14064 41886 02456 80404 10305 20190 30006 40026 8452/ 333 59044 70000 84616 88458==
41886,2023,05,14,09,00,AAXX 14094 41886 02456 80908 10299 20180 39982 40102 8352/ 333 59041 70000 82618 88460==
41886,2023,05,14,12,00,AAXX 14124 41886 02456 80906 10276 20180 39969 49989 8442/ 333 10310 59047 70000 83618 88460==
41886,2023,05,14,15,00,AAXX 14154 41886 02450 60000 10250 20220 39996 40017 82570 333 59020 70000 82618 85460==
41886,2023,05,14,18,00,AAXX 14184 41886 02450 60000 10240 20220 39999 40020 82570 333 59034 70000 82618 85460==
41886,2023,05,14,21,00,AAXX 14214 41886 02/50 50000 10230 20220 30005 40026 85030 333 59012 70000 85365==
41886,2023,05,15,00,00,AAXX 15004 41886 02/57 30000 10229 20210 30022 40043 83030 333 58021 70000 83365==
41886,2023,05,15,03,00,AAXX 15034 41886 02457 61106 10268 20190 30029 40049 82570 333 20221 58019 70000 82618 85460==
41886,2023,05,15,06,00,AAXX 15064 41886 02457 51103 10304 20200 30036 40056 82530 333 58030 70000 82618 85365==
41886,2023,05,15,09,00,AAXX 15094 41886 02456 60000 10318 20210 30017 40037 84470 333 58035 70000 83618 85460==
41886,2023,05,15,12,00,AAXX 15124 41886 02456 60000 10310 20220 30003 40023 84470 333 10324 58034 70000 83618 85460==
41886,2023,05,15,15,00,AAXX 15154 41886 02450 60000 10285 20230 30025 40045 84470 333 58029 70000 82618 85460==
41886,2023,05,15,18,00,AAXX 15183 41886 01450 80903 10240 20210 30022 40043 72996 8592/ 333 58023 70210 83616 88458 81930==
41886,2023,05,15,21,00,AAXX 15214 41886 02450 60000 10250 20210 30025 40046 82570 333 58020 70210 82618 85460==
41886,2023,05,16,00,00,AAXX 16004 41886 02456 60901 10230 20210 30040 40061 82570 333 58018 70210 82618 85460==
41886,2023,05,16,03,00,AAXX 16034 41886 02958 01105 10280 20210 30062 40082 333 20228 58033 70210==
41886,2023,05,16,06,00,AAXX 16064 41886 02457 30000 10316 20220 30061 40081 83500 333 58025 70210 83618==
41886,2023,05,16,09,00,AAXX 16094 41886 02457 71304 10332 20240 30032 40052 84510 333 58015 70210 84618 84460==
41886,2023,05,16,12,00,AAXX 16124 41886 02456 81304 10314 20250 30019 40039 8452/ 333 10334 58016 70210 84617 88459==
41886,2023,05,16,15,00,AAXX 16154 41886 01450 81810 10285 20210 30041 40061 71396 8632/ 333 58016 70230 85616 88458 81930==
41886,2023,05,16,18,00,AAXX 16184 41886 11450 81504 10276 20210 30054 40074 60026 70296 8552/ 333 58032 70020 85616 88458==
41886,2023,05,16,21,00,AAXX 16214 41886 02450 80000 10240 20190 30040 40061 8552/ 333 58015 70020 85616 88458==
41886,2023,05,17,00,00,AAXX 17004 41886 02456 70000 10234 20210 30079 40100 85570 333 58039 70020 85618 84460==
41886,2023,05,17,03,00,AAXX 17034 41886 01350 80508 10205 20205 30086 40107 79522 8632/ 333 20205 58024 70260 83710 85616 88458 81930==
41886,2023,05,17,06,00,AAXX 17064 41886 01457 10000 10260 20200 30088 40109 70196 81500 333 58027 70263 81618==
41886,2023,05,17,09,00,AAXX 17094 41886 02458 11302 10290 20220 30067 40087 81500 333 58035 70263 81618==
41886,2023,05,17,12,00,AAXX 17124 41886 02456 81304 10275 20220 30069 40089 8452/ 333 10290 58050 70263 84616 88458==
41886,2023,05,17,15,00,AAXX 17154 41886 02450 81302 10265 20220 30084 40105 8532/ 333 58043 70243 85616 88458 81930==
41886,2023,05,17,18,00,AAXX 17184 41886 01450 80908 10260 20200 30080 40101 71322 8532/ 333 58026 70243 85616 88458 81930==
41886,2023,05,17,21,00,AAXX 17214 41886 01450 80904 10240 20200 30095 40116 71722 8532/ 333 58055 70243 85616 88458 81930==
41886,2023,05,18,00,00,AAXX 18004 41886 01340 83104 10215 20210 30109 40130 79592 8732/ 333 58030 70070 84710 85616 88458 81930==
41886,2023,05,18,03,00,AAXX 18034 41886 01457 81504 10243 20210 30089 40110 70296 8351/ 333 20215 58003 70095 83618 88460==
41886,2023,05,18,06,00,AAXX 18064 41886 11458 50000 10280 20220 30098 40119 60036 70196 82470 333 58010 70092 81618 84460==
41886,2023,05,18,09,00,AAXX 18094 41886 02/58 30000 10290 20220 30075 40095 83040 333 58008 70092 83365==
41886,2023,05,18,12,00,AAXX 18124 41886 02457 70000 10280 20230 30059 40079 82570 333 10295 59010 70092 82618 86460==
41886,2023,05,18,15,00,AAXX 18154 41886 02450 80000 10265 20240 30070 40090 8351/ 333 59014 70092 83618 88460==
41886,2023,05,18,18,00,AAXX 18184 41886 02450 80000 10255 20240 30069 40090 8452/ 333 59011 70092 84616 88458==
41886,2023,05,18,21,00,AAXX 18214 41886 02450 80000 10250 20230 30064 40085 8452/ 333 59031 70092 84616 88458==
41888,2023,05,12,00,00,AAXX 12004 41888 32440 80000 10228 20220 30078 40088 8351/ 333 56999 58000 70004 83618 88460=
41888,2023,05,12,06,00,AAXX 12064 41888 32456 80906 10320 20210 30076 40086 8151/ 333 56999 59004 70004 81618 88460=
41888,2023,05,12,12,00,AAXX 12124 41888 32456 62703 10322 20240 30032 40042 83510 333 10345 56990 59016 70000 83618 86460=
41888,2023,05,12,18,00,AAXX 12184 41888 32940 40000 10254 20240 30066 40076 84030 333 56090 59002 70000 84030=
41888,2023,05,13,00,00,AAXX 13004 41888 32440 60901 10244 20230 30054 40064 82510 333 56990 59024 70000 82618 86460=
41888,2023,05,13,06,00,AAXX 13064 41888 32956 60902 10334 20190 30054 40064 86010 333 56090 59022 70000 86460=
41888,2023,05,13,12,00,AAXX 13124 41888 32956 60901 10315 20230 30024 40034 82508 333 10360 56909 59008 70000 82618 86276=
41888,2023,05,13,18,00,AAXX 13184 41888 32440 70901 10260 20230 30041 40051 82510 333 56990 59025 70000 82618 87460=
41888,2023,05,14,00,00,AAXX 14004 41888 32440 80501 10250 20210 30008 40018 8452/ 333 56999 59046 70000 84618 88460=
41888,2023,05,14,06,00,AAXX 14064 41888 32456 80908 10304 20150 30011 40021 8452/ 333 56999 59043 70000 84618 88460=
41888,2023,05,14,12,00,AAXX 14124 41888 32450 80000 10265 20200 39972 49982 8542/ 333 10315 56999 59052 70000 83618 88460=
41888,2023,05,14,18,00,AAXX 14184 41888 32940 00000 10225 20210 30003 40013 333 59038 70000=
41888,2023,05,15,00,00,AAXX 15004 41888 31940 53601 10214 20200 30028 40038 70521 80001 333 56009 58020 70000 85080=
41888,2023,05,15,06,00,AAXX 15064 41888 32456 41503 10300 20200 30044 40054 84400 333 56900 58033 70000 82618 83820=
41888,2023,05,15,12,00,AAXX 15124 41888 32456 71402 10305 20200 30013 40023 84510 333 10318 56990 58041 70000 84618 87460=
41888,2023,05,15,18,00,AAXX 15183 41888 32340 81208 10268 20220 30031 40041 71792 8492/ 333 56999 58028 70000 82708 83616 81928 88458=
41888,2023,05,16,00,00,AAXX 16004 41888 32950 20903 10223 20190 30046 40056 70192 82030 333 56090 58018 70000 82365=
41888,2023,05,16,06,00,AAXX 16064 41888 32458 21401 10327 20200 30064 40074 82500 333 56900 58020 70000 82618=
41888,2023,05,16,12,00,AAXX 16124 41888 32456 61801 10324 20230 30028 40038 83310 333 10340 56990 58015 70000 82618 81928 86460=
41888,2023,05,16,18,00,AAXX 16184 41888 11450 83605 10230 20210 30072 40082 69926 71362 8432/ 333 56999 58041 70002 83616 81928 88458=
41888,2023,05,17,00,00,AAXX 17004 41888 32456 50902 10219 20210 30080 40090 82530 333 56990 58034 70002 82618 85365=
41888,2023,05,17,06,00,AAXX 17064 41888 11450 81402 10248 20200 30092 40102 60198 70596 8252/ 333 56999 58028 70195 82618 88459=
41888,2023,05,17,12,00,AAXX 17124 41888 32456 51403 10275 20210 30077 40087 83310 333 10295 56990 58049 70195 82616 81928 85459=
41888,2023,05,17,18,00,AAXX 17184 41888 11330 80903 10215 20210 30085 40095 60597 71796 8592/ 333 56999 58013 70783 82708 84616 81926 88458=
41888,2023,05,18,00,00,AAXX 18004 41888 11330 83202 10220 20220 30123 40133 60114 79596 8492/ 333 56999 58043 70893 82706 83614 81928 88456=
41888,2023,05,18,06,00,AAXX 18064 41888 11450 81208 10260 20210 30100 40110 60066 70596 8432/ 333 56999 58008 70755 83616 81928 88458=
41888,2023,05,18,12,00,AAXX 18124 41888 32456 70901 10270 20220 30069 40079 84310 333 10285 56990 59008 70755 83616 81930 87460=
41888,2023,05,18,18,00,AAXX 18184 41888 32440 60905 10246 20230 30082 40092 71322 83310 333 56990 59003 70165 82616 81928 86458=
41891,2023,05,12,00,00,AAXX 12004 41891 01430 83603 10245 20230 30056 40095 70522 8532/ 333 59002 70016 81710 84615 88459 81930==
41891,2023,05,12,03,00,AAXX 12034 41891 01440 70902 10293 20230 30064 40102 70562 84370 333 20237 59008 70018 84615 86460 81930==
41891,2023,05,12,06,00,AAXX 12064 41891 11440 71302 10324 20210 30050 40088 69921 70562 84370 333 59010 70018 84615 86460 81930==
41891,2023,05,12,09,00,AAXX 12094 41891 01445 70502 10330 20230 30014 40051 70522 84370 333 59004 70018 84615 86460 81930==
41891,2023,05,12,12,00,AAXX 12124 41891 01440 83103 10308 20230 30001 40039 70522 8532/ 333 10340 59011 70018 81710 84615 88459 81930==
41891,2023,05,12,15,00,AAXX 12154 41891 01930 01003 10275 20260 30034 40072 70521 333 59003 70000==
41891,2023,05,12,18,00,AAXX 12184 41891 01930 81103 10262 20240 30036 40074 70521 333 59001 70000==
41891,2023,05,12,21,00,AAXX 12214 41891 01430 81003 10250 20230 30021 40059 70522 8532/ 333 59014 70000 84616 88460 81930==
41891,2023,05,13,00,00,AAXX 13004 41891 01430 81203 10245 20220 30028 40066 70522 8532/ 333 59028 70000 84616 88460 81930==
41891,2023,05,13,03,00,AAXX 13034 41891 01440 71302 10278 20220 30043 40081 70522 84370 333 20245 59021 70000 84615 86460 81930==
41891,2023,05,13,06,00,AAXX 13064 41891 01440 71302 10312 20190 30030 40068 70522 84370 333 59020 70000 84615 86460 81930==
41891,2023,05,13,09,00,AAXX 13094 41891 01445 70904 10322 20210 30007 40044 70522 84370 333 59007 70000 84615 86460 81930==
41891,2023,05,13,12,00,AAXX 13124 41891 01440 81003 10302 20220 30004 40042 70522 8532/ 333 10330 58003 70000 82710 84615 88459 81930==
41891,2023,05,13,15,00,AAXX 13154 41891 01430 80603 10280 20220 30018 40056 70522 8532/ 333 59016 70000 82710 84615 88459 81930==
41891,2023,05,13,18,00,AAXX 13184 41891 01430 80904 10276 20210 30012 40050 70522 8532/ 333 59024 70000 82710 84615 88459 81930==
41891,2023,05,13,21,00,AAXX 13214 41891 01430 81006 10270 20200 30000 40038 70522 8532/ 333 59021 70000 82710 84615 88459 81930==
41891,2023,05,14,00,00,AAXX 14004 41891 01430 81208 10265 20200 39980 40018 70522 8532/ 333 59048 70000 82710 84615 88459 81930==
41891,2023,05,14,03,00,AAXX 14034 41891 01440 80907 10283 20170 39994 40032 70522 8532/ 333 20264 59049 70000 81710 84615 88459 81930==
41891,2023,05,14,06,00,AAXX 14064 41891 01440 81309 10292 20170 39991 40029 70522 8532/ 333 59039 70000 82710 84615 88459 81930==
41891,2023,05,14,09,00,AAXX 14094 41891 01440 81210 10258 20180 39963 40001 70522 8532/ 333 59044 70000 82710 84615 88459 81930==
41891,2023,05,14,12,00,AAXX 14124 41891 11435 81306 10257 20190 39937 49975 60002 70562 8532/ 333 10304 59067 82710 84615 88459 81930==
41891,2023,05,14,15,00,AAXX 14154 41891 41430 80707 10263 20170 39972 40010 70522 8532/ 333 59046 82710 83616 88459 81930==
41891,2023,05,14,18,00,AAXX 14184 41891 41430 80103 10253 20240 39973 40011 70522 8532/ 333 59039 82710 83616 88459 81930==
41891,2023,05,14,21,00,AAXX 14214 41891 41430 80903 10240 20220 39988 40026 70522 8532/ 333 59012 82710 83616 88459 81930==
41891,2023,05,15,00,00,AAXX 15004 41891 41440 81603 10228 20220 30002 40040 70522 8532/ 333 58022 84616 84460 81930==
41891,2023,05,15,03,00,AAXX 15034 41891 41440 41304 10270 20200 30020 40058 70522 82340 333 20218 58026 82615 83365 81930==
41891,2023,05,15,06,00,AAXX 15064 41891 41445 60902 10290 20190 30022 40060 70522 83340 333 58031 83615 85365 81930==
41891,2023,05,15,09,00,AAXX 15094 41891 41450 40502 10302 20200 30001 40039 70521 82340 333 58038 82615 83365 81930==
41891,2023,05,15,12,00,AAXX 15124 41891 01440 61302 10290 20210 30000 40038 70521 83340 333 10312 58063 70000 83615 85365 81930==
41891,2023,05,15,15,00,AAXX 15154 41891 01435 80902 10270 20220 30024 40062 70522 8532/ 333 58052 70000 81710 84615 88460 81930==
41891,2023,05,15,18,00,AAXX 15184 41891 01430 80605 10260 20220 30016 40054 70522 8532/ 333 58043 70000 81710 84615 88460 81930==
41891,2023,05,15,21,00,AAXX 15214 41891 01430 80806 10232 20210 39995 40034 70522 8532/ 333 59007 70014 82710 84615 88459 81930==
41891,2023,05,16,00,00,AAXX 16004 41891 11430 80905 10225 20210 30030 40069 60016 70562 8532/ 333 58028 70014 81710 84615 88460 81930==
41891,2023,05,16,03,00,AAXX 16034 41891 01440 30902 10274 20210 30050 40088 70522 81340 333 20215 58030 70014 81615 83365 81930==
41891,2023,05,16,06,00,AAXX 16064 41891 01445 61302 10300 20210 30046 40084 70522 83340 333 58024 70014 83615 85365 81930==
41891,2023,05,16,09,00,AAXX 16094 41891 01450 50604 10320 20230 30022 40060 70522 83310 333 58021 70014 83616 85460 81930==
41891,2023,05,16,11,00,AAXX 16114 41891 11440 61803 10227 20227 30017 40055 60594 72996 84310 333 10328 56990 58017 70604 83710 81930 86460=
41891,2023,05,16,12,00,AAXX 16124 41891 01440 61803 10227 20227 30017 40055 72996 84310 333 10328 58017 70590 83710 86460 81930==
41891,2023,05,16,15,00,AAXX 16154 41891 01330 80703 10236 20236 30041 40080 76162 8432/ 333 58023 70614 83710 88460 81930==
41891,2023,05,16,18,00,AAXX 16184 41891 01330 80803 10206 20206 30046 40085 79596 8632/ 333 58030 70400 85708 88458 81928==
41891,2023,05,16,21,00,AAXX 16214 41891 01430 80804 10210 20210 30041 40080 70596 8532/ 333 58046 71000 81710 83616 88460 81930==
41891,2023,05,17,00,00,AAXX 17004 41891 11440 80904 10216 20216 30061 40100 60016 70596 8537/ 333 58031 71000 81710 83616 86460 81930==
41891,2023,05,17,03,00,AAXX 17034 41891 01440 70902 10270 20200 30083 40122 70522 84370 333 20206 58033 71000 84615 86460 81930==
41891,2023,05,17,06,00,AAXX 17064 41891 01320 82304 10240 20220 30082 40121 79596 8632/ 333 58036 70030 86707 88458 81925==
41891,2023,05,17,09,00,AAXX 17094 41891 01440 70903 10282 20230 30047 40085 70596 84370 333 58025 71048 84615 86460 81930==
41891,2023,05,17,12,00,AAXX 17124 41891 11435 71003 10265 20230 30058 40096 60016 70596 84370 333 10292 58041 70458 84615 86460 81930==
41891,2023,05,17,15,00,AAXX 17154 41891 01430 60902 10247 20240 30075 40114 70522 83340 333 58034 70448 83615 85365 81930==
41891,2023,05,17,18,00,AAXX 17184 41891 01430 80000 10240 20220 30076 40115 70522 8537/ 333 58030 70058 81710 83616 88460 81930==
41891,2023,05,17,21,00,AAXX 17214 41891 01320 81203 10232 20220 30075 40114 79596 8632/ 333 58034 70102 86707 88458 81925==
41891,2023,05,18,00,00,AAXX 18004 41891 21320 81202 10225 20220 30075 40114 79596 8632/ 333 58014 60149 70192 86707 88458 81925==
41891,2023,05,18,03,00,AAXX 18034 41891 01320 83104 10226 20220 30076 40115 79596 8632/ 333 20224 59007 70290 86707 88458 81925==
41891,2023,05,18,06,00,AAXX 18064 41891 01440 71305 10258 20220 30082 40121 71796 84370 333 58000 70260 84615 86460 81930==
41891,2023,05,18,09,00,AAXX 18094 41891 01440 80502 10260 20220 30059 40098 70592 8532/ 333 58012 70246 81710 84615 88460 81930==
41891,2023,05,18,12,00,AAXX 18124 41891 01440 80502 10259 20220 30047 40086 70522 8532/ 333 10272 59011 70246 81710 84615 88459 81930==
41891,2023,05,18,15,00,AAXX 18154 41891 01435 70902 10245 20230 30059 40098 70522 84370 333 59016 70246 84615 86460 81930==
41891,2023,05,18,18,00,AAXX 18184 41891 01430 80602 10239 20220 30056 40095 70522 8532/ 333 59020 70246 81710 84615 88459 81930==
41891,2023,05,18,21,00,AAXX 18214 41891 01430 80902 10240 20220 30050 40089 70562 8532/ 333 59025 70192 81710 84615 88459 81930==
41895,2023,05,12,00,00,AAXX 12004 41895 02950 31301 10235 20220 30053 40075 80001 333 58005 70000 83074==
41895,2023,05,12,03,00,AAXX 12034 41895 02957 41304 10295 20230 30065 40087 80001 333 20231 58003 70000 84080==
41895,2023,05,12,06,00,AAXX 12064 41895 02457 30904 10340 20250 30057 40079 83500 333 58003 70000 83616==
41895,2023,05,12,09,00,AAXX 12094 41895 02456 51302 10363 20240 30019 40041 83510 333 59004 70000 83616 85458==
41895,2023,05,12,12,00,AAXX 12124 41895 02450 60901 10332 20230 30013 40035 84520 333 10367 58005 70000 84615 86458==
41895,2023,05,12,15,00,AAXX 12154 41895 02450 60902 10288 20240 30039 40061 84520 333 58006 70000 84615 86458==
41895,2023,05,12,18,00,AAXX 12184 41895 02450 60901 10270 20230 30048 40070 84520 333 58001 70000 84615 86458==
41895,2023,05,12,21,00,AAXX 12214 41895 02450 60000 10258 20240 30037 40060 84520 333 59010 70000 84615 86458==
41895,2023,05,13,00,00,AAXX 13004 41895 02450 60000 10252 20240 30034 40057 84520 333 59019 70000 84615 86458==
41895,2023,05,13,03,00,AAXX 13034 41895 02956 00902 10317 20260 30046 40068 333 20250 59019 70000==
41895,2023,05,13,06,00,AAXX 13064 41895 02957 00503 10358 20210 30032 40054 333 59025 70000==
41895,2023,05,13,09,00,AAXX 13094 41895 02957 00504 10374 20200 30013 40035 333 59006 70000==
41895,2023,05,13,12,00,AAXX 13123 41895 02957 40000 10343 20230 30000 40022 80001 333 10380 59013 70000 84074==
41895,2023,05,13,15,00,AAXX 13154 41895 02/56 50703 10297 20230 30024 40046 84011 333 59015 70000 84458 83074==
41895,2023,05,13,18,00,AAXX 13184 41895 02456 80000 10277 20240 30022 40044 8452/ 333 59026 70000 84616 88458==
41895,2023,05,13,21,00,AAXX 13214 41895 01950 30402 10261 20240 30008 40030 70511 80001 333 59029 70000 83074==
41895,2023,05,14,00,00,AAXX 14004 41895 01950 30000 10251 20240 39997 40019 70511 80001 333 59037 70000 83074==
41895,2023,05,14,03,00,AAXX 14034 41895 02/56 60506 10310 20210 30003 40025 83011 333 20250 59043 70000 83458 85074==
41895,2023,05,14,06,00,AAXX 14064 41895 02957 30509 10350 20180 39994 40016 80001 333 59038 70000 83074==
41895,2023,05,14,09,00,AAXX 14094 41895 02457 10504 10360 20190 39969 49990 81500 333 59044 70000 81618==
41895,2023,05,14,12,00,AAXX 14124 41895 02456 20504 10330 20190 39962 49984 82500 333 59038 70000 82617==
41895,2023,05,14,15,00,AAXX 14154 41895 02950 01304 10275 20200 39994 40016 333 59030 70000==
41895,2023,05,14,18,00,AAXX 14184 41895 02950 00000 10250 20200 39995 40018 333 59027 70000==
41895,2023,05,14,21,00,AAXX 14214 41895 02950 00000 10240 20200 39997 40019 333 59011 70000==
41895,2023,05,15,00,00,AAXX 15004 41895 02950 20000 10244 20190 30010 40032 80001 333 58013 70000 82074==
41895,2023,05,15,03,00,AAXX 15034 41895 02957 01802 10294 20200 30024 40046 333 20228 58021 70000==
41895,2023,05,15,06,00,AAXX 15064 41895 02957 01304 10344 20190 30017 40039 333 58023 70000==
41895,2023,05,15,09,00,AAXX 15094 41895 02957 00902 10362 20200 39991 40012 333 58022 70000==
41895,2023,05,15,12,00,AAXX 15124 41895 02450 50902 10340 20230 39979 40000 83510 333 10367 58017 70000 83616 85458==
41895,2023,05,15,15,00,AAXX 15154 41895 02450 50902 10290 20220 30005 40027 83510 333 58011 70000 83616 85458==
41895,2023,05,15,18,00,AAXX 15184 41895 02450 50902 10268 20220 30014 40036 83520 333 58019 70000 83615 85458==
41895,2023,05,16,00,00,AAXX 16004 41895 02950 00903 10227 20210 30021 40044 333 58011 70000==
41895,2023,05,16,03,00,AAXX 16034 41895 02957 00502 10298 20220 30044 40066 333 20224 58020 70000==
41895,2023,05,16,06,00,AAXX 16064 41895 02957 01304 10346 20230 30035 40057 333 58018 70000==
41895,2023,05,16,09,00,AAXX 16094 41895 02957 01802 10374 20260 30009 40041 333 58018 70000==
41895,2023,05,16,12,00,AAXX 16124 41895 01456 61804 10261 20200 39998 40021 72992 84520 333 10383 58019 70120 84616 85458==
41895,2023,05,16,15,00,AAXX 16154 41895 02456 31502 10239 20230 30029 40052 82520 333 58024 70120 82616 83458==
41895,2023,05,16,18,00,AAXX 16184 41895 02956 01503 10237 20220 30037 40060 333 58023 70120==
41895,2023,05,16,21,00,AAXX 16214 41895 02950 01303 10245 20220 30027 40050 333 58010 70120==
41895,2023,05,17,00,00,AAXX 17004 41895 02459 81205 10244 20210 30034 40057 8452/ 333 58013 70120 84615 88458==
41895,2023,05,17,03,00,AAXX 17034 41895 02450 81304 10286 20240 30062 40084 8452/ 333 20209 58018 70120 84615 88458==
41895,2023,05,17,06,00,AAXX 17064 41895 02450 80905 10322 20250 30058 40080 8452/ 333 58023 70120 84615 88458==
41895,2023,05,17,09,00,AAXX 17094 41895 02457 51305 10335 20250 30041 40063 83520 333 58032 70120 83616 85458==
41895,2023,05,17,12,00,AAXX 17124 41895 01456 80504 10300 20250 30029 40051 72162 8452/ 333 10336 58031 70001 84615 88458==
41895,2023,05,17,15,00,AAXX 17154 41895 02450 81802 10265 20220 30056 40078 8352/ 333 58027 70001 83616 88458==
41895,2023,05,17,18,00,AAXX 17184 41895 02450 60000 10245 20230 30069 40092 83520 333 58032 70001 83616 86458==
41895,2023,05,17,21,00,AAXX 17214 41895 01450 82307 10225 20220 30054 40076 71722 8532/ 333 58027 70001 84615 88458 81930==
41895,2023,05,18,00,00,AAXX 18004 41895 21450 61304 10205 20205 30063 40086 70196 83520 333 58029 60207 70197 83616 86458==
41895,2023,05,18,03,00,AAXX 18034 41895 02957 00503 10260 20210 30083 40105 333 20195 58021 70197==
41895,2023,05,18,06,00,AAXX 18064 41895 02457 20903 10310 20220 30078 40100 82500 333 58020 70197 82616==
41895,2023,05,18,09,00,AAXX 18094 41895 02456 60902 10330 20240 30053 40075 83520 333 58012 70197 83615 86458==
41895,2023,05,18,12,00,AAXX 18124 41895 02450 61302 10298 20250 30034 40056 83520 333 10335 58005 70196 83615 86458==
41895,2023,05,18,15,00,AAXX 18154 41895 02450 60901 10273 20230 30048 40071 83520 333 59008 70196 83615 86458==
41895,2023,05,18,18,00,AAXX 18184 41895 02450 60902 10260 20240 30055 40078 83520 333 59014 70196 83615 86458==
41895,2023,05,18,21,00,AAXX 18214 41895 02450 60000 10250 20230 30042 40065 83520 333 59012 70196 83615 86458==
41897,2023,05,12,00,00,AAXX 12004 41897 31950 00000 10235 20200 30070 40084 70500 333 58004 70000=
41897,2023,05,12,06,00,AAXX 12064 41897 32956 50901 10318 20240 30070 40083 81510 333 56990 58003 70000 81618 85458=
41897,2023,05,12,12,00,AAXX 12124 41897 32456 50000 10308 20260 30030 40043 82530 333 10344 56990 58010 70000 82618 83561=
41897,2023,05,12,18,00,AAXX 12184 41897 NIL=
41897,2023,05,13,00,00,AAXX 13004 41897 31450 50000 10250 20240 30046 40060 70520 81530 333 56990 59024 70000=
41897,2023,05,13,06,00,AAXX 13064 41897 32956 30901 10340 20220 30054 40067 83030 333 56090 59016 70000 83361=
41897,2023,05,13,12,00,AAXX 13123 41897 32950 40902 10312 20240 30015 40028 84030 333 10355 56090 59015 70000 84362=
41897,2023,05,13,18,00,AAXX 13184 41897 31445 60902 10265 20250 30027 40040 70522 82530 333 56990 59040 70000 82616 86360=
41897,2023,05,14,00,00,AAXX 14004 41897 31930 60901 10250 20230 30004 40017 70522 86030 333 56090 59042 70000 86360=
41897,2023,05,14,06,00,AAXX 14064 41897 32956 00910 10330 20170 30002 40015 333 59025 70000=
41897,2023,05,14,12,00,AAXX 14124 41897 32956 00806 10295 20170 39976 49989 333 10340 59039 70000=
41897,2023,05,14,18,00,AAXX 14184 41897 31945 00000 10233 20200 30004 40017 70500 333 59023 70000=
41897,2023,05,15,00,00,AAXX 15004 41897 31935 60000 10230 20200 30020 40033 70520 86030 333 56090 58016 70000 86360=
41897,2023,05,15,06,00,AAXX 15064 41897 32956 01505 10310 20190 30037 40050 333 58035 70000=
41897,2023,05,15,12,00,AAXX 15124 41897 32956 01702 10310 20210 39997 40010 333 10331 58021 70000=
41897,2023,05,15,18,00,AAXX 15183 41897 32950 01802 10247 20210 30021 40034 333 58017 70000=
41897,2023,05,16,00,00,AAXX 16004 41897 31935 00000 10225 20210 30034 40048 70500 333 58014 70000=
41897,2023,05,16,06,00,AAXX 16064 41897 32956 01805 10320 20210 30052 40065 333 58015 70000=
41897,2023,05,16,12,00,AAXX 16124 41897 NIL=
41897,2023,05,16,18,00,AAXX 16184 41897 31945 31804 10240 20190 30057 40070 70392 83030 333 56090 58036 70000 83360=
41897,2023,05,17,00,00,AAXX 17004 41897 32435 81704 10246 20200 30054 40067 8452/ 333 56499 58020 70000 84615 88458=
41897,2023,05,17,06,00,AAXX 17064 41897 11450 41004 10295 20190 30081 40094 60116 70362 82530 333 56990 58029 70107 82616 84362=
41897,2023,05,17,12,00,AAXX 17124 41897 32450 41302 10295 20210 30055 40068 81530 333 10316 56990 58044 70107 81617 84361=
41897,2023,05,17,18,00,AAXX 17184 41897 32450 51302 10256 20210 30080 40094 81530 333 56990 58023 70107 81618 85361=
41897,2023,05,18,00,00,AAXX 18004 41897 11450 60901 10210 20200 30066 40080 60387 72162 83530 333 56990 58012 70487 83617 86361=
41897,2023,05,18,06,00,AAXX 18064 41897 32450 50901 10285 20200 30091 40104 81510 333 56990 58010 70380 81618 85458=
41897,2023,05,18,12,00,AAXX 18124 41897 32450 61301 10282 20230 30057 40070 82510 333 10310 56990 58002 70380 82618 86458=
41897,2023,05,18,18,00,AAXX 18184 41897 32450 60000 10255 20230 30065 40079 82530 333 56990 59015 70380 82618 86361=
41902,2023,05,12,00,00,AAXX 12004 41902 31920 43202 10245 20230 30078 40087 71044 84030 333 56090 58032 70013 84362=
41902,2023,05,12,06,00,AAXX 12064 41902 32450 63201 10317 20250 30080 40088 84320 333 56990 58003 70013 84616 81930 86458=
41902,2023,05,12,12,00,AAXX 12124 41902 32440 60000 10315 20270 30028 40037 83410 333 10344 56990 59011 70013 82614 86459=
41902,2023,05,12,18,00,AAXX 12184 41902 NIL=
41902,2023,05,13,00,00,AAXX 13004 41902 32430 80000 10250 20240 30048 40056 8342/ 333 56999 59030 70000 82614 88459=
41902,2023,05,13,06,00,AAXX 13064 41902 32450 60000 10330 20230 30059 40067 82530 333 56990 59021 70000 82614 85362=
41902,2023,05,13,12,00,AAXX 13123 41902 32440 61801 10314 20240 30021 40029 82510 333 10350 56990 59007 70000 82614 86459=
41902,2023,05,13,18,00,AAXX 13184 41902 32430 51801 10264 20240 30025 40033 82530 333 56990 59032 70000 82614 84362=
41902,2023,05,14,00,00,AAXX 14004 41902 32430 60503 10253 20210 30002 40010 83410 333 56990 59046 70000 82614 86459=
41902,2023,05,14,06,00,AAXX 14064 41902 32450 60510 10318 20180 30003 40012 83410 333 56190 59056 70000 82614 86459=
41902,2023,05,14,12,00,AAXX 14124 41902 32450 70512 10265 20170 39971 49980 83410 333 10320 56190 59050 70000 82614 87459=
41902,2023,05,14,18,00,AAXX 14184 41902 32435 50000 10231 20200 30001 40010 82530 333 56990 59024 70000 82614 84362=
41902,2023,05,15,00,00,AAXX 15004 41902 32430 22301 10216 20210 30022 40030 81530 333 56990 58020 70000 81614=
41902,2023,05,15,06,00,AAXX 15064 41902 32450 31802 10312 20190 30035 40043 82530 333 56990 58032 70000 82614=
41902,2023,05,15,12,00,AAXX 15124 41902 32450 30000 10308 20200 30014 40022 83400 333 10331 56900 58043 70000 82614=
41902,2023,05,15,18,00,AAXX 15184 41902 NIL=
41902,2023,05,16,00,00,AAXX 16004 41902 32430 50503 10236 20220 30047 40056 83430 333 56990 58025 70000 82614 84362=
41902,2023,05,16,06,00,AAXX 16064 41902 32450 41803 10332 20210 30058 40067 83430 333 56490 58023 70000 82614 83362=
41902,2023,05,16,12,00,AAXX 16124 41902 32450 41803 10287 20180 30034 40042 83420 333 10344 56490 58020 70000 82616 84458=
41902,2023,05,16,18,00,AAXX 16184 41902 32440 81810 10252 20200 30053 40062 8532/ 333 56499 58017 70000 83712 84615 81930 88458=
41902,2023,05,17,00,00,AAXX 17004 41902 32440 41204 10234 20200 30070 40079 83420 333 56990 58023 70000 82616 84458=
41902,2023,05,17,06,00,AAXX 17064 41902 11440 61608 10228 20220 30086 40094 60317 71796 84320 333 56490 58028 70306 81712 83616 81925 86458=
41902,2023,05,17,12,00,AAXX 17124 41902 31450 70903 10270 20210 30075 40084 70392 84420 333 10287 56490 58041 70306 83616 86458=
41902,2023,05,17,18,00,AAXX 17184 41902 31440 81208 10235 20200 30088 40097 71322 8532/ 333 56999 58035 70306 84616 81930 88458=
41902,2023,05,18,00,00,AAXX 18004 41902 32430 82707 10230 20210 30103 40112 8532/ 333 56599 58033 70306 83710 84615 81930 88458=
41902,2023,05,18,06,00,AAXX 18064 41902 11456 41202 10292 20200 30098 40106 60046 70196 83420 333 56490 58012 70038 82616 84458=
41902,2023,05,18,12,00,AAXX 18124 41902 32450 70000 10284 20210 30068 40077 84320 333 10314 56490 58007 70038 83616 86458=
41902,2023,05,18,18,00,AAXX 18184 41902 32440 41502 10243 20220 30073 40082 83420 333 56990 59015 70038 82616 84458=
41907,2023,05,12,00,00,AAXX 12004 41907 02440 70000 10230 20210 30056 40071 85510 333 58010 70000 85615 86458==
41907,2023,05,12,03,00,AAXX 12034 41907 02450 61802 10295 20230 30066 40081 85510 333 20225 58001 70000 85615 85458==
41907,2023,05,12,06,00,AAXX 12064 41907 02450 71802 10335 20250 30060 40074 85510 333 58005 70000 85615 86458==
41907,2023,05,12,09,00,AAXX 12094 41907 02450 70902 10345 20230 30028 40042 85510 333 58006 70000 85615 86458==
41907,2023,05,12,12,00,AAXX 12124 41907 02950 01302 10315 20260 30018 40032 333 10351 58010 70000==
41907,2023,05,12,15,00,AAXX 12154 41907 02940 00000 10280 20250 30040 40055 333 58002 70000==
41907,2023,05,12,18,00,AAXX 12184 41907 02940 00000 10270 20250 30049 40064 333 59003 70000==
41907,2023,05,12,21,00,AAXX 12214 41907 02940 00000 10258 20250 30042 40057 333 59004 70000==
41907,2023,05,13,00,00,AAXX 13004 41907 01940 00000 10250 20240 30044 40059 70500 333 59012 70000==
41907,2023,05,13,03,00,AAXX 13034 41907 01945 03602 10315 20260 30048 40063 70500 333 20245 59018 70000==
41907,2023,05,13,06,00,AAXX 13064 41907 02950 03602 10355 20240 30037 40051 333 59023 70000==
41907,2023,05,13,09,00,AAXX 13094 41907 02456 31302 10365 20210 30012 40026 83500 333 59016 70000 82615==
41907,2023,05,13,12,00,AAXX 13124 41907 02450 50000 10335 20240 30001 40016 82510 333 10368 59017 70000 82615 85458==
41907,2023,05,13,15,00,AAXX 13154 41907 02440 60000 10285 20250 30022 40036 83510 333 59018 70000 83615 85458==
41907,2023,05,13,18,00,AAXX 13184 41907 02440 80000 10278 20250 30031 40045 8552/ 333 59018 70000 85615 88458==
41907,2023,05,13,21,00,AAXX 13214 41907 02440 80000 10268 20250 30025 40040 8552/ 333 59017 70000 85615 88458==
41907,2023,05,14,00,00,AAXX 14004 41907 01440 70000 10251 20240 30004 40019 70522 85510 333 59040 70000 85615 87458==
41907,2023,05,14,03,00,AAXX 14034 41907 02450 61803 10310 20220 30005 40020 83510 333 20246 59043 70000 83615 85458==
41907,2023,05,14,06,00,AAXX 14064 41907 02956 01804 10342 20170 39993 40008 333 59044 70000==
41907,2023,05,14,09,00,AAXX 14094 41907 42456 51804 10345 20180 39970 49984 85500 333 59042 80000 85615==
41907,2023,05,14,12,00,AAXX 14124 41907 02450 61804 10310 20170 39965 49980 85510 333 10351 59036 70000 85615 86458==
41907,2023,05,14,15,00,AAXX 14154 41907 02440 21302 10260 20200 39992 40007 82500 333 59030 70000 82615==
41907,2023,05,14,18,00,AAXX 14184 41907 02940 01802 10238 20200 39997 40012 333 59034 70000==
41907,2023,05,14,21,00,AAXX 14214 41907 02440 60000 10232 20200 30005 40020 83510 333 59020 70000 83615 85458==
41907,2023,05,15,00,00,AAXX 15004 41907 02440 70000 10224 20200 30011 40026 85510 333 58007 70000 85615 86458==
41907,2023,05,15,03,00,AAXX 15034 41907 02950 01802 10300 20200 30028 40042 333 20218 58023 70000==
41907,2023,05,15,06,00,AAXX 15064 41907 02950 01804 10335 20210 30022 40037 333 58029 70000==
41907,2023,05,15,09,00,AAXX 15094 41907 02956 01802 10355 20210 30004 40018 333 58034 70000==
41907,2023,05,15,12,00,AAXX 15124 41907 02950 01302 10330 20230 39982 49997 333 10355 58017 70000==
41907,2023,05,15,15,00,AAXX 15154 41907 02340 81304 10304 20220 39999 40013 8662/ 333 58007 70000 82709 85615 88458==
41907,2023,05,15,18,00,AAXX 15184 41907 02340 82204 10258 20210 30013 40028 8662/ 333 58016 70000 82709 85615 88458==
41907,2023,05,15,21,00,AAXX 15214 41907 02440 61302 10235 20210 30009 40024 84510 333 58004 70000 84615 85458==
41907,2023,05,16,00,00,AAXX 16004 41907 02440 71802 10222 20200 30026 40041 85510 333 58015 70000 85615 85458==
41907,2023,05,16,03,00,AAXX 16034 41907 02950 01802 10306 20220 30044 40058 333 20220 58016 70000==
41907,2023,05,16,06,00,AAXX 16064 41907 02956 02302 10345 20230 30036 40050 333 58014 70000==
41907,2023,05,16,09,00,AAXX 16094 41907 02450 60902 10355 20260 30017 40031 83510 333 59011 70000 83615 85458==
41907,2023,05,16,11,00,AAXX 16114 41907 NIL=
41907,2023,05,16,12,00,AAXX 16124 41907 01330 82304 10237 20210 30033 40048 71700 8792/ 333 10363 58051 70060 84709 88458 81930==
41907,2023,05,16,15,00,AAXX 16154 41907 01330 82304 10237 20210 30033 40048 71720 8792/ 333 10363 58051 70060 85709 88458 81930==
41907,2023,05,16,18,00,AAXX 16184 41907 01440 81802 10235 20210 30042 40057 70292 8552/ 333 58029 70056 85615 88458==
41907,2023,05,16,21,00,AAXX 16214 41907 02340 80000 10230 20210 30041 40056 8662/ 333 58032 70056 82709 85615 88458==
41907,2023,05,17,00,00,AAXX 17004 41907 02340 80000 10240 20200 30032 40047 8662/ 333 58006 70056 82709 85615 88458==
41907,2023,05,17,03,00,AAXX 17034 41907 02350 81804 10270 20210 30066 40081 8662/ 333 20230 58022 70056 82709 85615 88458==
41907,2023,05,17,06,00,AAXX 17064 41907 02450 71804 10305 20240 30060 40075 85510 333 58024 70056 85615 87458==
41907,2023,05,17,09,00,AAXX 17094 41907 02956 01303 10330 20230 30042 40057 333 58025 70056==
41907,2023,05,17,12,00,AAXX 17124 41907 02456 70903 10300 20240 30032 40047 85510 333 10330 59001 70000 85615 85458==
41907,2023,05,17,15,00,AAXX 17154 41907 02340 81302 10266 20230 30058 40073 8662/ 333 58029 70000 83709 85615 88458==
41907,2023,05,17,18,00,AAXX 17184 41907 02340 80000 10255 20230 30071 40086 8662/ 333 59029 70000 82709 85615 88458==
41907,2023,05,17,21,00,AAXX 17214 41907 02340 82302 10245 20230 30068 40082 8662/ 333 58027 70000 83709 85615 88458==
41907,2023,05,18,00,00,AAXX 18004 41907 21340 80000 10190 20190 30084 40099 72996 8662/ 333 58052 60207 70200 83709 85615 88458==
41907,2023,05,18,03,00,AAXX 18034 41907 02950 01303 10255 20210 30086 40101 333 20186 58020 70200==
41907,2023,05,18,06,00,AAXX 18064 41907 02450 71302 10300 20210 30082 40079 85510 333 58022 70200 85615 87458==
41907,2023,05,18,09,00,AAXX 18094 41907 02450 71802 10320 20230 30053 40067 85510 333 58011 70200 85615 87458==
41907,2023,05,18,12,00,AAXX 18124 41907 02350 81302 10298 20230 30043 40058 8662/ 333 10330 58011 70200 85709 88458==
41907,2023,05,18,15,00,AAXX 18154 41907 02340 81302 10270 20230 30043 40058 8662/ 333 59015 70200 82709 85615 88458==
41907,2023,05,18,18,00,AAXX 18184 41907 02440 71802 10250 20230 30056 40070 85510 333 59015 70200 85615 87458==
41907,2023,05,18,21,00,AAXX 18214 41907 02440 70000 10248 20230 30048 40062 85510 333 59020 70200 85615 87458==
41909,2023,05,12,00,00,AAXX 12004 41909 02450 60000 10239 20210 30073 40084 82510 333 58000 70040 82615 86458==
41909,2023,05,12,03,00,AAXX 12034 41909 02456 60000 10285 20220 30081 40092 82510 333 20232 58001 70040 82615 86460==
41909,2023,05,12,06,00,AAXX 12064 41909 02456 80000 10330 20240 30072 40083 8352/ 333 58000 70040 83615 88460==
41909,2023,05,12,09,00,AAXX 12094 41909 02456 80000 10353 20200 30039 40051 8352/ 333 58003 70040 83615 88458==
41909,2023,05,12,12,00,AAXX 12124 41909 02456 80000 10330 20220 30026 40037 8352/ 333 10360 59007 70040 83615 88458==
41909,2023,05,12,15,00,AAXX 12154 41909 02440 30000 10284 20240 30055 40066 81530 333 58005 70000 81615 83360==
41909,2023,05,12,18,00,AAXX 12184 41909 02440 60000 10272 20240 30066 40077 82510 333 59003 70000 82615 86458==
41909,2023,05,12,21,00,AAXX 12214 41909 02440 60000 10262 20240 30051 40062 82510 333 59018 70000 82615 86458==
41909,2023,05,13,00,00,AAXX 13004 41909 02440 80000 10259 20240 30046 40057 8352/ 333 59027 70000 83615 88458==
41909,2023,05,13,03,00,AAXX 13034 41909 02456 80000 10308 20250 30058 40069 8352/ 333 20254 59023 70000 83615 88458==
41909,2023,05,13,06,00,AAXX 13063 41909 02456 62301 10344 20220 30048 40059 82510 333 59024 70000 82615 86458==
41909,2023,05,13,09,00,AAXX 13094 41909 02/56 33102 10363 20210 30021 40033 83030 333 59018 70000 83365==
41909,2023,05,13,12,00,AAXX 13123 41909 02/50 40000 10340 20240 30014 40025 84030 333 10367 59012 70000 84365==
41909,2023,05,13,15,00,AAXX 13154 41909 02/45 40000 10300 20240 30036 40047 84030 333 59019 70000 84365==
41909,2023,05,13,18,00,AAXX 13184 41909 02440 80000 10287 20240 30034 40045 8552/ 333 59032 70000 85615 88460==
41909,2023,05,13,21,00,AAXX 13214 41909 02440 80000 10277 20240 30002 40013 8552/ 333 59049 70000 85615 88460==
41909,2023,05,14,00,00,AAXX 14004 41909 02450 80000 10260 20220 39998 40009 8552/ 333 59048 70000 85614 88459==
41909,2023,05,14,03,00,AAXX 14034 41909 02456 81402 10280 20200 30008 40019 8352/ 333 20256 59050 70000 83615 88458==
41909,2023,05,14,06,00,AAXX 14064 41909 02456 61602 10334 20150 39999 40010 82510 333 59049 70000 82615 86458==
41909,2023,05,14,09,00,AAXX 14094 41909 02450 60204 10330 20160 39980 49992 83510 333 59041 70000 83615 86460==
41909,2023,05,14,12,00,AAXX 14124 41909 02456 63604 10290 20160 39974 49985 82530 333 10340 59040 70000 82615 85360==
41909,2023,05,14,15,00,AAXX 14154 41909 02/40 40000 10266 20190 39998 40009 84030 333 59038 70000 84365==
41909,2023,05,14,18,00,AAXX 14184 41909 02940 00000 10250 20190 30004 40015 333 59030 70000==
41909,2023,05,14,21,00,AAXX 14214 41909 02940 00000 10240 20200 30018 40030 333 58020 70000==
41909,2023,05,15,00,00,AAXX 15004 41909 02950 00000 10230 20210 30021 40033 333 58023 70000==
41909,2023,05,15,03,00,AAXX 15034 41909 02956 01402 10290 20180 30040 40051 333 20225 58032 70000==
41909,2023,05,15,06,00,AAXX 15064 41909 02956 01802 10317 20200 30041 40052 333 58042 70000==
41909,2023,05,15,09,00,AAXX 15094 41909 02956 01802 10334 20190 30017 40028 333 58037 70000==
41909,2023,05,15,12,00,AAXX 15124 41909 02956 00000 10319 20210 30000 40011 333 10340 58026 70000==
41909,2023,05,15,15,00,AAXX 15154 41909 02440 81803 10298 20220 30021 40032 8552/ 333 58023 70000 85615 88458==
41909,2023,05,15,18,00,AAXX 15184 41909 02440 81802 10285 20220 30028 40039 8552/ 333 58024 70000 85614 88458==
41909,2023,05,15,21,00,AAXX 15214 41909 02440 80000 10265 20230 30036 40047 8552/ 333 58018 70000 85615 88458==
41909,2023,05,16,00,00,AAXX 16004 41909 02450 60000 10245 20230 30036 40047 82510 333 58018 70000 82615 86458==
41909,2023,05,16,03,00,AAXX 16034 41909 02956 01402 10310 20200 30056 40067 333 20240 58016 70000==
41909,2023,05,16,06,00,AAXX 16064 41909 02456 61802 10340 20200 30058 40069 82510 333 58017 70000 82615 86458==
41909,2023,05,16,09,00,AAXX 16094 41909 02456 81304 10330 20230 30037 40048 8552/ 333 58020 70000 85615 88460==
41909,2023,05,16,12,00,AAXX 16124 41909 02456 51801 10327 20260 30029 40040 82530 333 10353 59029 70000 82614 84365==
41909,2023,05,16,15,00,AAXX 16154 41909 01340 83102 10245 20190 30046 40057 71796 8692/ 333 58025 70054 83708 83614 88459 81925==
41909,2023,05,16,18,00,AAXX 16184 41909 11440 80000 10242 20180 30060 40072 60056 70296 8552/ 333 58032 70054 85615 88460==
41909,2023,05,16,21,00,AAXX 16214 41909 02340 81802 10241 20190 30053 40065 8562/ 333 58017 70054 83708 83614 88459==
41909,2023,05,17,00,00,AAXX 17004 41909 02350 81301 10240 20200 30054 40066 8562/ 333 58018 70054 83708 83614 88458==
41909,2023,05,17,03,00,AAXX 17034 41909 01350 81402 10217 20210 30064 40076 79596 8692/ 333 20230 58008 70234 83708 84614 88458 81930==
41909,2023,05,17,06,00,AAXX 17064 41909 21456 61402 10290 20220 30084 40095 70196 82510 333 58026 60215 70264 82615 86458==
41909,2023,05,17,09,00,AAXX 17094 41909 02/56 22702 10314 20180 30060 40071 82030 333 58023 70264 82360==
41909,2023,05,17,12,00,AAXX 17124 41909 02456 30902 10296 20200 30064 40075 82330 333 10320 58035 70264 81615 81930==
41909,2023,05,17,15,00,AAXX 17154 41909 02440 41304 10268 20210 30077 40088 83530 333 58031 70210 83615 83360==
41909,2023,05,17,18,00,AAXX 17184 41909 02440 51302 10260 20210 30080 40091 82530 333 58020 70210 82615 85360==
41909,2023,05,17,21,00,AAXX 17214 41909 01340 81302 10252 20220 30076 40087 71322 8532/ 333 58023 70210 84708 88458 81930==
41909,2023,05,18,00,00,AAXX 18004 41909 01356 80902 10209 20200 30098 40110 72996 8532/ 333 58044 70250 84708 88458 81930==
41909,2023,05,18,03,00,AAXX 18034 41909 02356 81402 10227 20220 30099 40111 8462/ 333 20200 58035 70280 84708 88458==
41909,2023,05,18,06,00,AAXX 18064 41909 02456 81401 10289 20200 30098 40109 8352/ 333 58014 70250 83615 88458==
41909,2023,05,18,09,00,AAXX 18094 41909 02456 51801 10320 20200 30070 40081 82530 333 58010 70250 82615 84360==
41909,2023,05,18,12,00,AAXX 18124 41909 02450 81401 10300 20230 30059 40070 8352/ 333 10322 59005 70250 83615 88458==
41909,2023,05,18,15,00,AAXX 18154 41909 02430 81301 10270 20220 30060 40071 8552/ 333 59017 70250 85615 88458==
41909,2023,05,18,18,00,AAXX 18184 41909 02430 81301 10255 20220 30066 40077 8452/ 333 59014 70250 84615 88458==
41909,2023,05,18,21,00,AAXX 18214 41909 02430 81301 10248 20230 30059 40070 8352/ 333 59017 70250 83615 88460==
41915,2023,05,12,00,00,AAXX 12004 41915 02456 60000 10250 20230 30065 40090 83510 333 59004 70000 83617 85458==
41915,2023,05,12,03,00,AAXX 12034 41915 02456 73602 10300 20240 30076 40101 84510 333 20237 59005 70000 84616 86458==
41915,2023,05,12,06,00,AAXX 12064 41915 02456 73602 10332 20230 30062 40087 83510 333 59007 70000 83617 86458==
41915,2023,05,12,09,00,AAXX 12094 41915 02456 73402 10341 20220 30026 40050 83520 333 59003 70000 83617 86458==
41915,2023,05,12,12,00,AAXX 12124 41915 02456 60000 10322 20250 30019 40043 83510 333 10353 58009 70000 83616 85458==
41915,2023,05,12,15,00,AAXX 12154 41915 02450 50000 10263 20240 30047 40072 82510 333 59002 70000 82616 84458==
41915,2023,05,12,18,00,AAXX 12184 41915 02450 50000 10255 20250 30054 40079 82510 333 58001 70000 82616 84458==
41915,2023,05,12,21,00,AAXX 12214 41915 02450 50000 10250 20240 30051 40076 82510 333 59001 70000 82616 84458==
41915,2023,05,13,00,00,AAXX 13004 41915 02456 40000 10255 20250 30043 40068 83410 333 58003 70000 83616 84458==
41915,2023,05,13,03,00,AAXX 13034 41915 02456 73401 10305 20250 30054 40079 85510 333 20248 59022 70000 85617 87458==
41915,2023,05,13,06,00,AAXX 13064 41915 02456 70102 10333 20230 30043 40068 85470 333 59019 70000 84617 86458==
41915,2023,05,13,09,00,AAXX 13094 41915 02456 71401 10334 20220 30019 40043 85470 333 59007 70000 84617 86458==
41915,2023,05,13,12,00,AAXX 13124 41915 02456 80000 10308 20230 30015 40039 86470 333 10345 59004 70000 85616 88458==
41915,2023,05,13,15,00,AAXX 13154 41915 02450 80000 10276 20240 30027 40052 86420 333 59020 70000 85616 88458==
41915,2023,05,13,18,00,AAXX 13184 41915 02450 80000 10262 20220 30019 40045 86420 333 59035 70000 85616 88458==
41915,2023,05,13,21,00,AAXX 13214 41915 02450 80000 10263 20190 30017 40042 8642/ 333 59034 70000 85616 88458==
41915,2023,05,14,00,00,AAXX 14004 41915 02456 80000 10270 20170 39984 40009 8647/ 333 59059 70000 85616 88458==
41915,2023,05,14,03,00,AAXX 14034 41915 02456 80404 10284 20160 39998 40023 8552/ 333 20211 59056 70000 85617 88458==
41915,2023,05,14,06,00,AAXX 14064 41915 02456 80610 10292 20150 39991 40016 8642/ 333 59056 70000 85616 88458==
41915,2023,05,14,09,00,AAXX 14094 41915 02456 80610 10233 20180 39967 49992 8642/ 333 59052 70000 85616 88458==
41915,2023,05,14,12,00,AAXX 14124 41915 21456 80606 10227 20190 39945 49970 70262 8642/ 333 10296 59070 60007 85616 88458==
41915,2023,05,14,15,00,AAXX 14154 41915 42450 80401 10231 20190 39983 40009 8642/ 333 59044 85616 88458==
41915,2023,05,14,18,00,AAXX 14184 41915 42450 80000 10226 20210 39991 40016 8647/ 333 59028 85616 88458==
41915,2023,05,14,21,00,AAXX 14214 41915 42450 50000 10220 20200 39983 40008 8447/ 333 59034 83616 85458==
41915,2023,05,15,00,00,AAXX 15004 41915 42956 21401 10230 20200 30017 40042 82001 333 59033 82080==
41915,2023,05,15,03,00,AAXX 15034 41915 42956 11202 10288 20200 30032 40057 80001 333 20217 58034 81080==
41915,2023,05,15,06,00,AAXX 15064 41915 42456 71302 10318 20170 30031 40056 85410 333 58040 84616 84458==
41915,2023,05,15,09,00,AAXX 15094 41915 42456 51403 10328 20240 30017 40042 84410 333 58050 83616 84458==
41915,2023,05,15,12,00,AAXX 15124 41915 02456 10902 10306 20200 30007 40032 81400 333 10335 58062 70000 81616==
41915,2023,05,15,15,00,AAXX 15154 41915 02440 71103 10284 20200 30036 40061 85420 333 58053 70000 84615 87458==
41915,2023,05,15,18,00,AAXX 15183 41915 02440 71201 10256 20230 30029 40054 85420 333 58046 70000 84615 87458==
41915,2023,05,15,21,00,AAXX 15214 41915 02440 70902 10260 20230 30016 40041 85470 333 58033 70000 84615 85458==
41915,2023,05,16,00,00,AAXX 16004 41915 02450 71201 10246 20230 30046 40071 84470 333 58029 70000 83616 86458==
41915,2023,05,16,03,00,AAXX 16034 41915 02956 01302 10310 20200 30056 40081 333 20246 58024 70000==
41915,2023,05,16,06,00,AAXX 16064 41915 02456 12003 10343 20180 30052 40077 81500 333 58021 70000 81617==
41915,2023,05,16,09,00,AAXX 16094 41915 02456 51803 10346 20180 30036 40060 83470 333 58019 70000 82616 83460==
41915,2023,05,16,12,00,AAXX 16124 41915 01456 71803 10324 20210 30032 40056 71792 85910 333 10366 58025 70000 84615 86458 81928==
41915,2023,05,16,15,00,AAXX 16154 41915 02440 71303 10298 20230 30055 40080 85320 333 58019 70000 84615 87458 81928==
41915,2023,05,16,18,00,AAXX 16184 41915 01440 71803 10286 20220 30057 40083 71322 85320 333 58028 70000 84615 86458 81928==
41915,2023,05,16,21,00,AAXX 16214 41915 02440 51802 10243 20210 30060 40086 83570 333 58044 70000 83616 83458==
41915,2023,05,17,00,00,AAXX 17004 41915 02950 11303 10242 20210 30070 40095 80001 333 58024 70000 81080==
41915,2023,05,17,03,00,AAXX 17034 41915 01450 80000 10266 20230 30097 40122 79522 8732/ 333 20236 58041 70010 84710 86616 88458 81928==
41915,2023,05,17,06,00,AAXX 17064 41915 21456 83602 10230 20210 30082 40108 79596 8632/ 333 58030 60287 70276 83710 85616 88458 81928==
41915,2023,05,17,09,00,AAXX 17094 41915 01456 41306 10276 20230 30063 40088 70192 82530 333 58027 70276 82616 83362==
41915,2023,05,17,12,00,AAXX 17124 41915 01456 21302 10257 20200 30072 40097 70192 81570 333 10290 58040 70276 81616==
41915,2023,05,17,15,00,AAXX 17154 41915 02450 21302 10240 20210 30082 40107 82400 333 58027 70276 82616==
41915,2023,05,17,18,00,AAXX 17184 41915 01440 60902 10226 20210 30086 40111 70362 85320 333 58029 70010 84615 86458 81928==
41915,2023,05,17,21,00,AAXX 17214 41915 01440 80902 10214 20190 30081 40107 70396 8692/ 333 58021 70396 85615 88458 81925==
41915,2023,05,18,00,00,AAXX 18004 41915 11450 30502 10217 20210 30088 40113 60116 70196 82530 333 58016 70396 82616==
41915,2023,05,18,03,00,AAXX 18034 41915 01450 80606 10226 20226 30090 40115 76162 8772/ 333 20212 59007 70420 83710 86616 88417==
41915,2023,05,18,06,00,AAXX 18064 41915 21456 80000 10270 20220 30087 40112 70262 8542/ 333 58005 60048 70158 84616 88458==
41915,2023,05,18,09,00,AAXX 18094 41915 02456 70601 10303 20210 30069 40094 85420 333 58003 70158 84616 87458==
41915,2023,05,18,12,00,AAXX 18124 41915 02456 60000 10278 20200 30061 40086 84410 333 10307 59011 70158 83616 86458==
41915,2023,05,18,15,00,AAXX 18154 41915 02450 60000 10246 20210 30075 40401 84410 333 59007 70158 83616 86458==
41915,2023,05,18,18,00,AAXX 18184 41915 02450 80000 10234 20210 30068 40094 86420 333 59018 70148 85616 88458==
41915,2023,05,18,21,00,AAXX 18214 41915 02450 80000 10225 20200 30059 40084 86420 333 59022 70038 85616 88458==
41923,2023,05,12,00,00,AAXX 12004 41923 01440 70000 10264 20210 30075 40085 70521 84430 333 59004 70000 83615 84360==
41923,2023,05,12,03,00,AAXX 12034 41923 01450 70000 10310 20240 30085 40095 70522 84430 333 20262 59003 70000 83615 84360==
41923,2023,05,12,06,00,AAXX 12064 41923 02450 70000 10344 20220 30073 40083 83430 333 59004 70000 82616 85360==
41923,2023,05,12,09,00,AAXX 12094 41923 02456 50000 10366 20190 30038 40048 83430 333 59006 70000 83615 84362==
41923,2023,05,12,12,00,AAXX 12124 41923 02350 60000 10336 20210 30034 40044 83631 333 10373 59006 70000 81709 83615==
41923,2023,05,12,15,00,AAXX 12154 41923 02/50 20000 10303 20210 30061 40071 82030 333 59001 70000 82362==
41923,2023,05,12,18,00,AAXX 12184 41923 02/50 30000 10290 20230 30061 40071 83030 333 59001 70000 83362==
41923,2023,05,12,21,00,AAXX 12214 41923 01340 60000 10291 20240 30056 40066 70520 83630 333 59011 70000 81709 83615 85362==
41923,2023,05,13,00,00,AAXX 13004 41923 01340 70603 10288 20250 30052 40062 70522 86370 333 59023 70000 83708 85614 86459 81930==
41923,2023,05,13,03,00,AAXX 13034 41923 02450 50705 10321 20220 30066 40076 83531 333 20284 59019 70000 83615 84362==
41923,2023,05,13,06,00,AAXX 13064 41923 02356 70503 10350 20230 30053 40063 85631 333 59020 70000 83708 84615 85362==
41923,2023,05,13,09,00,AAXX 13094 41923 02356 70603 10345 20230 30031 40041 85630 333 59007 70000 82709 84615 85360==
41923,2023,05,13,12,00,AAXX 13124 41923 02350 60602 10322 20210 30020 40030 84631 333 10355 59014 70000 81709 83615 85360==
41923,2023,05,13,15,00,AAXX 13154 41923 02445 50603 10297 20220 30041 40051 82531 333 59020 70000 82616 83360==
41923,2023,05,13,18,00,AAXX 13184 41923 02340 70602 10291 20220 30036 40046 85670 333 59025 70000 82709 84615 86458==
41923,2023,05,13,21,00,AAXX 13214 41923 02340 70602 10285 20230 30003 40013 85670 333 59053 70000 82709 84615 86458==
41923,2023,05,14,00,00,AAXX 14004 41923 01340 80603 10271 20220 39998 40008 70522 8632/ 333 59054 70000 83709 84615 88458 81930==
41923,2023,05,14,03,00,AAXX 14034 41923 02340 70602 10298 20220 30006 40016 85370 333 20269 59060 70000 82709 84615 86458 81930==
41923,2023,05,14,06,00,AAXX 14064 41923 02350 80604 10321 20170 39996 40006 8532/ 333 59057 70000 83709 84615 88458 81930==
41923,2023,05,14,09,00,AAXX 14094 41923 02350 70508 10304 20150 39974 49984 85670 333 59056 70000 83709 84615 85458==
41923,2023,05,14,12,00,AAXX 14124 41923 02356 70506 10270 20170 39975 49985 84670 333 10330 59045 70000 82709 83615 85360==
41923,2023,05,14,15,00,AAXX 14154 41923 02450 60508 10272 20150 30001 40011 81530 333 59040 70000 81616 86360==
41923,2023,05,14,18,00,AAXX 14184 41923 02/50 30904 10268 20170 30006 40016 83030 333 59030 70000 83362==
41923,2023,05,14,21,00,AAXX 14214 41923 02/50 30000 10256 20180 30018 40028 83030 333 58015 70000 83360==
41923,2023,05,15,00,00,AAXX 15004 41923 02/50 20000 10244 20170 30031 40040 82030 333 58033 70000 82360==
41923,2023,05,15,03,00,AAXX 15034 41923 02456 40903 10290 20180 30049 40059 82530 333 20240 58043 70000 82616 83360==
41923,2023,05,15,06,00,AAXX 15064 41923 02/56 30604 10328 20190 30043 40053 83030 333 58047 70000 83360==
41923,2023,05,15,09,00,AAXX 15094 41923 02956 02002 10348 20190 30020 40030 333 58046 70000==
41923,2023,05,15,12,00,AAXX 15124 41923 01950 01303 10323 20200 30012 40022 70500 333 10349 58037 70000==
41923,2023,05,15,15,00,AAXX 15154 41923 01440 83302 10303 20220 30040 40050 70522 8532/ 333 58039 70000 82614 88460 81930==
41923,2023,05,15,18,00,AAXX 15184 41923 01440 80602 10272 20200 30020 40030 70562 8532/ 333 58014 70000 86514 88460 81930==
41923,2023,05,15,21,00,AAXX 15214 41923 41440 80602 10263 20210 30037 40047 70522 8532/ 333 58019 85615 88460 81930==
41923,2023,05,16,00,00,AAXX 16004 41923 41440 40602 10256 20220 30051 40061 70522 81530 333 58020 81615 84365==
41923,2023,05,16,03,00,AAXX 16034 41923 42956 00602 10314 20210 30067 40077 333 20254 58018==
41923,2023,05,16,06,00,AAXX 16064 41923 42456 51803 10344 20200 30066 40076 82530 333 58023 82615 85365==
41923,2023,05,16,09,00,AAXX 16094 41923 42350 70302 10332 20220 30046 40056 85370 333 58026 82709 84615 86458 81930==
41923,2023,05,16,11,00,AAXX 16114 41923 NIL=
41923,2023,05,16,12,00,AAXX 16124 41923 42450 51502 10322 20230 30033 40043 82530 333 10352 58021 82615 85360==
41923,2023,05,16,15,00,AAXX 16154 41923 01340 82102 10232 20210 30085 40094 79596 8532/ 333 58045 70012 83709 84615 88458 81930==
41923,2023,05,16,18,00,AAXX 16184 41923 21940 60000 10248 20200 30072 40081 70196 83630 333 58052 60038 70030 81709 83615 85362==
41923,2023,05,16,21,00,AAXX 16214 41923 02940 60000 10254 20190 30058 40067 83630 333 58021 70030 81709 83615 85362==
41923,2023,05,17,00,00,AAXX 17004 41923 01340 80000 10256 20200 30071 40081 70522 8532/ 333 58020 70030 82709 84615 88458 81930==
41923,2023,05,17,03,00,AAXX 17034 41923 01340 80303 10274 20210 30096 40105 70522 8532/ 333 20233 58029 70030 82709 84615 88458 81930==
41923,2023,05,17,06,00,AAXX 17064 41923 21350 60604 10232 20200 30099 40109 70196 83630 333 58033 60377 70398 81709 83615 85362==
41923,2023,05,17,09,00,AAXX 17094 41923 02/56 10704 10302 20160 30071 40081 81030 333 58025 70398 81362==
41923,2023,05,17,12,00,AAXX 17124 41923 02350 70405 10274 20190 30073 40083 86630 333 10311 58040 70398 83708 84615 85362==
41923,2023,05,17,15,00,AAXX 17154 41923 02350 60503 10267 20210 30094 40103 83630 333 58009 70386 82709 83615==
41923,2023,05,17,18,00,AAXX 17184 41923 02445 41403 10260 20230 30079 40089 82530 333 58007 70268 82615 83362==
41923,2023,05,17,21,00,AAXX 17214 41923 02345 71303 10248 20220 30076 40086 85670 333 58018 70368 82709 84615 85459==
41923,2023,05,18,00,00,AAXX 18004 41923 01330 83205 10212 20190 30115 40125 79522 8692/ 333 58044 70130 83708 85614 88458 81928==
41923,2023,05,18,03,00,AAXX 18034 41923 01345 82802 10223 20210 30109 40119 71796 8592/ 333 20207 70536 83708 84615 88458 81928==
41923,2023,05,18,06,00,AAXX 18064 41923 21450 40000 10282 20210 30098 40108 70196 82530 333 59001 60048 70168 82616 83362==
41923,2023,05,18,09,00,AAXX 18094 41923 02350 61802 10320 20200 30076 40085 83630 333 58005 70168 81709 83615 85362==
41923,2023,05,18,12,00,AAXX 18124 41923 02350 70000 10290 20200 30070 40080 85670 333 10321 59003 70168 83709 84615 85458==
41923,2023,05,18,15,00,AAXX 18154 41923 02450 50000 10272 20220 30070 40080 82530 333 59024 70168 82615 85360==
41923,2023,05,18,18,00,AAXX 18184 41923 02/50 20000 10262 20220 30072 40082 82030 333 59007 70168 82360==
41923,2023,05,18,21,00,AAXX 18214 41923 02440 50000 10256 20230 30063 40073 82530 333 59013 70168 82615 85360==
41926,2023,05,12,00,00,AAXX 12004 41926 02450 41503 10250 20230 30061 40074 84500 333 58008 70000 84615==
41926,2023,05,12,03,00,AAXX 12034 41926 02450 70000 10300 20250 30070 40083 83510 333 20250 58000 70000 83616 86459==
41926,2023,05,12,06,00,AAXX 12064 41926 02450 61802 10340 20250 30061 40074 83570 333 59001 70000 83618 85459==
41926,2023,05,12,09,00,AAXX 12094 41926 02456 61802 10358 20230 30035 40048 83570 333 58000 70000 83618 85459==
41926,2023,05,12,12,00,AAXX 12124 41926 02450 41802 10340 20240 30032 40045 82530 333 10360 58011 70000 82618 83362==
41926,2023,05,12,15,00,AAXX 12154 41926 02950 00000 10290 20250 30049 40062 333 58019 70000==
41926,2023,05,12,18,00,AAXX 12184 41926 02950 00000 10272 20250 30049 40063 333 58001 70000==
41926,2023,05,12,21,00,AAXX 12214 41926 02450 30000 10270 20250 30032 40045 83500 333 59021 70000 83618==
41926,2023,05,13,00,00,AAXX 13004 41926 02450 70000 10268 20240 30039 40052 83510 333 59022 70000 83618 86459==
41926,2023,05,13,03,00,AAXX 13034 41926 02456 70000 10317 20240 30055 40068 83510 333 20266 59015 70000 83618 86459==
41926,2023,05,13,06,00,AAXX 13064 41926 02456 50000 10368 20230 30043 40056 83510 333 59018 70000 83618 85459==
41926,2023,05,13,09,00,AAXX 13094 41926 02457 50000 10378 20210 30013 40026 82510 333 59022 70000 82618 85459==
41926,2023,05,13,12,00,AAXX 13123 41926 02456 53001 10348 20230 30005 40018 83510 333 10385 59027 70000 83618 85459==
41926,2023,05,13,15,00,AAXX 13154 41926 02450 50000 10302 20140 30029 40043 83510 333 59020 70000 83618 85459==
41926,2023,05,13,18,00,AAXX 13184 41926 02450 50000 10298 20240 30023 40036 83510 333 59026 70000 83618 85459==
41926,2023,05,13,21,00,AAXX 13214 41926 02440 50000 10270 20240 30012 40025 82510 333 59020 70000 82618 85459==
41926,2023,05,14,00,00,AAXX 14004 41926 01440 50000 10250 20240 39997 40011 70522 82510 333 59042 70000 82618 85459==
41926,2023,05,14,03,00,AAXX 14034 41926 02450 53301 10310 20210 30002 40015 82510 333 20250 59053 70000 82618 85459==
41926,2023,05,14,06,00,AAXX 14064 41926 02456 40503 10355 20190 39990 40003 82510 333 59053 70000 82618 83458==
41926,2023,05,14,09,00,AAXX 14094 41926 02/57 52704 10363 20160 39969 49982 85010 333 59044 70000 85459==
41926,2023,05,14,12,00,AAXX 14124 41926 02/56 50000 10317 20180 39971 49982 85010 333 10370 59034 70000 85459==
41926,2023,05,14,15,00,AAXX 14154 41926 02450 10000 10278 20180 39994 40007 81500 333 59030 70000 81618==
41926,2023,05,14,18,00,AAXX 14184 41926 02950 00000 10252 20200 39999 40013 333 59024 70000==
41926,2023,05,14,21,00,AAXX 14214 41926 02950 00000 10234 20190 30007 40020 333 59005 70000==
41926,2023,05,15,00,00,AAXX 15004 41926 02950 00000 10220 20200 30020 40034 333 58023 70000==
41926,2023,05,15,03,00,AAXX 15034 41926 02956 01803 10295 20190 30034 40047 333 20220 58032 70000==
41926,2023,05,15,06,00,AAXX 15064 41926 02957 01804 10340 20180 30027 40040 333 58037 70000==
41926,2023,05,15,09,00,AAXX 15094 41926 02957 01804 10355 20210 30005 40018 333 58036 70000==
41926,2023,05,15,12,00,AAXX 15124 41926 02956 30000 10338 20220 39992 40005 80001 333 10365 58038 70000 83080==
41926,2023,05,15,15,00,AAXX 15154 41926 41/50 51802 10253 20200 30014 40027 70196 85030 333 58020 85362==
41926,2023,05,15,18,00,AAXX 15184 41926 11/50 51801 10240 20210 30013 40026 60006 70296 85030 333 58014 85362==
41926,2023,05,15,21,00,AAXX 15214 41926 42/50 10000 10230 20210 30018 40031 81030 333 58011 81362==
41926,2023,05,16,00,00,AAXX 16004 41926 41950 00000 10222 20210 30024 40037 70500 333 58004==
41926,2023,05,16,03,00,AAXX 16034 41926 42956 01801 10290 20220 30051 40064 333 20216 58017==
41926,2023,05,16,06,00,AAXX 16064 41926 42457 31802 10345 20250 30048 40061 83500 333 58021 83618==
41926,2023,05,16,09,00,AAXX 16094 41926 42457 51804 10352 20260 30020 40033 85400 333 58015 82618 83825==
41926,2023,05,16,12,00,AAXX 16124 41926 01450 81805 10228 20200 30028 40041 79522 8532/ 333 10367 58036 70070 84616 88458 81930==
41926,2023,05,16,15,00,AAXX 16154 41926 01/50 51804 10237 20200 30037 40050 70196 85030 333 58023 70080 85362==
41926,2023,05,16,18,00,AAXX 16184 41926 11/50 31802 10237 20200 30039 40053 60016 70196 83030 333 58026 70080 83362==
41926,2023,05,17,00,00,AAXX 17004 41926 01450 71803 10252 20230 30039 40053 70522 83510 333 58015 70080 83618 87459==
41926,2023,05,17,03,00,AAXX 17034 41926 02456 81801 10290 20260 30067 40080 8452/ 333 20225 58016 70080 84617 88459==
41926,2023,05,17,06,00,AAXX 17064 41926 02457 51801 10340 20260 30063 40076 333 58015 70080 83617 85459==
41926,2023,05,17,09,00,AAXX 17094 41926 02457 51804 10362 20230 30037 40050 85400 333 58017 70080 82618 83825==
41926,2023,05,17,12,00,AAXX 17124 41926 01450 81806 10248 20190 30054 40067 79592 8532/ 333 10370 58026 70020 84616 88458 81930==
41926,2023,05,17,15,00,AAXX 17154 41926 01450 61802 10225 20210 30053 40066 70196 82510 333 58016 70110 82617 86459==
41926,2023,05,17,18,00,AAXX 17184 41926 11/50 21801 10223 20200 30068 40081 60096 70196 82030 333 58029 70110 82362==
41926,2023,05,17,21,00,AAXX 17214 41926 02450 61802 10210 20190 30072 40085 83510 333 58032 70110 83617 86459==
41926,2023,05,18,00,00,AAXX 18004 41926 01450 81802 10200 20190 30082 40096 70396 8432/ 333 58043 70240 83617 88458 81930==
41926,2023,05,18,03,00,AAXX 18034 41926 02450 71801 10245 20210 30090 40103 84510 333 20197 58023 70350 84617 87459==
41926,2023,05,18,06,00,AAXX 18064 41926 02456 41803 10304 20210 30085 40098 82510 333 58022 70350 82617 84459==
41926,2023,05,18,09,00,AAXX 18094 41926 02456 71802 10310 20230 30062 40075 84510 333 58025 70350 84617 87459==
41926,2023,05,18,12,00,AAXX 18124 41926 02450 71503 10285 20230 30053 40066 84510 333 10325 59001 70326 84616 87459==
41926,2023,05,18,15,00,AAXX 18154 41926 01450 70000 10250 20210 30046 40059 70262 84510 333 58007 70240 84616 86459==
41926,2023,05,18,18,00,AAXX 18184 41926 11450 80000 10235 20230 30056 40070 60006 70362 8452/ 333 59012 70240 84616 88458==
41926,2023,05,18,21,00,AAXX 18214 41926 02450 80000 10233 20220 30043 40057 8452/ 333 59029 70240 84616 88458==
41927,2023,05,12,00,00,AAXX 12004 41927 32956 01302 10240 20220 30041 40055 333 58022 70000=
41927,2023,05,12,06,00,AAXX 12064 41927 32457 61801 10330 20270 30051 40066 83510 333 56490 58001 70000 83617 85459=
41927,2023,05,12,12,00,AAXX 12124 41927 32457 51802 10323 20270 30022 40037 83510 333 10348 56490 58006 70000 83617 84459=
41927,2023,05,12,18,00,AAXX 12184 41927 32450 51801 10273 20250 30048 40062 83510 333 56490 58006 70000 83617 84459=
41927,2023,05,13,00,00,AAXX 13004 41927 32450 81601 10248 20240 30046 40060 8452/ 333 56499 58005 70000 84616 88458=
41927,2023,05,13,06,00,AAXX 13064 41927 32458 41602 10342 20240 30032 40046 82510 333 56490 59020 70000 82618 84459=
41927,2023,05,13,12,00,AAXX 13123 41927 32957 00000 10324 20250 30003 40017 333 10366 59019 70000=
41927,2023,05,13,18,00,AAXX 13184 41927 32450 60000 10278 20260 30029 40044 83510 333 56490 59019 70000 83617 85459=
41927,2023,05,14,00,00,AAXX 14004 41927 32450 81601 10253 20240 30023 40037 8452/ 333 56499 59023 70000 84616 88458=
41927,2023,05,14,06,00,AAXX 14064 41927 32458 21304 10320 20240 39988 40002 82510 333 56390 59044 70000 82618=
41927,2023,05,14,12,00,AAXX 14124 41927 32957 01303 10300 20190 39969 49983 333 10340 59034 70000=
41927,2023,05,14,18,00,AAXX 14184 41927 32956 01301 10250 20230 39998 40012 333 59031 70000=
41927,2023,05,15,00,00,AAXX 15004 41927 32956 01301 10228 20210 30014 40028 333 59009 70000=
41927,2023,05,15,06,00,AAXX 15064 41927 32958 01304 10326 20200 30027 40042 333 58039 70000=
41927,2023,05,15,12,00,AAXX 15124 41927 32456 61801 10330 20230 39991 40005 83510 333 10348 56490 58022 70000 83617 85459=
41927,2023,05,15,18,00,AAXX 15183 41927 32450 81802 10250 20220 30021 40035 8452/ 333 56499 58021 70000 84616 88458=
41927,2023,05,16,00,00,AAXX 16004 41927 32956 00000 10226 20210 30029 40043 333 58015 70000=
41927,2023,05,16,06,00,AAXX 16064 41927 32958 01601 10340 20220 30047 40061 333 58020 70000=
41927,2023,05,16,12,00,AAXX 16124 41927 32457 82201 10315 20270 30012 40026 8432/ 333 10355 56599 58021 70000 83617 81930 88459=
41927,2023,05,16,18,00,AAXX 16184 41927 11450 61803 10223 20200 30039 40054 60246 70196 83510 333 56490 58018 70240 83617 85459=
41927,2023,05,17,00,00,AAXX 17004 41927 32450 61801 10217 20210 30039 40053 83570 333 56490 58010 70240 83617 84459=
41927,2023,05,17,06,00,AAXX 17064 41927 32457 31203 10290 20210 30070 40085 83400 333 56300 58023 70240 82618=
41927,2023,05,17,12,00,AAXX 17124 41927 32457 51601 10290 20220 30048 40062 82510 333 10316 56390 58036 70240 82618 85459=
41927,2023,05,17,18,00,AAXX 17184 41927 31456 61501 10250 20230 30066 40081 70192 82510 333 56390 58027 70000 82618 86459=
41927,2023,05,18,00,00,AAXX 18004 41927 11350 82101 10200 20190 30088 40102 60154 79596 8692/ 333 56599 58049 70150 82708 83616 82929 88459=
41927,2023,05,18,06,00,AAXX 18064 41927 31957 31801 10300 20210 30084 40098 70190 83010 333 56090 58014 70150 83459=
41927,2023,05,18,12,00,AAXX 18124 41927 32457 61801 10290 20220 30057 40072 83510 333 10315 56490 58009 70150 83618 86459=
41927,2023,05,18,18,00,AAXX 18184 41927 32456 51901 10250 20220 30061 40076 82510 333 56490 59005 70000 82618 85459=
41929,2023,05,12,00,00,AAXX 12004 41929 02/56 30000 10240 20230 30066 40075 83030 333 58000 70000 83365==
41929,2023,05,12,03,00,AAXX 12034 41929 02456 60000 10300 20250 30080 40089 83510 333 20235 58000 70000 83618 85462==
41929,2023,05,12,06,00,AAXX 12064 41929 02457 71402 10334 20220 30072 40081 83510 333 59001 70000 83618 86462==
41929,2023,05,12,09,00,AAXX 12094 41929 02456 70000 10340 20220 30042 40051 83510 333 59005 70000==
41929,2023,05,12,12,00,AAXX 12124 41929 02456 70000 10320 20260 30026 40035 83570 333 10350 59001 70000 83618 85462==
41929,2023,05,12,15,00,AAXX 12154 41929 02/56 30000 10275 20270 30054 40065 83030 333 58004 70000 83365==
41929,2023,05,12,18,00,AAXX 12184 41929 02/56 30000 10270 20250 30069 40078 83030 333 58017 70000 83365==
41929,2023,05,12,21,00,AAXX 12214 41929 02/56 30000 10265 20260 30039 40049 83030 333 58020 70000 83365==
41929,2023,05,13,00,00,AAXX 13004 41929 02950 80000 10260 20260 30043 40053 8351/ 333 59023 70000 83618 88462==
41929,2023,05,13,03,00,AAXX 13034 41929 02456 80000 10300 20260 30054 40063 8351/ 333 20255 59026 70000 83618 88462==
41929,2023,05,13,06,00,AAXX 13063 41929 02457 80501 10332 20240 30050 40059 8351/ 333 59022 70000 83618 88462==
41929,2023,05,13,09,00,AAXX 13094 41929 02456 81403 10330 20250 30016 40025 333 59026 70000 83618 88462==
41929,2023,05,13,12,00,AAXX 13123 41929 02456 81302 10315 20240 30012 40021 8451/ 333 10342 59014 70000 84618 88462==
41929,2023,05,13,15,00,AAXX 13154 41929 02456 80000 10280 20250 30018 40027 8451/ 333 59036 70000 84618 88462==
41929,2023,05,13,18,00,AAXX 13184 41929 02456 80000 10278 20258 30018 40027 8451/ 333 59021 70000 84618 88462==
41929,2023,05,13,21,00,AAXX 13214 41929 02456 70000 10260 20240 30001 40010 84510 333 59038 70000 84618 86412==
41929,2023,05,14,00,00,AAXX 14004 41929 02456 80000 10257 20240 39992 40001 8451/ 333 59051 70000 84618 88462==
41929,2023,05,14,03,00,AAXX 14034 41929 02456 70902 10295 20240 30004 40013 83510 333 20253 59050 70000 83618 86462==
41929,2023,05,14,06,00,AAXX 14064 41929 02456 80000 10312 20210 39993 40002 8351/ 333 59057 70000 83618 88462==
41929,2023,05,14,09,00,AAXX 14094 41929 02456 83605 10318 20180 39970 49979 8351/ 333 59037 70000 83618 88462==
41929,2023,05,14,12,00,AAXX 14124 41929 02456 70907 10290 20180 39963 49972 83570 333 10320 59049 70000 83618 85462==
41929,2023,05,14,15,00,AAXX 14154 41929 02456 40000 10260 20230 39999 40008 83530 333 59019 70000 83618==
41929,2023,05,14,18,00,AAXX 14184 41929 42/56 30000 10240 20200 30000 40009 83030 333 59018 83365==
41929,2023,05,14,21,00,AAXX 14214 41929 02/56 30000 10234 20200 30011 40020 83030 333 58010 70000 83365==
41929,2023,05,15,00,00,AAXX 15004 41929 02/56 50000 10230 20210 30022 40031 85030 333 58030 70000 85365==
41929,2023,05,15,03,00,AAXX 15034 41929 02958 01805 10280 20200 30042 40051 333 20222 58038 70000==
41929,2023,05,15,06,00,AAXX 15064 41929 02959 01305 10315 20210 30041 40050 333 58048 70000==
41929,2023,05,15,09,00,AAXX 15094 41929 02959 01804 10337 20220 30015 40024 333 58045 70000==
41929,2023,05,15,12,00,AAXX 15124 41929 02958 01804 10325 20230 39999 40008 333 10339 58036 70000==
41929,2023,05,15,15,00,AAXX 15154 41929 01456 82308 10245 20220 30038 40047 71792 8591/ 333 58039 70000 84618 88462 81930==
41929,2023,05,15,18,00,AAXX 15183 41929 01/56 53102 10245 20210 30021 40030 70192 85030 333 58021 70000 85365==
41929,2023,05,15,21,00,AAXX 15214 41929 02/56 30000 10240 20220 30027 40036 83030 333 58016 70000 83365==
41929,2023,05,16,00,00,AAXX 16004 41929 02/56 30000 10235 20220 30032 40041 83030 333 58010 70000 83365==
41929,2023,05,16,03,00,AAXX 16034 41929 02957 01305 10300 20220 30058 40067 333 20227 58016 70000==
41929,2023,05,16,06,00,AAXX 16064 41929 02458 71804 10332 20230 30061 40070 83570 333 58020 70000 83618 85462==
41929,2023,05,16,09,00,AAXX 16094 41929 02459 22305 10345 20250 30037 40046 82500 333 58022 70000 82618==
41929,2023,05,16,12,00,AAXX 16124 41929 02457 71805 10325 20260 30023 40032 83570 333 10347 58024 70000 83618 85462==
41929,2023,05,16,15,00,AAXX 16154 41929 01456 81312 10230 20210 30056 40066 79596 8592/ 333 58018 70180 85616 88460 81930==
41929,2023,05,16,21,00,AAXX 16214 41929 02/56 31408 10235 20220 30073 40083 83030 333 58036 70780 83365==
41929,2023,05,17,00,00,AAXX 17004 41929 02456 31702 10243 20220 30057 40067 82530 333 58035 70180 82618==
41929,2023,05,17,03,00,AAXX 17034 41929 02456 80000 10286 20260 30087 40096 8352/ 333 20220 58029 70180 83618 88462==
41929,2023,05,17,06,00,AAXX 17064 41929 02457 20902 10292 20210 30085 40094 81530 333 58024 70180 81618==
41929,2023,05,17,09,00,AAXX 17094 41929 02/56 20907 10308 20210 30063 40072 82030 333 58026 70180 82365==
41929,2023,05,17,12,00,AAXX 17124 41929 02956 01307 10275 20230 30062 40071 333 10310 58039 70180==
41929,2023,05,17,15,00,AAXX 17154 41929 01456 82312 10253 20220 30083 40092 79592 8592/ 333 58027 70002 84616 88460 81930==
41929,2023,05,17,18,00,AAXX 17184 41929 21/56 30000 10245 20240 30083 40092 70196 83030 333 58028 69958 70005 83365==
41929,2023,05,17,21,00,AAXX 17214 41929 02/56 40000 10226 20220 30090 40099 84030 333 58017 70005 84365==
41929,2023,05,18,00,00,AAXX 18004 41929 01456 83104 10206 20200 30106 40116 79596 8592/ 333 58049 70160 84616 88460 81930==
41929,2023,05,18,03,00,AAXX 18034 41929 01456 81802 10222 20200 30091 40101 71796 8592/ 333 20200 58004 70188 84616 88462 81930==
41929,2023,05,18,06,00,AAXX 18064 41929 21/57 20902 10288 20220 30095 40104 70196 82040 333 58010 60035 70188 82365==
41929,2023,05,18,09,00,AAXX 18094 41929 02456 71803 10316 20230 30073 40082 83510 333 58010 70188 83618 86462==
41929,2023,05,18,12,00,AAXX 18124 41929 02456 81803 10293 20220 30060 40069 8451/ 333 10318 59002 70213 84618 88462==
41929,2023,05,18,15,00,AAXX 18154 41929 02456 81305 10265 20230 30053 40062 8451/ 333 59030 70211 84618 88462==
41929,2023,05,18,18,00,AAXX 18184 41929 02/56 30000 10250 20230 30068 40077 83030 333 59015 70208 83365==
41929,2023,05,18,21,00,AAXX 18214 41929 02/56 30000 10242 20230 30062 40071 83030 333 59028 70208 83365==
41933,2023,05,12,00,00,AAXX 12004 41933 01430 20000 10260 20250 30070 40079 71000 82500 333 59004 70000 82618==
41933,2023,05,12,03,00,AAXX 12034 41933 01440 42402 10315 20250 30081 40090 70500 84400 333 20255 59009 70000 82618==
41933,2023,05,12,06,00,AAXX 12064 41933 02456 62702 10340 20240 30068 40076 83520 333 59007 70000 83618 86458==
41933,2023,05,12,09,00,AAXX 12094 41933 02456 40202 10357 20220 30030 40039 81541 333 59011 70000 81618 83080==
41933,2023,05,12,12,00,AAXX 12124 41933 02456 50000 10330 20230 30028 40037 82541 333 10365 59003 70000 82618 84080==
41933,2023,05,12,15,00,AAXX 12154 41933 02956 01702 10292 20240 30056 40065 333 59002 70000==
41933,2023,05,12,18,00,AAXX 12184 41933 02950 20000 10265 20230 30062 40071 80001 333 59003 70000 82080==
41933,2023,05,12,21,00,AAXX 12214 41933 02450 60000 10262 20250 30045 40054 83520 333 59020 70000 83616 86458==
41933,2023,05,13,00,00,AAXX 13004 41933 02450 80000 10260 20250 30050 40059 8542/ 333 59020 70000 84616 88458==
41933,2023,05,13,03,00,AAXX 13034 41933 02456 71702 10305 20230 30066 40074 84510 333 20259 59015 70000 84616 87458==
41933,2023,05,13,06,00,AAXX 13064 41933 02456 80000 10299 20230 30053 40062 8452/ 333 59015 70000 84616 88458==
41933,2023,05,13,09,00,AAXX 13094 41933 02456 71302 10305 20230 30035 40043 84520 333 58005 70000 84616 87458==
41933,2023,05,13,12,00,AAXX 13123 41933 02450 71301 10295 20230 30025 40033 84520 333 10312 59003 70000 84616 87458==
41933,2023,05,13,15,00,AAXX 13154 41933 02450 80000 10275 20230 30036 40044 8452/ 333 59020 70000 84616 88458==
41933,2023,05,13,18,00,AAXX 13184 41933 02440 80000 10262 20230 30039 40047 8452/ 333 59023 70000 84616 88458==
41933,2023,05,13,21,00,AAXX 13214 41933 02440 80000 10260 20220 30017 40026 8452/ 333 59028 70000 84616 88458==
41933,2023,05,14,00,00,AAXX 14004 41933 02450 80000 10256 20220 30005 40014 8452/ 333 59045 70000 84616 88458==
41933,2023,05,14,03,00,AAXX 14034 41933 02450 80903 10272 20220 30009 40018 8662/ 333 20250 59057 70000 82708 84615 88457==
41933,2023,05,14,06,00,AAXX 14064 41933 21450 80404 10272 20210 39996 40004 76162 8662/ 333 59057 60007 82708 84615 88457==
41933,2023,05,14,09,00,AAXX 14094 41933 41350 80405 10245 20210 39958 49967 76166 8672/ 333 59077 83708 84615 88457==
41933,2023,05,14,12,00,AAXX 14124 41933 21350 80202 10240 20200 39955 49964 76166 8662/ 333 10285 59070 69969 70006 82708 84615 88457==
41933,2023,05,14,15,00,AAXX 14154 41933 01450 83602 10240 20190 39988 49997 70262 8352/ 333 59048 70006 83615 88457==
41933,2023,05,14,18,00,AAXX 14184 41933 11450 80502 10239 20190 30001 40009 60006 70262 8352/ 333 59038 70006 83616 88457==
41933,2023,05,14,21,00,AAXX 14214 41933 02450 60502 10230 20200 30006 40014 83530 333 59011 70006 83616 85362==
41933,2023,05,15,00,00,AAXX 15004 41933 02456 40501 10220 20200 30024 40033 82501 333 58019 70006 82616 83074==
41933,2023,05,15,03,00,AAXX 15034 41933 02456 31804 10276 20200 30048 40057 81501 333 20216 58039 70006 81616 83074==
41933,2023,05,15,06,00,AAXX 15064 41933 02456 42004 10300 20190 30047 40055 84400 333 58051 70006 82618==
41933,2023,05,15,09,00,AAXX 15094 41933 02456 42104 10330 20210 30019 40028 83500 333 58061 70006 83618==
41933,2023,05,15,12,00,AAXX 15124 41933 02956 02004 10310 20210 30017 40026 333 10330 58062 70000==
41933,2023,05,15,15,00,AAXX 15154 41933 02456 41902 10280 20240 30044 40053 84400 333 58056 70000 82618==
41933,2023,05,15,18,00,AAXX 15183 41933 02456 42001 10270 20210 30035 40044 84400 333 58034 70000 82618==
41933,2023,05,15,21,00,AAXX 15214 41933 02456 60000 10250 20230 30038 40047 83530 333 58032 70000 83616 85362==
41933,2023,05,16,00,00,AAXX 16004 41933 01440 61802 10235 20220 30043 40052 70522 83530 333 58019 70000 83616 85362==
41933,2023,05,16,03,00,AAXX 16034 41933 02456 22004 10290 20210 30068 40077 82500 333 20235 58020 70000 82618==
41933,2023,05,16,06,00,AAXX 16064 41933 02456 22105 10325 20230 30064 40073 82500 333 58017 70000 82618==
41933,2023,05,16,09,00,AAXX 16094 41933 02456 21907 10325 20240 30051 40059 82500 333 58032 70000 82618==
41933,2023,05,16,12,00,AAXX 16124 41933 02456 72006 10304 20230 30044 40052 84520 333 10340 58027 70000 84618 87458==
41933,2023,05,16,15,00,AAXX 16154 41933 02456 82606 10286 20260 30071 40079 84520 333 58027 70000 84618 87458==
41933,2023,05,16,18,00,AAXX 16184 41933 21450 42202 10230 20210 30061 40069 70162 82530 333 58026 69925 70002 82618 84362==
41933,2023,05,16,21,00,AAXX 16214 41933 02450 40000 10226 20210 30065 40074 82510 333 58027 70002 82616 84459==
41933,2023,05,17,00,00,AAXX 17004 41933 02450 70000 10229 20210 30070 40079 84520 333 58027 70002 84616 87458==
41933,2023,05,17,03,00,AAXX 17034 41933 02456 72102 10270 20220 30094 40103 84510 333 20221 58026 70002 84616 87458==
41933,2023,05,17,06,00,AAXX 17064 41933 01340 80000 10214 20190 30120 40129 79562 8692/ 333 58056 70150 83708 84615 88456 81924==
41933,2023,05,17,09,00,AAXX 17094 41933 01450 61802 10252 20210 30090 40098 70196 84510 333 58039 70194 84616 88458==
41933,2023,05,17,12,00,AAXX 17124 41933 11450 51803 10252 20200 30084 40093 60046 70196 84510 333 10312 58046 70194 84616 85458==
41933,2023,05,17,18,00,AAXX 17184 41933 NIL=
41933,2023,05,18,00,00,AAXX 18004 41933 NIL=
41933,2023,05,18,06,00,AAXX 18064 41933 21450 81803 10245 20210 30093 40102 70196 8552/ 333 59027 60278 70304 85616 88458==
41933,2023,05,18,09,00,AAXX 18094 41933 02456 51803 10282 20210 30088 40096 81502 333 59002 70266 81616 85074==
41933,2023,05,18,12,00,AAXX 18124 41933 02456 41802 10274 20210 30070 40079 82530 333 10286 59014 70266 82616 83362==
41933,2023,05,18,15,00,AAXX 18154 41933 02450 10000 10244 20220 30082 40091 81500 333 59004 70266 81616==
41933,2023,05,18,18,00,AAXX 18184 41933 02950 00000 10234 20210 30068 40077 333 59023 70266==
41933,2023,05,18,21,00,AAXX 18214 41933 02450 21801 10217 20210 30057 40066 82500 333 59036 70266 82616==
41936,2023,05,12,00,00,AAXX 12004 41936 01/14 20000 10262 20240 30073 40080 70500 82030 333 58007 70000 82362==
41936,2023,05,12,03,00,AAXX 12034 41936 01416 51703 10306 20260 30077 40084 70522 82530 333 20260 58001 70000 82615 85362==
41936,2023,05,12,06,00,AAXX 12064 41936 01430 51708 10342 20240 30068 40074 70522 82530 333 58001 70000 82615 85362==
41936,2023,05,12,09,00,AAXX 12094 41936 01440 51703 10358 20240 30038 40045 70522 82530 333 59001 70000 82618 85362==
41936,2023,05,12,12,00,AAXX 12124 41936 01440 52305 10338 20270 30027 40034 70522 82530 333 10360 58002 70000 82618 85362==
41936,2023,05,12,15,00,AAXX 12154 41936 01/30 40000 10294 20250 30047 40054 70522 84030 333 58000 70000 84362==
41936,2023,05,12,18,00,AAXX 12184 41936 01/30 50000 10284 20250 30056 40063 70522 85030 333 58000 70000 85362==
41936,2023,05,12,21,00,AAXX 12214 41936 01/20 50000 10274 20250 30048 40055 70522 85030 333 58000 70000 85362==
41936,2023,05,13,00,00,AAXX 13004 41936 01914 40000 10266 20250 30041 40048 70522 333 59032 70000 84030 85362==
41936,2023,05,13,03,00,AAXX 13034 41936 01425 70000 10300 20260 30059 40066 70522 82630 333 20264 59018 70000 82618 86362==
41936,2023,05,13,06,00,AAXX 13064 41936 01430 70205 10334 20250 30049 40055 70522 82630 333 59019 70000 82618 86362==
41936,2023,05,13,09,00,AAXX 13094 41936 01430 70703 10346 20240 30017 40023 70522 333 59022 70000 82630 82618 86362==
41936,2023,05,13,12,00,AAXX 13124 41936 01440 61203 10324 20250 30010 40016 70522 82630 333 10350 59018 70000 82615 85362==
41936,2023,05,13,15,00,AAXX 13154 41936 01440 61304 10296 20250 30027 40034 70522 82630 333 59020 70000 82615 85362==
41936,2023,05,13,18,00,AAXX 13184 41936 42440 61303 10286 20250 30032 40039 59024 85362==
41936,2023,05,13,21,00,AAXX 13214 41936 01440 61104 10276 20240 30022 40029 70522 82630 333 59026 70000 82615 85362==
41936,2023,05,14,00,00,AAXX 14004 41936 01410 60000 10264 20240 30098 40005 70522 82530 333 59043 70000 82615 85362==
41936,2023,05,14,03,00,AAXX 14034 41936 01420 60308 10298 20240 30004 40011 70522 82530 333 20252 59055 70000 82615 85362==
41936,2023,05,14,06,00,AAXX 14064 41936 01440 60714 10336 20210 39989 49996 70522 82530 333 59059 70000 82615 85362==
41936,2023,05,14,09,00,AAXX 14094 41936 01450 70610 10346 20250 39965 49972 70522 82530 333 59062 70000 82615 85362==
41936,2023,05,14,12,00,AAXX 14124 41936 01450 60610 10320 20180 39971 49978 70522 82530 333 10350 59038 70000 82615 85362==
41936,2023,05,14,15,00,AAXX 14154 41936 01450 30806 10284 20190 30001 40008 70522 81530 333 59026 70000 81618 83362==
41936,2023,05,14,18,00,AAXX 14184 41936 01/50 20000 10260 20200 30006 40013 70522 82030 333 59022 70000 82362==
41936,2023,05,14,21,00,AAXX 14214 41936 01/50 10000 10232 20210 30002 40010 70511 81030 333 59019 70000 81362==
41936,2023,05,15,00,00,AAXX 15004 41936 01/30 30000 10226 20200 30031 40038 70521 83030 333 58033 70000 83362==
41936,2023,05,15,03,00,AAXX 15034 41936 01950 00903 10290 20200 30042 40049 70521 333 20220 58038 70000==
41936,2023,05,15,06,00,AAXX 15064 41936 01950 01910 10340 20200 30031 40038 70500 333 58040 70000==
41936,2023,05,15,09,00,AAXX 15094 41936 01950 01810 10360 20210 30007 40014 70500 333 58042 70000==
41936,2023,05,15,12,00,AAXX 15124 41936 01/50 41808 10340 20250 39997 40000 70500 84030 333 10364 58022 70000 83462==
41936,2023,05,15,15,00,AAXX 15154 41936 01320 72016 10236 20220 30016 40023 79596 86630 333 58017 70140 84708 83615 87362 81930==
41936,2023,05,15,18,00,AAXX 15184 41936 41430 62408 10250 20210 30021 40028 70596 86630 333 58015 82610 83415 84362==
41936,2023,05,15,21,00,AAXX 15214 41936 01425 52106 10244 20200 30012 40019 70522 82530 333 58009 70140 82615 83362==
41936,2023,05,16,00,00,AAXX 16004 41936 01/16 30704 10226 20220 30030 40037 70511 83030 333 59001 70140 83362==
41936,2023,05,16,03,00,AAXX 16034 41936 01920 00906 10290 20230 30052 40059 70511 333 20220 58010 70140==
41936,2023,05,16,06,00,AAXX 16064 41936 01940 42210 10348 20280 30049 40056 70511 84630 333 58018 70140 86315 83362==
41936,2023,05,16,09,00,AAXX 16094 41936 01440 52310 10258 20250 30035 40041 70522 83630 333 58027 70000 83515 84362==
41936,2023,05,16,11,00,AAXX 16114 41936 NIL=
41936,2023,05,16,12,00,AAXX 16124 41936 01330 72512 10334 20250 30027 40033 70522 84630 333 10362 70140 81708 83615 81825 81562==
41936,2023,05,16,15,00,AAXX 16154 41936 01330 81607 10232 20210 30060 40067 72992 85830 333 58044 70190 82708 83615 85362==
41936,2023,05,16,18,00,AAXX 16184 41936 01330 41503 10230 20210 30057 40064 70529 84630 333 58036 70190 86315 83262==
41936,2023,05,16,21,00,AAXX 16214 41936 01930 41205 10244 20220 30045 40052 70522 84630 333 58033 70190 86315 83262==
41936,2023,05,17,00,00,AAXX 17004 41936 01920 41608 10254 20230 30050 40057 70522 84630 333 58020 70190 86315 83262==
41936,2023,05,17,03,00,AAXX 17034 41936 01340 61810 10300 20270 30062 40069 70522 84630 333 10230 58010 70190 87110 86315 83462==
41936,2023,05,17,06,00,AAXX 17064 41936 01450 51812 10352 20260 30060 40067 70522 85630 333 58011 70190 86315 83262==
41936,2023,05,17,09,00,AAXX 17094 41936 01450 31807 10362 20260 30050 40057 70522 83530 333 58015 70190 86315==
41936,2023,05,17,12,00,AAXX 17124 41936 41350 71807 10340 20260 30050 40058 70522 81730 333 10364 58025 81708 83362==
41936,2023,05,17,15,00,AAXX 17154 41936 01930 42508 10230 20210 30070 40077 70592 82530 333 58010 70170 82615 83362==
41936,2023,05,17,18,00,AAXX 17184 41936 01930 03603 10236 20210 30079 40086 70591 333 58022 70170==
41936,2023,05,17,21,00,AAXX 17214 41936 01930 00803 10244 20220 30069 40076 70510 333 58024 70170==
41936,2023,05,18,00,00,AAXX 18004 41936 01307 73410 10204 20190 30104 40111 79591 85720 333 58004 70060 84707 83615 87262 81930==
41936,2023,05,18,03,00,AAXX 18034 41936 01450 51405 10230 20200 30099 40106 70591 83830 333 20200 58037 70450 83815 84362==
41936,2023,05,18,06,00,AAXX 18064 41936 01/50 11410 10294 20200 30098 40105 70511 81030 333 58038 70430 83162==
41936,2023,05,18,09,00,AAXX 18094 41936 01940 61910 10304 20220 30065 40072 70522 83830 333 58016 70430 83815 84362==
41936,2023,05,18,12,00,AAXX 18124 41936 01940 61808 10292 20230 30064 40071 70522 83830 333 10314 58012 70430 83815 84362==
41936,2023,05,18,15,00,AAXX 18154 41936 01420 71909 10248 20190 30038 40045 70596 83530 333 59002 70310 83615 85362==
41936,2023,05,18,18,00,AAXX 18184 41936 01420 60000 10242 20200 30065 40072 70596 83530 333 59014 70250 83615 84362==
41936,2023,05,18,21,00,AAXX 18214 41936 01420 20000 10220 20210 30051 40058 70522 81530 333 59018 70250 81615==
41938,2023,05,12,00,00,AAXX 12004 41938 31912 70000 10263 20250 30069 40073 71021 84012 333 56099 59004 70000 84460 84079=
41938,2023,05,12,06,00,AAXX 12064 41938 32456 72301 10338 20250 30072 40076 83411 333 56599 59006 70000 82618 85460=
41938,2023,05,12,12,00,AAXX 12124 41938 32456 60000 10314 20260 30038 40042 81402 333 10347 56909 58000 70000 81618 86080=
41938,2023,05,12,18,00,AAXX 12184 41938 32956 60000 10273 20250 30059 40063 86010 333 56090 58000 70000 86460=
41938,2023,05,13,00,00,AAXX 13004 41938 31925 80000 10265 20260 30050 40054 71021 8802/ 333 56099 59019 70000 88460=
41938,2023,05,13,06,00,AAXX 13064 41938 32456 73402 10340 20250 30053 40057 85410 333 56890 59019 70000 83617 83825 85460=
41938,2023,05,13,12,00,AAXX 13124 41938 32456 50000 10308 20240 30038 40042 82410 333 10355 56909 58004 70000 83618=
41938,2023,05,13,18,00,AAXX 13184 41938 32450 60000 10272 20230 30029 40033 84510 333 56990 59030 70000 84618 84459=
41938,2023,05,14,00,00,AAXX 14004 41938 31420 70000 10260 20260 30002 40006 70522 84510 333 56990 59048 70000 84618 85459=
41938,2023,05,14,06,00,AAXX 14064 41938 32450 73503 10310 20230 39996 40000 84510 333 56990 59057 70000 84618 85459=
41938,2023,05,14,12,00,AAXX 14124 41938 32956 60304 10285 20170 39974 49978 83072 333 10322 56099 59071 70000 82460 85078=
41938,2023,05,14,18,00,AAXX 14184 41938 32950 23001 10227 20200 30008 40012 82030 333 56090 59034 70000 82362=
41938,2023,05,15,00,00,AAXX 15004 41938 32456 40000 10215 20200 30029 40033 82570 333 56690 58027 70000 82618 83362=
41938,2023,05,15,06,00,AAXX 15064 41938 32957 51502 10323 20200 30043 40047 83011 333 56099 58047 70000 83460 83080=
41938,2023,05,15,12,00,AAXX 15124 41938 32956 01603 10325 20220 30012 40016 333 10350 58038 70000=
41938,2023,05,15,18,00,AAXX 15183 41938 11450 82305 10242 20210 30026 40030 60107 70296 8252/ 333 56599 58018 70104 82617 88460=
41938,2023,05,16,00,00,AAXX 16004 41938 31920 10000 10230 20220 30035 40039 71021 81020 333 56090 58006 70104 81460=
41938,2023,05,16,06,00,AAXX 16064 41938 32456 52105 10332 20230 30063 40067 85430 333 56590 58020 70104 84618=
41938,2023,05,16,12,00,AAXX 16124 41938 32456 41803 10322 20250 30043 40047 84400 333 10353 56400 58031 70104 83618=
41938,2023,05,16,18,00,AAXX 16184 41938 11450 70000 10230 20220 30069 40073 60054 70296 84510 333 56990 58043 70050 84618 84459=
41938,2023,05,17,00,00,AAXX 17004 41938 31450 40000 10230 20220 30069 40073 70511 84510 333 56990 58047 70050 84618=
41938,2023,05,17,06,00,AAXX 17064 41938 32456 41804 10335 20260 30071 40075 84400 333 56400 58008 70050 83618=
41938,2023,05,17,12,00,AAXX 17124 41938 32456 71601 10287 20240 30066 40070 84310 333 10340 56490 58023 70050 83617 81930 85460=
41938,2023,05,17,18,00,AAXX 17184 41938 11950 02201 10230 20210 30080 40084 60095 70096 333 58011 70086=
41938,2023,05,18,00,00,AAXX 18004 41938 11450 83516 10225 20190 30105 40109 69904 79510 8692/ 333 56899 58034 70086 85616 81929 88459=
41938,2023,05,18,06,00,AAXX 18064 41938 11956 51702 10270 20210 30101 40105 60408 70196 82072 333 56099 58030 70482 82460 84079=
41938,2023,05,18,12,00,AAXX 18124 41938 32456 61801 10274 20220 30076 40080 85520 333 10295 56490 58010 70485 85617=
41938,2023,05,18,18,00,AAXX 18184 41938 11956 13001 10235 20220 30071 40075 69928 70196 81010 333 56090 59009 70398 81460=
41939,2023,05,12,00,00,AAXX 12004 41939 02456 50000 10255 20250 30075 40083 83530 333 59009 70000 83617 83365==
41939,2023,05,12,03,00,AAXX 12034 41939 02458 40000 10305 20260 30090 40098 82530 333 20252 58003 70000 82618 83365==
41939,2023,05,12,06,00,AAXX 12064 41939 02458 50000 10340 20250 30077 40085 81510 333 59005 70000 81618 85459==
41939,2023,05,12,09,00,AAXX 12094 41939 02458 30000 10350 20210 30045 40053 81530 333 58016 70000 81618 83365==
41939,2023,05,12,12,00,AAXX 12124 41939 02456 50000 10305 20260 30033 40041 83530 333 10350 59010 70000 83618 83364==
41939,2023,05,12,15,00,AAXX 12154 41939 02950 00000 10290 20260 30043 40051 333 59022 70000==
41939,2023,05,12,18,00,AAXX 12184 41939 02450 60000 10273 20250 30052 40060 83510 333 59020 70000 83618 85459==
41939,2023,05,12,21,00,AAXX 12214 41939 02450 40000 10270 20240 30064 40072 82530 333 59018 70000 82618 83682==
41939,2023,05,13,00,00,AAXX 13004 41939 02456 70000 10268 20260 30058 40066 82510 333 59017 70000 82618 87459==
41939,2023,05,13,03,00,AAXX 13034 41939 02457 70000 10300 20260 30076 40084 82510 333 20263 59014 70000 82618 87459==
41939,2023,05,13,06,00,AAXX 13063 41939 02458 60000 10323 20250 30070 40078 83510 333 59010 70000 83618 85459==
41939,2023,05,13,09,00,AAXX 13094 41939 02458 60000 10328 20250 30032 40040 83510 333 59013 70000 83618 85459==
41939,2023,05,13,12,00,AAXX 13123 41939 02459 30000 10305 20240 30028 40036 82530 333 10336 59005 70000 82618 83365==
41939,2023,05,13,15,00,AAXX 13154 41939 02456 50000 10278 20230 30038 40046 83530 333 59005 70000 83617 83364==
41939,2023,05,13,18,00,AAXX 13184 41939 02456 40000 10270 20230 30042 40050 82530 333 59007 70000 82617 83364==
41939,2023,05,13,21,00,AAXX 13214 41939 02450 80000 10260 20230 30015 40023 8352/ 333 59049 70000 83618 88459==
41939,2023,05,14,00,00,AAXX 14004 41939 02457 80000 10260 20240 39995 40003 8352/ 333 59063 70000 83618 88459==
41939,2023,05,14,03,00,AAXX 14034 41939 02458 80000 10294 20240 30010 40018 8352/ 333 20250 59066 70000 83618 88459==
41939,2023,05,14,06,00,AAXX 14064 41939 02456 80402 10310 20220 39992 40000 8352/ 333 59060 70000 83616 88459==
41939,2023,05,14,09,00,AAXX 14094 41939 02456 80503 10292 20190 39970 49978 8352/ 333 59062 70000 83616 88459==
41939,2023,05,14,12,00,AAXX 14124 41939 02456 70503 10275 20200 39974 49982 83510 333 10315 59054 70000 83617 87459==
41939,2023,05,14,15,00,AAXX 14154 41939 02456 40000 10252 20190 30006 40014 82530 333 59032 70000 82618 83365==
41939,2023,05,14,18,00,AAXX 14184 41939 02456 40000 10250 20210 30018 40026 82530 333 59029 70000 83365==
41939,2023,05,14,21,00,AAXX 14214 41939 02456 30000 10220 20210 30048 40055 82530 333 58003 70000 82618==
41939,2023,05,15,00,00,AAXX 15004 41939 02456 30000 10217 20210 30040 40048 82530 333 58045 70000 82618==
41939,2023,05,15,03,00,AAXX 15034 41939 02458 40000 10283 20210 30059 40067 82530 333 20210 58049 70000 82618 83364==
41939,2023,05,15,06,00,AAXX 15064 41939 02458 10000 10329 20220 30045 40052 81500 333 58053 70000 81618==
41939,2023,05,15,09,00,AAXX 15094 41939 02459 10000 10335 20250 30024 40032 81500 333 58054 70000 81618==
41939,2023,05,15,12,00,AAXX 15124 41939 02958 00000 10316 20250 30008 40016 333 10346 58034 70000==
41939,2023,05,15,15,00,AAXX 15154 41939 02950 80000 10288 20240 30015 40023 8352/ 333 58009 70000 83617 88459==
41939,2023,05,15,18,00,AAXX 15184 41939 NIL=
41939,2023,05,15,21,00,AAXX 15214 41939 01450 50000 10245 20230 30045 40053 70162 82510 333 59003 70022 82617 85459==
41939,2023,05,16,00,00,AAXX 16004 41939 11956 00000 10235 20220 30049 40057 60026 70062 333 58009 70022==
41939,2023,05,16,03,00,AAXX 16034 41939 02958 00000 10285 20240 30069 40077 333 20228 58010 70022==
41939,2023,05,16,06,00,AAXX 16064 41939 02457 40000 10340 20250 30069 40077 82530 333 58024 70022 82617 83360==
41939,2023,05,16,09,00,AAXX 16094 41939 02457 41303 10337 20250 30051 40058 83530 333 58027 70022 83617==
41939,2023,05,16,12,00,AAXX 16124 41939 02458 31302 10320 20250 30042 40050 82530 333 10350 58034 70022 82618==
41939,2023,05,16,15,00,AAXX 16154 41939 01456 80000 10230 20210 30099 40107 76162 8352/ 333 58084 70072 83617 88459==
41939,2023,05,16,21,00,AAXX 16214 41939 02450 60000 10235 20220 30087 40095 83510 333 58035 70130 83618 85459==
41939,2023,05,17,00,00,AAXX 17004 41939 02456 80000 10245 20230 30063 40071 8352/ 333 58014 70130 83617 88459==
41939,2023,05,17,03,00,AAXX 17034 41939 02458 60000 10282 20240 30076 40084 83510 333 20221 58007 70130 83618 85459==
41939,2023,05,17,06,00,AAXX 17064 41939 01456 40000 10280 20230 30091 40099 70162 82530 333 58022 70010 82618==
41939,2023,05,17,09,00,AAXX 17094 41939 01457 30000 10272 20220 30073 40081 70196 82530 333 58022 70144 82618==
41939,2023,05,17,12,00,AAXX 17124 41939 11456 20000 10265 20230 30079 40087 69946 70196 82530 333 10342 58037 70144 82618==
41939,2023,05,17,15,00,AAXX 17154 41939 02450 70000 10256 20230 30106 40114 83510 333 58007 70144 83617 87459==
41939,2023,05,17,18,00,AAXX 17184 41939 21450 40000 10253 20230 30118 40126 70162 82530 333 58010 69965 70020 82617 83363==
41939,2023,05,17,21,00,AAXX 17214 41939 02456 50000 10230 20220 30110 40118 83530 333 58011 70020 83617 83364==
41939,2023,05,18,00,00,AAXX 18004 41939 01456 80000 10222 20210 30105 40113 76122 8252/ 333 58010 70020 82616 88458==
41939,2023,05,18,03,00,AAXX 18034 41939 01456 80000 10215 20210 30128 40136 76166 8252/ 333 20207 58052 70210 82616 88458==
41939,2023,05,18,06,00,AAXX 18064 41939 21457 10000 10293 20210 30101 40109 70161 81530 333 58010 60038 70061 81618==
41939,2023,05,18,09,00,AAXX 18094 41939 02456 60000 10305 20210 30076 40084 83530 333 58003 70210 83616 84359==
41939,2023,05,18,12,00,AAXX 18124 41939 02456 60000 10288 20230 30070 40078 83530 333 10322 59009 70210 83618 83365==
41939,2023,05,18,15,00,AAXX 18154 41939 02450 40000 10269 20240 30085 40093 83530 333 59021 70210 83618==
41939,2023,05,18,18,00,AAXX 18184 41939 02450 20000 10253 20220 30096 40104 82500 333 59022 70204 82618==
41939,2023,05,18,21,00,AAXX 18214 41939 02950 00000 10250 30085 40093 333 59025 70204==
41941,2023,05,12,00,00,AAXX 12004 41941 02450 60000 10275 20270 30079 40084 85420 333 58004 70000 84616 86458==
41941,2023,05,12,03,00,AAXX 12034 41941 02456 82003 10312 20270 30091 40097 8632/ 333 20274 59003 70000 85616 88458 81930==
41941,2023,05,12,06,00,AAXX 12064 41941 02456 71804 10330 20270 30072 40078 85420 333 59015 70000 84616 87458==
41941,2023,05,12,09,00,AAXX 12094 41941 02958 01805 10350 20240 30039 40045 333 59037 70000==
41941,2023,05,12,12,00,AAXX 12124 41941 02456 82703 10325 20230 30041 40047 8632/ 333 10360 59001 70000 85615 88457==
41941,2023,05,12,15,00,AAXX 12154 41941 02950 01804 10290 20240 30057 40063 333 58004 70000==
41941,2023,05,12,18,00,AAXX 12184 41941 02440 71804 10280 20240 30079 40085 85420 333 58009 70000 84616 86458==
41941,2023,05,12,21,00,AAXX 12214 41941 02440 70000 10275 20250 30070 40075 85420 333 58006 70000 84616 87458==
41941,2023,05,13,00,00,AAXX 13004 41941 02450 80000 10270 20250 30049 40054 8632/ 333 59030 70000 85616 88458 81930==
41941,2023,05,13,03,00,AAXX 13034 41941 02456 80000 10297 20250 30073 40078 8632/ 333 20270 59018 70000 85615 88457 81928==
41941,2023,05,13,06,00,AAXX 13064 41941 02450 80000 10315 20250 30058 40063 8632/ 333 59014 70000 85615 88457 81938==
41941,2023,05,13,09,00,AAXX 13094 41941 02456 81802 10325 20240 30037 40042 8632/ 333 59002 70000 85615 88457 81928==
41941,2023,05,13,12,00,AAXX 13124 41941 02450 81802 10299 20240 30029 40034 8632/ 333 10332 59012 70000 85615 88457 81928==
41941,2023,05,13,15,00,AAXX 13154 41941 02440 80000 10280 20240 30043 40048 8632/ 333 59014 70000 85615 88458 81930==
41941,2023,05,13,18,00,AAXX 13184 41941 NIL=
41941,2023,05,13,21,00,AAXX 13214 41941 02440 80000 10265 20240 30025 40030 8632/ 333 59045 70000 85616 88458 81930==
41941,2023,05,14,00,00,AAXX 14004 41941 02450 80000 10257 20230 30005 40011 8632/ 333 59044 70000 85616 88458 81930==
41941,2023,05,14,03,00,AAXX 14034 41941 02456 81803 10290 20240 30008 40013 8632/ 333 20255 59065 70000 84616 88458 81930==
41941,2023,05,14,06,00,AAXX 14064 41941 02450 82603 10302 20210 39997 40002 8632/ 333 59061 70000 85616 88458 81930==
41941,2023,05,14,09,00,AAXX 14094 41941 02450 80606 10282 20190 39974 49979 8632/ 333 59063 70000 85616 88458 81930==
41941,2023,05,14,12,00,AAXX 14124 41941 02450 80605 10260 20190 39979 49985 8632/ 333 10307 59050 70000 85616 88458 81930==
41941,2023,05,14,15,00,AAXX 14154 41941 02440 83607 10255 20200 30008 40014 8632/ 333 59035 70000 85616 88458 81930==
41941,2023,05,14,18,00,AAXX 14184 41941 02440 63603 10250 20190 30014 40020 85420 333 59033 70000 84616 86458==
41941,2023,05,14,21,00,AAXX 14214 41941 02440 60000 10240 20190 30009 40015 85420 333 59016 70000 84616 86458==
41941,2023,05,15,00,00,AAXX 15004 41941 02450 60000 10225 20210 30031 40037 85420 333 58026 70000 84616 86458==
41941,2023,05,15,03,00,AAXX 15034 41941 02456 60603 10290 20210 30058 40063 85420 333 20223 58050 70000 84616 86458==
41941,2023,05,15,06,00,AAXX 15064 41941 02457 30604 10310 20220 30059 40065 83500 333 58062 70000 83618==
41941,2023,05,15,09,00,AAXX 15094 41941 02957 01802 10325 20240 30026 40031 333 58052 70000==
41941,2023,05,15,12,00,AAXX 15124 41941 02456 61802 10315 20250 30023 40029 85420 333 10340 58054 70000 84616 86458==
41941,2023,05,15,15,00,AAXX 15154 41941 02440 60000 10290 20250 30054 40059 85420 333 58046 70000 84616 86458==
41941,2023,05,15,18,00,AAXX 15183 41941 02440 81802 10260 20220 30045 40051 8632/ 333 58031 70000 85616 88458 81930==
41941,2023,05,15,21,00,AAXX 15214 41941 02440 80000 10250 20230 30044 40050 8632/ 333 58035 70000 85616 88458 81930==
41941,2023,05,16,00,00,AAXX 16004 41941 02450 60000 10245 20240 30050 40056 85420 333 58019 70000 84616 86458==
41941,2023,05,16,03,00,AAXX 16034 41941 02456 60604 10300 20240 30026 40032 85420 333 20243 59032 70000 84616 86458==
41941,2023,05,16,06,00,AAXX 16064 41941 02457 61803 10340 20230 30074 40079 85420 333 59015 70000 84616 86458==
41941,2023,05,16,09,00,AAXX 16094 41941 02457 61806 10335 20260 30058 40063 85420 333 59032 70000 84616 86458==
41941,2023,05,16,12,00,AAXX 16124 41941 02456 61807 10310 20260 30052 40057 85420 333 10342 59029 70000 84616 86458==
41941,2023,05,16,15,00,AAXX 16154 41941 01440 82606 10220 20220 30093 40099 79596 8692/ 333 58039 70140 85614 88456 81925==
41941,2023,05,16,18,00,AAXX 16184 41941 21440 80000 10223 20220 30087 40093 70196 8692/ 333 58042 60188 70180 85614 88456 81925==
41941,2023,05,16,21,00,AAXX 16214 41941 02440 80000 10230 20230 30080 40086 8632/ 333 58036 70180 85616 88458 81930==
41941,2023,05,17,00,00,AAXX 17004 41941 02450 82602 10234 20220 30071 40077 8632/ 333 58021 70180 85616 88458 81930==
41941,2023,05,17,03,00,AAXX 17034 41941 02450 60803 10295 20250 30088 40094 85420 333 20218 58062 70180 84616 86458==
41941,2023,05,17,06,00,AAXX 17064 41941 21450 80803 10220 20220 30092 40098 79596 8692/ 333 58018 60137 70310 85614 88458 81925==
41941,2023,05,17,09,00,AAXX 17094 41941 01450 80804 10240 20220 30089 40094 70262 8632/ 333 58031 70350 85616 88458 81930==
41941,2023,05,17,12,00,AAXX 17124 41941 21450 60603 10265 20230 30087 40093 70162 85420 333 10307 58035 60045 70350 84616 86458==
41941,2023,05,17,15,00,AAXX 17154 41941 02440 60803 10264 20230 30097 40103 85420 333 58004 70210 84616 86458==
41941,2023,05,17,18,00,AAXX 17184 41941 02440 60000 10243 20220 30095 40100 85420 333 58008 70170 84616 86458==
41941,2023,05,17,21,00,AAXX 17214 41941 02440 80803 10241 20220 30097 40102 8632/ 333 58017 70170 85616 88458 81930==
41941,2023,05,18,00,00,AAXX 18004 41941 02450 83104 10240 20230 30098 40104 8632/ 333 58027 70170 85614 88456 81925==
41941,2023,05,18,03,00,AAXX 18034 41941 01450 83103 10213 20210 30135 40140 79596 8632/ 333 20213 58047 70370 85614 88456 81925==
41941,2023,05,18,06,00,AAXX 18064 41941 21450 80903 10260 20230 30099 40105 70296 8632/ 333 58007 60228 70260 85615 88457 81928==
41941,2023,05,18,09,00,AAXX 18094 41941 02458 60903 10298 20230 30087 40093 85420 333 58002 70220 84616 86458==
41941,2023,05,18,12,00,AAXX 18124 41941 02456 60903 10284 20220 30076 40072 85420 333 10305 59011 70220 84616 86458==
41941,2023,05,18,15,00,AAXX 18154 41941 02450 60904 10286 20230 30083 40089 85420 333 59014 70220 84616 86458==
41941,2023,05,18,18,00,AAXX 18184 41941 02440 60000 10255 20250 30084 40090 85420 333 59011 70220 84616 86458==
41941,2023,05,18,21,00,AAXX 18214 41941 02440 60000 10250 20240 30070 40076 85420 333 59027 70220 84616 86458==
41943,2023,05,12,00,00,AAXX 12004 41943 02430 50000 10266 20250 30072 40079 83520 333 59007 70000 83616 84458==
41943,2023,05,12,03,00,AAXX 12034 41943 02440 60000 10320 20240 30085 40092 84520 333 20264 59011 70000 83616 84458==
41943,2023,05,12,06,00,AAXX 12064 41943 02440 63102 10354 20210 30074 40081 84520 333 59011 70000 84616 84458==
41943,2023,05,12,09,00,AAXX 12094 41943 02440 53102 10378 20220 30033 40040 83520 333 59018 70000 83616 84458==
41943,2023,05,12,12,00,AAXX 12124 41943 02440 60000 10350 20210 30027 40034 84520 333 10382 59011 70000 84616 84458==
41943,2023,05,12,18,00,AAXX 12184 41943 02430 80000 10274 20250 30065 40072 8662/ 333 59001 70000 83710 84614 88458==
41943,2023,05,12,21,00,AAXX 12214 41943 02430 80000 10270 20240 30041 40048 8662/ 333 59027 70000 83709 84614 88458==
41943,2023,05,13,00,00,AAXX 13004 41943 02330 80000 10264 20240 30052 40059 8662/ 333 59020 70000 83709 84615 88458==
41943,2023,05,13,03,00,AAXX 13034 41943 02330 81302 10280 20240 30071 40078 8662/ 333 20260 58014 70000 83709 84365 88458==
41943,2023,05,13,06,00,AAXX 13064 41943 02430 81802 10290 20220 30060 40067 8662/ 333 59014 70000 83710 84615 88458==
41943,2023,05,13,09,00,AAXX 13094 41943 02430 81502 10300 20220 30033 40040 8662/ 333 58000 70000 83710 84615 88458==
41943,2023,05,13,12,00,AAXX 13124 41943 02430 81502 10290 20210 30028 40035 8662/ 333 10320 58001 70000 83710 84615 88458==
41943,2023,05,13,15,00,AAXX 13154 41943 02430 80000 10272 20220 30040 40047 8662/ 333 59026 70000 83710 84615 88458==
41943,2023,05,13,18,00,AAXX 13184 41943 01330 80000 10254 20230 30036 40043 76166 8772/ 333 59029 70010 84709 84614 88456==
41943,2023,05,13,21,00,AAXX 13214 41943 01330 80000 10228 20230 30003 40011 76266 8672/ 333 59062 70020 83709 84613 88456==
41943,2023,05,14,00,00,AAXX 14004 41943 21330 80000 10235 20230 39988 49995 76066 8772/ 333 59064 60029 70030 84709 84614 88456==
41943,2023,05,14,03,00,AAXX 14034 41943 02430 80000 10255 20230 39996 40003 8762/ 333 20228 59075 70030 84710 84615 88458==
41943,2023,05,14,06,00,AAXX 14064 41943 21330 80000 10255 20240 39993 40000 76166 8772/ 333 59067 60027 70050 84709 84613 88456==
41943,2023,05,14,09,00,AAXX 14094 41943 01330 83605 10240 20210 39948 49955 76166 8772/ 333 59085 70080 84709 84614 88456==
41943,2023,05,14,12,00,AAXX 14124 41943 21330 80206 10230 20210 39948 49955 76066 8772/ 333 10265 59080 60049 70090 84709 84614 88456==
41943,2023,05,14,15,00,AAXX 14154 41943 02430 80000 10240 20210 39992 49999 8762/ 333 59048 70090 84710 84615 88458==
41943,2023,05,14,18,00,AAXX 14184 41943 02430 80000 10236 20210 30012 40019 8662/ 333 58013 70080 83710 84615 88458==
41943,2023,05,14,21,00,AAXX 14214 41943 02430 80000 10232 20210 30016 40023 8662/ 333 58013 70070 83710 84615 88458==
41943,2023,05,15,00,00,AAXX 15004 41943 02430 81302 10212 20200 30032 40039 8662/ 333 58044 70060 83710 84615 88458==
41943,2023,05,15,03,00,AAXX 15034 41943 02440 71803 10270 20190 30058 40065 83530 333 20212 58062 70060 83617 84362==
41943,2023,05,15,06,00,AAXX 15064 41943 02440 51805 10310 20200 30052 40059 85400 333 58059 70000 83618 83825==
41943,2023,05,15,09,00,AAXX 15094 41943 02940 01302 10325 20200 30031 40038 333 58081 70010==
41943,2023,05,15,12,00,AAXX 15124 41943 02940 01502 10310 20200 30026 40033 333 10340 58078 70000==
41943,2023,05,15,15,00,AAXX 15154 41943 02930 00000 10275 20250 30048 40055 333 58056 70000==
41943,2023,05,15,18,00,AAXX 15184 41943 01330 32303 10232 20220 30051 40058 76066 8772/ 333 58039 70140 84709 84614 88456==
41943,2023,05,15,21,00,AAXX 15214 41943 02430 60000 10228 20220 30032 40039 83530 333 58016 70140 83616 85362==
41943,2023,05,16,00,00,AAXX 16004 41943 02430 81302 10228 20210 30047 40054 8662/ 333 58015 70140 83710 84615 88458==
41943,2023,05,16,03,00,AAXX 16034 41943 02940 31302 10295 20210 30076 40083 333 20228 58018 70140==
41943,2023,05,16,06,00,AAXX 16064 41943 02940 01806 10328 20210 30078 40085 333 58026 70140==
41943,2023,05,16,09,00,AAXX 16094 41943 02440 41805 10333 20220 30066 40073 83530 333 58035 70140 83618 83362==
41943,2023,05,16,11,00,AAXX 16114 41943 NIL=
41943,2023,05,16,12,00,AAXX 16124 41943 02440 51803 10295 20250 30059 40064 83530 333 10335 58031 70140 83616 84362==
41943,2023,05,16,15,00,AAXX 16154 41943 02440 81803 10285 20260 30076 40083 8662/ 333 58028 70140 83710 84615 88458==
41943,2023,05,16,18,00,AAXX 16184 41943 21330 81802 10225 20220 30082 40089 76166 8772/ 333 58031 60157 70150 84709 84614 88456==
41943,2023,05,16,21,00,AAXX 16214 41943 01430 70000 10224 20200 30071 40078 70162 84520 333 58039 70160 84616 85458==
41943,2023,05,17,00,00,AAXX 17004 41943 11430 81502 10225 20220 30080 40087 60016 70362 8762/ 333 58033 70160 84710 84615 88458==
41943,2023,05,17,03,00,AAXX 17034 41943 02440 41803 10265 20220 30101 40108 82520 333 20220 58025 70160 82618 84458==
41943,2023,05,17,06,00,AAXX 17064 41943 02330 81808 10270 20200 30121 40128 8762/ 333 58043 70160 84709 84615 88458==
41943,2023,05,17,09,00,AAXX 17094 41943 01330 81802 10210 20200 30095 40102 76166 8772/ 333 58029 70390 84709 84613 88456==
41943,2023,05,17,12,00,AAXX 17124 41943 21440 71802 10245 20210 30085 40092 70166 83520 333 10313 58028 60238 70390 83616 86458==
41943,2023,05,17,15,00,AAXX 17154 41943 02930 00000 10227 20210 30098 40105 333 58022 70390==
41943,2023,05,17,18,00,AAXX 17184 41943 02930 01305 10224 20200 30088 40095 333 58006 70000==
41943,2023,05,17,21,00,AAXX 17214 41943 02930 03102 10222 20200 30086 40093 333 58015 70230==
41943,2023,05,18,00,00,AAXX 18004 41943 02430 80000 10218 20210 30097 40104 8662/ 333 58017 70230 83710 84615 88458==
41943,2023,05,18,03,00,AAXX 18034 41943 01330 83604 10208 20200 30145 40152 76162 8772/ 333 20200 58044 70340 84708 84613 88456==
41943,2023,05,18,06,00,AAXX 18064 41943 21330 81802 10235 20210 30100 40107 76066 8772/ 333 59021 60129 70350 84709 84614 88458==
41943,2023,05,18,09,00,AAXX 18094 41943 02430 72303 10277 20210 30093 40100 83520 333 59002 70120 83616 85458==
41943,2023,05,18,12,00,AAXX 18124 41943 02430 41302 10260 20210 30076 40083 82530 333 10282 59009 70120 82618 83362==
41943,2023,05,18,15,00,AAXX 18154 41943 02930 00000 10235 20220 30093 40100 333 59005 70120==
41943,2023,05,18,18,00,AAXX 18184 41943 02930 00000 10222 20200 30078 40085 333 59010 70120==
41943,2023,05,18,21,00,AAXX 18214 41943 02430 40000 10218 20210 30062 40069 82530 333 59024 70120 82618 83362==
41944,2023,05,12,00,00,AAXX 12004 41944 NIL=
41944,2023,05,12,06,00,AAXX 12064 41944 NIL=
41944,2023,05,12,12,00,AAXX 12124 41944 NIL=
41944,2023,05,12,18,00,AAXX 12184 41944 NIL=
41944,2023,05,13,06,00,AAXX 13064 41944 NIL=
41944,2023,05,13,12,00,AAXX 13123 41944 NIL=
41944,2023,05,13,18,00,AAXX 13184 41944 NIL=
41944,2023,05,14,00,00,AAXX 14004 41944 NIL=
41944,2023,05,14,06,00,AAXX 14064 41944 NIL=
41944,2023,05,15,06,00,AAXX 15064 41944 NIL=
41944,2023,05,15,12,00,AAXX 15124 41944 NIL=
41944,2023,05,15,18,00,AAXX 15184 41944 NIL=
41944,2023,05,16,12,00,AAXX 16124 41944 NIL=
41944,2023,05,17,00,00,AAXX 17004 41944 NIL=
41944,2023,05,17,12,00,AAXX 17124 41944 NIL=
41944,2023,05,17,18,00,AAXX 17184 41944 NIL=
41944,2023,05,18,00,00,AAXX 18004 41944 NIL=
41944,2023,05,18,18,00,AAXX 18184 41944 NIL=
41946,2023,05,12,00,00,AAXX 12004 41946 01440 60000 10274 20260 30076 40080 70510 82520 333 58005 70000 82618 84460==
41946,2023,05,12,03,00,AAXX 12034 41946 02456 60000 10313 20250 30084 40089 83520 333 20272 59007 70000 83618 84460==
41946,2023,05,12,06,00,AAXX 12064 41946 02456 50000 10342 20240 30072 40077 82520 333 58000 70000 82618 83460==
41946,2023,05,12,09,00,AAXX 12094 41946 02/56 60000 10346 20240 30040 40045 86070 333 59010 70000 83459 84360==
41946,2023,05,12,12,00,AAXX 12124 41946 02/56 60000 10333 20250 30032 40037 84032 333 10350 59001 70000 84362 84080==
41946,2023,05,12,15,00,AAXX 12154 41946 02456 60000 10300 20260 30060 40065 82520 333 59002 70000 82618 84460==
41946,2023,05,12,18,00,AAXX 12184 41946 02456 70000 10290 20270 30054 40058 82520 333 59005 70000 82618 85460==
41946,2023,05,12,21,00,AAXX 12214 41946 02456 80000 10280 20270 30049 40053 8352/ 333 59009 70000 83618 88460==
41946,2023,05,13,00,00,AAXX 13004 41946 02456 80000 10278 20270 30055 40059 8352/ 333 59021 70000 83618 88460==
41946,2023,05,13,03,00,AAXX 13034 41946 02456 70000 10325 20270 30057 40061 83520 333 20274 59027 70000 83618 87460==
41946,2023,05,13,06,00,AAXX 13063 41946 02456 80000 10340 20250 30054 40059 8352/ 333 59018 70000 83618 88460==
41946,2023,05,13,09,00,AAXX 13094 41946 01456 81701 10322 20270 30032 40037 72122 8532/ 333 59008 70014 83618 88459 81927==
41946,2023,05,13,12,00,AAXX 13123 41946 21456 80000 10301 20260 30020 40024 70296 8252/ 333 10347 59012 60015 70014 82618 88460==
41946,2023,05,13,15,00,AAXX 13154 41946 02/56 70000 10288 20250 30028 40032 87020 333 59032 70014 87459==
41946,2023,05,13,18,00,AAXX 13184 41946 02/56 60000 10282 20240 30033 40037 86020 333 59021 70014 86459==
41946,2023,05,13,21,00,AAXX 13214 41946 02/56 50000 10273 20240 30013 40018 85070 333 59036 70014 83459 83360==
41946,2023,05,14,00,00,AAXX 14004 41946 02/56 60000 10257 20250 39996 40000 85061 333 59059 70014 85360==
41946,2023,05,14,03,00,AAXX 14034 41946 02456 63602 10305 20240 30001 40005 84470 333 20252 59056 70014 83618 84460==
41946,2023,05,14,06,00,AAXX 14064 41946 02556 63602 10330 20210 39985 49990 84420 333 59069 70014 83420 86460==
41946,2023,05,14,09,00,AAXX 14093 41946 02556 60302 10337 20200 39969 49974 84420 333 59063 70000 83620 85460==
41946,2023,05,14,12,00,AAXX 14124 41946 02456 53601 10315 20200 39976 49980 82520 333 10338 59040 70000 82618 83460==
41946,2023,05,14,15,00,AAXX 14154 41946 02956 00000 10276 20190 30011 40016 333 59017 70000==
41946,2023,05,14,18,00,AAXX 14184 41946 02956 00000 10250 20200 30014 40019 333 59019 70000==
41946,2023,05,14,21,00,AAXX 14214 41946 02956 00000 10242 20200 30011 40016 333 59002 70000==
41946,2023,05,15,00,00,AAXX 15004 41946 02956 10000 10233 20210 30036 40041 80001 333 58040 70000 81080==
41946,2023,05,15,03,00,AAXX 15034 41946 02956 00000 10305 20190 30044 40049 333 20230 58043 70000==
41946,2023,05,15,06,00,AAXX 15064 41946 02957 00000 10330 20200 30036 40040 333 58051 70000==
41946,2023,05,15,09,00,AAXX 15094 41946 02/57 21703 10360 20210 30014 40019 82040 333 58045 70000 82362==
41946,2023,05,15,12,00,AAXX 15124 41946 02456 51603 10337 20250 30018 40022 85300 333 10360 58042 70000 82618 83822 81929==
41946,2023,05,15,18,00,AAXX 15183 41946 21456 60000 10260 20210 30035 40040 70196 83520 333 58021 60068 70060 83618 84460==
41946,2023,05,16,00,00,AAXX 16003 41946 02956 00000 10260 20240 30039 40044 333 58003 70060==
41946,2023,05,16,03,00,AAXX 16034 41946 02956 00000 10315 20240 30058 40062 333 20225 58014 70060==
41946,2023,05,16,06,00,AAXX 16064 41946 02556 71802 10340 20250 30061 40065 84520 333 58025 70060 84620 87460==
41946,2023,05,16,09,00,AAXX 16093 41946 02456 21802 10350 20250 30044 40048 82500 333 58030 70060 82618==
41946,2023,05,16,12,00,AAXX 16124 41946 02456 51802 10320 20260 30043 40048 82520 333 10355 58025 70060 82618 84460==
41946,2023,05,16,15,00,AAXX 16154 41946 01956 00000 10240 20210 30065 40070 70196 333 58013 70184==
41946,2023,05,16,18,00,AAXX 16184 41946 11956 10000 10250 20220 30064 40069 60186 70396 80001 333 58029 70184 81080==
41946,2023,05,16,21,00,AAXX 16214 41946 02956 00000 10258 20240 30056 40061 333 58023 70184==
41946,2023,05,17,00,00,AAXX 17004 41946 02456 30000 10262 20250 30060 40065 82530 333 58021 70184 82618==
41946,2023,05,17,03,00,AAXX 17034 41946 02456 41803 10320 20270 30067 40071 84400 333 20220 58009 70184 83618==
41946,2023,05,17,06,00,AAXX 17064 41946 02456 41803 10350 20250 30063 40068 84400 333 58003 70184 83618==
41946,2023,05,17,09,00,AAXX 17094 41946 02556 71802 10353 20250 30057 40062 84520 333 58013 70184 84620 86460==
41946,2023,05,17,12,00,AAXX 17124 41946 02456 31803 10323 20250 30056 40061 83500 333 10356 58013 70184 83618==
41946,2023,05,17,15,00,AAXX 17154 41946 01956 20901 10234 20190 30097 40101 70196 80001 333 58032 70084 82080==
41946,2023,05,17,18,00,AAXX 17184 41946 11956 01801 10256 20230 30080 40085 60086 70196 333 58016 70084==
41946,2023,05,18,00,00,AAXX 18003 41946 02456 80000 10262 20240 30081 40085 8352/ 333 58021 70084 83618 88459 81928==
41946,2023,05,18,06,00,AAXX 18064 41946 21456 71802 10288 20230 30094 40098 70196 83520 333 58031 60458 70634 83618 87460==
41946,2023,05,18,09,00,AAXX 18094 41946 02/56 60000 10300 20230 30069 40074 86070 333 58012 70634 85459==
41946,2023,05,18,12,00,AAXX 18124 41946 02456 70000 10285 20240 30082 40087 83520 333 10302 58026 70635 83618 87460==
41946,2023,05,18,15,00,AAXX 18154 41946 01456 61802 10256 20210 30058 40062 70196 83520 333 59039 70564 83618 86460==
41946,2023,05,18,18,00,AAXX 18184 41946 11956 30000 10250 20230 30068 40073 60036 70196 80001 333 59012 70480 83080==
41946,2023,05,18,21,00,AAXX 18214 41946 02456 30000 10240 20230 30066 40070 83500 333 59007 70480 83618==
41947,2023,05,12,00,00,AAXX 12004 41947 02450 60000 10280 20260 30058 40060 83530 333 59015 70000 83618 84362==
41947,2023,05,12,03,00,AAXX 12034 41947 02456 60000 10326 20240 30082 40084 85410 333 20275 59005 70000 83618 83459==
41947,2023,05,12,06,00,AAXX 12064 41947 02456 70000 10353 20230 30075 40077 86410 333 59004 70000 83618 83820 86459==
41947,2023,05,12,09,00,AAXX 12094 41947 02456 71801 10352 20220 30042 40044 86410 333 58002 70000 83618 83820 86459==
41947,2023,05,12,12,00,AAXX 12124 41947 02450 50000 10330 20230 30039 40041 83500 333 10350 58006 70000 83618==
41947,2023,05,12,15,00,AAXX 12154 41947 02950 00000 10310 20250 30058 40060 333 59007 70000==
41947,2023,05,12,18,00,AAXX 12184 41947 02450 30000 10300 20260 30068 40070 83500 333 58005 70000 83618==
41947,2023,05,12,21,00,AAXX 12214 41947 02450 80000 10290 20260 30058 40060 8352/ 333 59003 70000 83618 88458==
41947,2023,05,13,00,00,AAXX 13004 41947 02450 80000 10280 20260 30050 40052 8352/ 333 59008 70000 83618 88458==
41947,2023,05,13,03,00,AAXX 13034 41947 02456 80000 10310 20260 30060 40063 8352/ 333 20274 59021 70000 83618 88459==
41947,2023,05,13,06,00,AAXX 13063 41947 02456 81301 10352 20240 30047 40049 8352/ 333 59028 70000 83618 88459==
41947,2023,05,13,09,00,AAXX 13094 41947 02456 51506 10335 20240 30021 40023 83510 333 59021 70000 83618 84459==
41947,2023,05,13,12,00,AAXX 13123 41947 02456 71302 10316 20230 30017 40019 83570 333 10358 59022 70000 83618 86459==
41947,2023,05,13,15,00,AAXX 13154 41947 02456 70902 10300 20240 30030 40033 83570 333 59027 70000 83618 86459==
41947,2023,05,13,18,00,AAXX 13184 41947 02456 81102 10288 20240 30033 40036 8352/ 333 59034 70000 83618 88459==
41947,2023,05,13,21,00,AAXX 13214 41947 02456 70000 10280 20240 30018 40021 83570 333 59039 70000 83618 86459==
41947,2023,05,14,00,00,AAXX 14004 41947 02456 70000 10268 20240 39992 49995 83570 333 59057 70000 83618 86459==
41947,2023,05,14,03,00,AAXX 14034 41947 02456 60505 10294 20230 30000 40003 83510 333 20262 59060 70000 83618 84582==
41947,2023,05,14,06,00,AAXX 14064 41947 02456 80303 10320 20230 39995 49997 8552/ 333 59052 70000 85618 88458==
41947,2023,05,14,09,00,AAXX 14094 41947 02456 73605 10322 20200 39969 49971 83510 333 59052 70000 83617 87458==
41947,2023,05,14,12,00,AAXX 14124 41947 02456 63603 10310 20170 39980 49982 82530 333 10340 59037 70000 82318 84362==
41947,2023,05,14,15,00,AAXX 14154 41947 02450 20000 10280 20190 30002 40004 82500 333 59029 70000 82618==
41947,2023,05,14,18,00,AAXX 14184 41947 02450 40000 10272 20190 30018 40020 82530 333 59016 70000 82618 83362==
41947,2023,05,14,21,00,AAXX 14214 41947 02450 40000 10260 20190 30023 40025 82530 333 58004 70000 82618 83362==
41947,2023,05,15,00,00,AAXX 15004 41947 02450 50000 10245 20210 30034 40036 83530 333 58041 70000 83618 84362==
41947,2023,05,15,03,00,AAXX 15034 41947 02957 00000 10300 20180 30041 40044 333 20235 58041 70000==
41947,2023,05,15,06,00,AAXX 15064 41947 02957 00000 10340 20190 30035 40038 333 58041 70000==
41947,2023,05,15,09,00,AAXX 15094 41947 02957 01802 10358 20210 30015 40017 333 58046 70000==
41947,2023,05,15,12,00,AAXX 15124 41947 02456 21806 10330 20250 30019 40021 82500 333 10360 58039 70000 83618==
41947,2023,05,15,15,00,AAXX 15154 41947 01350 82302 10238 20230 30066 40068 79596 8432/ 333 58064 70080 83617 88458 81928==
41947,2023,05,15,18,00,AAXX 15183 41947 21450 81803 10245 20230 30033 40035 70296 8352/ 333 58015 60098 70086 83618 88458==
41947,2023,05,15,21,00,AAXX 15214 41947 02450 30000 10245 20230 30033 40035 83500 333 58010 70086 83618==
41947,2023,05,16,00,00,AAXX 16004 41947 02956 00000 10250 20230 30036 40038 333 58002 70000==
41947,2023,05,16,03,00,AAXX 16034 41947 02956 00000 10313 20230 30062 40064 333 20230 58020 70086==
41947,2023,05,16,06,00,AAXX 16064 41947 02456 61805 10342 20240 30073 40076 86400 333 58038 70086 83618 83820==
41947,2023,05,16,09,00,AAXX 16094 41947 02457 31806 10352 20240 30045 40047 83500 333 58030 70086 83618==
41947,2023,05,16,12,00,AAXX 16124 41947 02456 21806 10325 20260 30037 40039 82500 333 10362 58018 70086 82618==
41947,2023,05,16,15,00,AAXX 16154 41947 01340 81305 10244 20230 30059 40061 79596 8592/ 333 59007 70052 82709 84616 88458 81928==
41947,2023,05,16,18,00,AAXX 16184 41947 21456 21303 10240 20220 30063 40066 70196 82500 333 58031 60058 70050 82618==
41947,2023,05,16,21,00,AAXX 16214 41947 02456 30000 10252 20230 30054 40057 83500 333 58022 70050 83618==
41947,2023,05,17,00,00,AAXX 17004 41947 02456 81304 10256 20240 30054 40056 8452/ 333 58018 70050 84618 88459==
41947,2023,05,17,03,00,AAXX 17034 41947 02456 51806 10318 20270 30078 40081 85500 333 20230 58016 70050 82618 83820==
41947,2023,05,17,06,00,AAXX 17064 41947 02456 51811 10348 20240 30075 40077 85400 333 58002 70050 82618 83820==
41947,2023,05,17,09,00,AAXX 17094 41947 02456 51806 10350 20240 30065 40067 83570 333 58020 70050 83618 84458==
41947,2023,05,17,12,00,AAXX 17124 41947 02456 31807 10328 20260 30061 40063 83500 333 10354 58024 70050 83618==
41947,2023,05,17,15,00,AAXX 17154 41947 01350 81405 10230 20220 30094 40096 79596 8292/ 333 58035 70154 82709 84616 88458 81928==
41947,2023,05,17,18,00,AAXX 17184 41947 12450 31802 10242 20220 30085 40087 60196 83500 333 58021 70150 83618==
41947,2023,05,17,21,00,AAXX 17214 41947 02450 31403 10245 20230 30087 40089 83500 333 58032 70150 83618==
41947,2023,05,18,00,00,AAXX 18004 41947 02450 80505 10255 20240 30094 40096 8352/ 333 58040 70150 83618 88458==
41947,2023,05,18,03,00,AAXX 18034 41947 01350 80000 10210 20210 30118 40121 71796 8692/ 333 20200 58040 70500 81708 84616 88458 81925==
41947,2023,05,18,06,00,AAXX 18064 41947 21356 71803 10270 20220 30105 40108 70196 85670 333 58030 60358 70500 81709 84616 85458==
41947,2023,05,18,09,00,AAXX 18094 41947 02456 61806 10280 20210 30079 40081 83570 333 58014 70500 83618 85458==
41947,2023,05,18,12,00,AAXX 18124 41947 02456 61803 10288 20220 30083 40085 83570 333 10290 58022 70500 83618 85458==
41947,2023,05,18,15,00,AAXX 18154 41947 01450 81802 10248 20200 30052 40054 70392 8352/ 333 59042 70350 83618 88458==
41947,2023,05,18,18,00,AAXX 18184 41947 01450 80000 10245 20220 30076 40078 70292 8352/ 333 59009 70350 83618 88458==
41947,2023,05,18,21,00,AAXX 18214 41947 02450 60000 10240 20220 30069 40071 83570 333 59018 70350 83618 85458==
41950,2023,05,12,00,00,AAXX 12004 41950 01440 60000 10260 20260 30079 40081 70510 83510 333 58005 70000 83617 86459==
41950,2023,05,12,03,00,AAXX 12034 41950 02450 60000 10320 20260 30086 40089 83570 333 20256 59012 70000 83617 85459==
41950,2023,05,12,06,00,AAXX 12064 41950 02450 63602 10334 20240 30080 40082 83510 333 59010 70000 83617 86459==
41950,2023,05,12,09,00,AAXX 12094 41950 02450 40000 10352 20280 30044 40046 82510 333 59015 70000 82617 84459==
41950,2023,05,12,12,00,AAXX 12124 41950 02450 50000 10332 20250 30040 40043 83510 333 10358 59007 70000 83617 85459==
41950,2023,05,12,15,00,AAXX 12154 41950 02350 71802 10301 20250 30065 40068 85670 333 58001 70000 81708 84617 85459==
41950,2023,05,12,18,00,AAXX 12184 41950 02350 81502 10290 20250 30063 40066 8562/ 333 59001 70000 82708 84616 88458==
41950,2023,05,12,21,00,AAXX 12214 41950 02350 80000 10274 20240 30046 40048 8562/ 333 59023 70000 82708 84616 88458==
41950,2023,05,13,00,00,AAXX 13004 41950 02350 80000 10272 20230 30053 40055 8632/ 333 59023 70000 82708 84616 88458 81928==
41950,2023,05,13,03,00,AAXX 13034 41950 02350 81002 10304 20250 30066 40069 8562/ 333 20265 59020 70000 82708 84616 88458==
41950,2023,05,13,06,00,AAXX 13064 41950 02350 80904 10308 20250 30060 40063 8562/ 333 59020 70000 82708 84616 88458==
41950,2023,05,13,09,00,AAXX 13094 41950 02350 81502 10316 20240 30038 40041 8562/ 333 59006 70000 82708 84616 88458==
41950,2023,05,13,12,00,AAXX 13124 41950 02350 83602 10300 20240 30026 40029 8562/ 333 10317 59014 70000 82708 83616 88458==
41950,2023,05,13,15,00,AAXX 13154 41950 02350 60902 10282 20240 30042 40044 84610 333 59023 70000 81708 83616 85459==
41950,2023,05,13,18,00,AAXX 13184 41950 02350 80000 10272 20240 30037 40039 8562/ 333 59028 70000 82708 84616 88458==
41950,2023,05,13,21,00,AAXX 13214 41950 02350 60000 10264 20220 30008 40010 85610 333 59038 70000 81708 84616 86459==
41950,2023,05,14,00,00,AAXX 14004 41950 02350 80000 10257 20230 30001 40003 8652/ 333 59052 70000 82708 84616 88458==
41950,2023,05,14,03,00,AAXX 14034 41950 02350 83603 10282 20230 30006 40009 8562/ 333 20253 59060 70000 82708 84616 88458==
41950,2023,05,14,06,00,AAXX 14064 41950 02350 83603 10294 20220 39994 49996 8562/ 333 59066 70000 82708 84616 88458==
41950,2023,05,14,09,00,AAXX 14094 41950 02350 83603 10282 20190 39964 49966 8562/ 333 59074 70000 82708 84616 88458==
41950,2023,05,14,12,00,AAXX 14124 41950 02350 83504 10274 20190 39966 49969 8562/ 333 10297 59060 70000 82708 84616 88458==
41950,2023,05,14,15,00,AAXX 14154 41950 02350 73402 10254 20190 30007 40010 84670 333 59035 70000 81708 84616 86459==
41950,2023,05,14,18,00,AAXX 14184 41950 02350 70000 10230 20200 30012 40014 85670 333 59025 70000 82708 84616 86459==
41950,2023,05,14,21,00,AAXX 14214 41950 02450 40000 10222 20200 30021 40023 83531 333 58013 70000 83617==
41950,2023,05,15,00,00,AAXX 15004 41950 02450 40000 10205 20205 30032 40034 82531 333 58031 70000 82617==
41950,2023,05,15,03,00,AAXX 15034 41950 02450 21402 10290 20220 30057 40060 82501 333 20203 58051 70000 82617==
41950,2023,05,15,06,00,AAXX 15064 41950 02450 20902 10323 20210 30047 40049 81501 333 58053 70000 81617==
41950,2023,05,15,09,00,AAXX 15094 41950 02456 11803 10336 20230 30025 40027 81500 333 58061 70000 81617==
41950,2023,05,15,12,00,AAXX 15124 41950 02456 11503 10314 20220 30023 40025 81501 333 10344 58057 70000 81616==
41950,2023,05,15,15,00,AAXX 15154 41950 02350 82102 10290 20240 30061 40063 8562/ 333 58054 70000 82708 84616 88458==
41950,2023,05,15,18,00,AAXX 15184 41950 21350 81804 10243 20220 30027 40029 70296 8632/ 333 58015 69967 70006 82708 84616 88458 81928==
41950,2023,05,15,21,00,AAXX 15214 41950 02350 72107 10244 20210 30031 40034 85670 333 58010 70006 82708 84616 85459==
41950,2023,05,16,00,00,AAXX 16004 41950 02450 50000 10240 20230 30041 40044 82530 333 58009 70006 82616 84362==
41950,2023,05,16,03,00,AAXX 16034 41950 02956 00903 10315 20250 30073 40075 333 20203 58016 70006==
41950,2023,05,16,06,00,AAXX 16064 41950 02356 62107 10334 20250 30074 40076 86300 333 58027 70006 81708 85616 81928==
41950,2023,05,16,09,00,AAXX 16094 41950 02456 62108 10335 20250 30060 40062 85430 333 58035 70006 84616==
41950,2023,05,16,11,00,AAXX 16114 41950 NIL=
41950,2023,05,16,12,00,AAXX 16124 41950 02350 81503 10312 20250 30054 40057 8562/ 333 10344 58031 70006 82708 84616 88458==
41950,2023,05,16,15,00,AAXX 16154 41950 01330 83510 10235 20230 30100 40103 79522 8692/ 333 58039 70050 82708 84616 88458 81928==
41950,2023,05,16,18,00,AAXX 16184 41950 21950 01802 10229 20229 30073 40075 70196 333 58046 60057 70054==
41950,2023,05,16,21,00,AAXX 16214 41950 02450 61202 10233 20220 30070 40073 83510 333 58039 70054 83617 86459==
41950,2023,05,17,00,00,AAXX 17004 41950 02450 31202 10249 20230 30075 40078 82530 333 58034 70054 82617==
41950,2023,05,17,03,00,AAXX 17034 41950 02350 71502 10306 20270 30095 40097 85610 333 20222 58022 70054 82708 84616 87459==
41950,2023,05,17,06,00,AAXX 17064 41950 02450 61302 10330 20260 30094 40097 85410 333 58020 70054 84616 85459==
41950,2023,05,17,09,00,AAXX 17094 41950 01350 61002 10284 20240 30078 40080 70396 85310 333 58018 70152 81708 84616 86459 81928==
41950,2023,05,17,12,00,AAXX 17124 41950 11450 20000 10274 20270 30083 40086 60106 70196 82500 333 10336 59029 70152 82617==
41950,2023,05,17,15,00,AAXX 17154 41950 01350 80000 10255 20240 30113 40115 71322 8562/ 333 59013 70108 82708 83616 88458 81928==
41950,2023,05,17,18,00,AAXX 17184 41950 02450 50000 10242 20220 30087 40089 83510 333 58014 70098 83617 84459==
41950,2023,05,17,21,00,AAXX 17214 41950 02450 50000 10232 20230 30092 40095 83510 333 58022 70098 83617 84459==
41950,2023,05,18,00,00,AAXX 18004 41950 02450 50000 10235 20235 30092 40095 83511 333 58020 70098 83616 84459==
41950,2023,05,18,03,00,AAXX 18034 41950 01320 80000 10210 20210 30144 40147 79596 8692/ 333 20200 58049 70362 82708 84616 88458 81928==
41950,2023,05,18,06,00,AAXX 18064 41950 21350 80000 10240 20220 30102 40105 70296 8532/ 333 58008 60339 70432 82708 84616 88458 81928==
41950,2023,05,18,09,00,AAXX 18094 41950 02450 51804 10293 20220 30087 40087 83617 333 58009 70334 83617 84459==
41950,2023,05,18,12,00,AAXX 18124 41950 02450 50000 10286 20230 30082 40085 83511 333 10295 59001 70334 83617 84459==
41950,2023,05,18,15,00,AAXX 18154 41950 02450 60000 10257 20240 30096 40099 83510 333 59017 70334 83617 85459==
41950,2023,05,18,18,00,AAXX 18184 41950 02950 00000 10258 20240 30073 40075 333 59014 70334==
41950,2023,05,18,21,00,AAXX 18214 41950 02450 20000 10245 20240 30067 40069 82500 333 59025 70334 82616==
41951,2023,05,12,00,00,AAXX 12004 41951 02450 60000 10268 20268 30068 40073 83510 333 59009 70000 83618 85459==
41951,2023,05,12,03,00,AAXX 12034 41951 02450 71802 10320 20270 30080 40085 83510 333 20263 59012 70000 83618 85459==
41951,2023,05,12,06,00,AAXX 12064 41951 02456 61703 10352 20250 30074 40079 83510 333 59012 70000 83618 85459==
41951,2023,05,12,09,00,AAXX 12094 41951 02456 40000 10362 20230 30042 40046 82508 333 59012 70000 82618 83278==
41951,2023,05,12,12,00,AAXX 12124 41951 02456 60000 10340 20260 30033 40037 83510 333 10366 59011 70000 83618 85459==
41951,2023,05,12,15,00,AAXX 12154 41951 02450 60000 10306 20270 30064 40069 83510 333 58006 70000 83618 85459==
41951,2023,05,12,18,00,AAXX 12184 41951 02340 81303 10290 20250 30067 40072 8562/ 333 58000 70000 81709 84618 88458==
41951,2023,05,12,21,00,AAXX 12214 41951 02340 80000 10273 20250 30045 40050 8562/ 333 59020 70000 81709 84618 88458==
41951,2023,05,13,00,00,AAXX 13004 41951 02440 80000 10272 20250 30046 40051 8562/ 333 59022 70000 81709 84618 88458==
41951,2023,05,13,03,00,AAXX 13034 41951 02440 80502 10308 20250 30063 40068 8562/ 333 20266 59017 70000 81709 84618 88458==
41951,2023,05,13,06,00,AAXX 13064 41951 02340 81202 10306 20250 30054 40059 8562/ 333 59020 70000 81709 84618 88458==
41951,2023,05,13,09,00,AAXX 13094 41951 02340 81002 10307 20260 30031 40036 8562/ 333 59011 70000 81709 84618 88458==
41951,2023,05,13,12,00,AAXX 13123 41951 02340 70000 10298 20240 30020 40025 8562/ 333 10314 59013 70000 81709 84618 88458==
41951,2023,05,13,15,00,AAXX 13154 41951 02340 70602 10283 20240 30042 40047 84610 333 59020 70000 81709 83618 86459==
41951,2023,05,13,18,00,AAXX 13184 41951 02340 80502 10276 20240 30033 40037 8562/ 333 59034 70000 81709 84618 88458==
41951,2023,05,13,21,00,AAXX 13214 41951 01330 81302 10253 20230 30001 40006 76122 8672/ 333 59044 70004 82706 84616 88458==
41951,2023,05,14,00,00,AAXX 14004 41951 21340 80000 10250 20230 39996 40001 70262 8562/ 333 59050 69977 70007 82706 84616 88458==
41951,2023,05,14,03,00,AAXX 14034 41951 02340 80503 10273 20220 39998 40003 8562/ 333 20245 59065 70007 82708 84616 88458==
41951,2023,05,14,06,00,AAXX 14064 41951 02340 80502 10287 20230 39988 49993 8562/ 333 59066 70007 82708 84616 88458==
41951,2023,05,14,09,00,AAXX 14094 41951 01340 83306 10267 20210 39968 49973 70262 8562/ 333 59063 70010 81709 84618 88458==
41951,2023,05,14,12,00,AAXX 14124 41951 21340 83605 10268 20220 39959 49964 70262 8562/ 333 10289 59061 69935 70010 81709 84618 88458==
41951,2023,05,14,15,00,AAXX 14154 41951 02340 80000 10256 20210 30002 40007 8562/ 333 59040 70010 81709 84618 88458==
41951,2023,05,14,18,00,AAXX 14184 41951 02450 20000 10234 20200 30007 40012 82500 333 59026 70010 82618==
41951,2023,05,14,21,00,AAXX 14214 41951 02450 60000 10228 20210 30022 40027 83510 333 58021 70006 83618 85459==
41951,2023,05,15,00,00,AAXX 15004 41951 02450 60802 10226 20220 30031 40036 83510 333 58035 70003 83618 85459==
41951,2023,05,15,03,00,AAXX 15034 41951 02456 60503 10272 20220 30051 40056 83510 333 20215 58053 70003 83618 85459==
41951,2023,05,15,06,00,AAXX 15064 41951 02456 30803 10313 20240 30048 40053 83500 333 58050 70003 83618==
41951,2023,05,15,09,00,AAXX 15094 41951 02456 22304 10316 20260 30032 40037 82500 333 58064 70000 82618==
41951,2023,05,15,12,00,AAXX 15124 41951 02456 21306 10307 20240 30023 40028 82500 333 10318 58064 70000 82618==
41951,2023,05,15,15,00,AAXX 15154 41951 02440 80000 10287 20260 30061 40065 8452/ 333 58059 70000 84618 88458==
41951,2023,05,15,18,00,AAXX 15183 41951 01340 81304 10244 20230 30020 40025 70262 8562/ 333 58013 70090 81709 84618 88458==
41951,2023,05,15,21,00,AAXX 15214 41951 02450 60000 10250 20230 30028 40033 83510 333 58006 70088 83618 85459==
41951,2023,05,16,00,00,AAXX 16003 41951 02450 60000 10256 20250 30042 40047 83510 333 58011 70088 83618 85459==
41951,2023,05,16,03,00,AAXX 16034 41951 02956 00804 10318 20260 30067 40071 333 20234 58016 70088==
41951,2023,05,16,06,00,AAXX 16064 41951 02456 41308 10340 20250 30077 40082 84400 333 58029 70088 82618 83828==
41951,2023,05,16,09,00,AAXX 16094 41951 02456 61510 10332 20260 30058 40063 83510 333 58026 70088 83618 85459==
41951,2023,05,16,12,00,AAXX 16124 41951 02450 80604 10308 20260 30050 40055 8452/ 333 10342 58027 70088 84618 88459==
41951,2023,05,16,15,00,AAXX 16154 41951 02340 82409 10300 20260 30098 40103 8562/ 333 58037 70088 81709 84618 88458==
41951,2023,05,16,18,00,AAXX 16184 41951 21450 20000 10238 20230 30071 40076 70196 82500 333 58051 60067 70062 82618==
41951,2023,05,16,21,00,AAXX 16214 41951 02450 30000 10235 20230 30070 40075 83500 333 58042 70062 83618==
41951,2023,05,17,00,00,AAXX 17004 41951 02440 81103 10262 20240 30070 40075 8452/ 333 58028 70062 84618 88459==
41951,2023,05,17,03,00,AAXX 17034 41951 02456 61105 10312 20250 30085 40090 83510 333 20225 58018 70062 83618 85459==
41951,2023,05,17,06,00,AAXX 17064 41951 02456 71302 10324 20260 30092 40097 83510 333 58015 70062 83618 86459==
41951,2023,05,17,09,00,AAXX 17094 41951 01456 61302 10258 20240 30087 40092 71796 84910 333 58029 70287 83618 85459 81929==
41951,2023,05,17,12,00,AAXX 17124 41951 12456 31303 10260 20230 30079 40084 60236 83500 333 10326 58029 70287 83618==
41951,2023,05,17,15,00,AAXX 17154 41951 02450 30000 10250 20240 30109 40114 83500 333 58011 70287 83618==
41951,2023,05,17,18,00,AAXX 17184 41951 01450 32403 10250 20240 30082 40087 70262 333 58011 70003 83618==
41951,2023,05,17,21,00,AAXX 17214 41951 02450 30000 10235 20230 30085 40090 83500 333 58015 70228 83618==
41951,2023,05,18,00,00,AAXX 18004 41951 02450 60000 10252 20250 30091 40096 83510 333 58021 70228 83618 85459==
41951,2023,05,18,03,00,AAXX 18034 41951 01330 83105 10222 20210 30138 40143 76362 8662/ 333 20210 58053 70306 82706 84616 88458==
41951,2023,05,18,06,00,AAXX 18064 41951 01340 80000 10284 20270 30098 40103 70262 8562/ 333 58006 70374 81709 84618 88458==
41951,2023,05,18,09,00,AAXX 18094 41951 02456 61302 10288 20220 30085 40090 83510 333 59002 70149 83618 85459==
41951,2023,05,18,12,00,AAXX 18124 41951 02456 31302 10277 20240 30076 40081 83500 333 10292 59003 70149 83618==
41951,2023,05,18,15,00,AAXX 18154 41951 02450 61302 10252 20240 30095 40100 83510 333 59014 70149 83618 85459==
41951,2023,05,18,18,00,AAXX 18184 41951 02450 20000 10256 20240 30068 40073 82500 333 59014 70146 82618==
41951,2023,05,18,21,00,AAXX 18214 41951 02450 20000 10243 20240 30067 40072 82500 333 59018 70146 82618==
41953,2023,05,12,00,00,AAXX 12004 41953 02940 00000 10270 20260 30077 40082 333 59007 70000==
41953,2023,05,12,03,00,AAXX 12034 41953 02450 60000 10316 20270 30088 40093 83520 333 20265 59011 70000 83616 86458==
41953,2023,05,12,06,00,AAXX 12064 41953 02450 61303 10347 20240 30076 40081 82510 333 59013 70000 82618 86458==
41953,2023,05,12,09,00,AAXX 12094 41953 02450 60000 10355 20240 30040 40045 82530 333 59023 70000 82618 86362==
41953,2023,05,12,12,00,AAXX 12124 41953 02450 60000 10340 20260 30035 40040 82530 333 10370 59008 70000 82618 86362==
41953,2023,05,12,15,00,AAXX 12154 41953 01440 81807 10282 20210 30073 40078 71722 8492/ 333 58009 70000 83616 88458 81925==
41953,2023,05,12,18,00,AAXX 12184 41953 01440 81803 10265 20250 30072 40077 70292 8352/ 333 59001 70000 83616 88458==
41953,2023,05,12,21,00,AAXX 12214 41953 02440 80000 10264 20240 30065 40070 8352/ 333 58000 70000 83616 88458==
41953,2023,05,13,00,00,AAXX 13004 41953 02440 80000 10262 20240 30055 40060 8352/ 333 59022 70000 83616 88458==
41953,2023,05,13,03,00,AAXX 13034 41953 02450 80000 10290 20250 30072 40077 8352/ 333 20260 59016 70000 83616 88458==
41953,2023,05,13,06,00,AAXX 13064 41953 02450 80504 10295 20230 30062 40067 8452/ 333 59014 70000 84616 88458==
41953,2023,05,13,09,00,AAXX 13094 41953 02450 80506 10300 20240 30035 40040 8452/ 333 59005 70000 84616 88458==
41953,2023,05,13,12,00,AAXX 13123 41953 02440 80503 10282 20240 30035 40040 8452/ 333 10303 59005 70000 84616 88458==
41953,2023,05,13,15,00,AAXX 13154 41953 02430 80000 10272 20240 30044 40049 8452/ 333 59029 70000 84616 88458==
41953,2023,05,13,18,00,AAXX 13184 41953 02430 80000 10266 20250 30047 40052 8452/ 333 59025 70000 84616 88458==
41953,2023,05,13,21,00,AAXX 13214 41953 01430 80503 10248 20220 30033 40038 70262 8452/ 333 59032 70030 84616 88458==
41953,2023,05,14,00,00,AAXX 14004 41953 11440 80504 10240 20220 30013 40018 60036 70262 8452/ 333 59042 70030 84616 88458==
41953,2023,05,14,03,00,AAXX 14034 41953 01440 83608 10250 20230 39999 40004 70262 8452/ 333 20238 59073 70050 84615 88458==
41953,2023,05,14,06,00,AAXX 14064 41953 01440 80208 10260 20230 39994 49999 76162 8452/ 333 59068 70060 84615 88458==
41953,2023,05,14,09,00,AAXX 14094 41953 01440 83611 10236 20230 39957 49962 76166 8452/ 333 59078 70100 84615 88458==
41953,2023,05,14,12,00,AAXX 14124 41953 21440 83106 10235 20220 39953 49958 70262 8452/ 333 10261 59077 60058 70110 84616 88458==
41953,2023,05,14,15,00,AAXX 14154 41953 02430 83102 10236 20200 30001 40006 8352/ 333 59043 70110 83616 88458==
41953,2023,05,14,18,00,AAXX 14184 41953 02430 83102 10230 20200 30029 40034 8352/ 333 59018 70110 83616 88458==
41953,2023,05,14,21,00,AAXX 14214 41953 02430 41301 10222 20200 30033 40038 82510 333 58000 70080 82618 84458==
41953,2023,05,15,00,00,AAXX 15004 41953 02440 41301 10216 20210 30039 40044 82530 333 58026 70080 82618 83362==
41953,2023,05,15,03,00,AAXX 15034 41953 02550 41305 10286 20210 30060 40065 82230 333 20214 58061 70060 82825 83362==
41953,2023,05,15,06,00,AAXX 15064 41953 02450 31304 10303 20210 30053 40059 83500 333 58059 70050 83618==
41953,2023,05,15,09,00,AAXX 15094 41953 02450 20508 10320 20230 30029 40034 82500 333 58072 70010 82618==
41953,2023,05,15,12,00,AAXX 15124 41953 02950 01807 10292 20240 30029 40034 333 10324 58076 70000==
41953,2023,05,15,15,00,AAXX 15154 41953 02440 51304 10280 20260 30048 40053 83570 333 58047 70000 83616 83458==
41953,2023,05,15,18,00,AAXX 15183 41953 02440 61302 10276 20270 30049 40054 83570 333 58020 70000 83616 84458==
41953,2023,05,15,21,00,AAXX 15214 41953 01430 80505 10250 20240 30045 40050 70362 8452/ 333 58011 70080 84615 88458==
41953,2023,05,16,00,00,AAXX 16004 41953 11440 60504 10240 20230 30042 40045 60086 70162 83570 333 58003 70080 83618 84458==
41953,2023,05,16,03,00,AAXX 16034 41953 02450 31303 10290 20260 30066 40071 83500 333 20236 58006 70080 83618==
41953,2023,05,16,06,00,AAXX 16064 41953 02550 11310 10340 20250 30081 40086 81100 333 58028 70080 81825==
41953,2023,05,16,09,00,AAXX 16094 41953 02550 31309 10338 20260 30066 40071 83200 333 58037 70080 83825==
41953,2023,05,16,12,00,AAXX 16124 41953 02440 81708 10300 20250 30069 40074 8452/ 333 10342 58040 70080 84616 88458==
41953,2023,05,16,15,00,AAXX 16154 41953 02430 81302 10286 20270 30093 40098 8452/ 333 58045 70080 84616 88458==
41953,2023,05,16,21,00,AAXX 16214 41953 02430 81802 10250 20240 30093 40098 8452/ 333 58048 70200 84616 88458==
41953,2023,05,17,00,00,AAXX 17004 41953 02440 81301 10238 20238 30085 40090 8452/ 333 58043 70200 84616 88458==
41953,2023,05,17,03,00,AAXX 17034 41953 02450 71305 10290 20230 30101 40106 83510 333 20226 58035 70200 83616 86458==
41953,2023,05,17,06,00,AAXX 17064 41953 02440 81306 10300 20230 30120 40125 8632/ 333 58039 70200 84615 88458 81930==
41953,2023,05,17,09,00,AAXX 17094 41953 01440 81304 10216 20210 30095 40100 76166 8352/ 333 58029 70330 83615 88458==
41953,2023,05,17,12,00,AAXX 17124 41953 21450 51304 10260 20230 30087 40092 70162 82520 333 10310 58018 60138 70330 82616 85458==
41953,2023,05,17,15,00,AAXX 17154 41953 02440 50000 10235 20230 30100 40105 82520 333 58007 70330 82616 85458==
41953,2023,05,17,18,00,AAXX 17184 41953 02440 81805 10246 20240 30086 40091 8352/ 333 58015 70130 83616 88458==
41953,2023,05,17,21,00,AAXX 17214 41953 02440 81805 10240 20230 30075 40080 8352/ 333 58018 70130 83616 88458==
41953,2023,05,18,00,00,AAXX 18004 41953 02440 50000 10236 20230 30096 40101 82520 333 58011 70130 82616 85458==
41953,2023,05,18,03,00,AAXX 18034 41953 01440 81804 10220 20200 30145 40150 70362 8352/ 333 20210 58044 70170 83616 88458==
41953,2023,05,18,06,00,AAXX 18064 41953 01440 81804 10225 20220 30098 40103 70262 8352/ 333 59022 70200 83616 88458==
41953,2023,05,18,09,00,AAXX 18094 41953 02450 61804 10290 20230 30097 40102 82520 333 58002 70070 82616 86458==
41953,2023,05,18,12,00,AAXX 18124 41953 02450 81803 10265 20240 30084 40089 8352/ 333 10295 59003 70070 83616 88458==
41953,2023,05,18,15,00,AAXX 18154 41953 02440 80000 10245 20240 30098 40103 8352/ 333 59002 70070 83616 88458==
41953,2023,05,18,18,00,AAXX 18184 41953 02440 81805 10240 20230 30074 40079 8352/ 333 59012 70070 83616 88458==
41953,2023,05,18,21,00,AAXX 18214 41953 02440 81805 10235 20230 30065 40070 8352/ 333 59010 70070 83616 88458==
41955,2023,05,12,00,00,AAXX 12004 41955 NIL=
41955,2023,05,12,06,00,AAXX 12064 41955 NIL=
41955,2023,05,12,12,00,AAXX 12124 41955 NIL=
41955,2023,05,12,18,00,AAXX 12184 41955 NIL=
41955,2023,05,13,06,00,AAXX 13064 41955 NIL=
41955,2023,05,13,12,00,AAXX 13123 41955 NIL=
41955,2023,05,13,18,00,AAXX 13184 41955 NIL=
41955,2023,05,14,00,00,AAXX 14004 41955 NIL=
41955,2023,05,14,06,00,AAXX 14064 41955 NIL=
41955,2023,05,15,06,00,AAXX 15064 41955 NIL=
41955,2023,05,15,12,00,AAXX 15124 41955 NIL=
41955,2023,05,15,18,00,AAXX 15184 41955 NIL=
41955,2023,05,16,12,00,AAXX 16124 41955 NIL=
41955,2023,05,17,00,00,AAXX 17004 41955 NIL=
41955,2023,05,17,12,00,AAXX 17124 41955 NIL=
41955,2023,05,17,18,00,AAXX 17184 41955 NIL=
41955,2023,05,18,00,00,AAXX 18004 41955 NIL=
41955,2023,05,18,18,00,AAXX 18184 41955 NIL=
41958,2023,05,12,00,00,AAXX 12004 41958 32450 50000 10277 20270 30066 40068 84410 333 56990 59004 70000 83617 85459=
41958,2023,05,12,03,00,AAXX 12034 41958 32457 60000 10312 20260 30076 40078 85410 333 20272 56390 59013 70000 84616 86459=
41958,2023,05,12,06,00,AAXX 12064 41958 32458 80000 10340 20260 30070 40072 8542/ 333 56499 59007 70000 84616 88459=
41958,2023,05,12,09,00,AAXX 12094 41958 32458 31701 10355 20270 30044 40046 83500 333 56900 59001 70000 83616=
41958,2023,05,12,12,00,AAXX 12124 41958 32456 60000 10330 20290 30030 40032 83410 333 10355 56990 59005 70000 83616 85459=
41958,2023,05,12,15,00,AAXX 12154 41958 32450 60000 10293 20270 30055 40057 83410 333 56990 59002 70000 83616 85459=
41958,2023,05,12,18,00,AAXX 12184 41958 32440 80000 10287 20280 30059 40061 8542/ 333 56999 59005 70000 84616 88458=
41958,2023,05,12,21,00,AAXX 12214 41958 32440 80000 10284 20270 30059 40061 8452/ 333 56999 59004 70000 84616 88458=
41958,2023,05,13,00,00,AAXX 13004 41958 32440 80000 10275 20270 30042 40044 8452/ 333 56999 59024 70000 84616 88458=
41958,2023,05,13,03,00,AAXX 13034 41958 32456 80901 10300 20240 30061 40063 8542/ 333 20269 56999 59015 70000 84616 88459=
41958,2023,05,13,06,00,AAXX 13064 41958 32457 81602 10327 20270 30049 40051 8542/ 333 56399 59021 70000 84616 88459=
41958,2023,05,13,09,00,AAXX 13094 41958 32458 71601 10332 20260 30022 40024 85410 333 56390 59022 70000 84616 87459=
41958,2023,05,13,12,00,AAXX 13123 41958 32456 80601 10305 20250 30012 40014 8532/ 333 10335 56999 59018 70000 84616 81930 88459=
41958,2023,05,13,15,00,AAXX 13154 41958 32450 60601 10290 20240 30027 40029 85410 333 56990 59028 70000 84616 86459=
41958,2023,05,13,18,00,AAXX 13184 41958 32440 80502 10276 20260 30028 40030 8542/ 333 56999 59031 70000 84616 88458=
41958,2023,05,13,21,00,AAXX 13214 41958 32440 80000 10272 20250 39991 49993 8542/ 333 56999 59068 70000 84616 88458=
41958,2023,05,14,00,00,AAXX 14004 41958 32450 83501 10270 20240 39988 49990 8542/ 333 56999 59054 70000 84616 88458=
41958,2023,05,14,03,00,AAXX 14034 41958 32457 83501 10290 20220 39994 49996 8542/ 333 20264 56999 59067 70000 84616 88459=
41958,2023,05,14,06,00,AAXX 14064 41958 32458 83201 10320 20240 39981 49983 8542/ 333 56999 59068 70000 84616 88459=
41958,2023,05,14,09,00,AAXX 14094 41958 32456 83605 10325 20210 39958 49960 8542/ 333 56899 59064 70000 84616 88459=
41958,2023,05,14,12,00,AAXX 14124 41958 32456 73601 10309 20190 39962 49964 85410 333 10330 56990 59050 70000 84616 87459=
41958,2023,05,14,15,00,AAXX 14154 41958 32950 02601 10278 20230 30004 40006 333 59023 70000=
41958,2023,05,14,18,00,AAXX 14184 41958 32940 00000 10272 20250 30015 40017 333 59013 70000=
41958,2023,05,14,21,00,AAXX 14214 41958 32940 00000 10260 20230 30021 40023 333 58031 70000=
41958,2023,05,15,00,00,AAXX 15004 41958 32450 60000 10234 20210 30032 40034 83510 333 56990 58044 70000 83616 85459=
41958,2023,05,15,03,00,AAXX 15034 41958 32956 00000 10300 20230 30045 40047 333 20220 58051 70000=
41958,2023,05,15,06,00,AAXX 15064 41958 32957 01401 10340 20230 30041 40043 333 58060 70000=
41958,2023,05,15,09,00,AAXX 15094 41958 32957 01401 10363 20250 30014 40016 333 58056 70000=
41958,2023,05,15,12,00,AAXX 15124 41958 32456 61403 10318 20260 30024 40026 83410 333 10367 56990 58062 70000 83616 85459=
41958,2023,05,15,15,00,AAXX 15154 41958 31430 83104 10238 20238 30061 40063 79392 8592/ 333 56799 58057 6008/ 70082 84616 81929 88458=
41958,2023,05,15,18,00,AAXX 15184 41958 32950 00000 10283 20260 30061 40063 333 58010 70000=
41958,2023,05,15,21,00,AAXX 15214 41958 32440 33101 10245 20240 30030 40032 83500 333 56900 58009 70092 83616=
41958,2023,05,16,00,00,AAXX 16004 41958 32450 30000 10252 20250 30021 40023 83500 333 56900 59011 70092 83616=
41958,2023,05,16,03,00,AAXX 16034 41958 32956 00000 10320 20250 30058 40060 333 20234 58011 70092=
41958,2023,05,16,06,00,AAXX 16064 41958 32456 81303 10352 20260 30064 40066 8452/ 333 56999 58023 70092 84616 88458=
41958,2023,05,16,09,00,AAXX 16094 41958 32456 81403 10346 20270 30045 40047 8452/ 333 56999 58029 70092 84616 88458=
41958,2023,05,16,12,00,AAXX 16124 41958 32456 51401 10316 20270 30044 40046 83510 333 10357 56990 58022 70092 83616 84459=
41958,2023,05,16,15,00,AAXX 16154 41958 31430 81401 10237 20230 30062 40064 79322 8592/ 333 56999 58001 6006/ 70068 84616 81930 88458=
41958,2023,05,16,18,00,AAXX 16184 41958 31440 81701 10248 20248 30042 40044 60065 70196 8352/ 333 56990 70085 84616 88458=
41958,2023,05,16,21,00,AAXX 16214 41958 32440 61701 10254 20240 30065 40067 83410 333 56990 58035 70058 83616 85459=
41958,2023,05,17,00,00,AAXX 17004 41958 32450 61701 10264 20250 30058 40060 83510 333 56990 58037 70058 83616 85459=
41958,2023,05,17,03,00,AAXX 17034 41958 32456 81703 10324 20280 30078 40080 8542/ 333 20232 56999 58020 70058 84616 88458=
41958,2023,05,17,06,00,AAXX 17064 41958 32457 62204 10328 20250 30078 40080 83410 333 56990 58016 70058 84616 85459=
41958,2023,05,17,09,00,AAXX 17094 41958 32457 51702 10345 20270 30062 40064 83410 333 56490 58017 70058 83616 84459=
41958,2023,05,17,12,00,AAXX 17124 41958 32956 01704 10320 20250 30063 40065 333 10350 58017 70058=
41958,2023,05,17,15,00,AAXX 17154 41958 31430 80802 10235 20235 30105 40107 79320 8592/ 333 56299 58043 6006/ 70060 84616 81930 88458=
41958,2023,05,17,18,00,AAXX 17184 41958 NIL=
41958,2023,05,17,21,00,AAXX 17214 41958 32440 81701 10252 20240 30076 40078 8452/ 333 56999 58011 70070 84616 88458=
41958,2023,05,18,00,00,AAXX 18004 41958 32450 60000 10255 20250 30077 40079 83510 333 56990 58023 70070 83616 85459=
41958,2023,05,18,03,00,AAXX 18034 41958 31430 81402 10214 20200 30119 40121 79592 8592/ 333 20206 56999 58041 6047/ 70540 84616 88458=
41958,2023,05,18,06,00,AAXX 18064 41958 11456 81602 10238 20220 30102 40104 60498 70296 8532/ 333 56999 58024 70562 84616 81930 88459=
41958,2023,05,18,09,00,AAXX 18094 41958 32456 81601 10275 20240 30076 40078 8532/ 333 56999 58014 70562 84616 81930 88459=
41958,2023,05,18,12,00,AAXX 18124 41958 32456 20000 10285 20250 30073 40075 82500 333 10290 56900 58010 70562 82617=
41958,2023,05,18,18,00,AAXX 18184 41958 11440 81803 10220 20210 30057 40059 60077 70296 8532/ 333 56999 59016 70562 84616 81930 88459=
41958,2023,05,18,21,00,AAXX 18214 41958 32940 03601 10234 20220 30057 40059 333 59019 70564=
41960,2023,05,12,00,00,AAXX 12004 41960 02440 53102 10269 20269 30072 40074 84401 333 59005 70000 83618 85080==
41960,2023,05,12,03,00,AAXX 12034 41960 02456 70000 10310 20270 30089 40090 84410 333 20262 59012 70000 83617 87459==
41960,2023,05,12,06,00,AAXX 12064 41960 02458 62302 10345 20270 30077 40079 84410 333 59013 70000 83618 86459==
41960,2023,05,12,09,00,AAXX 12094 41960 02458 71601 10363 20240 30042 40044 85470 333 59017 70000 83618 85459==
41960,2023,05,12,12,00,AAXX 12124 41960 01456 81802 10303 20230 30044 40045 71796 8692/ 333 10368 59005 70000 84618 88459 81929==
41960,2023,05,12,15,00,AAXX 12154 41960 42430 70000 10284 20240 30069 40071 84410 333 59002 83618 87459==
41960,2023,05,12,18,00,AAXX 12184 41960 42430 80901 10287 20280 30068 40070 8442/ 333 59004 83618 88459==
41960,2023,05,12,21,00,AAXX 12214 41960 41330 82801 10263 20240 30048 40050 76122 8672/ 333 59024 81708 84617 88458==
41960,2023,05,13,00,00,AAXX 13004 41960 21440 80903 10273 20230 30053 40055 70262 8542/ 333 59019 60005 84617 88459==
41960,2023,05,13,03,00,AAXX 13034 41960 42456 81003 10290 20250 30071 40073 8542/ 333 20260 59018 84616 88459==
41960,2023,05,13,06,00,AAXX 13064 41960 42456 80902 10305 20250 30064 40066 8542/ 333 59013 84616 88459==
41960,2023,05,13,09,00,AAXX 13094 41960 42456 80902 10305 20250 30036 40038 8542/ 333 59006 84617 88459==
41960,2023,05,13,12,00,AAXX 13123 41960 42456 80901 10305 20250 30036 40038 8542/ 333 10312 59006 84617 88459==
41960,2023,05,13,15,00,AAXX 13154 41960 42440 81501 10281 20250 30042 40044 8642/ 333 59027 84617 83822 88459==
41960,2023,05,13,18,00,AAXX 13184 41960 42430 80701 10274 20240 30032 40034 8642/ 333 59036 84616 83823 88459==
41960,2023,05,13,21,00,AAXX 13214 41960 02430 80502 10263 20240 39990 49992 8642/ 333 59058 70000 84616 83822 88459==
41960,2023,05,14,00,00,AAXX 14004 41960 02340 82703 10258 20240 39996 49997 8662/ 333 59057 70000 81708 84616 88459==
41960,2023,05,14,03,00,AAXX 14034 41960 41450 80403 10273 20240 30004 40005 76166 8542/ 333 20255 59067 84616 88459==
41960,2023,05,14,06,00,AAXX 14064 41960 21440 83604 10283 20220 39994 49995 76166 8542/ 333 59070 60019 70006 84616 88459==
41960,2023,05,14,09,00,AAXX 14094 41960 01450 73303 10269 20210 39966 49968 72166 84470 333 59070 70008 83618 85459==
41960,2023,05,14,12,00,AAXX 14124 41960 21450 73304 10280 20200 39966 49968 70262 84470 333 10287 59059 69928 70008 83618 85459==
41960,2023,05,14,15,00,AAXX 14154 41960 02440 73304 10266 20200 30014 40016 84510 333 59028 70008 84618 87459==
41960,2023,05,14,18,00,AAXX 14184 41960 02930 00000 10240 20220 30015 40017 333 59017 70008==
41960,2023,05,14,21,00,AAXX 14214 41960 02930 01801 10230 20220 30027 40029 333 58037 70008==
41960,2023,05,15,00,00,AAXX 15004 41960 02440 50000 10220 20220 30044 40046 82401 333 58048 70008 81618 85080==
41960,2023,05,15,03,00,AAXX 15034 41960 02458 40902 10292 20210 30059 40061 84500 333 20216 58055 70004 84618==
41960,2023,05,15,06,00,AAXX 15064 41960 02958 01801 10330 20230 30049 40051 333 58055 70002==
41960,2023,05,15,09,00,AAXX 15094 41960 02958 01804 10346 20240 30032 40034 333 58066 70000==
41960,2023,05,15,12,00,AAXX 15124 41960 02456 22702 10308 20230 30026 40028 82500 333 10348 58060 70000 82618==
41960,2023,05,15,15,00,AAXX 15154 41960 02440 70000 10288 20260 30061 40063 86310 333 58047 70000 84618 87459 82930==
41960,2023,05,15,18,00,AAXX 15183 41960 21420 80901 10236 20236 30051 40052 76196 8632/ 333 58036 60127 70120 85616 88459 81930==
41960,2023,05,15,21,00,AAXX 15214 41960 01430 71802 10242 20242 30044 40045 70162 84410 333 58017 70122 83617 87459==
41960,2023,05,16,00,00,AAXX 16004 41960 11440 71801 10250 20250 30039 40040 69926 70262 84470 333 59005 70122 83618 85459==
41960,2023,05,16,03,00,AAXX 16034 41960 02958 01003 10315 20270 30074 40076 333 20230 58015 70122==
41960,2023,05,16,06,00,AAXX 16064 41960 02458 51303 10340 20260 30080 40082 85400 333 58031 70122 84618==
41960,2023,05,16,09,00,AAXX 16094 41960 02450 71806 10327 20270 30066 40068 85470 333 58034 70122 83618 85459==
41960,2023,05,16,12,00,AAXX 16124 41960 02456 71804 10305 20270 30054 40056 85470 333 10337 58028 70122 83618 85459==
41960,2023,05,16,15,00,AAXX 16154 41960 02440 61801 10295 20280 30085 40087 84410 333 58024 70122 83618 86459==
41960,2023,05,16,18,00,AAXX 16184 41960 21430 61802 10228 20228 30083 40084 70292 85310 333 58032 60107 70102 84618 86459 81930==
41960,2023,05,16,21,00,AAXX 16214 41960 02430 81802 10238 20230 30081 40083 8542/ 333 58037 70100 84617 88459==
41960,2023,05,17,00,00,AAXX 17004 41960 02440 71501 10250 20240 30079 40081 85370 333 58040 70100 83618 85459 81930==
41960,2023,05,17,03,00,AAXX 17034 41960 02456 81804 10303 20260 30094 40096 8542/ 333 20225 58020 70100 84617 88459==
41960,2023,05,17,06,00,AAXX 17064 41960 02456 71806 10330 20270 30092 40094 84410 333 58012 70100 83618 87459==
41960,2023,05,17,09,00,AAXX 17094 41960 01330 81506 10250 20230 30082 40084 79522 8692/ 333 58016 70132 84617 88459==
41960,2023,05,17,12,00,AAXX 17124 41960 21950 01802 10273 20240 30083 40084 70096 333 10341 58029 60045 70138==
41960,2023,05,17,15,00,AAXX 17154 41960 02940 00000 10254 20240 30105 40107 333 58020 70138==
41960,2023,05,17,18,00,AAXX 17184 41960 21420 81304 10235 20235 30092 40093 79592 8592/ 333 58009 60057 70088 84616 88459 81930==
41960,2023,05,17,21,00,AAXX 17214 41960 01430 71806 10242 20240 30092 40094 70196 85470 333 58011 70092 83618 85459==
41960,2023,05,18,00,00,AAXX 18004 41960 11440 51501 10251 20250 30092 40094 69946 70196 84430 333 58013 70092 83618 85363==
41960,2023,05,18,03,00,AAXX 18034 41960 01440 83603 10212 20210 30147 40149 79562 8692/ 333 20210 58051 70132 84615 88459 81930==
41960,2023,05,18,06,00,AAXX 18064 41960 21440 81802 10226 20226 30115 40117 79596 8692/ 333 58023 60129 70212 84614 88459 81930==
41960,2023,05,18,09,00,AAXX 18094 41960 01456 31504 10290 20280 30090 40091 70196 82410 333 58008 70184 81618 83459==
41960,2023,05,18,12,00,AAXX 18124 41960 11956 31501 10281 20240 30083 40085 69946 70296 80001 333 10296 58000 70178 83080==
41960,2023,05,18,15,00,AAXX 18154 41960 02440 82002 10256 20250 30107 40108 8532/ 333 58002 70178 84616 88459 81930==
41960,2023,05,18,18,00,AAXX 18184 41960 02430 41803 10260 20240 30072 40074 84400 333 59020 70128 83618==
41960,2023,05,18,21,00,AAXX 18214 41960 02430 51802 10255 20250 30071 40073 84410 333 59021 70124 83618 85459==
41963,2023,05,12,00,00,AAXX 12004 41963 02950 40000 10270 20270 30072 40074 80001 333 58001 70000 84080==
41963,2023,05,12,03,00,AAXX 12034 41963 02457 51802 10325 20260 30096 40099 82501 333 20260 59005 70000 82618 85080==
41963,2023,05,12,06,00,AAXX 12064 41963 02458 51803 10340 20250 30078 40080 82510 333 59010 70000 82618 85458==
41963,2023,05,12,09,00,AAXX 12094 41963 02458 51803 10345 20250 30048 40051 82510 333 59006 70000 82618 85458==
41963,2023,05,12,12,00,AAXX 12124 41963 02457 51802 10315 20260 30048 40051 82510 333 10355 58001 70000 82618 85458==
41963,2023,05,12,15,00,AAXX 12154 41963 02450 80000 10300 20270 30074 40077 8252/ 333 58010 70000 82618 88458==
41963,2023,05,12,18,00,AAXX 12184 41963 01340 80503 10260 20260 30070 40072 71362 8372/ 333 59005 70060 82708 83618 88458==
41963,2023,05,13,00,00,AAXX 13004 41963 01340 80504 10270 20270 30054 40056 76162 8372/ 333 58018 70020 82708 83616 88458==
41963,2023,05,13,03,00,AAXX 13034 41963 01350 80502 10280 20260 30068 40070 70262 8372/ 333 20246 59028 70100 82708 83615 88458==
41963,2023,05,13,06,00,AAXX 13064 41963 11350 81302 10295 20260 30060 40062 60026 70262 8372/ 333 59018 70100 82708 83616 88458==
41963,2023,05,13,09,00,AAXX 13094 41963 01350 81301 10280 20260 30041 40043 70262 8372/ 333 59007 70110 82708 83616 88458==
41963,2023,05,13,12,00,AAXX 13123 41963 11350 81301 10280 20250 30032 40034 60016 70262 8372/ 333 59016 70110 82708 83616 88458==
41963,2023,05,13,15,00,AAXX 13154 41963 02340 81304 10270 20260 30045 40048 8372/ 333 59029 70110 82708 83616 88458==
41963,2023,05,13,18,00,AAXX 13184 41963 01330 81305 10260 20230 30041 40044 70262 8372/ 333 59029 70010 82708 83616 88458==
41963,2023,05,14,00,00,AAXX 14004 41963 01340 83602 10250 20230 39995 49998 70262 8372/ 333 70030 82708 83616 88458==
41963,2023,05,14,03,00,AAXX 14034 41963 02350 80508 10275 20270 39993 49996 8372/ 333 20240 59075 70050 82708 83616 88458==
41963,2023,05,14,06,00,AAXX 14064 41963 01350 81308 10240 20220 30002 40005 76162 8372/ 333 59058 70030 82708 83616 88458==
41963,2023,05,14,09,00,AAXX 14094 41963 01350 80515 10250 20240 39960 49963 72162 8372/ 333 59081 70100 82708 83616 88458==
41963,2023,05,14,12,00,AAXX 14124 41963 11350 83605 10250 20240 39960 49963 60036 70262 8372/ 333 10275 59072 70100 82708 83616 88458==
41963,2023,05,14,15,00,AAXX 14154 41963 01340 80000 10240 20220 30002 40005 70522 8372/ 333 59043 70100 82708 83616 88458==
41963,2023,05,15,00,00,AAXX 15004 41963 01440 61302 10245 20230 30046 40049 70522 82510 333 58051 70060 82618 86458==
41963,2023,05,15,03,00,AAXX 15034 41963 02456 60501 10275 20240 30064 40067 82510 333 20225 58071 70060 82618 86458==
41963,2023,05,15,06,00,AAXX 15064 41963 02457 21303 10260 20260 30062 40065 82500 333 59060 70030 82618==
41963,2023,05,15,09,00,AAXX 15094 41963 02458 21803 10315 20250 30047 40050 82500 333 59087 70000 82618==
41963,2023,05,15,12,00,AAXX 15124 41963 02456 51302 10292 20260 30038 40041 83510 333 10320 58078 70000 82618 85458==
41963,2023,05,15,15,00,AAXX 15154 41963 02440 51303 10290 20260 30059 40062 82510 333 58057 70000 82618 85458==
41963,2023,05,15,18,00,AAXX 15183 41963 01340 81809 10280 20280 30068 40071 70596 8372/ 333 58040 70120 82708 83616 88458 82926==
41963,2023,05,16,00,00,AAXX 16004 41963 02450 51803 10270 20250 30047 40050 82510 333 58001 70120 85458==
41963,2023,05,16,03,00,AAXX 16034 41963 02956 01804 10310 20230 30073 40076 333 20240 58009 70120==
41963,2023,05,16,06,00,AAXX 16064 41963 02956 01804 10310 20230 30073 40076 82500 333 58020 70120 82618==
41963,2023,05,16,09,00,AAXX 16094 41963 02457 61305 10300 20260 30076 40078 82510 333 58029 70120 82618 86458==
41963,2023,05,16,12,00,AAXX 16124 41963 NIL=
41963,2023,05,17,00,00,AAXX 17004 41963 01340 81303 10255 20250 30068 40071 70522 8372/ 333 58021 70090 82708 83616 88458==
41963,2023,05,17,03,00,AAXX 17034 41963 02456 21806 10290 20250 30089 40092 82500 333 20230 58016 70090 82618==
41963,2023,05,17,06,00,AAXX 17064 41963 02456 41405 10310 20230 30097 40100 84400 333 58015 70090 82618 83825==
41963,2023,05,17,09,00,AAXX 17094 41963 01350 81605 10228 20220 30097 40099 79596 8432/ 333 58021 70490 82710 83614 88459 81928==
41963,2023,05,17,12,00,AAXX 17124 41963 11/56 41604 10260 20230 30081 40084 60426 70196 84060 333 10315 58018 70510 84362==
41963,2023,05,17,15,00,AAXX 17154 41963 02950 00000 10254 20230 30100 40103 333 58024 70510==
41963,2023,05,17,18,00,AAXX 17184 41963 NIL=
41963,2023,05,17,21,00,AAXX 17214 41963 02950 00000 10247 20240 30097 40099 333 58019 70420==
41963,2023,05,18,00,00,AAXX 18004 41963 02950 00000 10250 20230 30098 40101 333 58015 70420==
41963,2023,05,18,03,00,AAXX 18034 41963 01356 81403 10220 20210 30142 40145 72122 8472/ 333 20212 58053 70480 82712 83615 88458==
41963,2023,05,18,06,00,AAXX 18064 41963 01356 81406 10228 20220 30120 40123 72162 8572/ 333 58023 70530 82710 83615 88458==
41963,2023,05,18,09,00,AAXX 18094 41963 02456 61405 10270 20240 30099 40102 82570 333 58002 70130 82617 85459==
41963,2023,05,18,12,00,AAXX 18124 41963 02956 00000 10263 20230 30087 40090 333 10275 58006 70110==
41963,2023,05,18,15,00,AAXX 18154 41963 01940 00000 10240 20240 30100 40103 70500 333 58000 70110==
41963,2023,05,18,18,00,AAXX 18184 41963 NIL=
41963,2023,05,18,21,00,AAXX 18214 41963 02940 00000 10243 20240 30092 40095 333 59005 70110==
41964,2023,05,12,00,00,AAXX 12004 41964 02957 50000 10266 20266 30066 40068 80002 333 59006 70000 85080==
41964,2023,05,12,03,00,AAXX 12034 41964 02457 60000 10327 20260 30076 40078 82512 333 20259 59013 70000 82618 83460==
41964,2023,05,12,06,00,AAXX 12064 41964 02457 70000 10343 20260 30068 40071 86410 333 59013 70000 85618 85460==
41964,2023,05,12,09,00,AAXX 12094 41964 42457 72101 10355 20230 30035 40038 59019 85460==
41964,2023,05,12,12,00,AAXX 12124 41964 02557 52103 10318 20260 30032 40035 81102 333 10361 59007 70000 81825 84080==
41964,2023,05,12,15,00,AAXX 12154 41964 01457 72102 10291 20240 30067 40069 71322 86310 333 58008 70000 85618 85460 81930==
41964,2023,05,12,18,00,AAXX 12184 41964 01357 80000 10276 20260 30060 40062 72992 8632/ 333 59006 70000 81709 85617 88460 81930==
41964,2023,05,12,21,00,AAXX 12214 41964 02457 80000 10273 20250 30051 40053 8642/ 333 59017 70000 85617 88460==
41964,2023,05,13,00,00,AAXX 13004 41964 02457 81403 10277 20260 30052 40054 8632/ 333 59014 70000 85618 88460 81930==
41964,2023,05,13,03,00,AAXX 13034 41964 01356 81401 10277 20260 30065 40068 70262 8662/ 333 20264 59011 70006 83709 84617 88459==
41964,2023,05,13,06,00,AAXX 13064 41964 01357 81502 10297 20250 30057 40059 70296 8632/ 333 59011 70008 82709 85617 88460 81928==
41964,2023,05,13,09,00,AAXX 13094 41964 01357 81501 10290 20260 30032 40034 70262 8632/ 333 59003 70014 82709 85617 88458==
41964,2023,05,13,12,00,AAXX 13123 41964 01356 80000 10270 20250 30024 40027 76162 8672/ 333 10300 59008 70024 84708 85616 88458==
41964,2023,05,13,15,00,AAXX 13154 41964 01350 80000 10260 20250 30040 40043 76166 8672/ 333 59027 70027 84708 85616 88458==
41964,2023,05,13,18,00,AAXX 13184 41964 21350 80905 10250 20230 30026 40028 76166 8672/ 333 59034 60019 70034 85708 85615 88458==
41964,2023,05,13,21,00,AAXX 13214 41964 01350 80503 10242 20230 39998 40001 76166 8672/ 333 59053 70042 85708 85615 88458==
41964,2023,05,14,00,00,AAXX 14004 41964 21350 80303 10237 20230 39979 49981 76166 8672/ 333 59073 60029 70050 84708 85616 88458==
41964,2023,05,14,03,00,AAXX 14034 41964 02350 80202 10255 20230 39983 49985 8662/ 333 20229 59082 70044 84709 84617 88459==
41964,2023,05,14,06,00,AAXX 14064 41964 01340 80503 10243 20230 39979 49981 76362 8672/ 333 59078 70030 85708 85615 88458==
41964,2023,05,14,09,00,AAXX 14094 41964 01350 80508 10255 20220 39934 49937 70262 8672/ 333 59098 70072 85708 85615 88450==
41964,2023,05,14,12,00,AAXX 14124 41964 01350 80306 10237 20220 39945 49947 76162 8672/ 333 10269 59079 70064 85708 85616 88458==
41964,2023,05,14,15,00,AAXX 14154 41964 01357 80503 10230 20220 39990 49992 72166 8662/ 333 59050 70065 83709 85616 88459==
41964,2023,05,14,18,00,AAXX 14184 41964 21457 60000 10228 20220 30003 40005 70162 82510 333 59023 69948 70058 82618 85460==
41964,2023,05,14,21,00,AAXX 14214 41964 02457 60502 10226 20220 30016 40018 83510 333 58018 70050 83618 85460==
41964,2023,05,15,00,00,AAXX 15004 41964 02458 70502 10230 20220 30030 40033 84470 333 58051 70042 83618 85460==
41964,2023,05,15,03,00,AAXX 15034 41964 02458 50502 10281 20230 30054 40056 83510 333 20214 58071 70042 83618 82460==
41964,2023,05,15,06,00,AAXX 15064 41964 02558 52303 10310 20230 30054 40056 85401 333 58075 70016 83620 83825==
41964,2023,05,15,09,00,AAXX 15094 41964 02458 51802 10320 20250 30033 40035 83510 333 58099 70006 83620 84460==
41964,2023,05,15,12,00,AAXX 15124 41964 02458 71402 10298 20260 30029 40031 82570 333 10322 58084 70004 82618 83460 85362==
41964,2023,05,15,15,00,AAXX 15154 41964 02958 21602 10291 20250 30047 40049 80002 333 58057 70000 82080==
41964,2023,05,15,18,00,AAXX 15183 41964 01345 82301 10237 20237 30055 40057 79596 8632/ 333 58052 70200 85708 85615 88458 81928==
41964,2023,05,16,00,00,AAXX 16004 41964 11/58 41303 10249 20240 30044 40046 69966 70196 82031 333 58014 70204 82362 83080==
41964,2023,05,16,03,00,AAXX 16034 41964 02958 11306 10300 20230 30075 40077 80001 333 20226 58021 70204 81080==
41964,2023,05,16,06,00,AAXX 16064 41964 02458 11910 10320 20240 30080 40083 81500 333 58026 70204 81618==
41964,2023,05,16,09,00,AAXX 16094 41964 02958 02109 10324 20230 30068 40071 333 58035 70004==
41964,2023,05,16,12,00,AAXX 16124 41964 02458 41508 10295 20260 30058 40061 84400 333 10330 58029 70204 83618==
41964,2023,05,16,15,00,AAXX 16154 41964 02458 41807 10288 20260 30073 40076 84500 333 58026 70204 84618==
41964,2023,05,16,18,00,AAXX 16184 41964 01340 80000 10237 20237 30087 40089 79596 8632/ 333 58032 70270 85708 85615 88458 81928==
41964,2023,05,16,21,00,AAXX 16214 41964 01458 60000 10238 20238 30083 40085 70196 84510 333 58034 70272 83618 83460==
41964,2023,05,17,00,00,AAXX 17004 41964 11458 60000 10242 20230 30081 40083 69966 70296 85430 333 58037 70272 84618==
41964,2023,05,17,03,00,AAXX 17034 41964 02958 11403 10291 20220 30096 40099 80001 333 20219 58021 70272 81080==
41964,2023,05,17,06,00,AAXX 17064 41964 02458 21706 10319 20220 30095 40097 82500 333 58015 70272 82618==
41964,2023,05,17,09,00,AAXX 17094 41964 01356 81804 10225 20210 30094 40097 79566 8632/ 333 58026 70650 85408 85616 88458 81928==
41964,2023,05,17,12,00,AAXX 17124 41964 21458 61402 10246 20240 30080 40083 70196 82512 333 10321 58022 60409 70672 82618 84460==
41964,2023,05,17,15,00,AAXX 17154 41964 02958 00000 10236 20236 30095 40097 333 58022 70672==
41964,2023,05,17,18,00,AAXX 17184 41964 02457 10000 10239 20239 30097 40099 81500 333 58010 70406 81618==
41964,2023,05,17,21,00,AAXX 17214 41964 02457 31402 10247 20247 30094 40096 82501 333 58011 70400 82618==
41964,2023,05,18,00,00,AAXX 18004 41964 02/58 31602 10252 20252 30091 40093 82031 333 58010 70400 82362==
41964,2023,05,18,03,00,AAXX 18034 41964 01345 83505 10209 20200 30139 40142 79522 8632/ 333 20202 58043 70448 84708 83616 88458 81927==
41964,2023,05,18,06,00,AAXX 18064 41964 01357 81803 10236 20230 30125 40127 72196 8672/ 333 58030 70546 83709 84617 88460==
41964,2023,05,18,09,00,AAXX 18094 41964 01457 71902 10262 20240 30092 40095 70262 84520 333 59002 70178 84618 86460==
41964,2023,05,18,12,00,AAXX 18124 41964 11458 31702 10261 20230 30076 40079 60016 70162 81530 333 10272 59004 70156 81618 83362==
41964,2023,05,18,15,00,AAXX 18154 41964 02458 10000 10234 20230 30091 40094 81500 333 59004 70156 81618==
41964,2023,05,18,18,00,AAXX 18184 41964 02457 20000 10238 20230 30078 40080 82500 333 59019 70156 82618==
41964,2023,05,18,21,00,AAXX 18214 41964 02457 30000 10240 20240 30074 40076 83500 333 59020 70156 83618==
41965,2023,05,12,00,00,AAXX 12004 41965 NIL=
41965,2023,05,12,03,00,AAXX 12034 41965 02450 50000 10320 20230 30055 40063 84410 333 20260 59020 70000 82618 84460==
41965,2023,05,12,06,00,AAXX 12064 41965 NIL=
41965,2023,05,12,09,00,AAXX 12094 41965 02450 50000 10350 20220 30035 40043 84410 333 59007 70000==
41965,2023,05,12,12,00,AAXX 12124 41965 02450 70000 10320 20220 30035 40043 84410 333 10360 59005 70000 82618 86460==
41965,2023,05,12,18,00,AAXX 12184 41965 01450 80000 10300 20220 30050 40058 71322 83310 333 58015 70000 81710 83618 88460 81928==
41965,2023,05,13,00,00,AAXX 13004 41965 02450 80000 10260 20240 30063 40071 8432/ 333 59010 70000 81710 83618 88460 81928==
41965,2023,05,13,03,00,AAXX 13034 41965 01440 80000 10260 20230 30071 40079 79522 8432/ 333 20250 59009 70030 81710 83618 88460 81928==
41965,2023,05,13,06,00,AAXX 13063 41965 21440 81401 10285 20210 30060 40068 70296 8432/ 333 59009 60035 70030 81710 83618 88460 81928==
41965,2023,05,13,09,00,AAXX 13094 41965 02440 80000 10290 20220 30038 40046 8432/ 333 59022 70030 81710 83618 88460 81928==
41965,2023,05,13,12,00,AAXX 13124 41965 01440 81401 10270 20220 30030 40038 79522 8432/ 333 10295 59030 70030 81718 83618 88460 81928==
41965,2023,05,13,15,00,AAXX 13154 41965 02450 80000 10260 20230 30040 40048 8432/ 333 59022 70060 81710 83618 88460 81928==
41965,2023,05,13,18,00,AAXX 13184 41965 01440 82203 10250 20230 30050 40058 79522 8432/ 333 59022 70030 81710 83618 88460 81928==
41965,2023,05,14,00,00,AAXX 14004 41965 NIL=
41965,2023,05,14,03,00,AAXX 14034 41965 02450 82203 10260 20230 39987 49995 8462/ 333 20240 59084 70060 81710 83618 88460==
41965,2023,05,14,06,00,AAXX 14064 41965 01440 81405 10245 20200 39984 49992 76162 8432/ 333 59076 70030 81710 83618 88460==
41965,2023,05,14,09,00,AAXX 14094 41965 02450 82204 10250 20200 39957 49965 8462/ 333 59081 70090 81710 83618 88460==
41965,2023,05,14,12,00,AAXX 14124 41965 02450 82202 10250 20200 39950 40058 8462/ 333 10265 59085 70060 81710 83618 88460==
41965,2023,05,15,03,00,AAXX 15034 41965 02450 50000 10270 20200 30053 40061 84410 333 20210 58066 70030 82618 84460==
41965,2023,05,15,06,00,AAXX 15064 41965 02456 51403 10305 20190 30049 40057 84410 333 58065 70000 82618 84460==
41965,2023,05,15,09,00,AAXX 15094 41965 02456 51302 10320 20170 30043 40051 84410 333 58086 70000 82618 84460==
41965,2023,05,15,12,00,AAXX 15124 41965 02450 50000 10300 20220 30045 40053 84410 333 10320 58076 70000 82618 84460==
41965,2023,05,15,18,00,AAXX 15184 41965 NIL=
41965,2023,05,16,03,00,AAXX 16034 41965 02950 00000 10280 20200 30060 40068 333 58012 70030==
41965,2023,05,16,06,00,AAXX 16064 41965 02956 01403 10325 20230 30077 40085 333 58028 70030==
41965,2023,05,16,12,00,AAXX 16124 41965 02450 50000 10300 20220 30050 40058 84410 333 10335 58009 70030 82618 84460==
41965,2023,05,17,00,00,AAXX 17004 41965 02450 50000 10240 20220 30086 40094 84410 333 58028 70080 82618 84460==
41965,2023,05,17,03,00,AAXX 17034 41965 02450 50000 10280 20200 30094 40102 84410 333 20225 58027 70080 82618 84460==
41965,2023,05,17,06,00,AAXX 17064 41965 02456 51402 10330 20190 30087 40096 84410 333 58010 70080 82618 84460==
41965,2023,05,17,09,00,AAXX 17094 41965 01440 81303 10215 20180 30089 40097 76362 8332/ 333 58017 70180 81710 83618 88460 81928==
41965,2023,05,17,12,00,AAXX 17124 41965 21440 81303 10285 20180 30090 40098 79796 8332/ 333 10335 58017 60209 70380 81710 83618 88460 81928==
41965,2023,05,17,18,00,AAXX 17184 41965 NIL=
41965,2023,05,18,00,00,AAXX 18004 41965 02450 70000 10220 20190 30112 40120 83310 333 58026 70300 83618 86460==
41965,2023,05,18,03,00,AAXX 18034 41965 02450 80000 10260 20210 30122 40130 8332/ 333 20215 58027 70030 81710 83618 88460==
41965,2023,05,18,06,00,AAXX 18064 41965 21440 81403 10230 20180 30114 40122 79502 8332/ 333 58027 60257 70550 81710 83618 88460 81928==
41965,2023,05,18,09,00,AAXX 18094 41965 02440 71304 10240 20180 30098 40106 83310 333 58012 70450 83618 86460==
41965,2023,05,18,12,00,AAXX 18124 41965 21450 80000 10250 20220 30090 40098 70266 8462/ 333 10270 58025 60258 70250 83618 88460==
41965,2023,05,18,18,00,AAXX 18184 41965 NIL=
41966,2023,05,12,00,00,AAXX 12004 41966 02440 40000 10265 20260 30001 40079 82510 333 59001 70000 82616 83460==
41966,2023,05,12,03,00,AAXX 12034 41966 02/50 30000 10340 20220 30006 40083 83030 333 20258 59013 70000 83362==
41966,2023,05,12,06,00,AAXX 12064 41966 02450 40601 10365 20200 30002 40079 82510 333 59013 70000 82616 83460==
41966,2023,05,12,09,00,AAXX 12094 41966 02450 50401 10360 20190 39963 40039 82510 333 59010 70000 82616 85460==
41966,2023,05,12,12,00,AAXX 12124 41966 01440 63602 10275 20220 39973 40051 72992 82510 333 10376 59002 70000 82616 86460==
41966,2023,05,12,15,00,AAXX 12154 41966 02430 60000 10270 20240 39998 40077 83510 333 58014 70000 83616 86460==
41966,2023,05,12,18,00,AAXX 12184 41966 NIL=
41966,2023,05,12,21,00,AAXX 12214 41966 42420 80000 10260 20250 39990 40069 8352/ 333 58000 83616 88460==
41966,2023,05,13,00,00,AAXX 13004 41966 01430 80000 10255 20250 39988 40067 70262 8352/ 333 59012 70008 83616 88460==
41966,2023,05,13,06,00,AAXX 13064 41966 21450 70000 10285 20260 30001 40080 70262 83510 333 58001 69985 70016 83616 86460==
41966,2023,05,13,09,00,AAXX 13094 41966 02450 70000 10282 20240 39989 40068 83510 333 58029 70016 83616 86460==
41966,2023,05,13,12,00,AAXX 13124 41966 01440 80000 10275 20260 39970 40048 76162 8352/ 333 10295 59003 70007 83616 88460==
41966,2023,05,13,15,00,AAXX 13154 41966 01420 80000 10255 20250 39978 40057 76166 8352/ 333 59020 70033 83615 88460==
41966,2023,05,13,18,00,AAXX 13184 41966 NIL=
41966,2023,05,13,21,00,AAXX 13214 41966 01420 80000 10245 20240 39935 40014 70262 8352/ 333 59055 70073 83616 88460==
41966,2023,05,14,00,00,AAXX 14004 41966 11430 80000 10240 20230 39918 49997 69956 70262 8352/ 333 59070 70065 83616 88460==
41966,2023,05,14,03,00,AAXX 14034 41966 01450 80000 10255 20210 39933 40011 72162 8352/ 333 20230 59070 70061 83616 88460==
41966,2023,05,14,06,00,AAXX 14064 41966 21450 80401 10251 20190 39907 49986 76162 8352/ 333 59094 60017 70071 83616 88460==
41966,2023,05,14,09,00,AAXX 14094 41966 01450 80401 10256 20190 39927 40005 76162 8352/ 333 59063 70073 83616 88460==
41966,2023,05,14,12,00,AAXX 14124 41966 01440 80000 10235 20220 39908 49986 76162 8352/ 333 10270 59062 70102 83615 88460==
41966,2023,05,14,15,00,AAXX 14154 41966 01420 80000 10230 20220 39927 40006 72166 8352/ 333 59051 70132 83616 88460==
41966,2023,05,14,21,00,AAXX 14214 41966 01420 80000 10230 20220 39988 40068 76062 8352/ 333 58003 70102 83616 88460==
41966,2023,05,15,00,00,AAXX 15004 41966 21440 80000 10225 20220 39987 40066 70266 8352/ 333 58069 60039 70122 83616 88460==
41966,2023,05,15,03,00,AAXX 15034 41966 02450 50000 10263 20210 30005 40084 82510 333 20215 58073 70118 82616 84460==
41966,2023,05,15,06,00,AAXX 15064 41966 02450 50000 10290 20220 39995 40073 82510 333 58061 70108 82616 84460==
41966,2023,05,15,09,00,AAXX 15094 41966 02450 41301 10320 20200 39971 40048 82510 333 58043 70106 82616 83460==
41966,2023,05,15,12,00,AAXX 15124 41966 02450 40000 10310 20200 39962 40040 82510 333 10325 58054 70070 82616 83460==
41966,2023,05,15,15,00,AAXX 15154 41966 02430 71801 10290 20270 39983 40062 83510 333 58056 70030 83616 86460==
41966,2023,05,15,18,00,AAXX 15184 41966 NIL=
41966,2023,05,15,21,00,AAXX 15214 41966 01420 80000 10245 20240 30001 40081 72996 8352/ 333 58010 70040 83616 88460==
41966,2023,05,16,00,00,AAXX 16004 41966 21440 50000 10230 20220 39995 40075 70196 82510 333 58009 60028 70020 82616 84460==
41966,2023,05,16,03,00,AAXX 16034 41966 02950 00000 10302 20180 30012 40090 333 20225 58006 70020==
41966,2023,05,16,06,00,AAXX 16064 41966 02/50 31701 10340 20140 30007 40084 83010 333 58010 70020 83460==
41966,2023,05,16,09,00,AAXX 16094 41966 02/50 32001 10345 20140 30005 40082 83010 333 58034 70020 83460==
41966,2023,05,16,12,00,AAXX 16124 41966 02/50 30000 10310 20200 30010 40088 83010 333 10350 58048 70020 83460==
41966,2023,05,16,15,00,AAXX 16154 41966 02430 40000 10295 20230 30013 40091 82510 333 58029 70020 82616 83460==
41966,2023,05,16,21,00,AAXX 16214 41966 01320 80000 10240 20230 30012 40092 72996 8472/ 333 58011 70155 82709 83615 88460==
41966,2023,05,17,00,00,AAXX 17004 41966 11/40 30000 10230 20220 30015 40095 60036 70196 83030 333 58020 70155 83362==
41966,2023,05,17,03,00,AAXX 17034 41966 02/50 30000 10290 20200 30034 40112 83030 333 20220 58022 70155 83362==
41966,2023,05,17,06,00,AAXX 17064 41966 02/50 30000 10330 20130 30020 40097 83030 333 58013 70155 83362==
41966,2023,05,17,09,00,AAXX 17094 41966 01340 81803 10230 20220 30046 40126 79592 8492/ 333 58044 70161 82709 83615 88460 81930==
41966,2023,05,17,12,00,AAXX 17124 41966 21440 70000 10230 20220 30025 40105 72996 83510 333 10340 58017 60097 70245 83616 86460==
41966,2023,05,17,15,00,AAXX 17154 41966 02430 40000 10225 20220 30028 40108 82510 333 58017 70245 82616 83460==
41966,2023,05,17,18,00,AAXX 17184 41966 NIL=
41966,2023,05,17,21,00,AAXX 17214 41966 02420 40000 10225 20220 30033 40113 82510 333 58021 70090 82616 83460==
41966,2023,05,18,00,00,AAXX 18004 41966 02440 40000 10220 20210 30026 40107 82510 333 58012 70090 82616 83460==
41966,2023,05,18,03,00,AAXX 18034 41966 01340 81802 10235 20230 30087 40167 79522 8492/ 333 20208 58055 70130 82709 83615 88460 81930==
41966,2023,05,18,06,00,AAXX 18064 41966 21450 80000 10235 20230 30081 40162 70296 8352/ 333 58065 60107 70186 83616 88460==
41966,2023,05,18,09,00,AAXX 18094 41966 01450 60000 10250 20210 30035 40115 70166 82510 333 59011 70198 82616 85460==
41966,2023,05,18,12,00,AAXX 18124 41966 11440 40000 10252 20200 30027 40107 60016 70162 82510 333 10275 58002 70108 82616 83460==
41966,2023,05,18,15,00,AAXX 18154 41966 02430 40000 10245 20220 30034 40113 82510 333 58005 70108 82616 83460==
41966,2023,05,18,18,00,AAXX 18184 41966 NIL=
41966,2023,05,18,21,00,AAXX 18214 41966 02420 40000 10235 20230 30034 40113 82510 333 58000 70108 82616 83460==
41977,2023,05,12,00,00,AAXX 12004 41977 01450 40000 10278 20270 30050 40088 70521 82531 333 59014 70000 82618 83362==
41977,2023,05,12,03,00,AAXX 12034 41977 01450 40000 10338 20240 30065 40102 70521 82531 333 20275 59013 70000 82618 83362==
41977,2023,05,12,06,00,AAXX 12064 41977 02356 72106 10340 20240 30051 40083 85610 333 59022 70000 82712 84618 87460==
41977,2023,05,12,09,00,AAXX 12094 41977 02356 72405 10349 20240 30032 40071 85610 333 59011 70000 82714 84618 87460==
41977,2023,05,12,12,00,AAXX 12124 41977 02456 72705 10315 20250 30031 40068 85620 333 10355 59004 70000 82714 84618 87460==
41977,2023,05,12,18,00,AAXX 12184 41977 NIL=
41977,2023,05,12,21,00,AAXX 12214 41977 41356 71303 10278 20240 30030 40068 70352 85670 333 59022 82709 85615 86459==
41977,2023,05,13,00,00,AAXX 13004 41977 01350 80000 10268 20250 30045 40083 72152 8672/ 333 59005 70003 83710 84615 88460==
41977,2023,05,13,03,00,AAXX 13034 41977 01350 80902 10278 20250 30055 40093 72162 8632/ 333 20255 59010 70007 82710 84615 88460 81930==
41977,2023,05,13,06,00,AAXX 13063 41977 21350 80000 10290 20230 30044 40079 70262 8662/ 333 59007 69948 70007 82710 84617 88459==
41977,2023,05,13,09,00,AAXX 13094 41977 01350 80000 10288 20250 30026 40064 76162 8632/ 333 59006 70011 82710 84614 88459 81930==
41977,2023,05,13,12,00,AAXX 13124 41977 21350 80000 10270 20240 30014 40052 76162 8632/ 333 10298 59018 69939 70014 82710 84614 88458 81930==
41977,2023,05,13,15,00,AAXX 13154 41977 01350 80902 10261 20230 30027 40065 76162 8632/ 333 59029 70024 82710 84614 88458 81930==
41977,2023,05,13,18,00,AAXX 13184 41977 21350 80000 10242 20230 30008 40047 76162 8632/ 333 59034 60037 70054 82710 84614 88458 81930==
41977,2023,05,13,21,00,AAXX 13214 41977 01350 80000 10240 20220 39985 40024 70262 8632/ 333 59045 70066 82710 84614 88460 81930==
41977,2023,05,14,00,00,AAXX 14004 41977 01340 83302 10240 20220 39962 40000 70262 8632/ 333 59083 70069 82710 84614 88460 81930==
41977,2023,05,14,03,00,AAXX 14034 41977 01350 80000 10250 20230 39970 40008 70262 8632/ 333 20235 59085 70067 82710 84614 88460 81930==
41977,2023,05,14,06,00,AAXX 14064 41977 01350 82304 10243 20220 39969 40008 76162 8632/ 333 59075 70107 82710 84614 88458 81930==
41977,2023,05,14,09,00,AAXX 14094 41977 01350 83606 10255 20220 39935 49972 76162 8632/ 333 59091 70113 82710 84614 88460 81930==
41977,2023,05,14,12,00,AAXX 14124 41977 21350 80905 10235 20220 39942 49981 76166 8632/ 333 10260 59072 60029 70125 82710 84614 88460 81930==
41977,2023,05,14,15,00,AAXX 14154 41977 01350 80903 10232 20230 39971 40009 76166 8632/ 333 59056 70135 82710 84614 88460 88930==
41977,2023,05,14,18,00,AAXX 14184 41977 21350 80000 10230 20220 39991 40029 76166 8632/ 333 59017 60027 70107 82710 84614 88460 81930==
41977,2023,05,14,21,00,AAXX 14214 41977 01350 80000 10226 20220 30007 40046 70262 8632/ 333 59022 70107 82710 84615 88460 81930==
41977,2023,05,15,00,00,AAXX 15004 41977 11450 80000 10224 20210 30015 40053 60016 70262 84520 333 58053 70101 84618 86460==
41977,2023,05,15,03,00,AAXX 15034 41977 02450 70000 10270 20220 30047 40085 84520 333 20218 58077 70099 84618 86460==
41977,2023,05,15,06,00,AAXX 15064 41977 02460 72704 10315 20220 30049 40086 84520 333 58080 70059 84618 86460==
41977,2023,05,15,09,00,AAXX 15094 41977 02460 42004 10330 20230 30042 40079 82531 333 58107 70049 82618 83362==
41977,2023,05,15,12,00,AAXX 15124 41977 02460 40000 10300 20250 30043 40081 82531 333 10332 58101 70034 82618 80062==
41977,2023,05,15,18,00,AAXX 15184 41977 NIL=
41977,2023,05,15,21,00,AAXX 15214 41977 01450 70000 10235 20230 30042 40080 70296 84520 333 58035 70518 84616 87460==
41977,2023,05,16,00,00,AAXX 16004 41977 11450 70000 10238 20230 30039 40077 60016 70296 84520 333 59024 70518 84618 86460==
41977,2023,05,16,03,00,AAXX 16034 41977 02950 00000 10298 20220 30061 40099 333 20225 59014 70518==
41977,2023,05,16,06,00,AAXX 16064 41977 02956 01806 10330 20230 30082 40120 333 58033 70518==
41977,2023,05,16,09,00,AAXX 16094 41977 02956 02208 10331 20230 30054 40091 333 58012 70518==
41977,2023,05,16,12,00,AAXX 16124 41977 02456 71807 10298 20260 30056 40094 84520 333 10340 58013 70518 84618 86460==
41977,2023,05,16,15,00,AAXX 16154 41977 02456 51805 10290 20250 30064 40101 83520 333 58018 70518 83618 86460==
41977,2023,05,16,18,00,AAXX 16184 41977 02350 83607 10232 20230 30080 40119 8592/ 333 58035 70340 82709 84615 88458 81928==
41977,2023,05,16,21,00,AAXX 16214 41977 01350 40000 10234 20220 30077 40116 70196 83520 333 58035 70360 82618 84460==
41977,2023,05,17,00,00,AAXX 17004 41977 11450 20000 10234 20220 30069 40108 60026 70196 82500 333 58030 70360 82618==
41977,2023,05,17,03,00,AAXX 17034 41977 02456 10902 10285 20230 30082 40120 81500 333 20230 58021 70360 81618==
41977,2023,05,17,12,00,AAXX 17124 41977 21350 81805 10245 20220 30082 40121 70195 8632/ 333 10328 58026 60137 70485 82710 84614 88460 81930==
41977,2023,05,17,18,00,AAXX 17184 41977 02450 31802 10232 20230 30088 40127 82530 333 58008 70145 82618 83365==
41977,2023,05,17,21,00,AAXX 17214 41977 02450 50000 10238 20220 30084 40122 83530 333 58007 70125 83618 84362==
41977,2023,05,18,00,00,AAXX 18004 41977 02450 60000 10248 20220 30084 40122 84521 333 58015 70125 84618 84460==
41977,2023,05,18,03,00,AAXX 18034 41977 01350 81304 10260 20210 30128 40167 76122 8632/ 333 20220 58046 70129 82710 84615 88460 81928==
41977,2023,05,18,06,00,AAXX 18064 41977 21350 81304 10227 20210 30124 40162 76162 8632/ 333 58038 60057 70174 82710 84614 88460 81928==
41977,2023,05,18,09,00,AAXX 18094 41977 01350 81605 10236 20220 30091 40129 70262 8632/ 333 58000 70239 82710 84614 88460 81930==
41977,2023,05,18,12,00,AAXX 18124 41977 21456 32703 10250 20230 30081 40119 70162 82520 333 10332 59001 60088 70129 82618 83460==
41977,2023,05,18,15,00,AAXX 18154 41977 02956 00000 10235 20230 30084 40121 333 59005 70129==
41977,2023,05,18,18,00,AAXX 18184 41977 02950 02802 10230 20220 30080 40119 333 58008 70129==
41978,2023,05,12,00,00,AAXX 12004 41978 01440 21405 10279 20270 30074 40081 70510 82500 333 59006 70000 82618==
41978,2023,05,12,03,00,AAXX 12034 41978 01445 30603 10316 20250 30079 40085 70511 81530 333 20266 59017 70000 81618 83362==
41978,2023,05,12,06,00,AAXX 12064 41978 01450 42413 10340 20240 30073 40079 70511 81530 333 59017 70000 81618 84362==
41978,2023,05,12,09,00,AAXX 12094 41978 02456 42618 10340 20250 30042 40048 81530 333 59011 70000 81618 84360==
41978,2023,05,12,12,00,AAXX 12124 41978 02456 61710 10317 20260 30042 40048 83520 333 10347 59003 70000 83618 85460==
41978,2023,05,12,15,00,AAXX 12154 41978 02450 60902 10294 20240 30073 40080 83570 333 58003 70000 83618 86360==
41978,2023,05,12,18,00,AAXX 12184 41978 02450 70000 10284 20240 30059 40066 83570 333 59012 70000 83618 86360==
41978,2023,05,12,21,00,AAXX 12214 41978 02450 70000 10280 20260 30057 40064 83570 333 59007 70000 83618 86360==
41978,2023,05,13,00,00,AAXX 13004 41978 01340 83408 10266 20260 30073 40080 76162 8432/ 333 59001 70004 83709 88458 81930==
41978,2023,05,13,03,00,AAXX 13034 41978 01445 80404 10278 20260 30070 40076 76162 8432/ 333 20262 59009 70006 83616 88459 81928==
41978,2023,05,13,06,00,AAXX 13064 41978 01450 81104 10277 20240 30055 40061 70262 8432/ 333 59018 70016 83616 88460 81928==
41978,2023,05,13,09,00,AAXX 13094 41978 01450 80405 10287 20250 30034 40040 76162 8432/ 333 59009 70022 83615 88459 81928==
41978,2023,05,13,12,00,AAXX 13124 41978 01456 80905 10277 20240 30026 40032 76162 8432/ 333 10304 59016 70024 83616 88459 81928==
41978,2023,05,13,15,00,AAXX 13154 41978 01450 81010 10257 20230 30046 40052 76166 8432/ 333 59027 70031 83616 88459 81928==
41978,2023,05,13,18,00,AAXX 13184 41978 21450 80416 10253 20230 30024 40030 76166 8432/ 333 59035 60019 70036 83616 88459 81928==
41978,2023,05,13,21,00,AAXX 13214 41978 01450 80416 10247 20230 39987 49993 76166 8432/ 333 59070 70048 83616 88459 81928==
41978,2023,05,14,00,00,AAXX 14004 41978 21450 83512 10250 20210 39970 49976 76166 8432/ 333 59103 60049 70067 83616 88459 81928==
41978,2023,05,14,03,00,AAXX 14034 41978 01448 83009 10255 20220 39984 49991 76166 8432/ 333 20240 59086 70071 82616 88459 81927==
41978,2023,05,14,06,00,AAXX 14064 41978 21435 80121 10248 20220 39965 49972 76166 8432/ 333 59090 60049 70099 83615 88458 81926==
41978,2023,05,14,09,00,AAXX 14094 41978 01440 83016 10252 20210 39917 49923 76162 8432/ 333 59117 70107 83615 88459 81928==
41978,2023,05,14,12,00,AAXX 14124 41978 01440 83015 10242 20200 39942 49948 76166 8432/ 333 10267 59084 70125 83614 88459 81928==
41978,2023,05,14,15,00,AAXX 14154 41978 01440 83310 10242 20210 39990 49997 70262 8432/ 333 59056 70145 83616 88460 81928==
41978,2023,05,14,18,00,AAXX 14184 41978 01440 80000 10236 20220 30007 40104 72162 8432/ 333 59016 70145 83616 88460 81928==
41978,2023,05,14,21,00,AAXX 14214 41978 02440 60000 10226 20220 30021 40027 83570 333 58034 70135 83616 86360==
41978,2023,05,15,00,00,AAXX 15004 41978 02440 60804 10222 20210 30037 40043 83570 333 58067 70105 83616 86360==
41978,2023,05,15,03,00,AAXX 15034 41978 02440 61004 10270 20200 30062 40068 83520 333 20217 58078 70102 83618 85460==
41978,2023,05,15,06,00,AAXX 15064 41978 02556 32309 10303 20230 30058 40064 83200 333 58093 70064 83828==
41978,2023,05,15,09,00,AAXX 15094 41978 02456 42410 10323 20240 30037 40043 82520 333 58120 70050 82618 84460==
41978,2023,05,15,12,00,AAXX 15124 41978 02450 52005 10303 20240 30036 40042 83520 333 10324 58094 70030 82618 84460==
41978,2023,05,15,15,00,AAXX 15154 41978 02450 51710 10296 20250 30055 40061 83520 333 58065 70010 83618 83460==
41978,2023,05,15,18,00,AAXX 15184 41978 01440 83310 10242 20220 30069 40076 79522 8432/ 333 58062 70230 83615 88459 81928==
41978,2023,05,15,21,00,AAXX 15214 41978 02450 61206 10240 20230 30044 40050 83520 333 58023 70230 83616 86460==
41978,2023,05,16,00,00,AAXX 16004 41978 02450 51203 10238 20230 30053 40059 83520 333 58016 70230 83618 84460==
41978,2023,05,16,03,00,AAXX 16034 41978 02456 31610 10298 20220 30076 40083 83500 333 20227 58014 70230 83618==
41978,2023,05,16,06,00,AAXX 16064 41978 02456 32112 10322 20220 30083 40089 83500 333 58025 70230 83618==
41978,2023,05,16,09,00,AAXX 16094 41978 02456 31917 10326 20250 30073 40079 83500 333 58036 70230 83618==
41978,2023,05,16,11,00,AAXX 16114 41978 32450 61808 10300 20230 30066 40072 83520 333 10338 56990 58030 70230 83618 85460=
41978,2023,05,16,12,00,AAXX 16124 41978 02450 61808 10300 20230 30066 40072 83520 333 10338 58030 70230 83618 85460==
41978,2023,05,16,15,00,AAXX 16154 41978 02450 51713 10290 20250 30082 40088 83520 333 58027 70230 83618 84460==
41978,2023,05,16,18,00,AAXX 16184 41978 02450 41907 10278 20250 30096 40103 82520 333 58027 70000 82618 84460==
41978,2023,05,16,21,00,AAXX 16214 41978 01440 81510 10247 20240 30063 40069 72962 8432/ 333 58019 70304 82618 88460 81928==
41978,2023,05,17,00,00,AAXX 17004 41978 11440 31205 10231 20220 30092 40099 60306 70196 83400 333 58039 70304 82618==
41978,2023,05,17,03,00,AAXX 17034 41978 02456 31208 10287 20220 30104 40111 83500 333 20227 58028 70304 83618==
41978,2023,05,17,06,00,AAXX 17064 41978 02456 32110 10310 20210 30100 40107 83500 333 58017 70304 83618==
41978,2023,05,17,09,00,AAXX 17094 41978 02450 83015 10254 20190 30111 40117 8532/ 333 58038 70304 84616 88459 81928==
41978,2023,05,17,12,00,AAXX 17124 41978 21450 81405 10235 20230 30084 40090 76162 8432/ 333 10324 58018 60127 70424 83616 88459 81928==
41978,2023,05,17,15,00,AAXX 17154 41978 02450 50605 10242 20220 30098 40104 83520 333 58016 70424 83616 84460==
41978,2023,05,17,18,00,AAXX 17184 41978 01440 50703 10241 20220 30113 40119 70522 82520 333 58017 70424 82616 84460==
41978,2023,05,17,21,00,AAXX 17214 41978 01440 51204 10240 20220 30102 40108 70522 82520 333 58039 70120 82616 84460==
41978,2023,05,18,00,00,AAXX 18004 41978 02450 51206 10236 20220 30099 40106 83520 333 58007 70120 83618 84460==
41978,2023,05,18,03,00,AAXX 18034 41978 02440 80315 10295 20250 30131 40137 8432/ 333 20227 58027 70120 83616 88460 81928==
41978,2023,05,18,06,00,AAXX 18064 41978 21440 80000 10223 20200 30148 40154 76162 8432/ 333 58048 60177 70292 83614 88458 81928==
41978,2023,05,18,09,00,AAXX 18094 41978 01450 81606 10230 20210 30100 40106 72166 8432/ 333 59011 70378 83616 88459 81928==
41978,2023,05,18,12,00,AAXX 18124 41978 21/50 21005 10258 20210 30077 40083 70162 82030 333 59007 60098 70258 82362==
41978,2023,05,18,15,00,AAXX 18154 41978 01/40 20704 10238 20220 30092 40098 70511 82030 333 59006 70525 82362==
41978,2023,05,18,18,00,AAXX 18184 41978 01/45 21204 10233 20210 30096 40102 70511 82030 333 59017 70258 82362==
41978,2023,05,18,21,00,AAXX 18214 41978 01950 00000 10220 20200 30084 40090 70511 333 59018 70250==
41980,2023,05,12,00,00,AAXX 12004 41980 32450 50000 10262 20240 39978 40091 82520 333 56990 59006 70000 82618 85459=
41980,2023,05,12,06,00,AAXX 12064 41980 NIL=
41980,2023,05,12,12,00,AAXX 12124 41980 32456 50000 10285 20220 39944 40056 83520 333 10365 56990 58000 70000 83616 85459=
41980,2023,05,12,18,00,AAXX 12184 41980 NIL=
41980,2023,05,13,00,00,AAXX 13004 41980 11440 81302 10257 20240 39959 40071 72122 8452/ 333 56999 58019 70010 84616 88458=
41980,2023,05,13,06,00,AAXX 13064 41980 NIL=
41980,2023,05,13,12,00,AAXX 13124 41980 11340 80503 10255 20230 39925 40037 60027 76166 8662/ 333 10284 56999 59019 70050 83709 84616 88456=
41980,2023,05,13,18,00,AAXX 13184 41980 NIL=
41980,2023,05,14,00,00,AAXX 14004 41980 11440 80504 10244 20190 39869 49980 60037 70262 8542/ 333 56999 59090 70070 84616 88458=
41980,2023,05,14,06,00,AAXX 14064 41980 NIL=
41980,2023,05,14,12,00,AAXX 14124 41980 11340 80504 10218 20200 39834 49946 60139 76166 8662/ 333 10253 56999 59091 70210 83709 84614 88456=
41980,2023,05,15,00,00,AAXX 15004 41980 11450 70000 10218 20210 39941 40054 60116 70162 84520 333 56990 58072 70290 84616 87459=
41980,2023,05,15,06,00,AAXX 15064 41980 NIL=
41980,2023,05,15,12,00,AAXX 15124 41980 32950 00000 10312 20210 39936 40046 333 10338 58102 70190=
41980,2023,05,15,18,00,AAXX 15184 41980 NIL=
41980,2023,05,16,00,00,AAXX 16004 41980 11440 80000 10245 20200 39955 40067 60056 70396 8352/ 333 56999 58014 70050 83616 88459=
41980,2023,05,16,12,00,AAXX 16124 41980 32956 01302 10302 20210 39967 40077 333 10352 58031 70050=
41980,2023,05,17,00,00,AAXX 17004 41980 11950 40000 10222 20200 39985 40099 60196 70396 84030 333 56090 58030 70190 84362=
41980,2023,05,17,12,00,AAXX 17124 41980 11450 81302 10228 20200 39989 40103 60044 72162 8452/ 333 10341 56999 58022 70230 84616 88459=
41980,2023,05,17,18,00,AAXX 17184 41980 NIL=
41980,2023,05,18,00,00,AAXX 18004 41980 32950 61302 10262 20190 39998 40110 86030 333 56090 58013 70040 86362=
41980,2023,05,18,12,00,AAXX 18124 41980 11956 41302 10242 20200 39979 40092 60148 70162 84030 333 10290 56090 59010 70140 84362=
41980,2023,05,18,18,00,AAXX 18184 41980 NIL=
41984,2023,05,12,00,00,AAXX 12004 41984 02456 60000 10266 20266 30058 40060 83510 333 59002 70000 83618 85458==
41984,2023,05,12,03,00,AAXX 12034 41984 02457 80000 10330 20270 30071 40073 8352/ 333 10263 59013 70000 83618 88458==
41984,2023,05,12,06,00,AAXX 12064 41984 02458 61801 10356 20260 30065 40067 83510 333 59014 70000 83618 85458==
41984,2023,05,12,09,00,AAXX 12094 41984 02458 61802 10354 20260 30029 40031 83510 333 59020 70000 83618 85458==
41984,2023,05,12,12,00,AAXX 12124 41984 02457 81802 10321 20270 30027 40029 8352/ 333 20364 59014 70000 83618 88458==
41984,2023,05,12,15,00,AAXX 12154 41984 02440 60000 10300 20270 30055 40057 333 59003 70000 83618 85458==
41984,2023,05,12,18,00,AAXX 12184 41984 02440 70000 10290 20260 30052 40054 83510 333 59011 70000 83618 86458==
41984,2023,05,12,21,00,AAXX 12214 41984 01340 80000 10250 20240 30035 40037 76122 8672/ 333 59020 70020 83708 84615 88456==
41984,2023,05,13,00,00,AAXX 13004 41984 21456 80000 10264 20250 30035 40037 70262 8352/ 333 59023 60025 70020 83618 88458==
41984,2023,05,13,03,00,AAXX 13034 41984 02456 80000 10280 20240 30052 40054 8352/ 333 20245 59019 70020 83618 88458==
41984,2023,05,13,06,00,AAXX 13064 41984 02456 80000 10294 20250 30046 40048 8352/ 333 59019 70020 83618 88458==
41984,2023,05,13,09,00,AAXX 13094 41984 02457 80000 10300 20250 30021 40023 8352/ 333 59008 70020 83618 88458==
41984,2023,05,13,12,00,AAXX 13124 41984 02457 80000 10288 20250 30008 40010 8352/ 333 10305 59019 70020 83618 88458==
41984,2023,05,13,15,00,AAXX 13154 41984 02440 80902 10281 20240 30023 40025 8352/ 333 59032 70020 83618 88458==
41984,2023,05,13,18,00,AAXX 13184 41984 02440 80902 10266 20250 30016 40018 8352/ 333 59036 70020 83618 88458==
41984,2023,05,13,21,00,AAXX 13214 41984 02440 80000 10260 20250 39993 49995 8352/ 333 59042 70000 83618 88458==
41984,2023,05,14,00,00,AAXX 14004 41984 02450 80000 10252 20250 39982 49984 8352/ 333 59053 70000 83618 88458==
41984,2023,05,14,03,00,AAXX 14034 41984 01356 83602 10250 20240 39988 49990 76162 8672/ 333 20245 59064 70030 83708 84615 88456==
41984,2023,05,14,06,00,AAXX 14064 41984 01356 80904 10279 20230 39976 49978 76062 8672/ 333 59070 70030 83708 84615 88456==
41984,2023,05,14,09,00,AAXX 14094 41984 01456 81302 10271 20220 39939 49941 70262 8352/ 333 59082 70035 83618 88458==
41984,2023,05,14,12,00,AAXX 14124 41984 11456 80000 10286 20220 39960 49962 60016 70262 8352/ 333 10287 59048 70035 83618 88458==
41984,2023,05,14,15,00,AAXX 14154 41984 02440 80000 10266 20220 39992 49994 8352/ 333 59031 70035 83618 88458==
41984,2023,05,14,18,00,AAXX 14184 41984 02440 80000 10249 20220 39999 40001 8352/ 333 59017 70035 83618 88458==
41984,2023,05,15,00,00,AAXX 15004 41984 02456 80000 10220 20210 30026 40028 8352/ 333 58044 70035 83618 88458==
41984,2023,05,15,03,00,AAXX 15034 41984 02457 30000 10308 20220 30040 40042 83500 333 10209 58052 70005 83618==
41984,2023,05,15,06,00,AAXX 15064 41984 02457 30000 10330 20230 30043 40045 83500 333 58067 70005 83618==
41984,2023,05,15,09,00,AAXX 15094 41984 02457 30000 10321 20240 30026 40028 83500 333 58087 70000 83618==
41984,2023,05,15,12,00,AAXX 15124 41984 02456 30000 10300 20250 30018 40020 83500 333 10340 58058 70000 83618==
41984,2023,05,15,15,00,AAXX 15154 41984 02340 82914 10237 20230 30072 40074 59504 8692/ 333 58080 70020 83708 84615 88456 81925==
41984,2023,05,15,18,00,AAXX 15184 41984 21340 80000 10240 20230 30052 40054 76196 8662/ 333 58053 60037 70030 83708 84615 88456==
41984,2023,05,15,21,00,AAXX 15214 41984 02440 80000 10265 20250 30060 40062 8352/ 333 58046 70030 83618 88458==
41984,2023,05,16,00,00,AAXX 16004 41984 02456 80000 10267 20240 30069 40071 8352/ 333 58043 70030 83618 88458==
41984,2023,05,16,03,00,AAXX 16034 41984 02457 81802 10328 20270 30061 40063 8352/ 333 20233 58021 70030 83618 88458==
41984,2023,05,16,06,00,AAXX 16064 41984 02457 81804 10328 20270 30067 40069 8352/ 333 58024 70030 83618 88458==
41984,2023,05,16,09,00,AAXX 16094 41984 02457 61306 10329 20270 30055 40057 333 58029 70030 83618 85458==
41984,2023,05,16,12,00,AAXX 16124 41984 02457 51305 10310 20260 30042 40044 82510 333 10335 58024 70030 82618 84458==
41984,2023,05,16,15,00,AAXX 16154 41984 02440 50000 10300 20280 30070 40072 83510 333 59002 70010 83618 85458==
41984,2023,05,16,18,00,AAXX 16184 41984 21440 80000 10240 20240 30071 40073 70396 8352/ 333 58019 60147 70140 83618 88458==
41984,2023,05,16,21,00,AAXX 16214 41984 02440 81302 10284 20250 30067 40069 8352/ 333 58007 70140 83618 88458==
41984,2023,05,17,00,00,AAXX 17004 41984 02456 80000 10284 20260 30063 40065 8352/ 333 59006 70140 83618 88458==
41984,2023,05,17,03,00,AAXX 17034 41984 02457 81808 10301 20270 30082 40084 8352/ 333 20231 58021 70140 83618 88458==
41984,2023,05,17,06,00,AAXX 17064 41984 02457 81810 10317 20280 30076 40078 8352/ 333 58009 70140 83618 88458==
41984,2023,05,17,09,00,AAXX 17094 41984 02457 81804 10320 20280 30070 40072 8352/ 333 58015 70140 83618 88458==
41984,2023,05,17,12,00,AAXX 17124 41984 02456 81405 10274 20240 30072 40074 8352/ 333 10330 58030 70140 83618 88458==
41984,2023,05,17,15,00,AAXX 17154 41984 02440 50000 10277 20270 30087 40089 83510 333 58017 70140 83618 85458==
41984,2023,05,17,18,00,AAXX 17184 41984 01440 81405 10248 20240 30092 40094 72996 8352/ 333 58021 70170 83618 88458==
41984,2023,05,17,21,00,AAXX 17214 41984 02440 80000 10250 20240 30091 40093 8352/ 333 58024 70170 83618 88458==
41984,2023,05,18,00,00,AAXX 18004 41984 02456 80000 10251 20240 30084 40086 8352/ 333 58021 70170 83618 88458==
41984,2023,05,18,03,00,AAXX 18034 41984 02456 81811 10218 20210 30116 40118 8352/ 333 20215 58034 70170 83618 88458==
41984,2023,05,18,06,00,AAXX 18064 41984 21356 81402 10234 20230 30097 40099 79596 8692/ 333 58021 60327 70490 83707 84615 88456==
41984,2023,05,18,09,00,AAXX 18094 41984 02457 51402 10291 20220 30077 40079 83510 333 58007 70490 83618 85458==
41984,2023,05,18,12,00,AAXX 18124 41984 11456 50000 10275 20250 30069 40071 60016 70262 83510 333 10297 59003 70500 83618 85458==
41984,2023,05,18,15,00,AAXX 18154 41984 02440 50000 10260 20250 30092 40094 82530 333 58005 70500 82618 83362==
41984,2023,05,18,18,00,AAXX 18184 41984 21440 81810 10270 20260 30058 40060 70362 8352/ 333 59034 60015 70340 83618 88458==
41984,2023,05,18,21,00,AAXX 18214 41984 02440 80000 10260 20250 30055 40057 8352/ 333 59036 70340 83618 88458==
41989,2023,05,12,00,00,AAXX 12004 41989 02450 30000 10273 20250 30086 40089 82530 333 58029 70000 82618 83362==
41989,2023,05,12,03,00,AAXX 12034 41989 02450 41304 10312 20260 30086 40089 82530 333 20265 59004 70000 82618 84362==
41989,2023,05,12,06,00,AAXX 12064 41989 02450 41803 10298 20260 30090 40093 83500 333 58009 70000 83618 83362==
41989,2023,05,12,09,00,AAXX 12094 41989 02456 51705 10327 20260 30048 40051 83570 333 58010 70000 83618 83362==
41989,2023,05,12,12,00,AAXX 12124 41989 02450 51803 10297 20230 30039 40042 82570 333 10342 59013 70000 82618 83460==
41989,2023,05,12,15,00,AAXX 12154 41989 02450 61803 10290 20240 30069 40072 83570 333 58006 70000 83618 84460==
41989,2023,05,12,18,00,AAXX 12184 41989 02440 63202 10280 20240 30064 40067 83430 333 59009 70000 82618 83362==
41989,2023,05,12,21,00,AAXX 12214 41989 02440 61803 10270 20250 30058 40061 84470 333 59025 70000 84618 84460==
41989,2023,05,13,00,00,AAXX 13004 41989 02440 71804 10260 20240 30056 40060 84470 333 59013 70000 83618 85456==
41989,2023,05,13,03,00,AAXX 13034 41989 01450 71703 10285 20230 30063 40066 70162 84430 333 20245 59023 70020 83618 85460==
41989,2023,05,13,06,00,AAXX 13064 41989 11450 61305 10300 20230 30053 40056 60026 70162 82570 333 59037 70020 82618 84460==
41989,2023,05,13,09,00,AAXX 13094 41989 01350 81806 10290 20240 30034 40037 76361 8532/ 333 59014 70040 82708 83614 88456 81929==
41989,2023,05,13,12,00,AAXX 13124 41989 01340 81405 10265 20240 30028 40031 76162 8532/ 333 10305 59011 70050 83708 83618 88456 81928==
41989,2023,05,13,15,00,AAXX 13154 41989 01440 81303 10251 20230 30027 40030 76162 8572/ 333 59042 70070 82710 83614 88456==
41989,2023,05,13,18,00,AAXX 13184 41989 21440 61402 10250 20220 30021 40024 70162 83570 333 59043 60038 70080 83618 84460==
41989,2023,05,13,21,00,AAXX 13214 41989 02440 51804 10248 20220 30021 40024 82570 333 59037 70080 82618 83460==
41989,2023,05,14,00,00,AAXX 14004 41989 02440 71803 10245 20210 30019 40022 83570 333 59037 70080 83618 85460==
41989,2023,05,14,03,00,AAXX 14034 41989 01340 81703 10237 20220 39979 49982 76162 8572/ 333 20220 59084 70090 82710 83614 88456==
41989,2023,05,14,06,00,AAXX 14064 41989 01340 80506 10235 20220 39963 49966 76362 8572/ 333 59090 70130 83708 83614 88456==
41989,2023,05,14,09,00,AAXX 14094 41989 01330 81308 10238 20210 39901 49904 76166 8572/ 333 59133 70140 82709 83614 88456==
41989,2023,05,14,12,00,AAXX 14124 41989 22330 81409 10243 20220 39935 49938 59093 88456 333 60119==
41989,2023,05,14,15,00,AAXX 14154 41989 02440 61406 10255 20230 39995 49998 84470 333 59032 70230 81618 84460==
41989,2023,05,14,18,00,AAXX 14184 41989 01340 81805 10245 20230 30002 40005 76162 8572/ 333 59019 70350 83708 83614 88456==
41989,2023,05,15,03,00,AAXX 15034 41989 02450 51402 10250 20220 30043 40046 83530 333 20218 58064 70220 83618 84362==
41989,2023,05,15,06,00,AAXX 15064 41989 02456 21303 10303 20240 30056 40059 83500 333 58093 70180 82618==
41989,2023,05,15,09,00,AAXX 15094 41989 02450 31804 10325 20250 30039 40042 83500 333 58135 70150 83618==
41989,2023,05,15,12,00,AAXX 15124 41989 02450 31803 10350 20260 30034 40037 83500 333 10335 58099 70030 83618==
41989,2023,05,15,15,00,AAXX 15154 41989 02450 21704 10293 20260 30052 40056 82500 333 58057 70030 82618==
41989,2023,05,15,18,00,AAXX 15184 41989 02450 21302 10287 20260 30061 40064 82500 333 58059 70000==
41989,2023,05,16,00,00,AAXX 16004 41989 21450 31305 10250 20220 30052 40056 70262 82530 333 58068 60085 70080 82618 83682==
41989,2023,05,16,03,00,AAXX 16034 41989 02458 21304 10312 20250 30073 40076 82500 333 20242 58030 70080 82618==
41989,2023,05,16,06,00,AAXX 16064 41989 02450 31804 10335 20230 30080 40083 83500 333 58024 70080 83618==
41989,2023,05,16,09,00,AAXX 16094 41989 02456 21805 10330 20230 30069 40072 82500 333 58030 70080 82618==
41989,2023,05,16,12,00,AAXX 16124 41989 02450 41303 10313 20240 30060 40063 82530 333 10340 58026 70080 82618 84362==
41989,2023,05,17,00,00,AAXX 17004 41989 NIL=
41989,2023,05,17,03,00,AAXX 17034 41989 02450 31402 10298 20220 30096 40099 83500 333 20238 58023 70020 82618==
41989,2023,05,17,06,00,AAXX 17064 41989 02456 21306 10330 20210 30095 40098 82500 333 58015 70170 82618==
41989,2023,05,17,09,00,AAXX 17094 41989 02450 51803 10328 20240 30085 40088 333 58016 70170 83618 83362==
41989,2023,05,17,12,00,AAXX 17124 41989 01450 61306 10250 20210 30085 40088 70362 83570 333 10337 58025 70000 83618 84460==
41989,2023,05,17,15,00,AAXX 17154 41989 01450 61405 10257 20220 30076 40079 70262 82570 333 59002 70250 82618 84460==
41989,2023,05,17,18,00,AAXX 17184 41989 11450 51303 10250 20230 30098 40101 60086 70162 82570 333 58009 70250 82618 83362==
41989,2023,05,17,21,00,AAXX 17214 41989 02450 41402 10252 20220 30092 40095 82530 333 58019 70250 82618 83362==
41989,2023,05,18,00,00,AAXX 18003 41989 02450 41302 10252 20220 30085 40088 82530 333 58029 70080 82618 84362==
41989,2023,05,18,03,00,AAXX 18034 41989 02456 51304 10302 20230 30125 40128 82570 333 20240 58029 70080 83618 83362==
41989,2023,05,18,06,00,AAXX 18064 41989 01350 81403 10250 20220 30144 40147 76162 8572/ 333 58049 70080 82708 83614 88456==
41989,2023,05,18,09,00,AAXX 18094 41989 01440 71806 10228 20210 30103 40106 72162 83570 333 58018 70210 83618 85460==
41989,2023,05,18,12,00,AAXX 18124 41989 21456 31403 10253 20210 30088 40091 70162 82530 333 10312 58008 60058 70210 82618 83362==
41989,2023,05,18,15,00,AAXX 18154 41989 02450 31403 10230 20210 30099 40102 83510 333 58023 70130 83618==
41989,2023,05,18,18,00,AAXX 18184 41989 NIL=
41989,2023,05,18,21,00,AAXX 18214 41989 02440 31302 10210 20190 30100 40103 83500 333 58008 70130 83618==
41992,2023,05,12,00,00,AAXX 12004 41992 01425 40000 10275 20250 30078 40080 70511 84500 333 59006 70000 84616==
41992,2023,05,12,03,00,AAXX 12034 41992 01/30 23302 10332 20230 30087 40089 70511 82030 333 20275 59015 70000 82362==
41992,2023,05,12,06,00,AAXX 12064 41992 01435 63303 10332 20250 30076 40078 70521 84530 333 59015 70000 84616 86362==
41992,2023,05,12,09,00,AAXX 12094 41992 41420 83305 10290 20240 30055 40057 76122 8592/ 333 58010 84614 88458 81925==
41992,2023,05,12,12,00,AAXX 12124 41992 21420 83305 10285 20260 30053 40055 70562 8432/ 333 10345 59001 60095 70090 83616 88460 81925==
41992,2023,05,12,15,00,AAXX 12154 41992 01425 63302 10275 20230 30072 40074 70522 84530 333 59006 70090 84616 86362==
41992,2023,05,12,18,00,AAXX 12184 41992 01420 63302 10270 20240 30065 40067 70522 84530 333 59013 70090 84615 86360==
41992,2023,05,12,21,00,AAXX 12214 41992 01420 63302 10268 20240 30048 40050 70522 84520 333 59024 70090 84615 86460==
41992,2023,05,13,00,00,AAXX 13004 41992 01320 83305 10245 20240 30060 40062 75162 8592/ 333 59018 70020 82710 84614 88458 81925==
41992,2023,05,13,03,00,AAXX 13034 41992 01420 80000 10260 20240 30063 40065 76165 8592/ 333 20241 59024 70140 84614 88458 81925==
41992,2023,05,13,06,00,AAXX 13064 41992 21420 80000 10280 20240 30057 40059 76165 8592/ 333 59019 60039 70140 84614 88458 81925==
41992,2023,05,13,09,00,AAXX 13094 41992 01320 83308 10283 20230 30028 40030 75166 8432/ 333 59027 70140 82708 84614 88458 81925==
41992,2023,05,13,12,00,AAXX 13124 41992 21320 83303 10262 20230 30029 40031 75165 8432/ 333 10290 59024 60009 70050 82708 84614 88458 81925==
41992,2023,05,13,15,00,AAXX 13154 41992 01320 83304 10248 20230 30033 40035 75165 8592/ 333 59039 70060 82708 84614 88458 81925==
41992,2023,05,13,18,00,AAXX 13184 41992 21320 83303 10250 20230 30023 40025 75165 8592/ 333 59042 60019 70060 82708 84614 88458 81925==
41992,2023,05,13,21,00,AAXX 13214 41992 01320 83308 10250 20220 30003 40005 75165 8592/ 333 59045 70060 82708 84614 88458 81925==
41992,2023,05,14,00,00,AAXX 14004 41992 21320 83310 10235 20220 39973 49975 76165 8692/ 333 59087 60039 70070 82708 84613 88457 81925==
41992,2023,05,14,03,00,AAXX 14034 41992 01315 83312 10233 20220 39964 49966 76166 8592/ 333 20228 59099 70140 83707 85613 88458 81925==
41992,2023,05,14,06,00,AAXX 14064 41992 21320 83316 10237 20210 39929 49931 76166 8592/ 333 59128 60129 70160 83707 85613 88458 81925==
41992,2023,05,14,09,00,AAXX 14094 41992 01320 83318 10230 20210 39876 49878 76166 8692/ 333 59052 70190 82708 84613 88458 81925==
41992,2023,05,14,12,00,AAXX 14124 41992 21320 83312 10230 20210 39846 49848 76166 8592/ 333 10243 59083 60149 70300 82708 84614 88458 81925==
41992,2023,05,14,15,00,AAXX 14154 41992 01420 83305 10230 20220 39994 49996 76166 8592/ 333 59038 70320 84614 88458 81925==
41992,2023,05,14,18,00,AAXX 14184 41992 21420 80000 10238 20230 30018 40020 76166 8592/ 333 59005 60049 70330 84614 88458 81925==
41992,2023,05,14,21,00,AAXX 14214 41992 01420 80000 10230 20220 30012 40014 75155 8492/ 333 58015 70330 83614 88458 81925==
41992,2023,05,15,00,00,AAXX 15004 41992 21425 60000 10220 20210 30042 40044 71052 84520 333 58069 60008 70300 84616 86460==
41992,2023,05,15,03,00,AAXX 15034 41992 01/30 21806 10288 20240 30062 40064 70522 82030 333 20220 58098 70200 82362==
41992,2023,05,15,06,00,AAXX 15064 41992 01935 01806 10313 20250 30063 40065 70521 333 58092 70180==
41992,2023,05,15,09,00,AAXX 15094 41992 01935 02105 10310 20260 30048 40050 70500 333 58172 70150==
41992,2023,05,15,12,00,AAXX 15124 41992 01430 62105 10300 20240 30046 40048 70520 83520 333 10315 58200 70040 83616 86460==
41992,2023,05,15,15,00,AAXX 15154 41992 01425 62106 10292 20270 30068 40070 70522 84520 333 58074 70010 84615 86460==
41992,2023,05,15,18,00,AAXX 15184 41992 41425 72104 10286 20280 30068 40070 70522 84530 333 58050 84615 87360==
41992,2023,05,15,21,00,AAXX 15214 41992 01420 82105 10260 20240 30057 40059 70562 8492/ 333 58045 70020 84615 88458 81925==
41992,2023,05,16,00,00,AAXX 16004 41992 01425 62103 10240 20220 30062 40064 70562 84530 333 58020 70020 84615 86360==
41992,2023,05,16,03,00,AAXX 16034 41992 01930 02105 10290 20220 30090 40092 70520 333 20235 58028 70020==
41992,2023,05,16,06,00,AAXX 16064 41992 01935 02110 10320 20230 30093 40095 70520 333 58030 70020==
41992,2023,05,16,09,00,AAXX 16094 41992 01935 02106 10308 20240 30084 40086 70500 333 58036 70020==
41992,2023,05,16,11,00,AAXX 16114 41992 NIL=
41992,2023,05,16,12,00,AAXX 16124 41992 01930 02104 10288 20240 30078 40080 70500 333 10323 58032 70020==
41992,2023,05,16,15,00,AAXX 16154 41992 01925 02103 10280 20240 30097 40099 70500 333 58029 70020==
41992,2023,05,16,18,00,AAXX 16184 41992 01925 02104 10274 20240 30099 40101 70500 333 58031 70020==
41992,2023,05,16,21,00,AAXX 16214 41992 01420 82105 10235 20220 30089 40091 72196 8592/ 333 58032 70280 84615 88460 81925==
41992,2023,05,17,00,00,AAXX 17004 41992 01425 62103 10225 20210 30094 40096 70596 84520 333 58032 70280 84615 86460==
41992,2023,05,17,03,00,AAXX 17034 41992 01930 02103 10283 20210 30111 40113 70522 333 20220 58021 70280==
41992,2023,05,17,06,00,AAXX 17064 41992 01935 02108 10317 20220 30105 40107 70500 333 58012 70280==
41992,2023,05,17,09,00,AAXX 17094 41992 01430 62106 10320 20220 30093 40095 70522 84520 333 58009 70280 84615 86360==
41992,2023,05,17,12,00,AAXX 17124 41992 01425 82112 10250 20210 30108 40110 70522 8592/ 333 10330 58030 70280 84615 88460 81925==
41992,2023,05,17,15,00,AAXX 17154 41992 01425 82105 10255 20230 30092 40094 76122 8592/ 333 59005 70310 84614 88458 81925==
41992,2023,05,17,18,00,AAXX 17184 41992 21425 60000 10248 20220 30121 40123 70565 84320 333 58022 60037 70310 83616 86460 81925==
41992,2023,05,17,21,00,AAXX 17214 41992 01425 60000 10245 20230 30111 40113 70522 84320 333 58022 70030 83616 86460 81925==
41992,2023,05,18,00,00,AAXX 18004 41992 01425 60505 10245 20230 30103 40105 70522 84320 333 58009 70030 83616 86460 81925==
41992,2023,05,18,03,00,AAXX 18034 41992 01930 01806 10303 20240 30129 40131 70522 333 20240 58018 70030==
41992,2023,05,18,06,00,AAXX 18064 41992 01320 83608 10222 20210 30146 40148 79521 8592/ 333 58041 70100 83707 85613 88458 81925==
41992,2023,05,18,09,00,AAXX 18094 41992 01420 80305 10225 20220 30118 40120 76166 8592/ 333 58025 70220 84614 88458 81925==
41992,2023,05,18,12,00,AAXX 18124 41992 21425 60305 10247 20210 30083 40085 70566 84320 333 10320 59025 60098 70220 83616 86460 81925==
41992,2023,05,18,15,00,AAXX 18154 41992 01925 01202 10230 20210 30098 40100 70520 333 58006 70190==
41992,2023,05,18,18,00,AAXX 18184 41992 01925 60000 10228 20210 30100 40102 70521 84530 333 59021 70190 84616 86362==
41992,2023,05,18,21,00,AAXX 18214 41992 01425 60000 10226 20210 30076 40078 70522 84530 333 59035 70190 84616 86362==
41998,2023,05,12,00,00,AAXX 12004 41998 NIL=
41998,2023,05,12,03,00,AAXX 12034 41998 02456 80000 10298 20260 30042 40048 8442/ 333 20259 58006 70000 83618 88458==
41998,2023,05,12,06,00,AAXX 12064 41998 NIL=
41998,2023,05,12,09,00,AAXX 12094 41998 02456 82302 10292 20270 30030 40036 8442/ 333 58003 70000 83618 88458==
41998,2023,05,12,12,00,AAXX 12124 41998 02456 80000 10280 20250 30044 40050 8442/ 333 10341 58002 70000 83618 88458==
41998,2023,05,12,18,00,AAXX 12184 41998 NIL=
41998,2023,05,13,00,00,AAXX 13004 41998 21456 80000 10258 20250 30052 40058 76261 8442/ 333 58012 60079 70070 83616 88456==
41998,2023,05,13,03,00,AAXX 13034 41998 01456 80000 10275 20250 30040 40046 76261 8442/ 333 20248 58004 70100 83616 88456==
41998,2023,05,13,06,00,AAXX 13064 41998 NIL=
41998,2023,05,13,09,00,AAXX 13094 41998 01456 82302 10290 20240 30013 40019 76166 8442/ 333 59019 70120 83616 88456==
41998,2023,05,13,12,00,AAXX 13124 41998 21456 81203 10278 20250 30021 40027 76166 8442/ 333 10310 59011 60049 70150 83616 88456==
41998,2023,05,13,15,00,AAXX 13154 41998 01456 81604 10268 20250 30031 40037 76166 8442/ 333 59008 70190 83616 88456==
41998,2023,05,13,18,00,AAXX 13184 41998 21456 80000 10250 20220 30001 40007 76166 8442/ 333 59041 60079 70220 83616 88456==
41998,2023,05,13,21,00,AAXX 13214 41998 01456 80000 10252 20230 39967 49973 70262 8442/ 333 59078 70240 83616 88456==
41998,2023,05,14,00,00,AAXX 14004 41998 01456 80000 10251 20240 39957 49963 72162 8442/ 333 59097 70220 83616 88456==
41998,2023,05,14,03,00,AAXX 14034 41998 01456 80612 10254 20230 39928 49934 76166 8442/ 333 20246 59108 70220 83616 88456==
41998,2023,05,14,06,00,AAXX 14064 41998 21456 83524 10252 20240 39875 49881 76166 8442/ 333 59152 60059 70230 83616 88456==
41998,2023,05,14,12,00,AAXX 14124 41998 21456 80304 10253 20230 39925 49931 76166 8442/ 333 10264 59096 60069 70250 83616 88456==
41998,2023,05,14,15,00,AAXX 14154 41998 01456 80000 10254 20230 39999 40005 72166 8442/ 333 59032 70230 83616 88456==
41998,2023,05,15,03,00,AAXX 15034 41998 02456 20000 10306 20230 30059 40065 82400 333 20236 58131 70100 82618==
41998,2023,05,15,06,00,AAXX 15064 41998 NIL=
41998,2023,05,15,09,00,AAXX 15094 41998 02456 40000 10308 20230 30041 40047 84370 333 58073 70050 82618 83458==
41998,2023,05,15,12,00,AAXX 15124 41998 02456 40000 10290 20240 30032 40038 83470 333 10320 58107 70020 82618 83458==
41998,2023,05,15,18,00,AAXX 15184 41998 NIL=
41998,2023,05,16,09,00,AAXX 16094 41998 02456 50000 10313 20260 30059 40065 83470 333 58027 70030 82618 83458==
41998,2023,05,16,12,00,AAXX 16124 41998 02456 30000 10302 20260 30066 40072 83400 333 10335 58034 70030 83618==
41998,2023,05,17,00,00,AAXX 17004 41998 01456 80000 10263 20240 30062 40068 72162 8442/ 333 58016 70120 83618 88458==
41998,2023,05,17,03,00,AAXX 17034 41998 02956 00000 10293 20240 30051 40057 333 20246 58014 70120==
41998,2023,05,17,09,00,AAXX 17094 41998 02956 00000 10310 20270 30076 40082 333 58017 70120==
41998,2023,05,17,12,00,AAXX 17124 41998 02456 80000 10297 20260 30078 40084 8447/ 333 10336 58012 70120 83618 88458==
41998,2023,05,17,18,00,AAXX 17184 41998 NIL=
41998,2023,05,18,00,00,AAXX 18004 41998 NIL=
41998,2023,05,18,03,00,AAXX 18034 41998 02456 60000 10296 20250 30061 40067 83470 333 20250 58010 70000 82618 83458==
41998,2023,05,18,09,00,AAXX 18094 41998 01456 80000 10290 20240 30096 40100 76162 8442/ 333 58018 70160 83616 88456==
41998,2023,05,18,12,00,AAXX 18124 41998 21456 40000 10282 20260 30104 40110 70162 83470 333 10320 58026 60108 70200 82618 83458==
41998,2023,05,18,18,00,AAXX 18184 41998 NIL=
