ESTACION,ANO,MES,DIA,HORA,MINUTO,PARTE
41850,2024,10,04,00,00,AAXX 04004 41850 11425 81203 10242 20230 39950 40049 60014 76122 8352/ 333 56999 58013 70005 83615 88458=
41850,2024,10,04,06,00,AAXX 04064 41850 11450 60506 10282 20240 39969 40066 69904 70562 82530 333 56190 58015 70005 82618 86360=
41850,2024,10,04,12,00,AAXX 04124 41850 31450 80000 10272 20250 39948 40046 70522 8352/ 333 10298 56999 58011 70005 83616 88458=
41850,2024,10,04,18,00,AAXX 04184 41850 31440 80402 10260 20230 39973 40071 70522 8352/ 333 56999 58013 70005 83616 88458=
41850,2024,10,05,00,00,AAXX 05004 41850 31450 70403 10241 20230 39969 40068 70522 83520 333 56990 58019 70000 83617 87458=
41850,2024,10,05,06,00,AAXX 05064 41850 32456 80803 10275 20240 39992 40090 8352/ 333 56999 58023 70000 83617 88458=
41850,2024,10,05,12,00,AAXX 05124 41850 32450 70802 10265 20240 39977 40075 83520 333 10302 56990 58029 70000 83617 87458=
41850,2024,10,05,18,00,AAXX 05184 41850 31440 80000 10253 20230 30002 40101 70522 8352/ 333 56999 58029 70000 83617 88458=
41850,2024,10,06,00,00,AAXX 06004 41850 31450 80000 10245 20240 30008 40107 70522 8352/ 333 56999 58039 70000 83617 88458=
41850,2024,10,06,06,00,AAXX 06064 41850 32456 70803 10290 20230 30023 40121 83520 333 56990 58031 70000 83617 87458=
41850,2024,10,06,12,00,AAXX 06124 41850 31450 20000 10265 20250 30002 40100 70521 82500 333 10308 56900 58025 70000 82618=
41850,2024,10,06,18,00,AAXX 06184 41850 31440 60000 10248 20240 30029 40128 70522 83520 333 56990 58027 70000 83618 86458=
41850,2024,10,07,00,00,AAXX 07004 41850 31450 52202 10234 20220 30037 40137 70522 82520 333 56990 58029 70000 82618 85458=
41850,2024,10,07,06,00,AAXX 07064 41850 32456 41802 10310 20230 30039 40136 82510 333 56990 58016 70000 82618 84460=
41850,2024,10,07,12,00,AAXX 07124 41850 32450 20000 10282 20260 30006 40104 82500 333 10328 56900 58004 70000 82618=
41850,2024,10,07,18,00,AAXX 07184 41850 31440 50000 10258 20250 30030 40129 70522 83520 333 56990 58001 70000 83618 85458=
41850,2024,10,08,00,00,AAXX 08004 41850 31430 60000 10250 20240 30027 40126 70522 83520 333 56990 59010 70000 83618 86458=
41850,2024,10,08,06,00,AAXX 08064 41850 32456 51802 10310 20240 30027 40124 83520 333 56990 59012 70000 83618 85458=
41850,2024,10,08,12,00,AAXX 08124 41850 32450 52003 10288 20260 39991 40089 83520 333 10332 56990 59015 70000 83617 85458=
41850,2024,10,08,18,00,AAXX 08184 41850 31440 60000 10265 20260 30014 40112 70522 83520 333 56990 59016 70000 83618 86458=
41850,2024,10,09,00,00,AAXX 09004 41850 31440 61502 10250 20240 30003 40102 70522 83520 333 56990 59024 70000 83618 86458=
41850,2024,10,09,06,00,AAXX 09064 41850 32456 51802 10298 20250 30017 40114 82510 333 56990 59010 70000 82618 85460=
41850,2024,10,09,12,00,AAXX 09124 41850 31450 60000 10283 20260 39966 40066 82510 333 10327 56990 59022 70000 82618 86458=
41850,2024,10,09,18,00,AAXX 09184 41850 31440 60000 10260 20240 39992 40091 70522 82510 333 56990 59022 70000 82618 86458=
41850,2024,10,10,00,00,AAXX 10004 41850 11440 80000 10239 20230 39991 40090 60044 70562 8352/ 333 56999 59012 70040 83618 88458=
41850,2024,10,10,06,00,AAXX 10064 41850 32456 80000 10305 20240 30085 40082 8352/ 333 56999 59032 70040 83618 88458=
41850,2024,10,10,12,00,AAXX 10124 41850 NIL=
41850,2024,10,10,18,00,AAXX 10184 41850 31440 00000 10261 20250 39977 40076 70500 333 59015 70040=
41851,2024,10,04,00,00,AAXX 04004 41851 32450 80903 10250 20230 39986 40049 8352/ 333 56999 58010 70075 83618 88458=
41851,2024,10,04,06,00,AAXX 04064 41851 32350 80904 10273 20240 39997 40060 8462/ 333 56299 58011 70075 81708 84616 88456=
41851,2024,10,04,12,00,AAXX 04124 41851 32350 80904 10265 20240 39981 40044 8462/ 333 10285 56399 58015 70000 81708 84617 88457=
41851,2024,10,04,18,00,AAXX 04184 41851 32350 80908 10252 20230 30005 40068 8462/ 333 56399 58013 70000 81709 83617 88457=
41851,2024,10,05,00,00,AAXX 05004 41851 11350 80905 10240 20230 30005 40068 60024 72162 8462/ 333 56399 58019 70022 81709 84616 88456=
41851,2024,10,05,06,00,AAXX 05064 41851 32350 80905 10270 20240 30026 40089 333 56299 58029 70022 81709 83617 88457=
41851,2024,10,05,12,00,AAXX 05124 41851 32350 80905 10260 20240 30009 40072 8462/ 333 10275 56299 58028 70022 81709 84617 88457=
41851,2024,10,05,18,00,AAXX 05184 41851 32350 80903 10253 20240 30037 40100 8462/ 333 56299 58032 70022 81709 83617 88457=
41851,2024,10,06,00,00,AAXX 06004 41851 11350 80903 10246 20240 30049 40112 69964 70262 8462/ 333 56299 58044 70006 81709 83617 88456=
41851,2024,10,06,06,00,AAXX 06064 41851 32350 80904 10264 20240 30062 40125 8462/ 333 56299 58036 70006 81709 83617 88457=
41851,2024,10,06,12,00,AAXX 06124 41851 32350 80901 10268 20250 30037 40100 8462/ 333 10280 56299 58028 70000 81709 83617 88457=
41851,2024,10,06,18,00,AAXX 06184 41851 32450 40000 10245 20240 30063 40126 82510 333 56990 58026 70006 82618 84458=
41851,2024,10,07,00,00,AAXX 07004 41851 32350 80000 10245 20240 30074 40137 8462/ 333 56599 58025 70000 81709 83617 88457=
41851,2024,10,07,06,00,AAXX 07064 41851 32450 40901 10300 20250 30077 40140 82430 333 56990 58015 70000 81618 83362=
41851,2024,10,07,12,00,AAXX 07124 41851 31440 20000 10298 20260 30042 40104 70521 82500 333 20325 56900 58005 70000 82618=
41851,2024,10,07,18,00,AAXX 07184 41851 31940 00000 10265 20260 30065 40128 70510 333 58002 70000=
41851,2024,10,08,00,00,AAXX 08004 41851 31430 20000 10250 20240 30062 40124 70510 82500 333 56900 59012 70000 82618=
41851,2024,10,08,06,00,AAXX 08064 41851 32450 51302 10322 20250 30063 40125 83510 333 56990 59014 70000 83618 84459=
41851,2024,10,08,12,00,AAXX 08124 41851 32450 30000 10295 20270 30026 40088 83500 333 10330 56900 59106 70000 83618=
41851,2024,10,08,18,00,AAXX 08184 41851 31350 81802 10265 20260 30050 40113 71710 8432/ 333 56999 59015 70000 81710 83616 81930 88458=
41851,2024,10,09,00,00,AAXX 09004 41851 31430 80000 10260 20250 30041 40104 70522 8352/ 333 56999 59021 70000 83618 88458=
41851,2024,10,09,06,00,AAXX 09064 41851 32450 61802 10308 20250 30047 40109 83510 333 56990 59016 70000 83618 84459=
41851,2024,10,09,12,00,AAXX 09124 41851 32450 51801 10295 20280 30006 40068 82510 333 10320 56990 59020 70000 82618 84459=
41851,2024,10,09,18,00,AAXX 09184 41851 11350 80000 10262 20250 30033 40096 60214 71796 8432/ 333 56999 59017 70205 81710 83616 81930 88458=
41851,2024,10,10,00,00,AAXX 10004 41851 11350 81801 10253 20250 30027 40090 60046 71796 8432/ 333 56999 59014 70247 81710 83616 81930 88458=
41851,2024,10,10,06,00,AAXX 10064 41851 32450 51801 10310 20250 30026 40088 83510 333 56990 59021 70247 83618 84459=
41851,2024,10,10,12,00,AAXX 10124 41851 31440 30000 10295 20260 30000 40062 70521 83500 333 10322 56900 59006 70247 83618=
41851,2024,10,10,18,00,AAXX 10184 41851 31440 31802 10254 20240 30019 40082 70511 83500 333 56900 59014 70042 83618=
41856,2024,10,04,00,00,AAXX 04004 41856 11430 80903 10245 20240 30004 40040 60024 70262 8562/ 333 56999 58006 70132 82710 84618 88457=
41856,2024,10,04,06,00,AAXX 04064 41856 32450 80903 10260 20240 30024 40059 8562/ 333 56999 58006 70132 82710 84618 88457=
41856,2024,10,04,12,00,AAXX 04124 41856 32430 80902 10257 20240 30008 40043 8362/ 333 10274 56399 58015 70020 82618 88457=
41856,2024,10,04,18,00,AAXX 04184 41856 11330 80902 10244 20230 30032 40068 60274 76362 8672/ 333 56299 58019 70288 84708 86614 88456=
41856,2024,10,05,00,00,AAXX 05004 41856 11340 80902 10238 20238 30030 40068 61119 76566 8672/ 333 56399 58008 71378 82708 84618 88456=
41856,2024,10,05,06,00,AAXX 05064 41856 11340 81402 10246 20246 30048 40084 60199 76366 8672/ 333 56399 58024 71570 82708 84618 88456=
41856,2024,10,05,12,00,AAXX 05124 41856 11430 80501 10250 20240 30038 40074 60109 72162 8662/ 333 10260 56199 58030 70167 83709 85615 88457=
41856,2024,10,05,18,00,AAXX 05184 41856 11320 80501 10244 20244 30064 40100 60919 79796 8692/ 333 56199 58032 72307 83708 85614 88456 82930=
41856,2024,10,06,00,00,AAXX 06004 41856 11430 80502 10245 20240 30068 40104 60459 70262 8662/ 333 56199 58038 71642 83709 85615 88457=
41856,2024,10,06,06,00,AAXX 06064 41856 32450 81301 10272 20250 30088 40124 8662/ 333 56399 58040 71450 83710 85618 88458=
41856,2024,10,06,12,00,AAXX 06124 41856 32450 50602 10266 20250 30066 40099 82530 333 10295 56290 58026 71350 82618 84362=
41856,2024,10,06,18,00,AAXX 06184 41856 31930 00502 10248 20248 30096 40132 70500 333 58032 70445=
41856,2024,10,07,00,00,AAXX 07004 41856 31330 80802 10250 20250 30097 40133 70522 8672/ 333 56399 58029 70000 83710 84618 88458=
41856,2024,10,07,06,00,AAXX 07064 41856 11450 51702 10306 20250 30102 40137 60048 70166 82530 333 56990 58014 70037 82618 83362=
41856,2024,10,07,12,00,AAXX 07124 41856 32950 00000 10288 20270 30070 40105 333 10330 58006 70037=
41856,2024,10,07,18,00,AAXX 07184 41856 31930 00000 10260 20250 30098 40134 70500 333 58002 70037=
41856,2024,10,08,00,00,AAXX 08004 41856 31440 80000 10262 20250 30090 40126 70522 8542/ 333 56999 59007 70037 84618 88458=
41856,2024,10,08,06,00,AAXX 08064 41856 32450 40000 10312 20250 30094 40129 84400 333 56900 59008 70000 82618 83830=
41856,2024,10,08,12,00,AAXX 08124 41856 31940 21601 10280 20250 30055 40090 70511 82030 333 10340 56090 59015 70139 83362=
41856,2024,10,08,18,00,AAXX 08184 41856 31940 21401 10260 20240 30082 40118 70511 82030 333 56090 59016 70000 82362=
41856,2024,10,09,00,00,AAXX 09004 41856 31440 61502 10252 20240 30069 40105 70522 84430 333 56990 59021 70000 83618 84458=
41856,2024,10,09,06,00,AAXX 09064 41856 32450 42101 10310 20260 30073 40108 82430 333 56990 59021 70000 81618 83362=
41856,2024,10,09,12,00,AAXX 09124 41856 31940 01501 10282 20240 30035 40070 70500 333 10325 59019 70000=
41856,2024,10,09,18,00,AAXX 09184 41856 31440 51502 10263 20240 30061 40097 70522 83430 333 56990 59021 70000 82618 83458=
41856,2024,10,10,00,00,AAXX 10004 41856 31430 70000 10244 20230 30056 40092 70522 85430 333 56990 59013 70000 84618 84458=
41856,2024,10,10,06,00,AAXX 10064 41856 32450 61601 10304 20250 30057 40092 84430 333 56990 59016 70000 83618 84458=
41856,2024,10,10,12,00,AAXX 10124 41856 11450 61402 10275 20260 30030 40065 60165 70262 83430 333 10323 56990 59005 70160 82618 85362=
41856,2024,10,10,18,00,AAXX 10184 41856 32430 41401 10252 20240 30047 40083 82430 333 56990 59014 70160 82618 83362=
41858,2024,10,04,00,00,AAXX 04004 41858 01350 80306 10258 20240 39994 40040 70522 8562/ 333 58003 70192 83708 85614 88458==
41858,2024,10,04,03,00,AAXX 04034 41858 01435 80906 10260 20240 30014 40060 72162 8552/ 333 20248 58001 70220 85615 88458==
41858,2024,10,04,06,00,AAXX 04064 41858 21440 80505 10298 20260 30011 40056 70562 8552/ 333 58010 60038 70042 85615 88458==
41858,2024,10,04,09,00,AAXX 04094 41858 01440 80508 10270 20250 39992 40037 70522 8452/ 333 58009 70030 84615 88458==
41858,2024,10,04,12,00,AAXX 04124 41858 11340 80905 10260 20240 39998 40044 60002 75022 8572/ 333 10298 58015 70030 84708 85614 88458==
41858,2024,10,04,15,00,AAXX 04154 41858 01340 80908 10262 20230 30022 40068 70552 8572/ 333 58016 70032 83708 85614 88458==
41858,2024,10,04,18,00,AAXX 04184 41858 01340 80906 10250 20230 30031 40077 75152 8572/ 333 58019 70004 83708 85614 88458==
41858,2024,10,04,21,00,AAXX 04214 41858 01335 80906 10246 20240 30013 40059 76162 8572/ 333 58013 70054 84708 85614 88458==
41858,2024,10,05,00,00,AAXX 05004 41858 21340 80908 10245 20240 30018 40064 70562 8572/ 333 58024 60167 70190 84708 85614 88458==
41858,2024,10,05,03,00,AAXX 05034 41858 01440 80906 10258 20240 30041 40087 70562 8552/ 333 20235 58027 70170 85615 88458==
41858,2024,10,05,06,00,AAXX 05064 41858 11450 80908 10284 20250 30039 40084 60016 70562 8452/ 333 58028 70170 84616 88458==
41858,2024,10,05,09,00,AAXX 05094 41858 01450 80905 10280 20250 30018 40063 70522 8452/ 333 58026 70170 84615 88458==
41858,2024,10,05,12,00,AAXX 05124 41858 01440 80605 10272 20250 30025 40070 70522 8452/ 333 10285 58027 70170 84616 88458==
41858,2024,10,05,15,00,AAXX 05154 41858 01440 80905 10265 20250 30050 40096 70522 8452/ 333 58028 70168 84615 88458==
41858,2024,10,05,18,00,AAXX 05184 41858 01440 80905 10258 20240 30063 40109 70522 8452/ 333 58032 70166 84615 88458==
41858,2024,10,05,21,00,AAXX 05214 41858 01440 80905 10258 20250 30058 40104 70522 8452/ 333 58045 70146 84616 88458==
41858,2024,10,06,00,00,AAXX 06004 41858 01430 80605 10258 20250 30059 40105 70522 8452/ 333 58041 70010 84616 88458==
41858,2024,10,06,03,00,AAXX 06034 41858 01350 80605 10262 20240 30080 40129 70522 8562/ 333 20246 58039 70000 83708 85614 88458==
41858,2024,10,06,06,00,AAXX 06064 41858 01350 80905 10275 20260 30079 40125 70522 8562/ 333 58040 70000 83708 85614 88458==
41858,2024,10,06,09,00,AAXX 06094 41858 01450 80902 10288 20250 30055 40100 70522 8452/ 333 58037 70000 84616 88458==
41858,2024,10,06,12,00,AAXX 06124 41858 01450 40902 10284 20260 30054 40100 70522 82520 333 10294 58029 70000 82618 84458==
41858,2024,10,06,15,00,AAXX 06154 41858 01440 40904 10268 20250 30082 40128 70522 82520 333 58032 70000 82615 84458==
41858,2024,10,06,21,00,AAXX 06214 41858 01430 60000 10254 20230 30085 40131 70522 83520 333 58027 70000 83615 85458==
41858,2024,10,07,00,00,AAXX 07004 41858 01420 80000 10256 20250 30088 40134 71022 8452/ 333 58029 70000 84615 88458==
41858,2024,10,07,03,00,AAXX 07034 41858 01440 60905 10274 20230 30105 40151 70522 83520 333 20248 58025 70000 83615 86458==
41858,2024,10,07,06,00,AAXX 07064 41858 01450 40905 10314 20240 30097 40142 70522 83800 333 58008 70000 82615 83825==
41858,2024,10,07,09,00,AAXX 07094 41858 01450 40000 10325 20260 30066 40110 70511 84800 333 58011 70000 82618 83825==
41858,2024,10,07,12,00,AAXX 07124 41858 01540 20000 10295 20260 30062 40107 70510 82100 333 10330 58008 70000 82825==
41858,2024,10,07,15,00,AAXX 07154 41858 01940 00000 10274 20250 30086 40132 70500 333 58004 70000==
41858,2024,10,07,18,00,AAXX 07184 41858 01/40 20000 10258 20250 30099 40145 70500 82030 333 58005 70000 82362==
41858,2024,10,07,21,00,AAXX 07214 41858 01/30 30000 10256 20250 30070 40116 70510 83030 333 59005 70000 83362==
41858,2024,10,08,00,00,AAXX 08004 41858 01412 60000 10260 20240 30080 40126 71020 83520 333 59008 70000 83615 85458==
41858,2024,10,08,03,00,AAXX 08033 41858 01935 00000 10294 20240 30103 40149 70520 333 20250 59002 70000==
41858,2024,10,08,06,00,AAXX 08064 41858 01440 40000 10332 20250 30086 40131 70522 84500 333 59011 70000 84616==
41858,2024,10,08,09,00,AAXX 08094 41858 01440 40000 10332 20270 30052 40096 70522 84500 333 59014 70000 84616==
41858,2024,10,08,12,00,AAXX 08124 41858 01540 30000 10310 20260 30046 40091 70522 83200 333 10355 59016 70000 83825==
41858,2024,10,08,15,00,AAXX 08154 41858 01/35 20000 10290 20260 30068 40113 70500 82030 333 59018 70000 82362==
41858,2024,10,08,18,00,AAXX 08184 41858 01/35 20000 10274 20250 30077 40123 70500 82030 333 59022 70000 82362==
41858,2024,10,08,21,00,AAXX 08214 41858 01325 81805 10270 20250 30068 40114 71022 8572/ 333 59002 70000 83708 85614 88458==
41858,2024,10,09,00,00,AAXX 09004 41858 01315 81805 10264 20240 30060 40106 71022 8572/ 333 59020 70000 83708 85614 88458==
41858,2024,10,09,03,00,AAXX 09033 41858 01430 60000 10285 20250 30076 40122 70522 84520 333 20246 59027 70000 84616 86458==
41858,2024,10,09,06,00,AAXX 09064 41858 01440 80000 10306 20270 30066 40111 70522 8452/ 333 59020 70000 84616 88458==
41858,2024,10,09,09,00,AAXX 09094 41858 01440 40000 10324 20250 30031 40076 70522 84800 333 59021 70000 82618 83825==
41858,2024,10,09,12,00,AAXX 09124 41858 01/40 30000 10300 20260 30028 40073 70520 83030 333 10330 59018 70000 83362==
41858,2024,10,09,15,00,AAXX 09154 41858 01930 00000 10286 20260 30048 40093 70500 333 59020 70000==
41858,2024,10,09,18,00,AAXX 09184 41858 01425 80000 10274 20250 30054 40100 71792 84920 333 59023 70000 84615 86758 82930==
41858,2024,10,09,21,00,AAXX 09214 41858 01425 70000 10260 20240 30044 40090 71022 84520 333 59024 70000 84615 86458==
41858,2024,10,10,00,00,AAXX 10004 41858 01420 80000 10256 20240 30048 40094 71022 8452/ 333 59012 70000 84615 88458==
41858,2024,10,10,03,00,AAXX 10034 41858 01425 60000 10266 20240 30061 40107 71022 84520 333 20248 59015 70000 84616 86458==
41858,2024,10,10,06,00,AAXX 10064 41858 01435 60000 10310 20250 30047 40092 70522 84520 333 59019 70000 84616 86458==
41858,2024,10,10,09,00,AAXX 10094 41858 01440 63002 10340 20250 30017 40061 70522 83520 333 59016 70000 83616 86458==
41858,2024,10,10,12,00,AAXX 10124 41858 01440 61902 10314 20260 30022 40067 70522 83520 333 10342 59006 70000 83616 86458==
41858,2024,10,10,15,00,AAXX 10154 41858 01440 60000 10270 20250 30035 40081 70522 83520 333 59013 70000 83616 86458==
41858,2024,10,10,21,00,AAXX 10214 41858 01430 60000 10260 20240 30035 40081 70522 83520 333 59009 70000 83615 85458==
41859,2024,10,04,00,00,AAXX 04004 41859 02430 80503 10260 20240 39998 40035 8562/ 333 58003 70128 83710 84618 88458==
41859,2024,10,04,03,00,AAXX 04034 41859 01340 80904 10261 20240 30022 40059 70262 8562/ 333 20245 58000 70082 83708 85616 88456==
41859,2024,10,04,06,00,AAXX 04064 41859 01340 80904 10263 20240 30020 40057 70262 8562/ 333 58008 70096 83708 85616 88456==
41859,2024,10,04,09,00,AAXX 04094 41859 01340 80502 10261 20250 30001 40038 76166 8672/ 333 58014 70062 83708 85616 88456==
41859,2024,10,04,12,00,AAXX 04124 41859 01430 80504 10257 20250 30005 40042 72162 8562/ 333 10267 58013 70076 83710 84618 88458==
41859,2024,10,04,15,00,AAXX 04154 41859 01330 80503 10256 20250 30032 40069 76166 8672/ 333 58015 75616 83708 88456==
41859,2024,10,04,18,00,AAXX 04184 41859 01330 80504 10248 20248 30027 40064 76166 8672/ 333 58014 70170 83708 85616 88456==
41859,2024,10,04,21,00,AAXX 04214 41859 01330 80504 10244 20240 30025 40062 76166 8672/ 333 58017 70312 83708 85616 88456==
41859,2024,10,05,00,00,AAXX 05004 41859 01330 80503 10241 20240 30027 40064 76366 8672/ 333 58029 70536 83708 85616 88456==
41859,2024,10,05,03,00,AAXX 05034 41859 01350 80000 10253 20250 30051 40088 70262 8562/ 333 20238 58029 70440 83708 85616 88456==
41859,2024,10,05,06,00,AAXX 05064 41859 01350 80000 10259 20250 30048 40085 70262 8562/ 333 58029 70456 83708 85616 88456==
41859,2024,10,05,09,00,AAXX 05094 41859 02450 80000 10270 20250 30027 40064 8562/ 333 58026 70430 83710 85618 88458==
41859,2024,10,05,12,00,AAXX 05124 41859 02440 80502 10262 20250 30030 40067 8562/ 333 10282 58025 70416 83710 85618 88458==
41859,2024,10,05,15,00,AAXX 05154 41859 02430 80503 10257 20250 30062 40099 8562/ 333 58030 70412 83710 85618 88458==
41859,2024,10,05,18,00,AAXX 05184 41859 21430 80000 10250 20250 30062 40099 70296 8562/ 333 58035 60177 70490 83710 85618 88458==
41859,2024,10,05,21,00,AAXX 05214 41859 02430 80000 10250 20250 30054 40091 8562/ 333 58029 70348 83710 85618 88458==
41859,2024,10,06,00,00,AAXX 06004 41859 01430 80000 10250 20250 30068 40105 72162 8562/ 333 58041 70008 83710 85618 88458==
41859,2024,10,06,03,00,AAXX 06034 41859 02450 80000 10261 20250 30092 40129 8562/ 333 20245 58041 70206 83710 85618 88458==
41859,2024,10,06,06,00,AAXX 06064 41859 02450 80000 10250 20250 30088 40125 8562/ 333 58040 70176 83710 85618 88458==
41859,2024,10,06,09,00,AAXX 06094 41859 02450 80502 10291 20250 30063 40100 8561/ 333 58036 70176 83710 85618 88458==
41859,2024,10,06,12,00,AAXX 06124 41859 02440 80502 10280 20260 30062 40099 8562/ 333 10291 58032 70176 83710 84618 88458==
41859,2024,10,06,15,00,AAXX 06154 41859 02430 60502 10261 20250 30091 40128 85610 333 58029 70176 82710 83618 86458==
41859,2024,10,06,18,00,AAXX 06184 41859 02430 80502 10256 20250 30088 40125 8562/ 333 58026 70000 83710 84618 88458==
41859,2024,10,06,21,00,AAXX 06214 41859 01430 80000 10256 20250 30095 40132 76122 8672/ 333 58041 70010 83710 85618 88458==
41859,2024,10,07,00,00,AAXX 07004 41859 01430 80502 10256 20250 30098 40135 72162 8562/ 333 59030 70004 83710 85618 88458==
41859,2024,10,07,03,00,AAXX 07034 41859 02450 80000 10269 20250 30114 40151 8562/ 333 20245 58022 70004 83710 85618 88458==
41859,2024,10,07,06,00,AAXX 07064 41859 02450 60000 10306 20250 30107 40144 84610 333 58019 70004 82710 83618 86458==
41859,2024,10,07,09,00,AAXX 07094 41859 02450 61802 10326 20260 30073 40109 84430 333 58010 70004 82618 83828 86362==
41859,2024,10,07,12,00,AAXX 07124 41859 02430 40000 10300 20260 30070 40107 82530 333 10330 58008 70004 82618 84362==
41859,2024,10,07,15,00,AAXX 07154 41859 02430 40000 10278 20270 30096 40133 82530 333 58005 70004 82618 84362==
41859,2024,10,07,18,00,AAXX 07184 41859 02430 81801 10270 20260 30090 40127 8462/ 333 58002 70004 82710 84618 88458==
41859,2024,10,07,21,00,AAXX 07214 41859 02430 80000 10268 20260 30087 40124 8462/ 333 59008 70002 82710 83618 88458==
41859,2024,10,08,00,00,AAXX 08004 41859 01430 60000 10266 20260 30092 40129 70522 82530 333 59006 70000 82618 85362==
41859,2024,10,08,03,00,AAXX 08033 41859 01450 80000 10260 20260 30111 40148 70522 8352/ 333 20255 59003 70000 82618 88458==
41859,2024,10,08,06,00,AAXX 08064 41859 02450 60000 10328 20250 30093 40129 83510 333 59014 70000 82618 86458==
41859,2024,10,08,09,00,AAXX 08094 41859 02450 62302 10340 20250 30058 40094 83520 333 59015 70000 82618 86458==
41859,2024,10,08,12,00,AAXX 08124 41859 02440 71802 10294 20260 30054 40091 83520 333 10341 59016 70000 83618 87458==
41859,2024,10,08,15,00,AAXX 08154 41859 02430 71802 10272 20250 30077 40114 83520 333 59019 70000 83618 87458==
41859,2024,10,08,18,00,AAXX 08184 41859 02430 81302 10265 20250 30082 40119 8562/ 333 59008 70000 83710 84618 88458==
41859,2024,10,08,21,00,AAXX 08214 41859 01330 81302 10264 20250 30071 40108 76122 8672/ 333 59016 70008 84708 85616 88456==
41859,2024,10,09,00,00,AAXX 09004 41859 21430 81302 10261 20250 30068 40105 70262 8562/ 333 59024 69985 70008 83710 84618 88458==
41859,2024,10,09,03,00,AAXX 09034 41859 02450 80000 10289 20250 30086 40124 8562/ 333 20255 59025 70008 83710 84618 88458==
41859,2024,10,09,06,00,AAXX 09064 41859 02450 81302 10309 20250 30073 40109 8562/ 333 59038 70008 83710 84618 88458==
41859,2024,10,09,09,00,AAXX 09094 41859 02450 60000 10325 20250 30038 40074 83520 333 59020 70008 83618 86458==
41859,2024,10,09,12,00,AAXX 09123 41859 02440 40000 10300 20260 30036 40073 82570 333 10330 59018 70008 82618 84458==
41859,2024,10,09,15,00,AAXX 09154 41859 02430 40000 10280 20240 30058 40095 82570 333 59019 70008 82618 84458==
41859,2024,10,09,18,00,AAXX 09184 41859 01330 80000 10265 20250 30063 40100 76122 8572/ 333 59019 70000 83709 85618 88458==
41859,2024,10,09,21,00,AAXX 09214 41859 01430 80000 10253 20240 30048 40085 70262 8562/ 333 59023 70002 83710 85618 88458==
41859,2024,10,10,00,00,AAXX 10004 41859 11430 80000 10250 20240 30057 40094 69926 70262 8562/ 333 59011 70002 83710 85618 88458==
41859,2024,10,10,03,00,AAXX 10034 41859 02450 80000 10270 20250 30072 40109 8562/ 333 20247 59014 70002 83710 85618 88458==
41859,2024,10,10,06,00,AAXX 10064 41859 02450 60000 10321 20250 30057 40094 84610 333 59016 70002 82710 83618 86458==
41859,2024,10,10,09,00,AAXX 10094 41859 01450 81302 10307 20260 30027 40063 70362 8562/ 333 59011 70016 83710 84618 88458==
41859,2024,10,10,12,00,AAXX 10124 41859 01440 81802 10277 20250 30029 40066 70262 8562/ 333 10330 59007 70028 83710 84618 88458==
41859,2024,10,10,15,00,AAXX 10154 41859 02430 72302 10258 20240 30044 40081 84620 333 59014 70028 82710 83618 86458==
41859,2024,10,10,18,00,AAXX 10184 41859 02430 81302 10258 20250 30049 40086 8562/ 333 59014 70028 83710 84618 88458==
41859,2024,10,10,21,00,AAXX 10214 41859 02430 62302 10260 20250 30043 40080 82530 333 59005 70026 82618 85362==
41863,2024,10,04,00,00,AAXX 04004 41863 02450 80905 10257 20250 39998 40041 8562/ 333 58007 70016 83710 84617 88458==
41863,2024,10,04,03,00,AAXX 04034 41863 01350 80905 10260 20250 30015 40058 76166 8572/ 333 20250 58000 70026 83708 84614 88456==
41863,2024,10,04,06,00,AAXX 04064 41863 21450 80905 10266 20250 30016 40059 70266 8552/ 333 58013 60025 70018 85617 88458==
41863,2024,10,04,09,00,AAXX 04094 41863 02356 80502 10271 20250 39994 40037 8562/ 333 58008 70018 82708 85616 88456==
41863,2024,10,04,12,00,AAXX 04124 41863 01350 80901 10260 20250 39997 40040 76166 8572/ 333 10273 58011 70004 82708 85616 88456==
41863,2024,10,04,15,00,AAXX 04154 41863 02350 80503 10260 20240 30022 40065 8552/ 333 58014 70022 82708 84516 88456==
41863,2024,10,04,18,00,AAXX 04184 41863 01340 80902 10254 20240 30020 40063 76162 8572/ 333 58014 70020 82708 85616 88456==
41863,2024,10,04,21,00,AAXX 04214 41863 01340 80502 10248 20240 30015 40058 70262 8562/ 333 58017 70052 82708 85616 88456==
41863,2024,10,05,00,00,AAXX 05004 41863 01350 80503 10246 20240 30017 40060 70262 8562/ 333 58019 70010 82708 85616 88456==
41863,2024,10,05,03,00,AAXX 05034 41863 02350 80903 10255 20250 30043 40086 8562/ 333 20240 58028 70042 82708 85616 88456==
41863,2024,10,05,06,00,AAXX 05064 41863 02456 80902 10272 20250 30045 40088 8552/ 333 58029 70030 85618 88467==
41863,2024,10,05,09,00,AAXX 05094 41863 02456 82703 10280 20250 30018 40060 8552/ 333 58024 70030 85618 88458==
41863,2024,10,05,12,00,AAXX 05124 41863 02456 80902 10268 20250 30024 40067 8552/ 333 10286 58027 70026 85618 88458==
41863,2024,10,05,15,00,AAXX 05154 41863 02450 80902 10264 20250 30051 40094 8552/ 333 58032 70026 85618 88458==
41863,2024,10,05,18,00,AAXX 05184 41863 02450 80901 10263 20240 30053 40096 8552/ 333 58033 70014 85618 88458==
41863,2024,10,05,21,00,AAXX 05214 41863 02450 80901 10261 20240 30052 40095 8552/ 333 58037 70000 85618 88458==
41863,2024,10,06,00,00,AAXX 06004 41863 02450 80901 10258 20250 30059 40102 8552/ 333 58042 70000 85618 88458==
41863,2024,10,06,03,00,AAXX 06034 41863 02456 80902 10262 20240 30085 40128 8662/ 333 20248 58042 70000 84710 85618 88458==
41863,2024,10,06,06,00,AAXX 06064 41863 02456 80903 10270 20250 30081 40124 8662/ 333 58036 70000 84710 85618 88458==
41863,2024,10,06,09,00,AAXX 06094 41863 02456 80902 10287 20250 30057 40099 8662/ 333 58039 70000 84710 85618 88458==
41863,2024,10,06,12,00,AAXX 06124 41863 02/56 30000 10280 20250 30053 40096 83030 333 10287 58029 70000 83362==
41863,2024,10,06,15,00,AAXX 06154 41863 02950 00000 10261 20250 30084 40127 333 58033 70000==
41863,2024,10,06,18,00,AAXX 06184 41863 02450 80902 10260 20250 30080 40123 8552/ 333 58027 70000 85618 88458==
41863,2024,10,06,21,00,AAXX 06214 41863 02450 80902 10258 20250 30081 40124 8552/ 333 58029 70000 85618 88458==
41863,2024,10,07,00,00,AAXX 07004 41863 02450 80000 10255 20250 30088 40131 8552/ 333 58029 70000 85618 88458==
41863,2024,10,07,03,00,AAXX 07034 41863 02456 80902 10275 20260 30107 40150 8562/ 333 20250 58022 70000 83710 85618 88458==
41863,2024,10,07,06,00,AAXX 07064 41863 02457 60902 10310 20250 30094 40136 83510 333 58013 70000 83618 86458==
41863,2024,10,07,09,00,AAXX 07094 41863 02457 30902 10322 20250 30070 40112 83400 333 58013 70000 83618==
41863,2024,10,07,12,00,AAXX 07124 41863 02956 20000 10306 20270 30063 40105 80002 333 10327 58010 70000 82083==
41863,2024,10,07,15,00,AAXX 07154 41863 01950 00000 10275 20260 30088 40131 70500 333 58004 70000==
41863,2024,10,07,18,00,AAXX 07184 41863 01950 00000 10265 20260 30087 40130 70500 333 58007 70000==
41863,2024,10,07,21,00,AAXX 07214 41863 01950 00000 10257 20250 30081 40124 70500 333 58000 70000==
41863,2024,10,08,00,00,AAXX 08004 41863 01950 00000 10252 20250 30081 40124 70500 333 59007 70000==
41863,2024,10,08,03,00,AAXX 08033 41863 02457 60901 10295 20260 30105 40148 83510 333 20246 59002 70000 83618 86458==
41863,2024,10,08,06,00,AAXX 08064 41863 02457 60903 10325 20250 30088 40130 86400 333 59006 70000 83618 86430==
41863,2024,10,08,09,00,AAXX 08094 41863 02457 62303 10324 20250 30057 40099 83520 333 59013 70000 83618 86458==
41863,2024,10,08,12,00,AAXX 08124 41863 02/56 32301 10297 20260 30052 40094 83030 333 10331 59011 70000 83362==
41863,2024,10,08,15,00,AAXX 08154 41863 01/50 32301 10283 20260 30070 40113 70500 82030 333 59018 70000 82362==
41863,2024,10,08,18,00,AAXX 08184 41863 01/50 32301 10277 20270 30075 40118 70500 83030 333 59012 70000 83362==
41863,2024,10,08,21,00,AAXX 08214 41863 01950 02301 10272 20260 30066 40109 70500 333 59015 70000==
41863,2024,10,09,00,00,AAXX 09004 41863 01950 00000 10256 20250 30060 40103 70500 333 59021 70000==
41863,2024,10,09,03,00,AAXX 09033 41863 02456 81301 10280 20250 30078 40121 8452/ 333 20251 59027 70000 84618 88458==
41863,2024,10,09,06,00,AAXX 09064 41863 02457 61303 10313 20250 30069 40111 83520 333 59019 70000 83618 86458==
41863,2024,10,09,09,00,AAXX 09094 41863 02457 51801 10325 20260 30032 40074 82520 333 59025 70000 82618 85458==
41863,2024,10,09,12,00,AAXX 09124 41863 02456 51801 10300 20260 30029 40071 82520 333 10326 59023 70000 82618 85458==
41863,2024,10,09,15,00,AAXX 09154 41863 02450 41801 10285 20270 30049 40091 82520 333 59021 70000 82618 84458==
41863,2024,10,09,18,00,AAXX 09184 41863 02450 61801 10265 20250 30054 40097 83520 333 59021 70000 83618 86458==
41863,2024,10,09,21,00,AAXX 09214 41863 02450 51301 10258 20250 30038 40081 82520 333 59028 70000 82618 85458==
41863,2024,10,10,00,00,AAXX 10004 41863 01450 51801 10254 20240 30049 40092 70522 82520 333 59011 70000 82618 85458==
41863,2024,10,10,03,00,AAXX 10034 41863 02456 51802 10288 20250 30062 40104 83520 333 20247 59016 70000 83618 85458==
41863,2024,10,10,06,00,AAXX 10064 41863 02457 52303 10320 20250 30048 40090 85400 333 59021 70000 83618 85830==
41863,2024,10,10,09,00,AAXX 10094 41863 02456 63102 10332 20260 30018 40060 84520 333 59014 70000 84618 86458==
41863,2024,10,10,12,00,AAXX 10124 41863 02456 60000 10305 20270 30022 40064 84520 333 10334 59007 70000 84618 86458==
41863,2024,10,10,15,00,AAXX 10154 41863 02/56 31802 10273 20250 30037 40080 83030 333 59012 70000 83362==
41863,2024,10,10,18,00,AAXX 10184 41863 02/50 31802 10265 20250 30040 40083 83030 333 59015 70000 83362==
41863,2024,10,10,21,00,AAXX 10214 41863 02950 00000 10260 20250 30031 40074 333 59007 70000==
41881,2024,10,04,00,00,AAXX 04004 41881 32356 82803 10252 20250 30013 40033 8562/ 333 56899 58008 70058 84709 85615 88458=
41881,2024,10,04,06,00,AAXX 04064 41881 11456 72701 10292 20250 30032 40052 60016 70162 84520 333 56990 58017 70063 84616 87459=
41881,2024,10,04,12,00,AAXX 04124 41881 32450 82701 10275 20260 30015 40035 8552/ 333 10300 56999 58013 70005 85615 88458=
41881,2024,10,04,18,00,AAXX 04184 41881 32450 31801 10262 20250 30045 40065 83500 333 56900 58026 70005 83618=
41881,2024,10,05,00,00,AAXX 05004 41881 32456 82701 10256 20256 30036 40056 8552/ 333 56999 58023 70005 85615 88458=
41881,2024,10,05,06,00,AAXX 05064 41881 32456 72301 10295 20260 30054 40073 84520 333 56990 58022 70000 84616 87459=
41881,2024,10,05,12,00,AAXX 05124 41881 32456 60000 10286 20270 30043 40063 83520 333 10324 56990 59028 70000 83618 86459=
41881,2024,10,05,18,00,AAXX 05184 41881 32450 71501 10270 20260 30068 40088 84520 333 56990 58023 70000 84618 87459=
41881,2024,10,06,00,00,AAXX 06004 41881 31435 80000 10262 20260 30080 40100 70522 8552/ 333 56999 58044 70000 85617 88459=
41881,2024,10,06,06,00,AAXX 06064 41881 11456 70801 10276 20270 30096 40116 60224 70162 84520 333 56290 58042 70220 84616 88458=
41881,2024,10,06,12,00,AAXX 06124 41881 32456 70000 10274 20250 30074 40094 84520 333 10300 56990 58031 70220 84616 87458=
41881,2024,10,06,18,00,AAXX 06184 41881 32450 80601 10262 20250 30099 40119 8552/ 333 56299 58031 70220 85616 88458=
41881,2024,10,07,00,00,AAXX 07004 41881 31440 80901 10257 20257 30111 40131 70522 8552/ 333 56299 58031 70220 85616 88458=
41881,2024,10,07,06,00,AAXX 07064 41881 32457 61801 10315 20260 30117 40137 83520 333 56990 58021 70000 83618 86459=
41881,2024,10,07,12,00,AAXX 07124 41881 32450 50901 10275 20260 30091 40111 83520 333 10320 56990 58017 70000 83618 85459=
41881,2024,10,07,18,00,AAXX 07184 41881 32450 30801 10257 20250 30108 40128 83500 333 56900 58009 70000 83618=
41881,2024,10,08,00,00,AAXX 08004 41881 31440 70901 10250 20250 30102 40122 84520 333 56990 59009 70000 84616 87458=
41881,2024,10,08,06,00,AAXX 08064 41881 32457 52801 10315 20270 30106 40126 83520 333 56990 59011 70000 83616 85459=
41881,2024,10,08,12,00,AAXX 08124 41881 32456 60000 10280 20260 30075 40095 83520 333 10325 56990 59016 70000 83616 86459=
41881,2024,10,08,18,00,AAXX 08184 41881 32450 80901 10268 20260 30101 40121 8552/ 333 56999 59007 70000 85616 88459=
41881,2024,10,09,00,00,AAXX 09004 41881 11450 80000 10255 20255 30087 40107 69954 76122 8552/ 333 56999 59015 70005 85615 88458=
41881,2024,10,09,06,00,AAXX 09064 41881 32456 63401 10316 20260 30090 40110 83520 333 56990 59016 70005 83616 86459=
41881,2024,10,09,12,00,AAXX 09124 41881 32450 41501 10300 20270 30053 40072 84500 333 10330 56900 59022 70005 84618=
41881,2024,10,09,18,00,AAXX 09184 41881 32450 61801 10254 20240 30080 40100 83520 333 56990 59021 70005 83617 86459=
41881,2024,10,10,00,00,AAXX 10004 41881 31440 41501 10246 20246 30076 40096 70522 84500 333 56900 59011 70000 84618=
41881,2024,10,10,06,00,AAXX 10064 41881 32957 01801 10325 20270 30073 40093 333 59017 70000=
41881,2024,10,10,12,00,AAXX 10124 41881 32950 01801 10285 20260 30054 40074 333 10330 58001 70000=
41881,2024,10,10,18,00,AAXX 10184 41881 32450 61801 10265 20260 30066 40086 83520 333 56990 59014 70000 83616 86459=
41883,2024,10,04,00,00,AAXX 04004 41883 02330 80000 10258 20250 30010 40030 8562/ 333 58003 70062 85709 88458==
41883,2024,10,04,03,00,AAXX 04034 41883 02456 80000 10276 20260 30037 40057 8552/ 333 20256 58007 70062 85616 88459==
41883,2024,10,04,06,00,AAXX 04064 41883 02456 70000 10302 20250 30030 40050 85520 333 58012 70062 85616 87459==
41883,2024,10,04,09,00,AAXX 04094 41883 02456 70000 10315 20260 30011 40031 84520 333 58016 70002 84616 87459==
41883,2024,10,04,12,00,AAXX 04124 41883 02340 81304 10284 20250 30015 40035 8562/ 333 10320 58017 70000 85709 88458==
41883,2024,10,04,15,00,AAXX 04154 41883 02330 81802 10274 20250 30045 40065 8562/ 333 58026 70000 85709 88458==
41883,2024,10,04,18,00,AAXX 04184 41883 02330 80000 10268 20260 30043 40063 8562/ 333 58023 70000 85709 88458==
41883,2024,10,04,21,00,AAXX 04214 41883 02330 80000 10264 20250 30038 40058 8562/ 333 58024 70000 85709 88458==
41883,2024,10,05,00,00,AAXX 05004 41883 02330 80000 10266 20260 30039 40059 8562/ 333 58029 70000 85709 88458==
41883,2024,10,05,03,00,AAXX 05034 41883 01340 80000 10270 20260 30063 40083 76162 8572/ 333 20260 58026 70018 85709 88458==
41883,2024,10,05,06,00,AAXX 05064 41883 21340 80000 10276 20270 30058 40078 76166 8572/ 333 58028 60139 70132 85709 88458==
41883,2024,10,05,09,00,AAXX 05094 41883 01350 81302 10285 20260 30035 40055 70262 8562/ 333 58024 70134 85709 88458==
41883,2024,10,05,12,00,AAXX 05124 41883 01340 81302 10275 20260 30047 40047 70262 8562/ 333 10310 58032 70002 85709 88468==
41883,2024,10,05,15,00,AAXX 05154 41883 02330 81802 10274 20250 30072 40092 8562/ 333 58027 70134 85709 88458==
41883,2024,10,05,18,00,AAXX 05184 41883 02330 80000 10270 20260 30075 40095 8562/ 333 58032 70134 85709 88458==
41883,2024,10,05,21,00,AAXX 05214 41883 02330 80000 10266 20260 30071 40091 8562/ 333 58033 70134 85709 88458==
41883,2024,10,06,00,00,AAXX 06004 41883 02330 80000 10265 20260 30070 40090 8562/ 333 58031 70134 85709 88458==
41883,2024,10,06,03,00,AAXX 06034 41883 01350 81302 10255 20250 30110 40130 79566 8592/ 333 20252 58047 70136 85709 88458 82930==
41883,2024,10,06,06,00,AAXX 06064 41883 21456 80902 10266 20250 30098 40118 72996 8552/ 333 58040 60079 70072 85616 88459==
41883,2024,10,06,09,00,AAXX 06094 41883 02456 40903 10305 20260 30073 40093 84400 333 58038 70070 82616 83828==
41883,2024,10,06,12,00,AAXX 06124 41883 02/30 30902 10276 20260 30078 40098 83030 333 10307 58031 70070 83362==
41883,2024,10,06,15,00,AAXX 06154 41883 02430 80000 10270 20250 30101 40121 8552/ 333 58029 70070 85616 88459==
41883,2024,10,06,18,00,AAXX 06184 41883 02430 80000 10264 20250 30095 40115 8552/ 333 58020 70070 85616 88459==
41883,2024,10,06,21,00,AAXX 06214 41883 02430 80000 10260 20250 30095 40115 8552/ 333 58024 70070 85616 88458==
41883,2024,10,07,00,00,AAXX 07004 41883 02430 80000 10258 20250 30103 40123 8552/ 333 58033 70070 85616 88458==
41883,2024,10,07,03,00,AAXX 07034 41883 02456 50000 10296 20270 30127 40147 83510 333 20246 58017 70050 83616 85459==
41883,2024,10,07,06,00,AAXX 07064 41883 02456 61802 10320 20250 30115 40135 85810 333 58017 70000 84616 86459==
41883,2024,10,07,09,00,AAXX 07094 41883 02456 40000 10320 20260 30087 40107 84800 333 58014 70000 83616==
41883,2024,10,07,12,00,AAXX 07124 41883 21340 81802 10282 20260 30090 40110 71796 8532/ 333 10332 58012 60028 70016 85709 88458 81930==
41883,2024,10,07,15,00,AAXX 07154 41883 02330 80000 10276 20270 30109 40129 8562/ 333 58008 70016 85709 88458==
41883,2024,10,07,18,00,AAXX 07184 41883 02330 80000 10272 20260 30109 40129 8562/ 333 58014 70016 85709 88458==
41883,2024,10,07,21,00,AAXX 07214 41883 02330 80000 10268 20260 30105 40125 8562/ 333 58010 70016 85709 88458==
41883,2024,10,08,00,00,AAXX 08004 41883 01330 80000 10264 20260 30102 40124 79596 8532/ 333 59001 70040 85709 88458 81930==
41883,2024,10,08,03,00,AAXX 08033 41883 01456 60000 10284 20260 30126 40146 70196 83510 333 20262 59001 70060 83616 86459==
41883,2024,10,08,06,00,AAXX 08064 41883 11356 80000 10306 20270 30108 40128 60006 71792 8532/ 333 59007 70060 85616 88459 81930==
41883,2024,10,08,09,00,AAXX 08094 41883 01350 82302 10268 20260 30085 40105 79596 8592/ 333 59002 70108 85709 88458 82930==
41883,2024,10,08,12,00,AAXX 08124 41883 21440 80000 10268 20260 30080 40100 70296 85544 333 10315 59010 60069 70100 85615 88458==
41883,2024,10,08,15,00,AAXX 08154 41883 02430 80000 10270 20250 30098 40118 8552/ 333 59011 70100 85616 88459==
41883,2024,10,08,18,00,AAXX 08184 41883 02430 80000 10265 20250 30099 40119 8552/ 333 59010 70100 85616 88459==
41883,2024,10,08,21,00,AAXX 08214 41883 02430 80000 10262 20250 30087 40107 8552/ 333 59018 70100 85616 88459==
41883,2024,10,09,00,00,AAXX 09004 41883 01330 80902 10260 20250 30088 40108 71792 8592/ 333 59014 70056 85709 88459 82930==
41883,2024,10,09,03,00,AAXX 09034 41883 01350 80000 10273 20260 30104 40124 70292 8562/ 333 20256 59022 70056 85709 88458==
41883,2024,10,09,06,00,AAXX 09064 41883 01456 70000 10310 20260 30088 40108 70192 84520 333 59020 70056 84615 87458==
41883,2024,10,09,09,00,AAXX 09094 41883 01456 70502 10312 20250 30056 40076 71792 85920 333 59029 70008 83616 83828 87459 82930==
41883,2024,10,09,12,00,AAXX 09123 41883 02430 81302 10275 20250 30062 40082 8552/ 333 10328 59018 70000 85616 88459==
41883,2024,10,09,15,00,AAXX 09154 41883 02430 81302 10260 20240 30075 40095 8552/ 333 59023 70000 85615 88458==
41883,2024,10,09,18,00,AAXX 09184 41883 02330 81802 10256 20240 30079 40099 8562/ 333 59020 70000 85709 88458==
41883,2024,10,09,21,00,AAXX 09214 41883 02430 80000 10254 20230 30075 40095 8552/ 333 59012 70000 85615 88458==
41883,2024,10,10,00,00,AAXX 10004 41883 02430 80000 10250 20240 30071 40091 8552/ 333 59017 70000 85615 88458==
41883,2024,10,10,03,00,AAXX 10034 41883 02/56 50000 10286 20260 30087 40107 85010 333 20245 59017 70000 85459==
41883,2024,10,10,06,00,AAXX 10064 41883 02456 52302 10316 20260 30073 40093 83810 333 59015 70000 83616 85458==
41883,2024,10,10,09,00,AAXX 10094 41883 01356 61302 10320 20260 30045 40065 71722 84310 333 59011 70000 83616 86459 81930==
41883,2024,10,10,12,00,AAXX 10124 41883 21330 80000 10298 20270 30053 40073 79596 8532/ 333 10330 59009 69937 70003 85709 88458 81930==
41883,2024,10,10,15,00,AAXX 10154 41883 01330 80000 10284 20260 30063 40083 70296 8562/ 333 59012 70008 85709 88458==
41883,2024,10,10,18,00,AAXX 10184 41883 11330 80000 10280 20260 30069 40089 69956 70296 8562/ 333 59010 70008 85709 88458==
41883,2024,10,10,21,00,AAXX 10214 41883 02330 80000 10274 20260 30066 40086 8562/ 333 59009 70008 85709 88458==
41886,2024,10,04,00,00,AAXX 04004 41886 21350 80000 10263 20260 30021 40041 76166 8572/ 333 58006 60219 70454 82710 84616 88458==
41886,2024,10,04,03,00,AAXX 04034 41886 01340 80000 10262 20250 30042 40063 76366 8632/ 333 20261 58005 70674 84710 84616 88458 81930==
41886,2024,10,04,06,00,AAXX 04064 41886 21440 80000 10268 20260 30040 40061 76396 8532/ 333 58016 60899 70976 84616 88458 81930==
41886,2024,10,04,09,00,AAXX 04094 41886 01320 81808 10255 20255 30026 40047 79696 8632/ 333 58024 71478 84709 85615 88457 81928==
41886,2024,10,04,12,00,AAXX 04124 41886 21450 80000 10255 20250 30030 40051 70296 8452/ 333 10275 58024 60528 71494 84616 88458==
41886,2024,10,04,15,00,AAXX 04154 41886 02350 80906 10260 20250 30053 40074 8562/ 333 58022 71444 83710 84616 88458==
41886,2024,10,04,18,00,AAXX 04184 41886 01440 81302 10255 20250 30052 40073 79592 8532/ 333 58015 70008 85616 88458 81930==
41886,2024,10,04,21,00,AAXX 04214 41886 01340 81302 10255 20250 30050 40071 70296 8632/ 333 58018 71230 84710 85616 88458 81930==
41886,2024,10,05,00,00,AAXX 05004 41886 11350 81302 10255 20250 30047 40068 69986 70296 8632/ 333 58026 71120 84710 85616 88458 81930==
41886,2024,10,05,03,00,AAXX 05034 41886 02350 81304 10265 20250 30074 40095 8672/ 333 20252 58032 70836 84710 85616 88458==
41886,2024,10,05,06,00,AAXX 05064 41886 01320 81804 10260 20250 30072 40093 76322 8672/ 333 58032 70030 84709 85615 88457==
41886,2024,10,05,09,00,AAXX 05094 41886 01350 80000 10270 20250 30051 40072 70262 8632/ 333 58025 70182 84709 84615 88458 81930==
41886,2024,10,05,12,00,AAXX 05124 41886 11350 80000 10268 20250 30056 40077 60126 70262 8632/ 333 10274 58026 70166 84709 84615 88458 81930==
41886,2024,10,05,15,00,AAXX 05154 41886 02440 80000 10266 20250 30086 40107 8532/ 333 58033 70166 84616 88458 81930==
41886,2024,10,05,18,00,AAXX 05184 41886 01440 80000 10264 20250 30084 40105 76162 8532/ 333 58032 70006 84615 88458 81930==
41886,2024,10,05,21,00,AAXX 05214 41886 01440 80000 10266 20250 30084 40105 70262 8532/ 333 58034 70174 84615 88458 81930==
41886,2024,10,06,00,00,AAXX 06004 41886 11450 80000 10266 20250 30086 40107 60016 70262 8532/ 333 58036 70166 84615 88458 81930==
41886,2024,10,06,03,00,AAXX 06034 41886 01450 80000 10250 20240 30116 40137 79596 8532/ 333 20247 58042 70182 84615 88458 81930==
41886,2024,10,06,06,00,AAXX 06064 41886 21456 80402 10280 20250 30107 40128 70296 8352/ 333 58034 60028 70179 83618 88460==
41886,2024,10,06,09,00,AAXX 06094 41886 02456 60000 10294 20250 30076 40097 83570 333 58025 70032 83618 85365==
41886,2024,10,06,12,00,AAXX 06124 41886 02450 70000 10276 20260 30080 40101 83320 333 10300 58024 70032 83616 87459 81930==
41886,2024,10,06,15,00,AAXX 06154 41886 01450 80000 10270 20260 30107 40128 71792 8532/ 333 58021 70032 84616 88458 81930==
41886,2024,10,06,18,00,AAXX 06184 41886 01440 80000 10270 20260 30107 40128 71792 8532/ 333 58023 70026 84616 88458 81930==
41886,2024,10,06,21,00,AAXX 06214 41886 01440 80000 10263 20250 30110 40131 71792 8532/ 333 58026 70016 84616 88458 81930==
41886,2024,10,07,00,00,AAXX 07004 41886 01450 80000 10255 20250 30113 40134 70292 8452/ 333 58027 70016 84616 88458==
41886,2024,10,07,03,00,AAXX 07034 41886 02/56 10000 10295 20260 30134 40155 81030 333 20249 58018 70000 81362==
41886,2024,10,07,06,00,AAXX 07064 41886 02456 80000 10307 20260 30120 40140 8352/ 333 58013 70000 83616 88458==
41886,2024,10,07,09,00,AAXX 07094 41886 02457 60000 10313 20260 30090 40110 83470 333 58014 70000 82618 85460==
41886,2024,10,07,12,00,AAXX 07124 41886 02450 70000 10292 20270 30094 40115 8431/ 333 10320 58014 70000 83616 88458 81930==
41886,2024,10,07,18,00,AAXX 07184 41886 02450 20000 10272 20260 30114 40135 82500 333 58007 70000 82618==
41886,2024,10,07,21,00,AAXX 07214 41886 01440 60000 10271 20260 30112 40133 70521 82510 333 58002 70000 82618 85460==
41886,2024,10,08,00,00,AAXX 08004 41886 01420 80000 10269 20260 30110 40131 71042 8432/ 333 59003 70000 83616 88458 81930==
41886,2024,10,08,03,00,AAXX 08033 41886 01350 80000 10275 20260 30132 40153 70242 8572/ 333 20263 59002 70000 82710 84616 88458 81930==
41886,2024,10,08,06,00,AAXX 08064 41886 01450 80000 10260 20240 30122 40143 70296 8352/ 333 58002 70220 83618 88460==
41886,2024,10,08,09,00,AAXX 08094 41886 02456 80000 10293 20270 30087 40107 8352/ 333 59003 70220 83618 88460==
41886,2024,10,08,12,00,AAXX 08124 41886 02450 80000 10273 20260 30088 40108 8352/ 333 10294 59006 70220 83618 88460==
41886,2024,10,08,15,00,AAXX 08154 41886 02450 80000 10262 20240 30108 40128 8352/ 333 59011 70220 83618 88460==
41886,2024,10,08,18,00,AAXX 08184 41886 02450 80000 10257 20250 30109 40129 8352/ 333 59006 70220 83616 88458==
41886,2024,10,08,21,00,AAXX 08214 41886 02440 80000 10255 20250 30107 40127 8352/ 333 59005 70220 83616 88458==
41886,2024,10,09,00,00,AAXX 09004 41886 02450 80000 10254 20240 30097 40117 8352/ 333 59016 70220 83618 88460==
41886,2024,10,09,03,00,AAXX 09033 41886 02456 80000 10272 20250 30113 40134 8552/ 333 20250 59019 70220 85618 88458==
41886,2024,10,09,06,00,AAXX 09064 41886 02457 60502 10302 20260 30098 40118 84510 333 59024 70000 84618 86460==
41886,2024,10,09,09,00,AAXX 09094 41886 01456 70902 10298 20270 30061 40081 71722 84310 333 59026 70000 84617 85460 81930==
41886,2024,10,09,12,00,AAXX 09124 41886 01440 81804 10280 20260 30070 40091 70399 8662/ 333 10307 59018 70000 83710 84615 88458==
41886,2024,10,09,15,00,AAXX 09154 41886 02440 80000 10276 20260 30084 40105 8452/ 333 59024 70000 84616 88460==
41886,2024,10,09,18,00,AAXX 09184 41886 02440 80000 10274 20260 30090 40111 8452/ 333 59019 70000 84616 88460==
41886,2024,10,09,21,00,AAXX 09214 41886 02440 80000 10263 20250 30086 40107 8452/ 333 59021 70000 84616 88458==
41886,2024,10,10,00,00,AAXX 10004 41886 01420 80000 10251 20250 30084 40105 71022 8452/ 333 59012 70000 84616 88458==
41886,2024,10,10,03,00,AAXX 10034 41886 01435 70000 10274 20250 30096 40117 70542 83510 333 20245 59017 70000 83618 87460==
41886,2024,10,10,06,00,AAXX 10064 41886 01456 81303 10296 20260 30084 40104 70342 8451/ 333 59014 70000 84617 88460==
41886,2024,10,10,09,00,AAXX 10094 41886 41456 71804 10300 20290 30053 40073 79522 85320 333 59008 85616 86458 81930==
41886,2024,10,10,12,00,AAXX 10124 41886 21450 60000 10290 20270 30058 40078 70596 83510 333 10314 59012 60005 83618 86460==
41886,2024,10,10,15,00,AAXX 10154 41886 41450 61403 10280 20270 30072 40093 70522 82510 333 59012 82618 86460==
41886,2024,10,10,18,00,AAXX 10184 41886 41450 81804 10270 20250 30076 40097 71322 8332/ 333 59024 83616 88458 81930==
41888,2024,10,04,00,00,AAXX 04004 41888 11440 80000 10258 20250 30036 40046 60069 76166 8532/ 333 56999 58012 70447 81710 83616 81930 88459=
41888,2024,10,04,06,00,AAXX 04064 41888 11450 80901 10264 20250 30051 40061 60059 76166 8532/ 333 56999 58019 70484 81710 83617 81930 88459=
41888,2024,10,04,12,00,AAXX 04124 41888 11440 81802 10249 20249 30042 40052 60389 76196 8532/ 10270 56299 58027 70818 81710 83617 81930 88459=
41888,2024,10,04,18,00,AAXX 04184 41888 11420 80902 10249 20249 30062 40072 60503 79796 8532/ 333 56299 58020 70992 82710 83617 81930 88457=
41888,2024,10,05,00,00,AAXX 05004 41888 11457 80901 10252 20250 30060 40070 60678 70296 8532/ 333 56299 58024 71602 81710 83617 81930 88460=
41888,2024,10,05,06,00,AAXX 05064 41888 32457 80903 10267 20250 30071 40091 8452/ 333 56999 58030 71550 84617 88469=
41888,2024,10,05,12,00,AAXX 05124 41888 11445 80000 10262 20250 30065 40075 69973 70562 8452/ 333 10275 56999 58023 71177 84618 88459=
41888,2024,10,05,18,00,AAXX 05184 41888 11330 80901 10258 20250 30092 40102 60033 79562 8492/ 333 56999 58030 70707 82708 83616 81930 88458=
41888,2024,10,06,00,00,AAXX 06004 41888 11440 81501 10264 20250 30103 40113 60106 70596 8432/ 333 56999 58043 70137 83617 81930 88459=
41888,2024,10,06,06,00,AAXX 06064 41888 11456 80501 10280 20250 30112 40122 69928 70296 8251/ 333 56999 58031 70139 82618 88460=
41888,2024,10,06,12,00,AAXX 06124 41888 32456 30601 10278 20260 30087 40097 82501 333 10300 56909 58022 70132 82618 83080=
41888,2024,10,06,18,00,AAXX 06184 41888 31440 50601 10257 20257 30110 40120 71721 333 56990 58018 70102 82618 81930 85460=
41888,2024,10,07,00,00,AAXX 07004 41888 31440 80000 10252 20250 30123 40133 70522 8252/ 333 56999 58020 70002 82618 88460=
41888,2024,10,07,06,00,AAXX 07064 41888 32457 60601 10300 20250 30127 40137 84410 333 56990 58015 70000 82618 83822 86460=
41888,2024,10,07,12,00,AAXX 07124 41888 32456 41201 10288 20260 30099 40109 82510 333 10317 56990 58012 70000 82618 84460=
41888,2024,10,07,18,00,AAXX 07184 41888 32440 50901 10270 20260 30120 40130 83310 333 56990 58010 70000 82618 81930 85460=
41888,2024,10,08,00,00,AAXX 08004 41888 32450 30901 10264 20250 30115 40125 81510 333 56990 59008 70000 81618 83460=
41888,2024,10,08,06,00,AAXX 08064 41888 11340 80901 10240 20240 30125 40135 60507 79596 8392/ 333 56999 59002 70500 81710 82616 81930 88458=
41888,2024,10,08,12,00,AAXX 08124 41888 11450 50901 10259 20240 30095 40105 69946 70196 82510 333 10274 56990 59004 70504 82618 85460=
41888,2024,10,08,18,00,AAXX 08184 41888 32440 60901 10254 20250 30119 40129 83310 333 56990 59001 70504 82618 81930 86460=
41888,2024,10,09,00,00,AAXX 09004 41888 31440 80901 10255 20250 30101 40111 70522 8252/ 333 56999 59014 70504 82618 88460=
41888,2024,10,09,06,00,AAXX 09064 41888 32457 80902 10289 20240 30106 40116 8331/ 333 56999 59019 70004 82618 81930 88460=
41888,2024,10,09,18,00,AAXX 09184 41888 32440 80000 10255 20250 30095 40105 8252/ 333 56999 59024 70000 82618 88460=
41888,2024,10,10,00,00,AAXX 10004 41888 31430 80901 10250 20250 30089 40099 71042 8252/ 333 56999 59012 70000 82618 88460=
41888,2024,10,10,06,00,AAXX 10064 41888 32456 82701 10296 20250 30090 40100 70242 8352/ 333 56999 59016 70000 83618 88459=
41888,2024,10,10,12,00,AAXX 10124 41888 31440 71501 10287 20270 30066 40076 70522 82510 333 10310 56990 59010 70000 82618 87460=
41888,2024,10,10,18,00,AAXX 10184 41888 11330 80902 10262 20250 30080 40090 60153 79596 8592/ 333 56999 59015 70146 82708 83616 82928 88457=
41891,2024,10,04,00,00,AAXX 04004 41891 11340 80000 10252 20240 30022 40060 60036 70562 8532/ 333 58023 70075 82708 84616 88456 81930==
41891,2024,10,04,03,00,AAXX 04034 41891 01440 81503 10275 20260 30042 40080 70522 8532/ 333 20251 58023 70075 82710 84615 88458 81930==
41891,2024,10,04,06,00,AAXX 04064 41891 01440 80905 10287 20250 30036 40074 70522 8532/ 333 58026 70065 82710 84615 88458 81930==
41891,2024,10,04,09,00,AAXX 04094 41891 01440 81204 10290 20250 30011 40049 70522 8532/ 333 58023 70065 82710 84615 88458 81930==
41891,2024,10,04,12,00,AAXX 04124 41891 21320 83105 10250 20240 30028 40067 76562 8632/ 333 10297 58028 60587 70615 83707 84614 88482 81930==
41891,2024,10,04,15,00,AAXX 04154 41891 01330 80000 10249 20240 30049 40088 70566 8532/ 333 58023 70965 82709 84616 88456 81930==
41891,2024,10,04,18,00,AAXX 04184 41891 11330 80000 10250 20240 30044 40083 60366 70562 8532/ 333 58020 70965 82710 84616 88456 81930==
41891,2024,10,04,21,00,AAXX 04214 41891 01320 80000 10244 20240 30038 40077 76162 8532/ 333 58015 70990 82708 84616 88456 81930==
41891,2024,10,05,00,00,AAXX 05004 41891 21320 80000 10250 20240 30044 40083 76362 8632/ 333 58022 60159 71090 83707 84615 88482 81930==
41891,2024,10,05,03,00,AAXX 05034 41891 01325 80000 10250 20240 30070 40109 76366 8632/ 333 20243 58028 71690 83707 85614 88482 81930==
41891,2024,10,05,06,00,AAXX 05064 41891 21325 80000 10265 20250 30065 40104 76166 8532/ 333 58029 60629 71710 82708 83616 88456 81930==
41891,2024,10,05,09,00,AAXX 05094 41891 01325 80602 10274 20250 30040 40079 76166 8632/ 333 58029 71720 83708 88458 81925==
41891,2024,10,05,12,00,AAXX 05124 41891 21320 83602 10262 20250 30048 40087 76366 8632/ 333 10276 58020 60109 71230 86708 88458 81925==
41891,2024,10,05,15,00,AAXX 05154 41891 01325 80902 10251 20250 30073 40112 76166 8632/ 333 58024 70880 83708 88458 81925==
41891,2024,10,05,18,00,AAXX 05184 41891 21430 80000 10250 20250 30070 40109 70562 8532/ 333 58026 60018 70880 82708 84615 88458 81930==
41891,2024,10,05,21,00,AAXX 05214 41891 01430 80000 10250 20250 30071 40110 70522 8532/ 333 58033 70830 82708 84615 88458 81930==
41891,2024,10,06,00,00,AAXX 06004 41891 01430 80000 10251 20250 30074 40113 72162 8532/ 333 58030 70010 82708 84615 88458 81930==
41891,2024,10,06,03,00,AAXX 06034 41891 01440 81203 10293 20240 30095 40133 70522 8532/ 333 20250 58025 70140 82710 84615 88458 81930==
41891,2024,10,06,06,00,AAXX 06064 41891 01440 83603 10310 20240 30086 40124 70522 8532/ 333 58021 70120 82710 84615 88458 81930==
41891,2024,10,06,09,00,AAXX 06094 41891 01440 70903 10302 20240 30054 40092 70522 8532/ 333 58014 70110 84615 86460 81930==
41891,2024,10,06,12,00,AAXX 06124 41891 01440 60903 10280 20260 30062 40100 70522 83340 333 10320 58014 70020 83615 85365 81930==
41891,2024,10,06,15,00,AAXX 06154 41891 01440 31003 10264 20250 30084 40123 70521 81530 333 58011 70010 81615 83365==
41891,2024,10,06,18,00,AAXX 06184 41891 01435 31003 10256 20250 30083 40122 70521 81530 333 58013 70010 81615 83365==
41891,2024,10,06,21,00,AAXX 06214 41891 01435 50903 10255 20250 30092 40131 70521 82530 333 58021 70010 82615 83365==
41891,2024,10,07,00,00,AAXX 07004 41891 01430 80603 10259 20250 30094 40133 70521 8532/ 333 58020 70000 82710 84615 88458 81930==
41891,2024,10,07,03,00,AAXX 07034 41891 01330 80000 10260 20250 30118 40157 76166 8532/ 333 20254 58023 70002 82708 84616 88458 81930==
41891,2024,10,07,06,00,AAXX 07064 41891 21450 50000 10288 20250 30102 40140 70562 83530 333 58010 69928 70002 83618 84362==
41891,2024,10,07,09,00,AAXX 07094 41891 01450 60000 10309 20250 30075 40113 70522 83510 333 58021 70002 83618 85458==
41891,2024,10,07,12,00,AAXX 07124 41891 01430 30000 10278 20250 30072 40110 70521 82430 333 10319 58010 70002 81618==
41891,2024,10,07,15,00,AAXX 07154 41891 01430 30000 10266 20250 30097 40136 70511 82430 333 58013 70002 81618==
41891,2024,10,07,18,00,AAXX 07184 41891 01430 80000 10262 20250 30093 40132 70521 8532/ 333 58010 70002 82710 84615 88458 81930==
41891,2024,10,07,21,00,AAXX 07214 41891 01430 80000 10258 20250 30090 40129 70522 8532/ 333 59002 70002 82710 84615 88458 81930==
41891,2024,10,08,00,00,AAXX 08004 41891 01430 80000 10255 20250 30094 40133 70522 8532/ 333 58000 70002 82710 84615 88458 81930==
41891,2024,10,08,03,00,AAXX 08033 41891 01445 60501 10272 20250 30111 40150 70522 84330 333 20252 59007 70000 83615 85365 81930==
41891,2024,10,08,06,00,AAXX 08064 41891 11320 82702 10255 20240 30100 40139 60072 76022 8632/ 333 59002 70065 86708 88458 81925==
41891,2024,10,08,09,00,AAXX 08094 41891 01440 80000 10268 20240 30067 40105 70562 8432/ 333 59008 70075 84615 88458 81925==
41891,2024,10,08,12,00,AAXX 08124 41891 11430 80000 10266 20250 30064 40102 60016 70562 8432/ 333 10306 59008 70075 83615 88458 81930==
41891,2024,10,08,15,00,AAXX 08154 41891 01430 40000 10252 20240 30097 40136 70521 83510 333 58000 70075 83618 84458==
41891,2024,10,08,18,00,AAXX 08184 41891 01430 40000 10246 20246 30090 40129 70521 83510 333 59003 70075 83618 84458==
41891,2024,10,08,21,00,AAXX 08214 41891 01430 80000 10246 20246 30080 40119 70522 8532/ 333 59010 70075 84616 88458 81930==
41891,2024,10,09,00,00,AAXX 09004 41891 01430 80000 10245 20245 30076 40115 70522 8532/ 333 59018 70075 84616 88458 81930==
41891,2024,10,09,03,00,AAXX 09034 41891 01325 81202 10258 20240 30096 40135 79522 8632/ 333 20242 59015 70077 86708 88458 81925==
41891,2024,10,09,06,00,AAXX 09064 41891 11440 71202 10288 20250 30077 40115 60026 70596 84370 333 59023 70030 84615 86460 81930==
41891,2024,10,09,09,00,AAXX 09094 41891 01445 70902 10290 20250 30044 40082 70522 84370 333 59023 70020 84616 86460 81930==
41891,2024,10,09,12,00,AAXX 09123 41891 01440 40801 10280 20250 30043 40081 70522 84370 333 10303 59021 70020 84616 84460 81930==
41891,2024,10,09,15,00,AAXX 09154 41891 01430 60000 10260 20250 30064 40102 70522 83310 333 59033 70020 83616 85458 81928==
41891,2024,10,09,18,00,AAXX 09184 41891 01440 20000 10256 20250 30060 40099 70521 82500 333 59030 70020 82616==
41891,2024,10,09,21,00,AAXX 09214 41891 01440 50000 10253 20240 30058 40097 70520 83510 333 59022 70020 83615 84458==
41891,2024,10,10,00,00,AAXX 10004 41891 01330 80000 10250 20240 30060 40099 70520 8462/ 333 59016 70020 82708 83615 88458 81928==
41891,2024,10,10,03,00,AAXX 10034 41891 01435 80000 10274 20250 30076 40115 70562 8532/ 333 20246 59020 70058 82710 84615 88458 81930==
41891,2024,10,10,06,00,AAXX 10064 41891 11440 80000 10280 20250 30062 40100 60046 70562 8532/ 333 59015 70040 82710 84615 88458 81930==
41891,2024,10,10,09,00,AAXX 10094 41891 01440 80000 10305 20260 30034 40072 70522 84330 333 59010 70040 83615 85365 81930==
41891,2024,10,10,12,00,AAXX 10124 41891 01440 80000 10285 20250 30036 40074 70522 8532/ 333 10312 59007 70040 82710 84615 88458 81930==
41891,2024,10,10,15,00,AAXX 10154 41891 01430 80000 10263 20250 30057 40096 70522 8532/ 333 59007 70040 82708 83615 88458 81930==
41891,2024,10,10,18,00,AAXX 10184 41891 01320 80000 10258 20250 30055 40094 79596 8632/ 333 59005 70010 86707 88458 81925==
41891,2024,10,10,21,00,AAXX 10214 41891 01320 80902 10245 20240 30058 40097 79596 8632/ 333 58000 70170 86707 88458 81925==
41895,2024,10,04,00,00,AAXX 04004 41895 02450 80502 10260 20260 30017 40040 8452/ 333 58005 70314 84616 88458==
41895,2024,10,04,03,00,AAXX 04034 41895 02456 62702 10282 20250 30037 40060 84410 333 20255 58009 70046 83616 86458==
41895,2024,10,04,06,00,AAXX 04064 41895 02457 52703 10324 20260 30031 40053 84401 333 58017 70036 82616 83820==
41895,2024,10,04,09,00,AAXX 04094 41895 02457 53102 10320 20260 30009 40031 84401 333 58015 70010 82616 83820==
41895,2024,10,04,12,00,AAXX 04124 41895 02450 60000 10282 20260 30018 40040 84410 333 10330 58022 70000 83616 86458==
41895,2024,10,04,15,00,AAXX 04154 41895 02450 71301 10270 20260 30042 40064 84420 333 58022 70000 84616 86458==
41895,2024,10,04,18,00,AAXX 04184 41895 02450 50000 10267 20260 30040 40062 84401 333 58021 70000 82616 83820==
41895,2024,10,04,21,00,AAXX 04214 41895 02450 52301 10264 20260 30036 40058 84401 333 58022 70000 82616 83820==
41895,2024,10,05,00,00,AAXX 05004 41895 01450 71301 10260 20260 30040 40063 70522 84520 333 58023 70000 83615 85458==
41895,2024,10,05,03,00,AAXX 05034 41895 01450 80000 10276 20260 30065 40087 70522 8532/ 333 20258 58028 70000 84615 88458 81930==
41895,2024,10,05,06,00,AAXX 05064 41895 02558 22702 10320 20240 30056 40076 82200 333 58025 70000 82825==
41895,2024,10,05,09,00,AAXX 05094 41895 02458 52302 10340 20260 30031 40053 84302 333 58022 70000 82615 83820 81930==
41895,2024,10,05,12,00,AAXX 05124 41895 01450 81401 10276 20270 30043 40065 70362 8452/ 333 10342 58025 70050 84615 88458==
41895,2024,10,05,15,00,AAXX 05154 41895 01450 80000 10275 20270 30070 40092 76166 8452/ 333 58028 70056 84615 88458==
41895,2024,10,05,18,00,AAXX 05184 41895 21450 80901 10275 20270 30070 40092 70262 8452/ 333 58030 60017 70060 84615 88458==
41895,2024,10,05,21,00,AAXX 05214 41895 02450 80901 10273 20260 30074 40096 8452/ 333 58038 70060 84615 88458==
41895,2024,10,06,00,00,AAXX 06004 41895 21450 80901 10270 20260 30078 40100 76202 8452/ 333 58038 69925 70062 84615 88458==
41895,2024,10,06,03,00,AAXX 06034 41895 01456 50901 10286 20270 30097 40119 70522 83520 333 20266 58032 70062 83615 85458==
41895,2024,10,06,06,00,AAXX 06064 41895 01456 70502 10297 20280 30090 40111 70522 84520 333 58034 70062 84615 85458==
41895,2024,10,06,09,00,AAXX 06094 41895 01340 83602 10280 20280 30068 40090 79595 8592/ 333 58037 70224 82710 84615 88458 81925==
41895,2024,10,06,12,00,AAXX 06124 41895 21450 71802 10280 20270 30074 40096 70596 84520 333 10312 58031 60349 70354 84615 86458==
41895,2024,10,06,15,00,AAXX 06154 41895 01450 80000 10272 20270 30100 40123 70562 8452/ 333 58030 70352 84616 88458==
41895,2024,10,06,18,00,AAXX 06184 41895 11450 81303 10267 20267 30096 40119 69946 70562 8452/ 333 58026 70348 84616 88458==
41895,2024,10,06,21,00,AAXX 06214 41895 01450 80000 10267 20267 30100 40122 70522 8452/ 333 58026 70348 84616 88458==
41895,2024,10,07,00,00,AAXX 07004 41895 01450 80902 10267 20267 30114 40136 70522 8452/ 333 58036 70346 84616 88458==
41895,2024,10,07,03,00,AAXX 07034 41895 01456 50502 10288 20270 30125 40148 70522 83510 333 20262 58028 70346 83616 85458==
41895,2024,10,07,06,00,AAXX 07064 41895 01456 32302 10324 20260 30114 40136 70521 83500 333 58024 70346 83616==
41895,2024,10,07,09,00,AAXX 07094 41895 01456 41802 10334 20260 30086 40108 70521 84800 333 58018 70184 82616 83825==
41895,2024,10,07,12,00,AAXX 07124 41895 01450 83601 10290 20260 30087 40109 70522 8452/ 333 10340 58013 70004 84615 88458==
41895,2024,10,07,15,00,AAXX 07154 41895 01950 00000 10266 20260 30109 40132 70510 333 58009 70000==
41895,2024,10,07,18,00,AAXX 07184 41895 01450 60000 10260 20250 30107 40130 70521 83520 333 58011 70000 83616 86458==
41895,2024,10,07,21,00,AAXX 07214 41895 01950 00000 10262 20260 30105 40128 70510 333 58005 70000==
41895,2024,10,08,00,00,AAXX 08004 41895 01950 00000 10262 20260 30105 40128 70500 333 59009 70000==
41895,2024,10,08,03,00,AAXX 08033 41895 01/56 32302 10294 20270 30125 40147 70510 83010 333 20262 58000 70000 83458==
41895,2024,10,08,06,00,AAXX 08064 41895 01456 42703 10332 20260 30108 40130 70511 83410 333 59006 70000 82616 84458==
41895,2024,10,08,09,00,AAXX 08094 41895 01456 70902 10324 20250 30078 40100 71792 85310 333 59008 70000 83616 87458 81928==
41895,2024,10,08,12,00,AAXX 08124 41895 21450 82702 10270 20260 30081 40103 70396 8452/ 333 10342 59006 60045 70037 84615 88458==
41895,2024,10,08,15,00,AAXX 08154 41895 01450 80000 10264 20250 30100 40122 70262 8452/ 333 59009 70055 84615 88458==
41895,2024,10,08,18,00,AAXX 08184 41895 NIL=
41895,2024,10,08,21,00,AAXX 08214 41895 02450 81803 10258 20250 30092 40114 8452/ 333 59013 70055 84615 88458==
41895,2024,10,09,00,00,AAXX 09004 41895 21450 81803 10260 20260 30087 40109 70262 8452/ 333 59018 69945 70059 84615 88458==
41895,2024,10,09,03,00,AAXX 09034 41895 01450 50000 10295 20270 30103 40125 70522 83520 333 20254 59022 70059 83615 85458==
41895,2024,10,09,06,00,AAXX 09064 41895 01456 51802 10322 20250 30086 40108 70522 84430 333 59022 70059 82615 83362==
41895,2024,10,09,09,00,AAXX 09094 41895 01457 72702 10326 20280 30050 40073 71792 84920 333 59028 70059 83615 88458 81930==
41895,2024,10,09,12,00,AAXX 09124 41895 01450 80000 10267 20250 30063 40085 79596 8532/ 333 10341 59018 70100 84615 88458 81928==
41895,2024,10,09,15,00,AAXX 09154 41895 01450 81802 10251 20250 30072 40095 71796 8592/ 333 59028 70122 84615 88458 81928==
41895,2024,10,09,18,00,AAXX 09184 41895 11450 81802 10260 20250 30077 40099 60026 70296 8452/ 333 59019 70122 84615 88458==
41895,2024,10,09,21,00,AAXX 09214 41895 01450 50000 10251 20250 30076 40098 70522 83520 333 59016 70122 83616 85458==
41895,2024,10,10,00,00,AAXX 10004 41895 01450 50000 10250 20250 30075 40097 70522 83520 333 59012 70122 83616 85458==
41895,2024,10,10,03,00,AAXX 10034 41895 01450 71802 10276 20260 30085 40110 70522 84520 333 20244 59015 70118 84615 86458==
41895,2024,10,10,06,00,AAXX 10064 41895 01456 31802 10314 20260 30075 40097 70721 83500 333 59011 70118 83615==
41895,2024,10,10,09,00,AAXX 10094 41895 01456 32702 10326 20280 30043 40065 70511 83800 333 59007 70118 82616==
41895,2024,10,10,12,00,AAXX 10124 41895 01950 00000 10300 20280 30049 40071 70510 333 10332 59014 70018==
41895,2024,10,10,15,00,AAXX 10154 41895 01450 60000 10286 20280 30062 40084 70521 83520 333 59010 70000 83616 86458==
41895,2024,10,10,18,00,AAXX 10184 41895 01450 60000 10276 20270 30068 40090 70522 83520 333 59009 70000 83616 86458==
41895,2024,10,10,21,00,AAXX 10214 41895 01450 80000 10272 20260 30065 40087 70522 8452/ 333 59011 70000 84615 88458==
41897,2024,10,04,00,00,AAXX 04004 41897 11330 81802 10260 20250 30018 40031 60014 76162 8562/ 333 56499 58001 70230 83707 85612 88458=
41897,2024,10,04,06,00,AAXX 04064 41897 11450 61801 10290 20260 30039 40052 60014 72162 83530 333 56490 58017 70150 83616 86360=
41897,2024,10,04,12,00,AAXX 04124 41897 11325 81802 10267 20260 30025 40038 60124 76162 8562/ 333 10305 56499 58021 70140 83707 85612 88458=
41897,2024,10,04,18,00,AAXX 04184 41897 32440 81802 10262 20250 30049 40062 8352/ 333 56499 58023 70140 83615 88458=
41897,2024,10,05,00,00,AAXX 05004 41897 32435 81502 10265 20260 30048 40061 8352/ 333 56999 58030 70130 83615 88458=
41897,2024,10,05,06,00,AAXX 05064 41897 32450 61502 10305 20260 30064 40076 83530 333 56990 58025 70120 83616 86360=
41897,2024,10,05,12,00,AAXX 05124 41897 11335 81602 10275 20260 30052 40065 60320 70296 8462/ 333 10320 56999 58026 70320 82710 84615 88458=
41897,2024,10,05,18,00,AAXX 05184 41897 32430 81501 10265 20260 30082 40095 8352/ 333 56999 58033 70320 83615 88458=
41897,2024,10,06,00,00,AAXX 06004 41897 11330 80902 10264 20250 30087 40101 60016 71762 8592/ 333 56299 58039 70330 82710 81925 85615 88458=
41897,2024,10,06,06,00,AAXX 06064 41897 11335 81501 10278 20260 30103 40115 60388 70296 8462/ 333 56999 58039 70710 82710 84615 88458=
41897,2024,10,06,12,00,AAXX 06124 41897 32450 60901 10275 20260 30081 40094 82530 333 10300 56990 58029 70390 82617 86362=
41897,2024,10,06,18,00,AAXX 06184 41897 31940 30000 10260 20250 30105 40118 70521 83030 333 56090 58023 70390 83362=
41897,2024,10,07,00,00,AAXX 07004 41897 31925 00901 10258 20258 30117 40130 70500 333 58030 70380=
41897,2024,10,07,06,00,AAXX 07064 41897 32450 20000 10324 20240 30118 40131 82500 333 56900 58015 70000 82616=
41897,2024,10,07,12,00,AAXX 07124 41897 11440 30602 10292 20270 30092 40108 60015 70162 81530 333 10335 56990 58014 70010 81618 83362=
41897,2024,10,07,18,00,AAXX 07184 41897 31440 51801 10265 20230 30117 40130 71720 83310 333 58007 70010 82617 81928 85458=
41897,2024,10,08,00,00,AAXX 08004 41897 32440 31401 10265 20260 30111 40125 81510 333 56990 59006 70010 81618 83458=
41897,2024,10,08,12,00,AAXX 08124 41897 32440 61801 10275 20250 30086 40099 82510 333 10336 56990 59009 70000 82617 86457=
41897,2024,10,08,18,00,AAXX 08184 41897 11440 51801 10260 20240 30106 40119 70162 82510 333 56990 59011 70010 82618 85458=
41897,2024,10,09,00,00,AAXX 09004 41897 32440 31401 10260 20250 30096 40109 81510 333 56990 59015 70010 81618 83458=
41897,2024,10,09,06,00,AAXX 09064 41897 42450 51802 10310 20260 30097 40110 82510 333 56990 59014 70010 82617 85457=
41897,2024,10,09,12,00,AAXX 09124 41897 11450 51802 10260 20240 30071 40085 60024 70262 82510 333 10320 56990 59015 70030 82617 85458=
41897,2024,10,09,18,00,AAXX 09184 41897 32440 31801 10250 20240 30086 40100 8151O 333 56990 59020 70020 81618 83458=
41897,2024,10,10,00,00,AAXX 10004 41897 32440 31801 10245 20240 30082 40096 81510 333 56990 59014 70020 81618 83458=
41897,2024,10,10,06,00,AAXX 10064 41897 32450 31802 10320 20260 30077 40090 82510 333 56990 59020 70020 82618 83458=
41897,2024,10,10,12,00,AAXX 10124 41897 31440 80000 10300 20260 30060 40073 70522 84310 333 10328 56990 59011 70000 81710 83620 81930 88460=
41897,2024,10,10,18,00,AAXX 10184 41897 31440 80000 10275 20260 30075 40088 70522 84310 333 56990 59008 70000 81710 83620 81930 88460=
41902,2024,10,04,00,00,AAXX 04004 41902 31430 71801 10264 20240 30036 40045 71322 85320 333 56990 58011 70090 83615 81928 87459=
41902,2024,10,04,06,00,AAXX 04064 41902 31456 71805 10297 20260 30050 40059 70522 85320 333 56990 58033 70060 83615 81928 87459=
41902,2024,10,04,12,00,AAXX 04124 41902 31440 82002 10275 20260 30040 40049 70522 8352/ 333 10305 56999 58026 70010 83612 88458=
41902,2024,10,04,18,00,AAXX 04184 41902 11330 81403 10270 20250 30061 40070 60014 79596 8462/ 333 56299 58029 70010 82710 83612 88458=
41902,2024,10,05,00,00,AAXX 05004 41902 11330 82101 10255 20252 30068 40077 60189 72196 8462/ 333 56299 58032 70190 82710 83612 88458=
41902,2024,10,05,06,00,AAXX 05064 41902 NIL=
41902,2024,10,05,12,00,AAXX 05124 41902 11340 81001 10263 20250 30067 40076 60024 70562 8462/ 333 10284 56299 58027 70250 82710 83612 88458=
41902,2024,10,05,18,00,AAXX 05184 41902 31330 83202 10262 20250 30088 40097 70522 8462/ 333 56299 58027 70250 82710 83612 88458=
41902,2024,10,06,06,00,AAXX 06064 41902 31450 60502 10300 20270 30111 40120 70544 82530 333 56290 58020 70020 82614 85362=
41902,2024,10,06,12,00,AAXX 06124 41902 32440 50901 10292 20260 30086 40094 82530 333 10316 56290 58019 70000 82614 84362=
41902,2024,10,07,00,00,AAXX 07004 41902 32430 60000 10263 20250 30121 40129 82530 333 56990 58023 70000 82614 85362=
41902,2024,10,07,06,00,AAXX 07064 41902 32450 30901 10320 20270 30116 40125 82530 333 56990 58005 70000 82614=
41902,2024,10,07,12,00,AAXX 07124 41902 32440 40000 10283 20250 30101 40109 83430 333 10330 56990 58015 70000 82614 83362=
41902,2024,10,07,18,00,AAXX 07184 41902 NIL=
41902,2024,10,08,00,00,AAXX 08004 41902 32430 61701 10272 20260 30121 40129 83430 333 56490 58000 70000 82614 85362=
41902,2024,10,08,06,00,AAXX 08064 41902 11430 81701 10246 20230 30127 40136 60093 72996 8562/ 333 56499 58011 70090 82710 83613 88459=
41902,2024,10,08,12,00,AAXX 08124 41902 32430 70000 10261 20250 30093 40102 83510 333 10298 56990 59008 70090 93614 87459=
41902,2024,10,08,18,00,AAXX 08184 41902 NIL=
41902,2024,10,09,00,00,AAXX 09004 41902 32430 60000 10254 20256 30105 40113 83510 333 56990 59016 70090 83614 86459=
41902,2024,10,09,06,00,AAXX 09064 41902 32440 40901 10307 20260 30102 40111 82530 333 56990 59025 70000 82614 83362=
41902,2024,10,09,12,00,AAXX 09124 41902 11430 82301 10276 20270 30078 40086 69974 79111 8592/ 333 10325 56999 59015 70007 83614 82929 88459=
41902,2024,10,10,00,00,AAXX 10004 41902 32430 80000 10256 20250 30092 40100 8352/ 333 56999 59013 70020 83614 88459=
41902,2024,10,10,06,00,AAXX 10064 41902 32450 61701 10305 20260 30092 40100 83530 333 56990 59010 70020 83614 85362=
41902,2024,10,10,12,00,AAXX 10124 41902 32440 51802 10287 20260 30067 40076 82530 333 10317 56990 59011 70013 82615 85362=
41902,2024,10,10,18,00,AAXX 10184 41902 31440 71802 10285 20260 30082 40090 85320 333 56990 59013 70000 83615 81928 87459=
41907,2024,10,04,00,00,AAXX 04004 41907 21330 80000 10264 20250 30016 40031 72166 8672/ 333 58010 60299 70517 85709 88458==
41907,2024,10,04,03,00,AAXX 04034 41907 01330 80000 10275 20270 30039 40054 72162 8662/ 333 20258 58008 70460 85709 88458==
41907,2024,10,04,06,00,AAXX 04064 41907 21330 80000 10285 20270 30036 40051 71796 8962/ 333 58019 60028 70455 82709 83615 88458 81930==
41907,2024,10,04,09,00,AAXX 04094 41907 02450 80000 10310 20260 30013 40027 8682/ 333 58017 70455 83615 85825 88458==
41907,2024,10,04,12,00,AAXX 04124 41907 01340 80000 10285 20280 30020 40035 70292 8672/ 333 10320 58023 70455 85709 88458==
41907,2024,10,04,15,00,AAXX 04154 41907 01340 80000 10275 20270 30047 40062 70262 8672/ 333 58024 70310 85709 88458==
41907,2024,10,04,18,00,AAXX 04184 41907 11340 80000 10265 20260 30046 40061 60016 70262 8672/ 333 58026 70310 85709 88458==
41907,2024,10,04,21,00,AAXX 04214 41907 02340 80000 10260 20260 30042 40057 8672/ 333 58026 70110 85709 88458==
41907,2024,10,05,00,00,AAXX 05004 41907 02340 80000 10261 20260 30041 40056 8672/ 333 58025 70020 85709 88458==
41907,2024,10,05,03,00,AAXX 05034 41907 02450 62302 10285 20270 30067 40081 83530 333 20260 58028 70010 83615 85362==
41907,2024,10,05,06,00,AAXX 05064 41907 02450 61802 10304 20250 30062 40076 84530 333 58026 70005 84616 86362==
41907,2024,10,05,09,00,AAXX 05094 41907 02450 81802 10312 20270 30038 40053 8552/ 333 58025 70010 85615 88458==
41907,2024,10,05,12,00,AAXX 05124 41907 01450 80000 10268 20260 30049 40064 72996 8552/ 333 10328 58029 70040 85615 88458==
41907,2024,10,05,15,00,AAXX 05154 41907 02440 80000 10271 20260 30071 40088 8552/ 333 58026 70035 85615 88458==
41907,2024,10,05,18,00,AAXX 05184 41907 02440 80000 10265 20260 30076 40090 8552/ 333 58030 70035 85615 88458==
41907,2024,10,05,21,00,AAXX 05214 41907 02440 80000 10265 20260 30073 40088 8552/ 333 58031 70035 85615 88458==
41907,2024,10,06,00,00,AAXX 06004 41907 02340 80000 10265 20260 30080 40094 8662/ 333 58039 70035 82709 85615 88458==
41907,2024,10,06,03,00,AAXX 06034 41907 02340 81801 10275 20260 30101 40116 8662/ 333 20260 58034 70035 85709 88458==
41907,2024,10,06,06,00,AAXX 06064 41907 02340 81802 10305 20270 30098 40112 8662/ 333 58036 70030 82709 84615 88458==
41907,2024,10,06,09,00,AAXX 06094 41907 01450 70902 10305 20270 30071 40086 70162 84810 333 58033 70040 82615 83825 85458==
41907,2024,10,06,12,00,AAXX 06124 41907 11550 40000 10285 20260 30077 40092 60016 70162 82130 333 10308 58028 70010 82825 83362==
41907,2024,10,06,15,00,AAXX 06154 41907 02440 70000 10270 20260 30105 40120 84510 333 58032 70010 84615 87458==
41907,2024,10,06,18,00,AAXX 06184 41907 02940 00000 10268 20260 30100 40115 333 58024 70010==
41907,2024,10,06,21,00,AAXX 06214 41907 02940 00000 10265 20265 30097 40112 333 58024 70010==
41907,2024,10,07,00,00,AAXX 07004 41907 01940 00000 10262 20260 30110 40125 70500 333 58030 70010==
41907,2024,10,07,03,00,AAXX 07034 41907 01440 50000 10290 20270 30128 40143 70500 85800 333 20260 58027 70010 82615 83825==
41907,2024,10,07,06,00,AAXX 07064 41907 01440 80000 10315 20260 30118 40133 70520 8681/ 333 58020 70010 83615 83825 88458==
41907,2024,10,07,09,00,AAXX 07094 41907 01440 72302 10335 20260 30088 40102 70522 85810 333 58012 70000 82615 83825 86458==
41907,2024,10,07,12,00,AAXX 07124 41907 01440 60000 10305 20280 30088 40102 70522 85810 333 10340 58011 70000 82615 83825 85458==
41907,2024,10,07,15,00,AAXX 07154 41907 01430 60000 10287 20280 30113 40128 70522 85810 333 58008 70000 82615 83825 85458==
41907,2024,10,07,18,00,AAXX 07184 41907 01330 80000 10280 20270 30110 40125 72992 8672/ 333 58010 70000 83709 84615 88458==
41907,2024,10,07,21,00,AAXX 07214 41907 01330 80000 10274 20260 30102 40117 70522 8672/ 333 58005 70000 83709 84615 88458==
41907,2024,10,08,00,00,AAXX 08004 41907 01430 80000 10268 20268 30109 40124 70522 8552/ 333 59001 70000 85615 88458==
41907,2024,10,08,03,00,AAXX 08033 41907 02450 61801 10295 20270 30129 40144 83510 333 20262 58001 70000 83615 86458==
41907,2024,10,08,06,00,AAXX 08064 41907 02456 62702 10325 20260 30109 40123 85830 333 59009 70000 83615 85362==
41907,2024,10,08,09,00,AAXX 08094 41907 01450 83102 10297 20260 30082 40096 71722 8592/ 333 59006 70000 84615 88458 81930==
41907,2024,10,08,12,00,AAXX 08124 41907 21340 81802 10260 20240 30079 40094 79596 8692/ 333 10340 59009 60127 70120 83709 85615 88458 81930==
41907,2024,10,08,15,00,AAXX 08154 41907 01440 80000 10255 20250 30104 40119 70296 8552/ 333 59009 70135 85615 88458==
41907,2024,10,08,18,00,AAXX 08184 41907 11440 80000 10255 20250 30103 40118 60026 70296 8552/ 333 59007 70135 85615 88458==
41907,2024,10,08,21,00,AAXX 08214 41907 02440 80000 10255 20250 30092 40107 8552/ 333 59010 70135 85615 88458==
41907,2024,10,09,00,00,AAXX 09004 41907 02440 80000 10256 20250 30090 40105 8552/ 333 59019 70135 85615 88458==
41907,2024,10,09,03,00,AAXX 09034 41907 01940 02302 10300 20260 30105 40119 70522 333 20250 59024 70135==
41907,2024,10,09,06,00,AAXX 09064 41907 01440 40000 10325 20270 30091 40106 70520 84800 333 59018 70135 82615 83825==
41907,2024,10,09,09,00,AAXX 09094 41907 01320 81802 10285 20280 30069 40084 79711 8692/ 333 59013 70155 85709 88458 82930==
41907,2024,10,09,12,00,AAXX 09123 41907 21340 81801 10250 20240 30070 40085 71796 8692/ 333 10340 59009 60197 70205 85709 88458 81930==
41907,2024,10,09,15,00,AAXX 09154 41907 01330 80000 10250 20250 30078 40093 71799 8692/ 333 59026 70190 85709 88458 81930==
41907,2024,10,09,18,00,AAXX 09184 41907 01330 82202 10245 20240 30085 40100 70292 8662/ 333 59018 70190 82709 85615 88458==
41907,2024,10,09,21,00,AAXX 09214 41907 02440 80000 10246 20240 30077 40092 8552/ 333 59015 70190 85615 88458==
41907,2024,10,10,00,00,AAXX 10004 41907 02440 60000 10246 20240 30079 40094 82510 333 59011 70190 82615 85458==
41907,2024,10,10,03,00,AAXX 10034 41907 02450 61802 10275 20260 30092 40106 83510 333 20245 59013 70190 83615 85458==
41907,2024,10,10,06,00,AAXX 10064 41907 02450 62702 10315 20270 30079 40093 82510 333 59012 70170 82615 86458==
41907,2024,10,10,09,00,AAXX 10094 41907 02450 60000 10322 20260 30052 40067 82510 333 59017 70170 82615 86458==
41907,2024,10,10,12,00,AAXX 10124 41907 02440 80000 10300 20270 30054 40069 8552/ 333 10328 59016 70000 85615 88458==
41907,2024,10,10,15,00,AAXX 10154 41907 02440 81802 10280 20260 30067 40082 8552/ 333 59011 70000 85615 88458==
41907,2024,10,10,18,00,AAXX 10184 41907 02440 81802 10277 20270 30072 40087 8552/ 333 59013 70000 85615 88458==
41909,2024,10,04,00,00,AAXX 04004 41909 21320 80000 10256 20256 30019 40031 79596 8692/ 333 58007 60319 70480 86707 88458 81928==
41909,2024,10,04,03,00,AAXX 04034 41909 01340 80000 10260 20250 30046 40057 79596 8692/ 333 20248 58011 71660 86707 88458 81928==
41909,2024,10,04,06,00,AAXX 04064 41909 21350 80000 10264 20250 30043 40054 79596 8692/ 333 58021 61649 72070 86707 88458 81928==
41909,2024,10,04,09,00,AAXX 04094 41909 01350 81801 10258 20250 30022 40033 72996 8692/ 333 58023 72110 85708 88458 81930==
41909,2024,10,04,12,00,AAXX 04124 41909 01340 80000 10256 20250 30028 40039 79596 8692/ 333 10280 58023 72108 85708 88458 81930==
41909,2024,10,04,15,00,AAXX 04154 41909 01330 81801 10251 20240 30054 40065 76196 8672/ 333 58025 72152 85707 88458==
41909,2024,10,04,18,00,AAXX 04184 41909 21330 80000 10250 20240 30051 40062 70296 8562/ 333 58026 60095 72086 84708 88458==
41909,2024,10,04,21,00,AAXX 04214 41909 02330 80000 10254 20240 30050 40061 8562/ 333 58032 71956 84708 88458==
41909,2024,10,05,00,00,AAXX 05004 41909 02350 80901 10259 20250 30049 40060 8562/ 333 58030 71780 84708 88458==
41909,2024,10,05,03,00,AAXX 05034 41909 02350 81802 10263 20250 30071 40082 8562/ 333 20240 58025 70480 84708 88458==
41909,2024,10,05,06,00,AAXX 05064 41909 01350 81801 10264 20250 30071 40082 76162 8572/ 333 58028 70190 85708 88458==
41909,2024,10,05,09,00,AAXX 05094 41909 01350 80000 10274 20260 30054 40065 76162 8572/ 333 58032 70310 85708 88458==
41909,2024,10,05,12,00,AAXX 05124 41909 21340 80000 10264 20250 30051 40062 76166 8572/ 333 10276 58023 60019 70300 84708 88458==
41909,2024,10,05,15,00,AAXX 05154 41909 21340 80000 10264 20250 30051 40062 76166 8572/ 333 10276 58023 60019 70310 84708 88458==
41909,2024,10,05,18,00,AAXX 05184 41909 02440 80000 10260 20250 30076 40088 8562/ 333 58025 70220 84708 88458==
41909,2024,10,05,21,00,AAXX 05214 41909 01440 80000 10258 20250 30071 40082 70266 8562/ 333 58021 70280 84708 88458==
41909,2024,10,06,00,00,AAXX 06004 41909 21350 80000 10258 20250 30071 40082 79596 8692/ 333 58022 60119 70330 86708 88458 81930==
41909,2024,10,06,03,00,AAXX 06034 41909 01456 61802 10284 20260 30110 40121 70196 83510 333 20250 58039 70340 83615 86458==
41909,2024,10,06,06,00,AAXX 06064 41909 11456 61801 10290 20260 30107 40118 60042 70296 82510 333 58036 70180 82615 86458==
41909,2024,10,06,09,00,AAXX 06094 41909 02356 80000 10300 20270 30075 40086 8632/ 333 58021 70160 83708 83614 88460 81930==
41909,2024,10,06,12,00,AAXX 06124 41909 01320 81801 10290 20270 30083 40094 79522 8692/ 333 10306 58032 70006 86707 88458 81928==
41909,2024,10,06,15,00,AAXX 06154 41909 01430 80000 10270 20260 30107 40118 71796 333 58026 70244 85614 88460 81930==
41909,2024,10,06,18,00,AAXX 06184 41909 11430 80000 10268 20260 30105 40116 60096 70296 8552/ 333 58029 70244 85615 88460==
41909,2024,10,06,21,00,AAXX 06214 41909 01430 80000 10265 20260 30103 40114 70522 8552/ 333 58032 70184 85614 88460==
41909,2024,10,07,00,00,AAXX 07004 41909 01340 80000 10262 20250 30114 40126 70522 8562/ 333 58043 70134 83708 83614 88458==
41909,2024,10,07,03,00,AAXX 07034 41909 02456 51802 10291 20260 30133 40144 82530 333 20250 58023 70124 82615 85360==
41909,2024,10,07,06,00,AAXX 07064 41909 02456 61802 10314 20270 30122 40133 82510 333 58015 70094 82615 86458==
41909,2024,10,07,09,00,AAXX 07094 41909 01456 30000 10322 20250 30095 40106 70162 83800 333 58020 70102 82615==
41909,2024,10,07,12,00,AAXX 07124 41909 11456 61302 10299 20250 30098 40109 69986 70362 82810 333 10330 58015 70096 82615 85458==
41909,2024,10,07,15,00,AAXX 07154 41909 02440 50000 10280 20250 30120 40131 82510 333 58013 70008 82615 84458==
41909,2024,10,07,18,00,AAXX 07184 41909 02340 80000 10274 20250 30114 40125 8462/ 333 58009 70008 83708 88458==
41909,2024,10,07,21,00,AAXX 07214 41909 01340 81302 10249 20240 30111 40122 79596 8692/ 333 58008 70118 85708 88458 81930==
41909,2024,10,08,00,00,AAXX 08004 41909 21440 50000 10254 20240 30113 40124 70196 82510 333 59001 60159 70148 82615 84458==
41909,2024,10,08,03,00,AAXX 08033 41909 02456 50000 10291 20260 30133 40144 82510 333 20240 58000 70148 82615 84458==
41909,2024,10,08,06,00,AAXX 08064 41909 02456 60000 10322 20250 30119 40130 82510 333 59003 70148 82615 86458==
41909,2024,10,08,09,00,AAXX 08094 41909 01456 82701 10328 20260 30083 40094 70192 82530 333 59012 70140 82615 85360==
41909,2024,10,08,12,00,AAXX 08124 41909 01350 80000 10295 20250 30087 40098 70392 8532/ 333 10330 59011 70140 84708 88458 81930==
41909,2024,10,08,15,00,AAXX 08154 41909 02330 80000 10273 20240 30110 40121 8562/ 333 59010 70140 84708 88458==
41909,2024,10,08,18,00,AAXX 08184 41909 02320 81801 10268 20230 30109 40120 8562/ 333 59005 70140 85708 88458==
41909,2024,10,08,21,00,AAXX 08214 41909 02330 80000 10264 20240 30104 40116 8562/ 333 59007 70030 84708 88458==
41909,2024,10,09,00,00,AAXX 09004 41909 02450 80000 10260 20240 30095 40107 8552/ 333 59018 70000 85614 88458==
41909,2024,10,09,03,00,AAXX 09033 41909 02456 80000 10275 20260 30112 40123 8552/ 333 20246 59021 70000 85614 88458==
41909,2024,10,09,06,00,AAXX 09064 41909 02456 60000 10316 20260 30100 40111 82510 333 59019 70000 82615 86458==
41909,2024,10,09,09,00,AAXX 09094 41909 02456 80000 10299 20260 30067 40078 8552/ 333 59016 70000 85614 88458==
41909,2024,10,09,15,00,AAXX 09154 41909 21350 80000 10274 20250 30071 40082 79596 8692/ 333 10320 59016 69957 70005 84708 88458 81930==
41909,2024,10,09,18,00,AAXX 09184 41909 22340 80000 10255 20240 30091 40102 8552/ 333 59018 60049 70045 84708 88458==
41909,2024,10,09,21,00,AAXX 09214 41909 02440 80000 10252 20240 30094 40105 8552/ 333 59010 70045 84708 88458==
41909,2024,10,10,00,00,AAXX 10004 41909 21350 80000 10249 20240 30084 40095 76122 8562/ 333 59011 60017 70055 84708 88458==
41909,2024,10,10,03,00,AAXX 10034 41909 02356 80000 10270 20250 30098 40109 8562/ 333 20236 59014 70055 84708 88458==
41909,2024,10,10,06,00,AAXX 10064 41909 02456 60000 10316 20260 30085 40096 82510 333 59015 70055 82615 86458==
41909,2024,10,10,09,00,AAXX 10094 41909 02456 21802 10323 20240 30053 40064 82500 333 59014 70055 82615==
41909,2024,10,10,12,00,AAXX 10124 41909 02950 00000 10300 20260 30061 40072 333 10325 59010 70050==
41909,2024,10,10,15,00,AAXX 10154 41909 02945 00000 10280 20260 30074 40085 333 59011 70010==
41909,2024,10,10,18,00,AAXX 10184 41909 02940 00000 10275 20260 30078 40089 333 59013 70010==
41909,2024,10,10,21,00,AAXX 10214 41909 02940 00000 10270 20250 30073 40084 333 59021 70010==
41915,2024,10,04,00,00,AAXX 04004 41915 02450 71102 10256 20250 30031 40057 82570 333 58016 70000 82616 85459==
41915,2024,10,04,03,00,AAXX 04034 41915 02456 71302 10282 20240 30055 40080 84570 333 20254 58021 70000 84616 86458==
41915,2024,10,04,06,00,AAXX 04064 41915 02456 71602 10310 20250 30048 40073 84470 333 58028 70000 83616 85458==
41915,2024,10,04,09,00,AAXX 04094 41915 01456 81303 10300 20260 30024 40049 71722 8632/ 333 58024 70000 85616 88458 81928==
41915,2024,10,04,12,00,AAXX 04124 41915 01450 80000 10270 20260 30028 40053 70296 8632/ 333 10325 58020 70020 85616 88458 81928==
41915,2024,10,04,15,00,AAXX 04154 41915 02440 70000 10268 20260 30058 40083 85470 333 58021 70015 84616 84458==
41915,2024,10,04,21,00,AAXX 04214 41915 02440 80000 10255 20250 30048 40073 8662/ 333 58019 70015 82710 85616 88458==
41915,2024,10,05,00,00,AAXX 05004 41915 01456 80000 10246 20246 30055 40081 76162 8772/ 333 58021 70200 84710 85616 88458==
41915,2024,10,05,03,00,AAXX 05034 41915 01450 81301 10257 20250 30077 40103 76166 8672/ 333 20242 58022 70221 83712 84615 88458==
41915,2024,10,05,06,00,AAXX 05064 41915 01456 80000 10270 20250 30068 40094 76066 8571/ 333 58020 70222 82712 84615 88458==
41915,2024,10,05,09,00,AAXX 05094 41915 01456 80000 10288 20260 30051 40076 70266 8661/ 333 58027 70228 83710 84615 88458==
41915,2024,10,05,12,00,AAXX 05124 41915 11450 81301 10266 20250 30055 40081 69966 70262 8562/ 333 10292 58027 70213 82712 84615 88458==
41915,2024,10,05,15,00,AAXX 05154 41915 02450 70000 10256 20250 30086 40112 85620 333 58028 70213 82712 84615 87458==
41915,2024,10,05,18,00,AAXX 05184 41915 02450 60000 10250 20250 30083 40109 83510 333 58032 70213 83616 86460==
41915,2024,10,05,21,00,AAXX 05214 41915 02450 50000 10243 20240 30078 40104 82510 333 58030 70213 82616 85460==
41915,2024,10,06,00,00,AAXX 06004 41915 02956 51101 10241 20240 30088 40113 80002 333 58033 70013 85080==
41915,2024,10,06,03,00,AAXX 06034 41915 02456 60000 10300 20250 30111 40136 84410 333 20240 58033 70007 83616 84458==
41915,2024,10,06,06,00,AAXX 06064 41915 02456 70000 10302 20250 30098 40123 85410 333 58030 70006 84616 85458==
41915,2024,10,06,09,00,AAXX 06094 41915 02456 60000 10314 20250 30069 40094 84402 333 58018 70000 83616 83080==
41915,2024,10,06,12,00,AAXX 06124 41915 02450 50000 10295 20270 30076 40101 83301 333 10330 58021 70000 82616 81928==
41915,2024,10,06,15,00,AAXX 06154 41915 02950 00000 10265 20260 30098 40123 333 58012 70000==
41915,2024,10,06,18,00,AAXX 06184 41915 01440 70000 10260 20250 30098 40128 71720 85310 333 58016 70000 84616 85458 81928==
41915,2024,10,06,21,00,AAXX 06214 41915 01440 80000 10258 20258 30099 40124 79599 8732/ 333 58021 70043 83712 85616 88458 81928==
41915,2024,10,07,00,00,AAXX 07004 41915 21456 80000 10252 20250 30109 40134 79599 8632/ 333 58021 60089 70081 82712 85616 88458 81928==
41915,2024,10,07,03,00,AAXX 07034 41915 01456 71302 10295 20260 30130 40155 70192 83430 333 20251 58019 70084 83616 85362==
41915,2024,10,07,06,00,AAXX 07064 41915 NIL=
41915,2024,10,07,09,00,AAXX 07094 41915 02456 50501 10315 20270 30085 40110 84432 333 58016 70086 83616==
41915,2024,10,07,12,00,AAXX 07124 41915 02450 20000 10288 20270 30085 40110 82432 333 10320 58009 70086 81616==
41915,2024,10,07,15,00,AAXX 07154 41915 02550 30000 10270 20260 30108 40133 81530 333 58010 70086 81616 83362==
41915,2024,10,07,18,00,AAXX 07184 41915 NIL=
41915,2024,10,07,21,00,AAXX 07214 41915 02450 20000 10256 20256 30102 40127 81530 333 58003 70043 81616==
41915,2024,10,08,00,00,AAXX 08004 41915 02450 20000 10255 20255 30108 40133 81530 333 59001 70005 81616==
41915,2024,10,08,03,00,AAXX 08033 41915 02456 70000 10294 20260 30118 40144 85410 333 20252 59011 70002 84616 85458==
41915,2024,10,08,06,00,AAXX 08064 41915 01340 82503 10256 20250 30113 40138 79596 8532/ 333 58005 70000 83708 84616 88458 81928==
41915,2024,10,08,09,00,AAXX 08094 41915 01456 80000 10264 20250 30082 40108 72996 8532/ 333 59003 70024 84616 88458 81928==
41915,2024,10,08,12,00,AAXX 08124 41915 21440 60000 10260 20250 30082 40108 70196 84411 333 10315 58003 60028 70024 83616 84458==
41915,2024,10,08,15,00,AAXX 08154 41915 01430 20000 10245 20245 30102 40127 70521 82500 333 59006 70024 82616==
41915,2024,10,08,18,00,AAXX 08184 41915 01430 23001 10245 20245 30097 40123 70521 82500 333 59010 70024 82616==
41915,2024,10,08,21,00,AAXX 08214 41915 01430 80000 10243 20240 30094 40120 71792 8532/ 333 59008 70024 84616 88458 81928==
41915,2024,10,09,00,00,AAXX 09004 41915 01450 60000 10244 20230 30092 40118 70592 82570 333 59016 70024 82616 84458==
41915,2024,10,09,03,00,AAXX 09034 41915 02456 40000 10280 20240 30102 40127 82530 333 20242 59017 70024 82616 84365==
41915,2024,10,09,06,00,AAXX 09064 41915 01460 80000 10305 20260 30086 40111 70562 8532/ 333 59027 70024 82708 83616 88458 81928==
41915,2024,10,09,09,00,AAXX 09094 41915 02456 63202 10302 20240 30058 40083 84410 333 59024 70000 83616 84458==
41915,2024,10,09,12,00,AAXX 09124 41915 41450 60000 10280 20270 30057 40082 70522 83570 333 10325 59025 83616 84458==
41915,2024,10,09,15,00,AAXX 09154 41915 41450 83301 10270 20260 30076 40101 71792 8532/ 333 59026 84616 88458 81928==
41915,2024,10,09,18,00,AAXX 09184 41915 21440 30000 10252 20250 30074 40100 70596 82510 333 59023 60027 70020 82616 83458==
41915,2024,10,09,21,00,AAXX 09214 41915 01440 30000 10247 20240 30075 40101 70522 82510 333 59019 70020 82616 83458==
41915,2024,10,10,00,00,AAXX 10004 41915 01440 70000 10247 20240 30075 40101 70522 83570 333 59017 70020 83616 86458==
41915,2024,10,10,03,00,AAXX 10034 41915 02456 81801 10286 20260 30094 40119 8461/ 333 20246 59008 70020 81712 84615 88459==
41915,2024,10,10,06,00,AAXX 10064 41915 02456 72703 10310 20250 30086 40111 85410 333 58000 70020 84615 87460==
41915,2024,10,10,09,00,AAXX 10094 41915 02456 41802 10315 20250 30051 40076 84430 333 59006 70020 83616==
41915,2024,10,10,12,00,AAXX 10124 41915 02950 10000 10286 20270 30053 40078 80002 333 10323 59004 70020 81080==
41915,2024,10,10,15,00,AAXX 10154 41915 02450 50000 10266 20260 30071 40096 81510 333 59005 70020 81616 85460==
41915,2024,10,10,21,00,AAXX 10214 41915 01450 80000 10256 20250 30068 40094 71799 8491/ 333 59007 70000 83616 88458 81928==
41923,2024,10,04,00,00,AAXX 04004 41923 02340 81804 10273 20250 30032 40042 8632/ 333 58014 70118 83709 84614 88458 81930==
41923,2024,10,04,03,00,AAXX 04034 41923 02350 81802 10285 20260 30054 40064 8632/ 333 20260 58016 70030 83709 84614 88458 81930==
41923,2024,10,04,06,00,AAXX 04064 41923 02350 71803 10300 20260 30046 40056 84670 333 58017 70026 81709 83615 85458==
41923,2024,10,04,09,00,AAXX 04094 41923 01340 81602 10262 20250 30030 40040 79196 8632/ 333 58023 70192 83709 84615 88458 81930==
41923,2024,10,04,12,00,AAXX 04124 41923 21340 80000 10274 20250 30039 40049 70296 8632/ 333 10314 58027 60208 70198 83709 84615 88458 81930==
41923,2024,10,04,15,00,AAXX 04154 41923 01335 80000 10248 20240 30067 40076 79596 8692/ 333 58028 70418 83708 84614 88458 81930==
41923,2024,10,04,18,00,AAXX 04184 41923 01330 80000 10256 20250 30060 40070 79596 8692/ 333 58023 70450 83708 84614 88458 81930==
41923,2024,10,04,21,00,AAXX 04214 41923 01330 80000 10254 20240 30052 40061 79196 8632/ 333 58025 70576 83709 84615 88458 81930==
41923,2024,10,05,00,00,AAXX 05004 41923 21330 80000 10252 20240 30058 40067 79596 8692/ 333 58026 60249 70686 83708 84614 88458 81930==
41923,2024,10,05,03,00,AAXX 05034 41923 01330 81802 10256 20250 30085 40095 76196 8632/ 333 20245 58031 70708 83708 84614 88458 81930==
41923,2024,10,05,06,00,AAXX 05064 41923 21330 80000 10264 20240 30082 40092 76196 8632/ 333 58036 60069 70748 83708 84614 88458 81930==
41923,2024,10,05,09,00,AAXX 05094 41923 01335 80000 10259 20250 30060 40070 76366 8632/ 333 58030 70802 83708 84614 88458 81930==
41923,2024,10,05,12,00,AAXX 05124 41923 21340 80000 10269 20260 30063 40073 70262 8632/ 333 10274 58024 60248 70790 83709 84615 88458 81930==
41923,2024,10,05,15,00,AAXX 05154 41923 02340 80000 10268 20250 30083 40093 8532/ 333 58023 70570 83709 84615 88458 81930==
41923,2024,10,05,18,00,AAXX 05184 41923 01340 80000 10264 20250 30088 40098 70522 8632/ 333 58028 70538 83709 84615 88458 81930==
41923,2024,10,05,21,00,AAXX 05214 41923 01340 80000 10264 20250 30082 40092 70522 8632/ 333 58030 70412 83709 84615 88458 81930==
41923,2024,10,06,00,00,AAXX 06004 41923 01340 80000 10267 20260 30096 40105 70522 8562/ 333 58038 70302 83709 84615 88458==
41923,2024,10,06,03,00,AAXX 06034 41923 02340 71802 10295 20260 30116 40126 85670 333 20254 58031 70280 82709 84615 86458==
41923,2024,10,06,06,00,AAXX 06064 41923 02450 61802 10322 20240 30106 40116 84430 333 58024 70240 81616 83824 85360==
41923,2024,10,06,09,00,AAXX 06094 41923 42456 50000 10320 20250 30078 40088 84330 333 58018 82615 83824 81930==
41923,2024,10,06,12,00,AAXX 06124 41923 02450 41902 10296 20250 30087 40097 82530 333 10338 58024 70000 82616 83360==
41923,2024,10,06,15,00,AAXX 06154 41923 02450 30000 10280 20250 30113 40123 81530 333 58030 70000 81616 83360==
41923,2024,10,06,18,00,AAXX 06184 41923 NIL=
41923,2024,10,06,21,00,AAXX 06214 41923 02440 40000 10272 20250 30112 40122 82530 333 58030 70000 82615 83360==
41923,2024,10,07,00,00,AAXX 07004 41923 01340 60000 10270 20250 30122 40132 70521 83630 333 58026 70000 81709 83615 85360==
41923,2024,10,07,03,00,AAXX 07034 41923 01450 50000 10302 20260 30140 40150 70522 84430 333 20264 58024 70000 82615 83824==
41923,2024,10,07,06,00,AAXX 07064 41923 02450 70000 10318 20240 30122 40132 85330 333 58016 70000 83615 83824 81930==
41923,2024,10,07,09,00,AAXX 07094 41923 01340 81802 10275 20260 30102 40112 79562 8692/ 333 58024 70022 83708 84613 88458 81928==
41923,2024,10,07,12,00,AAXX 07124 41923 21440 80000 10286 20260 30102 40112 70296 8532/ 333 10330 58015 60068 70064 85615 88459 81930==
41923,2024,10,07,15,00,AAXX 07154 41923 02440 50000 10272 20250 30126 40135 82530 333 58013 70064 82615 85365==
41923,2024,10,07,18,00,AAXX 07184 41923 02940 00000 10270 20260 30121 40130 333 58011 70064==
41923,2024,10,07,21,00,AAXX 07214 41923 01940 00000 10265 20260 30116 40126 70500 333 58004 70064==
41923,2024,10,08,00,00,AAXX 08004 41923 01/40 30000 10263 20250 30122 40131 70500 83030 333 58000 70064 83365==
41923,2024,10,08,03,00,AAXX 08033 41923 01/50 40000 10304 20250 30139 40149 70510 84030 333 20260 59001 70064 84365==
41923,2024,10,08,06,00,AAXX 08064 41923 02/56 41802 10337 20250 30118 40128 84030 333 59004 70064 84365==
41923,2024,10,08,09,00,AAXX 08094 41923 01340 60000 10292 20270 30086 40096 76022 85730 333 59016 70072 82709 83615 85360==
41923,2024,10,08,12,00,AAXX 08124 41923 21340 80000 10283 20250 30097 40107 70362 8532/ 333 10345 59005 60035 70032 82709 84615 88458 81930==
41923,2024,10,08,15,00,AAXX 08154 41923 01340 80000 10272 20250 30121 40130 76062 8632/ 333 59005 70034 82709 84615 88458 81930==
41923,2024,10,08,18,00,AAXX 08184 41923 21340 70000 10270 20250 30112 40121 70162 85370 333 59009 69925 70034 82709 83615 86458 81930==
41923,2024,10,08,21,00,AAXX 08214 41923 01340 70000 10265 20250 30102 40111 70522 85670 333 59014 70034 82709 83615 86458==
41923,2024,10,09,00,00,AAXX 09004 41923 01340 60000 10259 20250 30102 40111 70522 84670 333 59020 70034 81709 83615 85458==
41923,2024,10,09,03,00,AAXX 09034 41923 01340 70000 10292 20250 30118 40128 70522 84670 333 20257 59021 70034 81709 84615 86458==
41923,2024,10,09,06,00,AAXX 09064 41923 02450 60000 10326 20240 30103 40113 84430 333 59015 70034 82616 83824 85360==
41923,2024,10,09,09,00,AAXX 09094 41923 01340 80000 10280 20250 30071 40081 79596 8592/ 333 59015 70012 82709 88458 81930==
41923,2024,10,09,12,00,AAXX 09124 41923 21340 80000 10273 20250 30076 40086 76196 8532/ 333 10330 59021 60029 70018 82709 84614 88458 81930==
41923,2024,10,09,15,00,AAXX 09154 41923 01330 80000 10250 20240 30094 40104 79596 8632/ 333 59027 70034 83708 84614 88458 81930==
41923,2024,10,09,18,00,AAXX 09184 41923 21340 80000 10252 20240 30094 40104 72196 8532/ 333 59018 60029 70038 82709 84615 88458 81930==
41923,2024,10,09,21,00,AAXX 09214 41923 02340 80000 10252 20240 30088 40098 8562/ 333 59014 70038 82709 84615 88458==
41923,2024,10,10,00,00,AAXX 10004 41923 01340 80000 10252 20250 30091 40101 70522 8532/ 333 59011 70038 82709 84615 88458 81930==
41923,2024,10,10,03,00,AAXX 10034 41923 01340 82902 10290 20240 30109 40119 79522 8592/ 333 20248 59009 70038 82708 84614 88458 81930==
41923,2024,10,10,06,00,AAXX 10064 41923 21456 72702 10316 20250 30092 40102 70196 84430 333 59011 60015 70050 83615 83360==
41923,2024,10,10,09,00,AAXX 10094 41923 02350 72702 10322 20240 30061 40071 85670 333 59010 70042 82709 83615 86458==
41923,2024,10,10,12,00,AAXX 10124 41923 01340 80000 10298 20250 30069 40079 79522 8592/ 333 10328 59007 70000 82708 84615 88458 81930==
41923,2024,10,10,15,00,AAXX 10154 41923 01440 70000 10286 20260 30086 40096 70196 83570 333 59008 70016 83615 86458==
41923,2024,10,10,18,00,AAXX 10184 41923 11440 50000 10282 20250 30085 40095 60006 70162 82530 333 59009 70012 82615 85360==
41923,2024,10,10,21,00,AAXX 10214 41923 01440 50000 10278 20260 30079 40089 70522 82530 333 59009 70012 82615 85360==
41926,2024,10,04,00,00,AAXX 04004 41926 02450 80000 10260 20250 30022 40036 8452/ 333 58010 70546 84615 88458==
41926,2024,10,04,03,00,AAXX 04034 41926 02450 80000 10275 20260 30045 40059 8352/ 333 20245 58012 70076 83615 88458==
41926,2024,10,04,06,00,AAXX 04064 41926 01450 80000 10290 20260 30036 40050 76122 8452/ 333 58017 70004 84615 88458==
41926,2024,10,04,09,00,AAXX 04094 41926 01340 80000 10260 20250 30017 40031 76162 8572/ 333 58021 70164 82708 84615 88458==
41926,2024,10,04,12,00,AAXX 04124 41926 21340 80000 10260 20250 30025 40039 70262 8572/ 333 10300 58023 60198 70190 82708 84615 88458==
41926,2024,10,04,15,00,AAXX 04154 41926 01340 80000 10260 20250 30051 40065 76162 8572/ 333 58024 70200 82708 84614 88458==
41926,2024,10,04,18,00,AAXX 04184 41926 21340 80000 10260 20250 30048 40062 70262 8452/ 333 58022 60028 70210 84615 88458==
41926,2024,10,04,21,00,AAXX 04214 41926 01340 80000 10260 20250 30042 40056 70262 8572/ 333 58018 70240 82708 84614 88458==
41926,2024,10,05,00,00,AAXX 05004 41926 11340 80000 10260 20250 30045 40059 60036 70262 8572/ 333 58023 70240 82708 84614 88458==
41926,2024,10,05,03,00,AAXX 05034 41926 02350 80000 10265 20260 30072 40086 8562/ 333 20240 58023 70240 82708 83614 88458==
41926,2024,10,05,06,00,AAXX 05064 41926 02350 80000 10292 20260 30066 40079 8562/ 333 58030 70233 83708 83614 88458==
41926,2024,10,05,09,00,AAXX 05094 41926 02450 50000 10313 20250 30042 40055 82510 333 58025 70076 82618 85459==
41926,2024,10,05,12,00,AAXX 05124 41926 02450 80000 10286 20260 30051 40065 8332/ 333 10315 58026 70050 82618 88458 81930==
41926,2024,10,05,15,00,AAXX 05154 41926 02450 80000 10263 20250 30075 40089 8352/ 333 58024 70040 83618 88458==
41926,2024,10,05,18,00,AAXX 05184 41926 02450 80000 10266 20260 30077 40091 8252/ 333 58029 70030 82618 88458==
41926,2024,10,05,21,00,AAXX 05214 41926 02450 80000 10263 20250 30079 40093 8252/ 333 58037 70000 82618 88458==
41926,2024,10,06,00,00,AAXX 06004 41926 02450 60000 10260 20250 30083 40097 82510 333 58038 70000 82618 86459==
41926,2024,10,06,03,00,AAXX 06034 41926 42450 60000 10282 20250 30102 40116 82510 333 20260 58030 82618 86459==
41926,2024,10,06,06,00,AAXX 06064 41926 02456 50000 10308 20260 30097 40110 82510 333 58031 70000 82618 85459==
41926,2024,10,06,09,00,AAXX 06094 41926 02450 70000 10302 20270 30071 40084 83510 333 58029 70000 83618 86459==
41926,2024,10,06,12,00,AAXX 06124 41926 02450 30000 10284 20270 30078 40092 82310 333 10334 58027 70000 82618 83459 81930==
41926,2024,10,06,15,00,AAXX 06154 41926 01/50 30000 10267 20260 30104 40118 70500 83010 333 58029 70000 83459==
41926,2024,10,06,18,00,AAXX 06184 41926 01450 70000 10262 20250 30103 40117 70520 82510 333 58026 70000 82618 86459==
41926,2024,10,06,21,00,AAXX 06214 41926 01450 80000 10260 20250 30107 40121 70522 8252/ 333 58028 70000 82618 88458==
41926,2024,10,07,00,00,AAXX 07004 41926 01450 70000 10258 20250 30112 40126 70522 82510 333 58029 70000 82618 86459==
41926,2024,10,07,03,00,AAXX 07034 41926 02456 40000 10285 20270 30129 40143 82510 333 20257 58027 70000 82618 84459==
41926,2024,10,07,06,00,AAXX 07064 41926 02456 50000 10328 20250 30119 40132 85400 333 58022 70000 83618 83822==
41926,2024,10,07,09,00,AAXX 07094 41926 02456 30000 10340 20250 30092 40105 83500 333 58021 70000 83618==
41926,2024,10,07,12,00,AAXX 07124 41926 02450 30000 10304 20270 30090 40104 83500 333 10346 58012 70000 83618==
41926,2024,10,07,15,00,AAXX 07154 41926 02450 50000 10284 20260 30114 40128 83510 333 58010 70000 83618 83459==
41926,2024,10,07,18,00,AAXX 07184 41926 01450 10000 10273 20260 30112 40126 70500 81500 333 58009 70000 81618==
41926,2024,10,07,21,00,AAXX 07214 41926 01950 00000 10266 20260 30110 40124 70500 333 58003 70000==
41926,2024,10,08,00,00,AAXX 08004 41926 01950 00000 10258 20258 30112 40126 70500 333 58000 70000==
41926,2024,10,08,03,00,AAXX 08033 41926 02456 40000 10300 20270 30131 40144 83530 333 20258 58002 70000 83618==
41926,2024,10,08,06,00,AAXX 08064 41926 02456 70000 10338 20260 30113 40126 83430 333 59006 70000 82618 85362==
41926,2024,10,08,09,00,AAXX 08094 41926 02456 80000 10312 20260 30084 40097 8532/ 333 59008 70000 84616 88459 81930==
41926,2024,10,08,12,00,AAXX 08124 41926 21450 70000 10260 20250 30086 40100 72196 83510 333 10345 59004 60237 70232 83617 87459==
41926,2024,10,08,15,00,AAXX 08154 41926 02450 70000 10258 20250 30105 40119 82510 333 59009 70232 82618 86459==
41926,2024,10,08,18,00,AAXX 08184 41926 01450 60000 10255 20250 30101 40115 70522 82510 333 59011 70232 82618 86459==
41926,2024,10,08,21,00,AAXX 08214 41926 01450 50000 10255 20250 30100 40114 70522 82510 333 59010 70232 82618 85459==
41926,2024,10,09,00,00,AAXX 09004 41926 01450 50000 10253 20250 30098 40112 70522 81510 333 59014 70232 81618 85459==
41926,2024,10,09,03,00,AAXX 09033 41926 42456 50000 10298 20270 30107 40121 82510 333 20253 40232 59024 82618 85459==
41926,2024,10,09,06,00,AAXX 09064 41926 02456 50000 10320 20270 30094 40107 85400 333 59019 70232 83618 83822==
41926,2024,10,09,09,00,AAXX 09094 41926 02456 50000 10335 20260 30058 40071 85400 333 59026 70232 82618 83825==
41926,2024,10,09,15,00,AAXX 09154 41926 01450 80000 10235 20235 30089 40103 70296 8432/ 333 59016 70240 83616 88458 81930==
41926,2024,10,09,21,00,AAXX 09214 41926 01450 70000 10233 20230 30082 40096 70522 82510 333 59018 70240 82618 87459==
41926,2024,10,10,00,00,AAXX 10004 41926 02450 70000 10243 20240 30089 40103 83510 333 59009 70240 83618 87459==
41926,2024,10,10,03,00,AAXX 10034 41926 01950 00000 10272 20250 30097 40111 70520 333 20230 59010 70240==
41926,2024,10,10,06,00,AAXX 10064 41926 01456 50000 10320 20270 30083 40096 70522 82510 333 59011 70240 82618 85459==
41926,2024,10,10,09,00,AAXX 10094 41926 02456 60000 10330 20260 30052 40065 84510 333 59006 70240 84616 86459==
41926,2024,10,10,12,00,AAXX 10124 41926 02450 50000 10290 20260 30059 40073 83570 333 10335 59020 70130 83618 84459==
41926,2024,10,10,15,00,AAXX 10154 41926 02450 20000 10265 20250 30073 40087 82500 333 59016 70000 82618==
41926,2024,10,10,18,00,AAXX 10184 41926 02450 20000 10260 20240 30076 40090 82500 333 59004 70000 82618==
41926,2024,10,10,21,00,AAXX 10214 41926 01450 20000 10260 20240 30072 40086 70500 82500 333 59010 70000 82618==
41927,2024,10,04,00,00,AAXX 04004 41927 31450 71801 10260 20260 30018 40033 70522 83510 333 56490 58007 70402 83617 87459=
41927,2024,10,04,06,00,AAXX 04064 41927 11456 72101 10298 20260 30036 40051 60015 70162 83510 333 56490 58019 70330 83617 87459=
41927,2024,10,04,12,00,AAXX 04124 41927 11450 81901 10255 20255 30023 40038 60127 79596 8532/ 333 10307 56499 58023 70168 84616 81929 88458=
41927,2024,10,04,18,00,AAXX 04184 41927 11340 82101 10250 20250 30046 40061 60109 76196 8672/ 333 56499 58019 70228 82707 84614 88458=
41927,2024,10,05,00,00,AAXX 05004 41927 11440 80000 10260 20260 30046 40061 60088 70262 8452/ 333 56499 58028 70306 84617 88458=
41927,2024,10,05,06,00,AAXX 05064 41927 32456 62101 10295 20270 30066 40081 83510 333 56590 58030 70294 83617 86459=
41927,2024,10,05,12,00,AAXX 05124 41927 32456 51901 10280 20260 30052 40067 52510 333 10300 56490 58029 70174 82618 85459=
41927,2024,10,06,00,00,AAXX 06004 41927 11350 81801 10255 20250 30082 40097 60194 79522 8692/ 333 56499 58036 70194 82707 83615 81929 88458=
41927,2024,10,06,06,00,AAXX 06064 41927 11457 61801 10305 20260 30100 40115 60016 70296 83510 333 56490 58034 70204 83617 86459=
41927,2024,10,06,12,00,AAXX 06124 41927 32956 30000 10285 20250 30075 40090 83010 333 10307 56090 58023 70204 83459=
41927,2024,10,06,18,00,AAXX 06184 41927 31950 00000 10260 20250 30101 40116 70500 333 58021 70204=
41927,2024,10,07,00,00,AAXX 07004 41927 31950 00000 10257 20257 30112 40126 70500 333 58030 70010=
41927,2024,10,07,06,00,AAXX 07064 41927 32457 61901 10315 20270 30118 40133 86400 333 56400 58018 70000 83618 83828=
41927,2024,10,07,12,00,AAXX 07124 41927 32456 20000 10302 20270 30092 40107 82500 333 10324 56400 58017 70000 82618=
41927,2024,10,07,18,00,AAXX 07184 41927 NIL=
41927,2024,10,08,00,00,AAXX 08004 41927 31950 00000 10260 20250 30114 40129 70500 333 58002 70000=
41927,2024,10,08,06,00,AAXX 08064 41927 32958 01901 10330 20240 30108 40123 333 59010 70000=
41927,2024,10,08,12,00,AAXX 08124 41927 11450 81603 10244 20230 30084 40099 60364 71792 8432/ 333 10348 56499 59008 70360 84616 81929 88458=
41927,2024,10,08,18,00,AAXX 08184 41927 NIL=
41927,2024,10,09,00,00,AAXX 09004 41927 31950 00000 10248 20248 30104 40119 70500 333 59010 70360=
41927,2024,10,09,06,00,AAXX 09064 41927 32457 61801 10324 20240 30096 40111 83510 333 56490 59012 70360 83617 85459=
41927,2024,10,09,12,00,AAXX 09124 41927 11430 81803 10240 20240 30076 40091 60527 79792 8792/ 333 10330 56499 59008 70520 82707 83616 82928 88458=
41927,2024,10,09,18,00,AAXX 09184 41927 11450 80000 10238 20238 30086 40101 60026 70292 8452/ 333 56499 59022 70544 84616 88458=
41927,2024,10,10,00,00,AAXX 10004 41927 31450 80000 10235 20235 30084 40099 70522 8452/ 333 56499 59020 70544 84616 88458=
41927,2024,10,10,06,00,AAXX 10064 41927 32457 51802 10316 20270 30082 40097 82510 333 56490 59014 70544 82618 85459=
41927,2024,10,10,12,00,AAXX 10124 41927 32456 81802 10282 20250 30058 40073 8452/ 333 10324 56499 59018 70024 84616 88458=
41927,2024,10,10,18,00,AAXX 10184 41927 31950 00000 10270 20260 30076 40091 70500 333 59010 70000=
41929,2024,10,04,00,00,AAXX 04004 41929 21456 80000 10275 20270 30023 40032 70362 8351/ 333 58004 60037 70064 83618 88462==
41929,2024,10,04,03,00,AAXX 04034 41929 02456 81402 10284 20250 30053 40062 8352/ 333 20266 58016 70048 83618 88462==
41929,2024,10,04,06,00,AAXX 04064 41929 01450 81802 10266 20260 30051 40060 79562 8492/ 333 58025 70030 83616 88459 81930==
41929,2024,10,04,09,00,AAXX 04094 41929 01456 80904 10285 20270 30034 40043 70262 83520 333 58028 70078 83618 88462==
41929,2024,10,04,12,00,AAXX 04124 41929 01456 80000 10256 20260 30040 40049 79596 8592/ 333 10297 58030 70366 84615 88459 81930==
41929,2024,10,04,15,00,AAXX 04154 41929 01350 80000 10254 20240 30064 40074 76166 8672/ 333 58036 70436 83707 84616 88458==
41929,2024,10,04,18,00,AAXX 04184 41929 21456 80000 10260 20250 30055 40065 70262 8452/ 333 58020 60078 70440 84617 88458==
41929,2024,10,04,21,00,AAXX 04214 41929 01456 80000 10264 20250 30047 40057 76162 8452/ 333 58018 70442 84617 88458==
41929,2024,10,05,00,00,AAXX 05004 41929 21456 80000 10265 20250 30053 40063 76162 8452/ 333 58030 69987 70422 84617 88458==
41929,2024,10,05,03,00,AAXX 05034 41929 01456 80000 10268 20260 30062 40071 70262 8452/ 333 20249 58009 70426 84618 88462==
41929,2024,10,05,06,00,AAXX 05064 41929 01456 82302 10274 20250 30076 40085 72162 8452/ 333 58025 70396 84618 88462==
41929,2024,10,05,09,00,AAXX 05094 41929 02456 70000 10280 20260 30055 40064 83570 333 58021 70386 83617 85459==
41929,2024,10,05,12,00,AAXX 05124 41929 01456 80000 10273 20260 30061 40070 70362 8451/ 333 10280 58021 70156 84617 88459==
41929,2024,10,05,15,00,AAXX 05154 41929 02456 60000 10270 20260 30084 40093 82510 333 58020 70086 82618 86462==
41929,2024,10,05,18,00,AAXX 05184 41929 02456 60904 10267 20270 30086 40095 82510 333 58031 70082 82618 86462==
41929,2024,10,05,21,00,AAXX 05214 41929 02456 60000 10267 20270 30087 40096 82510 333 58040 70080 82618 86462==
41929,2024,10,06,00,00,AAXX 06004 41929 02456 81803 10271 20260 30088 40097 8351/ 333 58035 70072 83618 88462==
41929,2024,10,06,03,00,AAXX 06034 41929 02456 71602 10300 20260 30112 40121 83510 333 20260 58050 70072 83618 86462==
41929,2024,10,06,06,00,AAXX 06064 41929 02457 41802 10320 20260 30108 40117 84500 333 58032 70066 84618==
41929,2024,10,06,09,00,AAXX 06094 41929 02457 50000 10310 20260 30080 40089 83430 333 58025 70058 82618 83365==
41929,2024,10,06,12,00,AAXX 06124 41929 02456 60000 10287 20260 30085 40094 83530 333 10332 58024 70000 83617 83363==
41929,2024,10,06,15,00,AAXX 06154 41929 02/56 20000 10276 20270 30114 40123 82010 333 58030 70000 82462==
41929,2024,10,06,18,00,AAXX 06184 41929 02/56 20000 10269 20260 30108 40117 82030 333 58022 70000 82365==
41929,2024,10,06,21,00,AAXX 06214 41929 02456 50000 10269 20260 30114 40123 83510 333 58027 70000 83618 85462==
41929,2024,10,07,00,00,AAXX 07004 41929 02456 60000 10266 20260 30117 40126 83510 333 58029 70000 83618 86462==
41929,2024,10,07,03,00,AAXX 07034 41929 02456 60902 10302 20260 30139 40148 83510 333 20262 58027 70000 83618 86462==
41929,2024,10,07,06,00,AAXX 07064 41929 02456 41402 10320 20250 30128 40137 84400 333 58020 70000 81618 83825==
41929,2024,10,07,09,00,AAXX 07094 41929 02456 50000 10337 20250 30098 40108 85400 333 58018 70000 82616 83825==
41929,2024,10,07,12,00,AAXX 07124 41929 02456 30000 10306 20280 30100 40110 82430 333 10346 58015 70000 82616 83362==
41929,2024,10,07,15,00,AAXX 07154 41929 02456 60000 10286 20280 30125 40135 82530 333 58011 70000 82616 85362==
41929,2024,10,07,18,00,AAXX 07184 41929 02956 00000 10280 20270 30119 40129 333 58011 70000==
41929,2024,10,07,21,00,AAXX 07214 41929 01950 00000 10273 20260 30120 40130 70500 333 58006 70000==
41929,2024,10,08,00,00,AAXX 08004 41929 01950 00000 10267 20260 30120 40130 70500 333 58007 70000==
41929,2024,10,08,03,00,AAXX 08033 41929 02456 60000 10308 20270 30139 40148 84410 333 20264 58000 70000 81618 83825 85462==
41929,2024,10,08,06,00,AAXX 08064 41929 02457 50000 10338 20260 30121 40130 85400 333 59007 70000 82618 83825==
41929,2024,10,08,09,00,AAXX 08094 41929 01456 80202 10316 20280 30087 40097 71722 8532/ 333 59011 70000 83616 83825 88458 81928==
41929,2024,10,08,12,00,AAXX 08124 41929 21456 83303 10270 20260 30100 40110 71796 8532/ 333 10340 58000 60128 70116 83616 83825 88458 81928==
41929,2024,10,08,15,00,AAXX 08154 41929 01450 80000 10268 20260 30115 40125 70522 8352/ 333 59010 70116 83616 88458==
41929,2024,10,08,18,00,AAXX 08184 41929 01450 30000 10267 20260 30112 40122 70522 82530 333 59007 70116 82616 83362==
41929,2024,10,08,21,00,AAXX 08214 41929 01950 00000 10263 20250 30106 40116 70500 333 59014 70116==
41929,2024,10,09,00,00,AAXX 09004 41929 01950 00000 10260 20260 30101 40111 70500 333 59019 70116==
41929,2024,10,09,03,00,AAXX 09033 41929 02456 60000 10300 20260 30116 40125 83430 333 20256 59023 70116 82617 83363==
41929,2024,10,09,06,00,AAXX 09064 41929 02456 60000 10326 20260 30098 40108 85430 333 59023 70116 83616 83825==
41929,2024,10,09,09,00,AAXX 09094 41929 01456 80000 10271 20240 30079 40089 71796 8632/ 333 59008 70246 83616 83825 88458 81928==
41929,2024,10,09,12,00,AAXX 09124 41929 21450 83302 10262 20240 30082 40092 71796 8692/ 333 10333 59018 60138 70130 83616 83825 88458 82928==
41929,2024,10,09,15,00,AAXX 09154 41929 01450 80000 10258 20250 30090 40100 72996 8352/ 333 59025 70170 83616 88458==
41929,2024,10,09,18,00,AAXX 09184 41929 21450 80000 10258 20250 30090 40100 70596 8252/ 333 59022 60048 70170 82616 88458==
41929,2024,10,09,21,00,AAXX 09214 41929 01440 50000 10256 20250 30091 40101 70522 82530 333 59015 70170 82616 84362==
41929,2024,10,10,00,00,AAXX 10004 41929 01/40 20000 10254 20240 30091 40101 70521 82030 333 59010 70170 82362==
41929,2024,10,10,03,00,AAXX 10034 41929 01456 80000 10270 20260 30106 40115 72122 8351/ 333 20249 59010 70196 83618 88462==
41929,2024,10,10,06,00,AAXX 10064 41929 21456 70000 10315 20270 30093 40102 70162 83510 333 59005 60035 70196 83618 86462==
41929,2024,10,10,09,00,AAXX 10094 41929 02457 50000 10325 20260 30063 40072 85400 333 59016 70066 82617 83825==
41929,2024,10,10,12,00,AAXX 10124 41929 02456 70000 10305 20280 30065 40074 83570 333 10327 59017 70066 83617 85460==
41929,2024,10,10,15,00,AAXX 10154 41929 02/56 30000 10284 20270 30081 40090 83030 333 59009 70026 83365==
41929,2024,10,10,18,00,AAXX 10184 41929 02/56 30000 10275 20270 30082 40091 83030 333 59008 70026 83365==
41929,2024,10,10,21,00,AAXX 10214 41929 02956 00000 10273 20260 30083 40092 333 59008 70026==
41933,2024,10,04,00,00,AAXX 04004 41933 02440 81304 10256 20240 30040 40048 8562/ 333 58016 70330 82710 84618 88458==
41933,2024,10,04,03,00,AAXX 04034 41933 02456 61302 10286 20260 30064 40072 83520 333 20254 58019 70318 83618 86458==
41933,2024,10,04,06,00,AAXX 04064 41933 02456 81704 10310 20270 30059 40067 8562/ 333 58032 70002 82710 84618 88458==
41933,2024,10,04,09,00,AAXX 04094 41933 01456 81702 10270 20250 30045 40053 70262 8562/ 333 58036 70010 82710 84618 88458==
41933,2024,10,04,12,00,AAXX 04124 41933 11450 81703 10275 20250 30046 40054 60016 70262 8562/ 333 10312 58027 70010 82710 84618 88458==
41933,2024,10,04,15,00,AAXX 04154 41933 02450 81302 10267 20250 30070 40078 8562/ 333 58022 70010 82710 84618 88458==
41933,2024,10,04,18,00,AAXX 04184 41933 11350 81302 10263 20250 30068 40076 60036 76162 8672/ 333 58022 70042 84708 85616 88456==
41933,2024,10,04,21,00,AAXX 04214 41933 01340 81302 10255 20240 30067 40075 76166 8672/ 333 58024 70112 84708 85616 88456==
41933,2024,10,05,00,00,AAXX 05004 41933 21340 80000 10252 20240 30066 40074 76166 8672/ 333 58026 60189 70220 84708 85614 88456==
41933,2024,10,05,03,00,AAXX 05034 41933 01350 82304 10250 20240 30094 40102 79596 8692/ 333 20245 58030 70520 84708 85614 88456 81929==
41933,2024,10,05,06,00,AAXX 05064 41933 21356 82302 10250 20240 30088 40096 79596 8692/ 333 58029 60659 70870 84708 85614 88456 81929==
41933,2024,10,05,09,00,AAXX 05094 41933 01356 82302 10248 20240 30071 40079 76196 8672/ 333 58026 70990 84708 85614 88456==
41933,2024,10,05,12,00,AAXX 05124 41933 21450 80000 10252 20240 30066 40074 70296 8562/ 333 10255 58020 60149 71000 83710 84618 88458==
41933,2024,10,05,15,00,AAXX 05154 41933 02450 80000 10250 20240 30099 40107 8562/ 333 58029 71000 82710 84618 88458==
41933,2024,10,05,18,00,AAXX 05184 41933 02440 80000 10250 20240 30097 40105 8562/ 333 58029 70968 82710 84618 88458==
41933,2024,10,05,21,00,AAXX 05214 41933 02440 50000 10250 20240 30098 40106 83520 333 58031 70898 83618 85458==
41933,2024,10,06,00,00,AAXX 06004 41933 02450 40000 10250 20240 30100 40108 82520 333 58034 70790 82618 84458==
41933,2024,10,06,03,00,AAXX 06034 41933 02456 20000 10288 20250 30122 40130 82500 333 20246 58028 70490 82618==
41933,2024,10,06,06,00,AAXX 06064 41933 02556 50000 10315 20260 30104 40113 84430 333 58018 70140 82618 83828==
41933,2024,10,06,09,00,AAXX 06094 41933 02/56 20000 10335 20270 30072 40082 82030 333 59001 70010 82362==
41933,2024,10,06,12,00,AAXX 06124 41933 02450 80000 10305 20280 30087 40095 8562/ 333 10338 58021 70000 82710 84618 88458==
41933,2024,10,06,15,00,AAXX 06154 41933 02450 20000 10265 20250 30118 40126 82500 333 58019 70000 82618==
41933,2024,10,06,18,00,AAXX 06184 41933 02450 20000 10264 20240 30114 40122 82500 333 58017 70000 82618==
41933,2024,10,06,21,00,AAXX 06214 41933 02440 80000 10262 20240 30119 40127 8562/ 333 58021 70000 82710 84618 88458==
41933,2024,10,07,00,00,AAXX 07004 41933 02450 80000 10260 20250 30125 40133 8562/ 333 58025 70000 82710 84618 88458==
41933,2024,10,07,03,00,AAXX 07034 41933 02456 40000 10296 20270 30141 40149 82520 333 20258 58019 70000 82618 84458==
41933,2024,10,07,06,00,AAXX 07064 41933 02456 40000 10310 20270 30126 40134 82530 333 58022 70000 82618 84362==
41933,2024,10,07,09,00,AAXX 07094 41933 02456 60503 10296 20270 30101 40109 84620 333 58029 70000 82710 84618 86458==
41933,2024,10,07,12,00,AAXX 07124 41933 02450 20000 10280 20250 30101 40109 82500 333 10330 58014 70000 82618==
41933,2024,10,07,15,00,AAXX 07154 41933 02450 50000 10272 20250 30116 40125 82530 333 59002 70000 82618 85362==
41933,2024,10,07,18,00,AAXX 07184 41933 02/40 20000 10270 20260 30113 40122 82030 333 59001 70000 82362==
41933,2024,10,07,21,00,AAXX 07214 41933 02/40 20000 10262 20250 30117 40126 82030 333 59002 70000 82362==
41933,2024,10,08,00,00,AAXX 08004 41933 02/50 20000 10259 20250 30117 40126 82030 333 59008 70000 82362==
41933,2024,10,08,03,00,AAXX 08033 41933 02450 50000 10300 20260 30135 40143 82530 333 20259 59006 70000 82618 85362==
41933,2024,10,08,06,00,AAXX 08064 41933 02450 51802 10320 20260 30121 40129 82530 333 59005 70000 82618 85362==
41933,2024,10,08,09,00,AAXX 08094 41933 02450 51702 10290 20230 30089 40098 84430 333 59012 70000 82618 83828==
41933,2024,10,08,12,00,AAXX 08124 41933 02450 50000 10275 20240 30089 40098 82530 333 10335 59012 70000 82618 85362==
41933,2024,10,08,15,00,AAXX 08154 41933 02450 50000 10265 20240 30119 40127 82530 333 58003 70000 82618 85362==
41933,2024,10,08,18,00,AAXX 08184 41933 NIL=
41933,2024,10,08,21,00,AAXX 08214 41933 02450 20000 10260 20240 30107 40115 82500 333 59010 70000 82618==
41933,2024,10,09,00,00,AAXX 09004 41933 02450 20000 10250 20230 30103 40111 82500 333 59014 70000 82618==
41933,2024,10,09,03,00,AAXX 09034 41933 42456 60000 10280 20250 30120 40128 59015 86362==
41933,2024,10,09,06,00,AAXX 09064 41933 02456 50000 10315 20260 30098 40106 84430 333 59023 70000 82618 83826==
41933,2024,10,09,09,00,AAXX 09094 41933 02456 70000 10320 20250 30064 40073 84510 333 59025 70000 84618 87459==
41933,2024,10,09,12,00,AAXX 09124 41933 01450 81802 10282 20240 30072 40081 71722 8592/ 333 10331 59017 70000 84618 88458 81925==
41933,2024,10,09,15,00,AAXX 09154 41933 01450 80000 10245 20240 30095 40104 70296 8562/ 333 59024 70360 82710 84618 88458==
41933,2024,10,09,21,00,AAXX 09214 41933 02440 80000 10248 20240 30091 40099 8562/ 333 59016 70360 82710 84618 88458==
41933,2024,10,10,00,00,AAXX 10004 41933 02440 80000 10250 20240 30090 40098 8562/ 333 59013 70360 82710 84618 88458==
41933,2024,10,10,03,00,AAXX 10034 41933 02440 60000 10265 20250 30108 40117 83520 333 20244 59012 70360 83618 86458==
41933,2024,10,10,06,00,AAXX 10064 41933 02450 50000 10305 20250 30090 40099 82530 333 59008 70360 82618 85362==
41933,2024,10,10,09,00,AAXX 10094 41933 02450 50000 10315 20240 30067 40076 82530 333 58003 70360 82618 85362==
41933,2024,10,10,12,00,AAXX 10124 41933 02450 50000 10300 20260 30064 40073 82530 333 10330 59008 70360 82618 85362==
41933,2024,10,10,15,00,AAXX 10154 41933 02450 20000 10285 20270 30083 40091 82500 333 59012 70000 82618==
41933,2024,10,10,18,00,AAXX 10184 41933 02950 00000 10270 20250 30078 40087 333 59015 70000==
41933,2024,10,10,21,00,AAXX 10214 41933 01940 00000 10268 20260 30075 40084 70500 333 59016 70000==
41936,2024,10,04,00,00,AAXX 04004 41936 41414 61904 10264 20240 30022 40029 70522 84630 333 58004 82710 83615 85362==
41936,2024,10,04,03,00,AAXX 04034 41936 41412 60000 10264 20250 30018 40025 70522 83630 333 58000 81710 83615 85362==
41936,2024,10,04,06,00,AAXX 04064 41936 01312 72406 10306 20270 30044 40051 70596 84630 333 58022 70020 83708 83615 86362==
41936,2024,10,04,09,00,AAXX 04094 41936 01310 82305 10290 20280 30021 40028 79596 8692/ 333 58019 70020 85707 88460 81930==
41936,2024,10,04,12,00,AAXX 04124 41936 21310 80203 10272 20260 30031 40038 79596 8692/ 333 10314 58030 60057 70070 85707 83615 85707 81930==
41936,2024,10,04,15,00,AAXX 04154 41936 01320 60000 10272 20260 30056 40063 70596 84630 333 58030 70100 82710 83615 86362==
41936,2024,10,04,18,00,AAXX 04184 41936 01420 60000 10268 20260 30050 40057 70596 84630 333 58022 70030 82710 83615 86362==
41936,2024,10,04,21,00,AAXX 04214 41936 01316 80000 10264 20250 30040 40047 76162 8572/ 333 58022 70110 84708 83615 88460==
41936,2024,10,05,00,00,AAXX 05004 41936 21312 70000 10254 20240 30048 40055 70562 84630 333 58026 60015 70110 83708 83615 86362==
41936,2024,10,05,03,00,AAXX 05034 41936 01310 72003 10258 20250 30074 40081 70522 85630 333 20252 58024 70100 83708 83615 86362==
41936,2024,10,05,06,00,AAXX 05064 41936 01414 71803 10290 20250 30072 40079 70522 84630 333 58028 70090 82710 83615 86362==
41936,2024,10,05,09,00,AAXX 05094 41936 01420 61703 10310 20260 30046 40053 70522 83630 333 58025 70090 81710 83615 86362==
41936,2024,10,05,12,00,AAXX 05124 41936 21309 83406 10266 20260 30059 40066 79596 8692/ 333 20320 58028 60127 70160 85706 83615 88459 81930==
41936,2024,10,05,15,00,AAXX 05154 41936 NIL=
41936,2024,10,05,18,00,AAXX 05184 41936 01418 70000 10266 20250 30078 40085 70596 84630 333 58028 70020 83710 83615 86362==
41936,2024,10,05,21,00,AAXX 05214 41936 01418 70000 10264 20250 30068 40075 70522 84630 333 58028 70140 83710 83615 86362==
41936,2024,10,06,00,00,AAXX 06004 41936 21310 81803 10252 20240 30083 40090 79596 8492/ 333 58035 60117 70250 83708 83615 88460 81930==
41936,2024,10,06,03,00,AAXX 06034 41936 01416 62404 10280 20260 30104 40111 72996 84630 333 20250 58030 70270 82710 83615 86362==
41936,2024,10,06,06,00,AAXX 06064 41936 21425 62305 10310 20260 30102 40109 70596 84630 333 58030 60028 70270 82710 83615 86362==
41936,2024,10,06,09,00,AAXX 06094 41936 01420 62004 10300 20260 30075 40082 71792 84920 333 58029 70270 82710 83615 86462 81930==
41936,2024,10,06,12,00,AAXX 06124 41936 01430 41803 10302 20260 30079 40086 70592 83630 333 10316 58020 70150 81710 82615==
41936,2024,10,06,15,00,AAXX 06154 41936 01430 40000 10286 20270 30106 40113 70511 82830 333 58026 70130 82615 83362==
41936,2024,10,06,18,00,AAXX 06184 41936 01425 30000 10278 20260 30099 40106 70511 82830 333 58021 70130 81615 83362==
41936,2024,10,06,21,00,AAXX 06214 41936 01420 30000 10274 20250 30089 40096 70511 82830 333 58021 70130 81615 83362==
41936,2024,10,07,00,00,AAXX 07004 41936 01412 40000 10260 20250 30113 40120 70511 82830 333 58030 70020 82615 83362==
41936,2024,10,07,03,00,AAXX 07034 41936 01420 31804 10306 20270 30131 40138 70511 82830 333 20250 58027 70000 82615 83362==
41936,2024,10,07,06,00,AAXX 07064 41936 01440 42303 10342 20250 30122 40129 70522 83630 333 58020 70000 81710 82615==
41936,2024,10,07,09,00,AAXX 07094 41936 01440 51803 10344 20240 30093 40100 70522 83830 333 58018 70000 83615 84362==
41936,2024,10,07,12,00,AAXX 07124 41936 01440 41803 10310 20260 30090 40097 70512 83830 333 10350 58011 70000 83615 83362==
41936,2024,10,07,15,00,AAXX 07154 41936 01430 30000 10276 20260 30119 40126 70511 82830 333 58013 70000 82615==
41936,2024,10,07,18,00,AAXX 07184 41936 01/30 20000 10270 20250 30115 40122 70511 82030 333 58016 70000 82362==
41936,2024,10,07,21,00,AAXX 07214 41936 01/20 20000 10264 20250 30105 40112 70511 82030 333 58016 70000 82362==
41936,2024,10,08,00,00,AAXX 08004 41936 01416 50000 10264 20250 30111 40118 70511 82830 333 59002 70000 82615 84362==
41936,2024,10,08,03,00,AAXX 08033 41936 01425 52602 10304 20270 30135 40142 70521 83830 333 20260 58004 70000 83615 83362==
41936,2024,10,08,06,00,AAXX 08064 41936 01450 52507 10334 20250 30118 40125 70522 83830 333 59004 70000 83615 83362==
41936,2024,10,08,09,00,AAXX 08094 41936 01430 52403 10318 20260 30087 40094 71792 84930 333 59006 70000 82710 83615 81930==
41936,2024,10,08,12,00,AAXX 08124 41936 01440 40000 10302 20250 30093 40100 70592 83830 333 10344 58003 70000 82615 83362==
41936,2024,10,08,15,00,AAXX 08154 41936 01430 40300 10282 20260 30114 40121 70521 82830 333 59005 70000 82615 83362==
41936,2024,10,08,18,00,AAXX 08184 41936 01430 40403 10280 20260 30111 40118 70511 82830 333 59004 70000 82615 83362==
41936,2024,10,08,21,00,AAXX 08214 41936 01420 40300 10264 20250 30104 40111 70511 82530 333 59001 70000 82615 83362==
41936,2024,10,09,00,00,AAXX 09004 41936 01414 41200 10260 20250 30096 40103 70511 82530 333 59015 70000 82615 83362==
41936,2024,10,09,03,00,AAXX 09034 41936 01440 32205 10304 20260 30109 40116 70511 82830 333 20250 59026 70000 82615==
41936,2024,10,09,06,00,AAXX 09064 41936 01440 42303 10328 20260 30099 40106 70522 83830 333 59019 70000 83615 83362==
41936,2024,10,09,09,00,AAXX 09094 41936 01440 52116 10334 20260 30065 40072 71722 83930 333 59022 70000 81710 83615 84362 81930==
41936,2024,10,09,12,00,AAXX 09123 41936 01307 80705 10260 20250 30087 40094 79592 8692/ 333 10340 59006 70000 85706 83615 87362 81930==
41936,2024,10,09,15,00,AAXX 09154 41936 41316 82105 10256 20250 30093 40100 79596 8692/ 333 59021 84708 83615 88460 81930==
41936,2024,10,09,18,00,AAXX 09184 41936 21325 70000 10254 20240 30089 40096 70596 85630 333 59022 60079 70070 83708 83615 86362==
41936,2024,10,09,21,00,AAXX 09214 41936 01420 60000 10250 20240 30080 40087 70522 84630 333 59024 70070 82710 83615 86362==
41936,2024,10,10,00,00,AAXX 10004 41936 01414 40000 10244 20230 30085 40092 70521 82830 333 59011 70070 81615 84362==
41936,2024,10,10,03,00,AAXX 10034 41936 01425 31904 10290 20260 30099 40106 70511 81530 333 20242 59010 70070 81615==
41936,2024,10,10,06,00,AAXX 10064 41936 01430 42506 10334 20260 30085 40092 70521 82830 333 59014 70070 82615 84362==
41936,2024,10,10,09,00,AAXX 10094 41936 01435 52103 10328 20270 30067 40073 71722 83930 333 10340 58006 70070 81710 83615 84362 81930==
41936,2024,10,10,12,00,AAXX 10124 41936 01430 41903 10282 20270 30070 40071 70522 82830 333 10340 59017 70090 82615 83362==
41936,2024,10,10,15,00,AAXX 10154 41936 01430 30000 10270 20250 30080 40087 70522 82530 333 59013 70030 82615==
41936,2024,10,10,18,00,AAXX 10184 41936 01420 32003 10266 20260 30078 40085 70511 82530 333 59011 70020 82615==
41936,2024,10,10,21,00,AAXX 10214 41936 01/18 20000 10264 20250 30072 40079 70511 82030 333 59008 70020 82362==
41938,2024,10,04,00,00,AAXX 04004 41938 32450 60000 10270 20260 30027 40031 84510 333 56990 58010 70366 84618 84459=
41938,2024,10,04,06,00,AAXX 04064 41938 11456 40000 10292 20250 30035 40039 60014 70296 84400 333 56400 58007 70008 83618=
41938,2024,10,04,12,00,AAXX 04124 41938 32450 60000 10270 20250 30035 40039 84410 333 10300 56490 58018 70008 83618 84459=
41938,2024,10,04,18,00,AAXX 04184 41938 11450 70000 10255 20255 30051 40055 60189 79596 85910 333 56690 58024 70183 84617 81928 85459=
41938,2024,10,05,00,00,AAXX 05004 41938 11450 80000 10252 20250 30059 40063 60059 79596 8592/ 333 56699 58032 70233 84617 81928 88459=
41938,2024,10,05,06,00,AAXX 05064 41938 11350 80000 10265 20260 30071 40075 60069 76196 8572/ 333 56399 58036 70283 81709 84616 88459=
41938,2024,10,05,12,00,AAXX 05124 41938 31950 72102 10275 20260 30060 40064 70522 87070 333 10285 56090 58025 70283 86460 85362=
41938,2024,10,05,18,00,AAXX 05184 41938 32456 71801 10265 20260 30081 40085 81520 333 56990 58030 70108 81617 87460=
41938,2024,10,06,00,00,AAXX 06004 41938 31435 50000 10269 20260 30083 40087 70522 83510 333 56490 58024 70058 83616 83460=
41938,2024,10,06,06,00,AAXX 06064 41938 31456 51803 10322 20260 30099 40103 71721 85900 333 56400 58028 70000 83617 83825 81928=
41938,2024,10,06,12,00,AAXX 06124 41938 11456 50000 10277 20260 30088 40092 60106 70126 82510 333 10322 56990 58028 70100 82617 84460=
41938,2024,10,06,18,00,AAXX 06184 41938 32956 00000 10263 20250 30104 40108 333 58023 70100=
41938,2024,10,07,00,00,AAXX 07004 41938 32950 60000 10264 20250 30115 40119 82510 333 56990 58032 70100 82617 85460=
41938,2024,10,07,06,00,AAXX 07064 41938 32456 62001 10315 20270 30124 40128 83470 333 56990 58025 70100 82617 83460=
41938,2024,10,07,12,00,AAXX 07124 41938 31550 30000 10293 20270 30096 40100 70521 81111 333 10321 56999 58008 70000 81825 83460=
41938,2024,10,07,18,00,AAXX 07184 41938 31950 10000 10266 20260 30118 40122 70510 81031 333 56099 58014 70000 81362=
41938,2024,10,08,00,00,AAXX 08004 41938 31530 40000 10260 20250 30117 40121 70511 81131 333 56999 58002 70000 81825 83460=
41938,2024,10,08,06,00,AAXX 08064 41938 31456 73001 10325 20270 30122 40126 70392 83471 333 56799 59002 70000 82618 83460=
41938,2024,10,08,12,00,AAXX 08124 41938 11350 70000 10260 20260 30098 40102 60043 79596 86920 333 10335 56790 58002 70041 81709 84616 81930 85460=
41938,2024,10,08,18,00,AAXX 08184 41938 11956 32201 10260 20250 30107 40111 60023 70196 83010 333 56090 59011 70057 83460=
41938,2024,10,09,00,00,AAXX 09004 41938 32956 10000 10254 20240 30098 40102 80001 333 56009 59019 70057 81080=
41938,2024,10,09,06,00,AAXX 09064 41938 32457 42203 10325 20260 30102 40106 84400 333 56500 59020 70057 82618 83824=
41938,2024,10,09,12,00,AAXX 09124 41938 11450 70000 10260 20260 30079 40083 60014 79596 85910 333 10327 56790 59019 70026 84616 81928=
41938,2024,10,09,18,00,AAXX 09184 41938 11350 70000 10252 20240 30090 40094 60079 79596 85910 333 56790 59017 70082 84616 81928=
41938,2024,10,10,00,00,AAXX 10004 41938 32450 30000 10247 20247 30090 40094 83500 56900 59008 70082 83618=
41938,2024,10,10,06,00,AAXX 10064 41938 32456 30000 10322 20250 30094 40098 83400 333 56400 59008 70082 82618=
41938,2024,10,10,12,00,AAXX 10124 41938 32456 50000 10293 20270 30066 40070 82510 333 10326 56990 59013 70072 82618 85460=
41938,2024,10,10,18,00,AAXX 10184 41938 32956 00000 10268 20260 30082 40086 333 59008 70000=
41939,2024,10,04,00,00,AAXX 04004 41939 02456 70000 10265 20260 30037 40045 83510 333 58017 70065 83617 87459==
41939,2024,10,04,03,00,AAXX 04034 41939 02458 40000 10298 20260 30061 40069 82530 333 20250 58027 70044 82618 83363==
41939,2024,10,04,06,00,AAXX 04064 41939 01458 80000 10280 20260 30052 40060 79522 8392/ 333 58040 70080 82615 88457 81928==
41939,2024,10,04,09,00,AAXX 04094 41939 01458 80000 10285 20260 30037 40045 70296 8432/ 333 58021 70170 84617 88459==
41939,2024,10,04,12,00,AAXX 04124 41939 21450 80000 10268 20250 30042 40050 76196 8452/ 333 10325 58025 60119 70188 84616 88459==
41939,2024,10,04,15,00,AAXX 04154 41939 01340 80000 10265 20260 30058 40066 79596 8692/ 333 58018 70268 84615 88457 81928==
41939,2024,10,04,18,00,AAXX 04184 41939 21440 80000 10260 20250 30070 40078 76196 8352/ 333 58014 60139 70318 84616 88459==
41939,2024,10,04,21,00,AAXX 04214 41939 01450 80000 10248 20240 30077 40085 79596 8392/ 333 58037 71018 82615 88457 81927==
41939,2024,10,05,00,00,AAXX 05004 41939 21350 80000 10250 20240 30073 40081 76196 8472/ 333 58036 61309 71618 82707 88457==
41939,2024,10,05,03,00,AAXX 05034 41939 01458 80000 10255 20250 30086 40094 72166 8452/ 333 20243 58025 71702 84617 88459==
41939,2024,10,05,06,00,AAXX 05064 41939 11457 80000 10265 20260 30070 40078 60086 70262 8352/ 333 58009 71681 83617 88459==
41939,2024,10,05,09,00,AAXX 05094 41939 02458 80000 10282 20250 30066 40074 8352/ 333 58029 71532 83618 88459==
41939,2024,10,05,12,00,AAXX 05124 41939 02457 60000 10278 20270 30067 40075 83510 333 10284 58025 71514 83617 85459==
41939,2024,10,05,15,00,AAXX 05154 41939 02450 50000 10268 20260 30092 40100 83530 333 58034 70143 83618 83363==
41939,2024,10,05,18,00,AAXX 05184 41939 02450 50000 10265 20260 30100 40108 83330 333 58030 71384 83618 83363==
41939,2024,10,05,21,00,AAXX 05214 41939 02450 60000 10267 20260 30097 40105 83510 333 58020 70684 83618 85459==
41939,2024,10,06,00,00,AAXX 06004 41939 02456 80000 10270 20260 30095 40103 8352/ 333 58022 70084 83617 88459==
41939,2024,10,06,03,00,AAXX 06034 41939 02458 70000 10285 20270 30112 40120 83510 333 20261 58026 70000 83618 86459==
41939,2024,10,06,06,00,AAXX 06064 41939 02458 50000 10314 20260 30100 40108 82530 333 58030 70000 82618 83360==
41939,2024,10,06,09,00,AAXX 06094 41939 02456 70000 10290 20260 30089 40097 83510 333 58023 70000 83616 87459==
41939,2024,10,06,12,00,AAXX 06124 41939 02456 70000 10280 20260 30093 40101 83510 333 10340 58026 70000 83617 86459==
41939,2024,10,06,15,00,AAXX 06154 41939 02456 70000 10268 20260 30115 40123 83510 333 58023 70000 83617 86459==
41939,2024,10,06,18,00,AAXX 06184 41939 02456 60000 10267 20260 30125 40133 83530 333 58025 70000 83617 84364==
41939,2024,10,06,21,00,AAXX 06214 41939 02456 50000 10265 20260 30122 40130 83530 333 58025 70000 83617 83364==
41939,2024,10,07,00,00,AAXX 07004 41939 02457 50000 10265 20260 30126 40134 83530 333 58031 70000 83618 83364==
41939,2024,10,07,03,00,AAXX 07034 41939 02458 60000 10290 20270 30145 40153 82510 333 20258 58033 70000 82618 86460==
41939,2024,10,07,06,00,AAXX 07064 41939 02458 40000 10312 20250 30123 40131 82530 333 58023 70000 82618 83362==
41939,2024,10,07,09,00,AAXX 07094 41939 02459 20000 10318 20260 30107 40115 81530 333 58018 70000 81618==
41939,2024,10,07,12,00,AAXX 07124 41939 02458 30000 10290 20240 30105 40113 82530 333 10330 58012 70000 82618==
41939,2024,10,07,15,00,AAXX 07154 41939 02450 20000 10275 20260 30112 40120 81530 333 59003 70000 81618==
41939,2024,10,07,18,00,AAXX 07184 41939 02950 00000 10268 20250 30126 40134 333 58001 70000==
41939,2024,10,07,21,00,AAXX 07214 41939 02450 50000 10268 20260 30124 40132 83530 333 58002 70000 83617 83364==
41939,2024,10,08,00,00,AAXX 08004 41939 01450 50000 10270 20260 30126 40134 70522 83530 333 58000 70000 83617 83364==
41939,2024,10,08,03,00,AAXX 08033 41939 02960 00000 10310 20270 30142 40150 333 20265 59003 70000==
41939,2024,10,08,06,00,AAXX 08064 41939 02460 30000 10325 20250 30120 40128 82530 333 59003 70000 82618 83362==
41939,2024,10,08,09,00,AAXX 08094 41939 02460 30000 10327 20260 30096 40104 82530 333 59011 70000 82618==
41939,2024,10,08,12,00,AAXX 08124 41939 02456 60000 10288 20250 30102 40110 83510 333 10345 59003 70000 83617 86459==
41939,2024,10,08,15,00,AAXX 08154 41939 02456 60000 10275 20260 30126 40134 83510 333 58014 70000 83617 86459==
41939,2024,10,08,18,00,AAXX 08184 41939 02456 30000 10270 20250 30135 40143 82530 333 58009 70000 82618==
41939,2024,10,08,21,00,AAXX 08214 41939 02950 00000 10267 20260 30115 40123 333 59009 70000==
41939,2024,10,09,00,00,AAXX 09004 41939 02956 00000 10265 20260 30105 40113 333 59021 70000==
41939,2024,10,09,03,00,AAXX 09033 41939 02458 50000 10303 20260 30121 40129 82530 333 20260 59021 70000 82618 83365==
41939,2024,10,09,06,00,AAXX 09064 41939 02458 40000 10323 20260 30105 40113 82530 333 59015 70000 82618 83362==
41939,2024,10,09,09,00,AAXX 09094 41939 02459 40000 10332 20260 30075 40083 83430 333 59021 70000 82618 83360==
41939,2024,10,09,12,00,AAXX 09124 41939 01450 80000 10260 20240 30086 40094 79592 8492/ 333 10335 59016 70070 82615 88457 81928==
41939,2024,10,09,15,00,AAXX 09154 41939 01450 80000 10256 20250 30099 40107 72162 8452/ 333 59027 70100 84616 88459==
41939,2024,10,09,18,00,AAXX 09184 41939 21450 80000 10255 20250 30115 40123 70262 8352/ 333 59020 60039 70100 83617 88459==
41939,2024,10,09,21,00,AAXX 09214 41939 02450 30000 10255 20250 30110 40118 82530 333 59005 70100 82618==
41939,2024,10,10,00,00,AAXX 10004 41939 02456 10000 10255 20250 30099 40107 81500 333 59006 70100 81618==
41939,2024,10,10,03,00,AAXX 10034 41939 02458 80000 10280 20250 30117 40125 8352/ 333 20250 70000 89004 83617 88459==
41939,2024,10,10,06,00,AAXX 10064 41939 NIL=
41939,2024,10,10,09,00,AAXX 10094 41939 02459 30000 10320 20250 30068 40076 82530 333 59007 70100 82618==
41939,2024,10,10,12,00,AAXX 10124 41939 02957 00000 10298 20270 30074 40082 333 10325 59012 70030==
41939,2024,10,10,15,00,AAXX 10154 41939 02950 00000 10282 20260 30088 40096 333 59011 70000==
41939,2024,10,10,18,00,AAXX 10184 41939 02950 00000 10271 20260 30100 40108 333 59015 70000==
41939,2024,10,10,21,00,AAXX 10214 41939 02956 00000 10268 20260 30096 40104 333 59017 70000==
41941,2024,10,04,00,00,AAXX 04004 41941 21340 81802 10265 20260 30036 40042 70262 8662/ 333 58016 60035 70332 83708 84612 88457==
41941,2024,10,04,03,00,AAXX 04034 41941 02456 61802 10298 20270 30058 40064 84520 333 20257 58013 70092 84614 86458==
41941,2024,10,04,06,00,AAXX 04064 41941 02456 61802 10302 20270 30057 40063 84520 333 58023 70030 84614 86458==
41941,2024,10,04,09,00,AAXX 04094 41941 01456 60000 10285 20270 30038 40044 70262 85420 333 58026 70040 84615 86458==
41941,2024,10,04,12,00,AAXX 04124 41941 11450 61802 10285 20270 30045 40051 60016 70262 85420 333 20305 58029 70040 84616 86458==
41941,2024,10,04,15,00,AAXX 04154 41941 01340 80000 10262 20260 30066 40072 79596 8692/ 333 58024 70300 82708 84612 88456 81924==
41941,2024,10,04,18,00,AAXX 04184 41941 21330 80000 10250 20250 30070 40076 79595 8692/ 333 58030 60839 70870 82708 84612 88456 81924==
41941,2024,10,04,21,00,AAXX 04214 41941 01330 81802 10250 20250 30069 40075 76566 8672/ 333 58036 71200 82708 84612 88456 81924==
41941,2024,10,05,00,00,AAXX 05004 41941 21330 81802 10250 20250 30066 40071 76566 8672/ 333 58030 61669 72500 82708 84612 88456 81924==
41941,2024,10,05,03,00,AAXX 05034 41941 01340 80000 10250 20250 30082 40087 79596 8692/ 333 20249 58024 72770 82708 84612 88456 81924==
41941,2024,10,05,06,00,AAXX 05064 41941 21450 70000 10265 20265 30078 40083 70196 85420 333 60335 72830 84616 87458==
41941,2024,10,05,09,00,AAXX 05094 41941 02450 81802 10276 20270 30062 40068 8632/ 333 58024 72820 85616 88458 81928==
41941,2024,10,05,12,00,AAXX 05124 41941 02440 81802 10265 20260 30056 40062 8632/ 333 10062 58011 72820 85616 88458 81928==
41941,2024,10,05,15,00,AAXX 05154 41941 02440 71802 10263 20260 30098 40104 85420 333 58032 72560 84616 87458==
41941,2024,10,05,18,00,AAXX 05184 41941 02440 71802 10260 20260 30096 40102 85420 333 58026 71990 84616 87458==
41941,2024,10,05,21,00,AAXX 05214 41941 02440 71802 10260 20260 30091 40097 85420 333 58022 71090 84616 87458==
41941,2024,10,06,00,00,AAXX 06004 41941 02450 71802 10262 20260 30094 40100 85420 333 58023 70330 84616 87458==
41941,2024,10,06,03,00,AAXX 06034 41941 02450 81802 10298 20270 30101 40106 8632/ 333 20258 58019 70060 85616 88458 81928==
41941,2024,10,06,06,00,AAXX 06064 41941 02456 62301 10315 20270 30107 40112 85820 333 58029 70000 83614 83828 85458==
41941,2024,10,06,09,00,AAXX 06094 41941 01310 62502 10275 20270 30083 40088 76522 85920 333 58021 70198 82707 83612 86458 81928==
41941,2024,10,06,12,00,AAXX 06124 41941 21450 40000 10273 20250 30089 40095 70196 82540 333 10332 58032 60205 70202 82614 84362==
41941,2024,10,06,15,00,AAXX 06154 41941 02450 40901 10270 20260 30112 40118 82540 333 58014 70202 82616 84362==
41941,2024,10,06,18,00,AAXX 06184 41941 02950 00000 10264 20260 30108 40114 333 58012 70202==
41941,2024,10,07,00,00,AAXX 07004 41941 02450 50000 10262 20260 30115 40121 83520 333 58021 70202 83616 85458==
41941,2024,10,07,03,00,AAXX 07034 41941 02457 51102 10302 20270 30141 40147 83530 333 20262 58040 70202 83616 85362==
41941,2024,10,07,06,00,AAXX 07064 41941 02457 51801 10316 20270 30131 40136 83530 333 58024 70202 83616 85362==
41941,2024,10,07,09,00,AAXX 07094 41941 02456 50000 10320 20260 30106 40111 84530 333 58023 70004 84616 85362==
41941,2024,10,07,12,00,AAXX 07124 41941 02456 51802 10292 20260 30102 40107 83520 333 10324 58013 70000 83616 85458==
41941,2024,10,07,15,00,AAXX 07154 41941 02450 50000 10286 20270 30125 40130 82520 333 58013 70000 83616 85458==
41941,2024,10,07,18,00,AAXX 07184 41941 NIL=
41941,2024,10,07,21,00,AAXX 07214 41941 02440 40000 10275 20270 30121 40126 82520 333 58012 70000 82616 84458==
41941,2024,10,08,00,00,AAXX 08004 41941 02450 60000 10265 20250 30119 40124 84520 333 58004 70000 84616 86458==
41941,2024,10,08,03,00,AAXX 08033 41941 02456 60000 10306 20270 30143 40148 84520 333 20262 58002 70000 84616 86458==
41941,2024,10,08,06,00,AAXX 08064 41941 01450 81802 10310 20280 30130 40135 70362 8692/ 333 59001 70010 85612 88456 81924==
41941,2024,10,08,09,00,AAXX 08094 41941 01450 81802 10276 20260 30085 40090 79596 8792/ 333 59021 70060 85612 88456 82924==
41941,2024,10,08,12,00,AAXX 08124 41941 21440 81802 10265 20260 30091 40097 70896 8692/ 333 10335 59011 60067 70070 85612 88456 81924==
41941,2024,10,08,15,00,AAXX 08154 41941 02440 71802 10265 20260 30113 40119 85420 333 59012 70070 84616 87458==
41941,2024,10,08,18,00,AAXX 08184 41941 02440 70000 10264 20260 30110 40116 85420 333 59013 70070 84616 87458==
41941,2024,10,08,21,00,AAXX 08214 41941 02440 71802 10262 20260 30104 40110 85420 333 59017 70070 84616 87458==
41941,2024,10,09,00,00,AAXX 09004 41941 02450 70000 10260 20260 30100 40106 85420 333 59019 70070 84616 87458==
41941,2024,10,09,03,00,AAXX 09033 41941 02456 72701 10295 20270 30121 40126 85420 333 20258 59022 70070 84616 87458==
41941,2024,10,09,06,00,AAXX 09064 41941 01450 52802 10310 20260 30099 40104 72122 83520 333 59031 70000 83616 85458==
41941,2024,10,09,09,00,AAXX 09094 41941 01456 43102 10326 20250 30070 40076 70162 84800 333 59015 70012 82614 83828==
41941,2024,10,09,12,00,AAXX 09124 41941 01340 80000 10264 20230 30082 40088 76062 8672/ 333 10336 59009 70016 82707 84612 88457==
41941,2024,10,09,15,00,AAXX 09154 41941 01320 80000 10260 20250 30091 40097 76162 8672/ 333 59022 70036 83707 84614 88457==
41941,2024,10,09,18,00,AAXX 09184 41941 01440 60000 10260 20250 30092 40098 70162 85520 333 59018 70036 85614 86458==
41941,2024,10,09,21,00,AAXX 09214 41941 02440 60000 10258 20258 30088 40094 85320 333 59016 70036 85614 88458==
41941,2024,10,10,00,00,AAXX 10004 41941 02450 60000 10256 20256 30094 40100 85520 333 59006 70036 85614 88458==
41941,2024,10,10,03,00,AAXX 10034 41941 02456 60000 10278 20270 30109 40115 85520 333 20256 59012 70030 85614 86458==
41941,2024,10,10,06,00,AAXX 10064 41941 02456 60000 10315 20250 30091 40096 85420 333 59008 70036 84616 86458==
41941,2024,10,10,09,00,AAXX 10094 41941 02456 51802 10326 20240 30082 40088 84420 333 58012 70034 83616 85616==
41941,2024,10,10,12,00,AAXX 10124 41941 02450 71802 10290 20240 30070 40076 85420 333 10338 59012 70020 84616 87458==
41941,2024,10,10,15,00,AAXX 10154 41941 02440 70000 10280 20260 30083 40089 85420 333 59008 70000 84616 87458==
41941,2024,10,10,18,00,AAXX 10184 41941 02440 70000 10275 20270 30086 40091 85420 333 59006 70000 84616 87458==
41941,2024,10,10,21,00,AAXX 10214 41941 02440 70000 10270 20270 30080 40086 85420 333 59008 70000 84616 87458==
41943,2024,10,04,00,00,AAXX 04004 41943 02430 81303 10250 20240 30043 40050 8662/ 333 58019 70040 83710 84615 88458==
41943,2024,10,04,03,00,AAXX 04034 41943 02435 51803 10295 20250 30066 40073 82530 333 20250 58017 70040 82616 84362==
41943,2024,10,04,06,00,AAXX 04064 41943 02435 71806 10295 20250 30066 40073 84520 333 58020 70000 84616 86458==
41943,2024,10,04,09,00,AAXX 04094 41943 02435 71803 10280 20240 30045 40052 84520 333 58028 70000 84616 86458==
41943,2024,10,04,12,00,AAXX 04124 41943 02430 81802 10272 20240 30050 40057 8662/ 333 10315 58027 70000 83710 84615 88458==
41943,2024,10,04,15,00,AAXX 04154 41943 02430 81802 10260 20240 30072 40079 8662/ 333 58024 70000 83710 84615 88458==
41943,2024,10,04,18,00,AAXX 04184 41943 02430 81802 10258 20240 30070 40077 8662/ 333 58017 70000 83710 84615 88458==
41943,2024,10,04,21,00,AAXX 04214 41943 02430 81802 10256 20240 30067 40074 8662/ 333 58020 70000 83710 84615 88458==
41943,2024,10,05,00,00,AAXX 05004 41943 01330 81302 10255 20250 30062 40069 70262 8762/ 333 58019 70020 84709 84615 88458==
41943,2024,10,05,03,00,AAXX 05034 41943 02435 81802 10270 20250 30092 40099 8662/ 333 20252 58026 70020 82616 84362==
41943,2024,10,05,06,00,AAXX 05064 41943 02435 81803 10290 20250 30083 40090 8662/ 333 58017 70020 83710 84615 88458==
41943,2024,10,05,09,00,AAXX 05094 41943 01435 81303 10250 20240 30070 40077 70262 8662/ 333 58025 70090 83710 84615 88458==
41943,2024,10,05,12,00,AAXX 05124 41943 11435 81202 10260 20240 30069 40076 60076 70262 8662/ 333 10300 58019 70079 83710 84615 88457==
41943,2024,10,05,15,00,AAXX 05154 41943 01435 70000 10255 20250 30099 40106 70522 85520 333 58027 70090 85615 87457==
41943,2024,10,05,18,00,AAXX 05184 41943 01435 40000 10250 20240 30095 40102 70522 83520 333 58025 70090 83616 83458==
41943,2024,10,05,21,00,AAXX 05214 41943 01435 40000 10247 20240 30097 40104 70522 82570 333 58030 70090 82616 83458==
41943,2024,10,06,00,00,AAXX 06004 41943 01435 31301 10245 20240 30100 40107 70521 81530 333 58038 70070 81616 83362==
41943,2024,10,06,03,00,AAXX 06034 41943 01440 31302 10300 20250 30121 40128 70521 81530 333 20245 58029 70070 81616 83362==
41943,2024,10,06,06,00,AAXX 06064 41943 02450 51803 10336 20240 30108 40115 84430 333 58025 70070 82616 83828==
41943,2024,10,06,09,00,AAXX 06094 41943 02450 51802 10328 20240 30080 40087 84430 333 58010 70000 83616 83828==
41943,2024,10,06,12,00,AAXX 06124 41943 02440 51902 10295 20260 30091 40098 83430 333 10345 58022 70000 81616 83828 84362==
41943,2024,10,06,15,00,AAXX 06154 41943 01440 41801 10275 20260 30117 40124 70522 81530 333 58018 70000 81616 83362==
41943,2024,10,06,18,00,AAXX 06184 41943 01435 10000 10270 20260 30112 40119 70521 81500 333 58017 70000 81616==
41943,2024,10,06,21,00,AAXX 06214 41943 01435 41801 10258 20250 30119 40126 70521 82530 333 58022 70000 82616 83362==
41943,2024,10,07,00,00,AAXX 07004 41943 01435 40000 10255 20250 30124 40131 70522 81530 333 58024 70000 81616 83362==
41943,2024,10,07,03,00,AAXX 07034 41943 02445 41702 10315 20260 30141 40148 83430 333 20255 58020 70000 81616 83828==
41943,2024,10,07,06,00,AAXX 07064 41943 02445 50000 10335 20250 30125 40132 84430 333 58017 70000 82616 83828==
41943,2024,10,07,09,00,AAXX 07094 41943 01450 50000 10315 20260 30102 40109 70262 82530 333 58022 70040 82616 84362==
41943,2024,10,07,12,00,AAXX 07124 41943 21440 50000 10295 20270 30102 40109 70262 83430 333 10347 58011 60048 70040 81616 83828==
41943,2024,10,07,15,00,AAXX 07154 41943 01435 50000 10272 20260 30126 40133 70262 82530 333 58009 70092 82616 83362==
41943,2024,10,07,18,00,AAXX 07184 41943 11435 30000 10268 20260 30122 40129 60056 70162 81530 333 58003 70092 81616 83362==
41943,2024,10,07,21,00,AAXX 07214 41943 01435 50000 10265 20260 30123 40130 70522 82520 333 58004 70092 82616 83458==
41943,2024,10,08,00,00,AAXX 08004 41943 01430 60000 10260 20250 30123 40130 70522 83520 333 59001 70092 83616 83458==
41943,2024,10,08,03,00,AAXX 08033 41943 01440 53401 10305 20260 30140 40147 70522 82570 333 20258 59001 70092 82616 83458==
41943,2024,10,08,06,00,AAXX 08064 41943 01445 51302 10335 20250 30125 40132 70522 82570 333 59002 70092 82616 83458==
41943,2024,10,08,09,00,AAXX 08094 41943 02450 53402 10345 20260 30088 40095 82530 333 59014 70052 82616 84362==
41943,2024,10,08,12,00,AAXX 08124 41943 02435 63102 10284 20230 30096 40103 83520 333 10350 59006 70052 83616 84458==
41943,2024,10,08,15,00,AAXX 08154 41943 02430 63102 10272 20230 30123 40130 83530 333 59003 70000 83616 84362==
41943,2024,10,08,18,00,AAXX 08184 41943 21330 83102 10260 20250 30119 40126 70362 8662/ 333 59003 60035 70030 83710 84614 88458==
41943,2024,10,08,21,00,AAXX 08214 41943 02430 70000 10254 20240 30111 40118 84520 333 59012 70030 84616 86458==
41943,2024,10,09,00,00,AAXX 09004 41943 02430 60000 10248 20240 30100 40107 83520 333 59023 70030 83710 84614 88458==
41943,2024,10,09,03,00,AAXX 09034 41943 02435 50000 10305 20260 30030 40037 83530 333 20246 59010 70030 83616 83362==
41943,2024,10,09,06,00,AAXX 09064 41943 02440 63602 10324 20240 30102 40109 83530 333 59023 70030 83616 84362==
41943,2024,10,09,09,00,AAXX 09094 41943 02450 50000 10325 20250 30071 40078 83530 333 59017 70030 83616 84362==
41943,2024,10,09,12,00,AAXX 09123 41943 02440 63101 10296 20250 30069 40076 83520 333 10345 59027 70030 83616 84458==
41943,2024,10,09,15,00,AAXX 09154 41943 01330 83602 10255 20240 30102 40109 70362 8662/ 333 59021 70090 83710 84614 88458==
41943,2024,10,09,18,00,AAXX 09184 41943 11330 80000 10255 20240 30092 40099 60066 70262 8662/ 333 59027 70060 83710 84614 88458==
41943,2024,10,09,21,00,AAXX 09214 41943 02330 80000 10253 20240 30090 40097 8662/ 333 59021 70060 83710 84614 88458==
41943,2024,10,10,00,00,AAXX 10004 41943 02330 80000 10250 20240 30088 40095 8662/ 333 59012 70060 83710 84614 88458==
41943,2024,10,10,03,00,AAXX 10034 41943 02435 73602 10270 20250 30111 40118 84520 333 20248 59019 70060 84615 86458==
41943,2024,10,10,06,00,AAXX 10064 41943 02440 63102 10320 20240 30096 40103 83520 333 59006 70060 84458==
41943,2024,10,10,09,00,AAXX 10094 41943 02440 60000 10314 20240 30070 40077 83520 333 59001 70060 83616 85458==
41943,2024,10,10,12,00,AAXX 10124 41943 02435 60000 10292 20260 30067 40074 83520 333 10324 59002 70060 83616 85458==
41943,2024,10,10,15,00,AAXX 10154 41943 02430 60000 10270 20250 30089 40096 83520 333 59013 70000 83616 85458==
41943,2024,10,10,18,00,AAXX 10184 41943 02330 80000 10260 20240 30088 40095 8662/ 333 59004 70000 84614 88458==
41943,2024,10,10,21,00,AAXX 10214 41943 02430 80000 10264 20250 30089 40096 8662/ 333 59001 70000 83710 84614 88458==
41944,2024,10,04,00,00,AAXX 04004 41944 NIL=
41944,2024,10,05,06,00,AAXX 05064 41944 NIL=
41944,2024,10,05,12,00,AAXX 05124 41944 NIL=
41944,2024,10,06,06,00,AAXX 06064 41944 NIL=
41944,2024,10,07,00,00,AAXX 07004 41944 NIL=
41944,2024,10,07,06,00,AAXX 07064 41944 NIL=
41944,2024,10,07,12,00,AAXX 07124 41944 NIL=
41944,2024,10,07,18,00,AAXX 07184 41944 NIL=
41944,2024,10,08,12,00,AAXX 08124 41944 NIL=
41944,2024,10,08,18,00,AAXX 08184 41944 NIL=
41944,2024,10,09,00,00,AAXX 09004 41944 NIL=
41944,2024,10,09,06,00,AAXX 09064 41944 NIL=
41944,2024,10,10,00,00,AAXX 10004 41944 NIL=
41944,2024,10,10,06,00,AAXX 10064 41944 NIL=
41944,2024,10,10,12,00,AAXX 10124 41944 NIL=
41946,2024,10,04,00,00,AAXX 04004 41946 02456 80000 10280 20270 30034 40039 8352/ 333 58006 70040 83618 88458==
41946,2024,10,04,03,00,AAXX 04034 41946 02456 80000 10300 20270 30061 40066 8353/ 333 20265 58013 70040 83618 88458==
41946,2024,10,04,06,00,AAXX 04064 41946 02456 80000 10302 20260 30053 40058 8352/ 333 58023 70040 83618 88458==
41946,2024,10,04,09,00,AAXX 04094 41946 02/56 62102 10300 20250 30031 40036 86010 333 58020 70040 86459==
41946,2024,10,04,12,00,AAXX 04124 41946 02556 70000 10294 20260 30040 40045 83520 333 10307 58022 70010 83620 87459==
41946,2024,10,04,15,00,AAXX 04154 41946 02456 70000 10288 20270 30064 40069 84420 333 58023 70000 82618 83820 86459==
41946,2024,10,04,18,00,AAXX 04184 41946 01350 81802 10274 20260 30057 40062 79796 8692/ 333 58018 70540 83709 84615 88457 81928==
41946,2024,10,04,21,00,AAXX 04214 41946 01450 80000 10262 20250 30062 40067 70296 8332/ 333 58030 70600 82618 88458 81929==
41946,2024,10,05,00,00,AAXX 05004 41946 11456 82601 10264 20250 30060 40065 60066 70296 8442/ 333 58026 70600 83618 88459==
41946,2024,10,05,03,00,AAXX 05034 41946 02456 80000 10275 20260 30086 40091 8452/ 333 20258 58025 70600 84618 88460==
41946,2024,10,05,06,00,AAXX 05064 41946 02456 80000 10290 20260 30090 40095 8452/ 333 58037 70600 84618 88460==
41946,2024,10,05,09,00,AAXX 05094 41946 02456 80000 10303 20260 30058 40063 8352/ 333 58027 70600 83618 88459==
41946,2024,10,05,12,00,AAXX 05124 41946 02456 80000 10291 20260 30069 40074 8432/ 333 10316 58029 70600 83618 88459 81928==
41946,2024,10,05,15,00,AAXX 05154 41946 02456 60000 10276 20250 30090 40095 82520 333 58026 70600 82618 84460==
41946,2024,10,05,18,00,AAXX 05184 41946 02456 80000 10276 20260 30088 40093 8352/ 333 58031 70060 83618 88459==
41946,2024,10,05,21,00,AAXX 05214 41946 01350 80000 10271 20260 30082 40087 79596 8592/ 333 58020 70110 82709 83616 88457 81927==
41946,2024,10,06,00,00,AAXX 06004 41946 21350 80000 10267 20260 30096 40101 71796 8592/ 333 58036 60289 70276 84616 88458 81927==
41946,2024,10,06,03,00,AAXX 06034 41946 01456 70000 10280 20260 30116 40121 70162 84510 333 20254 58030 70336 84618 87460==
41946,2024,10,06,06,00,AAXX 06064 41946 11456 80000 10290 20260 30111 40116 60066 70362 8432/ 333 58021 70336 84618 88460 81928==
41946,2024,10,06,09,00,AAXX 06094 41946 01456 80000 10300 20260 30087 40092 70296 8432/ 333 58029 70350 84618 88460 81928==
41946,2024,10,06,12,00,AAXX 06124 41946 11456 60000 10288 20270 30092 49097 60016 70196 84510 333 10303 58023 70350 84618 86460==
41946,2024,10,06,15,00,AAXX 06154 41946 02456 50000 10280 20260 30119 40124 83520 333 58029 70350 83618 85460==
41946,2024,10,06,18,00,AAXX 06184 41946 02456 20000 10275 20270 30113 40118 82500 333 58025 70350 82618==
41946,2024,10,06,21,00,AAXX 06214 41946 02456 50000 10275 20270 30114 40119 82520 333 58032 70240 82618 85459==
41946,2024,10,07,00,00,AAXX 07004 41946 02456 50000 10275 20270 30125 40130 82520 333 58029 70074 82618 85460==
41946,2024,10,07,03,00,AAXX 07034 41946 02456 70000 10310 20270 30143 40148 84320 333 20262 58027 70014 83618 87459 81928==
41946,2024,10,07,06,00,AAXX 07064 41946 02456 70000 10325 20270 30131 40136 83430 333 58020 70014 82618 86362==
41946,2024,10,07,09,00,AAXX 07094 41946 02557 41402 10330 20250 30106 40111 82130 333 58019 70000 82825 83362==
41946,2024,10,07,12,00,AAXX 07124 41946 02556 71502 10290 20240 30105 40110 83320 333 10330 58013 70000 82825 85459 81929==
41946,2024,10,07,15,00,AAXX 07154 41946 02/56 50000 10282 20260 30130 40135 83031 333 58011 70000 83362 83080==
41946,2024,10,07,18,00,AAXX 07184 41946 02/56 60000 10283 20270 30124 40129 86070 333 58011 70000 83459 84360==
41946,2024,10,07,21,00,AAXX 07214 41946 02556 50000 10280 20270 30122 40127 83530 333 58008 70000 83620 84360==
41946,2024,10,08,00,00,AAXX 08004 41946 02/56 50000 10277 20270 30122 40127 85050 333 59003 70000 85362==
41946,2024,10,08,03,00,AAXX 08033 41946 02456 50000 10305 20260 30148 40153 83430 333 20274 58005 70000 82618 84362==
41946,2024,10,08,06,00,AAXX 08064 41946 02456 60000 10330 20260 30128 40133 84450 333 59003 70000 83618 85362==
41946,2024,10,08,09,00,AAXX 08094 41946 02456 62605 10329 20250 30099 40104 83370 333 59007 70000 82618 84460 81928==
41946,2024,10,08,12,00,AAXX 08124 41946 02456 60000 10309 20270 30104 40109 82520 333 10339 59001 70000 82618 84460==
41946,2024,10,08,15,00,AAXX 08154 41946 02456 70000 10294 20260 30125 40130 83570 333 59005 70000 83618 85460==
41946,2024,10,08,18,00,AAXX 08184 41946 02456 71504 10286 20270 30118 40123 83320 333 59006 70000 82618 86459 81928==
41946,2024,10,08,21,00,AAXX 08214 41946 02456 60000 10280 20270 30102 40107 82510 333 59020 70000 82618 84460==
41946,2024,10,09,00,00,AAXX 09004 41946 02/56 40000 10274 20260 30107 40112 84010 333 59015 70000 84460==
41946,2024,10,09,03,00,AAXX 09034 41946 02456 60000 10310 20260 30125 40130 84401 333 20272 59023 70000 83618 83080==
41946,2024,10,09,06,00,AAXX 09064 41946 02456 42604 10325 20270 30110 40115 84400 333 59023 70000 83618==
41946,2024,10,09,09,00,AAXX 09094 41946 01456 81805 10305 20270 30082 40087 71792 8432/ 333 59017 70000 83618 88459 81928==
41946,2024,10,09,12,00,AAXX 09124 41946 21/56 40000 10304 20250 30085 40090 70196 84010 333 10338 59019 60015 70010 84460==
41946,2024,10,09,15,00,AAXX 09154 41946 01350 81809 10252 20240 30116 40121 79596 8692/ 333 59009 70290 83709 84615 88457 81928==
41946,2024,10,09,18,00,AAXX 09184 41946 21456 80000 10250 20240 30094 40099 70296 8352/ 333 59024 60309 70310 83618 88459==
41946,2024,10,09,21,00,AAXX 09214 41946 02456 50000 10255 20250 30090 40095 82510 333 59012 70310 82618 84460==
41946,2024,10,10,00,00,AAXX 10004 41946 02456 50000 10258 20250 30100 40105 82510 333 59007 70310 82618 84460==
41946,2024,10,10,03,00,AAXX 10034 41946 02456 52603 10300 20260 30115 40120 83510 333 20240 59010 70310 83618 84460==
41946,2024,10,10,06,00,AAXX 10064 41946 02456 41805 10315 20270 30103 40109 84400 333 59007 70310 83618==
41946,2024,10,10,09,00,AAXX 10094 41946 02556 31803 10332 20250 30068 40072 83400 333 59014 70310 82620==
41946,2024,10,10,12,00,AAXX 10124 41946 01350 80000 10290 20270 30077 40082 71720 8592/ 333 10334 59008 70300 82710 84616 88458 81928==
41946,2024,10,10,15,00,AAXX 10154 41946 01/56 40000 10274 20260 30092 40097 70196 82031 333 59024 70030 82362 83080==
41946,2024,10,10,18,00,AAXX 10184 41946 11/56 31703 10283 20260 30089 40094 60016 70196 83010 333 59005 70010 83459==
41946,2024,10,10,21,00,AAXX 10214 41946 02/56 30000 10280 20270 30084 40089 83030 333 59006 70010 83362==
41947,2024,10,04,00,00,AAXX 04004 41947 02450 50000 10274 20260 30034 40036 82530 333 58006 70146 82618 83362==
41947,2024,10,04,03,00,AAXX 04034 41947 01350 80000 10290 20280 30059 40061 76122 8472/ 333 20265 58013 70154 81708 84615 88458==
41947,2024,10,04,06,00,AAXX 04064 41947 21456 70000 10310 20270 30057 40059 70162 83570 333 58025 60015 70030 83618 86458==
41947,2024,10,04,09,00,AAXX 04094 41947 02456 61802 10310 20280 30031 40033 83570 333 58017 70030 83618 86458==
41947,2024,10,04,12,00,AAXX 04124 41947 02450 80000 10275 20270 30044 40046 8352/ 333 10318 58028 70030 83618 88458==
41947,2024,10,04,15,00,AAXX 04154 41947 01350 80000 10270 20260 30070 40072 79522 8532/ 333 58031 70020 82709 86317 88456 81925==
41947,2024,10,04,18,00,AAXX 04184 41947 21350 80000 10268 20260 30059 40061 79596 8532/ 333 58013 60027 70030 82709 83617 88456 81925==
41947,2024,10,04,21,00,AAXX 04214 41947 01350 80000 10265 20260 30061 40063 79596 8592/ 333 58019 70180 82709 83617 88456 81925==
41947,2024,10,05,00,00,AAXX 05004 41947 21350 81802 10262 20260 30065 40067 70296 8462/ 333 58031 60289 70310 82709 84617 88458==
41947,2024,10,05,03,00,AAXX 05034 41947 02450 80000 10264 20260 30087 40089 8452/ 333 20252 58028 70300 84617 88458==
41947,2024,10,05,06,00,AAXX 05064 41947 02456 70000 10290 20270 30077 40079 83570 333 58020 70300 83618 86458==
41947,2024,10,05,09,00,AAXX 05094 41947 02456 71502 10305 20270 30061 40063 83570 333 58030 70300 83618 85459==
41947,2024,10,05,12,00,AAXX 05124 41947 02456 70000 10288 20270 30069 40071 83570 333 10308 58025 70300 83618 85459==
41947,2024,10,05,15,00,AAXX 05154 41947 02456 60000 10278 20270 30092 40094 83570 333 58022 70290 83618 84459==
41947,2024,10,05,18,00,AAXX 05184 41947 02456 81302 10274 20260 30089 40091 8452/ 333 58030 70280 84617 88458==
41947,2024,10,05,21,00,AAXX 05214 41947 02456 60000 10278 20270 30086 40088 83570 333 58025 70130 83618 84459==
41947,2024,10,06,00,00,AAXX 06004 41947 02456 60000 10278 20270 30095 40097 83570 333 58030 70000 83618 84459==
41947,2024,10,06,03,00,AAXX 06034 41947 02456 70000 10313 20270 30117 40119 83570 333 20261 58058 70000 83618 86458==
41947,2024,10,06,06,00,AAXX 06064 41947 01350 80000 10280 20260 30113 40115 79522 8572/ 333 58056 70006 81709 83616 88458 81930==
41947,2024,10,06,09,00,AAXX 06094 41947 01456 60000 10310 20260 30086 40088 70162 83510 333 58025 70016 83618 85459==
41947,2024,10,06,12,00,AAXX 06124 41947 11456 50000 10295 20270 30095 40097 60016 70162 82510 333 10328 58026 70016 82618 85459==
41947,2024,10,06,15,00,AAXX 06154 41947 02950 00000 10278 20270 30120 40122 333 58028 70016==
41947,2024,10,06,18,00,AAXX 06184 41947 02950 00000 10274 20260 30113 40115 333 58024 70016==
41947,2024,10,06,21,00,AAXX 06214 41947 02450 20000 10272 20260 30116 40118 82500 333 58030 70016 82618==
41947,2024,10,07,00,00,AAXX 07004 41947 02450 60000 10270 20260 30125 40127 82570 333 58030 70016 82618 85459==
41947,2024,10,07,03,00,AAXX 07034 41947 02456 70000 10295 20280 30142 40144 83570 333 20265 58025 70016 83618 86459==
41947,2024,10,07,06,00,AAXX 07064 41947 02450 80000 10320 20280 30131 40133 8452/ 333 58018 70010 84616 88458==
41947,2024,10,07,09,00,AAXX 07094 41947 02456 60000 10338 20270 30104 40106 83530 333 58016 70000 83618 84362==
41947,2024,10,07,12,00,AAXX 07124 41947 02450 51803 10290 20260 30107 40109 82530 333 10340 58012 70000 82618 83362==
41947,2024,10,07,15,00,AAXX 07154 41947 02950 00000 10280 20260 30130 40132 333 58010 70000==
41947,2024,10,07,18,00,AAXX 07184 41947 02950 00000 10278 20260 30133 40135 333 58020 70000==
41947,2024,10,07,21,00,AAXX 07214 41947 02950 00000 10274 20260 30125 40127 333 58009 70000==
41947,2024,10,08,00,00,AAXX 08004 41947 02450 40000 10272 20270 30121 40123 82530 333 59004 70000 82618 83362==
41947,2024,10,08,03,00,AAXX 08033 41947 02456 50000 10310 20270 30139 40141 82530 333 20262 59003 70000 82618 84362==
41947,2024,10,08,06,00,AAXX 08064 41947 02456 60000 10330 20260 30130 40132 83570 333 59001 70000 83618 83460==
41947,2024,10,08,09,00,AAXX 08094 41947 02457 50000 10350 20260 30098 40100 83530 333 59006 70000 83618 83362==
41947,2024,10,08,12,00,AAXX 08124 41947 02450 80000 10300 20250 30100 40102 8432/ 333 10352 59007 70000 83618 88458 81930==
41947,2024,10,08,15,00,AAXX 08154 41947 01330 80000 10260 20240 30125 40127 76122 8532/ 333 59005 70010 83707 83614 88458==
41947,2024,10,08,18,00,AAXX 08184 41947 21440 80000 10265 20250 30121 40123 70262 8352/ 333 59012 60015 70010 83618 88458==
41947,2024,10,08,21,00,AAXX 08214 41947 02450 60000 10265 20260 30113 40115 82570 333 59012 70010 82618 85459==
41947,2024,10,09,00,00,AAXX 09004 41947 02450 20000 10265 20260 30108 40110 82500 333 59013 70010 82618==
41947,2024,10,09,03,00,AAXX 09033 41947 02456 60000 10310 20270 30123 40125 86400 333 20260 59016 70000 83618 83820==
41947,2024,10,09,06,00,AAXX 09064 41947 02456 50000 10345 20260 30107 40109 85400 333 59023 70000 82618 83820==
41947,2024,10,09,09,00,AAXX 09094 41947 02456 52102 10333 20260 30077 40079 84430 333 59021 70010 82618 83820==
41947,2024,10,09,12,00,AAXX 09124 41947 01456 70000 10290 20270 30087 40089 72992 84370 333 10352 59013 70010 83618 86458 81930==
41947,2024,10,09,15,00,AAXX 09154 41947 01450 80000 10252 20230 30101 40103 72996 8432/ 333 59024 70062 83618 88458 81928==
41947,2024,10,09,18,00,AAXX 09184 41947 01340 80000 10258 20250 30096 40098 76096 8572/ 333 59025 70082 82709 84616 88458==
41947,2024,10,09,21,00,AAXX 09214 41947 01/56 30000 10258 20250 30090 40093 70162 83030 333 59023 70086 83362==
41947,2024,10,10,00,00,AAXX 10004 41947 11/56 40000 10254 20250 30095 40097 69946 70362 84030 333 59013 70086 84362==
41947,2024,10,10,03,00,AAXX 10034 41947 02456 40000 10310 20260 30115 40117 84400 333 20255 59008 70086 81618 83820==
41947,2024,10,10,06,00,AAXX 10064 41947 02456 50000 10330 20260 30093 40095 85400 333 59014 70086 82618 83820==
41947,2024,10,10,09,00,AAXX 10094 41947 02456 50000 10340 20260 30069 40071 85400 333 59008 70086 83618 83825==
41947,2024,10,10,12,00,AAXX 10124 41947 02450 80000 10300 20270 30075 40077 8352/ 333 10345 59012 70000 84618 88458 81930==
41947,2024,10,10,15,00,AAXX 10154 41947 01450 20000 10283 20260 30095 40097 70192 82500 333 59006 70006 82618==
41947,2024,10,10,18,00,AAXX 10184 41947 11450 20000 10275 20270 30090 40092 60016 70262 82500 333 59006 70006 82618==
41947,2024,10,10,21,00,AAXX 10214 41947 02/50 40000 10273 20270 30095 40097 84030 333 59005 70010 84362==
41950,2024,10,04,00,00,AAXX 04004 41950 01350 80000 10260 20250 30038 40040 72162 8562/ 333 58007 70020 82708 84616 88458==
41950,2024,10,04,03,00,AAXX 04034 41950 02450 31802 10300 20270 30060 40062 82530 333 20252 58008 70056 82616==
41950,2024,10,04,06,00,AAXX 04064 41950 02350 81804 10308 20270 30060 40062 8532/ 333 58023 70016 82708 84616 88458 81928==
41950,2024,10,04,09,00,AAXX 04094 41950 02350 80000 10300 20260 30033 40035 8532/ 333 58018 70016 82708 84616 88458 81928==
41950,2024,10,04,12,00,AAXX 04124 41950 01335 81402 10262 20250 30048 40050 79592 8692/ 333 10310 58030 70150 82707 84616 88458 81928==
41950,2024,10,04,15,00,AAXX 04154 41950 01350 81502 10276 20276 30070 40072 71362 8532/ 333 58025 70180 82708 84616 88458 81928==
41950,2024,10,04,21,00,AAXX 04214 41950 01320 80000 10251 20251 30065 40067 79596 8592/ 333 58029 70680 83707 84615 88458 81928==
41950,2024,10,05,00,00,AAXX 05004 41950 22340 80000 10251 20251 30069 40071 8692/ 333 58031 60769 70924 83707 84615 88458 81928==
41950,2024,10,05,03,00,AAXX 05034 41950 01340 80000 10252 20252 30092 40094 79596 8692/ 333 20248 58032 71076 83707 84615 88458 81928==
41950,2024,10,05,06,00,AAXX 05064 41950 21350 80000 10277 20260 30082 40084 72196 8562/ 333 58022 60169 71088 82708 84616 88458==
41950,2024,10,05,09,00,AAXX 05094 41950 02350 80000 10288 20270 30064 40066 8632/ 333 58031 71088 82708 84616 88458 81928==
41950,2024,10,05,12,00,AAXX 05124 41950 02350 80000 10276 20270 30071 40073 8562/ 333 10292 58023 70938 81708 84616 88458==
41950,2024,10,05,15,00,AAXX 05154 41950 02450 40000 10267 20260 30098 40100 82510 333 58028 70924 82617 84459==
41950,2024,10,05,18,00,AAXX 05184 41950 02450 30000 10263 20260 30092 40094 83500 333 58036 70924 83617==
41950,2024,10,05,21,00,AAXX 05214 41950 02/50 30000 10262 20262 30090 40092 82031 333 58025 70424 82362==
41950,2024,10,06,00,00,AAXX 06004 41950 01940 20000 10260 20260 30096 40098 70511 80001 333 58027 70162 82080==
41950,2024,10,06,03,00,AAXX 06034 41950 02450 41602 10306 20270 30119 40121 84401 333 20246 58027 70012 83617==
41950,2024,10,06,06,00,AAXX 06064 41950 02450 60000 10325 20260 30109 40111 84410 333 58027 70000 83617 85459==
41950,2024,10,06,09,00,AAXX 06094 41950 02350 80000 10285 20260 30090 40092 8562/ 333 58026 70000 82708 83617 88459==
41950,2024,10,06,12,00,AAXX 06124 41950 02450 70000 10276 20260 30096 40098 84510 333 10325 58025 70000 84617 87459==
41950,2024,10,06,15,00,AAXX 06154 41950 02/50 10000 10268 20260 30120 40122 81030 333 58022 70000 81362==
41950,2024,10,06,18,00,AAXX 06184 41950 02950 00000 10260 20260 30112 40114 333 58020 70000==
41950,2024,10,06,21,00,AAXX 06214 41950 02950 00000 10259 20259 30110 40112 333 58020 70000==
41950,2024,10,07,00,00,AAXX 07004 41950 01440 60000 10265 20265 30123 40125 70520 83531 333 58027 70000 83617 83362==
41950,2024,10,07,03,00,AAXX 07034 41950 02450 60000 10288 20280 30145 40147 84430 333 20256 58026 70000 83617 83362==
41950,2024,10,07,06,00,AAXX 07064 41950 02450 60000 10320 20260 30132 40134 84410 333 58023 70000 83617 84459==
41950,2024,10,07,09,00,AAXX 07094 41950 02450 40000 10328 20260 30102 40104 83431 333 58012 70000 83617==
41950,2024,10,07,12,00,AAXX 07124 41950 02450 60000 10300 20270 30107 40109 82530 333 10336 58011 70000 82617 84362==
41950,2024,10,07,15,00,AAXX 07154 41950 02450 70000 10283 20270 30130 40132 83510 333 58010 70000 83617 85459==
41950,2024,10,07,18,00,AAXX 07184 41950 02950 00000 10276 20270 30126 40128 333 58014 70000==
41950,2024,10,07,21,00,AAXX 07214 41950 02/50 20000 10267 20267 30125 40127 82030 333 58015 70000 82362==
41950,2024,10,08,00,00,AAXX 08004 41950 02/50 30000 10265 20265 30123 40125 82031 333 58000 70000 82362==
41950,2024,10,08,03,00,AAXX 08033 41950 02450 60000 10299 20270 30145 40147 82431 333 20261 58000 70000 82617 84362==
41950,2024,10,08,06,00,AAXX 08064 41950 02450 60000 10329 20250 30125 40127 84431 333 59007 70000 83617 83362==
41950,2024,10,08,09,00,AAXX 08094 41950 02450 50000 10335 20260 30093 40095 83500 333 59009 70000 83617 83825 81928==
41950,2024,10,08,12,00,AAXX 08124 41950 01350 60000 10270 20250 30102 40104 72122 84631 333 10346 59005 70040 81708 84616==
41950,2024,10,08,15,00,AAXX 08154 41950 01450 30000 10270 20260 30123 40125 71321 83300 333 59007 70044 83617 81928==
41950,2024,10,08,18,00,AAXX 08184 41950 02450 10000 10270 20260 30114 40116 81500 333 59012 70044 81617==
41950,2024,10,08,21,00,AAXX 08214 41950 02950 00000 10264 20260 30108 40110 333 59017 70000==
41950,2024,10,09,00,00,AAXX 09004 41950 01940 10000 10258 20258 30106 40108 70510 80001 333 59017 70044 81080==
41950,2024,10,09,03,00,AAXX 09034 41950 02450 30000 10304 20260 30124 41046 83500 333 20256 59021 70044 83617==
41950,2024,10,09,06,00,AAXX 09064 41950 02450 40000 10327 20250 30106 40108 84330 333 59019 70044 83617 81928==
41950,2024,10,09,09,00,AAXX 09094 41950 01450 61502 10302 20240 30076 40078 71722 85931 333 59017 70046 83617 81928==
41950,2024,10,09,12,00,AAXX 09123 41950 01350 70000 10266 20260 30087 40089 71796 86931 333 10337 59015 70032 81708 84616 81928==
41950,2024,10,09,15,00,AAXX 09154 41950 02350 70000 10253 20240 30101 40103 84610 333 59022 70032 81708 84616 87459==
41950,2024,10,09,18,00,AAXX 09184 41950 02350 80000 10252 20250 30101 40103 8562/ 333 59013 70032 82708 84616 88458==
41950,2024,10,09,21,00,AAXX 09214 41950 02450 60000 10250 20250 30094 40096 83570 333 59014 70032 83617 86459==
41950,2024,10,10,00,00,AAXX 10004 41950 02450 60000 10250 20250 30096 40098 83531 333 59010 70032 83617 84362==
41950,2024,10,10,03,00,AAXX 10034 41950 02/56 10000 10294 20240 30114 40116 81030 333 20247 59010 70032 81362==
41950,2024,10,10,06,00,AAXX 10064 41950 02456 20000 10324 20230 30096 40098 82500 333 59010 70032 82617==
41950,2024,10,10,09,00,AAXX 10094 41950 02450 40000 10326 20240 30071 40073 83530 333 59005 70030 83627==
41950,2024,10,10,12,00,AAXX 10124 41950 02450 50000 10295 20280 30077 40079 83530 333 10340 59010 70000 83617 83362==
41950,2024,10,10,15,00,AAXX 10154 41950 02450 60000 10280 20260 30093 40095 82510 333 59008 70000 82617 86459==
41950,2024,10,10,18,00,AAXX 10184 41950 02450 40000 10276 20270 30089 40091 83530 333 59012 70000 83617==
41950,2024,10,10,21,00,AAXX 10214 41950 02450 30000 10271 20270 30086 40088 82530 333 59008 70000 82617==
41951,2024,10,04,00,00,AAXX 04004 41951 02440 60000 10268 20268 30032 40037 83510 333 58010 70344 83618 85459==
41951,2024,10,04,03,00,AAXX 04034 41951 02340 81302 10304 20260 30053 40058 8562/ 333 20253 58011 70014 81708 84618 88458==
41951,2024,10,04,06,00,AAXX 04064 41951 02340 81303 10284 20260 30060 40065 8662/ 333 58025 70000 82708 84618 88458==
41951,2024,10,04,09,00,AAXX 04094 41951 01450 71403 10298 20260 30032 40037 72122 83510 333 58019 70024 83618 86459==
41951,2024,10,04,12,00,AAXX 04124 41951 21340 81302 10285 20270 30035 40040 70362 8562/ 333 10323 58023 60025 70024 81708 84618 88458==
41951,2024,10,04,15,00,AAXX 04154 41951 02340 80000 10282 20270 30066 40071 8562/ 333 58021 70024 81708 84618 88458==
41951,2024,10,04,18,00,AAXX 04184 41951 02340 80000 10280 20270 30062 40067 8562/ 333 58020 70024 81708 84618 88458==
41951,2024,10,04,21,00,AAXX 04214 41951 01330 81302 10262 20260 30058 40063 79122 8692/ 333 58022 70032 82706 84616 88458 82925==
41951,2024,10,05,00,00,AAXX 05004 41951 01330 81303 10254 20250 30061 40066 79596 8692/ 333 58029 70059 82706 84616 88458 82925==
41951,2024,10,05,03,00,AAXX 05034 41951 01330 81302 10255 20255 30081 40086 79796 8692/ 333 20245 58028 70511 82706 84616 88458 82925==
41951,2024,10,05,06,00,AAXX 05064 41951 01340 80000 10272 20260 30082 40087 70296 8662/ 333 58022 70531 82708 84618 88458==
41951,2024,10,05,09,00,AAXX 05094 41951 02340 80000 10272 20250 30058 40063 8562/ 333 58026 70507 81708 84618 88458==
41951,2024,10,05,12,00,AAXX 05124 41951 21340 80000 10268 20250 30061 40066 70262 8562/ 333 10282 58026 69955 70512 81708 84618 88458==
41951,2024,10,05,15,00,AAXX 05154 41951 02450 30000 10270 20270 30093 40098 83500 333 58027 70512 83618==
41951,2024,10,05,18,00,AAXX 05184 41951 02440 70000 10275 20275 30087 40092 83510 333 58025 70512 83618 86459==
41951,2024,10,05,21,00,AAXX 05214 41951 01440 50000 10264 20260 30083 40088 70522 82510 333 58026 70504 82618 84459==
41951,2024,10,06,00,00,AAXX 06004 41951 01450 30000 10258 20258 30087 40092 70520 83500 333 58026 70477 83618==
41951,2024,10,06,03,00,AAXX 06034 41951 02456 61302 10304 20270 30108 40112 83510 333 20252 58027 70025 83618 85459==
41951,2024,10,06,06,00,AAXX 06064 41951 01340 80000 10292 20270 30105 40110 72122 8662/ 333 58023 70020 82706 84616 88458==
41951,2024,10,06,09,00,AAXX 06094 41951 41330 81302 10266 20266 30082 40087 79196 8672/ 333 58024 82706 84616 88458==
41951,2024,10,06,12,00,AAXX 06124 41951 21440 70000 10267 20267 30083 40088 70196 83510 333 10324 58022 61028 71044 83618 86459==
41951,2024,10,06,15,00,AAXX 06154 41951 01440 20000 10260 20260 30111 40116 70520 82500 333 58018 71044 82618==
41951,2024,10,06,18,00,AAXX 06184 41951 01440 30000 10265 20265 30103 40108 70500 83500 333 58016 71044 83618==
41951,2024,10,06,21,00,AAXX 06214 41951 01440 30000 10258 20258 30106 40111 70500 83500 333 58023 71044 83618==
41951,2024,10,07,00,00,AAXX 07004 41951 01440 50000 10255 20255 30112 40117 70520 82510 333 58025 71044 82618 84459==
41951,2024,10,07,03,00,AAXX 07034 41951 01440 70000 10276 20260 30133 40138 71792 8692/ 333 20252 58025 71044 82708 86618 88458==
41951,2024,10,07,06,00,AAXX 07064 41951 01456 60000 10314 20260 30126 40131 70192 83510 333 58021 71022 83618 85459==
41951,2024,10,07,09,00,AAXX 07094 41951 02450 70000 10328 20260 30103 40108 83510 333 58022 70014 83618 86459==
41951,2024,10,07,12,00,AAXX 07124 41951 02450 50000 10290 20270 30097 40102 82510 333 10342 58014 70000 82618 84459==
41951,2024,10,07,18,00,AAXX 07184 41951 02450 20000 10272 20270 30122 40127 82500 333 58019 70000 82618==
41951,2024,10,07,21,00,AAXX 07214 41951 01940 00000 10266 20266 30118 40123 70500 333 58012 70000==
41951,2024,10,08,00,00,AAXX 08004 41951 01940 00000 10261 20260 30113 40118 70500 333 58001 70000==
41951,2024,10,08,03,00,AAXX 08033 41951 02456 60000 10306 20270 30135 40140 83510 333 20259 58002 70000 83618 85459==
41951,2024,10,08,06,00,AAXX 08064 41951 02456 60000 10333 20250 30118 40123 83510 333 59008 70000 83618 85459==
41951,2024,10,08,09,00,AAXX 08094 41951 02456 60000 10330 20270 30086 40091 83510 333 59017 70000 83618 85459==
41951,2024,10,08,12,00,AAXX 08124 41951 01340 80000 10280 20260 30085 40090 71796 8692/ 333 10345 59012 70005 81708 84618 88458 81925==
41951,2024,10,08,15,00,AAXX 08154 41951 02450 30000 10278 20278 30117 40122 83500 333 59008 70005 83618==
41951,2024,10,08,18,00,AAXX 08184 41951 02950 00000 10270 20270 30109 40114 333 59013 70005==
41951,2024,10,08,21,00,AAXX 08214 41951 01440 30000 10264 20260 30102 40107 70500 83500 333 59016 70005 83618==
41951,2024,10,09,00,00,AAXX 09004 41951 01440 30000 10258 20258 30093 40098 70500 83500 333 59020 70005 83618==
41951,2024,10,09,03,00,AAXX 09033 41951 02456 52201 10305 20270 30111 40116 82510 333 20255 59024 70005 82618 84459==
41951,2024,10,09,06,00,AAXX 09064 41951 02456 60000 10329 20270 30098 40103 83510 333 59020 70005 83618 85459==
41951,2024,10,09,09,00,AAXX 09094 41951 02340 81302 10300 20270 30073 40078 8562/ 333 59013 70005 81709 84618 88458==
41951,2024,10,09,15,00,AAXX 09154 41951 42340 80000 10266 20260 30094 40099 8562/ 333 59023 81708 84618 88458==
41951,2024,10,09,18,00,AAXX 09184 41951 02440 70000 10260 20260 30092 40097 83510 333 59027 70000 83618 86459==
41951,2024,10,09,21,00,AAXX 09214 41951 01440 60000 10256 20256 30089 40094 70522 83510 333 59013 70000 83618 85459==
41951,2024,10,10,00,00,AAXX 10004 41951 01440 60000 10253 20250 30084 40089 70522 83510 333 59029 70000 83618 85459==
41951,2024,10,10,03,00,AAXX 10034 41951 02456 60000 10306 20270 30105 40110 83510 333 20250 59006 70000 83618 85459==
41951,2024,10,10,06,00,AAXX 10064 41951 02456 52202 10332 20260 30090 40095 82510 333 59008 70000 82618 84459==
41951,2024,10,10,09,00,AAXX 10094 41951 02456 30000 10332 20240 30065 40070 83500 333 59008 70000 83618==
41951,2024,10,10,12,00,AAXX 10124 41951 02450 30000 10290 20260 30066 40070 83500 333 10336 59010 70000 83618==
41951,2024,10,10,15,00,AAXX 10154 41951 02450 30000 10279 20270 30086 40091 83500 333 59009 70000 83618==
41951,2024,10,10,18,00,AAXX 10184 41951 02950 00000 10272 20270 30083 40088 333 59009 70000==
41951,2024,10,10,21,00,AAXX 10214 41951 01940 00000 10265 20265 30085 40090 70500 333 59004 70000==
41953,2024,10,04,00,00,AAXX 04004 41953 21440 81301 10268 20260 30048 40053 70262 8352/ 333 58018 60025 70100 83616 88458==
41953,2024,10,04,03,00,AAXX 04034 41953 01445 81301 10280 20260 30069 40074 72122 8352/ 333 20260 58018 70040 83616 88458==
41953,2024,10,04,06,00,AAXX 04064 41953 01440 81303 10270 20250 30070 40075 76162 8352/ 333 58026 70040 83615 88458==
41953,2024,10,04,09,00,AAXX 04094 41953 01440 81304 10295 20270 30045 40050 70262 8352/ 333 58026 70040 83616 88458==
41953,2024,10,04,12,00,AAXX 04124 41953 11440 81303 10275 20260 30050 40055 60006 70262 8352/ 333 10300 58025 70040 83616 88458==
41953,2024,10,04,15,00,AAXX 04154 41953 01440 81303 10270 20260 30075 40080 70266 8352/ 333 58025 70110 83616 88458==
41953,2024,10,04,18,00,AAXX 04184 41953 11440 81303 10270 20260 30072 40077 60076 70266 8352/ 333 58023 70110 83616 88458==
41953,2024,10,04,21,00,AAXX 04214 41953 02440 81303 10268 20260 30065 40070 8352/ 333 58018 70110 83616 88458==
41953,2024,10,05,00,00,AAXX 05004 41953 02440 81303 10270 20260 30065 40070 8352/ 333 58017 70090 83616 88458==
41953,2024,10,05,03,00,AAXX 05034 41953 01440 80000 10275 20270 30094 40099 70262 8352/ 333 20265 58025 70100 83616 88458==
41953,2024,10,05,06,00,AAXX 05064 41953 01430 80000 10255 20250 30087 40092 76166 8352/ 333 58017 70490 83615 88458==
41953,2024,10,05,09,00,AAXX 05094 41953 01430 80000 10245 20245 30070 40075 76166 8352/ 333 58025 71240 83615 88458==
41953,2024,10,05,12,00,AAXX 05124 41953 21440 80000 10255 20250 30072 40077 70266 8352/ 333 10275 58022 60758 71240 83616 88458==
41953,2024,10,05,15,00,AAXX 05154 41953 02440 80000 10260 20250 30100 40105 8352/ 333 58025 71170 83616 88458==
41953,2024,10,05,18,00,AAXX 05184 41953 02440 80000 10260 20250 30097 40102 8352/ 333 58025 71170 83616 88458==
41953,2024,10,05,21,00,AAXX 05214 41953 02440 80000 10260 20250 30090 40095 8352/ 333 58025 71170 83616 88458==
41953,2024,10,06,00,00,AAXX 06004 41953 02440 80000 10265 20260 30100 40105 8352/ 333 58035 71170 83616 88458==
41953,2024,10,06,03,00,AAXX 06034 41953 02450 51303 10305 20260 30121 40126 83510 333 20240 58027 71150 83616 85458==
41953,2024,10,06,06,00,AAXX 06064 41953 02450 50000 10320 20270 30112 40117 84410 333 58025 70750 83616 85458==
41953,2024,10,06,09,00,AAXX 06094 41953 42450 51303 10310 20260 30083 40088 84410 333 58013 83616 85458==
41953,2024,10,06,12,00,AAXX 06124 41953 21440 60000 10272 20250 30095 40100 70362 83510 333 10330 58023 60125 70120 83616 86458==
41953,2024,10,06,15,00,AAXX 06154 41953 02440 60000 10270 20250 30120 40125 83510 333 58020 70120 83616 86458==
41953,2024,10,06,18,00,AAXX 06184 41953 02440 60000 10270 20250 30114 40119 83510 333 58017 70120 83616 86458==
41953,2024,10,06,21,00,AAXX 06214 41953 02440 60000 10268 20260 30110 40115 83510 333 58020 70120 83616 86458==
41953,2024,10,07,00,00,AAXX 07004 41953 02440 60000 10265 20260 30125 40130 83510 333 58025 70120 83616 86458==
41953,2024,10,07,03,00,AAXX 07034 41953 02440 60000 10280 20260 30145 40150 83510 333 20262 58024 70120 83616 86458==
41953,2024,10,07,06,00,AAXX 07064 41953 02450 40000 10326 20260 30130 40135 84400 333 58018 70120 83618==
41953,2024,10,07,09,00,AAXX 07094 41953 02450 40000 10326 20260 30109 40114 84400 333 58026 70120 83618==
41953,2024,10,07,12,00,AAXX 07124 41953 02440 60000 10310 20270 30107 40112 83510 333 10328 58012 70000 83616 85458==
41953,2024,10,07,15,00,AAXX 07154 41953 02435 60000 10290 20270 30131 40136 83510 333 58011 70000 83616 85458==
41953,2024,10,07,18,00,AAXX 07184 41953 NIL=
41953,2024,10,07,21,00,AAXX 07214 41953 02435 60000 10280 20270 30127 40132 83510 333 58017 70000 83616 85458==
41953,2024,10,08,00,00,AAXX 08004 41953 02440 30000 10275 20270 30126 40131 83400 333 58001 70000 82618==
41953,2024,10,08,03,00,AAXX 08033 41953 02445 60000 10300 20260 30147 40152 83510 333 20273 58002 70000 83616 85458==
41953,2024,10,08,06,00,AAXX 08064 41953 02445 60000 10326 20270 30124 40129 84410 333 59006 70000 83616 85458==
41953,2024,10,08,09,00,AAXX 08094 41953 02550 30000 10340 20240 30091 40096 83200 333 59018 70000 83825==
41953,2024,10,08,12,00,AAXX 08124 41953 02435 50501 10294 20250 30102 40107 83510 333 10345 59005 70000 83616 84458==
41953,2024,10,08,15,00,AAXX 08154 41953 01430 80000 10260 20240 30125 40130 71792 8532/ 333 59006 70000 84616 88458 81930==
41953,2024,10,08,18,00,AAXX 08184 41953 01430 80000 10260 20250 30125 40130 70292 8352/ 333 59005 70000 83616 88458==
41953,2024,10,08,21,00,AAXX 08214 41953 02430 60000 10262 20250 30117 40122 83510 333 59010 70000 83616 84458==
41953,2024,10,09,00,00,AAXX 09004 41953 02440 60000 10266 20266 30110 40115 83510 333 59016 70000 83616 84458==
41953,2024,10,09,03,00,AAXX 09033 41953 02450 30000 10318 20260 30123 40128 83400 333 20259 59024 70000 82618==
41953,2024,10,09,06,00,AAXX 09064 41953 02450 63103 10325 20250 30106 40111 83510 333 59018 70000 83616 85458==
41953,2024,10,09,09,00,AAXX 09094 41953 01450 40000 10325 20270 30075 40080 70162 84400 333 59016 70120 83616==
41953,2024,10,09,12,00,AAXX 09124 41953 11440 80000 10295 20270 30081 40086 60126 70362 8352/ 333 10330 59021 70120 83616 88458==
41953,2024,10,09,15,00,AAXX 09154 41953 02430 80000 10270 20250 30102 40107 8352/ 333 59023 70120 83616 88458==
41953,2024,10,09,18,00,AAXX 09184 41953 02430 80000 10268 20250 30105 40110 8352/ 333 59022 70120 83616 88458==
41953,2024,10,09,21,00,AAXX 09214 41953 02430 80000 10266 20260 30099 40104 8352/ 333 59018 70120 83616 88458==
41953,2024,10,10,00,00,AAXX 10004 41953 02440 80000 10260 20250 30096 40101 8352/ 333 59014 70120 83616 88458==
41953,2024,10,10,03,00,AAXX 10034 41953 02445 80000 10280 20260 30115 40120 8352/ 333 20258 59008 70120 83616 88458==
41953,2024,10,10,06,00,AAXX 10064 41953 02450 40000 10330 20250 30098 40103 84400 333 59008 70120 82618 83825==
41953,2024,10,10,09,00,AAXX 10094 41953 02450 50000 10304 20240 30071 40076 82510 333 59004 70000 82618 84458==
41953,2024,10,10,12,00,AAXX 10124 41953 02435 20000 10284 20250 30077 40082 82500 333 10334 59004 70000 82616==
41953,2024,10,10,15,00,AAXX 10154 41953 02935 00000 10276 20270 30092 40097 333 59010 70000==
41953,2024,10,10,18,00,AAXX 10184 41953 02930 00000 10270 20260 30096 40101 333 59009 70000==
41953,2024,10,10,21,00,AAXX 10214 41953 02930 00000 10270 20260 30095 40100 333 59004 70000==
41955,2024,10,04,00,00,AAXX 04004 41955 NIL=
41955,2024,10,05,06,00,AAXX 05064 41955 NIL=
41955,2024,10,05,12,00,AAXX 05124 41955 NIL=
41955,2024,10,06,06,00,AAXX 06064 41955 NIL=
41955,2024,10,07,00,00,AAXX 07004 41955 NIL=
41955,2024,10,07,06,00,AAXX 07064 41955 NIL=
41955,2024,10,07,12,00,AAXX 07124 41955 NIL=
41955,2024,10,07,18,00,AAXX 07184 41955 NIL=
41955,2024,10,08,12,00,AAXX 08124 41955 NIL=
41955,2024,10,08,18,00,AAXX 08184 41955 NIL=
41955,2024,10,09,00,00,AAXX 09004 41955 NIL=
41955,2024,10,09,06,00,AAXX 09064 41955 NIL=
41955,2024,10,10,00,00,AAXX 10004 41955 NIL=
41955,2024,10,10,06,00,AAXX 10064 41955 NIL=
41955,2024,10,10,12,00,AAXX 10124 41955 NIL=
41958,2024,10,04,00,00,AAXX 04004 41958 32450 61802 10271 20260 30031 40034 85410 333 56990 58008 70000 84616 86459=
41958,2024,10,04,03,00,AAXX 04034 41958 21450 80000 10265 20260 30057 40059 76162 8532/ 333 20261 56999 58015 6011/ 70110 84616 81930 88459=
41958,2024,10,04,06,00,AAXX 04064 41958 11457 80000 10310 20280 30054 40056 60228 70266 8532/ 333 56999 58023 70220 84616 81930 88459=
41958,2024,10,04,09,00,AAXX 04094 41958 21456 81801 10262 20260 30036 40038 79796 8592/ 333 56999 58025 6022/ 70440 84616 82930 88459=
41958,2024,10,04,12,00,AAXX 04124 41958 11450 80000 10270 20270 30039 40041 60239 76196 8532/ 333 10318 56999 58027 70452 84616 81930 88459=
41958,2024,10,04,15,00,AAXX 04154 41958 21440 82203 10277 20270 30064 40066 79596 8592/ 333 56999 58027 6993/ 70455 84616 82930 88459=
41958,2024,10,04,18,00,AAXX 04184 41958 11430 81802 10280 20270 30055 40057 69938 70296 8532/ 333 56999 58015 70455 84616 81930 88459=
41958,2024,10,04,21,00,AAXX 04214 41958 21430 81802 10265 20265 30056 40058 79596 8592/ 333 56999 58026 6009/ 70545 84616 82930 88459=
41958,2024,10,05,00,00,AAXX 05004 41958 11440 80000 10260 20260 30058 40060 60157 79596 8592/ 333 56499 58027 70609 84615 81708 82930 88459=
41958,2024,10,05,03,00,AAXX 05034 41958 32456 80000 10262 20260 30085 40087 8532/ 333 20255 56999 58028 70499 84616 81930 88459=
41958,2024,10,05,06,00,AAXX 05064 41958 32457 80000 10290 20260 30080 40082 8542/ 333 56999 58026 70389 84616 88459=
41958,2024,10,05,09,00,AAXX 05094 41958 32458 62201 10303 20260 30059 40061 85410 333 56990 58023 70169 84616 86459=
41958,2024,10,05,12,00,AAXX 05124 41958 32450 60000 10285 20270 30062 40064 85410 333 10304 56990 58023 70157 84616 86459=
41958,2024,10,05,15,00,AAXX 05154 41958 32440 50000 10272 20260 30091 40093 85400 333 56900 58027 70154 84617=
41958,2024,10,05,18,00,AAXX 05184 41958 32430 61601 10275 20275 30086 40089 85410 333 56490 58031 70154 84616 86459=
41958,2024,10,05,21,00,AAXX 05214 41958 32430 51801 10273 20270 30087 40089 85400 333 56900 58031 70064 84617=
41958,2024,10,06,00,00,AAXX 06004 41958 32950 00000 10270 20720 30089 40091 333 58031 70000=
41958,2024,10,06,03,00,AAXX 06034 41958 32457 50000 10307 20290 30111 40113 58400 333 20260 56400 58026 70000 84617=
41958,2024,10,06,06,00,AAXX 06064 41958 11457 80000 10277 20260 30114 40116 69944 79596 8542/ 333 56499 58030 70004 84615 81708 82930 88459=
41958,2024,10,06,09,00,AAXX 06094 41958 21458 80000 10290 20270 30086 40088 70296 8532/ 333 56499 58027 6001/ 70014 84616 81930 88459=
41958,2024,10,06,12,00,AAXX 06124 41958 11450 60000 10275 20260 30091 40093 60016 70196 85410 333 10334 56990 58029 70014 84616 86459=
41958,2024,10,06,15,00,AAXX 06154 41958 32940 00000 10271 20270 30115 40117 333 58024 70014=
41958,2024,10,06,18,00,AAXX 06184 41958 32940 00000 10270 20260 30109 40111 333 58023 70014=
41958,2024,10,06,21,00,AAXX 06214 41958 32440 50000 10270 20270 30115 40117 85400 333 56900 58028 70014 84617=
41958,2024,10,07,00,00,AAXX 07004 41958 32450 60000 10270 20270 30116 40118 85410 333 56990 58027 70014 84616 86459=
41958,2024,10,07,03,00,AAXX 07034 41958 32457 60000 10305 20290 30139 40141 85410 333 20262 56990 58028 70014 84616 86459=
41958,2024,10,07,06,00,AAXX 07064 41958 32458 70000 10323 20270 30130 40133 85310 333 56990 58016 70010 84616 81930 87459=
41958,2024,10,07,09,00,AAXX 07094 41958 31457 60000 10312 20270 30104 40106 71722 85910 333 56490 58018 70000 84616 81930 86459=
41958,2024,10,07,12,00,AAXX 07124 41958 11450 60000 10266 20260 30105 40107 69914 79596 85910 333 10330 56990 58014 70001 84616 81930 86459=
41958,2024,10,07,15,00,AAXX 07154 41958 32440 50000 10270 20260 30128 40130 85400 333 56900 58013 70001 84617=
41958,2024,10,07,18,00,AAXX 07184 41958 32440 50000 10271 20260 30123 40125 85400 333 56900 58014 70001 84617=
41958,2024,10,07,21,00,AAXX 07214 41958 32940 00000 10268 20260 30117 40119 333 58002 70001=
41958,2024,10,08,00,00,AAXX 08004 41958 32950 00000 10267 20267 30119 40121 333 58003 70000=
41958,2024,10,08,03,00,AAXX 08034 41958 32457 20000 10324 20280 30142 40144 82500 333 20263 56900 58003 70001 83617=
41958,2024,10,08,06,00,AAXX 08064 41958 32456 60000 10333 20260 30126 40128 83510 333 56990 59004 70001 83616 85459=
41958,2024,10,08,09,00,AAXX 08094 41958 21430 80000 10267 20260 30099 40101 79592 8592/ 333 56999 59005 6015/ 70151 84616 81929 88458=
41958,2024,10,08,12,00,AAXX 08124 41958 11450 80000 10287 20280 30098 40100 60165 70196 83410 333 10350 59007 70158 83616 84459=
41958,2024,10,08,15,00,AAXX 08154 41958 21440 80000 10252 20250 30122 40124 76196 8572/ 333 56999 59006 6015/ 70308 81708 84616 88458=
41958,2024,10,08,18,00,AAXX 08184 41958 11440 60000 10256 20256 30111 40113 60156 70196 83410 333 56990 59012 70308 83616 85459=
41958,2024,10,08,21,00,AAXX 08214 41958 32440 30000 10262 20260 30104 40106 83400 333 56900 59013 70308 83616=
41958,2024,10,09,00,00,AAXX 09004 41958 32450 30000 10264 20260 30103 40105 83400 333 56900 59016 70308 83616=
41958,2024,10,09,03,00,AAXX 09033 41958 32456 30000 10320 20270 30122 40124 83400 333 20244 56900 59020 70308 83616=
41958,2024,10,09,06,00,AAXX 09064 41958 32457 30000 10334 20250 30106 40108 83400 333 56900 59020 70308 83616=
41958,2024,10,09,09,00,AAXX 09094 41958 21430 80000 10270 20250 30085 40087 79392 8592/ 333 56999 59014 6011/ 70268 84616 82929 88458=
41958,2024,10,09,12,00,AAXX 09124 41958 11450 50000 10282 20260 30082 40084 60115 70196 83410 333 10342 56990 59016 70260 83616 84459=
41958,2024,10,09,15,00,AAXX 09154 41958 32450 33101 10264 20250 30101 40103 83400 333 56700 59021 70110 83616=
41958,2024,10,09,18,00,AAXX 09184 41958 32440 83101 10266 20260 30093 40095 8542/ 333 56799 59018 70110 84616 88458=
41958,2024,10,09,21,00,AAXX 09214 41958 32440 80000 10260 20260 30092 40094 8542/ 333 56999 59012 70110 84616 88458=
41958,2024,10,10,00,00,AAXX 10004 41958 32450 80000 10256 20256 30091 40093 8542/ 333 56999 59012 70110 84616 88458=
41958,2024,10,10,03,00,AAXX 10034 41958 32457 30000 10312 20260 30113 40115 83400 333 20250 56900 59009 70110 83616=
41958,2024,10,10,06,00,AAXX 10064 41958 32456 50000 10333 20260 30097 40099 83410 333 56990 59009 70110 83616 84459=
41958,2024,10,10,09,00,AAXX 10094 41958 32456 50000 10347 20270 30071 40073 83410 333 56990 59014 70000 83616 85459=
41958,2024,10,10,12,00,AAXX 10124 41958 11450 50000 10273 20270 30076 40078 60165 70296 83410 333 10350 56990 59006 70160 83616 84459=
41958,2024,10,10,15,00,AAXX 10154 41958 32950 00000 10275 20270 30093 40095 333 59008 70160=
41958,2024,10,10,21,00,AAXX 10214 41958 32940 00000 10270 20270 30087 40089 333 59005 70160=
41960,2024,10,04,00,00,AAXX 04004 41960 01/50 30000 10253 20250 30041 40043 70162 83070 333 58012 70010 82460==
41960,2024,10,04,03,00,AAXX 04034 41960 02456 40000 10306 20280 30063 40064 82510 333 20250 58015 70028 82618 84459==
41960,2024,10,04,06,00,AAXX 04064 41960 01456 80000 10298 20270 30061 40062 70362 8352/ 333 58020 70064 83618 88458==
41960,2024,10,04,09,00,AAXX 04094 41960 02450 80000 10300 20270 30036 40038 8642/ 333 58016 70060 84618 83822 88459==
41960,2024,10,04,12,00,AAXX 04124 41960 02450 80000 10287 20270 30045 40046 8642/ 333 10316 58026 70060 84618 83822 88458==
41960,2024,10,04,15,00,AAXX 04154 41960 02440 80000 10282 20260 30074 40076 8542/ 333 58029 70060 84618 88458==
41960,2024,10,04,18,00,AAXX 04184 41960 01320 80000 10280 20280 30066 40067 79562 8692/ 333 58017 70078 81708 84617 88458 81929==
41960,2024,10,04,21,00,AAXX 04214 41960 01320 81802 10262 20260 30066 40067 79596 8692/ 333 58022 70163 83708 84615 88458 82928==
41960,2024,10,05,00,00,AAXX 05004 41960 21340 80000 10257 20257 30065 40067 71795 8692/ 333 58024 60289 70348 83708 84614 88458 82928==
41960,2024,10,05,03,00,AAXX 05034 41960 01350 81801 10256 20256 30092 40093 79596 8692/ 333 20250 58029 70518 82708 84615 88458 81925==
41960,2024,10,05,06,00,AAXX 05064 41960 21456 80000 10282 20260 30083 40084 70296 8452/ 333 58022 60195 70483 84618 88458==
41960,2024,10,05,09,00,AAXX 05094 41960 01450 80000 10290 20260 30065 40067 70262 8542/ 333 58029 70491 83617 83822 88459==
41960,2024,10,05,12,00,AAXX 05124 41960 11440 80000 10286 20280 30067 40068 60016 70262 8352/ 333 10295 58022 70491 83618 88458==
41960,2024,10,05,15,00,AAXX 05154 41960 02450 70000 10271 20260 30095 40097 85410 333 58021 70491 83618 87459==
41960,2024,10,05,18,00,AAXX 05184 41960 02440 30000 10268 20268 30094 40095 83500 333 58028 70473 83618==
41960,2024,10,05,21,00,AAXX 05214 41960 01430 20000 10265 20265 30093 40094 71000 82500 333 58027 70388 82618==
41960,2024,10,06,00,00,AAXX 06004 41960 01420 20000 10263 20263 30096 40098 71000 81530 333 58031 70193 81618==
41960,2024,10,06,03,00,AAXX 06034 41960 01450 60000 10304 20280 30116 40118 70520 84470 333 20260 58024 70023 82618 83362==
41960,2024,10,06,06,00,AAXX 06064 41960 01350 81802 10276 20276 30110 40112 79596 8692/ 333 58027 70180 82707 83616 88457 81925==
41960,2024,10,06,09,00,AAXX 06094 41960 01340 81801 10273 20250 30092 40094 79596 8692/ 333 58027 70192 82708 84616 88458 81928==
41960,2024,10,06,12,00,AAXX 06124 41960 21440 80000 10255 20260 30092 40093 70296 8352/ 333 10320 58025 60105 70282 83618 88458==
41960,2024,10,06,15,00,AAXX 06154 41960 01440 80000 10264 20260 30118 40120 70262 8542/ 333 58023 70285 84618 88458==
41960,2024,10,06,18,00,AAXX 06184 41960 11440 30000 10262 20262 30110 40112 69936 70162 83400 333 58016 70285 82618==
41960,2024,10,07,00,00,AAXX 07004 41960 01440 20000 10264 20264 30116 40117 70500 82400 333 58023 70285 81618==
41960,2024,10,07,03,00,AAXX 07034 41960 01450 70000 10293 20280 30145 40147 71792 85910 333 20258 58029 70285 84617 83822 87459 82928==
41960,2024,10,07,06,00,AAXX 07064 41960 01450 70000 10314 20260 30131 40133 70292 85410 333 58021 70103 84618 87459==
41960,2024,10,07,09,00,AAXX 07094 41960 02456 60000 10333 20270 30108 40110 84411 333 58016 70093 83618 86459==
41960,2024,10,07,12,00,AAXX 07124 41960 02450 60000 10288 20260 30108 40111 84410 333 10335 58016 70003 83618 86459==
41960,2024,10,07,15,00,AAXX 07154 41960 42450 80000 10279 20270 30129 40131 8542/ 333 58011 84618 88459==
41960,2024,10,07,18,00,AAXX 07184 41960 11950 00000 10274 20270 30126 40128 60006 70060 333 58016==
41960,2024,10,07,21,00,AAXX 07214 41960 41940 00000 10270 20270 30125 40127 70500 333 58009==
41960,2024,10,08,00,00,AAXX 08004 41960 41440 20000 10266 20266 30124 40125 70500 82500 333 58001 82618==
41960,2024,10,08,03,00,AAXX 08033 41960 02456 60000 10306 20280 30132 40134 83470 333 20262 59013 70000 82618 84459==
41960,2024,10,08,06,00,AAXX 08064 41960 02457 61802 10340 20260 30126 40128 85430 333 59005 70000 82618 83825==
41960,2024,10,08,09,00,AAXX 08094 41960 42457 40000 10330 20260 30095 40097 84401 333 59013 83618==
41960,2024,10,08,12,00,AAXX 08124 41960 41440 50000 10305 20270 30098 40100 71722 83910 333 10351 59010 83618 83458 81926==
41960,2024,10,08,15,00,AAXX 08154 41960 02440 20000 10287 20280 30124 40126 82500 333 59005 70000 82618==
41960,2024,10,08,18,00,AAXX 08184 41960 02940 00000 10275 20270 30116 40118 333 59010 70000==
41960,2024,10,08,21,00,AAXX 08214 41960 01940 00000 10269 20269 30109 40111 70500 333 59016 70000==
41960,2024,10,09,00,00,AAXX 09004 41960 01440 30000 10262 20260 30104 40106 70510 83500 333 59020 70000 83618==
41960,2024,10,09,03,00,AAXX 09034 41960 02456 31801 10306 20280 30122 40124 83400 333 20260 59010 70000 82618==
41960,2024,10,09,06,00,AAXX 09064 41960 02456 51802 10326 20270 30116 40118 83410 333 59010 70000 82618 84459==
41960,2024,10,09,09,00,AAXX 09094 41960 02456 51802 10342 20260 30078 40080 83410 333 59017 70000 82618 85459==
41960,2024,10,09,12,00,AAXX 09124 41960 02440 60000 10286 20250 30084 40086 83510 333 10350 59014 70000 83618 85458==
41960,2024,10,09,15,00,AAXX 09154 41960 02440 60000 10277 20260 30106 40108 84410 333 59018 70000 83618 86459==
41960,2024,10,09,18,00,AAXX 09184 41960 02440 70000 10273 20270 30097 40099 84410 333 59019 70000 83618 87459==
41960,2024,10,09,21,00,AAXX 09214 41960 02440 70000 10271 20270 30096 40098 84410 333 59013 70000 83618 87459==
41960,2024,10,10,00,00,AAXX 10004 41960 02440 70000 10269 20269 30093 40095 84470 333 59011 70000 83618 85459==
41960,2024,10,10,03,00,AAXX 10034 41960 02456 50000 10295 20260 30116 40118 85430 333 20265 59006 70000 83618==
41960,2024,10,10,06,00,AAXX 10064 41960 02457 51802 10330 20260 30108 40110 85400 333 59008 70000 83618==
41960,2024,10,10,09,00,AAXX 10094 41960 02457 30000 10345 20240 30073 40075 83400 333 59005 70000 82618==
41960,2024,10,10,12,00,AAXX 10124 41960 02440 80000 10300 20270 30077 40079 8352/ 333 10348 59007 70000 83618 88458==
41960,2024,10,10,15,00,AAXX 10154 41960 02440 70000 10284 20270 30092 40094 84410 333 59014 70000 83618 87459==
41960,2024,10,10,18,00,AAXX 10184 41960 02440 30000 10276 20270 30093 40095 83400 333 59004 70000 82618==
41960,2024,10,10,21,00,AAXX 10214 41960 01940 00000 10271 20260 30093 40095 70500 333 59003 70000==
41963,2024,10,04,00,00,AAXX 04004 41963 01330 80000 10285 20258 30040 40043 70520 8372/ 333 58002 70310 82708 83615 88458==
41963,2024,10,04,03,00,AAXX 04034 41963 02450 61803 10290 20260 30064 40070 82510 333 20250 58021 70020 82618 86458==
41963,2024,10,04,06,00,AAXX 04064 41963 21340 81802 10275 20260 30069 40072 76062 8372/ 333 58022 60049 70040 82708 83615 88458==
41963,2024,10,04,09,00,AAXX 04094 41963 02450 61803 10290 20260 30037 40038 82510 333 58020 70040 82618 86458==
41963,2024,10,04,12,00,AAXX 04124 41963 02440 61803 10285 20280 30033 40036 82510 333 10295 58006 70040 82618 86458==
41963,2024,10,04,15,00,AAXX 04154 41963 01330 81802 10280 20260 30063 40073 70522 8372/ 333 58014 70040 82708 83615 86458==
41963,2024,10,04,21,00,AAXX 04214 41963 02430 61801 10275 20270 30068 40071 82510 333 58016 70040 82615 86458==
41963,2024,10,05,00,00,AAXX 05004 41963 01330 81802 10275 20270 30055 40058 70522 8372/ 333 58015 70040 82708 83615 88458==
41963,2024,10,05,03,00,AAXX 05034 41963 02450 61802 10300 20270 30081 40084 82510 333 20260 58014 70040 82708 86458==
41963,2024,10,05,06,00,AAXX 05064 41963 02456 61803 10300 20270 30083 40086 82510 333 58014 70000 82618 86458==
41963,2024,10,05,09,00,AAXX 05094 41963 02456 61803 10295 20280 30068 40071 82510 333 58031 70000 82618 86458==
41963,2024,10,05,12,00,AAXX 05124 41963 NIL=
41963,2024,10,05,15,00,AAXX 05154 41963 01930 01802 10280 20270 30095 40101 70500 333 58033 70000==
41963,2024,10,05,21,00,AAXX 05214 41963 01930 00000 10264 20264 30095 40098 70500 333 58027 70000==
41963,2024,10,06,00,00,AAXX 06004 41963 01930 00000 10258 20258 30088 40091 70500 333 58033 70000==
41963,2024,10,06,03,00,AAXX 06034 41963 02456 51801 10300 20270 30113 40115 82510 333 20250 58032 70000 82618 85458==
41963,2024,10,06,06,00,AAXX 06064 41963 02456 51802 10310 20280 30101 40105 82510 333 58018 70000 82618 85458==
41963,2024,10,06,09,00,AAXX 06094 41963 02456 21802 10315 20260 30088 40091 82500 333 58020 70000 82618==
41963,2024,10,06,12,00,AAXX 06124 41963 02440 50000 10290 20270 30093 40096 82510 333 10320 58027 70000 82618 85458==
41963,2024,10,06,15,00,AAXX 06154 41963 01930 00000 10282 20280 30112 40115 70500 333 58017 70000==
41963,2024,10,06,21,00,AAXX 06214 41963 01930 00000 10273 20273 30126 40129 70500 333 58003 70000==
41963,2024,10,07,00,00,AAXX 07004 41963 01930 00000 10271 20271 30110 40113 70500 333 58022 70000==
41963,2024,10,07,03,00,AAXX 07034 41963 01340 81802 10268 20268 30138 40141 70362 8372/ 333 20264 58025 70010 82708 83615 88458==
41963,2024,10,07,06,00,AAXX 07064 41963 21456 51302 10310 20280 30123 40126 70162 82510 333 58020 60015 70010 82618 85458==
41963,2024,10,07,09,00,AAXX 07094 41963 02456 51802 10315 20280 30102 40105 82510 333 58014 70010 82618 85458==
41963,2024,10,07,12,00,AAXX 07124 41963 01440 51801 10290 20270 30101 40104 70522 82510 333 10330 58008 70010 82618 85458==
41963,2024,10,07,15,00,AAXX 07154 41963 01930 00000 10280 20270 30120 40122 70500 333 58008 70010==
41963,2024,10,07,18,00,AAXX 07184 41963 NIL=
41963,2024,10,07,21,00,AAXX 07214 41963 02930 00000 10273 20273 30123 40125 333 59003 70010==
41963,2024,10,08,00,00,AAXX 08004 41963 01930 00000 10269 20269 30112 40115 70500 333 58002 70010==
41963,2024,10,08,03,00,AAXX 08033 41963 02450 41801 10320 20270 30134 40137 82510 333 20262 59004 70000 82618 84458==
41963,2024,10,08,06,00,AAXX 08064 41963 02456 31803 10330 20250 30121 40124 83800 333 59002 70000 82618 83828==
41963,2024,10,08,09,00,AAXX 08094 41963 02456 21802 10320 20270 30034 40037 82500 333 59008 70000 82618==
41963,2024,10,08,12,00,AAXX 08124 41963 02440 20000 10295 20290 30101 40104 82500 333 10335 58000 70000 82618==
41963,2024,10,08,15,00,AAXX 08154 41963 01930 00000 10280 20280 30120 40123 70500 333 58000 70000==
41963,2024,10,08,18,00,AAXX 08184 41963 NIL=
41963,2024,10,08,21,00,AAXX 08214 41963 01930 00000 10272 20272 30123 40125 70500 333 58000 70000==
41963,2024,10,09,00,00,AAXX 09004 41963 01930 00000 10270 20265 30117 40119 70500 333 58005 70000==
41963,2024,10,09,03,00,AAXX 09033 41963 02450 31802 10310 20280 30120 40123 83800 333 20265 58014 70000 82618 83828==
41963,2024,10,09,06,00,AAXX 09064 41963 NIL=
41963,2024,10,09,09,00,AAXX 09094 41963 02456 31802 10315 20280 30077 40079 83500 333 59017 70000 83618==
41963,2024,10,09,12,00,AAXX 09124 41963 02440 30000 10290 20270 30083 40085 83500 333 10340 59018 70000 83618==
41963,2024,10,09,15,00,AAXX 09154 41963 01430 21801 10270 20260 30103 40106 70511 82500 333 59017 70000 82618==
41963,2024,10,09,21,00,AAXX 09214 41963 01930 00000 10264 20264 30107 40110 70500 333 59016 70000==
41963,2024,10,10,00,00,AAXX 10004 41963 01430 20000 10263 20260 30103 40105 70510 82500 333 59015 70000 82618==
41963,2024,10,10,03,00,AAXX 10034 41963 02450 31802 10300 20270 30111 40113 83500 333 20260 59009 70000 83618==
41963,2024,10,10,06,00,AAXX 10064 41963 02456 33604 10330 20250 30093 40096 83500 333 59008 70000 83618==
41963,2024,10,10,09,00,AAXX 10094 41963 02456 33601 10330 20270 30079 40081 83800 333 58002 70000 82618 83828==
41963,2024,10,10,12,00,AAXX 10124 41963 02940 00000 10300 20270 30075 40077 333 10342 59007 70000==
41963,2024,10,10,15,00,AAXX 10154 41963 01930 00000 10275 20275 30085 40088 70500 333 59018 70000==
41963,2024,10,10,21,00,AAXX 10214 41963 01930 00000 10270 20270 30087 40089 70500 333 59020 70000==
41964,2024,10,04,00,00,AAXX 04004 41964 02450 41803 10275 20260 30046 40048 83510 333 58011 70148 83618 83460==
41964,2024,10,04,03,00,AAXX 04034 41964 02456 61604 10284 20250 30064 40066 83510 333 20235 58012 70080 83618 85460==
41964,2024,10,04,06,00,AAXX 04064 41964 02457 61604 10298 20260 30069 40071 83510 333 58032 70000 83618 85460==
41964,2024,10,04,09,00,AAXX 04094 41964 02457 61604 10288 20230 30039 40041 83510 333 58012 70000 84618 85460==
41964,2024,10,04,12,00,AAXX 04124 41964 02356 81403 10276 20260 30047 40049 8562/ 333 10299 58025 70000 84709 83617 88459==
41964,2024,10,05,03,00,AAXX 05034 41964 02457 61405 10302 20260 30086 40089 84510 333 20265 58022 70010 84618 85460==
41964,2024,10,05,06,00,AAXX 05064 41964 02457 61804 10310 20260 30084 40086 83510 333 58015 70010 83618 85460==
41964,2024,10,05,09,00,AAXX 05094 41964 02457 61802 10308 20270 30072 40074 83510 333 58033 70010 83618 85460==
41964,2024,10,05,12,00,AAXX 05124 41964 02456 60000 10285 20270 30068 40070 83510 333 10315 58021 70010 83618 85460==
41964,2024,10,05,15,00,AAXX 05154 41964 02456 70000 10280 20270 30094 40096 83510 333 58025 70000 83618 86460==
41964,2024,10,06,03,00,AAXX 06034 41964 02457 60000 10300 20260 30114 40116 84510 333 20255 58028 70000 84618 85460==
41964,2024,10,06,06,00,AAXX 06064 41964 02457 60000 10310 20270 30101 40103 83510 333 58017 70000 83618 85460==
41964,2024,10,06,09,00,AAXX 06094 41964 02457 31801 10318 20270 30084 40086 83510 333 58012 70000 83618==
41964,2024,10,06,12,00,AAXX 06124 41964 02456 50000 10286 20270 30089 40091 82510 333 10321 58021 70000 82618 85460==
41964,2024,10,06,15,00,AAXX 06154 41964 02456 50000 10278 20270 30112 40114 83510 333 58018 70000 83618 84460==
41964,2024,10,07,00,00,AAXX 07004 41964 NIL=
41964,2024,10,07,03,00,AAXX 07034 41964 01457 70000 10296 20280 30137 40140 70392 84510 333 20265 58023 70000 84618 85460==
41964,2024,10,07,06,00,AAXX 07064 41964 01457 60000 10333 20260 30136 40139 70192 83510 333 58035 70000 83618 85460==
41964,2024,10,07,09,00,AAXX 07094 41964 02457 50000 10330 20270 30095 40098 83510 333 58011 70000 83618 84460==
41964,2024,10,07,12,00,AAXX 07124 41964 02456 50000 10294 20240 30098 40101 83510 333 10341 58009 70000 83618 85460==
41964,2024,10,07,15,00,AAXX 07154 41964 02456 40000 10279 20270 30119 40121 82510 333 58007 70000 82618 83460==
41964,2024,10,07,18,00,AAXX 07184 41964 02456 40000 10277 20270 30132 40134 82510 333 58013 70000 82618 83460==
41964,2024,10,08,03,00,AAXX 08033 41964 02457 50000 10318 20270 30133 40135 83410 333 20260 59004 70000 82619 84460==
41964,2024,10,08,09,00,AAXX 08094 41964 02457 50000 10340 20250 30089 40092 83510 333 59006 70060 83618 84460==
41964,2024,10,08,12,00,AAXX 08124 41964 02457 50000 10292 20270 30096 40098 83312 333 10345 59002 70060 83618 83460 81930==
41964,2024,10,08,15,00,AAXX 08154 41964 01456 60000 10270 20250 30119 40121 71722 84310 333 58000 70060 84618 85460 81928==
41964,2024,10,08,18,00,AAXX 08184 41964 NIL=
41964,2024,10,09,00,00,AAXX 09004 41964 02957 40000 10280 20260 30108 40110 80001 333 59018 70060 84080==
41964,2024,10,09,03,00,AAXX 09034 41964 02558 50000 10314 20260 30112 40114 84210 333 20265 59021 70060 83825 83460==
41964,2024,10,09,06,00,AAXX 09064 41964 NIL=
41964,2024,10,09,09,00,AAXX 09094 41964 02457 40000 10336 20360 30083 40086 84500 333 59006 70058 84618==
41964,2024,10,09,12,00,AAXX 09124 41964 01456 50000 10265 20260 30071 40074 72996 82510 333 10341 59025 70070 82618 84460==
41964,2024,10,09,15,00,AAXX 09154 41964 01450 70000 10271 20270 30098 40100 71322 85310 333 59021 70124 85618 84460 81930==
41964,2024,10,10,00,00,AAXX 10004 41964 02456 60000 10270 20270 30098 40101 83510 333 59010 70124 83618 85460==
41964,2024,10,10,03,00,AAXX 10034 41964 02457 70000 10305 20270 30105 40107 85520 333 20252 59007 70124 85618 86460==
41964,2024,10,10,06,00,AAXX 10064 41964 01457 70000 10293 20280 30091 40093 71722 84320 333 59026 70066 83618 86459 81928==
41964,2024,10,10,12,00,AAXX 10124 41964 11/56 30000 10281 20270 30073 40075 60066 70196 83010 333 10326 58002 70064 83460==
41964,2024,10,10,15,00,AAXX 10154 41964 02456 50000 10274 20260 30086 40088 83510 333 59012 70064 83618 83460==
41965,2024,10,04,00,00,AAXX 04004 41965 02440 51401 10255 20190 30049 40058 84310 333 58003 70240 83618 84460==
41965,2024,10,04,03,00,AAXX 04034 41965 02450 61402 10290 20200 30071 40080 84310 333 10248 58015 70240 83618 84460==
41965,2024,10,04,06,00,AAXX 04064 41965 02456 62303 10291 20210 30061 40070 84310 333 58015 70000 83618 84460==
41965,2024,10,04,09,00,AAXX 04094 41965 02456 71404 10285 20210 30042 40051 84310 333 58026 70000 83618 86460==
41965,2024,10,04,12,00,AAXX 04124 41965 02440 62304 10263 20220 30057 40066 84310 333 10310 58033 70000 83618 84460==
41965,2024,10,04,21,00,AAXX 04214 41965 02430 51304 10258 20190 30061 40070 84310 333 58018 70000 83618 84460==
41965,2024,10,05,00,00,AAXX 05004 41965 02430 51403 10258 20200 30067 40076 84310 333 59026 70000 83618 84460==
41965,2024,10,05,03,00,AAXX 05034 41965 02450 51303 10305 20200 30092 40101 84310 333 20255 58021 70000 83618 84460==
41965,2024,10,05,06,00,AAXX 05064 41965 02460 51302 10315 20210 30084 40093 84310 333 58023 70000 83618 84460==
41965,2024,10,05,09,00,AAXX 05094 41965 02460 51404 10320 20300 30065 40074 84310 333 58023 70000 83618 84460==
41965,2024,10,05,12,00,AAXX 05124 41965 02440 51802 10283 20220 30071 40080 84310 333 10320 58014 70000 83618 84460==
41965,2024,10,05,15,00,AAXX 05154 41965 02430 61702 10270 20210 30100 40190 84310 333 58031 70000 83618 84460==
41965,2024,10,05,18,00,AAXX 05184 41965 02430 50000 10260 20200 30094 40103 84310 333 58027 70000 83618 84460==
41965,2024,10,05,21,00,AAXX 05214 41965 02430 30000 10255 20200 30090 40099 83300 333 58029 70000 83618==
41965,2024,10,06,00,00,AAXX 06004 41965 02440 50000 10251 20210 30099 40108 84310 333 58032 70000 83618 84460==
41965,2024,10,06,03,00,AAXX 06034 41965 02450 70801 10315 20210 30119 40128 84310 333 20247 58027 70000 83618 86460==
41965,2024,10,06,06,00,AAXX 06064 41965 02456 30000 10320 20200 30104 40113 83600 333 58020 70000 83618==
41965,2024,10,06,09,00,AAXX 06094 41965 02456 30801 10318 20200 30082 40091 83600 333 58017 70000 83618==
41965,2024,10,06,12,00,AAXX 06124 41965 02440 50000 10288 20210 30093 40102 84610 333 10335 58022 70000 83618 84460==
41965,2024,10,06,15,00,AAXX 06154 41965 02430 50000 10270 20210 30115 40124 84610 333 58015 70000 83618 84460==
41965,2024,10,06,21,00,AAXX 06214 41965 02430 70000 10265 20210 30117 40126 84610 333 58027 70000 83618 86460==
41965,2024,10,07,00,00,AAXX 07004 41965 02440 80000 10262 20210 30122 40131 8461/ 333 58023 70000 83618 88460==
41965,2024,10,07,03,00,AAXX 07034 41965 02450 81401 10300 20210 30141 40150 8461/ 333 20260 58022 70000 83618 88460==
41965,2024,10,07,06,00,AAXX 07064 41965 02460 80000 10320 20200 30123 40123 8461/ 333 58019 70000 83618 88460==
41965,2024,10,07,09,00,AAXX 07094 41965 02460 30801 10325 20210 30099 40108 83600 333 58017 70000 83618 88618==
41965,2024,10,07,12,00,AAXX 07124 41965 02450 50000 10325 20210 30102 40111 84610 333 20340 58009 70000 83618 84460==
41965,2024,10,07,15,00,AAXX 07154 41965 02430 50000 10270 20210 30123 40132 84610 333 58008 70000 83618 84460==
41965,2024,10,07,18,00,AAXX 07184 41965 NIL=
41965,2024,10,08,00,00,AAXX 08004 41965 02440 50000 10255 20220 30122 40131 84310 333 58023 70000 83618 84460==
41965,2024,10,08,03,00,AAXX 08033 41965 02450 60801 10310 20210 30138 40147 84310 333 20250 58003 70000 83618 84660==
41965,2024,10,08,06,00,AAXX 08064 41965 02456 53202 10340 20200 30108 40117 84310 333 59015 70000 83618 84460==
41965,2024,10,08,09,00,AAXX 08094 41965 02456 30000 10333 20210 30087 40096 83600 333 59012 70000 83618==
41965,2024,10,08,12,00,AAXX 08124 41965 02450 51401 10295 20210 30081 40090 84610 333 10350 59019 70000 83618 84460==
41965,2024,10,08,15,00,AAXX 08154 41965 02440 51801 10260 20190 30117 40126 84310 333 59006 70000 83618 84460==
41965,2024,10,08,18,00,AAXX 08184 41965 NIL=
41965,2024,10,08,21,00,AAXX 08214 41965 02430 50000 10253 20200 30109 40118 84310 333 59015 70000 83618 84460==
41965,2024,10,09,00,00,AAXX 09004 41965 02430 50000 10255 20200 30111 40201 84310 333 59014 70000 83618 84460==
41965,2024,10,09,03,00,AAXX 09034 41965 02450 50000 10321 20210 30118 40127 84610 333 20250 59020 70000 83618 84460==
41965,2024,10,09,06,00,AAXX 09064 41965 02440 50602 10305 20180 30104 40113 84610 333 59004 70000 83618 84460==
41965,2024,10,09,09,00,AAXX 09094 41965 02456 50000 10320 20200 30089 40098 84610 333 58002 70000 83618 84460==
41965,2024,10,09,15,00,AAXX 09154 41965 02440 51801 10270 20210 30101 40110 83610 333 58016 70000 83618 84460==
41965,2024,10,09,21,00,AAXX 09214 41965 02430 50000 10255 20200 30091 40100 84310 333 58018 70000 83618 84460==
41965,2024,10,10,00,00,AAXX 10004 41965 02440 50000 10255 20210 30091 40100 84310 333 58011 70000 83618 84460==
41965,2024,10,10,03,00,AAXX 10034 41965 02450 60801 10290 20210 30110 40119 84310 333 20250 58008 70000 83618 84460==
41965,2024,10,10,06,00,AAXX 10064 41965 02456 61401 10325 20190 30087 40096 84310 333 59017 70000 83618 84460==
41965,2024,10,10,09,00,AAXX 10094 41965 02456 50000 10305 20190 30067 40076 84310 333 59022 70000 83618 84460==
41965,2024,10,10,12,00,AAXX 10124 41965 02440 50000 10274 20210 30075 40084 84310 333 10338 59003 70000 83618 84460==
41965,2024,10,10,15,00,AAXX 10154 41965 02430 40000 10263 20220 30089 40098 84310 333 59012 70000 83618 84460==
41965,2024,10,10,21,00,AAXX 10214 41965 02430 30000 10258 20210 30093 40102 83300 333 58002 70000 83618 84460==
41966,2024,10,04,00,00,AAXX 04004 41966 02440 50901 10255 20250 39986 40065 82510 333 58026 70000 82616 84460==
41966,2024,10,04,03,00,AAXX 04034 41966 02450 51301 10290 20230 30010 40088 82510 333 20242 58018 70000 82616 84460==
41966,2024,10,04,06,00,AAXX 04064 41966 01340 81502 10285 20250 30008 40086 76122 8472/ 333 58024 70005 82709 83615 88460==
41966,2024,10,04,09,00,AAXX 04094 41966 01440 61201 10285 20250 39981 40059 70162 83510 333 58015 70008 83616 85460==
41966,2024,10,04,12,00,AAXX 04124 41966 02430 61201 10270 20260 39996 40074 83510 333 10300 58037 70008 83616 85460==
41966,2024,10,04,15,00,AAXX 04154 41966 02420 61501 10265 20240 30001 40080 83510 333 58020 70008 83615 85460==
41966,2024,10,04,21,00,AAXX 04214 41966 02420 51501 10255 20250 39999 40078 82510 333 58018 70008 82616 84460==
41966,2024,10,05,00,00,AAXX 05004 41966 02440 51501 10255 20250 30003 40082 82510 333 58017 70008 82616 84460==
41966,2024,10,05,03,00,AAXX 05034 41966 02450 51301 10290 20230 30030 40109 82510 333 20250 58021 70008 82616 84460==
41966,2024,10,05,06,00,AAXX 05064 41966 02450 51301 10310 20230 30017 40095 82510 333 58039 70003 82616 84460==
41966,2024,10,05,09,00,AAXX 05094 41966 01450 51201 10310 20260 39997 40075 70262 82510 333 58016 70030 82616 84460==
41966,2024,10,05,12,00,AAXX 05124 41966 01430 61301 10270 20260 30007 40086 72162 83510 333 10315 58012 70085 83616 85460==
41966,2024,10,05,15,00,AAXX 05154 41966 02420 61301 10270 20260 30008 40087 83510 333 58007 70085 83616 85460==
41966,2024,10,05,18,00,AAXX 05184 41966 02420 61501 10265 20260 30034 40113 83510 333 58032 70085 83616 85460==
41966,2024,10,05,21,00,AAXX 05214 41966 02420 51701 10260 20250 30041 40120 82510 333 58042 70085 82616 84460==
41966,2024,10,06,00,00,AAXX 06004 41966 02430 51601 10255 20250 30044 40124 82510 333 58042 70085 82616 84460==
41966,2024,10,06,03,00,AAXX 06034 41966 02440 51701 10290 20270 30059 40138 82530 333 20246 58029 70085 82616 84362==
41966,2024,10,06,06,00,AAXX 06064 41966 02550 41601 10325 20230 30039 40117 82130 333 58022 70085 82826 83362==
41966,2024,10,06,09,00,AAXX 06094 41966 02550 42701 10332 20230 30016 40093 82130 333 58018 70055 82826 83362==
41966,2024,10,06,12,00,AAXX 06124 41966 02430 61801 10290 20260 30029 40108 83510 333 10338 58022 70000 82616 85460==
41966,2024,10,06,15,00,AAXX 06154 41966 02420 61201 10270 20250 30055 40134 83510 333 58047 70000 82616 85460==
41966,2024,10,06,21,00,AAXX 06214 41966 02420 61201 10260 20250 30051 40131 83510 333 58011 70000 83616 85460==
41966,2024,10,07,00,00,AAXX 07004 41966 02430 61601 10258 20250 30058 40138 83510 333 58014 70000 83616 85460==
41966,2024,10,07,03,00,AAXX 07034 41966 02440 41201 10295 20270 30079 40157 82510 333 20252 58019 70000 82616 83362==
41966,2024,10,07,06,00,AAXX 07064 41966 02550 41501 10330 20260 30057 40135 82130 333 58018 70000 82826 83362==
41966,2024,10,07,09,00,AAXX 07094 41966 02550 40000 10332 20220 30031 40109 82130 333 58016 70000 82826 83362==
41966,2024,10,07,12,00,AAXX 07124 41966 02530 41201 10280 20260 30036 40114 82130 333 10340 58006 70000 82826 83362==
41966,2024,10,07,15,00,AAXX 07154 41966 02520 41501 10275 20260 30055 40134 82130 333 58000 70000 82826 83362==
41966,2024,10,07,18,00,AAXX 07184 41966 NIL=
41966,2024,10,07,21,00,AAXX 07214 41966 02420 41601 10255 20250 30051 40130 82510 333 59001 70000 82616 83460==
41966,2024,10,08,00,00,AAXX 08004 41966 02440 40901 10252 20250 30055 40134 82510 333 59004 70000 82616 83460==
41966,2024,10,08,03,00,AAXX 08033 41966 02550 61201 10300 20260 30073 40152 82130 333 20246 59005 70000 82826 85362==
41966,2024,10,08,06,00,AAXX 08064 41966 01550 61801 10315 20260 30051 40128 72162 333 59007 70002 82826 85362==
41966,2024,10,08,09,00,AAXX 08094 41966 01450 61501 10290 20250 30027 40106 70262 82510 333 59003 70152 82616 85460==
41966,2024,10,08,12,00,AAXX 08124 41966 01430 71601 10255 20250 30044 40124 72996 83510 333 10322 58010 70447 83615 86460==
41966,2024,10,08,15,00,AAXX 08154 41966 01430 60000 10250 20240 30059 40138 70162 82510 333 58004 70457 82616 85460==
41966,2024,10,08,18,00,AAXX 08184 41966 NIL=
41966,2024,10,08,21,00,AAXX 08214 41966 02420 41201 10250 20240 30053 40133 82510 333 58003 70457 82616 83460==
41966,2024,10,09,00,00,AAXX 09004 41966 02440 41201 10255 20250 30044 40124 82510 333 59010 70457 82616 83460==
41966,2024,10,09,03,00,AAXX 09034 41966 02/50 31501 10300 20240 30056 40135 83030 333 20245 59017 70457 83362==
41966,2024,10,09,06,00,AAXX 09064 41966 02550 50901 10312 20230 30030 40108 82130 333 59020 70455 82826 83362==
41966,2024,10,09,12,00,AAXX 09124 41966 02550 51801 10325 20260 30003 40081 82130 333 59025 70305 82826 83362==
41966,2024,10,09,15,00,AAXX 09154 41966 02420 51501 10275 20270 30035 40114 82510 333 59024 70000 82616 84460==
41966,2024,10,09,21,00,AAXX 09214 41966 02420 41401 10265 20260 30040 40119 82510 333 59014 70000 82616 83460==
41966,2024,10,10,00,00,AAXX 10004 41966 02430 41201 10265 20260 30036 40115 82510 333 59009 70000 82616 83460==
41966,2024,10,10,03,00,AAXX 10034 41966 02440 61501 10310 20270 30045 40123 82510 333 20257 59012 70000 82616 85460==
41966,2024,10,10,06,00,AAXX 10064 41966 01440 71601 10310 20250 30026 40104 71722 83310 333 59004 70000 83616 86460 81930==
41966,2024,10,10,12,00,AAXX 10124 41966 21430 51301 10275 20260 30012 40090 70296 82510 333 10315 59002 60098 70088 82616 84460==
41966,2024,10,10,15,00,AAXX 10154 41966 02420 51501 10260 20250 30024 40103 82510 333 59011 70088 82616 84460==
41977,2024,10,04,00,00,AAXX 04004 41977 02450 80502 10255 20250 30035 40073 8532/ 333 58020 70010 84617 88458 81928==
41977,2024,10,04,03,00,AAXX 04034 41977 02456 81602 10285 20210 30059 40092 8452/ 333 20250 58017 70000 81617 88460==
41977,2024,10,04,06,00,AAXX 04064 41977 11350 81803 10287 20260 30057 40095 60002 75362 8572/ 333 58027 83609 88458==
41977,2024,10,04,09,00,AAXX 04094 41977 42450 71803 10278 20260 30033 40071 84510 333 58020 84617 87459==
41977,2024,10,04,12,00,AAXX 04124 41977 42456 71202 10263 20240 30041 40079 84570 333 10290 58032 84617 86459==
41977,2024,10,04,15,00,AAXX 04154 41977 42456 70000 10261 20240 30062 40100 83510 333 58022 83618 87460==
41977,2024,10,04,18,00,AAXX 04184 41977 42456 70000 10258 20240 30059 40098 84510 333 58019 84618 87460==
41977,2024,10,04,21,00,AAXX 04214 41977 42456 70000 10254 20240 30045 40083 83510 333 58016 83618 87460==
41977,2024,10,05,00,00,AAXX 05004 41977 42456 70000 10253 20240 30050 40088 84530 333 58015 84618 86362==
41977,2024,10,05,03,00,AAXX 05034 41977 42456 71105 10297 20250 30081 40119 84470 333 20251 58022 83618 85460==
41977,2024,10,05,06,00,AAXX 05064 41977 02456 61706 10316 20260 30071 40108 84430 333 58014 70000 83618 86362==
41977,2024,10,05,09,00,AAXX 05094 41977 02456 61802 10318 20250 30050 40087 84430 333 58017 70000 83618 86362==
41977,2024,10,05,12,00,AAXX 05124 41977 02450 71702 10295 20260 30060 40097 84470 333 10323 58019 70000 83618 85460==
41977,2024,10,05,15,00,AAXX 05154 41977 02450 71802 10275 20260 30080 40118 84470 333 58018 70000 83618 85460==
41977,2024,10,05,18,00,AAXX 05184 41977 02450 71802 10270 20250 30073 40111 84470 333 58014 70000 83618 85459==
41977,2024,10,05,21,00,AAXX 05214 41977 02450 70000 10265 20250 30075 40113 84470 333 58030 70000 83618 85459==
41977,2024,10,06,00,00,AAXX 06004 41977 42450 80000 10260 20250 30077 40115 8532/ 333 58027 84617 88458 81928==
41977,2024,10,06,03,00,AAXX 06034 41977 02450 71602 10300 20250 30096 40134 84530 333 20252 58005 70000 84618 86362==
41977,2024,10,06,06,00,AAXX 06064 41977 02456 71602 10305 20260 30095 40133 84530 333 58024 70000 84617 86362==
41977,2024,10,06,09,00,AAXX 06094 41977 02456 52602 10327 20250 30068 40105 83530 333 58018 70000 83617 85363==
41977,2024,10,06,12,00,AAXX 06124 41977 02450 51302 10291 20260 30089 40127 83530 333 10330 58029 70000 83617 85363==
41977,2024,10,06,15,00,AAXX 06154 41977 02450 50000 10270 20260 30105 40143 81530 333 58025 70000 81618 85363==
41977,2024,10,06,18,00,AAXX 06184 41977 01450 70000 10270 20250 30099 40137 70522 83570 333 58026 70000 83618 85460==
41977,2024,10,06,21,00,AAXX 06214 41977 01440 70000 10266 20260 30101 40139 70522 84570 333 58026 70000 84617 85460==
41977,2024,10,07,00,00,AAXX 07004 41977 01450 80000 10264 20250 30109 40147 70522 8452/ 333 58032 70000 84615 88458==
41977,2024,10,07,03,00,AAXX 07034 41977 01450 70000 10313 20250 30132 40169 70522 84520 333 20260 58035 70000 84617 86460==
41977,2024,10,07,06,00,AAXX 07064 41977 01356 70000 10295 20290 30107 40145 72162 85610 333 58012 70080 82710 85616 87458==
41977,2024,10,07,09,00,AAXX 07094 41977 02356 72702 10328 20260 30079 40116 85610 333 58011 70080 82710 85616 87458==
41977,2024,10,07,12,00,AAXX 07124 41977 02450 51702 10296 20270 30089 40127 83530 333 10335 58000 70080 83617 85363==
41977,2024,10,07,15,00,AAXX 07154 41977 01450 20000 10275 20270 30107 40145 70521 82500 333 58002 70080 82618==
41977,2024,10,07,18,00,AAXX 07184 41977 01450 20000 10271 20270 30100 40138 70521 82500 333 58001 70080 82618==
41977,2024,10,07,21,00,AAXX 07214 41977 01450 20000 10264 20260 30091 40129 70511 82500 333 59011 70000 82618==
41977,2024,10,08,00,00,AAXX 08004 41977 01445 20000 10263 20260 30104 40142 70511 82500 333 59005 70080 82618==
41977,2024,10,08,03,00,AAXX 08033 41977 02456 70000 10303 20260 30125 40166 82530 333 20258 59007 70080 82618 87363==
41977,2024,10,08,06,00,AAXX 08064 41977 02456 72102 10323 20260 30108 40146 83330 333 58001 70000 82617 87363==
41977,2024,10,08,09,00,AAXX 08094 41977 02456 30000 10332 20260 30078 40115 83500 333 59001 70000 83618==
41977,2024,10,08,12,00,AAXX 08124 41977 02450 30000 10295 20280 30087 40125 83500 333 10335 59002 70000 83618==
41977,2024,10,08,15,00,AAXX 08154 41977 02450 30000 10268 20250 30097 40135 83500 333 59010 70000 83618==
41977,2024,10,08,18,00,AAXX 08184 41977 02450 30000 10263 20250 30093 40131 83500 333 59007 70000 83618==
41977,2024,10,08,21,00,AAXX 08214 41977 02450 70000 10265 20250 30075 40113 84470 333 58030 70000 83618 85459==
41977,2024,10,09,00,00,AAXX 09004 41977 02440 70000 10258 20250 30080 40119 83570 333 59003 70000 83618 86460==
41977,2024,10,09,03,00,AAXX 09033 41977 02450 40000 10316 20260 30107 40144 83520 333 20251 59018 70000 82618 83460==
41977,2024,10,09,06,00,AAXX 09064 41977 02456 40000 10316 20260 30107 40144 83520 333 59007 70000 82618 83462==
41977,2024,10,09,09,00,AAXX 09094 41977 02456 40000 10327 20240 30062 40099 83520 333 59016 70000 82618 83462==
41977,2024,10,09,12,00,AAXX 09124 41977 02450 40000 10288 20270 30068 40106 83520 333 10342 59019 70000 82618 83462==
41977,2024,10,09,15,00,AAXX 09154 41977 01450 51802 10276 20260 30088 40126 71322 84330 333 59009 70000 83618 84362 81928==
41977,2024,10,09,18,00,AAXX 09184 41977 02450 60000 10278 20270 30079 40117 84530 333 59014 70000 84616 85363==
41977,2024,10,09,21,00,AAXX 09214 41977 02450 60000 10275 20270 30076 40114 84530 333 59017 70000 84616 85363==
41977,2024,10,10,00,00,AAXX 10004 41977 01445 70000 10262 20260 30076 40114 70511 82530 333 59004 70000 82618 87363==
41977,2024,10,10,03,00,AAXX 10034 41977 02456 70000 10310 20250 30091 40129 82530 333 20260 59016 70000 82618 87363==
41977,2024,10,10,06,00,AAXX 10064 41977 02456 80000 10283 20240 30089 40127 8532/ 333 59011 70000 84617 88458 81928==
41977,2024,10,10,09,00,AAXX 10094 41977 01456 70000 10282 20260 30061 40099 72162 83530 333 59001 70040 84616 86360==
41977,2024,10,10,12,00,AAXX 10124 41977 11450 40000 10278 20270 30065 40103 60046 70562 82530 333 10315 59003 70040 82618 83360==
41977,2024,10,10,15,00,AAXX 10154 41977 01450 20000 10270 20266 30073 40111 70521 82500 333 59015 70040 82618==
41977,2024,10,10,18,00,AAXX 10184 41977 01450 30000 10265 20265 30071 40109 70521 82510 333 59008 70040 82618 83460==
41978,2024,10,04,00,00,AAXX 04004 41978 02457 61203 10257 20250 30051 40057 83520 333 58011 70010 83616 86460==
41978,2024,10,04,03,00,AAXX 04034 41978 02456 81505 10282 20240 30072 40079 8432/ 333 20253 58016 70000 83617 88460 81928==
41978,2024,10,04,06,00,AAXX 04064 41978 21440 81707 10280 20260 30073 40080 76162 8432/ 333 58027 69937 70003 83616 88460 81928==
41978,2024,10,04,09,00,AAXX 04094 41978 01450 81305 10280 20250 30051 40057 70562 8432/ 333 58021 70004 83617 88460 81930==
41978,2024,10,04,12,00,AAXX 04124 41978 11450 71503 10265 20250 30057 40063 60916 70562 84320 333 10290 58029 70004 83617 87460==
41978,2024,10,04,15,00,AAXX 04154 41978 NIL=
41978,2024,10,04,18,00,AAXX 04184 41978 01456 81203 10258 20240 30074 40080 70522 8332/ 333 58020 70004 83617 88460 81930==
41978,2024,10,04,21,00,AAXX 04214 41978 01456 81203 10256 20240 30072 40078 70522 8352/ 333 58025 70004 83617 87460==
41978,2024,10,05,00,00,AAXX 05004 41978 01456 81204 10258 20240 30071 40077 70522 82501 333 58020 70004 82618 85080==
41978,2024,10,05,03,00,AAXX 05034 41978 02456 61407 10298 20250 30096 40103 83520 333 20252 58024 70004 83618 86460==
41978,2024,10,05,06,00,AAXX 05064 41978 02456 71906 10320 20250 30088 40094 84320 333 58015 70001 83618 87460 81930==
41978,2024,10,05,09,00,AAXX 05094 41978 02456 72208 10314 20260 30067 40074 84320 333 58016 70000 83618 87460 81930==
41978,2024,10,05,12,00,AAXX 05124 41978 02456 71906 10298 20260 30072 40078 8433/ 333 10332 58015 70000 83618 87360 81930==
41978,2024,10,05,15,00,AAXX 05154 41978 01456 71303 10278 20260 30100 40107 70522 84320 333 58019 70000 83618 87460 81930==
41978,2024,10,05,18,00,AAXX 05184 41978 01450 71603 10270 20250 30100 40107 70522 83520 333 58026 70000 83618 87460==
41978,2024,10,05,21,00,AAXX 05214 41978 01450 61303 10266 20250 30090 40097 70522 83520 333 58018 70000 83618 86460==
41978,2024,10,06,00,00,AAXX 06004 41978 01450 61303 10262 20250 30098 40105 70522 83520 333 58027 70000 83618 86460==
41978,2024,10,06,03,00,AAXX 06034 41978 02456 61403 10288 20260 30124 40130 83520 333 20257 58028 70000 83618 86460==
41978,2024,10,06,06,00,AAXX 06064 41978 02456 60803 10312 20250 30108 40115 83520 333 58020 70000 83618 86460==
41978,2024,10,06,09,00,AAXX 06094 41978 02557 52407 10320 20250 30082 40088 82330 333 58015 70000 82828 83362 81930==
41978,2024,10,06,12,00,AAXX 06124 41978 02457 61207 10294 20250 30098 40105 84320 333 10328 58026 70000 83618 85460 81930==
41978,2024,10,06,15,00,AAXX 06154 41978 02457 51305 10284 20260 30117 40124 82530 333 58017 70000 82618 83360==
41978,2024,10,06,18,00,AAXX 06184 41978 02456 61005 10280 20260 30114 40121 83530 333 58014 70000 83618 86360==
41978,2024,10,06,21,00,AAXX 06214 41978 02456 71104 10277 20260 30110 40117 84320 333 58020 70000 83617 87260 81930==
41978,2024,10,07,00,00,AAXX 07004 41978 02450 70705 10272 20260 30113 40120 84320 333 58015 70000 83617 87460 81930==
41978,2024,10,07,03,00,AAXX 07034 41978 02456 60404 10306 20250 30143 40150 83520 333 20263 58019 70000 83618 86460==
41978,2024,10,07,06,00,AAXX 07064 41978 02456 63103 10323 20250 30126 40132 83520 333 58018 70000 83618 86460==
41978,2024,10,07,09,00,AAXX 07094 41978 02557 52206 10324 20250 30101 40107 82130 333 58019 70000 82828 84362==
41978,2024,10,07,12,00,AAXX 07124 41978 02557 52805 10294 20250 30104 40110 82130 333 10332 58006 70000 82828 84362==
41978,2024,10,07,15,00,AAXX 07154 41978 02557 50000 10283 20260 30126 40133 82130 333 58009 70000 82828 84362==
41978,2024,10,07,18,00,AAXX 07184 41978 01550 50000 10280 20260 30120 40127 70522 82130 333 58006 70000 82828 84362==
41978,2024,10,07,21,00,AAXX 07214 41978 01450 60000 10270 20260 30113 40120 70522 83520 333 58003 70000 83618 86460==
41978,2024,10,08,00,00,AAXX 08004 41978 01440 60603 10268 20260 30123 40130 70522 83520 333 58010 70000 83618 86460==
41978,2024,10,08,03,00,AAXX 08033 41978 01557 60303 10302 20260 30141 40147 70522 81130 333 20265 59002 70000 81828 85362==
41978,2024,10,08,06,00,AAXX 08064 41978 01550 62510 10323 20240 30124 40130 70522 82230 333 59002 70000 82828 85362==
41978,2024,10,08,09,00,AAXX 08094 41978 02557 52606 10328 20250 30093 40100 82130 333 59008 70000 82828 84362==
41978,2024,10,08,12,00,AAXX 08124 41978 02456 52603 10308 20250 30103 40109 83420 333 10332 59001 70000 82618 84460==
41978,2024,10,08,15,00,AAXX 08154 41978 01557 53405 10276 20250 30125 40132 71322 82330 333 59001 70000 82828 84360 81930==
41978,2024,10,08,18,00,AAXX 08184 41978 02457 50803 10267 20250 30114 40120 82530 333 59006 70000 82618 84360==
41978,2024,10,08,21,00,AAXX 08214 41978 02457 60604 10263 20240 30102 40108 83520 333 59011 70000 83618 85460==
41978,2024,10,09,00,00,AAXX 09004 41978 02457 60503 10259 20250 30107 40113 83520 333 59016 70000 83618 85460==
41978,2024,10,09,03,00,AAXX 09034 41978 02557 30504 10318 20240 30120 40127 82101 333 20265 59021 70000 82825 83080==
41978,2024,10,09,06,00,AAXX 09064 41978 02559 32907 10327 20240 30100 40106 83301 333 59024 70000 83620 81928==
41978,2024,10,09,09,00,AAXX 09094 41978 02559 22609 10329 20250 30071 40077 82100 333 59016 70000 82828==
41978,2024,10,09,12,00,AAXX 09123 41978 02457 22302 10300 20260 30077 40083 82500 333 10333 59026 70000 82618==
41978,2024,10,09,15,00,AAXX 09154 41978 02457 62303 10294 20260 30104 40111 84310 333 59021 70000 83618 85460 81930==
41978,2024,10,09,18,00,AAXX 09184 41978 02457 50000 10284 20260 30090 40097 82530 333 59024 70000 82618 84360==
41978,2024,10,09,21,00,AAXX 09214 41978 02457 50000 10276 20260 30084 40091 82530 333 59018 70000 82618 84360==
41978,2024,10,10,00,00,AAXX 10004 41978 01450 60000 10269 20260 30094 40101 70511 84310 333 59013 70000 83618 85460 81930==
41978,2024,10,10,03,00,AAXX 10034 41978 01450 61503 10313 20240 30111 40117 70522 83520 333 20265 59009 70000 83618 86460==
41978,2024,10,10,06,00,AAXX 10064 41978 01456 71205 10300 20250 30098 40104 71722 84320 333 59002 70000 83616 87460 81926==
41978,2024,10,10,09,00,AAXX 10094 41978 01457 72707 10307 20250 30072 40078 70292 83320 333 58001 70002 83616 86460 81928==
41978,2024,10,10,12,00,AAXX 10124 41978 11457 42103 10291 20260 30080 40086 69926 70192 82320 333 10324 58003 70002 82618 84460 81930==
41978,2024,10,10,15,00,AAXX 10154 41978 NIL=
41978,2024,10,10,18,00,AAXX 10184 41978 02450 40000 10277 20260 30090 40096 82520 333 58000 70002 82618 83460==
41978,2024,10,10,21,00,AAXX 10214 41978 01450 40000 10272 20250 30089 40095 70511 82520 333 58005 70002 82618 83460==
41980,2024,10,04,00,00,AAXX 04004 41980 NIL=
41980,2024,10,04,12,00,AAXX 04124 41980 11450 60000 10256 20250 39956 40068 60056 70162 83520 333 10302 56990 58021 70050 83616 86459=
41980,2024,10,05,00,00,AAXX 05004 41980 31440 30000 10250 20240 39964 40076 70522 83500 333 56900 58009 70050 83618=
41980,2024,10,05,06,00,AAXX 05064 41980 NIL=
41980,2024,10,05,12,00,AAXX 05124 41980 11450 60000 10268 20260 39972 40086 60015 70362 83520 333 10322 56990 58016 70010 83616 86459=
41980,2024,10,06,00,00,AAXX 06004 41980 32450 60000 10248 20240 39998 40109 83520 333 56990 58034 70010 83616 86459=
41980,2024,10,06,06,00,AAXX 06064 41980 NIL=
41980,2024,10,06,12,00,AAXX 06124 41980 11450 60000 10254 20240 39992 40105 60147 72162 83520 333 10326 56990 58020 70140 83616 86459=
41980,2024,10,07,00,00,AAXX 07004 41980 32950 60000 10250 20240 30025 40138 86030 333 56090 58027 70140 86362=
41980,2024,10,07,06,00,AAXX 07064 41980 NIL=
41980,2024,10,07,12,00,AAXX 07124 41980 32450 70000 10280 20260 30005 40119 83520 333 10324 56990 58011 70000 83616 87459=
41980,2024,10,07,18,00,AAXX 07184 41980 NIL=
41980,2024,10,08,00,00,AAXX 08004 41980 32950 30000 10252 20240 30020 40133 83030 333 56090 59007 70000 83362=
41980,2024,10,08,06,00,AAXX 08064 41980 32450 30000 10300 20250 30038 40149 83500 333 20242 56900 59004 70000 83616=
41980,2024,10,08,12,00,AAXX 08124 41980 32450 30000 10290 20260 30000 40111 83500 333 10324 56900 59005 70000 83616=
41980,2024,10,08,18,00,AAXX 08184 41980 NIL=
41980,2024,10,09,00,00,AAXX 09004 41980 32450 30000 10242 20230 30028 40142 83500 333 20236 56900 58008 70000 83618=
41980,2024,10,09,06,00,AAXX 09064 41980 NIL=
41980,2024,10,09,12,00,AAXX 09124 41980 32450 30000 10284 20260 39976 40087 83500 333 10333 56900 59024 70000 83618=
41980,2024,10,10,00,00,AAXX 10004 41980 31440 30000 10244 20230 30012 40125 70522 83500 333 56900 59016 70000 83618=
41980,2024,10,10,06,00,AAXX 10064 41980 NIL=
41980,2024,10,10,12,00,AAXX 10124 41980 32950 40000 10286 20260 39991 40102 84030 333 10330 56090 59005 70000 84362=
41984,2024,10,04,00,00,AAXX 04004 41984 01440 60000 10275 20270 30028 40030 70522 83510 333 58010 70208 83618 85458==
41984,2024,10,04,03,00,AAXX 04034 41984 02450 51803 10298 20270 30051 40053 83510 333 20250 58017 70027 83618 84458==
41984,2024,10,04,06,00,AAXX 04064 41984 02456 51301 10325 20270 30052 40054 83510 333 58024 70008 83618 84458==
41984,2024,10,04,09,00,AAXX 04094 41984 02456 81802 10305 20270 30028 40030 8452/ 333 58009 70000 84617 88458==
41984,2024,10,04,12,00,AAXX 04124 41984 02456 40000 10288 20270 30030 40032 82510 333 10325 58022 70000 82618 84458==
41984,2024,10,04,15,00,AAXX 04154 41984 02445 40000 10286 20250 30055 40057 82510 333 58025 70000 82618 84458==
41984,2024,10,04,18,00,AAXX 04184 41984 21340 71804 10288 20280 30051 40053 70352 84620 333 58016 60017 70010 81708 83618 87458==
41984,2024,10,04,21,00,AAXX 04214 41984 01340 81303 10288 20280 30051 40053 76162 8572/ 333 58021 70060 81708 83618 88458==
41984,2024,10,05,00,00,AAXX 05004 41984 21340 81802 10277 20270 30047 40049 70262 8562/ 333 58019 60119 70120 81708 84618 88456==
41984,2024,10,05,03,00,AAXX 05034 41984 01345 80000 10261 20260 30076 40078 76362 8572/ 333 20252 58025 70334 81708 84618 88456==
41984,2024,10,05,06,00,AAXX 05064 41984 01345 80000 10280 20260 30072 40074 72162 8562/ 333 58020 70570 81708 84618 88456==
41984,2024,10,05,09,00,AAXX 05094 41984 02350 81801 10310 20270 30053 40055 8562/ 333 70570 81708 84618 88458==
41984,2024,10,05,12,00,AAXX 05124 41984 01445 40000 10291 20270 30056 40058 70522 83531 333 10313 58026 70570 83618 82362==
41984,2024,10,05,18,00,AAXX 05184 41984 02440 50000 10275 20275 30079 40081 82510 333 58028 70560 82618 84458==
41984,2024,10,05,21,00,AAXX 05214 41984 02440 50000 10268 20268 30081 40083 82510 333 58030 70510 82618 84450==
41984,2024,10,06,00,00,AAXX 06004 41984 01440 60000 10262 20260 30082 40084 70522 83570 333 58035 70450 83518 84459==
41984,2024,10,06,03,00,AAXX 06034 41984 02450 50000 10300 20270 30098 40100 83510 333 20252 58022 70236 83618 84459==
41984,2024,10,06,06,00,AAXX 06064 41984 22456 61803 10320 20270 30099 40101 85410 333 58027 60127 70120 84616 86459==
41984,2024,10,06,09,00,AAXX 06094 41984 02458 61803 10320 20260 30077 40079 86400 333 58024 70120 83618 83823==
41984,2024,10,06,12,00,AAXX 06124 41984 02440 70000 10290 20270 30086 40088 85410 333 10330 58030 70120 84616 87459==
41984,2024,10,06,15,00,AAXX 06154 41984 02430 60000 10280 20270 30107 40109 84410 333 58027 70120 83618 86459==
41984,2024,10,06,18,00,AAXX 06184 41984 02930 00000 10276 20270 30102 40104 333 58023 70120==
41984,2024,10,06,21,00,AAXX 06214 41984 02430 60000 10273 20270 30106 40108 84410 333 58025 70120 83618 86459==
41984,2024,10,07,00,00,AAXX 07004 41984 02440 80000 10272 20270 30110 40112 8542/ 333 58028 70120 84618 88459==
41984,2024,10,07,03,00,AAXX 07034 41984 01440 80000 10265 20265 30135 40137 79596 8692/ 333 20250 58037 70160 84616 88458 81930==
41984,2024,10,07,06,00,AAXX 07064 41984 21456 60000 10310 20260 30124 40126 70196 84410 333 58025 60058 70050 83618 86459==
41984,2024,10,07,09,00,AAXX 07094 41984 02456 61803 10326 20280 30098 40100 85410 333 58021 70050 84618 86459==
41984,2024,10,07,12,00,AAXX 07124 41984 02440 60000 10300 20270 30098 40100 84410 333 10345 58012 70050 83618 86459==
41984,2024,10,07,15,00,AAXX 07154 41984 02430 60000 10283 20260 30121 40123 84410 333 58014 70050 83618 86459==
41984,2024,10,07,18,00,AAXX 07184 41984 02430 40000 10276 20270 30112 40114 84400 333 58010 70050 83618==
41984,2024,10,07,21,00,AAXX 07214 41984 02430 40000 10272 20260 30112 40114 84400 333 58006 70050 83618==
41984,2024,10,08,00,00,AAXX 08004 41984 02445 30000 10266 20266 30113 40115 83530 333 70050 83618==
41984,2024,10,08,03,00,AAXX 08033 41984 02456 30000 10315 20260 30130 40132 82430 333 20262 59005 70010 81618==
41984,2024,10,08,06,00,AAXX 08064 41984 02457 40000 10332 20250 30117 40119 84400 333 59007 70000 82618==
41984,2024,10,08,09,00,AAXX 08094 41984 02450 51802 10290 20280 30070 40072 83510 333 10337 59012 70000 83618 85458==
41984,2024,10,08,12,00,AAXX 08124 41984 02456 10000 10300 20260 30088 40090 81500 333 10345 59010 70000 81618==
41984,2024,10,08,15,00,AAXX 08154 41984 02440 20000 10283 20260 30122 40124 82500 333 58001 70000 82618==
41984,2024,10,08,18,00,AAXX 08184 41984 02440 20000 10275 20275 30102 40104 82500 333 59010 70000 82618==
41984,2024,10,08,21,00,AAXX 08214 41984 02435 20000 10272 20260 30092 40094 82400 333 59020 70000 81618==
41984,2024,10,09,00,00,AAXX 09004 41984 02440 10000 10265 20265 30091 40093 81500 333 59022 70000 81618==
41984,2024,10,09,03,00,AAXX 09034 41984 02456 30000 10314 20250 30110 40112 83400 333 20260 59020 70000 82618==
41984,2024,10,09,06,00,AAXX 09064 41984 02458 30000 10335 20260 30092 40094 83400 333 59024 70000 82618==
41984,2024,10,09,09,00,AAXX 09094 41984 02457 41802 10325 20260 30069 40071 84400 333 59016 70000 83618==
41984,2024,10,09,12,00,AAXX 09124 41984 02456 30000 10303 20270 30071 40073 82431 333 10352 59017 70000 81618==
41984,2024,10,09,15,00,AAXX 09154 41984 02440 20000 10276 20270 30092 40094 82530 333 59030 70000 82618==
41984,2024,10,09,18,00,AAXX 09184 41984 02440 31802 10280 20260 30079 40081 82530 333 59023 70000 82618==
41984,2024,10,09,21,00,AAXX 09214 41984 02330 71302 10272 20260 30132 40134 85620 333 58040 70000 81708 83617 87458==
41984,2024,10,10,00,00,AAXX 10004 41984 21440 30000 10265 20260 30082 40084 70162 82530 333 59009 60057 70046 82618==
41984,2024,10,10,03,00,AAXX 10034 41984 02456 30000 10308 20270 30098 40100 83500 333 20257 59012 70046 83618==
41984,2024,10,10,06,00,AAXX 10064 41984 02458 30000 10333 20230 30087 40089 83400 333 59005 70046 82618==
41984,2024,10,10,09,00,AAXX 10094 41984 02458 31302 10326 20260 30063 40065 83400 333 59006 70046 82618==
41984,2024,10,10,12,00,AAXX 10124 41984 02450 40000 10295 20270 30068 40070 83531 333 10345 59003 70046 83618==
41984,2024,10,10,15,00,AAXX 10154 41984 02440 20000 10274 20260 30084 40086 82530 333 59008 70046 82618==
41984,2024,10,10,18,00,AAXX 10184 41984 02940 00000 10273 20260 30080 40082 333 58001 70046==
41989,2024,10,04,00,00,AAXX 04004 41989 01440 61804 10255 20240 30056 40059 72122 83570 333 58021 70010 83618 84460==
41989,2024,10,04,03,00,AAXX 04034 41989 02450 51804 10278 20250 30056 40060 83530 333 20250 58009 70010 83618 83362==
41989,2024,10,04,06,00,AAXX 04064 41989 21440 71306 10267 20260 30077 40080 70362 83570 333 58026 60045 70050 83618 84460==
41989,2024,10,04,09,00,AAXX 04094 41989 01440 61405 10265 20250 30058 40061 70162 84430 333 58036 70070 83618 84362==
41989,2024,10,04,12,00,AAXX 04124 41989 11440 61306 10260 20240 30054 40057 60026 70262 83570 333 10290 58038 70070 83618 84460==
41989,2024,10,04,15,00,AAXX 04154 41989 02450 41805 10260 20240 30077 40080 82570 333 58022 70070 82618 83362==
41989,2024,10,04,21,00,AAXX 04214 41989 02450 31703 10258 20250 30083 40985 83500 333 58017 70070 83618==
41989,2024,10,05,00,00,AAXX 05004 41989 02450 31802 10254 20240 30071 40075 83500 333 58015 70060 83618==
41989,2024,10,05,03,00,AAXX 05034 41989 02456 41805 10298 20260 30085 40088 82530 333 20246 58027 70060 82618 84362==
41989,2024,10,05,06,00,AAXX 05064 41989 02450 51404 10315 20230 30095 40098 83530 333 58018 70020 83618 83362==
41989,2024,10,05,09,00,AAXX 05094 41989 02456 41705 10327 20260 30060 40063 82570 333 58002 70000 82618 83362==
41989,2024,10,05,12,00,AAXX 05124 41989 02450 41803 10302 20260 30052 40055 83530 333 59002 70000 83618==
41989,2024,10,05,15,00,AAXX 05154 41989 02450 41804 10270 20250 30093 40097 83530 333 58005 70000 83618 83362==
41989,2024,10,05,21,00,AAXX 05214 41989 02440 31803 10262 20240 30106 40109 83500 333 58013 70000 83618==
41989,2024,10,06,00,00,AAXX 06004 41989 02440 41403 10260 20240 30101 40105 83530 333 58030 70000 83618 83362==
41989,2024,10,06,03,00,AAXX 06034 41989 02450 51402 10290 20240 30111 40114 83530 333 20250 58023 70000 83618 83362==
41989,2024,10,06,06,00,AAXX 06064 41989 02456 51803 10312 20259 30105 40108 82570 333 58010 70000 82618 83362==
41989,2024,10,06,09,00,AAXX 06094 41989 02450 51804 10314 20260 30092 40095 83570 333 58032 70000 83618 84460==
41989,2024,10,06,12,00,AAXX 06124 41989 02450 30703 10280 20260 30092 40095 83530 333 10324 58040 70000 83618==
41989,2024,10,06,15,00,AAXX 06154 41989 41450 41802 10272 20250 30106 40109 70362 82530 333 58007 82618 84362==
41989,2024,10,06,21,00,AAXX 06214 41989 42450 31402 10266 20260 30110 40113 83500 333 58004 83618==
41989,2024,10,07,00,00,AAXX 07004 41989 42440 21802 10264 20250 30106 40109 82500 333 58005 82618==
41989,2024,10,07,03,00,AAXX 07034 41989 42456 41803 10302 20260 30126 40129 82530 333 20260 58016 82618 83362==
41989,2024,10,07,06,00,AAXX 07064 41989 42450 51804 10330 20250 30133 40135 83530 333 58026 83618 84362==
41989,2024,10,07,09,00,AAXX 07094 41989 42456 51703 10312 20260 30103 40106 82570 333 58011 82618 83362==
41989,2024,10,07,12,00,AAXX 07124 41989 42450 21802 10298 20260 30096 40099 82500 333 10331 58004 82618==
41989,2024,10,07,18,00,AAXX 07184 41989 NIL=
41989,2024,10,08,00,00,AAXX 08004 41989 02440 31403 10265 20250 30115 40118 83500 333 58009 70000 83618==
41989,2024,10,08,03,00,AAXX 08033 41989 02450 31401 10300 20260 30132 40136 83500 333 20258 58006 70000 83618==
41989,2024,10,08,06,00,AAXX 08064 41989 02456 11304 10322 20250 30124 40127 81500 333 59007 70000 81618==
41989,2024,10,08,09,00,AAXX 08094 41989 02450 31403 10324 20270 30108 40111 83500 333 58005 70000 83618==
41989,2024,10,08,12,00,AAXX 08124 41989 02450 31803 10310 20280 30098 40101 83500 333 10333 58001 70000 83618==
41989,2024,10,08,15,00,AAXX 08154 41989 01440 21702 10282 20260 30113 40116 70521 82500 333 59006 70000 82618==
41989,2024,10,08,18,00,AAXX 08184 41989 NIL=
41989,2024,10,08,21,00,AAXX 08214 41989 01440 20000 10270 20260 30119 40122 70511 82500 333 59002 70000 82618==
41989,2024,10,09,00,00,AAXX 09004 41989 01440 20000 10264 20250 30107 40110 70511 82500 333 59008 70000 82618==
41989,2024,10,09,03,00,AAXX 09033 41989 02456 31802 10301 20260 30124 40127 52494 333 20259 59008 70000 82618==
41989,2024,10,09,06,00,AAXX 09064 41989 02450 41403 10330 20260 30119 40122 82530 333 58005 70000 83618 83362==
41989,2024,10,09,07,00,AAXX 09074 41989 02450 41403 10330 20260 30119 40122 82530 333 58005 70000 83618 83362==
41989,2024,10,09,09,00,AAXX 09094 41989 02456 31304 10322 20260 30080 40083 83500 333 59028 70000 83618==
41989,2024,10,09,12,00,AAXX 09124 41989 02450 21702 10302 20260 30082 40085 82500 333 10334 59026 70000 82618==
41989,2024,10,10,00,00,AAXX 10004 41989 01440 61403 10250 20240 30104 40108 72162 83570 333 59003 70110 83618 84460==
41989,2024,10,10,03,00,AAXX 10034 41989 02450 41803 10290 20250 30130 40133 82530 333 20240 58006 70110 82618 83362==
41989,2024,10,10,06,00,AAXX 10064 41989 02456 21304 10321 20250 30105 40108 82500 333 59014 70110 82618==
41989,2024,10,10,09,00,AAXX 10094 41989 02456 21402 10320 20270 30070 40081 82500 333 59002 70110 82618==
41989,2024,10,10,12,00,AAXX 10124 41989 NIL=
41989,2024,10,10,15,00,AAXX 10154 41989 02440 40000 10282 20250 30089 40092 82530 333 59024 70110 82618 84362==
41989,2024,10,10,21,00,AAXX 10214 41989 02440 20000 10272 20260 30086 40090 82500 333 59028 70000 82618==
41992,2024,10,04,00,00,AAXX 04004 41992 01420 81802 10256 20240 30058 40060 75122 8592/ 333 58016 70000 84615 88460 81925==
41992,2024,10,04,03,00,AAXX 04034 41992 41430 81205 10280 20240 30082 40084 71792 8592/ 333 20253 58013 84615 88460 81925==
41992,2024,10,04,06,00,AAXX 04064 41992 01425 81508 10258 20250 30087 40089 76196 8592/ 333 58032 70040 84615 88460 81925==
41992,2024,10,04,09,00,AAXX 04094 41992 01425 82102 10265 20250 30062 40064 75196 8592/ 333 58031 70100 84615 88460 81925==
41992,2024,10,04,12,00,AAXX 04124 41992 21425 81502 10262 20240 30065 40067 75165 8592/ 333 10286 59023 60119 70150 84615 88460 81925==
41992,2024,10,04,15,00,AAXX 04154 41992 01425 80000 10255 20240 30086 40088 75155 8492/ 333 58019 70150 83614 88458 81925==
41992,2024,10,04,18,00,AAXX 04184 41992 21425 80000 10250 20230 30085 40087 70552 8432/ 333 58022 60008 70150 83616 88460 81925==
41992,2024,10,04,21,00,AAXX 04214 41992 01425 80000 10256 20240 30071 40073 70522 8592/ 333 58017 70150 84615 88460 81925==
41992,2024,10,05,00,00,AAXX 05004 41992 01425 80000 10255 20240 30081 40083 70522 8592/ 333 58023 70150 84615 88460 81925==
41992,2024,10,05,03,00,AAXX 05033 41992 01430 40000 10305 20260 30105 40107 70522 82530 333 20248 58023 70150 82616 84362==
41992,2024,10,05,06,00,AAXX 05064 41992 01430 61805 10310 20260 30094 40096 70522 83520 333 58007 70110 83616 86460==
41992,2024,10,05,09,00,AAXX 05094 41992 01530 60000 10315 20260 30075 40077 70522 83130 333 58013 70010 83825 86362==
41992,2024,10,05,12,00,AAXX 05124 41992 41/30 30000 10280 20250 30081 40083 70521 83030 333 10320 58016 83362==
41992,2024,10,05,15,00,AAXX 05154 41992 01425 60000 10276 20260 30108 40110 70522 84520 333 58022 70000 84615 86460==
41992,2024,10,05,18,00,AAXX 05184 41992 01420 60000 10267 20250 30106 40108 70522 84520 333 58021 70000 84615 86460==
41992,2024,10,05,21,00,AAXX 05214 41992 01420 60000 10265 20250 30097 40099 70522 84520 333 58026 70000 84615 86460==
41992,2024,10,06,00,00,AAXX 06004 41992 01425 60000 10260 20240 30102 40104 70522 84520 333 58021 70000 84615 86460==
41992,2024,10,06,03,00,AAXX 06034 41992 01430 71505 10300 20250 30126 40128 70522 83530 333 20257 58021 70000 83616 87362==
41992,2024,10,06,06,00,AAXX 06064 41992 01430 61505 10315 20260 30113 40115 70522 83530 333 58019 70000 83616 86362==
41992,2024,10,06,09,00,AAXX 06094 41992 01425 81502 10295 20250 30089 40091 71792 8592/ 333 58014 70000 84615 88460 81925==
41992,2024,10,06,12,00,AAXX 06124 41992 01425 71802 10292 20260 30101 40103 71792 85920 333 10322 58020 70000 84615 87460 81925==
41992,2024,10,06,15,00,AAXX 06154 41992 01425 60000 10275 20260 30125 40127 70513 83520 333 58017 70000 83616 86460==
41992,2024,10,06,18,00,AAXX 06184 41992 01425 60000 10270 20250 30120 40122 70592 84520 333 58014 70000 84616 86460==
41992,2024,10,06,21,00,AAXX 06214 41992 01425 80902 10268 20250 30116 40118 70592 8592/ 333 58019 70000 84615 88460 81925==
41992,2024,10,07,00,00,AAXX 07004 41992 01420 80602 10265 20260 30124 40126 71792 8592/ 333 58022 70000 84615 88460 81925==
41992,2024,10,07,03,00,AAXX 07034 41992 01/30 50000 10310 20250 30147 40149 70522 85030 333 20263 58021 70000 85362==
41992,2024,10,07,06,00,AAXX 07064 41992 01435 42103 10328 20250 30131 40133 70521 82530 333 58005 70000 82616 84362==
41992,2024,10,07,09,00,AAXX 07094 41992 01435 60000 10320 20250 30110 40112 70522 84530 333 58021 70000 84615 86362==
41992,2024,10,07,12,00,AAXX 07124 41992 01430 62102 10305 20260 30113 40115 70522 84530 333 10335 58012 70000 84615 86362==
41992,2024,10,07,15,00,AAXX 07154 41992 01425 40000 10282 20260 30136 40138 70522 82530 333 58011 70000 82616 84362==
41992,2024,10,07,18,00,AAXX 07184 41992 01425 70000 10273 20250 30124 40126 70521 84530 333 58004 70000 84615 87360==
41992,2024,10,07,21,00,AAXX 07214 41992 01425 60000 10270 20250 30116 40118 70522 84530 333 58000 70000 84615 86360==
41992,2024,10,08,00,00,AAXX 08004 41992 01425 60302 10268 20260 30132 40134 70522 84520 333 58014 70000 84615 86460==
41992,2024,10,08,03,00,AAXX 08033 41992 01435 30000 10310 20260 30145 40147 70521 83500 333 20265 59002 70000 83616==
41992,2024,10,08,06,00,AAXX 08064 41992 01435 20000 10328 20260 30127 40129 70521 82500 333 59004 70000 82616==
41992,2024,10,08,09,00,AAXX 08094 41992 01535 20000 10325 20250 30100 40102 70511 82100 333 59010 70000 82825==
41992,2024,10,08,12,00,AAXX 08124 41992 01/30 40000 10295 20260 30108 40110 70511 84030 333 10335 59005 70000 84362==
41992,2024,10,08,15,00,AAXX 08154 41992 01425 40000 10284 20260 30126 40128 70511 82530 333 59010 70000 82616 84362==
41992,2024,10,08,18,00,AAXX 08184 41992 01425 70000 10278 20260 30117 40119 70521 84530 333 59007 70000 84616 87362==
41992,2024,10,08,21,00,AAXX 08214 41992 01425 60000 10275 20260 30102 40104 70522 84530 333 59014 70000 84615 86360==
41992,2024,10,09,00,00,AAXX 09004 41992 01425 60000 10272 20250 30111 40113 70522 84520 333 59020 70000 84615 86460==
41992,2024,10,09,03,00,AAXX 09034 41992 01/35 40000 10317 20260 30125 40127 70522 84030 333 20267 59020 70000 84362==
41992,2024,10,09,06,00,AAXX 09064 41992 01435 32106 10328 20260 30105 40107 70521 82530 333 59022 70000 82616 83362==
41992,2024,10,09,09,00,AAXX 09094 41992 01430 22705 10322 20250 30084 40086 70521 82500 333 59016 70000 82616==
41992,2024,10,09,12,00,AAXX 09123 41992 01430 43002 10300 20250 30086 40088 70522 83530 333 10333 59022 70000 83615 84360==
41992,2024,10,09,15,00,AAXX 09154 41992 01425 50000 10288 20260 30111 40113 70511 83530 333 59015 70000 83616 85362==
41992,2024,10,09,18,00,AAXX 09184 41992 01425 70000 10280 20260 30099 40101 70521 83530 333 59018 70000 84615 87360==
41992,2024,10,09,21,00,AAXX 09214 41992 01420 70000 10275 20260 30088 40090 70522 84530 333 59014 70000 84615 87460==
41992,2024,10,10,00,00,AAXX 10004 41992 01420 71502 10270 20250 30100 40102 71792 85920 333 59011 70000 84615 87460 81925==
41992,2024,10,10,03,00,AAXX 10034 41992 01430 50302 10305 20250 30116 40118 70595 84530 333 20268 59009 70010 84616 85362==
41992,2024,10,10,06,00,AAXX 10064 41992 11445 22103 10328 20260 30103 40105 60016 70596 82500 333 59022 70010 82616==
41992,2024,10,10,09,00,AAXX 10094 41992 01440 52104 10328 20250 30081 40083 70522 82501 333 59003 70010 82616 85080==
41992,2024,10,10,12,00,AAXX 10124 41992 01430 62705 10300 20250 30082 40084 70522 84530 333 10332 59004 70010 84616 86362==
41992,2024,10,10,15,00,AAXX 10154 41992 01425 20000 10280 20260 30099 40101 70521 82500 333 59012 70010 82616==
41992,2024,10,10,18,00,AAXX 10184 41992 01425 40000 10270 20260 30096 40098 71021 84500 333 59003 70010 84616==
41992,2024,10,10,21,00,AAXX 10214 41992 01420 60000 10268 20260 30086 40088 71022 84530 333 59002 70010 84616 86362==
41998,2024,10,04,00,00,AAXX 04004 41998 21456 80000 10280 20260 30085 40091 76162 333 58033 60149 70220 83616 88456==
41998,2024,10,04,03,00,AAXX 04034 41998 01456 80000 10288 20265 30084 40090 76166 8442/ 333 58043 70190 83616 88456==
41998,2024,10,04,06,00,AAXX 04064 41998 21456 81602 10280 20260 30066 40072 76166 8442/ 333 58032 60119 70250 83616 88456==
41998,2024,10,04,09,00,AAXX 04094 41998 01456 82201 10273 20250 30056 40062 76166 8442/ 333 58046 70320 83616 88456==
41998,2024,10,04,12,00,AAXX 04124 41998 21456 80000 10272 20250 30051 40057 70262 8442/ 333 10292 58038 60049 70290 83618 88458==
41998,2024,10,05,00,00,AAXX 05004 41998 02456 50000 10263 20250 30075 40081 83470 333 59010 70150 82618 83458==
41998,2024,10,05,03,00,AAXX 05034 41998 02456 50000 10285 20260 30076 40082 83470 333 59008 70130 82618 83458==
41998,2024,10,05,06,00,AAXX 05064 41998 NIL=
41998,2024,10,05,12,00,AAXX 05124 41998 02456 60000 10284 20250 30058 40064 83470 333 10327 58007 70000 82618 83458==
41998,2024,10,06,00,00,AAXX 06004 41998 02456 50000 10287 20270 30070 40076 83470 333 59007 70000 82618 83458==
41998,2024,10,06,03,00,AAXX 06034 41998 02456 50000 10300 20270 30073 40079 83470 333 20266 59003 70000 82618 83458==
41998,2024,10,06,06,00,AAXX 06064 41998 02456 50000 10305 20260 30089 40095 83470 333 58023 70000 82618 83458==
41998,2024,10,06,09,00,AAXX 06094 41998 02456 51902 10303 20260 30041 40048 83470 333 59008 70000 82618 83458==
41998,2024,10,06,12,00,AAXX 06124 41998 02456 50000 10290 20260 30044 40050 83470 333 10320 59014 70000 82618 83458==
41998,2024,10,07,00,00,AAXX 07004 41998 02456 40000 10278 20270 30076 40082 82470 333 70000 81618==
41998,2024,10,07,03,00,AAXX 07034 41998 02456 40000 10295 20264 30087 40093 83470 333 58007 70000 81618==
41998,2024,10,07,06,00,AAXX 07064 41998 NIL=
41998,2024,10,07,09,00,AAXX 07094 41998 02456 41802 10324 20250 30068 40074 83470 333 58027 70000 82618 83458==
41998,2024,10,07,12,00,AAXX 07124 41998 02456 40000 10291 20250 30081 40087 83470 333 10338 58037 70000 83618 88458==
41998,2024,10,07,18,00,AAXX 07184 41998 NIL=
41998,2024,10,08,00,00,AAXX 08004 41998 02456 40000 10283 20260 30121 40129 82470 333 58045 70000 81618==
41998,2024,10,08,03,00,AAXX 08033 41998 02456 40000 10290 20270 30104 40110 83470 333 20265 58016 70000 81618==
41998,2024,10,08,09,00,AAXX 08094 41998 02456 41901 10322 20260 30081 40087 82470 333 58007 70000 81618==
41998,2024,10,08,12,00,AAXX 08124 41998 02456 40000 10291 20250 30086 40092 82470 333 10341 58005 70000 81618 83458==
41998,2024,10,08,18,00,AAXX 08184 41998 NIL=
41998,2024,10,09,00,00,AAXX 09004 41998 02456 60000 10285 20270 30136 40142 83470 333 58015 70000 82618 83458==
41998,2024,10,09,03,00,AAXX 09034 41998 02456 40000 10298 20267 30108 40114 83470 333 41618 58008 70000==
41998,2024,10,09,06,00,AAXX 09064 41998 NIL=
41998,2024,10,09,09,00,AAXX 09094 41998 02456 41902 10330 20270 30069 40075 83470 333 59012 70000 81618==
41998,2024,10,09,12,00,AAXX 09124 41998 02456 40000 10294 20250 30076 40082 82470 333 10347 59010 70000 81618==
41998,2024,10,09,18,00,AAXX 09184 41998 02456 40000 10292 20260 30106 40112 83470 333 59021 70000 82618==
41998,2024,10,10,00,00,AAXX 10004 41998 NIL=
41998,2024,10,10,03,00,AAXX 10034 41998 02456 40000 10308 20270 30099 40105 82470 333 20266 59006 70000 81618==
41998,2024,10,10,06,00,AAXX 10064 41998 NIL=
41998,2024,10,10,12,00,AAXX 10124 41998 02456 40000 10292 20250 30081 40087 82470 333 10346 58005 70000 81618==
