ESTACION,ANO,MES,DIA,HORA,MINUTO,PARTE
41858,2022,09,09,00,00,AAXX 09004 41858 01430 70504 10280 20260 30038 40083 70522 84520 333 58003 70020 84616 87458==
41858,2022,09,09,03,00,AAXX 09034 41858 01/50 40608 10315 20290 30048 40093 70522 84040 333 20268 59013 70020 84362==
41858,2022,09,09,06,00,AAXX 09064 41858 01/50 40612 10340 20260 30042 40086 70522 84040 333 58002 70020 84362==
41858,2022,09,09,09,00,AAXX 09094 41858 01450 40508 10348 20250 30012 40056 70522 82530 333 59002 70020 82618 84362==
41858,2022,09,09,12,00,AAXX 09124 41858 01450 43606 10310 20260 30002 40047 70522 82530 333 10352 59025 70000 82618 83362==
41858,2022,09,09,15,00,AAXX 09154 41858 01/50 30506 10282 20240 30034 40079 70511 83030 333 59012 70000 83362==
41858,2022,09,09,18,00,AAXX 09184 41858 01430 40905 10280 20250 30046 40092 70511 82410 333 59012 70000 82616 84460==
41858,2022,09,09,21,00,AAXX 09214 41858 01/40 50504 10276 20250 30026 40071 70522 85030 333 59025 70000 85362==
41858,2022,09,10,00,00,AAXX 10004 41858 01/50 40505 10272 20250 30029 40075 70522 84030 333 59009 70000 84362==
41858,2022,09,10,03,00,AAXX 10034 41858 01/50 40509 10305 20260 30043 40088 70522 84030 333 20265 70000 84362==
41858,2022,09,10,09,00,AAXX 10094 41858 01450 30808 10350 20250 39997 40041 70511 82430 333 59015 70000 82616 83362==
41858,2022,09,10,12,00,AAXX 10124 41858 01456 30506 10320 20270 39998 40042 70511 82430 333 10380 59004 70000 82616 83362==
41858,2022,09,10,15,00,AAXX 10154 41858 01445 40905 10290 20260 30024 40069 71311 82410 333 59010 70000 82616 84460 81930==
41858,2022,09,10,18,00,AAXX 10184 41858 01435 40805 10284 20260 30036 40081 70511 82410 333 59010 70000 82616 84460==
41858,2022,09,10,21,00,AAXX 10214 41858 01435 50000 10275 20260 30028 40073 70522 83520 333 58002 70000 83616 85458==
41858,2022,09,11,00,00,AAXX 11004 41858 01435 60000 10270 20260 30021 40066 76322 84520 333 59008 70020 84616 86458==
41858,2022,09,11,03,00,AAXX 11034 41858 01450 50908 10305 20260 30033 40078 70522 85400 333 20262 59010 70020 82616 83825==
41858,2022,09,11,06,00,AAXX 11064 41858 01440 70908 10325 20250 30027 40071 70522 84520 333 59004 70020 84618 86458==
41858,2022,09,11,09,00,AAXX 11094 41858 01450 60306 10290 20260 39994 40039 71792 84920 333 59003 70022 83515 85458 82930==
41858,2022,09,11,12,00,AAXX 11124 41858 11550 30906 10298 20260 39990 40035 69926 70596 83200 333 10335 59008 70022 83825==
41858,2022,09,11,15,00,AAXX 11154 41858 01445 60905 10270 20240 30018 40063 70522 83520 333 59006 70022 83616 86458==
41858,2022,09,11,18,00,AAXX 11184 41858 01440 60905 10272 20240 30033 40079 70522 83520 333 59003 70022 83616 86458==
41858,2022,09,11,21,00,AAXX 11214 41858 01440 60905 10268 20250 30004 40049 70522 83520 333 59024 70022 83615 85458==
41858,2022,09,12,00,00,AAXX 12004 41858 01450 70906 10265 20250 30007 40052 70522 84520 333 59014 70002 84615 86458==
41858,2022,09,12,03,00,AAXX 12034 41858 01450 70910 10295 20260 30027 40073 70522 83420 333 10258 59006 70002 83616 86460==
41858,2022,09,12,06,00,AAXX 12064 41858 01450 70912 10308 20250 30022 40067 70522 84520 333 59005 70002 84616 86460==
41858,2022,09,12,09,00,AAXX 12094 41858 01450 60505 10295 20260 39996 40042 72162 84520 333 58002 70044 84616 86460==
41858,2022,09,12,12,00,AAXX 12124 41858 01425 80906 10264 20240 30000 40046 76362 8572/ 333 10314 58010 70258 83708 84613 88458==
41858,2022,09,12,15,00,AAXX 12154 41858 01430 80605 10260 20250 30022 40068 70562 8452/ 333 58004 70278 84615 88458==
41858,2022,09,12,18,00,AAXX 12184 41858 01430 80605 10260 20240 30038 40084 70562 8452/ 333 58005 70020 84615 88458==
41858,2022,09,12,21,00,AAXX 12214 41858 01450 80906 10260 20240 30026 40072 70522 8562/ 333 58022 70278 83708 85614 88458==
41858,2022,09,13,00,00,AAXX 13004 41858 01350 80908 10260 20240 30018 40064 70522 8562/ 333 58011 70278 83708 85614 88458==
41858,2022,09,13,03,00,AAXX 13034 41858 01450 80905 10285 20260 30036 40081 70522 8452/ 333 20250 58009 70278 84615 88458==
41858,2022,09,13,06,00,AAXX 13064 41858 01440 80906 10285 20270 30031 40076 76152 8562/ 333 58009 70002 83708 84614 88458==
41858,2022,09,13,09,00,AAXX 13094 41858 01440 80308 10282 20260 30010 40055 76162 8452/ 333 58014 70276 83615 88458 81928==
41858,2022,09,13,12,00,AAXX 13124 41858 21435 80908 10262 20240 30014 40060 70562 8452/ 333 10300 58014 60069 70082 84615 88458==
41858,2022,09,13,15,00,AAXX 13154 41858 01430 80906 10266 20250 30038 40084 70522 8452/ 333 58016 70062 84615 88458==
41858,2022,09,13,18,00,AAXX 13184 41858 21430 80906 10260 20240 30051 40097 76162 8452/ 333 58013 60027 70082 84615 88458==
41858,2022,09,14,00,00,AAXX 14004 41858 01415 80905 10264 20250 30032 40078 72162 8552/ 333 58014 70122 85615 88458==
41858,2022,09,14,15,00,AAXX 14154 41858 01435 80000 10256 20240 30040 40086 70522 8342/ 333 58002 70514 83616 88460==
41858,2022,09,14,21,00,AAXX 14214 41858 01430 81804 10260 20250 30018 40064 70522 8452/ 333 59020 70468 84615 88458==
41858,2022,09,15,03,00,AAXX 15034 41858 01332 81804 10280 20260 30037 40079 70522 8562/ 333 20250 59008 70074 83708 85615 88458==
41858,2022,09,15,06,00,AAXX 15064 41858 01435 80000 10304 20270 30026 40071 70522 8452/ 333 59022 70032 84615 88458==
41858,2022,09,15,09,00,AAXX 15094 41858 01440 81808 10295 20260 39994 40039 71796 8592/ 333 59021 70012 84615 88458 82930==
41858,2022,09,15,18,00,AAXX 15184 41858 01435 80000 10258 20250 30016 40062 70522 8452/ 333 59037 70012 84615 88458==
41858,2022,09,15,21,00,AAXX 15214 41858 01430 81206 10257 20250 39984 40030 70522 8452/ 333 59034 70012 84616 88458==
41859,2022,09,09,00,00,AAXX 09004 41859 02440 80000 10282 20260 30044 40081 8562/ 333 59002 70000 82710 84618 88458==
41859,2022,09,09,03,00,AAXX 09034 41859 02450 40502 10323 20250 30055 40092 82520 333 20276 59013 70000 82618 84458==
41859,2022,09,09,06,00,AAXX 09064 41859 02450 70504 10339 20260 30052 40088 85620 333 58001 70000 82710 84618 87458==
41859,2022,09,09,09,00,AAXX 09094 41859 02450 40504 10348 20250 30020 40056 82520 333 59002 70000 82618 84458==
41859,2022,09,09,12,00,AAXX 09124 41859 02450 40504 10320 20250 30010 40046 82520 333 10352 59019 70000 82618 84458==
41859,2022,09,09,15,00,AAXX 09154 41859 02430 40902 10301 20240 30041 40078 82520 333 59008 70000 82618 84458==
41859,2022,09,09,18,00,AAXX 09184 41859 02430 80902 10291 20250 30045 40082 8562/ 333 59002 70000 82710 84618 88458==
41859,2022,09,09,21,00,AAXX 09214 41859 02430 80902 10280 20260 30038 40075 8562/ 333 59005 70000 82710 84618 88458==
41859,2022,09,10,00,00,AAXX 10004 41859 02440 80902 10276 20260 30034 40071 8562/ 333 59010 70000 82710 84618 88458==
41859,2022,09,10,03,00,AAXX 10034 41859 NIL=
41859,2022,09,10,06,00,AAXX 10064 41859 02450 40902 10337 20240 30039 40075 83510 333 59013 70000 83618 84458==
41859,2022,09,10,09,00,AAXX 10094 41859 02450 50502 10344 20260 30003 40039 84470 333 59017 70000 83618 85458==
41859,2022,09,10,12,00,AAXX 10124 41859 NIL=
41859,2022,09,10,15,00,AAXX 10154 41859 02430 70502 10305 20260 30028 40064 83520 333 59013 70000 83618 86458==
41859,2022,09,10,18,00,AAXX 10184 41859 02430 80000 10290 20260 30041 40078 8562/ 333 59004 70000 82710 84618 88458==
41859,2022,09,10,21,00,AAXX 10214 41859 01430 81302 10280 20260 30036 40073 70262 8562/ 333 59002 70044 83710 84618 88458==
41859,2022,09,11,00,00,AAXX 11004 41859 11435 81302 10270 20260 30031 40068 60046 70262 8562/ 333 59003 70044 83710 84618 88458==
41859,2022,09,11,03,00,AAXX 11034 41859 NIL=
41859,2022,09,11,06,00,AAXX 11064 41859 02450 81302 10319 20260 30035 40072 8562/ 333 59004 70044 83710 84618 88458==
41859,2022,09,11,09,00,AAXX 11094 41859 01450 40902 10315 20270 30002 40038 70162 84400 333 59001 70094 82618 83828==
41859,2022,09,11,12,00,AAXX 11124 41859 11450 61302 10306 20250 30001 40037 60056 70361 84430 333 10320 59002 70094 83618 86362==
41859,2022,09,11,15,00,AAXX 11154 41859 02430 61302 10274 20250 30028 40065 83520 333 58000 70094 83618 86458==
41859,2022,09,11,18,00,AAXX 11184 41859 21430 81302 10270 20260 30036 40073 70362 8562/ 333 59005 69955 70099 82710 83618 88458==
41859,2022,09,11,21,00,AAXX 11214 41859 02330 81302 10264 20250 30026 40063 8672/ 333 59010 70075 83709 84615 88456==
41859,2022,09,12,00,00,AAXX 12004 41859 21450 81302 10260 20250 30016 40052 70262 8462/ 333 59015 60025 70075 82710 83618 88458==
41859,2022,09,12,03,00,AAXX 12034 41859 02450 81302 10284 20250 30034 40071 8462/ 333 20254 59019 70075 82710 83618 88458==
41859,2022,09,12,06,00,AAXX 12064 41859 01350 81302 10296 20260 30033 40070 76122 8572/ 333 59002 70002 82708 83617 88458==
41859,2022,09,12,09,00,AAXX 12094 41859 01450 81302 10302 20250 30007 40044 72122 8562/ 333 58005 70027 82710 84618 88458==
41859,2022,09,12,12,00,AAXX 12124 41859 21330 81302 10256 20250 30008 40045 76162 8672/ 333 10307 58007 60037 70057 84708 85616 88458==
41859,2022,09,12,15,00,AAXX 12154 41859 01430 80902 10260 20250 30032 40069 70262 8562/ 333 58004 70059 82710 84618 88458==
41859,2022,09,12,18,00,AAXX 12184 41859 11430 71302 10265 20260 30037 40074 69926 70162 85610 333 58001 70054 82710 84618 87459==
41859,2022,09,12,21,00,AAXX 12214 41859 02430 71302 10261 20250 30031 40068 85620 333 58005 70034 82710 84618 87458==
41859,2022,09,13,00,00,AAXX 13004 41859 02440 81302 10260 20250 30026 40063 8562/ 333 58010 70034 83710 85618 88458==
41859,2022,09,13,03,00,AAXX 13034 41859 01350 81302 10265 20260 30045 40082 76162 8572/ 333 20253 58011 70044 83708 85616 88456==
41859,2022,09,13,06,00,AAXX 13064 41859 01350 81302 10279 20260 30039 40076 76162 8572/ 333 58006 70054 83708 85616 88458==
41859,2022,09,13,09,00,AAXX 13094 41859 01345 80902 10266 20260 30019 40056 76366 8672/ 333 58012 70114 84708 85616 88456==
41859,2022,09,13,12,00,AAXX 13124 41859 21335 81302 10256 20250 30023 40060 76566 8672/ 333 10280 58015 60079 70094 84708 85616 88456==
41859,2022,09,13,15,00,AAXX 13154 41859 01330 80000 10257 20250 30046 40083 70262 8562/ 333 58014 70098 84708 85616 88456==
41859,2022,09,13,18,00,AAXX 13184 41859 11430 80000 10260 20240 30050 40087 69966 70262 8562/ 333 58013 70098 83710 85618 88458==
41859,2022,09,13,21,00,AAXX 13214 41859 01430 81302 10259 20250 30041 40078 70262 8562/ 333 58010 70100 83710 85618 88458==
41859,2022,09,14,03,00,AAXX 14034 41859 NIL=
41859,2022,09,14,06,00,AAXX 14064 41859 21350 81302 10277 20260 30051 40088 70262 8572/ 333 58012 60067 70133 83708 85616 88458==
41859,2022,09,14,12,00,AAXX 14124 41859 NIL=
41859,2022,09,14,15,00,AAXX 14154 41859 01430 81802 10258 20258 30047 40084 72162 8562/ 333 58001 70059 83710 85618 88458==
41859,2022,09,14,18,00,AAXX 14184 41859 NIL=
41859,2022,09,15,03,00,AAXX 15034 41859 NIL=
41859,2022,09,15,06,00,AAXX 15064 41859 11450 80000 10295 20260 30033 40070 60016 70262 8562/ 333 59018 70010 83708 85616 88457==
41859,2022,09,15,09,00,AAXX 15094 41859 01340 82102 10281 20260 30004 40041 76166 8572/ 333 59021 70014 83708 85614 88456==
41859,2022,09,15,12,00,AAXX 15124 41859 NIL=
41859,2022,09,15,18,00,AAXX 15184 41859 02430 60000 10262 20250 30008 40045 82520 333 59041 70012 82618 86458==
41863,2022,09,09,00,00,AAXX 09004 41863 02/50 50000 10275 20270 30034 40077 85030 333 59004 70096 85362==
41863,2022,09,09,03,00,AAXX 09034 41863 02/57 33203 10319 20270 30040 40083 83030 333 20266 59014 70096 83365==
41863,2022,09,09,06,00,AAXX 09064 41863 02/57 30904 10346 20270 30039 40081 83030 333 58000 70096 83365==
41863,2022,09,09,09,00,AAXX 09094 41863 02457 50903 10348 20260 30011 40053 83520 333 58000 70096 83618 85458==
41863,2022,09,09,12,00,AAXX 09124 41863 02456 50503 10323 20270 30000 40042 83520 333 10348 59022 70000 83618 86458==
41863,2022,09,09,15,00,AAXX 09154 41863 02/50 30000 10295 20280 30031 40074 83030 333 59011 70000 83362==
41863,2022,09,09,18,00,AAXX 09184 41863 02450 60903 10292 20240 30032 40075 83520 333 59002 70000 83618 86458==
41863,2022,09,09,21,00,AAXX 09214 41863 42450 60902 10283 20250 30028 40071 83520 333 59007 83618 86458==
41863,2022,09,10,00,00,AAXX 10004 41863 02450 80903 10279 20250 30023 40066 8452/ 333 59011 70000 83618 88458==
41863,2022,09,10,03,00,AAXX 10034 41863 02/56 50903 10310 20250 30038 40081 85030 333 20273 59002 70000 85362==
41863,2022,09,10,09,00,AAXX 10094 41863 02557 40502 10343 20250 30000 40041 84400 333 59011 70000 84620==
41863,2022,09,10,12,00,AAXX 10124 41863 02556 20502 10330 20260 39998 40040 82400 333 10345 59002 70000 82620==
41863,2022,09,10,15,00,AAXX 10154 41863 02456 50902 10300 20250 30027 40069 83520 333 59004 70000 83618 85458==
41863,2022,09,10,18,00,AAXX 10184 41863 02450 61301 10280 20250 30033 40076 83520 333 58001 70000 83618 86458==
41863,2022,09,10,21,00,AAXX 10214 41863 02450 61302 10278 20260 30022 40064 83520 333 59006 70000 83618 86458==
41863,2022,09,11,00,00,AAXX 11004 41863 02450 81302 10274 20250 30018 40061 8552/ 333 59005 70000 85618 88458==
41863,2022,09,11,03,00,AAXX 11034 41863 02456 60902 10294 20250 30028 40071 83520 333 20270 59010 70000 83618 86458==
41863,2022,09,11,06,00,AAXX 11064 41863 02456 71303 10310 20250 30029 40071 83520 333 59004 70000 83618 87458==
41863,2022,09,11,09,00,AAXX 11094 41863 01456 81804 10280 20250 39998 40040 72122 8452/ 333 59035 70026 84618 88458==
41863,2022,09,11,12,00,AAXX 11124 41863 21456 60000 10302 20260 39987 40029 70162 83520 333 10325 59011 60035 70026 83618 86458==
41863,2022,09,11,15,00,AAXX 11154 41863 01450 81802 10262 20250 30014 40057 70362 8552/ 333 59013 70074 85618 88458==
41863,2022,09,11,18,00,AAXX 11184 41863 11450 80903 10265 20250 30027 40070 60056 70262 8452/ 333 59006 70074 84618 88458==
41863,2022,09,11,21,00,AAXX 11214 41863 02450 70902 10265 20250 30019 40062 83520 333 59003 70074 83618 87458==
41863,2022,09,12,00,00,AAXX 12004 41863 02450 81803 10264 20250 30004 40047 8452/ 333 59014 70074 84618 88458==
41863,2022,09,12,03,00,AAXX 12034 41863 02456 61303 10290 20250 30022 40064 83520 333 20257 59006 70074 83618 86458==
41863,2022,09,12,06,00,AAXX 12064 41863 21356 80902 10280 20260 30023 40065 76166 8572/ 333 59006 60037 70108 83708 85614 88456==
41863,2022,09,12,09,00,AAXX 12094 41863 02456 80903 10305 20270 39999 40041 8452/ 333 58001 70082 84618 88458==
41863,2022,09,12,12,00,AAXX 12124 41863 01450 80903 10260 20250 39999 40042 76122 8572/ 333 10325 58012 70060 83707 84614 88456==
41863,2022,09,12,15,00,AAXX 12154 41863 01450 80904 10256 20250 30023 40066 70266 8452/ 333 58009 70124 84617 88458==
41863,2022,09,12,18,00,AAXX 12184 41863 11450 80902 10260 20250 30032 40075 60036 70262 8452/ 333 58005 70124 84618 88458==
41863,2022,09,12,21,00,AAXX 12214 41863 02450 80903 10260 20250 30019 40062 8552/ 333 58000 70124 85618 88458==
41863,2022,09,13,00,00,AAXX 13004 41863 02450 81704 10261 20250 30017 40060 8552/ 333 58013 70124 85617 88458==
41863,2022,09,13,03,00,AAXX 13034 41863 02456 81302 10270 20250 30034 40077 8552/ 333 20250 58012 70124 85618 88458==
41863,2022,09,13,06,00,AAXX 13064 41863 21356 81302 10320 20220 30033 40075 76166 8572/ 333 58010 60027 70110 83708 85614 88456==
41863,2022,09,13,09,00,AAXX 13094 41863 01450 81302 10273 20250 30011 40054 72162 8562/ 333 58012 70114 83710 85618 88458==
41863,2022,09,13,12,00,AAXX 13124 41863 21450 81302 10265 20250 30013 40056 70262 8562/ 333 10273 58014 69947 70054 82710 85618 88458==
41863,2022,09,13,15,00,AAXX 13154 41863 01350 81302 10259 20250 30040 40083 72162 8562/ 333 58017 70036 83708 85616 88456==
41863,2022,09,13,18,00,AAXX 13184 41863 21350 80902 10257 20250 30038 40081 70262 8562/ 333 58006 60018 70036 82708 85616 88456==
41863,2022,09,13,21,00,AAXX 13214 41863 02450 81301 10257 20250 30034 40077 8562/ 333 58030 70036 83709 85617 88458==
41863,2022,09,14,00,00,AAXX 14004 41863 22350 80902 10260 20250 30031 40074 8572/ 333 58014 60037 70062 83708 85616 88456==
41863,2022,09,14,15,00,AAXX 14154 41863 02350 81301 10260 20250 30041 40084 8562/ 333 58001 70461 83709 85618 88458==
41863,2022,09,14,21,00,AAXX 14214 41863 02440 80901 10259 20250 30021 40064 8552/ 333 59013 70461 85618 88458==
41863,2022,09,15,00,00,AAXX 15004 41863 02450 80000 10262 20250 30022 40065 8552/ 333 59009 70435 85618 88458==
41863,2022,09,15,03,00,AAXX 15034 41863 02456 81801 10274 20260 30034 40077 8552/ 333 20252 59012 70403 85618 88458==
41863,2022,09,15,06,00,AAXX 15064 41863 02456 61802 10310 20250 30029 40071 83520 333 59010 70381 83618 86458==
41863,2022,09,15,09,00,AAXX 15094 41863 01350 80000 10260 20250 30029 40072 79596 8592/ 333 59010 70530 83707 84616 88456 82925==
41863,2022,09,15,18,00,AAXX 15184 41863 11450 82301 10260 20250 30010 40053 60016 70262 8562/ 333 59027 70562 83710 85617 88458==
41883,2022,09,09,00,00,AAXX 09004 41883 02440 80000 10266 20260 30056 40076 8552/ 333 59006 70374 85616 88459==
41883,2022,09,09,03,00,AAXX 09034 41883 02/56 20000 10310 20270 30063 40083 82030 333 20257 59090 70374 82362==
41883,2022,09,09,06,00,AAXX 09064 41883 02456 50502 10344 20270 30065 40085 83810 333 59003 70374 83615 85458==
41883,2022,09,09,09,00,AAXX 09094 41883 02456 50000 10354 20250 30031 40051 83510 333 59012 70000 83615 85458==
41883,2022,09,09,12,00,AAXX 09124 41883 02956 20000 10350 20260 30017 40037 82001 333 10360 59029 70000 82080==
41883,2022,09,09,15,00,AAXX 09154 41883 02930 00000 10310 20280 30053 40073 333 59010 70000==
41883,2022,09,09,18,00,AAXX 09184 41883 02430 30000 10300 20280 30054 40074 83400 333 59010 70000 81616 83828==
41883,2022,09,09,21,00,AAXX 09214 41883 02430 40000 10280 20260 30044 40064 82530 333 59017 70000 82616 83362==
41883,2022,09,10,00,00,AAXX 10004 41883 02450 60902 10274 20250 30049 40069 82530 333 59007 70000 82616 86362==
41883,2022,09,10,06,00,AAXX 10064 41883 02456 60902 10337 20260 30051 40071 84410 333 59014 70000 83616 86459==
41883,2022,09,10,09,00,AAXX 10094 41883 02456 41304 10342 20250 30017 40037 84400 333 59014 70000 82616 83828==
41883,2022,09,10,15,00,AAXX 10154 41883 02430 81302 10294 20250 30046 40066 8552/ 333 59007 70000 85615 88458==
41883,2022,09,10,18,00,AAXX 10184 41883 02430 80902 10284 20250 30058 40078 8552/ 333 58004 70000 85615 88458==
41883,2022,09,10,21,00,AAXX 10214 41883 02430 80902 10276 20260 30045 40065 8552/ 333 58001 70000 85615 88458==
41883,2022,09,11,00,00,AAXX 11004 41883 01340 80902 10272 20250 30039 40059 70262 8562/ 333 59010 70010 85709 88458==
41883,2022,09,11,06,00,AAXX 11064 41883 02456 70903 10310 20250 30049 40069 85420 333 59002 70010 83616 83828 87459==
41883,2022,09,11,09,00,AAXX 11094 41883 02456 30502 10324 20230 30014 40034 83400 333 59003 70010 82616==
41883,2022,09,11,12,00,AAXX 11124 41883 02356 81802 10295 20250 30013 40033 8562/ 333 10330 59008 70010 85709 88458==
41883,2022,09,11,15,00,AAXX 11154 41883 02430 60902 10274 20240 30043 40064 83530 333 59003 70010 83615 86362==
41883,2022,09,11,18,00,AAXX 11184 41883 02330 80902 10274 20250 30051 40072 8562/ 333 59007 70010 85709 88458==
41883,2022,09,11,21,00,AAXX 11214 41883 02330 80000 10272 20250 30040 40061 8562/ 333 59005 70010 85709 88458==
41883,2022,09,12,00,00,AAXX 12004 41883 02330 80902 10268 20260 30030 40050 8562/ 333 59009 70000 85709 88458==
41883,2022,09,12,03,00,AAXX 12034 41883 01350 80904 10264 20250 30049 40069 76162 8572/ 333 20260 59007 70100 85709 88458==
41883,2022,09,12,06,00,AAXX 12064 41883 21350 80902 10290 20240 30046 40066 70262 8562/ 333 59003 60108 70100 85709 88458==
41883,2022,09,12,09,00,AAXX 12094 41883 01350 81302 10264 20240 30019 40039 76162 8572/ 333 58005 70130 85709 88458==
41883,2022,09,12,12,00,AAXX 12124 41883 01340 81303 10270 20250 30023 40043 76166 8572/ 333 10312 58010 70148 85709 88458==
41883,2022,09,12,15,00,AAXX 12154 41883 01330 81302 10260 20250 30045 40065 72162 8562/ 333 58002 70178 85709 88458==
41883,2022,09,12,18,00,AAXX 12184 41883 11330 80000 10264 20250 30050 40070 60036 70262 8562/ 333 59001 70147 85709 88458==
41883,2022,09,12,21,00,AAXX 12214 41883 41330 80000 10258 20250 30043 40063 76162 8572/ 333 58003 85709 88458==
41883,2022,09,13,00,00,AAXX 13004 41883 21330 80903 10252 20250 30039 40059 76166 8572/ 333 58009 60237 70408 85708 88458==
41883,2022,09,13,03,00,AAXX 13034 41883 01340 80902 10262 20250 30058 40078 76166 8572/ 333 20248 58009 70444 85709 88458==
41883,2022,09,13,06,00,AAXX 13064 41883 21340 80902 10255 20255 30053 40073 79596 8592/ 333 58007 61109 71404 85709 88458 82930==
41883,2022,09,13,09,00,AAXX 13094 41883 01350 81302 10260 20250 30032 40052 76196 8572/ 333 58013 71414 85709 88458==
41883,2022,09,13,12,00,AAXX 13124 41883 21340 81302 10260 20250 30032 40052 76196 8572/ 333 10260 58009 60069 71416 85709 88458==
41883,2022,09,13,15,00,AAXX 13154 41883 01330 81303 10260 20250 30059 40079 72166 8562/ 333 58014 71430 85709 88459==
41883,2022,09,13,18,00,AAXX 13184 41883 21330 81304 10260 20250 30060 40080 70262 8562/ 333 58010 60018 71400 85709 88459==
41883,2022,09,13,21,00,AAXX 13214 41883 02330 80000 10260 20250 30050 40070 8562/ 333 58007 71350 85709 88459==
41883,2022,09,14,06,00,AAXX 14064 41883 21356 81302 10290 20260 30062 40082 70262 8562/ 333 58009 60035 70106 85709 88458==
41883,2022,09,14,15,00,AAXX 14154 41883 02330 80000 10264 20250 30056 40076 8562/ 333 59003 70102 85709 88458==
41883,2022,09,15,09,00,AAXX 15094 41883 02356 81302 10302 20270 30014 40034 8562/ 333 59030 70192 85709 88458==
41883,2022,09,15,18,00,AAXX 15184 41883 11330 80000 10258 20250 30028 40049 69976 70296 8562/ 333 59036 70523 85709 88458==
41886,2022,09,09,00,00,AAXX 09004 41886 01556 60000 10275 20270 30061 40081 70522 81170 333 59001 70000 81825 85365==
41886,2022,09,09,03,00,AAXX 09034 41886 02/58 20000 10320 20270 30065 40085 82030 333 20270 59018 70000 82365==
41886,2022,09,09,06,00,AAXX 09064 41886 02457 60000 10340 20260 30068 40088 85430 333 59003 70000 82618 83825 85365==
41886,2022,09,09,09,00,AAXX 09094 41886 02458 50000 10352 20250 30025 40045 81540 333 59015 70000 81618 85365==
41886,2022,09,09,12,00,AAXX 09124 41886 02/57 70000 10334 20270 30026 40046 87070 333 10356 59015 70000 84460 85365==
41886,2022,09,09,15,00,AAXX 09154 41886 02/50 60000 10306 20270 30064 40084 86040 333 59007 70000 86365==
41886,2022,09,09,21,00,AAXX 09214 41886 02/50 60000 10270 20250 30060 40080 86040 333 59002 70070 86365==
41886,2022,09,10,00,00,AAXX 10004 41886 02/56 60000 10260 20250 30057 40077 86040 333 59004 70070 86365==
41886,2022,09,10,03,00,AAXX 10034 41886 02457 40000 10315 20260 30071 40091 81540 333 20256 58006 70070 81618 84365==
41886,2022,09,10,12,00,AAXX 10124 41886 02457 70000 10310 20260 30034 40054 83510 333 10345 58008 70070 83618 86460==
41886,2022,09,10,15,00,AAXX 10154 41886 01456 80000 10283 20260 30061 40081 70262 8352/ 333 59003 70210 83618 88460==
41886,2022,09,10,21,00,AAXX 10214 41886 01440 80000 10265 20250 30064 40084 70262 8352/ 333 58004 70250 83616 88458==
41886,2022,09,11,00,00,AAXX 11004 41886 11450 80000 10263 20250 30053 40073 60286 72162 8352/ 333 59003 70420 83618 88460==
41886,2022,09,11,03,00,AAXX 11034 41886 02456 80000 10287 20260 30063 40083 8352/ 333 20259 59008 70420 83618 88460==
41886,2022,09,11,06,00,AAXX 11064 41886 02456 61201 10300 20250 30058 40078 84470 333 58000 70420 83618 85460==
41886,2022,09,11,09,00,AAXX 11094 41886 02457 60000 10310 20250 30027 40047 84470 333 58008 70420 83618 85460==
41886,2022,09,11,12,00,AAXX 11124 41886 01456 80000 10285 20260 30020 40040 70262 8352/ 333 10315 59012 70010 83618 88460==
41886,2022,09,11,15,00,AAXX 11154 41886 02450 80000 10284 20260 30051 40071 8352/ 333 59010 70290 83616 88458==
41886,2022,09,11,18,00,AAXX 11184 41886 02450 80000 10280 20260 30063 40083 8352/ 333 59003 70290 83616 88458==
41886,2022,09,11,21,00,AAXX 11214 41886 02440 80000 10272 20260 30056 40076 8352/ 333 59008 70180 83616 88458==
41886,2022,09,12,00,00,AAXX 12004 41886 02450 80000 10267 20260 30043 40063 8352/ 333 59010 70010 83618 88460==
41886,2022,09,12,03,00,AAXX 12034 41886 02456 81203 10285 20260 30060 40080 8352/ 333 20265 59003 70010 83618 88460==
41886,2022,09,12,06,00,AAXX 12064 41886 02456 71302 10300 20250 30053 40073 84470 333 59005 70010 83618 85460==
41886,2022,09,12,09,00,AAXX 12094 41886 01450 80000 10262 20250 30028 40049 76122 8432/ 333 58001 70028 83617 88460 81930==
41886,2022,09,12,12,00,AAXX 12124 41886 01456 70000 10274 20250 30030 40050 70166 85320 333 10303 58010 70032 83617 87460 81930==
41886,2022,09,12,15,00,AAXX 12154 41886 01450 80000 10270 20260 30040 40060 76166 8532/ 333 58012 70082 83616 88460 81930==
41886,2022,09,12,18,00,AAXX 12184 41886 21450 80000 10260 20250 30061 40081 70262 8532/ 333 59002 60055 70082 83616 88460 81930==
41886,2022,09,12,21,00,AAXX 12214 41886 02450 80000 10260 20250 30056 40076 8532/ 333 58000 70082 84617 88460 81930==
41886,2022,09,13,00,00,AAXX 13004 41886 02456 80000 10260 20250 30053 40073 8532/ 333 58010 70082 84617 88460 81930==
41886,2022,09,13,03,00,AAXX 13034 41886 02456 80000 10272 20250 30070 40090 8532/ 333 20258 58010 70082 83617 88460 81930==
41886,2022,09,13,06,00,AAXX 13064 41886 01440 81702 10247 20247 30075 40096 79592 8532/ 333 58022 70310 81710 83617 88458 81930==
41886,2022,09,13,09,00,AAXX 13094 41886 01450 80000 10260 20250 30048 40069 76196 8532/ 333 58020 70474 83616 88458 81930==
41886,2022,09,13,12,00,AAXX 13124 41886 21450 80000 10265 20260 30049 40069 70296 8432/ 333 10287 58019 60119 70462 83616 88460 81930==
41886,2022,09,13,15,00,AAXX 13154 41886 02450 80000 10260 20250 30069 40090 8352/ 333 58011 70412 83618 88460==
41886,2022,09,13,18,00,AAXX 13184 41886 02450 80000 10260 20250 30074 40095 8351/ 333 58013 70412 83618 88460==
41886,2022,09,13,21,00,AAXX 13214 41886 02450 80000 10256 20250 30072 40093 8432/ 333 58016 70412 83616 88460 81930==
41886,2022,09,14,00,00,AAXX 14004 41886 01450 80000 10256 20250 30062 40063 70262 8532/ 333 58009 70010 83616 88458 81930==
41886,2022,09,14,15,00,AAXX 14154 41886 01350 80000 10262 20250 30070 40090 72122 8672/ 333 58001 70450 83710 85616 88458==
41886,2022,09,15,00,00,AAXX 15004 41886 11350 80000 10260 20250 30053 40073 69986 70262 8672/ 333 59009 70448 82710 85616 88458==
41886,2022,09,15,03,00,AAXX 15034 41886 02456 70000 10272 20250 30066 40086 85570 333 20255 59017 70158 85616 86460==
41886,2022,09,15,06,00,AAXX 15064 41886 02456 82301 10297 20260 30055 40075 8432/ 333 59019 70028 83616 88460 81930==
41886,2022,09,15,09,00,AAXX 15094 41886 02456 80000 10306 20270 30025 40045 8351/ 333 59026 70028 83618 88460==
41886,2022,09,15,18,00,AAXX 15184 41886 21440 80000 10258 20258 30035 40055 71796 8532/ 333 59038 60448 70444 84616 88460 81930==
41891,2022,09,09,00,00,AAXX 09004 41891 01435 30903 10272 20250 30036 40074 70522 81340 333 59006 70000 81615 83365 81930==
41891,2022,09,09,03,00,AAXX 09034 41891 42450 21204 10327 20270 30041 40079 59015 82615==
41891,2022,09,09,06,00,AAXX 09064 41891 01450 31503 10352 20250 30030 40067 70511 82530 333 59008 70000 82615 83365==
41891,2022,09,09,09,00,AAXX 09094 41891 01450 31004 10365 20220 39996 40034 70511 81530 333 59008 70000 81617 83365==
41891,2022,09,09,12,00,AAXX 09124 41891 01450 70604 10322 20270 39997 40035 70521 84330 333 10372 59012 70000 83617 87365 81930==
41891,2022,09,09,15,00,AAXX 09154 41891 01440 61807 10312 20230 30043 40081 71322 83340 333 58011 70000 83615 85365 81930==
41891,2022,09,09,18,00,AAXX 09184 41891 01440 61802 10290 20260 30037 40075 70522 83330 333 58002 70000 83615 85365 81930==
41891,2022,09,09,21,00,AAXX 09214 41891 01440 60000 10274 20250 30033 40072 70522 83330 333 58004 70000 83615 85365 81930==
41891,2022,09,10,00,00,AAXX 10004 41891 01440 70000 10265 20250 30034 40072 70522 84370 333 59002 70000 84615 86460 81930==
41891,2022,09,10,06,00,AAXX 10064 41891 01450 31302 10338 20240 30035 40072 70521 81430 333 58005 70000 81615 83365==
41891,2022,09,10,09,00,AAXX 10094 41891 01450 61504 10340 20250 39991 40028 70511 83340 333 59005 70000 83615 85365 81930==
41891,2022,09,10,12,00,AAXX 10124 41891 01325 83604 10295 20280 39999 40037 76121 8632/ 333 10356 58002 70004 86708 88458 81925==
41891,2022,09,10,15,00,AAXX 10154 41891 01330 80404 10262 20250 30054 40092 79596 8692/ 333 58011 70014 85708 88458 81926==
41891,2022,09,10,18,00,AAXX 10184 41891 21330 81604 10255 20250 30047 40085 72196 8632/ 333 58008 60049 70039 85708 88458 81928==
41891,2022,09,10,21,00,AAXX 10214 41891 01330 81604 10245 20245 30039 40077 79596 8632/ 333 58006 70489 85708 88456 81926==
41891,2022,09,11,00,00,AAXX 11004 41891 21440 80704 10250 20240 30037 40075 70596 8632/ 333 58006 60639 70669 81710 83616 88458 81926==
41891,2022,09,11,03,00,AAXX 11034 41891 01450 70603 10288 20250 30043 40081 72162 84370 333 20245 59001 70679 84615 86460 81930==
41891,2022,09,11,06,00,AAXX 11064 41891 11456 71803 10313 20230 30032 40070 60011 70262 84370 333 59003 70679 84615 85460 81930==
41891,2022,09,11,09,00,AAXX 11094 41891 02456 41802 10334 20240 30002 40039 82340 333 58011 70679 82615 84365 81930==
41891,2022,09,11,12,00,AAXX 11124 41891 01440 71302 10310 20250 30001 40039 70522 84370 333 10340 58002 70675 84615 86460 81930==
41891,2022,09,11,15,00,AAXX 11154 41891 01435 83603 10270 20250 30040 40078 70522 8532/ 333 59014 70665 81710 84615 88459 81930==
41891,2022,09,11,18,00,AAXX 11184 41891 11430 80604 10262 20250 30043 40082 69922 70562 8532/ 333 59004 70642 81710 84615 88459 81930==
41891,2022,09,11,21,00,AAXX 11214 41891 01430 80504 10260 20250 30034 40073 70522 8532/ 333 59005 70192 81710 84615 88459 81930==
41891,2022,09,12,00,00,AAXX 12004 41891 01440 70404 10257 20250 30026 40064 70522 84370 333 59011 70012 84615 86460 81930==
41891,2022,09,12,03,00,AAXX 12034 41891 01450 60905 10305 20250 30041 40079 70522 84370 333 20254 59002 70002 83617 84365 81930==
41891,2022,09,12,06,00,AAXX 12064 41891 01450 70904 10307 20250 30030 40068 70522 85370 333 59002 70002 81710 83617 87365 81930==
41891,2022,09,12,09,00,AAXX 12094 41891 02456 70204 10310 20250 39998 40036 84310 333 59004 70002 84615 87460 81930==
41891,2022,09,12,12,00,AAXX 12124 41891 02320 83003 10260 20250 30009 40047 8632/ 333 10328 58008 70270 86708 88458 81925==
41891,2022,09,12,15,00,AAXX 12154 41891 01320 82704 10264 20250 30037 40076 76066 8632/ 333 59003 70276 86708 88458 81925==
41891,2022,09,12,18,00,AAXX 12184 41891 01435 80502 10263 20250 30041 40080 72166 8532/ 333 59002 70276 82710 84615 88459 81930==
41891,2022,09,12,21,00,AAXX 12214 41891 01320 80902 10262 20250 30032 40071 76022 8632/ 333 59002 70286 86707 88458 81925==
41891,2022,09,13,00,00,AAXX 13004 41891 21430 80903 10258 20250 30033 40072 72162 8532/ 333 58007 60107 70376 82710 84615 88459 81930==
41891,2022,09,13,03,00,AAXX 13034 41891 01440 81504 10272 20250 30054 40093 70522 8532/ 333 20253 58013 70376 82710 84615 88459 81930==
41891,2022,09,13,06,00,AAXX 13064 41891 01320 81204 10265 20250 30048 40087 76162 8632/ 333 58018 70020 86708 88458 81925==
41891,2022,09,13,09,00,AAXX 13094 41891 41330 83604 10250 20240 30032 40071 76562 8692/ 333 58034 85708 88458 81926==
41891,2022,09,13,12,00,AAXX 13124 41891 01330 80704 10252 20240 30353 40070 76162 8692/ 333 10298 58022 70464 85708 88458 81926==
41891,2022,09,13,15,00,AAXX 13154 41891 01335 81004 10255 20250 30055 40094 70566 8532/ 333 58018 70458 82708 84613 88458 81927==
41891,2022,09,13,18,00,AAXX 13184 41891 11330 80904 10255 20250 30056 40094 69921 70562 8532/ 333 58015 70456 82708 84614 88458 81928==
41891,2022,09,13,21,00,AAXX 13214 41891 01430 80903 10253 20240 30049 40088 70522 8532/ 333 58017 70446 82710 84615 88460 81930==
41891,2022,09,14,06,00,AAXX 14064 41891 01445 70902 10300 20250 30058 40096 70522 84370 333 58010 70332 84615 86460 81930==
41891,2022,09,14,15,00,AAXX 14154 41891 01330 82504 10261 20250 30048 40087 70562 8532/ 333 59007 70063 84708 88458 81926==
41891,2022,09,15,00,00,AAXX 15004 41891 01330 81604 10255 20250 30031 40070 70562 8532/ 333 59013 70068 84710 88458 81928==
41891,2022,09,15,09,00,AAXX 15094 41891 01445 70502 10290 20260 30007 40045 72166 84370 333 59014 70096 84615 86460 81930==
41891,2022,09,15,18,00,AAXX 15184 41891 21425 80904 10255 20250 30007 40046 70562 8532/ 333 59040 60088 70115 82710 84615 88459 81930==
41891,2022,09,15,21,00,AAXX 15214 41891 01320 82504 10251 20250 39999 40038 79522 8632/ 333 59036 70255 86708 88458 81925==
41895,2022,09,09,00,00,AAXX 09004 41895 02950 40501 10270 20270 30057 40079 80001 333 58006 70000 84080==
41895,2022,09,09,03,00,AAXX 09034 41895 02956 20901 10300 20270 30058 40080 80001 333 20267 59015 70000 82080==
41895,2022,09,09,06,00,AAXX 09064 41895 02457 40501 10336 20280 30057 40079 84400 333 59006 70000 82616 83820==
41895,2022,09,09,09,00,AAXX 09094 41895 02457 40503 10360 20260 30017 40039 84400 333 59019 70000 82616 83820==
41895,2022,09,09,12,00,AAXX 09124 41895 02450 70000 10322 20270 30012 40034 84520 333 10363 59028 70000 84615 87458==
41895,2022,09,09,15,00,AAXX 09154 41895 02450 60000 10290 20280 30045 40067 84520 333 59011 70000 84615 86458==
41895,2022,09,09,18,00,AAXX 09184 41895 02950 00000 10286 20280 30047 40069 333 59015 70000==
41895,2022,09,09,21,00,AAXX 09214 41895 02450 80000 10280 20270 30042 40065 8452/ 333 59010 70000 84615 88458==
41895,2022,09,10,00,00,AAXX 10004 41895 02450 80000 10276 20276 30040 40063 8452/ 333 59017 70000 84615 88458==
41895,2022,09,10,03,00,AAXX 10034 41895 02956 30000 10300 20270 30059 40081 80001 333 20270 58001 70000 83080==
41895,2022,09,10,09,00,AAXX 10094 41895 02456 31103 10342 20270 30010 40032 83400 333 59007 70000 82616==
41895,2022,09,10,12,00,AAXX 10124 41895 01456 81303 10294 20250 30022 40044 72911 8432/ 333 10361 58010 70000 83616 88458 81928==
41895,2022,09,10,15,00,AAXX 10154 41895 02456 50902 10283 20260 30038 40061 83520 333 59007 70000 83616 85458==
41895,2022,09,10,18,00,AAXX 10184 41895 02456 60902 10279 20270 30048 40070 83510 333 58001 70000 83616 88458==
41895,2022,09,10,21,00,AAXX 10214 41895 02456 60905 10283 20260 30039 40062 83520 333 59003 70000 83616 86458==
41895,2022,09,11,00,00,AAXX 11004 41895 02456 50904 10269 20260 30030 40053 84421 333 59010 70000 83616 85458==
41895,2022,09,11,03,00,AAXX 11034 41895 02456 50905 10294 20250 30043 40066 84401 333 20265 59016 70000 82616 83820==
41895,2022,09,11,06,00,AAXX 11064 41895 02457 60906 10324 20260 30039 40061 84311 333 59012 70000 82616 85458==
41895,2022,09,11,09,00,AAXX 11094 41895 01456 81307 10339 20270 30014 40035 79522 8532/ 333 58004 70124 84614 88458 81930==
41895,2022,09,11,12,00,AAXX 11124 41895 21456 61303 10265 20265 30000 40022 70196 83520 333 10340 59022 60195 70190 83616 86458==
41895,2022,09,11,15,00,AAXX 11154 41895 02450 61302 10260 20260 30029 40052 83520 333 59009 70190 83616 86458==
41895,2022,09,11,18,00,AAXX 11184 41895 21450 80504 10260 20260 30035 40058 70362 8452/ 333 59013 69925 70192 84615 88458==
41895,2022,09,11,21,00,AAXX 11214 41895 02450 80504 10260 20260 30023 40046 8452/ 333 59016 70192 84615 88458==
41895,2022,09,12,00,00,AAXX 12004 41895 02450 80504 10260 20260 30016 40039 8452/ 333 59014 70192 84615 88458==
41895,2022,09,12,03,00,AAXX 12034 41895 01450 80903 10272 20260 30033 40055 70262 8452/ 333 20255 59010 77457==
41895,2022,09,12,06,00,AAXX 12064 41895 01450 81301 10268 20268 30030 40052 76162 8452/ 333 59009 70386 84615 88458==
41895,2022,09,12,09,00,AAXX 12094 41895 01456 60903 10303 20250 30005 40027 70162 84520 333 59009 70324 84615 86458==
41895,2022,09,12,12,00,AAXX 12124 41895 11450 80901 10282 20250 39999 40022 60062 70362 8452/ 333 10307 59001 70258 84615 88458==
41895,2022,09,12,15,00,AAXX 12154 41895 02450 80903 10268 20250 30026 40048 8452/ 333 59003 70258 84615 88458==
41895,2022,09,12,21,00,AAXX 12214 41895 01350 80902 10258 20258 30025 40047 76162 8572/ 333 58002 70348 84615 83708 88458==
41895,2022,09,13,00,00,AAXX 13004 41895 21350 80902 10255 20255 30018 40040 76162 8572/ 333 58002 60289 70538 84615 83708 88458==
41895,2022,09,13,03,00,AAXX 13034 41895 01350 80901 10256 20256 30044 40066 76166 8572/ 333 20255 58011 70490 84708 83614 88457==
41895,2022,09,13,06,00,AAXX 13064 41895 21350 80901 10260 20260 30044 40066 76166 8572/ 333 58014 60139 70470 84708 83614 88457==
41895,2022,09,13,09,00,AAXX 13094 41895 01456 80902 10280 20260 30020 40042 70262 8452/ 333 58015 70414 84616 88458==
41895,2022,09,13,12,00,AAXX 13124 41895 01450 81102 10272 20260 30024 40046 70262 8452/ 333 10281 58025 70416 84615 88458==
41895,2022,09,13,15,00,AAXX 13154 41895 02450 81302 10267 20267 30050 40072 8452/ 333 58024 70416 84616 88458==
41895,2022,09,13,18,00,AAXX 13184 41895 02450 81102 10264 20260 30053 40075 8452/ 333 58016 70416 84616 88458==
41895,2022,09,13,21,00,AAXX 13214 41895 01450 80902 10263 20260 30048 40070 72162 8452/ 333 58023 70334 84615 88458==
41895,2022,09,14,00,00,AAXX 14004 41895 21450 80902 10262 20260 30043 40065 70262 8452/ 333 58025 60017 70144 84615 88458==
41895,2022,09,14,15,00,AAXX 14154 41895 01450 80901 10266 20260 30054 40076 76162 8452/ 333 58004 70079 84615 88458==
41895,2022,09,14,21,00,AAXX 14214 41895 02450 80901 10262 20250 30055 40077 8452/ 333 58007 70078 84615 88458==
41895,2022,09,15,03,00,AAXX 15034 41895 02450 81302 10277 20270 30050 40072 8452/ 333 20258 59009 70036 84615 88458==
41895,2022,09,15,06,00,AAXX 15064 41895 02456 71802 10320 20280 30043 40065 84470 333 59008 70030 83616 85458==
41895,2022,09,15,09,00,AAXX 15094 41895 02456 70000 10325 20280 30006 40027 84520 333 59030 70020 84615 88458==
41895,2022,09,15,18,00,AAXX 15184 41895 21450 81803 10254 20250 30034 40056 70296 8452/ 333 59023 60048 70691 84615 88458==
41895,2022,09,15,21,00,AAXX 15214 41895 02450 81803 10250 20250 30015 40037 8452/ 333 59040 70691 84615 88458==
41907,2022,09,09,00,00,AAXX 09004 41907 01440 40000 10268 20268 30053 40068 70522 82530 333 59004 70000 82615 83362==
41907,2022,09,09,03,00,AAXX 09034 41907 02950 03602 10317 20270 30057 40072 333 20265 59015 70000==
41907,2022,09,09,06,00,AAXX 09064 41907 02456 33603 10345 20270 30057 40071 83800 333 59001 70000 82615==
41907,2022,09,09,09,00,AAXX 09094 41907 02456 60000 10345 20270 30023 40037 85810 333 59007 70000 82615 83825 85458==
41907,2022,09,09,12,00,AAXX 09124 41907 02456 40000 10307 20280 30021 40035 84800 333 10357 59015 70000 82615==
41907,2022,09,09,15,00,AAXX 09154 41907 02440 41802 10290 20280 30046 40061 85400 333 58002 70000 84615==
41907,2022,09,09,18,00,AAXX 09184 41907 02940 00000 10277 20270 30051 40066 333 59010 70000==
41907,2022,09,09,21,00,AAXX 09214 41907 02340 80000 10272 20260 30045 40060 333 59019 70000 82709 84615 88458==
41907,2022,09,10,00,00,AAXX 10004 41907 02340 80000 10272 20260 30045 40060 8662/ 333 59008 70000 82709 84615 88458==
41907,2022,09,10,06,00,AAXX 10064 41907 02456 51302 10346 20260 30046 40060 85800 333 59011 70000 83615 83825==
41907,2022,09,10,09,00,AAXX 10094 41907 02456 61303 10335 20270 30011 40025 85810 333 59012 70000 82615 83825 85458==
41907,2022,09,10,15,00,AAXX 10154 41907 42340 80000 10272 20260 30044 40059 8662/ 333 59004 82709 85615 88458==
41907,2022,09,10,18,00,AAXX 10184 41907 42340 80000 10265 20260 30056 40071 8662/ 333 58005 82709 85615 88458==
41907,2022,09,10,21,00,AAXX 10214 41907 42340 80000 10260 20250 30049 40064 8662/ 333 58004 82709 85615 88458==
41907,2022,09,11,00,00,AAXX 11004 41907 42340 70000 10260 20250 30043 40058 86610 333 59002 82709 85615 87458==
41907,2022,09,11,06,00,AAXX 11064 41907 01450 71804 10302 20260 30042 40057 72162 85830 333 59004 70030 82615 83825 85360==
41907,2022,09,11,09,00,AAXX 11094 41907 02350 81803 10305 20260 30011 40025 8661/ 333 58000 70030 83709 84615 88458==
41907,2022,09,11,12,00,AAXX 11124 41907 21340 81302 10275 20260 30005 40020 70262 8662/ 333 10330 59014 60025 70050 85709 88458==
41907,2022,09,11,15,00,AAXX 11154 41907 02340 81302 10268 20250 30031 40046 8662/ 333 59014 70050 82709 85615 88458==
41907,2022,09,11,18,00,AAXX 11184 41907 02340 81302 10265 20260 30034 40049 8662/ 333 59022 70050 82709 85615 88458==
41907,2022,09,11,21,00,AAXX 11214 41907 02340 81302 10260 20250 30025 40040 8662/ 333 59024 70050 83709 84615 88458==
41907,2022,09,12,00,00,AAXX 12004 41907 01340 81302 10254 20240 30016 40031 72162 8672/ 333 59027 70020 85709 88458==
41907,2022,09,12,03,00,AAXX 12034 41907 01340 81303 10270 20250 30038 40053 76122 8672/ 333 20250 59009 70089 85709 88458==
41907,2022,09,12,06,00,AAXX 12064 41907 21350 81806 10300 20260 30032 40046 70262 8662/ 333 59010 60055 70112 85709 88458==
41907,2022,09,12,09,00,AAXX 12094 41907 02350 81306 10295 20250 30011 40025 8562/ 333 58000 70112 81709 84615 88458==
41907,2022,09,12,12,00,AAXX 12124 41907 02350 81304 10280 20240 30012 40026 8562/ 333 10310 58007 70092 81709 84615 88458==
41907,2022,09,12,15,00,AAXX 12154 41907 02340 81302 10270 20250 30032 40046 8662/ 333 58001 70092 82709 84615 88458==
41907,2022,09,12,18,00,AAXX 12184 41907 02340 80000 10262 20250 30045 40060 8662/ 333 58011 70092 82709 84615 88458==
41907,2022,09,12,21,00,AAXX 12214 41907 02340 80000 10255 20250 30037 40052 8662/ 333 58012 70092 82709 84615 88458==
41907,2022,09,13,00,00,AAXX 13004 41907 21330 80000 10225 20225 30028 40043 76566 8672/ 333 58012 60657 70718 83709 85615 88458==
41907,2022,09,13,03,00,AAXX 13034 41907 01330 81802 10252 20250 30048 40063 76166 8672/ 333 20223 58010 71053 85709 88458==
41907,2022,09,13,06,00,AAXX 13064 41907 21340 81802 10257 20257 30047 40062 76366 8672/ 333 58015 60519 71155 85709 88458==
41907,2022,09,13,09,00,AAXX 13094 41907 01350 82202 10262 20250 30021 40036 72166 8672/ 333 58010 71297 85709 88458==
41907,2022,09,13,12,00,AAXX 13124 41907 21350 81802 10262 20250 30024 40039 70262 8672/ 333 10266 58012 60148 71297 85709 88458==
41907,2022,09,13,15,00,AAXX 13154 41907 02340 81802 10260 20250 30049 40064 8662/ 333 58017 71297 83709 85615 88458==
41907,2022,09,13,18,00,AAXX 13184 41907 02340 80902 10260 20250 30055 40070 8662/ 333 58010 71297 83709 85615 88458==
41907,2022,09,13,21,00,AAXX 13214 41907 02340 80000 10258 20250 30045 40060 8662/ 333 58008 71297 83709 85615 88458==
41907,2022,09,14,15,00,AAXX 14154 41907 02340 80000 10264 20250 30046 40061 8662/ 333 59003 70024 83709 85615 88458==
41907,2022,09,15,06,00,AAXX 15064 41907 02450 82702 10317 20270 30043 40057 8482/ 333 59013 70024 83615 88458==
41907,2022,09,15,09,00,AAXX 15094 41907 01340 81806 10310 20260 30012 40026 71722 8692/ 333 59024 70024 83709 84615 88458 81930==
41907,2022,09,15,18,00,AAXX 15184 41907 21340 82303 10260 20250 30029 40044 70262 8662/ 333 59029 60018 70100 83709 85615 88458==
41909,2022,09,09,00,00,AAXX 09004 41909 02450 50000 10270 20260 30065 40076 82530 333 59005 70570 82615 85360==
41909,2022,09,09,03,00,AAXX 09034 41909 02956 00000 10324 20260 30067 40079 333 20260 59017 70000==
41909,2022,09,09,06,00,AAXX 09064 41909 02456 50000 10350 20260 30070 40082 82530 333 59003 70570 82615 85360==
41909,2022,09,09,09,00,AAXX 09094 41909 02456 50000 10361 20250 30051 40063 82530 333 59004 70020 82615 85362==
41909,2022,09,09,12,00,AAXX 09124 41909 02956 00000 10342 20270 30033 40045 333 10364 59009 70000==
41909,2022,09,09,15,00,AAXX 09154 41909 02330 81301 10308 20260 30062 40074 8532/ 333 59007 70000 84614 88458 81930==
41909,2022,09,09,18,00,AAXX 09184 41909 02430 81301 10286 20260 30064 40075 8452/ 333 59008 70000 84615 88460==
41909,2022,09,09,21,00,AAXX 09214 41909 02940 00000 10280 20260 30062 40074 333 59008 70000==
41909,2022,09,10,00,00,AAXX 10004 41909 02950 00000 10275 20250 30061 40073 333 59004 70000==
41909,2022,09,10,03,00,AAXX 10034 41909 02456 51801 10320 20250 30068 40080 82530 333 20271 58001 70000 82615 85360==
41909,2022,09,10,12,00,AAXX 10124 41909 01440 80000 10276 20240 30029 40040 79596 8592/ 333 10340 59003 70030 84708 88458 81930==
41909,2022,09,10,15,00,AAXX 10154 41909 01440 80000 10275 20260 30053 40064 70296 8592/ 333 59009 70030 84708 88458 81930==
41909,2022,09,10,18,00,AAXX 10184 41909 02440 80000 10272 20250 30067 40078 83530 333 58003 70030 83615 88458==
41909,2022,09,10,21,00,AAXX 10214 41909 02440 80000 10270 20250 30062 40073 8352/ 333 58000 70030 83615 88458==
41909,2022,09,11,00,00,AAXX 11004 41909 21450 80000 10262 20250 30050 40061 76162 8352/ 333 59011 60057 70080 83615 88458==
41909,2022,09,11,03,00,AAXX 11034 41909 02456 61802 10294 20240 30063 40074 82510 333 20258 59005 70080 82615 86458==
41909,2022,09,11,06,00,AAXX 11064 41909 02456 61302 10319 20260 30059 40071 82510 333 59002 70080 82615 86458==
41909,2022,09,11,09,00,AAXX 11094 41909 01456 81301 10314 20250 30025 40037 70362 8432/ 333 59001 70130 83614 88460 81930==
41909,2022,09,11,12,00,AAXX 11124 41909 02456 80000 10322 20250 30022 40033 59007 88460 333 70160==
41909,2022,09,11,15,00,AAXX 11154 41909 02430 61301 10265 20250 30050 40061 82510 333 59003 70210 82615 86460==
41909,2022,09,11,18,00,AAXX 11184 41909 02430 51301 10266 20260 30057 40068 82510 333 59010 70210 82615 84360==
41909,2022,09,11,21,00,AAXX 11214 41909 02430 51301 10264 20250 30055 40066 82510 333 59007 70210 82615 84360==
41909,2022,09,12,00,00,AAXX 12004 41909 01350 81301 10260 20250 30039 40050 72122 8562/ 333 59011 70010 84708 88458==
41909,2022,09,12,03,00,AAXX 12034 41909 01356 81301 10270 20250 30059 40070 70262 8562/ 333 20255 59004 70220 84708 88458==
41909,2022,09,12,06,00,AAXX 12064 41909 11456 81302 10294 20250 30053 40064 60056 70262 8352/ 333 59006 70220 83615 88458==
41909,2022,09,12,09,00,AAXX 12094 41909 01456 71302 10309 20260 30023 40034 70162 84310 333 59002 70230 83615 85458 81930==
41909,2022,09,12,12,00,AAXX 12124 41909 01456 61802 10260 20240 30028 40039 72166 83570 333 10310 58006 70170 83615 84458==
41909,2022,09,12,15,00,AAXX 12154 41909 02440 80000 10264 20250 30053 40064 8452/ 333 58003 70170 84615 88458==
41909,2022,09,12,18,00,AAXX 12184 41909 02440 81802 10264 20250 30060 40071 8452/ 333 58003 70170 84615 88458==
41909,2022,09,12,21,00,AAXX 12214 41909 02440 80000 10262 20250 30051 40062 8452/ 333 59004 70170 84615 88458==
41909,2022,09,13,00,00,AAXX 13004 41909 02356 81302 10260 20250 30046 40057 8562/ 333 58007 70160 84708 88458==
41909,2022,09,13,03,00,AAXX 13034 41909 01340 81302 10262 20250 30063 40074 76122 8672/ 333 20250 58004 70270 85708 88458==
41909,2022,09,13,06,00,AAXX 13064 41909 21350 80000 10250 20240 30064 40075 76396 8672/ 333 58011 60737 70840 85708 88458==
41909,2022,09,13,09,00,AAXX 13094 41909 01350 81802 10252 20240 30042 40053 76366 8672/ 333 58019 71010 85708 88458==
41909,2022,09,13,12,00,AAXX 13124 41909 21356 81302 10258 20250 30043 40054 72166 8532/ 333 10265 58015 60259 70980 84708 88458 81930==
41909,2022,09,13,15,00,AAXX 13154 41909 02340 81302 10262 20250 30069 40080 8562/ 333 58016 70980 84708 88458==
41909,2022,09,13,18,00,AAXX 13184 41909 02440 81802 10260 20250 30076 40087 8352/ 333 58016 70980 83615 88458==
41909,2022,09,13,21,00,AAXX 13214 41909 02440 81302 10258 20250 30066 40077 8352/ 333 58015 70980 83615 88458==
41909,2022,09,14,00,00,AAXX 14004 41909 02350 81302 10256 20250 30061 40072 8562/ 333 58015 70980 84708 88458==
41909,2022,09,14,15,00,AAXX 14154 41909 02440 80000 10268 20260 30068 40079 8562/ 333 59001 70050 84708 88458==
41909,2022,09,14,21,00,AAXX 14214 41909 02440 80000 10262 20250 30065 40076 8562/ 333 59001 70050 84708 88458==
41909,2022,09,15,03,00,AAXX 15034 41909 02456 81302 10284 20250 30068 40079 8352/ 333 20250 59011 70040 83615 88458==
41909,2022,09,15,06,00,AAXX 15064 41909 02456 61802 10299 20260 30059 40070 82510 333 59005 70040 82615 86458==
41909,2022,09,15,09,00,AAXX 15094 41909 02456 81301 10320 20250 30024 40035 8552/ 333 59027 70000 84615 88460==
41909,2022,09,15,18,00,AAXX 15184 41909 02430 80000 10265 20250 30034 40045 8552/ 333 59040 70020 85614 88458==
41915,2022,09,09,00,00,AAXX 09004 41915 02450 41802 10267 20250 30058 40083 84430 333 59007 70000 84615==
41915,2022,09,09,03,00,AAXX 09034 41915 02/70 10000 10315 20250 30059 40084 80051 333 59015 70000==
41915,2022,09,09,06,00,AAXX 09064 41915 02/57 21302 10332 20260 30054 40079 82041 333 59005 70000 82362==
41915,2022,09,09,09,00,AAXX 09094 41915 02557 21802 10347 20270 30020 40044 82240 333 59003 70000 82825==
41915,2022,09,09,12,00,AAXX 09124 41915 02456 40000 10331 20270 30015 40039 83450 333 10360 59015 70000 83616 84362==
41915,2022,09,09,15,00,AAXX 09154 41915 01440 70000 10255 20250 30054 40079 72996 85320 333 59006 70301 84616 86458 81928==
41915,2022,09,09,18,00,AAXX 09184 41915 11440 70000 10252 20240 30056 40081 60301 71396 84450 333 58003 70301 83616 85362==
41915,2022,09,09,21,00,AAXX 09214 41915 02440 71302 10251 20240 30056 40081 84450 333 58007 70301 83616 85362==
41915,2022,09,10,00,00,AAXX 10004 41915 02456 30000 10250 20240 30057 40082 83341 333 59001 70301 83616 83362==
41915,2022,09,10,03,00,AAXX 10034 41915 42456 50000 10300 20250 30062 40087 84401 333 58003 84615==
41915,2022,09,10,06,00,AAXX 10064 41915 02456 51801 10322 20260 30049 40074 85401 333 59005 70301 84615==
41915,2022,09,10,09,00,AAXX 10094 41915 02456 40000 10340 20280 30059 40083 83440 333 58039 70301 83616 84362==
41915,2022,09,10,15,00,AAXX 10154 41915 01340 81802 10260 20250 30065 40090 76196 8732/ 333 58011 70194 83709 86616 88458 82925==
41915,2022,09,10,18,00,AAXX 10184 41915 21340 80000 10258 20250 30067 40093 71396 8732/ 333 59011 60179 70194 83709 86616 88458 82925==
41915,2022,09,10,21,00,AAXX 10214 41915 02340 81302 10255 20260 30060 40085 8632/ 333 58004 70194 83709 84616 88458 82928==
41915,2022,09,11,00,00,AAXX 11004 41915 11350 80000 10252 20250 30052 40078 60021 76022 8672/ 333 59005 70214 83709 83616 88458==
41915,2022,09,11,03,00,AAXX 11034 41915 02456 50000 10286 20250 30064 40089 84410 333 20253 59015 70214 83616 85958==
41915,2022,09,11,06,00,AAXX 11064 41915 02456 50000 10265 20230 30054 40079 84410 333 58005 70214 83616 85458==
41915,2022,09,11,09,00,AAXX 11094 41915 02456 50000 10332 20240 30066 40091 84410 333 58007 70214 83616 85458==
41915,2022,09,11,12,00,AAXX 11124 41915 01456 70000 10285 20270 30074 40100 71792 85920 333 10342 58043 70000 84615 87458 81925==
41915,2022,09,11,15,00,AAXX 11154 41915 01440 80000 10260 20250 30052 40078 76166 8572/ 333 59013 70017 84710 84616 88458==
41915,2022,09,11,18,00,AAXX 11184 41915 01440 81302 10252 20240 30058 40083 76166 8572/ 333 59009 70042 84710 84616 88458==
41915,2022,09,11,21,00,AAXX 11214 41915 02440 70901 10251 20240 30049 40074 84520 333 59011 70048 84615 87458==
41915,2022,09,12,00,00,AAXX 12004 41915 11450 70902 10252 20240 30048 40073 69966 70262 84570 333 59004 70038 84615 85459==
41915,2022,09,12,03,00,AAXX 12034 41915 02456 50000 10282 20240 30060 40085 84431 333 20250 59004 70038 83616 85362==
41915,2022,09,12,06,00,AAXX 12064 41915 02456 61302 10310 20240 30047 40072 84402 333 59007 70038 83616 83825==
41915,2022,09,12,09,00,AAXX 12094 41915 02456 60000 10283 20240 30024 40049 84430 333 59042 70038 84616 86362==
41915,2022,09,12,12,00,AAXX 12124 41915 01450 70000 10330 20260 30026 40051 59048 70050 87458 333 70010==
41915,2022,09,12,15,00,AAXX 12154 41915 02440 60000 10258 20260 30052 40078 84470 333 58000 70033 82616 85458==
41915,2022,09,12,18,00,AAXX 12184 41915 02440 80000 10260 20250 30057 40083 8362/ 333 59001 70028 83709 83616 88458==
41915,2022,09,12,21,00,AAXX 12214 41915 02440 80902 10256 20260 30057 40081 8362/ 333 58008 70022 83709 83616 88458==
41915,2022,09,13,00,00,AAXX 13004 41915 41456 60000 10253 20240 30053 40079 58005 70028 86362==
41915,2022,09,13,03,00,AAXX 13034 41915 02456 61301 10271 20250 30075 40101 85430 333 58015 70012 84616 86362==
41915,2022,09,13,06,00,AAXX 13064 41915 02456 71801 10308 20270 30063 40088 84420 333 58016 70012 83616 83825 87458==
41915,2022,09,13,09,00,AAXX 13094 41915 01456 81801 10250 20240 30047 40072 76366 8732/ 333 58023 70162 84710 85616 88458 81928==
41915,2022,09,13,12,00,AAXX 13124 41915 21450 70000 10258 20250 30050 40075 70162 86320 333 10313 58024 60208 70200 83710 84615 87458==
41915,2022,09,13,15,00,AAXX 13154 41915 02440 80000 10255 20250 30075 40100 8632/ 333 58023 70200 83710 85615 88458 81928==
41915,2022,09,13,18,00,AAXX 13184 41915 02440 70000 10255 20250 30073 40098 86470 333 58016 70200 84616 86458==
41915,2022,09,14,00,00,AAXX 14004 41915 02450 60000 10250 20250 30067 40092 83430 333 58014 70200 83616 85362==
41915,2022,09,14,15,00,AAXX 14154 41915 02440 70000 10251 20240 30072 40097 86620 333 59003 70016 82712 84615 87458==
41915,2022,09,14,21,00,AAXX 14214 41915 01430 80000 10251 20240 30054 40079 76322 8672/ 333 59007 70078 83710 85615 88458==
41915,2022,09,15,00,00,AAXX 15004 41915 21450 71301 10251 20240 30052 40077 70162 85620 333 59015 60105 70116 82710 84615 87458==
41915,2022,09,15,06,00,AAXX 15064 41915 02457 61802 10315 20260 30045 40070 85430 333 59031 70116 84615==
41915,2022,09,15,09,00,AAXX 15094 41915 02457 61803 10324 20240 30023 40047 85470 333 59027 70116 84615==
41915,2022,09,15,18,00,AAXX 15184 41915 01440 40000 10260 20250 30028 40054 71721 83302 333 59038 70100 82616 81928==
41915,2022,09,15,21,00,AAXX 15214 41915 02440 81302 10260 20250 30019 40045 8532/ 333 59035 70038 82712 84615 88458 81928==
41923,2022,09,09,00,00,AAXX 09004 41923 02340 50000 10266 20250 30061 40071 82530 333 58002 70232 82616 83360==
41923,2022,09,09,03,00,AAXX 09034 41923 02950 20000 10322 20240 30071 40081 80001 333 20265 59005 70232 82080==
41923,2022,09,09,06,00,AAXX 09064 41923 02456 30602 10356 20250 30070 40080 83400 333 58007 70232 82616==
41923,2022,09,09,09,00,AAXX 09094 41923 02/56 33302 10364 20240 30037 40047 83030 333 59003 70232 83365==
41923,2022,09,09,12,00,AAXX 09124 41923 01/50 21802 10331 20260 30035 40045 70511 82030 333 10366 59011 70000 82365==
41923,2022,09,09,15,00,AAXX 09154 41923 01440 61802 10303 20250 30071 40081 71322 83330 333 58003 70000 83615 86365 81930==
41923,2022,09,09,18,00,AAXX 09184 41923 01440 60902 10282 20250 30073 40083 70522 83330 333 58000 70000 83615 86365 81930==
41923,2022,09,09,21,00,AAXX 09214 41923 01440 50602 10277 20260 30063 40073 70522 82530 333 59005 70000 82615 85365==
41923,2022,09,10,00,00,AAXX 10004 41923 01440 70602 10273 20250 30061 40071 70522 84370 333 58000 70000 84615 86460 81930==
41923,2022,09,10,03,00,AAXX 10034 41923 NIL=
41923,2022,09,10,06,00,AAXX 10064 41923 01450 60603 10333 20240 30064 40074 70522 83530 333 59006 70000 83615 86365==
41923,2022,09,10,09,00,AAXX 10094 41923 41340 80303 10290 20250 30036 40046 79562 8692/ 333 59001 82708 85614 88458 81929==
41923,2022,09,10,12,00,AAXX 10124 41923 NIL=
41923,2022,09,10,15,00,AAXX 10154 41923 42345 60000 10289 20250 30062 40072 83630 333 59009 81708 83614 85362==
41923,2022,09,10,18,00,AAXX 10184 41923 42345 60000 10283 20250 30072 40082 85630 333 59001 83708 84614 85362==
41923,2022,09,10,21,00,AAXX 10214 41923 41340 71602 10276 20250 30060 40070 70522 86670 333 59003 83708 85614 86459==
41923,2022,09,11,00,00,AAXX 11004 41923 41340 70603 10268 20250 30055 40065 70522 86370 333 59006 83708 85614 86459 81928==
41923,2022,09,11,03,00,AAXX 11034 41923 NIL=
41923,2022,09,11,06,00,AAXX 11064 41923 21350 60703 10315 20240 30062 40072 70162 85631 333 59002 60005 81709 84615==
41923,2022,09,11,09,00,AAXX 11094 41923 01345 61603 10298 20250 30034 40044 72122 85330 333 59002 70014 81709 83615 85360 81930==
41923,2022,09,11,12,00,AAXX 11124 41923 01345 71603 10278 20250 30029 40039 70362 85370 333 10325 59009 70022 82709 83615 85458 81930==
41923,2022,09,11,15,00,AAXX 11154 41923 01340 71802 10277 20250 30053 40063 70262 84370 333 59009 70024 82709 83615 85458 81930==
41923,2022,09,11,18,00,AAXX 11184 41923 01335 80000 10267 20250 30061 40071 76162 8532/ 333 59011 70032 83708 84614 88458 81930==
41923,2022,09,11,21,00,AAXX 11214 41923 01335 80000 10256 20250 30045 40055 76166 8532/ 333 59015 70072 83708 84614 88458 81930==
41923,2022,09,12,00,00,AAXX 12004 41923 21330 80000 10245 20245 30052 40061 76166 8632/ 333 59003 60109 70132 84708 85614 88458 81930==
41923,2022,09,12,03,00,AAXX 12034 41923 01340 83202 10268 20250 30063 40073 70262 8532/ 333 20242 59008 70254 82709 84615 88458 81930==
41923,2022,09,12,06,00,AAXX 12064 41923 01340 81702 10267 20260 30060 40070 76062 8532/ 333 59002 70300 83708 84614 88458 81930==
41923,2022,09,12,09,00,AAXX 12094 41923 01340 71803 10284 20250 30031 40041 76062 85370 333 59003 70318 82709 83614 85458 81930==
41923,2022,09,12,12,00,AAXX 12124 41923 01340 70000 10274 20230 30035 40045 70262 85370 333 10288 58006 70311 83709 83614 85458 81930==
41923,2022,09,12,15,00,AAXX 12154 41923 02340 60000 10272 20240 30053 40062 86630 333 58009 70309 83709 84615==
41923,2022,09,12,18,00,AAXX 12184 41923 01340 80000 10266 20250 30064 40074 76122 8672/ 333 58003 70001 83709 84614 88458==
41923,2022,09,12,21,00,AAXX 12214 41923 01335 80000 10260 20250 30050 40060 76166 8672/ 333 58005 70302 83708 84614 88458==
41923,2022,09,13,00,00,AAXX 13004 41923 21335 82402 10256 20256 30057 40067 76166 8672/ 333 58005 60129 70322 83708 84614 88458==
41923,2022,09,13,03,00,AAXX 13034 41923 01335 80502 10262 20250 30075 40085 76166 8672/ 333 20255 58012 70274 83708 84614 88458==
41923,2022,09,13,06,00,AAXX 13064 41923 21340 81803 10264 20250 30075 40085 76166 8672/ 333 58015 60339 70486 83708 84614 88458==
41923,2022,09,13,09,00,AAXX 13094 41923 01335 82204 10264 20250 30056 40066 76166 8632/ 333 58025 70472 83708 84614 88459 81928==
41923,2022,09,13,12,00,AAXX 13124 41923 21330 81802 10257 20250 30053 40063 76166 8632/ 333 10265 58018 60039 70481 83708 84614 88459 81929==
41923,2022,09,13,15,00,AAXX 13154 41923 01430 80902 10258 20250 30076 40086 70562 8532/ 333 58014 70481 85614 88460 81930==
41923,2022,09,13,18,00,AAXX 13184 41923 01430 81802 10260 20250 30080 40090 72162 8532/ 333 58016 70480 85614 88460 81930==
41923,2022,09,13,21,00,AAXX 13214 41923 01330 83002 10257 20257 30070 40080 76162 8632/ 333 58020 70542 86707 88458 81928==
41923,2022,09,14,03,00,AAXX 14034 41923 NIL=
41923,2022,09,14,06,00,AAXX 14064 41923 21330 81802 10274 20260 30081 40091 76166 8632/ 333 58016 60299 70480 83708 84614 88459 81929==
41923,2022,09,14,12,00,AAXX 14124 41923 NIL=
41923,2022,09,14,15,00,AAXX 14154 41923 01345 70000 10254 20240 30080 40089 70162 86670 333 58004 70830 83708 85614 86459==
41923,2022,09,14,18,00,AAXX 14184 41923 NIL=
41923,2022,09,14,21,00,AAXX 14214 41923 NIL=
41923,2022,09,15,03,00,AAXX 15034 41923 NIL=
41923,2022,09,15,06,00,AAXX 15064 41923 02450 41403 10314 20240 30062 40072 83430 333 59019 70378 83615 83362==
41923,2022,09,15,09,00,AAXX 15094 41923 02450 41502 10316 20250 30030 40040 83430 333 59029 70246 83615 83362==
41923,2022,09,15,12,00,AAXX 15124 41923 NIL=
41923,2022,09,15,18,00,AAXX 15184 41923 02345 71803 10276 20260 30043 40053 86670 333 59040 70000 83708 85614 86459==
41923,2022,09,15,21,00,AAXX 15214 41923 NIL=
41926,2022,09,09,00,00,AAXX 09004 41926 02450 50000 10270 20260 30063 40076 81510 333 58001 70082 81618 84459==
41926,2022,09,09,03,00,AAXX 09034 41926 02/50 20000 10310 20270 30065 40078 82030 333 20268 59009 70082 82362==
41926,2022,09,09,06,00,AAXX 09064 41926 02450 70000 10340 20270 30060 40073 83570 333 59007 70082 83618 85459==
41926,2022,09,09,09,00,AAXX 09094 41926 01450 82701 10265 20260 30029 40042 79596 8592/ 333 59011 70256 84615 88458 82928==
41926,2022,09,09,12,00,AAXX 09124 41926 21450 50000 10275 20270 30032 40045 70196 83504 333 10358 59010 60178 70174 83616 83080==
41926,2022,09,09,15,00,AAXX 09154 41926 02/50 30000 10265 20260 30057 40070 83030 333 59006 70174 83363==
41926,2022,09,09,18,00,AAXX 09184 41926 02/50 30000 10265 20260 30060 40073 83030 333 59004 70174 83363==
41926,2022,09,09,21,00,AAXX 09214 41926 02/50 30000 10262 20250 30046 40059 83040 333 59013 70174 83363==
41926,2022,09,10,00,00,AAXX 10004 41926 02/50 30000 10258 20258 30050 40063 83040 333 59013 70174 83363==
41926,2022,09,10,03,00,AAXX 10034 41926 02456 50901 10302 20270 30062 40075 81502 333 20256 59003 70174 81618 85080==
41926,2022,09,10,09,00,AAXX 10094 41926 02456 61803 10308 20240 30019 40032 84210 333 59010 70000 83618 85459 81930==
41926,2022,09,10,12,00,AAXX 10124 41926 21450 80000 10272 20260 30028 40041 70362 8432/ 333 10347 59004 60035 70028 83618 88458 81930==
41926,2022,09,10,15,00,AAXX 10154 41926 02/50 50000 10270 20260 30041 40054 85010 333 59016 70028 85459==
41926,2022,09,10,18,00,AAXX 10184 41926 02/50 30000 10267 20260 30048 40061 83010 333 59012 70028 83459==
41926,2022,09,10,21,00,AAXX 10214 41926 02/50 30000 10262 20250 30040 40053 83010 333 59006 70028 83459==
41926,2022,09,11,00,00,AAXX 11004 41926 02450 31802 10259 20250 30035 40048 81510 333 59015 70028 81618 83459==
41926,2022,09,11,03,00,AAXX 11034 41926 02456 60000 10282 20250 30049 40062 83510 333 20259 59013 70028 83618 85459==
41926,2022,09,11,06,00,AAXX 11064 41926 02456 61803 10313 20250 30039 40052 83510 333 59013 70028 83618 85459==
41926,2022,09,11,09,00,AAXX 11094 41926 01450 81802 10267 20250 30019 40032 72162 8352/ 333 58000 70036 83617 88458==
41926,2022,09,11,12,00,AAXX 11124 41926 21450 80000 10268 20250 30005 40018 70262 8352/ 333 10324 59023 69988 70008 83617 88458==
41926,2022,09,11,15,00,AAXX 11154 41926 02450 60000 10260 20250 30026 40039 82510 333 59015 70008 82618 85459==
41926,2022,09,11,18,00,AAXX 11184 41926 02450 81802 10265 20260 30032 40045 8252/ 333 59016 70008 82618 88458==
41926,2022,09,11,21,00,AAXX 11214 41926 02450 80000 10260 20250 30026 40040 8252/ 333 59014 70008 82618 88458==
41926,2022,09,12,00,00,AAXX 12004 41926 01450 61802 10252 20240 30022 40036 70162 83510 333 59013 70190 83618 86459==
41926,2022,09,12,03,00,AAXX 12034 41926 01350 81301 10268 20260 30039 40053 72122 8572/ 333 20252 59010 70214 82708 83615 88458==
41926,2022,09,12,06,00,AAXX 12064 41926 01356 81302 10272 20250 30036 40050 76062 8572/ 333 59003 70240 82708 83615 88458==
41926,2022,09,12,09,00,AAXX 12094 41926 01350 80000 10268 20250 30015 40029 76162 8572/ 333 59004 70238 82708 83615 88458==
41926,2022,09,12,12,00,AAXX 12124 41926 21350 81301 10266 20250 30010 40024 70262 8572/ 333 10280 58005 60019 70240 82708 83615 88458==
41926,2022,09,12,15,00,AAXX 12154 41926 01350 81303 10260 20250 30034 40048 70262 8572/ 333 58008 70241 82708 83616 88458==
41926,2022,09,12,18,00,AAXX 12184 41926 11350 80000 10256 20250 30036 40050 69916 70262 8572/ 333 58004 70241 82709 83617 88458==
41926,2022,09,12,21,00,AAXX 12214 41926 01350 80000 10255 20250 30034 40048 76162 8572/ 333 58008 70273 82708 83616 88458==
41926,2022,09,13,00,00,AAXX 13004 41926 21350 80000 10252 20250 30026 40040 76162 8572/ 333 58004 60159 70197 82708 83615 88458==
41926,2022,09,13,03,00,AAXX 13034 41926 01350 81501 10248 20240 30050 40064 79796 8692/ 333 20248 58011 70809 83708 83615 88458 81930==
41926,2022,09,13,06,00,AAXX 13064 41926 21350 81501 10255 20250 30051 40065 76396 8572/ 333 58015 61209 71359 83708 83615 88458==
41926,2022,09,13,09,00,AAXX 13094 41926 01356 81802 10273 20250 30034 40048 70262 8472/ 333 58019 71362 81709 83616 88459==
41926,2022,09,13,12,00,AAXX 13124 41926 21350 81302 10266 20250 30030 40044 70262 8372/ 333 10280 58020 60019 71360 81709 83617 88459==
41926,2022,09,13,15,00,AAXX 13154 41926 02350 80000 10260 20250 30051 40064 8372/ 333 58017 71359 81709 83617 88459==
41926,2022,09,13,18,00,AAXX 13184 41926 02450 70000 10257 20250 30055 40068 83510 333 58019 71359 83618 87459==
41926,2022,09,13,21,00,AAXX 13214 41926 02450 70000 10257 20250 30050 40063 83510 333 58016 71327 83618 87459==
41926,2022,09,14,00,00,AAXX 14004 41926 02450 80000 10256 20250 30047 40060 8452/ 333 58021 71209 84617 88459==
41926,2022,09,14,15,00,AAXX 14154 41926 02450 80000 10260 20250 30052 40065 8352/ 333 58001 70194 82617 88459==
41926,2022,09,15,03,00,AAXX 15034 41926 01325 81801 10268 20250 30059 40073 71022 8462/ 333 20255 59006 70194 82708 83615 88458==
41926,2022,09,15,06,00,AAXX 15064 41926 02450 70000 10300 20270 30053 40066 83510 333 59012 70116 83615 87459==
41926,2022,09,15,09,00,AAXX 15094 41926 01450 70000 10305 20270 30019 40032 71792 85310 333 59023 70024 84615 87459 81930==
41926,2022,09,15,18,00,AAXX 15184 41926 21450 80000 10254 20240 30033 40046 70296 8452/ 333 59022 60088 70090 84615 88458==
41929,2022,09,09,00,00,AAXX 09004 41929 02456 60000 10280 20270 30068 40077 83510 333 59003 70000 83618 86462==
41929,2022,09,09,03,00,AAXX 09034 41929 02/56 20000 10316 20270 30070 40079 82030 333 20275 59014 70000 82365==
41929,2022,09,09,06,00,AAXX 09064 41929 02556 21802 10352 20250 30072 40081 82200 333 59006 70000 82618==
41929,2022,09,09,09,00,AAXX 09094 41929 02556 20902 10355 20270 30037 40046 82200 333 59004 70000 82825==
41929,2022,09,09,12,00,AAXX 09124 41929 02456 30000 10334 20270 30036 40045 83510 333 10356 59012 70000 83618==
41929,2022,09,09,15,00,AAXX 09154 41929 02456 72002 10295 20250 30067 40076 84510 333 59002 70000 84618 87462==
41929,2022,09,09,18,00,AAXX 09184 41929 02456 70000 10284 20260 30069 40078 84510 333 59002 70000 84618 87462==
41929,2022,09,09,21,00,AAXX 09214 41929 02456 30000 10282 20260 30063 40072 83500 333 59006 70000 83618==
41929,2022,09,10,00,00,AAXX 10004 41929 02456 60903 10280 20270 30056 40065 84510 333 59012 70000 84618 86462==
41929,2022,09,10,03,00,AAXX 10034 41929 02456 51402 10312 20250 30074 40083 82540 333 20272 58004 70000 82618 83365==
41929,2022,09,10,09,00,AAXX 10094 41929 01456 81802 10282 20250 30034 40043 70392 8441/ 333 59003 70000 82618 88462==
41929,2022,09,10,12,00,AAXX 10124 41929 01456 80902 10285 20260 30037 40046 70292 8351/ 333 10328 58001 70000 83618 88462==
41929,2022,09,10,15,00,AAXX 10154 41929 02456 60902 10282 20260 30058 40067 83570 333 59009 70000 83618 84462==
41929,2022,09,10,18,00,AAXX 10184 41929 02456 60902 10275 20260 30069 40078 83510 333 58000 70000 83618 86462==
41929,2022,09,10,21,00,AAXX 10214 41929 02456 60905 10271 20260 30057 40066 83510 333 59006 70000 83618 86462==
41929,2022,09,11,00,00,AAXX 11004 41929 02456 60905 10265 20250 30046 40055 83510 333 59010 70000 83618 86462==
41929,2022,09,11,03,00,AAXX 11034 41929 02456 81306 10280 20250 30065 40074 8451/ 333 20261 59009 70000 84618 88462==
41929,2022,09,11,06,00,AAXX 11064 41929 01456 81402 10288 20260 30066 40075 76122 8452/ 333 58001 70000 84618 88462==
41929,2022,09,11,09,00,AAXX 11094 41929 01456 81805 10276 20250 30037 40046 70262 8442/ 333 58003 70024 82618 88462==
41929,2022,09,11,12,00,AAXX 11124 41929 11456 81304 10270 20250 30022 40031 60026 70262 8442/ 333 10312 59015 70024 82618 88462==
41929,2022,09,11,15,00,AAXX 11154 41929 02456 50903 10270 20250 30047 40056 83510 333 59011 70024 83618 84462==
41929,2022,09,11,18,00,AAXX 11184 41929 02456 80905 10272 20250 30056 40065 8451/ 333 59013 70024 84618 88462==
41929,2022,09,11,21,00,AAXX 11214 41929 01456 81306 10263 20250 30046 40055 76122 8452/ 333 59011 70052 84616 88456==
41929,2022,09,12,00,00,AAXX 12004 41929 21456 81306 10255 20250 30036 40045 76166 8452/ 333 59010 60107 70128 84616 88459==
41929,2022,09,12,03,00,AAXX 12034 41929 01456 81402 10268 20250 30060 40069 76166 8452/ 333 20248 59005 70138 84616 88459==
41929,2022,09,12,06,00,AAXX 12064 41929 21456 61402 10290 20250 30056 40065 70166 84540 333 59010 60015 70138 84618 85365==
41929,2022,09,12,09,00,AAXX 12094 41929 02456 71805 10289 20250 30030 40039 85410 333 59007 70114 83618 87462==
41929,2022,09,12,12,00,AAXX 12124 41929 02456 71304 10275 20250 30027 40036 84510 333 10292 58005 70114 84618 87462==
41929,2022,09,12,15,00,AAXX 12154 41929 42456 61305 10268 20250 30054 40063 83510 333 40114 58007 83618 86462==
41929,2022,09,12,18,00,AAXX 12184 41929 01456 80904 10265 20260 30061 40070 76122 8452/ 333 58005 70005 84617 88461==
41929,2022,09,12,21,00,AAXX 12214 41929 01456 80905 10265 20260 30052 40061 70262 8452/ 333 58006 70094 84617 88461==
41929,2022,09,13,00,00,AAXX 13004 41929 11456 80904 10265 20260 30043 40052 69936 70262 8452/ 333 58007 70018 84618 88462==
41929,2022,09,13,03,00,AAXX 13034 41929 01450 81802 10250 20240 30073 40082 79566 8592/ 333 20242 58013 70268 84618 88462 81930==
41929,2022,09,13,06,00,AAXX 13064 41929 21450 81402 10256 20260 30071 40080 79596 8592/ 333 58015 60299 70298 84618 88462 81982==
41929,2022,09,13,09,00,AAXX 13094 41929 01350 81304 10258 20258 30050 40060 76396 8672/ 333 58020 70538 82709 84616 88460==
41929,2022,09,13,12,00,AAXX 13124 41929 21356 81303 10255 20250 30046 40056 70296 8661/ 333 10260 58019 60319 70603 82710 84617 88462==
41929,2022,09,13,15,00,AAXX 13154 41929 02456 81303 10257 20250 30070 40080 8451/ 333 58016 70603 84618 88462==
41929,2022,09,13,18,00,AAXX 13184 41929 02456 81303 10257 20250 30076 40086 8451/ 333 58015 70598 84618 88462==
41929,2022,09,13,21,00,AAXX 13214 41929 02456 80000 10257 20257 30070 40080 8451/ 333 58018 70595 84618 88462==
41929,2022,09,14,00,00,AAXX 14004 41929 01456 80000 10257 20257 30063 40073 72122 8452/ 333 58020 70005 84618 88462==
41929,2022,09,14,15,00,AAXX 14154 41929 02456 60000 10260 20250 30074 40084 82530 333 58004 70096 82618 84365==
41929,2022,09,14,21,00,AAXX 14214 41929 01456 80000 10255 20255 30069 40079 76362 8452/ 333 59001 70396 84616 88460==
41929,2022,09,15,03,00,AAXX 15034 41929 01456 81802 10256 20250 30076 40085 76166 8452/ 333 20248 59007 70496 84618 88462==
41929,2022,09,15,06,00,AAXX 15064 41929 21456 81802 10304 20260 30063 40072 70262 8451/ 333 59017 60035 70466 84618 88462==
41929,2022,09,15,09,00,AAXX 15094 41929 02456 70000 10307 20260 30033 40043 84970 333 59023 70421 83618 85462 81930==
41929,2022,09,15,18,00,AAXX 15184 41929 02456 60000 10255 20250 30046 40056 83530 333 59034 70405 83618 83365==
41933,2022,09,09,00,00,AAXX 09004 41933 21450 60402 10242 20240 30063 40072 70196 84530 333 59010 60328 70322 84618 86362==
41933,2022,09,09,03,00,AAXX 09034 41933 02956 01301 10306 20270 30070 40079 333 20238 59013 70322==
41933,2022,09,09,06,00,AAXX 09064 41933 02457 20000 10340 20260 30065 40074 83400 333 59005 70322 82618==
41933,2022,09,09,09,00,AAXX 09094 41933 02457 50000 10345 20270 30030 40038 85400 333 59008 70322 83618 83828==
41933,2022,09,09,12,00,AAXX 09124 41933 02456 81508 10334 20270 30048 40056 8452/ 333 10358 58008 70322 84618 88458==
41933,2022,09,09,15,00,AAXX 09154 41933 01440 80000 10263 20250 30068 40076 76196 8352/ 333 58012 70332 83616 88458==
41933,2022,09,09,18,00,AAXX 09184 41933 21440 60000 10260 20250 30069 40078 70196 83510 333 58004 60029 70340 83616 85458==
41933,2022,09,09,21,00,AAXX 09214 41933 01440 60000 10258 20250 30061 40070 70262 83510 333 59001 70090 83616 85458==
41933,2022,09,10,00,00,AAXX 10004 41933 11450 80000 10260 20250 30059 40068 69926 70362 8452/ 333 59004 70020 84616 88458==
41933,2022,09,10,03,00,AAXX 10034 41933 02456 51102 10306 20270 30069 40078 85400 333 20255 59001 70020 83618 83828==
41933,2022,09,10,09,00,AAXX 10094 41933 01456 80000 10268 20250 30032 40041 79522 8592/ 333 58002 70022 84614 88458 81929==
41933,2022,09,10,12,00,AAXX 10124 41933 21456 60000 10270 20260 30043 40052 70196 85520 333 10338 59005 60015 70034 85614 86458==
41933,2022,09,10,15,00,AAXX 10154 41933 02456 71302 10268 20260 30068 40077 84510 333 58000 70024 84618 87458==
41933,2022,09,10,18,00,AAXX 10184 41933 02456 81202 10260 20250 30076 40085 8452/ 333 58007 70016 84618 88458==
41933,2022,09,10,21,00,AAXX 10214 41933 02456 61202 10260 20250 30063 40072 83510 333 58002 70014 83618 86458==
41933,2022,09,11,00,00,AAXX 11004 41933 02456 50802 10254 20240 30053 40062 82530 333 59006 70014 82618 85362==
41933,2022,09,11,03,00,AAXX 11034 41933 02456 51302 10278 20240 30067 40076 83530 333 20253 59002 70014 83618 85362==
41933,2022,09,11,06,00,AAXX 11064 41933 02456 61302 10300 20250 30058 40067 84439 333 59002 70014 82618 83362 81576==
41933,2022,09,11,09,00,AAXX 11094 41933 02456 51302 10304 20240 30033 40042 84430 333 58001 70012 83616 85362==
41933,2022,09,11,12,00,AAXX 11124 41933 02456 51202 10285 20240 30027 40036 84430 333 10322 59016 70000 83616 85362==
41933,2022,09,11,15,00,AAXX 11154 41933 01340 81103 10259 20250 30059 40068 76162 8572/ 333 59009 70016 82707 84614 88457==
41933,2022,09,11,18,00,AAXX 11184 41933 01340 81101 10253 20240 30062 40071 76162 8672/ 333 59014 70080 83708 84613 88457==
41933,2022,09,11,21,00,AAXX 11214 41933 01340 81102 10251 20240 30060 40068 70262 8672/ 333 59003 70088 83708 84614 88457==
41933,2022,09,12,00,00,AAXX 12004 41933 11356 81301 20240 30049 40057 60016 70262 8672/ 333 58004 70088 83708 84614 88457==
41933,2022,09,12,03,00,AAXX 12034 41933 01356 81802 10256 20250 30065 40073 70262 8462/ 333 20249 59002 70096 81708 84615 88457==
41933,2022,09,12,06,00,AAXX 12064 41933 11456 81804 10288 20250 30061 40069 69986 70262 8542/ 333 58003 70096 83615 88457==
41933,2022,09,12,09,00,AAXX 12094 41933 01356 71802 10285 20250 30038 40046 70162 85720 333 58005 70116 83709 83615 87456==
41933,2022,09,12,12,00,AAXX 12124 41933 11356 71802 10270 20240 30032 40041 60026 70262 85720 333 10292 58005 70116 83709 83615 87456==
41933,2022,09,12,15,00,AAXX 12154 41933 02456 61102 10260 20240 30062 40070 83520 333 58003 70100 83616 86458==
41933,2022,09,12,18,00,AAXX 12184 41933 01456 80000 10258 20250 30068 40077 76162 8672/ 333 58006 70036 83708 84615 88457==
41933,2022,09,12,21,00,AAXX 12214 41933 01356 80000 10250 20240 30065 40074 76162 8672/ 333 58005 70078 83708 84616 88457==
41933,2022,09,13,00,00,AAXX 13004 41933 21356 80000 10248 20240 30055 40064 76166 8672/ 333 58006 60099 73708 84616 88457==
41933,2022,09,13,03,00,AAXX 13034 41933 01456 71202 10260 20250 30083 40091 72162 84510 333 20245 58018 70114 84618 87458==
41933,2022,09,13,06,00,AAXX 13064 41933 01340 81502 10250 20240 30083 40092 76162 8672/ 333 58022 70194 83708 84616 88457==
41933,2022,09,13,09,00,AAXX 13094 41933 01350 81602 10260 20250 30058 40067 76166 8672/ 333 58020 70246 83708 84615 88457==
41933,2022,09,13,12,00,AAXX 13124 41933 21350 81602 10258 20250 30056 40065 76166 8672/ 333 10274 58024 60089 70250 83708 84615 88457==
41933,2022,09,13,15,00,AAXX 13154 41933 01450 41602 10255 20250 30074 40083 70162 84500 333 58012 70258 84616==
41933,2022,09,13,18,00,AAXX 13184 41933 11450 71602 10250 20240 30079 40088 69986 70362 84520 333 58011 70208 84616 87458==
41933,2022,09,13,21,00,AAXX 13214 41933 01340 81602 10252 20250 30073 40082 76166 8672/ 333 58008 70248 83708 84615 88457==
41933,2022,09,14,00,00,AAXX 14004 41933 21350 81602 10252 20250 30070 40079 70262 8672/ 333 58015 60085 70254 83708 84616 88457==
41933,2022,09,14,15,00,AAXX 14154 41933 02450 60000 10259 20250 30078 40087 83510 333 58004 70260 83616 85458==
41933,2022,09,14,21,00,AAXX 14214 41933 02450 60000 10256 20250 30068 40077 82510 333 59005 70220 82616 85458==
41933,2022,09,15,03,00,AAXX 15034 41933 02450 61302 10281 20260 30075 40084 84520 333 20252 59011 70170 84616 86458==
41933,2022,09,15,06,00,AAXX 15064 41933 01450 81304 10272 20250 30068 40077 72122 8452/ 333 59012 70009 84616 88458==
41933,2022,09,15,09,00,AAXX 15094 41933 02456 61702 10300 20250 30035 40043 86430 333 59024 70004 83616 83827==
41933,2022,09,15,18,00,AAXX 15184 41933 42456 30000 10268 20260 30047 40056 83500 333 59034 83618==
41936,2022,09,09,00,00,AAXX 09004 41936 41/20 20000 10270 20060 30066 40073 70511 82030 333 59005 82362==
41936,2022,09,09,03,00,AAXX 09034 41936 41430 60803 10300 20280 30068 40075 70521 83830 333 20264 59011 82615 86362==
41936,2022,09,09,06,00,AAXX 09064 41936 41435 60903 10344 20260 30065 40072 70522 84830 333 59005 83615 86362==
41936,2022,09,09,09,00,AAXX 09094 41936 41330 70203 10308 20270 30035 40042 70592 84630 333 59008 81710 83615 86362==
41936,2022,09,09,12,00,AAXX 09124 41936 01330 70000 10302 20270 30040 40047 70529 85630 333 10352 59005 70000 83710 83615 86362==
41936,2022,09,09,15,00,AAXX 09154 41936 01330 70000 10290 20270 30059 40066 70522 85630 333 59007 70000 82710 83615 86362==
41936,2022,09,09,18,00,AAXX 09184 41936 01330 70000 10278 20250 30059 40066 70522 85630 333 59017 70000 82710 83615 86362==
41936,2022,09,09,21,00,AAXX 09214 41936 01330 60000 10268 20250 30048 40055 70522 84630 333 59018 70000 82615 85362==
41936,2022,09,10,00,00,AAXX 10004 41936 01420 60903 10270 20260 30043 40051 70511 83430 333 59022 70000 82615 85362==
41936,2022,09,10,06,00,AAXX 10064 41936 01440 61408 10330 20250 30056 40063 70522 82830 333 59009 70000 82615 85362==
41936,2022,09,10,09,00,AAXX 10094 41936 41340 71906 10330 20250 30024 40031 70562 83630 333 59011 83710 83615 85362==
41936,2022,09,10,12,00,AAXX 10124 41936 01330 60000 10284 20260 30030 40037 70596 82630 333 10334 59010 70080 82710 83615 85362==
41936,2022,09,10,15,00,AAXX 10154 41936 41430 60000 10270 20250 30052 40059 70522 82830 333 59007 82615 85362==
41936,2022,09,10,18,00,AAXX 10184 41936 01430 70000 10270 20250 30054 40061 70522 84630 333 59005 70080 81710 83615 85362==
41936,2022,09,10,21,00,AAXX 10214 41936 01430 70000 10270 20260 30042 40049 70522 84630 333 59006 70080 81710 83615 85362==
41936,2022,09,11,00,00,AAXX 11004 41936 01320 71403 10268 20250 30038 40045 70522 84630 333 59006 70080 83708 83615 86362==
41936,2022,09,11,06,00,AAXX 11064 41936 01340 61106 10310 20260 30043 40050 70566 84630 333 59023 70040 82710 83615 85362==
41936,2022,09,11,09,00,AAXX 11094 41936 01330 81409 10274 20250 30024 40031 76196 85630 333 58000 70140 83708 83615 87362==
41936,2022,09,11,12,00,AAXX 11124 41936 01330 81609 10274 20250 30015 40022 70569 84630 333 10314 59015 70020 82710 83615 87362==
41936,2022,09,11,15,00,AAXX 11154 41936 01330 70000 10272 20260 30039 40045 72166 85630 333 59014 70060 82710 83615 87362==
41936,2022,09,11,18,00,AAXX 11184 41936 01330 81603 10272 20260 30041 40049 76166 8672/ 333 59012 70050 83710 83615 87260==
41936,2022,09,11,21,00,AAXX 11214 41936 01330 70000 10268 20260 30031 40037 70566 85630 333 59012 70110 82710 83615 87362==
41936,2022,09,12,00,00,AAXX 12004 41936 01320 70000 10256 20250 30025 40032 76166 86720 333 59013 70020 83710 83615 87260==
41936,2022,09,12,03,00,AAXX 12034 41936 01320 81709 10266 20260 30047 40054 76166 86730 333 20244 59007 70090 84708 83615 87362==
41936,2022,09,12,06,00,AAXX 12064 41936 01325 81612 10260 20250 30041 40048 76166 86730 333 59002 70050 84707 83615 87362==
41936,2022,09,12,09,00,AAXX 12094 41936 01340 81606 10274 20250 30023 40030 70562 86630 333 59001 70110 84708 83615 87362==
41936,2022,09,12,12,00,AAXX 12124 41936 01330 81706 10266 20250 30017 40024 70522 86630 333 10278 58002 70010 84708 83615 87362==
41936,2022,09,12,15,00,AAXX 12154 41936 01330 81406 10266 20260 30043 40050 76162 86630 333 58005 70130 83615 87362==
41936,2022,09,12,18,00,AAXX 12184 41936 01325 81403 10264 20250 30049 40056 70566 85630 333 58007 70000 83708 83615 87362==
41936,2022,09,12,21,00,AAXX 12214 41936 01325 80000 10262 20250 30037 40044 70522 85630 333 58007 70080 83708 83615 87362==
41936,2022,09,13,00,00,AAXX 13004 41936 01916 81806 10260 20250 30036 40043 79592 86930 333 58011 70150 84707 83615 87362 81930==
41936,2022,09,13,03,00,AAXX 13034 41936 01310 82003 10260 20250 30058 40065 79599 86920 333 20250 58011 70340 84707 83615 87262 81930==
41936,2022,09,13,06,00,AAXX 13064 41936 01316 82206 10260 20250 30059 40066 76096 85620 333 58018 70180 83707 83615 87360==
41936,2022,09,13,09,00,AAXX 13094 41936 01330 81809 10282 20260 30039 40046 72169 8662/ 333 58016 70360 83710 83615 87260==
41936,2022,09,13,12,00,AAXX 13124 41936 01330 71712 10274 20260 30040 40047 70526 86630 333 10284 58033 70030 85707 83615 86362==
41936,2022,09,13,15,00,AAXX 13154 41936 01330 72003 10274 20260 30060 40067 70522 86630 333 58017 70360 82708 83615 86362==
41936,2022,09,13,18,00,AAXX 13184 41936 01330 71603 10270 20260 30063 40070 70522 85630 333 58014 70360 82710 83615 87362==
41936,2022,09,13,21,00,AAXX 13214 41936 01330 71603 10250 20240 30053 40060 70522 84630 333 58016 70360 82710 83615 87362==
41936,2022,09,14,06,00,AAXX 14064 41936 01320 81806 10266 20260 30076 40083 76166 8572/ 333 58017 70120 83708 83615 87260==
41936,2022,09,14,15,00,AAXX 14154 41936 01325 72103 10264 20240 30071 40078 70522 85630 333 58011 70160 82708 83615 85362==
41936,2022,09,15,09,00,AAXX 15094 41936 01440 42309 10318 20270 30030 40037 70522 82830 333 59013 70010 82615 84362==
41936,2022,09,15,18,00,AAXX 15184 41936 01430 60000 10274 20260 30038 40045 70529 84630 333 59035 70010 83710 83615 85362==
41939,2022,09,09,00,00,AAXX 09004 41939 02456 50000 10270 20250 30067 40075 83530 333 58012 70000 83617 83364==
41939,2022,09,09,03,00,AAXX 09034 41939 02459 80000 10290 20260 30079 40087 8352/ 333 59013 70000 83617 88459==
41939,2022,09,09,06,00,AAXX 09064 41939 02460 10000 10335 20260 30076 40084 81500 333 58000 70000 81618==
41939,2022,09,09,09,00,AAXX 09094 41939 02460 20000 10340 20270 30043 40051 81530 333 59007 70000 81618==
41939,2022,09,09,12,00,AAXX 09124 41939 02457 50000 10320 20270 30040 40048 82530 333 10350 59011 70000 82618 83365==
41939,2022,09,09,15,00,AAXX 09154 41939 02450 20000 10298 20270 30062 40069 82500 333 59010 70000 82618==
41939,2022,09,09,18,00,AAXX 09184 41939 02450 50000 10284 20260 30070 40078 83530 333 59008 70000 83618 83365==
41939,2022,09,09,21,00,AAXX 09214 41939 02450 20000 10280 20260 30067 40075 82530 333 59005 70000 82618==
41939,2022,09,10,00,00,AAXX 10004 41939 02456 40000 10270 20260 30062 40070 82530 333 59005 70000 82617 83363==
41939,2022,09,10,03,00,AAXX 10034 41939 02458 60000 10300 20270 30076 40084 83510 333 20265 59003 70000 83617 86459==
41939,2022,09,10,09,00,AAXX 10094 41939 01458 80000 10275 20260 30046 40054 70362 8352/ 333 58003 70628 83617 88459==
41939,2022,09,10,12,00,AAXX 10124 41939 11458 70000 10280 20260 30044 40052 60636 70162 83510 333 10335 58004 70628 83617 85459==
41939,2022,09,10,15,00,AAXX 10154 41939 02456 70000 10270 20260 30064 40072 83510 333 58002 70628 83617 85459==
41939,2022,09,10,18,00,AAXX 10184 41939 02456 50000 10267 20260 30074 40082 83530 333 58004 70628 83617 83364==
41939,2022,09,10,21,00,AAXX 10214 41939 02450 60000 10264 20250 30061 40069 83510 333 59006 70628 83618 85459==
41939,2022,09,11,00,00,AAXX 11004 41939 02456 80000 10260 20250 30053 40061 8352/ 333 59009 70628 83617 88459==
41939,2022,09,11,03,00,AAXX 11034 41939 02458 80000 10282 20260 30072 40080 8352/ 333 20253 59004 70628 83617 88459==
41939,2022,09,11,06,00,AAXX 11064 41939 01456 70000 10275 20260 30061 40069 76162 83510 333 58003 70110 83616 87459==
41939,2022,09,11,09,00,AAXX 11094 41939 01450 80000 10255 20250 30036 40044 76166 8351/ 333 59010 70264 83615 88459==
41939,2022,09,11,12,00,AAXX 11124 41939 21450 80000 10260 20250 30033 40041 53/// 70262 333 10330 60178 70274 83617 88459==
41939,2022,09,11,15,00,AAXX 11154 41939 02450 60000 10265 20260 30055 40063 83510 333 59009 70274 83617 86459==
41939,2022,09,11,18,00,AAXX 11184 41939 02450 60000 10265 20250 30064 40072 82530 333 59011 70274 82617 86459==
41939,2022,09,11,21,00,AAXX 11214 41939 01456 80000 10252 20240 30051 40059 76162 8352/ 333 59010 70354 83616 88459==
41939,2022,09,12,00,00,AAXX 12004 41939 21457 80000 10250 20240 30046 40054 70262 8352/ 333 59007 60419 70414 83617 88459==
41939,2022,09,12,03,00,AAXX 12034 41939 01458 80000 10253 20240 30071 40079 76166 8252/ 333 20245 59001 70764 82616 88459==
41939,2022,09,12,06,00,AAXX 12064 41939 21450 80000 10270 20260 30060 40068 76166 8351/ 333 59001 60369 70682 83615 88459==
41939,2022,09,12,09,00,AAXX 12094 41939 01456 80000 10268 20250 30035 40043 72166 8251/ 333 59001 70628 82616 88460==
41939,2022,09,12,12,00,AAXX 12124 41939 21456 80000 10263 20250 30036 40044 70262 8352/ 333 10282 58003 60108 70618 83617 88459==
41939,2022,09,12,15,00,AAXX 12154 41939 02450 80000 10260 20240 30045 40053 8352/ 333 59008 70618 83617 88459==
41939,2022,09,12,18,00,AAXX 12184 41939 02450 80000 10252 20240 30055 40063 8352/ 333 59009 70618 83617 88459==
41939,2022,09,12,21,00,AAXX 12214 41939 02450 80000 10267 20250 30059 40067 8352/ 333 58008 70538 83617 88459==
41939,2022,09,13,00,00,AAXX 13004 41939 02456 80000 10270 20250 30055 40063 8352/ 333 58009 70478 83618 88459==
41939,2022,09,13,03,00,AAXX 13034 41939 02456 80000 20250 30081 40089 8352/ 333 20248 58010 70128 83617 88459==
41939,2022,09,13,06,00,AAXX 13064 41939 21450 80000 10260 20250 30070 40078 76162 8352/ 333 58010 60377 70470 83615 88459==
41939,2022,09,13,09,00,AAXX 13094 41939 01450 80000 10253 20240 30059 40067 76166 8251/ 333 58024 70564 82615 88459==
41939,2022,09,13,12,00,AAXX 13124 41939 21458 80000 10255 20250 30053 40061 70266 8252/ 333 10275 58017 60249 70609 82617 88459==
41939,2022,09,13,15,00,AAXX 13154 41939 02456 70000 10252 20240 30072 40080 82510 333 58018 70609 82617 85459==
41939,2022,09,13,21,00,AAXX 13214 41939 02450 80000 10255 20250 30073 40081 8352/ 333 58014 70609 83617 88459==
41939,2022,09,14,00,00,AAXX 14004 41939 02456 80000 10260 20250 30071 40079 8352/ 333 58016 70609 83617 88459==
41939,2022,09,14,15,00,AAXX 14154 41939 02450 80000 10254 20240 30083 40091 8352/ 333 58011 70118 83617 88459==
41939,2022,09,14,21,00,AAXX 14214 41939 02356 80000 10256 20250 30071 40079 8372/ 333 59002 70318 82710 88459==
41939,2022,09,15,00,00,AAXX 15004 41939 21356 80000 10255 20250 30068 40076 72162 8372/ 333 59003 60429 70538 82710 88459==
41939,2022,09,15,03,00,AAXX 15034 41939 01457 80000 10263 20250 30085 40093 76162 8352/ 333 20248 59009 70568 83616 88459==
41939,2022,09,15,06,00,AAXX 15064 41939 21457 70000 10280 20260 30070 40078 70162 82510 333 59008 60058 70572 82617 87460==
41939,2022,09,15,09,00,AAXX 15094 41939 02458 10000 10300 20260 30038 40046 81500 333 59029 70552 81618==
41939,2022,09,15,18,00,AAXX 15184 41939 02450 60000 10270 20260 30056 40064 83510 333 59034 70472 83618 88459==
41941,2022,09,09,00,00,AAXX 09004 41941 01450 80903 10258 20250 30087 40092 72996 8692/ 333 58005 70020 85612 88456 81925==
41941,2022,09,09,03,00,AAXX 09034 41941 02456 60000 10300 20250 30095 40100 85420 333 20252 58003 70020 84616 86458==
41941,2022,09,09,06,00,AAXX 09064 41941 02456 70000 10345 20270 30081 40087 85420 333 59001 70020 84616 87458==
41941,2022,09,09,09,00,AAXX 09094 41941 02456 61403 10350 20270 30048 40052 85420 333 58014 70020 84616 86458==
41941,2022,09,09,12,00,AAXX 09124 41941 01450 80904 10310 20270 30050 40056 72162 8632/ 333 10355 58007 70010 85614 88456 81925==
41941,2022,09,09,15,00,AAXX 09154 41941 01440 80000 10284 20260 30073 40078 70262 8632/ 333 58020 70040 85614 88456 81925==
41941,2022,09,09,18,00,AAXX 09184 41941 21440 80000 10272 20260 30080 40085 71362 8632/ 333 58018 60017 70040 85616 88458 81930==
41941,2022,09,09,21,00,AAXX 09214 41941 01440 80000 10270 20270 30066 40072 71322 8632/ 333 58011 70040 85616 88458 81930==
41941,2022,09,10,00,00,AAXX 10004 41941 02450 80000 10274 20260 30070 40076 8632/ 333 59017 70020 85614 88457 81925==
41941,2022,09,10,03,00,AAXX 10034 41941 02456 70000 10315 20280 30082 40088 85420 333 20267 59013 70020 84616 87458==
41941,2022,09,10,06,00,AAXX 10064 41941 02440 80903 10320 20270 30072 40078 8632/ 333 59009 70020 85614 88457 81925==
41941,2022,09,10,09,00,AAXX 10094 41941 01440 81803 10276 20260 30075 40081 72996 8692/ 333 58029 70360 85614 88456 81925==
41941,2022,09,10,12,00,AAXX 10124 41941 21440 81803 10285 20280 30081 40086 70296 8632/ 333 10336 58031 60348 70350 85616 88458 81930==
41941,2022,09,10,15,00,AAXX 10154 41941 02440 71403 10275 20270 30074 40080 85420 333 58001 70340 84616 87458==
41941,2022,09,10,18,00,AAXX 10184 41941 02440 71403 10274 20270 30082 40088 85420 333 58002 70340 84616 87458==
41941,2022,09,10,21,00,AAXX 10214 41941 02440 70000 10273 20260 30072 40078 85420 333 58006 70340 84616 87458==
41941,2022,09,11,00,00,AAXX 11004 41941 01450 81403 10255 20255 30066 40072 72162 8632/ 333 59004 70010 85614 88456 81925==
41941,2022,09,11,03,00,AAXX 11034 41941 02450 80000 10280 20260 30078 40084 8632/ 333 20248 59004 70350 85614 88457 81925==
41941,2022,09,11,06,00,AAXX 11064 41941 21450 81803 10295 20260 30064 40070 72166 8632/ 333 59008 60029 70370 85614 88456 81925==
41941,2022,09,11,09,00,AAXX 11094 41941 02450 81802 10280 20260 30042 40048 8632/ 333 59033 70030 85614 88456 81925==
41941,2022,09,11,12,00,AAXX 11124 41941 02450 81802 10275 20260 30034 40040 8632/ 333 10301 59047 70030 85614 88457 81925==
41941,2022,09,11,15,00,AAXX 11154 41941 02440 81602 10270 20260 30058 40064 8632/ 333 59016 70030 85614 88457 81925==
41941,2022,09,11,18,00,AAXX 11184 41941 21440 81602 10255 20255 30063 40069 70262 8632/ 333 59019 60025 70050 85614 88457 81925==
41941,2022,09,11,21,00,AAXX 11214 41941 02440 80000 10253 20250 30059 40065 8632/ 333 59013 70050 85614 88457 81925==
41941,2022,09,12,00,00,AAXX 12004 41941 11450 81402 10250 20250 30057 40063 60066 76221 8632/ 333 59009 70100 85614 88457 81925==
41941,2022,09,12,03,00,AAXX 12034 41941 02456 81402 10265 20260 30076 40082 8632/ 333 20248 59002 70100 85615 88457 81925==
41941,2022,09,12,06,00,AAXX 12064 41941 02450 81602 10260 20260 30062 40068 8632/ 333 59002 70100 85614 88457 81925==
41941,2022,09,12,09,00,AAXX 12094 41941 01450 81603 10274 20250 30044 40050 72162 8632/ 333 58002 70110 85614 88457 81925==
41941,2022,09,12,12,00,AAXX 12124 41941 01450 81802 10265 20250 30040 40046 70262 8632/ 333 20286 58006 70010 85614 88457 81925==
41941,2022,09,12,15,00,AAXX 12154 41941 01440 80000 10258 20258 30063 40069 72162 8632/ 333 58005 70120 85614 88457 81925==
41941,2022,09,12,18,00,AAXX 12184 41941 21440 81402 10255 20255 30076 40082 72162 8632/ 333 58013 60015 70100 85614 88457 81925==
41941,2022,09,12,21,00,AAXX 12214 41941 02440 80000 10255 20255 30070 40076 8632/ 333 58011 70100 85614 88457 81925==
41941,2022,09,13,00,00,AAXX 13004 41941 21450 80000 10255 20255 30063 40068 72162 8632/ 333 58006 60025 70060 85614 88457 81925==
41941,2022,09,13,03,00,AAXX 13034 41941 01450 81402 10250 20250 30091 40097 76566 8632/ 333 20251 58015 70390 85614 88457 81925==
41941,2022,09,13,06,00,AAXX 13064 41941 21450 80903 10254 20250 30094 40100 76366 8632/ 333 58032 60479 70450 85612 88456 81925==
41941,2022,09,13,09,00,AAXX 13094 41941 01450 80000 10255 20255 30071 40077 72166 8632/ 333 58027 70570 85614 88457 81925==
41941,2022,09,13,12,00,AAXX 13124 41941 21450 80000 10255 20255 30061 40066 70266 8632/ 333 10257 58021 60137 70590 85614 88457 81925==
41941,2022,09,13,15,00,AAXX 13154 41941 01450 81403 10255 20250 30085 40091 71322 8632/ 333 58022 70580 85614 88457 81925==
41941,2022,09,13,18,00,AAXX 13184 41941 01440 81803 10255 20250 30081 40087 71322 8632/ 333 58005 70620 85616 88458 81930==
41941,2022,09,13,21,00,AAXX 13214 41941 02440 70000 10254 20250 30075 40081 85420 333 58004 70620 84616 87458==
41941,2022,09,14,00,00,AAXX 14004 41941 21450 80903 10255 20255 30086 40092 72166 8632/ 333 58023 60037 70610 85614 88456 81925==
41941,2022,09,14,15,00,AAXX 14154 41941 01440 81803 10256 20250 30083 40089 71322 8632/ 333 59002 70140 85616 88458 81930==
41941,2022,09,14,21,00,AAXX 14214 41941 01440 80000 10254 20240 30079 40085 71322 8632/ 333 58004 70140 85616 88458 81930==
41941,2022,09,15,03,00,AAXX 15034 41941 01440 80000 10250 20250 30097 40103 76366 8632/ 333 20205 59011 70150 85612 88456 81924==
41941,2022,09,15,06,00,AAXX 15064 41941 21450 80000 10265 20265 30068 40073 72166 8632/ 333 59020 60148 70190 85612 88456 81925==
41941,2022,09,15,09,00,AAXX 15094 41941 02456 61802 10285 20280 30042 40048 85420 333 59031 70140 84616 86458==
41941,2022,09,15,12,00,AAXX 15124 41941 02450 60000 10283 20260 30039 40045 85420 333 10305 59028 70140 84616 86458==
41941,2022,09,15,18,00,AAXX 15184 41941 02440 60000 10262 20260 30045 40051 85420 333 59039 70140 84616 86458==
41943,2022,09,09,00,00,AAXX 09004 41943 21430 50000 10250 20240 30065 40072 70162 83520 333 59009 60517 70510 83616 84458==
41943,2022,09,09,03,00,AAXX 09034 41943 02/40 41303 10300 20250 30071 40078 84030 333 20248 59008 70510 84362==
41943,2022,09,09,06,00,AAXX 09064 41943 02440 50000 10326 20270 30067 40074 83530 333 58005 70510 83616 84362==
41943,2022,09,09,09,00,AAXX 09094 41943 02440 50000 10330 20270 30033 40041 84430 333 59002 70510 83616 84362==
41943,2022,09,09,12,00,AAXX 09124 41943 01310 80504 10250 20250 30053 40060 79522 8792/ 333 10347 58016 70150 84708 84613 88456 81925==
41943,2022,09,09,15,00,AAXX 09154 41943 01320 80000 10252 20250 30070 40077 76396 8772/ 333 58014 71120 84708 84613 88456==
41943,2022,09,09,18,00,AAXX 09184 41943 21320 80000 10255 20250 30067 40074 70262 8662/ 333 58004 60478 71130 83709 84615 88456==
41943,2022,09,09,21,00,AAXX 09214 41943 02420 80000 10255 20250 30060 40067 8662/ 333 59007 71130 83710 84615 88458==
41943,2022,09,10,00,00,AAXX 10004 41943 02430 50000 10255 20250 30055 40062 82530 333 59009 70620 82618 84362==
41943,2022,09,10,06,00,AAXX 10064 41943 02440 50000 10330 20250 30065 40072 83430 333 59002 70620 82618 84362==
41943,2022,09,10,09,00,AAXX 10094 41943 01330 81802 10266 20260 30037 40044 76162 8672/ 333 58004 70720 83709 84614 88458==
41943,2022,09,10,15,00,AAXX 10154 41943 01330 82302 10260 20250 30067 40074 70262 8662/ 333 59003 70140 83710 84615 88458==
41943,2022,09,10,18,00,AAXX 10184 41943 11330 80000 10258 20250 30085 40090 60026 70262 8662/ 333 58016 70130 83710 84615 88458==
41943,2022,09,10,21,00,AAXX 10214 41943 02330 80000 10256 20250 30071 40079 8662/ 333 58011 70130 83710 84615 88458==
41943,2022,09,11,00,00,AAXX 11004 41943 01330 82302 10250 20240 30058 40066 76162 8772/ 333 58003 70010 83709 84614 88456==
41943,2022,09,11,06,00,AAXX 11064 41943 02330 81802 10290 20240 30065 40072 8662/ 333 58000 70150 83710 84615 88458==
41943,2022,09,11,09,00,AAXX 11094 41943 02440 72302 10300 20250 30037 40044 84520 333 58000 70050 84616 85458==
41943,2022,09,11,12,00,AAXX 11124 41943 01330 81802 10268 20260 30035 40042 76162 8672/ 333 10302 59006 70020 83709 84614 88456==
41943,2022,09,11,15,00,AAXX 11154 41943 01330 81802 10252 20240 30061 40069 76162 8772/ 333 59006 70170 83709 84614 88456==
41943,2022,09,11,18,00,AAXX 11184 41943 21330 81802 10250 20240 30067 40075 76162 8772/ 333 59016 60179 70210 83709 84614 88456==
41943,2022,09,11,21,00,AAXX 11214 41943 01330 81802 10248 20240 30060 40068 76162 8772/ 333 59011 70210 83710 84614 88458==
41943,2022,09,12,00,00,AAXX 12004 41943 21330 81802 10248 20240 30045 40055 76162 8772/ 333 59013 60039 70230 83709 84614 88456==
41943,2022,09,12,03,00,AAXX 12034 41943 01330 81802 10250 20230 30068 40076 76262 8772/ 333 20248 59002 70280 83709 84614 88456==
41943,2022,09,12,06,00,AAXX 12064 41943 21330 81304 10270 20240 30066 40074 70262 8662/ 333 58001 60078 70290 83710 84615 88458==
41943,2022,09,12,09,00,AAXX 12094 41943 02435 71802 10284 20240 30042 40050 84520 333 58005 70290 84616 86458==
41943,2022,09,12,12,00,AAXX 12124 41943 02330 81802 10250 20240 30036 40044 8662/ 333 10286 58001 70270 83710 84615 88458==
41943,2022,09,12,15,00,AAXX 12154 41943 02330 81802 10255 20240 30060 40068 8662/ 333 59001 70140 83710 84615 88458==
41943,2022,09,12,18,00,AAXX 12184 41943 02330 81803 10255 20250 30064 40072 8662/ 333 59003 70100 83710 84615 88458==
41943,2022,09,12,21,00,AAXX 12214 41943 01330 81802 10250 20230 30056 40063 70262 8772/ 333 59004 70450 83709 84614 88456==
41943,2022,09,13,00,00,AAXX 13004 41943 01330 81802 10245 20240 30056 40063 76162 8772/ 333 58011 70580 83709 84615 88456==
41943,2022,09,13,03,00,AAXX 13034 41943 01330 81802 10250 20240 30076 40083 76262 8772/ 333 20245 58008 70830 83709 84614 88456==
41943,2022,09,13,06,00,AAXX 13064 41943 21330 81802 10250 20240 30087 40094 76162 8772/ 333 58021 60349 70850 83709 84614 88456==
41943,2022,09,13,09,00,AAXX 13094 41943 01330 81803 10260 20240 30058 40065 76162 8772/ 333 58016 70860 83709 84614 88456==
41943,2022,09,13,12,00,AAXX 13124 41943 21330 81802 10257 20250 30056 40063 76162 8772/ 333 10270 58020 60029 70870 83709 84614 88456==
41943,2022,09,13,15,00,AAXX 13154 41943 01330 81802 10250 20240 30076 40083 76162 8772/ 333 58016 70880 83709 84614 88456==
41943,2022,09,13,18,00,AAXX 13184 41943 21330 80000 10248 20240 30076 40083 76162 8772/ 333 58012 60039 70900 83709 84614 88456==
41943,2022,09,13,21,00,AAXX 13214 41943 02330 80000 10250 20240 30071 40078 333 58015 70550 83709 84615 88456==
41943,2022,09,14,06,00,AAXX 14064 41943 02440 81802 10280 20240 30084 40092 8662/ 333 59003 70070 83710 84615 88458==
41943,2022,09,14,15,00,AAXX 14154 41943 02330 81802 10258 20240 30083 40090 8662/ 333 58007 70030 83710 84615 88458==
41943,2022,09,15,09,00,AAXX 15094 41943 01440 61802 10300 20250 30036 40044 70162 84420 333 59028 70290 83616 84458==
41943,2022,09,15,18,00,AAXX 15184 41943 02430 81802 10255 20250 30046 40054 8662/ 333 59043 70290 83710 84615 88458==
41946,2022,09,09,00,00,AAXX 09004 41946 02456 70000 10284 20270 30070 40074 83510 333 59005 70000 83618 86460==
41946,2022,09,09,03,00,AAXX 09034 41946 02456 70000 10308 20270 30074 40078 83510 333 20280 59008 70000 83618 86460==
41946,2022,09,09,06,00,AAXX 09064 41946 02/56 50000 10344 20260 30074 40078 85020 333 58001 70000 85459==
41946,2022,09,09,09,00,AAXX 09094 41946 02456 60501 10357 20260 30035 40040 84920 333 59007 70000 83618 86460 81928==
41946,2022,09,09,12,00,AAXX 09124 41946 21456 80000 10282 20250 30051 40055 71796 8592/ 333 10359 58001 60035 70034 83617 88459 81927==
41946,2022,09,09,15,00,AAXX 09154 41946 02/56 60000 10292 20270 30065 40069 86070 333 59012 70034 83459 84360==
41946,2022,09,09,18,00,AAXX 09184 41946 02556 60000 10292 20270 30067 40071 83510 333 59009 70034 83620 85459==
41946,2022,09,09,21,00,AAXX 09214 41946 02/56 50000 10288 20270 30060 40064 85050 333 59007 70034 85362==
41946,2022,09,10,00,00,AAXX 10004 41946 02556 60000 10284 20270 30053 40057 84430 333 59017 70034 83620 84362==
41946,2022,09,10,03,00,AAXX 10034 41946 02556 60000 10312 20260 30067 40071 84430 333 20272 59007 70034 83620 84362==
41946,2022,09,10,09,00,AAXX 10094 41946 02456 71803 10316 20260 30036 40040 84320 333 58001 70034 83618 85459 81929==
41946,2022,09,10,12,00,AAXX 10124 41946 02556 70000 10290 20260 30038 40042 84430 333 10335 59013 70000 83620 85362==
41946,2022,09,10,15,00,AAXX 10154 41946 02456 60000 10284 20250 30061 40065 83570 333 59004 70000 83618 84460==
41946,2022,09,10,18,00,AAXX 10184 41946 02456 50000 10281 20240 30062 40067 82530 333 59005 70000 82618 84362==
41946,2022,09,10,21,00,AAXX 10214 41946 01350 80000 10276 20250 30055 40060 76122 8572/ 333 59005 70050 82709 83617 88459==
41946,2022,09,11,00,00,AAXX 11004 41946 21456 61402 10268 20250 30046 40051 70162 83570 333 59007 60095 70088 83618 84460==
41946,2022,09,11,03,00,AAXX 11034 41946 02456 60000 10295 20260 30050 40055 82501 333 20252 59017 70088 82618 85080==
41946,2022,09,11,06,00,AAXX 11064 41946 01356 80000 10275 20270 30039 40044 76122 8472/ 333 59021 70040 81710 83617 88459==
41946,2022,09,11,09,00,AAXX 11094 41946 01456 70000 10278 20270 30025 40030 76166 84520 333 59011 70198 84618 87458==
41946,2022,09,11,12,00,AAXX 11124 41946 21350 80000 10263 20250 30017 40022 76166 8572/ 333 10300 59021 60159 70280 82709 84616 88457==
41946,2022,09,11,15,00,AAXX 11154 41946 01350 80000 10268 20260 30043 40048 76166 8572/ 333 59018 70350 82710 84617 88457==
41946,2022,09,11,18,00,AAXX 11184 41946 21350 80000 10267 20260 30041 40046 59021 70390 88457 333 60119==
41946,2022,09,11,21,00,AAXX 11214 41946 01350 80000 10264 20250 30036 40040 76166 8572/ 333 59019 70345 82709 84616 88457==
41946,2022,09,12,00,00,AAXX 12004 41946 21350 80000 10262 20250 30034 40038 76166 8572/ 333 59012 60029 70317 82709 84616 88457==
41946,2022,09,12,03,00,AAXX 12034 41946 01350 80000 10265 20250 30047 40051 76166 8572/ 333 20250 59003 70497 82710 84616 88457==
41946,2022,09,12,06,00,AAXX 12064 41946 21350 80000 10255 20250 30042 40046 76166 8572/ 333 58003 60339 70607 82710 84616 88457==
41946,2022,09,12,09,00,AAXX 12094 41946 01350 81801 10266 20260 30025 40029 76166 8572/ 333 58000 70561 81710 84617 88459==
41946,2022,09,12,12,00,AAXX 12124 41946 21450 80000 10262 20250 30024 40028 70262 8532/ 333 10268 58007 60028 70479 83617 88459 81927==
41946,2022,09,12,15,00,AAXX 12154 41946 01450 80000 10264 20250 30048 40052 76122 8452/ 333 58005 70491 84617 88458==
41946,2022,09,12,18,00,AAXX 12184 41946 01450 80000 10270 20260 30055 40059 76062 8552/ 333 58014 70389 85617 88457==
41946,2022,09,12,21,00,AAXX 12214 41946 01350 80000 10266 20260 30047 40051 76166 8572/ 333 58011 70424 82709 84616 88457==
41946,2022,09,13,00,00,AAXX 13004 41946 21350 80000 10263 20260 30043 40047 76166 8572/ 333 58013 60099 70464 82709 84616 88457==
41946,2022,09,13,03,00,AAXX 13034 41946 01350 80000 10264 20250 30064 40068 76166 8572/ 333 20243 58017 70610 82709 83617 88458==
41946,2022,09,13,06,00,AAXX 13064 41946 21350 80000 10260 20250 30061 40065 76166 8572/ 333 58019 60299 70424 82709 84617 88458==
41946,2022,09,13,09,00,AAXX 13094 41946 01450 80000 10268 20260 30045 40049 70262 8532/ 333 58020 70410 83617 88459 81927==
41946,2022,09,13,12,00,AAXX 13124 41946 21450 80000 10267 20260 30048 40052 70262 8532/ 333 10270 58024 60019 70410 83617 88459 81927==
41946,2022,09,13,15,00,AAXX 13154 41946 02456 60000 10262 20250 30067 40071 82520 333 58019 70398 82618 85460==
41946,2022,09,13,18,00,AAXX 13184 41946 02456 80000 10262 20260 30074 40078 8352/ 333 58019 70390 83618 88460==
41946,2022,09,13,21,00,AAXX 13214 41946 02456 80000 10264 20250 30067 40071 8352/ 333 58020 70350 83618 88460==
41946,2022,09,14,00,00,AAXX 14004 41946 02456 80000 10269 20260 30061 40065 8532/ 333 58018 70300 84617 88459 81927==
41946,2022,09,14,15,00,AAXX 14154 41946 02550 80000 10270 20260 30072 40076 8332/ 333 58005 70060 82825 88458 81929==
41946,2022,09,15,03,00,AAXX 15034 41946 01350 80000 10254 20240 30081 40085 76166 8573/ 333 20247 58002 70160 82709 84616 88457==
41946,2022,09,15,06,00,AAXX 15064 41946 21456 80000 10280 20260 30059 40063 70262 8451/ 333 59015 60108 70150 84618 88460==
41946,2022,09,15,09,00,AAXX 15094 41946 02456 61801 10292 20260 30039 40043 83530 333 59021 70150 83618 83362==
41946,2022,09,15,18,00,AAXX 15184 41946 02/56 50000 10277 20270 30046 40050 85010 333 59036 70150 85459==
41947,2022,09,09,00,00,AAXX 09004 41947 02450 80000 10280 20270 30060 40063 8352/ 333 59012 70000 83618 88459==
41947,2022,09,09,03,00,AAXX 09034 41947 02456 70000 10310 20260 30065 40068 83570 333 20275 59015 70000 83618 85459==
41947,2022,09,09,06,00,AAXX 09064 41947 02456 60000 10330 20250 30071 40074 82530 333 59005 70000 82618 84362==
41947,2022,09,09,09,00,AAXX 09094 41947 02456 60000 10347 20260 30032 40034 82530 333 59010 70000 82618 84362==
41947,2022,09,09,12,00,AAXX 09124 41947 01350 81404 10272 20250 30059 40061 79596 8432/ 333 10350 58012 70090 83617 88458 81925==
41947,2022,09,09,15,00,AAXX 09154 41947 01450 50000 10270 20260 30069 40071 70196 83570 333 59008 70130 83618 84458==
41947,2022,09,09,18,00,AAXX 09184 41947 11450 50000 10272 20260 30065 40067 60046 70296 83570 333 59005 70130 83618 84458==
41947,2022,09,09,21,00,AAXX 09214 41947 02450 30000 10278 20260 30062 40064 83500 333 59003 70130 83618==
41947,2022,09,10,00,00,AAXX 10004 41947 02456 20000 10282 20260 30058 40060 82500 333 59003 70130 82618==
41947,2022,09,10,03,00,AAXX 10034 41947 02456 60000 10310 20260 30068 40071 86400 333 20255 58003 70000 83618 83820==
41947,2022,09,10,09,00,AAXX 10094 41947 02456 61807 10314 20250 30036 40038 83570 333 58004 70130 83618 85458==
41947,2022,09,10,12,00,AAXX 10124 41947 02456 61804 10292 20250 30039 40041 83570 333 10332 59020 70040 83618 85458==
41947,2022,09,10,15,00,AAXX 10154 41947 02450 31802 10282 20260 30062 40064 83500 333 59007 70000 83618==
41947,2022,09,10,18,00,AAXX 10184 41947 02450 61802 10278 20260 30065 40067 83570 333 58000 70000 83618 85458==
41947,2022,09,10,21,00,AAXX 10214 41947 02450 61803 10275 20260 30060 40062 83570 333 58000 70000 83618 85458==
41947,2022,09,11,00,00,AAXX 11004 41947 02450 81803 10265 20250 30052 40054 8352/ 333 59006 70000 83618 88458==
41947,2022,09,11,03,00,AAXX 11034 41947 02450 81803 10280 20250 30054 40057 8352/ 333 20258 59014 70000 83618 88458==
41947,2022,09,11,06,00,AAXX 11064 41947 01350 81803 10282 20260 30048 40051 76162 8472/ 333 59007 70002 81709 83617 88458==
41947,2022,09,11,09,00,AAXX 11094 41947 01340 80903 10260 20250 30034 40037 76166 8572/ 333 59001 70182 83708 84614 88459==
41947,2022,09,11,12,00,AAXX 11124 41947 21340 80000 10265 20260 30023 40026 76166 8572/ 333 10305 59016 60299 70292 83618 83825 88459==
41947,2022,09,11,15,00,AAXX 11154 41947 01330 81302 10268 20250 30044 40046 76166 8532/ 333 59018 70307 83618 83825 88459==
41947,2022,09,11,18,00,AAXX 11184 41947 21330 80000 10265 20260 30048 40050 76166 8572/ 333 59017 60099 70378 83708 84614 88459==
41947,2022,09,11,21,00,AAXX 11214 41947 01330 80000 10260 20250 30034 40037 76166 8572/ 333 59025 70428 83708 84614 88459==
41947,2022,09,12,00,00,AAXX 12004 41947 21330 80000 10258 20250 30025 40028 76166 8572/ 333 59026 60109 70478 83708 83614 88459==
41947,2022,09,12,03,00,AAXX 12034 41947 01350 80000 10256 20256 30054 40056 76166 8672/ 333 20250 58002 70527 82708 84615 88458==
41947,2022,09,12,06,00,AAXX 12064 41947 21350 80000 10258 20250 30050 40053 76166 8672/ 333 58002 60179 70643 82709 84615 88458==
41947,2022,09,12,09,00,AAXX 12094 41947 01350 81304 10264 20250 30025 40027 76166 8672/ 333 59010 70503 83709 84614 88458==
41947,2022,09,12,12,00,AAXX 12124 41947 01350 81302 10262 20250 30024 40026 76062 8572/ 333 10264 58001 70399 82709 84614 88458==
41947,2022,09,12,15,00,AAXX 12154 41947 02350 80000 10268 20260 30050 40052 8562/ 333 58006 70384 82710 84616 88458==
41947,2022,09,12,18,00,AAXX 12184 41947 22350 80000 10270 20260 30058 40060 8572/ 333 58010 60017 70328 82709 84615 88458==
41947,2022,09,12,21,00,AAXX 12214 41947 02450 70000 10270 20260 30050 40052 83510 333 58015 70278 83618 87459==
41947,2022,09,13,00,00,AAXX 13004 41947 02456 71302 10270 20260 30044 40046 83570 333 58018 70228 83618 85459==
41947,2022,09,13,03,00,AAXX 13034 41947 01350 80000 10262 20260 30059 40062 76166 8672/ 333 20248 58006 70434 82709 84615 88458==
41947,2022,09,13,06,00,AAXX 13064 41947 21350 80000 10261 20260 30067 40070 76166 8672/ 333 58017 60359 70406 82709 84615 88458==
41947,2022,09,13,09,00,AAXX 13094 41947 01350 81803 10265 20260 30055 40057 76162 8572/ 333 58030 70506 82709 84616 88458==
41947,2022,09,13,12,00,AAXX 13124 41947 21350 81804 10264 20250 30054 40056 70266 8572/ 333 10265 58030 60148 70500 82709 84616 88458==
41947,2022,09,13,15,00,AAXX 13154 41947 02450 80000 10270 20260 30050 40052 83570 333 58021 70500 83618 85458==
41947,2022,09,13,18,00,AAXX 13184 41947 02450 80000 10270 20250 30086 40088 8352/ 333 58028 70486 83618 88458==
41947,2022,09,13,21,00,AAXX 13214 41947 02450 80000 10270 20260 30064 40066 8352/ 333 58014 70486 83618 88458==
41947,2022,09,14,15,00,AAXX 14154 41947 02450 80000 10270 20260 30071 40073 8452/ 333 58007 70162 84616 88458==
41947,2022,09,14,21,00,AAXX 14214 41947 01350 80000 10260 20260 30073 40075 79596 8632/ 333 58009 70512 82708 84615 88458 81930==
41947,2022,09,15,03,00,AAXX 15034 41947 01350 80000 10250 20250 30071 40074 76166 8572/ 333 20245 59016 71374 82708 84615 88458==
41947,2022,09,15,06,00,AAXX 15064 41947 21450 80000 10280 20260 30063 40066 70262 8452/ 333 59015 60118 71408 84617 88458==
41947,2022,09,15,09,00,AAXX 15094 41947 02456 72102 10300 20250 30044 40046 83570 333 59014 71408 83618 85459==
41947,2022,09,15,18,00,AAXX 15184 41947 02450 60000 10277 20260 30054 40056 82570 333 59024 71408 82618 85459==
41947,2022,09,15,21,00,AAXX 15214 41947 02450 60000 10260 20250 30044 40046 83570 333 59019 71058 83618 85459==
41950,2022,09,09,00,00,AAXX 09004 41950 02350 70000 10265 20250 30066 40068 85610 333 59011 70000 82708 84616 87459==
41950,2022,09,09,03,00,AAXX 09034 41950 02450 40000 10305 20270 30079 40081 83530 333 20264 59011 70000 83616==
41950,2022,09,09,06,00,AAXX 09064 41950 02450 50000 10337 20260 30081 40084 84430 333 58004 70000 83616==
41950,2022,09,09,09,00,AAXX 09094 41950 01340 60000 10310 20260 30042 40045 79522 85911 333 59008 70004 81708 84616 86459 81928==
41950,2022,09,09,12,00,AAXX 09124 41950 21350 70000 10278 20270 30054 40056 70396 85371 333 10353 58004 69945 70004 82708 84616 86459 81928==
41950,2022,09,09,15,00,AAXX 09154 41950 02350 80000 10286 20280 30072 40074 8562/ 333 58001 70004 82708 84616 88458==
41950,2022,09,09,18,00,AAXX 09184 41950 02350 80000 10287 20270 30074 40076 8562/ 333 58002 70004 82708 84616 88458==
41950,2022,09,09,21,00,AAXX 09214 41950 02350 80000 10281 20260 30059 40061 8562/ 333 59007 70004 82708 84616 88458==
41950,2022,09,10,00,00,AAXX 10004 41950 02350 80000 10278 20260 30062 40064 8562/ 333 59004 70004 82708 84616 88458==
41950,2022,09,10,06,00,AAXX 10064 41950 02456 51503 10330 20250 30066 40069 85401 333 59015 70004 84616==
41950,2022,09,10,09,00,AAXX 10094 41950 02350 41402 10310 20250 30042 40045 85371 333 58000 70000 82708 84616 86459 81928==
41950,2022,09,10,15,00,AAXX 10154 41950 02350 70000 10282 20250 30069 40071 84610 333 59003 70000 82708 83616 87459==
41950,2022,09,10,18,00,AAXX 10184 41950 02350 80000 10277 20260 30078 40080 8562/ 333 58004 70000 82708 84646 88458==
41950,2022,09,10,21,00,AAXX 10214 41950 02350 80000 10255 20250 30051 40053 8562/ 333 59008 70000 82708 84616 88458==
41950,2022,09,11,00,00,AAXX 11004 41950 01340 80000 10255 20250 30051 40053 76162 8572/ 333 59011 70020 82708 84616 88458==
41950,2022,09,11,06,00,AAXX 11064 41950 01340 81504 10273 20250 30065 40067 76165 8672/ 333 59001 70072 82707 85615 88458==
41950,2022,09,11,09,00,AAXX 11094 41950 01330 80902 10250 20250 30037 40040 76166 8672/ 333 59005 70632 82708 84616 88458==
41950,2022,09,11,12,00,AAXX 11124 41950 21350 81202 10265 20260 30031 40033 70262 8662/ 333 10285 59013 60568 70632 82708 84616 88458==
41950,2022,09,11,15,00,AAXX 11154 41950 02350 80000 10262 20260 30059 40062 8562/ 333 59010 70632 82708 84616 88458==
41950,2022,09,11,18,00,AAXX 11184 41950 01340 80000 10260 20260 30059 40062 76162 8572/ 333 59017 70010 82708 84616 88458==
41950,2022,09,11,21,00,AAXX 11214 41950 01350 80000 10250 20250 30047 40050 70262 8562/ 333 59004 70671 82708 84616 88458==
41950,2022,09,12,00,00,AAXX 12004 41950 01340 80000 10247 20247 30043 40046 76162 8672/ 333 59018 70666 83707 84616 88458==
41950,2022,09,12,03,00,AAXX 12034 41950 01330 80000 10256 20256 30069 40071 76166 8672/ 333 20244 59001 70716 82708 84616 88458==
41950,2022,09,12,06,00,AAXX 12064 41950 21330 80000 10264 20250 30062 40065 76166 8672/ 333 59003 60109 70718 82708 84616 88458==
41950,2022,09,12,09,00,AAXX 12094 41950 01330 81802 10258 20250 30038 40041 76166 8672/ 333 58001 70212 82708 84616 88458==
41950,2022,09,12,12,00,AAXX 12124 41950 21330 81802 10257 20250 30040 40042 76166 8672/ 333 10278 58009 60089 70238 82708 84616 88458==
41950,2022,09,12,15,00,AAXX 12154 41950 01340 80000 10258 20258 30064 40066 76166 8572/ 333 58005 70246 82708 84615 88458==
41950,2022,09,12,18,00,AAXX 12184 41950 21340 80000 10258 20258 30069 40071 75165 8572/ 333 58008 60019 70240 82708 84615 88458==
41950,2022,09,12,21,00,AAXX 12214 41950 01350 80000 10259 20259 30056 40058 70252 8562/ 333 58009 70213 82708 84616 88458==
41950,2022,09,13,00,00,AAXX 13004 41950 01340 80000 10264 20260 30061 40063 79165 8632/ 333 58018 70263 82708 85615 88458 81928==
41950,2022,09,13,03,00,AAXX 13034 41950 01330 80000 10254 20250 30081 40083 76196 8672/ 333 20248 58012 70437 82708 84616 88458==
41950,2022,09,13,06,00,AAXX 13064 41950 21330 80000 10258 20258 30088 40091 76196 8672/ 333 58026 60329 70523 82708 84616 88458==
41950,2022,09,13,09,00,AAXX 13094 41950 01330 80000 10252 20250 30069 40071 76166 8672/ 333 58031 70597 82708 84616 88458==
41950,2022,09,13,12,00,AAXX 13124 41950 21340 80000 10254 20240 30059 40061 72166 8562/ 333 10262 58019 60209 70601 82708 84616 88458==
41950,2022,09,13,15,00,AAXX 13154 41950 01350 80000 10256 20256 30079 40081 70266 8562/ 333 58015 70603 82708 84616 88458==
41950,2022,09,13,18,00,AAXX 13184 41950 11350 80000 10255 20255 30083 40085 69966 70262 8562/ 333 58014 70595 82708 84616 88458==
41950,2022,09,13,21,00,AAXX 13214 41950 02350 80000 10255 20255 30079 40081 8562/ 333 58023 70594 82708 84616 88458==
41950,2022,09,14,00,00,AAXX 14004 41950 01350 80000 10255 20255 30069 40071 70262 8562/ 333 58008 70010 82708 84616 88458==
41950,2022,09,14,06,00,AAXX 14064 41950 21350 80000 10288 20250 30092 40094 70262 8562/ 333 58004 60018 70227 82708 84616 88458==
41950,2022,09,14,15,00,AAXX 14154 41950 02450 20000 10253 20240 30088 40091 82500 333 58009 70029 82616==
41950,2022,09,15,09,00,AAXX 15094 41950 02450 50000 10307 20250 30043 40046 84401 333 59028 70075 83617==
41950,2022,09,15,18,00,AAXX 15184 41950 02350 70000 10264 20250 30054 40057 85670 333 59036 70075 82708 84616 86459==
41951,2022,09,09,00,00,AAXX 09004 41951 01456 20000 10266 20260 30063 40067 70162 82500 333 59009 70002 82618==
41951,2022,09,09,03,00,AAXX 09034 41951 02440 80502 10302 20270 30073 40078 8452/ 333 20260 59008 70002 84618 88459==
41951,2022,09,09,06,00,AAXX 09064 41951 02450 71802 10327 20280 30071 40076 83510 333 59001 70002 83618 86459==
41951,2022,09,09,09,00,AAXX 09094 41951 02456 52402 10310 20260 30039 40044 82510 333 59005 70002 82618 84459==
41951,2022,09,09,12,00,AAXX 09124 41951 01440 80000 10286 20280 30046 40051 70362 8452/ 333 10344 58003 70002 84618 88458==
41951,2022,09,09,15,00,AAXX 09154 41951 02440 80000 10284 20270 30071 40076 8452/ 333 58002 70004 84618 88458==
41951,2022,09,09,18,00,AAXX 09184 41951 02440 80000 10282 20270 30068 40073 8452/ 333 59001 70004 84618 88458==
41951,2022,09,09,21,00,AAXX 09214 41951 02440 80000 10284 20260 30060 40065 8452/ 333 59003 70004 84618 88458==
41951,2022,09,10,00,00,AAXX 10004 41951 21440 80000 10270 20260 30057 40061 70262 8452/ 333 59006 69935 70005 84618 88458==
41951,2022,09,10,03,00,AAXX 10034 41951 02456 61304 10322 20260 30070 40075 83510 333 20260 59003 70005 83618 85459==
41951,2022,09,10,06,00,AAXX 10064 41951 02456 60806 10336 20270 30059 40064 83510 333 59012 70005 83618 85459==
41951,2022,09,10,09,00,AAXX 10094 41951 02450 71308 10305 20260 30044 40049 83510 333 58005 70005 83618 85459==
41951,2022,09,10,12,00,AAXX 10124 41951 02440 82202 10292 20250 30042 40047 8452/ 333 10344 59004 70003 84618 88459==
41951,2022,09,10,15,00,AAXX 10154 41951 01340 80803 10276 20270 30069 40073 72162 8562/ 333 59002 70005 81708 84618 88458==
41951,2022,09,10,18,00,AAXX 10184 41951 01340 81302 10268 20260 30075 40079 72162 8662/ 333 58007 70012 82706 84616 88458==
41951,2022,09,10,21,00,AAXX 10214 41951 01330 81302 10257 20257 30052 40056 76162 8672/ 333 59008 70029 82706 84616 88458==
41951,2022,09,11,00,00,AAXX 11004 41951 02330 81302 10250 20250 30048 40053 8672/ 333 59009 70129 82706 84616 88458==
41951,2022,09,11,03,00,AAXX 11034 41951 01340 81302 10274 20260 30063 40068 72162 8662/ 333 20245 59007 70152 82706 84616 88458==
41951,2022,09,11,06,00,AAXX 11064 41951 01340 81308 10295 20270 30057 40062 70262 8662/ 333 59002 70175 82706 84616 88458==
41951,2022,09,11,09,00,AAXX 11094 41951 01330 81802 10270 20270 30036 40041 76166 8672/ 333 59008 70468 82706 84616 88458==
41951,2022,09,11,12,00,AAXX 11124 41951 21330 81502 10272 20250 30026 40031 70262 8662/ 333 10297 59016 60298 70468 82706 84616 88482==
41951,2022,09,11,15,00,AAXX 11154 41951 01340 81503 10267 20260 30062 40067 72162 8662/ 333 59007 70476 82706 84616 88458==
41951,2022,09,11,18,00,AAXX 11184 41951 01340 80802 10265 20260 30060 40065 70262 8662/ 333 59015 70479 82706 84616 88458==
41951,2022,09,11,21,00,AAXX 11214 41951 02340 80000 10260 20260 30054 40059 8662/ 333 58002 70455 82708 84618 88459==
41951,2022,09,12,00,00,AAXX 12004 41951 21330 80000 10250 20250 30046 40051 76162 8672/ 333 59002 60057 70398 82706 84616 88458==
41951,2022,09,12,03,00,AAXX 12034 41951 01330 81503 10282 20260 30060 40065 70262 8662/ 333 20245 59003 70380 82706 84616 88458==
41951,2022,09,12,06,00,AAXX 12064 41951 21330 81105 10270 20260 30062 40067 76066 8672/ 333 58005 60039 70379 82706 84616 88458==
41951,2022,09,12,09,00,AAXX 12094 41951 01330 81503 10262 20250 30036 40041 76062 8672/ 333 58000 70101 82706 84616 88458==
41951,2022,09,12,12,00,AAXX 12124 41951 01330 81502 10254 20240 30035 40040 76262 8672/ 333 10284 58009 70137 82706 84616 88458==
41951,2022,09,12,15,00,AAXX 12154 41951 01340 81502 10262 20260 30062 40067 72166 8662/ 333 58000 70150 82706 84616 88458==
41951,2022,09,12,18,00,AAXX 12184 41951 01340 81302 10260 20260 30068 40073 72162 8662/ 333 58008 70165 82706 84616 88458==
41951,2022,09,12,21,00,AAXX 12214 41951 01330 80000 10260 20260 30063 40068 72166 8662/ 333 58009 70173 82706 84616 88458==
41951,2022,09,13,00,00,AAXX 13004 41951 21330 80000 10264 20260 30059 40064 70262 8662/ 333 58013 60017 70127 82706 84616 88458==
41951,2022,09,13,03,00,AAXX 13034 41951 01330 80000 10252 20250 30082 40087 76562 8672/ 333 20245 58022 70578 82706 84616 88458==
41951,2022,09,13,06,00,AAXX 13064 41951 21330 81503 10252 20250 30079 40084 76562 8672/ 333 58017 60719 70813 82706 84616 88458==
41951,2022,09,13,09,00,AAXX 13094 41951 01330 82103 10257 20257 30065 40070 76166 8672/ 333 58029 70921 82706 84616 88458==
41951,2022,09,13,12,00,AAXX 13124 41951 21330 80000 10253 20250 30052 40057 70262 8662/ 333 10260 58017 60148 70898 82706 84616 88458==
41951,2022,09,13,15,00,AAXX 13154 41951 01330 80000 10257 20257 30076 40081 70262 8662/ 333 58014 70881 82706 84616 88458==
41951,2022,09,13,18,00,AAXX 13184 41951 11330 81302 10260 20260 30084 40089 69946 70262 8662/ 333 58016 70861 82706 84616 88458==
41951,2022,09,13,21,00,AAXX 13214 41951 02335 80000 10255 20255 30076 40081 8662/ 333 58013 70853 82706 84616 88458==
41951,2022,09,14,15,00,AAXX 14154 41951 02456 20000 10252 20250 30085 40090 82500 333 58009 70019 82618==
41951,2022,09,14,21,00,AAXX 14214 41951 02335 80000 10260 20260 30076 40081 8562/ 333 58000 70019 81708 84616 88459==
41951,2022,09,15,03,00,AAXX 15034 41951 01330 80000 10253 20250 30081 40086 76262 8672/ 333 20248 59008 70317 82706 84616 88458==
41951,2022,09,15,06,00,AAXX 15064 41951 11340 81802 10298 20260 30068 40073 60142 70262 8662/ 333 59018 70317 82706 84616 88458==
41951,2022,09,15,09,00,AAXX 15094 41951 02456 62402 10328 20250 30038 40043 83510 333 59031 70317 83618 85459==
41951,2022,09,15,18,00,AAXX 15184 41951 02450 60000 10268 20260 30052 40057 83510 333 59035 70312 83618 85459==
41951,2022,09,15,21,00,AAXX 15214 41951 02450 50000 10266 20266 30046 40051 82510 333 59030 70312 82618 84459==
41953,2022,09,09,00,00,AAXX 09004 41953 11450 30502 10255 20255 30069 40074 60116 70162 82500 333 59009 70110 82618==
41953,2022,09,09,03,00,AAXX 09034 41953 02450 41302 10324 20270 30077 40082 84400 333 20250 59012 70110 82618 83825==
41953,2022,09,09,06,00,AAXX 09064 41953 02450 40000 10330 20270 30075 40080 84400 333 58000 70110 82616 83825==
41953,2022,09,09,09,00,AAXX 09094 41953 02450 40000 10340 20280 30042 40047 84400 333 59001 70110 82616 83825==
41953,2022,09,09,12,00,AAXX 09124 41953 11440 80000 10280 20260 30051 40056 60016 70362 8352/ 333 10350 58004 70120 83616 88458==
41953,2022,09,09,15,00,AAXX 09154 41953 01440 80000 10260 20250 30078 40083 76166 8452/ 333 58006 70130 84615 88458==
41953,2022,09,09,18,00,AAXX 09184 41953 21440 80000 10265 20260 30074 40079 70262 8452/ 333 58000 60018 70130 84616 88458==
41953,2022,09,09,21,00,AAXX 09214 41953 02440 80000 10260 20250 30065 40070 8452/ 333 58001 70020 84616 88458==
41953,2022,09,10,00,00,AAXX 10004 41953 02440 80000 10270 20260 30064 40069 8352/ 333 59005 70020 83616 88458==
41953,2022,09,10,03,00,AAXX 10034 41953 02450 50000 10322 20270 30077 40082 85400 333 20260 58000 70020 82616 83825==
41953,2022,09,10,09,00,AAXX 10094 41953 01450 81303 10295 20270 30044 40049 70262 8352/ 333 58002 70060 83616 88458==
41953,2022,09,10,12,00,AAXX 10124 41953 11450 80000 10285 20270 30049 40054 60046 70262 8352/ 333 10325 59002 70050 83616 88458==
41953,2022,09,10,15,00,AAXX 10154 41953 01440 81303 10262 20262 30075 40080 76166 8352/ 333 59003 70070 83615 88458==
41953,2022,09,10,18,00,AAXX 10184 41953 21440 80000 10260 20250 30083 40088 72166 8352/ 333 58009 60109 70140 83616 88458==
41953,2022,09,10,21,00,AAXX 10214 41953 02440 80000 10260 20250 30075 40080 8352/ 333 58010 70140 83616 88458==
41953,2022,09,11,00,00,AAXX 11004 41953 21440 80000 10252 20250 30059 40064 76162 8352/ 333 59005 60147 70280 83615 88458==
41953,2022,09,11,03,00,AAXX 11034 41953 01440 80000 10260 20250 30077 40082 76166 8352/ 333 20250 58000 70300 83615 88458==
41953,2022,09,11,06,00,AAXX 11064 41953 21450 51303 10315 20270 30070 40075 70162 83420 333 59007 60028 70300 82616 85458==
41953,2022,09,11,09,00,AAXX 11094 41953 02450 81803 10295 20260 30045 40050 8352/ 333 58001 70260 83616 88458==
41953,2022,09,11,12,00,AAXX 11124 41953 01450 81803 10262 20260 30038 40043 70262 8352/ 333 10320 59011 70030 83616 88458==
41953,2022,09,11,15,00,AAXX 11154 41953 01440 81304 10260 20260 30069 40074 72122 8352/ 333 59006 70270 83616 88458==
41953,2022,09,11,18,00,AAXX 11184 41953 11440 81303 10255 20250 30068 40073 60016 70262 8352/ 333 59015 70200 83616 88458==
41953,2022,09,11,21,00,AAXX 11214 41953 02440 81303 10255 20250 30065 40070 8352/ 333 59010 70200 83616 88458==
41953,2022,09,12,00,00,AAXX 12004 41953 01440 81304 10252 20250 30053 40058 76162 8352/ 333 59006 70050 83615 88458==
41953,2022,09,12,03,00,AAXX 12034 41953 01440 81303 10260 20260 30072 40077 76166 8352/ 333 20250 59005 70140 83615 88458==
41953,2022,09,12,06,00,AAXX 12064 41953 21440 80000 10270 20260 30071 40076 76166 8452/ 333 58001 60169 70250 84614 88458==
41953,2022,09,12,09,00,AAXX 12094 41953 01440 80000 10262 20250 30047 40052 76166 8452/ 333 58002 70270 84614 88458==
41953,2022,09,12,12,00,AAXX 12124 41953 21440 80000 10252 20250 30043 40048 72166 8452/ 333 10272 58005 60049 70260 84615 88458==
41953,2022,09,12,15,00,AAXX 12154 41953 02420 81304 10256 20250 30072 40077 8452/ 333 58003 70250 84615 88458==
41953,2022,09,12,18,00,AAXX 12184 41953 01420 80000 10250 20250 30072 40077 76162 8452/ 333 58004 70190 84615 88458==
41953,2022,09,12,21,00,AAXX 12214 41953 01420 81303 10256 20250 30068 40073 70266 8452/ 333 58003 70460 84615 88458==
41953,2022,09,13,00,00,AAXX 13004 41953 11440 81304 10260 20260 30069 40074 60026 70262 8452/ 333 58016 70410 84615 88458==
41953,2022,09,13,03,00,AAXX 13034 41953 01440 81305 10262 20260 30092 40097 76166 8452/ 333 20245 58020 70410 84614 88458==
41953,2022,09,13,06,00,AAXX 13064 41953 21440 81304 10246 20246 30089 40094 76166 8552/ 333 58018 60519 70760 85614 88456==
41953,2022,09,13,09,00,AAXX 13094 41953 01440 81302 10244 20244 30063 40068 76166 8452/ 333 58016 70790 84615 88458==
41953,2022,09,13,12,00,AAXX 13124 41953 21430 80000 10246 20246 30064 40069 76166 8452/ 333 10258 58021 60109 70820 84614 88457==
41953,2022,09,13,15,00,AAXX 13154 41953 01430 71302 10250 20250 30081 40086 70162 83510 333 58009 70840 83616 86458==
41953,2022,09,13,18,00,AAXX 13184 41953 02430 81301 10248 20248 30080 40085 8352/ 333 58015 70650 83616 88458==
41953,2022,09,13,21,00,AAXX 13214 41953 01430 80000 10252 20250 30071 40076 70262 8452/ 333 58003 70660 84615 88458==
41953,2022,09,14,15,00,AAXX 14154 41953 02440 61304 10256 20250 30092 40097 83520 333 58011 70030 83616 85458==
41953,2022,09,14,21,00,AAXX 14214 41953 02430 80000 10256 20250 30091 40097 8352/ 333 58020 70000 83616 88458==
41953,2022,09,15,03,00,AAXX 15034 41953 02440 82308 10280 20260 30087 40092 8452/ 333 20254 59015 70000 84615 88458==
41953,2022,09,15,06,00,AAXX 15064 41953 21450 72303 10298 20260 30073 40078 70162 83510 333 59022 60025 70020 83616 86458==
41953,2022,09,15,09,00,AAXX 15094 41953 02450 60000 10320 20260 30039 40044 84410 333 59033 70020 83616 85458==
41953,2022,09,15,18,00,AAXX 15184 41953 02930 00000 10262 20250 30057 40062 333 59031 70020==
41960,2022,09,09,00,00,AAXX 09004 41960 21440 53601 10287 20270 30069 40071 70562 84470 333 59011 69945 70004 82618 83460==
41960,2022,09,09,03,00,AAXX 09034 41960 02450 71201 10318 20270 30080 40082 85410 333 20283 59003 70004 83617 83822 87459==
41960,2022,09,09,06,00,AAXX 09064 41960 02458 60000 10344 20280 30079 40081 84410 333 59003 70004 83618 86459==
41960,2022,09,09,09,00,AAXX 09094 41960 02458 61803 10345 20300 30048 40050 86400 333 58003 70004 83618 83823==
41960,2022,09,09,12,00,AAXX 09124 41960 02450 70000 10305 20290 30057 40059 84510 333 10350 58004 70004 84617 87459==
41960,2022,09,09,15,00,AAXX 09154 41960 02440 60000 10295 20280 30075 40077 84510 333 59004 70004 84617 86459==
41960,2022,09,09,18,00,AAXX 09184 41960 02440 60000 10290 20280 30072 40074 84510 333 59003 70004 84617 86459==
41960,2022,09,09,21,00,AAXX 09214 41960 02440 60000 10285 20280 30067 40069 84410 333 59004 70000 83618 86459==
41960,2022,09,10,00,00,AAXX 10004 41960 02440 60000 10278 20270 30062 40064 84470 333 59007 70000 82618 84460==
41960,2022,09,10,03,00,AAXX 10034 41960 02440 61001 10292 20270 30078 40080 84471 333 20275 59002 70000 83617 85460==
41960,2022,09,10,09,00,AAXX 10094 41960 02440 71402 10294 20270 30048 40050 86410 333 58000 70004 83617 83822 87459==
41960,2022,09,10,12,00,AAXX 10124 41960 02440 70000 10288 20270 30047 40049 85410 333 10313 59010 70004 84616 87459==
41960,2022,09,10,15,00,AAXX 10154 41960 02440 80000 10273 20260 30071 40073 8452/ 333 59004 70004 84616 88459==
41960,2022,09,10,18,00,AAXX 10184 41960 21430 80000 10260 20250 30081 40083 76162 8452/ 333 58009 60057 70054 84616 88459==
41960,2022,09,10,21,00,AAXX 10214 41960 01420 80901 10256 20256 30067 40068 76166 8542/ 333 58000 70124 83617 88458==
41960,2022,09,11,00,00,AAXX 11004 41960 01420 80000 10252 20252 30055 40056 76166 8542/ 333 59007 70188 83617 88458==
41960,2022,09,11,03,00,AAXX 11034 41960 01430 81005 10270 20260 30060 40061 76166 333 20247 59018 70212 84617 83822 88458==
41960,2022,09,11,06,00,AAXX 11064 41960 21430 81602 10275 20275 30069 40071 76166 8552/ 333 59004 60138 70318 85616 88458==
41960,2022,09,11,09,00,AAXX 11094 41960 01440 81702 10274 20260 30042 40043 76166 8642/ 333 59006 70532 84616 83822 88459==
41960,2022,09,11,12,00,AAXX 11124 41960 21430 81602 10275 20260 30036 40038 76166 8552/ 333 10300 59011 60228 70542 85616 88459==
41960,2022,09,11,15,00,AAXX 11154 41960 01430 81402 10270 20260 30068 40070 76166 8452/ 333 59003 70572 84614 88459==
41960,2022,09,11,18,00,AAXX 11184 41960 21330 80000 10267 20267 30063 40065 76166 8672/ 333 59018 60078 70556 83708 83614 88459==
41960,2022,09,11,21,00,AAXX 11214 41960 01310 80000 10252 20252 30056 40058 76366 8672/ 333 59011 70584 82709 84615 88458==
41960,2022,09,12,00,00,AAXX 12004 41960 21310 80000 10247 20247 30051 40053 76366 8672/ 333 59004 60289 70706 82709 84615 88458==
41960,2022,09,12,03,00,AAXX 12034 41960 01420 80000 10253 20250 30067 40069 76166 8542/ 333 58007 70788 83617 88458==
41960,2022,09,12,06,00,AAXX 12064 41960 21320 80000 10251 20250 30071 40073 76166 8672/ 333 58002 60239 70804 82708 84616 88458==
41960,2022,09,12,09,00,AAXX 12094 41960 01320 81601 10255 20255 30044 40046 76166 8672/ 333 58002 70788 82707 84615 88458==
41960,2022,09,12,12,00,AAXX 12124 41960 21330 80000 10260 20250 30041 40043 76166 8672/ 333 10261 58005 60238 70814 83708 83615 88458==
41960,2022,09,12,15,00,AAXX 12154 41960 01330 80000 10254 20250 30065 40067 76166 8672/ 333 59003 70794 83708 83616 88458==
41960,2022,09,12,18,00,AAXX 12184 41960 21330 80000 10252 20250 30075 40077 76166 8672/ 333 58012 60028 70764 83708 83616 88458==
41960,2022,09,12,21,00,AAXX 12214 41960 01320 80000 10250 20250 30069 40071 76366 8672/ 333 58013 70732 83708 84615 88458==
41960,2022,09,13,00,00,AAXX 13004 41960 21210 82602 10258 20258 30062 40064 79296 8672/ 333 58011 60199 70670 83707 84613 88458==
41960,2022,09,13,03,00,AAXX 13034 41960 01310 80000 10262 20262 30073 40075 76566 8672/ 333 20250 58006 70846 82708 84615 88458==
41960,2022,09,13,06,00,AAXX 13064 41960 21310 80000 10260 20260 30086 40088 79566 8692/ 333 58015 60339 70764 82708 84615 88458 81928==
41960,2022,09,13,09,00,AAXX 13094 41960 01320 80000 10250 20250 30072 40074 76196 8672/ 333 58028 70726 83708 84614 88458==
41960,2022,09,13,12,00,AAXX 13124 41960 21320 80000 10254 20250 30064 40066 76196 8672/ 333 10262 58023 60209 70736 82708 84614 88458==
41960,2022,09,13,15,00,AAXX 13154 41960 01320 80000 10256 20256 30082 40084 76166 8672/ 333 58017 70736 82708 84614 88458==
41960,2022,09,13,18,00,AAXX 13184 41960 21320 80000 10254 20250 30088 40090 76166 8672/ 333 58013 60019 70730 83708 83614 88458==
41960,2022,09,13,21,00,AAXX 13214 41960 01320 80000 10255 20255 30084 40086 76166 8672/ 333 58015 70692 82709 84615 88458==
41960,2022,09,14,15,00,AAXX 14154 41960 02940 00000 10256 20256 30090 40092 333 58008 70091==
41960,2022,09,14,21,00,AAXX 14214 41960 02440 80000 10260 20260 30080 40082 8542/ 333 59004 70059 84617 88459==
41960,2022,09,15,00,00,AAXX 15004 41960 02340 80000 10267 20267 30073 40075 8662/ 333 59005 70007 82709 84615 88458==
41960,2022,09,15,03,00,AAXX 15034 41960 01340 81801 10267 20260 30088 40090 72196 8662/ 333 20253 59010 70114 82709 84615 88458==
41960,2022,09,15,06,00,AAXX 15064 41960 21450 71802 10291 20260 30076 40078 70196 85410 333 59020 60125 70124 83617 87459==
41960,2022,09,15,09,00,AAXX 15094 41960 02457 70000 10300 20260 30054 40056 86410 333 59023 70123 83617 83823 87459==
41960,2022,09,15,18,00,AAXX 15184 41960 02440 30000 10269 20260 30058 40060 83400 333 59032 70123 82618==
41963,2022,09,09,00,00,AAXX 09004 41963 21556 30000 10272 20270 30069 40071 70196 81130 333 59010 60015 70010 81825 83363==
41963,2022,09,09,03,00,AAXX 09034 41963 02456 21602 10323 20270 30073 40075 82500 333 20270 59021 70010 82618==
41963,2022,09,09,06,00,AAXX 09064 41963 02456 31403 10323 20280 30080 40083 83400 333 59002 70010 81618==
41963,2022,09,09,09,00,AAXX 09094 41963 02/56 31203 10328 20270 30051 40054 83060 333 59003 70010 83363==
41963,2022,09,09,12,00,AAXX 09124 41963 02456 70000 10300 20270 30056 40059 82570 333 10341 58005 70010 82617 85458==
41963,2022,09,09,15,00,AAXX 09154 41963 01340 80000 10290 20270 30078 40081 70362 8372/ 333 58002 70020 81710 83615 88458==
41963,2022,09,09,21,00,AAXX 09214 41963 02440 60000 10283 20270 30069 40071 83570 333 58003 70030 83617 84458==
41963,2022,09,10,00,00,AAXX 10004 41963 02456 70000 10280 20260 30063 40065 83570 333 59006 70030 83617 84458==
41963,2022,09,10,03,00,AAXX 10034 41963 02456 51403 10302 20260 30082 40085 83460 333 20265 58009 70030 82617 83362==
41963,2022,09,10,09,00,AAXX 10094 41963 02456 61004 10300 20260 30053 40055 83470 333 58002 70030 82618 83458==
41963,2022,09,10,12,00,AAXX 10124 41963 11350 81802 10270 20260 30059 40062 60042 76062 8472/ 333 10313 58003 70070 82710 83615 88458==
41963,2022,09,10,15,00,AAXX 10154 41963 01340 80000 10254 20250 30083 40086 76166 8472/ 333 58005 70160 82708 83614 88457==
41963,2022,09,10,18,00,AAXX 10184 41963 21340 82101 10254 20254 30084 40087 76366 8472/ 333 58006 60309 70370 82708 83614 88457==
41963,2022,09,10,21,00,AAXX 10214 41963 01340 81402 10253 20250 30063 40066 76196 8472/ 333 59006 70410 82708 83614 88457==
41963,2022,09,11,00,00,AAXX 11004 41963 21350 81203 10265 20260 30058 40061 76196 8472/ 333 59005 60199 70530 82709 83614 88457==
41963,2022,09,11,03,00,AAXX 11034 41963 01356 81603 10280 20260 30080 40082 70262 8471/ 333 20245 59002 70550 82710 83615 88459==
41963,2022,09,11,06,00,AAXX 11064 41963 11456 61306 10300 20250 30071 40074 60026 70162 83530 333 59009 70550 83617 84363==
41963,2022,09,11,09,00,AAXX 11094 41963 01456 61604 10274 20260 30051 40054 72162 83470 333 59002 70590 82617 84459==
41963,2022,09,11,12,00,AAXX 11124 41963 11356 81603 10275 20250 30043 40046 60041 70362 8471/ 333 10302 59016 70550 82710 83614 88458==
41963,2022,09,11,15,00,AAXX 11154 41963 01440 81801 10270 20260 30063 40066 70262 8251/ 333 59020 70500 82617 88459==
41963,2022,09,12,03,00,AAXX 12034 41963 01350 82002 10265 20256 30071 40076 76166 8472/ 333 20248 59009 70410 82707 83614 88457==
41963,2022,09,12,06,00,AAXX 12064 41963 01340 81802 10262 20250 30063 40066 76166 8472/ 333 58000 70340 82709 83615 88458==
41963,2022,09,12,09,00,AAXX 12094 41963 01350 82102 10250 20240 30056 40059 76166 8472/ 333 58005 70630 82706 83612 88456==
41963,2022,09,12,12,00,AAXX 12124 41963 21350 81802 10250 20250 30052 40055 76166 8472/ 333 10263 58009 60199 70720 82707 83612 88457==
41963,2022,09,12,15,00,AAXX 12154 41963 01440 80000 10255 20255 30077 40080 70262 8351/ 333 58014 70700 83616 88458==
41963,2022,09,12,21,00,AAXX 12214 41963 02440 70000 10254 20250 30059 40062 83570 333 59004 70580 83617 88458==
41963,2022,09,13,00,00,AAXX 13004 41963 01356 80000 10260 20260 30072 40075 70362 8472/ 333 58013 70040 82709 83615 88458==
41963,2022,09,13,03,00,AAXX 13034 41963 01250 80000 10253 20253 30093 40096 79566 8472/ 333 20243 58022 70590 82707 83614 88457 81928==
41963,2022,09,13,06,00,AAXX 13064 41963 21250 81601 10240 20240 30096 40099 76396 8472/ 333 58020 60699 70940 82706 83612 88456==
41963,2022,09,13,09,00,AAXX 13094 41963 01456 80000 10260 20260 30074 40076 76166 8362/ 333 58018 70940 83614 88458==
41963,2022,09,13,12,00,AAXX 13124 41963 21356 82202 10260 20260 30071 40073 72166 8472/ 333 10260 58019 60148 70890 82709 83614 88457==
41963,2022,09,13,21,00,AAXX 13214 41963 01340 80000 10247 20247 30085 40088 76362 8572/ 333 58026 71020 83708 83613 88456==
41963,2022,09,14,00,00,AAXX 14004 41963 21356 80000 10250 20250 30085 40088 76166 8572/ 333 58013 60377 71200 82707 83612 88456==
41963,2022,09,14,15,00,AAXX 14154 41963 02440 60000 10260 20250 30094 40097 82570 333 58004 70550 82617 84458==
41963,2022,09,15,00,00,AAXX 15004 41963 02/56 30000 10260 20260 30076 40078 83050 333 59009 70180 83362==
41963,2022,09,15,03,00,AAXX 15034 41963 02456 51603 10300 20260 30090 40093 83570 333 20253 59017 70110 83617 83458==
41963,2022,09,15,06,00,AAXX 15064 41963 21456 72101 10287 20260 30078 40081 70362 82570 333 59018 60025 70110 82617 85458==
41963,2022,09,15,09,00,AAXX 15094 41963 02456 61803 10290 20260 30055 40058 83540 333 59027 70040 83617 84363==
41963,2022,09,15,15,00,AAXX 15154 41963 02/40 30000 10262 20260 30059 40062 83050 333 59035 70020 83363==
41963,2022,09,15,18,00,AAXX 15184 41963 02/40 30000 10257 20257 30065 40068 83030 333 59036 70020 83363==
41963,2022,09,15,21,00,AAXX 15214 41963 02/40 30000 10258 20258 30049 40042 83030 333 59031 70020 83362==
41964,2022,09,09,00,00,AAXX 09004 41964 21456 80000 10267 20267 30061 40064 70296 8632/ 333 59006 60578 70572 85618 88460 81930==
41964,2022,09,09,03,00,AAXX 09034 41964 02957 30000 10315 20270 30070 40073 80002 333 20245 59011 70572 83080==
41964,2022,09,09,06,00,AAXX 09064 41964 02557 40000 10335 20260 30071 40073 82202 333 58000 70572 82825 83080==
41964,2022,09,09,09,00,AAXX 09094 41964 02557 52203 10330 20270 30037 40039 83402 333 59007 70572 82620 83080==
41964,2022,09,09,12,00,AAXX 09124 41964 42456 70000 10300 20270 30042 40044 85370 333 10337 40572 58000 84618 86460 81928==
41964,2022,09,09,15,00,AAXX 09154 41964 01356 80000 10290 20280 30069 40071 70362 8632/ 333 58006 70576 82709 84617 88460 81930==
41964,2022,09,09,18,00,AAXX 09184 41964 01356 80000 10283 20270 30070 40073 71762 8632/ 333 58005 70590 82709 85617 88460 81928==
41964,2022,09,09,21,00,AAXX 09214 41964 01456 80000 10275 20275 30064 40067 71322 8532/ 333 58001 70210 84617 88460 81928==
41964,2022,09,10,00,00,AAXX 10004 41964 02556 70000 10274 20270 30059 40061 84470 333 59002 70018 83620 86460==
41964,2022,09,10,03,00,AAXX 10034 41964 02457 61402 10315 20270 30071 40073 85402 333 20268 58001 70018 84618==
41964,2022,09,10,09,00,AAXX 10094 41964 02457 71503 10309 20270 30039 40041 86410 333 58002 70018 83618 83825 87460==
41964,2022,09,10,12,00,AAXX 10124 41964 02356 81702 10287 20260 30045 40047 8632/ 333 10326 58003 70018 83708 84617 88458 81928==
41964,2022,09,10,15,00,AAXX 10154 41964 01340 80000 10262 20262 30069 40072 79596 8632/ 333 58000 70114 85708 84616 88458 81928==
41964,2022,09,10,18,00,AAXX 10184 41964 21340 80000 10257 20257 30074 40077 76196 8632/ 333 58004 60179 70166 85708 84615 88458 81928==
41964,2022,09,10,21,00,AAXX 10214 41964 01340 80000 10255 20255 30070 40073 76162 8672/ 333 58006 70184 85707 84615 88457==
41964,2022,09,11,00,00,AAXX 11004 41964 01356 80000 10260 20260 30055 40058 70262 8662/ 333 59004 70190 83709 85617 88460==
41964,2022,09,11,03,00,AAXX 11034 41964 02457 61403 10300 20250 30069 40072 83610 333 20250 59002 70190 83618 84460==
41964,2022,09,11,06,00,AAXX 11064 41964 02458 61405 10310 20250 30062 40065 83511 333 59005 70190 83618 83460 84080==
41964,2022,09,11,09,00,AAXX 11094 41964 02357 81406 10288 20270 30039 40041 8662/ 333 58000 70190 83709 85617 88459==
41964,2022,09,11,12,00,AAXX 11124 41964 01356 80000 10274 20260 30035 40038 76162 8672/ 333 10318 59010 70020 83708 85616 88458==
41964,2022,09,11,15,00,AAXX 11154 41964 01350 81404 10269 20260 30062 40064 76166 8672/ 333 59007 70164 83708 86515 88458==
41964,2022,09,11,18,00,AAXX 11184 41964 21350 81402 10260 20258 30060 40063 70262 8662/ 333 59014 60068 70098 83709 84617 88459==
41964,2022,09,11,21,00,AAXX 11214 41964 01340 81403 10259 20258 30056 40058 76166 8672/ 333 59014 70204 83708 85616 88458==
41964,2022,09,12,00,00,AAXX 12004 41964 21350 80000 10258 20257 30051 40053 76166 8672/ 333 59004 60229 70298 83707 85614 88458==
41964,2022,09,12,03,00,AAXX 12034 41964 01350 81304 10260 20259 30067 40069 76366 8672/ 333 20246 59002 70372 84707 85613 88458==
41964,2022,09,12,06,00,AAXX 12064 41964 21356 81404 10289 20270 30062 40064 70262 8562/ 333 58000 60098 70390 83709 84617 88460==
41964,2022,09,12,09,00,AAXX 12094 41964 02356 81702 10284 20260 30041 40044 8662/ 333 58002 70390 83709 84618 88459==
41964,2022,09,12,12,00,AAXX 12124 41964 02356 81801 10267 20250 30040 40042 8662/ 333 10295 58005 70372 83709 84617 88459==
41964,2022,09,12,15,00,AAXX 12154 41964 01350 80000 10262 20260 30067 40069 70262 8562/ 333 58005 70344 83709 84616 88459==
41964,2022,09,12,18,00,AAXX 12184 41964 11450 80000 10260 20250 30070 40072 69986 70262 8562/ 333 58010 70324 85618 88460==
41964,2022,09,12,21,00,AAXX 12214 41964 01340 80000 10257 20256 30067 40069 76322 8672/ 333 58011 70228 85707 84614 88458==
41964,2022,09,13,00,00,AAXX 13004 41964 21340 80000 10254 20250 30065 40067 76362 8672/ 333 58014 60237 70328 84708 84614 88458==
41964,2022,09,13,03,00,AAXX 13034 41964 01356 81602 10273 20260 30087 40089 70262 8662/ 333 20249 58020 70378 83709 84617 88459==
41964,2022,09,13,06,00,AAXX 13064 41964 01340 82302 10250 20250 30089 40091 79596 8632/ 333 58027 70772 84707 85613 88457 81928==
41964,2022,09,13,09,00,AAXX 13094 41964 01340 82301 10259 20258 30063 40065 76196 8672/ 333 58022 70896 84707 85613 88457==
41964,2022,09,13,12,00,AAXX 13124 41964 21350 80000 10267 20266 30059 40061 70296 8662/ 333 10275 58019 60138 70904 83709 84617 88459==
41964,2022,09,13,15,00,AAXX 13154 41964 01340 80000 10256 20256 30082 40084 76166 8672/ 333 58015 70951 84707 85613 88458==
41964,2022,09,13,21,00,AAXX 13214 41964 01340 80000 10254 20254 30081 40084 76162 8672/ 333 58014 70997 84707 85613 88458==
41964,2022,09,15,00,00,AAXX 15004 41964 02456 71801 10266 20260 30068 40071 84510 333 59007 70096 84618 87460==
41964,2022,09,15,03,00,AAXX 15034 41964 02457 61601 10304 20270 30079 40081 85510 333 20250 59019 70022 85618 84460==
41964,2022,09,15,06,00,AAXX 15064 41964 21457 61601 10275 20260 30072 40074 70262 84510 333 59018 69965 70010 84618 85460==
41965,2022,09,09,09,00,AAXX 09094 41965 02450 80000 10330 20210 30050 40058 84310 333 58003 70420 81710 83618 88460 81928==
41965,2022,09,09,12,00,AAXX 09124 41965 02450 80000 10310 20230 30040 40048 8432/ 333 10345 58003 70420 81710 83618 88460 81928==
41965,2022,09,10,03,00,AAXX 10034 41965 02450 50000 10310 20230 30068 40076 84410 333 20255 59002 70000 82618 84460==
41965,2022,09,10,09,00,AAXX 10094 41965 02456 80000 10315 20220 30052 40060 8432/ 333 59002 70000 81710 83618 88460 81928==
41965,2022,09,10,12,00,AAXX 10124 41965 01430 80000 10280 20230 30042 40050 79596 8432/ 333 20320 59010 70050 81710 83618 88460 81928==
41965,2022,09,11,00,00,AAXX 11004 41965 21430 80000 10250 20230 30064 40072 76166 84610 333 59002 60049 70170 81710 83618 88460==
41965,2022,09,11,03,00,AAXX 11034 41965 02450 80000 10270 20220 30069 40077 84610 333 20240 59001 70170 82618 88460==
41965,2022,09,11,06,00,AAXX 11064 41965 02450 81301 10305 20200 30059 40067 84610 333 59006 70170 81710 83618 88460==
41965,2022,09,11,09,00,AAXX 11094 41965 02456 80000 10310 20220 30049 40057 84610 333 59007 70170 83618 88460==
41965,2022,09,11,12,00,AAXX 11124 41965 01430 80000 10280 20230 30035 40043 76366 84610 333 10317 59005 70080 81710 83618 88460==
41965,2022,09,11,21,00,AAXX 11214 41965 01440 80000 10265 20230 30056 40064 70266 84610 333 59002 70260 81710 83618 88460==
41965,2022,09,12,03,00,AAXX 12034 41965 02450 80000 10270 20220 30062 40070 84610 333 20243 59007 70220 81710 83618 88460==
41965,2022,09,12,06,00,AAXX 12064 41965 01440 81403 10265 20210 30061 40071 70262 84310 333 58002 70020 81710 83618 88460==
41965,2022,09,12,12,00,AAXX 12124 41965 02450 80000 10280 20230 30041 40049 84610 333 20300 59001 70160 82618 88460==
41965,2022,09,13,03,00,AAXX 13034 41965 02450 80000 10260 20230 30079 40087 84610 333 20240 58017 70430 81710 83618 88460==
41965,2022,09,13,09,00,AAXX 13094 41965 01450 80000 10270 20240 30065 40073 70266 84610 333 58013 70860 81710 83618 88460==
41965,2022,09,13,12,00,AAXX 13124 41965 11450 80000 10270 20230 30050 40048 60456 70262 84610 333 10280 58010 70860 81710 83618 88460==
41965,2022,09,15,03,00,AAXX 15034 41965 02450 80000 10280 20230 30073 40081 84610 333 20245 59014 70020 81710 83618 88460==
41965,2022,09,15,09,00,AAXX 15094 41965 02450 60000 10310 20210 30062 40070 84410 333 59014 70000 82618 84460==
41966,2022,09,09,00,00,AAXX 09004 41966 02440 40000 10265 20240 39998 40077 82510 333 59010 70000 82616 83460==
41966,2022,09,09,03,00,AAXX 09034 41966 02550 23601 10320 20220 30008 40086 82100 333 20255 59009 70000 82827==
41966,2022,09,09,06,00,AAXX 09064 41966 02450 53101 10338 20230 39998 40075 82510 333 59004 70000 82616 84460==
41966,2022,09,09,09,00,AAXX 09094 41966 02450 60901 10335 20220 39999 40076 83510 333 58021 70000 83616 85460==
41966,2022,09,09,12,00,AAXX 09124 41966 21430 71201 10265 20240 39984 40063 70362 83510 333 10345 58007 60245 70238 83616 86460==
41966,2022,09,09,15,00,AAXX 09154 41966 02420 70901 10262 20230 39991 40070 83510 333 58006 70238 83616 86460==
41966,2022,09,09,21,00,AAXX 09214 41966 02420 50000 10262 20230 30001 40080 82510 333 58005 70240 82616 84460==
41966,2022,09,10,00,00,AAXX 10004 41966 02440 50000 10260 20230 39994 40073 82510 333 59004 70240 82616 84460==
41966,2022,09,10,03,00,AAXX 10034 41966 02450 51301 10310 20220 30011 40089 82510 333 20250 58003 70240 82616 84460==
41966,2022,09,10,09,00,AAXX 10094 41966 01450 71701 10300 20250 39988 40066 70262 83510 333 59010 70242 83616 86460==
41966,2022,09,10,12,00,AAXX 10124 41966 01330 81201 10270 20240 39988 40067 76262 8472/ 333 10330 58004 70050 82709 83615 88460==
41966,2022,09,10,15,00,AAXX 10154 41966 01320 80000 10260 20250 30004 40083 76166 8472/ 333 58013 70070 82709 83615 88460==
41966,2022,09,10,18,00,AAXX 10184 41966 21320 80901 10260 20250 30009 40088 76166 8472/ 333 58006 60059 70093 82709 83615 88460==
41966,2022,09,10,21,00,AAXX 10214 41966 01320 80000 10260 20250 30009 40088 72166 8472/ 333 58008 70108 82709 83615 88460==
41966,2022,09,11,00,00,AAXX 11004 41966 21330 81201 10250 20220 30003 40082 70262 8462/ 333 58009 60028 70108 82709 83615 88460==
41966,2022,09,11,03,00,AAXX 11034 41966 02450 61801 10285 20200 30013 40091 83510 333 20245 58002 70108 83616 85460==
41966,2022,09,11,06,00,AAXX 11064 41966 02450 60801 10310 20190 30008 40086 83510 333 59001 70108 83616 85460==
41966,2022,09,11,09,00,AAXX 11094 41966 01340 83101 10270 20220 39984 40063 79596 8472/ 333 59003 70202 82709 83616 88460==
41966,2022,09,11,12,00,AAXX 11124 41966 21330 80000 10260 20230 39983 40062 70296 8462/ 333 10320 59005 60137 70192 82709 83616 88460==
41966,2022,09,11,15,00,AAXX 11154 41966 02420 70901 10260 20230 39996 40075 83510 333 58008 70172 83616 86460==
41966,2022,09,11,18,00,AAXX 11184 41966 02430 40000 10258 20240 30001 40080 82510 333 59008 70147 82616 84460==
41966,2022,09,11,21,00,AAXX 11214 41966 02420 50000 10255 20230 30008 40084 82510 333 59004 70132 82616 84460==
41966,2022,09,12,00,00,AAXX 12004 41966 02430 50000 10250 20210 39992 40071 82510 333 59011 70132 82616 84460==
41966,2022,09,12,03,00,AAXX 12034 41966 01450 80000 10270 20230 30022 40101 76162 8472/ 333 20247 58010 70164 82709 83616 88460==
41966,2022,09,12,06,00,AAXX 12064 41966 21450 71301 10282 20210 30004 40082 70162 83510 333 59004 60045 70176 83616 86460==
41966,2022,09,12,09,00,AAXX 12094 41966 02450 60000 10288 20210 39983 40061 83510 333 59002 70080 83616 85460==
41966,2022,09,12,12,00,AAXX 12124 41966 02430 60901 10280 20220 39983 40062 83510 333 10295 58000 70040 83616 85460==
41966,2022,09,12,15,00,AAXX 12154 41966 01330 72001 10253 20210 30006 40085 70362 83610 333 58010 70056 83709 86460==
41966,2022,09,12,18,00,AAXX 12184 41966 11430 70000 10252 20220 30009 40089 60016 70262 83510 333 58009 70056 83616 86460==
41966,2022,09,12,21,00,AAXX 12214 41966 02420 50000 10250 20200 30007 40086 82510 333 58002 70056 82616 84460==
41966,2022,09,13,00,00,AAXX 13004 41966 02440 50000 10250 20200 39995 40074 82510 333 58003 70056 82616 84460==
41966,2022,09,13,03,00,AAXX 13034 41966 02450 71501 10275 20210 30024 40103 83510 333 20246 58002 70024 83616 86460==
41966,2022,09,13,06,00,AAXX 13064 41966 02450 71301 10300 20200 30022 40100 83510 333 58018 70012 83616 86460==
41966,2022,09,13,09,00,AAXX 13094 41966 01350 81801 10275 20240 30013 40091 76162 8472/ 333 58030 70112 82709 83616 88460==
41966,2022,09,13,12,00,AAXX 13124 41966 01350 80000 10265 20230 30003 40082 70262 8472/ 333 10305 58020 70148 82709 83615 88460==
41966,2022,09,13,18,00,AAXX 13184 41966 02430 60000 10258 20240 30019 40098 83510 333 58009 70136 83616 86460==
41966,2022,09,13,21,00,AAXX 13214 41966 01320 80901 10250 20210 30019 40099 72162 8472/ 333 58013 70156 82709 83615 88460==
41966,2022,09,14,00,00,AAXX 14004 41966 21330 80901 10250 20210 30023 40103 70262 8472/ 333 58029 60028 70156 82709 83615 88460==
41966,2022,09,14,15,00,AAXX 14154 41966 02420 60000 10250 20210 30019 40099 83510 333 59003 70062 83616 85460==
41966,2022,09,15,00,00,AAXX 15004 41966 02440 60000 10250 20220 30011 40091 83510 333 59012 70042 83615 85460==
41966,2022,09,15,03,00,AAXX 15034 41966 02550 40901 10290 20210 30008 40086 82130 333 20245 59025 70036 82826 83362==
41966,2022,09,15,06,00,AAXX 15064 41966 02550 41201 10300 20180 30005 40083 82130 333 59024 70026 82826 83362==
41966,2022,09,15,09,00,AAXX 15094 41966 02550 41502 10310 20200 39981 40059 82130 333 59026 70010 82826 83362==
41966,2022,09,15,21,00,AAXX 15214 41966 02420 60000 10260 20220 39986 40065 82510 333 59031 70000 82616 85460==
41978,2022,09,09,00,00,AAXX 09004 41978 11440 40804 10257 20250 30069 40072 60206 70196 82520 333 59007 70200 82617 83460==
41978,2022,09,09,03,00,AAXX 09034 41978 02456 40905 10310 20260 30072 40078 82520 333 20250 59014 70200 82616 83460==
41978,2022,09,09,06,00,AAXX 09064 41978 02456 42309 10325 20260 30072 40078 83420 333 58000 70200 82618 83460==
41978,2022,09,09,09,00,AAXX 09094 41978 02456 42412 10327 20260 30042 40048 84300 333 58000 70200 83618 81930==
41978,2022,09,09,12,00,AAXX 09124 41978 02450 81807 10295 20260 30050 40056 8432/ 333 10335 58004 70200 83616 88460 81928==
41978,2022,09,09,15,00,AAXX 09154 41978 02450 61103 10283 20250 30074 40080 83530 333 58007 70200 83618 86360==
41978,2022,09,09,18,00,AAXX 09184 41978 02450 60000 10282 20250 30077 40083 83530 333 58003 70200 83618 86360==
41978,2022,09,09,21,00,AAXX 09214 41978 02440 60000 10273 20250 30076 40082 83530 333 58010 70000 83614 86360==
41978,2022,09,10,00,00,AAXX 10004 41978 02450 60000 10271 20260 30061 40068 83530 333 59008 70000 83618 86360==
41978,2022,09,10,06,00,AAXX 10064 41978 02556 62210 10318 20260 30071 40077 83431 333 59001 70000 83820 85360==
41978,2022,09,10,09,00,AAXX 10094 41978 02450 71910 10312 20260 30039 40045 84320 333 59003 70000 83616 87460 81928==
41978,2022,09,10,12,00,AAXX 10124 41978 NIL=
41978,2022,09,10,15,00,AAXX 10154 41978 01340 81508 10268 20260 30080 40087 76162 8432/ 333 70068 83714 88459 81928==
41978,2022,09,10,18,00,AAXX 10184 41978 12340 81505 10264 20250 30084 40091 60062 8432/ 333 58007 70118 83714 88459 81928==
41978,2022,09,10,21,00,AAXX 10214 41978 01340 81205 10253 20240 30056 40063 70262 8432/ 333 59020 70128 83714 88460 81928==
41978,2022,09,11,00,00,AAXX 11004 41978 11340 81007 10250 20240 30060 40067 60016 70262 8432/ 333 59001 70128 83714 88460==
41978,2022,09,11,03,00,AAXX 11034 41978 02450 70905 10279 20240 30077 40084 84320 333 20245 58001 70128 83616 87460 81928==
41978,2022,09,11,06,00,AAXX 11064 41978 02450 71706 10310 20240 30071 40077 84320 333 58000 70128 83616 87460 81928==
41978,2022,09,11,09,00,AAXX 11094 41978 02456 61812 10310 20250 30042 40048 83370 333 58003 70128 83618 86360 81930==
41978,2022,09,11,12,00,AAXX 11124 41978 02456 72211 10280 20260 30043 40049 84370 333 10322 59008 70100 83615 86359 81930==
41978,2022,09,11,15,00,AAXX 11154 41978 02450 61107 10270 20240 30069 40075 83520 333 59011 70060 83617 85460==
41978,2022,09,11,18,00,AAXX 11184 41978 02450 61103 10283 20250 30074 40080 83530 333 58007 70200 83618 86360==
41978,2022,09,12,00,00,AAXX 12004 41978 11340 81105 10250 20250 30056 40062 60066 76162 8432/ 333 59004 70095 84709 88450 81930==
41978,2022,09,12,03,00,AAXX 12034 41978 01335 81610 10260 20250 30078 40085 76162 8432/ 333 20248 58001 70135 84709 88459 81930==
41978,2022,09,12,06,00,AAXX 12064 41978 21340 81607 10272 20250 30074 40080 72162 8432/ 333 58003 60039 70145 84709 88459 81930==
41978,2022,09,12,09,00,AAXX 12094 41978 02450 71810 10299 20250 30047 40053 84320 333 58005 70125 83618 87460 81930==
41978,2022,09,12,12,00,AAXX 12124 41978 01440 82112 10274 20250 30048 40054 76122 8432/ 333 10303 58005 70004 83615 88459 81928==
41978,2022,09,12,15,00,AAXX 12154 41978 01450 71405 10266 20250 30075 40081 70162 84520 333 58006 70129 84615 86460==
41978,2022,09,12,18,00,AAXX 12184 41978 11450 71605 10262 20250 30076 40083 60006 70262 84570 333 58006 70098 84615 86360==
41978,2022,09,12,21,00,AAXX 12214 41978 01450 81505 10254 20246 30073 40080 72162 8432/ 333 58019 70102 84615 88458==
41978,2022,09,13,00,00,AAXX 13004 41978 01450 81505 10252 20250 30074 40080 76062 8432/ 333 58018 70048 84614 88458 81930==
41978,2022,09,13,03,00,AAXX 13034 41978 01340 81305 10258 20250 30090 40097 76162 8432/ 333 20246 58012 70318 83614 88460 81928==
41978,2022,09,13,06,00,AAXX 13064 41978 01340 80000 10274 20250 30091 40098 76162 8432/ 333 58017 70338 83614 88458 81928==
41978,2022,09,13,09,00,AAXX 13094 41978 01340 82112 10266 20250 30065 40071 76162 8432/ 333 58018 70448 84709 88459 81928==
41978,2022,09,13,12,00,AAXX 13124 41978 21340 81606 10274 20260 30068 40074 70262 8432/ 333 10275 58020 60118 70444 84712 88459 81930==
41978,2022,09,13,15,00,AAXX 13154 41978 02440 82413 10263 20250 30091 40098 8432/ 333 58016 70444 83618 88459 81930==
41978,2022,09,13,18,00,AAXX 13184 41978 11435 81610 10251 20250 30089 40095 60112 76162 8432/ 333 58013 70554 83712 88459 81928==
41978,2022,09,13,21,00,AAXX 13214 41978 01335 81807 10249 20249 30086 40092 72162 8532/ 333 58012 70936 84709 88459 81928==
41978,2022,09,14,06,00,AAXX 14064 41978 21440 81706 10267 20260 30099 40106 76166 8432/ 333 58008 60199 70696 83615 88459 81928==
41978,2022,09,14,12,00,AAXX 14124 41978 NIL=
41978,2022,09,14,15,00,AAXX 14154 41978 02450 61103 10260 20250 30091 40097 83520 333 58000 70716 83617 85460==
41978,2022,09,14,18,00,AAXX 14184 41978 NIL=
41978,2022,09,15,03,00,AAXX 15034 41978 02550 61705 10306 20250 30090 40097 83130 333 20247 59016 70198 83828 85362==
41978,2022,09,15,09,00,AAXX 15094 41978 01456 62010 10293 20240 30046 40053 70162 84530 333 59028 70044 84618 86360==
41978,2022,09,15,12,00,AAXX 15124 41978 NIL=
41978,2022,09,15,18,00,AAXX 15184 41978 21340 71710 10263 20054 30054 40061 70262 84320 333 59034 60055 70094 83616 86460 81928==
41978,2022,09,15,21,00,AAXX 15214 41978 01340 81204 10254 20240 30044 40051 70262 8432/ 333 59036 70134 83614 88459 81928==
41984,2022,09,09,00,00,AAXX 09004 41984 02456 80000 10285 20280 30056 40058 8352/ 333 59005 70000 83618 88458==
41984,2022,09,09,03,00,AAXX 09034 41984 02457 80000 10310 20280 30061 40063 8352/ 333 20278 59007 70000 83618 88458==
41984,2022,09,09,06,00,AAXX 09064 41984 02457 51802 10328 20270 30065 40067 82530 333 58000 70000 82618 83362==
41984,2022,09,09,09,00,AAXX 09094 41984 02457 50000 10328 20270 30042 40044 82530 333 58001 70000 82618 83362==
41984,2022,09,09,12,00,AAXX 09124 41984 02457 61502 10305 20270 30034 40036 83510 333 10335 59005 70000 83618 85458==
41984,2022,09,09,15,00,AAXX 09154 41984 02440 60000 10293 20260 30056 40058 83510 333 58000 70000 83618 85458==
41984,2022,09,09,18,00,AAXX 09184 41984 02440 80000 10293 20270 30060 40062 8352/ 333 59002 70000 83618 88458==
41984,2022,09,09,21,00,AAXX 09214 41984 02440 80000 10280 20270 30052 40054 8352/ 333 59008 70000 83618 88458==
41984,2022,09,10,00,00,AAXX 10004 41984 02456 80000 10270 20260 30044 40046 8352/ 333 59012 70000 83618 88458==
41984,2022,09,10,03,00,AAXX 10034 41984 01457 80000 10302 20270 30061 40063 70262 8352/ 333 20260 58000 70016 83618 88458==
41984,2022,09,10,09,00,AAXX 10094 41984 01457 81302 10306 20270 30030 40032 70296 8352/ 333 59012 70035 83618 88458==
41984,2022,09,10,12,00,AAXX 10124 41984 11456 81301 10281 20260 30028 40030 69956 70296 8352/ 333 10325 59006 70035 83618 88458==
41984,2022,09,10,15,00,AAXX 10154 41984 01440 80000 10262 20250 30040 40042 72162 8532/ 333 59016 70055 84618 88458 81926==
41984,2022,09,10,18,00,AAXX 10184 41984 01340 80000 10260 20260 30058 40060 79796 8692/ 333 59002 70215 83707 84615 88456 81925==
41984,2022,09,10,21,00,AAXX 10214 41984 01340 80000 10255 20255 30040 40042 76366 8672/ 333 59012 70295 83707 84615 88456==
41984,2022,09,11,00,00,AAXX 11004 41984 21356 80000 10253 20250 30038 40040 76366 8672/ 333 59006 60179 70385 83707 84615 88456==
41984,2022,09,11,03,00,AAXX 11034 41984 01356 81002 10267 20267 30051 40053 76566 8672/ 333 20250 59010 70579 83707 84615 88456==
41984,2022,09,11,06,00,AAXX 11064 41984 21356 81005 10273 20260 30046 40048 76166 8672/ 333 59011 60249 70595 83707 84615 88456==
41984,2022,09,11,09,00,AAXX 11094 41984 01456 83105 10286 20260 30026 40028 70262 8352/ 333 59004 70620 83618 88458==
41984,2022,09,11,12,00,AAXX 11124 41984 11450 81010 10278 20260 30018 40020 60036 70262 8352/ 333 10296 59010 70620 83618 88458==
41984,2022,09,11,15,00,AAXX 11154 41984 01340 51302 10276 20260 30036 40038 76162 8672/ 333 59004 70610 83707 84615 88456==
41984,2022,09,11,18,00,AAXX 11184 41984 21340 80000 10276 20260 30043 40045 76166 8632/ 333 59015 60029 70456 83707 84615 88456 81925==
41984,2022,09,11,21,00,AAXX 11214 41984 01340 81302 10250 20240 30039 40041 76366 8672/ 333 59001 70486 83607 84615 88456==
41984,2022,09,12,00,00,AAXX 12004 41984 21356 80000 10248 20248 30030 40032 76366 8672/ 333 59008 60319 70596 83707 84615 88456==
41984,2022,09,12,03,00,AAXX 12034 41984 01356 80000 10250 20250 30043 40045 76366 8672/ 333 20240 59008 70636 83708 84615 88456==
41984,2022,09,12,06,00,AAXX 12064 41984 21356 80000 10252 20250 30054 40056 76366 333 58008 60689 71036 83707 84615 88456==
41984,2022,09,12,09,00,AAXX 12094 41984 01356 80000 10257 20257 30030 40032 76566 8672/ 333 58004 71366 83707 84615 88456==
41984,2022,09,12,12,00,AAXX 12124 41984 21350 80000 10248 20248 30026 40028 76166 8672/ 333 10266 58008 60429 71426 83707 84615 88456==
41984,2022,09,12,15,00,AAXX 12154 41984 01440 80000 10257 20257 30044 40046 70262 8352/ 333 58008 71426 83618 88458==
41984,2022,09,12,18,00,AAXX 12184 41984 01340 80000 10264 20260 30057 40059 76162 8672/ 333 58014 71430 83707 84615 88456==
41984,2022,09,12,21,00,AAXX 12214 41984 01340 80000 10267 20267 30050 40052 76166 8672/ 333 58011 71340 83707 84615 88456==
41984,2022,09,13,00,00,AAXX 13004 41984 21450 80000 10270 20270 30043 40045 76166 8672/ 333 58013 60049 71160 83707 84615 88456==
41984,2022,09,13,03,00,AAXX 13034 41984 02356 80000 10252 20250 30061 40063 8672/ 333 20236 58018 70970 83707 84615 88456==
41984,2022,09,13,06,00,AAXX 13064 41984 21356 80000 10277 20270 30066 40068 76166 8672/ 333 58012 69999 70570 83707 84615 88456==
41984,2022,09,13,09,00,AAXX 13094 41984 01356 80000 10252 20250 30053 40055 76566 8672/ 333 58023 70680 83707 84615 88456==
41984,2022,09,13,12,00,AAXX 13124 41984 21356 80000 10255 20255 30052 40054 76366 8672/ 333 10283 58026 60539 70680 83707 84615 88456==
41984,2022,09,13,15,00,AAXX 13154 41984 01340 80000 10256 20250 30066 40068 76166 8672/ 333 58022 70690 83707 84615 88456==
41984,2022,09,13,18,00,AAXX 13184 41984 21340 80000 10254 20250 30073 40075 76166 8672/ 333 58016 60069 70720 83707 84615 88458==
41984,2022,09,13,21,00,AAXX 13214 41984 01440 80000 10256 20256 30066 40068 76166 8672/ 333 58016 70790 83707 84615 88456==
41984,2022,09,14,00,00,AAXX 14004 41984 21356 80000 10257 20257 30062 40064 76166 8672/ 333 58019 60209 70880 83707 84615 88456==
41984,2022,09,14,15,00,AAXX 14154 41984 02440 80000 10253 20250 30070 40072 8352/ 333 58004 70281 83618 88457==
41984,2022,09,14,21,00,AAXX 14214 41984 02440 80000 10260 20250 30068 40070 8352/ 333 58002 70151 83618 88458==
41984,2022,09,15,03,00,AAXX 15034 41984 01356 80000 10256 20256 30070 40072 76196 8672/ 333 20244 59010 70695 83707 84615 88456==
41984,2022,09,15,06,00,AAXX 15064 41984 01456 80000 10282 20250 30066 40068 70296 8352/ 333 59017 70701 83618 88458==
41984,2022,09,15,09,00,AAXX 15094 41984 02457 80000 10300 20250 30037 40039 8352/ 333 59027 70696 83618 88458==
41984,2022,09,15,12,00,AAXX 15124 41984 02450 80000 10282 20260 30024 40026 8352/ 333 10312 59033 70696 83618 88458==
41984,2022,09,15,18,00,AAXX 15184 41984 02440 50000 10270 20270 30041 40043 82530 333 59035 70696 82618 83362==
41989,2022,09,09,00,00,AAXX 09004 41989 02440 31802 10265 20260 30060 40068 83500 333 59002 70000 83618==
41989,2022,09,09,03,00,AAXX 09034 41989 02450 31403 10320 20260 30078 40081 83500 333 20255 59002 70000 83618==
41989,2022,09,09,06,00,AAXX 09064 41989 02450 31403 10320 20260 30078 40081 83500 333 20255 59002 70000 83618==
41989,2022,09,09,09,00,AAXX 09094 41989 02450 81305 10307 20260 30042 40045 82570 333 59010 70000 82618 84460==
41989,2022,09,09,12,00,AAXX 09124 41989 11450 51803 10285 20260 30039 40042 60036 70162 82570 333 10335 59007 70030 82618 83460==
41989,2022,09,09,15,00,AAXX 09154 41989 02440 51404 10275 20260 30073 40076 83530 333 58013 70030 83618 84362==
41989,2022,09,09,18,00,AAXX 09184 41989 02430 41305 10275 20250 30080 40083 84470 333 58008 70030 83618==
41989,2022,09,09,21,00,AAXX 09214 41989 02430 41304 10268 20260 30077 40080 84400 333 58018 70030 83618==
41989,2022,09,10,00,00,AAXX 10004 41989 02440 31802 10270 20250 30049 40052 83500 333 59011 70030 83618==
41989,2022,09,10,03,00,AAXX 10034 41989 02450 51303 10298 20260 30070 40073 82530 333 20256 59008 70030 82618 84362==
41989,2022,09,10,06,00,AAXX 10064 41989 02450 41704 10315 20250 30067 40070 83530 333 59004 70030 83618==
41989,2022,09,10,09,00,AAXX 10094 41989 02440 81403 10285 20260 30055 40058 8572/ 333 58015 70050 83708 83614 88456==
41989,2022,09,10,12,00,AAXX 10124 41989 01330 81805 10265 20260 30054 40057 76362 8572/ 333 10320 58015 70120 83708 83614 88456==
41989,2022,09,10,15,00,AAXX 10154 41989 01330 81303 10257 20250 30071 40074 76162 8572/ 333 59002 70470 82709 83614 88456==
41989,2022,09,10,18,00,AAXX 10184 41989 21330 81403 10255 20250 30080 40083 76166 8572/ 333 58000 60529 70620 82710 83614 88456==
41989,2022,09,10,21,00,AAXX 10214 41989 01330 81403 10254 20253 30057 40060 76166 8572/ 333 59020 70670 82710 83618 88456==
41989,2022,09,11,00,00,AAXX 11004 41989 11430 61802 10250 20245 30052 40055 60056 70162 84620 333 58003 70670 83618 85360==
41989,2022,09,11,03,00,AAXX 11034 41989 02450 41403 10270 20220 30075 40079 84400 333 20243 58005 70670 83618==
41989,2022,09,11,06,00,AAXX 11064 41989 02450 51304 10298 20240 30080 40083 83530 333 58013 70670 83618 84362==
41989,2022,09,11,09,00,AAXX 11094 41989 02456 61705 10287 20250 30043 40046 83570 333 59012 70650 83618 83460==
41989,2022,09,11,12,00,AAXX 11124 41989 02450 71804 10272 20240 30035 40039 83570 333 10312 59019 70570 83618 84460==
41989,2022,09,11,18,00,AAXX 11184 41989 21340 81804 10260 20240 30064 40068 76162 8572/ 333 59016 60127 70170 83708 83614 88456==
41989,2022,09,11,21,00,AAXX 11214 41989 01330 81804 10260 20240 30053 40056 76166 8572/ 333 59004 70220 83708 83614 88456==
41989,2022,09,12,00,00,AAXX 12004 41989 21330 81804 10250 20240 30047 40050 76166 8572/ 333 59005 60229 70340 82708 83614 88456==
41989,2022,09,12,03,00,AAXX 12034 41989 01340 81306 10253 20240 30055 40058 76166 8572/ 333 20245 59020 70470 82710 83614 88456==
41989,2022,09,12,06,00,AAXX 12064 41989 21450 61403 10277 20250 30060 40063 70162 83570 333 59020 60148 70480 83618 84460==
41989,2022,09,12,09,00,AAXX 12094 41989 02450 71804 10274 20240 30056 40059 84470 333 58013 70480 83618 85460==
41989,2022,09,12,12,00,AAXX 12124 41989 21430 61704 10272 20240 30047 40050 70162 84470 333 10284 58012 60027 70500 83618 83460==
41989,2022,09,12,15,00,AAXX 12154 41989 02450 51304 10252 20240 30066 40069 83570 333 58013 70500 83618 83362==
41989,2022,09,12,18,00,AAXX 12184 41989 02440 81803 10260 20240 30073 40076 83570 333 58009 70380 83618 84460==
41989,2022,09,12,21,00,AAXX 12214 41989 01330 81803 10260 20240 30073 40076 76162 8572/ 333 58020 70480 82708 83614 88456==
41989,2022,09,13,00,00,AAXX 13004 41989 21330 81803 10250 20240 30057 40060 76166 8572/ 333 58010 60509 70660 82708 83614 88456==
41989,2022,09,13,03,00,AAXX 13034 41989 01330 80503 10255 20250 30089 40092 76166 8572/ 333 20243 58034 70670 83708 83614 88456==
41989,2022,09,13,06,00,AAXX 13064 41989 21440 61405 10270 20240 30105 40106 70162 83530 333 58045 60157 70670 83618 83362==
41989,2022,09,13,09,00,AAXX 13094 41989 02450 61303 10284 20240 30063 40066 83570 333 58008 70670 83618 84460==
41989,2022,09,13,12,00,AAXX 13124 41989 02450 71303 10280 20250 30055 40058 83570 333 10295 58008 70650 83618 85460==
41989,2022,09,13,15,00,AAXX 13154 41989 02440 51803 10265 20240 30089 40092 83530 333 58023 70650 83618 84362==
41989,2022,09,13,21,00,AAXX 13214 41989 01330 81804 10255 20240 30066 40070 76162 8572/ 333 59007 70720 82708 83614 88456==
41989,2022,09,14,00,00,AAXX 14004 41989 21430 61804 10250 20240 30067 40070 70162 84430 333 58010 60249 70570 83618 83360==
41989,2022,09,14,15,00,AAXX 14154 41989 02450 41302 10259 20240 30079 40082 82530 333 59010 70460 82618 84362==
41989,2022,09,15,03,00,AAXX 15034 41989 02440 31402 10300 20250 30086 40090 83500 333 20245 59004 70040 83618==
41989,2022,09,15,09,00,AAXX 15094 41989 02450 51803 10295 20260 30047 40050 83570 333 59029 70000 83618 83460==
41989,2022,09,15,18,00,AAXX 15184 41989 21440 50504 10260 20240 30076 40079 70262 84430 333 59001 60025 70020 83618 84362==
41989,2022,09,15,21,00,AAXX 15214 41989 02440 41403 10255 20240 30070 40074 84500 333 58009 70020 84618==
41992,2022,09,09,00,00,AAXX 09004 41992 01425 60000 10263 20240 30063 40066 70522 83530 333 59010 70000 83616 86362==
41992,2022,09,09,03,00,AAXX 09034 41992 01/30 30000 10312 20250 30067 40070 70511 83030 333 20260 59016 70000 83362==
41992,2022,09,09,06,00,AAXX 09064 41992 01430 60000 10310 20260 30072 40075 70521 83530 333 58002 70000 83616 86362==
41992,2022,09,09,09,00,AAXX 09094 41992 41425 80000 10310 20260 30047 40050 76122 8432/ 333 58003 83614 88458 81925==
41992,2022,09,09,12,00,AAXX 09124 41992 01420 80000 10275 20270 30050 40053 76162 8492/ 333 10320 58007 70040 83614 88458 81925==
41992,2022,09,09,15,00,AAXX 09154 41992 01425 70000 10270 20260 30077 40080 70562 84530 333 58004 70040 84615 87360==
41992,2022,09,09,18,00,AAXX 09184 41992 11425 60000 10268 20250 30069 40072 60006 70562 83530 333 59006 70040 83616 86362==
41992,2022,09,09,21,00,AAXX 09214 41992 01425 70000 10263 20240 30064 40067 70522 84530 333 59006 70040 84616 87362==
41992,2022,09,10,00,00,AAXX 10004 41992 01425 70000 10258 20240 30057 40060 70522 84530 333 59006 70040 84616 87362==
41992,2022,09,10,06,00,AAXX 10064 41992 01430 60000 10320 20260 30074 40077 70522 83520 333 58002 70040 83616 86460==
41992,2022,09,10,09,00,AAXX 10094 41992 01330 71512 10305 20260 30045 40048 75162 85920 333 59002 70080 82710 84614 87458 81925==
41992,2022,09,10,15,00,AAXX 10154 41992 01320 81506 10255 20250 30080 40083 76166 8692/ 333 58003 70400 82708 84613 88458 81925==
41992,2022,09,10,18,00,AAXX 10184 41992 01315 80000 10247 20240 30081 40083 7592/ 333 58002 70590 83707 85613 88458 81925==
41992,2022,09,10,21,00,AAXX 10214 41992 01315 81202 10242 20240 30069 40072 76366 8692/ 333 58005 70730 82708 84613 88458 81925==
41992,2022,09,11,00,00,AAXX 11004 41992 21320 82403 10240 20240 30057 40060 76166 8692/ 333 58000 60199 70780 82708 84613 88458 81925==
41992,2022,09,11,06,00,AAXX 11064 41992 11430 71506 10288 20250 30068 40070 60006 70562 84530 333 59006 70780 84616 87362==
41992,2022,09,11,09,00,AAXX 11094 41992 01430 81506 10283 20250 30048 40051 70522 8452/ 333 58003 70740 84615 88460==
41992,2022,09,11,12,00,AAXX 11124 41992 21325 81508 10263 20250 30046 40049 76162 8592/ 333 10300 59004 60019 70680 82710 84615 88458 81925==
41992,2022,09,11,15,00,AAXX 11154 41992 01325 80905 10256 20250 30068 40071 75166 8592/ 333 59012 70390 82709 84615 88458 81925==
41992,2022,09,11,18,00,AAXX 11184 41992 21320 80000 10254 20240 30067 40069 76165 8592/ 333 59014 60059 70250 83707 85613 88458 81925==
41992,2022,09,11,21,00,AAXX 11214 41992 01315 80902 10250 20250 30060 40063 76366 8692/ 333 59009 70410 82708 84613 88458 81925==
41992,2022,09,12,00,00,AAXX 12004 41992 21320 80902 10240 20240 30055 40058 76166 8692/ 333 59005 60489 70540 82708 84613 88458 81925==
41992,2022,09,12,03,00,AAXX 12034 41992 01420 80000 10250 20240 30080 40083 76166 8592/ 333 20238 58011 70670 84614 88458 81925==
41992,2022,09,12,06,00,AAXX 12064 41992 21420 80000 10275 20260 30073 40075 76166 8592/ 333 58005 60149 70680 84614 88458 81925==
41992,2022,09,12,09,00,AAXX 12094 41992 01425 81506 10283 20250 30051 40054 70565 8592/ 333 58003 70680 84615 88460 81925==
41992,2022,09,12,12,00,AAXX 12124 41992 21325 81505 10263 20250 30055 40058 76165 8592/ 333 10285 58008 60029 70690 82707 84614 88458 81925==
41992,2022,09,12,15,00,AAXX 12154 41992 01325 81502 10252 20250 30075 40078 75166 8692/ 333 58007 70690 82709 84615 88458 81925==
41992,2022,09,12,18,00,AAXX 12184 41992 21320 81204 10247 20240 30073 40075 75165 8432/ 333 58006 60049 70680 82708 84614 88458 81925==
41992,2022,09,12,21,00,AAXX 12214 41992 01315 81503 10250 20250 30067 40070 76366 8692/ 333 58007 70680 82708 84614 88458 81925==
41992,2022,09,13,00,00,AAXX 13004 41992 21320 80902 10240 20240 30067 40070 76366 8692/ 333 58012 60679 70870 82708 84613 88458 81925==
41992,2022,09,13,03,00,AAXX 13034 41992 01320 80000 10257 20250 30084 40086 76366 8592/ 333 20238 58004 70850 83707 85613 88458 81925==
41992,2022,09,13,06,00,AAXX 13064 41992 21325 81503 10272 20250 30088 40090 75165 8432/ 333 58015 60119 70840 82708 84614 88458 81925==
41992,2022,09,13,09,00,AAXX 13094 41992 01325 82106 10273 20250 30071 40074 75165 8692/ 333 58020 70850 82708 84614 88458 81925==
41992,2022,09,13,12,00,AAXX 13124 41992 21325 81505 10260 20240 30071 40074 76165 8692/ 333 10285 58016 60029 70840 82708 84614 88458 81925==
41992,2022,09,13,15,00,AAXX 13154 41992 01420 80000 10260 20240 30086 40089 75155 8432/ 333 58011 70830 83614 88458 81925==
41992,2022,09,13,18,00,AAXX 13184 41992 21420 80000 10250 20240 30091 40094 76165 8592/ 333 58024 60069 70860 84614 88458 81925==
41992,2022,09,13,21,00,AAXX 13214 41992 01420 80000 10245 20240 30087 40090 76366 8592/ 333 58020 70810 84614 88458 81925==
41992,2022,09,14,00,00,AAXX 14004 41992 21420 80000 10245 20245 30080 40083 76166 8592/ 333 58013 60439 70620 84614 88458 81925==
41992,2022,09,14,06,00,AAXX 14064 41992 01325 82402 10274 20250 30098 40100 76165 8432/ 333 58010 70520 82708 84614 88458 81925==
41992,2022,09,14,15,00,AAXX 14154 41992 01425 60902 10256 20250 30091 40094 70522 84530 333 58005 70510 84616 86362==
41992,2022,09,15,03,00,AAXX 15034 41992 01430 50000 10295 20260 30091 40094 70522 82530 333 20243 59004 70030 82616 84362==
41992,2022,09,15,09,00,AAXX 15094 41992 01435 32102 10302 20250 30051 40054 70521 82530 333 59030 70010 82616 83362==
41992,2022,09,15,18,00,AAXX 15184 41992 41425 70000 10267 20250 30054 40056 70522 84530 333 59036 84616 87362==
41998,2022,09,09,00,00,AAXX 09004 41998 02456 60000 10265 20250 30053 40059 84470 333 59013 70110 83618 83359==
41998,2022,09,09,03,00,AAXX 09034 41998 02456 60000 10290 20250 30059 40065 83470 333 20256 59010 70110 83618 83458==
41998,2022,09,09,12,00,AAXX 09124 41998 21456 80000 10272 20260 30055 40061 70262 8442/ 333 10308 58012 60077 70180 83618 88458==
41998,2022,09,10,03,00,AAXX 10034 41998 02456 60000 10275 20260 30059 40065 82470 333 58006 70070 81618 83362==
41998,2022,09,10,12,00,AAXX 10124 41998 02456 60000 10292 20270 30048 40054 83470 333 10324 59007 70000 82618 84458==
41998,2022,09,11,00,00,AAXX 11004 41998 21450 80000 10275 20260 30050 40056 72166 8347/ 333 59009 60117 70110 82617 86361==
41998,2022,09,11,03,00,AAXX 11034 41998 02456 80000 10286 20260 30054 40060 8347/ 333 20270 59020 70110 82617 83458==
41998,2022,09,11,12,00,AAXX 11124 41998 01456 80000 10264 20250 30052 40058 70262 8442/ 333 10298 58004 70220 83618 88458==
41998,2022,09,12,00,00,AAXX 12004 41998 21450 80000 10250 20250 30061 40067 76166 8352/ 333 58011 60269 70430 83616 88456==
41998,2022,09,12,03,00,AAXX 12034 41998 01456 80000 10256 20240 30070 40076 76166 8352/ 333 20245 58016 70480 83616 88456==
41998,2022,09,12,12,00,AAXX 12124 41998 21456 80000 10258 20250 30050 40056 76166 8442/ 333 10308 59002 60249 70810 83618 88458==
41998,2022,09,13,03,00,AAXX 13034 41998 01456 80000 10268 20240 30077 40083 76166 8352/ 333 20245 58007 70390 83616 88456==
41998,2022,09,13,06,00,AAXX 13064 41998 21456 80000 10280 20250 30065 40071 76166 8352/ 333 58010 60079 70350 83618 88456==
41998,2022,09,13,09,00,AAXX 13094 41998 01456 81701 10268 20250 30068 40074 76166 8442/ 333 58015 70590 83616 88456==
41998,2022,09,13,12,00,AAXX 13124 41998 21456 81801 10256 20250 30079 40085 76166 8442/ 333 10286 58028 60229 70570 83616 88456==
41998,2022,09,13,18,00,AAXX 13184 41998 21456 80000 10260 20260 30099 40105 76166 8342/ 333 58035 60169 70620 83616 88456==
41998,2022,09,14,12,00,AAXX 14124 41998 21456 80000 10257 20250 30083 40089 76166 8442/ 333 10281 58004 60259 70550 83618 88458==
41998,2022,09,15,03,00,AAXX 15034 41998 02456 60000 10272 20250 30077 40083 83420 333 20250 59011 70210 82618 83458==
