ESTACION,ANO,MES,DIA,HORA,MINUTO,PARTE
41850,2024,06,07,00,00,AAXX 07004 41850 31950 00000 10253 20230 39943 40041 70510 333 59022 70010=
41850,2024,06,07,06,00,AAXX 07064 41850 32957 31603 10335 20240 39929 40024 83500 333 56900 59034 70000 83618=
41850,2024,06,07,12,00,AAXX 07124 41850 32456 20000 10337 20270 39890 49985 82500 333 10361 56900 59034 70000 82618=
41850,2024,06,07,18,00,AAXX 07184 41850 32440 40000 10290 20270 39917 40014 82510 333 56990 59026 70000 82618 84460=
41850,2024,06,08,00,00,AAXX 08004 41850 31450 60403 10266 20250 39921 40018 70522 83520 333 56990 59022 70000 83617 86458=
41850,2024,06,08,06,00,AAXX 08064 41850 32456 70803 10307 20260 39926 40022 83520 333 56990 59003 70000 83617 87458=
41850,2024,06,08,12,00,AAXX 08124 41850 32450 80403 10274 20240 39901 49998 8352/ 333 10323 56999 58011 70000 83617 88458=
41850,2024,06,08,18,00,AAXX 08184 41850 32440 80000 10270 20260 39915 40012 8352/ 333 56999 59002 70000 83617 88458=
41850,2024,06,09,00,00,AAXX 09004 41850 31440 80803 10267 20250 39898 49995 70522 8452/ 333 56999 59023 70000 84617 88458=
41850,2024,06,09,06,00,AAXX 09064 41850 11456 70603 10303 20250 39920 40016 60026 70196 84520 333 56990 59006 70020 84617 87458=
41850,2024,06,09,12,00,AAXX 09124 41850 32450 80502 10287 20260 39900 49997 8452/ 333 10311 56999 59001 70020 84617 88458=
41850,2024,06,09,18,00,AAXX 09184 41850 32440 80000 10274 20260 39918 40015 8452/ 333 56999 58003 70020 84617 88458=
41850,2024,06,10,00,00,AAXX 10004 41850 31440 80202 10265 20260 39922 40019 70522 8352/ 333 56999 58024 70020 83617 88458=
41850,2024,06,10,06,00,AAXX 10064 41850 11456 70803 10302 20250 39923 40019 60016 70162 85320 333 56990 58003 70006 83617 87458=
41850,2024,06,10,12,00,AAXX 10124 41850 32450 60000 10304 20260 39895 49991 82530 333 10318 56990 59005 70006 82617 86363=
41850,2024,06,10,18,00,AAXX 10184 41850 32440 80602 10283 20260 39926 40023 8452/ 333 56999 58008 70006 84617 88458=
41850,2024,06,11,00,00,AAXX 11004 41850 31440 80202 10266 20260 39930 40028 70522 8352/ 333 56999 58008 70006 83617 88458=
41850,2024,06,11,06,00,AAXX 11064 41850 32456 80803 10297 20260 39926 40023 8352/ 333 56999 58003 70000 83617 88458=
41850,2024,06,11,12,00,AAXX 11124 41850 32450 51002 10305 20270 39901 49997 82530 333 10318 56990 58006 70000 82617 85362=
41850,2024,06,12,00,00,AAXX 12004 41850 11450 80504 10260 20250 39928 40026 60063 70562 8452/ 333 56999 59002 70058 84617 88458=
41850,2024,06,12,06,00,AAXX 12064 41850 32456 60803 10294 20250 39933 40030 83530 333 56990 58007 70058 83617 86362=
41850,2024,06,12,12,00,AAXX 12124 41850 32450 80000 10307 20270 39903 49999 8352/ 333 10334 56999 58002 70058 83618 88458=
41850,2024,06,12,18,00,AAXX 12184 41850 11330 80000 10262 20260 39917 40015 60754 72196 8562/ 333 56999 59002 70808 82709 84616 88458=
41850,2024,06,13,00,00,AAXX 13004 41850 11330 80000 10257 20257 39916 40014 60273 76196 8572/ 333 56999 59012 71020 82708 84616 88458=
41850,2024,06,13,06,00,AAXX 13064 41850 11457 81802 10299 20260 39917 40013 60016 70262 8352/ 333 56999 59016 71030 83618 88458=
41850,2024,06,13,12,00,AAXX 13124 41850 32450 60000 10299 20260 39891 49987 82510 333 10318 56990 59012 71030 82618 86458=
41850,2024,06,13,18,00,AAXX 13184 41850 31440 70000 10269 20260 39913 40010 70522 82510 333 56990 59004 70280 82618 87458=
41851,2024,06,07,00,00,AAXX 07004 41851 31940 00000 10265 20260 39979 40042 70500 333 59013 70000=
41851,2024,06,07,06,00,AAXX 07064 41851 32450 50901 10336 20240 39969 40030 83430 333 56990 59029 70000 82618 83362=
41851,2024,06,07,12,00,AAXX 07124 41851 32450 21502 10334 20250 39924 49985 82500 333 10358 56900 59036 70000 82618=
41851,2024,06,07,18,00,AAXX 07184 41851 32450 20000 10282 20260 39954 40016 82500 333 56900 59025 70000 82618=
41851,2024,06,08,00,00,AAXX 08004 41851 31440 80901 10270 20250 39947 40009 70521 8352/ 333 56999 59032 70000 83618 88458=
41851,2024,06,08,06,00,AAXX 08064 41851 32450 81803 10310 20240 39964 40025 8352/ 333 56999 59005 70000 83618 88458=
41851,2024,06,08,12,00,AAXX 08124 41851 32450 80000 10310 20260 39929 49990 8352/ 333 10325 56999 58005 70000 83618 88458=
41851,2024,06,08,18,00,AAXX 08184 41851 32450 80000 10288 20270 39944 40006 8352/ 333 56999 59010 70000 83618 88458=
41851,2024,06,09,00,00,AAXX 09004 41851 11450 80000 10255 20250 39936 49999 60417 71796 8352/ 333 56999 59011 70405 83618 88458=
41851,2024,06,09,06,00,AAXX 09064 41851 11450 80000 10297 20250 39954 40016 60014 70296 8352/ 333 56999 59010 70415 83618 88458=
41851,2024,06,09,12,00,AAXX 09124 41851 32450 81801 10292 20260 39933 49995 8352/ 333 10308 56999 58004 70415 83618 88458=
41851,2024,06,09,18,00,AAXX 09184 41851 32450 80000 10280 20260 39953 40015 8352/ 333 56999 58009 70415 83618 88458=
41851,2024,06,10,00,00,AAXX 10004 41851 11450 80902 10265 20250 39953 40015 69935 70262 8352/ 333 56999 58017 70013 83618 88458=
41851,2024,06,10,06,00,AAXX 10064 41851 32450 80902 10307 20260 39959 40020 8352/ 333 56999 58005 70003 83618 88458=
41851,2024,06,10,12,00,AAXX 10124 41851 32450 81801 10315 20270 39927 49990 8352/ 333 10335 56999 59006 70003 83618 88458=
41851,2024,06,10,18,00,AAXX 10184 41851 32450 80000 10275 20260 39955 40017 8352/ 333 56999 58002 70003 83618 88458=
41851,2024,06,11,00,00,AAXX 11004 41851 32450 80902 10265 20250 39961 40023 8352/ 333 56999 58008 70000 83618 88458=
41851,2024,06,11,06,00,AAXX 11064 41851 32450 81302 10315 20270 39961 40022 8352/ 333 56999 58002 70000 83618 88458=
41851,2024,06,11,12,00,AAXX 11124 41851 32450 80902 10315 20270 39933 49994 8352/ 333 10335 56999 58005 70000 83618 88458=
41851,2024,06,11,18,00,AAXX 11184 41851 32450 80902 10288 20260 39954 40016 8352/ 333 56999 59001 70000 83618 88458=
41851,2024,06,12,00,00,AAXX 12004 41851 11450 80902 10260 20250 39951 40014 60728 70296 8352/ 333 56999 59010 70720 83618 88458=
41851,2024,06,12,06,00,AAXX 12064 41851 11340 81801 10273 20260 39961 40023 60054 76392 8472/ 333 56299 58000 70773 81708 83616 88457=
41851,2024,06,12,12,00,AAXX 12124 41851 32450 80000 10312 20270 39933 49994 8352/ 333 10328 56999 58000 70773 83618 88458=
41851,2024,06,12,18,00,AAXX 12184 41851 32450 80000 10292 20270 39945 40007 8352/ 333 56999 59009 70773 83617 88457=
41851,2024,06,13,00,00,AAXX 13004 41851 11340 80000 10256 20256 39953 40016 60758 70596 8462/ 333 56999 58002 70803 81709 83617 88457=
41851,2024,06,13,06,00,AAXX 13064 41851 32450 81301 10290 20260 39954 40016 8352/ 333 56999 59007 70750 83618 88458=
41851,2024,06,13,12,00,AAXX 13124 41851 32450 60000 10302 20260 39921 49982 83520 333 10316 56990 59012 70750 83618 86458=
41851,2024,06,13,18,00,AAXX 13184 41851 32450 80903 10276 20260 39942 40004 8462/ 333 56999 59003 70750 81709 83617 88457=
41856,2024,06,07,00,00,AAXX 07004 41856 32940 20000 10257 20250 30002 40037 82030 333 56090 59019 70000 82362=
41856,2024,06,07,06,00,AAXX 07064 41856 32456 51802 10346 20250 39998 40032 83430 333 56990 59027 70000 81618 83825 85362=
41856,2024,06,07,12,00,AAXX 07124 41856 32456 51401 10330 20270 39955 49989 83430 333 10360 56990 59034 70000 81618 83825 85362=
41856,2024,06,07,18,00,AAXX 07184 41856 32430 31401 10274 20250 39985 40020 82430 333 56990 59024 70000 81618 83362=
41856,2024,06,08,00,00,AAXX 08004 41856 32440 30000 10270 20250 39982 40017 82430 333 56990 59020 70000 81618 83362=
41856,2024,06,08,06,00,AAXX 08064 41856 11450 80901 10315 20250 39990 40024 60046 70262 8562/ 333 56999 59008 70040 83709 85615 88457=
41856,2024,06,08,12,00,AAXX 08124 41856 32440 80000 10310 20260 39959 49994 8452/ 333 10325 56999 58004 70040 84618 88457=
41856,2024,06,08,18,00,AAXX 08184 41856 32430 60000 10285 20270 30097 40006 84410 333 56990 59014 70040 83618 85458=
41856,2024,06,09,00,00,AAXX 09004 41856 11430 80903 10245 20240 39969 40004 61619 79796 8632/ 333 56999 59014 71650 84616 88257 81928=
41856,2024,06,09,06,00,AAXX 09064 41856 11350 81401 10280 20260 39991 40026 60016 70292 8662/ 333 56999 58001 71620 83710 84618 88457=
41856,2024,06,09,12,00,AAXX 09124 41856 32450 80000 10284 20250 39965 40000 8542/ 333 10305 56999 58006 71620 84618 88458=
41856,2024,06,09,18,00,AAXX 09184 41856 32440 80000 10270 20260 39982 40017 8542/ 333 56999 58011 71620 84618 88458=
41856,2024,06,10,00,00,AAXX 10004 41856 11340 81101 10254 20240 39987 40023 60208 71796 8562/ 333 56999 58018 70210 82710 84618 88458 81930=
41856,2024,06,10,06,00,AAXX 10064 41856 32450 81601 10304 20240 39985 40020 8542/ 333 56999 59006 70200 84618 88458=
41856,2024,06,10,12,00,AAXX 10124 41856 32450 50000 10302 20250 39962 49997 83430 333 10325 56990 59003 70200 82618 83458=
41856,2024,06,10,18,00,AAXX 10184 41856 32440 51401 10273 20250 39987 40022 83430 333 56990 58005 70200 82618 83458=
41856,2024,06,11,00,00,AAXX 11004 41856 32440 80000 10270 20250 39988 40023 8542/ 333 56999 58001 70000 84618 88458=
41856,2024,06,11,06,00,AAXX 11064 41856 32450 80702 10310 20230 39990 40025 84430 333 56990 58005 70000 83618 86458=
41856,2024,06,11,12,00,AAXX 11124 41856 32950 50000 10314 20260 39967 40002 85030 333 10335 56090 58005 70000 85362=
41856,2024,06,11,18,00,AAXX 11184 41856 32430 40602 10280 20260 39984 40019 84400 333 56900 59003 70000 82618=
41856,2024,06,12,00,00,AAXX 12004 41856 32440 80000 10277 20260 39985 40020 8524/ 333 56499 59003 70000 83618 88458=
41856,2024,06,12,06,00,AAXX 12064 41856 11450 40000 10308 20270 39989 40024 60383 70196 81530 333 56990 59001 70379 81618 84362=
41856,2024,06,12,12,00,AAXX 12124 41856 32950 20901 10317 20280 39963 49998 82030 333 10334 56090 59003 70379 82362=
41856,2024,06,12,18,00,AAXX 12184 41856 11420 81502 10273 20260 39978 40013 60014 79592 8632/ 333 56999 59006 70389 84616 88456 81925=
41856,2024,06,13,00,00,AAXX 13004 41856 11430 82401 10255 20250 39981 40016 60169 72999 8442/ 333 56999 59004 70547 83618 88458=
41856,2024,06,13,06,00,AAXX 13064 41856 32450 81001 10290 20250 39986 40021 8252/ 333 56999 59003 70168 82618 88458=
41856,2024,06,13,12,00,AAXX 13124 41856 32450 60901 10306 20270 39955 49990 83420 333 10325 56990 59008 70168 82618 86458=
41856,2024,06,13,18,00,AAXX 13184 41856 32430 81304 10266 20250 39971 40006 8452/ 333 56999 59007 70158 84618 88458=
41858,2024,06,07,00,00,AAXX 07004 41858 01920 20000 10272 20260 39997 40042 71010 80001 333 59030 70000 82074==
41858,2024,06,07,03,00,AAXX 07034 41858 01/40 31205 10314 20260 30001 40046 70522 83030 333 20259 59031 70000 83362==
41858,2024,06,07,06,00,AAXX 07064 41858 01550 32404 10350 20250 39989 40033 70522 83200 333 59025 70000 83825==
41858,2024,06,07,09,00,AAXX 07094 41858 01450 61804 10310 20220 39958 40002 72992 83520 333 59040 70000 83615 85458==
41858,2024,06,07,12,00,AAXX 07124 41858 01450 51804 10332 20240 39948 49992 70592 82520 333 10360 59029 70000 82615 84460==
41858,2024,06,07,15,00,AAXX 07154 41858 01440 61805 10300 20250 39971 40015 70522 83420 333 59016 70000 82616 86460==
41858,2024,06,07,18,00,AAXX 07184 41858 01440 81406 10286 20250 39982 40027 71322 8532/ 333 59011 70000 83616 88460 81930==
41858,2024,06,07,21,00,AAXX 07214 41858 01435 81806 10285 20250 39980 40025 70522 8452/ 333 59016 70000 84616 88458==
41858,2024,06,08,00,00,AAXX 08004 41858 01430 80000 10282 20250 39976 40021 70522 8352/ 333 59021 70000 83616 88458==
41858,2024,06,08,03,00,AAXX 08034 41858 01435 81205 10295 20250 39987 40032 70522 8352/ 333 20274 59014 70000 83616 88458==
41858,2024,06,08,06,00,AAXX 08064 41858 01440 81206 10310 20250 39981 40025 70522 8452/ 333 59008 70000 84615 88458==
41858,2024,06,08,09,00,AAXX 08094 41858 01440 61502 10324 20250 39958 40002 70522 83520 333 58000 70000 83616 86458==
41858,2024,06,08,12,00,AAXX 08124 41858 01440 41205 10308 20260 39947 49991 70522 82520 333 10325 59001 70000 82618 84458==
41858,2024,06,08,15,00,AAXX 08154 41858 01440 60902 10302 20260 39963 40007 70522 83520 333 59008 70000 83618 86458==
41858,2024,06,08,18,00,AAXX 08184 41858 01440 60902 10298 20260 39978 40022 70522 83520 333 59004 70000 83618 86458==
41858,2024,06,08,21,00,AAXX 08214 41858 01440 80905 10282 20250 39952 49997 70522 8452/ 333 59028 70000 84615 88458==
41858,2024,06,09,00,00,AAXX 09004 41858 01440 80905 10275 20260 39959 40004 70522 8452/ 333 59017 70000 84615 88458==
41858,2024,06,09,03,00,AAXX 09034 41858 01440 80905 10284 20240 39972 40017 70522 8452/ 333 20265 59015 70000 84616 88458==
41858,2024,06,09,06,00,AAXX 09064 41858 01440 80905 10310 20250 39976 40020 70522 8452/ 333 59005 70000 84616 88458==
41858,2024,06,09,09,00,AAXX 09094 41858 01440 80906 10314 20240 39963 40007 70522 8452/ 333 58005 70000 84616 88458==
41858,2024,06,09,12,00,AAXX 09124 41858 01440 60905 10302 20250 39952 49996 70522 83520 333 10320 58005 70000 83618 86458==
41858,2024,06,09,15,00,AAXX 09154 41858 01440 61205 10296 20260 39969 40013 70522 83520 333 58009 70000 83615 86458==
41858,2024,06,09,18,00,AAXX 09184 41858 01440 61205 10280 20250 39980 40025 70522 83520 333 58002 70000 83615 86458==
41858,2024,06,09,21,00,AAXX 09214 41858 01440 81206 10270 20240 39970 40015 71722 8452/ 333 58017 70000 84616 88458==
41858,2024,06,10,00,00,AAXX 10004 41858 01430 80902 10258 20240 39976 40021 71796 8452/ 333 58017 70210 84616 88458==
41858,2024,06,10,03,00,AAXX 10034 41858 01430 80904 10277 20260 39983 40025 70562 8452/ 333 20246 58011 70210 84616 88458==
41858,2024,06,10,06,00,AAXX 10064 41858 01440 60905 10320 20270 39975 40019 70522 83520 333 59001 70210 83618 86458==
41858,2024,06,10,09,00,AAXX 10094 41858 01450 61205 10322 20240 39962 40006 70522 83520 333 59001 70210 83615 88458==
41858,2024,06,10,12,00,AAXX 10124 41858 01950 31205 10320 20250 39950 49994 70520 80001 333 10330 59002 70210 83074==
41858,2024,06,10,15,00,AAXX 10154 41858 01950 01205 10298 20250 39972 40016 70500 333 58002 70210==
41858,2024,06,10,18,00,AAXX 10184 41858 01440 41205 10284 20240 39990 40035 70522 83520 333 58010 70210 83615 84458==
41858,2024,06,10,21,00,AAXX 10214 41858 01440 60000 10282 20250 39978 40023 70522 84520 333 58008 70210 84615 85458==
41858,2024,06,11,00,00,AAXX 11004 41858 01440 80000 10280 20260 39980 40025 70522 333 58004 70000 84615 88458==
41858,2024,06,11,03,00,AAXX 11034 41858 01440 80905 10285 20270 39986 40031 70522 8452/ 333 20265 58003 70000 84616 88460==
41858,2024,06,11,06,00,AAXX 11064 41858 01440 60905 10333 20260 39976 40021 70522 83520 333 58002 70000 83616 86460==
41858,2024,06,11,09,00,AAXX 11094 41858 01440 50905 10350 20260 39958 40001 70522 83520 333 59004 70000 83616 85460==
41858,2024,06,11,12,00,AAXX 11124 41858 01440 80906 10320 20270 39954 49998 70522 8452/ 333 10353 58004 70000 84616 88460==
41858,2024,06,11,15,00,AAXX 11154 41858 01440 60905 10300 20270 39968 40012 70522 83520 333 58004 70000 83616 86460==
41858,2024,06,11,18,00,AAXX 11184 41858 01440 61004 10290 20270 39979 40024 70522 83520 333 59011 70000 83616 86460==
41858,2024,06,12,00,00,AAXX 12004 41858 01420 80000 10276 20270 39983 40028 76362 8452/ 333 58003 70064 84615 88458==
41858,2024,06,12,03,00,AAXX 12034 41858 01430 70000 10290 20270 39991 40036 70562 84520 333 20270 58003 70084 84615 86458==
41858,2024,06,12,06,00,AAXX 12064 41858 11450 70508 10320 20270 39983 40027 60026 70562 84520 333 58006 70084 84615 86458==
41858,2024,06,12,09,00,AAXX 12094 41858 01440 60905 10310 20270 39962 40006 70522 83520 333 58004 70084 83616 86460==
41858,2024,06,12,12,00,AAXX 12124 41858 NIL=
41858,2024,06,12,15,00,AAXX 12154 41858 01440 60605 10304 20260 39953 49998 70522 83520 333 10320 59001 70084 83616 86460==
41858,2024,06,12,18,00,AAXX 12184 41858 01440 60905 10288 20270 39979 40024 70522 83520 333 58000 70084 83616 86460==
41858,2024,06,12,21,00,AAXX 12214 41858 01430 82705 10270 20260 39973 40018 79596 8592/ 333 58001 70094 84615 88458 82930==
41858,2024,06,13,00,00,AAXX 13004 41858 21450 82705 10262 20240 39967 40013 71796 8592/ 333 59016 60049 70060 85614 88458 82930==
41858,2024,06,13,03,00,AAXX 13034 41858 01440 80000 10270 20250 39980 40025 70522 8452/ 333 20252 59011 70040 84615 88458==
41858,2024,06,13,06,00,AAXX 13064 41858 01450 80805 10290 20250 39974 40019 70522 8452/ 333 59009 70040 84615 88458==
41858,2024,06,13,09,00,AAXX 13094 41858 01450 50904 10325 20270 39951 49995 70522 82520 333 59011 70040 82615 84458==
41858,2024,06,13,12,00,AAXX 13124 41858 01450 70904 10318 20270 39942 49986 70522 84520 333 10330 59012 70040 84615 86458==
41858,2024,06,13,15,00,AAXX 13154 41858 01440 81007 10300 20260 39963 40007 70522 8352/ 333 59008 70040 83616 88460==
41858,2024,06,13,18,00,AAXX 13184 41858 01440 81208 10286 20270 39973 40018 71322 8532/ 333 59006 70040 84616 88460 81930==
41858,2024,06,13,21,00,AAXX 13214 41858 01438 81208 10256 20240 39978 40024 79596 8692/ 333 58005 70202 84615 88458 82925==
41859,2024,06,07,00,00,AAXX 07004 41859 02430 60000 10268 20260 30005 40042 83570 333 59014 70000 83618 85458==
41859,2024,06,07,03,00,AAXX 07034 41859 02950 00000 10313 20260 30008 40044 333 20260 59033 70000==
41859,2024,06,07,06,00,AAXX 07064 41859 02450 60000 10347 20250 39996 40033 83520 333 59031 70000 83618 86458==
41859,2024,06,07,09,00,AAXX 07094 41859 02450 82704 10340 20260 39968 40005 8562/ 333 59035 70000 83710 84618 88458==
41859,2024,06,07,12,00,AAXX 07124 41859 02450 72302 10326 20240 39955 49992 85610 333 10361 59034 70000 82710 84618 87458==
41859,2024,06,07,15,00,AAXX 07154 41859 02430 41302 10291 20250 39981 40018 82520 333 59018 70000 82618 84458==
41859,2024,06,07,18,00,AAXX 07184 41859 02430 81302 10280 20250 39982 40019 8562/ 333 59026 70000 82710 84618 88458==
41859,2024,06,07,21,00,AAXX 07214 41859 02430 81302 10279 20250 39979 40016 8562/ 333 59018 70000 82710 84618 88458==
41859,2024,06,08,00,00,AAXX 08004 41859 02430 81303 10277 20250 39977 40014 8562/ 333 59028 70000 82710 84618 88458==
41859,2024,06,08,03,00,AAXX 08034 41859 02440 80000 10294 20240 39997 40033 8562/ 333 20270 59011 70000 82710 83618 88458==
41859,2024,06,08,06,00,AAXX 08064 41859 02450 80000 10311 20250 39994 40030 8562/ 333 59002 70000 82710 83618 88458==
41859,2024,06,08,09,00,AAXX 08094 41859 02450 70000 10330 20250 39966 40003 83570 333 59002 70000 83618 86458==
41859,2024,06,08,12,00,AAXX 08124 41859 02450 80000 10317 20260 39957 49993 8452/ 333 10335 58002 70000 83618 88458==
41859,2024,06,08,15,00,AAXX 08154 41859 02430 80902 10298 20270 39975 40011 8562/ 333 59006 70000 82710 84618 88458==
41859,2024,06,08,18,00,AAXX 08184 41859 02430 80000 10295 20270 39972 40008 8562/ 333 59010 70000 82710 84618 88458==
41859,2024,06,08,21,00,AAXX 08214 41859 02430 80000 10280 20250 39958 49994 8562/ 333 59021 70000 83710 85618 88458==
41859,2024,06,09,00,00,AAXX 09004 41859 01440 80502 10266 20240 39974 40011 71722 8532/ 333 59003 70000 83710 85618 88458 81930==
41859,2024,06,09,03,00,AAXX 09034 41859 02450 80502 10275 20250 39986 40022 8562/ 333 20255 59011 70000 83710 84618 88458==
41859,2024,06,09,06,00,AAXX 09064 41859 02450 80502 10306 20250 39988 40025 8562/ 333 59006 70000 83710 84618 88458==
41859,2024,06,09,09,00,AAXX 09094 41859 02450 81303 10306 20250 39972 40008 8562/ 333 59006 70000 83710 84618 88458==
41859,2024,06,09,12,00,AAXX 09124 41859 02450 81302 10306 20260 39960 49996 8562/ 333 10315 58003 70000 83710 84618 88458==
41859,2024,06,09,15,00,AAXX 09154 41859 02430 81302 10288 20250 39981 40018 8562/ 333 58006 70000 83710 84618 88458==
41859,2024,06,09,18,00,AAXX 09184 41859 02430 81302 10280 20250 39978 40014 8562/ 333 58003 70000 82710 84618 88458==
41859,2024,06,09,21,00,AAXX 09214 41859 01430 80502 10269 20260 39981 40018 71762 8692/ 333 58023 70002 83710 84618 88458 81930==
41859,2024,06,10,00,00,AAXX 10004 41859 01430 80000 10269 20260 39984 40021 71796 8692/ 333 58010 70006 83710 84618 88458 81930==
41859,2024,06,10,03,00,AAXX 10034 41859 02450 80000 10279 20260 39993 40030 8562/ 333 20260 58007 70006 83710 84618 88458==
41859,2024,06,10,06,00,AAXX 10064 41859 02450 80000 10301 20240 39988 40024 8562/ 333 58000 70000 83710 84618 88458==
41859,2024,06,10,09,00,AAXX 10094 41859 02450 81302 10335 20260 39967 40004 8561/ 333 59005 70006 82710 84618 88459==
41859,2024,06,10,12,00,AAXX 10124 41859 02450 61302 10320 20260 39960 49996 83530 333 10335 58000 70006 83618 86362==
41859,2024,06,10,15,00,AAXX 10154 41859 02430 81302 10289 20250 39983 40020 8562/ 333 58002 70006 82710 84618 88458==
41859,2024,06,10,18,00,AAXX 10184 41859 02430 81302 10281 20250 39988 40025 8562/ 333 58010 70006 82710 84618 88458==
41859,2024,06,10,21,00,AAXX 10214 41859 02430 81302 10281 20250 39986 40023 8562/ 333 58005 70004 82710 84618 88458==
41859,2024,06,11,00,00,AAXX 11004 41859 42430 81302 10281 20260 39984 40021 8562/ 333 58000 82710 84618 88458==
41859,2024,06,11,03,00,AAXX 11034 41859 02440 81303 10303 20260 39996 40032 8562/ 333 20268 59003 70000 82710 83618 88458==
41859,2024,06,11,06,00,AAXX 11064 41859 02450 71302 10331 20260 39987 40023 84620 333 59001 70000 82710 83618 87458==
41859,2024,06,11,09,00,AAXX 11094 41859 02450 60902 10348 20280 39965 40002 83520 333 59002 70000 83618 86458==
41859,2024,06,11,12,00,AAXX 11124 41859 02450 70501 10328 20270 39963 40000 83520 333 10350 58003 70000 83618 87458==
41859,2024,06,11,15,00,AAXX 11154 41859 02430 80502 10305 20280 39981 40017 8562/ 333 59002 70000 82710 84618 88458==
41859,2024,06,11,18,00,AAXX 11184 41859 02430 80502 10297 20280 39983 40019 8562/ 333 59005 70000 82710 84618 88458==
41859,2024,06,11,21,00,AAXX 11214 41859 02430 80502 10292 20280 39980 40017 8562/ 333 59006 70000 82710 84618 88458==
41859,2024,06,12,00,00,AAXX 12004 41859 02440 80502 10290 20280 39986 40023 8562/ 333 58002 70000 82710 84618 88458==
41859,2024,06,12,03,00,AAXX 12034 41859 02340 80502 10284 20270 30000 40038 8572/ 333 20273 58004 70023 83708 84616 88457==
41859,2024,06,12,06,00,AAXX 12064 41859 21350 80502 10313 20270 39990 40027 70296 8562/ 333 58003 60028 70023 83708 84616 88457==
41859,2024,06,12,09,00,AAXX 12094 41859 02450 80000 10322 20280 39970 40006 8562/ 333 58005 70023 82710 84618 88458==
41859,2024,06,12,12,00,AAXX 12124 41859 02450 80000 10330 20290 39960 49997 8562/ 333 10335 59003 70023 82710 84618 88458==
41859,2024,06,12,15,00,AAXX 12154 41859 02430 80000 10311 20290 39976 40012 8562/ 333 59005 70023 82710 84618 88458==
41859,2024,06,12,18,00,AAXX 12184 41859 01430 81302 10293 20270 39974 40010 71792 8692/ 333 59009 70023 83710 84618 88458 81930==
41859,2024,06,12,21,00,AAXX 12214 41859 01430 80501 10274 20260 39977 40014 71792 8692/ 333 59003 70023 83710 84618 88458 81930==
41859,2024,06,13,00,00,AAXX 13004 41859 11330 80501 10240 20230 39981 40018 60242 79596 8692/ 333 59005 70266 84708 85616 88456 81929==
41859,2024,06,13,03,00,AAXX 13034 41859 02440 80501 10256 20250 39989 40026 8562/ 333 20233 59011 70243 82710 83618 88458==
41859,2024,06,13,06,00,AAXX 13064 41859 02450 80502 10282 20260 39985 40022 8562/ 333 59005 70243 82710 83618 88458==
41859,2024,06,13,09,00,AAXX 13094 41859 02450 80502 10326 20270 39958 49995 8562/ 333 59012 70243 82710 84618 88458==
41859,2024,06,13,12,00,AAXX 13124 41859 02450 81302 10323 20260 39949 49985 8562/ 333 10332 59011 70243 82710 84618 88458==
41859,2024,06,13,15,00,AAXX 13154 41859 02430 81303 10286 20260 39975 40012 8562/ 333 59001 70243 82710 84618 88458==
41859,2024,06,13,18,00,AAXX 13184 41859 02430 81303 10275 20260 39965 40001 8562/ 333 59009 70243 82710 84618 88458==
41859,2024,06,13,21,00,AAXX 13214 41859 02430 81302 10272 20250 39952 49989 8562/ 333 59025 70243 82710 84618 88458==
41863,2024,06,07,00,00,AAXX 07004 41863 02/50 20000 10271 20260 39998 40041 82030 333 59023 70024 82362==
41863,2024,06,07,03,00,AAXX 07034 41863 02456 50000 10315 20270 30002 40044 83520 333 20260 59037 70000 83618 85458==
41863,2024,06,07,06,00,AAXX 07064 41863 02457 61301 10335 20270 39996 40037 84520 333 59020 70000 84618 86458==
41863,2024,06,07,09,00,AAXX 07094 41863 01456 40901 10300 20250 39953 49995 70196 84500 333 59050 70512 84618==
41863,2024,06,07,12,00,AAXX 07124 41863 11457 30000 10328 20250 39949 49990 60516 70196 83500 333 10328 59029 70512 83618==
41863,2024,06,07,15,00,AAXX 07154 41863 02950 00000 10290 20270 39970 40012 333 59021 70512==
41863,2024,06,07,18,00,AAXX 07184 41863 02950 00000 10280 20260 39971 40013 333 59028 70512==
41863,2024,06,07,21,00,AAXX 07214 41863 02950 00000 10278 20260 39969 40011 333 59024 70512==
41863,2024,06,08,00,00,AAXX 08004 41863 02950 00901 10275 20260 39974 40016 333 59024 70512==
41863,2024,06,08,03,00,AAXX 08034 41863 02456 60902 10294 20250 39986 40028 82520 333 20242 59016 70512 82618 86458==
41863,2024,06,08,06,00,AAXX 08064 41863 02456 71301 10315 20270 39982 40024 83520 333 58014 70512 83618 87458==
41863,2024,06,08,09,00,AAXX 08094 41863 02456 81302 10321 20260 39957 49999 8552/ 333 58004 70000 85618 88458==
41863,2024,06,08,12,00,AAXX 08124 41863 02456 31302 10325 20270 39947 49988 83500 333 10328 59002 70000 83618==
41863,2024,06,08,15,00,AAXX 08154 41863 02456 81302 10305 20280 39961 40003 8552/ 333 59009 70000 85618 88458==
41863,2024,06,08,18,00,AAXX 08184 41863 02456 51302 10290 20270 39969 40011 83520 333 59002 70000 83618 85458==
41863,2024,06,08,21,00,AAXX 08214 41863 02456 50000 10288 20270 39963 40005 83520 333 59006 70000 83618 85458==
41863,2024,06,09,00,00,AAXX 09004 41863 02456 80000 10285 20280 39955 49997 8552/ 333 59019 70000 85618 88458==
41863,2024,06,09,03,00,AAXX 09034 41863 02456 81801 10290 20260 39972 40014 8552/ 333 20278 59014 70000 85618 88458==
41863,2024,06,09,06,00,AAXX 09064 41863 02456 81803 10302 20260 39978 40020 8552/ 333 59004 70000 85618 88458==
41863,2024,06,09,09,00,AAXX 09094 41863 02456 80902 10312 20260 39959 40001 8452/ 333 58002 70000 84618 88458==
41863,2024,06,09,12,00,AAXX 09124 41863 02957 20000 10305 20270 39949 49991 80001 333 10326 58002 70000 82074==
41863,2024,06,09,15,00,AAXX 09154 41863 02457 80902 10292 20260 39971 40013 8452/ 333 58010 70000 84618 88458==
41863,2024,06,09,18,00,AAXX 09184 41863 02457 80902 10282 20260 39970 40012 8452/ 333 58001 70000 84618 88458==
41863,2024,06,09,21,00,AAXX 09214 41863 01456 80902 10272 20250 39972 40014 70262 8452/ 333 58009 70010 84618 88458==
41863,2024,06,10,00,00,AAXX 10004 41863 11456 80902 10268 20250 39980 40023 60016 70262 8452/ 333 58025 70010 84618 88458==
41863,2024,06,10,03,00,AAXX 10034 41863 02456 80503 10278 20250 39984 40026 8452/ 333 20262 58012 70010 84618 88458==
41863,2024,06,10,06,00,AAXX 10064 41863 02457 51303 10320 20260 39977 40019 83520 333 59001 70010 83618 85458==
41863,2024,06,10,09,00,AAXX 10094 41863 02456 80901 10331 20250 39965 40006 8552/ 333 58006 70010 85618 88458==
41863,2024,06,10,12,00,AAXX 10124 41863 02557 31803 10325 20270 39950 49991 83400 333 10330 58001 70010 83620==
41863,2024,06,10,15,00,AAXX 10154 41863 02550 31703 10291 20260 39973 40015 83400 333 58002 70010 83620==
41863,2024,06,10,18,00,AAXX 10184 41863 02450 31801 10286 20270 39978 40020 83500 333 58008 70010 83618==
41863,2024,06,10,21,00,AAXX 10214 41863 02450 80902 10280 20260 39965 40007 8452/ 333 59007 70000 84618 88458==
41863,2024,06,11,00,00,AAXX 11004 41863 02450 80903 10281 20260 39980 40022 8552/ 333 58000 70000 85618 88458==
41863,2024,06,11,03,00,AAXX 11034 41863 02356 80903 10290 20270 39988 40030 8562/ 333 20271 58004 70000 83710 85618 88457==
41863,2024,06,11,06,00,AAXX 11064 41863 02457 51304 10324 20260 39978 40020 83520 333 58001 70000 83618 85458==
41863,2024,06,11,09,00,AAXX 11094 41863 02457 61302 10341 20260 39960 40001 83520 333 59005 70000 83618 86458==
41863,2024,06,11,12,00,AAXX 11124 41863 02456 70000 10340 20270 39952 49993 84510 333 10345 58002 70000 84618 87458==
41863,2024,06,11,15,00,AAXX 11154 41863 02450 71201 10312 20280 39965 40007 84510 333 59008 70000 84618 87458==
41863,2024,06,11,18,00,AAXX 11184 41863 02450 80902 10300 20270 39973 40015 8552/ 333 59005 70000 85618 88458==
41863,2024,06,11,21,00,AAXX 11214 41863 02450 80502 10294 20270 39965 40007 8552/ 333 58000 70000 85618 88458==
41863,2024,06,12,00,00,AAXX 12004 41863 02450 80502 10289 20270 39971 40013 8552/ 333 59009 70000 85618 88458==
41863,2024,06,12,03,00,AAXX 12034 41863 02457 50503 10309 20270 39987 40029 83520 333 59001 70000 83618 85458==
41863,2024,06,12,06,00,AAXX 12064 41863 02957 00000 10330 20280 39980 40022 333 58002 70000==
41863,2024,06,12,09,00,AAXX 12094 41863 02456 51802 10330 20260 39961 40003 83520 333 58001 70000 83618 85458==
41863,2024,06,12,12,00,AAXX 12124 41863 02956 00901 10324 20270 39954 49996 333 10338 58002 70000==
41863,2024,06,12,15,00,AAXX 12154 41863 02950 00901 10302 20280 39967 40009 333 58002 70000==
41863,2024,06,12,18,00,AAXX 12184 41863 02950 00901 10300 20290 39965 40007 333 59008 70000==
41863,2024,06,12,21,00,AAXX 12214 41863 02450 51302 10281 20260 39963 40005 82520 333 59002 70000 82618 85458==
41863,2024,06,13,00,00,AAXX 13004 41863 01450 60903 10240 20220 39970 40013 72122 83520 333 59001 70050 83618 86458==
41863,2024,06,13,03,00,AAXX 13034 41863 02450 80902 10255 20240 39982 40025 8552/ 333 20235 59005 70053 85618 88458==
41863,2024,06,13,06,00,AAXX 13064 41863 02456 80902 10292 20260 39976 40018 8552/ 333 59004 70053 85618 88458==
41863,2024,06,13,09,00,AAXX 13094 41863 02456 51301 10332 20260 39949 49990 84520 333 59012 70053 84618 86458==
41863,2024,06,13,12,00,AAXX 13124 41863 02456 30902 10320 20270 39939 49981 83500 333 10332 59015 70053 83618==
41863,2024,06,13,15,00,AAXX 13154 41863 02456 80904 10300 20270 39961 40003 8552/ 333 59006 70053 85618 88458==
41863,2024,06,13,18,00,AAXX 13184 41863 02456 81303 10280 20260 39962 40004 8552/ 333 59003 70053 85618 88458==
41863,2024,06,13,21,00,AAXX 13214 41863 02456 81303 10270 20250 39951 49993 8552/ 333 59012 70053 85618 88458==
41881,2024,06,07,00,00,AAXX 07004 41881 31420 80000 10270 20270 30019 40039 71022 8552/ 333 56999 59019 70095 85616 88459=
41881,2024,06,07,06,00,AAXX 07064 41881 32457 41601 10344 20260 30007 40026 84500 333 56900 59027 70000 84618=
41881,2024,06,07,12,00,AAXX 07124 41881 11456 80902 10257 20240 39973 49993 60184 70396 8552/ 333 10354 56299 59041 70176 85616 88458=
41881,2024,06,07,18,00,AAXX 07184 41881 32450 80000 10266 20250 39994 40014 8552/ 333 56999 59026 70176 85617 88459=
41881,2024,06,08,00,00,AAXX 08004 41881 32456 81201 10270 20260 39994 40013 8552/ 333 56999 59025 70176 85617 88459=
41881,2024,06,08,06,00,AAXX 08064 41881 32458 60901 10315 20270 30003 40023 83520 333 56290 59004 70176 83616 86459=
41881,2024,06,08,12,00,AAXX 08124 41881 32456 60901 10320 20280 39969 49988 83520 333 10340 56990 59004 70000 83615 86458=
41881,2024,06,08,18,00,AAXX 08184 41881 32950 00901 10290 20280 39991 40010 333 59003 70000=
41881,2024,06,09,00,00,AAXX 09004 41881 32456 80901 10276 20270 39986 40008 8552/ 333 56999 59008 70000 85617 88459=
41881,2024,06,09,06,00,AAXX 09064 41881 32457 70902 10327 20280 39995 40015 84520 333 56990 59008 70000 84617 87459=
41881,2024,06,09,12,00,AAXX 09124 41881 32458 40902 10305 20270 39972 49992 84500 333 10332 56900 58003 70000 84618=
41881,2024,06,09,18,00,AAXX 09184 41881 32456 60902 10270 20250 30000 40020 83520 333 56990 59009 70000 83618 86460=
41881,2024,06,10,00,00,AAXX 10004 41881 32357 81201 10270 20250 39995 40015 8562/ 333 56299 58009 70000 84710 85615 88458=
41881,2024,06,10,06,00,AAXX 10064 41881 32457 70903 10321 20250 39997 40017 84520 333 56990 58002 70000 84617 87459=
41881,2024,06,10,12,00,AAXX 10124 41881 32457 50801 10311 20260 39972 49991 83520 333 10328 56990 58000 70000 83618 85460=
41881,2024,06,10,18,00,AAXX 10184 41881 32450 70901 10283 20250 39996 40015 84520 333 56990 70000 84617 87459=
41881,2024,06,11,00,00,AAXX 11004 41881 11456 70901 10270 20260 39995 40015 60066 70196 84520 333 56990 58000 70062 84616 87458=
41881,2024,06,11,06,00,AAXX 11064 41881 32458 20901 10330 20260 39999 40019 82500 333 56900 58002 70062 82618=
41881,2024,06,11,12,00,AAXX 11124 41881 32456 50801 10335 20280 39972 49992 83520 333 10350 56990 58000 70062 83617 85459=
41881,2024,06,11,18,00,AAXX 11184 41881 32450 20901 10300 20290 39996 40016 82500 333 56900 58000 70062 82618=
41881,2024,06,12,00,00,AAXX 12004 41881 32456 80901 10288 20280 39993 40013 8552/ 333 56999 59002 70000 85616 88458=
41881,2024,06,12,06,00,AAXX 12064 41881 32458 60902 10335 20270 39997 40017 83520 333 56990 59002 70000 83618 86460=
41881,2024,06,12,12,00,AAXX 12124 41881 32958 40901 10332 20270 39971 49991 80001 333 10348 56009 59001 70000 84082=
41881,2024,06,12,18,00,AAXX 12184 41881 32956 00904 10305 20300 39983 40003 333 59013 70000=
41881,2024,06,13,00,00,AAXX 13004 41881 32457 80000 10286 20280 39992 40012 8552/ 333 56399 59001 70000 85618 88460=
41881,2024,06,13,06,00,AAXX 13064 41881 32457 71502 10330 20270 39991 40010 84520 333 56990 59006 70000 84617 87459=
41881,2024,06,13,12,00,AAXX 13124 41881 32456 70903 10328 20290 39960 49979 84520 333 10340 56990 59011 70000 84617 87459=
41881,2024,06,13,18,00,AAXX 13184 41881 32450 70904 10278 20260 39977 49997 84520 333 56990 59006 70000 84617 87459=
41883,2024,06,07,00,00,AAXX 07004 41883 02456 40000 10276 20260 30017 40037 82530 333 59030 70054 82616 84362==
41883,2024,06,07,03,00,AAXX 07034 41883 02456 40000 10310 20270 30022 40044 82530 333 20255 59036 70014 82616 84362==
41883,2024,06,07,06,00,AAXX 07064 41883 02456 80000 10345 20270 30011 40031 8452/ 333 59029 70000 84616 88459==
41883,2024,06,07,09,00,AAXX 07094 41883 02456 80000 10345 20270 39982 40002 8452/ 333 59036 70000 84616 88458==
41883,2024,06,07,12,00,AAXX 07124 41883 02440 80000 10285 20240 39971 49991 8452/ 333 10355 59030 70000 84616 88459==
41883,2024,06,07,15,00,AAXX 07154 41883 02430 80000 10280 20250 39995 40015 8463/ 333 70000 83618 88458==
41883,2024,06,07,18,00,AAXX 07184 41883 01430 80902 10278 20250 39998 40018 71722 8532/ 333 59022 70000 83616 88458 81930==
41883,2024,06,07,21,00,AAXX 07214 41883 02430 80902 10272 20230 39993 40013 8452/ 333 59022 70000 84618 88458==
41883,2024,06,08,00,00,AAXX 08004 41883 02440 81302 10266 20240 39995 40015 8452/ 333 59022 70000 84618 88458==
41883,2024,06,08,03,00,AAXX 08034 41883 02460 81302 10290 20250 30010 40030 8452/ 333 20260 59012 70000 84618 88458==
41883,2024,06,08,06,00,AAXX 08064 41883 02456 81302 10315 20270 30007 40027 8452/ 333 59004 70000 84618 88458==
41883,2024,06,08,09,00,AAXX 08094 41883 02456 81302 10324 20270 39980 40000 8452/ 333 59002 70000 84618 88458==
41883,2024,06,08,12,00,AAXX 08124 41883 02456 80000 10320 20270 39969 49989 8452/ 333 10330 59002 70000 84618 88458==
41883,2024,06,08,15,00,AAXX 08154 41883 02430 80000 10300 20270 39987 40007 8452/ 333 59008 70000 84618 88458==
41883,2024,06,08,18,00,AAXX 08184 41883 02430 80000 10290 20270 39990 40010 8452/ 333 59008 70000 84618 88458==
41883,2024,06,08,21,00,AAXX 08214 41883 02430 80000 10290 20270 39981 40001 8452/ 333 59012 70000 84618 88458==
41883,2024,06,09,00,00,AAXX 09004 41883 01440 80000 10290 20280 39981 40001 70262 8452/ 333 59014 70010 84618 88458==
41883,2024,06,09,03,00,AAXX 09034 41883 02450 81302 10280 20250 30001 40021 8452/ 333 20275 59009 70010 84616 88458==
41883,2024,06,09,06,00,AAXX 09064 41883 02456 61302 10312 20260 30004 40024 84510 333 59003 70010 84616 86458==
41883,2024,06,09,09,00,AAXX 09094 41883 02456 70902 10312 20250 39984 40004 83520 333 58004 70000 83616 87459==
41883,2024,06,09,12,00,AAXX 09124 41883 02450 81802 10298 20260 39977 49997 8552/ 333 10320 58008 70010 85616 88459==
41883,2024,06,09,15,00,AAXX 09154 41883 02430 80902 10284 20250 39996 40016 8552/ 333 58009 70010 85615 88458==
41883,2024,06,09,18,00,AAXX 09184 41883 02430 80902 10280 20260 39998 40018 8552/ 333 58008 70010 85615 88458==
41883,2024,06,09,21,00,AAXX 09214 41883 02430 80902 10276 20260 39990 40010 8552/ 333 58009 70010 85615 88458==
41883,2024,06,10,00,00,AAXX 10004 41883 01340 80902 10260 20250 30000 40020 72996 8562/ 333 58019 70010 85709 88458==
41883,2024,06,10,03,00,AAXX 10034 41883 02350 80902 10276 20260 30006 40026 8562/ 333 20255 58005 70010 85709 88458==
41883,2024,06,10,06,00,AAXX 10064 41883 02456 70902 10288 20250 30003 40023 84520 333 59001 70010 84615 87458==
41883,2024,06,10,09,00,AAXX 10094 41883 02456 70902 10314 20240 39984 40004 83520 333 58000 70010 83616 87459==
41883,2024,06,10,12,00,AAXX 10124 41883 02456 80904 10305 20260 39978 49998 8352/ 333 10320 58001 70010 83616 88459==
41883,2024,06,10,15,00,AAXX 10154 41883 02430 80902 10288 20250 39994 40014 8552/ 333 59002 70010 85616 88459==
41883,2024,06,10,18,00,AAXX 10184 41883 02430 80902 10280 20250 30005 40025 8552/ 333 58007 70010 85616 88459==
41883,2024,06,10,21,00,AAXX 10214 41883 02330 80903 10276 20260 30003 40023 8562/ 333 58013 70010 85710 88458==
41883,2024,06,11,00,00,AAXX 11004 41883 21340 80000 10272 20250 39996 40016 71796 8532/ 333 59004 60048 70040 85709 88458 81930==
41883,2024,06,11,03,00,AAXX 11034 41883 01450 61302 10296 20280 30007 40027 70192 84510 333 20270 58001 70040 84616 86459==
41883,2024,06,11,06,00,AAXX 11064 41883 01/56 40902 10330 20270 39997 40017 70192 84010 333 59006 70040 84459==
41883,2024,06,11,09,00,AAXX 11094 41883 02/56 31302 10354 20270 39977 49997 83030 333 59007 70040 83362==
41883,2024,06,11,12,00,AAXX 11124 41883 02/50 31302 10342 20280 39973 49993 83030 333 10356 59005 70040 83362==
41883,2024,06,11,15,00,AAXX 11154 41883 02/30 20904 10317 20300 39995 40015 82030 333 58001 70040 82362==
41883,2024,06,11,18,00,AAXX 11184 41883 02/30 20904 10306 20290 39994 40014 82030 333 59011 70040 82362==
41883,2024,06,11,21,00,AAXX 11214 41883 02/30 40902 10302 20280 39992 40012 84030 333 59011 70040 84362==
41883,2024,06,12,00,00,AAXX 12004 41883 02450 61304 10296 20280 30000 40020 82520 333 58004 70000 82616 86459==
41883,2024,06,12,03,00,AAXX 12034 41883 02456 70000 10310 20270 30011 40031 83520 333 20290 58004 70000 83616 87459==
41883,2024,06,12,06,00,AAXX 12064 41883 02456 80902 10333 20260 30005 40025 8552/ 333 58008 70000 85616 88459==
41883,2024,06,12,09,00,AAXX 12094 41883 02456 61302 10346 20270 39980 40000 84810 333 58003 70000 83616 86459==
41883,2024,06,12,12,00,AAXX 12124 41883 02/50 30902 10336 20280 39974 49994 83010 333 10350 58001 70000 83459==
41883,2024,06,12,15,00,AAXX 12154 41883 02430 80902 10322 20280 39988 40008 8352/ 333 59007 70000 83618 88458==
41883,2024,06,12,18,00,AAXX 12184 41883 02430 81302 10304 20280 39994 40014 8452/ 333 58000 70000 84618 88458==
41883,2024,06,12,21,00,AAXX 12214 41883 02430 81302 10300 20280 39983 40003 8452/ 333 59009 70000 84618 88458==
41883,2024,06,13,00,00,AAXX 13004 41883 02450 80000 10298 20280 39994 40014 8552/ 333 59006 70000 85618 88458==
41883,2024,06,13,03,00,AAXX 13034 41883 02450 80000 10315 20280 39999 40019 8452/ 333 20294 59012 70000 84618 88458==
41883,2024,06,13,06,00,AAXX 13064 41883 02450 80000 10330 20270 39994 40014 8452/ 333 59011 70000 84618 88458==
41883,2024,06,13,09,00,AAXX 13094 41883 02450 80000 10340 20280 39971 49991 8452/ 333 59007 70000 84618 88458==
41883,2024,06,13,12,00,AAXX 13124 41883 02450 80000 10320 20270 39966 49986 8452/ 333 10342 59008 70000 84618 88458==
41883,2024,06,13,15,00,AAXX 13154 41883 02430 80000 10285 20270 39991 40011 8452/ 333 58003 70000 84618 88458==
41883,2024,06,13,18,00,AAXX 13184 41883 02430 80904 10280 20250 39987 40007 8452/ 333 59007 70000 84618 88458==
41883,2024,06,13,21,00,AAXX 13214 41883 02430 80902 10270 20250 39974 49994 8452/ 333 59009 70000 84618 88458==
41886,2024,06,07,00,00,AAXX 07004 41886 02956 00000 10270 20260 30022 40043 333 59012 70044==
41886,2024,06,07,03,00,AAXX 07034 41886 02956 00902 10317 20270 30029 40049 333 20256 59025 70000==
41886,2024,06,07,06,00,AAXX 07064 41886 02957 00901 10336 20280 30020 40040 333 59029 70000==
41886,2024,06,07,09,00,AAXX 07094 41886 02456 51602 10345 20270 39991 40011 82520 333 59030 70000 82618 84462==
41886,2024,06,07,12,00,AAXX 07124 41886 01350 81804 10273 20230 39991 40012 79522 8692/ 333 10347 59019 70090 82709 84613 88457 81928==
41886,2024,06,07,15,00,AAXX 07154 41886 01440 80000 10272 20250 30008 40029 70292 8352/ 333 59020 70090 83616 88460==
41886,2024,06,07,21,00,AAXX 07214 41886 02440 81802 10263 20240 30004 40024 8452/ 333 59026 70090 84616 88460==
41886,2024,06,08,00,00,AAXX 08004 41886 01446 80000 10252 20210 30008 40029 70262 8352/ 333 59014 70060 83616 88458==
41886,2024,06,08,03,00,AAXX 08034 41886 01450 80902 10257 20240 30023 40044 72922 8352/ 333 20251 59006 70180 83616 88460==
41886,2024,06,08,06,00,AAXX 08064 41886 21456 81602 10310 20250 30016 40036 70292 8251/ 333 59004 60035 70180 82618 88462==
41886,2024,06,08,09,00,AAXX 08094 41886 02456 80902 10312 20260 39996 40016 8352/ 333 58008 70090 83618 88460==
41886,2024,06,08,12,00,AAXX 08124 41886 02450 81002 10300 20260 39984 40004 8432/ 333 10320 59007 70090 83616 88458 81930==
41886,2024,06,08,15,00,AAXX 08154 41886 02450 60901 10290 20260 39997 40017 82510 333 59011 70090 82618 86460==
41886,2024,06,08,18,00,AAXX 08184 41886 01450 80000 10290 20280 39992 40012 71792 8532/ 333 59019 70090 83616 88458 81930==
41886,2024,06,08,21,00,AAXX 08214 41886 01340 80408 10270 20260 39995 40015 79596 8632/ 333 59009 70130 83710 85616 88458 81930==
41886,2024,06,09,00,00,AAXX 09004 41886 21340 81004 10250 20240 39999 40020 79596 8632/ 333 59009 60447 70470 83710 85616 88458 81930==
41886,2024,06,09,03,00,AAXX 09034 41886 01350 81204 10252 20240 30015 40036 70296 8672/ 333 20235 59008 70442 83710 85616 88458==
41886,2024,06,09,06,00,AAXX 09064 41886 11450 80902 10277 20250 30019 40039 69926 70296 8532/ 333 58003 70442 83616 88458 81930==
41886,2024,06,09,09,00,AAXX 09094 41886 02456 70906 10280 20250 39993 40014 85520 333 59003 70442 85616 86458==
41886,2024,06,09,12,00,AAXX 09124 41886 02456 81308 10279 20250 39992 40012 8552/ 333 10285 58008 70442 85616 88458==
41886,2024,06,09,15,00,AAXX 09154 41886 02450 81404 10274 20250 30010 40030 8552/ 333 58013 70442 85616 88458==
41886,2024,06,09,18,00,AAXX 09184 41886 NIL=
41886,2024,06,09,21,00,AAXX 09214 41886 02450 80000 10272 20250 30012 40032 8552/ 333 58017 70442 85616 88458==
41886,2024,06,10,00,00,AAXX 10004 41886 01350 80000 10240 20230 30023 40044 79596 8632/ 333 58024 70550 83708 85616 88458 81930==
41886,2024,06,10,03,00,AAXX 10034 41886 01356 81403 10252 20240 30017 40038 72196 8672/ 333 20236 58002 70568 82710 85616 88458==
41886,2024,06,10,06,00,AAXX 10064 41886 21350 81802 10270 20250 30017 40038 70296 8562/ 333 59002 60028 70568 82709 84614 88458==
41886,2024,06,10,09,00,AAXX 10094 41886 02450 81002 10287 20260 39997 40017 8351/ 333 58004 70568 83617 88462==
41886,2024,06,10,12,00,AAXX 10124 41886 02450 80000 10285 20260 39991 40011 8352/ 333 10292 59001 70568 83617 88461==
41886,2024,06,10,15,00,AAXX 10154 41886 02440 81604 10280 20260 30009 40030 8252/ 333 59001 70568 82617 88462==
41886,2024,06,10,18,00,AAXX 10184 41886 02440 81602 10277 20260 30010 40031 8252/ 333 59002 70568 82617 88460==
41886,2024,06,10,21,00,AAXX 10214 41886 02440 81802 10275 20270 30014 40035 8352/ 333 58002 70568 83617 88458==
41886,2024,06,11,00,00,AAXX 11004 41886 02450 81802 10275 20270 30016 40037 8562/ 333 59007 70018 82710 84615 88460==
41886,2024,06,11,03,00,AAXX 11034 41886 02450 81602 10299 20270 30020 40040 8452/ 333 20253 58003 70000 84615 88458==
41886,2024,06,11,06,00,AAXX 11064 41886 02450 81602 10328 20280 30008 40028 8451/ 333 59009 70000 84615 88460==
41886,2024,06,11,09,00,AAXX 11094 41886 02456 60000 10334 20270 39989 40009 83570 333 59008 70000 83618 85460==
41886,2024,06,11,12,00,AAXX 11124 41886 02956 00902 10325 20280 39983 40003 333 10336 59008 70000==
41886,2024,06,11,15,00,AAXX 11154 41886 02950 00000 10303 20280 30006 40026 333 59003 70000==
41886,2024,06,11,21,00,AAXX 11214 41886 02950 00000 10295 20280 30007 40027 333 59007 70000==
41886,2024,06,12,00,00,AAXX 12004 41886 02450 50902 10288 20280 30011 40031 83570 333 59005 70000 83618 85460==
41886,2024,06,12,03,00,AAXX 12034 41886 02450 81302 10314 20280 30026 40046 8352/ 333 20287 58006 70000 83618 88460==
41886,2024,06,12,06,00,AAXX 12064 41886 02457 60904 10335 20280 30011 40031 84470 333 58003 70000 82618 83825 85460==
41886,2024,06,12,09,00,AAXX 12094 41886 02457 70904 10335 20290 39993 40013 84410 333 58004 70000 83618 87460==
41886,2024,06,12,12,00,AAXX 12124 41886 01456 70905 10315 20270 39987 40007 70292 83510 333 10340 58004 70000 83618 87460==
41886,2024,06,12,15,00,AAXX 12154 41886 01450 81305 10300 20270 30003 40023 71792 8532/ 333 59003 70000 84616 88458 81930==
41886,2024,06,12,18,00,AAXX 12184 41886 21330 81808 10260 20250 30006 40027 79596 8632/ 333 59003 60097 70090 84709 85615 88457 81928==
41886,2024,06,12,21,00,AAXX 12214 41886 01350 81306 10265 20260 30004 40024 71796 8632/ 333 59003 70186 84710 85616 88458 81930==
41886,2024,06,13,00,00,AAXX 13004 41886 11350 80000 10273 20270 30002 40022 60106 70296 8562/ 333 59009 70186 83710 84616 88458==
41886,2024,06,13,03,00,AAXX 13034 41886 01450 81301 10295 20290 30009 40029 71722 8331/ 333 20260 59017 70186 83617 88460 81930==
41886,2024,06,13,06,00,AAXX 13064 41886 01430 81306 10290 20280 30008 40028 79592 8532/ 333 59003 70010 84616 88458 81930==
41886,2024,06,13,09,00,AAXX 13094 41886 01350 80906 10280 20270 39993 40013 70596 8632/ 333 58000 70210 84710 85616 88458 81930==
41886,2024,06,13,12,00,AAXX 13124 41886 11350 80908 10265 20250 39986 40006 60016 70296 8632/ 333 10310 59001 70210 84710 85616 88458 81930==
41886,2024,06,13,15,00,AAXX 13154 41886 02350 81106 10268 20250 30006 40026 8662/ 333 58003 70210 84710 85616 88458==
41886,2024,06,13,18,00,AAXX 13184 41886 02350 81104 10262 20240 30008 40029 8562/ 333 58002 70120 83710 84616 88458==
41886,2024,06,13,21,00,AAXX 13214 41886 02350 81305 10260 20240 30002 40023 8672/ 333 59002 70024 84710 85616 88458==
41888,2024,06,07,00,00,AAXX 07004 41888 31440 60000 10270 20260 30028 40038 70522 82510 333 56990 59022 7043/ 82618 86460=
41888,2024,06,07,06,00,AAXX 07064 41888 32456 60901 10323 20250 30026 40036 83510 333 56990 59031 70000 83618 86460=
41888,2024,06,07,12,00,AAXX 07124 41888 32456 61201 10315 20270 39993 40003 83510 333 56990 59024 70000 83618 86460=
41888,2024,06,07,18,00,AAXX 07184 41888 11450 60501 10270 20250 30020 40030 60026 70262 83510 333 56990 59016 70017 83618 86460=
41888,2024,06,08,00,00,AAXX 08004 41888 31440 80501 10265 20250 30015 40025 70522 8352/ 333 56999 59013 70017 83616 88459=
41888,2024,06,08,06,00,AAXX 08064 41888 11456 71201 10280 20260 30028 40038 60178 70196 84310 333 56990 58002 70187 83618 81930 86460=
41888,2024,06,08,12,00,AAXX 08124 41888 32456 60501 10295 20250 39993 40003 82510 333 10310 56990 58000 70187 82617 86460=
41888,2024,06,09,00,00,AAXX 09004 41888 11330 81802 10242 20240 30005 40015 60309 79596 8492/ 333 56999 59010 70470 82708 83616 81928 83458=
41888,2024,06,09,06,00,AAXX 09064 41888 11350 80501 10270 20250 30027 40037 60056 70296 8362/ 333 56999 59001 70400 81710 83616 88459=
41888,2024,06,09,12,00,AAXX 09124 41888 32450 71201 10275 20250 39998 40008 84310 333 10280 56990 58005 70400 83617 81930 86460=
41888,2024,06,09,18,00,AAXX 09184 41888 NIL=
41888,2024,06,10,00,00,AAXX 10004 41888 11330 83601 10240 20240 30030 40040 60237 79596 8492/ 333 56999 58025 70280 82708 83616 81928 88458=
41888,2024,06,10,06,00,AAXX 10064 41888 11350 81201 10270 20240 30025 40035 60318 70296 8492/ 333 56999 59002 70268 82708 83616 81930 88460=
41888,2024,06,10,12,00,AAXX 10124 41888 32450 70901 10280 20250 39999 40009 84310 333 10288 56990 58011 70268 83617 81930 86460=
41888,2024,06,10,18,00,AAXX 10184 41888 NIL=
41888,2024,06,11,00,00,AAXX 11004 41888 32450 61201 10270 20250 30024 40034 83510 56990 333 59006 70038 83618 86460=
41888,2024,06,11,06,00,AAXX 11064 41888 32450 61201 10312 20270 30017 40027 83510 333 56990 59008 70000 83618 86460=
41888,2024,06,11,12,00,AAXX 11124 41888 32456 40501 10315 20280 39991 40001 82530 333 10330 56990 59008 70000 82618 84360=
41888,2024,06,12,00,00,AAXX 12004 41888 32450 40501 10298 20280 30010 40020 82530 333 56990 59009 70000 82618 84360=
41888,2024,06,12,06,00,AAXX 12064 41888 11456 50901 10310 20270 30018 40028 69926 70162 83530 333 56990 58001 70002 83617 85360=
41888,2024,06,12,12,00,AAXX 12124 41888 32456 40901 10310 20260 30000 40010 82530 333 10335 56990 58009 70002 82618 83360=
41888,2024,06,12,18,00,AAXX 12184 41888 11440 80501 10293 20280 30010 40020 60038 70262 8432/ 333 56999 58000 70032 83617 81930 86460=
41888,2024,06,13,00,00,AAXX 13004 41888 32450 80501 10270 20260 30011 40021 8352/ 333 56999 59003 70032 83618 88459=
41888,2024,06,13,06,00,AAXX 13064 41888 11456 80903 10209 20200 30012 40022 60544 76196 8432/ 333 56299 59006 70570 81710 83616 81930 88460=
41888,2024,06,13,12,00,AAXX 13124 41888 32450 80903 10262 20250 39995 40005 8252/ 333 10300 56999 59005 70570 82618 88460=
41888,2024,06,13,18,00,AAXX 13184 41888 32440 80903 10260 20240 30014 40024 8252/ 333 56999 58004 70540 82618 88460=
41891,2024,06,07,00,00,AAXX 07004 41891 NIL=
41891,2024,06,07,01,00,AAXX 07014 41891 01430 80904 10267 20260 30008 40046 70522 8532/ 333 59018 70010 81710 84615 88459 81930==
41891,2024,06,07,03,00,AAXX 07034 41891 01445 61502 10290 20260 30013 40051 70522 83330 333 20252 59029 70010 83616 85365 81930==
41891,2024,06,07,06,00,AAXX 07064 41891 01445 61202 10310 20260 30002 40040 70522 83330 333 59029 70000 83616 85365 81930==
41891,2024,06,07,09,00,AAXX 07094 41891 01450 61804 10320 20250 39977 40015 70522 84310 333 59029 70000 83616 86459 81930==
41891,2024,06,07,12,00,AAXX 07124 41891 02450 51604 10310 20260 39972 40010 83530 333 10330 59022 70000 83616 85365==
41891,2024,06,07,15,00,AAXX 07154 41891 02440 50804 10287 20260 39995 40033 83530 333 59017 70000 83616 85365==
41891,2024,06,07,18,00,AAXX 07184 41891 01430 80803 10278 20250 30010 40048 70522 8532/ 333 58000 70000 82710 84616 88459 81930==
41891,2024,06,07,21,00,AAXX 07214 41891 01430 80902 10272 20260 30008 40046 70522 8532/ 333 58000 70000 82710 84616 88458 81930==
41891,2024,06,08,00,00,AAXX 08004 41891 01440 81204 10265 20250 30001 40039 70522 8532/ 333 59005 70000 81710 84616 88458 81930==
41891,2024,06,08,03,00,AAXX 08034 41891 01445 71004 10295 20250 30012 40050 70522 84370 333 20258 59001 70000 84615 86460 81930==
41891,2024,06,08,06,00,AAXX 08064 41891 01445 71204 10311 20240 30002 40040 70522 84370 333 58000 70000 84615 86460 81930==
41891,2024,06,08,09,00,AAXX 08094 41891 01445 70000 10316 20250 39983 40020 70522 84370 333 58006 70000 84615 86460 81930==
41891,2024,06,08,12,00,AAXX 08124 41891 01440 70902 10305 20260 39971 40008 70522 84370 333 10320 59001 70000 84615 86460 81930==
41891,2024,06,08,15,00,AAXX 08154 41891 01330 83006 10277 20260 39988 40026 76162 8632/ 333 59007 70030 85709 88457 81928==
41891,2024,06,08,18,00,AAXX 08184 41891 21330 80808 10248 20248 39991 40029 79596 8692/ 333 59019 62239 72230 86708 88456 81926==
41891,2024,06,08,21,00,AAXX 08214 41891 01330 81006 10245 20245 39984 40022 79596 8632/ 333 59024 72500 86708 88456 81926==
41891,2024,06,09,00,00,AAXX 09004 41891 21330 81604 10244 20240 39991 40030 79596 8632/ 333 59010 60349 72570 86708 88456 81926==
41891,2024,06,09,03,00,AAXX 09034 41891 01330 80905 10247 20250 30002 40041 76196 8532/ 333 20244 59010 72610 85709 88458 81930==
41891,2024,06,09,06,00,AAXX 09064 41891 21440 81504 10255 20240 30010 40048 70562 8532/ 333 58008 60045 72610 85709 88458 81930==
41891,2024,06,09,09,00,AAXX 09094 41891 01440 80904 10268 20250 39982 40020 70522 8532/ 333 59001 72610 82710 84615 88459 81930==
41891,2024,06,09,12,00,AAXX 09124 41891 01435 80804 10267 20250 39978 40016 70522 8532/ 333 10277 58007 72610 82710 84615 88459 81930==
41891,2024,06,09,15,00,AAXX 09154 41891 01430 80000 10265 20250 39995 40033 70522 8532/ 333 58007 72580 82710 84615 88459 81930==
41891,2024,06,09,18,00,AAXX 09184 41891 01430 80902 10265 20250 30003 40041 70522 8532/ 333 58012 70380 82710 84615 88459 81930==
41891,2024,06,09,21,00,AAXX 09214 41891 01430 80902 10260 20250 39998 40036 70522 8532/ 333 58014 70110 82710 84615 88459 81930==
41891,2024,06,10,00,00,AAXX 10004 41891 01320 81509 10250 20240 39992 40030 79592 8692/ 333 58001 70400 86707 88456 81925==
41891,2024,06,10,03,00,AAXX 10034 41891 01330 83404 10250 20250 30002 40040 79596 8632/ 333 20243 58000 71760 86707 88456 81925==
41891,2024,06,10,06,00,AAXX 10064 41891 21330 81204 10268 20260 39999 40037 79599 8692/ 333 59011 61419 71810 85708 88456 81926==
41891,2024,06,10,09,00,AAXX 10094 41891 01440 80704 10282 20250 39978 40016 70562 8532/ 333 59004 71810 82710 84615 88459 81930==
41891,2024,06,10,12,00,AAXX 10124 41891 21440 81004 10278 20260 39975 40013 70562 8532/ 333 10289 59003 60005 71810 82710 84615 88459 81930==
41891,2024,06,10,15,00,AAXX 10154 41891 01435 71004 10268 20260 39994 40032 70522 84370 333 59001 71810 84615 88459 81930==
41891,2024,06,10,18,00,AAXX 10184 41891 01430 81003 10265 20260 30004 40042 70522 8532/ 333 58001 71810 81710 84615 88459 81930==
41891,2024,06,10,21,00,AAXX 10214 41891 01430 80903 10267 20260 30005 40043 70522 8532/ 333 58007 71810 82710 84615 88458 81930==
41891,2024,06,11,00,00,AAXX 11004 41891 01430 80603 10268 20268 30006 40044 70522 8532/ 333 58014 71410 82710 84615 88459 81930==
41891,2024,06,11,03,00,AAXX 11034 41891 01445 83002 10285 20280 30012 40050 70522 8532/ 333 20250 58010 70050 82710 84615 88458 81930==
41891,2024,06,11,06,00,AAXX 11064 41891 11445 60902 10295 20250 39993 40031 69951 70596 83330 333 59009 70005 83615 85365 81930==
41891,2024,06,11,09,00,AAXX 11094 41891 01450 60204 10335 20260 39963 40007 70522 83510 333 59009 70005 83616 86458==
41891,2024,06,11,12,00,AAXX 11124 41891 01450 60304 10313 20260 39965 40003 70522 83530 333 10337 59010 70005 83616 86365==
41891,2024,06,11,15,00,AAXX 11154 41891 01440 60203 10290 20270 39982 40020 70522 83530 333 59012 70005 83616 86365==
41891,2024,06,11,18,00,AAXX 11184 41891 01430 82604 10285 20280 39986 40024 71322 8532/ 333 59018 70005 82710 84615 88459 81930==
41891,2024,06,12,03,00,AAXX 12034 41891 41430 80804 10278 20253 30015 40053 58003 71641 88459==
41891,2024,06,12,06,00,AAXX 12064 41891 11440 60905 10312 20260 39998 40036 60046 70562 83340 333 58005 71636 83615 85365 81930==
41891,2024,06,12,09,00,AAXX 12094 41891 01445 70604 10322 20250 39978 40015 70522 84330 333 58009 71636 84615 86365 81930==
41891,2024,06,12,12,00,AAXX 12124 41891 01445 53302 10313 20250 39974 40011 70522 83330 333 10332 58009 71636 83616 85365 81930==
41891,2024,06,12,15,00,AAXX 12154 41891 01430 82003 10288 20260 30000 40038 70522 83530 333 58018 71636 83616 86365==
41891,2024,06,12,18,00,AAXX 12184 41891 41430 31903 10280 20260 39988 40026 58002 71636 83365==
41891,2024,06,12,21,00,AAXX 12214 41891 01430 81804 10275 20260 39990 40028 70592 8532/ 333 59006 70516 82710 83616 88458==
41891,2024,06,13,00,00,AAXX 13004 41891 01330 81804 10268 20260 39989 40027 70592 8532/ 333 59014 70010 85708 88456 81926==
41891,2024,06,13,03,00,AAXX 13034 41891 01330 82703 10240 20240 30006 40045 79599 8692/ 333 20240 59009 71060 86708 88456 81925==
41891,2024,06,13,06,00,AAXX 13064 41891 21320 80803 10245 20245 39998 40036 79599 8632/ 333 58000 61869 71870 86707 88457 81925==
41891,2024,06,13,09,00,AAXX 13094 41891 01320 81203 10250 20250 39986 40024 79599 8692/ 333 58008 71980 86708 88457 81925==
41891,2024,06,13,12,00,AAXX 13124 41891 21320 81502 10250 20250 39982 40020 79599 8692/ 333 10251 58008 60169 72030 86707 88457 81925==
41891,2024,06,13,15,00,AAXX 13154 41891 01430 81203 10252 20240 30001 40039 70596 8532/ 333 58001 72032 82710 84615 88458 81930==
41891,2024,06,13,18,00,AAXX 13184 41891 11430 80803 10251 20250 39993 40031 69926 70596 8532/ 333 58005 72032 82710 84615 88458 81930==
41891,2024,06,13,21,00,AAXX 13214 41891 01430 80903 10252 20250 39986 40024 70522 8532/ 333 59004 72032 82710 84615 88458 81930==
41895,2024,06,07,00,00,AAXX 07004 41895 02950 00000 10273 20260 30013 40036 333 59026 70000==
41895,2024,06,07,03,00,AAXX 07034 41895 02956 01302 10300 20260 30023 40045 333 20270 59026 70000==
41895,2024,06,07,06,00,AAXX 07064 41895 02957 00901 10366 20290 30010 40031 333 59022 70000==
41895,2024,06,07,09,00,AAXX 07094 41895 02457 82704 10375 20270 39982 40003 8452/ 333 59032 70000 84616 88458==
41895,2024,06,07,12,00,AAXX 07124 41895 01456 80902 10265 20250 39972 49994 70296 8452/ 333 10384 59030 70010 84616 88458==
41895,2024,06,07,15,00,AAXX 07154 41895 02450 80000 10265 20260 39996 40018 8452/ 333 59019 70010 84616 88458==
41895,2024,06,07,18,00,AAXX 07184 41895 02450 61402 10266 20260 39996 40018 84520 333 59025 70010 84616 86458==
41895,2024,06,07,21,00,AAXX 07214 41895 02450 60903 10273 20260 39994 40011 84520 333 59018 70010 84616 86458==
41895,2024,06,08,00,00,AAXX 08004 41895 01450 81803 10280 20270 39992 40014 70522 8452/ 333 59021 70010 84616 88458==
41895,2024,06,08,03,00,AAXX 08034 41895 02456 61402 10320 20280 30003 40025 84520 333 20252 59020 70010 84616 86458==
41895,2024,06,08,06,00,AAXX 08064 41895 02957 01802 10355 20270 39994 40015 333 59016 70010==
41895,2024,06,08,09,00,AAXX 08094 41895 02958 00503 10373 20270 39966 49987 333 59016 70010==
41895,2024,06,08,12,00,AAXX 08124 41895 02956 01302 10350 20270 39960 49982 333 10375 59012 70000==
41895,2024,06,08,15,00,AAXX 08154 41895 02450 40000 10320 20280 39977 49999 84400 333 59019 70000 82616 83820==
41895,2024,06,08,18,00,AAXX 08184 41895 02950 01303 10308 20290 39986 40008 333 59010 70000==
41895,2024,06,08,21,00,AAXX 08214 41895 02450 40503 10300 20280 39983 40005 84400 333 59011 70000 82616 83820==
41895,2024,06,09,00,00,AAXX 09004 41895 02450 83603 10294 20280 39976 49998 8452/ 333 59016 70000 84616 88458==
41895,2024,06,09,03,00,AAXX 09034 41895 01450 81302 10317 20290 39992 40014 70522 8452/ 333 20292 59011 70000 84615 88458==
41895,2024,06,09,06,00,AAXX 09064 41895 01450 81303 10350 20280 39990 40011 70522 8452/ 333 59004 70000 84615 88458==
41895,2024,06,09,09,00,AAXX 09094 41895 01456 50902 10367 20290 39970 49991 70522 83520 333 58004 70000 83616 85458==
41895,2024,06,09,12,00,AAXX 09124 41895 42450 50903 10368 20300 39966 49988 58006 85458==
41895,2024,06,09,15,00,AAXX 09154 41895 42450 50903 10310 20290 39986 40008 58009 86458==
41895,2024,06,09,18,00,AAXX 09184 41895 01450 50903 10300 20290 39993 40015 70522 83520 333 58007 70000 83616 85458==
41895,2024,06,09,21,00,AAXX 09214 41895 01450 80902 10292 20280 39991 40013 70522 8452/ 333 58008 70000 84615 88458==
41895,2024,06,10,00,00,AAXX 10004 41895 01450 80902 10295 20290 39989 40011 70522 8452/ 333 58013 70000 84615 88458==
41895,2024,06,10,03,00,AAXX 10034 41895 02450 61303 10330 20290 39995 40017 83510 333 20290 58003 70000 83616 86458==
41895,2024,06,10,06,00,AAXX 10064 41895 01456 60904 10342 20290 39991 40013 70522 83510 333 58001 70000 83616 86458==
41895,2024,06,10,09,00,AAXX 10094 41895 01456 60904 10350 20290 39972 49993 70522 83510 333 58002 70000 83616 86458==
41895,2024,06,10,12,00,AAXX 10124 41895 01456 60503 10325 20290 39969 49991 70522 83510 333 10360 58003 70000 83616 86458==
41895,2024,06,10,15,00,AAXX 10154 41895 01450 60505 10298 20260 39991 40013 70522 84520 333 58005 70000 84616 86458==
41895,2024,06,10,18,00,AAXX 10184 41895 01450 60000 10283 20240 39996 40018 70522 84520 333 58003 70000 84616 86458==
41895,2024,06,10,21,00,AAXX 10214 41895 01450 60502 10280 20260 39997 40019 70522 84520 333 58006 70000 84616 86458==
41895,2024,06,11,00,00,AAXX 11004 41895 01450 80902 10276 20270 39997 40019 70522 8452/ 333 58008 70000 84616 88458==
41895,2024,06,11,03,00,AAXX 11034 41895 01456 51304 10330 20280 39999 40021 70522 83510 333 20270 58004 70000 83616 85458==
41895,2024,06,11,06,00,AAXX 11064 41895 01456 51303 10354 20270 39992 40014 70522 83510 333 58001 70000 83616 85458==
41895,2024,06,11,09,00,AAXX 11094 41895 02458 41802 10377 20270 39971 49992 82510 333 59001 70000 82616 84458==
41895,2024,06,11,12,00,AAXX 11124 41895 02450 60902 10348 20290 39967 49989 84520 333 10383 59002 70000 84616 86458==
41895,2024,06,11,15,00,AAXX 11154 41895 01450 80902 10320 20290 39988 40010 71792 8232/ 333 59003 70000 82615 88458 81928==
41895,2024,06,11,21,00,AAXX 11214 41895 02450 81302 10297 20280 39985 40007 8452/ 333 59012 70000 84616 88458==
41895,2024,06,12,00,00,AAXX 12004 41895 01450 82302 10290 20280 39997 40020 70522 8452/ 333 58000 70000 84616 88458==
41895,2024,06,12,03,00,AAXX 12034 41895 01450 61301 10314 20280 30008 40030 70522 83510 333 20284 58009 70000 83615 86458==
41895,2024,06,12,06,00,AAXX 12064 41895 01456 21303 10360 20280 39998 40020 70521 82500 333 58006 70000 82616==
41895,2024,06,12,09,00,AAXX 12094 41895 02457 20902 10373 20260 39974 49995 82500 333 58003 70000 82616==
41895,2024,06,12,12,00,AAXX 12124 41895 02456 40902 10350 20280 39969 49990 84500 333 10380 58002 70000 84616==
41895,2024,06,12,15,00,AAXX 12154 41895 02450 30902 10320 20280 39989 40011 83500 333 58001 70000 83616==
41895,2024,06,12,18,00,AAXX 12184 41895 02450 30902 10305 20290 39991 40013 83500 333 58002 70000 83616==
41895,2024,06,12,21,00,AAXX 12214 41895 02450 61303 10290 20270 39977 49999 83520 333 59008 70000 83616 86458==
41895,2024,06,13,00,00,AAXX 13004 41895 02450 81301 10280 20260 39986 40008 8452/ 333 59011 70000 84615 88458==
41895,2024,06,13,03,00,AAXX 13034 41895 01450 81301 10296 20280 39995 40017 70262 8452/ 333 20276 59013 70002 84615 88458==
41895,2024,06,13,06,00,AAXX 13064 41895 21456 81302 10340 20280 39991 40013 70262 8452/ 333 59007 69925 70002 84615 88458==
41895,2024,06,13,09,00,AAXX 13094 41895 01456 61403 10365 20280 39963 49984 70522 84520 333 59011 70002 84616 86458==
41895,2024,06,13,12,00,AAXX 13124 41895 02456 60902 10353 20290 39959 49980 84520 333 10367 59010 70002 84616 86458==
41895,2024,06,13,15,00,AAXX 13154 41895 02450 61402 10325 20290 39983 40004 84520 333 59006 70002 84616 86458==
41895,2024,06,13,18,00,AAXX 13184 41895 02450 60503 10300 20280 39976 49998 84520 333 59015 70000 84616 86458==
41895,2024,06,13,21,00,AAXX 13214 41895 02450 80502 10291 20270 39974 49996 8452/ 333 59003 70002 84616 88458==
41897,2024,06,07,00,00,AAXX 07004 41897 32456 50000 10250 20240 30020 40033 84310 333 56990 59022 70070 82620 84460=
41897,2024,06,07,06,00,AAXX 07064 41897 32456 52202 10350 20260 30020 40033 84310 333 56990 59032 70070 82620 84460=
41897,2024,06,07,12,00,AAXX 07124 41897 11440 81402 10280 20250 39990 40003 60044 79596 8432/ 333 10365 56999 59022 70035 81708 83618 81928 84458=
41897,2024,06,07,18,00,AAXX 07184 41897 11440 80000 10270 20250 30005 40018 60016 70296 8432/ 333 56999 59010 70045 81708 83618 81928 84458=
41897,2024,06,08,00,00,AAXX 08004 41897 32450 80000 10260 20250 30005 40018 8432/ 333 56999 59017 70045 81710 83620 81930 84460=
41897,2024,06,08,06,00,AAXX 08064 41897 32450 61402 10310 20260 30010 40023 84310 333 20255 56990 59009 70045 83620 81930 84460=
41897,2024,06,08,12,00,AAXX 08124 41897 32950 50902 10327 20290 39972 49985 85030 333 10346 56090 59018 70010 85362=
41897,2024,06,08,18,00,AAXX 08184 41897 31940 01302 10297 20280 39996 40008 70510 333 59009 70000=
41897,2024,06,09,00,00,AAXX 09004 41897 31430 81501 10290 20280 39983 49996 70521 8352/ 333 56999 59024 70000 83616 88458=
41897,2024,06,09,06,00,AAXX 09064 41897 31445 50904 10320 20280 30005 40018 70522 82530 333 56290 59009 70000 82617 85362=
41897,2024,06,09,12,00,AAXX 09124 41897 31950 30902 10307 20280 39981 49994 70521 83030 333 10325 56090 58009 70000 83362=
41897,2024,06,09,18,00,AAXX 09184 41897 31945 40903 10275 20270 30000 40013 70510 84030 333 56090 58004 70000 84360=
41897,2024,06,10,00,00,AAXX 10004 41897 31435 80904 10265 20240 30003 40016 70522 8352/ 333 56299 58020 70000 83616 88458=
41897,2024,06,10,06,00,AAXX 10064 41897 31445 80902 10310 20260 30006 40019 70522 8352/ 333 56299 58001 70000 83616 88458=
41897,2024,06,10,12,00,AAXX 10124 41897 32950 50902 10295 20260 39984 49997 85030 333 10320 56090 58003 70000 85362=
41897,2024,06,10,18,00,AAXX 10184 41897 32945 51002 10283 20260 30002 40015 85030 333 56090 58002 70000 85360=
41897,2024,06,11,00,00,AAXX 11004 41897 11435 61502 10255 20255 30008 40021 60224 72996 82530 333 56990 58002 70220 82617 86360=
41897,2024,06,11,06,00,AAXX 11064 41897 32956 00802 10342 20270 30002 40015 333 59004 70220=
41897,2024,06,11,12,00,AAXX 11124 41897 32956 00000 10337 20270 39979 49992 333 10355 59005 70220=
41897,2024,06,11,18,00,AAXX 11184 41897 32945 01501 10305 20280 30001 40014 333 59001 70220=
41897,2024,06,12,00,00,AAXX 12004 41897 31935 51402 10285 20280 30008 40021 70520 85030 333 56090 58000 70000 85360=
41897,2024,06,12,06,00,AAXX 12064 41897 31950 41502 10330 20270 30004 40017 70521 84030 333 56090 58002 70000 84362=
41897,2024,06,12,12,00,AAXX 12124 41897 32956 01601 10340 20270 39980 49993 333 10352 58001 70000=
41897,2024,06,12,18,00,AAXX 12184 41897 31945 01603 10300 20270 30001 40014 70500 333 58000 70000=
41897,2024,06,13,00,00,AAXX 13004 41897 31435 81801 10287 20280 39998 40011 70522 8352/ 333 56999 59010 70000 83616 88458=
41897,2024,06,13,06,00,AAXX 13064 41897 31950 41601 10330 20270 30004 40016 70522 84030 333 56090 58000 70000 84360=
41897,2024,06,13,12,00,AAXX 13124 41897 31450 61402 10330 20290 39997 40010 71322 83310 333 10355 56990 58010 70000 82617 81928 86458=
41897,2024,06,13,18,00,AAXX 13184 41897 11440 31804 10270 20250 39990 40003 60086 70196 81510 333 56990 59011 70080 81618 83458=
41902,2024,06,07,00,00,AAXX 07004 41902 NIL=
41902,2024,06,07,06,00,AAXX 07064 41902 32456 61002 10330 20270 30025 40034 82430 333 56990 59031 70000 82615 86362=
41902,2024,06,07,12,00,AAXX 07124 41902 32450 61403 10317 20260 30001 40010 82430 333 10345 56990 59025 70000 82616 86362=
41902,2024,06,07,18,00,AAXX 07184 41902 32440 81403 10270 20250 30015 40024 70296 8592/ 333 56399 59009 70000 87410 86414 81925 88458=
41902,2024,06,08,00,00,AAXX 08004 41902 11440 80501 10260 20250 30021 40030 60088 79596 8592/ 333 56399 59007 70080 84710 86414 81925 88458=
41902,2024,06,08,06,00,AAXX 08064 41902 NIL=
41902,2024,06,08,12,00,AAXX 08124 41902 32440 70902 10305 20290 39989 49998 83410 333 10333 56990 58012 70080 83614 87459=
41902,2024,06,09,00,00,AAXX 09004 41902 11330 80000 10255 20240 30011 40020 60025 70362 8562/ 333 56999 59010 70020 82708 84613 88459=
41902,2024,06,09,06,00,AAXX 09064 41902 11430 80501 10267 20250 30020 40029 60293 70296 8442/ 333 56999 59006 70310 83614 88459=
41902,2024,06,09,12,00,AAXX 09124 41902 32440 70503 10271 20250 39997 40005 84410 333 10293 56190 58008 70310 83614 87459=
41902,2024,06,09,18,00,AAXX 09184 41902 NIL=
41902,2024,06,10,00,00,AAXX 10004 41902 32430 80501 10272 20260 30010 40019 8352/ 333 56199 59001 70290 83614 88459=
41902,2024,06,10,06,00,AAXX 10064 41902 11330 70502 10275 20260 30017 40026 60203 70196 84610 333 56190 59003 70200 82710 83614 87459=
41902,2024,06,10,12,00,AAXX 10124 41902 32440 60502 10283 20260 39998 40006 83510 333 10296 56190 58001 70200 83614 86459=
41902,2024,06,10,18,00,AAXX 10184 41902 NIL=
41902,2024,06,11,00,00,AAXX 11004 41902 32430 50501 10271 20260 30018 40027 83530 333 56190 58008 70200 83614 84362=
41902,2024,06,11,06,00,AAXX 11064 41902 32440 40503 10342 20290 30012 40020 82530 333 56190 59005 70000 82614 83362=
41902,2024,06,11,12,00,AAXX 11124 41902 32440 50000 10320 20280 39991 49999 82530 333 10357 56990 59001 70000 82614 84362=
41902,2024,06,12,00,00,AAXX 12004 41902 32430 50501 10291 20280 30012 40020 82530 333 56990 59006 70000 82614 84362=
41902,2024,06,12,06,00,AAXX 12064 41902 32450 40502 10342 20270 30012 40021 82430 333 56990 58000 70000 82614 83362=
41902,2024,06,12,12,00,AAXX 12124 41902 11440 71505 10305 20280 39999 40008 96614 71762 85920 333 10350 56990 58008 70001 83614 81928 87459=
41902,2024,06,12,18,00,AAXX 12184 41902 32430 71805 10285 20270 30008 40017 83520 333 56990 58005 70001 83615 87459=
41902,2024,06,13,00,00,AAXX 13004 41902 11440 81802 10282 20270 30003 40012 60055 70362 8352/ 333 56999 59009 70050 83615 88458=
41902,2024,06,13,06,00,AAXX 13064 41902 32450 81803 10310 20270 30009 40018 8352/ 333 56999 59003 70050 83615 88458=
41902,2024,06,13,12,00,AAXX 13124 41902 11450 80903 10256 20250 39997 40005 60618 71796 8592/ 333 10310 56999 59002 70655 84613 81925 88458=
41902,2024,06,13,18,00,AAXX 13184 41902 32430 80901 10252 20240 30010 40019 8352/ 333 56999 58002 70655 83615 88458=
41907,2024,06,07,00,00,AAXX 07004 41907 02450 70000 10270 20260 30017 40032 85510 333 59026 70000 85615 86458==
41907,2024,06,07,03,00,AAXX 07034 41907 02450 50000 10325 20290 30022 40036 83510 333 20270 59035 70000 83616 84458==
41907,2024,06,07,06,00,AAXX 07064 41907 02456 50000 10360 20260 30010 40024 85800 333 59025 70000 82615 83825==
41907,2024,06,07,09,00,AAXX 07094 41907 01350 80902 10330 20250 39983 49998 70396 8662/ 333 59032 70041 82709 85615 88458==
41907,2024,06,07,12,00,AAXX 07124 41907 01350 80000 10265 20250 39976 49993 70296 8662/ 333 10372 59030 70051 82709 85615 88458==
41907,2024,06,07,15,00,AAXX 07154 41907 02340 80000 10270 20250 39999 40013 8662/ 333 59020 70051 82709 85615 88458==
41907,2024,06,07,18,00,AAXX 07184 41907 02340 80000 10265 20260 30009 40024 8662/ 333 59013 70051 82709 85615 88458==
41907,2024,06,07,21,00,AAXX 07214 41907 02340 80000 10260 20250 30002 40017 8662/ 333 59010 70051 82709 85615 88458==
41907,2024,06,08,00,00,AAXX 08004 41907 02330 81303 10270 20260 39996 40011 8662/ 333 59021 70051 82709 85615 88458==
41907,2024,06,08,03,00,AAXX 08034 41907 02450 61302 10325 20260 30007 40022 82510 333 20256 59015 70051 82616 85458==
41907,2024,06,08,06,00,AAXX 08064 41907 02456 61802 10360 20250 39998 40013 82510 333 59012 70051 82616 86458==
41907,2024,06,08,09,00,AAXX 08094 41907 02/56 60000 10365 20250 39979 49993 85011 333 59004 70010 85458==
41907,2024,06,08,12,00,AAXX 08124 41907 02/56 51802 10350 20280 39964 49978 83011 333 10375 59014 70000 83458 83080==
41907,2024,06,08,15,00,AAXX 08154 41907 02940 01802 10323 20270 39984 49998 333 59014 70000==
41907,2024,06,08,18,00,AAXX 08184 41907 02940 01802 10310 20280 39992 40007 333 59017 70000==
41907,2024,06,08,21,00,AAXX 08214 41907 02340 81802 10300 20270 39987 40001 8662/ 333 59002 70000 82709 85615 88458==
41907,2024,06,09,00,00,AAXX 09004 41907 02340 81802 10295 20290 39989 40004 8662/ 333 59007 70000 83709 85615 88458==
41907,2024,06,09,03,00,AAXX 09034 41907 02340 81302 10320 20280 39999 40014 8662/ 333 20292 59008 70000 83709 85615 88458==
41907,2024,06,09,06,00,AAXX 09064 41907 02350 81302 10345 20290 39996 40010 8662/ 333 59002 70000 83709 85615 88458==
41907,2024,06,09,09,00,AAXX 09094 41907 02450 70902 10362 20280 39975 49989 84510 333 59004 70000 84615 87458==
41907,2024,06,09,12,00,AAXX 09124 41907 02450 61302 10345 20300 39972 49986 83510 333 10366 58008 70000 83615 86458==
41907,2024,06,09,15,00,AAXX 09154 41907 02440 71303 10306 20280 39991 40006 84510 333 58007 70000 84615 86458==
41907,2024,06,09,18,00,AAXX 09184 41907 02440 71302 10296 20280 39997 40012 85510 333 58005 70000 85615 86458==
41907,2024,06,09,21,00,AAXX 09214 41907 02440 71802 10295 20290 39988 40003 85510 333 58006 70000 85615 86458==
41907,2024,06,10,00,00,AAXX 10004 41907 02350 81802 10295 20290 39996 40010 8662/ 333 58007 70000 85709 88458==
41907,2024,06,10,03,00,AAXX 10034 41907 02350 80902 10332 20280 30001 40016 8662/ 333 20294 58002 75615 82709 88458==
41907,2024,06,10,06,00,AAXX 10064 41907 02350 80902 10340 20280 39996 40010 8662/ 333 58000 70000 82709 85615 88458==
41907,2024,06,10,09,00,AAXX 10094 41907 02456 81302 10345 20290 39979 49993 8351/ 333 58004 70000 83616 88458==
41907,2024,06,10,12,00,AAXX 10124 41907 02456 81303 10315 20270 39974 49988 8451/ 333 10360 58002 70000 84616 88458==
41907,2024,06,10,15,00,AAXX 10154 41907 01340 81302 10295 20260 39997 40011 71722 8632/ 333 58006 70000 82709 85615 88458==
41907,2024,06,10,18,00,AAXX 10184 41907 02440 80000 10277 20250 39999 40013 8552/ 333 58002 70000 85615 88458==
41907,2024,06,10,21,00,AAXX 10214 41907 02440 80000 10272 20240 30002 40017 8552/ 333 58014 70000 85615 88458==
41907,2024,06,11,00,00,AAXX 11004 41907 02445 81303 10273 20240 30008 40023 8552/ 333 58012 70000 85615 88458==
41907,2024,06,11,03,00,AAXX 11034 41907 02450 31306 10337 20270 30004 40018 83500 333 20266 58003 70000 83615==
41907,2024,06,11,06,00,AAXX 11064 41907 02450 61804 10370 20260 39994 40009 85800 333 59002 70000 82615 83825 85458==
41907,2024,06,11,09,00,AAXX 11094 41907 02456 31802 10372 20260 39975 49990 83800 333 59004 70000 82615==
41907,2024,06,11,12,00,AAXX 11124 41907 02456 61302 10355 20280 39972 49986 86400 333 10382 59002 70000 84615 83825==
41907,2024,06,11,15,00,AAXX 11154 41907 02940 00000 10320 20270 39993 40007 333 59004 70000==
41907,2024,06,11,18,00,AAXX 11184 41907 02940 00000 10308 20270 39997 40012 333 59002 70000==
41907,2024,06,11,21,00,AAXX 11214 41907 02940 00000 10290 20280 39992 40006 333 59012 70000==
41907,2024,06,12,00,00,AAXX 12004 41907 02440 50000 10290 20280 39997 40012 85810 333 59012 70000 84615 85458==
41907,2024,06,12,03,00,AAXX 12034 41907 02450 71802 10315 20280 30012 40026 85810 333 20282 58008 70000 82615 83825 85458==
41907,2024,06,12,06,00,AAXX 12064 41907 02450 70000 10350 20270 30003 40017 84510 333 58009 70000 84615 85458==
41907,2024,06,12,09,00,AAXX 12094 41907 02450 71803 10370 20270 39979 49994 84510 333 58004 70000 84615 86458==
41907,2024,06,12,12,00,AAXX 12124 41907 02550 30000 10357 20300 39975 49989 81101 333 10374 58003 70000 81825 83080==
41907,2024,06,12,15,00,AAXX 12154 41907 02940 01302 10320 20270 39993 40007 333 58000 70000==
41907,2024,06,12,18,00,AAXX 12184 41907 01440 71803 10312 20270 39999 40014 71300 85310 333 58002 70000 85615 85458 81930==
41907,2024,06,12,21,00,AAXX 12214 41907 02440 71802 10302 20270 39984 49998 84510 333 59008 70000 84615 86458==
41907,2024,06,13,00,00,AAXX 13004 41907 02350 81802 10294 20270 39994 40008 8562/ 333 59003 70000 82709 84615 88458==
41907,2024,06,13,03,00,AAXX 13034 41907 01340 81302 10295 20280 39998 40012 72122 8562/ 333 20292 59014 70035 83709 85615 88458==
41907,2024,06,13,06,00,AAXX 13064 41907 21450 81302 10340 20280 39993 40007 70296 8551/ 333 59010 60045 70035 85615 88458==
41907,2024,06,13,09,00,AAXX 13094 41907 02450 80000 10362 20280 39968 49982 8552/ 333 59011 70035 85615 88458==
41907,2024,06,13,12,00,AAXX 13124 41907 02450 80000 10352 20280 39962 49976 8552/ 333 10368 70035 85615 88458==
41907,2024,06,13,15,00,AAXX 13154 41907 02440 80902 10320 20280 39991 40005 8552/ 333 59002 70035 85615 88458==
41907,2024,06,13,18,00,AAXX 13184 41907 02440 80902 10312 20290 39991 40005 8552/ 333 59008 70035 85615 88458==
41907,2024,06,13,21,00,AAXX 13214 41907 02440 80000 10305 20300 39985 49999 8552/ 333 58001 70035 85615 88458==
41909,2024,06,07,00,00,AAXX 07004 41909 02450 50000 10277 20260 30021 40032 83530 333 59025 70120 83615 85360==
41909,2024,06,07,03,00,AAXX 07034 41909 02456 50000 10322 20270 30026 40037 82530 333 20251 59029 70120 82615 85360==
41909,2024,06,07,06,00,AAXX 07064 41909 02456 50000 10354 20270 30021 40023 82530 333 59025 70000 82615 85360==
41909,2024,06,07,09,00,AAXX 07094 41909 02456 60000 10359 20270 39992 40004 84330 333 59034 70000 83615 85360 81930==
41909,2024,06,07,12,00,AAXX 07124 41909 21456 80000 10284 20230 39991 40002 70362 8532/ 333 10366 59020 60045 70040 84615 88458 81930==
41909,2024,06,07,15,00,AAXX 07154 41909 02440 60000 10274 20240 30006 40017 83530 333 59019 70040 83615 85360==
41909,2024,06,07,18,00,AAXX 07184 41909 02440 60000 10268 20250 30018 40029 82530 333 59009 70040 82615 85360==
41909,2024,06,07,21,00,AAXX 07214 41909 01340 81802 10242 20230 30010 40021 72996 8572/ 333 59014 70254 84708 88458==
41909,2024,06,08,00,00,AAXX 08004 41909 21356 60000 10244 20230 30007 40018 70196 84620 333 59014 60218 70254 83708 86458==
41909,2024,06,08,03,00,AAXX 08034 41909 02456 81802 10294 20250 30021 40033 8462/ 333 20236 59004 70254 83708 88458==
41909,2024,06,08,06,00,AAXX 08064 41909 02456 81802 10324 20270 30018 40029 8352/ 333 59003 70254 82615 88458==
41909,2024,06,08,09,00,AAXX 08094 41909 02456 60000 10339 20280 39991 40002 83510 333 59001 70254 83615 85458==
41909,2024,06,08,12,00,AAXX 08124 41909 02356 81302 10329 20290 39979 49991 8532/ 333 10348 59012 70214 84708 88458 81930==
41909,2024,06,08,15,00,AAXX 08154 41909 02440 41302 10304 20280 39994 40005 82530 333 59012 70214 82615 83360==
41909,2024,06,08,18,00,AAXX 08184 41909 02440 40000 10292 20270 30004 40015 82530 333 59014 70224 82615 83360==
41909,2024,06,08,21,00,AAXX 08214 41909 02440 81802 10290 20270 39991 40002 8362/ 333 59019 70000 82708 88458==
41909,2024,06,09,00,00,AAXX 09004 41909 02356 81802 10289 20270 39992 40003 8562/ 333 59015 70000 84708 88458==
41909,2024,06,09,03,00,AAXX 09034 41909 02356 81802 10310 20270 30010 40021 8562/ 333 20285 59012 70000 84708 88458==
41909,2024,06,09,06,00,AAXX 09064 41909 02356 81802 10304 20260 30011 40022 8562/ 333 59007 70000 84708 88458==
41909,2024,06,09,09,00,AAXX 09094 41909 02456 51004 10328 20270 39988 49999 82530 333 59003 70000 82615 84365==
41909,2024,06,09,12,00,AAXX 09124 41909 02450 80000 10310 20280 39987 49998 8552/ 333 10330 58008 70000 85615 88460==
41909,2024,06,09,15,00,AAXX 09154 41909 02340 80000 10290 20260 30003 40014 8562/ 333 58009 70000 83708 83614 88460==
41909,2024,06,09,18,00,AAXX 09184 41909 02440 80000 10280 20260 30005 40016 8552/ 333 58001 70000 85614 88460==
41909,2024,06,09,21,00,AAXX 09214 41909 02440 80000 10281 20260 30001 40012 8552/ 333 58010 70000 85615 88460==
41909,2024,06,10,00,00,AAXX 10004 41909 02340 81304 10280 20270 30022 40033 8632/ 333 58030 70000 83708 83614 88458 81930==
41909,2024,06,10,03,00,AAXX 10034 41909 02356 81802 10304 20260 30011 40022 8562/ 333 59007 70000 84708 88458==
41909,2024,06,10,06,00,AAXX 10064 41909 02356 81302 10289 20240 30010 40021 8352/ 333 59001 70000 83615 88458==
41909,2024,06,10,09,00,AAXX 10094 41909 02456 81302 10310 20250 39998 40109 8352/ 333 58010 70000 83615 88458==
41909,2024,06,10,12,00,AAXX 10124 41909 02450 81302 10302 20250 39986 49997 8352/ 333 10312 59001 70000 83615 88458==
41909,2024,06,10,18,00,AAXX 10184 41909 02340 80000 10272 20250 30016 40027 8352/ 333 58007 70000 83615 88458==
41909,2024,06,10,21,00,AAXX 10214 41909 02440 80000 10272 20250 30021 40032 82530 333 58020 70000 83615 88458==
41909,2024,06,11,00,00,AAXX 11004 41909 02450 80000 10270 20250 30021 40032 8552/ 333 59001 70000 85615 88458==
41909,2024,06,11,03,00,AAXX 11034 41909 02456 80000 10304 20270 30016 40027 8552/ 333 20258 59002 70000 85614 88458==
41909,2024,06,11,06,00,AAXX 11064 41909 02356 81302 10348 20270 30006 40018 8462/ 333 59004 70000 84708 88458==
41909,2024,06,11,09,00,AAXX 11094 41909 02456 51301 10363 20260 39986 49998 82530 333 59012 70000 82615 85260==
41909,2024,06,11,12,00,AAXX 11124 41909 02456 51301 10344 20260 39981 49993 82530 333 10364 59005 70000 82615 85360==
41909,2024,06,11,15,00,AAXX 11154 41909 02940 00000 10320 20270 30001 40012 333 59004 70000==
41909,2024,06,11,18,00,AAXX 11184 41909 02940 00000 10311 20270 30011 40022 333 59005 70000==
41909,2024,06,11,21,00,AAXX 11214 41909 02940 00000 10300 20270 30011 40022 333 59010 70000==
41909,2024,06,12,00,00,AAXX 12004 41909 02450 81301 10292 20270 30011 40022 8552/ 333 59010 70000 84615 88458==
41909,2024,06,12,03,00,AAXX 12034 41909 02356 81301 10320 20270 30022 40033 8462/ 333 20284 58006 70000 83708 88458==
41909,2024,06,12,06,00,AAXX 12064 41909 02356 61301 10345 20270 30010 40022 83630 333 58004 70000 82708 85360==
41909,2024,06,12,09,00,AAXX 12094 41909 02456 81302 10360 20260 39986 49998 8552/ 333 58000 70000 84615 88458==
41909,2024,06,12,12,00,AAXX 12124 41909 01350 80000 10330 20280 39987 49999 71722 8592/ 333 10364 58006 70000 84614 88458 81930==
41909,2024,06,12,15,00,AAXX 12154 41909 02440 80000 10310 20280 30001 40012 8552/ 333 58000 70000==
41909,2024,06,12,18,00,AAXX 12184 41909 02440 80000 10300 20280 30006 40018 8552/ 333 58001 70000 84615 88458==
41909,2024,06,12,21,00,AAXX 12214 41909 02440 80000 10295 20280 30011 40022 8552/ 333 58000 70000 84615 88458==
41909,2024,06,13,00,00,AAXX 13004 41909 02450 81302 10293 20270 30000 40012 8552/ 333 58011 70000 84615 88458==
41909,2024,06,13,03,00,AAXX 13034 41909 02456 81301 10307 20270 30011 40022 8552/ 333 20282 59011 70000 84615 88458==
41909,2024,06,13,06,00,AAXX 13064 41909 02356 61301 10350 20270 30000 40012 83630 333 59010 70000 82708 85360==
41909,2024,06,13,09,00,AAXX 13094 41909 02456 71302 10347 20270 39980 49992 84570 333 59006 70000 84615 86460==
41909,2024,06,13,12,00,AAXX 13124 41909 01340 81303 10270 20250 39978 49989 72996 8632/ 333 10351 59009 70390 83708 83614 88460 81930==
41909,2024,06,13,18,00,AAXX 13184 41909 02440 81802 10260 20240 39998 40009 8552/ 333 59014 70390 85614 88460==
41909,2024,06,13,21,00,AAXX 13214 41909 02340 81002 10260 20240 39986 49997 8562/ 333 59025 70390 83708 83615 88460==
41915,2024,06,07,00,00,AAXX 07004 41915 02350 80000 10254 20240 30023 40048 8531/ 333 59016 70006 82709 83615 88460 81930==
41915,2024,06,07,03,00,AAXX 07034 41915 02456 71302 10275 20250 30029 40054 83510 333 20252 59023 70006 83616 87460==
41915,2024,06,07,06,00,AAXX 07064 41915 NIL=
41915,2024,06,07,09,00,AAXX 07094 41915 02956 30000 10323 20250 39991 40016 80002 333 59023 70000 83080==
41915,2024,06,07,12,00,AAXX 07124 41915 02456 61802 10312 20260 39989 40014 83572 333 10335 59014 70000 83616 83459==
41915,2024,06,07,15,00,AAXX 07154 41915 02450 40000 10274 20230 30012 40037 84500 333 59011 70000 84615==
41915,2024,06,07,18,00,AAXX 07184 41915 02450 40000 10263 20230 30018 40043 84400 333 59003 70000 83615==
41915,2024,06,08,00,00,AAXX 08004 41915 02450 30000 10257 20250 30018 40043 83500 333 59005 70000 83616==
41915,2024,06,08,03,00,AAXX 08034 41915 02456 60000 10298 20250 30021 40046 84310 333 20250 59007 70000 83616 85460 81928==
41915,2024,06,08,06,00,AAXX 08064 41915 01450 80000 10258 20250 30023 40048 72996 8532/ 333 58005 70190 84615 88458 81928==
41915,2024,06,08,09,00,AAXX 08094 41915 02456 60000 10310 20250 39990 40015 84430 333 58001 70194 83616 86363==
41915,2024,06,08,12,00,AAXX 08124 41915 02450 80000 10296 20270 39984 40008 8632/ 333 10314 59005 70194 85615 88458 81928==
41915,2024,06,08,15,00,AAXX 08154 41915 02450 81605 10290 20260 39997 40021 8431/ 333 59015 70194 83615 88460 81930==
41915,2024,06,08,18,00,AAXX 08184 41915 02450 41404 10280 20260 30000 40024 84300 333 59018 70194 83615 80930==
41915,2024,06,08,21,00,AAXX 08214 41915 01340 80000 10244 20230 30011 40036 72992 8632/ 333 59002 70234 84708 88458 81928==
41915,2024,06,09,00,00,AAXX 09004 41915 21350 83004 10242 20230 30020 40045 71792 8692/ 333 58002 60045 70234 84708 88458 81925==
41915,2024,06,09,03,00,AAXX 09034 41915 01340 80502 10235 20235 30023 40048 79596 8692/ 333 20235 58002 70484 84708 84615 88458 81925==
41915,2024,06,09,06,00,AAXX 09064 41915 21440 82702 10242 20240 30029 40054 79596 8692/ 333 58006 60339 70374 84708 84615 88458 81925==
41915,2024,06,09,09,00,AAXX 09094 41915 01350 80000 10270 20250 39991 40016 70292 333 58001 70434 84709 88458 81930==
41915,2024,06,09,12,00,AAXX 09124 41915 01450 80000 10269 20250 39990 40015 70292 8562/ 333 10277 58006 70060 82712 84615 88458==
41915,2024,06,09,15,00,AAXX 09154 41915 02450 40000 10272 20250 30007 40032 84400 333 58010 70434 83615==
41915,2024,06,09,18,00,AAXX 09184 41915 NIL=
41915,2024,06,09,21,00,AAXX 09214 41915 02450 40000 10250 20240 30007 40032 84400 333 59004 70394 83615==
41915,2024,06,10,00,00,AAXX 10004 41915 02450 80000 10257 20240 30008 40033 8531/ 333 59012 70394 84615 88460 81930==
41915,2024,06,10,03,00,AAXX 10034 41915 01450 81301 10247 20247 30018 40043 79596 8692/ 333 20235 59005 70274 83710 84615 88458 81925==
41915,2024,06,10,06,00,AAXX 10064 41915 21456 81302 10284 20240 30012 40037 70292 8452/ 333 59017 60158 70214 84615 88458==
41915,2024,06,10,09,00,AAXX 10094 41915 02456 72301 10292 20260 39992 40017 83570 333 58001 70154 83616 84460==
41915,2024,06,10,12,00,AAXX 10124 41915 02956 10000 10290 20260 39988 40013 80002 333 10306 59002 70154 81080==
41915,2024,06,10,15,00,AAXX 10154 41915 02950 00000 10280 20260 30009 40034 333 58002 70154==
41915,2024,06,10,18,00,AAXX 10184 41915 02950 00000 10270 20250 30015 40040 333 58004 70154==
41915,2024,06,10,21,00,AAXX 10214 41915 02950 00000 10268 20250 30015 40040 333 58004 70154==
41915,2024,06,11,00,00,AAXX 11004 41915 02956 00000 10272 20250 30019 40044 333 58011 70154==
41915,2024,06,11,03,00,AAXX 11034 41915 02956 01302 10318 20270 30016 40040 333 20245 59002 70024==
41915,2024,06,11,06,00,AAXX 11064 41915 02456 41102 10345 20280 30005 40029 84400 333 59007 70000 83616==
41915,2024,06,11,09,00,AAXX 11094 41915 02456 60000 10340 20290 39976 40001 85410 333 59016 70000 84616 85458==
41915,2024,06,11,12,00,AAXX 11124 41915 01456 70000 10326 20290 39979 40004 71722 85310 333 10358 59009 70000 84616 86458 81928==
41915,2024,06,11,15,00,AAXX 11154 41915 01440 80000 10277 20270 39997 40022 70396 8632/ 333 59012 70094 83710 84615 88458 81928==
41915,2024,06,11,18,00,AAXX 11184 41915 11340 81306 10272 20250 30008 40033 60096 71792 8692/ 333 59007 70094 84709 88458 81925==
41915,2024,06,11,21,00,AAXX 11214 41915 01440 81302 10266 20250 30003 40028 70292 8532/ 333 59012 70094 84615 88458 81925==
41915,2024,06,12,00,00,AAXX 12004 41915 01450 80000 10270 20260 30013 40038 70292 8562/ 333 59006 70094 81712 84615 88458==
41915,2024,06,12,03,00,AAXX 12034 41915 02456 60202 10306 20280 30025 40051 84410 333 20261 58010 70094 83616 85458==
41915,2024,06,12,06,00,AAXX 12064 41915 01456 70000 10295 20280 30013 40038 70396 85420 333 58008 70002 84616 87458==
41915,2024,06,12,09,00,AAXX 12094 41915 01350 80000 10270 20260 39988 40013 79521 8692/ 333 58012 70116 84708 88458 81925==
41915,2024,06,12,12,00,AAXX 12124 41915 21450 80000 10280 20260 39992 40117 70292 8532/ 333 10318 58013 60125 70199 84615 88458 81930==
41915,2024,06,12,15,00,AAXX 12154 41915 02450 40902 10275 20260 30011 40036 83430 333 58014 70105 82616==
41915,2024,06,12,18,00,AAXX 12184 41915 02450 41302 10270 20250 30008 40033 84300 333 58000 70105 83616 81928==
41915,2024,06,12,21,00,AAXX 12214 41915 01450 61302 10270 20250 30000 40025 71792 85320 333 11096 59003 70105 84616 81928==
41915,2024,06,13,00,00,AAXX 13004 41915 01456 81302 10264 20250 30006 40031 72992 8662/ 333 58007 70030 82710 85616 88458==
41915,2024,06,13,03,00,AAXX 13034 41915 02456 80000 10272 20250 30018 40043 8532/ 333 20264 59008 70139 84614 88458 81930==
41915,2024,06,13,06,00,AAXX 13064 41915 02356 81605 10314 20260 30003 40028 8532/ 333 59010 70137 84709 88460 81930==
41915,2024,06,13,09,00,AAXX 13094 41915 01340 83206 10244 20230 39992 40017 79592 8692/ 333 58004 70257 85708 88458 81925==
41915,2024,06,13,12,00,AAXX 13124 41915 21340 80000 10244 20230 39990 40015 79599 8692/ 333 10320 59002 60187 70218 84708 88458 81925==
41915,2024,06,13,15,00,AAXX 13154 41915 01340 80000 10244 20230 30009 40035 72196 8532/ 333 59002 70246 83709 88460 81930==
41915,2024,06,13,18,00,AAXX 13184 41915 11450 80000 10250 20240 30007 40032 60036 70296 8531/ 333 59001 70246 84615 88432 81930==
41923,2024,06,07,00,00,AAXX 07004 41923 41440 80000 10286 20270 30027 40037 70522 8532/ 333 59016 85615 88460 81930==
41923,2024,06,07,03,00,AAXX 07034 41923 41445 80000 10311 20260 30039 40049 70522 8552/ 333 20285 59028 85615 88460==
41923,2024,06,07,06,00,AAXX 07064 41923 01450 81802 10336 20270 30025 40035 70522 8552/ 333 59029 70000 85615 88460==
41923,2024,06,07,09,00,AAXX 07094 41923 02450 60000 10346 20270 39991 40000 83430 333 59039 70000 82615 85360==
41923,2024,06,07,12,00,AAXX 07124 41923 01340 80604 10266 20250 30007 40017 72996 8632/ 333 10355 59010 70080 83709 84615 88458 81930==
41923,2024,06,07,15,00,AAXX 07154 41923 01340 80000 10274 20230 30016 40026 71396 8632/ 333 59016 70086 83709 84615 88458 81930==
41923,2024,06,07,18,00,AAXX 07184 41923 11350 70000 10292 20240 30014 40024 69946 70196 84670 333 59015 70086 82709 83615 85458==
41923,2024,06,07,21,00,AAXX 07214 41923 01345 70000 10274 20240 30013 40023 71322 85370 333 59012 70086 82709 83615 85458 81930==
41923,2024,06,08,00,00,AAXX 08004 41923 02345 70000 10264 20230 30016 40026 84670 333 59013 70086 82709 83615 85458==
41923,2024,06,08,03,00,AAXX 08034 41923 02350 70000 10302 20250 30028 40038 84670 333 20260 59011 70086 82709 83615 85458==
41923,2024,06,08,06,00,AAXX 08064 41923 02456 61803 10340 20260 30018 40028 85330 333 59007 70086 84615 81930==
41923,2024,06,08,09,00,AAXX 08094 41923 02450 71504 10350 20250 39994 40004 85370 333 59004 70086 82709 83615 85458 81930==
41923,2024,06,08,12,00,AAXX 08124 41923 02350 70000 10342 20260 39987 49997 84670 333 10356 59020 70004 82709 83615 85458==
41923,2024,06,08,15,00,AAXX 08154 41923 02450 50000 10322 20270 30001 40011 82530 333 59015 70000 82615 85360==
41923,2024,06,08,18,00,AAXX 08184 41923 02/50 20000 10306 20270 30010 40020 82030 333 59004 70000 82360==
41923,2024,06,08,21,00,AAXX 08214 41923 02445 50000 10302 20270 39998 40008 82530 333 59015 70000 82615 85360==
41923,2024,06,09,00,00,AAXX 09004 41923 02445 70000 10296 20280 30001 40011 85370 333 59013 70000 82709 83615 85458 81930==
41923,2024,06,09,03,00,AAXX 09034 41923 02445 80000 10308 20270 30017 40027 8632/ 333 20295 59011 70000 83709 84615 88458 81930==
41923,2024,06,09,06,00,AAXX 09064 41923 02450 80602 10330 20270 30014 40024 8632/ 333 59004 70000 83709 84615 88458 81930==
41923,2024,06,09,09,00,AAXX 09094 41923 02350 70602 10270 39993 40003 85370 333 59001 70000 82709 84615 86458 81930==
41923,2024,06,09,12,00,AAXX 09124 41923 02350 70602 10308 20270 39994 40004 85370 333 10335 58007 70000 82709 84615 86458 81930==
41923,2024,06,09,15,00,AAXX 09154 41923 02345 80602 10305 20270 30009 40019 8532/ 333 58008 70000 82709 84615 88458 81930==
41923,2024,06,09,18,00,AAXX 09184 41923 02340 70000 10303 20270 30014 40024 85370 333 58004 70000 82709 84615 86458 81930==
41923,2024,06,09,21,00,AAXX 09214 41923 02340 70000 10302 20270 30010 40020 85670 333 58012 70000 82709 83615 86458==
41923,2024,06,10,00,00,AAXX 10004 41923 02340 70000 10305 20270 30014 40024 84670 333 58013 70000 82709 83615 86458==
41923,2024,06,10,03,00,AAXX 10034 41923 01340 80000 10267 20260 30023 40033 70396 8532/ 333 20262 58005 70010 83708 84614 88458 81930==
41923,2024,06,10,06,00,AAXX 10064 41923 11340 80604 10286 20240 30019 40029 60016 70296 8632/ 333 58005 70010 83709 84615 88458 81930==
41923,2024,06,10,09,00,AAXX 10094 41923 01440 80000 10301 20240 30001 40011 70522 8532/ 333 58008 70010 85615 88460 81930==
41923,2024,06,10,12,00,AAXX 10124 41923 01440 80602 10297 20250 39996 40006 70522 8532/ 333 10305 58002 70010 85615 88460 81930==
41923,2024,06,10,15,00,AAXX 10154 41923 01440 82402 10292 20240 30013 40023 70522 8532/ 333 58004 70010 85615 88460 81930==
41923,2024,06,10,18,00,AAXX 10184 41923 01440 80000 10297 20270 30021 40031 70522 8532/ 333 58007 70010 85615 88460 81930==
41923,2024,06,10,21,00,AAXX 10214 41923 01440 80000 10291 20270 30018 40028 70522 8532/ 333 58008 70010 85615 88460 81930==
41923,2024,06,11,00,00,AAXX 11004 41923 01440 80602 10282 20270 30026 40036 70522 8532/ 333 58012 70010 85615 88460 81930==
41923,2024,06,11,03,00,AAXX 11034 41923 01450 61802 10331 20270 30021 40031 70522 82530 333 20265 59002 70000 82615 85365==
41923,2024,06,11,06,00,AAXX 11064 41923 02456 72702 10352 20240 30013 40023 84570 333 59006 70000 84615 84660==
41923,2024,06,11,09,00,AAXX 11094 41923 02456 31803 10360 20240 39994 40004 81530 333 59007 70000 81616 83360==
41923,2024,06,11,12,00,AAXX 11124 41923 02456 31802 10342 20250 39989 49999 81530 333 10365 59007 70000 81616 83360==
41923,2024,06,11,15,00,AAXX 11154 41923 02/50 21803 10322 20270 30013 40023 82030 333 58000 70000 82360==
41923,2024,06,11,18,00,AAXX 11184 41923 02450 41802 10310 20260 30013 40023 81530 333 59008 70000 81616 84360==
41923,2024,06,11,21,00,AAXX 11214 41923 02445 40000 10304 20260 30012 40022 81530 333 59006 70000 81616 84360==
41923,2024,06,12,00,00,AAXX 12004 41923 02445 70000 10295 20280 30019 40029 84430 333 59007 70000 83615 85360==
41923,2024,06,12,03,00,AAXX 12034 41923 02456 61803 10325 20270 30030 40040 85430 333 20294 58009 70000 83615 83824==
41923,2024,06,12,06,00,AAXX 12064 41923 02456 61803 10348 20250 30017 40027 84430 333 58004 70000 83615 83360==
41923,2024,06,12,09,00,AAXX 12094 41923 02456 71602 10354 20240 39996 40006 84430 333 58002 70000 83615 85360==
41923,2024,06,12,12,00,AAXX 12124 41923 02450 80000 10324 20260 39997 40007 8632/ 333 10359 58008 70000 83709 84615 88458 81930==
41923,2024,06,12,15,00,AAXX 12154 41923 02450 50000 10308 20270 30012 40022 82530 333 59001 70000 82615 85360==
41923,2024,06,12,18,00,AAXX 12184 41923 02450 50000 10300 20270 30014 40024 82530 333 58001 70000 82615 85360==
41923,2024,06,12,21,00,AAXX 12214 41923 02445 50000 10296 20280 30006 40016 82530 333 59006 70000 82615 85360==
41923,2024,06,13,00,00,AAXX 13004 41923 02340 70000 10298 20270 30010 40020 84670 333 59009 70000 82709 84615 86458==
41923,2024,06,13,03,00,AAXX 13034 41923 02345 71803 10312 20270 30022 40032 84670 333 20295 59008 70000 82709 84615 86458==
41923,2024,06,13,06,00,AAXX 13064 41923 01445 81802 10336 20260 30010 40020 72122 8632/ 333 59007 70000 83709 84615 88458 81930==
41923,2024,06,13,09,00,AAXX 13094 41923 42350 71804 10338 20270 39987 49997 85370 333 59007 82709 84615 86458 81930==
41923,2024,06,13,12,00,AAXX 13124 41923 01320 80000 10250 20240 39999 40009 79596 8692/ 333 10350 58002 70550 83708 84614 88458 81930==
41923,2024,06,13,15,00,AAXX 13154 41923 01340 81302 10254 20230 30018 40028 70296 8532/ 333 58006 70562 82709 84615 88458 81930==
41923,2024,06,13,18,00,AAXX 13184 41923 11340 70000 10254 20240 30015 40025 60016 70196 85670 333 58001 70562 82709 84615 85458==
41923,2024,06,13,21,00,AAXX 13214 41923 02340 70000 10266 20250 39994 40004 84670 333 59012 70562 82709 83615 85458==
41926,2024,06,07,00,00,AAXX 07004 41926 02450 20000 10278 20270 30019 40033 82500 333 59025 70000 82618==
41926,2024,06,07,03,00,AAXX 07034 41926 02450 30000 10325 20270 30024 40037 81530 333 20278 59026 70000 81618 83362==
41926,2024,06,07,06,00,AAXX 07064 41926 02956 00000 10365 20280 30014 40027 333 59027 70000==
41926,2024,06,07,09,00,AAXX 07094 41926 02956 00000 10384 20250 39984 49997 333 59032 70000==
41926,2024,06,07,12,00,AAXX 07124 41926 02950 31802 10316 20250 39981 49994 80004 333 10385 59024 70000 83080==
41926,2024,06,07,15,00,AAXX 07154 41926 02950 00000 10292 20240 30001 40014 333 59020 70000==
41926,2024,06,07,18,00,AAXX 07184 41926 02950 00000 10285 20250 30001 40015 333 59020 70000==
41926,2024,06,07,21,00,AAXX 07214 41926 02950 00000 10282 20260 39992 40006 333 59021 70000==
41926,2024,06,08,00,00,AAXX 08004 41926 02950 30000 10285 20270 30000 40014 80002 333 59019 70000 83080==
41926,2024,06,08,03,00,AAXX 08034 41926 02456 60000 10312 20250 30010 40023 83502 333 20280 59014 70000 83618 85080==
41926,2024,06,08,06,00,AAXX 08064 41926 02456 60000 10312 20250 30010 40023 83502 333 20280 59014 70000 83618 85080==
41926,2024,06,08,09,00,AAXX 08094 41926 02956 10000 10376 20270 39979 49992 80001 333 59005 70000 81080==
41926,2024,06,08,12,00,AAXX 08124 41926 02956 20000 10347 20280 39967 49980 80001 333 10384 59014 70000 82080==
41926,2024,06,08,15,00,AAXX 08154 41926 02950 00000 10320 20270 39985 49998 333 59014 70000==
41926,2024,06,08,18,00,AAXX 08184 41926 02950 00000 10303 20280 39994 40007 333 59007 70000==
41926,2024,06,08,21,00,AAXX 08214 41926 02950 01802 10298 20280 39987 40000 333 59005 70000==
41926,2024,06,09,00,00,AAXX 09004 41926 02950 00000 10294 20270 39982 49995 333 59018 70000==
41926,2024,06,09,03,00,AAXX 09034 41926 02450 50000 10327 20280 39996 40009 82510 333 20294 59014 70000 82618 85459==
41926,2024,06,09,06,00,AAXX 09064 41926 02456 50000 10372 20270 39993 40006 82510 333 59009 70000 82618 85459==
41926,2024,06,09,09,00,AAXX 09094 41926 02456 50000 10377 20270 39971 49983 82510 333 59008 70000 82618 85459==
41926,2024,06,09,12,00,AAXX 09124 41926 02956 00000 10358 20290 39969 49982 333 10386 58002 70000==
41926,2024,06,09,15,00,AAXX 09154 41926 02450 50000 10332 20280 39990 40003 82510 333 58005 70000 82618 85459==
41926,2024,06,09,18,00,AAXX 09184 41926 02950 01802 10312 20280 39997 40010 333 58003 70000==
41926,2024,06,09,21,00,AAXX 09214 41926 02950 00000 10306 20290 39992 40005 333 58005 70000==
41926,2024,06,10,00,00,AAXX 10004 41926 02950 00000 10295 20280 39992 40005 333 58010 70000==
41926,2024,06,10,03,00,AAXX 10034 41926 02456 20000 10325 20290 30001 40014 82500 333 20295 58005 70000 82618==
41926,2024,06,10,06,00,AAXX 10064 41926 02456 20000 10372 20270 39989 40002 82500 333 59004 70000 82618==
41926,2024,06,10,09,00,AAXX 10094 41926 02456 40000 10383 20270 39973 49986 84500 333 58002 70000 84618==
41926,2024,06,10,12,00,AAXX 10124 41926 01350 81304 10364 20280 39967 49980 71721 8492/ 333 10395 59002 70000 82708 83615 88458 81930==
41926,2024,06,10,15,00,AAXX 10154 41926 01350 83105 10240 20230 30002 40016 79792 8592/ 333 58012 70320 83706 84614 88458 82928==
41926,2024,06,10,18,00,AAXX 10184 41926 21450 80000 10250 20240 39999 40013 70296 8532/ 333 58002 60425 70420 84615 88458 81930==
41926,2024,06,10,21,00,AAXX 10214 41926 02450 80000 10260 20250 39994 40008 8532/ 333 58002 70420 84615 88459 81930==
41926,2024,06,11,00,00,AAXX 11004 41926 02450 70000 10265 20260 30001 40015 83510 333 58009 70420 83616 86459==
41926,2024,06,11,03,00,AAXX 11034 41926 02456 40000 10310 20280 30004 40017 81510 333 20237 58003 70420 81616 84459==
41926,2024,06,11,06,00,AAXX 11064 41926 02456 50000 10350 20280 39994 40007 83510 333 58005 70420 83616 84459==
41926,2024,06,11,09,00,AAXX 11094 41926 02457 20502 10366 20280 39978 49991 82400 333 58005 70420 81618==
41926,2024,06,11,12,00,AAXX 11124 41926 02456 20000 10336 20290 39975 49988 82400 333 10372 58008 70420 81618==
41926,2024,06,11,15,00,AAXX 11154 41926 02/50 11804 10315 20270 39998 40011 81030 333 59004 70100 81362==
41926,2024,06,11,18,00,AAXX 11184 41926 02950 00000 10293 20260 39997 40010 333 59002 70000==
41926,2024,06,11,21,00,AAXX 11214 41926 02950 00000 10290 20280 39998 40011 333 58004 70000==
41926,2024,06,12,00,00,AAXX 12004 41926 02950 00000 10280 20270 30000 40013 333 59001 70000==
41926,2024,06,12,03,00,AAXX 12034 41926 02450 70000 10310 20260 30012 40025 83510 333 20280 58008 70000 83615 87459==
41926,2024,06,12,06,00,AAXX 12064 41926 02456 60000 10346 20280 30003 40016 83510 333 58009 70000 83615 85459==
41926,2024,06,12,09,00,AAXX 12094 41926 02456 51802 10360 20280 39980 49993 85400 333 58002 70000 82618 83825==
41926,2024,06,12,12,00,AAXX 12124 41926 02456 61802 10337 20280 39979 49992 83510 333 10367 58004 70000 83618 86459==
41926,2024,06,12,15,00,AAXX 12154 41926 02/50 41804 10315 20270 39999 40012 84030 333 58001 70000 84362==
41926,2024,06,12,18,00,AAXX 12184 41926 02450 51801 10295 20270 30007 40020 81530 333 58010 70000 81618 85362==
41926,2024,06,12,21,00,AAXX 12214 41926 02450 50000 10290 20270 39999 40012 82510 333 58001 70000 82618 85459==
41926,2024,06,13,00,00,AAXX 13004 41926 02450 61803 10285 20270 39996 40009 82510 333 59004 70000 82618 86459==
41926,2024,06,13,03,00,AAXX 13034 41926 02456 31802 10320 20270 39997 40010 83500 333 20282 59015 70000 83618==
41926,2024,06,13,06,00,AAXX 13064 41926 02456 50000 10355 20290 39991 40004 83510 333 59012 70000 83618 85459==
41926,2024,06,13,09,00,AAXX 13094 41926 02456 50000 10355 20280 39971 49984 83530 333 59009 70000 83618 84362==
41926,2024,06,13,12,00,AAXX 13124 41926 02450 30000 10340 20270 39965 49978 83500 333 10370 59014 70000 83618==
41926,2024,06,13,15,00,AAXX 13154 41926 02450 30000 10320 20270 30003 40016 83300 333 58004 70000 82618 81930==
41926,2024,06,13,18,00,AAXX 13184 41926 02450 71802 10275 20250 39982 49996 85310 333 59025 70000 84615 86459 81930==
41926,2024,06,13,21,00,AAXX 13214 41926 02450 70000 10275 20260 39972 49986 84510 333 59027 70000 84616 86459==
41927,2024,06,07,00,00,AAXX 07004 41927 31950 00000 10284 20270 30030 40045 70500 333 59016 70000=
41927,2024,06,07,06,00,AAXX 07064 41927 NIL=
41927,2024,06,07,12,00,AAXX 07124 41927 32456 81802 10284 20230 39984 49999 8452/ 333 10370 56499 59020 70000 84616 88458=
41927,2024,06,07,18,00,AAXX 07184 41927 32456 41802 10274 20250 30010 40025 82510 333 56490 59018 70000 82618 84459=
41927,2024,06,08,00,00,AAXX 08004 41927 32956 01802 10270 20260 30010 40025 333 59020 70000=
41927,2024,06,08,06,00,AAXX 08064 41927 32958 01803 10354 20240 39998 40012 333 59026 70000=
41927,2024,06,08,12,00,AAXX 08124 41927 32957 00000 10348 20270 39968 49982 333 10372 59016 70000=
41927,2024,06,08,18,00,AAXX 08184 41927 32956 01801 10308 20280 39999 40014 333 59011 70000=
41927,2024,06,09,00,00,AAXX 09004 41927 32456 61603 10295 20290 39988 40003 83570 333 56490 59022 70000 83617 84459=
41927,2024,06,09,06,00,AAXX 09064 41927 32457 51802 10345 20280 39996 40010 85400 333 56400 59002 70000 82618 83825=
41927,2024,06,09,12,00,AAXX 09124 41927 32456 62203 10335 20300 39974 49988 83510 333 10360 56590 58006 70000 83617 85459=
41927,2024,06,09,18,00,AAXX 09184 41927 NIL=
41927,2024,06,10,00,00,AAXX 10004 41927 32956 30000 10290 20280 30000 40015 83010 333 56090 58012 70000 83459=
41927,2024,06,10,06,00,AAXX 10064 41927 32458 51503 10330 20280 39994 40008 83510 333 56390 59002 70000 83617 85459=
41927,2024,06,10,12,00,AAXX 10124 41927 32457 71402 10310 20260 39975 49990 84310 333 10350 56390 58001 70000 83617 81929 87459=
41927,2024,06,10,18,00,AAXX 10184 41927 NIL=
41927,2024,06,11,00,00,AAXX 11004 41927 32450 81801 10265 20260 30013 40028 8452/ 333 56499 58013 70000 84617 88458=
41927,2024,06,11,06,00,AAXX 11064 41927 32957 01602 10352 20260 39996 40010 333 58002 70000=
41927,2024,06,11,12,00,AAXX 11124 41927 32457 51501 10340 20260 39976 49990 82510 333 10365 56390 58001 70000 82618 85459=
41927,2024,06,11,18,00,AAXX 11184 41927 32956 21701 10302 20270 39997 40012 82010 333 56090 58000 70000 82459=
41927,2024,06,12,00,00,AAXX 12004 41927 32956 01701 10285 20280 30002 40017 333 59011 70000=
41927,2024,06,12,06,00,AAXX 12064 41927 32457 51702 10345 20270 30002 40016 84410 333 56490 58006 70000 81618 83828=
41927,2024,06,12,12,00,AAXX 12124 41927 32957 21801 10335 20280 39978 49992 80001 333 10362 56009 58002 70000 82080=
41927,2024,06,12,18,00,AAXX 12184 41927 32956 01802 10300 20280 30001 40016 333 58004 70000=
41927,2024,06,13,00,00,AAXX 13004 41927 32456 61601 10290 20280 39996 40011 83510 333 56490 59006 70000 83617 86459=
41927,2024,06,13,06,00,AAXX 13064 41927 32457 81601 10345 20270 39993 40007 8452/ 333 56399 59009 70000 84617 88458=
41927,2024,06,13,12,00,AAXX 13124 41927 32957 21701 10350 20260 39967 49981 82010 333 10362 56090 59011 70000 82459=
41927,2024,06,13,18,00,AAXX 13184 41927 32456 51701 10305 20280 39980 49995 82510 333 56490 59021 70000 82618 85459=
41929,2024,06,07,00,00,AAXX 07004 41929 01956 00000 10277 20250 30024 40034 70510 333 59013 70000==
41929,2024,06,07,03,00,AAXX 07034 41929 02957 00000 10325 20250 30034 40043 333 20274 59029 70000==
41929,2024,06,07,06,00,AAXX 07064 41929 02457 51802 10355 20270 30025 40034 85400 333 59029 70000 82618 83825==
41929,2024,06,07,09,00,AAXX 07094 41929 02457 51303 10365 20280 39997 40006 82530 333 59028 70000 82618 83365==
41929,2024,06,07,12,00,AAXX 07124 41929 01957 80000 10290 20230 39991 40000 70392 8451/ 333 10365 59024 70000 84618 88459==
41929,2024,06,07,15,00,AAXX 07154 41929 02456 61303 10277 20240 30013 40022 83530 333 59018 70000 83618 83365==
41929,2024,06,07,18,00,AAXX 07184 41929 02456 70903 10282 20250 30014 40023 83570 333 59014 70000 83618 85459==
41929,2024,06,07,21,00,AAXX 07214 41929 02456 71302 10278 20260 30014 40023 83570 333 59010 70000 83618 85459==
41929,2024,06,08,00,00,AAXX 08004 41929 02456 81302 10273 20250 30013 40022 8451/ 333 59010 70000 84618 88459==
41929,2024,06,08,03,00,AAXX 08034 41929 02457 41802 10326 20270 30021 40030 84500 333 20270 59013 70000 84618==
41929,2024,06,08,06,00,AAXX 08064 41929 02457 41802 10352 20270 30015 40024 84500 333 59010 70000 84618==
41929,2024,06,08,09,00,AAXX 08094 41929 02457 51503 10357 20260 39990 49999 84500 333 59009 70000 82616 83825==
41929,2024,06,08,12,00,AAXX 08124 41929 02457 41802 10350 20280 39983 49992 84400 333 10358 59008 70000 82618 83825==
41929,2024,06,08,15,00,AAXX 08154 41929 02957 01802 10313 20270 30001 40011 333 59012 70000==
41929,2024,06,08,18,00,AAXX 08184 41929 02457 20000 10301 20280 30007 40014 82500 333 59007 70000 82616==
41929,2024,06,08,21,00,AAXX 08214 41929 02457 50000 10296 20280 39999 40009 82530 333 59015 70000 82616 84362==
41929,2024,06,09,00,00,AAXX 09004 41929 02457 60000 10290 20280 39999 40009 82530 333 59014 70000 82616 85362==
41929,2024,06,09,03,00,AAXX 09034 41929 02457 72302 10325 20280 30010 40019 83510 333 20286 59011 70000 83618 87462==
41929,2024,06,09,06,00,AAXX 09064 41929 02457 71402 10348 20280 30008 40017 83510 333 59007 70000 83618 87462==
41929,2024,06,09,09,00,AAXX 09094 41929 02457 61303 10353 20270 39985 49994 83430 333 59005 70000 82618 83365==
41929,2024,06,09,12,00,AAXX 09124 41929 02457 81303 10330 20290 39988 49997 8451/ 333 10360 58005 70000 84618 88459==
41929,2024,06,09,15,00,AAXX 09154 41929 02/57 30000 10312 20290 30001 40010 83030 333 58000 70000 83365==
41929,2024,06,09,18,00,AAXX 09184 41929 02/57 20000 10302 20280 30011 40020 82030 333 58004 70000 82365==
41929,2024,06,09,21,00,AAXX 09214 41929 02/57 40000 10299 20280 30010 40020 84030 333 58011 70000 84365==
41929,2024,06,10,00,00,AAXX 10004 41929 02457 80000 10295 20290 30009 40018 8451/ 333 58010 70000 84618 88459==
41929,2024,06,10,03,00,AAXX 10034 41929 02457 71402 10322 20280 30016 40025 83510 333 20288 58006 70000 83618 87462==
41929,2024,06,10,06,00,AAXX 10064 41929 02457 60904 10335 20290 30009 40018 83530 333 58001 70000 83618 83365==
41929,2024,06,10,09,00,AAXX 10094 41929 02457 50905 10330 20270 39994 40003 82530 333 58009 70000 82618 84365==
41929,2024,06,10,12,00,AAXX 10124 41929 02457 70904 10310 20250 39989 49998 83570 333 10350 58001 70000 83618 85459==
41929,2024,06,10,15,00,AAXX 10154 41929 02/57 31303 10294 20270 30006 40015 83030 333 58005 70000 83365==
41929,2024,06,10,18,00,AAXX 10184 41929 02/57 20000 10292 20240 30010 40019 82030 333 59001 70000 82365==
41929,2024,06,10,21,00,AAXX 10214 41929 02/56 40000 10281 20250 30012 40021 84030 333 58002 70000 84365==
41929,2024,06,11,00,00,AAXX 11004 41929 01456 80000 10270 20250 30013 40022 70362 8451/ 333 58004 70002 84618 88459==
41929,2024,06,11,03,00,AAXX 11034 41929 02457 41802 10328 20270 30017 40026 84500 333 20265 58001 70002 84618==
41929,2024,06,11,06,00,AAXX 11064 41929 02457 71802 10355 20280 30009 40018 84510 333 58000 70002 84618 87462==
41929,2024,06,11,09,00,AAXX 11094 41929 02958 01303 10363 20260 39991 40000 333 59003 70002==
41929,2024,06,11,12,00,AAXX 11124 41929 02958 01803 10347 20270 39985 49994 333 10365 59004 70002==
41929,2024,06,11,15,00,AAXX 11154 41929 02457 61803 10320 20280 30008 40017 83530 333 58002 70002 83618 83365==
41929,2024,06,11,18,00,AAXX 11184 41929 02/57 31802 10302 20270 30012 40021 83030 333 58002 70002 83365==
41929,2024,06,11,21,00,AAXX 11214 41929 02/57 30000 10294 20270 30010 40019 83030 333 59002 70002 83365==
41929,2024,06,12,00,00,AAXX 12004 41929 02/57 30000 10285 20280 30007 40016 83030 333 59006 70000 83365==
41929,2024,06,12,03,00,AAXX 12034 41929 02457 41802 10334 20260 30027 40036 84500 333 20280 58010 70000 84618==
41929,2024,06,12,06,00,AAXX 12064 41929 02457 71802 10354 20250 30015 40024 84510 333 58006 70000 84618 87462==
41929,2024,06,12,09,00,AAXX 12094 41929 02458 51802 10355 20270 39995 40004 82530 333 58004 70000 82618 83365==
41929,2024,06,12,12,00,AAXX 12124 41929 02/58 41803 10330 20280 39992 40001 84030 333 10360 58007 70000 84365==
41929,2024,06,12,15,00,AAXX 12154 41929 02/57 31802 10310 20270 30009 40018 83030 333 58001 70000 83365==
41929,2024,06,12,18,00,AAXX 12184 41929 02457 50000 10300 20280 30017 40026 83530 333 58005 70000 83618 83365==
41929,2024,06,12,21,00,AAXX 12214 41929 02457 50000 10297 20280 30010 40019 82530 333 58000 70000 82618 83365==
41929,2024,06,13,00,00,AAXX 13004 41929 02/57 51802 10293 20270 30001 40010 85030 333 59006 70000 85365==
41929,2024,06,13,03,00,AAXX 13034 41929 02457 61804 10320 20280 30012 40021 83530 333 20288 59015 70000 83618 83365==
41929,2024,06,13,06,00,AAXX 13064 41929 02458 62304 10340 20280 30005 40014 82530 333 59010 70000 82618 84365==
41929,2024,06,13,09,00,AAXX 13094 41929 02458 61803 10352 20280 39986 49995 83530 333 59009 70000 83618 83365==
41929,2024,06,13,12,00,AAXX 13124 41929 02457 81803 10330 20280 39980 49989 8451/ 333 10355 59012 70000 84618 88459==
41929,2024,06,13,15,00,AAXX 13154 41929 02457 81803 10292 20260 39998 40007 8451/ 333 59011 70000 84618 88459==
41929,2024,06,13,18,00,AAXX 13184 41929 02456 81804 10272 20240 30010 40019 8451/ 333 59007 70000 84618 88459==
41929,2024,06,13,21,00,AAXX 13214 41929 02456 81804 10275 20260 39999 40008 8451/ 333 59011 70000 84618 88459==
41933,2024,06,07,00,00,AAXX 07004 41933 01420 80000 10285 20270 30024 40032 71021 8452/ 333 59025 70138 84616 88458==
41933,2024,06,07,03,00,AAXX 07034 41933 01335 80304 10255 20250 30046 40056 79596 8632/ 333 20252 59027 70206 83709 83615 88456 81928==
41933,2024,06,07,06,00,AAXX 07064 41933 21456 81502 10302 20240 30028 40037 70296 8457/ 333 59028 60078 70070 84617 86457==
41933,2024,06,07,09,00,AAXX 07094 41933 02456 81802 10325 20270 30007 40015 8452/ 333 59018 70070 84618 88458==
41933,2024,06,07,12,00,AAXX 07124 41933 02456 80000 10305 20260 30006 40014 8452/ 333 10330 59010 70070 84616 88458==
41933,2024,06,07,15,00,AAXX 07154 41933 01450 81803 10255 20250 30025 40034 70296 8452/ 333 59011 70070 84616 88458==
41933,2024,06,07,18,00,AAXX 07184 41933 21350 81803 10252 20240 30020 40029 70296 8632/ 333 59010 60265 70330 83709 83615 88456 81928==
41933,2024,06,07,21,00,AAXX 07214 41933 01340 81802 10240 20230 30025 40034 79596 8632/ 333 58005 70480 83709 83615 88456 81928==
41933,2024,06,08,00,00,AAXX 08004 41933 21350 81802 10236 20230 30027 40036 70296 8632/ 333 58003 60247 70570 83709 83615 88456 81928==
41933,2024,06,08,03,00,AAXX 08034 41933 02456 71802 10260 20230 30031 40040 84520 333 20235 59015 70502 84616 87458==
41933,2024,06,08,06,00,AAXX 08064 41933 02456 51802 10313 20260 30025 40034 82540 333 59003 70500 82618 85362==
41933,2024,06,08,09,00,AAXX 08094 41933 02456 51802 10320 20270 30003 40012 82520 333 59004 70500 82618 85458==
41933,2024,06,08,12,00,AAXX 08124 41933 01456 60000 10315 20290 39991 49999 70362 83520 333 10326 59015 70000 83618 86458==
41933,2024,06,08,15,00,AAXX 08154 41933 01456 81603 10300 20280 30011 40020 70392 8452/ 333 59014 70500 84618 88458==
41933,2024,06,08,18,00,AAXX 08184 41933 01356 71703 10285 20280 30017 40026 70192 85620 333 59003 70240 84710 83618 85458==
41933,2024,06,08,21,00,AAXX 08214 41933 02456 10000 10275 20270 30005 40013 81500 333 59020 70090 81618==
41933,2024,06,09,00,00,AAXX 09004 41933 01450 71702 10280 20270 30016 40025 70510 85870 333 59011 70000 83618 83827 85458==
41933,2024,06,09,03,00,AAXX 09034 41933 02456 71703 10306 20280 30027 40036 85870 333 20270 59004 70000 83618 83527 85458==
41933,2024,06,09,06,00,AAXX 09064 41933 02456 71803 10325 20270 30023 40031 85870 333 59002 70000 83618 83827 85458==
41933,2024,06,09,09,00,AAXX 09094 41933 41456 81802 10290 20250 39996 40004 72162 8452/ 333 59007 84618 88458==
41933,2024,06,09,12,00,AAXX 09124 41933 21450 80000 10280 20250 39999 40007 70262 8452/ 333 10337 58008 60005 84616 88458==
41933,2024,06,09,15,00,AAXX 09154 41933 42450 80000 10270 20250 30013 40022 8452/ 333 58002 84616 88458==
41933,2024,06,09,18,00,AAXX 09184 41933 42450 80000 10275 20260 30021 40030 8452/ 333 58004 84616 88458==
41933,2024,06,09,21,00,AAXX 09214 41933 42450 60000 10270 20260 30019 40028 82520 333 58014 82618 86458==
41933,2024,06,10,00,00,AAXX 10004 41933 41440 50000 10270 20260 30018 40027 70522 82520 333 58002 82618 85458==
41933,2024,06,10,03,00,AAXX 10034 41933 01330 83604 10265 20260 30044 40053 79522 8632/ 333 20260 70012 82708 83615 88456 81928==
41933,2024,06,10,06,00,AAXX 10064 41933 21450 81502 10254 20240 30024 40033 71796 8537/ 333 58001 60035 70028 83616 86457 81928==
41933,2024,06,10,09,00,AAXX 10094 41933 01456 61802 10290 20250 30009 40017 70192 83520 333 58013 70028 83618 86458==
41933,2024,06,10,12,00,AAXX 10124 41933 01456 61802 10282 20240 30003 40011 70292 83520 333 10294 58004 70028 83618 86458==
41933,2024,06,10,15,00,AAXX 10154 41933 02950 00000 10267 20250 30016 40025 333 58003 70028==
41933,2024,06,10,18,00,AAXX 10184 41933 02950 00000 10264 20240 30025 40034 333 58004 70028==
41933,2024,06,10,21,00,AAXX 10214 41933 02450 50000 10265 20260 30021 40029 82530 333 58002 70028 82616 85362==
41933,2024,06,11,00,00,AAXX 11004 41933 02450 50000 10266 20250 30024 40033 82530 333 58008 70028 82618 85362==
41933,2024,06,11,03,00,AAXX 11034 41933 02450 50000 10320 20280 30023 40032 82530 333 20251 59021 70016 82618 85362==
41933,2024,06,11,06,00,AAXX 11064 41933 02450 61802 10335 20280 30012 40021 83520 333 59012 70000 83618 86458==
41933,2024,06,11,09,00,AAXX 11094 41933 02456 61803 10346 20270 39995 40003 86800 333 59014 70000 83618 83827==
41933,2024,06,11,12,00,AAXX 11124 41933 02456 51802 10330 20290 39989 49998 82540 333 10360 59014 70000 82618 85362==
41933,2024,06,11,15,00,AAXX 11154 41933 02450 40000 10302 20270 30014 40022 82540 333 59002 70000 82618 84362==
41933,2024,06,11,21,00,AAXX 11214 41933 02450 40000 10290 20280 30017 40025 83530 333 59004 70000 83618 85362==
41933,2024,06,12,00,00,AAXX 12004 41933 02450 61802 10285 20280 30016 40024 84530 333 59008 70000 84618 86362==
41933,2024,06,12,03,00,AAXX 12034 41933 02456 71502 10303 20280 30033 40041 84510 333 20284 58010 70000 84618 87459==
41933,2024,06,12,06,00,AAXX 12064 41933 02556 50000 10336 20280 30025 40033 84430 333 58013 70000 82618 83826==
41933,2024,06,12,09,00,AAXX 12094 41933 42456 71805 10295 20270 30003 40011 83520 333 58008 83618 87458==
41933,2024,06,12,12,00,AAXX 12124 41933 11456 80000 10295 20270 30006 40015 60006 70362 8452/ 333 10340 58017 84618 88458==
41933,2024,06,12,15,00,AAXX 12154 41933 42456 51702 10282 20260 30024 40033 82510 333 58010 82618 84458==
41933,2024,06,12,18,00,AAXX 12184 41933 42456 71702 10280 20270 30023 40032 8352/ 333 58007 83617 87458==
41933,2024,06,12,21,00,AAXX 12214 41933 42356 81702 10278 20270 30020 40029 8562/ 333 58003 83710 83616 88457==
41933,2024,06,13,00,00,AAXX 13004 41933 01350 81903 10275 20270 30018 40027 76122 8572/ 333 58002 70006 83708 83615 88456==
41933,2024,06,13,03,00,AAXX 13034 41933 41360 81203 10296 20270 30028 40037 70261 8662/ 333 20274 59005 84710 83616 88457==
41933,2024,06,13,06,00,AAXX 13064 41933 11456 71705 10322 20270 30018 40027 60006 70162 8582/ 333 59007 70006 83617 83827 87457==
41933,2024,06,13,09,00,AAXX 13094 41933 02456 71803 10314 20260 30000 40008 84510 333 59003 70006 84616 87459==
41933,2024,06,13,12,00,AAXX 13124 41933 01330 82402 10260 20240 30008 40018 79522 8692/ 333 10328 58002 70100 83709 84615 88456 81926==
41933,2024,06,13,15,00,AAXX 13154 41933 01340 80000 10250 20230 30015 40024 79596 8692/ 333 59009 70490 83708 84615 88456 81925==
41933,2024,06,13,18,00,AAXX 13184 41933 21340 80000 10250 20230 30011 40020 76196 8572/ 333 59012 60419 70520 83708 83615 88456==
41933,2024,06,13,21,00,AAXX 13214 41933 01440 80000 10250 20230 30003 40012 70262 8452/ 333 59017 70520 84616 88458==
41936,2024,06,07,00,00,AAXX 07004 41936 01/02 20000 10282 20260 30024 40031 70511 82030 333 59011 70000 82362==
41936,2024,06,07,03,00,AAXX 07034 41936 01/25 22703 10324 20260 30028 40035 70511 82030 333 20280 59021 70000 82362==
41936,2024,06,07,06,00,AAXX 07064 41936 01/40 22606 10358 20250 30021 40028 70511 82030 333 59020 70000 82362==
41936,2024,06,07,09,00,AAXX 07094 41936 01950 02508 10380 20260 39992 49999 70510 333 59025 70000==
41936,2024,06,07,12,00,AAXX 07124 41936 01/40 32404 10344 20270 39983 49990 70510 83030 333 10382 59024 70000 83362==
41936,2024,06,07,15,00,AAXX 07154 41936 01440 30000 10304 20250 30005 40012 70511 82530 333 59016 70000 82615 83362==
41936,2024,06,07,18,00,AAXX 07184 41936 01440 41903 10310 20270 30005 40012 70522 83530 333 59018 70000 83615 83362==
41936,2024,06,07,21,00,AAXX 07214 41936 01420 41803 10300 20280 30001 40008 70522 82530 333 59012 70000 82615 83362==
41936,2024,06,08,00,00,AAXX 08004 41936 01/16 20000 10286 20280 30009 40016 70511 82030 333 59015 70000 82362==
41936,2024,06,08,03,00,AAXX 08034 41936 01/30 22006 10326 20270 30020 40027 70511 82030 333 20284 59008 70000 82362==
41936,2024,06,08,06,00,AAXX 08064 41936 01935 31906 10348 20270 30012 40019 70511 333 59009 70000 83030 83362==
41936,2024,06,08,09,00,AAXX 08094 41936 01440 41907 10374 20270 39988 49995 70511 81530 333 59004 70000 81615 83362==
41936,2024,06,08,12,00,AAXX 08124 41936 01450 41705 10362 20260 39976 49983 70511 81530 333 10376 59007 70000 81615 83362==
41936,2024,06,08,15,00,AAXX 08154 41936 01450 41606 10322 20270 39991 49998 70511 81530 333 59014 70000 81615 83362==
41936,2024,06,08,18,00,AAXX 08184 41936 01450 41804 10310 20270 39999 40006 70511 82530 333 59003 70000 82615 83362==
41936,2024,06,08,21,00,AAXX 08214 41936 01450 42104 10300 20280 39993 40000 70511 81530 333 59008 70000 81615 83362==
41936,2024,06,09,00,00,AAXX 09004 41936 01/16 21903 10288 20280 39994 40001 70511 82030 333 59005 70000 82362==
41936,2024,06,09,03,00,AAXX 09034 41936 01425 41906 10332 20280 30003 40010 70511 82530 333 20286 59017 70000 82615 83362==
41936,2024,06,09,06,00,AAXX 09064 41936 01450 41706 10368 20290 39999 40006 70511 82530 333 59013 70000 81615 83362==
41936,2024,06,09,09,00,AAXX 09094 41936 01450 41706 10374 20280 39978 49985 70511 82530 333 59010 70000 82615 83362==
41936,2024,06,09,12,00,AAXX 09124 41936 01450 51905 10360 20290 39978 49985 70511 83830 333 10378 58002 70000 83615 83362==
41936,2024,06,09,15,00,AAXX 09154 41936 01440 51907 10330 20290 39995 40002 70522 82830 333 58004 70000 82615 84362==
41936,2024,06,09,18,00,AAXX 09184 41936 01440 51905 10318 20280 30003 40010 70522 82830 333 58004 70000 82615 84362==
41936,2024,06,09,21,00,AAXX 09214 41936 01425 51805 10308 20280 39992 49999 70522 82830 333 59001 70000 82615 84362==
41936,2024,06,10,00,00,AAXX 10004 41936 01420 32304 10294 20280 30001 40008 70522 81530 333 58007 70000 81615 83362==
41936,2024,06,10,03,00,AAXX 10034 41936 01/25 11906 10336 20290 30010 40017 70511 81030 333 20292 58007 70000 81362==
41936,2024,06,10,06,00,AAXX 10064 41936 01/50 21706 10372 20280 39997 40004 70511 82030 333 58013 70000 82362==
41936,2024,06,10,09,00,AAXX 10094 41936 01450 32106 10380 20270 39981 49988 70511 82530 333 58003 70000 82615 83362==
41936,2024,06,10,12,00,AAXX 10124 41936 01450 41907 10364 20280 39973 49980 70511 82530 333 10382 59005 70000 82615 84362==
41936,2024,06,10,15,00,AAXX 10154 41936 01430 71809 10332 20280 30006 40013 70522 333 58011 70000 83710 83615 86362==
41936,2024,06,10,18,00,AAXX 10184 41936 01330 71903 10272 20250 30002 40009 70596 84630 333 59001 70010 82708 83615 86362==
41936,2024,06,10,21,00,AAXX 10214 41936 01420 61703 10286 20270 39997 40004 70522 83830 333 58005 70010 83615 85362==
41936,2024,06,11,00,00,AAXX 11004 41936 01920 51603 10284 20160 30006 40013 70522 333 58005 70010 83830 83615 84362==
41936,2024,06,11,03,00,AAXX 11034 41936 01950 51906 10326 20290 30009 40016 70522 83830 333 20254 59001 70010 83615 84362==
41936,2024,06,11,06,00,AAXX 11064 41936 01950 52004 10362 20270 39997 40004 70522 83830 333 58000 70010 83615 84362==
41936,2024,06,11,09,00,AAXX 11094 41936 01950 41603 10372 20280 39989 49996 70522 83830 333 58008 70010 83615 83362==
41936,2024,06,11,12,00,AAXX 11124 41936 01950 41803 10350 20270 39979 49986 70522 83830 333 10380 58006 70010 83615 83362==
41936,2024,06,11,15,00,AAXX 11154 41936 01950 52207 10322 20270 39998 40005 70522 83830 333 59008 70010 83615 84362==
41936,2024,06,11,18,00,AAXX 11184 41936 01950 41803 10308 20270 30003 40010 70522 83830 333 58001 70000 83615 83362==
41936,2024,06,11,21,00,AAXX 11214 41936 01950 42203 10294 20270 39996 40003 70522 83830 333 59001 70000 83615 83362==
41936,2024,06,12,00,00,AAXX 12004 41936 01420 30000 10286 20280 30001 40008 70522 81530 333 59005 70000 81615 83362==
41936,2024,06,12,03,00,AAXX 12034 41936 01420 41806 10314 20270 30014 40021 70521 82530 333 20284 58005 70000 82615 83362==
41936,2024,06,12,06,00,AAXX 12064 41936 01440 42106 10352 20302 30011 40018 70511 82510 333 58006 70000 82615 83362==
41936,2024,06,12,09,00,AAXX 12094 41936 01450 52406 10364 20280 39987 49994 70521 83830 333 59002 70000 83615 83362==
41936,2024,06,12,12,00,AAXX 12124 41936 01450 42105 10340 20270 39984 49991 70522 81530 333 10372 58005 70000 81615 83362==
41936,2024,06,12,15,00,AAXX 12154 41936 01450 41906 10314 20270 39999 40006 70522 81530 333 58001 70000 81615 83362==
41936,2024,06,12,18,00,AAXX 12184 41936 01430 42005 10302 20270 39997 40004 70522 83830 333 70000 83615 83362==
41936,2024,06,12,21,00,AAXX 12214 41936 01430 41806 10294 20280 39989 49996 70522 83830 333 70000 83615 83362==
41936,2024,06,13,00,00,AAXX 13004 41936 01418 40000 10296 20284 30001 40008 70522 83830 333 58000 70000 83830 83615==
41936,2024,06,13,03,00,AAXX 13034 41936 01420 42105 10332 20280 30008 40015 70522 83830 333 20292 59006 70000 83615 83362==
41936,2024,06,13,06,00,AAXX 13064 41936 01440 51910 10360 20270 39997 40001 70522 83830 333 59001 70000 83615 84362==
41936,2024,06,13,09,00,AAXX 13094 41936 01440 51909 10368 20270 39983 49990 70522 83830 333 58004 70000 83615 84362==
41936,2024,06,13,12,00,AAXX 13124 41936 01440 51907 10346 20280 39973 49980 70522 83830 333 10370 59011 70000 83615 84362==
41936,2024,06,13,15,00,AAXX 13154 41936 01430 61910 10320 20270 39995 40002 70522 83830 333 59004 70000 83615 85362==
41936,2024,06,13,18,00,AAXX 13184 41936 01320 80000 10254 20230 39980 49987 71796 8592/ 333 59017 70070 83707 83615 88260 81930==
41936,2024,06,13,21,00,AAXX 13214 41936 01420 71803 10260 20250 39973 49980 70592 84630 333 59016 70070 82710 83615 86362==
41938,2024,06,07,00,00,AAXX 07004 41938 31950 30000 10274 20250 30022 40026 70521 80001 333 56009 59017 79999 83080=
41938,2024,06,07,06,00,AAXX 07064 41938 32956 12703 10345 20250 30025 40029 80002 333 56009 59020 79999 81080=
41938,2024,06,07,12,00,AAXX 07124 41938 32956 40000 10342 20280 39999 40003 82012 333 10365 56099 59017 70000 82460 83080=
41938,2024,06,07,18,00,AAXX 07184 41938 32956 72103 10306 20280 30012 40016 87020 333 56090 59017 70000 87460=
41938,2024,06,08,00,00,AAXX 08004 41938 31450 72302 10293 20280 30016 40020 70522 82572 333 56599 59006 70000 82617 85460 85080=
41938,2024,06,08,06,00,AAXX 08064 41938 32456 42005 10345 20270 30017 40021 84400 333 56500 59008 70000 83618=
41938,2024,06,08,12,00,AAXX 08124 41938 32456 51804 10334 20260 39993 49997 82510 333 10355 56590 59006 70000 82618 84460=
41938,2024,06,08,18,00,AAXX 08184 41938 32450 41802 10305 20270 30007 40011 82510 333 56490 59005 70000 82617 83460=
41938,2024,06,09,00,00,AAXX 09004 41938 32456 52002 10296 20280 30002 40006 82510 333 56590 59014 70000 82617 84460=
41938,2024,06,09,06,00,AAXX 09064 41938 32456 52003 10348 20270 30007 40011 82510 333 56590 59010 70000 82617 84460=
41938,2024,06,09,12,00,AAXX 09124 41938 31456 81802 10326 20290 39991 49995 71722 8391/ 333 10367 56499 59002 70000 82617 81928 88460=
41938,2024,06,09,18,00,AAXX 09184 41938 31450 42003 10301 20270 30009 40013 70592 82511 333 56599 58002 70000 82617 83460=
41938,2024,06,10,00,00,AAXX 10004 41938 31450 72001 10297 20280 30011 40015 70522 82511 333 56599 58009 70000 82617 86460=
41938,2024,06,10,06,00,AAXX 10064 41938 32456 72002 10352 20270 30008 40012 82410 333 56590 58001 70000 81618 87460=
41938,2024,06,10,12,00,AAXX 10124 41938 32456 40000 10334 20260 39997 40001 83410 333 10365 56490 58006 70000 82618=
41938,2024,06,10,18,00,AAXX 10184 41938 32450 30000 10305 20270 30018 40022 83500 333 56900 58007 70000 83618=
41938,2024,06,11,00,00,AAXX 11004 41938 32450 30000 10297 20280 30014 40189 83500 333 56900 58003 70000 83618=
41938,2024,06,11,06,00,AAXX 11064 41938 32456 41802 10352 20260 30010 40014 84400 333 56400 58002 70000 83618=
41938,2024,06,11,12,00,AAXX 11124 41938 32456 40000 10334 20260 30003 40007 84400 333 10365 56400 58007 70000 83618=
41938,2024,06,11,18,00,AAXX 11184 41938 32450 30000 10304 20260 30013 40017 83500 333 56900 59006 70000 83618=
41938,2024,06,12,00,00,AAXX 12004 41938 32450 30000 10295 20280 30015 40019 83500 333 56900 58000 70000 83618=
41938,2024,06,12,06,00,AAXX 12064 41938 32456 30000 10350 20270 30019 40023 83400 333 56400 58008 70000 82618=
41938,2024,06,12,12,00,AAXX 12124 41938 32456 51804 10322 20270 30000 40004 81511 333 10356 56499 59005 70000 81618 83460=
41938,2024,06,12,18,00,AAXX 12184 41938 32456 31802 10302 20270 30014 40018 82510 333 56490 58001 70000 82618=
41938,2024,06,13,00,00,AAXX 13004 41938 32456 41802 10297 20270 30008 40012 82510 333 56490 59007 70000 82617 83460=
41938,2024,06,13,06,00,AAXX 13064 41938 32456 61805 10346 20270 30007 40011 82510 333 56490 59012 70000 82617 85460=
41938,2024,06,13,12,00,AAXX 13124 41938 32456 41804 10328 20270 39986 49990 81510 333 10350 56490 59014 70000 81618 84460=
41938,2024,06,13,18,00,AAXX 13184 41938 32456 31801 10302 20270 30005 40009 81510 333 56990 59009 70000 81618 83460=
41939,2024,06,07,00,00,AAXX 07004 41939 02956 00000 10283 20270 30030 40038 333 59021 70030==
41939,2024,06,07,03,00,AAXX 07034 41939 02458 40000 10315 20290 30045 40053 82530 333 20278 59022 70030 82618 83365==
41939,2024,06,07,06,00,AAXX 07064 41939 02958 00000 10348 20270 30035 40042 333 59005 70000==
41939,2024,06,07,09,00,AAXX 07094 41939 02458 30000 10355 20280 30012 40019 82530 333 59010 70000 82618==
41939,2024,06,07,12,00,AAXX 07124 41939 02458 50000 10326 20290 30002 40010 83530 333 59020 70000 83617 83364==
41939,2024,06,07,15,00,AAXX 07154 41939 02456 50000 10300 20290 30018 40026 83530 333 59019 70000 83617 83364==
41939,2024,06,07,18,00,AAXX 07184 41939 02456 50000 10295 20290 30030 40038 83530 333 59018 70000 83617 83364==
41939,2024,06,08,00,00,AAXX 08004 41939 02456 40000 10285 20280 30025 40033 82530 333 59005 70000 82618 83365==
41939,2024,06,08,03,00,AAXX 08034 41939 02458 40000 10330 20270 30033 40041 82530 333 20280 59012 70000 82618 83365==
41939,2024,06,08,06,00,AAXX 08064 41939 02959 00000 10345 20280 30024 40032 333 59011 70000==
41939,2024,06,08,09,00,AAXX 08094 41939 02960 00000 10335 20290 30000 40008 333 59012 70000==
41939,2024,06,08,12,00,AAXX 08124 41939 02456 40000 10330 20290 30006 40014 82530 333 10363 59006 70000 82618 83365==
41939,2024,06,08,15,00,AAXX 08154 41939 02940 00000 10314 20270 30012 40020 333 59004 70000==
41939,2024,06,08,18,00,AAXX 08184 41939 02440 30000 10297 20270 30021 40029 81530 333 59009 70000 81618 83365==
41939,2024,06,08,21,00,AAXX 08214 41939 02956 00000 10302 20290 30019 40027 333 59014 70000==
41939,2024,06,09,00,00,AAXX 09004 41939 02957 00000 10290 20280 30020 40028 333 59012 70000==
41939,2024,06,09,03,00,AAXX 09034 41939 02459 50000 10320 20290 30025 40033 83530 333 20288 59008 70000 83618 83364==
41939,2024,06,09,06,00,AAXX 09064 41939 02460 40000 10350 20280 30011 40019 83430 333 59013 70000 82618==
41939,2024,06,09,09,00,AAXX 09094 41939 02457 60000 10328 20290 39992 40000 83510 333 59008 70000 83617 86459==
41939,2024,06,09,12,00,AAXX 09124 41939 02456 80000 10322 20280 39998 40006 8352/ 333 10360 59008 70000 83617 88459==
41939,2024,06,09,18,00,AAXX 09184 41939 02456 60000 10300 20270 30025 40033 82510 333 58004 70000 82617 86459==
41939,2024,06,09,21,00,AAXX 09214 41939 02440 60000 10298 20280 30024 40032 83510 333 58005 70000 83618 85459==
41939,2024,06,10,00,00,AAXX 10004 41939 02456 80000 10295 20290 30023 40031 8352/ 333 58003 70000 83618 88459==
41939,2024,06,10,03,00,AAXX 10034 41939 02458 60000 10323 20290 30032 40040 83530 333 20288 58007 70000 83618 83365==
41939,2024,06,10,06,00,AAXX 10064 41939 02458 60000 10340 20280 30014 40022 83530 333 58003 70000 83617 83362==
41939,2024,06,10,09,00,AAXX 10094 41939 02457 60000 10330 20270 30000 40008 83510 333 58002 70000 83616 86460==
41939,2024,06,10,12,00,AAXX 10124 41939 02458 50000 10315 20280 39996 40004 83530 333 10358 59002 70000 83617 83365==
41939,2024,06,10,15,00,AAXX 10154 41939 02456 50000 10300 20270 30017 40025 83530 333 58004 70000 83618 83364==
41939,2024,06,10,18,00,AAXX 10184 41939 NIL=
41939,2024,06,10,21,00,AAXX 10214 41939 02440 50000 10295 20280 30027 40035 83510 333 58003 70000 83618 85459==
41939,2024,06,11,00,00,AAXX 11004 41939 02456 30000 10290 20280 30026 40034 83500 333 58003 70000 83618==
41939,2024,06,11,03,00,AAXX 11034 41939 02458 50000 10313 20280 30035 40043 83510 333 20284 58003 70000 83618 85459==
41939,2024,06,11,06,00,AAXX 11064 41939 02458 50000 10348 20270 30016 40024 83530 333 58002 70000 83618 83362==
41939,2024,06,11,09,00,AAXX 11094 41939 02460 30000 10360 20280 39997 40005 82530 333 59003 70000 82618==
41939,2024,06,11,12,00,AAXX 11124 41939 02457 20000 10336 20280 39992 40000 81530 333 10365 59004 70000 81618==
41939,2024,06,11,15,00,AAXX 11154 41939 02956 00000 10310 20270 30016 40024 333 59001 70000==
41939,2024,06,11,21,00,AAXX 11214 41939 02956 00000 10288 20280 30022 40030 333 59005 70000==
41939,2024,06,12,00,00,AAXX 12004 41939 02957 00000 10290 20280 30024 40032 333 59002 70000==
41939,2024,06,12,03,00,AAXX 12034 41939 02960 00000 10315 20290 30035 40043 333 20285 58000 70000==
41939,2024,06,12,06,00,AAXX 12064 41939 02458 50000 10348 20302 30012 40020 83530 333 59004 70000 83618 83362==
41939,2024,06,12,09,00,AAXX 12094 41939 02459 50000 10340 20280 30004 40012 83530 333 59007 70000 82618 83360==
41939,2024,06,12,12,00,AAXX 12124 41939 02456 60000 10316 20280 30005 40013 82510 333 10350 58013 70000 82618 86459==
41939,2024,06,12,15,00,AAXX 12154 41939 02456 40000 10305 20280 30120 40128 82530 333 58004 70000 82618 83365==
41939,2024,06,12,18,00,AAXX 12184 41939 42456 40000 10298 20280 30134 40142 82530 333 58006 82618 83365==
41939,2024,06,12,21,00,AAXX 12214 41939 02956 00000 10293 20280 30017 40025 333 59002 70000==
41939,2024,06,13,00,00,AAXX 13004 41939 02956 00000 10292 20270 30027 40035 333 59003 70000==
41939,2024,06,13,03,00,AAXX 13034 41939 02460 50000 10315 20280 30034 40042 83530 333 20287 59001 70000 83618 83365==
41939,2024,06,13,06,00,AAXX 13064 41939 02460 60000 10332 20270 30006 40014 83510 333 59006 70000 83618 86460==
41939,2024,06,13,09,00,AAXX 13094 41939 02460 60000 10340 20280 39975 49983 82510 333 59029 70000 82618 86459==
41939,2024,06,13,12,00,AAXX 13124 41939 02456 60000 10326 20290 39990 49998 83510 333 10345 59020 70000 83618 85459==
41939,2024,06,13,15,00,AAXX 13154 41939 02440 70000 10290 20260 30028 40036 83510 333 58008 70000 83618 86459==
41939,2024,06,13,18,00,AAXX 13184 41939 02440 80000 10272 20250 30040 40048 8352/ 333 58015 70000 83618 88459==
41941,2024,06,07,00,00,AAXX 07004 41941 02450 80000 10294 20280 30043 40049 8632/ 333 59006 70000 85616 88458 81928==
41941,2024,06,07,03,00,AAXX 07034 41941 02456 61802 10326 20290 30045 40051 85420 333 20293 59019 70000 84616 86458==
41941,2024,06,07,06,00,AAXX 07064 41941 02456 41302 10347 20270 30027 40033 82510 333 59031 70000 82616 84458==
41941,2024,06,07,09,00,AAXX 07094 41941 02456 41302 10355 20280 30005 40011 81510 333 59024 70000 81616 84458==
41941,2024,06,07,12,00,AAXX 07124 41941 01456 71303 10335 20280 30001 40007 71722 85320 333 10362 59014 70000 84616 87458 81930==
41941,2024,06,07,15,00,AAXX 07154 41941 01450 83605 10283 20240 30031 40037 71322 8632/ 333 58003 70000 84614 88458 81930==
41941,2024,06,07,18,00,AAXX 07184 41941 01456 60503 10285 20260 30022 40027 71322 85320 333 59021 70000 84614 86458 81930==
41941,2024,06,07,21,00,AAXX 07214 41941 02456 71803 10280 20260 30021 40026 84520 333 59017 70000 84616 87458==
41941,2024,06,08,00,00,AAXX 08004 41941 02456 71803 10274 20250 30024 40029 85420 333 59019 70000 83616 83828 87458==
41941,2024,06,08,03,00,AAXX 08034 41941 02456 41303 10308 20270 30033 40038 82510 333 20270 59031 70000 82616 84458==
41941,2024,06,08,06,00,AAXX 08064 41941 02456 61803 10345 20270 30026 40032 85420 333 59001 70000 84616 86458==
41941,2024,06,08,09,00,AAXX 08094 41941 02456 61804 10360 20260 39998 40004 85420 333 59007 70000 84616 86458==
41941,2024,06,08,12,00,AAXX 08124 41941 02456 61803 10330 20270 39994 40000 85420 333 10367 59007 70000 84616 86458==
41941,2024,06,08,15,00,AAXX 08154 41941 02450 61802 10310 20270 30007 40013 85420 333 59024 70000 84616 86458==
41941,2024,06,08,18,00,AAXX 08184 41941 02440 60000 10304 20270 30013 40019 85420 333 59009 70000 84616 86458==
41941,2024,06,08,21,00,AAXX 08214 41941 02440 70000 10300 20270 30009 40014 85420 333 59012 70000 84616 87458==
41941,2024,06,09,00,00,AAXX 09004 41941 02450 71803 10290 20280 30013 40018 85420 333 59011 70000 84616 87458==
41941,2024,06,09,03,00,AAXX 09034 41941 02456 71803 10325 20280 30019 40025 85420 333 20288 59014 70000 84616 87458==
41941,2024,06,09,06,00,AAXX 09064 41941 02456 71802 10335 20280 30017 40023 85420 333 59009 70000 84616 87458==
41941,2024,06,09,09,00,AAXX 09094 41941 02456 80000 10324 20280 39996 40001 8352/ 333 59002 70000 83616 88458==
41941,2024,06,09,12,00,AAXX 09124 41941 02456 80000 10312 20280 30996 40001 8452/ 333 10346 58002 70000 84616 86458==
41941,2024,06,09,15,00,AAXX 09154 41941 02456 70000 10300 20280 30012 40018 84520 333 58005 70000 84616 87458==
41941,2024,06,09,18,00,AAXX 09184 41941 01450 20000 10300 20280 30016 40021 70520 82500 333 58003 70000 82616==
41941,2024,06,09,21,00,AAXX 09214 41941 01950 01801 10294 20280 30018 40023 70500 333 58009 70000==
41941,2024,06,10,00,00,AAXX 10004 41941 01950 01801 10292 20280 30021 40026 70500 333 58008 70000==
41941,2024,06,10,03,00,AAXX 10034 41941 01456 70901 10312 20280 30027 40032 71720 85320 333 20288 58008 70000 84616 87458 81930==
41941,2024,06,10,06,00,AAXX 10064 41941 02450 70802 10300 20250 30024 40029 85320 333 58007 70000 84616 87458 81930==
41941,2024,06,10,09,00,AAXX 10094 41941 02450 61802 10313 20250 30005 40010 85420 333 58009 70000 84616 86458==
41941,2024,06,10,12,00,AAXX 10124 41941 02450 61802 10300 20260 30001 40007 85420 333 10335 58005 70000 84616 86458==
41941,2024,06,10,15,00,AAXX 10154 41941 02440 61802 10290 20260 30019 40025 85420 333 58007 70000 84616 86458==
41941,2024,06,10,18,00,AAXX 10184 41941 02440 60000 10290 20280 30030 40035 85420 333 58014 70000 84616 86458==
41941,2024,06,10,21,00,AAXX 10214 41941 02440 61802 10290 20280 30030 40035 85420 333 58012 70000 84616 86458==
41941,2024,06,11,00,00,AAXX 11004 41941 02450 40000 10290 20280 30031 40036 84400 333 58010 70000 82616==
41941,2024,06,11,03,00,AAXX 11034 41941 02450 61803 10326 20280 30027 40032 85420 333 20287 58000 70000 84616 86458==
41941,2024,06,11,06,00,AAXX 11064 41941 02456 61804 10346 20270 30015 40021 85420 333 59009 70000 84616 86458==
41941,2024,06,11,09,00,AAXX 11094 41941 02456 61803 10356 20280 39996 40001 85420 333 59009 70000 84616 86458==
41941,2024,06,11,12,00,AAXX 11124 41941 02956 01804 10336 20280 39988 49993 333 10360 59013 70000==
41941,2024,06,11,15,00,AAXX 11154 41941 02450 61803 10310 20280 30009 40015 85420 333 59010 70000 84616 86458==
41941,2024,06,11,18,00,AAXX 11184 41941 02440 61802 10303 20280 30023 40029 85420 333 59007 70000 84616 86458==
41941,2024,06,11,21,00,AAXX 11214 41941 02440 60000 10300 20280 30017 40022 85420 333 59013 70000 84616 86458==
41941,2024,06,12,00,00,AAXX 12004 41941 02450 61802 10290 20280 30019 40024 85420 333 59012 70000 84616 86458==
41941,2024,06,12,03,00,AAXX 12034 41941 02456 71803 10320 20280 30033 40039 85420 333 20289 58006 70000 84616 87458==
41941,2024,06,12,06,00,AAXX 12064 41941 02456 61803 10350 20260 30020 40026 85520 333 58005 70000 85616 86458==
41941,2024,06,12,09,00,AAXX 12094 41941 02456 71802 10334 20280 30002 40008 85520 333 58006 70000 85616 87458==
41941,2024,06,12,12,00,AAXX 12124 41941 02456 71802 10315 20280 30004 40010 85320 333 10355 58016 70000 84616 87458 81930==
41941,2024,06,12,15,00,AAXX 12154 41941 02456 41802 10300 20280 30018 40024 83150 333 58009 70000 83616==
41941,2024,06,12,18,00,AAXX 12184 41941 02456 21802 10295 20290 30015 40020 82500 333 59008 70000 82616==
41941,2024,06,12,21,00,AAXX 12214 41941 02456 61301 10293 20280 30014 40019 84520 333 59003 70000 84616 86458==
41941,2024,06,13,00,00,AAXX 13004 41941 02456 71301 10292 20280 30016 40021 85520 333 59003 70000 85616 87458==
41941,2024,06,13,03,00,AAXX 13034 41941 02456 71802 10312 20270 30026 40031 84520 333 20290 59007 70000 84616 87458==
41941,2024,06,13,06,00,AAXX 13064 41941 02450 71803 10335 20280 30017 40023 84520 333 59003 70000 84616 87458==
41941,2024,06,13,09,00,AAXX 13094 41941 02450 81803 10325 20280 30002 40008 8632/ 333 58000 70000 85616 88458 81930==
41941,2024,06,13,12,00,AAXX 13124 41941 02450 81803 10306 20290 30002 40008 8632/ 333 10343 59002 70000 85616 88458 81930==
41941,2024,06,13,15,00,AAXX 13154 41941 41440 81803 10255 20250 30022 40028 72165 8632/ 333 58004 85616 88458 81930==
41941,2024,06,13,18,00,AAXX 13184 41941 21440 80000 10257 20257 30014 40020 70262 8632/ 333 59001 60488 70480 85616 88458 81930==
41941,2024,06,13,21,00,AAXX 13214 41941 02440 80000 10260 20250 30010 40016 8632/ 333 59004 70480 85616 88458 81930==
41943,2024,06,07,00,00,AAXX 07004 41943 01430 70000 10280 20270 30030 40037 70522 83522 333 59020 70240 83616 84458==
41943,2024,06,07,01,00,AAXX 07014 41943 01430 61701 10283 20270 30032 40039 70522 83520 333 59015 70240 83616 84458==
41943,2024,06,07,03,00,AAXX 07034 41943 02435 80000 10305 20260 30047 40054 8662/ 333 20258 59017 70240 83710 84615 87458==
41943,2024,06,07,06,00,AAXX 07064 41943 21435 81101 10305 20260 30034 40041 70296 8662/ 333 59017 60057 70048 83710 83616 87458==
41943,2024,06,07,09,00,AAXX 07094 41943 02440 61802 10310 20250 30014 40021 84420 333 59028 70048 83616 85458==
41943,2024,06,07,12,00,AAXX 07124 41943 02440 71801 10300 20260 30012 40019 84510 333 10318 59008 70048 84615 86458==
41943,2024,06,07,15,00,AAXX 07154 41943 01330 81001 10240 20230 30028 40035 71796 8632/ 333 59011 70222 83709 83615 87457 81928==
41943,2024,06,07,18,00,AAXX 07184 41943 01325 83502 10240 20230 30047 40054 79596 8672/ 333 58014 70265 83709 83615 88457 81928==
41943,2024,06,07,21,00,AAXX 07214 41943 01430 81901 10245 20240 30034 40041 70292 8662/ 333 58002 70265 83709 84615 87458==
41943,2024,06,08,00,00,AAXX 08004 41943 01330 80000 10250 20230 30029 40036 70296 8672/ 333 59001 70240 83709 85615 88457==
41943,2024,06,08,03,00,AAXX 08034 41943 02435 81801 10265 20250 30035 40042 8662/ 333 20235 59012 70505 83710 84615 87458==
41943,2024,06,08,06,00,AAXX 08064 41943 02440 81002 10310 20260 30027 40034 8551/ 333 59007 70457 85616 86458==
41943,2024,06,08,09,00,AAXX 08094 41943 02440 51803 10330 20270 30009 40016 84420 333 59005 70457 83616 85458==
41943,2024,06,08,12,00,AAXX 08124 41943 02440 61903 10320 20270 30001 40008 84510 333 10340 59011 70457 84616 85458==
41943,2024,06,08,15,00,AAXX 08154 41943 02435 61802 10290 20260 30013 40021 84520 333 59015 70283 84616 85458==
41943,2024,06,08,18,00,AAXX 08184 41943 02430 61802 10285 20280 30023 40030 84520 333 59024 70240 84616 85458==
41943,2024,06,08,21,00,AAXX 08214 41943 02435 61601 10278 20260 30020 40027 84520 333 59014 70240 84616 85458==
41943,2024,06,09,00,00,AAXX 09004 41943 02440 61201 10273 20260 30016 40023 84510 333 59013 70000 84616 85458==
41943,2024,06,09,03,00,AAXX 09034 41943 02445 51902 10320 20280 30025 40032 84510 333 20252 59010 70000 84616 84458==
41943,2024,06,09,06,00,AAXX 09064 41943 01320 80903 10290 20270 30019 40026 79522 8632/ 333 59008 70080 83709 84615 88457 81928==
41943,2024,06,09,09,00,AAXX 09094 41943 01330 81201 10250 20230 30006 40013 70296 8662/ 333 59003 70418 83709 85615 88457==
41943,2024,06,09,12,00,AAXX 09124 41943 01435 81801 10265 20250 30002 40009 70296 8552/ 333 10335 58001 70330 85615 87458==
41943,2024,06,09,15,00,AAXX 09154 41943 02435 51501 10265 20250 30018 40025 83520 333 58005 70418 83616 83458==
41943,2024,06,09,18,00,AAXX 09184 41943 02430 40000 10270 20260 30023 40030 82510 333 58000 70418 82616 83458==
41943,2024,06,09,21,00,AAXX 09214 41943 01430 31801 10268 20260 30020 40027 70512 82510 333 58000 70418 82616==
41943,2024,06,10,00,00,AAXX 10004 41943 01440 31801 10266 20260 30017 40024 70512 82530 333 58001 70418 82616==
41943,2024,06,10,03,00,AAXX 10034 41943 02440 61201 10315 20280 30031 40038 84510 333 20250 58006 70418 84616 83458==
41943,2024,06,10,06,00,AAXX 10064 41943 01330 81801 10240 20230 30026 40033 72996 8632/ 333 58007 70330 82709 84615 88457 81928==
41943,2024,06,10,09,00,AAXX 10094 41943 02430 81803 10260 20230 30010 40017 8662/ 333 58004 70330 82710 84615 88458==
41943,2024,06,10,12,00,AAXX 10124 41943 02430 61802 10270 20240 30001 40008 83520 333 10326 59001 70330 83616 85458==
41943,2024,06,10,15,00,AAXX 10154 41943 02430 51802 10264 20240 30022 40029 83510 333 58004 70330 83616 84458==
41943,2024,06,10,18,00,AAXX 10184 41943 02430 80000 10260 20240 30030 40037 8662/ 333 58007 70330 83710 84615 88458==
41943,2024,06,10,21,00,AAXX 10214 41943 02430 80000 10260 20250 30030 40037 8662/ 333 58010 70330 83710 84615 88458==
41943,2024,06,11,00,00,AAXX 11004 41943 02435 70000 10260 20250 30029 40036 84520 333 58012 70330 84616 86458==
41943,2024,06,11,03,00,AAXX 11034 41943 02440 41802 10326 20290 30031 40038 82520 333 20238 58000 70330 82616 84458==
41943,2024,06,11,06,00,AAXX 11064 41943 02440 51802 10340 20260 30020 40027 83520 333 59006 70000 83616 84458==
41943,2024,06,11,09,00,AAXX 11094 41943 02440 51802 10355 20260 39997 40004 83520 333 59013 70000 83616 84458==
41943,2024,06,11,12,00,AAXX 11124 41943 02435 51802 10324 20260 39994 40001 83520 333 10358 59007 70000 83616 84458==
41943,2024,06,11,15,00,AAXX 11154 41943 02430 61802 10300 20260 30015 40022 83520 333 59007 70000 83616 85458==
41943,2024,06,11,18,00,AAXX 11184 41943 02430 80000 10292 20270 30023 40030 8662/ 333 59007 70000 82710 84615 88458==
41943,2024,06,11,21,00,AAXX 11214 41943 02430 70000 10257 20280 30021 40028 84520 333 59009 70000 84616 86458==
41943,2024,06,12,00,00,AAXX 12004 41943 02440 60000 10282 20270 30020 40027 83520 333 59009 70000 83616 85458==
41943,2024,06,12,03,00,AAXX 12034 41943 02440 61802 10296 20270 30027 40034 83520 333 20280 59004 70000 83616 85458==
41943,2024,06,12,06,00,AAXX 12064 41943 01330 81803 10280 20270 30035 40042 76162 8772/ 333 58015 70050 83709 84613 88458==
41943,2024,06,12,09,00,AAXX 12094 41943 01330 81802 10274 20260 30016 40023 70262 8662/ 333 58019 70090 83710 84614 88458==
41943,2024,06,12,12,00,AAXX 12124 41943 11435 71803 10284 20250 30012 40019 60046 70162 84520 333 10296 58018 70090 84615 86458==
41943,2024,06,12,15,00,AAXX 12154 41943 02430 61802 10280 20260 30027 40034 83520 333 58012 70090 83616 85458==
41943,2024,06,12,18,00,AAXX 12184 41943 02430 60000 10277 20260 30034 40041 83520 333 58011 70090 83616 85458==
41943,2024,06,12,21,00,AAXX 12214 41943 01330 80000 10268 20260 30029 40036 76162 8772/ 333 58008 70320 83709 84614 88458==
41943,2024,06,13,00,00,AAXX 13004 41943 21330 80000 10270 20260 30023 40030 76162 8772/ 333 58003 60449 70530 83709 84614 88458==
41943,2024,06,13,03,00,AAXX 13034 41943 01435 72302 10294 20260 30031 40038 70162 84520 333 20258 58004 70550 84615 86458==
41943,2024,06,13,06,00,AAXX 13064 41943 11440 61802 10320 20250 30027 40034 60026 70262 84520 333 59008 70480 84616 86458==
41943,2024,06,13,09,00,AAXX 13094 41943 02440 81802 10315 20260 30005 40012 8662/ 333 59011 70440 83710 84615 88458==
41943,2024,06,13,12,00,AAXX 13124 41943 01330 81803 10290 20270 30004 40011 72162 8662/ 333 59008 70010 83709 84615 88458==
41943,2024,06,13,15,00,AAXX 13154 41943 01320 83102 10240 20230 30032 40039 79592 8792/ 333 59005 70900 83708 85613 88456==
41943,2024,06,13,18,00,AAXX 13184 41943 21330 83102 10237 20230 30014 40021 76196 8772/ 333 59020 60509 70940 83708 85614 88456==
41943,2024,06,13,21,00,AAXX 13214 41943 01330 80000 10235 20230 30008 40015 70262 8662/ 333 59021 70750 83710 84615 88458==
41944,2024,06,07,00,00,AAXX 07004 41944 NIL=
41944,2024,06,07,06,00,AAXX 07064 41944 NIL=
41944,2024,06,07,12,00,AAXX 07124 41944 NIL=
41944,2024,06,08,00,00,AAXX 08004 41944 NIL=
41944,2024,06,08,06,00,AAXX 08064 41944 NIL=
41944,2024,06,08,12,00,AAXX 08124 41944 NIL=
41944,2024,06,09,00,00,AAXX 09004 41944 NIL=
41944,2024,06,09,06,00,AAXX 09064 41944 NIL=
41944,2024,06,09,12,00,AAXX 09124 41944 NIL=
41944,2024,06,09,18,00,AAXX 09184 41944 NIL=
41944,2024,06,10,12,00,AAXX 10124 41944 NIL=
41944,2024,06,10,18,00,AAXX 10184 41944 NIL=
41944,2024,06,11,06,00,AAXX 11064 41944 NIL=
41944,2024,06,11,12,00,AAXX 11124 41944 NIL=
41944,2024,06,12,06,00,AAXX 12064 41944 NIL=
41944,2024,06,12,12,00,AAXX 12124 41944 NIL=
41944,2024,06,12,18,00,AAXX 12184 41944 NIL=
41944,2024,06,13,00,00,AAXX 13004 41944 NIL=
41944,2024,06,13,06,00,AAXX 13064 41944 NIL=
41944,2024,06,13,12,00,AAXX 13124 41944 NIL=
41946,2024,06,07,00,00,AAXX 07004 41946 02/56 43201 10280 20260 30030 40034 82032 333 59019 70000 82362 83080==
41946,2024,06,07,03,00,AAXX 07034 41946 02/56 23102 10330 20260 30041 40045 82040 333 20275 59016 70000 82362==
41946,2024,06,07,06,00,AAXX 07064 41946 02957 02304 10347 20270 30032 40036 333 59020 70000==
41946,2024,06,07,09,00,AAXX 07094 41946 333 59019 70000 82080==
41946,2024,06,07,12,00,AAXX 07124 41946 02456 21810 10350 20280 39996 40000 81501 333 10368 59017 70000 81618==
41946,2024,06,07,15,00,AAXX 07154 41946 02956 11810 10321 20290 30018 40022 80001 333 59016 70000 81080==
41946,2024,06,07,18,00,AAXX 07184 41946 02956 00000 10310 20280 30019 40023 333 59013 70000==
41946,2024,06,07,21,00,AAXX 07214 41946 02956 10000 10300 20280 30016 40021 80001 333 59012 70000 81080==
41946,2024,06,08,00,00,AAXX 08004 41946 02956 31804 10293 20280 30023 40028 80002 333 59007 70000 83080==
41946,2024,06,08,03,00,AAXX 08034 41946 02956 01810 10325 20280 30033 40037 333 20285 59008 70000==
41946,2024,06,08,06,00,AAXX 08064 41946 02456 51812 10350 20270 30020 40024 83510 333 59012 70000 83618 83460==
41946,2024,06,08,09,00,AAXX 08094 41946 02456 31809 10355 20270 39999 40003 83500 333 59009 70000 83618==
41946,2024,06,08,12,00,AAXX 08124 41946 02456 31805 10335 20280 39995 49999 83500 333 10357 59001 70000 83618==
41946,2024,06,08,15,00,AAXX 08154 41946 02956 01806 10318 20280 30006 40010 333 59012 70000==
41946,2024,06,08,18,00,AAXX 08184 41946 02456 51805 10310 20280 30009 40013 83510 333 59010 70000 83618 83460==
41946,2024,06,08,21,00,AAXX 08214 41946 02456 20000 10308 20280 30004 40008 82500 333 59012 70000 82618==
41946,2024,06,09,00,00,AAXX 09004 41946 02456 21808 10304 20280 30008 40013 82500 333 59015 70000 82618==
41946,2024,06,09,03,00,AAXX 09034 41946 02/56 51810 10325 20280 30017 40021 85070 333 20300 59016 70000 83460 83362==
41946,2024,06,09,06,00,AAXX 09064 41946 02956 31810 10355 20280 30010 40014 80001 333 59010 70000 83080==
41946,2024,06,09,09,00,AAXX 09094 41946 02556 61802 10366 20270 39987 49991 83530 333 59012 70000 83620 85360==
41946,2024,06,09,12,00,AAXX 09124 41946 02956 21703 10350 20280 39990 49995 80001 333 10372 59005 70000 82080==
41946,2024,06,09,15,00,AAXX 09154 41946 02556 51603 10320 20280 30010 40014 85400 333 58004 70000 83620 83822==
41946,2024,06,09,18,00,AAXX 09184 41946 02456 61804 10314 20280 30016 40020 86400 333 58007 70000 84618 83820==
41946,2024,06,09,21,00,AAXX 09214 41946 02556 41802 10309 20280 30013 40018 84500 333 58009 70000 84620==
41946,2024,06,10,00,00,AAXX 10004 41946 02956 31703 10304 20280 30010 40015 80002 333 58002 70000 83080==
41946,2024,06,10,03,00,AAXX 10034 41946 02956 01505 10335 20280 30019 40023 333 20300 58002 70000==
41946,2024,06,10,06,00,AAXX 10064 41946 02957 01810 10360 20270 30007 40011 333 59003 70000==
41946,2024,06,10,09,00,AAXX 10094 41946 02957 01807 10373 20260 39991 49995 333 58004 70000==
41946,2024,06,10,12,00,AAXX 10124 41946 02956 00000 10357 20270 39988 49992 333 10375 59002 70000==
41946,2024,06,10,15,00,AAXX 10154 41946 01456 31303 10320 20280 30023 40027 71300 83300 333 58013 70000 82618 81929==
41946,2024,06,10,18,00,AAXX 10184 41946 01956 01406 10286 20230 30018 40023 70196 333 58002 70000==
41946,2024,06,10,21,00,AAXX 10214 41946 42456 21803 10291 20250 30010 40015 82500 333 59003 82618==
41946,2024,06,11,00,00,AAXX 11004 41946 42456 61906 10301 20280 30015 40020 82520 333 58005 82618 84460==
41946,2024,06,11,03,00,AAXX 11034 41946 42456 71805 10330 20280 30021 40025 83510 333 20275 58002 83618 86460==
41946,2024,06,11,06,00,AAXX 11064 41946 42457 41807 10350 20270 30010 40014 84500 333 58003 84618==
41946,2024,06,11,09,00,AAXX 11094 41946 42456 71804 10360 20270 39996 40000 83510 333 58000 83618 86460==
41946,2024,06,11,12,00,AAXX 11124 41946 42456 61806 10335 20270 39996 40000 82520 333 10362 58008 82618 84460==
41946,2024,06,11,15,00,AAXX 11154 41946 42456 60000 10315 20270 30024 40028 82520 333 58001 82618 84460==
41946,2024,06,11,18,00,AAXX 11184 41946 02456 20000 10307 20280 30015 40019 82500 333 59003 70000 82618==
41946,2024,06,11,21,00,AAXX 11214 41946 02456 20000 10304 20270 30010 40015 82500 333 58000 70000 82618==
41946,2024,06,12,00,00,AAXX 12004 41946 02456 20000 10300 20280 30016 40021 82500 333 58001 70000 82618==
41946,2024,06,12,03,00,AAXX 12034 41946 02456 41807 10330 20270 30030 40034 84400 333 20296 58009 70000 83618==
41946,2024,06,12,06,00,AAXX 12064 41946 02456 61810 10345 20280 30020 40024 83470 333 58010 70000 82618 84460==
41946,2024,06,12,09,00,AAXX 12094 41946 02456 61402 10350 20270 39999 40003 84420 333 58003 70000 83618 85459==
41946,2024,06,12,12,00,AAXX 12124 41946 02456 61703 10334 20270 39997 40001 85430 333 10352 58001 70000 84618 85360==
41946,2024,06,12,15,00,AAXX 12154 41946 02456 31806 10316 20280 30014 40018 83500 333 59010 70000 83618==
41946,2024,06,12,18,00,AAXX 12184 41946 02456 31703 10312 20280 30023 40028 83500 333 58008 70000 83618==
41946,2024,06,12,21,00,AAXX 12214 41946 02456 41803 10309 20280 30007 40012 84400 333 59003 70000 82618 83820==
41946,2024,06,13,00,00,AAXX 13004 41946 02356 61904 10306 20290 30010 40015 86600 333 59006 70000 83710 85617==
41946,2024,06,13,03,00,AAXX 13034 41946 02456 71810 10330 20280 30018 40022 86410 333 20298 59012 70000 85618 84460==
41946,2024,06,13,06,00,AAXX 13064 41946 02456 51810 10355 20280 30008 40012 85400 333 59012 70000 83618 83820==
41946,2024,06,13,09,00,AAXX 13094 41946 02556 51807 10360 20260 39992 49996 85400 333 59007 70000 84620==
41946,2024,06,13,12,00,AAXX 13124 41946 02456 41812 10340 20270 39985 49989 81501 333 10364 59012 70000 81618 83080==
41946,2024,06,13,15,00,AAXX 13154 41946 02456 61708 10319 20280 30012 40016 82520 333 59002 70000 82618 86459==
41946,2024,06,13,18,00,AAXX 13184 41946 01456 80000 10301 20290 30005 40010 71722 8392/ 333 59018 70002 82618 88459 81928==
41946,2024,06,13,21,00,AAXX 13214 41946 01456 81702 10303 20280 39984 49989 70292 8352/ 333 59023 70002 83618 88459==
41947,2024,06,07,00,00,AAXX 07004 41947 02456 50000 10278 20260 30032 40034 83570 333 59012 70000 83618 84458==
41947,2024,06,07,03,00,AAXX 07034 41947 02456 60000 10320 20260 30044 40047 86400 333 20272 59017 70000 83618 83820==
41947,2024,06,07,06,00,AAXX 07064 41947 02957 00000 10360 20270 30031 40034 333 59023 70000==
41947,2024,06,07,09,00,AAXX 07094 41947 02957 02302 10370 20260 30005 40007 333 59020 70000==
41947,2024,06,07,12,00,AAXX 07124 41947 02956 32102 10355 20280 39999 40001 80001 333 10375 59016 70000 83080==
41947,2024,06,07,15,00,AAXX 07154 41947 02456 42103 10320 20290 30023 40025 82530 333 59014 70000 82618 83362==
41947,2024,06,07,18,00,AAXX 07184 41947 02956 01802 10310 20290 30020 40022 333 59014 70000==
41947,2024,06,07,21,00,AAXX 07214 41947 02/56 40000 10304 20280 30017 40019 84010 333 59016 70000 84459==
41947,2024,06,08,00,00,AAXX 08004 41947 02456 51802 10296 20280 30025 40027 82510 333 59007 70000 82618 84459==
41947,2024,06,08,03,00,AAXX 08034 41947 02456 61802 10314 20270 30034 40036 83570 333 20290 59011 70000 83618 83459==
41947,2024,06,08,06,00,AAXX 08064 41947 02457 42303 10350 20270 30024 40026 84500 333 59008 70000 84618==
41947,2024,06,08,09,00,AAXX 08094 41947 02456 42715 10362 20270 30000 40002 84400 333 59005 70000 82618 83820==
41947,2024,06,08,12,00,AAXX 08124 41947 02456 52110 10340 20280 39994 49996 85400 333 10368 59005 70000 82618 83820 84080==
41947,2024,06,08,15,00,AAXX 08154 41947 02450 42108 10305 20270 30008 40010 84530 333 59015 70000 82618 83362==
41947,2024,06,08,18,00,AAXX 08184 41947 02450 42106 10310 20290 30013 40015 83500 333 59010 70000 83618==
41947,2024,06,08,21,00,AAXX 08214 41947 02450 30000 10305 20290 30004 40006 83500 333 59013 70000 83618==
41947,2024,06,09,00,00,AAXX 09004 41947 02456 51802 10300 20280 30006 40008 83430 333 59019 70000 82618 83820 85362==
41947,2024,06,09,03,00,AAXX 09034 41947 02456 41802 10330 20280 30019 40021 84500 333 20295 59015 70000 84618==
41947,2024,06,09,06,00,AAXX 09064 41947 02457 71803 10360 20290 30012 40014 83570 333 59012 70000 83618 85459==
41947,2024,06,09,09,00,AAXX 09094 41947 02456 81802 10365 20300 39990 49992 8452/ 333 59010 70000 84616 88458==
41947,2024,06,09,12,00,AAXX 09124 41947 02456 81803 10345 20290 39985 49987 8452/ 333 10380 59014 70000 84616 88458==
41947,2024,06,09,15,00,AAXX 09154 41947 02450 81803 10318 20300 30003 40005 8452/ 333 59005 70000 84616 88458==
41947,2024,06,09,18,00,AAXX 09184 41947 02450 81803 10310 20300 30007 40009 8452/ 333 59006 70000 84618 88458==
41947,2024,06,09,21,00,AAXX 09214 41947 02450 81802 10304 20290 30004 40006 8452/ 333 59001 70000 84616 88458==
41947,2024,06,10,00,00,AAXX 10004 41947 02450 61802 10300 20290 30005 40007 83530 333 59001 70000 83618 84362==
41947,2024,06,10,03,00,AAXX 10034 41947 02456 61802 10340 20280 30015 40017 86400 333 20295 59004 70000 83618 83820==
41947,2024,06,10,06,00,AAXX 10064 41947 02957 01802 10363 20270 30011 40014 333 58000 70000==
41947,2024,06,10,09,00,AAXX 10094 41947 02957 01804 10370 20280 39991 49993 333 58001 70000==
41947,2024,06,10,12,00,AAXX 10124 41947 02456 31803 10340 20300 39991 49993 83500 333 10380 58006 70000 83618==
41947,2024,06,10,15,00,AAXX 10154 41947 02950 01803 10315 20280 30026 40028 333 58023 70000==
41947,2024,06,10,18,00,AAXX 10184 41947 02950 01804 10290 20270 30024 40026 333 58017 70000==
41947,2024,06,10,21,00,AAXX 10214 41947 02450 21802 10295 20280 30023 40025 82500 333 58019 70000 82618==
41947,2024,06,11,00,00,AAXX 11004 41947 02456 31802 10300 20290 30023 40025 83500 333 58018 70000 83618==
41947,2024,06,11,03,00,AAXX 11034 41947 02456 61802 10330 20270 30022 40025 86400 333 20280 58008 70000 83618 83820==
41947,2024,06,11,06,00,AAXX 11064 41947 02456 51802 10356 20270 30012 40015 85400 333 58001 70000 82618 83820==
41947,2024,06,11,09,00,AAXX 11094 41947 02456 61303 10370 20250 39998 40000 84470 333 58007 70000 82618 83820 85459==
41947,2024,06,11,12,00,AAXX 11124 41947 02456 51805 10338 20280 39994 49996 85400 333 10372 58003 70000 82618 83825==
41947,2024,06,11,15,00,AAXX 11154 41947 02450 21802 10315 20270 30020 40022 82500 333 59006 70000 82618==
41947,2024,06,11,18,00,AAXX 11184 41947 02450 21806 10305 20270 30016 40018 82500 333 59008 70000 82618==
41947,2024,06,12,00,00,AAXX 12004 41947 02456 51803 10295 20290 30014 40016 83570 333 59009 70000 83618 84459==
41947,2024,06,12,03,00,AAXX 12034 41947 02456 61802 10328 20280 30032 40034 83570 333 20290 58009 70000 83618 84459==
41947,2024,06,12,06,00,AAXX 12064 41947 02457 61802 10352 20270 30021 40023 83570 333 58008 70000 83618 84459==
41947,2024,06,12,09,00,AAXX 12094 41947 02456 81802 10353 20270 30003 40005 8452/ 333 58005 70000 84616 88458==
41947,2024,06,12,12,00,AAXX 12124 41947 02456 61802 10332 20260 30002 40004 83570 333 10355 58008 70000 83618 84459==
41947,2024,06,12,15,00,AAXX 12154 41947 02456 41803 10316 20280 30017 40019 82530 333 59003 70000 82618 83362==
41947,2024,06,12,18,00,AAXX 12184 41947 02456 41802 10308 20290 30023 40025 84500 333 58007 70000 84618==
41947,2024,06,12,21,00,AAXX 12214 41947 02456 31802 10306 20290 30007 40009 83500 333 59008 70000 83618==
41947,2024,06,13,00,00,AAXX 13004 41947 02456 41803 10302 20280 30015 40017 82530 333 58001 70000 82618 83362==
41947,2024,06,13,03,00,AAXX 13034 41947 02456 61803 10335 20280 30020 40022 83570 333 20292 59012 70000 83618 84459==
41947,2024,06,13,06,00,AAXX 13064 41947 02457 61803 10355 20270 30012 40014 83570 333 59009 70000 83618 84459==
41947,2024,06,13,09,00,AAXX 13094 41947 02456 81802 10355 20280 39993 49995 8452/ 333 59010 70000 84616 88458==
41947,2024,06,13,12,00,AAXX 13124 41947 02456 51802 10340 20260 39985 49987 82530 333 10365 59017 70000 82618 84362==
41947,2024,06,13,15,00,AAXX 13154 41947 02450 51802 10315 20270 30013 40015 82530 333 59004 70000 82618 83362==
41947,2024,06,13,18,00,AAXX 13184 41947 02450 50000 10305 20280 30017 40019 82530 333 59006 70000 82618 83362==
41947,2024,06,13,21,00,AAXX 13214 41947 02450 50000 10304 20280 30004 40006 82530 333 59003 70000 82618 83362==
41950,2024,06,07,00,00,AAXX 07004 41950 02350 70000 10292 20250 30032 40035 84610 333 59015 70000 81708 83617 87459==
41950,2024,06,07,01,00,AAXX 07014 41950 02350 70000 10290 20260 30032 40035 84610 333 59012 70000 81708 83617 87459==
41950,2024,06,07,03,00,AAXX 07034 41950 02450 50000 10320 20270 30038 40041 82510 333 20275 59022 70000 82617 84462==
41950,2024,06,07,06,00,AAXX 07064 41950 02450 60000 10350 20260 30034 40037 82510 333 59023 70000 82617 85459==
41950,2024,06,07,09,00,AAXX 07094 41950 02450 52002 10362 20250 30009 40011 83510 333 59017 70000 83617 85459==
41950,2024,06,07,12,00,AAXX 07124 41950 02450 50000 10348 20260 30007 40009 82531 333 10365 59007 70000 82617 83362==
41950,2024,06,07,15,00,AAXX 07154 41950 02350 71802 10314 20280 30030 40033 84610 333 59016 70000 81708 84616 87459==
41950,2024,06,07,18,00,AAXX 07184 41950 02350 60000 10303 20280 30030 40033 84610 333 59010 70000 81708 84616 86459==
41950,2024,06,08,00,00,AAXX 08004 41950 02450 30000 10300 20290 30027 40030 82530 333 59005 70000 82617==
41950,2024,06,08,03,00,AAXX 08034 41950 02450 40000 10333 20260 30034 40037 84400 333 20294 59004 70000 83617==
41950,2024,06,08,06,00,AAXX 08064 41950 02450 41802 10350 20260 30025 40027 84400 333 59009 70000 83617==
41950,2024,06,08,09,00,AAXX 08094 41950 02450 61802 10353 20270 30001 40003 85410 333 59008 70000 84617 85459==
41950,2024,06,08,12,00,AAXX 08124 41950 02450 51803 10325 20280 39997 49999 82501 333 10364 59010 70000 82617 85080==
41950,2024,06,08,15,00,AAXX 08154 41950 02450 10000 10310 20270 30012 40015 81500 333 59010 70000 81617==
41950,2024,06,08,18,00,AAXX 08184 41950 02450 31802 10305 20280 30019 40022 83500 333 59011 70000 83617==
41950,2024,06,08,21,00,AAXX 08214 41950 02450 20000 10300 20280 30014 40017 82500 333 59010 70000 82617==
41950,2024,06,09,00,00,AAXX 09004 41950 02450 20000 10298 20280 30010 40013 82501 333 59017 70000 82617==
41950,2024,06,09,03,00,AAXX 09034 41950 02450 62002 10330 20270 30030 40033 84431 333 20294 59004 70000 83617 83362==
41950,2024,06,09,06,00,AAXX 09064 41950 02450 71804 10352 20270 30019 40021 83570 333 59006 70000 83617 84459==
41950,2024,06,09,09,00,AAXX 09094 41950 02450 72002 10346 20270 39992 49994 84510 333 59009 70000 84617 86459==
41950,2024,06,09,12,00,AAXX 09124 41950 02450 71603 10324 20270 39999 40001 83510 333 10357 58002 70000 83617 87459==
41950,2024,06,09,15,00,AAXX 09154 41950 02450 50000 10310 20280 30020 40023 83530 333 58008 70000 83617 83362==
41950,2024,06,09,18,00,AAXX 09184 41950 02450 30000 10306 20290 30023 40026 83500 333 58006 70000 83617==
41950,2024,06,09,21,00,AAXX 09214 41950 02450 60000 10294 20280 30020 40023 83510 333 58006 70000 83617 85459==
41950,2024,06,10,00,00,AAXX 10004 41950 02350 70000 10292 20280 30022 40025 84610 333 58012 70000 82708 83617 87459==
41950,2024,06,10,03,00,AAXX 10034 41950 02450 40000 10330 20280 30024 40027 84500 333 20290 59006 70000 84616==
41950,2024,06,10,06,00,AAXX 10064 41950 02350 71902 10345 20270 30019 40021 84610 333 58000 70000 81708 84616 87459==
41950,2024,06,10,09,00,AAXX 10094 41950 02450 71804 10350 20280 39999 40001 83570 333 58007 70000 84616 85459 81928==
41950,2024,06,10,12,00,AAXX 10124 41950 02950 31802 10332 20270 39998 40000 80001 333 10356 59001 70000 83080==
41950,2024,06,10,15,00,AAXX 10154 41950 02450 21902 10310 20280 30020 40023 82500 333 58000 70000 82617==
41950,2024,06,10,18,00,AAXX 10184 41950 02450 21802 10302 20270 30033 40036 82500 333 58010 70000 82617==
41950,2024,06,10,21,00,AAXX 10214 41950 02450 30000 10297 20280 30020 40023 82530 333 58000 70000 82617==
41950,2024,06,11,00,00,AAXX 11004 41950 02450 20000 10292 20280 30025 40028 82500 333 58003 70000 82617==
41950,2024,06,11,03,00,AAXX 11034 41950 02450 42302 10330 20270 30025 40028 84400 333 20290 58001 70000 83617==
41950,2024,06,11,06,00,AAXX 11064 41950 02450 42004 10360 20250 30014 40016 84400 333 59005 70000 83617==
41950,2024,06,11,09,00,AAXX 11094 41950 02450 51802 10358 20260 39997 49999 85400 333 59002 70000 84617==
41950,2024,06,11,12,00,AAXX 11124 41950 02450 52002 10330 20270 39995 49997 83510 333 10366 59003 70000 83617 85459==
41950,2024,06,11,15,00,AAXX 11154 41950 02450 40000 10310 20270 30020 40023 83530 333 58000 70000 83617==
41950,2024,06,11,18,00,AAXX 11184 41950 02450 40000 10305 20280 30023 40026 83530 333 59010 70000 83617==
41950,2024,06,11,21,00,AAXX 11214 41950 02450 40000 10300 20280 30021 40024 83530 333 58001 70000 83617==
41950,2024,06,12,00,00,AAXX 12004 41950 02450 50000 10295 20290 30018 40021 82531 333 59007 70000 82617 84362==
41950,2024,06,12,03,00,AAXX 12034 41950 02450 51802 10328 20280 30038 40041 84430 333 20290 58013 70000 83617 83362==
41950,2024,06,12,06,00,AAXX 12064 41950 02350 70000 10352 20270 30029 40031 84610 333 58015 70000 82708 84617 85459==
41950,2024,06,12,09,00,AAXX 12094 41950 02450 61802 10330 20270 30007 40009 84510 333 58010 70000 84617 86459==
41950,2024,06,12,12,00,AAXX 12124 41950 02450 61602 10334 20270 30005 40007 83570 333 10352 58010 70000 83617 85459==
41950,2024,06,12,15,00,AAXX 12154 41950 02350 70000 10307 20280 30020 40023 84610 333 58000 70000 81708 83617 87459==
41950,2024,06,12,18,00,AAXX 12184 41950 02450 30000 10298 20280 30030 40033 83500 333 58007 70000 83617==
41950,2024,06,12,21,00,AAXX 12214 41950 02350 70000 10300 20270 30024 40027 84610 333 58003 70000 82708 83617 87459==
41950,2024,06,13,00,00,AAXX 13004 41950 02350 81802 10300 20270 30022 40025 8562/ 333 58004 70000 82708 84616 88458==
41950,2024,06,13,03,00,AAXX 13034 41950 02350 71804 10320 20270 30025 40028 84610 333 20293 59013 70000 81708 84616 87459==
41950,2024,06,13,06,00,AAXX 13064 41950 02350 81802 10342 20260 30015 40018 8462/ 333 59014 70000 81708 84616 88458==
41950,2024,06,13,09,00,AAXX 13094 41950 02450 71802 10330 20280 30002 40004 85510 333 59005 70000 85617 87459==
41950,2024,06,13,12,00,AAXX 13124 41950 02350 71802 10324 20270 39993 49995 84610 333 10346 59012 70000 81708 84617 87459==
41950,2024,06,13,15,00,AAXX 13154 41950 02950 80602 10295 20270 30029 40032 8532/ 333 58009 70000 82708 84616 88458 81928==
41950,2024,06,13,18,00,AAXX 13184 41950 02350 80000 10274 20250 30029 40031 8532/ 333 59001 70000 82708 84616 88458 81928==
41950,2024,06,13,21,00,AAXX 13214 41950 02350 70000 10282 20260 30004 40006 84610 333 59020 70000 81708 84616 87459==
41951,2024,06,07,00,00,AAXX 07004 41951 02440 70000 10290 20280 30025 40030 83510 333 59018 70000 83618 86459==
41951,2024,06,07,03,00,AAXX 07034 41951 02440 72202 10325 20280 30032 40037 83510 333 20285 59020 70000 83618 86459==
41951,2024,06,07,06,00,AAXX 07064 41951 02456 62202 10353 20260 30027 40032 83510 333 59020 70000 83618 85459==
41951,2024,06,07,09,00,AAXX 07094 41951 02456 51302 10360 20280 30006 40010 82510 333 59019 70000 82618 84459==
41951,2024,06,07,12,00,AAXX 07124 41951 02440 71303 10323 20290 39997 40001 83510 333 10363 59013 70000 83618 86459==
41951,2024,06,07,15,00,AAXX 07154 41951 01340 80000 10293 20260 30027 40032 71396 8632/ 333 59010 70002 81708 84618 88458 81925==
41951,2024,06,07,18,00,AAXX 07184 41951 11340 80000 10302 20270 30024 40029 69926 70296 8562/ 333 59005 70002 81708 84618 88458==
41951,2024,06,07,21,00,AAXX 07214 41951 02440 70000 10298 20280 30022 40027 83510 333 59005 70002 83618 86459==
41951,2024,06,08,00,00,AAXX 08004 41951 02450 60000 10294 20280 30018 40023 83510 333 59007 70002 83618 85459==
41951,2024,06,08,03,00,AAXX 08034 41951 02456 62202 10340 20270 30033 40038 83510 333 10284 58001 70002 83618 85459==
41951,2024,06,08,06,00,AAXX 08064 41951 02456 62302 10360 20260 30024 40028 83510 333 59003 70002 83618 85459==
41951,2024,06,08,09,00,AAXX 08094 41951 02456 52307 10356 20280 30003 40007 82510 333 59003 70002 82618 84459==
41951,2024,06,08,12,00,AAXX 08124 41951 02456 62302 10328 20270 39994 49999 83510 333 10365 59003 70002 83618 85459==
41951,2024,06,08,15,00,AAXX 08154 41951 02340 80000 10312 20280 30017 40022 8562/ 333 59010 70000 81709 84618 88458==
41951,2024,06,08,18,00,AAXX 08184 41951 02340 81702 10302 20280 30019 40024 8562/ 333 59005 70000 81709 84618 88458==
41951,2024,06,08,21,00,AAXX 08214 41951 02340 80000 10300 20280 30012 40017 8562/ 333 59010 70000 81709 84618 88458==
41951,2024,06,09,00,00,AAXX 09004 41951 02450 60000 10298 20280 30009 40014 83510 333 59009 70000 83618 85459==
41951,2024,06,09,03,00,AAXX 09034 41951 02456 61503 10338 20280 30023 40028 83510 333 20290 59010 70000 83618 85459==
41951,2024,06,09,06,00,AAXX 09064 41951 02456 61304 10352 20270 30012 40016 83510 333 59012 70000 83618 85459==
41951,2024,06,09,09,00,AAXX 09094 41951 02340 81303 10339 20280 39997 40001 8562/ 333 59006 70000 81709 84618 88458==
41951,2024,06,09,12,00,AAXX 09124 41951 02450 61303 10325 20280 39994 49999 83510 333 10354 58000 70000 83618 85459==
41951,2024,06,09,15,00,AAXX 09154 41951 02340 81502 10312 20300 30013 40018 8562/ 333 59004 70000 81709 84618 88458==
41951,2024,06,09,18,00,AAXX 09184 41951 02450 62102 10302 20290 30017 40022 83510 333 59002 70000 83618 85459==
41951,2024,06,09,21,00,AAXX 09214 41951 02450 60000 10298 20290 30015 40020 83510 333 58003 70000 83618 85459==
41951,2024,06,10,00,00,AAXX 10004 41951 02450 50000 10295 20290 30012 40017 82510 333 58003 70000 82618 84459==
41951,2024,06,10,03,00,AAXX 10034 41951 02456 61303 10339 20280 30019 40024 83510 333 20285 59004 70000 83618 85459==
41951,2024,06,10,06,00,AAXX 10064 41951 02456 61502 10348 20290 30019 40023 83510 333 58007 70000 83618 85459==
41951,2024,06,10,09,00,AAXX 10094 41951 02450 71502 10344 20290 30002 40006 83510 333 58005 70000 83618 86459==
41951,2024,06,10,12,00,AAXX 10124 41951 02456 61803 10330 20290 39990 49994 83510 333 10350 59004 70000 83618 85459==
41951,2024,06,10,15,00,AAXX 10154 41951 02450 21302 10312 20280 30017 40022 82500 333 58004 70000 82618==
41951,2024,06,10,18,00,AAXX 10184 41951 02450 30000 10303 20280 30027 40032 83500 333 58010 70000 83682==
41951,2024,06,10,21,00,AAXX 10214 41951 02450 50000 10298 20280 30024 40029 82510 333 58009 70000 82618 84459==
41951,2024,06,11,00,00,AAXX 11004 41951 02450 50000 10294 20280 30019 40024 82510 333 58007 70000 82618 84459==
41951,2024,06,11,03,00,AAXX 11034 41951 02456 51302 10336 20280 30021 40026 82510 333 20286 58002 70000 82618 84459==
41951,2024,06,11,06,00,AAXX 11064 41951 02456 60903 10367 20270 30012 40016 83510 333 59007 70000 83618 85459==
41951,2024,06,11,09,00,AAXX 11094 41951 02456 71202 10360 20270 30001 40006 83510 333 59001 70000 83618 86459==
41951,2024,06,11,12,00,AAXX 11124 41951 02456 31302 10324 20280 39992 49996 83500 333 10368 58002 70000 83618==
41951,2024,06,11,15,00,AAXX 11154 41951 02340 82202 10308 20290 30018 40023 8562/ 333 58011 70000 81709 84618 88458==
41951,2024,06,11,18,00,AAXX 11184 41951 02340 81802 10303 20280 30019 40024 8562/ 333 59008 70000 81709 84618 88458==
41951,2024,06,11,21,00,AAXX 11214 41951 02440 70000 10298 20290 30016 40021 83510 333 59008 70000 83618 85459==
41951,2024,06,12,00,00,AAXX 12004 41951 02450 60000 10295 20290 30013 40018 83510 333 59006 70000 83618 85459==
41951,2024,06,12,03,00,AAXX 12034 41951 02456 51303 10334 20280 30031 40036 82510 333 20288 58010 70000 82618 84459==
41951,2024,06,12,06,00,AAXX 12064 41951 02456 61503 10348 20280 30024 40028 83510 333 58012 70000 83618 85459==
41951,2024,06,12,09,00,AAXX 12094 41951 02456 71502 10338 20290 30009 40014 83510 333 58008 70000 83618 86459==
41951,2024,06,12,12,00,AAXX 12124 41951 02340 81402 10310 20280 30005 40010 8562/ 333 10352 58013 70000 81708 84618 88458==
41951,2024,06,12,15,00,AAXX 12154 41951 02340 81503 10302 20280 30020 40025 8562/ 333 58002 70000 81709 84618 88458==
41951,2024,06,12,18,00,AAXX 12184 41951 02340 81502 10300 20280 30016 40021 8562/ 333 59003 70000 81709 84618 88458==
41951,2024,06,12,21,00,AAXX 12214 41951 02340 81502 10298 20280 30012 40017 8562/ 333 59004 70000 81708 84618 88458==
41951,2024,06,13,00,00,AAXX 13004 41951 02340 81303 10297 20270 30012 40017 8562/ 333 59001 70000 81708 84618 88458==
41951,2024,06,13,03,00,AAXX 13034 41951 02340 81502 10314 20270 30021 40026 8562/ 333 20290 59010 70000 81708 84618 88458==
41951,2024,06,13,06,00,AAXX 13064 41951 02450 72204 10342 20280 30015 40020 83510 333 59009 70000 83618 86459==
41951,2024,06,13,09,00,AAXX 13094 41951 02450 72203 10335 20290 39999 40004 83510 333 59010 70000 83618 86459==
41951,2024,06,13,12,00,AAXX 13124 41951 02340 81304 10310 20270 39993 49998 8562/ 333 10344 59012 70000 81709 84618 88458==
41951,2024,06,13,15,00,AAXX 13154 41951 01340 81505 10268 20260 30032 40036 71322 8632/ 333 58012 70000 82708 84618 88458 81925==
41951,2024,06,13,18,00,AAXX 13184 41951 02340 81302 10278 20260 30012 40017 8562/ 333 59004 70000 81709 84618 88458==
41951,2024,06,13,21,00,AAXX 13214 41951 02340 71302 10276 20260 30003 40008 84610 333 59009 70000 81709 83618 86459==
41953,2024,06,07,00,00,AAXX 07004 41953 02435 80000 10292 20280 30035 40040 8352/ 333 59019 70140 83616 88458==
41953,2024,06,07,03,00,AAXX 07034 41953 02445 50000 10326 20280 30046 40051 83510 333 20270 59020 70140 83616 84458==
41953,2024,06,07,06,00,AAXX 07064 41953 02440 80504 10328 20260 30033 40038 8352/ 333 59021 70140 83616 88458==
41953,2024,06,07,09,00,AAXX 07094 41953 02445 61306 10328 20260 30012 40017 83510 333 59020 70000 83616 85458==
41953,2024,06,07,12,00,AAXX 07124 41953 02440 81308 10298 20270 30016 40021 8352/ 333 10330 59005 70000 83616 88458==
41953,2024,06,07,15,00,AAXX 07154 41953 02430 81309 10294 20260 30029 40034 8352/ 333 59016 70000 83616 88458==
41953,2024,06,07,18,00,AAXX 07184 41953 02430 81306 10290 20270 30035 40040 8352/ 333 59013 70000 83616 88458==
41953,2024,06,07,21,00,AAXX 07214 41953 02430 81308 10280 20260 30031 40036 8352/ 333 59012 70000 83616 88458==
41953,2024,06,08,00,00,AAXX 08004 41953 02440 80506 10270 20250 30037 40042 8352/ 333 58002 70000 83616 88458==
41953,2024,06,08,03,00,AAXX 08034 41953 02450 81304 10290 20250 30049 40054 8352/ 333 20269 58003 70000 83616 88458==
41953,2024,06,08,06,00,AAXX 08064 41953 02445 71302 10334 20280 30031 40036 83510 333 59002 70000 83616 86458==
41953,2024,06,08,09,00,AAXX 08094 41953 02450 51302 10346 20280 30009 40014 84410 333 59003 70000 83616 84458==
41953,2024,06,08,12,00,AAXX 08124 41953 02445 51301 10324 20270 30002 40007 82510 333 10347 59014 70000 82618 84458==
41953,2024,06,08,15,00,AAXX 08154 41953 02930 00000 10300 20280 30021 40026 333 59009 70000==
41953,2024,06,08,21,00,AAXX 08214 41953 02930 00000 10294 20280 30022 40027 333 59009 70000==
41953,2024,06,09,00,00,AAXX 09004 41953 02440 20000 10292 20280 30023 40028 82500 333 59009 70000 82618==
41953,2024,06,09,03,00,AAXX 09034 41953 02445 31302 10330 20270 30030 40035 83400 333 20276 59019 70000 82618==
41953,2024,06,09,06,00,AAXX 09064 41953 02445 80000 10331 20270 30023 40028 84420 333 59008 70000 83618 88458==
41953,2024,06,09,09,00,AAXX 09094 41953 02450 81303 10295 20250 30006 40011 8352/ 333 59003 70000 83616 88458==
41953,2024,06,09,12,00,AAXX 09124 41953 02450 80000 10300 20260 30005 40010 8352/ 333 10345 58003 70000 83616 88458==
41953,2024,06,09,15,00,AAXX 09154 41953 02440 80000 10295 20280 30019 40024 8352/ 333 59002 70000 83616 88458==
41953,2024,06,09,18,00,AAXX 09184 41953 02440 60000 10290 20280 30025 40030 83510 333 58001 70000 83616 86458==
41953,2024,06,09,21,00,AAXX 09214 41953 02440 60000 10285 20280 30020 40025 83510 333 59002 70000 83616 86458==
41953,2024,06,10,00,00,AAXX 10004 41953 02440 60000 10286 20280 30025 40030 83510 333 58002 70000 83616 86458==
41953,2024,06,10,03,00,AAXX 10034 41953 02450 40000 10330 20270 30033 40038 84400 333 20285 58003 70000 83616==
41953,2024,06,10,06,00,AAXX 10064 41953 02450 61303 10300 20250 30030 40035 84410 333 58007 70000 83616 86458==
41953,2024,06,10,09,00,AAXX 10094 41953 02450 80000 10302 20250 30010 40015 8352/ 333 58004 70000 83616 88458==
41953,2024,06,10,12,00,AAXX 10124 41953 02450 60000 10300 20250 30003 40008 83510 333 10335 59002 70000 83616 86458==
41953,2024,06,10,15,00,AAXX 10154 41953 02440 60000 10295 20270 30025 40030 83510 333 58006 70000 83616 86458==
41953,2024,06,10,18,00,AAXX 10184 41953 02440 60000 10290 20280 30032 40037 83510 333 58007 70000 83616 86458==
41953,2024,06,10,21,00,AAXX 10214 41953 02440 60000 10285 20280 30025 40030 83510 333 58005 70000 83616 86458==
41953,2024,06,11,00,00,AAXX 11004 41953 02440 40000 10285 20280 30032 40037 82510 333 58007 70000 82616 84458==
41953,2024,06,11,03,00,AAXX 11034 41953 02450 41803 10332 20270 30030 40035 84400 333 20285 59003 70000 83616==
41953,2024,06,11,06,00,AAXX 11064 41953 02450 81803 10345 20270 30022 40027 8352/ 333 58008 70000 83616 88458==
41953,2024,06,11,09,00,AAXX 11094 41953 02450 50000 10350 20270 30003 40008 83510 333 59007 70000 83616 85458==
41953,2024,06,11,12,00,AAXX 11124 41953 02450 50000 10330 20260 39998 40003 83510 333 10355 59005 70000 83616 85458==
41953,2024,06,11,15,00,AAXX 11154 41953 02440 50000 10306 20290 30017 40022 83510 333 59008 70000 83616 85458==
41953,2024,06,11,18,00,AAXX 11184 41953 02440 50000 10296 20280 30026 40031 83510 333 59006 70000 83616 85458==
41953,2024,06,11,21,00,AAXX 11214 41953 02440 50000 10290 20280 30020 40025 83510 333 59005 70000 83616 85458==
41953,2024,06,12,00,00,AAXX 12004 41953 02440 80000 10290 20280 30023 40028 8352/ 333 59009 70000 83616 88458==
41953,2024,06,12,03,00,AAXX 12034 41953 02445 81301 10320 20280 30042 40047 8352/ 333 20285 58012 70000 83616 88458==
41953,2024,06,12,06,00,AAXX 12064 41953 02445 80000 10318 20280 30034 40039 8352/ 333 58012 70000 83618 88458==
41953,2024,06,12,09,00,AAXX 12094 41953 02450 81304 10305 20280 30015 40020 8352/ 333 58012 70000 83616 88458==
41953,2024,06,12,12,00,AAXX 12124 41953 02440 81302 10296 20270 30017 40022 8352/ 333 10320 58019 70000 83616 88458==
41953,2024,06,12,15,00,AAXX 12154 41953 02430 81302 10296 20270 30029 40034 8352/ 333 58012 70000 83616 88458==
41953,2024,06,12,18,00,AAXX 12184 41953 02430 81302 10295 20280 30032 40037 8352/ 333 59008 70000 83616 88458==
41953,2024,06,12,21,00,AAXX 12214 41953 02430 81302 10290 20270 30033 40038 8352/ 333 58013 70000 83616 88458==
41953,2024,06,13,00,00,AAXX 13004 41953 01435 80000 10280 20270 30029 40034 72122 8352/ 333 58006 70020 83616 88458==
41953,2024,06,13,03,00,AAXX 13034 41953 02445 81302 10306 20260 30032 40037 8352/ 333 20276 59010 70020 83616 88458==
41953,2024,06,13,06,00,AAXX 13064 41953 02445 81304 10320 20270 30027 40032 8452/ 333 59007 70020 84616 88458==
41953,2024,06,13,09,00,AAXX 13094 41953 02445 81303 10316 20270 30006 40011 8352/ 333 59009 70020 83616 88458==
41953,2024,06,13,12,00,AAXX 13124 41953 01435 81302 10286 20280 30006 40011 70262 8352/ 333 10318 59011 70030 83616 88458==
41953,2024,06,13,15,00,AAXX 13154 41953 01410 80000 10238 20238 30035 40040 79796 8692/ 333 58006 70600 85616 88458 82930==
41953,2024,06,13,18,00,AAXX 13184 41953 21410 80000 10236 20236 30040 40045 70296 8352/ 333 58006 60638 70680 83616 88458==
41953,2024,06,13,21,00,AAXX 13214 41953 02410 80000 10235 20235 30038 40043 8352/ 333 58005 70680 83616 88458==
41955,2024,06,07,00,00,AAXX 07004 41955 NIL=
41955,2024,06,07,06,00,AAXX 07064 41955 NIL=
41955,2024,06,07,12,00,AAXX 07124 41955 NIL=
41955,2024,06,08,00,00,AAXX 08004 41955 NIL=
41955,2024,06,08,06,00,AAXX 08064 41955 NIL=
41955,2024,06,08,12,00,AAXX 08124 41955 NIL=
41955,2024,06,09,00,00,AAXX 09004 41955 NIL=
41955,2024,06,09,06,00,AAXX 09064 41955 NIL=
41955,2024,06,09,12,00,AAXX 09124 41955 NIL=
41955,2024,06,09,18,00,AAXX 09184 41955 NIL=
41955,2024,06,10,12,00,AAXX 10124 41955 NIL=
41955,2024,06,10,18,00,AAXX 10184 41955 NIL=
41955,2024,06,11,06,00,AAXX 11064 41955 NIL=
41955,2024,06,11,12,00,AAXX 11124 41955 NIL=
41955,2024,06,12,06,00,AAXX 12064 41955 NIL=
41955,2024,06,12,12,00,AAXX 12124 41955 NIL=
41955,2024,06,12,18,00,AAXX 12184 41955 NIL=
41955,2024,06,13,00,00,AAXX 13004 41955 NIL=
41955,2024,06,13,06,00,AAXX 13064 41955 NIL=
41955,2024,06,13,12,00,AAXX 13124 41955 NIL=
41958,2024,06,07,00,00,AAXX 07004 41958 32450 30000 10268 20260 30026 40028 83500 333 56900 59014 70000 83617=
41958,2024,06,07,03,00,AAXX 07034 41958 32457 70000 10328 20270 30041 40043 85310 333 20264 56490 59016 70000 84616 81930 87459=
41958,2024,06,07,06,00,AAXX 07064 41958 32958 00000 10366 20280 30032 40034 333 59021 70000=
41958,2024,06,07,09,00,AAXX 07094 41958 32958 00000 10378 20290 30006 40008 333 59018 70000=
41958,2024,06,07,12,00,AAXX 07124 41958 32956 00000 10340 20300 39997 49999 333 10380 59019 70000=
41958,2024,06,07,15,00,AAXX 07154 41958 32450 60000 10307 20300 30022 40024 83410 333 56990 59015 70000 83616 85459=
41958,2024,06,07,18,00,AAXX 07184 41958 32440 61701 10300 20290 30020 40022 83410 333 56490 59010 70000 83616 85459=
41958,2024,06,07,21,00,AAXX 07214 41958 32440 60000 10295 20290 30019 40021 83410 333 56990 59005 70000 83616 85459=
41958,2024,06,08,00,00,AAXX 08004 41958 32450 60000 10288 20280 30019 40021 83410 333 56990 59007 70000 83616 85459=
41958,2024,06,08,03,00,AAXX 08034 41958 32456 63101 10332 20280 30033 40035 83410 333 20284 56790 59008 70000 83616 85459=
41958,2024,06,08,06,00,AAXX 08064 41958 32456 61701 10360 20290 30020 40022 83410 333 56490 59012 70000 83616 85459=
41958,2024,06,08,09,00,AAXX 08094 41958 32958 33101 10367 20290 30000 40002 83400 333 56700 59006 70000 83616=
41958,2024,06,08,12,00,AAXX 08124 41958 32456 61701 10332 20280 39994 49996 83410 333 10370 56490 59003 70000 83616 85459=
41958,2024,06,08,15,00,AAXX 08154 41958 32950 01702 10307 20290 30008 40010 333 59014 70000=
41958,2024,06,08,18,00,AAXX 08184 41958 32440 61702 10300 20290 30011 40013 83410 333 56490 59011 70000 83616 85459=
41958,2024,06,08,21,00,AAXX 08214 41958 32440 61701 10300 20290 30010 40012 83410 333 56490 59009 70000 83616 85459=
41958,2024,06,09,00,00,AAXX 09004 41958 32450 60000 10298 20280 30006 40008 83410 333 56990 59013 70000 83616 85459=
41958,2024,06,09,03,00,AAXX 09034 41958 32456 61701 10338 20290 30017 40019 83410 333 20294 56490 59016 70000 83616 85459=
41958,2024,06,09,06,00,AAXX 09064 41958 32457 61702 10367 20300 30009 40011 83410 333 56490 59011 70000 83616 85459=
41958,2024,06,09,09,00,AAXX 09094 41958 32457 61702 10356 20300 39990 49992 83410 333 56490 59010 70000 83616 85459=
41958,2024,06,09,12,00,AAXX 09124 41958 32456 61701 10330 20290 39995 49997 83410 333 10370 56490 58001 70000 83616 85459=
41958,2024,06,09,15,00,AAXX 09154 41958 32450 61701 10310 20290 30014 40016 83410 333 56490 58006 70000 83616 85459=
41958,2024,06,09,18,00,AAXX 09184 41958 32940 01702 10300 20290 30018 40020 333 58007 70000=
41958,2024,06,09,21,00,AAXX 09214 41958 32940 00000 10299 20299 30017 40019 333 58007 70000=
41958,2024,06,10,00,00,AAXX 10004 41958 32950 00000 10298 20298 30015 40017 333 58008 70000=
41958,2024,06,10,03,00,AAXX 10034 41958 32956 01701 10340 20290 30020 40022 333 20294 58003 70000=
41958,2024,06,10,06,00,AAXX 10064 41958 32457 30000 10377 20290 30009 40011 83400 333 56900 58000 70000 83616=
41958,2024,06,10,09,00,AAXX 10094 41958 32958 01301 10370 20300 39991 49993 333 58001 70000=
41958,2024,06,10,12,00,AAXX 10124 41958 32956 01702 10340 20290 39991 49993 333 10380 59004 70000=
41958,2024,06,10,15,00,AAXX 10154 41958 32950 01702 10310 20290 30018 40020 333 58004 70000=
41958,2024,06,10,18,00,AAXX 10184 41958 32440 33101 10300 20290 30023 40025 83400 333 56700 58005 70000 83616=
41958,2024,06,10,21,00,AAXX 10214 41958 32440 60000 10300 20290 30021 40023 83410 333 56990 58004 70000 83616 85459=
41958,2024,06,11,00,00,AAXX 11004 41958 32450 60000 10300 20290 30015 40017 83410 333 56990 58000 70000 83616 85458=
41958,2024,06,11,03,00,AAXX 11034 41958 32456 61701 10340 20280 30019 40021 83410 333 20294 56490 59001 70000 83616 85458=
41958,2024,06,11,06,00,AAXX 11064 41958 32458 31701 10360 20280 30010 40012 83400 333 56400 58001 70000 83616=
41958,2024,06,11,09,00,AAXX 11094 41958 32458 31701 10372 20280 39997 49999 83400 333 56400 58006 70000 83616=
41958,2024,06,11,12,00,AAXX 11124 41958 32956 01701 10332 20280 39994 49996 333 10375 58003 70000=
41958,2024,06,11,15,00,AAXX 11154 41958 32450 30000 10307 20290 30017 40019 83400 333 56900 59001 70000 83616=
41958,2024,06,11,18,00,AAXX 11184 41958 32440 31702 10300 20290 30018 40020 83400 333 56400 59005 70000 83616=
41958,2024,06,11,21,00,AAXX 11214 41958 32440 30000 10297 20297 30016 40018 83400 333 56900 59004 70000 83616=
41958,2024,06,12,00,00,AAXX 12004 41958 32450 30000 10293 20290 30015 40017 83400 333 56900 59001 70000 83616=
41958,2024,06,12,03,00,AAXX 12034 41958 32456 30000 10342 20280 30028 40030 83400 333 20290 56900 58011 70000 83616=
41958,2024,06,12,06,00,AAXX 12064 41958 32456 80000 10345 20290 30018 40020 8452/ 333 56999 58008 70000 84616 88458=
41958,2024,06,12,09,00,AAXX 12094 41958 32456 61701 10348 20280 30003 40005 83410 333 56490 58006 70000 83616 85459=
41958,2024,06,12,12,00,AAXX 12124 41958 32450 81702 10326 20290 30001 40003 8542/ 333 10350 56499 58007 70000 84616 88458=
41958,2024,06,12,15,00,AAXX 12154 41958 32950 01701 10307 20290 30016 40018 333 59001 70000=
41958,2024,06,12,18,00,AAXX 12184 41958 32440 61702 10301 20280 30012 40014 83410 333 56490 59004 70000 83616 85459=
41958,2024,06,12,21,00,AAXX 12214 41958 32440 61701 10301 20280 30013 40015 83410 333 56490 59003 70000 83616 85459=
41958,2024,06,13,00,00,AAXX 13004 41958 32450 60000 10301 20280 30013 40015 83410 333 56990 59001 70000 83616 85459=
41958,2024,06,13,03,00,AAXX 13034 41958 32457 31702 10340 20280 30018 40020 83400 333 20296 56900 59010 70000 82617=
41958,2024,06,13,06,00,AAXX 13064 41958 32458 41803 10356 20290 30010 40012 84400 333 56400 59008 70000 83616=
41958,2024,06,13,09,00,AAXX 13094 41958 32458 51703 10350 20270 39994 49996 85400 333 56400 59009 70000 84616=
41958,2024,06,13,12,00,AAXX 13124 41958 32456 21704 10326 20280 39988 49990 82500 333 10360 56400 59013 70000 82617=
41958,2024,06,13,15,00,AAXX 13154 41958 32450 21704 10310 20280 30008 40010 82500 333 56400 59008 70000 82617=
41958,2024,06,13,18,00,AAXX 13184 41958 32440 41702 10306 20290 30015 40017 84400 333 56400 58003 70000 83617=
41958,2024,06,13,21,00,AAXX 13214 41958 32440 21701 10302 20280 39991 49993 82500 333 56400 58022 70000 82617=
41960,2024,06,07,00,00,AAXX 07004 41960 02450 40000 10286 20280 30036 40038 83410 333 59015 70106 82618 84460==
41960,2024,06,07,03,00,AAXX 07034 41960 02456 50000 10326 20290 30042 40043 85410 333 20277 59018 70106 83618 85459==
41960,2024,06,07,06,00,AAXX 07064 41960 02456 52703 10350 20270 30039 40040 85410 333 59012 70106 83618 85459==
41960,2024,06,07,09,00,AAXX 07094 41960 02456 40000 10368 20270 30015 40017 84400 333 59013 70000 82618==
41960,2024,06,07,12,00,AAXX 07124 41960 02456 40000 10330 20290 30010 40012 84400 333 10370 59016 70092 83618==
41960,2024,06,07,15,00,AAXX 07154 41960 02450 80000 10314 20290 30029 40030 8542/ 333 59013 70000 84618 88459==
41960,2024,06,07,18,00,AAXX 07184 41960 01450 61801 10307 20290 30027 40028 71322 85310 333 59011 70000 83618 86459 81930==
41960,2024,06,07,21,00,AAXX 07214 41960 02450 60000 10304 20280 30026 40027 84410 333 59012 70000 82618 86459==
41960,2024,06,08,00,00,AAXX 08004 41960 02550 30000 10300 20280 30027 40028 81101 333 59009 70000 81825 83078==
41960,2024,06,08,03,00,AAXX 08034 41960 02456 42303 10338 20280 30035 40036 83510 333 20295 59007 70000 82618 84459==
41960,2024,06,08,06,00,AAXX 08064 41960 02456 32306 10358 20280 30029 40031 83430 333 59010 70000 82618==
41960,2024,06,08,09,00,AAXX 08094 41960 02456 51906 10350 20260 30013 40015 83411 333 59002 70000 82618 85459==
41960,2024,06,08,12,00,AAXX 08124 41960 02450 61804 10327 20270 30004 40006 84411 333 10360 59006 70000 83618 86459==
41960,2024,06,08,15,00,AAXX 08154 41960 02450 61802 10309 20280 30015 40016 84410 333 59014 70000 83618 86459==
41960,2024,06,08,18,00,AAXX 08184 41960 02450 61602 10303 20280 30021 40022 84410 333 59006 70000 83618 86459==
41960,2024,06,08,21,00,AAXX 08214 41960 02450 61901 10300 20280 30019 40020 85410 333 59007 70000 83618 86459==
41960,2024,06,09,00,00,AAXX 09004 41960 02450 40000 10297 20280 30017 40019 84400 333 59010 70000 82618==
41960,2024,06,09,03,00,AAXX 09034 41960 02456 30000 10330 20290 30028 40029 83400 333 20292 59007 70000 82618==
41960,2024,06,09,06,00,AAXX 09064 41960 02457 61802 10355 20280 30019 40021 84410 333 59010 70000 83618 86459==
41960,2024,06,09,09,00,AAXX 09094 41960 02457 61802 10342 20280 30004 40006 85410 333 59009 70000 83618 86459==
41960,2024,06,09,12,00,AAXX 09124 41960 02456 80000 10320 20280 30004 40006 8352/ 333 10357 58000 70000 83618 88458==
41960,2024,06,09,15,00,AAXX 09154 41960 02450 70000 10310 20290 30022 40023 85410 333 58007 70000 83618 87459==
41960,2024,06,09,18,00,AAXX 09184 41960 02450 50000 10300 20290 30025 40026 84410 333 58004 70000 83618 85459==
41960,2024,06,09,21,00,AAXX 09214 41960 02450 50000 10298 20290 30024 40025 83410 333 58005 70000 82618 85459==
41960,2024,06,10,00,00,AAXX 10004 41960 02450 30000 10295 20290 30023 40025 81509 333 58006 70000 81618 83178==
41960,2024,06,10,03,00,AAXX 10034 41960 02456 31802 10338 20280 30030 40031 83500 333 20289 58002 70000 83618==
41960,2024,06,10,06,00,AAXX 10064 41960 02456 51802 10358 20280 30022 40024 85410 333 58003 70000 83618 84459==
41960,2024,06,10,09,00,AAXX 10094 41960 02457 61803 10356 20290 30003 40005 85410 333 59001 70000 83618 86459==
41960,2024,06,10,12,00,AAXX 10124 41960 02456 21802 10330 20280 30002 40004 82500 333 10360 59002 70000 82618==
41960,2024,06,10,15,00,AAXX 10154 41960 02450 20000 10310 20280 30024 40025 82500 333 58002 70000 82618==
41960,2024,06,10,18,00,AAXX 10184 41960 02450 60000 10305 20290 30032 40034 84410 333 58007 70000 83618 86459==
41960,2024,06,10,21,00,AAXX 10214 41960 02550 10000 10300 20290 30033 40034 81100 333 58009 70000 81825==
41960,2024,06,11,00,00,AAXX 11004 41960 02450 30000 10293 20280 30030 40031 83450 333 58007 70000 82618==
41960,2024,06,11,03,00,AAXX 11034 41960 02456 51802 10340 20280 30025 40026 83430 333 59005 70000 82618 83362==
41960,2024,06,11,06,00,AAXX 11064 41960 02456 61802 10354 20270 30014 40016 85410 333 59008 70000 83618 85459==
41960,2024,06,11,09,00,AAXX 11094 41960 02457 51803 10347 20280 30007 40009 85411 333 58004 70000 83618 84460==
41960,2024,06,11,12,00,AAXX 11124 41960 02450 61802 10325 20280 30000 40002 84410 333 10364 59002 70000 83618 86459==
41960,2024,06,11,15,00,AAXX 11154 41960 02450 30000 10309 20280 30026 40027 83501 333 58002 70000 83618==
41960,2024,06,11,18,00,AAXX 11184 41960 02450 80000 10304 20280 30027 40028 8542/ 333 44459 59005 70000 84618==
41960,2024,06,11,21,00,AAXX 11214 41960 02450 60000 10298 20290 30024 40025 85410 333 59009 70000 83618 86459==
41960,2024,06,12,00,00,AAXX 12004 41960 02550 50000 10295 20290 30021 40022 82270 333 59009 70000 82825 84363==
41960,2024,06,12,03,00,AAXX 12034 41960 02456 60000 10320 20290 30039 40040 84470 333 20291 59014 70000 83618 85459==
41960,2024,06,12,06,00,AAXX 12064 41960 02456 81802 10333 20280 30031 40032 8542/ 333 58017 70000 83618 88459==
41960,2024,06,12,09,00,AAXX 12094 41960 02456 81803 10333 20280 30014 40016 8541/ 333 58007 70000 83618 83822 88460==
41960,2024,06,12,12,00,AAXX 12124 41960 02456 60000 10320 20280 30009 40010 85410 333 10340 58009 70000 83618 84459==
41960,2024,06,12,15,00,AAXX 12154 41960 02450 60000 10303 20280 30023 40024 84410 333 59003 70000 83618 86459==
41960,2024,06,12,18,00,AAXX 12184 41960 02450 50000 10300 20280 30024 40025 84410 333 59003 70000 83618 86459==
41960,2024,06,12,21,00,AAXX 12214 41960 02450 51801 10298 20280 30026 40027 83470 333 58002 70000 82618 83460==
41960,2024,06,13,00,00,AAXX 13004 41960 02550 41802 10296 20280 30024 40026 82170 333 58003 70000 82825 83363==
41960,2024,06,13,03,00,AAXX 13034 41960 02456 81802 10322 20270 30030 40031 8352/ 333 20292 59009 70000 83618 88458==
41960,2024,06,13,06,00,AAXX 13064 41960 02456 81304 10329 20280 30025 40026 8352/ 333 59006 70000 83618 88458==
41960,2024,06,13,09,00,AAXX 13094 41960 02456 71803 10340 20290 30005 40006 86410 333 59009 70000 84617 83822 87459==
41960,2024,06,13,12,00,AAXX 13124 41960 01450 81802 10318 20280 30000 40002 70162 8642/ 333 10347 59009 70000 84617 83822 88459==
41960,2024,06,13,15,00,AAXX 13154 41960 42450 81802 10306 20290 30026 40027 8632/ 333 58003 84617 83822 88459 81930==
41960,2024,06,13,18,00,AAXX 13184 41960 41450 80000 10299 20290 30024 40025 71322 8632/ 333 58000 84617 83822 88459 81930==
41960,2024,06,13,21,00,AAXX 13214 41960 42450 81801 10300 20290 30013 40014 8542/ 333 59013 83617 83822 88458==
41963,2024,06,07,00,00,AAXX 07004 41963 02456 30000 10290 20290 30042 40045 83500 333 59022 70000 82618==
41963,2024,06,07,03,00,AAXX 07034 41963 02350 81801 10300 20290 30047 40049 8372/ 333 20285 59028 70000 82708 83616 88458==
41963,2024,06,07,06,00,AAXX 07064 41963 21357 81802 10310 20280 30048 40051 70262 8372/ 333 59005 60025 70020 82710 83615 88458==
41963,2024,06,07,09,00,AAXX 07094 41963 02456 51801 10335 20290 30031 40033 82510 333 58001 70020 82616 85458==
41963,2024,06,07,12,00,AAXX 07124 41963 02450 71801 10315 20290 30021 40023 82510 333 10340 59009 70020 82708 87458==
41963,2024,06,07,15,00,AAXX 07154 41963 01340 51801 10300 20290 30028 40030 71322 83910 333 59025 70020 82618 85458 81926==
41963,2024,06,07,18,00,AAXX 07184 41963 01340 51801 10300 20290 30028 40030 71322 83910 333 59025 70020 82618 85458 81926==
41963,2024,06,07,21,00,AAXX 07214 41963 02430 61801 10300 20290 30047 40050 83570 333 58007 70020 83618 83458==
41963,2024,06,08,00,00,AAXX 08004 41963 02456 61801 10296 20290 30039 40042 83570 333 59003 70020 83618 83458==
41963,2024,06,08,06,00,AAXX 08064 41963 02456 61801 10320 20290 30042 40045 82510 333 59006 70000 82618 86458==
41963,2024,06,08,09,00,AAXX 08094 41963 02456 52103 10328 20290 30029 40032 82570 333 59002 70000 82618 83458==
41963,2024,06,08,12,00,AAXX 08124 41963 02456 52104 10315 20290 30020 40023 82560 333 10337 59001 70000 82618 85362==
41963,2024,06,08,15,00,AAXX 08154 41963 02440 21801 10300 20290 30030 40032 82500 333 58002 70000 82618==
41963,2024,06,08,21,00,AAXX 08214 41963 02/30 30000 10290 20280 30034 40037 83030 333 59013 70000 83363==
41963,2024,06,09,00,00,AAXX 09004 41963 02956 00000 10292 20280 30033 40036 333 59006 70000==
41963,2024,06,09,03,00,AAXX 09034 41963 02557 21804 10330 20280 30043 40046 82100 333 20285 59002 70000 82825==
41963,2024,06,09,06,00,AAXX 09064 41963 02557 21805 10340 20280 30028 40031 82100 333 59012 70000 82825==
41963,2024,06,09,09,00,AAXX 09094 41963 02457 51802 10324 20280 30018 40020 83460 333 59009 70000 82618 83363==
41963,2024,06,09,12,00,AAXX 09124 41963 02457 81803 10316 20290 30020 40023 8351/ 333 10346 58000 70000 83618 88457==
41963,2024,06,09,18,00,AAXX 09184 41963 NIL=
41963,2024,06,09,21,00,AAXX 09214 41963 02/30 30000 10294 20280 30034 40037 83030 333 58000 70000 83363==
41963,2024,06,10,00,00,AAXX 10004 41963 02956 00000 10287 20287 30035 40038 333 58002 70000==
41963,2024,06,10,03,00,AAXX 10034 41963 02457 11803 10330 20280 30037 40040 81500 333 20283 59006 70000 81618==
41963,2024,06,10,06,00,AAXX 10064 41963 02457 31304 10335 20290 30036 40039 83400 333 58008 70000 81618 83825==
41963,2024,06,10,09,00,AAXX 10094 41963 02457 31303 10322 20280 30019 40022 83400 333 58001 70000 81618 83825==
41963,2024,06,10,12,00,AAXX 10124 41963 02/57 32102 10318 20290 30018 40021 83040 333 10340 59002 70000 83363==
41963,2024,06,10,15,00,AAXX 10154 41963 02450 21801 10304 20290 30033 40036 82500 333 59001 70000 82618==
41963,2024,06,10,18,00,AAXX 10184 41963 NIL=
41963,2024,06,10,21,00,AAXX 10214 41963 02930 00000 10296 20290 30032 40035 333 59002 70000==
41963,2024,06,11,00,00,AAXX 11004 41963 02/56 30000 10290 20290 30037 40040 83060 333 58002 70000 83363==
41963,2024,06,11,03,00,AAXX 11034 41963 02457 21801 10330 20270 30040 40043 82500 333 20285 58003 70000 82618==
41963,2024,06,11,06,00,AAXX 11064 41963 02457 41403 10340 20290 30031 40033 84400 333 59005 70000 82618 83825==
41963,2024,06,11,09,00,AAXX 11094 41963 02457 22103 10344 20280 30016 40019 82500 333 59003 70000 82618==
41963,2024,06,11,12,00,AAXX 11124 41963 02457 22104 10320 20280 30016 40019 82500 333 10348 59002 70000 82618==
41963,2024,06,11,18,00,AAXX 11184 41963 02440 61802 10302 20280 30029 40032 83570 333 59004 70000 83618 84458==
41963,2024,06,11,21,00,AAXX 11214 41963 02340 80000 10297 20290 30028 40031 8471/ 333 59004 70000 81710 83617 88457==
41963,2024,06,12,00,00,AAXX 12004 41963 02357 80000 10295 20290 30026 40029 8441/ 333 59011 70000 82618 83825 88457==
41963,2024,06,12,03,00,AAXX 12034 41963 02457 81803 10324 20280 30048 40050 8442/ 333 20290 58008 70000 82618 88458==
41963,2024,06,12,06,00,AAXX 12064 41963 01357 82103 10312 20290 30036 40039 72922 8472/ 333 58005 70000 82710 83616 88458==
41963,2024,06,12,09,00,AAXX 12094 41963 02357 81804 10310 20270 30034 40037 8471/ 333 58018 70000 82712 83617 88457==
41963,2024,06,12,12,00,AAXX 12124 41963 01357 81803 10290 20280 30026 40028 72122 8472/ 333 10327 58010 70010 82710 83617 88458==
41963,2024,06,12,15,00,AAXX 12154 41963 02340 81804 10294 20270 30036 40039 8472/ 333 58007 70010 82710 83617 88458==
41963,2024,06,12,18,00,AAXX 12184 41963 01340 80000 10290 20280 30034 40037 70262 8472/ 333 58000 70010 82710 83617 88458==
41963,2024,06,12,21,00,AAXX 12214 41963 02440 61803 10288 20280 30040 40043 83570 333 58012 70020 83617 84458==
41963,2024,06,13,00,00,AAXX 13004 41963 02457 62104 10292 20270 30041 40044 83570 333 58015 70020 83617 84458==
41963,2024,06,13,03,00,AAXX 13034 41963 02457 41306 10303 20280 30045 40048 81530 333 20285 59003 70020 81618 84363==
41963,2024,06,13,06,00,AAXX 13064 41963 02457 51806 10320 20270 30038 40041 83570 333 58002 70020 83617 83457==
41963,2024,06,13,09,00,AAXX 13094 41963 02457 51407 10320 20280 30025 40028 83530 333 59009 70020 83618 84363==
41963,2024,06,13,12,00,AAXX 13124 41963 02457 61807 10303 20280 30020 40023 83570 333 10330 59006 70010 83617 83457==
41963,2024,06,13,15,00,AAXX 13154 41963 01440 71802 10300 20280 30027 40030 71322 83970 333 59004 70010 83618 85458 81928==
41963,2024,06,13,21,00,AAXX 13214 41963 01340 81802 10272 20260 30026 40029 70262 8572/ 333 59014 70390 82709 83615 88458==
41964,2024,06,07,00,00,AAXX 07004 41964 02457 61602 10298 20290 30029 40031 83501 333 59019 70000 83618 84078==
41964,2024,06,07,03,00,AAXX 07034 41964 02357 81801 10299 20260 30040 40042 8562/ 333 20289 59024 70000 83709 83617 88459==
41964,2024,06,07,06,00,AAXX 07064 41964 11357 80000 10295 20290 30035 40037 60012 72162 8432/ 333 59018 70006 83617 88458 81928==
41964,2024,06,07,09,00,AAXX 07094 41964 02357 71603 10312 20270 30017 40019 8661/ 333 59012 70006 82708 85616 87460==
41964,2024,06,07,12,00,AAXX 07124 41964 02457 71604 10291 20260 30015 40017 8551/ 333 10318 59005 70006 85616 87460==
41964,2024,06,07,15,00,AAXX 07154 41964 01357 81603 10289 20270 30031 40033 71322 8632/ 333 59011 70006 81709 85616 88460 81930==
41964,2024,06,07,18,00,AAXX 07184 41964 01325 81804 10274 20260 30039 40042 79792 8692/ 333 58006 70100 85707 85614 88457 82928==
41964,2024,06,07,21,00,AAXX 07214 41964 01356 81602 10270 20260 30032 40035 70296 8662/ 333 58001 70310 82708 85615 88459==
41964,2024,06,08,00,00,AAXX 08004 41964 11356 71402 10285 20280 30025 40027 60206 70196 85610 333 59004 70310 81709 85615 86460==
41964,2024,06,08,03,00,AAXX 08034 41964 01357 81601 10290 20260 30037 40039 70396 8532/ 333 20249 59003 70316 83709 83617 88459 81928==
41964,2024,06,08,06,00,AAXX 08064 41964 11457 71802 10332 20270 30036 40038 60016 70196 83520 333 58001 70310 83618 86460==
41964,2024,06,08,09,00,AAXX 08094 41964 02457 62105 10334 20270 30014 40016 83512 333 59003 70310 83617 84460==
41964,2024,06,08,12,00,AAXX 08124 41964 02457 62104 10314 20270 30008 40010 82512 333 10336 59007 70310 82617 84078==
41964,2024,06,08,15,00,AAXX 08154 41964 02457 61802 10302 20280 30019 40021 85510 333 59012 70310 85617 83460==
41964,2024,06,08,18,00,AAXX 08184 41964 02457 71803 10295 20290 30022 40024 84510 333 59017 70210 84617 86460==
41964,2024,06,08,21,00,AAXX 08214 41964 02457 61802 10293 20280 30020 40022 84510 333 59012 70006 84618 85460==
41964,2024,06,09,00,00,AAXX 09004 41964 02457 62103 10300 20280 30016 40018 83412 333 59009 70006 82618 84078==
41964,2024,06,09,03,00,AAXX 09034 41964 02457 61603 10330 20280 30030 40032 84510 333 20283 59007 70000 84618 84460==
41964,2024,06,09,06,00,AAXX 09064 41964 02457 51704 10340 20280 30021 40024 83510 333 59015 70000 83618 84460==
41964,2024,06,09,09,00,AAXX 09094 41964 01457 72102 10288 20270 30005 40007 72996 84510 333 59009 70016 84616 86460==
41964,2024,06,09,12,00,AAXX 09124 41964 21457 70000 10300 20280 30004 40007 70296 83510 333 10342 59004 60028 70016 83617 87460==
41964,2024,06,09,15,00,AAXX 09154 41964 02457 41802 10304 20280 30017 40019 82510 333 59002 70016 82618 83460==
41964,2024,06,09,18,00,AAXX 09184 41964 02456 21702 10300 20280 30025 40027 82500 333 58003 70016 82618==
41964,2024,06,09,21,00,AAXX 09214 41964 02456 41602 10296 20290 30023 40025 83510 333 58003 70016 83618 83460==
41964,2024,06,10,00,00,AAXX 10004 41964 02557 41802 10297 20290 30020 40022 84401 333 58004 70016 83620==
41964,2024,06,10,03,00,AAXX 10034 41964 02457 51702 10325 20290 30026 40028 85410 333 20267 59004 70016 84617 83460==
41964,2024,06,10,06,00,AAXX 10064 41964 01457 71802 10340 20280 30029 40031 71722 84320 333 58008 70016 83618 86460 81928==
41964,2024,06,10,09,00,AAXX 10094 41964 01457 51602 10307 20270 30009 40012 70196 82510 333 58004 70040 82618 84460==
41964,2024,06,10,12,00,AAXX 10124 41964 11/57 51802 10313 20260 30001 40004 60046 70296 83032 333 10342 59003 70040 83362 83080==
41964,2024,06,10,15,00,AAXX 10154 41964 02/56 20000 10290 20270 30020 40022 82010 333 58003 70040 82460==
41964,2024,06,10,18,00,AAXX 10184 41964 02456 50000 10292 20270 30027 40029 83510 333 58002 70040 83618 83460==
41964,2024,06,10,21,00,AAXX 10214 41964 02456 51602 10290 20280 30026 40028 85500 333 58003 70040 85617==
41964,2024,06,11,00,00,AAXX 11004 41964 02557 60000 10291 20280 30027 40029 83401 333 58007 70040 82620 84080==
41964,2024,06,11,03,00,AAXX 11034 41964 02557 51802 10331 20280 30026 40028 85400 333 20265 58000 70040 82620 83825==
41964,2024,06,11,06,00,AAXX 11064 41964 02457 51802 10347 20280 30018 40020 85400 333 59011 70040 83618 83825==
41964,2024,06,11,09,00,AAXX 11094 41964 02557 22104 10341 20280 30003 40005 82200 333 59006 70000 82825==
41964,2024,06,11,12,00,AAXX 11124 41964 02457 61803 10325 20290 39997 49999 82502 333 10351 59004 70000 82618 85078==
41964,2024,06,11,15,00,AAXX 11154 41964 02457 70000 10306 20290 30015 40018 83510 333 59005 70000 83618 86460==
41964,2024,06,11,18,00,AAXX 11184 41964 02457 32102 10305 20290 30023 40026 83500 333 59004 70000 83618==
41964,2024,06,11,21,00,AAXX 11214 41964 02456 60000 10301 20290 30021 40023 83510 333 59005 70000 83618 85460==
41964,2024,06,12,00,00,AAXX 12004 41964 02456 70000 10297 20290 30019 40021 84510 333 59008 70000 84617 86460==
41964,2024,06,12,03,00,AAXX 12034 41964 02357 81602 10307 20280 30038 40040 8662/ 333 20288 58012 70000 82709 85616 88460==
41964,2024,06,12,06,00,AAXX 12064 41964 01357 81403 10294 20270 30036 40038 71796 8632/ 333 58018 70004 82709 85616 88460 81928==
41964,2024,06,12,09,00,AAXX 12094 41964 01357 81805 10295 20280 30017 40019 70296 8632/ 333 58014 70006 82709 85615 88460 81928==
41964,2024,06,12,12,00,AAXX 12124 41964 01457 71604 10295 20280 30015 40017 70196 83570 333 10309 58018 70008 83617 83460 85362==
41964,2024,06,12,15,00,AAXX 12154 41964 02357 71805 10296 20270 30027 40029 85610 333 58012 70008 81709 85616 87460==
41964,2024,06,12,18,00,AAXX 12184 41964 02456 61704 10296 20270 30026 40028 84510 333 58003 70008 84617 83460==
41964,2024,06,12,21,00,AAXX 12214 41964 02456 72104 10290 20260 30027 40029 84510 333 58006 70008 84617 86460==
41964,2024,06,13,00,00,AAXX 13004 41964 01457 72105 10292 20260 30024 40026 71722 8537/ 333 58005 70008 84616 85460 81928==
41964,2024,06,13,03,00,AAXX 13034 41964 01457 71704 10310 20270 30033 40035 70292 83570 333 20281 59005 70008 83618 85362==
41964,2024,06,13,06,00,AAXX 13064 41964 NIL=
41964,2024,06,13,09,00,AAXX 13094 41964 02457 51704 10317 20270 30013 40015 83510 333 59004 70002 83618 84460==
41964,2024,06,13,12,00,AAXX 13124 41964 02457 61803 10300 20270 30005 40008 82510 333 10328 59010 70000 82619 85460==
41964,2024,06,13,15,00,AAXX 13154 41964 01456 81801 10300 20280 30033 40035 71322 8532/ 333 58006 70000 84617 88459 81930==
41965,2024,06,07,00,00,AAXX 07004 41965 02440 51401 10281 20280 30031 40040 83610 333 59024 70000 83618 84460==
41965,2024,06,07,03,00,AAXX 07034 41965 02450 50000 10315 20270 30041 40050 84610 333 20263 59023 70000 83618 84460==
41965,2024,06,07,06,00,AAXX 07064 41965 01440 80000 10280 20250 30032 40041 76122 8461/ 333 59014 70130 81710 83618 88456==
41965,2024,06,07,09,00,AAXX 07094 41965 02450 82601 10312 20270 30016 40025 8461/ 333 59012 70130 83618 88460==
41965,2024,06,07,12,00,AAXX 07124 41965 02440 61402 10280 20250 30016 40025 84610 333 10335 59003 70130 83618 86460==
41965,2024,06,07,15,00,AAXX 07154 41965 02430 60000 10270 20240 30034 40043 84610 333 59007 70130 83618 86460==
41965,2024,06,07,18,00,AAXX 07184 41965 02430 50000 10265 20250 30036 40045 84610 333 59009 70130 83618 86460==
41965,2024,06,08,00,00,AAXX 08004 41965 02440 81401 10280 20250 30037 40046 8461/ 333 58006 70130 83618 88460==
41965,2024,06,08,03,00,AAXX 08034 41965 02440 80000 10280 20250 30042 40051 8461/ 333 20250 58001 70130 83618 88460==
41965,2024,06,08,06,00,AAXX 08064 41965 02450 51403 10325 20280 30030 40039 84610 333 59002 70000 83618 84460==
41965,2024,06,08,09,00,AAXX 08094 41965 02450 51402 10325 20270 30012 40021 84610 333 59004 70000 83618 84460==
41965,2024,06,08,12,00,AAXX 08124 41965 02440 61401 10301 20280 30007 40016 84610 333 10344 59016 70000 83618 86460==
41965,2024,06,08,15,00,AAXX 08154 41965 02440 60000 10280 20250 30023 40032 84610 333 59011 70000 83618 84460==
41965,2024,06,08,21,00,AAXX 08214 41965 02430 60000 10275 20260 30028 40037 84610 333 59009 70000 83618 84460==
41965,2024,06,09,00,00,AAXX 09004 41965 02430 80000 10280 20270 30020 40029 8461/ 333 59017 70000 81710 83618 88460==
41965,2024,06,09,03,00,AAXX 09034 41965 02450 31402 10320 20270 30032 40041 83600 333 20267 59010 70000 83618==
41965,2024,06,09,06,00,AAXX 09064 41965 02456 32203 10345 20280 30022 40031 83600 333 59008 70000 83618==
41965,2024,06,09,09,00,AAXX 09094 41965 01440 80000 10265 20250 39997 40006 70362 8461/ 333 59015 70030 81710 83618 88456==
41965,2024,06,09,12,00,AAXX 09124 41965 11440 80000 10275 20250 30004 40012 60036 70262 8461/ 333 10340 59003 70030 83618 88460==
41965,2024,06,09,15,00,AAXX 09154 41965 02430 80000 10275 20260 30022 40031 8461/ 333 59001 70030 83618 88460==
41965,2024,06,09,18,00,AAXX 09184 41965 NIL=
41965,2024,06,09,21,00,AAXX 09214 41965 02530 50000 10270 20250 30026 40035 84610 333 59002 70030 83618 84460==
41965,2024,06,10,00,00,AAXX 10004 41965 02440 50801 10285 20280 30023 40032 84610 333 58003 70030 83618 84460==
41965,2024,06,10,03,00,AAXX 10034 41965 02450 50000 10325 20280 30028 40037 84610 333 20240 59004 70030 83618 84460==
41965,2024,06,10,06,00,AAXX 10064 41965 02430 80000 10285 20250 30034 40043 8461/ 333 58012 70030 81710 83618 88460==
41965,2024,06,10,12,00,AAXX 10124 41965 12440 61401 10300 20270 30004 40013 60056 84610 333 10355 58000 70050 83618 84460==
41965,2024,06,10,15,00,AAXX 10154 41965 02430 60000 10278 20260 30022 40031 84610 333 58000 70050 83618 84460==
41965,2024,06,10,18,00,AAXX 10184 41965 NIL=
41965,2024,06,10,21,00,AAXX 10214 41965 02430 50000 10275 30025 40034 84610 333 59001 70050 83618 84460==
41965,2024,06,11,00,00,AAXX 11004 41965 02440 31401 10285 20280 30033 40042 83600 333 58010 70050 83618==
41965,2024,06,11,03,00,AAXX 11034 41965 02450 32202 10335 20270 30027 40036 83600 333 20256 59001 70050 83618==
41965,2024,06,11,06,00,AAXX 11064 41965 02456 32601 10345 20280 30018 40027 83600 333 59010 70050 83618==
41965,2024,06,11,09,00,AAXX 11094 41965 02456 31402 10342 20280 39998 40007 83600 333 59005 70000 83618==
41965,2024,06,11,12,00,AAXX 11124 41965 02440 30000 10320 20270 39999 40008 83600 333 10360 59005 70000 83618==
41965,2024,06,11,21,00,AAXX 11214 41965 02430 60000 10290 20270 30018 40027 84610 333 59007 70000 83618 84460==
41965,2024,06,12,00,00,AAXX 12004 41965 02440 80000 10285 20270 30028 40037 8461/ 333 59005 70000 81710 83618 88460==
41965,2024,06,12,03,00,AAXX 12034 41965 02440 80000 10310 20260 30039 40048 8461/ 333 20280 58012 70000 83618 88460==
41965,2024,06,12,06,00,AAXX 12064 41965 21450 81404 10285 20270 30040 40049 70297 8461/ 333 58022 60025 70020 81710 83618 88460==
41965,2024,06,12,09,00,AAXX 12094 41965 02450 81402 10280 20260 30015 40024 8461/ 333 58017 70020 81710 83618 88460==
41965,2024,06,12,12,00,AAXX 12124 41965 02430 80000 10290 20260 30018 40027 8461/ 333 10305 58019 70020 81710 83618 88460==
41965,2024,06,12,15,00,AAXX 12154 41965 02430 80000 10280 20250 30028 40037 8461/ 333 58014 70020 83618 88460==
41965,2024,06,12,18,00,AAXX 12184 41965 02430 80000 10275 20260 30029 40038 8461/ 333 58013 70020 81710 83618 88460==
41965,2024,06,12,21,00,AAXX 12214 41965 01430 81401 10275 20260 30030 40039 70296 8461/ 333 58012 70050 81710 83618 88460==
41965,2024,06,13,00,00,AAXX 13004 41965 11430 81301 10274 20270 30029 40038 60036 70296 8461/ 333 58002 70050 81710 83618 88460==
41965,2024,06,13,03,00,AAXX 13034 41965 02440 80000 10300 20260 30034 40043 8461/ 333 20269 59005 70050 83618 88460==
41965,2024,06,13,06,00,AAXX 13064 41965 02450 52204 10320 20270 30030 40039 84610 333 59010 70030 83618 84460==
41965,2024,06,13,09,00,AAXX 13094 41965 02450 61302 10316 20270 30010 40019 84610 333 59005 70030 83618 84460==
41965,2024,06,13,12,00,AAXX 13124 41965 02440 62201 10300 20250 30007 40016 84610 333 10334 59011 70030 83618 84460==
41965,2024,06,13,15,00,AAXX 13154 41965 02440 31404 10295 20280 30042 40051 83600 333 58014 70030 83618==
41965,2024,06,13,21,00,AAXX 13214 41965 02430 81302 10260 20250 30046 40055 8461/ 333 58016 70150 81710 83618 88460==
41966,2024,06,07,00,00,AAXX 07004 41966 02440 50901 10285 20250 39976 40054 82510 333 59018 70005 82616 84460==
41966,2024,06,07,03,00,AAXX 07034 41966 02450 50901 10315 20250 39980 40057 82510 333 20272 59019 70005 82616 84460==
41966,2024,06,07,06,00,AAXX 07064 41966 01350 82201 10250 20230 39974 40053 72196 8472/ 333 59011 70240 82709 83615 88460==
41966,2024,06,07,09,00,AAXX 07094 41966 01450 71501 10268 20240 39962 40040 70196 83510 333 59003 70247 83616 86460==
41966,2024,06,07,12,00,AAXX 07124 41966 NIL=
41966,2024,06,07,15,00,AAXX 07154 41966 02430 71501 10265 20230 39978 40057 83510 333 58005 70242 83616 86460==
41966,2024,06,07,18,00,AAXX 07184 41966 01330 81802 10260 20240 39993 40072 79596 8492/ 333 58002 70090 82709 83615 88460 81930==
41966,2024,06,08,00,00,AAXX 08004 41966 11440 80901 10255 20240 39983 40062 60026 79262 8352/ 333 58008 70342 83616 88460==
41966,2024,06,08,03,00,AAXX 08034 41966 01340 80902 10252 20230 39989 40068 72166 8472/ 333 20250 58011 70682 82709 83615 88460==
41966,2024,06,08,06,00,AAXX 08064 41966 21450 71301 10270 20220 39975 40053 70162 83510 333 58000 60348 70440 83616 86460==
41966,2024,06,08,09,00,AAXX 08094 41966 02450 71501 10310 20220 39954 40031 83510 333 59009 70440 83616 86460==
41966,2024,06,08,12,00,AAXX 08124 41966 02440 71201 10290 20220 39950 40028 83510 333 10313 59009 70440 83616 86460==
41966,2024,06,08,15,00,AAXX 08154 41966 02430 61502 10289 20240 39958 40037 82510 333 59020 70449 82616 85460==
41966,2024,06,08,21,00,AAXX 08214 41966 02430 62101 10268 20230 39961 40039 82510 333 59031 70340 82616 85460==
41966,2024,06,09,00,00,AAXX 09004 41966 02440 60901 10270 20230 39958 40037 83510 333 59025 70340 83616 85460==
41966,2024,06,09,03,00,AAXX 09034 41966 02450 51201 10315 20250 39975 40052 82510 333 20256 59016 70000 82616 84460==
41966,2024,06,09,06,00,AAXX 09064 41966 02550 41501 10340 20250 39958 40035 82130 333 59018 70000 82826 83362==
41966,2024,06,09,09,00,AAXX 09094 41966 01340 81802 10280 20240 39950 40028 79592 8472/ 333 59003 70070 82709 83615 88460 81930==
41966,2024,06,09,12,00,AAXX 09124 41966 21340 81801 10265 20250 39943 40022 70196 8472/ 333 10345 59006 60237 70228 82709 83616 88460==
41966,2024,06,09,18,00,AAXX 09184 41966 NIL=
41966,2024,06,09,21,00,AAXX 09214 41966 02420 51701 10268 20250 39953 40032 82510 333 59007 70228 82616 84460==
41966,2024,06,10,00,00,AAXX 10004 41966 02440 50901 10270 20250 39958 40037 82510 333 58000 70228 82616 84460==
41966,2024,06,10,03,00,AAXX 10034 41966 02450 51301 10325 20240 39973 40050 82510 333 20255 59002 70228 82616 84460==
41966,2024,06,10,06,00,AAXX 10064 41966 02350 83102 10308 20200 39974 40051 8472/ 333 59016 70228 82709 83618 88460==
41966,2024,06,10,09,00,AAXX 10094 41966 02450 71801 10290 20230 39940 40018 83510 333 59010 70158 83616 86460==
41966,2024,06,10,12,00,AAXX 10124 41966 02440 61801 10295 20250 39948 40026 82510 333 10330 58004 70000 82616 85460==
41966,2024,06,10,15,00,AAXX 10154 41966 02430 61501 10285 20260 39953 40031 82510 333 58002 70000 82616 85460==
41966,2024,06,10,18,00,AAXX 10184 41966 NIL=
41966,2024,06,10,21,00,AAXX 10214 41966 02420 61201 10280 20250 39952 40030 82510 333 59002 70000 82616 85460==
41966,2024,06,11,00,00,AAXX 11004 41966 02440 61301 10275 20260 39953 40031 82510 333 59006 70000 82616 85460==
41966,2024,06,11,03,00,AAXX 11034 41966 02450 51301 10325 20250 39965 40042 82510 333 20262 59008 70000 82616 84460==
41966,2024,06,11,06,00,AAXX 11064 41966 02450 51501 10340 20230 39955 40031 82510 333 59020 70000 82616 84460==
41966,2024,06,11,09,00,AAXX 11094 41966 02450 41801 10348 20220 39931 40006 82510 333 59012 70000 82616 83460==
41966,2024,06,11,12,00,AAXX 11124 41966 02440 41201 10320 20240 39934 40011 82510 333 10356 59015 70000 82616 83460==
41966,2024,06,11,15,00,AAXX 11154 41966 02430 41502 10290 20240 39950 40028 82510 333 59003 70000 82616 83460==
41966,2024,06,11,21,00,AAXX 11214 41966 02420 62101 10270 20220 39945 40024 83510 333 59006 70000 83616 85460==
41966,2024,06,12,00,00,AAXX 12004 41966 01440 80901 10265 20250 39948 40027 72122 8352/ 333 59004 70005 83616 88460==
41966,2024,06,12,03,00,AAXX 12034 41966 02450 71301 10300 20250 39982 40060 83510 333 20260 58018 70005 83616 86460==
41966,2024,06,12,06,00,AAXX 12064 41966 01350 81501 10260 20240 39982 40061 79596 8472/ 333 58030 70350 82709 83615 88460==
41966,2024,06,12,12,00,AAXX 12124 41966 11440 61501 10290 20240 39953 40031 69986 70196 83510 333 10305 58020 70363 83616 86460==
41966,2024,06,12,15,00,AAXX 12154 41966 02430 61801 10280 20250 39958 40036 82510 333 58008 70363 82616 85460==
41966,2024,06,12,18,00,AAXX 12184 41966 02420 61801 10270 20240 39953 40032 82510 333 58005 70363 82616 85460==
41966,2024,06,12,21,00,AAXX 12214 41966 02420 61701 10265 20240 39951 40030 82510 333 58006 70363 82616 85460==
41966,2024,06,13,00,00,AAXX 13004 41966 21340 81201 10260 20240 39961 40039 76162 8472/ 333 58012 60037 70388 82709 83615 88460==
41966,2024,06,13,03,00,AAXX 13034 41966 01450 71301 10281 20250 39978 40056 70162 83510 333 20255 59004 70418 83616 86460==
41966,2024,06,13,06,00,AAXX 13064 41966 21450 71301 10320 20210 39967 40044 70262 83510 333 59017 60038 70068 83616 86460==
41966,2024,06,13,09,00,AAXX 13094 41966 02450 61801 10325 20210 39946 40023 83510 333 59010 70060 83616 85460==
41966,2024,06,13,12,00,AAXX 13124 41966 02440 61502 10310 20240 39941 40018 83510 333 10330 59013 70060 83616 85460==
41966,2024,06,13,15,00,AAXX 13154 41966 02430 61201 10290 20250 39963 40041 83510 333 59005 70060 83616 85460==
41966,2024,06,13,21,00,AAXX 13214 41966 02420 51601 10270 20230 39941 40019 82510 333 59011 70060 82616 84460==
41977,2024,06,07,00,00,AAXX 07004 41977 01450 81002 10280 20260 30020 40058 70552 8532/ 333 59022 70040 84615 88460 81928==
41977,2024,06,07,03,00,AAXX 07034 41977 01456 71803 10316 20270 30028 40065 70522 84530 333 20270 59015 70010 84618 86362==
41977,2024,06,07,06,00,AAXX 07064 41977 01450 82604 10313 20260 30023 40060 70522 8462/ 333 59009 70010 84616 88460==
41977,2024,06,07,09,00,AAXX 07094 41977 01456 81803 10287 20270 30009 40046 70262 8452/ 333 59004 70012 84616 88458==
41977,2024,06,07,12,00,AAXX 07124 41977 11356 81803 10278 20250 30005 40043 69926 70262 8562/ 333 10326 58002 70012 82710 85615 88458==
41977,2024,06,07,15,00,AAXX 07154 41977 01450 71802 10268 20240 30022 40059 70522 84510 333 59009 70012 84617 87459==
41977,2024,06,07,18,00,AAXX 07184 41977 01350 71803 10272 20240 30027 40065 71722 83910 333 58003 70012 82710 84615 87459 81928==
41977,2024,06,07,21,00,AAXX 07214 41977 01450 70000 10267 20240 30011 40049 70592 84310 333 59005 70008 83618 86460==
41977,2024,06,08,00,00,AAXX 08004 41977 01450 70000 10271 20250 30012 40049 70592 83510 333 59008 70002 83618 86460==
41977,2024,06,08,03,00,AAXX 08034 41977 01450 80000 10300 20270 30030 40068 76162 8432/ 333 20266 58002 70018 82710 82618 88460 81928==
41977,2024,06,08,06,00,AAXX 08064 41977 01450 70904 10310 20260 30030 40067 70162 84510 333 58007 70020 84616 87460==
41977,2024,06,08,09,00,AAXX 08094 41977 02356 81302 10316 20270 30005 40042 8562/ 333 59004 70020 82710 84615 88458==
41977,2024,06,08,12,00,AAXX 08124 41977 02356 81803 10296 20260 39997 40034 8562/ 333 10323 59008 70020 82710 84615 88458==
41977,2024,06,08,15,00,AAXX 08154 41977 01350 72304 10284 20250 30013 40051 70522 85610 333 59009 70020 81710 84616 87459==
41977,2024,06,08,18,00,AAXX 08184 41977 01450 72103 10280 20260 30014 40051 72022 84530 333 59013 70000 84615 86362==
41977,2024,06,08,21,00,AAXX 08214 41977 01450 71304 10278 20270 30006 40043 70522 83570 333 59005 70020 83615 85460==
41977,2024,06,09,00,00,AAXX 09004 41977 01450 71304 10280 20260 30010 40047 70522 84570 333 59002 70020 84615 85460==
41977,2024,06,09,03,00,AAXX 09034 41977 01450 61303 10310 20270 30018 40055 70522 83530 333 20274 59012 70004 83618 86362==
41977,2024,06,09,06,00,AAXX 09064 41977 01456 61403 10338 20270 30014 40051 70522 84510 333 59016 70000 84617 86460==
41977,2024,06,09,09,00,AAXX 09094 41977 01450 80000 10286 20270 39976 40013 76122 8462/ 333 59029 70012 83618 88460 81930==
41977,2024,06,09,12,00,AAXX 09124 41977 NIL=
41977,2024,06,09,15,00,AAXX 09154 41977 01450 51503 10284 20260 30012 40050 70522 83530 333 59001 70018 83618 85362==
41977,2024,06,09,18,00,AAXX 09184 41977 01450 71804 10283 20260 30015 40053 72022 84570 333 58001 70002 84615 85460==
41977,2024,06,09,21,00,AAXX 09214 41977 01450 71304 10282 20270 30009 40047 70552 84570 333 58001 70022 84615 85460==
41977,2024,06,10,00,00,AAXX 10004 41977 11350 71803 10284 20260 30015 40053 69926 70552 85670 333 58005 70022 81708 84615 85460==
41977,2024,06,10,03,00,AAXX 10034 41977 01450 61303 10318 20270 30019 40056 70522 83530 333 20276 58001 70022 83618 86362==
41977,2024,06,10,06,00,AAXX 10064 41977 01450 73604 10340 20260 30016 40053 70522 84570 333 58002 70022 81709 84615 85460==
41977,2024,06,10,09,00,AAXX 10094 41977 02456 70000 10313 20250 39994 40031 84570 333 58018 70010 84617 86458==
41977,2024,06,10,12,00,AAXX 10124 41977 02456 71302 10300 20250 39993 40030 83530 333 10342 58002 70010 83618 87363==
41977,2024,06,10,15,00,AAXX 10154 41977 02456 60000 10287 20260 30007 40044 83510 333 59005 70004 83618 86460==
41977,2024,06,10,18,00,AAXX 10184 41977 02456 70000 10282 20260 30013 40051 83510 333 59002 70002 83618 87460==
41977,2024,06,10,21,00,AAXX 10214 41977 02456 70000 10278 20260 30008 40046 83510 333 59001 70000 83618 87460==
41977,2024,06,11,00,00,AAXX 11004 41977 01450 70000 10281 20260 30019 40057 70522 84510 333 58004 70000 84618 87460==
41977,2024,06,11,03,00,AAXX 11034 41977 01450 60000 10330 20280 30029 40067 70522 84510 333 20275 58010 70000 84618 86460==
41977,2024,06,11,06,00,AAXX 11064 41977 01450 60000 10350 20260 30018 40055 70522 84510 333 58002 70000 84618 84462==
41977,2024,06,11,09,00,AAXX 11094 41977 01450 52704 10338 20280 39988 40025 70522 83530 333 59006 70000 83618 85362==
41977,2024,06,11,12,00,AAXX 11124 41977 01450 72104 10324 20270 39986 40023 70522 85370 333 10358 59007 70000 84617 85460 81928==
41977,2024,06,11,15,00,AAXX 11154 41977 01450 71804 10316 20280 30008 40045 70522 83570 333 58001 70000 83617 85459==
41977,2024,06,11,18,00,AAXX 11184 41977 01450 71804 10298 20270 30014 40052 70522 83570 333 58001 70000 83617 85459==
41977,2024,06,11,21,00,AAXX 11214 41977 01450 70000 10295 20270 30007 40044 70522 83570 333 59001 70000 83617 85459==
41977,2024,06,12,00,00,AAXX 12004 41977 01350 70000 10280 20260 30007 40045 70522 85670 333 59012 70000 81708 84615 85460==
41977,2024,06,12,03,00,AAXX 12034 41977 01350 71603 10300 20270 30033 40071 70522 85670 333 20265 58004 70000 81708 84614 85460==
41977,2024,06,12,06,00,AAXX 12064 41977 21345 80000 10274 20260 30028 40066 76161 8672/ 333 58010 60087 70080 82708 84614 88458==
41977,2024,06,12,09,00,AAXX 12094 41977 01450 80000 10291 20270 30001 40038 70262 8432/ 333 58013 70104 82710 82616 88460 81928==
41977,2024,06,12,12,00,AAXX 12124 41977 11450 80000 10292 20260 30004 40041 60026 70262 8452/ 333 10300 58018 70104 84618 88460==
41977,2024,06,12,15,00,AAXX 12154 41977 01450 71802 10283 20260 30020 40057 70522 83570 333 58015 70104 83618 86459==
41977,2024,06,12,18,00,AAXX 12184 41977 01440 71805 10282 20260 30018 40055 70522 84570 333 58004 70104 84617 85460==
41977,2024,06,12,21,00,AAXX 12214 41977 01440 71803 10278 20260 30010 40047 70522 84570 333 58003 70104 84617 85460==
41977,2024,06,13,00,00,AAXX 13004 41977 11340 81804 10270 20260 30017 40055 60072 76162 8632/ 333 58010 70174 82708 84615 88458 81928==
41977,2024,06,13,03,00,AAXX 13034 41977 01445 70000 10295 20260 30026 40064 70561 84570 333 20263 59007 70184 84616 86460==
41977,2024,06,13,06,00,AAXX 13064 41977 11450 71003 10310 20260 30014 40052 60016 70561 84570 333 59014 70104 84617 85460==
41977,2024,06,13,09,00,AAXX 13094 41977 01450 71003 10320 20260 30004 40041 70522 84570 333 58003 70080 81617 85460==
41977,2024,06,13,12,00,AAXX 13124 41977 01450 81802 10313 20250 39997 40034 70522 84570 333 10330 59007 70080 84617 86460==
41977,2024,06,13,15,00,AAXX 13154 41977 01450 70000 10303 20280 30019 40056 70522 84510 333 59001 70080 84618 87460==
41977,2024,06,13,18,00,AAXX 13184 41977 21440 80000 10250 20250 30001 40039 79162 8432/ 333 59017 60197 70272 82709 88460 81928==
41977,2024,06,13,21,00,AAXX 13214 41977 01445 80000 10246 20240 39988 40026 70296 8432/ 333 59022 70284 83616 88460 81928==
41978,2024,06,07,00,00,AAXX 07004 41978 21450 40000 10278 20270 30037 40043 70562 82510 333 59021 60495 70496 82618 83460==
41978,2024,06,07,01,00,AAXX 07014 41978 01450 81804 10263 20260 30039 40045 72121 8432/ 333 59011 70496 84616 88459 81929==
41978,2024,06,07,03,00,AAXX 07034 41978 02450 70000 10320 20290 30043 40050 84320 333 20258 59019 70492 83617 87460 81929==
41978,2024,06,07,06,00,AAXX 07064 41978 01450 72311 10318 20293 30034 40040 70522 84320 333 59019 70492 83617 87460 81929==
41978,2024,06,07,09,00,AAXX 07094 41978 01456 81407 10282 20260 30027 40033 70596 8432/ 333 58005 70540 83615 88460 82925==
41978,2024,06,07,12,00,AAXX 07124 41978 11457 71305 10280 20260 30021 40028 60056 70596 84370 333 10330 59007 70540 83618 86460 81925==
41978,2024,06,07,15,00,AAXX 07154 41978 02456 71706 10272 20260 30036 40043 84320 333 59011 70540 83618 86460 81930==
41978,2024,06,07,18,00,AAXX 07184 41978 02456 71304 10268 20260 30042 40049 84320 333 58002 70540 83618 86460 81930==
41978,2024,06,07,21,00,AAXX 07214 41978 01340 81103 10266 20266 30028 40035 76162 8432/ 333 59011 70172 83708 88458 81928==
41978,2024,06,08,00,00,AAXX 08004 41978 21450 71002 10270 20270 30030 40037 70162 84320 333 59007 60188 70228 83616 86460 81928==
41978,2024,06,08,03,00,AAXX 08034 41978 01450 71710 10302 20270 30047 40053 70511 84320 333 20262 58004 70228 83618 86460 81929==
41978,2024,06,08,06,00,AAXX 08064 41978 01457 61706 10332 20260 30038 40044 70511 84910 333 58004 70228 83618 85460 81930==
41978,2024,06,08,09,00,AAXX 08094 41978 01456 71703 10316 20280 30021 40028 70522 84320 333 59006 70180 83616 87460 81930==
41978,2024,06,08,12,00,AAXX 08124 41978 01456 61505 10301 20270 30014 40020 70522 83520 333 10342 59007 70180 83616 86460==
41978,2024,06,08,15,00,AAXX 08154 41978 01456 51203 10291 20270 30028 40034 70511 82500 333 59008 70180 82618 84360==
41978,2024,06,08,18,00,AAXX 08184 41978 01456 61405 10288 20274 30027 40034 70510 82520 333 59015 70180 83618 86460==
41978,2024,06,08,21,00,AAXX 08214 41978 01456 61403 10286 20280 30011 40017 70522 83520 333 59017 70056 83617 86460==
41978,2024,06,09,00,00,AAXX 09004 41978 01450 71403 10284 20270 30022 40029 70522 83520 333 59008 70000 83617 87460==
41978,2024,06,09,03,00,AAXX 09034 41978 41458 61608 10318 20290 30038 40045 70161 84330 333 20280 59009 84616 81928==
41978,2024,06,09,06,00,AAXX 09064 41978 11458 62110 10338 20300 30032 40038 69996 70161 83520 333 59006 83616 86460==
41978,2024,06,09,09,00,AAXX 09094 41978 01440 82706 10303 20270 30003 40009 76122 8432/ 333 59018 70010 83615 88459 81928==
41978,2024,06,09,12,00,AAXX 09124 41978 21450 81104 10298 20270 30009 40015 70262 8432/ 333 10341 59005 60015 70014 83616 88460 81928==
41978,2024,06,09,15,00,AAXX 09154 41978 01456 51403 10292 20270 30028 40034 70522 83520 333 58000 70014 83616 84460==
41978,2024,06,09,18,00,AAXX 09184 41978 01450 61203 10292 20280 30029 40035 76122 83520 333 58002 70010 83616 86460==
41978,2024,06,09,21,00,AAXX 09214 41978 01450 51303 10288 20280 30022 40028 70522 83520 333 58011 70020 83616 85460==
41978,2024,06,10,00,00,AAXX 10004 41978 01456 51404 10286 20280 30031 40037 70522 83520 333 58009 70020 83618 84460==
41978,2024,06,10,03,00,AAXX 10034 41978 01457 61803 10322 20290 30033 40039 70511 84330 333 20282 59005 70020 84617 81930==
41978,2024,06,10,06,00,AAXX 10064 41978 01457 62106 10337 20280 30030 40036 70511 84330 333 59002 70020 84618 81930==
41978,2024,06,10,09,00,AAXX 10094 41978 01456 60706 10320 20250 30009 40015 70592 83530 333 58006 70010 83618 85362==
41978,2024,06,10,12,00,AAXX 10124 41978 01456 61203 10301 20260 30009 40015 70592 82531 333 10345 58000 70006 82618 83362 85080==
41978,2024,06,10,15,00,AAXX 10154 41978 01456 41703 10291 20270 30027 40033 70521 82530 333 59001 70006 82618 83362==
41978,2024,06,10,18,00,AAXX 10184 41978 01456 41703 10288 20270 30034 40040 70521 82530 333 58005 70000 82618 83362==
41978,2024,06,10,21,00,AAXX 10214 41978 01456 41702 10285 20270 30024 40030 70511 81530 333 58002 70000 81618 83362==
41978,2024,06,11,00,00,AAXX 11004 41978 01550 50903 10282 20270 30037 40043 70521 82211 333 58006 70000 82828 83460 85080==
41978,2024,06,11,03,00,AAXX 11034 41978 01457 41004 10328 20290 30032 40038 70510 81530 333 20280 59001 70000 81618 83362==
41978,2024,06,11,06,00,AAXX 11064 41978 02558 22308 10341 20280 30022 40028 82100 333 59008 70000 82820==
41978,2024,06,11,09,00,AAXX 11094 41978 01457 22410 10344 20280 30004 40010 70510 82500 333 59005 70000 82618==
41978,2024,06,11,12,00,AAXX 11124 41978 01457 42212 10330 20290 39999 40006 70511 82530 333 10349 59010 70000 82618 83360==
41978,2024,06,11,15,00,AAXX 11154 41978 01450 41906 10315 20290 30024 40030 70522 82520 333 59003 70000 82618 83460==
41978,2024,06,11,18,00,AAXX 11184 41978 01450 71810 10285 20280 30030 40037 76122 84320 333 59004 70004 83616 86460 81928==
41978,2024,06,11,21,00,AAXX 11214 41978 01456 71606 10278 20270 30019 40026 70262 84320 333 59005 70032 83618 86460==
41978,2024,06,12,00,00,AAXX 12004 41978 11440 71003 10280 20270 30025 40031 60036 70562 84320 333 59012 70032 83616 86460 81928==
41978,2024,06,12,03,00,AAXX 12034 41978 01456 71605 10298 20280 30047 40053 70511 85370 333 20270 58015 70032 84615 81925==
41978,2024,06,12,06,00,AAXX 12064 41978 11431 81608 10274 20274 30044 40051 60122 79596 8592/ 333 58022 70152 84710 88458 81925==
41978,2024,06,12,09,00,AAXX 12094 41978 01456 71706 10297 20280 30020 40027 70596 84320 333 58016 70232 83616 86460 81930==
41978,2024,06,12,12,00,AAXX 12124 41978 11456 61404 10294 20270 30024 40030 60086 70596 83520 333 10305 58025 70232 83616 85460==
41978,2024,06,12,15,00,AAXX 12154 41978 01456 71705 10283 20260 30035 40041 70522 83520 333 58011 70232 83616 86460==
41978,2024,06,12,18,00,AAXX 12184 41978 01456 71605 10282 20260 30034 40041 70522 83520 333 58004 70228 83616 86460==
41978,2024,06,12,21,00,AAXX 12214 41978 01456 71504 10278 20270 30022 40029 70522 83520 333 58003 70200 83616 86460==
41978,2024,06,13,00,00,AAXX 13004 41978 01450 82003 10271 20271 30033 40039 76122 8432/ 333 58008 70040 83616 88460 81926==
41978,2024,06,13,03,00,AAXX 13034 41978 01456 71610 10302 20270 30038 40044 70562 84320 333 20270 59009 70238 83616 86460 81930==
41978,2024,06,13,06,00,AAXX 13064 41978 11457 71610 10317 20280 30033 40039 69926 70562 84320 333 59011 70118 83616 86460 81930==
41978,2024,06,13,09,00,AAXX 13094 41978 01450 62107 10325 20290 30016 40022 70522 83520 333 59004 70036 83618 85460==
41978,2024,06,13,12,00,AAXX 13124 41978 02456 71806 10313 20270 30014 40020 84320 333 10335 59010 70038 83618 86460 81930==
41978,2024,06,13,15,00,AAXX 13154 41978 02456 71906 10302 20270 30034 40040 84320 333 59001 70038 83618 86460 81930==
41978,2024,06,13,18,00,AAXX 13184 41978 21456 82103 10257 20250 30022 40029 76162 8432/ 333 59012 60067 70098 83614 88460 81928==
41978,2024,06,13,21,00,AAXX 13214 41978 01456 71106 10255 20250 30010 40016 70262 84320 333 59006 70110 83616 87460 81930==
41980,2024,06,07,00,00,AAXX 07004 41980 32450 50000 10272 20260 39938 40050 82510 333 56990 59012 70000 82617 83458=
41980,2024,06,07,06,00,AAXX 07064 41980 NIL=
41980,2024,06,07,12,00,AAXX 07124 41980 31440 60000 10255 20240 39922 40034 82510 333 10353 56990 59004 70150 83617 84458=
41980,2024,06,08,00,00,AAXX 08004 41980 32450 30000 10260 20240 39944 40056 83500 333 56900 58006 70050 83616=
41980,2024,06,08,06,00,AAXX 08064 41980 NIL=
41980,2024,06,08,12,00,AAXX 08124 41980 32450 80000 10280 20250 39918 40028 8352/ 333 10310 56990 59004 70070 83616 88458=
41980,2024,06,09,00,00,AAXX 09004 41980 32450 30000 10280 20240 39929 40040 83500 333 56900 59015 70070 83616=
41980,2024,06,09,06,00,AAXX 09064 41980 NIL=
41980,2024,06,09,12,00,AAXX 09124 41980 11450 60503 10262 20230 39910 40021 60156 70296 83520 333 10336 56990 59008 70150 83616 86458=
41980,2024,06,09,18,00,AAXX 09184 41980 NIL=
41980,2024,06,10,00,00,AAXX 10004 41980 32450 30000 10276 20260 39935 40046 83500 333 56900 58006 70150 83616=
41980,2024,06,10,12,00,AAXX 10124 41980 11450 60000 10284 20250 39911 40021 60188 70262 83520 333 10332 56990 58001 70180 83616 86458=
41980,2024,06,10,18,00,AAXX 10184 41980 NIL=
41980,2024,06,11,00,00,AAXX 11004 41980 32450 80000 10270 20250 39938 40049 8352/ 333 56999 58003 70180 83616 88458=
41980,2024,06,11,06,00,AAXX 11064 41980 NIL=
41980,2024,06,11,12,00,AAXX 11124 41980 32450 60000 10306 20270 39905 40014 83520 333 10344 56990 59006 70000 83616 86458=
41980,2024,06,12,00,00,AAXX 12004 41980 11450 80000 10260 20240 39930 40042 60026 70362 8352/ 333 56999 59008 70020 83616 88458=
41980,2024,06,12,06,00,AAXX 12064 41980 NIL=
41980,2024,06,12,12,00,AAXX 12124 41980 11340 81702 10282 20240 39921 40031 60024 76162 8662/ 333 10312 56499 58017 70100 83709 84614 88456=
41980,2024,06,12,18,00,AAXX 12184 41980 NIL=
41980,2024,06,13,00,00,AAXX 13004 41980 32450 80000 10259 20250 39932 40044 8352/ 333 56999 58002 70060 83616 88458=
41980,2024,06,13,06,00,AAXX 13064 41980 NIL=
41980,2024,06,13,12,00,AAXX 13124 41980 32450 31702 10302 20250 39916 40026 83500 333 10330 56900 70000 83616=
41984,2024,06,07,00,00,AAXX 07004 41984 02456 80000 10292 20280 30019 40021 8352/ 333 59024 70000 83618 88458==
41984,2024,06,07,03,00,AAXX 07034 41984 02457 80000 10330 20290 30030 40032 8352/ 333 20274 59021 70000 83618 88458==
41984,2024,06,07,06,00,AAXX 07064 41984 02457 82202 10358 20280 30026 40028 8352/ 333 59022 70000 83618 88458==
41984,2024,06,07,09,00,AAXX 07094 41984 02457 82204 10344 20290 30009 40110 8352/ 333 59013 70000 83618 88458==
41984,2024,06,07,12,00,AAXX 07124 41984 02456 82203 10330 20290 30002 40004 8352/ 333 10365 59016 70000 83618 88458==
41984,2024,06,07,15,00,AAXX 07154 41984 02440 82205 10310 20290 30021 40023 8352/ 333 59020 70000 83618 88458==
41984,2024,06,07,18,00,AAXX 07184 41984 02440 82204 10310 20290 30022 40024 8352/ 333 59005 70000 83618 88458==
41984,2024,06,07,21,00,AAXX 07214 41984 02430 60000 10305 20290 30022 40024 84410 333 59001 70000 83618 86459==
41984,2024,06,08,00,00,AAXX 08004 41984 02950 00000 10300 20290 30017 40019 333 59002 70000==
41984,2024,06,08,03,00,AAXX 08034 41984 02458 61904 10340 20290 30029 40031 84410 333 20290 59001 70000 83618 86459==
41984,2024,06,08,06,00,AAXX 08064 41984 02458 62204 10350 20280 30026 40028 86400 333 58000 70000 83618 83823==
41984,2024,06,08,09,00,AAXX 08094 41984 02457 82204 10348 20280 30005 40007 8352/ 333 59004 70000 83618 88458==
41984,2024,06,08,12,00,AAXX 08124 41984 02456 82202 10322 20280 39996 49998 8352/ 333 10360 59006 70000 83618 88458==
41984,2024,06,08,15,00,AAXX 08154 41984 02440 82202 10310 20280 30007 40009 8352/ 333 59014 70000 83618 88458==
41984,2024,06,08,18,00,AAXX 08184 41984 02440 82202 10308 20280 30018 40020 8352/ 333 59004 70000 83618 88458==
41984,2024,06,08,21,00,AAXX 08214 41984 02430 60000 10304 20270 30012 40014 84410 333 59010 70000 83618 86459==
41984,2024,06,09,00,00,AAXX 09004 41984 02450 30000 10300 20280 30007 40009 83400 333 59010 70000 82618==
41984,2024,06,09,03,00,AAXX 09034 41984 02458 62306 10340 20280 30022 40024 84410 333 20295 59007 70000 83618 86459==
41984,2024,06,09,06,00,AAXX 09064 41984 02458 71904 10343 20270 30015 40017 84410 333 59011 70000 83618 87459==
41984,2024,06,09,09,00,AAXX 09094 41984 02457 82203 10336 20290 39991 49994 8352/ 333 59014 70000 83618 88458==
41984,2024,06,09,12,00,AAXX 09124 41984 02456 82202 10320 20280 39996 49998 8352/ 333 10355 58000 70000 83618 88458==
41984,2024,06,09,15,00,AAXX 09154 41984 02440 80000 10309 20280 30007 40009 8352/ 333 58000 70000 83618 88458==
41984,2024,06,09,18,00,AAXX 09184 41984 02440 82201 10304 20280 30018 40020 8352/ 333 58000 70000 83618 88458==
41984,2024,06,09,21,00,AAXX 09214 41984 02430 60000 10300 20290 30015 40017 84510 333 58003 70000 84618 86459==
41984,2024,06,10,00,00,AAXX 10004 41984 02450 30000 10295 20290 30012 40014 83500 333 59005 70000 83618==
41984,2024,06,10,03,00,AAXX 10034 41984 02458 61804 10345 20270 30020 40022 84410 333 20290 59002 70000 83618 86459==
41984,2024,06,10,06,00,AAXX 10064 41984 02458 61803 10355 20290 30015 40017 84410 333 58000 70000 83618 86459==
41984,2024,06,10,09,00,AAXX 10094 41984 02458 81802 10349 20290 39995 49997 8352/ 333 58004 70000 83618 88458==
41984,2024,06,10,12,00,AAXX 10124 41984 02456 81802 10326 20290 39995 49998 8352/ 333 10365 59001 70000 83618 88458==
41984,2024,06,10,15,00,AAXX 10154 41984 02440 81802 10308 20290 30011 40013 8352/ 333 58004 70000 83618 88458==
41984,2024,06,10,18,00,AAXX 10184 41984 02440 81802 10307 20290 30028 40030 8352/ 333 58010 70000 83618 88458==
41984,2024,06,10,21,00,AAXX 10214 41984 02430 60000 10300 20290 30022 40024 84410 333 58007 70000 83618 86459==
41984,2024,06,11,00,00,AAXX 11004 41984 02450 30000 10295 20290 30017 40019 83500 333 58005 70000 83618==
41984,2024,06,11,03,00,AAXX 11034 41984 02458 62303 10340 20290 30019 40021 86400 333 20290 59001 70000 83618 83823==
41984,2024,06,11,06,00,AAXX 11064 41984 02458 62303 10355 20290 30012 40014 86400 333 59003 70000 83618 83823==
41984,2024,06,11,09,00,AAXX 11094 41984 02457 82204 10340 20280 39999 40001 8352/ 333 58004 70000 83618 88458==
41984,2024,06,11,12,00,AAXX 11124 41984 02456 82203 10322 20270 39989 49992 8352/ 333 10365 59006 70000 83618 88458==
41984,2024,06,11,15,00,AAXX 11154 41984 02440 82202 10310 20280 30010 40012 8352/ 333 59001 70000 83618 88458==
41984,2024,06,11,18,00,AAXX 11184 41984 02440 82201 10310 20280 30021 40023 8352/ 333 59007 70000 83618 88458==
41984,2024,06,11,21,00,AAXX 11214 41984 02430 80000 10306 20290 30020 40022 8452/ 333 59002 70000 84618 88459==
41984,2024,06,12,00,00,AAXX 12004 41984 02450 80000 10302 20280 30020 40022 8452/ 333 58003 70000 84618 88459==
41984,2024,06,12,03,00,AAXX 12034 41984 02456 82203 10328 20290 30028 40030 8442/ 333 20298 58009 70000 83618 88459==
41984,2024,06,12,06,00,AAXX 12064 41984 02456 81904 10328 20290 30024 40026 8542/ 333 58012 70000 84618 88459==
41984,2024,06,12,09,00,AAXX 12094 41984 02456 82201 10326 20290 30003 40005 8542/ 333 58004 70000 84618 88459==
41984,2024,06,12,12,00,AAXX 12124 41984 02456 82201 10318 20280 30001 40003 8352/ 333 58012 70000 83618 88458==
41984,2024,06,12,15,00,AAXX 12154 41984 02440 82202 10308 20290 30018 40020 8352/ 333 58008 70000 83618 88458==
41984,2024,06,12,18,00,AAXX 12184 41984 NIL=
41984,2024,06,12,21,00,AAXX 12214 41984 02430 81904 10300 20280 30018 40020 8452/ 333 59002 70000 84618 88459==
41984,2024,06,13,00,00,AAXX 13004 41984 02450 82106 10300 20280 30015 40017 8452/ 333 59005 70000 84618 88459==
41984,2024,06,13,03,00,AAXX 13034 41984 02456 82206 10330 20280 30021 40023 8452/ 333 20290 59007 70000 84618 88459==
41984,2024,06,13,06,00,AAXX 13064 41984 02456 82106 10333 20280 30017 40019 8452/ 333 59007 70000 84618 88459==
41984,2024,06,13,09,00,AAXX 13094 41984 02457 81804 10340 20280 39996 49998 8352/ 333 59007 70000 83618 88458==
41984,2024,06,13,12,00,AAXX 13124 41984 02456 81804 10322 20280 39989 49991 8352/ 333 10346 59012 70000 83618 88458==
41984,2024,06,13,15,00,AAXX 13154 41984 02440 81801 10310 20280 30014 40016 8352/ 333 59004 70000 83618 88458==
41984,2024,06,13,18,00,AAXX 13184 41984 02440 80000 10300 20290 30008 40010 8352/ 333 59015 70000 83618 88458==
41984,2024,06,13,21,00,AAXX 13214 41984 02430 80000 10300 20290 30002 40004 8542/ 333 59016 70000 84618 88459==
41989,2024,06,07,00,00,AAXX 07004 41989 02450 51403 10291 20270 30039 40042 83530 333 59010 70000 83618 83362==
41989,2024,06,07,06,00,AAXX 07064 41989 11340 81704 10268 20260 30045 40048 60202 76196 8572/ 333 59021 70200 82710 83616 88456==
41989,2024,06,07,09,00,AAXX 07094 41989 01450 61808 10270 20240 30040 40044 70162 84430 333 59001 70030 83618 85362==
41989,2024,06,07,12,00,AAXX 07124 41989 11440 71706 10268 20230 30035 40038 60016 70362 83570 333 20315 58002 70030 83618 85460==
41989,2024,06,07,15,00,AAXX 07154 41989 02440 61804 10273 20250 30039 40042 82570 333 59016 70210 82618 84460==
41989,2024,06,07,21,00,AAXX 07214 41989 02440 51302 10275 20260 30041 40044 82570 333 59008 70210 82618 83362==
41989,2024,06,08,00,00,AAXX 08004 41989 02450 51402 10273 20250 30036 40039 82570 333 59003 70210 82618 83460==
41989,2024,06,08,03,00,AAXX 08034 41989 02456 61804 10302 20270 30058 40061 82570 333 20252 58004 70210 82618 84460==
41989,2024,06,08,06,00,AAXX 08064 41989 01440 61803 10270 20250 30044 40048 72162 84470 333 59001 70100 83618 84460==
41989,2024,06,08,09,00,AAXX 08094 41989 02450 71303 10277 20260 30031 40035 83570 333 59009 70100 83618 85460==
41989,2024,06,08,12,00,AAXX 08124 41989 02450 61704 10282 20260 30023 40027 83570 333 10318 59012 70100 83618 84460==
41989,2024,06,08,21,00,AAXX 08214 41989 02440 41704 10260 20250 30045 40048 84500 333 58004 70100 84618==
41989,2024,06,09,00,00,AAXX 09004 41989 02450 51702 10264 20240 30039 40042 83530 333 58003 70100 83618 83362==
41989,2024,06,09,03,00,AAXX 09034 41989 02450 41804 10320 20270 30045 40049 84500 333 59013 70100 84618==
41989,2024,06,09,06,00,AAXX 09064 41989 02456 41305 10338 20280 30039 40042 82530 333 59005 70000 82618 84362==
41989,2024,06,09,09,00,AAXX 09094 41989 02456 41803 10335 20280 30030 40033 82530 333 59001 70000 82618 83362==
41989,2024,06,09,12,00,AAXX 09124 41989 02450 51403 10295 20250 30014 40017 82530 333 10348 59009 70000 82618 84362==
41989,2024,06,09,15,00,AAXX 09154 41989 02459 31302 10303 20280 30031 40034 83500 333 59014 70000 83618==
41989,2024,06,09,18,00,AAXX 09184 41989 02450 31702 10300 20280 30038 40041 83500 333 59022 70000 83618==
41989,2024,06,09,21,00,AAXX 09214 41989 02450 21802 10295 20280 30035 40038 82500 333 59010 70000 82618==
41989,2024,06,10,00,00,AAXX 10004 41989 02440 21402 10290 20280 30033 40036 82500 333 58012 70000 82618==
41989,2024,06,10,03,00,AAXX 10034 41989 02456 31403 10318 20280 30057 40061 83500 333 20282 58013 70000 83618==
41989,2024,06,10,06,00,AAXX 10064 41989 02450 41803 10335 20270 30044 40047 82530 333 58005 70000 82618 83662==
41989,2024,06,10,09,00,AAXX 10094 41989 02456 61303 10333 20270 30017 40020 83570 333 59013 70000 83618 84460==
41989,2024,06,10,12,00,AAXX 10124 41989 02456 61802 10316 20270 30010 40013 83570 333 10343 59007 70000 83618 84460==
41989,2024,06,10,15,00,AAXX 10154 41989 02450 41803 10300 20250 30041 40044 82530 333 58010 70000 82618 83362==
41989,2024,06,10,18,00,AAXX 10184 41989 NIL=
41989,2024,06,10,21,00,AAXX 10214 41989 02440 51304 10288 20260 30058 40061 82530 333 58023 70000 82618 83362==
41989,2024,06,11,00,00,AAXX 11004 41989 02430 51403 10287 20260 30040 40044 82530 333 58007 70000 82618 83362==
41989,2024,06,11,03,00,AAXX 11034 41989 02450 31802 10345 20200 30041 40044 83500 333 20278 59001 70000 83618==
41989,2024,06,11,06,00,AAXX 11064 41989 02456 31704 10337 20280 30031 40034 83500 333 59013 70000 83618==
41989,2024,06,11,09,00,AAXX 11094 41989 02450 31803 10340 20280 30014 40017 83500 333 59003 70000 83618==
41989,2024,06,11,12,00,AAXX 11124 41989 02450 43202 10318 20280 30001 40004 84500 333 10353 59009 70000 84618==
41989,2024,06,11,15,00,AAXX 11154 41989 02450 50000 10307 20280 30020 40023 82570 333 59021 70000 82618 83362==
41989,2024,06,11,18,00,AAXX 11184 41989 02450 50000 10300 20280 30031 40034 83570 333 59024 70000 83618 83460==
41989,2024,06,11,21,00,AAXX 11214 41989 01440 61303 10285 20280 30026 40029 70362 83570 333 59032 70190 83618 84460==
41989,2024,06,12,00,00,AAXX 12004 41989 21440 61402 10283 20260 30027 40030 70262 82570 333 59013 60195 70190 82618 84460==
41989,2024,06,12,03,00,AAXX 12034 41989 01450 71805 10285 20270 30055 40058 70362 83570 333 20270 58012 70210 83618 85460==
41989,2024,06,12,06,00,AAXX 12064 41989 01450 61804 10290 20250 30052 40055 72162 83570 333 58021 70230 83618 84460==
41989,2024,06,12,09,00,AAXX 12094 41989 02450 51802 10300 20250 30039 40043 82530 333 10310 58038 70230 82618 84362==
41989,2024,06,12,12,00,AAXX 12124 41989 02450 51802 10300 20250 30039 40043 82530 333 10310 58038 70230 82618 84362==
41989,2024,06,12,15,00,AAXX 12154 41989 02450 51403 10285 20260 30044 40048 83530 333 58024 70230 83618 83362==
41989,2024,06,12,18,00,AAXX 12184 41989 NIL=
41989,2024,06,12,21,00,AAXX 12214 41989 02440 51804 10278 20250 30047 40050 83530 333 58021 70040 83618 83362==
41989,2024,06,13,00,00,AAXX 13004 41989 02440 41804 10275 20260 30040 40043 82530 333 58013 70040 82618 83362==
41989,2024,06,13,03,00,AAXX 13034 41989 02450 61802 10293 20250 30056 40059 83530 333 20271 58006 70020 83618 83362==
41989,2024,06,13,06,00,AAXX 13064 41989 02450 51803 10315 20270 30044 40047 82530 333 59008 70000 82618 84362==
41989,2024,06,13,09,00,AAXX 13094 41989 02450 51403 10325 20260 30039 40042 83530 333 59004 70000 83618 84362==
41989,2024,06,13,12,00,AAXX 13124 41989 02450 51403 10325 20260 30039 40042 83530 333 10337 59008 70000 82618 83362==
41989,2024,06,13,15,00,AAXX 13154 41989 02440 31803 10295 20250 30047 40050 83500 333 58003 70000 83618==
41989,2024,06,13,21,00,AAXX 13214 41989 02440 41703 10285 20260 30048 40052 83500 333 58001 70100 84618==
41992,2024,06,07,00,00,AAXX 07004 41992 11425 81802 10272 20250 30048 40050 60026 70562 8452/ 333 59010 70020 84615 84615 88460==
41992,2024,06,07,03,00,AAXX 07034 41992 01430 61206 10308 20260 30052 40054 70522 83530 333 20265 59016 70020 83616 86360==
41992,2024,06,07,06,00,AAXX 07064 41992 21320 81503 10267 20250 30054 40056 79596 8592/ 333 59008 60057 70070 83707 85613 88458 81925==
41992,2024,06,07,09,00,AAXX 07094 41992 01420 81505 10262 20250 30041 40043 79566 8492/ 333 59001 70080 84614 88458 81925==
41992,2024,06,07,12,00,AAXX 07124 41992 21425 80000 10270 20250 30031 40033 70596 8432/ 333 10315 59001 60018 70080 83616 88460 81925==
41992,2024,06,07,15,00,AAXX 07154 41992 01425 40000 10268 20250 30050 40052 70521 84500 333 59004 70080 84616==
41992,2024,06,07,18,00,AAXX 07184 41992 01425 40000 10270 20250 30048 40050 70521 84500 333 59006 70080 84616==
41992,2024,06,07,21,00,AAXX 07214 41992 01425 60302 10270 20250 30034 40036 70522 84520 333 59006 70060 84616 86460==
41992,2024,06,08,00,00,AAXX 08004 41992 01420 71503 10270 20250 30046 40048 70522 84520 333 59002 70060 84615 87460==
41992,2024,06,08,03,00,AAXX 08034 41992 01430 60000 10310 20260 30053 40055 70522 84530 333 20260 58001 70060 84616 86362==
41992,2024,06,08,06,00,AAXX 08064 41992 01315 83609 10284 20220 30061 40063 79522 8592/ 333 58007 70000 83708 84614 88458 81925==
41992,2024,06,08,09,00,AAXX 08094 41992 01420 81504 10272 20220 30033 40035 70562 8532/ 333 59008 70050 84615 88460 81925==
41992,2024,06,08,12,00,AAXX 08124 41992 11425 80903 10275 20240 30026 40028 60056 70562 8452/ 333 10324 59005 70050 84615 88460==
41992,2024,06,08,15,00,AAXX 08154 41992 01425 60000 10268 20250 30038 40040 70522 83530 333 59012 70050 83616 86360==
41992,2024,06,08,18,00,AAXX 08184 41992 01425 70000 10266 20250 30041 40043 70522 84530 333 59007 70050 84615 87360==
41992,2024,06,08,21,00,AAXX 08214 41992 01420 71502 10270 20260 30030 40032 70522 84530 333 59004 70050 84615 87360==
41992,2024,06,09,00,00,AAXX 09004 41992 01425 70903 10270 20260 30040 40042 70522 84520 333 59006 70050 84615 87460==
41992,2024,06,09,03,00,AAXX 09034 41992 01435 31703 10320 20270 30049 40051 70522 83500 333 20248 59004 70050 83616==
41992,2024,06,09,06,00,AAXX 09064 41992 01435 11803 10333 20270 30039 40041 70521 81500 333 59022 70050 81616==
41992,2024,06,09,09,00,AAXX 09094 41992 01435 22105 10335 20270 30013 40015 70511 82500 333 59020 70000 82616==
41992,2024,06,09,12,00,AAXX 09124 41992 01430 60000 10310 20270 30017 40019 70521 84530 333 10340 59009 70000 84616 86362==
41992,2024,06,09,15,00,AAXX 09154 41992 01425 62104 10305 20270 30035 40037 70522 82530 333 59003 70000 82616 86362==
41992,2024,06,09,18,00,AAXX 09184 41992 01425 61802 10302 20270 30039 40041 70522 82530 333 59002 70000 82616 86362==
41992,2024,06,09,21,00,AAXX 09214 41992 01420 41502 10295 20280 30028 40030 70521 82530 333 59002 70000 82616 84360==
41992,2024,06,10,00,00,AAXX 10004 41992 01425 61502 10290 20270 30039 40041 70522 84520 333 59001 70000 84615 86460==
41992,2024,06,10,03,00,AAXX 10034 41992 01435 30000 10325 20280 30041 40043 70522 82530 333 20250 59008 70000 82616 83362==
41992,2024,06,10,06,00,AAXX 10064 41992 01435 30000 10340 20280 30034 40036 70521 82530 333 59005 70000 82616 83362==
41992,2024,06,10,09,00,AAXX 10094 41992 01/35 21804 10338 20270 30015 40017 70511 82030 333 58002 70000 82362==
41992,2024,06,10,12,00,AAXX 10124 41992 01430 61503 10303 20260 30014 40016 70511 83530 333 10345 59003 70000 83616 86362==
41992,2024,06,10,15,00,AAXX 10154 41992 01425 40000 10294 20260 30035 40037 70521 84500 333 58000 70000 84616==
41992,2024,06,10,18,00,AAXX 10184 41992 01425 40000 10305 20280 30041 40043 70521 84500 333 58002 70000 84616==
41992,2024,06,10,21,00,AAXX 10214 41992 01425 52105 10305 20270 30030 40032 70522 83530 333 58002 70000 83616 85362==
41992,2024,06,11,00,00,AAXX 11004 41992 01425 61804 10300 20270 30038 40040 70522 84520 333 59001 70000 84615 86460==
41992,2024,06,11,03,00,AAXX 11034 41992 01435 30000 10333 20270 30040 40042 70522 81530 333 20290 59001 70000 81616 83362==
41992,2024,06,11,06,00,AAXX 11064 41992 01/35 21804 10343 20270 30027 40029 70521 82030 333 59007 70000 82362==
41992,2024,06,11,09,00,AAXX 11094 41992 01440 51802 10344 20270 30013 40015 70522 84530 333 59002 70000 84616 85362==
41992,2024,06,11,12,00,AAXX 11124 41992 01430 41802 10322 20260 30012 40014 70521 82530 333 10352 59002 70000 82616 84362==
41992,2024,06,11,15,00,AAXX 11154 41992 41320 81504 10302 20280 30034 40036 76122 8432/ 333 59001 82707 84614 88458 81925==
41992,2024,06,11,18,00,AAXX 11184 41992 21320 81804 10284 20260 30040 40042 76162 8532/ 333 59001 60037 70030 83707 85613 88458 81925==
41992,2024,06,11,21,00,AAXX 11214 41992 01420 60302 10280 20260 30022 40024 70562 84520 333 59008 70040 84615 86460==
41992,2024,06,12,00,00,AAXX 12004 41992 11420 70906 10275 20270 30032 40034 60016 70562 87520 333 59006 70040 84615 87460==
41992,2024,06,12,03,00,AAXX 12034 41992 01320 81803 10270 20250 30063 40065 76165 8592/ 333 20265 58023 70060 83708 84614 88458 81925==
41992,2024,06,12,06,00,AAXX 12064 41992 21325 81604 10283 20260 30051 40053 75165 8592/ 333 58024 60039 70070 83708 84614 88458 81925==
41992,2024,06,12,09,00,AAXX 12094 41992 01425 81505 10295 20270 30034 40036 70552 8432/ 333 58021 70070 83616 88460 81925==
41992,2024,06,12,12,00,AAXX 12124 41992 11425 80000 10290 20250 30034 40036 60006 70552 8432/ 333 10305 58022 70070 83616 88460 81925==
41992,2024,06,12,15,00,AAXX 12154 41992 01425 61802 10285 20250 30046 40048 70521 83520 333 58012 70070 83616 86460==
41992,2024,06,12,18,00,AAXX 12184 41992 01420 61804 10280 20250 30043 40045 70522 84520 333 58003 70040 84616 86460==
41992,2024,06,12,21,00,AAXX 12214 41992 01420 41503 10275 20250 30032 40034 70521 82530 333 58010 70030 82616 84362==
41992,2024,06,13,00,00,AAXX 13004 41992 01425 61502 10275 20260 30043 40045 70522 84530 333 58011 70030 84615 86460==
41992,2024,06,13,03,00,AAXX 13034 41992 01430 71503 10297 20260 30049 40051 70522 84530 333 20268 59014 70010 84615 87360==
41992,2024,06,13,06,00,AAXX 13064 41992 41430 61803 10304 20250 30042 40044 70522 84530 333 59009 84615 86362==
41992,2024,06,13,09,00,AAXX 13094 41992 01435 62105 10325 20260 30021 40023 70522 84530 333 59013 70000 84615 86362==
41992,2024,06,13,12,00,AAXX 13124 41992 01430 61803 10315 20260 30022 40024 70522 84530 333 10332 59012 70000 84616 86362==
41992,2024,06,13,15,00,AAXX 13154 41992 01425 60000 10290 20260 30037 40039 70522 83530 333 59009 70000 83616 86362==
41992,2024,06,13,18,00,AAXX 13184 41992 01425 40000 10285 20270 30032 40032 70521 84500 333 59011 70000 84616==
41992,2024,06,13,21,00,AAXX 13214 41992 01315 81805 10250 20250 30026 40028 79599 8692/ 333 59006 70500 83707 85612 88458 81925==
41998,2024,06,07,00,00,AAXX 07004 41998 NIL=
41998,2024,06,07,03,00,AAXX 07034 41998 02456 80000 10288 20260 30057 40063 8342/ 333 20260 59007 70110 83618 88458==
41998,2024,06,07,06,00,AAXX 07064 41998 21456 80000 10280 20260 30047 40053 76162 333 58003 60039 70140 83616 88456==
41998,2024,06,07,09,00,AAXX 07094 41998 01456 80000 10279 20260 30040 40046 76166 8342/ 333 58000 70190 83616 88456==
41998,2024,06,07,12,00,AAXX 07124 41998 21456 80000 10276 20260 30022 40028 76166 8342/ 333 10300 59008 60089 70220 83616 88456==
41998,2024,06,08,00,00,AAXX 08004 41998 NIL=
41998,2024,06,08,06,00,AAXX 08064 41998 02456 81602 10300 20270 30036 40042 8342/ 333 59011 70080 83618 88458==
41998,2024,06,08,07,00,AAXX 08074 41998 02456 81602 10300 20270 30036 40042 8342/ 333 59011 70080 83618 88458==
41998,2024,06,08,09,00,AAXX 08094 41998 01456 81902 10278 20260 30028 40034 72162 8442/ 333 59012 70090 83618 88458==
41998,2024,06,08,12,00,AAXX 08124 41998 01456 80000 10278 20250 30030 40036 70262 8442/ 333 10312 58008 70060 83618 88458==
41998,2024,06,09,00,00,AAXX 09004 41998 NIL=
41998,2024,06,09,03,00,AAXX 09034 41998 02456 80000 10290 20270 30036 40042 8342/ 333 20264 59011 70000 83618 88458==
41998,2024,06,09,06,00,AAXX 09064 41998 NIL=
41998,2024,06,09,09,00,AAXX 09094 41998 02456 61502 10307 20260 30036 40042 83420 333 58008 70000 82618 84458==
41998,2024,06,09,12,00,AAXX 09124 41998 02456 60000 10301 20260 30038 40038 83470 333 10324 58008 70000 82618 84458==
41998,2024,06,09,18,00,AAXX 09184 41998 NIL=
41998,2024,06,10,00,00,AAXX 10004 41998 02456 80000 10278 20260 30056 40062 8342/ 333 58015 70000 82617 88458==
41998,2024,06,10,03,00,AAXX 10034 41998 02456 80000 10298 20160 30065 40071 8342/ 333 20268 58029 70000 82618 88458==
41998,2024,06,10,06,00,AAXX 10064 41998 02456 80000 10315 20260 30039 40045 8342/ 333 58015 70000 83618 88458==
41998,2024,06,10,09,00,AAXX 10094 41998 02456 61902 10311 20260 30031 40037 83470 333 59005 70000 82618 84458==
41998,2024,06,10,12,00,AAXX 10124 41998 NIL=
41998,2024,06,10,15,00,AAXX 10154 41998 02456 80000 10288 20270 30056 40062 8342/ 333 58000 70000 82618 88458==
41998,2024,06,10,18,00,AAXX 10184 41998 02456 80000 10285 20260 30045 40051 8342/ 333 58004 70000 82618 88458==
41998,2024,06,11,03,00,AAXX 11034 41998 02456 60000 10299 20270 30050 40056 83420 333 20270 59015 70000 82618 83458==
41998,2024,06,11,06,00,AAXX 11064 41998 02456 60000 10312 20270 30033 40039 83420 333 59006 70000 83618 88458==
41998,2024,06,11,12,00,AAXX 11124 41998 02456 80000 10274 20250 30016 40022 8442/ 333 10326 59014 70000 83618 88458==
41998,2024,06,11,15,00,AAXX 11154 41998 01456 80000 10279 20270 30036 40042 76166 8442/ 333 59020 70080 83616 88456==
41998,2024,06,12,03,00,AAXX 12034 41998 01456 80000 10278 20260 30042 40048 76166 8442/ 333 20255 58009 70270 83616 88456==
41998,2024,06,12,06,00,AAXX 12064 41998 02456 60000 10294 20260 30030 40036 83470 333 10327 59008 70000 82618 84458==
41998,2024,06,12,09,00,AAXX 12094 41998 01456 81902 10284 20250 30031 40037 76621 8442/ 333 58010 70340 83618 88456==
41998,2024,06,12,12,00,AAXX 12124 41998 01456 80000 10283 20250 30032 40038 70262 8442/ 333 10305 58016 70040 83618 88458==
41998,2024,06,12,18,00,AAXX 12184 41998 02456 80000 10280 20260 30065 40071 8342/ 333 58004 70070 82618 88458==
41998,2024,06,13,00,00,AAXX 13004 41998 NIL=
41998,2024,06,13,03,00,AAXX 13034 41998 02456 80000 10280 20260 30037 40043 8342/ 333 20260 59010 70070 83618 88458==
41998,2024,06,13,06,00,AAXX 13064 41998 NIL=
41998,2024,06,13,09,00,AAXX 13094 41998 02456 81501 10306 20270 30018 40024 8442/ 333 59014 70000 83618 88458==
41998,2024,06,13,12,00,AAXX 13124 41998 02456 80000 10284 20240 30018 40024 8442/ 333 10310 59014 70000 83618 88458==
41998,2024,06,13,18,00,AAXX 13184 41998 02456 60000 10278 20260 30036 40042 83470 333 59010 70000 82618 83458==
