ESTACION,ANO,MES,DIA,HORA,MINUTO,PARTE
41850,2024,03,22,00,00,AAXX 22004 41850 31450 20000 10150 20140 30008 40110 70511 82500 333 56900 59042 70000 82618=
41850,2024,03,22,06,00,AAXX 22064 41850 32456 40000 10245 20160 30011 40110 82510 333 56990 59041 70000 82618 83460=
41850,2024,03,22,12,00,AAXX 22124 41850 32450 62003 10245 20160 39979 40078 83520 333 10274 56990 59035 70000 83618 86458=
41850,2024,03,22,18,00,AAXX 22184 41850 32440 60903 10200 20190 39998 40099 83520 333 56990 59043 70000 83617 86458=
41850,2024,03,23,00,00,AAXX 23004 41850 31440 80904 10188 20180 39992 40093 60097 70522 8452/ 333 56999 59016 70090 84616 88458=
41850,2024,03,23,06,00,AAXX 23064 41850 11350 80903 10196 20180 30009 40110 60023 70562 8562/ 333 56299 59002 70110 82708 84616 88458=
41850,2024,03,23,12,00,AAXX 23124 41850 31450 70903 10197 20180 39981 40082 70522 84520 333 10210 56990 58002 70110 84617 87458=
41850,2024,03,23,18,00,AAXX 23184 41850 31440 60000 10180 20170 30003 40104 70522 83520 333 56990 58005 70110 83617 86458=
41850,2024,03,24,00,00,AAXX 24004 41850 31450 80903 10188 20180 30013 40114 70522 8452/ 333 56999 58021 70020 84617 88458=
41850,2024,03,24,06,00,AAXX 24064 41850 32456 71005 10243 20160 30039 40139 84520 333 56990 58030 70000 84617 87458=
41850,2024,03,24,09,00,AAXX 24094 41850 32456 50906 10255 20180 30015 40114 83510 333 56990 58037 70000 83618 85458=
41850,2024,03,24,12,00,AAXX 24124 41850 32450 50903 10235 20190 30013 40112 82530 333 10260 56990 58031 70000 82618 85362=
41850,2024,03,24,18,00,AAXX 24184 41850 31940 30000 10196 20190 30040 40141 83010 333 56090 58037 70000 83460=
41850,2024,03,25,00,00,AAXX 25004 41850 31450 63003 10190 20180 30028 40130 70522 83520 333 56990 58015 70000 83617 86458=
41850,2024,03,25,06,00,AAXX 25064 41850 32456 40803 10274 20180 30038 40137 82530 333 56990 58001 70000 82618 84362=
41850,2024,03,25,12,00,AAXX 25124 41850 32450 61803 10273 20180 39986 40084 82520 333 10300 56990 59027 70000 82618 86459=
41850,2024,03,25,18,00,AAXX 25184 41850 32440 40000 10232 20200 30016 40116 82510 333 56990 58024 70000 82617 84460=
41850,2024,03,26,00,00,AAXX 26004 41850 11440 82004 10180 20170 30020 40121 60114 79596 8432/ 333 56999 59008 70110 83616 81928 88457=
41850,2024,03,26,06,00,AAXX 26064 41850 11956 30605 10247 20170 30037 40136 60036 70196 83030 333 56090 59001 70143 83362=
41850,2024,03,26,12,00,AAXX 26124 41850 32450 60000 10232 20160 30026 40126 83520 333 10264 56990 58040 70143 83617 86458=
41850,2024,03,26,18,00,AAXX 26184 41850 32440 70902 10208 20180 30056 40157 83520 333 56990 58040 70143 83617 87458=
41850,2024,03,27,00,00,AAXX 27004 41850 31450 60503 10194 20160 30056 40158 70523 83520 333 56990 58036 70033 83617 86458=
41850,2024,03,27,06,00,AAXX 27064 41850 32456 70907 10260 20160 30065 40164 83520 333 56990 58028 70000 83617 87458=
41850,2024,03,27,12,00,AAXX 27124 41850 32456 50000 10237 20180 30023 40122 83520 333 10267 56990 59003 70000 83617 85458=
41850,2024,03,28,12,00,AAXX 28124 41850 32456 50000 10270 20210 39995 40093 82530 333 10288 56990 59028 70000 82618 85362=
41850,2024,03,28,18,00,AAXX 28184 41850 31440 61803 10223 20200 30017 40117 70522 83520 333 56990 59031 70000 83618 86458=
41851,2024,03,22,00,00,AAXX 22004 41851 31440 80000 10160 20150 30046 40111 70520 8352/ 333 56999 59033 70016 83618 88458=
41851,2024,03,22,06,00,AAXX 22064 41851 32450 31302 10257 20190 30052 40115 83500 333 56900 59039 70016 83618=
41851,2024,03,22,12,00,AAXX 22124 41851 31940 02201 10250 20170 30015 40078 70510 333 10270 59034 70000=
41851,2024,03,22,18,00,AAXX 22184 41851 31430 10000 10190 20180 30035 40100 70500 81500 333 56900 59036 70000 81618=
41851,2024,03,23,00,00,AAXX 23004 41851 31440 80000 10195 20190 30024 40088 70520 8352/ 333 56999 59022 70000 83618 88458=
41851,2024,03,23,06,00,AAXX 23064 41851 31440 80903 10230 20200 30047 40111 70522 8352/ 333 56999 59005 70000 83618 88458=
41851,2024,03,23,12,00,AAXX 23124 41851 31440 80902 10207 20180 30016 40080 70522 8352/ 333 10236 56999 58001 70000 83618 88458=
41851,2024,03,23,18,00,AAXX 23184 41851 31440 80000 10192 20170 30037 40102 70522 8352/ 333 56999 58002 70000 83618 88458=
41851,2024,03,24,00,00,AAXX 24004 41851 31440 80902 10192 20180 30042 40107 70522 8352/ 333 56999 58018 70000 83618 88458=
41851,2024,03,24,06,00,AAXX 24064 41851 31440 80902 10208 20180 30077 40142 70522 8352/ 333 56999 58030 70000 83618 88458=
41851,2024,03,24,09,00,AAXX 24094 41851 31440 81302 10248 20190 30058 40122 70522 8352/ 333 56999 58040 70000 83618 88458=
41851,2024,03,24,12,00,AAXX 24124 41851 31440 70000 10230 20210 30052 40116 70522 83520 333 10250 56990 58036 70000 83618 87458=
41851,2024,03,24,18,00,AAXX 24184 41851 31440 60000 10190 20180 30076 40141 70522 83520 333 56990 58039 70000 83618 86458=
41851,2024,03,25,00,00,AAXX 25004 41851 31440 80000 10188 20180 30058 40123 70522 8352/ 333 56999 58016 70000 83618 88458=
41851,2024,03,25,06,00,AAXX 25064 41851 31440 61301 10280 20200 30072 40135 70522 83510 333 56990 59005 70000 83618 8545=
41851,2024,03,25,12,00,AAXX 25124 41851 31445 20000 10272 20220 30024 40087 70521 82500 333 10305 56900 59028 70000 82618=
41851,2024,03,25,18,00,AAXX 25184 41851 31440 60000 10222 20190 30047 40111 70522 83520 333 56990 59029 70000 83618 86458=
41851,2024,03,26,00,00,AAXX 26004 41851 32450 80905 10205 20190 30067 40131 8352/ 333 56999 58009 70000 83617 88457=
41851,2024,03,26,06,00,AAXX 26064 41851 11450 82202 10215 20180 30077 40141 60106 70296 8352/ 333 56999 58005 70098 83617 88457=
41851,2024,03,26,12,00,AAXX 26124 41851 32450 41801 10247 20200 30060 40123 81530 333 10280 56990 58036 70098 81618 83362=
41851,2024,03,26,18,00,AAXX 26184 41851 32450 11502 10194 20170 30091 40156 81500 333 58044 70098 81618=
41851,2024,03,27,00,00,AAXX 27004 41851 32350 81502 10188 20180 30083 40148 8462/ 333 56499 58016 70098 81709 83617 88458=
41851,2024,03,27,06,00,AAXX 27064 41851 32450 70905 10260 20180 30104 40167 83520 333 56990 58027 70000 83618 86458=
41851,2024,03,27,12,00,AAXX 27124 41851 32450 70902 10245 20180 30057 40120 83520 333 10274 56990 59003 70000 83618 86458=
41851,2024,03,28,12,00,AAXX 28124 41851 32450 80000 10273 20210 30031 40094 8352/ 333 10296 56999 59026 70000 83618 88458=
41851,2024,03,28,18,00,AAXX 28184 41851 32450 80000 10231 20180 30052 40116 8352/ 333 56999 59029 70000 83618 88458=
41856,2024,03,22,00,00,AAXX 22004 41856 31930 30000 10166 20166 30073 40110 70511 83030 333 56090 59036 70117 83362=
41856,2024,03,22,06,00,AAXX 22064 41856 32950 41802 10250 20190 30079 40115 84030 333 56090 59038 70117 84362=
41856,2024,03,22,12,00,AAXX 22124 41856 32950 21802 10254 20160 30043 40079 82030 333 10276 56090 59038 70000 84362=
41856,2024,03,22,18,00,AAXX 22184 41856 31930 00000 10186 20180 30063 40100 70500 333 59036 70000=
41856,2024,03,23,00,00,AAXX 23004 41856 31430 50000 10180 20170 30056 40093 70522 82510 333 56990 59017 70000 82618 84459=
41856,2024,03,23,06,00,AAXX 23064 41856 32450 52202 10260 20160 30070 40106 82510 333 56990 59009 70000 82618 84459=
41856,2024,03,23,12,00,AAXX 23124 41856 11440 50502 10206 20190 30043 40079 60207 70162 82520 333 10280 56990 58000 70195 82618 85458=
41856,2024,03,23,18,00,AAXX 23184 41856 32430 80502 10200 20180 30063 40099 8562/ 333 56699 58000 70195 83710 85615 88458=
41856,2024,03,24,00,00,AAXX 24004 41856 11430 80502 10194 20180 30071 40108 60015 70562 8562/ 333 56199 58015 70201 83710 85615 88458=
41856,2024,03,24,06,00,AAXX 24064 41856 32440 80503 10222 20190 30098 40134 8562/ 333 56199 58028 70201 83710 85615 88458=
41856,2024,03,24,09,00,AAXX 24094 41856 32450 50501 10240 20190 30079 40115 82530 333 56990 58040 70031 82618 85362=
41856,2024,03,24,12,00,AAXX 24124 41856 32940 30501 10230 20190 30078 40114 83030 333 10248 56090 58035 70006 83362=
41856,2024,03,24,18,00,AAXX 24184 41856 31930 10501 10200 20190 30102 40139 70510 81030 333 56090 58039 70006 81362=
41856,2024,03,25,00,00,AAXX 25004 41856 31430 80501 10202 20180 30083 40120 70522 8352/ 333 56999 58012 70000 83618 88458=
41856,2024,03,25,06,00,AAXX 25064 41856 32950 20502 10285 20210 30096 40131 82030 333 56090 59002 70000 82362=
41856,2024,03,25,12,00,AAXX 25124 41856 32950 00000 10286 20220 30051 40086 333 10310 59027 70000=
41856,2024,03,25,18,00,AAXX 25184 41856 31430 40301 10225 20210 30071 40107 70511 84400 333 56600 59031 70000 82618=
41856,2024,03,26,00,00,AAXX 26004 41856 11430 80000 10180 20170 30076 40113 60044 70592 8352/ 333 56999 59007 70040 83618 88458=
41856,2024,03,26,06,00,AAXX 26064 41856 11450 81102 10215 20170 30110 40146 60046 70392 8442/ 333 56999 58014 70084 83618 88458=
41856,2024,03,26,12,00,AAXX 26124 41856 32950 30601 10232 20190 30091 40127 83030 333 10257 56090 58040 70084 83362=
41856,2024,03,26,18,00,AAXX 26184 41856 31920 00603 10205 20180 30117 40153 70500 333 58046 70084=
41856,2024,03,27,00,00,AAXX 27004 41856 31430 60603 10198 20180 30111 40148 70522 84410 333 56999 58035 70044 82618 84458=
41856,2024,03,27,06,00,AAXX 27064 41856 32950 40704 10252 20190 30128 40164 84030 333 56090 58018 70000 84362=
41856,2024,03,27,12,00,AAXX 27124 41856 32950 30702 10244 20160 30084 40120 83030 333 10262 56090 59007 70000 83362=
41856,2024,03,28,12,00,AAXX 28124 41856 32950 40000 10270 20210 30057 40092 84030 333 10291 56090 59027 70000 83362=
41856,2024,03,28,18,00,AAXX 28184 41856 32940 40501 10222 20200 30081 40117 84030 333 56090 59027 70000 83362=
41858,2024,03,22,00,00,AAXX 22004 41858 01410 80000 10180 20170 30066 40113 71022 8452/ 333 59035 70000 84615 88458==
41858,2024,03,22,03,00,AAXX 22034 41858 01420 80000 10200 20170 30083 40129 71022 8452/ 333 20162 59038 70000 84616 88458==
41858,2024,03,22,06,00,AAXX 22064 41858 01440 42704 10250 20160 30073 40119 70522 83520 333 59033 70000 83616 84458==
41858,2024,03,22,09,00,AAXX 22094 41858 01550 31806 10272 20190 30043 40089 70522 83100 333 59035 70000 83825==
41858,2024,03,22,12,00,AAXX 22124 41858 01950 02105 10260 20160 30035 40081 70510 333 10275 59037 70000==
41858,2024,03,22,15,00,AAXX 22154 41858 01940 00000 10216 20190 30053 40099 70500 333 59042 70000==
41858,2024,03,22,18,00,AAXX 22184 41858 01935 00000 10206 20190 30059 40105 70500 333 59042 70000==
41858,2024,03,22,21,00,AAXX 22214 41858 01925 00000 10198 20180 30050 40096 71000 333 59011 70000==
41858,2024,03,23,00,00,AAXX 23004 41858 01920 00000 10188 20180 30045 40091 71000 333 59021 70000==
41858,2024,03,23,06,00,AAXX 23064 41858 01440 80000 10268 20180 30056 40102 70522 8352/ 333 59017 70000 83616 88458==
41858,2024,03,23,09,00,AAXX 23094 41858 01940 80308 10282 20170 30025 40070 71722 8352/ 333 59018 70000 83616 88458==
41858,2024,03,23,12,00,AAXX 23124 41858 01430 80308 10220 20200 30032 40079 70562 8352/ 333 10284 59003 70130 83616 88458==
41858,2024,03,23,15,00,AAXX 23154 41858 01435 60306 10198 20180 30051 40097 70522 83620 333 59002 70130 83615 86458==
41858,2024,03,23,18,00,AAXX 23184 41858 01430 60305 10190 20180 30057 40103 70522 83520 333 59002 70130 83615 86458==
41858,2024,03,23,21,00,AAXX 23214 41858 01425 50905 10188 20170 30059 40105 71022 83520 333 58009 70130 83615 84460==
41858,2024,03,24,00,00,AAXX 24004 41858 01410 60905 10196 20190 30063 40109 71022 84520 333 58018 70130 84615 85458==
41858,2024,03,24,03,00,AAXX 24034 41858 01435 80306 10214 20170 30089 40135 70522 8452/ 333 20185 58020 70130 84615 88458==
41858,2024,03,24,06,00,AAXX 24064 41858 31435 80906 10225 20190 30090 40136 70522 8452/ 333 56299 58034 70130 84615 88458=
41858,2024,03,24,09,00,AAXX 24094 41858 01435 80605 10246 20200 30072 40118 70522 8452/ 333 58047 70130 84616 88458==
41858,2024,03,24,12,00,AAXX 24124 41858 01435 60000 10240 20200 30068 40114 70522 83520 333 10248 58036 70000 83618 85458==
41858,2024,03,24,15,00,AAXX 24154 41858 01430 60000 10214 20190 30085 40131 70522 83520 333 58034 70000 83618 85458==
41858,2024,03,24,18,00,AAXX 24184 41858 01425 40602 10200 20190 30091 40137 71022 82520 333 58034 70000 82618 84458==
41858,2024,03,24,21,00,AAXX 24214 41858 01420 80602 10194 20180 30077 40123 71022 8352/ 333 58018 70000 83618 88458==
41858,2024,03,25,00,00,AAXX 25004 41858 01420 80602 10202 20190 30080 40126 71022 8452/ 333 58017 70000 84616 88458==
41858,2024,03,25,03,00,AAXX 25034 41858 01432 50605 10240 20200 30096 40142 70522 83520 333 20185 58007 70000 83615 85458==
41858,2024,03,25,06,00,AAXX 25064 41858 01/40 30606 10300 20200 30087 40132 70522 83030 333 59003 70000 83362==
41858,2024,03,25,09,00,AAXX 25094 41858 01/50 31005 10300 20200 30055 40097 70511 83030 333 59020 70000 83362==
41858,2024,03,25,12,00,AAXX 25124 41858 01/40 30504 10278 20200 30041 40086 70511 83030 333 10305 59027 70000 83362==
41858,2024,03,25,15,00,AAXX 25154 41858 01/35 30000 10260 20210 30066 40112 70511 83040 333 70000 83362==
41858,2024,03,25,18,00,AAXX 25184 41858 01/30 30000 10213 20190 30076 40122 70511 83030 333 59015 70000 83362==
41858,2024,03,26,00,00,AAXX 26004 41858 01420 81205 10215 20190 30077 40123 70522 8452/ 333 59003 70000 84616 88458==
41858,2024,03,26,03,00,AAXX 26034 41858 01450 60905 10225 20180 30105 40151 70562 83520 333 20175 58009 70002 83615 86459==
41858,2024,03,26,06,00,AAXX 26064 41858 01450 60905 10240 20180 30100 40146 70562 83520 333 58013 70002 83615 86458==
41858,2024,03,26,09,00,AAXX 26094 41858 01950 01509 10284 20190 30074 40120 70520 333 58022 70002==
41858,2024,03,26,12,00,AAXX 26124 41858 01450 50905 10262 20200 30078 40124 70522 83520 333 10288 58037 70002 83615 85458==
41858,2024,03,26,15,00,AAXX 26154 41858 01440 50906 10230 20190 30104 40150 70522 83520 333 58038 70002 83615 85458==
41858,2024,03,26,18,00,AAXX 26184 41858 31440 50906 10208 20190 30110 40156 70522 83520 333 56990 58034 70002 83615 85458=
41858,2024,03,26,21,00,AAXX 26214 41858 01430 50000 10204 20180 30099 40146 70522 83520 333 58030 70002 83616 85458==
41858,2024,03,27,00,00,AAXX 27004 41858 01425 50000 10200 20180 30102 40149 71022 83520 333 58025 70002 83616 85458==
41858,2024,03,27,03,00,AAXX 27034 41858 01440 60506 10232 20180 30121 40167 70522 83520 333 20190 58016 70000 83615 85458==
41858,2024,03,27,06,00,AAXX 27064 41858 01/50 30510 10277 20180 30118 40164 70522 83030 333 58018 70000 83362==
41858,2024,03,27,09,00,AAXX 27094 41858 01/50 30608 10293 20170 30087 40133 70522 83040 333 58013 70000 83362==
41858,2024,03,27,12,00,AAXX 27124 41858 01/50 30606 10268 20190 30075 40121 70520 83040 333 10294 59003 70000 83362==
41858,2024,03,28,09,00,AAXX 28094 41858 01450 70905 10300 20200 30054 40099 70522 83520 333 59033 70000 83618 86460==
41858,2024,03,28,12,00,AAXX 28124 41858 01450 60505 10282 20200 30048 40094 70522 83520 333 10302 59027 70000 83615 85458==
41858,2024,03,28,15,00,AAXX 28154 41858 01940 60000 10250 20210 30066 40112 70520 83520 333 59024 70000 83615 86458==
41858,2024,03,28,18,00,AAXX 28184 41858 01435 80000 10235 20210 30066 40119 70522 8452/ 333 58033 70000 84615 88458==
41858,2024,03,28,21,00,AAXX 28214 41858 01435 60000 10232 20200 30064 40110 70522 83520 333 59012 70000 83615 86458==
41859,2024,03,22,00,00,AAXX 22004 41859 21430 80000 10177 20170 30071 40109 70562 8562/ 333 59034 69925 70042 83710 85618 88458==
41859,2024,03,22,03,00,AAXX 22034 41859 01435 80000 10191 20170 30093 40131 70542 8562/ 333 20172 59032 70042 83710 85618 88458==
41859,2024,03,22,06,00,AAXX 22064 41859 01440 43101 10242 20170 30083 40121 70542 82520 333 59031 70042 82618 84458==
41859,2024,03,22,09,00,AAXX 22094 41859 01450 50000 10268 20170 30050 40087 70522 83430 333 59030 70000 82618 85362==
41859,2024,03,22,12,00,AAXX 22124 41859 01950 00000 10255 20170 30045 40082 70521 333 10274 59033 70010==
41859,2024,03,22,15,00,AAXX 22154 41859 01930 00000 10215 20190 30062 40100 70500 333 59044 70002==
41859,2024,03,22,18,00,AAXX 22184 41859 01930 00000 10200 20190 30066 40104 70500 333 59029 70002==
41859,2024,03,22,21,00,AAXX 22214 41859 01430 50000 10200 20190 30056 40094 70520 83530 333 59017 70002==
41859,2024,03,23,00,00,AAXX 23004 41859 01430 82201 10200 20190 30051 40091 70522 8562/ 333 59018 70000 82710 84618 88458==
41859,2024,03,23,03,00,AAXX 23034 41859 01440 62202 10240 20180 30079 40117 70522 84620 333 20183 59014 70000==
41859,2024,03,23,06,00,AAXX 23064 41859 02440 82202 10271 20170 30068 40105 8562/ 333 59015 70000 82710 84618 88458==
41859,2024,03,23,09,00,AAXX 23094 41859 41340 83505 10211 20170 30036 40074 79522 8692/ 333 59014 84708 85616 88456 81929==
41859,2024,03,23,12,00,AAXX 23124 41859 21435 83502 10211 20200 30040 40078 70296 8562/ 333 10283 59005 60127 70120 83710 84618 88458==
41859,2024,03,23,15,00,AAXX 23154 41859 02430 80503 10200 20180 30059 40097 8562/ 333 59003 70120 83710 84618 88458==
41859,2024,03,23,18,00,AAXX 23184 41859 02430 80502 10200 20180 30062 40100 8562/ 333 59004 70120 83710 84618 88458==
41859,2024,03,23,21,00,AAXX 23214 41859 01430 80000 10193 20180 30062 40100 70596 8562/ 333 58006 70184 83710 84618 88458==
41859,2024,03,24,00,00,AAXX 24004 41859 11430 80000 10193 20180 30062 40100 60066 70596 8562/ 333 58009 70184 83710 84618 88458==
41859,2024,03,24,03,00,AAXX 24034 41859 02450 80000 10209 20190 30099 40138 8562/ 333 20189 58020 70184 83710 84618 88458==
41859,2024,03,24,06,00,AAXX 24064 41859 02450 80000 10236 20200 30099 40137 8562/ 333 58031 70184 83710 84618 88458==
41859,2024,03,24,09,00,AAXX 24094 41859 02450 80501 10252 20200 30079 40116 8561/ 333 58043 70184 83710 84618 88458==
41859,2024,03,24,12,00,AAXX 24124 41859 02440 80000 10242 20210 30077 40114 8562/ 333 10252 58037 70064 83710 84618 88458==
41859,2024,03,24,15,00,AAXX 24154 41859 02430 80000 10221 20200 30091 40129 8562/ 333 58032 70064 83710 84618 88458==
41859,2024,03,24,18,00,AAXX 24184 41859 02430 80501 10211 20200 30102 40140 8562/ 333 58040 70064 83710 84618 88458==
41859,2024,03,24,21,00,AAXX 24214 41859 02430 80502 10204 20180 30087 40125 8562/ 333 58025 70000 83710 84618 88458==
41859,2024,03,25,00,00,AAXX 25004 41859 01430 80502 10196 20190 30083 40121 70522 8562/ 333 58021 70000 83710 84618 88458==
41859,2024,03,25,03,00,AAXX 25034 41859 01440 80000 10236 20200 30104 40142 70522 8562/ 333 20193 58005 70000 82710 83618 88458==
41859,2024,03,25,06,00,AAXX 25064 41859 02450 60000 10291 20200 30098 40135 84610 333 59001 70000 82710 82618 86458==
41859,2024,03,25,09,00,AAXX 25094 41859 02450 32102 10304 20200 30060 40097 83400 333 59019 70000 81618 83828==
41859,2024,03,25,12,00,AAXX 25124 41859 02940 00000 10288 20220 30050 40087 333 10305 59027 70000==
41859,2024,03,25,15,00,AAXX 25154 41859 02430 80000 10261 20230 30075 40112 8562/ 333 59016 70000 83710 84618 88458==
41859,2024,03,25,18,00,AAXX 25184 41859 02430 80000 10248 20230 30070 40107 8562/ 333 59032 70000 83710 85618 88458==
41859,2024,03,25,21,00,AAXX 25214 41859 01430 80502 10221 20210 30071 40109 79592 8692/ 333 59016 70000 83708 85616 88456 81929==
41859,2024,03,26,00,00,AAXX 26004 41859 21430 80000 10190 20190 30075 40113 70296 8562/ 333 59008 60307 70300 83710 85618 88458==
41859,2024,03,26,03,00,AAXX 26034 41859 01440 80502 10203 20180 30115 40153 70296 8562/ 333 20180 58011 70412 82710 83618 88458==
41859,2024,03,26,06,00,AAXX 26064 41859 01440 81302 10223 20180 30111 40149 76196 8562/ 333 58013 70001 83710 84618 88458==
41859,2024,03,26,09,00,AAXX 26094 41859 02450 20000 10262 20190 30085 40122 82500 333 58025 70413 82618==
41859,2024,03,26,12,00,AAXX 26124 41859 02440 80000 10250 20200 30087 40124 8562/ 333 10265 58037 70413 82710 84618 88458==
41859,2024,03,26,15,00,AAXX 26154 41859 02430 80502 10225 20190 30115 40153 8562/ 333 58040 70413 82710 84618 88458==
41859,2024,03,26,18,00,AAXX 26184 41859 02430 60502 10215 20180 30115 40153 85620 333 58045 70413 82710 84618 86458==
41859,2024,03,26,21,00,AAXX 26214 41859 02430 60502 10210 20180 30109 40147 85620 333 58038 70413 82710 84618 86458==
41859,2024,03,27,00,00,AAXX 27004 41859 02430 80503 10205 20180 30106 40144 8662/ 333 58031 70113 83710 85618 88458==
41859,2024,03,27,03,00,AAXX 27034 41859 02440 80503 10223 20180 30129 40167 8562/ 333 20195 58014 70001 82710 84618 88458==
41859,2024,03,27,06,00,AAXX 27064 41859 02450 60503 10261 20180 30127 40164 84620 333 58016 70000 82710 83618 86458==
41859,2024,03,27,09,00,AAXX 27094 41859 02450 70502 10276 20190 30095 40132 84620 333 58010 70000 82710 83618 87458==
41859,2024,03,27,12,00,AAXX 27124 41859 02440 60502 10258 20180 30083 40120 84620 333 10280 59004 70000 82710 83618 86458==
41859,2024,03,27,15,00,AAXX 27154 41859 02430 60503 10230 20170 30103 40141 84320 333 59012 70000 82710 83618 86458==
41859,2024,03,27,18,00,AAXX 27184 41859 NIL=
41859,2024,03,28,03,00,AAXX 28034 41859 02440 60502 10250 20180 30100 40138 84620 333 20210 59029 70000 82710 83616 86458==
41859,2024,03,28,06,00,AAXX 28064 41859 02450 80502 10280 20200 30091 40128 8562/ 333 59036 70000 82710 84618==
41859,2024,03,28,09,00,AAXX 28094 41859 02450 80502 10291 20180 30064 40101 8562/ 333 59031 70000 82710 84618 88458==
41859,2024,03,28,12,00,AAXX 28124 41859 02450 40000 10281 20190 30055 40092 83520 333 10295 59028 70000 83618 84458==
41859,2024,03,28,15,00,AAXX 28154 41859 02430 60000 10241 20220 30071 40108 83520 333 59032 70000 83618 86458==
41859,2024,03,28,18,00,AAXX 28184 41859 02430 80000 10241 20200 30081 40118 8562/ 333 59027 70000 83618 88458==
41859,2024,03,28,21,00,AAXX 28214 41859 01430 80502 10234 20200 30070 40108 72122 8562/ 333 59030 70002 82710 84618 88458==
41863,2024,03,22,00,00,AAXX 22004 41863 02450 80000 10175 20170 30068 40112 8552/ 333 59033 70218 85618 88458==
41863,2024,03,22,03,00,AAXX 22034 41863 02450 71302 10195 20180 30084 40128 84520 333 20160 59034 70218 84618 87458==
41863,2024,03,22,06,00,AAXX 22064 41863 02456 30901 10245 20180 30077 40120 83500 333 59034 70218 83618==
41863,2024,03,22,09,00,AAXX 22094 41863 02456 42702 10270 20160 30044 40087 84500 333 59033 70218 84618==
41863,2024,03,22,12,00,AAXX 22124 41863 02956 00000 10245 20180 30039 40082 333 10275 59035 70038==
41863,2024,03,22,15,00,AAXX 22154 41863 02956 00000 10206 20190 30053 40097 333 59040 70000==
41863,2024,03,22,18,00,AAXX 22184 41863 01950 00000 10194 20170 30057 40101 70500 333 59037 70000==
41863,2024,03,22,21,00,AAXX 22214 41863 01940 00000 10184 20170 30039 40083 70500 333 59038 70000==
41863,2024,03,23,00,00,AAXX 23004 41863 01/40 40000 10180 20170 30046 40090 70522 84030 333 59022 70000 84362==
41863,2024,03,23,03,00,AAXX 23034 41863 01950 02702 10240 20180 30069 40112 70520 333 20175 59015 70000==
41863,2024,03,23,06,00,AAXX 23064 41863 02956 01802 10280 20160 30059 40102 333 59018 70000==
41863,2024,03,23,09,00,AAXX 23094 41863 31450 80905 10251 20190 30025 40068 8592/ 333 56999 59019 70000 85618 81930 88458=
41863,2024,03,23,12,00,AAXX 23124 41863 01450 80904 10225 20200 30030 40073 70292 8552/ 333 10291 59009 70000 85617 88458==
41863,2024,03,23,15,00,AAXX 23154 41863 02450 30904 10210 20190 30053 40097 83500 333 58000 70000 83618==
41863,2024,03,23,18,00,AAXX 23184 41863 02950 00904 10201 20180 30056 40100 333 59001 70000==
41863,2024,03,23,21,00,AAXX 23214 41863 02950 00902 10195 20190 30055 40099 333 58016 70000==
41863,2024,03,24,00,00,AAXX 24004 41863 01950 00902 10192 20190 30060 40104 70500 333 58014 70000==
41863,2024,03,24,03,00,AAXX 24034 41863 01450 80903 10218 20190 30086 40130 70522 8552/ 333 20185 58017 70000 85618 88458==
41863,2024,03,24,06,00,AAXX 24064 41863 01450 80904 10222 20190 30092 40136 70522 8552/ 333 58033 70000 85618 88458==
41863,2024,03,24,09,00,AAXX 24094 41863 02456 80502 10240 20200 30075 40118 8552/ 333 58050 70000 85618 88458==
41863,2024,03,24,12,00,AAXX 24124 41863 02450 70501 10240 20210 30069 40112 84510 333 10245 58039 70000 84618 87458==
41863,2024,03,24,15,00,AAXX 24154 41863 01450 50501 10212 20200 30080 40124 70522 83520 333 58027 70000 83618 85458==
41863,2024,03,24,18,00,AAXX 24184 41863 01440 50501 10203 20190 30092 40136 70522 83520 333 58036 70000 83618 85458==
41863,2024,03,24,21,00,AAXX 24214 41863 01/40 40501 10190 20190 30078 40122 70520 84030 333 58023 70000 84362==
41863,2024,03,25,00,00,AAXX 25004 41863 01/40 40501 10188 20188 30077 40121 70500 84030 333 58017 70000 84362==
41863,2024,03,25,03,00,AAXX 25034 41863 01/50 40902 10232 20200 30097 40141 70500 84030 333 20182 58011 70000 84362==
41863,2024,03,25,06,00,AAXX 25064 41863 02456 30503 10292 20200 30091 40134 83500 333 59001 70000 83618==
41863,2024,03,25,09,00,AAXX 25094 41863 02456 30502 10305 20220 30054 40096 83500 333 59021 70000 83618==
41863,2024,03,25,12,00,AAXX 25124 41863 02956 00901 10286 20220 30042 40084 333 10305 59027 70000==
41863,2024,03,25,15,00,AAXX 25154 41863 01950 00901 10257 20240 30064 40107 70500 333 59016 70000==
41863,2024,03,25,18,00,AAXX 25184 41863 01950 00000 10240 20220 30065 40108 70500 333 59027 70000==
41863,2024,03,25,21,00,AAXX 25214 41863 01440 42701 10235 20230 30054 40097 70500 82520 333 59024 70000 82618 84458==
41863,2024,03,26,00,00,AAXX 26004 41863 01450 82704 10215 20190 30081 40125 70520 8552/ 333 58004 70000 85618 88458==
41863,2024,03,26,03,00,AAXX 26034 41863 01450 80503 10213 20180 30101 40145 70596 8552/ 333 20189 58004 70083 85618 88458==
41863,2024,03,26,06,00,AAXX 26064 41863 11456 30904 10253 20180 30102 40145 60086 70196 83500 333 58011 70083 83618==
41863,2024,03,26,09,00,AAXX 26094 41863 02957 01203 10281 20190 30072 40115 333 58018 70083==
41863,2024,03,26,12,00,AAXX 26124 41863 02456 40000 10266 20200 30076 40122 84500 333 10283 58034 70038 84618==
41863,2024,03,26,15,00,AAXX 26154 41863 02956 01802 10228 20180 30104 40148 333 58040 70083==
41863,2024,03,26,18,00,AAXX 26184 41863 32950 00902 10212 20180 30108 40152 333 58043 70083=
41863,2024,03,26,21,00,AAXX 26214 41863 02950 00902 10206 20190 30103 40147 333 58049 70083==
41863,2024,03,27,00,00,AAXX 27004 41863 02950 00903 10200 20180 30099 40143 333 58018 70083==
41863,2024,03,27,03,00,AAXX 27034 41863 02450 80902 10230 20190 30126 40170 8452/ 333 20192 58025 70000 84618 88458==
41863,2024,03,27,06,00,AAXX 27064 41863 02456 50503 10270 20180 30121 40164 83520 333 58019 70000 83618 85458==
41863,2024,03,27,09,00,AAXX 27094 41863 02456 50902 10285 20190 30083 40126 83520 333 58011 70000 83618 85458==
41863,2024,03,27,12,00,AAXX 27124 41863 02956 00902 10268 20180 30077 40120 333 10285 58001 70000==
41863,2024,03,28,09,00,AAXX 28094 41863 02450 80000 10280 20210 30059 40102 8552/ 333 59024 70000 85618 88458==
41863,2024,03,28,12,00,AAXX 28124 41863 02450 80000 10280 20230 30048 40091 8552/ 333 10280 59029 70000 85618 88458==
41863,2024,03,28,15,00,AAXX 28154 41863 02450 80901 10240 20220 30072 40115 8552/ 333 59024 70000 85618 88458==
41863,2024,03,28,18,00,AAXX 28184 41863 02450 80000 10235 20220 30068 40111 8552/ 333 59034 70000 85618 88458==
41863,2024,03,28,21,00,AAXX 28214 41863 02450 80000 10230 20210 30065 40108 8552/ 333 59023 70000 85618 88458==
41881,2024,03,22,00,00,AAXX 22004 41881 31935 00000 10165 20165 30087 40109 70500 333 59035 70000=
41881,2024,03,22,06,00,AAXX 22064 41881 32956 03601 10250 20180 30105 40125 333 59024 70000=
41881,2024,03,22,12,00,AAXX 22124 41881 32956 00000 10250 20200 30065 40085 333 10280 59024 70000=
41881,2024,03,22,18,00,AAXX 22184 41881 32950 00000 10190 20180 30083 40104 333 59026 70000=
41881,2024,03,23,00,00,AAXX 23004 41881 31935 00000 10166 20166 30076 40097 70500 333 59012 70000=
41881,2024,03,23,06,00,AAXX 23064 41881 32457 11804 10282 20150 30080 40100 81500 333 56900 59025 70000 81620=
41881,2024,03,23,12,00,AAXX 23124 41881 32457 61303 10270 20190 30040 40060 83520 333 10300 56990 59025 70000 83620 86460=
41881,2024,03,23,18,00,AAXX 23184 41881 32956 01202 10190 20180 30082 40102 333 59001 70000=
41881,2024,03,24,00,00,AAXX 24004 41881 32956 00904 10186 20186 30080 40100 333 58004 70000=
41881,2024,03,24,06,00,AAXX 24064 41881 32457 60902 10270 20220 30104 40124 83520 333 56990 58024 70000 83618 86459=
41881,2024,03,24,09,00,AAXX 24094 41881 32457 80805 10264 20210 30095 40115 8552/ 333 56299 58053 70000 85618 88459=
41881,2024,03,24,12,00,AAXX 24124 41881 32457 60602 10240 20210 30090 40110 83520 333 10270 56990 58050 70000 83618 86459=
41881,2024,03,24,18,00,AAXX 24184 41881 32956 00503 10204 20190 30111 40131 333 58029 70000=
41881,2024,03,25,00,00,AAXX 25004 41881 31404 80804 10195 20195 30095 40115 74440 8552/ 333 56299 58015 70000 85616 88459=
41881,2024,03,25,06,00,AAXX 25064 41881 31456 50502 10285 20230 30111 40131 70142 83520 333 56990 58007 70000 83617 85459=
41881,2024,03,25,12,00,AAXX 25124 41881 32456 60902 10272 20230 30065 40085 83520 333 10291 56990 59025 70000 83617 86459=
41881,2024,03,25,18,00,AAXX 25184 41881 32450 80502 10247 20240 30088 40108 8552/ 56999 59023 70000 85617 88459=
41881,2024,03,26,00,00,AAXX 26004 41881 32450 30202 10205 20190 30090 40111 83500 333 56900 59005 70000 83618=
41881,2024,03,26,06,00,AAXX 26064 41881 32456 30904 10255 20190 30127 40147 83500 333 56900 58016 70000 83618=
41881,2024,03,26,12,00,AAXX 26124 41881 32956 00601 10260 20210 30094 40114 333 10287 58029 70000=
41881,2024,03,26,18,00,AAXX 26184 41881 32950 00901 10210 20190 30128 40149 333 58040 70000=
41881,2024,03,27,00,00,AAXX 27004 41881 32960 00802 10194 20180 30123 40144 333 58033 70000=
41881,2024,03,27,06,00,AAXX 27064 41881 32457 50901 10285 20210 30137 40157 83520 333 56990 58010 70000 83617 85459=
41881,2024,03,27,12,00,AAXX 27124 41881 32956 00801 10266 20220 30096 40116 333 10296 58002 70000=
41881,2024,03,28,12,00,AAXX 28124 41881 32456 30701 10273 20230 30070 40090 83500 333 10305 56900 59026 70000 83620=
41881,2024,03,28,18,00,AAXX 28184 41881 32450 20000 10230 20220 30086 40107 82500 333 56900 59034 70000 82620=
41883,2024,03,22,00,00,AAXX 22004 41883 02430 80000 10180 20170 30085 40105 8552/ 333 59033 70000 85616 88458==
41883,2024,03,22,03,00,AAXX 22034 41883 01350 80902 10192 20170 30107 40128 70522 8562/ 333 20176 59035 70000 85710 88459==
41883,2024,03,22,06,00,AAXX 22064 41883 02456 70000 10252 20190 30097 40117 84520 333 59036 70000 84616 87459==
41883,2024,03,22,09,00,AAXX 22094 41883 02456 70902 10275 20150 30065 40085 84520 333 59032 70000 84616 87459==
41883,2024,03,22,12,00,AAXX 22124 41883 02456 70000 10270 20170 30063 40083 84520 333 10285 59023 70000 84616 87459==
41883,2024,03,22,15,00,AAXX 22154 41883 02930 00000 10225 20200 30078 40098 333 59037 70000==
41883,2024,03,22,18,00,AAXX 22184 41883 02930 00000 10205 20200 30078 40098 333 59031 70000==
41883,2024,03,22,21,00,AAXX 22214 41883 02930 00000 10200 20190 30071 40091 333 59011 70000==
41883,2024,03,23,00,00,AAXX 23004 41883 02430 80000 10200 20190 30070 40090 8552/ 333 59015 70000 85616 88458==
41883,2024,03,23,03,00,AAXX 23034 41883 02956 00000 10242 20190 30095 40115 333 20185 59012 70000==
41883,2024,03,23,06,00,AAXX 23064 41883 02956 00000 10295 20170 30082 40102 333 59015 70000==
41883,2024,03,23,09,00,AAXX 23094 41883 02956 00000 10302 20160 30049 40069 333 59016 70000==
41883,2024,03,23,12,00,AAXX 23124 41883 02956 00000 10282 20200 30045 40065 333 10305 59018 70000==
41883,2024,03,23,15,00,AAXX 23154 41883 02430 61304 10244 20200 30071 40092 84510 333 59007 70000 84616 86459==
41883,2024,03,23,18,00,AAXX 23184 41883 02430 80904 10214 20190 30076 40097 8553/ 333 59002 70000 85616 88459==
41883,2024,03,23,21,00,AAXX 23214 41883 02430 81304 10208 20190 30072 40093 8552/ 333 59001 70000 85616 88459==
41883,2024,03,24,00,00,AAXX 24004 41883 02430 81305 10205 20200 30077 40098 8552/ 333 58007 70000 85616 88459==
41883,2024,03,24,03,00,AAXX 24034 41883 02456 60904 10230 20200 30109 40130 83520 333 20202 58014 70000 83616 86459==
41883,2024,03,24,06,00,AAXX 24064 41883 02456 80902 10265 20230 30108 40128 8552/ 333 58026 70000 85616 88459==
41883,2024,03,24,09,00,AAXX 24094 41883 02/56 43602 10276 20220 30087 40107 84030 333 58038 70000 84362==
41883,2024,03,24,12,00,AAXX 24124 41883 02450 60503 10260 20220 30089 40109 83510 333 10280 58044 70000 83616 86459==
41883,2024,03,24,15,00,AAXX 24154 41883 02930 00904 10237 20220 30107 40128 333 58036 70000==
41883,2024,03,24,18,00,AAXX 24184 41883 02/30 20000 10228 20210 30113 40134 82030 333 58037 70000 82362==
41883,2024,03,24,21,00,AAXX 24214 41883 02930 00000 10210 20210 30097 40118 333 58025 70000==
41883,2024,03,25,00,00,AAXX 25004 41883 02940 00000 10208 20200 30096 40117 333 58019 70000==
41883,2024,03,25,03,00,AAXX 25034 41883 02/50 20902 10254 20210 30114 40134 82030 333 20204 58005 70000 82362==
41883,2024,03,25,06,00,AAXX 25064 41883 02450 81302 10266 20230 30113 40133 8452/ 333 58005 70000 84618 88458==
41883,2024,03,25,09,00,AAXX 25094 41883 02456 61302 10290 20240 30078 40098 83520 333 59009 70000 83616 86459==
41883,2024,03,25,12,00,AAXX 25124 41883 02456 60000 10275 20250 30065 40085 82530 333 10290 59024 70000 82616 86326==
41883,2024,03,25,15,00,AAXX 25154 41883 02430 80502 10258 20240 30083 40103 8552/ 333 59024 70000 85616 88459==
41883,2024,03,25,18,00,AAXX 25184 41883 02430 80502 10252 20230 30085 40105 8552/ 333 59028 70000 85616 88459==
41883,2024,03,25,21,00,AAXX 25214 41883 02430 80902 10246 20230 30078 40101 8552/ 333 59019 70000 85616 88459==
41883,2024,03,26,00,00,AAXX 26004 41883 02/40 30000 10232 20200 30096 40117 83030 333 58000 70000 83362==
41883,2024,03,26,03,00,AAXX 26034 41883 02456 61304 10250 20190 30125 40146 83510 333 20222 58011 70000 84616 86459==
41883,2024,03,26,06,00,AAXX 26064 41883 02456 61308 10265 20190 30122 40142 82510 333 58009 70000 83616 86459==
41883,2024,03,26,09,00,AAXX 26094 41883 02956 01304 10294 20190 30095 40115 333 58017 70000==
41883,2024,03,26,12,00,AAXX 26124 41883 02950 00000 10274 20190 30094 40114 333 10296 58029 70000==
41883,2024,03,26,15,00,AAXX 26154 41883 02930 03602 10245 20200 30122 40142 333 58039 70000==
41883,2024,03,26,18,00,AAXX 26184 41883 02930 00000 10222 20200 30123 40144 333 58038 70000==
41883,2024,03,26,21,00,AAXX 26214 41883 02930 00000 10215 20210 30117 40138 333 58039 70000==
41883,2024,03,27,00,00,AAXX 27004 41883 02930 00502 10208 20200 30118 40138 333 58022 70000==
41883,2024,03,27,03,00,AAXX 27034 41883 02956 03603 10250 20200 30141 40162 333 20202 58016 70000==
41883,2024,03,27,06,00,AAXX 27064 41883 02456 60902 10298 20220 30131 40151 83510 333 58009 70000 83616 86458==
41883,2024,03,27,09,00,AAXX 27094 41883 42456 70503 10305 20230 30100 40120 333 58005 83616 83828 87459==
41883,2024,03,27,12,00,AAXX 27124 41883 02/56 30502 10276 20230 30093 40113 83030 333 10306 59001 70000 83362==
41883,2024,03,27,15,00,AAXX 27154 41883 02930 00904 10242 20200 30113 40134 333 59009 70000==
41883,2024,03,28,03,00,AAXX 28034 41883 02956 00903 10250 20210 30132 333 20205 59029 70000==
41883,2024,03,28,06,00,AAXX 28064 41883 02956 00000 10295 20230 30101 40121 333 59030 70000==
41883,2024,03,28,09,00,AAXX 28094 41883 02456 61302 10318 20230 30071 40091 83530 333 59029 70000 83616 86362==
41883,2024,03,28,12,00,AAXX 28124 41883 02/50 50000 10290 20220 30070 40091 85030 333 10321 59023 70000 85362==
41883,2024,03,28,15,00,AAXX 28154 41883 02930 00000 10264 20230 30088 40108 333 59025 70000==
41883,2024,03,28,18,00,AAXX 28184 41883 02930 80000 10255 20230 30089 40109 8552/ 333 59026 70000 85616 88458==
41883,2024,03,28,21,00,AAXX 28214 41883 02430 80000 10240 20220 30071 40091 8552/ 333 59026 70000 85616 88458==
41886,2024,03,22,00,00,AAXX 22004 41886 02/50 30000 10190 20180 30090 40111 83030 333 59034 70000 83365==
41886,2024,03,22,03,00,AAXX 22034 41886 02456 61304 10220 20180 30113 40134 83570 333 20185 59034 70000 83618 85460==
41886,2024,03,22,06,00,AAXX 22064 41886 02456 61304 10256 20180 30100 40121 84510 333 59041 70000 84618 84460==
41886,2024,03,22,09,00,AAXX 22094 41886 02456 61304 10268 20180 30070 40091 84510 333 59038 70000 84618 84460==
41886,2024,03,22,12,00,AAXX 22124 41886 02956 01803 10256 20180 30065 40086 333 10275 59033 70000==
41886,2024,03,22,15,00,AAXX 22154 41886 01950 00000 10220 20200 30083 40104 70500 333 59036 70000==
41886,2024,03,22,18,00,AAXX 22184 41886 01950 00000 10200 20190 30083 40104 70500 333 59032 70000==
41886,2024,03,23,00,00,AAXX 23004 41886 01950 00000 10192 20190 30075 40096 70500 333 59015 70000==
41886,2024,03,23,03,00,AAXX 23034 41886 01950 01102 10235 20200 30101 40122 70500 333 20187 59012 70000==
41886,2024,03,23,06,00,AAXX 23064 41886 02457 21604 10280 20170 30092 40113 82500 333 59008 70000 82618==
41886,2024,03,23,09,00,AAXX 23094 41886 02/57 41804 10292 20170 30056 40076 84010 333 59014 70000 84460==
41886,2024,03,23,12,00,AAXX 23124 41886 02456 61804 10270 20200 30045 40065 85520 333 10297 59020 70000 85618 86460==
41886,2024,03,23,15,00,AAXX 23154 41886 01450 70902 10206 20180 30079 40100 70196 83520 333 59004 70110 85618 86460 81930==
41886,2024,03,23,18,00,AAXX 23184 41886 11450 70000 10205 20170 30088 40109 60112 70296 83520 333 58005 70110 83618 86460==
41886,2024,03,23,21,00,AAXX 23214 41886 01330 81306 10193 20180 30088 40109 79692 8632/ 333 58008 70133 84710 85616 88458 81930==
41886,2024,03,24,00,00,AAXX 24004 41886 21350 80904 10190 20180 30094 40115 70296 8672/ 333 58019 60075 70183 84710 85616 88458==
41886,2024,03,24,03,00,AAXX 24034 41886 02450 80902 10204 20180 30124 40145 8352/ 333 20189 58023 70183 83618 88460==
41886,2024,03,24,06,00,AAXX 24064 41886 02457 81306 10250 20200 30119 40140 8351/ 333 58027 70183 83618 88460==
41886,2024,03,24,09,00,AAXX 24094 41886 02457 70904 10260 20210 30094 40115 83510 333 58038 70183 83618 87460==
41886,2024,03,24,12,00,AAXX 24124 41886 02456 80402 10250 20220 30093 40114 8351/ 333 10267 58048 70183 83618 88460==
41886,2024,03,24,15,00,AAXX 24154 41886 02450 20903 10230 20210 30114 40135 82500 333 58035 70073 82618==
41886,2024,03,24,18,00,AAXX 24184 41886 02450 60401 10225 20210 30115 40136 82510 333 58027 70073 82618 86460==
41886,2024,03,24,21,00,AAXX 24214 41886 01940 00901 10215 20210 30108 40129 70500 333 58020 70050==
41886,2024,03,25,00,00,AAXX 25004 41886 01940 00901 10205 20200 30100 40121 70500 333 58006 70000==
41886,2024,03,25,03,00,AAXX 25034 41886 01450 60902 10245 20220 30124 40145 70500 82510 333 20195 58000 70000 82618 86460==
41886,2024,03,25,06,00,AAXX 25064 41886 01450 80903 10275 20230 30117 40138 70522 8452/ 333 59002 70000 84617 88460==
41886,2024,03,25,09,00,AAXX 25094 41886 02456 60000 10290 20240 30084 40104 83510 333 59010 70000 83618 85460==
41886,2024,03,25,12,00,AAXX 25124 41886 02450 60000 10280 20230 30073 40093 83510 333 10295 59020 70000 83618 85460==
41886,2024,03,25,15,00,AAXX 25154 41886 01450 60902 10260 20240 30092 40112 70522 83510 333 59022 70000 83618 85460==
41886,2024,03,26,00,00,AAXX 26004 41886 01440 80904 10204 20180 30098 40119 70522 8352/ 333 59002 70000 83618 88460==
41886,2024,03,26,03,00,AAXX 26034 41886 02/56 31304 10233 20180 30137 40158 83030 333 20200 59013 70000 83365==
41886,2024,03,26,06,00,AAXX 26064 41886 01457 60406 10250 20200 30129 40150 70396 82510 333 58012 70000 82618 85460==
41886,2024,03,26,09,00,AAXX 26094 41886 42/57 20000 10275 20200 30103 40124 82010 333 58019 82462==
41886,2024,03,26,12,00,AAXX 26124 41886 42950 00000 10260 20190 30104 40125 333 10278 58031==
41886,2024,03,26,15,00,AAXX 26154 41886 42940 00000 10227 20210 30125 40146 333 58033==
41886,2024,03,26,18,00,AAXX 26184 41886 32940 00000 10216 20210 30127 40148 333 58031 79999=
41886,2024,03,26,21,00,AAXX 26214 41886 42/40 30000 10207 20200 30125 40146 83030 333 58032 83362==
41886,2024,03,27,00,00,AAXX 27004 41886 42/40 20000 10200 20180 30127 40148 82030 333 58031 82362==
41886,2024,03,27,03,00,AAXX 27034 41886 42956 00903 10250 20180 30148 40169 333 20199 58011==
41886,2024,03,27,06,00,AAXX 27064 41886 02456 30904 10290 20220 30135 40156 83500 333 58006 70000 83618==
41886,2024,03,27,09,00,AAXX 27094 41886 02457 30901 10306 20230 30102 40122 83500 333 59001 70000 83618==
41886,2024,03,27,12,00,AAXX 27124 41886 02456 60902 10286 20230 30093 40114 82570 333 10307 59011 70000 82618 85460==
41886,2024,03,28,09,00,AAXX 28094 41886 02457 61302 10314 20200 30070 40090 83510 333 59032 70000 83618 86460==
41886,2024,03,28,12,00,AAXX 28124 41886 02456 70502 10276 20220 30071 40094 85370 333 10320 59022 70000 83618 86460 81930==
41886,2024,03,28,15,00,AAXX 28154 41886 02450 70000 10260 20210 30095 40116 83570 333 59020 70000 83618 86460==
41886,2024,03,28,18,00,AAXX 28184 41886 02/50 60902 10250 20220 30097 40118 86070 333 59023 70000 85365==
41886,2024,03,28,21,00,AAXX 28214 41886 01440 60000 10240 20220 30076 40097 70522 82570 333 59023 70000 82618 85460==
41888,2024,03,22,00,00,AAXX 22004 41888 31440 50901 10180 20170 30106 40116 70522 82530 333 56990 59026 70000 82617 85362=
41888,2024,03,22,06,00,AAXX 22064 41888 32456 40901 10250 20170 30142 40152 82530 333 56990 58000 70000 82617 84362=
41888,2024,03,22,12,00,AAXX 22124 41888 32456 40901 10250 20180 30073 40083 82530 333 10270 56990 59033 70000 82618 84362=
41888,2024,03,22,18,00,AAXX 22184 41888 NIL=
41888,2024,03,23,00,00,AAXX 23004 41888 31940 00901 10185 20180 30092 40102 70500 333 59014 70000=
41888,2024,03,23,06,00,AAXX 23064 41888 32956 01801 10270 20200 30110 40120 333 59032 70000=
41888,2024,03,23,12,00,AAXX 23124 41888 32450 40901 10255 20210 30057 40067 81510 333 10284 56990 59016 70000 81618 84460=
41888,2024,03,23,18,00,AAXX 23184 41888 11440 41202 10190 20180 30093 40103 60126 70596 82310 333 56990 58003 70123 82618 81930 84460=
41888,2024,03,24,00,00,AAXX 24004 41888 11340 70602 10187 20187 30110 40120 60016 71796 83910 333 56990 58018 70131 82710 83616 81928 87458=
41888,2024,03,24,06,00,AAXX 24064 41888 32456 80905 10242 20180 30125 40135 70392 8352/ 333 56999 58015 70131 83618 88460=
41888,2024,03,24,09,00,AAXX 24094 41888 32456 80904 10260 20200 30101 40111 8251/ 333 56999 58036 70131 82618 88460=
41888,2024,03,24,12,00,AAXX 24124 41888 32456 50601 10248 20210 30099 40109 81530 333 10264 56990 58042 70131 81618 85364=
41888,2024,03,24,18,00,AAXX 24184 41888 32450 30901 10218 20210 30122 40132 81530 333 56990 58029 70008 81618 83365=
41888,2024,03,25,00,00,AAXX 25004 41888 31925 00901 10188 20188 30110 40120 71041 333 58000 70000=
41888,2024,03,25,06,00,AAXX 25064 41888 31450 71802 10264 20210 30126 40136 70542 84410 333 56990 58001 70000 83616 87459=
41888,2024,03,25,12,00,AAXX 25124 41888 32456 50601 10273 20230 30080 40090 81530 333 10292 56990 59019 70000 81618 85365=
41888,2024,03,25,18,00,AAXX 25184 41888 31440 70901 10241 20230 30101 40111 71322 83310 333 56990 59021 70000 82616 81930 87459=
41888,2024,03,26,00,00,AAXX 26004 41888 31440 70505 10192 20170 30120 40130 70522 83310 333 56990 58010 70000 82616 81930 87458=
41888,2024,03,26,06,00,AAXX 26064 41888 11350 60904 10227 20200 30137 40147 60012 71796 83910 333 56990 58011 70010 81710 83616 81930 86458=
41888,2024,03,26,12,00,AAXX 26124 41888 32956 00601 10262 20180 30110 40120 70192 333 10275 58030 70010=
41888,2024,03,26,18,00,AAXX 26184 41888 32950 00301 10210 20190 30132 40142 333 58031 70010=
41888,2024,03,27,00,00,AAXX 27004 41888 32450 50301 10194 20180 30131 40141 82530 333 56990 58011 70010 82618 85365=
41888,2024,03,27,06,00,AAXX 27064 41888 32557 20903 10283 20200 30143 40153 82200 333 56900 58006 70000 82822=
41888,2024,03,27,12,00,AAXX 27124 41888 32456 60901 10279 20230 30101 40111 82570 333 10300 56990 59009 70000 82618 85460=
41888,2024,03,28,12,00,AAXX 28124 41888 11345 70601 10285 20240 30077 40087 69904 72121 83610 333 10317 56990 59024 79999 81710 83616 87458=
41888,2024,03,28,18,00,AAXX 28184 41888 31440 30000 10240 20230 30105 40115 70521 81510 333 56990 59020 79999 81618 83460=
41891,2024,03,22,00,00,AAXX 22004 41891 21430 80000 10182 20160 30075 40115 70562 8532/ 333 59033 60035 70032 82710 84615 88458 81930==
41891,2024,03,22,03,00,AAXX 22034 41891 01440 60902 10202 20170 30093 40133 70522 83340 333 20182 59033 70032 83615 85365 81930==
41891,2024,03,22,06,00,AAXX 22064 41891 01450 61204 10255 20170 30082 40121 70522 83340 333 59034 70032 83615 85365 81930==
41891,2024,03,22,09,00,AAXX 22094 41891 01440 63604 10265 20160 30046 40084 70522 83340 333 59045 70032 83615 85365 81930==
41891,2024,03,22,12,00,AAXX 22124 41891 01440 30403 10248 20170 30041 40080 70521 81530 333 10273 59045 70032 81615 83365==
41891,2024,03,22,15,00,AAXX 22154 41891 01935 00000 10208 20180 30064 40103 70511 333 59036 70032==
41891,2024,03,22,18,00,AAXX 22184 41891 01935 00000 10205 20170 30063 40102 70511 333 59037 70032==
41891,2024,03,22,21,00,AAXX 22214 41891 01930 00000 10196 20170 30061 40100 70511 333 59021 70000==
41891,2024,03,23,00,00,AAXX 23004 41891 01930 00902 10195 20170 30058 40097 70511 333 59017 70000==
41891,2024,03,23,03,00,AAXX 23034 41891 01935 00906 10230 20180 30081 40123 70500 333 20195 59009 70000==
41891,2024,03,23,06,00,AAXX 23064 41891 41940 01207 10258 20180 30074 40112 70500 84340 333 59008 83615 85365 81930==
41891,2024,03,23,09,00,AAXX 23094 41891 01445 60904 10296 20170 30041 40079 70500 83340 333 59005 70000 83615 85365 81930==
41891,2024,03,23,12,00,AAXX 23124 41891 01440 63504 10265 20180 30037 40075 70522 83340 333 10310 59004 70000 83615 85365 81930==
41891,2024,03,23,15,00,AAXX 23154 41891 01320 82705 10187 20180 30074 40114 79522 8632/ 333 58010 70104 86708 88458 81925==
41891,2024,03,23,18,00,AAXX 23184 41891 21430 81802 10190 20180 30077 40117 70596 8532/ 333 58014 60135 70132 82710 84615 88459 81930==
41891,2024,03,23,21,00,AAXX 23214 41891 01430 82903 10186 20180 30078 40118 70522 8532/ 333 58017 70008 82710 84615 88459 81930==
41891,2024,03,24,00,00,AAXX 24004 41891 01320 80903 10183 20170 30088 40128 76122 8632/ 333 58030 70008 86708 88458 81925==
41891,2024,03,24,03,00,AAXX 24034 41891 21445 31002 10223 20160 30111 40150 70562 82430 333 20181 56990 58027 6999/ 70149 82616 83362=
41891,2024,03,24,06,00,AAXX 24064 41891 11445 60904 10262 20170 30099 40138 69996 70562 83370 333 58025 70149 83615 85460 81930==
41891,2024,03,24,09,00,AAXX 24094 41891 01450 60908 10278 20180 30076 40114 70522 84370 333 58035 70114 83616 85459 81930==
41891,2024,03,24,12,00,AAXX 24124 41891 01440 53607 10265 20200 30076 40114 70522 83370 333 10280 58039 70149 83616 84460 81930==
41891,2024,03,24,15,00,AAXX 24154 41891 01430 30902 10240 20200 30095 40134 70520 83500 333 58021 70149 83615==
41891,2024,03,24,18,00,AAXX 24184 41891 01430 60902 10232 20200 30099 40138 70521 83370 333 58022 70017 83615 85459 81930==
41891,2024,03,24,21,00,AAXX 24214 41891 01430 80000 10221 20190 30088 40127 70522 8532/ 333 58010 70017 82710 83615 88458 81930==
41891,2024,03,25,00,00,AAXX 25004 41891 01430 80000 10210 20190 30084 40123 70522 8532/ 333 59004 70009 82710 83615 88458 81930==
41891,2024,03,25,03,00,AAXX 25034 41891 01440 60902 10247 20210 30107 40146 70522 84370 333 20208 59004 70000 83616 85460 81930==
41891,2024,03,25,06,00,AAXX 25064 41891 02450 41002 10300 20200 30095 40133 82440 333 59004 70000 82616 83362==
41891,2024,03,25,09,00,AAXX 25094 41891 01950 02703 10315 20210 30065 40103 70521 333 59011 70000==
41891,2024,03,25,12,00,AAXX 25124 41891 01450 33204 10290 20200 30057 40095 70521 81530 333 59019 70000 81616 83365==
41891,2024,03,25,15,00,AAXX 25154 41891 01430 40902 10260 20230 30076 40115 70511 82530 333 59019 70000 82616 83365==
41891,2024,03,25,18,00,AAXX 25184 41891 01430 80904 10247 20210 30072 40111 70521 8532/ 333 59027 70000 82710 83615 88458 81930==
41891,2024,03,25,21,00,AAXX 25214 41891 01320 80907 10200 20190 30082 40122 79596 8632/ 333 59006 70380 86708 88458 81925==
41891,2024,03,26,00,00,AAXX 26004 41891 21325 80906 10183 20170 30094 40134 79596 8632/ 333 58010 60639 70630 86708 88458 81925==
41891,2024,03,26,03,00,AAXX 26034 41891 01440 61205 10217 20180 30116 40155 70522 84370 333 20181 58009 70630 84615 86460 81930==
41891,2024,03,26,06,00,AAXX 26064 41891 01450 51505 10270 20170 30104 40143 70522 82530 333 58009 70630 83615 85365==
41891,2024,03,26,09,00,AAXX 26094 41891 01340 80707 10270 20170 30066 40104 76122 8532/ 333 58001 70630 82710 82616 88458 81930==
41891,2024,03,26,12,00,AAXX 26124 41891 21360 53603 10260 20190 30080 40119 70562 83530 333 10320 58023 60005 70630 83616 85365==
41891,2024,03,26,15,00,AAXX 26154 41891 02440 30000 10225 20200 30104 40143 82530 333 58028 70630 82616 83365==
41891,2024,03,26,18,00,AAXX 26184 41891 02440 60000 10215 20170 30106 40145 84430 333 58034 70630 83616 85362==
41891,2024,03,26,21,00,AAXX 26214 41891 02440 60000 10213 20190 30106 40145 84430 333 58024 70250 83617 85362==
41891,2024,03,27,00,00,AAXX 27004 41891 02440 80000 10207 20170 30107 40146 8442/ 333 58013 70000 83616 88458==
41891,2024,03,27,03,00,AAXX 27034 41891 01945 00904 10250 20160 30130 40169 70520 333 20180 58014 70000==
41891,2024,03,27,06,00,AAXX 27064 41891 41450 60904 10286 20180 30120 40158 70520 83330 333 58016 83615 85365 81930==
41891,2024,03,27,09,00,AAXX 27094 41891 41445 62703 10317 20220 30080 40118 70522 83340 333 58014 83615 85365 81930==
41891,2024,03,27,12,00,AAXX 27124 41891 01440 63602 10280 20210 30076 40114 70522 83340 333 10322 59004 70000 83615 85365 81930==
41891,2024,03,27,15,00,AAXX 27154 41891 01430 30000 10260 20200 30091 40130 70521 83500 333 59013 70000 83615==
41891,2024,03,28,03,00,AAXX 28034 41891 02440 30000 10270 20190 30139 40151 84500 333 20233 59031 70000 82616==
41891,2024,03,28,06,00,AAXX 28064 41891 01450 30000 10300 20190 30088 40126 70511 83500 333 59022 70000 83616==
41891,2024,03,28,09,00,AAXX 28094 41891 01450 30000 10310 20220 30046 40084 70511 83500 333 59034 70000 83616==
41891,2024,03,28,12,00,AAXX 28124 41891 01445 30902 10297 20210 30049 40087 70511 83500 333 10315 59027 70000 83616==
41891,2024,03,28,15,00,AAXX 28154 41891 01440 62103 10255 20210 30078 40117 70521 83340 333 59013 70000 83615 85365 81930==
41891,2024,03,28,18,00,AAXX 28184 41891 01440 60902 10240 20210 30081 40120 70521 83340 333 59021 70000 83615 85365 81930==
41891,2024,03,28,21,00,AAXX 28214 41891 01430 61003 10228 20210 30070 40109 70522 83340 333 59018 70000 83615 85365 81930==
41895,2024,03,22,00,00,AAXX 22004 41895 01940 00000 10190 20190 30089 40112 70500 333 59034 70000==
41895,2024,03,22,03,00,AAXX 22034 41895 01956 01802 10217 20200 30105 40128 70500 333 20184 59034 70000==
41895,2024,03,22,06,00,AAXX 22064 41895 02457 32302 10270 20170 30096 40118 83500 333 59032 70000 83616==
41895,2024,03,22,09,00,AAXX 22094 41895 02457 42701 10278 20150 30064 40087 84800 333 59037 70000 82616 83825==
41895,2024,03,22,12,00,AAXX 22124 41895 02950 00000 10260 20180 30061 40083 333 10290 59027 70000==
41895,2024,03,22,15,00,AAXX 22154 41895 02950 00901 10210 20190 30078 40101 333 59036 70000==
41895,2024,03,22,18,00,AAXX 22184 41895 01950 00501 10195 20190 30076 40099 70500 333 59036 70000==
41895,2024,03,22,21,00,AAXX 22214 41895 01950 00000 10185 20180 30065 40088 70500 333 59020 70000==
41895,2024,03,23,00,00,AAXX 23004 41895 01950 00000 10180 20170 30072 40095 70500 333 59017 70000==
41895,2024,03,23,03,00,AAXX 23034 41895 01956 00901 10244 20190 30092 40115 70500 333 20175 59013 70000==
41895,2024,03,23,06,00,AAXX 23064 41895 02957 02303 10304 20160 30080 40102 333 59016 70000==
41895,2024,03,23,09,00,AAXX 23094 41895 32457 02302 10324 20170 30046 40068 333 59018 70000=
41895,2024,03,23,12,00,AAXX 23124 41895 02956 02702 10286 20210 30040 40062 333 10330 59021 70000==
41895,2024,03,23,15,00,AAXX 23154 41895 02950 00000 10235 20220 30068 40091 333 59010 70000==
41895,2024,03,23,18,00,AAXX 23184 41895 02950 00000 10220 20200 30072 40094 333 59004 70000==
41895,2024,03,23,21,00,AAXX 23214 41895 02950 00000 10198 20190 30075 40098 333 58010 70000==
41895,2024,03,24,00,00,AAXX 24004 41895 02950 00000 10198 20190 30074 40097 333 58002 70000==
41895,2024,03,24,03,00,AAXX 24034 41895 01440 80000 10240 20220 30103 40125 70520 8452/ 333 20195 58011 70000 84615 88458==
41895,2024,03,24,06,00,AAXX 24064 41895 02457 21802 10315 20220 30096 40118 82500 333 58016 70000 82615==
41895,2024,03,24,09,00,AAXX 24094 41895 02558 23602 10325 20210 30075 40097 82100 333 58029 70000 82825==
41895,2024,03,24,12,00,AAXX 24124 41895 02956 30504 10285 20240 30079 40101 80001 333 10334 58039 70000 83074==
41895,2024,03,24,15,00,AAXX 24154 41895 02950 30504 10246 20220 30107 40129 80001 333 58039 70000 83074==
41895,2024,03,24,18,00,AAXX 24184 41895 02950 00502 10232 20220 30110 40133 333 58038 70000==
41895,2024,03,24,21,00,AAXX 24214 41895 02950 00000 10224 20210 30100 40123 333 58025 70000==
41895,2024,03,25,00,00,AAXX 25004 41895 01950 30000 10216 20216 30089 40112 70500 333 58015 70000==
41895,2024,03,25,03,00,AAXX 25034 41895 01940 80502 10231 20220 30115 40138 70521 333 20210 58012 70000 83615 88458==
41895,2024,03,25,06,00,AAXX 25064 41895 01440 80902 10252 20230 30108 40130 70522 8351/ 333 58012 70000 83615 88458==
41895,2024,03,25,09,00,AAXX 25094 41895 01450 53602 10295 20240 30076 40098 70522 85500 333 58001 70000 85615==
41895,2024,03,25,12,00,AAXX 25124 41895 01450 60000 10290 20250 30060 40083 70522 84520 333 10306 59019 70000 83616 86458==
41895,2024,03,25,15,00,AAXX 25154 41895 01450 50501 10260 20250 30076 40099 70522 83510 333 59031 70000 83616 85458==
41895,2024,03,25,18,00,AAXX 25184 41895 01450 80902 10260 20240 30091 40114 70522 8352/ 333 59010 70000 83616 88458==
41895,2024,03,25,21,00,AAXX 25214 41895 01450 52302 10225 20190 30075 40098 70522 83510 333 59025 70000 83616 85458==
41895,2024,03,26,00,00,AAXX 26004 41895 01450 81301 10200 20180 30089 40112 70522 8452/ 333 58000 70000 84616 88458==
41895,2024,03,26,03,00,AAXX 26034 41895 01956 00902 10250 20170 30122 40144 70520 333 20195 58007 70000==
41895,2024,03,26,06,00,AAXX 26064 41895 02957 00905 10300 20180 30116 40138 333 58008 70000==
41895,2024,03,26,09,00,AAXX 26094 41895 02957 00904 10316 20190 30083 40105 333 58007 70000==
41895,2024,03,26,12,00,AAXX 26124 41895 02456 60904 10286 20210 30086 40108 84520 333 10322 58026 70000 83616 86458==
41895,2024,03,26,15,00,AAXX 26154 41895 02950 00502 10250 20220 30117 40139 333 58041 70000==
41895,2024,03,26,18,00,AAXX 26184 41895 02950 00902 10240 20220 30119 40141 333 58028 70000==
41895,2024,03,26,21,00,AAXX 26214 41895 02950 00902 10230 20210 30113 40136 333 58038 70000==
41895,2024,03,27,00,00,AAXX 27004 41895 02950 00502 10216 20210 30112 40135 333 58023 70000==
41895,2024,03,27,03,00,AAXX 27034 41895 01450 81302 10260 20210 30138 40160 70520 8452/ 333 20215 58016 70000 84616 88458==
41895,2024,03,27,06,00,AAXX 27064 41895 01450 83101 10294 20220 30129 40152 70522 8452/ 333 58013 70000 84616 88458==
41895,2024,03,27,09,00,AAXX 27094 41895 01456 60501 10316 20230 30096 40118 70522 83510 333 58013 70000 83616 86458==
41895,2024,03,27,12,00,AAXX 27124 41895 01956 20503 10290 20220 30085 40108 70521 80001 333 10324 59001 70000 82074==
41895,2024,03,28,09,00,AAXX 28094 41895 02/58 53603 10314 20210 30066 40088 85030 333 59030 70000 85362==
41895,2024,03,28,12,00,AAXX 28124 41895 02450 30502 10290 20210 30065 40087 83500 333 10317 59020 70000 83616==
41895,2024,03,28,15,00,AAXX 28154 41895 32950 00501 10260 20240 30086 40109 333 59026 70000=
41895,2024,03,28,18,00,AAXX 28184 41895 02950 00000 10255 20240 30089 40112 333 59025 70000==
41895,2024,03,28,21,00,AAXX 28214 41895 01950 00000 10255 20240 30089 40112 70500 333 59025 70000==
41897,2024,03,22,00,00,AAXX 22004 41897 31930 00000 10180 20170 30089 40102 70500 333 59032 70000=
41897,2024,03,22,06,00,AAXX 22064 41897 31450 23602 10255 20180 30101 40114 70500 81510 333 56990 59036 70000 81618 81828=
41897,2024,03,22,12,00,AAXX 22124 41897 31940 00000 10245 20210 30071 40084 70500 10280 59022 70000=
41897,2024,03,22,18,00,AAXX 22184 41897 NIL=
41897,2024,03,23,00,00,AAXX 23004 41897 31930 00901 10190 20190 30077 40090 70500 333 59012 70000=
41897,2024,03,23,06,00,AAXX 23064 41897 31950 01802 10260 20190 30084 40098 70500 333 58017 70000=
41897,2024,03,23,12,00,AAXX 23124 41897 31950 00000 10280 20200 30047 40060 70500 333 10302 59024 70000=
41897,2024,03,23,18,00,AAXX 23184 41897 31950 00000 10224 20190 30080 40094 70500 333 59025 70000=
41897,2024,03,24,00,00,AAXX 24004 41897 31940 00000 10200 20190 30084 40097 70500 333 58007 70000=
41897,2024,03,24,06,00,AAXX 24064 41897 31950 20501 10285 20220 30106 40119 70520 82030 333 56090 58022 70000 82361=
41897,2024,03,24,09,00,AAXX 24094 41897 31950 10502 10294 20230 30084 40097 70500 81030 333 56090 58033 70000 81361=
41897,2024,03,24,12,00,AAXX 24124 41897 31950 30502 10260 20230 30091 40105 70500 83030 333 10312 56090 58044 70000 83361=
41897,2024,03,24,18,00,AAXX 24184 41897 31940 00501 10224 20210 30124 40138 70500 333 58044 70000=
41897,2024,03,25,00,00,AAXX 25004 41897 31930 00000 10207 20200 30097 40110 70500 333 58013 70000=
41897,2024,03,25,06,00,AAXX 25064 41897 31440 60000 10255 20240 30118 40132 82510 333 56990 58012 70000 82618 86458=
41897,2024,03,25,12,00,AAXX 25124 41897 31450 50000 10282 20250 30069 40082 70522 81510 333 10300 56990 59022 70000 81618 85458=
41897,2024,03,26,00,00,AAXX 26004 41897 11440 53601 10212 20170 30087 40100 60076 70596 82530 333 56990 59010 70072 82618 85361=
41897,2024,03,26,06,00,AAXX 26064 41897 31950 41301 10282 20190 30124 40138 70511 84030 333 56090 58006 70072 84361=
41897,2024,03,26,12,00,AAXX 26124 41897 31950 00000 10260 20230 30099 40113 70500 333 10295 58030 70072=
41897,2024,03,26,18,00,AAXX 26184 41897 31940 20901 10228 20210 30134 40148 70500 82030 333 56090 58041 70070 82361=
41897,2024,03,27,00,00,AAXX 27004 41897 31940 00000 10203 20190 30122 40135 70500 333 58035 70000=
41897,2024,03,27,06,00,AAXX 27064 41897 31950 00901 10288 20210 30136 40150 70500 333 58012 70000=
41897,2024,03,27,12,00,AAXX 27124 41897 31950 00000 10280 20230 30094 40108 70500 333 10300 59005 70000=
41897,2024,03,28,12,00,AAXX 28124 41897 31950 00000 10280 20210 30066 40079 70500 333 10310 59028 70000=
41897,2024,03,28,18,00,AAXX 28184 41897 31950 00000 10236 20220 30110 40124 70500 333 59011 70000=
41902,2024,03,22,00,00,AAXX 22004 41902 31430 72102 10180 20170 30097 40106 70544 83520 333 56990 59026 79999 83614 87459=
41902,2024,03,22,06,00,AAXX 22064 41902 31456 30902 10266 20180 30102 40111 70344 83500 333 56900 59038 79999 83616=
41902,2024,03,22,12,00,AAXX 22124 41902 31440 60000 10245 20200 30072 40081 70522 82530 333 10288 56990 59032 79999 82616 86362=
41902,2024,03,22,18,00,AAXX 22184 41902 31440 50901 10200 20190 30087 40096 70544 82530 333 56990 59022 70000 82616 85362=
41902,2024,03,23,00,00,AAXX 23004 41902 31415 70501 10188 20180 30082 40091 71044 83520 333 56990 59015 70000 83615 87459=
41902,2024,03,23,06,00,AAXX 23064 41902 31450 62702 10282 20190 30094 40102 70544 83530 333 56990 59008 70000 83616 86362=
41902,2024,03,23,12,00,AAXX 23124 41902 31440 21802 10260 20210 30061 40069 70544 82500 333 10300 56900 59011 70000 82616=
41902,2024,03,23,18,00,AAXX 23184 41902 11430 80903 10190 20180 30092 40101 60493 71796 8592/ 333 56999 58005 70487 83615 81928 88458=
41902,2024,03,24,00,00,AAXX 24004 41902 11440 80503 10190 20180 30106 40115 60633 79296 8692/ 333 56999 58024 70632 84614 81925 88458=
41902,2024,03,24,06,00,AAXX 24064 41902 NIL=
41902,2024,03,24,09,00,AAXX 24094 41902 NIL=
41902,2024,03,24,12,00,AAXX 24124 41902 31440 33602 10260 20220 30099 40107 70522 82530 333 10290 56990 58038 70632 83616=
41902,2024,03,24,18,00,AAXX 24184 41902 31440 30501 10215 20210 30113 40122 70522 82530 333 56990 58021 70145 83616=
41902,2024,03,25,00,00,AAXX 25004 41902 NIL=
41902,2024,03,25,06,00,AAXX 25064 41902 32450 82301 10292 20230 30120 40129 86420 333 56490 58001 70000 84616 86458=
41902,2024,03,25,12,00,AAXX 25124 41902 32950 00501 10290 20250 30085 40093 333 10312 59014 70000=
41902,2024,03,26,00,00,AAXX 26004 41902 31440 63609 10210 20210 30114 40123 70544 86420 333 56490 59015 70000 84616 86458=
41902,2024,03,26,06,00,AAXX 26064 41902 NIL=
41902,2024,03,26,12,00,AAXX 26124 41902 32450 33601 10257 20210 30109 40118 83500 333 10300 56900 58024 70000 83616=
41902,2024,03,26,18,00,AAXX 26184 41902 32440 73601 10220 20200 30127 40136 83520 333 56990 58029 70000 83614 87459=
41902,2024,03,27,00,00,AAXX 27004 41902 31430 30501 10205 20200 30128 40137 70544 83500 333 56900 58014 70000 83616=
41902,2024,03,27,06,00,AAXX 27064 41902 32456 31002 10312 20230 30127 40136 83500 333 56900 58012 70000 83616=
41902,2024,03,27,12,00,AAXX 27124 41902 11456 82802 10220 20190 30110 40118 60044 71792 8532/ 333 10332 56499 58001 70040 83712 85415 81925 88458=
41902,2024,03,28,12,00,AAXX 28124 41902 32430 21301 10287 20250 30074 40082 82500 333 10317 56900 59036 70020 82614=
41902,2024,03,28,18,00,AAXX 28184 41902 31420 20000 10231 20220 30092 40101 71044 82500 333 56900 59030 70000 82614=
41907,2024,03,22,00,00,AAXX 22004 41907 01930 00000 10178 20170 30090 40105 70500 333 59027 70000==
41907,2024,03,22,03,00,AAXX 22034 41907 01430 30000 10212 20190 30109 40124 70500 83500 333 20174 59035 70000 83615==
41907,2024,03,22,06,00,AAXX 22064 41907 02550 23103 10275 20140 30096 40111 82100 333 59038 70000 82825==
41907,2024,03,22,09,00,AAXX 22094 41907 02450 43102 10280 20150 30065 40080 84800 333 59037 70000 81615 83825==
41907,2024,03,22,12,00,AAXX 22124 41907 02450 30000 10255 20200 30065 40079 83500 333 10292 59024 70000 83615==
41907,2024,03,22,15,00,AAXX 22154 41907 02940 00000 10210 20190 30087 40102 333 59025 70000==
41907,2024,03,22,18,00,AAXX 22184 41907 02940 00000 10200 20180 30090 40105 333 59027 70000==
41907,2024,03,22,21,00,AAXX 22214 41907 02940 00000 10185 20180 30082 40097 333 59022 70000==
41907,2024,03,23,00,00,AAXX 23004 41907 01930 00000 10180 20170 30071 40086 70500 333 59019 70000==
41907,2024,03,23,03,00,AAXX 23034 41907 01940 00000 10255 20190 30095 40110 70500 333 20170 59014 70000==
41907,2024,03,23,06,00,AAXX 23064 41907 02950 01802 10310 20150 30085 40100 333 59011 70000==
41907,2024,03,23,09,00,AAXX 23094 41907 02450 31803 10320 20170 30050 40065 83500 333 59015 70000 83615==
41907,2024,03,23,12,00,AAXX 23124 41907 02950 00000 10295 20190 30043 40058 333 10322 59022 70000==
41907,2024,03,23,15,00,AAXX 23154 41907 02940 00000 10252 20200 30068 40083 333 59019 70000==
41907,2024,03,23,18,00,AAXX 23184 41907 02/40 53602 10230 20210 30071 40086 85030 333 59019 70000 85362==
41907,2024,03,23,21,00,AAXX 23214 41907 02440 80000 10220 20200 30076 40091 8552/ 333 59006 70000 85615 88458==
41907,2024,03,24,00,00,AAXX 24004 41907 02440 81302 10217 20210 30082 40097 8552/ 333 58011 70000 85615 88458==
41907,2024,03,24,03,00,AAXX 24034 41907 02440 81802 10280 20240 30104 40119 8552/ 333 20214 58009 70000 85615 88458==
41907,2024,03,24,06,00,AAXX 24064 41907 02440 60000 10312 20220 30100 40115 84510 333 58015 70000 84615 85458==
41907,2024,03,24,09,00,AAXX 24094 41907 02450 60000 10330 20190 30074 40089 84510 333 58024 70000 83615 85458==
41907,2024,03,24,12,00,AAXX 24124 41907 02440 61802 10300 20240 30081 40096 83510 333 10345 58038 70000 83615 85458==
41907,2024,03,24,15,00,AAXX 24154 41907 02940 01303 10245 20230 30106 40121 333 58038 70000==
41907,2024,03,24,18,00,AAXX 24184 41907 02940 01302 10235 20220 30112 40127 333 58041 70000==
41907,2024,03,24,21,00,AAXX 24214 41907 02935 00000 10226 20220 30100 40115 333 58024 70000==
41907,2024,03,25,00,00,AAXX 25004 41907 01/30 20000 10220 20210 30092 40107 70500 82030 333 58010 70000 82362==
41907,2024,03,25,03,00,AAXX 25034 41907 01430 80000 10245 20230 30115 40130 70500 8552/ 333 20216 58011 70000 85615 88458==
41907,2024,03,25,06,00,AAXX 25064 41907 01440 80000 10262 20230 30113 40128 70520 8552/ 333 58013 70000 85615 88458==
41907,2024,03,25,09,00,AAXX 25094 41907 01440 60000 10310 20240 30077 40092 70522 84510 333 58003 70000 84615 85458==
41907,2024,03,25,12,00,AAXX 25124 41907 01440 80000 10295 20250 30062 40077 70522 8552/ 333 10320 59019 70000 85615 88458==
41907,2024,03,25,15,00,AAXX 25154 41907 01430 80000 10265 20250 30086 40100 70522 8552/ 333 59020 70000 85615 88458==
41907,2024,03,25,18,00,AAXX 25184 41907 01330 81802 10230 20210 30094 40109 79192 8532/ 333 59018 70030 82709 85615 88458 81930==
41907,2024,03,25,21,00,AAXX 25214 41907 02430 80000 10210 20190 30090 40105 8452/ 333 59010 70026 84615 88458==
41907,2024,03,26,00,00,AAXX 26004 41907 01430 20000 10195 20190 30086 40101 70522 82500 333 59008 70026 82615==
41907,2024,03,26,03,00,AAXX 26034 41907 02440 60502 10255 20190 30124 40139 83570 333 20192 58009 70026 83615 84458==
41907,2024,03,26,06,00,AAXX 26064 41907 02950 01302 10180 30118 40132 333 58005 70026==
41907,2024,03,26,09,00,AAXX 26094 41907 02956 00000 10320 20190 30087 40102 333 58010 70026==
41907,2024,03,26,12,00,AAXX 26124 41907 02956 00000 10285 20220 30090 40105 333 10322 58028 70026==
41907,2024,03,26,15,00,AAXX 26154 41907 02940 00000 10250 20220 30118 40133 333 58032 70026==
41907,2024,03,26,18,00,AAXX 26184 41907 02940 00000 10235 20220 30124 40139 333 58030 70000==
41907,2024,03,26,21,00,AAXX 26214 41907 02440 60000 10228 20210 30112 40127 83510 333 58022 70000 83615 88458==
41907,2024,03,27,00,00,AAXX 27004 41907 02440 80000 10220 20200 30117 40132 8552/ 333 58031 70000 85615 88458==
41907,2024,03,27,03,00,AAXX 27034 41907 02440 80000 10255 20220 30140 40155 8552/ 333 20214 58016 70000 85615 88458==
41907,2024,03,27,06,00,AAXX 27064 41907 02450 81301 10300 20220 30132 40147 8551/ 333 58014 70000 85615 88458==
41907,2024,03,27,09,00,AAXX 27094 41907 02450 60000 10320 20220 30097 40111 83810 333 58010 70000 83615 85458==
41907,2024,03,27,12,00,AAXX 27124 41907 02950 00503 10293 20230 30088 40103 333 10329 59002 70000==
41907,2024,03,27,15,00,AAXX 27154 41907 02940 00502 10255 20260 30113 40128 333 59005 70000==
41907,2024,03,28,03,00,AAXX 28034 41907 01940 00902 10260 20220 30110 40125 70500 333 20208 59030 70000==
41907,2024,03,28,06,00,AAXX 28064 41907 02950 00902 10308 20230 30098 40112 333 59034 70000==
41907,2024,03,28,09,00,AAXX 28094 41907 02450 31302 10325 20220 30069 40084 83500 333 59028 70000==
41907,2024,03,28,12,00,AAXX 28124 41907 02950 00901 10290 20210 30068 40082 333 10332 59020 70000==
41907,2024,03,28,15,00,AAXX 28154 41907 02940 00000 10250 20220 30095 40110 333 59018 70000==
41907,2024,03,28,18,00,AAXX 28184 41907 02440 80000 10245 20230 30094 40109 8552/ 333 59023 70000 85615 88458==
41907,2024,03,28,21,00,AAXX 28214 41907 02440 80000 10230 20220 30082 40097 8552/ 333 59022 70000 85615 88458==
41909,2024,03,22,00,00,AAXX 22004 41909 01445 70000 10185 20170 30091 40103 70522 84570 333 59038 70011 84615 86460==
41909,2024,03,22,03,00,AAXX 22034 41909 01450 70000 10220 20180 30113 40123 70522 83570 333 20182 59035 70011 83615 86460==
41909,2024,03,22,06,00,AAXX 22064 41909 02456 50000 10260 20170 30101 40113 82530 333 59040 70011 82615 85362==
41909,2024,03,22,09,00,AAXX 22094 41909 02456 50000 10282 20160 30081 40092 82530 333 59023 70011 82615 85360==
41909,2024,03,22,12,00,AAXX 22124 41909 02450 50000 10270 20170 30066 40077 82530 333 10286 59028 70011 82615 85362==
41909,2024,03,22,15,00,AAXX 22154 41909 02440 70000 10220 20190 30084 40096 83570 333 59027 70000 83615 86460==
41909,2024,03,22,18,00,AAXX 22184 41909 02440 70000 10210 20190 30085 40097 83570 333 59032 70000 83615 86460==
41909,2024,03,22,21,00,AAXX 22214 41909 02440 70000 10205 20200 30083 40095 83570 333 59013 70000 86460==
41909,2024,03,23,00,00,AAXX 23004 41909 02440 50000 10195 20190 30072 40084 82530 333 59019 70000 82615 85362==
41909,2024,03,23,03,00,AAXX 23034 41909 01950 00000 10244 20190 30101 40113 70520 333 20190 59012 70000==
41909,2024,03,23,06,00,AAXX 23064 41909 02956 00000 10294 20200 30093 40104 333 59008 70000==
41909,2024,03,23,09,00,AAXX 23094 41909 02956 01301 10309 20170 30059 40070 333 59022 70000==
41909,2024,03,23,12,00,AAXX 23124 41909 02950 00000 10280 20180 30050 40061 333 10312 59016 70000==
41909,2024,03,23,15,00,AAXX 23154 41909 02940 00000 10250 20200 30075 40086 333 59009 70000==
41909,2024,03,23,18,00,AAXX 23184 41909 02440 51801 10234 20190 30082 40094 82530 333 59003 70000 82615 85360==
41909,2024,03,23,21,00,AAXX 23214 41909 02330 81801 10224 20190 30088 40100 8562/ 333 58005 70000 84708 88458==
41909,2024,03,24,00,00,AAXX 24004 41909 02340 81801 10212 20190 30095 40107 8562/ 333 58023 70000 84708 88458==
41909,2024,03,24,03,00,AAXX 24034 41909 02450 81402 10234 20200 30116 40128 8352/ 333 20199 58015 70000 83615 88458==
41909,2024,03,24,06,00,AAXX 24064 41909 02456 60402 10291 20220 30112 40123 83530 333 58019 70000 83615 84365==
41909,2024,03,24,09,00,AAXX 24094 41909 02456 61302 10310 20230 30085 40096 83330 333 58025 70000 83615 83365 81930==
41909,2024,03,24,12,00,AAXX 24124 41909 02456 51302 10280 20220 30089 40100 82530 333 10318 58039 70000 82615 84365==
41909,2024,03,24,15,00,AAXX 24154 41909 02940 02202 10246 20220 30112 40124 333 58037 70000==
41909,2024,03,24,18,00,AAXX 24184 41909 01430 20000 10232 20210 30115 40127 70520 82500 333 58033 70000 82615==
41909,2024,03,24,21,00,AAXX 24214 41909 01930 00000 10224 20210 30106 40118 70500 333 58018 70000==
41909,2024,03,25,00,00,AAXX 25004 41909 01940 01302 10215 20210 30099 40111 70500 333 58004 70000==
41909,2024,03,25,03,00,AAXX 25034 41909 01450 81302 10242 20210 30118 40130 70520 8452/ 333 20213 58002 70000 84614 88458==
41909,2024,03,25,06,00,AAXX 25064 41909 02450 61301 10290 20220 30112 40123 83510 333 58000 70000 83614 86458==
41909,2024,03,25,09,00,AAXX 25094 41909 02450 60000 10312 20230 30085 40096 83530 333 58000 70000 83614 86458==
41909,2024,03,25,12,00,AAXX 25124 41909 02440 80000 10300 20240 30070 40081 8452/ 333 10320 59019 70000 84614 88458==
41909,2024,03,25,15,00,AAXX 25154 41909 02440 80000 10275 20240 30086 40097 8452/ 333 59026 70000 84614 88458==
41909,2024,03,25,18,00,AAXX 25184 41909 01440 80000 10250 20240 30094 40105 79596 8592/ 333 59024 70010 84614 88458 81930==
41909,2024,03,25,21,00,AAXX 25214 41909 02440 80000 10235 20230 30094 40105 8592/ 333 59021 70020 85614 88458 81930==
41909,2024,03,26,00,00,AAXX 26004 41909 22440 80000 10224 20210 30088 40100 8352/ 333 59007 60017 70020 83615 88458==
41909,2024,03,26,03,00,AAXX 26034 41909 02956 00000 10250 20170 30130 40142 333 20220 58012 70030==
41909,2024,03,26,06,00,AAXX 26064 41909 02956 00000 10300 20190 30127 40138 333 58015 70030==
41909,2024,03,26,09,00,AAXX 26094 41909 02350 80000 10302 20190 30098 40109 8562/ 333 58013 70030 84708 85614 88458==
41909,2024,03,26,12,00,AAXX 26124 41909 02950 00000 10284 20200 30097 40108 333 10314 58027 70030==
41909,2024,03,26,15,00,AAXX 26154 41909 02940 00000 10252 20210 30122 40134 333 58036 70030==
41909,2024,03,26,18,00,AAXX 26184 41909 32940 00000 10236 20210 30128 40140 333 58037 70030=
41909,2024,03,26,21,00,AAXX 26214 41909 02940 00000 10222 20200 30126 40138 333 58032 70000==
41909,2024,03,27,00,00,AAXX 27004 41909 02450 50000 10218 20200 30124 40136 82530 333 58036 70000 82615 85360==
41909,2024,03,27,03,00,AAXX 27034 41909 02956 00000 10256 20210 30144 40156 333 20215 58014 70000==
41909,2024,03,27,06,00,AAXX 27064 41909 02456 60000 10306 20220 30134 40145 83530 333 58007 70000 83615 85360==
41909,2024,03,27,09,00,AAXX 27094 41909 02456 60000 10329 20210 30099 40110 82510 333 58001 70000 82615 85458==
41909,2024,03,27,12,00,AAXX 27124 41909 02456 80502 10304 20220 30088 40099 8432/ 333 10344 59009 70000 83615 88458 81930==
41909,2024,03,28,09,00,AAXX 28094 41909 02456 20000 10320 20200 30070 40081 82500 333 59029 70000 82615==
41909,2024,03,28,12,00,AAXX 28124 41909 02956 00000 10302 20220 30066 40077 333 10333 59022 70000==
41909,2024,03,28,15,00,AAXX 28154 41909 02/50 40401 10270 20220 30093 40104 84030 333 59019 70000==
41909,2024,03,28,18,00,AAXX 28184 41909 02940 01302 10244 20200 30097 40109 333 59029 70000==
41909,2024,03,28,21,00,AAXX 28214 41909 01430 60000 10240 20210 30081 40093 70500 83530 333 59025 70000 83615 84365==
41915,2024,03,22,00,00,AAXX 22004 41915 01450 40000 10170 20160 30090 40116 70522 84400 333 59032 70002 83616==
41915,2024,03,22,03,00,AAXX 22034 41915 02/56 40000 10238 20170 30110 40135 84030 333 20170 59020 70002 84362==
41915,2024,03,22,06,00,AAXX 22064 41915 02456 42003 10274 20130 30089 40114 84400 333 59042 70000 83616==
41915,2024,03,22,09,00,AAXX 22094 41915 02456 52302 10285 20130 30062 40087 84430 333 59045 70000 83616 83362==
41915,2024,03,22,12,00,AAXX 22124 41915 02456 60502 10262 20150 30058 40083 85430 333 10292 59039 70000 84615 83362==
41915,2024,03,22,15,00,AAXX 22154 41915 02450 40000 10208 20190 30076 40102 84500 333 59042 70000 84616==
41915,2024,03,22,18,00,AAXX 22184 41915 02450 40000 10193 20180 30078 40103 84500 333 59037 70000 84616==
41915,2024,03,22,21,00,AAXX 22214 41915 02950 00000 10184 20170 30076 40102 333 59023 70000==
41915,2024,03,23,00,00,AAXX 23004 41915 02950 00000 10180 20170 30075 40101 333 59015 70000==
41915,2024,03,23,06,00,AAXX 23064 41915 NIL=
41915,2024,03,23,09,00,AAXX 23094 41915 02456 72803 10290 20180 30062 40087 85410 333 58000 70000 84616 85458==
41915,2024,03,23,12,00,AAXX 23124 41915 02950 00000 10270 20200 30054 40079 333 10304 59004 70000==
41915,2024,03,23,15,00,AAXX 23154 41915 01440 83103 10182 20170 30095 40121 79792 8692/ 333 58019 70150 82712 85615 88458 81925==
41915,2024,03,23,18,00,AAXX 23184 41915 01440 82302 10185 20180 30101 40127 79592 8692/ 333 58023 70172 83710 84615 88458 81925==
41915,2024,03,23,21,00,AAXX 23214 41915 02440 82302 10182 20170 30088 40114 8692/ 333 58012 70172 84615 88458 81925==
41915,2024,03,24,00,00,AAXX 24004 41915 01450 80501 10183 20170 30098 40124 71796 8592/ 333 58023 70040 84615 88458 81925==
41915,2024,03,24,03,00,AAXX 24034 41915 01456 41202 10228 20190 30124 40149 70192 84400 333 20180 58027 70208 83616==
41915,2024,03,24,06,00,AAXX 24064 41915 01456 71302 10280 20170 30112 40137 70392 85410 333 58027 70208 84616 86458==
41915,2024,03,24,09,00,AAXX 24094 41915 02456 51803 10300 20200 30079 40104 85400 333 58017 70208 84616==
41915,2024,03,24,12,00,AAXX 24124 41915 02456 40000 10273 20210 30081 40106 84300 333 10304 58027 70208 83616 81930==
41915,2024,03,24,15,00,AAXX 24154 41915 01450 51601 10240 20230 30112 40138 72996 85390 333 58017 70066 84616 81928==
41915,2024,03,24,18,00,AAXX 24184 41915 21450 20000 10228 20220 30110 40136 70196 82500 333 58009 69988 70044 82616==
41915,2024,03,24,21,00,AAXX 24214 41915 02950 00000 10213 20210 30098 40124 333 58010 70044==
41915,2024,03,25,00,00,AAXX 25004 41915 01915 00000 10205 20205 30099 40125 71040 333 58001 70008==
41915,2024,03,25,03,00,AAXX 25034 41915 01950 00000 10254 20200 30121 40146 70540 333 20203 59003 70008==
41915,2024,03,25,06,00,AAXX 25064 41915 02456 31903 10300 20220 30109 40134 83500 333 59002 70008 83616==
41915,2024,03,25,09,00,AAXX 25094 41915 02456 32302 10321 20210 30080 40105 83400 333 58001 70008 82616==
41915,2024,03,25,12,00,AAXX 25124 41915 02/50 10000 10292 20220 30072 40097 81030 333 10326 59009 70000 81362==
41915,2024,03,25,15,00,AAXX 25154 41915 02450 70000 10252 20220 30091 40116 83510 333 59021 70000 83616 86460==
41915,2024,03,25,18,00,AAXX 25184 41915 02450 70000 10240 20220 30091 40116 83510 333 59019 70000 83616 86460==
41915,2024,03,26,00,00,AAXX 26004 41915 21450 80000 10198 20190 30111 40136 70299 8541/ 333 58012 60045 70042 84615 88460==
41915,2024,03,26,03,00,AAXX 26034 41915 02956 01303 10250 20160 30129 40155 333 20188 58008 70042==
41915,2024,03,26,06,00,AAXX 26064 41915 02556 13102 10300 20170 30113 40138 81100 333 58004 70042 81822==
41915,2024,03,26,09,00,AAXX 26094 41915 02956 03404 10312 20180 30087 40112 333 58007 70042==
41915,2024,03,26,12,00,AAXX 26124 41915 02456 23002 10268 20210 30095 40120 82500 333 10318 58023 70042 82616==
41915,2024,03,26,15,00,AAXX 26154 41915 02950 00000 10230 20220 30116 40141 333 58025 70042==
41915,2024,03,26,18,00,AAXX 26184 41915 32950 00000 10215 20210 30121 40146 333 58030 70042=
41915,2024,03,26,21,00,AAXX 26214 41915 01940 00000 10206 20206 30115 40141 70500 333 58011 70042==
41915,2024,03,27,00,00,AAXX 27004 41915 01940 00000 10200 20200 30118 40144 70500 333 58007 70000==
41915,2024,03,27,03,00,AAXX 27034 41915 02956 00000 10265 20220 30142 40167 333 20200 58013 70000==
41915,2024,03,27,06,00,AAXX 27064 41915 02456 51301 10318 20210 30132 40157 85400 333 58017 70000 84616==
41915,2024,03,27,09,00,AAXX 27094 41915 02456 50000 10322 20180 30094 40119 85400 333 58007 70000 84616==
41915,2024,03,27,12,00,AAXX 27124 41915 01350 80000 10288 20240 30085 40110 79591 8592/ 333 10327 59010 70000 84709 88458 81926==
41915,2024,03,28,09,00,AAXX 28094 41915 42556 10501 10322 20210 30061 40086 81100 333 59033 81822==
41915,2024,03,28,12,00,AAXX 28124 41915 02450 21301 10260 20200 30071 40096 82300 333 10330 59014 70000 82616 81930==
41915,2024,03,28,15,00,AAXX 28154 41915 02450 20000 10240 20210 30092 40117 82500 333 59019 70000 82616==
41915,2024,03,28,18,00,AAXX 28184 41915 02450 20000 10222 20200 30095 40120 82500 333 59022 70000 82616==
41915,2024,03,28,21,00,AAXX 28214 41915 02450 20000 10218 20200 30082 40107 82500 333 59020 70000 82616==
41923,2024,03,22,00,00,AAXX 22004 41923 11340 70000 10188 20180 30101 40111 69916 70562 84370 333 59033 70161 82709 83615 85458 81930==
41923,2024,03,22,03,00,AAXX 22034 41923 01/35 20000 10234 20170 30120 40130 70520 82030 333 20183 59035 70161 82360==
41923,2024,03,22,06,00,AAXX 22064 41923 01450 50000 10276 20150 30103 40113 70521 84430 333 59038 70161 82616 83824==
41923,2024,03,22,09,00,AAXX 22094 41923 01/50 31804 10292 20150 30075 40085 70511 83030 333 59034 70161 83365==
41923,2024,03,22,12,00,AAXX 22124 41923 01945 02402 10276 20160 30070 40080 70510 333 10294 59032 70161==
41923,2024,03,22,15,00,AAXX 22154 41923 01940 00000 10229 20180 30091 40101 70500 333 59038 70021==
41923,2024,03,22,18,00,AAXX 22184 41923 01940 00000 10215 20190 30089 40099 70500 333 59026 70001==
41923,2024,03,22,21,00,AAXX 22214 41923 01940 00000 10208 20190 30081 40091 70500 333 59016 70000==
41923,2024,03,23,00,00,AAXX 23004 41923 01940 00000 10202 20190 30084 40094 70500 333 59017 70000==
41923,2024,03,23,03,00,AAXX 23034 41923 01945 01202 10268 20180 30108 40117 70500 333 20200 59012 70000==
41923,2024,03,23,06,00,AAXX 23064 41923 01/50 31802 10306 20160 30097 40107 70510 83030 333 59006 70000 83366==
41923,2024,03,23,09,00,AAXX 23094 41923 02/50 22102 10314 20140 30063 40073 82030 333 59012 70000==
41923,2024,03,23,12,00,AAXX 23124 41923 02/50 21302 10288 20170 30060 40070 82030 333 10319 59010 70000 82362==
41923,2024,03,23,15,00,AAXX 23154 41923 01/45 11704 10265 20220 30082 40092 70500 81030 333 59009 70000 81362==
41923,2024,03,23,18,00,AAXX 23184 41923 01340 80504 10256 20220 30091 40100 70520 8632/ 333 58002 70000 83708 85614 88458 81928==
41923,2024,03,23,21,00,AAXX 23214 41923 01320 80604 10204 20200 30104 40114 79596 8792/ 333 58023 70280 84708 85614 88458 81928==
41923,2024,03,24,00,00,AAXX 24004 41923 21330 60000 10210 20200 30099 40109 70596 85630 333 58015 60288 70284 82709 84615 85362==
41923,2024,03,24,03,00,AAXX 24034 41923 01340 60802 10239 20210 30127 40137 70522 85630 333 20198 58019 70284 82708 84614 85362==
41923,2024,03,24,06,00,AAXX 24064 41923 01345 71402 10285 20230 30116 40126 70522 85670 333 58019 70284 82708 84614 85459==
41923,2024,03,24,09,00,AAXX 24094 41923 02356 50000 10314 20220 30086 40096 84630 333 58023 70284 82708 83615==
41923,2024,03,24,12,00,AAXX 24124 41923 01345 81802 10242 20210 30096 40105 79596 8592/ 333 10327 58036 70070 83709 84614 88458 81930==
41923,2024,03,24,15,00,AAXX 24154 41923 01340 70000 10224 20200 30113 40123 70162 85670 333 58031 70366 82709 84614 85458==
41923,2024,03,24,18,00,AAXX 24184 41923 11340 70000 10222 20190 30119 40129 60016 70262 85670 333 58028 70366 82709 84614 85458==
41923,2024,03,24,21,00,AAXX 24214 41923 01330 70000 10218 20200 30112 40122 70522 85670 333 58008 70086 82709 84614 85458==
41923,2024,03,25,00,00,AAXX 25004 41923 01330 80000 10214 20190 30115 40125 70522 8562/ 333 58016 70082 82709 84615 88458==
41923,2024,03,25,03,00,AAXX 25034 41923 01335 70000 10266 20220 30129 40138 70522 85670 333 20209 58002 70082 82709 84614 85458==
41923,2024,03,25,06,00,AAXX 25064 41923 02445 51802 10310 20220 30118 40128 82530 333 58002 70082 82615 85360==
41923,2024,03,25,09,00,AAXX 25094 41923 02450 50000 10326 20220 30089 40099 83430 333 58003 70082 82615 84362==
41923,2024,03,25,12,00,AAXX 25124 41923 02450 51802 10304 20230 30080 40090 83430 333 10331 59016 70012 82615 83360==
41923,2024,03,25,15,00,AAXX 25154 41923 02445 51802 10283 20230 30094 40104 82530 333 59019 70000 82615 84360==
41923,2024,03,25,18,00,AAXX 25184 41923 02340 70000 10268 20240 30106 40115 84370 333 59013 70000 81709 83615 86458 81930==
41923,2024,03,25,21,00,AAXX 25214 41923 02340 70000 10252 20210 30086 40095 84370 333 59026 70000 81709 83615 86458 81930==
41923,2024,03,26,00,00,AAXX 26004 41923 02440 40603 10235 20200 30124 40133 81530 333 58009 70000 81616 83362==
41923,2024,03,26,03,00,AAXX 26034 41923 42/45 20604 10264 20180 30136 40145 82030 333 20220 58007 82365==
41923,2024,03,26,06,00,AAXX 26064 41923 02/56 20603 10308 20180 30124 40134 82030 333 58006 70000 82365==
41923,2024,03,26,09,00,AAXX 26094 41923 02456 50000 10320 20180 30097 40107 84330 333 58008 70000 83615 81930==
41923,2024,03,26,12,00,AAXX 26124 41923 02350 70000 10300 20200 30105 40115 85370 333 10322 58025 70000 82709 84615 85458 81930==
41923,2024,03,26,15,00,AAXX 26154 41923 02/45 30000 10262 20210 30129 40139 83030 333 58035 70000 83362==
41923,2024,03,26,18,00,AAXX 26184 41923 02/45 20000 10250 20220 30133 40143 82030 333 58027 70000 82360==
41923,2024,03,26,21,00,AAXX 26214 41923 02/40 20000 10240 20220 30127 40137 82030 333 58041 70000 82360==
41923,2024,03,27,00,00,AAXX 27004 41923 01/40 20000 10232 20220 30129 40139 70500 82030 333 58005 70000 82360==
41923,2024,03,27,03,00,AAXX 27034 41923 01950 00000 10286 20230 30148 40158 70500 333 20230 58012 70000==
41923,2024,03,27,06,00,AAXX 27064 41923 01450 61802 10312 20220 30137 40147 70520 84330 333 58013 70000 83615 85360 81930==
41923,2024,03,27,09,00,AAXX 27094 41923 01450 52402 10330 20220 30106 40116 70522 82530 333 58009 70000 82616 85365==
41923,2024,03,27,12,00,AAXX 27124 41923 01440 81802 10312 20220 30097 40107 70522 8552/ 333 10332 59009 70000 85615 88460==
41923,2024,03,27,15,00,AAXX 27154 41923 01330 83303 10248 20210 30129 40138 79596 8692/ 333 58000 70006 83707 84613 88458 81928==
41923,2024,03,27,18,00,AAXX 27184 41923 NIL=
41923,2024,03,27,21,00,AAXX 27214 41923 NIL=
41923,2024,03,28,03,00,AAXX 28034 41923 01445 50302 10276 20230 30122 40132 70522 82530 333 20226 59026 70012 82615 85365==
41923,2024,03,28,06,00,AAXX 28064 41923 01450 60302 10309 20240 30106 40116 70522 83530 333 59032 70012 83615 86365==
41923,2024,03,28,09,00,AAXX 28094 41923 01330 80000 10321 20220 30073 40083 76122 8632/ 333 59033 70012 83708 84614 88458 81928==
41923,2024,03,28,12,00,AAXX 28124 41923 21450 40605 10280 20220 30075 40085 70562 83430 333 10323 59022 60025 70030 83615 83362==
41923,2024,03,28,15,00,AAXX 28154 41923 01445 50000 10258 20210 30107 40116 70522 82530 333 59022 70024 82616 84362==
41923,2024,03,28,18,00,AAXX 28184 41923 01440 50000 10242 20220 30103 40112 70522 82530 333 59020 70018 82616 84362==
41923,2024,03,28,21,00,AAXX 28214 41923 01335 70000 10238 20220 30085 40094 70522 85670 333 59029 70018 82709 84615 85459==
41926,2024,03,22,00,00,AAXX 22004 41926 01450 30000 10184 20170 30094 40108 70500 83500 333 59040 70000 83618==
41926,2024,03,22,03,00,AAXX 22034 41926 01950 00000 10232 20180 30110 40124 70500 333 20184 59037 70000==
41926,2024,03,22,06,00,AAXX 22064 41926 01450 30000 10275 20160 30097 40111 70500 83500 333 59041 70000 83618==
41926,2024,03,22,09,00,AAXX 22094 41926 02456 33103 10290 20150 30068 40082 83500 333 59037 70000 83618==
41926,2024,03,22,12,00,AAXX 22124 41926 02950 00000 10260 20170 30065 40079 333 10292 59026 70000==
41926,2024,03,22,15,00,AAXX 22154 41926 01950 00000 10210 20190 30084 40098 70500 333 59033 70000==
41926,2024,03,22,18,00,AAXX 22184 41926 NIL=
41926,2024,03,22,21,00,AAXX 22214 41926 01950 00000 10180 20170 30071 40085 70500 333 59017 70000==
41926,2024,03,23,00,00,AAXX 23004 41926 01940 00000 10170 20160 30074 40088 70500 333 59020 70000==
41926,2024,03,23,03,00,AAXX 23034 41926 01950 00000 10245 20200 30098 40112 70500 333 20170 59012 70000==
41926,2024,03,23,06,00,AAXX 23064 41926 02456 12301 10300 20180 30088 40102 81500 333 59009 70000 81618==
41926,2024,03,23,09,00,AAXX 23094 41926 02956 00000 10318 20190 30050 40063 333 59018 70000==
41926,2024,03,23,12,00,AAXX 23124 41926 02950 00000 10292 20210 30048 40061 333 10323 59017 70000==
41926,2024,03,23,15,00,AAXX 23154 41926 01950 00000 10249 20230 30069 40083 70500 333 59015 70000==
41926,2024,03,23,18,00,AAXX 23184 41926 01950 00000 10249 20240 30074 40088 70500 333 59009 70000==
41926,2024,03,23,21,00,AAXX 23214 41926 01950 00000 10247 20240 30079 40093 70500 333 58008 70000==
41926,2024,03,24,00,00,AAXX 24004 41926 01950 00000 10247 20240 30083 40097 70500 333 58009 70000==
41926,2024,03,24,03,00,AAXX 24034 41926 01450 52701 10274 20230 30105 40119 70520 82510 333 20244 58007 70000 82618 84459==
41926,2024,03,24,06,00,AAXX 24064 41926 02456 50000 10312 20230 30104 40118 82510 333 58016 70000 82618 84459==
41926,2024,03,24,09,00,AAXX 24094 41926 02456 21801 10343 20200 30074 40087 82500 333 58024 70000 82618==
41926,2024,03,24,12,00,AAXX 24124 41926 02450 20000 10317 20220 30076 40089 82500 333 10350 58011 70000 82618==
41926,2024,03,24,15,00,AAXX 24154 41926 01950 00000 10266 20240 30103 40117 70500 333 58034 70000==
41926,2024,03,24,18,00,AAXX 24184 41926 01950 00000 10248 20230 30109 40123 70500 333 58035 70000==
41926,2024,03,24,21,00,AAXX 24214 41926 01950 00000 10232 20220 30100 40114 70500 333 58021 70000==
41926,2024,03,25,00,00,AAXX 25004 41926 01950 00000 10218 20210 30093 40107 70500 333 58010 70000==
41926,2024,03,25,03,00,AAXX 25034 41926 02450 80000 10252 20240 30113 40127 8352/ 333 20216 58008 70000 83618 88458==
41926,2024,03,25,06,00,AAXX 25064 41926 02456 60000 10315 20240 30107 40120 83510 333 58003 70000 83618 86459==
41926,2024,03,25,09,00,AAXX 25094 41926 02456 40000 10330 20230 30076 40089 82510 333 58002 70000 82618 84459==
41926,2024,03,25,12,00,AAXX 25124 41926 02450 60000 10304 20240 30064 40077 83510 333 10335 59012 70000 83618 86459==
41926,2024,03,25,15,00,AAXX 25154 41926 01450 60000 10274 20250 30077 40091 70522 81510 333 59026 70000 81618 86459==
41926,2024,03,25,18,00,AAXX 25184 41926 01950 62202 10247 20170 30096 40110 70522 82510 333 59013 70000 82618 86459==
41926,2024,03,26,00,00,AAXX 26004 41926 01/50 20000 10185 20180 30100 40114 70520 82030 333 58007 70000 82362==
41926,2024,03,26,03,00,AAXX 26034 41926 01956 00000 10260 20180 30123 40137 70500 333 20185 58010 70000==
41926,2024,03,26,06,00,AAXX 26064 41926 02956 00000 10307 20180 30119 40133 333 58012 70000==
41926,2024,03,26,09,00,AAXX 26094 41926 02957 02002 10322 20180 30088 40101 333 58012 70000==
41926,2024,03,26,12,00,AAXX 26124 41926 02456 60000 10290 20220 30092 40106 82510 333 10332 58028 70000 82618 86459==
41926,2024,03,26,15,00,AAXX 26154 41926 02/56 30000 10245 20230 30115 40129 83030 333 58038 70000 83362==
41926,2024,03,26,18,00,AAXX 26184 41926 31950 00000 10230 20220 30124 40138 70500 333 58028 70000=
41926,2024,03,26,21,00,AAXX 26214 41926 01950 00000 10226 20220 30122 40136 70500 333 58024 70000==
41926,2024,03,27,00,00,AAXX 27004 41926 01440 60000 10223 20210 30121 40135 70520 82510 333 58021 70000 82618 86459==
41926,2024,03,27,03,00,AAXX 27034 41926 41450 80000 10245 20230 30142 40156 75122 8352/ 333 20215 58019 83618 88458==
41926,2024,03,27,06,00,AAXX 27064 41926 21450 60000 10302 20230 30131 40145 70152 83510 333 58012 60008 83618 86459==
41926,2024,03,27,09,00,AAXX 27094 41926 02456 51802 10327 20230 30095 40108 81510 333 58007 70000 81618 85459==
41926,2024,03,27,12,00,AAXX 27124 41926 42456 50000 10299 20250 30086 40100 81510 333 10332 58006 81618 85459==
41926,2024,03,28,09,00,AAXX 28094 41926 02456 50000 10340 20230 30064 40077 83430 333 59030 70000 82618 84362==
41926,2024,03,28,12,00,AAXX 28124 41926 02450 30000 10315 20220 30064 40077 83500 333 10344 59022 70000 83618==
41926,2024,03,28,15,00,AAXX 28154 41926 01450 20000 10270 20230 30091 40105 70500 82500 333 59021 70000 82618==
41926,2024,03,28,18,00,AAXX 28184 41926 01450 20000 10255 20230 30094 40108 70500 82500 333 59023 70000 82618==
41926,2024,03,28,21,00,AAXX 28214 41926 01950 00000 10250 20230 30072 40086 70500 333 59037 70000==
41927,2024,03,22,00,00,AAXX 22004 41927 31950 00000 10185 20180 30098 40112 70500 333 59027 70000=
41927,2024,03,22,06,00,AAXX 22064 41927 32457 61303 10260 20150 30096 40110 83510 333 56490 59040 70000 83617 85459=
41927,2024,03,22,12,00,AAXX 22124 41927 32957 00000 10268 20160 30064 40078 333 10286 59029 70000=
41927,2024,03,22,18,00,AAXX 22184 41927 NIL=
41927,2024,03,23,00,00,AAXX 23004 41927 31950 00000 10190 20180 30076 40090 70500 333 59022 70000=
41927,2024,03,23,06,00,AAXX 23064 41927 32958 01301 10300 20160 30090 40104 333 59006 70000=
41927,2024,03,23,12,00,AAXX 23124 41927 32957 00000 10290 20170 30048 40062 333 10318 59016 70000=
41927,2024,03,23,18,00,AAXX 23184 41927 31950 02301 10245 20230 30078 40092 333 59014 70000=
41927,2024,03,24,00,00,AAXX 24004 41927 31450 30000 10238 20230 30088 40102 70500 83500 333 56500 58012 70000 83617=
41927,2024,03,24,06,00,AAXX 24064 41927 32958 02301 10314 20200 30103 40118 333 58013 70000=
41927,2024,03,24,09,00,AAXX 24094 41927 32458 22701 10330 20180 30075 40090 82500 333 56600 58025 70000 82618=
41927,2024,03,24,12,00,AAXX 24124 41927 32456 62803 10300 20190 30081 40095 83510 333 10335 56690 58033 70000 83617 85459=
41927,2024,03,24,18,00,AAXX 24184 41927 32956 31901 10247 20220 30112 40127 83010 333 56090 58034 70000 83459=
41927,2024,03,25,00,00,AAXX 25004 41927 31450 60000 10225 20225 30095 40110 70520 83510 333 56490 58007 70000 83618 86459=
41927,2024,03,25,06,00,AAXX 25064 41927 32456 51901 10293 20240 30109 40124 82510 333 56490 58006 70000 82618 85459=
41927,2024,03,25,12,00,AAXX 25124 41927 32457 62101 10258 20230 30064 40079 83510 333 10335 56590 59017 70000 83617 86459=
41927,2024,03,25,18,00,AAXX 25184 41927 11450 72302 10225 20220 30099 40114 60064 71796 84310 333 56690 59013 70056 83617 81929 87459=
41927,2024,03,26,00,00,AAXX 26004 41927 32450 30000 10205 20200 30087 40102 83500 333 56600 59008 70056 83618=
41927,2024,03,26,06,00,AAXX 26064 41927 32958 01501 10307 20170 30115 40130 333 58006 70056=
41927,2024,03,26,12,00,AAXX 26124 41927 32957 30000 10295 20210 30090 40105 80001 333 10325 56009 58026 70056 83080=
41927,2024,03,26,18,00,AAXX 26184 41927 31950 00000 10235 20220 30123 40137 70500 333 58024 70000=
41927,2024,03,27,00,00,AAXX 27004 41927 31450 52801 10220 20210 30116 40130 70520 82510 333 56690 58029 70000 82618 85459=
41927,2024,03,27,06,00,AAXX 27064 41927 32956 80000 10300 20240 30130 40145 8452/ 333 56699 58015 70000 84616 88458=
41927,2024,03,27,12,00,AAXX 27124 41927 32457 42802 10302 20250 30100 40114 82510 333 10320 56690 58010 70000 82617 84459=
41927,2024,03,28,12,00,AAXX 28124 41927 32957 02301 10296 20220 30066 40080 333 10334 59034 70000=
41927,2024,03,28,18,00,AAXX 28184 41927 31950 00000 10250 20230 30095 40109 70500 333 59009 70000=
41929,2024,03,22,00,00,AAXX 22004 41929 01450 70000 10199 20190 30097 40106 70521 84510 333 59031 70001 84618 85462==
41929,2024,03,22,03,00,AAXX 22034 41929 02/56 20000 10246 20180 30117 40126 82040 333 20190 59034 70000 82365==
41929,2024,03,22,06,00,AAXX 22064 41929 02456 60000 10270 20160 30107 40116 83510 333 59040 70001 83618 85462==
41929,2024,03,22,09,00,AAXX 22094 41929 02457 62902 10285 20160 30076 40085 83510 333 59032 70001 83618 85462==
41929,2024,03,22,12,00,AAXX 22124 41929 02456 42902 10274 20170 30070 40079 83510 333 10288 59032 70001 83618==
41929,2024,03,22,15,00,AAXX 22154 41929 02956 00000 10220 20190 30090 40100 333 59036 70000==
41929,2024,03,22,18,00,AAXX 22184 41929 02956 00000 10203 20190 30087 40097 333 59032 70000==
41929,2024,03,22,21,00,AAXX 22214 41929 02950 00000 10203 20190 30084 40094 333 59026 70000==
41929,2024,03,23,00,00,AAXX 23004 41929 01950 00000 10182 20170 30082 40092 70500 333 59015 70000==
41929,2024,03,23,03,00,AAXX 23034 41929 02956 00000 10243 20190 30102 40112 333 20176 59015 70000==
41929,2024,03,23,06,00,AAXX 23064 41929 02957 00000 10305 20160 30095 40104 333 59012 70000==
41929,2024,03,23,09,00,AAXX 23094 41929 02457 20000 10322 20150 30063 40072 82500 333 59013 70000 82618==
41929,2024,03,23,12,00,AAXX 23124 41929 02457 20000 10322 20150 30063 40072 82500 333 59013 70000 82618==
41929,2024,03,23,15,00,AAXX 23154 41929 02956 00000 10255 20210 30079 40088 333 59011 70000==
41929,2024,03,23,18,00,AAXX 23184 41929 02456 21802 10255 20240 30085 40094 82510 333 59002 70000 82618==
41929,2024,03,23,21,00,AAXX 23214 41929 01450 20000 10255 20240 30087 40096 70511 82510 333 58003 70000==
41929,2024,03,24,00,00,AAXX 24004 41929 01450 60000 10235 20220 30091 40100 70521 84510 333 58009 70000 84618==
41929,2024,03,24,03,00,AAXX 24034 41929 02456 61804 10282 20240 30118 40127 84510 333 20225 58016 70000 84618 84462==
41929,2024,03,24,06,00,AAXX 24064 41929 02457 61802 10315 20240 30110 40119 84510 333 58015 70000 84618 85462==
41929,2024,03,24,09,00,AAXX 24094 41929 02457 32702 10334 20200 30082 40091 83500 333 58019 70000 83618==
41929,2024,03,24,12,00,AAXX 24124 41929 02457 52904 10323 20200 30084 40093 85410 333 10340 58026 70000 83825==
41929,2024,03,24,15,00,AAXX 24154 41929 02956 00203 10260 20220 30110 40119 333 58031 70000==
41929,2024,03,24,18,00,AAXX 24184 41929 02956 00000 10240 20230 30117 40126 333 58032 70000==
41929,2024,03,24,21,00,AAXX 24214 41929 02956 00000 10240 20230 30114 40123 333 58027 70000==
41929,2024,03,25,00,00,AAXX 25004 41929 01950 71304 10233 20200 30106 40115 70522 83510 333 58015 70000 83618 86462==
41929,2024,03,25,03,00,AAXX 25034 41929 02956 01402 10272 20220 30124 40133 333 20220 58006 70000==
41929,2024,03,25,06,00,AAXX 25064 41929 02457 22302 10316 20230 30118 40127 82500 333 58008 70000 82618==
41929,2024,03,25,09,00,AAXX 25094 41929 02457 40000 10339 20220 30086 40095 84400 333 58004 70000 83618==
41929,2024,03,25,12,00,AAXX 25124 41929 02457 40000 10314 20230 30077 40086 84510 333 10340 59007 70000 84618==
41929,2024,03,25,15,00,AAXX 25154 41929 01950 00904 10282 20240 30092 40101 70520 333 59018 70000==
41929,2024,03,25,18,00,AAXX 25184 41929 01450 41902 10275 20250 30107 40116 70520 84510 333 59010 70000 84618==
41929,2024,03,25,21,00,AAXX 25214 41929 01450 40000 10275 20250 30098 40107 70522 84510 333 59016 70000 84618==
41929,2024,03,26,00,00,AAXX 26004 41929 01450 20304 10225 20170 30091 40100 70521 82500 333 59015 70000 82618==
41929,2024,03,26,03,00,AAXX 26034 41929 02456 21402 10272 20190 30134 40143 82500 333 58010 70000 82618==
41929,2024,03,26,06,00,AAXX 26064 41929 02457 21402 10314 20170 30127 40136 82500 333 58009 70000 82618==
41929,2024,03,26,09,00,AAXX 26094 41929 02457 20000 10335 20180 30093 40102 82500 333 58007 70000 82618==
41929,2024,03,26,12,00,AAXX 26124 41929 02457 51302 10302 20200 30098 40107 83530 333 10338 58021 70000 83618 83365==
41929,2024,03,26,15,00,AAXX 26154 41929 02/56 20000 10255 20220 30125 40134 82030 333 58033 70000 82365==
41929,2024,03,26,18,00,AAXX 26184 41929 32956 20000 10250 20200 30131 40140 82030 333 56090 58024 70000 82365=
41929,2024,03,26,21,00,AAXX 26214 41929 02956 00000 10238 20210 30130 40140 333 58032 70000==
41929,2024,03,27,00,00,AAXX 27004 41929 02956 00000 10225 20220 30128 40138 333 58037 70000==
41929,2024,03,27,03,00,AAXX 27034 41929 02456 81802 10262 20230 30150 40159 8451/ 333 20220 58016 70000 84618 88459==
41929,2024,03,27,06,00,AAXX 27064 41929 02457 40000 10300 20230 30138 40147 82530 333 58011 70000 82618 83365==
41929,2024,03,27,09,00,AAXX 27094 41929 02457 30000 10325 20230 30105 40114 83500 333 58012 70000 83618==
41929,2024,03,27,12,00,AAXX 27124 41929 02456 70502 10300 20240 30090 40099 83570 333 10327 59008 70000 83618 85459==
41929,2024,03,28,09,00,AAXX 28094 41929 02457 20502 10320 20230 30073 40082 82500 333 59034 70000 82618==
41929,2024,03,28,12,00,AAXX 28124 41929 02456 70000 10300 20200 30072 40081 83570 333 10322 59018 70000 83618 85459==
41929,2024,03,28,15,00,AAXX 28154 41929 02/56 30904 10260 20220 30103 40112 83030 333 59021 70000 83365==
41929,2024,03,28,18,00,AAXX 28184 41929 02956 00000 10243 20220 30104 40113 333 59020 70000==
41929,2024,03,28,21,00,AAXX 28214 41929 02456 70000 10238 20220 30094 40103 83570 333 59021 70000 83618 85459==
41933,2024,03,22,00,00,AAXX 22004 41933 01420 70000 10180 20180 30100 40108 71022 83520 333 59026 70050 83618 87458==
41933,2024,03,22,03,00,AAXX 22034 41933 01440 40000 10225 20190 30122 40131 70522 83520 333 20175 59030 70050 83618 84458==
41933,2024,03,22,06,00,AAXX 22064 41933 01450 60000 10250 20190 30120 40129 70522 83520 333 59030 70050 83618 86458==
41933,2024,03,22,09,00,AAXX 22094 41933 01450 40000 10276 20190 30075 40084 70522 84400 333 59038 70050 82616 83822==
41933,2024,03,22,12,00,AAXX 22124 41933 01450 20000 10250 20210 30070 40079 70522 82500 333 10280 59039 70050 82616==
41933,2024,03,22,15,00,AAXX 22154 41933 01940 00000 10224 20200 30088 40097 70500 333 59040 70050==
41933,2024,03,22,18,00,AAXX 22184 41933 01940 00000 10208 20200 30088 40097 70500 333 59021 70000==
41933,2024,03,22,21,00,AAXX 22214 41933 01925 00000 10202 20190 30082 40091 71000 333 59022 70000==
41933,2024,03,23,00,00,AAXX 23004 41933 01908 00000 10194 20190 30084 40093 74600 333 59016 70000==
41933,2024,03,23,03,00,AAXX 23034 41933 01940 00000 10245 20220 30109 40118 70544 333 20190 59013 70000==
41933,2024,03,23,06,00,AAXX 23064 41933 01440 31802 10280 20200 30098 40107 70540 83520 333 59022 70000 83618==
41933,2024,03,23,09,00,AAXX 23094 41933 01450 51803 10296 20180 30076 40084 70522 85400 333 58001 70000 84618==
41933,2024,03,23,12,00,AAXX 23124 41933 01450 21802 10272 20190 30072 40080 70520 82500 333 10298 58002 70000 82618==
41933,2024,03,23,15,00,AAXX 23154 41933 01940 01803 10244 20210 30088 40097 70500 333 58000 70000==
41933,2024,03,23,18,00,AAXX 23184 41933 01430 81801 10206 20180 30098 40107 76192 8392/ 333 58010 70004 83616 88458 81928==
41933,2024,03,23,21,00,AAXX 23214 41933 01430 81803 10214 20180 30099 40108 71396 8392/ 333 58017 70006 83616 88458 81928==
41933,2024,03,24,00,00,AAXX 24004 41933 01450 20000 10202 20190 30109 40117 70596 81530 333 58025 70006 81616==
41933,2024,03,24,03,00,AAXX 24034 41933 01950 00000 10240 20200 30131 40139 70500 333 20193 58022 70006==
41933,2024,03,24,06,00,AAXX 24064 41933 01450 61803 10288 20230 30118 40126 70520 83510 333 58017 70006 83618 86459==
41933,2024,03,24,09,00,AAXX 24094 41933 01450 31804 10305 20230 30090 40098 70520 83520 333 58014 70000 83618==
41933,2024,03,24,12,00,AAXX 24124 41933 01440 81905 10285 20240 30086 40095 79592 8392/ 333 10305 58014 70000 83615 88458 81928==
41933,2024,03,24,15,00,AAXX 24154 41933 01430 81804 10220 20210 30127 40136 70296 8392/ 333 58039 70490 83615 88457 81927==
41933,2024,03,24,18,00,AAXX 24184 41933 21430 40000 10215 20210 30123 40132 70196 83520 333 58025 60498 70490 83616 84458==
41933,2024,03,24,21,00,AAXX 24214 41933 01430 60000 10210 20200 30118 40127 70522 84520 333 58019 70490 84618 86458==
41933,2024,03,25,00,00,AAXX 25004 41933 01430 60000 10202 20200 30113 40122 70522 84520 333 58003 70490 84618 86458==
41933,2024,03,25,03,00,AAXX 25034 41933 01440 41802 10254 20230 30128 40136 70522 82510 333 20200 59003 70490 82616 83458==
41933,2024,03,25,06,00,AAXX 25064 41933 01450 40000 10296 20240 30122 40130 70522 84400 333 58004 70490 82616 83822==
41933,2024,03,25,09,00,AAXX 25094 41933 01450 31702 10312 20230 30089 40098 70521 83500 333 59001 70490 83618==
41933,2024,03,25,12,00,AAXX 25124 41933 01940 30000 10290 20240 30083 40092 70521 80002 333 10315 59003 70490 83074==
41933,2024,03,25,15,00,AAXX 25154 41933 01440 60000 10265 20240 30097 40106 70520 83520 333 59030 70000 83618 86458==
41933,2024,03,25,18,00,AAXX 25184 41933 01440 62803 10255 20240 30110 40118 70522 83520 333 59013 70000 83618 86458==
41933,2024,03,25,21,00,AAXX 25214 41933 01440 60000 10250 20240 30112 40121 70522 83520 333 59006 70000 83618 86458==
41933,2024,03,26,00,00,AAXX 26004 41933 01420 70000 10245 20240 30118 40127 71022 83520 333 58005 70000 83618 87458==
41933,2024,03,26,03,00,AAXX 26034 41933 01450 40000 10252 20180 30142 40151 70522 82520 333 20225 58014 70000 82618 84458==
41933,2024,03,26,06,00,AAXX 26064 41933 02950 01803 10296 20220 30130 40139 333 58008 70000==
41933,2024,03,26,09,00,AAXX 26094 41933 02450 12501 10314 20180 30099 40107 81500 333 58010 70000 81618==
41933,2024,03,26,12,00,AAXX 26124 41933 02/50 30000 10290 20210 30105 40113 83030 333 10315 58022 70000 83362==
41933,2024,03,26,15,00,AAXX 26154 41933 01940 00000 10255 20220 30123 40131 70500 333 58026 70000==
41933,2024,03,26,18,00,AAXX 26184 41933 31940 00000 10239 20220 30130 40139 70500 333 58020 70000=
41933,2024,03,26,21,00,AAXX 26214 41933 01935 00000 10230 20210 30123 40131 70500 333 58011 70000==
41933,2024,03,27,00,00,AAXX 27004 41933 01/20 20000 10220 20210 30132 40140 71000 82040 333 58014 70000 82362==
41933,2024,03,27,03,00,AAXX 27034 41933 01940 31802 10270 20240 30152 40161 70500 83500 333 20219 58010 70000 83618==
41933,2024,03,27,06,00,AAXX 27064 41933 01440 31902 10300 20230 30135 40144 70500 83500 333 58005 70000 83618==
41933,2024,03,27,09,00,AAXX 27094 41933 02440 80000 10306 20240 30112 40120 8542/ 333 58013 70000 83616 88457==
41933,2024,03,27,12,00,AAXX 27124 41933 02440 60000 10296 20230 30098 40106 84420 333 10317 59007 70000 83616 86458==
41933,2024,03,28,09,00,AAXX 28094 41933 01450 80000 10280 20230 30083 40091 70296 8441/ 333 59029 70036 83616 88457==
41933,2024,03,28,12,00,AAXX 28124 41933 11450 61802 10245 20230 30081 40089 60006 70196 83520 333 10306 59017 70036 83618 86458==
41933,2024,03,28,15,00,AAXX 28154 41933 01440 60000 10232 20220 30108 40117 70292 83520 333 59024 70036 83618 86458==
41933,2024,03,28,18,00,AAXX 28184 41933 01430 60000 10225 20220 30100 40110 70292 83520 333 59021 70000 83618 86458==
41933,2024,03,28,21,00,AAXX 28214 41933 01430 60000 10222 20210 30098 40107 70522 83520 333 59015 70000 83616 86458==
41936,2024,03,22,00,00,AAXX 22004 41936 01/10 30000 10180 20170 30098 40105 70511 83030 333 59034 70030 83362==
41936,2024,03,22,03,00,AAXX 22034 41936 01920 03304 10226 20180 30112 40119 70511 333 20187 59035 70030==
41936,2024,03,22,06,00,AAXX 22064 41936 01435 20105 10280 20170 30104 40111 70541 82500 333 59034 70030 82615==
41936,2024,03,22,09,00,AAXX 22094 41936 01440 32305 10292 20170 30083 40090 70511 82530 333 59021 70030 82615==
41936,2024,03,22,12,00,AAXX 22124 41936 01940 00000 10274 20180 30067 40071 70511 333 10300 59040 70000==
41936,2024,03,22,15,00,AAXX 22154 41936 01940 00000 10218 20190 30085 40092 70500 333 59035 70000==
41936,2024,03,22,18,00,AAXX 22184 41936 01930 00000 10204 20180 30082 40090 70500 333 59037 70000==
41936,2024,03,22,21,00,AAXX 22214 41936 01916 00000 10198 20190 30076 40083 70500 333 59029 70000==
41936,2024,03,23,00,00,AAXX 23004 41936 01905 00000 10188 20180 30077 40084 74440 333 59021 70000==
41936,2024,03,23,03,00,AAXX 23034 41936 01908 01604 10248 20210 30096 40104 74140 333 20182 59015 70000==
41936,2024,03,23,06,00,AAXX 23064 41936 01430 11503 10310 20200 30092 40099 70540 81500 333 59012 70000 81618==
41936,2024,03,23,09,00,AAXX 23094 41936 01450 22004 10322 20200 30064 40070 70511 82500 333 59016 70000 82615==
41936,2024,03,23,12,00,AAXX 23124 41936 01950 02004 10300 20220 30057 40064 70510 333 10324 59010 70000==
41936,2024,03,23,15,00,AAXX 23154 41936 01950 00000 10250 20220 30076 40083 70500 333 59009 70000==
41936,2024,03,23,18,00,AAXX 23184 41936 01940 00000 10230 20200 30075 40082 70500 333 59008 70000==
41936,2024,03,23,21,00,AAXX 23214 41936 333 59009 70000==
41936,2024,03,24,00,00,AAXX 24004 41936 01910 20000 10214 20190 30083 40090 70511 82500 333 58006 70000 82615==
41936,2024,03,24,03,00,AAXX 24034 41936 01910 22405 10278 20250 30110 40117 70511 82500 333 20212 58013 70000 82615==
41936,2024,03,24,06,00,AAXX 24064 41936 01425 22104 10318 20240 30111 40118 70511 82500 333 58019 70000 82615==
41936,2024,03,24,09,00,AAXX 24094 41936 01940 22707 10340 20230 30079 40086 70511 82500 333 70000 82615==
41936,2024,03,24,12,00,AAXX 24124 41936 01440 30000 10314 20240 30079 40086 70511 81530 333 10352 58022 70000 81615 83362==
41936,2024,03,24,15,00,AAXX 24154 41936 01440 30000 10254 20220 30103 40110 70511 81530 333 58027 70000 81615 83362==
41936,2024,03,24,18,00,AAXX 24184 41936 01/35 20000 10248 20220 30103 40110 70511 82030 333 58028 70000 82362==
41936,2024,03,24,21,00,AAXX 24214 41936 01430 30000 10242 20220 30094 40101 70511 81530 333 58027 70000 81615 83362==
41936,2024,03,25,00,00,AAXX 25004 41936 01/10 22003 10240 20220 30101 40108 70521 82030 333 58018 70000 82362==
41936,2024,03,25,03,00,AAXX 25034 41936 01409 32008 10276 20260 30115 40122 74244 82530 333 20238 58005 70000 82615 83362==
41936,2024,03,25,06,00,AAXX 25064 41936 01440 31706 10320 20240 30117 40124 70541 83530 333 58006 70000 83615==
41936,2024,03,25,09,00,AAXX 25094 41936 01440 41205 10334 20250 30081 40080 70511 83530 333 58002 70000 83615==
41936,2024,03,25,12,00,AAXX 25124 41936 01440 31203 10324 20240 30073 40080 70511 82530 333 10336 59006 70000 82615==
41936,2024,03,25,15,00,AAXX 25154 41936 01325 72309 10294 20250 30089 40096 79596 85930 333 59014 79990 83708 83615 86360 81930==
41936,2024,03,25,18,00,AAXX 25184 41936 41330 62404 10274 20230 30101 40108 70596 82630 333 59002 82708 83615 85362==
41936,2024,03,25,21,00,AAXX 25214 41936 41425 52304 10260 20230 30089 40096 70522 83530 333 59005 83615 85362==
41936,2024,03,26,00,00,AAXX 26004 41936 41925 00000 10202 20180 30092 40099 70521 333 59009==
41936,2024,03,26,03,00,AAXX 26034 41936 41430 20000 10264 20200 30133 40140 70511 333 20200 58018 82362==
41936,2024,03,26,06,00,AAXX 26064 41936 41950 02108 10314 20170 30122 40129 70510 333 58005==
41936,2024,03,26,09,00,AAXX 26094 41936 41950 02508 10330 20190 30098 40105 70500 333 58017==
41936,2024,03,26,12,00,AAXX 26124 41936 41450 22103 10294 20200 30099 40106 70511 333 10332 58026 82362==
41936,2024,03,26,15,00,AAXX 26154 41936 41950 00000 10286 20210 30118 40125 70511 333 58029==
41936,2024,03,26,18,00,AAXX 26184 41936 01950 00000 10250 20210 30131 40138 70500 333 58030 70000==
41936,2024,03,26,21,00,AAXX 26214 41936 01950 00000 10246 20220 30113 40120 70500 333 58024 70000==
41936,2024,03,27,00,00,AAXX 27004 41936 01925 00000 10220 20200 30127 40134 70500 333 58035 70000==
41936,2024,03,27,03,00,AAXX 27034 41936 01410 21903 10278 20250 30141 40148 70511 333 20218 58008 70000 82362==
41936,2024,03,27,06,00,AAXX 27064 41936 01420 53105 10314 20240 30129 40136 70522 333 58007 70000 83615 85362==
41936,2024,03,27,09,00,AAXX 27094 41936 01440 43504 10338 20250 30102 40109 70522 83630 333 58004 70000 83615 83362==
41936,2024,03,27,12,00,AAXX 27124 41936 01335 51905 10314 20240 30090 40097 71792 83930 333 10340 59009 70000 81708 83615 85362 81930==
41936,2024,03,27,15,00,AAXX 27154 41936 01/30 20000 10254 20200 30109 40116 70591 82030 333 59009 70000 82362==
41936,2024,03,28,03,00,AAXX 28034 41936 02310 30000 10258 20250 30113 40120 81530 333 59028 70080 81616 83362==
41936,2024,03,28,06,00,AAXX 28064 41936 01315 41203 10302 20250 30102 40109 70511 83530 333 59027 70080 83615 83362==
41936,2024,03,28,09,00,AAXX 28094 41936 01425 21703 10340 20250 30068 40075 70511 82530 333 59034 70080 82615==
41936,2024,03,28,12,00,AAXX 28124 41936 01312 72912 10312 20230 30068 40075 79522 84930 333 10342 59022 70040 83707 83215 86360 81930==
41936,2024,03,28,15,00,AAXX 28154 41936 01325 30000 10250 20220 30090 40097 70596 81530 333 59019 70190 81615 83362==
41936,2024,03,28,18,00,AAXX 28184 41936 01325 30000 10242 20220 30097 40104 70592 81530 333 59030 70070 81615 83362==
41936,2024,03,28,21,00,AAXX 28214 41936 01320 31304 10238 20220 30087 40094 70522 81530 333 59016 70110 81615 83362==
41938,2024,03,22,00,00,AAXX 22004 41938 31430 20000 10184 20170 30118 40122 70511 82500 333 56900 59018 70070 82618=
41938,2024,03,22,06,00,AAXX 22064 41938 32456 40000 10274 20150 30104 40108 84400 333 56400 59037 70070 83618=
41938,2024,03,22,12,00,AAXX 22124 41938 NIL=
41938,2024,03,22,18,00,AAXX 22184 41938 31940 00000 10208 20190 30091 40095 70500 333 59027 70000=
41938,2024,03,23,00,00,AAXX 23004 41938 31910 00000 10180 20170 30089 40093 71000 333 59029 70000=
41938,2024,03,23,06,00,AAXX 23064 41938 32456 31802 10307 20200 30096 40100 83400 333 56400 59008 70000 82618=
41938,2024,03,23,12,00,AAXX 23124 41938 31950 00000 10300 20210 30062 40066 70510 333 10320 59019 70000=
41938,2024,03,23,18,00,AAXX 23184 41938 32456 61802 10255 20240 30085 40089 86500 333 56400 59006 70000 86616=
41938,2024,03,24,00,00,AAXX 24004 41938 31940 11802 10250 20240 30093 40097 70521 81030 333 56090 58004 70000 81362=
41938,2024,03,24,06,00,AAXX 24064 41938 32456 32105 10320 20220 30109 40113 83400 333 56500 58013 70000 82617=
41938,2024,03,24,09,00,AAXX 24094 41938 32456 22502 10336 20220 30092 40096 81510 333 56590 58022 70000 81618=
41938,2024,03,24,12,00,AAXX 24124 41938 NIL=
41938,2024,03,24,18,00,AAXX 24184 41938 31940 02201 10252 20210 30115 40119 70510 333 58030 70000=
41938,2024,03,25,00,00,AAXX 25004 41938 31440 62201 10220 20210 30110 40113 70510 82511 333 56499 59017 70000 82617 84460=
41938,2024,03,25,06,00,AAXX 25064 41938 32456 52202 10305 20230 30117 40121 82510 333 56490 58008 70000 82617 84460=
41938,2024,03,25,12,00,AAXX 25124 41938 31950 70000 10305 20230 30084 40088 70521 83072 333 10335 56099 59004 70000 83460 85079=
41938,2024,03,25,18,00,AAXX 25184 41938 32950 72501 10263 20210 30110 40114 83072 333 56099 59005 70000 83460 85079=
41938,2024,03,26,00,00,AAXX 26004 41938 32956 30000 10210 20170 30098 40102 80001 333 56009 59012 70000 83080=
41938,2024,03,26,06,00,AAXX 26064 41938 32957 00501 10315 20180 30127 40131 333 58010 70000=
41938,2024,03,26,12,00,AAXX 26124 41938 31950 30000 10292 20200 30100 40104 70500 80001 333 10332 56009 70000 83080=
41938,2024,03,26,18,00,AAXX 26184 41938 32956 00000 10240 20210 30123 40127 333 58013 70000=
41938,2024,03,27,00,00,AAXX 27004 41938 31420 80000 10231 20220 30126 40130 71021 8351/ 333 56699 58028 70000 83617 88460=
41938,2024,03,27,06,00,AAXX 27064 41938 32456 70000 10317 20230 30137 40141 83410 333 56590 58010 70000 81618 83825 85460=
41938,2024,03,27,12,00,AAXX 27124 41938 31450 42001 10305 20250 30093 40097 70521 84300 333 10335 56500 59007 70000 81717 83828 81930=
41938,2024,03,28,12,00,AAXX 28124 41938 31450 43001 10274 20210 30072 40076 70292 82410 333 10322 56990 59021 70048 82618 83460=
41938,2024,03,28,18,00,AAXX 28184 41938 32950 01601 10242 20220 30099 40103 333 59024 70010=
41939,2024,03,22,00,00,AAXX 22004 41939 02456 50000 10184 20170 30120 40128 83530 333 59021 70092 83617 83364==
41939,2024,03,22,03,00,AAXX 22034 41939 02458 50000 10235 20190 30126 40134 83530 333 20178 59034 70092 83618 83364==
41939,2024,03,22,06,00,AAXX 22064 41939 02458 30000 10267 20180 30108 40116 81530 333 59034 70092 81618 83364==
41939,2024,03,22,09,00,AAXX 22094 41939 02458 10000 10298 20160 30080 40088 81500 333 59032 70092 81618==
41939,2024,03,22,12,00,AAXX 22124 41939 02956 00000 10276 20210 30085 40093 333 10298 59035 70092==
41939,2024,03,22,15,00,AAXX 22154 41939 02950 00000 10218 20170 30092 40100 333 59036 70000==
41939,2024,03,22,18,00,AAXX 22184 41939 02950 00000 10209 20180 30096 40104 333 59036 70000==
41939,2024,03,23,00,00,AAXX 23004 41939 01940 00000 10190 20180 30089 40097 70500 333 59033 70000==
41939,2024,03,23,03,00,AAXX 23034 41939 02958 00000 10260 20210 30115 40123 333 20183 59011 70000==
41939,2024,03,23,06,00,AAXX 23064 41939 02958 00000 10300 20200 30118 40126 333 59020 70000==
41939,2024,03,23,09,00,AAXX 23094 41939 32958 00000 10317 20200 30090 40098 333 59015 70000=
41939,2024,03,23,12,00,AAXX 23124 41939 02958 00000 10286 20210 30068 40076 333 10320 59017 70000==
41939,2024,03,23,15,00,AAXX 23154 41939 02956 00000 10233 20180 30180 40188 333 59012 70000==
41939,2024,03,23,18,00,AAXX 23184 41939 02456 40000 10240 20230 30098 40106 82530 333 58002 70000==
41939,2024,03,24,00,00,AAXX 24004 41939 02450 80000 10250 20240 38108 40116 8352/ 333 58019 70000 83617 88459==
41939,2024,03,24,03,00,AAXX 24034 41939 02457 40000 10280 20240 30130 40138 82530 333 20238 58015 70000 82617 83364==
41939,2024,03,24,06,00,AAXX 24064 41939 02458 30000 10320 20220 30113 40121 82530 333 70000 82618==
41939,2024,03,24,09,00,AAXX 24094 41939 02458 20000 10328 20260 30089 40097 82500 333 58006 70000 82618==
41939,2024,03,24,12,00,AAXX 24124 41939 02456 20000 10315 20220 30080 40088 82500 333 10330 58012 70000 82618==
41939,2024,03,24,15,00,AAXX 24154 41939 01340 80000 10215 20210 30131 40139 79592 8692/ 333 59049 70336 84615 88457 81926==
41939,2024,03,24,18,00,AAXX 24184 41939 21940 00000 10195 20180 30140 40148 70192 333 58030 60345 70336==
41939,2024,03,24,21,00,AAXX 24214 41939 02456 40000 10200 20190 30130 40138 82530 333 58016 70336 82617 83364==
41939,2024,03,25,00,00,AAXX 25004 41939 02456 40000 10198 20190 30125 40133 82530 333 58017 70336 82617 83364==
41939,2024,03,25,03,00,AAXX 25034 41939 02458 50000 10265 20250 30134 40142 83530 333 20190 58004 70336 83617 83364==
41939,2024,03,25,06,00,AAXX 25064 41939 02458 50000 10305 20230 30119 40127 82510 333 58006 70000 82617 85460==
41939,2024,03,25,09,00,AAXX 25094 41939 02458 10000 10327 20240 30093 40101 81500 333 58004 70336 81618==
41939,2024,03,25,12,00,AAXX 25124 41939 02956 00000 10300 20210 30085 40093 333 10328 58005 70336==
41939,2024,03,25,15,00,AAXX 25154 41939 02440 80000 10260 20240 30106 40114 8352/ 333 59025 70000 83617 88459==
41939,2024,03,25,18,00,AAXX 25184 41939 02440 80000 10242 20220 30118 40126 8352/ 333 59025 70000 83617 88459==
41939,2024,03,26,00,00,AAXX 26004 41939 02956 00000 10210 20180 30119 40128 333 59006 70000==
41939,2024,03,26,03,00,AAXX 26034 41939 02457 30000 10280 20230 30143 40151 81530 333 20203 58009 70000 81618 83363==
41939,2024,03,26,06,00,AAXX 26064 41939 02457 20000 10312 20210 30130 40138 82500 333 58011 70000 82618==
41939,2024,03,26,09,00,AAXX 26094 41939 02458 10000 10322 20220 30103 40110 81500 333 58010 70000 81618==
41939,2024,03,26,12,00,AAXX 26124 41939 02457 40000 10290 20220 30109 40117 82530 333 10325 58009 70000 82618 83364==
41939,2024,03,26,15,00,AAXX 26154 41939 02456 40000 10250 20230 30137 40145 82530 333 58031 70000==
41939,2024,03,26,18,00,AAXX 26184 41939 02956 00000 10234 20210 30135 40143 333 58021 70000==
41939,2024,03,26,21,00,AAXX 26214 41939 02950 00000 10235 20230 30135 40143 333 58013 70000==
41939,2024,03,27,00,00,AAXX 27004 41939 02956 00000 10230 20220 30141 40150 333 58022 70000==
41939,2024,03,27,06,00,AAXX 27064 41939 02457 50000 10305 20230 30142 40150 82530 333 58012 70000 82618 84360==
41939,2024,03,27,09,00,AAXX 27094 41939 02458 10000 10320 20240 30109 40117 81500 333 58006 70000 81618==
41939,2024,03,27,12,00,AAXX 27124 41939 02956 80000 10301 20220 30115 40123 8352/ 333 10327 58006 70000 83617 88459==
41939,2024,03,28,09,00,AAXX 28094 41939 02458 30000 10320 20240 30076 40084 82530 333 59033 70064 82618==
41939,2024,03,28,12,00,AAXX 28124 41939 02956 00000 10303 20220 30087 40095 333 10325 59028 70064==
41939,2024,03,28,15,00,AAXX 28154 41939 02940 00000 10263 20230 30106 40114 333 59024 70000==
41939,2024,03,28,18,00,AAXX 28184 41939 02940 00000 10254 20230 30117 40125 333 59023 70000==
41941,2024,03,22,00,00,AAXX 22004 41941 02450 50000 10192 20180 30101 40107 83520 333 59027 70120 83614 85458==
41941,2024,03,22,03,00,AAXX 22034 41941 02456 50000 10235 20220 30120 40126 83520 333 20183 59035 70120 83614 85458==
41941,2024,03,22,06,00,AAXX 22064 41941 02456 40503 10275 20210 30104 40110 83520 333 59044 70120 83616 84458==
41941,2024,03,22,09,00,AAXX 22094 41941 02456 63603 10276 20240 30079 40084 85420 333 59037 70120 84616 86458==
41941,2024,03,22,12,00,AAXX 22124 41941 02456 60000 10260 20190 30071 40076 85420 333 10298 59033 70120 84616 86458==
41941,2024,03,22,15,00,AAXX 22154 41941 02450 60000 10224 20200 30090 40095 85420 333 59042 70070 84616 86458==
41941,2024,03,22,18,00,AAXX 22184 41941 02940 00000 10220 20200 30100 40105 333 59016 70000==
41941,2024,03,22,21,00,AAXX 22214 41941 01930 00000 10216 20210 30091 40097 70500 333 59018 70000==
41941,2024,03,23,00,00,AAXX 23004 41941 01906 00000 10212 20210 30087 40093 74740 89/// 333 59014 70000==
41941,2024,03,23,03,00,AAXX 23034 41941 01910 00000 10254 20220 30115 40121 72844 89/// 333 20210 59005 70000==
41941,2024,03,23,06,00,AAXX 23064 41941 01956 01804 10296 20180 30099 40104 70040 333 59005 70000==
41941,2024,03,23,09,00,AAXX 23094 41941 02957 01803 10313 20140 30086 40091 333 58007 70000==
41941,2024,03,23,12,00,AAXX 23124 41941 02956 01802 10283 20190 30068 40073 333 10315 59003 70000==
41941,2024,03,23,15,00,AAXX 23154 41941 02950 01802 10254 20240 30083 40088 333 59015 70000==
41941,2024,03,23,18,00,AAXX 23184 41941 02940 01803 10250 20230 30088 40094 333 59012 70000==
41941,2024,03,23,21,00,AAXX 23214 41941 01430 80000 10240 20230 30083 40089 71320 8692/ 333 59008 70000 85616 88458 81926==
41941,2024,03,24,00,00,AAXX 24004 41941 21430 80000 10210 20200 30102 40107 72996 8792/ 333 58015 60087 70080 85612 88456 81924==
41941,2024,03,24,03,00,AAXX 24034 41941 02456 60903 10256 20230 30119 40124 85420 333 20207 58004 70080 84616 86458==
41941,2024,03,24,06,00,AAXX 24064 41941 02456 61804 10310 20220 30117 40123 85420 333 58018 70080 84616 86458==
41941,2024,03,24,09,00,AAXX 24094 41941 02456 61803 10324 20240 30094 40100 85420 333 58008 70080 84616 86458==
41941,2024,03,24,12,00,AAXX 24124 41941 02450 61804 10300 20250 30091 40097 85420 333 10326 58023 70080 84616 86458==
41941,2024,03,24,15,00,AAXX 24154 41941 01440 81802 10215 20210 30118 40123 79596 8792/ 333 58035 70230 85612 88456 82924==
41941,2024,03,24,18,00,AAXX 24184 41941 21440 80000 10210 20200 30110 40115 70296 8632/ 333 58022 60175 70250 85616 88458 81930==
41941,2024,03,24,21,00,AAXX 24214 41941 02440 60000 10208 20200 30105 40111 85420 333 58022 70250 84616 86458==
41941,2024,03,25,00,00,AAXX 25004 41941 02440 60000 10206 20200 30106 40112 85420 333 58004 70170 84616 86458==
41941,2024,03,25,03,00,AAXX 25034 41941 02456 61802 10272 20240 30131 40136 85420 333 20205 58012 70170 84616 86458==
41941,2024,03,25,06,00,AAXX 25064 41941 02456 61802 10305 20250 30126 40132 85420 333 58009 70170 84616 86458==
41941,2024,03,25,09,00,AAXX 25094 41941 02456 61802 10322 20220 30095 40101 85420 333 58001 70170 84616 86458==
41941,2024,03,25,12,00,AAXX 25124 41941 02450 40000 10300 20220 30087 40093 83520 333 10325 59004 70170 83616 84458==
41941,2024,03,25,18,00,AAXX 25184 41941 02440 80000 10265 20250 30108 40114 8632/ 333 59002 70000 85616 88458 81930==
41941,2024,03,25,21,00,AAXX 25214 41941 02440 80000 10255 20250 30097 40103 8632/ 333 59008 70000 85616 88458 81930==
41941,2024,03,26,00,00,AAXX 26004 41941 02450 60000 10240 20240 30100 40106 85420 333 59006 70000 84616 86458==
41941,2024,03,26,03,00,AAXX 26034 41941 02456 61803 10275 20250 30139 40145 85420 333 20235 58008 70000 86458==
41941,2024,03,26,06,00,AAXX 26064 41941 02456 22103 10312 20210 30128 40134 82500 333 58002 70000 82616==
41941,2024,03,26,09,00,AAXX 26094 41941 02457 21803 10322 20270 30101 40107 82500 333 58006 70000 82616==
41941,2024,03,26,12,00,AAXX 26124 41941 02/56 20000 10302 20220 30103 40109 82030 333 10325 58016 70000 82362==
41941,2024,03,26,15,00,AAXX 26154 41941 02956 02102 10270 20230 30122 40128 333 58025 70000==
41941,2024,03,26,18,00,AAXX 26184 41941 02956 00000 10258 20240 30129 40135 333 58021 70000==
41941,2024,03,26,21,00,AAXX 26214 41941 01940 00000 10250 20230 30128 40134 70500 333 58031 70000==
41941,2024,03,27,00,00,AAXX 27004 41941 01940 00902 10240 20230 30130 40136 70500 333 58030 70000==
41941,2024,03,27,03,00,AAXX 27034 41941 02456 21801 10280 20240 30152 40158 82500 333 20238 58013 70000 82616==
41941,2024,03,27,06,00,AAXX 27064 41941 42456 41802 10312 20230 30139 40145 58011 84458==
41941,2024,03,27,12,00,AAXX 27124 41941 02456 60000 10300 20240 30100 40106 83531 333 10325 59003 70000 83614 85362==
41941,2024,03,28,09,00,AAXX 28094 41941 02456 61803 10318 20250 30074 40080 85420 333 59038 70170 84616 86458==
41941,2024,03,28,12,00,AAXX 28124 41941 02450 83602 10280 20250 30076 40082 8632/ 333 10320 59024 70170 85616 88458 81930==
41941,2024,03,28,15,00,AAXX 28154 41941 01440 80903 10235 20230 30106 40112 72996 8692/ 333 59023 70260 85614 88456 81925==
41941,2024,03,28,18,00,AAXX 28184 41941 21440 80902 10231 20230 30113 40119 70196 85420 333 59010 60258 70250 84616 86458==
41941,2024,03,28,21,00,AAXX 28214 41941 02440 80000 10230 20230 30099 40104 8632/ 333 59010 70250 85616 88458 81930==
41943,2024,03,22,00,00,AAXX 22004 41943 01430 80000 10185 20170 30104 40112 70522 8662/ 333 59029 70020 83710 84615 88458==
41943,2024,03,22,03,00,AAXX 22034 41943 01430 80000 10205 20170 30121 40128 70522 8662/ 333 20182 59026 70010 83710 84615 88458==
41943,2024,03,22,06,00,AAXX 22064 41943 01440 61802 10270 20190 30106 40113 70522 83520 333 59051 70010 83616 85458==
41943,2024,03,22,09,00,AAXX 22094 41943 01340 81802 10242 20210 30080 40087 70562 8662/ 333 59039 70090 83709 84615 88458==
41943,2024,03,22,12,00,AAXX 22124 41943 NIL=
41943,2024,03,22,15,00,AAXX 22154 41943 02930 00000 10205 20200 30093 40099 333 59041 70190==
41943,2024,03,22,18,00,AAXX 22184 41943 02930 00000 10195 20190 30094 40101 333 59020 70180==
41943,2024,03,22,21,00,AAXX 22214 41943 01430 50000 10186 20180 30089 40096 70522 82530 333 59019 70180 82618 84362==
41943,2024,03,23,00,00,AAXX 23004 41943 01430 61102 10178 20170 30086 40094 70522 83520 333 59018 70180 83616 85458==
41943,2024,03,23,03,00,AAXX 23034 41943 01440 60000 10230 20210 30112 40119 70522 82520 333 20178 59009 70180 83616 85458==
41943,2024,03,23,06,00,AAXX 23064 41943 01435 72103 10298 20200 30099 40106 70522 84520 333 59007 70180 84615 85458==
41943,2024,03,23,09,00,AAXX 23094 41943 01435 71803 10307 20190 30073 40080 70522 83520 333 59007 70100 83616 85458==
41943,2024,03,23,12,00,AAXX 23124 41943 01430 41802 10272 20190 30071 40078 70522 82530 333 10310 59004 70000 82618 83362==
41943,2024,03,23,15,00,AAXX 23154 41943 01930 01802 10241 20220 30096 40103 70500 333 58004 70000==
41943,2024,03,23,18,00,AAXX 23184 41943 01430 61802 10217 20210 30098 40106 70522 83520 333 58004 70000 83616 85458==
41943,2024,03,23,21,00,AAXX 23214 41943 01430 81802 10195 20190 30095 40103 70262 8662/ 333 58006 70010 83710 84615 88458==
41943,2024,03,24,00,00,AAXX 24004 41943 21330 81302 10185 20180 30105 40113 76066 8772/ 333 58019 60068 70060 84709 84614 88456==
41943,2024,03,24,03,00,AAXX 24034 41943 21435 41302 10250 20190 30133 40140 70162 82530 333 20185 56490 58021 6004/ 70100 82618 83362=
41943,2024,03,24,06,00,AAXX 24064 41943 11435 61303 10290 20210 30126 40133 53520 60046 70362 333 58027 70100 83616 85458==
41943,2024,03,24,09,00,AAXX 24094 41943 02435 61303 10305 20230 30100 40108 83520 333 58027 70100 83616 85458==
41943,2024,03,24,12,00,AAXX 24124 41943 01430 61303 10277 20240 30097 40104 70522 83520 333 10315 58026 70100 83616 85458==
41943,2024,03,24,15,00,AAXX 24154 41943 01330 80000 10220 20200 30130 40138 76166 8772/ 333 58034 70140 84709 84614 88456==
41943,2024,03,24,18,00,AAXX 24184 41943 21430 80000 10220 20200 30119 40126 70262 8662/ 333 58021 60045 70140 83710 84615 88458==
41943,2024,03,24,21,00,AAXX 24214 41943 02430 80000 10205 20200 30111 40118 8662/ 333 58016 70140 83710 84615 88458==
41943,2024,03,25,00,00,AAXX 25004 41943 02430 80000 10210 20200 30120 40128 8662/ 333 58015 70080 84615 88458==
41943,2024,03,25,03,00,AAXX 25034 41943 02435 60000 10250 20230 30131 40139 83520 333 20198 59002 70040 83616 85458==
41943,2024,03,25,06,00,AAXX 25064 41943 01430 60000 10302 20220 30122 40129 70522 83520 333 59004 70040 83616 85458==
41943,2024,03,25,09,00,AAXX 25094 41943 01440 60000 10320 20220 30095 40103 70522 83520 333 59005 70040 83616 85458==
41943,2024,03,25,12,00,AAXX 25124 41943 01930 00000 10285 20220 30090 40097 70500 333 10325 59007 70040==
41943,2024,03,25,15,00,AAXX 25154 41943 01430 60000 10260 20230 30108 40116 70520 333 59022 70000 83616 85458==
41943,2024,03,25,18,00,AAXX 25184 41943 01430 80000 10242 20230 30114 40121 70522 8452/ 333 59005 70000 84615 88458==
41943,2024,03,25,21,00,AAXX 25214 41943 01430 80000 10232 20220 30109 40116 70522 8662/ 333 59002 70000 83710 84615 88458==
41943,2024,03,26,00,00,AAXX 26004 41943 01430 80000 10215 20210 30110 40118 70522 8662/ 333 59010 70000 83710 84615 88458==
41943,2024,03,26,03,00,AAXX 26034 41943 01440 51302 10271 20170 30137 40144 70522 83530 333 20215 58006 70000 83617 84362==
41943,2024,03,26,06,00,AAXX 26064 41943 01440 51302 10310 20190 30126 40134 70522 83530 333 58004 70000 83617 84362==
41943,2024,03,26,09,00,AAXX 26094 41943 01440 51301 10330 20180 30101 40109 70522 83530 333 58002 70000 83617 84362==
41943,2024,03,26,12,00,AAXX 26124 41943 01440 11801 10300 20200 30104 40111 70512 81500 333 10340 58014 70000 81616==
41943,2024,03,26,15,00,AAXX 26154 41943 01/40 20000 10265 20220 30129 40136 70521 82030 333 58021 70000 82362==
41943,2024,03,26,18,00,AAXX 26184 41943 01/35 10000 10245 20220 30137 40144 70511 81030 333 58023 70000 81362==
41943,2024,03,26,21,00,AAXX 26214 41943 01435 20000 10230 20220 30135 40142 70510 82500 333 58026 70000 82616==
41943,2024,03,27,00,00,AAXX 27004 41943 01440 40000 10220 20210 30136 40143 70521 81501 333 58026 70000 81616 83074==
41943,2024,03,27,03,00,AAXX 27034 41943 01945 40000 10280 20220 30148 40155 70522 83530 333 20222 58011 70000 83616==
41943,2024,03,27,06,00,AAXX 27064 41943 01950 01801 10320 20200 30137 40144 70520 333 58011 70000==
41943,2024,03,27,09,00,AAXX 27094 41943 01950 01802 10335 20220 30110 40118 70520 333 58009 70000==
41943,2024,03,27,12,00,AAXX 27124 41943 01435 61801 10308 20230 30097 40104 70520 81510 333 59007 70000 81616 86457==
41943,2024,03,27,15,00,AAXX 27154 41943 01430 83520 10275 20240 30135 40142 71792 8532/ 333 58006 70000 84616 87457 81928==
41943,2024,03,28,03,00,AAXX 28034 41943 01435 50000 10288 20250 30123 40131 70521 83530 333 20236 59025 70000 83617 84362==
41943,2024,03,28,09,00,AAXX 28094 41943 NIL=
41943,2024,03,28,12,00,AAXX 28124 41943 21435 61401 10228 20220 30084 40091 70196 84520 333 10310 59013 60328 70322 84616 85458==
41943,2024,03,28,15,00,AAXX 28154 41943 01330 80000 10225 20220 30105 40112 72996 8662/ 333 59030 70572 83709 84615 88457==
41943,2024,03,28,18,00,AAXX 28184 41943 21435 60000 10225 20210 30106 40113 70196 83520 333 59012 60258 70572 83616 83458==
41943,2024,03,28,21,00,AAXX 28214 41943 02435 60000 10228 20210 30106 40110 83520 333 59017 70572 83616 83458==
41944,2024,03,22,06,00,AAXX 22064 41944 NIL=
41944,2024,03,22,12,00,AAXX 22124 41944 NIL=
41944,2024,03,22,18,00,AAXX 22184 41944 NIL=
41944,2024,03,23,00,00,AAXX 23004 41944 NIL=
41944,2024,03,23,06,00,AAXX 23064 41944 NIL=
41944,2024,03,24,00,00,AAXX 24004 41944 NIL=
41944,2024,03,24,06,00,AAXX 24064 41944 NIL=
41944,2024,03,24,09,00,AAXX 24094 41944 NIL=
41944,2024,03,24,12,00,AAXX 24124 41944 NIL=
41944,2024,03,25,00,00,AAXX 25004 41944 NIL=
41944,2024,03,25,06,00,AAXX 25064 41944 NIL=
41944,2024,03,25,12,00,AAXX 25124 41944 NIL=
41944,2024,03,26,00,00,AAXX 26004 41944 NIL=
41944,2024,03,26,06,00,AAXX 26064 41944 NIL=
41944,2024,03,26,18,00,AAXX 26184 41944 NIL=
41944,2024,03,27,06,00,AAXX 27064 41944 NIL=
41944,2024,03,28,12,00,AAXX 28124 41944 NIL=
41944,2024,03,28,18,00,AAXX 28184 41944 NIL=
41946,2024,03,22,00,00,AAXX 22004 41946 01440 10000 10191 20190 30109 40114 70520 81500 333 59023 70024 81618==
41946,2024,03,22,03,00,AAXX 22034 41946 02456 10000 10238 20190 30123 40128 81500 333 20186 59035 70024 81618==
41946,2024,03,22,06,00,AAXX 22064 41946 02956 10504 10274 20180 30111 40116 80001 333 59035 70024 81080==
41946,2024,03,22,09,00,AAXX 22094 41946 02456 20000 10293 20180 30081 40086 82500 333 59033 70024 82618==
41946,2024,03,22,12,00,AAXX 22124 41946 02956 00000 10266 20210 30081 40086 333 10294 59036 70000==
41946,2024,03,22,15,00,AAXX 22154 41946 02956 00000 10224 20210 30098 40103 333 59030 70000==
41946,2024,03,22,18,00,AAXX 22184 41946 01950 00000 10208 20200 30094 40099 70500 333 59033 70000==
41946,2024,03,22,21,00,AAXX 22214 41946 01940 00000 10206 20200 30083 40088 70500 333 59024 70000==
41946,2024,03,23,00,00,AAXX 23004 41946 01930 00000 10200 20190 30088 40093 70500 333 59021 70000==
41946,2024,03,23,03,00,AAXX 23034 41946 02956 00000 10262 20210 30112 40117 333 20195 59011 70000==
41946,2024,03,23,06,00,AAXX 23064 41946 02456 21803 10306 20220 30103 40108 82500 333 59008 70000 82618==
41946,2024,03,23,09,00,AAXX 23094 41946 02457 20000 10323 20210 30071 40076 82500 333 59010 70000 82618==
41946,2024,03,23,12,00,AAXX 23124 41946 02556 21901 10309 20210 30060 40064 82100 333 10326 59021 70000 82825==
41946,2024,03,23,15,00,AAXX 23154 41946 02956 01803 10273 20230 30087 40092 333 59011 70000==
41946,2024,03,23,18,00,AAXX 23184 41946 02456 31903 10264 20240 30090 40095 83500 333 59004 70000 83618==
41946,2024,03,23,21,00,AAXX 23214 41946 02956 00000 10260 20250 30087 40092 333 58004 70000==
41946,2024,03,24,00,00,AAXX 24004 41946 02/56 41702 10257 20250 30094 40099 84030 333 58006 70000 84362==
41946,2024,03,24,03,00,AAXX 24034 41946 02456 41804 10280 20250 30123 40128 84400 333 20250 58011 70000 83618==
41946,2024,03,24,06,00,AAXX 24064 41946 02957 01804 10315 20240 30118 40123 333 58015 70000==
41946,2024,03,24,09,00,AAXX 24094 41946 02957 01803 10338 20230 30091 40095 333 58020 70000==
41946,2024,03,24,12,00,AAXX 24124 41946 02956 00000 10315 20230 30093 40098 333 10339 58033 70000==
41946,2024,03,24,15,00,AAXX 24154 41946 02956 01802 10285 20260 30118 40123 333 58031 70000==
41946,2024,03,24,18,00,AAXX 24184 41946 02456 31803 10272 20250 30123 40128 83500 333 58033 70000 83618==
41946,2024,03,24,21,00,AAXX 24214 41946 02456 30000 10260 20250 30105 40110 83500 333 58018 70000 83618==
41946,2024,03,25,00,00,AAXX 25004 41946 02456 30000 10250 20240 30111 40116 83500 333 58017 70000 83618==
41946,2024,03,25,03,00,AAXX 25034 41946 02456 51804 10285 20240 30130 40135 83501 333 20245 58007 70000 83618 83080==
41946,2024,03,25,06,00,AAXX 25064 41946 02457 31805 10318 20240 30120 40125 83400 333 58002 70000 82618==
41946,2024,03,25,09,00,AAXX 25094 41946 02957 02703 10337 20240 30090 40094 333 59001 70000==
41946,2024,03,25,12,00,AAXX 25124 41946 02456 80000 10312 20240 30081 40086 8252/ 333 10338 59012 70000 82618 88460==
41946,2024,03,25,15,00,AAXX 25154 41946 01350 82709 10276 20260 30120 40125 79596 8692/ 333 58002 70002 82710 84617 88459 81928==
41946,2024,03,25,18,00,AAXX 25184 41946 21456 82210 10270 20140 30118 40123 70296 8532/ 333 59005 69928 70002 84618 88459 81929==
41946,2024,03,25,21,00,AAXX 25214 41946 02956 20000 10236 20170 30094 40099 80001 333 59011 70002 82080==
41946,2024,03,26,00,00,AAXX 26004 41946 02956 10000 10208 20180 30104 40109 80001 333 59007 70002 81080==
41946,2024,03,26,03,00,AAXX 26034 41946 02456 50903 10260 20200 30145 40150 85500 333 20205 58015 70002 85618==
41946,2024,03,26,06,00,AAXX 26064 41946 02957 00000 10300 20190 30134 40139 333 58014 70002==
41946,2024,03,26,09,00,AAXX 26094 41946 02957 01903 10314 20180 30104 40109 333 58014 70002==
41946,2024,03,26,12,00,AAXX 26124 41946 02556 40000 10300 20220 30102 40106 84400 333 10320 58021 70002 82620 83822==
41946,2024,03,26,15,00,AAXX 26154 41946 02956 01602 10274 20230 30131 40135 333 58011 70000==
41946,2024,03,26,18,00,AAXX 26184 41946 32956 00000 10261 20240 30135 40140 333 58017 70000=
41946,2024,03,26,21,00,AAXX 26214 41946 02/56 30000 10256 20250 30129 40134 83030 333 58035 70000 83362==
41946,2024,03,27,00,00,AAXX 27004 41946 01550 50000 10250 20240 30132 40137 70520 85400 333 58028 70000 83620 83822==
41946,2024,03,27,03,00,AAXX 27034 41946 02556 51802 10285 20250 30154 40159 84500 333 20245 58009 70000 84620==
41946,2024,03,27,06,00,AAXX 27064 41946 02556 32702 10320 20240 30143 40148 83400 333 58009 70000 83620==
41946,2024,03,27,09,00,AAXX 27094 41946 02556 52202 10331 20230 30110 40115 85400 333 58006 70000 83620==
41946,2024,03,27,12,00,AAXX 27124 41946 01456 51701 10287 20260 30095 40100 71796 85900 333 10341 59007 70010 84618 81929==
41946,2024,03,28,09,00,AAXX 28094 41946 02456 50000 10333 20250 30077 40081 85400 333 59033 70012 84618==
41946,2024,03,28,12,00,AAXX 28124 41946 02956 00000 10318 20250 30074 40079 333 10334 59021 70000==
41946,2024,03,28,15,00,AAXX 28154 41946 02956 00000 10275 20230 30102 40107 333 59021 70000==
41946,2024,03,28,18,00,AAXX 28184 41946 02956 00000 10270 20230 30112 40117 333 59018 70000==
41946,2024,03,28,21,00,AAXX 28214 41946 02956 00000 10265 20250 30084 40089 333 59023 70000==
41947,2024,03,22,00,00,AAXX 22004 41947 02440 80000 10195 20190 30107 40109 8352/ 333 59020 70026 83618 88458==
41947,2024,03,22,03,00,AAXX 22034 41947 02450 80000 10235 20180 30123 40126 8352/ 333 20193 59032 70026 83618 88458==
41947,2024,03,22,06,00,AAXX 22064 41947 02456 40000 10280 20170 30110 40113 84400 333 59036 70026 81618 83820==
41947,2024,03,22,09,00,AAXX 22094 41947 02456 43102 10290 20180 30082 40084 84400 333 59031 70026 83618==
41947,2024,03,22,12,00,AAXX 22124 41947 02956 00000 10272 20190 30080 40082 333 10300 59038 70016==
41947,2024,03,22,15,00,AAXX 22154 41947 02956 00000 10234 20210 30098 40100 333 59028 70000==
41947,2024,03,22,18,00,AAXX 22184 41947 02950 00000 10222 20210 30095 40097 333 59032 70000==
41947,2024,03,22,21,00,AAXX 22214 41947 01950 00000 10212 20200 30085 40087 70500 333 59028 70000==
41947,2024,03,23,00,00,AAXX 23004 41947 01950 00000 10202 20200 30088 40090 70500 333 59019 70000==
41947,2024,03,23,03,00,AAXX 23034 41947 02956 00000 10270 20190 30113 40115 333 20200 59011 70000==
41947,2024,03,23,06,00,AAXX 23064 41947 02456 21803 10308 20200 30102 40104 82500 333 59009 70000 82618==
41947,2024,03,23,09,00,AAXX 23094 41947 02456 31602 10320 20200 30171 40173 83400 333 59011 70000 82618==
41947,2024,03,23,12,00,AAXX 23124 41947 02456 20000 10310 20180 30064 40066 82500 333 10325 59016 70000==
41947,2024,03,23,15,00,AAXX 23154 41947 02450 21802 10265 20240 30193 40195 82500 333 59005 70000 82618==
41947,2024,03,23,18,00,AAXX 23184 41947 02450 21802 10255 20240 30097 40099 82500 333 59001 70000 82618==
41947,2024,03,23,21,00,AAXX 23214 41947 01950 00000 10255 20250 30096 40098 70500 333 58011 70000==
41947,2024,03,24,00,00,AAXX 24004 41947 01950 00000 10255 20250 30098 40101 70500 333 58011 70000==
41947,2024,03,24,03,00,AAXX 24034 41947 02456 70000 10284 20240 30123 40125 83570 333 20250 58010 70000 83618 85459==
41947,2024,03,24,06,00,AAXX 24064 41947 02457 40000 10320 20230 30118 40120 84500 333 58016 70000 84618==
41947,2024,03,24,09,00,AAXX 24094 41947 02957 02302 10342 20210 30092 40094 333 58021 70000==
41947,2024,03,24,12,00,AAXX 24124 41947 02956 00000 10318 20220 30092 40094 333 10347 58028 70000==
41947,2024,03,24,15,00,AAXX 24154 41947 02950 00000 10278 20250 30116 40118 333 58023 70000==
41947,2024,03,24,18,00,AAXX 24184 41947 02950 00000 10268 20250 30127 40129 333 58029 70000==
41947,2024,03,24,21,00,AAXX 24214 41947 02950 00000 10260 20250 30121 40123 333 58025 70000==
41947,2024,03,25,00,00,AAXX 25004 41947 02450 80000 10258 20250 30117 40119 8352/ 333 58018 70000 83618 88458==
41947,2024,03,25,03,00,AAXX 25034 41947 02456 61803 10285 20240 30131 40133 83570 333 20250 58008 70000 83618 84459==
41947,2024,03,25,06,00,AAXX 25064 41947 02457 32203 10320 20230 30124 40126 83500 333 58006 70000 83618==
41947,2024,03,25,09,00,AAXX 25094 41947 02957 00000 10338 20210 30092 40094 333 58000 70000==
41947,2024,03,25,12,00,AAXX 25124 41947 02456 60000 10325 20220 30086 40088 83570 333 10342 59006 70000 83618 84458==
41947,2024,03,25,15,00,AAXX 25154 41947 02450 82305 10280 20240 30119 40121 8352/ 333 58003 70000 83618 88458==
41947,2024,03,25,18,00,AAXX 25184 41947 02450 62805 10275 20260 30120 40122 83570 333 59007 70000 83618 84458==
41947,2024,03,25,21,00,AAXX 25214 41947 02450 50000 10250 20220 30107 40109 83570 333 59014 70000 83618 84458==
41947,2024,03,26,00,00,AAXX 26004 41947 02450 20000 10220 20180 30098 40100 82500 333 59019 70000 82618==
41947,2024,03,26,03,00,AAXX 26034 41947 02956 00000 10282 20170 30146 40149 333 20215 58016 70000==
41947,2024,03,26,06,00,AAXX 26064 41947 02956 00000 10315 20170 30136 40139 333 58013 70000==
41947,2024,03,26,09,00,AAXX 26094 41947 02957 00000 10340 20160 30105 40107 333 58013 70000==
41947,2024,03,26,12,00,AAXX 26124 41947 02/56 30000 10300 20220 30105 40107 83030 333 10342 58019 70000 83362==
41947,2024,03,26,15,00,AAXX 26154 41947 02956 01802 10275 20220 30134 40136 333 58015 70000==
41947,2024,03,26,18,00,AAXX 26184 41947 32950 00000 10260 20240 30135 40137 333 58015 70000=
41947,2024,03,26,21,00,AAXX 26214 41947 02950 00000 10254 20240 30125 40127 333 58018 70000==
41947,2024,03,27,00,00,AAXX 27004 41947 02450 80000 10252 20240 30136 40138 8352/ 333 58038 70000 83618 88458==
41947,2024,03,27,03,00,AAXX 27034 41947 02456 60000 10280 20230 30153 40156 86400 333 20244 58008 70000 83618 83820==
41947,2024,03,27,06,00,AAXX 27064 41947 02456 50000 10330 20230 30141 40144 85400 333 58005 70000 82618 83820==
41947,2024,03,27,09,00,AAXX 27094 41947 02957 03202 10345 20230 30107 40109 333 58002 70000==
41947,2024,03,27,12,00,AAXX 27124 41947 02456 50000 10322 20240 30094 40096 83570 333 10348 59011 70000 83618 84458==
41947,2024,03,28,09,00,AAXX 28094 41947 02456 50000 10322 20240 30076 40078 82530 333 59031 70000 82618 83362==
41947,2024,03,28,12,00,AAXX 28124 41947 02456 50000 10315 20250 30075 40077 82530 333 10328 59019 70000 82618 83362==
41947,2024,03,28,15,00,AAXX 28154 41947 02450 50000 10274 20220 30100 40102 82530 333 59026 70000 82618 83362==
41947,2024,03,28,18,00,AAXX 28184 41947 02450 50000 10270 20220 30106 40108 82530 333 59023 70000 82618 83362==
41947,2024,03,28,21,00,AAXX 28214 41947 02450 50000 10262 20230 30090 40092 82530 333 59025 70000 82618 83362==
41950,2024,03,22,00,00,AAXX 22004 41950 02350 80000 10200 20200 30109 40111 8562/ 333 59033 70124 82708 84616 88458==
41950,2024,03,22,03,00,AAXX 22034 41950 02450 20000 10245 20210 30122 40124 82500 333 20185 59030 70120 82617==
41950,2024,03,22,06,00,AAXX 22064 41950 02450 40000 10279 20180 30109 40111 84400 333 59035 70120 83617==
41950,2024,03,22,09,00,AAXX 22094 41950 02450 30000 10292 20170 30078 40080 83400 333 59034 70120 82617==
41950,2024,03,22,12,00,AAXX 22124 41950 02450 40000 10274 20190 30076 40078 84400 333 10296 59031 70120 83617==
41950,2024,03,22,15,00,AAXX 22154 41950 02950 00000 10221 20210 30095 40098 333 59034 70000==
41950,2024,03,22,18,00,AAXX 22184 41950 01450 20000 10214 20210 30093 40096 70500 82500 333 59038 70000 82617==
41950,2024,03,22,21,00,AAXX 22214 41950 01920 00000 10204 20200 30090 40092 71000 333 59016 70000==
41950,2024,03,23,00,00,AAXX 23004 41950 01902 00000 10198 20198 30084 40086 74740 89/// 333 59025 70000==
41950,2024,03,23,03,00,AAXX 23034 41950 02950 00000 10258 20220 30114 40116 333 20193 59008 70000==
41950,2024,03,23,06,00,AAXX 23064 41950 01450 30602 10303 20170 30106 40108 70340 81530 333 59003 70000 81617==
41950,2024,03,23,09,00,AAXX 23094 41950 02450 30000 10318 20180 30072 40074 83400 333 59006 70000 81617==
41950,2024,03,23,12,00,AAXX 23124 41950 02450 31302 10284 20230 30068 40070 83300 333 10325 59008 70000 82617 81928==
41950,2024,03,23,15,00,AAXX 23154 41950 02950 00000 10262 20230 30096 40099 333 58001 70000==
41950,2024,03,23,18,00,AAXX 23184 41950 02950 00000 10255 20240 30102 40105 333 58009 70000==
41950,2024,03,23,21,00,AAXX 23214 41950 02350 80000 10244 20230 30105 40107 8562/ 333 58015 70000 82708 84616 88458==
41950,2024,03,24,00,00,AAXX 24004 41950 02350 80000 10242 20240 30105 40107 8562/ 333 58021 70000 82708 84616 88458==
41950,2024,03,24,03,00,AAXX 24034 41950 32350 51802 10280 20240 30128 40131 84610 333 20240 56990 58014 70000 81708 84616=
41950,2024,03,24,06,00,AAXX 24064 41950 02450 41902 10317 20220 30117 40119 84400 333 58011 70000 83617==
41950,2024,03,24,09,00,AAXX 24094 41950 02450 42003 10317 20230 30093 40095 84400 333 58021 70000 83617==
41950,2024,03,24,12,00,AAXX 24124 41950 02950 21802 10298 20240 30093 40095 80001 333 10332 58025 70000 82080==
41950,2024,03,24,15,00,AAXX 24154 41950 02350 83202 10267 20240 30131 40133 8532/ 333 58035 70000 87208 84616 88458 81928==
41950,2024,03,24,18,00,AAXX 24184 41950 02450 20000 10232 20170 30135 40137 82500 333 58033 70000 82617==
41950,2024,03,24,21,00,AAXX 24214 41950 02450 30000 10224 20210 30117 40119 83500 333 58012 70000 83617==
41950,2024,03,25,00,00,AAXX 25004 41950 02450 60000 10220 20220 30120 40122 83510 333 58015 70000 83617 86459==
41950,2024,03,25,03,00,AAXX 25034 41950 02450 61804 10272 20240 30130 40133 84431 333 20215 58002 70000 83617==
41950,2024,03,25,06,00,AAXX 25064 41950 02450 41802 10316 20220 30120 40144 83401 333 58003 70000 83617==
41950,2024,03,25,09,00,AAXX 25094 41950 02450 21802 10332 20210 30093 40096 82500 333 58000 70000 82617==
41950,2024,03,25,12,00,AAXX 25124 41950 02/50 30000 10310 20230 30093 40096 82031 333 10343 58000 70000 82362==
41950,2024,03,25,15,00,AAXX 25154 41950 02350 71602 10272 20230 30112 40114 85610 333 59019 70000 81708 84616 87459==
41950,2024,03,25,18,00,AAXX 25184 41950 02350 81704 10264 20240 30107 40109 8562/ 333 59028 70000 82708 84616 88458==
41950,2024,03,25,21,00,AAXX 25214 41950 02450 40000 10234 20200 30100 40103 83530 333 59017 70000 83617==
41950,2024,03,26,00,00,AAXX 26004 41950 02450 20000 10214 20190 30108 40111 82501 333 59011 70000 82617==
41950,2024,03,26,03,00,AAXX 26034 41950 02950 20000 10290 20210 30143 40146 80001 333 20207 58013 70000 82080==
41950,2024,03,26,06,00,AAXX 26064 41950 02950 10000 10317 20180 30135 40137 80001 333 58015 70000 81080==
41950,2024,03,26,09,00,AAXX 26094 41950 02950 01902 10335 20180 30105 40107 333 58012 70000==
41950,2024,03,26,12,00,AAXX 26124 41950 02950 00000 10300 20220 30107 40109 333 10337 58014 70000==
41950,2024,03,26,15,00,AAXX 26154 41950 02950 00000 10270 20200 30137 40139 333 58025 70000==
41950,2024,03,26,18,00,AAXX 26184 41950 02/50 20000 10260 20210 30139 40141 82030 333 58032 70000 82362==
41950,2024,03,26,21,00,AAXX 26214 41950 02350 60000 10246 20240 30139 40141 83510 333 58027 70000 83617 84459==
41950,2024,03,27,00,00,AAXX 27004 41950 02350 80000 10244 20230 30139 40141 8562/ 333 58031 70000 82708 84616 88458==
41950,2024,03,27,03,00,AAXX 27034 41950 02450 20000 10285 20240 30153 40155 82500 333 20232 58010 70000 82617==
41950,2024,03,27,06,00,AAXX 27064 41950 02450 41902 10314 20220 30142 40144 84500 333 58007 70000 84616==
41950,2024,03,27,09,00,AAXX 27094 41950 02450 40000 10330 20240 30110 40113 84400 333 58005 70000 83617==
41950,2024,03,27,12,00,AAXX 27124 41950 01450 60000 10304 20240 30093 40096 71711 84910 333 10338 59014 70000 83617 85459 81928==
41950,2024,03,27,15,00,AAXX 27154 41950 01450 30000 10253 20230 30145 40147 70196 83500 333 58008 70030 83617==
41950,2024,03,28,03,00,AAXX 28034 41950 02350 71902 10274 20250 30122 40124 85610 333 20232 59031 70030 81708 84616 86459==
41950,2024,03,28,06,00,AAXX 28064 41950 02450 51802 10315 20250 30104 40106 84430 333 59038 70030 83617==
41950,2024,03,28,09,00,AAXX 28094 41950 02450 40000 10336 20250 30075 40077 84400 333 59035 70030 83617==
41950,2024,03,28,12,00,AAXX 28124 41950 02450 20000 10292 20250 30074 40076 82430 333 10338 59019 70030 81617==
41950,2024,03,28,15,00,AAXX 28154 41950 02450 10000 10256 20230 30107 40109 81500 333 59038 70000 81617==
41950,2024,03,28,18,00,AAXX 28184 41950 02950 00000 10240 20220 30107 40109 333 59025 70000==
41950,2024,03,28,21,00,AAXX 28214 41950 02950 00000 10240 20230 30098 40101 333 59011 70000==
41951,2024,03,22,00,00,AAXX 22004 41951 01440 60000 10200 20200 30098 40103 70522 83510 333 59025 70048 83618 85459==
41951,2024,03,22,03,00,AAXX 22034 41951 02956 00502 10254 20200 30112 40117 333 20182 59029 70048==
41951,2024,03,22,06,00,AAXX 22064 41951 02450 70503 10285 20220 30107 40112 83510 333 59035 70048 83618 86459==
41951,2024,03,22,12,00,AAXX 22124 41951 02456 30000 10260 20210 30076 40081 83500 333 10292 59035 70048 83618==
41951,2024,03,22,15,00,AAXX 22154 41951 01940 00000 10222 20210 30095 40100 70500 333 59039 70003==
41951,2024,03,22,18,00,AAXX 22184 41951 01440 30000 10220 20220 30092 40097 70500 83500 333 59031 70000 83618==
41951,2024,03,22,21,00,AAXX 22214 41951 01940 00000 10196 20200 30087 40092 70500 333 59024 70000==
41951,2024,03,23,00,00,AAXX 23004 41951 01940 00000 10196 20196 30084 40089 70500 333 59014 70000==
41951,2024,03,23,03,00,AAXX 23034 41951 02956 00502 10270 20230 30103 40108 333 20192 59009 70000==
41951,2024,03,23,06,00,AAXX 23064 41951 02456 30502 10307 20220 30103 40108 83500 333 59004 70000 83618==
41951,2024,03,23,09,00,AAXX 23094 41951 02956 51302 10298 20220 30076 40081 82510 333 59003 70000 82618 84459==
41951,2024,03,23,12,00,AAXX 23124 41951 02456 31303 10278 20230 30072 40077 83500 333 10317 59004 70000 83618==
41951,2024,03,23,15,00,AAXX 23154 41951 02950 01302 10257 20240 30098 40103 333 58003 70000==
41951,2024,03,23,18,00,AAXX 23184 41951 02450 21802 10250 20250 30095 40100 82500 333 58003 70000 82618==
41951,2024,03,23,21,00,AAXX 23214 41951 01340 80000 10248 20248 30098 40103 70520 8562/ 333 58011 70000 81708 84618 88458==
41951,2024,03,24,00,00,AAXX 24004 41951 01340 80000 10250 20250 30102 40107 70522 8562/ 333 58018 70000 81708 84618 88458==
41951,2024,03,24,03,00,AAXX 24034 41951 02456 50502 10266 20230 30119 40124 82510 333 20240 58016 70000 82618 84459==
41951,2024,03,24,06,00,AAXX 24064 41951 32456 62103 10322 20240 30120 40125 83510 333 56590 58017 70000 83618 85459=
41951,2024,03,24,09,00,AAXX 24094 41951 02456 32402 10332 20230 30096 40101 83500 333 58020 70000 83618==
41951,2024,03,24,12,00,AAXX 24124 41951 02456 31604 10300 20240 30092 40097 83500 333 10332 58020 70000 83618==
41951,2024,03,24,15,00,AAXX 24154 41951 01340 80508 10252 20200 30138 40143 71320 8632/ 333 58040 70000 81709 84618 88458 81925==
41951,2024,03,24,18,00,AAXX 24184 41951 01450 21302 10230 20220 30115 40120 70162 82500 333 58020 70110 82618==
41951,2024,03,24,21,00,AAXX 24214 41951 01440 60000 10232 20220 30115 40120 70520 83510 333 58017 70110 83618 85459==
41951,2024,03,25,00,00,AAXX 25004 41951 01440 60000 10232 20220 30115 40120 70520 83510 333 58017 70110 83618 85459==
41951,2024,03,25,03,00,AAXX 25034 41951 02440 70503 10288 20250 30128 40133 83510 333 20214 58009 70110 83618 86459==
41951,2024,03,25,06,00,AAXX 25064 41951 02456 61302 10318 20230 30124 40129 83510 333 58004 70110 83618 85459==
41951,2024,03,25,09,00,AAXX 25094 41951 02456 20503 10335 20230 30096 40101 82500 333 58000 70110 82618==
41951,2024,03,25,12,00,AAXX 25124 41951 02450 61302 10287 20250 30090 40095 83510 333 10337 59002 70110 83618 85459==
41951,2024,03,25,15,00,AAXX 25154 41951 02450 61303 10268 20250 30115 40120 83510 333 59023 70110 83618 85459==
41951,2024,03,25,18,00,AAXX 25184 41951 02340 82106 10267 20250 30112 40117 8562/ 333 59003 70000 81708 84618 88458==
41951,2024,03,25,21,00,AAXX 25214 41951 01440 62102 10258 20250 30109 40114 70522 84610 333 59006 70000 81708 83618 85459==
41951,2024,03,26,00,00,AAXX 26004 41951 01440 30000 10228 20228 30107 40112 70520 83500 333 59006 70000 83618==
41951,2024,03,26,03,00,AAXX 26034 41951 02956 00503 10296 20230 30133 40138 333 20224 58005 70000==
41951,2024,03,26,06,00,AAXX 26064 41951 02456 30902 10310 20230 30127 40132 83500 333 58003 70000 83618==
41951,2024,03,26,09,00,AAXX 26094 41951 02956 01303 10332 20200 30102 40107 333 58006 70000==
41951,2024,03,26,12,00,AAXX 26124 41951 02456 21302 10298 20240 30108 40113 82500 333 10334 58018 70000 82618==
41951,2024,03,26,15,00,AAXX 26154 41951 02450 50000 10270 20230 30133 40138 82510 333 58018 70000 82618 84459==
41951,2024,03,26,18,00,AAXX 26184 41951 02450 60000 10255 20240 30136 40141 83510 333 58024 70000 83618 85459==
41951,2024,03,26,21,00,AAXX 26214 41951 01440 70000 10248 20240 30130 40135 70522 83510 333 58021 70000 83618 86459==
41951,2024,03,27,00,00,AAXX 27004 41951 01440 80000 10240 20240 30127 40132 70522 8452/ 333 58020 70000 84618 88458==
41951,2024,03,27,03,00,AAXX 27034 41951 02456 61302 10292 20230 30148 40153 83510 333 20230 58015 70000 83618 85459==
41951,2024,03,27,06,00,AAXX 27064 41951 02456 51304 10320 20240 30140 40145 82510 333 58013 70000 82618 84459==
41951,2024,03,27,09,00,AAXX 27094 41951 02456 20502 10318 20250 30110 40115 82500 333 58008 70000 82618==
41951,2024,03,27,12,00,AAXX 27124 41951 02340 81303 10290 20260 30102 40107 8562/ 333 10328 59006 70000 81708 84618 88458==
41951,2024,03,28,09,00,AAXX 28094 41951 02456 60502 10313 20260 30077 40082 83510 333 59033 70002 83618 85459==
41951,2024,03,28,12,00,AAXX 28124 41951 02456 31302 10274 20190 30075 40080 83500 333 10332 59027 70002 83618==
41951,2024,03,28,15,00,AAXX 28154 41951 02450 31302 10253 20210 30111 40116 83500 333 59021 70002 83618==
41951,2024,03,28,18,00,AAXX 28184 41951 02450 61803 10238 20220 30105 40110 83510 333 59025 70000 83618 85459==
41951,2024,03,28,21,00,AAXX 28214 41951 02440 60000 10237 20230 30091 40096 83510 333 59023 70000 83618 85459==
41953,2024,03,22,00,00,AAXX 22004 41953 01430 80000 10190 20180 30107 40112 71022 8352/ 333 59035 70080 83616 88458==
41953,2024,03,22,03,00,AAXX 22034 41953 01430 60000 10222 20190 30123 40128 71062 83510 333 20180 59027 70070 83616 86458==
41953,2024,03,22,06,00,AAXX 22064 41953 01440 60000 10272 20190 30110 40115 70562 83510 333 59040 70070 83616 86458==
41953,2024,03,22,09,00,AAXX 22094 41953 01450 60000 10290 20170 30081 40086 70522 83510 333 59044 70070 83616 86458==
41953,2024,03,22,12,00,AAXX 22124 41953 01440 60000 10260 20200 30078 40083 70522 83510 333 10295 59036 70070 83616 86458==
41953,2024,03,22,15,00,AAXX 22154 41953 01930 00000 10225 20210 30095 40100 71000 333 59039 70070==
41953,2024,03,22,18,00,AAXX 22184 41953 01930 00000 10215 20200 30095 40100 71000 333 59027 70020==
41953,2024,03,22,21,00,AAXX 22214 41953 01930 00000 10210 20200 30090 40095 71000 333 59025 70020==
41953,2024,03,23,00,00,AAXX 23004 41953 01920 00000 10205 20200 30089 40094 71000 333 59018 70020==
41953,2024,03,23,03,00,AAXX 23034 41953 01930 00000 10252 20230 30112 40117 71000 333 20204 59011 70000==
41953,2024,03,23,06,00,AAXX 23064 41953 01440 31804 10297 20190 30109 40114 70520 83500 333 59001 70000 83618==
41953,2024,03,23,09,00,AAXX 23094 41953 01450 41303 10315 20180 30076 40081 70522 84400 333 59005 70000 83618==
41953,2024,03,23,12,00,AAXX 23124 41953 01940 01806 10270 20210 30075 40080 70520 333 10318 59003 70000==
41953,2024,03,23,15,00,AAXX 23154 41953 01930 02303 10250 20230 30102 40107 71000 333 58007 70000==
41953,2024,03,23,18,00,AAXX 23184 41953 01930 02303 10246 20230 30104 40109 71000 333 58009 70000==
41953,2024,03,23,21,00,AAXX 23214 41953 01425 81805 10210 20200 30113 40118 71020 8532/ 333 58023 70000 84615 88458 81930==
41953,2024,03,24,00,00,AAXX 24004 41953 01430 81804 10205 20200 30121 40126 76122 8532/ 333 58032 70020 84614 88458 81925==
41953,2024,03,24,03,00,AAXX 24034 41953 01950 00502 10270 20210 30137 40142 70566 333 20200 58025 70050==
41953,2024,03,24,06,00,AAXX 24064 41953 11445 61804 10314 20220 30128 40133 60036 70562 84510 333 58019 70050 84617 85458==
41953,2024,03,24,09,00,AAXX 24094 41953 01445 41803 10300 20240 30101 40106 70522 84400 333 58025 70050 82618 83825==
41953,2024,03,24,12,00,AAXX 24124 41953 01440 51703 10284 20230 30099 40104 70522 83510 333 10315 58024 70050 83616 84458==
41953,2024,03,24,15,00,AAXX 24154 41953 01415 80000 10210 20210 30135 40140 76196 8632/ 333 58033 70250 84615 88457 81930==
41953,2024,03,24,21,00,AAXX 24214 41953 02410 80000 10208 20200 30129 40134 8352/ 333 58016 70260 83616 88458==
41953,2024,03,25,00,00,AAXX 25004 41953 01425 80000 10215 20210 30120 40125 71022 8352/ 333 58002 70240 83616 88458==
41953,2024,03,25,03,00,AAXX 25034 41953 01430 51302 10290 20240 30135 40140 71022 83510 333 20205 59002 70210 83616 84458==
41953,2024,03,25,06,00,AAXX 25064 41953 01440 71306 10310 20230 30127 40132 70522 83510 333 59001 70210 83616 86458==
41953,2024,03,25,09,00,AAXX 25094 41953 01440 41804 10326 20200 30095 40100 70522 84400 333 59006 70210 83616==
41953,2024,03,25,12,00,AAXX 25124 41953 01940 01306 10290 20220 30094 40099 70520 333 10328 59005 70210==
41953,2024,03,25,15,00,AAXX 25154 41953 01430 61804 10264 20220 30108 40113 71022 83510 333 59027 70010 83616 85458==
41953,2024,03,25,18,00,AAXX 25184 41953 01425 82303 10256 20240 30118 40123 71022 8352/ 333 59015 70000 83616 88458==
41953,2024,03,25,21,00,AAXX 25214 41953 01925 00502 10250 20240 30114 40119 71000 333 59015 70000==
41953,2024,03,26,00,00,AAXX 26004 41953 01930 00503 10244 20230 30116 40121 71000 333 59007 70000==
41953,2024,03,26,03,00,AAXX 26034 41953 01440 60506 10276 20230 30146 40151 70520 84410 333 20240 58011 70000 83616 85458==
41953,2024,03,26,06,00,AAXX 26064 41953 01450 41305 10310 20200 30129 40134 70522 82510 333 58002 70000 82618 84458==
41953,2024,03,26,09,00,AAXX 26094 41953 01450 40000 10322 20220 30103 40108 70522 84400 333 58008 70000 83618==
41953,2024,03,26,12,00,AAXX 26124 41953 01945 00000 10298 20220 30108 40113 70520 333 10324 58014 70000==
41953,2024,03,26,15,00,AAXX 26154 41953 01430 50000 10264 20220 30130 40135 71022 83510 333 58022 70000 83618 84458==
41953,2024,03,26,18,00,AAXX 26184 41953 01425 50000 10256 20240 30136 40141 71022 83510 333 58018 70000 83616 84458==
41953,2024,03,26,21,00,AAXX 26214 41953 01425 50000 10246 20240 30135 40140 71022 82510 333 58021 70000 82618 84458==
41953,2024,03,27,00,00,AAXX 27004 41953 01430 40000 10236 20230 30140 40146 71022 82510 333 58025 70000 82618 84458==
41953,2024,03,27,03,00,AAXX 27034 41953 01445 50000 10290 20230 30163 40168 70522 83510 333 20234 58017 70000 83616 84458==
41953,2024,03,27,06,00,AAXX 27064 41953 01450 61302 10320 20230 30142 40147 70522 83510 333 58013 70000 83616 84458==
41953,2024,03,27,09,00,AAXX 27094 41953 01450 40000 10325 20240 30112 40117 70522 84400 333 58009 70000 83618==
41953,2024,03,27,12,00,AAXX 27124 41953 01440 61304 10300 20230 30099 40104 70522 83510 333 10328 59009 70000 83616 85458==
41953,2024,03,28,09,00,AAXX 28094 41953 01440 71304 10316 20250 30080 40085 70522 83510 333 59032 70020 83616 86458==
41953,2024,03,28,12,00,AAXX 28124 41953 01435 81306 10240 20220 30086 40091 70362 8352/ 333 10318 59013 70090 83616 88458==
41953,2024,03,28,15,00,AAXX 28154 41953 01415 80000 10234 20220 30100 40105 70296 8352/ 333 59021 70130 83616 88458==
41953,2024,03,28,18,00,AAXX 28184 41953 11410 80000 10230 20220 30115 40120 60026 70296 8352/ 333 59012 70110 83616 88458==
41953,2024,03,28,21,00,AAXX 28214 41953 01410 80000 10232 20220 30107 40112 71022 8352/ 333 59016 70110 83616 88458==
41955,2024,03,22,06,00,AAXX 22064 41955 NIL=
41955,2024,03,22,12,00,AAXX 22124 41955 NIL=
41955,2024,03,22,18,00,AAXX 22184 41955 NIL=
41955,2024,03,23,00,00,AAXX 23004 41955 NIL=
41955,2024,03,23,06,00,AAXX 23064 41955 NIL=
41955,2024,03,24,00,00,AAXX 24004 41955 NIL=
41955,2024,03,24,06,00,AAXX 24064 41955 NIL=
41955,2024,03,24,09,00,AAXX 24094 41955 NIL=
41955,2024,03,24,12,00,AAXX 24124 41955 NIL=
41955,2024,03,25,00,00,AAXX 25004 41955 NIL=
41955,2024,03,25,06,00,AAXX 25064 41955 NIL=
41955,2024,03,25,12,00,AAXX 25124 41955 NIL=
41955,2024,03,26,00,00,AAXX 26004 41955 NIL=
41955,2024,03,26,06,00,AAXX 26064 41955 NIL=
41955,2024,03,26,18,00,AAXX 26184 41955 NIL=
41955,2024,03,27,06,00,AAXX 27064 41955 NIL=
41955,2024,03,28,12,00,AAXX 28124 41955 NIL=
41955,2024,03,28,18,00,AAXX 28184 41955 NIL=
41958,2024,03,22,00,00,AAXX 22004 41958 32440 60000 10200 20200 30101 40103 85410 333 56690 59023 70104 84616 86459=
41958,2024,03,22,03,00,AAXX 22034 41958 32456 60000 10238 20200 30119 40121 85410 333 20180 56690 59030 70104 84616 86459=
41958,2024,03,22,06,00,AAXX 22064 41958 32458 60000 10288 20190 30104 40106 85410 333 56690 59032 70104 84616 86459=
41958,2024,03,22,09,00,AAXX 22094 41958 32458 60000 10300 20200 30074 40076 85410 333 56690 59033 70104 84616 86459=
41958,2024,03,22,12,00,AAXX 22124 41958 32456 60000 10268 20200 30076 40078 85410 333 10301 56690 59028 70096 84616 86459=
41958,2024,03,22,18,00,AAXX 22184 41958 32940 00000 10224 20210 30092 40094 333 59030 70000=
41958,2024,03,22,21,00,AAXX 22214 41958 31940 00000 10220 20210 30076 40078 333 59021 70000=
41958,2024,03,23,00,00,AAXX 23004 41958 31940 00000 10217 20217 30080 40082 70500 333 59021 70000=
41958,2024,03,23,03,00,AAXX 23034 41958 32956 00000 10278 20220 30110 40112 333 20210 59009 70000=
41958,2024,03,23,06,00,AAXX 23064 41958 32458 50000 10310 20220 30100 40102 85400 333 56600 59004 70000 84617=
41958,2024,03,23,09,00,AAXX 23094 41958 32458 20000 10333 20190 30065 40067 82500 333 56900 59009 70000 82617=
41958,2024,03,23,12,00,AAXX 23124 41958 32956 01801 10288 20250 30065 40067 333 10338 59011 70000=
41958,2024,03,23,18,00,AAXX 23184 41958 32440 51801 10260 20250 30093 40095 85400 333 56600 58001 70000 84617=
41958,2024,03,23,21,00,AAXX 23214 41958 32940 00000 10257 20250 30093 40095 333 58017 70000=
41958,2024,03,24,00,00,AAXX 24004 41958 32450 50000 10254 20240 30095 40097 85400 333 56600 58015 70000 84617=
41958,2024,03,24,03,00,AAXX 24034 41958 32457 50000 10294 20250 30119 40121 85400 333 20250 56600 58009 70000 84617=
41958,2024,03,24,06,00,AAXX 24064 41958 32457 52702 10338 20250 30116 40118 85400 333 56600 58016 70000 84616=
41958,2024,03,24,09,00,AAXX 24094 41958 32457 22702 10350 20240 30091 40093 82500 333 56600 58026 70000 82617=
41958,2024,03,24,12,00,AAXX 24124 41958 32956 21502 10300 20250 30092 40094 80001 333 10352 56009 58027 70000 82080=
41958,2024,03,24,15,00,AAXX 24154 41958 32950 01702 10262 20240 30115 40117 333 58024 70000=
41958,2024,03,24,18,00,AAXX 24184 41958 32440 81701 10260 20250 30122 40125 8542/ 333 56999 58029 70000 84616 88459=
41958,2024,03,24,21,00,AAXX 24214 41958 32440 50000 10254 20240 30109 40111 85400 333 56900 58016 70000 84616=
41958,2024,03,25,00,00,AAXX 25004 41958 32440 40000 10252 20250 30110 40112 84400 333 56900 58015 70000 83617=
41958,2024,03,25,03,00,AAXX 25034 41958 32450 42501 10280 20250 30132 40134 84401 333 20248 56509 58013 70000 83617=
41958,2024,03,25,06,00,AAXX 25064 41958 32958 32501 10326 20240 30120 40122 80001 333 56009 58004 70000 83080=
41958,2024,03,25,09,00,AAXX 25094 41958 32958 01502 10346 20240 30091 40093 333 58000 70000=
41958,2024,03,25,12,00,AAXX 25124 41958 32456 71802 10300 20240 30087 40089 85410 333 10348 56590 59005 70000 84616 87459=
41958,2024,03,25,15,00,AAXX 25154 41958 32450 82502 10268 20250 30114 40116 8542/ 333 56599 59001 70000 84616 88459=
41958,2024,03,25,18,00,AAXX 25184 41958 11440 82504 10242 20180 30119 40121 69944 72162 8542/ 333 56599 59003 70004 84616 88459=
41958,2024,03,26,00,00,AAXX 26004 41958 32950 20000 10218 20180 30102 40104 80001 333 56009 59008 70004 82080=
41958,2024,03,26,03,00,AAXX 26034 41958 32957 30803 10278 20190 30143 40145 83030 333 20212 56090 58011 70004 83362=
41958,2024,03,26,06,00,AAXX 26064 41958 32958 01502 10320 20170 30131 40133 333 58011 70004=
41958,2024,03,26,09,00,AAXX 26094 41958 32958 00000 10336 20170 30102 40104 333 58011 70004=
41958,2024,03,26,12,00,AAXX 26124 41958 32950 11802 10300 20210 30106 40108 80001 333 10340 56009 58019 70004 81080=
41958,2024,03,26,15,00,AAXX 26154 41958 32940 01801 10260 20220 30134 40136 333 58020 70004=
41958,2024,03,26,18,00,AAXX 26184 41958 32940 01501 10250 20240 30131 40133 333 58012 70000=
41958,2024,03,26,21,00,AAXX 26214 41958 32440 40000 10254 20240 30130 40132 84400 333 56500 58039 70000 83616=
41958,2024,03,27,00,00,AAXX 27004 41958 32450 50000 10254 20240 30132 40134 85400 333 56500 58030 70000 84616=
41958,2024,03,27,03,00,AAXX 27034 41958 32458 50000 10300 20250 30143 40145 85400 333 20242 56500 58000 70000 84616=
41958,2024,03,27,06,00,AAXX 27064 41958 32958 00000 10340 20240 30136 40138 333 58005 70000=
41958,2024,03,27,09,00,AAXX 27094 41958 32458 31802 10346 20240 30106 40108 83400 333 56500 58004 70000 82617=
41958,2024,03,27,12,00,AAXX 27124 41958 32450 71802 10304 20250 30091 40093 85370 333 10350 56590 59015 70000 84616 81930 86459=
41958,2024,03,28,09,00,AAXX 28094 41958 32558 23002 10344 20260 30072 40074 82100 333 56600 59034 70010 82825=
41958,2024,03,28,12,00,AAXX 28124 41958 32956 10000 10318 20240 30072 40074 81030 333 10350 56090 59019 70010 81362=
41958,2024,03,28,15,00,AAXX 28154 41958 32950 21802 10276 20260 30100 40102 82030 333 56090 59022 70000 82362=
41958,2024,03,28,18,00,AAXX 28184 41958 32440 81703 10276 20260 30106 40108 8542/ 333 56499 59024 70000 84616 88459=
41958,2024,03,28,21,00,AAXX 28214 41958 32440 60000 10262 20260 30084 40087 84410 333 56590 59019 70000 83616 86459=
41960,2024,03,22,00,00,AAXX 22004 41960 01940 80000 10198 20198 30106 40108 70522 8542/ 333 59026 70094 84617 88459==
41960,2024,03,22,03,00,AAXX 22034 41960 01950 00000 10240 20210 30118 40120 70520 333 20185 59042 70094==
41960,2024,03,22,06,00,AAXX 22064 41960 02456 32703 10290 20190 30107 40109 83400 333 59038 70094 82618==
41960,2024,03,22,09,00,AAXX 22094 41960 02456 52201 20180 30082 40084 85410 333 59038 70091 83618 83459==
41960,2024,03,22,12,00,AAXX 22124 41960 02450 40000 10278 20190 30078 40080 84400 333 10302 59028 70090 83618==
41960,2024,03,22,15,00,AAXX 22154 41960 02450 60000 10243 20220 30095 40097 85411 333 59032 70002 83618 86459==
41960,2024,03,22,18,00,AAXX 22184 41960 02440 30000 10227 20227 30097 40099 83400 333 59028 70000 82618==
41960,2024,03,22,21,00,AAXX 22214 41960 01940 00000 10215 20215 30094 40096 70500 333 59021 70000==
41960,2024,03,23,00,00,AAXX 23004 41960 01920 00000 10208 20208 30090 40092 71000 333 59016 70000==
41960,2024,03,23,03,00,AAXX 23034 41960 01940 00000 10270 20220 30117 40119 70500 333 20205 59001 70000==
41960,2024,03,23,06,00,AAXX 23064 41960 02456 50000 10302 20190 30105 40107 85410 333 58002 70000 83618 83459==
41960,2024,03,23,09,00,AAXX 23094 41960 02456 41802 10312 20220 30077 40079 84400 333 59005 70000 82618==
41960,2024,03,23,12,00,AAXX 23124 41960 02450 40000 10282 20240 30075 40076 84400 333 10324 59003 70000 82618==
41960,2024,03,23,15,00,AAXX 23154 41960 02450 50000 10257 20250 30100 40102 84410 333 58005 70000 83618 85459==
41960,2024,03,23,18,00,AAXX 23184 41960 01940 20000 10254 20240 30097 40099 70520 80001 333 58000 70000 82080==
41960,2024,03,23,21,00,AAXX 23214 41960 01440 20000 10250 20250 30100 40102 70500 82400 333 58006 70000 81618==
41960,2024,03,24,00,00,AAXX 24004 41960 01440 21802 10245 20245 30104 40106 70500 82400 333 58014 70000 81618==
41960,2024,03,24,03,00,AAXX 24034 41960 01450 80000 10280 20240 30132 40133 70521 8542/ 333 20240 58015 70000 83618 88459==
41960,2024,03,24,06,00,AAXX 24064 41960 02456 51805 10320 20240 30124 40126 83410 333 58019 70000 82618 83459==
41960,2024,03,24,09,00,AAXX 24094 41960 02457 31809 10328 20230 30100 40102 83400 333 58023 70000 82618==
41960,2024,03,24,12,00,AAXX 24124 41960 02450 42308 10288 20240 30101 40103 84401 333 10330 58026 70000 83618 83080==
41960,2024,03,24,15,00,AAXX 24154 41960 02950 00000 10260 20240 30124 40125 333 58024 70000==
41960,2024,03,24,18,00,AAXX 24184 41960 01440 30000 10246 20230 30130 40131 70510 82401 333 58033 70000 81618 83080==
41960,2024,03,24,21,00,AAXX 24214 41960 01440 50000 10245 20240 30125 40126 70521 85400 333 58025 70000 83617==
41960,2024,03,25,00,00,AAXX 25004 41960 01430 60000 10245 20245 30120 40122 71021 86410 333 58016 70000 84617 83822 86459==
41960,2024,03,25,03,00,AAXX 25034 41960 01450 51803 10282 20240 30125 40126 70522 85410 333 20232 59007 70000 83618 84459==
41960,2024,03,25,06,00,AAXX 25064 41960 02456 61805 10314 20210 30124 40126 85410 333 58000 70000 83618 86459==
41960,2024,03,25,09,00,AAXX 25094 41960 02457 31802 10332 20230 30099 40101 83400 333 59001 70000 82618==
41960,2024,03,25,12,00,AAXX 25124 41960 02450 31803 10291 20240 30094 40096 82401 333 10335 59007 70000 81618 83080==
41960,2024,03,25,15,00,AAXX 25154 41960 02450 51902 10265 20250 30119 40120 84411 333 59005 70000 83618 85459==
41960,2024,03,25,18,00,AAXX 25184 41960 02450 81804 10263 20250 30123 40124 8542/ 333 59007 70000 84618 88459==
41960,2024,03,25,21,00,AAXX 25214 41960 02450 50000 10242 20230 30116 40117 83410 333 59009 70000 82618 85460==
41960,2024,03,26,00,00,AAXX 26004 41960 02/50 20000 10230 20230 30107 40108 82040 333 59013 70000 82363==
41960,2024,03,26,03,00,AAXX 26034 41960 02956 00000 10290 20210 30139 40141 333 20228 58014 70000==
41960,2024,03,26,06,00,AAXX 26064 41960 02957 00000 10328 20200 30124 40126 333 58000 70000==
41960,2024,03,26,09,00,AAXX 26094 41960 02957 01802 10340 20170 30105 40107 333 58006 70000==
41960,2024,03,26,12,00,AAXX 26124 41960 02456 21804 10294 20200 30111 40113 82500 333 10347 58016 70000 82618==
41960,2024,03,26,15,00,AAXX 26154 41960 02950 20000 10259 20230 30134 40136 80001 333 58013 70000 82080==
41960,2024,03,26,18,00,AAXX 26184 41960 32950 00000 10245 20240 30137 40139 333 58014 70000=
41960,2024,03,26,21,00,AAXX 26214 41960 01940 00000 10246 20246 30137 40139 70500 333 58021 70000==
41960,2024,03,27,00,00,AAXX 27004 41960 01940 00000 10247 20247 30137 40139 70500 333 58030 70000==
41960,2024,03,27,03,00,AAXX 27034 41960 01456 50000 10282 20240 30155 40157 70520 85400 333 20232 58016 70000 83618==
41960,2024,03,27,06,00,AAXX 27064 41960 02957 01803 10328 20230 30136 40138 333 58012 70000==
41960,2024,03,27,09,00,AAXX 27094 41960 02457 32103 10346 20240 30114 40116 83400 333 58009 70000==
41960,2024,03,27,12,00,AAXX 27124 41960 01450 51602 10300 20250 30102 40104 71721 85901 333 10350 59009 70000 83618 83080 81930==
41960,2024,03,28,09,00,AAXX 28094 41960 02457 31804 10343 20240 30077 40078 83400 333 59037 70000 82618==
41960,2024,03,28,12,00,AAXX 28124 41960 01456 41603 10307 20260 30072 40074 71711 84900 333 10346 59030 70000 82618 81930==
41960,2024,03,28,15,00,AAXX 28154 41960 02450 60000 10250 20210 30108 40110 84410 333 59021 70000 83618 86459==
41960,2024,03,28,18,00,AAXX 28184 41960 02450 60000 10243 20220 30111 40113 84410 333 59019 70000 83618 86459==
41960,2024,03,28,21,00,AAXX 28214 41960 02450 30000 10242 20230 30104 40106 83400 333 59016 70000 82618==
41963,2024,03,22,03,00,AAXX 22034 41963 02440 21802 10265 20200 30114 40117 82500 333 20192 59037 70000 82618==
41963,2024,03,22,06,00,AAXX 22064 41963 02456 51803 10265 20210 30102 40105 82510 333 59048 70000 82618 85458==
41963,2024,03,22,09,00,AAXX 22094 41963 01450 71802 10212 20190 30072 40075 72162 82510 333 59048 70010 82618 87458==
41963,2024,03,22,12,00,AAXX 22124 41963 11440 21801 10240 20220 30073 40076 60016 70162 82500 333 10270 59039 70010 82618==
41963,2024,03,22,15,00,AAXX 22154 41963 01915 01801 10220 20220 30090 40093 71000 333 59045 70010==
41963,2024,03,22,18,00,AAXX 22184 41963 NIL=
41963,2024,03,22,21,00,AAXX 22214 41963 01915 00000 10218 20218 30088 40091 71000 333 59049 70010==
41963,2024,03,23,00,00,AAXX 23004 41963 01906 00000 10205 20205 30083 40086 74440 333 59019 70010==
41963,2024,03,23,03,00,AAXX 23034 41963 01440 31801 10270 20220 30113 40115 70541 82500 333 20186 59001 70010 82618==
41963,2024,03,23,06,00,AAXX 23064 41963 01456 21803 10280 20220 30101 40104 70141 82500 333 59001 70010 82618==
41963,2024,03,23,09,00,AAXX 23094 41963 32456 21802 10290 20220 30079 40082 82500 333 56900 58007 70000 82618=
41963,2024,03,23,12,00,AAXX 23124 41963 02940 01802 10260 20230 30082 40085 333 10294 58009 70000==
41963,2024,03,23,15,00,AAXX 23154 41963 01930 01801 10250 20230 30106 40109 70500 333 58012 70000==
41963,2024,03,23,21,00,AAXX 23214 41963 01930 00000 10242 20240 30105 40107 70500 333 58017 70000==
41963,2024,03,24,00,00,AAXX 24004 41963 01920 01801 10250 20250 30100 40102 70500 333 58007 70000==
41963,2024,03,24,03,00,AAXX 24034 41963 02450 41802 10270 20220 30125 40128 82510 333 20220 58012 70000 82618 84458==
41963,2024,03,24,06,00,AAXX 24064 41963 02450 61802 10290 20240 30130 40133 82510 333 58029 70000 82618 86458==
41963,2024,03,24,09,00,AAXX 24094 41963 02450 21803 10310 20210 30097 40100 82500 333 58018 70000 82618==
41963,2024,03,24,12,00,AAXX 24124 41963 02440 21801 10280 20250 30104 40106 82500 333 10312 58022 70000 82618==
41963,2024,03,24,15,00,AAXX 24154 41963 01920 01801 10255 20250 30122 40125 70500 333 58020 70000==
41963,2024,03,24,21,00,AAXX 24214 41963 01920 00000 10247 20247 30127 40130 70500 333 58022 70000==
41963,2024,03,25,00,00,AAXX 25004 41963 01920 00000 10220 20220 30106 40109 71000 333 58006 70000==
41963,2024,03,25,03,00,AAXX 25034 41963 02940 21801 10285 20230 30136 40139 82500 333 20200 58011 70000 82618==
41963,2024,03,25,06,00,AAXX 25064 41963 02456 61802 10292 20240 30126 40128 82510 333 59004 70000 82618 86458==
41963,2024,03,25,09,00,AAXX 25094 41963 02956 01802 10302 20240 30100 40103 333 58003 70000==
41963,2024,03,25,12,00,AAXX 25124 41963 02940 01801 10275 20240 30095 40097 333 10310 59009 70000==
41963,2024,03,25,15,00,AAXX 25154 41963 01930 01801 10250 20250 30117 40120 70500 333 59005 70000==
41963,2024,03,25,21,00,AAXX 25214 41963 01930 00000 10246 20246 30121 40124 70500 333 59006 70000==
41963,2024,03,26,00,00,AAXX 26004 41963 01920 00000 10240 20240 30104 40106 71000 333 59002 70000==
41963,2024,03,26,03,00,AAXX 26034 41963 02450 51801 10290 20240 30138 40141 82510 333 20220 58002 70000 82618 85458==
41963,2024,03,26,06,00,AAXX 26064 41963 02456 21802 10300 20240 30133 40136 82500 333 58009 70000 82618==
41963,2024,03,26,09,00,AAXX 26094 41963 02456 21802 10310 20190 30105 40108 82500 333 58005 70000 82618==
41963,2024,03,26,12,00,AAXX 26124 41963 02940 00000 10280 20230 30115 40117 333 10316 58020 70000==
41963,2024,03,26,15,00,AAXX 26154 41963 01930 01801 10250 20230 30128 40131 70500 333 58011 70000==
41963,2024,03,26,18,00,AAXX 26184 41963 NIL=
41963,2024,03,26,21,00,AAXX 26214 41963 01920 00000 10238 20238 30123 40126 71000 333 58002 70000==
41963,2024,03,27,00,00,AAXX 27004 41963 01906 00000 10232 20232 30130 40132 74444 333 58026 70000==
41963,2024,03,27,03,00,AAXX 27034 41963 01450 21801 10290 20240 30148 40151 70340 82500 333 20200 58010 70000 82618==
41963,2024,03,27,06,00,AAXX 27064 41963 02456 21803 10300 20250 30136 40139 82500 333 58003 70000 82618==
41963,2024,03,27,09,00,AAXX 27094 41963 02456 51801 10300 20250 30109 40112 82510 333 58004 70000 82618 85458==
41963,2024,03,27,12,00,AAXX 27124 41963 02440 20000 10280 20250 30099 40102 82500 333 10310 58016 70000 82618==
41963,2024,03,28,09,00,AAXX 28094 41963 02456 61803 10300 20250 30085 40088 82510 333 59024 70000 82618 86458==
41963,2024,03,28,12,00,AAXX 28124 41963 02456 61802 10280 20250 30083 40085 82510 333 10310 59016 70000 82618 86458==
41963,2024,03,28,15,00,AAXX 28154 41963 01920 00000 10250 20230 30097 40101 70500 333 59030 70000==
41963,2024,03,28,18,00,AAXX 28184 41963 NIL=
41963,2024,03,28,21,00,AAXX 28214 41963 01920 00000 10245 20245 30097 40100 70500 333 59032 70000==
41964,2024,03,22,00,00,AAXX 22004 41964 21456 81202 10206 20190 30102 40104 70362 8352/ 333 59034 69915 70020 83617 88458==
41964,2024,03,22,03,00,AAXX 22034 41964 02456 61403 10260 20200 30116 40119 84510 333 20181 59031 70002 84618 84460==
41964,2024,03,22,06,00,AAXX 22064 41964 02456 61303 10270 20200 30108 40110 84510 333 59044 70002 84618 84460==
41964,2024,03,22,09,00,AAXX 22094 41964 02456 31403 10280 20210 30089 40091 83500 333 59036 70002 83618==
41964,2024,03,22,12,00,AAXX 22124 41964 02556 21502 10253 20220 30077 40080 81130 333 10286 59034 70002 81825==
41964,2024,03,22,15,00,AAXX 22154 41964 01950 00000 10222 20210 30088 40090 70500 333 59047 70002==
41964,2024,03,22,18,00,AAXX 22184 41964 01950 00000 10217 20210 30090 40092 70500 333 59028 70001==
41964,2024,03,22,21,00,AAXX 22214 41964 01/40 20000 10212 20200 30088 40090 70511 82010 333 59024 70001 82460==
41964,2024,03,23,00,00,AAXX 23004 41964 01435 40000 10208 20208 30084 40087 70511 82530 333 59018 70000 82618 83362==
41964,2024,03,23,03,00,AAXX 23034 41964 02456 51403 10273 20220 30111 40113 83510 333 20201 59005 70000 83618 83460==
41964,2024,03,23,06,00,AAXX 23064 41964 02456 51504 10298 20240 30103 40105 83510 333 59005 70000 83618 83460==
41964,2024,03,23,09,00,AAXX 23094 41964 02557 11604 10296 20220 30079 40082 81100 333 59010 70000 81825==
41964,2024,03,23,12,00,AAXX 23124 41964 02457 11603 10263 20230 30075 40078 81500 333 10301 59002 70000 81618==
41964,2024,03,23,15,00,AAXX 23154 41964 02956 01402 10251 20240 30095 40097 333 58007 70000==
41964,2024,03,23,18,00,AAXX 23184 41964 02456 21803 10253 20240 30097 40099 82500 333 58007 70000 82618==
41964,2024,03,23,21,00,AAXX 23214 41964 02456 51602 10222 20200 30104 40106 82510 333 58016 70000 82617 84459==
41964,2024,03,24,00,00,AAXX 24004 41964 01356 70903 10219 20200 30108 40111 71722 86310 333 58024 70000 82709 84616 87459 81928==
41964,2024,03,24,03,00,AAXX 24034 41964 01957 01402 10273 20210 30129 40131 70096 333 20191 58018 70076==
41964,2024,03,24,06,00,AAXX 24064 41964 11457 41303 10300 20230 30127 40129 60086 70396 83510 333 58024 70076 83618 83460==
41964,2024,03,24,09,00,AAXX 24094 41964 02457 41405 10299 20250 30102 40105 84400 333 58023 70076 83618==
41964,2024,03,24,12,00,AAXX 24124 41964 02457 51804 10270 20250 30105 40107 84401 333 10303 58030 70076 83618==
41964,2024,03,24,15,00,AAXX 24154 41964 01357 81605 10262 20250 30141 40143 71322 8632/ 333 58046 70076 82709 85616 88458 81930==
41964,2024,03,24,18,00,AAXX 24184 41964 21456 31802 10220 20210 30121 40123 70162 83500 333 58024 69975 70083 83616==
41964,2024,03,24,21,00,AAXX 24214 41964 02456 30000 10218 20218 30119 40121 83500 333 58015 70083 83618==
41964,2024,03,25,00,00,AAXX 25004 41964 01450 50000 10223 20223 30116 40118 70522 82510 333 58008 70083 82618 84460==
41964,2024,03,25,03,00,AAXX 25034 41964 02456 61502 10286 20250 30131 40133 83510 333 20209 58002 70007 83618 85460==
41964,2024,03,25,06,00,AAXX 25064 41964 02457 51803 10300 20240 30122 40124 83510 333 58005 70007 83618 84460==
41964,2024,03,25,09,00,AAXX 25094 41964 02457 42103 10302 20240 30101 40104 81501 333 59001 70007 81618 83080==
41964,2024,03,25,12,00,AAXX 25124 41964 02957 11802 10281 20240 30093 40096 80001 333 10313 59012 70007 81080==
41964,2024,03,25,15,00,AAXX 25154 41964 02956 30000 10251 20240 30108 40111 80002 333 59033 70007 83078==
41964,2024,03,25,18,00,AAXX 25184 41964 02956 52102 10258 20250 30112 40115 80002 333 59009 70000 85078==
41964,2024,03,25,21,00,AAXX 25214 41964 01450 50000 10251 20251 30114 40116 70522 83530 333 59005 70000 83618 83362==
41964,2024,03,26,00,00,AAXX 26004 41964 01450 60000 10248 20248 30113 40115 70522 84510 333 59003 70000 84617 85460==
41964,2024,03,26,03,00,AAXX 26034 41964 02456 30502 10287 20240 30138 40140 83500 333 20241 58007 70000 83618==
41964,2024,03,26,06,00,AAXX 26064 41964 02456 31701 10325 20210 30122 40125 83500 333 58000 70000 83618==
41964,2024,03,26,09,00,AAXX 26094 41964 02557 62103 10218 20200 30103 40106 82460 333 58002 70000 81620 85360==
41964,2024,03,26,12,00,AAXX 26124 41964 02557 52102 10290 20220 30104 40107 81150 333 10331 58011 70000 81825 85360==
41964,2024,03,26,15,00,AAXX 26154 41964 02/57 40000 10250 20240 30129 40132 84060 333 58021 70000 84360==
41964,2024,03,26,18,00,AAXX 26184 41964 32956 42301 10244 20230 30131 40134 84030 333 56090 58019 70000 84360=
41964,2024,03,26,21,00,AAXX 26214 41964 01/45 20000 10233 20233 30130 40133 70511 82030 333 58016 70000 82362==
41964,2024,03,27,00,00,AAXX 27004 41964 01930 11401 10231 20231 30131 40133 70511 80001 333 58018 70000 81080==
41964,2024,03,27,03,00,AAXX 27034 41964 02456 52302 10287 20230 30153 40156 85500 333 20223 58015 70000 85617==
41964,2024,03,27,06,00,AAXX 27064 41964 02456 42001 10320 20250 30134 40137 83510 333 58012 70000 83618 83460==
41964,2024,03,27,09,00,AAXX 27094 41964 02957 02101 10320 20220 30122 40124 333 58019 70000==
41964,2024,03,27,12,00,AAXX 27124 41964 02957 51602 10284 20240 30101 40103 80002 333 10326 59003 70000 85078==
41964,2024,03,28,09,00,AAXX 28094 41964 02456 51802 10295 20250 30096 40098 83510 333 70000 83618 84460==
41964,2024,03,28,12,00,AAXX 28124 41964 01325 80704 10222 20222 30085 40088 79792 8692/ 333 10312 59016 70300 84707 85615 88457 81928==
41964,2024,03,28,15,00,AAXX 28154 41964 01/56 20000 10232 20232 30104 40106 70196 82010 333 59026 70307 82460==
41964,2024,03,28,18,00,AAXX 28184 41964 11945 00000 10231 20231 30103 40105 69976 70596 333 59024 70307==
41964,2024,03,28,21,00,AAXX 28214 41964 01440 50000 10233 20233 30096 40098 70521 83510 333 59023 70307 83617 83460==
41965,2024,03,22,00,00,AAXX 22004 41965 02430 80801 10190 20140 30117 40125 8461/ 333 59041 70000 81710 83618 88460==
41965,2024,03,22,03,00,AAXX 22034 41965 02440 50901 10241 20140 30120 40129 84610 333 20160 59033 70000 83618 86460==
41965,2024,03,22,06,00,AAXX 22064 41965 02456 50000 10280 20140 30102 40111 84610 333 59055 70000 83618 84460==
41965,2024,03,22,12,00,AAXX 22124 41965 02430 32301 10252 20180 30075 40084 83600 333 10300 59038 70000 83618==
41965,2024,03,22,15,00,AAXX 22154 41965 01930 00000 10200 20160 30093 40102 70500 333 59043 70000==
41965,2024,03,22,18,00,AAXX 22184 41965 NIL=
41965,2024,03,23,00,00,AAXX 23004 41965 NIL=
41965,2024,03,23,03,00,AAXX 23034 41965 02450 31902 10275 20170 30113 40122 83600 333 20194 59007 70000 83618==
41965,2024,03,23,06,00,AAXX 23064 41965 02456 31402 10290 20120 30104 40113 83600 333 58002 70000 83618==
41965,2024,03,23,09,00,AAXX 23094 41965 32456 33501 10291 20190 30077 40086 83600 333 56400 58001 70000 83618=
41965,2024,03,23,12,00,AAXX 23124 41965 02430 31801 10260 20170 30074 40043 83600 333 10305 59001 70000 83618==
41965,2024,03,23,18,00,AAXX 23184 41965 02430 30000 10230 20180 30103 40111 83600 333 58006 70000 83618==
41965,2024,03,23,21,00,AAXX 23214 41965 02430 30000 10220 20180 30095 40104 83600 333 58003 70000 83618==
41965,2024,03,24,00,00,AAXX 24004 41965 02430 80000 10200 20190 30111 40120 8462/ 333 58014 70000 81710 83618 88460==
41965,2024,03,24,03,00,AAXX 24034 41965 01440 30902 10260 20170 30136 40145 70196 83600 333 20190 58023 70100 83618==
41965,2024,03,24,06,00,AAXX 24064 41965 11456 31404 10290 20200 30125 40134 60105 70296 83600 333 56900 58021 70100 83618=
41965,2024,03,24,09,00,AAXX 24094 41965 02456 31802 10295 20200 30106 40115 83600 333 58029 70100 83618==
41965,2024,03,24,12,00,AAXX 24124 41965 02430 31902 10268 20190 30130 40112 83600 333 10312 58029 70100 83618==
41965,2024,03,24,15,00,AAXX 24154 41965 02430 81402 10250 20220 30132 40141 8461/ 333 58031 70100 83618 88460==
41965,2024,03,24,18,00,AAXX 24184 41965 02430 80000 10235 20210 30135 40144 8461/ 333 58032 70100 83618 88460==
41965,2024,03,25,00,00,AAXX 25004 41965 01430 60000 10230 20200 30126 40135 70541 84610 333 58015 70100 83618 86460==
41965,2024,03,25,03,00,AAXX 25034 41965 02440 31801 10288 20190 30134 40143 83600 333 20195 59002 70000 83618==
41965,2024,03,25,06,00,AAXX 25064 41965 02450 31901 10295 20210 30120 40129 84610 333 59005 70000 83618 86460==
41965,2024,03,25,09,00,AAXX 25094 41965 02456 31301 10310 20210 30096 40105 83600 333 59010 70000 83618==
41965,2024,03,25,12,00,AAXX 25124 41965 02430 32201 10280 20200 30093 40102 83600 333 10317 59010 70000 83618==
41965,2024,03,25,15,00,AAXX 25154 41965 02430 30000 10240 20200 30114 40123 83600 333 59018 70000 83618==
41965,2024,03,26,00,00,AAXX 26004 41965 01430 51801 10240 20220 30121 40130 70541 84610 333 59005 70000 83618 86460==
41965,2024,03,26,03,00,AAXX 26034 41965 01440 31701 10285 20200 30135 40144 70541 84600 333 20226 58001 70000 83618==
41965,2024,03,26,06,00,AAXX 26064 41965 NIL=
41965,2024,03,26,09,00,AAXX 26094 41965 02456 52801 10330 20320 30099 40108 84610 333 58003 70000 83618 86460==
41965,2024,03,26,12,00,AAXX 26124 41965 02430 50000 10290 20180 30105 40114 84610 333 10350 58012 70000 83618 86460==
41965,2024,03,26,18,00,AAXX 26184 41965 02430 50000 10220 20180 30135 40144 84610 333 58019 70000 83618 88460==
41965,2024,03,26,21,00,AAXX 26214 41965 02430 30000 10220 20180 30129 40138 83600 333 58010 70000 83618==
41965,2024,03,27,00,00,AAXX 27004 41965 02430 30000 10227 20200 30144 40153 83600 333 58023 70000 83618==
41965,2024,03,27,03,00,AAXX 27034 41965 02450 32801 10300 20180 30157 40166 83600 333 20208 58022 70000 83618==
41965,2024,03,27,06,00,AAXX 27064 41965 02456 31402 10310 20180 30134 40143 83600 333 58011 70000 83618==
41965,2024,03,27,09,00,AAXX 27094 41965 02456 33501 10329 20140 30109 40118 83600 333 58010 70000 83618==
41965,2024,03,27,12,00,AAXX 27124 41965 02430 30901 10290 20210 30099 40108 83600 333 10335 59006 70000 83618==
41965,2024,03,28,09,00,AAXX 28094 41965 02440 81901 10275 20210 30082 40091 8461/ 333 59027 70000 83618 88460==
41965,2024,03,28,12,00,AAXX 28124 41965 01430 81402 10225 20190 30083 40092 79596 8461/ 333 10310 59016 70050 81710 83618 88460==
41965,2024,03,28,18,00,AAXX 28184 41965 02430 30000 10210 20170 30102 40111 83600 333 59027 70050 83618==
41965,2024,03,28,21,00,AAXX 28214 41965 02430 30000 10210 20170 30092 40101 83600 333 59031 70050 83618==
41966,2024,03,22,00,00,AAXX 22004 41966 02440 72701 10180 20180 30046 40126 83510 333 59026 70046 83616 86460==
41966,2024,03,22,03,00,AAXX 22034 41966 02450 61301 10220 20180 30060 40141 82510 333 20170 59045 70024 82616 85460==
41966,2024,03,22,06,00,AAXX 22064 41966 333 59046 70004 82827 81362==
41966,2024,03,22,09,00,AAXX 22094 41966 02450 71301 10280 20070 30011 40089 83510 333 59048 70000 83616 86460==
41966,2024,03,22,12,00,AAXX 22124 41966 02440 61301 10230 20160 30014 40094 82510 333 10285 59040 70000 82616 85460==
41966,2024,03,22,15,00,AAXX 22154 41966 02435 60901 10229 20180 39920 40101 82510 333 59028 70000 82616 85460==
41966,2024,03,22,18,00,AAXX 22184 41966 NIL=
41966,2024,03,23,00,00,AAXX 23004 41966 02440 40901 10201 20190 30028 40109 82510 333 59017 70000 82616 83460==
41966,2024,03,23,03,00,AAXX 23034 41966 02/50 31201 10260 20180 30044 40124 83030 333 20195 59017 70000 83362==
41966,2024,03,23,06,00,AAXX 23064 41966 02/50 31950 10305 20150 30040 40118 83030 333 59004 70000 83362==
41966,2024,03,23,09,00,AAXX 23094 41966 02/50 31802 10320 20060 30008 40086 83030 333 59003 70000 83362==
41966,2024,03,23,12,00,AAXX 23124 41966 02/40 30501 10270 20100 30004 40083 83030 333 10325 59011 70000 83362==
41966,2024,03,23,15,00,AAXX 23154 41966 02/35 31301 10245 20210 30005 40085 83030 333 59016 70000 83362==
41966,2024,03,23,21,00,AAXX 23214 41966 01435 70502 10190 20190 30040 40122 72162 83510 333 58016 70085 83616 86460==
41966,2024,03,24,00,00,AAXX 24004 41966 21440 70901 10180 20170 30054 40136 70262 83510 333 58027 60098 70085 83616 86460==
41966,2024,03,24,03,00,AAXX 24034 41966 02450 50501 10255 20190 30070 40150 82510 333 20173 58026 70085 82616 84460==
41966,2024,03,24,06,00,AAXX 24064 41966 02450 51302 10315 20140 30054 40132 82510 333 58014 70085 82616 84460==
41966,2024,03,24,09,00,AAXX 24094 41966 02450 50802 10310 20130 30038 40116 82510 333 58030 70085 82616 84460==
41966,2024,03,24,12,00,AAXX 24124 41966 02440 60501 10285 20180 30045 40123 82510 333 10325 58040 70085 82616 85460==
41966,2024,03,24,15,00,AAXX 24154 41966 02435 60801 10265 20220 30052 40131 82510 333 58046 70085 82616 85460==
41966,2024,03,24,21,00,AAXX 24214 41966 02435 41201 10230 20220 30041 40121 82510 333 59001 70000 82616 83460==
41966,2024,03,25,00,00,AAXX 25004 41966 02435 41201 10230 20220 30041 40121 82510 333 59001 70000 82616 83460==
41966,2024,03,25,03,00,AAXX 25034 41966 02450 51301 10280 20210 30073 40152 82510 333 20207 58002 70000 82616 84460==
41966,2024,03,25,06,00,AAXX 25064 41966 02450 51301 10320 20150 30056 40134 82510 333 58002 70000 82616 84460==
41966,2024,03,25,09,00,AAXX 25094 41966 02450 40401 10330 20130 30031 40108 82510 333 59008 70000 82616 83460==
41966,2024,03,25,12,00,AAXX 25124 41966 02440 41302 10300 20190 30025 40104 82510 333 10335 59019 70000 82616 83460==
41966,2024,03,25,15,00,AAXX 25154 41966 02435 41401 10270 20230 30038 40117 82510 333 59014 70000 83616 83460==
41966,2024,03,26,00,00,AAXX 26004 41966 02440 40802 10230 20220 30050 40131 82510 333 58000 70000 82616 83460==
41966,2024,03,26,03,00,AAXX 26034 41966 02950 01501 10290 20190 30077 40155 333 20220 58003 70000==
41966,2024,03,26,06,00,AAXX 26064 41966 02450 41301 10335 20070 30057 40134 82510 333 58000 70000 82616 83460==
41966,2024,03,26,09,00,AAXX 26094 41966 02550 21301 10352 20040 30031 40108 82130 333 58000 70000 82827 81362==
41966,2024,03,26,12,00,AAXX 26124 41966 02440 41401 10305 20160 30033 40112 82510 333 10360 58008 70000 82616 83460==
41966,2024,03,26,15,00,AAXX 26154 41966 02435 61301 10278 20230 30043 40122 82510 333 58005 70000 82616 85460==
41966,2024,03,26,18,00,AAXX 26184 41966 NIL=
41966,2024,03,26,21,00,AAXX 26214 41966 02435 50801 10240 20230 30044 40124 82510 333 58009 70000 82616 84460==
41966,2024,03,27,00,00,AAXX 27004 41966 02440 51201 10230 20220 30061 40141 82510 333 58010 70000 82616 84460==
41966,2024,03,27,03,00,AAXX 27034 41966 02550 21301 10290 20210 30094 40173 82100 333 20218 58018 70000 82827==
41966,2024,03,27,06,00,AAXX 27064 41966 02550 20401 10325 20110 30074 40152 82100 333 58018 70000 82827==
41966,2024,03,27,09,00,AAXX 27094 41966 02950 03101 10358 20130 30041 40117 333 58009 70000==
41966,2024,03,27,12,00,AAXX 27124 41966 02450 52702 10300 20190 30032 40110 82510 333 10365 59022 70000 82616 84460==
41966,2024,03,28,09,00,AAXX 28094 41966 01450 80000 10250 20230 30022 40102 72196 8352/ 333 59015 70004 83616 88460==
41966,2024,03,28,12,00,AAXX 28124 41966 21435 81801 10235 20220 30023 40103 70296 8352/ 333 10295 59007 69948 70004 83616 88460==
41966,2024,03,28,15,00,AAXX 28154 41966 32435 71801 10225 20220 30039 40119 83510 333 56990 59001 70004 83616 86460=
41966,2024,03,28,18,00,AAXX 28184 41966 NIL=
41966,2024,03,28,21,00,AAXX 28214 41966 02435 71301 10225 20220 30040 40120 83510 333 59004 70004 83616 86460==
41977,2024,03,22,00,00,AAXX 22004 41977 01450 70000 10195 20170 30083 40123 70522 84570 333 59045 70036 84616 85460==
41977,2024,03,22,03,00,AAXX 22034 41977 01450 50000 10238 20160 30117 40156 70522 84570 333 20190 59026 70016 84618 84460==
41977,2024,03,22,06,00,AAXX 22064 41977 01450 72702 10273 20160 30092 40130 70522 84570 333 59055 70006 84617 86459==
41977,2024,03,22,09,00,AAXX 22094 41977 01450 42302 10280 20170 30069 40107 70522 82530 333 59030 70000 82618 83462==
41977,2024,03,22,12,00,AAXX 22124 41977 01450 42302 10260 20210 30067 40105 70522 83530 333 10285 59033 70000 83618 84362==
41977,2024,03,22,15,00,AAXX 22154 41977 01450 20000 10226 20210 30077 40116 70521 82500 333 59040 70000 82618==
41977,2024,03,22,18,00,AAXX 22184 41977 NIL=
41977,2024,03,22,21,00,AAXX 22214 41977 01450 80000 10222 20210 30066 40105 70522 8452/ 333 59036 70000 84618 88460==
41977,2024,03,23,00,00,AAXX 23004 41977 01445 80000 10221 20210 30072 40111 70522 8432/ 333 59011 70000 83618 88460 81930==
41977,2024,03,23,03,00,AAXX 23034 41977 01450 40000 10265 20220 30099 40137 70521 82530 333 20219 59018 70000 82618 84362==
41977,2024,03,23,06,00,AAXX 23064 41977 01/50 32304 10298 20170 30100 40138 70521 83030 333 58008 70000 83362==
41977,2024,03,23,09,00,AAXX 23094 41977 01/50 32805 10300 20180 30067 40105 70511 83030 333 59002 70000 83362==
41977,2024,03,23,12,00,AAXX 23124 41977 01450 21804 10270 20210 30064 40102 70511 82500 333 10305 59003 70000 82618==
41977,2024,03,23,15,00,AAXX 23154 41977 01450 12302 10258 20240 30091 40130 70510 81500 333 59014 70000 81618==
41977,2024,03,23,18,00,AAXX 23184 41977 01450 10000 10255 20240 30092 40131 70510 81500 333 59017 70000 81618==
41977,2024,03,23,21,00,AAXX 23214 41977 01450 30000 10230 20230 30092 40131 70511 82530 333 59026 70000 82618 83362==
41977,2024,03,24,00,00,AAXX 24004 41977 01340 70000 10210 20170 30091 40130 70521 84670 333 59019 70000 81710 83616 85460==
41977,2024,03,24,03,00,AAXX 24034 41977 01450 40000 10240 20200 30123 40161 70196 84570 333 20196 58024 70060 84616 84460==
41977,2024,03,24,06,00,AAXX 24064 41977 31450 41803 10302 20220 30123 40161 60066 70296 84570 333 56990 58023 70060 84618 84462=
41977,2024,03,24,09,00,AAXX 24094 41977 02450 41803 10304 20220 30085 40123 84570 333 58018 70060 84616 84462==
41977,2024,03,24,12,00,AAXX 24124 41977 01450 21404 10278 20230 30096 40134 70522 82500 333 10310 58032 70060 82618==
41977,2024,03,24,15,00,AAXX 24154 41977 01440 50000 10264 20220 30119 40157 70510 83530 333 58028 70060 83618 85362==
41977,2024,03,24,18,00,AAXX 24184 41977 01/40 20000 10250 20220 30106 40144 70521 82030 333 58014 70060 82362==
41977,2024,03,24,21,00,AAXX 24214 41977 01440 20000 10244 20210 30094 40132 70511 82500 333 58002 70060 82618==
41977,2024,03,25,00,00,AAXX 25004 41977 01440 70000 10234 20210 30105 40143 70521 84570 333 58014 70060 84616 85460==
41977,2024,03,25,03,00,AAXX 25034 41977 01450 40000 10285 20230 30119 40157 70522 84570 333 20226 59004 70000 84618 84460==
41977,2024,03,25,06,00,AAXX 25064 41977 01450 72802 10312 20220 30112 40151 70522 84570 333 59011 70000 84618 86460==
41977,2024,03,25,09,00,AAXX 25094 41977 01450 22103 10300 20230 30079 40117 70521 82500 333 59006 70000 82618==
41977,2024,03,25,12,00,AAXX 25124 41977 01450 21602 10283 20230 30077 40115 70521 82500 333 10316 59019 70000 82618==
41977,2024,03,25,15,00,AAXX 25154 41977 01450 21602 10263 20220 30096 40134 70521 82500 333 59023 70000 82618==
41977,2024,03,25,18,00,AAXX 25184 41977 01450 62303 10260 20240 30103 40141 70521 84510 333 59003 70000 84616 86459==
41977,2024,03,25,21,00,AAXX 25214 41977 01450 60000 10255 20240 30096 40135 70521 84510 333 58002 70000 84616 86459==
41977,2024,03,26,00,00,AAXX 26004 41977 01440 70000 10255 20240 30092 40130 70521 84570 333 59003 70000 84616 85460==
41977,2024,03,26,03,00,AAXX 26034 41977 01450 20000 10302 20220 30135 40173 70520 82500 333 20245 58016 70000 82618==
41977,2024,03,26,06,00,AAXX 26064 41977 01450 60000 10340 20180 30106 40144 70521 84570 333 59006 70000 84618 84462==
41977,2024,03,26,09,00,AAXX 26094 41977 01450 62302 10322 20210 30088 40126 70522 82531 333 58009 70000 82618 83362==
41977,2024,03,26,12,00,AAXX 26124 41977 01450 70000 10292 20220 30095 40133 70522 84570 333 10342 58018 70000 84618 85460==
41977,2024,03,26,15,00,AAXX 26154 41977 01450 30000 10270 20250 30110 40148 70521 83500 333 58014 70000 83618==
41977,2024,03,26,18,00,AAXX 26184 41977 31450 70000 10261 20250 30118 40156 70521 84530 333 56990 58015 70000 84618 85362=
41977,2024,03,26,21,00,AAXX 26214 41977 01440 70000 10254 20250 30106 40144 70522 83510 333 58010 70000 83618 86460==
41977,2024,03,27,00,00,AAXX 27004 41977 01340 70000 10249 20240 30119 40157 70522 84610 333 58027 70000 82710 84615 86460==
41977,2024,03,27,03,00,AAXX 27034 41977 01445 40000 10280 20230 30137 40196 70522 84570 333 20243 58002 70000 84616 86460==
41977,2024,03,27,06,00,AAXX 27064 41977 01450 62603 10313 20220 30126 40164 70522 84570 333 58020 70000 84618 86462==
41977,2024,03,27,09,00,AAXX 27094 41977 01450 22705 10316 20190 30100 40137 70511 82500 333 58012 70000 82618==
41977,2024,03,27,12,00,AAXX 27124 41977 01450 62804 10288 20220 30087 40125 70521 82530 333 10335 59008 70000 82618 86362==
41977,2024,03,28,09,00,AAXX 28094 41977 01450 42702 10305 20230 30069 40106 70521 84570 333 59031 70000 84618 84462==
41977,2024,03,28,12,00,AAXX 28124 41977 01340 83102 10263 20210 30079 40118 79522 8732/ 333 10305 59008 70000 82710 84615 88459 81930==
41977,2024,03,28,15,00,AAXX 28154 41977 01440 52803 10244 20230 30094 40132 70596 83530 333 59026 70040 83618 85362==
41977,2024,03,28,18,00,AAXX 28184 41977 11/40 30000 10240 20230 30090 40128 60046 70596 83030 333 59028 70040 83362==
41977,2024,03,28,21,00,AAXX 28214 41977 01440 50000 10243 20220 30070 40108 70521 83530 333 59040 70040 83618 85362==
41978,2024,03,22,00,00,AAXX 22004 41978 01445 40305 10196 20180 30110 40116 70522 84520 333 59026 70030 84617 87460==
41978,2024,03,22,03,00,AAXX 22034 41978 02458 31205 10246 20190 30125 40131 83530 333 20184 59042 70010 83618==
41978,2024,03,22,06,00,AAXX 22064 41978 02459 32107 10290 20200 30111 40117 82830 333 59031 70000 82620==
41978,2024,03,22,09,00,AAXX 22094 41978 02457 32208 10286 20210 30084 40090 83500 333 59036 70000 83618==
41978,2024,03,22,12,00,AAXX 22124 41978 02456 22105 10263 20220 30079 40086 82500 333 10292 59036 70000 82618==
41978,2024,03,22,15,00,AAXX 22154 41978 02450 22006 10240 20220 30096 40103 82500 333 59038 70000 82618==
41978,2024,03,22,18,00,AAXX 22184 41978 01950 21303 10232 20220 30096 40103 70522 82500 333 59026 70000 82618==
41978,2024,03,22,21,00,AAXX 22214 41978 NIL=
41978,2024,03,23,00,00,AAXX 23004 41978 01940 21003 10214 20210 30089 40096 70522 82500 333 59021 70000 82618==
41978,2024,03,23,03,00,AAXX 23034 41978 01450 21305 10270 20220 30115 40121 70500 82830 333 20211 59010 70000 81620==
41978,2024,03,23,06,00,AAXX 23064 41978 02558 12008 10292 20220 30106 40113 81200 333 59005 70000 81825==
41978,2024,03,23,09,00,AAXX 23094 41978 01957 01608 10290 20230 30084 40090 70511 333 58000 70000==
41978,2024,03,23,12,00,AAXX 23124 41978 01957 02106 10272 20230 30084 40090 70510 333 10296 58005 70000==
41978,2024,03,23,15,00,AAXX 23154 41978 01956 01805 10260 20240 30101 40108 70500 333 58005 70000==
41978,2024,03,23,18,00,AAXX 23184 41978 01950 01905 10249 20230 30107 40114 70500 333 58011 70000==
41978,2024,03,23,21,00,AAXX 23214 41978 01950 00506 10234 20210 30104 40110 70500 333 58024 70000==
41978,2024,03,24,00,00,AAXX 24004 41978 01450 20804 10204 20180 30114 40121 70510 82500 333 58025 70000 82618==
41978,2024,03,24,03,00,AAXX 24034 41978 21956 21406 10227 20210 30134 40140 70596 82030 333 20196 56090 58019 6003/ 70030 82363=
41978,2024,03,24,06,00,AAXX 24064 41978 11457 32208 10304 20220 30131 40138 60036 70596 83800 333 58025 70030 82620==
41978,2024,03,24,09,00,AAXX 24094 41978 01505 22107 10302 20250 30112 40118 70511 82100 333 58028 70030 82826==
41978,2024,03,24,12,00,AAXX 24124 41978 01440 51905 10278 20240 30114 40120 70511 82520 333 10313 58030 70030 82618 84460==
41978,2024,03,24,15,00,AAXX 24154 41978 01950 31405 10262 20230 30135 40141 70521 80001 333 58034 70030 83080==
41978,2024,03,24,18,00,AAXX 24184 41978 01940 32003 10250 20230 30121 40127 70521 80001 333 58014 70030 83080==
41978,2024,03,24,21,00,AAXX 24214 41978 01937 40000 10232 20210 30114 40120 70511 80001 333 58011 70030 83080==
41978,2024,03,25,00,00,AAXX 25004 41978 01431 60000 10218 20210 30122 40128 70521 83520 333 58008 70030 83617 85460==
41978,2024,03,25,03,00,AAXX 25034 41978 01456 32305 10290 20220 30138 40144 70511 81502 333 20211 58004 70000 81620 83080==
41978,2024,03,25,06,00,AAXX 25064 41978 01556 52407 10308 20240 30123 40129 70511 81107 333 59008 70000 81825 85270==
41978,2024,03,25,09,00,AAXX 25094 41978 01556 52408 10297 20220 30102 40109 70511 81107 333 59010 70000 81825 85270==
41978,2024,03,25,12,00,AAXX 25124 41978 01556 52105 10270 20240 30094 40101 70511 81107 333 10310 59013 70000 81825 85270==
41978,2024,03,25,15,00,AAXX 25154 41978 01450 42203 10260 20250 30114 40120 70511 82520 333 59021 70000 82618 83460==
41978,2024,03,25,18,00,AAXX 25184 41978 01450 42104 10263 20250 30117 40123 70522 82520 333 59004 70000 82618 83460==
41978,2024,03,25,21,00,AAXX 25214 41978 01445 51804 10254 20240 30104 40110 70522 82520 333 59010 70000 82618 84460==
41978,2024,03,26,00,00,AAXX 26004 41978 01435 50805 10245 20240 30114 40121 70522 82520 333 59008 70000 82618 84460==
41978,2024,03,26,03,00,AAXX 26034 41978 01/50 30406 10278 20230 30140 40147 70522 83030 333 20240 58002 70000 83362==
41978,2024,03,26,06,00,AAXX 26064 41978 01/56 30905 10323 20200 30126 40133 70522 83030 333 58003 70000 83362==
41978,2024,03,26,09,00,AAXX 26094 41978 01950 42608 10318 20240 30103 40109 70511 80006 333 58001 70000 84270==
41978,2024,03,26,12,00,AAXX 26124 41978 01450 52507 10290 20240 30108 40115 70511 83836 333 10347 58014 70000 83620 83363==
41978,2024,03,26,15,00,AAXX 26154 41978 01450 22803 10272 20250 30129 40135 70511 82500 333 58015 70000 82618==
41978,2024,03,26,18,00,AAXX 26184 41978 01440 41603 10262 20250 30137 40143 70511 82530 333 58020 70000 82618 83360==
41978,2024,03,26,21,00,AAXX 26214 41978 01435 41103 10253 20240 30133 40139 70522 82530 333 58029 70000 82618 83360==
41978,2024,03,27,00,00,AAXX 27004 41978 01411 40903 10244 20230 30139 40146 71022 82530 333 58025 70000 82618 83360==
41978,2024,03,27,03,00,AAXX 27034 41978 01431 41004 10278 20240 30160 40167 70544 82530 333 58020 70000 82618 83360==
41978,2024,03,27,06,00,AAXX 27064 41978 01440 42608 10298 20230 30142 40149 70541 82533 333 58016 70000 82618 83360==
41978,2024,03,27,09,00,AAXX 27094 41978 01950 02308 10317 20210 30115 40121 70522 333 58012 70000==
41978,2024,03,27,12,00,AAXX 27124 41978 01/50 62505 10287 20250 30100 40106 70520 83021 333 10320 59008 70000 83460 85080==
41978,2024,03,27,18,00,AAXX 27184 41978 NIL=
41978,2024,03,28,03,00,AAXX 28034 41978 01438 41605 10288 20240 30130 40137 70522 82530 333 20233 59030 70000 82618 83360==
41978,2024,03,28,06,00,AAXX 28064 41978 01445 72405 10293 20240 30112 40119 70522 83520 333 59030 70000 83617 86460==
41978,2024,03,28,09,00,AAXX 28094 41978 01456 52208 10294 20240 30088 40094 70511 83830 333 59027 70000 83618 83362==
41978,2024,03,28,12,00,AAXX 28124 41978 01456 71904 10278 20250 30089 40095 71711 85970 333 10307 59011 70000 83615 86460 82928==
41978,2024,03,28,15,00,AAXX 28154 41978 41450 61102 10262 20230 30107 40113 70596 84320 333 59022 83618 86460 81930==
41978,2024,03,28,18,00,AAXX 28184 41978 11440 61002 10248 20230 30105 40112 60006 70596 83520 333 59027 83618 85460==
41978,2024,03,28,21,00,AAXX 28214 41978 41440 60903 10248 20240 30086 40092 70522 83520 333 59034 83618 85460==
41980,2024,03,22,00,00,AAXX 22004 41980 32450 40000 10175 20150 30005 40121 82510 333 56990 59031 70080 82617 83458=
41980,2024,03,22,06,00,AAXX 22064 41980 NIL=
41980,2024,03,22,12,00,AAXX 22124 41980 32950 00000 10258 20180 39982 40095 333 10289 59037 70000=
41980,2024,03,22,18,00,AAXX 22184 41980 NIL=
41980,2024,03,23,00,00,AAXX 23004 41980 32450 40000 10206 20200 39987 40102 70522 82510 333 56990 70000 82618 83458=
41980,2024,03,23,06,00,AAXX 23064 41980 NIL=
41980,2024,03,23,12,00,AAXX 23124 41980 32950 00000 10276 20190 39981 40093 333 10314 59001 70000=
41980,2024,03,24,00,00,AAXX 24004 41980 31450 30000 10193 20170 30017 40132 70522 83500 333 56900 58028 70000 83616=
41980,2024,03,24,06,00,AAXX 24064 41980 NIL=
41980,2024,03,24,09,00,AAXX 24094 41980 32456 21704 10316 20050 30007 40117 82500 333 56900 58028 70000 82618=
41980,2024,03,24,12,00,AAXX 24124 41980 32950 00000 10274 20200 30011 40123 333 10320 58030 70000=
41980,2024,03,25,00,00,AAXX 25004 41980 NIL=
41980,2024,03,25,06,00,AAXX 25064 41980 NIL=
41980,2024,03,25,12,00,AAXX 25124 41980 32950 00000 10284 20200 39995 40107 333 10342 59016 70000=
41980,2024,03,26,00,00,AAXX 26004 41980 32450 80000 10230 20210 30012 40126 8352/ 333 56999 59001 70000 83616 88458=
41980,2024,03,26,06,00,AAXX 26064 41980 NIL=
41980,2024,03,26,12,00,AAXX 26124 41980 32450 60000 10296 20190 30008 40119 83520 333 10354 56990 58013 70000 83616 86459=
41980,2024,03,26,18,00,AAXX 26184 41980 NIL=
41980,2024,03,27,06,00,AAXX 27064 41980 NIL=
41980,2024,03,27,12,00,AAXX 27124 41980 32950 32103 10280 20230 30003 40115 83030 333 10353 56090 59005 70000 83362=
41980,2024,03,28,12,00,AAXX 28124 41980 31450 80000 10278 20220 39989 40101 70522 8352/ 333 10334 56999 59016 70000 83616 88458=
41980,2024,03,28,18,00,AAXX 28184 41980 NIL=
41984,2024,03,22,00,00,AAXX 22004 41984 01440 80000 10209 20209 30090 40092 70522 8352/ 333 59028 70000 83618 88458==
41984,2024,03,22,03,00,AAXX 22034 41984 02450 80000 10268 20220 30108 40110 8352/ 333 20200 59028 70000 83618 88458==
41984,2024,03,22,06,00,AAXX 22064 41984 02456 50000 10302 20220 30097 40099 83510 333 59040 70000 83618 85458==
41984,2024,03,22,09,00,AAXX 22094 41984 02457 80000 10300 20230 30068 40070 8352/ 333 59033 70000 83618 88458==
41984,2024,03,22,12,00,AAXX 22124 41984 02450 80000 10278 20240 30064 40066 8352/ 333 10309 59032 70000 83618 88458==
41984,2024,03,22,15,00,AAXX 22154 41984 01440 60000 10236 20240 30080 40082 70522 8352/ 333 59037 70000 83618 88458==
41984,2024,03,22,18,00,AAXX 22184 41984 01440 80000 10228 20228 30085 40087 70522 8352/ 333 59033 70000 83618 88458==
41984,2024,03,22,21,00,AAXX 22214 41984 01440 50000 10218 20218 30075 40077 70522 83510 333 59024 70000 83618 85458==
41984,2024,03,23,00,00,AAXX 23004 41984 01440 50000 10210 20210 30073 40075 70522 83510 333 59017 70000 83618 85458==
41984,2024,03,23,03,00,AAXX 23034 41984 02450 50000 10290 20240 30100 40102 83510 333 20207 59008 70000 83618 85458==
41984,2024,03,23,06,00,AAXX 23064 41984 02456 81802 10297 20250 30095 40097 8352/ 333 59002 70000 83618 88458==
41984,2024,03,23,09,00,AAXX 23094 41984 32457 51802 10320 20260 30071 40073 83510 333 56990 58003 70000 83618 85458=
41984,2024,03,23,12,00,AAXX 23124 41984 02456 81802 10280 20260 30066 40068 8352/ 333 10324 58002 70000 83618 88458==
41984,2024,03,23,15,00,AAXX 23154 41984 02440 81802 10268 20260 30089 40091 8352/ 333 58009 70000 83618 88458==
41984,2024,03,23,18,00,AAXX 23184 41984 02440 81802 10260 20250 30085 40087 8352/ 333 58000 70000 83618 88458==
41984,2024,03,23,21,00,AAXX 23214 41984 01440 80000 10258 20258 30086 40088 70522 8352/ 333 58011 70000 83618 88458==
41984,2024,03,24,00,00,AAXX 24004 41984 01440 80000 10250 20250 30086 40088 70522 8352/ 333 58013 70000 83618 88458==
41984,2024,03,24,03,00,AAXX 24034 41984 02450 81802 10301 20250 30114 40116 8352/ 333 20245 58014 70000 83618 88458==
41984,2024,03,24,06,00,AAXX 24064 41984 02457 82302 10320 20260 30113 40115 8352/ 333 58018 70000 83618 88458==
41984,2024,03,24,09,00,AAXX 24094 41984 02457 22305 10318 20260 30093 40096 82500 333 58022 70000 82618==
41984,2024,03,24,12,00,AAXX 24124 41984 02456 21804 10294 20260 30092 40094 82500 333 10326 58026 70000 82618==
41984,2024,03,24,15,00,AAXX 24154 41984 02940 00000 10260 20260 30111 40113 333 58022 70000==
41984,2024,03,24,18,00,AAXX 24184 41984 02940 00000 10250 20250 30119 40121 333 58034 70000==
41984,2024,03,24,21,00,AAXX 24214 41984 01940 00000 10246 20246 30109 40111 70500 333 58023 70000==
41984,2024,03,25,00,00,AAXX 25004 41984 01940 00000 10244 20240 30105 40107 70500 333 58014 70000==
41984,2024,03,25,03,00,AAXX 25034 41984 02450 20000 10301 20250 30124 40126 82500 333 20234 58010 70000 82618==
41984,2024,03,25,06,00,AAXX 25064 41984 02456 60000 10310 20250 30114 40116 83510 333 58001 70000 83618 85458==
41984,2024,03,25,09,00,AAXX 25094 41984 02457 21802 10321 20270 30091 40094 82500 333 59002 70000 82618==
41984,2024,03,25,12,00,AAXX 25124 41984 333 10331 59005 70000 82618==
41984,2024,03,25,15,00,AAXX 25154 41984 02440 50000 10260 20250 30106 40108 83510 333 59005 70000 83618 85458==
41984,2024,03,25,18,00,AAXX 25184 41984 02440 50000 10263 20250 30113 40115 83510 333 59006 70000 83618 85458==
41984,2024,03,25,21,00,AAXX 25214 41984 02440 20000 10244 20230 30096 40098 82500 333 59013 70000 82618==
41984,2024,03,26,00,00,AAXX 26004 41984 02440 20000 10214 20200 30083 40085 82500 333 59017 70000 82618==
41984,2024,03,26,03,00,AAXX 26034 41984 02456 21802 10301 20230 30128 40130 82500 333 20206 58004 70000 82618==
41984,2024,03,26,06,00,AAXX 26064 41984 02957 01802 10331 20230 30122 40124 333 58008 70000==
41984,2024,03,26,09,00,AAXX 26094 41984 02957 01803 10310 20260 30100 40102 333 58009 70000==
41984,2024,03,26,12,00,AAXX 26124 41984 02956 00000 10282 20230 30100 40103 333 10337 58013 70000==
41984,2024,03,26,15,00,AAXX 26154 41984 02940 00000 10256 20256 30121 40123 333 58015 70000==
41984,2024,03,26,18,00,AAXX 26184 41984 32940 00000 10251 20250 30128 40130 333 58015 70000=
41984,2024,03,26,21,00,AAXX 26214 41984 01940 00000 10251 20250 30122 40124 70500 333 58026 70000==
41984,2024,03,27,00,00,AAXX 27004 41984 01940 00000 10251 20250 30114 40116 70500 333 58031 70000==
41984,2024,03,27,03,00,AAXX 27034 41984 02456 20000 10294 20250 30143 40145 82500 333 20242 58015 70000 82618==
41984,2024,03,27,06,00,AAXX 27064 41984 02957 01802 10334 20250 30129 40132 333 58007 70000==
41984,2024,03,27,09,00,AAXX 27094 41984 02957 00000 10331 20270 30108 40110 333 58008 70000==
41984,2024,03,27,12,00,AAXX 27124 41984 02456 20000 10286 20260 30092 40095 82500 333 10339 59008 70000 82618==
41984,2024,03,28,09,00,AAXX 28094 41984 02457 51802 10316 20280 30070 40072 83510 333 59038 70000 83618 85458==
41984,2024,03,28,12,00,AAXX 28124 41984 02456 52202 10296 20280 30069 40071 83510 333 10334 59023 70000 83618 85458==
41984,2024,03,28,15,00,AAXX 28154 41984 32440 20000 10267 20240 30096 40099 82500 333 56900 59019 70000 82618=
41984,2024,03,28,18,00,AAXX 28184 41984 02440 20000 10260 20250 30097 40099 82500 333 59023 70000 82618==
41984,2024,03,28,21,00,AAXX 28214 41984 02940 00000 10259 20259 30089 40091 333 59019 70000==
41989,2024,03,22,00,00,AAXX 22004 41989 01440 51302 10184 20160 30127 40130 70521 83570 333 58011 70080 83618 83362==
41989,2024,03,22,03,00,AAXX 22034 41989 02450 31402 10250 20160 30127 40130 83500 333 20174 59045 70030 82618==
41989,2024,03,22,06,00,AAXX 22064 41989 02450 21803 10283 20170 30127 40130 82500 333 59016 70010 82618==
41989,2024,03,22,09,00,AAXX 22094 41989 02450 51703 10272 20210 30094 40097 82570 333 59030 70000 82618 83362==
41989,2024,03,22,12,00,AAXX 22124 41989 NIL=
41989,2024,03,22,15,00,AAXX 22154 41989 02440 31802 10193 20170 30127 40130 82530 333 58011 70090 82618 83362==
41989,2024,03,22,18,00,AAXX 22184 41989 NIL=
41989,2024,03,22,21,00,AAXX 22214 41989 01430 33203 10210 20190 30104 40108 70521 83500 333 59030 70000 83618==
41989,2024,03,23,00,00,AAXX 23004 41989 01430 53202 10180 20160 30099 40102 70521 83530 333 59028 70000 83618 83362==
41989,2024,03,23,03,00,AAXX 23034 41989 02440 33202 10291 20220 30112 40115 83500 333 20172 59015 70000 83618==
41989,2024,03,23,06,00,AAXX 23064 41989 NIL=
41989,2024,03,23,15,00,AAXX 23154 41989 02440 21302 10252 20230 30101 40105 82500 333 59008 70000 82618==
41989,2024,03,23,21,00,AAXX 23214 41989 01440 10000 10225 20210 30101 40104 70511 81500 333 59003 70000 81618==
41989,2024,03,24,00,00,AAXX 24004 41989 01440 10000 10220 20200 30098 40102 70511 81500 333 59001 70000 81618==
41989,2024,03,24,03,00,AAXX 24034 41989 02450 13202 10260 20210 30123 40126 81500 333 20212 58011 70000 81618==
41989,2024,03,24,06,00,AAXX 24064 41989 02450 33203 10300 20220 30141 40144 83500 333 58028 70000 83618==
41989,2024,03,24,09,00,AAXX 24094 41989 02450 21704 10302 20230 30115 40118 82500 333 58015 70000 82618==
41989,2024,03,24,12,00,AAXX 24124 41989 02450 21702 10283 20230 30104 40107 82500 333 10310 58018 70000 82618==
41989,2024,03,24,15,00,AAXX 24154 41989 02440 33203 10260 20230 30126 40129 83500 333 58025 70000 83618==
41989,2024,03,25,00,00,AAXX 25004 41989 01430 23202 10225 20210 30107 40110 70521 82500 333 58009 70000 82618==
41989,2024,03,25,03,00,AAXX 25034 41989 02440 23202 10286 20240 30131 40134 82500 333 20215 58008 70000 82618==
41989,2024,03,25,06,00,AAXX 25064 41989 02450 33103 10301 20230 30133 40136 82530 333 59008 70000 82618 83362==
41989,2024,03,25,09,00,AAXX 25094 41989 02450 23202 10280 20240 30100 40103 82500 333 10310 59004 70000 82618==
41989,2024,03,25,12,00,AAXX 25124 41989 02450 23202 10280 20240 30100 40103 82500 333 10310 59002 70000 82618==
41989,2024,03,25,15,00,AAXX 25154 41989 01450 10000 10255 20240 30115 40118 70511 81500 333 59011 70000 81618==
41989,2024,03,26,00,00,AAXX 26004 41989 NIL=
41989,2024,03,26,03,00,AAXX 26034 41989 02456 11303 10293 20220 30140 40143 81500 333 58009 70000 81618==
41989,2024,03,26,06,00,AAXX 26064 41989 02456 13202 10325 20250 30136 40140 81500 333 58003 70000 81618==
41989,2024,03,26,09,00,AAXX 26094 41989 02456 21803 20240 30105 40109 82500 333 59002 70000 82618==
41989,2024,03,26,12,00,AAXX 26124 41989 02450 31802 10282 20230 30098 40101 82530 333 10334 59002 70000 82618==
41989,2024,03,26,18,00,AAXX 26184 41989 NIL=
41989,2024,03,26,21,00,AAXX 26214 41989 01440 33202 10245 20230 30120 40124 70521 83500 333 59001 70000 83618==
41989,2024,03,27,00,00,AAXX 27004 41989 01440 53103 10230 20210 30118 40121 70521 83530 333 58001 70000 83618 83362==
41989,2024,03,27,03,00,AAXX 27034 41989 02450 23202 10281 20240 30146 40149 82500 333 20223 58006 70000 82618==
41989,2024,03,27,06,00,AAXX 27064 41989 NIL=
41989,2024,03,27,09,00,AAXX 27094 41989 02450 33202 10305 20240 30120 40123 83500 333 58015 70000 83618==
41989,2024,03,28,09,00,AAXX 28094 41989 02456 31807 10295 20250 30113 40116 82530 333 59007 70000 82618 83362==
41989,2024,03,28,12,00,AAXX 28124 41989 02450 51702 10272 20240 30102 40105 82570 333 10131 59009 70000 82618 84360==
41989,2024,03,28,15,00,AAXX 28154 41989 02450 33202 10260 20240 30122 40125 83500 333 59003 70000 83618==
41989,2024,03,28,18,00,AAXX 28184 41989 NIL=
41992,2024,03,22,00,00,AAXX 22004 41992 01925 00603 10183 20160 30116 40118 70500 333 59028 70130==
41992,2024,03,22,03,00,AAXX 22034 41992 01430 60000 10225 20180 30131 40133 70521 84530 333 20180 59054 70070 84616 86360==
41992,2024,03,22,06,00,AAXX 22064 41992 01930 01504 10274 20190 30119 40121 70521 333 59040 70030==
41992,2024,03,22,09,00,AAXX 22094 41992 01935 00000 10275 20200 30090 40092 70500 333 59019 70010==
41992,2024,03,22,12,00,AAXX 22124 41992 01430 20000 10250 20200 30088 40090 70510 82500 333 10284 59031 70000 82616==
41992,2024,03,22,15,00,AAXX 22154 41992 01925 01502 10240 20210 30106 40108 70500 333 59027 70000==
41992,2024,03,22,18,00,AAXX 22184 41992 01925 00000 10228 20210 30100 40102 70500 333 59035 70000==
41992,2024,03,22,21,00,AAXX 22214 41992 01925 00602 10225 20210 30081 40083 70500 333 59020 70000==
41992,2024,03,23,00,00,AAXX 23004 41992 01925 00603 10220 20200 30095 40097 70500 333 59021 70000==
41992,2024,03,23,03,00,AAXX 23034 41992 01930 00000 10276 20210 30123 40125 70500 333 20213 59008 70000==
41992,2024,03,23,06,00,AAXX 23064 41992 01935 00000 10290 20220 30115 40117 70521 333 59004 70000==
41992,2024,03,23,09,00,AAXX 23094 41992 01935 01504 10295 20230 30096 40098 70500 333 58006 70000==
41992,2024,03,23,12,00,AAXX 23124 41992 01930 00000 10270 20240 30090 40092 70500 333 10299 58002 70000==
41992,2024,03,23,15,00,AAXX 23154 41992 01925 01502 10253 20230 30109 40111 70500 333 58003 70500==
41992,2024,03,23,18,00,AAXX 23184 41992 01935 01504 10295 20230 30096 40098 70500 333 58006 70000==
41992,2024,03,23,21,00,AAXX 23214 41992 01925 00305 10235 20200 30113 40115 70500 333 58032 70000==
41992,2024,03,24,00,00,AAXX 24004 41992 01920 00304 10225 20210 30111 40113 70500 333 58016 70000==
41992,2024,03,24,03,00,AAXX 24034 41992 31925 00000 10285 20220 30149 40151 70500 333 20224 58026 70000=
41992,2024,03,24,06,00,AAXX 24064 41992 01930 01507 10304 20220 30137 40139 70500 333 58018 70000==
41992,2024,03,24,09,00,AAXX 24094 41992 01935 02104 10300 20230 30120 40122 70500 333 58024 70000==
41992,2024,03,24,12,00,AAXX 24124 41992 01930 00000 10275 20240 30122 40124 70500 333 10308 58013 70000==
41992,2024,03,24,15,00,AAXX 24154 41992 01925 01502 10255 20240 30135 40137 70500 333 58026 70000==
41992,2024,03,24,18,00,AAXX 24184 41992 01925 00000 10240 20230 30129 40131 70500 333 58015 70000==
41992,2024,03,24,21,00,AAXX 24214 41992 01925 00602 10230 20210 30113 40115 70500 333 58000 70000==
41992,2024,03,25,00,00,AAXX 25004 41992 01920 00602 10225 20210 30123 40125 70500 333 58012 70000==
41992,2024,03,25,03,00,AAXX 25034 41992 01/30 20000 10262 20230 30145 40147 70500 82030 333 20224 59004 70000 82362==
41992,2024,03,25,06,00,AAXX 25064 41992 01/35 30000 10306 20230 30132 40134 70510 83030 333 59005 70000 83362==
41992,2024,03,25,09,00,AAXX 25094 41992 01935 02104 10306 20230 30109 40111 70500 333 59011 70000==
41992,2024,03,25,12,00,AAXX 25124 41992 01930 00000 10280 20230 30103 40105 70500 333 10312 59019 70000==
41992,2024,03,25,15,00,AAXX 25154 41992 01925 02402 10255 20240 30120 40122 70500 333 59015 70000==
41992,2024,03,25,18,00,AAXX 25184 41992 01925 00000 10255 20240 30128 40130 70500 333 59001 70000==
41992,2024,03,25,21,00,AAXX 25214 41992 01/25 21203 10245 20230 30111 40113 70510 82030 333 59002 70000 82362==
41992,2024,03,26,00,00,AAXX 26004 41992 01/20 40604 10240 20220 30121 40123 70510 84030 333 59002 70000 84362==
41992,2024,03,26,03,00,AAXX 26034 41992 01930 00304 10290 20220 30142 40144 70510 333 20232 58010 70000==
41992,2024,03,26,06,00,AAXX 26064 41992 01/35 20000 10335 20200 30131 40133 70510 82030 333 59001 70000 82362==
41992,2024,03,26,09,00,AAXX 26094 41992 01435 52103 10302 20230 30115 40117 70522 83530 333 58006 70000 83617 85362==
41992,2024,03,26,12,00,AAXX 26124 41992 01430 30000 10275 20250 30118 40120 70521 83500 333 10337 58015 70000 83616==
41992,2024,03,26,15,00,AAXX 26154 41992 01925 02702 10260 20240 30135 40137 70500 333 58015 70000==
41992,2024,03,26,18,00,AAXX 26184 41992 01/25 30000 10253 20240 30144 40146 70510 83030 333 58016 70000 83362==
41992,2024,03,26,21,00,AAXX 26214 41992 01925 00602 10248 20240 30131 40133 70500 333 58020 70000==
41992,2024,03,27,00,00,AAXX 27004 41992 01920 00602 10240 20230 30141 40143 70500 333 58020 70000==
41992,2024,03,27,03,00,AAXX 27034 41992 01430 20000 10280 20230 30164 40166 70500 82500 333 20228 58022 70000 82316==
41992,2024,03,27,06,00,AAXX 27064 41992 01935 00000 10304 20220 30155 40157 70510 333 58024 70000==
41992,2024,03,27,09,00,AAXX 27094 41992 01935 02103 10312 20220 30122 40124 70500 333 58007 70000==
41992,2024,03,27,12,00,AAXX 27124 41992 01930 00000 10275 20250 30114 40116 70500 333 10315 59004 70000==
41992,2024,03,27,15,00,AAXX 27154 41992 01925 02102 10258 20240 30136 40138 70500 333 58001 70000==
41992,2024,03,28,03,00,AAXX 28034 41992 01425 30000 10287 20240 30137 40139 70510 83500 333 20235 59027 70000 83616==
41992,2024,03,28,06,00,AAXX 28064 41992 01935 00000 10302 20230 30121 40123 70510 333 59034 70000==
41992,2024,03,28,09,00,AAXX 28094 41992 01435 40000 10302 20240 30096 40098 70510 84500 333 59026 70000 84616==
41992,2024,03,28,12,00,AAXX 28124 41992 01430 60000 10275 20250 30095 40096 70521 83530 333 10311 59021 70000 83616 86362==
41992,2024,03,28,15,00,AAXX 28154 41992 01925 02102 10264 20240 30116 40118 70500 333 59020 70000==
41992,2024,03,28,18,00,AAXX 28184 41992 01925 00000 10260 20240 30114 40116 70500 333 59025 70000==
41992,2024,03,28,21,00,AAXX 28214 41992 01920 00902 10250 20230 30088 40090 70500 333 59026 70000==
41998,2024,03,22,03,00,AAXX 22034 41998 02956 00000 10260 20220 30114 40120 333 20180 58007 70070==
41998,2024,03,22,06,00,AAXX 22064 41998 NIL=
41998,2024,03,22,09,00,AAXX 22094 41998 02956 02902 10310 20240 30110 40116 333 59025 70000==
41998,2024,03,22,12,00,AAXX 22124 41998 02956 00000 10273 20240 30118 40124 333 10337 59020 70000==
41998,2024,03,22,18,00,AAXX 22184 41998 NIL=
41998,2024,03,23,00,00,AAXX 23004 41998 NIL=
41998,2024,03,23,03,00,AAXX 23034 41998 02956 00000 10270 20220 30106 40112 333 20195 59008 70000==
41998,2024,03,23,06,00,AAXX 23064 41998 NIL=
41998,2024,03,23,09,00,AAXX 23094 41998 02956 02903 10312 20240 30097 40103 333 59013 70000==
41998,2024,03,23,12,00,AAXX 23124 41998 02956 00000 10277 20240 30099 40105 333 10338 59019 70000==
41998,2024,03,24,00,00,AAXX 24004 41998 02956 00000 10258 20220 30130 40136 333 58015 70000==
41998,2024,03,24,03,00,AAXX 24034 41998 02956 00000 10270 20220 30121 40127 333 20195 58015 70000==
41998,2024,03,24,06,00,AAXX 24064 41998 NIL=
41998,2024,03,24,09,00,AAXX 24094 41998 02956 02902 10308 20240 30093 40099 333 59005 70000==
41998,2024,03,24,12,00,AAXX 24124 41998 02956 00000 10277 20240 30095 40101 333 10336 59004 70000==
41998,2024,03,25,00,00,AAXX 25004 41998 NIL=
41998,2024,03,25,03,00,AAXX 25034 41998 02956 00000 10274 20230 30122 40128 333 20200 58001 70000==
41998,2024,03,25,06,00,AAXX 25064 41998 NIL=
41998,2024,03,25,09,00,AAXX 25094 41998 02956 02702 10306 20220 30097 40103 333 58004 70000==
41998,2024,03,25,12,00,AAXX 25124 41998 02956 00000 10268 20240 30102 40108 333 10328 58007 70000==
41998,2024,03,26,00,00,AAXX 26004 41998 02956 00000 10263 20220 30118 40124 333 58001 70000==
41998,2024,03,26,03,00,AAXX 26034 41998 02956 00000 10280 20230 30126 40132 333 20205 58004 70000==
41998,2024,03,26,06,00,AAXX 26064 41998 NIL=
41998,2024,03,26,09,00,AAXX 26094 41998 02956 02902 10306 20250 30091 40097 333 59006 70000==
41998,2024,03,26,12,00,AAXX 26124 41998 02956 00000 10274 20240 30097 40103 333 10330 59005 70000==
41998,2024,03,26,18,00,AAXX 26184 41998 NIL=
41998,2024,03,27,03,00,AAXX 27034 41998 02956 00000 10285 20240 30135 40141 333 20208 58009 70000==
41998,2024,03,27,06,00,AAXX 27064 41998 NIL=
41998,2024,03,27,09,00,AAXX 27094 41998 02956 03202 10312 20250 30094 40100 333 58003 70000==
41998,2024,03,27,12,00,AAXX 27124 41998 02956 00000 10274 20240 30095 40101 333 10335 59002 70000==
41998,2024,03,28,12,00,AAXX 28124 41998 02956 00000 10268 20240 30103 40109 333 10332 58008 70000==
41998,2024,03,28,18,00,AAXX 28184 41998 NIL=
