ESTACION,ANO,MES,DIA,HORA,MINUTO,PARTE
41850,2023,08,11,00,00,AAXX 11004 41850 31440 81803 10260 20250 39938 40036 70522 8352/ 333 56999 58002 70210 83618 88458=
41850,2023,08,11,06,00,AAXX 11064 41850 11350 80000 10280 20260 39942 40039 60024 72122 8572/ 333 56999 59006 70230 83707 84616 88458=
41850,2023,08,11,12,00,AAXX 11124 41850 31450 60000 10300 20260 39911 40008 70522 83510 333 10319 56990 59007 70230 83618 85458=
41850,2023,08,11,18,00,AAXX 11184 41850 11330 80000 10278 20270 39921 40018 60024 72122 8572/ 333 56999 59022 70040 83707 84616 88458=
41850,2023,08,11,21,00,AAXX 11214 41850 11350 81306 10297 20270 39917 40013 60045 70562 8572/ 333 56999 59028 70090 83707 84616 88458=
41850,2023,08,12,00,00,AAXX 12004 41850 11440 80000 10265 20260 39920 40018 60036 70562 8452/ 333 56999 59018 70070 84618 88458=
41850,2023,08,12,06,00,AAXX 12064 41850 11350 81306 10297 20270 39917 40013 60045 70562 8572/ 333 56999 59028 70090 83707 84616 88458=
41850,2023,08,12,12,00,AAXX 12124 41850 31450 60904 10299 20270 39881 49978 70522 83510 333 10314 56990 59030 70090 83618 86458=
41850,2023,08,12,18,00,AAXX 12184 41850 31440 80000 10268 20260 39903 40001 70522 8452/ 333 56999 59018 70070 84618 88458=
41850,2023,08,13,00,00,AAXX 13004 41850 11330 80000 10260 20260 39904 40002 60237 76166 8572/ 333 56999 59016 70270 82707 84616 88458=
41850,2023,08,13,06,00,AAXX 13064 41850 11350 81803 10271 20260 39930 40028 60169 76166 8572/ 333 56999 58013 70390 83707 84716 88458=
41850,2023,08,13,12,00,AAXX 13124 41850 11350 80000 10253 20240 39920 40019 60084 72162 8572/ 333 10293 56999 58039 70470 83707 84616 88458=
41850,2023,08,13,18,00,AAXX 13184 41850 31430 80903 10250 20250 39937 40036 70522 8452/ 333 56999 58034 70470 84618 88458=
41850,2023,08,14,00,00,AAXX 14004 41850 31440 80000 10250 20250 39939 40038 70522 8452/ 333 56999 58035 70240 84618 88458=
41850,2023,08,14,06,00,AAXX 14064 41850 32456 61809 10305 20250 39950 40047 82510 333 56990 58020 70080 82618 85458=
41850,2023,08,14,18,00,AAXX 14184 41850 NIL=
41850,2023,08,15,00,00,AAXX 15004 41850 31430 60903 10272 20270 39936 40035 70522 83510 333 56990 59003 70000 83618 86458=
41850,2023,08,15,06,00,AAXX 15064 41850 32457 41803 10335 20260 39951 40047 82510 333 56990 58001 70000 82618 84458=
41850,2023,08,15,12,00,AAXX 15124 41850 32456 40000 10318 20270 30000 40000 84030 333 10351 56090 50000 70000 84362=
41850,2023,08,15,18,00,AAXX 15184 41850 31940 60000 10290 20270 30000 40000 70522 82520 333 56990 50000 70000 82618 86458=
41850,2023,08,16,00,00,AAXX 16004 41850 11450 80202 10270 20260 30000 40000 60024 70562 8452/ 333 56999 50000 70020 84617 88458=
41850,2023,08,16,06,00,AAXX 16064 41850 32456 63203 10307 20260 30000 40000 83520 333 56990 50000 70020 83617 86458=
41850,2023,08,16,12,00,AAXX 16124 41850 32450 60000 10294 20270 30000 40000 83530 333 10318 56990 50000 70020 83618 86362=
41850,2023,08,16,18,00,AAXX 16184 41850 31440 50000 10273 20260 30000 40000 70522 83520 333 56990 50000 70020 83618 85458=
41850,2023,08,17,00,00,AAXX 17004 41850 31420 72703 10270 20270 30000 40000 71022 83520 333 56990 50000 70000 83618 87458=
41850,2023,08,17,06,00,AAXX 17064 41850 32457 41802 10338 20240 30000 40000 82510 333 56990 50000 70000 82618 84460=
41850,2023,08,17,12,00,AAXX 17124 41850 32956 41502 10330 20270 30000 40000 84030 333 10360 56090 50000 70000 84362=
41850,2023,08,17,18,00,AAXX 17184 41850 31440 40000 10296 20280 30000 40000 70522 82510 333 56990 50000 70000 82618 84460=
41851,2023,08,11,00,00,AAXX 11004 41851 11340 81802 10270 20260 39977 40040 60617 79596 8492/ 333 56499 58003 70763 82708 84616 81929 88456=
41851,2023,08,11,06,00,AAXX 11064 41851 11350 80000 10273 20270 39984 40047 60439 70296 8462/ 333 56999 59008 71188 81709 83617 88457=
41851,2023,08,11,12,00,AAXX 11124 41851 32450 61502 10307 20280 39950 40011 83520 333 10322 56990 59014 71038 83618 86458=
41851,2023,08,11,18,00,AAXX 11184 41851 32450 81801 10276 20260 39974 40036 8352/ 333 56999 59016 71038 83618 88458=
41851,2023,08,11,21,00,AAXX 11214 41851 32450 81501 10310 20270 39958 40019 8352/ 333 56999 59026 70000 83618 88458=
41851,2023,08,12,00,00,AAXX 12004 41851 32350 80000 10270 20260 39953 40015 8462/ 333 56699 59024 70425 81709 83617 88457=
41851,2023,08,12,06,00,AAXX 12064 41851 32450 81501 10310 20270 39958 40019 8352/ 333 56999 59026 70000 83618 88458=
41851,2023,08,12,12,00,AAXX 12124 41851 11350 80000 10285 20280 39919 49980 60037 70262 8462/ 333 10315 56999 59031 70027 81709 83617 88457=
41851,2023,08,12,18,00,AAXX 12184 41851 11350 80000 10273 20260 39944 40006 60017 70262 8462/ 333 56999 59030 70037 81709 83617 88457=
41851,2023,08,13,00,00,AAXX 13004 41851 11340 80000 10260 20250 39948 40011 60437 76362 8472/ 333 56299 59005 70467 81707 83616 88456=
41851,2023,08,13,06,00,AAXX 13064 41851 11340 80000 10279 20260 39982 40044 60149 76166 8472/ 333 56299 58024 70603 81708 83616 88456=
41851,2023,08,13,12,00,AAXX 13124 41851 11350 80000 10275 20260 39963 40025 69924 70262 8472/ 333 10298 56999 58044 70578 81709 83617 88457=
41851,2023,08,13,18,00,AAXX 13184 41851 32450 80000 10263 20250 39990 40053 8352/ 333 56999 58046 70568 83618 88458=
41851,2023,08,14,00,00,AAXX 14004 41851 31440 80000 10265 20260 39980 40043 70522 8352/ 333 56999 58032 70138 83618 88458=
41851,2023,08,14,06,00,AAXX 14064 41851 32450 80000 10314 20250 39991 40053 8352/ 333 56999 58009 70002 83618 88458=
41851,2023,08,14,18,00,AAXX 14184 41851 32950 00000 10285 20280 39982 40044 333 59008 70000=
41851,2023,08,15,00,00,AAXX 15004 41851 NIL=
41851,2023,08,15,06,00,AAXX 15064 41851 32450 42701 10335 20250 39975 40036 82530 333 56990 59016 70000 82618 83362=
41851,2023,08,15,12,00,AAXX 15124 41851 32450 60000 10327 20270 39948 40009 82510 333 10346 56990 59004 70000 82618 85458=
41851,2023,08,15,18,00,AAXX 15184 41851 32450 40000 10295 20290 39978 40040 82510 333 56990 59004 70000 82618 84458=
41851,2023,08,16,00,00,AAXX 16004 41851 32450 82701 10285 20270 39969 40031 8352/ 333 56999 59006 70000 83618 88458=
41851,2023,08,16,06,00,AAXX 16064 41851 32450 80000 10332 20270 39973 40035 8352/ 333 56999 59002 70000 83618 88458=
41851,2023,08,16,12,00,AAXX 16124 41851 11450 80000 10289 20270 39950 40012 60066 70296 8352/ 333 10340 56999 58002 70058 83618 88458=
41851,2023,08,16,18,00,AAXX 16184 41851 32450 70000 10275 20270 39983 40045 82520 333 56990 58005 70058 82618 87458=
41851,2023,08,17,00,00,AAXX 17004 41851 32450 80000 10275 20270 39979 40041 8352/ 333 56999 58010 70058 83618 88458=
41851,2023,08,17,06,00,AAXX 17064 41851 32450 10000 10340 20260 39974 40035 81500 333 56900 58001 70058 81618=
41851,2023,08,17,12,00,AAXX 17124 41851 32450 70000 10329 20290 39948 40009 82520 333 10360 56990 59002 70000 82618 87458=
41851,2023,08,17,18,00,AAXX 17184 41851 32450 70000 10300 20280 39974 40036 82520 333 56990 59009 70000 82618 87458=
41856,2023,08,11,00,00,AAXX 11004 41856 32440 81801 10274 20260 30006 40041 8562/ 333 56499 58006 70000 83708 85615 88458=
41856,2023,08,11,06,00,AAXX 11064 41856 11450 80000 10298 20270 30007 40042 60015 70266 8562/ 333 56499 59014 70013 83708 85615 88458=
41856,2023,08,11,12,00,AAXX 11124 41856 11450 80000 10274 20250 39978 40013 60014 76162 8562/ 333 10314 56499 59015 70023 83708 85615 88458=
41856,2023,08,11,18,00,AAXX 11184 41856 11430 81801 10270 20260 30004 40039 60049 76166 8562/ 333 56499 59015 70058 83708 85615 88458=
41856,2023,08,11,21,00,AAXX 11214 41856 32450 51802 10325 20270 39985 40020 83430 333 56990 59022 70050 81618 83825 85362=
41856,2023,08,12,00,00,AAXX 12004 41856 11450 81802 10266 20260 39982 40017 60016 70262 8562/ 333 56499 59024 70063 83708 85615 88458=
41856,2023,08,12,06,00,AAXX 12064 41856 NIL=
41856,2023,08,12,12,00,AAXX 12124 41856 11430 80902 10273 20270 39952 49987 60383 76366 8562/ 333 10332 56999 59026 70415 83708 85615 88458=
41856,2023,08,12,18,00,AAXX 12184 41856 11330 81803 10272 20270 39973 40008 60299 76366 8672/ 333 56499 59031 70670 83708 84614 88456=
41856,2023,08,13,00,00,AAXX 13004 41856 11340 82202 10255 20255 39983 40018 60599 76366 8672/ 333 56499 58001 71255 83708 84614 88456=
41856,2023,08,13,06,00,AAXX 13064 41856 11350 80000 10278 20260 30012 40047 60128 70266 8672/ 333 56499 58027 71370 83708 84614 88456=
41856,2023,08,13,12,00,AAXX 13124 41856 11450 81301 10288 20280 39990 40025 60016 70262 8562/ 333 10295 56999 58038 71005 82710 84618 88458=
41856,2023,08,13,18,00,AAXX 13184 41856 32440 80000 10265 20250 30016 40051 8562/ 333 56999 58043 70715 82710 84618 88425=
41856,2023,08,14,00,00,AAXX 14004 41856 32430 80000 10263 20250 30005 40040 8452/ 333 56999 58022 70125 83618 88458=
41856,2023,08,14,06,00,AAXX 14064 41856 32456 51801 10327 20260 30016 40051 82520 333 56990 58004 70010 81618 85458=
41856,2023,08,14,18,00,AAXX 14184 41856 NIL=
41856,2023,08,15,00,00,AAXX 15004 41856 NIL=
41856,2023,08,15,06,00,AAXX 15064 41856 32956 31802 10334 20230 30005 40040 83030 333 56090 59011 70000 83362=
41856,2023,08,15,12,00,AAXX 15124 41856 32450 60000 10310 20260 39976 40011 84430 333 10356 56990 59006 70000 81618 85458=
41856,2023,08,15,18,00,AAXX 15184 41856 32440 60000 10293 20270 30003 40038 84430 333 56990 59005 70000 81618 85458=
41856,2023,08,16,00,00,AAXX 16004 41856 32440 62102 10282 20260 39996 40031 84530 333 56990 59006 70000 82618 85458=
41856,2023,08,16,06,00,AAXX 16064 41856 32456 61602 10340 20270 30001 40035 84530 333 56990 59004 70000 82618 85458=
41856,2023,08,16,12,00,AAXX 16124 41856 11450 71801 10280 20270 39977 40012 60287 70162 83520 333 10345 56990 58001 70276 82618 87458=
41856,2023,08,16,18,00,AAXX 16184 41856 32440 80000 10274 20260 30008 40043 8452/ 333 56999 58005 70276 83618 88458=
41856,2023,08,17,00,00,AAXX 17004 41856 32440 80000 10278 20270 30003 40038 8452/ 333 56999 58007 70276 83618 88458=
41856,2023,08,17,06,00,AAXX 17064 41856 32956 31201 10337 20260 39998 40003 83030 333 56090 59003 70276 83362=
41856,2023,08,17,12,00,AAXX 17124 41856 32950 40801 10322 20280 39976 40011 84030 333 10354 56090 58001 70000 84362=
41856,2023,08,17,18,00,AAXX 17184 41856 32430 60000 10282 20260 30002 40037 84430 333 56990 59006 70000 82830 84362=
41858,2023,08,11,00,00,AAXX 11004 41858 01440 61806 10288 20270 39996 40041 70522 83520 333 59003 70008 83615 86458==
41858,2023,08,11,03,00,AAXX 11034 41858 01330 81808 10302 20270 30008 40053 70522 8562/ 333 59004 70008 83708 85614 88458==
41858,2023,08,11,06,00,AAXX 11064 41858 01440 82106 10340 20260 39997 40041 70522 8452/ 333 59014 70008 85614 87458==
41858,2023,08,11,09,00,AAXX 11094 41858 01425 80606 10307 20280 39975 40019 71022 8452/ 333 59013 70008 84615 88458==
41858,2023,08,11,12,00,AAXX 11124 41858 01425 80906 10294 20270 39972 40017 71022 8452/ 333 10325 59010 70008 84615 88458==
41858,2023,08,11,15,00,AAXX 11154 41858 01430 82106 10290 20270 39992 40037 70522 8452/ 333 59015 70000 84618 88458==
41858,2023,08,11,18,00,AAXX 11184 41858 01430 82106 10284 20260 30008 40053 76162 8452/ 333 59005 70010 84615 88458==
41858,2023,08,11,21,00,AAXX 11214 41858 01430 82105 10282 20260 39983 40028 70562 8452/ 333 59027 70006 84616 88458==
41858,2023,08,12,00,00,AAXX 12004 41858 01425 82104 10280 20270 39971 40016 71022 8452/ 333 59025 70006 84616 88458==
41858,2023,08,12,03,00,AAXX 12034 41858 01435 81805 10295 20270 39988 40033 70522 8452/ 333 20270 59020 70006 84615 88458==
41858,2023,08,12,06,00,AAXX 12064 41858 01435 82106 10310 20270 39978 40022 70522 8452/ 333 59019 70006 84615 88458==
41858,2023,08,12,09,00,AAXX 12094 41858 01440 62110 10325 20270 39944 49988 70522 83520 333 58031 70006 83615 86458==
41858,2023,08,12,12,00,AAXX 12124 41858 01450 82708 10310 20270 39939 49983 70522 8452/ 333 10330 58033 70006 84615 88458==
41858,2023,08,12,15,00,AAXX 12154 41858 01440 82705 10300 20280 39960 40004 76122 8452/ 333 59032 70016 84615 88458==
41858,2023,08,12,18,00,AAXX 12184 41858 21440 82705 10292 20280 39980 40025 76162 8452/ 333 59028 60027 70024 84615 88458==
41858,2023,08,13,00,00,AAXX 13004 41858 21415 80000 10262 20250 39971 40016 76366 8452/ 333 58000 60609 70628 84615 88458==
41858,2023,08,13,03,00,AAXX 13034 41858 01420 80000 10274 20250 39989 40034 76162 8452/ 333 20252 58001 70780 84615 88458==
41858,2023,08,13,06,00,AAXX 13064 41858 11435 81704 10284 20260 30003 40048 60056 70562 8452/ 333 58025 70780 84615 88458==
41858,2023,08,13,09,00,AAXX 13094 41858 01440 81805 10300 20260 39987 40032 70522 8452/ 333 58043 70680 84615 88458==
41858,2023,08,13,12,00,AAXX 13124 41858 01440 80000 10296 20270 39980 40025 70522 8452/ 333 10308 58041 70680 84615 88458==
41858,2023,08,13,15,00,AAXX 13154 41858 01440 81808 10260 20240 30001 40046 70562 8452/ 333 58041 71240 84615 88458==
41858,2023,08,13,18,00,AAXX 13184 41858 21440 81806 10256 20240 30008 40053 70562 8452/ 333 58028 60199 70846 84618 88458==
41858,2023,08,13,21,00,AAXX 13214 41858 01425 80606 10258 20250 30002 40047 71022 8562/ 333 58024 70446 83708 85614 88458==
41858,2023,08,14,00,00,AAXX 14004 41858 01318 80606 10258 20250 39999 40044 71022 8572/ 333 58028 70242 83708 85614 88458==
41858,2023,08,14,03,00,AAXX 14034 41858 01450 61802 10295 20260 30015 40060 70522 84520 333 20254 58026 70190 83616 85458==
41858,2023,08,14,06,00,AAXX 14064 41858 01450 61805 10326 20260 30009 40053 70522 84520 333 59004 70190 83616 85458==
41858,2023,08,14,09,00,AAXX 14094 41858 01550 32704 10345 20270 39983 40027 70522 83200 333 59004 70190 83825==
41858,2023,08,14,15,00,AAXX 14154 41858 02940 30000 10300 20280 39992 40037 85410 333 59003 70038 82618 85459==
41858,2023,08,14,18,00,AAXX 14184 41858 01/40 30000 10294 20270 30003 40048 70522 83030 333 59005 70000 83362==
41858,2023,08,15,00,00,AAXX 15004 41858 01/15 40000 10280 20270 39994 40039 71022 84020 333 59005 70000 84460==
41858,2023,08,15,03,00,AAXX 15034 41858 01435 42704 10330 20280 30002 40046 70522 83520 333 20274 59013 70000 83618 84458==
41858,2023,08,15,06,00,AAXX 15064 41858 01450 42704 10346 20270 39997 40041 70522 83520 333 59012 70000 83618 84458==
41858,2023,08,15,09,00,AAXX 15094 41858 01450 61806 10360 20260 39973 40016 70522 83520 333 59010 70000 83618 85458==
41858,2023,08,15,12,00,AAXX 15124 41858 01450 81810 10328 20270 39970 40014 70522 8452/ 333 10365 59002 70000 84616 88458==
41858,2023,08,15,15,00,AAXX 15154 41858 01440 71805 10310 20270 39989 40033 70522 84520 333 59003 70000 84615 86458==
41858,2023,08,15,18,00,AAXX 15184 41858 01440 71805 10302 20270 30003 40048 70522 8452/ 333 59003 70000 84615 86458==
41858,2023,08,15,21,00,AAXX 15214 41858 01430 72105 10298 20280 39990 40035 70522 84520 333 59008 70000 84615 86458==
41858,2023,08,16,00,00,AAXX 16004 41858 NIL=
41858,2023,08,16,03,00,AAXX 16034 41858 01/35 22105 10320 20250 39998 40043 70520 82030 333 20285 59004 70000 82362==
41858,2023,08,16,06,00,AAXX 16064 41858 01445 42405 10350 20260 39995 40039 70522 83800 333 59002 70000 82615 83825==
41858,2023,08,16,09,00,AAXX 16094 41858 01420 80306 10285 20260 39974 40019 79562 8452/ 333 58001 70100 83710 84618 88458==
41858,2023,08,16,12,00,AAXX 16124 41858 21430 81505 10290 20280 39972 40017 70596 8452/ 333 10350 58002 60117 70110 84615 88458==
41858,2023,08,16,15,00,AAXX 16154 41858 01435 80000 10288 20280 39990 40035 70522 8452/ 333 58001 70110 84618 88458==
41858,2023,08,16,18,00,AAXX 16184 41858 01435 80902 10285 20280 30006 40051 70522 8452/ 333 58003 70110 84618 88458==
41858,2023,08,16,21,00,AAXX 16214 41858 01430 80902 10283 20260 39999 40044 70522 8452/ 333 58009 70110 84616 88458==
41858,2023,08,17,00,00,AAXX 17004 41858 01415 80000 10280 20270 39995 40040 71022 8452/ 333 58006 70110 84616 88458==
41858,2023,08,17,03,00,AAXX 17034 41858 01435 50604 10310 20280 39997 40042 70522 83520 333 20272 59001 70110 83615 85458==
41858,2023,08,17,06,00,AAXX 17064 41858 01540 30905 10345 20270 39992 40036 70522 83100 333 59003 70110 83825==
41858,2023,08,17,09,00,AAXX 17094 41858 01540 30905 10357 20280 39964 40008 70520 83100 333 59010 70010 83825==
41858,2023,08,17,12,00,AAXX 17124 41858 01450 60905 10332 20280 39966 40010 70522 83520 333 10360 59006 70000 83615 86458==
41858,2023,08,17,15,00,AAXX 17154 41858 01440 50000 10310 20290 39987 40031 70522 83520 333 59003 70000 83616 85458==
41858,2023,08,17,18,00,AAXX 17184 41858 01440 50000 10304 20280 30002 40047 70522 83520 333 59004 70000 83616 85458==
41858,2023,08,17,21,00,AAXX 17214 41858 01430 70000 10298 20290 30000 40045 70522 83520 333 58001 70000 83616 87458==
41859,2023,08,11,00,00,AAXX 11004 41859 02435 80000 10280 20260 30006 40043 8562/ 333 58006 70000 82710 84618 88458==
41859,2023,08,11,03,00,AAXX 11034 41859 02450 81301 10296 20280 30016 40053 8562/ 333 20278 59004 70000 82710 84618 88458==
41859,2023,08,11,06,00,AAXX 11064 41859 21450 81301 10308 20270 30008 40045 70262 8562/ 333 59021 60015 70010 82710 84618 88458==
41859,2023,08,11,09,00,AAXX 11094 41859 01440 80501 10304 20280 39979 40016 76122 8672/ 333 59017 70020 84710 85618 88458==
41859,2023,08,11,12,00,AAXX 11124 41859 21340 81302 10269 20260 39977 40014 76562 8672/ 333 10322 59016 60547 70550 84708 85616 88456==
41859,2023,08,11,15,00,AAXX 11154 41859 01320 81802 10276 20276 30005 40042 76362 8672/ 333 59010 70650 84708 85614 88456==
41859,2023,08,11,18,00,AAXX 11184 41859 01430 80000 10271 20270 30002 40039 70262 8562/ 333 59018 70830 83710 85618 88458==
41859,2023,08,11,21,00,AAXX 11214 41859 02430 80000 10270 20260 39999 40036 8562/ 333 59013 70830 83710 84618 88458==
41859,2023,08,12,00,00,AAXX 12004 41859 01440 80000 10273 20270 39979 40016 72162 8562/ 333 59027 70020 83710 84618 88458==
41859,2023,08,12,03,00,AAXX 12034 41859 02450 80000 10290 20270 39997 40034 8562/ 333 20261 59019 70852 83710 84618 88458==
41859,2023,08,12,06,00,AAXX 12064 41859 01450 80000 10310 20270 39985 40021 76122 8572/ 333 59023 70002 83710 84618 88458==
41859,2023,08,12,09,00,AAXX 12094 41859 01450 80000 10321 20270 39955 49991 76166 8672/ 333 59024 70844 83710 85618 88456==
41859,2023,08,12,12,00,AAXX 12124 41859 21350 80000 10306 20270 39948 49984 76166 8672/ 333 10326 59029 60029 70326 84708 85614 88456==
41859,2023,08,12,15,00,AAXX 12154 41859 01350 80000 10283 20280 39966 40003 76166 8672/ 333 59039 70276 84708 85614 88456==
41859,2023,08,12,18,00,AAXX 12184 41859 21330 81302 10281 20280 39976 40013 76166 8672/ 333 59026 60119 70156 84708 85614 88456==
41859,2023,08,12,21,00,AAXX 12214 41859 01330 82702 10261 20260 39978 40015 76166 8672/ 333 59021 70156 84708 85614 88456==
41859,2023,08,13,00,00,AAXX 13004 41859 22335 82702 10256 20256 39981 40018 8672/ 333 58002 60259 70384 84708 85614 88456==
41859,2023,08,13,03,00,AAXX 13034 41859 01340 81802 10267 20267 39999 40036 76166 8672/ 333 20255 58002 70484 84708 85614 88456==
41859,2023,08,13,06,00,AAXX 13064 41859 21450 81802 10281 20270 30012 40049 72166 8562/ 333 58027 60109 70486 83710 84618 88458==
41859,2023,08,13,09,00,AAXX 13094 41859 01450 80000 10308 20270 39995 40031 72166 8562/ 333 58040 70478 82710 84618 88458==
41859,2023,08,13,12,00,AAXX 13124 41859 21450 80000 10296 20270 39989 40026 70262 8562/ 333 10310 58041 69928 70466 82710 84618 88458==
41859,2023,08,13,15,00,AAXX 13154 41859 01330 81701 10271 20250 30012 40049 70262 8562/ 333 58046 70416 84708 85616 88458==
41859,2023,08,13,18,00,AAXX 13184 41859 11430 81701 10268 20260 30016 40053 60006 70262 8562/ 333 58040 70356 83710 84618 88458==
41859,2023,08,13,21,00,AAXX 13214 41859 02430 80000 10268 20260 30008 40045 8562/ 333 58030 70266 82710 84618 88458==
41859,2023,08,14,00,00,AAXX 14004 41859 02435 80000 10268 20260 30005 40042 8562/ 333 58024 70106 82710 84618 88458==
41859,2023,08,14,03,00,AAXX 14034 41859 02450 80000 10307 20260 30022 40058 8562/ 333 20260 58023 70006 82710 83618 88458==
41859,2023,08,14,06,00,AAXX 14064 41859 02450 82302 10330 20250 30015 40051 8562/ 333 58003 70002 82710 84618 88458==
41859,2023,08,14,09,00,AAXX 14094 41859 42456 42702 10350 20250 39985 40021 83430 333 59010 81618 82828 84362==
41859,2023,08,14,12,00,AAXX 14124 41859 42450 70000 10336 20270 39982 40018 85410 333 10350 59007 83618 84828 87458==
41859,2023,08,14,15,00,AAXX 14154 41859 02430 80000 10302 20270 30000 40037 8562/ 333 59012 70000 82710 84618 88458==
41859,2023,08,14,18,00,AAXX 14184 41859 02430 80000 10286 20270 30009 40046 8562/ 333 59007 70000 82710 84618 88458==
41859,2023,08,14,21,00,AAXX 14214 41859 02430 80000 10270 20250 30005 40042 8562/ 333 59003 70000 82710 84618 88458==
41859,2023,08,15,00,00,AAXX 15004 41859 02440 80000 10260 20250 30001 40038 8562/ 333 59004 70000 82710 84618 88458==
41859,2023,08,15,03,00,AAXX 15034 41859 02450 60000 10313 20270 30008 40044 84620 333 20256 59014 70000 82710 83618 86458==
41859,2023,08,15,06,00,AAXX 15064 41859 02450 60000 10339 20260 30006 40042 84620 333 59010 70000 82710 83618 86458==
41859,2023,08,15,09,00,AAXX 15094 41859 02450 62702 10356 20250 39981 40017 84620 333 59004 70000 82710 83618 86458==
41859,2023,08,15,12,00,AAXX 15124 41859 02450 52302 10330 20260 39977 40013 82520 333 10358 59005 70000 82618 85458==
41859,2023,08,15,15,00,AAXX 15154 41859 02430 80000 10310 20280 39999 40035 8562/ 333 59001 70000 82710 84618 88458==
41859,2023,08,15,18,00,AAXX 15184 41859 02430 82102 10305 20280 30007 40043 8562/ 333 59002 70000 82710 84618 88458==
41859,2023,08,15,21,00,AAXX 15214 41859 02430 52102 10295 20280 30001 40038 83530 333 59004 70000 83618 85362==
41859,2023,08,16,00,00,AAXX 16004 41859 02440 52102 10291 20270 39995 40032 83530 333 59006 70000 83618 85362==
41859,2023,08,16,03,00,AAXX 16034 41859 02450 52102 10311 20270 30004 40040 83530 333 20285 59004 70000 83618 85362==
41859,2023,08,16,06,00,AAXX 16064 41859 02450 72102 10351 20270 30005 40041 83520 333 59001 70000 83618 87458==
41859,2023,08,16,09,00,AAXX 16094 41859 02445 83103 10313 20250 39981 40017 8562/ 333 58000 70000 83710 84618 88458==
41859,2023,08,16,12,00,AAXX 16124 41859 21440 83102 10281 20260 39981 40017 70262 8562/ 333 10355 58004 60065 70060 83710 84618 88458==
41859,2023,08,16,15,00,AAXX 16154 41859 02430 80000 10289 20270 39999 40036 8562/ 333 58000 70060 82710 84618 88458==
41859,2023,08,16,18,00,AAXX 16184 41859 02430 80000 10285 20280 30008 40045 8562/ 333 58001 70060 82710 84618 88458==
41859,2023,08,16,21,00,AAXX 16214 41859 02430 80000 10282 20270 30002 40039 8562/ 333 58001 70060 82710 84618 88458==
41859,2023,08,17,00,00,AAXX 17004 41859 02440 80000 10281 20270 30001 40038 8562/ 333 58006 70060 82710 84618 88458==
41859,2023,08,17,03,00,AAXX 17034 41859 02450 60000 10313 20270 30005 40041 84620 333 20276 58001 70060 82710 84618 86458==
41859,2023,08,17,06,00,AAXX 17064 41859 02450 70502 10341 20270 39998 40034 85620 333 59007 70060 82710 84618 87458==
41859,2023,08,17,09,00,AAXX 17094 41859 02450 60000 10360 20270 39968 40004 84430 333 59013 70060 82618 83822 85362==
41859,2023,08,17,12,00,AAXX 17124 41859 01450 80000 10360 20280 39975 40011 59006 70004 88458 333 70004==
41859,2023,08,17,15,00,AAXX 17154 41859 01430 80000 10301 20270 39994 40031 70296 8462/ 333 59005 70005 83710 84618 88458==
41859,2023,08,17,18,00,AAXX 17184 41859 11430 80000 10301 20280 30001 40038 69916 70296 8462/ 333 59007 70005 83710 85618 88458==
41859,2023,08,17,21,00,AAXX 17214 41859 02430 80000 10294 20280 39999 40036 8562/ 333 59003 70005 83710 85618 88458==
41863,2023,08,11,00,00,AAXX 11004 41863 02450 81803 10286 20270 39999 40041 8452/ 333 58005 70000 84618 88458==
41863,2023,08,11,03,00,AAXX 11034 41863 02457 81804 10301 20270 30008 40050 8452/ 333 20280 59006 70000 84618 88458==
41863,2023,08,11,06,00,AAXX 11064 41863 02457 52704 10335 20280 39997 40038 83430 333 59019 70000 83620 84365==
41863,2023,08,11,09,00,AAXX 11094 41863 02456 83602 10322 20280 39971 40013 8552/ 333 59019 70000 85618 88458==
41863,2023,08,11,12,00,AAXX 11124 41863 02456 82702 10305 20280 39974 40016 8552/ 333 10335 59011 70000 85618 88458==
41863,2023,08,11,15,00,AAXX 11154 41863 01350 81303 10277 20270 39997 40039 76162 8572/ 333 59011 70120 83708 85616 88456==
41863,2023,08,11,18,00,AAXX 11184 41863 21450 81802 10275 20270 39996 40038 70262 8552/ 333 59017 60138 70128 85617 88458==
41863,2023,08,11,21,00,AAXX 11214 41863 02450 81801 10273 20260 39989 40032 8552/ 333 59014 70128 85618 88458==
41863,2023,08,12,00,00,AAXX 12004 41863 02456 81801 10275 20270 39974 40016 8552/ 333 59025 70128 85618 88458==
41863,2023,08,12,03,00,AAXX 12034 41863 02456 81801 10295 20270 39987 40031 8552/ 333 20267 59021 70128 85618 88458==
41863,2023,08,12,06,00,AAXX 12064 41863 02456 81302 10305 20270 39985 40027 8552/ 333 59023 70128 85618 88458==
41863,2023,08,12,09,00,AAXX 12094 41863 02456 62703 10310 20260 39946 49988 83520 333 59025 70128 83618 86458==
41863,2023,08,12,12,00,AAXX 12124 41863 02456 72703 10308 20270 39941 49982 83520 333 10318 59033 70128 83618 87458==
41863,2023,08,12,15,00,AAXX 12154 41863 02450 82703 10295 20280 39963 40005 8552/ 333 59034 70008 85618 88458==
41863,2023,08,12,18,00,AAXX 12184 41863 02450 82303 10290 20280 39970 40012 8552/ 333 59026 70000 85618 88458==
41863,2023,08,12,21,00,AAXX 12214 41863 01350 80902 10278 20270 39965 40007 76122 8572/ 333 59024 70102 83708 85614 88456==
41863,2023,08,13,00,00,AAXX 13004 41863 21350 80000 10260 20250 39974 40017 76166 8572/ 333 58000 60509 70502 83708 85614 88456==
41863,2023,08,13,03,00,AAXX 13034 41863 01450 81302 10270 20260 39989 40032 70266 8552/ 333 20253 58001 70580 85618 88457==
41863,2023,08,13,06,00,AAXX 13064 41863 11456 71303 10290 20270 30005 40047 60086 70162 84520 333 58020 70580 84618 87458==
41863,2023,08,13,09,00,AAXX 13094 41863 32456 80000 10300 20260 39989 40031 8552/ 333 56999 58043 70580 85618 88458=
41863,2023,08,13,12,00,AAXX 13124 41863 02456 82804 10296 20270 39983 40025 8552/ 333 10306 58042 70580 85618 88458==
41863,2023,08,13,15,00,AAXX 13154 41863 01450 81801 10261 20250 30006 40049 70262 8552/ 333 58043 70600 85618 88458==
41863,2023,08,13,18,00,AAXX 13184 41863 11450 80000 10270 20250 30009 40052 60026 70262 8552/ 333 58039 70600 85618 88458==
41863,2023,08,13,21,00,AAXX 13214 41863 02450 81802 10270 20260 30001 40044 8552/ 333 58036 70498 85618 88458==
41863,2023,08,14,00,00,AAXX 14004 41863 02450 80000 10268 20260 30000 40043 8552/ 333 58026 70098 85618 88458==
41863,2023,08,14,03,00,AAXX 14034 41863 02456 51803 10298 20260 30017 40059 83520 333 20253 58028 70020 83618 85458==
41863,2023,08,14,06,00,AAXX 14064 41863 02457 50903 10330 20260 30012 40054 83520 333 58007 70020 83618 85458==
41863,2023,08,14,09,00,AAXX 14094 41863 02457 52301 10342 20260 39984 40025 83520 333 59005 70020 83618 85458==
41863,2023,08,14,15,00,AAXX 14154 41863 02456 62301 10290 20260 39991 40033 83520 333 59015 70000 83618 86458==
41863,2023,08,14,18,00,AAXX 14184 41863 02450 62301 10276 20270 30002 40044 83520 333 59007 70000 83618 86458==
41863,2023,08,15,00,00,AAXX 15004 41863 02/50 32701 10271 20260 39996 40039 83030 333 59004 70000 83362==
41863,2023,08,15,03,00,AAXX 15034 41863 02456 52303 10310 20270 30005 40047 83520 333 20267 59012 70000 83618 85458==
41863,2023,08,15,06,00,AAXX 15064 41863 02457 52303 10340 20260 39998 40039 83520 333 59014 70000 83618 85458==
41863,2023,08,15,09,00,AAXX 15094 41863 02456 82302 10352 20260 39971 40012 8552/ 333 59013 70000 85618 88458==
41863,2023,08,15,12,00,AAXX 15124 41863 02456 81803 10330 20290 39970 40011 8552/ 333 10356 59005 70000 85618 88458==
41863,2023,08,15,15,00,AAXX 15154 41863 02450 51801 10302 20280 39992 40034 83520 333 58001 70000 83618 85458==
41863,2023,08,15,18,00,AAXX 15184 41863 02450 81802 10295 20280 30000 40042 8552/ 333 59002 70000 85618 88458==
41863,2023,08,15,21,00,AAXX 15214 41863 02450 50000 10290 20280 39995 40037 83530 333 59004 70000 83618 85362==
41863,2023,08,16,00,00,AAXX 16004 41863 02/50 20000 10285 20280 39993 40035 82030 333 59003 70000 82362==
41863,2023,08,16,03,00,AAXX 16034 41863 02957 02703 10320 20270 30000 40042 333 20278 59005 70000==
41863,2023,08,16,06,00,AAXX 16064 41863 02457 72703 10340 20270 39996 40037 84520 333 59002 70000 84618 87458==
41863,2023,08,16,09,00,AAXX 16094 41863 02456 63103 10352 20260 39971 40012 82520 333 58003 70000 82618 86458==
41863,2023,08,16,12,00,AAXX 16124 41863 02456 80902 10300 20270 39971 40013 8552/ 333 58001 70000 85618 88458==
41863,2023,08,16,15,00,AAXX 16154 41863 02450 81301 10295 20270 39990 40032 8552/ 333 59002 70000 85618 88458==
41863,2023,08,16,18,00,AAXX 16184 41863 02450 80000 10290 20270 30002 40044 8552/ 333 58002 70000 85618 88458==
41863,2023,08,16,21,00,AAXX 16214 41863 02450 80000 10285 20270 39999 40041 8552/ 333 58004 70000 85618 88458==
41863,2023,08,17,00,00,AAXX 17004 41863 02450 83101 10280 20260 39996 40038 8552/ 333 58003 70000 85618 88458==
41863,2023,08,17,03,00,AAXX 17034 41863 02957 00903 10313 20260 39997 40039 333 20276 59003 70000==
41863,2023,08,17,06,00,AAXX 17064 41863 02457 50903 10340 20270 39995 40036 83520 333 59001 70000 83618 85458==
41863,2023,08,17,09,00,AAXX 17094 41863 02457 60501 10351 20260 39967 40008 83520 333 59004 70000 83618 86458==
41863,2023,08,17,12,00,AAXX 17124 41863 01456 83102 10287 20270 39969 40011 70362 8552/ 333 10362 59002 70130 85618 88458==
41863,2023,08,17,15,00,AAXX 17154 41863 02456 63101 10285 20270 39986 40028 83520 333 59004 70134 83618 86458==
41863,2023,08,17,18,00,AAXX 17184 41863 02450 63101 10290 20280 39995 40037 83520 333 59007 70134 83618 86458==
41863,2023,08,17,21,00,AAXX 17214 41863 02450 60901 10285 20280 39982 40024 83520 333 59017 70134 83618 86458==
41881,2023,08,11,00,00,AAXX 11004 41881 32456 81801 10280 20270 30038 40058 8552/ 333 56999 58018 70000 85616 88459=
41881,2023,08,11,06,00,AAXX 11064 41881 32457 80000 10322 20260 30022 40041 8552/ 333 56999 59018 70000 85616 88459=
41881,2023,08,11,12,00,AAXX 11124 41881 32456 82302 10290 20270 39991 40011 8552/ 333 10350 56999 59024 70000 85616 88459=
41881,2023,08,11,18,00,AAXX 11184 41881 32450 80501 10279 20270 30024 40044 8552/ 333 56999 59019 70000 85616 88459=
41881,2023,08,11,21,00,AAXX 11214 41881 32456 72202 10310 20270 30006 40025 84520 333 56990 59016 70000 84616 87459=
41881,2023,08,12,00,00,AAXX 12004 41881 32450 81801 10276 20270 39996 40016 8552/ 333 56999 59042 70000 85616 88459=
41881,2023,08,12,06,00,AAXX 12064 41881 32456 72202 10310 20270 30006 40025 84520 333 56990 59016 70000 84616 87459=
41881,2023,08,12,12,00,AAXX 12124 41881 32456 82303 10280 20260 39974 49994 8552/ 333 10320 56999 59017 70000 85616 88459=
41881,2023,08,12,18,00,AAXX 12184 41881 32450 82301 10270 20260 39992 40012 8552/ 333 56999 59032 70000 85616 88459=
41881,2023,08,13,00,00,AAXX 13004 41881 11345 82201 10265 20260 39994 40014 60027 76162 8572/ 333 56399 59002 70020 83709 85615 88458=
41881,2023,08,13,06,00,AAXX 13064 41881 32456 80901 10290 20260 30027 40047 8552/ 333 56299 58021 70020 85616 88459=
41881,2023,08,13,12,00,AAXX 13124 41881 32456 80000 10290 20260 30007 40027 8552/ 333 10300 56999 58033 70020 85616 88459=
41881,2023,08,14,00,00,AAXX 14004 41881 32450 80000 10265 20265 30023 40043 8552/ 333 56999 58029 70068 85616 88459=
41881,2023,08,14,06,00,AAXX 14064 41881 32458 60201 10330 20260 30032 40052 83520 333 56990 58005 70068 83616 86459=
41881,2023,08,14,18,00,AAXX 14184 41881 NIL=
41881,2023,08,15,00,00,AAXX 15004 41881 NIL=
41881,2023,08,15,06,00,AAXX 15064 41881 32458 60000 10336 20270 30027 40046 83520 333 56990 59005 70000 83616 86459=
41881,2023,08,15,12,00,AAXX 15124 41881 32456 41801 10320 20260 30001 40020 84500 333 10345 56900 58002 70000 84618=
41881,2023,08,15,18,00,AAXX 15184 41881 32450 31401 10287 20280 30026 40046 83500 333 56900 58001 70000 83617=
41881,2023,08,16,00,00,AAXX 16004 41881 32456 82201 10283 20270 30021 40041 8552/ 333 56999 58003 70000 85616 88459=
41881,2023,08,16,06,00,AAXX 16064 41881 32457 53102 10350 20260 30015 40035 83520 333 56990 59012 70000 83618 85459=
41881,2023,08,16,12,00,AAXX 16124 41881 32457 50000 10295 20260 39993 40013 83520 333 10360 56990 59008 70000 83618 85459=
41881,2023,08,16,18,00,AAXX 16184 41881 32450 80000 10282 20270 30020 40040 8552/ 333 56999 59006 70000 85616 88459=
41881,2023,08,17,00,00,AAXX 17004 41881 32456 43601 10280 20270 30013 40033 84500 333 56900 58008 70000 84618=
41881,2023,08,17,06,00,AAXX 17064 41881 32457 60502 10342 20260 30013 40033 83520 333 56990 59002 70000 83616 86459=
41881,2023,08,17,12,00,AAXX 17124 41881 32456 73201 10305 20270 39986 40006 84520 333 10350 56990 59007 70000 84618 87459=
41881,2023,08,17,18,00,AAXX 17184 41881 11340 82301 10268 20260 30020 40040 60404 76196 8572/ 333 56399 58000 70403 83709 85615 88458=
41883,2023,08,11,00,00,AAXX 11004 41883 42340 80000 10282 20260 30022 40042 8562/ 333 58000 85709 88458==
41883,2023,08,11,03,00,AAXX 11034 41883 42456 61304 10300 20250 30035 40055 84530 333 20278 59005 84616 86362==
41883,2023,08,11,06,00,AAXX 11064 41883 42456 60000 10335 20260 30022 40042 83430 333 59018 82616 86362==
41883,2023,08,11,09,00,AAXX 11094 41883 02456 62302 10350 20260 39995 40015 83530 333 59021 70000 83616 86362==
41883,2023,08,11,12,00,AAXX 11124 41883 02340 82303 10310 20270 30000 40020 8562/ 333 10351 59012 70000 85709 88458==
41883,2023,08,11,15,00,AAXX 11154 41883 01330 80000 10285 20280 30021 40041 70262 8562/ 333 59009 70142 85709 88458==
41883,2023,08,11,18,00,AAXX 11184 41883 12330 80000 10287 20270 30023 40043 60146 8562/ 333 59018 70142 85709 88458==
41883,2023,08,11,21,00,AAXX 11214 41883 02430 80000 10280 20260 30014 40034 8562/ 333 59013 70142 85709 88458==
41883,2023,08,12,00,00,AAXX 12004 41883 01340 80000 10280 20270 39999 40019 76162 8572/ 333 59023 70005 85709 88458==
41883,2023,08,12,03,00,AAXX 12034 41883 02450 80000 10292 20270 30016 40036 8562/ 333 20270 59019 70147 83710 84618 88458==
41883,2023,08,12,06,00,AAXX 12064 41883 02450 82302 10320 20270 30008 40028 8562/ 333 59014 70147 82710 84618 88458==
41883,2023,08,12,09,00,AAXX 12094 41883 02456 70000 10320 20270 39974 49994 83510 333 59021 70147 83616 87459==
41883,2023,08,12,12,00,AAXX 12124 41883 01330 82304 10267 20260 39970 49996 79562 8532/ 333 10322 59024 70410 85709 88458 82930==
41883,2023,08,12,15,00,AAXX 12154 41883 01330 80000 10274 20260 39997 40017 72196 8562/ 333 59024 70442 85709 88458==
41883,2023,08,12,18,00,AAXX 12184 41883 01330 80000 10272 20260 30001 40021 76196 8572/ 333 59022 70454 85709 88458==
41883,2023,08,12,21,00,AAXX 12214 41883 01330 80000 10268 20260 39995 40015 76166 8572/ 333 59019 70464 85709 88458==
41883,2023,08,13,00,00,AAXX 13004 41883 01330 80000 10268 20260 39995 40015 76166 8572/ 333 59019 70464 85709 88458==
41883,2023,08,13,03,00,AAXX 13034 41883 01350 80000 10274 20260 30018 40038 76166 8572/ 333 20260 58002 70497 85709 88458==
41883,2023,08,13,06,00,AAXX 13064 41883 21350 80000 10280 20260 30030 40050 76166 8572/ 333 58022 60029 70517 85709 88458==
41883,2023,08,13,09,00,AAXX 13094 41883 01350 80000 10290 20270 30013 40033 76166 8572/ 333 58039 70517 83709 84615 88456==
41883,2023,08,13,12,00,AAXX 13124 41883 21450 80000 10288 20270 30006 40026 70262 8562/ 333 10292 58030 60018 70107 82710 84616 88456==
41883,2023,08,13,15,00,AAXX 13154 41883 02430 80000 10283 20270 30030 40050 8352/ 333 58033 70080 83616 88459==
41883,2023,08,13,18,00,AAXX 13184 41883 02430 80000 10278 20270 30034 40054 8552/ 333 58033 70068 85616 88459==
41883,2023,08,13,21,00,AAXX 13214 41883 02430 80000 10274 20260 30018 40038 8552/ 333 58023 70058 85616 88459==
41883,2023,08,14,00,00,AAXX 14004 41883 02440 60000 10268 20260 30023 40043 82530 333 58026 70030 82616 86362==
41883,2023,08,14,03,00,AAXX 14034 41883 02456 70000 10290 20260 30041 40061 84530 333 20264 58023 70020 84616 87362==
41883,2023,08,14,06,00,AAXX 14064 41883 02456 71802 10322 20250 30032 40052 84520 333 58002 70010 84616 87459==
41883,2023,08,14,09,00,AAXX 14094 41883 02456 60000 10340 20260 30005 40025 83810 333 59008 70000 83616 86459==
41883,2023,08,14,12,00,AAXX 14124 41883 02440 70000 10324 20260 39997 40017 85820 333 10346 59009 70000 84616 87458==
41883,2023,08,14,15,00,AAXX 14154 41883 01430 80000 10276 20270 30021 40041 70362 8562/ 333 59009 70660 82710 84618 88458==
41883,2023,08,14,18,00,AAXX 14184 41883 11430 80000 10278 20270 30028 40048 60666 70262 8562/ 333 59006 70660 82710 84618 88458==
41883,2023,08,14,21,00,AAXX 14214 41883 02430 80000 10282 20270 30015 40035 8452/ 333 59003 70660 84618 88458==
41883,2023,08,15,00,00,AAXX 15004 41883 02440 80000 10282 20270 30019 40039 8562/ 333 59004 70660 82710 84618 88458==
41883,2023,08,15,03,00,AAXX 15034 41883 02450 80000 10290 20270 30026 40046 8552/ 333 20261 59015 70660 85616 88458==
41883,2023,08,15,06,00,AAXX 15064 41883 02456 60000 10322 20260 30026 40046 83510 333 59006 70660 83616 86459==
41883,2023,08,15,09,00,AAXX 15094 41883 02456 70000 10335 20250 30013 40033 84520 333 58005 70660 84616 87459==
41883,2023,08,15,12,00,AAXX 15124 41883 02956 40000 10322 20250 39998 40018 80001 333 10345 58001 70600 84080==
41883,2023,08,15,15,00,AAXX 15154 41883 02430 60000 10302 20270 30015 40035 83510 333 59006 70000 83615 86458==
41883,2023,08,15,18,00,AAXX 15184 41883 02430 80000 10298 20270 30026 40046 8552/ 333 59002 70000 85615 88458==
41883,2023,08,15,21,00,AAXX 15214 41883 02330 80000 10290 20280 30021 40041 8562/ 333 58006 70000 85709 88458==
41883,2023,08,16,00,00,AAXX 16004 41883 02340 80000 10286 20280 30017 40037 8562/ 333 59002 70000 85709 88458==
41883,2023,08,16,03,00,AAXX 16034 41883 02456 40000 10315 20280 30026 40046 83510 333 20280 58000 70000 83616 84459==
41883,2023,08,16,06,00,AAXX 16064 41883 01450 60000 10304 20280 30021 40041 76122 84520 333 59005 70050 84616 86458==
41883,2023,08,16,09,00,AAXX 16094 41883 01456 80000 10314 20280 39993 40013 70362 8552/ 333 59020 70056 85615 88458==
41883,2023,08,16,12,00,AAXX 16124 41883 11450 60000 10310 20270 39996 40016 69961 70162 83510 333 10338 59002 70056 83616 86459==
41883,2023,08,16,15,00,AAXX 16154 41883 02/30 60000 10300 20270 30013 40033 86030 333 59002 70056 86362==
41883,2023,08,16,18,00,AAXX 16184 41883 02430 80000 10296 20280 30024 40044 8552/ 333 59002 70056 85616 88458==
41883,2023,08,16,21,00,AAXX 16214 41883 02430 80000 10292 20270 30019 40039 8552/ 333 59002 70056 85616 88458==
41883,2023,08,17,00,00,AAXX 17004 41883 02440 80000 10286 20280 30016 40036 8552/ 333 59001 70056 85616 88458==
41883,2023,08,17,03,00,AAXX 17034 41883 02450 40000 10324 20270 30018 40038 82520 333 20280 59008 70056 82618 84458==
41883,2023,08,17,06,00,AAXX 17064 41883 02450 60902 10350 20270 30013 40033 84520 333 59008 70006 84618 86458==
41883,2023,08,17,09,00,AAXX 17094 41883 02456 30902 10256 20260 39983 40002 83400 333 59010 70000 82616==
41883,2023,08,17,12,00,AAXX 17124 41883 01456 40000 10325 20290 39985 40005 72122 82430 333 10360 59011 70004 82616 84362==
41883,2023,08,17,15,00,AAXX 17154 41883 01330 80000 10317 20290 30009 40029 71322 8532/ 333 59004 70004 85616 88459 81930==
41883,2023,08,17,18,00,AAXX 17184 41883 21330 80000 10276 20270 30018 40038 72996 8562/ 333 59006 60188 70184 85709 88458==
41883,2023,08,17,21,00,AAXX 17214 41883 02330 80000 10282 20260 30013 40033 8562/ 333 59006 70184 85709 88458==
41886,2023,08,11,00,00,AAXX 11004 41886 02456 80000 10270 20260 30032 40052 8452/ 333 58005 70000 84616 88458==
41886,2023,08,11,03,00,AAXX 11034 41886 02456 80000 10280 20260 30043 40063 8452/ 333 10270 59002 70000 84616 88458==
41886,2023,08,11,06,00,AAXX 11064 41886 02457 80000 10320 20270 30032 40052 8351/ 333 59015 70000 83618 88460==
41886,2023,08,11,09,00,AAXX 11094 41886 01350 80000 10282 20270 30009 40029 79522 8632/ 333 59014 70112 83708 85615 88458 81928==
41886,2023,08,11,12,00,AAXX 11124 41886 11456 70000 10286 20270 30007 40027 60126 70196 82570 333 10325 59017 70116 82618 84460 85362==
41886,2023,08,11,15,00,AAXX 11154 41886 02450 80000 10282 20270 30027 40047 8352/ 333 59017 70116 83616 88458==
41886,2023,08,11,18,00,AAXX 11184 41886 02450 80000 10280 20270 30027 40047 8352/ 333 59013 70116 83618 88458==
41886,2023,08,11,21,00,AAXX 11214 41886 02450 80000 10278 20270 30020 40040 8352/ 333 59016 70116 83616 88458==
41886,2023,08,12,00,00,AAXX 12004 41886 02450 80000 10278 20270 30013 40033 8352/ 333 59019 70116 83616 88458==
41886,2023,08,12,03,00,AAXX 12034 41886 02456 70000 10298 20270 30023 40043 84510 333 20272 59020 70116 84616 87460==
41886,2023,08,12,06,00,AAXX 12064 41886 02456 80000 10312 20270 30012 40032 8552/ 333 59020 70116 85616 88458==
41886,2023,08,12,09,00,AAXX 12094 41886 01456 80000 10314 20270 39988 40108 71796 8591/ 333 59021 70028 83617 88460 81930==
41886,2023,08,12,12,00,AAXX 12124 41886 01456 80000 10290 20270 39984 40104 72196 8532/ 333 10320 59023 70026 83616 88460 81930==
41886,2023,08,12,15,00,AAXX 12154 41886 01440 80000 10272 20260 30007 40027 79596 8592/ 333 59020 70376 84616 88458 81930==
41886,2023,08,12,18,00,AAXX 12184 41886 21440 80000 10268 20268 30007 40027 79596 8592/ 333 59020 60439 70460 84616 88458 81930==
41886,2023,08,12,21,00,AAXX 12214 41886 01440 80000 10268 20260 30005 40025 79596 8592/ 333 59015 70550 84616 88458 81930==
41886,2023,08,13,00,00,AAXX 13004 41886 01450 80000 10268 20260 30004 40024 76196 8532/ 333 59009 70614 84616 88458 81930==
41886,2023,08,13,03,00,AAXX 13034 41886 01450 80000 10270 20260 30029 40049 76366 8532/ 333 20264 58006 70704 84616 88458 81930==
41886,2023,08,13,06,00,AAXX 13064 41886 21450 80000 10271 20260 30036 40056 76366 8532/ 333 58012 60169 70778 84616 88458 81930==
41886,2023,08,13,09,00,AAXX 13094 41886 01456 80000 10263 20240 30015 40035 76166 8432/ 333 58027 70888 83616 88458 81930==
41886,2023,08,13,12,00,AAXX 13124 41886 21456 80000 10293 20260 30010 40030 58026 70888 88460 333 60118==
41886,2023,08,13,15,00,AAXX 13154 41886 02450 70000 10270 20250 30035 40055 83510 333 58028 70538 83618 87460==
41886,2023,08,13,18,00,AAXX 13184 41886 02450 70000 10268 20260 30038 40058 83510 333 58031 70454 82618 87460==
41886,2023,08,13,21,00,AAXX 13214 41886 02450 70000 10268 20260 30027 40047 82510 333 58022 70340 82618 87460==
41886,2023,08,14,00,00,AAXX 14004 41886 01440 80000 10267 20260 30025 40045 70522 8352/ 333 58021 70276 83618 88460==
41886,2023,08,14,03,00,AAXX 14034 41886 01450 80000 10292 20260 30043 40063 70522 8351/ 333 20253 58014 70186 83618 88460==
41886,2023,08,14,06,00,AAXX 14064 41886 02456 80000 10308 20270 30036 40056 8432/ 333 58000 70112 83616 88458 81930==
41886,2023,08,14,09,00,AAXX 14094 41886 01456 80000 10294 20270 30014 40034 76062 8432/ 333 59001 70052 83618 88458 81930==
41886,2023,08,14,15,00,AAXX 14154 41886 02456 80000 10285 20260 30029 40049 8352/ 333 59006 70050 83618 88460==
41886,2023,08,14,18,00,AAXX 14184 41886 NIL=
41886,2023,08,15,00,00,AAXX 15004 41886 01450 80000 10282 20270 30025 40045 70522 8352/ 333 58000 70050 83618 88460==
41886,2023,08,15,03,00,AAXX 15034 41886 01450 80000 10277 20270 30035 40055 70262 8352/ 333 20274 59008 70060 83618 88460==
41886,2023,08,15,06,00,AAXX 15064 41886 11456 80000 10310 20270 30034 40054 60016 70262 8352/ 333 59002 70060 83618 88460==
41886,2023,08,15,09,00,AAXX 15094 41886 02456 80000 10320 20270 30010 40030 8352/ 333 59004 70010 83618 88460==
41886,2023,08,15,12,00,AAXX 15124 41886 02456 60000 10314 20260 30004 40024 84470 333 10330 59002 70010 83618 85460==
41886,2023,08,15,15,00,AAXX 15154 41886 02456 60000 10295 20270 30026 40046 84470 333 59003 70010 83618 85460==
41886,2023,08,15,18,00,AAXX 15184 41886 NIL=
41886,2023,08,15,21,00,AAXX 15214 41886 02440 60000 10285 20270 30027 40047 84470 333 59001 70010 83618 85460==
41886,2023,08,16,00,00,AAXX 16004 41886 02450 80000 10280 20270 30019 40039 8352/ 333 59006 70010 83618 88460==
41886,2023,08,16,03,00,AAXX 16034 41886 02450 80000 10300 20270 30036 40056 8352/ 333 20274 58001 70000 83618 88460==
41886,2023,08,16,06,00,AAXX 16064 41886 02457 60000 10334 20270 30029 40049 84470 333 59005 70000 83618 85460==
41886,2023,08,16,09,00,AAXX 16094 41886 02457 51302 10335 20280 39999 40019 84470 333 59011 70000 83618 85460==
41886,2023,08,16,12,00,AAXX 16124 41886 02456 70000 10335 20280 30000 40020 83510 333 10337 59011 70000 83618 87460==
41886,2023,08,16,15,00,AAXX 16154 41886 02450 70000 10300 20290 30027 40047 82510 333 58001 70000 82618 87460==
41886,2023,08,16,18,00,AAXX 16184 41886 01450 81802 10277 20270 30030 40050 79522 8432/ 333 58000 70170 83616 88458 81930==
41886,2023,08,16,21,00,AAXX 16214 41886 01450 80000 10270 20260 30022 40042 70296 8251/ 333 59005 70329 82618 88460==
41886,2023,08,17,00,00,AAXX 17004 41886 11440 80000 10270 20260 30017 40037 60336 70596 8331/ 333 59002 70329 83618 88460 81930==
41886,2023,08,17,03,00,AAXX 17034 41886 02457 20000 10313 20270 30025 40045 82400 333 20264 59011 70329 82618==
41886,2023,08,17,06,00,AAXX 17064 41886 02457 60000 10345 20270 30017 40037 83470 333 59012 70329 83618 85460==
41886,2023,08,17,09,00,AAXX 17094 41886 02457 50000 10352 20270 39987 40007 84470 333 59012 70329 82618 85365==
41886,2023,08,17,12,00,AAXX 17124 41886 02457 60000 10337 20270 39990 40010 83470 333 10356 59010 70329 82618 85365==
41886,2023,08,17,15,00,AAXX 17154 41886 02450 60000 10315 20280 30020 40040 83570 333 59007 70329 83618 85365==
41886,2023,08,17,18,00,AAXX 17184 41886 02450 80000 10305 20280 30028 40048 8352/ 333 59002 70155 83616 88458==
41886,2023,08,17,21,00,AAXX 17214 41886 01350 80000 10280 20270 30012 40032 70296 8672/ 333 59010 70012 82710 85616 88458==
41888,2023,08,11,00,00,AAXX 11004 41888 32456 80902 10270 20260 30043 40053 8352/ 333 56999 58008 70040 83618 88460=
41888,2023,08,11,06,00,AAXX 11064 41888 32456 80902 10300 20260 30037 40047 8352/ 333 56999 59015 70040 83618 88460=
41888,2023,08,11,12,00,AAXX 11124 41888 11457 50901 10285 20270 30013 40023 60147 70196 83570 333 10310 56990 59017 70140 83618 84460=
41888,2023,08,11,18,00,AAXX 11184 41888 32456 60901 10282 20270 30040 40050 83570 333 56990 59012 70140 83618 85460=
41888,2023,08,11,21,00,AAXX 11214 41888 32457 82703 10312 20270 30017 40027 8462/ 333 56699 59020 70140 81710 84618 88460=
41888,2023,08,12,00,00,AAXX 12004 41888 32456 61803 10278 20270 30020 40030 83570 333 56990 59023 70140 83618 85460=
41888,2023,08,12,06,00,AAXX 12064 41888 32457 82703 10312 20270 30017 40027 8462/ 333 56699 59020 70140 81710 84618 88460=
41888,2023,08,12,12,00,AAXX 12124 41888 11340 80701 10284 20260 39993 40003 60033 70596 8462/ 333 10320 56999 59020 70030 82710 84618 88459=
41888,2023,08,12,18,00,AAXX 12184 41888 11330 82706 10264 20260 30016 40026 60209 76196 8472/ 333 56999 59024 70226 82708 84615 88457=
41888,2023,08,13,00,00,AAXX 13004 41888 11340 81801 10263 20260 30013 40023 60033 76066 8472/ 333 56999 59007 70256 82708 84616 88458=
41888,2023,08,13,06,00,AAXX 13064 41888 11340 81501 10268 20260 30042 40052 60399 76166 8472/ 333 56999 58025 70648 82708 84616 88458=
41888,2023,08,13,12,00,AAXX 13124 41888 11450 80601 10275 20260 30015 40025 60016 70362 8352/ 333 10289 56999 58022 70625 83616 88458=
41888,2023,08,13,18,00,AAXX 13184 41888 31440 82301 10272 20250 30045 40055 70522 8352/ 333 56999 58029 70429 83618 88458=
41888,2023,08,14,00,00,AAXX 14004 41888 31440 80601 10268 20260 30031 40041 70522 8452/ 333 56999 58018 70399 84616 88458=
41888,2023,08,14,06,00,AAXX 14064 41888 32350 80602 10298 20270 30044 40054 8462/ 333 56999 58002 70007 82708 84616 88458=
41888,2023,08,14,18,00,AAXX 14184 41888 NIL=
41888,2023,08,15,00,00,AAXX 15004 41888 NIL=
41888,2023,08,15,06,00,AAXX 15064 41888 11450 80901 10285 20270 30039 40049 60158 70296 8352/ 333 56999 59005 70197 83616 88458=
41888,2023,08,15,12,00,AAXX 15124 41888 32456 60902 10300 20270 30009 40019 82510 333 10322 56990 59003 70180 82618 86460=
41888,2023,08,15,18,00,AAXX 15184 41888 31440 50901 10280 20270 30045 40055 70522 82510 333 56990 58004 70180 82618 85460=
41888,2023,08,16,00,00,AAXX 16004 41888 31440 80901 10280 20270 30029 40039 70522 8352/ 333 56999 59005 70152 83616 88458=
41888,2023,08,16,06,00,AAXX 16064 41888 32456 50901 10320 20270 30034 40044 83510 333 56990 59005 70000 83618 85460=
41888,2023,08,16,12,00,AAXX 16124 41888 32456 51801 10313 20260 30005 40015 82530 333 10325 56990 59004 70000 82618 85365=
41888,2023,08,16,18,00,AAXX 16184 41888 32450 70601 10295 20280 30033 40043 82510 333 56990 59012 70000 82618 87460=
41888,2023,08,17,00,00,AAXX 17004 41888 32456 20000 10274 20260 30022 40032 82500 333 56900 59007 70000 82618=
41888,2023,08,17,06,00,AAXX 17064 41888 32456 50604 10342 20270 30023 40033 83510 333 56990 59011 70000 83618 85460=
41888,2023,08,17,12,00,AAXX 17124 41888 32456 70901 10331 20250 39999 40009 83510 333 10353 56990 59006 70000 83618 87460=
41888,2023,08,17,18,00,AAXX 17184 41888 11340 80902 10284 20260 30032 40042 60014 71796 8492/ 333 56999 59001 70007 82710 83616 81928 88458=
41891,2023,08,11,00,00,AAXX 11004 41891 11430 82603 10270 20260 30016 40054 60006 70562 8632/ 333 58000 70070 85708 88458 81928==
41891,2023,08,11,03,00,AAXX 11034 41891 01435 82302 10280 20260 30027 40065 70522 8532/ 333 20264 59002 70070 82710 84615 88459 81930==
41891,2023,08,11,06,00,AAXX 11064 41891 11435 71802 10304 20260 30018 40056 69942 72162 84370 333 59012 70074 84615 86460 81930==
41891,2023,08,11,09,00,AAXX 11094 41891 01445 81802 10287 20260 30014 40052 70522 8532/ 333 58005 70004 82710 84615 88459 81930==
41891,2023,08,11,12,00,AAXX 11124 41891 01320 81803 10270 20260 30046 40084 76162 8632/ 333 10320 58040 70130 86708 88458 81925==
41891,2023,08,11,15,00,AAXX 11154 41891 01430 81002 10265 20260 30013 40051 72166 8532/ 333 59019 70140 82710 84615 88459 81930==
41891,2023,08,11,18,00,AAXX 11184 41891 01320 82702 10260 20250 30013 40051 76066 8632/ 333 59015 70146 86708 88458 81925==
41891,2023,08,11,21,00,AAXX 11214 41891 41320 81802 10260 20250 39998 40036 59022 70152 88458==
41891,2023,08,12,00,00,AAXX 12004 41891 01430 81202 10260 20250 30000 40038 70562 8532/ 333 59016 70154 82710 84615 88459 81930==
41891,2023,08,12,03,00,AAXX 12034 41891 01435 81802 10274 20250 30009 40047 70522 8532/ 333 20260 59018 70154 82710 84615 88459 81930==
41891,2023,08,12,06,00,AAXX 12064 41891 01435 81902 10303 20260 30001 40039 70522 8532/ 333 59017 70150 82710 84615 88459 81930==
41891,2023,08,12,09,00,AAXX 12094 41891 01445 81802 10312 20260 39967 40004 70562 8532/ 333 59047 70155 82710 84615 88459 81930==
41891,2023,08,12,12,00,AAXX 12124 41891 01320 80502 10272 20260 30005 40043 76162 8632/ 333 10317 59041 70187 86708 88459 81925==
41891,2023,08,12,15,00,AAXX 12154 41891 01330 81503 10267 20160 39998 40036 76166 8632/ 333 59015 70203 85708 88458 81926==
41891,2023,08,12,18,00,AAXX 12184 41891 21430 82003 10267 20250 39997 40035 70562 8632/ 333 59020 60028 70197 85708 88458 81926==
41891,2023,08,12,21,00,AAXX 12214 41891 01330 81103 10260 20250 39988 40026 76162 8632/ 333 59010 70261 85708 88458 81926==
41891,2023,08,13,00,00,AAXX 13004 41891 01330 81103 10260 20250 39994 40032 70562 8632/ 333 59006 70339 85708 88458 81926==
41891,2023,08,13,03,00,AAXX 13034 41891 01320 81304 10268 20260 30018 40056 76166 8632/ 333 20256 58009 70339 86708 88458 81925==
41891,2023,08,13,06,00,AAXX 13064 41891 21430 80903 10278 20260 30020 40058 72166 8532/ 333 58019 60019 70341 83710 84615 88459 81930==
41891,2023,08,13,09,00,AAXX 13094 41891 01430 80604 10290 20260 39994 40032 70522 8532/ 333 58027 70336 82710 84615 88459 81930==
41891,2023,08,13,12,00,AAXX 13124 41891 01430 80303 10290 20260 39987 40025 70522 8532/ 333 10302 59018 70172 82710 84615 88459 81930==
41891,2023,08,13,15,00,AAXX 13154 41891 01430 82702 10275 20260 30011 40049 70522 8532/ 333 58013 70152 82710 84615 88459 81930==
41891,2023,08,13,18,00,AAXX 13184 41891 01430 82702 10272 20260 30017 40055 70522 8532/ 333 58020 70152 82710 84615 88459 81930==
41891,2023,08,13,21,00,AAXX 13214 41891 01320 80903 10265 20270 30013 40051 76162 8632/ 333 58025 70222 86708 88458 81925==
41891,2023,08,14,00,00,AAXX 14004 41891 21320 80902 10260 20260 30008 40046 76166 8632/ 333 58014 60259 70258 86708 88458 81925==
41891,2023,08,14,03,00,AAXX 14034 41891 01430 81802 10272 20250 30026 40064 72166 8532/ 333 20260 58008 70306 83710 84615 88459 81930==
41891,2023,08,14,06,00,AAXX 14064 41891 11440 73602 10300 20250 30018 40056 60066 70562 84370 333 59002 70304 84615 86460 81930==
41891,2023,08,14,09,00,AAXX 14094 41891 01450 63404 10305 20260 39994 40032 70522 84310 333 58000 70304 83616 86460 81930==
41891,2023,08,14,12,00,AAXX 14124 41891 01450 63604 10295 20260 39985 40023 70522 84310 333 10315 59002 70304 83616 86460 81930==
41891,2023,08,14,15,00,AAXX 14154 41891 01430 83603 10282 20260 30009 40047 70522 8532/ 333 59002 70304 82710 84615 88459 81930==
41891,2023,08,14,18,00,AAXX 14184 41891 01430 80603 10275 20270 30012 40050 70522 8532/ 333 59005 70304 82710 84615 88459 81930==
41891,2023,08,14,21,00,AAXX 14214 41891 01320 80802 10272 20260 30008 40046 76322 8632/ 333 59005 70264 86708 88458 81925==
41891,2023,08,15,00,00,AAXX 15004 41891 21430 80803 10265 20260 30009 40047 70562 8532/ 333 58001 60255 70308 82710 84615==
41891,2023,08,15,03,00,AAXX 15034 41891 01325 81304 10274 20260 30016 40054 76022 8632/ 333 20265 59010 70262 86708 88458 81925==
41891,2023,08,15,06,00,AAXX 15064 41891 01435 80902 10280 20260 30017 40055 72162 8532/ 333 59001 70253 83710 84615 88459 81930==
41891,2023,08,15,09,00,AAXX 15094 41891 01445 80000 10305 20260 39987 40025 70522 8532/ 333 59007 70253 82710 84615 88459 81930==
41891,2023,08,15,12,00,AAXX 15124 41891 01440 82702 10293 20270 39987 40025 70522 8532/ 333 10310 58002 70253 81710 84615 88459 81930==
41891,2023,08,15,15,00,AAXX 15154 41891 01430 82703 10280 20270 30012 40050 70522 8532/ 333 58003 70253 81710 84616 88459 81930==
41891,2023,08,15,18,00,AAXX 15184 41891 01430 82703 10278 20270 30017 40055 70522 8532/ 333 58005 70253 81710 84616 88459 81930==
41891,2023,08,15,21,00,AAXX 15214 41891 01430 82703 10275 20270 30018 40056 70522 8532/ 333 58010 70103 81710 84616 88459 81930==
41891,2023,08,16,00,00,AAXX 16004 41891 01430 82703 10273 20270 30009 40047 70522 8532/ 333 58015 70003 81710 84616 88459 81930==
41891,2023,08,16,03,00,AAXX 16034 41891 01440 82303 10283 20260 30021 40059 70522 8532/ 333 20270 58005 70001 82710 84615 88459 81930==
41891,2023,08,16,06,00,AAXX 16064 41891 01440 71302 10308 20260 30011 40049 70522 84370 333 59006 70000 84615 86460 81930==
41891,2023,08,16,09,00,AAXX 16094 41891 01450 62703 10325 20270 39979 40016 70522 83370 333 59008 70000 83615 85460 81930==
41891,2023,08,16,12,00,AAXX 16124 41891 01440 71203 10310 20270 39978 40015 70522 84370 333 10332 59009 70000 84615 86460 81930==
41891,2023,08,16,15,00,AAXX 16154 41891 01435 63102 10290 20270 30002 40040 70522 83340 333 59010 70000 83615 85365 81930==
41891,2023,08,16,18,00,AAXX 16184 41891 01430 60000 10281 20270 30006 40044 70522 83340 333 59011 70000 83615 85365 81930==
41891,2023,08,16,21,00,AAXX 16214 41891 01430 60000 10278 20270 30001 40039 70522 83340 333 59017 70000 83615 85365 81930==
41891,2023,08,17,00,00,AAXX 17004 41891 01430 60902 10275 20270 39997 40035 70522 83340 333 59012 70000 83615 85460 81930==
41891,2023,08,17,03,00,AAXX 17034 41891 01445 30906 10314 20260 30003 40041 70511 81530 333 20275 59018 70000 81615 83365==
41891,2023,08,17,06,00,AAXX 17064 41891 01450 31302 10348 20260 39992 40029 70511 81430 333 59019 70000 81615 83365==
41891,2023,08,17,09,00,AAXX 17094 41891 01450 51604 10365 20250 39964 40002 70521 84330 333 59015 70000 83616 85365 81930==
41891,2023,08,17,12,00,AAXX 17124 41891 01450 53404 10345 20280 39969 40007 70521 84330 333 10368 59009 70000 83616 85365 81930==
41891,2023,08,17,15,00,AAXX 17154 41891 01430 81203 10290 20280 30006 40044 72996 8532/ 333 58004 70082 82710 84615 88459 81930==
41891,2023,08,17,18,00,AAXX 17184 41891 11430 81503 10278 20260 30007 40045 60086 70596 8532/ 333 58001 70082 82710 84615 88459 81930==
41891,2023,08,17,21,00,AAXX 17214 41891 01430 81003 10275 20270 30008 40046 70596 8532/ 333 58007 70094 82710 84615 88459 81930==
41895,2023,08,11,00,00,AAXX 11004 41895 02450 82301 10280 20280 30024 40046 8352/ 333 58001 70000 83616 88458==
41895,2023,08,11,03,00,AAXX 11034 41895 02456 62302 10305 20280 30030 40052 83510 333 20278 59009 70000 83616 86458==
41895,2023,08,11,06,00,AAXX 11064 41895 02457 32302 10350 20270 30016 40038 83400 333 59025 70000 81617 83825==
41895,2023,08,11,09,00,AAXX 11094 41895 02456 82301 10334 20280 39993 40015 8352/ 333 59024 70000 83616 88458==
41895,2023,08,11,12,00,AAXX 11124 41895 11450 82301 10274 20260 30000 40023 60332 76196 8352/ 333 10360 59014 70330 83616 88458==
41895,2023,08,11,15,00,AAXX 11154 41895 02450 82301 10278 20260 30020 40042 8352/ 333 59014 70330 84616 88458==
41895,2023,08,11,18,00,AAXX 11184 41895 02450 80000 10276 20270 30021 40043 8352/ 333 59017 70330 83616 88458==
41895,2023,08,11,21,00,AAXX 11214 41895 02450 80000 10274 20260 30019 40041 8352/ 333 59008 70330 83616 88458==
41895,2023,08,12,00,00,AAXX 12004 41895 02450 82301 10272 20260 30001 40023 8352/ 333 59023 70330 83616 88458==
41895,2023,08,12,03,00,AAXX 12034 41895 02456 83101 10300 20270 30016 40038 83520 333 20268 59014 70330 83616 86458==
41895,2023,08,12,06,00,AAXX 12064 41895 02457 63102 10320 20280 30011 40033 83520 333 59005 70330 83616 86458==
41895,2023,08,12,09,00,AAXX 12094 41895 01450 81802 10276 20270 39976 49998 79596 8532/ 333 59017 70468 84615 88458 81928==
41895,2023,08,12,12,00,AAXX 12124 41895 21450 81801 10270 20270 39981 40003 79596 8532/ 333 10327 59019 60229 70220 84615 88458 81928==
41895,2023,08,12,15,00,AAXX 12154 41895 01450 81802 10268 20268 39993 40015 79596 8532/ 333 59027 70243 84615 88458 81928==
41895,2023,08,12,18,00,AAXX 12184 41895 21450 81802 10270 20270 30008 40030 79596 8532/ 333 59013 60039 70247 84615 88458 81928==
41895,2023,08,12,21,00,AAXX 12214 41895 01450 81801 10264 20260 39990 40013 70296 8452/ 333 59029 70247 84615 88458==
41895,2023,08,13,00,00,AAXX 13004 41895 11450 81802 10263 20260 39994 40016 69996 70296 8452/ 333 59007 70247 84615 88458==
41895,2023,08,13,03,00,AAXX 13034 41895 02450 80000 10278 20270 30017 40039 8452/ 333 20260 58001 70247 84615 88458==
41895,2023,08,13,06,00,AAXX 13064 41895 02450 81802 10304 20270 30027 40049 8452/ 333 58016 70247 84615 88458==
41895,2023,08,13,09,00,AAXX 13094 41895 01450 83602 10275 20270 30011 40034 76162 8452/ 333 58035 70166 84615 88458==
41895,2023,08,13,12,00,AAXX 13124 41895 21450 80901 10280 20270 30007 40029 76162 8452/ 333 10305 58026 60079 70094 84615 88458==
41895,2023,08,13,15,00,AAXX 13154 41895 01450 81301 10270 20260 30027 40049 70262 8452/ 333 58034 70072 84615 88458==
41895,2023,08,13,18,00,AAXX 13184 41895 11450 80000 10265 20265 30031 40053 69916 70262 8452/ 333 58023 70068 84615 88458==
41895,2023,08,13,21,00,AAXX 13214 41895 02450 80000 10260 20260 30024 40046 8352/ 333 58034 70068 83616 88458==
41895,2023,08,14,00,00,AAXX 14004 41895 02450 60000 10255 20255 30022 40044 83520 333 58028 70068 83616 86458==
41895,2023,08,14,03,00,AAXX 14034 41895 02/57 40000 10296 20260 30039 40062 84030 333 20250 58022 70068 84362==
41895,2023,08,14,06,00,AAXX 14064 41895 02457 51802 10326 20270 30035 40056 82510 333 58008 70068 82616 85458==
41895,2023,08,14,09,00,AAXX 14094 41895 02457 51802 10342 20280 30006 40028 82510 333 59005 70011 82616 85458==
41895,2023,08,14,15,00,AAXX 14154 41895 02450 61801 10290 20260 30019 40041 83520 333 59008 70000 83616 86458==
41895,2023,08,14,18,00,AAXX 14184 41895 02450 61801 10286 20270 30029 40051 83520 333 59002 70000 83616 86458==
41895,2023,08,14,21,00,AAXX 14214 41895 02450 61801 10280 20260 30024 40046 83520 333 58000 70000 83616 86458==
41895,2023,08,15,00,00,AAXX 15004 41895 02450 80000 10276 20270 30020 40042 8452/ 333 59002 70000 84616 88458==
41895,2023,08,15,03,00,AAXX 15034 41895 02957 22302 10316 20270 30026 40048 80001 333 20272 59013 70000 82074==
41895,2023,08,15,06,00,AAXX 15064 41895 02457 53602 10344 20250 30023 40045 82510 333 59012 70000 82616 85458==
41895,2023,08,15,09,00,AAXX 15094 41895 01450 81802 10325 20280 30007 40029 71722 8532/ 333 58001 70000 84615 88458 81928==
41895,2023,08,15,12,00,AAXX 15124 41895 21450 80000 10300 20280 39995 40017 70296 8452/ 333 10350 59007 60035 70026 84615 88458==
41895,2023,08,15,15,00,AAXX 15154 41895 02450 50901 10282 20270 30020 40042 83510 333 58001 70026 83616 85458==
41895,2023,08,15,18,00,AAXX 15184 41895 NIL=
41895,2023,08,15,21,00,AAXX 15214 41895 02450 50000 10276 20270 30018 40040 83510 333 59006 70026 83616 85458==
41895,2023,08,16,00,00,AAXX 16004 41895 01450 50000 10274 20270 30016 40038 70522 83510 333 59004 70026 83616 85458==
41895,2023,08,16,03,00,AAXX 16034 41895 02957 02702 10322 20280 30023 40045 333 20271 59003 70026==
41895,2023,08,16,06,00,AAXX 16064 41895 02457 52302 10344 20280 30018 40039 82510 333 59005 70026 82616 85458==
41895,2023,08,16,09,00,AAXX 16094 41895 01456 80902 10295 20280 39996 40018 72192 8452/ 333 59011 70026 84615 88458==
41895,2023,08,16,12,00,AAXX 16124 41895 21456 81304 10300 20270 39993 40015 70296 8452/ 333 10353 59002 60005 84615 88458==
41895,2023,08,16,15,00,AAXX 16154 41895 42450 52301 10285 20280 30019 40041 83520 333 59001 83616 85458==
41895,2023,08,16,18,00,AAXX 16184 41895 42450 62302 10280 20270 30023 40045 83520 333 59006 83616 86458==
41895,2023,08,16,21,00,AAXX 16214 41895 42450 72301 10280 20270 30011 40033 83520 333 59007 83616 87458==
41895,2023,08,17,00,00,AAXX 17004 41895 42450 80000 10280 20270 30011 40034 8452/ 333 59005 84615 88458==
41895,2023,08,17,03,00,AAXX 17034 41895 42457 50502 10310 20280 30018 40040 83510 333 20272 59005 83616 85458==
41895,2023,08,17,06,00,AAXX 17064 41895 42457 60502 10334 20270 30013 40035 83510 333 59005 83616 86458==
41895,2023,08,17,09,00,AAXX 17094 41895 02457 60901 10346 20270 30013 40035 83510 333 59005 70000 83616 86458==
41895,2023,08,17,12,00,AAXX 17124 41895 02456 60000 10330 20280 39986 40001 83520 333 10356 59007 70000 83616 86458==
41895,2023,08,17,15,00,AAXX 17154 41895 02450 60901 10300 20280 30010 40032 83520 333 59009 70000 83616 86458==
41895,2023,08,17,18,00,AAXX 17184 41895 02450 80902 10286 20280 30017 40039 8452/ 333 59006 70000 84615 88458==
41895,2023,08,17,21,00,AAXX 17214 41895 02450 80901 10280 20270 30005 40027 8452/ 333 59006 70000 84615 88458==
41897,2023,08,11,00,00,AAXX 11004 41897 32450 51801 10275 20260 30035 40048 82530 333 56990 58005 70001 82618 85361=
41897,2023,08,11,06,00,AAXX 11064 41897 32450 50000 10325 20270 30029 40042 81510 333 56990 59000 70001 81618 85458=
41897,2023,08,11,12,00,AAXX 11124 41897 32456 61801 10309 20270 30004 40017 82510 333 10309 56990 59024 70000 82618 86458=
41897,2023,08,11,18,00,AAXX 11184 41897 11450 50000 10278 20260 30027 40040 60058 70162 82530 333 56990 59020 70050 82618 85361=
41897,2023,08,11,21,00,AAXX 11214 41897 32450 51801 10308 20280 30022 40035 82510 333 56990 59007 70100 82618 85458=
41897,2023,08,12,00,00,AAXX 12004 41897 11450 60000 10270 20260 30009 40022 60054 76162 83530 333 56990 59026 70100 83618 86361=
41897,2023,08,12,06,00,AAXX 12064 41897 32450 51801 10308 20280 30022 40035 82510 333 56990 59007 70100 82618 85458=
41897,2023,08,12,12,00,AAXX 12124 41897 11335 81802 10270 20250 39990 40003 60303 75165 8562/ 333 10327 56999 59014 70402 82708 85613 88458=
41897,2023,08,12,18,00,AAXX 12184 41897 11325 81904 10270 20260 30011 40024 60029 76165 8572/ 333 56999 59016 70370 83707 85612 88458=
41897,2023,08,13,00,00,AAXX 13004 41897 11325 81802 10265 20260 30007 40020 60019 75155 8572/ 333 56499 59002 70332 83707 85612 88458=
41897,2023,08,13,06,00,AAXX 13064 41897 11330 81802 10271 20260 30038 40051 60049 76165 8572/ 333 56499 58016 70375 83707 85612 88458=
41897,2023,08,13,12,00,AAXX 13124 41897 11435 81601 10280 20260 30013 40026 60018 70262 8452/ 333 10285 56999 58023 70083 84615 88458=
41897,2023,08,13,18,00,AAXX 13184 41897 32435 51601 10260 20250 30038 40051 82530 333 56990 58027 70065 82616 85360=
41897,2023,08,14,00,00,AAXX 14004 41897 11430 80000 10265 20260 30028 40041 69924 70252 8452/ 333 56999 58021 70055 84615 88458=
41897,2023,08,14,06,00,AAXX 14064 41897 32450 61601 10320 20260 30043 40056 82530 333 56990 58005 70012 82616 86362=
41897,2023,08,14,18,00,AAXX 14184 41897 NIL=
41897,2023,08,15,00,00,AAXX 15004 41897 32440 50000 10275 20270 30026 40039 81530 333 56990 59002 70120 81618 85362=
41897,2023,08,15,06,00,AAXX 15064 41897 31450 31801 10315 20270 30035 40047 70500 81530 333 56990 59008 70120 81618 83362=
41897,2023,08,15,12,00,AAXX 15124 41897 31950 01301 10305 20290 30007 40020 70500 333 10330 58000 70120=
41897,2023,08,15,18,00,AAXX 15184 41897 31940 01301 10290 20280 30033 40046 70500 333 59002 70000=
41897,2023,08,16,00,00,AAXX 16004 41897 31940 00000 10276 20270 30021 40034 70500 333 59005 70000=
41897,2023,08,16,06,00,AAXX 16064 41897 31450 50902 10340 20280 30026 40038 70522 82510 333 56990 59009 70000 82618 85458=
41897,2023,08,16,12,00,AAXX 16124 41897 32950 01802 10300 20260 30002 40015 333 10340 59005 70000=
41897,2023,08,16,18,00,AAXX 16184 41897 32940 00902 10285 20270 30030 40043 333 59003 70000=
41897,2023,08,17,00,00,AAXX 17004 41897 32940 50901 10280 20270 30021 40034 82510 333 56990 58000 70000 82618 85458=
41897,2023,08,17,06,00,AAXX 17064 41897 32456 20902 10340 20270 30019 40031 82500 333 56900 59007 70000 82618=
41897,2023,08,17,12,00,AAXX 17124 41897 32456 61801 10336 20290 39982 49995 82510 333 10353 56990 59020 70000 82618 86458=
41897,2023,08,17,18,00,AAXX 17184 41897 11456 60000 10288 20280 30026 40039 60138 70296 83530 333 56990 59004 70130 83618 86361=
41902,2023,08,11,00,00,AAXX 11004 41902 32330 81802 10270 20260 30045 40054 8672/ 333 56499 58013 70005 83707 85614 88458=
41902,2023,08,11,12,00,AAXX 11124 41902 32450 32801 10295 20260 30018 40026 82430 333 10312 56990 59016 70005 82616=
41902,2023,08,12,00,00,AAXX 12004 41902 32340 81802 10278 20270 30021 40030 8672/ 333 56499 59024 70000 83707 85614 88458=
41902,2023,08,12,06,00,AAXX 12064 41902 11356 81804 10280 20260 30018 40027 60022 70262 8672/ 333 56499 59020 70015 83707 85614 88458=
41902,2023,08,12,12,00,AAXX 12124 41902 32340 81405 10286 20270 30001 40009 8672/ 333 10310 56499 59017 70015 83707 85614 88458=
41902,2023,08,12,18,00,AAXX 12184 41902 32340 82804 10268 20260 30014 40022 8672/ 333 56499 59014 70015 83707 85614 88458=
41902,2023,08,13,06,00,AAXX 13064 41902 11340 82801 10260 20250 30039 40048 60208 76162 8672/ 333 56499 58025 70600 83707 85614 88458=
41902,2023,08,13,12,00,AAXX 13124 41902 11440 61801 10278 20260 30019 40028 60126 70262 83430 333 10295 56990 58018 70705 82614 85362=
41902,2023,08,14,00,00,AAXX 14004 41902 32330 80000 10270 20260 30029 40038 8462/ 333 56999 58010 70325 82710 83614 88459=
41902,2023,08,14,06,00,AAXX 14064 41902 32450 61801 10310 20260 30038 40046 83430 333 56990 59001 70120 82614 85362=
41902,2023,08,14,18,00,AAXX 14184 41902 NIL=
41902,2023,08,15,00,00,AAXX 15004 41902 NIL=
41902,2023,08,15,06,00,AAXX 15064 41902 32450 71801 10301 20270 30033 40041 84410 333 56990 59005 70000 83614 87459=
41902,2023,08,15,12,00,AAXX 15124 41902 32450 71801 10290 20260 30014 40022 84410 333 10318 56990 58004 70000 83614 87459=
41902,2023,08,15,18,00,AAXX 15184 41902 NIL=
41902,2023,08,16,00,00,AAXX 16004 41902 11440 81801 10271 20260 30024 40032 69965 70262 8442/ 333 56999 58000 70006 83614 88459=
41902,2023,08,16,06,00,AAXX 16064 41902 32450 71301 10310 20270 30033 40041 84410 333 56390 58000 83614 87459=
41902,2023,08,16,12,00,AAXX 16124 41902 32450 60000 10306 20280 30010 40018 84430 333 10333 56990 59004 70006 83614 85362=
41902,2023,08,16,18,00,AAXX 16184 41902 31440 40000 10290 20280 30026 40034 71321 83320 333 56990 58000 70006 82616 81930 84458=
41902,2023,08,17,00,00,AAXX 17004 41902 32440 30000 10271 20260 30023 40031 82530 333 56990 58001 70000 82614 83362=
41902,2023,08,17,06,00,AAXX 17064 41902 32450 10501 10334 20260 30022 40030 81030 333 56090 59011 70000 81362=
41902,2023,08,17,12,00,AAXX 17124 41902 32440 60000 10312 20270 39990 49999 82530 333 10345 56990 59020 70000 82614 85362=
41902,2023,08,17,18,00,AAXX 17184 41902 11430 81804 10292 20270 30030 40038 60058 71362 8532/ 333 56999 58004 70049 83615 81928 88458=
41907,2023,08,11,00,00,AAXX 11004 41907 02340 81802 10270 20260 30018 40033 8662/ 333 59003 70010 83709 85615 88458==
41907,2023,08,11,03,00,AAXX 11034 41907 02350 82702 10305 20270 30031 40045 8662/ 333 59003 70010 82709 85615 88458==
41907,2023,08,11,06,00,AAXX 11064 41907 02350 72702 10335 20270 30039 40053 86610 333 58007 70010 82709 85615 87458==
41907,2023,08,11,09,00,AAXX 11094 41907 02350 82302 10332 20280 39993 40007 8661/ 333 59020 70010 82709 84615 88458==
41907,2023,08,11,12,00,AAXX 11124 41907 02350 81803 10293 20250 30000 40015 8662/ 333 10350 59013 70010 82709 85615 88458==
41907,2023,08,11,15,00,AAXX 11154 41907 02340 80000 10280 20260 30019 40033 8662/ 333 59014 70000 82709 85615 88458==
41907,2023,08,11,18,00,AAXX 11184 41907 02340 80000 10280 20270 30018 40032 8662/ 333 59019 70000 82709 85615 88458==
41907,2023,08,11,21,00,AAXX 11214 41907 02340 80000 10278 20270 30008 40022 8662/ 333 59020 70000 82709 85615 88458==
41907,2023,08,12,00,00,AAXX 12004 41907 01340 80000 10278 20270 39998 40012 72162 8662/ 333 59020 70140 86709 88458==
41907,2023,08,12,03,00,AAXX 12034 41907 02350 82703 10292 20270 30016 40030 8662/ 333 20270 58015 70140 82709 84615 88458==
41907,2023,08,12,06,00,AAXX 12064 41907 02350 72702 10330 20280 30008 40023 86610 333 59031 70140 82709 84615 86458==
41907,2023,08,12,09,00,AAXX 12094 41907 02340 83602 10330 20280 39988 40002 8662/ 333 59005 70140 86709 88458==
41907,2023,08,12,12,00,AAXX 12124 41907 21340 83102 10280 20260 39983 49998 76162 8662/ 333 10350 59017 60087 70220 86709 88458==
41907,2023,08,12,15,00,AAXX 12154 41907 01340 81803 10265 20260 39996 40010 72166 8662/ 333 59023 70240 82709 85615 88458==
41907,2023,08,12,18,00,AAXX 12184 41907 21340 82304 10270 20260 30006 40020 70262 8662/ 333 59012 60028 70240 83709 85615 88458==
41907,2023,08,12,21,00,AAXX 12214 41907 01340 82302 10266 20260 39995 40009 72182 8662/ 333 59013 70252 83709 85615 88458==
41907,2023,08,13,00,00,AAXX 13004 41907 01340 82302 10266 20260 39995 40009 72182 8662/ 333 59013 70252 83709 85615 88458==
41907,2023,08,13,03,00,AAXX 13034 41907 02350 82302 10280 20260 30014 40029 8662/ 333 20262 59002 70112 82709 85615 88458==
41907,2023,08,13,06,00,AAXX 13064 41907 01340 80000 10285 20270 30024 40039 76162 8672/ 333 58016 70005 83709 85615 88458==
41907,2023,08,13,09,00,AAXX 13094 41907 01340 80000 10290 20270 30012 40026 76166 8672/ 333 58024 70040 85709 88458==
41907,2023,08,13,12,00,AAXX 13124 41907 21340 80000 10270 20260 30008 40023 76366 8672/ 333 10290 58025 60179 70188 85709 88458==
41907,2023,08,13,15,00,AAXX 13154 41907 01330 80000 10250 20240 30018 40033 76366 8672/ 333 58022 70245 85709 88458==
41907,2023,08,13,18,00,AAXX 13184 41907 21340 80000 10260 20240 30035 40050 70266 8662/ 333 58029 60019 70255 85709 88458==
41907,2023,08,13,21,00,AAXX 13214 41907 02340 80000 10255 20250 30025 40040 8662/ 333 58030 70243 85709 88458==
41907,2023,08,14,00,00,AAXX 14004 41907 02340 80000 10255 20250 30017 40032 8662/ 333 58025 70243 82709 85615 88458==
41907,2023,08,14,03,00,AAXX 14034 41907 02450 73102 10290 20250 30035 40050 83510 333 20247 58021 70243 83615 86458==
41907,2023,08,14,06,00,AAXX 14064 41907 02450 72702 10325 20250 30034 40047 84510 333 58009 70238 84615 87458==
41907,2023,08,14,09,00,AAXX 14094 41907 02450 63103 10340 20260 30004 40019 83530 333 59008 70235 83615 85360==
41907,2023,08,14,12,00,AAXX 14124 41907 02450 70000 10318 20280 39998 40012 85310 333 10328 59010 70070 85615 87458 81930==
41907,2023,08,14,15,00,AAXX 14154 41907 02440 80000 10285 20270 30009 40024 8552/ 333 59009 70010 85615 88458==
41907,2023,08,14,18,00,AAXX 14184 41907 02440 80000 10275 20270 30020 40034 8552/ 333 59015 70000 85615 88458==
41907,2023,08,14,21,00,AAXX 14214 41907 02340 80000 10270 20260 30018 40032 8662/ 333 59007 70000 82709 85615 88458==
41907,2023,08,15,00,00,AAXX 15004 41907 02340 80000 10270 20260 30010 40025 8662/ 333 59007 70000 82709 85615 88458==
41907,2023,08,15,03,00,AAXX 15034 41907 02450 42302 10300 20270 30025 40039 82530 333 20260 58008 70000 82616 83362==
41907,2023,08,15,06,00,AAXX 15064 41907 02450 42302 10350 20250 30020 40034 84800 333 59013 70000 81616 83825==
41907,2023,08,15,09,00,AAXX 15094 41907 01340 80000 10298 20280 30002 40017 72161 8662/ 333 59002 70120 82709 85615 88458==
41907,2023,08,15,12,00,AAXX 15124 41907 21340 80000 10300 20280 39994 40009 70262 8662/ 333 10357 59004 60128 70120 82709 85615 88458==
41907,2023,08,15,15,00,AAXX 15154 41907 02340 80000 10286 20280 30016 40030 8662/ 333 58007 70120 82709 85615 88458==
41907,2023,08,15,18,00,AAXX 15184 41907 02340 80000 10280 20270 30023 40037 8662/ 333 58003 70120 82709 85615 88458==
41907,2023,08,15,21,00,AAXX 15214 41907 02440 80000 10278 20270 30017 40031 8552/ 333 59001 70120 85615 88458==
41907,2023,08,16,00,00,AAXX 16004 41907 02440 80000 10275 20270 30010 40024 8552/ 333 59001 70120 85615 88458==
41907,2023,08,16,03,00,AAXX 16034 41907 02450 81802 10313 20280 30020 40034 8661/ 333 20272 59005 70120 85615 88458==
41907,2023,08,16,06,00,AAXX 16064 41907 02350 72702 10345 20280 30015 40029 86610 333 59005 70120 82709 85615 86458==
41907,2023,08,16,09,00,AAXX 16094 41907 01340 81802 10270 20260 39996 40011 79522 8692/ 333 59006 70180 83709 85615 88458 81930==
41907,2023,08,16,12,00,AAXX 16124 41907 21450 81802 10290 20270 39992 40007 70296 8552/ 333 10358 59002 60195 70185 85615 88458==
41907,2023,08,16,15,00,AAXX 16154 41907 02440 71802 10275 20270 30009 40023 85510 333 59007 70185 85615 86458==
41907,2023,08,16,18,00,AAXX 16184 41907 02340 80000 10280 20270 30018 40032 8662/ 333 59005 70185 82709 85615 88458==
41907,2023,08,16,21,00,AAXX 16214 41907 02340 80000 10278 20270 30013 40027 8662/ 333 59004 70185 82709 85615 88458==
41907,2023,08,17,00,00,AAXX 17004 41907 21340 80000 10275 20270 30008 40022 72162 8662/ 333 59002 60027 70200 82709 85615 88458==
41907,2023,08,17,03,00,AAXX 17034 41907 02450 61301 10320 20270 30013 40027 83510 333 20265 59007 79299 83615 85458==
41907,2023,08,17,06,00,AAXX 17064 41907 02450 60902 10345 20270 30010 40024 85510 333 59005 70200 85615 85458==
41907,2023,08,17,09,00,AAXX 17094 41907 02456 31302 10350 20260 39981 49996 83800 333 59015 70020 82615==
41907,2023,08,17,12,00,AAXX 17124 41907 02450 30000 10335 20290 39981 49996 82530 333 10360 59011 70015 82615==
41907,2023,08,17,15,00,AAXX 17154 41907 02340 80000 10295 20280 30010 40025 8562/ 333 58001 70015 82709 84615 88458==
41907,2023,08,17,18,00,AAXX 17184 41907 02340 81302 10290 20270 30016 40031 8662/ 333 58002 70015 82709 85615 88458==
41907,2023,08,17,21,00,AAXX 17214 41907 02340 81302 10286 20270 30009 40024 8662/ 333 59004 70015 82709 85615 88458==
41909,2023,08,11,00,00,AAXX 11004 41909 02450 80000 10270 20260 30033 40044 8552/ 333 58007 70130 85615 88458==
41909,2023,08,11,03,00,AAXX 11034 41909 02356 81801 10288 20270 30042 40053 8562/ 333 20252 59002 70130 83708 88458==
41909,2023,08,11,06,00,AAXX 11064 41909 02456 50000 10234 20250 30032 40043 82510 333 59017 70130 82615 85360==
41909,2023,08,11,09,00,AAXX 11094 41909 02456 81001 10310 20270 30007 40018 8552/ 333 59017 70130 85614 88460==
41909,2023,08,11,12,00,AAXX 11124 41909 02456 30902 10310 20270 30006 40017 81530 333 10325 59022 70040 81615 83365==
41909,2023,08,11,15,00,AAXX 11154 41909 02450 80000 10290 20260 30033 40044 8552/ 333 59015 70000 85615 88460==
41909,2023,08,11,18,00,AAXX 11184 41909 02/40 30000 10283 20260 30028 40039 83030 333 59024 70000 83365==
41909,2023,08,11,21,00,AAXX 11214 41909 02440 50000 10281 20260 30018 40029 82530 333 59019 70000 82615 84365==
41909,2023,08,12,00,00,AAXX 12004 41909 02450 80000 10280 20260 30006 40017 8552/ 333 59027 70000 85615 88460==
41909,2023,08,12,03,00,AAXX 12034 41909 02356 82201 10297 20260 30025 40036 8562/ 333 20264 59017 70000 83708 83614 88460==
41909,2023,08,12,06,00,AAXX 12064 41909 02456 70000 10315 20270 30018 40029 84370 333 59014 70000 83615 86460 81930==
41909,2023,08,12,09,00,AAXX 12094 41909 02456 70000 10328 20270 39992 40004 84370 333 59015 70000 84615 88458 81930==
41909,2023,08,12,12,00,AAXX 12124 41909 21440 80422 10289 20280 39982 49993 72162 8552/ 333 10335 59024 60047 70040 85615 88458==
41909,2023,08,12,15,00,AAXX 12154 41909 02440 80000 10266 20260 30008 40019 8562/ 333 59025 70370 83708 83614 88458==
41909,2023,08,12,18,00,AAXX 12184 41909 21440 80000 10264 20260 30017 40028 76566 8562/ 333 59011 60349 70380 83708 83614 88458==
41909,2023,08,12,21,00,AAXX 12214 41909 01440 80000 10262 20250 30010 40021 76566 8562/ 333 59008 70410 83708 83614 88458==
41909,2023,08,13,00,00,AAXX 13004 41909 21450 80000 10262 20250 30005 40016 76566 8562/ 333 59001 60109 70480 83708 83614 88458==
41909,2023,08,13,03,00,AAXX 13034 41909 01450 80000 10270 20260 30031 40042 76665 8562/ 333 20245 59006 70500 83708 83614 88458==
41909,2023,08,13,06,00,AAXX 13064 41909 21450 80000 10270 20260 30034 40045 76665 8562/ 333 58016 60039 70510 83708 83614 88458==
41909,2023,08,13,09,00,AAXX 13094 41909 01350 80000 10274 20260 30022 40033 72166 8562/ 333 58030 70580 83708 88458==
41909,2023,08,13,12,00,AAXX 13124 41909 21456 80000 10280 20260 30013 40024 70262 8552/ 333 10285 58031 60078 70540 85615 88460==
41909,2023,08,13,15,00,AAXX 13154 41909 02430 80000 10275 20260 30034 40045 8452/ 333 58026 70210 84614 88458==
41909,2023,08,13,18,00,AAXX 13184 41909 02430 60000 10273 20260 30040 40051 83530 333 58023 70200 83615 86360==
41909,2023,08,13,21,00,AAXX 13214 41909 02430 80000 10271 20260 30031 40042 8552/ 333 58021 70170 85614 88458==
41909,2023,08,14,00,00,AAXX 14004 41909 02450 80000 10269 20260 30027 40038 8552/ 333 58022 70100 85614 88458==
41909,2023,08,14,03,00,AAXX 14034 41909 02456 60000 10290 20260 30045 40056 83510 333 20248 58014 70080 83615 86460==
41909,2023,08,14,06,00,AAXX 14064 41909 02450 80000 10304 20250 30043 40054 8552/ 333 58009 70070 85614 88458==
41909,2023,08,14,15,00,AAXX 14154 41909 02450 80000 10295 20270 30031 40042 8552/ 333 59003 70000 85615 88460==
41909,2023,08,14,18,00,AAXX 14184 41909 02440 80000 10286 20270 30036 40047 8552/ 333 59004 70000 85615 88460==
41909,2023,08,14,21,00,AAXX 14214 41909 02440 80000 10281 20260 30032 40043 8552/ 333 58001 70000 85615 88460==
41909,2023,08,15,00,00,AAXX 15004 41909 02450 80000 10275 20260 30027 40038 8552/ 333 58000 70000 85614 88460==
41909,2023,08,15,03,00,AAXX 15034 41909 02456 80000 10314 20260 30037 40048 8452/ 333 20255 59008 70000 84614 88458==
41909,2023,08,15,06,00,AAXX 15064 41909 02456 60000 10332 20270 30033 40044 83510 333 59010 70000 83615 86458==
41909,2023,08,15,09,00,AAXX 15094 41909 02456 80000 10320 20270 30014 40025 85520 333 59002 70000 85614 88458==
41909,2023,08,15,12,00,AAXX 15124 41909 02456 80000 10312 20270 30002 40014 8552/ 333 10337 59005 70000 85614 88458==
41909,2023,08,15,15,00,AAXX 15154 41909 02440 60000 10295 20270 30028 40039 83510 333 59003 70000 83614 86458==
41909,2023,08,15,18,00,AAXX 15184 41909 02440 60000 10288 20270 30035 40046 83510 333 59001 70000 83614 86458==
41909,2023,08,15,21,00,AAXX 15214 41909 02440 60000 10284 20260 30031 40042 83510 333 59001 70000 83614 88458==
41909,2023,08,16,00,00,AAXX 16004 41909 02450 80000 10282 20260 30019 40030 8552/ 333 59008 70000 85614 88458==
41909,2023,08,16,03,00,AAXX 16034 41909 02456 61802 10304 20270 30032 40043 83510 333 20264 59005 70000 83615 86458==
41909,2023,08,16,06,00,AAXX 16064 41909 02456 80000 10324 20270 30030 40041 8432/ 333 59003 70000 84618 88458==
41909,2023,08,16,09,00,AAXX 16094 41909 01350 81802 10287 20270 30005 40016 79596 8592/ 333 59009 70126 84708 88458 81930==
41909,2023,08,16,12,00,AAXX 16124 41909 21456 60000 10306 20280 30005 40016 70196 82530 333 10340 58003 60138 70128 82615 85360==
41909,2023,08,16,15,00,AAXX 16154 41909 02440 40000 10292 20270 30026 40037 81530 333 59002 70128 81615 83360==
41909,2023,08,16,18,00,AAXX 16184 41909 01340 81802 10284 20260 30026 40037 71721 8592/ 333 59009 70128 84708 88458 81930==
41909,2023,08,16,21,00,AAXX 16214 41909 01340 80000 10272 20260 30016 40027 70296 8572/ 333 59015 70162 84708 88458==
41909,2023,08,17,00,00,AAXX 17004 41909 11340 80000 10274 20260 30017 40028 60036 70596 8562/ 333 59002 70162 84708 88458==
41909,2023,08,17,03,00,AAXX 17034 41909 02456 61202 10304 20270 30027 40038 82510 333 20255 59005 70162 82615 86458==
41909,2023,08,17,06,00,AAXX 17064 41909 02456 51802 10337 20270 30022 40033 82530 333 59008 70162 82615 85362==
41909,2023,08,17,09,00,AAXX 17094 41909 02456 50000 10355 20260 39987 49999 82530 333 59018 70036 82615 85362==
41909,2023,08,17,12,00,AAXX 17124 41909 02450 80000 10342 20270 39990 40002 8532/ 333 10356 59015 70034 84615 88458 81930==
41909,2023,08,17,15,00,AAXX 17154 41909 01440 40000 10296 20280 30024 40035 70196 81530 333 59002 70044 81615 83360==
41909,2023,08,17,18,00,AAXX 17184 41909 11940 00000 10298 20270 30025 40036 60016 70196 333 59001 70044==
41909,2023,08,17,21,00,AAXX 17214 41909 02330 80000 10290 20260 30021 40032 8552/ 333 58005 70010 85614 88458==
41915,2023,08,11,00,00,AAXX 11004 41915 02456 70000 10265 20260 30031 40057 86470 333 58001 70115 85616 85458==
41915,2023,08,11,03,00,AAXX 11034 41915 02450 80000 10280 20260 30043 40068 8662/ 333 20260 58001 70115 83710 85615 88457==
41915,2023,08,11,06,00,AAXX 11064 41915 02456 81301 10305 20270 30028 40053 8642/ 333 59013 70005 85616 88458==
41915,2023,08,11,09,00,AAXX 11094 41915 01450 80000 10266 20260 30008 40033 76362 8672/ 333 59016 70437 83710 85616 88458==
41915,2023,08,11,12,00,AAXX 11124 41915 21450 70000 10280 20270 30005 40030 70166 84470 333 10324 59017 60478 70472 83616 84458==
41915,2023,08,11,15,00,AAXX 11154 41915 02450 70000 10272 20260 30028 40053 84470 333 59020 70472 83616 84458==
41915,2023,08,11,18,00,AAXX 11184 41915 02450 80000 10264 20250 30022 40047 8642/ 333 59020 70472 85616 88458==
41915,2023,08,11,21,00,AAXX 11214 41915 02450 81301 10262 20250 30014 40039 8542/ 333 59022 70472 84615 88458==
41915,2023,08,12,00,00,AAXX 12004 41915 02450 71302 10260 20250 30012 40037 85470 333 58019 70472 84615 86458==
41915,2023,08,12,03,00,AAXX 12034 41915 02456 70000 10298 20260 30022 40046 85430 333 20259 58021 70472 84616 85362==
41915,2023,08,12,06,00,AAXX 12064 41915 02456 61302 10317 20260 30010 40035 85410 333 59018 70472 85616 85458==
41915,2023,08,12,09,00,AAXX 12094 41915 02456 70000 10293 20260 39989 40013 85420 333 59019 70040 84616 85458==
41915,2023,08,12,12,00,AAXX 12124 41915 02456 80000 10288 20250 39989 40014 8662/ 333 10325 59016 70000 83712 85616 88458==
41915,2023,08,12,15,00,AAXX 12154 41915 02450 80000 10274 20250 30011 40036 8662/ 333 59017 70000 83712 85616 88458==
41915,2023,08,12,18,00,AAXX 12184 41915 02450 80000 10270 20250 30015 40040 8562/ 333 59007 70000 83712 85616 88458==
41915,2023,08,12,21,00,AAXX 12214 41915 02450 80000 10268 20250 30007 40032 8562/ 333 59007 70000 83710 85616 88458==
41915,2023,08,13,00,00,AAXX 13004 41915 02456 70000 10265 20250 30006 40031 85470 333 59006 70000 84615 86458==
41915,2023,08,13,03,00,AAXX 13034 41915 02456 70000 10274 20240 30026 40051 85470 333 20263 58004 70000 84616 86458==
41915,2023,08,13,06,00,AAXX 13064 41915 02456 80000 10290 20250 30029 40055 8542/ 333 58019 70000 85616 88458==
41915,2023,08,13,09,00,AAXX 13094 41915 01456 60000 10300 20270 30006 40031 72122 84430 333 58017 70003 83616 85362==
41915,2023,08,13,12,00,AAXX 13124 41915 21450 71802 10280 20260 30004 40029 70362 85620 333 10316 58015 69935 70003 84615 87458==
41915,2023,08,13,15,00,AAXX 13154 41915 02450 71801 10271 20260 30028 40053 85620 333 58017 70003 82712 84615 87458==
41915,2023,08,13,21,00,AAXX 13214 41915 02450 70000 10265 20260 30019 40045 85670 333 58012 70003 82712 84616 86458==
41915,2023,08,14,00,00,AAXX 14004 41915 01456 70000 10264 20250 30025 40051 72122 86570 333 58019 70002 82712 84616 86458==
41915,2023,08,14,03,00,AAXX 14034 41915 01456 71301 10280 20260 30039 40064 70262 85620 333 20264 58013 70012 82712 84615 87458==
41915,2023,08,14,06,00,AAXX 14064 41915 12456 81302 10300 20260 30032 40057 69976 8561/ 333 58003 70012 81712 85615 88458==
41915,2023,08,14,09,00,AAXX 14094 41915 02456 61601 10319 20260 30006 40031 85430 333 58000 70012 84616 84362==
41915,2023,08,14,18,00,AAXX 14184 41915 02450 80000 10275 20270 30030 40055 8662/ 333 59022 70117 82712 85615 88458==
41915,2023,08,15,00,00,AAXX 15004 41915 01450 80000 10272 20260 30023 40048 70522 8352/ 333 59002 70115 83616 88458==
41915,2023,08,15,03,00,AAXX 15034 41915 01456 81602 10290 20270 30037 40062 71722 8632/ 333 20270 59002 70108 85616 88458 81928==
41915,2023,08,15,06,00,AAXX 15064 41915 01440 80000 10260 20250 30036 40061 79792 8732/ 333 58004 70840 85708 86614 88456 82928==
41915,2023,08,15,09,00,AAXX 15094 41915 01450 80000 10275 20270 30005 40030 76196 8572/ 333 59001 71132 81712 84615 88458==
41915,2023,08,15,12,00,AAXX 15124 41915 21450 81301 10275 20260 30002 40027 70296 8562/ 333 10310 58004 60188 71024 82712 84615 88458==
41915,2023,08,15,15,00,AAXX 15154 41915 02450 80000 10272 20270 30027 40052 8562/ 333 58001 71024 82712 84615 88458==
41915,2023,08,15,18,00,AAXX 15184 41915 02450 80000 10272 20270 30034 40059 8562/ 333 58004 71024 82712 84615 88458==
41915,2023,08,15,21,00,AAXX 15214 41915 02450 81302 10263 20250 30024 40050 8562/ 333 59001 71024 82712 84615 88458==
41915,2023,08,16,00,00,AAXX 16004 41915 01445 81302 10260 20260 30020 40046 70522 8562/ 333 59003 71024 81712 84615 88458==
41915,2023,08,16,03,00,AAXX 16034 41915 01456 80502 10290 20260 30031 40056 70262 8461/ 333 20257 59005 71027 81712 84615 88458==
41915,2023,08,16,06,00,AAXX 16064 41915 11456 81302 10298 20260 30033 40058 69936 70262 8562/ 333 59003 70187 82712 84615 88458==
41915,2023,08,16,09,00,AAXX 16094 41915 02456 61501 10315 20220 39998 40023 85410 333 59007 70003 84616 85458==
41915,2023,08,16,12,00,AAXX 16124 41915 02456 40000 10309 20280 39995 40020 83440 333 10328 59007 70003 83316 83362==
41915,2023,08,16,15,00,AAXX 16154 41915 02450 30000 10280 20270 30020 40045 83500 333 59007 70003 83616==
41915,2023,08,16,18,00,AAXX 16184 41915 02450 30000 10270 20260 30018 40043 83500 333 59017 70003 83717==
41915,2023,08,16,21,00,AAXX 16214 41915 02/50 20000 10268 20260 30018 40043 82030 333 59007 70003 82362==
41915,2023,08,17,00,00,AAXX 17004 41915 01/50 10000 10270 20260 30015 40040 70511 81030 333 59005 70003 81362==
41915,2023,08,17,03,00,AAXX 17034 41915 02/56 10000 10320 20270 30016 40040 81030 333 20264 59015 70000 81362==
41915,2023,08,17,06,00,AAXX 17064 41915 02456 50000 10345 20270 30007 40032 84440 333 59026 70000 83616 84362==
41915,2023,08,17,09,00,AAXX 17094 41915 02456 50601 10352 20260 39973 49997 85400 333 59025 70000 84616==
41915,2023,08,17,12,00,AAXX 17124 41915 02456 70000 10314 20280 39976 40001 86370 333 10365 59019 70000 85616 86458 81928==
41915,2023,08,17,15,00,AAXX 17154 41915 02450 50000 10291 20280 30015 40040 85410 333 59005 70000 84616 85458==
41915,2023,08,17,18,00,AAXX 17184 41915 01450 80000 10270 20250 30024 40049 76162 8672/ 333 58006 70010 83710 83616 88458==
41915,2023,08,17,21,00,AAXX 17214 41915 01450 80000 10258 20240 30021 40046 70262 8662/ 333 58003 70016 83712 85616 88458==
41923,2023,08,11,00,00,AAXX 11004 41923 02440 80000 10270 20250 30042 40052 8532/ 333 58004 70604 81710 84614 88460 81930==
41923,2023,08,11,03,00,AAXX 11034 41923 02440 80000 10296 20280 30048 40058 8532/ 333 20259 59006 70604 81710 84614 88460 81930==
41923,2023,08,11,06,00,AAXX 11064 41923 01340 81802 10290 20270 30042 40052 79562 8692/ 333 59008 70020 83708 84614 88458 81928==
41923,2023,08,11,09,00,AAXX 11094 41923 01350 81903 10300 20280 30019 40029 72196 8632/ 333 59010 70650 83708 84614 88458 81929==
41923,2023,08,11,12,00,AAXX 11124 41923 21350 30000 10300 20260 30016 40026 70196 82630 333 10310 59023 60038 70046 81709==
41923,2023,08,11,15,00,AAXX 11154 41923 02345 50000 10286 20260 30039 40049 84630 333 59018 70046 82709 83615==
41923,2023,08,11,18,00,AAXX 11184 41923 02445 50000 10280 20260 30037 40047 83530 333 59018 70046 83615 83362==
41923,2023,08,11,21,00,AAXX 11214 41923 02345 70000 10278 20260 30016 40026 85670 333 59029 70046 83708 84614 85459==
41923,2023,08,12,00,00,AAXX 12004 41923 02345 72304 10280 20270 30019 40029 86370 333 59023 70046 83708 84614 85459 81929==
41923,2023,08,12,03,00,AAXX 12034 41923 02350 71904 10297 20260 30032 40042 85670 333 20277 59016 70046 82708 84614 85459==
41923,2023,08,12,06,00,AAXX 12064 41923 01345 81803 10306 20270 30024 40034 76122 8632/ 333 59018 70000 83708 85614 88458 81929==
41923,2023,08,12,09,00,AAXX 12094 41923 01356 61903 10312 20260 39997 40007 72162 84670 333 59022 70005 81709 83615 85459==
41923,2023,08,12,12,00,AAXX 12124 41923 21350 61802 10306 20270 39995 40005 70262 84670 333 10319 46490 59021 60018 70005 82709 83614 85458==
41923,2023,08,12,15,00,AAXX 12154 41923 01340 80000 10272 20260 30021 40031 79196 8632/ 333 59018 70180 83708 84614 88458 81930==
41923,2023,08,12,18,00,AAXX 12184 41923 21340 80000 10264 20250 30023 40033 76496 8632/ 333 59014 60397 70388 83708 84614 88458 81930==
41923,2023,08,12,21,00,AAXX 12214 41923 01330 80000 10264 20250 30007 40017 76162 8632/ 333 59009 70440 83709 84614 88458 81930==
41923,2023,08,13,00,00,AAXX 13004 41923 21330 80000 10264 20250 30015 40025 76162 8632/ 333 59004 60179 70560 83709 84614 88458 81930==
41923,2023,08,13,03,00,AAXX 13034 41923 01335 80000 10266 20260 30041 40051 76166 8632/ 333 20260 58009 70614 83709 84614 88458 81930==
41923,2023,08,13,06,00,AAXX 13064 41923 21340 80000 10268 20260 30044 40054 76166 8632/ 333 58020 60199 70750 83709 84614 88458 81930==
41923,2023,08,13,09,00,AAXX 13094 41923 01350 70000 10290 20260 30022 40032 72166 85670 333 58025 70761 82709 84614 85458==
41923,2023,08,13,12,00,AAXX 13124 41923 21350 80000 10280 20260 30019 40029 70362 8562/ 333 10292 58024 60028 70761 82709 84614 88458==
41923,2023,08,13,15,00,AAXX 13154 41923 02350 70000 10276 20270 30044 40054 84670 333 58023 70586 82709 83614 85458==
41923,2023,08,13,18,00,AAXX 13184 41923 02340 70000 10270 20260 30045 40055 84670 333 58022 70378 82709 83615 85458==
41923,2023,08,13,21,00,AAXX 13214 41923 02340 80000 10266 20260 30029 40039 8562/ 333 58022 70326 83709 84614 88458==
41923,2023,08,14,00,00,AAXX 14004 41923 01340 80000 10262 20250 30033 40043 76122 8672/ 333 58018 70000 83708 84614 88458==
41923,2023,08,14,03,00,AAXX 14034 41923 01350 70000 10288 20260 30049 40059 70162 84670 333 20260 58008 70166 82709 83615 85458==
41923,2023,08,14,06,00,AAXX 14064 41923 01350 80000 10310 20260 30044 40054 76062 8572/ 333 58000 70030 82709 84614 88458==
41923,2023,08,14,09,00,AAXX 14094 41923 01340 80000 10288 20280 30022 40032 76196 8632/ 333 58000 70060 83708 84614 88458 81928==
41923,2023,08,14,12,00,AAXX 14124 41923 21440 82702 10280 20260 30016 40026 70296 8532/ 333 10315 59003 60055 70060 81710 83614 88460==
41923,2023,08,14,15,00,AAXX 14154 41923 02440 82702 10276 20270 30038 40048 8532/ 333 59006 70066 81710 84614 88460==
41923,2023,08,14,18,00,AAXX 14184 41923 02440 80000 10280 20270 30044 40054 8532/ 333 59001 70066 81710 84614 88460==
41923,2023,08,14,21,00,AAXX 14214 41923 02440 80000 10280 20270 30035 40045 8532/ 333 58006 70066 81710 84614 88460 81930==
41923,2023,08,15,00,00,AAXX 15004 41923 02440 80000 10280 20270 30033 40043 8532/ 333 58000 70066 81710 84614 88460 81930==
41923,2023,08,15,03,00,AAXX 15034 41923 02450 81802 10305 20270 30047 40057 8532/ 333 20272 59002 70052 81710 84614 88460==
41923,2023,08,15,06,00,AAXX 15064 41923 02450 81802 10329 20260 30037 40047 8552/ 333 59007 70052 85614 88460==
41923,2023,08,15,09,00,AAXX 15094 41923 01350 80000 10310 20270 30016 40026 72162 8462/ 333 59006 70006 81709 84615 88458==
41923,2023,08,15,12,00,AAXX 15124 41923 01345 80000 10278 20270 30018 40028 72162 8532/ 333 10344 58002 70230 82709 84615 88458 81929==
41923,2023,08,15,15,00,AAXX 15154 41923 01340 70000 10282 20270 30038 40048 70522 85370 333 58000 70230 82709 84615 85459 81930==
41923,2023,08,15,18,00,AAXX 15184 41923 01340 70000 10287 20280 30040 40050 70522 85670 333 59004 70230 82709 84615 85459==
41923,2023,08,15,21,00,AAXX 15214 41923 01335 70000 10285 20280 30028 40038 70522 85670 333 59007 70230 83708 84614 86459==
41923,2023,08,16,00,00,AAXX 16004 41923 01335 80000 10283 20270 30028 40038 76162 8672/ 333 59005 70007 83708 85614 88458==
41923,2023,08,16,03,00,AAXX 16034 41923 01345 71903 10300 20270 30041 40051 70562 86370 333 20277 59006 70237 83708 84614 86459 81930==
41923,2023,08,16,06,00,AAXX 16064 41923 01335 80000 10292 20260 30041 40051 79562 8692/ 333 58004 70245 83708 85614 88458 81928==
41923,2023,08,16,09,00,AAXX 16094 41923 01445 60000 10310 20280 30007 40017 70596 83530 333 59009 70681 83615 84360==
41923,2023,08,16,12,00,AAXX 16124 41923 11450 70000 10294 20250 30007 40017 60446 70396 83430 333 10320 59011 70451 82615 85360==
41923,2023,08,16,15,00,AAXX 16154 41923 02440 70000 10290 20280 30032 40042 83430 333 59006 70451 82615 85360==
41923,2023,08,16,18,00,AAXX 16184 41923 02340 60000 10284 20250 30031 40041 85630 333 59009 70451 82709 84615==
41923,2023,08,16,21,00,AAXX 16214 41923 01340 70000 10270 20250 30021 40031 70362 85670 333 59007 70469 82709 84615 85458==
41923,2023,08,17,00,00,AAXX 17004 41923 11440 50000 10262 20250 30023 40033 60026 70562 82530 333 59005 70462 82615 84360==
41923,2023,08,17,03,00,AAXX 17034 41923 02450 40000 10302 20250 30032 40042 81530 333 20261 59009 70462 81616 83360==
41923,2023,08,17,06,00,AAXX 17064 41923 02456 41303 10342 20250 30023 40033 83430 333 59018 70462 82616==
41923,2023,08,17,09,00,AAXX 17094 41923 02350 70000 10356 20260 39992 40001 85670 333 59015 70018 82709 84615 85458==
41923,2023,08,17,12,00,AAXX 17124 41923 02350 70000 10332 20240 30000 40010 85670 333 10358 59007 70018 82709 84615 85458==
41923,2023,08,17,15,00,AAXX 17154 41923 02440 50000 10308 20260 30031 40041 82530 333 59001 70018 82615 84360==
41923,2023,08,17,18,00,AAXX 17184 41923 02/40 30000 10300 20260 30036 40046 83030 333 58005 70018 83360==
41923,2023,08,17,21,00,AAXX 17214 41923 02340 70000 10292 20260 30023 40033 85670 333 58002 70000 82709 84615 85458==
41926,2023,08,11,00,00,AAXX 11004 41926 02450 70000 10275 20270 30034 40047 84510 333 58004 70000 84616 86459==
41926,2023,08,11,03,00,AAXX 11034 41926 02450 41802 10310 20260 30038 40051 84500 333 20270 59007 70000 84618==
41926,2023,08,11,06,00,AAXX 11064 41926 02450 50000 10340 20270 30024 40037 84530 333 59019 70000 84618 83362==
41926,2023,08,11,09,00,AAXX 11094 41926 02450 72104 10310 20280 30005 40018 84510 333 59014 70000 84616 86459==
41926,2023,08,11,12,00,AAXX 11124 41926 21350 80000 10275 20270 30006 40019 79596 8592/ 333 10345 59015 60037 70030 82708 84615 88458 82928==
41926,2023,08,11,15,00,AAXX 11154 41926 01450 80000 10275 20270 30031 40044 70296 8532/ 333 59014 70040 84615 88458 81930==
41926,2023,08,11,18,00,AAXX 11184 41926 11450 80000 10275 20270 30026 40039 60016 70296 8452/ 333 59018 70040 84616 88458==
41926,2023,08,11,21,00,AAXX 11214 41926 01450 80000 10270 20260 30002 40015 70262 8452/ 333 59030 70050 84616 88458==
41926,2023,08,12,00,00,AAXX 12004 41926 11450 80000 10267 20267 30011 40024 60016 70262 8452/ 333 59023 70050 84616 88458==
41926,2023,08,12,03,00,AAXX 12034 41926 02350 80000 10280 20260 30027 40040 8462/ 333 20265 59011 70050 82708 83615 88458==
41926,2023,08,12,06,00,AAXX 12064 41926 02356 80000 10305 20280 30020 40033 8462/ 333 59004 70050 83615 88458==
41926,2023,08,12,09,00,AAXX 12094 41926 02456 52101 10334 20220 39982 49995 82410 333 59023 70050 81618 84459==
41926,2023,08,12,12,00,AAXX 12124 41926 11350 80000 10263 20260 39987 40000 60142 76096 8462/ 333 10340 59019 70164 82708 83617 88458==
41926,2023,08,12,15,00,AAXX 12154 41926 01350 81802 10266 20260 30013 40026 70262 8462/ 333 59018 70160 82708 83617 88458==
41926,2023,08,12,18,00,AAXX 12184 41926 02350 81801 10268 20260 30013 40028 8462/ 333 59011 70160 82708 83617 88458==
41926,2023,08,12,21,00,AAXX 12214 41926 02450 80000 10265 20260 30010 40023 8352/ 333 58008 70150 83618 88458==
41926,2023,08,13,00,00,AAXX 13004 41926 02450 80000 10262 20250 30001 40014 8352/ 333 59010 70150 83618 88458==
41926,2023,08,13,03,00,AAXX 13034 41926 02450 70000 10277 20260 30028 40041 83510 333 20260 58001 70150 83618 86459==
41926,2023,08,13,06,00,AAXX 13064 41926 01450 80000 10286 20270 30034 40047 76122 8352/ 333 58014 70000 83617 88458==
41926,2023,08,13,09,00,AAXX 13094 41926 02450 80000 10292 20270 30017 40030 8332/ 333 58035 70150 82617 88458 81928==
41926,2023,08,13,12,00,AAXX 13124 41926 02450 60000 10295 20280 30010 40023 83510 333 10303 58023 70006 83618 85459==
41926,2023,08,13,15,00,AAXX 13154 41926 02450 80000 10257 20240 30036 40050 8352/ 333 58023 70000 83618 88458==
41926,2023,08,13,18,00,AAXX 13184 41926 02450 80000 10255 20240 30036 40050 8352/ 333 58021 70000 83618 88458==
41926,2023,08,13,21,00,AAXX 13214 41926 02450 80000 10255 20250 30030 40044 8352/ 333 58020 70000 83618 88458==
41926,2023,08,14,00,00,AAXX 14004 41926 02450 70000 10254 20240 30027 40041 83510 333 58026 70000 83618 86459==
41926,2023,08,14,03,00,AAXX 14034 41926 42450 80000 10272 20240 30048 40062 8452/ 333 20254 58020 84615 88458==
41926,2023,08,14,06,00,AAXX 14064 41926 02456 60000 10310 20240 30045 40058 83530 333 58011 70000 83615 85362==
41926,2023,08,14,09,00,AAXX 14094 41926 02956 20000 10342 20240 30014 40027 80001 333 59003 70000 82080==
41926,2023,08,14,15,00,AAXX 14154 41926 02/50 20000 10293 20270 30029 40042 82010 333 59007 70000 82459==
41926,2023,08,14,18,00,AAXX 14184 41926 02450 60000 10289 20280 30034 40047 82510 333 59002 70000 82618 86459==
41926,2023,08,14,21,00,AAXX 14214 41926 02450 30000 10285 20280 30030 40043 81510 333 58000 70000 81618 83459==
41926,2023,08,15,00,00,AAXX 15004 41926 NIL=
41926,2023,08,15,03,00,AAXX 15034 41926 01450 32301 10310 20270 30034 40047 70500 83500 333 20270 59014 70000 83615==
41926,2023,08,15,06,00,AAXX 15064 41926 02450 70000 10350 20260 30030 40043 83530 333 59015 70000 83615 87362==
41926,2023,08,15,09,00,AAXX 15094 41926 02456 61802 10356 20260 30008 40021 85410 333 59006 70000 82617 83825 86459==
41926,2023,08,15,12,00,AAXX 15124 41926 02456 60000 10307 20290 30004 40017 83510 333 10363 59002 70000 83617 86459==
41926,2023,08,15,15,00,AAXX 15154 41926 02450 50000 10293 20270 30028 40041 82510 333 59001 70000 82618 85459==
41926,2023,08,15,18,00,AAXX 15184 41926 02450 50000 10288 20280 30032 40045 81530 333 59002 70000 81618 85362==
41926,2023,08,15,21,00,AAXX 15214 41926 02450 50000 10285 20280 30029 40042 81530 333 59001 70000 81618 85362==
41926,2023,08,16,00,00,AAXX 16004 41926 01440 50000 10278 20270 30020 40033 70522 81530 333 59004 70000 81618 85362==
41926,2023,08,16,03,00,AAXX 16034 41926 02456 61801 10306 20280 30030 40043 82510 333 20278 59004 70000 82618 86459==
41926,2023,08,16,06,00,AAXX 16064 41926 02457 60000 10345 20270 30024 40037 85410 333 59006 70000 82618 83825 86459==
41926,2023,08,16,09,00,AAXX 16094 41926 01450 81802 10285 20280 30008 40021 79522 8532/ 333 58000 70024 84616 88458 81930==
41926,2023,08,16,12,00,AAXX 16124 41926 21456 70000 10275 20270 39999 40012 72196 82510 333 10355 60207 70200 82616 87459==
41926,2023,08,16,15,00,AAXX 16154 41926 02450 60000 10273 20250 30027 40040 82510 333 59001 70200 82618 86459==
41926,2023,08,16,18,00,AAXX 16184 41926 02450 60000 10270 20250 30027 40040 82510 333 59005 70200 82618 86459==
41926,2023,08,16,21,00,AAXX 16214 41926 02450 60000 10270 20250 30025 40038 81510 333 59004 70200 81618 86459==
41926,2023,08,17,00,00,AAXX 17004 41926 01450 60000 10273 20270 30014 40027 70522 82510 333 59006 70200 82618 86459==
41926,2023,08,17,03,00,AAXX 17034 41926 02456 51801 10308 20270 30022 40035 85400 333 20262 59008 70200 82618 83825==
41926,2023,08,17,06,00,AAXX 17064 41926 02456 51802 10350 20260 30014 40027 85400 333 59010 70200 83618 83820==
41926,2023,08,17,09,00,AAXX 17094 41926 02456 41801 10350 20270 39986 49999 84400 333 59022 70176 83618==
41926,2023,08,17,12,00,AAXX 17124 41926 02450 30000 10330 20270 39991 40004 83400 333 10357 59008 70000 82618==
41926,2023,08,17,15,00,AAXX 17154 41926 41450 60000 10285 20280 30023 40036 70362 84510 333 59004 84615 86459==
41926,2023,08,17,18,00,AAXX 17184 41926 11450 60000 10280 20270 30020 40033 60006 70262 84510 333 59007 84615 85459==
41926,2023,08,17,21,00,AAXX 17214 41926 42450 60000 10278 20270 30010 40023 84530 333 59015 84616 85363==
41927,2023,08,11,00,00,AAXX 11004 41927 32456 81801 10270 20260 30029 40043 8452/ 333 56499 58001 70542 84617 88458=
41927,2023,08,11,06,00,AAXX 11064 41927 32458 71601 10327 20270 30025 40039 83510 333 56490 59008 70542 83617 87459=
41927,2023,08,11,12,00,AAXX 11124 41927 11356 82701 10260 20260 30009 40024 60577 79596 8632/ 333 10330 56699 59014 70572 82707 83615 81929 88458=
41927,2023,08,11,18,00,AAXX 11184 41927 11456 60000 10265 20260 30028 40043 60186 70196 83510 333 56490 59005 70752 83618 86459=
41927,2023,08,11,21,00,AAXX 11214 41927 32457 63101 10320 20270 30013 40027 83510 333 56690 59012 70752 83617 86459=
41927,2023,08,12,00,00,AAXX 12004 41927 31350 82601 10267 20267 30009 40023 70522 8562/ 333 56699 59020 70752 82708 83617 88458=
41927,2023,08,12,06,00,AAXX 12064 41927 32457 63101 10320 20270 30013 40027 83510 333 56690 59012 70752 83617 86459=
41927,2023,08,12,12,00,AAXX 12124 41927 11356 80000 10262 20250 39987 40001 60034 79596 8632/ 333 10335 56699 59022 70208 82708 83616 81929 88458=
41927,2023,08,12,18,00,AAXX 12184 41927 31456 60000 10263 20250 30006 40021 70192 83510 333 56490 59022 70028 83617 86459=
41927,2023,08,13,00,00,AAXX 13004 41927 32356 80000 10265 20260 30000 40015 8562/ 333 56499 59009 70028 82708 83617 88458=
41927,2023,08,13,06,00,AAXX 13064 41927 11356 81901 10277 20270 30027 40041 60014 76122 8572/ 333 56499 58014 70038 82707 83616 88458=
41927,2023,08,13,12,00,AAXX 13124 41927 11456 80000 10285 20270 39998 40012 60028 70262 8452/ 333 10287 56499 58011 70032 84617 88458=
41927,2023,08,14,00,00,AAXX 14004 41927 32456 60000 10253 20250 30021 40035 83510 333 56990 58021 70032 83617 86459=
41927,2023,08,14,06,00,AAXX 14064 41927 32458 71801 10310 20250 30033 40047 83510 333 56490 58006 70032 83618 87459=
41927,2023,08,14,18,00,AAXX 14184 41927 NIL=
41927,2023,08,15,00,00,AAXX 15004 41927 11450 80000 10268 20268 30019 40034 60757 72196 8452/ 333 56499 59002 70748 84617 88458=
41927,2023,08,15,06,00,AAXX 15064 41927 32457 51901 10340 20260 30024 40038 83410 333 56490 59009 70748 82618 85459=
41927,2023,08,15,12,00,AAXX 15124 41927 32456 82801 10310 20280 39998 40012 8432/ 333 10347 56699 59006 70748 83617 81930 88459=
41927,2023,08,15,18,00,AAXX 15184 41927 NIL=
41927,2023,08,16,00,00,AAXX 16004 41927 32456 62201 10265 20260 30016 40030 83570 333 56590 59003 70490 83617 84459=
41927,2023,08,16,06,00,AAXX 16064 41927 32457 60000 10335 20280 30025 40039 83510 333 56590 58001 70490 83617 85459=
41927,2023,08,16,12,00,AAXX 16124 41927 11456 81801 10290 20260 39992 40006 69964 76122 8452/ 333 10340 56499 59006 70496 84616 88458=
41927,2023,08,17,00,00,AAXX 17004 41927 32950 00000 10274 20260 30012 40027 333 59004 70006=
41927,2023,08,17,06,00,AAXX 17064 41927 32958 01801 10332 20260 30012 40026 333 59013 70006=
41927,2023,08,17,12,00,AAXX 17124 41927 32957 00000 10330 20270 39991 40005 333 10346 59002 70000=
41929,2023,08,11,00,00,AAXX 11004 41929 02450 80000 10270 20260 30038 40048 8451/ 333 58002 70399 84616 88462==
41929,2023,08,11,03,00,AAXX 11034 41929 02456 80000 10290 20270 30049 40058 8451/ 333 20260 59001 70399 84618 88460==
41929,2023,08,11,06,00,AAXX 11064 41929 02456 80000 10315 20270 30036 40045 8451/ 333 59014 70399 84618 88462==
41929,2023,08,11,09,00,AAXX 11094 41929 02456 71702 10332 20270 30017 40027 84470 333 59021 70019 83618 83462==
41929,2023,08,11,12,00,AAXX 11124 41929 02456 80000 10300 20270 30016 40026 8357/ 333 10335 59019 70000 83616 85462==
41929,2023,08,11,15,00,AAXX 11154 41929 02456 60000 10280 20260 30036 40046 83510 333 59016 70000 83618 85462==
41929,2023,08,11,18,00,AAXX 11184 41929 02456 60000 10280 20260 30033 40043 83510 333 59022 70000 83618 85462==
41929,2023,08,11,21,00,AAXX 11214 41929 02456 80000 10280 20260 30013 40023 8451/ 333 59024 70000 84616 88462==
41929,2023,08,12,00,00,AAXX 12004 41929 02456 80000 10278 20270 30018 40028 8451/ 333 59020 70000 84616 88462==
41929,2023,08,12,03,00,AAXX 12034 41929 02456 81802 10290 20270 30034 40043 8452/ 333 20270 59015 70000 84618 88462==
41929,2023,08,12,06,00,AAXX 12064 41929 21457 81802 10300 20270 30026 40035 70262 8451/ 333 59010 60047 70035 84618 88462==
41929,2023,08,12,09,00,AAXX 12094 41929 02457 72002 10320 20270 39998 40008 333 59019 70035 83618 83462==
41929,2023,08,12,12,00,AAXX 12124 41929 02457 60000 10302 20270 39994 40004 84470 333 10330 59012 70035 83618 83462==
41929,2023,08,12,15,00,AAXX 12154 41929 01456 80000 10268 20260 30017 40027 70362 8452/ 333 59019 70045 84616 88462==
41929,2023,08,12,18,00,AAXX 12184 41929 41456 80000 10268 20260 30023 40033 76066 8452/ 333 59010 84616 88462==
41929,2023,08,12,21,00,AAXX 12214 41929 02456 80000 10270 20260 30006 40016 8452/ 333 59007 70055 84616 88462==
41929,2023,08,13,00,00,AAXX 13004 41929 02450 80000 10270 20260 30013 40023 8452/ 333 59005 70055 84616 88462==
41929,2023,08,13,03,00,AAXX 13034 41929 01450 81802 10274 20260 30038 40047 76166 8452/ 333 20262 58004 70061 84616 88462==
41929,2023,08,13,06,00,AAXX 13064 41929 21456 81802 10280 20260 30044 40053 76166 8452/ 333 58018 60029 70044 84618 88462==
41929,2023,08,13,09,00,AAXX 13094 41929 21456 70000 10295 20280 30025 40034 70162 85510 333 56990 58027 6994/ 70048 85618 86462=
41929,2023,08,13,12,00,AAXX 13124 41929 11456 80000 10300 20280 30019 40028 69946 70362 8452/ 333 10302 58025 70048 84618 88462==
41929,2023,08,13,15,00,AAXX 13154 41929 02456 40000 10286 20280 30041 40050 84500 333 58024 70038 84618==
41929,2023,08,13,18,00,AAXX 13184 41929 21456 80000 10260 20250 30042 40051 70362 8451/ 333 58019 60057 70075 84618 88462==
41929,2023,08,13,21,00,AAXX 13214 41929 02456 80000 10261 20250 30035 40044 8351/ 333 58029 70075 83618 88462==
41929,2023,08,14,00,00,AAXX 14004 41929 02456 80000 10262 20250 30029 40038 8351/ 333 58016 70075 83618 88462==
41929,2023,08,14,03,00,AAXX 14034 41929 02456 80000 10285 20260 30050 40059 8451/ 333 20252 58012 70069 84618 88462==
41929,2023,08,14,06,00,AAXX 14064 41929 02456 80000 10315 20270 30049 40058 8451/ 333 58005 70051 84618 88462==
41929,2023,08,14,09,00,AAXX 14094 41929 02456 80000 10320 20270 30020 40029 8451/ 333 59005 70047 84618 88462==
41929,2023,08,14,15,00,AAXX 14154 41929 02/56 20000 10285 20280 30034 40043 82030 333 59007 70047 82365==
41929,2023,08,14,18,00,AAXX 14184 41929 02/56 20000 10282 20270 30043 40052 82030 333 58001 70000 82365==
41929,2023,08,14,21,00,AAXX 14214 41929 02/56 20000 10282 20270 30037 40046 82030 333 58002 70000 82365==
41929,2023,08,15,00,00,AAXX 15004 41929 02456 80000 10282 20270 30031 40040 8451/ 333 58002 70000 84618 88462==
41929,2023,08,15,03,00,AAXX 15034 41929 02456 80000 10308 20280 30045 40054 8451/ 333 20275 59005 70000 84618 88462==
41929,2023,08,15,06,00,AAXX 15064 41929 02456 80000 10332 20270 30039 40048 8451/ 333 59010 70000 84618 88462==
41929,2023,08,15,09,00,AAXX 15094 41929 01456 80202 10282 20270 30018 40027 79522 8492/ 333 59002 70074 84615 88460 81930==
41929,2023,08,15,12,00,AAXX 15124 41929 21456 80000 10307 20290 30013 40023 70296 8452/ 333 10352 59003 60075 70074 84616 88458==
41929,2023,08,15,15,00,AAXX 15154 41929 02456 50000 10292 20290 30038 40048 82520 333 58004 70074 82616 85458==
41929,2023,08,15,18,00,AAXX 15184 41929 02/56 40000 10273 20260 30041 40050 84010 333 59002 70074 84462==
41929,2023,08,15,21,00,AAXX 15214 41929 02/56 40000 10274 20260 30033 40042 84010 333 59004 70074 84462==
41929,2023,08,16,00,00,AAXX 16004 41929 02/56 40000 10276 20270 30025 40034 85010 333 59006 70074 85462==
41929,2023,08,16,03,00,AAXX 16034 41929 02456 80000 10300 20280 30039 40048 8451/ 333 20264 59006 70074 84618 88462==
41929,2023,08,16,06,00,AAXX 16064 41929 02456 80000 10332 20280 30035 40044 8451/ 333 59004 70074 84618 88462==
41929,2023,08,16,09,00,AAXX 16094 41929 02456 80000 10332 20280 30035 40044 8451/ 333 59004 70074 84618 88462==
41929,2023,08,16,12,00,AAXX 16124 41929 21456 80000 10292 20280 30006 40015 70362 8452/ 333 10345 59007 60447 70444 84618 88462==
41929,2023,08,16,15,00,AAXX 16154 41929 02/56 40000 10286 20280 30028 40037 84010 333 59010 70444 84462==
41929,2023,08,16,18,00,AAXX 16184 41929 02/56 40000 10279 20270 30029 40038 84010 333 59012 70444 84462==
41929,2023,08,16,21,00,AAXX 16214 41929 02/56 40000 10278 20280 30024 40033 84010 333 59009 70444 84462==
41929,2023,08,17,00,00,AAXX 17004 41929 02/56 50000 10278 20280 30018 40027 85070 333 59007 70444 84462==
41929,2023,08,17,03,00,AAXX 17034 41929 02456 40000 10310 20270 30030 40039 84500 333 20266 59009 70444 84618==
41929,2023,08,17,06,00,AAXX 17064 41929 02/57 41402 10332 20260 30027 40036 84040 333 59008 70444 84365==
41929,2023,08,17,09,00,AAXX 17094 41929 02457 40902 10353 20250 39995 40004 84400 333 59011 70444 82618==
41929,2023,08,17,12,00,AAXX 17124 41929 01457 81802 10334 20260 39998 40007 79522 8592/ 333 10356 59008 70010 84615 88459 81930==
41929,2023,08,17,15,00,AAXX 17154 41929 02456 40000 10294 20280 30031 40040 84510 333 58003 70012 84618==
41929,2023,08,17,18,00,AAXX 17184 41929 02456 40000 10288 20280 30029 40038 84510 333 58000 70012 84618==
41929,2023,08,17,21,00,AAXX 17214 41929 02456 40000 10283 20260 30023 40032 84510 333 59001 70012 84618==
41933,2023,08,11,00,00,AAXX 11004 41933 02450 81802 10270 20260 30047 40056 8452/ 333 58012 70076 84615 88458==
41933,2023,08,11,03,00,AAXX 11034 41933 01350 80000 10280 20260 30049 40058 76122 8572/ 333 20260 59002 70078 82708 83615 88457==
41933,2023,08,11,06,00,AAXX 11064 41933 21456 61802 10298 20260 30042 40050 70162 83510 333 59010 69945 70080 83616 85458==
41933,2023,08,11,09,00,AAXX 11094 41933 02456 61902 10315 20270 30015 40024 83510 333 59019 70080 83615 85458==
41933,2023,08,11,12,00,AAXX 11124 41933 02456 32704 10295 20260 30013 40022 83500 333 10315 59020 70080 83618==
41933,2023,08,11,15,00,AAXX 11154 41933 02956 01802 10284 20250 30038 40047 333 59026 70004==
41933,2023,08,11,18,00,AAXX 11184 41933 02456 61903 10275 20260 30036 40045 83510 333 59025 70004 83618 86459==
41933,2023,08,11,21,00,AAXX 11214 41933 02450 71802 10273 20250 30029 40038 84520 333 59021 70004 84618 87458==
41933,2023,08,12,00,00,AAXX 12004 41933 01340 82104 10271 20250 30022 40031 76122 8572/ 333 59025 70010 82709 84615 88457==
41933,2023,08,12,03,00,AAXX 12034 41933 01350 82102 10285 20270 30037 40046 70262 8572/ 333 20260 59012 70033 82709 84615 88457==
41933,2023,08,12,06,00,AAXX 12064 41933 11350 81804 10296 20260 30034 40043 60026 70262 8572/ 333 59008 70031 82709 84615 88457==
41933,2023,08,12,09,00,AAXX 12094 41933 01350 81801 10288 20270 30004 40012 72122 8572/ 333 59011 70043 82708 83615 88457==
41933,2023,08,12,12,00,AAXX 12124 41933 21350 81802 10291 20260 30000 40008 70262 8561/ 333 10310 59013 60015 70043 82708 83615 88457==
41933,2023,08,12,15,00,AAXX 12154 41933 02350 81902 10285 20270 30016 40025 8562/ 333 59022 70043 80708 83615 88457==
41933,2023,08,12,18,00,AAXX 12184 41933 02350 82103 10280 20260 30027 40036 8562/ 333 59009 70043 82708 83615 88457==
41933,2023,08,12,21,00,AAXX 12214 41933 02350 81802 10275 20260 30018 40027 8562/ 333 59011 70043 82708 83615 88457==
41933,2023,08,13,00,00,AAXX 13004 41933 02350 82002 10270 20250 30013 40022 8562/ 333 59009 70032 82708 83615 88457==
41933,2023,08,13,03,00,AAXX 13034 41933 01450 82202 10265 20260 30040 40048 72162 8452/ 333 20265 58003 70019 84616 88458==
41933,2023,08,13,06,00,AAXX 13064 41933 41340 82402 10262 20250 30040 40048 76162 8672/ 333 59006 82709 84615 88457==
41933,2023,08,13,09,00,AAXX 13094 41933 01350 82402 10268 20260 30022 40030 76196 8572/ 333 58018 70141 82708 84615 88456==
41933,2023,08,13,12,00,AAXX 13124 41933 01350 82401 10266 20260 30019 40027 70296 8572/ 333 10272 58019 70143 82709 84615 88457==
41933,2023,08,13,15,00,AAXX 13154 41933 01340 81802 10267 20260 30042 40050 72166 8572/ 333 58026 70147 82708 84615 88457==
41933,2023,08,13,18,00,AAXX 13184 41933 01340 80000 10266 20260 30042 40050 70262 8562/ 333 58015 70157 82708 83615 88457==
41933,2023,08,13,21,00,AAXX 13214 41933 01340 80000 10266 20260 30030 40038 70262 8562/ 333 58012 70157 82708 83615 88457==
41933,2023,08,14,00,00,AAXX 14004 41933 11340 80000 10265 20260 30028 40036 60006 70262 8562/ 333 58015 70157 82708 83615 88457==
41933,2023,08,14,03,00,AAXX 14034 41933 02350 80000 10275 20260 30047 40055 8562/ 333 20260 58007 70150 82708 83615 88457==
41933,2023,08,14,06,00,AAXX 14064 41933 21350 80000 10282 20260 30044 40052 70262 8562/ 333 58004 60025 70154 82708 83615 88457==
41933,2023,08,14,09,00,AAXX 14094 41933 02456 72102 10299 20260 30017 40025 84510 333 59005 70032 84616 87458==
41933,2023,08,14,15,00,AAXX 14154 41933 02450 62202 10280 20270 30038 40047 84510 333 59004 70026 84616 86458==
41933,2023,08,14,18,00,AAXX 14184 41933 NIL=
41933,2023,08,15,00,00,AAXX 15004 41933 21450 81802 10275 20260 30037 40046 70262 8652/ 333 58009 69995 70018 86616 88457==
41933,2023,08,15,03,00,AAXX 15034 41933 02450 81803 10285 20270 30046 40054 8552/ 333 20272 59001 70018 85614 88457==
41933,2023,08,15,06,00,AAXX 15064 41933 01350 81802 10306 20270 30039 40048 76122 8672/ 333 59005 70000 83708 84614 88457==
41933,2023,08,15,09,00,AAXX 15094 41933 01350 81902 10310 20270 30015 40024 70262 8562/ 333 59002 70064 83708 83615 88457==
41933,2023,08,15,12,00,AAXX 15124 41933 11350 82002 10285 20270 30013 40022 60066 70262 8562/ 333 10315 59001 70064 83708 83615 88457==
41933,2023,08,15,15,00,AAXX 15154 41933 02450 60000 10280 20270 30035 40044 83510 333 59003 70064 83616 86458==
41933,2023,08,15,18,00,AAXX 15184 41933 11340 80000 10280 20270 30037 40046 60002 79562 8592/ 333 59001 70064 82709 84615 88458 81926==
41933,2023,08,15,21,00,AAXX 15214 41933 01340 80000 10264 20250 30033 40042 76196 8572/ 333 59003 70092 82709 84615 88457==
41933,2023,08,16,00,00,AAXX 16004 41933 21340 80000 10262 20250 30027 40036 76196 8672/ 333 59010 60069 70121 83709 84615 88457==
41933,2023,08,16,03,00,AAXX 16034 41933 01350 80000 10266 20260 30043 40052 76166 8572/ 333 20256 59003 70131 82708 83615 88457==
41933,2023,08,16,06,00,AAXX 16064 41933 21356 80000 10310 20260 30033 40042 70262 8561/ 333 59006 60018 70131 82708 83615 88458==
41933,2023,08,16,09,00,AAXX 16094 41933 02456 40502 10327 20270 30003 40012 82530 333 59012 70069 82615 83362==
41933,2023,08,16,12,00,AAXX 16124 41933 02456 40000 10315 20280 30003 40012 82530 333 10335 59010 70069 82615 84362==
41933,2023,08,16,15,00,AAXX 16154 41933 02456 62503 10295 20280 30025 40034 83520 333 59010 70069 83618 86458==
41933,2023,08,16,18,00,AAXX 16184 41933 01456 60000 10270 20250 30029 40038 70292 83520 333 59008 70069 83618 86458==
41933,2023,08,16,21,00,AAXX 16214 41933 02456 60000 10270 20260 30024 40032 83520 333 59009 70039 83618 86458==
41933,2023,08,17,00,00,AAXX 17004 41933 01340 80000 10270 20260 30017 40026 76162 8672/ 333 59010 70010 83709 84615 88457==
41933,2023,08,17,03,00,AAXX 17034 41933 01456 42102 10300 20270 30027 40036 70162 82520 333 20265 59016 70015 82614 84458==
41933,2023,08,17,06,00,AAXX 17064 41933 11456 51803 10315 20280 30021 40030 69956 70362 84820 333 59012 70015 82614 83826 85458==
41933,2023,08,17,09,00,AAXX 17094 41933 01456 41802 10306 20270 39992 40000 72122 83402 333 59011 70017 82616==
41933,2023,08,17,12,00,AAXX 17124 41933 21456 41802 10320 20270 39995 40003 70262 82501 333 10340 59008 69925 70017 82616 83074==
41933,2023,08,17,15,00,AAXX 17154 41933 02456 71903 10301 20270 30031 40039 83520 333 58006 70017 83614 87458==
41933,2023,08,17,18,00,AAXX 17184 41933 21450 71803 10280 20260 30033 40042 70296 85520 333 58004 60017 70029 85614 87458==
41933,2023,08,17,21,00,AAXX 17214 41933 02450 50502 10274 20260 30022 40031 84520 333 59002 70029 84616 85458==
41936,2023,08,11,00,00,AAXX 11004 41936 41412 52003 10272 20260 30036 40042 70522 83530 333 58002 83615 84362==
41936,2023,08,11,03,00,AAXX 11034 41936 41414 52705 10296 20260 30045 40052 70522 82830 333 20270 59004 82615 85362==
41936,2023,08,11,06,00,AAXX 11064 41936 41440 42405 10338 20270 30032 40039 70522 81530 333 59020 81615 84362==
41936,2023,08,11,09,00,AAXX 11094 41936 41440 52205 10338 20270 30014 40021 70522 82830 333 59020 82615 84362==
41936,2023,08,11,12,00,AAXX 11124 41936 02440 52105 10318 20260 30006 40013 82830 333 10342 59025 70000 82615 84362==
41936,2023,08,11,15,00,AAXX 11154 41936 01440 41803 10300 20270 30030 40037 70511 82830 333 59021 70000 82615 83362==
41936,2023,08,11,18,00,AAXX 11184 41936 01440 52006 10290 20270 30029 40036 70522 82830 333 59021 70000 82615 84362==
41936,2023,08,11,21,00,AAXX 11214 41936 01430 72106 10280 20270 30018 40025 70532 84630 333 59018 70000 83710 83615 86362==
41936,2023,08,12,00,00,AAXX 12004 41936 01416 72303 10268 20260 30016 40023 70522 84630 333 59019 70000 82710 83615 85362==
41936,2023,08,12,03,00,AAXX 12034 41936 01416 72005 10288 20270 30030 40037 70522 83630 333 20264 59015 70000 83710 83615 85362==
41936,2023,08,12,06,00,AAXX 12064 41936 01314 62608 10310 20270 30031 40038 70522 84630 333 70000 83708 83615 86362==
41936,2023,08,12,09,00,AAXX 12094 41936 01414 62104 10326 20280 39998 40005 70522 82630 333 59016 70000 82710 83615==
41936,2023,08,12,12,00,AAXX 12124 41936 01205 83610 10300 20270 39998 40005 79596 86930 333 10330 59008 70070 86704 83612 88359 81930==
41936,2023,08,12,15,00,AAXX 12154 41936 01312 82005 10264 20250 30014 40021 79596 8493/ 333 59013 70280 84707 83615 87360 81930==
41936,2023,08,12,18,00,AAXX 12184 41936 01314 72403 10266 20260 30022 40029 72196 84630 333 59007 70240 84708 83615 86362==
41936,2023,08,12,21,00,AAXX 12214 41936 01314 70000 10264 20250 30006 40013 70522 84630 333 59012 70310 84708 83615 86362==
41936,2023,08,13,00,00,AAXX 13004 41936 01314 70000 10264 20250 30006 40013 70522 84630 333 59012 70310 84708 83615 86362==
41936,2023,08,13,03,00,AAXX 13034 41936 01310 81803 10274 20260 30032 40040 76166 8573/ 333 20262 58003 70360 83708 83615 87362==
41936,2023,08,13,06,00,AAXX 13064 41936 01312 81906 10288 20280 30035 40042 76166 8573/ 333 58004 70030 84707 83615 87362==
41936,2023,08,13,09,00,AAXX 13094 41936 01416 82503 10300 20270 30022 40029 72166 84630 333 58024 70370 83710 83615 86362==
41936,2023,08,13,12,00,AAXX 13124 41936 01416 72603 10302 20270 30016 40023 70562 84630 333 10308 58018 70300 82710 83615 85362==
41936,2023,08,13,15,00,AAXX 13154 41936 01416 72503 10286 20280 30034 40041 70522 84630 333 58020 70090 83710 83615 86362==
41936,2023,08,13,18,00,AAXX 13184 41936 01414 70703 10260 20250 30040 40047 72169 84630 333 58018 70000 83710 83615 86362==
41936,2023,08,13,21,00,AAXX 13214 41936 01414 71703 10260 20250 30032 40039 70522 84630 333 58026 70060 83710 83615 86362==
41936,2023,08,14,00,00,AAXX 14004 41936 01412 71803 10260 20250 30028 40035 72166 84630 333 58018 70020 83710 83615 86362==
41936,2023,08,14,03,00,AAXX 14034 41936 01410 71804 10280 20260 30052 40059 70522 84630 333 20256 58019 70030 83710 83615 86362==
41936,2023,08,14,06,00,AAXX 14064 41936 01412 72204 10320 20270 30047 40054 70522 84630 333 58012 70020 83710 83615 86362==
41936,2023,08,14,09,00,AAXX 14094 41936 01418 72408 10332 20260 30019 40026 70522 82630 333 59003 70020 82710 83615 86362==
41936,2023,08,14,12,00,AAXX 14124 41936 01416 62004 10314 20270 30012 40019 70522 83630 333 10334 59004 70020 82710 83615 85362==
41936,2023,08,14,15,00,AAXX 14154 41936 01416 70000 10296 20270 30030 40037 70522 83630 333 58004 70020 81710 83615 85362==
41936,2023,08,14,18,00,AAXX 14184 41936 01416 60000 10288 20270 30030 40037 70522 82530 333 59010 70020 83615 85362==
41936,2023,08,14,21,00,AAXX 14214 41936 01412 60000 10280 20260 30024 40031 70522 82530 333 59008 70020 83615 85362==
41936,2023,08,15,00,00,AAXX 15004 41936 01407 50000 10272 20260 30030 40037 74122 82530 333 58002 70000 83615 84362==
41936,2023,08,15,03,00,AAXX 15034 41936 01414 42306 10308 20270 30040 40047 70542 82830 333 20270 59012 70000 82615 83362==
41936,2023,08,15,06,00,AAXX 15064 41936 01420 62106 10344 20270 30036 40043 70522 83830 333 59011 70000 83615 84362==
41936,2023,08,15,09,00,AAXX 15094 41936 01420 61904 10362 20250 30015 40021 70522 83830 333 59005 70000 83615 84362==
41936,2023,08,15,12,00,AAXX 15124 41936 01420 62104 10330 20290 30003 40010 70522 82630 333 10364 59009 70000 82710 83615==
41936,2023,08,15,15,00,AAXX 15154 41936 01320 80403 10290 20280 30033 40040 71796 84920 333 58003 70030 82708 83615 87260 81930==
41936,2023,08,15,18,00,AAXX 15184 41936 01320 71203 10282 20270 30034 40041 70596 84630 333 58004 70030 82708 83615 86362==
41936,2023,08,15,21,00,AAXX 15214 41936 01416 50000 10278 20270 30025 40032 70522 83830 333 58001 70030 83615 85362==
41936,2023,08,16,00,00,AAXX 16004 41936 01407 51803 10278 20270 30026 40033 74142 83830 333 59004 70030 83615 85362==
41936,2023,08,16,03,00,AAXX 16034 41936 01/12 32505 10314 20280 30034 40041 70511 80030 333 20274 59006 70030==
41936,2023,08,16,06,00,AAXX 16064 41936 01416 52405 10348 20270 30030 40037 70511 81530 333 59006 70030 81615 84362==
41936,2023,08,16,09,00,AAXX 16094 41936 01310 82305 10282 20260 30000 40007 79591 85930 333 59014 70190 84708 83615 87360 81930==
41936,2023,08,16,12,00,AAXX 16124 41936 01309 72203 10280 20260 30004 40011 79599 84930 333 10350 58001 70170 83710 83615 86362 81930==
41936,2023,08,16,15,00,AAXX 16154 41936 01310 72003 10282 20260 30028 40035 70562 83630 333 59005 70200 81710 83615 85362==
41936,2023,08,16,18,00,AAXX 16184 41936 01310 62603 10280 20270 30023 40030 70522 83630 333 59011 70009 82710 83615 85362==
41936,2023,08,16,21,00,AAXX 16214 41936 01410 70000 10274 20260 30010 40017 70522 83630 333 59015 70200 83615 85362==
41936,2023,08,17,00,00,AAXX 17004 41936 01310 73503 10274 20260 30013 40020 70522 84630 333 59013 70170 82710 83615 85362==
41936,2023,08,17,03,00,AAXX 17034 41936 01412 40704 10318 20280 30024 40031 70522 82830 333 20270 59010 70170 82615 83362==
41936,2023,08,17,06,00,AAXX 17064 41936 01418 41006 10350 20270 30018 40025 70522 82830 333 59012 70170 83615 84362==
41936,2023,08,17,09,00,AAXX 17094 41936 01425 31106 10352 20270 39992 49998 70511 82830 333 59009 70010 82615==
41936,2023,08,17,12,00,AAXX 17124 41936 01420 31303 10302 20280 39996 40003 70562 82830 333 10355 59008 70030 82615 83362==
41936,2023,08,17,15,00,AAXX 17154 41936 01420 40403 10284 20260 30021 40028 70562 82830 333 59007 70030 81615 84362==
41936,2023,08,17,18,00,AAXX 17184 41936 01414 40000 10278 20260 30024 40031 70522 82830 333 58001 70030 83615 84362==
41936,2023,08,17,21,00,AAXX 17214 41936 01412 40000 10276 20270 30008 40015 70522 82830 333 59007 70030 83615 84362==
41938,2023,08,11,00,00,AAXX 11004 41938 32450 70000 10265 20240 30034 40038 84510 333 59004 70038 84618 84459=
41938,2023,08,11,06,00,AAXX 11064 41938 32450 70000 10300 20270 30054 40058 84510 333 56990 58009 70038 84618 84459=
41938,2023,08,11,12,00,AAXX 11124 41938 11450 50000 10295 20270 30030 40034 60016 70162 84511 333 10303 56999 59004 70010 84618=
41938,2023,08,11,18,00,AAXX 11184 41938 32450 30000 10275 20270 30036 40040 83500 333 56900 58002 70010 83618=
41938,2023,08,12,00,00,AAXX 12004 41938 32450 30000 10265 20250 30036 40040 83500 333 56900 58005 70010 83618=
41938,2023,08,12,06,00,AAXX 12064 41938 32456 82202 10300 20270 30029 40033 8341/ 333 56599 59025 70010 82618 88460=
41938,2023,08,12,12,00,AAXX 12124 41938 32956 72001 10294 20260 30004 40008 85072 333 10320 56099 59026 70000 84460 84079=
41938,2023,08,12,18,00,AAXX 12184 41938 11330 80000 10264 20250 30024 40028 60037 76196 8532/ 333 56699 59012 70030 81708 84616 81930 88458=
41938,2023,08,13,00,00,AAXX 13004 41938 11440 80000 10266 20266 30019 40023 60073 76162 8532/ 333 56599 59009 70100 84616 81930 88459=
41938,2023,08,13,06,00,AAXX 13064 41938 11450 82301 10278 20270 30040 40044 60123 76166 8441/ 333 56599 58011 70216 82617 83824 88460=
41938,2023,08,13,12,00,AAXX 13124 41938 32956 62201 10290 20270 30022 40026 86072 333 10300 56099 58018 70216 83460 85362=
41938,2023,08,13,18,00,AAXX 13184 41938 11340 82702 10260 20250 30045 40049 60024 76122 8572/ 333 56699 58021 70202 82708 84615 88460=
41938,2023,08,14,00,00,AAXX 14004 41938 11325 70000 10251 20250 30033 40037 60409 76066 8472/ 333 56699 58014 70530 81709 84616 87460=
41938,2023,08,14,06,00,AAXX 14064 41938 11330 82301 10278 20270 30049 40053 60035 70565 8572/ 333 56599 58009 70441 81708 85616 88460=
41938,2023,08,14,18,00,AAXX 14184 41938 11350 80000 10280 20270 30045 40049 69904 76122 8472/ 333 56599 58000 70425 81708 84616 88460=
41938,2023,08,15,00,00,AAXX 15004 41938 NIL=
41938,2023,08,15,06,00,AAXX 15064 41938 31450 72301 10325 20270 30041 40045 70521 86410 333 56590 59008 70016 84517 83825 87460=
41938,2023,08,15,12,00,AAXX 15124 41938 31950 82202 10313 20270 30014 40018 70522 8242/ 333 10345 56599 59006 70016 81618 88459=
41938,2023,08,15,18,00,AAXX 15184 41938 31950 20000 10287 20280 30040 40044 70521 82011 333 56099 59005 70016 82460=
41938,2023,08,16,00,00,AAXX 16004 41938 31430 80000 10275 20270 30031 40035 70521 8152/ 333 56599 59002 70000 81618 88459=
41938,2023,08,16,06,00,AAXX 16064 41938 31450 82201 10328 20290 30035 40039 70522 8441/ 333 56599 59006 70000 82618 83825 88459=
41938,2023,08,16,12,00,AAXX 16124 41938 32450 70000 10297 20280 30019 40023 84410 333 10344 56490 58005 70000 83618 84459=
41938,2023,08,16,18,00,AAXX 16184 41938 11450 60000 10282 20260 30035 40039 69926 70262 84510 333 56990 59006 70002 84618 83459=
41938,2023,08,17,00,00,AAXX 17004 41938 32450 70000 10275 20270 30032 40036 85410 333 56990 58004 70002 84618 83459=
41938,2023,08,17,06,00,AAXX 17064 41938 32456 40000 10338 20260 30023 40027 84410 333 56490 59012 70002 83618=
41938,2023,08,17,12,00,AAXX 17124 41938 11456 41602 10319 20280 30001 40005 69904 72192 83431 333 10345 56399 59018 70002 83616=
41938,2023,08,17,18,00,AAXX 17184 41938 32956 21204 10282 20260 30029 40033 82030 333 56090 59006 79999 82362=
41939,2023,08,11,00,00,AAXX 11004 41939 02456 70000 10270 20260 30048 40056 83510 333 58015 70203 83617 86459==
41939,2023,08,11,03,00,AAXX 11034 41939 02458 80000 10292 20270 30056 40064 8352/ 333 20258 58014 70203 83617 88459==
41939,2023,08,11,06,00,AAXX 11064 41939 02457 80000 10307 20290 30046 40054 8352/ 333 59004 70203 83617 88459==
41939,2023,08,11,09,00,AAXX 11094 41939 01458 70000 10316 20280 30027 40034 70162 82510 333 59018 70006 82618 87459==
41939,2023,08,11,12,00,AAXX 11124 41939 11457 60000 10288 20270 30012 40020 60016 70162 83530 333 10320 59031 70006 83618 83365==
41939,2023,08,11,15,00,AAXX 11154 41939 02950 00000 10280 20260 30028 40036 333 59037 70006==
41939,2023,08,11,18,00,AAXX 11184 41939 02450 50000 10273 20260 30040 40048 82510 333 59035 70006 82618 85459==
41939,2023,08,11,21,00,AAXX 11214 41939 02450 60000 10275 20270 30038 40046 82510 333 59014 70006 82618 85459==
41939,2023,08,12,00,00,AAXX 12004 41939 02456 80000 10277 20270 30026 40034 8352/ 333 59022 70006 83617 88459==
41939,2023,08,12,03,00,AAXX 12034 41939 02457 70000 10285 20280 30040 40048 82510 333 20270 59016 70006 82618 87459==
41939,2023,08,12,06,00,AAXX 12064 41939 02457 80000 10300 20280 30040 40048 8352/ 333 59010 70000 83618 88459==
41939,2023,08,12,09,00,AAXX 12094 41939 02458 70000 10310 20260 30000 40008 83510 333 59027 70000 83618 86459==
41939,2023,08,12,15,00,AAXX 12154 41939 02456 50000 10290 20260 30022 40030 82530 333 59006 70000 83617 83364==
41939,2023,08,12,18,00,AAXX 12184 41939 02456 70000 10278 20260 30033 40041 82510 333 59007 70000 82617 86459==
41939,2023,08,12,21,00,AAXX 12214 41939 01440 80000 10272 20260 30021 40029 76162 8352/ 333 59017 70024 83616 88459==
41939,2023,08,13,00,00,AAXX 13004 41939 21456 80000 10270 20270 30014 40022 76162 8352/ 333 59012 60069 70056 83616 88459==
41939,2023,08,13,03,00,AAXX 13034 41939 01457 80000 10270 20260 30032 40040 76162 8352/ 333 20263 59008 70102 83616 88459==
41939,2023,08,13,06,00,AAXX 13064 41939 22456 80000 10280 20270 30046 40054 8352/ 333 58006 60329 70374 83616 88459==
41939,2023,08,13,09,00,AAXX 13094 41939 02456 80000 10303 20260 30025 40033 8352/ 333 58025 70374 83616 88460==
41939,2023,08,13,12,00,AAXX 13124 41939 01456 80000 10277 20270 30027 40035 76162 8352/ 333 10305 58021 70160 83616 88459==
41939,2023,08,13,15,00,AAXX 13154 41939 02450 80000 10275 20270 30051 40059 8352/ 333 58029 70532 83617 88459==
41939,2023,08,13,18,00,AAXX 13184 41939 02450 80000 10275 20270 30065 40073 8352/ 333 58032 70532 83617 88459==
41939,2023,08,13,21,00,AAXX 13214 41939 01456 80000 10263 20260 30048 40056 70262 8252/ 333 58027 70546 82618 88459==
41939,2023,08,14,00,00,AAXX 14004 41939 11456 80000 10260 20260 30043 40051 60046 70262 8252/ 333 58017 70514 82617 88459==
41939,2023,08,14,03,00,AAXX 14034 41939 02457 80000 10276 20270 30058 40066 8352/ 333 20253 58026 70466 83617 88459==
41939,2023,08,14,06,00,AAXX 14064 41939 02456 80000 10295 20280 30054 40061 8352/ 333 58008 70194 83616 88460==
41939,2023,08,14,09,00,AAXX 14094 41939 02457 40000 10310 20270 30025 40033 82530 333 58000 70194 82618 83362==
41939,2023,08,14,15,00,AAXX 14154 41939 02450 50000 10290 20270 30032 40040 82510 333 59019 70038 82618 85459==
41939,2023,08,14,18,00,AAXX 14184 41939 02450 60000 10280 20260 30045 40053 83510 333 59020 70038 83618 85459==
41939,2023,08,15,00,00,AAXX 15004 41939 02456 30000 10275 20270 30041 40049 82530 333 59002 70000 82618==
41939,2023,08,15,03,00,AAXX 15034 41939 02458 60000 10295 20280 30053 40061 82510 333 20265 59005 70000 82618 86459==
41939,2023,08,15,06,00,AAXX 15064 41939 02458 60000 10340 20270 30036 40044 83510 333 59018 70000 83618 85459==
41939,2023,08,15,09,00,AAXX 15094 41939 02457 60000 10300 20270 30021 40028 82510 333 59004 70000 82617 86459==
41939,2023,08,15,12,00,AAXX 15124 41939 02457 50000 10300 20270 30022 40030 83530 333 10340 58007 70000 83617 83364==
41939,2023,08,15,15,00,AAXX 15154 41939 02456 50000 10285 20280 30035 40043 83530 333 58003 70000 83617 83364==
41939,2023,08,15,18,00,AAXX 15184 41939 02456 50000 10278 20270 30045 40053 83530 333 58000 70000 83617 83364==
41939,2023,08,15,21,00,AAXX 15214 41939 02450 80000 10283 20270 30035 40043 8352/ 333 59011 70000 83618 88459==
41939,2023,08,16,00,00,AAXX 16004 41939 02457 80000 10280 20270 30025 40033 8352/ 333 59016 70000 83618 88459==
41939,2023,08,16,03,00,AAXX 16034 41939 02457 80000 10290 20280 30038 40046 8352/ 333 20273 59015 70000 83618 88459==
41939,2023,08,16,06,00,AAXX 16064 41939 02457 60000 10315 20270 30035 40042 83510 333 59001 70000 83618 86460==
41939,2023,08,16,09,00,AAXX 16094 41939 02458 40000 10335 20270 30008 40016 82530 333 59013 70000 82618 83362==
41939,2023,08,16,12,00,AAXX 16124 41939 01450 80000 10280 20270 30022 40029 76122 8352/ 333 10340 58000 70210 83616 88458==
41939,2023,08,16,15,00,AAXX 16154 41939 01450 80000 10277 20270 30032 40040 70262 8352/ 333 59003 70562 83617 88459==
41939,2023,08,16,18,00,AAXX 16184 41939 11450 80000 10275 20270 30041 40049 60356 70262 8352/ 333 59004 70562 83617 88459==
41939,2023,08,16,21,00,AAXX 16214 41939 02456 80000 10270 20270 30030 40038 8352/ 333 59005 70562 83617 88459==
41939,2023,08,17,00,00,AAXX 17004 41939 02457 80000 10273 20270 30024 40032 8352/ 333 59001 70562 83617 88459==
41939,2023,08,17,03,00,AAXX 17034 41939 02458 80000 10288 20270 30035 40043 8352/ 333 20265 59003 70562 83617 88459==
41939,2023,08,17,06,00,AAXX 17064 41939 02458 40000 10335 20270 30025 40033 82530 333 59010 70562 82618 83360==
41939,2023,08,17,09,00,AAXX 17094 41939 02459 40000 10330 20280 39996 40004 83430 333 59012 70562 82618 83362==
41939,2023,08,17,12,00,AAXX 17124 41939 02458 40000 10325 20250 39996 40004 83430 333 10345 59026 70352 82618 83365==
41939,2023,08,17,15,00,AAXX 17154 41939 02450 20000 10300 20270 30018 40026 82500 333 59014 70000 82618==
41939,2023,08,17,18,00,AAXX 17184 41939 02450 20000 10286 20270 30027 40035 82500 333 59014 70000 82618==
41939,2023,08,17,21,00,AAXX 17214 41939 02450 20000 10282 20260 30020 40027 82500 333 59010 70000 82618==
41941,2023,08,11,00,00,AAXX 11004 41941 42450 81804 10272 20270 30044 40050 8632/ 333 58001==
41941,2023,08,11,03,00,AAXX 11034 41941 01450 80000 10286 20280 30052 40057 72162 8632/ 333 20266 59007 70030 85614 88456 81925==
41941,2023,08,11,06,00,AAXX 11064 41941 21440 80000 10270 20270 30050 40056 76566 8772/ 333 59009 60327 70330 82708 83612 88456 81924==
41941,2023,08,11,09,00,AAXX 11094 41941 01456 71803 10305 20270 30027 40032 70162 85420 333 59017 70370 84616 87458==
41941,2023,08,11,12,00,AAXX 11124 41941 11456 61803 10295 20270 30024 40029 60056 70162 85420 333 10322 59014 70370 84616 86458==
41941,2023,08,11,15,00,AAXX 11154 41941 02450 70000 10294 20260 30038 40043 85420 333 59022 70370 84616 87458==
41941,2023,08,11,18,00,AAXX 11184 41941 01440 81804 10274 20260 30046 40052 71322 8632/ 333 59016 70370 85616 88458 81928==
41941,2023,08,11,21,00,AAXX 11214 41941 01440 81804 10270 20260 30038 40044 71322 8632/ 333 59014 70370 85616 88458 81930==
41941,2023,08,12,00,00,AAXX 12004 41941 02450 80000 10280 20280 30034 40040 8632/ 333 59010 70370 85615 88458 81928==
41941,2023,08,12,03,00,AAXX 12034 41941 01440 81803 10265 20265 30039 40045 76322 8632/ 333 20264 59013 70420 85613 88456 81924==
41941,2023,08,12,06,00,AAXX 12064 41941 21456 71804 10300 20270 30035 40040 70162 85420 333 59015 60115 70160 84616 87458==
41941,2023,08,12,09,00,AAXX 12094 41941 01450 81804 10285 20285 30014 40019 72162 8632/ 333 59013 70230 85614 88456 81925==
41941,2023,08,12,12,00,AAXX 12124 41941 21450 82303 10290 20270 30007 40012 70262 8632/ 333 10318 59017 60127 70230 85616 88458 81928==
41941,2023,08,12,15,00,AAXX 12154 41941 01440 80000 10283 20270 30027 40032 71322 8632/ 333 59011 70230 85615 88458 81928==
41941,2023,08,12,18,00,AAXX 12184 41941 01440 80000 10280 20270 30032 40037 71322 8632/ 333 59014 70230 85614 88458 81928==
41941,2023,08,12,21,00,AAXX 12214 41941 01440 81804 10274 20260 30026 40031 71322 8632/ 333 59012 70230 85614 88458 81926==
41941,2023,08,13,00,00,AAXX 13004 41941 11340 81804 10255 20255 30023 40029 60086 72996 8792/ 333 59011 70310 82707 83612 88456 81924==
41941,2023,08,13,03,00,AAXX 13034 41941 01340 80000 10254 20250 30047 40053 76566 8772/ 333 20252 58008 70480 82706 83612 88456 81924==
41941,2023,08,13,06,00,AAXX 13064 41941 21350 80000 10274 20270 30046 40052 76166 8772/ 333 58011 60399 70590 82706 83612 88456 81924==
41941,2023,08,13,09,00,AAXX 13094 41941 01450 80000 10295 20290 30027 40033 70162 8632/ 333 58013 70480 85616 88458 81930==
41941,2023,08,13,12,00,AAXX 13124 41941 01450 80000 10282 20270 30024 40030 70262 8632/ 333 10298 58017 70010 85616 88458 81930==
41941,2023,08,13,15,00,AAXX 13154 41941 01440 80000 10273 20270 30047 40053 76162 8632/ 333 58020 70490 85616 88458 81930==
41941,2023,08,13,18,00,AAXX 13184 41941 11440 80000 10270 20270 30051 40057 60036 70262 8632/ 333 58019 70510 85616 88458 81930==
41941,2023,08,13,21,00,AAXX 13214 41941 01440 80000 10267 20267 30041 40047 70262 8632/ 333 58015 70540 85616 88458 81930==
41941,2023,08,14,00,00,AAXX 14004 41941 01440 80000 10264 20260 30036 40042 70262 8632/ 333 58013 70030 85616 88458 81930==
41941,2023,08,14,03,00,AAXX 14034 41941 02450 80000 10282 20270 30054 40060 8632/ 333 20259 58007 70220 85616 88458 81930==
41941,2023,08,14,06,00,AAXX 14064 41941 02456 81803 10298 20260 30050 40056 8632/ 333 58004 70070 85616 88458 81930==
41941,2023,08,14,09,00,AAXX 14094 41941 02450 80000 10295 20270 30030 40036 8632/ 333 58003 70060 85616 88458 81930==
41941,2023,08,14,15,00,AAXX 14154 41941 02440 60000 10283 20270 30042 40048 85420 333 59005 70050 84616 86458==
41941,2023,08,14,18,00,AAXX 14184 41941 NIL=
41941,2023,08,14,21,00,AAXX 14214 41941 02440 60000 10278 20278 30043 40049 85420 333 58002 70000 84616 86458==
41941,2023,08,15,00,00,AAXX 15004 41941 02450 61802 10276 20270 30037 40043 85420 333 58001 70000 84616 86458==
41941,2023,08,15,03,00,AAXX 15034 41941 02450 71802 10300 20270 30052 40058 85420 333 20276 59002 70000 84616 87458==
41941,2023,08,15,06,00,AAXX 15064 41941 02456 71802 10325 20290 30043 40048 85420 333 59007 70000 84616 87458==
41941,2023,08,15,09,00,AAXX 15094 41941 02450 70000 10310 20290 30033 40038 85420 333 58003 70000 84616 87458==
41941,2023,08,15,12,00,AAXX 15124 41941 02450 71802 10303 20280 30019 40024 85420 333 10335 59001 70000 84616 87458==
41941,2023,08,15,15,00,AAXX 15154 41941 02440 70000 10290 20280 30044 40049 85420 333 58002 70000 84616 87458==
41941,2023,08,15,18,00,AAXX 15184 41941 02440 71803 10287 20280 30050 40055 85420 333 58003 70000 84616 87458==
41941,2023,08,15,21,00,AAXX 15214 41941 02440 70000 10285 20280 30046 40052 85420 333 58003 70000 84616 87458==
41941,2023,08,16,00,00,AAXX 16004 41941 01440 80000 10280 20280 30034 40040 76162 8632/ 333 59003 70020 85614 88458 81925==
41941,2023,08,16,03,00,AAXX 16034 41941 01450 80000 10292 20280 30047 40052 72162 8632/ 333 20278 59005 70030 85616 88458 81930==
41941,2023,08,16,06,00,AAXX 16064 41941 11450 81802 10325 20290 30050 40055 60016 70262 8632/ 333 58007 70030 85616 88458 81930==
41941,2023,08,16,09,00,AAXX 16094 41941 02456 61802 10317 20280 30014 40019 85420 333 59019 70030 84616 86458==
41941,2023,08,16,12,00,AAXX 16124 41941 02456 61802 10312 20280 30018 40023 85420 333 10350 59001 70030 84616 86458==
41941,2023,08,16,15,00,AAXX 16154 41941 01440 80000 10295 20290 30033 40038 71322 8632/ 333 59011 70030 85616 88458 81926==
41941,2023,08,16,18,00,AAXX 16184 41941 01440 80000 10280 20280 30036 40041 72162 8632/ 333 59014 70030 85616 88458 81926==
41941,2023,08,16,21,00,AAXX 16214 41941 02440 80000 10275 20275 30030 40035 8632/ 333 59016 70060 85616 88458 81930==
41941,2023,08,17,00,00,AAXX 17004 41941 01450 80000 10270 20270 30024 40029 70262 8632/ 333 59010 70010 85614 88456 81925==
41941,2023,08,17,03,00,AAXX 17034 41941 02450 80000 10290 20290 30035 40041 8632/ 333 20268 59012 70040 85616 88458 81930==
41941,2023,08,17,06,00,AAXX 17064 41941 02456 60000 10332 20270 30031 40036 84420 333 59019 70040 83618 86458==
41941,2023,08,17,09,00,AAXX 17094 41941 02456 61802 10345 20270 30016 40022 84420 333 58002 70040 83618 86458==
41941,2023,08,17,12,00,AAXX 17124 41941 02456 60000 10315 20270 30002 40007 83530 333 10350 59016 70040 83618 86362==
41941,2023,08,17,15,00,AAXX 17154 41941 02440 60000 10297 20280 30036 40041 84530 333 58003 70040 84618 86362==
41941,2023,08,17,18,00,AAXX 17184 41941 02440 80000 10290 20280 30039 40044 8632/ 333 58003 70010 85616 88458 81930==
41941,2023,08,17,21,00,AAXX 17214 41941 02440 80000 10285 20280 30036 40041 8632/ 333 58006 70010 85616 88458 81930==
41943,2023,08,11,00,00,AAXX 11004 41943 02430 80000 10255 20250 30047 40054 8662/ 333 58002 70070 83710 84615 88458==
41943,2023,08,11,03,00,AAXX 11034 41943 02330 81603 10275 20260 30058 40065 8762/ 333 20250 59003 70070 84709 84615 88458==
41943,2023,08,11,06,00,AAXX 11064 41943 02435 71802 10300 20250 30047 40054 85420 333 59017 70070 84616 86458==
41943,2023,08,11,09,00,AAXX 11094 41943 02435 61802 10304 20250 30026 40033 84520 333 59013 70070 83616 85458==
41943,2023,08,11,12,00,AAXX 11124 41943 02435 61802 10288 20250 30022 40029 83520 333 10310 58022 70070 83616 85458==
41943,2023,08,11,15,00,AAXX 11154 41943 02430 71802 10272 20250 30048 40055 84520 333 59018 70070 84616 86458==
41943,2023,08,11,18,00,AAXX 11184 41943 02430 80000 10267 20260 30045 40052 8662/ 333 59016 70000 83710 84615 88458==
41943,2023,08,11,21,00,AAXX 11214 41943 02330 80000 10264 20264 30033 40040 8662/ 333 59013 70000 83710 84615 88458==
41943,2023,08,12,00,00,AAXX 12004 41943 02330 80000 10262 20250 30030 40037 8662/ 333 59017 70000 83710 84615 88458==
41943,2023,08,12,03,00,AAXX 12034 41943 01330 81802 10274 20250 30044 40051 70262 8662/ 333 20260 59014 70010 83710 84614 88458==
41943,2023,08,12,06,00,AAXX 12064 41943 11335 61804 10312 20250 30037 40044 60016 70162 83520 333 59010 70010 83616 85458==
41943,2023,08,12,09,00,AAXX 12094 41943 02440 61303 10306 20260 30012 40019 83520 333 59014 70010 83616 85458==
41943,2023,08,12,12,00,AAXX 12124 41943 02440 61802 10284 20250 30008 40015 83520 333 10318 59014 70010 83616 85458==
41943,2023,08,12,15,00,AAXX 12154 41943 02330 81802 10276 20260 30030 40037 8662/ 333 59018 70010 83710 84614 88458==
41943,2023,08,12,18,00,AAXX 12184 41943 02330 81802 10270 20250 30041 40048 8662/ 333 59004 70010 83710 84614 88458==
41943,2023,08,12,21,00,AAXX 12214 41943 02330 80000 10266 20260 30032 40039 8662/ 333 59001 70010 84615 88458==
41943,2023,08,13,00,00,AAXX 13004 41943 02330 80000 10266 20260 30032 40039 8662/ 333 59001 70010 84615 88458==
41943,2023,08,13,03,00,AAXX 13034 41943 02330 81802 10276 20260 30044 40051 8662/ 333 20260 58000 70000 83710 84615 88458==
41943,2023,08,13,06,00,AAXX 13064 41943 02330 81802 10282 20240 30045 40052 8662/ 333 58008 70000 83710 84615 88458==
41943,2023,08,13,09,00,AAXX 13094 41943 01330 03102 10276 20260 30026 40033 70262 8662/ 333 58014 70020 83710 84615 88458==
41943,2023,08,13,12,00,AAXX 13124 41943 11330 83102 10270 20250 30022 40029 60026 70262 8662/ 333 10300 58014 70020 83710 84615 88458==
41943,2023,08,13,15,00,AAXX 13154 41943 02330 81802 10262 20240 30045 40052 8662/ 333 58015 70020 83710 84615 88458==
41943,2023,08,13,18,00,AAXX 13184 41943 21330 81802 10258 20250 30052 40059 76162 8772/ 333 58011 60057 70070 83709 84614 88456==
41943,2023,08,13,21,00,AAXX 13214 41943 01330 80000 10256 20250 30034 40041 70262 8662/ 333 58002 70120 83710 84615 88458==
41943,2023,08,14,00,00,AAXX 14004 41943 11330 80000 10256 20250 30036 40043 60056 70262 8662/ 333 58008 70120 83710 84615 88458==
41943,2023,08,14,03,00,AAXX 14034 41943 02330 81302 10276 20260 30053 40060 8662/ 333 20254 58009 70120 83710 84615 88458==
41943,2023,08,14,06,00,AAXX 14064 41943 02440 61302 10302 20260 30049 40056 83520 333 58004 70120 83616 85458==
41943,2023,08,14,09,00,AAXX 14094 41943 01330 81802 10276 20270 30028 40035 76162 8772/ 333 58002 70190 83709 84614 88456==
41943,2023,08,14,12,00,AAXX 14124 41943 21330 81802 10290 20260 30021 40028 70240 83710 333 10306 59001 60147 70240 83710 84615 88458==
41943,2023,08,14,15,00,AAXX 14154 41943 02330 81802 10276 20260 30042 40049 8662/ 333 59003 70240 83710 84614 88458==
41943,2023,08,14,18,00,AAXX 14184 41943 02330 80000 10272 20250 30055 40062 8662/ 333 58003 70190 83710 84614 88458==
41943,2023,08,14,21,00,AAXX 14214 41943 02330 80000 10272 20260 30047 40054 8662/ 333 58013 70140 83710 84614 88458==
41943,2023,08,15,00,00,AAXX 15004 41943 02330 80000 10270 20260 30039 40046 8662/ 333 58003 70140 83710 84614 88458==
41943,2023,08,15,03,00,AAXX 15034 41943 02330 81802 10278 20260 30054 40061 8662/ 333 20252 58001 70140 83710 84614 88458==
41943,2023,08,15,06,00,AAXX 15064 41943 02330 81802 10295 20270 30049 40057 8662/ 333 58000 70140 83710 84614 88458==
41943,2023,08,15,09,00,AAXX 15094 41943 02440 61802 10310 20260 30025 40032 83520 333 59003 70050 83616 85658==
41943,2023,08,15,12,00,AAXX 15124 41943 02330 81802 10300 20250 30018 40025 8662/ 333 10325 59003 70000 83710 84614 88458==
41943,2023,08,15,15,00,AAXX 15154 41943 02330 81802 10285 20280 30043 40050 8662/ 333 58001 70000 83710 84614 88458==
41943,2023,08,15,18,00,AAXX 15184 41943 02330 80000 10278 20270 30050 40057 8662/ 333 59005 70000 84614 88458==
41943,2023,08,15,21,00,AAXX 15214 41943 02330 80000 10275 20270 30040 40047 8662/ 333 59007 70000 83710 84615 88458==
41943,2023,08,16,00,00,AAXX 16004 41943 02330 80000 10275 20270 30036 40043 8662/ 333 59003 70000 83710 84615 88458==
41943,2023,08,16,03,00,AAXX 16034 41943 02330 81802 10290 20240 30048 40055 8662/ 333 20275 59006 70000 83710 84615 88458==
41943,2023,08,16,06,00,AAXX 16064 41943 02350 80000 10325 20260 30041 40048 8662/ 333 59008 70000 83710 84615 88458==
41943,2023,08,16,09,00,AAXX 16094 41943 02440 61802 10328 20260 30012 40019 84520 333 59013 70000 84616 84458==
41943,2023,08,16,12,00,AAXX 16124 41943 02440 71802 10310 20250 30005 40012 84520 333 10332 59013 70000 84616 86458==
41943,2023,08,16,15,00,AAXX 16154 41943 02430 61802 10294 20260 30034 40041 83520 333 59009 70000 83616 83616 85458==
41943,2023,08,16,18,00,AAXX 16184 41943 02430 61802 10286 20260 30037 40044 83520 333 59013 70000 83616 85458==
41943,2023,08,16,21,00,AAXX 16214 41943 02330 70000 10270 20260 30032 40039 84520 333 59008 70000 84616 88458==
41943,2023,08,17,00,00,AAXX 17004 41943 01330 80000 10258 20250 30025 40032 76162 8772/ 333 59011 70080 83709 84614 88456==
41943,2023,08,17,03,00,AAXX 17034 41943 01440 61302 10278 20260 30035 40042 70162 84520 333 20256 59013 70110 84616 85458==
41943,2023,08,17,06,00,AAXX 17064 41943 12340 61802 10325 20260 30042 40049 60036 84520 333 58001 70110 84616 86458==
41943,2023,08,17,09,00,AAXX 17094 41943 02440 61802 10335 20260 30000 40007 84420 333 59012 70110 83616 85458==
41943,2023,08,17,12,00,AAXX 17124 41943 02440 31802 10310 20250 30005 40012 83430 333 10310 58000 70110 82618==
41943,2023,08,17,15,00,AAXX 17154 41943 02430 51802 10282 20260 30040 40047 83520 333 58006 70110 83616 84458==
41943,2023,08,17,18,00,AAXX 17184 41943 01330 81802 10270 20260 30040 40047 76066 8772/ 333 58003 70070 83710 84614 88456==
41943,2023,08,17,21,00,AAXX 17214 41943 02430 81802 10268 20260 30033 40040 8662/ 333 58001 70180 83710 84615 88458==
41944,2023,08,11,00,00,AAXX 11004 41944 NIL=
41944,2023,08,11,12,00,AAXX 11124 41944 NIL=
41944,2023,08,12,00,00,AAXX 12004 41944 NIL=
41944,2023,08,12,06,00,AAXX 12064 41944 NIL=
41944,2023,08,12,18,00,AAXX 12184 41944 NIL=
41944,2023,08,13,06,00,AAXX 13064 41944 NIL=
41944,2023,08,13,12,00,AAXX 13124 41944 NIL=
41944,2023,08,14,00,00,AAXX 14004 41944 NIL=
41944,2023,08,14,06,00,AAXX 14064 41944 NIL=
41944,2023,08,14,18,00,AAXX 14184 41944 NIL=
41944,2023,08,15,00,00,AAXX 15004 41944 NIL=
41944,2023,08,15,06,00,AAXX 15064 41944 NIL=
41944,2023,08,15,12,00,AAXX 15124 41944 NIL=
41944,2023,08,15,18,00,AAXX 15184 41944 NIL=
41944,2023,08,16,00,00,AAXX 16004 41944 NIL=
41944,2023,08,16,12,00,AAXX 16124 41944 NIL=
41944,2023,08,17,06,00,AAXX 17064 41944 NIL=
41944,2023,08,17,12,00,AAXX 17124 41944 NIL=
41946,2023,08,11,00,00,AAXX 11004 41946 02456 80000 10280 20270 30049 40054 8352/ 333 58004 70034 83618 88460==
41946,2023,08,11,03,00,AAXX 11034 41946 02456 80000 10280 20270 30049 40054 8352/ 333 20274 59007 70034 83618 88460==
41946,2023,08,11,06,00,AAXX 11064 41946 02456 80000 10315 20270 30047 40052 8352/ 333 59016 70034 83618 88460==
41946,2023,08,11,09,00,AAXX 11094 41946 02456 71701 10322 20250 30027 40031 83520 333 59007 70000 83618 87460==
41946,2023,08,11,12,00,AAXX 11124 41946 02456 30000 10318 20260 30019 40023 82530 333 10332 59018 70000 82618==
41946,2023,08,11,15,00,AAXX 11154 41946 02/56 81602 10300 20270 30037 40041 8802/ 333 59023 70000 88460==
41946,2023,08,11,18,00,AAXX 11184 41946 01350 82003 10290 20280 30040 40045 76162 8672/ 333 59022 70080 82709 84614 88456==
41946,2023,08,11,21,00,AAXX 11214 41946 01350 80000 10266 20260 30023 40028 79596 8692/ 333 59019 70380 83709 84615 88456 81929==
41946,2023,08,12,00,00,AAXX 12004 41946 21556 80000 10274 20260 30026 40031 70296 8452/ 333 59023 60428 70500 84620 88460==
41946,2023,08,12,03,00,AAXX 12034 41946 02456 80000 10290 20270 30046 40051 8352/ 333 20261 59008 70500 83618 88460==
41946,2023,08,12,06,00,AAXX 12064 41946 02456 80000 10300 20270 30041 40046 8352/ 333 59006 70500 83618 88460==
41946,2023,08,12,09,00,AAXX 12094 41946 02456 80000 10320 20260 30008 40012 8352/ 333 59019 70500 83618 88460==
41946,2023,08,12,12,00,AAXX 12124 41946 02456 80000 10308 20270 30005 40009 8352/ 333 10322 59014 70500 83618 88460==
41946,2023,08,12,15,00,AAXX 12154 41946 01350 82701 10260 20250 30036 40041 79596 8692/ 333 59001 70660 81710 83617 88459 81928==
41946,2023,08,12,18,00,AAXX 12184 41946 21456 80000 10268 20260 30032 40037 70296 8532/ 333 59008 60217 70632 83618 88459 81929==
41946,2023,08,12,21,00,AAXX 12214 41946 02456 80000 10269 20260 30016 40021 8352/ 333 59007 70332 83618 88459==
41946,2023,08,13,00,00,AAXX 13004 41946 01450 80000 10271 20260 30023 40028 70522 8432/ 333 59003 70212 83618 88459 81929==
41946,2023,08,13,03,00,AAXX 13034 41946 01350 80000 10280 20260 30049 40054 76166 8572/ 333 20255 58003 70222 81710 84617 88459==
41946,2023,08,13,06,00,AAXX 13064 41946 21350 80000 10285 20270 30050 40055 76166 8572/ 333 58009 60029 70232 81710 84617 88459==
41946,2023,08,13,09,00,AAXX 13094 41946 01556 60000 10300 20250 30028 40033 70162 84520 333 58020 70234 84620 86458==
41946,2023,08,13,12,00,AAXX 13124 41946 11/56 62302 10302 20260 30023 40028 69926 70262 86070 333 10305 58018 70234 83459 84360==
41946,2023,08,13,15,00,AAXX 13154 41946 02456 60000 10290 20280 30050 40055 82520 333 58014 70074 82618 86459==
41946,2023,08,13,18,00,AAXX 13184 41946 42456 80000 10282 20260 30054 40059 8352/ 333 58022 83618 88460==
41946,2023,08,13,21,00,AAXX 13214 41946 02456 80000 10275 20270 30038 40043 8352/ 333 58022 70022 83618 88460==
41946,2023,08,14,00,00,AAXX 14004 41946 01456 80000 10274 20260 30045 40050 70262 8352/ 333 58022 70004 83618 88459==
41946,2023,08,14,03,00,AAXX 14034 41946 02556 80000 10290 20280 30060 40065 8252/ 333 20255 58011 70016 82620 88460==
41946,2023,08,14,06,00,AAXX 14064 41946 01350 80000 10270 20250 30059 40064 76162 8572/ 333 58009 70190 82710 84617 88459==
41946,2023,08,14,09,00,AAXX 14094 41946 01456 51902 10321 20270 30027 40031 70162 83520 333 59001 70214 83618 85460==
41946,2023,08,14,15,00,AAXX 14154 41946 02556 61902 10300 20270 30040 40045 83420 333 59010 70214 82620 85460==
41946,2023,08,14,18,00,AAXX 14184 41946 02/56 52003 10294 20280 30048 40053 85020 333 59006 70214 85460==
41946,2023,08,15,00,00,AAXX 15004 41946 02/56 60000 10280 20270 30037 40042 83032 333 59008 70210 83362 84080==
41946,2023,08,15,03,00,AAXX 15034 41946 02556 60000 10310 20260 30052 40058 83530 333 20264 59008 70210 83620 83362==
41946,2023,08,15,06,00,AAXX 15064 41946 02556 50000 10335 20260 30045 40049 83501 333 59014 70020 83620 83080==
41946,2023,08,15,09,00,AAXX 15094 41946 02556 50000 10350 20260 30019 40023 83501 333 59008 70000 83620 83080==
41946,2023,08,15,12,00,AAXX 15124 41946 02556 50000 10314 20270 30017 40021 83501 333 10352 59008 70000 83620 83080==
41946,2023,08,15,15,00,AAXX 15154 41946 02956 00000 10303 20270 30042 40047 333 58002 70000==
41946,2023,08,15,18,00,AAXX 15184 41946 02956 01802 10298 20280 30047 40052 333 59001 70000==
41946,2023,08,15,21,00,AAXX 15214 41946 02456 30000 10291 20280 30034 40039 83500 333 59001 70000 83618==
41946,2023,08,16,00,00,AAXX 16004 41946 01450 80000 10286 20280 30035 40040 70520 8252/ 333 59002 70000 82618 88460==
41946,2023,08,16,03,00,AAXX 16034 41946 02456 60000 10315 20270 30045 40050 82501 333 20285 59007 70000 82618 83080==
41946,2023,08,16,06,00,AAXX 16064 41946 02456 70000 10340 20270 30041 40045 84310 333 59004 70000 83618 86460 81929==
41946,2023,08,16,09,00,AAXX 16094 41946 02456 73403 10322 20280 30004 40009 83570 333 59015 70000 83618 83459 85360==
41946,2023,08,16,12,00,AAXX 16124 41946 02556 70000 10304 20260 30010 40015 84430 333 10345 59007 70000 82620 83822 85360==
41946,2023,08,16,15,00,AAXX 16154 41946 02456 80000 10290 20270 30039 40044 8252/ 333 59003 70000 82618 88460==
41946,2023,08,16,18,00,AAXX 16184 41946 21456 80000 10285 20280 30034 40039 70262 8252/ 333 59013 69945 70004 83618 88460==
41946,2023,08,16,21,00,AAXX 16214 41946 02456 60000 10284 20270 30026 40031 82520 333 59008 70004 82618 85460==
41946,2023,08,17,00,00,AAXX 17004 41946 02456 60000 10282 20270 30024 40029 82520 333 59011 70004 82618 85460==
41946,2023,08,17,03,00,AAXX 17034 41946 02456 60000 10315 20270 30035 40040 83510 333 20278 59010 70004 83618 85460==
41946,2023,08,17,06,00,AAXX 17064 41946 02456 60000 10340 20270 30030 40034 84401 333 59011 70004 83618 83080==
41946,2023,08,17,09,00,AAXX 17094 41946 01456 71401 10300 20270 30005 40010 72122 84320 333 58001 70030 83618 87460 81929==
41946,2023,08,17,12,00,AAXX 17124 41946 21456 70000 10320 20270 30010 40014 70262 84320 333 10345 58000 60035 70030 83618 87459 81929==
41946,2023,08,17,15,00,AAXX 17154 41946 01456 52803 10294 20270 30033 40037 70162 83520 333 59006 70034 83618 84459==
41946,2023,08,17,18,00,AAXX 17184 41946 11456 52502 10290 20280 30031 40036 69946 70262 83520 333 59003 70030 85618 84458==
41946,2023,08,17,21,00,AAXX 17214 41946 02456 62004 10288 20280 30008 40012 83420 333 59018 70030 82618 85459==
41947,2023,08,11,00,00,AAXX 11004 41947 02456 80000 10285 20280 30042 40044 8352/ 333 58004 70010 83618 88458==
41947,2023,08,11,03,00,AAXX 11034 41947 02456 70000 10305 20260 30037 40040 83570 333 20270 59011 70010 83618 86458==
41947,2023,08,11,06,00,AAXX 11064 41947 02456 60000 10325 20260 30028 40031 86400 333 59021 70010 83618 83820==
41947,2023,08,11,09,00,AAXX 11094 41947 02456 81802 10320 20260 30018 40020 8432/ 333 59018 70010 83618 88459 81930==
41947,2023,08,11,12,00,AAXX 11124 41947 02456 21802 10205 20270 30015 40018 82500 333 10330 59021 70000 82618==
41947,2023,08,11,15,00,AAXX 11154 41947 02450 20000 10290 20260 30038 40041 82500 333 59020 70000 82618==
41947,2023,08,11,18,00,AAXX 11184 41947 02950 00000 10280 20260 30042 40044 333 59018 70000==
41947,2023,08,11,21,00,AAXX 11214 41947 01440 80000 10265 20250 30032 40034 70362 8352/ 333 59017 70010 83618 88459==
41947,2023,08,12,00,00,AAXX 12004 41947 11450 80000 10268 20260 30022 40024 60016 70262 8352/ 333 59019 70010 83618 88459==
41947,2023,08,12,03,00,AAXX 12034 41947 02450 80000 10290 20270 30028 40031 8352/ 333 20261 59009 70010 83618 88458==
41947,2023,08,12,06,00,AAXX 12064 41947 02450 80000 10294 20260 30023 40026 8352/ 333 59005 70010 83618 88458==
41947,2023,08,12,09,00,AAXX 12094 41947 02456 61802 10310 20270 30001 40003 83570 333 59018 70010 83618 86458==
41947,2023,08,12,12,00,AAXX 12124 41947 02456 51802 10302 20270 30001 40003 83570 333 10312 59015 70010 83618 85458==
41947,2023,08,12,15,00,AAXX 12154 41947 02450 62302 10278 20250 30032 40034 83570 333 59015 70010 83618 85458==
41947,2023,08,12,18,00,AAXX 12184 41947 02450 50000 10275 20260 30034 40036 83570 333 58008 70010 83618 85458==
41947,2023,08,12,21,00,AAXX 12214 41947 02450 80000 10275 20260 30023 40025 8352/ 333 58001 70000 83618 88458==
41947,2023,08,13,00,00,AAXX 13004 41947 02450 80000 10275 20270 30018 40020 8352/ 333 59004 70000 83618 88458==
41947,2023,08,13,03,00,AAXX 13034 41947 01350 80000 10269 20270 30040 40043 76166 8672/ 333 20265 58012 70108 82708 84615 88458==
41947,2023,08,13,06,00,AAXX 13064 41947 21350 80000 10280 20270 30042 40045 76166 8672/ 333 58019 60159 70146 83708 83615 88458==
41947,2023,08,13,09,00,AAXX 13094 41947 01456 60000 10305 20280 30027 40029 70166 84470 333 58026 70156 83618 84459==
41947,2023,08,13,12,00,AAXX 13124 41947 11456 80000 10300 20260 30023 40025 60016 70362 8352/ 333 10310 58022 70156 83618 88459==
41947,2023,08,13,15,00,AAXX 13154 41947 02456 80000 10288 20280 30043 40045 8352/ 333 58013 70156 83618 88459==
41947,2023,08,13,18,00,AAXX 13184 41947 01350 83102 10270 20260 30048 40050 76122 8472/ 333 58011 70000 82710 83616 88459==
41947,2023,08,13,21,00,AAXX 13214 41947 01456 80000 10266 20260 30044 40046 70266 8352/ 333 58021 70296 83618 88458==
41947,2023,08,14,00,00,AAXX 14004 41947 11456 80000 10264 20250 30035 40038 60146 70262 8352/ 333 58018 70296 83618 88458==
41947,2023,08,14,03,00,AAXX 14034 41947 02356 80000 10273 20270 30050 40053 8562/ 333 20255 58010 70188 82710 83617 88458==
41947,2023,08,14,06,00,AAXX 14064 41947 02456 80000 10300 20270 30053 40055 8352/ 333 58010 70150 83618 88459==
41947,2023,08,14,09,00,AAXX 14094 41947 01456 63602 10302 20270 30023 40025 70162 83530 333 59004 70144 83618 84362==
41947,2023,08,14,15,00,AAXX 14154 41947 02450 40000 10298 20280 30038 40040 82530 333 59005 70144 82618 83362==
41947,2023,08,14,18,00,AAXX 14184 41947 02450 40000 10290 20280 30043 40045 82530 333 59005 70144 82618 83362==
41947,2023,08,14,21,00,AAXX 14214 41947 02450 40000 10285 20280 30042 40044 82530 333 59004 70004 82618 83362==
41947,2023,08,15,00,00,AAXX 15004 41947 02450 60000 10280 20270 30041 40043 82530 333 58005 70004 82618 84362==
41947,2023,08,15,03,00,AAXX 15034 41947 02456 60000 10310 20270 30038 40041 86400 333 20265 59012 70004 83618 83820==
41947,2023,08,15,06,00,AAXX 15064 41947 02456 60000 10343 20260 30029 40032 86400 333 59023 70004 83618 83820==
41947,2023,08,15,09,00,AAXX 15094 41947 02456 50000 10352 20240 30015 40017 85400 333 59008 70000 83618 84825==
41947,2023,08,15,12,00,AAXX 15124 41947 02456 61802 10312 20270 30010 40013 83510 333 10360 59004 70000 83618 86459==
41947,2023,08,15,15,00,AAXX 15154 41947 02450 30000 10305 20270 30035 40038 83500 333 59002 70000 83618==
41947,2023,08,15,18,00,AAXX 15184 41947 02450 30000 10300 20280 30050 40053 83500 333 58008 70000 83618==
41947,2023,08,15,21,00,AAXX 15214 41947 02450 60000 10290 20280 30046 40049 83530 333 58005 70000 83618 86362==
41947,2023,08,16,00,00,AAXX 16004 41947 02450 60000 10280 20270 30024 40027 83530 333 59016 70000 83618 86362==
41947,2023,08,16,03,00,AAXX 16034 41947 02456 70000 10315 20270 30030 40033 333 20280 59008 70000 83618 86458==
41947,2023,08,16,06,00,AAXX 16064 41947 02450 80000 10333 20270 30028 40031 8452/ 333 59001 70000 84617 88458==
41947,2023,08,16,09,00,AAXX 16094 41947 02450 81803 10325 20270 30010 40012 8352/ 333 59005 70000 83618 88458==
41947,2023,08,16,12,00,AAXX 16124 41947 02450 50000 10315 20270 30008 40010 83570 333 10342 59003 70000 83618 84458==
41947,2023,08,16,15,00,AAXX 16154 41947 02450 30000 10298 20280 30034 40036 83500 333 59002 70000 83618==
41947,2023,08,16,18,00,AAXX 16184 41947 02450 20000 10295 20280 30030 40032 82500 333 59021 70000 82618==
41947,2023,08,16,21,00,AAXX 16214 41947 02450 50000 10290 20280 30026 40028 83570 333 59021 70000 83618 85458==
41947,2023,08,17,00,00,AAXX 17004 41947 02450 80000 10288 20280 30023 40025 8352/ 333 59002 70000 83618 88458==
41947,2023,08,17,03,00,AAXX 17034 41947 02456 60000 10320 20270 30027 40029 83570 333 20276 59004 70000 83618 84459==
41947,2023,08,17,06,00,AAXX 17064 41947 02456 80000 10335 20270 30026 40029 8352/ 333 59002 70000 83618 88459==
41947,2023,08,17,09,00,AAXX 17094 41947 01350 81302 10297 20270 30002 40004 76122 8572/ 333 59008 70010 82709 83616 88458==
41947,2023,08,17,12,00,AAXX 17124 41947 21456 40000 10315 20270 30002 40005 70162 83430 333 10345 59005 60015 70010 82618==
41947,2023,08,17,15,00,AAXX 17154 41947 02/56 20000 10300 20280 30032 40035 82030 333 59001 70010 82362==
41947,2023,08,17,18,00,AAXX 17184 41947 02/56 20000 10290 20270 30025 40028 82030 333 59004 70010 82362==
41947,2023,08,17,21,00,AAXX 17214 41947 02/56 20000 10286 20270 30016 40019 82030 333 59009 70010 82362==
41950,2023,08,11,00,00,AAXX 11004 41950 01340 80000 10270 20270 30050 40053 70522 8562/ 333 58007 70006 82708 84616 88458==
41950,2023,08,11,03,00,AAXX 11034 41950 02350 80000 10291 20280 30056 40058 8562/ 333 20262 59004 70006 82708 84616 88458==
41950,2023,08,11,06,00,AAXX 11064 41950 21350 80000 10304 20280 30046 40048 72162 8532/ 333 59006 60017 70016 82708 84616 88458 81928==
41950,2023,08,11,09,00,AAXX 11094 41950 01350 80000 10300 20280 30028 40030 71795 8692/ 333 59020 70016 82708 84616 88458 81928==
41950,2023,08,11,12,00,AAXX 11124 41950 11/50 30000 10295 20270 30021 40023 69966 70196 82031 333 10316 59024 70016 82362==
41950,2023,08,11,15,00,AAXX 11154 41950 02450 30000 10274 20260 30047 40049 82530 333 59016 70016 82617==
41950,2023,08,11,18,00,AAXX 11184 41950 02450 30000 10272 20270 30047 40049 82530 333 59015 70016 82617==
41950,2023,08,11,21,00,AAXX 11214 41950 02350 80000 10280 20280 30026 40028 8562/ 333 59021 70016 82708 84616 88458==
41950,2023,08,12,00,00,AAXX 12004 41950 01340 80000 10282 20282 30026 40028 70562 8562/ 333 59024 70020 82708 84616 88458==
41950,2023,08,12,03,00,AAXX 12034 41950 01350 81802 10281 20260 30041 40043 70262 8562/ 333 20262 59015 70130 82708 84616 88458==
41950,2023,08,12,06,00,AAXX 12064 41950 11350 81902 10298 20270 30037 40039 60096 70262 8562/ 333 59009 70120 82708 84616 88458==
41950,2023,08,12,09,00,AAXX 12094 41950 02350 61902 10300 20270 30014 40016 85610 333 59014 70114 82708 84616 86459==
41950,2023,08,12,12,00,AAXX 12124 41950 02350 80000 10287 20270 30012 40014 8462/ 333 10307 59009 70114 81708 84616 88458==
41950,2023,08,12,15,00,AAXX 12154 41950 02350 80000 10280 20270 30031 40033 8562/ 333 59016 70114 82708 84616 88458==
41950,2023,08,12,18,00,AAXX 12184 41950 02350 80000 10278 20278 30029 40031 8562/ 333 59018 70114 82708 84616 88458==
41950,2023,08,12,21,00,AAXX 12214 41950 01330 80000 10260 20260 30020 40023 76322 8672/ 333 59006 70254 83707 84615 88458==
41950,2023,08,13,00,00,AAXX 13004 41950 21330 80000 10258 20258 30024 40027 79562 8592/ 333 59002 60547 74616 82707 88458 81928==
41950,2023,08,13,03,00,AAXX 13034 41950 01340 80000 10265 20265 30049 40052 76196 8572/ 333 20254 58008 70624 82707 84616 88458==
41950,2023,08,13,06,00,AAXX 13064 41950 21350 80000 10278 20270 30050 40052 70296 8562/ 333 58013 60109 70644 82708 84616 88458==
41950,2023,08,13,09,00,AAXX 13094 41950 01340 80000 10282 20270 30031 40034 76122 8572/ 333 58017 70664 82708 84616 88458==
41950,2023,08,13,12,00,AAXX 13124 41950 21350 80000 10284 20260 30026 40028 72162 8562/ 333 10286 58014 60027 70668 82708 84616 88458==
41950,2023,08,13,15,00,AAXX 13154 41950 02350 80000 10275 20275 30047 40049 8562/ 333 58016 70668 82708 84616 88458==
41950,2023,08,13,18,00,AAXX 13184 41950 21335 80000 10269 20269 30050 40053 76162 8572/ 333 58021 60027 70690 82708 84616 88458==
41950,2023,08,13,21,00,AAXX 13214 41950 01350 80000 10264 20260 30043 40046 70262 8562/ 333 58023 70556 82708 84616 88458==
41950,2023,08,14,00,00,AAXX 14004 41950 11350 80000 10250 20250 30042 40045 69966 70262 8562/ 333 58018 70156 82708 84616 88458==
41950,2023,08,14,03,00,AAXX 14034 41950 02450 60000 10282 20260 30057 40060 83510 333 20248 58008 70072 83617 86459==
41950,2023,08,14,06,00,AAXX 14064 41950 02350 80000 10303 20260 30056 40058 8462/ 333 58006 70052 81708 84617 88458==
41950,2023,08,14,09,00,AAXX 14094 41950 02450 70000 10300 20260 30028 40030 83570 333 59003 70032 83617 86459==
41950,2023,08,14,12,00,AAXX 14124 41950 02450 60000 10295 20270 30024 40026 83570 333 10311 59002 70028 83617 85459==
41950,2023,08,14,15,00,AAXX 14154 41950 02350 80000 10282 20270 30046 40048 8562/ 333 59001 70028 82708 84616 88458==
41950,2023,08,14,18,00,AAXX 14184 41950 02350 80000 10280 20260 30052 40054 8562/ 333 58002 70028 82708 84616 88458==
41950,2023,08,14,21,00,AAXX 14214 41950 02350 80000 10275 20275 30041 40043 8562/ 333 59002 70028 82708 84616 88458==
41950,2023,08,15,00,00,AAXX 15004 41950 02350 80000 10270 20270 30043 40045 8562/ 333 58001 70000 87208 84616 88458==
41950,2023,08,15,03,00,AAXX 15034 41950 02350 82102 10297 20280 30056 40058 8532/ 333 20268 59001 70000 81708 84616 88458 81928==
41950,2023,08,15,06,00,AAXX 15064 41950 02350 80000 10328 20270 30045 40047 8532/ 333 59011 70000 81708 84616 88458 81928==
41950,2023,08,15,09,00,AAXX 15094 41950 01350 80000 10316 20280 30024 40026 70262 8532/ 333 59004 70046 82708 84616 88458 81928==
41950,2023,08,15,12,00,AAXX 15124 41950 11350 70000 10303 20260 30019 40021 60056 70162 84670 333 10331 59005 70046 81708 84616 86459==
41950,2023,08,15,15,00,AAXX 15154 41950 02350 70000 10288 20280 30044 40046 84610 333 59002 70046 81708 84616 87459==
41950,2023,08,15,18,00,AAXX 15184 41950 02350 70000 10288 20280 30050 40052 84610 333 59002 70046 81708 84616 87459==
41950,2023,08,15,21,00,AAXX 15214 41950 02350 70000 10273 20273 30036 40038 84610 333 59005 70046 81708 84617 87459==
41950,2023,08,16,00,00,AAXX 16004 41950 01450 50000 10275 20275 30036 40038 70522 83530 333 59005 70046 83617 83362==
41950,2023,08,16,03,00,AAXX 16034 41950 02350 80000 10306 20290 30045 40047 8562/ 333 20270 59011 70046 82708 84616 88458==
41950,2023,08,16,06,00,AAXX 16064 41950 02350 80000 10328 20280 30035 40037 8562/ 333 59010 70046 82708 84616 88458==
41950,2023,08,16,09,00,AAXX 16094 41950 02450 50000 10336 20270 30012 40014 83570 333 59012 70000 83617 85459==
41950,2023,08,16,12,00,AAXX 16124 41950 02450 50000 10320 20280 30014 40016 82570 333 10337 59005 70000 82617 85459==
41950,2023,08,16,15,00,AAXX 16154 41950 02350 70000 10286 20270 30036 40038 84670 333 59008 70000 81708 84616 86459==
41950,2023,08,16,18,00,AAXX 16184 41950 02350 80000 10279 20270 30036 40038 8562/ 333 59014 70000 82708 84616 88458==
41950,2023,08,16,21,00,AAXX 16214 41950 02350 80000 10279 20279 30021 40023 8562/ 333 59015 70000 82708 84616 88458==
41950,2023,08,17,00,00,AAXX 17004 41950 02350 80000 10275 20275 30023 40025 8562/ 333 59013 70000 82708 84616 88458==
41950,2023,08,17,03,00,AAXX 17034 41950 01350 70000 10304 20260 30036 40038 70152 85670 333 20274 59009 70003 82708 84616 86459==
41950,2023,08,17,06,00,AAXX 17064 41950 11450 50000 10337 20270 30028 40030 69936 70152 84470 333 59007 70003 83617 85459==
41950,2023,08,17,09,00,AAXX 17094 41950 01450 60902 10336 20270 30002 40004 76203 83570 333 59010 70015 83617 85459==
41950,2023,08,17,12,00,AAXX 17124 41950 11450 60000 10310 20260 30007 40010 60016 76202 83570 333 10342 59007 70015 83617 85459==
41950,2023,08,17,15,00,AAXX 17154 41950 02450 20000 10292 20260 30034 40036 82500 333 59002 70015 82617==
41950,2023,08,17,18,00,AAXX 17184 41950 02450 30000 10288 20270 30034 40036 83500 333 59002 70015 83617==
41950,2023,08,17,21,00,AAXX 17214 41950 02450 50000 10284 20260 30025 40027 83530 333 58004 70015 83617 83362==
41951,2023,08,11,00,00,AAXX 11004 41951 01340 80000 10272 20270 30038 40042 70522 8562/ 333 58001 70201 81708 84618 88458==
41951,2023,08,11,03,00,AAXX 11034 41951 01330 80000 10288 20288 30048 40053 76162 8672/ 333 20263 59003 70219 82706 84616 88458==
41951,2023,08,11,06,00,AAXX 11064 41951 21456 60903 10304 20280 30048 40053 70162 83510 333 59005 60027 70223 83618 85459==
41951,2023,08,11,09,00,AAXX 11094 41951 01450 71502 10288 20270 30025 40030 70362 83510 333 59016 70044 83618 86459==
41951,2023,08,11,12,00,AAXX 11124 41951 11456 30000 10293 20260 30019 40024 60026 70162 83500 333 10313 59018 70044 83618==
41951,2023,08,11,15,00,AAXX 11154 41951 02450 30000 10278 20270 30044 40049 83500 333 59018 70040 83618==
41951,2023,08,11,18,00,AAXX 11184 41951 02340 70000 10276 20276 30044 40049 84610 333 59016 70040 81708 83618 86459==
41951,2023,08,11,21,00,AAXX 11214 41951 02340 70000 10277 20277 30030 40035 84610 333 59018 70040 81708 83618 86459==
41951,2023,08,12,00,00,AAXX 12004 41951 02340 80000 10278 20278 30021 40026 8562/ 333 59017 70040 81708 84618 88458==
41951,2023,08,12,03,00,AAXX 12034 41951 02350 71804 10300 20270 30032 40037 84610 333 20266 59016 70022 81708 83618 86459==
41951,2023,08,12,06,00,AAXX 12064 41951 02350 72702 10312 20270 30032 40037 84610 333 59016 70018 81708 83618 86459==
41951,2023,08,12,09,00,AAXX 12094 41951 02350 72703 10308 20270 30012 40017 84610 333 59013 70000 81708 83618 86459==
41951,2023,08,12,12,00,AAXX 12124 41951 02340 81802 10292 20270 30002 40007 8562/ 333 10314 59017 70000 81708 84618 88459==
41951,2023,08,12,15,00,AAXX 12154 41951 02340 81402 10283 20270 30034 40039 8562/ 333 59010 70000 81708 84618 88458==
41951,2023,08,12,18,00,AAXX 12184 41951 02340 81302 10280 20280 30032 40037 8562/ 333 59012 70000 81708 84618 88458==
41951,2023,08,12,21,00,AAXX 12214 41951 02340 81302 10280 20280 30027 40032 8562/ 333 59003 70000 81708 84618 88458==
41951,2023,08,13,00,00,AAXX 13004 41951 21330 80000 10260 20260 30022 40027 76366 8672/ 333 58001 60127 70120 82706 84616 88458==
41951,2023,08,13,03,00,AAXX 13034 41951 01330 80000 10264 20260 30040 40045 76566 8672/ 333 20254 58008 70360 82706 84616 88458==
41951,2023,08,13,06,00,AAXX 13064 41951 21340 82502 10293 20270 30044 40049 70262 8562/ 333 58012 60248 70360 81708 84618 88458==
41951,2023,08,13,09,00,AAXX 13094 41951 21330 82502 10273 20270 30029 40034 76162 8672/ 333 56599 58017 6005/ 70406 82706 84616 88458=
41951,2023,08,13,12,00,AAXX 13124 41951 21356 80000 10280 20270 30020 40025 70162 84610 333 10295 58018 60089 70438 81708 83618 85459==
41951,2023,08,13,15,00,AAXX 13154 41951 02340 80000 10277 20270 30046 40051 8562/ 333 58012 70438 81708 84618 88458==
41951,2023,08,13,18,00,AAXX 13184 41951 21340 80000 10262 20260 30054 40059 72162 8562/ 333 58022 60017 70450 81708 84616 88458==
41951,2023,08,13,21,00,AAXX 13214 41951 02340 80000 10260 20260 30042 40047 8562/ 333 58015 70450 81708 84618 88458==
41951,2023,08,14,00,00,AAXX 14004 41951 02340 80000 10258 20258 30036 40041 8562/ 333 58014 70330 81708 84618 88458==
41951,2023,08,14,03,00,AAXX 14034 41951 02456 60000 10292 20260 30049 40054 83510 333 20255 58009 70090 83618 85459==
41951,2023,08,14,06,00,AAXX 14064 41951 02450 71202 10303 20260 30054 40059 83510 333 58010 70090 83618 86459==
41951,2023,08,14,09,00,AAXX 14094 41951 02456 62703 10308 20270 30024 40029 83510 333 59005 70044 83618 85459==
41951,2023,08,14,15,00,AAXX 14154 41951 02450 30000 10282 20270 30042 40047 83500 333 59004 70012 83618==
41951,2023,08,14,18,00,AAXX 14184 41951 NIL=
41951,2023,08,15,00,00,AAXX 15004 41951 02340 80000 10277 20270 30033 40038 8562/ 333 59003 70000 81708 84618 88458==
41951,2023,08,15,03,00,AAXX 15034 41951 02340 81202 10303 20270 30046 40051 8562/ 333 20274 59003 70000 81708 84618 88458==
41951,2023,08,15,06,00,AAXX 15064 41951 02350 72602 10328 20280 30045 40050 84610 333 59009 70000 81708 83618 86459==
41951,2023,08,15,09,00,AAXX 15094 41951 02456 61303 10335 20280 30024 40029 83510 333 58000 70000 83618 85459==
41951,2023,08,15,12,00,AAXX 15124 41951 02340 80000 10305 20290 30013 40018 8562/ 333 10337 59003 70000 81708 84618 88458==
41951,2023,08,15,15,00,AAXX 15154 41951 02340 80000 10298 20280 30042 40047 8562/ 333 58000 70000 81708 84618 88458==
41951,2023,08,15,18,00,AAXX 15184 41951 02340 80000 10292 20280 30051 40055 8562/ 333 58001 70000 81708 84618 88458==
41951,2023,08,15,21,00,AAXX 15214 41951 01340 80000 10286 20280 30030 40035 70522 8562/ 333 59007 70000 81708 84618 88458==
41951,2023,08,16,00,00,AAXX 16004 41951 01340 80000 10282 20270 30021 40025 70522 8562/ 333 59012 70000 81708 84618 88458==
41951,2023,08,16,03,00,AAXX 16034 41951 02456 60000 10314 20270 30040 40045 83510 333 20276 59006 70000 83618 85459==
41951,2023,08,16,06,00,AAXX 16064 41951 02456 60503 10332 20270 30041 40046 83510 333 59004 70000 83618 85459==
41951,2023,08,16,09,00,AAXX 16094 41951 02456 60902 10348 20260 30011 40016 83510 333 59013 70000 83618 85459==
41951,2023,08,16,12,00,AAXX 16124 41951 02456 60000 10310 20260 30003 40008 83510 333 10350 59010 70000 83618 85459==
41951,2023,08,16,15,00,AAXX 16154 41951 02340 80000 10298 20280 30035 40040 8562/ 333 59007 70000 81708 84618 88458==
41951,2023,08,16,18,00,AAXX 16184 41951 02340 80000 10282 20270 30032 40037 8562/ 333 59019 70000 81708 84618 88458==
41951,2023,08,16,21,00,AAXX 16214 41951 02340 80000 10278 20270 30024 40029 8562/ 333 59006 70000 81708 84618 88458==
41951,2023,08,17,00,00,AAXX 17004 41951 01330 80000 10278 20278 30019 40023 76122 8672/ 333 59002 70003 82708 84618 88458==
41951,2023,08,17,03,00,AAXX 17034 41951 01340 61302 10305 20280 30028 40033 70162 84610 333 20274 59012 70006 81708 83618 85459==
41951,2023,08,17,06,00,AAXX 17064 41951 11456 51203 10337 20280 30029 40034 69936 70162 82510 333 59012 70006 82618 84459==
41951,2023,08,17,09,00,AAXX 17094 41951 02456 51303 10328 20270 39990 49995 82510 333 59021 70006 82618 84459==
41951,2023,08,17,12,00,AAXX 17124 41951 02456 60000 10316 20270 30006 40011 83510 333 10340 58003 70006 83618 85459==
41951,2023,08,17,15,00,AAXX 17154 41951 02340 81302 10297 20270 30039 40044 8562/ 333 58004 70006 81708 84618 88458==
41951,2023,08,17,18,00,AAXX 17184 41951 02450 31302 10288 20270 30031 40036 83500 333 59001 70006 83618==
41951,2023,08,17,21,00,AAXX 17214 41951 02440 51303 10285 20250 30021 40026 82510 333 59003 70006 82618 84459==
41953,2023,08,11,00,00,AAXX 11004 41953 02440 80000 10270 20270 30048 40053 8352/ 333 58003 70210 83616 88458==
41953,2023,08,11,03,00,AAXX 11034 41953 02450 80000 10265 20260 30062 40067 8352/ 333 20254 59001 70210 83616 88458==
41953,2023,08,11,06,00,AAXX 11064 41953 02450 81304 10290 20260 30051 40056 8352/ 333 59014 70210 83616 88458==
41953,2023,08,11,09,00,AAXX 11094 41953 02450 81304 10305 20270 30032 40037 8352/ 333 59013 70210 83616 88458==
41953,2023,08,11,12,00,AAXX 11124 41953 02450 31302 10290 20270 30024 40029 83500 333 10308 59025 70110 83618==
41953,2023,08,11,15,00,AAXX 11154 41953 02440 30000 10280 20270 30044 40049 83500 333 59023 70010 83616==
41953,2023,08,11,18,00,AAXX 11184 41953 02430 31303 10276 20270 30047 40052 83500 333 59009 70000 83616==
41953,2023,08,11,21,00,AAXX 11214 41953 02430 81304 10274 20260 30051 40056 8352/ 333 59009 70000 83616 88458==
41953,2023,08,12,00,00,AAXX 12004 41953 02440 81305 10270 20270 30036 40041 8352/ 333 59012 70000 83616 88458==
41953,2023,08,12,03,00,AAXX 12034 41953 02450 81304 10290 20260 30045 40050 8352/ 333 20266 59017 70000 83616 88458==
41953,2023,08,12,06,00,AAXX 12064 41953 02450 81303 10316 20270 30040 40045 8352/ 333 59011 70000 83616 88458==
41953,2023,08,12,09,00,AAXX 12094 41953 02450 81303 10306 20270 30015 40020 8352/ 333 59017 70000 83616 88458==
41953,2023,08,12,12,00,AAXX 12124 41953 02440 81302 10290 20260 30012 40017 8352/ 333 10318 59012 70000 83616 88458==
41953,2023,08,12,15,00,AAXX 12154 41953 02440 81302 10282 20260 30015 40020 8352/ 333 59029 70000 83616 88458==
41953,2023,08,12,18,00,AAXX 12184 41953 02430 81302 10276 20270 30025 40030 8352/ 333 59022 70000 83616 88458==
41953,2023,08,12,21,00,AAXX 12214 41953 02430 81302 10274 20260 30027 40032 8352/ 333 59024 70000 83616 88458==
41953,2023,08,13,00,00,AAXX 13004 41953 02440 81302 10274 20260 30028 40033 8352/ 333 59008 70000 83616 88458==
41953,2023,08,13,03,00,AAXX 13034 41953 01440 80000 10276 20270 30046 40051 76122 8352/ 333 20272 58001 70030 83616 88458==
41953,2023,08,13,06,00,AAXX 13064 41953 21450 81804 10270 20260 30051 40056 76166 8362/ 333 58011 60079 70070 83614 88458==
41953,2023,08,13,09,00,AAXX 13094 41953 32450 80000 10280 20260 30032 40037 8452/ 333 56999 58017 70070 83616 88458=
41953,2023,08,13,12,00,AAXX 13124 41953 01440 80000 10262 20260 30026 40031 76162 8452/ 333 10283 58014 70260 84614 88458==
41953,2023,08,13,15,00,AAXX 13154 41953 01430 80000 10266 20260 30049 40054 70266 8452/ 333 58034 70360 84615 88458==
41953,2023,08,13,18,00,AAXX 13184 41953 01430 80000 10266 20260 30053 40058 70262 88458 333 70030==
41953,2023,08,13,21,00,AAXX 13214 41953 01430 80000 10264 20250 30051 40056 70262 8452/ 333 58024 70420 84616 88458==
41953,2023,08,14,00,00,AAXX 14004 41953 11440 80000 10260 20260 30045 40050 60066 70262 8452/ 333 58017 70420 84616 88458==
41953,2023,08,14,03,00,AAXX 14034 41953 01450 80000 10266 20260 30054 40059 76122 8452/ 333 20255 58008 70400 84614 88458==
41953,2023,08,14,06,00,AAXX 14064 41953 21450 80000 10296 20270 30055 40060 70262 8352/ 333 58004 60015 70360 83616 88458==
41953,2023,08,14,09,00,AAXX 14094 41953 02450 80000 10306 20270 30028 40033 8352/ 333 59004 70360 83616 88458==
41953,2023,08,14,15,00,AAXX 14154 41953 02430 80000 10286 20270 30045 40050 8352/ 333 59004 70070 83616 88458==
41953,2023,08,14,18,00,AAXX 14184 41953 NIL=
41953,2023,08,15,00,00,AAXX 15004 41953 02440 80000 10275 20270 30043 40048 8352/ 333 58001 70010 83616 88458==
41953,2023,08,15,03,00,AAXX 15034 41953 02450 80000 10300 20270 30055 40060 8352/ 333 20264 58001 70000 83616 88458==
41953,2023,08,15,06,00,AAXX 15064 41953 02450 80000 10305 20270 30047 40052 8452/ 333 59008 70000 84616 88458==
41953,2023,08,15,09,00,AAXX 15094 41953 01450 80000 10274 20260 30027 40032 76162 8452/ 333 59001 70440 84614 88458==
41953,2023,08,15,12,00,AAXX 15124 41953 21450 80000 10286 20280 30028 40033 70266 8428/ 333 10308 58003 60557 70550 84616 88458==
41953,2023,08,15,15,00,AAXX 15154 41953 02430 80000 10280 20270 30047 40052 8352/ 333 59004 70550 83616 88458==
41953,2023,08,15,18,00,AAXX 15184 41953 02430 80000 10276 20270 30047 40052 8352/ 333 59004 70550 83616 88458==
41953,2023,08,15,21,00,AAXX 15214 41953 02430 81302 10278 20270 30041 40046 8352/ 333 59007 70550 83616 88458==
41953,2023,08,16,00,00,AAXX 16004 41953 02450 80000 10280 20270 30038 40043 8352/ 333 59008 70550 83616 88458==
41953,2023,08,16,03,00,AAXX 16034 41953 02450 81303 10305 20270 30049 40054 8352/ 333 20266 59006 70550 83616 88458==
41953,2023,08,16,06,00,AAXX 16064 41953 02450 81302 10314 20286 30046 40051 8352/ 333 59001 70550 83616 88458==
41953,2023,08,16,09,00,AAXX 16094 41953 02450 70000 10334 20270 30010 40015 83570 333 59017 70110 83616 84458==
41953,2023,08,16,12,00,AAXX 16124 41953 02440 60000 10310 20280 30012 40017 82530 333 10336 59016 70000 82618 85362==
41953,2023,08,16,15,00,AAXX 16154 41953 02440 50000 10298 20280 30018 40023 82530 333 59021 70000 82616 84362==
41953,2023,08,16,18,00,AAXX 16184 41953 02430 50000 10292 20280 30025 40030 82530 333 59022 70000 82618 84362==
41953,2023,08,16,21,00,AAXX 16214 41953 02430 81302 10276 20270 30030 40035 8352/ 333 59011 70000 84616 88458==
41953,2023,08,17,00,00,AAXX 17004 41953 01440 81304 10272 20270 30029 40034 76162 8452/ 333 59009 70080 84614 88458==
41953,2023,08,17,03,00,AAXX 17034 41953 01450 80503 10300 20260 30038 40043 70266 8352/ 333 20270 59011 70110 83616 88458==
41953,2023,08,17,06,00,AAXX 17064 41953 11450 41303 10330 20270 30034 40039 60036 70162 84400 333 59012 70110 82616 83825==
41953,2023,08,17,09,00,AAXX 17094 41953 02450 41303 10330 20270 30006 40011 84400 333 59004 70110 82616 83825==
41953,2023,08,17,12,00,AAXX 17124 41953 02450 40000 10315 20270 30005 40010 83430 333 10335 59007 70110 82616 84362==
41953,2023,08,17,15,00,AAXX 17154 41953 02440 80000 10295 20270 30039 40044 8352/ 333 58021 70110 83616 88458==
41953,2023,08,17,18,00,AAXX 17184 41953 02440 60000 10280 20260 30042 40047 83520 333 58017 70110 83616 86458==
41953,2023,08,17,21,00,AAXX 17214 41953 02440 60000 10276 20270 30035 40040 83520 333 58005 70110 83616 86458==
41955,2023,08,11,00,00,AAXX 11004 41955 NIL=
41955,2023,08,11,12,00,AAXX 11124 41955 NIL=
41955,2023,08,12,00,00,AAXX 12004 41955 NIL=
41955,2023,08,12,06,00,AAXX 12064 41955 NIL=
41955,2023,08,12,18,00,AAXX 12184 41955 NIL=
41955,2023,08,13,06,00,AAXX 13064 41955 NIL=
41955,2023,08,13,12,00,AAXX 13124 41955 NIL=
41955,2023,08,14,00,00,AAXX 14004 41955 NIL=
41955,2023,08,14,06,00,AAXX 14064 41955 NIL=
41955,2023,08,14,18,00,AAXX 14184 41955 NIL=
41955,2023,08,15,00,00,AAXX 15004 41955 NIL=
41955,2023,08,15,06,00,AAXX 15064 41955 NIL=
41955,2023,08,15,12,00,AAXX 15124 41955 NIL=
41955,2023,08,15,18,00,AAXX 15184 41955 NIL=
41955,2023,08,16,00,00,AAXX 16004 41955 NIL=
41955,2023,08,16,12,00,AAXX 16124 41955 NIL=
41955,2023,08,17,06,00,AAXX 17064 41955 NIL=
41955,2023,08,17,12,00,AAXX 17124 41955 NIL=
41958,2023,08,11,00,00,AAXX 11004 41958 32430 81801 10280 20280 30037 40039 8542/ 333 56499 58000 70000 84616 88459=
41958,2023,08,11,03,00,AAXX 11034 41958 32440 70000 10298 20280 30045 40047 83570 333 20270 56990 59002 70000 83617 86459=
41958,2023,08,11,06,00,AAXX 11064 41958 32457 50000 10328 20270 30034 40036 82530 333 56990 59012 70000 82617 85362=
41958,2023,08,11,09,00,AAXX 11094 41958 32456 61801 10330 20270 30016 40018 83370 333 56990 59016 70000 82616 81930 85459=
41958,2023,08,11,12,00,AAXX 11124 41958 32956 21502 10308 20280 30010 40012 82030 333 10345 56090 59021 70000 82362=
41958,2023,08,11,15,00,AAXX 11154 41958 21440 81801 10268 20260 30033 40035 76162 8542/ 333 56499 59018 6994/ 70004 84616 88458=
41958,2023,08,11,18,00,AAXX 11184 41958 11440 80000 10264 20250 30040 40042 69948 70262 8542/ 333 56499 59017 70004 84616 88458=
41958,2023,08,11,21,00,AAXX 11214 41958 32440 80000 10266 20260 30018 40020 8542/ 333 56699 59017 70004 84616 88459=
41958,2023,08,12,00,00,AAXX 12004 41958 11440 82702 10266 20266 30022 40024 60027 76162 8532/ 333 56699 59015 70028 84616 81930 88458=
41958,2023,08,12,03,00,AAXX 12034 41958 32450 80000 10280 20270 30034 40036 8532/ 333 20264 56999 59011 70028 84616 81930 88459=
41958,2023,08,12,06,00,AAXX 12064 41958 NIL=
41958,2023,08,12,12,00,AAXX 12124 41958 11450 80000 10295 20280 39999 40001 60046 70262 8542/ 333 10297 56999 59011 70254 84616 88459=
41958,2023,08,12,15,00,AAXX 12154 41958 32440 80000 10270 20260 30021 40023 8542/ 333 56999 59012 70250 84616 88459=
41958,2023,08,12,18,00,AAXX 12184 41958 32430 80000 10263 20260 30031 40033 8542/ 333 56999 59009 70250 84616 88459=
41958,2023,08,12,21,00,AAXX 12214 41958 32430 80000 10267 20267 30013 40015 8542/ 333 56999 59005 70250 84616 88459=
41958,2023,08,13,00,00,AAXX 13004 41958 11450 81601 10270 20270 30016 40018 60014 76162 8532/ 333 56999 59006 70234 84616 81930 88459=
41958,2023,08,13,03,00,AAXX 13034 41958 21450 80000 10270 20270 30041 40043 76166 8532/ 333 20265 56999 58007 6008/ 70314 84616 81930 88459=
41958,2023,08,13,06,00,AAXX 13064 41958 11450 81801 10278 20270 30041 40043 60209 76166 8542/ 333 56999 58012 70244 84614 88459=
41958,2023,08,13,09,00,AAXX 13094 41958 32456 80000 10313 20260 30023 40025 8542/ 333 56999 58017 70208 84616 88459=
41958,2023,08,13,12,00,AAXX 13124 41958 32450 80000 10298 20260 30017 40019 8542/ 333 10320 56999 58018 70208 84616 88459=
41958,2023,08,13,15,00,AAXX 13154 41958 32440 60000 10280 20260 30037 40039 85410 333 56990 58016 70208 84616 86459=
41958,2023,08,13,18,00,AAXX 13184 41958 32430 80000 10274 20260 30045 40047 8542/ 333 56999 58014 70208 84616 88459=
41958,2023,08,13,21,00,AAXX 13214 41958 32430 80000 10266 20266 30031 40033 8542/ 333 56999 58018 70208 84616 88459=
41958,2023,08,14,00,00,AAXX 14004 41958 11450 80000 10262 20260 30033 40035 60047 76162 8532/ 333 56999 58017 70238 84616 81930 88459=
41958,2023,08,14,03,00,AAXX 14034 41958 32450 80000 10273 20270 30049 40051 8532/ 333 20250 56999 58008 70158 84616 81930 88459=
41958,2023,08,14,06,00,AAXX 14064 41958 11450 80000 10290 20280 30053 40055 69927 76162 8542/ 333 56999 58012 70038 84616 88459=
41958,2023,08,14,18,00,AAXX 14184 41958 32430 80000 10276 20270 30041 40043 8542/ 333 56999 59004 70040 84616 88459=
41958,2023,08,15,00,00,AAXX 15004 41958 32450 50000 10273 20270 30031 40033 85400 333 56900 59002 70002 84617=
41958,2023,08,15,03,00,AAXX 15034 41958 32457 50000 10320 20280 30043 40045 85400 333 20270 56900 59006 70002 84617=
41958,2023,08,15,06,00,AAXX 15064 41958 32458 60000 10350 20270 30039 40041 85410 333 56990 59014 70000 84616 86459=
41958,2023,08,15,09,00,AAXX 15094 41958 32458 80000 10334 20280 30018 40020 8542/ 333 56999 59003 70000 84616 81930 88459=
41958,2023,08,15,12,00,AAXX 15124 41958 32456 80000 10310 20290 30009 40011 8532/ 333 10354 56999 59006 70000 84616 81930 88459=
41958,2023,08,15,15,00,AAXX 15154 41958 32440 80000 10290 20280 30032 40034 8542/ 333 56999 59002 70000 84616 88459=
41958,2023,08,15,18,00,AAXX 15184 41958 32430 80000 10282 20270 30040 40042 8542/ 333 56999 59001 70000 84616 88459=
41958,2023,08,15,21,00,AAXX 15214 41958 32430 50000 10283 20270 30022 40024 85400 333 56900 59007 70000 84617=
41958,2023,08,16,00,00,AAXX 16004 41958 32450 60000 10282 20280 30025 40027 85410 333 56999 59006 70000 84616 86459=
41958,2023,08,16,03,00,AAXX 16034 41958 32457 50000 10320 20280 30035 40037 85400 333 20275 56900 58008 70000 84617=
41958,2023,08,16,06,00,AAXX 16064 41958 32458 50000 10348 20280 30034 40036 85400 333 56900 59005 70000 84617=
41958,2023,08,16,09,00,AAXX 16094 41958 32458 80901 10328 20290 30006 40008 8542/ 333 56999 59010 70000 84616 81930 88459=
41958,2023,08,16,12,00,AAXX 16124 41958 32456 60000 10310 20280 30003 40005 85310 333 10352 56990 59006 70000 84616 81930 86459=
41958,2023,08,16,15,00,AAXX 16154 41958 32440 50000 10297 20280 30029 40031 85400 333 56900 59003 70000 84616=
41958,2023,08,16,18,00,AAXX 16184 41958 32430 70000 10290 20280 30037 40039 85310 333 56990 59003 70000 84616 81930 87459=
41958,2023,08,16,21,00,AAXX 16214 41958 32430 50000 10288 20270 30011 40013 85400 333 56900 59011 70000 84616=
41958,2023,08,17,00,00,AAXX 17004 41958 32450 50000 10287 20280 30014 40016 85400 333 56900 59011 70000 84616=
41958,2023,08,17,03,00,AAXX 17034 41958 32457 50000 10310 20280 30028 40030 85400 333 20272 56900 59007 70000 84617=
41958,2023,08,17,06,00,AAXX 17064 41958 32458 50901 10333 20280 30020 40022 85400 333 56900 59014 70000 84617=
41958,2023,08,17,09,00,AAXX 17094 41958 32456 81701 10347 20280 39993 49995 8542/ 333 56499 59013 70000 84616 88458=
41958,2023,08,17,12,00,AAXX 17124 41958 11450 61302 10310 20270 39995 49997 69935 70162 83410 333 10355 56390 59008 70003 83616 85459=
41958,2023,08,17,15,00,AAXX 17154 41958 32950 01301 10293 20260 30021 40023 333 59008 70003=
41958,2023,08,17,18,00,AAXX 17184 41958 32940 00000 10287 20280 30014 40016 333 59013 70003=
41958,2023,08,17,21,00,AAXX 17214 41958 32440 61702 10284 20270 30002 40004 83410 333 56490 59008 70003 83616 85459=
41960,2023,08,11,00,00,AAXX 11004 41960 01/15 70000 10277 20277 30046 40048 71022 87070 333 59002 70084 84460 85362==
41960,2023,08,11,03,00,AAXX 11034 41960 02430 70000 10284 20270 30061 40063 85410 333 20260 58000 70084 84616 87459==
41960,2023,08,11,06,00,AAXX 11064 41960 02450 70000 10310 20260 30049 40050 84410 333 59010 70000 83618 87459==
41960,2023,08,11,09,00,AAXX 11094 41960 02456 80000 10299 20260 30035 40036 8542/ 333 59014 70084 84617 88459==
41960,2023,08,11,12,00,AAXX 11124 41960 02450 50000 10292 20260 30031 40032 85400 333 10313 59016 70000 84618==
41960,2023,08,11,15,00,AAXX 11154 41960 02430 40000 10280 20270 30049 40050 84400 333 59016 70000 83618==
41960,2023,08,11,18,00,AAXX 11184 41960 02430 80000 10280 20280 30049 40050 8542/ 333 59019 70000 84618 88459==
41960,2023,08,11,21,00,AAXX 11214 41960 02440 61802 10278 20270 30040 40041 84410 333 59019 70000 82618 86459==
41960,2023,08,12,00,00,AAXX 12004 41960 02/40 51801 10278 20270 30031 40033 85070 333 59015 70000 84460==
41960,2023,08,12,03,00,AAXX 12034 41960 02450 80000 10290 20260 30046 40048 85428 333 20270 59015 70000 84618 88459==
41960,2023,08,12,06,00,AAXX 12064 41960 02450 81802 10298 20270 30041 40042 8542/ 333 59008 70000 84618 88459==
41960,2023,08,12,09,00,AAXX 12094 41960 02450 81802 10293 20270 30023 40024 8542/ 333 59012 70000 84616 88459==
41960,2023,08,12,12,00,AAXX 12124 41960 02440 80000 10290 20270 30016 40017 8542/ 333 10300 59015 70000 84617 88459==
41960,2023,08,12,15,00,AAXX 12154 41960 02430 60000 10280 20270 30034 40035 84410 333 59015 70000 83618 86459==
41960,2023,08,12,18,00,AAXX 12184 41960 02430 80000 10280 20270 30034 40035 8542/ 333 59015 70000 84618 88459==
41960,2023,08,12,21,00,AAXX 12214 41960 02330 80000 10278 20278 30031 40033 8662/ 333 58009 70000 82709 84615 88458==
41960,2023,08,13,00,00,AAXX 13004 41960 01330 81804 10272 20270 30027 40029 76162 8672/ 333 58004 70010 82708 84614 88458==
41960,2023,08,13,03,00,AAXX 13034 41960 01320 80000 10270 20270 30052 40054 76166 8672/ 333 20265 58006 70104 82708 84614 88458==
41960,2023,08,13,06,00,AAXX 13064 41960 21330 82701 10280 20260 30054 40056 76166 8672/ 333 58013 60119 70120 82708 84616 88458==
41960,2023,08,13,09,00,AAXX 13094 41960 01440 80000 10283 20260 30033 40035 70266 8542/ 333 58010 70204 84616 88459==
41960,2023,08,13,12,00,AAXX 13124 41960 11440 60000 10292 20270 30028 40029 60086 70162 85410 333 10296 58012 70204 84617 86459==
41960,2023,08,13,15,00,AAXX 13154 41960 02430 80000 10280 20270 30053 40054 8542/ 333 58019 70204 84616 88459==
41960,2023,08,13,18,00,AAXX 13184 41960 02430 80000 10280 20280 30054 40055 8542/ 333 58020 70204 84616 88459==
41960,2023,08,13,21,00,AAXX 13214 41960 01420 80000 10260 20260 30049 40051 76122 8542/ 333 58018 70216 84616 88459==
41960,2023,08,14,00,00,AAXX 14004 41960 21420 80000 10250 20250 30046 40048 76162 8542/ 333 58019 60047 70234 84616 88459==
41960,2023,08,14,03,00,AAXX 14034 41960 01430 80000 10270 20260 30059 40061 76166 8542/ 333 20248 58007 70234 84616 88459==
41960,2023,08,14,06,00,AAXX 14064 41960 21450 70000 10298 20260 30060 40062 70162 85410 333 58006 60098 70216 84617 87459==
41960,2023,08,14,09,00,AAXX 14094 41960 02450 82403 10310 20250 30035 40036 8542/ 333 59002 70132 84617 88459==
41960,2023,08,14,15,00,AAXX 14154 41960 02430 60000 10285 20270 30049 40050 84410 333 59004 70132 83618 86459==
41960,2023,08,14,18,00,AAXX 14184 41960 02430 80000 10281 20260 30056 40057 8542/ 333 58000 70132 84617 88459==
41960,2023,08,15,00,00,AAXX 15004 41960 01440 50000 10277 20270 30043 40044 70522 83470 333 59003 70090 82618 83460==
41960,2023,08,15,03,00,AAXX 15034 41960 02456 70000 10310 20280 30061 40062 85410 333 20266 58002 70000 84617 87459==
41960,2023,08,15,06,00,AAXX 15064 41960 02456 81802 10330 20280 30051 40053 8542/ 333 59009 70000 84617 88459==
41960,2023,08,15,09,00,AAXX 15094 41960 02450 71903 10320 20280 30033 40035 85470 333 59002 70000 84617 85460==
41960,2023,08,15,12,00,AAXX 15124 41960 02450 60000 10313 20260 30025 40027 85410 333 10337 59003 70000 84618 86459==
41960,2023,08,15,15,00,AAXX 15154 41960 02430 60000 10292 20280 30049 40051 84410 333 58000 70000 83618 86459==
41960,2023,08,15,18,00,AAXX 15184 41960 02430 70000 10290 20280 30052 40054 84410 333 59004 70000 83618 87459==
41960,2023,08,15,21,00,AAXX 15214 41960 02440 70000 10286 20280 30043 40045 84410 333 59007 70000 82618 87459==
41960,2023,08,16,00,00,AAXX 16004 41960 01440 60000 10282 20280 30037 40038 70522 84470 333 59006 70000 82618 85362==
41960,2023,08,16,03,00,AAXX 16034 41960 02456 60000 10310 20270 30062 40064 84410 333 20277 58001 70000 83618 86459==
41960,2023,08,16,06,00,AAXX 16064 41960 01456 71502 10334 20270 30043 40045 71722 85910 333 59008 70000 83618 87459 81930==
41960,2023,08,16,09,00,AAXX 16094 41960 01456 71801 10335 20270 30015 40017 70292 85410 333 59018 70000 84618 87459==
41960,2023,08,16,12,00,AAXX 16124 41960 01430 80000 10320 20280 30014 40016 70392 8532/ 333 10342 59011 70000 84616 88459 81930==
41960,2023,08,16,15,00,AAXX 16154 41960 01420 80000 10272 20270 30039 40041 70296 8532/ 333 59010 70216 84616 88459 81930==
41960,2023,08,16,18,00,AAXX 16184 41960 11430 80000 10278 20270 30039 40041 60026 70296 8542/ 333 59013 70216 84617 88459==
41960,2023,08,16,21,00,AAXX 16214 41960 02440 80000 10278 20278 30033 40035 8542/ 333 59010 70216 84617 88459==
41960,2023,08,17,00,00,AAXX 17004 41960 01430 80000 10281 20280 30025 40027 79522 8592/ 333 59012 70001 84617 88458 81928==
41960,2023,08,17,03,00,AAXX 17034 41960 01456 61001 10310 20270 30039 40041 70196 84410 333 20264 59023 70219 83618 86459==
41960,2023,08,17,06,00,AAXX 17064 41960 11456 61801 10325 20280 30032 40034 69926 70296 84411 333 59011 70219 83618 86459==
41960,2023,08,17,09,00,AAXX 17094 41960 02457 31804 10335 20270 30007 40009 83400 333 59008 70219 82618==
41960,2023,08,17,12,00,AAXX 17124 41960 02450 30000 10316 20270 30009 40011 83500 333 10337 59005 70219 83618==
41960,2023,08,17,15,00,AAXX 17154 41960 02430 40000 10292 20270 30034 40036 84400 333 59005 70003 83618==
41960,2023,08,17,18,00,AAXX 17184 41960 01430 60000 10285 20270 30033 40035 72162 84410 333 59006 70004 83618 86459==
41960,2023,08,17,21,00,AAXX 17214 41960 02440 71402 10285 20270 30025 40027 85410 333 59008 70007 84616 87459==
41963,2023,08,11,00,00,AAXX 11004 41963 02440 81802 10280 20280 30051 40054 8252/ 333 58004 70000 82618 88458==
41963,2023,08,11,03,00,AAXX 11034 41963 01350 81801 10270 20260 30062 40065 76162 8472/ 333 20260 58005 70150 82708 83616 88458==
41963,2023,08,11,06,00,AAXX 11064 41963 21350 81801 10265 20240 30051 40054 76262 8472/ 333 59011 60207 70207 82708 83616 88458==
41963,2023,08,11,09,00,AAXX 11094 41963 02456 30000 10300 20260 30037 40040 83500 333 70200 83616==
41963,2023,08,11,12,00,AAXX 11124 41963 02450 31801 10285 20260 30023 40026 83500 333 10310 59023 70200 83616==
41963,2023,08,11,15,00,AAXX 11154 41963 02440 31801 10275 20275 30077 40080 83500 333 58012 70200 83618==
41963,2023,08,11,18,00,AAXX 11184 41963 02440 30000 10275 20275 30047 40050 83500 333 59007 70200 83616==
41963,2023,08,12,00,00,AAXX 12004 41963 01340 81803 10270 20270 30039 40042 76162 8472/ 333 59012 70010 82708 83616 88458==
41963,2023,08,12,03,00,AAXX 12034 41963 01340 81802 10260 20260 30052 40055 79596 8492/ 333 20255 59010 70610 82708 83616 88458 82926==
41963,2023,08,12,06,00,AAXX 12064 41963 21340 81801 10260 20260 30046 40049 76196 8472/ 333 59005 60809 70810 82708 83616 88458==
41963,2023,08,12,09,00,AAXX 12094 41963 01440 81802 10270 20270 30031 40035 70262 8352/ 333 59006 70830 83616 88458==
41963,2023,08,12,12,00,AAXX 12124 41963 11440 80000 10282 20270 30023 40026 60026 70262 8352/ 333 10285 58000 70830 83616 88458==
41963,2023,08,12,15,00,AAXX 12154 41963 02440 80000 10280 20270 30035 40038 8352/ 333 59012 70830 83616 88458==
41963,2023,08,12,18,00,AAXX 12184 41963 02440 81803 10280 20270 30037 40040 8352/ 333 59024 70830 83616 88458==
41963,2023,08,13,00,00,AAXX 13004 41963 01350 81802 10265 20265 30037 40040 70262 8472/ 333 59002 70030 82708 83616 88458==
41963,2023,08,13,03,00,AAXX 13034 41963 01350 81801 10263 20263 30048 40051 76162 8472/ 333 20252 59004 70380 82708 83616 88458==
41963,2023,08,13,06,00,AAXX 13064 41963 21350 71801 10280 20270 30047 40050 70262 83510 333 58001 60138 70180 83618 87458==
41963,2023,08,13,09,00,AAXX 13094 41963 02450 61801 10295 20270 30033 40036 82510 333 59002 70160 82618 86458==
41963,2023,08,13,12,00,AAXX 13124 41963 02450 61801 10280 20260 30034 40037 82510 333 10300 58011 70160 82618 86458==
41963,2023,08,13,15,00,AAXX 13154 41963 02340 81801 10272 20270 30046 40049 8352/ 333 58011 70160 83616 88458==
41963,2023,08,13,18,00,AAXX 13184 41963 01340 81801 10270 20270 30055 40058 76162 8572/ 333 58018 70010 82708 83616 88458==
41963,2023,08,14,00,00,AAXX 14004 41963 11340 81801 10265 20265 30045 40048 60026 70262 8372/ 333 58008 70160 82708 83616 88458==
41963,2023,08,14,03,00,AAXX 14034 41963 01450 51801 10280 20260 30050 40053 70162 82510 333 20260 59002 70100 82618 85458==
41963,2023,08,14,06,00,AAXX 14064 41963 11456 51801 10310 20260 30054 40057 60026 70262 82510 333 58007 70050 82616 85458==
41963,2023,08,14,09,00,AAXX 14094 41963 02456 71801 10310 20260 30032 40034 82510 333 59001 70050 82618 87458==
41963,2023,08,14,18,00,AAXX 14184 41963 NIL=
41963,2023,08,15,00,00,AAXX 15004 41963 02440 80000 10280 20270 30043 40046 8352/ 333 59002 70020 83618 88458==
41963,2023,08,15,03,00,AAXX 15034 41963 02456 71801 10300 20270 30053 40056 83510 333 20263 58003 70000 83616 87458==
41963,2023,08,15,06,00,AAXX 15064 41963 02456 71801 10320 20240 30046 40048 83500 333 59008 70000 83618 87458==
41963,2023,08,15,09,00,AAXX 15094 41963 02456 71801 10305 20280 30032 40034 83500 333 58000 70000 83618 87458==
41963,2023,08,15,12,00,AAXX 15124 41963 02450 70000 10300 20270 30024 40026 82510 333 10325 59010 70000 83618 87458==
41963,2023,08,15,15,00,AAXX 15154 41963 02450 71801 10285 20280 30046 40049 83510 333 58006 70000 83618 87458==
41963,2023,08,15,18,00,AAXX 15184 41963 02440 70000 10284 20270 30049 40052 83510 333 59002 70000 83618 87458==
41963,2023,08,16,00,00,AAXX 16004 41963 02450 40000 10290 20280 30044 40047 82510 333 58001 70000 82618 84458==
41963,2023,08,16,03,00,AAXX 16034 41963 02456 61801 10315 20280 30046 40048 82510 333 20270 59007 70000 82618 86458==
41963,2023,08,16,06,00,AAXX 16064 41963 02456 61801 10315 20270 30045 40047 82510 333 59001 70000 82618 86458==
41963,2023,08,16,09,00,AAXX 16094 41963 02456 61801 10325 20280 30018 40020 82510 333 59014 70000 82618 85458==
41963,2023,08,16,12,00,AAXX 16124 41963 02456 50000 10310 20280 30016 40018 82510 333 10330 59008 70000 82618 85458==
41963,2023,08,16,15,00,AAXX 16154 41963 02450 60000 10290 20280 30042 40045 82510 333 59004 70000 82618 86458==
41963,2023,08,16,21,00,AAXX 16214 41963 02440 60000 10290 20280 30040 40042 82510 333 59005 70000 82618 86458==
41963,2023,08,17,00,00,AAXX 17004 41963 01340 80000 10275 20275 30029 40032 70362 8472/ 333 59015 70040 87208 83616 88458==
41963,2023,08,17,03,00,AAXX 17034 41963 02456 41801 10310 20260 30043 40045 82510 333 20270 59003 70040 82618 86458==
41963,2023,08,17,06,00,AAXX 17064 41963 02456 31801 10320 20270 30041 40043 83500 333 59004 70040 83618==
41963,2023,08,17,09,00,AAXX 17094 41963 02456 51801 10320 20260 30014 40016 83500 333 59004 70000 83618==
41963,2023,08,17,12,00,AAXX 17124 41963 02456 41802 10300 20270 30012 40015 82510 333 10330 59004 70040 82618 84458==
41963,2023,08,17,15,00,AAXX 17154 41963 02450 41803 10290 20280 30040 40042 82510 333 59002 70040 82618 84458==
41963,2023,08,17,18,00,AAXX 17184 41963 02440 21802 10290 20260 30041 40043 82510 333 59001 70040 82618==
41964,2023,08,11,00,00,AAXX 11004 41964 21357 81403 10275 20270 30043 40045 70262 8662/ 333 58004 69955 70025 83708 85616 88460==
41964,2023,08,11,03,00,AAXX 11034 41964 01350 82701 10266 20260 30056 40058 70262 8662/ 333 20259 59004 70041 83708 85615 88459==
41964,2023,08,11,06,00,AAXX 11064 41964 01357 82303 10295 20270 30051 40053 70262 8662/ 333 59009 70076 82709 85616 88460==
41964,2023,08,11,09,00,AAXX 11094 41964 02457 82101 10290 20270 30029 40031 8452/ 333 59014 70076 84618 88460==
41964,2023,08,11,12,00,AAXX 11124 41964 02457 71802 10289 20260 30024 40026 83571 333 10306 59017 70076 83618 83460 85362==
41964,2023,08,11,15,00,AAXX 11154 41964 02457 61802 10274 20250 30047 40049 83530 333 59015 70076 83618 84362==
41964,2023,08,11,18,00,AAXX 11184 41964 02457 80000 10276 20270 30044 40046 8552/ 333 59016 70076 85618 88460==
41964,2023,08,11,21,00,AAXX 11214 41964 02357 81502 10270 20260 30037 40039 8662/ 333 59017 70076 83709 85616 88460==
41964,2023,08,12,00,00,AAXX 12004 41964 21357 81402 10258 20250 30030 40032 70262 8662/ 333 59013 60137 70201 83708 85616 88458==
41964,2023,08,12,03,00,AAXX 12034 41964 01340 82204 10270 20260 30042 40044 76122 8772/ 333 20253 59014 70235 85707 85616 88458==
41964,2023,08,12,06,00,AAXX 12064 41964 01340 81802 10279 20270 30041 40043 76362 8772/ 333 59010 70210 86707 85616 88458==
41964,2023,08,12,09,00,AAXX 12094 41964 01456 81801 10285 20270 30028 40030 70266 8452/ 333 59001 70280 84618 88460==
41964,2023,08,12,12,00,AAXX 12124 41964 11357 81802 10280 20270 30011 40013 60076 70262 8662/ 333 10291 59013 70280 82709 85617 88460==
41964,2023,08,12,15,00,AAXX 12154 41964 01356 81702 10273 20260 30029 40031 72162 8672/ 333 59018 70284 83708 85616 88458==
41964,2023,08,12,18,00,AAXX 12184 41964 01356 81502 10270 20260 30032 40034 70262 8672/ 333 59012 70286 83708 85616 88458==
41964,2023,08,12,21,00,AAXX 12214 41964 02356 81502 10268 20260 30026 40028 8662/ 333 59011 70286 83709 85616 88458==
41964,2023,08,13,00,00,AAXX 13004 41964 02356 81402 10270 20260 30022 40024 8662/ 333 59008 70156 82709 85616 88460==
41964,2023,08,13,03,00,AAXX 13034 41964 01340 82302 10269 20266 30041 40043 76162 8672/ 333 20250 59001 70206 83708 85615 88458==
41964,2023,08,13,06,00,AAXX 13064 41964 21356 82102 10270 20260 30046 40048 70262 8662/ 333 58005 60148 70212 83709 85616 88458==
41964,2023,08,13,09,00,AAXX 13094 41964 32356 80000 10300 20260 30035 40037 8662/ 333 56499 58007 70142 83709 85618 88460=
41964,2023,08,13,12,00,AAXX 13124 41964 21356 81802 10265 20265 30022 40024 72162 8672/ 333 10306 58011 60227 70360 83708 85616 88458==
41964,2023,08,13,15,00,AAXX 13154 41964 01356 80000 10268 20268 30043 40045 72166 8672/ 333 58014 70436 83708 85616 88458==
41964,2023,08,13,18,00,AAXX 13184 41964 21356 80000 10269 20269 30046 40048 70262 8662/ 333 58014 60088 70434 82709 85616 88458==
41964,2023,08,13,21,00,AAXX 13214 41964 01335 81502 10264 20264 30040 40042 76166 8772/ 333 58014 70504 86707 85615 88457==
41964,2023,08,14,00,00,AAXX 14004 41964 21330 80000 10265 20265 30034 40036 76366 8772/ 333 58012 60139 70564 86708 85614 88457==
41964,2023,08,14,03,00,AAXX 14034 41964 01557 70000 10279 20270 30051 40052 70166 85470 333 20255 58009 70606 84620 83460 85362==
41964,2023,08,14,06,00,AAXX 14064 41964 11357 71602 10292 20260 30047 40049 60156 70262 85610 333 58001 70580 81709 85618 86460==
41964,2023,08,14,09,00,AAXX 14094 41964 02357 51601 10312 20270 30028 40030 83510 333 59007 70580 83618 84460==
41964,2023,08,14,15,00,AAXX 14154 41964 02557 70000 10282 20270 30042 40044 85410 333 59001 70282 84620 86460==
41964,2023,08,14,18,00,AAXX 14184 41964 02457 70000 10278 20270 30045 40047 85510 333 59001 70282 85618 86460==
41964,2023,08,15,00,00,AAXX 15004 41964 01340 80000 10272 20272 30039 40041 79596 8732/ 333 58005 70006 85708 84616 88458 81928==
41964,2023,08,15,03,00,AAXX 15034 41964 01357 80000 10292 20280 30050 40053 70296 8632/ 333 20266 58000 70016 82709 85617 88460 81928==
41964,2023,08,15,06,00,AAXX 15064 41964 01558 71502 10303 20270 30044 40047 70196 85470 333 59003 70018 84620 85460==
41964,2023,08,15,09,00,AAXX 15094 41964 02458 61801 10310 20270 30034 40037 83510 333 58006 70018 84618 85460==
41964,2023,08,15,12,00,AAXX 15124 41964 02358 81802 10293 20270 30021 40024 8662/ 333 10316 59001 70018 82709 85616 88460==
41964,2023,08,15,15,00,AAXX 15154 41964 02457 80000 10287 20280 30041 40044 8452/ 333 59001 70018 84617 88460==
41964,2023,08,15,18,00,AAXX 15184 41964 02357 81802 10287 20280 30042 40045 8662/ 333 59003 70018 82709 85616 88460==
41964,2023,08,15,21,00,AAXX 15214 41964 02357 80000 10284 20270 30035 40038 8662/ 333 59006 70018 83709 85616 88460==
41964,2023,08,16,00,00,AAXX 16004 41964 21457 80000 10278 20278 30031 40034 70262 8552/ 333 59008 69965 70018 85617 88460==
41964,2023,08,16,03,00,AAXX 16034 41964 01350 81401 10299 20270 30044 40047 76122 8672/ 333 20272 59006 70009 84709 83617 88458==
41964,2023,08,16,06,00,AAXX 16064 41964 21456 80000 10322 20270 30037 40040 70262 8452/ 333 59007 60027 70028 84618 88460==
41964,2023,08,16,09,00,AAXX 16094 41964 02456 50000 10329 20270 30020 40023 83510 333 59014 70028 83618 84460==
41964,2023,08,16,12,00,AAXX 16124 41964 02456 40000 10300 20280 30011 40013 82501 333 10341 59010 70027 82618 83080==
41964,2023,08,16,18,00,AAXX 16184 41964 02450 40000 10289 20280 30033 40036 82510 333 59009 70027 82618 83080==
41964,2023,08,16,21,00,AAXX 16214 41964 01350 81401 10279 20270 30028 40031 71392 8632/ 333 59007 70027 83709 84616 88458 81928==
41964,2023,08,17,00,00,AAXX 17004 41964 21440 71401 10260 20259 30022 40025 72996 84510 333 59009 60067 70085 84617 84460==
41964,2023,08,17,03,00,AAXX 17034 41964 02456 61401 10304 20260 30029 40032 85510 333 20255 59015 70084 85617 83460==
41964,2023,08,17,06,00,AAXX 17064 41964 02456 61401 10319 20280 30028 40031 85510 333 59009 70064 85618 83460==
41964,2023,08,17,09,00,AAXX 17094 41964 02457 31902 10322 20260 30006 40008 83510 333 59014 70064 83618==
41964,2023,08,17,12,00,AAXX 17124 41964 01356 82302 10300 20270 30012 40015 71722 8532/ 333 10326 59002 70064 83709 83617 88459 81928==
41964,2023,08,17,18,00,AAXX 17184 41964 11450 60000 10288 20260 30032 40034 60046 70196 83510 333 59001 70106 83618 85460==
41964,2023,08,17,21,00,AAXX 17214 41964 02450 51401 10280 20270 30027 40030 83510 333 59001 70106 83618 84460==
41965,2023,08,11,00,00,AAXX 11004 41965 02450 80000 10270 20240 30065 40073 84610 333 58013 70080 83618 88460==
41965,2023,08,11,03,00,AAXX 11034 41965 02450 70000 10290 20240 30070 40078 84610 333 20255 58013 70040 83618 86460==
41965,2023,08,11,06,00,AAXX 11064 41965 02450 80000 10300 20240 30050 40058 84610 333 58010 70000 83618 88460==
41965,2023,08,11,09,00,AAXX 11094 41965 02450 80000 10300 20240 30045 40053 84610 333 58010 70000 83618 88460==
41965,2023,08,11,12,00,AAXX 11124 41965 02450 70000 10280 20230 30045 40053 84610 333 10310 58010 70000 82628 86460==
41965,2023,08,11,15,00,AAXX 11154 41965 02450 80000 10280 20230 30040 40048 84610 333 59006 70000 81710 83618 88460==
41965,2023,08,11,21,00,AAXX 11214 41965 32450 80000 10300 20240 30040 40048 84610 333 56990 59008 70000 83618 88460=
41965,2023,08,12,00,00,AAXX 12004 41965 NIL=
41965,2023,08,12,03,00,AAXX 12034 41965 02450 80000 10280 20240 30052 40060 84610 333 20260 59008 70000 83618 88460==
41965,2023,08,12,06,00,AAXX 12064 41965 02450 80000 10300 20240 30040 40048 84610 333 59008 70000 83618 88460==
41965,2023,08,12,09,00,AAXX 12094 41965 01450 80000 10290 20220 30017 40025 70262 84610 333 59018 70080 81710 83618 88460==
41965,2023,08,12,12,00,AAXX 12124 41965 01450 80000 10290 20240 30017 40025 70262 84610 333 10300 59018 70080 83618 88460==
41965,2023,08,12,15,00,AAXX 12154 41965 02450 80000 10280 20230 30020 40028 84610 333 59020 70080 83618 88460==
41965,2023,08,12,18,00,AAXX 12184 41965 02440 80000 10275 20240 30022 40030 8461/ 333 59021 70080 81710 83618 88460==
41965,2023,08,13,00,00,AAXX 13004 41965 02440 80000 10260 20220 30035 40044 8461/ 333 59012 70080 83618 88460==
41965,2023,08,13,03,00,AAXX 13034 41965 02440 80000 10270 20255 30045 40054 8461/ 333 59007 70080 83618 88460==
41965,2023,08,13,06,00,AAXX 13064 41965 21440 80000 10265 20240 30046 40055 76162 8462/ 333 58014 60107 70180 81710 83618 88456==
41965,2023,08,13,09,00,AAXX 13094 41965 01440 80000 10280 20230 30026 40035 70262 8462/ 333 58009 70120 81710 83618 88456==
41965,2023,08,13,12,00,AAXX 13124 41965 21440 80000 10280 20230 30024 40033 76162 8462/ 333 58007 60139 70230 81710 83618 88456==
41965,2023,08,14,00,00,AAXX 14004 41965 NIL=
41965,2023,08,14,03,00,AAXX 14034 41965 02450 80000 10280 20230 30052 40060 8462/ 333 20260 58007 70340 81710 83618 88460==
41965,2023,08,14,06,00,AAXX 14064 41965 02450 81302 10300 20240 30051 40060 8462/ 333 58005 70240 81710 83618 88460==
41965,2023,08,14,09,00,AAXX 14094 41965 02456 31402 10310 20230 30024 40033 83600 333 59022 70220 83618==
41965,2023,08,14,18,00,AAXX 14184 41965 NIL=
41965,2023,08,15,00,00,AAXX 15004 41965 NIL=
41965,2023,08,15,03,00,AAXX 15034 41965 02450 80000 10280 20230 30057 40065 8461/ 333 20265 58005 70000 83618 88460==
41965,2023,08,15,06,00,AAXX 15064 41965 02456 81302 10300 20220 30047 40056 8461/ 333 59004 70000 83618 88460==
41965,2023,08,15,09,00,AAXX 15094 41965 02456 80000 10310 20230 30029 40038 8461/ 333 58005 70000 83618 88460==
41965,2023,08,15,12,00,AAXX 15124 41965 02450 80000 10300 20240 30027 40035 84610 333 10325 58003 70000 83618 88460==
41965,2023,08,15,15,00,AAXX 15154 41965 02450 80000 10290 20230 30034 40042 84610 333 58005 70000 83618 88460==
41965,2023,08,15,18,00,AAXX 15184 41965 NIL=
41965,2023,08,16,00,00,AAXX 16004 41965 02450 80000 10270 20240 30040 40048 84610 333 59007 70000 83618 88460==
41965,2023,08,16,03,00,AAXX 16034 41965 02450 80000 10270 20240 30046 40054 84610 333 20265 59011 70000 83618 88460==
41965,2023,08,16,06,00,AAXX 16064 41965 02450 81301 10310 20230 30035 40044 8461/ 333 59012 70000 83618 88460==
41965,2023,08,16,09,00,AAXX 16094 41965 02450 80000 10325 20230 30010 40019 8461/ 333 59019 70000 83618 88460==
41965,2023,08,16,12,00,AAXX 16124 41965 02450 80000 10300 20240 30010 40018 84610 333 10330 59017 70000 83618 88460==
41965,2023,08,17,03,00,AAXX 17034 41965 02450 80000 10280 20230 30032 40040 84610 333 20250 59014 70210 83618 88460==
41965,2023,08,17,06,00,AAXX 17064 41965 02456 31401 10325 20230 30029 40038 83600 333 59006 70210 83618==
41965,2023,08,17,09,00,AAXX 17094 41965 02456 30000 10330 20230 30004 40013 83600 333 59006 70210 83618==
41965,2023,08,17,12,00,AAXX 17124 41965 01450 80000 10300 20240 30004 40013 71722 8331/ 333 10333 59006 70210 81710 83618 88460 81928==
41966,2023,08,11,00,00,AAXX 11004 41966 02440 70000 10255 20240 39986 40065 83510 333 58018 70046 83616 86460==
41966,2023,08,11,03,00,AAXX 11034 41966 01340 80000 10260 20230 39996 40075 76366 8472/ 333 20250 58013 70380 82709 83615 88460==
41966,2023,08,11,06,00,AAXX 11064 41966 01340 80000 10265 20250 39985 40063 76266 8472/ 333 59004 70402 82709 83615 88460==
41966,2023,08,11,09,00,AAXX 11094 41966 01340 81301 10260 20230 39976 40055 76266 8472/ 333 59003 70446 82709 83615 88460==
41966,2023,08,11,12,00,AAXX 11124 41966 01430 70000 10265 20240 39963 40041 70162 83610 333 10268 59019 70456 83616 86460==
41966,2023,08,11,15,00,AAXX 11154 41966 02420 70901 10265 20240 39972 40050 83510 333 59013 70456 83616 86460==
41966,2023,08,11,21,00,AAXX 11214 41966 02320 81201 10265 20240 39966 40045 8472/ 333 59005 70456 83615 88460==
41966,2023,08,12,00,00,AAXX 12004 41966 21340 80901 10260 20230 39973 40051 70262 8462/ 333 59014 60047 70498 82709 83615 88460==
41966,2023,08,12,03,00,AAXX 12034 41966 02350 81301 10285 20230 39993 40071 8462/ 333 20250 59004 70136 82709 83615 88460==
41966,2023,08,12,06,00,AAXX 12064 41966 02350 81301 10282 20220 39974 40052 8462/ 333 59011 70096 82709 83615 88460==
41966,2023,08,12,09,00,AAXX 12094 41966 02350 82601 10280 20220 39953 40031 8472/ 333 59024 70052 82709 83615 88460==
41966,2023,08,12,12,00,AAXX 12124 41966 21430 70000 10265 20240 39952 40030 70162 83510 333 10290 59011 60047 70084 83616 85460==
41966,2023,08,12,15,00,AAXX 12154 41966 02420 60000 10265 20240 39963 40041 83510 333 59009 70084 83616 85460==
41966,2023,08,12,18,00,AAXX 12184 41966 NIL=
41966,2023,08,12,21,00,AAXX 12214 41966 02420 61201 10260 20230 39963 40042 83510 333 59003 70084 83616 85460==
41966,2023,08,13,00,00,AAXX 13004 41966 02420 60000 10265 20240 39968 40044 83510 333 59011 70084 83616 85460==
41966,2023,08,13,03,00,AAXX 13034 41966 02450 72001 10275 20230 39985 40063 83510 333 20246 59008 70042 83616 86460==
41966,2023,08,13,06,00,AAXX 13064 41966 02350 81301 10270 20240 39976 40054 8472/ 333 58002 70042 82709 83615 88460==
41966,2023,08,13,09,00,AAXX 13094 41966 02340 80000 10270 20240 39966 40044 8472/ 333 58013 70080 82709 83615 88460==
41966,2023,08,13,12,00,AAXX 13124 41966 21340 80000 10270 20240 39952 40030 70262 8472/ 333 10278 58000 60048 70038 82709 83615 88460==
41966,2023,08,13,15,00,AAXX 13154 41966 02420 81201 10267 20240 39960 40038 8462/ 333 59003 70038 82709 83615 88460==
41966,2023,08,13,21,00,AAXX 13214 41966 02420 60000 10263 20230 39954 40032 82510 333 59010 70068 82616 85460==
41966,2023,08,14,00,00,AAXX 14004 41966 01320 80000 10267 20240 39964 40042 72162 8462/ 333 59002 70030 82709 83615 88460==
41966,2023,08,14,03,00,AAXX 14034 41966 02450 51301 10290 20220 39991 40069 82510 333 20255 58006 70068 82616 84460==
41966,2023,08,14,06,00,AAXX 14064 41966 02450 61301 10310 20220 39982 40060 83510 333 58006 70068 83616 84460==
41966,2023,08,14,09,00,AAXX 14094 41966 02450 62201 10311 20220 39961 40039 82510 333 59005 70030 82616 85460==
41966,2023,08,14,15,00,AAXX 14154 41966 02430 60000 10275 20250 39964 40042 82510 333 58004 70040 82616 85460==
41966,2023,08,14,18,00,AAXX 14184 41966 NIL=
41966,2023,08,15,00,00,AAXX 15004 41966 01330 80000 10260 20230 39976 40055 72122 8462/ 333 58004 70040 82709 83615 88460==
41966,2023,08,15,03,00,AAXX 15034 41966 02350 80000 10290 20230 30002 40080 8462/ 333 20252 58011 70052 82709 83615 88460==
41966,2023,08,15,06,00,AAXX 15064 41966 02450 60901 10300 20230 39994 40072 83510 333 58012 70052 83615 85460==
41966,2023,08,15,09,00,AAXX 15094 41966 02450 80000 10300 20250 39962 40040 8462/ 333 58001 70052 82709 83615 88460==
41966,2023,08,15,12,00,AAXX 15124 41966 02440 71201 10290 20240 39943 40021 83510 333 10320 59014 70042 83616 86460==
41966,2023,08,15,15,00,AAXX 15154 41966 02430 70000 10280 20250 39950 40028 82510 333 59014 70042 83616 86460==
41966,2023,08,15,18,00,AAXX 15184 41966 NIL=
41966,2023,08,15,21,00,AAXX 15214 41966 02420 71201 10270 20240 39952 40030 83510 333 59006 70042 83616 86460==
41966,2023,08,16,00,00,AAXX 16004 41966 01430 70000 10265 20240 39972 40050 72122 83510 333 59005 70010 83616 86460==
41966,2023,08,16,03,00,AAXX 16034 41966 02440 71502 10292 20260 39973 40051 83510 333 20260 59029 70010 83616 86460==
41966,2023,08,16,06,00,AAXX 16064 41966 02450 70000 10310 20240 39982 40060 83510 333 59012 70010 83616 86460==
41966,2023,08,16,09,00,AAXX 16094 41966 02450 60901 10320 20240 39951 40028 82510 333 59012 70010 82616 85460==
41966,2023,08,16,12,00,AAXX 16124 41966 02430 50000 10310 20240 39932 40009 82510 333 10325 59012 70010 82616 84460==
41966,2023,08,16,15,00,AAXX 16154 41966 02420 51501 10280 20230 39944 40023 82510 333 59005 70010 82616 84460==
41966,2023,08,16,21,00,AAXX 16214 41966 01330 71302 10265 20240 39945 40024 79596 8492/ 333 59006 70570 82709 83615 88460 81930==
41966,2023,08,17,00,00,AAXX 17004 41966 21440 71302 10258 20230 39960 40038 72996 83510 333 59012 61019 71006 83616 86460==
41966,2023,08,17,03,00,AAXX 17034 41966 02550 41501 10310 20230 39968 40045 82130 333 20250 59006 71006 82826 83362==
41966,2023,08,17,06,00,AAXX 17064 41966 02550 40901 10330 20180 39947 40024 82130 333 59036 71006 82826 83362==
41966,2023,08,17,09,00,AAXX 17094 41966 02450 50000 10340 20190 39926 40003 82510 333 59025 71006 82616 84460==
41966,2023,08,17,12,00,AAXX 17124 41966 01340 81501 10290 20250 39939 40016 76122 8472/ 333 10345 58007 70010 82709 83615 88460==
41966,2023,08,17,15,00,AAXX 17154 41966 01430 60000 10280 20250 39952 40031 70162 83510 333 58008 71031 83616 85460==
41966,2023,08,17,21,00,AAXX 17214 41966 02430 50000 10270 20240 39943 40022 82510 333 59002 70471 82616 84460==
41977,2023,08,11,00,00,AAXX 11004 41977 02350 80000 10265 20260 30027 40065 8662/ 333 59005 70052 82712 84615 88460==
41977,2023,08,11,03,00,AAXX 11034 41977 02350 80000 10298 20270 30048 40086 8662/ 333 20263 59004 70010 82712 84615 88460==
41977,2023,08,11,06,00,AAXX 11064 41977 02350 82003 10290 20250 30038 40076 8662/ 333 59007 70000 82712 84615 88460==
41977,2023,08,11,09,00,AAXX 11094 41977 01340 81802 10280 20270 30021 40059 72162 8732/ 333 59001 70002 83708 85615 88458 81928==
41977,2023,08,11,12,00,AAXX 11124 41977 21440 71803 10288 20270 30013 40051 70162 84570 333 10300 59013 69928 70002 84615 85460==
41977,2023,08,11,15,00,AAXX 11154 41977 02450 51802 10270 20250 30042 40080 82570 333 59006 70002 82615 85460==
41977,2023,08,11,18,00,AAXX 11184 41977 02350 81802 10265 20250 30042 40080 8462/ 333 59008 70002 81708 84615 88458==
41977,2023,08,11,21,00,AAXX 11214 41977 02350 81802 10265 20250 30035 40073 8662/ 333 59007 70002 82710 84615 88460==
41977,2023,08,12,00,00,AAXX 12004 41977 02350 81802 10265 20250 30022 40060 8662/ 333 59005 70002 82710 84615 88460==
41977,2023,08,12,03,00,AAXX 12034 41977 02450 71803 10280 20250 30041 40079 84570 333 20262 59007 70002 84615 85460==
41977,2023,08,12,06,00,AAXX 12064 41977 02450 71803 10298 20260 30027 40064 84570 333 59011 70002 84615 85460==
41977,2023,08,12,12,00,AAXX 12124 41977 21350 80000 10275 20270 30013 40051 70262 8562/ 333 10300 58000 60038 70030 82710 84617 88459==
41977,2023,08,12,15,00,AAXX 12154 41977 02450 71803 10264 20255 30019 40057 84570 333 59023 70030 84615 85460==
41977,2023,08,12,18,00,AAXX 12184 41977 02350 81002 10261 20250 30021 40059 8672/ 333 59021 70010 83708 84615 88458==
41977,2023,08,12,21,00,AAXX 12214 41977 01350 81802 10258 20250 30016 40054 70262 8662/ 333 59019 70044 82710 84615 88460==
41977,2023,08,13,00,00,AAXX 13004 41977 01350 81802 10256 20256 30011 40049 76162 8672/ 333 59011 70052 82712 84615 88460==
41977,2023,08,13,03,00,AAXX 13034 41977 01340 81802 10270 20260 30032 40070 76162 8732/ 333 20246 59009 70054 83708 84615 88458 81928==
41977,2023,08,13,06,00,AAXX 13064 41977 01340 81303 10272 20260 30031 40069 72162 8732/ 333 58004 70076 83708 84615 88458 81928==
41977,2023,08,13,12,00,AAXX 13124 41977 02350 71804 10280 20260 30008 40046 84620 333 10295 59005 70046 82710 84617 87460==
41977,2023,08,13,15,00,AAXX 13154 41977 02350 71802 10266 20270 30035 40073 84620 333 58016 70046 82710 84617 87460==
41977,2023,08,13,21,00,AAXX 13214 41977 02350 80000 10268 20260 30027 40065 8662/ 333 58011 70042 82712 84615 88460==
41977,2023,08,14,00,00,AAXX 14004 41977 01350 80000 10265 20260 30025 40063 70262 8662/ 333 58014 70010 82712 84615 88460==
41977,2023,08,14,03,00,AAXX 14034 41977 02456 51803 10292 20260 30038 40076 83530 333 20260 58006 70044 83618 85362==
41977,2023,08,14,06,00,AAXX 14064 41977 02456 72106 10300 20260 30032 40069 84570 333 58001 70022 84615 85460==
41977,2023,08,14,09,00,AAXX 14094 41977 42456 71304 10310 20260 30008 40046 58000 85460==
41977,2023,08,14,12,00,AAXX 14124 41977 02456 62107 10294 20260 30029 40036 83520 333 10317 58002 70072 83617 85460==
41977,2023,08,14,18,00,AAXX 14184 41977 NIL=
41977,2023,08,15,00,00,AAXX 15004 41977 21350 80000 10275 20275 30025 40063 76162 8732/ 333 58000 60059 70052 82708 84615 88458 81928==
41977,2023,08,15,03,00,AAXX 15034 41977 01340 81802 10270 20260 30048 40086 79566 8792/ 333 20268 58010 70082 83708 84614 88458 81928==
41977,2023,08,15,06,00,AAXX 15064 41977 02450 72104 10298 20270 30038 40079 84570 333 58006 70118 84615 85460==
41977,2023,08,15,09,00,AAXX 15094 41977 01456 72304 10315 20260 30010 40048 70262 84570 333 58002 70118 84616 85460==
41977,2023,08,15,12,00,AAXX 15124 41977 02456 81802 10292 20260 30010 40047 8552/ 333 10323 58000 70118 85617 88458==
41977,2023,08,15,15,00,AAXX 15154 41977 02456 80000 10288 20280 30047 40085 8652/ 333 58017 70118 86616 88458==
41977,2023,08,15,18,00,AAXX 15184 41977 02456 80000 10284 20270 30035 40073 8652/ 333 58003 70118 86616 87458==
41977,2023,08,15,21,00,AAXX 15214 41977 02350 80000 10280 20270 30029 40067 8662/ 333 58000 70091 82712 84615 88460==
41977,2023,08,16,00,00,AAXX 16004 41977 02350 80000 10273 20270 30017 40055 8662/ 333 59008 70066 82712 84615 88460==
41977,2023,08,16,03,00,AAXX 16034 41977 02450 81303 10294 20260 30034 40071 8451/ 333 20264 59014 70036 84615 88460==
41977,2023,08,16,06,00,AAXX 16064 41977 02450 81802 10314 20260 30026 40064 8532/ 333 59012 70000 84615 88460 81928==
41977,2023,08,16,09,00,AAXX 16094 41977 02456 70000 10322 20250 30003 40041 84520 333 59007 70000 84615 86460==
41977,2023,08,16,12,00,AAXX 16124 41977 02456 72302 10307 20270 39993 40031 84510 333 10335 59017 70000 84616 87459==
41977,2023,08,16,15,00,AAXX 16154 41977 02456 72302 10295 20280 30030 40067 83520 333 59017 70000 83616 87458==
41977,2023,08,16,18,00,AAXX 16184 41977 02350 82302 10290 20280 30028 40066 8462/ 333 59007 70000 81708 84615 88458==
41977,2023,08,16,21,00,AAXX 16214 41977 02350 80000 10276 20270 30018 40055 8672/ 333 59011 70050 82708 84615 88458==
41977,2023,08,17,00,00,AAXX 17004 41977 21350 80000 10268 20268 30011 40049 70262 8662/ 333 59006 60088 70076 82708 84615 88460==
41977,2023,08,17,03,00,AAXX 17034 41977 02456 41802 10294 20260 30020 40058 82530 333 20262 59014 70076 82618 84362==
41977,2023,08,17,06,00,AAXX 17064 41977 02456 72104 10316 20270 30014 40052 84470 333 59012 70076 85460==
41977,2023,08,17,09,00,AAXX 17094 41977 02456 52302 10324 20270 39986 40023 83470 333 59017 70076 82617 84460==
41977,2023,08,17,12,00,AAXX 17124 41977 01330 81802 10299 20280 39994 40032 79622 8692/ 333 10330 58001 70004 83709 85614 88458 81928==
41977,2023,08,17,15,00,AAXX 17154 41977 01330 80000 10285 20290 30019 40056 70262 8662/ 333 59011 70110 82708 84615 88460==
41977,2023,08,17,18,00,AAXX 17184 41977 21350 70000 10280 20260 30022 40059 70166 84670 333 59006 60038 70110 82710 84615 86459==
41977,2023,08,17,21,00,AAXX 17214 41977 02450 70000 10270 20250 30016 40053 84520 333 59002 70060 84616 86460==
41978,2023,08,11,00,00,AAXX 11004 41978 02456 61503 10267 20260 30051 40057 84320 333 58002 70092 83616 86460 81930==
41978,2023,08,11,03,00,AAXX 11034 41978 02456 61505 10301 20260 30062 40068 84320 333 20260 59008 70012 83616 86460 81930==
41978,2023,08,11,06,00,AAXX 11064 41978 02456 61704 10291 20250 30055 40061 84320 333 59010 70000 83616 86460 81930==
41978,2023,08,11,09,00,AAXX 11094 41978 02450 71503 10288 20260 30037 40043 84320 333 59009 70000 83616 87460 81930==
41978,2023,08,11,12,00,AAXX 11124 41978 01450 61803 10290 20260 30034 40040 70522 83520 333 10309 59013 70000 83617 85460==
41978,2023,08,11,15,00,AAXX 11154 41978 02456 61605 10270 20250 30054 40060 83520 333 59015 70000 83617 85460==
41978,2023,08,11,18,00,AAXX 11184 41978 02456 61403 10267 20250 30051 40057 83520 333 59015 70000 83617 85460==
41978,2023,08,11,21,00,AAXX 11214 41978 02456 61403 10265 20260 30037 40043 83520 333 59017 70000 83617 85460==
41978,2023,08,12,00,00,AAXX 12004 41978 02456 81510 10263 20250 30044 40050 8452/ 333 59007 70000 84616 88460==
41978,2023,08,12,03,00,AAXX 12034 41978 01445 81205 10273 20250 30050 40057 70522 8432/ 333 20260 59012 70000 83618 88460 81930==
41978,2023,08,12,06,00,AAXX 12064 41978 01440 81710 10294 20260 30042 40049 70522 8432/ 333 59013 70000 83618 88460 81930==
41978,2023,08,12,09,00,AAXX 12094 41978 01424 81504 10272 20260 30022 40029 76162 8432/ 333 59015 70132 83709 88459 81928==
41978,2023,08,12,12,00,AAXX 12124 41978 01435 81605 10280 20260 30018 40025 70562 8432/ 333 10307 59016 70130 83616 88460 81930==
41978,2023,08,12,15,00,AAXX 12154 41978 01440 71505 10268 20250 30034 40041 70522 84320 333 59020 70136 83616 87460 81930==
41978,2023,08,12,18,00,AAXX 12184 41978 01440 71503 10266 20260 30040 40047 70522 333 59011 70136 83616 87460 81930==
41978,2023,08,12,21,00,AAXX 12214 41978 01440 81505 10260 20260 30024 40031 72162 8432/ 333 59013 70216 83614 88459 81928==
41978,2023,08,13,00,00,AAXX 13004 41978 21440 81505 10260 20260 30028 40035 70262 8432/ 333 59016 60088 70216 83614 88459 81928==
41978,2023,08,13,03,00,AAXX 13034 41978 01440 81307 10266 20260 30049 40055 70262 8432/ 333 20253 59001 70226 83614 88459 81928==
41978,2023,08,13,06,00,AAXX 13064 41978 11440 81604 10280 20270 30050 40057 60046 70262 8432/ 333 58008 70257 83709 88457 81928==
41978,2023,08,13,09,00,AAXX 13094 41978 01440 81807 10298 20260 30028 40034 70522 8432/ 333 58006 70125 83618 88460 81930==
41978,2023,08,13,12,00,AAXX 13124 41978 01440 82405 10283 20260 30027 40034 70522 8432/ 333 10301 58009 70121 83618 88460 81930==
41978,2023,08,13,15,00,AAXX 13154 41978 01450 80000 10277 20270 30048 40055 70522 8352/ 333 58014 70121 83616 88460==
41978,2023,08,13,18,00,AAXX 13184 41978 01450 80000 10274 20260 30050 40057 70262 8352/ 333 58010 70020 83614 88459==
41978,2023,08,13,21,00,AAXX 13214 41978 01340 80000 10264 20250 30040 40047 76162 8362/ 333 58016 70087 83709 88458==
41978,2023,08,14,00,00,AAXX 14004 41978 01450 81505 10263 20260 30039 40045 76162 8352/ 333 58011 70103 83614 88459==
41978,2023,08,14,03,00,AAXX 14034 41978 01450 71705 10290 20260 30054 40061 70262 84320 333 20260 58005 70103 83614 87460 81930==
41978,2023,08,14,06,00,AAXX 14064 41978 11450 71710 10298 20260 30053 40059 60016 70262 84320 333 58003 70072 83614 87460 81930==
41978,2023,08,14,09,00,AAXX 14094 41978 02456 52205 10312 20260 30031 40037 83520 333 58003 70072 83618 84460==
41978,2023,08,14,12,00,AAXX 14124 41978 02456 62107 10294 20260 30029 40036 83520 333 10317 58002 70072 83617 85460==
41978,2023,08,14,15,00,AAXX 14154 41978 02450 62105 10283 20270 30049 40055 83510 333 58001 70072 83618 85460==
41978,2023,08,14,18,00,AAXX 14184 41978 01450 82005 10281 20280 30053 40059 72122 8432/ 333 58003 70010 83618 88460 81930==
41978,2023,08,14,21,00,AAXX 14214 41978 02450 81608 10274 20260 30040 40046 8432/ 333 58000 70038 83618 88460 81930==
41978,2023,08,15,00,00,AAXX 15004 41978 01440 81207 10269 20260 30047 40054 72122 8432/ 333 58008 70010 83616 88460 81930==
41978,2023,08,15,03,00,AAXX 15034 41978 01422 80904 10266 20266 30064 40070 76162 8432/ 333 20267 58010 70333 83709 88458 81928==
41978,2023,08,15,06,00,AAXX 15064 41978 21440 71708 10291 20260 30053 40059 70262 84320 333 58000 60348 70353 83616 87460 81930==
41978,2023,08,15,09,00,AAXX 15094 41978 02450 61703 10315 20270 30030 40036 83520 333 59001 70363 83617 85460==
41978,2023,08,15,12,00,AAXX 15124 41978 01450 71805 10294 20270 30024 40030 70522 83520 333 10318 59005 70363 83617 87460==
41978,2023,08,15,15,00,AAXX 15154 41978 01450 61404 10284 20270 30050 40057 70522 83520 333 58001 70363 83617 86460==
41978,2023,08,15,18,00,AAXX 15184 41978 01450 51805 10281 20270 30052 40058 70522 83520 333 59001 70351 83617 85460==
41978,2023,08,15,21,00,AAXX 15214 41978 01450 61804 10273 20260 30041 40047 70522 83520 333 58001 70351 83617 86460==
41978,2023,08,16,00,00,AAXX 16004 41978 01450 70903 10270 20260 30034 40040 70522 83520 333 59013 70341 83617 87460==
41978,2023,08,16,03,00,AAXX 16034 41978 01450 61203 10300 20270 30049 40056 70522 83520 333 20264 59015 70040 83618 85460==
41978,2023,08,16,06,00,AAXX 16064 41978 01450 61908 10322 20280 30042 40048 70522 83520 333 59011 70000 83618 85460==
41978,2023,08,16,09,00,AAXX 16094 41978 01450 72206 10322 20270 30013 40019 70522 83570 333 59017 70000 83618 86460==
41978,2023,08,16,12,00,AAXX 16124 41978 01450 72104 10302 20290 30011 40017 70522 83570 333 10328 59013 70000 83618 86460==
41978,2023,08,16,15,00,AAXX 16154 41978 01450 61704 10291 20280 30040 40046 70522 83570 333 59012 70000 83618 85460==
41978,2023,08,16,18,00,AAXX 16184 41978 01445 61703 10283 20270 30036 40042 70522 83520 333 59016 70000 83617 85460==
41978,2023,08,16,21,00,AAXX 16214 41978 01445 81703 10270 20270 30031 40037 70562 8432/ 333 59010 70022 83615 88459 81929==
41978,2023,08,17,00,00,AAXX 17004 41978 01437 70000 10266 20266 30029 40035 70562 83520 333 59005 70150 83617 86459==
41978,2023,08,17,03,00,AAXX 17034 41978 02456 40603 10310 20260 30035 40041 82530 333 20262 59014 70150 82618 83362==
41978,2023,08,17,06,00,AAXX 17064 41978 02456 51908 10320 20270 30032 40038 82520 333 59010 70150 82618 84460==
41978,2023,08,17,09,00,AAXX 17094 41978 02456 62005 10318 20270 30002 40009 83430 333 59011 70150 83618 86360==
41978,2023,08,17,12,00,AAXX 17124 41978 01450 72305 10304 20290 30007 40013 72122 83370 333 10328 59004 70001 83616 87460 81930==
41978,2023,08,17,15,00,AAXX 17154 41978 02450 70000 10294 20280 30040 40047 84320 333 58002 70151 83616 87460 81930==
41978,2023,08,17,18,00,AAXX 17184 41978 02450 70000 10286 20280 30040 40047 84320 333 58004 70151 83616 87460 81930==
41978,2023,08,17,21,00,AAXX 17214 41978 02450 71205 10270 20260 30026 40033 82320 333 59005 70129 83616 87460 81930==
41980,2023,08,11,00,00,AAXX 11004 41980 32440 80000 10252 20240 39962 40074 8452/ 333 56999 58019 70080 84616 88458=
41980,2023,08,11,12,00,AAXX 11124 41980 11440 81802 10274 20250 39933 40044 60088 70262 8452/ 333 10305 56999 59016 70100 84614 88459=
41980,2023,08,12,00,00,AAXX 12004 41980 NIL=
41980,2023,08,12,06,00,AAXX 12064 41980 NIL=
41980,2023,08,12,12,00,AAXX 12124 41980 11340 80000 10257 20260 39926 40037 60033 72166 8662/ 333 10290 56999 58007 70030 82710 84616 88458=
41980,2023,08,12,18,00,AAXX 12184 41980 NIL=
41980,2023,08,13,00,00,AAXX 13004 41980 11440 80000 10264 20240 39958 40070 60025 70262 8452/ 333 56999 58005 70050 84616 88458=
41980,2023,08,13,06,00,AAXX 13064 41980 NIL=
41980,2023,08,13,12,00,AAXX 13124 41980 11340 80000 10262 20250 39927 40039 60144 72162 8662/ 333 10302 56999 58001 70170 83710 84616 88457=
41980,2023,08,14,00,00,AAXX 14004 41980 32450 50000 10252 20240 39942 40054 83520 333 56990 59016 70160 83616 85459=
41980,2023,08,14,06,00,AAXX 14064 41980 NIL=
41980,2023,08,14,18,00,AAXX 14184 41980 NIL=
41980,2023,08,15,00,00,AAXX 15004 41980 NIL=
41980,2023,08,15,06,00,AAXX 15064 41980 NIL=
41980,2023,08,15,12,00,AAXX 15124 41980 11450 72702 10290 20270 39923 40033 60026 70362 83520 333 10306 56990 59005 70300 83616 87459=
41980,2023,08,15,18,00,AAXX 15184 41980 NIL=
41980,2023,08,16,00,00,AAXX 16004 41980 32450 80000 10270 20250 39935 40046 8352/ 333 56999 59015 70000 83616 88458=
41980,2023,08,16,12,00,AAXX 16124 41980 11450 60000 10279 20260 39911 40023 60045 70262 83520 333 10322 56990 59010 70040 83616 86459=
41980,2023,08,17,00,00,AAXX 17004 41980 11450 61802 10264 20240 39924 40035 60086 70196 83520 333 56990 59011 70080 83616 86459=
41980,2023,08,17,06,00,AAXX 17064 41980 NIL=
41980,2023,08,17,12,00,AAXX 17124 41980 11450 60000 10288 20270 39907 40017 83520 333 56990 59006 70110 83616 86459=
41984,2023,08,11,00,00,AAXX 11004 41984 02456 80000 10266 20250 30035 40037 8352/ 333 58007 70210 83618 88458==
41984,2023,08,11,03,00,AAXX 11034 41984 01457 80000 10300 20290 30043 40045 70262 8352/ 333 20255 58001 70215 83618 88458==
41984,2023,08,11,06,00,AAXX 11064 41984 11457 80000 10300 20260 30038 40040 60016 70262 8352/ 333 58009 70080 83618 88458==
41984,2023,08,11,09,00,AAXX 11094 41984 01356 80000 10284 20270 30025 40027 76162 8672/ 333 59005 70105 82707 84616 88456==
41984,2023,08,11,12,00,AAXX 11124 41984 01456 80000 10290 20280 30017 40019 70262 8352/ 333 10307 59016 70041 83618 88458==
41984,2023,08,11,15,00,AAXX 11154 41984 02440 80000 10280 20279 30033 40035 8352/ 333 59017 70041 83618 88458==
41984,2023,08,11,18,00,AAXX 11184 41984 02440 80000 10280 20280 30033 40035 8352/ 333 59021 70041 83618 88458==
41984,2023,08,11,21,00,AAXX 11214 41984 02440 80000 10284 20280 30023 40025 8352/ 333 59021 70041 83618 88458==
41984,2023,08,12,00,00,AAXX 12004 41984 02456 80000 10290 20280 30018 40020 8352/ 333 59017 70041 83618 88458==
41984,2023,08,12,03,00,AAXX 12034 41984 01356 80000 10267 20260 30032 40034 79596 8692/ 333 20260 59011 70116 83707 84615 88456 81925==
41984,2023,08,12,06,00,AAXX 12064 41984 21356 80000 10265 20265 30030 40032 76196 8672/ 333 59008 60239 70166 83707 84615 88456==
41984,2023,08,12,09,00,AAXX 12094 41984 01356 80000 10263 20263 30013 40015 79596 8692/ 333 59012 70476 83707 84615 88456 81925==
41984,2023,08,12,12,00,AAXX 12124 41984 21356 80000 10282 20280 30001 40003 72196 8662/ 333 10290 59016 60369 70490 83708 84615 88456==
41984,2023,08,12,15,00,AAXX 12154 41984 02440 80000 10276 20276 30020 40022 8352/ 333 59013 70490 83618 88458==
41984,2023,08,12,18,00,AAXX 12184 41984 02440 80000 10278 20278 30022 40024 8352/ 333 59011 70490 83618 88458==
41984,2023,08,12,21,00,AAXX 12214 41984 02440 80000 10270 20270 30019 40021 8352/ 333 59004 70490 83618 88458==
41984,2023,08,13,00,00,AAXX 13004 41984 21356 80000 10256 20256 30017 40019 76162 8672/ 333 59001 60107 70590 82707 84616 88456==
41984,2023,08,13,03,00,AAXX 13034 41984 01356 80000 10260 20260 30036 40038 76366 8672/ 333 20251 58004 70890 82707 84616 88456==
41984,2023,08,13,06,00,AAXX 13064 41984 01356 80000 10287 20280 30038 40040 72162 8562/ 333 58008 70868 82709 84616 88457==
41984,2023,08,13,09,00,AAXX 13094 41984 02457 80000 10300 20270 30017 40019 8352/ 333 58004 70528 83618 88458==
41984,2023,08,13,12,00,AAXX 13124 41984 02457 80000 10285 20280 30019 40021 8352/ 333 10305 58018 70508 83618 88458==
41984,2023,08,13,15,00,AAXX 13154 41984 02440 80000 10274 20260 30032 40034 8352/ 333 58012 70508 83618 88458==
41984,2023,08,13,18,00,AAXX 13184 41984 02440 80000 10270 20270 30039 40041 8352/ 333 58017 70508 83618 88458==
41984,2023,08,13,21,00,AAXX 13214 41984 02440 80000 10262 20260 30036 40038 8352/ 333 58017 70508 83618 88458==
41984,2023,08,14,00,00,AAXX 14004 41984 02456 80000 10256 20250 30030 40032 8352/ 333 58013 70408 83618 88458==
41984,2023,08,14,03,00,AAXX 14034 41984 02456 80000 10288 20260 30046 40048 8352/ 333 20254 58010 70028 83618 88458==
41984,2023,08,14,06,00,AAXX 14064 41984 02457 80000 10310 20260 30048 40050 8352/ 333 58010 70000 83618 88458==
41984,2023,08,14,09,00,AAXX 14094 41984 02457 80000 10320 20270 30023 40025 8352/ 333 58006 70000 83618 88458==
41984,2023,08,14,15,00,AAXX 14154 41984 02440 80000 10280 20260 30037 40039 8352/ 333 58005 70000 83618 88458==
41984,2023,08,14,18,00,AAXX 14184 41984 02440 80000 10275 20270 30044 40046 8352/ 333 58005 70000 83617 88458==
41984,2023,08,15,00,00,AAXX 15004 41984 02456 80000 10279 20270 30030 40032 8352/ 333 58000 70000 83618 88458==
41984,2023,08,15,03,00,AAXX 15034 41984 02457 80000 10290 20260 30041 40043 8352/ 333 20274 59005 70000 83618 88458==
41984,2023,08,15,06,00,AAXX 15064 41984 01457 80000 10307 20290 30036 40038 70262 8352/ 333 59012 70010 83618 88458==
41984,2023,08,15,09,00,AAXX 15094 41984 02457 80000 10318 20280 30021 40023 8352/ 333 59002 70005 83618 88458==
41984,2023,08,15,12,00,AAXX 15124 41984 02457 80000 10310 20280 30013 40015 8352/ 333 10322 59005 70005 83618 88458==
41984,2023,08,15,15,00,AAXX 15154 41984 02440 80000 10290 20280 30034 40036 8352/ 333 59003 70005 83618 88458==
41984,2023,08,15,18,00,AAXX 15184 41984 02440 80000 10286 20280 30040 40042 8352/ 333 59004 70005 83618 88458==
41984,2023,08,15,21,00,AAXX 15214 41984 01440 80000 10280 20280 30036 40038 70522 8352/ 333 59004 70005 83618 88458==
41984,2023,08,16,00,00,AAXX 16004 41984 01456 80000 10277 20277 30021 40023 70522 8352/ 333 59009 70005 83618 88458==
41984,2023,08,16,03,00,AAXX 16034 41984 02457 70000 10324 20270 30037 40039 83570 333 20275 59004 70005 83618 86458==
41984,2023,08,16,06,00,AAXX 16064 41984 02457 80000 10327 20290 30034 40036 8352/ 333 59002 70000 83618 88458==
41984,2023,08,16,09,00,AAXX 16094 41984 01457 82303 10336 20290 30002 40004 71722 8492/ 333 59019 70000 83618 88458 81926==
41984,2023,08,16,12,00,AAXX 16124 41984 01457 80000 10310 20280 30002 40004 70292 8352/ 333 10352 59011 70000 83618 88458==
41984,2023,08,16,15,00,AAXX 16154 41984 02440 60000 10290 20280 30022 40024 83510 333 59012 70000 83618 85458==
41984,2023,08,16,18,00,AAXX 16184 41984 02440 60000 10288 20280 30026 40028 82510 333 59014 70000 82618 85458==
41984,2023,08,16,21,00,AAXX 16214 41984 01440 60000 10283 20280 30019 40021 70522 82510 333 59017 70000 82618 85458==
41984,2023,08,17,00,00,AAXX 17004 41984 01456 80000 10285 20280 30010 40012 70522 8252/ 333 59011 70000 82618 88458==
41984,2023,08,17,03,00,AAXX 17034 41984 01457 70000 10320 20270 30018 40020 70162 82570 333 20280 59019 70005 82618 85458==
41984,2023,08,17,06,00,AAXX 17064 41984 21457 50000 10324 20270 30022 40024 70162 83510 333 59012 60017 70005 83618 85458==
41984,2023,08,17,09,00,AAXX 17094 41984 02457 40000 10324 20270 39998 40000 84430 333 59004 70005 81618 83825==
41984,2023,08,17,12,00,AAXX 17124 41984 02457 30000 10305 20270 39995 49997 83500 333 10330 59007 70005 83618==
41984,2023,08,17,15,00,AAXX 17154 41984 02440 31803 10290 20260 30016 40018 83530 333 59006 70005 83618==
41984,2023,08,17,18,00,AAXX 17184 41984 02340 80000 10288 20270 30014 40016 8662/ 333 59012 70002 82708 84615 88457==
41984,2023,08,17,21,00,AAXX 17214 41984 02440 81804 10285 20280 30008 40010 8352/ 333 59011 70007 83618 88458==
41989,2023,08,11,00,00,AAXX 11004 41989 02450 51302 10277 20250 30052 40055 83530 333 58009 70000 83618 84362==
41989,2023,08,11,03,00,AAXX 11034 41989 02450 61302 10294 20260 30069 40072 82570 333 20250 58013 70000 83618 84460==
41989,2023,08,11,06,00,AAXX 11064 41989 02450 61803 10288 20260 30065 40068 83530 333 58006 70000 83618 83462==
41989,2023,08,11,09,00,AAXX 11094 41989 02450 51305 10307 20250 30043 40046 83570 333 58000 70000 83618 83460==
41989,2023,08,11,12,00,AAXX 11124 41989 02450 61404 10295 20260 30032 40035 83570 333 10315 59007 70000 83618 84460==
41989,2023,08,11,15,00,AAXX 11154 41989 02430 51402 10280 20240 30050 40053 83530 333 59013 70000 83618 83362==
41989,2023,08,11,18,00,AAXX 11184 41989 02440 51802 10275 20250 30057 40060 83530 333 59016 70000 83618 83362==
41989,2023,08,11,21,00,AAXX 11214 41989 02430 51402 10273 20240 30049 40052 83530 333 59016 70000 83618 84362==
41989,2023,08,12,00,00,AAXX 12004 41989 01430 61803 10271 20240 30047 40050 72162 83570 333 59005 70270 83618 84460==
41989,2023,08,12,03,00,AAXX 12034 41989 02450 51403 10290 20240 30061 40064 83530 333 20248 59014 70270 83618 83362==
41989,2023,08,12,06,00,AAXX 12064 41989 21450 51304 10285 20270 30051 40054 70262 82570 333 59013 60025 70290 82618 83362==
41989,2023,08,12,09,00,AAXX 12094 41989 02340 81403 10270 20260 30034 40037 83420 333 59009 70350 82708 83614 88456==
41989,2023,08,12,12,00,AAXX 12124 41989 21450 51703 10275 20260 30033 40036 70162 83570 333 10298 58001 60078 70360 82618 83458==
41989,2023,08,12,15,00,AAXX 12154 41989 02450 61304 10263 20240 30035 40038 83570 333 59015 70360 83618 83360==
41989,2023,08,12,18,00,AAXX 12184 41989 NIL=
41989,2023,08,13,00,00,AAXX 13004 41989 01330 81303 10257 20250 30031 40035 76122 8572/ 333 59016 70060 82710 83614 88456==
41989,2023,08,13,03,00,AAXX 13034 41989 01440 71302 10272 20260 30048 40051 70162 83570 333 20240 59016 70190 83618 84460==
41989,2023,08,13,06,00,AAXX 13064 41989 11450 51703 10290 20270 30061 40064 60041 70162 83530 333 58010 70170 83618 84362==
41989,2023,08,13,09,00,AAXX 13094 41989 02450 51405 10307 20270 30031 40034 82570 333 59003 70110 82618 83362==
41989,2023,08,13,12,00,AAXX 13124 41989 22440 61402 10282 20260 30023 40026 83570 333 10312 59010 60005 70100 83618==
41989,2023,08,13,15,00,AAXX 13154 41989 02440 51803 10280 20260 30044 40047 83570 333 58009 70100 83618 83460==
41989,2023,08,13,18,00,AAXX 13184 41989 02430 41403 10270 20250 30051 40054 82530 333 58013 70100 82618 83362==
41989,2023,08,13,21,00,AAXX 13214 41989 02430 51403 10275 20260 30056 40060 83530 333 58013 70100 83618 84362==
41989,2023,08,14,00,00,AAXX 14004 41989 02450 51403 10260 20240 30037 40040 83530 333 58006 70040 83618 83362==
41989,2023,08,14,03,00,AAXX 14034 41989 42450 51402 10288 20240 30052 40055 83530 333 20242 58001 83618 83362==
41989,2023,08,14,06,00,AAXX 14064 41989 42450 41302 10302 20270 30051 40054 82570 333 59009 82618 83362==
41989,2023,08,14,09,00,AAXX 14094 41989 42450 41402 10310 20260 30044 40047 82530 333 58013 82618 83362==
41989,2023,08,14,18,00,AAXX 14184 41989 NIL=
41989,2023,08,15,00,00,AAXX 15004 41989 NIL=
41989,2023,08,15,03,00,AAXX 15034 41989 01440 71803 10267 20260 30065 40068 70162 83570 333 20238 58014 70560 83618 85460==
41989,2023,08,15,06,00,AAXX 15064 41989 NIL=
41989,2023,08,15,09,00,AAXX 15094 41989 02456 21303 10320 20250 30033 40036 82500 333 59011 70590 82618==
41989,2023,08,15,12,00,AAXX 15124 41989 02450 41302 10301 20260 30023 40026 83530 333 10322 59010 70580 83618 84362==
41989,2023,08,15,15,00,AAXX 15154 41989 02450 51403 10280 20260 30044 40048 83530 333 58001 70570 83618 83362==
41989,2023,08,15,18,00,AAXX 15184 41989 02440 51803 10275 20260 30054 40058 83530 333 58000 70570 83618 83362==
41989,2023,08,15,21,00,AAXX 15214 41989 02430 41803 10270 20250 30046 40049 84500 333 59003 70570 84618==
41989,2023,08,16,00,00,AAXX 16004 41989 02450 51403 10265 20250 30042 40045 83530 333 59005 70090 83618 83362==
41989,2023,08,16,03,00,AAXX 16034 41989 02450 51803 10285 20250 30062 40065 83530 333 20240 59003 70030 83618 83362==
41989,2023,08,16,06,00,AAXX 16064 41989 02450 61803 10312 20270 30045 40049 83570 333 59013 70000 83618 84460==
41989,2023,08,16,12,00,AAXX 16124 41989 02450 41403 10320 20260 30022 40025 82530 333 10326 59001 70000 82618 83362==
41989,2023,08,16,15,00,AAXX 16154 41989 02450 51302 10280 20270 30032 40035 82570 333 59012 70000 82618 83362==
41989,2023,08,16,18,00,AAXX 16184 41989 02450 51802 10323 20260 30044 40047 83530 333 59010 70000 83618 84362==
41989,2023,08,16,21,00,AAXX 16214 41989 02450 31302 10276 20260 30035 40038 82532 333 59011 70000 82618 83362==
41989,2023,08,17,00,00,AAXX 17004 41989 02450 31403 10270 20250 30031 40034 83500 333 58008 70000 83618==
41989,2023,08,17,03,00,AAXX 17034 41989 02450 31302 10304 20260 30043 40046 82530 333 20252 59014 70000 82618 83362==
41989,2023,08,17,06,00,AAXX 17064 41989 02450 51403 10310 20260 30040 40043 83530 333 59005 70000 83618 83362==
41989,2023,08,17,09,00,AAXX 17094 41989 41450 31302 10313 20270 30006 40009 72121 82570 333 59033 82618 82362==
41989,2023,08,17,12,00,AAXX 17124 41989 21450 41402 10260 39994 49997 70162 82530 333 10327 59028 60005 82618 84362==
41989,2023,08,17,15,00,AAXX 17154 41989 42440 41803 10275 20260 30044 40048 82530 333 58012 82618 83362==
41989,2023,08,17,21,00,AAXX 17214 41989 42430 31404 10268 20250 30041 40044 83500 333 58006 83618==
41992,2023,08,11,00,00,AAXX 11004 41992 11425 80000 10265 20250 30058 40060 60001 70552 8432/ 333 59003 83616 88460 81925==
41992,2023,08,11,03,00,AAXX 11034 41992 41430 61803 10287 20260 30070 40072 70522 83530 333 20260 59008 83616 86362==
41992,2023,08,11,06,00,AAXX 11064 41992 41430 61505 10312 20240 30060 40062 70522 84530 333 59012 84616 86362==
41992,2023,08,11,09,00,AAXX 11094 41992 41430 61505 10302 20250 30045 40047 70522 82530 333 59009 82616 86362==
41992,2023,08,11,12,00,AAXX 11124 41992 41425 80000 10280 20260 30040 40042 70522 8432/ 333 10320 59017 83616 88460 81925==
41992,2023,08,11,15,00,AAXX 11154 41992 01320 80000 10267 20260 30051 40053 76166 8432/ 333 59027 70020 82708 84614 88458 81925==
41992,2023,08,11,18,00,AAXX 11184 41992 21320 80000 10254 20250 30060 40062 76166 8592/ 333 59012 60059 70050 83707 85613 88458 81925==
41992,2023,08,11,21,00,AAXX 11214 41992 01320 80000 10254 20250 30046 40048 76166 8592/ 333 59020 70080 83707 85613 88458 81925==
41992,2023,08,12,00,00,AAXX 12004 41992 21320 80000 10254 20250 30049 40051 76366 8592/ 333 59009 60189 70230 83707 85613 88458 81925==
41992,2023,08,12,03,00,AAXX 12034 41992 01420 80000 10266 20250 30058 40060 76166 8592/ 333 20230 59012 70310 84614 88458 81925==
41992,2023,08,12,06,00,AAXX 12064 41992 21320 81504 10287 20270 30052 40054 75165 8432/ 333 59008 60119 70340 82708 84614 88458 81925==
41992,2023,08,12,09,00,AAXX 12094 41992 01320 81502 10264 20250 30030 40032 75155 8432/ 333 59015 70350 82708 84614 88458 81925==
41992,2023,08,12,12,00,AAXX 12124 41992 21320 81504 10262 20250 30031 40033 75155 8432/ 333 10300 59009 60029 70360 82708 84614 88458 81925==
41992,2023,08,12,15,00,AAXX 12154 41992 01420 81503 10255 20250 30049 40051 76055 8492/ 333 59002 70350 83614 88458 81925==
41992,2023,08,12,18,00,AAXX 12184 41992 21420 80000 10255 20250 30046 40048 76165 8592/ 333 59014 60019 70320 84614 88458 81925==
41992,2023,08,12,21,00,AAXX 12214 41992 01420 80000 10255 20250 30040 40042 76166 8592/ 333 59006 70330 84614 88458 81925==
41992,2023,08,13,00,00,AAXX 13004 41992 01420 80000 10255 20250 30040 40042 76166 8592/ 333 59006 70330 84614 88458 81925==
41992,2023,08,13,03,00,AAXX 13034 41992 01420 80000 10258 20250 30058 40060 76166 8432/ 333 20250 58000 70390 84614 88458 81925==
41992,2023,08,13,06,00,AAXX 13064 41992 21420 81805 10292 20260 30056 40058 75165 8432/ 333 58004 60029 70370 84614 88458 81925==
41992,2023,08,13,09,00,AAXX 13094 41992 01425 80000 10290 20270 30033 40035 70555 83520 333 58003 70350 83616 87460==
41992,2023,08,13,12,00,AAXX 13124 41992 11425 80000 10275 20260 30038 40040 60006 70552 8432/ 333 10318 58007 70320 83616 88460 81925==
41992,2023,08,13,15,00,AAXX 13154 41992 01425 60000 10273 20250 30060 40062 70522 83530 333 58011 70340 83616 86362==
41992,2023,08,13,18,00,AAXX 13184 41992 01425 60000 10270 20260 30058 40060 70522 84530 333 58012 70340 84616 86362==
41992,2023,08,13,21,00,AAXX 13214 41992 01420 80000 10267 20260 30048 40050 75155 8432/ 333 58008 70310 84614 88458 81925==
41992,2023,08,14,00,00,AAXX 14004 41992 21420 80000 10262 20250 30048 40050 75155 8432/ 333 58011 60029 70040 84614 88458 81925==
41992,2023,08,14,03,00,AAXX 14034 41992 01420 80000 10270 20260 30067 40069 76122 8432/ 333 20250 58011 70040 83614 88458 81925==
41992,2023,08,14,06,00,AAXX 14064 41992 21450 61802 10291 20260 30070 40072 70565 83530 333 59014 60019 70050 83616 86362==
41992,2023,08,14,09,00,AAXX 14094 41992 01430 41806 10307 20270 30039 40041 70521 82530 333 58006 70030 82616 84362==
41992,2023,08,14,12,00,AAXX 14124 41992 01425 72103 10282 20260 30036 40038 70521 84530 333 10310 59002 70030 84616 87360==
41992,2023,08,14,15,00,AAXX 14154 41992 01425 80000 10275 20270 30060 40062 70522 8452/ 333 58000 70030 84616 88460==
41992,2023,08,14,18,00,AAXX 14184 41992 01425 80000 10275 20270 30061 40063 71022 8432/ 333 58003 70030 83616 88460 81925==
41992,2023,08,14,21,00,AAXX 14214 41992 01420 80000 10270 20260 30056 40058 76166 8492/ 333 58008 70030 83614 88458 81925==
41992,2023,08,15,00,00,AAXX 15004 41992 21320 80000 10260 20260 30051 40053 76166 8692/ 333 58003 60259 70260 83707 85612 88458 81925==
41992,2023,08,15,03,00,AAXX 15034 41992 01320 80000 10257 20257 30075 40077 76566 8592/ 333 20255 58008 70790 83707 85613 88458 81925==
41992,2023,08,15,06,00,AAXX 15064 41992 21425 80000 10291 20260 30061 40063 76166 8592/ 333 59009 60049 70830 84614 88458 81925==
41992,2023,08,15,09,00,AAXX 15094 41992 01430 30000 10310 20260 30036 40038 70522 83500 333 59003 70830 83616==
41992,2023,08,15,12,00,AAXX 15124 41992 01430 80000 10290 20260 30035 40037 70522 8432/ 333 10325 59001 70830 83616 88460 81925==
41992,2023,08,15,15,00,AAXX 15154 41992 01425 60000 10278 20260 30060 40062 70522 83530 333 58000 70830 83616 86362==
41992,2023,08,15,18,00,AAXX 15184 41992 01425 70000 10276 20260 30060 40062 70522 84530 333 59001 70830 84616 87362==
41992,2023,08,15,21,00,AAXX 15214 41992 01425 60000 10273 20260 30050 40052 70522 83530 333 59006 70820 83616 86362==
41992,2023,08,16,00,00,AAXX 16004 41992 01425 60000 10270 20260 30042 40044 70522 84530 333 59009 70580 84616 86362==
41992,2023,08,16,03,00,AAXX 16034 41992 01430 80000 10300 20270 30056 40058 70522 8352/ 333 59019 70040 83616 88460==
41992,2023,08,16,06,00,AAXX 16064 41992 01425 60000 10302 20260 30050 40052 70522 84530 333 59011 70000 84616 84362==
41992,2023,08,16,09,00,AAXX 16094 41992 01430 40000 10308 20270 30030 40032 70521 82530 333 59006 70000 82616 84362==
41992,2023,08,16,12,00,AAXX 16124 41992 01425 61806 10287 20270 30018 40020 70521 83530 333 10312 59017 70000 83616 86362==
41992,2023,08,16,15,00,AAXX 16154 41992 01425 40000 10280 20260 30052 40054 70522 82530 333 59008 70000 82616 84362==
41992,2023,08,16,18,00,AAXX 16184 41992 01425 60000 10275 20260 30043 40045 70522 84320 333 59017 70000 83616 86460 81925==
41992,2023,08,16,21,00,AAXX 16214 41992 01425 80000 10270 20250 30038 40040 70522 8432/ 333 59012 70000 83616 88460 81925==
41992,2023,08,17,00,00,AAXX 17004 41992 01425 80000 10270 20260 30027 40029 71022 8432/ 333 59015 70000 83616 88460 81925==
41992,2023,08,17,03,00,AAXX 17034 41992 01/30 20000 10310 20250 30040 40042 70522 82030 333 20270 59016 70000 82362==
41992,2023,08,17,06,00,AAXX 17064 41992 01430 60000 10318 20260 30041 40043 70521 84530 333 59015 70000 84616 86362==
41992,2023,08,17,09,00,AAXX 17094 41992 01430 31505 10320 20270 30007 40009 70521 83500 333 59023 70000 83616==
41992,2023,08,17,12,00,AAXX 17124 41992 01430 60000 10300 20260 30013 40015 70522 84530 333 10325 59004 70000 84616 86362==
41992,2023,08,17,15,00,AAXX 17154 41992 01430 41506 10280 20240 30038 40040 70522 82530 333 59014 70000 82616 84362==
41992,2023,08,17,18,00,AAXX 17184 41992 01/25 21502 10274 20230 30041 40043 70521 82030 333 59002 70000 82362==
41992,2023,08,17,21,00,AAXX 17214 41992 01425 40000 10271 20230 30036 40038 70511 82530 333 59002 70000 82616 84362==
41998,2023,08,11,00,00,AAXX 11004 41998 NIL=
41998,2023,08,11,03,00,AAXX 11034 41998 02456 80000 10280 20260 30061 40067 8442/ 333 20256 58006 70050 83618 88458==
41998,2023,08,11,12,00,AAXX 11124 41998 02456 80000 10276 20250 30041 40047 8442/ 333 10304 59014 70000 83618 88458==
41998,2023,08,12,00,00,AAXX 12004 41998 NIL=
41998,2023,08,12,03,00,AAXX 12034 41998 02456 80000 10280 20260 30046 40052 8442/ 333 20257 59015 70000 83618 88458==
41998,2023,08,12,06,00,AAXX 12064 41998 NIL=
41998,2023,08,12,12,00,AAXX 12124 41998 02456 80000 10277 20260 30051 40057 8442/ 333 58010 70000 83618 88458==
41998,2023,08,12,18,00,AAXX 12184 41998 NIL=
41998,2023,08,13,03,00,AAXX 13034 41998 02456 80000 10288 20260 30048 40054 8442/ 333 20258 58002 70170 83618 88458==
41998,2023,08,13,06,00,AAXX 13064 41998 NIL=
41998,2023,08,13,12,00,AAXX 13124 41998 02456 80000 10287 20250 30025 40031 83470 333 10314 58026 70170 83618 84458==
41998,2023,08,14,00,00,AAXX 14004 41998 NIL=
41998,2023,08,14,03,00,AAXX 14034 41998 02456 80000 10302 20260 30049 40055 8442/ 333 20262 58001 70000 82618 88458==
41998,2023,08,14,06,00,AAXX 14064 41998 NIL=
41998,2023,08,14,18,00,AAXX 14184 41998 NIL=
41998,2023,08,15,00,00,AAXX 15004 41998 NIL=
41998,2023,08,15,03,00,AAXX 15034 41998 02456 70000 10300 20260 30054 40060 83470 333 20265 58005 70220 82618 83458==
41998,2023,08,15,06,00,AAXX 15064 41998 02456 70000 10312 20260 30042 40048 83470 333 58002 70140 82618 83458==
41998,2023,08,15,12,00,AAXX 15124 41998 02456 70000 10286 20260 30040 40046 83470 333 10317 58003 70000 83618 86458==
41998,2023,08,15,18,00,AAXX 15184 41998 NIL=
41998,2023,08,16,00,00,AAXX 16004 41998 02456 80000 10267 20260 30037 40043 8442/ 333 59010 70000 83618 88458==
41998,2023,08,16,03,00,AAXX 16034 41998 01456 80000 10280 20260 30045 40051 76166 8442/ 333 20259 59010 70020 83616 88456==
41998,2023,08,16,12,00,AAXX 16124 41998 02456 80000 10281 20260 30027 40033 8442/ 333 10312 59013 70030 83518 88458==
41998,2023,08,17,00,00,AAXX 17004 41998 02456 80000 10265 20260 30035 40041 8342/ 333 59002 70030 82618 88458==
41998,2023,08,17,03,00,AAXX 17034 41998 02456 80000 10298 20260 30044 40050 8442/ 333 20262 59001 70010 83618 88458==
41998,2023,08,17,06,00,AAXX 17064 41998 02456 60000 10312 20270 30020 40026 83470 333 59009 70000 82618 83458==
41998,2023,08,17,12,00,AAXX 17124 41998 02456 60000 10288 20250 30016 40022 83470 333 10317 59011 70000 82618 84458==
