ESTACION,ANO,MES,DIA,HORA,MINUTO,PARTE
41850,2023,09,22,00,00,AAXX 22004 41850 11340 80604 10241 20240 39979 40078 60163 72162 8562/ 333 56299 59002 70342 82708 84616 88458=
41850,2023,09,22,06,00,AAXX 22064 41850 11450 70805 10263 20230 39993 40092 60178 70562 84520 333 56290 58003 70440 84617 87458=
41850,2023,09,22,12,00,AAXX 22124 41850 31450 82304 10257 20240 39973 40071 70522 8452/ 333 10282 56999 58007 70330 84617 88458=
41850,2023,09,23,00,00,AAXX 23004 41850 11330 80000 10240 20240 39981 40080 60209 76166 8572/ 333 56299 58002 70470 83707 84614 88458=
41850,2023,09,23,06,00,AAXX 23064 41850 11450 80905 10265 20250 39991 40089 60318 70596 8452/ 333 56999 59002 70610 84616 88458=
41850,2023,09,23,12,00,AAXX 23124 41850 31440 80502 10252 20240 39973 40071 60024 70562 8452/ 333 10270 56999 58000 70630 84616 88458=
41850,2023,09,23,18,00,AAXX 23184 41850 11330 81804 10241 20240 39995 40088 60149 76166 8572/ 333 56999 59004 70670 83707 84614 88458=
41850,2023,09,24,00,00,AAXX 24004 41850 11330 81303 10235 20230 39963 40062 60549 76166 8572/ 333 56999 59018 71010 83707 84614 88458=
41850,2023,09,24,06,00,AAXX 24064 41850 11330 81303 10230 20230 39985 40085 60679 76166 8572/ 333 56999 59006 71370 83707 84614 88458=
41850,2023,09,24,12,00,AAXX 24124 41850 11450 70000 10240 20230 39958 40057 60168 70562 83520 333 10247 56990 59015 71510 84617 87458=
41850,2023,09,24,18,00,AAXX 24184 41850 NIL=
41850,2023,09,25,00,00,AAXX 25004 41850 31950 60000 10235 20230 39974 40073 70522 86030 333 56090 59011 70830 86362=
41850,2023,09,25,06,00,AAXX 25064 41850 11450 80904 10259 20230 39987 40086 60026 70562 8452/ 333 56999 58002 70180 84616 88458=
41850,2023,09,25,12,00,AAXX 25124 41850 31450 20000 10277 20250 39953 40050 70522 82500 333 10295 56900 58005 70020 82618=
41850,2023,09,25,18,00,AAXX 25184 41850 NIL=
41850,2023,09,26,00,00,AAXX 26004 41850 31950 60000 10237 20237 39963 40062 70520 86030 333 56090 59011 70020 86362=
41850,2023,09,26,06,00,AAXX 26064 41850 NIL=
41850,2023,09,26,12,00,AAXX 26124 41850 31450 20000 10305 20280 39946 40042 70521 82500 333 10332 56900 59007 70000 82618=
41850,2023,09,26,18,00,AAXX 26184 41850 31440 50000 10272 20260 39974 40072 70521 82510 333 56990 59006 70000 82618 85458=
41850,2023,09,27,00,00,AAXX 27004 41850 31950 30000 10251 20240 39973 40071 70521 83030 333 56090 58010 70000 83362=
41850,2023,09,27,06,00,AAXX 27064 41850 32457 50000 10315 20250 39970 40066 82510 333 56990 58002 70000 82618 85458=
41850,2023,09,27,12,00,AAXX 27124 41850 31450 50000 10307 20270 39936 40032 70522 82510 333 10347 56990 59010 70000 82618 85458=
41850,2023,09,27,18,00,AAXX 27184 41850 31440 20000 10277 20260 39963 40060 70521 82500 333 56900 59011 70000 82618=
41850,2023,09,28,00,00,AAXX 28004 41850 31950 00000 10259 20250 39966 40064 70510 333 59007 70000=
41850,2023,09,28,06,00,AAXX 28064 41850 32457 21302 10340 20240 39965 40060 82500 333 56900 59005 70000 82618=
41850,2023,09,28,12,00,AAXX 28124 41850 31450 20000 10312 20260 39929 40025 70521 82500 333 10354 56900 59007 70000 82618=
41850,2023,09,28,18,00,AAXX 28184 41850 NIL=
41851,2023,09,22,00,00,AAXX 22004 41851 11340 80903 10245 20240 30012 40075 60029 76166 8472/ 333 56299 59001 70670 81708 83617 88456=
41851,2023,09,22,06,00,AAXX 22064 41851 11335 80903 10247 20247 30033 40096 60563 76562 8572/ 333 56299 58004 70983 82707 84616 88456=
41851,2023,09,22,12,00,AAXX 22124 41851 11340 80901 10245 20240 30008 40071 60749 76166 8472/ 333 10261 56299 58008 71492 81708 83616 88456=
41851,2023,09,22,18,00,AAXX 22184 41851 11335 80901 10246 20246 30027 40090 60099 76366 8572/ 333 56299 58004 71402 82707 84616 88456=
41851,2023,09,23,00,00,AAXX 23004 41851 11335 80000 10244 20240 30013 40076 60239 76366 8572/ 333 56299 58001 71612 82707 84616 88456=
41851,2023,09,23,03,00,AAXX 23034 41851 32096 02701 10262 20245 40079 333 20213 59002 555 10518=
41851,2023,09,23,06,00,AAXX 23064 41851 11350 80902 10267 20260 30026 40089 60293 71796 8432/ 333 56299 59007 71346 81709 83617 81930 88457=
41851,2023,09,23,12,00,AAXX 23124 41851 11340 80903 10250 20240 30009 40072 60779 79596 8592/ 333 10280 56299 58001 71378 82714 83614 81930 88457=
41851,2023,09,23,18,00,AAXX 23184 41851 11350 80902 10252 20250 30016 40079 60098 70296 8462/ 333 56999 59011 71384 81709 84616 88458=
41851,2023,09,24,00,00,AAXX 24004 41851 11340 80903 10248 20248 39996 40059 60279 79596 8592/ 333 56999 59017 71429 82708 83614 81930 88457=
41851,2023,09,24,06,00,AAXX 24064 41851 11340 80904 10240 20240 30017 40080 60919 79596 8592/ 333 56999 59009 72047 82708 83614 88457=
41851,2023,09,24,12,00,AAXX 24124 41851 11350 80901 10240 20220 39989 40052 60088 70296 8562/ 333 10240 56999 59020 71349 81709 84616 88458=
41851,2023,09,24,18,00,AAXX 24184 41851 32450 80901 10236 20230 30007 40070 8352/ 333 56999 59009 71256 83618 88458=
41851,2023,09,25,00,00,AAXX 25004 41851 32450 80000 10242 20230 30006 40069 8352/ 333 56999 58010 70986 83618 88458=
41851,2023,09,25,06,00,AAXX 25064 41851 11450 80903 10272 20250 30022 40085 60035 70262 8352/ 333 56999 58005 70108 83618 88458=
41851,2023,09,25,12,00,AAXX 25124 41851 32450 20000 10285 20260 39986 40048 82500 333 10300 56900 59003 70000 82618=
41851,2023,09,25,18,00,AAXX 25184 41851 31440 30000 10256 20256 30014 40077 70511 83500 333 56900 58007 70000 83618=
41851,2023,09,26,00,00,AAXX 26004 41851 31340 80000 10252 20240 30008 40071 70522 8562/ 333 56999 58002 70032 81709 84616 88458=
41851,2023,09,26,06,00,AAXX 26064 41851 11450 50902 10302 20260 30014 40076 60015 70162 83510 333 56990 59008 70010 83618 84459=
41851,2023,09,26,12,00,AAXX 26124 41851 32450 20000 10308 20270 39981 40043 82500 333 10330 56900 59005 70010 82618=
41851,2023,09,26,18,00,AAXX 26184 41851 31940 00000 10272 20260 30017 40080 70510 333 58003 70010=
41851,2023,09,27,00,00,AAXX 27004 41851 31420 10000 10260 20250 30008 40071 70511 81500 333 56900 58000 70010 81618=
41851,2023,09,27,06,00,AAXX 27064 41851 32450 30903 10315 20260 30009 40070 83500 333 56900 59005 70000 83618=
41851,2023,09,27,12,00,AAXX 27124 41851 32450 50000 10310 20270 39971 40032 83410 333 10345 56990 59010 70000 82618 85459=
41851,2023,09,27,18,00,AAXX 27184 41851 31935 00000 10278 20278 39994 40056 70520 333 59023 70000=
41851,2023,09,28,00,00,AAXX 28004 41851 31930 10000 10265 20265 39999 40062 70500 81030 333 56090 59009 70000 81362=
41851,2023,09,28,06,00,AAXX 28064 41851 32450 40000 10335 20270 30002 40063 82530 333 56990 59007 70000 82618 83362=
41851,2023,09,28,12,00,AAXX 28124 41851 32950 20000 10319 20280 39961 40022 82030 333 10355 56090 59010 70000 82362=
41851,2023,09,28,18,00,AAXX 28184 41851 32950 00000 10280 20270 39989 40051 333 59005 70000=
41856,2023,09,22,00,00,AAXX 22004 41856 11440 80000 10245 20243 30045 40081 60034 70262 8452/ 333 56999 58006 70377 83618 88458=
41856,2023,09,22,06,00,AAXX 22064 41856 11440 81502 10277 20260 30055 40090 60026 70262 8442/ 333 56299 58000 70211 83618 88458=
41856,2023,09,22,12,00,AAXX 22124 41856 11335 80000 10254 20240 30035 40071 60117 76162 8672/ 333 10300 56399 58004 70238 82708 84616 88456=
41856,2023,09,22,18,00,AAXX 22184 41856 11425 60000 10257 20250 30060 40096 60016 70262 82520 333 56990 58011 70169 82618 86458=
41856,2023,09,23,00,00,AAXX 23004 41856 11320 81202 10255 20253 30037 40073 60099 76166 8672/ 333 56299 59008 70229 83708 84616 88456=
41856,2023,09,23,06,00,AAXX 23064 41856 11450 60903 10285 20270 30054 40089 60186 70262 83410 333 56990 59001 70391 82618 86458=
41856,2023,09,23,12,00,AAXX 23124 41856 32430 80502 10267 20250 30034 40069 8452/ 333 10296 56999 59001 70278 83618 88458=
41856,2023,09,23,18,00,AAXX 23184 41856 11330 80501 10257 20254 30045 40081 60129 72166 8672/ 333 56299 59015 70392 83708 84616 88456=
41856,2023,09,24,00,00,AAXX 24004 41856 32440 80502 10255 20252 30029 40065 8452/ 333 56999 59008 70302 83618 88458=
41856,2023,09,24,06,00,AAXX 24064 41856 11350 80502 10250 20240 30044 40080 60239 79596 8672/ 333 56299 59010 70350 83708 84616 88456=
41856,2023,09,24,12,00,AAXX 24124 41856 11430 80000 10233 20230 30023 40059 60279 72196 8452/ 333 10260 56999 59011 70622 84618 88458=
41856,2023,09,24,18,00,AAXX 24184 41856 11425 51402 10240 20240 30031 40067 60016 70162 82510 333 56990 59014 70507 82618 84458=
41856,2023,09,25,00,00,AAXX 25004 41856 32440 70000 10243 20240 30033 40069 84520 333 56990 58004 70507 84618 86458=
41856,2023,09,25,06,00,AAXX 25064 41856 32450 81601 10287 20250 30046 40081 8542/ 333 56999 58002 70277 84618 88458=
41856,2023,09,25,12,00,AAXX 25124 41856 32940 50000 10284 20250 30010 40045 85030 333 10305 56090 58013 70005 83362=
41856,2023,09,25,18,00,AAXX 25184 41856 31930 40000 10261 20250 30036 40072 70522 84030 333 56090 58005 70000 83362=
41856,2023,09,26,00,00,AAXX 26004 41856 31920 40000 10253 20240 30033 40069 70522 84030 333 56090 58000 70000 83362=
41856,2023,09,26,06,00,AAXX 26064 41856 32450 81601 10294 20250 30039 40074 8442/ 333 56999 59007 70000 83618 88458=
41856,2023,09,26,12,00,AAXX 26124 41856 32940 40000 10291 20260 30011 40046 84030 333 10331 56090 58001 70000 83362=
41856,2023,09,26,18,00,AAXX 26184 41856 31930 30000 10264 20240 30037 40073 70511 83030 333 56090 58001 70000 83362=
41856,2023,09,27,00,00,AAXX 27004 41856 31930 00000 10254 20240 30035 40071 70500 333 58002 70000=
41856,2023,09,27,06,00,AAXX 27064 41856 32956 40000 10331 20250 30031 40066 84030 333 56090 59008 70000 83362=
41856,2023,09,27,12,00,AAXX 27124 41856 32940 40000 10304 20270 39997 40032 84030 333 10345 56090 59014 70000 84362=
41856,2023,09,27,18,00,AAXX 27184 41856 31930 00000 10274 20260 30018 40053 70500 333 59019 70000=
41856,2023,09,28,00,00,AAXX 28004 41856 31930 10000 10268 20268 30025 40060 70510 81030 333 56090 59010 70000 81362=
41856,2023,09,28,06,00,AAXX 28064 41856 32958 20502 10336 20270 30026 40060 82030 333 56090 59005 70000 82362=
41856,2023,09,28,12,00,AAXX 28124 41856 32940 20000 10320 20280 39984 40019 82030 333 10350 56090 59013 70000 82362=
41856,2023,09,28,18,00,AAXX 28184 41856 31930 00000 10280 20270 30015 40050 70500 333 59003 70000=
41858,2023,09,22,00,00,AAXX 22004 41858 01430 80905 10256 20250 30034 40080 76062 8452/ 333 58006 70742 84615 88458==
41858,2023,09,22,03,00,AAXX 22034 41858 01340 80905 10262 20250 30054 40100 72162 8562/ 333 20238 58012 70802 83708 85614 88458==
41858,2023,09,22,06,00,AAXX 22064 41858 01310 80606 10270 20250 30045 40090 76162 8472/ 333 58000 70400 83708 85614 88458==
41858,2023,09,22,09,00,AAXX 22094 41858 01330 80905 10268 20260 30018 40063 79596 8632/ 333 59002 70562 83708 85614 88458 82930==
41858,2023,09,22,12,00,AAXX 22124 41858 01430 80905 10250 20240 30026 40072 76196 8452/ 333 10270 58010 70614 84615 88458==
41858,2023,09,22,15,00,AAXX 22154 41858 01430 80905 10260 20240 30044 40090 72162 8452/ 333 58001 70588 84615 88458==
41858,2023,09,22,18,00,AAXX 22184 41858 11430 80905 10255 20250 30043 40089 60056 72162 8452/ 333 59006 70620 84615 88458==
41858,2023,09,22,21,00,AAXX 22214 41858 01430 80905 10260 20250 30018 40064 76162 8452/ 333 59022 70588 84615 88458==
41858,2023,09,23,00,00,AAXX 23004 41858 01440 80905 10262 20250 30028 40074 72162 8452/ 333 59006 70568 84615 88458==
41858,2023,09,23,03,00,AAXX 23034 41858 01440 80905 10274 20250 30052 40098 70522 8452/ 333 20238 59002 70460 84616 88458==
41858,2023,09,23,06,00,AAXX 23064 41858 01430 80908 10280 20260 30036 40081 76122 8452/ 333 59009 70040 84615 88458==
41858,2023,09,23,09,00,AAXX 23094 41858 01330 82710 10270 20260 30014 40059 79596 8592/ 333 59004 70424 83708 85614 88458 82930==
41858,2023,09,23,12,00,AAXX 23124 41858 21335 80906 10250 20250 30025 40071 79596 8592/ 333 10282 59001 60829 70962 83708 85614 88458 82930==
41858,2023,09,23,15,00,AAXX 23154 41858 01440 80906 10255 20250 30042 40088 72196 8452/ 333 59002 71274 84614 88458==
41858,2023,09,23,18,00,AAXX 23184 41858 11440 80904 10255 20250 30040 40086 60326 70596 8452/ 333 59003 71232 84615 88458==
41858,2023,09,23,21,00,AAXX 23214 41858 01430 80905 10254 20240 30009 40055 79596 8532/ 333 59009 71412 84615 88458 82930==
41858,2023,09,24,00,00,AAXX 24004 41858 21420 80305 10258 20250 30012 40058 79596 8532/ 333 59016 60619 71794 84615 88458 82930==
41858,2023,09,24,03,00,AAXX 24034 41858 01405 82706 10250 20250 30036 40082 79596 8592/ 333 20235 59016 72594 84615 88458 82928==
41858,2023,09,24,06,00,AAXX 24064 41858 21415 80906 10260 20240 30030 40076 79596 8592/ 333 59006 62409 74154 84615 88458 81928==
41858,2023,09,24,09,00,AAXX 24094 41858 01425 80604 10245 20240 30009 40055 76196 8592/ 333 59005 74240 84615 88458 81928==
41858,2023,09,24,12,00,AAXX 24124 41858 21430 81206 10240 20230 30011 40057 72162 8452/ 333 10264 59014 60198 73520 84615 88458==
41858,2023,09,24,15,00,AAXX 24154 41858 01430 80305 10240 20230 30029 40075 70522 8452/ 333 59013 73200 84616 88458==
41858,2023,09,24,18,00,AAXX 24184 41858 01430 80905 10244 20230 30037 40083 70522 8452/ 333 59003 73200 84616 88458==
41858,2023,09,24,21,00,AAXX 24214 41858 01340 80905 10246 20240 30028 40074 70522 8562/ 333 58019 73000 83708 85614 88458==
41858,2023,09,25,00,00,AAXX 25004 41858 01350 80905 10248 20240 30023 40069 70522 8562/ 333 58011 72590 83708 85614 88458==
41858,2023,09,25,03,00,AAXX 25034 41858 01350 80905 10264 20240 30041 40087 70522 8562/ 333 20232 58006 71590 83708 85614 88458==
41858,2023,09,25,06,00,AAXX 25064 41858 01450 80905 10290 20250 30037 40082 70522 8452/ 333 58007 70190 84615 88458==
41858,2023,09,25,09,00,AAXX 25094 41858 01450 80906 10296 20260 30007 40052 70522 8452/ 333 59002 70020 84616 88458==
41858,2023,09,25,12,00,AAXX 25124 41858 01440 51204 10290 20260 30001 40046 70522 82520 333 10302 59010 70000 82618 85458==
41858,2023,09,25,15,00,AAXX 25154 41858 01440 40304 10275 20260 30024 40069 70522 82520 333 59005 70000 82618 84458==
41858,2023,09,25,18,00,AAXX 25184 41858 01440 40904 10272 20260 30038 40084 70522 82520 333 58001 70000 82618 84458==
41858,2023,09,25,21,00,AAXX 25214 41858 01430 70000 10268 20250 30031 40076 70522 84520 333 58003 70000 84616 87458==
41858,2023,09,26,00,00,AAXX 26004 41858 01415 80000 10260 20250 30028 40074 75122 8452/ 333 58005 70002 84616 88458==
41858,2023,09,26,03,00,AAXX 26034 41858 01430 50904 10270 20240 30045 40091 70522 85800 333 20250 58005 70002 83615 83825==
41858,2023,09,26,06,00,AAXX 26064 41858 01540 30905 10324 20260 30029 40074 70522 83100 333 59008 70002 83825==
41858,2023,09,26,09,00,AAXX 26094 41858 01450 40904 10340 20260 30006 40050 70522 84400 333 59001 70002 82615 83825==
41858,2023,09,26,12,00,AAXX 26124 41858 01450 30000 10305 20270 30000 40045 70522 82530 333 10348 59001 70002 82615 83362==
41858,2023,09,26,15,00,AAXX 26154 41858 01940 00602 10282 20260 30024 40069 70520 333 58000 70002==
41858,2023,09,26,18,00,AAXX 26184 41858 01940 00902 10274 20260 30040 40086 70500 333 58002 70002==
41858,2023,09,26,21,00,AAXX 26214 41858 01930 00000 10270 20260 30033 40079 70500 333 58002 70000==
41858,2023,09,27,00,00,AAXX 27004 41858 01912 20000 10268 20260 30029 40074 71000 80001 333 58001 70000 82074==
41858,2023,09,27,03,00,AAXX 27034 41858 01940 00905 10310 20260 30040 40085 70500 333 20260 59005 70000==
41858,2023,09,27,06,00,AAXX 27064 41858 01550 30905 10338 20270 30028 40072 70520 83100 333 59001 70000 83825==
41858,2023,09,27,09,00,AAXX 27093 41858 01450 50000 10338 20260 39994 40038 70510 85800 333 59012 70000 83615 83825==
41858,2023,09,27,12,00,AAXX 27124 41858 01450 60000 10300 20270 39990 40035 70520 84520 333 10352 59010 70000 84615 85458==
41858,2023,09,27,15,00,AAXX 27154 41858 01/40 20000 10282 20260 30010 40055 70511 82030 333 59014 70000 82362==
41858,2023,09,27,18,00,AAXX 27184 41858 01/40 20000 10270 20250 30015 40060 70511 82030 333 59025 70000 82362==
41858,2023,09,27,21,00,AAXX 27214 41858 01930 00000 10276 20260 30016 40061 70500 333 59017 70000==
41858,2023,09,28,00,00,AAXX 28004 41858 01/12 20000 10275 20270 30018 40063 71000 82030 333 59011 70000 82362==
41858,2023,09,28,03,00,AAXX 28034 41858 01930 00000 10322 20270 30030 40075 70500 333 20270 59010 70000==
41858,2023,09,28,06,00,AAXX 28064 41858 01450 40000 10356 20250 30018 40062 70522 84500 333 59010 70000 84618==
41858,2023,09,28,09,00,AAXX 28094 41858 01450 40604 10360 20260 39991 40034 70522 82520 333 59003 70000 82618 84458==
41858,2023,09,28,12,00,AAXX 28124 41858 01450 43604 10320 20270 39978 40022 70522 82520 333 10368 59012 70000 82618 84462==
41858,2023,09,28,15,00,AAXX 28154 41858 01/40 20000 10302 20270 39997 40042 70511 82030 333 59013 70000 82362==
41858,2023,09,28,18,00,AAXX 28184 41858 01/40 20000 10290 20270 30001 40046 70511 82030 333 59014 70000 82362==
41859,2023,09,22,00,00,AAXX 22004 41859 01330 80503 10256 20256 30041 40078 76162 8572/ 333 58005 70198 83708 85614 88456==
41859,2023,09,22,03,00,AAXX 22034 41859 01440 80502 10265 20260 30062 40099 70262 8562/ 333 20250 58008 70206 83710 85618 88458==
41859,2023,09,22,06,00,AAXX 22064 41859 01440 80502 10276 20260 30052 40089 70262 8562/ 333 59002 70193 83710 85618 88458==
41859,2023,09,22,09,00,AAXX 22094 41859 01340 80000 10265 20250 30036 40073 76322 8572/ 333 58010 70207 83709 84617 88456==
41859,2023,09,22,12,00,AAXX 22124 41859 21340 80000 10250 20240 30036 40073 76362 8572/ 333 10300 58010 60227 70342 83709 84616 88456==
41859,2023,09,22,15,00,AAXX 22154 41859 01430 80502 10257 20257 30054 40091 72162 8562/ 333 58001 70326 83710 84618 88458==
41859,2023,09,22,18,00,AAXX 22184 41859 21430 80502 10258 20258 30050 40087 70262 8562/ 333 58004 69948 70316 83710 84618 88458==
41859,2023,09,22,21,00,AAXX 22214 41859 01430 80501 10258 20258 30042 40079 76162 8562/ 333 58013 70300 83710 84618 88458==
41859,2023,09,23,00,00,AAXX 23004 41859 21330 81301 10257 20257 30037 40074 76362 8572/ 333 59004 60067 70316 83708 84616 88456==
41859,2023,09,23,03,00,AAXX 23034 41859 01350 81301 10273 20260 30061 40098 70262 8562/ 333 20245 59001 70348 83708 84616 88456==
41859,2023,09,23,06,00,AAXX 23064 41859 01350 81302 10285 20270 30048 40085 76162 8672/ 333 59004 70338 83708 84615 88456==
41859,2023,09,23,09,00,AAXX 23094 41859 01440 80902 10291 20270 30018 40055 70262 8562/ 333 59018 70312 83710 85618 88458==
41859,2023,09,23,12,00,AAXX 23124 41859 01330 80502 10254 20240 30037 40074 79562 8692/ 333 10294 58001 70882 84708 85615 88456 81930==
41859,2023,09,23,15,00,AAXX 23154 41859 01430 80000 10255 20255 30052 40089 72996 8562/ 333 59002 71128 83710 85618 88458==
41859,2023,09,23,18,00,AAXX 23184 41859 21430 80000 10260 20260 30050 40087 70296 8562/ 333 58000 60258 71128 83710 85618 88458==
41859,2023,09,23,21,00,AAXX 23214 41859 01430 80000 10260 20260 30028 40065 76122 8572/ 333 59014 71128 83710 85618 88458==
41859,2023,09,24,00,00,AAXX 24004 41859 21330 80000 10260 20260 30019 40056 79596 8692/ 333 59018 60027 71080 84709 85617 88456 81930==
41859,2023,09,24,03,00,AAXX 24034 41859 01340 80000 10264 20260 30043 40080 79596 8692/ 333 20246 59018 71120 84708 85616 88456 81930==
41859,2023,09,24,06,00,AAXX 24064 41859 21340 80000 10255 20260 30041 40078 79796 8692/ 333 59007 60599 71620 84708 88456 81930==
41859,2023,09,24,09,00,AAXX 24094 41859 01330 80503 10251 20250 30018 40055 79796 8692/ 333 58000 72384 84708 85614 88456 81930==
41859,2023,09,24,12,00,AAXX 24124 41859 21330 80902 10246 20245 30020 40057 76196 8672/ 333 10265 59017 60789 71642 84708 85614 88456==
41859,2023,09,24,15,00,AAXX 24154 41859 01430 80502 10246 20246 30037 40074 70262 8562/ 333 59015 71398 83710 85618 88458==
41859,2023,09,24,18,00,AAXX 24184 41859 11430 80000 10247 20247 30030 40067 69966 70262 8562/ 333 59020 71398 83710 85618 88458==
41859,2023,09,24,21,00,AAXX 24214 41859 02430 80502 10250 20250 30029 40066 8562/ 333 58001 71396 83710 84618 88458==
41859,2023,09,25,00,00,AAXX 25004 41859 02430 80501 10250 20240 30031 40068 8562/ 333 58012 71380 83710 85618 88458==
41859,2023,09,25,03,00,AAXX 25034 41859 02450 80502 10269 20260 30051 40088 8562/ 333 20238 58008 71300 83710 85618 88458==
41859,2023,09,25,06,00,AAXX 25064 41859 21450 80502 10293 20250 30043 40080 70262 8562/ 333 58002 69995 70790 83710 85618 88458==
41859,2023,09,25,09,00,AAXX 25094 41859 01340 80501 10290 20260 30015 40052 76162 8572/ 333 59003 70026 83708 84616 88456==
41859,2023,09,25,12,00,AAXX 25124 41859 21440 60000 10285 20270 30011 40048 70162 83520 333 10298 59009 69928 70008 83618 86458==
41859,2023,09,25,15,00,AAXX 25154 41859 02430 53601 10276 20270 30032 40069 82530 333 59005 70002 82618 85362==
41859,2023,09,25,18,00,AAXX 25184 41859 02430 60000 10270 20260 30040 40077 83530 333 58010 70002 83618 85362==
41859,2023,09,25,21,00,AAXX 25214 41859 02430 60000 10267 20260 30038 40075 83530 333 58009 70002 83618 85362==
41859,2023,09,26,00,00,AAXX 26004 41859 02430 80000 10265 20260 30034 40071 8562/ 333 58003 70002 82710 84618 88458==
41859,2023,09,26,03,00,AAXX 26034 41859 02450 80000 10299 20250 30053 40090 8562/ 333 20258 58002 70002 82710 84618 88458==
41859,2023,09,26,06,00,AAXX 26064 41859 02450 60000 10324 20250 30038 40075 84620 333 59005 70002 82710 83618 86458==
41859,2023,09,26,09,00,AAXX 26094 41859 01450 70000 10315 20270 30015 40051 72166 84670 333 58000 70032 82710 84618 86458==
41859,2023,09,26,12,00,AAXX 26124 41859 21450 60000 10307 20280 30010 40046 70162 84470 333 10325 59001 60038 70032 83618 85458==
41859,2023,09,26,15,00,AAXX 26154 41859 02430 60000 10287 20280 30033 40070 83530 333 58001 70032 83618 85362==
41859,2023,09,26,18,00,AAXX 26184 41859 02430 60000 10278 20270 30042 40079 83520 333 58002 70032 83618 86458==
41859,2023,09,26,21,00,AAXX 26214 41859 02430 60000 10273 20260 30037 40074 83520 333 59001 70032 83618 86458==
41859,2023,09,27,00,00,AAXX 27004 41859 02430 80000 10267 20260 30032 40062 8562/ 333 59002 70032 82710 84618 88458==
41859,2023,09,27,03,00,AAXX 27034 41859 02450 50000 10313 20260 30048 40086 83520 333 20263 59005 70032 83618 85458==
41859,2023,09,27,06,00,AAXX 27064 41859 02450 70000 10329 20260 30032 40068 83520 333 59006 70032 83618 87458==
41859,2023,09,27,09,00,AAXX 27094 41859 01450 71802 10312 20270 30000 40036 70262 85620 333 59015 70030 82710 84618 87458==
41859,2023,09,27,12,00,AAXX 27124 41859 11450 60000 10305 20280 39997 40033 60036 70162 83520 333 10338 59013 70030 83618 86458==
41859,2023,09,27,15,00,AAXX 27154 41859 02430 60000 10290 20280 30020 40057 83520 333 59013 70030 83618 86458==
41859,2023,09,27,18,00,AAXX 27184 41859 02430 40000 10282 20280 30019 40056 82530 333 59023 70030 82618 83362==
41859,2023,09,27,21,00,AAXX 27214 41859 02430 40000 10276 20276 30017 40054 82530 333 59022 70030 82618 83362==
41859,2023,09,28,00,00,AAXX 28004 41859 02440 40000 10276 20276 30025 40062 82530 333 59007 70030 82618 83362==
41859,2023,09,28,03,00,AAXX 28034 41859 02450 40000 10323 20260 30038 40075 82530 333 20272 59015 70030 82618 83362==
41859,2023,09,28,06,00,AAXX 28064 41859 02450 40000 10341 20260 30030 40066 82530 333 59002 70030 82618 83362==
41859,2023,09,28,09,00,AAXX 28094 41859 02450 30502 10351 20270 39996 40032 83400 333 59004 70000 81618 83828==
41859,2023,09,28,12,00,AAXX 28124 41859 02/40 20000 10330 20270 39986 40022 82030 333 10355 59011 70000 82362==
41859,2023,09,28,15,00,AAXX 28154 41859 02930 00000 10302 20280 30004 40041 333 59016 70000==
41859,2023,09,28,18,00,AAXX 28184 41859 02930 00000 10292 20280 30014 40051 333 59005 70000==
41859,2023,09,28,21,00,AAXX 28214 41859 02930 00000 10287 20270 30012 40049 333 59005 70000==
41863,2023,09,22,00,00,AAXX 22004 41863 02450 80902 10260 20250 30030 40073 8552/ 333 58003 70203 85618 88458==
41863,2023,09,22,03,00,AAXX 22034 41863 02456 80902 10270 20260 30052 40096 8552/ 333 20246 58013 70203 85618 88458==
41863,2023,09,22,06,00,AAXX 22064 41863 01356 80503 10280 20260 30043 40086 76122 8572/ 333 58000 70050 83708 85614 88456==
41863,2023,09,22,09,00,AAXX 22094 41863 01350 80504 10270 20250 30018 40061 76166 8572/ 333 58004 70157 83708 85615 88457==
41863,2023,09,22,12,00,AAXX 22124 41863 21350 80903 10260 20250 30020 40063 76166 8572/ 333 10283 58005 60129 70195 82708 85615 88457==
41863,2023,09,22,15,00,AAXX 22154 41863 01450 80903 10255 20250 30043 40086 70262 8452/ 333 58001 70186 84618 88458==
41863,2023,09,22,18,00,AAXX 22184 41863 11450 80504 10258 20250 30044 40087 60016 70262 8452/ 333 58009 70186 84618 88458==
41863,2023,09,22,21,00,AAXX 22214 41863 02450 81303 10260 20250 30033 40076 8452/ 333 58000 70186 84618 88458==
41863,2023,09,23,00,00,AAXX 23004 41863 21450 81302 10262 20260 30025 40068 70262 8552/ 333 59005 60047 70228 85618 88458==
41863,2023,09,23,03,00,AAXX 23034 41863 02450 80502 10275 20270 30049 40092 8452/ 333 20248 59003 70228 84618 88458==
41863,2023,09,23,06,00,AAXX 23064 41863 21350 81802 10280 20270 30040 40083 76162 8572/ 333 59003 60187 70350 82708 85615 88457==
41863,2023,09,23,09,00,AAXX 23094 41863 02350 81702 10270 20260 30016 40059 8572/ 333 59002 70484 83707 84614 88456==
41863,2023,09,23,12,00,AAXX 23124 41863 21350 80904 10257 20250 30020 40063 76166 8572/ 333 10285 58000 60429 70652 83708 84614 88457==
41863,2023,09,23,15,00,AAXX 23154 41863 01450 80904 10254 20240 30039 40082 70262 8452/ 333 59004 70672 84618 88458==
41863,2023,09,23,18,00,AAXX 23184 41863 21450 80902 10261 20250 30032 40075 70262 8552/ 333 59012 60035 70672 85618 88458==
41863,2023,09,23,21,00,AAXX 23214 41863 01340 80905 10255 20250 30013 40056 79596 8592/ 333 59020 71192 83708 84614 88457 81930==
41863,2023,09,24,00,00,AAXX 24004 41863 21340 80905 10250 20240 30020 40063 79596 8592/ 333 59005 60969 71590 83708 84613 88457 81930==
41863,2023,09,24,03,00,AAXX 24034 41863 01340 80902 10251 20250 30032 40075 79796 8572/ 333 20240 59017 72910 83708 84613 88457 81930==
41863,2023,09,24,06,00,AAXX 24064 41863 21340 80905 10252 20250 30032 40075 79596 8592/ 333 59008 61779 73184 83708 84613 88457 81930==
41863,2023,09,24,09,00,AAXX 24094 41863 01340 80904 10245 20240 30008 40051 79596 8792/ 333 59008 70314 83708 85616 88456 82925==
41863,2023,09,24,12,00,AAXX 24124 41863 21450 80903 10245 20240 30010 40053 70296 8562/ 333 10250 59010 60149 72904 82710 85617 88458==
41863,2023,09,24,15,00,AAXX 24154 41863 02450 80902 10248 20240 30031 40074 8562/ 333 59008 72870 82710 85617 88458==
41863,2023,09,24,18,00,AAXX 24184 41863 02450 80901 10245 20240 30027 40070 8552/ 333 59005 72870 85618 88458==
41863,2023,09,24,21,00,AAXX 24214 41863 02450 80901 10245 20240 30028 40071 8552/ 333 58015 72350 85618 88458==
41863,2023,09,25,00,00,AAXX 25004 41863 02450 80902 10248 20240 30025 40068 8552/ 333 58005 71910 85617 88458==
41863,2023,09,25,03,00,AAXX 25034 41863 02450 80502 10260 20260 30045 40088 8552/ 333 20236 58013 70590 85618 88458==
41863,2023,09,25,06,00,AAXX 25064 41863 02450 80902 10275 20270 30040 40083 8552/ 333 58008 70140 85618 88458==
41863,2023,09,25,09,00,AAXX 25094 41863 02456 80902 10298 20260 30009 40051 8552/ 333 58001 70040 85618 88458==
41863,2023,09,25,12,00,AAXX 25124 41863 02456 50000 10285 20270 30004 40046 83520 333 10302 59006 70000 83618 85458==
41863,2023,09,25,15,00,AAXX 25154 41863 02950 00000 10267 20260 30024 40067 333 59007 70000==
41863,2023,09,25,18,00,AAXX 25184 41863 01950 00000 10262 20250 30033 40076 70520 333 58006 70000==
41863,2023,09,25,21,00,AAXX 25214 41863 02950 00000 10261 20250 30031 40074 333 58006 70000==
41863,2023,09,26,00,00,AAXX 26004 41863 01450 50000 10260 20250 30027 40070 70520 82520 333 58002 70000 82618 85458==
41863,2023,09,26,03,00,AAXX 26034 41863 02456 60901 10286 20270 30045 40087 83520 333 20235 58000 70000 83618 86458==
41863,2023,09,26,06,00,AAXX 26064 41863 02557 20902 10326 20270 30033 40075 82400 333 59007 70000 82620==
41863,2023,09,26,09,00,AAXX 26094 41863 02557 30902 10332 20260 30007 40049 83400 333 59002 70000 83620==
41863,2023,09,26,12,00,AAXX 26124 41863 02456 50000 10318 20270 30001 40043 83520 333 10336 59003 70000 83618 85458==
41863,2023,09,26,15,00,AAXX 26154 41863 02950 00000 10288 20270 30024 40066 333 58000 70000==
41863,2023,09,26,18,00,AAXX 26184 41863 02950 00000 10280 20270 30036 40079 333 58003 70000==
41863,2023,09,26,21,00,AAXX 26214 41863 01950 00000 10277 20270 30031 40074 70500 333 58000 70000==
41863,2023,09,27,00,00,AAXX 27004 41863 01450 50000 10268 20260 30027 40070 70522 83520 333 58000 70000 83618 85458==
41863,2023,09,27,03,00,AAXX 27034 41863 02456 50902 10302 20270 30041 40083 83520 333 20262 59004 70000 83618 85458==
41863,2023,09,27,06,00,AAXX 27064 41863 02457 60501 10332 20270 30024 40066 83520 333 59009 70000 83618 86458==
41863,2023,09,27,09,00,AAXX 27094 41863 02557 20000 10340 20260 39995 40036 82400 333 59012 70000 82620==
41863,2023,09,27,12,00,AAXX 27124 41863 02957 20000 10305 20290 39994 40036 80002 333 10340 59007 70000 82080==
41863,2023,09,27,15,00,AAXX 27154 41863 02950 00000 10288 20260 30012 40054 333 59012 70000==
41863,2023,09,27,18,00,AAXX 27184 41863 01950 00000 10281 20270 30015 40057 70500 333 59021 70000==
41863,2023,09,27,21,00,AAXX 27214 41863 01950 00000 10277 20270 30018 40060 70500 333 59013 70000==
41863,2023,09,28,00,00,AAXX 28004 41863 01940 00000 10271 20260 30020 40063 70500 333 59007 70000==
41863,2023,09,28,03,00,AAXX 28034 41863 02957 00902 10325 20280 30033 40075 333 20265 59008 70000==
41863,2023,09,28,06,00,AAXX 28064 41863 02457 20903 10350 20260 30024 40065 82400 333 58000 70000 82617==
41863,2023,09,28,09,00,AAXX 28094 41863 02457 30902 10340 20260 39990 40031 83400 333 59005 70000 83825==
41863,2023,09,28,12,00,AAXX 28124 41863 02956 00000 10330 20280 39982 40024 333 10355 59012 70000==
41863,2023,09,28,15,00,AAXX 28154 41863 02950 00000 10293 20280 30001 40043 333 59011 70000==
41863,2023,09,28,18,00,AAXX 28184 41863 02950 00000 10283 20270 30009 40051 333 59006 70000==
41881,2023,09,22,00,00,AAXX 22004 41881 32450 81301 10265 20260 30047 40067 8552/ 333 56999 58005 70310 85618 88459=
41881,2023,09,22,06,00,AAXX 22064 41881 32458 61204 10315 20270 30055 40075 83520 333 56390 58004 70310 83615 86459=
41881,2023,09,22,12,00,AAXX 22124 41881 11456 81004 10262 20250 30041 40061 60056 70262 8552/ 333 10320 56399 58006 70050 85615 88458=
41881,2023,09,22,18,00,AAXX 22184 41881 11340 81305 10260 20250 30058 40078 60014 76162 8562/ 333 56499 58006 70060 83708 84614 88458=
41881,2023,09,23,00,00,AAXX 23004 41881 32457 71002 10260 20260 30047 40067 84520 333 56990 58000 70060 84615 87458=
41881,2023,09,23,06,00,AAXX 23064 41881 11456 71202 10311 20260 30058 40078 60035 70162 84520 333 56390 58003 70090 84616 87458=
41881,2023,09,23,12,00,AAXX 23124 41881 11350 80902 10260 20250 30039 40059 60314 72996 8572/ 333 10316 56299 59002 70350 83708 85615 81930 88458=
41881,2023,09,23,18,00,AAXX 23184 41881 32450 81004 10265 20260 30052 40072 8552/ 333 56999 59006 70340 85616 88459=
41881,2023,09,24,00,00,AAXX 24004 41881 32450 81304 10269 20260 30036 40056 8552/ 333 56999 59011 70340 85616 88459=
41881,2023,09,24,06,00,AAXX 24064 41881 32456 80901 10285 20280 30045 40065 60013 70262 8552/ 333 56399 59013 70360 85616 88458=
41881,2023,09,24,12,00,AAXX 24124 41881 11350 80902 10250 20240 30034 40054 60119 76162 8572/ 333 10290 56499 59005 70260 83708 84614 88458=
41881,2023,09,24,18,00,AAXX 24184 41881 11450 80901 10255 20250 30047 40067 60019 70266 8552/ 333 56999 59005 70288 85616 88459=
41881,2023,09,25,00,00,AAXX 25004 41881 32450 80302 10260 20250 30039 40059 8552/ 333 56999 58003 70288=
41881,2023,09,25,06,00,AAXX 25064 41881 11457 70901 10265 20260 30051 40071 60044 76162 8552/ 333 56299 58006 70278 85615 87458=
41881,2023,09,25,12,00,AAXX 25124 41881 32457 70501 10280 20260 30025 40045 84520 333 10315 56990 59009 70068 84615 87458=
41881,2023,09,25,18,00,AAXX 25184 41881 32450 70801 10265 20260 30051 40071 84520 333 56990 58004 70040 84616 87459=
41881,2023,09,26,00,00,AAXX 26004 41881 31420 80000 10255 20255 30048 40068 71022 8552/ 333 56999 58009 70040 85616 88459=
41881,2023,09,26,06,00,AAXX 26064 41881 32457 73601 10315 20270 30050 40070 85520 333 56990 59001 70000 85616 87459=
41881,2023,09,26,12,00,AAXX 26124 41881 32456 43601 10295 20290 30024 40044 84500 333 10321 56900 59001 70000 84616=
41881,2023,09,26,18,00,AAXX 26184 41881 32450 53202 10285 20280 30054 40074 83510 333 56990 58003 70000 83616 85459=
41881,2023,09,27,00,00,AAXX 27004 41881 32456 40000 10272 20260 30049 40069 84500 333 56900 5800/ 70000 84616=
41881,2023,09,27,06,00,AAXX 27064 41881 32457 40501 10332 20260 30045 40065 84500 333 56900 59005 70000 84616=
41881,2023,09,27,12,00,AAXX 27124 41881 32456 40000 10298 20280 30014 40034 84500 333 10353 56990 59010 70000 84616=
41881,2023,09,27,18,00,AAXX 27184 41881 32450 00000 10286 20280 30033 40053 333 59021 70000=
41881,2023,09,28,00,00,AAXX 28004 41881 32456 00000 10280 20270 30041 40060 333 59008 70000=
41881,2023,09,28,06,00,AAXX 28064 41881 32457 43602 10340 20260 30043 40062 84500 333 56900 59002 70000 84617=
41881,2023,09,28,12,00,AAXX 28124 41881 32956 30201 10320 20280 39999 40018 83030 333 10355 56090 59015 70000 83362=
41881,2023,09,28,18,00,AAXX 28184 41881 32950 00000 10292 20280 30028 40047 333 59005 70000=
41883,2023,09,22,00,00,AAXX 22004 41883 02440 80902 10270 20260 30052 40072 8562/ 333 58006 70402 82710 84618 88458==
41883,2023,09,22,03,00,AAXX 22034 41883 02450 70000 10288 20270 30074 40094 84520 333 20255 58013 70324 84616 87458==
41883,2023,09,22,06,00,AAXX 22064 41883 02456 71302 10316 20270 30061 40081 84820 333 44616 58006 70324 87458==
41883,2023,09,22,09,00,AAXX 22094 41883 01350 81302 10270 20250 30042 40062 79596 8532/ 333 58019 70276 85709 88458 81930==
41883,2023,09,22,12,00,AAXX 22124 41883 21340 80902 10264 20240 30047 40067 72196 8562/ 333 10318 58007 60049 70056 85709 88458==
41883,2023,09,22,15,00,AAXX 22154 41883 02330 80902 10265 20260 30066 40086 8562/ 333 58001 70040 85709 88458==
41883,2023,09,22,18,00,AAXX 22184 41883 02330 80902 10264 20250 30062 40082 8562/ 333 58005 70040 85709 88458==
41883,2023,09,22,21,00,AAXX 22214 41883 02330 81303 10263 20250 30053 40073 8562/ 333 58006 70040 85709 88458==
41883,2023,09,23,00,00,AAXX 23004 41883 02440 60903 10270 20260 30051 40071 83510 333 59001 70040 83616 86459==
41883,2023,09,23,03,00,AAXX 23034 41883 02450 81302 10290 20270 30074 40094 8562/ 333 20252 58000 70040 84618 88458 82910==
41883,2023,09,23,06,00,AAXX 23064 41883 21450 81302 10306 20260 30064 40084 70262 8561/ 333 58003 60017 70050 82710 84618 88458==
41883,2023,09,23,09,00,AAXX 23094 41883 02450 80902 10312 20260 30036 40056 8562/ 333 59006 70020 82710 84618 88458==
41883,2023,09,23,12,00,AAXX 23124 41883 01440 80000 10282 20270 30045 40065 70296 8662/ 333 10315 59002 70080 83710 84618 88458==
41883,2023,09,23,15,00,AAXX 23154 41883 02330 81302 10274 20260 30063 40083 8562/ 333 59003 70090 85709 88458==
41883,2023,09,23,18,00,AAXX 23184 41883 21330 81302 10266 20260 30057 40077 70262 8562/ 333 59005 60015 70100 85709 88458==
41883,2023,09,23,21,00,AAXX 23214 41883 02330 81302 10266 20260 30043 40063 8562/ 333 59010 70100 85709 88458==
41883,2023,09,24,00,00,AAXX 24004 41883 02340 81302 10268 20260 30038 40058 8562/ 333 59013 70100 85709 88458==
41883,2023,09,24,03,00,AAXX 24034 41883 02356 81305 10283 20260 30057 40077 8562/ 333 20263 59017 70100 85709 88458==
41883,2023,09,24,06,00,AAXX 24064 41883 01340 81802 10270 20260 30047 40067 79592 8592/ 333 59017 70220 85709 88458 81930==
41883,2023,09,24,09,00,AAXX 24094 41883 01350 80000 10284 20260 30023 40043 79596 8592/ 333 59013 70344 83709 84615 88456 81930==
41883,2023,09,24,12,00,AAXX 24124 41883 21340 80000 10254 20240 30034 40054 79596 8692/ 333 10292 59011 60257 70484 83709 84615 88456 81930==
41883,2023,09,24,15,00,AAXX 24154 41883 01330 80903 10260 20250 30048 40068 76196 8572/ 333 59015 70504 85709 88458==
41883,2023,09,24,18,00,AAXX 24184 41883 21430 80902 10264 20250 30047 40067 70296 8552/ 333 59010 60028 70496 85616 88459==
41883,2023,09,24,21,00,AAXX 24214 41883 02430 80000 10265 20260 30041 40061 8552/ 333 59002 70049 85616 88459==
41883,2023,09,25,00,00,AAXX 25004 41883 02440 80902 10266 20260 30047 40067 8562/ 333 58009 70496 85709 88459==
41883,2023,09,25,03,00,AAXX 25034 41883 02450 81302 10280 20260 30063 40083 8562/ 333 20246 58006 70496 82710 84618 88458==
41883,2023,09,25,06,00,AAXX 25064 41883 21350 80000 10292 20270 30056 40076 79596 8692/ 333 58009 60027 70296 83709 84615 88456 81930==
41883,2023,09,25,09,00,AAXX 25094 41883 01456 80000 10290 20270 30028 40048 70262 8552/ 333 58005 70312 85616 88458==
41883,2023,09,25,12,00,AAXX 25124 41883 11450 60000 10290 20280 30023 40043 60056 70162 83510 333 10305 59011 70092 83616 86458==
41883,2023,09,25,15,00,AAXX 25154 41883 01330 80000 10270 20260 30047 40067 79596 8592/ 333 59001 70082 83709 84615 88456 81930==
41883,2023,09,25,18,00,AAXX 25184 41883 21430 80000 10272 20260 30054 40074 70296 8562/ 333 58007 60027 70085 82710 84618 88458==
41883,2023,09,25,21,00,AAXX 25214 41883 02430 40000 10266 20260 30045 40065 82520 333 58004 70085 82618 84458==
41883,2023,09,26,00,00,AAXX 26004 41883 02440 40000 10264 20250 30048 40068 82520 333 58001 70085 82618 84458==
41883,2023,09,26,03,00,AAXX 26034 41883 02456 40000 10296 20270 30065 40085 82510 333 20260 58002 70085 82618 84458==
41883,2023,09,26,06,00,AAXX 26064 41883 02456 63602 10325 20240 30053 40073 83520 333 59003 70065 83618 86458==
41883,2023,09,26,09,00,AAXX 26094 41883 02456 61802 10334 20250 30029 40049 83510 333 58001 70015 83615 86458==
41883,2023,09,26,12,00,AAXX 26124 41883 02950 00000 10320 20270 30021 40041 333 10340 59002 70015==
41883,2023,09,26,15,00,AAXX 26154 41883 02930 00000 10294 20270 30043 40063 333 59004 70005==
41883,2023,09,26,18,00,AAXX 26184 41883 02930 00000 10286 20280 30051 40071 333 59003 70000==
41883,2023,09,26,21,00,AAXX 26214 41883 02930 00000 10280 20270 30045 40065 333 58000 70000==
41883,2023,09,27,00,00,AAXX 27004 41883 01340 80000 10280 20270 30047 40067 71720 8592/ 333 59001 70000 85616 88458 81930==
41883,2023,09,27,03,00,AAXX 27034 41883 01456 61302 10290 20260 30063 40083 72922 82530 333 20275 59002 70000 82616 86362==
41883,2023,09,27,06,00,AAXX 27064 41883 02456 31302 10335 20260 30046 40066 81530 333 59007 70000 81616 83362==
41883,2023,09,27,09,00,AAXX 27094 41883 02450 60000 10324 20270 30015 40035 83520 333 59014 70000 83618 86458==
41883,2023,09,27,12,00,AAXX 27124 41883 02440 40000 10310 20270 30009 40029 82520 333 10338 59012 70000 82618 84458==
41883,2023,09,27,15,00,AAXX 27154 41883 02930 00000 10294 20270 30033 40053 333 59010 70000==
41883,2023,09,27,18,00,AAXX 27184 41883 02930 00000 10284 20260 30036 40056 333 59015 70000==
41883,2023,09,27,21,00,AAXX 27214 41883 02930 00000 10278 20270 30035 40055 333 59010 70000==
41883,2023,09,28,00,00,AAXX 28004 41883 02940 00000 10276 20270 30037 40057 333 59010 70000==
41883,2023,09,28,03,00,AAXX 28034 41883 02456 20000 10310 20270 30049 40069 82500 333 20272 59014 70000 82616==
41883,2023,09,28,06,00,AAXX 28064 41883 02456 43602 10345 20280 30041 40061 84400 333 59005 70000 83616==
41883,2023,09,28,09,00,AAXX 28094 41883 02456 30000 10352 20270 30009 40029 83400 333 59006 70000 81616 83828==
41883,2023,09,28,12,00,AAXX 28124 41883 02/40 32702 10328 20280 39999 40019 83030 333 10360 59010 70000 83362==
41883,2023,09,28,15,00,AAXX 28154 41883 02930 00000 10306 20290 30019 40039 333 59014 70000==
41883,2023,09,28,18,00,AAXX 28184 41883 02930 00000 10298 20280 30027 40047 333 59009 70000==
41883,2023,09,28,21,00,AAXX 28214 41883 02930 00000 10290 20270 30023 40043 333 59012 70000==
41886,2023,09,22,00,00,AAXX 22004 41886 21440 80000 10261 20260 30064 40085 72996 8592/ 333 58004 60189 70326 83616 88458 81930==
41886,2023,09,22,03,00,AAXX 22034 41886 01456 70000 10286 20270 30080 40100 70192 84470 333 20254 58000 70316 83618 86460==
41886,2023,09,22,06,00,AAXX 22064 41886 01456 70000 10310 20260 30073 40094 70296 84470 333 58003 70020 83618 85460==
41886,2023,09,22,09,00,AAXX 22094 41886 02456 70000 10307 20270 30045 40065 84470 333 58008 70336 83618 85460==
41886,2023,09,22,12,00,AAXX 22124 41886 01450 80000 10262 20250 30057 40077 72996 8352/ 333 10318 58002 70080 83618 88460==
41886,2023,09,22,15,00,AAXX 22154 41886 01450 80000 10257 20250 30076 40096 79596 8532/ 333 58001 70360 83618 88460 81930==
41886,2023,09,22,21,00,AAXX 22214 41886 02440 80000 10263 20260 30076 40096 8352/ 333 58014 70210 83618 88460==
41886,2023,09,23,00,00,AAXX 23004 41886 02450 80000 10267 20260 30060 40080 8352/ 333 59003 70170 83618 88460==
41886,2023,09,23,03,00,AAXX 23034 41886 02450 80000 10290 20270 30086 40106 8352/ 333 20257 58006 70170 83618 88460==
41886,2023,09,23,06,00,AAXX 23064 41886 11450 80000 10280 20260 30074 40094 60116 70296 8352/ 333 58000 70260 83618 88460==
41886,2023,09,23,09,00,AAXX 23094 41886 01456 80000 10260 20250 30058 40078 79596 8432/ 333 58013 70260 83618 88460 81930==
41886,2023,09,23,12,00,AAXX 23124 41886 11450 80000 10270 20260 30059 40079 60086 70296 8352/ 333 10296 58002 70260 83618 88460==
41886,2023,09,23,15,00,AAXX 23154 41886 02450 80000 10267 20260 30076 40096 8352/ 333 58000 70220 83618 88460==
41886,2023,09,23,18,00,AAXX 23184 41886 02450 80000 10265 20250 30079 40099 8352/ 333 59001 70190 83618 88460==
41886,2023,09,23,21,00,AAXX 23214 41886 02440 80000 10265 20250 30076 40096 8352/ 333 58000 70190 83618 88460==
41886,2023,09,24,00,00,AAXX 24004 41886 01450 80000 10264 20250 30055 40075 70262 8352/ 333 59004 70050 83618 88460==
41886,2023,09,24,03,00,AAXX 24034 41886 02456 71302 10285 20270 30073 40093 84470 333 20258 59013 70240 83618 86460==
41886,2023,09,24,06,00,AAXX 24064 41886 02456 71302 10314 20260 30059 40079 84470 333 59015 70130 83618 86460==
41886,2023,09,24,09,00,AAXX 24094 41886 01456 80000 10280 20260 30029 40049 72996 8451/ 333 59029 70206 84616 88458==
41886,2023,09,24,12,00,AAXX 24124 41886 01456 80000 10260 20250 30044 40065 72196 8537/ 333 10320 59015 70384 85616 88458 81930==
41886,2023,09,24,15,00,AAXX 24154 41886 02450 80000 10260 20250 30053 40074 8537/ 333 59023 70384 85616 88458 81930==
41886,2023,09,24,18,00,AAXX 24184 41886 02450 80000 10260 20250 30054 40075 8452/ 333 59025 70384 84616 88458==
41886,2023,09,24,21,00,AAXX 24214 41886 02450 80000 10260 20250 30050 40071 8352/ 333 59026 70384 83616 88458==
41886,2023,09,25,00,00,AAXX 25004 41886 02456 80000 10264 20250 30063 40084 8252/ 333 58008 70334 82616 88458==
41886,2023,09,25,03,00,AAXX 25034 41886 02456 70000 10290 20260 30070 40090 85570 333 20256 59003 70334 85616 86460==
41886,2023,09,25,06,00,AAXX 25064 41886 02457 60000 10318 20260 30057 40077 83470 333 59002 70334 82617 85460==
41886,2023,09,25,09,00,AAXX 25094 41886 02457 80000 10310 20260 30033 40053 8332/ 333 58004 70178 83616 88458 81930==
41886,2023,09,25,12,00,AAXX 25124 41886 02456 80000 10293 20270 30034 40054 8331/ 333 10325 59010 70000 83616 88458 81930==
41886,2023,09,25,15,00,AAXX 25154 41886 02/50 30000 10285 20280 30054 40074 83030 333 58001 70000==
41886,2023,09,25,18,00,AAXX 25184 41886 02/50 30000 10279 20270 30000 40079 83030 333 58005 70000 83365==
41886,2023,09,25,21,00,AAXX 25214 41886 02440 20000 10275 20270 30054 40074 82500 333 58004 70000 82618==
41886,2023,09,26,00,00,AAXX 26004 41886 01430 60000 10270 20270 30052 40072 71042 82510 333 59011 70000 82618 86460==
41886,2023,09,26,03,00,AAXX 26034 41886 02456 40000 10310 20260 30072 40092 83470 333 20268 58002 70000 82648 84460==
41886,2023,09,26,06,00,AAXX 26064 41886 01457 60000 10327 20260 30055 40075 70342 84470 333 59002 70000 82618 85460==
41886,2023,09,26,09,00,AAXX 26094 41886 01457 30000 10312 20260 30033 40053 70192 83500 333 58000 70000 83618==
41886,2023,09,26,12,00,AAXX 26124 41886 02956 00000 10310 20260 30027 40047 333 10338 59007 70000==
41886,2023,09,26,15,00,AAXX 26154 41886 02956 00000 10290 20280 30049 40069 333 59005 70000==
41886,2023,09,26,18,00,AAXX 26184 41886 NIL=
41886,2023,09,26,21,00,AAXX 26214 41886 02940 00000 10275 20260 30050 40070 333 59004 70000==
41886,2023,09,27,00,00,AAXX 27004 41886 01920 00000 10270 20270 30051 40071 71044 333 59001 70000==
41886,2023,09,27,03,00,AAXX 27034 41886 01456 30000 10320 20270 30068 40088 70141 83500 333 20268 59004 70000 83618==
41886,2023,09,27,06,00,AAXX 27064 41886 02457 60000 10330 20250 30050 40070 84470 333 59005 70000 83618 85460==
41886,2023,09,27,09,00,AAXX 27093 41886 02457 60000 10325 20290 30019 40039 84470 333 59014 70000 83618 85460==
41886,2023,09,27,12,00,AAXX 27124 41886 02456 60000 10320 20240 30012 40032 84470 333 10347 59015 70000 83618 85460==
41886,2023,09,27,15,00,AAXX 27154 41886 02456 60000 10300 20270 30035 40055 84430 333 59014 70000 83618 85365==
41886,2023,09,27,18,00,AAXX 27184 41886 02450 60000 10290 20280 30039 40059 84430 333 59013 70000 83618 85365==
41886,2023,09,27,21,00,AAXX 27214 41886 02950 00000 10275 20260 30036 40056 333 59014 70000==
41886,2023,09,28,00,00,AAXX 28004 41886 01950 00000 10270 20260 30037 40057 70500 333 59014 70000==
41886,2023,09,28,03,00,AAXX 28034 41886 02957 00000 10320 20270 30053 40073 333 20269 59015 70000==
41886,2023,09,28,06,00,AAXX 28064 41886 02457 30000 10340 20280 30045 40065 83500 333 59005 70000 83618==
41886,2023,09,28,09,00,AAXX 28094 41886 02457 30000 10352 20270 30007 40028 81130 333 59011 70000 81825==
41886,2023,09,28,12,00,AAXX 28124 41886 02556 70000 10330 20270 39998 40018 81131 333 10260 59014 70000 81825 83362 87080==
41886,2023,09,28,13,00,AAXX 28134 41886 02556 70000 10330 20270 39998 40018 81131 333 10260 59014 70000 81825 83362 87080==
41886,2023,09,28,15,00,AAXX 28154 41886 02/40 60000 10306 20290 30017 40037 83031 333 59018 70000 83362 86080==
41886,2023,09,28,18,00,AAXX 28184 41886 02/40 60000 10291 20280 30028 40048 83031 333 59011 70000 83362 86080==
41888,2023,09,22,00,00,AAXX 22004 41888 11340 80901 10260 20260 30071 40081 60499 72996 8462/ 333 56999 58000 71568 82710 84616 88458=
41888,2023,09,22,06,00,AAXX 22064 41888 11340 80904 10300 20260 30084 40094 69943 76062 8372/ 333 56999 58003 71560 81710 83616 88459=
41888,2023,09,22,12,00,AAXX 22124 41888 11450 80905 10279 20260 30065 40075 60033 76162 8432/ 333 10305 56299 58001 70841 82710 83616 81930 88460=
41888,2023,09,22,18,00,AAXX 22184 41888 11450 80902 10268 20260 30082 40092 60103 76162 8432/ 333 56299 58006 70629 81710 83618 81930 88460=
41888,2023,09,23,00,00,AAXX 23004 41888 11450 80905 10267 20260 30077 40087 60013 72162 8462/ 333 56299 58006 70146 81710 84616 88460=
41888,2023,09,23,06,00,AAXX 23064 41888 11340 80903 10260 20250 30080 40090 60304 76362 8532/ 333 56299 59004 70442 82709 84615 81930 88457=
41888,2023,09,23,12,00,AAXX 23124 41888 11450 80903 10265 20260 30067 40077 60048 70262 8452/ 333 10295 56999 58002 70451 84618 88460=
41888,2023,09,23,18,00,AAXX 23184 41888 32440 20901 10260 20260 30077 40087 82500 333 56900 59005 70351 82618=
41888,2023,09,24,00,00,AAXX 24004 41888 11440 60901 10260 20250 30065 40075 60014 70162 82520 333 56990 59012 70354 82618 86460=
41888,2023,09,24,06,00,AAXX 24064 41888 11456 40901 10298 20260 30071 40081 60015 70162 84400 333 56900 59009 70064 81618 83820=
41888,2023,09,24,12,00,AAXX 24124 41888 11340 82704 10260 20240 30050 40060 60043 79562 8532/ 333 10310 56399 59017 70064 82709 83615 81930 88459=
41888,2023,09,24,18,00,AAXX 24184 41888 11440 60901 10256 20250 30061 40071 60026 70162 82510 333 56990 59016 70088 82618 86460=
41888,2023,09,25,00,00,AAXX 25004 41888 32440 80901 10260 20250 30062 40072 8352/ 333 56999 59003 70084 83618 88460=
41888,2023,09,25,06,00,AAXX 25064 41888 32456 40902 10300 20260 30064 40074 82510 333 56990 59007 70064 82618 84460=
41888,2023,09,25,12,00,AAXX 25124 41888 32956 20904 10295 20260 30037 40047 80001 333 10315 56009 59013 70024 82080=
41888,2023,09,25,18,00,AAXX 25184 41888 32440 40000 10275 20270 30065 40075 82510 333 56990 58004 70000 82618 84460=
41888,2023,09,26,00,00,AAXX 26004 41888 32940 40901 10265 20260 30060 40070 83030 333 56090 59002 70000 84365=
41888,2023,09,26,06,00,AAXX 26064 41888 32457 40902 10324 20250 30062 40072 84400 333 56900 59002 70000 81618 84820=
41888,2023,09,26,12,00,AAXX 26124 41888 NIL=
41888,2023,09,26,18,00,AAXX 26184 41888 32940 30000 10280 20260 30000 40074 80001 333 56009 59001 70000 83080=
41888,2023,09,27,00,00,AAXX 27004 41888 31940 33301 10272 20270 30057 40067 70521 80001 333 56009 59003 70000 83080=
41888,2023,09,27,06,00,AAXX 27064 41888 11456 62702 10310 20270 30050 40060 69934 70362 83410 333 56990 59012 70003 82618 86460=
41888,2023,09,27,12,00,AAXX 27124 41888 32956 62701 10318 20270 30015 40025 80001 333 10350 56009 70003 86080=
41888,2023,09,27,18,00,AAXX 27184 41888 31940 43101 10280 20270 30041 40051 70521 80001 333 56009 59023 70000 82080=
41888,2023,09,28,00,00,AAXX 28004 41888 31920 10000 10266 20266 30042 40052 71040 80001 333 56009 59015 70000 81080=
41888,2023,09,28,06,00,AAXX 28064 41888 31956 20901 10340 20260 30043 40053 70240 82400 333 56900 59007 70000 81618=
41888,2023,09,28,12,00,AAXX 28124 41888 32958 63601 10326 20280 30002 40012 80001 333 10366 56009 59013 70000 86080=
41888,2023,09,28,18,00,AAXX 28184 41888 NIL=
41891,2023,09,22,00,00,AAXX 22004 41891 01430 81003 10255 20250 30054 40093 70522 8532/ 333 58006 70270 82710 84615 88459 81930==
41891,2023,09,22,03,00,AAXX 22034 41891 01435 81304 10280 20260 30074 40112 70522 8532/ 333 20250 58001 70268 82710 84615 88459 81930==
41891,2023,09,22,06,00,AAXX 22064 41891 01440 70502 10304 20250 30062 40100 70522 84370 333 58003 70266 84615 86460 81930==
41891,2023,09,22,09,00,AAXX 22094 41891 01320 82702 10270 20260 30036 40074 79596 8632/ 333 58011 70346 86708 88458 81925==
41891,2023,09,22,12,00,AAXX 22124 41891 21430 80902 10258 20240 30047 40086 72996 8532/ 333 10322 58002 60137 70242 83710 84615 88458 81930==
41891,2023,09,22,15,00,AAXX 22154 41891 01430 80902 10255 20250 30065 40103 70522 85370 333 59001 70150 81710 83616 84364 81928==
41891,2023,09,22,18,00,AAXX 22184 41891 01430 80703 10255 20250 30060 40098 70522 8632/ 333 58004 70134 82710 83616 88458 81928==
41891,2023,09,22,21,00,AAXX 22214 41891 01430 80703 10255 20250 30046 40085 70522 8632/ 333 59002 70134 82710 83616 88458 81928==
41891,2023,09,23,00,00,AAXX 23004 41891 01430 80903 10255 20250 30046 40085 70522 8632/ 333 59008 70134 82710 83616 88458 81928==
41891,2023,09,23,03,00,AAXX 23034 41891 01445 60902 10294 20240 30077 40115 70522 83340 333 20250 58003 70134 83615 85365 81930==
41891,2023,09,23,06,00,AAXX 23064 41891 01445 71304 10310 20250 30059 40097 70522 84370 333 59003 70134 84615 86460 81930==
41891,2023,09,23,09,00,AAXX 23094 41891 01440 82708 10300 20250 30042 40080 70522 8532/ 333 58006 70054 82710 84615 88459 81930==
41891,2023,09,23,12,00,AAXX 23124 41891 01435 80000 10258 20240 30043 40082 72996 8532/ 333 10332 59004 70050 82710 84615 88459 81930==
41891,2023,09,23,15,00,AAXX 23154 41891 01430 80903 10255 20250 30061 40100 70522 8532/ 333 59004 70046 81710 84615 88459 81930==
41891,2023,09,23,18,00,AAXX 23184 41891 01430 80903 10251 20240 30056 40095 70522 8532/ 333 59004 70046 81710 84615 88459 81930==
41891,2023,09,23,21,00,AAXX 23214 41891 01430 80803 10253 20240 30044 40083 70522 8532/ 333 59002 70046 81710 84615 88459 81930==
41891,2023,09,24,00,00,AAXX 24004 41891 01430 80603 10254 20240 30048 40087 70522 8532/ 333 58002 70046 82710 84615 88459 81930==
41891,2023,09,24,03,00,AAXX 24034 41891 01440 60902 10300 20250 30063 40101 70522 83340 333 20250 59014 70046 83615 85365 81930==
41891,2023,09,24,06,00,AAXX 24064 41891 01450 61802 10324 20230 30045 40083 70522 83340 333 59014 70046 83615 85365 81930==
41891,2023,09,24,09,00,AAXX 24094 41891 01445 50902 10328 20250 30012 40049 70522 82340 333 59030 70046 82615 84365 81930==
41891,2023,09,24,12,00,AAXX 24124 41891 01440 70502 10298 20260 30023 40061 70522 84370 333 10335 59020 70000 84615 86460 81930==
41891,2023,09,24,15,00,AAXX 24154 41891 41330 80303 10260 20250 30042 40080 76062 8532/ 333 59019 84710 88458 81930==
41891,2023,09,24,18,00,AAXX 24184 41891 21330 81103 10260 20250 30035 40073 70596 8532/ 333 59009 60008 84710 88458 81930==
41891,2023,09,24,21,00,AAXX 24214 41891 41330 81103 10260 20250 30030 40068 70596 8532/ 333 59014 84710 88458 81930==
41891,2023,09,25,00,00,AAXX 25004 41891 01330 80903 10260 20250 30030 40068 70522 8532/ 333 59009 70000 85708 88458 81928==
41891,2023,09,25,03,00,AAXX 25034 41891 01440 60902 10294 20250 30053 40091 70566 83340 333 20258 59010 70064 83615 85365 81930==
41891,2023,09,25,06,00,AAXX 25064 41891 11445 61504 10308 20270 30041 40080 60066 70562 83340 333 59004 70064 83615 85365 81930==
41891,2023,09,25,09,00,AAXX 25094 41891 01450 53102 10328 20250 30011 40048 70522 82340 333 59001 70064 82615 84365 81930==
41891,2023,09,25,12,00,AAXX 25124 41891 01435 43602 10308 20270 30009 40047 70522 81340 333 10338 59014 70046 81615 84365 81930==
41891,2023,09,25,15,00,AAXX 25154 41891 01435 53202 10280 20260 30030 40068 70522 82340 333 59012 70064 82615 84365 81930==
41891,2023,09,25,18,00,AAXX 25184 41891 01430 63502 10273 20260 30035 40073 70522 83340 333 58000 70064 83615 85365 81930==
41891,2023,09,25,21,00,AAXX 25214 41891 01430 82702 10270 20260 30032 40070 70522 8532/ 333 58002 70064 82710 84615 88459 81930==
41891,2023,09,26,00,00,AAXX 26004 41891 01320 82102 10267 20260 30038 40076 79596 8632/ 333 59001 70050 86708 88458 81925==
41891,2023,09,26,03,00,AAXX 26034 41891 01440 51204 10315 20270 30050 40088 70596 82330 333 20265 59003 70048 82615 85365 81930==
41891,2023,09,26,06,00,AAXX 26064 41891 11450 51702 10328 20250 30032 40070 60001 70596 82330 333 59009 70048 82615 85365 81930==
41891,2023,09,26,09,00,AAXX 26094 41891 01450 62704 10340 20260 30003 40040 70522 83340 333 59008 70048 83615 85365 81930==
41891,2023,09,26,12,00,AAXX 26124 41891 01438 52802 10308 20260 30004 40042 70522 82340 333 10348 59005 70048 82615 84365 81930==
41891,2023,09,26,15,00,AAXX 26154 41891 01430 32803 10292 20260 30030 40068 70522 82330 333 58000 70048 81616 83365 81930==
41891,2023,09,26,18,00,AAXX 26184 41891 01930 00703 10280 20260 30036 40074 70510 333 58001 70048==
41891,2023,09,26,21,00,AAXX 26214 41891 42930 00903 10275 20270 30036 40074 59004==
41891,2023,09,27,00,00,AAXX 27004 41891 01930 80903 10270 20260 30029 40068 70500 8537/ 333 59009 70000 84616 86365 81930==
41891,2023,09,27,03,00,AAXX 27034 41891 01440 61702 10306 20270 30047 40085 70521 83340 333 20270 59003 70000 83615 85365 81930==
41891,2023,09,27,06,00,AAXX 27064 41891 01445 82003 10314 20260 30028 40066 70522 8532/ 333 59004 70000 81710 84615 88460 81930==
41891,2023,09,27,09,00,AAXX 27094 41891 01445 72303 10330 20260 39994 40031 70522 84370 333 59009 70000 84615 86460 81930==
41891,2023,09,27,12,00,AAXX 27124 41891 01440 63102 10302 20270 39985 40023 70522 83340 333 10340 59019 70000 83615 85365 81930==
41891,2023,09,27,15,00,AAXX 27154 41891 01435 83203 10292 20270 30010 40048 70522 83340 333 59020 70000 83615 85365 81930==
41891,2023,09,27,18,00,AAXX 27184 41891 01435 60303 10283 20270 30013 40051 70522 83340 333 59023 70000 83615 85365 81930==
41891,2023,09,27,21,00,AAXX 27214 41891 42435 60603 10276 20270 30008 40046 59028 85365==
41891,2023,09,28,00,00,AAXX 28004 41891 01430 40303 10275 20270 30014 40052 70522 82330 333 59015 70000 81615 83365 81930==
41891,2023,09,28,03,00,AAXX 28034 41891 01945 00904 10312 20270 30030 40068 70522 333 20270 59017 70000==
41891,2023,09,28,06,00,AAXX 28064 41891 01950 01502 10350 20260 30017 40054 70520 333 59011 70000==
41891,2023,09,28,09,00,AAXX 28094 41891 01450 32703 10360 20270 39979 40016 70500 81530 333 59015 70000 81615 83365==
41891,2023,09,28,12,00,AAXX 28124 41891 01440 33102 10324 20270 39975 40012 70510 81540 333 10367 59010 70000 81615 83364==
41891,2023,09,28,15,00,AAXX 28154 41891 02430 23003 10311 20270 39993 40031 81530 333 59017 70000 81616 82365==
41891,2023,09,28,18,00,AAXX 28184 41891 01930 03503 10311 20280 30005 40043 70510 333 59008 70000==
41891,2023,09,28,21,00,AAXX 28214 41891 01930 00903 10287 20280 30001 40039 70500 333 59008 70000==
41895,2023,09,22,00,00,AAXX 22004 41895 02450 80901 10268 20268 30042 40065 8452/ 333 58007 70048 84615 88458==
41895,2023,09,22,03,00,AAXX 22034 41895 02456 60902 10300 20280 30062 40084 83520 333 20266 58009 70048 83616 86458==
41895,2023,09,22,06,00,AAXX 22064 41895 01450 81302 10266 20260 30058 40081 76122 8452/ 333 58010 70160 84615 88458==
41895,2023,09,22,09,00,AAXX 22094 41895 01450 80902 10280 20270 30033 40055 76166 8452/ 333 58013 70218 84615 88458==
41895,2023,09,22,12,00,AAXX 22124 41895 21450 80904 10275 20270 30035 40057 70262 8452/ 333 10325 58004 60068 70218 84615 88458==
41895,2023,09,22,15,00,AAXX 22154 41895 02450 80903 10270 20260 30057 40079 8352/ 333 58006 70218 83616 88458==
41895,2023,09,22,18,00,AAXX 22184 41895 02450 80904 10265 20265 30055 40077 8352/ 333 58007 70218 83616 88458==
41895,2023,09,22,21,00,AAXX 22214 41895 02450 80902 10270 20270 30046 40068 8352/ 333 58004 70218 83616 88458==
41895,2023,09,23,00,00,AAXX 23004 41895 02450 80904 10275 20270 30042 40064 8452/ 333 58000 70218 84615 88458==
41895,2023,09,23,03,00,AAXX 23034 41895 01456 61304 10295 20280 30067 40089 70162 83520 333 20260 58005 70248 83616 86458==
41895,2023,09,23,06,00,AAXX 23064 41895 11457 51304 10315 20280 30056 40078 60036 70162 83520 333 59002 70088 83616 85458==
41895,2023,09,23,09,00,AAXX 23094 41895 02456 61303 10316 20280 30035 40057 83470 333 58002 70030 83616 86458==
41895,2023,09,23,12,00,AAXX 23124 41895 02450 81302 10293 20260 30034 40056 8452/ 333 10330 59001 70030 84615 88458==
41895,2023,09,23,15,00,AAXX 23154 41895 02450 60902 10273 20260 30056 40078 83510 333 59001 70030 83616 86458==
41895,2023,09,23,18,00,AAXX 23184 41895 02450 60902 10266 20260 30058 40080 83510 333 58003 70030 83616 86458==
41895,2023,09,23,21,00,AAXX 23214 41895 02450 61303 10268 20268 30034 40056 83520 333 59012 70030 83616 86458==
41895,2023,09,24,00,00,AAXX 24004 41895 02450 81302 10273 20260 30032 40054 8452/ 333 59010 70030 84615 88458==
41895,2023,09,24,03,00,AAXX 24034 41895 02450 81803 10292 20270 30053 40075 8452/ 333 20268 59014 70000 84615 88458==
41895,2023,09,24,06,00,AAXX 24064 41895 01456 81802 10314 20280 30043 40065 70262 8452/ 333 59013 70050 84615 88458==
41895,2023,09,24,09,00,AAXX 24094 41895 02456 81304 10320 20270 30013 40035 8352/ 333 59022 70048 83616 88458==
41895,2023,09,24,12,00,AAXX 24124 41895 21450 80902 10250 20250 30023 40046 79596 8532/ 333 10337 59011 60389 70430 84614 88458 81930==
41895,2023,09,24,15,00,AAXX 24154 41895 01450 80901 10255 20250 30043 40066 70296 8452/ 333 59013 70452 84615 88458==
41895,2023,09,24,18,00,AAXX 24184 41895 11450 80000 10255 20255 30041 40064 60026 70296 8452/ 333 59017 70452 84615 88458==
41895,2023,09,24,21,00,AAXX 24214 41895 02450 80000 10260 20260 30037 40059 8452/ 333 58003 70452 84615 88458==
41895,2023,09,25,00,00,AAXX 25004 41895 02450 80000 10270 20260 30042 40064 8452/ 333 58010 70452 84615 88458==
41895,2023,09,25,03,00,AAXX 25034 41895 02450 81302 10286 20280 30059 40081 8452/ 333 20250 58006 70452 84615 88458==
41895,2023,09,25,06,00,AAXX 25064 41895 02450 80502 10306 20280 30049 40071 8532/ 333 58006 70404 84615 88458 81930==
41895,2023,09,25,09,00,AAXX 25094 41895 01450 80502 10280 20270 30032 40054 79596 8452/ 333 58019 70574 84615 88458 81930==
41895,2023,09,25,12,00,AAXX 25124 41895 21450 80000 10272 20260 30025 40047 70296 8452/ 333 10310 58002 60188 70202 84615 88458==
41895,2023,09,25,15,00,AAXX 25154 41895 02450 80000 10268 20260 30045 40068 8452/ 333 58002 70180 84615 88458==
41895,2023,09,25,18,00,AAXX 25184 41895 02450 80000 10266 20260 30051 40073 8452/ 333 58010 70180 84615 88458==
41895,2023,09,25,21,00,AAXX 25214 41895 02450 80000 10264 20250 30034 40057 8452/ 333 59003 70180 84615 88458==
41895,2023,09,26,00,00,AAXX 26004 41895 02450 80000 10260 20250 30045 40068 8452/ 333 58003 70180 84615 88458==
41895,2023,09,26,03,00,AAXX 26034 41895 01456 80000 10284 20270 30064 40086 70522 8452/ 333 20254 58005 70180 84615 88458==
41895,2023,09,26,06,00,AAXX 26064 41895 01456 51302 10320 20270 30053 40075 70522 83510 333 58004 70180 83616 85458==
41895,2023,09,26,09,00,AAXX 26094 41895 02456 61301 10340 20260 30026 40048 83470 333 59006 70010 83616 86458==
41895,2023,09,26,12,00,AAXX 26124 41895 02450 50501 10303 20260 30020 40042 83510 333 10346 59005 70000 83616 85458==
41895,2023,09,26,15,00,AAXX 26154 41895 02450 50000 10284 20270 30045 40067 83520 333 58000 70000 83616 85458==
41895,2023,09,26,18,00,AAXX 26184 41895 02450 50000 10272 20260 30051 40073 83520 333 58000 70000 83616 85458==
41895,2023,09,26,21,00,AAXX 26214 41895 02450 50000 10270 20270 30051 40073 83520 333 58017 70000 83616 85458==
41895,2023,09,27,00,00,AAXX 27004 41895 01450 50000 10274 20270 30049 40071 70522 83520 333 58004 70000 83616 85458==
41895,2023,09,27,03,00,AAXX 27034 41895 01456 21301 10304 20260 30065 40087 70521 82500 333 20270 58001 70000 82616==
41895,2023,09,27,06,00,AAXX 27064 41895 02457 41302 10336 20270 30047 40069 84800 333 59006 70000 82616 83825==
41895,2023,09,27,09,00,AAXX 27094 41895 02457 63101 10350 20270 30016 40037 83400 333 59010 70000 81617 83825==
41895,2023,09,27,12,00,AAXX 27124 41895 02456 60000 10315 20290 30011 40033 83520 333 10360 59009 70000 83616 86458==
41895,2023,09,27,15,00,AAXX 27154 41895 02950 00000 10290 20280 30034 40057 333 59011 70000==
41895,2023,09,27,18,00,AAXX 27184 41895 02950 00000 10285 20280 30036 40058 333 59019 70000==
41895,2023,09,27,21,00,AAXX 27214 41895 02950 00000 10280 20270 30031 40053 333 59020 70000==
41895,2023,09,28,00,00,AAXX 28004 41895 01950 00000 10280 20270 30039 40061 70500 333 59010 70000==
41895,2023,09,28,03,00,AAXX 28034 41895 01956 00902 10310 20270 30051 40073 70500 333 20275 59014 70000==
41895,2023,09,28,06,00,AAXX 28064 41895 02457 33602 10344 20260 30044 40065 83400 333 59003 70000 82616 83820==
41895,2023,09,28,09,00,AAXX 28094 41895 02457 33601 10350 20270 30010 40032 83400 333 59006 70000 82616 83820==
41895,2023,09,28,12,00,AAXX 28124 41895 02450 53601 10316 20280 30002 40024 83520 333 10356 59009 70000 83616 85458==
41895,2023,09,28,15,00,AAXX 28154 41895 02450 53601 10296 20290 30020 40042 83520 333 59014 70000 83616 85458==
41895,2023,09,28,18,00,AAXX 28184 41895 02450 50000 10294 20280 30029 40052 83520 333 59007 70000 83616 85458==
41897,2023,09,22,00,00,AAXX 22004 41897 32450 50902 10270 20260 30059 40072 81510 333 56290 58009 70058 81618 85458=
41897,2023,09,22,06,00,AAXX 22064 41897 11450 61302 10310 20260 30067 40080 60026 72162 82510 333 56990 58005 70075 82617 86458=
41897,2023,09,22,12,00,AAXX 22124 41897 11456 70901 10265 20260 30052 40065 60189 70196 83510 333 10313 56990 58008 70209 83617 87458=
41897,2023,09,23,00,00,AAXX 23004 41897 31450 81801 10274 20260 30059 40072 70522 8352/ 333 56990 58000 70200 83618 88458=
41897,2023,09,23,06,00,AAXX 23064 41897 11456 61802 10291 20260 30069 40082 60033 70296 82510 333 56990 58002 70210 82618 86458=
41897,2023,09,23,12,00,AAXX 23124 41897 32450 70000 10280 20250 30050 40063 83510 333 10305 56990 59002 70030 83618 87458=
41897,2023,09,23,18,00,AAXX 23184 41897 32450 61801 10269 20260 30062 40075 82530 333 56990 59005 70030 82618 86362=
41897,2023,09,24,00,00,AAXX 24004 41897 11450 81301 10270 20260 30049 40062 60055 70562 8352/ 333 56999 59010 70080 83618 88458=
41897,2023,09,24,06,00,AAXX 24064 41897 11456 60000 10285 20270 30053 40066 60064 72162 82510 333 56990 59016 70110 82618 86458=
41897,2023,09,24,12,00,AAXX 24124 41897 11450 73601 10280 20260 30041 40054 60013 70362 83510 333 10315 56990 59009 70120 83618 87458=
41897,2023,09,24,18,00,AAXX 24184 41897 NIL=
41897,2023,09,25,00,00,AAXX 25004 41897 32450 70000 10267 20260 30054 40067 83510 333 56990 58005 70070 83618 87458=
41897,2023,09,25,06,00,AAXX 25064 41897 11450 60000 10315 20260 30055 40068 60013 72162 82510 333 56990 58002 70016 82618 86458=
41897,2023,09,25,12,00,AAXX 25124 41897 31450 83602 10275 20260 30034 40047 71792 8432/ 333 10335 56999 58008 70006 83617 81929 88458=
41897,2023,09,25,18,00,AAXX 25184 41897 NIL=
41897,2023,09,26,00,00,AAXX 26004 41897 32950 01802 10265 20260 30054 40067 333 58000 70006=
41897,2023,09,26,06,00,AAXX 26064 41897 32456 51802 10330 20250 30059 40071 82510 333 56490 58005 70000 82618 85458=
41897,2023,09,26,12,00,AAXX 26124 41897 32950 01801 10310 20270 30035 40048 333 10345 58001 70000=
41897,2023,09,26,18,00,AAXX 26184 41897 31940 00902 10285 20285 30060 40073 70500 333 58001 70000=
41897,2023,09,27,00,00,AAXX 27004 41897 11440 80000 10277 20270 30055 40068 60038 70262 8252/ 333 56999 58001 70030 82617 88458=
41897,2023,09,27,06,00,AAXX 27064 41897 11456 33602 10326 20260 30052 40065 60118 70162 81510 333 56990 59007 70140 81618 83458=
41897,2023,09,27,12,00,AAXX 27124 41897 31940 00501 10305 20300 30016 40029 70500 333 10350 59019 70140=
41897,2023,09,28,00,00,AAXX 28004 41897 31940 00000 10275 20260 30044 40057 70500 333 59011 70110=
41897,2023,09,28,06,00,AAXX 28064 41897 32456 30502 10340 20260 30052 40065 82530 333 56290 58000 70000 82618 83362=
41897,2023,09,28,12,00,AAXX 28124 41897 32950 23101 10325 20280 30002 40015 82030 333 10366 56090 59014 70000 82361=
41897,2023,09,28,18,00,AAXX 28184 41897 NIL=
41902,2023,09,22,00,00,AAXX 22004 41902 11440 61801 10267 20260 30066 40074 60014 70262 84610 333 56490 58004 70130 82710 83614 86459=
41902,2023,09,22,06,00,AAXX 22064 41902 11450 81801 10293 20260 30075 40083 60054 76322 8462/ 333 56499 58006 70170 83614 88459=
41902,2023,09,22,12,00,AAXX 22124 41902 11450 71301 10280 20260 30060 40068 60036 70362 83520 333 10320 56990 58005 70089 83615 87459=
41902,2023,09,22,18,00,AAXX 22184 41902 32440 71301 10270 20260 30072 40081 83520 333 56990 58005 70089 83615 87459=
41902,2023,09,23,00,00,AAXX 23004 41902 32350 71801 10267 20260 30072 40081 84620 333 56990 58006 70079 82710 83615 87459=
41902,2023,09,23,06,00,AAXX 23064 41902 11420 83104 10295 20270 30080 40088 69984 79522 8692/ 333 56999 58005 70037 84612 81925 88458=
41902,2023,09,23,12,00,AAXX 23124 41902 11440 71801 10265 20250 30060 40069 60386 70296 82520 333 10327 56990 58000 70391 82615 87459=
41902,2023,09,23,18,00,AAXX 23184 41902 32440 23601 10260 20250 30071 40080 82500 333 56900 59001 70391 82616=
41902,2023,09,24,00,00,AAXX 24004 41902 32440 72701 10265 20260 30061 40070 82510 333 56990 59011 70391 82615 87459=
41902,2023,09,24,06,00,AAXX 24064 41902 11450 60502 10310 20270 30064 40072 60078 70196 82410 333 56990 58016 70456 82615 86459=
41902,2023,09,24,12,00,AAXX 24124 41902 11450 81402 10265 20250 30038 40047 60183 70396 8532/ 333 10320 56999 59022 70255 84614 81928 88458=
41902,2023,09,24,18,00,AAXX 24184 41902 32440 71801 10272 20250 30052 40061 83520 333 56990 59019 70255 83615 87459=
41902,2023,09,25,00,00,AAXX 25004 41902 32440 61801 10270 20260 30052 40061 82530 333 56990 59009 70255 82616 86362=
41902,2023,09,25,06,00,AAXX 25064 41902 32440 60502 10328 20280 30056 40064 85330 333 56990 59008 70182 82615 81928 86362=
41902,2023,09,25,12,00,AAXX 25124 41902 31450 82204 10285 20250 30039 40047 71722 8692/ 333 10330 56999 58001 70000 84615 81928 88458=
41902,2023,09,25,18,00,AAXX 25184 41902 11440 13101 10262 20250 30056 40065 69966 70162 81500 333 56900 58004 70006 81616=
41902,2023,09,26,00,00,AAXX 26004 41902 32440 20000 10260 20260 30053 40062 82500 333 56900 58001 70006 82616=
41902,2023,09,26,06,00,AAXX 26064 41902 32450 50501 10330 20260 30060 40068 82470 333 56990 59004 70006 82616 85362=
41902,2023,09,26,12,00,AAXX 26124 41902 32440 22801 10302 20270 30036 40044 82400 333 10340 56900 59003 70006 82616=
41902,2023,09,26,18,00,AAXX 26184 41902 32430 22801 10286 20280 30060 40068 82400 333 56900 58004 70000 82616=
41902,2023,09,27,00,00,AAXX 27004 41902 32440 52201 10265 20260 30058 40067 82470 333 56990 58005 70000 82616 85362=
41902,2023,09,27,06,00,AAXX 27064 41902 32450 53201 10327 20250 30049 40057 82470 333 56990 59011 70000 82616 85362=
41902,2023,09,27,12,00,AAXX 27124 41902 32440 53201 10298 20280 30019 40027 82470 333 20335 56990 59017 70000 82616 85362=
41902,2023,09,27,18,00,AAXX 27184 41902 32440 70000 10280 20270 30032 40040 82510 333 56990 59028 70000 82615 87459=
41902,2023,09,28,00,00,AAXX 28004 41902 32440 22801 10274 20260 30040 40048 82500 333 56900 59018 70000 82616=
41902,2023,09,28,06,00,AAXX 28064 41902 32456 03601 10350 20260 30039 40048 333 59010 70000=
41902,2023,09,28,12,00,AAXX 28124 41902 32450 03601 10318 20280 30010 40019 333 10365 59009 70000=
41902,2023,09,28,18,00,AAXX 28184 41902 NIL=
41907,2023,09,22,00,00,AAXX 22004 41907 02340 80000 10263 20260 30048 40063 8662/ 333 58007 70094 85709 88458==
41907,2023,09,22,03,00,AAXX 22034 41907 02350 80905 10300 20270 30070 40085 8662/ 333 20256 58012 70094 82709 85615 88458==
41907,2023,09,22,06,00,AAXX 22064 41907 01340 81302 10278 20260 30061 40075 79562 8692/ 333 59011 70030 83709 85615 88458==
41907,2023,09,22,09,00,AAXX 22094 41907 01340 80000 10265 20260 30040 40055 72996 8662/ 333 58015 70170 82709 85615 88458==
41907,2023,09,22,12,00,AAXX 22124 41907 21340 80000 10268 20260 30045 40059 70296 8662/ 333 10322 58017 60118 70140 82709 85615 88458==
41907,2023,09,22,15,00,AAXX 22154 41907 02340 81302 10270 20260 30061 40076 8662/ 333 58002 70140 85709 88458==
41907,2023,09,22,18,00,AAXX 22184 41907 02340 80000 10265 20260 30068 40083 8662/ 333 58011 70140 85709 88458==
41907,2023,09,22,21,00,AAXX 22214 41907 02340 80000 10259 20250 30056 40071 8662/ 333 58007 70140 85709 88458==
41907,2023,09,23,00,00,AAXX 23004 41907 01340 81302 10260 20250 30052 40067 70262 8662/ 333 58004 70030 85709 88458==
41907,2023,09,23,03,00,AAXX 23034 41907 01340 81302 10277 20270 30072 40084 72162 8662/ 333 20250 58002 70335 83709 85615 88458==
41907,2023,09,23,06,00,AAXX 23064 41907 11350 81303 10290 20270 30062 40077 60176 70262 8661/ 333 58001 70305 82709 84615 88458==
41907,2023,09,23,09,00,AAXX 23094 41907 01450 71302 10287 20270 30037 40052 72122 83510 333 59003 70275 83615 86458==
41907,2023,09,23,12,00,AAXX 23124 41907 21440 71302 10280 20260 30042 40056 70262 83510 333 10333 59003 60085 70275 83615 86458==
41907,2023,09,23,15,00,AAXX 23154 41907 02440 41302 10266 20260 30062 40076 82530 333 58001 70275 82615 83362==
41907,2023,09,23,18,00,AAXX 23184 41907 02340 81302 10266 20260 30059 40074 8662/ 333 59009 70275 82709 85615 88458==
41907,2023,09,23,21,00,AAXX 23214 41907 02340 81302 10268 20260 30050 40065 8662/ 333 59006 70275 82709 85615 88458==
41907,2023,09,24,00,00,AAXX 24004 41907 02340 81802 10270 20260 30040 40054 8672/ 333 59012 70245 85709 88458==
41907,2023,09,24,03,00,AAXX 24034 41907 01450 71302 10288 20270 30058 40073 72162 83510 333 20265 59014 70100 83615 87458==
41907,2023,09,24,06,00,AAXX 24064 41907 21450 71802 10330 20270 30045 40060 70262 85810 333 59017 60028 70100 83615 87458==
41907,2023,09,24,09,00,AAXX 24094 41907 01330 80502 10280 20260 30027 40042 79522 8692/ 333 59010 70130 85709 88458 81930==
41907,2023,09,24,12,00,AAXX 24124 41907 21340 80000 10270 20260 30030 40045 70296 8662/ 333 10335 59012 60237 70245 83709 85615 88458==
41907,2023,09,24,15,00,AAXX 24154 41907 01340 80000 10265 20260 30047 40062 72992 8662/ 333 59015 70225 82709 85614 88458==
41907,2023,09,24,18,00,AAXX 24184 41907 01340 80000 10267 20260 30046 40061 70292 8662/ 333 59013 70245 82709 85615 88458==
41907,2023,09,24,21,00,AAXX 24214 41907 02340 80000 10268 20260 30043 40057 8662/ 333 59007 70245 82709 85615 88458==
41907,2023,09,25,00,00,AAXX 25004 41907 02340 80000 10270 20260 30045 40060 8662/ 333 58005 70245 82709 85615 88458==
41907,2023,09,25,03,00,AAXX 25034 41907 02350 80902 10290 20260 30064 40079 8662/ 333 20260 58006 70225 83709 85615 88458==
41907,2023,09,25,06,00,AAXX 25064 41907 02450 80000 10322 20260 30051 40065 8582/ 333 58006 70225 84615 88458==
41907,2023,09,25,09,00,AAXX 25094 41907 01340 81806 10325 20280 30030 40044 71722 8662/ 333 58003 70115 83709 85615 88458 82930==
41907,2023,09,25,12,00,AAXX 25124 41907 01340 80000 10268 20260 30032 40047 72992 8662/ 333 10332 58002 70000 82709 85615 88458==
41907,2023,09,25,15,00,AAXX 25154 41907 02340 80000 10268 20250 30052 40067 8662/ 333 58005 70000 83709 85615 88458==
41907,2023,09,25,18,00,AAXX 25184 41907 02340 80000 10268 20250 30052 40067 8662/ 333 58010 70000 83709 85615 88458==
41907,2023,09,25,21,00,AAXX 25214 41907 02340 80000 10255 20250 30050 40065 8662/ 333 58007 70000 83709 85615 88458==
41907,2023,09,26,00,00,AAXX 26004 41907 01330 80000 10262 20250 30050 40065 70522 8662/ 333 58005 70000 85615 88458==
41907,2023,09,26,03,00,AAXX 26034 41907 01340 80000 10290 20270 30067 40081 70522 8662/ 333 10253 58009 70000 82709 85615 88458==
41907,2023,09,26,06,00,AAXX 26064 41907 02450 32703 10336 20260 30055 40070 83800 333 58010 70000 83825==
41907,2023,09,26,09,00,AAXX 26094 41907 02456 41302 10352 20250 30027 40041 84800 333 59003 70000 81615 83825==
41907,2023,09,26,12,00,AAXX 26124 41907 02450 20000 10304 20270 30024 40039 82500 333 10355 59008 70000 82615==
41907,2023,09,26,15,00,AAXX 26154 41907 02340 80000 10295 20280 30052 40066 8662/ 333 58000 70000 85615 88458==
41907,2023,09,26,18,00,AAXX 26184 41907 02340 80000 10288 20280 30059 40074 8662/ 333 58003 70000 82709 85615 88458==
41907,2023,09,26,21,00,AAXX 26214 41907 02340 80000 10288 20270 30050 40065 8662/ 333 58003 70000 82709 85615 88458==
41907,2023,09,27,00,00,AAXX 27004 41907 02340 80000 10267 20267 30054 40069 8662/ 333 58004 70000 85709 88458==
41907,2023,09,27,03,00,AAXX 27034 41907 01450 60000 10295 20280 30068 40083 72162 83510 333 20255 58001 70172 83615 85458==
41907,2023,09,27,06,00,AAXX 27064 41907 21456 40000 10335 20270 30048 40062 70162 84800 333 59007 60178 70172 82615==
41907,2023,09,27,09,00,AAXX 27094 41907 02450 40000 10345 20270 30017 40032 84800 333 59010 70172 81615 83825==
41907,2023,09,27,12,00,AAXX 27124 41907 02440 50000 10300 20280 30013 40027 83801 333 10348 59011 70172 81615 83808==
41907,2023,09,27,15,00,AAXX 27154 41907 02440 50000 10295 20280 30039 40053 83801 333 59013 70172 81615 83080==
41907,2023,09,27,18,00,AAXX 27184 41907 02340 70000 10287 20280 30041 40056 86610 333 59018 70172 82709 85615 87458==
41907,2023,09,27,21,00,AAXX 27214 41907 02340 70000 10280 20270 30034 40049 86610 333 59016 70172 82709 85615 87458==
41907,2023,09,28,00,00,AAXX 28004 41907 02340 70000 10271 20270 30041 40056 86610 333 59013 70172 82709 85615 87458==
41907,2023,09,28,03,00,AAXX 28034 41907 02450 23602 10320 20270 30054 40068 82500 333 20265 59014 70000 82615==
41907,2023,09,28,06,00,AAXX 28064 41907 02450 53602 10345 20260 30046 40060 85800 333 59002 70000 82615 83825==
41907,2023,09,28,09,00,AAXX 28094 41907 02456 23602 10350 20260 30012 40026 82800 333 59005 70000 81615==
41907,2023,09,28,12,00,AAXX 28124 41907 02450 60000 10320 20280 30001 40016 82501 333 10355 59012 70000 82616 85080==
41907,2023,09,28,15,00,AAXX 28154 41907 02940 00000 10293 20280 30022 40036 333 59017 70000==
41907,2023,09,28,18,00,AAXX 28184 41907 02940 00000 10285 20280 30031 40046 333 59010 70000==
41907,2023,09,28,21,00,AAXX 28214 41907 02940 00000 10283 20270 30029 40034 333 59005 70000==
41909,2023,09,22,00,00,AAXX 22004 41909 02450 80000 10262 20250 30058 40069 8352/ 333 58004 70120 83615 88458==
41909,2023,09,22,03,00,AAXX 22034 41909 02456 80000 10297 20260 30083 40094 8352/ 333 20238 58010 70100 82615 88458==
41909,2023,09,22,06,00,AAXX 22064 41909 02456 50902 10324 20250 30072 40083 82530 333 58008 70080 82615 85362==
41909,2023,09,22,09,00,AAXX 22094 41909 01456 81301 10273 20250 30050 40061 72922 8432/ 333 58010 70060 83708 84615 88458==
41909,2023,09,22,12,00,AAXX 22124 41909 21350 81301 10278 20260 30057 40068 70296 8562/ 333 10330 58012 60035 70030 84708 88458==
41909,2023,09,22,15,00,AAXX 22154 41909 01330 80000 10264 20240 30075 40086 70262 8562/ 333 58005 70050 84708 88458==
41909,2023,09,22,18,00,AAXX 22184 41909 11330 81301 10270 20260 30070 40081 60026 70262 8552/ 333 58006 70050 85614 88458==
41909,2023,09,22,21,00,AAXX 22214 41909 02330 81301 10271 20260 30064 40075 8462/ 333 58006 70050 83708 88458==
41909,2023,09,23,00,00,AAXX 23004 41909 02350 81301 10272 20260 30057 40068 8562/ 333 59001 70050 84708 88458==
41909,2023,09,23,03,00,AAXX 23034 41909 01350 81301 10279 20260 30087 40098 72122 8462/ 333 20240 58004 70060 83708 88458==
41909,2023,09,23,06,00,AAXX 23064 41909 01356 81301 10290 20250 30078 40089 76162 8462/ 333 58006 70120 83708 88458==
41909,2023,09,23,09,00,AAXX 23094 41909 01456 80000 10290 20260 30054 40065 70262 8552/ 333 58004 70091 85615 88460==
41909,2023,09,23,12,00,AAXX 23124 41909 11450 80000 10284 20230 30053 40064 69916 70262 8552/ 333 10315 59004 70091 85614 88460==
41909,2023,09,23,15,00,AAXX 23154 41909 02450 50000 10270 20240 30071 40082 82530 333 59004 70071 82615 84362==
41909,2023,09,23,18,00,AAXX 23184 41909 02440 80000 10269 20240 30066 40077 8552/ 333 59004 70071 85614 88460==
41909,2023,09,23,21,00,AAXX 23214 41909 01440 81301 10267 20250 30057 40068 70522 8552/ 333 59007 70071 85615 88460==
41909,2023,09,24,00,00,AAXX 24004 41909 01350 81303 10265 20260 30052 40063 70522 8662/ 333 59005 70071 83708 84614 88458==
41909,2023,09,24,03,00,AAXX 24034 41909 02456 61302 10292 20260 30069 40080 83510 333 20245 59018 70061 83615 86458==
41909,2023,09,24,06,00,AAXX 24064 41909 02456 51302 10321 20250 30058 40069 82530 333 59020 70001 82615 85362==
41909,2023,09,24,09,00,AAXX 24094 41909 01356 81302 10271 20250 30036 40047 79596 8592/ 333 59018 70030 84708 88458 81930==
41909,2023,09,24,12,00,AAXX 24124 41909 21350 80000 10270 20250 30039 40050 70296 8592/ 333 10330 59014 60047 70040 84708 88458 81930==
41909,2023,09,24,15,00,AAXX 24154 41909 02440 80000 10270 20260 30054 40065 8352/ 333 59003 70040 82615 88458==
41909,2023,09,24,18,00,AAXX 24184 41909 02440 80000 10268 20260 30053 40064 8352/ 333 59013 70040 82615 88458==
41909,2023,09,24,21,00,AAXX 24214 41909 02440 80000 10266 20260 30050 40061 8352/ 333 59007 70040 82615 88458==
41909,2023,09,25,00,00,AAXX 25004 41909 02450 80000 10265 20260 30051 40062 8352/ 333 59001 70040 82615 88458==
41909,2023,09,25,03,00,AAXX 25034 41909 02456 61802 10290 20260 30067 40078 82510 333 20245 59002 70040 82615 86458==
41909,2023,09,25,06,00,AAXX 25064 41909 02456 61802 10326 20250 30058 40069 82510 333 58000 70040 82615 86458==
41909,2023,09,25,09,00,AAXX 25094 41909 01456 60000 10299 20270 30031 40042 72922 82510 333 59005 70030 82615 86458==
41909,2023,09,25,12,00,AAXX 25124 41909 01350 81301 10266 20250 30032 40043 79596 8592/ 333 10340 59007 70040 83708 85614 88458 81930==
41909,2023,09,25,15,00,AAXX 25154 41909 01440 30000 10267 20250 30051 40062 70196 83500 333 59003 70050 83615==
41909,2023,09,25,18,00,AAXX 25184 41909 11940 00000 10266 20260 30060 40071 60016 70196 333 58007 70050==
41909,2023,09,25,21,00,AAXX 25214 41909 02940 00000 10267 20260 30055 40066 333 58004 70050==
41909,2023,09,26,00,00,AAXX 26004 41909 02950 00000 10267 20260 30054 40065 333 58003 70050==
41909,2023,09,26,03,00,AAXX 26034 41909 02456 51801 10300 20260 30071 40082 82530 333 20242 58004 70050 82615 85360==
41909,2023,09,26,06,00,AAXX 26064 41909 02456 51801 10314 20260 30062 40073 82530 333 58004 70050 82615 85360==
41909,2023,09,26,09,00,AAXX 26094 41909 02456 60000 10340 20260 30031 40042 83330 333 58000 70020 83614 83362 81930==
41909,2023,09,26,12,00,AAXX 26124 41909 02456 30000 10315 20270 30027 40038 83300 333 10347 59005 70010 82614 81930==
41909,2023,09,26,15,00,AAXX 26154 41909 02950 00000 10285 20270 30055 40066 333 58004 70000==
41909,2023,09,26,18,00,AAXX 26184 41909 02940 00000 10280 20260 30060 40071 333 58000 70000==
41909,2023,09,26,21,00,AAXX 26214 41909 01940 00000 10278 20270 30054 40065 70500 333 59001 70000==
41909,2023,09,27,00,00,AAXX 27004 41909 01445 20000 10272 20260 30056 40067 70500 82300 333 58002 70000 81615 81930==
41909,2023,09,27,03,00,AAXX 27034 41909 02456 51801 10310 20270 30072 40083 82510 333 20250 58001 70000 82615 85360==
41909,2023,09,27,06,00,AAXX 27064 41909 02456 51801 10324 20250 30054 40065 82510 333 59008 70000 82615 85360==
41909,2023,09,27,09,00,AAXX 27093 41909 02456 50000 10350 20260 30021 40033 82510 333 59010 70000 82615 85360==
41909,2023,09,27,12,00,AAXX 27124 41909 02450 50000 10326 20280 30014 40025 82510 333 10354 59013 70000 82615 85360==
41909,2023,09,27,18,00,AAXX 27184 41909 02440 20000 10282 20280 30046 40057 82300 333 59014 70000 81615 81930==
41909,2023,09,27,21,00,AAXX 27214 41909 42440 20000 10275 20270 30041 40052 59013 81930==
41909,2023,09,28,00,00,AAXX 28004 41909 01440 50000 10274 20260 30041 40052 70500 82530 333 59015 70000 82615 85360==
41909,2023,09,28,03,00,AAXX 28034 41909 02956 00000 10314 20260 30055 40066 333 20252 59017 70000==
41909,2023,09,28,06,00,AAXX 28064 41909 02456 50000 10354 20250 30046 40057 82530 333 59008 70000 82615 85360==
41909,2023,09,28,09,00,AAXX 28094 41909 02456 53401 10357 20260 30016 40028 82530 333 59005 70000 82615 85362==
41909,2023,09,28,12,00,AAXX 28124 41909 02956 00000 10324 20260 30002 40013 333 10360 59012 70000==
41909,2023,09,28,15,00,AAXX 28154 41909 02940 00000 10304 20260 30021 40032 333 59019 70000==
41909,2023,09,28,18,00,AAXX 28184 41909 02940 00000 10294 20270 30031 40042 333 59015 70000==
41915,2023,09,22,00,00,AAXX 22004 41915 02456 80902 10256 20250 30069 40095 8662/ 333 58004 70121 82712 85616 88458==
41915,2023,09,22,03,00,AAXX 22034 41915 02456 71303 10290 20250 30087 40112 85430 333 20254 58006 70121 84616 86360==
41915,2023,09,22,06,00,AAXX 22064 41915 02456 70000 10318 20260 30068 40093 85430 333 58003 70121 84616 85362==
41915,2023,09,22,09,00,AAXX 22094 41915 01450 80000 10255 20250 30051 40077 72962 8632/ 333 58015 70400 82712 85616 88458 81928==
41915,2023,09,22,12,00,AAXX 22124 41915 21450 70000 10264 20250 30056 40081 70196 85470 333 10335 58002 60298 70310 84616 85458==
41915,2023,09,22,18,00,AAXX 22184 41915 02450 50000 10253 20250 30070 40096 84430 333 59003 70291 83316 83362==
41915,2023,09,22,21,00,AAXX 22214 41915 02450 60000 10251 20240 30061 40086 85430 333 59005 70291 84616 83362==
41915,2023,09,23,00,00,AAXX 23004 41915 02456 80000 10248 20250 30063 40088 8662/ 333 59001 70291 82712 85616 88458==
41915,2023,09,23,03,00,AAXX 23034 41915 02456 51302 10310 20270 30087 40112 84430 333 20246 58000 70291 83616==
41915,2023,09,23,06,00,AAXX 23064 41915 02456 50000 10325 20250 30071 40096 83430 333 58003 70291 83616==
41915,2023,09,23,09,00,AAXX 23094 41915 02456 81301 10268 20250 30055 40079 8662/ 333 58004 70000 82712 85616 88458==
41915,2023,09,23,12,00,AAXX 23124 41915 21450 60000 10266 20260 30054 40078 70162 83570 333 10343 59002 69965 70006 83616 85458==
41915,2023,09,23,15,00,AAXX 23154 41915 02450 40000 10257 20250 30077 40103 84400 333 59001 70006 83616==
41915,2023,09,23,18,00,AAXX 23184 41915 02450 30000 10253 20250 30065 40091 82400 333 59005 70006 82616==
41915,2023,09,23,21,00,AAXX 23214 41915 02450 30000 10253 20250 30057 40082 82531 333 59004 70006 82616==
41915,2023,09,24,00,00,AAXX 24004 41915 02450 50000 10253 20250 30059 40084 82602 333 59004 70006 81712 84080==
41915,2023,09,24,03,00,AAXX 24034 41915 02456 30000 10292 20250 30075 40105 82530 333 20251 59012 70006 82616==
41915,2023,09,24,06,00,AAXX 24064 41915 02456 41301 10320 20250 30058 40083 83530 333 59013 70006 82616 83362==
41915,2023,09,24,09,00,AAXX 24094 41915 02456 41401 10323 20250 30022 40047 83530 333 59033 70006 82616 83362==
41915,2023,09,24,12,00,AAXX 24124 41915 01456 81603 10278 20250 30036 40061 71722 8692/ 333 10348 59018 70000 84615 88458 81928==
41915,2023,09,24,15,00,AAXX 24154 41915 01450 80000 10264 20250 30058 40083 70292 8542/ 333 59019 70000 84616 88458==
41915,2023,09,24,18,00,AAXX 24184 41915 01450 70000 10260 20250 30052 40077 70192 84570 333 59013 70000 84616 85458==
41915,2023,09,24,21,00,AAXX 24214 41915 02450 70000 10258 20250 30049 40075 84570 333 59008 70000 84616 85458==
41915,2023,09,25,00,00,AAXX 25004 41915 02456 70000 10256 20256 30050 40076 84570 333 59009 70000 84616 85458==
41915,2023,09,25,03,00,AAXX 25034 41915 02456 40000 10306 20270 30061 40086 83501 333 20255 59014 70000 83616==
41915,2023,09,25,06,00,AAXX 25064 41915 02456 61301 10330 20260 30047 40072 84430 333 59011 70000 83616 85362==
41915,2023,09,25,09,00,AAXX 25094 41915 02456 60000 10334 20240 30021 40046 85431 333 59001 70000 84616 83362==
41915,2023,09,25,12,00,AAXX 25124 41915 02456 40000 10297 20270 30024 40049 83431 333 10352 59012 70000 83616 82362==
41915,2023,09,25,15,00,AAXX 25154 41915 02450 40000 10275 20260 30052 40077 83430 333 59006 70000 83616 82362==
41915,2023,09,25,18,00,AAXX 25184 41915 02450 50000 10270 20260 30051 40076 84430 333 59001 70000 83616 83362==
41915,2023,09,25,21,00,AAXX 25214 41915 42450 50000 10260 20240 30042 40067 84430 333 59007 83616 83362==
41915,2023,09,26,00,00,AAXX 26004 41915 21456 50000 10252 20240 30058 40075 76562 84430 333 58008 60497 70493 83616==
41915,2023,09,26,03,00,AAXX 26034 41915 01456 30000 10310 20250 30066 40091 73400 333 20250 58006 70493 82616==
41915,2023,09,26,06,00,AAXX 26064 41915 02456 72802 10326 20270 30044 40069 86401 333 59003 70493 85616==
41915,2023,09,26,09,00,AAXX 26094 41915 02456 42702 10345 20250 30017 40041 82401 333 59004 70493 82616==
41915,2023,09,26,12,00,AAXX 26124 41915 02456 50000 10320 20270 30019 40044 84430 333 10352 59005 70493 83616 83362==
41915,2023,09,26,15,00,AAXX 26154 41915 02456 20000 10285 20280 30045 40070 81530 333 59007 70493 81616==
41915,2023,09,26,18,00,AAXX 26184 41915 02450 30000 10275 20270 30052 40077 82530 333 58001 70493 82616==
41915,2023,09,26,21,00,AAXX 26214 41915 02450 30000 10271 20260 30050 40075 82530 333 58008 70493 82616==
41915,2023,09,27,00,00,AAXX 27004 41915 02456 60000 10265 20260 30048 40073 84430 333 59002 70000 83616 85362==
41915,2023,09,27,03,00,AAXX 27034 41915 02456 42801 10295 20260 30062 40087 82430 333 20264 59004 70000 82616 83362==
41915,2023,09,27,06,00,AAXX 27064 41915 02456 63202 10340 20250 30038 40063 85430 333 59007 70000 84616 84362==
41915,2023,09,27,09,00,AAXX 27093 41915 02456 70000 10342 20250 30007 40031 85470 333 59010 70000 84616 84458==
41915,2023,09,27,12,00,AAXX 27124 41915 02450 50000 10314 20270 30009 40034 84470 333 10350 59010 70000 83616 84458==
41915,2023,09,27,15,00,AAXX 27154 41915 02950 00000 10280 20270 30031 40056 333 59014 70000==
41915,2023,09,27,18,00,AAXX 27184 41915 02950 00000 10270 20260 30032 40057 333 59020 70000==
41915,2023,09,27,21,00,AAXX 27214 41915 01940 00000 10266 20260 30030 40055 70500 333 59020 70000==
41915,2023,09,28,00,00,AAXX 28004 41915 01920 10000 10265 20260 30028 40053 71040 80001 333 59020 70000 81080==
41915,2023,09,28,03,00,AAXX 28034 41915 01456 50000 10327 20280 30046 40071 70342 85400 333 20264 59016 70000 84616==
41915,2023,09,28,06,00,AAXX 28064 41915 01456 50202 10345 20270 30031 40056 70242 85400 333 59007 70000 84616==
41915,2023,09,28,09,00,AAXX 28094 41915 02456 40000 10355 20260 39993 40018 84400 333 59014 70000 83616==
41915,2023,09,28,12,00,AAXX 28124 41915 02950 20000 10320 20280 39989 40013 80002 333 10365 59017 70000 82080==
41915,2023,09,28,13,00,AAXX 28134 41915 02950 20000 10320 20280 39989 40013 80002 333 10365 59017 70000 82080==
41915,2023,09,28,15,00,AAXX 28154 41915 01450 20000 10295 20290 30013 40038 71321 82300 333 59017 70000 81616 81928==
41915,2023,09,28,18,00,AAXX 28184 41915 01450 20000 10285 20280 30022 40047 71321 82300 333 59014 70000 81616 81928==
41923,2023,09,22,00,00,AAXX 22004 41923 11345 70403 10265 20260 30071 40081 60026 70196 86370 333 58009 71222 83708 84614 86459 81929==
41923,2023,09,22,03,00,AAXX 22034 41923 02350 72202 10296 20260 30091 40101 86370 333 20246 58010 71222 83708 84614 86459 81929==
41923,2023,09,22,06,00,AAXX 22064 41923 02456 41803 10321 20250 30076 40086 83430 333 58004 71222 83615==
41923,2023,09,22,09,00,AAXX 22094 41923 01450 71803 10322 20260 30051 40061 72162 84430 333 58006 71162 83614 84360==
41923,2023,09,22,12,00,AAXX 22124 41923 21350 71804 10294 20250 30066 40076 70262 85370 333 10325 58010 60028 71162 82709 84614 85458 81930==
41923,2023,09,22,15,00,AAXX 22154 41923 02345 51903 10288 20260 30084 40094 84430 333 59004 70932 82709 83615==
41923,2023,09,22,18,00,AAXX 22184 41923 02340 60000 10284 20260 30077 40087 85630 333 58008 70032 83709 83614==
41923,2023,09,22,21,00,AAXX 22214 41923 02340 71803 10280 20260 30067 40077 85670 333 58006 70010 83709 84614 85458==
41923,2023,09,23,00,00,AAXX 23004 41923 02340 71804 10278 20260 30071 40081 85670 333 58000 70016 83709 84614 86458==
41923,2023,09,23,03,00,AAXX 23034 41923 01340 81604 10296 20270 30090 40100 76062 8632/ 333 20275 59001 70080 83709 84614 88458 81930==
41923,2023,09,23,06,00,AAXX 23064 41923 01340 81803 10262 20230 30081 40091 76062 8632/ 333 58005 70114 83708 84614 88458 81930==
41923,2023,09,23,09,00,AAXX 23094 41923 02340 82102 10307 20250 30065 40075 8532/ 333 58014 70098 82709 84615 88458 81930==
41923,2023,09,23,12,00,AAXX 23124 41923 21340 82402 10287 20250 30062 40072 70262 8532/ 333 10325 59004 60005 70098 82709 84615 88458 81930==
41923,2023,09,23,15,00,AAXX 23154 41923 02440 50602 10274 20250 30081 40091 82530 333 59003 70098 82615 83360==
41923,2023,09,23,18,00,AAXX 23184 41923 02340 60602 10271 20250 30075 40085 84630 333 59002 70098 81709 83615 85360==
41923,2023,09,23,21,00,AAXX 23214 41923 02340 80000 10270 20260 30059 40069 8532/ 333 59008 70098 82709 84615 88458 81930==
41923,2023,09,24,00,00,AAXX 24004 41923 01340 80000 10268 20260 30064 40074 72196 8532/ 333 59007 70010 83709 84615 88458 81930==
41923,2023,09,24,03,00,AAXX 24034 41923 02340 80602 10308 20260 30079 40089 8532/ 333 20260 59011 70046 82709 84615 88458 81930==
41923,2023,09,24,06,00,AAXX 24064 41923 01450 71802 10319 20260 30064 40074 72162 85330 333 59017 70000 83615 83824 85360 81930==
41923,2023,09,24,09,00,AAXX 24094 41923 02456 50000 10316 20260 30040 40050 82530 333 59025 70012 82615 83360==
41923,2023,09,24,12,00,AAXX 24124 41923 02350 80000 10284 20260 30044 40054 8532/ 333 10337 59018 70012 82709 84615 88458 81930==
41923,2023,09,24,15,00,AAXX 24154 41923 02450 50000 10280 20250 30062 40072 82530 333 59019 70012 82615 83360==
41923,2023,09,24,18,00,AAXX 24184 41923 02345 60000 10274 20250 30060 40070 84630 333 59015 70012 82709 83615 85360==
41923,2023,09,24,21,00,AAXX 24214 41923 02340 60000 10274 20250 30051 40061 84630 333 59008 70012 82709 83615 85360==
41923,2023,09,25,00,00,AAXX 25004 41923 42340 80000 10272 20250 30058 40068 8532/ 333 59006 83709 84615 88458 81930==
41923,2023,09,25,03,00,AAXX 25034 41923 42350 60000 10312 20250 30073 40083 84630 333 20270 59006 82709 83615 85360==
41923,2023,09,25,06,00,AAXX 25064 41923 02350 60802 10342 20250 30060 40070 84630 333 59004 70000 82709 83615 85360==
41923,2023,09,25,09,00,AAXX 25094 41923 01456 30000 10330 20270 30033 40043 72162 82430 333 59007 70006 82616==
41923,2023,09,25,12,00,AAXX 25124 41923 21450 50504 10301 20240 30038 40048 70362 84330 333 10344 59006 69968 70006 83615 83362 81929==
41923,2023,09,25,15,00,AAXX 25154 41923 02/50 20000 10286 20260 30061 40071 82030 333 59001 70006 82362==
41923,2023,09,25,18,00,AAXX 25184 41923 02/50 20000 10277 20260 30066 40076 82030 333 58006 70006 82362==
41923,2023,09,25,21,00,AAXX 25214 41923 02/45 10000 10275 20260 30056 40066 81030 333 58005 70006 81362==
41923,2023,09,26,00,00,AAXX 26004 41923 02/45 12202 10273 20260 30060 40070 81030 333 58002 70006 81362==
41923,2023,09,26,03,00,AAXX 26034 41923 02450 32102 10311 20260 30075 40085 83400 333 20272 58002 70006 83615==
41923,2023,09,26,06,00,AAXX 26064 41923 02356 60000 10324 20250 30061 40071 85330 333 58001 70006 82708 84614 81930==
41923,2023,09,26,09,00,AAXX 26094 41923 01350 62102 10311 20260 30038 40048 70296 85330 333 58005 70002 82709 83615 85360 81930==
41923,2023,09,26,12,00,AAXX 26124 41923 11440 40000 10311 20260 30034 40044 69926 70196 82531 333 10325 59004 70002 82616 83360==
41923,2023,09,26,15,00,AAXX 26154 41923 02940 00000 10291 20260 30061 40071 333 58000 70002==
41923,2023,09,26,18,00,AAXX 26184 41923 02/40 20000 10283 20260 30066 40076 82030 333 58000 70002 82363==
41923,2023,09,26,21,00,AAXX 26214 41923 02940 00000 10278 20260 30057 40067 333 58001 70002==
41923,2023,09,27,00,00,AAXX 27004 41923 02/40 30000 10275 20260 30064 40074 83030 333 58004 70002 83363==
41923,2023,09,27,03,00,AAXX 27034 41923 02/50 42402 10325 20260 30085 40095 84030 333 20272 58010 70002 84363==
41923,2023,09,27,06,00,AAXX 27064 41923 02350 73102 10332 20250 30053 40063 85370 333 59008 70003 83615 86458 81930==
41923,2023,09,27,09,00,AAXX 27094 41923 02350 80000 10325 20260 30031 40041 8532/ 333 59007 70000 82709 84615 88458 81930==
41923,2023,09,27,12,00,AAXX 27124 41923 02350 60000 10312 20260 30019 40029 84630 333 10332 59015 70000 82709 83615 85360==
41923,2023,09,27,15,00,AAXX 27154 41923 02350 50000 10298 20280 30045 40055 82530 333 59016 70000 82615 83360==
41923,2023,09,27,18,00,AAXX 27184 41923 02340 60000 10288 20270 30044 40054 84630 333 59022 70000 82709 83615 85360==
41923,2023,09,27,21,00,AAXX 27214 41923 02340 60000 10282 20260 30041 40051 84630 333 59016 70000 82709 83615 85360==
41923,2023,09,28,00,00,AAXX 28004 41923 02340 50000 10278 20270 30045 40055 82530 333 59019 70000 82615 83360==
41923,2023,09,28,03,00,AAXX 28034 41923 02/50 20602 10326 20276 30058 40068 82030 333 59027 70000 82360==
41923,2023,09,28,06,00,AAXX 28064 41923 02356 50802 10360 20230 30045 40055 82530 333 59008 70000 82615 83360==
41923,2023,09,28,09,00,AAXX 28094 41923 02456 32703 10352 20250 30010 40020 83400 333 59021 70000 82615==
41923,2023,09,28,12,00,AAXX 28124 41923 02450 50000 10332 20260 30007 40017 84430 333 10362 59017 70000 83615==
41923,2023,09,28,15,00,AAXX 28154 41923 02440 50000 10320 20260 30029 40039 82530 333 59016 70000 82616 84360==
41923,2023,09,28,18,00,AAXX 28184 41923 02440 40000 10310 20260 30034 40044 82530 333 59010 70000 82616 83360==
41923,2023,09,28,21,00,AAXX 28214 41923 02440 40000 10302 20250 30027 40037 82530 333 59014 70000 82615 83360==
41926,2023,09,22,00,00,AAXX 22004 41926 02450 82703 10270 20260 30048 40061 8452/ 333 58009 70380 84616 88459==
41926,2023,09,22,03,00,AAXX 22034 41926 02450 62102 10295 20270 30066 40079 83510 333 20258 58010 70360 83616 86459==
41926,2023,09,22,06,00,AAXX 22064 41926 01350 82102 10265 20260 30058 40071 76162 8572/ 333 58003 70080 82708 84615 88458==
41926,2023,09,22,09,00,AAXX 22094 41926 02450 81803 10280 20260 30034 40047 8452/ 333 58008 70080 84615 88458==
41926,2023,09,22,12,00,AAXX 22124 41926 02450 80000 10272 20260 30040 40053 8452/ 333 10308 58004 70080 84615 88458==
41926,2023,09,22,15,00,AAXX 22154 41926 02450 80000 10265 20260 30060 40073 8352/ 333 59001 70080 83615 88459==
41926,2023,09,22,18,00,AAXX 22184 41926 02450 80000 10260 20250 30059 40072 8352/ 333 58013 70080 83615 88459==
41926,2023,09,22,21,00,AAXX 22214 41926 02450 82103 10260 20250 30044 40057 8432/ 333 58002 70080 83615 88458 81930==
41926,2023,09,23,00,00,AAXX 23004 41926 01340 82503 10255 20255 30051 40064 79596 8592/ 333 58003 70170 82708 84615 88458 82928==
41926,2023,09,23,03,00,AAXX 23034 41926 01350 70000 10272 20260 30075 40089 70196 84610 333 20255 58009 70270 82708 83615 88458==
41926,2023,09,23,06,00,AAXX 23064 41926 11450 70000 10293 20260 30068 40081 60026 70196 84510 333 58010 70190 84615 87458==
41926,2023,09,23,09,00,AAXX 23094 41926 02450 71801 10290 20250 30044 40057 84510 333 58010 70190 84615 87458==
41926,2023,09,23,12,00,AAXX 23124 41926 02450 50000 10280 20260 30042 40055 82510 333 10313 58002 70190 82618 85459==
41926,2023,09,23,15,00,AAXX 23154 41926 01950 00000 10273 20250 30062 40076 70520 333 58002 70190==
41926,2023,09,23,18,00,AAXX 23184 41926 01950 00000 10267 20260 30057 40071 70500 333 59002 70190==
41926,2023,09,23,21,00,AAXX 23214 41926 02450 50000 10268 20260 30049 40063 82510 333 58005 70190 82618 85459==
41926,2023,09,24,00,00,AAXX 24004 41926 01450 81801 10270 20260 30042 40056 71796 8332/ 333 59009 70002 82618 88458 81930==
41926,2023,09,24,03,00,AAXX 24034 41926 02450 50000 10290 20260 30061 40074 82510 333 20267 59014 79992 82618 85459==
41926,2023,09,24,06,00,AAXX 24064 41926 01456 50000 10320 20270 30045 40058 73410 333 59023 79992 82618 84459==
41926,2023,09,24,09,00,AAXX 24094 41926 41450 81804 10280 20250 30027 40040 71796 8432/ 333 59017 83618 88459 81930==
41926,2023,09,24,12,00,AAXX 24124 41926 11450 80000 10268 20250 30033 40047 60006 70296 8252/ 333 10330 59009 82618 88459==
41926,2023,09,24,15,00,AAXX 24154 41926 42450 80000 10265 20260 30047 40061 8252/ 333 59015 82618 88459==
41926,2023,09,24,18,00,AAXX 24184 41926 42450 80000 10267 20260 30045 40059 8252/ 333 59012 82618 88459==
41926,2023,09,24,21,00,AAXX 24214 41926 42450 80000 10267 20260 30044 40058 8252/ 333 59005 82618 88459==
41926,2023,09,25,00,00,AAXX 25004 41926 42450 80000 10268 20260 30047 40061 8252/ 333 58003 82618 88458==
41926,2023,09,25,03,00,AAXX 25034 41926 42450 70000 10287 20270 30062 40075 84510 333 20263 58001 84615 87458==
41926,2023,09,25,06,00,AAXX 25064 41926 42456 60000 10320 20260 30052 40065 83510 333 58007 83615 86458==
41926,2023,09,25,09,00,AAXX 25094 41926 01456 70000 10300 20270 30029 40042 70396 84510 333 58002 70036 84615 87458==
41926,2023,09,25,12,00,AAXX 25124 41926 11450 50000 10282 20260 30030 40043 60046 70196 82510 333 10327 59003 70036 82618 85459==
41926,2023,09,25,15,00,AAXX 25154 41926 01/50 30000 10271 20260 30054 40068 70520 83010 333 58007 70036 83459==
41926,2023,09,25,18,00,AAXX 25184 41926 01/40 20000 10267 20267 30058 40072 70500 82030 333 58013 70036 82362==
41926,2023,09,25,21,00,AAXX 25214 41926 01940 00000 10265 20260 30054 40068 70500 333 58010 70036==
41926,2023,09,26,00,00,AAXX 26004 41926 01940 00000 10263 20260 30051 40065 70500 333 58004 70036==
41926,2023,09,26,03,00,AAXX 26034 41926 02456 40000 10290 20270 30069 40082 84501 333 20262 58007 70036 84615==
41926,2023,09,26,06,00,AAXX 26064 41926 02456 50000 10327 20260 30056 40069 85400 333 58004 70036 83618 83820==
41926,2023,09,26,09,00,AAXX 26094 41926 02457 51802 10335 20260 30028 40041 85400 333 59001 70000 82618 83820==
41926,2023,09,26,12,00,AAXX 26124 41926 02450 50000 10302 20270 30028 40041 85400 333 10347 59002 70000 82618 83820==
41926,2023,09,26,15,00,AAXX 26154 41926 02/50 30000 10288 20270 30058 40071 83030 333 58004 70000 83362==
41926,2023,09,26,18,00,AAXX 26184 41926 02450 30000 10285 20280 30060 40073 83300 333 58002 70000 82618 81930==
41926,2023,09,26,21,00,AAXX 26214 41926 02450 50000 10275 20260 30058 40071 84310 333 58004 70000 83617 85459 81930==
41926,2023,09,27,00,00,AAXX 27004 41926 02450 70000 10258 20258 30054 40067 84310 333 58003 70000 83617 87459 81930==
41926,2023,09,27,03,00,AAXX 27034 41926 02456 40000 10308 20270 30070 40083 84401 333 20258 58001 70000 82618 83820==
41926,2023,09,27,06,00,AAXX 27064 41926 02456 50000 10330 20260 30052 40065 85400 333 59004 70000 83618 83820==
41926,2023,09,27,09,00,AAXX 27093 41926 02456 50000 10333 20260 30018 40031 85400 333 59010 70000 83617 83820==
41926,2023,09,27,12,00,AAXX 27124 41926 02450 50000 10304 20260 30015 40028 84430 333 10346 59013 70000 83616 83362==
41926,2023,09,27,15,00,AAXX 27154 41926 02450 50000 10285 20280 30043 40056 83500 333 59015 70000 83616==
41926,2023,09,27,18,00,AAXX 27184 41926 02450 30000 10280 20260 30039 40052 83500 333 59021 70000 83616==
41926,2023,09,27,21,00,AAXX 27214 41926 02450 30000 10275 20270 30040 40053 83500 333 59018 70000 83616==
41926,2023,09,28,00,00,AAXX 28004 41926 02450 60000 10270 20260 30044 40058 83510 333 59010 70000 83616 86459==
41926,2023,09,28,03,00,AAXX 28034 41926 02956 00000 10306 20280 30055 40068 333 20268 59015 70000==
41926,2023,09,28,06,00,AAXX 28064 41926 02456 60000 10335 20270 30049 40062 84410 333 59003 70000 83616 84459==
41926,2023,09,28,09,00,AAXX 28094 41926 02456 50000 10360 20260 30012 40025 85400 333 59006 70000 83618 83820==
41926,2023,09,28,12,00,AAXX 28124 41926 02450 50000 10318 20290 30004 40017 82504 333 10365 59011 70000 82618 84080==
41926,2023,09,28,15,00,AAXX 28154 41926 02450 40000 10295 20290 30024 40037 82503 333 59019 70000 82618 83080==
41926,2023,09,28,18,00,AAXX 28184 41926 02450 40000 10290 20280 30033 40046 82502 333 59006 70000 82618 83080==
41927,2023,09,22,00,00,AAXX 22004 41927 32450 61602 10270 20260 30047 40061 83510 333 56490 58009 70176 83618 86459=
41927,2023,09,22,06,00,AAXX 22064 41927 32457 51802 10320 20250 30053 40067 83510 333 56490 58005 70162 83618 85459=
41927,2023,09,22,12,00,AAXX 22124 41927 11456 81602 10273 20260 30040 40054 60026 71762 8532/ 333 10327 56499 58020 70015 84616 81929 88458=
41927,2023,09,23,00,00,AAXX 23004 41927 32356 81801 10268 20268 30032 40047 8562/ 333 56499 59015 70023 82708 83617 88458=
41927,2023,09,23,06,00,AAXX 23064 41927 31457 51601 10290 20260 30060 40074 70192 82530 333 56490 58007 70023 82618 85362=
41927,2023,09,23,12,00,AAXX 23124 41927 11456 61901 10270 20250 30045 40059 60048 70196 83510 333 10320 56490 58005 70044 83618 86459=
41927,2023,09,23,18,00,AAXX 23184 41927 32956 01701 10263 20250 30051 40065 333 58010 70036=
41927,2023,09,24,00,00,AAXX 24004 41927 32456 81801 10265 20260 30043 40057 8452/ 333 56499 58011 70036 84617 88458=
41927,2023,09,24,06,00,AAXX 24064 41927 11357 71802 10300 20260 30045 40059 60024 72122 85710 333 56490 59015 70051 82708 83616 87458=
41927,2023,09,24,12,00,AAXX 24124 41927 32456 80000 10275 20260 30023 40037 8452/ 333 10315 56499 59022 70015 84617 88458=
41927,2023,09,24,18,00,AAXX 24184 41927 NIL=
41927,2023,09,25,00,00,AAXX 25004 41927 32456 80000 10264 20250 30031 40045 8452/ 333 56499 59012 70015 84617 88458=
41927,2023,09,25,06,00,AAXX 25064 41927 32458 41701 10315 20260 30045 40060 84400 333 56400 58000 70000 81618 83828=
41927,2023,09,25,12,00,AAXX 25124 41927 11456 61501 10260 20250 30027 40042 60107 70196 83510 333 10335 56390 58004 70098 83617 86459=
41927,2023,09,25,18,00,AAXX 25184 41927 NIL=
41927,2023,09,26,00,00,AAXX 26004 41927 31950 01801 10260 20260 30043 40057 70500 333 58012 70098=
41927,2023,09,26,06,00,AAXX 26064 41927 32457 32201 10325 20250 30049 40063 83510 333 56590 58004 70098 83618 83459=
41927,2023,09,26,12,00,AAXX 26124 41927 32956 00000 10315 20250 30016 40030 333 10345 59011 70000=
41927,2023,09,26,18,00,AAXX 26184 41927 32456 00000 10285 20270 30041 40056 333 59010 70000=
41927,2023,09,27,00,00,AAXX 27004 41927 32450 61801 10268 20260 30037 40052 83510 333 56490 59006 70000 83617 85459=
41927,2023,09,27,06,00,AAXX 27064 41927 32457 61802 10326 20260 30038 40052 83510 333 56490 59011 70000 83617 85459=
41927,2023,09,27,12,00,AAXX 27124 41927 32957 00000 10314 20270 30002 40016 333 10348 59014 70000=
41927,2023,09,27,18,00,AAXX 27184 41927 32956 00000 10286 20280 30039 40053 333 59002 70000=
41927,2023,09,28,00,00,AAXX 28004 41927 32956 00000 10276 20270 30035 40050 333 59002 70000=
41927,2023,09,28,06,00,AAXX 28064 41927 32457 61601 10332 20250 30032 40046 83510 333 56490 59006 70000 83617 85459=
41927,2023,09,28,12,00,AAXX 28124 41927 32957 00000 10318 20280 39998 40012 333 10356 59004 70000=
41927,2023,09,28,18,00,AAXX 28184 41927 NIL=
41929,2023,09,22,00,00,AAXX 22004 41929 02456 80903 10270 20260 30060 40069 8451/ 333 58010 70102 84618 88462==
41929,2023,09,22,03,00,AAXX 22034 41929 02456 71604 10302 20270 30084 40093 84510 333 20260 58009 70102 84618 87462==
41929,2023,09,22,06,00,AAXX 22064 41929 01457 41402 10315 20270 30073 40082 72162 83440 333 58003 70050 82618==
41929,2023,09,22,09,00,AAXX 22094 41929 01457 71802 10300 20250 30050 40059 70396 83570 333 58008 70066 83618 85462==
41929,2023,09,22,12,00,AAXX 22124 41929 01456 81803 10265 20260 30055 40064 72996 8451/ 333 10320 58006 70196 84618 88462==
41929,2023,09,22,15,00,AAXX 22154 41929 02456 71303 10275 20270 30078 40087 83570 333 58006 70196 83618 85462==
41929,2023,09,22,18,00,AAXX 22184 41929 02/56 41303 10275 20270 30072 40081 84030 333 58004 70196 84365==
41929,2023,09,22,21,00,AAXX 22214 41929 02/56 51302 10272 20260 30066 40075 85030 333 58002 70196 85365==
41929,2023,09,23,00,00,AAXX 23004 41929 01456 81303 10268 20260 30059 40068 72122 8451/ 333 59001 70005 84618 88462==
41929,2023,09,23,03,00,AAXX 23034 41929 02456 61802 10310 20270 30089 40098 84510 333 20258 58005 70201 84618 86462==
41929,2023,09,23,06,00,AAXX 23064 41929 01456 71402 10300 20270 30082 40091 71796 85910 333 58009 70002 83618 86462 81932==
41929,2023,09,23,09,00,AAXX 23094 41929 01457 81802 10272 20250 30059 40068 70396 8451/ 333 58009 70183 84618 88462==
41929,2023,09,23,12,00,AAXX 23124 41929 11456 81803 10277 20260 30057 40066 60056 70296 8451/ 333 10319 58002 70053 84618 88462==
41929,2023,09,23,15,00,AAXX 23154 41929 02/56 50000 10270 20260 30074 40083 85030 333 59004 70053 85365==
41929,2023,09,23,18,00,AAXX 23184 41929 02/56 41302 10270 20260 30073 40082 84030 333 58001 70053 84365==
41929,2023,09,23,21,00,AAXX 23214 41929 02/56 41302 10270 20260 30064 40073 84030 333 59002 70053 84365==
41929,2023,09,24,00,00,AAXX 24004 41929 02/56 51302 10270 20260 30054 40063 85030 333 59005 70048 85365==
41929,2023,09,24,03,00,AAXX 24034 41929 02456 71402 10300 20260 30075 40084 84510 333 20264 59014 70048 84618 86462==
41929,2023,09,24,06,00,AAXX 24064 41929 02457 71402 10315 20260 30063 40072 84310 333 59019 70046 83618 86462 81932==
41929,2023,09,24,09,00,AAXX 24094 41929 01456 80000 10263 20250 30038 40047 79596 8592/ 333 59021 70204 84616 88460 81930==
41929,2023,09,24,12,00,AAXX 24124 41929 21456 80000 10277 20270 30037 40046 70296 8451/ 333 10327 59020 60208 70204 84618 88462==
41929,2023,09,24,15,00,AAXX 24154 41929 02/56 50000 10267 20260 30060 40069 85030 333 59014 70204 85365==
41929,2023,09,24,18,00,AAXX 24184 41929 02/56 50000 10260 20250 30057 40066 85030 333 59016 70204 85365==
41929,2023,09,24,21,00,AAXX 24214 41929 02/56 40000 10261 20250 30056 40065 84030 333 59008 70204 84365==
41929,2023,09,25,00,00,AAXX 25004 41929 02/56 40000 10262 20250 30055 40064 84030 333 58001 70204 84365==
41929,2023,09,25,03,00,AAXX 25034 41929 02456 41402 10300 20260 30072 40081 84440 333 20252 59003 70204 83618==
41929,2023,09,25,06,00,AAXX 25064 41929 01457 40000 10322 20270 30063 40072 70262 84440 333 58000 70040 83618==
41929,2023,09,25,09,00,AAXX 25094 41929 02457 60502 10334 20260 30032 40041 83430 333 59006 70040 82618 84365==
41929,2023,09,25,12,00,AAXX 25124 41929 21456 70000 10265 20260 30038 40047 70396 83570 333 10335 58001 60357 70385 83618 85462==
41929,2023,09,25,15,00,AAXX 25154 41929 02/56 50000 10268 20260 30058 40067 85030 333 59002 70385 85365==
41929,2023,09,25,18,00,AAXX 25184 41929 02/56 40000 10267 20260 30063 40072 84030 333 58006 70385 84365==
41929,2023,09,25,21,00,AAXX 25214 41929 02/56 40000 10266 20260 30060 40069 84030 333 58004 70385 84365==
41929,2023,09,26,00,00,AAXX 26004 41929 01/50 40000 10265 20265 30056 40065 70522 84030 333 58001 70385 84365==
41929,2023,09,26,03,00,AAXX 26034 41929 02456 40000 10308 20270 30075 40084 83440 333 20260 58003 70385 83618==
41929,2023,09,26,06,00,AAXX 26064 41929 02457 42302 10334 20260 30065 40074 84440 333 58002 70345 81618 83825==
41929,2023,09,26,09,00,AAXX 26094 41929 02458 51802 10347 20260 30035 40044 83430 333 58003 70345 82618 83365==
41929,2023,09,26,12,00,AAXX 26124 41929 02/57 30000 10327 20260 30031 40040 83030 333 10350 59007 70000 83365==
41929,2023,09,26,15,00,AAXX 26154 41929 02956 00000 10290 20280 30060 40069 333 58002 70000==
41929,2023,09,26,18,00,AAXX 26184 41929 02956 00000 10280 20270 30065 40074 333 58002 70000==
41929,2023,09,26,21,00,AAXX 26214 41929 02956 00000 10277 20270 30061 40070 333 58001 70000==
41929,2023,09,27,00,00,AAXX 27004 41929 02/56 20000 10273 20260 30057 40066 82030 333 58001 70000 82365==
41929,2023,09,27,03,00,AAXX 27034 41929 02/56 40000 10305 20280 30077 40086 84030 333 20268 58002 70000 84365==
41929,2023,09,27,06,00,AAXX 27064 41929 02457 63102 10345 20270 30052 40061 83430 333 59013 70000 82618 84365==
41929,2023,09,27,09,00,AAXX 27093 41929 02458 63101 10345 20270 30025 40034 83430 333 59010 70000 82618 84365==
41929,2023,09,27,12,00,AAXX 27124 41929 02457 60000 10325 20290 30017 40026 83430 333 10353 59014 70000 82618 84365==
41929,2023,09,27,15,00,AAXX 27154 41929 02/56 50000 10300 20290 30042 40051 85030 333 59018 70000 85365==
41929,2023,09,27,18,00,AAXX 27184 41929 02/56 50000 10295 20290 30045 40054 85030 333 59020 70000 85365==
41929,2023,09,27,21,00,AAXX 27214 41929 02/56 40000 10289 20280 30046 40055 84030 333 59015 70000 84365==
41929,2023,09,28,00,00,AAXX 28004 41929 02/56 40000 10282 20270 30047 40056 84030 333 59010 70000 84365==
41929,2023,09,28,03,00,AAXX 28034 41929 02456 23402 10340 20260 30058 40067 82500 333 20280 59019 70000 82618==
41929,2023,09,28,06,00,AAXX 28064 41929 02457 23602 10350 20250 30049 40058 82500 333 59003 70000 82618==
41929,2023,09,28,09,00,AAXX 28094 41929 02458 50000 10360 20250 30014 40023 81530 333 59011 70000 81618 84365==
41929,2023,09,28,12,00,AAXX 28124 41929 02457 70000 10330 20280 30008 40017 83570 333 10362 59009 70000 83618 85462==
41929,2023,09,28,15,00,AAXX 28154 41929 02/56 40000 10305 20290 30025 40034 84030 333 59017 70000 84365==
41929,2023,09,28,18,00,AAXX 28184 41929 02/56 40000 10295 20290 30034 40043 84030 333 59011 70000 84365==
41933,2023,09,22,00,00,AAXX 22004 41933 11450 71802 10260 20250 30070 40078 69956 70262 84510 333 58020 70142 84616 87458==
41933,2023,09,22,03,00,AAXX 22034 41933 02450 62002 10290 20260 30091 40100 83510 333 20259 58006 70126 83618 86458==
41933,2023,09,22,06,00,AAXX 22064 41933 01350 81802 10270 20250 30084 40093 76122 8672/ 333 58012 70000 82708 84614 88457==
41933,2023,09,22,09,00,AAXX 22094 41933 01450 81302 10284 20250 30058 40067 70262 8352/ 333 59002 70040 83615 88458==
41933,2023,09,22,12,00,AAXX 22124 41933 11450 80000 10276 20260 30065 40074 60026 70262 8351/ 333 10306 58008 70026 83616 88458==
41933,2023,09,22,15,00,AAXX 22154 41933 02456 61801 10265 20260 30081 40090 83510 333 59002 70025 83616 86458==
41933,2023,09,22,18,00,AAXX 22184 41933 02456 40000 10266 20260 30075 40084 82510 333 58000 70021 82616 84458==
41933,2023,09,22,21,00,AAXX 22214 41933 02456 50000 10264 20250 30070 40079 83520 333 58003 70016 83616 85458==
41933,2023,09,23,00,00,AAXX 23004 41933 02456 60000 10263 20250 30071 40079 83520 333 58001 70016 83616 86458==
41933,2023,09,23,03,00,AAXX 23034 41933 02456 51804 10300 20260 30092 40101 85810 333 20258 58001 70016 83614 83826==
41933,2023,09,23,06,00,AAXX 23064 41933 01450 61504 10266 20260 30086 40095 71722 85320 333 58002 70080 84614 86458 81930==
41933,2023,09,23,09,00,AAXX 23094 41933 01450 62604 10290 20250 30062 40071 70292 83520 333 58004 70082 83616 86458==
41933,2023,09,23,12,00,AAXX 23124 41933 21450 60000 10255 20240 30060 40069 70296 83520 333 10315 59005 60285 70362 83616 86458==
41933,2023,09,23,15,00,AAXX 23154 41933 01440 80000 10258 20250 30078 40087 70362 8352/ 333 59003 70364 83616 88458==
41933,2023,09,23,18,00,AAXX 23184 41933 01450 20000 10258 20250 30074 40082 70162 82500 333 59001 70365 82616==
41933,2023,09,23,21,00,AAXX 23214 41933 02450 40000 10258 20250 30060 40068 83510 333 59010 70365 83616==
41933,2023,09,24,00,00,AAXX 24004 41933 02450 80000 10261 20250 30064 40072 8352/ 333 59007 70365 83616 88458==
41933,2023,09,24,03,00,AAXX 24034 41933 02456 60000 10286 20260 30079 40087 84520 333 20243 59013 70765 84616 86458==
41933,2023,09,24,06,00,AAXX 24064 41933 02/56 61803 10320 20250 30068 40076 84030 333 59018 70283 84618 86362==
41933,2023,09,24,09,00,AAXX 24094 41933 01456 71802 10280 20240 30041 40050 72922 85430 333 59021 70305 82617 83827 85362==
41933,2023,09,24,12,00,AAXX 24124 41933 21456 61803 10270 20260 30040 40048 70196 85430 333 10332 59020 60025 70025 82618 83827 85362==
41933,2023,09,24,15,00,AAXX 24154 41933 02456 60000 10265 20260 30064 40073 83520 333 59014 70023 83618 86458==
41933,2023,09,24,18,00,AAXX 24184 41933 02456 60000 10265 20260 30054 40063 83520 333 59020 70022 83618 86458==
41933,2023,09,24,21,00,AAXX 24214 41933 02456 60000 10265 20260 30054 40063 83520 333 59006 70022 83618 86458==
41933,2023,09,25,00,00,AAXX 25004 41933 02450 70000 10270 20260 30055 40064 83520 333 59009 70022 83618 87458==
41933,2023,09,25,03,00,AAXX 25034 41933 02456 50000 10310 20270 30071 40079 82401 333 20260 59008 70022 81616 84074==
41933,2023,09,25,06,00,AAXX 25064 41933 02456 51801 10330 20250 30060 40069 84401 333 59008 70022 82616 83824==
41933,2023,09,25,09,00,AAXX 25094 41933 02457 51802 10327 20260 30029 40038 85401 333 59012 70000 83614 84825==
41933,2023,09,25,12,00,AAXX 25124 41933 02456 81802 10293 20230 30033 40042 8532/ 333 10340 59007 70000 84614 88458 81930==
41933,2023,09,25,15,00,AAXX 25154 41933 01450 21802 10276 20270 30056 40065 70162 82500 333 59008 70010 82616==
41933,2023,09,25,18,00,AAXX 25184 41933 11440 40000 10272 20270 30066 40075 60016 70362 82520 333 58012 70010 82616 84458==
41933,2023,09,25,21,00,AAXX 25214 41933 02440 60000 10268 20260 30059 40068 84520 333 58005 70010 84616 86458==
41933,2023,09,26,00,00,AAXX 26004 41933 02450 61802 10266 20260 30055 40064 84520 333 58000 70010 84616 86458==
41933,2023,09,26,03,00,AAXX 26034 41933 02450 50000 10305 20280 30073 40082 83510 333 20262 58002 70010 83618 85458==
41933,2023,09,26,06,00,AAXX 26064 41933 02456 42702 10340 20260 30054 40063 84401 333 59006 70010 81618 83827==
41933,2023,09,26,09,00,AAXX 26094 41933 02456 30000 10342 20260 30027 40035 83401 333 59002 70010 82618==
41933,2023,09,26,12,00,AAXX 26124 41933 02450 30000 10314 20260 30028 40036 81501 333 10345 59005 70010 81618 83074==
41933,2023,09,26,15,00,AAXX 26154 41933 02950 00000 10292 20280 30059 40067 333 58003 70000==
41933,2023,09,26,18,00,AAXX 26184 41933 02950 00000 10284 20260 30055 40063 333 59011 70000==
41933,2023,09,26,21,00,AAXX 26214 41933 01450 60000 10280 20270 30057 40066 70500 83520 333 59002 70000 83616 86458==
41933,2023,09,27,00,00,AAXX 27004 41933 02950 70000 10275 20270 30058 40067 84520 333 58003 70000 84614 87458==
41933,2023,09,27,03,00,AAXX 27034 41933 02450 81802 10272 20250 30074 40083 8452/ 333 20265 58001 70000 84614 88457==
41933,2023,09,27,06,00,AAXX 27064 41933 02456 71802 10300 20260 30055 40064 84520 333 58001 70000 84615 87458==
41933,2023,09,27,09,00,AAXX 27093 41933 41456 42501 10315 20270 30019 40028 70162 84401 333 59008 81618 83827==
41933,2023,09,27,12,00,AAXX 27124 41933 11456 30000 10295 20280 30011 40020 60006 70162 83400 333 10316 59017 82618==
41933,2023,09,27,15,00,AAXX 27154 41933 42950 00000 10289 20280 30037 40046 333 59022==
41933,2023,09,27,18,00,AAXX 27184 41933 42950 00000 10278 20270 30040 40049 333 59015==
41933,2023,09,27,21,00,AAXX 27214 41933 41940 00000 10274 20260 30035 40044 70500 333 59022==
41933,2023,09,28,00,00,AAXX 28004 41933 41420 40000 10270 20260 30038 40047 71000 82510 333 59020 82616 83458==
41933,2023,09,28,03,00,AAXX 28034 41933 42456 41802 10320 20260 30047 40056 82510 333 20266 59027 82616 83458==
41933,2023,09,28,06,00,AAXX 28064 41933 42456 61802 10340 20270 30044 40053 84520 333 59011 84618 86458==
41933,2023,09,28,09,00,AAXX 28094 41933 02456 61802 10342 20250 30005 40013 84520 333 59014 70000 84618 86458==
41933,2023,09,28,12,00,AAXX 28124 41933 02456 61802 10325 20260 30002 40010 83520 333 10356 59009 70000 83618 86458==
41933,2023,09,28,15,00,AAXX 28154 41933 02456 60000 10300 20290 30025 40033 83520 333 59012 70000 83618 86458==
41933,2023,09,28,18,00,AAXX 28184 41933 02456 61603 10290 20270 30033 40041 84430 333 59007 70000 82618 83828 86362==
41936,2023,09,22,00,00,AAXX 22004 41936 01418 61603 10270 20264 30052 40059 70522 83630 333 58016 70130 81710 83615 85362==
41936,2023,09,22,03,00,AAXX 22034 41936 01430 61807 10308 20270 30072 40079 70522 83630 333 20268 58013 70130 81710 83615 83362==
41936,2023,09,22,06,00,AAXX 22064 41936 01320 81705 10268 20250 30067 40074 79196 85720 333 58007 70040 84308 83615 87362 81930==
41936,2023,09,22,09,00,AAXX 22094 41936 01320 81903 10282 20270 30040 40047 79599 85720 333 58005 70120 84707 83615 87362 81930==
41936,2023,09,22,12,00,AAXX 22124 41936 01320 81403 10274 20260 30050 40057 79799 85720 333 10322 58015 70240 85707 83615 88360 81930==
41936,2023,09,22,15,00,AAXX 22154 41936 01320 81508 10264 20250 30068 40076 72196 84630 333 58005 70350 83708 83615 87362==
41936,2023,09,22,18,00,AAXX 22184 41936 01320 71506 10262 20250 30072 40080 70522 84630 333 58008 70070 82708 83615 86362==
41936,2023,09,22,21,00,AAXX 22214 41936 01320 71506 10260 20250 30062 40070 70522 84630 333 58002 70350 82708 83615 85362==
41936,2023,09,23,00,00,AAXX 23004 41936 01418 71806 10264 20250 30057 40064 71795 84730 333 58005 70050 84708 83615 86362 81930==
41936,2023,09,23,03,00,AAXX 23034 41936 01330 62004 10280 20260 30080 40087 72196 83830 333 58008 70400 82708 83615 85362==
41936,2023,09,23,06,00,AAXX 23064 41936 01320 72008 10320 20270 30075 40082 76266 83830 333 58008 70080 82708 83615 85362==
41936,2023,09,23,09,00,AAXX 23094 41936 01320 71404 10280 20270 30057 40065 70596 83630 333 58018 70360 83708 83615 86362==
41936,2023,09,23,12,00,AAXX 23124 41936 01325 71604 10290 20280 30045 40057 70522 83630 333 10324 58000 70050 83708 83615 86362==
41936,2023,09,23,15,00,AAXX 23154 41936 01425 61703 10274 20260 30064 40071 70522 83630 333 59005 70180 81710 83615 83362==
41936,2023,09,23,18,00,AAXX 23184 41936 01425 61704 10274 20260 30060 40067 70522 83630 333 59011 70180 81710 83615 83362==
41936,2023,09,23,21,00,AAXX 23214 41936 01425 61703 10272 20260 30054 40061 70522 83830 333 59007 70180 82710 83615 86362==
41936,2023,09,24,00,00,AAXX 24004 41936 01420 62003 10268 20260 30060 40067 70522 83830 333 58003 70130 82710 83615 86362==
41936,2023,09,24,03,00,AAXX 24034 41936 01420 71905 10304 20280 30067 40074 71722 84730 333 20266 59013 70130 84708 83615 85362 81930==
41936,2023,09,24,06,00,AAXX 24064 41936 11425 71904 10300 20280 30059 40066 60042 76192 84730 333 59016 70210 83708 83615 86362==
41936,2023,09,24,09,00,AAXX 24094 41936 01314 81704 10282 20270 30042 40050 79596 86930 333 59015 70220 84707 83615 87362 81930==
41936,2023,09,24,12,00,AAXX 24124 41936 01320 82105 10276 20270 30035 40042 70522 84630 333 10308 59015 70060 83708 83615 86362==
41936,2023,09,24,15,00,AAXX 24154 41936 01320 61603 10268 20260 30056 40063 70522 83830 333 59008 70220 81708 83615 85362==
41936,2023,09,24,18,00,AAXX 24184 41936 01320 61903 10268 20260 30054 40061 70522 83830 333 59006 70220 81708 83615 85362==
41936,2023,09,24,21,00,AAXX 24214 41936 01320 61904 10266 20260 30051 40058 70522 83830 333 59003 70220 81708 83615 85362==
41936,2023,09,25,00,00,AAXX 25004 41936 01318 61603 10266 20260 30055 40062 70522 83830 333 59005 70220 81708 83615 85362==
41936,2023,09,25,03,00,AAXX 25034 41936 01420 61703 10300 20270 30064 40071 70522 84630 333 20264 59003 70220 82710 83615==
41936,2023,09,25,06,00,AAXX 25064 41936 01330 72710 10330 20270 30060 40067 79596 85930 333 58000 70000 84707 83615 86362 81930==
41936,2023,09,25,09,00,AAXX 25094 41936 01430 72205 10304 20260 30030 40037 70599 84630 333 59013 70040 82710 83615 85362==
41936,2023,09,25,12,00,AAXX 25124 41936 01440 61403 10294 20270 30032 40039 70592 83630 333 59003 70040 81710 83615 85362==
41936,2023,09,25,15,00,AAXX 25154 41936 01/50 20000 10280 20260 30052 40059 70522 82030 333 59004 70040 82362==
41936,2023,09,25,18,00,AAXX 25184 41936 01/50 10000 10270 20260 30060 40067 70511 81030 333 58006 70040 81362==
41936,2023,09,25,21,00,AAXX 25214 41936 01/30 10000 10268 20260 30052 40059 70511 81030 333 58001 70040 81362==
41936,2023,09,26,00,00,AAXX 26004 41936 01/10 10000 10262 20250 30052 40059 70511 81030 333 59003 70040 81362==
41936,2023,09,26,03,00,AAXX 26034 41936 01940 31803 10302 20270 30070 40077 70511 81530 333 20258 58008 70040 81615 83362==
41936,2023,09,26,06,00,AAXX 26064 41936 01440 41607 10344 20250 30061 40068 70511 82530 333 58001 70040 82615 84362==
41936,2023,09,26,09,00,AAXX 26094 41936 01450 42603 10350 20260 30031 40038 70511 82830 333 58001 70000 81615 83362==
41936,2023,09,26,12,00,AAXX 26124 41936 01/50 10000 10316 20280 30027 40034 70511 81030 333 10354 59005 70000 81362==
41936,2023,09,26,15,00,AAXX 26154 41936 333 58004 70000 81615==
41936,2023,09,26,18,00,AAXX 26184 41936 01/50 22403 10290 20270 30056 40063 70511 82030 333 59004 70000 82362==
41936,2023,09,26,21,00,AAXX 26214 41936 01/40 20000 10280 20260 30050 40057 70511 82030 333 59002 70000 82362==
41936,2023,09,27,00,00,AAXX 27004 41936 01/10 20000 10264 20250 30052 40059 70511 82030 333 58000 70000 82362==
41936,2023,09,27,03,00,AAXX 27034 41936 01420 32503 10312 20260 30074 40081 70511 82530 333 58002 70000 82615==
41936,2023,09,27,06,00,AAXX 27064 41936 01450 51803 10336 20270 30056 40063 70522 83830 333 59005 70000 83615 84362==
41936,2023,09,27,09,00,AAXX 27094 41936 01450 32703 10358 20250 30027 40034 70511 82830 333 59004 70000 81615 83362==
41936,2023,09,27,12,00,AAXX 27124 41936 01450 32603 10320 20290 30019 40026 70511 82830 333 10362 59008 70000 81615 83362==
41936,2023,09,27,15,00,AAXX 27154 41936 01/50 20000 10289 20280 30040 40047 70511 82030 333 59016 70000 83362==
41936,2023,09,27,18,00,AAXX 27184 41936 01/50 20000 10290 20270 30044 40051 70511 82030 333 59012 70000 83362==
41936,2023,09,27,21,00,AAXX 27214 41936 41/40 20000 10280 20260 30037 40044 70511 82030 333 59013 83362==
41936,2023,09,28,00,00,AAXX 28004 41936 01/16 20000 10270 20260 30039 40046 70511 82030 333 59013 70000 83362==
41936,2023,09,28,03,00,AAXX 28034 41936 01/30 22903 10314 20280 30059 40066 70511 82030 333 20268 59015 70000 82262==
41936,2023,09,28,06,00,AAXX 28064 41936 01435 33603 10350 20270 30058 40065 70511 82830 333 58002 70000 81615 83362==
41936,2023,09,28,09,00,AAXX 28094 41936 01440 30205 10354 20270 30016 40022 70511 82830 333 59012 70000 81615 83362==
41936,2023,09,28,12,00,AAXX 28124 41936 01440 30000 10332 20280 30007 40013 70511 82830 333 10356 59013 70000 81615 83362==
41936,2023,09,28,15,00,AAXX 28154 41936 01440 30000 10304 20270 30025 40032 70511 82830 333 59015 70000 81615 83362==
41936,2023,09,28,18,00,AAXX 28184 41936 01440 30000 10300 20285 30032 40039 70511 82830 333 59012 70000 81615 83362==
41936,2023,09,28,21,00,AAXX 28214 41936 01440 33103 10287 20277 30027 40034 70511 82830 333 59012 70000 81615 83362==
41938,2023,09,22,00,00,AAXX 22004 41938 32456 51802 10272 20260 30060 40064 82510 333 56490 58011 70016 82617 84460=
41938,2023,09,22,06,00,AAXX 22064 41938 11456 61802 10312 20270 30071 40075 69924 79592 83910 333 56490 58011 70018 82616 81927 86460=
41938,2023,09,22,12,00,AAXX 22124 41938 11450 81801 10280 20270 30056 40060 60026 70596 8232/ 333 10312 56499 58014 70024 81617 81929 88459=
41938,2023,09,22,18,00,AAXX 22184 41938 31445 71703 10271 20260 30069 40073 70592 83311 333 56499 58009 70020 82617 81930 85460=
41938,2023,09,23,00,00,AAXX 23004 41938 11450 70000 10268 20268 30067 40071 60028 70562 84411 333 56499 58007 70040 83617 85460=
41938,2023,09,23,06,00,AAXX 23064 41938 11330 82205 10256 20256 30081 40085 60104 79521 8692/ 333 56599 58010 70138 81708 84615 81929 88459=
41938,2023,09,23,12,00,AAXX 23124 41938 11450 80000 10272 20260 30060 40064 70596 8441/ 333 10305 56599 58004 70180 81617 88460=
41938,2023,09,23,18,00,AAXX 23184 41938 31940 21801 10267 20260 30072 40076 70521 80001 333 56009 58003 70180 82080=
41938,2023,09,24,00,00,AAXX 24004 41938 31440 51801 10260 20260 30058 40062 70511 81411 333 56599 59009 70160 81617 83460=
41938,2023,09,24,06,00,AAXX 24064 41938 31456 71705 10313 20250 30064 40068 71722 83911 333 56499 59017 70060 81618 81929 85460 85078=
41938,2023,09,24,12,00,AAXX 24124 41938 31456 61802 10270 20240 30040 40044 70192 82510 333 10320 56490 59020 70000 82617 85460=
41938,2023,09,24,18,00,AAXX 24184 41938 32450 51802 10262 20250 30052 40056 81510 333 56490 59020 70000 81617 95460=
41938,2023,09,25,00,00,AAXX 25004 41938 32450 31801 10261 20250 30056 40060 81510 333 56490 59002 70000 81618 83460=
41938,2023,09,25,06,00,AAXX 25064 41938 32456 51802 10320 20240 30058 40062 83410 333 56490 59006 70000 82617 83460=
41938,2023,09,25,12,00,AAXX 25124 41938 32456 40000 10288 20270 30034 40038 83401 333 10325 56409 59006 70000 82618=
41938,2023,09,25,18,00,AAXX 25184 41938 32450 20000 10270 20260 30049 40053 82500 333 56900 59003 70000 82618=
41938,2023,09,26,00,00,AAXX 26004 41938 32450 20000 10255 20250 30049 40053 82501 333 56909 59007 70000 82618=
41938,2023,09,26,06,00,AAXX 26064 41938 32456 30000 10335 20260 30064 40068 83400 333 56400 58006 70000 82618=
41938,2023,09,26,12,00,AAXX 26124 41938 32456 30000 10298 20270 30030 40034 83500 333 10347 56900 59004 70000 83618=
41938,2023,09,26,18,00,AAXX 26184 41938 32450 20000 10275 20260 30054 40058 82500 333 56900 58005 70000 82618=
41938,2023,09,27,00,00,AAXX 27004 41938 32450 20000 10265 20250 30054 40058 82500 333 56900 58005 70000 82618=
41938,2023,09,27,06,00,AAXX 27064 41938 32456 30000 10335 20270 30048 40052 83400 333 56400 59016 70000 82618=
41938,2023,09,27,12,00,AAXX 27124 41938 32956 30000 10305 20290 30024 40028 83010 333 10340 56090 59006 70000 83460=
41938,2023,09,27,18,00,AAXX 27184 41938 32956 20000 10278 20270 30045 40059 82010 333 56090 59009 70000 82460=
41938,2023,09,28,00,00,AAXX 28004 41938 31940 22701 10274 20760 30047 40051 70500 82010 333 56090 59007 70000 81460=
41938,2023,09,28,06,00,AAXX 28064 41938 32456 33002 10344 20260 30053 40057 82411 333 56899 58005 70000 81618=
41938,2023,09,28,12,00,AAXX 28124 41938 31945 60000 10310 20280 30014 40018 70521 83012 333 10350 56099 59011 70000 83460 84079=
41938,2023,09,28,18,00,AAXX 28184 41938 31440 60000 10285 20280 30031 40035 70522 83511 333 56299 59014 70000 83619 83460=
41939,2023,09,22,00,00,AAXX 22004 41939 02456 70000 21026 30082 40090 83510 333 58047 70016 83617 86459==
41939,2023,09,22,03,00,AAXX 22034 41939 02458 50000 10303 20270 30094 40102 83530 333 20262 58044 70016 83617 83364==
41939,2023,09,22,06,00,AAXX 22064 41939 02456 80000 10320 20260 30087 40095 8352/ 333 58022 70046 83616 88458==
41939,2023,09,22,09,00,AAXX 22094 41939 01456 80000 10295 20280 30063 40071 70296 8352/ 333 58009 70142 83617 88459==
41939,2023,09,22,12,00,AAXX 22124 41939 21456 80000 10288 20280 30070 40078 70292 8352/ 333 10322 58015 60139 70159 83617 88459==
41939,2023,09,22,15,00,AAXX 22154 41939 02450 60000 10280 20260 30088 40096 83510 333 58006 70159 83618 85459==
41939,2023,09,22,18,00,AAXX 22184 41939 02450 60000 10273 20260 30093 40101 83510 333 58000 70129 83618 85459==
41939,2023,09,22,21,00,AAXX 22214 41939 02450 80000 10272 20260 30092 40100 8352/ 333 58002 70129 83617 88459==
41939,2023,09,23,00,00,AAXX 23004 41939 02456 80000 10270 20260 30082 40090 8352/ 333 58000 70129 83617 88459==
41939,2023,09,23,03,00,AAXX 23034 41939 02458 50000 10300 20270 30100 40108 83530 333 20262 58006 70129 83618 83365==
41939,2023,09,23,06,00,AAXX 23064 41939 01357 80000 10280 20260 30090 40098 76162 8472/ 333 58003 70200 81710 83616 88458==
41939,2023,09,23,09,00,AAXX 23094 41939 01547 80000 10275 20260 30081 40089 76162 8352/ 333 58018 70242 83616 88459==
41939,2023,09,23,12,00,AAXX 23124 41939 21456 80000 10275 20270 30071 40079 70262 8352/ 333 10305 58001 60027 70219 83617 88459==
41939,2023,09,23,15,00,AAXX 23154 41939 02456 80000 10270 20260 30083 40091 8352/ 333 59005 70219 83617 88459==
41939,2023,09,23,21,00,AAXX 23214 41939 02450 60000 10265 20260 30090 40098 83510 333 59002 70219 83618 85459==
41939,2023,09,24,00,00,AAXX 24004 41939 02456 60000 10267 20260 30082 40090 83510 333 58000 70219 83618 85459==
41939,2023,09,24,03,00,AAXX 24034 41939 02458 60000 10285 20260 30096 40104 83510 333 20260 59004 70219 83618 85459==
41939,2023,09,24,06,00,AAXX 24064 41939 02457 50000 10312 20260 30078 40086 82510 333 59012 70018 82617 85460==
41939,2023,09,24,09,00,AAXX 24094 41939 01450 70000 10275 20260 30055 40063 71762 84910 333 59026 70234 83616 87459 81926==
41939,2023,09,24,12,00,AAXX 24124 41939 21450 80000 10270 20260 30047 40053 70362 8352/ 333 10323 59024 60238 70234 83617 88459==
41939,2023,09,24,15,00,AAXX 24154 41939 02450 60000 10265 20260 30068 40076 82510 333 59015 70234 82617 86459==
41939,2023,09,24,18,00,AAXX 24184 41939 NIL=
41939,2023,09,24,21,00,AAXX 24214 41939 02456 70000 10263 20250 30085 40093 83510 333 59005 70234 83617 86459==
41939,2023,09,25,00,00,AAXX 25004 41939 02456 70000 10262 20250 30068 40076 83510 333 59014 70234 83617 86459==
41939,2023,09,25,03,00,AAXX 25034 41939 02458 50000 10293 20270 30078 40086 83530 333 20256 59018 70234 83617 83364==
41939,2023,09,25,06,00,AAXX 25064 41939 02458 60000 10318 20260 30063 40071 83510 333 59015 70234 83617 86459==
41939,2023,09,25,09,00,AAXX 25094 41939 01456 70000 10305 20260 30044 40052 70362 83510 333 59011 70010 83616 87459==
41939,2023,09,25,12,00,AAXX 25124 41939 11457 30000 10275 20260 30033 40041 60016 70162 83500 333 10335 59014 70010 83618==
41939,2023,09,25,15,00,AAXX 25154 41939 02950 00000 10270 20250 30046 40054 333 59022 70010==
41939,2023,09,25,18,00,AAXX 25184 41939 02950 00000 10265 20260 30060 40068 333 59020 70010==
41939,2023,09,25,21,00,AAXX 25214 41939 02950 00000 10262 20250 30077 40085 333 59008 70010==
41939,2023,09,26,00,00,AAXX 26004 41939 02956 00000 10261 20250 30064 40072 333 59004 70010==
41939,2023,09,26,03,00,AAXX 26034 41939 02458 30000 10295 20280 30082 40090 81530 333 20258 58004 70010 81617 83362==
41939,2023,09,26,06,00,AAXX 26064 41939 02458 30000 10335 20250 30063 40071 83430 333 58000 70010 82618==
41939,2023,09,26,09,00,AAXX 26094 41939 02459 20000 10332 20260 30039 40047 82430 333 59005 70000 81618==
41939,2023,09,26,12,00,AAXX 26124 41939 NIL=
41939,2023,09,26,15,00,AAXX 26154 41939 02956 00000 10290 20280 30056 40064 333 58010 70000==
41939,2023,09,26,18,00,AAXX 26184 41939 02456 40000 10280 20270 30068 40076 82530 333 58008 70000 82618 83364==
41939,2023,09,26,21,00,AAXX 26214 41939 02950 00000 10276 20270 30063 40071 333 59014 70000==
41939,2023,09,27,00,00,AAXX 27004 41939 02457 60000 10273 20260 30059 40067 83510 333 59005 70000 83618 85459==
41939,2023,09,27,03,00,AAXX 27034 41939 02458 60000 10290 20260 30070 40078 83510 333 20268 59012 70000 83618 85459==
41939,2023,09,27,06,00,AAXX 27064 41939 02457 40000 10322 20250 30050 40058 82530 333 59013 70000 82618 83360==
41939,2023,09,27,09,00,AAXX 27094 41939 02456 60000 10314 20270 30031 40039 83510 333 59008 70000 83617 86459==
41939,2023,09,27,12,00,AAXX 27124 41939 02456 20000 10300 20280 30025 40033 81530 333 10330 59014 70000 81618==
41939,2023,09,27,15,00,AAXX 27154 41939 02950 00000 10288 20280 30051 40059 333 59005 70000==
41939,2023,09,27,18,00,AAXX 27184 41939 02950 00000 10282 20270 30062 40070 333 59006 70000==
41939,2023,09,27,21,00,AAXX 27214 41939 02456 50000 10283 20270 30060 40068 83530 333 58003 70000 83617 83364==
41939,2023,09,28,00,00,AAXX 28004 41939 02456 70000 10282 20270 30052 40060 83510 333 58007 70000 83617 86459==
41939,2023,09,28,03,00,AAXX 28034 41939 02458 50000 10312 20280 30068 40076 83530 333 20275 59002 70000 83617 83364==
41939,2023,09,28,06,00,AAXX 28064 41939 02459 20000 10342 20260 30057 40064 82400 333 58007 70000 82618==
41939,2023,09,28,09,00,AAXX 28094 41939 02459 30000 10335 20270 30014 40022 82430 333 59017 70000 82618==
41939,2023,09,28,12,00,AAXX 28124 41939 02457 60000 10325 20290 30004 40012 83510 333 10348 59021 70000 83618 85459==
41939,2023,09,28,15,00,AAXX 28154 41939 02950 00000 10300 20270 30015 40023 333 59036 70000==
41939,2023,09,28,18,00,AAXX 28184 41939 02950 00000 10290 20270 30025 40033 333 59037 70000==
41941,2023,09,22,00,00,AAXX 22004 41941 02450 81802 10265 20265 30070 40076 8632/ 333 58005 70100 85616 88458 81930==
41941,2023,09,22,03,00,AAXX 22034 41941 01340 80000 10300 20270 30092 40098 76322 8772/ 333 20260 58007 70150 82708 83612 88456 81924==
41941,2023,09,22,06,00,AAXX 22064 41941 21350 81804 10290 20270 30086 40091 70262 8662/ 333 58011 60075 70160 82708 83612 88458 81924==
41941,2023,09,22,09,00,AAXX 22094 41941 02450 71806 10302 20270 30058 40063 85420 333 58004 70150 84616 87458==
41941,2023,09,22,12,00,AAXX 22124 41941 02450 81804 10290 20270 30061 40066 8632/ 333 10310 58011 70130 85616 88456 81930==
41941,2023,09,22,15,00,AAXX 22154 41941 01440 81806 10275 20270 30080 40085 71322 8632/ 333 58008 70130 85616 88458 81930==
41941,2023,09,22,18,00,AAXX 22184 41941 01440 80000 10270 20270 30093 40098 71322 8632/ 333 58006 70070 85615 88458 81928==
41941,2023,09,22,21,00,AAXX 22214 41941 01440 81804 10266 20266 30079 40084 71322 8632/ 333 58006 70070 85616 88458 81930==
41941,2023,09,23,00,00,AAXX 23004 41941 02450 81804 10275 20275 30081 40087 8632/ 333 58011 70070 85616 88458 81930==
41941,2023,09,23,03,00,AAXX 23034 41941 01450 81804 10294 20270 30098 40104 72162 8792/ 333 20262 58006 70020 82708 83612 88456 81924==
41941,2023,09,23,06,00,AAXX 23064 41941 11456 72306 10320 20270 30086 40091 60016 70162 85420 333 58000 70010 84616 87458==
41941,2023,09,23,09,00,AAXX 23094 41941 01450 80000 10283 20260 30077 40082 72162 8792/ 333 58019 70020 82708 83612 88456 81924==
41941,2023,09,23,12,00,AAXX 23124 41941 21450 81804 10274 20250 30067 40072 70262 8632/ 333 10325 58006 60015 70020 85616 88458 81928==
41941,2023,09,23,15,00,AAXX 23154 41941 01440 80000 10276 20260 30090 40095 71322 8692/ 333 58010 70020 85616 88458 81928==
41941,2023,09,23,18,00,AAXX 23184 41941 01440 81804 10265 20265 30098 40103 71322 8692/ 333 58005 70020 85616 88458 81928==
41941,2023,09,23,21,00,AAXX 23214 41941 01440 81804 10264 20260 30083 40089 71322 8632/ 333 58004 70020 85616 88458 81928==
41941,2023,09,24,00,00,AAXX 24004 41941 01440 80000 10266 20266 30075 40081 72162 8792/ 333 59006 70060 82708 83612 88456 81924==
41941,2023,09,24,03,00,AAXX 24034 41941 02450 81804 10300 20250 30086 40091 8632/ 333 20264 59012 70070 85616 88458 81930==
41941,2023,09,24,06,00,AAXX 24064 41941 02450 81806 10302 20270 30070 40076 8632/ 333 59016 70070 85616 88458 81930==
41941,2023,09,24,09,00,AAXX 24094 41941 02456 61805 10325 20270 30043 40048 85420 333 59034 70060 84616 86458==
41941,2023,09,24,12,00,AAXX 24124 41941 21450 81803 10272 20260 30040 40046 70362 8632/ 333 10328 59027 60065 70120 85616 88458 81928==
41941,2023,09,24,15,00,AAXX 24154 41941 01440 80000 10270 20260 30066 40072 71322 8692/ 333 59024 70120 85616 88458 81928==
41941,2023,09,24,18,00,AAXX 24184 41941 01440 80000 10268 20268 30067 40073 71322 8692/ 333 59031 70120 85616 88458 81928==
41941,2023,09,24,21,00,AAXX 24214 41941 01440 81804 10265 20265 30063 40069 71322 8692/ 333 59020 70120 85616 88458 81928==
41941,2023,09,25,00,00,AAXX 25004 41941 01350 80000 10260 20260 30059 40065 72996 8792/ 333 59016 70110 82708 83612 88456 82924==
41941,2023,09,25,03,00,AAXX 25034 41941 02456 71804 10300 20270 30082 40088 85420 333 20258 59004 70170 84616 87458==
41941,2023,09,25,06,00,AAXX 25064 41941 02456 71827 10330 20270 30066 40071 85420 333 59004 70170 85616 87458==
41941,2023,09,25,09,00,AAXX 25094 41941 02457 71827 10340 20270 30039 40044 85420 333 59004 70170 84616 86458==
41941,2023,09,25,12,00,AAXX 25124 41941 02450 80000 10300 20260 30042 40047 8632/ 333 10345 58002 70110 85616 88458 81930==
41941,2023,09,25,15,00,AAXX 25154 41941 02440 61803 10284 20260 30064 40070 85420 333 59002 70110 84616 86458==
41941,2023,09,25,18,00,AAXX 25184 41941 02440 60000 10281 20270 30062 40068 85420 333 59005 70110 84616 86458==
41941,2023,09,25,21,00,AAXX 25214 41941 02440 60000 10275 20270 30055 40061 85420 333 59008 70110 84616 86458==
41941,2023,09,26,00,00,AAXX 26004 41941 02450 60000 10270 20270 30061 40067 85420 333 58002 70000 84616 86458==
41941,2023,09,26,03,00,AAXX 26034 41941 02456 60000 10300 20270 30081 40086 85420 333 20261 59001 70000 84616 86458==
41941,2023,09,26,06,00,AAXX 26064 41941 02456 60000 10320 20270 30065 40070 85420 333 59001 70000 84616 86458==
41941,2023,09,26,09,00,AAXX 26094 41941 02456 61803 10345 20260 30039 40044 85420 333 58000 70000 84616 86458==
41941,2023,09,26,12,00,AAXX 26124 41941 02450 61803 10321 20260 30033 40038 85420 333 10350 59009 70000 84616 86458==
41941,2023,09,26,15,00,AAXX 26154 41941 02440 60000 10290 20280 30063 40068 85420 333 59001 70000 84616 86458==
41941,2023,09,26,18,00,AAXX 26184 41941 02440 60000 10282 20270 30067 40072 85420 333 58005 70000 84616 86458==
41941,2023,09,26,21,00,AAXX 26214 41941 02440 60000 10280 20280 30064 40069 85420 333 58009 70000 84616 86458==
41941,2023,09,27,00,00,AAXX 27004 41941 02450 70000 10280 20270 30066 40071 85420 333 58005 70000 84616 87458==
41941,2023,09,27,03,00,AAXX 27034 41941 02450 80000 10295 20280 30084 40089 8632/ 333 20278 58003 70000 85616 88458 81930==
41941,2023,09,27,06,00,AAXX 27064 41941 02450 80000 10315 20280 30053 40058 8632/ 333 59012 70000 85616 88458 81930==
41941,2023,09,27,09,00,AAXX 27093 41941 02450 80802 10310 20270 30040 40045 8632/ 333 58001 70000 85616 88458 81930==
41941,2023,09,27,12,00,AAXX 27124 41941 02450 80000 10285 20270 30023 40028 8632/ 333 10330 59010 70000 85616 88458 81930==
41941,2023,09,27,15,00,AAXX 27154 41941 02450 60000 10283 20260 30044 40049 85420 333 59019 70000 84616 86458==
41941,2023,09,27,18,00,AAXX 27184 41941 02440 60000 10281 20260 30047 40052 85420 333 59020 70000 84616 86458==
41941,2023,09,27,21,00,AAXX 27214 41941 02440 60000 10280 20260 30042 40047 85420 333 59022 70000 84616 86458==
41941,2023,09,28,00,00,AAXX 28004 41941 02450 83603 10280 20270 30046 40051 8632/ 333 59020 70000 85616 88458 81930==
41941,2023,09,28,03,00,AAXX 28034 41941 02457 62703 10320 20270 30059 40064 85420 333 20278 59025 70000 84616 86458==
41941,2023,09,28,06,00,AAXX 28064 41941 02456 63503 10340 20270 30048 40053 85420 333 59005 70000 84616 86458==
41941,2023,09,28,09,00,AAXX 28094 41941 02457 73604 10345 20280 30013 40019 85420 333 59027 70000 84616 87458==
41941,2023,09,28,12,00,AAXX 28124 41941 02450 82704 10320 20270 30016 40021 8632/ 333 10350 59007 70000 85616 88458 81930==
41941,2023,09,28,15,00,AAXX 28154 41941 02440 80000 10305 20290 30032 40037 8632/ 333 59012 70000 85616 88458 81930==
41941,2023,09,28,18,00,AAXX 28184 41941 02440 70000 10300 20280 30030 40035 85420 333 59017 70000 84616 87458==
41943,2023,09,22,00,00,AAXX 22004 41943 21435 60000 10252 20240 30075 40082 70162 83520 333 58009 60207 70300 83616 85458==
41943,2023,09,22,03,00,AAXX 22034 41943 02435 50000 10296 20260 30097 40104 82520 333 20250 58005 70260 82616 85458==
41943,2023,09,22,06,00,AAXX 22064 41943 01330 81803 10255 20250 30092 40099 72162 8672/ 333 58010 70060 83709 84614 88458==
41943,2023,09,22,09,00,AAXX 22094 41943 02440 71303 10273 20250 30064 40071 84620 333 58000 70278 82710 83616 86458==
41943,2023,09,22,12,00,AAXX 22124 41943 02440 50000 10275 20260 30070 40077 82530 333 10312 58010 70264 83618 84362==
41943,2023,09,22,15,00,AAXX 22154 41943 02430 60000 10264 20250 30089 40096 83520 333 58001 70264 83616 86458==
41943,2023,09,22,18,00,AAXX 22184 41943 02430 40000 10258 20250 30085 40092 82520 333 58000 70264 83618 84458==
41943,2023,09,22,21,00,AAXX 22214 41943 02430 40000 10256 20250 30080 40087 82520 333 59001 70134 82618 84458==
41943,2023,09,23,00,00,AAXX 23004 41943 02430 40000 10256 20250 30074 40081 82520 333 59001 70064 82618 84458==
41943,2023,09,23,03,00,AAXX 23034 41943 02440 51802 10305 20260 30101 40108 83530 333 20252 58004 70064 83616 84362==
41943,2023,09,23,06,00,AAXX 23064 41943 01340 61802 10300 20260 30086 40093 70362 84620 333 59006 70070 82710 83616 86458==
41943,2023,09,23,09,00,AAXX 23094 41943 02440 51803 10324 20250 30063 40070 83530 333 59001 70074 83616 84362==
41943,2023,09,23,12,00,AAXX 23124 41943 02440 61802 10280 20250 30069 40076 83520 333 10328 59001 70074 83616 85458==
41943,2023,09,23,15,00,AAXX 23154 41943 02430 71802 10272 20250 30088 40095 84520 333 59001 70074 84615 86458==
41943,2023,09,23,18,00,AAXX 23184 41943 02430 61802 10268 20260 30085 40092 83520 333 58000 70074 83616 84458==
41943,2023,09,23,21,00,AAXX 23214 41943 02430 70000 10264 20250 30078 40085 84520 333 59002 70074 84615 86458==
41943,2023,09,24,00,00,AAXX 24004 41943 02330 80000 10260 20250 30070 40077 8662/ 333 59004 70074 83710 84614 88458==
41943,2023,09,24,03,00,AAXX 24034 41943 02440 61802 10307 20250 30088 40095 83520 333 20260 59013 70074 83616 85458==
41943,2023,09,24,06,00,AAXX 24064 41943 02940 01802 10335 20250 30069 40076 83520 333 59017 70000 83616 85458==
41943,2023,09,24,09,00,AAXX 24094 41943 02440 61802 10320 20260 30043 40050 83520 333 59020 70000 83616 85458==
41943,2023,09,24,12,00,AAXX 24124 41943 02430 62102 10297 20260 30042 40049 84420 333 10340 59027 70000 83616 84458==
41943,2023,09,24,15,00,AAXX 24154 41943 02430 70000 10282 20260 30073 40080 84520 333 59015 70000 84616 86458==
41943,2023,09,24,18,00,AAXX 24184 41943 02430 80000 10274 20260 30065 40072 8662/ 333 58008 70000 83710 84615 88458==
41943,2023,09,24,21,00,AAXX 24214 41943 02430 80000 10265 20260 30062 40069 8662/ 333 59016 70000 83710 84615 88458==
41943,2023,09,25,00,00,AAXX 25004 41943 01430 80000 10255 20250 30063 40070 70262 8662/ 333 59027 70060 83710 84615 88458==
41943,2023,09,25,03,00,AAXX 25034 41943 02440 60000 10305 20260 30079 40086 83520 333 20255 59009 70060 83616 85458==
41943,2023,09,25,06,00,AAXX 25064 41943 02435 61802 10330 20250 30067 40074 84420 333 59002 70060 83617 85458==
41943,2023,09,25,09,00,AAXX 25094 41943 02440 61802 10340 20250 30036 40043 84420 333 59007 70060 83617 85458==
41943,2023,09,25,12,00,AAXX 25124 41943 02430 41802 10310 20250 30038 40045 84400 333 10350 59004 70060 83616==
41943,2023,09,25,15,00,AAXX 25154 41943 02930 00000 10282 20260 30063 40070 333 59010 70060==
41943,2023,09,25,18,00,AAXX 25184 41943 02930 00000 10270 20250 30070 40077 333 58005 70060==
41943,2023,09,25,21,00,AAXX 25214 41943 02930 00000 10268 20250 30063 40070 333 58001 70060==
41943,2023,09,26,00,00,AAXX 26004 41943 02935 00000 10265 20260 30063 40070 333 58000 70000==
41943,2023,09,26,03,00,AAXX 26034 41943 02440 50000 10305 20260 30078 40085 82520 333 20262 59001 70000 82616 85458==
41943,2023,09,26,06,00,AAXX 26064 41943 02440 71602 10332 20250 30059 40066 84420 333 59008 70000 83617 85458==
41943,2023,09,26,09,00,AAXX 26094 41943 02440 71602 10335 20260 30032 40039 84420 333 59004 70000 83616 85458==
41943,2023,09,26,12,00,AAXX 26124 41943 02430 40000 10310 20260 30032 40039 83430 333 10355 59006 70000 82618 83362==
41943,2023,09,26,15,00,AAXX 26154 41943 02930 00000 10292 20260 30062 40069 333 59001 70000==
41943,2023,09,26,18,00,AAXX 26184 41943 02430 40000 10273 20250 30064 40071 83530 333 59006 70000 83616 83362==
41943,2023,09,26,21,00,AAXX 26214 41943 02430 80000 10264 20250 30060 40067 8662/ 333 59003 70000 83709 84615 88458==
41943,2023,09,27,00,00,AAXX 27004 41943 01330 81802 10250 20240 30072 40079 79592 8792/ 333 58009 70140 84709 84613 88456 82928==
41943,2023,09,27,03,00,AAXX 27034 41943 01330 80000 10250 20240 30083 40090 76166 8772/ 333 20250 58005 70190 84708 84614 88456==
41943,2023,09,27,06,00,AAXX 27064 41943 21430 80000 10285 20250 30057 40064 70266 8662/ 333 59002 60058 70190 83710 84615 88458==
41943,2023,09,27,09,00,AAXX 27094 41943 02440 71602 10320 20260 30024 40031 84420 333 59008 70190 83616 85458==
41943,2023,09,27,12,00,AAXX 27124 41943 02430 60000 10295 20270 30015 40022 84430 333 10330 59017 70190 83617 84362==
41943,2023,09,27,15,00,AAXX 27154 41943 02430 60000 10283 20260 30045 40052 83520 333 59017 70190 83616 84458==
41943,2023,09,27,18,00,AAXX 27184 41943 02930 00000 10278 20260 30047 40054 333 59017 70190==
41943,2023,09,27,21,00,AAXX 27214 41943 01430 80000 10270 20260 30043 40050 70522 8662/ 333 59017 70190 83710 84615 88458==
41943,2023,09,28,00,00,AAXX 28004 41943 01430 80000 10265 20260 30045 40052 70522 8662/ 333 59027 70050 83710 84615 88458==
41943,2023,09,28,03,00,AAXX 28034 41943 01435 50000 10295 20280 30057 40064 70522 82520 333 20250 59026 70050 82616 85458==
41943,2023,09,28,06,00,AAXX 28064 41943 01440 60000 10345 20260 30041 40048 70522 84420 333 59016 70000 83616 85458==
41943,2023,09,28,09,00,AAXX 28094 41943 01440 60000 10345 20270 30007 40014 70522 84420 333 59017 70000 83616 85458==
41943,2023,09,28,12,00,AAXX 28124 41943 01435 50000 10315 20280 30003 40010 70522 82510 333 10355 59012 70000 82616 83458==
41943,2023,09,28,15,00,AAXX 28154 41943 01435 60000 10295 20290 30033 40040 70522 83510 333 59013 70000 83616 84458==
41943,2023,09,28,18,00,AAXX 28184 41943 01430 80000 10295 20290 30040 40047 70522 8662/ 333 59007 70000 83710 84615 88457==
41943,2023,09,28,21,00,AAXX 28214 41943 01335 81701 10270 20250 30032 40039 70262 8662/ 333 59011 70100 83708 84615 88457==
41944,2023,09,22,06,00,AAXX 22064 41944 NIL=
41944,2023,09,22,12,00,AAXX 22124 41944 NIL=
41944,2023,09,23,06,00,AAXX 23064 41944 NIL=
41944,2023,09,23,12,00,AAXX 23124 41944 NIL=
41944,2023,09,24,06,00,AAXX 24064 41944 NIL=
41944,2023,09,24,12,00,AAXX 24124 41944 NIL=
41944,2023,09,24,18,00,AAXX 24184 41944 NIL=
41944,2023,09,25,00,00,AAXX 25004 41944 NIL=
41944,2023,09,25,06,00,AAXX 25064 41944 NIL=
41944,2023,09,25,12,00,AAXX 25124 41944 NIL=
41944,2023,09,25,18,00,AAXX 25184 41944 NIL=
41944,2023,09,26,00,00,AAXX 26004 41944 NIL=
41944,2023,09,26,06,00,AAXX 26064 41944 NIL=
41944,2023,09,26,12,00,AAXX 26124 41944 NIL=
41944,2023,09,26,18,00,AAXX 26184 41944 NIL=
41944,2023,09,27,06,00,AAXX 27064 41944 NIL=
41944,2023,09,27,12,00,AAXX 27124 41944 NIL=
41944,2023,09,28,00,00,AAXX 28004 41944 NIL=
41944,2023,09,28,06,00,AAXX 28064 41944 NIL=
41944,2023,09,28,12,00,AAXX 28124 41944 NIL=
41944,2023,09,28,18,00,AAXX 28184 41944 NIL=
41946,2023,09,22,00,00,AAXX 22004 41946 02456 50000 10278 20270 30064 40069 82520 333 58014 70074 82618 84460==
41946,2023,09,22,03,00,AAXX 22034 41946 02456 61503 10310 20270 30084 40089 84410 333 20265 58014 70074 83618 85460==
41946,2023,09,22,06,00,AAXX 22064 41946 01456 70000 10300 20270 30076 40078 70362 84310 333 58009 70020 83618 86460 81928==
41946,2023,09,22,09,00,AAXX 22094 41946 01356 81801 10310 20270 30046 40051 79522 8592/ 333 58002 70022 81710 83617 88459 81929==
41946,2023,09,22,12,00,AAXX 22124 41946 01350 81801 10270 20260 30057 40062 79596 8592/ 333 10322 58010 70080 82709 83617 81829 88459==
41946,2023,09,22,15,00,AAXX 22154 41946 01550 80000 10277 20270 30076 40081 70262 8332/ 333 58001 70082 82825 88458 81929==
41946,2023,09,22,18,00,AAXX 22184 41946 11456 71702 10277 20270 30074 40078 69926 70162 83420 333 58009 70082 82618 86459==
41946,2023,09,22,21,00,AAXX 22214 41946 02/56 60000 10277 20270 30054 40059 86020 333 59005 70082 86459==
41946,2023,09,23,00,00,AAXX 23004 41946 02356 61702 10280 20270 30066 40071 86600 333 58002 70082 83710 84617==
41946,2023,09,23,03,00,AAXX 23034 41946 02456 61803 10310 20270 30091 40096 85401 333 20265 58007 70082 84618==
41946,2023,09,23,06,00,AAXX 23064 41946 02456 60000 10314 20260 30081 40086 85401 333 58005 70062 84618==
41946,2023,09,23,09,00,AAXX 23094 41946 02456 71802 10300 20260 30054 40059 83420 333 58007 70060 82618 86459==
41946,2023,09,23,12,00,AAXX 23124 41946 01/56 60000 10300 20260 30060 40065 70162 86020 333 10320 58003 70006 86459==
41946,2023,09,23,15,00,AAXX 23154 41946 02456 41802 10286 20270 30081 40086 82501 333 58005 70006 82618==
41946,2023,09,23,18,00,AAXX 23184 41946 02956 01802 10280 20270 30074 40079 333 58000 70006==
41946,2023,09,23,21,00,AAXX 23214 41946 02956 01801 10278 20270 30058 40063 333 58004 70006==
41946,2023,09,24,00,00,AAXX 24004 41946 02456 21802 10276 20270 30060 40065 81501 333 59006 70006 81618==
41946,2023,09,24,03,00,AAXX 24034 41946 01456 60000 10305 20280 30076 40081 70362 83510 333 20264 59015 70008 83618 83460==
41946,2023,09,24,06,00,AAXX 24064 41946 01350 81803 10285 20280 30064 40069 79562 8592/ 333 59017 70156 81710 84617 88458 81928==
41946,2023,09,24,09,00,AAXX 24094 41946 01456 61802 10277 20250 30048 40052 70162 85420 333 59006 70160 84618 85458==
41946,2023,09,24,12,00,AAXX 24124 41946 11/56 80000 10274 20250 30044 40049 69946 70362 8802/ 333 10307 59016 70154 88459==
41946,2023,09,24,15,00,AAXX 24154 41946 02456 30000 10274 20250 30069 40074 83500 333 59012 70154 83618==
41946,2023,09,24,18,00,AAXX 24184 41946 02456 20000 10272 20260 30057 40062 82500 333 59017 70154 82618==
41946,2023,09,24,21,00,AAXX 24214 41946 02456 30000 10272 20260 30055 40060 82501 333 59003 70154 82618==
41946,2023,09,25,00,00,AAXX 25004 41946 02456 40000 10270 20260 30063 40068 82501 333 58003 70154 82618==
41946,2023,09,25,03,00,AAXX 25034 41946 02456 60000 10295 20270 30075 40080 84310 333 20264 59001 70152 83618 84460 81928==
41946,2023,09,25,06,00,AAXX 25064 41946 02456 52702 10305 20260 30066 40071 84301 333 58002 70004 83618 83080 81928==
41946,2023,09,25,09,00,AAXX 25094 41946 01456 81801 10316 20270 30042 40047 71722 8492/ 333 59006 70000 83618 88459 81929==
41946,2023,09,25,12,00,AAXX 25124 41946 21456 80000 10288 20270 30046 40051 70292 8152/ 333 10324 58002 69945 70004 81618 88460==
41946,2023,09,25,15,00,AAXX 25154 41946 02556 20000 10277 20270 30064 40069 82100 333 59005 70004 82825==
41946,2023,09,25,18,00,AAXX 25184 41946 02956 00000 10276 20270 30066 40071 333 58009 70004==
41946,2023,09,25,21,00,AAXX 25214 41946 02956 00000 10273 20260 30059 40064 333 58004 70004==
41946,2023,09,26,00,00,AAXX 26004 41946 01950 30000 10270 20260 30061 40066 70500 80001 333 59002 70004 83080==
41946,2023,09,26,03,00,AAXX 26034 41946 02456 50000 10310 20270 30083 40088 83401 333 20265 58008 70004 82618 83080==
41946,2023,09,26,06,00,AAXX 26064 41946 02457 41801 10335 20270 30069 40073 83401 333 58003 70004 81618 83820==
41946,2023,09,26,09,00,AAXX 26094 41946 02456 31801 10340 20260 30041 40045 83400 333 59001 70004 82618==
41946,2023,09,26,12,00,AAXX 26124 41946 02956 30000 10312 20260 30040 40045 80001 333 10341 59006 70000 83080==
41946,2023,09,26,15,00,AAXX 26154 41946 02456 11801 10301 20260 30074 40079 81500 333 58010 70000 81618==
41946,2023,09,26,18,00,AAXX 26184 41946 02456 12202 10290 20270 30072 40077 81500 333 58006 70000 81618==
41946,2023,09,26,21,00,AAXX 26214 41946 02956 00000 10284 20270 30061 40066 333 58002 70000==
41946,2023,09,27,00,00,AAXX 27004 41946 02956 10000 10276 20270 30066 40071 80001 333 58005 70000 81080==
41946,2023,09,27,03,00,AAXX 27034 41946 02456 40000 10310 20270 30085 40090 84400 333 20274 58002 70000 83618==
41946,2023,09,27,06,00,AAXX 27064 41946 02457 50000 10340 20260 30064 40068 84401 333 59005 70000 83618 83080==
41946,2023,09,27,09,00,AAXX 27093 41946 02557 50000 10354 20240 30031 40036 82234 333 59010 70000 82825 83362==
41946,2023,09,27,12,00,AAXX 27124 41946 02556 61401 10323 20260 30025 40030 82232 333 10355 59015 70000 82825 84080==
41946,2023,09,27,15,00,AAXX 27154 41946 02956 00000 10297 20280 30056 40061 333 59018 70000==
41946,2023,09,27,18,00,AAXX 27184 41946 02956 00000 10292 20280 30052 40057 333 59020 70000==
41946,2023,09,27,21,00,AAXX 27214 41946 02956 20000 10288 20280 30049 40054 80001 333 59012 70000 82080==
41946,2023,09,28,00,00,AAXX 28004 41946 02456 40000 10285 20280 30059 40064 81501 333 59007 70000 81618 83080==
41946,2023,09,28,03,00,AAXX 28034 41946 02456 52701 10320 20270 30070 40075 83401 333 20270 59015 70000 82618 83080==
41946,2023,09,28,06,00,AAXX 28064 41946 02456 52101 10345 20280 30056 40063 84401 333 59005 70000 83618 83080==
41946,2023,09,28,09,00,AAXX 28094 41946 02456 70000 10346 20270 30023 40027 83510 333 59008 70000 83618 87460==
41946,2023,09,28,12,00,AAXX 28124 41946 02456 50000 10318 20290 30018 40022 82501 333 10350 59007 70000 82618 83080==
41946,2023,09,28,15,00,AAXX 28154 41946 02956 30000 10302 20280 30039 40043 80001 333 59017 70000 83080==
41946,2023,09,28,18,00,AAXX 28184 41946 02/56 30000 10300 20290 30046 40051 82031 333 59006 70000 82362==
41947,2023,09,22,00,00,AAXX 22004 41947 02450 31802 10278 20270 30066 40068 83500 333 58022 70010 83618==
41947,2023,09,22,03,00,AAXX 22034 41947 02456 61802 10308 20270 30071 40074 86400 333 20265 58006 70010 83618 83820==
41947,2023,09,22,06,00,AAXX 22064 41947 02450 80000 10282 20250 30055 40058 8352/ 333 59015 70002 83617 88458==
41947,2023,09,22,09,00,AAXX 22094 41947 01450 81502 10272 20260 30047 40049 71762 8492/ 333 58006 70172 83617 88458 81928==
41947,2023,09,22,12,00,AAXX 22124 41947 12350 81502 10288 20280 30052 40054 60171 8532/ 333 10320 58005 70172 81710 84617 88458 81930==
41947,2023,09,22,15,00,AAXX 22154 41947 01350 81802 10266 20260 30075 40077 72196 8532/ 333 58002 70282 82710 84616 88458 81930==
41947,2023,09,22,18,00,AAXX 22184 41947 21456 61802 10280 20270 30070 40072 70196 83520 333 58005 60118 70282 83618 85458==
41947,2023,09,22,21,00,AAXX 22214 41947 02456 31802 10280 20270 30062 40064 83500 333 59001 70282 83618==
41947,2023,09,23,00,00,AAXX 23004 41947 02456 51802 10278 20270 30063 40065 84530 333 59003 70282 84617==
41947,2023,09,23,03,00,AAXX 23034 41947 02456 61802 10305 20260 30079 40082 86400 333 20260 58008 70282 83618 83820==
41947,2023,09,23,06,00,AAXX 23064 41947 02350 81802 10305 20270 30067 40070 8462/ 333 58012 70280 81710 83617 88458==
41947,2023,09,23,09,00,AAXX 23094 41947 01330 80000 10270 20250 30058 40060 79162 8592/ 333 58011 70017 82707 83617 88458 82928==
41947,2023,09,23,12,00,AAXX 23124 41947 01456 80000 10280 20260 30053 40055 70262 8352/ 333 10330 58001 70180 83618 88459==
41947,2023,09,23,15,00,AAXX 23154 41947 02450 20000 10280 20270 30072 40074 82500 333 59003 70170 82618==
41947,2023,09,23,18,00,AAXX 23184 41947 02950 00000 10278 20270 30079 40081 333 58009 70070==
41947,2023,09,23,21,00,AAXX 23214 41947 02950 00000 10274 20260 30064 40066 333 58002 70070==
41947,2023,09,24,00,00,AAXX 24004 41947 02450 20000 10270 20260 30054 40056 82500 333 59009 70070 82618==
41947,2023,09,24,03,00,AAXX 24034 41947 02456 61804 10310 20270 30071 40073 83570 333 20265 59009 70070 83618 83459==
41947,2023,09,24,06,00,AAXX 24064 41947 01350 80000 10272 20260 30061 40063 79522 8672/ 333 59007 70250 82708 83615 88458 81930==
41947,2023,09,24,09,00,AAXX 24094 41947 02456 81802 10280 20290 30042 40044 8352/ 333 59016 70260 83618 88459==
41947,2023,09,24,12,00,AAXX 24124 41947 02456 60000 10270 20250 30038 40040 82570 333 10330 59015 70250 82618 85459==
41947,2023,09,24,15,00,AAXX 24154 41947 02450 20000 10265 20260 30061 40063 82500 333 59015 70250 82618==
41947,2023,09,24,18,00,AAXX 24184 41947 02450 20000 10260 20250 30056 40058 82500 333 59023 70250 82618==
41947,2023,09,24,21,00,AAXX 24214 41947 02950 60000 10265 20260 30057 40059 83510 333 59007 70250 82618 86459==
41947,2023,09,25,00,00,AAXX 25004 41947 02450 80000 10268 20260 30058 40060 8352/ 333 59004 70250 82618 88459==
41947,2023,09,25,03,00,AAXX 25034 41947 02456 70000 10300 20270 30070 40072 83570 333 20260 59001 70250 83618 85459==
41947,2023,09,25,06,00,AAXX 25064 41947 02456 60000 10335 20260 30060 40063 85430 333 58000 70000 82618 83820==
41947,2023,09,25,09,00,AAXX 25094 41947 01456 61802 10310 20270 30039 40042 70262 83410 333 59002 70090 82618 84459==
41947,2023,09,25,12,00,AAXX 25124 41947 11456 60000 10306 20280 30038 40041 60096 70262 82410 333 10335 58001 70090 81618 85459==
41947,2023,09,25,15,00,AAXX 25154 41947 02956 00000 10290 20280 30058 40061 333 59002 70090==
41947,2023,09,25,18,00,AAXX 25184 41947 02/56 20000 10282 20270 30064 40066 82030 333 58008 70090 82362==
41947,2023,09,25,21,00,AAXX 25214 41947 02956 00000 10275 20270 30056 40058 333 59001 70090==
41947,2023,09,26,00,00,AAXX 26004 41947 02/56 20000 10270 20260 30055 40057 82030 333 59003 70090 82362==
41947,2023,09,26,03,00,AAXX 26034 41947 02456 60000 10315 20260 30068 40071 86400 333 20265 59001 70090 83618 83820==
41947,2023,09,26,06,00,AAXX 26064 41947 02456 60000 10340 20250 30049 40052 86400 333 59011 70090 83618 83820==
41947,2023,09,26,09,00,AAXX 26094 41947 02456 40000 10350 20240 30034 40036 82530 333 58006 70000 82618 83362==
41947,2023,09,26,12,00,AAXX 26124 41947 02456 40000 10330 20240 30022 40024 82530 333 59015 70000 82618 83362==
41947,2023,09,26,15,00,AAXX 26154 41947 02950 00000 10298 20270 30060 40062 333 58001 70000==
41947,2023,09,26,18,00,AAXX 26184 41947 02450 40000 10290 20280 30065 40067 82530 333 58001 70000 82618 83362==
41947,2023,09,26,21,00,AAXX 26214 41947 02450 40000 10285 20280 30065 40057 82530 333 58009 70000 82618 83362==
41947,2023,09,27,00,00,AAXX 27004 41947 02450 40000 10280 20270 30059 40061 82530 333 58004 70000 82618 83362==
41947,2023,09,27,03,00,AAXX 27034 41947 02456 50000 10315 20270 30066 40069 85400 333 20270 59002 70000 82618 83820==
41947,2023,09,27,06,00,AAXX 27064 41947 02456 50000 10342 20250 30044 40047 85400 333 59005 70000 82618 83820==
41947,2023,09,27,09,00,AAXX 27093 41947 02450 80000 10340 20240 30028 40030 8452/ 333 59006 70000 84616 88458==
41947,2023,09,27,12,00,AAXX 27124 41947 02456 50000 10320 20270 30018 40020 82530 333 10350 59004 70000 82618 83362==
41947,2023,09,27,15,00,AAXX 27154 41947 02450 20000 10304 20280 30045 40047 82500 333 59015 70000 82618==
41947,2023,09,27,18,00,AAXX 27184 41947 02450 20000 10300 20290 30048 40050 82500 333 59017 70000 82618==
41947,2023,09,27,21,00,AAXX 27214 41947 02450 20000 10288 20280 30049 40051 82500 333 59016 70000 82618==
41947,2023,09,28,00,00,AAXX 28004 41947 02450 20000 10285 20280 30046 40048 82500 333 59013 70000 82618==
41947,2023,09,28,03,00,AAXX 28034 41947 02456 20000 10325 20280 30054 40056 82500 333 20280 59013 70000 82618==
41947,2023,09,28,06,00,AAXX 28064 41947 02456 60000 10344 20270 30049 40052 83570 333 58005 70000 83618 83459==
41947,2023,09,28,09,00,AAXX 28094 41947 02456 60000 10350 20270 30015 40017 83570 333 59015 70000 83618 85458==
41947,2023,09,28,12,00,AAXX 28124 41947 02456 20000 10320 20270 30014 40016 82500 333 10360 59004 70000 82618==
41947,2023,09,28,15,00,AAXX 28154 41947 02450 20000 10300 20290 30034 40036 82500 333 59011 70000 82618==
41947,2023,09,28,18,00,AAXX 28184 41947 02950 00000 10295 20290 30039 40041 333 59009 70000==
41950,2023,09,22,00,00,AAXX 22004 41950 02350 71202 10267 20267 30072 40075 85670 333 58013 70053 82708 84616 85459==
41950,2023,09,22,03,00,AAXX 22034 41950 02350 60000 10278 20260 30092 40094 84670 333 20265 58010 70053 81708 84616 86459==
41950,2023,09,22,06,00,AAXX 22064 41950 01350 81702 10300 20270 30086 40088 71792 8592/ 333 58012 70053 82708 84616 88458 81928==
41950,2023,09,22,09,00,AAXX 22094 41950 02950 80000 10300 20270 30063 40065 8562/ 333 58011 70043 82708 84616 88458==
41950,2023,09,22,12,00,AAXX 22124 41950 02350 80000 10297 20260 30064 40066 8562/ 333 10311 58008 70013 82708 84616 88458==
41950,2023,09,22,15,00,AAXX 22154 41950 02450 10000 10275 20260 30086 40088 81500 333 58006 70008 81617==
41950,2023,09,22,18,00,AAXX 22184 41950 02450 10000 10269 20260 30079 40081 81500 333 58006 70000 81617==
41950,2023,09,22,21,00,AAXX 22214 41950 02450 10000 10268 20260 30074 40077 81500 333 58007 70000 81617==
41950,2023,09,23,00,00,AAXX 23004 41950 02350 70000 10269 20269 30076 40079 85610 333 58004 70000 82708 84616 87459==
41950,2023,09,23,03,00,AAXX 23034 41950 02450 60000 10283 20260 30101 40103 83571 333 20261 58009 70000 83617 84459==
41950,2023,09,23,06,00,AAXX 23064 41950 42350 81503 10310 20260 30085 40088 59001 88458==
41950,2023,09,23,09,00,AAXX 23094 41950 01450 70000 10256 20256 30069 40072 71796 85970 333 58005 70300 84617 86459 81928==
41950,2023,09,23,12,00,AAXX 23124 41950 21450 60000 10277 20277 30064 40066 70196 83531 333 10329 58000 60308 70300 83617 83362==
41950,2023,09,23,15,00,AAXX 23154 41950 02450 30000 10264 20260 30086 40088 82531 333 58000 70300 82617==
41950,2023,09,23,18,00,AAXX 23184 41950 02950 20000 10262 20260 30081 40083 80001 333 58002 70300 82080==
41950,2023,09,23,21,00,AAXX 23214 41950 01330 80000 10262 20262 30070 40073 79521 8592/ 333 59004 70402 82708 84616 88458 81928==
41950,2023,09,24,00,00,AAXX 24004 41950 21450 40000 10256 20256 30073 40076 70196 83531 333 59003 60167 70462 83617==
41950,2023,09,24,03,00,AAXX 24034 41950 02350 50000 10307 20270 30083 40085 85601 333 20250 59018 70462 81708 84616==
41950,2023,09,24,06,00,AAXX 24064 41950 01450 60000 10308 20270 30071 40073 72122 84331 333 59014 70040 83617 83080 81928==
41950,2023,09,24,09,00,AAXX 24094 41950 01330 81704 10270 20250 30055 40057 79522 8692/ 333 59014 70217 82708 84616 88458 81928==
41950,2023,09,24,12,00,AAXX 24124 41950 21350 70000 10270 20260 30044 40046 70196 85610 333 10326 59020 60035 70231 81708 84616 87459==
41950,2023,09,24,15,00,AAXX 24154 41950 02450 50000 10263 20260 30071 40074 83530 333 59015 70231 83617 83362==
41950,2023,09,24,18,00,AAXX 24184 41950 02450 50000 10264 20260 30066 40068 83530 333 59015 70231 83617 83362==
41950,2023,09,24,21,00,AAXX 24214 41950 02450 40000 10261 20261 30059 40062 83530 333 59011 70129 83617==
41950,2023,09,25,00,00,AAXX 25004 41950 01340 80000 10266 20266 30064 40067 76122 8572/ 333 59009 70005 82708 84616 88458==
41950,2023,09,25,03,00,AAXX 25034 41950 01350 50000 10298 20270 30076 40078 70162 84431 333 20258 59007 70076 83617==
41950,2023,09,25,06,00,AAXX 25064 41950 11450 60000 10325 20270 30064 40066 69926 70362 85411 333 59007 70041 84617 85459==
41950,2023,09,25,09,00,AAXX 25094 41950 01450 60000 10290 20260 30046 40048 71762 85931 333 59009 70024 84617 81928==
41950,2023,09,25,12,00,AAXX 25124 41950 11450 40000 10285 20280 30044 40046 69936 70162 83531 333 10330 58000 70019 83617==
41950,2023,09,25,15,00,AAXX 25154 41950 02950 00000 10270 20270 30066 40068 333 59005 70010==
41950,2023,09,25,18,00,AAXX 25184 41950 02950 00000 10269 20269 30069 40071 333 58003 70010==
41950,2023,09,25,21,00,AAXX 25214 41950 01940 00000 10260 20260 30063 40066 70500 333 58004 70010==
41950,2023,09,26,00,00,AAXX 26004 41950 01/40 10000 10259 20259 30061 40064 70500 81031 333 59003 70005 81362==
41950,2023,09,26,03,00,AAXX 26034 41950 02450 30000 10318 20260 30083 40085 84301 333 20255 58007 70003 83617==
41950,2023,09,26,06,00,AAXX 26064 41950 02450 40000 10337 20250 30064 40066 84400 333 58000 70003 83617==
41950,2023,09,26,09,00,AAXX 26094 41950 02450 40000 10340 20250 30039 40041 84531 333 59007 70000 83617==
41950,2023,09,26,12,00,AAXX 26124 41950 02950 20000 10305 20280 30036 40038 80001 333 10350 59008 70000 82080==
41950,2023,09,26,15,00,AAXX 26154 41950 02950 00000 10277 20270 30069 40071 333 58003 70000==
41950,2023,09,26,18,00,AAXX 26184 41950 02950 00000 10276 20270 30069 40071 333 58000 70000==
41950,2023,09,26,21,00,AAXX 26214 41950 02950 20000 10270 20270 30060 40062 80001 333 59003 70000 82080==
41950,2023,09,27,00,00,AAXX 27004 41950 02450 70000 10264 20260 30066 40068 81571 333 58005 70000 81617 85459==
41950,2023,09,27,03,00,AAXX 27034 41950 02450 70000 10310 20280 30083 40086 83510 333 20262 58000 70000 83617 86459==
41950,2023,09,27,06,00,AAXX 27064 41950 02450 70000 10305 20260 30059 40061 83510 333 59005 70000 83617 87459==
41950,2023,09,27,09,00,AAXX 27094 41950 02450 70000 10310 20260 30029 40031 83471 333 59010 70000 83617 85459==
41950,2023,09,27,12,00,AAXX 27124 41950 02/50 50000 10287 20280 30026 40028 83031 333 10312 59010 70000 83362 83080==
41950,2023,09,27,15,00,AAXX 27154 41950 02950 00000 10272 20270 30051 40053 333 59018 70000==
41950,2023,09,27,18,00,AAXX 27184 41950 02/50 20000 10270 20270 30049 40051 82030 333 59020 70000 82362==
41950,2023,09,27,21,00,AAXX 27214 41950 02/50 20000 10265 20265 30044 40046 82030 333 59016 70000 82080==
41950,2023,09,28,00,00,AAXX 28004 41950 02/50 20000 10263 20263 30046 40048 81031 333 59020 70000 81362==
41950,2023,09,28,03,00,AAXX 28034 41950 02950 10000 10323 20280 30063 40065 80001 333 20262 59020 70000 81080==
41950,2023,09,28,06,00,AAXX 28064 41950 02450 73202 10342 20260 30049 40051 84471 333 59010 70000 83617 85459==
41950,2023,09,28,09,00,AAXX 28094 41950 02450 70000 10348 20270 30014 40016 82531 333 59015 70000 82617==
41950,2023,09,28,12,00,AAXX 28124 41950 02450 50000 10312 20280 30014 40017 82571 333 10355 59012 70000 82617 84459==
41950,2023,09,28,15,00,AAXX 28154 41950 02/50 20000 10290 20280 30034 40036 82030 333 59017 70000 82362==
41950,2023,09,28,18,00,AAXX 28184 41950 02/50 20000 10284 20280 30036 40038 82030 333 59013 70000 82362==
41950,2023,09,28,21,00,AAXX 28214 41950 02350 80000 10270 20270 30030 40032 8562/ 333 59014 70000 82708 84616 88458==
41951,2023,09,22,00,00,AAXX 22004 41951 21340 70000 10268 20268 30067 40072 70162 84610 333 58010 69925 70040 81708 83618 86459==
41951,2023,09,22,03,00,AAXX 22034 41951 01340 81302 10295 20270 30086 40091 70362 8662/ 333 20260 58007 70054 81708 84618 88458==
41951,2023,09,22,06,00,AAXX 22064 41951 11340 81304 10288 20280 30085 40090 60016 70262 8562/ 333 58007 70054 81708 84618 88458==
41951,2023,09,22,09,00,AAXX 22094 41951 02350 71502 10303 20280 30058 40063 84610 333 58008 70052 81708 83618 86459==
41951,2023,09,22,12,00,AAXX 22124 41951 02450 60000 10290 20280 30060 40064 83510 333 10312 58011 70042 83618 85459==
41951,2023,09,22,15,00,AAXX 22154 41951 01450 60000 10270 20260 30084 40089 70262 83510 333 58002 70129 83618 85459==
41951,2023,09,22,18,00,AAXX 22184 41951 11450 31302 10266 20260 30084 40089 60126 70162 83500 333 58008 70129 83618==
41951,2023,09,22,21,00,AAXX 22214 41951 01440 30000 10265 20260 30078 40083 70500 83500 333 58008 70129 83618==
41951,2023,09,23,00,00,AAXX 23004 41951 01440 60000 10270 20270 30072 40077 70520 83510 333 58005 70127 83618 85459==
41951,2023,09,23,03,00,AAXX 23034 41951 01340 71302 10276 20270 30094 40099 70362 84610 333 20254 58008 70213 81708 83618 86458==
41951,2023,09,23,06,00,AAXX 23064 41951 11456 51204 10334 20270 30086 40091 60106 70162 82510 333 58001 70213 82618 84459==
41951,2023,09,23,09,00,AAXX 23094 41951 01330 81202 10263 20260 30066 40071 79592 8692/ 333 58008 70493 82706 84616 88458 82925==
41951,2023,09,23,12,00,AAXX 23124 41951 21450 60000 10277 20270 30061 40066 70196 83510 333 10337 58001 60285 70493 83618 85459==
41951,2023,09,23,15,00,AAXX 23154 41951 02450 20000 10272 20270 30084 40089 82500 333 58000 70378 82618==
41951,2023,09,23,18,00,AAXX 23184 41951 02950 00000 10270 20270 30084 40089 333 58000 70378==
41951,2023,09,23,21,00,AAXX 23214 41951 01440 20000 10270 20270 30075 40080 70500 82500 333 59003 70378 82618==
41951,2023,09,24,00,00,AAXX 24004 41951 01440 50000 10270 20270 30066 40071 70520 82510 333 59006 70378 82618 84459==
41951,2023,09,24,03,00,AAXX 24034 41951 02456 61302 10318 20280 30076 40081 83510 333 20250 59018 70280 83618 85459==
41951,2023,09,24,06,00,AAXX 24064 41951 02456 61203 10332 20270 30068 40073 83510 333 59018 70280 83618 85459==
41951,2023,09,24,09,00,AAXX 24094 41951 02456 61202 10308 20270 30048 40053 83510 333 59018 70000 83618 85459==
41951,2023,09,24,12,00,AAXX 24124 41951 02450 60000 10282 20260 30038 40042 83510 333 10337 59023 70000 83618 85459==
41951,2023,09,24,15,00,AAXX 24154 41951 02450 60000 10272 20260 30070 40075 83510 333 59014 70000 83618 85459==
41951,2023,09,24,18,00,AAXX 24184 41951 02340 80000 10272 20260 30061 40065 8562/ 333 59023 70000 81708 84618 88458==
41951,2023,09,24,21,00,AAXX 24214 41951 01440 60000 10270 20270 30061 40066 70522 83510 333 59014 70000 83618 85459==
41951,2023,09,25,00,00,AAXX 25004 41951 01440 30000 10266 20266 30059 40064 70520 83500 333 59007 70000 83618==
41951,2023,09,25,03,00,AAXX 25034 41951 02456 61802 10305 20280 30071 40076 83510 333 20260 59005 70000 83618 85459==
41951,2023,09,25,06,00,AAXX 25064 41951 02456 61203 10328 20280 30063 40068 83510 333 59005 70000 83618 85459==
41951,2023,09,25,09,00,AAXX 25094 41951 01340 71303 10308 20290 30046 40051 72162 84610 333 59002 70032 81708 83618==
41951,2023,09,25,12,00,AAXX 25124 41951 21450 30000 10280 20260 30039 40043 70162 83500 333 10342 58001 60035 70032 83618==
41951,2023,09,25,15,00,AAXX 25154 41951 02450 20000 10272 20260 30069 40073 82500 333 59001 70032 82618==
41951,2023,09,25,18,00,AAXX 25184 41951 02450 20000 10272 20270 30069 40073 82500 333 58008 70032 82618==
41951,2023,09,25,21,00,AAXX 25214 41951 01450 20000 10268 20268 30061 40066 70500 333 58001 70032 82500 82618==
41951,2023,09,26,00,00,AAXX 26004 41951 01450 20000 10264 20260 30059 40064 70500 82500 333 58000 70032 82618==
41951,2023,09,26,03,00,AAXX 26034 41951 02456 51302 10322 20270 30074 40079 82510 333 20255 58003 70032 82618 84459==
41951,2023,09,26,06,00,AAXX 26064 41951 02456 51002 10348 20260 30067 40072 82510 333 58004 70032 82618 84459==
41951,2023,09,26,09,00,AAXX 26094 41951 02456 61503 10338 20270 30035 40040 83510 333 59011 70000 83618 85459==
41951,2023,09,26,12,00,AAXX 26124 41951 02950 00000 10300 20280 30032 40037 333 10350 59007 70000==
41951,2023,09,26,15,00,AAXX 26154 41951 02950 00000 10282 20270 30067 40072 333 59002 70000==
41951,2023,09,26,18,00,AAXX 26184 41951 02950 00000 10282 20270 30067 40072 333 59002 70000==
41951,2023,09,26,21,00,AAXX 26214 41951 02450 30000 10276 20270 30061 40066 83500 333 59001 70000 83618==
41951,2023,09,27,00,00,AAXX 27004 41951 02440 70000 10270 20270 30059 40063 83510 333 58000 70000 83618 85459==
41951,2023,09,27,03,00,AAXX 27034 41951 01330 80000 10263 20260 30080 40084 76122 8672/ 333 20260 58006 70020 82706 84616 88458==
41951,2023,09,27,06,00,AAXX 27064 41951 21340 81302 10275 20260 30060 40064 70262 8562/ 333 59007 60025 70020 81708 84618 88458==
41951,2023,09,27,09,00,AAXX 27093 41951 02456 61301 10316 20280 30031 40036 83510 333 59004 70020 83618 85459==
41951,2023,09,27,12,00,AAXX 27124 41951 02456 30000 10288 20280 30019 40023 83500 333 10320 59013 70020 83618==
41951,2023,09,27,15,00,AAXX 27154 41951 02450 20000 10277 20277 30053 40057 82500 333 59014 70020 82618==
41951,2023,09,27,18,00,AAXX 27184 41951 02450 60000 10272 20270 30051 40055 83510 333 59006 70020 83618 85459==
41951,2023,09,27,21,00,AAXX 27214 41951 01450 50000 10268 20268 30047 40051 70522 82510 333 59014 70020 82618 84459==
41951,2023,09,28,00,00,AAXX 28004 41951 01450 50000 10266 20266 30042 40047 70522 82510 333 59017 70020 82618 84459==
41951,2023,09,28,03,00,AAXX 28034 41951 02456 30000 10320 20280 30053 40058 83500 333 20260 59027 70000 83618==
41951,2023,09,28,06,00,AAXX 28064 41951 02456 63203 10345 20270 30047 40052 83510 333 59013 70000 83618 85459==
41951,2023,09,28,09,00,AAXX 28094 41951 02456 62203 10350 20270 30009 40014 83510 333 59022 70000 83618 85459==
41951,2023,09,28,12,00,AAXX 28124 41951 02440 80000 10315 20300 30008 40013 8452/ 333 10357 59011 70000 84618 88458==
41951,2023,09,28,15,00,AAXX 28154 41951 02450 30000 10293 20280 30039 40044 83500 333 59014 70000 83618==
41951,2023,09,28,18,00,AAXX 28184 41951 02340 70000 10292 20280 30039 40044 84610 333 59012 70000 81709 83618 86459==
41953,2023,09,22,00,00,AAXX 22004 41953 02440 61301 10264 20250 30080 40085 83510 333 58006 70580 83616 85458==
41953,2023,09,22,03,00,AAXX 22034 41953 02440 81304 10294 20260 30101 40106 8452/ 333 20248 58010 70510 84616 88458==
41953,2023,09,22,06,00,AAXX 22064 41953 21440 80000 10258 20250 30097 40102 76162 8452/ 333 58012 60177 70680 84615 88458==
41953,2023,09,22,09,00,AAXX 22094 41953 01440 81303 10284 20260 30066 40071 76166 8452/ 333 58007 70240 84615 88458==
41953,2023,09,22,12,00,AAXX 22124 41953 21450 80000 10280 20260 30072 40077 70266 8352/ 333 10295 58005 60039 70220 83616 88458==
41953,2023,09,22,15,00,AAXX 22154 41953 02440 60000 10272 20270 30089 40094 83520 333 58001 70220 83616 86458==
41953,2023,09,22,18,00,AAXX 22184 41953 02440 60000 10270 20260 30086 40091 82520 333 58000 70200 82616 86458==
41953,2023,09,22,21,00,AAXX 22214 41953 02440 60000 10265 20260 30080 40085 82520 333 59003 70200 82616 86458==
41953,2023,09,23,00,00,AAXX 23004 41953 02440 60000 10266 20266 30078 40083 82520 333 59002 70200 82616 86458==
41953,2023,09,23,03,00,AAXX 23034 41953 02450 60000 10315 20270 30103 40108 83520 333 20254 58002 70200 83616 86458==
41953,2023,09,23,06,00,AAXX 23064 41953 21450 40000 10320 20270 30092 40097 70162 83420 333 59005 60095 70120 82616 84458==
41953,2023,09,23,09,00,AAXX 23094 41953 02450 40000 10335 20270 30070 40075 83420 333 58004 70100 82616 84458==
41953,2023,09,23,12,00,AAXX 23124 41953 02450 60000 10276 20260 30070 40075 82520 333 10340 59002 70090 82616 86458==
41953,2023,09,23,15,00,AAXX 23154 41953 02440 50000 10270 20260 30087 40092 82510 333 59002 70090 82616 85458==
41953,2023,09,23,18,00,AAXX 23184 41953 02440 50000 10270 20260 30086 40091 82510 333 58000 70090 82616 85458==
41953,2023,09,23,21,00,AAXX 23214 41953 02440 50000 10266 20260 30080 40085 82520 333 58000 70090 82616 85458==
41953,2023,09,24,00,00,AAXX 24004 41953 02440 50000 10270 20260 30072 40077 82530 333 59006 70090 82616 85362==
41953,2023,09,24,03,00,AAXX 24034 41953 02450 50000 10295 20270 30086 40091 82530 333 20266 59017 70090 82616 85362==
41953,2023,09,24,06,00,AAXX 24064 41953 02450 50000 10335 20270 30075 40080 82530 333 59017 70000 82616 85362==
41953,2023,09,24,09,00,AAXX 24094 41953 02450 60000 10296 20270 30051 40056 83510 333 59019 70000 83616 86458==
41953,2023,09,24,12,00,AAXX 24124 41953 02450 60000 10290 20260 30042 40027 83510 333 10336 59028 70000 83616 86458==
41953,2023,09,24,15,00,AAXX 24154 41953 01440 60000 10275 20270 30073 40078 70262 83510 333 59014 70130 83616 86458==
41953,2023,09,24,18,00,AAXX 24184 41953 21440 60000 10270 20260 30068 40073 70262 83510 333 59018 60135 70130 83616 86458==
41953,2023,09,24,21,00,AAXX 24214 41953 02440 60000 10270 20260 30063 40068 83510 333 59017 70130 83616 86458==
41953,2023,09,25,00,00,AAXX 25004 41953 02440 50000 10270 20270 30063 40068 82530 333 59009 70130 82616 85362==
41953,2023,09,25,03,00,AAXX 25034 41953 02450 40000 10300 20270 30080 40085 84430 333 20270 59006 70130 83616 84362==
41953,2023,09,25,06,00,AAXX 25064 41953 02450 50000 10326 20280 30067 40072 82520 333 59008 70130 82616 85458==
41953,2023,09,25,09,00,AAXX 25094 41953 02450 41304 10336 20300 30043 40048 84400 333 59008 70130 83618==
41953,2023,09,25,12,00,AAXX 25124 41953 02450 30000 10314 20280 30045 40050 83400 333 10338 58003 70130 82618==
41953,2023,09,25,15,00,AAXX 25154 41953 02440 20000 10286 20280 30068 40073 82500 333 59005 70000 82618==
41953,2023,09,25,18,00,AAXX 25184 41953 02440 20000 10276 20270 30072 40077 82500 333 58004 70000 82618==
41953,2023,09,25,21,00,AAXX 25214 41953 02940 00000 10274 20270 30067 40072 333 58004 70000==
41953,2023,09,26,00,00,AAXX 26004 41953 02950 00000 10270 20270 30065 40070 333 58002 70000==
41953,2023,09,26,03,00,AAXX 26034 41953 02450 31303 10320 20260 30083 40088 83400 333 20268 58003 70000 82618==
41953,2023,09,26,06,00,AAXX 26064 41953 02450 53102 10333 20260 30067 40072 85400 333 58000 70000 82618 83828==
41953,2023,09,26,09,00,AAXX 26094 41953 02450 43105 10348 20260 30033 40038 84400 333 59010 70000 83618==
41953,2023,09,26,12,00,AAXX 26124 41953 02450 20000 10310 20280 30037 40042 82500 333 10350 59008 70000 82618==
41953,2023,09,26,15,00,AAXX 26154 41953 02440 20000 10290 20280 30069 40074 82500 333 58001 70000 82618==
41953,2023,09,26,18,00,AAXX 26184 41953 02440 20000 10286 20280 30070 40075 82500 333 59002 70000 82618==
41953,2023,09,26,21,00,AAXX 26214 41953 02440 60000 10284 20270 30068 40073 83510 333 58001 70000 83616 85458==
41953,2023,09,27,00,00,AAXX 27004 41953 02440 80000 10280 20280 30070 40075 8632/ 333 58005 70000 83616 88458 81930==
41953,2023,09,27,03,00,AAXX 27034 41953 01450 80000 10250 20250 30084 40089 76196 8632/ 333 20246 58001 70350 84614 88458 81930==
41953,2023,09,27,06,00,AAXX 27064 41953 21450 80000 10274 20250 30061 40066 70296 8352/ 333 59006 60368 70360 83616 88458==
41953,2023,09,27,09,00,AAXX 27093 41953 02450 31801 10314 20260 30027 40032 81130 333 59006 70360 81825==
41953,2023,09,27,12,00,AAXX 27124 41953 02440 10000 10296 20280 30022 40027 81500 333 10316 59015 70360 81618==
41953,2023,09,27,15,00,AAXX 27154 41953 01940 00000 10286 20280 30051 40056 70510 333 59018 70360==
41953,2023,09,27,18,00,AAXX 27184 41953 01940 00000 10280 20270 30055 40060 70510 333 59015 70360==
41953,2023,09,27,21,00,AAXX 27214 41953 01430 20000 10278 20278 30051 40056 70511 82500 333 59017 70360 82618==
41953,2023,09,28,00,00,AAXX 28004 41953 01440 30000 10276 20276 30048 40053 70511 83500 333 59022 70360 83618==
41953,2023,09,28,03,00,AAXX 28034 41953 01450 31802 10324 20270 30061 40066 70511 83400 333 20248 59023 70010 82618==
41953,2023,09,28,06,00,AAXX 28064 41953 01450 50000 10334 20250 30047 40052 70521 83430 333 59014 70000 82618 83362==
41953,2023,09,28,09,00,AAXX 28094 41953 01450 60000 10346 20270 30010 40015 70522 84430 333 59017 70000 83616 84362==
41953,2023,09,28,12,00,AAXX 28124 41953 01440 50000 10318 20280 30008 40013 70522 82530 333 10348 59014 70000 82618 84362==
41953,2023,09,28,15,00,AAXX 28154 41953 01440 40000 10302 20290 30038 40043 70522 82530 333 59013 70000 82618 83362==
41953,2023,09,28,18,00,AAXX 28184 41953 01430 80000 10294 20280 30041 40046 71322 8452/ 333 59014 70000 84616 88458==
41955,2023,09,22,06,00,AAXX 22064 41955 NIL=
41955,2023,09,22,12,00,AAXX 22124 41955 NIL=
41955,2023,09,23,06,00,AAXX 23064 41955 NIL=
41955,2023,09,23,12,00,AAXX 23124 41955 NIL=
41955,2023,09,24,06,00,AAXX 24064 41955 NIL=
41955,2023,09,24,12,00,AAXX 24124 41955 NIL=
41955,2023,09,24,18,00,AAXX 24184 41955 NIL=
41955,2023,09,25,00,00,AAXX 25004 41955 NIL=
41955,2023,09,25,06,00,AAXX 25064 41955 NIL=
41955,2023,09,25,12,00,AAXX 25124 41955 NIL=
41955,2023,09,25,18,00,AAXX 25184 41955 NIL=
41955,2023,09,26,00,00,AAXX 26004 41955 NIL=
41955,2023,09,26,06,00,AAXX 26064 41955 NIL=
41955,2023,09,26,12,00,AAXX 26124 41955 NIL=
41955,2023,09,26,18,00,AAXX 26184 41955 NIL=
41955,2023,09,27,06,00,AAXX 27064 41955 NIL=
41955,2023,09,27,12,00,AAXX 27124 41955 NIL=
41955,2023,09,28,00,00,AAXX 28004 41955 NIL=
41955,2023,09,28,06,00,AAXX 28064 41955 NIL=
41955,2023,09,28,12,00,AAXX 28124 41955 NIL=
41955,2023,09,28,18,00,AAXX 28184 41955 NIL=
41958,2023,09,22,00,00,AAXX 22004 41958 32450 51701 10273 20270 30053 40055 83410 333 56490 58009 70125 83616 84459=
41958,2023,09,22,03,00,AAXX 22034 41958 32456 51701 10310 20270 30073 40075 83410 333 20268 56490 58010 70125 83616 84459=
41958,2023,09,22,06,00,AAXX 22064 41958 32456 51704 10336 20280 30063 40065 85400 333 56300 59001 70055 82617 83822=
41958,2023,09,22,09,00,AAXX 22094 41958 21456 81705 10300 20270 30044 40046 70362 8532/ 333 56399 58000 6994/ 70014 84616 81930 88459=
41958,2023,09,22,12,00,AAXX 22124 41958 11440 61804 10294 20270 30052 40054 69946 70162 83571 333 10337 56399 58012 70004 83616 85459=
41958,2023,09,22,15,00,AAXX 22154 41958 31440 41703 10280 20270 30069 40071 71322 84300 333 56300 58005 70004 83616 81930=
41958,2023,09,22,18,00,AAXX 22184 41958 32440 51703 10276 20270 30073 40075 84400 333 56300 58013 70004 83616=
41958,2023,09,22,21,00,AAXX 22214 41958 32940 01802 10278 20270 30057 40059 333 58000 70004=
41958,2023,09,23,00,00,AAXX 23004 41958 32550 11803 10278 20270 30061 40063 81100 333 56900 58008 70004 81825=
41958,2023,09,23,03,00,AAXX 23034 41958 32457 51803 10310 20260 30084 40086 85400 333 20272 56400 58011 70004 83616=
41958,2023,09,23,06,00,AAXX 23064 41958 11456 81703 10282 20260 30075 40077 60074 76162 8532/ 333 56399 58012 70078 84616 81930 88459=
41958,2023,09,23,09,00,AAXX 23094 41958 21450 60000 10302 20280 30052 40054 72166 85370 333 56490 58008 6004/ 70112 84616 81930 85459=
41958,2023,09,23,12,00,AAXX 23124 41958 11440 51503 10290 20280 30054 40056 60053 70162 81502 333 10325 56409 58002 70128 81617 85078=
41958,2023,09,23,15,00,AAXX 23154 41958 32940 01702 10282 20270 30072 40074 333 58003 70128=
41958,2023,09,23,18,00,AAXX 23184 41958 32940 21702 10280 20270 30075 40077 80001 333 56009 58002 70128 82080=
41958,2023,09,23,21,00,AAXX 23214 41958 32940 21501 10272 20260 30056 40058 80001 333 56009 59001 70128 82080=
41958,2023,09,24,00,00,AAXX 24004 41958 32450 21503 10270 20270 30058 40060 82500 333 56300 59003 70128 82617=
41958,2023,09,24,03,00,AAXX 24034 41958 32457 51503 10314 20270 30077 40079 85400 333 20268 56300 59007 70128 83616=
41958,2023,09,24,06,00,AAXX 24064 41958 11440 81802 10274 20260 30052 40054 60104 76122 8532/ 333 56399 59023 70150 84616 81930 88459=
41958,2023,09,24,09,00,AAXX 24094 41958 21340 81803 10268 20260 30039 40041 76166 8532/ 333 56599 59013 6001/ 70122 82708 84615 81930 88459=
41958,2023,09,24,12,00,AAXX 24124 41958 11440 61802 10260 20250 30035 40037 60028 70162 82570 333 10330 56990 59019 70112 82617 85459=
41958,2023,09,24,15,00,AAXX 24154 41958 32940 20000 10260 20250 30061 40063 80001 333 56009 59011 70112 82080=
41958,2023,09,24,18,00,AAXX 24184 41958 32940 20000 10260 20260 30065 40067 80001 333 56009 59010 70112 82080=
41958,2023,09,24,21,00,AAXX 24214 41958 32440 21501 10266 20266 30054 40056 82500 333 56900 59002 70112 82617=
41958,2023,09,25,00,00,AAXX 25004 41958 32450 41502 10266 20266 30057 40059 84300 333 56200 59001 70112 83616 81930=
41958,2023,09,25,03,00,AAXX 25034 41958 21457 30000 10306 20280 30067 40069 70162 82530 333 56990 59010 6994/ 70116 82617 83362=
41958,2023,09,25,06,00,AAXX 25064 41958 11456 82701 10280 20260 30062 40064 60123 79562 8592/ 333 56699 58010 70134 84616 81930 88459=
41958,2023,09,25,09,00,AAXX 25094 41958 21456 61502 10320 20270 30035 40037 71796 85910 333 56390 59004 6994/ 70128 84616 81930 86459=
41958,2023,09,25,12,00,AAXX 25124 41958 11450 30000 10292 20280 30038 40040 69946 70196 81131 333 10342 56999 58003 70122 81617 83080=
41958,2023,09,25,15,00,AAXX 25154 41958 32950 30000 10282 20270 30059 40061 83030 333 56090 59002 70122 83362=
41958,2023,09,25,18,00,AAXX 25184 41958 32940 20000 10280 20280 30061 40063 82030 333 56090 59004 70122 82362=
41958,2023,09,25,21,00,AAXX 25214 41958 32940 00000 10272 20270 30052 40054 333 59002 70122=
41958,2023,09,26,00,00,AAXX 26004 41958 32950 20000 10270 20270 30055 40057 80001 333 56009 59002 70122 82080=
41958,2023,09,26,03,00,AAXX 26034 41958 32557 20000 10320 20270 30076 40078 82100 333 20265 56200 59009 70118 82825=
41958,2023,09,26,06,00,AAXX 26064 41958 32458 20501 10328 20270 30059 40061 82501 333 56909 59003 70004 82617=
41958,2023,09,26,09,00,AAXX 26094 41958 32958 20000 10346 20270 30031 40033 80001 333 56009 59004 70000 82080=
41958,2023,09,26,12,00,AAXX 26124 41958 32456 20000 10298 20270 30033 40035 82500 333 10350 56900 59005 70000 82617=
41958,2023,09,26,15,00,AAXX 26154 41958 32940 00000 10286 20280 30065 40067 333 58006 70000=
41958,2023,09,26,18,00,AAXX 26184 41958 32940 03302 10276 20270 30066 40068 333 58005 70000=
41958,2023,09,26,21,00,AAXX 26214 41958 32940 00000 10272 20270 30058 40060 333 58006 70000=
41958,2023,09,27,00,00,AAXX 27004 41958 32950 30000 10270 20270 30062 40064 83030 333 56090 58007 70000 83362=
41958,2023,09,27,03,00,AAXX 27034 41958 32457 50502 10310 20280 30075 40077 85400 333 20268 56100 59001 70000 84616=
41958,2023,09,27,06,00,AAXX 27064 41958 32458 50000 10335 20280 30046 40049 85400 333 56900 59013 70000 84617=
41958,2023,09,27,09,00,AAXX 27093 41958 32458 70000 10337 20300 30026 40028 85410 333 56990 59005 70000 84616 87459=
41958,2023,09,27,12,00,AAXX 27124 41958 32456 50000 10300 20270 30018 40020 85400 333 10338 56900 59015 70000 84617=
41958,2023,09,27,15,00,AAXX 27154 41958 32450 40000 10290 20270 30035 40037 84400 333 56900 59030 70000 83617=
41958,2023,09,27,18,00,AAXX 27184 41958 32440 40000 10284 20270 30042 40044 84400 333 56900 59024 70000 83617=
41958,2023,09,27,21,00,AAXX 27214 41958 32440 30000 10282 20280 30042 40044 83400 333 56900 59018 70000 82617=
41958,2023,09,28,00,00,AAXX 28004 41958 31440 30000 10281 20280 30044 40046 70520 83400 333 56900 59018 70000 82617=
41958,2023,09,28,03,00,AAXX 28034 41958 32457 22701 10320 20290 30058 40060 82500 333 10273 56900 59017 70000 82617=
41958,2023,09,28,06,00,AAXX 28064 41958 32458 50000 10350 20290 30049 40051 85400 333 56900 58003 70000 83617=
41958,2023,09,28,09,00,AAXX 28094 41958 32458 40000 10344 20290 30009 40011 84400 333 56900 59017 70000 83617=
41958,2023,09,28,12,00,AAXX 28124 41958 32456 50000 10313 20290 30008 40010 84410 333 10353 56990 59010 70000 83617 85459=
41958,2023,09,28,15,00,AAXX 28154 41958 32450 50000 10300 20290 30023 40025 84410 333 56990 59012 70000 83617 85459=
41958,2023,09,28,18,00,AAXX 28184 41958 32440 60000 10292 20280 30032 40034 85410 333 56990 59010 70000 84617 86459=
41960,2023,09,22,00,00,AAXX 22004 41960 01320 71802 10275 20270 30077 40078 76322 86710 333 58012 70002 82708 84614 87459==
41960,2023,09,22,03,00,AAXX 22034 41960 01450 71802 10292 20270 30095 40097 70296 85410 333 20263 58011 70072 84616 87459==
41960,2023,09,22,06,00,AAXX 22064 41960 11450 80000 10292 20270 30088 40090 60046 70396 8542/ 333 58007 70060 84617 88459==
41960,2023,09,22,09,00,AAXX 22094 41960 02450 71802 10312 20280 30061 40063 84410 333 58006 70060 83618 87459==
41960,2023,09,22,12,00,AAXX 22124 41960 01330 80000 10282 20270 30068 40069 76122 8672/ 333 10316 58012 70040 81708 84616 88458==
41960,2023,09,22,15,00,AAXX 22154 41960 01430 30000 10268 20268 30089 40090 70162 83400 333 58008 70100 82618==
41960,2023,09,22,18,00,AAXX 22184 41960 11430 60000 10268 20268 30083 40085 60026 70362 84410 333 58005 70100 83618 86459==
41960,2023,09,22,21,00,AAXX 22214 41960 02440 60000 10270 20270 30080 40082 85410 333 58005 70100 83618 86459==
41960,2023,09,23,00,00,AAXX 23004 41960 01440 50000 10273 20270 30078 40079 71792 85910 333 58001 70098 83617 85459 82928==
41960,2023,09,23,03,00,AAXX 23034 41960 01456 40000 10306 20290 30098 40100 70196 84401 333 20264 58003 70064 83618==
41960,2023,09,23,06,00,AAXX 23064 41960 11457 50000 10335 20280 30088 40090 69966 70396 84410 333 58000 70064 83618 85459==
41960,2023,09,23,09,00,AAXX 23094 41960 01456 51903 10312 20260 30069 40071 70296 85311 333 58008 70190 83617 85459 81929==
41960,2023,09,23,12,00,AAXX 23124 41960 11430 30000 10300 20280 30066 40068 60136 70196 82401 333 10338 59002 70152 81618 83080==
41960,2023,09,23,15,00,AAXX 23154 41960 02940 00000 10283 20270 30084 40086 333 59005 70132==
41960,2023,09,23,18,00,AAXX 23184 41960 02/40 30000 10282 20270 30084 40086 83010 333 58001 70132 83459==
41960,2023,09,23,21,00,AAXX 23214 41960 01440 30000 10276 20276 30080 40081 70500 83400 333 58000 70132 82617==
41960,2023,09,24,00,00,AAXX 24004 41960 01440 40000 10274 20270 30074 40075 70510 84300 333 59004 70132 83617 81929==
41960,2023,09,24,03,00,AAXX 24034 41960 02450 31801 10310 20280 30085 40087 83401 333 20270 59013 70126 82618==
41960,2023,09,24,06,00,AAXX 24064 41960 01450 71802 10318 20280 30073 40075 70362 84410 333 59015 70130 83618 87459==
41960,2023,09,24,09,00,AAXX 24094 41960 01440 52110 10290 20280 30056 40058 72166 85310 333 59013 70172 83617 83822 85459 81929==
41960,2023,09,24,12,00,AAXX 24124 41960 21440 52502 10279 20260 30046 40047 70262 85401 333 10330 59020 60048 70172 83618 83080==
41960,2023,09,24,15,00,AAXX 24154 41960 02440 50000 10273 20270 30074 40075 84410 333 59010 70172 83618 85459==
41960,2023,09,24,18,00,AAXX 24184 41960 02440 60000 10273 20270 30066 40067 84410 333 59018 70172 83618 86459==
41960,2023,09,24,21,00,AAXX 24214 41960 01440 40000 10270 20270 30067 40068 70521 83410 333 59013 70172 82618 84459==
41960,2023,09,25,00,00,AAXX 25004 41960 01540 30000 10268 20268 30066 40068 70521 82301 333 59008 70172 81825 81930==
41960,2023,09,25,03,00,AAXX 25034 41960 02456 21802 10298 20270 30081 40082 82401 333 20265 59004 70172 81618==
41960,2023,09,25,06,00,AAXX 25064 41960 02457 41801 10343 20260 30067 40069 84401 333 59006 70042 83618==
41960,2023,09,25,09,00,AAXX 25094 41960 01450 50000 10307 20260 30047 40049 71796 85910 333 59009 70042 82617 83822 85459 81928==
41960,2023,09,25,12,00,AAXX 25124 41960 11450 50000 10303 20270 30043 40045 60046 70296 85401 333 10345 59003 70042 83618==
41960,2023,09,25,15,00,AAXX 25154 41960 02450 20000 10284 20270 30067 40069 82400 333 59007 70042 81618==
41960,2023,09,25,18,00,AAXX 25184 41960 02940 00000 10277 20277 30071 40073 333 58005 70042==
41960,2023,09,25,21,00,AAXX 25214 41960 01940 00000 10272 20270 30069 40070 70500 333 58002 70042==
41960,2023,09,26,00,00,AAXX 26004 41960 01/40 30000 10268 20268 30065 40066 70500 81031 333 59001 70042 81365 83078==
41960,2023,09,26,03,00,AAXX 26034 41960 02456 30000 10303 20270 30083 40084 83401 333 20264 58002 70042 82618==
41960,2023,09,26,06,00,AAXX 26064 41960 02457 30000 10332 20240 30070 40072 83401 333 58003 70042 82618==
41960,2023,09,26,09,00,AAXX 26094 41960 02457 30000 10340 20250 30043 40045 83401 333 59004 70000 82618==
41960,2023,09,26,12,00,AAXX 26124 41960 02450 20000 10310 20260 30039 40041 82401 333 10351 59004 70000 81618==
41960,2023,09,26,15,00,AAXX 26154 41960 02/50 20000 10290 20280 30072 40074 82010 333 58005 70000 82459==
41960,2023,09,26,18,00,AAXX 26184 41960 02440 60000 10280 20270 30073 40075 84411 333 58002 70000 83618 86459==
41960,2023,09,26,21,00,AAXX 26214 41960 02/50 60000 10276 20270 30070 40072 86010 333 58001 70000 86460==
41960,2023,09,27,00,00,AAXX 27004 41960 02/50 60000 10270 20270 30069 40070 86071 333 58004 70000 85460==
41960,2023,09,27,03,00,AAXX 27034 41960 02450 70000 10301 20270 30084 40086 83471 333 20268 58001 70000 81618 86460==
41960,2023,09,27,06,00,AAXX 27064 41960 21450 70000 10288 20260 30063 40064 70262 84470 333 59007 60065 70062 83618 85459==
41960,2023,09,27,09,00,AAXX 27093 41960 02450 60000 10308 20260 30035 40037 84470 333 59008 70062 82618 85460==
41960,2023,09,27,12,00,AAXX 27124 41960 02450 30000 10294 20270 30026 40028 82401 333 10314 59013 70062 81618 83080==
41960,2023,09,27,15,00,AAXX 27154 41960 02950 00000 10280 20270 30053 40055 333 59019 70062==
41960,2023,09,27,18,00,AAXX 27184 41960 02440 20000 10279 20270 30053 40055 82401 333 59020 70062 81618==
41960,2023,09,27,21,00,AAXX 27214 41960 02/50 20000 10276 20276 30053 40054 82040 333 59017 70062 82365==
41960,2023,09,28,00,00,AAXX 28004 41960 02/50 20000 10272 20270 30052 40053 82040 333 59017 70062 82365==
41960,2023,09,28,03,00,AAXX 28034 41960 02450 50000 10301 20250 30062 40064 82401 333 20265 59022 70062 81618 85080==
41960,2023,09,28,06,00,AAXX 28064 41960 02457 50000 10338 20280 30050 40052 84411 333 59013 70000 83618 85459==
41960,2023,09,28,09,00,AAXX 28094 41960 02458 43302 10349 20270 30017 40019 84401 333 59018 70000 83618==
41960,2023,09,28,12,00,AAXX 28124 41960 02450 60000 10318 20290 30015 40017 84411 333 10352 59011 70000 83618 86459==
41960,2023,09,28,15,00,AAXX 28154 41960 02450 60000 10301 20290 30037 40039 84411 333 59016 70000 83618 86459==
41960,2023,09,28,18,00,AAXX 28184 41960 02440 60000 10294 20280 30039 40041 84401 333 59014 70000 83618 86080==
41963,2023,09,22,00,00,AAXX 22004 41963 02/56 41602 10270 20260 30078 40081 84030 333 58011 70180 84363==
41963,2023,09,22,03,00,AAXX 22034 41963 01350 80000 10268 20260 30098 40101 79562 8532/ 333 20258 58008 70300 82710 83614 88458 81938==
41963,2023,09,22,06,00,AAXX 22064 41963 01356 80000 10278 20270 30087 40090 70296 8562/ 333 58005 70330 82708 83614 88458==
41963,2023,09,22,09,00,AAXX 22094 41963 02456 31302 10290 20280 30067 40070 82570 333 58005 70280 82617 83363==
41963,2023,09,22,12,00,AAXX 22124 41963 02556 30000 10284 20270 30072 40075 81160 333 10290 58010 70230 81825 83363==
41963,2023,09,22,15,00,AAXX 22154 41963 02/50 31402 10280 20270 30088 40091 83040 333 58000 70180 83363==
41963,2023,09,22,21,00,AAXX 22214 41963 02/50 20000 10272 20270 30077 40080 82030 333 59006 70150 82363==
41963,2023,09,23,00,00,AAXX 23004 41963 02556 30000 10270 20270 30079 40082 81140 333 58001 70150 81825 83364==
41963,2023,09,23,03,00,AAXX 23034 41963 02456 31603 10314 20270 30100 40102 83400 333 20257 58002 70030 81618==
41963,2023,09,23,06,00,AAXX 23064 41963 21456 31802 10314 20270 30091 40094 70262 83400 333 58004 60015 70010 82618 83825==
41963,2023,09,23,09,00,AAXX 23094 41963 01456 30000 10308 20270 30070 40073 72162 83400 333 58003 70090 82618==
41963,2023,09,23,12,00,AAXX 23124 41963 11/56 30000 10295 20270 30070 40073 60081 70262 83060 333 10320 59002 70090 83363==
41963,2023,09,23,15,00,AAXX 23154 41963 01940 00000 10276 20276 30090 40092 70500 333 58002 70090==
41963,2023,09,23,21,00,AAXX 23214 41963 02950 00000 10268 20268 30076 40079 333 59001 70090==
41963,2023,09,24,00,00,AAXX 24004 41963 02556 20000 10265 20265 30073 40075 82200 333 59006 70090 82825==
41963,2023,09,24,03,00,AAXX 24034 41963 02456 31803 10307 20270 30085 40088 83400 333 20264 59015 70090 82617==
41963,2023,09,24,06,00,AAXX 24064 41963 01456 31602 10310 20280 30076 40078 72122 83400 333 59015 70010 82617 83825==
41963,2023,09,24,09,00,AAXX 24094 41963 02456 51804 10325 20270 30050 40052 83460 333 59020 70010 82617 83363==
41963,2023,09,24,12,00,AAXX 24124 41963 02/56 30000 10294 20270 30048 40050 83060 333 10330 59022 70010 83363==
41963,2023,09,24,15,00,AAXX 24154 41963 02450 30000 10280 20260 30075 40078 82530 333 59015 70010 82618 83364==
41963,2023,09,24,18,00,AAXX 24184 41963 NIL=
41963,2023,09,24,21,00,AAXX 24214 41963 02950 00000 10273 20273 30073 40076 333 59003 70010==
41963,2023,09,25,00,00,AAXX 25004 41963 02456 30000 10270 20270 30073 40076 83400 333 58000 70010 81618==
41963,2023,09,25,03,00,AAXX 25034 41963 02456 30000 10310 20270 30080 40083 83400 333 20268 59005 70010 82618==
41963,2023,09,25,06,00,AAXX 25064 41963 21456 40000 10290 20280 30071 40074 72162 84400 333 59005 60055 70050 83618==
41963,2023,09,25,09,00,AAXX 25094 41963 02456 32102 10322 20270 30046 40049 83400 333 59004 70050 81618 83825==
41963,2023,09,25,12,00,AAXX 25124 41963 NIL=
41963,2023,09,25,15,00,AAXX 25154 41963 02950 00000 10278 20278 30067 40070 333 59008 70050==
41963,2023,09,25,18,00,AAXX 25184 41963 NIL=
41963,2023,09,25,21,00,AAXX 25214 41963 02950 00000 10268 20268 30070 40073 333 59003 70050==
41963,2023,09,26,00,00,AAXX 26004 41963 02/56 30000 10264 20264 30068 40071 83030 333 59005 70050 83364==
41963,2023,09,26,03,00,AAXX 26034 41963 02556 20000 10320 20270 30080 40083 82100 333 20260 58000 70050 82825==
41963,2023,09,26,06,00,AAXX 26064 41963 02456 30000 10325 20260 30065 40068 83400 333 59006 70000 81618 83825==
41963,2023,09,26,09,00,AAXX 26094 41963 02456 12101 10333 20260 30042 40044 81500 333 59004 70000 81618==
41963,2023,09,26,12,00,AAXX 26124 41963 NIL=
41963,2023,09,26,15,00,AAXX 26154 41963 02950 00000 10285 20270 30071 40073 333 58004 70000==
41963,2023,09,26,18,00,AAXX 26184 41963 NIL=
41963,2023,09,26,21,00,AAXX 26214 41963 01450 50000 10280 20280 30074 40076 71321 83370 333 58004 70000 82617 84458 81928==
41963,2023,09,27,00,00,AAXX 27004 41963 02/50 30000 10283 20280 30076 40078 83060 333 58004 70000 83363==
41963,2023,09,27,03,00,AAXX 27034 41963 01456 80000 10250 20250 30082 40085 76196 8462/ 333 20248 58002 70290 83616 88458==
41963,2023,09,27,06,00,AAXX 27064 41963 21456 50000 10290 20260 30059 40062 70196 82570 333 59006 60298 70300 82617 83459==
41963,2023,09,27,09,00,AAXX 27093 41963 02/56 23301 10310 20260 30030 40033 82030 333 59012 70300 82363==
41963,2023,09,27,12,00,AAXX 27124 41963 02/56 20000 10290 20280 30025 40028 82030 333 10315 59015 70300 82363==
41963,2023,09,27,15,00,AAXX 27154 41963 02940 00000 10275 20275 30052 40055 333 59019 70300==
41963,2023,09,27,18,00,AAXX 27184 41963 01940 00000 10273 20273 30050 40052 70500 333 59026 70300==
41963,2023,09,27,21,00,AAXX 27214 41963 01940 00000 10272 20272 30049 40052 70500 333 59025 70300==
41963,2023,09,28,00,00,AAXX 28004 41963 01/50 20000 10270 20270 30046 40049 70511 82030 333 59022 70290 82363==
41963,2023,09,28,03,00,AAXX 28034 41963 02956 30000 10310 20280 30063 40066 80002 333 20260 59019 70010 83078==
41963,2023,09,28,06,00,AAXX 28064 41963 02556 41802 10332 20280 30046 40048 81160 333 59013 70000 81825 84363==
41963,2023,09,28,09,00,AAXX 28094 41963 02956 43102 10333 20280 30016 40019 80002 333 59014 70000 84078==
41963,2023,09,28,12,00,AAXX 28124 41963 02956 30000 10310 20270 30015 40017 80002 333 10340 59010 70000 83078==
41963,2023,09,28,15,00,AAXX 28154 41963 01/50 20000 10293 20280 30036 40039 71022 82030 333 59016 70000 82363==
41963,2023,09,28,18,00,AAXX 28184 41963 NIL=
41964,2023,09,22,00,00,AAXX 22004 41964 02456 61402 10269 20260 30074 40076 82512 333 58013 70043 82618 83460 84080==
41964,2023,09,22,03,00,AAXX 22034 41964 02457 51406 10310 20270 30093 40095 83510 333 20263 59001 70018 83618 84460==
41964,2023,09,22,06,00,AAXX 22064 41964 21458 81403 10285 20260 30082 40085 70262 8452/ 333 59002 60127 70120 84618 88458==
41964,2023,09,22,09,00,AAXX 22094 41964 02458 50000 10300 20260 30075 40078 83510 333 58012 70120 83618 84460==
41964,2023,09,22,12,00,AAXX 22124 41964 02456 51401 10283 20270 30065 40068 82512 333 10317 58006 70120 82618 83080==
41964,2023,09,22,21,00,AAXX 22214 41964 02450 61701 10274 20260 30078 40080 83510 333 58000 70120 83618 85460==
41964,2023,09,23,00,00,AAXX 23004 41964 02456 61401 10274 20260 30074 40076 84510 333 58000 70120 84618 84460==
41964,2023,09,23,03,00,AAXX 23034 41964 02457 71802 10301 20280 30098 40100 85510 333 20251 58005 70120 85617 84460==
41964,2023,09,23,06,00,AAXX 23064 41964 02457 51901 10322 20260 30089 40092 83510 333 58007 70000 83618 84460==
41964,2023,09,23,09,00,AAXX 23094 41964 02457 50000 10325 20270 30066 40069 83510 333 59009 70000 83618 84460==
41964,2023,09,23,12,00,AAXX 23124 41964 02456 30000 10290 20270 30065 40068 82501 333 10327 58000 70000 82618 83080==
41964,2023,09,23,15,00,AAXX 23154 41964 02456 50000 10287 20280 30093 40096 83510 333 58005 70000 83618 84460==
41964,2023,09,23,18,00,AAXX 23184 41964 02450 50000 10284 20260 30079 40082 83510 333 59005 70000 83618 84460==
41964,2023,09,23,21,00,AAXX 23214 41964 02450 40000 10278 20270 30074 40077 83510 333 59004 70000 83618 83460==
41964,2023,09,24,00,00,AAXX 24004 41964 02556 50000 10270 20268 30069 40072 83101 333 59005 70000 83825 83080==
41964,2023,09,24,03,00,AAXX 24034 41964 02557 41902 10317 20280 30078 40081 84400 333 20263 59020 70000 83825 82618==
41964,2023,09,24,06,00,AAXX 24064 41964 02457 51801 10320 20280 30080 40083 83510 333 59009 70000 83618 84460==
41964,2023,09,24,09,00,AAXX 24094 41964 02457 30000 10320 20270 30046 40048 83500 333 59020 70000 83618==
41964,2023,09,24,12,00,AAXX 24124 41964 02456 30000 10290 20270 30044 40046 81502 333 10326 59021 70000 81618 83080==
41964,2023,09,24,15,00,AAXX 24154 41964 02456 30000 10281 20260 30087 40090 83500 333 59006 70000 83618==
41964,2023,09,24,18,00,AAXX 24184 41964 NIL=
41964,2023,09,24,21,00,AAXX 24214 41964 02350 62302 10270 20250 30062 40065 85620 333 59012 70000 83702 83617 83460==
41964,2023,09,25,00,00,AAXX 25004 41964 01345 82201 10268 20260 30075 40060 76122 8572/ 333 59012 70020 83708 83616 88458==
41964,2023,09,25,03,00,AAXX 25034 41964 01557 51403 10318 20280 30072 40075 70162 85400 333 20255 59006 70042 83825 83620==
41964,2023,09,25,06,00,AAXX 25064 41964 11457 21601 10320 20250 30071 40074 60026 70161 82500 333 59009 70042 82618==
41964,2023,09,25,09,00,AAXX 25094 41964 02457 20000 10335 20230 30040 40042 82500 333 59006 70042 82618==
41964,2023,09,25,12,00,AAXX 25124 41964 02456 22301 10295 20280 30040 40042 82500 333 10341 59004 70042 82618==
41964,2023,09,25,15,00,AAXX 25154 41964 02456 20000 10285 20280 30074 40077 82500 333 59013 70042 82618==
41964,2023,09,25,18,00,AAXX 25184 41964 02456 20000 10284 20260 30066 40069 82500 333 59001 70042 82618==
41964,2023,09,25,21,00,AAXX 25214 41964 02456 30000 10276 20270 30061 40064 83500 333 59001 70042 83618==
41964,2023,09,26,00,00,AAXX 26004 41964 02/56 40000 10270 20268 30057 40059 80011 333 58000 70022 83460==
41964,2023,09,26,03,00,AAXX 26034 41964 02558 41401 10324 20280 30072 40075 84400 333 20263 58000 70000 83623==
41964,2023,09,26,06,00,AAXX 26064 41964 02558 40000 10335 20280 30067 40070 84400 333 59004 70000 83623==
41964,2023,09,26,09,00,AAXX 26094 41964 02958 20000 10346 20260 30039 40041 82500 333 59001 70000 82618==
41964,2023,09,26,12,00,AAXX 26124 41964 02457 20000 10300 20270 30035 40037 81502 333 10356 59005 70000 81618==
41964,2023,09,26,15,00,AAXX 26154 41964 02457 50000 10288 20270 30072 40074 83510 333 59002 70000 83618 84460==
41964,2023,09,26,18,00,AAXX 26184 41964 NIL=
41964,2023,09,26,21,00,AAXX 26214 41964 01345 80000 10264 20250 30078 40081 71392 8532/ 333 58017 70000 84709 83617 88459 81928==
41964,2023,09,27,00,00,AAXX 27004 41964 21330 80502 10250 20250 30079 40082 79596 8732/ 333 58022 60445 70440 84707 84615 88457 81928==
41964,2023,09,27,03,00,AAXX 27034 41964 01340 82301 10254 20253 30074 40076 76196 8732/ 333 20240 58002 70696 84708 84616 88458 81928==
41964,2023,09,27,06,00,AAXX 27064 41964 21440 50000 10310 20260 30061 40064 70196 83510 333 60268 70700 83618 84460==
41964,2023,09,27,09,00,AAXX 27094 41964 02457 20000 10320 20260 30020 40023 82500 333 59019 70700 82618==
41964,2023,09,27,12,00,AAXX 27124 41964 02957 43201 10299 20280 30013 40015 80002 333 10331 59022 70700 84080==
41964,2023,09,27,15,00,AAXX 27154 41964 02956 00000 10285 20260 30048 40051 333 59024 70000==
41964,2023,09,27,18,00,AAXX 27184 41964 02950 00000 10283 20260 30049 40051 333 59027 70000==
41964,2023,09,27,21,00,AAXX 27214 41964 02950 20000 10279 20270 30045 40048 80002 333 59033 70700 82080==
41964,2023,09,28,00,00,AAXX 28004 41964 02956 33201 10274 20270 30039 40042 80002 333 59040 70300 83080==
41964,2023,09,28,03,00,AAXX 28034 41964 02/56 40000 10318 20290 30054 40057 83012 333 20248 59020 70004 83460 83080==
41964,2023,09,28,06,00,AAXX 28064 41964 NIL=
41964,2023,09,28,09,00,AAXX 28094 41964 02457 70000 10335 20260 30017 40019 84510 333 59003 70000 84618 86460==
41964,2023,09,28,12,00,AAXX 28124 41964 02456 60000 10305 20290 30005 40008 82511 333 10345 59008 70000 82618 83460 83080==
41964,2023,09,28,15,00,AAXX 28154 41964 02456 60000 10300 20290 30029 40032 83511 333 59019 70000 82618 83460 83080==
41964,2023,09,28,18,00,AAXX 28184 41964 NIL=
41965,2023,09,22,03,00,AAXX 22034 41965 02450 52204 10285 20220 30091 40099 84410 333 58013 70000 83618 84460==
41965,2023,09,22,06,00,AAXX 22064 41965 02440 80000 10290 20210 30088 40097 8431/ 333 58005 70000 81710 83618 88460==
41965,2023,09,22,09,00,AAXX 22094 41965 01456 51402 10295 20230 30062 40071 70162 84430 333 58002 70020 82618 83362==
41965,2023,09,22,12,00,AAXX 22124 41965 12450 50000 10335 20230 30070 40079 60026 84430 333 58007 70020 82618 83362==
41965,2023,09,22,15,00,AAXX 22154 41965 02440 50000 10265 20230 30090 40099 84610 333 58023 70020 82618 84460==
41965,2023,09,22,18,00,AAXX 22184 41965 02440 50000 10265 20240 30084 40093 84610 333 58008 70020 82618 84460==
41965,2023,09,23,03,00,AAXX 23034 41965 02456 51402 10310 20255 30099 40108 84410 333 58001 70020 83618 84460==
41965,2023,09,23,06,00,AAXX 23064 41965 02456 51303 10330 20230 30085 40094 84410 333 59003 70020 83618 84460==
41965,2023,09,23,09,00,AAXX 23094 41965 02456 52202 10340 20250 30072 40080 84410 333 59010 70000 82618 84460==
41965,2023,09,23,12,00,AAXX 23124 41965 02450 30000 10348 20230 30069 40077 83600 333 59001 70000 83618==
41965,2023,09,23,18,00,AAXX 23184 41965 42440 50000 10270 20240 30072 40081 59012 84460==
41965,2023,09,23,21,00,AAXX 23214 41965 02440 30000 10270 20240 30070 40079 83600 333 59016 70000 83618==
41965,2023,09,24,00,00,AAXX 24004 41965 02440 30000 10265 20240 30072 40081 83600 333 59019 70000 83618==
41965,2023,09,24,03,00,AAXX 24034 41965 02456 31402 10315 20260 30082 40091 83600 333 59017 70000 83618==
41965,2023,09,24,06,00,AAXX 24064 41965 02456 61301 10330 20220 30075 40084 84310 333 59010 70000 83618 85460==
41965,2023,09,24,09,00,AAXX 24094 41965 02456 60000 10340 20210 30047 40055 84410 333 59025 70000 83618 84460==
41965,2023,09,24,12,00,AAXX 24124 41965 02450 50000 10300 20230 30046 40054 84410 333 10350 59023 70000 83618 84460==
41965,2023,09,24,18,00,AAXX 24184 41965 NIL=
41965,2023,09,25,00,00,AAXX 25004 41965 01440 30000 10260 20220 30063 40072 70542 83600 333 59009 70000 83618==
41965,2023,09,25,03,00,AAXX 25034 41965 02456 31402 10328 20255 30076 40085 83600 333 59006 70000 83618==
41965,2023,09,25,06,00,AAXX 25064 41965 02450 50000 10325 20230 30065 40074 84410 333 59010 70000 82618 84460==
41965,2023,09,25,09,00,AAXX 25094 41965 02450 50000 10340 20210 30040 40048 84410 333 59007 70000 83618 84460==
41965,2023,09,25,12,00,AAXX 25124 41965 02450 50000 10305 20240 30038 40046 84410 333 10365 59008 70000 83618 84460==
41965,2023,09,25,18,00,AAXX 25184 41965 NIL=
41965,2023,09,26,00,00,AAXX 26004 41965 02440 30000 10265 20230 30062 40070 83600 333 59001 70000 83618==
41965,2023,09,26,03,00,AAXX 26034 41965 01440 50000 10320 20220 30076 40084 70542 84410 333 20260 58000 70000 82618 84460==
41965,2023,09,26,06,00,AAXX 26064 41965 02456 50000 10345 20230 30057 40066 84410 333 59008 70000 82618 84460==
41965,2023,09,26,12,00,AAXX 26124 41965 01950 00000 10305 20230 30032 40040 70540 333 10370 59006 70000==
41965,2023,09,26,15,00,AAXX 26154 41965 01450 80000 10300 20240 30046 40054 70542 84310 333 58003 70000 83618 88460 81928==
41965,2023,09,26,18,00,AAXX 26184 41965 NIL=
41965,2023,09,27,00,00,AAXX 27004 41965 01430 80000 10255 20210 30072 40080 79722 8431/ 333 58010 70050 81710 83618 88460 81928==
41965,2023,09,27,03,00,AAXX 27034 41965 01440 80000 10265 20230 30075 40083 70296 8431/ 333 20250 58001 70070 81710 83618 88460 81928==
41965,2023,09,27,06,00,AAXX 27064 41965 11456 51402 10320 20190 30051 40060 60026 70161 333 59006 70070 82618 84460==
41965,2023,09,27,09,00,AAXX 27093 41965 02456 51301 10336 20240 30016 40025 84410 333 59013 70070 82618 84460==
41965,2023,09,27,12,00,AAXX 27124 41965 02450 50000 10300 20240 30014 40022 84410 333 10350 59018 70070 82618 84460==
41965,2023,09,28,00,00,AAXX 28004 41965 01930 00000 10270 20220 30042 40050 70540 333 59030 70020==
41965,2023,09,28,03,00,AAXX 28034 41965 01440 60000 10310 20230 30056 40064 70542 84310 333 20260 59019 70000 82618 84460 81928==
41965,2023,09,28,06,00,AAXX 28064 41965 02456 31402 10340 20230 30039 40048 83600 333 59012 70000 83618==
41965,2023,09,28,09,00,AAXX 28094 41965 02450 31301 10335 20240 30005 40014 83600 333 59011 70000 83618==
41965,2023,09,28,12,00,AAXX 28124 41965 01450 60000 10315 20270 30003 40011 70542 84310 333 10360 59011 70000 82618 84460 81928==
41965,2023,09,28,15,00,AAXX 28154 41965 01450 60000 10290 20250 30033 40041 70542 84310 333 59010 70000 82618 84460 81928==
41965,2023,09,28,18,00,AAXX 28184 41965 NIL=
41966,2023,09,22,00,00,AAXX 22004 41966 02440 40000 10260 20230 30014 40093 82510 333 58006 70018 82616 83460==
41966,2023,09,22,03,00,AAXX 22034 41966 02/50 31301 10310 20210 30031 40109 83030 333 20250 58009 70018 83362==
41966,2023,09,22,06,00,AAXX 22064 41966 02450 51301 10325 20210 30027 40105 82510 333 58013 70018 82616 84460==
41966,2023,09,22,09,00,AAXX 22094 41966 01450 50000 10290 20250 30002 40080 70262 82510 333 58000 70048 82616 84460==
41966,2023,09,22,12,00,AAXX 22124 41966 11440 50000 10290 20230 30000 40078 60051 70262 82510 333 10330 58002 70048 82616 84460==
41966,2023,09,22,21,00,AAXX 22214 41966 02420 40000 10265 20230 30010 40088 82510 333 58002 70048 82616 83460==
41966,2023,09,23,00,00,AAXX 23004 41966 02440 40000 10255 20230 30016 40095 82510 333 58002 70048 82616 83460==
41966,2023,09,23,03,00,AAXX 23034 41966 02550 21301 10310 20220 39940 40118 82100 333 20250 58009 70048 82827==
41966,2023,09,23,06,00,AAXX 23064 41966 02450 42601 10328 20200 30029 40107 82510 333 58002 70048 82616 83460==
41966,2023,09,23,09,00,AAXX 23094 41966 02450 40000 10305 20230 39997 40075 82510 333 59005 70000 82616 83460==
41966,2023,09,23,12,00,AAXX 23124 41966 01440 60000 10290 20250 30004 40082 72122 82510 333 10335 58004 70020 82616 85460==
41966,2023,09,23,18,00,AAXX 23184 41966 02420 60000 10270 20240 30017 40096 83510 333 58007 70016 83616 85460==
41966,2023,09,23,21,00,AAXX 23214 41966 02420 40000 10260 20230 30014 40093 82510 333 58005 70016 82616 83460==
41966,2023,09,24,00,00,AAXX 24004 41966 02440 40000 10255 20230 30018 40098 82510 333 58003 70016 82616 83460==
41966,2023,09,24,03,00,AAXX 24034 41966 02450 41301 10305 20240 30029 40107 82510 333 20250 59011 70016 82616 83460==
41966,2023,09,24,06,00,AAXX 24064 41966 02450 40000 10330 20210 30008 40086 82510 333 59021 70016 82616 83460==
41966,2023,09,24,09,00,AAXX 24094 41966 02450 40000 10322 20200 39979 40056 82510 333 59019 70016 82616 83460==
41966,2023,09,24,12,00,AAXX 24124 41966 02440 50901 10300 20240 39998 40076 83510 333 10335 59006 70000 83616 84460==
41966,2023,09,24,15,00,AAXX 24154 41966 42430 50000 10280 20250 30000 40079 83510 333 59008 83616 84460==
41966,2023,09,24,18,00,AAXX 24184 41966 NIL=
41966,2023,09,24,21,00,AAXX 24214 41966 02420 40000 10265 20240 30005 40084 82510 333 59009 70000 82616 83460==
41966,2023,09,25,00,00,AAXX 25004 41966 02440 40000 10260 20240 30004 40083 82510 333 59015 70000 82616 83460==
41966,2023,09,25,03,00,AAXX 25034 41966 02450 40401 10310 20240 30010 40088 82510 333 20250 59019 70000 82616 83460==
41966,2023,09,25,06,00,AAXX 25064 41966 02/50 30401 10330 20180 30000 40077 83030 333 59009 70000 83362==
41966,2023,09,25,09,00,AAXX 25094 41966 02/50 33601 10340 20180 39987 40064 83030 333 58008 70000 83362==
41966,2023,09,25,12,00,AAXX 25124 41966 02/40 30000 10295 20260 39978 40055 83030 333 10345 59021 70000 83362==
41966,2023,09,25,15,00,AAXX 25154 41966 02/30 30000 10280 20240 39984 40063 83030 333 59016 70000 83362==
41966,2023,09,25,18,00,AAXX 25184 41966 02/20 30000 10270 20240 30000 40079 83030 333 59010 70000 83362==
41966,2023,09,25,21,00,AAXX 25214 41966 02420 50000 10263 20230 39997 40076 82510 333 59008 70000 82616 84460==
41966,2023,09,26,00,00,AAXX 26004 41966 02440 50000 10264 20230 30001 40080 82510 333 59003 70000 82616 84460==
41966,2023,09,26,03,00,AAXX 26034 41966 02/50 33601 10320 20230 30000 40078 83030 333 20257 59010 70000 83362==
41966,2023,09,26,06,00,AAXX 26064 41966 02450 40401 10335 20210 39988 40065 82510 333 59012 70000 82616 83460==
41966,2023,09,26,09,00,AAXX 26094 41966 02550 20000 10352 20180 39975 40051 82100 333 59013 70000 82827==
41966,2023,09,26,12,00,AAXX 26124 41966 02540 40000 10320 20260 39963 40040 82130 333 10356 59015 70000 82826 83362==
41966,2023,09,26,15,00,AAXX 26154 41966 02430 40901 10290 20250 39975 40054 82510 333 59009 70000 82616 84460==
41966,2023,09,26,18,00,AAXX 26184 41966 21320 80000 10275 20250 39998 40077 79596 8492/ 333 59002 60087 70080 82709 83615 88460 81930==
41966,2023,09,26,21,00,AAXX 26214 41966 02320 80000 10265 20240 39997 40076 8492/ 333 58000 70225 82709 83615 88460 81930==
41966,2023,09,27,00,00,AAXX 27004 41966 21330 80901 10250 20220 30009 40089 79596 8492/ 333 58009 60389 70461 82709 83615 88460 81930==
41966,2023,09,27,03,00,AAXX 27034 41966 01440 80801 10280 20250 30006 40084 70296 8352/ 333 20245 58006 70491 83616 88460==
41966,2023,09,27,06,00,AAXX 27064 41966 11450 50000 10320 20200 39991 40068 60036 70196 82510 333 58003 70491 82616 83362==
41966,2023,09,27,09,00,AAXX 27094 41966 02450 50000 10320 20170 39947 40024 82530 333 59027 70491 82616 84362==
41966,2023,09,27,12,00,AAXX 27124 41966 02440 51201 10306 20250 39954 40032 82530 333 10325 59008 70491 82616 84362==
41966,2023,09,27,15,00,AAXX 27154 41966 02430 40000 10290 20240 39969 40047 82510 333 59007 70491 82616 83460==
41966,2023,09,27,21,00,AAXX 27214 41966 02420 50000 10270 20240 39981 40060 83510 333 59016 70266 83616 84460==
41966,2023,09,28,00,00,AAXX 28004 41966 02440 50000 10270 20240 39978 40057 82510 333 59032 70030 82616 84460==
41966,2023,09,28,03,00,AAXX 28034 41966 02450 50901 10315 20270 39986 40064 82510 333 20258 59020 70000 82616 84460==
41966,2023,09,28,06,00,AAXX 28064 41966 02450 50000 10335 20210 39980 40057 82510 333 59011 70000 82616 84460==
41966,2023,09,28,09,00,AAXX 28094 41966 02450 50901 10340 20230 39947 40023 82510 333 59001 70000 82616 84460==
41966,2023,09,28,12,00,AAXX 28124 41966 02430 60000 10310 20270 39935 40012 83510 333 10345 59020 70000 83616 85460==
41966,2023,09,28,15,00,AAXX 28154 41966 02420 60000 10296 20260 39950 40027 83510 333 59020 70000 83616 85460==
41966,2023,09,28,18,00,AAXX 28184 41966 NIL=
41977,2023,09,22,00,00,AAXX 22004 41977 02450 50000 10265 20260 30064 40102 83531 333 58010 70000 83618 83362==
41977,2023,09,22,03,00,AAXX 22034 41977 02456 51603 10300 20270 30092 40130 83530 333 20261 58015 70000 83618 83360==
41977,2023,09,22,06,00,AAXX 22064 41977 02450 82005 10310 20270 30075 40113 8662/ 333 58011 70000 82712 84616 88460==
41977,2023,09,22,09,00,AAXX 22094 41977 02456 62104 10316 20250 30052 40089 83531 333 58001 70000 83618 84362==
41977,2023,09,22,12,00,AAXX 22124 41977 02450 50000 10296 20260 30060 40098 82531 333 10320 58004 70000 82618 83362==
41977,2023,09,22,15,00,AAXX 22154 41977 02456 41802 10290 20280 30076 40114 82530 333 59002 70000 82616 82362==
41977,2023,09,22,18,00,AAXX 22184 41977 02456 31402 10278 20270 30068 40106 82510 333 59001 70000 82616 83460==
41977,2023,09,22,21,00,AAXX 22214 41977 02450 40000 10272 20260 30064 40102 83530 333 59003 70000 83618 84360==
41977,2023,09,23,00,00,AAXX 23004 41977 02450 40000 10267 20260 30059 40097 83531 333 59005 70000 83618 83362==
41977,2023,09,23,03,00,AAXX 23034 41977 02456 52104 10310 20270 30092 40129 83530 333 20265 58000 70000 83618 84362==
41977,2023,09,23,06,00,AAXX 23064 41977 02456 32106 10328 20270 30079 40116 82530 333 58004 70000 82618 83362==
41977,2023,09,23,09,00,AAXX 23094 41977 02456 42206 10320 20270 30053 40090 82530 333 58001 70000 82618 83362==
41977,2023,09,23,12,00,AAXX 23124 41977 02456 40000 10300 20270 30054 40092 82531 333 10330 59006 70000 82616 83363 84080==
41977,2023,09,23,15,00,AAXX 23154 41977 02456 40000 10289 20280 30065 40103 82530 333 59011 70000 82616 83362==
41977,2023,09,23,18,00,AAXX 23184 41977 02456 30000 10281 20270 30069 40107 82510 333 58001 70000 82616 83460==
41977,2023,09,23,21,00,AAXX 23214 41977 02450 40000 10275 20265 30065 40102 83530 333 58000 70000 83618 84362==
41977,2023,09,24,00,00,AAXX 24004 41977 02450 40000 10268 20268 30058 40096 83530 333 59001 70000 83618 84362==
41977,2023,09,24,03,00,AAXX 24034 41977 42456 40000 10311 20264 30067 40105 59025 84360==
41977,2023,09,24,06,00,AAXX 24064 41977 02456 42005 10321 20260 30064 40102 83530 333 59015 70000 83618 84360==
41977,2023,09,24,09,00,AAXX 24094 41977 02456 62104 10312 20270 30034 40071 83530 333 59019 70000 83618 86362==
41977,2023,09,24,12,00,AAXX 24124 41977 02456 60000 10298 20270 30038 40096 83531 333 10328 59016 70000 83618 84362==
41977,2023,09,24,15,00,AAXX 24154 41977 02456 60000 10285 20270 30059 40094 83531 333 59006 70000 83618 84362==
41977,2023,09,24,18,00,AAXX 24184 41977 02456 61302 10278 20270 30050 40088 83531 333 59019 70000 83618 84362==
41977,2023,09,24,21,00,AAXX 24214 41977 02450 40000 10274 20260 30049 40087 83530 333 59015 70000 83618 83362==
41977,2023,09,25,00,00,AAXX 25004 41977 02450 30000 10266 20266 30046 40084 82530 333 59012 70000 82618 83362==
41977,2023,09,25,03,00,AAXX 25034 41977 02456 52102 10312 20270 30065 40103 83530 333 20260 59002 70000 83618 85362==
41977,2023,09,25,06,00,AAXX 25064 41977 02456 60000 10318 20270 30050 40087 83530 333 59014 70000 83618 86362==
41977,2023,09,25,09,00,AAXX 25094 41977 02456 50000 10333 20270 30037 40074 83530 333 58003 70000 83618 85362==
41977,2023,09,25,12,00,AAXX 25124 41977 02456 42603 10300 20270 30026 40064 83530 333 10334 59012 70000 83618 83362==
41977,2023,09,25,15,00,AAXX 25154 41977 02456 40000 10291 20280 30050 40088 83590 333 59009 70000 83618 83362==
41977,2023,09,25,18,00,AAXX 25184 41977 02356 60000 10282 20280 30054 40092 84610 333 58004 70000 81710 84616 86460==
41977,2023,09,25,21,00,AAXX 25214 41977 02450 50000 10278 20278 30052 40089 82531 333 58003 70000 82618 84362==
41977,2023,09,26,00,00,AAXX 26004 41977 02450 40000 10275 20275 30048 40085 82531 333 58002 70000 82618 83362==
41977,2023,09,26,03,00,AAXX 26034 41977 02456 40000 10328 20280 30065 40102 82530 333 20271 58000 70000 82618 83362==
41977,2023,09,26,06,00,AAXX 26064 41977 02456 50000 10340 20270 30043 40082 83530 333 59006 70000 83618 84360==
41977,2023,09,26,09,00,AAXX 26094 41977 02456 32805 10348 20280 30015 40052 82530 333 59022 70000 82618 83362==
41977,2023,09,26,12,00,AAXX 26124 41977 02456 40000 10316 20280 30020 40057 82501 333 10350 59006 70000 82618 84080==
41977,2023,09,26,15,00,AAXX 26154 41977 02456 40000 10307 20280 30048 40085 82530 333 59002 70000 82618 84362==
41977,2023,09,26,18,00,AAXX 26184 41977 01350 82303 10282 20260 30046 40086 79522 8692/ 333 59008 70000 82710 85615 88458 82928==
41977,2023,09,26,21,00,AAXX 26214 41977 01350 80000 10275 20270 30050 40088 76196 8632/ 333 59002 70020 82710 84615 88458 81928==
41977,2023,09,27,00,00,AAXX 27004 41977 21340 80000 10260 20260 30052 40090 76196 8632/ 333 58004 60049 70040 82710 84615 88458 81928==
41977,2023,09,27,03,00,AAXX 27034 41977 01350 81603 10285 20250 30045 40083 72166 8662/ 333 20248 59020 70240 82712 84616 88460==
41977,2023,09,27,06,00,AAXX 27064 41977 21456 60000 10320 20270 30036 40074 70162 84530 333 59008 60208 70240 84618 84360==
41977,2023,09,27,09,00,AAXX 27093 41977 02456 32103 10334 20270 30003 40040 82501 333 59012 70240 82618 83080==
41977,2023,09,27,12,00,AAXX 27124 41977 02456 40000 10304 20270 30002 40039 82501 333 10340 59018 70240 82618 84080==
41977,2023,09,27,18,00,AAXX 27184 41977 02356 70000 10288 20290 30032 40070 85610 333 59014 70240 82710 84616 86459==
41977,2023,09,27,21,00,AAXX 27214 41977 02450 60000 10283 20280 30035 40073 83571 333 59015 70220 83618 83362==
41977,2023,09,28,00,00,AAXX 28004 41977 02350 60000 10278 20278 30034 40071 85620 333 59018 70200 82710 83615 85460==
41977,2023,09,28,03,00,AAXX 28034 41977 02456 60000 10308 20280 30043 40081 84530 333 20248 59002 70000 84618 84360==
41977,2023,09,28,06,00,AAXX 28064 41977 02360 72803 10348 20290 30029 40066 85620 333 59007 70000 82712 83616 86460==
41977,2023,09,28,09,00,AAXX 28094 41977 02456 73104 10342 20280 39994 40031 84570 333 59009 70000 84617 85460==
41977,2023,09,28,12,00,AAXX 28124 41977 02456 70000 10318 20290 39990 40027 83531 333 10350 59012 70000 83618 84362 85080==
41977,2023,09,28,15,00,AAXX 28154 41977 42/56 70000 10295 20230 30015 40053 59013 85080==
41977,2023,09,28,18,00,AAXX 28184 41977 NIL=
41978,2023,09,22,00,00,AAXX 22004 41978 01445 61503 10266 20260 30080 40087 70522 83520 333 58008 70000 83618 85360==
41978,2023,09,22,03,00,AAXX 22034 41978 02456 51511 10302 20270 30101 40108 82530 333 20264 58004 70000 82618 85360==
41978,2023,09,22,06,00,AAXX 22064 41978 02450 61811 10324 20270 30095 40101 84320 333 58009 70000 83618 85460 81930==
41978,2023,09,22,09,00,AAXX 22094 41978 01450 61810 10308 20260 30066 40072 70262 83510 333 58000 70010 83618 85460==
41978,2023,09,22,12,00,AAXX 22124 41978 11450 42007 10297 20280 30073 40080 60016 70162 82510 333 10329 58004 70010 82618 84460==
41978,2023,09,22,15,00,AAXX 22154 41978 02450 41604 10292 20280 30095 40102 82530 333 58001 70010 82618 84360==
41978,2023,09,22,18,00,AAXX 22184 41978 02450 40000 10280 20270 30088 40094 82530 333 59002 70010 82618 84360==
41978,2023,09,22,21,00,AAXX 22214 41978 01450 40000 10272 20260 30078 40085 70521 82530 333 58000 70010 82618 84360==
41978,2023,09,23,00,00,AAXX 23004 41978 01450 40000 10266 20260 30081 40087 70521 82530 333 58001 70010 82618 84360==
41978,2023,09,23,03,00,AAXX 23034 41978 02456 41505 10311 20270 30104 40111 82530 333 20264 58003 70010 82618 84360==
41978,2023,09,23,06,00,AAXX 23064 41978 02456 42408 10322 20270 30093 40099 82530 333 59002 70010 82618 84360==
41978,2023,09,23,09,00,AAXX 23094 41978 02556 52008 10322 20290 30069 40075 83230 333 58003 70000 83825==
41978,2023,09,23,12,00,AAXX 23124 41978 02456 51804 10300 20280 30071 40077 82530 333 10330 59002 70000 82618 84360==
41978,2023,09,23,15,00,AAXX 23154 41978 02450 21504 10293 20280 30091 40098 82500 333 59004 70000 82618==
41978,2023,09,23,18,00,AAXX 23184 41978 02450 20000 10281 20270 30085 40092 82500 333 59003 70000 82618==
41978,2023,09,23,21,00,AAXX 23214 41978 02450 20000 10275 20270 30072 40078 82500 333 59006 70000 82618==
41978,2023,09,24,00,00,AAXX 24004 41978 02450 30000 10268 20268 30074 40081 83500 333 59007 70000 83618==
41978,2023,09,24,03,00,AAXX 24034 41978 02456 31605 10303 20270 30086 40093 83500 333 20266 59018 70000 83618==
41978,2023,09,24,06,00,AAXX 24064 41978 02456 52411 10324 20270 30079 40085 82130 333 59014 70000 82828 84360==
41978,2023,09,24,09,00,AAXX 24094 41978 02456 62007 10310 20290 30049 40055 83320 333 59020 70000 83618 85460 81930==
41978,2023,09,24,12,00,AAXX 24124 41978 01550 62405 10302 20280 30051 40057 70522 81221 333 10331 59020 70000 81828 83460 85080==
41978,2023,09,24,15,00,AAXX 24154 41978 01450 61104 10287 20280 30073 40080 70522 83520 333 59018 70000 83618 85460==
41978,2023,09,24,18,00,AAXX 24184 41978 01450 51203 10278 20270 30069 40076 70522 83520 333 59016 70000 83618 84360==
41978,2023,09,24,21,00,AAXX 24214 41978 01450 41203 10274 20260 30064 40070 70522 82530 333 59008 70000 82618 83360==
41978,2023,09,25,00,00,AAXX 25004 41978 01450 40803 10267 20260 30061 40068 70522 82530 333 59013 70000 82618 83360==
41978,2023,09,25,03,00,AAXX 25034 41978 02556 40000 10315 20280 30080 40087 83430 333 20263 59006 70000 83820==
41978,2023,09,25,06,00,AAXX 25064 41978 02556 42206 10325 20290 30066 40073 84430 333 59013 70000 83620==
41978,2023,09,25,09,00,AAXX 25094 41978 02556 52511 10327 20290 30039 40045 82220 333 59010 70000 82828 84460==
41978,2023,09,25,12,00,AAXX 25124 41978 02456 32610 10308 20290 30040 40046 81520 333 10330 59011 70000 81618 83460==
41978,2023,09,25,15,00,AAXX 25154 41978 02456 12504 10298 20290 30070 40076 81500 333 59003 70000 81618==
41978,2023,09,25,18,00,AAXX 25184 41978 02456 32504 10292 20280 30071 40077 83500 333 58002 70000 83618==
41978,2023,09,25,21,00,AAXX 25214 41978 02456 32504 10288 20280 30066 40072 83500 333 58002 70000 83618==
41978,2023,09,26,00,00,AAXX 26004 41978 01540 50000 10283 20280 30062 40068 70511 82121 333 58001 70000 82828 83460 85080==
41978,2023,09,26,03,00,AAXX 26034 41978 01450 30207 10313 20270 30076 40082 70521 83400 333 20278 59004 70000 82618==
41978,2023,09,26,06,00,AAXX 26064 41978 01445 63010 10326 20300 30058 40064 70521 84310 333 59008 70000 83618 85460 81930==
41978,2023,09,26,09,00,AAXX 26094 41978 01550 43014 10338 20280 30030 40036 70522 82120 333 59009 70000 82828 83460==
41978,2023,09,26,12,00,AAXX 26124 41978 01450 43008 10322 20280 30033 40039 70522 82520 333 10343 59007 70000 82618 83460==
41978,2023,09,26,15,00,AAXX 26154 41978 01450 42407 10304 20280 30068 40074 70522 82520 333 59002 70000 82618 83460==
41978,2023,09,26,18,00,AAXX 26184 41978 01440 71708 10274 20260 30066 40073 70262 84320 333 59005 70170 83614 87460 81928==
41978,2023,09,26,21,00,AAXX 26214 41978 02440 71004 10264 20250 30060 40067 84320 333 59006 70170 83616 87460 81928==
41978,2023,09,27,00,00,AAXX 27004 41978 01335 81208 10260 20260 30070 40077 76195 8432/ 333 58008 70090 83608 88460 81928==
41978,2023,09,27,03,00,AAXX 27034 41978 01450 70306 10270 20260 30077 40083 72196 84320 333 20254 58001 70350 83616 87460 81928==
41978,2023,09,27,06,00,AAXX 27064 41978 21456 50305 10316 20270 30051 40058 70162 82530 333 59007 60098 70350 82618 85360==
41978,2023,09,27,09,00,AAXX 27094 41978 02456 63114 10319 20290 30016 40022 83500 333 59014 70350 83618==
41978,2023,09,27,12,00,AAXX 27124 41978 01450 63311 10311 20290 30018 40024 70521 83510 333 10338 59015 70350 83618 85460==
41978,2023,09,27,15,00,AAXX 27154 41978 01450 43005 10304 20290 30045 40051 70522 82530 333 59023 70350 82618 84360==
41978,2023,09,27,18,00,AAXX 27184 41978 01450 53006 10292 20280 30046 40053 70522 83530 333 59020 70180 83618 85360==
41978,2023,09,27,21,00,AAXX 27214 41978 01450 60000 10292 20280 30038 40045 70522 83530 333 70180 83616 85360==
41978,2023,09,28,00,00,AAXX 28004 41978 01550 63404 10290 20280 30044 40051 70522 83530 333 59026 70090 83616 86360==
41978,2023,09,28,03,00,AAXX 28034 41978 01435 63606 10310 20280 30057 40064 70522 83520 333 20263 59020 70000 83618 85460==
41978,2023,09,28,06,00,AAXX 28064 41978 01440 73408 10323 20290 30040 40046 70522 83520 333 59011 70000 83618 86460==
41978,2023,09,28,09,00,AAXX 28094 41978 01440 73310 10338 20290 30008 40014 70522 84320 333 59002 70000 83618 86460 81930==
41978,2023,09,28,12,00,AAXX 28124 41978 01440 73105 10323 20290 30005 40012 70522 83520 333 10339 59013 70000 83618 86460==
41978,2023,09,28,15,00,AAXX 28154 41978 01440 61805 10303 20290 30037 40043 70522 84310 333 59008 70000 83618 85460 81930==
41978,2023,09,28,18,00,AAXX 28184 41978 21440 80000 10271 20270 30036 40042 72122 8432/ 333 59010 60047 70040 83616 88459 81929==
41978,2023,09,28,21,00,AAXX 28214 41978 01440 80000 10259 20259 30035 40041 70522 8432/ 333 59003 70040 83618 88460 81930==
41980,2023,09,22,00,00,AAXX 22004 41980 32950 30000 10252 20230 39986 40099 83001 333 56009 58011 79994 83082=
41980,2023,09,22,06,00,AAXX 22064 41980 NIL=
41980,2023,09,22,12,00,AAXX 22124 41980 11450 50000 10268 20260 39973 40087 60054 72122 82501 333 10326 56909 58000 70050 82618 83082=
41980,2023,09,23,00,00,AAXX 23004 41980 32450 00000 10245 20240 39985 40098 333 59001 70050=
41980,2023,09,23,06,00,AAXX 23064 41980 NIL=
41980,2023,09,23,12,00,AAXX 23124 41980 11450 60000 10266 20250 39974 40086 60144 70362 82520 333 10330 56990 58001 70140 82618 86459=
41980,2023,09,24,00,00,AAXX 24004 41980 32450 00000 10252 20240 39977 40098 333 59008 70140=
41980,2023,09,24,06,00,AAXX 24064 41980 NIL=
41980,2023,09,24,12,00,AAXX 24124 41980 11450 50000 10276 20260 39956 40067 60015 70296 83520 333 10330 56990 59018 70010 83618 85459=
41980,2023,09,24,18,00,AAXX 24184 41980 NIL=
41980,2023,09,25,00,00,AAXX 25004 41980 32950 00000 10249 20240 39963 40075 333 59014 70010=
41980,2023,09,25,06,00,AAXX 25064 41980 NIL=
41980,2023,09,25,12,00,AAXX 25124 41980 32450 40000 10294 20260 39941 40052 84500 333 10346 56900 59015 70000 84616=
41980,2023,09,25,18,00,AAXX 25184 41980 NIL=
41980,2023,09,26,00,00,AAXX 26004 41980 32450 40000 10264 20260 39966 40078 82530 333 56990 59011 70000 82618 84362=
41980,2023,09,26,06,00,AAXX 26064 41980 NIL=
41980,2023,09,26,12,00,AAXX 26124 41980 31350 60000 10304 20270 39929 40039 71722 86320 333 10334 56900 59012 70000 82710 84616 81928 86459=
41980,2023,09,26,18,00,AAXX 26184 41980 NIL=
41980,2023,09,27,00,00,AAXX 27004 41980 11340 80000 10242 20240 39972 40085 60369 8632/ 333 56999 58006 70660 83709 84616 81928 88456=
41980,2023,09,27,06,00,AAXX 27064 41980 NIL=
41980,2023,09,27,12,00,AAXX 27124 41980 32950 40000 10290 20270 39918 40028 84030 333 10319 56090 59011 70710 84362=
41980,2023,09,28,00,00,AAXX 28004 41980 31940 00000 10268 20260 39944 40055 333 59028 70050=
41980,2023,09,28,06,00,AAXX 28064 41980 NIL=
41980,2023,09,28,12,00,AAXX 28124 41980 32450 50000 10304 20280 39907 40017 82520 333 10320 56990 59011 70000 82618 85459=
41980,2023,09,28,18,00,AAXX 28184 41980 NIL=
41984,2023,09,22,00,00,AAXX 22004 41984 01356 80000 10260 20260 30058 40060 76162 8672/ 333 58010 70070 83708 84615 88456==
41984,2023,09,22,03,00,AAXX 22034 41984 02457 80000 10295 20280 30075 40077 8352/ 333 20255 58006 70080 83618 88458==
41984,2023,09,22,06,00,AAXX 22064 41984 02457 81803 10296 20280 30075 40077 8352/ 333 58006 70070 83618 88458==
41984,2023,09,22,09,00,AAXX 22094 41984 02457 81804 10309 20280 30051 40053 8352/ 333 58011 70070 83618 88458==
41984,2023,09,22,12,00,AAXX 22124 41984 02456 80000 10278 20260 30054 40056 8352/ 333 10312 58009 70070 83618 88458==
41984,2023,09,22,15,00,AAXX 22154 41984 02440 80000 10276 20270 30073 40075 8352/ 333 58004 70070 83618 88458==
41984,2023,09,22,18,00,AAXX 22184 41984 02440 80000 10282 20270 30068 40070 8352/ 333 58001 70070 83618 88458==
41984,2023,09,22,21,00,AAXX 22214 41984 02440 80000 10280 20270 30065 40067 8352/ 333 58002 70070 83618 88458==
41984,2023,09,23,00,00,AAXX 23004 41984 21456 80000 10278 20278 30063 40065 70262 8352/ 333 58005 60025 70020 83618 88458==
41984,2023,09,23,03,00,AAXX 23034 41984 02457 80000 10309 20270 30085 40087 8352/ 333 20271 58010 70020 83618 88458==
41984,2023,09,23,06,00,AAXX 23064 41984 02457 61804 10326 20280 30081 40083 83570 333 58006 70020 83618 84458==
41984,2023,09,23,09,00,AAXX 23094 41984 02457 61804 10324 20280 30061 40063 83570 333 58010 70020 83618 84458==
41984,2023,09,23,12,00,AAXX 23124 41984 02456 62302 10297 20280 30056 40058 83530 333 10330 58002 70020 83618 83362==
41984,2023,09,23,15,00,AAXX 23154 41984 02440 60000 10282 20280 30070 40072 83510 333 59003 70020 83618 85458==
41984,2023,09,23,18,00,AAXX 23184 41984 02440 60000 10280 20280 30071 40073 83510 333 58003 70020 83618 85458==
41984,2023,09,23,21,00,AAXX 23214 41984 02440 80000 10274 20260 30062 40064 8352/ 333 59003 70020 83618 88458==
41984,2023,09,24,00,00,AAXX 24004 41984 02456 80000 10269 20260 30057 40059 8352/ 333 59006 70000 83618 88458==
41984,2023,09,24,03,00,AAXX 24034 41984 01457 80000 10307 20270 30072 40074 76122 8352/ 333 20264 59013 70005 83618 88458==
41984,2023,09,24,06,00,AAXX 24064 41984 21457 80000 10330 20280 30063 40065 70262 8352/ 333 59018 60015 70005 83618 88458==
41984,2023,09,24,09,00,AAXX 24094 41984 01457 80000 10286 20280 30043 40045 76122 8352/ 333 59018 70045 83618 88458==
41984,2023,09,24,12,00,AAXX 24124 41984 01456 80000 10287 20280 30032 40034 70262 8352/ 333 10335 59024 70050 83618 88458==
41984,2023,09,24,15,00,AAXX 24154 41984 02440 50000 10276 20270 30060 40062 82510 333 59010 70050 82618 85458==
41984,2023,09,24,18,00,AAXX 24184 41984 02440 50000 10275 20270 30057 40059 82510 333 59014 70050 82618 85458==
41984,2023,09,24,21,00,AAXX 24214 41984 02440 50000 10270 20270 30051 40053 82530 333 59011 70050 82618 83362==
41984,2023,09,25,00,00,AAXX 25004 41984 02456 50000 10267 20267 30047 40049 82531 333 59010 70050 82618 83362==
41984,2023,09,25,03,00,AAXX 25034 41984 02457 50000 10318 20280 30065 40067 83510 333 20264 59007 70045 83618 85458==
41984,2023,09,25,06,00,AAXX 25064 41984 01457 81802 10331 20280 30057 40059 70262 83510 333 59006 70040 83618 85458==
41984,2023,09,25,09,00,AAXX 25094 41984 02457 51803 10328 20280 30032 40034 82530 333 59011 70045 82618 83362==
41984,2023,09,25,12,00,AAXX 25124 41984 02456 50000 10305 20280 30032 40034 82530 333 10338 58000 70040 82618 83362==
41984,2023,09,25,15,00,AAXX 25154 41984 02440 50000 10281 20270 30055 40057 82530 333 59005 70040 82618 83362==
41984,2023,09,25,18,00,AAXX 25184 41984 02440 50000 10277 20270 30057 40059 82530 333 58000 70040 82618 83362==
41984,2023,09,25,21,00,AAXX 25214 41984 02440 50000 10273 20270 30053 40055 82530 333 58002 70040 82618 88458==
41984,2023,09,26,00,00,AAXX 26004 41984 02456 50000 10265 20260 30049 40051 82530 333 58002 70040 82618 83362==
41984,2023,09,26,03,00,AAXX 26034 41984 02457 50000 10310 20270 30067 40069 82570 333 20260 58002 70040 82618 84458==
41984,2023,09,26,06,00,AAXX 26064 41984 02457 50000 10336 20270 30058 40060 83510 333 58001 70000 83618 85458==
41984,2023,09,26,09,00,AAXX 26094 41984 02457 50000 10350 20270 30031 40033 82530 333 59001 70000 82618 83362==
41984,2023,09,26,12,00,AAXX 26124 41984 21456 60000 10300 20280 30030 40032 70262 83510 333 10354 59002 60005 83618 85458==
41984,2023,09,26,15,00,AAXX 26154 41984 42440 60000 10284 20270 30058 40060 83510 333 58003 83618 85458==
41984,2023,09,26,18,00,AAXX 26184 41984 42440 60000 10278 20278 30060 40062 83510 333 58003 83618 85458==
41984,2023,09,26,21,00,AAXX 26214 41984 42440 60000 10273 20270 30059 40061 83510 333 58006 83618 85458==
41984,2023,09,27,00,00,AAXX 27004 41984 42456 60000 10270 20270 30055 40057 83510 333 58006 83618 85458==
41984,2023,09,27,03,00,AAXX 27034 41984 42457 80000 10302 20270 30065 40067 8352/ 333 20265 58002 83618 88458==
41984,2023,09,27,06,00,AAXX 27064 41984 42457 80000 10318 20260 30050 40052 8352/ 333 59008 83618 88458==
41984,2023,09,27,09,00,AAXX 27094 41984 42457 80000 10327 20270 30020 40022 8352/ 333 59011 83618 88458==
41984,2023,09,27,12,00,AAXX 27124 41984 02456 80000 10291 20270 30018 40020 8352/ 333 10334 59012 70000 83618 88458==
41984,2023,09,27,15,00,AAXX 27154 41984 02440 50000 10280 20270 30037 40039 82510 333 59021 70000 82618 85458==
41984,2023,09,27,18,00,AAXX 27184 41984 02440 50000 10278 20270 30040 40042 82510 333 59020 70000 82618 85458==
41984,2023,09,27,21,00,AAXX 27214 41984 02440 50000 10278 20270 30038 40040 82530 333 59021 70000 82618 83362==
41984,2023,09,28,00,00,AAXX 28004 41984 02456 50000 10280 20270 30037 40039 82530 333 59018 70000 82618 83362==
41984,2023,09,28,03,00,AAXX 28034 41984 02457 50000 10313 20280 30047 40049 83510 333 20272 59018 70000 83618 85458==
41984,2023,09,28,06,00,AAXX 28064 41984 02457 60000 10340 20270 30039 40041 83510 333 59011 70000 83618 85458==
41984,2023,09,28,09,00,AAXX 28094 41984 02457 83602 10344 20280 30001 40003 8352/ 333 59019 70000 83618 88458==
41984,2023,09,28,12,00,AAXX 28124 41984 02456 50000 10310 20290 30006 40008 82531 333 10354 59012 70000 82618 83362==
41984,2023,09,28,15,00,AAXX 28154 41984 01440 50000 10297 20290 30028 40030 70522 82530 333 59009 70000 82618 83362==
41984,2023,09,28,18,00,AAXX 28184 41984 01440 50000 10295 20290 30029 40031 70522 82530 333 59011 70000 82618 83362==
41989,2023,09,22,00,00,AAXX 22004 41989 02140 51402 10270 20240 30053 40056 83530 333 59019 70000 83615 83362==
41989,2023,09,22,03,00,AAXX 22034 41989 02450 31802 10310 20250 30086 40089 83500 333 20242 58003 70000 83618==
41989,2023,09,22,06,00,AAXX 22064 41989 02456 41703 10323 20260 30099 40102 82530 333 58007 70000 82618 84362==
41989,2023,09,22,09,00,AAXX 22094 41989 02456 21304 10318 20270 30069 40072 82500 333 58006 70000 82618==
41989,2023,09,22,12,00,AAXX 22124 41989 02450 41702 10295 20250 30057 40060 82530 333 10328 58002 70000 82618 83362==
41989,2023,09,22,15,00,AAXX 22154 41989 02450 30000 10282 20260 30092 40095 83530 333 58032 70000 83618==
41989,2023,09,22,21,00,AAXX 22214 41989 02450 20000 10270 20250 30094 40098 82500 333 58039 70000 82618==
41989,2023,09,23,00,00,AAXX 23004 41989 02450 20000 10268 20250 30082 40085 82618 333 58023 70000 82618==
41989,2023,09,23,03,00,AAXX 23034 41989 02460 20000 10315 20270 30049 40052 82500 333 20252 59037 70000 82618==
41989,2023,09,23,06,00,AAXX 23064 41989 02456 31404 10328 20270 30077 40080 83500 333 59022 70000 83618==
41989,2023,09,23,09,00,AAXX 23094 41989 02456 21803 10324 20250 30070 40073 82500 333 58001 70000 82618==
41989,2023,09,23,12,00,AAXX 23124 41989 02450 31303 20250 30064 40067 83500 333 10330 58007 70000 83628==
41989,2023,09,23,15,00,AAXX 23154 41989 42440 31403 10287 20280 30080 40083 59012 83618==
41989,2023,09,23,21,00,AAXX 23214 41989 02430 41402 10270 20250 30079 40082 84500 333 59017 70000 84618==
41989,2023,09,24,00,00,AAXX 24004 41989 02440 51402 10267 20250 30073 40076 83530 333 59009 70000 83618 83362==
41989,2023,09,24,03,00,AAXX 24034 41989 02450 20000 10315 20270 30030 40033 82500 333 20249 59019 70000 82618==
41989,2023,09,24,06,00,AAXX 24064 41989 02456 31803 10322 20250 30081 40084 83500 333 58004 70000 83618==
41989,2023,09,24,09,00,AAXX 24094 41989 02450 41403 10320 20260 30068 40071 84500 333 59002 70000 84618==
41989,2023,09,24,12,00,AAXX 24124 41989 02450 51803 10298 20270 30062 40065 83520 333 10330 59002 70000 83618 83362==
41989,2023,09,24,15,00,AAXX 24154 41989 02450 30000 10287 20270 30067 40069 82530 333 59014 70000 82618 83362==
41989,2023,09,24,18,00,AAXX 24184 41989 NIL=
41989,2023,09,24,21,00,AAXX 24214 41989 01450 50000 10276 20270 30070 40074 70362 83570 333 59009 70030 83618 83362==
41989,2023,09,25,00,00,AAXX 25004 41989 11450 40000 10270 20260 30063 40066 60036 70162 82570 333 59010 70030 82618 83362==
41989,2023,09,25,03,00,AAXX 25034 41989 02460 40000 10320 20270 30074 40077 84500 333 20256 70030 84618==
41989,2023,09,25,06,00,AAXX 25064 41989 02456 31402 10320 20260 30072 40075 83500 333 59009 70030 83618==
41989,2023,09,25,09,00,AAXX 25094 41989 02456 21803 10325 20270 30047 40050 82500 333 59021 70030 82618==
41989,2023,09,25,12,00,AAXX 25124 41989 02456 21702 10302 20260 30040 40043 82500 333 10330 59022 70030 83618==
41989,2023,09,25,15,00,AAXX 25154 41989 02450 31403 10290 20260 30059 40062 83500 333 59008 70030 83618==
41989,2023,09,25,18,00,AAXX 25184 41989 NIL=
41989,2023,09,25,21,00,AAXX 25214 41989 02420 31803 10280 20250 30065 40069 83500 333 59005 70000 83618==
41989,2023,09,26,00,00,AAXX 26004 41989 01440 51403 10275 20260 30063 40068 72122 83530 333 58007 70050 83618 84362==
41989,2023,09,26,03,00,AAXX 26034 41989 02450 51403 10323 20270 30065 40068 83530 333 20252 59009 70050 83618 84362==
41989,2023,09,26,06,00,AAXX 26064 41989 02460 51403 10326 20270 30055 40058 85330 333 58023 70050 83618 84362==
41989,2023,09,26,12,00,AAXX 26124 41989 02450 31802 10310 20260 30046 40049 83500 333 58006 70050 83618==
41989,2023,09,26,15,00,AAXX 26154 41989 02450 50000 10297 20270 30070 40073 82530 333 58011 70050 82618 83362==
41989,2023,09,26,18,00,AAXX 26184 41989 NIL=
41989,2023,09,26,21,00,AAXX 26214 41989 02450 50000 10262 20240 30073 40076 82570 333 58008 70300 82618 83460==
41989,2023,09,27,00,00,AAXX 27004 41989 02450 50000 10260 20250 30065 40068 83570 333 58002 70250 82618 83362==
41989,2023,09,27,03,00,AAXX 27034 41989 02450 50000 10295 20250 30072 40076 82570 333 20245 58008 70250 82618 83362==
41989,2023,09,27,06,00,AAXX 27064 41989 02450 31803 10320 20260 30055 40058 83500 333 58000 70250 83618==
41989,2023,09,27,09,00,AAXX 27093 41989 02456 23102 10315 20260 30021 40024 82500 333 58032 70250 82618==
41989,2023,09,27,12,00,AAXX 27124 41989 02450 23203 10301 20260 30013 40016 82500 333 10322 59033 70250 82618==
41989,2023,09,27,21,00,AAXX 27214 41989 02430 31403 10280 20260 30051 40054 83500 333 59022 70000 83618==
41989,2023,09,28,00,00,AAXX 28004 41989 01440 51402 10265 20250 30045 40048 72122 83530 333 59020 70040 83618 84362==
41989,2023,09,28,03,00,AAXX 28034 41989 02450 51402 10320 20280 30048 40051 83530 333 20251 59025 70040 83618 84362==
41989,2023,09,28,06,00,AAXX 28064 41989 02450 51302 10322 20270 30050 40053 82570 333 59005 70040 82618 83362==
41989,2023,09,28,09,00,AAXX 28094 41989 02450 51802 10335 20280 30029 40032 83570 333 58008 70040 83618 83362==
41989,2023,09,28,12,00,AAXX 28124 41989 02450 51802 10305 20270 30013 40016 83570 333 10345 58000 70040 83618 83362==
41989,2023,09,28,15,00,AAXX 28154 41989 01440 60000 10275 20260 30032 40035 72122 83570 333 59017 70060 83618 83362==
41989,2023,09,28,18,00,AAXX 28184 41989 NIL=
41992,2023,09,22,00,00,AAXX 22004 41992 01425 60000 10260 20240 30083 40085 70522 84530 333 58000 70010 84616 86360==
41992,2023,09,22,03,00,AAXX 22034 41992 01435 40000 10308 20260 30108 40110 70522 82530 333 20255 59001 70010 82616 84362==
41992,2023,09,22,06,00,AAXX 22064 41992 01445 21809 10320 20260 30101 40103 70521 82500 333 58003 70010 82616==
41992,2023,09,22,09,00,AAXX 22094 41992 01445 41808 10315 20270 30076 40078 70522 82530 333 58004 70000 82616 84362==
41992,2023,09,22,12,00,AAXX 22124 41992 01430 41805 10290 20260 30079 40081 70522 82530 333 10325 59001 70000 82616 84362==
41992,2023,09,22,15,00,AAXX 22154 41992 01925 00000 10280 20260 30103 40105 70511 333 58004 70000==
41992,2023,09,22,18,00,AAXX 22184 41992 01425 30000 10275 20270 30097 40099 71011 83500 333 59001 70000 83616==
41992,2023,09,22,21,00,AAXX 22214 41992 01425 30000 10270 20260 30090 40092 71011 83500 333 58002 70000 83616==
41992,2023,09,23,00,00,AAXX 23004 41992 01925 00000 10260 20250 30086 40088 71011 333 58003 70000==
41992,2023,09,23,03,00,AAXX 23034 41992 01435 20000 10312 20260 30109 40111 70510 82500 333 20260 58001 70000 82616==
41992,2023,09,23,06,00,AAXX 23064 41992 01440 30000 10322 20260 30100 40102 70511 83500 333 59001 70000 83616==
41992,2023,09,23,09,00,AAXX 23094 41992 01435 20000 10320 20260 30075 40077 70511 82500 333 59001 70000 82616==
41992,2023,09,23,12,00,AAXX 23124 41992 01430 30000 10295 20270 30079 40081 70511 83500 333 10328 58000 70000 83616==
41992,2023,09,23,15,00,AAXX 23154 41992 01425 60000 10288 20270 30094 40096 70521 84530 333 59009 70000 84616 86360==
41992,2023,09,23,18,00,AAXX 23184 41992 01425 60000 10284 20270 30095 40097 70522 84530 333 59002 70000 84616 86360==
41992,2023,09,23,21,00,AAXX 23214 41992 01425 60000 10274 20250 30084 40086 70522 84530 333 59004 70000 84616 86360==
41992,2023,09,24,00,00,AAXX 24004 41992 01425 60000 10272 20250 30076 40078 70522 84530 333 59010 70000 84616 86360==
41992,2023,09,24,03,00,AAXX 24034 41992 01440 30000 10297 20270 30095 40097 70562 81530 333 20265 70010 81616 83362==
41992,2023,09,24,06,00,AAXX 24064 41992 11445 12404 10323 20260 30084 40086 60016 70562 81500 333 59016 70010 81616==
41992,2023,09,24,09,00,AAXX 24094 41992 01440 30000 10324 20260 30058 40060 70522 81530 333 59017 70010 81616 83360==
41992,2023,09,24,12,00,AAXX 24124 41992 01430 60000 10290 20270 30061 40063 70522 84530 333 10330 59018 70010 84616 86360==
41992,2023,09,24,15,00,AAXX 24154 41992 01425 60000 10280 20270 30082 40084 71022 83520 333 59012 70010 83616 86460==
41992,2023,09,24,18,00,AAXX 24184 41992 01425 60000 10280 20260 30077 40079 70522 84520 333 59018 70010 84616 86460==
41992,2023,09,24,21,00,AAXX 24214 41992 01425 60000 10270 20250 30071 40073 70522 83520 333 59013 70010 83616 86460==
41992,2023,09,25,00,00,AAXX 25004 41992 01425 60000 10265 20260 30066 40068 71022 84520 333 59010 70010 84616 86460==
41992,2023,09,25,03,00,AAXX 25034 41992 01435 40000 10310 20260 30088 40090 70521 82530 333 20264 59007 70000 82616 84362==
41992,2023,09,25,06,00,AAXX 25064 41992 01445 10000 10330 20260 30071 40073 70521 81500 333 59029 70000 81616==
41992,2023,09,25,09,00,AAXX 25094 41992 01940 00000 10325 20260 30047 40049 70510 333 59011 70000==
41992,2023,09,25,12,00,AAXX 25124 41992 01430 20000 10295 20270 30046 40048 70511 82500 333 10336 59015 70000 82646==
41992,2023,09,25,15,00,AAXX 25154 41992 01425 40000 10288 20260 30077 40079 70521 82530 333 59005 70000 82616 84362==
41992,2023,09,25,18,00,AAXX 25184 41992 01420 60000 10284 20260 30074 40076 70522 84530 333 59003 70000 84615 86360==
41992,2023,09,25,21,00,AAXX 25214 41992 01420 60000 10278 20260 30070 40072 70522 84530 333 59001 70000 84615 86360==
41992,2023,09,26,00,00,AAXX 26004 41992 01420 60000 10275 20270 30066 40068 70522 84530 333 58000 70000 84615 86360==
41992,2023,09,26,03,00,AAXX 26034 41992 01435 30000 10315 20270 30081 40083 70521 81530 333 20273 59007 70000 81616 83362==
41992,2023,09,26,06,00,AAXX 26064 41992 01430 30000 10338 20240 30061 40063 70521 81530 333 59010 70000 81616 83362==
41992,2023,09,26,09,00,AAXX 26094 41992 01440 53306 10335 20280 30037 40039 70522 82530 333 59010 70000 82616 85362==
41992,2023,09,26,12,00,AAXX 26124 41992 01430 53303 10310 20260 30042 40044 70522 82530 333 10343 59004 70000 82616 85362==
41992,2023,09,26,15,00,AAXX 26154 41992 41420 80000 10290 20270 30086 40088 76122 8592/ 333 58009 84614 88458==
41992,2023,09,26,18,00,AAXX 26184 41992 21420 80000 10250 20240 30076 40078 76166 8592/ 333 58002 60077 70070 84614 88458 81925==
41992,2023,09,26,21,00,AAXX 26214 41992 01420 80000 10255 20250 30070 40072 76166 8592/ 333 58000 70080 84614 88458 81925==
41992,2023,09,27,00,00,AAXX 27004 41992 21420 80000 10258 20250 30066 40068 76166 8592/ 333 58000 60039 84614 88458 81925==
41992,2023,09,27,03,00,AAXX 27034 41992 01/30 60000 10297 20250 30078 40080 70555 86030 333 20248 59003 70100 86362==
41992,2023,09,27,06,00,AAXX 27064 41992 11/35 50000 10323 20240 30050 40052 60006 70552 85030 333 59003 70100 85362==
41992,2023,09,27,09,00,AAXX 27094 41992 01/35 30000 10320 20260 30023 40025 70511 83030 333 59014 70100 83362==
41992,2023,09,27,12,00,AAXX 27124 41992 01930 00000 10290 20260 30027 40029 70511 333 10335 59015 70100==
41992,2023,09,27,15,00,AAXX 27154 41992 01/25 30000 10285 20270 30048 40050 70511 83030 333 59038 70100 83362==
41992,2023,09,27,18,00,AAXX 27184 41992 01425 30000 10280 20260 30053 40055 70511 83500 333 59023 70030 83626==
41992,2023,09,27,21,00,AAXX 27214 41992 01425 30000 10272 20260 30054 40056 70511 83500 333 59016 70020 83616==
41992,2023,09,28,00,00,AAXX 28004 41992 41425 60000 10286 20270 30045 40047 70522 84530 333 59021 84616 86360==
41992,2023,09,28,03,00,AAXX 28034 41992 01430 70000 10309 20270 30061 40063 70522 84530 333 20278 59017 70000 84616 87360==
41992,2023,09,28,06,00,AAXX 28064 41992 01430 60000 10328 20280 30043 40045 70522 83530 333 59007 70000 83616 83616 86362==
41992,2023,09,28,09,00,AAXX 28094 41992 01425 60000 10330 20280 30015 40017 70522 84530 333 59008 70000 84616 86360==
41992,2023,09,28,12,00,AAXX 28124 41992 01425 82406 10305 20290 30016 40018 76122 8592/ 333 10335 59011 70010 84614 88458 81925==
41992,2023,09,28,15,00,AAXX 28154 41992 01425 60000 10285 20270 30045 40047 70522 83520 333 59003 70010 83616 86460==
41992,2023,09,28,18,00,AAXX 28184 41992 01425 80000 10280 20270 30036 40038 71022 8452/ 333 59017 70010 84616 88460==
41992,2023,09,28,21,00,AAXX 28214 41992 01425 80000 10275 20270 30030 40032 71022 8352/ 333 59022 70010 83616 88460==
41998,2023,09,22,03,00,AAXX 22034 41998 02456 60000 10301 20260 30085 40091 83420 333 20260 58001 70000 82618 83458==
41998,2023,09,22,06,00,AAXX 22064 41998 NIL=
41998,2023,09,22,09,00,AAXX 22094 41998 02456 62102 10314 20260 30064 40070 83470 333 58016 70000 82618 83458==
41998,2023,09,22,12,00,AAXX 22124 41998 02456 60000 10287 20250 30071 40077 83470 333 10322 58013 70000 82618 83458==
41998,2023,09,23,03,00,AAXX 23034 41998 02456 50000 10314 20260 30094 40100 82420 333 20262 58009 70000 82618 83458==
41998,2023,09,23,06,00,AAXX 23064 41998 NIL=
41998,2023,09,23,09,00,AAXX 23094 41998 02456 42503 10314 20260 30076 40082 82470 333 58012 70000 82618 83458==
41998,2023,09,23,12,00,AAXX 23124 41998 NIL=
41998,2023,09,23,18,00,AAXX 23184 41998 02456 50000 10278 20250 30080 40088 82470 333 59008 70000 81618 83458==
41998,2023,09,24,00,00,AAXX 24004 41998 02456 50000 10270 20250 30083 40089 82470 333 59009 70000 81618 83458==
41998,2023,09,24,03,00,AAXX 24034 41998 02456 50000 10310 20260 30084 40090 82470 333 20260 59010 70000 81618 83458==
41998,2023,09,24,06,00,AAXX 24064 41998 02456 50000 10323 20270 30076 40082 82470 333 59010 70000 81618 83458==
41998,2023,09,24,09,00,AAXX 24094 41998 02456 51402 10320 20250 30063 40069 82470 333 59013 70000 82618 83618==
41998,2023,09,24,12,00,AAXX 24124 41998 02456 50000 10288 20250 30070 40076 82470 333 10332 59004 70000 82618 83458==
41998,2023,09,24,18,00,AAXX 24184 41998 NIL=
41998,2023,09,25,00,00,AAXX 25004 41998 02456 50000 10267 20250 30085 40091 82470 333 58002 70000 81618 83458==
41998,2023,09,25,03,00,AAXX 25034 41998 02456 50000 10298 20280 30069 40075 82470 333 20261 59015 70000 81618 82458==
41998,2023,09,25,06,00,AAXX 25064 41998 02456 50000 10319 20270 30062 40068 82470 333 59014 70000 81618 83458==
41998,2023,09,25,09,00,AAXX 25094 41998 02456 52502 10317 20270 30039 40045 82470 333 59024 70000 81618 83458==
41998,2023,09,25,12,00,AAXX 25124 41998 02456 50000 10287 20250 30045 40051 82470 333 10334 59025 70000 81618 84458==
41998,2023,09,25,18,00,AAXX 25184 41998 02456 50000 10280 20260 30065 40071 82470 333 58002 70000 81618 83458==
41998,2023,09,26,00,00,AAXX 26004 41998 NIL=
41998,2023,09,26,03,00,AAXX 26034 41998 02456 50000 10298 20280 30069 40075 82470 333 20261 59015 70000 81618 82458==
41998,2023,09,26,06,00,AAXX 26064 41998 NIL=
41998,2023,09,26,09,00,AAXX 26094 41998 02456 51702 10320 20270 30033 40039 82470 333 59006 70000 81618 83458==
41998,2023,09,26,12,00,AAXX 26124 41998 02456 50000 10290 20250 30033 40039 82470 333 10335 59012 70000 81618 83458==
41998,2023,09,26,18,00,AAXX 26184 41998 NIL=
41998,2023,09,27,00,00,AAXX 27004 41998 02456 80000 10255 20250 30066 40072 8342/ 333 59001 70070 82617 88457==
41998,2023,09,27,03,00,AAXX 27034 41998 02456 80000 10312 20260 30048 40054 8342/ 333 20250 59012 70070 83618 88458==
41998,2023,09,27,06,00,AAXX 27064 41998 02456 50000 10323 20260 30042 40048 82420 333 59002 70070 82618 83458==
41998,2023,09,27,09,00,AAXX 27093 41998 02456 42402 10313 20260 30025 40031 82470 333 59008 70070 81618 83458==
41998,2023,09,27,12,00,AAXX 27124 41998 02456 40000 10286 20250 30040 40046 82470 333 10338 58007 70070 81618 83458==
41998,2023,09,28,00,00,AAXX 28004 41998 02456 70000 10265 20260 30072 40078 8342/ 333 58006 70000 82618 88458==
41998,2023,09,28,03,00,AAXX 28034 41998 02456 80000 10308 20260 30035 40041 8442/ 333 20260 59008 70000 82618 88458==
41998,2023,09,28,06,00,AAXX 28064 41998 NIL=
41998,2023,09,28,09,00,AAXX 28094 41998 02456 61602 10308 20270 30015 40021 83470 333 59010 70000 82618 83458==
41998,2023,09,28,12,00,AAXX 28124 41998 02456 60000 10292 20250 30010 40016 83470 333 10316 59030 70000 82618 83458==
41998,2023,09,28,18,00,AAXX 28184 41998 NIL=
