ESTACION,ANO,MES,DIA,HORA,MINUTO,PARTE
41850,2023,07,07,00,00,AAXX 07004 41850 11340 80304 10256 20255 39948 40047 60143 70562 8562/ 333 56299 58019 70290 82708 84616 88458=
41850,2023,07,07,06,00,AAXX 07064 41850 32456 60805 10292 20260 39952 40049 83520 333 56990 58020 70290 83617 86458=
41850,2023,07,07,12,00,AAXX 07124 41850 11450 80000 10277 20270 39923 40020 60024 70562 8452/ 333 10326 56999 58001 70190 84616 88458=
41850,2023,07,07,18,00,AAXX 07184 41850 11440 80000 10271 20260 39957 40055 60016 70562 8452/ 333 56999 58006 70170 84616 88458=
41850,2023,07,08,00,00,AAXX 08004 41850 11330 80000 10260 20250 39955 40054 60014 76162 8452/ 333 56999 58007 70040 83707 84614 88458=
41850,2023,07,08,06,00,AAXX 08064 41850 11457 51305 10306 20270 39954 40050 60033 70162 82510 333 56990 58002 70070 82618 85458=
41850,2023,07,08,12,00,AAXX 08124 41850 31450 51304 10295 20260 39935 40032 70522 82510 333 10322 56990 58012 70050 82618 86458=
41850,2023,07,08,18,00,AAXX 08183 41850 NIL=
41850,2023,07,09,00,00,AAXX 09004 41850 11440 80000 10257 20250 39942 40040 60104 72162 8452/ 333 56999 59013 70130 84615 88458=
41850,2023,07,09,06,00,AAXX 09064 41850 31450 60000 10310 20260 39942 40039 70522 82510 333 56990 59012 70100 82618 86458=
41850,2023,07,09,12,00,AAXX 09124 41850 31450 61802 10314 20260 39916 40012 70522 82510 333 10339 56990 59019 70100 82618 86458=
41850,2023,07,10,00,00,AAXX 10004 41850 11330 81307 10265 20260 39927 40025 60054 76162 8572/ 333 56999 59015 70050 83707 84614 88458=
41850,2023,07,10,06,00,AAXX 10064 41850 11450 80000 10267 20260 39940 40039 60559 72196 8452/ 333 56999 59002 70600 84615 88458=
41850,2023,07,10,12,00,AAXX 10124 41850 31450 20902 10307 20270 39914 40010 70521 82500 333 10314 56900 59002 70600 82618=
41850,2023,07,10,18,00,AAXX 10184 41850 31440 50000 10282 20260 39926 40023 70521 82510 333 56990 59012 70600 82618 85458=
41850,2023,07,11,00,00,AAXX 11004 41850 31450 80503 10266 20260 39924 40022 70522 8452/ 333 56999 59003 70550 84615 88458=
41851,2023,07,07,00,00,AAXX 07004 41851 11350 81802 10272 20260 39985 40048 60026 70262 8462/ 333 56499 58018 70016 81709 83617 88457=
41851,2023,07,07,06,00,AAXX 07064 41851 11450 71802 10332 20260 39987 40048 69926 70162 83420 333 56990 58015 70018 82617 86458=
41851,2023,07,07,12,00,AAXX 07124 41851 32450 60000 10313 20250 39960 40021 82510 333 10350 56990 58004 70018 82618 86459=
41851,2023,07,07,18,00,AAXX 07184 41851 11450 50000 10280 20270 30004 40066 60086 70196 82510 333 56990 58010 70094 82618 85459=
41851,2023,07,08,00,00,AAXX 08004 41851 31350 81802 10277 20270 39995 40057 71722 8492/ 333 56499 58010 70078 81709 83617 81930 88457=
41851,2023,07,08,06,00,AAXX 08064 41851 32350 81802 10330 20260 39997 40058 8462/ 333 56499 58010 70076 81709 83617 88457=
41851,2023,07,08,12,00,AAXX 08124 41851 11350 81803 10320 20260 39969 40030 60035 70262 8462/ 333 10340 56499 58009 70104 81709 83617 88457=
41851,2023,07,08,18,00,AAXX 08183 41851 11350 80902 10275 20250 39997 40059 69925 70362 8462/ 333 56999 59007 70030 81709 83617 88457=
41851,2023,07,09,00,00,AAXX 09004 41851 11350 81202 10268 20260 39984 40047 60216 70262 8462/ 333 56499 59011 70241 81709 83617 88457=
41851,2023,07,09,06,00,AAXX 09064 41851 32350 81502 10313 20260 39984 40046 8462/ 333 56399 59013 70241 81709 83617 88457=
41851,2023,07,09,12,00,AAXX 09124 41851 11350 80000 10282 20260 39956 40018 60036 70362 8462/ 333 10325 56999 59013 70246 81710 83617 88457=
41851,2023,07,09,18,00,AAXX 09184 41851 32450 80000 10288 20280 39979 40041 8352/ 333 56999 59018 70244 83618 88458=
41851,2023,07,10,00,00,AAXX 10004 41851 32350 81301 10270 20250 39971 40033 8462/ 333 56399 59013 70033 81710 83617 88457=
41851,2023,07,10,06,00,AAXX 10064 41851 32450 81302 10282 20260 39979 40041 8352/ 333 56999 59005 70033 83618 88458=
41851,2023,07,10,12,00,AAXX 10123 41851 32450 60000 10311 20270 39949 40010 84420 333 10325 56990 59007 70000 83618 86458=
41851,2023,07,10,18,00,AAXX 10184 41851 11350 81302 10273 20260 39974 40036 60027 79596 8492/ 333 56399 59005 70016 81708 83616 81930 88456=
41851,2023,07,11,00,00,AAXX 11004 41851 11335 82202 10252 20240 39971 40034 60389 79596 8492/ 333 56399 58000 70391 81707 83616 81927 88455=
41851,2023,07,11,06,00,AAXX 11064 41851 11340 80000 10268 20268 39977 40040 60123 76396 8472/ 333 56399 59002 70592 81708 83616 88456=
41851,2023,07,11,12,00,AAXX 11124 41851 22896 82701 10264 20250 40012 333 10283 58012 6003/=
41856,2023,07,07,00,00,AAXX 07004 41856 32440 50000 10260 20250 30014 40049 82520 333 56990 58022 70110 82618 85458=
41856,2023,07,07,06,00,AAXX 07064 41856 11450 30901 10315 20270 30018 40053 60024 70161 82430 333 56990 58017 70134 81618 83362=
41856,2023,07,07,12,00,AAXX 07124 41856 11450 50903 10296 20260 39992 40027 60034 70362 82520 333 10337 56990 58009 70054 82618 85458=
41856,2023,07,07,18,00,AAXX 07184 41856 32430 50902 10280 20260 30029 40064 82520 333 56990 58008 70054 82618 85458=
41856,2023,07,08,00,00,AAXX 08004 41856 32950 21401 10272 20260 30026 40061 82030 333 56090 58012 70054 82362=
41856,2023,07,08,06,00,AAXX 08064 41856 32450 61402 10314 20250 30023 40058 83520 333 56490 58005 70030 83618 86458=
41856,2023,07,08,12,00,AAXX 08124 41856 32950 61501 10321 20260 39996 40031 83530 333 10340 56990 58004 70000 82618 86458=
41856,2023,07,08,18,00,AAXX 08183 41856 11440 80000 10281 20270 30024 40059 60026 70262 8562/ 333 56999 59005 70018 83618 88458=
41856,2023,07,09,00,00,AAXX 09004 41856 32440 80000 10278 20270 30008 40043 8562/ 333 56999 59018 70018 83618 88458=
41856,2023,07,09,06,00,AAXX 09064 41856 11450 81701 10327 20260 30012 40047 60014 70362 8562/ 333 56999 59011 70024 83618 88458=
41856,2023,07,09,12,00,AAXX 09124 41856 11450 60000 10282 20260 39988 40023 60184 72996 83520 333 10333 56990 59010 70204 83618 86458=
41856,2023,07,09,18,00,AAXX 09184 41856 32430 80902 10282 20260 30009 40044 8452/ 333 56999 59015 70186 84618 88458=
41856,2023,07,10,00,00,AAXX 10004 41856 32440 30000 10276 20270 39997 40032 81520 333 56990 59011 70186 81618 83458=
41856,2023,07,10,06,00,AAXX 10064 41856 32450 71802 10324 20250 30004 40039 84520 333 56990 59008 70180 84618 87458=
41856,2023,07,10,12,00,AAXX 10123 41856 32450 51802 10306 20270 39977 40012 83430 333 10325 56990 59011 70000 81618 83825 85362=
41856,2023,07,10,18,00,AAXX 10184 41856 32430 81802 10280 20260 30006 40037 8452/ 333 56999 59003 70000 84618 88458=
41856,2023,07,11,00,00,AAXX 11004 41856 32440 81801 10274 20260 39997 40032 8562/ 333 56499 58000 70000 83710 85618 88458=
41856,2023,07,11,06,00,AAXX 11064 41856 11450 70000 10304 20260 30003 40038 60144 70166 84520 333 56990 59001 70141 84615 87458=
41858,2023,07,07,00,00,AAXX 07004 41858 01450 80906 10280 20260 30002 40047 70522 8452/ 333 58020 70000 84615 88458==
41858,2023,07,07,03,00,AAXX 07034 41858 01450 81205 10301 20270 30018 40063 70522 8452/ 333 20274 58002 70000 84616 88458==
41858,2023,07,07,06,00,AAXX 07064 41858 01440 61505 10302 20270 30006 40051 76162 84520 333 58017 70030 84614 86458==
41858,2023,07,07,09,00,AAXX 07093 41858 01456 61803 10290 20260 39990 40035 72162 83520 333 58015 70116 83615 85458==
41858,2023,07,07,12,00,AAXX 07124 41858 01456 61806 10326 20270 39980 40024 70262 83840 333 10344 58009 70090 82615 83825 83362==
41858,2023,07,07,15,00,AAXX 07154 41858 01450 51505 10300 20260 30013 40058 70522 84420 333 58009 70116 83615 84458==
41858,2023,07,07,18,00,AAXX 07184 41858 01450 70000 10288 20270 30021 40066 70522 8452/ 333 58008 70116 84615 86458==
41858,2023,07,07,21,00,AAXX 07214 41858 01450 80000 10284 20260 30012 40057 70522 8452/ 333 58005 70116 84615 88458==
41858,2023,07,08,00,00,AAXX 08004 41858 01450 81305 10280 20260 30015 40060 70522 8452/ 333 58013 70116 84615 88458==
41858,2023,07,08,03,00,AAXX 08034 41858 01450 71508 10302 20270 30024 40069 70522 84520 333 20272 58006 70116 84615 87458==
41858,2023,07,08,06,00,AAXX 08064 41858 01450 50905 10324 20250 30016 40061 70522 83800 333 58006 70090 83615 83825==
41858,2023,07,08,09,00,AAXX 08094 41858 01450 60905 10310 20270 39995 40040 70562 84820 333 58005 70008 83618 85460==
41858,2023,07,08,12,00,AAXX 08124 41858 11556 41505 10326 20260 39987 40031 69986 70162 83130 333 10332 58007 70008 83825==
41858,2023,07,08,15,00,AAXX 08154 41858 01440 60902 10295 20260 30009 40054 70522 83520 333 59004 70008 83616 85458==
41858,2023,07,08,18,00,AAXX 08183 41858 01440 60901 10288 20260 30024 40069 70522 83520 333 58003 70008 83616 86458==
41858,2023,07,08,21,00,AAXX 08214 41858 01440 40904 10282 20260 39996 40041 70522 83530 333 59016 70008 83615==
41858,2023,07,09,00,00,AAXX 09004 41858 01440 50905 10284 20260 30000 40045 70522 83520 333 59015 70008 83618 84460==
41858,2023,07,09,03,00,AAXX 09034 41858 01440 61505 10320 20270 30009 40053 70522 83520 333 20274 59015 70008 83618 85458==
41858,2023,07,09,06,00,AAXX 09064 41858 01450 61505 10332 20270 30002 40046 70522 84520 333 59014 70008 84616 86458==
41858,2023,07,09,09,00,AAXX 09094 41858 01440 71205 10316 20290 39984 40028 72122 84520 333 59011 70010 84616 87458==
41858,2023,07,09,12,00,AAXX 09124 41858 21450 50505 10316 20270 39973 40017 70562 84420 333 10346 59014 60015 70010 83615 84458==
41858,2023,07,09,15,00,AAXX 09154 41858 01940 00905 10304 20280 39992 40037 70500 333 59017 70010==
41858,2023,07,09,18,00,AAXX 09184 41858 01940 00905 10298 20280 30001 40046 70500 333 59017 70010==
41858,2023,07,10,00,00,AAXX 10004 41858 01/15 20905 10285 20280 39987 40032 71020 82040 333 59013 70000 82362==
41858,2023,07,10,03,00,AAXX 10034 41858 01440 51806 10315 20280 30000 40044 70522 83520 333 20279 59009 70010 83615 85458==
41858,2023,07,10,06,00,AAXX 10064 41858 01445 51805 10340 20270 39993 40037 70522 83520 333 59009 70010 83615 85458==
41858,2023,07,10,09,00,AAXX 10093 41858 01445 70303 10325 20280 39978 40022 70522 85420 333 59006 70000 84615 85458==
41858,2023,07,10,12,00,AAXX 10123 41858 01435 71503 10276 20270 39967 40012 76162 84520 333 10340 59006 70430 84615 86458==
41858,2023,07,10,15,00,AAXX 10154 41858 01440 71815 10292 20270 39986 40031 70562 84520 333 59006 70426 84616 86458==
41858,2023,07,10,18,00,AAXX 10184 41858 01440 81504 10288 20280 30000 40045 70522 8452/ 333 59001 70426 84616 88458==
41858,2023,07,10,21,00,AAXX 10214 41858 01440 81504 10284 20260 39996 40041 70522 8452/ 333 58001 70426 84618 88458==
41858,2023,07,11,00,00,AAXX 11004 41858 01420 83216 10280 20260 39995 40040 71022 8452/ 333 58008 70426 84615 88458==
41858,2023,07,11,03,00,AAXX 11034 41858 01440 81205 10272 20260 39997 40042 76196 8452/ 333 20250 59002 70508 84615 88458==
41858,2023,07,11,09,00,AAXX 11094 41858 02445 82405 10315 20270 39976 40020 8452/ 333 59002 70528 84614 88458==
41858,2023,07,11,12,00,AAXX 11124 41858 01430 80602 10290 20270 39966 40011 70522 8452/ 333 10335 59001 70102 84615 88458==
41858,2023,07,11,15,00,AAXX 11154 41858 01425 81305 10284 20260 39990 40035 71022 8452/ 333 58004 70102 84615 88458==
41858,2023,07,11,18,00,AAXX 11184 41858 01425 81805 10278 20260 30003 40048 71022 8452/ 333 58004 70102 84615 88458==
41858,2023,07,11,21,00,AAXX 11214 41858 01430 81305 10282 20260 39983 40028 76122 8452/ 333 59013 70102 84615 88458==
41858,2023,07,12,00,00,AAXX 12004 41858 11430 81205 10280 20260 39988 40033 60012 76162 8452/ 333 59007 70114 84615 88458==
41858,2023,07,12,03,00,AAXX 12034 41858 01450 81205 10285 20270 30007 40052 70522 8452/ 333 20258 58010 70020 84615 88458==
41858,2023,07,12,06,00,AAXX 12064 41858 01450 71812 10320 20260 39999 40044 70522 84520 333 58006 70012 84615 87458==
41858,2023,07,12,09,00,AAXX 12094 41858 01450 51808 10330 20260 39976 40020 70522 85800 333 58000 70012 83615 83825==
41858,2023,07,12,12,00,AAXX 12124 41858 01430 70000 10290 20280 39973 40018 72162 84520 333 10340 58007 70080 84615 86458==
41858,2023,07,12,15,00,AAXX 12154 41858 01430 70000 10285 20280 39997 40042 70522 84520 333 58007 70092 84615 86458==
41858,2023,07,12,18,00,AAXX 12184 41858 01935 01810 10288 20270 39995 40040 70520 333 59008 70092==
41858,2023,07,12,21,00,AAXX 12214 41858 01440 51809 10288 20270 39990 40035 70522 83520 333 58007 70092 83615 85458==
41858,2023,07,13,00,00,AAXX 13004 41858 02456 81806 10280 20260 39992 40037 8452/ 333 58004 70080 84615 88458==
41858,2023,07,13,03,00,AAXX 13034 41858 01450 71808 10300 20260 30006 40051 70522 84520 333 20265 59001 70080 84615 86458==
41858,2023,07,13,06,00,AAXX 13064 41858 01450 81805 10305 20280 30001 40046 76122 8452/ 333 59002 70020 84615 88458==
41858,2023,07,13,09,00,AAXX 13094 41858 01950 82105 10324 20260 39967 40021 70522 8452/ 333 59009 70098 84615 88458==
41858,2023,07,13,12,00,AAXX 13124 41858 01430 83308 10290 20270 39982 40026 79522 8492/ 333 10325 58009 70010 84615 88458 82930==
41858,2023,07,13,15,00,AAXX 13154 41858 01435 80305 10280 20260 39999 40044 76195 8452/ 333 58002 70060 84614 88458==
41858,2023,07,13,18,00,AAXX 13184 41858 21430 81504 10275 20260 30001 40046 79596 8592/ 333 58006 60299 70316 84614 88458 82930==
41858,2023,07,13,21,00,AAXX 13214 41858 01420 81505 10275 20270 39995 40040 76196 8452/ 333 58005 70416 84615 88458==
41859,2023,07,07,00,00,AAXX 07004 41859 02435 81302 10277 20260 30009 40046 8562/ 333 58018 70000 83710 84618 88458==
41859,2023,07,07,03,00,AAXX 07034 41859 02450 81802 10308 20260 30027 40063 8562/ 333 20272 58022 70000 83710 84618 88458==
41859,2023,07,07,06,00,AAXX 07064 41859 02450 60902 10337 20260 30015 40051 84610 333 58016 70000 82710 83618 86458==
41859,2023,07,07,09,00,AAXX 07094 41859 01450 41802 10302 20260 39996 40033 72162 82530 333 58011 70010 82618 84362==
41859,2023,07,07,12,00,AAXX 07124 41859 11450 41802 10326 20260 39993 40029 60016 70262 83430 333 10345 58009 70010 82618 83828 84362==
41859,2023,07,07,15,00,AAXX 07154 41859 02430 71302 10297 20250 30024 40061 84620 333 58010 70010 82710 83618 86458==
41859,2023,07,07,18,00,AAXX 07184 41859 02430 80000 10287 20260 30027 40064 8562/ 333 58007 70010 82710 84618 88458==
41859,2023,07,07,21,00,AAXX 07214 41859 02430 81302 10282 20260 30022 40059 8562/ 333 58010 70010 82710 84618 88458==
41859,2023,07,08,00,00,AAXX 08004 41859 02440 61702 10279 20270 30016 40053 83520 333 58007 70010 83618 85458==
41859,2023,07,08,03,00,AAXX 08034 41859 02450 81302 10300 20260 30033 40070 8562/ 333 20268 58006 70010 82710 83618 88458==
41859,2023,07,08,06,00,AAXX 08064 41859 02450 81302 10336 20270 30023 40059 8562/ 333 58008 70010 82710 83618 88458==
41859,2023,07,08,09,00,AAXX 08094 41859 02450 52302 10333 20260 30004 40040 82520 333 58008 70000 82618 84458==
41859,2023,07,08,12,00,AAXX 08124 41859 02450 40000 10321 20260 39995 40031 82520 333 10337 58002 70000 82618 84458==
41859,2023,07,08,15,00,AAXX 08154 41859 01430 81301 10281 20270 30019 40056 70262 8562/ 333 59005 70100 82710 83618 88458==
41859,2023,07,08,18,00,AAXX 08184 41859 11430 70902 10285 20280 30020 40057 60106 70162 85620 333 59007 70100 82710 83618 87458==
41859,2023,07,08,21,00,AAXX 08214 41859 02430 70902 10282 20270 30016 40053 85620 333 59006 70100 82710 84618 87458==
41859,2023,07,09,00,00,AAXX 09004 41859 02450 70000 10280 20270 30009 40046 85620 333 59007 70100 83710 84618 87458==
41859,2023,07,09,03,00,AAXX 09034 41859 02450 50902 10308 20270 30018 40054 83520 333 20275 59015 70100 83618 85458==
41859,2023,07,09,06,00,AAXX 09064 41859 02450 70902 10330 20260 30011 40047 85620 333 59012 70100 82710 84618 87458==
41859,2023,07,09,09,00,AAXX 09094 41859 02440 81302 10332 20260 39990 40026 8562/ 333 59014 70100 82710 84618 88458==
41859,2023,07,09,12,00,AAXX 09124 41859 21440 60000 10328 20270 39984 40020 70162 83510 333 10341 59011 69945 70104 83618 85458==
41859,2023,07,09,15,00,AAXX 09154 41859 02430 60000 10305 20280 30002 40038 82520 333 59017 70004 83618 85458==
41859,2023,07,09,18,00,AAXX 09184 41859 02430 81302 10296 20270 30007 40044 8562/ 333 59013 70004 82710 84618 88458==
41859,2023,07,09,21,00,AAXX 09214 41859 02430 81802 10288 20280 30001 40038 8562/ 333 59015 70004 82710 84618 88458==
41859,2023,07,10,00,00,AAXX 10004 41859 02440 80000 10280 20270 39997 40034 8562/ 333 59012 70004 83710 84618 88458==
41859,2023,07,10,03,00,AAXX 10034 41859 02450 80000 10310 20280 30010 40046 8561/ 333 20278 59008 70004 82710 84618 88458==
41859,2023,07,10,06,00,AAXX 10064 41859 02450 80000 10310 20280 30010 40046 8561/ 333 20278 59008 70004 82710 84618 88458==
41859,2023,07,10,09,00,AAXX 10094 41859 02450 71301 10348 20260 39982 40018 84620 333 59008 70004 82710 83618 86458==
41859,2023,07,10,12,00,AAXX 10124 41859 02450 60000 10313 20270 39975 40011 83520 333 10350 59009 70000 83618 85458==
41859,2023,07,10,15,00,AAXX 10154 41859 02430 61802 10306 20280 39997 40033 83520 333 59005 70000 83618 85458==
41859,2023,07,10,18,00,AAXX 10184 41859 02430 82302 10293 20270 30005 40042 8562/ 333 59002 70000 83710 84618 88458==
41859,2023,07,10,21,00,AAXX 10214 41859 02430 80901 10284 20270 39998 40035 8562/ 333 59003 70000 83710 84618 88458==
41859,2023,07,11,00,00,AAXX 11004 41859 02435 81802 10280 20270 39994 40031 8562/ 333 59003 70000 83710 84618 88458==
41859,2023,07,11,03,00,AAXX 11034 41859 02440 81802 10292 20250 30006 40043 8562/ 333 20268 59004 70000 83710 84618 88458==
41859,2023,07,11,06,00,AAXX 11064 41859 02450 81802 10298 20270 30001 40038 8562/ 333 59001 70000 83710 84618 88458==
41859,2023,07,11,09,00,AAXX 11094 41859 01350 80000 10282 20270 39986 40023 76322 8572/ 333 58004 70094 83709 84617 88458==
41859,2023,07,11,12,00,AAXX 11124 41859 21450 80000 10282 20270 39976 40013 70262 8562/ 333 10321 58001 60105 70104 83710 84618 88458==
41859,2023,07,11,15,00,AAXX 11154 41859 02430 81301 10281 20260 39999 40036 8562/ 333 58002 70104 82710 84618 88458==
41859,2023,07,11,18,00,AAXX 11184 41859 02430 81302 10284 20270 39999 40036 8562/ 333 59006 70104 83710 85618 88458==
41859,2023,07,11,21,00,AAXX 11214 41859 02430 81302 10284 20260 39998 40035 8562/ 333 58000 70104 83710 85618 88458==
41859,2023,07,12,00,00,AAXX 12004 41859 02440 82302 10284 20260 39997 40034 8562/ 333 58003 70104 83710 85618 88458==
41859,2023,07,12,03,00,AAXX 12034 41859 02440 81802 10294 20260 30016 40053 8562/ 333 20274 58010 70104 83710 85618 88458==
41859,2023,07,12,06,00,AAXX 12064 41859 02450 82302 10318 20270 30007 40043 8562/ 333 58006 70104 82710 84618 88458==
41859,2023,07,12,09,00,AAXX 12094 41859 02450 62102 10330 20270 39984 40020 84430 333 59002 70010 82618 83828 86362==
41859,2023,07,12,12,00,AAXX 12124 41859 02450 71801 10322 20270 39983 40019 84620 333 10338 58007 70000 82710 83618 87458==
41859,2023,07,12,15,00,AAXX 12154 41859 02440 50000 10306 20280 30006 40042 83530 333 58007 70000 83618 85362==
41859,2023,07,12,18,00,AAXX 12184 41859 02430 80000 10285 20270 30004 40041 8562/ 333 58005 70000 82710 84618 88458==
41859,2023,07,12,21,00,AAXX 12214 41859 02430 80000 10280 20270 30002 40039 8562/ 333 58004 70000 82710 84618 88458==
41859,2023,07,13,00,00,AAXX 13004 41859 02435 82102 10280 20270 30000 40037 8562/ 333 58003 70000 83710 84618 88458==
41859,2023,07,13,03,00,AAXX 13034 41859 NIL=
41859,2023,07,13,06,00,AAXX 13064 41859 02450 72302 10324 20250 30008 40044 85610 333 58000 70000 82710 83618 87458==
41859,2023,07,13,12,00,AAXX 13124 41859 02450 80000 10321 20260 39985 40021 8562/ 333 10338 58002 70000 82710 84618 88458==
41859,2023,07,13,15,00,AAXX 13154 41859 01330 80502 10278 20270 30008 40045 76196 8672/ 333 58002 70196 83708 85614 88456==
41859,2023,07,13,18,00,AAXX 13184 41859 21430 80902 10277 20270 30008 40045 71796 8532/ 333 58004 60209 70198 83710 84618 88458 81930==
41859,2023,07,13,21,00,AAXX 13214 41859 01320 80902 10276 20270 30000 40037 76366 8672/ 333 59002 70294 83708 85614 88456==
41863,2023,07,07,00,00,AAXX 07004 41863 02450 30904 10281 20260 39999 40041 83600 333 58016 70018 83710==
41863,2023,07,07,03,00,AAXX 07034 41863 02456 80902 10300 20270 30017 40059 8552/ 333 20274 58022 70018 85618 88458==
41863,2023,07,07,06,00,AAXX 07064 41863 01456 51804 10320 20270 30008 40050 70162 83520 333 58019 70010 83618 85458==
41863,2023,07,07,09,00,AAXX 07094 41863 01456 60901 10305 20260 39986 40028 70362 83520 333 58008 70070 83618 86458==
41863,2023,07,07,12,00,AAXX 07124 41863 11556 41302 10320 20270 39976 40018 60066 70162 84400 333 10327 58005 70070 84620==
41863,2023,07,07,15,00,AAXX 07154 41863 02450 61803 10295 20270 30016 40058 83520 333 58012 70070 83618 86458==
41863,2023,07,07,18,00,AAXX 07184 41863 02450 70902 10280 20260 30020 40062 83520 333 58010 70070 83618 87458==
41863,2023,07,07,21,00,AAXX 07214 41863 01440 71802 10278 20260 30013 40055 70262 83520 333 58008 70130 83618 87458==
41863,2023,07,08,00,00,AAXX 08004 41863 11450 81301 10282 20270 30011 40053 60066 70362 8552/ 333 58012 70130 85618 88458==
41863,2023,07,08,03,00,AAXX 08034 41863 02456 61301 10300 20270 30025 40067 83520 333 20270 58008 70130 83618 86458==
41863,2023,07,08,06,00,AAXX 08064 41863 02456 71301 10315 20270 30017 40059 83520 333 58009 70120 83618 87458==
41863,2023,07,08,09,00,AAXX 08094 41863 02557 41801 10336 20250 39997 40038 84400 333 58011 70060 84620==
41863,2023,07,08,12,00,AAXX 08124 41863 02/57 31801 10330 20250 39988 40030 83030 333 10339 58012 70060 83362==
41863,2023,07,08,15,00,AAXX 08154 41863 02556 41301 10305 20270 30008 40050 84400 333 59008 70060 84625==
41863,2023,07,08,18,00,AAXX 08183 41863 02550 31301 10286 20270 30014 40056 83400 333 59006 70060 83625==
41863,2023,07,08,21,00,AAXX 08214 41863 02450 51301 10284 20270 30004 40046 83520 333 59009 70000 83618 85458==
41863,2023,07,09,00,00,AAXX 09004 41863 02450 81301 10281 20270 39998 40040 8562/ 333 59013 70000 85618 88458==
41863,2023,07,09,03,00,AAXX 09034 41863 02456 61303 10312 20270 30009 40051 83520 333 20270 59016 70000 83618 86458==
41863,2023,07,09,06,00,AAXX 09064 41863 21456 80903 10314 20270 30005 40047 70362 8452/ 333 59012 60015 70014 84618 88458==
41863,2023,07,09,09,00,AAXX 09094 41863 02557 30903 10345 20270 39984 40025 83400 333 59013 70014 83620==
41863,2023,07,09,12,00,AAXX 09124 41863 02557 30901 10338 20270 39973 40014 83400 333 10345 59015 70014 83620==
41863,2023,07,09,15,00,AAXX 09154 41863 02950 00901 10305 20290 39991 40033 333 59017 70014==
41863,2023,07,09,18,00,AAXX 09184 41863 02450 20000 10301 20280 39999 40041 82600 333 59015 70014 82710==
41863,2023,07,10,00,00,AAXX 10004 41863 02950 20901 10290 20280 39989 40031 80002 333 59009 70014 82080==
41863,2023,07,10,03,00,AAXX 10034 41863 02456 61303 10315 20280 30002 40044 83520 333 20280 59007 70014 83618 86458==
41863,2023,07,10,06,00,AAXX 10064 41863 02456 71303 10332 20270 39993 40035 84520 333 59012 70000 84618 87458==
41863,2023,07,10,09,00,AAXX 10094 41863 02457 71802 10335 20280 39971 40012 85520 333 59013 70000 85618 87458==
41863,2023,07,10,12,00,AAXX 10123 41863 02456 70000 10313 20280 39966 40008 85520 333 10346 59007 70000 85618 87458==
41863,2023,07,10,15,00,AAXX 10154 41863 02450 82303 10296 20260 39988 40030 8552/ 333 59003 70000 85618 88458==
41863,2023,07,10,18,00,AAXX 10184 41863 02450 82302 10285 20260 39997 40039 8552/ 333 59002 70000 85618 88458==
41863,2023,07,10,21,00,AAXX 10214 41863 02450 81801 10280 20250 39985 40027 8552/ 333 59010 70000 85617 88458==
41863,2023,07,11,00,00,AAXX 11004 41863 02450 81303 10273 20250 39991 40034 8662/ 333 58002 70000 83710 85617 88458==
41863,2023,07,11,03,00,AAXX 11034 41863 01450 81303 10275 20270 39996 40038 76196 8552/ 333 20253 59006 70984 85617 88456==
41863,2023,07,11,06,00,AAXX 11064 41863 21456 81803 10305 20290 39994 40036 70296 8452/ 333 58001 60988 70984 84618 88458==
41863,2023,07,11,09,00,AAXX 11094 41863 02456 81303 10304 20260 39975 40017 8552/ 333 58004 70984 85618 88458==
41863,2023,07,11,12,00,AAXX 11124 41863 02456 80901 10290 20280 39969 40011 8552/ 333 10321 58003 70984 85618 88458==
41863,2023,07,11,15,00,AAXX 11154 41863 02450 81301 10287 20280 39990 40032 8552/ 333 58002 70984 85618 88458==
41863,2023,07,11,18,00,AAXX 11184 41863 02450 81801 10280 20260 39989 40031 8552/ 333 59008 70984 85618 88458==
41863,2023,07,11,21,00,AAXX 11214 41863 02450 81302 10268 20260 39986 40029 8552/ 333 58001 70084 85618 88458==
41863,2023,07,12,00,00,AAXX 12004 41863 02450 81802 10282 20260 39990 40032 8552/ 333 59001 70984 85618 88458==
41863,2023,07,12,03,00,AAXX 12034 41863 02350 81803 10290 20270 30004 40046 8562/ 333 20260 58008 70000 82710 85618 88458==
41863,2023,07,12,06,00,AAXX 12064 41863 02456 80903 10325 20270 30000 40042 8552/ 333 58006 70000 85618 88458==
41863,2023,07,12,09,00,AAXX 12094 41863 02456 61301 10334 20260 39977 40019 83520 333 58002 70000 83618 86458==
41863,2023,07,12,12,00,AAXX 12124 41863 02456 62301 10298 20270 39973 40015 83520 333 10335 58004 70000 83618 86458==
41863,2023,07,12,15,00,AAXX 12154 41863 02450 60000 10292 20270 39996 40038 83520 333 58006 70000 83618 86458==
41863,2023,07,12,18,00,AAXX 12184 41863 02450 82303 10291 20270 39996 40038 8552/ 333 58007 70000 85618 88458==
41863,2023,07,12,21,00,AAXX 12214 41863 02450 82302 10284 20260 39994 40036 8552/ 333 58008 70000 85618 88458==
41863,2023,07,13,00,00,AAXX 13004 41863 02450 81801 10278 20260 39990 40032 8552/ 333 58000 70000 85618 88458==
41863,2023,07,13,03,00,AAXX 13034 41863 02356 81803 10298 20270 30006 40048 8562/ 333 20274 58002 70000 83710 85618 88458==
41863,2023,07,13,06,00,AAXX 13064 41863 02456 81304 10325 20250 30003 40045 8542/ 333 58003 70000 83618 85828 88458==
41863,2023,07,13,09,00,AAXX 13094 41863 02557 31803 10341 20260 39976 40017 83400 333 59001 70000 83620==
41863,2023,07,13,12,00,AAXX 13124 41863 02456 81802 10311 20270 39977 40019 8452/ 333 10346 58004 70000 84618 88458==
41863,2023,07,13,15,00,AAXX 13154 41863 02450 30902 10286 20270 39999 40041 83600 333 58003 70000 83710==
41863,2023,07,13,18,00,AAXX 13184 41863 21340 80903 10276 20270 30001 40043 79596 8592/ 333 58005 60427 70420 83708 84614 88456 81930==
41863,2023,07,13,21,00,AAXX 13214 41863 01340 80903 10272 20260 39985 40028 76196 8572/ 333 59009 70490 83708 84614 88456==
41881,2023,07,07,00,00,AAXX 07004 41881 32457 50902 10270 20260 30020 40040 82530 333 56990 58020 70291 82616 83362=
41881,2023,07,07,06,00,AAXX 07064 41881 11457 71204 10321 20270 30025 40045 60046 70162 84520 333 56390 58018 70322 84616 87459=
41881,2023,07,07,12,00,AAXX 07124 41881 11356 80903 10320 20270 30001 40021 60095 8562/ 333 10329 56299 58006 70127 83709 85616 88458=
41881,2023,07,07,18,00,AAXX 07184 41881 32450 60902 10283 20260 30041 40061 83520 333 56990 58015 70127 83616 86458=
41881,2023,07,08,00,00,AAXX 08004 41881 32356 80902 10274 20260 30037 40057 8562/ 333 56299 58017 70127 84710 85616 88458=
41881,2023,07,08,06,00,AAXX 08064 41881 32457 62701 10310 20260 30037 40057 83520 333 56390 58012 70086 83615 86458=
41881,2023,07,08,12,00,AAXX 08124 41881 11456 70901 10285 20270 30015 40034 60018 70362 84520 333 10320 56390 58014 70010 84615 87458=
41881,2023,07,08,18,00,AAXX 08183 41881 32450 60901 10280 20270 30039 40059 83520 333 56990 59002 70010 83616 86458=
41881,2023,07,09,00,00,AAXX 09004 41881 32456 80901 10280 20270 30035 40055 8562/ 333 56299 59002 70010 84710 85616 88458=
41881,2023,07,09,06,00,AAXX 09064 41881 32458 41803 10330 20260 30026 40046 84400 333 56400 59011 70034 82616 83825=
41881,2023,07,09,12,00,AAXX 09124 41881 32458 51701 10330 20260 39996 40015 82501 333 10356 56909 59019 70034 82616 80482=
41881,2023,07,09,18,00,AAXX 09184 41881 32956 01802 10290 20270 30020 40040 333 59019 70034=
41881,2023,07,10,00,00,AAXX 10004 41881 32457 71802 10280 20270 30012 40032 84520 333 56990 59023 70034 84616 87459=
41881,2023,07,10,06,00,AAXX 10064 41881 32458 71701 10330 20270 30014 40034 84520 333 56990 59012 70000 84616 87459=
41881,2023,07,10,12,00,AAXX 10123 41881 32357 81802 10300 20260 39991 40011 8562/ 333 10343 56499 59005 70000 83709 85616 88458=
41881,2023,07,10,18,00,AAXX 10184 41881 11330 81402 10270 20250 30018 40038 60459 70296 8592/ 333 56399 59002 70453 84709 85615 81928 88458=
41881,2023,07,11,00,00,AAXX 11004 41881 32356 81801 10280 20270 30009 40029 8562/ 333 56499 59003 70453 84710 85616 88458=
41881,2023,07,11,06,00,AAXX 11064 41881 32457 61802 10325 20280 30016 40035 83520 333 56990 58002 70453 83616 86459=
41883,2023,07,07,00,00,AAXX 07004 41883 02350 80903 10282 20260 30025 40045 8562/ 333 58022 70014 85709 88459==
41883,2023,07,07,03,00,AAXX 07034 41883 02456 61304 10304 20260 30039 40059 84520 333 20274 58022 70014 84616 86459==
41883,2023,07,07,06,00,AAXX 07064 41883 11356 80902 10308 20270 30031 40051 69942 76062 8572/ 333 58018 70018 85710 88458==
41883,2023,07,07,09,00,AAXX 07094 41883 01456 70902 10304 20260 30011 40031 70196 83510 333 58013 70050 83616 87459==
41883,2023,07,07,12,00,AAXX 07124 41883 11350 81302 10294 20260 30005 40025 60036 70396 8562/ 333 10328 58004 70036 85709 88458==
41883,2023,07,07,15,00,AAXX 07154 41883 02330 81302 10296 20270 30037 40057 8562/ 333 58009 70036 85709 88458==
41883,2023,07,07,18,00,AAXX 07184 41883 02330 80000 10290 20270 30043 40063 8562/ 333 58012 70036 85709 88458==
41883,2023,07,07,21,00,AAXX 07214 41883 02330 80000 10284 20260 30038 40058 8562/ 333 58017 70036 85709 88458==
41883,2023,07,08,00,00,AAXX 08004 41883 02340 80000 10278 20270 30039 40059 8562/ 333 58014 70036 85709 88458==
41883,2023,07,08,03,00,AAXX 08034 41883 02450 81302 10296 20270 30048 40058 8561/ 333 20274 58009 70036 82710 84618 88458==
41883,2023,07,08,06,00,AAXX 08064 41883 11450 80000 10294 20260 30040 40060 69942 70262 8562/ 333 58009 70036 83710 84616 88456==
41883,2023,07,08,09,00,AAXX 08094 41883 01356 80000 10314 20280 30022 40042 76162 8572/ 333 58011 70062 85709 88458==
41883,2023,07,08,12,00,AAXX 08124 41883 21456 60000 10296 20290 30012 40032 70162 83510 333 10326 58007 60118 70112 83616 86459==
41883,2023,07,08,15,00,AAXX 08154 41883 02330 81302 10292 20270 30031 40051 8562/ 333 59006 70112 85709 88458==
41883,2023,07,08,18,00,AAXX 08184 41883 02430 60000 10284 20260 30041 40061 83510 333 59002 70112 83615 86458==
41883,2023,07,08,21,00,AAXX 08214 41883 02330 80000 10280 20260 30029 40049 8562/ 333 59009 70112 85709 88458==
41883,2023,07,09,00,00,AAXX 09004 41883 02340 80902 10278 20270 30023 40043 8562/ 333 59016 70112 85709 88458==
41883,2023,07,09,03,00,AAXX 09034 41883 01350 80000 10280 20270 30039 40059 76166 8572/ 333 20268 59009 70152 85709 88458==
41883,2023,07,09,06,00,AAXX 09064 41883 21456 61802 10320 20260 30032 40052 70166 84510 333 59008 60059 70156 84615 86458==
41883,2023,07,09,09,00,AAXX 09094 41883 02456 40000 10346 20270 30006 40026 84400 333 59016 70098 82618 83828==
41883,2023,07,09,12,00,AAXX 09124 41883 02450 60000 10334 20260 30000 40020 82520 333 10348 59012 70048 82618 86458==
41883,2023,07,09,15,00,AAXX 09154 41883 01330 80906 10305 20270 30017 40037 71322 8532/ 333 59014 70048 84616 88459 81930==
41883,2023,07,09,18,00,AAXX 09184 41883 02430 80902 10290 20270 30022 40042 8552/ 333 59019 70048 85616 88458==
41883,2023,07,09,21,00,AAXX 09214 41883 02430 80000 10285 20270 30016 40036 8552/ 333 59013 70048 85616 88458==
41883,2023,07,10,00,00,AAXX 10004 41883 02440 60000 10285 20280 30017 40037 83520 333 59006 70048 83616 86458==
41883,2023,07,10,03,00,AAXX 10034 41883 02456 80000 10304 20270 30026 40046 8552/ 333 20274 59013 70008 85616 88459==
41883,2023,07,10,06,00,AAXX 10064 41883 02456 81802 10325 20270 30019 40039 8552/ 333 59013 70000 85616 88459==
41883,2023,07,10,09,00,AAXX 10094 41883 02456 60000 10338 20270 39997 40017 83530 333 59009 70000 83616 86362==
41883,2023,07,10,12,00,AAXX 10124 41883 01340 81303 10298 20280 39997 40017 76122 8562/ 333 10341 59003 70006 85709 88458==
41883,2023,07,10,15,00,AAXX 10154 41883 02330 80000 10292 20270 30017 40037 8562/ 333 58000 70006 85700 88458==
41883,2023,07,10,18,00,AAXX 10184 41883 02330 80000 10292 20280 30025 40045 8562/ 333 58003 70006 85709 88458==
41883,2023,07,10,21,00,AAXX 10214 41883 02330 80000 10288 20280 30021 40041 8562/ 333 58005 70006 85709 88458==
41883,2023,07,11,00,00,AAXX 11004 41883 02340 81803 10286 20280 30015 40035 8562/ 333 59002 70006 85709 88458==
41883,2023,07,11,03,00,AAXX 11034 41883 02350 81802 10302 20270 30026 40046 8562/ 333 20282 58000 70006 85709 88458==
41883,2023,07,11,06,00,AAXX 11064 41883 02350 81802 10324 20260 30018 40038 8562/ 333 59001 70006 85709 88458==
41883,2023,07,11,09,00,AAXX 11094 41883 02456 61804 10304 20260 39997 40017 84420 333 58000 70006 82616 83828 86459==
41883,2023,07,11,15,00,AAXX 11154 41883 02430 81302 10304 20270 30020 40040 8462/ 333 58003 70000 82710 83618 88458==
41883,2023,07,11,18,00,AAXX 11184 41883 02430 71302 10294 20260 30026 40046 84620 333 58000 70000 82710 83618 87458==
41883,2023,07,11,21,00,AAXX 11214 41883 02430 61302 10286 20270 30015 40035 83520 333 59006 70000 83618 86458==
41883,2023,07,12,00,00,AAXX 12004 41883 02450 81304 10284 20260 30018 40038 8562/ 333 58003 70000 83710 84618 88458==
41883,2023,07,12,03,00,AAXX 12034 41883 02356 81802 10300 20260 30030 40050 8562/ 333 20276 58004 70000 85710 88458==
41883,2023,07,12,06,00,AAXX 12064 41883 02356 81303 10320 20260 30027 40047 8562/ 333 58009 70000 85710 88458==
41883,2023,07,12,09,00,AAXX 12094 41883 02456 61802 10326 20270 30006 40026 83510 333 58009 70000 83616 86459==
41883,2023,07,12,12,00,AAXX 12124 41883 02456 61802 10322 20260 39999 40019 83510 333 58008 70000 83616 86459==
41883,2023,07,12,15,00,AAXX 12154 41883 01330 81304 10285 20270 30030 40050 76162 8572/ 333 58010 70058 85709 88458==
41883,2023,07,12,18,00,AAXX 12184 41883 21430 70000 10285 20270 30026 40046 70162 85520 333 58000 60068 70058 85616 87459==
41883,2023,07,12,21,00,AAXX 12214 41883 02430 60000 10280 20270 30017 40037 82520 333 58002 70058 82616 86459==
41883,2023,07,13,00,00,AAXX 13004 41883 02/50 30000 10280 20270 30023 40043 83030 333 58005 70058 83362==
41883,2023,07,13,06,00,AAXX 13064 41883 02450 80902 10334 20260 30026 40046 8542/ 333 59001 70058 83680 83828 88458==
41883,2023,07,13,12,00,AAXX 13124 41883 02450 80000 10315 20270 39999 40019 8552/ 333 10334 58000 70058 85616 88458==
41883,2023,07,13,15,00,AAXX 13154 41883 42430 70000 10304 20260 30021 40041 83510 333 59009 83616 87459==
41883,2023,07,13,18,00,AAXX 13184 41883 02430 80000 10294 20270 30020 40040 8552/ 333 59006 70000 85616 88459==
41883,2023,07,13,21,00,AAXX 13214 41883 02330 80000 10288 20270 30013 40033 8562/ 333 59004 70000 85709 88458==
41886,2023,07,07,00,00,AAXX 07004 41886 02456 71604 10270 20250 30032 40052 83510 333 58014 70020 83618 87460==
41886,2023,07,07,03,00,AAXX 07034 41886 02356 81603 10285 20260 30052 40072 8562/ 333 20270 58020 70020 83710 84616 88458==
41886,2023,07,07,06,00,AAXX 07064 41886 02458 51308 10312 20260 30045 40065 83430 333 58020 70020 82618 85363==
41886,2023,07,07,09,00,AAXX 07093 41886 02458 50902 10320 20270 30018 40038 83430 333 58007 70020 82618 85363==
41886,2023,07,07,12,00,AAXX 07124 41886 21456 60000 10280 20260 30015 40035 70362 82520 333 10330 58003 60027 70020 82618 86460==
41886,2023,07,07,15,00,AAXX 07154 41886 02450 70000 10285 20270 30045 40065 83520 333 58008 70020 83618 87460==
41886,2023,07,07,18,00,AAXX 07184 41886 02450 80000 10285 20270 30054 40074 8452/ 333 58010 70020 84616 88458==
41886,2023,07,07,21,00,AAXX 07214 41886 02450 80000 10280 20260 30050 40070 8452/ 333 58012 70020 84616 88458==
41886,2023,07,08,00,00,AAXX 08004 41886 02456 80000 10275 20260 30047 40067 8452/ 333 58014 70020 84616 88458==
41886,2023,07,08,03,00,AAXX 08034 41886 02457 71302 10285 20270 30062 40082 83510 333 20275 58010 70020 83618 87460==
41886,2023,07,08,06,00,AAXX 08064 41886 02557 51306 10320 20260 30051 40071 82230 333 58006 70020 82825 85363==
41886,2023,07,08,09,00,AAXX 08094 41886 02458 51501 10335 20270 30029 40049 83430 333 58011 70020 82618 85362==
41886,2023,07,08,12,00,AAXX 08124 41886 02457 61501 10312 20260 30020 40040 84470 333 10337 58005 70000 83618 86460==
41886,2023,07,08,15,00,AAXX 08154 41886 02450 60000 10300 20270 30042 40062 82510 333 59003 70000 82618 85460==
41886,2023,07,08,18,00,AAXX 08183 41886 02450 20000 10290 20260 30046 40066 82500 333 59008 70000 82618==
41886,2023,07,08,21,00,AAXX 08214 41886 02450 60000 10282 20260 30042 40062 82510 333 59008 70000 82618 85460==
41886,2023,07,09,00,00,AAXX 09004 41886 02456 70000 10276 20270 30034 40054 83510 333 59013 70000 83618 87460==
41886,2023,07,09,03,00,AAXX 09034 41886 02457 60000 10300 20260 30044 40064 83470 333 20275 59018 70000 83618 86460==
41886,2023,07,09,06,00,AAXX 09064 41886 02457 72001 10308 20260 30039 40059 83310 333 59012 70000 83616 87458 81930==
41886,2023,07,09,09,00,AAXX 09094 41886 02457 70000 10320 20260 30018 40038 85440 333 59011 70000 84617 85363==
41886,2023,07,09,12,00,AAXX 09124 41886 02457 60000 10314 20260 30013 40033 82470 333 10327 59007 70000 81618 85363==
41886,2023,07,09,15,00,AAXX 09154 41886 02450 70000 10292 20270 30030 40050 83570 333 59012 70000 83616 86460==
41886,2023,07,10,00,00,AAXX 10004 41886 02450 80000 10286 20280 30025 40045 8452/ 333 59009 70018 84616 88458==
41886,2023,07,10,03,00,AAXX 10034 41886 02456 80000 10302 20270 30037 40057 8357/ 333 20281 59007 70018 83617 88460==
41886,2023,07,10,06,00,AAXX 10064 41886 02457 70000 10325 20270 30027 40047 84410 333 59012 70018 82618 87460==
41886,2023,07,10,09,00,AAXX 10093 41886 01350 80000 10290 20260 30014 40034 79592 8632/ 333 59004 70018 82710 83616 88460 81930==
41886,2023,07,10,12,00,AAXX 10123 41886 01450 80000 10282 20260 30011 40031 70296 8352/ 333 10346 59002 70070 83618 88460==
41886,2023,07,10,15,00,AAXX 10154 41886 01350 80000 10267 20260 30030 40050 76162 8632/ 333 58000 70288 82710 83616 88460 81930==
41886,2023,07,10,21,00,AAXX 10214 41886 02440 80000 10270 20260 30031 40051 8352/ 333 58003 70280 83616 88458==
41886,2023,07,11,00,00,AAXX 11004 41886 02450 80000 10276 20260 30025 40045 8352/ 333 58000 70280 83618 88460==
41886,2023,07,11,03,00,AAXX 11034 41886 02456 80000 10300 20270 30037 40057 8352/ 333 20260 58000 70280 83618 88460==
41886,2023,07,11,06,00,AAXX 11064 41886 02456 80000 10317 20270 30031 40051 8352/ 333 58004 70280 83618 88460==
41886,2023,07,11,09,00,AAXX 11094 41886 01456 80000 10286 20270 30011 40031 70262 8352/ 333 59003 70410 83618 88460==
41886,2023,07,11,12,00,AAXX 11124 41886 01456 80000 10284 20270 30006 40026 70262 8352/ 333 10320 59005 70377 83618 88460==
41886,2023,07,11,15,00,AAXX 11154 41886 02456 80000 10280 20270 30028 40048 8352/ 333 59002 70177 83616 88458==
41886,2023,07,11,21,00,AAXX 11214 41886 02440 80000 10276 20270 30029 40049 8352/ 333 59002 70167 83616 88458==
41886,2023,07,12,00,00,AAXX 12004 41886 02456 50000 10275 20270 30028 40048 84470 333 58003 70167 83618 85460==
41886,2023,07,12,03,00,AAXX 12034 41886 02456 50000 10302 20260 30044 40064 84470 333 20274 58007 70167 83618 85460==
41886,2023,07,12,06,00,AAXX 12064 41886 02457 72102 10325 20260 30035 40055 85370 333 58004 70167 83618 86460==
41886,2023,07,12,09,00,AAXX 12094 41886 02457 71302 10328 20260 30013 40033 84370 333 58002 70037 83618 87460 81930==
41886,2023,07,12,12,00,AAXX 12124 41886 01456 80000 10298 20270 30008 40028 70362 8331/ 333 10338 58002 70070 83618 88460 81930==
41886,2023,07,12,15,00,AAXX 12154 41886 02450 60000 10286 20270 30037 40057 82510 333 58009 70070 82618 85460==
41886,2023,07,12,18,00,AAXX 12184 41886 02450 40000 10280 20260 30037 40057 82510 333 58005 70070 82618 84460==
41886,2023,07,12,21,00,AAXX 12214 41886 02450 70000 10279 20270 30032 40052 82510 333 58003 70070 82618 87460==
41886,2023,07,13,00,00,AAXX 13004 41886 02456 80000 10277 20270 30030 40050 8351/ 333 58002 70070 83618 88460==
41886,2023,07,13,03,00,AAXX 13034 41886 02456 80000 10296 20270 30042 40062 8432/ 333 20276 59002 70070 83618 88460 81930==
41886,2023,07,13,06,00,AAXX 13064 41886 02457 80000 10308 20270 30036 40056 8432/ 333 58001 70070 83618 88460 81930==
41886,2023,07,13,09,00,AAXX 13094 41886 02457 70000 10308 20270 30010 40030 81470 333 59003 70070 81618 86363==
41886,2023,07,13,12,00,AAXX 13124 41886 02456 80000 10306 20270 30009 40029 8537/ 333 10316 58001 70000 84616 88458 81930==
41886,2023,07,13,15,00,AAXX 13154 41886 41450 80000 10286 20280 30033 40053 70295 8552/ 333 59004 85616 88458==
41886,2023,07,13,18,00,AAXX 13184 41886 11450 80000 10280 20260 30029 40049 60006 70295 8452/ 333 59008 84616 88458==
41886,2023,07,13,21,00,AAXX 13214 41886 42450 80000 10280 20260 30029 40049 8452/ 333 59003 84616 88458==
41888,2023,07,07,00,00,AAXX 07004 41888 11450 80901 10265 20260 30040 40050 60216 333 56999 58019 70390 83618 88460=
41888,2023,07,07,06,00,AAXX 07064 41888 32450 80903 10290 20260 30053 40063 8432/ 333 56299 58017 70390 84616 81930 88460=
41888,2023,07,07,12,00,AAXX 07124 41888 11450 81302 10295 20280 30023 40033 60133 70262 8432/ 333 10310 56399 59003 70340 84616 81930 88460=
41888,2023,07,07,18,00,AAXX 07184 41888 32450 80902 10282 20260 30052 40062 8432/ 333 56299 58010 70340 84616 88458=
41888,2023,07,08,00,00,AAXX 08004 41888 32450 81203 10275 20270 30054 40064 8352/ 333 56999 58014 70130 83618 88460=
41888,2023,07,08,06,00,AAXX 08064 41888 32450 71303 10305 20260 30058 40068 83620 333 56390 58005 70130 83710 87460=
41888,2023,07,08,12,00,AAXX 08124 41888 11450 81303 10277 20260 30030 40040 60084 70362 8532/ 333 10320 56999 58007 70080 83618 81930 88459=
41888,2023,07,08,18,00,AAXX 08183 41888 NIL=
41888,2023,07,09,00,00,AAXX 09004 41888 32450 80501 10280 20260 30047 40057 8352/ 333 56999 59007 70080 83618 88460=
41888,2023,07,09,06,00,AAXX 09064 41888 32450 80903 10305 20280 30045 40055 8532/ 333 56999 59013 70080 83618 81930 88459=
41888,2023,07,09,12,00,AAXX 09124 41888 NIL=
41888,2023,07,10,06,00,AAXX 10064 41888 32450 80502 10312 20300 30036 40046 8352/ 333 59009 70020 83618 88460=
41888,2023,07,10,12,00,AAXX 10124 41888 11450 80903 10272 20272 30016 40026 60183 76166 8532/ 333 10320 56999 59008 70180 83616 81930 88460=
41888,2023,07,11,00,00,AAXX 11004 41888 32450 81801 10275 20270 30031 40041 8352/ 333 56999 59010 70200 83618 88460=
41888,2023,07,11,06,00,AAXX 11064 41888 11450 80501 10285 20285 30036 40046 60154 76322 8532/ 333 56999 58000 70350 83618 81930 88460=
41891,2023,07,07,00,00,AAXX 07004 41891 11430 81604 10265 20250 30028 40066 60016 70562 8532/ 333 58016 70484 84710 88459 81930==
41891,2023,07,07,03,00,AAXX 07034 41891 41435 81803 10280 20252 30042 40080 58017 70492 88459==
41891,2023,07,07,06,00,AAXX 07064 41891 01440 80902 10304 20250 30036 40074 70522 8532/ 333 58020 70492 82710 84615 88459 81930==
41891,2023,07,07,09,00,AAXX 07094 41891 01445 60000 10315 20270 30008 40045 70522 83340 333 58008 70492 83615 85365 81930==
41891,2023,07,07,12,00,AAXX 07124 41891 01440 81302 10298 20260 30006 40044 70522 8532/ 333 10323 58001 70340 82710 84615 88459 81930==
41891,2023,07,07,15,00,AAXX 07154 41891 01320 82104 10260 20250 30033 40072 79566 8632/ 333 58004 70182 86708 88458 81925==
41891,2023,07,07,18,00,AAXX 07184 41891 01430 82503 10265 20260 30048 40081 70596 8532/ 333 58012 70416 82710 84615 88459 81930==
41891,2023,07,07,21,00,AAXX 07214 41891 01430 81803 10265 20260 30036 40074 70522 8532/ 333 58004 70406 82710 84615 88459 81930==
41891,2023,07,08,00,00,AAXX 08004 41891 11320 81503 10265 20260 30038 40076 69942 76022 8632/ 333 58010 70410 86708 88458 81925==
41891,2023,07,08,03,00,AAXX 08034 41891 01320 80903 10274 20250 30051 40089 76166 8632/ 333 20260 58009 70412 86708 88458 81925==
41891,2023,07,08,06,00,AAXX 08064 41891 11435 81802 10310 20250 30039 40077 69921 72166 8532/ 333 58003 70412 82710 84615 88459 81930==
41891,2023,07,08,09,00,AAXX 08094 41891 01450 61202 10320 20240 30015 40053 70522 83340 333 59007 70412 83615 85365 81930==
41891,2023,07,08,12,00,AAXX 08124 41891 01435 73102 10307 20260 30004 40042 70522 84370 333 10340 59002 70412 84615 86460 81930==
41891,2023,07,08,15,00,AAXX 08154 41891 01330 80104 10275 20270 30030 40068 76062 8432/ 333 59003 70290 84708 88458 81928==
41891,2023,07,08,18,00,AAXX 08184 41891 21430 81004 10273 20260 30030 40068 70562 8432/ 333 59013 60058 70056 84710 88459 81930==
41891,2023,07,08,21,00,AAXX 08214 41891 01430 81004 10272 20260 30026 40064 70522 8532/ 333 59010 70056 84710 88459 81930==
41891,2023,07,09,00,00,AAXX 09004 41891 01430 81004 10272 20260 30022 40060 70522 8532/ 333 59016 70052 84710 88460 81930==
41891,2023,07,09,03,00,AAXX 09034 41891 01435 81802 10298 20270 30029 40067 72166 8532/ 333 20270 59022 70060 82710 84615 88459 81930==
41891,2023,07,09,06,00,AAXX 09064 41891 11440 71304 10323 20250 30022 40059 60016 70562 84370 333 59017 70060 84615 86460 81930==
41891,2023,07,09,09,00,AAXX 09094 41891 01445 71303 10305 20270 30000 40037 70522 84370 333 59015 70060 84615 86460 81930==
41891,2023,07,09,12,00,AAXX 09124 41891 01440 81802 10285 20260 39999 40037 70562 8532/ 333 10328 59005 70000 82710 84615 88459 81930==
41891,2023,07,09,15,00,AAXX 09154 41891 01430 81503 10280 20270 30015 40053 70562 8532/ 333 59015 70011 82710 84615 88459 81930==
41891,2023,07,09,18,00,AAXX 09184 41891 11430 82102 10280 20270 30009 40047 69911 70562 8532/ 333 59021 70011 82710 84615 88459 81930==
41891,2023,07,09,21,00,AAXX 09214 41891 01430 82102 10275 20270 30009 40047 70522 8532/ 333 59017 70011 82710 84615 88459 81930==
41891,2023,07,10,00,00,AAXX 10004 41891 01430 82102 10270 20260 30008 40046 70522 8532/ 333 59014 70011 82710 84615 88459 81930==
41891,2023,07,10,03,00,AAXX 10034 41891 01435 82304 10284 20260 30022 40060 70522 8532/ 333 20267 59007 70001 82710 84615 88459 81930==
41891,2023,07,10,06,00,AAXX 10064 41891 21320 80502 10270 20260 30019 40057 76362 8632/ 333 59003 60117 70107 86707 88458 81925==
41891,2023,07,10,09,00,AAXX 10094 41891 01440 80508 10300 20270 39998 40036 76205 8532/ 333 59002 70109 82710 84615 88459 81930==
41891,2023,07,10,12,00,AAXX 10124 41891 01320 80503 10255 20255 39999 40037 76066 8632/ 333 10310 58000 70184 86707 88458 81925==
41891,2023,07,10,15,00,AAXX 10154 41891 01330 80804 10260 20250 30021 40059 76066 8632/ 333 58006 70218 86708 88458 81926==
41891,2023,07,10,18,00,AAXX 10184 41891 21330 81504 10260 20250 30020 40058 76066 8632/ 333 58011 60049 70218 85708 88458 81926==
41891,2023,07,10,21,00,AAXX 10214 41891 01330 81803 10265 20250 30015 40053 70562 8632/ 333 58006 70218 85708 88458 81926==
41891,2023,07,11,00,00,AAXX 11004 41891 11330 81803 10265 20250 30010 40048 60006 70562 8632/ 333 58006 70218 85708 88458 81926==
41891,2023,07,11,03,00,AAXX 11034 41891 01430 82004 10280 20260 30022 40060 70522 8632/ 333 58000 70218 85708 88458 81926==
41891,2023,07,11,06,00,AAXX 11064 41891 11430 83602 10290 20260 30019 40057 60002 70562 8632/ 333 58000 70117 85708 88458 81928==
41891,2023,07,11,09,00,AAXX 11094 41891 01445 71802 10320 20260 39996 40033 70522 84370 333 59002 70115 84615 86460 81930==
41891,2023,07,11,15,00,AAXX 11154 41891 41430 80303 10278 20270 30013 40051 72996 8532/ 333 59008 82710 84615 88459 81930==
41891,2023,07,11,18,00,AAXX 11184 41891 11430 82103 10280 20260 30021 40059 60006 70596 8532/ 333 58001 82710 84615 88459 81930==
41891,2023,07,11,21,00,AAXX 11214 41891 41430 82102 10278 20260 30018 40056 70522 8532/ 333 58003 82710 84615 88459 81930==
41891,2023,07,12,00,00,AAXX 12004 41891 41430 81803 10275 20260 30016 40054 70522 8532/ 333 58006 81710 84615 88459 81930==
41891,2023,07,12,03,00,AAXX 12034 41891 41440 82304 10294 20250 30032 40070 70522 8532/ 333 20272 58010 82710 84615 88459 81930==
41891,2023,07,12,06,00,AAXX 12064 41891 41445 72704 10324 20250 30018 40055 70522 84370 333 59001 84615 86460 81930==
41891,2023,07,12,09,00,AAXX 12094 41891 01330 80504 10275 20250 39997 40035 72122 8532/ 333 58001 70004 82708 84615 88458 81928==
41891,2023,07,12,12,00,AAXX 12124 41891 21425 80000 10285 20270 39992 40030 70566 8532/ 333 10340 58003 60057 70050 82710 84615 88460 81930==
41891,2023,07,12,15,00,AAXX 12154 41891 01430 81204 10267 20270 30021 40059 76062 8532/ 333 58008 70110 85710 88459 81930==
41891,2023,07,12,18,00,AAXX 12184 41891 21330 82504 10270 20270 30022 40060 79562 8632/ 333 58001 60099 70130 85708 88458 81928==
41891,2023,07,12,21,00,AAXX 12214 41891 01330 82504 10270 20270 30018 40056 79596 8632/ 333 58000 70155 85708 88458 81928==
41891,2023,07,13,00,00,AAXX 13004 41891 21430 81804 10270 20260 30015 40053 70596 8632/ 333 59001 60029 70155 85710 88459 81930==
41891,2023,07,13,06,00,AAXX 13064 41891 01440 82304 10309 20260 30022 40060 70522 8532/ 333 58004 70155 82710 84615 88459 81930==
41891,2023,07,13,12,00,AAXX 13124 41891 11440 70000 10285 20260 39991 40023 60226 70596 84370 333 10318 59001 70170 84615 86460 81930==
41891,2023,07,13,15,00,AAXX 13154 41891 01320 82704 10268 20260 30024 40062 76162 8632/ 333 58003 70319 86708 88458 81925==
41891,2023,07,13,18,00,AAXX 13184 41891 21430 81803 10265 20260 30024 40062 72162 8532/ 333 58002 60487 70718 82710 84615 88459 81930==
41891,2023,07,13,21,00,AAXX 13214 41891 01430 81503 10263 20250 30020 40058 72166 8532/ 333 58002 70730 82710 84615 88459 81930==
41895,2023,07,07,00,00,AAXX 07004 41895 02450 80902 10275 20275 30018 40036 8452/ 333 58022 70072 84615 88458==
41895,2023,07,07,03,00,AAXX 07034 41895 02457 61304 10305 20290 30032 40054 83520 333 20270 58027 70072 83616 86458==
41895,2023,07,07,06,00,AAXX 07064 41895 02457 41304 10350 20280 30020 40042 84400 333 58018 70072 82617 83825==
41895,2023,07,07,09,00,AAXX 07093 41895 01456 51302 10330 20290 39998 40020 70362 85400 333 58007 70094 83616 84825==
41895,2023,07,07,12,00,AAXX 07124 41895 11456 51301 10325 20280 39991 40012 60026 70262 85400 333 10358 58000 70024 83616 84828==
41895,2023,07,07,15,00,AAXX 07154 41895 02450 50901 10292 20270 30019 40041 85400 333 58004 70024 83616 84828==
41895,2023,07,07,18,00,AAXX 07184 41895 02450 50902 10283 20260 30025 40047 85400 333 58003 70024 83616 84828==
41895,2023,07,07,21,00,AAXX 07214 41895 02450 60903 10276 20270 30024 40047 84520 333 58010 70024 83616 86458==
41895,2023,07,08,00,00,AAXX 08004 41895 02450 60902 10273 20260 30024 40047 84520 333 58006 70024 83616 86458==
41895,2023,07,08,03,00,AAXX 08034 41895 02450 80902 10300 20280 30039 40061 8452/ 333 20270 58007 70024 84615 88458==
41895,2023,07,08,06,00,AAXX 08064 41895 02456 81303 10340 20270 30026 40048 8452/ 333 58006 70024 84615 88458==
41895,2023,07,08,09,00,AAXX 08094 41895 01457 61303 10320 20280 30015 40037 70162 83520 333 58017 70100 83616 86458==
41895,2023,07,08,12,00,AAXX 08124 41895 11457 31302 10320 20270 30004 40026 60106 70162 83500 333 10343 58013 70100 83616==
41895,2023,07,08,15,00,AAXX 08154 41895 02450 30902 10290 20270 30026 40048 83500 333 58007 70100 83616==
41895,2023,07,08,18,00,AAXX 08184 41895 02450 51301 10285 20280 30031 40053 83520 333 58006 70100 83616 85458==
41895,2023,07,08,21,00,AAXX 08214 41895 02450 31301 10283 20270 30020 40042 83500 333 59004 70100 83616==
41895,2023,07,09,00,00,AAXX 09004 41895 02450 31302 10280 20270 30020 40043 83500 333 59004 70100 83616==
41895,2023,07,09,03,00,AAXX 09034 41895 02456 51802 10312 20270 30030 40052 82501 333 20275 59009 70100 82616 83074==
41895,2023,07,09,06,00,AAXX 09064 41895 02457 51802 10340 20270 30024 40046 82501 333 59002 70100 82616 84074==
41895,2023,07,09,09,00,AAXX 09094 41895 02457 51802 10356 20260 39999 40020 82501 333 59016 70000 82616 84074==
41895,2023,07,09,12,00,AAXX 09124 41895 02456 41301 10350 20280 39991 40012 82501 333 10369 59013 70000 82616 83074==
41895,2023,07,09,15,00,AAXX 09154 41895 02450 50902 10300 20270 30011 40033 83510 333 59015 70000 83616 85458==
41895,2023,07,10,00,00,AAXX 10004 41895 02950 01301 10283 20270 30005 40027 333 59015 70000==
41895,2023,07,10,03,00,AAXX 10034 41895 02456 61802 10314 20280 30019 40041 83510 333 20281 59011 70000 83616 86458==
41895,2023,07,10,06,00,AAXX 10064 41895 02557 61802 10350 20290 30010 40032 83101 333 59014 70000 83825 84074==
41895,2023,07,10,09,00,AAXX 10094 41895 02457 51304 10365 20290 39991 40012 85400 333 59008 70000 83616 83825==
41895,2023,07,10,12,00,AAXX 10124 41895 01456 60902 10300 20300 39985 40007 72162 83520 333 10370 59006 70050 83616 86458==
41895,2023,07,10,15,00,AAXX 10154 41895 02450 82301 10295 20290 30008 40030 8352/ 333 59003 70050 83616 88458==
41895,2023,07,10,18,00,AAXX 10184 41895 02450 81304 10290 20280 30019 40041 8352/ 333 58000 70050 83616 88458==
41895,2023,07,10,21,00,AAXX 10214 41895 02450 81302 10288 20280 30013 40035 8352/ 333 58006 70050 83616 88458==
41895,2023,07,11,00,00,AAXX 11004 41895 02450 81302 10285 20280 30007 40029 8352/ 333 58002 70050 83616 88458==
41895,2023,07,11,03,00,AAXX 11034 41895 02456 81802 10310 20280 30016 40038 8452/ 333 20278 59003 70050 84616 88458==
41895,2023,07,11,06,00,AAXX 11064 41895 02456 62303 10338 20280 30012 40034 83510 333 58002 70050 83616 86458==
41895,2023,07,11,09,00,AAXX 11094 41895 02456 62303 10354 20270 39988 40010 83510 333 59003 70050 83616 86458==
41895,2023,07,11,12,00,AAXX 11124 41895 02450 61301 10313 20270 39981 40003 83510 333 10360 59004 70000 83616 86458==
41895,2023,07,11,15,00,AAXX 11154 41895 02450 61302 10297 20280 30001 40023 84520 333 59007 70000 84615 86458==
41895,2023,07,11,18,00,AAXX 11184 41895 02450 60903 10290 20280 30014 40036 84520 333 59005 70000 84615 86458==
41895,2023,07,11,21,00,AAXX 11214 41895 02450 61309 10278 20270 30007 40029 84520 333 59006 70000 84615 86458==
41895,2023,07,12,00,00,AAXX 12004 41895 02450 61302 10273 20260 30006 40028 84520 333 59001 70000 84615 86458==
41895,2023,07,12,03,00,AAXX 12034 41895 02456 62303 10314 20270 30020 40042 83531 333 20271 58004 70000 83616 83074==
41895,2023,07,12,06,00,AAXX 12064 41895 02456 81802 10326 20280 30019 40041 8452/ 333 58007 70000 84615 88458==
41895,2023,07,12,09,00,AAXX 12094 41895 02456 82307 10339 20270 39999 40020 8452/ 333 58011 70000 84615 88458==
41895,2023,07,12,12,00,AAXX 12124 41895 21456 61302 10295 20295 39994 40016 70162 83520 333 10340 58013 60115 70108 83616 86458==
41895,2023,07,12,15,00,AAXX 12154 41895 02450 31802 10275 20275 30021 40043 83500 333 58020 70108 83616==
41895,2023,07,12,18,00,AAXX 12184 41895 02450 31302 10280 20270 30025 40047 83500 333 58011 70108 83616==
41895,2023,07,12,21,00,AAXX 12214 41895 02450 31302 10280 20270 30004 40026 83500 333 59003 70108 83616==
41895,2023,07,13,00,00,AAXX 13004 41895 02/50 51302 10275 20270 30016 40038 85030 333 58010 70108 85362==
41895,2023,07,13,03,00,AAXX 13034 41895 02457 41803 10304 20270 30027 40049 82501 333 20270 58007 70108 82616 83074==
41895,2023,07,13,06,00,AAXX 13064 41895 02457 51803 10340 20270 30016 40038 83401 333 59003 70108 82616 83074==
41895,2023,07,13,09,00,AAXX 13094 41895 02456 81302 10340 20280 39995 40016 8452/ 333 59004 70108 84615 88458==
41895,2023,07,13,12,00,AAXX 13124 41895 02450 80000 10320 20280 39990 40012 8452/ 333 10353 59004 70108 84615==
41895,2023,07,13,15,00,AAXX 13154 41895 02450 81301 10302 20280 30010 40032 8452/ 333 59011 70000 84615 88458==
41895,2023,07,13,18,00,AAXX 13184 41895 02450 81302 10291 20280 30015 40037 8452/ 333 59010 70000 84615 88458==
41895,2023,07,13,21,00,AAXX 13214 41895 02450 81302 10284 20270 30007 40029 8452/ 333 58003 70000 84615 88458==
41897,2023,07,07,00,00,AAXX 07004 41897 32435 81001 10278 20270 30030 40043 8352/ 333 56999 58009 70000 83615 88458=
41897,2023,07,07,06,00,AAXX 07064 41897 32450 61001 10310 20260 30038 40051 83530 333 56990 58020 70000 83616 86360=
41897,2023,07,07,12,00,AAXX 07124 41897 32456 51502 10310 20260 30014 40027 82530 333 10325 56990 58010 70000 82617 85362=
41897,2023,07,07,18,00,AAXX 07184 41897 11440 81503 10285 20270 30050 40063 69945 70362 8352/ 333 56999 58013 70004 83615 88458=
41897,2023,07,08,00,00,AAXX 08004 41897 32430 81601 10275 20270 30045 40058 8352/ 333 56999 58015 70004 83615 88458=
41897,2023,07,08,06,00,AAXX 08064 41897 11445 81808 10300 20250 30045 40058 60016 70262 8452/ 333 56499 58007 70014 84615 88458=
41897,2023,07,08,12,00,AAXX 08124 41897 11956 21803 10315 20260 30019 40031 60016 70162 82030 333 10335 56090 58005 70027 82362=
41897,2023,07,08,18,00,AAXX 08183 41897 32945 21502 10285 20270 30044 40057 82030 333 56090 59006 70023 82362=
41897,2023,07,09,00,00,AAXX 09004 41897 32435 81802 10275 20270 30033 40046 8352/ 333 56499 59012 70023 83615 88458=
41897,2023,07,09,06,00,AAXX 09064 41897 11450 51502 10325 20270 30039 40052 60016 70162 83530 333 56990 59006 70024 83616 85360=
41897,2023,07,09,12,00,AAXX 09124 41897 32450 30000 10335 20270 30006 40019 81530 333 10345 56990 59013 70011 81618 83362=
41897,2023,07,09,18,00,AAXX 09184 41897 11940 00000 10290 20280 30028 40041 60048 70560 333 59016 70051=
41897,2023,07,10,00,00,AAXX 10004 41897 31940 01802 10280 20270 30020 40033 70500 333 59013 70051=
41897,2023,07,10,06,00,AAXX 10064 41897 31456 30902 10340 20270 30024 40037 70500 81530 333 56490 59015 70040 81618 83362=
41897,2023,07,10,12,00,AAXX 10123 41897 31450 51802 10305 20280 30002 40015 70522 82510 333 10350 56490 59004 70040 82618 85458=
41897,2023,07,11,00,00,AAXX 11004 41897 32440 51802 10280 20270 30022 40035 82510 333 56490 58002 70000 82617 86458=
41902,2023,07,07,00,00,AAXX 07004 41902 32440 61704 10272 20250 30043 40051 84430 333 56490 58017 70190 83613 85362=
41902,2023,07,07,06,00,AAXX 07064 41902 32450 41703 10321 20260 30044 40052 83430 333 56490 58010 70190 82614 83362=
41902,2023,07,07,12,00,AAXX 07124 41902 11450 81705 10295 20270 30029 40037 69984 76322 8342/ 333 10330 56499 58009 70058 82614 88459=
41902,2023,07,07,18,00,AAXX 07184 41902 32350 51805 10283 20250 30054 40062 83630 333 56490 58016 70008 82710 83614 84362=
41902,2023,07,08,00,00,AAXX 08004 41902 32350 61805 10275 20260 30050 40058 84630 333 56490 58007 70008 81710 83614 85362=
41902,2023,07,08,06,00,AAXX 08064 41902 32456 31802 10333 20270 30053 40061 83400 333 56400 58009 70008 82616=
41902,2023,07,08,12,00,AAXX 08124 41902 11450 40000 10305 20260 30029 40038 60075 70162 83420 333 10340 56990 58000 70074 82616 84458=
41902,2023,07,08,18,00,AAXX 08183 41902 32440 61805 10288 20260 30050 40058 84420 333 56990 59004 70074 83616 86458=
41902,2023,07,09,00,00,AAXX 09004 41902 32440 71804 10280 20260 30041 40049 84420 333 56490 59009 70074 83616 86458=
41902,2023,07,09,06,00,AAXX 09064 41902 32456 72302 10298 20260 30044 40052 83520 333 56990 59009 70074 83615 87457=
41902,2023,07,09,12,00,AAXX 09124 41902 11456 71802 10305 20280 30024 40032 69936 70362 84520 333 10322 56990 59005 70077 84615 87459=
41902,2023,07,09,18,00,AAXX 09184 41902 31440 61504 10290 20270 30031 40039 70392 83530 333 56990 59019 70003 83616 86362=
41902,2023,07,10,00,00,AAXX 10004 41902 32450 51804 10284 20270 30032 40040 83530 333 56490 59009 70003 83616 85362=
41902,2023,07,10,06,00,AAXX 10064 41902 32456 61403 10335 20280 30032 40041 83430 333 56990 59012 70003 83616 86362=
41902,2023,07,10,12,00,AAXX 10124 41902 11456 71804 10295 20260 30018 40026 69935 70362 84520 333 10340 56499 59006 70003 84615 87459=
41902,2023,07,11,00,00,AAXX 11004 41902 32350 81806 10282 20260 30031 40039 8562/ 333 56499 59001 70003 82708 84614 88458=
41907,2023,07,07,00,00,AAXX 07004 41907 02340 81802 10280 20260 30006 40021 8662/ 333 58017 70076 83709 85615 88458==
41907,2023,07,07,03,00,AAXX 07034 41907 02450 81802 10307 20280 30032 40046 8551/ 333 20273 58023 70076 85615 88458==
41907,2023,07,07,06,00,AAXX 07064 41907 02450 71802 10330 20270 30023 40038 86810 333 58019 70076 83615 83825 85458==
41907,2023,07,07,09,00,AAXX 07094 41907 02450 61802 10345 20270 30003 40017 86800 333 58010 70000 83615 83825==
41907,2023,07,07,12,00,AAXX 07124 41907 02450 71802 10315 20270 30000 40014 85510 333 10350 58013 70000 85615 85458==
41907,2023,07,07,15,00,AAXX 07154 41907 02440 31302 10292 20260 30026 40041 83500 333 58021 70000 83615==
41907,2023,07,07,18,00,AAXX 07184 41907 02940 01302 10280 20260 30033 40047 333 58011 70000==
41907,2023,07,07,21,00,AAXX 07214 41907 02440 60902 10278 20270 30023 40037 83510 333 58014 70000 83615 85458==
41907,2023,07,08,00,00,AAXX 08004 41907 02340 80902 10275 20270 30029 40043 8672/ 333 58027 70000 85709 88458==
41907,2023,07,08,03,00,AAXX 08034 41907 02350 81302 10300 20270 30044 40058 8662/ 333 20273 58012 70000 85709 88458==
41907,2023,07,08,06,00,AAXX 08064 41907 21450 71302 10320 20270 30033 40047 70162 85510 333 58010 60055 70050 85615 86458==
41907,2023,07,08,09,00,AAXX 08094 41907 01450 70902 10315 20280 30015 40030 70262 85810 333 58012 70065 82615 83825 86458==
41907,2023,07,08,12,00,AAXX 08124 41907 01450 60000 10315 20290 30008 40023 70162 84810 333 10330 58008 70110 82615 83825 85458==
41907,2023,07,08,15,00,AAXX 08154 41907 01940 00000 10278 20270 30023 40037 70162 333 59003 70166==
41907,2023,07,08,18,00,AAXX 08184 41907 11940 00000 10280 20270 30028 40042 60066 70062 333 59005 70166==
41907,2023,07,08,21,00,AAXX 08214 41907 02340 70000 10276 20270 30022 40036 86610 333 59001 70166 82709 85615 86458==
41907,2023,07,09,00,00,AAXX 09004 41907 01340 70000 10272 20260 30016 40031 70262 86610 333 59013 70040 82709 85615 86458==
41907,2023,07,09,03,00,AAXX 09034 41907 02340 80000 10300 20270 30046 40060 86610 333 20270 58002 70202 82709 85615 88458==
41907,2023,07,09,06,00,AAXX 09064 41907 02350 72702 10335 20270 30043 40058 86610 333 58010 70152 81709 85615 87458==
41907,2023,07,09,09,00,AAXX 09094 41907 02450 52702 10355 20280 30000 40015 85800 333 59015 70137 82709 85615==
41907,2023,07,09,12,00,AAXX 09124 41907 02450 50000 10345 20280 39996 40011 85800 333 10360 59012 70092 82615 83825==
41907,2023,07,09,15,00,AAXX 09154 41907 02940 01302 10297 20270 30012 40027 333 59011 70036==
41907,2023,07,09,18,00,AAXX 09184 41907 02940 01302 10290 20270 30016 40031 333 59018 70036==
41907,2023,07,09,21,00,AAXX 09214 41907 02940 01302 10285 20280 30013 40028 333 59009 70036==
41907,2023,07,10,00,00,AAXX 10004 41907 02440 61802 10285 20280 30011 40026 83501 333 59005 70000 83615 84080==
41907,2023,07,10,03,00,AAXX 10034 41907 02440 71801 10315 20280 30023 40038 85870 333 20282 59023 70000 84616 86458==
41907,2023,07,10,06,00,AAXX 10064 41907 02440 72302 10352 20270 30013 40027 84870 333 59030 70000 82616 83828 85458==
41907,2023,07,10,09,00,AAXX 10094 41907 02340 81303 10328 20270 39996 40011 8662/ 333 59003 70000 82709 85615 88458==
41907,2023,07,10,12,00,AAXX 10124 41907 02340 81302 10323 20280 39990 40004 8662/ 333 10370 59006 70000 82709 85615 88458==
41907,2023,07,10,15,00,AAXX 10154 41907 02340 81302 10295 20280 30009 40024 8662/ 333 59003 70000 82709 85615 88458==
41907,2023,07,10,18,00,AAXX 10184 41907 02340 81802 10287 20270 30020 40035 8662/ 333 58004 70000 82709 85615 88458==
41907,2023,07,10,21,00,AAXX 10214 41907 02340 81802 10285 20280 30018 40033 8662/ 333 58005 70000 82709 85615 88458==
41907,2023,07,11,00,00,AAXX 11004 41907 02340 81802 10280 20270 30015 40030 8662/ 333 58004 70000 82709 85615 88458==
41907,2023,07,11,03,00,AAXX 11034 41907 02350 81804 10312 20280 30022 40036 8562/ 333 59001 70000 82709 84615 88458==
41907,2023,07,11,06,00,AAXX 11064 41907 02450 61804 10346 20280 30014 40028 85810 333 58001 70000 84615 84458==
41907,2023,07,11,09,00,AAXX 11094 41907 01340 81803 10285 20270 30003 40018 76122 8632/ 333 58007 70018 83708 85614 88458 81930==
41907,2023,07,11,15,00,AAXX 11154 41907 02340 80000 10295 20280 39999 40014 8562/ 333 59010 70022 82709 85615 88458==
41907,2023,07,11,18,00,AAXX 11184 41907 02340 80000 10288 20270 30011 40026 8662/ 333 59009 70022 82709 85615 88458==
41907,2023,07,11,21,00,AAXX 11214 41907 02340 80000 10280 20270 30003 40018 8662/ 333 59015 70022 82709 85615 88458==
41907,2023,07,12,00,00,AAXX 12004 41907 02440 61302 10279 20270 30003 40018 84510 333 59012 70022 84615 85458==
41907,2023,07,12,03,00,AAXX 12034 41907 02450 51802 10320 20280 30024 40038 85800 333 20276 58002 70022 82615 83825==
41907,2023,07,12,06,00,AAXX 12064 41907 02456 53102 10340 20250 30017 40031 85800 333 58002 70022 82615 83825==
41907,2023,07,12,09,00,AAXX 12094 41907 02450 81802 10340 20270 39999 40013 8581/ 333 59004 70004 84615 88458==
41907,2023,07,12,12,00,AAXX 12124 41907 02350 81802 10310 20260 30001 40015 8662/ 333 10360 58013 70000 82709 84615 88458==
41907,2023,07,12,15,00,AAXX 12154 41907 02440 20000 10290 20270 30021 40036 82500 333 58022 70000 82616==
41907,2023,07,12,18,00,AAXX 12184 41907 02440 70000 10280 20260 30026 40041 84510 333 58015 70000 84616 87458==
41907,2023,07,12,21,00,AAXX 12214 41907 02440 70000 10278 20270 30021 40036 83510 333 58020 70000 83615 87458==
41907,2023,07,13,00,00,AAXX 13004 41907 02340 40000 10275 20270 30015 40029 84330 333 58011 70000 81710 83615==
41907,2023,07,13,03,00,AAXX 13034 41907 02350 71302 10320 20270 30024 40038 85630 333 20272 58000 70000 81710 84615 85362==
41907,2023,07,13,06,00,AAXX 13064 41907 02350 72302 10335 20270 30024 40038 85610 333 59007 70000 82709 85715 87458==
41907,2023,07,13,12,00,AAXX 13124 41907 01350 80000 10295 20290 39995 40009 70262 8662/ 333 10340 59006 70030 82709 85615 88458==
41907,2023,07,13,15,00,AAXX 13154 41907 02440 31802 10287 20270 30018 40033 83500 333 59003 70030 83615==
41907,2023,07,13,18,00,AAXX 13184 41907 02940 01802 10285 20280 30020 40035 333 59006 70030==
41907,2023,07,13,21,00,AAXX 13214 41907 02440 51802 10278 20270 30014 40029 83530 333 59007 70030 85615 83362==
41909,2023,07,07,00,00,AAXX 07004 41909 02450 80000 10278 20260 30027 40038 8552/ 333 58017 70138 85615 88458==
41909,2023,07,07,03,00,AAXX 07034 41909 02456 60000 10304 20260 30046 40057 83570 333 20262 58018 70120 83615 84460==
41909,2023,07,07,06,00,AAXX 07064 41909 01450 80000 10274 20260 30048 40059 76162 8552/ 333 58028 70400 85615 88458==
41909,2023,07,07,09,00,AAXX 07093 41909 01456 61301 10328 20260 30020 40031 70162 83570 333 58015 70310 83614 84460==
41909,2023,07,07,12,00,AAXX 07124 41909 11350 81301 10312 20250 30019 40030 60016 70362 8362/ 333 10332 58014 70290 82708 88458==
41909,2023,07,07,15,00,AAXX 07154 41909 02940 00000 10295 20250 30044 40055 333 58010 70290==
41909,2023,07,07,18,00,AAXX 07184 41909 02940 00000 10284 20250 30052 40063 333 58018 70290==
41909,2023,07,07,21,00,AAXX 07214 41909 02430 60000 10280 20260 30049 40060 83570 333 58017 70290 83614 84460==
41909,2023,07,08,00,00,AAXX 08004 41909 02350 81301 10277 20260 30047 40058 8562/ 333 58020 70290 84708 88458==
41909,2023,07,08,03,00,AAXX 08034 41909 01350 81301 10290 20260 30059 40070 72122 8562/ 333 20255 58013 70310 84708 88458==
41909,2023,07,08,06,00,AAXX 08064 41909 21456 51301 10334 20250 30045 40056 70162 82330 333 59003 60025 70030 82615 85360 81930==
41909,2023,07,08,09,00,AAXX 08094 41909 02456 71302 10340 20260 30030 40041 84370 333 58010 70020 84614 86460 81930==
41909,2023,07,08,12,00,AAXX 08124 41909 02456 31302 10325 20260 30018 40029 83300 333 10350 59001 70020 82615 81930==
41909,2023,07,08,15,00,AAXX 08154 41909 02950 00000 10295 20260 30043 40054 333 59001 70020==
41909,2023,07,08,18,00,AAXX 08183 41909 02440 40000 10283 20250 30045 40056 82530 333 59007 70020 82615 83365==
41909,2023,07,08,21,00,AAXX 08214 41909 02440 70000 10284 20250 30036 40047 84570 333 59013 70020 84615 86460==
41909,2023,07,09,00,00,AAXX 09004 41909 02450 80000 10280 20260 30031 40042 8552/ 333 59016 70020 85614 88460==
41909,2023,07,09,03,00,AAXX 09034 41909 01350 80000 10268 20250 30051 40062 79596 8692/ 333 20262 59008 70160 85708 88458 81930==
41909,2023,07,09,06,00,AAXX 09064 41909 01350 80000 10279 20260 30045 40056 70296 8632/ 333 58000 70210 85708 88458 81930==
41909,2023,07,09,09,00,AAXX 09094 41909 02456 50000 10330 20260 30019 40030 82330 333 59011 70210 82615 85360==
41909,2023,07,09,12,00,AAXX 09124 41909 02440 80000 10325 20270 30012 40023 8552/ 333 10340 59006 70210 85614 88458==
41909,2023,07,09,15,00,AAXX 09154 41909 02440 50000 10295 20270 30028 40039 82330 333 59015 70210 82615 85360==
41909,2023,07,09,18,00,AAXX 09184 41909 02940 00000 10285 20280 30036 40047 333 59009 70210==
41909,2023,07,10,00,00,AAXX 10004 41909 02450 70000 10280 20270 30026 40037 84570 333 59005 70210 84614 86460==
41909,2023,07,10,03,00,AAXX 10034 41909 02450 81801 10318 20250 30039 40050 8462/ 333 20262 59012 70050 83708 88458==
41909,2023,07,10,06,00,AAXX 10064 41909 21456 51801 10344 20260 30027 40038 70162 83510 333 59018 60025 70020 82615 85360==
41909,2023,07,10,09,00,AAXX 10094 41909 01350 80000 10300 20260 30016 40027 72122 8562/ 333 59003 70030 83708 85614 88458==
41909,2023,07,10,12,00,AAXX 10123 41909 01450 81801 10312 20260 30004 40015 70262 8552/ 333 10347 59008 70130 85614 88458==
41909,2023,07,10,15,00,AAXX 10154 41909 02430 80000 10290 20250 30030 40041 8552/ 333 58002 70130 85614 88458==
41909,2023,07,10,18,00,AAXX 10184 41909 02330 81801 10288 20270 30038 40049 8562/ 333 58002 70130 84708 88458==
41909,2023,07,10,21,00,AAXX 10214 41909 02430 80000 10284 20260 30034 40045 8552/ 333 58002 70130 85614 88458==
41909,2023,07,11,00,00,AAXX 11004 41909 02450 81801 10279 20260 30027 40038 8562/ 333 58001 70130 84708 88458==
41909,2023,07,11,03,00,AAXX 11034 41909 02456 61402 10310 20270 30037 40048 82510 333 20262 59002 70130 82615 86458==
41909,2023,07,11,06,00,AAXX 11064 41909 02456 61802 10334 20260 30028 40039 82510 333 58001 70110 82615 86458==
41909,2023,07,11,09,00,AAXX 11094 41909 01456 51802 10317 20290 30009 40020 72122 83830 333 59007 70101 82615 83360==
41909,2023,07,11,12,00,AAXX 11124 41909 21456 41802 10316 20260 30005 40016 70162 82530 333 10348 58001 69915 70001 82615 83360==
41909,2023,07,11,15,00,AAXX 11154 41909 02440 71804 10290 20250 30032 40043 82520 333 58002 70001 82615 87458==
41909,2023,07,11,18,00,AAXX 11184 41909 02440 81802 10282 20250 30041 40052 8252/ 333 58003 70001 82615 88458==
41909,2023,07,11,21,00,AAXX 11214 41909 02440 51802 10278 20260 30028 40039 83530 333 59006 70001 83615 83360==
41909,2023,07,12,00,00,AAXX 12004 41909 02456 40000 10274 20250 30031 40042 82530 333 58004 70001 82615 83360==
41909,2023,07,12,03,00,AAXX 12034 41909 02456 51402 10317 20260 30044 40055 82530 333 20262 58007 70001 82615 85360==
41909,2023,07,12,06,00,AAXX 12064 41909 02456 51402 10336 20250 30035 40046 82530 333 58007 70001 82615 85360==
41909,2023,07,12,09,00,AAXX 12094 41909 01350 81301 10310 20270 30016 40027 76122 8672/ 333 58007 70036 83708 84614 88458==
41909,2023,07,12,12,00,AAXX 12124 41909 21456 71304 10305 20260 30008 40019 70162 84570 333 10345 58003 60045 70037 84614 86460==
41909,2023,07,12,15,00,AAXX 12154 41909 02450 80000 10290 20250 30040 40051 8552/ 333 58008 70037 85615 88460==
41909,2023,07,12,18,00,AAXX 12184 41909 02440 80000 10280 20250 30040 40051 8552/ 333 59001 70037 85615 88460==
41909,2023,07,12,21,00,AAXX 12214 41909 02340 81802 10281 20250 30036 40047 8562/ 333 58008 70037 83708 83615 88460==
41909,2023,07,13,00,00,AAXX 13004 41909 02356 81302 10280 20260 30031 40042 8562/ 333 58000 70037 83708 83614 88460==
41909,2023,07,13,03,00,AAXX 13034 41909 02456 51302 10302 20260 30043 40054 82530 333 20262 59001 70037 82615 85360==
41909,2023,07,13,06,00,AAXX 13064 41909 11456 50000 10307 20280 30036 40047 60032 72162 82530 333 58001 70067 82615 85360==
41909,2023,07,13,09,00,AAXX 13094 41909 02356 80000 10325 20260 30013 40024 8562/ 333 59003 70067 83708 83614 88458==
41909,2023,07,13,12,00,AAXX 13124 41909 02356 80000 10325 20260 30013 40024 8562/ 333 59003 70031 83708 83614 88458==
41909,2023,07,13,15,00,AAXX 13154 41909 01440 50000 10288 20270 30030 40041 70162 82530 333 59010 70060 82615 85360==
41909,2023,07,13,18,00,AAXX 13184 41909 21440 50000 10285 20270 30031 40042 70262 8562/ 333 59009 60017 70060 82615 85360==
41909,2023,07,13,21,00,AAXX 13214 41909 02440 50000 10280 20270 30028 40039 8562/ 333 58028 70060 82615 85360==
41915,2023,07,07,00,00,AAXX 07004 41915 02440 80000 10272 20250 30038 40063 8652/ 333 58022 70017 86616 88458==
41915,2023,07,07,03,00,AAXX 07034 41915 02456 60000 10296 20250 30052 40077 85440 333 20265 58014 70013 84616 84360==
41915,2023,07,07,06,00,AAXX 07064 41915 02456 61604 10330 20250 30038 40063 86430 333 58013 70013 85616 83360==
41915,2023,07,07,09,00,AAXX 07094 41915 02456 61301 10332 20250 30015 40040 85330 333 58006 70013 84616 81928==
41915,2023,07,07,12,00,AAXX 07124 41915 02456 71302 10322 20250 30015 40039 85320 333 10340 58008 70000 84616 86458 81928==
41915,2023,07,07,15,00,AAXX 07154 41915 01440 80000 10270 20250 30044 40069 70362 8662/ 333 59002 70018 82712 85616 88458==
41915,2023,07,07,18,00,AAXX 07184 41915 11440 81301 10270 20250 30054 40079 60026 70262 8662/ 333 58008 70018 82712 85616 88458==
41915,2023,07,07,21,00,AAXX 07214 41915 02440 80000 10265 20260 30050 40075 8552/ 333 58012 70018 85616 88458==
41915,2023,07,08,00,00,AAXX 08004 41915 02456 70000 10266 20250 30053 40078 85570 333 58012 70018 85616 85458==
41915,2023,07,08,03,00,AAXX 08034 41915 02456 71303 10286 20260 30060 40085 85470 333 20263 58008 70018 84615 86458==
41915,2023,07,08,06,00,AAXX 08064 41915 02456 61302 10308 20260 30055 40080 84470 333 58017 70018 83616 83458==
41915,2023,07,08,09,00,AAXX 08094 41915 02456 61402 10336 20250 30025 40049 333 58010 70018 83616 84458==
41915,2023,07,08,12,00,AAXX 08124 41915 02456 71401 10303 20240 30019 40048 85470 333 10350 58004 70018 84616 86458==
41915,2023,07,08,15,00,AAXX 08154 41915 02450 70000 10280 20260 30044 40069 85470 333 58000 70000 84616 86458==
41915,2023,07,08,18,00,AAXX 08183 41915 02450 50000 10274 20250 30019 40069 84470 333 59018 70000 83616 85458==
41915,2023,07,08,21,00,AAXX 08214 41915 02450 60000 10269 20260 30036 40061 85470 333 59014 70000 84616 86458==
41915,2023,07,09,00,00,AAXX 09004 41915 02456 60000 10275 20260 30037 40062 85470 333 59016 70000 84616 86458==
41915,2023,07,09,03,00,AAXX 09034 41915 02456 61302 10303 20240 30041 40066 85570 333 20266 59019 70000 84616 86458==
41915,2023,07,09,06,00,AAXX 09064 41915 02456 71603 10292 20250 30036 40061 85470 333 59019 70000 84616 86458==
41915,2023,07,09,09,00,AAXX 09094 41915 02456 51601 10310 20260 30017 40042 84470 333 59008 70000 83616 85458==
41915,2023,07,09,12,00,AAXX 09124 41915 02456 51302 10290 20260 30015 40040 84470 333 10320 59004 70000 83616 85458==
41915,2023,07,09,15,00,AAXX 09154 41915 02450 40000 10280 20260 30027 40052 83510 333 59017 70000 82616 84458==
41915,2023,07,09,18,00,AAXX 09184 41915 02450 60000 10275 20260 30028 40053 84510 333 59008 70000 83616 85458==
41915,2023,07,10,00,00,AAXX 10004 41915 02956 60000 10274 20250 30027 40052 85470 333 59010 70000 84616 86458==
41915,2023,07,10,03,00,AAXX 10034 41915 02456 61302 10304 20250 30036 40061 85470 333 20267 59005 70000 83616 86458==
41915,2023,07,10,06,00,AAXX 10064 41915 02456 71303 10295 20250 30042 40067 85470 333 58006 70000 84616 87458==
41915,2023,07,10,09,00,AAXX 10094 41915 02456 71402 10317 20260 30006 40031 85470 333 59011 70006 84616 87458==
41915,2023,07,10,12,00,AAXX 10124 41915 11456 60000 10301 20250 30011 40036 69966 70162 84470 333 10341 59004 70006 83616 86458==
41915,2023,07,10,15,00,AAXX 10154 41915 02450 40000 10283 20250 30036 40061 82410 333 58009 70006 82616 83458==
41915,2023,07,10,18,00,AAXX 10184 41915 02450 50000 10274 20240 30031 40056 83410 333 58003 70006 82616 84458==
41915,2023,07,10,21,00,AAXX 10214 41915 02450 70000 10275 20260 30026 40051 85570 333 58000 70006 84616 87458==
41915,2023,07,11,00,00,AAXX 11004 41915 02456 71602 10277 20260 30027 40052 85570 333 58000 70006 84616 87458==
41915,2023,07,11,03,00,AAXX 11034 41915 02556 71402 10296 20250 30038 40063 85570 333 20266 58002 70006 84616 87458==
41915,2023,07,11,06,00,AAXX 11064 41915 02456 61302 10314 20250 30033 40058 84570 333 59009 70006 83616 86458==
41915,2023,07,11,09,00,AAXX 11094 41915 02456 61502 10323 20250 30008 40033 84510 333 58002 70000 83616 86458==
41915,2023,07,11,12,00,AAXX 11124 41915 02456 41602 10313 20230 30008 40033 83510 333 10333 59003 70000 82616 84458==
41915,2023,07,11,15,00,AAXX 11154 41915 02450 50000 10275 20260 30039 40064 84510 333 58006 70000 83616 85458==
41915,2023,07,11,18,00,AAXX 11184 41915 02450 50000 10274 20250 30038 40063 84510 333 58007 70000 83616 85458==
41915,2023,07,11,21,00,AAXX 11214 41915 02450 50000 10270 20260 30032 40057 84570 333 58006 70000 83616 85458==
41915,2023,07,12,00,00,AAXX 12004 41915 02456 80000 10270 20250 30031 40056 8662/ 333 58004 70000 83712 85616 88458==
41915,2023,07,12,03,00,AAXX 12034 41915 02456 51302 10304 20250 30045 40070 83610 333 20266 58007 70000 82616 85458==
41915,2023,07,12,06,00,AAXX 12064 41915 02456 51602 10330 20230 30032 40057 83640 333 59003 70000 83616 84562==
41915,2023,07,12,09,00,AAXX 12094 41915 02456 31802 10336 20250 30009 40033 83440 333 58001 70000 82616 83362==
41915,2023,07,12,12,00,AAXX 12124 41915 02456 81601 10318 20250 30006 40030 8562/ 333 10342 59002 70000 82712 84616 88458==
41915,2023,07,12,15,00,AAXX 12154 41915 02450 60000 10280 20260 30036 40062 83670 333 59003 70000 83616 86458==
41915,2023,07,12,18,00,AAXX 12184 41915 02450 60000 10278 20260 30035 40060 84670 333 59005 70000 84616 86458==
41915,2023,07,12,21,00,AAXX 12214 41915 02450 70000 10268 20260 30029 40054 85470 333 59003 70000 84615 85458==
41915,2023,07,13,00,00,AAXX 13004 41915 02456 70000 10266 20260 30034 40059 84470 333 58003 70000 83616 84458==
41915,2023,07,13,03,00,AAXX 13034 41915 02456 61302 10300 20250 30049 40074 84470 333 20266 58004 70000 83616 84458==
41915,2023,07,13,09,00,AAXX 13094 41915 02457 61802 10337 20250 30008 40032 84470 333 59001 70000 83616 83458==
41915,2023,07,13,12,00,AAXX 13124 41915 11450 81302 10266 20260 30013 40038 60122 79596 8692/ 333 10345 58007 70124 82712 84615 88458 81925==
41915,2023,07,13,15,00,AAXX 13154 41915 01450 81302 10273 20260 30034 40059 70292 8532/ 333 59002 70124 84615 88458 81928==
41915,2023,07,13,18,00,AAXX 13184 41915 01440 81302 10270 20260 30036 40061 76296 8532/ 333 58001 70154 84615 88458 81928==
41915,2023,07,13,21,00,AAXX 13214 41915 02450 81302 10260 20250 30031 40056 8662/ 333 58002 70154 83712 84615 88458==
41923,2023,07,07,00,00,AAXX 07004 41923 01340 70000 10282 20260 30035 40045 70262 86370 333 58018 70116 83708 84614 86458 81930==
41923,2023,07,07,03,00,AAXX 07034 41923 01345 70000 10298 20270 30057 40067 70162 86370 333 20272 58021 70110 83708 84614 86458 81930==
41923,2023,07,07,06,00,AAXX 07064 41923 01340 70000 10316 20270 30049 40059 76122 86370 333 58023 70110 83708 84614 86458 81930==
41923,2023,07,07,09,00,AAXX 07094 41923 01456 41804 10318 20260 30026 40036 70162 84400 333 58000 70186 82615 83824==
41923,2023,07,07,12,00,AAXX 07124 41923 01356 51803 10301 20260 30029 40039 70362 85600 333 10325 58014 70207 82709 83615==
41923,2023,07,07,15,00,AAXX 07154 41923 02350 51803 10290 20250 30055 40065 85600 333 58015 70207 83709 83615==
41923,2023,07,07,18,00,AAXX 07184 41923 02345 31802 10282 20250 30057 40067 83600 333 58009 70207 81709 83615==
41923,2023,07,07,21,00,AAXX 07214 41923 02340 81803 10282 20250 30051 40061 8562/ 333 58016 70109 83709 84614 88458==
41923,2023,07,08,00,00,AAXX 08004 41923 02340 80000 10281 20250 30053 40063 8632/ 333 58013 70109 83709 84614 88458 81930==
41923,2023,07,08,03,00,AAXX 08034 41923 02456 51804 10306 20260 30068 40078 84430 333 20280 58011 70107 82616 83824==
41923,2023,07,08,06,00,AAXX 08064 41923 02456 51803 10330 20250 30054 40064 85330 333 58005 70107 83615 83824 81930==
41923,2023,07,08,09,00,AAXX 08094 41923 01456 51603 10340 20250 30037 40047 70262 85330 333 58011 70029 83615 83824 81930==
41923,2023,07,08,12,00,AAXX 08124 41923 11356 61502 10312 20250 30029 40039 69926 70362 85630 333 10340 58000 70002 82709 83615 85360==
41923,2023,07,08,15,00,AAXX 08154 41923 02350 30000 10298 20260 30049 40059 83600 333 59006 70002 81709 83615==
41923,2023,07,08,18,00,AAXX 08184 41923 02345 60000 10294 20250 30051 40061 85630 333 59006 70002 82709 83615 85360==
41923,2023,07,08,21,00,AAXX 08214 41923 02340 60000 10290 20260 30039 40048 85630 333 59012 70002 82709 83615 85360==
41923,2023,07,09,00,00,AAXX 09004 41923 02340 60000 10284 20260 30040 40050 85630 333 59013 70002 82709 83615 85360==
41923,2023,07,09,03,00,AAXX 09034 41923 01340 80000 10280 20260 30052 40062 72162 8632/ 333 20273 59016 70012 83709 84614 88458 81930==
41923,2023,07,09,06,00,AAXX 09064 41923 01340 60000 10316 20260 30045 40055 76162 86370 333 59009 70012 83708 84615 86458 81930==
41923,2023,07,09,09,00,AAXX 09094 41923 01340 82002 10332 20260 30026 40036 79562 8692/ 333 59011 70010 83708 84614 88459 81929==
41923,2023,07,09,12,00,AAXX 09124 41923 01440 51802 10318 20270 30021 40031 70196 82530 333 10344 59008 70012 82615 85365==
41923,2023,07,09,15,00,AAXX 09154 41923 02/40 30000 10304 20260 30035 40045 83030 333 59014 70012 83365==
41923,2023,07,09,18,00,AAXX 09184 41923 01/40 22702 10293 20260 30040 40050 70511 82030 333 59011 70012 82365==
41923,2023,07,09,21,00,AAXX 09214 41923 01440 80000 10290 20270 30032 40042 70522 8532/ 333 59007 70012 85614 88460 81930==
41923,2023,07,10,00,00,AAXX 10004 41923 01440 81802 10287 20270 30035 40045 70522 8532/ 333 59005 70012 85614 88460 81930==
41923,2023,07,10,03,00,AAXX 10034 41923 01450 61203 10312 20260 30047 40057 70522 83530 333 20279 59005 70002 83615 86365==
41923,2023,07,10,06,00,AAXX 10064 41923 01460 62402 10324 20250 30040 40050 72162 83530 333 59005 70010 83615 86365==
41923,2023,07,10,09,00,AAXX 10094 41923 02456 61802 10334 20250 30020 40030 84431 333 59006 70014 82615 83824==
41923,2023,07,10,12,00,AAXX 10124 41923 21356 71802 10297 20260 30016 40026 70362 85330 333 10341 59005 60017 70026 82709 83615 85360 81930==
41923,2023,07,10,15,00,AAXX 10154 41923 02350 41803 10292 20260 30043 40053 84600 333 58008 70026 82709 83615==
41923,2023,07,10,18,00,AAXX 10184 41923 02345 51804 10290 20260 30046 40056 85600 333 58006 70026 83709 84615==
41923,2023,07,10,21,00,AAXX 10214 41923 02340 50000 10286 20270 30036 40046 85600 333 58004 70026 83709 84615==
41923,2023,07,11,00,00,AAXX 11004 41923 02340 70000 10281 20260 30036 40046 85670 333 58001 70026 82709 84615 85458==
41923,2023,07,11,03,00,AAXX 11034 41923 02456 60000 10308 20270 30047 40057 84430 333 20280 58000 70026 82615 83824==
41923,2023,07,11,06,00,AAXX 11064 41923 02456 71803 10220 20240 30040 40050 85330 333 58000 70014 83615 83824 85360 81930==
41923,2023,07,11,09,00,AAXX 11094 41923 02456 62103 10324 20240 30021 40031 82531 333 58001 70014 82616 83360==
41923,2023,07,11,12,00,AAXX 11124 41923 NIL=
41923,2023,07,11,15,00,AAXX 11154 41923 02450 31802 10296 20250 30038 40048 81530 333 59005 70000 81616 83360==
41923,2023,07,11,18,00,AAXX 11184 41923 02350 72402 10290 20260 30051 40061 84630 333 58005 70000 82709 83615 85360==
41923,2023,07,11,21,00,AAXX 11214 41923 02345 62402 10286 20260 30044 40054 83630 333 58008 70000 81709 83615 85360==
41923,2023,07,12,00,00,AAXX 12004 41923 02440 52402 10280 20250 30040 40050 81531 333 58004 70000 81616 85360==
41923,2023,07,12,03,00,AAXX 12034 41923 02350 51604 10320 20250 30054 40064 84630 333 20279 58007 70000 81709 83615==
41923,2023,07,12,06,00,AAXX 12064 41923 01350 62403 10321 20240 30043 40053 70362 85630 333 58003 70000 82709 83615 85360==
41923,2023,07,12,09,00,AAXX 12094 41923 01340 81202 10308 20260 30026 40036 76062 8632/ 333 58005 70008 83708 84614 88459 81929==
41923,2023,07,12,12,00,AAXX 12124 41923 01445 52402 10303 20250 30022 40032 70162 82530 333 10331 58007 70008 82615 85365==
41923,2023,07,12,15,00,AAXX 12154 41923 01440 81802 10297 20260 30049 40059 70522 8532/ 333 58011 70008 85614 88460 81930==
41923,2023,07,12,18,00,AAXX 12184 41923 01440 81202 10290 20260 30048 40058 70522 8532/ 333 59003 70008 85614 88460 81930==
41923,2023,07,12,21,00,AAXX 12214 41923 01440 81802 10285 20260 30038 40048 70522 8532/ 333 59006 70008 85614 88460 81930==
41923,2023,07,13,00,00,AAXX 13004 41923 01440 60602 10282 20260 30039 40049 70522 83530 333 59001 70008 83615 86365==
41923,2023,07,13,03,00,AAXX 13034 41923 NIL=
41923,2023,07,13,06,00,AAXX 13064 41923 01456 52402 10321 20250 30041 40051 72160 82530 333 10018 59002 70010 82615 85365==
41923,2023,07,13,09,00,AAXX 13094 41923 02350 62102 10322 20250 30020 40030 85630 333 59006 70010 82709 83615 85360==
41923,2023,07,13,12,00,AAXX 13124 41923 02350 70000 10310 20250 30015 40025 85670 333 10337 59007 70010 82709 84615 85458==
41923,2023,07,13,15,00,AAXX 13154 41923 02350 40000 10298 20260 30041 40051 84600 333 59008 70010 82709 83615==
41923,2023,07,13,18,00,AAXX 13184 41923 02350 70000 10290 20260 30038 40048 85670 333 58010 70010 83709 84615 86458==
41923,2023,07,13,21,00,AAXX 13214 41923 02340 60000 10286 20260 30028 40038 85630 333 59010 70010 82709 83615 85360==
41926,2023,07,07,00,00,AAXX 07004 41926 02450 50000 10274 20260 30020 40034 82510 333 58019 70038 82618 85459==
41926,2023,07,07,03,00,AAXX 07034 41926 02450 51802 10315 20270 30039 40052 84430 333 20274 58028 70034 83618==
41926,2023,07,07,06,00,AAXX 07064 41926 01450 41802 10305 20270 30027 40041 72162 84400 333 58022 70020 82618 83820==
41926,2023,07,07,09,00,AAXX 07094 41926 02450 61802 10326 20280 30007 40020 85410 333 58007 70050 84616 85459==
41926,2023,07,07,12,00,AAXX 07124 41926 01450 40000 10288 20270 30009 40023 70162 82530 333 10335 58015 70004 82618 83362==
41926,2023,07,07,15,00,AAXX 07154 41926 02450 20000 10285 20270 30032 40046 82500 333 58009 70020 82618==
41926,2023,07,07,18,00,AAXX 07184 41926 02450 20000 10280 20260 30042 40056 82500 333 58015 70020 82618==
41926,2023,07,07,21,00,AAXX 07214 41926 02450 60000 10278 20270 30031 40045 84510 333 58015 70020 84616 85459==
41926,2023,07,08,00,00,AAXX 08004 41926 02450 70000 10274 20260 30036 40050 84510 333 58016 70020 84616 87459==
41926,2023,07,08,03,00,AAXX 08034 41926 01450 71801 10300 20280 30049 40063 70262 84510 333 20270 58010 70022 84615 87458==
41926,2023,07,08,06,00,AAXX 08064 41926 01456 71801 10290 20280 30038 40052 70262 84510 333 58011 70036 84615 87458==
41926,2023,07,08,09,00,AAXX 08094 41926 01456 51801 10292 20270 30021 40035 72162 84430 333 58014 70086 82618 83820==
41926,2023,07,08,12,00,AAXX 08124 41926 11456 50000 10334 20260 30012 40025 60051 70262 83530 333 10335 58003 70086 83618 83362==
41926,2023,07,08,15,00,AAXX 08154 41926 02950 00000 10276 20260 30033 40047 333 58001 70086==
41926,2023,07,08,18,00,AAXX 08183 41926 01440 80000 10277 20260 30036 40050 76120 8352/ 333 59006 70010 83617 88458==
41926,2023,07,08,21,00,AAXX 08214 41926 01440 50000 10272 20260 30031 40045 70162 82510 333 58000 70130 82618 85459==
41926,2023,07,09,00,00,AAXX 09004 41926 11450 20000 10270 20260 30027 40041 60036 70160 82500 333 59009 70130 82618==
41926,2023,07,09,03,00,AAXX 09034 41926 02450 61801 10306 20280 30040 40054 83510 333 20270 59009 70128 83618 85459==
41926,2023,07,09,06,00,AAXX 09064 41926 02456 60000 10332 20270 30032 40045 86400 333 59006 70098 83618 83828==
41926,2023,07,09,09,00,AAXX 09094 41926 02456 50000 10352 20260 30010 40023 85400 333 59011 70044 82618 83828==
41926,2023,07,09,12,00,AAXX 09124 41926 02450 30000 10310 20280 30006 40019 81510 333 10345 59006 70044 81618 83459==
41926,2023,07,09,15,00,AAXX 09154 41926 02450 60000 10298 20280 30020 40034 83510 333 59013 70044 83618 85459==
41926,2023,07,09,18,00,AAXX 09184 41926 02450 51801 10288 20280 30025 40039 82510 333 59011 70032 82618 85459==
41926,2023,07,10,00,00,AAXX 10004 41926 02/50 30000 10280 20270 30020 40034 83010 333 59007 70000 83459==
41926,2023,07,10,03,00,AAXX 10034 41926 02456 51801 10315 20280 30030 40043 84430 333 20280 59010 70000 83618 83820==
41926,2023,07,10,06,00,AAXX 10064 41926 02456 40000 10352 20260 30019 40032 84401 333 59013 70000 82618 83820==
41926,2023,07,10,09,00,AAXX 10093 41926 02456 51801 10340 20270 30007 40020 83410 333 59003 70000 83618 84459==
41926,2023,07,10,12,00,AAXX 10123 41926 02450 51802 10306 20280 39997 40010 82510 333 10362 59009 70000 82618 85459==
41926,2023,07,10,15,00,AAXX 10154 41926 02/50 30000 10289 20270 30022 40036 83010 333 58002 70000 83459==
41926,2023,07,10,18,00,AAXX 10184 41926 02450 60000 10282 20270 30032 40046 82510 333 58007 70000 82618 86459==
41926,2023,07,10,21,00,AAXX 10214 41926 02450 80000 10280 20270 30023 40037 8252/ 333 58002 70000 82618 88458==
41926,2023,07,11,00,00,AAXX 11004 41926 02450 80000 10279 20270 30019 40033 8252/ 333 59001 70000 82618 88458==
41926,2023,07,11,03,00,AAXX 11034 41926 02456 61801 10312 20280 30029 40043 84510 333 20279 59001 70000 84618 86458==
41926,2023,07,11,06,00,AAXX 11064 41926 02456 41801 10343 20260 30021 40034 84401 333 58002 70000 82618 83820==
41926,2023,07,11,09,00,AAXX 11094 41926 02456 61802 10342 20260 30006 40019 85410 333 59001 70000 82618 83825 86459==
41926,2023,07,11,12,00,AAXX 11124 41926 02456 51802 10320 20250 39997 40010 81501 333 10350 58000 70000 81618 84080==
41926,2023,07,11,15,00,AAXX 11154 41926 02/50 21801 10290 20260 30024 40038 82030 333 58002 70000 82362==
41926,2023,07,11,18,00,AAXX 11184 41926 02/50 51801 10285 20270 30035 40049 85030 333 58003 70000 85362==
41926,2023,07,11,21,00,AAXX 11214 41926 02450 51802 10280 20260 30031 40045 81530 333 58008 70000 81618 85362==
41926,2023,07,12,00,00,AAXX 12004 41926 02450 61802 10273 20260 30024 40038 82510 333 58005 70000 82618 86459==
41926,2023,07,12,03,00,AAXX 12034 41926 02456 61801 10323 20260 30033 40046 84430 333 20273 58004 70000 83618 83362==
41926,2023,07,12,06,00,AAXX 12064 41926 02456 51801 10345 20260 30028 40041 84430 333 58007 70000 83618 84362==
41926,2023,07,12,09,00,AAXX 12094 41926 01457 50000 10305 20270 30009 40022 72196 85430 333 58003 70060 82618 83825==
41926,2023,07,12,12,00,AAXX 12124 41926 21456 51801 10292 20260 30011 40024 70196 85430 333 10357 58014 60085 70078 82618 83825==
41926,2023,07,12,15,00,AAXX 12154 41926 02/50 30000 10277 20260 30033 40047 83030 333 58009 70078 83362==
41926,2023,07,12,18,00,AAXX 12184 41926 02/50 50000 10275 20260 30033 40047 85030 333 59002 70078 85362==
41926,2023,07,12,21,00,AAXX 12214 41926 02/50 50000 10270 20250 30029 40042 85030 333 59002 70078 85362==
41926,2023,07,13,00,00,AAXX 13004 41926 02/50 30000 10267 20260 30024 40038 83031 333 58000 70078 83362==
41926,2023,07,13,03,00,AAXX 13034 41926 02456 51801 10302 20270 30035 40049 85400 333 20267 58002 70078 83618 83820==
41926,2023,07,13,06,00,AAXX 13064 41926 02456 51801 10328 20260 30028 40041 84401 333 58000 70078 82618 83820==
41926,2023,07,13,09,00,AAXX 13094 41926 02456 60000 10335 20260 30006 40019 84410 333 59003 70018 83616 85459==
41926,2023,07,13,12,00,AAXX 13124 41926 02450 60000 10324 20270 30004 40017 84410 333 10350 59007 70000 83616 85459==
41926,2023,07,13,15,00,AAXX 13154 41926 02450 50000 10295 20270 30028 40042 83510 333 59005 70000 83616 84459==
41926,2023,07,13,18,00,AAXX 13184 41926 02450 30000 10290 20270 30022 40036 83500 333 59011 70000 83616==
41926,2023,07,13,21,00,AAXX 13214 41926 02450 30000 10282 20260 30016 40030 83500 333 59013 70000 83616==
41927,2023,07,07,00,00,AAXX 07004 41927 32956 01801 10273 20250 30009 40024 333 58013 70000=
41927,2023,07,07,06,00,AAXX 07064 41927 32457 61804 10312 20250 30025 40039 83510 333 56490 58016 70000 83617 85459=
41927,2023,07,07,12,00,AAXX 07124 41927 32957 01603 10314 20240 39997 40011 333 10320 58013 70000=
41927,2023,07,07,18,00,AAXX 07184 41927 32956 01602 10276 20260 30027 40041 333 58018 70000=
41927,2023,07,08,00,00,AAXX 08004 41927 32956 01602 10268 20260 30021 40036 333 58020 70000=
41927,2023,07,08,06,00,AAXX 08064 41927 11440 81603 10276 20270 30040 40054 60134 76122 8452/ 333 56499 58015 70130 84616 88458=
41927,2023,07,08,12,00,AAXX 08124 41927 11456 81602 10284 20270 30000 40014 60053 76162 8452/ 333 10334 56499 58003 70180 84616 88458=
41927,2023,07,08,18,00,AAXX 08183 41927 32956 01801 10278 20270 30029 40044 333 58003 70180=
41927,2023,07,09,00,00,AAXX 09004 41927 11450 80000 10274 20260 30025 40040 69985 70362 8452/ 333 56499 58004 70188 84616 88458=
41927,2023,07,09,06,00,AAXX 09064 41927 32458 21602 10332 20240 30031 40045 82500 333 56400 59009 70058 82618=
41927,2023,07,09,12,00,AAXX 09124 41927 32957 01602 10312 20240 39998 40012 333 10358 59002 70008=
41927,2023,07,09,18,00,AAXX 09184 41927 32956 01602 10288 20270 30020 40034 333 59008 70008=
41927,2023,07,10,00,00,AAXX 10004 41927 32956 00000 10280 20270 30013 40028 333 59012 70000=
41927,2023,07,10,06,00,AAXX 10064 41927 32458 51802 10340 20260 30019 40033 83510 333 56490 59012 70000 83617 84459=
41927,2023,07,10,12,00,AAXX 10123 41927 11457 51803 10306 20250 30004 40018 60206 70162 83510 333 10348 56490 58008 70202 83617 84459=
41927,2023,07,10,18,00,AAXX 10184 41927 32956 01801 10282 20260 30030 40044 333 58019 70202=
41927,2023,07,11,00,00,AAXX 11004 41927 32956 00000 10278 20270 30023 40038 333 58010 70202=
41927,2023,07,11,06,00,AAXX 11064 41927 32456 81801 10324 20250 30022 40036 8452/ 333 56499 58004 70202 84616 88458=
41929,2023,07,07,00,00,AAXX 07004 41929 11/56 51303 10275 20270 30031 40040 60056 70262 85030 333 58021 70397 85365==
41929,2023,07,07,03,00,AAXX 07034 41929 02456 60000 10302 20260 30052 40061 82540 333 20265 58021 70335 82618 84365==
41929,2023,07,07,06,00,AAXX 07064 41929 01457 60000 10320 20270 30041 40050 71722 84940 333 58019 70335 82618 83365 81932==
41929,2023,07,07,09,00,AAXX 07093 41929 01458 51802 10310 20280 30023 40032 70196 82430 333 58006 70151 81618 84365==
41929,2023,07,07,12,00,AAXX 07124 41929 11457 41805 10313 20260 30019 40028 60046 70196 82430 333 10332 58009 70151 81618 83365==
41929,2023,07,07,15,00,AAXX 07154 41929 02/56 31303 10285 20270 30047 40056 83030 333 58012 70081 83365==
41929,2023,07,07,18,00,AAXX 07184 41929 02/56 31303 10275 20270 30054 40063 83030 333 58009 70081 83365==
41929,2023,07,07,21,00,AAXX 07214 41929 02/56 31302 10273 20260 30050 40059 83030 333 58012 70036 83365==
41929,2023,07,08,00,00,AAXX 08004 41929 02/56 31303 10270 20260 30045 40054 83030 333 58014 70036 83365==
41929,2023,07,08,03,00,AAXX 08034 41929 02457 61305 10302 20270 30062 40071 83430 333 20265 58010 70036 82618 84365==
41929,2023,07,08,06,00,AAXX 08064 41929 02458 51804 10332 20270 30048 40057 83430 333 58007 70036 82618 83365==
41929,2023,07,08,09,00,AAXX 08094 41929 02458 51804 10330 20260 30033 40042 83430 333 58010 70000 82618 83365==
41929,2023,07,08,12,00,AAXX 08124 41929 02/57 50904 10305 20280 30021 40030 85030 333 10335 58002 70000 85365==
41929,2023,07,08,15,00,AAXX 08154 41929 02456 20904 10288 20270 30042 40051 82500 333 59005 70000 82618==
41929,2023,07,08,18,00,AAXX 08183 41929 02/56 41302 10280 20270 30049 40058 84030 333 59005 70000 84365==
41929,2023,07,08,21,00,AAXX 08214 41929 02456 50000 10278 20270 30041 40050 82530 333 59009 70000 82618 83365==
41929,2023,07,09,00,00,AAXX 09004 41929 02456 80000 10275 20270 30033 40042 8451/ 333 59012 70000 84618 88462==
41929,2023,07,09,03,00,AAXX 09034 41929 02456 70000 10306 20280 30048 40057 84510 333 20268 59014 70000 84618 87462==
41929,2023,07,09,06,00,AAXX 09064 41929 02457 30000 10342 20270 30042 40051 83440 333 59006 70000 82618==
41929,2023,07,09,09,00,AAXX 09094 41929 01457 60404 10305 20280 30024 40033 70396 84430 333 59009 70038 83618 84365==
41929,2023,07,09,12,00,AAXX 09124 41929 11456 50603 10318 20290 30017 40026 60046 70196 85410 333 10357 59004 70038 84618==
41929,2023,07,09,15,00,AAXX 09154 41929 02456 50000 10290 20280 30033 40042 85410 333 59009 70038 84618==
41929,2023,07,09,18,00,AAXX 09184 41929 02/56 20902 10287 20280 30037 40046 82030 333 59012 70038 82365==
41929,2023,07,10,00,00,AAXX 10004 41929 02456 41803 10281 20270 30032 40041 82530 333 59002 70038 82618==
41929,2023,07,10,03,00,AAXX 10034 41929 02456 31402 10322 20260 30043 40052 83440 333 20273 59005 70038 82618==
41929,2023,07,10,06,00,AAXX 10064 41929 02457 51802 10330 20270 30035 40044 82540 333 59007 70038 82618 84365==
41929,2023,07,10,09,00,AAXX 10094 41929 02456 51803 10322 20260 30021 40030 84440 333 59003 70038 83618==
41929,2023,07,10,12,00,AAXX 10123 41929 02/57 31802 10302 20260 30012 40021 83040 333 10343 59005 70000 84365==
41929,2023,07,10,15,00,AAXX 10154 41929 02/56 20000 10285 20280 30037 40046 82030 333 58004 70000 82365==
41929,2023,07,10,18,00,AAXX 10184 41929 02456 51802 10285 20280 30044 40053 84510 333 58007 70000 84618==
41929,2023,07,10,21,00,AAXX 10214 41929 02456 50000 10281 20270 30038 40047 84510 333 58004 70000 84618==
41929,2023,07,11,00,00,AAXX 11004 41929 02456 60000 10278 20270 30031 40040 83570 333 59001 70000 83618 83462==
41929,2023,07,11,03,00,AAXX 11034 41929 02456 71802 10310 20270 30042 40051 83510 333 20272 59001 70000 83618 87462==
41929,2023,07,11,06,00,AAXX 11064 41929 02457 61802 10330 20280 30037 40046 85440 333 58002 70000 82618 83825==
41929,2023,07,11,09,00,AAXX 11094 41929 02457 61803 10324 20270 30022 40031 84470 333 58001 70000 83618==
41929,2023,07,11,12,00,AAXX 11124 41929 11457 51802 10314 20260 30011 40020 69936 70162 83430 333 10335 59001 70003 82618==
41929,2023,07,11,15,00,AAXX 11154 41929 02/56 21803 10285 20280 30040 40049 82030 333 58003 70003 82365==
41929,2023,07,11,18,00,AAXX 11184 41929 02456 31803 10288 20270 30046 40055 83500 333 58002 70003 83618==
41929,2023,07,11,21,00,AAXX 11214 41929 02456 30000 10282 20260 30038 40047 83500 333 58000 70003 83618==
41929,2023,07,12,00,00,AAXX 12004 41929 02456 41802 10277 20270 30029 40038 83530 333 59002 70003 83618 83365==
41929,2023,07,12,03,00,AAXX 12034 41929 02456 41803 10310 20260 30046 40055 84400 333 20270 58004 70003 82618==
41929,2023,07,12,06,00,AAXX 12064 41929 02457 61803 10330 20260 30038 40047 84470 333 58001 70003 82618 83460==
41929,2023,07,12,09,00,AAXX 12094 41929 02457 62004 10340 20260 30019 40028 84470 333 59003 70000 82618 83462==
41929,2023,07,12,12,00,AAXX 12124 41929 01457 51803 10300 20260 30017 40027 72122 83430 333 10340 58008 70000 82618 83365==
41929,2023,07,12,15,00,AAXX 12154 41929 02457 40000 10285 20280 30044 40054 82530 333 58004 70003 82618 83365==
41929,2023,07,12,18,00,AAXX 12184 41929 42457 40000 10280 20270 30045 40055 82530 333 58001 82618 83365==
41929,2023,07,12,21,00,AAXX 12214 41929 42457 40000 10280 20270 30026 40036 82530 333 59012 82618 83365==
41929,2023,07,13,00,00,AAXX 13004 41929 42457 50000 10275 20270 30038 40048 83470 333 58009 82618 83362==
41929,2023,07,13,03,00,AAXX 13034 41929 42457 61802 10310 20270 30046 40055 83440 333 20270 58000 82618 85365==
41929,2023,07,13,06,00,AAXX 13064 41929 11456 82702 10295 20280 30041 40050 60022 76066 8451/ 333 58003 70022 84618 88462==
41929,2023,07,13,09,00,AAXX 13094 41929 01456 80902 10315 20290 30016 40026 76162 8551/ 333 59003 70032 85618 88462==
41929,2023,07,13,12,00,AAXX 13124 41929 21456 60000 10310 20280 30015 40025 70162 84510 333 10340 59002 60028 70042 84618 86462==
41929,2023,07,13,15,00,AAXX 13154 41929 02456 71802 10295 20280 30036 40046 84510 333 59008 70042 84618 86462==
41929,2023,07,13,18,00,AAXX 13184 41929 02456 41602 10280 20270 30036 40046 82570 333 59009 70042 82618 83462==
41929,2023,07,13,21,00,AAXX 13214 41929 02456 70000 10276 20260 30023 40033 84510 333 59003 70042 84618 86462==
41933,2023,07,07,00,00,AAXX 07004 41933 02456 61706 10265 20250 30043 40052 83570 333 58020 70012 83618 85362==
41933,2023,07,07,03,00,AAXX 07034 41933 02456 71810 10295 20250 30058 40067 84510 333 20264 58019 70010 84618 87459==
41933,2023,07,07,06,00,AAXX 07064 41933 01340 81810 10275 20260 30059 40058 76122 8572/ 333 58029 70030 82709 84616 88458==
41933,2023,07,07,09,00,AAXX 07094 41933 02456 71906 10305 20260 30035 40044 83520 333 58011 70044 83618 87458==
41933,2023,07,07,12,00,AAXX 07124 41933 02456 72205 10300 20260 30033 40042 83520 333 10315 58016 70044 83618 87458==
41933,2023,07,07,15,00,AAXX 07154 41933 02456 22003 10272 20250 30055 40064 82500 333 58011 70044 82618==
41933,2023,07,07,18,00,AAXX 07184 41933 02456 31905 10270 20250 30059 40068 83500 333 58008 70034 83618==
41933,2023,07,07,21,00,AAXX 07214 41933 02456 32002 10270 20250 30056 40065 83500 333 58013 70034 83618==
41933,2023,07,08,00,00,AAXX 08004 41933 02456 52003 10265 20250 30055 40064 82530 333 58012 70034 82618 85362==
41933,2023,07,08,03,00,AAXX 08034 41933 02456 52503 10290 20250 30067 40076 82530 333 20260 58009 70034 82618 85362==
41933,2023,07,08,06,00,AAXX 08064 41933 02456 52305 10322 20260 30054 40063 82530 333 59005 70000 82618 85362==
41933,2023,07,08,09,00,AAXX 08094 41933 02456 62503 10302 20260 30048 40057 84530 333 58013 70000 84618 86362==
41933,2023,07,08,12,00,AAXX 08124 41933 02456 52306 10302 20250 30045 40054 83530 333 10326 58012 70000 83618 85362==
41933,2023,07,08,15,00,AAXX 08154 41933 02950 01802 10286 20260 30055 40064 333 58000 70000==
41933,2023,07,08,18,00,AAXX 08184 41933 02940 01802 10280 20260 30059 40068 333 58000 70000==
41933,2023,07,08,21,00,AAXX 08214 41933 02440 61802 10275 20260 30058 40067 84520 333 58002 70000 84616 86458==
41933,2023,07,09,00,00,AAXX 09004 41933 21450 81802 10262 20260 30057 40066 76162 8452/ 333 58002 60037 70030 84616 88458==
41933,2023,07,09,03,00,AAXX 09034 41933 01450 81802 10280 20270 30067 40076 70262 8452/ 333 20256 58000 70102 84616 88458==
41933,2023,07,09,06,00,AAXX 09064 41933 11350 71803 10315 20270 30053 40062 60076 70162 8662/ 333 59001 70102 83707 83614 87457==
41933,2023,07,09,09,00,AAXX 09094 41933 01456 61801 10320 20270 30023 40032 70162 85402 333 59025 70252 82616 83824==
41933,2023,07,09,12,00,AAXX 09124 41933 11456 61802 10302 20270 30025 40034 60156 70296 82402 333 10330 59020 70252 82616 85074==
41933,2023,07,09,15,00,AAXX 09154 41933 02950 00000 10286 20270 30036 40045 333 59019 70252==
41933,2023,07,09,18,00,AAXX 09184 41933 02450 40000 10280 20270 30040 40049 81501 333 59019 70252 81616 84074==
41933,2023,07,10,00,00,AAXX 10004 41933 02450 51801 10280 20270 30034 40043 83501 333 59023 70222 83616 84074==
41933,2023,07,10,03,00,AAXX 10034 41933 02350 61803 10312 20270 30048 40057 84620 333 20276 59019 70150 82708 83614 86458==
41933,2023,07,10,06,00,AAXX 10064 41933 02456 61804 10313 20260 30041 40050 84420 333 59012 70150 82615 83828 86458==
41933,2023,07,10,09,00,AAXX 10093 41933 02456 61804 10300 20280 30030 40039 84410 333 58007 70000 82618 83828 86458==
41933,2023,07,10,12,00,AAXX 10123 41933 02456 61702 10280 20250 30019 40028 83570 333 10322 59006 70000 83618 85459==
41933,2023,07,10,15,00,AAXX 10154 41933 02456 61703 10276 20260 30042 40051 82530 333 58006 70000 82616 85362==
41933,2023,07,10,18,00,AAXX 10184 41933 02456 51303 10276 20270 30044 40053 82530 333 58004 70000 82616 85362==
41933,2023,07,10,21,00,AAXX 10214 41933 02456 61802 10272 20250 30038 40047 83501 333 58007 70000 83616 84074==
41933,2023,07,11,00,00,AAXX 11004 41933 02456 51802 10266 20250 30037 40046 81501 333 58003 70000 81616 85074==
41933,2023,07,11,03,00,AAXX 11034 41933 02450 61802 10285 20260 30055 40064 84520 333 20265 58007 70000 84616 86458==
41933,2023,07,11,06,00,AAXX 11064 41933 02456 61804 10300 20250 30049 40058 82501 333 58008 70000 82616 85074==
41933,2023,07,11,09,00,AAXX 11094 41933 02456 52306 10310 20260 30024 40033 85400 333 59006 70000 82618 83828==
41933,2023,07,11,12,00,AAXX 11124 41933 02456 62205 10300 20250 30016 40025 83520 333 10317 59003 70000 83618 86458==
41933,2023,07,11,15,00,AAXX 11154 41933 02956 31902 10284 20260 30042 40051 83530 333 58000 70000 81618 83362==
41933,2023,07,11,18,00,AAXX 11184 41933 02956 01802 10278 20260 30051 40060 333 58007 70000==
41933,2023,07,11,21,00,AAXX 11214 41933 02/50 21702 10274 20250 30042 40051 82030 333 58004 70000 82362==
41933,2023,07,12,00,00,AAXX 12004 41933 02450 51702 10270 20250 30042 40051 82540 333 58005 70000 82618 85362==
41933,2023,07,12,03,00,AAXX 12034 41933 02450 71803 10292 20250 30055 40064 83530 333 20269 58000 70000 83616 85362==
41933,2023,07,12,06,00,AAXX 12064 41933 02456 71802 10310 20260 30046 40055 85410 333 59003 70000 82616 83824 85458==
41933,2023,07,12,09,00,AAXX 12094 41933 02456 70805 10320 20260 30036 40045 85410 333 58012 70000 82616 83825 85458==
41933,2023,07,12,12,00,AAXX 12124 41933 02456 61804 10300 20260 30035 40044 85420 333 10322 58019 70000 82616 83825 86458==
41933,2023,07,12,15,00,AAXX 12154 41933 02456 22004 10285 20270 30044 40052 82500 333 58002 70000 82618==
41933,2023,07,12,18,00,AAXX 12184 41933 02456 31903 10280 20260 30051 40060 83500 333 58000 70000 83618==
41933,2023,07,12,21,00,AAXX 12214 41933 02456 60000 10275 20260 30046 40055 82520 333 58004 70000 82618 86458==
41933,2023,07,13,00,00,AAXX 13004 41933 21456 70000 10270 20250 30038 40047 70362 83520 333 59004 60015 70010 83618 87458==
41933,2023,07,13,03,00,AAXX 13034 41933 02350 61804 10295 20270 30050 40059 84620 333 20267 58005 70010 82709 83614 86458==
41933,2023,07,13,06,00,AAXX 13064 41933 01350 61904 10303 20270 30041 40050 72162 85620 333 59005 70050 81709 84614 86458==
41933,2023,07,13,09,00,AAXX 13094 41933 02450 61802 10305 20270 30022 40031 84803 333 59014 70056 83616 85074==
41933,2023,07,13,12,00,AAXX 13124 41933 02450 61802 10294 20260 30020 40029 83503 333 10318 59015 70056 83616 85074==
41933,2023,07,13,15,00,AAXX 13154 41933 02450 61802 10275 20270 30047 40056 84520 333 58003 70056 84616 86458==
41933,2023,07,13,18,00,AAXX 13184 41933 02450 60000 10275 20260 30044 40053 84520 333 59007 70056 84616 86458==
41933,2023,07,13,21,00,AAXX 13214 41933 02440 61802 10270 20260 30046 40055 84520 333 58000 70056 84616 86458==
41936,2023,07,07,00,00,AAXX 07004 41936 01430 52005 10294 20280 30010 40017 70522 83830 333 58012 70140 83710 83615 85362==
41936,2023,07,07,03,00,AAXX 07034 41936 01440 71306 10320 20270 30042 40049 70522 84630 333 20258 58027 70010 83615 84362==
41936,2023,07,07,06,00,AAXX 07064 41936 01340 61806 10320 20270 30036 40043 70562 83630 333 58025 70020 82710 83615==
41936,2023,07,07,09,00,AAXX 07094 41936 01340 51708 10338 20250 30014 40021 70562 83630 333 58006 70020 81710 83615==
41936,2023,07,07,12,00,AAXX 07124 41936 01340 51810 10300 20270 30018 40025 70522 83630 333 10342 58016 70020 81710 83615==
41936,2023,07,07,15,00,AAXX 07154 41936 01440 71204 10294 20270 30038 40045 70522 83630 333 58024 70030 81710 83615==
41936,2023,07,07,18,00,AAXX 07184 41936 02430 61403 10284 20260 30042 40049 83630 333 58005 70000 81710 83615==
41936,2023,07,07,21,00,AAXX 07214 41936 01430 61603 10282 20260 30035 40042 70522 83830 333 58008 70030 83615 85362==
41936,2023,07,08,00,00,AAXX 08004 41936 01430 61503 10278 20260 30036 40043 70522 82830 333 58009 70020 82615 84362==
41936,2023,07,08,03,00,AAXX 08034 41936 01440 51405 10320 20270 30050 40057 70522 83830 333 20262 58011 70020 82615 84362==
41936,2023,07,08,06,00,AAXX 08064 41936 01340 61408 10326 20290 30043 40050 70522 84630 333 58007 70020 82710 83615==
41936,2023,07,08,09,00,AAXX 08094 41936 01450 51609 10336 20260 30025 40032 70522 83830 333 58011 70020 82615 84362==
41936,2023,07,08,12,00,AAXX 08124 41936 01450 51908 10338 20270 30020 40027 70522 83830 333 58002 70000 82615 84362==
41936,2023,07,08,15,00,AAXX 08154 41936 01450 51803 10300 20270 30036 40043 70522 83830 333 59002 70020 82615 84362==
41936,2023,07,08,18,00,AAXX 08184 41936 01450 50000 10294 20270 30043 40050 70522 83830 333 59001 70020 82615 84362==
41936,2023,07,08,21,00,AAXX 08214 41936 01450 51804 10288 20270 30036 40043 70522 83830 333 58001 70020 82615 84362==
41936,2023,07,09,00,00,AAXX 09004 41936 01/30 20000 10278 20260 30036 40043 70511 82030 333 58000 70020 82362==
41936,2023,07,09,03,00,AAXX 09034 41936 01430 52604 10310 20280 30045 40052 70522 82830 333 20260 59008 70020 82615 85362==
41936,2023,07,09,06,00,AAXX 09064 41936 41340 62306 10338 20270 30037 40044 70522 84630 333 59006 82710 83615==
41936,2023,07,09,09,00,AAXX 09094 41936 01340 62105 10328 20290 30026 40033 70522 84630 333 58001 70000 82710 83615==
41936,2023,07,09,12,00,AAXX 09124 41936 01340 62504 10346 20280 30011 40018 70522 84630 333 59009 70000 82710 83615==
41936,2023,07,09,15,00,AAXX 09154 41936 01/40 31803 10304 20280 30027 40034 70521 83030 333 59009 70000 83362==
41936,2023,07,09,18,00,AAXX 09184 41936 01/40 21603 10294 20270 30026 40033 70511 82030 333 59017 70000 82362==
41936,2023,07,09,21,00,AAXX 09214 41936 01/30 21703 10286 20270 30023 40030 70511 82030 333 59013 70000 82362==
41936,2023,07,10,00,00,AAXX 10004 41936 01430 31903 10282 20260 30029 40036 70511 81530 333 59007 70000 81615 83362==
41936,2023,07,10,03,00,AAXX 10034 41936 41320 82309 10320 20290 30037 40044 76022 84730 333 20266 59001 83708 83615 85362==
41936,2023,07,10,06,00,AAXX 10064 41936 01435 71806 10304 20270 30032 40039 70562 83830 333 59005 70050 83815 85362==
41936,2023,07,10,09,00,AAXX 10094 41936 41335 71703 10320 20290 30017 40024 59009 70050 86362==
41936,2023,07,10,12,00,AAXX 10124 41936 01435 41904 10314 20280 30009 40016 70592 81531 333 10322 58001 70050 81615 83362==
41936,2023,07,10,15,00,AAXX 10154 41936 01340 61703 10292 20270 30031 40038 70522 84630 333 58004 70050 82710 83615==
41936,2023,07,10,18,00,AAXX 10184 41936 01340 31906 10286 20270 30030 40037 70522 81530 333 58004 70050 81615 83362==
41936,2023,07,10,21,00,AAXX 10214 41936 01430 61605 10284 20260 30026 40033 70522 84630 333 58003 70050 82710 83615==
41936,2023,07,11,00,00,AAXX 11004 41936 01430 81803 10280 20260 30035 40042 70522 84730 333 58006 70050 83708 83615 85362==
41936,2023,07,11,03,00,AAXX 11034 41936 01430 71906 10310 20280 30038 40045 70522 82830 333 20280 58001 70050 82615 85362==
41936,2023,07,11,06,00,AAXX 11064 41936 01440 52307 10342 20270 30031 40038 70522 333 59001 70000 83615 83362==
41936,2023,07,11,09,00,AAXX 11094 41936 01340 62112 10340 20260 30013 40020 70522 83630 333 59004 70000 81710 83615==
41936,2023,07,11,15,00,AAXX 11154 41936 01440 41803 10294 20260 30034 40041 70522 82830 333 58003 70000 82615 83362==
41936,2023,07,11,18,00,AAXX 11184 41936 01440 51906 10288 20260 30042 40049 70522 82830 333 58012 70000 82615 84362==
41936,2023,07,11,21,00,AAXX 11214 41936 01440 52306 10284 20260 30033 40040 70522 82830 333 58007 70000 82615 83362==
41936,2023,07,12,00,00,AAXX 12004 41936 01430 31806 10274 20250 30031 40038 70511 81530 333 59004 70000 81615 83362==
41936,2023,07,12,03,00,AAXX 12034 41936 01440 52006 10306 20280 30039 40046 70522 82830 333 20262 58001 70000 82615 83362==
41936,2023,07,12,06,00,AAXX 12064 41936 01350 42608 10334 20260 30033 40040 70562 82830 333 58002 70010 82615 83362==
41936,2023,07,12,09,00,AAXX 12094 41936 01350 62110 10306 20270 30021 40028 70566 84630 333 58008 70010 82710 83615==
41936,2023,07,12,12,00,AAXX 12124 41936 01350 41805 10314 20260 30012 40019 70562 82830 333 10338 58008 70000 83615 83362==
41936,2023,07,12,15,00,AAXX 12154 41936 01350 42104 10290 20260 30038 40045 70522 82830 333 58004 70010 82615 84362==
41936,2023,07,12,18,00,AAXX 12184 41936 01350 41803 10288 20260 30038 40045 70522 82830 333 59001 70010 82615 84362==
41936,2023,07,12,21,00,AAXX 12214 41936 01350 40000 10282 20260 30031 40038 70512 82830 333 58001 70010 82615 84362==
41936,2023,07,13,00,00,AAXX 13004 41936 01430 41703 10274 20260 30031 40038 56035 70511 82530 333 58000 70010 82615 84362==
41936,2023,07,13,03,00,AAXX 13034 41936 01440 41805 10304 20270 30047 40054 70522 82530 333 20266 58008 70010 82615 84362==
41936,2023,07,13,06,00,AAXX 13064 41936 01450 42205 10340 20250 30030 40037 70522 82530 333 59003 70000 82615 84362==
41936,2023,07,13,12,00,AAXX 13124 41936 01450 71803 10320 20270 30007 40014 70522 83630 333 59005 70000 81710 85362==
41936,2023,07,13,15,00,AAXX 13154 41936 01440 41804 10294 20260 30029 40036 70522 82830 333 59009 70000 82615 84362==
41936,2023,07,13,18,00,AAXX 13184 41936 01440 41803 10286 20260 30029 40036 70522 82830 333 59012 70000 82615 84362==
41936,2023,07,13,21,00,AAXX 13214 41936 01440 40000 10282 20260 30022 40029 70522 82830 333 70000 82615 84362==
41938,2023,07,07,00,00,AAXX 07004 41938 32450 40000 10270 20260 30005 40009 84500 333 56900 58000 70216 83618=
41938,2023,07,07,06,00,AAXX 07064 41938 11450 41802 10318 20270 30037 40041 60015 70262 84401 333 56409 58016 70085 83618=
41938,2023,07,07,12,00,AAXX 07124 41938 32456 61705 10302 20260 30025 40029 84471 333 10327 56499 58017 70020 82617 83825=
41938,2023,07,07,18,00,AAXX 07184 41938 32950 21701 10277 20260 30048 40052 82401 333 56409 58026 70012 81618=
41938,2023,07,08,00,00,AAXX 08004 41938 11356 51601 10272 20270 30047 40051 60226 70162 83671 333 56399 58010 70236 81709 83825=
41938,2023,07,08,06,00,AAXX 08064 41938 11456 61803 10320 20270 30050 40054 60035 70362 84471 333 56499 58013 70254 82618 83825=
41938,2023,07,08,12,00,AAXX 08124 41938 11457 61605 10305 20260 30030 40034 69906 70262 82422 333 10325 56499 58005 70254 81618 86080=
41938,2023,07,08,18,00,AAXX 08183 41938 32456 61801 10281 20260 30045 40049 85510 333 56490 59003 70254 85616 83460=
41938,2023,07,09,00,00,AAXX 09004 41938 31550 30000 10275 20270 30042 40046 70521 81130 333 56990 59005 70030 81825 83362=
41938,2023,07,09,06,00,AAXX 09064 41938 32458 52103 10336 20250 30043 40047 84401 333 56509 59007 79999 82618 83825=
41938,2023,07,09,12,00,AAXX 09124 41938 32957 52201 10325 20270 30022 40026 82011 333 10342 56099 59008 70000 82460 84480=
41938,2023,07,09,18,00,AAXX 09184 41938 32456 22001 10291 20270 30035 40039 82500 333 56400 59010 70000 82618=
41938,2023,07,10,00,00,AAXX 10004 41938 32456 52001 10285 20280 30033 40037 83410 333 56490 59009 70000 82617 83460=
41938,2023,07,10,06,00,AAXX 10064 41938 11456 52003 10330 20280 30036 40040 60018 70162 83410 333 56490 59007 70013 82617 83460=
41938,2023,07,10,12,00,AAXX 10124 41938 11456 52001 10298 20270 30021 40025 60108 70196 82871 333 10330 56599 59001 70113 81617 83362=
41938,2023,07,10,18,00,AAXX 10184 41938 32450 81801 10280 20260 30040 40044 8152/ 333 56399 58005 70113 81617 88459=
41938,2023,07,11,00,00,AAXX 11004 41938 32456 72201 10278 20270 30036 40040 81471 333 56599 58003 70113 81618 85460 85362=
41938,2023,07,11,06,00,AAXX 11064 41938 11456 81803 10313 20260 30038 40042 69934 70362 8341/ 333 56499 58002 70103 81618 83825 88459=
41939,2023,07,07,00,00,AAXX 07004 41939 02456 40000 10274 20260 30044 40052 82530 333 58030 70154 82617 83364==
41939,2023,07,07,03,00,AAXX 07034 41939 01457 80000 10280 20270 30059 40067 76162 8252/ 333 20165 58033 70304 82616 88459==
41939,2023,07,07,06,00,AAXX 07064 41939 21456 80000 10300 20280 30065 40073 76162 8352/ 333 58038 60207 70354 83616 88459==
41939,2023,07,07,09,00,AAXX 07094 41939 02458 60000 10310 20260 30024 40032 83510 333 59001 70200 83618 85459==
41939,2023,07,07,12,00,AAXX 07124 41939 02457 60000 10302 20270 30020 40028 83510 333 10330 59004 70200 83618 85459==
41939,2023,07,07,15,00,AAXX 07154 41939 02450 60000 10288 20260 30030 40038 83510 333 59010 70200 83618 85459==
41939,2023,07,07,18,00,AAXX 07184 41939 02450 60000 10278 20260 30038 40046 83510 333 59012 70200 83618 85459==
41939,2023,07,07,21,00,AAXX 07214 41939 02450 60000 10277 20260 30041 40049 83530 333 59015 70200 83618 83365==
41939,2023,07,08,00,00,AAXX 08004 41939 02456 60000 10276 20270 30044 40052 83530 333 58000 70200 83618 83365==
41939,2023,07,08,03,00,AAXX 08034 41939 02458 30000 10301 20270 30054 40062 83500 333 20269 59005 70050 83618==
41939,2023,07,08,06,00,AAXX 08064 41939 02457 40000 10322 20260 30035 40043 82530 333 59005 70000 82618 83360==
41939,2023,07,08,09,00,AAXX 08094 41939 02457 40000 10315 20270 30038 40046 83430 333 58014 70000 82618==
41939,2023,07,08,12,00,AAXX 08124 41939 02456 50000 10303 20260 30030 40038 83530 333 10335 58010 70000 83617 83365==
41939,2023,07,08,15,00,AAXX 08154 41939 02456 20000 10287 20270 30052 40060 81530 333 58022 70000 81618==
41939,2023,07,08,18,00,AAXX 08183 41939 02456 30000 10282 20260 30058 40066 88530 333 58020 70000 82618==
41939,2023,07,08,21,00,AAXX 08214 41939 02450 80000 10280 20260 30054 40062 8352/ 333 58013 70000 83617 88459==
41939,2023,07,09,00,00,AAXX 09004 41939 21450 80000 10277 20270 30044 40052 70262 8352/ 333 58000 60015 70006 83617 88459==
41939,2023,07,09,03,00,AAXX 09034 41939 02458 50000 10315 20270 30056 40064 83530 333 20273 58002 70006 83617 83364==
41939,2023,07,09,06,00,AAXX 09064 41939 NIL=
41939,2023,07,09,09,00,AAXX 09094 41939 02459 40000 10333 20260 30027 40035 83430 333 59011 70006 82618==
41939,2023,07,09,12,00,AAXX 09124 41939 02457 60000 10315 20270 30020 40028 83530 333 10352 59010 70006 83618 83365==
41939,2023,07,09,15,00,AAXX 09154 41939 02450 20000 10293 20260 30032 40040 82500 333 59020 70006 82618==
41939,2023,07,09,18,00,AAXX 09184 41939 02950 00000 10285 20260 30043 40051 333 59015 70006==
41939,2023,07,10,00,00,AAXX 10004 41939 02456 50000 10280 20270 30040 40048 83530 333 59004 70000 83617 83364==
41939,2023,07,10,03,00,AAXX 10034 41939 02458 50000 10330 20280 30057 40065 83530 333 10275 58001 70000 83617 83364==
41939,2023,07,10,06,00,AAXX 10064 41939 01457 40000 10320 20280 30039 40046 72122 82530 333 59007 70220 82618 83360==
41939,2023,07,10,09,00,AAXX 10094 41939 01456 70000 10300 20260 30024 40032 70362 83510 333 59003 70232 83616 87459==
41939,2023,07,10,12,00,AAXX 10124 41939 11456 50000 10304 20260 30021 40029 60016 70162 83530 333 10325 58001 70232 83618 83364==
41939,2023,07,10,15,00,AAXX 10154 41939 02450 70000 10287 20270 30046 40054 83510 333 58014 70232 83617 86459==
41939,2023,07,10,18,00,AAXX 10184 41939 02450 70000 10284 20260 30059 40067 83510 333 58016 70232 83617 86459==
41939,2023,07,10,21,00,AAXX 10214 41939 02450 60000 10282 20260 30042 40050 83510 333 59008 70232 83618 85459==
41939,2023,07,11,00,00,AAXX 11004 41939 02456 60000 10280 20270 30031 40039 83510 333 59009 70232 83618 85459==
41939,2023,07,11,03,00,AAXX 11034 41939 02458 80000 10300 20270 30045 40053 8352/ 333 20270 59012 70232 83618 88459==
41939,2023,07,11,06,00,AAXX 11064 41939 02458 80000 10320 20260 30045 40053 8352/ 333 58006 70012 83616 88459==
41939,2023,07,11,09,00,AAXX 11094 41939 02457 80000 10300 20250 30030 40037 8252/ 333 58006 70000 82617 88460==
41939,2023,07,11,12,00,AAXX 11124 41939 02457 60000 10304 20260 30022 40030 82510 333 10330 58001 70000 82618 85459==
41939,2023,07,11,15,00,AAXX 11154 41939 02456 20000 10285 20260 30050 40058 81530 333 58004 70000 81618==
41939,2023,07,11,18,00,AAXX 11184 41939 02450 40000 10282 20270 30065 40073 82530 333 58006 70000 82617 83364==
41939,2023,07,11,21,00,AAXX 11214 41939 02456 40000 10270 20260 30050 40058 82530 333 58004 70000 82617 83364==
41939,2023,07,12,00,00,AAXX 12004 41939 02456 40000 10265 20260 30046 40054 82530 333 58015 70000 82617 83364==
41939,2023,07,12,03,00,AAXX 12034 41939 02458 50000 10298 20270 30056 40064 83530 333 20258 58012 70000 83617 83365==
41939,2023,07,12,06,00,AAXX 12064 41939 01450 80000 10290 20280 30051 40058 72122 8352/ 333 58006 70180 83616 88459==
41939,2023,07,12,09,00,AAXX 12094 41939 01456 80000 10285 20270 30039 40046 70262 8262/ 333 58009 70208 82616 88459==
41939,2023,07,12,12,00,AAXX 12124 41939 11456 80000 10290 20260 30019 40027 60036 70262 8352/ 333 10322 59003 70208 83617 88459==
41939,2023,07,12,15,00,AAXX 12154 41939 02450 60000 10282 20260 30035 40043 83510 333 59015 70208 83618 85459==
41939,2023,07,12,18,00,AAXX 12184 41939 02450 50000 10273 20260 30050 40058 82510 333 59015 70208 82618 85459==
41939,2023,07,12,21,00,AAXX 12214 41939 02456 40000 10275 20270 30055 40063 82530 333 58005 70208 82617 83364==
41939,2023,07,13,00,00,AAXX 13004 41939 02456 50000 10272 20260 30048 40056 83530 333 58002 70208 83617 83364==
41939,2023,07,13,03,00,AAXX 13034 41939 02458 70000 10292 20270 30058 40066 82510 333 20260 58002 70208 82617 85459==
41939,2023,07,13,06,00,AAXX 13064 41939 02457 80000 10310 20270 30044 40052 8352/ 333 59007 70030 83616 88459==
41939,2023,07,13,09,00,AAXX 13094 41939 01458 40000 10320 20260 30028 40036 70162 82530 333 59011 70008 82618 83362==
41939,2023,07,13,12,00,AAXX 13124 41939 11456 70000 10308 20260 30024 40032 60016 70362 83510 333 10335 58005 70008 83617 87459==
41939,2023,07,13,15,00,AAXX 13154 41939 02456 40000 10285 20270 30048 40056 82530 333 58013 70008 82618 83364==
41939,2023,07,13,18,00,AAXX 13184 41939 02450 40000 10280 20260 30060 40068 82530 333 58010 70008 82618 83364==
41939,2023,07,13,21,00,AAXX 13214 41939 02456 40000 10272 20260 30054 40062 82530 333 59002 70008 82617 83364==
41941,2023,07,07,00,00,AAXX 07004 41941 01450 81403 10270 20270 30048 40054 70262 8632/ 333 58014 70300 85615 88458 81928==
41941,2023,07,07,03,00,AAXX 07034 41941 02456 61804 10290 20270 30064 40069 85420 333 20268 58020 70660 84616 86458==
41941,2023,07,07,06,00,AAXX 07064 41941 02450 81804 10295 20280 30056 40061 8632/ 333 58017 70610 85615 88457 81928==
41941,2023,07,07,09,00,AAXX 07093 41941 01450 81402 10300 20280 30035 40040 71262 8632/ 333 58005 70320 85614 88457 81928==
41941,2023,07,07,12,00,AAXX 07124 41941 21456 71808 10302 20260 30033 40038 70162 85420 333 10322 58011 60027 70320 84616 87458==
41941,2023,07,07,15,00,AAXX 07154 41941 02450 71804 10283 20260 30056 40061 85420 333 58013 70320 84616 87458==
41941,2023,07,07,18,00,AAXX 07184 41941 02440 70000 10280 20250 30064 40069 85420 333 58010 70320 84616 87458==
41941,2023,07,07,21,00,AAXX 07214 41941 02440 71804 10276 20260 30052 40057 85420 333 58005 70020 84616 87458==
41941,2023,07,08,00,00,AAXX 08004 41941 02450 81805 10272 20260 30057 40062 8772/ 333 58008 70020 82708 83613 88458 81925==
41941,2023,07,08,03,00,AAXX 08034 41941 02456 71804 10305 20270 30073 40078 85420 333 20270 58009 70020 84616 87458==
41941,2023,07,08,06,00,AAXX 08064 41941 01350 81804 10295 20280 30062 40067 76122 8772/ 333 58006 70010 82708 83613 88456 81924==
41941,2023,07,08,09,00,AAXX 08094 41941 02450 71804 10313 20270 30043 40048 85420 333 58008 70010 84616 87458==
41941,2023,07,08,12,00,AAXX 08124 41941 02456 71804 10305 20270 30037 40042 85420 333 10330 58004 70010 84616 87458==
41941,2023,07,08,15,00,AAXX 08154 41941 02440 71803 10290 20270 30053 40058 85420 333 59003 70010 84616 87458==
41941,2023,07,08,18,00,AAXX 08183 41941 NIL=
41941,2023,07,08,21,00,AAXX 08214 41941 02440 81803 10280 20270 30046 40051 8632/ 333 59006 70010 85616 88458 81930==
41941,2023,07,09,00,00,AAXX 09004 41941 02440 80000 10278 20270 30044 40049 8632/ 333 59013 70010 85616 88458 81930==
41941,2023,07,09,03,00,AAXX 09034 41941 02450 80000 10306 20250 30063 40068 8632/ 333 20276 59010 70010 85616 88458 81930==
41941,2023,07,09,06,00,AAXX 09064 41941 02456 71803 10320 20270 30050 40055 85420 333 59012 70000 84616 87458==
41941,2023,07,09,09,00,AAXX 09094 41941 02456 61805 10345 20270 30030 40036 85420 333 59013 70000 84616 86458==
41941,2023,07,09,12,00,AAXX 09124 41941 02456 61804 10315 20270 30028 40034 85420 333 10348 59009 70000 84616 86458==
41941,2023,07,09,15,00,AAXX 09154 41941 02450 61804 10295 20280 30042 40047 85420 333 59011 70000 84616 86458==
41941,2023,07,09,18,00,AAXX 09184 41941 02440 61803 10288 20280 30052 40057 85420 333 59007 70000 84616 86458==
41941,2023,07,10,00,00,AAXX 10004 41941 02450 60000 10285 20280 30043 40048 85420 333 58001 70000 84616 86458==
41941,2023,07,10,03,00,AAXX 10034 41941 02450 71804 10315 20280 30058 40063 85420 333 20278 59005 70000 84616 87458==
41941,2023,07,10,06,00,AAXX 10064 41941 02450 71804 10326 20280 30047 40052 85420 333 59003 70000 84616 87458==
41941,2023,07,10,09,00,AAXX 10093 41941 02450 81802 10305 20270 30041 40046 8632/ 333 59013 70000 85616 88458 81930==
41941,2023,07,10,12,00,AAXX 10124 41941 01450 81803 10294 20270 30022 40027 70262 8632/ 333 10335 59006 70010 85616 88458 81930==
41941,2023,07,10,15,00,AAXX 10154 41941 02440 61803 10287 20280 30046 40051 85420 333 58004 70010 84616 86458==
41941,2023,07,10,18,00,AAXX 10184 41941 02440 60000 10280 20270 30056 40061 85420 333 58004 70010 84616 86458==
41941,2023,07,10,21,00,AAXX 10214 41941 02440 60000 10278 20278 30043 40048 85420 333 58006 70010 84616 86458==
41941,2023,07,11,00,00,AAXX 11004 41941 02450 71804 10278 20278 30047 40052 85420 333 58004 70010 84616 87458==
41941,2023,07,11,03,00,AAXX 11034 41941 02450 81803 10300 20270 30056 40061 8632/ 333 20278 59002 70010 85616 88458 81930==
41941,2023,07,11,06,00,AAXX 11064 41941 02450 81805 10310 20280 30055 40060 8632/ 333 59008 70010 82516 88458 81930==
41941,2023,07,11,09,00,AAXX 11094 41941 02450 81803 10320 20270 30029 40034 8632/ 333 59012 70010 85616 88458 81930==
41941,2023,07,11,12,00,AAXX 11124 41941 02450 72603 10317 20250 30025 40030 85420 333 10330 58003 70000 84616 87458==
41941,2023,07,11,15,00,AAXX 11154 41941 02440 62603 10288 20270 30051 40056 85420 333 58005 70000 84616 86458==
41941,2023,07,11,18,00,AAXX 11184 41941 02440 61803 10285 20270 30056 40061 85420 333 58000 70000 84616 86458==
41941,2023,07,11,21,00,AAXX 11214 41941 02440 60000 10280 20270 30044 40049 85420 333 58001 70000 84616 86458==
41941,2023,07,12,00,00,AAXX 12004 41941 02450 61803 10277 20270 30043 40048 85420 333 59004 70000 84616 86458==
41941,2023,07,12,03,00,AAXX 12034 41941 02450 62004 10310 20270 30056 40061 85420 333 20276 58000 70000 84616 86458==
41941,2023,07,12,06,00,AAXX 12064 41941 02450 81804 10320 20270 30047 40052 8632/ 333 59008 70000 85615 88458 81928==
41941,2023,07,12,09,00,AAXX 12094 41941 02456 61805 10326 20270 30047 40052 85420 333 59003 70000 84616 86458==
41941,2023,07,12,12,00,AAXX 12124 41941 21456 72304 10280 20250 30032 40037 70362 85420 333 10336 58007 60015 70010 84616 87458==
41941,2023,07,12,15,00,AAXX 12154 41941 01440 81804 10280 20270 30057 40062 71362 8632/ 333 58006 70020 85615 88458 81928==
41941,2023,07,12,18,00,AAXX 12184 41941 11440 81804 10278 20270 30063 40068 60016 71362 8632/ 333 58007 70020 85615 88458 81928==
41941,2023,07,12,21,00,AAXX 12214 41941 01440 81804 10276 20270 30051 40056 71322 8632/ 333 58007 70020 85615 88458 81928==
41941,2023,07,13,00,00,AAXX 13004 41941 02450 80000 10275 20275 30053 40058 8632/ 333 58010 70020 85615 88458 81928==
41941,2023,07,13,03,00,AAXX 13034 41941 02450 81803 10295 20280 30059 40064 85420 333 20274 58003 70020 85616 89230 88458==
41941,2023,07,13,06,00,AAXX 13064 41941 02450 81804 10322 20270 30055 40060 8632/ 333 58008 70020 85616 88458 81928==
41941,2023,07,13,09,00,AAXX 13094 41941 02450 81804 10320 20270 30034 40039 8632/ 333 58002 70020 85616 88458 81930==
41941,2023,07,13,12,00,AAXX 13124 41941 02450 81804 10305 20270 30023 40028 8632/ 333 10330 59009 70010 85615 88458 81928==
41941,2023,07,13,15,00,AAXX 13154 41941 01440 81803 10295 20280 30040 40045 71322 8632/ 333 59017 70000 85616 88458 81930==
41941,2023,07,13,21,00,AAXX 13214 41941 01440 81804 10282 20270 30046 40051 71322 8632/ 333 59005 70000 85616 88458 81930==
41943,2023,07,07,00,00,AAXX 07004 41943 01330 80000 10260 20240 30052 40059 70262 8662/ 333 58020 70080 83710 84615 88458==
41943,2023,07,07,03,00,AAXX 07034 41943 02330 81802 10294 20240 30064 40071 8662/ 333 20254 58019 70030 83710 84614 88458==
41943,2023,07,07,06,00,AAXX 07064 41943 01330 81802 10275 20260 30065 40072 70262 8662/ 333 58025 70060 83710 84614 88458==
41943,2023,07,07,09,00,AAXX 07094 41943 02440 61803 10320 20250 30041 40048 84420 333 58008 70060 83616 85458==
41943,2023,07,07,12,00,AAXX 07124 41943 02935 81803 10290 20250 30038 40045 8662/ 333 10335 58011 70060 83710 84614 88458==
41943,2023,07,07,15,00,AAXX 07154 41943 02430 81803 10280 20250 30065 40072 8662/ 333 58012 70040 83710 84614 88458==
41943,2023,07,07,18,00,AAXX 07184 41943 02430 81802 10265 20250 30067 40074 8662/ 333 58007 70040 83710 84617 88458==
41943,2023,07,07,21,00,AAXX 07214 41943 02430 81801 10255 20250 30062 40069 8662/ 333 58010 70030 83710 84614 88458==
41943,2023,07,08,00,00,AAXX 08004 41943 02430 80000 10260 20240 30063 40070 8662/ 333 58016 70030 83710 84614 88458==
41943,2023,07,08,03,00,AAXX 08034 41943 02435 81803 10305 20260 30076 40083 84420 333 20252 58012 70030 83616 85458==
41943,2023,07,08,06,00,AAXX 08064 41943 02440 81803 10325 20240 30065 40072 84420 333 58000 70000 83616 85458==
41943,2023,07,08,09,00,AAXX 08094 41943 02440 81804 10320 20240 30046 40053 84520 333 58005 70000 84616 85458==
41943,2023,07,08,12,00,AAXX 08124 41943 02330 81803 10298 20260 30040 40047 8662/ 333 10330 58002 70000 83710 84614 88458==
41943,2023,07,08,15,00,AAXX 08154 41943 02330 81802 10280 20260 30058 40065 8662/ 333 59007 70000 83710 84615 88458==
41943,2023,07,08,18,00,AAXX 08184 41943 02330 81802 10274 20250 30068 40075 8662/ 333 58001 70000 83710 84615 88458==
41943,2023,07,08,21,00,AAXX 08214 41943 02330 80000 10270 20250 30056 40063 8662/ 333 59006 70000 83710 84615 88458==
41943,2023,07,09,00,00,AAXX 09004 41943 01330 80000 10264 20250 30044 40051 70262 8662/ 333 59019 70010 83710 84614 88458==
41943,2023,07,09,03,00,AAXX 09034 41943 02330 81802 10288 20260 30058 40065 8662/ 333 20262 58018 70010 83710 84615 88458==
41943,2023,07,09,06,00,AAXX 09064 41943 21330 81802 10284 20270 30054 40061 70262 8662/ 333 59011 60117 70120 83710 84615 88458==
41943,2023,07,09,09,00,AAXX 09094 41943 01330 81803 10300 20270 30033 40040 70262 8662/ 333 59013 70150 83710 84614 88458==
41943,2023,07,09,12,00,AAXX 09124 41943 01330 81802 10294 20250 30034 40041 70262 8662/ 333 10312 59006 70170 83710 84615 88458==
41943,2023,07,09,15,00,AAXX 09154 41943 02330 81802 10280 20260 30043 40050 8662/ 333 59015 70170 83710 84615 88458==
41943,2023,07,09,18,00,AAXX 09184 41943 02330 81802 10276 20260 30061 40068 8662/ 333 59007 70170 83710 84615 88458==
41943,2023,07,09,21,00,AAXX 09214 41943 02330 80000 10273 20260 30052 40059 8662/ 333 59004 70170 83710 84615 88458==
41943,2023,07,10,00,00,AAXX 10004 41943 02330 80000 10270 20260 30042 40049 8662/ 333 59002 70160 83710 84615 88458==
41943,2023,07,10,03,00,AAXX 10034 41943 02330 81302 10304 20260 30059 40066 8662/ 333 20268 58001 70160 83710 84615 88458==
41943,2023,07,10,06,00,AAXX 10064 41943 02330 81803 10294 20250 30053 40060 8662/ 333 59001 70050 83710 84614 88458==
41943,2023,07,10,09,00,AAXX 10094 41943 02330 71802 10310 20250 30040 40047 84520 333 58007 70020 84615 87458==
41943,2023,07,10,12,00,AAXX 10124 41943 21330 81802 10274 20240 30026 40033 70362 8662/ 333 10318 59008 60045 70040 83710 84615 88458==
41943,2023,07,10,15,00,AAXX 10154 41943 02330 81802 10274 20250 30047 40054 8662/ 333 58004 70040 83710 84615 88458==
41943,2023,07,10,18,00,AAXX 10184 41943 02330 81802 10273 20260 30050 40057 8662/ 333 59011 70040 83710 84615 88458==
41943,2023,07,10,21,00,AAXX 10214 41943 02330 80000 10264 20250 30046 40053 8662/ 333 59006 70040 83710 84615 88458==
41943,2023,07,11,00,00,AAXX 11004 41943 21330 80000 10255 20250 30044 40051 70262 8662/ 333 58002 60015 70050 83710 84615 88458==
41943,2023,07,11,03,00,AAXX 11034 41943 02330 81302 10278 20260 30058 40065 8662/ 333 20253 59001 70050 83710 84615 88458==
41943,2023,07,11,06,00,AAXX 11064 41943 02330 81802 10310 20260 30055 40062 8662/ 333 58002 70050 83710 84615 88458==
41943,2023,07,11,09,00,AAXX 11094 41943 02330 81802 10300 20250 30036 40043 8662/ 333 59004 70100 83710 84615 88458==
41943,2023,07,11,15,00,AAXX 11154 41943 02330 81802 10276 20260 30052 40059 8662/ 333 58005 70050 83710 84615 88458==
41943,2023,07,11,18,00,AAXX 11184 41943 02330 81802 10273 20250 30060 40067 8662/ 333 58010 70060 83710 84615 88458==
41943,2023,07,11,21,00,AAXX 11214 41943 02330 80000 10269 20260 30052 40059 8662/ 333 58006 70050 83710 84615 88458==
41943,2023,07,12,00,00,AAXX 12004 41943 02330 80000 10263 20250 30044 40051 8662/ 333 58000 70050 83710 84615 88458==
41943,2023,07,12,03,00,AAXX 12034 41943 02330 81802 10270 20250 30065 40072 8664/ 333 20262 58007 70090 83710 84615 88458==
41943,2023,07,12,06,00,AAXX 12064 41943 21330 81803 10310 20250 30055 40062 70262 8662/ 333 58000 60048 70090 83710 84615 88458==
41943,2023,07,12,09,00,AAXX 12094 41943 02430 81803 10313 20260 30032 40039 8662/ 333 59004 70090 83710 84615 88458==
41943,2023,07,12,12,00,AAXX 12124 41943 02430 82103 10295 20260 30030 40037 8662/ 333 10318 58006 70090 83710 84615 88458==
41943,2023,07,12,15,00,AAXX 12154 41943 02430 81802 10285 20270 30056 40063 8662/ 333 58004 70000 83710 84615 88458==
41943,2023,07,12,18,00,AAXX 12184 41943 01330 81802 10272 20260 30057 40064 70262 8662/ 333 59003 70020 83709 84615 88458==
41943,2023,07,12,21,00,AAXX 12214 41943 02430 80000 10268 20260 30049 40056 8662/ 333 59003 70020 83710 84615 88458==
41943,2023,07,13,00,00,AAXX 13004 41943 02430 81502 10263 20250 30047 40054 8662/ 333 58003 70060 83710 84615 88458==
41943,2023,07,13,06,00,AAXX 13064 41943 02440 61802 10326 20250 30047 40054 84420 333 59008 73616 85458==
41943,2023,07,13,12,00,AAXX 13124 41943 21440 81602 10275 20260 30031 40038 70362 8662/ 333 10335 58001 60055 70070 83710 84615 88458==
41943,2023,07,13,15,00,AAXX 13154 41943 02430 81802 10269 20260 30056 40063 8662/ 333 58000 70070 83710 84615 88458==
41943,2023,07,13,18,00,AAXX 13184 41943 02330 81802 10265 20250 30054 40061 8662/ 333 59003 70050 83710 84615 88458==
41943,2023,07,13,21,00,AAXX 13214 41943 02430 81802 10262 20250 30049 40056 8662/ 333 58000 70050 83710 84615 88458==
41944,2023,07,07,12,00,AAXX 07124 41944 NIL=
41944,2023,07,07,18,00,AAXX 07184 41944 NIL=
41944,2023,07,08,00,00,AAXX 08004 41944 NIL=
41944,2023,07,08,06,00,AAXX 08064 41944 NIL=
41944,2023,07,08,12,00,AAXX 08124 41944 NIL=
41944,2023,07,08,18,00,AAXX 08183 41944 NIL=
41944,2023,07,09,06,00,AAXX 09064 41944 NIL=
41944,2023,07,09,12,00,AAXX 09124 41944 NIL=
41944,2023,07,10,06,00,AAXX 10064 41944 NIL=
41944,2023,07,10,12,00,AAXX 10123 41944 NIL=
41946,2023,07,07,00,00,AAXX 07004 41946 11456 60000 10280 20270 30032 40037 60062 72162 84520 333 58016 70082 84618 85458==
41946,2023,07,07,03,00,AAXX 07034 41946 02556 60000 10300 20270 30046 40051 84420 333 20270 58021 70082 82620 83822 85458==
41946,2023,07,07,06,00,AAXX 07064 41946 02557 50000 10328 20270 30040 40044 85400 333 58024 70072 83620 83822==
41946,2023,07,07,09,00,AAXX 07093 41946 01456 71802 10336 20270 30026 40031 70362 84320 333 58012 70072 83618 87459 81929==
41946,2023,07,07,12,00,AAXX 07124 41946 01456 71802 10303 20260 30026 40031 70262 83501 333 10337 58015 70072 83618 84080==
41946,2023,07,07,15,00,AAXX 07154 41946 01456 60000 10283 20270 30045 40050 76162 83570 333 58012 70086 83618 84459==
41946,2023,07,07,18,00,AAXX 07184 41946 11956 10000 10284 20270 30053 40058 60011 70162 80001 333 58017 70086 81080==
41946,2023,07,07,21,00,AAXX 07214 41946 02456 30000 10284 20270 30043 40048 82501 333 58018 70086 82618==
41946,2023,07,08,00,00,AAXX 08004 41946 02456 61801 10283 20270 30048 40053 84320 333 58016 70026 83618 86460 81929==
41946,2023,07,08,03,00,AAXX 08034 41946 02456 70000 10305 20280 30059 40064 83420 333 20278 58013 70026 83618 87460 81929==
41946,2023,07,08,06,00,AAXX 08064 41946 21456 60000 10320 20260 30055 40060 70162 84320 333 58015 60005 70026 83618 84660 81929==
41946,2023,07,08,09,00,AAXX 08094 41946 02556 50000 10330 20250 30030 40034 84430 333 58004 70024 82620 83822==
41946,2023,07,08,12,00,AAXX 08124 41946 02/56 60000 10324 20250 30023 40027 83032 333 10332 59003 70014 83362 84080==
41946,2023,07,08,15,00,AAXX 08154 41946 42556 50000 10298 20280 30044 40048 82520 333 59001 82620 84460==
41946,2023,07,08,18,00,AAXX 08183 41946 42556 30000 10296 20280 30045 40050 83400 333 59008 82620==
41946,2023,07,08,21,00,AAXX 08214 41946 42556 30000 10290 20270 30038 40042 83500 333 59005 83620==
41946,2023,07,09,00,00,AAXX 09004 41946 42/56 50000 10284 20270 30040 40044 85050 333 59008 85360==
41946,2023,07,09,03,00,AAXX 09034 41946 42559 40000 10325 20260 30055 40060 84400 333 20280 59004 83620==
41946,2023,07,09,06,00,AAXX 09064 41946 02456 61803 10340 20260 30047 40052 85310 333 59008 70000 84618 83460 81929==
41946,2023,07,09,09,00,AAXX 09094 41946 02456 50000 10334 20250 30025 40030 82520 333 59005 70000 82618 84460==
41946,2023,07,09,12,00,AAXX 09124 41946 02456 50000 10336 20270 30023 40028 82570 333 10346 58000 70000 82618 84460==
41946,2023,07,09,15,00,AAXX 09154 41946 02556 40000 10311 20270 30036 40040 84400 333 59008 70000 82620 83822==
41946,2023,07,09,18,00,AAXX 09184 41946 02556 20000 10302 20270 30043 40048 82200 333 59002 70000 82825==
41946,2023,07,10,00,00,AAXX 10004 41946 21556 60000 10284 20270 30036 40041 70162 85440 333 59004 60165 70164 83620 83822==
41946,2023,07,10,03,00,AAXX 10034 41946 01356 80000 10290 20280 30051 40056 76122 8472/ 333 20273 59004 70184 81710 83617 88459==
41946,2023,07,10,06,00,AAXX 10064 41946 21456 70000 10315 20290 30040 40045 70162 84510 333 59007 60028 70184 84618 86460==
41946,2023,07,10,09,00,AAXX 10093 41946 02456 80000 10295 20270 30026 40031 8532/ 333 58001 70184 84618 88460 81929==
41946,2023,07,10,12,00,AAXX 10123 41946 21456 60000 10300 20270 30018 40023 70162 84510 333 10320 59005 69925 70186 84618 85460==
41946,2023,07,10,15,00,AAXX 10154 41946 02/56 60000 10292 20270 30040 40044 86070 333 58004 70186 84459 84360==
41946,2023,07,10,18,00,AAXX 10184 41946 02/56 70000 10290 20270 30045 40050 87020 333 58002 70186 87459==
41946,2023,07,10,21,00,AAXX 10214 41946 02/56 60000 10290 20280 30030 40035 86020 333 59003 70066 83618 83820==
41946,2023,07,11,00,00,AAXX 11004 41946 02456 60000 10288 20280 30033 40038 85430 333 59003 70022 83618 83820==
41946,2023,07,11,03,00,AAXX 11034 41946 02456 70000 10310 20270 30048 40053 84410 333 20270 59003 70012 83618 84460==
41946,2023,07,11,06,00,AAXX 11064 41946 02456 70000 10330 20270 30044 40049 84510 333 58004 70002 84618 85460==
41946,2023,07,11,09,00,AAXX 11094 41946 02556 70000 10311 20250 30024 40028 83520 333 59002 70002 83620 87460==
41946,2023,07,11,12,00,AAXX 11124 41946 02556 60000 10312 20270 30014 40018 82232 333 10333 59004 70000 82825 83362 85080==
41946,2023,07,11,15,00,AAXX 11154 41946 02456 51702 10300 20260 30040 40044 85400 333 58000 70000 83618 83820==
41946,2023,07,11,18,00,AAXX 11184 41946 02556 30000 10290 20260 30051 40055 83400 333 58006 70000 82620==
41946,2023,07,11,21,00,AAXX 11214 41946 02/56 30000 10282 20260 30028 40033 83030 333 59002 70000 83360==
41946,2023,07,12,00,00,AAXX 12004 41946 02/56 50000 10277 20270 30033 40038 82031 333 58000 70000 82362 84080==
41946,2023,07,12,03,00,AAXX 12034 41946 02456 60000 10305 20270 30051 40056 84430 333 20270 58003 70000 83618 84362==
41946,2023,07,12,06,00,AAXX 12064 41946 02456 60000 10325 20270 30043 40048 85310 333 59001 70000 84618 84460 81929==
41946,2023,07,12,09,00,AAXX 12094 41946 01456 80000 10287 20270 30029 40034 70396 8452/ 333 58005 70190 84618 88459==
41946,2023,07,12,12,00,AAXX 12124 41946 01456 70000 10276 20270 30025 40030 76196 83520 333 10334 58011 70244 83618 87459==
41946,2023,07,12,15,00,AAXX 12154 41946 02556 30000 10284 20260 30045 40050 82130 333 58005 70244 82825==
41946,2023,07,12,18,00,AAXX 12184 41946 02/56 30000 10282 20270 30044 40049 83020 333 59007 70244 83459==
41946,2023,07,12,21,00,AAXX 12214 41946 02/56 50000 10282 20270 30027 40032 85070 333 59001 70244 84459==
41946,2023,07,13,00,00,AAXX 13004 41946 02556 70000 10280 20270 30035 40040 84520 333 59002 70244 84620 86459==
41946,2023,07,13,03,00,AAXX 13034 41946 02456 50000 10310 20260 30047 40052 85400 333 20260 59004 70000 83618 83820==
41946,2023,07,13,06,00,AAXX 13064 41946 02456 70000 10335 20260 30039 40044 85310 333 59004 70244 84618 84460 81929==
41946,2023,07,13,09,00,AAXX 13094 41946 02456 70000 10332 20250 30022 40027 85310 333 59007 70054 84618 84460 81929==
41946,2023,07,13,12,00,AAXX 13124 41946 02556 70000 10310 20260 30021 40027 84520 333 10336 59004 70000 84620 86459==
41946,2023,07,13,15,00,AAXX 13154 41946 02456 40000 10296 20270 30043 40048 81530 333 59002 70000 81618 83362==
41946,2023,07,13,18,00,AAXX 13184 41946 02456 10000 10289 20270 30040 40045 81500 333 59004 70000 81618==
41946,2023,07,13,21,00,AAXX 13214 41946 02456 30000 10288 20280 30028 40033 82530 333 58001 70000 82618==
41947,2023,07,07,00,00,AAXX 07004 41947 01456 80000 10276 20270 30033 40035 70262 8352/ 333 58020 70002 83618 88458==
41947,2023,07,07,03,00,AAXX 07034 41947 02450 80000 10295 20270 30048 40051 8452/ 333 20265 58032 70056 84618 88458==
41947,2023,07,07,06,00,AAXX 07064 41947 21456 71803 10315 20270 30032 40035 70162 83570 333 58017 60015 70024 83618 86458==
41947,2023,07,07,09,00,AAXX 07094 41947 02456 81805 10308 20270 30029 40031 8352/ 333 58012 70014 83618 88458==
41947,2023,07,07,12,00,AAXX 07124 41947 02456 51804 10310 20270 30027 40029 83570 333 10330 58016 70008 83618 84458==
41947,2023,07,07,15,00,AAXX 07154 41947 02450 31805 10295 20270 30044 40046 83500 333 58009 70008 83618==
41947,2023,07,07,18,00,AAXX 07184 41947 02450 31802 10290 20270 30060 40062 83500 333 58018 70008 83618==
41947,2023,07,07,21,00,AAXX 07214 41947 02450 60000 10280 20260 30059 40061 83570 333 58027 70008 83618 85458==
41947,2023,07,08,00,00,AAXX 08004 41947 21450 80000 10275 20260 30054 40056 70362 8352/ 333 58021 60427 70426 83618 88458==
41947,2023,07,08,03,00,AAXX 08034 41947 02456 71303 10295 20280 30055 40058 83570 333 20264 58007 70426 83618 85459==
41947,2023,07,08,06,00,AAXX 08064 41947 02456 61806 10317 20260 30046 40049 83570 333 58014 70420 83618 84459==
41947,2023,07,08,09,00,AAXX 08094 41947 02456 51805 10328 20260 30030 40032 83570 333 58001 70420 83618 84458==
41947,2023,07,08,12,00,AAXX 08124 41947 02456 51805 10315 20270 30026 40028 83570 333 10330 59001 70420 83618 84458==
41947,2023,07,08,15,00,AAXX 08154 41947 02450 51803 10300 20270 30049 40051 83570 333 58005 70420 83618 84458==
41947,2023,07,08,18,00,AAXX 08183 41947 NIL=
41947,2023,07,08,21,00,AAXX 08214 41947 02450 30000 10290 20280 30045 40047 83500 333 59014 70420 83618==
41947,2023,07,09,00,00,AAXX 09004 41947 02456 30000 10280 20270 30041 40043 83500 333 59013 70000 83618==
41947,2023,07,09,03,00,AAXX 09034 41947 02456 60000 10312 20260 30047 40050 83570 333 20275 59008 70000 83618 84459==
41947,2023,07,09,06,00,AAXX 09064 41947 02456 61802 10340 20260 30040 40042 86400 333 59007 70000 83618 83820==
41947,2023,07,09,09,00,AAXX 09094 41947 02456 51802 10345 20270 30020 40022 83410 333 59010 70000 82618 85459==
41947,2023,07,09,12,00,AAXX 09124 41947 02456 31803 10332 20250 30010 40012 83500 333 10352 59016 70000 83618==
41947,2023,07,09,15,00,AAXX 09154 41947 02450 21802 10315 20270 30033 40036 82500 333 59008 70000 82618==
41947,2023,07,09,18,00,AAXX 09184 41947 02450 21802 10298 20270 30038 40041 82500 333 59008 70000 82618==
41947,2023,07,10,00,00,AAXX 10004 41947 02450 82702 10285 20280 30036 40039 8432/ 333 59004 70000 83618 88459 81930==
41947,2023,07,10,03,00,AAXX 10034 41947 02456 71802 10315 20270 30035 40037 83570 333 20282 59013 70000 83618 86458==
41947,2023,07,10,06,00,AAXX 10064 41947 02450 82302 10312 20260 30034 40037 8452/ 333 59005 70000 84618 88458==
41947,2023,07,10,09,00,AAXX 10093 41947 01456 81801 10280 20270 30026 40028 72196 8352/ 333 58006 70070 83618 88458==
41947,2023,07,10,12,00,AAXX 10124 41947 21456 51802 10303 20270 30014 40017 70196 82430 333 10330 58005 60078 70070 81618 84362==
41947,2023,07,10,15,00,AAXX 10154 41947 02456 81803 10298 20280 30038 40041 8352/ 333 58005 70070 83618 88458==
41947,2023,07,10,18,00,AAXX 10184 41947 02456 81802 10290 20270 30046 40048 8352/ 333 58007 70070 83618 88458==
41947,2023,07,10,21,00,AAXX 10214 41947 02456 41802 10290 20280 30035 40037 82530 333 59004 70070 82618 83362==
41947,2023,07,11,00,00,AAXX 11004 41947 02456 61802 10287 20280 30031 40033 82470 333 59006 70070 81618 84459==
41947,2023,07,11,03,00,AAXX 11034 41947 02456 70000 10295 20270 30037 40040 83570 333 20275 58003 70070 83618 86458==
41947,2023,07,11,06,00,AAXX 11064 41947 02350 81804 10305 20260 30038 40041 8462/ 333 58004 70070 81710 83618 88458==
41947,2023,07,11,09,00,AAXX 11094 41947 01456 61802 10300 20260 30020 40022 70162 82530 333 59006 70002 82618 84362==
41947,2023,07,11,12,00,AAXX 11124 41947 11456 61802 10310 20260 30003 40005 69926 70262 82530 333 10330 59012 70002 82618 83362==
41947,2023,07,11,15,00,AAXX 11154 41947 02450 41802 10300 20260 30032 40034 82530 333 59007 70002 82618 83362==
41947,2023,07,11,18,00,AAXX 11184 41947 42450 41802 10295 20270 30036 40038 82530 333 59010 82618 83362==
41947,2023,07,11,21,00,AAXX 11214 41947 02450 40000 10284 20270 30026 40028 82530 333 59009 70002 82618 83362==
41947,2023,07,12,00,00,AAXX 12004 41947 02450 40000 10274 20260 30022 40024 82530 333 59009 70002 82618 83362==
41947,2023,07,12,03,00,AAXX 12034 41947 02456 61803 10320 20260 30041 40044 83530 333 20270 58004 70002 83618 83362==
41947,2023,07,12,06,00,AAXX 12064 41947 02456 71803 10340 20260 30036 40039 83570 333 59002 70002 83618 84459==
41947,2023,07,12,09,00,AAXX 12094 41947 02456 71804 10328 20220 30028 40030 83570 333 58008 70002 83618 84459==
41947,2023,07,12,12,00,AAXX 12124 41947 01456 60000 10290 20270 30025 40027 70162 83570 333 58022 70040 83618 85458==
41947,2023,07,12,15,00,AAXX 12154 41947 02450 51802 10288 20260 30048 40050 83570 333 58016 70040 83618 84458==
41947,2023,07,12,18,00,AAXX 12184 41947 02950 01802 10285 20270 30046 40048 333 58010 70040==
41947,2023,07,12,21,00,AAXX 12214 41947 02450 30000 10280 20260 30043 40045 83500 333 58017 70040 83618==
41947,2023,07,13,00,00,AAXX 13004 41947 02450 50000 10280 20270 30041 40043 83570 333 58019 70040 83618 84458==
41947,2023,07,13,03,00,AAXX 13034 41947 02456 51302 10315 20270 30040 40043 85400 333 20268 59001 70040 82618 83820==
41947,2023,07,13,06,00,AAXX 13064 41947 02456 71302 10330 20260 30035 40038 83570 333 59001 70040 83618 85459==
41947,2023,07,13,09,00,AAXX 13094 41947 02356 61802 10328 20260 30019 40021 83370 333 59006 70040 83618 85459 81930==
41947,2023,07,13,12,00,AAXX 13124 41947 02456 61302 10315 20270 30015 40018 82570 333 10335 59009 70000 82618 85459==
41947,2023,07,13,15,00,AAXX 13154 41947 02450 20000 10290 20270 30039 40042 82500 333 59008 70010 82618==
41947,2023,07,13,18,00,AAXX 13184 41947 11450 30000 10290 20280 30033 40036 60016 70361 83500 333 59012 70010 83618==
41947,2023,07,13,21,00,AAXX 13214 41947 02450 60000 10287 20280 30030 40033 82570 333 59012 70010 82618 85459==
41950,2023,07,07,00,00,AAXX 07004 41950 21350 60000 10277 20277 30040 40042 70162 83631 333 58015 60025 70050 81708 83616==
41950,2023,07,07,03,00,AAXX 07034 41950 02350 60000 10300 20270 30057 40059 84610 333 20266 58021 70050 81708 84616 86459==
41950,2023,07,07,06,00,AAXX 07064 41950 02350 80000 10300 20260 30054 40056 8562/ 333 58018 70050 82708 84616 88458==
41950,2023,07,07,09,00,AAXX 07094 41950 01350 71504 10310 20270 30039 40041 70162 86331 333 58013 70032 82708 84616 81928==
41950,2023,07,07,12,00,AAXX 07124 41950 11350 71503 10295 20270 30036 40038 60016 70262 86370 333 10322 58014 70032 82708 85616 85459 81928==
41950,2023,07,07,15,00,AAXX 07154 41950 02450 30000 10282 20260 30062 40064 83530 333 58019 70032 83616==
41950,2023,07,07,18,00,AAXX 07184 41950 02450 30000 10277 20270 30064 40066 83500 333 58018 70032 83616==
41950,2023,07,07,21,00,AAXX 07214 41950 02450 30000 10277 20270 30061 40063 83500 333 58018 70012 83616==
41950,2023,07,08,00,00,AAXX 08004 41950 02450 30000 10276 20270 30058 40060 83530 333 58018 70012 83616==
41950,2023,07,08,03,00,AAXX 08034 41950 02356 61206 10310 20270 30070 40072 86630 333 20272 58013 70012 81708 84616==
41950,2023,07,08,06,00,AAXX 08064 41950 21450 61502 10324 20270 30056 40059 70262 85331 333 58002 60015 70022 84616 83825 81928==
41950,2023,07,08,07,00,AAXX 08074 41950 32450 30000 10284 20260 30050 40052 83500 333 56900 59012 70010 83617=
41950,2023,07,08,09,00,AAXX 08094 41950 02350 71503 10288 20270 30047 40049 85610 333 58008 70010 82708 84616 87459==
41950,2023,07,08,12,00,AAXX 08124 41950 02450 61803 10298 20260 30036 40038 83570 333 10330 58000 70010 83616 84458==
41950,2023,07,08,15,00,AAXX 08154 41950 02450 30000 10284 20260 30050 40052 83500 333 59012 70010 83617==
41950,2023,07,08,18,00,AAXX 08184 41950 02/50 20000 10280 20270 30054 40056 82030 333 59010 70010 82362==
41950,2023,07,08,21,00,AAXX 08214 41950 02450 30000 10276 20270 30044 40046 82530 333 59016 70010 82617==
41950,2023,07,09,00,00,AAXX 09004 41950 02450 40000 10273 20270 30049 40051 82530 333 59009 70010 82617 83362==
41950,2023,07,09,03,00,AAXX 09034 41950 02450 40000 10316 20270 30059 40061 83530 333 20272 59011 70010 83616==
41950,2023,07,09,06,00,AAXX 09064 41950 02450 41802 10333 20260 30054 40056 82530 333 59002 70000 82616==
41950,2023,07,09,09,00,AAXX 09094 41950 01450 62102 10310 20280 30032 40035 70362 84431 333 59015 70120 83617 83362==
41950,2023,07,09,12,00,AAXX 09124 41950 11450 51802 10318 20270 30028 40031 60126 70162 82531 333 10338 59008 70120 82617 83362==
41950,2023,07,09,15,00,AAXX 09154 41950 02450 10000 10293 20280 30046 40048 81500 333 59004 70120 81616==
41950,2023,07,09,18,00,AAXX 09184 41950 02450 10000 10284 20270 30047 40049 81500 333 59007 70120 81616==
41950,2023,07,09,21,00,AAXX 09214 41950 02450 50000 10282 20270 30041 40043 84530 333 59003 70120 84616 83362==
41950,2023,07,10,00,00,AAXX 10004 41950 02450 50000 10282 20280 30043 40045 83331 333 59006 70120 82617 83362 81928==
41950,2023,07,10,03,00,AAXX 10034 41950 01350 82104 10299 20270 30057 40059 70362 8632/ 333 20277 59002 70122 82708 84616 88458 81928==
41950,2023,07,10,06,00,AAXX 10064 41950 11350 81602 10305 20260 30046 40048 69926 70262 8562/ 333 59008 70122 82708 84616 88458==
41950,2023,07,10,09,00,AAXX 10094 41950 01350 80000 10302 20270 30036 40038 70262 8562/ 333 58004 70003 82708 84616 88458==
41950,2023,07,10,12,00,AAXX 10124 41950 11450 70000 10293 20270 30025 40027 69916 70162 84570 333 10313 59003 70003 83616 86459==
41950,2023,07,10,15,00,AAXX 10154 41950 02450 50000 10285 20280 30046 40048 83530 333 58000 70003 83161 83362==
41950,2023,07,10,18,00,AAXX 10184 41950 02450 50000 10280 20260 30054 40056 83530 333 58007 70003 83616 83362==
41950,2023,07,10,21,00,AAXX 10214 41950 02350 70000 10278 20278 30044 40046 85610 333 58003 70003 82708 84616 87459==
41950,2023,07,11,00,00,AAXX 11004 41950 02350 80000 10280 20270 30044 40046 8562/ 333 58001 70003 82708 84616 88458==
41950,2023,07,11,03,00,AAXX 11034 41950 02350 81605 10295 20270 30056 40058 8562/ 333 20275 59001 70001 82708 84616 88458==
41950,2023,07,11,06,00,AAXX 11064 41950 21350 81702 10316 20280 30048 40050 70262 8562/ 333 58002 60055 70051 82708 84616 88458==
41950,2023,07,11,09,00,AAXX 11094 41950 01450 60000 10300 20260 30036 40038 70162 83570 333 58000 70050 83617 86459==
41950,2023,07,11,15,00,AAXX 11154 41950 02450 21802 10288 20260 30048 40050 82500 333 58002 70050 82617==
41950,2023,07,11,18,00,AAXX 11184 41950 02450 30000 10280 20260 30057 40059 83500 333 58003 70050 83617==
41950,2023,07,11,21,00,AAXX 11214 41950 02450 20000 10270 20250 30049 40051 82500 333 58005 70050 82617==
41950,2023,07,12,00,00,AAXX 12004 41950 02450 30000 10267 20260 30042 40044 82501 333 59002 70050 82617==
41950,2023,07,12,03,00,AAXX 12034 41950 02450 51802 10317 20260 30057 40059 84431 333 20264 58001 70050 83617==
41950,2023,07,12,06,00,AAXX 12064 41950 02450 51802 10320 20270 30048 40050 84430 333 58000 70000 83617==
41950,2023,07,12,09,00,AAXX 12094 41950 01350 81803 10308 20270 30038 40040 70362 8562/ 333 59010 70024 82708 84616 88458==
41950,2023,07,12,12,00,AAXX 12124 41950 11350 70000 10302 20260 30034 40036 60026 70162 84610 333 10332 59015 70024 81708 83617 87459==
41950,2023,07,12,15,00,AAXX 12154 41950 02450 20000 10285 20280 30054 40056 82500 333 58006 70024 82617==
41950,2023,07,12,18,00,AAXX 12184 41950 02450 20000 10278 20270 30054 40056 82500 333 59003 70024 82617==
41950,2023,07,12,21,00,AAXX 12214 41950 02450 40000 10276 20276 30038 40040 83530 333 59011 70024 83617==
41950,2023,07,13,00,00,AAXX 13004 41950 02350 80000 10274 20260 30041 40043 8562/ 333 59001 70024 82708 84616 88458==
41950,2023,07,13,06,00,AAXX 13064 41950 02350 80000 10290 20260 30046 40048 8562/ 333 59002 70024 82708 84616 88458==
41950,2023,07,13,09,00,AAXX 13094 41950 02356 61802 10316 20270 30027 40030 85331 333 59011 70000 81708 84616 81928==
41950,2023,07,13,12,00,AAXX 13124 41950 02450 61802 10295 20270 30027 40029 84471 333 10330 59007 70000 83617 85459==
41950,2023,07,13,15,00,AAXX 13154 41950 02/50 30000 10282 20260 30050 40052 82030 333 59006 70000 83362==
41950,2023,07,13,18,00,AAXX 13184 41950 02450 30000 10276 20270 30049 40051 82530 333 59005 70000 82617==
41950,2023,07,13,21,00,AAXX 13214 41950 02450 30000 10274 20260 30037 40039 82530 333 59001 70000 82617==
41951,2023,07,07,00,00,AAXX 07004 41951 01340 80802 10278 20278 30036 40040 70262 8562/ 333 58015 70004 81708 84618 88458==
41951,2023,07,07,03,00,AAXX 07034 41951 02440 71302 10304 20260 30053 40057 83510 333 20272 58014 70141 83618 86458==
41951,2023,07,07,06,00,AAXX 07064 41951 02440 70902 10318 20290 30051 40056 83510 333 58017 70105 83618 86459==
41951,2023,07,07,09,00,AAXX 07094 41951 02456 61305 10308 20270 30037 40042 83510 333 58008 70127 83618 85459==
41951,2023,07,07,12,00,AAXX 07124 41951 11340 81308 10295 20260 30032 40036 60026 70362 8562/ 333 10320 58007 70122 81708 84618 88458==
41951,2023,07,07,15,00,AAXX 07154 41951 02450 51302 10287 20270 30061 40065 82510 333 58017 70098 82618 84459==
41951,2023,07,07,18,00,AAXX 07184 41951 02450 31302 10280 20270 30060 40064 83500 333 58009 70026 83618==
41951,2023,07,07,21,00,AAXX 07214 41951 02450 31302 10280 20270 30056 40060 83500 333 58010 70022 83628==
41951,2023,07,08,00,00,AAXX 08004 41951 02450 30000 10280 20260 30053 40058 83500 333 58000 70022 83628==
41951,2023,07,08,03,00,AAXX 08034 41951 02440 71303 10292 20270 30066 40071 83510 333 20270 58013 70022 83618 86459==
41951,2023,07,08,06,00,AAXX 08064 41951 21340 81302 10295 20290 30060 40065 70362 8562/ 333 58009 60055 70066 81708 84618 88458==
41951,2023,07,08,09,00,AAXX 08094 41951 01340 81502 10308 20280 30044 40049 70262 8562/ 333 58007 70103 81708 84618 88458==
41951,2023,07,08,12,00,AAXX 08124 41951 11340 80000 10302 20280 30039 40044 60066 70262 8562/ 333 10318 58007 70103 81708 84618 88458==
41951,2023,07,08,15,00,AAXX 08154 41951 01450 20000 10287 20280 30052 40056 70162 82500 333 59009 70105 82618==
41951,2023,07,08,18,00,AAXX 08183 41951 01340 81501 10286 20280 30050 40054 70362 8562/ 333 59010 70002 81708 84618 88458==
41951,2023,07,08,21,00,AAXX 08214 41951 01340 81302 10280 20280 30047 40051 70262 8562/ 333 59009 70125 81708 84618 88458==
41951,2023,07,09,00,00,AAXX 09004 41951 11450 50000 10276 20276 30043 40048 60026 70162 82510 333 59010 70125 82618 84459==
41951,2023,07,09,03,00,AAXX 09034 41951 02456 62202 10312 20280 30051 40056 83510 333 20270 59015 70125 83618 85459==
41951,2023,07,09,06,00,AAXX 09064 41951 21456 61503 10343 20260 30047 40052 70262 83510 333 59013 60035 70109 83618 85459==
41951,2023,07,09,09,00,AAXX 09094 41951 01456 61303 10325 20300 30034 40039 72162 83510 333 59011 70094 83618 85459==
41951,2023,07,09,12,00,AAXX 09124 41951 11456 61303 10308 20270 30027 40031 60046 70262 83510 333 10347 59012 70094 83618 85459==
41951,2023,07,09,15,00,AAXX 09154 41951 02450 31302 10290 20280 30047 40052 83500 333 59018 70123 83618==
41951,2023,07,10,00,00,AAXX 10004 41951 02450 50000 10284 20270 30041 40046 82510 333 59002 70072 82618 84459==
41951,2023,07,10,03,00,AAXX 10034 41951 02440 81803 10303 20280 30053 40057 8452/ 333 20274 58002 70072 84618 88458==
41951,2023,07,10,06,00,AAXX 10064 41951 01340 81302 10287 20280 30047 40052 70262 8562/ 333 58000 70170 81708 84618 88458==
41951,2023,07,10,09,00,AAXX 10094 41951 01340 81303 10290 20280 30033 40037 76062 8672/ 333 59001 70176 82706 84618 88458==
41951,2023,07,10,12,00,AAXX 10124 41951 11340 80000 10296 20280 30023 40028 69961 70262 8562/ 333 10320 59004 70176 81708 84618 88458==
41951,2023,07,10,15,00,AAXX 10154 41951 02340 80000 10282 20270 30050 40055 8562/ 333 58003 70176 81708 84618 88458==
41951,2023,07,10,18,00,AAXX 10184 41951 02340 81502 10282 20280 30050 40055 8562/ 333 58001 70176 81708 84618 88458==
41951,2023,07,10,21,00,AAXX 10214 41951 02340 81302 10280 20280 30044 40049 8562/ 333 58001 70176 81708 84618 88458==
41951,2023,07,11,00,00,AAXX 11004 41951 21340 81302 10278 20278 30036 40041 70262 8562/ 333 59005 69925 70178 81708 84618 88458==
41951,2023,07,11,03,00,AAXX 11034 41951 02340 81302 10302 20280 30052 40056 8562/ 333 20270 59001 70178 81708 84618 88458==
41951,2023,07,11,06,00,AAXX 11064 41951 02350 71303 10322 20260 30049 40054 84610 333 58002 70008 81708 83618 85459==
41951,2023,07,11,09,00,AAXX 11094 41951 02456 61302 10314 20260 30034 40039 83500 333 58001 70002 83618 85459==
41951,2023,07,11,12,00,AAXX 11124 41951 02456 61302 10295 20260 30020 40025 83510 333 10326 59003 70002 83618 85459==
41951,2023,07,11,15,00,AAXX 11154 41951 02450 60000 10286 20280 30043 40047 83510 333 59007 70002 83618 85459==
41951,2023,07,11,18,00,AAXX 11184 41951 02450 20000 10280 20270 30061 40065 82500 333 58011 70002 82618==
41951,2023,07,11,21,00,AAXX 11214 41951 02450 20000 10276 20270 30051 40055 82500 333 58007 70002 82618==
41951,2023,07,12,00,00,AAXX 12004 41951 02450 60000 10270 20270 30039 40044 83510 333 58003 70000 83618 85459==
41951,2023,07,12,03,00,AAXX 12034 41951 02456 51303 10325 20280 30055 40060 82510 333 20265 58003 70000 82618 84459==
41951,2023,07,12,06,00,AAXX 12064 41951 21456 60804 10318 20270 30052 40057 70362 83510 333 58003 69955 70005 83618 85459==
41951,2023,07,12,09,00,AAXX 12094 41951 01340 81502 10310 20280 30034 40039 72122 8562/ 333 58000 70010 81708 84618 88458==
41951,2023,07,12,12,00,AAXX 12124 41951 21456 61303 10295 20270 30030 40035 72122 83510 333 10329 58010 60017 70015 83618 85459==
41951,2023,07,12,15,00,AAXX 12154 41951 02456 20000 10287 20270 30055 40059 82500 333 58012 70015 82618==
41951,2023,07,12,18,00,AAXX 12184 41951 02450 31303 10282 20260 30053 40057 83500 333 59008 70015 83618==
41951,2023,07,12,21,00,AAXX 12214 41951 02450 31302 10270 20260 30047 40051 83500 333 59004 70015 83618==
41951,2023,07,13,00,00,AAXX 13004 41951 02440 80000 10275 20270 30037 40042 8452/ 333 59002 70015 84618 88458==
41951,2023,07,13,03,00,AAXX 13034 41951 02450 71302 10318 20270 30048 40053 83510 333 20269 59007 70015 83618 86459==
41951,2023,07,13,06,00,AAXX 13064 41951 01450 71305 10290 20280 30049 40053 72162 83510 333 59003 70060 83618 86459==
41951,2023,07,13,09,00,AAXX 13094 41951 02456 61503 10317 20270 30029 40034 83510 333 59005 70067 83618 85459==
41951,2023,07,13,12,00,AAXX 13124 41951 02450 61302 10300 20270 30025 40030 83510 333 10323 59005 70062 83618 85459==
41951,2023,07,13,15,00,AAXX 13154 41951 01440 81302 10282 20260 30045 40049 70362 8452/ 333 59010 70065 84618 88458==
41951,2023,07,13,18,00,AAXX 13184 41951 01340 81302 10272 20260 30044 40048 72162 8562/ 333 59009 70071 81708 84618 88458==
41951,2023,07,13,21,00,AAXX 13214 41951 02450 50000 10270 20260 30042 40046 82510 333 59005 70071 82618 84459==
41953,2023,07,07,00,00,AAXX 07004 41953 02440 81303 10270 20260 30050 40055 8352/ 333 58021 70000 83616 88458==
41953,2023,07,07,03,00,AAXX 07034 41953 02450 61307 10310 20260 30064 40069 83520 333 20270 58019 70000 83616 86458==
41953,2023,07,07,06,00,AAXX 07064 41953 21450 81303 10290 20270 30062 40067 70362 8352/ 333 58022 60085 70070 83616 88458==
41953,2023,07,07,09,00,AAXX 07094 41953 02450 61304 10320 20270 30039 40044 84410 333 58003 70080 83616 85458==
41953,2023,07,07,12,00,AAXX 07124 41953 02450 71305 10292 20260 30043 40048 84510 333 10322 58014 70080 84616 86458==
41953,2023,07,07,15,00,AAXX 07154 41953 02440 81305 10280 20260 30055 40060 8452/ 333 58006 70080 84616 88458==
41953,2023,07,07,18,00,AAXX 07184 41953 02430 81305 10276 20260 30071 40076 8452/ 333 58013 70080 84616 88458==
41953,2023,07,07,21,00,AAXX 07214 41953 02430 81304 10270 20260 30069 40074 8452/ 333 58016 70080 84616 88458==
41953,2023,07,08,00,00,AAXX 08004 41953 21440 81303 10266 20266 30066 40071 70262 8452/ 333 58016 60055 70130 84616 88458==
41953,2023,07,08,03,00,AAXX 08034 41953 02440 81306 10290 20270 30078 40083 8352/ 333 20265 58014 70130 83616 88458==
41953,2023,07,08,06,00,AAXX 08064 41953 21440 81306 10290 20270 30069 40074 70262 8352/ 333 58007 60055 70100 83616 88458==
41953,2023,07,08,09,00,AAXX 08094 41953 02450 61306 10326 20270 30047 40052 85410 333 58008 70100 83616 84458==
41953,2023,07,08,12,00,AAXX 08124 41953 02450 51305 10295 20260 30043 40048 81530 333 10338 58000 70100 81616 85362==
41953,2023,07,08,15,00,AAXX 08154 41953 02440 51305 10286 20260 30057 40062 82510 333 58000 70100 82616 84458==
41953,2023,07,08,18,00,AAXX 08183 41953 02430 61302 10280 20260 30073 40078 82510 333 58002 70100 82616 84458==
41953,2023,07,08,21,00,AAXX 08214 41953 02430 81301 10278 20270 30063 40068 8452/ 333 59006 70100 84616 88458==
41953,2023,07,09,00,00,AAXX 09004 41953 01440 50000 10276 20276 30053 40058 72122 82510 333 59013 70080 82616 84458==
41953,2023,07,09,03,00,AAXX 09034 41953 02440 81301 10296 20280 30061 40066 8352/ 333 20270 59017 70130 83616 88458==
41953,2023,07,09,06,00,AAXX 09064 41953 02450 70000 10334 20270 30052 40057 83510 333 59017 70080 83616 85458==
41953,2023,07,09,09,00,AAXX 09094 41953 02450 40000 10326 20270 30037 40042 84400 333 59010 70080 82618 83825==
41953,2023,07,09,12,00,AAXX 09124 41953 02440 50000 10304 20260 30035 40040 85400 333 10336 59008 70080 83616 83825==
41953,2023,07,09,15,00,AAXX 09154 41953 02430 71301 10290 20270 30045 40050 83510 333 59012 70080 83616 86458==
41953,2023,07,09,18,00,AAXX 09184 41953 02430 60000 10284 20270 30058 40063 83510 333 59017 70080 83616 84458==
41953,2023,07,10,00,00,AAXX 10004 41953 02440 60000 10284 20270 30046 40051 83510 333 59007 70000 83616 84458==
41953,2023,07,10,03,00,AAXX 10034 41953 02450 71302 10310 20280 30062 40067 83510 333 20281 58001 70000 83616 86458==
41953,2023,07,10,06,00,AAXX 10064 41953 02450 81303 10316 20270 30053 40058 8352/ 333 58001 70000 83616 88458==
41953,2023,07,10,09,00,AAXX 10093 41953 01440 81301 10268 20260 30043 40048 72122 8352/ 333 58006 70100 83616 88458==
41953,2023,07,10,12,00,AAXX 10123 41953 21450 60000 10298 20280 30028 40033 70162 8357/ 333 10325 59007 60015 70100 83616 84458==
41953,2023,07,10,15,00,AAXX 10154 41953 02440 60000 10288 20270 30041 40046 83510 333 59004 70100 83616 84458==
41953,2023,07,10,21,00,AAXX 10214 41953 02430 80000 10278 20270 30055 40060 8352/ 333 58002 70100 83616 88458==
41953,2023,07,11,00,00,AAXX 11004 41953 01440 81302 10266 20266 30053 40058 72122 8452/ 333 58005 70040 84616 88458==
41953,2023,07,11,03,00,AAXX 11034 41953 01440 81302 10286 20280 30063 40068 76122 8452/ 333 20260 58002 70220 84616 88458==
41953,2023,07,11,06,00,AAXX 11064 41953 21440 81302 10314 20260 30057 40062 70266 8352/ 333 58004 60155 70290 83616 88458==
41953,2023,07,11,09,00,AAXX 11094 41953 02440 81302 10312 20260 30037 40042 8352/ 333 59006 70190 83616 88458==
41953,2023,07,11,12,00,AAXX 11124 41953 02440 80000 10290 20270 30029 40034 8352/ 333 10318 58001 70190 83616 88458==
41953,2023,07,11,15,00,AAXX 11154 41953 02430 81302 10284 20260 30039 40044 8352/ 333 58002 70190 83616 88458==
41953,2023,07,11,18,00,AAXX 11184 41953 02430 81302 10278 20270 30061 40066 8352/ 333 59002 70190 83616 88458==
41953,2023,07,11,21,00,AAXX 11214 41953 02430 81302 10274 20260 30058 40063 8352/ 333 58003 70190 83616 88458==
41953,2023,07,12,00,00,AAXX 12004 41953 02440 81305 10270 20260 30051 40056 8352/ 333 59002 70150 83616 88458==
41953,2023,07,12,03,00,AAXX 12034 41953 01440 81302 10280 20270 30068 40073 72122 8352/ 333 20265 58005 70090 83616 88458==
41953,2023,07,12,06,00,AAXX 12064 41953 21450 61303 10310 20260 30060 40065 70162 82520 333 58003 60025 70020 82616 86458==
41953,2023,07,12,09,00,AAXX 12094 41953 02450 81303 10314 20260 30037 40042 8352/ 333 58000 70020 83616 88458==
41953,2023,07,12,12,00,AAXX 12124 41953 02450 81303 10295 20270 30034 40039 8352/ 333 10315 58005 70020 83616 88458==
41953,2023,07,12,15,00,AAXX 12154 41953 02440 81803 10285 20270 30054 40059 8352/ 333 58015 70020 83616 88458==
41953,2023,07,12,18,00,AAXX 12184 41953 02440 60000 10275 20260 30061 40066 83520 333 58000 70020 83616 86458==
41953,2023,07,12,21,00,AAXX 12214 41953 02440 60000 10270 20260 30053 40058 83520 333 59005 70020 83616 86458==
41953,2023,07,13,00,00,AAXX 13004 41953 01440 81303 10265 20260 30048 40053 72122 8352/ 333 59003 70020 83616 88458==
41953,2023,07,13,03,00,AAXX 13034 41953 02450 61303 10310 20270 30057 40062 83520 333 20265 59011 70020 83616 86458==
41953,2023,07,13,06,00,AAXX 13064 41953 01440 81305 10312 20260 30054 40059 76122 8352/ 333 59006 70020 83615 88458==
41953,2023,07,13,09,00,AAXX 13094 41953 01450 61303 10320 20260 30035 40040 70162 83520 333 59002 70050 83616 86458==
41953,2023,07,13,12,00,AAXX 13124 41953 11450 61303 10295 20280 30032 40037 60036 70262 83520 333 10320 59002 70050 83616 86458==
41953,2023,07,13,15,00,AAXX 13154 41953 02440 81304 10282 20260 30054 40059 8352/ 333 58000 70050 83616 88458==
41953,2023,07,13,18,00,AAXX 13184 41953 21440 80000 10265 20260 30052 40057 76162 8352/ 333 59009 60047 70090 83615 88458==
41953,2023,07,13,21,00,AAXX 13214 41953 01440 80000 10260 20250 30045 40050 76166 8352/ 333 59008 70110 83615 88458==
41955,2023,07,07,12,00,AAXX 07124 41955 NIL=
41955,2023,07,07,18,00,AAXX 07184 41955 NIL=
41955,2023,07,08,00,00,AAXX 08004 41955 NIL=
41955,2023,07,08,06,00,AAXX 08064 41955 NIL=
41955,2023,07,08,12,00,AAXX 08124 41955 NIL=
41955,2023,07,08,18,00,AAXX 08183 41955 NIL=
41955,2023,07,09,06,00,AAXX 09064 41955 NIL=
41955,2023,07,09,12,00,AAXX 09124 41955 NIL=
41955,2023,07,10,06,00,AAXX 10064 41955 NIL=
41955,2023,07,10,12,00,AAXX 10123 41955 NIL=
41958,2023,07,07,00,00,AAXX 07004 41958 11450 60000 10277 20277 30026 40028 60025 70162 83410 333 56990 58021 70234 83616 85458=
41958,2023,07,07,03,00,AAXX 07034 41958 21450 81301 10295 20280 30043 40045 70362 8542/ 333 20266 56399 58021 6992/ 70232 84616 88458=
41958,2023,07,07,06,00,AAXX 07064 41958 11450 80801 10328 20270 30036 40038 69926 70262 8542/ 333 56299 58021 70142 84616 88458=
41958,2023,07,07,09,00,AAXX 07093 41958 21430 80000 10282 20280 30030 40032 76322 8542/ 333 56999 58022 6030/ 70342 84616 88458=
41958,2023,07,07,12,00,AAXX 07124 41958 11450 61702 10296 20280 30022 40024 60306 70162 83410 333 10334 56490 58014 70322 83616 85158=
41958,2023,07,07,15,00,AAXX 07154 41958 32440 81701 10282 20270 30046 40048 8542/ 333 56499 58018 70322 84616 88458=
41958,2023,07,07,18,00,AAXX 07184 41958 32440 81701 10282 20270 30046 40048 8542/ 333 56499 58015 70322 84616 88458=
41958,2023,07,07,21,00,AAXX 07214 41958 21440 81701 10282 20280 30044 40046 70262 8542/ 333 56499 58014 6002/ 70342 84616 88458=
41958,2023,07,08,00,00,AAXX 08004 41958 11450 80000 10282 20280 30038 40040 60026 70262 8542/ 333 56499 58012 70342 84616 88458=
41958,2023,07,08,03,00,AAXX 08034 41958 21450 81703 10300 20270 30063 40065 70262 8542/ 333 20274 56499 58020 6992/ 70342 84616 88458=
41958,2023,07,08,06,00,AAXX 08064 41958 11456 61702 10338 20280 30046 40048 69925 83410 333 56490 58010 70342 83616 85458=
41958,2023,07,08,09,00,AAXX 08094 41958 32456 60000 10333 20280 30027 40029 83410 333 56990 59003 70022 83616 88458=
41958,2023,07,08,12,00,AAXX 08124 41958 32450 71503 10310 20270 30023 40025 82571 333 10340 56399 58001 70022 82617 85459=
41958,2023,07,08,15,00,AAXX 08154 41958 32440 21504 10290 20280 30044 40046 82500 333 56300 59002 70022 82617=
41958,2023,07,08,18,00,AAXX 08183 41958 NIL=
41958,2023,07,08,21,00,AAXX 08214 41958 32940 10000 10278 20270 30032 40034 81030 333 56090 59012 70002 81362=
41958,2023,07,09,00,00,AAXX 09004 41958 32950 20000 10276 20270 30038 40040 82030 333 56090 58000 70002 82362=
41958,2023,07,09,03,00,AAXX 09034 41958 32457 22501 10332 20270 30046 40048 82500 333 20270 56500 59017 70000 82617=
41958,2023,07,09,06,00,AAXX 09064 41958 32458 42701 10342 20260 30039 40041 84300 333 56500 59007 70000 83617 81930=
41958,2023,07,09,09,00,AAXX 09094 41958 32457 61802 10330 20270 30019 40021 85370 333 56590 59008 70000 83616 81930 85459=
41958,2023,07,09,12,00,AAXX 09124 41958 11450 60000 10296 20290 30021 40023 69944 76122 84370 333 10365 56590 59002 70004 83616 81930 85459=
41958,2023,07,09,18,00,AAXX 09184 41958 32940 01801 10286 20280 30039 40041 333 59009 70004=
41958,2023,07,10,00,00,AAXX 10004 41958 32450 61803 10282 20270 30033 40035 85370 333 56490 59005 70004 83616 81930 85459=
41958,2023,07,10,03,00,AAXX 10034 41958 21456 71702 10286 20280 30044 40046 70362 83510 333 20275 56490 59002 6994/ 70008 83616 87459=
41958,2023,07,10,06,00,AAXX 10064 41958 11457 51503 10338 20290 30039 40041 60013 70162 83530 333 56490 58000 70014 83616 85362=
41958,2023,07,10,09,00,AAXX 10094 41958 32457 71702 10328 20270 30021 40023 85370 333 56490 58002 70014 83616 81930 86459=
41958,2023,07,10,12,00,AAXX 10124 41958 32457 61702 10310 20260 30011 40013 82570 333 10340 56490 59010 70010 82617 85362=
41958,2023,07,10,15,00,AAXX 10154 41958 32440 11702 10288 20280 30037 40039 81500 333 56300 58002 70010 81617=
41958,2023,07,10,18,00,AAXX 10184 41958 32940 01701 10282 20270 30042 40044 333 58003 70010=
41958,2023,07,10,21,00,AAXX 10214 41958 32940 01701 10282 20270 30027 40029 333 59003 70010=
41958,2023,07,11,00,00,AAXX 11004 41958 32550 31701 10282 20280 30030 40032 81101 333 56909 59003 70010 81825 83080=
41958,2023,07,11,03,00,AAXX 11034 41958 32457 31701 10310 20280 30041 40043 82530 333 20280 56490 59003 70006 82617 83362=
41958,2023,07,11,06,00,AAXX 11064 41958 11456 60000 10286 20280 30038 40040 60114 76162 84370 333 56590 59001 70114 83616 81930 85459=
41960,2023,07,07,00,00,AAXX 07004 41960 21440 80000 10280 20280 30041 40043 76166 8542/ 333 58019 60149 70280 84616 88459==
41960,2023,07,07,03,00,AAXX 07034 41960 01450 81601 10284 20270 30062 40063 76122 8542/ 333 20266 58028 70290 84616 88459==
41960,2023,07,07,06,00,AAXX 07064 41960 21450 81601 10315 20290 30054 40056 76162 8542/ 333 58015 60027 70160 84616 88459==
41960,2023,07,07,09,00,AAXX 07093 41960 01456 81301 10300 20290 30041 40043 76166 8542/ 333 58012 70240 84616 88459==
41960,2023,07,07,12,00,AAXX 07124 41960 21456 71302 10290 20270 30034 40036 70162 85410 333 10316 58010 60088 70236 84616 87459==
41960,2023,07,07,15,00,AAXX 07154 41960 02440 81802 10282 20260 30061 40063 8542/ 333 58014 70236 84617 88459==
41960,2023,07,07,18,00,AAXX 07184 41960 02430 40000 10278 20278 30064 40066 84400 333 58015 70236 83618==
41960,2023,07,07,21,00,AAXX 07214 41960 02430 40000 10278 20278 30061 40063 84400 333 58015 70136 83618==
41960,2023,07,08,00,00,AAXX 08004 41960 02450 30000 10277 20277 30057 40059 83400 333 58016 70100 82618==
41960,2023,07,08,03,00,AAXX 08034 41960 01440 81802 10267 20267 30079 40081 76162 8542/ 333 20265 58017 70170 84616 88459==
41960,2023,07,08,06,00,AAXX 08064 41960 21458 61602 10305 20270 30059 40061 70162 84410 333 58005 60098 70170 83618 86459==
41960,2023,07,08,09,00,AAXX 08094 41960 02458 61602 10326 20280 30043 40045 85410 333 58002 70090 82618 83823 86459==
41960,2023,07,08,12,00,AAXX 08124 41960 02456 61802 10301 20270 30039 40041 84410 333 10327 58005 70090 83618 86459==
41960,2023,07,08,15,00,AAXX 08154 41960 02440 60000 10288 20280 30054 40056 84410 333 59007 70090 83617 86459==
41960,2023,07,08,18,00,AAXX 08183 41960 02430 30000 10281 20270 30059 40061 83500 333 59005 70090 83618==
41960,2023,07,08,21,00,AAXX 08214 41960 02430 30000 10278 20270 30054 40056 83500 333 59007 70090 83618==
41960,2023,07,09,00,00,AAXX 09004 41960 02440 30000 10274 20270 30049 40051 82401 333 59008 70090 81618 83080==
41960,2023,07,09,03,00,AAXX 09034 41960 02450 32302 10315 20280 30063 40065 83401 333 20265 59016 70010 82617==
41960,2023,07,09,06,00,AAXX 09064 41960 02456 71801 10325 20280 30055 40057 84410 333 59004 70000 83616 87459==
41960,2023,07,09,09,00,AAXX 09094 41960 02450 52403 10330 20280 30037 40039 85441 333 59006 70000 83617==
41960,2023,07,09,12,00,AAXX 09124 41960 02450 31801 10309 20270 30032 40034 83401 333 10344 59007 70000 82618==
41960,2023,07,09,15,00,AAXX 09154 41960 02940 01801 10295 20290 30047 40049 333 59007 70000==
41960,2023,07,09,18,00,AAXX 09184 41960 02930 00000 10290 20280 30049 40051 333 59010 70000==
41960,2023,07,10,00,00,AAXX 10004 41960 02440 40000 10282 20280 30043 40045 83411 333 59006 70000 82618 84459==
41960,2023,07,10,03,00,AAXX 10034 41960 02456 82705 10305 20290 30062 40064 8542/ 333 20280 59001 70000 84616 88459==
41960,2023,07,10,06,00,AAXX 10064 41960 01456 71801 10300 20280 30055 40057 76196 84410 333 58000 70010 83616 87459==
41960,2023,07,10,09,00,AAXX 10093 41960 01456 80000 10289 20270 30042 40044 76162 8542/ 333 58005 70010 84617 88459==
41960,2023,07,10,12,00,AAXX 10123 41960 01450 81801 10292 20250 30025 40027 70262 8542/ 333 10312 59007 70016 84617 88459==
41960,2023,07,10,15,00,AAXX 10154 41960 02430 70000 10279 20270 30049 40051 84410 333 58002 70016 83617 87459==
41960,2023,07,10,18,00,AAXX 10184 41960 02430 70000 10279 20270 30051 40053 84410 333 58002 70016 83617 87459==
41960,2023,07,10,21,00,AAXX 10214 41960 02430 70000 10279 20279 30047 40049 84410 333 58002 70016 83618 87459==
41960,2023,07,11,00,00,AAXX 11004 41960 02440 50000 10279 20279 30042 40044 84401 333 59001 70016 83618 85080==
41960,2023,07,11,03,00,AAXX 11034 41960 02456 60000 10293 20280 30059 40061 84410 333 20275 59003 70016 83618 86459==
41960,2023,07,11,06,00,AAXX 11064 41960 02456 60903 10320 20270 30054 40056 84410 333 59001 70010 83616 86459==
41960,2023,07,11,09,00,AAXX 11094 41960 01457 71802 10315 20280 30038 40040 70362 84410 333 59004 70012 83617 87459==
41960,2023,07,11,12,00,AAXX 11124 41960 11450 81803 10300 20270 30025 40027 69966 70362 8542/ 333 10327 58000 70006 84617 88459==
41960,2023,07,11,15,00,AAXX 11154 41960 02440 40000 10286 20270 30054 40056 84400 333 58005 70000 83618==
41960,2023,07,11,18,00,AAXX 11184 41960 21430 61801 10275 20275 30061 40063 70362 84410 333 58010 69947 70010 83616 86459==
41960,2023,07,11,21,00,AAXX 11214 41960 02430 70000 10272 20270 30052 40054 84410 333 58005 70010 83617 87459==
41960,2023,07,12,00,00,AAXX 12004 41960 21440 60000 10268 20268 30045 40046 70162 84411 333 58003 69945 70014 83618 86459==
41960,2023,07,12,03,00,AAXX 12034 41960 02456 61801 10310 20280 30061 40063 85410 333 20265 58002 70014 82617 83823 86459==
41960,2023,07,12,06,00,AAXX 12064 41960 21456 71802 10305 20260 30055 40057 70362 85410 333 58001 60035 70044 84616 87459==
41960,2023,07,12,09,00,AAXX 12094 41960 01456 71801 10313 20270 30036 40038 70262 84470 333 59002 70042 83618 85459==
41960,2023,07,12,12,00,AAXX 12124 41960 11450 50000 10300 20270 30033 40035 69946 70162 84401 333 10329 58008 70042 83618 83080==
41960,2023,07,12,15,00,AAXX 12154 41960 02440 30000 10285 20280 30056 40058 83500 333 58002 70042 83618==
41960,2023,07,12,18,00,AAXX 12184 41960 01420 80000 10275 20275 30059 40061 76122 8542/ 333 59002 70020 84616 88459==
41960,2023,07,12,21,00,AAXX 12214 41960 01430 80000 10273 20270 30050 40051 70262 8542/ 333 59002 70062 84617 88459==
41960,2023,07,13,00,00,AAXX 13004 41960 11430 80000 10272 20270 30043 40044 69946 70262 8662/ 333 59002 70058 81708 84617 88459==
41960,2023,07,13,03,00,AAXX 13034 41960 01440 61402 10308 20280 30054 40056 70162 85470 333 20268 59007 70059 83616 85460==
41960,2023,07,13,06,00,AAXX 13064 41960 21440 80000 10283 20280 30052 40053 79596 8692/ 333 59003 60069 70089 85616 88459 81930==
41960,2023,07,13,09,00,AAXX 13094 41960 01450 71801 10308 20270 30035 40037 71796 85970 333 59001 70089 83618 85459 81930==
41960,2023,07,13,12,00,AAXX 13124 41960 01450 80000 10290 20280 30033 40035 70396 8532/ 333 10310 58000 70091 83618 88459 81930==
41960,2023,07,13,15,00,AAXX 13154 41960 01430 80000 10282 20280 30042 40044 76166 8532/ 333 59014 70101 84616 88459 81930==
41960,2023,07,13,18,00,AAXX 13184 41960 21420 80000 10270 20270 30045 40046 76166 8642/ 333 59014 60029 70093 85616 88459==
41960,2023,07,13,21,00,AAXX 13214 41960 01320 80000 10264 20264 30043 40044 76166 8672/ 333 59007 70313 81708 84615 88458==
41963,2023,07,07,00,00,AAXX 07004 41963 02456 51603 10285 20260 30055 40058 83530 333 58027 70050 83618 84362==
41963,2023,07,07,03,00,AAXX 07034 41963 02456 52002 10284 20270 30067 40070 83530 333 20276 58023 70070 83617 84362==
41963,2023,07,07,06,00,AAXX 07064 41963 01456 61408 10300 20270 30063 40065 70362 84540 333 58016 70060 84617 84362==
41963,2023,07,07,09,00,AAXX 07094 41963 02456 31805 10306 20250 30048 40050 82530 333 58011 70060 82618 83362==
41963,2023,07,07,12,00,AAXX 07124 41963 11456 51802 10280 20270 30047 40050 60042 72162 83460 333 10310 58013 70100 82618 84362==
41963,2023,07,07,15,00,AAXX 07154 41963 02950 01802 10280 20260 30068 40071 333 58011 70100==
41963,2023,07,07,18,00,AAXX 07184 41963 NIL=
41963,2023,07,07,21,00,AAXX 07214 41963 01450 50000 10280 20260 30067 40070 70362 83540 333 58014 70130 83617 84362==
41963,2023,07,08,00,00,AAXX 08004 41963 01456 71803 10270 20270 30067 40070 72162 84570 333 58012 70240 84616 84458==
41963,2023,07,08,03,00,AAXX 08034 41963 01456 41603 10282 20270 30076 40079 72121 83430 333 20261 58009 70220 82617 83363==
41963,2023,07,08,06,00,AAXX 08064 41963 01456 41805 10300 20270 30068 40071 70262 83530 333 58005 70280 83617 83363==
41963,2023,07,08,09,00,AAXX 08094 41963 02456 41807 10303 20270 30052 40054 83530 333 58004 70280 83617 83363==
41963,2023,07,08,12,00,AAXX 08124 41963 02456 41802 10290 20260 30046 40049 82560 333 10307 59001 70240 82618 84362==
41963,2023,07,08,15,00,AAXX 08154 41963 02450 21603 10290 20270 30059 40062 82500 333 59009 70240 82618==
41963,2023,07,08,18,00,AAXX 08183 41963 02450 40000 10283 20260 30058 40061 82530 333 59012 70240 82618==
41963,2023,07,08,21,00,AAXX 08214 41963 02450 50000 10277 20270 30055 40058 83530 333 59012 70200 83617 83362==
41963,2023,07,09,00,00,AAXX 09004 41963 01356 61803 10273 20273 30051 40054 76122 84640 333 59016 70040 84712 84361==
41963,2023,07,09,03,00,AAXX 09034 41963 01456 51602 10298 20280 30068 40071 70162 83460 333 20264 59008 70150 81617 83362==
41963,2023,07,09,06,00,AAXX 09064 41963 01456 40000 10320 20280 30058 40060 72162 84400 333 59010 70080 82617 83825==
41963,2023,07,09,09,00,AAXX 09094 41963 01456 50000 10290 20290 30044 40047 72162 83530 333 59008 70260 83617 83362==
41963,2023,07,09,12,00,AAXX 09124 41963 11/56 20000 10297 20270 30040 40042 60181 70162 82030 333 10328 59006 70260 82363==
41963,2023,07,09,15,00,AAXX 09154 41963 02950 00000 10285 20270 30049 40052 333 59010 70260==
41963,2023,07,10,00,00,AAXX 10004 41963 02456 60000 10280 20280 30045 40048 84430 333 59006 70220 83617 83362==
41963,2023,07,10,03,00,AAXX 10034 41963 02356 80000 10290 20280 30060 40063 8472/ 333 20272 59008 70190 82710 83616 88458==
41963,2023,07,10,06,00,AAXX 10064 41963 11456 80000 10295 20280 30056 40058 60012 76062 8452/ 333 59002 70190 84617 88458==
41963,2023,07,10,09,00,AAXX 10094 41963 01350 82401 10255 20255 30047 40050 76262 8572/ 333 58003 70410 82710 83615 88457==
41963,2023,07,10,12,00,AAXX 10123 41963 21456 80000 10277 20270 30033 40036 70262 8352/ 333 10302 59007 60508 70510 83617 88458==
41963,2023,07,10,15,00,AAXX 10154 41963 02350 82102 10287 20280 30048 40051 8572/ 333 59001 70510 82712 83615 88458==
41963,2023,07,10,21,00,AAXX 10214 41963 01350 80000 10274 20270 30051 40054 76122 8572/ 333 58003 70720 82710 83615 88458==
41963,2023,07,11,00,00,AAXX 11004 41963 21456 70000 10270 20270 30048 40051 70162 82570 333 58003 60265 70770 82617 85458==
41963,2023,07,11,03,00,AAXX 11034 41963 01356 80000 10270 20260 30065 40068 75162 8461/ 333 20255 58005 70770 82708 83615 88458==
41963,2023,07,11,06,00,AAXX 11064 41963 01456 50000 10280 20260 30060 40063 72162 82530 333 58004 70790 82618 84363==
41963,2023,07,11,09,00,AAXX 11094 41963 02456 31403 10305 20260 30041 40044 83400 333 59006 70380 83618==
41963,2023,07,11,12,00,AAXX 11124 41963 02456 61602 10292 20270 30035 40038 83540 333 10315 58002 70290 83617 84362==
41963,2023,07,11,15,00,AAXX 11154 41963 02450 41803 10290 20260 30055 40058 82530 333 58007 70290 82618 83362==
41963,2023,07,11,18,00,AAXX 11184 41963 02350 81602 10284 20260 30065 40068 8472/ 333 58013 70290 82712 83616 88458==
41963,2023,07,11,21,00,AAXX 11214 41963 02350 81403 10277 20270 30057 40060 8472/ 333 58006 70080 82712 83616 88458==
41963,2023,07,12,00,00,AAXX 12004 41963 01456 70000 10270 20260 30048 40051 72122 84470 333 58000 70040 83617 84458==
41963,2023,07,12,03,00,AAXX 12034 41963 01456 60000 10270 20260 30067 40070 75062 83530 333 20260 58002 70110 83616 84362==
41963,2023,07,12,06,00,AAXX 12064 41963 01456 51804 10300 20280 30058 40061 72162 83430 333 59002 70210 82617 84363==
41963,2023,07,12,09,00,AAXX 12094 41963 02456 41607 10310 20270 30039 40042 83430 333 59002 70210 82617 83363==
41963,2023,07,12,12,00,AAXX 12124 41963 02456 61804 10295 20260 30037 40040 83470 333 10317 58002 70210 81618 84458==
41963,2023,07,12,21,00,AAXX 12214 41963 02450 41602 10278 20270 30052 40055 83530 333 59005 70390 83618 83363==
41963,2023,07,13,00,00,AAXX 13004 41963 01456 51802 10280 20260 30046 40049 72122 83530 333 59002 70010 83617 83363==
41963,2023,07,13,03,00,AAXX 13034 41963 01456 41804 10300 20270 30057 40060 70162 83530 333 20265 59010 70330 82618 83363==
41963,2023,07,13,06,00,AAXX 13064 41963 01456 51602 10290 20280 30056 40059 70362 83430 333 59002 70250 82617 84362==
41963,2023,07,13,09,00,AAXX 13094 41963 02456 52101 10300 20270 30036 40039 83340 333 59003 70250 82617 84362 81928==
41963,2023,07,13,12,00,AAXX 13124 41963 02456 61802 10284 20260 30036 40039 83570 333 10310 59001 70250 83617 84458==
41963,2023,07,13,15,00,AAXX 13154 41963 02450 51802 10280 20260 30058 40061 83540 333 58000 70070 82618 84362==
41963,2023,07,13,18,00,AAXX 13184 41963 02450 60000 10277 20260 30061 40064 83570 333 58006 70070 83617 84458==
41963,2023,07,13,21,00,AAXX 13214 41963 01350 80000 10276 20260 30052 40055 72122 8572/ 333 58000 70160 82710 83615 88458==
41964,2023,07,07,00,00,AAXX 07004 41964 11558 61404 10278 20260 30045 40048 60066 70162 82132 333 58017 70100 82825 85080==
41964,2023,07,07,03,00,AAXX 07034 41964 02358 71507 10289 20270 30061 40064 86610 333 20262 58019 70096 82709 85617 86460==
41964,2023,07,07,06,00,AAXX 07064 41964 02458 71607 10312 20280 30060 40063 85570 333 58021 70096 85618 85460==
41964,2023,07,07,09,00,AAXX 07093 41964 02558 61804 10307 20280 30041 40043 82170 333 58009 70090 82825 83460 85362==
41964,2023,07,07,12,00,AAXX 07124 41964 02558 71610 10290 20270 30042 40044 85470 333 10325 58014 70090 84620 83460 85362==
41964,2023,07,07,15,00,AAXX 07154 41964 01350 81802 10263 20263 30061 40064 76162 8672/ 333 58010 70124 84708 85616 88458==
41964,2023,07,07,18,00,AAXX 07184 41964 21457 71503 10274 20260 30063 40066 70162 85510 333 58010 60048 70098 85618 85460==
41964,2023,07,07,21,00,AAXX 07214 41964 02357 81505 10270 20260 30061 40064 8662/ 333 58014 70038 82709 85617 88460==
41964,2023,07,08,00,00,AAXX 08004 41964 01358 81504 10271 20260 30060 40063 70262 8662/ 333 58015 70010 82709 85617 88460==
41964,2023,07,08,03,00,AAXX 08034 41964 02558 61407 10296 20270 30070 40073 82432 333 20254 58009 70048 81620 84080==
41964,2023,07,08,06,00,AAXX 08064 41964 02358 71408 10309 20260 30067 40070 86610 333 58007 70048 82709 85617 86460==
41964,2023,07,08,09,00,AAXX 08094 41964 02558 41608 10318 20290 30048 40050 82401 333 58007 70048 81620 83080==
41964,2023,07,08,12,00,AAXX 08124 41964 02558 61807 10293 20270 30044 40046 83432 333 10321 58002 70048 82620 85080==
41964,2023,07,08,15,00,AAXX 08154 41964 02458 61803 10290 20270 30056 40058 83531 333 59005 70014 83618 83362==
41964,2023,07,08,18,00,AAXX 08183 41964 02458 71702 10285 20270 30054 40056 85510 333 59009 70010 85618 85460==
41964,2023,07,08,21,00,AAXX 08214 41964 02457 71802 10284 20260 30047 40049 85510 333 59014 70010 85618 87460==
41964,2023,07,09,00,00,AAXX 09004 41964 02458 72102 10283 20260 30041 40044 84570 333 59018 70000 84618 86460==
41964,2023,07,09,03,00,AAXX 09034 41964 02558 71802 10308 20280 30058 40061 86430 333 20275 59012 70000 84620 83825 85362==
41964,2023,07,09,06,00,AAXX 09064 41964 02558 72104 10324 20280 30052 40054 85430 333 59015 70000 83620 83825 85362==
41964,2023,07,09,09,00,AAXX 09094 41964 01458 71905 10319 20300 30037 40039 71722 86331 333 59011 70000 83618 83825 85362 81930==
41964,2023,07,09,12,00,AAXX 09124 41964 01458 72104 10307 20290 30034 40036 70292 83570 333 10330 59010 70000 83618 83460 85362==
41964,2023,07,09,15,00,AAXX 09154 41964 02458 32102 10292 20270 30040 40042 82530 333 59016 70000 82618==
41964,2023,07,09,18,00,AAXX 09184 41964 02458 30000 10284 20270 30049 40051 81530 333 59005 70000 81618 83362==
41964,2023,07,10,00,00,AAXX 10004 41964 01357 80000 10282 20270 30039 40041 71722 8632/ 333 59003 70000 83709 85616 88460 81928==
41964,2023,07,10,03,00,AAXX 10034 41964 01356 81401 10276 20274 30057 40059 76196 8672/ 333 20270 59001 70035 84708 84616 88458==
41964,2023,07,10,06,00,AAXX 10064 41964 21356 81402 10291 20270 30050 40052 70262 8562/ 333 59002 60069 70055 83709 83617 88459==
41964,2023,07,10,09,00,AAXX 10094 41964 02457 71402 10305 20270 30034 40036 84510 333 59003 70055 84617 86460==
41964,2023,07,10,12,00,AAXX 10124 41964 02356 81702 10290 20270 30026 40029 8562/ 333 10308 59008 70055 83709 83618 88459==
41964,2023,07,10,18,00,AAXX 10184 41964 02450 50000 10286 20280 30050 40053 83510 333 58001 70055 83618 84460==
41964,2023,07,10,21,00,AAXX 10214 41964 01340 81801 10276 20270 30047 40050 76322 8672/ 333 58003 70125 83616 88458==
41964,2023,07,11,00,00,AAXX 11004 41964 21356 81601 10270 20268 30044 40047 70262 8562/ 333 58005 60377 70425 83709 83617 88459==
41964,2023,07,11,03,00,AAXX 11034 41964 02456 71703 10299 20270 30056 40059 84520 333 20255 59001 70390 84618 87460==
41964,2023,07,11,06,00,AAXX 11064 41964 02456 71801 10295 20270 30057 40059 84520 333 58007 70370 84618 87460==
41964,2023,07,11,09,00,AAXX 11094 41964 02456 70000 10310 20290 30036 40039 84520 333 58002 70370 84618 87460==
41964,2023,07,11,12,00,AAXX 11124 41964 02356 82303 10291 20270 30027 40030 8562/ 333 10321 58001 70370 83709 83617 88459==
41964,2023,07,11,15,00,AAXX 11154 41964 02356 50000 10291 20270 30050 40053 83510 333 59002 70370 83618 84460==
41964,2023,07,11,21,00,AAXX 11214 41964 02450 51401 10280 20270 30050 40053 83510 333 58003 70300 83618 84460==
41964,2023,07,12,00,00,AAXX 12004 41964 02456 61401 10273 20260 30045 40048 84501 333 58001 70000 84618 84080==
41964,2023,07,12,03,00,AAXX 12034 41964 02457 71403 10295 20270 30061 40064 84510 333 20261 58005 70000 84618 86460==
41964,2023,07,12,06,00,AAXX 12064 41964 02457 70000 10310 20250 30052 40055 84510 333 59005 70000 84618 86460==
41964,2023,07,12,09,00,AAXX 12094 41964 02457 71701 10312 20270 30045 40048 84510 333 58009 70000 84618 86460==
41964,2023,07,12,12,00,AAXX 12124 41964 02456 71404 10295 20280 30033 40036 84510 333 10326 58006 70000 84618 86460==
41964,2023,07,12,18,00,AAXX 12184 41964 02456 70000 10294 20260 30054 40057 84510 333 58004 70000 84618 86460==
41964,2023,07,12,21,00,AAXX 12214 41964 02450 51402 10284 20260 30048 40050 83510 333 59002 70000 83618 84460==
41964,2023,07,13,00,00,AAXX 13004 41964 02456 71602 10281 20260 30043 40046 83511 333 59002 70000 83618 83460 83080==
41964,2023,07,13,03,00,AAXX 13034 41964 02457 41405 10310 20260 30051 40054 82501 333 20168 59010 70000 82618 83080==
41964,2023,07,13,06,00,AAXX 13064 41964 02457 51802 10320 20270 30048 40051 83510 333 59004 70000 83618 84460==
41964,2023,07,13,09,00,AAXX 13094 41964 42457 50000 10305 20280 30030 40033 59015 84460==
41964,2023,07,13,12,00,AAXX 13124 41964 01356 81702 10268 20260 30035 40037 72162 8562/ 333 10322 58002 70160 83709 83617 88459==
41964,2023,07,13,15,00,AAXX 13154 41964 41456 80000 10268 20260 30055 40058 72122 8562/ 333 58001 83618 88460==
41964,2023,07,13,18,00,AAXX 13184 41964 21450 50000 10266 20260 30054 40057 70162 83510 333 59010 69915 70159 83618 84460==
41964,2023,07,13,21,00,AAXX 13214 41964 02350 81402 10268 20266 30048 40051 8562/ 333 58000 70159 83709 83617 88459==
41965,2023,07,07,03,00,AAXX 07034 41965 02450 62202 10300 20230 30030 40038 84610 333 20263 59003 70000 83618 84460==
41965,2023,07,07,09,00,AAXX 07094 41965 02456 51403 10330 20230 30034 40042 84610 333 58013 70000 83618 84460==
41965,2023,07,07,12,00,AAXX 07124 41965 02450 60000 10300 20220 30036 40044 84610 333 10335 58013 70000 83618 84460==
41965,2023,07,07,18,00,AAXX 07184 41965 NIL=
41965,2023,07,08,00,00,AAXX 08004 41965 NIL=
41965,2023,07,08,03,00,AAXX 08034 41965 02450 82202 10290 20230 30045 40053 84610 333 20260 59007 70050 83618 88460==
41965,2023,07,08,06,00,AAXX 08064 41965 NIL=
41965,2023,07,08,12,00,AAXX 08124 41965 02456 52202 10330 20220 30044 40052 84610 333 58018 70050 82618 84460==
41965,2023,07,08,18,00,AAXX 08183 41965 NIL=
41965,2023,07,09,03,00,AAXX 09034 41965 01440 80000 10270 20240 30058 40066 79796 8432/ 333 20255 58005 70130 81710 83618 88460 81928==
41965,2023,07,09,06,00,AAXX 09064 41965 NIL=
41965,2023,07,09,09,00,AAXX 09094 41965 02450 50000 10330 20230 30035 40043 84410 333 59005 70130 83618 84460==
41965,2023,07,09,12,00,AAXX 09124 41965 02450 50000 10300 20220 30035 40043 84410 333 10333 59005 70130 82618 84460==
41965,2023,07,10,00,00,AAXX 10004 41965 01440 80000 10260 20240 30055 40063 79796 8432/ 333 59008 70120 81710 83618 88458 81928==
41965,2023,07,10,03,00,AAXX 10034 41965 01440 80000 10270 20240 30065 40073 79796 8432/ 333 20255 59008 70270 81710 83618 88458 81928==
41965,2023,07,10,06,00,AAXX 10064 41965 21440 80000 10290 20230 30045 40053 70296 8432/ 333 59007 60158 70270 81710 83618 88460 81928==
41965,2023,07,10,09,00,AAXX 10094 41965 02450 80000 10300 20220 30035 40043 83310 333 59008 70270 83618 88460==
41965,2023,07,10,12,00,AAXX 10123 41965 02450 80000 10300 20220 30035 40043 84610 333 10305 59006 70270 83618 88460==
41965,2023,07,11,00,00,AAXX 11004 41965 21430 80000 10260 20240 30054 40062 79796 8432/ 333 59002 60459 70600 81710 83618 88460 81928==
41965,2023,07,11,03,00,AAXX 11034 41965 02450 80000 10280 20240 30062 40070 8432/ 333 20255 58000 70450 81710 83618 88460 81928==
41965,2023,07,11,09,00,AAXX 11094 41965 02450 80000 10310 20230 30035 40043 84610 333 59003 70450 83618 88460==
41965,2023,07,11,12,00,AAXX 11124 41965 02450 80000 10300 20220 30025 40033 83310 333 10320 59010 70450 83618 88460==
41965,2023,07,12,03,00,AAXX 12034 41965 02450 70000 10280 20230 30065 40073 83310 333 20255 58003 70000 83618 86460==
41965,2023,07,12,09,00,AAXX 12094 41965 02450 80000 10315 20230 30038 40046 84610 333 58000 70000 83618 88460==
41965,2023,07,12,12,00,AAXX 12124 41965 02450 80000 10300 20220 30038 40046 84610 333 10325 58000 70000 83618 88460==
41965,2023,07,13,03,00,AAXX 13034 41965 02450 50000 10300 20240 30055 40063 84410 333 20260 59010 70000 82618 84460==
41965,2023,07,13,06,00,AAXX 13064 41965 02456 50000 10315 20230 30045 40053 84410 333 59009 70000 82618 84460==
41965,2023,07,13,09,00,AAXX 13094 41965 02450 50000 10315 20230 30035 40043 84410 333 59003 70000 82618 84460==
41965,2023,07,13,12,00,AAXX 13124 41965 01430 80000 10300 20240 30035 40043 79796 83310 333 10325 59005 70120 81710 83618 88460 81928==
41966,2023,07,07,03,00,AAXX 07034 41966 02450 51301 10305 20230 30009 40087 82510 333 20250 58028 70026 82616 84460==
41966,2023,07,07,09,00,AAXX 07094 41966 02450 51301 10315 20210 39979 40056 82510 333 58009 70000 82616 84460==
41966,2023,07,07,12,00,AAXX 07124 41966 02450 51802 10295 20220 39975 40053 82510 333 10335 58007 70000 82616 84460==
41966,2023,07,07,15,00,AAXX 07154 41966 02430 71802 10280 20250 39978 40057 83510 333 58007 70000 83616 86460==
41966,2023,07,07,18,00,AAXX 07184 41966 NIL=
41966,2023,07,07,21,00,AAXX 07214 41966 02420 50000 10270 20240 39980 40060 82510 333 58012 70000 82616 84460==
41966,2023,07,08,00,00,AAXX 08004 41966 02440 60000 10260 20230 39996 40075 83510 333 58010 70000 83616 85460==
41966,2023,07,08,03,00,AAXX 08034 41966 02450 50000 10305 20220 30010 40088 82510 333 20250 58001 70000 82616 84460==
41966,2023,07,08,06,00,AAXX 08064 41966 02450 51801 10330 20200 30007 40084 82510 333 58005 70000 82616 84460==
41966,2023,07,08,09,00,AAXX 08094 41966 02450 61301 10322 20210 39989 40066 83510 333 58010 70000 83616 85460==
41966,2023,07,08,12,00,AAXX 08124 41966 02440 60000 10290 20220 39988 40067 83510 333 10340 58014 70000 83616 85460==
41966,2023,07,08,15,00,AAXX 08154 41966 02430 40000 10280 20230 39989 40048 82510 333 58011 70000 82616 83460==
41966,2023,07,08,18,00,AAXX 08183 41966 NIL=
41966,2023,07,08,21,00,AAXX 08214 41966 02420 70000 10265 20240 39975 40054 83510 333 59006 70006==
41966,2023,07,09,00,00,AAXX 09004 41966 02440 70000 10260 20240 39976 40055 83510 333 59020 70006 83616 86460==
41966,2023,07,09,03,00,AAXX 09034 41966 01450 70000 10270 20250 30002 40081 76162 83510 333 20255 59007 70026 83616 86460==
41966,2023,07,09,06,00,AAXX 09064 41966 21450 70000 10300 20260 39990 40068 70262 83510 333 59016 60038 70036 83616 86460==
41966,2023,07,09,09,00,AAXX 09094 41966 02450 50401 10330 20240 39970 40046 82510 333 59020 70036 82616 84460==
41966,2023,07,09,12,00,AAXX 09124 41966 02440 50000 10305 20230 39969 40046 82510 333 10335 59021 70036 82616 84460==
41966,2023,07,09,15,00,AAXX 09154 41966 02430 50000 10290 20230 39971 40049 82510 333 59019 70030 82616 84460==
41966,2023,07,10,00,00,AAXX 10004 41966 02440 60000 10270 20250 39973 40052 83510 333 59003 70030 83616 85460==
41966,2023,07,10,03,00,AAXX 10034 41966 01450 70000 10290 20250 30000 40079 70362 83510 333 20255 59002 70014 83616 86460==
41966,2023,07,10,06,00,AAXX 10064 41966 11440 81501 10265 20240 30001 40080 60062 76162 8352/ 333 58012 70062 83616 88460==
41966,2023,07,10,09,00,AAXX 10094 41966 01450 61501 10280 20210 39981 40060 70162 83510 333 58014 70070 83616 85460==
41966,2023,07,10,12,00,AAXX 10124 41966 11440 60000 10280 20210 39969 40047 69986 70262 83510 333 10293 58001 70070 83616 85460==
41966,2023,07,10,21,00,AAXX 10214 41966 02420 80000 10270 20240 39975 40054 8352/ 333 58006 70070 83616 88460==
41966,2023,07,11,00,00,AAXX 11004 41966 02420 50000 10278 20250 39978 40056 82510 333 58005 70070 82616 84460==
41966,2023,07,11,03,00,AAXX 11034 41966 01450 60000 10280 20230 30010 40089 70162 83510 333 20250 58010 70178 83616 85460==
41966,2023,07,11,06,00,AAXX 11064 41966 11450 61301 10315 20220 39990 40068 69926 70262 83510 333 59012 70120 83616 85460==
41966,2023,07,11,09,00,AAXX 11094 41966 02450 70000 10310 20230 39979 40057 83510 333 59003 70112 83616 86460==
41966,2023,07,11,12,00,AAXX 11124 41966 02440 70000 10300 20210 39969 40047 83510 333 10320 58000 70112 83616 86460==
41966,2023,07,11,15,00,AAXX 11154 41966 02430 70000 10290 20230 39971 40049 83510 333 59002 70112 83616 86460==
41966,2023,07,11,21,00,AAXX 11214 41966 02420 60000 10276 20250 39983 40062 83510 333 58008 70112 83616 85460==
41966,2023,07,12,00,00,AAXX 12004 41966 02440 60000 10265 20240 39984 40063 83510 333 59005 70002 83616 85460==
41966,2023,07,12,03,00,AAXX 12034 41966 02450 60000 10280 20230 39993 40072 83510 333 20260 59017 70000 83616 85460==
41966,2023,07,12,06,00,AAXX 12064 41966 02450 50901 10320 20210 39987 40065 82510 333 59003 70000 82616 84460==
41966,2023,07,12,09,00,AAXX 12094 41966 02450 61801 10318 20210 39958 40035 83510 333 59022 70000 83616 85460==
41966,2023,07,12,12,00,AAXX 12124 41966 01440 80000 10275 20250 39959 40038 72162 8352/ 333 10325 59009 70020 83616 88460==
41966,2023,07,12,15,00,AAXX 12154 41966 02430 60000 10270 20230 39973 40052 82510 333 58003 70020 82616 85460==
41966,2023,07,12,21,00,AAXX 12214 41966 02420 50000 10268 20240 39981 40060 82510 333 59002 70020 82616 84460==
41966,2023,07,13,00,00,AAXX 13004 41966 02440 50000 10265 20240 39983 40062 82510 333 59001 70020 82616 84460==
41966,2023,07,13,03,00,AAXX 13034 41966 02450 40901 10310 20200 39986 40064 82510 333 20260 59008 70020 82616 83460==
41966,2023,07,13,09,00,AAXX 13094 41966 01450 60901 10285 20250 39970 40048 70266 83510 333 58013 70046 83616 85460==
41966,2023,07,13,12,00,AAXX 13124 41966 11440 61801 10290 20230 39963 40041 60031 70262 83510 333 10335 58003 70026 83616 85460==
41966,2023,07,13,15,00,AAXX 13154 41966 01320 80000 10260 20230 39994 40073 76166 8472/ 333 58021 70218 82709 83615 88460==
41966,2023,07,13,18,00,AAXX 13184 41966 21320 80000 10260 20230 39993 40072 70262 8472/ 333 58002 60208 70224 82709 83615 88460==
41966,2023,07,13,21,00,AAXX 13214 41966 02420 50000 10260 20230 39979 40058 82510 333 59002 70224 82616 84460==
41977,2023,07,07,00,00,AAXX 07004 41977 02450 71302 10270 20250 30034 40072 84520 333 58018 70030 84616 86460==
41977,2023,07,07,03,00,AAXX 07034 41977 02456 71302 10290 20260 30056 40093 84520 333 20260 58020 70030 84616 86460==
41977,2023,07,07,06,00,AAXX 07064 41977 02456 71805 10316 20260 30056 40094 84520 333 58024 70030 84618 86460==
41977,2023,07,07,09,00,AAXX 07094 41977 02456 71806 10305 20250 30035 40073 84520 333 59003 70000 84618 86460==
41977,2023,07,07,12,00,AAXX 07124 41977 02350 81807 10290 20250 30036 40074 84620 333 10335 58010 70000 84716 87460==
41977,2023,07,07,18,00,AAXX 07184 41977 02350 81802 10270 20250 30054 40092 84620 333 58010 70045 84716 87460==
41977,2023,07,07,21,00,AAXX 07214 41977 02450 71302 10270 20250 30051 40089 84520 333 58012 70045 84618 86460==
41977,2023,07,08,00,00,AAXX 08004 41977 02350 71302 10270 20250 30048 40086 85620 333 58014 70045 82712 84616 86460==
41977,2023,07,08,03,00,AAXX 08034 41977 02456 61802 10305 20260 30060 40097 84570 333 20262 58004 70045 84618 84460==
41977,2023,07,08,06,00,AAXX 08064 41977 02456 71405 10330 20250 30068 40106 84570 333 58012 70045 84618 86460==
41977,2023,07,08,09,00,AAXX 08094 41977 02456 62006 10324 20250 30049 40087 83520 333 58013 70045 83618 84460==
41977,2023,07,08,12,00,AAXX 08124 41977 02356 71605 10302 20260 30035 40073 84670 333 10340 59001 70045 82712 84616 86460==
41977,2023,07,08,15,00,AAXX 08154 41977 02456 41804 10288 20268 30046 40084 83570 333 59007 70000 83615 84360==
41977,2023,07,08,18,00,AAXX 08184 41977 02456 80000 10280 20260 30042 40080 85620 333 59012 70000 82710 83615 88460==
41977,2023,07,08,21,00,AAXX 08214 41977 02450 70000 10275 20260 30047 40085 84520 333 59004 70000 84616 86460==
41977,2023,07,09,00,00,AAXX 09004 41977 01350 81302 10272 20250 30034 40072 76122 8672/ 333 59014 70000 82710 84615 88460==
41977,2023,07,09,03,00,AAXX 09034 41977 02356 81302 10277 20280 30051 40089 8772/ 333 59009 70080 85710 84615 88458==
41977,2023,07,09,06,00,AAXX 09064 41977 21457 71806 10320 20270 30044 40081 70162 84570 333 59024 60088 70084 84618 86459==
41977,2023,07,09,09,00,AAXX 09094 41977 02457 61802 10330 20260 30027 40064 83570 333 59022 70084 83618 84460==
41977,2023,07,09,12,00,AAXX 09124 41977 02457 61803 10300 20260 30023 40061 84630 333 10340 59012 70084 84616 86361==
41977,2023,07,09,18,00,AAXX 09184 41977 02456 60000 10285 20280 30032 40070 84630 333 59010 70084 84616 86360==
41977,2023,07,10,00,00,AAXX 10004 41977 21350 80000 10277 20277 30034 40071 70262 8662/ 333 58000 60058 70129 82712 84615 88460==
41977,2023,07,10,03,00,AAXX 10034 41977 01350 80000 10266 20260 30046 40084 76162 8662/ 333 20261 59005 70079 82712 84615 88460==
41977,2023,07,10,06,00,AAXX 10064 41977 21350 81302 10288 20270 30044 40081 75165 8672/ 333 58000 60059 70095 83709 85614 88458==
41977,2023,07,10,09,00,AAXX 10093 41977 01456 70000 10304 20250 30032 40070 70152 84570 333 58005 70095 84618 85460==
41977,2023,07,10,12,00,AAXX 10124 41977 11356 81302 10294 20260 30037 40075 60006 70352 8662/ 333 10304 58001 70095 82710 85615 88458==
41977,2023,07,10,15,00,AAXX 10154 41977 02450 61503 10288 20270 30033 40071 86520 333 58001 70095 86615 84460==
41977,2023,07,10,18,00,AAXX 10184 41977 02356 71303 10285 20270 30037 40075 84610 333 58005 70095 81710 84616 87459==
41977,2023,07,10,21,00,AAXX 10214 41977 01350 81302 10270 20260 30039 40077 76166 8632/ 333 58002 70090 82708 84615 88460 81930==
41977,2023,07,11,00,00,AAXX 11004 41977 21350 80000 10260 20260 30038 40076 70262 8662/ 333 58004 60079 70120 82712 84616 88460==
41977,2023,07,11,03,00,AAXX 11034 41977 02356 80000 10287 20260 30047 40085 8562/ 333 58001 70120 82712 85617 88460==
41977,2023,07,11,06,00,AAXX 11064 41977 02356 71804 10312 20250 30043 40080 85610 333 59001 70070 81710 85617 87459==
41977,2023,07,11,09,00,AAXX 11094 41977 02456 71802 10325 20260 30022 40059 84571 333 59010 70070 84618 84460==
41977,2023,07,11,12,00,AAXX 11124 41977 02456 71802 10320 20272 30016 40053 84571 333 10325 59021 70070 82710 84618 87460==
41977,2023,07,11,18,00,AAXX 11184 41977 02456 70000 10284 20270 30044 40081 84571 333 58007 70070 82710 84618 87460==
41977,2023,07,11,21,00,AAXX 11214 41977 02450 80000 10270 20250 30039 40077 8672/ 333 58000 72710 84615 88460==
41977,2023,07,12,00,00,AAXX 12004 41977 21350 60000 10260 20250 30034 40072 70162 83570 333 59004 60037 70025 83618 84460==
41977,2023,07,12,03,00,AAXX 12034 41977 02450 70000 10288 20290 30050 40086 84570 333 20265 58003 70025 84618 85460==
41977,2023,07,12,06,00,AAXX 12064 41977 02456 71303 10320 20250 30037 40074 84570 333 59006 70025 84617 86459==
41977,2023,07,12,09,00,AAXX 12094 41977 02456 71804 10315 20250 30024 40061 84570 333 58002 70025 84618 86460==
41977,2023,07,12,12,00,AAXX 12124 41977 02456 71804 10300 20260 30018 40055 84670 333 10322 58002 70025 82710 84618 87460==
41977,2023,07,12,15,00,AAXX 12154 41977 02456 61503 10288 20260 30044 40082 86670 333 58002 70025 82712 84615 84460==
41977,2023,07,12,18,00,AAXX 12184 41977 02456 71304 10280 20260 30047 40085 84570 333 58003 70025 84618 86459==
41977,2023,07,12,21,00,AAXX 12214 41977 02450 71302 10277 20260 30039 40076 84570 333 58000 70025 84618 84460==
41977,2023,07,13,00,00,AAXX 13004 41977 02450 71302 10275 20260 30029 40066 86670 333 59005 70000 82712 84616 85460==
41977,2023,07,13,03,00,AAXX 13034 41977 02356 71302 10320 20250 30041 40079 85620 333 59009 70000 84710 85616 87460==
41977,2023,07,13,06,00,AAXX 13064 41977 02356 81303 10303 20250 30035 40072 8562/ 333 59002 70000 82710 85616 88458==
41977,2023,07,13,09,00,AAXX 13094 41977 41456 71303 10304 20260 30027 40065 70162 84570 333 58003 84618 84460==
41977,2023,07,13,12,00,AAXX 13124 41977 11356 71404 10288 20260 30031 40069 60006 70362 8562/ 333 10325 58013 83710 85616 88458==
41977,2023,07,13,18,00,AAXX 13184 41977 21356 80000 10261 20260 30036 40074 70262 8562/ 333 59011 60039 70050 83710 85616 88458==
41977,2023,07,13,21,00,AAXX 13214 41977 02350 80000 10265 20250 30033 40071 8662/ 333 59006 70050 82712 84615 88460==
41978,2023,07,07,00,00,AAXX 07004 41978 02450 52703 10262 20240 30050 40056 83520 333 58010 70000 82617 84460==
41978,2023,07,07,03,00,AAXX 07034 41978 01456 71011 10286 20270 30073 40080 70162 83570 333 20263 58023 70082 83616 86360==
41978,2023,07,07,06,00,AAXX 07064 41978 11456 62108 10322 20250 30066 40072 60026 70162 83430 333 58019 70082 83818 86360==
41978,2023,07,07,09,00,AAXX 07094 41978 02456 62020 10311 20250 30051 40057 83520 333 58016 70020 83618 85460==
41978,2023,07,07,12,00,AAXX 07124 41978 02456 72018 10294 20240 30054 40060 84520 333 10335 58018 70020 84617 85460==
41978,2023,07,07,15,00,AAXX 07154 41978 01445 81812 10270 20250 30074 40080 70362 8432/ 333 58014 70082 84615 88459 81930==
41978,2023,07,07,18,00,AAXX 07184 41978 11450 60000 10267 20250 30074 40080 60066 70162 83520 333 58013 70082 83617 86460==
41978,2023,07,07,21,00,AAXX 07214 41978 02450 61605 10265 20250 30068 40074 83520 333 58012 70082 83617 85460==
41978,2023,07,08,00,00,AAXX 08004 41978 02456 61208 10268 20250 30069 40075 83520 333 58017 70000 83617 85460==
41978,2023,07,08,03,00,AAXX 08034 41978 02450 61505 10287 20250 30080 40086 84310 333 20260 58007 70062 83618 85460 81930==
41978,2023,07,08,06,00,AAXX 08064 41978 02456 61715 10329 20250 30071 40077 84310 333 58005 70062 83618 86460 81930==
41978,2023,07,08,09,00,AAXX 08094 41978 02456 61715 10328 20260 30054 40060 84310 333 58003 70062 83618 86460 81930==
41978,2023,07,08,12,00,AAXX 08124 41978 02456 61610 10309 20260 30049 40055 84330 333 10335 59005 70062 83618 86360 81930==
41978,2023,07,08,15,00,AAXX 08154 41978 02450 61706 10288 20260 30064 40071 84330 333 59010 70000 83618 86360 81930==
41978,2023,07,08,18,00,AAXX 08184 41978 02450 61510 10281 20260 30060 40067 84330 333 59014 70000 83618 86360 81930==
41978,2023,07,08,21,00,AAXX 08214 41978 02450 70000 10272 20260 30046 40053 84320 333 59022 70000 83618 86360 81930==
41978,2023,07,09,00,00,AAXX 09004 41978 01440 70907 10268 20260 30054 40061 70262 84320 333 59015 70020 83616 86360 81928==
41978,2023,07,09,03,00,AAXX 09034 41978 01450 72008 10290 20270 30066 40073 70262 84320 333 20264 59014 70050 83616 86460 81930==
41978,2023,07,09,06,00,AAXX 09064 41978 11456 61708 10322 20260 30060 40066 60036 70267 83530 333 70050 83618 86360==
41978,2023,07,09,09,00,AAXX 09094 41978 02456 51911 10327 20270 30040 40047 83410 333 59014 70050 82618 85460==
41978,2023,07,09,12,00,AAXX 09124 41978 02456 52009 10302 20250 30040 40047 83510 333 10332 59009 70050 83618 85460==
41978,2023,07,09,15,00,AAXX 09154 41978 02456 61904 10294 20260 30048 40055 83530 333 59016 70050 83618 85360==
41978,2023,07,09,18,00,AAXX 09184 41978 02456 61804 10282 20260 30051 40058 83570 333 59009 70050 83616 86360==
41978,2023,07,09,21,00,AAXX 09214 41978 02456 71606 10278 20260 30043 40050 83570 333 59003 70050 83616 86460==
41978,2023,07,10,00,00,AAXX 10004 41978 21456 81404 10278 20270 30046 40053 70362 8432/ 333 59008 60017 70040 83614 88459 81928==
41978,2023,07,10,03,00,AAXX 10034 41978 01450 81710 10280 20270 30064 40071 72162 8432/ 333 20274 59002 70050 83614 88459 81928==
41978,2023,07,10,06,00,AAXX 10064 41978 01450 82312 10283 20270 30060 40067 70262 8432/ 333 58000 70070 83614 88459 81928==
41978,2023,07,10,09,00,AAXX 10094 41978 02456 72108 10314 20250 30042 40048 83530 333 58002 70070 83616 86360==
41978,2023,07,10,12,00,AAXX 10124 41978 02456 71705 10300 20260 30032 40038 83570 333 10316 59008 70070 83614 87360==
41978,2023,07,10,15,00,AAXX 10154 41978 02456 51505 10289 20260 30050 40057 83510 333 58002 70070 83618 85460==
41978,2023,07,10,18,00,AAXX 10184 41978 02450 50000 10274 20260 30054 40061 83510 333 58003 70070 83618 85460==
41978,2023,07,10,21,00,AAXX 10214 41978 02450 60000 10266 20260 30049 40055 83510 333 58006 70070 83618 86460==
41978,2023,07,11,00,00,AAXX 11004 41978 01440 81509 10268 20260 30054 40060 72162 8432/ 333 58008 70010 83616 88458 81928==
41978,2023,07,11,03,00,AAXX 11034 41978 01450 81506 10278 20260 30065 40072 70522 8432/ 333 20264 58001 70054 83616 88460 81928==
41978,2023,07,11,06,00,AAXX 11064 41978 02450 71512 10310 20260 30060 40066 84320 333 58000 70014 83618 86460 81930==
41978,2023,07,11,09,00,AAXX 11094 41978 02456 61810 10320 20250 30042 40048 83520 333 58000 70014 83618 85460==
41978,2023,07,11,15,00,AAXX 11154 41978 02456 61713 10292 20250 30057 40063 83520 333 58007 70014 83618 86460==
41978,2023,07,11,18,00,AAXX 11184 41978 02456 61710 10284 20250 30064 40071 83520 333 58010 70014 83618 86460==
41978,2023,07,11,21,00,AAXX 11214 41978 02456 52010 10267 20260 30054 40060 83520 333 58002 70014 83618 85460==
41978,2023,07,12,00,00,AAXX 12004 41978 02456 61606 10264 20250 30050 40056 83530 333 59004 70000 83618 86360==
41978,2023,07,12,03,00,AAXX 12034 41978 02456 71208 10291 20250 30068 40075 84320 333 20262 58003 70000 83617 86460 81930==
41978,2023,07,12,06,00,AAXX 12064 41978 02456 61710 10316 20270 30056 40062 84320 333 59004 70000 83618 86460 81930==
41978,2023,07,12,09,00,AAXX 12094 41978 02556 61916 10320 20250 30041 40047 83220 333 59001 70000 83827 85460==
41978,2023,07,12,12,00,AAXX 12124 41978 02556 71817 10300 20260 30034 40040 83220 333 10328 58000 70000 83827 86460==
41978,2023,07,12,15,00,AAXX 12154 41978 02456 61406 10287 20260 30062 40068 83520 333 58005 70000 83618 85460==
41978,2023,07,12,18,00,AAXX 12184 41978 02456 51606 10283 20260 30061 40067 82520 333 59003 70000 82618 84460==
41978,2023,07,12,21,00,AAXX 12214 41978 02456 51606 10277 20260 30054 40060 82520 333 58000 70000 82618 84460==
41978,2023,07,13,00,00,AAXX 13004 41978 02456 61505 10274 20250 30049 40055 83520 333 59001 70000 83618 85460==
41978,2023,07,13,06,00,AAXX 13064 41978 02450 71905 10307 20260 30053 40059 84310 333 59003 70000 83618 87460 81930==
41978,2023,07,13,12,00,AAXX 13124 41978 11450 71710 10287 20270 30041 40048 69946 70262 84320 333 10324 58007 70004 83618 87460 81930==
41978,2023,07,13,15,00,AAXX 13154 41978 01450 71510 10263 20250 30064 40071 70262 84320 333 58002 70024 83616 87460 81928==
41978,2023,07,13,18,00,AAXX 13184 41978 11440 70000 10262 20250 30058 40065 60026 70262 84320 333 59003 70024 83618 87460 81930==
41978,2023,07,13,21,00,AAXX 13214 41978 02440 70000 10264 20250 30044 40051 84320 333 59010 70024 83618 87460 81930==
41980,2023,07,07,00,00,AAXX 07004 41980 32450 30000 10268 20260 39960 40071 83500 333 56900 58018 70020 83618=
41980,2023,07,07,12,00,AAXX 07124 41980 11450 71804 10268 20240 39955 40016 70262 84520 333 10327 56990 58015 70020 84616 87459=
41980,2023,07,07,18,00,AAXX 07184 41980 NIL=
41980,2023,07,08,00,00,AAXX 08004 41980 32450 50000 10251 20230 39971 40083 83520 333 56990 58011 70020 83616 85459=
41980,2023,07,08,06,00,AAXX 08064 41980 NIL=
41980,2023,07,08,12,00,AAXX 08124 41980 32450 51802 10290 20250 39949 40060 83520 333 10333 56990 59006 70000 83616 85459=
41980,2023,07,08,18,00,AAXX 08183 41980 NIL=
41980,2023,07,09,00,00,AAXX 09004 41980 32450 71802 10265 20240 39953 40064 83520 333 56990 59018 70000 83616 87459=
41980,2023,07,09,06,00,AAXX 09064 41980 NIL=
41980,2023,07,09,12,00,AAXX 09124 41980 11450 51802 10300 20250 39941 40051 60036 70162 83520 333 10322 56990 59008 70050 83616 85459=
41980,2023,07,10,00,00,AAXX 10004 41980 32450 81802 10270 20250 39950 40061 8452/ 333 56999 59003 70050 84616 88459=
41980,2023,07,10,06,00,AAXX 10064 41980 NIL=
41980,2023,07,10,12,00,AAXX 10123 41980 11450 60000 10282 20250 39937 40048 60056 70262 83530 333 10322 56990 59004 70050 83616 86362=
41980,2023,07,11,00,00,AAXX 11004 41980 11450 81802 10258 20250 39960 40072 60054 72162 8452/ 333 56999 58008 70100 84616 88459=
41984,2023,07,07,00,00,AAXX 07004 41984 02456 50000 10288 20270 30029 40031 83510 333 58018 70300 83618 85458==
41984,2023,07,07,03,00,AAXX 07034 41984 01356 80000 10286 20280 30036 40038 76122 8672/ 333 20265 58016 70260 82708 84616 88456==
41984,2023,07,07,06,00,AAXX 07064 41984 01356 80000 10287 20280 30043 40045 76062 8672/ 333 58026 70340 83708 84616 88456==
41984,2023,07,07,09,00,AAXX 07094 41984 02456 81303 10318 20290 30029 40031 8352/ 333 58015 70190 83618 88458==
41984,2023,07,07,12,00,AAXX 07124 41984 02456 82303 10285 20280 30022 40024 8352/ 333 10326 58011 70190 83618 88458==
41984,2023,07,07,15,00,AAXX 07154 41984 02440 20000 10286 20270 30044 40046 82500 333 58013 70190 82618==
41984,2023,07,07,18,00,AAXX 07184 41984 02440 20000 10286 20280 30051 40053 82500 333 58013 70190 82618==
41984,2023,07,07,21,00,AAXX 07214 41984 02440 50000 10287 20270 30048 40050 83510 333 58016 70190 83618 85458==
41984,2023,07,08,00,00,AAXX 08004 41984 02456 50000 10288 20270 30045 40047 83510 333 58016 70190 83618 85458==
41984,2023,07,08,03,00,AAXX 08034 41984 01357 80000 10280 20260 30056 40058 76122 8662/ 333 20269 58020 70175 82709 84616 88456==
41984,2023,07,08,06,00,AAXX 08064 41984 21457 82305 10308 20270 30050 40052 70262 8352/ 333 58007 60015 70005 83618 88458==
41984,2023,07,08,09,00,AAXX 08094 41984 01457 52303 10301 20270 30032 40034 72122 83510 333 58003 70015 83618 85458==
41984,2023,07,08,12,00,AAXX 08124 41984 21456 80000 10293 20270 30025 40027 70362 8352/ 333 10326 58003 60015 70015 83618 88458==
41984,2023,07,08,15,00,AAXX 08154 41984 01340 80000 10281 20270 30037 40039 76122 8672/ 333 59007 70045 83708 84615 88456==
41984,2023,07,08,18,00,AAXX 08183 41984 21440 80000 10278 20270 30041 40043 70262 8352/ 333 59010 60035 70045 83618 88458==
41984,2023,07,08,21,00,AAXX 08214 41984 02440 80000 10268 20260 30038 40040 8352/ 333 59010 70045 83618 88458==
41984,2023,07,09,00,00,AAXX 09004 41984 01456 80000 10270 20270 30033 40035 70262 8352/ 333 59012 70150 83618 88458==
41984,2023,07,09,03,00,AAXX 09034 41984 02457 80000 10311 20270 30048 40050 8352/ 333 20260 59008 70140 83618 88458==
41984,2023,07,09,06,00,AAXX 09064 41984 02457 52302 10330 20270 30043 40045 83510 333 59007 70140 83618 85458==
41984,2023,07,09,09,00,AAXX 09094 41984 02457 52302 10340 20280 30027 40029 83510 333 59005 70130 83618 85458==
41984,2023,07,09,12,00,AAXX 09124 41984 02457 51802 10312 20270 30022 40024 83510 333 10349 59003 70130 83618 85458==
41984,2023,07,09,15,00,AAXX 09154 41984 02440 20000 10298 20280 30029 40031 82500 333 59008 70100 82618==
41984,2023,07,09,18,00,AAXX 09184 41984 02440 20000 10292 20280 30034 40036 82500 333 59007 70100 82618==
41984,2023,07,10,00,00,AAXX 10004 41984 02456 20000 10286 20280 30029 40031 82500 333 59004 70000 82618==
41984,2023,07,10,03,00,AAXX 10034 41984 01356 80000 10288 20270 30046 40048 76162 8672/ 333 20282 59002 70060 83708 84615 88456==
41984,2023,07,10,06,00,AAXX 10064 41984 01356 80000 10295 20280 30039 40041 76062 8662/ 333 59004 70065 82708 84615 88456==
41984,2023,07,10,09,00,AAXX 10094 41984 01356 80000 10292 20280 30028 40030 76166 8672/ 333 58001 70155 83707 84615 88456==
41984,2023,07,10,12,00,AAXX 10123 41984 21456 80000 10288 20270 30015 40017 70262 8352/ 333 10306 59007 60098 70155 83618 88458==
41984,2023,07,10,15,00,AAXX 10154 41984 02440 80000 10280 20270 30036 40038 8352/ 333 58007 70155 83618 88458==
41984,2023,07,10,18,00,AAXX 10184 41984 02440 80000 10282 20270 30039 40041 8352/ 333 58007 70155 83618 88458==
41984,2023,07,10,21,00,AAXX 10214 41984 02440 80000 10280 20270 30035 40037 8352/ 333 58006 70155 83618 88458==
41984,2023,07,11,00,00,AAXX 11004 41984 01456 80000 10274 20260 30031 40033 72122 8352/ 333 58002 70010 83618 88458==
41984,2023,07,11,03,00,AAXX 11034 41984 02457 80000 10303 20270 30045 40047 8352/ 333 20265 59001 70105 83618 88458==
41984,2023,07,11,06,00,AAXX 11064 41984 01356 80000 10278 20270 30043 40045 76162 8672/ 333 58004 70050 83707 84615 88456==
41984,2023,07,11,09,00,AAXX 11094 41984 01457 82302 10311 20270 30039 40041 70262 8352/ 333 58011 70075 83618 88458==
41984,2023,07,11,12,00,AAXX 11124 41984 11457 80000 10298 20270 30016 40018 60036 70262 8352/ 333 10325 58001 70085 83618 88458==
41984,2023,07,11,15,00,AAXX 11154 41984 02440 80000 10285 20270 30037 40039 8352/ 333 58001 70085 83618 88458==
41984,2023,07,11,18,00,AAXX 11184 41984 02440 80000 10280 20250 30050 40052 8352/ 333 58011 70085 83618 88458==
41984,2023,07,11,21,00,AAXX 11214 41984 02440 80000 10274 20260 30041 40043 8352/ 333 58006 70085 83618 88458==
41984,2023,07,12,00,00,AAXX 12004 41984 21456 80000 10268 20260 30030 40032 70262 8352/ 333 59001 60057 70125 83618 88458==
41984,2023,07,12,03,00,AAXX 12034 41984 02457 80000 10312 20260 30046 40048 8352/ 333 20260 58001 70125 83618 88458==
41984,2023,07,12,06,00,AAXX 12064 41984 02457 81802 10320 20270 30043 40045 8352/ 333 58000 70080 83618 88458==
41984,2023,07,12,09,00,AAXX 12094 41984 02457 62305 10310 20280 30023 40025 83570 333 59016 70050 83618 85458==
41984,2023,07,12,12,00,AAXX 12124 41984 02457 62303 10300 20270 30022 40024 82510 333 10332 58006 70050 83618 88458==
41984,2023,07,12,15,00,AAXX 12154 41984 02440 60000 10290 20270 30035 40037 83510 333 59002 70050 83618 85458==
41984,2023,07,12,18,00,AAXX 12184 41984 21440 80000 10274 20260 30043 40045 70362 8352/ 333 59007 60035 70075 83618 88458==
41984,2023,07,12,21,00,AAXX 12214 41984 02440 80000 10272 20270 30038 40040 8352/ 333 59003 70075 83618 88458==
41984,2023,07,13,00,00,AAXX 13004 41984 02456 80000 10282 20260 30023 40025 8352/ 333 59007 70025 83618 88458==
41984,2023,07,13,03,00,AAXX 13034 41984 01457 80000 10303 20270 30037 40039 70262 8352/ 333 20266 59009 70075 83618 88458==
41984,2023,07,13,06,00,AAXX 13064 41984 01457 80000 10304 20270 30035 40037 70262 8352/ 333 59008 70080 83618 88458==
41984,2023,07,13,09,00,AAXX 13094 41984 01457 80000 10292 20270 30021 40023 72922 8352/ 333 59002 70085 83618 88458==
41984,2023,07,13,12,00,AAXX 13124 41984 21456 80000 10294 20270 30021 40023 70296 8352/ 333 10337 59001 60015 70085 83618 88458==
41984,2023,07,13,15,00,AAXX 13154 41984 01340 80000 10281 20260 30041 40043 79596 8692/ 333 58006 70090 82708 84615 88456 81925==
41984,2023,07,13,18,00,AAXX 13184 41984 21440 80000 10279 20270 30034 40036 70296 8352/ 333 59009 60018 70070 83618 88458==
41984,2023,07,13,21,00,AAXX 13214 41984 01340 80000 10275 20270 30029 40031 76162 8672/ 333 59009 70070 82708 84615 88456==
41989,2023,07,07,09,00,AAXX 07094 41989 02440 51302 10315 20260 30055 40058 83530 333 58011 70000 83618 83362==
41989,2023,07,07,12,00,AAXX 07124 41989 02440 41802 10290 20260 30043 40046 84500 333 10325 58003 70000 84618==
41989,2023,07,07,15,00,AAXX 07154 41989 02440 51704 10275 20250 30074 40077 83530 333 58019 70000 83618 83362==
41989,2023,07,07,18,00,AAXX 07184 41989 02440 41803 10270 20210 30072 40075 83530 333 58007 70000 83618 83362==
41989,2023,07,07,21,00,AAXX 07214 41989 02430 41402 10265 20250 30052 40055 84500 333 58007 70000 84618==
41989,2023,07,08,00,00,AAXX 08004 41989 02430 51402 10260 20240 30046 40049 82530 333 58001 70000 82618 84362==
41989,2023,07,08,06,00,AAXX 08064 41989 NIL=
41989,2023,07,08,09,00,AAXX 08094 41989 02450 51802 10320 20270 30065 40068 82530 333 59004 70000 82618 84362==
41989,2023,07,08,12,00,AAXX 08124 41989 02450 31402 10295 20250 30050 40053 83500 333 10330 58007 70000 83618==
41989,2023,07,08,15,00,AAXX 08154 41989 02450 31403 10285 20230 30069 40072 83500 333 59005 70000 83618==
41989,2023,07,08,18,00,AAXX 08183 41989 02440 31801 10280 20250 30074 40078 83500 333 58002 70000 83618==
41989,2023,07,08,21,00,AAXX 08214 41989 02430 31403 10275 20250 30067 40070 83500 333 58015 70000 83618==
41989,2023,07,09,00,00,AAXX 09004 41989 01430 61804 10275 20250 30054 40058 72162 84570 333 58000 70070 84618 84462==
41989,2023,07,09,03,00,AAXX 09034 41989 02450 51402 10290 20260 30069 40072 83530 333 20250 59002 70070 83618 83362==
41989,2023,07,09,06,00,AAXX 09064 41989 02450 31703 10325 20260 30060 40063 83500 333 59012 70070 83618==
41989,2023,07,09,12,00,AAXX 09124 41989 NIL=
41989,2023,07,10,03,00,AAXX 10034 41989 02330 81703 10265 20260 30065 40068 8572/ 333 20248 59004 70260 82708 83614 88456==
41989,2023,07,10,06,00,AAXX 10064 41989 21450 51804 10310 20240 30054 40057 70162 84470 333 59006 60258 70280 83618 83462==
41989,2023,07,10,09,00,AAXX 10094 41989 02450 51403 10300 20260 30044 40047 83530 333 59009 70280 83618 84362==
41989,2023,07,10,12,00,AAXX 10124 41989 02440 51502 10290 20260 30040 40043 83530 333 10315 59009 70280 83618 84362==
41989,2023,07,11,06,00,AAXX 11064 41989 02450 41402 10315 20270 30076 40079 83530 333 58022 70040 82618 84362==
41989,2023,07,11,09,00,AAXX 11094 41989 02450 41402 10320 20270 30050 40054 84530 333 58010 70040 83618==
41989,2023,07,11,12,00,AAXX 11124 41989 02450 31402 10302 20260 30043 40046 83500 333 10325 58003 70040 83618==
41989,2023,07,11,15,00,AAXX 11154 41989 02450 31802 10290 20250 30064 40068 83500 333 58012 70040 83618==
41989,2023,07,11,21,00,AAXX 11214 41989 02440 31403 10280 20260 30065 40068 83500 333 58004 70040 83618==
41989,2023,07,12,00,00,AAXX 12004 41989 21430 51803 10270 20250 30058 40061 70362 82530 333 58002 60035 70030 83618 84362==
41989,2023,07,12,06,00,AAXX 12064 41989 02450 51402 10320 20270 30061 40064 83530 333 59015 70080 83618 83362==
41989,2023,07,12,09,00,AAXX 12094 41989 02450 51402 10210 20250 30055 40059 83530 333 58005 70080 83618 83362==
41989,2023,07,12,12,00,AAXX 12124 41989 02450 61803 10300 20270 30042 40045 83570 333 10325 59001 70080 83618 84460==
41989,2023,07,12,15,00,AAXX 12154 41989 02440 51402 10285 20270 30064 40067 82530 333 58000 70080 82618 83362==
41989,2023,07,12,21,00,AAXX 12214 41989 02430 31402 10275 20260 30067 40071 83500 333 58005 70080 83618==
41989,2023,07,13,00,00,AAXX 13004 41989 02440 31703 10273 20250 30060 40063 83500 333 58002 70050 83618==
41989,2023,07,13,03,00,AAXX 13034 41989 02450 41403 10294 20240 30078 40081 82530 333 20250 58007 70000 82618 83362==
41989,2023,07,13,09,00,AAXX 13094 41989 02450 31403 20260 30059 40062 83500 333 58004 70250 83618==
41989,2023,07,13,12,00,AAXX 13124 41989 01450 51803 10295 20270 30046 70362 83570 333 10305 58004 70030 83618 84460==
41992,2023,07,07,00,00,AAXX 07004 41992 01320 81506 10262 20250 30068 40070 70522 8532/ 333 59004 70080 82708 84614 88458 81925==
41992,2023,07,07,03,00,AAXX 07034 41992 01320 81804 10268 20250 30083 40085 76155 8432/ 333 20260 58025 70080 82707 84613 88458 81925==
41992,2023,07,07,06,00,AAXX 07064 41992 21430 61807 10313 20250 30076 40078 70565 84530 333 58017 60018 70080 84616 86362==
41992,2023,07,07,09,00,AAXX 07094 41992 01425 70000 10280 20240 30064 40066 75122 84320 333 58014 70040 84615 87458 81925==
41992,2023,07,07,12,00,AAXX 07124 41992 21425 80000 10274 20250 30063 40065 70552 8432/ 333 10317 58016 60005 70040 84615 88458 81925==
41992,2023,07,07,15,00,AAXX 07154 41992 01425 80000 10265 20260 30081 40083 70562 8432/ 333 58013 70030 83616 88460 81925==
41992,2023,07,07,18,00,AAXX 07184 41992 11420 80000 10260 20240 30079 40081 60026 70562 8432/ 333 58011 70030 83616 88460 81925==
41992,2023,07,07,21,00,AAXX 07214 41992 01450 80000 10260 20240 30074 40076 70522 8432/ 333 58020 70030 83616 88460 81925==
41992,2023,07,08,00,00,AAXX 08004 41992 01420 80905 10265 20250 30079 40081 70522 8432/ 333 58011 70030 83616 88460 81925==
41992,2023,07,08,03,00,AAXX 08034 41992 01435 30000 10306 20250 30084 40086 70522 81530 333 20255 58001 70020 81616 83362==
41992,2023,07,08,06,00,AAXX 08064 41992 01430 70000 10314 20250 30082 40084 70530 84530 333 58006 70020 84616 87362==
41992,2023,07,08,07,00,AAXX 08074 41992 31425 71503 10278 20250 30069 40071 70522 84530 333 56990 59012 70000 84616 87362=
41992,2023,07,08,09,00,AAXX 08094 41992 01435 81805 10305 20260 30066 40068 70522 83520 333 58002 70020 83616 86460==
41992,2023,07,08,12,00,AAXX 08124 41992 01430 61805 10285 20260 30061 40063 70522 84320 333 10318 59002 70020 83616 86460 81925==
41992,2023,07,08,15,00,AAXX 08154 41992 01425 71503 10278 20250 30069 40071 70522 84530 333 59012 70000 84616 87362==
41992,2023,07,08,18,00,AAXX 08184 41992 01425 71504 10276 20250 30067 40069 70522 84530 333 59012 70000 84616 87362==
41992,2023,07,08,21,00,AAXX 08214 41992 01425 60000 10274 20250 30061 40063 70522 84530 333 59013 70000 84616 86362==
41992,2023,07,09,00,00,AAXX 09004 41992 01425 70000 10272 20250 30056 40058 72122 84530 333 59023 70000 84616 87362==
41992,2023,07,09,03,00,AAXX 09034 41992 01435 10000 10310 20260 30074 40076 70561 81500 333 20267 59010 70010 81616==
41992,2023,07,09,06,00,AAXX 09064 41992 11435 10000 10323 20260 30065 40067 60016 70562 81500 333 59017 70010 84616==
41992,2023,07,09,09,00,AAXX 09094 41992 01/35 22106 10323 20260 30048 40050 70511 82030 333 59018 70010 82362==
41992,2023,07,09,12,00,AAXX 09124 41992 01/30 31802 10307 20260 30045 40047 70511 82030 333 10330 59016 70010 83362==
41992,2023,07,09,15,00,AAXX 09154 41992 01430 40000 10290 20260 30055 40057 70511 84500 333 59014 70010 84616==
41992,2023,07,09,18,00,AAXX 09184 41992 01425 80000 10290 20270 30062 40064 75111 8592/ 333 59005 70000 84614 88458 81925==
41992,2023,07,09,21,00,AAXX 09214 41992 01425 80000 10285 20270 30056 40058 76166 8592/ 333 59005 70020 84614 88458 81925==
41992,2023,07,10,00,00,AAXX 10004 41992 21420 80000 10270 20260 30054 40056 76166 8592/ 333 59002 60039 70040 84614 88458 81925==
41992,2023,07,10,03,00,AAXX 10034 41992 01425 80000 10272 20260 30074 40076 76166 8432/ 333 20260 58000 70060 84614 88458 81925==
41992,2023,07,10,06,00,AAXX 10064 41992 21425 80000 10294 20260 30064 40066 75165 8432/ 333 59001 60069 70060 84614 88458 81925==
41992,2023,07,10,09,00,AAXX 10094 41992 01425 80000 10300 20260 30046 40048 70522 8432/ 333 59002 70060 83616 88460 81925==
41992,2023,07,10,12,00,AAXX 10124 41992 01425 80000 10290 20250 30044 40046 70522 8432/ 333 10308 59001 70060 83616 88460 81925==
41992,2023,07,10,15,00,AAXX 10154 41992 01425 60000 10282 20240 30056 40058 70522 84530 333 59006 70060 84616 86362==
41992,2023,07,10,18,00,AAXX 10184 41992 01425 60000 10277 20260 30062 40064 70522 84530 333 58000 70060 84616 86362==
41992,2023,07,10,21,00,AAXX 10214 41992 01425 70000 10268 20250 30061 40063 70522 84530 333 58003 70050 84615 87360==
41992,2023,07,11,00,00,AAXX 11004 41992 21425 70000 10258 20250 30062 40064 70562 84530 333 58008 60055 70080 84615 87360==
41992,2023,07,11,03,00,AAXX 11034 41992 01430 70000 10287 20250 30076 40078 70522 84530 333 20256 58002 70050 84615 87360==
41992,2023,07,11,06,00,AAXX 11064 41992 01430 60000 10304 20250 30063 40065 70522 84530 333 59001 70050 84616 86362==
41992,2023,07,11,09,00,AAXX 11094 41992 01430 41806 10318 20260 30047 40049 70511 82530 333 58001 70050 82616 84362==
41992,2023,07,11,12,00,AAXX 11124 41992 01430 31808 10297 20250 30042 40044 70511 82530 333 10325 59002 70050 82616 83362==
41992,2023,07,11,15,00,AAXX 11154 41992 01430 21805 10280 20260 30066 40068 70511 82500 333 58010 70050 82616==
41992,2023,07,11,18,00,AAXX 11184 41992 01425 40000 10275 20260 30070 40072 70511 84500 333 58008 70050 84616==
41992,2023,07,11,21,00,AAXX 11214 41992 01425 80000 10270 20250 30066 40068 76166 8592/ 333 58005 70070 84614 88458 81925==
41992,2023,07,12,00,00,AAXX 12004 41992 21425 80000 10258 20250 30054 40056 76166 8592/ 333 58008 60079 70070 84614 88458 81925==
41992,2023,07,12,03,00,AAXX 12034 41992 01425 80000 10285 20260 30076 40078 75152 8432/ 333 20250 58000 70070 84615 88458 81925==
41992,2023,07,12,06,00,AAXX 12064 41992 21435 42407 10308 20270 30065 40067 70552 82530 333 58007 60005 70070 82616 84362==
41992,2023,07,12,09,00,AAXX 12094 41992 01535 61805 10315 20260 30048 40050 70522 82130 333 58001 70070 82825 86362==
41992,2023,07,12,12,00,AAXX 12124 41992 01425 81807 10295 20260 30042 40044 70522 8432/ 333 10324 58000 70070 83616 88460 81925==
41992,2023,07,12,15,00,AAXX 12154 41992 01425 42103 10282 20250 30068 40070 70522 82530 333 58002 70070 82616 84362==
41992,2023,07,12,18,00,AAXX 12184 41992 01425 71802 10274 20250 30068 40070 70521 84530 333 58002 70070 84616 87362==
41992,2023,07,12,21,00,AAXX 12214 41992 01425 71502 10268 20250 30060 40062 70522 84530 333 59006 70050 84615 87360==
41992,2023,07,13,00,00,AAXX 13004 41992 21420 71502 10258 20250 30054 40056 71062 84530 333 58000 60025 70020 84615 87360==
41992,2023,07,13,03,00,AAXX 13034 41992 01325 81804 10283 20250 30069 40071 76122 8592/ 333 20258 59007 70020 83708 85614 88458 81925==
41992,2023,07,13,06,00,AAXX 13064 41992 21320 80000 10275 20270 30064 40066 76162 8592/ 333 59001 60057 70070 83708 85614 88458 81925==
41992,2023,07,13,12,00,AAXX 13124 41992 01320 81804 10252 20250 30056 40058 76365 8592/ 333 10307 58014 70180 83707 85613 88458 81925==
41992,2023,07,13,15,00,AAXX 13154 41992 01420 80000 10260 20250 30072 40074 76166 8592/ 333 58004 70300 84614 88458 81925==
41992,2023,07,13,18,00,AAXX 13184 41992 21420 80000 10260 20250 30063 40065 76166 8592/ 333 59005 60079 70320 84614 88458 81925==
41992,2023,07,13,21,00,AAXX 13214 41992 01420 80000 10260 20250 30058 40060 76166 8592/ 333 59002 70340 84614 88458 81925==
41998,2023,07,07,03,00,AAXX 07034 41998 02456 60000 10301 20260 30041 40047 83470 333 20258 59005 70250 82618 84458==
41998,2023,07,07,12,00,AAXX 07124 41998 01456 80000 10268 20260 30015 40021 72162 8442/ 333 10296 58012 70180 83618 84458==
41998,2023,07,07,18,00,AAXX 07184 41998 NIL=
41998,2023,07,08,00,00,AAXX 08004 41998 02456 50000 10270 20250 30041 40047 82470 333 58006 70050 81618 83458==
41998,2023,07,08,03,00,AAXX 08034 41998 02456 50000 10292 20250 30075 40081 83470 333 20264 58034 70050 82618 83458==
41998,2023,07,08,06,00,AAXX 08064 41998 21456 80000 10298 20260 30070 40076 76162 8442/ 333 58031 60039 70050 83616 88456==
41998,2023,07,08,09,00,AAXX 08094 41998 01456 81402 10284 20250 30064 40070 72162 8442/ 333 58050 70100 83618 88458==
41998,2023,07,08,12,00,AAXX 08124 41998 21456 81701 10281 20250 30067 40073 70262 8442/ 333 10304 58052 60058 70080 83618 88458==
41998,2023,07,08,18,00,AAXX 08183 41998 NIL=
41998,2023,07,09,03,00,AAXX 09034 41998 02456 50000 10300 20260 30052 40058 83470 333 20260 59023 70130 82618 83458==
41998,2023,07,09,06,00,AAXX 09064 41998 NIL=
41998,2023,07,09,12,00,AAXX 09124 41998 02456 30000 10298 20260 30056 40062 82340 333 10331 59011 70050 82618==
41998,2023,07,10,00,00,AAXX 10004 41998 21456 80000 10260 20260 30040 40046 76166 8342/ 333 58005 60089 70080 82617 88457==
41998,2023,07,10,03,00,AAXX 10034 41998 02456 80000 10297 20260 30063 40069 8442/ 333 20255 58011 70120 83618 88458==
41998,2023,07,10,06,00,AAXX 10064 41998 NIL=
41998,2023,07,10,09,00,AAXX 10094 41998 01456 81502 10302 20260 30048 40054 70262 8442/ 333 59005 70160 83618 88458==
41998,2023,07,10,12,00,AAXX 10124 41998 11456 80000 10290 20260 30053 40059 60026 70262 8442/ 333 10314 59003 70160 83618 88458==
41998,2023,07,11,00,00,AAXX 11004 41998 01456 80000 10270 20260 30045 40051 72162 8342/ 333 58005 70060 82617 88457==
41998,2023,07,11,03,00,AAXX 11034 41998 02456 80000 10301 20250 30055 40061 83470 333 20260 59008 70060 83618 88458==
41998,2023,07,11,06,00,AAXX 11064 41998 02456 50000 10300 20270 30047 40053 82470 333 59008 70080 82618 83458==
41998,2023,07,11,12,00,AAXX 11124 41998 02456 60000 10297 20240 30038 40044 82470 333 59006 70060 81618 83458==
41998,2023,07,12,03,00,AAXX 12034 41998 01456 80000 10298 20260 30055 40061 76162 8442/ 333 20262 58000 70020 83616 88456==
41998,2023,07,12,06,00,AAXX 12064 41998 21456 60000 10322 20270 30049 40055 70162 333 58002 60027 70050 82618 83458==
41998,2023,07,12,12,00,AAXX 12124 41998 02456 40000 10287 20250 30037 40043 83470 333 10322 59002 70160 82618 84458==
41998,2023,07,13,03,00,AAXX 13034 41998 02456 60000 10301 20260 30059 40065 83470 333 20241 58004 70240 82618 83458==
41998,2023,07,13,12,00,AAXX 13124 41998 21456 80000 10261 20250 30051 40057 76166 8442/ 333 10281 58008 60139 70280 83618 88458==
