ESTACION,ANO,MES,DIA,HORA,MINUTO,PARTE
41850,2024,05,31,00,00,AAXX 31004 41850 11315 80903 10231 20210 39910 40009 60337 79596 8532/ 333 56299 58005 70620 82708 84614 81927 88458=
41850,2024,05,31,06,00,AAXX 31064 41850 11440 70503 10280 20220 39947 40045 69906 70596 84510 333 56290 58034 70520 84616 87458=
41850,2024,05,31,12,00,AAXX 31124 41850 31450 60000 10300 20240 39919 40015 70522 84510 333 10314 56990 58012 70520 84618 84458=
41850,2024,05,31,18,00,AAXX 31184 41850 31430 81803 10275 20260 39941 40038 70522 8252/ 333 56999 58025 70330 82618 88458=
41850,2024,06,01,00,00,AAXX 01004 41850 11430 81803 10263 20250 39942 40040 60025 70562 8252/ 333 56999 58032 70020 82617 88457=
41850,2024,06,03,06,00,AAXX 03064 41850 11456 30000 10322 20250 39940 40036 60016 70162 84500 333 56900 59013 70010 84618=
41850,2024,06,03,12,00,AAXX 03124 41850 31450 60000 10314 20250 39906 40002 70522 82510 333 10340 56990 59021 70010 82618 86458=
41850,2024,06,03,18,00,AAXX 03184 41850 11430 80000 10250 20240 39938 40036 60016 70562 8352/ 333 56999 59009 70020 83618 88458=
41850,2024,06,04,00,00,AAXX 04004 41850 11330 80000 10245 20240 39937 40035 60097 76166 8472/ 333 56999 59002 70110 84707 88457=
41850,2024,06,04,06,00,AAXX 04064 41850 11456 60503 10300 20230 39957 40054 60016 70562 83510 333 56290 58009 70110 83616 86458=
41850,2024,06,04,12,00,AAXX 04124 41850 32956 21602 10300 20240 39927 40025 82030 333 10320 56090 58021 70110 82362=
41850,2024,06,05,00,00,AAXX 05004 41850 31430 80000 10240 20220 39951 40050 70521 8252/ 333 56999 58014 70010 82616 88458=
41850,2024,06,05,06,00,AAXX 05064 41850 31440 41503 10313 20240 39964 40061 70521 81530 333 56290 58007 70000 81617 84360=
41850,2024,06,05,12,00,AAXX 05124 41850 31440 81003 10312 20250 39929 40026 70522 8452/ 333 10328 56399 58002 70000 84615 88458=
41850,2024,06,05,18,00,AAXX 05184 41850 NIL=
41850,2024,06,06,00,00,AAXX 06004 41850 11420 80000 10252 20240 39965 40064 60026 70562 8352/ 333 56399 58014 70020 83615 88458=
41850,2024,06,06,06,00,AAXX 06064 41850 11450 71303 10310 20250 39963 40060 60016 70562 83510 333 56290 59001 70030 83618 87459=
41850,2024,06,06,12,00,AAXX 06124 41850 31450 40202 10306 20260 39924 40020 70522 82510 333 10337 56990 58000 70030 82618 84459=
41850,2024,06,06,18,00,AAXX 06184 41850 31440 50000 10277 20270 39943 40040 70522 82510 333 56990 59007 70030 82618 85458=
41851,2024,05,31,00,00,AAXX 31004 41851 11340 80902 10235 20235 39956 40019 60739 79596 8592/ 333 56399 58010 71198 82708 84615 81929 88456=
41851,2024,05,31,06,00,AAXX 31064 41851 11350 81502 10281 20230 39981 40043 69956 70296 8462/ 333 56399 58017 70968 81709 83617 88457=
41851,2024,05,31,12,00,AAXX 31124 41851 32450 60000 10292 20250 39950 40012 82520 333 10298 56990 58006 70968 82618 86458=
41851,2024,05,31,18,00,AAXX 31184 41851 32450 80000 10274 20260 39970 40032 8352/ 333 56999 58006 70735 83618 88458=
41851,2024,06,01,00,00,AAXX 01004 41851 32450 80901 10265 20260 39978 40041 8352/ 333 56999 58022 70005 83618 88458=
41851,2024,06,03,06,00,AAXX 03064 41851 11450 60901 10320 20250 39983 40044 60025 70262 82510 333 56990 59005 70128 82618 86458=
41851,2024,06,03,12,00,AAXX 03124 41851 32450 80000 10319 20270 39941 40002 8352/ 333 10340 56999 59019 70128 83618 88458=
41851,2024,06,03,18,00,AAXX 03184 41851 11450 80902 10240 20240 39977 40040 60287 71396 8332/ 333 56999 58000 70303 83618 81929 88458=
41851,2024,06,04,00,00,AAXX 04004 41851 11340 80902 10221 20220 39988 40052 60489 79596 8492/ 333 56299 58017 70786 81708 84616 81929 88456=
41851,2024,06,04,06,00,AAXX 04064 41851 11450 40902 10300 20250 39988 40050 60056 70196 82530 333 58005 70817 82618 83362=
41851,2024,06,04,12,00,AAXX 04124 41851 32450 51301 10302 20240 39965 40027 83530 333 10320 56990 58024 70817 83618 84362=
41851,2024,06,04,18,00,AAXX 04184 41851 32450 81301 10275 20260 39998 40060 8352/ 333 56999 58021 70534 83618 88458=
41851,2024,06,05,00,00,AAXX 05004 41851 32350 81301 10246 20240 39987 40050 8462/ 333 56299 59001 70051 81709 83617 88457=
41851,2024,06,05,06,00,AAXX 05064 41851 32450 80501 10310 20250 30000 40061 8352/ 333 56999 58012 70000 83618 88458=
41851,2024,06,05,12,00,AAXX 05124 41851 32450 50000 10312 20250 39964 40025 83510 333 10335 56990 59001 70000 83618 85458=
41851,2024,06,05,18,00,AAXX 05184 41851 31350 81302 10286 20260 39984 40046 71722 8432/ 333 56999 59014 70000 83617 81930 88457=
41851,2024,06,06,00,00,AAXX 06004 41851 11450 80901 10251 20240 39992 40055 60508 70296 8352/ 333 56999 58005 70495 83617 88457=
41851,2024,06,06,06,00,AAXX 06064 41851 32450 80901 10315 20260 39998 40059 8352/ 333 56999 59002 70495 83618 88458=
41851,2024,06,06,12,00,AAXX 06124 41851 32450 51201 10320 20250 39960 40021 83430 333 10338 56990 59004 70495 82618 83362=
41851,2024,06,06,18,00,AAXX 06184 41851 32450 20000 10278 20270 39979 40041 82500 333 56900 59005 70495 82618=
41856,2024,05,31,00,00,AAXX 31004 41856 11330 80901 10225 20220 30000 40036 60219 76366 8672/ 333 56299 58023 70606 83708 84616 88456=
41856,2024,05,31,06,00,AAXX 31064 41856 11350 80902 10267 20230 30011 40046 60108 70262 8672/ 333 56999 58026 70330 83708 84616 88456=
41856,2024,05,31,12,00,AAXX 31124 41856 32450 50902 10295 20260 39985 40020 84430 333 10305 56990 58012 70330 83618 83362=
41856,2024,05,31,18,00,AAXX 31184 41856 32430 50000 10270 20250 30005 40040 84430 333 56990 58011 70310 83618 83362=
41856,2024,06,01,00,00,AAXX 01004 41856 32440 80000 10260 20250 30008 40043 8452/ 333 56999 58008 70100 84618 88458=
41856,2024,06,03,06,00,AAXX 03064 41856 32456 61301 10314 20250 30010 40045 84530 333 56990 59007 70053 83618 84458=
41856,2024,06,03,12,00,AAXX 03124 41856 32950 40000 10325 20270 39972 40006 84030 333 10345 56090 59015 70053 84362=
41856,2024,06,03,18,00,AAXX 03184 41856 11430 80602 10238 20230 30015 40051 60164 71792 8632/ 333 56999 58005 70215 84618 88458 81925=
41856,2024,06,04,00,00,AAXX 04004 41856 31340 80502 10247 20240 30017 40053 70292 8662/ 333 56299 58009 70162 83710 84618 88458=
41856,2024,06,04,06,00,AAXX 04064 41856 11450 30901 10292 20250 30022 40057 60078 70166 81530 333 56290 58012 70232 81618 83362=
41856,2024,06,04,12,00,AAXX 04124 41856 32450 20000 10300 20250 39992 40027 82400 333 10317 56900 58020 70232 81830=
41856,2024,06,04,18,00,AAXX 04184 41856 32430 40000 10270 20250 30026 40061 84400 333 56900 58011 70070 83618=
41856,2024,06,05,00,00,AAXX 05004 41856 11440 60000 10227 20227 30018 40054 60387 70196 82530 333 56990 58001 70450 82618 84362=
41856,2024,06,05,06,00,AAXX 05064 41856 32456 61301 10305 20250 30028 40063 82530 333 56990 58006 70380 82618 85362=
41856,2024,06,05,12,00,AAXX 05124 41856 32450 60000 10310 20260 39993 40028 83420 333 10325 56990 58001 70380 82618 86458=
41856,2024,06,05,18,00,AAXX 05184 41856 31430 80502 10280 20250 30014 40049 71792 8692/ 333 56199 59012 70380 83710 85615 88458 81930=
41856,2024,06,06,00,00,AAXX 06004 41856 11440 81302 10250 20240 30021 40057 60269 72996 8562/ 333 56399 58003 70256 83709 85615 88457=
41856,2024,06,06,06,00,AAXX 06064 41856 32450 50000 10300 20230 30025 40060 83430 333 56990 59003 70256 82618 85362=
41856,2024,06,06,12,00,AAXX 06124 41856 32550 10000 10320 20250 39989 40024 81800 333 10337 56900 59004 70256 81825=
41856,2024,06,06,18,00,AAXX 06184 41856 32930 00000 10272 20250 30009 40044 333 59005 70256=
41858,2024,05,31,00,00,AAXX 31004 41858 01420 80906 10232 20220 39982 40028 79596 8452/ 333 58018 70256 83615 88458 81925==
41858,2024,05,31,03,00,AAXX 31034 41858 01440 73205 10266 20250 30000 40045 70596 84520 333 20220 58015 70266 84615 86458==
41858,2024,05,31,06,00,AAXX 31064 41858 11450 80000 10298 20250 30000 40045 60016 70596 8452/ 333 58021 70266 84615 88458==
41858,2024,05,31,12,00,AAXX 31124 41858 01450 80605 10292 20250 39980 40025 70522 8452/ 333 58017 70266 84615 88458==
41858,2024,05,31,15,00,AAXX 31154 41858 01450 80000 10290 20250 39987 40032 70522 8452/ 333 58007 70266 84615 88458==
41858,2024,05,31,18,00,AAXX 31184 41858 01450 80000 10284 20250 39993 40038 70522 8452/ 333 58001 70266 84615 88458==
41858,2024,05,31,21,00,AAXX 31214 41858 01425 80000 10280 20260 39993 40038 71022 8452/ 333 58004 70010 84615 88458==
41858,2024,06,01,00,00,AAXX 01004 41858 01420 80000 10276 20260 39996 40041 71022 8452/ 333 58014 70010 84615 88458==
41858,2024,06,01,03,00,AAXX 01034 41858 01450 61505 10280 20220 30008 40053 70522 83520 333 20252 58008 70000 83615 86458==
41858,2024,06,03,06,00,AAXX 03064 41858 01450 60000 10330 20250 39998 40042 70522 83520 333 59010 70000 83616 86458==
41858,2024,06,03,09,00,AAXX 03094 41858 01450 61802 10350 20250 39977 40020 70522 83520 333 59014 70000 83616 86458==
41858,2024,06,03,12,00,AAXX 03124 41858 01450 40000 10338 20260 39962 40006 70522 82520 333 10354 59014 70000 82618 84458==
41858,2024,06,03,15,00,AAXX 03154 41858 01450 40905 10318 20260 39984 40028 70522 82520 333 59008 70000 82615 84458==
41858,2024,06,03,18,00,AAXX 03184 41858 21440 81206 10255 20240 30003 40049 70595 8452/ 333 59008 60347 70344 84615 88458==
41858,2024,06,03,21,00,AAXX 03214 41858 01440 81305 10252 20230 39998 40044 71722 8532/ 333 58010 70344 84615 88458 82930==
41858,2024,06,04,00,00,AAXX 04004 41858 01430 83604 10250 20230 30008 40054 79592 8592/ 333 58010 70006 84615 88458 82930==
41858,2024,06,04,03,00,AAXX 04034 41858 01450 50905 10260 20240 30013 40059 70596 83520 333 20235 58005 70390 83615 85458==
41858,2024,06,04,06,00,AAXX 04064 41858 11450 70905 10288 20250 30013 40058 60046 70562 84520 333 58015 70390 84616 86458==
41858,2024,06,04,09,00,AAXX 04094 41858 31550 30905 10318 20240 39992 40036 70522 83100 333 56900 58015 70390 83825=
41858,2024,06,04,12,00,AAXX 04124 41858 01450 30905 10308 20250 39985 40029 70522 83500 333 10320 58023 70390 83618==
41858,2024,06,04,15,00,AAXX 04154 41858 01440 80905 10290 20250 39997 40042 70522 8452/ 333 58013 70390 84615 88458==
41858,2024,06,04,18,00,AAXX 04184 41858 01440 80905 10270 20250 30013 40058 70522 8452/ 333 58010 70046 84615 88458==
41858,2024,06,04,21,00,AAXX 04214 41858 01440 70000 10270 20250 30010 40055 70522 84520 333 58012 70046 84615 87458==
41858,2024,06,05,00,00,AAXX 05004 41858 01450 70000 10270 20250 30007 40052 70522 84520 333 59001 70040 84615 87458==
41858,2024,06,05,03,00,AAXX 05034 41858 01450 61808 10290 20250 30026 40071 70522 83420 333 20245 59023 70000 83616 86460==
41858,2024,06,05,06,00,AAXX 05064 41858 01450 60905 10320 20240 30015 40059 70522 83420 333 59002 70000 82616 86460==
41858,2024,06,05,09,00,AAXX 05094 41858 01550 30905 10334 20230 39994 40038 70520 83100 333 58002 70000 83825==
41858,2024,06,05,12,00,AAXX 05124 41858 01450 60905 10324 20260 39981 40025 70522 83520 333 10335 59004 70000 83615 86459==
41858,2024,06,05,15,00,AAXX 05154 41858 01440 80000 10295 20280 39998 40043 72162 8452/ 333 58001 70006 84615 88458==
41858,2024,06,05,18,00,AAXX 05184 41858 21440 80000 10290 20270 30004 40049 70562 8452/ 333 58009 69965 70006 84615 88458==
41858,2024,06,05,21,00,AAXX 05214 41858 01420 81806 10250 20240 30022 40068 76396 8452/ 333 58012 70338 84615 88458==
41858,2024,06,06,00,00,AAXX 06004 41858 01420 80000 10258 20250 30027 40073 71096 8452/ 333 58020 70458 84615 88458==
41858,2024,06,06,03,00,AAXX 06034 41858 01450 70000 10270 20240 30032 40078 70592 84520 333 20242 58006 70456 84615 87458==
41858,2024,06,06,06,00,AAXX 06064 41858 01550 50905 10314 20240 30014 40059 70592 83130 333 59001 70458 83825 85362==
41858,2024,06,06,09,00,AAXX 06094 41858 01550 30000 10330 20230 39998 40042 70510 83100 333 58004 70458 83825==
41858,2024,06,06,12,00,AAXX 06124 41858 01950 00000 10320 20250 39977 40021 70510 333 10332 59004 70458==
41858,2024,06,06,15,00,AAXX 06154 41858 01950 00000 10296 20270 39987 40029 70500 333 59011 70000==
41858,2024,06,06,18,00,AAXX 06184 41858 01950 00000 10288 20270 39993 40038 70500 333 59011 70452==
41858,2024,06,06,21,00,AAXX 06214 41858 01925 00000 10280 20260 39996 40041 71000 333 59026 70120==
41859,2024,05,31,00,00,AAXX 31004 41859 01330 81303 10226 20226 39990 40027 79596 8692/ 333 58018 70260 84708 85614 88456 81929==
41859,2024,05,31,03,00,AAXX 31034 41859 01450 41302 10249 20240 30000 40037 70292 83420 333 20222 58005 70304 82618 84458==
41859,2024,05,31,06,00,AAXX 31064 41859 11450 80502 10298 20260 30007 40043 60026 70392 8562/ 333 58014 70291 83710 84618 88458==
41859,2024,05,31,09,00,AAXX 31094 41859 02450 70503 10312 20260 39984 40020 84510 333 58009 70291 84618 87458==
41859,2024,05,31,12,00,AAXX 31124 41859 02440 80502 10300 20260 39982 40018 8562/ 333 10313 58010 70291 83710 84618 88458==
41859,2024,05,31,15,00,AAXX 31154 41859 02430 80000 10286 20270 39995 40032 8562/ 333 58006 70291 83710 84618 88458==
41859,2024,05,31,18,00,AAXX 31184 41859 02430 80000 10280 20260 30004 40041 8562/ 333 58010 70281 83710 84618 88458==
41859,2024,05,31,21,00,AAXX 31214 41859 02430 80000 10275 20260 30000 40037 8562/ 333 58008 70281 83710 84618 88458==
41859,2024,06,01,00,00,AAXX 01004 41859 01440 81302 10278 20270 30005 40042 70522 8562/ 333 58015 70021 83710 84618 88458==
41859,2024,06,01,03,00,AAXX 01034 41859 01450 61302 10301 20260 30022 40058 70522 84620 333 20250 58022 70000 82710 83618 86458==
41859,2024,06,01,12,00,AAXX 01124 41859 NIL=
41859,2024,06,01,18,00,AAXX 01184 41859 NIL=
41859,2024,06,02,03,00,AAXX 02034 41859 NIL=
41859,2024,06,02,12,00,AAXX 02124 41859 NIL=
41859,2024,06,02,18,00,AAXX 02184 41859 NIL=
41859,2024,06,03,03,00,AAXX 03034 41859 NIL=
41859,2024,06,03,06,00,AAXX 03064 41859 02450 60000 10328 20250 30003 40039 84610 333 59013 70086 82710 83618 86458==
41859,2024,06,03,09,00,AAXX 03094 41859 02450 71302 10344 20250 39987 40024 84610 333 59011 70086 82710 83618 87458==
41859,2024,06,03,12,00,AAXX 03124 41859 02440 80000 10332 20260 39970 40007 8562/ 333 10346 59014 70086 83710 84618 88458==
41859,2024,06,03,15,00,AAXX 03154 41859 02430 81304 10301 20250 39993 40029 8562/ 333 59012 70086 83710 84618 88458==
41859,2024,06,03,18,00,AAXX 03184 41859 01330 81302 10241 20240 30009 40046 79592 8692/ 333 58002 70180 84708 85616 88456 81929==
41859,2024,06,03,21,00,AAXX 03214 41859 02430 80502 10242 20240 30003 40040 8562/ 333 58009 70190 83710 85618 88458==
41859,2024,06,04,00,00,AAXX 04004 41859 01330 80504 10243 20240 39999 40036 76122 8672/ 333 59002 70010 84708 85616 88456==
41859,2024,06,04,03,00,AAXX 04034 41859 01340 80000 10241 20240 30020 40057 76166 8672/ 333 20237 58004 70392 84702 85616 88456==
41859,2024,06,04,06,00,AAXX 04064 41859 21440 60404 10281 20260 30024 40061 70162 84620 333 58021 60208 70392 82710 83618 86458==
41859,2024,06,04,09,00,AAXX 04094 41859 02450 71302 10315 20250 30000 40036 85410 333 58013 70392 82618 83828 87458==
41859,2024,06,04,12,00,AAXX 04124 41859 02450 50000 10305 20260 39998 40034 84620 333 10317 58028 70392 82710 83618 85458==
41859,2024,06,04,15,00,AAXX 04154 41859 02430 81302 10284 20250 30008 40045 8562/ 333 58015 70392 82710 84618 88458==
41859,2024,06,04,18,00,AAXX 04184 41859 02430 81302 10280 20240 30024 40061 8562/ 333 58015 70212 83710 85618 88458==
41859,2024,06,04,21,00,AAXX 04214 41859 02430 80502 10275 20250 30020 40057 8562/ 333 58017 70212 83710 84618 88458==
41859,2024,06,05,00,00,AAXX 05004 41859 02440 80502 10268 20250 30017 40054 8562/ 333 58018 70202 83710 84618 88458==
41859,2024,06,05,03,00,AAXX 05034 41859 02440 80000 10288 20240 30036 40073 8562/ 333 20238 58012 70000 83710 84618 88458==
41859,2024,06,05,06,00,AAXX 05064 41859 02450 60000 10329 20240 30025 40061 84620 333 58001 70000 82710 83618 86458==
41859,2024,06,05,09,00,AAXX 05094 41859 02450 62302 10336 20260 30000 40037 84520 333 58000 70000 84618 86458==
41859,2024,06,05,12,00,AAXX 05124 41859 02450 60000 10323 20260 39991 40027 83520 333 10338 59007 70000 83618 86458==
41859,2024,06,05,15,00,AAXX 05154 41859 02430 80901 10300 20270 30010 40046 8562/ 333 58002 70000 83710 84618 88458==
41859,2024,06,05,18,00,AAXX 05184 41859 01330 81302 10256 20256 30013 40050 79592 8692/ 333 59011 70050 84708 85616 88456 81929==
41859,2024,06,05,21,00,AAXX 05214 41859 01330 81302 10253 20250 30016 40053 79596 8692/ 333 59004 70134 84708 85616 88456 81929==
41859,2024,06,06,00,00,AAXX 06004 41859 01330 81302 10253 20250 30016 40053 79596 8692/ 333 59004 70134 84708 85616 88456 81929==
41859,2024,06,06,03,00,AAXX 06034 41859 02440 80000 10263 20250 30041 40078 8562/ 333 20250 58005 70154 82710 83618 88458==
41859,2024,06,06,06,00,AAXX 06064 41859 02450 50000 10305 20250 30027 40063 84510 333 58002 70154 83618 85458==
41859,2024,06,06,09,00,AAXX 06094 41859 02450 41302 10327 20250 30003 40039 82520 333 58003 70154 82618 84458==
41859,2024,06,06,12,00,AAXX 06124 41859 02450 41302 10326 20250 39989 40025 82520 333 10335 59002 70154 82618 84458==
41859,2024,06,06,15,00,AAXX 06154 41859 02430 60000 10295 20270 39999 40035 83520 333 59011 70154 83618 86458==
41859,2024,06,06,18,00,AAXX 06184 41859 02430 80000 10280 20260 30008 40045 8562/ 333 59005 70102 83710 84618 88458==
41859,2024,06,06,21,00,AAXX 06214 41859 02430 80000 10272 20260 39997 40034 8562/ 333 59019 70020 83710 84618 88458==
41863,2024,05,31,00,00,AAXX 31004 41863 21450 80902 10235 20230 39972 40015 79596 8452/ 333 58044 60127 70120 84616 88458 81928==
41863,2024,05,31,03,00,AAXX 31034 41863 01456 32702 10280 20240 30000 40042 70196 83500 333 20226 58020 70130 83618==
41863,2024,05,31,06,00,AAXX 31064 41863 11456 80000 10298 20260 30001 40043 60016 70396 8452/ 333 58023 70130 84618 88458==
41863,2024,05,31,09,00,AAXX 31094 41863 02457 32702 10310 20260 39978 40020 83500 333 58018 70130 83618==
41863,2024,05,31,12,00,AAXX 31124 41863 02/57 40902 10302 20250 39973 40015 84020 333 10316 58011 70130 84458==
41863,2024,05,31,15,00,AAXX 31154 41863 02450 20000 10282 20260 39993 40035 82400 333 58017 70130 82618==
41863,2024,05,31,18,00,AAXX 31184 41863 02450 30000 10281 20260 39996 40038 83600 333 58015 70130 83710==
41863,2024,05,31,21,00,AAXX 31214 41863 02450 30910 10282 20260 39993 40035 83500 333 58018 70130 83618==
41863,2024,06,01,00,00,AAXX 01004 41863 02440 80000 10280 20260 39998 40040 8552/ 333 58026 70010 85618 85458==
41863,2024,06,03,06,00,AAXX 03064 41863 02457 51802 10333 20230 30001 40043 83520 333 59006 70000 83618 85458==
41863,2024,06,03,09,00,AAXX 03094 41863 02457 31302 10342 20250 39978 40019 83500 333 59012 70000 83618==
41863,2024,06,03,12,00,AAXX 03124 41863 02/57 31301 10340 20270 39962 40003 83030 333 10353 59013 70000 83362==
41863,2024,06,03,15,00,AAXX 03154 41863 02456 50000 10315 20280 39982 40024 83520 333 59010 70000 83618 85458==
41863,2024,06,03,18,00,AAXX 03184 41863 21450 80000 10241 20230 39989 40032 72996 8562/ 333 59004 60597 70590 82710 85616 88458==
41863,2024,06,03,21,00,AAXX 03214 41863 02950 80000 10245 20240 39987 40030 8552/ 333 59004 70590 85618 88458==
41863,2024,06,04,00,00,AAXX 04004 41863 01340 80902 10235 20240 39993 40036 79696 8692/ 333 59005 70540 83707 85614 88458 81925==
41863,2024,06,04,03,00,AAXX 04034 41863 01350 81802 10250 20240 30020 40063 70296 8562/ 333 20230 58012 71156 83709 85617 88456==
41863,2024,06,04,06,00,AAXX 04064 41863 11456 70903 10295 20250 30015 40057 60026 70196 84520 333 58014 71156 84618 87458==
41863,2024,06,04,09,00,AAXX 04094 41863 32457 20902 10315 20250 39991 40033 82500 333 56200 58013 71156 82618=
41863,2024,06,04,12,00,AAXX 04124 41863 02457 40000 10308 20250 39986 40028 82530 333 10318 58011 71156 82618 83362==
41863,2024,06,04,15,00,AAXX 04154 41863 02457 60000 10288 20260 39997 40039 83520 333 58005 71156 83618 86458==
41863,2024,06,04,18,00,AAXX 04184 41863 02457 80000 10282 20250 30014 40056 8452/ 333 58025 70566 84618 88458==
41863,2024,06,04,21,00,AAXX 04214 41863 02457 80000 10275 20260 30009 40051 8452/ 333 58022 70566 84618 88458==
41863,2024,06,05,00,00,AAXX 05004 41863 02456 80902 10268 20250 30009 40052 8452/ 333 58016 70024 84618 88458==
41863,2024,06,05,03,00,AAXX 05034 41863 02457 61803 10290 20250 30026 40068 83520 333 20243 58006 70000 83618 86458==
41863,2024,06,05,06,00,AAXX 05064 41863 NIL=
41863,2024,06,05,09,00,AAXX 05094 41863 02457 30901 10340 20260 39994 40035 83400 333 58003 70000 83618==
41863,2024,06,05,12,00,AAXX 05124 41863 02457 20000 10331 20260 39981 40023 82400 333 10340 59005 70000 82618==
41863,2024,06,05,15,00,AAXX 05154 41863 02950 00000 10306 20270 30001 40034 333 58004 70000==
41863,2024,06,05,18,00,AAXX 05184 41863 02440 80000 10300 20270 30008 40050 8552/ 333 59006 70000 85617 88458==
41863,2024,06,05,21,00,AAXX 05214 41863 01340 80903 10260 20240 30009 40052 79596 8592/ 333 58000 70230 83707 84615 88456 81930==
41863,2024,06,06,00,00,AAXX 06004 41863 21340 82703 10255 20250 30021 40064 79596 8592/ 333 58012 60479 70470 83707 84615 88457 81930==
41863,2024,06,06,03,00,AAXX 06034 41863 01350 82702 10270 20250 30039 40082 70296 8562/ 333 20240 58013 70494 83709 84617 88456==
41863,2024,06,06,06,00,AAXX 06064 41863 11456 70903 10311 20250 30016 40058 60026 70196 84520 333 59001 70494 84618 87458==
41863,2024,06,06,09,00,AAXX 06094 41863 02457 51301 10330 20240 30003 40045 83520 333 58009 70494 83618 85458==
41863,2024,06,06,12,00,AAXX 06124 41863 02957 00000 10322 20250 39978 40020 333 10335 59003 70494==
41863,2024,06,06,15,00,AAXX 06154 41863 02450 20000 10289 20270 39991 40033 82500 333 59010 70494 82618==
41863,2024,06,06,18,00,AAXX 06184 41863 02450 20000 10279 20270 39999 40041 82500 333 59009 70494 82618==
41863,2024,06,06,21,00,AAXX 06214 41863 02/50 20000 10274 20260 39993 40036 82030 333 59016 70264 82362==
41881,2024,05,31,00,00,AAXX 31004 41881 32456 80901 10246 20240 30003 40023 8552/ 333 56299 58022 70000 85616 88458=
41881,2024,05,31,06,00,AAXX 31064 41881 32458 71702 10300 20250 30011 40031 84520 333 56490 58016 70000 84618 87460=
41881,2024,05,31,12,00,AAXX 31124 41881 32458 83601 10325 20270 39993 40013 8552/ 333 10340 56999 58017 70000 85618 88460=
41881,2024,05,31,18,00,AAXX 31184 41881 32456 53602 10280 20260 30021 40041 83520 333 56990 58014 70000 83618 85460=
41881,2024,06,01,00,00,AAXX 01004 41881 32456 81701 10272 20250 30016 40036 8552/ 333 56499 58013 70000 85618 88460=
41881,2024,06,03,06,00,AAXX 03064 41881 32457 61202 10335 20270 30017 40037 83520 333 56990 59015 70190 83616 86459=
41881,2024,06,03,12,00,AAXX 03124 41881 32457 51802 10340 20260 39985 40005 83520 333 10357 56990 59017 70190 83616 85459=
41881,2024,06,03,18,00,AAXX 03184 41881 32456 71802 10302 20260 30014 40034 84520 333 56490 59004 70190 84618 87460=
41881,2024,06,04,00,00,AAXX 04004 41881 32457 61702 10265 20250 30016 40036 83520 333 56990 59011 70000 83618 86460=
41881,2024,06,04,06,00,AAXX 04064 41881 11457 21502 10310 20250 30033 40053 60236 70196 82500 333 56900 58016 70230 82617=
41881,2024,06,04,12,00,AAXX 04124 41881 32456 70903 10302 20260 30002 40022 84520 333 10330 56990 58017 70230 84618 87459=
41881,2024,06,04,18,00,AAXX 04184 41881 32450 80903 10278 20260 30030 40050 84520 333 56990 58016 70230 84617 87459=
41881,2024,06,05,00,00,AAXX 05004 41881 32456 70802 10261 20260 30029 40049 84520 333 56990 58013 70230 84617 87459=
41881,2024,06,05,06,00,AAXX 05064 41881 32458 60901 10320 20250 30037 40056 83520 333 56990 58004 70000 83617 86459=
41881,2024,06,05,12,00,AAXX 05124 41881 32456 70901 10325 20280 30002 40021 84520 333 10340 56990 58000 70000 84617 87459=
41881,2024,06,05,18,00,AAXX 05184 41881 11450 80000 10265 20240 30033 40053 60158 70262 8552/ 333 56999 58003 70150 85618 88459=
41881,2024,06,06,00,00,AAXX 06004 41881 11456 80901 10245 20240 30038 40058 60098 71796 8592/ 333 56799 58009 70240 84615 82930 88458=
41881,2024,06,06,06,00,AAXX 06064 41881 11457 60000 10290 20250 30034 40054 60105 70196 83520 333 56990 59003 70335 83615 86458=
41881,2024,06,06,12,00,AAXX 06124 41881 32458 60802 10310 20260 30014 40034 83520 333 56290 58010 70335 83616 86459=
41881,2024,06,06,18,00,AAXX 06184 41881 NIL=
41883,2024,05,31,00,00,AAXX 31004 41883 02350 80000 10274 20260 30008 40028 8562/ 333 58017 70000 85710 88458==
41883,2024,05,31,03,00,AAXX 31034 41883 02450 80000 10294 20260 30016 40036 8562/ 333 20265 58009 70000 82710 84618 88458==
41883,2024,05,31,06,00,AAXX 31064 41883 02450 61302 10324 20270 30013 40033 83520 333 58015 70000 83618 86458==
41883,2024,05,31,09,00,AAXX 31094 41883 02456 82302 10335 20270 39991 40011 8352/ 333 58011 70000 83616 88459==
41883,2024,05,31,12,00,AAXX 31124 41883 02456 60902 10330 20270 39993 40013 84420 333 10342 58015 70000 82616 83828 86459==
41883,2024,05,31,15,00,AAXX 31154 41883 02430 80902 10302 20260 30007 40027 8552/ 333 58006 70000 85616 88459==
41883,2024,05,31,18,00,AAXX 31184 41883 02430 80000 10290 20260 30022 40042 8562/ 333 55117 58022 70000 85616==
41883,2024,05,31,21,00,AAXX 31214 41883 02430 80000 10280 20260 30017 40037 8552/ 333 58032 70000 85616 88459==
41883,2024,06,01,00,00,AAXX 01004 41883 02440 80000 10275 20260 30018 40038 8552/ 333 58008 70000 85616 88459==
41883,2024,06,01,03,00,AAXX 01034 41883 02456 60000 10308 20270 30037 40057 83510 333 20270 58021 70000 83616 86459==
41883,2024,06,03,06,00,AAXX 03064 41883 02456 41802 10336 20270 30020 40040 84400 333 59009 70530 83616==
41883,2024,06,03,09,00,AAXX 03094 41883 02/56 21804 10358 20260 39998 40017 82030 333 59015 70530 82362==
41883,2024,06,03,12,00,AAXX 03124 41883 02/56 21302 10344 20260 39988 40008 82030 333 10360 59015 70530 82362==
41883,2024,06,03,15,00,AAXX 03154 41883 02430 80904 10294 20250 30016 40036 8552/ 333 58003 70530 85615 88458==
41883,2024,06,03,18,00,AAXX 03184 41883 02430 81305 10284 20250 30023 40043 8552/ 333 58001 70380 85615 88458==
41883,2024,06,03,21,00,AAXX 03214 41883 02330 80000 10276 20260 30023 40043 8562/ 333 58012 70280 85709 88458==
41883,2024,06,04,00,00,AAXX 04004 41883 02440 81302 10258 20240 30020 40040 8552/ 333 59005 70000 85615 88458==
41883,2024,06,04,03,00,AAXX 04034 41883 01450 80000 10254 20240 30051 40071 72996 8462/ 333 20244 58023 70150 82710 83618 88458==
41883,2024,06,04,06,00,AAXX 04064 41883 21450 80904 10314 20240 30034 40054 70296 8452/ 333 58014 60158 70150 84618 88458==
41883,2024,06,04,09,00,AAXX 04094 41883 02456 80902 10330 20260 30016 40036 8552/ 333 58018 70150 85616 88459==
41883,2024,06,04,12,00,AAXX 04124 41883 02450 80904 10304 20250 30004 40024 8552/ 333 10334 58016 70150 85616 88459==
41883,2024,06,04,15,00,AAXX 04154 41883 02430 80903 10286 20260 30022 40042 8552/ 333 58006 70150 85616 88459==
41883,2024,06,04,18,00,AAXX 04184 41883 02330 80902 10280 20260 30033 40053 8562/ 333 58010 70150 85709 88458==
41883,2024,06,04,21,00,AAXX 04214 41883 02330 80902 10274 20250 30027 40047 8562/ 333 58004 70150 85709 88458==
41883,2024,06,05,00,00,AAXX 05004 41883 02440 80902 10270 20250 30030 40050 8552/ 333 58010 70150 85615 88458==
41883,2024,06,05,03,00,AAXX 05034 41883 02456 80902 10294 20260 30047 40067 8452/ 333 20246 59004 70000 84616 88459==
41883,2024,06,05,06,00,AAXX 05064 41883 02456 60902 10324 20260 30038 40058 84410 333 58004 70000 82616 83828 86459==
41883,2024,06,05,09,00,AAXX 05094 41883 02456 30902 10336 20270 30014 40034 83800 333 59002 70000 81616 83828==
41883,2024,06,05,12,00,AAXX 05124 41883 02/56 20902 10325 20270 30003 40023 82030 333 10340 59001 70000 82362==
41883,2024,06,05,15,00,AAXX 05154 41883 01330 81304 10305 20270 30021 40041 71300 8532/ 333 59001 70000 85616 88459 81930==
41883,2024,06,05,18,00,AAXX 05184 41883 02430 81302 10296 20260 30033 40053 8552/ 333 58000 70000 85616 88459==
41883,2024,06,05,21,00,AAXX 05214 41883 02330 81302 10290 20260 30039 40059 8562/ 333 58012 70000 85710 88459==
41883,2024,06,06,00,00,AAXX 06004 41883 02330 81302 10290 20260 30039 40059 8562/ 333 58012 70000 85710 88459==
41883,2024,06,06,03,00,AAXX 06034 41883 01350 82302 10260 20240 30058 40078 70296 8562/ 333 20240 58011 70520 85709 88458==
41883,2024,06,06,06,00,AAXX 06064 41883 01456 60902 10378 20260 30040 40060 70196 84510 333 58002 70534 84615 86458==
41883,2024,06,06,09,00,AAXX 06094 41883 02456 40000 10326 20260 30018 40038 82510 333 58004 70534 82618 84458==
41883,2024,06,06,12,00,AAXX 06124 41883 02950 00000 10314 20270 30001 40021 333 10334 59002 70534==
41883,2024,06,06,15,00,AAXX 06154 41883 02/30 30902 10290 20270 30017 40037 83030 333 59004 70534 83362==
41883,2024,06,06,18,00,AAXX 06184 41883 02/30 31302 10286 20270 30020 40040 83030 333 59013 70534 83362==
41883,2024,06,06,21,00,AAXX 06214 41883 02/30 31302 10280 20260 30015 40035 83030 333 59024 70534 83362==
41886,2024,05,31,00,00,AAXX 31004 41886 02456 71302 10268 20250 30021 40042 82570 333 58022 70005 82616 84460 85362==
41886,2024,05,31,03,00,AAXX 31034 41886 02456 80904 10290 20270 30032 40052 8452/ 333 20245 58005 70005 84616 88458==
41886,2024,05,31,06,00,AAXX 31064 41886 02456 81304 10315 20280 30025 40045 8452/ 333 58011 70000 84616 88458==
41886,2024,05,31,09,00,AAXX 31094 41886 02458 20903 10330 20250 39996 40016 82500 333 59005 70000 82618==
41886,2024,05,31,12,00,AAXX 31124 41886 02456 82301 10315 20260 30001 40021 8452/ 333 10335 59004 70000 84616 88458==
41886,2024,05,31,15,00,AAXX 31154 41886 02450 81802 10295 20280 30019 40039 8452/ 333 58003 70000 84616 88458==
41886,2024,05,31,18,00,AAXX 31184 41886 02450 31601 10280 20260 30029 40050 83500 333 58007 70000 83618==
41886,2024,05,31,21,00,AAXX 31214 41886 02/50 60000 10280 20260 30029 40050 86030 333 58007 70000 86363==
41886,2024,06,01,00,00,AAXX 01004 41886 01/50 60000 10270 20260 30028 40049 70522 86030 333 58007 70000 86363==
41886,2024,06,01,03,00,AAXX 01034 41886 01450 71303 10305 20270 30044 40064 70522 84410 333 20270 58012 70000 83618 87460==
41886,2024,06,03,06,00,AAXX 03064 41886 11450 80000 10330 20270 30032 40052 60066 70396 8452/ 333 59008 70070 84616 88458==
41886,2024,06,03,09,00,AAXX 03094 41886 01456 71006 10310 20260 30012 40032 70196 83570 333 59011 70071 83618 87460==
41886,2024,06,03,12,00,AAXX 03124 41886 11450 81306 10287 20260 30008 40028 69916 70396 8532/ 333 10333 59007 70061 83616 88458 81930==
41886,2024,06,03,15,00,AAXX 03154 41886 02450 71302 10270 20250 30035 40056 82570 333 58003 70061 82618 87460==
41886,2024,06,03,18,00,AAXX 03184 41886 02450 71102 10268 20250 30037 40058 83570 333 58007 70061 83618 87460==
41886,2024,06,03,21,00,AAXX 03214 41886 02450 81001 10263 20240 30035 40056 8252/ 333 58004 70061 83618 88460==
41886,2024,06,04,00,00,AAXX 04004 41886 02450 80000 10260 20240 30035 40056 8532/ 333 58005 70061 83616 88458 81930==
41886,2024,06,04,03,00,AAXX 04034 41886 02450 81202 10275 20260 30057 40078 8532/ 333 20259 58013 70001 83616 88458 81930==
41886,2024,06,04,06,00,AAXX 04064 41886 01350 81202 10266 20260 30040 40061 71796 8632/ 333 58008 70060 83710 85616 88458 81930==
41886,2024,06,04,09,00,AAXX 04094 41886 31457 71108 10300 20250 30030 40050 70192 83510 333 56990 58016 70060 83618 87460=
41886,2024,06,04,12,00,AAXX 04124 41886 01456 81104 10285 20260 30019 40039 70392 8432/ 333 10306 58011 70060 84616 88458 81930==
41886,2024,06,04,15,00,AAXX 04154 41886 02450 80904 10270 20250 30033 40054 8452/ 333 59002 70060 84616 88458==
41886,2024,06,04,18,00,AAXX 04184 41886 02450 80904 10268 20250 30048 40069 8452/ 333 58011 70060 84616 88458==
41886,2024,06,04,21,00,AAXX 04214 41886 02350 81303 10265 20250 30041 40062 8662/ 333 58006 70060 84710 85616 88458==
41886,2024,06,05,00,00,AAXX 05004 41886 02356 81303 10260 20240 30035 40056 8662/ 333 58000 70060 84710 85616 88458==
41886,2024,06,05,03,00,AAXX 05034 41886 02356 80903 10270 20240 30058 40079 8562/ 333 20260 58001 70060 83710 84616 88458==
41886,2024,06,05,06,00,AAXX 05064 41886 02457 81106 10305 20250 30052 40072 8351/ 333 58012 70000 83618 88460==
41886,2024,06,05,09,00,AAXX 05094 41886 02457 60908 10320 20250 30023 40043 81510 333 59007 70000 81618 86460==
41886,2024,06,05,12,00,AAXX 05124 41886 02/57 61304 10308 20260 30013 40033 86010 333 10322 59006 70000 86460==
41886,2024,06,05,15,00,AAXX 05154 41886 02450 81304 10285 20260 30035 40055 8351/ 333 58002 70000 83618 88460==
41886,2024,06,05,18,00,AAXX 05184 41886 02450 81302 10280 20250 30042 40063 8251/ 333 59006 70000 82618 88460==
41886,2024,06,05,21,00,AAXX 05214 41886 02450 80000 10270 20250 30042 40063 8452/ 333 58001 70000 84616 88458==
41886,2024,06,06,00,00,AAXX 06004 41886 01350 80000 10242 20240 30046 40067 79562 8632/ 333 58011 70370 83710 85616 88458 81930==
41886,2024,06,06,03,00,AAXX 06034 41886 01350 81304 10248 20240 30054 40075 70296 8672/ 333 20237 59004 70414 83710 85616 88458==
41886,2024,06,06,06,00,AAXX 06064 41886 11456 81302 10285 20260 30049 40069 60046 70296 8551/ 333 59003 70414 85616 88458==
41886,2024,06,06,09,00,AAXX 06094 41886 02456 50000 10317 20250 30021 40041 83570 333 59002 70414 83618 85460==
41886,2024,06,06,12,00,AAXX 06124 41886 02956 00000 10312 20260 30010 40030 333 10326 59003 70414==
41886,2024,06,06,15,00,AAXX 06154 41886 02956 00000 10290 20260 30028 40049 333 59007 70414==
41886,2024,06,06,18,00,AAXX 06184 41886 02956 00000 10280 20260 30029 40050 333 59013 70414==
41886,2024,06,06,21,00,AAXX 06214 41886 02950 00000 10270 20260 30030 40051 333 59015 70414==
41888,2024,05,31,00,00,AAXX 31004 41888 32450 80902 10262 20240 30029 40039 8352/ 333 56999 58022 70134 83618 88460=
41888,2024,05,31,06,00,AAXX 31064 41888 32456 70905 10309 20270 30031 40041 83510 333 56990 58005 70134 83618 86460=
41888,2024,05,31,12,00,AAXX 31124 41888 32356 80901 10310 20260 30009 40019 8462/ 333 10325 56999 59006 70014 82710 84616 88458=
41888,2024,05,31,18,00,AAXX 31184 41888 32450 50000 10280 20270 30037 40047 82510 333 56990 58007 70000 82618 85460=
41888,2024,06,01,00,00,AAXX 01004 41888 31430 70000 10271 20270 30036 40046 70522 82510 333 56990 58007 70000 82618 87460=
41888,2024,06,03,06,00,AAXX 03064 41888 11456 80701 10286 20250 30043 40053 60038 70296 8432/ 333 56999 59005 70238 83618 81930 88460=
41888,2024,06,03,12,00,AAXX 03124 41888 32350 80908 10280 20250 30022 40032 8362/ 333 10305 56999 59001 70038 81710 83616 88459=
41888,2024,06,03,18,00,AAXX 03184 41888 11340 80907 10266 20250 30047 40057 69913 72162 8462/ 333 56999 58006 70039 81710 84616 88458=
41888,2024,06,04,00,00,AAXX 04004 41888 11440 80901 10240 20240 30046 40056 60043 72162 8452/ 333 56999 58007 70066 84617 88459=
41888,2024,06,04,06,00,AAXX 04064 41888 11340 80901 10264 20240 30046 40056 69972 75096 8372/ 333 56999 58003 70043 81708 83616 88458=
41888,2024,06,04,12,00,AAXX 04124 41888 11450 80905 10274 20250 30028 40038 69911 70265 8432/ 333 10289 56999 58006 70044 83617 81930 88459=
41888,2024,06,04,18,00,AAXX 04184 41888 32450 80903 10265 20250 30055 40065 8252/ 333 56999 58008 70043 82618 88460=
41888,2024,06,05,00,00,AAXX 05004 41888 32450 80904 10250 20230 30047 40057 8352/ 333 56999 58001 70008 83617 88460=
41888,2024,06,05,06,00,AAXX 05064 41888 32456 70902 10305 20240 30058 40068 82510 333 56990 58012 70008 82618 87460=
41888,2024,06,05,12,00,AAXX 05124 41888 32957 00902 10301 20250 30021 40031 333 10317 59007 70000=
41888,2024,06,05,18,00,AAXX 05184 41888 32950 00901 10275 20260 30048 40058 333 59007 70000=
41888,2024,06,06,00,00,AAXX 06004 41888 11335 80601 10270 20260 30050 40060 69914 79592 8492/ 333 56999 58003 70001 82708 83616 81928 88458=
41888,2024,06,06,06,00,AAXX 06064 41888 11350 80901 10285 20250 30057 40067 60439 72996 8492/ 333 56999 59001 70432 82708 83616 81928 88458=
41888,2024,06,06,12,00,AAXX 06124 41888 32450 60501 10300 20250 30017 40027 82510 333 10315 56990 59004 70432 82618 86460=
41888,2024,06,06,18,00,AAXX 06184 41888 NIL=
41891,2024,05,31,00,00,AAXX 31004 41891 01430 80902 10250 20230 30008 40046 70522 8532/ 333 58007 70610 82710 83615 88458 81930==
41891,2024,05,31,03,00,AAXX 31034 41891 01430 81205 10288 20250 30016 40054 70522 8532/ 333 20225 59008 70270 81710 84615 88459 81930==
41891,2024,05,31,06,00,AAXX 31064 41891 01440 70604 10315 20270 30011 40048 70522 84370 333 58003 70250 84615 86460 81930==
41891,2024,05,31,09,00,AAXX 31094 41891 01330 81204 10285 20280 39987 40025 79596 8632/ 333 58028 70303 85708 88458 81926==
41891,2024,05,31,12,00,AAXX 31124 41891 21440 80404 10285 20260 39984 40022 70596 82530 333 10323 59012 60068 70071 82616 84365==
41891,2024,05,31,15,00,AAXX 31154 41891 01430 80202 10272 20250 30003 40041 70522 8532/ 333 58001 70055 81710 84615 88458 81930==
41891,2024,05,31,18,00,AAXX 31184 41891 01430 81202 10275 20260 30011 40049 75022 8532/ 333 58005 70055 81710 84615 88458 81930==
41891,2024,05,31,21,00,AAXX 31214 41891 01430 81802 10265 20250 30012 40050 70522 8532/ 333 58005 70055 81710 84615 84460 81930==
41891,2024,06,01,00,00,AAXX 01004 41891 21325 82704 10257 20257 30014 40052 76362 8632/ 333 58006 60025 70073 86708 88458 81925==
41891,2024,06,01,03,00,AAXX 01034 41891 01440 80903 10275 20260 30031 40069 70562 8532/ 333 20255 58023 70127 82708 83615 88458 81930==
41891,2024,06,03,06,00,AAXX 03064 41891 21320 82705 10250 20240 30029 40068 79596 8632/ 333 58002 60479 72737 86707 88457 81925==
41891,2024,06,03,09,00,AAXX 03094 41891 01330 81004 10267 20240 30006 40044 79599 8532/ 333 58000 72747 85708 88458 81926==
41891,2024,06,03,12,00,AAXX 03124 41891 21335 81004 10260 20240 30007 40045 76096 8632/ 333 10272 59003 60029 72682 85708 88458 81926==
41891,2024,06,03,15,00,AAXX 03154 41891 01435 81005 10255 20240 30023 40061 72196 8532/ 333 58007 72690 82710 84615 88458 81930==
41891,2024,06,03,18,00,AAXX 03184 41891 11430 80904 10255 20250 30029 40067 60001 70562 8532/ 333 58012 72534 82710 84615 88458 81930==
41891,2024,06,03,21,00,AAXX 03214 41891 01430 80804 10252 20240 30021 40059 70522 8532/ 333 59003 71710 82710 84615 88458 81930==
41891,2024,06,04,00,00,AAXX 04004 41891 01320 80708 10250 20250 30029 40068 76096 8632/ 333 58003 70030 85708 88458 81928==
41891,2024,06,04,03,00,AAXX 04034 41891 01430 80404 10260 20240 30045 40084 72162 8532/ 333 20248 58015 70306 82710 84615 88459 81930==
41891,2024,06,04,06,00,AAXX 04064 41891 01430 80904 10265 20250 30032 40070 70562 8532/ 333 58003 70346 82710 84615 88458 81930==
41891,2024,06,04,09,00,AAXX 04094 41891 01445 80903 10260 20240 30025 40064 70562 8532/ 333 58019 70644 82710 84615 88458 81930==
41891,2024,06,04,12,00,AAXX 04124 41891 11440 80000 10260 20240 30006 40044 60316 70562 8532/ 333 10272 58001 70634 82710 84616 88458 81930==
41891,2024,06,04,15,00,AAXX 04154 41891 01430 81004 10252 20240 30029 40067 70522 8532/ 333 58006 70634 82710 83616 88458 81930==
41891,2024,06,04,18,00,AAXX 04184 41891 01330 80504 10255 20250 30032 40070 70522 8532/ 333 58003 70634 85710 88458 81928==
41891,2024,06,04,21,00,AAXX 04214 41891 01330 81004 10230 20230 30029 40068 79596 8632/ 333 58008 71034 86708 88456 81926==
41891,2024,06,05,00,00,AAXX 05004 41891 01330 81004 10232 20230 30026 40065 76096 8632/ 333 59003 71434 85710 88458 81926==
41891,2024,06,05,03,00,AAXX 05034 41891 01435 80404 10274 20220 30039 40077 70562 8532/ 333 20230 59006 71370 82710 84616 88458 81930==
41891,2024,06,05,06,00,AAXX 05064 41891 01440 81004 10270 20230 30034 40072 72162 8532/ 333 58002 70140 82710 84615 88458 81930==
41891,2024,06,05,09,00,AAXX 05094 41891 01440 60804 10302 20240 30008 40046 70522 83340 333 59017 70970 83615 85365 81930==
41891,2024,06,05,12,00,AAXX 05124 41891 01440 60604 10290 20230 39999 40037 70522 83340 333 10310 59007 70970 83615 85365 81930==
41891,2024,06,05,15,00,AAXX 05154 41891 01430 30902 10265 20250 30017 40055 70520 83500 333 59012 70970 83616==
41891,2024,06,05,18,00,AAXX 05184 41891 01430 30000 10261 20240 30025 40064 70520 83500 333 59007 70970 83616==
41891,2024,06,05,21,00,AAXX 05214 41891 01430 60902 10262 20240 30026 40065 70520 83340 333 59003 70570 83616 85365 81930==
41891,2024,06,06,00,00,AAXX 06004 41891 01430 60902 10262 20240 30026 40065 70520 83340 333 59003 70570 83616 85365 81930==
41891,2024,06,06,03,00,AAXX 06034 41891 01435 81006 10268 20250 30042 40080 70522 8532/ 333 20235 58003 70140 82710 83616 88459 81930==
41891,2024,06,06,06,00,AAXX 06064 41891 22340 81004 10270 20240 30031 40069 59003 88458 333 60017==
41891,2024,06,06,09,00,AAXX 06094 41891 01440 61204 10294 20230 30006 40044 70522 83340 333 59002 70010 83615 85365 81930==
41891,2024,06,06,12,00,AAXX 06124 41891 01440 60904 10292 20250 39994 40032 70522 83340 333 10301 59005 70010 83615 85365 81930==
41891,2024,06,06,15,00,AAXX 06154 41891 01440 71004 10272 20250 30012 40050 70522 84370 333 59005 70010 84615 86460 81930==
41891,2024,06,06,18,00,AAXX 06184 41891 01440 80904 10268 20260 30010 40048 70522 8532/ 333 59015 70010 81710 84615 88459 81930==
41891,2024,06,06,21,00,AAXX 06214 41891 01430 80904 10267 20260 30008 40046 70522 8532/ 333 59018 70010 81710 84615 88459 81930==
41895,2024,05,31,00,00,AAXX 31004 41895 01450 80902 10267 20250 30007 40029 70522 8352/ 333 58029 70000 84616 88458==
41895,2024,05,31,03,00,AAXX 31034 41895 02457 70903 10291 20240 30020 40042 83550 333 20260 58023 70000 83615 86362==
41895,2024,05,31,06,00,AAXX 31064 41895 01458 81802 10266 20250 39996 40018 79192 8532/ 333 58012 70030 83615 88458 81930==
41895,2024,05,31,09,00,AAXX 31094 41895 01458 63603 10309 20260 30000 40022 70162 82530 333 58029 70028 82615 85362==
41895,2024,05,31,12,00,AAXX 31124 41895 11956 40000 10308 20260 39994 40016 60006 70162 80001 333 10315 58023 70028 84074==
41895,2024,05,31,15,00,AAXX 31154 41895 02950 00000 10280 20270 30008 40030 333 58014 70028==
41895,2024,05,31,18,00,AAXX 31184 41895 02950 01802 10270 20260 30012 40034 333 58029 70028==
41895,2024,05,31,21,00,AAXX 31214 41895 02950 00501 10272 20250 30013 40036 333 58020 70028==
41895,2024,06,01,00,00,AAXX 01004 41895 02450 50000 10269 20260 30012 40034 83520 333 58005 70028 83616 85458==
41895,2024,06,03,06,00,AAXX 03064 41895 02958 01803 10344 20250 30020 40042 333 59014 70000==
41895,2024,06,03,09,00,AAXX 03094 41895 02458 22303 10360 20260 39998 40019 82500 333 59018 70000 82616==
41895,2024,06,03,12,00,AAXX 03124 41895 02956 00000 10338 20270 39986 40008 333 10364 59016 70000==
41895,2024,06,03,15,00,AAXX 03154 41895 02950 00000 10300 20260 30011 40033 333 59002 70000==
41895,2024,06,03,18,00,AAXX 03184 41895 02950 01302 10290 20260 30015 40037 333 59005 70000==
41895,2024,06,03,21,00,AAXX 03214 41895 02450 81301 10287 20270 30010 40032 8452/ 333 58001 70000 84615 88458==
41895,2024,06,04,00,00,AAXX 04004 41895 01450 61302 10283 20270 30008 40030 70162 83520 333 59016 70004 83616 86458==
41895,2024,06,04,03,00,AAXX 04034 41895 02457 70505 10272 20240 30038 40060 85320 333 20271 58012 70004 85416 87858 81930==
41895,2024,06,04,06,00,AAXX 04064 41895 02457 31304 10340 20260 30029 40050 83500 333 58009 70004 83616==
41895,2024,06,04,09,00,AAXX 04094 41895 02458 30903 10354 20270 30006 40028 83400 333 58008 70004 81616 83820==
41895,2024,06,04,12,00,AAXX 04124 41895 02456 30503 10337 20290 39992 40013 83400 333 10360 58006 70004 81615 83820==
41895,2024,06,04,15,00,AAXX 04154 41895 02450 81407 10305 20260 30019 40041 8452/ 333 58008 70004 84616 88458==
41895,2024,06,04,18,00,AAXX 04184 41895 01450 80502 10262 20220 30029 40051 70296 8452/ 333 58014 70000 84616 88458==
41895,2024,06,04,21,00,AAXX 04214 41895 02450 80502 10261 20230 30031 40053 8452/ 333 58021 70004 84616 88458==
41895,2024,06,05,00,00,AAXX 05004 41895 02450 80503 10260 20240 30033 40055 8452/ 333 58025 70000 84616 88458==
41895,2024,06,05,03,00,AAXX 05034 41895 42957 00000 10316 20160 30041 40063 333 20252 58003==
41895,2024,06,05,06,00,AAXX 05064 41895 42457 30904 10349 20270 30028 40049 83400 333 59001 81616 83820==
41895,2024,06,05,09,00,AAXX 05094 41895 42458 40902 10354 20260 30009 40030 84800 333 58003 82616 83820==
41895,2024,06,05,12,00,AAXX 05124 41895 42956 00000 10340 20280 39996 40018 333 10360 58004==
41895,2024,06,05,15,00,AAXX 05154 41895 42950 00000 10310 20280 30015 40037 333 59004==
41895,2024,06,05,18,00,AAXX 05184 41895 02950 00000 10298 20280 30025 40047 333 59004 70000==
41895,2024,06,05,21,00,AAXX 05214 41895 02450 30503 10288 20270 30028 40050 83400 333 59003 70000 81616 83820==
41895,2024,06,06,00,00,AAXX 06004 41895 02450 80505 10272 20230 30039 40061 8452/ 333 58031 70000 84615 88458==
41895,2024,06,06,03,00,AAXX 06034 41895 02456 50504 10284 20240 30049 40072 83510 333 20253 58008 70000 83616 85458==
41895,2024,06,06,06,00,AAXX 06064 41895 02457 21802 10340 20240 30032 40053 82500 333 58004 70000 82616==
41895,2024,06,06,09,00,AAXX 06094 41895 02457 41802 10354 20250 30014 40036 84400 333 58005 70000 82616 83820==
41895,2024,06,06,12,00,AAXX 06124 41895 02450 60000 10330 20270 30002 40024 83520 333 10360 58006 70000 83616 86458==
41895,2024,06,06,15,00,AAXX 06154 41895 02950 00901 10297 20270 30015 40037 333 58000 70000==
41895,2024,06,06,18,00,AAXX 06184 41895 02950 00902 10290 20270 30021 40043 333 59007 70000==
41895,2024,06,06,21,00,AAXX 06214 41895 02950 00000 10280 20260 30012 40034 333 59016 70000==
41897,2024,05,31,00,00,AAXX 31004 41897 31940 33602 10265 20250 30012 40025 70520 81530 333 56990 58019 70000 81618 83362=
41897,2024,05,31,06,00,AAXX 31064 41897 31450 61802 10340 20220 30020 40033 70522 82530 333 56990 58007 70000 82617 86362=
41897,2024,05,31,12,00,AAXX 31124 41897 31950 21802 10305 20270 30004 40017 70520 82030 333 10325 56090 58019 70000 82362=
41897,2024,05,31,18,00,AAXX 31184 41897 31940 01802 10270 20260 30032 40045 70500 333 58012 70000=
41897,2024,06,01,00,00,AAXX 01004 41897 31940 01401 10265 20260 30024 40037 70500 333 58018 70000=
41897,2024,06,03,06,00,AAXX 03064 41897 11456 31803 10335 20270 30026 40039 60292 70562 81530 333 56990 59011 70290 81618 83362=
41897,2024,06,03,12,00,AAXX 03124 41897 32456 21802 10337 20270 39997 40010 81510 333 10360 56990 59012 70290 81618=
41897,2024,06,03,18,00,AAXX 03184 41897 32956 01803 10278 20250 30030 40043 333 59008 70290=
41897,2024,06,04,00,00,AAXX 04004 41897 32456 61802 10275 20270 30029 40042 85510 333 56490 59001 70290 85618 86458=
41897,2024,06,04,06,00,AAXX 04064 41897 11456 61402 10305 20260 30024 40037 60046 70196 84310 333 56990 59002 70035 82620 84460=
41897,2024,06,04,12,00,AAXX 04124 41897 32456 62202 10315 20270 30007 40020 84310 333 10335 56990 58010 70035 82620 84460=
41897,2024,06,04,18,00,AAXX 04184 41897 31456 62202 10280 20250 30045 40058 71792 84310 333 56990 58010 70035 82620 84460=
41897,2024,06,05,00,00,AAXX 05004 41897 32456 72202 10260 20250 30036 40049 84310 333 56990 58007 70035 81930 82620 84460=
41897,2024,06,05,06,00,AAXX 05064 41897 32456 52202 10330 20260 30038 40051 84410 333 56990 58014 70000 82620 84460=
41897,2024,06,05,12,00,AAXX 05124 41897 32456 50000 10330 20250 30008 40021 84410 333 10355 56990 58001 70000 82620 84460=
41897,2024,06,05,18,00,AAXX 05184 41897 11440 82203 10280 20260 30015 40028 60256 79396 8432/ 333 56990 59007 70250 81708 83618 81928 88458=
41897,2024,06,06,00,00,AAXX 06004 41897 32450 82202 10240 20240 30015 40028 8432/ 333 56999 59012 70250 82618 88458=
41897,2024,06,06,06,00,AAXX 06064 41897 11456 61402 10280 20230 30042 40055 60075 70196 84310 333 56990 58004 70320 81710 83620 88460=
41897,2024,06,06,12,00,AAXX 06124 41897 32456 50000 10300 20240 30010 40023 84410 333 10315 56990 58008 70320 82620 84460=
41897,2024,06,06,18,00,AAXX 06184 41897 32456 50000 10280 20250 30020 40033 84410 333 56990 59008 70070 82620 84460=
41902,2024,05,31,00,00,AAXX 31004 41902 31430 70502 10277 20277 30016 40025 70544 82520 333 56990 58010 70044 82615 87459=
41902,2024,05,31,06,00,AAXX 31064 41902 32450 61504 10334 20260 30025 40034 82530 333 56990 58007 70024 82615 86362=
41902,2024,05,31,12,00,AAXX 31124 41902 32450 62202 10302 20260 30008 40017 81530 333 10334 56990 58001 70000 81616 86362=
41902,2024,05,31,18,00,AAXX 31184 41902 32440 52201 10282 20260 30035 40043 81530 333 56990 58012 70000 81616 85362=
41902,2024,06,01,00,00,AAXX 01004 41902 31430 51802 10280 20270 30029 40037 70544 82530 333 56990 58013 70000 82615 85362=
41902,2024,06,03,06,00,AAXX 03064 41902 11450 70902 10307 20260 30033 40042 60057 71796 85910 333 56990 59008 70107 83614 87459=
41902,2024,06,03,12,00,AAXX 03124 41902 11440 81402 10252 20240 30019 40027 60193 72196 8452/ 333 10317 56999 59004 70296 83614 88458=
41902,2024,06,03,18,00,AAXX 03184 41902 11440 83604 10250 20230 30044 40053 69925 70262 8352/ 333 56999 58006 70241 83615 88458=
41902,2024,06,04,00,00,AAXX 04004 41902 31440 80502 10264 20250 30040 40049 70522 8352/ 333 56999 59006 70241 83615 88458=
41902,2024,06,04,06,00,AAXX 04064 41902 11440 81401 10272 20250 30048 40057 71796 8592/ 333 56999 58015 70315 84614 81928 88458=
41902,2024,06,04,12,00,AAXX 04124 41902 32440 71002 10275 20260 30026 40034 83510 333 10300 56990 58007 70000 84614 81928 88458=
41902,2024,06,05,00,00,AAXX 05004 41902 32440 70502 10255 20250 30049 40056 83510 333 56990 58009 70120 83615 87459=
41902,2024,06,05,06,00,AAXX 05064 41902 NIL=
41902,2024,06,05,12,00,AAXX 05124 41902 32456 20503 10295 20270 30025 40033 82500 333 10330 56900 59001 70000 82616=
41902,2024,06,05,18,00,AAXX 05184 41902 NIL=
41902,2024,06,06,00,00,AAXX 06004 41902 11440 80501 10252 20240 30045 40054 60095 70296 8352/ 333 56999 59004 70090 83615 88458=
41902,2024,06,06,06,00,AAXX 06064 41902 11440 80501 10290 20240 30056 40065 60357 70296 8562/ 333 56399 58000 70442 81712 86416 88458=
41902,2024,06,06,12,00,AAXX 06124 41902 32456 73601 10300 20270 30024 40032 83510 333 10320 56990 59002 70442 83615 87459=
41902,2024,06,06,18,00,AAXX 06184 41902 NIL=
41907,2024,05,31,00,00,AAXX 31004 41907 02440 80000 10260 20250 30010 40024 8552/ 333 58023 70000 85615 88458==
41907,2024,05,31,03,00,AAXX 31034 41907 02450 80000 10290 20240 30021 40036 8552/ 333 20258 58019 70000 85615 88458==
41907,2024,05,31,06,00,AAXX 31064 41907 01350 81803 10270 20250 30017 40031 72122 8672/ 333 58027 70020 83709 85615 88458==
41907,2024,05,31,09,00,AAXX 31094 41907 02456 63104 10325 20260 39995 40010 82530 333 58017 70020 82615 85362==
41907,2024,05,31,12,00,AAXX 31124 41907 02/56 60000 10325 20260 39999 40013 82032 333 10330 58020 70020 82360 85080==
41907,2024,05,31,15,00,AAXX 31154 41907 02440 60000 10290 20260 30016 40031 83510 333 58009 70020 83615 85482==
41907,2024,05,31,18,00,AAXX 31184 41907 02340 70000 10280 20260 30026 40041 86610 333 58020 70020 82709 85615 87458==
41907,2024,05,31,21,00,AAXX 31214 41907 02340 70000 10270 20250 30019 40034 86610 333 58020 70020 82709 85615 87458==
41907,2024,06,01,00,00,AAXX 01004 41907 02/40 60000 10267 20260 30021 40036 82032 333 58011 70020 82360 85080==
41907,2024,06,01,03,00,AAXX 01034 41907 02440 60903 10320 20270 30036 40050 84510 333 20263 58015 70000 84615 85458==
41907,2024,06,03,06,00,AAXX 03064 41907 02/56 21804 10360 20240 30022 40036 82030 333 59014 70000 82362==
41907,2024,06,03,09,00,AAXX 03094 41907 02450 52303 10370 20250 30001 40015 83510 333 59014 70000 83615 85458==
41907,2024,06,03,12,00,AAXX 03124 41907 02950 02302 10350 20260 39991 40006 333 10372 59014 70000==
41907,2024,06,03,15,00,AAXX 03154 41907 02440 51802 10320 20270 30022 40037 83510 333 58000 70000 83615 85458==
41907,2024,06,03,18,00,AAXX 03184 41907 02440 50000 10305 20270 30029 40043 83510 333 58003 70000 83615 85458==
41907,2024,06,03,21,00,AAXX 03214 41907 02440 50000 10295 20280 30022 40036 83510 333 58002 70000 83615 85458==
41907,2024,06,04,00,00,AAXX 04004 41907 02440 81302 10280 20260 30020 40035 8552/ 333 59004 70000 85615 88458==
41907,2024,06,04,03,00,AAXX 04034 41907 02350 82302 10305 20280 30044 40058 8662/ 333 20273 58013 70000 82709 85615 88458==
41907,2024,06,04,06,00,AAXX 04064 41907 02450 81802 10330 20270 30033 40048 8451/ 333 58011 70000 84615 88458==
41907,2024,06,04,09,00,AAXX 04094 41907 02450 61302 10360 20290 30008 40022 84510 333 58007 70000 84615 85458==
41907,2024,06,04,12,00,AAXX 04124 41907 02450 71302 10338 20290 39998 40012 85510 333 10362 58007 70000 85615 85458==
41907,2024,06,04,15,00,AAXX 04154 41907 01335 81302 10286 20240 30025 40040 71722 8692/ 333 58007 70000 83709 85615 88458 82930==
41907,2024,06,04,18,00,AAXX 04184 41907 01330 81303 10265 20250 30020 40035 72996 8662/ 333 59009 70050 82709 85615 88458==
41907,2024,06,04,21,00,AAXX 04214 41907 02330 81302 10260 20240 30014 40029 8662/ 333 59008 70050 82709 85615 88458==
41907,2024,06,05,00,00,AAXX 05004 41907 02340 80000 10255 20250 30026 40041 8662/ 333 58006 70050 82709 85615 88458==
41907,2024,06,05,03,00,AAXX 05034 41907 02450 71302 10300 20270 30048 40063 85510 333 20240 58004 70050 85615 87458==
41907,2024,06,05,06,00,AAXX 05064 41907 02456 60502 10335 20270 30042 40056 83510 333 58009 70050 83615 86458==
41907,2024,06,05,09,00,AAXX 05094 41907 02456 71302 10356 20260 30012 40027 84510 333 58004 70050 84615 87458==
41907,2024,06,05,12,00,AAXX 05124 41907 02456 61302 10340 20270 30000 40015 83510 333 10365 58002 70050 83615 84458==
41907,2024,06,05,15,00,AAXX 05154 41907 02340 81302 10306 20280 30024 40038 8332/ 333 59001 70050 83708 85615 88458==
41907,2024,06,05,18,00,AAXX 05184 41907 02340 81302 10304 20280 30033 40048 8662/ 333 58013 70000 83709 85615 88458==
41907,2024,06,05,21,00,AAXX 05214 41907 02340 81302 10286 20270 30026 40041 8662/ 333 58012 70000 85709 88458==
41907,2024,06,06,00,00,AAXX 06004 41907 02350 81303 10266 20250 30043 40058 8332/ 333 58017 70000 85709 88458==
41907,2024,06,06,03,00,AAXX 06034 41907 02350 80903 10288 20240 30057 40071 8662/ 333 20265 58009 70000 82709 85615 88458==
41907,2024,06,06,06,00,AAXX 06064 41907 02956 00902 10328 20240 30035 40049 333 59007 70000==
41907,2024,06,06,09,00,AAXX 06094 41907 02456 61302 10355 20270 30015 40029 83510 333 59009 70000 83615 86458==
41907,2024,06,06,12,00,AAXX 06124 41907 02450 61302 10330 20250 30008 40022 83510 333 10357 58008 70000 83615 86458==
41907,2024,06,06,15,00,AAXX 06154 41907 02440 60000 10294 20260 30019 40033 83510 333 59005 70000 83615 85458==
41907,2024,06,06,18,00,AAXX 06184 41907 02440 70000 10280 20260 30022 40036 85510 333 59011 70000 85615 85458==
41907,2024,06,06,21,00,AAXX 06214 41907 02440 70000 10275 20260 30012 40026 84510 333 59014 70000 84615 86458==
41909,2024,05,31,00,00,AAXX 31004 41909 02350 81301 10292 20270 30001 40012 8462/ 333 58003 70000 83708 88458==
41909,2024,05,31,03,00,AAXX 31034 41909 02350 81301 10312 20270 30023 40034 8462/ 333 20272 58008 70000 83708 88458==
41909,2024,05,31,06,00,AAXX 31064 41909 02350 81302 10319 20250 30037 40048 8462/ 333 58032 70000 83708 88458==
41909,2024,05,31,09,00,AAXX 31094 41909 02350 80000 10315 20270 39996 40007 8462/ 333 58007 70000 83708 88458==
41909,2024,05,31,12,00,AAXX 31124 41909 02350 80000 10309 20260 30002 40013 8462/ 333 10320 58011 70000 83708 88458==
41909,2024,05,31,15,00,AAXX 31154 41909 02940 00000 10289 20260 30018 40029 333 58006 70000==
41909,2024,05,31,18,00,AAXX 31184 41909 02940 00000 10285 20260 30030 40041 333 58007 70000==
41909,2024,05,31,21,00,AAXX 31214 41909 02950 00000 10280 20260 30034 40045 333 58026 70000==
41909,2024,06,01,00,00,AAXX 01004 41909 02350 70000 10265 20250 30025 40036 85630 333 58024 70000 83708 83615 85360==
41909,2024,06,01,03,00,AAXX 01034 41909 02456 51302 10318 20270 30042 40053 82530 333 20255 58019 70000 82615 85360==
41909,2024,06,03,06,00,AAXX 03064 41909 12456 51802 10350 20270 30029 40041 69946 82530 333 59023 70004 82615 85360==
41909,2024,06,03,09,00,AAXX 03094 41909 02450 80000 10357 20260 30005 40017 8552/ 333 59013 70004 84615 88460==
41909,2024,06,03,12,00,AAXX 03124 41909 01350 81801 10314 20250 30001 40012 71722 8492/ 333 10360 59012 70004 83708 88458 81930==
41909,2024,06,03,15,00,AAXX 03154 41909 01430 81302 10280 20240 30028 40039 70192 82530 333 59006 70004 82615 85360==
41909,2024,06,03,18,00,AAXX 03184 41909 01430 11301 10278 20250 30034 40045 70192 81500 333 59008 70004 81615==
41909,2024,06,03,21,00,AAXX 03214 41909 02430 51301 10274 20250 30032 40043 82530 333 59002 70004 82615 88460==
41909,2024,06,04,00,00,AAXX 04004 41909 02450 81301 10268 20250 30030 40041 8552/ 333 59001 70004 85614 88458==
41909,2024,06,04,03,00,AAXX 04034 41909 02450 80000 10304 20260 30047 40058 8552/ 333 20263 58007 70000 85614 88458==
41909,2024,06,04,06,00,AAXX 04064 41909 02956 80000 10307 20250 30045 40056 8362/ 333 58016 70000 82708 85614 88458==
41909,2024,06,04,09,00,AAXX 04094 41909 32356 81301 10340 20260 30023 40034 8362/ 333 56999 58018 70000 82708 85614 88458=
41909,2024,06,04,12,00,AAXX 04124 41909 41350 81302 10302 20270 30013 40024 71722 8592/ 333 10345 58000 84614 88458 81930==
41909,2024,06,04,15,00,AAXX 04154 41909 02440 80000 10274 20240 30028 40039 8552/ 333 58000 70000 82708 85314 88458==
41909,2024,06,04,18,00,AAXX 04184 41909 02440 80000 10270 20240 30046 40057 8552/ 333 58012 70000 82708 85614 88458==
41909,2024,06,04,21,00,AAXX 04214 41909 02440 80000 10264 20250 30036 40047 8552/ 333 58004 70000 85614 88458==
41909,2024,06,05,00,00,AAXX 05004 41909 02450 80000 10264 20240 30030 40041 8552/ 333 58000 70000 85614 88458==
41909,2024,06,05,03,00,AAXX 05034 41909 02350 60000 10313 20270 30051 40062 83630 333 20260 58004 70000 82708 85360==
41909,2024,06,05,06,00,AAXX 05064 41909 02456 80000 10342 20270 30046 40057 8552/ 333 58001 70000 85614 88458==
41909,2024,06,05,09,00,AAXX 05094 41909 02456 51004 10348 20270 30018 40030 82530 333 59005 70000 82615 84365==
41909,2024,06,05,12,00,AAXX 05124 41909 02956 01303 10330 20270 30010 40021 333 10350 59003 70000==
41909,2024,06,05,15,00,AAXX 05154 41909 02950 00000 10300 20260 30031 40042 333 58003 70000==
41909,2024,06,05,18,00,AAXX 05184 41909 01320 81304 10272 20260 30055 40066 79500 8692/ 333 58009 70140 86707 88458 81925==
41909,2024,06,05,21,00,AAXX 05214 41909 01330 81802 10260 20240 30023 40034 72996 8532/ 333 59013 70466 82708 83614 88458 81930==
41909,2024,06,06,00,00,AAXX 06004 41909 01450 81002 10248 20240 30046 40057 72196 8552/ 333 58016 70470 85614 88460==
41909,2024,06,06,03,00,AAXX 06034 41909 02356 60000 10268 20240 30055 40066 83630 333 20238 58004 70470 82708 85360==
41909,2024,06,06,06,00,AAXX 06064 41909 21356 61801 10281 20240 30046 40057 70262 83630 333 58000 60125 70590 82708 85360==
41909,2024,06,06,09,00,AAXX 06094 41909 02456 50000 10332 20240 30026 40037 82530 333 58008 70590 82615 85360==
41909,2024,06,06,12,00,AAXX 06124 41909 02956 00000 10324 20240 30011 40022 333 10336 58001 70590==
41909,2024,06,06,15,00,AAXX 06154 41909 02430 20000 10290 20270 30025 40036 82500 333 59006 70590 82615==
41909,2024,06,06,18,00,AAXX 06184 41909 02430 50000 10289 20260 30026 40037 83530 333 59029 70446 83615 85360==
41909,2024,06,06,21,00,AAXX 06214 41909 02430 50000 10280 20260 30024 40035 82530 333 58001 70124 82615 85360==
41915,2024,05,31,00,00,AAXX 31004 41915 02456 80000 10270 20250 30019 40044 8552/ 333 58013 71221 85616 88458==
41915,2024,05,31,03,00,AAXX 31034 41915 02456 21302 10315 20270 30024 40048 81530 333 20234 59007 70884 81616==
41915,2024,05,31,06,00,AAXX 31064 41915 02456 71803 10338 20260 30024 40048 85320 333 59001 70884 85615 85458 81930==
41915,2024,05,31,12,00,AAXX 31124 41915 11456 60000 10320 20270 39999 40024 60026 70362 83531 333 10346 59002 70015 83616 85362==
41915,2024,05,31,15,00,AAXX 31154 41915 02450 40000 10285 20270 30014 40039 84400 333 59005 70015 83616==
41915,2024,05,31,18,00,AAXX 31184 41915 02450 30000 10284 20260 30025 40050 83500 333 58006 70015 83616==
41915,2024,05,31,21,00,AAXX 31214 41915 02450 20000 10272 20260 30023 40048 82400 333 58006 70015 82616==
41915,2024,06,01,00,00,AAXX 01004 41915 02450 10000 10270 20260 30029 40054 81400 333 58010 70015 81616==
41915,2024,06,01,03,00,AAXX 01034 41915 02456 61802 10310 20270 30040 40065 85430 333 20266 58016 70015 84615==
41915,2024,06,03,06,00,AAXX 03064 41915 01456 73104 10264 20210 30041 40067 72162 85420 333 58002 70040 84615 87458==
41915,2024,06,03,09,00,AAXX 03094 41915 01350 82804 10248 20240 30015 40040 79599 8592/ 333 58003 70148 84708 88457 81925==
41915,2024,06,03,12,00,AAXX 03124 41915 21450 81302 10247 20240 30016 40041 71796 8592/ 333 10335 59010 60129 70160 84615 88458 81925==
41915,2024,06,03,15,00,AAXX 03154 41915 01350 80000 10247 20240 30027 40053 79599 8592/ 333 59008 70176 84709 88458 81925==
41915,2024,06,03,18,00,AAXX 03184 41915 21450 80000 10248 20240 30037 40063 70292 8432/ 333 58000 60025 70176 83614 88458 81930==
41915,2024,06,03,21,00,AAXX 03214 41915 02450 80000 10250 20240 30034 40060 8441/ 333 58001 70176 83616 88460==
41915,2024,06,04,00,00,AAXX 04004 41915 02450 80000 10254 20240 30041 40067 8441/ 333 58001 70176 83616 88460==
41915,2024,06,04,03,00,AAXX 04034 41915 02456 71303 10302 20260 30050 40075 85620 333 20244 58011 70176 82712 84615 85458==
41915,2024,06,04,06,00,AAXX 04064 41915 NIL=
41915,2024,06,04,09,00,AAXX 04094 41915 21330 81303 10250 20240 30041 40066 79599 8692/ 333 56399 58026 6078/ 70942 84708 81925 88458=
41915,2024,06,04,12,00,AAXX 04124 41915 21450 71301 10262 20250 30018 40043 70192 84620 333 10304 58002 60788 70930 81712 84615 87458==
41915,2024,06,04,15,00,AAXX 04154 41915 02450 70000 10260 20240 30039 40063 84410 333 58012 70914 83615 86460==
41915,2024,06,04,18,00,AAXX 04184 41915 02450 70000 10257 20250 30044 40069 84410 333 58007 70914 83615 86460==
41915,2024,06,04,21,00,AAXX 04214 41915 01330 83004 10234 20220 30041 40066 79592 8692/ 333 58007 71294 85707 88457 81925==
41915,2024,06,05,00,00,AAXX 05004 41915 01350 80000 10230 20220 30043 40068 72999 8532/ 333 58002 71434 84709 88460 81930==
41915,2024,06,05,03,00,AAXX 05034 41915 02456 51301 10286 20240 30052 40077 82510 333 20227 58002 71434 82616 83460==
41915,2024,06,05,06,00,AAXX 05064 41915 02956 10902 10287 20230 30051 40076 80002 333 58007 71300 81080==
41915,2024,06,05,12,00,AAXX 05124 41915 02956 00901 10312 20240 30009 40034 333 10325 59009 70520==
41915,2024,06,05,15,00,AAXX 05154 41915 02956 00000 10270 20240 30026 40051 333 59013 70520==
41915,2024,06,05,18,00,AAXX 05184 41915 02950 00000 10268 20250 30032 40057 333 59012 70520==
41915,2024,06,05,21,00,AAXX 05214 41915 44450 30000 10264 20240 30034 40059 59007 70140 82616==
41915,2024,06,06,00,00,AAXX 06004 41915 02450 81005 10260 20240 30039 40065 8431/ 333 59004 70000 83614 88460 81930==
41915,2024,06,06,03,00,AAXX 06034 41915 02456 82302 10262 20240 30052 40077 8562/ 333 20250 58000 70000 82710 84615 88458==
41915,2024,06,06,06,00,AAXX 06064 41915 21456 60602 10305 20260 30043 40068 70162 84470 333 59008 69965 70006 83616 83460==
41915,2024,06,06,09,00,AAXX 06094 41915 02456 40000 10324 20220 30014 40039 84400 333 59002 70006 83616==
41915,2024,06,06,12,00,AAXX 06124 41915 02456 10902 10308 20260 30003 40028 81500 333 10330 59006 70006 81616==
41915,2024,06,06,15,00,AAXX 06154 41915 02950 00000 10288 20260 30023 40048 333 59003 70006==
41915,2024,06,06,18,00,AAXX 06184 41915 02950 00000 10280 20260 30021 40046 333 59011 70006==
41915,2024,06,06,21,00,AAXX 06214 41915 02450 40000 10266 20250 30018 40043 84800 333 59016 70006 83615==
41923,2024,05,31,00,00,AAXX 31004 41923 02340 60000 10294 20260 30016 40026 85630 333 59001 70000 83709 84615==
41923,2024,05,31,03,00,AAXX 31034 41923 02345 71802 10310 20260 30031 40041 85670 333 58006 70000 83709 84615 85458==
41923,2024,05,31,06,00,AAXX 31064 41923 02350 71804 10316 20240 30045 40055 85670 333 58030 70000 83709 84615 85458==
41923,2024,05,31,09,00,AAXX 31094 41923 02356 72402 10324 20230 30001 40011 84670 333 58003 70000 82709 83615 86458==
41923,2024,05,31,12,00,AAXX 31124 41923 02456 52402 10311 20240 30012 40022 82530 333 10330 58010 70000 82616 83360==
41923,2024,05,31,15,00,AAXX 31154 41923 02456 40000 10290 20250 30026 40036 83530 333 58010 70000 82615 83365==
41923,2024,05,31,18,00,AAXX 31184 41923 02/50 20000 10286 20250 30037 40047 82030 333 58010 70000 82365==
41923,2024,05,31,21,00,AAXX 31214 41923 02450 40000 10286 20260 30034 40044 82530 333 58013 70000 82616 83360==
41923,2024,06,01,00,00,AAXX 01004 41923 02345 70000 10289 20270 30037 40047 84670 333 58021 70000 81709 83615 86458==
41923,2024,06,01,03,00,AAXX 01034 41923 02350 62102 10324 20260 30049 40059 84630 333 20281 58018 70000 81709 83615 85360==
41923,2024,06,01,06,00,AAXX 01064 41923 NIL=
41923,2024,06,01,12,00,AAXX 01124 41923 NIL=
41923,2024,06,01,18,00,AAXX 01184 41923 NIL=
41923,2024,06,01,21,00,AAXX 01214 41923 NIL=
41923,2024,06,02,03,00,AAXX 02034 41923 NIL=
41923,2024,06,02,06,00,AAXX 02064 41923 NIL=
41923,2024,06,02,12,00,AAXX 02124 41923 NIL=
41923,2024,06,02,18,00,AAXX 02184 41923 NIL=
41923,2024,06,02,21,00,AAXX 02214 41923 NIL=
41923,2024,06,03,03,00,AAXX 03034 41923 NIL=
41923,2024,06,03,06,00,AAXX 03064 41923 21456 61903 10342 20260 30036 40046 70162 85430 333 59012 69965 70007 83615 83824==
41923,2024,06,03,09,00,AAXX 03094 41923 02456 51804 10358 20260 30015 40024 84430 333 59013 70007 83615==
41923,2024,06,03,12,00,AAXX 03124 41923 02350 80709 10296 20250 30025 40035 8632/ 333 10360 58001 70007 83708 84614 88458 81928==
41923,2024,06,03,15,00,AAXX 03154 41923 02/50 20000 10288 20240 30042 40052 82030 333 59002 70006 82362==
41923,2024,06,03,18,00,AAXX 03184 41923 02450 40000 10286 20260 30043 40053 83530 333 58001 70006 83615==
41923,2024,06,03,21,00,AAXX 03214 41923 02445 40000 10285 20260 30039 40049 83530 333 58004 70006 83615==
41923,2024,06,04,00,00,AAXX 04004 41923 02445 20000 10290 20270 30041 40051 82530 333 58000 70006 82615==
41923,2024,06,04,03,00,AAXX 04034 41923 02450 50802 10321 20260 30053 40063 84430 333 20283 58003 70006 83615 83362==
41923,2024,06,04,06,00,AAXX 04064 41923 02450 62102 10350 20250 30045 40055 84430 333 58009 70000 82615 83824 85360==
41923,2024,06,04,09,00,AAXX 04094 41923 02450 61803 10350 20260 30025 40035 84430 333 58010 70000 82615 83824 85360==
41923,2024,06,04,12,00,AAXX 04124 41923 02450 70000 10302 20220 30019 40029 84670 333 10360 59006 70000 82709 83615 86458==
41923,2024,06,04,15,00,AAXX 04154 41923 41245 80000 10286 20250 30037 40047 79596 8692/ 333 59005 83709 84615 88458 81930==
41923,2024,06,04,18,00,AAXX 04184 41923 21/45 20000 10280 20230 30051 40061 70196 82030 333 58008 60008 82360==
41923,2024,06,04,21,00,AAXX 04214 41923 42445 40000 10278 20240 30037 40047 82530 333 59002 82615 83360==
41923,2024,06,05,00,00,AAXX 05004 41923 42440 50000 10280 20260 30044 40054 82530 333 58003 82615 85360==
41923,2024,06,05,03,00,AAXX 05034 41923 42340 80000 10324 20270 30056 40066 8632/ 333 20273 58003 82708 84615 88458 81930==
41923,2024,06,05,06,00,AAXX 05064 41923 42340 80000 10340 20250 30049 40059 8632/ 333 58004 82708 84615 88458 81930==
41923,2024,06,05,09,00,AAXX 05094 41923 42450 60602 10354 20270 30025 40035 84430 333 58000 82615 83824 85360==
41923,2024,06,05,12,00,AAXX 05124 41923 42450 50602 10327 20270 30018 40028 83430 333 10354 59001 82616 83362==
41923,2024,06,05,15,00,AAXX 05154 41923 02/50 20000 10309 20270 30038 40048 82030 333 58001 70000 82365==
41923,2024,06,05,18,00,AAXX 05184 41923 02445 40000 10308 20270 30042 40052 81530 333 59009 70000 81616 83362==
41923,2024,06,05,21,00,AAXX 05214 41923 01340 82906 10285 20280 30035 40045 72162 8532/ 333 59002 70010 82709 84615 88458 81930==
41923,2024,06,06,00,00,AAXX 06004 41923 01340 82906 10285 20280 30035 40045 72162 8532/ 333 59002 70010 82709 84615 88458 81930==
41923,2024,06,06,03,00,AAXX 06034 41923 02345 70603 10291 20230 30067 40077 84670 333 20256 58011 70010 81709 84615 86458==
41923,2024,06,06,06,00,AAXX 06064 41923 01340 70000 10303 20230 30054 40064 72122 84370 333 58005 70000 82709 84615 86458 81930==
41923,2024,06,06,09,00,AAXX 06094 41923 02450 60602 10340 20250 30030 40040 83430 333 58005 70010 82616 84360==
41923,2024,06,06,12,00,AAXX 06124 41923 01440 80000 10327 20260 30017 40027 70522 8552/ 333 10345 59001 70010 85615 88460==
41923,2024,06,06,15,00,AAXX 06154 41923 01440 80904 10306 20270 30032 40042 70522 8552/ 333 59006 70010 85615 88460==
41923,2024,06,06,18,00,AAXX 06184 41923 01440 80602 10300 20270 30029 40039 70522 8552/ 333 59013 70010 85615 88460==
41923,2024,06,06,21,00,AAXX 06214 41923 41440 80000 10295 20270 30025 40035 70522 8532/ 333 59010 85615 88460 81930==
41926,2024,05,31,00,00,AAXX 31004 41926 42450 70000 10256 20240 30020 40034 83510 333 58031 84618 86459==
41926,2024,05,31,03,00,AAXX 31034 41926 42450 80000 10282 20240 30023 40037 8532/ 333 20256 58016 84616 88459 81930==
41926,2024,05,31,06,00,AAXX 31064 41926 01450 80000 10264 20250 30030 40044 79596 8692/ 333 58036 70090 84615 88458 82928==
41926,2024,05,31,09,00,AAXX 31094 41926 01456 41802 10325 20270 39996 40009 70192 82501 333 58017 70094 82618 83080==
41926,2024,05,31,12,00,AAXX 31124 41926 01/50 40000 10310 20270 30004 40017 70292 84030 333 10332 58022 70094 84362==
41926,2024,05,31,15,00,AAXX 31154 41926 02450 20000 10280 20260 30023 40037 82500 333 58025 70094 82618==
41926,2024,05,31,18,00,AAXX 31184 41926 02450 20000 10270 20260 30028 40042 82500 333 58029 70094 82618==
41926,2024,05,31,21,00,AAXX 31214 41926 02450 20000 10268 20260 30012 40026 82500 333 58008 70094 82618==
41926,2024,06,01,00,00,AAXX 01004 41926 02450 20000 10265 20260 30019 40033 82500 333 58001 70094 82618==
41926,2024,06,01,03,00,AAXX 01034 41926 02456 61802 10312 20270 30035 40048 83510 333 20257 58012 70094 83618 86459==
41926,2024,06,03,06,00,AAXX 03064 41926 02456 22302 10350 20260 30026 40039 82500 333 59012 70000 82616==
41926,2024,06,03,09,00,AAXX 03094 41926 02/56 20000 10360 20260 30005 40018 82030 333 59014 70000 82362==
41926,2024,06,03,12,00,AAXX 03124 41926 02950 00000 10334 20250 39998 40011 333 10365 59009 70000==
41926,2024,06,03,15,00,AAXX 03154 41926 02950 00000 10295 20250 30022 40035 333 59002 70000==
41926,2024,06,03,18,00,AAXX 03184 41926 02950 00000 10286 20260 30027 40041 333 59001 70000==
41926,2024,06,03,21,00,AAXX 03214 41926 02950 00000 10280 20260 30022 40035 333 58000 70000==
41926,2024,06,04,00,00,AAXX 04004 41926 02950 00000 10277 20270 30020 40033 333 58001 70000==
41926,2024,06,04,03,00,AAXX 04034 41926 02456 31801 10318 20270 30033 40046 83500 333 20276 59002 70000 83618==
41926,2024,06,04,06,00,AAXX 04064 41926 02456 41801 10347 20270 30031 40044 84500 333 58005 70000 84618==
41926,2024,06,04,09,00,AAXX 04094 41926 32457 51802 10360 20260 30009 40022 85400 333 56900 58004 70000 82618 83825=
41926,2024,06,04,12,00,AAXX 04124 41926 02/56 20000 10336 20280 30002 40015 82030 333 10367 58004 70000 82362==
41926,2024,06,04,15,00,AAXX 04154 41926 02450 61803 10313 20260 30020 40033 84310 333 59002 70000 82617 86459 81930==
41926,2024,06,04,18,00,AAXX 04184 41926 01450 71801 10248 20240 30032 40046 70196 84310 333 58005 70120 82617 87459 81930==
41926,2024,06,04,21,00,AAXX 04214 41926 02450 70000 10250 20230 30030 40044 83510 333 58008 70120 83617 87459==
41926,2024,06,05,00,00,AAXX 05004 41926 02450 60000 10254 20230 30025 40039 82510 333 58005 70120 82618 86459==
41926,2024,06,05,03,00,AAXX 05034 41926 02456 30000 10308 20270 30048 40061 83500 333 20245 58015 70120 83618==
41926,2024,06,05,06,00,AAXX 05064 41926 02456 31302 10340 20260 30036 40049 83500 333 58005 70120 83618==
41926,2024,06,05,09,00,AAXX 05094 41926 02456 61802 10357 20260 30010 40023 83510 333 58001 70120 83618 86459==
41926,2024,06,05,12,00,AAXX 05124 41926 02456 10000 10340 20270 30003 40016 81500 333 10368 58001 70120 81618==
41926,2024,06,05,15,00,AAXX 05154 41926 02950 00000 10305 20280 30023 40036 333 58003 70000==
41926,2024,06,05,18,00,AAXX 05184 41926 02450 50000 10293 20260 30034 40047 82510 333 58002 70000 82618 85459==
41926,2024,06,05,21,00,AAXX 05214 41926 02450 60000 10290 20260 30039 40052 82510 333 58009 70000 82618 86459==
41926,2024,06,06,00,00,AAXX 06004 41926 01450 71801 10284 20260 30044 40058 70522 82510 333 58019 70000 82618 87459==
41926,2024,06,06,03,00,AAXX 06034 41926 02450 60000 10305 20270 30050 40063 83510 333 20282 58002 70000 83618 86459==
41926,2024,06,06,06,00,AAXX 06064 41926 02456 62301 10332 20260 30041 40054 83510 333 58005 70000 83618 86459==
41926,2024,06,06,09,00,AAXX 06094 41926 02456 30000 10350 20270 30016 40029 83500 333 58006 70000 83618==
41926,2024,06,06,12,00,AAXX 06124 41926 02450 30000 10335 20280 30005 40018 83400 333 10355 58002 70000 82618==
41926,2024,06,06,15,00,AAXX 06154 41926 02450 20000 10313 20270 30021 40034 82500 333 59002 70000 82618==
41926,2024,06,06,18,00,AAXX 06184 41926 02450 20000 10303 20270 30021 40034 82500 333 59013 70000 82618==
41926,2024,06,06,21,00,AAXX 06214 41926 02450 20000 10290 20270 30012 40025 82500 333 59027 70000 82618==
41927,2024,05,31,00,00,AAXX 31004 41927 32456 62803 10260 20240 30001 40016 83570 333 56690 58007 70000 83617 84459=
41927,2024,05,31,06,00,AAXX 31064 41927 32456 82804 10290 20240 30048 40063 8452/ 333 56399 58052 70000 84616 88458=
41927,2024,05,31,12,00,AAXX 31124 41927 32456 80000 10294 20240 30001 40017 8452/ 333 10318 58020 70000 84616 88458=
41927,2024,05,31,18,00,AAXX 31184 41927 NIL=
41927,2024,06,01,00,00,AAXX 01004 41927 32957 01801 10262 20250 30012 40027 333 58012 70000=
41927,2024,06,03,06,00,AAXX 03064 41927 32457 41901 10345 20250 30024 40038 84400 333 56400 59014 70000 81618 83828=
41927,2024,06,03,12,00,AAXX 03124 41927 32457 51801 10340 20260 39996 40010 83410 333 10360 56490 59012 70000 82618 83459=
41927,2024,06,03,18,00,AAXX 03184 41927 32956 01701 10280 20260 30026 40041 333 59006 70000=
41927,2024,06,04,00,00,AAXX 04004 41927 32456 61801 10265 20260 30024 40039 83510 333 56490 59003 70000 83618 86459=
41927,2024,06,04,06,00,AAXX 04064 41927 32458 51801 10337 20270 30031 40045 85400 333 56400 58007 70000 82618 83828=
41927,2024,06,04,12,00,AAXX 04124 41927 32457 21801 10340 20260 30000 40014 82400 333 10350 56400 58004 70000 81618=
41927,2024,06,04,18,00,AAXX 04184 41927 31456 71601 10270 20240 30032 40047 71792 85310 333 56490 58006 70000 84617 81929 87459=
41927,2024,06,05,00,00,AAXX 05004 41927 11456 81801 10255 20250 30024 40039 60016 70396 8452/ 333 56499 58000 70012 84617 88458=
41927,2024,06,05,06,00,AAXX 05064 41927 32958 01801 10328 20260 30038 40052 333 58007 70012=
41927,2024,06,05,12,00,AAXX 05124 41927 32457 52202 10340 20250 30005 40019 83510 333 10356 56500 58005 70012 83617 84459=
41927,2024,06,05,18,00,AAXX 05184 41927 32956 01602 10300 20270 30027 40042 333 59005 70012=
41927,2024,06,06,00,00,AAXX 06004 41927 32456 82801 10270 20250 30046 40061 8352/ 333 56699 58022 70000 83616 88459=
41927,2024,06,06,06,00,AAXX 06064 41927 NIL=
41927,2024,06,06,12,00,AAXX 06124 41927 32957 00000 10330 20250 30004 40018 333 10345 59001 70000=
41927,2024,06,06,18,00,AAXX 06184 41927 NIL=
41929,2024,05,31,00,00,AAXX 31004 41929 02457 61703 10294 20260 30008 40018 83530 333 59007 70000 83618 83465==
41929,2024,05,31,03,00,AAXX 31034 41929 02/57 31802 10308 20240 30031 40040 83030 333 20285 58011 70000 83365==
41929,2024,05,31,06,00,AAXX 31064 41929 02456 82304 10300 20250 30050 40059 8452/ 333 58038 70000 84618 88462==
41929,2024,05,31,09,00,AAXX 31094 41929 02457 82203 10310 20250 30005 40015 8452/ 333 58014 70000 84618 88462==
41929,2024,05,31,15,00,AAXX 31154 41929 02/58 22102 10310 20250 30014 40024 82030 333 10324 58017 70000 82365==
41929,2024,05,31,18,00,AAXX 31184 41929 02958 00000 10270 20260 30041 40051 333 58026 70000==
41929,2024,05,31,21,00,AAXX 31214 41929 02957 00000 10270 20260 30032 40042 333 58012 70000==
41929,2024,06,01,00,00,AAXX 01004 41929 02457 80000 10270 20260 30037 40047 8552/ 333 58029 70000 85617 88462==
41929,2024,06,03,06,00,AAXX 03064 41929 02457 41803 10344 20270 30037 40046 84400 333 59011 70000 81618==
41929,2024,06,03,09,00,AAXX 03094 41929 02458 51803 10352 20270 30015 40024 85400 333 59011 70000 82618 83825==
41929,2024,06,03,12,00,AAXX 03124 41929 02457 51802 10307 20240 30012 40022 82530 333 10362 59008 70000 82616 84362==
41929,2024,06,03,15,00,AAXX 03154 41929 02/57 21802 10284 20230 30041 40051 82030 333 59001 70000 82362==
41929,2024,06,03,18,00,AAXX 03184 41929 02957 01802 10278 20260 30034 40047 333 59001 70000==
41929,2024,06,03,21,00,AAXX 03214 41929 02957 01802 10276 20270 30034 40044 333 58002 70000==
41929,2024,06,04,00,00,AAXX 04004 41929 02/57 20000 10275 20270 30032 40042 82030 333 58008 70000 82362==
41929,2024,06,04,03,00,AAXX 04034 41929 02457 41802 10326 20270 30050 40059 84500 333 20270 58003 70000 84618==
41929,2024,06,04,06,00,AAXX 04064 41929 02457 61802 10345 20270 30043 40052 85510 333 58006 70000 84618 85462==
41929,2024,06,04,09,00,AAXX 04094 41929 02457 31802 10352 20260 30023 40032 83400 333 58008 70000 82618==
41929,2024,06,04,12,00,AAXX 04124 41929 02457 31202 10340 20270 30009 40018 83400 333 10355 59003 70000 82616==
41929,2024,06,04,15,00,AAXX 04154 41929 01450 81802 10252 20240 30032 40042 71396 8532/ 333 59008 70110 84615 88458 81930==
41929,2024,06,04,18,00,AAXX 04184 41929 21950 01802 10260 20250 30053 40063 70596 333 58016 60118 70110==
41929,2024,06,04,21,00,AAXX 04214 41929 01950 00000 10261 20250 30028 40038 70500 333 59006 70000==
41929,2024,06,05,00,00,AAXX 05004 41929 01956 00000 10263 20250 30033 40043 70500 333 58001 70110==
41929,2024,06,05,03,00,AAXX 05034 41929 02457 51802 10315 20270 30057 40066 85400 333 20243 58007 70110 82618 83825==
41929,2024,06,05,06,00,AAXX 05064 41929 02457 51802 10352 20250 30048 40057 85400 333 58005 70110 82618 83825==
41929,2024,06,05,09,00,AAXX 05094 41929 02457 31802 10362 20250 30023 40032 83400 333 58000 70110 82618==
41929,2024,06,05,12,00,AAXX 05124 41929 02957 00000 10347 20270 30013 40022 333 10362 58004 70110==
41929,2024,06,05,15,00,AAXX 05154 41929 01956 00000 10313 20280 30032 40042 70500 333 59001 70000==
41929,2024,06,05,18,00,AAXX 05184 41929 01/56 20000 10301 20280 30042 40052 70510 82030 333 59011 70000 82362==
41929,2024,06,05,21,00,AAXX 05214 41929 01456 31202 10288 20270 30036 40046 70511 82530 333 58008 70000 82616 83362==
41929,2024,06,06,00,00,AAXX 06004 41929 01456 70000 10276 20260 30036 40046 70521 83530 333 58003 70000 83616 86362==
41929,2024,06,06,03,00,AAXX 06034 41929 02457 60902 10300 20250 30063 40072 83530 333 20270 58006 70000 83618 83365==
41929,2024,06,06,06,00,AAXX 06064 41929 02457 40503 10320 20250 30054 40063 82530 333 58006 70000 82618 83365==
41929,2024,06,06,09,00,AAXX 06094 41929 02957 00902 10346 20270 30025 40034 333 58000 70000==
41929,2024,06,06,12,00,AAXX 06124 41929 02957 01202 10332 20270 30015 40024 333 10346 58002 70000==
41929,2024,06,06,15,00,AAXX 06154 41929 01456 30000 10306 20280 30031 40041 70510 83500 333 59001 70000 83616==
41929,2024,06,06,18,00,AAXX 06184 41929 01456 30000 10300 20280 30028 40038 70510 83500 333 59014 70000 83616==
41929,2024,06,06,21,00,AAXX 06214 41929 01456 30000 10293 20280 30024 40034 70511 83500 333 59012 70000 83616==
41933,2024,05,31,00,00,AAXX 31004 41933 02440 61802 10286 20270 30025 40034 84520 333 58010 70000 84618 86458==
41933,2024,05,31,03,00,AAXX 31034 41933 02456 71802 10306 20280 30040 40048 84510 333 20285 58001 70000 84618 87458==
41933,2024,05,31,06,00,AAXX 31064 41933 02456 62404 10260 30039 40047 85440 333 58013 70000 83618 83826==
41933,2024,05,31,09,00,AAXX 31094 41933 02456 61804 10330 20230 30012 40020 83510 333 59001 70000 83618 86458==
41933,2024,05,31,12,00,AAXX 31124 41933 02456 61804 10320 20270 30010 40018 83510 333 10335 59006 70000 83618 86458==
41933,2024,05,31,15,00,AAXX 31154 41933 02456 40000 10293 20270 30031 40039 82530 333 58004 70000 82618 83362==
41933,2024,05,31,18,00,AAXX 31184 41933 02456 20000 10290 20280 30039 40047 82530 333 58008 70000 82618==
41933,2024,05,31,21,00,AAXX 31214 41933 02456 20000 10288 20280 30039 40047 82500 333 58012 70000 82618==
41933,2024,06,01,00,00,AAXX 01004 41933 01335 51802 10285 20280 30040 40048 70510 85600 333 58015 70000 83710 83617==
41933,2024,06,01,03,00,AAXX 01034 41933 01450 51803 10320 20270 30054 40062 70522 85600 333 20284 58029 70000 83710 83618==
41933,2024,06,03,06,00,AAXX 03064 41933 02456 41904 10340 20260 30042 40050 84400 333 59011 70000 83618==
41933,2024,06,03,09,00,AAXX 03094 41933 01456 72003 10297 20270 30022 40030 72196 86870 333 59017 70010 83617 83827 85458==
41933,2024,06,03,12,00,AAXX 03124 41933 01356 82102 10270 20250 30031 40040 72196 8667/ 333 10342 59001 70015 83709 83616 86458==
41933,2024,06,03,15,00,AAXX 03154 41933 02450 51802 10262 20240 30046 40055 83520 333 58001 70015 83617 85458==
41933,2024,06,03,18,00,AAXX 03184 41933 NIL=
41933,2024,06,03,21,00,AAXX 03214 41933 02450 51802 10260 20250 30045 40054 83520 333 58011 70015 83617 85458==
41933,2024,06,04,00,00,AAXX 04004 41933 02450 71802 10265 20250 30047 40056 85520 333 58008 70015 85617 87458==
41933,2024,06,04,03,00,AAXX 04034 41933 02456 61802 10286 20260 30060 40069 85440 333 20260 58004 70015 83618 83826==
41933,2024,06,04,06,00,AAXX 04064 41933 02456 51803 10320 20260 30044 40052 84440 333 58002 70015 82618 83826==
41933,2024,06,04,09,00,AAXX 04094 41933 32456 41803 10326 20260 30036 40044 84400 333 56900 58014 70005 83618=
41933,2024,06,04,12,00,AAXX 04124 41933 02456 51802 10305 20260 30032 40040 84830 333 10328 58001 70000 82618 83827==
41933,2024,06,04,15,00,AAXX 04154 41933 02456 20000 10285 20270 30050 40058 82800 333 58004 70000 81618==
41933,2024,06,04,18,00,AAXX 04184 41933 01456 32002 10284 20260 30051 40060 70390 83500 333 58004 70000 83618==
41933,2024,06,04,21,00,AAXX 04214 41933 02456 41202 10283 20270 30036 40045 84500 333 59009 70000 84618==
41933,2024,06,05,00,00,AAXX 05004 41933 01350 51602 10280 20260 30046 40055 70510 85600 333 59001 70000 83710 83618==
41933,2024,06,05,03,00,AAXX 05034 41933 02350 51602 10310 20260 30056 40065 85600 333 20277 59004 70000 83710 83618==
41933,2024,06,05,06,00,AAXX 05064 41933 02356 51602 10340 20260 30056 40064 85600 333 58012 70000 83710 83618==
41933,2024,06,05,09,00,AAXX 05094 41933 02456 40000 10344 20280 30023 40031 82540 333 59013 70000 82826 84362==
41933,2024,06,05,12,00,AAXX 05124 41933 02956 00000 10325 20270 30018 40026 333 10349 59014 70000==
41933,2024,06,05,15,00,AAXX 05154 41933 02956 00000 10300 20270 30040 40049 333 59010 70000==
41933,2024,06,05,18,00,AAXX 05184 41933 02956 00000 10290 20280 30046 40055 333 59005 70000==
41933,2024,06,05,21,00,AAXX 05214 41933 01950 00000 10290 20280 30046 40055 70500 333 58010 70000==
41933,2024,06,06,00,00,AAXX 06004 41933 01430 20000 10285 20280 30049 40058 70500 82500 333 58003 70000 82618==
41933,2024,06,06,03,00,AAXX 06034 41933 41350 83405 10255 20240 30073 40082 79592 8632/ 333 20252 58017 83708 83615 88456 81928==
41933,2024,06,06,06,00,AAXX 06064 41933 21456 70802 10300 20260 30056 40065 70196 8487/ 333 58000 60148 70138 83617 85458==
41933,2024,06,06,09,00,AAXX 06094 41933 41456 50802 10316 20270 30025 40034 58002 70128 83827==
41933,2024,06,06,12,00,AAXX 06124 41933 02456 50802 10312 20260 30016 40025 84440 333 10320 59002 70138 82618 83826==
41933,2024,06,06,15,00,AAXX 06154 41933 02450 60000 10289 20270 30036 40044 83510 333 59004 70138 83616 86459==
41933,2024,06,06,18,00,AAXX 06184 41933 02450 40000 10284 20260 30030 40038 82540 333 59016 70138 82616 84362==
41933,2024,06,06,21,00,AAXX 06214 41933 01440 70000 10284 20270 30020 40028 70521 84520 333 59026 70138 84616 87458==
41936,2024,05,31,00,00,AAXX 31004 41936 01414 71807 10266 20250 39990 49997 70596 85630 333 58003 70070 82710 83615 85362==
41936,2024,05,31,03,00,AAXX 31034 41936 01320 81904 10274 20240 30024 40031 79596 85920 333 20262 58010 70070 83708 83615 87260 81930==
41936,2024,05,31,06,00,AAXX 31064 41936 01320 83005 10280 20250 30051 40058 76196 85720 333 58048 70010 83707 83615 87260==
41936,2024,05,31,09,00,AAXX 31094 41936 01335 62005 10306 20260 30000 40007 70562 83630 333 58014 70080 81710 83615 85362==
41936,2024,05,31,12,00,AAXX 31124 41936 01440 42004 10318 20250 30008 40015 70562 83530 333 58023 70000 83615 86362==
41936,2024,05,31,15,00,AAXX 31154 41936 01/40 21903 10280 20250 30024 40031 70511 82030 333 58023 70080 82362==
41936,2024,05,31,18,00,AAXX 31184 41936 01/30 20000 10272 20250 30031 40038 70511 82030 333 58020 70080 82362==
41936,2024,05,31,21,00,AAXX 31214 41936 01/20 20000 10270 20250 30026 40033 70511 82030 333 58017 70010 82362==
41936,2024,06,01,00,00,AAXX 01004 41936 01/07 20000 10268 20260 30020 40027 74441 82030 333 58030 70010 82362==
41936,2024,06,01,03,00,AAXX 01034 41936 01/30 21803 10318 20270 30040 40047 70541 82030 333 20266 58016 70010 82362==
41936,2024,06,03,06,00,AAXX 03064 41936 01440 52108 10350 20270 30036 40042 70522 83830 333 59004 70000 83615 84362==
41936,2024,06,03,09,00,AAXX 03094 41936 01440 51909 10362 20260 30015 40022 70522 83830 333 59008 70000 83615 84362==
41936,2024,06,03,12,00,AAXX 03124 41936 01440 51807 10328 20270 30005 40012 70522 83830 333 10364 59012 70000 83615 84362==
41936,2024,06,03,15,00,AAXX 03154 41936 01440 51803 10300 20270 30026 40033 70522 83830 333 59005 70000 83615 84362==
41936,2024,06,03,18,00,AAXX 03184 41936 01430 41803 10290 20260 30032 40039 70522 82830 333 59001 70000 82615 83362==
41936,2024,06,03,21,00,AAXX 03214 41936 01430 41903 10280 20260 30018 40025 70522 82830 333 59008 70000 82615 83362==
41936,2024,06,04,00,00,AAXX 04004 41936 01412 40000 10278 20270 30024 40031 70522 82530 333 59007 70000 82615 83362==
41936,2024,06,04,03,00,AAXX 04034 41936 01420 41806 10324 20270 30040 40047 70511 82530 333 20274 59004 70000 82615 83362==
41936,2024,06,04,06,00,AAXX 04064 41936 01340 61910 10350 20300 30039 40045 70522 82630 333 58003 70000 81710 83615 85362==
41936,2024,06,04,09,00,AAXX 04094 41936 01440 42107 10362 20270 30018 40025 70522 83830 333 58003 70000 83615==
41936,2024,06,04,12,00,AAXX 04124 41936 01950 02405 10346 20270 30007 40014 70521 333 10366 58002 70000==
41936,2024,06,04,15,00,AAXX 04154 41936 01450 41804 10320 20280 30026 40033 70511 82530 333 58000 70000 82615 83362==
41936,2024,06,04,18,00,AAXX 04184 41936 01430 71908 10298 20270 30036 40043 71722 84930 333 58004 70000 83708 83615 86360 81930==
41936,2024,06,04,21,00,AAXX 04214 41936 01420 41504 10282 20260 30028 40035 70522 82830 333 58010 70000 82615 83362==
41936,2024,06,05,00,00,AAXX 05004 41936 01420 41003 10278 20270 30031 40038 70522 82530 333 58007 70000 82615 83362==
41936,2024,06,05,03,00,AAXX 05034 41936 01418 41503 10322 20270 30047 40054 70521 83530 333 20276 58007 70000 83615==
41936,2024,06,05,06,00,AAXX 05064 41936 01940 01805 10364 20240 30039 40046 70521 333 58001 70000==
41936,2024,06,05,09,00,AAXX 05094 41936 01450 21904 10374 20260 30016 40023 70511 82500 333 59002 70000 82615==
41936,2024,06,05,12,00,AAXX 05124 41936 01450 31903 10344 20260 30007 40014 70511 83500 333 10376 58000 70000 83615==
41936,2024,06,05,15,00,AAXX 05154 41936 01950 01803 10320 20270 30024 40031 70511 333 10376 59002 70000==
41936,2024,06,05,18,00,AAXX 05184 41936 01/50 12103 10304 20260 30029 40036 70511 81030 333 59007 70000 81362==
41936,2024,06,05,21,00,AAXX 05214 41936 01/40 12503 10298 20270 30017 40024 70511 81030 333 59011 70000 81362==
41936,2024,06,06,00,00,AAXX 06004 41936 01/40 12503 10298 20270 30017 40024 70511 81030 333 59011 70000 81362==
41936,2024,06,06,03,00,AAXX 06034 41936 01420 41604 10330 20280 30049 40056 70521 82530 333 20292 58002 70000 82615 83362==
41936,2024,06,06,06,00,AAXX 06064 41936 01425 61114 10354 20290 30041 40048 70522 84530 333 58002 70000 84315 84362==
41936,2024,06,06,09,00,AAXX 06094 41936 01435 70906 10360 20290 30017 40024 70522 83630 333 58001 70000 81710 83615 86362==
41936,2024,06,06,12,00,AAXX 06124 41936 01440 61004 10342 20280 30007 40014 70522 84530 333 10362 58000 70000 84615 84362==
41936,2024,06,06,15,00,AAXX 06154 41936 01440 60803 10320 20270 30021 40028 70522 84530 333 59003 70000 84615 84362==
41936,2024,06,06,18,00,AAXX 06184 41936 01440 40703 10300 20270 30023 40030 70522 82530 333 59006 70000 82615 83362==
41936,2024,06,06,21,00,AAXX 06214 41936 NIL=
41938,2024,05,31,00,00,AAXX 31004 41938 11450 81803 10265 20250 30010 40014 60023 72196 8252/ 333 56999 58000 70020 82617 88460=
41938,2024,05,31,06,00,AAXX 31064 41938 32456 82705 10302 20240 30054 40058 8632/ 333 56699 58041 70020 84616 81928 88460=
41938,2024,05,31,12,00,AAXX 31124 41938 32956 32301 10308 20260 30015 40018 80001 333 10318 56009 58014 70020 83082=
41938,2024,05,31,18,00,AAXX 31184 41938 32956 02301 10273 20260 30031 40035 333 58014 70020=
41938,2024,06,01,00,00,AAXX 01004 41938 31440 40000 10285 20280 30034 40037 70510 82510 333 56490 58024 70000 82617 83460=
41938,2024,06,03,06,00,AAXX 03064 41938 42456 40000 10315 20270 30043 40047 84400 333 56400 59003 70000 83618=
41938,2024,06,03,12,00,AAXX 03124 41938 11450 50000 10277 20240 30027 40031 69925 70296 84410 333 10322 56490 58000 70002 83618=
41938,2024,06,03,18,00,AAXX 03184 41938 32450 40000 10280 20260 30031 40035 84500 333 56900 59004 70002 84618=
41938,2024,06,04,00,00,AAXX 04004 41938 32450 20000 10280 20260 30031 40035 82500 333 56900 59002 82618=
41938,2024,06,04,06,00,AAXX 04064 41938 32450 40000 10337 20270 30035 40039 84400 333 56400 58008 70002 83618=
41938,2024,06,04,12,00,AAXX 04124 41938 32456 71802 10323 20270 30019 40023 81411 333 10353 56499 59008 70000 81618 85460=
41938,2024,06,04,18,00,AAXX 04184 41938 31956 30000 10285 20270 30045 40049 71322 81910 333 56990 58012 70000 81618 81929=
41938,2024,06,05,00,00,AAXX 05004 41938 31945 70000 10287 20280 30032 40036 70511 87071 333 56099 58001 70000 85460 84362=
41938,2024,06,05,06,00,AAXX 05064 41938 32456 50901 10350 20270 30045 40049 82410 333 56690 58010 70000 81618 85460=
41938,2024,06,05,12,00,AAXX 05124 41938 32456 50000 10336 20270 30019 40023 81410 333 10360 56490 58000 70000 81618 85460=
41938,2024,06,05,18,00,AAXX 05184 41938 31450 32001 10302 20270 30037 40041 71321 82910 333 56590 59008 70000 81618 81929=
41938,2024,06,06,00,00,AAXX 06004 41938 31440 70000 10292 20280 30039 40043 70521 81411 333 56599 58007 70000 81618 85460=
41938,2024,06,06,06,00,AAXX 06064 41938 32456 72001 10352 20260 30045 40049 83410 333 56690 58000 70000 81618 83825 85460=
41938,2024,06,06,12,00,AAXX 06124 41938 11456 20000 10333 20280 30016 40020 69906 70162 81410 333 10357 56990 59003 79999 81618=
41938,2024,06,06,18,00,AAXX 06184 41938 32956 62002 10295 20260 30029 40033 86010 333 56090 59008 79999 86460=
41939,2024,05,31,00,00,AAXX 31004 41939 02457 50000 10288 20160 30023 40031 83530 333 59003 70000 83617 83364==
41939,2024,05,31,03,00,AAXX 31034 41939 02459 50000 10305 20250 30045 40053 83530 333 20285 58013 70000 83617 83364==
41939,2024,05,31,06,00,AAXX 31064 41939 02458 80000 10318 20220 30058 40066 8352/ 333 58015 70000 83618 88459==
41939,2024,05,31,09,00,AAXX 31094 41939 02458 80000 10313 20260 30002 40010 8352/ 333 59003 70000 83618 88459==
41939,2024,05,31,12,00,AAXX 31124 41939 02957 00000 10310 20260 30019 40027 333 10331 58009 70000==
41939,2024,05,31,15,00,AAXX 31154 41939 02956 00000 10283 20260 30034 40042 333 58006 70000==
41939,2024,05,31,18,00,AAXX 31184 41939 02956 00000 10280 20260 30042 40050 333 58007 70000==
41939,2024,05,31,21,00,AAXX 31214 41939 02940 00000 10280 20270 30041 40049 333 59001 70000==
41939,2024,06,01,00,00,AAXX 01004 41939 02456 60000 10280 20270 30040 40048 83510 333 58017 70000 83618 85459==
41939,2024,06,01,03,00,AAXX 01034 41939 02458 60000 10302 20270 30056 40064 83510 333 20270 58011 70000 83618 85459==
41939,2024,06,03,06,00,AAXX 03064 41939 02460 20000 10342 20270 30049 40057 83400 333 59006 70000 82618==
41939,2024,06,03,09,00,AAXX 03094 41939 02460 20000 10345 20270 30033 40041 83400 333 59003 70000 82618==
41939,2024,06,03,12,00,AAXX 03124 41939 01456 60000 10275 20250 30023 40031 76122 83510 333 10356 59022 70010 83617 86459==
41939,2024,06,03,15,00,AAXX 03154 41939 02456 40000 10275 20260 30048 40056 82530 333 59003 70005 82618 83364==
41939,2024,06,03,18,00,AAXX 03184 41939 02456 40000 10270 20250 30057 40065 82530 333 58002 70005 82618 83364==
41939,2024,06,03,21,00,AAXX 03214 41939 02940 00000 10275 20270 30050 40058 333 58005 70004==
41939,2024,06,04,00,00,AAXX 04004 41939 02456 40000 10280 20270 30045 40053 81530 333 59003 70004 81618 83365==
41939,2024,06,04,03,00,AAXX 04034 41939 02458 80000 10295 20270 30060 40068 8352/ 333 20265 59003 70004 83618 88459==
41939,2024,06,04,06,00,AAXX 04064 41939 02458 40000 10350 20260 30045 40053 83430 333 59005 70005 82618==
41939,2024,06,04,09,00,AAXX 04094 41939 02460 30000 10345 20290 30032 40040 83430 333 59001 70004 82618==
41939,2024,06,04,12,00,AAXX 04124 41939 01458 70000 10270 20250 30026 40034 72122 83530 333 58003 70110 83617 86459==
41939,2024,06,04,15,00,AAXX 04154 41939 01456 80000 10268 20250 30062 40070 76122 8352/ 333 58014 70122 83616 88458==
41939,2024,06,04,18,00,AAXX 04184 41939 21456 80000 10250 20240 30070 40078 72262 8352/ 333 58013 60267 70365 83617 88459==
41939,2024,06,05,00,00,AAXX 05004 41939 02456 20000 10275 20270 30041 40049 81530 333 59004 70365 81618==
41939,2024,06,05,03,00,AAXX 05034 41939 02458 50000 10320 20280 30060 40068 83530 333 20250 59002 70365 83617 83362==
41939,2024,06,05,06,00,AAXX 05064 41939 NIL=
41939,2024,06,05,09,00,AAXX 05094 41939 02460 20000 10350 20270 30030 40038 82430 333 59002 70365 81618==
41939,2024,06,05,12,00,AAXX 05124 41939 02957 00000 10337 20280 30025 40033 333 10357 59001 70255==
41939,2024,06,05,15,00,AAXX 05154 41939 02940 00000 10308 20270 30037 40045 333 59025 70243==
41939,2024,06,05,18,00,AAXX 05184 41939 02940 00000 10297 20280 30045 40053 333 59025 70000==
41939,2024,06,05,21,00,AAXX 05214 41939 02956 00000 10287 20280 30055 40063 333 59007 70000==
41939,2024,06,06,00,00,AAXX 06004 41939 02957 00000 10290 20280 30051 40059 333 58010 70000==
41939,2024,06,06,03,00,AAXX 06034 41939 02960 00000 10324 20290 30067 40075 333 20283 58007 70000==
41939,2024,06,06,06,00,AAXX 06064 41939 01457 60000 10335 20240 30040 40048 72122 84530 333 59009 70030 84617 83359==
41939,2024,06,06,09,00,AAXX 06094 41939 02458 20000 10340 20260 30034 40042 82530 333 58004 70030 82618==
41939,2024,06,06,12,00,AAXX 06124 41939 02457 10000 10324 20280 30022 40030 81500 333 10350 59003 70030 81618==
41939,2024,06,06,15,00,AAXX 06154 41939 02956 00000 10305 20290 30037 40045 333 58000 70030==
41939,2024,06,06,18,00,AAXX 06184 41939 02956 00000 10298 20280 30048 40056 333 58003 70030==
41939,2024,06,06,21,00,AAXX 06214 41939 02940 00000 10293 20270 30036 40044 333 59019 70030==
41941,2024,05,31,00,00,AAXX 31004 41941 01450 80000 10288 20280 30018 40023 72162 8632/ 333 59004 70010 84612 88456 81924==
41941,2024,05,31,03,00,AAXX 31034 41941 02456 61802 10307 20260 30041 40047 85420 333 20285 58001 70010 84616 86458==
41941,2024,05,31,06,00,AAXX 31064 41941 02456 62303 10325 20260 30047 40052 84810 333 58026 70010 82618 83828 86458==
41941,2024,05,31,09,00,AAXX 31094 41941 02456 71802 10320 20250 30009 40014 82520 333 58003 70010 82616 87458==
41941,2024,05,31,12,00,AAXX 31124 41941 02456 51802 10316 20260 30015 40020 82530 333 10338 58015 70010 82616 85362==
41941,2024,05,31,15,00,AAXX 31154 41941 02456 50000 10295 20280 30029 40034 82520 333 58004 70010 82616 85458==
41941,2024,05,31,18,00,AAXX 31184 41941 02456 40000 10290 20280 30037 40042 82510 333 58007 70010 82618 84458==
41941,2024,05,31,21,00,AAXX 31214 41941 02450 40000 10288 20280 30043 40048 82510 333 58033 70010 82616 83458==
41941,2024,06,01,00,00,AAXX 01004 41941 02450 20000 10287 20280 30041 40046 82500 333 58023 70000 82618==
41941,2024,06,01,03,00,AAXX 01034 41941 02456 52302 10322 20280 30052 40057 85800 333 20286 58011 70000 83616 83828==
41941,2024,06,03,06,00,AAXX 03064 41941 02456 41803 10347 20270 30044 40050 83530 333 59007 70000 83618 84362==
41941,2024,06,03,09,00,AAXX 03094 41941 01450 81803 10298 20250 30028 40034 76062 8632/ 333 59005 70000 85616 88458 81930==
41941,2024,06,03,12,00,AAXX 03124 41941 21450 80802 10285 20260 30030 40035 72162 8632/ 333 10355 58002 69937 70003 85616 88458 81930==
41941,2024,06,03,15,00,AAXX 03154 41941 02440 60803 10278 20250 30051 40056 85420 333 58007 70003 84616 86458==
41941,2024,06,03,18,00,AAXX 03184 41941 02440 60000 10270 20250 30055 40060 85420 333 59001 70003 84616 86458==
41941,2024,06,03,21,00,AAXX 03214 41941 02440 60802 10275 20270 30047 40052 85420 333 59003 70003 84616 86458==
41941,2024,06,04,00,00,AAXX 04004 41941 02450 80803 10280 20270 30044 40049 8632/ 333 59001 70003 85616 88458 81930==
41941,2024,06,04,03,00,AAXX 04034 41941 02456 61802 10322 20280 30062 40067 85420 333 20270 58009 70003 84616 86458==
41941,2024,06,04,06,00,AAXX 04064 41941 02456 51802 10328 20270 30047 40052 85420 333 58003 70003 83616 83828==
41941,2024,06,04,09,00,AAXX 04094 41941 32457 41303 10342 20270 30031 40037 83510 333 56990 58003 70003 83616 84458=
41941,2024,06,04,12,00,AAXX 04124 41941 02456 42102 10312 20260 30028 40034 82510 333 10345 59002 70000 82618 84458==
41941,2024,06,04,15,00,AAXX 04154 41941 41456 52102 10296 20280 30049 40054 71362 84320 333 59002 83616 85458 81930==
41941,2024,06,04,18,00,AAXX 04184 41941 01450 51302 10272 20250 30052 40057 70262 83520 333 59003 70005 83616 85458==
41941,2024,06,04,21,00,AAXX 04214 41941 02450 60902 10286 20280 30042 40047 83520 333 59005 70005 83616 85458==
41941,2024,06,05,00,00,AAXX 05004 41941 02456 50902 20280 30040 40045 83520 333 59004 70005 83614 84458==
41941,2024,06,05,03,00,AAXX 05034 41941 02457 41302 10330 20280 30053 40058 83510 333 20270 59009 70005 83616==
41941,2024,06,05,06,00,AAXX 05064 41941 02457 61802 10349 20280 30051 40057 85420 333 58004 70005 84616 86458==
41941,2024,06,05,09,00,AAXX 05094 41941 02457 41802 10350 20270 30028 40034 83510 333 59003 70005 83616==
41941,2024,06,05,12,00,AAXX 05124 41941 02450 40000 10332 20270 30023 40029 83510 333 10356 59005 70005 83616==
41941,2024,06,05,15,00,AAXX 05154 41941 02940 01803 10308 20290 30040 40046 333 59009 70000==
41941,2024,06,05,18,00,AAXX 05184 41941 02940 00000 10300 20290 30052 40058 333 58000 70000==
41941,2024,06,05,21,00,AAXX 05214 41941 02940 00803 10297 20290 30047 40052 85420 333 58005 70000 84616 86458==
41941,2024,06,06,00,00,AAXX 06004 41941 02450 60803 10294 20280 30049 40055 85420 333 58009 70000 84616 86458==
41941,2024,06,06,03,00,AAXX 06034 41941 02450 81803 10322 20280 30064 40070 8632/ 333 20293 58011 70000 85616 88458 81930==
41941,2024,06,06,06,00,AAXX 06064 41941 02456 83603 10328 20280 30058 40064 8632/ 333 58007 70000 85616 88458 81928==
41941,2024,06,06,09,00,AAXX 06094 41941 02456 70402 10337 20290 30029 40035 85420 333 58001 70000 84616 86458==
41941,2024,06,06,12,00,AAXX 06124 41941 02456 80000 10330 20280 30015 40021 8632/ 333 10347 59008 70000 85616 88458 81928==
41941,2024,06,06,15,00,AAXX 06154 41941 02450 70000 10314 20280 30028 40034 85420 333 59012 70000 84616 87458==
41941,2024,06,06,18,00,AAXX 06184 41941 02440 70000 10310 20280 30043 40049 85420 333 59009 70000 84616 87458==
41941,2024,06,06,21,00,AAXX 06214 41941 02440 70000 10300 20290 30038 40044 85420 333 59009 70000 84616 87458==
41943,2024,05,31,00,00,AAXX 31004 41943 02435 70000 10284 20260 30033 40040 84520 333 58011 70000 84616 86458==
41943,2024,05,31,03,00,AAXX 31034 41943 02430 81806 10315 20270 30045 40051 8662/ 333 20284 58000 70000 83710 84615 88458==
41943,2024,05,31,06,00,AAXX 31064 41943 02440 61804 10330 20270 30046 40053 84620 333 58016 70000 82710 84615 86458==
41943,2024,05,31,09,00,AAXX 31094 41943 02440 51803 10343 20240 30023 40030 83520 333 58006 70000 83615 85458==
41943,2024,05,31,12,00,AAXX 31124 41943 02430 41802 10305 20260 30017 40024 82520 333 10350 58002 70000 82616 84458==
41943,2024,05,31,15,00,AAXX 31154 41943 02430 81803 10298 20270 30032 40039 8662/ 333 58001 70000 83710 84615 88458==
41943,2024,05,31,18,00,AAXX 31184 41943 02430 81802 10290 20280 30038 40045 8662/ 333 58009 70000 83710 84615 88458==
41943,2024,05,31,21,00,AAXX 31214 41943 02430 80000 10286 20280 30042 40049 8662/ 333 58012 70000 83710 84615 88458==
41943,2024,06,01,00,00,AAXX 01004 41943 02430 40000 10280 20270 30046 40053 82520 333 58009 70000 83618 84458==
41943,2024,06,01,03,00,AAXX 01034 41943 02440 61804 10315 20270 30055 40062 84520 333 20276 58010 70000 84616 86458==
41943,2024,06,03,06,00,AAXX 03064 41943 01440 71803 10315 20280 30053 40060 72162 84520 333 59009 70020 84616 86458==
41943,2024,06,03,09,00,AAXX 03094 41943 01330 82302 10270 20250 30034 40041 76066 8772/ 333 59006 70240 84709 84614 88458==
41943,2024,06,03,12,00,AAXX 03124 41943 21330 81802 10255 20240 30028 40035 76066 8772/ 333 10335 59006 60289 70300 84709 84614 88456==
41943,2024,06,03,15,00,AAXX 03154 41943 02430 81602 10260 20240 30053 40060 8662/ 333 58001 70300 83710 84615 88458==
41943,2024,06,03,18,00,AAXX 03184 41943 02430 70000 10262 20250 30052 40059 84520 333 58003 70300 84616 85458==
41943,2024,06,03,21,00,AAXX 03214 41943 02430 80000 10260 20250 30055 40062 8662/ 333 58014 70300 83710 84615 88458==
41943,2024,06,04,00,00,AAXX 04004 41943 01435 81802 10255 20250 30051 40058 70262 8662/ 333 58009 70020 83710 84615 88458==
41943,2024,06,04,03,00,AAXX 04034 41943 02440 61802 10287 20250 30069 40076 84520 333 20255 58008 70320 84616 84458==
41943,2024,06,04,06,00,AAXX 04064 41943 02435 61303 10315 20260 30059 40066 84520 333 58006 70300 84616 85458==
41943,2024,06,04,09,00,AAXX 04094 41943 02440 61302 10312 20250 30041 40048 85420 333 58007 70080 84616 85458==
41943,2024,06,04,12,00,AAXX 04124 41943 02440 61802 10305 20260 30034 40041 84420 333 10325 58006 70020 83616 84458==
41943,2024,06,04,15,00,AAXX 04154 41943 02930 01802 10290 20260 30049 40056 333 59004 70020==
41943,2024,06,04,18,00,AAXX 04184 41943 02930 00000 10285 20270 30063 40070 333 58011 70020==
41943,2024,06,04,21,00,AAXX 04214 41943 02430 60000 10272 20260 30048 40055 83520 333 59007 70020 83618 84458==
41943,2024,06,05,00,00,AAXX 05004 41943 02435 80000 10270 20260 30045 40052 8662/ 333 59006 70000 83710 84615 88458==
41943,2024,06,05,03,00,AAXX 05034 41943 02440 61802 10315 20260 30060 40067 84520 333 20270 59009 70000 84616 84458==
41943,2024,06,05,06,00,AAXX 05064 41943 02435 71802 10325 20260 30057 40064 84420 333 59002 70000 83616 85458==
41943,2024,06,05,09,00,AAXX 05094 41943 02440 61802 10350 20260 30031 40038 84520 333 59010 70000 84616 84458==
41943,2024,06,05,12,00,AAXX 05124 41943 02940 01804 10325 20270 30023 40030 333 10355 59011 70000==
41943,2024,06,05,15,00,AAXX 05154 41943 02930 01802 10290 20270 30046 40053 333 59003 70000==
41943,2024,06,05,18,00,AAXX 05184 41943 02930 01802 10290 20280 30050 40057 333 59013 70000==
41943,2024,06,05,21,00,AAXX 05214 41943 02430 40000 10278 20270 30047 40054 82530 333 59001 70000 82618 83362==
41943,2024,06,06,00,00,AAXX 06004 41943 02430 40000 10278 20270 30047 40054 82530 333 59001 70000 82618 83362==
41943,2024,06,06,03,00,AAXX 06034 41943 02440 51802 10325 20280 30064 40070 83530 333 20276 58004 70000 83616 84362==
41943,2024,06,06,06,00,AAXX 06064 41943 01440 71802 10295 20260 30051 40058 70362 84420 333 59006 70240 83616 85458==
41943,2024,06,06,09,00,AAXX 06094 41943 02440 80000 10315 20260 30042 40049 84420 333 58011 70240 83616 85458==
41943,2024,06,06,12,00,AAXX 06124 41943 02440 61302 10305 20210 30020 40027 83520 333 10345 59003 70240 83616 84458==
41943,2024,06,06,15,00,AAXX 06154 41943 02440 61701 10285 20260 30033 40046 83520 333 59007 70240 83616 83458==
41943,2024,06,06,18,00,AAXX 06184 41943 02435 61801 10285 20280 30033 40040 83520 333 59017 70240 83616 83458==
41943,2024,06,06,21,00,AAXX 06214 41943 01430 61701 10283 20270 30032 40039 70522 83520 333 59015 70240 83616 84458==
41944,2024,05,31,00,00,AAXX 31004 41944 NIL=
41944,2024,05,31,18,00,AAXX 31184 41944 NIL=
41944,2024,06,01,00,00,AAXX 01004 41944 NIL=
41944,2024,06,03,12,00,AAXX 03124 41944 NIL=
41944,2024,06,03,18,00,AAXX 03184 41944 NIL=
41944,2024,06,04,00,00,AAXX 04004 41944 NIL=
41944,2024,06,04,06,00,AAXX 04064 41944 NIL=
41944,2024,06,04,12,00,AAXX 04124 41944 NIL=
41944,2024,06,05,00,00,AAXX 05004 41944 NIL=
41944,2024,06,05,06,00,AAXX 05064 41944 NIL=
41944,2024,06,05,12,00,AAXX 05124 41944 NIL=
41944,2024,06,05,18,00,AAXX 05184 41944 NIL=
41944,2024,06,06,06,00,AAXX 06064 41944 NIL=
41944,2024,06,06,12,00,AAXX 06124 41944 NIL=
41944,2024,06,06,18,00,AAXX 06184 41944 NIL=
41946,2024,05,31,00,00,AAXX 31004 41946 01450 82704 10269 20240 30018 40023 70296 8352/ 333 58013 70314 83618 88459==
41946,2024,05,31,03,00,AAXX 31034 41946 01350 80000 10274 20250 30043 40048 76062 8472/ 333 20244 58013 70320 81710 83617 88459==
41946,2024,05,31,06,00,AAXX 31064 41946 21450 83502 10278 20250 30064 40069 70262 8352/ 333 58047 69988 70322 83618 88459==
41946,2024,05,31,09,00,AAXX 31094 41946 02556 60000 10304 20250 30020 40025 83570 333 58019 70322 83620 85360==
41946,2024,05,31,12,00,AAXX 31124 41946 02/56 50000 10296 20260 30020 40025 83031 333 10311 58023 70322 83362 83080==
41946,2024,05,31,15,00,AAXX 31154 41946 02556 20000 10280 20260 30034 40039 82100 333 58013 70322 82825==
41946,2024,05,31,18,00,AAXX 31184 41946 02/56 20000 10277 20270 30039 40043 82030 333 58010 70322 82362==
41946,2024,05,31,21,00,AAXX 31214 41946 02956 00000 10280 20270 30034 40038 333 58003 70032==
41946,2024,06,01,00,00,AAXX 01004 41946 01950 31002 10284 20270 30028 40033 70500 80001 333 58010 70000 83080==
41946,2024,06,03,06,00,AAXX 03064 41946 02456 81812 10350 20270 30049 40053 8532/ 333 59008 70000 84618 88459 81928==
41946,2024,06,03,09,00,AAXX 03094 41946 01556 61003 10340 20250 30026 40030 70196 83510 333 59009 70004 83620 86459==
41946,2024,06,03,12,00,AAXX 03124 41946 11/56 60000 10322 20250 30017 40022 69946 70296 86070 333 10355 59016 70004 84459 84360==
41946,2024,06,03,15,00,AAXX 03154 41946 02456 41608 10304 20250 30044 40049 84400 333 59008 70004 82618 83820==
41946,2024,06,03,18,00,AAXX 03184 41946 02456 51703 10300 20270 30044 40049 85400 333 58000 70004 83618 83820==
41946,2024,06,03,21,00,AAXX 03214 41946 02/56 21703 10297 20270 30030 40035 82030 333 59004 70004 82362==
41946,2024,06,04,00,00,AAXX 04004 41946 02/56 31807 10294 20270 30034 40039 82041 333 59004 70004 82362==
41946,2024,06,04,03,00,AAXX 04034 41946 02456 31805 10325 20280 30055 40059 83400 333 20278 58000 70004 82618==
41946,2024,06,04,06,00,AAXX 04064 41946 02456 61808 10340 20270 30049 40053 84510 333 58000 70004 84618 85460==
41946,2024,06,04,09,00,AAXX 04094 41946 32557 11808 10356 20260 30029 40033 81500 333 56400 58003 70000 81620=
41946,2024,06,04,12,00,AAXX 04124 41946 02456 11805 10337 20270 30020 40024 81500 333 10359 58003 70000 81618==
41946,2024,06,04,15,00,AAXX 04154 41946 02456 61906 10317 20270 30050 40055 82520 333 58006 70000 82618 86459==
41946,2024,06,04,18,00,AAXX 04184 41946 01456 61402 10303 20280 30055 40060 71321 83320 333 58011 70000 82618 86459 81929==
41946,2024,06,04,21,00,AAXX 04214 41946 02456 60000 10297 20280 30028 40033 82570 333 59002 70000 82618 84460==
41946,2024,06,05,00,00,AAXX 05004 41946 01/50 70000 10291 20280 30036 40041 70522 87070 333 58002 70000 86460==
41946,2024,06,05,03,00,AAXX 05034 41946 02956 50000 10330 20260 30060 40064 80001 333 20290 58005 70000 85080==
41946,2024,06,05,06,00,AAXX 05064 41946 02956 00000 10350 20260 30051 40055 333 58002 70000==
41946,2024,06,05,09,00,AAXX 05094 41946 02957 00000 10364 20240 30028 40032 333 59001 70000==
41946,2024,06,05,12,00,AAXX 05124 41946 02956 00000 10350 20260 30018 40022 333 10364 59002 70000==
41946,2024,06,05,15,00,AAXX 05154 41946 02956 00000 10326 20260 30044 40048 333 59006 70000==
41946,2024,06,05,18,00,AAXX 05184 41946 02956 01802 10313 20270 30050 40055 333 59005 70000==
41946,2024,06,05,21,00,AAXX 05214 41946 02456 20000 10308 20280 30037 40042 82500 333 58009 70000 82618==
41946,2024,06,06,00,00,AAXX 06004 41946 02456 20000 10304 20280 30049 40055 82500 333 58013 70000 82618==
41946,2024,06,06,03,00,AAXX 06034 41946 02956 30000 10330 20280 30057 40061 80001 333 20300 59003 70000 83080==
41946,2024,06,06,06,00,AAXX 06064 41946 02956 30000 10355 20280 30052 40056 80001 333 58001 70000 83080==
41946,2024,06,06,09,00,AAXX 06094 41946 02557 30000 10360 20270 30023 40027 83400 333 59005 70000 82620==
41946,2024,06,06,12,00,AAXX 06124 41946 02556 30000 10348 20280 30013 40018 83300 333 10366 59005 70000 82825 81929==
41946,2024,06,06,15,00,AAXX 06154 41946 01/56 61606 10312 20220 30034 40039 70392 86020 333 59010 70000 86459==
41946,2024,06,06,18,00,AAXX 06184 41946 01/56 60000 10294 20230 30032 40037 70292 86020 333 59018 70000 86459==
41946,2024,06,06,21,00,AAXX 06214 41946 02/56 30000 10288 20240 30028 40033 83030 333 59009 70000 83362==
41947,2024,05,31,00,00,AAXX 31004 41947 21450 82108 10260 20250 30014 40016 70262 8432/ 333 58005 60035 70030 83618 88458 81930==
41947,2024,05,31,03,00,AAXX 31034 41947 02456 60000 10300 20250 30049 40051 83570 333 20255 58016 70030 83618 84459==
41947,2024,05,31,06,00,AAXX 31064 41947 02456 83210 10300 20250 30067 40069 8352/ 333 58046 70030 83618 88459==
41947,2024,05,31,09,00,AAXX 31094 41947 02456 80000 10298 20250 30018 40020 8352/ 333 58013 70030 83618 88458==
41947,2024,05,31,12,00,AAXX 31124 41947 02/56 41803 10314 20240 30023 40025 83031 333 10320 58021 70030 83362==
41947,2024,05,31,15,00,AAXX 31154 41947 02/56 30000 10290 20270 30035 40037 83030 333 58009 70030 83362==
41947,2024,05,31,18,00,AAXX 31184 41947 02956 32102 10290 20280 30041 40043 80001 333 58013 70030 83080==
41947,2024,05,31,21,00,AAXX 31214 41947 02956 00000 10294 20280 30040 40042 333 58027 70000==
41947,2024,06,01,00,00,AAXX 01004 41947 02956 00000 10290 20280 30039 40041 333 58025 70000==
41947,2024,06,01,03,00,AAXX 01034 41947 02456 62304 10325 20290 30056 40058 83570 333 20283 58007 70000 83618 83459==
41947,2024,06,03,06,00,AAXX 03064 41947 02456 60000 10350 20270 30048 40050 86400 333 59007 70000 83618 83820==
41947,2024,06,03,09,00,AAXX 03094 41947 01450 81807 10282 20250 30032 40034 72196 8672/ 333 59011 70010 82709 83616 88458==
41947,2024,06,03,12,00,AAXX 03124 41947 21450 81302 10290 20260 30021 40023 70292 8552/ 333 10350 59013 60015 70010 84618 88458==
41947,2024,06,03,15,00,AAXX 03154 41947 02450 81802 10300 20270 30048 40050 8352/ 333 59010 70010 83618 88458==
41947,2024,06,03,18,00,AAXX 03184 41947 02450 80000 10300 20270 30048 40050 8352/ 333 58000 70010 83618 88458==
41947,2024,06,03,21,00,AAXX 03214 41947 02450 60000 10287 20270 30043 40045 82570 333 58000 70010 82618 85459==
41947,2024,06,04,00,00,AAXX 04004 41947 02456 60000 10285 20280 30038 40040 82570 333 59005 70010 82618 85459==
41947,2024,06,04,03,00,AAXX 04034 41947 02456 61804 10323 20270 30058 40060 83570 333 20278 58002 70010 83618 84459==
41947,2024,06,04,06,00,AAXX 04064 41947 02456 71802 10350 20270 30051 40053 83570 333 58003 70010 83618 85459==
41947,2024,06,04,09,00,AAXX 04094 41947 32456 51804 10344 20270 30031 40033 85400 333 56900 59001 70000 83618 83820=
41947,2024,06,04,12,00,AAXX 04124 41947 02456 31802 10333 20260 30021 40023 83400 333 10360 58000 70000 82618==
41947,2024,06,04,15,00,AAXX 04154 41947 02456 31803 10314 20270 30048 40050 83400 333 58000 70000 82618==
41947,2024,06,04,18,00,AAXX 04184 41947 02956 01803 10302 20280 30056 40058 333 58008 70000==
41947,2024,06,04,21,00,AAXX 04214 41947 02/56 30000 10296 20290 30031 40033 83030 333 59012 70000 83362==
41947,2024,06,05,00,00,AAXX 05004 41947 02456 71802 10295 20290 30036 40038 83570 333 59002 70000 83618 85459==
41947,2024,06,05,03,00,AAXX 05034 41947 02456 71802 10323 20280 30062 40064 83570 333 20285 58004 70000 83618 85459==
41947,2024,06,05,06,00,AAXX 05064 41947 02457 61802 10355 20280 30051 40053 83570 333 58000 70000 83618 84459==
41947,2024,06,05,09,00,AAXX 05094 41947 02456 80000 10365 20250 30026 40028 8452/ 333 59004 70000 84616 88458==
41947,2024,06,05,12,00,AAXX 05124 41947 02456 51802 10345 20270 30019 40021 82530 333 10367 59002 70000 82618 83362==
41947,2024,06,05,15,00,AAXX 05154 41947 02450 50000 10320 20270 30040 40042 82530 333 59008 70000 82618 83362==
41947,2024,06,05,18,00,AAXX 05184 41947 02450 50000 10310 20280 30046 40048 82530 333 59010 70000 82618 83362==
41947,2024,06,05,21,00,AAXX 05214 41947 02450 50000 10302 20280 30045 40047 82530 333 58014 70000 82618 83362==
41947,2024,06,06,00,00,AAXX 06004 41947 02450 50000 10298 20290 30044 40046 82530 333 58008 70000 82618 83362==
41947,2024,06,06,03,00,AAXX 06034 41947 02456 50000 10330 20260 30061 40064 85400 333 20294 58000 70000 82618 83820==
41947,2024,06,06,06,00,AAXX 06064 41947 02456 50000 10352 20270 30054 40057 85400 333 58004 70000 82618 83820==
41947,2024,06,06,09,00,AAXX 06094 41947 02456 60000 10370 20240 30025 40027 85530 333 59001 70000 85618==
41947,2024,06,06,12,00,AAXX 06124 41947 02456 20000 10358 20260 30015 40017 82500 333 10375 59004 70000 82618==
41947,2024,06,06,15,00,AAXX 06154 41947 02450 51405 10320 20260 30037 40039 83570 333 59003 70000 83618 84458==
41947,2024,06,06,18,00,AAXX 06184 41947 02450 30000 10295 20260 30034 40036 83500 333 59012 70000 82618==
41947,2024,06,06,21,00,AAXX 06214 41947 02450 30000 10285 20280 30033 40035 83500 333 59012 70000 83618==
41950,2024,05,31,00,00,AAXX 31004 41950 21350 81202 10282 20260 30014 40016 70362 8562/ 333 59002 69975 70007 82708 84616 88458==
41950,2024,05,31,03,00,AAXX 31034 41950 02450 60000 10308 20250 30048 40050 84470 333 20275 58011 70007 83616 84459==
41950,2024,05,31,06,00,AAXX 31064 41950 42350 70000 10332 20250 30057 40060 85610 333 82708 83616 87459==
41950,2024,05,31,09,00,AAXX 31094 41950 02350 81802 10315 20230 30012 40015 8462/ 333 58002 70007 81708 84616 88458==
41950,2024,05,31,12,00,AAXX 31124 41950 02/50 50000 10317 20260 30017 40020 84031 333 10340 58008 70007 84362==
41950,2024,05,31,15,00,AAXX 31154 41950 02950 00000 10292 20270 30037 40040 333 58008 70007==
41950,2024,05,31,18,00,AAXX 31184 41950 02950 00000 10292 20270 30042 40045 333 58015 70007==
41950,2024,05,31,21,00,AAXX 31214 41950 02950 00000 10288 20280 30041 40043 333 58025 70000==
41950,2024,06,01,00,00,AAXX 01004 41950 02950 20000 10288 20280 30039 40041 80001 333 58025 70000 82080==
41950,2024,06,01,03,00,AAXX 01034 41950 02450 40000 10328 20270 30058 40061 83530 333 20283 58010 70000 83617==
41950,2024,06,03,06,00,AAXX 03064 41950 02450 31802 10350 20260 30049 40051 83400 333 59011 70000 82617==
41950,2024,06,03,09,00,AAXX 03094 41950 01350 82707 10308 20250 30050 40053 71792 8692/ 333 58010 70000 82708 84616 88458 81925==
41950,2024,06,03,12,00,AAXX 03124 41950 21450 80000 10272 20250 30023 40026 70296 8352/ 333 10356 59011 60015 70010 83616 88458==
41950,2024,06,03,15,00,AAXX 03154 41950 02450 10000 10280 20270 30046 40048 81500 333 59011 70010 81617==
41950,2024,06,03,18,00,AAXX 03184 41950 02350 80000 10288 20280 30047 40049 8562/ 333 59010 70010 82708 84616 88458==
41950,2024,06,03,21,00,AAXX 03214 41950 02450 60000 10284 20260 30045 40047 83510 333 58003 70010 83617 86459==
41950,2024,06,04,00,00,AAXX 04004 41950 02450 20000 10282 20260 30043 40045 82501 333 58001 70010 82617==
41950,2024,06,04,03,00,AAXX 04034 41950 02450 50000 10324 20270 30064 40067 85400 333 20255 58009 70010 83617==
41950,2024,06,04,06,00,AAXX 04064 41950 02450 41902 10348 20270 30051 40054 84400 333 58002 70010 83617==
41950,2024,06,04,09,00,AAXX 04094 41950 02450 51802 10342 20270 30033 40036 85400 333 59017 70010 84617==
41950,2024,06,04,12,00,AAXX 04124 41950 02450 50000 10326 20280 30025 40028 83301 333 10348 58002 70000 82617 83080 81928==
41950,2024,06,04,15,00,AAXX 04154 41950 01450 30000 10305 20270 30052 40055 71321 83300 333 58006 70000 83617 81928==
41950,2024,06,04,18,00,AAXX 04184 41950 02950 00000 10280 20260 30054 40056 333 58007 70000==
41950,2024,06,04,21,00,AAXX 04214 41950 02950 20000 10283 20260 30042 40045 80001 333 59003 70000 82080==
41950,2024,06,05,00,00,AAXX 05004 41950 02950 20000 10290 20280 30034 40037 80001 333 59009 70000 82080==
41950,2024,06,05,03,00,AAXX 05034 41950 02450 61602 10330 20270 30060 40063 83570 333 20270 59004 70000 83617 84459==
41950,2024,06,05,06,00,AAXX 05064 41950 02450 40000 10347 20260 30055 40058 83530 333 58004 70000 83617==
41950,2024,06,05,09,00,AAXX 05094 41950 02450 61202 10340 20270 30031 40034 84430 333 59002 70000 83616 84362==
41950,2024,06,05,12,00,AAXX 05124 41950 02450 31602 10334 20270 30022 40024 83500 333 10364 59003 70000 83617==
41950,2024,06,05,15,00,AAXX 05154 41950 02450 31702 10310 20280 30044 40047 83500 333 59008 70000 83617==
41950,2024,06,05,18,00,AAXX 05184 41950 02450 30000 10300 20280 30052 40055 83500 333 59002 70000 83617==
41950,2024,06,05,21,00,AAXX 05214 41950 02450 20000 10295 20290 30045 40048 82500 333 58003 70000 82617==
41950,2024,06,06,00,00,AAXX 06004 41950 02450 20000 10295 20290 30045 40048 82500 333 58003 70000 82617==
41950,2024,06,06,03,00,AAXX 06034 41950 02450 60000 10330 20280 30060 40063 83531 333 20288 58000 70000 83617 83362==
41950,2024,06,06,06,00,AAXX 06064 41950 02450 50000 10362 20260 30057 40059 84430 333 58002 70000 83617 83362==
41950,2024,06,06,09,00,AAXX 06094 41950 02450 50602 10368 20280 30026 40028 84430 333 59005 70000 83617==
41950,2024,06,06,12,00,AAXX 06124 41950 02450 20000 10332 20270 30014 40016 82500 333 10372 59008 70000 82617==
41950,2024,06,06,15,00,AAXX 06154 41950 02450 60000 10322 20270 30038 40041 83510 333 59006 70000 83617 84459==
41950,2024,06,06,18,00,AAXX 06184 41950 02450 60000 10306 20280 30040 40043 83510 333 59012 70000 83617 84459==
41950,2024,06,06,21,00,AAXX 06214 41950 02350 70000 10290 20260 30032 40035 84610 333 59012 70000 81708 83617 87459==
41951,2024,05,31,00,00,AAXX 31004 41951 21340 81504 10290 20270 30008 40013 70262 8562/ 333 59009 60065 70062 81709 84618 88458==
41951,2024,05,31,03,00,AAXX 31034 41951 02340 71803 10316 20270 30035 40040 84610 333 20265 58001 70062 81709 83618 85459==
41951,2024,05,31,06,00,AAXX 31064 41951 02350 72407 10346 20270 30043 40048 84610 333 58017 70062 81709 83618 86459==
41951,2024,05,31,09,00,AAXX 31094 41951 02450 71503 10330 20260 30007 40012 83510 333 59002 70062 83618 86459==
41951,2024,05,31,12,00,AAXX 31124 41951 02456 61302 10320 20270 30010 40015 83510 333 10348 58006 70062 83618 85459==
41951,2024,05,31,15,00,AAXX 31154 41951 02450 20000 10300 20290 30032 40037 82500 333 58003 70062 82618==
41951,2024,05,31,18,00,AAXX 31184 41951 NIL=
41951,2024,05,31,21,00,AAXX 31214 41951 02440 50000 10294 20280 30038 40043 82510 333 58021 70000 82618 84459==
41951,2024,06,01,00,00,AAXX 01004 41951 02440 71302 10295 20290 30035 40040 83510 333 58027 70000 83618 85458==
41951,2024,06,01,03,00,AAXX 01034 41951 02456 61303 10327 20290 30046 40051 83510 333 20284 58011 70000 83618 85459==
41951,2024,06,03,06,00,AAXX 03064 41951 02456 62203 10345 20280 30046 40051 83510 333 59004 70003 83618 85459==
41951,2024,06,03,09,00,AAXX 03094 41951 02350 71503 10342 20270 30031 40036 84610 333 59007 70058 81709 83618 86458==
41951,2024,06,03,12,00,AAXX 03124 41951 01340 81302 10268 20260 30023 40027 70362 8562/ 333 10350 59005 70085 81708 84618 88458==
41951,2024,06,03,15,00,AAXX 03154 41951 02340 80000 10282 20270 30051 40056 8562/ 333 59004 70085 82708 84618 88458==
41951,2024,06,03,18,00,AAXX 03184 41951 02340 70000 10282 20270 30051 40056 84610 333 58001 70085 81709 84618 86459==
41951,2024,06,03,21,00,AAXX 03214 41951 02340 80000 10280 20280 30047 40052 8562/ 333 58005 70085 81708 84618 88458==
41951,2024,06,04,00,00,AAXX 04004 41951 02340 80000 10278 20278 30043 40047 8562/ 333 58004 70085 81708 84618 88458==
41951,2024,06,04,03,00,AAXX 04034 41951 01450 71302 10304 20280 30058 40063 72162 83510 333 20250 58005 70134 83618 86459==
41951,2024,06,04,06,00,AAXX 04064 41951 21456 31502 10322 20270 30050 40055 70162 83500 333 58004 60058 70134 83618==
41951,2024,06,04,09,00,AAXX 04094 41951 02456 62102 10342 20270 30033 40038 83510 333 58002 70131 83618 85459==
41951,2024,06,04,12,00,AAXX 04124 41951 02456 30802 10314 20270 30022 40027 83500 333 10345 59001 70049 83618==
41951,2024,06,04,15,00,AAXX 04154 41951 02950 01502 10298 20280 30049 40054 333 59002 70049==
41951,2024,06,04,18,00,AAXX 04184 41951 02450 60000 10288 20280 30057 40062 83510 333 58006 70049 83618 85459==
41951,2024,06,04,21,00,AAXX 04214 41951 02450 30000 10286 20280 30046 40051 83500 333 59001 70049 83618==
41951,2024,06,05,00,00,AAXX 05004 41951 02950 00000 10285 20280 30031 40036 333 59012 70049==
41951,2024,06,05,03,00,AAXX 05034 41951 02456 61302 10318 20280 30048 40053 83510 333 20276 59010 70000 83618 85459==
41951,2024,06,05,06,00,AAXX 05064 41951 01456 60503 10333 20270 30050 40055 72162 83510 333 58000 70008 83618 85459==
41951,2024,06,05,09,00,AAXX 05094 41951 01456 30502 10342 20280 30028 40033 70162 83500 333 59005 70023 83618==
41951,2024,06,05,12,00,AAXX 05124 41951 12456 30000 10330 20290 30016 40021 60026 83500 333 10344 59006 70023 83618==
41951,2024,06,05,15,00,AAXX 05154 41951 02450 20000 10308 20290 30040 40045 82500 333 59009 70023 82618==
41951,2024,06,05,18,00,AAXX 05184 41951 02450 30000 10298 20290 30049 40054 83500 333 59008 70023 83618==
41951,2024,06,05,21,00,AAXX 05214 41951 02450 50000 10296 20290 30046 40051 82510 333 58000 70023 82618 84459==
41951,2024,06,06,00,00,AAXX 06004 41951 02450 60000 10294 20280 30043 40048 83510 333 58012 70023 83618 85459==
41951,2024,06,06,03,00,AAXX 06034 41951 02456 61302 10332 20280 30052 40057 83510 333 20284 58004 70023 83618 85459==
41951,2024,06,06,06,00,AAXX 06064 41951 02456 51003 10353 20280 30047 40052 82510 333 59003 70015 82618 84459==
41951,2024,06,06,09,00,AAXX 06094 41951 02450 70202 10337 20280 30025 40030 83510 333 59003 70000 83618 86459==
41951,2024,06,06,12,00,AAXX 06124 41951 02456 60000 10328 20290 30010 40015 83510 333 10355 59006 70000 83618 85459==
41951,2024,06,06,15,00,AAXX 06154 41951 02450 60000 10312 20280 30039 40044 83510 333 59001 70000 83618 85459==
41951,2024,06,06,18,00,AAXX 06184 41951 02340 80000 10302 20290 30029 40034 8562/ 333 59020 70000 81709 84618 88458==
41951,2024,06,06,21,00,AAXX 06214 41951 02340 80000 10295 20290 30027 40032 8562/ 333 59019 70000 81709 84618 88458==
41953,2024,05,31,00,00,AAXX 31004 41953 02440 21802 10290 20280 30029 40034 82500 333 59005 70000 82618==
41953,2024,05,31,03,00,AAXX 31034 41953 02445 51802 10322 20280 30051 40056 82510 333 20286 58002 70000 82618 84458==
41953,2024,05,31,06,00,AAXX 31064 41953 02450 71803 10342 20260 30052 40057 83510 333 58018 70000 83616 86458==
41953,2024,05,31,09,00,AAXX 31094 41953 02450 71803 10340 20260 30027 40032 83510 333 58009 70000 83616 86458==
41953,2024,05,31,12,00,AAXX 31124 41953 02450 50000 10325 20260 30021 40026 83510 333 10345 58004 70000 83618 85458==
41953,2024,05,31,15,00,AAXX 31154 41953 02440 40000 10300 20280 30035 40040 82510 333 59001 70000 82618 84458==
41953,2024,05,31,18,00,AAXX 31184 41953 02440 40000 10292 20270 30041 40046 82510 333 58004 70000 82618 84458==
41953,2024,05,31,21,00,AAXX 31214 41953 02440 40000 10288 20280 30035 40040 82510 333 58002 70000 82618 84458==
41953,2024,06,01,00,00,AAXX 01004 41953 02940 00000 10285 20280 30045 40050 333 58016 70000==
41953,2024,06,01,03,00,AAXX 01034 41953 02450 81803 10330 20270 30060 40065 8352/ 333 20285 58009 70000 83616 88458==
41953,2024,06,03,06,00,AAXX 03064 41953 02450 50503 10350 20270 30050 40055 83400 333 59010 70000 82616 83825==
41953,2024,06,03,09,00,AAXX 03094 41953 01450 60504 10320 20260 30036 40041 70362 83510 333 59006 70010 83616 85458==
41953,2024,06,03,12,00,AAXX 03124 41953 01440 81305 10262 20240 30032 40037 76166 8352/ 333 10353 59005 70090 83614 88458==
41953,2024,06,03,15,00,AAXX 03154 41953 01435 60504 10270 20250 30057 40062 70162 83510 333 58002 70110 83616 85458==
41953,2024,06,03,18,00,AAXX 03184 41953 11430 80503 10272 20250 30066 40071 60026 70362 8352/ 333 58009 70110 83616 88458==
41953,2024,06,03,21,00,AAXX 03214 41953 02430 81303 10273 20250 30056 40061 8352/ 333 58006 70110 83616 88458==
41953,2024,06,04,00,00,AAXX 04004 41953 02440 81302 10275 20260 30055 40060 8352/ 333 58007 70110 83616 88458==
41953,2024,06,04,03,00,AAXX 04034 41953 01440 81304 10270 20240 30072 40077 72122 8352/ 333 20260 58010 70170 83615 88458==
41953,2024,06,04,06,00,AAXX 04064 41953 21445 81303 10302 20240 30059 40064 70262 8352/ 333 58009 60065 70170 83616 88458==
41953,2024,06,04,09,00,AAXX 04094 41953 32450 51302 10324 20250 30041 40046 82510 333 56990 58005 70160 82618 84458=
41953,2024,06,04,12,00,AAXX 04124 41953 02445 51301 10302 20250 30037 40042 82510 333 10325 58005 70080 82618 84458==
41953,2024,06,04,15,00,AAXX 04154 41953 02430 10000 10290 20270 30055 40060 81500 333 59002 70060 81618==
41953,2024,06,04,18,00,AAXX 04184 41953 02930 01802 10284 20260 30059 40064 333 59007 70060==
41953,2024,06,04,21,00,AAXX 04214 41953 02930 00000 10282 20270 30053 40058 333 59003 70060==
41953,2024,06,05,00,00,AAXX 05004 41953 02440 11301 10286 20280 30043 40048 81500 333 59012 70060 81618==
41953,2024,06,05,03,00,AAXX 05034 41953 02445 61302 10320 20270 30059 40064 84410 333 20270 59013 70000 83616 84458==
41953,2024,06,05,06,00,AAXX 05064 41953 02445 61302 10336 20260 30058 40063 84410 333 59001 70000 83616 84458==
41953,2024,06,05,09,00,AAXX 05094 41953 01450 30000 10340 20270 30035 40040 70162 83500 333 59006 70110 83618==
41953,2024,06,05,12,00,AAXX 05124 41953 11950 00000 10320 20270 30026 40031 60116 70062 333 10341 59011 70110==
41953,2024,06,05,15,00,AAXX 05154 41953 02940 00000 10310 20290 30051 40056 333 59004 70110==
41953,2024,06,05,18,00,AAXX 05184 41953 02940 00000 10300 20200 30054 40059 333 59005 70110==
41953,2024,06,05,21,00,AAXX 05214 41953 02935 00000 10295 20280 30053 40058 333 58000 70110==
41953,2024,06,06,00,00,AAXX 06004 41953 02940 00000 10290 20280 30054 40059 333 58011 70110==
41953,2024,06,06,03,00,AAXX 06034 41953 02450 60000 10332 20270 30066 40071 83510 333 20288 59006 70110 83616 85458==
41953,2024,06,06,06,00,AAXX 06064 41953 02450 40504 10335 20250 30054 40059 84400 333 59004 70110 83618==
41953,2024,06,06,09,00,AAXX 06094 41953 01450 70000 10300 20250 30032 40037 70362 82510 333 59003 70140 82618 86458==
41953,2024,06,06,12,00,AAXX 06124 41953 11440 50000 10314 20260 30021 40026 60146 70162 82510 333 10338 59005 70140 82618 84458==
41953,2024,06,06,15,00,AAXX 06154 41953 02430 50000 10298 20280 30045 40050 84310 333 59006 70140 82618 84458==
41953,2024,06,06,18,00,AAXX 06184 41953 02430 50000 10294 20280 30048 40053 82510 333 59006 70140 82618 84458==
41953,2024,06,06,21,00,AAXX 06214 41953 02430 80000 10294 20280 30043 40048 8352/ 333 59010 70140 83616 88458==
41955,2024,05,31,00,00,AAXX 31004 41955 NIL=
41955,2024,05,31,18,00,AAXX 31184 41955 NIL=
41955,2024,06,01,00,00,AAXX 01004 41955 NIL=
41955,2024,06,03,12,00,AAXX 03124 41955 NIL=
41955,2024,06,03,18,00,AAXX 03184 41955 NIL=
41955,2024,06,04,00,00,AAXX 04004 41955 NIL=
41955,2024,06,04,06,00,AAXX 04064 41955 NIL=
41955,2024,06,04,12,00,AAXX 04124 41955 NIL=
41955,2024,06,05,00,00,AAXX 05004 41955 NIL=
41955,2024,06,05,06,00,AAXX 05064 41955 NIL=
41955,2024,06,05,12,00,AAXX 05124 41955 NIL=
41955,2024,06,05,18,00,AAXX 05184 41955 NIL=
41955,2024,06,06,06,00,AAXX 06064 41955 NIL=
41955,2024,06,06,12,00,AAXX 06124 41955 NIL=
41955,2024,06,06,18,00,AAXX 06184 41955 NIL=
41958,2024,05,31,00,00,AAXX 31004 41958 11450 82101 10266 20250 30019 40022 69945 70262 8542/ 333 56599 58011 70004 84616 88459=
41958,2024,05,31,03,00,AAXX 31034 41958 32457 70000 10298 20260 30043 40045 85410 333 20258 56990 58010 70004 84616 87459=
41958,2024,05,31,06,00,AAXX 31064 41958 32457 73301 10308 20260 30065 40067 85410 333 56990 58050 70004 84616 87459=
41958,2024,05,31,12,00,AAXX 31124 41958 32956 20000 10310 20260 30019 40021 80001 333 10328 56009 58015 70000 82080=
41958,2024,05,31,15,00,AAXX 31154 41958 32950 01801 10284 20250 30033 40035 333 58012 70004=
41958,2024,05,31,18,00,AAXX 31184 41958 32940 00000 10280 20250 30040 40042 333 58013 70004=
41958,2024,05,31,21,00,AAXX 31214 41958 32940 00000 10282 20280 30033 40035 333 58015 70000=
41958,2024,06,01,00,00,AAXX 01004 41958 32450 21801 10286 20286 30035 40037 82500 333 56400 58016 70000 82617=
41958,2024,06,01,03,00,AAXX 01034 41958 32457 31801 10340 20280 30053 40055 83400 333 20283 56400 58010 70000 82617=
41958,2024,06,03,06,00,AAXX 03064 41958 32458 50000 10350 20280 30048 40050 85400 333 56400 59003 70280 84617=
41958,2024,06,03,09,00,AAXX 03094 41958 21458 81601 10277 20250 30031 40033 70396 8532/ 333 56999 59017 6009/ 70350 84616 81930 88459=
41958,2024,06,03,12,00,AAXX 03124 41958 11456 80000 10297 20280 30018 40020 60097 70296 8532/ 333 10351 56999 59011 70090 84616 81930 88459=
41958,2024,06,03,15,00,AAXX 03154 41958 32450 80000 10291 20260 30044 40046 8532/ 333 56999 59010 70090 84616 81930 88459=
41958,2024,06,03,18,00,AAXX 03184 41958 32450 50000 10284 20260 30044 40046 85400 333 56900 59005 70090 84617=
41958,2024,06,03,21,00,AAXX 03214 41958 32450 40000 10283 20270 30034 40036 84400 333 56900 58000 70090 83617=
41958,2024,06,04,00,00,AAXX 04004 41958 32450 40000 10282 20280 30036 40038 84400 333 56900 59001 70090 83617=
41958,2024,06,04,03,00,AAXX 04034 41958 32457 30000 10333 20270 30054 40056 83500 333 20265 56900 58000 70090 83617=
41958,2024,06,04,06,00,AAXX 04064 41958 32458 50000 10357 20280 30044 40046 85400 333 56400 59004 70090 83617=
41958,2024,06,04,09,00,AAXX 04094 41958 32457 81602 10318 20220 30031 40033 8532/ 333 56499 58000 70000 84616 81930 88459=
41958,2024,06,04,12,00,AAXX 04124 41958 11456 21801 10325 20280 30022 40024 69936 70196 82500 333 10358 56900 58004 70003 82617=
41958,2024,06,04,15,00,AAXX 04154 41958 32950 00000 10300 20280 30050 40052 333 58006 70003=
41958,2024,06,04,18,00,AAXX 04184 41958 32950 00000 10294 20280 30055 40057 333 58011 70003=
41958,2024,06,04,21,00,AAXX 04214 41958 32950 00000 10293 20280 30027 40029 333 59007 70003=
41958,2024,06,05,00,00,AAXX 05004 41958 32450 50000 10291 20280 30030 40032 85400 333 56900 59006 70003 84617=
41958,2024,06,05,03,00,AAXX 05034 41958 32457 40000 10338 20290 30055 40057 84400 333 20287 56900 58001 70003 83617=
41958,2024,06,05,06,00,AAXX 05064 41958 32458 40000 10360 20290 30048 40050 84400 333 56900 58004 70003 83617=
41958,2024,06,05,09,00,AAXX 05094 41958 32458 20000 10362 20260 30027 40029 82500 333 56900 59004 70003 83617=
41958,2024,06,05,12,00,AAXX 05124 41958 32956 00000 10334 20260 30019 40021 333 10368 59003 70000=
41958,2024,06,05,15,00,AAXX 05154 41958 32950 01801 10307 20290 30040 40042 333 59010 70000=
41958,2024,06,05,18,00,AAXX 05184 41958 32950 01802 10299 20290 30048 40050 333 59007 70000=
41958,2024,06,05,21,00,AAXX 05214 41958 32950 01801 10294 20290 30038 40040 333 58011 70000=
41958,2024,06,06,00,00,AAXX 06004 41958 32450 21801 10291 20290 30040 40043 82500 333 56900 58010 70000 82617=
41958,2024,06,06,03,00,AAXX 06034 41958 32457 21801 10338 20290 30057 40059 82500 333 56900 58001 70000 82617=
41958,2024,06,06,06,00,AAXX 06064 41958 32458 51801 10361 20270 30053 40055 85400 333 56400 58005 70000 84617=
41958,2024,06,06,09,00,AAXX 06094 41958 32458 50000 10368 20290 30024 40026 85400 333 56900 59003 70000 84617=
41958,2024,06,06,12,00,AAXX 06124 41958 32456 60000 10345 20300 30016 40018 85310 333 10370 56990 59003 70000 84616 81930 86459=
41958,2024,06,06,15,00,AAXX 06154 41958 31450 82701 10290 20250 30037 40039 71792 8592/ 333 56999 59003 70000 84616 82930 88459=
41958,2024,06,06,18,00,AAXX 06184 41958 31450 80000 10288 20280 30030 40032 70292 8532/ 333 56999 59018 70000 84616 81930 88459=
41958,2024,06,06,21,00,AAXX 06214 41958 32450 30000 10274 20260 30024 40026 83500 333 56900 59014 70000 83617=
41960,2024,05,31,00,00,AAXX 31004 41960 NIL=
41960,2024,05,31,03,00,AAXX 31034 41960 02456 81803 10312 20240 30049 40051 8542/ 333 20280 58010 70000 83618 88459==
41960,2024,05,31,06,00,AAXX 31064 41960 02456 81802 10330 20270 30050 40052 8542/ 333 58018 70000 83618 88459==
41960,2024,05,31,09,00,AAXX 31094 41960 02456 71602 10320 20230 30021 40023 85410 333 58006 70000 83618 87459==
41960,2024,05,31,12,00,AAXX 31124 41960 02450 50000 10314 20270 30021 40023 84431 333 10337 58007 70000 83618 85362==
41960,2024,05,31,15,00,AAXX 31154 41960 02450 30000 10300 20280 30039 40041 82410 333 58005 70000 81618 83459==
41960,2024,05,31,18,00,AAXX 31184 41960 02450 60000 10295 20290 30043 40045 84410 333 58010 70000 83618 86459==
41960,2024,05,31,21,00,AAXX 31214 41960 02450 40000 10293 20290 30045 40047 83410 333 58019 70000 82618 84460==
41960,2024,06,01,00,00,AAXX 01004 41960 02440 31801 10292 20290 30043 40045 83400 333 58023 70000 82618==
41960,2024,06,03,06,00,AAXX 03064 41960 02456 51803 10348 20270 30055 40057 85410 333 59002 70000 83618 84459==
41960,2024,06,03,09,00,AAXX 03094 41960 01450 81906 10342 20290 30040 40041 71722 8592/ 333 59007 70000 84617 83822 88459 82928==
41960,2024,06,03,12,00,AAXX 03124 41960 21450 80000 10284 20260 30025 40027 70296 8542/ 333 10355 59013 69947 70004 84617 83822 88459==
41960,2024,06,03,15,00,AAXX 03154 41960 02450 60000 10297 20280 30051 40053 84410 333 59003 70004 83618 86459==
41960,2024,06,03,18,00,AAXX 03184 41960 02450 60000 10293 20280 30051 40053 84410 333 59005 70004 83618 86459==
41960,2024,06,03,21,00,AAXX 03214 41960 02450 50000 10290 20280 30049 40051 83410 333 59001 70004 82618 85459==
41960,2024,06,04,00,00,AAXX 04004 41960 02450 30000 10287 20280 30046 40047 83401 333 58001 70004 82618 83078==
41960,2024,06,04,03,00,AAXX 04034 41960 02456 51802 10326 20290 30064 40066 83410 333 20267 58010 70004 83618 84459==
41960,2024,06,04,06,00,AAXX 04064 41960 02456 61802 10340 20280 30052 40053 85410 333 59003 70004 83618 85459==
41960,2024,06,04,09,00,AAXX 04094 41960 01456 51802 10327 20290 30039 40040 70162 84410 333 59001 70054 83618 85459==
41960,2024,06,04,12,00,AAXX 04124 41960 11450 51601 10323 20270 30031 40032 60056 70262 84410 333 10348 58006 70050 83618 85459==
41960,2024,06,04,15,00,AAXX 04154 41960 02950 00000 10300 20280 30054 40056 333 58003 70050==
41960,2024,06,04,18,00,AAXX 04184 41960 02950 00000 10292 20280 30062 40064 333 58011 70050==
41960,2024,06,04,21,00,AAXX 04214 41960 02950 00000 10290 20280 30048 40050 333 59001 70050==
41960,2024,06,05,00,00,AAXX 05004 41960 02/50 31202 10287 20280 30037 40039 83030 333 59009 70050 83364==
41960,2024,06,05,03,00,AAXX 05034 41960 02456 50000 10322 20270 30062 40064 82510 333 20280 59002 70050 82618 85458==
41960,2024,06,05,06,00,AAXX 05064 41960 02456 50000 10352 20270 30057 40058 83510 333 58005 70050 83618 85458==
41960,2024,06,05,09,00,AAXX 05094 41960 02456 51802 10357 20290 30034 40036 84410 333 59005 70000 83618 85459==
41960,2024,06,05,12,00,AAXX 05124 41960 02450 31804 10330 20280 30025 40026 83400 333 10361 59006 70000 82618==
41960,2024,06,05,15,00,AAXX 05154 41960 02950 01802 10308 20280 30046 40047 333 59008 70000==
41960,2024,06,05,18,00,AAXX 05184 41960 02950 00000 10300 20290 30053 40054 333 59009 70000==
41960,2024,06,05,21,00,AAXX 05214 41960 02950 00000 10296 20290 30051 40053 333 58003 70000==
41960,2024,06,06,00,00,AAXX 06004 41960 01940 00000 10293 20290 30051 40053 70500 333 58013 70000==
41960,2024,06,06,03,00,AAXX 06034 41960 02956 00000 10330 20290 30060 40062 333 20289 59002 70000==
41960,2024,06,06,06,00,AAXX 06064 41960 02456 30000 10362 20280 30051 40052 83400 333 59006 70000 82618==
41960,2024,06,06,09,00,AAXX 06094 41960 02457 21802 10373 20270 30028 40030 82400 333 59006 70000 81618==
41960,2024,06,06,12,00,AAXX 06124 41960 01430 82701 10320 20290 30026 40028 76121 8542/ 333 10375 59001 70010 84317 83822 88459==
41960,2024,06,06,15,00,AAXX 06154 41960 01450 81601 10307 20290 30042 40043 70262 8542/ 333 59004 70106 84617 88459==
41960,2024,06,06,18,00,AAXX 06184 41960 11450 50000 10304 20290 30038 40039 60096 70162 84410 333 59015 70106 83618 85459==
41960,2024,06,06,21,00,AAXX 06214 41960 02450 50000 10295 20290 30038 40039 83410 333 59013 70106 82618 85459==
41963,2024,05,31,00,00,AAXX 31004 41963 02440 81803 10285 20280 30039 40041 8372/ 333 59006 70000 82708 83616 88458==
41963,2024,05,31,03,00,AAXX 31034 41963 02456 21303 10325 20280 30050 40052 82500 333 20285 58000 70000 82618==
41963,2024,05,31,06,00,AAXX 31064 41963 02457 21803 10330 20270 30040 40043 82500 333 59001 70000 82618==
41963,2024,05,31,09,00,AAXX 31094 41963 02457 41802 10340 20280 30033 40035 82510 333 58001 70000 82618 84458==
41963,2024,05,31,12,00,AAXX 31124 41963 02950 01801 10310 20280 30020 40023 333 10345 59005 70000==
41963,2024,05,31,15,00,AAXX 31154 41963 02940 01801 10300 20290 30040 40042 333 58000 70000==
41963,2024,05,31,18,00,AAXX 31184 41963 NIL=
41963,2024,05,31,21,00,AAXX 31214 41963 02940 00000 10297 20290 30044 40046 333 59001 70000==
41963,2024,06,01,00,00,AAXX 01004 41963 02940 00000 10295 20290 30039 40041 333 58000 70000==
41963,2024,06,03,06,00,AAXX 03064 41963 02456 61802 10315 20300 30061 40063 82510 333 59001 70000 82618 86458==
41963,2024,06,03,09,00,AAXX 03094 41963 01456 61802 10320 20280 30043 40045 70262 82510 333 59005 70010 82618 86458==
41963,2024,06,03,12,00,AAXX 03124 41963 01350 81802 10270 20270 30035 40037 72162 8372/ 333 10340 59007 70160 82708 83616 88458==
41963,2024,06,03,15,00,AAXX 03154 41963 02440 21801 10285 20280 30053 40055 82500 333 59010 70160 82618==
41963,2024,06,03,18,00,AAXX 03184 41963 NIL=
41963,2024,06,03,21,00,AAXX 03214 41963 02440 20000 10284 20280 30056 40059 82500 333 59011 70160 82618==
41963,2024,06,04,00,00,AAXX 04004 41963 01340 81802 10270 20250 30055 40057 71796 8492/ 333 59008 70050 82708 83616 88458==
41963,2024,06,04,03,00,AAXX 04034 41963 01340 81802 10250 20250 30079 40082 76196 8372/ 333 20248 58015 70830 82708 83616 88458==
41963,2024,06,04,06,00,AAXX 04064 41963 12450 61801 10290 20260 30058 40061 60636 82510 333 59003 70830 82618 86458==
41963,2024,06,04,09,00,AAXX 04094 41963 02456 61801 10300 20260 30047 40049 82510 333 58004 70820 82618 86458==
41963,2024,06,04,12,00,AAXX 04124 41963 02440 61801 10300 20290 30036 40038 82510 333 10310 58001 70680 82618 86458==
41963,2024,06,04,15,00,AAXX 04154 41963 02940 01801 10290 20280 30053 40055 333 59010 70000==
41963,2024,06,04,21,00,AAXX 04214 41963 02940 00000 10285 20280 30056 40058 333 58000 70630==
41963,2024,06,05,00,00,AAXX 05004 41963 01940 00000 10283 20283 30052 40055 70500 333 59003 70000==
41963,2024,06,05,03,00,AAXX 05034 41963 02456 31801 10315 20290 30062 40065 82500 333 20280 59017 70010 83616==
41963,2024,06,05,06,00,AAXX 05064 41963 02456 51803 10330 20270 30050 40052 82510 333 59008 70000 82618 85458==
41963,2024,06,05,09,00,AAXX 05094 41963 02456 51801 10330 20270 30029 40032 82510 333 59018 70000 82618 85458==
41963,2024,06,05,12,00,AAXX 05124 41963 02950 01801 10312 20280 30033 40035 333 10340 59003 70000==
41963,2024,06,05,15,00,AAXX 05154 41963 02950 01801 10300 20290 30052 40054 333 59001 70000==
41963,2024,06,05,18,00,AAXX 05184 41963 NIL=
41963,2024,06,05,21,00,AAXX 05214 41963 02940 00000 10295 20290 30056 40058 333 58001 70000==
41963,2024,06,06,00,00,AAXX 06004 41963 02440 31801 10290 20280 30064 40066 82500 333 58012 70000 83618==
41963,2024,06,06,03,00,AAXX 06034 41963 02440 61801 10330 20270 30075 40078 82510 333 20280 58013 70000 82618 86458==
41963,2024,06,06,06,00,AAXX 06064 41963 02456 61801 10335 20290 30053 40056 82510 333 58003 70000 82618 86458==
41963,2024,06,06,09,00,AAXX 06094 41963 02456 61801 10335 20290 30032 40035 82510 333 58003 70000 82618 86458==
41963,2024,06,06,12,00,AAXX 06124 41963 02450 21801 10320 20270 30030 40032 82500 333 10338 59003 70000 82618==
41963,2024,06,06,15,00,AAXX 06154 41963 02440 21801 10305 20300 30052 40055 82500 333 58001 70000 82618==
41963,2024,06,06,18,00,AAXX 06184 41963 NIL=
41963,2024,06,06,21,00,AAXX 06214 41963 02430 31801 10297 20297 30040 40042 83500 333 59017 70000 83618==
41964,2024,05,31,00,00,AAXX 31004 41964 01556 51403 10277 20270 30035 40037 70262 82232 333 58014 70040 82826 84078==
41964,2024,05,31,03,00,AAXX 31034 41964 02457 71604 10310 20290 30045 40047 84510 333 20265 59001 70040 84618 85460==
41964,2024,05,31,06,00,AAXX 31064 41964 02457 51805 10330 20290 30048 40050 83510 333 58008 70040 83618 84460==
41964,2024,05,31,09,00,AAXX 31094 41964 02457 52405 10332 20280 30024 40027 84402 333 58004 70040 82618 83825==
41964,2024,05,31,12,00,AAXX 31124 41964 02457 52105 10310 20280 30017 40019 82532 333 10341 59001 70040 82618 84362==
41964,2024,05,31,15,00,AAXX 31154 41964 02457 22104 10300 20280 30031 40033 82500 333 59002 70040 82618==
41964,2024,05,31,18,00,AAXX 31184 41964 02457 21802 10293 20280 30039 40041 82500 333 58012 70040 82618==
41964,2024,05,31,21,00,AAXX 31214 41964 02457 20000 10289 20280 30039 40041 82500 333 58007 70040 82617==
41964,2024,06,01,00,00,AAXX 01004 41964 02457 21502 10287 20287 30041 40043 81230 333 58006 70000 81826==
41964,2024,06,03,06,00,AAXX 03064 41964 01457 61804 10322 20270 30058 40060 70262 83510 333 59002 70020 83618 85460==
41964,2024,06,03,09,00,AAXX 03094 41964 02457 52107 10324 20270 30037 40039 85400 333 59007 70020 83618 83825==
41964,2024,06,03,12,00,AAXX 03124 41964 01340 81605 10257 20250 30037 40039 79722 8692/ 333 10327 59002 70330 85707 84615 88457 81928==
41964,2024,06,03,15,00,AAXX 03154 41964 01456 61603 10281 20281 30053 40055 70196 83510 333 59001 70353 83617 85460==
41964,2024,06,03,18,00,AAXX 03184 41964 01456 51802 10273 20273 30050 40052 72196 85500 333 59004 70653 85617==
41964,2024,06,03,21,00,AAXX 03214 41964 01356 81602 10270 20260 30049 40052 71722 8632/ 333 59001 70653 82708 86615 88458 81928==
41964,2024,06,04,00,00,AAXX 04004 41964 21325 80000 10257 20257 30052 40055 79796 8792/ 333 58008 61347 71993 85707 85614 88457 81927==
41964,2024,06,04,03,00,AAXX 04034 41964 01330 81703 10248 20246 30075 40077 79596 8632/ 333 20240 58014 72300 84707 84615 88458 81927==
41964,2024,06,04,06,00,AAXX 04064 41964 21356 81704 10287 20280 30054 40057 70296 8662/ 333 59004 60338 72305 82709 85616 88460==
41964,2024,06,04,09,00,AAXX 04094 41964 32357 71804 10315 20280 30044 40046 86610 333 56490 58007 72305 82709 85616 85460=
41964,2024,06,04,12,00,AAXX 04124 41964 02457 61802 10300 20280 30038 40040 83402 333 10318 58001 71979 82618 85078==
41964,2024,06,04,15,00,AAXX 04154 41964 02457 31802 10287 20280 30050 40053 83500 333 59003 71972 83617==
41964,2024,06,04,18,00,AAXX 04184 41964 02456 11902 10288 20280 30060 40063 81500 333 58010 71672 81618==
41964,2024,06,04,21,00,AAXX 04214 41964 02456 50000 10286 20280 30054 40057 83510 333 58005 71672 83617 83460==
41964,2024,06,05,00,00,AAXX 05004 41964 02456 61602 10287 20280 30041 40044 84510 333 59011 70332 84617 85460==
41964,2024,06,05,03,00,AAXX 05034 41964 02457 31402 10319 20270 30057 40059 82510 333 20242 59018 70022 81619==
41964,2024,06,05,06,00,AAXX 05064 41964 02458 41603 10327 20280 30048 40050 84500 333 59006 70000 84619==
41964,2024,06,05,09,00,AAXX 05094 41964 02458 22104 10335 20290 30034 40036 81530 333 59010 70000 81618==
41964,2024,06,05,12,00,AAXX 05124 41964 02458 22102 10318 20280 30027 40029 81530 333 10338 59011 70000 81618==
41964,2024,06,05,15,00,AAXX 05154 41964 02456 12102 10300 20280 30048 40050 81500 333 59002 70000 81618==
41964,2024,06,05,18,00,AAXX 05184 41964 02456 31902 10300 20290 30047 40049 83500 333 59013 70000 83617==
41964,2024,06,05,21,00,AAXX 05214 41964 02456 60000 10296 20290 30046 40048 83510 333 59008 70000 83617 85460==
41964,2024,06,06,00,00,AAXX 06004 41964 02556 50000 10288 20280 30048 40050 83402 333 58007 70000 82620 83078==
41964,2024,06,06,03,00,AAXX 06034 41964 02457 51002 10325 20280 30064 40066 83510 333 20282 58007 70000 83618 84460==
41964,2024,06,06,06,00,AAXX 06064 41964 02457 51702 10340 20280 30053 40055 83510 333 58005 70000 83618 84460==
41964,2024,06,06,09,00,AAXX 06094 41964 02457 32103 10342 20280 30029 40031 83500 333 59005 70000 83618==
41964,2024,06,06,12,00,AAXX 06124 41964 02457 32103 10321 20280 30020 40023 83530 333 10346 59007 70000 83618==
41964,2024,06,06,15,00,AAXX 06154 41964 02457 62102 10309 20290 30042 40044 83510 333 59006 70000 83618 85460==
41964,2024,06,06,18,00,AAXX 06184 41964 02457 31802 10306 20290 30033 40035 83500 333 59014 70000 83618==
41964,2024,06,06,21,00,AAXX 06214 41964 02456 71602 10300 20290 30031 40033 84510 333 59015 70000 84617 86460==
41965,2024,05,31,00,00,AAXX 31004 41965 02440 81303 10270 20260 30044 40053 8461/ 333 58009 70020 81710 83618 88460==
41965,2024,05,31,03,00,AAXX 31034 41965 02450 50000 10300 20250 30040 40049 84610 333 20262 59007 70020 83618 88460==
41965,2024,05,31,06,00,AAXX 31064 41965 02456 51402 10335 20270 30047 40056 84610 333 58010 70020 83618 84460==
41965,2024,05,31,09,00,AAXX 31094 41965 02440 81302 10285 20270 30029 40038 8461/ 333 58010 70110 81710 83618 88456==
41965,2024,05,31,12,00,AAXX 31124 41965 21440 80000 10305 20270 30021 40030 70262 8461/ 333 10340 58002 60137 70150 83618 88460==
41965,2024,05,31,15,00,AAXX 31154 41965 02430 80000 10290 20280 30034 40043 8461/ 333 58001 70150 83618 88460==
41965,2024,05,31,18,00,AAXX 31184 41965 NIL=
41965,2024,05,31,21,00,AAXX 31214 41965 02430 60000 10285 20290 30042 40051 84610 333 70130 83618 86460==
41965,2024,06,01,00,00,AAXX 01004 41965 02440 50000 10290 20280 30049 40058 84610 333 70130 83618 84460==
41965,2024,06,03,06,00,AAXX 03064 41965 11456 31402 10325 20260 30051 40060 60046 70161 83600 333 59006 70040 83618==
41965,2024,06,03,09,00,AAXX 03094 41965 02456 53202 10325 20280 30033 40042 83610 333 59008 70040 83618 84460==
41965,2024,06,03,12,00,AAXX 03124 41965 01430 80802 10262 20250 30039 40048 79722 8361/ 333 10359 58001 70150 81710 83618 88460==
41965,2024,06,03,15,00,AAXX 03154 41965 01430 80000 10270 20250 30055 40064 70262 8461/ 333 59001 70220 81710 83618 88460==
41965,2024,06,03,18,00,AAXX 03184 41965 NIL=
41965,2024,06,03,21,00,AAXX 03214 41965 01430 81401 10255 20240 30058 40067 79796 8461/ 333 59001 70490 81710 83618 88460==
41965,2024,06,04,00,00,AAXX 04004 41965 21430 81402 10255 20250 30059 40068 79796 8461/ 333 58004 60479 70690 81710 83618 84456==
41965,2024,06,04,03,00,AAXX 04034 41965 01430 81303 10260 20230 30075 40084 76261 8462/ 333 20243 58010 70680 81710 83618 88456==
41965,2024,06,04,06,00,AAXX 04064 41965 21440 80000 10270 20240 30061 40070 70262 8461/ 333 58010 60088 70730 83618 88460==
41965,2024,06,04,09,00,AAXX 04094 41965 32450 81401 10316 20260 30042 40051 84610 333 56990 58009 70730 83618 86460=
41965,2024,06,04,12,00,AAXX 04124 41965 02440 60000 10290 20280 30047 40056 84610 333 10330 58008 70580 83618 86460==
41965,2024,06,04,15,00,AAXX 04154 41965 02430 60000 10283 20260 30054 40063 84610 333 59001 70550 83618 84460==
41965,2024,06,04,21,00,AAXX 04214 41965 02430 50000 10275 20260 30057 40066 84610 333 59001 70280 83618 84460==
41965,2024,06,05,00,00,AAXX 05004 41965 02440 50801 10270 20260 30047 40056 84610 333 59012 70080 83618 84460==
41965,2024,06,05,03,00,AAXX 05034 41965 02450 31402 10320 20270 30056 40065 83600 333 20255 59019 70050 83618==
41965,2024,06,05,06,00,AAXX 05064 41965 02456 31303 10340 20260 30042 40051 83600 333 59019 70000 83618==
41965,2024,06,05,09,00,AAXX 05094 41965 02456 52602 10330 20270 30028 40037 84610 333 59014 70000 83618 84460==
41965,2024,06,05,12,00,AAXX 05124 41965 02450 30000 10314 20280 30024 40033 83600 333 10350 59023 70000 83618==
41965,2024,06,05,15,00,AAXX 05154 41965 02440 30000 10290 20270 30048 40057 83600 333 59006 70000 83618==
41965,2024,06,05,18,00,AAXX 05184 41965 NIL=
41965,2024,06,06,03,00,AAXX 06034 41965 02456 30000 10325 20260 30064 40073 83600 333 20254 58008 70060 83618==
41965,2024,06,06,06,00,AAXX 06064 41965 02456 31402 10350 20260 30046 40055 83600 333 58004 70060 83618==
41965,2024,06,06,09,00,AAXX 06094 41965 02456 32201 10349 20240 30028 40037 83600 333 58000 70060 83618==
41965,2024,06,06,12,00,AAXX 06124 41965 02450 30000 10315 20280 30019 40028 83600 333 10355 59005 70060 83618==
41965,2024,06,06,15,00,AAXX 06154 41965 02440 30000 10300 20270 30041 40050 83600 333 59007 70060 83618==
41965,2024,06,06,18,00,AAXX 06184 41965 NIL=
41965,2024,06,06,21,00,AAXX 06214 41965 02430 30000 10285 20280 30048 40057 83600 333 59004 70000 83618==
41966,2024,05,31,00,00,AAXX 31004 41966 02440 70901 10280 20240 39976 40055 83510 333 58007 70000 83616 86460==
41966,2024,05,31,03,00,AAXX 31034 41966 02450 51301 10300 20240 39985 40063 82510 333 20270 59003 70000 82616 84460==
41966,2024,05,31,06,00,AAXX 31064 41966 02450 62601 10330 20220 39986 40063 83510 333 58012 70000 83616 85460==
41966,2024,05,31,09,00,AAXX 31094 41966 01450 71801 10318 20250 39966 40043 72162 83510 333 58011 70010 83616 86460==
41966,2024,05,31,12,00,AAXX 31124 41966 21450 70000 10280 20260 39955 40034 70296 83510 333 10335 58001 60105 70110 83616 86460==
41966,2024,05,31,18,00,AAXX 31184 41966 NIL=
41966,2024,06,01,00,00,AAXX 01004 41966 NIL=
41966,2024,06,03,06,00,AAXX 03064 41966 02550 51501 10335 20230 39990 40067 82130 333 59005 70000 82826 84362==
41966,2024,06,03,09,00,AAXX 03094 41966 02550 51801 10332 20210 39978 40055 82130 333 59002 70000 82826 84362==
41966,2024,06,03,12,00,AAXX 03124 41966 02440 61802 10310 20230 39977 40054 83510 333 10337 58000 70000 83616 85460==
41966,2024,06,03,18,00,AAXX 03184 41966 NIL=
41966,2024,06,03,21,00,AAXX 03214 41966 02430 61802 10282 20230 30002 40080 83510 333 58010 70000 83616 85460==
41966,2024,06,04,00,00,AAXX 04004 41966 01350 81201 10270 20240 30001 40080 76122 8472/ 333 58012 70020 82709 83616 88460==
41966,2024,06,04,03,00,AAXX 04034 41966 01450 81802 10280 20230 30003 40081 70262 8352/ 333 20260 58003 70048 83616 88460==
41966,2024,06,04,06,00,AAXX 04064 41966 01450 71901 10290 20250 39995 40072 70262 83510 333 58005 70066 83616 86460==
41966,2024,06,04,09,00,AAXX 04094 41966 02450 61801 10315 20250 39990 40065 82510 333 58014 70066 82616 85460==
41966,2024,06,04,12,00,AAXX 04124 41966 02440 61201 10290 20250 39975 40053 82510 333 10320 59001 70066 82616 85460==
41966,2024,06,04,15,00,AAXX 04154 41966 02430 61301 10286 20250 39984 40062 82510 333 59014 70066 82616 85460==
41966,2024,06,04,21,00,AAXX 04214 41966 42430 51501 10270 20250 39986 40065 82510 333 84460==
41966,2024,06,05,00,00,AAXX 05004 41966 02440 50901 10265 20250 39988 40067 82510 333 59013 70000 82616 84460==
41966,2024,06,05,03,00,AAXX 05034 41966 02450 40901 10315 20210 39998 40076 82510 333 20260 59005 70018 82616 83460==
41966,2024,06,05,06,00,AAXX 05064 41966 02450 40000 10340 20150 39989 40066 82510 333 59006 70000 82616 83460==
41966,2024,06,05,09,00,AAXX 05094 41966 02450 52401 10352 20190 39966 40042 82510 333 59026 70000 82616 84460==
41966,2024,06,05,12,00,AAXX 05124 41966 02440 51201 10325 20250 39978 40055 82510 333 10360 59002 70000 82616 84460==
41966,2024,06,05,18,00,AAXX 05184 41966 NIL=
41966,2024,06,05,21,00,AAXX 05214 41966 02430 50000 10285 20260 39998 40076 82510 333 58011 70000 82616 84460==
41966,2024,06,06,00,00,AAXX 06004 41966 02430 50000 10290 20260 30000 40079 82510 333 58002 70000 82616 84460==
41966,2024,06,06,03,00,AAXX 06034 41966 02450 51301 10338 20230 39999 40076 82510 333 20275 58000 70000 82616 84460==
41966,2024,06,06,06,00,AAXX 06064 41966 02450 63101 10350 20200 39988 40064 82510 333 59002 70000 82616 85460==
41966,2024,06,06,09,00,AAXX 06094 41966 02450 43101 10339 20220 39966 40043 82510 333 58001 70000 82616 83460==
41966,2024,06,06,12,00,AAXX 06124 41966 01440 63001 10290 20240 39958 40036 70362 83510 333 10355 59019 70005 83616 85460==
41966,2024,06,06,18,00,AAXX 06184 41966 NIL=
41977,2024,05,31,00,00,AAXX 31004 41977 01440 82104 10264 20250 30030 40068 79562 8792/ 333 58015 70180 83708 84614 88458 81927==
41977,2024,05,31,03,00,AAXX 31034 41977 01450 60905 10300 20270 30041 40079 70196 84570 333 20260 58007 70240 84618 84460==
41977,2024,05,31,06,00,AAXX 31064 41977 11450 71803 10335 20270 30034 40072 60066 70396 84520 333 58007 70240 84618 86460==
41977,2024,05,31,09,00,AAXX 31094 41977 01450 62304 10323 20270 30016 40053 72122 83510 333 58011 70256 83618 86460==
41977,2024,05,31,12,00,AAXX 31124 41977 21450 51903 10314 20270 30001 40038 70562 83510 333 10332 59004 60025 70256 83618 85460==
41977,2024,05,31,15,00,AAXX 31154 41977 01450 52303 10303 20260 30022 40059 70522 83510 333 58000 70256 83617 85459==
41977,2024,05,31,18,00,AAXX 31184 41977 01450 62102 10300 20270 30027 40064 70522 83570 333 58010 70256 83617 85460==
41977,2024,05,31,21,00,AAXX 31214 41977 01450 50000 10292 20270 30029 40056 70521 82530 333 58007 70256 82618 85362==
41977,2024,06,01,00,00,AAXX 01004 41977 01450 10000 10290 20280 30032 40069 70521 81500 333 58002 70076 81618==
41977,2024,06,03,06,00,AAXX 03064 41977 01450 61805 10330 20260 30044 40081 70522 84520 333 59008 70152 84616 85460==
41977,2024,06,03,09,00,AAXX 03094 41977 01450 52302 10332 20260 30017 40054 70522 82510 333 59013 70152 82618 85460==
41977,2024,06,03,12,00,AAXX 03124 41977 01450 72103 10307 20270 30023 40060 70522 84510 333 10337 59003 70152 84618 86460==
41977,2024,06,03,15,00,AAXX 03154 41977 01450 62102 10295 20260 30042 40080 70592 82510 333 58000 70152 82618 86460==
41977,2024,06,03,18,00,AAXX 03184 41977 01450 61802 10284 20250 30040 40078 72092 83530 333 58000 70000 83618 86362==
41977,2024,06,03,21,00,AAXX 03214 41977 01450 72103 10274 20250 30032 40070 70522 84570 333 59002 70152 84617 85460==
41977,2024,06,04,00,00,AAXX 04004 41977 01350 81803 10270 20260 30078 40086 71796 8692/ 333 58008 70020 83708 84615 88458 81928==
41977,2024,06,04,03,00,AAXX 04034 41977 01345 80000 10270 20260 30064 40102 79696 8692/ 333 20264 58011 70046 84710 84614 88458 84928==
41977,2024,06,04,06,00,AAXX 04064 41977 21345 80000 10280 20270 30047 40085 76196 8672/ 333 58003 60089 70096 83710 82614 88458==
41977,2024,06,04,09,00,AAXX 04094 41977 01356 71903 10312 20260 30027 40064 70162 84610 333 58010 70100 81710 84617 87459==
41977,2024,06,04,12,00,AAXX 04124 41977 11456 61802 10300 20270 30024 40061 69946 70162 83510 333 10315 58001 70100 83617 86460==
41977,2024,06,04,18,00,AAXX 04184 41977 02450 30000 10281 20270 30047 40084 83500 333 58007 70100 83618==
41977,2024,06,04,21,00,AAXX 04214 41977 02450 50000 10273 20260 30033 40071 83510 333 58001 70100 83618 84460==
41977,2024,06,05,00,00,AAXX 05004 41977 02450 20000 10277 20260 30032 40069 82500 333 59016 70084 82618==
41977,2024,06,05,03,00,AAXX 05034 41977 02450 20000 10320 20250 30036 40074 82500 333 20270 59028 70054 82618==
41977,2024,06,05,06,00,AAXX 05064 41977 02450 60000 10333 20250 30051 40088 84520 333 58004 70004 84618 84462==
41977,2024,06,05,09,00,AAXX 05094 41977 02456 32103 10337 20260 30014 40051 81510 333 59013 70000 81618 83460==
41977,2024,06,05,12,00,AAXX 05124 41977 02456 22103 10312 20270 30016 40053 81510 333 10338 59008 70000 81618 82460==
41977,2024,06,05,15,00,AAXX 05154 41977 02456 42103 10307 20280 30037 40074 83510 333 59009 70000 83617 84460==
41977,2024,06,05,18,00,AAXX 05184 41977 01450 61804 10302 20270 30038 40075 70522 83530 333 59009 70000 83618 86362==
41977,2024,06,05,21,00,AAXX 05214 41977 01450 62103 10294 20270 30031 40068 70522 83530 333 59002 70000 83618 86362==
41977,2024,06,06,00,00,AAXX 06004 41977 01450 70000 10290 20270 30042 40079 70522 84570 333 58010 70000 84617 85460==
41977,2024,06,06,03,00,AAXX 06034 41977 01450 60000 10326 20290 30043 40081 70561 84570 333 20266 58007 70030 84616 85460==
41977,2024,06,06,06,00,AAXX 06064 41977 11450 72702 10350 20260 30032 40069 60036 70561 84510 333 59019 70030 84616 86460==
41977,2024,06,06,09,00,AAXX 06094 41977 01450 50000 10340 20260 30013 40050 70522 83510 333 59001 70030 83618 84460==
41977,2024,06,06,12,00,AAXX 06124 41977 01450 50000 10319 20280 30003 40040 70522 82501 333 10351 59013 70030 82618 85074==
41977,2024,06,06,15,00,AAXX 06154 41977 01450 51902 10313 20280 30031 40069 70522 84510 333 59006 70030 84616 85460==
41977,2024,06,06,18,00,AAXX 06184 41977 01450 71304 10310 20290 30024 40061 70522 84570 333 59014 70030 84616 85460==
41977,2024,06,06,21,00,AAXX 06214 41977 01450 81303 10290 20280 30016 40053 70552 8452/ 333 59015 70034 84615 88460==
41978,2024,05,31,00,00,AAXX 31004 41978 01431 82509 10280 20270 30047 40053 79522 8432/ 333 58013 70020 83614 88458 81928==
41978,2024,05,31,03,00,AAXX 31034 41978 01456 61306 10292 20280 30046 40052 70596 83370 333 20270 59008 70284 83618 85460 81928==
41978,2024,05,31,06,00,AAXX 31064 41978 11456 52106 10337 20290 30053 40059 60266 70596 83832 333 58011 70284 83620 83080==
41978,2024,05,31,09,00,AAXX 31094 41978 01456 42110 10333 20290 30036 40042 70522 84330 333 58014 70284 83618 81930==
41978,2024,05,31,12,00,AAXX 31124 41978 01456 31608 10314 20280 30017 40023 70511 83530 333 10338 59001 70248 83618==
41978,2024,05,31,15,00,AAXX 31154 41978 01456 42007 10304 20290 30037 40044 70510 82530 333 59001 70284 82618 83362==
41978,2024,05,31,18,00,AAXX 31184 41978 01456 52006 10302 20290 30041 40048 70511 82530 333 58007 70284 82618 84360==
41978,2024,05,31,21,00,AAXX 31214 41978 01450 52106 10292 20280 30040 40047 70511 82530 333 58010 70284 82618 84360==
41978,2024,06,01,00,00,AAXX 01004 41978 01440 51504 10288 20280 30048 40054 70511 82530 333 58001 70260 82618 84360==
41978,2024,06,01,03,00,AAXX 01034 41978 01457 32305 10320 20280 30060 40066 70510 83800 333 20284 58014 70000 83620==
41978,2024,06,01,12,00,AAXX 01124 41978 NIL=
41978,2024,06,01,18,00,AAXX 01184 41978 NIL=
41978,2024,06,02,12,00,AAXX 02124 41978 NIL=
41978,2024,06,02,18,00,AAXX 02184 41978 NIL=
41978,2024,06,03,06,00,AAXX 03064 41978 333 59004 70080 81620==
41978,2024,06,03,09,00,AAXX 03094 41978 01457 22110 10333 20280 30039 40046 70510 82800 333 59011 70080 81620==
41978,2024,06,03,12,00,AAXX 03124 41978 01456 72008 10310 20290 30036 40042 70521 83320 333 10339 59010 70080 83618 86460 81930==
41978,2024,06,03,15,00,AAXX 03154 41978 01456 61205 10287 20270 30059 40065 70296 84320 333 59002 70106 83616 86460 81928==
41978,2024,06,03,18,00,AAXX 03184 41978 11456 61704 10282 20260 30056 40062 60036 70196 84320 333 58001 70106 83616 86460 81928==
41978,2024,06,03,21,00,AAXX 03214 41978 02456 71503 10278 20270 30049 40055 84320 333 58000 70106 83616 87460 81928==
41978,2024,06,04,00,00,AAXX 04004 41978 01456 71305 10270 20270 30055 40062 70262 84320 333 58000 70010 83616 87460 81928==
41978,2024,06,04,03,00,AAXX 04034 41978 01431 81805 10274 20260 30080 40086 76096 8532/ 333 20267 58010 70050 83710 88459 82925==
41978,2024,06,04,06,00,AAXX 04064 41978 01457 81715 10297 20280 30060 40066 70596 8432/ 333 59003 70190 83614 88460 81928==
41978,2024,06,04,09,00,AAXX 04094 41978 01456 72006 10312 20280 30042 40048 70522 84320 333 58003 70190 83618 87460 81930==
41978,2024,06,04,12,00,AAXX 04124 41978 01456 31905 10301 20280 30042 40048 70511 83500 333 10315 58006 70190 83617==
41978,2024,06,04,15,00,AAXX 04154 41978 01456 30000 10294 20270 30053 40060 70510 83500 333 59006 70164 83617==
41978,2024,06,04,18,00,AAXX 04184 41978 01456 41403 10284 20270 30066 40072 70510 82530 333 58010 70164 82617 83360==
41978,2024,06,04,21,00,AAXX 04214 41978 01450 51303 10278 20270 30048 40055 70511 82530 333 59001 70164 82617 84360==
41978,2024,06,05,00,00,AAXX 05004 41978 01450 41104 10274 20260 30044 40051 70511 82530 333 59011 70150 82617 83360==
41978,2024,06,05,03,00,AAXX 05034 41978 02559 11707 10321 20280 30061 40067 81500 333 20264 59019 70140 81620==
41978,2024,06,05,06,00,AAXX 05064 41978 02459 22512 10334 20270 30059 40065 82100 333 59011 70000 82820==
41978,2024,06,05,09,00,AAXX 05094 41978 02557 22308 10334 20280 30036 40042 82100 333 59006 70000 82628==
41978,2024,06,05,12,00,AAXX 05124 41978 333 10338 59013 70000 82618==
41978,2024,06,05,15,00,AAXX 05154 41978 02456 32005 10306 20290 30055 40061 83500 333 58003 70000 83618==
41978,2024,06,05,18,00,AAXX 05184 41978 02456 32005 10302 20280 30056 40062 83500 333 58004 70000 83618==
41978,2024,06,05,21,00,AAXX 05214 41978 01456 31903 10297 20290 30050 40056 70511 83500 333 58002 70000 83618==
41978,2024,06,06,00,00,AAXX 06004 41978 01456 31903 10297 20290 30050 40056 70511 83500 333 58002 70000 83618==
41978,2024,06,06,03,00,AAXX 06034 41978 01456 61203 10326 20290 30062 40068 70596 82530 333 20282 58001 70004 82618 85360==
41978,2024,06,06,06,00,AAXX 06064 41978 11457 22003 10340 20280 30053 40059 69946 70596 82100 333 59006 70004 82820==
41978,2024,06,06,09,00,AAXX 06094 41978 01456 12310 10339 20290 30032 40038 70511 81500 333 59004 70004 81619==
41978,2024,06,06,12,00,AAXX 06124 41978 01456 12207 10324 20290 30028 40034 70511 81500 333 10348 59001 70004 81618==
41978,2024,06,06,15,00,AAXX 06154 41978 01450 31805 10312 20290 30047 40053 70511 83500 333 59008 70004 83618==
41978,2024,06,06,18,00,AAXX 06184 41978 01456 31604 10302 20280 30040 40046 70511 83500 333 58016 70004 83617==
41978,2024,06,06,21,00,AAXX 06214 41978 01450 81804 10263 20260 30039 40045 72121 8432/ 333 59011 70496 84616 88459 81929==
41980,2024,05,31,00,00,AAXX 31004 41980 32450 31702 10286 20260 39942 40053 333 55900 58008 70010 83616=
41980,2024,05,31,12,00,AAXX 31124 41980 32450 61702 10302 20270 39922 40032 83520 333 10333 56990 59001 70000 83616 86458=
41980,2024,05,31,18,00,AAXX 31184 41980 NIL=
41980,2024,06,01,00,00,AAXX 01004 41980 32450 80000 10269 20260 39948 40059 8352/ 333 56999 58004 70000 83616 88458=
41980,2024,06,03,12,00,AAXX 03124 41980 32450 30000 10303 20250 39943 40054 52810 333 10326 56990 59005 70000 82617=
41980,2024,06,03,18,00,AAXX 03184 41980 NIL=
41980,2024,06,04,00,00,AAXX 04004 41980 32450 80000 10262 20250 39960 40072 60034 70362 8352/ 333 56999 58007 70050 83618 88458=
41980,2024,06,04,06,00,AAXX 04064 41980 NIL=
41980,2024,06,04,12,00,AAXX 04124 41980 32450 50000 10276 20260 39942 40053 82510 333 10316 56990 59018 70090 82617 83458=
41980,2024,06,05,00,00,AAXX 05004 41980 32450 30000 10256 20250 39945 40057 82510 333 56990 59015 70040 82617=
41980,2024,06,05,06,00,AAXX 05064 41980 NIL=
41980,2024,06,05,12,00,AAXX 05124 41980 32450 30000 10306 20260 39932 40042 82510 333 10344 56990 59010 70000 82617=
41980,2024,06,05,18,00,AAXX 05184 41980 NIL=
41980,2024,06,06,00,00,AAXX 06004 41980 32450 30000 10274 20250 39950 40062 82510 333 56990 58005 82617=
41980,2024,06,06,06,00,AAXX 06064 41980 NIL=
41980,2024,06,06,12,00,AAXX 06124 41980 32450 50000 10317 20270 39926 40036 82510 333 10352 56990 59006 70000 82617 83458=
41980,2024,06,06,18,00,AAXX 06184 41980 NIL=
41984,2024,05,31,00,00,AAXX 31004 41984 NIL=
41984,2024,05,31,03,00,AAXX 31034 41984 02456 82202 10323 20280 30030 40032 8352/ 333 20265 58003 70000 83618 88458==
41984,2024,05,31,06,00,AAXX 31064 41984 02456 82702 10330 20290 30040 40042 8352/ 333 58017 70000 83618 88458==
41984,2024,05,31,09,00,AAXX 31094 41984 02457 81801 10336 20290 30022 40024 8352/ 333 58018 70000 83618 88458==
41984,2024,05,31,12,00,AAXX 31124 41984 02456 81801 10318 20300 30008 40010 8352/ 333 10355 58000 70000 83618 88458==
41984,2024,05,31,15,00,AAXX 31154 41984 02440 80000 10300 20290 30028 40030 8352/ 333 58010 70000 83618 88458==
41984,2024,05,31,18,00,AAXX 31184 41984 NIL=
41984,2024,05,31,21,00,AAXX 31214 41984 02440 80000 10293 20290 30031 40033 8352/ 333 58011 70000 83618 84458==
41984,2024,06,01,00,00,AAXX 01004 41984 02450 50000 10291 20280 30030 40032 83510 333 58015 70000 83618 85458==
41984,2024,06,03,06,00,AAXX 03064 41984 02457 52203 10343 20290 30043 40045 83510 333 59007 70000 83618 85458==
41984,2024,06,03,09,00,AAXX 03094 41984 02457 82202 10340 20290 30032 40034 8352/ 333 59016 70000 83618 88458==
41984,2024,06,03,12,00,AAXX 03124 41984 21456 82202 10308 20290 30017 40019 70262 8352/ 333 10352 59013 60105 70100 83618 88458==
41984,2024,06,03,15,00,AAXX 03154 41984 02440 82202 10300 20290 30040 40042 8352/ 333 59008 70100 83618 88458==
41984,2024,06,03,18,00,AAXX 03184 41984 02440 82201 10299 20290 30049 40051 8352/ 333 58000 70100 83618 88458==
41984,2024,06,03,21,00,AAXX 03214 41984 02440 80000 10297 20290 30043 40045 8352/ 333 58002 70100 83618 88458==
41984,2024,06,04,00,00,AAXX 04004 41984 02450 80000 10296 20296 30035 40037 8352/ 333 58002 70110 83618 88458==
41984,2024,06,04,03,00,AAXX 04034 41984 02456 50000 10325 20290 30048 40050 83510 333 20290 58003 70110 83618 85458==
41984,2024,06,04,06,00,AAXX 04064 41984 02456 52603 10350 20300 30050 40052 85400 333 58007 70110 82618 83823==
41984,2024,06,04,09,00,AAXX 04094 41984 32456 62303 10343 20290 30037 40038 86400 333 56400 58004 70110 83618 83823=
41984,2024,06,04,12,00,AAXX 04124 41984 02456 51803 10318 20290 30019 40021 85400 333 10355 58002 70010 82618 83823==
41984,2024,06,04,15,00,AAXX 04154 41984 02440 60000 10300 20290 30044 40046 84410 333 58004 70010 83618 86459==
41984,2024,06,04,18,00,AAXX 04184 41984 02430 40000 10293 20280 30059 40061 84400 333 58010 70010 83618==
41984,2024,06,04,21,00,AAXX 04214 41984 02430 30000 10292 20290 30041 40043 83500 333 59002 70010 83618==
41984,2024,06,05,00,00,AAXX 05004 41984 02450 30000 10290 20290 30027 40029 83500 333 59008 70000 83618==
41984,2024,06,05,03,00,AAXX 05034 41984 02456 61803 10330 20290 30049 40051 86400 333 20285 58001 70000 83618 83823==
41984,2024,06,05,06,00,AAXX 05064 41984 02456 62303 10336 20290 30048 40050 86400 333 59002 70000 83618 83823==
41984,2024,06,05,09,00,AAXX 05094 41984 02458 41804 10343 20290 30032 40034 84400 333 59004 70000 83618==
41984,2024,06,05,12,00,AAXX 05124 41984 02456 31803 10320 20280 30019 40021 83400 333 10355 58000 70000 82618==
41984,2024,06,05,15,00,AAXX 05154 41984 02440 30000 10303 20290 30034 40036 83400 333 59010 70000 82618==
41984,2024,06,05,18,00,AAXX 05184 41984 02430 30000 10300 20290 30042 40044 83400 333 59017 70000 82682==
41984,2024,06,05,21,00,AAXX 05214 41984 02930 00000 10295 20295 30041 40043 333 58000 70000==
41984,2024,06,06,00,00,AAXX 06004 41984 02950 00000 10290 20290 30043 40045 333 58016 70000==
41984,2024,06,06,03,00,AAXX 06034 41984 02458 60000 10340 20290 30051 40053 84410 333 20286 58002 70000 83618 86459==
41984,2024,06,06,06,00,AAXX 06064 41984 02458 60000 10360 20290 30048 40050 84410 333 58000 70000 83618 86459==
41984,2024,06,06,09,00,AAXX 06094 41984 02458 61803 10360 20290 30022 40024 84410 333 59010 70000 83618 86459==
41984,2024,06,06,12,00,AAXX 06124 41984 02456 71803 10325 20290 30018 40020 85410 333 10374 59001 70000 84618 87459==
41984,2024,06,06,15,00,AAXX 06154 41984 02430 81803 10313 20290 30041 40043 8592/ 333 58007 70000 84618 88459 81930==
41984,2024,06,06,18,00,AAXX 06184 41984 02430 31803 10285 20260 30027 40029 83400 333 59015 70000 82618==
41984,2024,06,06,21,00,AAXX 06214 41984 02430 80000 10288 20250 30023 40025 8352/ 333 59018 70000 83618 88458==
41989,2024,05,31,00,00,AAXX 31004 41989 01440 50000 10288 20280 30037 40040 72121 82570 333 58003 70060 82618 83460==
41989,2024,05,31,03,00,AAXX 31034 41989 02456 61803 10295 20280 30059 40062 83570 333 20280 58019 70060 83618 84460==
41989,2024,05,31,09,00,AAXX 31094 41989 01456 51704 10324 20270 30041 40044 70262 82570 333 58012 70060 82618 83362==
41989,2024,05,31,12,00,AAXX 31124 41989 11456 31404 10317 20270 30032 40035 60006 70162 83600 333 10338 70060 83618==
41989,2024,05,31,15,00,AAXX 31154 41989 02450 31404 10300 20280 30042 40045 83500 333 59001 70000 83618==
41989,2024,05,31,18,00,AAXX 31184 41989 NIL=
41989,2024,05,31,21,00,AAXX 31214 41989 02430 33202 10290 20260 30056 40060 83500 333 58010 70060 83618==
41989,2024,06,01,00,00,AAXX 01004 41989 42440 51804 10285 20280 30040 40044 83530 333 58003 83618==
41989,2024,06,03,06,00,AAXX 03064 41989 02456 51304 10327 20260 30068 40071 82570 333 58001 70200 82618 83362==
41989,2024,06,03,09,00,AAXX 03094 41989 02450 51803 10325 20260 30045 40048 82530 333 59002 70020 82618 84362==
41989,2024,06,03,12,00,AAXX 03124 41989 01450 51803 10308 20260 30031 40034 70262 84430 333 10340 59010 70040 83618 84362==
41989,2024,06,03,15,00,AAXX 03154 41989 02450 41803 10282 20260 30059 40074 82530 333 59022 70240 82618 84362==
41989,2024,06,03,18,00,AAXX 03184 41989 01440 51803 10280 20260 30071 40074 70362 83570 333 59027 70010 83618 83460==
41989,2024,06,03,21,00,AAXX 03214 41989 01440 51402 10275 20260 30064 40068 70362 82570 333 70280 82618 84360==
41989,2024,06,04,00,00,AAXX 04004 41989 01440 61802 10268 20260 30061 40064 70362 83570 333 58001 70110 83618 84460==
41989,2024,06,04,03,00,AAXX 04034 41989 01330 81403 10270 20260 30081 40084 76122 8572/ 333 20262 58008 70120 82710 83614 88456==
41989,2024,06,04,06,00,AAXX 04064 41989 01450 71804 10305 20260 30064 40067 70162 84470 333 59004 70140 83618 84460==
41989,2024,06,04,09,00,AAXX 04094 41989 32456 41304 10318 20280 30050 40053 82530 333 56990 58005 70140 82618 84362=
41989,2024,06,04,12,00,AAXX 04124 41989 02456 21802 10307 20270 30042 40045 82500 333 10322 58012 70100 82618==
41989,2024,06,04,21,00,AAXX 04214 41989 02440 51803 10280 20260 30057 40060 83530 333 59007 70060 82618 83362==
41989,2024,06,05,00,00,AAXX 05004 41989 02440 51404 10270 20250 30051 40054 83530 333 59010 70030 83618 83362==
41989,2024,06,05,03,00,AAXX 05034 41989 02440 31803 10270 20250 30051 40054 83500 333 20265 59019 70020 83618==
41989,2024,06,05,06,00,AAXX 05064 41989 02456 21303 10328 20270 30058 40061 82500 333 59006 70000 82618==
41989,2024,06,05,09,00,AAXX 05094 41989 02450 31803 10330 20270 30044 40047 83500 333 59006 70000 83618==
41989,2024,06,05,12,00,AAXX 05124 41989 02450 41803 10315 20280 30037 40040 82530 333 10345 59005 70000 82618 83362==
41989,2024,06,05,15,00,AAXX 05154 41989 02450 41302 10300 20280 30052 40055 83530 333 59007 70000 83618==
41989,2024,06,05,18,00,AAXX 05184 41989 02450 31802 10294 20270 30059 40062 83530 333 59007 70000 83618==
41989,2024,06,05,21,00,AAXX 05214 41989 02450 30000 10295 20280 30054 40057 83500 333 59003 70000 83618==
41989,2024,06,06,00,00,AAXX 06004 41989 02450 60000 10293 20280 30049 40052 82570 333 59002 70000 82618 84460==
41989,2024,06,06,03,00,AAXX 06034 41989 02456 41803 10323 20280 30071 40074 82530 333 20286 58009 70000 83460==
41989,2024,06,06,06,00,AAXX 06064 41989 02450 41804 10330 20260 30066 40069 83530 333 58008 70000 83618 83362==
41989,2024,06,06,12,00,AAXX 06124 41989 02456 41303 10313 20270 30033 40036 82530 333 10343 59004 70000 82618 84362==
41989,2024,06,06,15,00,AAXX 06154 41989 02450 31803 10305 20250 30055 40058 83500 333 58003 70000 83618==
41989,2024,06,06,18,00,AAXX 06184 41989 NIL=
41989,2024,06,06,21,00,AAXX 06214 41989 02440 41402 10295 20280 30049 40052 82530 333 59005 70000 82618 83362==
41992,2024,05,31,00,00,AAXX 31004 41992 01425 40902 10290 20270 30062 40064 70522 82530 333 58022 70000 82616 84362==
41992,2024,05,31,03,00,AAXX 31034 41992 01430 61502 10280 20260 30060 40062 72192 84320 333 20275 58000 70110 83616 86260 81925==
41992,2024,05,31,06,00,AAXX 31064 41992 21435 61803 10335 20280 30059 40061 70596 82530 333 58008 60115 70110 82616 86362==
41992,2024,05,31,09,00,AAXX 31094 41992 01435 62103 10330 20280 30043 40045 70522 83530 333 58012 70110 83616 86362==
41992,2024,05,31,12,00,AAXX 31124 41992 01430 20000 10310 20280 30034 40036 70521 82500 333 10340 58003 70110 82616==
41992,2024,05,31,15,00,AAXX 31154 41992 01925 00000 10298 20280 30046 40048 70511 333 59004 70110==
41992,2024,05,31,18,00,AAXX 31184 41992 01/25 20000 10293 20270 30048 40050 70510 82030 333 58004 70110 82362==
41992,2024,05,31,21,00,AAXX 31214 41992 01425 40000 10290 20270 30039 40041 70521 82530 333 59007 70110 82616 84362==
41992,2024,06,01,00,00,AAXX 01004 41992 01430 40902 10285 20270 30052 40054 70522 82530 333 59010 70000 82616 84362==
41992,2024,06,01,03,00,AAXX 01034 41992 NIL=
41992,2024,06,03,06,00,AAXX 03064 41992 21/30 61805 10310 20240 30074 40076 70552 86010 333 58002 60008 70110 86460==
41992,2024,06,03,09,00,AAXX 03094 41992 01930 41506 10330 20260 30050 40052 70510 84001 333 59005 70110 84080==
41992,2024,06,03,12,00,AAXX 03124 41992 01430 82104 10280 20250 30056 40058 75155 8532/ 333 10333 58002 70000 84614 88458 81925==
41992,2024,06,03,15,00,AAXX 03154 41992 01320 81502 10273 20250 30067 40069 75155 8432/ 333 59005 70120 82708 84614 88458 81925==
41992,2024,06,03,18,00,AAXX 03184 41992 21420 70000 10270 20250 30066 40068 70552 84530 333 58002 60018 70120 84615 87360 81925==
41992,2024,06,03,21,00,AAXX 03214 41992 01420 80302 10265 20260 30053 40055 76196 8592/ 333 59006 70240 84615 88460 81925==
41992,2024,06,04,00,00,AAXX 04004 41992 21425 61503 10270 20260 30066 40068 72596 84520 333 59002 60208 70210 84615 86460==
41992,2024,06,04,03,00,AAXX 04034 41992 01430 61502 10280 20260 30079 40081 70522 82530 333 20258 58000 70210 82616 86362==
41992,2024,06,04,06,00,AAXX 04064 41992 01435 61806 10315 20270 30074 40076 70522 82530 333 58000 70210 82616 86362==
41992,2024,06,04,09,00,AAXX 04094 41992 01935 31806 10318 20270 30052 40054 70522 82530 333 59022 70210 82616 83362==
41992,2024,06,04,12,00,AAXX 04124 41992 01430 21506 10298 20260 30046 40048 70521 82500 333 10322 59010 70210 82616==
41992,2024,06,04,15,00,AAXX 04154 41992 01430 30000 10285 20270 30062 40064 70511 83500 333 59005 70200 83616==
41992,2024,06,04,18,00,AAXX 04184 41992 01930 00000 10278 20260 30071 40073 70510 333 58005 70200==
41992,2024,06,04,21,00,AAXX 04214 41992 41420 20000 10275 20260 30046 40048 70521 82500 333 59007 82616==
41992,2024,06,05,00,00,AAXX 05004 41992 01430 40902 10270 20250 30056 40058 70522 82530 333 59013 70000 82616 84362==
41992,2024,06,05,03,00,AAXX 05034 41992 01935 00000 10322 20250 30064 40066 70510 333 20266 59015 70000==
41992,2024,06,05,06,00,AAXX 05064 41992 01935 01804 10330 20260 30063 40065 70510 333 59011 70000==
41992,2024,06,05,09,00,AAXX 05094 41992 01435 42408 10330 20270 30046 40048 70521 82530 333 59006 70000 84362 82916==
41992,2024,06,05,12,00,AAXX 05124 41992 01430 62104 10320 20270 30039 40041 70522 82530 333 10336 59007 70000 82616 86362==
41992,2024,06,05,15,00,AAXX 05154 41992 01430 21502 10302 20270 30061 40063 70522 82500 333 59001 70000 82616==
41992,2024,06,05,18,00,AAXX 05184 41992 01/25 20000 10298 20280 30062 40064 70521 82030 333 59009 70000 82362==
41992,2024,06,05,21,00,AAXX 05214 41992 01425 60902 10290 20270 30049 40051 70522 84530 333 58003 70000 84616 86462==
41992,2024,06,06,00,00,AAXX 06004 41992 01425 60902 10290 20270 30049 40051 70522 84530 333 58003 70000 84616 86462==
41992,2024,06,06,03,00,AAXX 06034 41992 01435 30000 10327 20270 30068 40070 70562 82530 333 20278 58004 70030 82616 83362==
41992,2024,06,06,06,00,AAXX 06064 41992 11435 42104 10340 20280 30062 40064 60006 70562 81530 333 59001 70030 81616 84362==
41992,2024,06,06,09,00,AAXX 06094 41992 01435 62103 10325 20290 30042 40044 70522 83530 333 59004 70000 83616 86362==
41992,2024,06,06,12,00,AAXX 06124 41992 01430 62102 10314 20270 30032 40034 70522 83530 333 10343 59007 70030 83616 86362==
41992,2024,06,06,15,00,AAXX 06154 41992 01425 60000 10308 20280 30052 40054 70522 82530 333 59009 70030 82616 86362==
41992,2024,06,06,18,00,AAXX 06184 41992 21420 81804 10285 20260 30054 40056 75195 8532/ 333 59008 60005 70030 84615 88458 81925==
41992,2024,06,06,21,00,AAXX 06214 41992 01420 61504 10270 20240 30040 40042 70565 84520 333 59011 70020 84615 86460==
41998,2024,05,31,00,00,AAXX 31004 41998 NIL=
41998,2024,05,31,03,00,AAXX 31034 41998 02456 80000 10300 20260 30071 40077 8342/ 333 20266 58027 70000 82618 88458==
41998,2024,05,31,06,00,AAXX 31064 41998 02456 80000 10316 20260 30060 40066 8342/ 333 58030 70000 82618 88458==
41998,2024,05,31,09,00,AAXX 31094 41998 02456 62302 10316 20250 30037 40043 83470 333 58007 70000 82618 84458==
41998,2024,05,31,12,00,AAXX 31124 41998 02456 60000 10294 20260 30038 40044 83470 333 10334 58012 70000 82618 84458==
41998,2024,05,31,18,00,AAXX 31184 41998 NIL=
41998,2024,06,01,00,00,AAXX 01004 41998 02456 80000 10268 20250 30048 40054 8442/ 333 59014 70000 83618 88458==
41998,2024,06,01,03,00,AAXX 01034 41998 01456 80000 10280 20260 30057 40063 76162 8442/ 333 20260 59014 70120 83616 88456==
41998,2024,06,03,06,00,AAXX 03064 41998 02456 80000 10310 20260 30054 40062 8442/ 333 59002 70100 83618 88458==
41998,2024,06,03,09,00,AAXX 03094 41998 02456 80000 10299 20270 30046 40052 8442/ 333 58013 70100 83618 88458==
41998,2024,06,03,12,00,AAXX 03124 41998 02456 80000 10290 20260 30042 40048 8442/ 333 10325 59004 70100 83618 88458==
41998,2024,06,03,18,00,AAXX 03184 41998 NIL=
41998,2024,06,04,00,00,AAXX 04004 41998 NIL=
41998,2024,06,04,03,00,AAXX 04034 41998 01456 80000 10283 20250 30066 40072 76162 8342/ 333 20263 58008 70080 83616 88458==
41998,2024,06,04,06,00,AAXX 04064 41998 21456 80000 10308 20260 30064 40070 72162 8342/ 333 58010 60105 70100 83618 88458==
41998,2024,06,04,09,00,AAXX 04094 41998 32456 82201 10300 20270 30044 40050 8342/ 333 56999 59002 70100 83618 88458=
41998,2024,06,04,12,00,AAXX 04124 41998 02456 80000 10288 20260 30041 40047 8342/ 333 10320 59001 70100 83618 88458==
41998,2024,06,05,00,00,AAXX 05004 41998 02456 60000 10270 20260 30048 40054 82470 333 59018 70100 81618 84458==
41998,2024,06,05,03,00,AAXX 05034 41998 02456 60000 10295 20250 30056 40062 82420 333 20264 59016 70020 82618 83458==
41998,2024,06,05,06,00,AAXX 05064 41998 NIL=
41998,2024,06,05,09,00,AAXX 05094 41998 02456 62201 10306 20260 30040 40046 82520 333 59004 70000 82618 83458==
41998,2024,06,05,12,00,AAXX 05124 41998 02456 60000 10296 20260 30036 40042 82420 333 10328 59005 70000 82618 83458==
41998,2024,06,05,18,00,AAXX 05184 41998 NIL=
41998,2024,06,06,06,00,AAXX 06064 41998 NIL=
41998,2024,06,06,09,00,AAXX 06094 41998 02456 80000 10303 20260 30040 40046 8342/ 333 58000 70100 83618 88458==
41998,2024,06,06,12,00,AAXX 06124 41998 02456 80000 10290 20260 30036 40042 8342/ 333 10318 58000 70100 83618 88458==
41998,2024,06,06,18,00,AAXX 06184 41998 NIL=
