ESTACION,ANO,MES,DIA,HORA,MINUTO,PARTE
41850,2023,05,19,00,00,AAXX 19004 41850 31440 70000 10231 20220 39972 40071 70522 83520 333 56990 59016 70000 83618 87458=
41850,2023,05,19,06,00,AAXX 19064 41850 31450 81003 10270 20220 39983 40081 70522 8452/ 333 56999 59020 70000 84618 88458=
41850,2023,05,19,12,00,AAXX 19124 41850 31450 80000 10264 20230 39948 40047 70522 8452/ 333 10280 56999 59024 70000 84618 88458=
41850,2023,05,19,18,00,AAXX 19184 41850 31440 60000 10240 20230 39961 40060 70522 83520 333 56990 59027 70000 83618 86458=
41850,2023,05,20,00,00,AAXX 20004 41850 31440 60000 10235 20230 39949 40048 70522 83520 333 56990 59023 70000 83618 86458=
41850,2023,05,20,06,00,AAXX 20064 41850 32456 51204 10307 20220 39961 40058 82530 333 56990 59022 70000 82618 85362=
41850,2023,05,20,12,00,AAXX 20124 41850 11450 60203 10255 20220 39945 40044 60014 72922 83310 333 10325 56990 59003 70010 83616 81928 86458=
41850,2023,05,20,18,00,AAXX 20184 41850 11440 50000 10236 20230 39957 40056 69946 70596 83520 333 56990 59004 70014 83617 85458=
41850,2023,05,21,00,00,AAXX 21004 41850 31440 40803 10245 20220 39962 40061 70522 82530 333 56990 58013 70014 82617 84362=
41850,2023,05,21,06,00,AAXX 21064 41850 32456 41406 10305 20230 39976 40073 82530 333 56990 58015 70014 82618 84362=
41850,2023,05,21,12,00,AAXX 21124 41850 31450 40802 10260 20200 39953 40052 82520 333 10312 56990 58008 70004 82618 84458=
41850,2023,05,21,18,00,AAXX 21184 41850 31440 70804 10234 20200 39986 40086 70522 83520 333 56990 58030 70000 83618 87458=
41850,2023,05,22,00,00,AAXX 22004 41850 31450 60906 10238 20220 39986 40085 70522 83520 333 56990 58024 70000 83618 86458=
41850,2023,05,22,06,00,AAXX 22064 41850 32456 60908 10285 20220 39996 40094 83520 333 56990 58020 70000 83618 86458=
41850,2023,05,22,12,00,AAXX 22124 41850 32956 30000 10290 20220 39967 40065 83030 333 10307 56090 58014 70000 83362=
41850,2023,05,22,18,00,AAXX 22184 41850 31440 40000 10250 20230 39989 40088 82520 333 56990 58003 70000 82618 84458=
41850,2023,05,23,00,00,AAXX 23004 41850 31450 60505 10251 20220 39990 40089 83520 333 56990 58004 70000 83618 86458=
41850,2023,05,23,06,00,AAXX 23064 41850 32456 30806 10306 20230 39993 40090 83030 333 56090 59003 70000 83362=
41850,2023,05,23,12,00,AAXX 23124 41850 11440 80902 10226 20200 39940 40040 60048 70596 8352/ 333 10312 56999 59027 70040 83615 88458=
41850,2023,05,23,18,00,AAXX 23184 41850 31440 80000 10217 20190 39977 40077 70522 8352/ 333 56999 59012 70040 83615 88458=
41850,2023,05,24,00,00,AAXX 24004 41850 31950 00000 10204 20190 39970 40070 70520 333 59020 70040=
41850,2023,05,24,06,00,AAXX 24064 41850 32957 01305 10304 20190 39978 40076 333 59015 70040=
41850,2023,05,24,12,00,AAXX 24124 41850 32956 01802 10305 20200 39934 40031 333 10319 59030 70000=
41850,2023,05,24,18,00,AAXX 24184 41850 31950 00000 10248 20240 39957 40056 70500 333 59020 70000=
41850,2023,05,25,00,00,AAXX 25004 41850 31950 00000 10227 20220 39961 40061 70500 333 59009 70000=
41850,2023,05,25,06,00,AAXX 25064 41850 32957 50903 10310 20210 39962 40059 82510 333 56990 59016 70000 82618 85458=
41850,2023,05,25,12,00,AAXX 25124 41850 32956 60902 10293 20210 39932 40030 82510 333 10332 56990 59002 70000 82618 86458=
41850,2023,05,25,18,00,AAXX 25184 41850 NIL=
41851,2023,05,19,00,00,AAXX 19004 41851 11340 81202 10226 20226 30012 40075 60279 79596 8492/ 333 56999 59027 70266 81708 84616 81929 88456=
41851,2023,05,19,06,00,AAXX 19064 41851 32350 80902 10270 20230 30024 40087 8462/ 333 56299 59025 70266 81709 83617 88457=
41851,2023,05,19,12,00,AAXX 19124 41851 32450 80000 10262 20230 39981 40044 8352/ 333 10288 56999 59026 70266 83618 88458=
41851,2023,05,19,18,00,AAXX 19184 41851 32450 30000 10236 20230 39995 40058 83500 333 56900 59030 70266 83618=
41851,2023,05,20,00,00,AAXX 20004 41851 11340 80000 10232 20220 39985 40048 60014 76192 8432/ 333 56299 59027 70010 81708 83616 81928 88456=
41851,2023,05,20,06,00,AAXX 20064 41851 11450 31301 10315 20240 30006 40067 60046 70196 83500 333 56900 59018 70050 83618=
41851,2023,05,20,12,00,AAXX 20124 41851 32450 60000 10308 20230 39979 40041 84420 333 10333 56990 59002 70050 83618 86458=
41851,2023,05,20,18,00,AAXX 20184 41851 32950 00000 10250 20230 39996 40059 333 58001 70050=
41851,2023,05,21,00,00,AAXX 21004 41851 32350 81301 10252 20240 30000 40063 8462/ 333 56999 58015 70040 81710 83617 88457=
41851,2023,05,21,06,00,AAXX 21064 41851 32450 81301 10308 20230 30019 40081 8352/ 333 56999 58013 70000 83618 88458=
41851,2023,05,21,12,00,AAXX 21124 41851 32450 21302 10272 20210 39980 40043 82500 333 10325 56900 58001 70000 82618=
41851,2023,05,21,18,00,AAXX 21184 41851 32430 81302 10245 20230 30010 40073 8352/ 333 56999 58014 70000 83618 88458=
41851,2023,05,22,00,00,AAXX 22004 41851 32440 82301 10230 20230 30009 40072 8352/ 333 56999 58009 70000 83618 88458=
41851,2023,05,22,06,00,AAXX 22064 41851 11450 82101 10290 20230 30025 40087 60054 70262 8352/ 333 56999 58006 70050 83618 88458=
41851,2023,05,22,12,00,AAXX 22124 41851 32950 02101 10295 20210 39990 40052 333 10312 58010 70050=
41851,2023,05,22,18,00,AAXX 22184 41851 32940 32301 10252 20220 30010 40073 83030 333 56090 58000 70050 83362=
41851,2023,05,23,00,00,AAXX 23004 41851 32440 81301 10250 20230 30002 40065 8352/ 333 56999 59007 70050 83618 88458=
41851,2023,05,23,06,00,AAXX 23064 41851 32450 51302 10330 20230 30006 40067 82570 333 56990 59019 70000 82618 84458=
41851,2023,05,23,12,00,AAXX 23124 41851 11340 81301 10217 20210 39998 40062 60127 79596 8492/ 333 10331 56299 58008 70116 81708 83616 81928 88456=
41851,2023,05,23,18,00,AAXX 23184 41851 11450 81301 10215 20210 30021 40085 60027 70296 8352/ 333 56999 58021 70132 83618 88456=
41851,2023,05,24,00,00,AAXX 24004 41851 32450 70000 10218 20200 30007 40071 83520 333 56990 58005 70132 83618 87458=
41851,2023,05,24,06,00,AAXX 24064 41851 32450 40000 10288 20200 30028 40091 84500 333 56900 58022 70132 84618=
41851,2023,05,24,12,00,AAXX 24124 41851 32950 00000 10310 20210 39970 40031 333 10326 59028 70016=
41851,2023,05,24,18,00,AAXX 24184 41851 32450 30000 10247 20230 30008 40071 83500 333 56900 59013 70000 83618=
41851,2023,05,25,00,00,AAXX 25004 41851 31940 00000 10238 20220 30003 40066 70510 333 59004 70000=
41851,2023,05,25,06,00,AAXX 25064 41851 32450 50901 10319 20220 30008 40069 84510 333 56990 59020 70000 84618 85458=
41851,2023,05,25,12,00,AAXX 25124 41851 32450 30000 10310 20240 39968 40029 81530 333 10326 56990 59002 70000 81618 83362=
41851,2023,05,25,18,00,AAXX 25184 41851 11350 80000 10216 20210 39992 40056 60177 72996 8472/ 333 56299 59016 70166 81708 83616 88456=
41856,2023,05,19,00,00,AAXX 19004 41856 11440 80502 10225 20225 30045 40081 60247 76396 8562/ 333 56999 59016 70322 84710 85615 88457=
41856,2023,05,19,06,00,AAXX 19064 41856 11450 60502 10275 20230 30051 40086 60086 70262 84420 333 56990 59031 70342 83616 86458=
41856,2023,05,19,18,00,AAXX 19184 41856 32930 40000 10235 20230 30028 40064 84030 333 56090 59026 70322 84362=
41856,2023,05,20,00,00,AAXX 20004 41856 11430 80501 10228 20220 30013 40049 60106 72196 8562/ 333 56999 59032 70182 84710 85615 88457=
41856,2023,05,20,06,00,AAXX 20064 41856 11950 41802 10310 20190 30033 40068 60075 70162 84030 333 56090 59018 70172 84362=
41856,2023,05,20,12,00,AAXX 20124 41856 32950 41802 10308 20220 30017 40052 84030 333 10330 56090 58005 70172 84362=
41856,2023,05,20,18,00,AAXX 20184 41856 32440 51201 10252 20230 30030 40066 83470 333 56990 58002 70172 82618 85458=
41856,2023,05,21,00,00,AAXX 21004 41856 32440 70701 10244 20220 30033 40069 84470 333 56990 58020 70072 82618 86458=
41856,2023,05,21,06,00,AAXX 21064 41856 32450 70701 10294 20220 30050 40085 84470 333 56990 58017 70000 82618 86458=
41856,2023,05,21,12,00,AAXX 21124 41856 32450 70000 10292 20240 30013 40048 84470 333 10316 56990 59004 70000 82618 86458=
41856,2023,05,21,18,00,AAXX 21184 41856 11440 51601 10232 20210 30043 40079 60056 70162 84430 333 56990 58013 70052 82618 84458=
41856,2023,05,22,00,00,AAXX 22004 41856 32440 50000 10230 20210 30049 40085 83430 333 56990 58016 70052 82618 84458=
41856,2023,05,22,06,00,AAXX 22064 41856 11450 50000 10283 20230 30064 40099 60045 70262 83430 333 56990 58014 70095 82618 84458=
41856,2023,05,22,12,00,AAXX 22124 41856 32950 20901 10293 20230 30034 40069 82030 333 10305 56090 58021 70095 82362=
41856,2023,05,22,18,00,AAXX 22184 41856 32930 50902 10264 20230 30054 40090 83430 333 56990 58011 70043 82618 88458=
41856,2023,05,23,00,00,AAXX 23004 41856 11440 60000 10242 20230 30056 40092 60024 70262 83520 333 56990 58007 70063 83618 86458=
41856,2023,05,23,06,00,AAXX 23064 41856 32450 60902 10300 20250 30059 40094 83520 333 56990 59005 70020 83618 86458=
41856,2023,05,23,12,00,AAXX 23124 41856 11340 80000 10210 20200 30035 40071 60254 79596 8692/ 333 10315 56699 58001 70270 84708 85614 88456 81930=
41856,2023,05,23,18,00,AAXX 23184 41856 11430 80502 10215 20210 30052 40088 60037 70296 8662/ 333 56699 59002 70296 84710 85615 88457=
41856,2023,05,24,00,00,AAXX 24004 41856 32440 80000 10215 20210 30032 40068 8452/ 333 56999 59024 70276 84615 88458=
41856,2023,05,24,06,00,AAXX 24064 41856 32956 10000 10295 20190 30045 40080 81030 333 56090 59014 70276 81362=
41856,2023,05,24,12,00,AAXX 24124 41856 32950 11301 10296 20210 30001 40036 81030 333 10320 56090 59034 70026 81362=
41856,2023,05,24,18,00,AAXX 24184 41856 32930 00000 10240 20230 30034 40070 333 59018 70000=
41856,2023,05,25,00,00,AAXX 25004 41856 32440 80000 10234 20220 30031 40067 8452/ 333 56999 59001 70000 84618 88458=
41856,2023,05,25,06,00,AAXX 25064 41856 32456 52202 10314 20220 30036 40070 83430 333 56990 59009 70000 81618 83825 85362=
41856,2023,05,25,12,00,AAXX 25124 41856 32450 40000 10300 20220 39997 40032 82430 333 10328 56990 59004 70000 81618 82825 84362=
41856,2023,05,25,18,00,AAXX 25184 41856 11330 81804 10210 20200 30032 40068 60124 72196 8692/ 333 56699 59002 70120 83708 85614 88456 81930=
41858,2023,05,19,00,00,AAXX 19004 41858 01430 80905 10244 20220 30032 40078 70522 8452/ 333 59018 70000 84616 88458==
41858,2023,05,19,03,00,AAXX 19034 41858 01435 60906 10270 20230 30045 40091 70522 83520 333 20225 59024 70000 83616 86458==
41858,2023,05,19,06,00,AAXX 19064 41858 NIL=
41858,2023,05,19,09,00,AAXX 19094 41858 01435 80506 10280 20240 30020 40065 70522 8452/ 333 59019 70000 84615 88458==
41858,2023,05,19,12,00,AAXX 19124 41858 01440 70306 10272 20230 30000 40045 70522 84520 333 10282 59019 70000 84615 86458==
41858,2023,05,19,15,00,AAXX 19154 41858 01435 40605 10260 20240 30013 40058 70522 82530 333 59022 70000 82615 84362==
41858,2023,05,19,18,00,AAXX 19184 41858 01930 60605 10250 20230 30022 40068 70522 83520 333 59022 70000 83615 86458==
41858,2023,05,19,21,00,AAXX 19214 41858 01430 83608 10220 20210 30011 40058 72162 8452/ 333 59025 70140 84615 88458==
41858,2023,05,20,00,00,AAXX 20004 41858 11435 40000 10230 20220 30015 40061 60146 70562 83520 333 59017 70140 83616 84458==
41858,2023,05,20,03,00,AAXX 20034 41858 01950 00506 10280 20230 30029 40074 70520 333 20215 59016 70140==
41858,2023,05,20,06,00,AAXX 20064 41858 01450 20905 10320 20230 30023 40067 70500 82500 333 59019 70140 82618==
41858,2023,05,20,09,00,AAXX 20094 41858 01950 01206 10346 20230 30001 40045 70500 333 59019 70140==
41858,2023,05,20,12,00,AAXX 20124 41858 01950 01208 10330 20230 39994 40038 70500 333 10350 59006 70140==
41858,2023,05,20,15,00,AAXX 20154 41858 01945 00905 10290 20250 30014 40059 70500 333 58001 70140==
41858,2023,05,20,18,00,AAXX 20184 41858 01940 00905 10270 20240 30026 40072 70500 333 58004 70140==
41858,2023,05,20,21,00,AAXX 20214 41858 01430 40505 10272 20240 30010 40055 70520 83520 333 59001 70000 83616 84458==
41858,2023,05,21,00,00,AAXX 21004 41858 01420 60505 10270 20250 30026 40072 71022 83520 333 58011 70000 83616 86458==
41858,2023,05,21,03,00,AAXX 21034 41858 01440 80608 10288 20250 30038 40083 70522 8452/ 333 20258 58009 70000 84615 88458==
41858,2023,05,21,06,00,AAXX 21064 41858 01440 70908 10315 20260 30038 40083 70522 84520 333 58015 70000 84615 87458==
41858,2023,05,21,09,00,AAXX 21094 41858 01440 50510 10338 20260 30013 40057 70522 84820 333 58012 70000 83618 84460==
41858,2023,05,21,12,00,AAXX 21124 41858 01440 63605 10310 20260 30007 40052 70522 84520 333 10340 58013 70000 84615 85458==
41858,2023,05,21,15,00,AAXX 21154 41858 01440 80915 10270 20240 30026 40071 70522 8452/ 333 58012 70000 84615 88458==
41858,2023,05,21,18,00,AAXX 21184 41858 01440 80905 10250 20230 30049 40095 71722 8452/ 333 58023 70000 83710 84618 88458==
41858,2023,05,21,21,00,AAXX 21214 41858 01440 80905 10244 20220 30038 40084 70522 8452/ 333 58028 70000 84615 88458==
41858,2023,05,22,00,00,AAXX 22004 41858 01430 80905 10240 20220 30041 40087 76122 8452/ 333 58015 70050 84615 88458 81930==
41858,2023,05,22,03,00,AAXX 22034 41858 01440 70505 10265 20200 30060 40106 70522 84520 333 20220 58022 70050 84615 86458==
41858,2023,05,22,06,00,AAXX 22064 41858 01450 60910 10306 20220 30055 40100 70522 83520 333 58017 70050 83615 85456==
41858,2023,05,22,09,00,AAXX 22094 41858 01450 30609 10322 20230 30032 40076 70521 83500 333 58019 70050 83618==
41858,2023,05,22,12,00,AAXX 22124 41858 01950 00906 10310 20230 30021 40066 70500 333 10325 58014 70050==
41858,2023,05,22,15,00,AAXX 22154 41858 01940 00505 10280 20230 30040 40085 70500 333 58014 70000==
41858,2023,05,22,18,00,AAXX 22184 41858 01940 00505 10246 20230 30059 40105 70500 333 58010 70050==
41858,2023,05,22,21,00,AAXX 22214 41858 01440 40505 10248 20220 30046 40092 70520 82520 333 58008 70050 82618 84458==
41858,2023,05,23,00,00,AAXX 23004 41858 01430 60505 10258 20230 30044 40090 70522 84520 333 58003 70000 84616 86458==
41858,2023,05,23,03,00,AAXX 23034 41858 01940 00308 10294 20230 30054 40099 70500 333 20245 59006 70000==
41858,2023,05,23,06,00,AAXX 23064 41858 01445 80606 10320 20260 30050 40095 70522 8452/ 333 59005 70000 84616 88458==
41858,2023,05,23,09,00,AAXX 23094 41858 01420 82712 10220 20200 30054 40099 79562 8592/ 333 58022 70080 84615 88458 82930==
41858,2023,05,23,12,00,AAXX 23124 41858 21440 81810 10218 20200 30018 40063 79596 8592/ 333 10325 59003 60247 70236 84615 88458 82930==
41858,2023,05,23,15,00,AAXX 23154 41858 01440 63305 10222 20200 30042 40088 70592 83520 333 58002 70236 83615 86458==
41858,2023,05,23,18,00,AAXX 23184 41858 01440 62708 10210 20200 30044 40090 70592 83520 333 59013 70236 83615 86458==
41858,2023,05,23,21,00,AAXX 23214 41858 01440 61506 10214 20200 30032 40078 70522 83520 333 59014 70236 83615 86458==
41858,2023,05,24,00,00,AAXX 24004 41858 01450 62706 10222 20200 30026 40072 70522 83520 333 59018 70236 83615 86458==
41858,2023,05,24,03,00,AAXX 24034 41858 01/50 20000 10275 20210 30055 40101 70521 82030 333 20205 58001 70236 82362==
41858,2023,05,24,06,00,AAXX 24064 41858 01950 00000 10310 20190 30035 40080 70520 333 59015 70236==
41858,2023,05,24,09,00,AAXX 24094 41858 02556 31206 10326 20220 30004 40048 82130 333 59050 70156 82825==
41858,2023,05,24,12,00,AAXX 24124 41858 02556 20905 10316 20240 39990 40035 82100 333 10328 59028 70000 82825==
41858,2023,05,24,15,00,AAXX 24154 41858 01950 00905 10278 20240 30017 40062 70500 333 59015 70000==
41858,2023,05,24,18,00,AAXX 24184 41858 01950 00905 10270 20240 30030 40076 70500 333 59014 70000==
41858,2023,05,25,00,00,AAXX 25004 41858 01915 00000 10244 20220 30023 40069 71000 333 10252 20240 40052 59016 70000==
41858,2023,05,25,03,00,AAXX 25034 41858 01540 21210 10300 20230 30034 40079 70511 82100 333 20232 59021 70000 82825==
41858,2023,05,25,06,00,AAXX 25064 41858 01550 30908 10330 20230 30028 40073 70520 83100 333 59007 70000 83825==
41858,2023,05,25,09,00,AAXX 25094 41858 01450 30905 10340 20220 39999 40043 70500 83500 333 59005 70000 83618==
41858,2023,05,25,12,00,AAXX 25124 41858 01450 20905 10320 20230 39990 40034 70500 82500 333 10342 58000 70000 82618==
41858,2023,05,25,15,00,AAXX 25154 41858 01440 51305 10290 20240 30008 40053 70522 83520 333 59009 70000 83615 84460==
41858,2023,05,25,18,00,AAXX 25184 41858 12440 80905 10230 20210 30018 40064 60076 8532/ 333 59012 70070 84615 88458 81930==
41859,2023,05,19,00,00,AAXX 19004 41859 01330 80902 10236 20235 30039 40077 71796 8592/ 333 59021 70260 83708 85616 88456 81930==
41859,2023,05,19,03,00,AAXX 19034 41859 42450 80902 10250 20230 30053 40090 8562/ 333 20230 59022 82710 83618 88458==
41859,2023,05,19,06,00,AAXX 19064 41859 02450 80902 10247 20230 30053 40090 8562/ 333 59028 70262 82710 83618 88458==
41859,2023,05,19,09,00,AAXX 19094 41859 02450 80902 10270 20240 30027 40064 8562/ 333 59026 70260 82710 83618 88458==
41859,2023,05,19,12,00,AAXX 19124 41859 02450 70902 10276 20250 30010 40047 85620 333 10280 59022 70260 82710 83618 86458==
41859,2023,05,19,15,00,AAXX 19154 41859 02430 80000 10256 20250 30026 40063 8562/ 333 59019 70260 83710 84618 88458==
41859,2023,05,19,18,00,AAXX 19184 41859 01430 81301 10248 20240 30022 40059 71322 8562/ 333 59029 70260 83710 84618 88458 81930==
41859,2023,05,19,21,00,AAXX 19214 41859 01330 82304 10234 20230 30012 40050 79596 8562/ 333 59032 70434 83708 84616 88456 81930==
41859,2023,05,20,00,00,AAXX 20004 41859 21335 82302 10228 20228 30013 40051 70296 8562/ 333 59026 60178 70174 83710 84618 88458==
41859,2023,05,20,03,00,AAXX 20034 41859 02450 50000 10281 20220 30036 40073 83510 333 20220 59017 70174 83618 85458==
41859,2023,05,20,06,00,AAXX 20064 41859 02450 30000 10321 20220 30033 40070 83500 333 59020 70174 83618==
41859,2023,05,20,09,00,AAXX 20094 41859 02456 41303 10327 20230 30009 40045 83520 333 59018 70174 83618 84458==
41859,2023,05,20,12,00,AAXX 20124 41859 02450 42302 10326 20240 30001 40037 82520 333 10336 59009 70174 82618 84458==
41859,2023,05,20,15,00,AAXX 20154 41859 02430 81302 10290 20270 30025 40062 8562/ 333 59001 70174 82710 83618 88458==
41859,2023,05,20,18,00,AAXX 20184 41859 02430 80000 10280 20260 30021 40058 8562/ 333 59001 70174 82710 84618 88458==
41859,2023,05,20,21,00,AAXX 20214 41859 02430 81302 10272 20250 30018 40055 8562/ 333 58006 70000 83710 85618 88458==
41859,2023,05,21,00,00,AAXX 21004 41859 02430 81302 10270 20250 30022 40059 8562/ 333 58009 70000 83710 85618 88458==
41859,2023,05,21,03,00,AAXX 21034 41859 02450 80000 10286 20240 30049 40086 8562/ 333 20238 58013 70000 83710 84618 88458==
41859,2023,05,21,06,00,AAXX 21064 41859 02450 80000 10296 20240 30048 40085 8562/ 333 58015 70000 83710 83618 88458==
41859,2023,05,21,09,00,AAXX 21094 41859 02450 70902 10325 20250 30021 40057 85610 333 58012 70000 82710 83618 87458==
41859,2023,05,21,12,00,AAXX 21124 41859 02440 80502 10310 20260 30013 40049 8562/ 333 10327 58012 70000 83710 84618 88458==
41859,2023,05,21,15,00,AAXX 21154 41859 02430 80503 10261 20240 30038 40075 8562/ 333 58013 70000 83710 84618 88458==
41859,2023,05,21,18,00,AAXX 21184 41859 02430 80502 10248 20210 30048 40085 8562/ 333 58027 70000 83710 84618 88458==
41859,2023,05,21,21,00,AAXX 21214 41859 01430 80902 10241 20220 30047 40084 70292 8562/ 333 58029 70000 83710 85618 88458==
41859,2023,05,22,00,00,AAXX 22004 41859 01440 80902 10239 20230 30046 40083 70292 8562/ 333 58024 70000 83710 85618 88458==
41859,2023,05,22,03,00,AAXX 22034 41859 02450 80000 10273 20210 30069 40106 8562/ 333 20233 58020 70000 82710 83618 88458==
41859,2023,05,22,06,00,AAXX 22064 41859 02450 80000 10294 20210 30063 40100 8562/ 333 59015 70000 82710 83618 88458==
41859,2023,05,22,09,00,AAXX 22094 41859 02450 60902 10324 20210 30042 40079 85620 333 58021 70000 82710 83618 86458==
41859,2023,05,22,12,00,AAXX 22124 41859 02450 40000 10305 20240 30031 40067 82520 333 10326 58018 70000 82618 84458==
41859,2023,05,22,15,00,AAXX 22154 41859 02430 80502 10280 20230 30049 40086 8562/ 333 58011 70000 82710 83618 88458==
41859,2023,05,22,18,00,AAXX 22184 41859 02430 80502 10275 20250 30054 40091 8562/ 333 58006 70000 83710 84618 88458==
41859,2023,05,22,21,00,AAXX 22214 41859 01430 80502 10260 20230 30054 40091 71796 8632/ 333 58007 70060 84710 85616 88456 81930==
41859,2023,05,23,00,00,AAXX 23004 41859 01435 80502 10250 20230 30051 40088 70296 8562/ 333 58005 70174 83710 84618 88458==
41859,2023,05,23,03,00,AAXX 23034 41859 02450 50502 10289 20240 30064 40101 84620 333 20246 59005 70174 82710 83618 85458==
41859,2023,05,23,06,00,AAXX 23064 41859 02450 50000 10316 20260 30057 40094 84620 333 59006 70174 82710 83618 85458==
41859,2023,05,23,09,00,AAXX 23094 41859 01330 83106 10256 20200 30041 40078 76122 8572/ 333 59001 70174 83709 85614 88456==
41859,2023,05,23,12,00,AAXX 23124 41859 21330 80504 10220 20210 30026 40064 79596 8652/ 333 10320 59005 60157 70320 83708 85614 88456 81930==
41859,2023,05,23,15,00,AAXX 23154 41859 01430 80904 10221 20210 30046 40084 70296 8562/ 333 59003 70336 83710 84618 88458==
41859,2023,05,23,18,00,AAXX 23184 41859 11430 80503 10222 20210 30053 40091 60026 70262 8562/ 333 59001 70336 83710 84618 88458==
41859,2023,05,23,21,00,AAXX 23214 41859 02430 81802 10218 20210 30042 40080 8562/ 333 59012 70276 83710 84618 88458==
41859,2023,05,24,00,00,AAXX 24004 41859 02435 80902 10220 20210 30034 40072 8562/ 333 59017 70276 83710 84618 88458==
41859,2023,05,24,03,00,AAXX 24034 41859 02450 30502 10269 20200 30063 40101 83500 333 20214 59006 70162 83618==
41859,2023,05,24,06,00,AAXX 24064 41859 02450 30502 10311 20200 30045 40082 83500 333 59012 70162 83618==
41859,2023,05,24,09,00,AAXX 24094 41859 02956 00502 10321 20190 30005 40041 333 59036 70162==
41859,2023,05,24,12,00,AAXX 24124 41859 02956 00501 10311 20200 30001 40037 333 10325 59025 70016==
41859,2023,05,24,15,00,AAXX 24154 41859 02930 01302 10280 20230 30027 40064 333 59019 70000==
41859,2023,05,24,18,00,AAXX 24184 41859 02930 01302 10270 20230 30035 40072 333 59018 70000==
41859,2023,05,24,21,00,AAXX 24214 41859 02430 31302 10250 20230 30027 40065 82530 333 59015 70000 82618 83362==
41859,2023,05,25,00,00,AAXX 25004 41859 02440 61302 10245 20230 30033 40070 83530 333 59001 70000 83618 85362==
41859,2023,05,25,03,00,AAXX 25034 41859 02450 31302 10301 20230 30043 40080 83500 333 20243 59020 70000 83618==
41859,2023,05,25,06,00,AAXX 25064 41859 02450 31302 10326 20220 30036 40072 83500 333 59009 70000 83618==
41859,2023,05,25,09,00,AAXX 25094 41859 02450 61302 10338 20220 30010 40046 83510 333 58005 70000 83618 86458==
41859,2023,05,25,12,00,AAXX 25124 41859 02440 71302 10320 20220 39998 40034 85610 333 10350 59003 70000 82710 84618 87458==
41859,2023,05,25,15,00,AAXX 25154 41859 02430 81301 10291 20240 30015 40052 8562/ 333 59012 70000 83710 84618 88458==
41859,2023,05,25,18,00,AAXX 25184 41859 01330 81301 10226 20220 30027 40065 79592 8692/ 333 59008 70360 84708 85614 88456 81929==
41859,2023,05,25,21,00,AAXX 25214 41859 02430 81301 10226 20226 30030 40068 8562/ 333 58003 70360 83710 84618 88458==
41863,2023,05,19,00,00,AAXX 19004 41863 02450 80903 10248 20230 30030 40073 8452/ 333 59013 70022 84618 88458==
41863,2023,05,19,03,00,AAXX 19034 41863 02450 80904 10261 20230 30046 40089 8452/ 333 20231 59028 70000 84618 88458==
41863,2023,05,19,06,00,AAXX 19064 41863 02450 80904 10273 20230 30044 40087 8452/ 333 59031 70000 84618 88458==
41863,2023,05,19,09,00,AAXX 19094 41863 02450 80903 10280 20240 30021 40063 8452/ 333 59021 70000 84618 88458==
41863,2023,05,19,12,00,AAXX 19124 41863 02450 80904 10285 20250 39997 40039 8452/ 333 10288 59024 70000 84618 88458==
41863,2023,05,19,15,00,AAXX 19154 41863 02450 80903 10262 20240 30018 40061 8352/ 333 59016 70000 83618 88458==
41863,2023,05,19,18,00,AAXX 19184 41863 02450 80903 10255 20240 30022 40065 8452/ 333 59021 70000 84618 88458==
41863,2023,05,19,21,00,AAXX 19214 41863 02450 60504 10248 20240 30007 40050 83520 333 59028 70000 83618 86458==
41863,2023,05,20,00,00,AAXX 20004 41863 02450 80903 10233 20220 30030 40073 8562/ 333 58000 70000 83710 85618 88458==
41863,2023,05,20,03,00,AAXX 20034 41863 02957 00904 10293 20210 30029 40071 333 20226 59017 70000==
41863,2023,05,20,06,00,AAXX 20064 41863 02957 01303 10323 20200 30024 40066 333 59020 70000==
41863,2023,05,20,09,00,AAXX 20094 41863 02457 21302 10346 20220 30000 40041 82500 333 59021 70000 82618==
41863,2023,05,20,12,00,AAXX 20124 41863 02957 01302 10336 20240 39994 40035 333 10347 59003 70000==
41863,2023,05,20,18,00,AAXX 20184 41863 02956 00902 10275 20260 30013 40055 333 59009 70000==
41863,2023,05,20,21,00,AAXX 20214 41863 02956 01302 10272 20250 30014 40057 333 58007 70000==
41863,2023,05,21,00,00,AAXX 21004 41863 02456 80903 10270 20250 30016 40059 8552/ 333 59014 70000 85618 88458==
41863,2023,05,21,03,00,AAXX 21034 41863 02456 81304 10285 20260 30036 40078 8552/ 333 20257 58007 70000 85618 88458==
41863,2023,05,21,06,00,AAXX 21064 41863 02457 50503 10308 20260 30036 40078 83520 333 58012 70000 83618 85458==
41863,2023,05,21,09,00,AAXX 21094 41863 02456 51302 10340 20260 30010 40051 82520 333 58010 70000 82618 85458==
41863,2023,05,21,12,00,AAXX 21124 41863 01456 60501 10310 20270 30003 40045 72122 83520 333 10341 58009 70002 83618 86458==
41863,2023,05,21,15,00,AAXX 21154 41863 02450 70504 10275 20220 30026 40069 83520 333 58010 70002 83618 87458==
41863,2023,05,21,18,00,AAXX 21184 41863 02950 80904 10256 20220 30035 40078 8552/ 333 58022 70002 85618 88458==
41863,2023,05,21,21,00,AAXX 21214 41863 02450 70902 10245 20220 30033 40076 83520 333 58019 70002 83618 87458==
41863,2023,05,22,00,00,AAXX 22004 41863 02450 50901 10240 20220 30045 40088 82520 333 58029 70002 82618 85458==
41863,2023,05,22,03,00,AAXX 22034 41863 02456 60503 10264 20210 30062 40105 82520 333 20235 58026 70002 83618 86458==
41863,2023,05,22,06,00,AAXX 22064 41863 02557 40503 10313 20210 30052 40094 84400 333 58028 70002 84620==
41863,2023,05,22,09,00,AAXX 22094 41863 02557 21303 10336 20230 30029 40071 82400 333 58019 70002 82620==
41863,2023,05,22,12,00,AAXX 22124 41863 02957 00904 10316 20230 30020 40062 333 10336 58017 70000==
41863,2023,05,22,15,00,AAXX 22154 41863 02950 00904 10280 20240 30041 40084 333 58015 70000==
41863,2023,05,22,18,00,AAXX 22184 41863 02950 00902 10273 20230 30044 40087 83500 333 58009 70000 83618==
41863,2023,05,22,21,00,AAXX 22214 41863 02450 30904 10268 20230 30045 40088 83500 333 58012 70000 83618==
41863,2023,05,23,00,00,AAXX 23004 41863 01440 80905 10266 20250 30047 40090 71720 8592/ 333 58002 70000 84618 88458 81930==
41863,2023,05,23,03,00,AAXX 23034 41863 02957 01302 10308 20220 30053 40095 333 20255 59009 70000==
41863,2023,05,23,06,00,AAXX 23064 41863 02456 61302 10330 20250 30048 40090 83520 333 59004 70000 83618 86458==
41863,2023,05,23,09,00,AAXX 23094 41863 01450 83604 10216 20210 30042 40086 79596 8592/ 333 58013 70138 84616 88457 82928==
41863,2023,05,23,12,00,AAXX 23124 41863 21456 81303 10218 20210 30010 40053 70296 8452/ 333 10333 59010 60199 70194 84618 88458==
41863,2023,05,23,15,00,AAXX 23154 41863 02350 81803 10220 20210 30057 40101 8562/ 333 58016 70194 83709 85618 88458==
41863,2023,05,23,18,00,AAXX 23184 41863 02350 82704 10217 20210 30049 40093 8562/ 333 58005 70194 83710 85618 88458==
41863,2023,05,23,21,00,AAXX 23214 41863 02450 82303 10215 20210 30022 40065 8452/ 333 59023 70194 84618 88458==
41863,2023,05,24,00,00,AAXX 24004 41863 02450 72303 10213 20200 30026 40070 83520 333 59021 70194 83618 87458==
41863,2023,05,24,03,00,AAXX 24034 41863 02457 50902 10271 20210 30055 40098 83520 333 20209 58002 70194 83618 85458==
41863,2023,05,24,06,00,AAXX 24064 41863 02557 20902 10307 20210 30036 40078 82400 333 59012 70194 82620==
41863,2023,05,24,09,00,AAXX 24094 41863 02457 21802 10330 20210 30001 40043 82500 333 59041 70056 82618==
41863,2023,05,24,12,00,AAXX 24124 41863 02957 01802 10325 20210 39989 40031 333 10330 59021 70000==
41863,2023,05,24,15,00,AAXX 24154 41863 02956 00000 10267 20240 30019 40062 333 59038 70000==
41863,2023,05,24,18,00,AAXX 24184 41863 02956 00000 10255 20240 30026 40069 333 59023 70000==
41863,2023,05,24,21,00,AAXX 24214 41863 02950 00000 10253 20230 30021 40064 333 59001 70000==
41863,2023,05,25,00,00,AAXX 25004 41863 02950 30000 10250 20240 30024 40067 83500 333 59002 70000 83618==
41863,2023,05,25,03,00,AAXX 25034 41863 02956 00902 10290 20230 30036 40078 333 20241 59019 70000==
41863,2023,05,25,06,00,AAXX 25064 41863 02557 32303 10327 20230 30029 40071 83400 333 59007 70000 83620==
41863,2023,05,25,09,00,AAXX 25094 41863 02556 40902 10337 20230 30002 40043 84400 333 58001 70000 84620==
41863,2023,05,25,12,00,AAXX 25124 41863 02556 31801 10320 20240 39989 40031 83400 333 10337 58000 70000 83620==
41863,2023,05,25,15,00,AAXX 25154 41863 02450 51302 10295 20250 30007 40049 82520 333 59012 70000 83618 85458==
41863,2023,05,25,18,00,AAXX 25184 41863 02450 61801 10245 20220 30017 40060 83520 333 59009 70000 83618 86458==
41863,2023,05,25,21,00,AAXX 25214 41863 02450 51801 10236 20220 30013 40056 82520 333 59011 70000 82618 85458==
41881,2023,05,19,00,00,AAXX 19004 41881 32456 80501 10246 20240 30050 40070 8552/ 333 56999 59030 70240 85616 88458=
41881,2023,05,19,06,00,AAXX 19064 41881 32457 71402 10287 20230 30058 40078 84520 333 56990 59024 70000 84618 87459=
41881,2023,05,19,18,00,AAXX 19184 41881 11350 80901 10252 20240 30044 40064 60024 79596 8572/ 333 56999 59015 70016 83709 88458 81930=
41881,2023,05,20,00,00,AAXX 20004 41881 32456 81402 10230 20220 30029 40049 8552/ 333 56999 59021 70016 85618 88458=
41881,2023,05,20,06,00,AAXX 20064 41881 32957 01503 10310 20230 30044 40064 333 59014 70016=
41881,2023,05,20,12,00,AAXX 20124 41881 32956 01702 10340 20230 30013 40032 333 10355 58001 70016=
41881,2023,05,20,18,00,AAXX 20184 41881 32950 01703 10283 20250 30031 40051 333 59013 70000=
41881,2023,05,21,00,00,AAXX 21004 41881 32456 80902 10267 20250 30038 40058 8552/ 333 56999 58009 70000 85618 88459=
41881,2023,05,21,06,00,AAXX 21064 41881 32458 70904 10325 20270 30047 40067 84520 333 56190 58003 70000 84618 87460=
41881,2023,05,21,12,00,AAXX 21124 41881 32458 80808 10320 20280 30016 40036 8552/ 333 10350 56199 58003 70000 85618 88460=
41881,2023,05,21,18,00,AAXX 21184 41881 11456 83305 10262 20220 30060 40080 71796 8592/ 333 56999 58009 79999 84615 82930 78458=
41881,2023,05,22,00,00,AAXX 22004 41881 32956 00801 10225 20220 30067 40087 333 58029 79999=
41881,2023,05,22,06,00,AAXX 22064 41881 32457 50902 10310 20220 30070 40090 83520 333 56290 58023 79999 83620 85460=
41881,2023,05,22,12,00,AAXX 22124 41881 32456 50901 10305 20250 30042 40061 83520 333 10325 56290 58026 79999 83620 85460=
41881,2023,05,22,18,00,AAXX 22184 41881 32450 31401 10268 20250 30063 40083 83500 333 56900 58003 70000 83618=
41881,2023,05,23,00,00,AAXX 23004 41881 32956 00901 10246 20240 30069 40089 333 58002 70000=
41881,2023,05,23,06,00,AAXX 23064 41881 32457 61302 10335 20260 30062 40082 83520 333 56990 59008 70000 83618 86459=
41881,2023,05,23,12,00,AAXX 23124 41881 11440 80902 10210 20210 30035 40055 6004/ 79596 8552/ 333 10335 56999 59007 70282 85618 88458=
41881,2023,05,23,18,00,AAXX 23184 41881 11440 83502 10214 20200 30054 40074 60030 72162 8552/ 333 56999 59009 70312 85618 88458=
41881,2023,05,24,00,00,AAXX 24004 41881 32450 50000 10215 20210 30060 40080 83520 333 56290 59009 70312 83620 85460=
41881,2023,05,24,06,00,AAXX 24064 41881 32957 00000 10298 20210 30057 40077 333 59005 70000=
41881,2023,05,24,12,00,AAXX 24124 41881 32957 00000 10300 20210 30013 40033 333 10320 59022 70030=
41881,2023,05,24,18,00,AAXX 24184 41881 32950 00000 10255 20240 30045 40065 333 59009 70000=
41881,2023,05,25,00,00,AAXX 25004 41881 32940 00000 10242 20240 30043 40063 333 59017 70000=
41881,2023,05,25,06,00,AAXX 25064 41881 32458 61803 10315 20230 30050 40070 83520 333 56490 59007 70000 83618 86459=
41881,2023,05,25,12,00,AAXX 25124 41881 32458 71804 10305 20250 30009 40029 84520 333 10333 56490 59004 70000 84618 87460=
41881,2023,05,25,18,00,AAXX 25184 41881 11440 83202 10224 20220 30041 40061 60164 70296 8552/ 333 56999 59004 70160 85615 88458 90425 91025=
41883,2023,05,19,00,00,AAXX 19004 41883 02340 81302 10248 20230 30052 40072 8562/ 333 59018 70000 85709 88458==
41883,2023,05,19,03,00,AAXX 19034 41883 02450 80902 10266 20230 30069 40089 8462/ 333 20242 59024 70000 82710 84618 88458==
41883,2023,05,19,06,00,AAXX 19064 41883 02450 80000 10290 20240 30063 40083 8562/ 333 59025 70000 83710 84618 88458==
41883,2023,05,19,09,00,AAXX 19094 41883 02356 81304 10302 20240 30039 40059 8562/ 333 59024 70000 85710 88458==
41883,2023,05,19,12,00,AAXX 19124 41883 02456 80902 10290 20240 30021 40041 8552/ 333 10305 59023 70000 85616 88458==
41883,2023,05,19,15,00,AAXX 19154 41883 02430 81304 10270 20240 30035 40055 8552/ 333 59021 70000 85616 88458==
41883,2023,05,19,18,00,AAXX 19184 41883 02430 81304 10264 20230 30041 40061 8552/ 333 59021 70000 85616 88458==
41883,2023,05,19,21,00,AAXX 19214 41883 01430 81303 10250 20230 30033 40053 70262 8552/ 333 59024 70006 85616 88458==
41883,2023,05,20,00,00,AAXX 20004 41883 21440 61304 10224 20200 30033 40054 70162 83510 333 59019 60015 70006 83616 86459==
41883,2023,05,20,03,00,AAXX 20034 41883 02350 80902 10270 20190 30057 40077 8562/ 333 20220 59012 70006 85709 88458==
41883,2023,05,20,06,00,AAXX 20064 41883 02456 61304 10320 20230 30048 40068 84810 333 59015 70006 83615 86458==
41883,2023,05,20,09,00,AAXX 20094 41883 02456 41302 10346 20240 30025 40045 82510 333 59014 70006 82618 84458==
41883,2023,05,20,12,00,AAXX 20124 41883 02450 20000 10334 20230 30016 40036 82500 333 10355 59005 70006 82618==
41883,2023,05,20,15,00,AAXX 20154 41883 02430 40904 10308 20260 30040 40060 82530 333 58005 70006 82616 83362==
41883,2023,05,20,18,00,AAXX 20184 41883 02930 01304 10292 20250 30036 40056 333 59005 70006==
41883,2023,05,20,21,00,AAXX 20214 41883 02930 01302 10276 20250 30027 40047 333 59006 70000==
41883,2023,05,21,00,00,AAXX 21004 41883 02450 61304 10272 20250 30043 40063 83520 333 58010 70000 83616 86459==
41883,2023,05,21,03,00,AAXX 21034 41883 02356 80904 10285 20260 30065 40085 8562/ 333 20262 58008 70000 85710 88458==
41883,2023,05,21,06,00,AAXX 21064 41883 02456 81303 10325 20260 30054 40074 8552/ 333 58006 70000 85616 88458==
41883,2023,05,21,09,00,AAXX 21094 41883 02356 71303 10340 20260 30033 40053 84620 333 58008 70000 84709 87458==
41883,2023,05,21,12,00,AAXX 21124 41883 21340 80000 10270 20250 30024 40044 79596 8592/ 333 10345 58008 60029 70024 85709 88458 82930==
41883,2023,05,21,15,00,AAXX 21154 41883 01330 81304 10244 20220 30055 40075 79596 8592/ 333 58015 70178 83709 84615 88456 81930==
41883,2023,05,21,18,00,AAXX 21184 41883 01330 83104 10240 20210 30070 40090 79596 8592/ 333 58034 70184 83709 84615 88456 81930==
41883,2023,05,21,21,00,AAXX 21214 41883 01430 80000 10232 20210 30053 40074 70296 8562/ 333 58026 70194 82710 84618 88458==
41883,2023,05,22,00,00,AAXX 22004 41883 11440 80000 10226 20220 30065 40086 60016 70296 8562/ 333 58022 70194 82710 84618 88458==
41883,2023,05,22,03,00,AAXX 22034 41883 02956 00902 10280 20220 30081 40101 333 20221 58016 70194==
41883,2023,05,22,06,00,AAXX 22064 41883 02456 60903 10306 20230 30073 40093 83510 333 58019 70194 83616 86459==
41883,2023,05,22,09,00,AAXX 22094 41883 02456 81304 10324 20230 30050 40070 8552/ 333 58017 70194 85616 88459==
41883,2023,05,22,12,00,AAXX 22124 41883 02450 60902 10305 20240 30045 40065 83520 333 10327 58021 70170 83616 86458==
41883,2023,05,22,15,00,AAXX 22154 41883 02430 60902 10284 20240 30063 40083 83510 333 58008 70016 83616 86459==
41883,2023,05,22,18,00,AAXX 22184 41883 02430 70902 10277 20250 30066 40086 85520 333 59004 70010 85616 87459==
41883,2023,05,22,21,00,AAXX 22214 41883 02430 70000 10270 20250 30060 40080 84520 333 58007 70000 84616 87459==
41883,2023,05,23,00,00,AAXX 23004 41883 02440 60000 10266 20250 30060 40080 83510 333 59005 70000 83616 86459==
41883,2023,05,23,03,00,AAXX 23034 41883 02450 80000 10300 20270 30075 40095 8461/ 333 20262 59006 70000 82710 83618 88458==
41883,2023,05,23,06,00,AAXX 23064 41883 02450 80803 10334 20250 30062 40082 8541/ 333 59011 70000 83618 83828 88458==
41883,2023,05,23,09,00,AAXX 23094 41883 02450 83104 10325 20270 30047 40067 8592/ 333 59003 70000 85616 88458 82930==
41883,2023,05,23,12,00,AAXX 23124 41883 21330 80504 10222 20200 30042 40063 79596 8592/ 333 10342 59003 60187 70184 85709 88458 82930==
41883,2023,05,23,15,00,AAXX 23154 41883 01330 81304 10222 20210 30063 40084 72996 8562/ 333 58000 70200 85709 88458==
41883,2023,05,23,18,00,AAXX 23184 41883 11330 80000 10225 20210 30045 40066 60026 70296 8562/ 333 59021 70200 85709 88458==
41883,2023,05,23,21,00,AAXX 23214 41883 02330 80000 10220 20210 30039 40060 8562/ 333 59021 70200 85709 88458==
41883,2023,05,24,00,00,AAXX 24004 41883 02440 80000 10224 20210 30053 40074 8552/ 333 59007 70200 85616 88458==
41883,2023,05,24,03,00,AAXX 24034 41883 02456 80000 10240 20220 30074 40094 8552/ 333 20215 59001 70200 85616 88459==
41883,2023,05,24,06,00,AAXX 24064 41883 02956 00000 10296 20220 30063 40083 333 58001 70200==
41883,2023,05,24,09,00,AAXX 24094 41883 02456 20902 10316 20220 30028 40048 82500 333 59019 70016 82618==
41883,2023,05,24,12,00,AAXX 24124 41883 02950 00000 10306 20220 30017 40037 333 10320 59025 70000==
41883,2023,05,24,15,00,AAXX 24154 41883 02430 40902 10274 20230 30042 40062 82530 333 59021 70000 82616 84362==
41883,2023,05,24,18,00,AAXX 24184 41883 02930 00904 10265 20240 30049 40069 333 58004 70000==
41883,2023,05,24,21,00,AAXX 24214 41883 02930 01302 10252 20230 30039 40059 333 58000 70000==
41883,2023,05,25,00,00,AAXX 25004 41883 02950 00502 10245 20240 30045 40065 333 59008 70000==
41883,2023,05,25,03,00,AAXX 25034 41883 02456 20503 10288 20240 30060 40080 82500 333 20234 59014 70000 82616==
41883,2023,05,25,06,00,AAXX 25064 41883 02456 41304 10318 20240 30053 40073 83510 333 59010 70000 83616 84459==
41883,2023,05,25,09,00,AAXX 25094 41883 02456 51302 10328 20230 30030 40050 83510 333 58002 70000 83616 85459==
41883,2023,05,25,12,00,AAXX 25124 41883 02956 01302 10316 20240 30013 40033 333 10334 59004 70000==
41883,2023,05,25,15,00,AAXX 25154 41883 02430 60000 10302 20260 30034 40054 82520 333 59008 70000 82618 86458==
41883,2023,05,25,18,00,AAXX 25184 41883 21330 80000 10230 20220 30043 40064 79596 8592/ 333 59006 60377 70374 83709 84615 88456 81930==
41883,2023,05,25,21,00,AAXX 25214 41883 01430 61302 10232 20220 30038 40059 70162 83520 333 59001 70378 83618 86458==
41886,2023,05,19,00,00,AAXX 19004 41886 02456 80000 10242 20220 30060 40081 8452/ 333 59049 70026 84616 88458==
41886,2023,05,19,03,00,AAXX 19034 41886 02456 80000 10255 20220 30087 40108 8452/ 333 20240 59002 70000 84616 88458==
41886,2023,05,19,06,00,AAXX 19064 41886 02456 80000 10285 20240 30074 40094 8452/ 333 59024 70000 84616 88458==
41886,2023,05,19,09,00,AAXX 19094 41886 02957 80000 10275 20240 30050 40070 333 59025 70000 83618 88460==
41886,2023,05,19,12,00,AAXX 19124 41886 02456 70000 10270 20240 30033 40053 83510 333 10287 59026 70000 83618 87460==
41886,2023,05,19,15,00,AAXX 19154 41886 02450 80000 10263 20230 30052 40073 8352/ 333 59018 70000 83618 88460==
41886,2023,05,19,18,00,AAXX 19184 41886 02450 80903 10260 20230 30045 40066 8352/ 333 59024 70000 83618 88460==
41886,2023,05,19,21,00,AAXX 19214 41886 01440 83204 10210 20200 30072 40083 79596 8432/ 333 58008 70090 83616 88459 81930==
41886,2023,05,20,00,00,AAXX 20004 41886 21450 80000 10208 20200 30062 40083 70196 8432/ 333 58002 60098 70090 83618 87460==
41886,2023,05,20,03,00,AAXX 20034 41886 02456 70000 10283 20270 30062 40082 83510 333 20198 59025 70090 83618 87460==
41886,2023,05,20,06,00,AAXX 20064 41886 02457 70902 10290 20240 30064 40084 83510 333 59010 70090 83618 87460==
41886,2023,05,20,09,00,AAXX 20094 41886 02457 20903 10310 20250 30041 40061 82500 333 59009 70090 82618==
41886,2023,05,20,12,00,AAXX 20124 41886 02957 00000 10306 20250 30030 40050 333 10312 59003 70090==
41886,2023,05,20,15,00,AAXX 20154 41886 02/50 30000 10284 20250 30042 40062 83030 333 59010 70090 83365==
41886,2023,05,20,18,00,AAXX 20184 41886 02950 00000 10274 20250 30052 40072 333 58007 70090==
41886,2023,05,20,21,00,AAXX 20214 41886 02/50 50000 10270 20250 30065 40086 85030 333 59007 70000 85365==
41886,2023,05,21,00,00,AAXX 21004 41886 01356 71302 10264 20240 30055 40076 70522 84470 333 59007 70000 84710 86460==
41886,2023,05,21,03,00,AAXX 21034 41886 02356 81103 10270 20240 30084 40105 8542/ 333 20259 58022 70000 84710 83618 88460==
41886,2023,05,21,06,00,AAXX 21064 41886 02456 61303 10315 20270 30068 40088 84470 333 58004 70000 82618 85460==
41886,2023,05,21,09,00,AAXX 21094 41886 02457 61504 10332 20250 30039 40059 84510 333 59002 70000 84618 86460==
41886,2023,05,21,12,00,AAXX 21124 41886 01456 60904 10243 20210 30044 40065 72996 84370 333 10334 58014 70210 83616 84458 81930==
41886,2023,05,21,15,00,AAXX 21154 41886 01450 80000 10240 20200 30070 40091 71796 8632/ 333 58028 70220 85616 88458 81930==
41886,2023,05,21,18,00,AAXX 21184 41886 NIL=
41886,2023,05,21,21,00,AAXX 21214 41886 01450 80000 10230 20210 30060 40081 70296 8632/ 333 59005 70230 85616 88458 81930==
41886,2023,05,22,00,00,AAXX 22004 41886 11456 70000 10230 20220 30071 40092 69966 70196 84570 333 58016 70230 84618 86460==
41886,2023,05,22,03,00,AAXX 22034 41886 02457 31503 10270 20210 30091 40112 81550 333 20208 58007 70230 81618 83362==
41886,2023,05,22,06,00,AAXX 22064 41886 02457 70504 10300 20220 30083 40103 83570 333 58015 70230 83618 86460==
41886,2023,05,22,09,00,AAXX 22094 41886 02457 70902 10312 20230 30061 40081 83570 333 58022 70230 83618 86460==
41886,2023,05,22,12,00,AAXX 22124 41886 02456 80000 10300 20240 30052 40072 8352/ 333 10313 58008 70016 83618 88460==
41886,2023,05,22,15,00,AAXX 22154 41886 02456 80000 10284 20240 30065 40085 8352/ 333 59005 70010 83618 88460==
41886,2023,05,22,18,00,AAXX 22184 41886 02450 80000 10265 20240 30069 40089 8352/ 333 59010 70006 83618 88460==
41886,2023,05,22,21,00,AAXX 22214 41886 02450 80000 10262 20240 30066 40086 8352/ 333 58006 70000 83618 88460==
41886,2023,05,23,00,00,AAXX 23004 41886 02456 60000 10260 20240 30065 40085 83570 333 59006 70000 83618 85460==
41886,2023,05,23,03,00,AAXX 23034 41886 02456 60000 10300 20270 30081 40101 83570 333 20259 59010 70000 83618 85460==
41886,2023,05,23,06,00,AAXX 23064 41886 01457 70000 10315 20260 30074 40094 71792 84670 333 59009 70000 83618 86460 81930==
41886,2023,05,23,09,00,AAXX 23094 41886 02457 50904 10306 20240 30049 40069 83570 333 59012 70000 83618 84460==
41886,2023,05,23,12,00,AAXX 23124 41886 11350 80000 10260 30091 40111 60072 79596 8632/ 333 10318 58039 70070 82710 83615 88460 81930==
41886,2023,05,23,15,00,AAXX 23154 41886 01440 80502 10230 20220 30066 40086 72996 8352/ 333 58001 70240 83615 88460==
41886,2023,05,23,18,00,AAXX 23184 41886 01450 80000 10228 20210 30047 40067 70292 8352/ 333 59022 70170 83616 88460==
41886,2023,05,23,21,00,AAXX 23214 41886 02440 80000 10225 20220 30045 40065 8352/ 333 59021 70240 83616 88460==
41886,2023,05,24,00,00,AAXX 24004 41886 01456 80000 10230 20220 30058 40078 70262 8352/ 333 59007 70010 83618 88460==
41886,2023,05,24,03,00,AAXX 24034 41886 02456 40000 10250 20220 30078 40098 84500 333 20215 59003 70250 84618==
41886,2023,05,24,06,00,AAXX 24064 41886 02456 50000 10275 20220 30071 40091 83570 333 59003 70250 83618 84460==
41886,2023,05,24,09,00,AAXX 24094 41886 02/57 30000 10300 20200 30037 40057 83030 333 59012 70250 83365==
41886,2023,05,24,12,00,AAXX 24124 41886 02/57 30902 10296 20220 30029 40050 82020 333 10305 59026 70180 83462==
41886,2023,05,24,15,00,AAXX 24154 41886 02/50 30000 10270 20240 30050 40070 83030 333 59016 70010 83365==
41886,2023,05,24,18,00,AAXX 24184 41886 02950 60000 10256 20240 30061 40081 83570 333 58014 70010 83618 85460==
41886,2023,05,24,21,00,AAXX 24214 41886 02/50 60000 10242 20230 30050 40070 84071 333 58005 70010 84460 86080==
41886,2023,05,25,00,00,AAXX 25004 41886 01/40 50000 10236 20210 30058 40078 70522 85070 333 58000 70000 84460==
41886,2023,05,25,03,00,AAXX 25034 41886 02457 50000 10280 20210 30067 40087 82530 333 20230 59011 70000 82618 85365==
41886,2023,05,25,06,00,AAXX 25064 41886 02457 61102 10302 20220 30063 40083 82570 333 59008 70000 82618 85460==
41886,2023,05,25,09,00,AAXX 25094 41886 02457 40000 10324 20220 30039 40059 84400 333 59002 70000 82618==
41886,2023,05,25,12,00,AAXX 25124 41886 02956 00000 10312 20230 30020 40040 333 10325 59009 70000==
41886,2023,05,25,15,00,AAXX 25154 41886 02450 70000 10286 20270 30044 40065 84570 333 59006 70000 84618 86460==
41886,2023,05,25,18,00,AAXX 25184 41886 NIL=
41888,2023,05,19,00,00,AAXX 19004 41888 32450 80601 10237 20230 30071 40081 8532/ 333 56999 59052 70055 84616 81930 88458=
41888,2023,05,19,06,00,AAXX 19064 41888 11456 70904 10265 20230 30082 40092 60258 70296 83510 333 56990 59018 70246 83618 87460=
41888,2023,05,19,12,00,AAXX 19124 41888 32456 70904 10270 20230 30039 40049 82510 333 10275 56990 59030 70246 82618 87460=
41888,2023,05,19,18,00,AAXX 19184 41888 32450 80907 10254 20220 30061 40071 8332/ 333 56999 59021 70246 82616 81930 88458=
41888,2023,05,20,00,00,AAXX 20004 41888 11456 52301 10204 20190 30051 40061 60068 70196 82510 333 56990 59020 70306 82616 85459=
41888,2023,05,20,06,00,AAXX 20064 41888 32456 80907 10274 20220 30073 40083 8352/ 333 56999 59010 70060 83618 88458=
41888,2023,05,20,12,00,AAXX 20124 41888 32957 00903 10295 20250 30039 40049 333 10307 58000 70060=
41888,2023,05,20,18,00,AAXX 20184 41888 32450 60903 10263 20240 30060 40070 71321 83310 333 56990 59001 70060 82616 81928 86458=
41888,2023,05,21,00,00,AAXX 21004 41888 31350 80904 10245 20210 30069 40079 70592 8472/ 333 56999 58018 70000 82710 84616 88458=
41888,2023,05,21,06,00,AAXX 21064 41888 32457 50907 10308 20250 30080 40090 82510 333 56990 58007 70000 82616 85459=
41888,2023,05,21,12,00,AAXX 21124 41888 11450 61207 10255 20210 30044 40054 60663 72996 84310 333 10323 56990 58005 70663 83616 81928 86458 90622 91035=
41888,2023,05,21,18,00,AAXX 21184 41888 11340 80903 10236 20220 30081 40091 69942 70592 8432/ 333 56999 58021 70667 82710 83616 81930 88458=
41888,2023,05,22,00,00,AAXX 22004 41888 11456 70902 10232 20220 30080 40090 69926 70162 84510 333 56990 58011 70669 84616 87458=
41888,2023,05,22,06,00,AAXX 22064 41888 11457 70905 10295 20210 30094 40104 69946 70162 83570 333 56990 58014 70673 86460=
41888,2023,05,22,12,00,AAXX 22124 41888 32457 80902 10302 20230 30058 40068 8452/ 333 10316 56999 58014 70010 84617 88460=
41888,2023,05,22,18,00,AAXX 22184 41888 32456 60903 10274 20240 30073 40083 83570 333 56990 59008 70006 83617 85460=
41888,2023,05,23,00,00,AAXX 23004 41888 32456 80901 10266 20250 30080 40090 8352/ 333 56999 58000 70004 83617 88460=
41888,2023,05,23,06,00,AAXX 23064 41888 11457 40903 10274 20220 30085 40095 69935 70162 82570 333 59009 70003 82617 84460=
41888,2023,05,23,12,00,AAXX 23124 41888 31456 82915 10251 20190 30075 40085 71721 8432/ 333 10306 56799 58017 70003 81710 84616 81930 88459=
41888,2023,05,23,18,00,AAXX 23184 41888 11456 80903 10224 20210 30054 40064 60036 70262 8432/ 333 56299 59019 70036 81710 84616 81930 88459=
41888,2023,05,24,00,00,AAXX 24004 41888 32456 80901 10228 20228 30071 40081 8432/ 333 56999 59009 70036 81710 84617 81930 88460=
41888,2023,05,24,06,00,AAXX 24064 41888 32457 33402 10290 20210 30075 40085 81530 333 56990 59010 70033 81618 83365=
41888,2023,05,24,12,00,AAXX 24124 41888 32957 00901 10287 20210 30036 40046 333 10310 59039 70033=
41888,2023,05,24,18,00,AAXX 24184 41888 32450 41803 10250 20230 30066 40076 81510 333 56990 58012 70000 81618 84460=
41888,2023,05,25,00,00,AAXX 25004 41888 31940 00901 10230 20230 30062 40072 70510 333 59009 70000=
41888,2023,05,25,06,00,AAXX 25064 41888 32457 20903 10300 20210 30069 40079 82500 333 56900 59006 70000 82618=
41888,2023,05,25,12,00,AAXX 25124 41888 32457 41401 10313 20220 30032 40042 81530 333 10325 56990 59004 70000 81618 84365=
41888,2023,05,25,18,00,AAXX 25184 41888 11330 82705 10230 20220 30053 40063 60274 79596 8492/ 333 56999 59013 70270 82708 83615 81928 88457=
41891,2023,05,19,00,00,AAXX 19004 41891 11430 80902 10240 20220 30055 40094 60001 70562 8532/ 333 59020 70102 81710 84615 88459 81930==
41891,2023,05,19,03,00,AAXX 19034 41891 01320 80902 10254 20230 30066 40105 76022 8632/ 333 20225 59010 70010 86708 88458 81925==
41891,2023,05,19,06,00,AAXX 19064 41891 01435 81203 10252 20230 30065 40104 71796 8532/ 333 59017 70052 82710 84615 88459 81930==
41891,2023,05,19,09,00,AAXX 19094 41891 01440 80503 10260 20230 30038 40077 70596 8532/ 333 59021 70070 82710 84615 88459 81930==
41891,2023,05,19,12,00,AAXX 19124 41891 11435 81302 10254 20230 30020 40058 60021 70596 8532/ 333 10265 59027 70070 82710 84615 88459 81930==
41891,2023,05,19,15,00,AAXX 19154 41891 01430 60903 10248 20230 30030 40068 70522 84310 333 59039 70070 81710 82616 86459 81930==
41891,2023,05,19,18,00,AAXX 19184 41891 01430 80903 10247 20230 30039 40077 70522 8532/ 333 59017 70070 82710 83616 88459 81930==
41891,2023,05,19,21,00,AAXX 19214 41891 01430 80907 10225 20220 30025 40064 70522 8532/ 333 59025 70070 82710 83616 88459 81930==
41891,2023,05,20,00,00,AAXX 20004 41891 21430 81006 10210 20210 30032 40071 70562 8532/ 333 59023 60257 70320 83710 82616 88459 81930==
41891,2023,05,20,03,00,AAXX 20034 41891 01440 81304 10210 20200 30060 40099 72162 8532/ 333 20203 59006 70538 82710 84615 88459 81930==
41891,2023,05,20,06,00,AAXX 20064 41891 11440 61404 10270 20200 30055 40093 60226 70562 83340 333 59010 70492 83615 85365 81930==
41891,2023,05,20,09,00,AAXX 20094 41891 01450 80905 10295 20240 30026 40064 70522 84370 333 59012 70474 83616 83460 81930==
41891,2023,05,20,12,00,AAXX 20124 41891 01450 81004 10290 20280 30014 40052 70522 8532/ 333 10300 59006 70474 81710 83616 88460 81930==
41891,2023,05,20,15,00,AAXX 20154 41891 01435 80904 10255 20210 30040 40079 70522 8532/ 333 58010 70474 81710 83615 88460 81930==
41891,2023,05,20,18,00,AAXX 20184 41891 01430 40603 10243 20220 30036 40074 71322 84310 333 59003 70474 83616 84460 81930==
41891,2023,05,20,21,00,AAXX 20214 41891 01330 80903 10205 20205 30036 40083 79596 8532/ 333 58019 70534 85708 88458 81928==
41891,2023,05,21,00,00,AAXX 21004 41891 21330 60903 10210 20200 30053 40092 70596 84310 333 58021 60127 70344 81710 83616 86460 81928==
41891,2023,05,21,03,00,AAXX 21034 41891 01435 80902 10278 20220 30080 40118 70522 8532/ 333 20205 58020 70120 82710 84615 88459 81930==
41891,2023,05,21,06,00,AAXX 21064 41891 01450 60904 10310 20210 30065 40103 70522 83340 333 58010 70120 83615 85365 81930==
41891,2023,05,21,09,00,AAXX 21094 41891 01450 30502 10322 20240 30035 40073 70521 81530 333 58009 70120 81615 83365==
41891,2023,05,21,12,00,AAXX 21124 41891 01435 82704 10290 20230 30034 40072 71792 8532/ 333 10327 58020 70120 82710 84615 88459 81930==
41891,2023,05,21,15,00,AAXX 21154 41891 01435 60303 10265 20220 30043 40081 72996 83340 333 58003 70120 83615 85365 81930==
41891,2023,05,21,18,00,AAXX 21184 41891 01430 81803 10240 20220 30057 40096 72996 8532/ 333 58021 70150 82710 84615 88459 81930==
41891,2023,05,21,21,00,AAXX 21214 41891 01430 80904 10235 20220 30054 40093 70522 8532/ 333 58010 70090 82710 84615 88459 81930==
41891,2023,05,22,00,00,AAXX 22004 41891 01430 60804 10235 20220 30060 40099 70522 83340 333 58007 70030 83615 85365 81930==
41891,2023,05,22,03,00,AAXX 22034 41891 01440 81302 10260 20230 30071 40110 70522 8532/ 333 20230 59009 70030 81710 84615 88459 81930==
41891,2023,05,22,06,00,AAXX 22064 41891 11440 70502 10290 20220 30070 40108 69912 72122 84370 333 58005 70031 84615 86460 81930==
41891,2023,05,22,09,00,AAXX 22094 41891 01450 30502 10320 20250 30044 40082 70521 81530 333 58009 70031 81615 83365==
41891,2023,05,22,12,00,AAXX 22124 41891 01440 62702 10304 20240 30032 40070 70522 83340 333 10332 59002 70031 83615 85365 81930==
41891,2023,05,22,15,00,AAXX 22154 41891 01435 80902 10280 20230 30051 40089 70522 8532/ 333 58008 70031 82710 84615 88459 81930==
41891,2023,05,22,18,00,AAXX 22184 41891 01430 80502 10270 20240 30053 40091 72996 8532/ 333 59004 70000 82710 84615 88459 81930==
41891,2023,05,22,21,00,AAXX 22214 41891 01430 80902 10265 20240 30054 40092 71792 8532/ 333 58000 70001 82710 84615 88459 81930==
41891,2023,05,23,00,00,AAXX 23004 41891 01430 80902 10260 20240 30055 40094 71792 8532/ 333 59005 70001 82710 84615 88459 81930==
41891,2023,05,23,03,00,AAXX 23034 41891 01320 80904 10260 20240 30078 40117 79596 8632/ 333 20257 58007 70007 86707 88458 81925==
41891,2023,05,23,06,00,AAXX 23064 41891 01435 83608 10278 20250 30065 40103 71796 8532/ 333 59005 70026 82710 84615 88459 81930==
41891,2023,05,23,09,00,AAXX 23094 41891 41440 71802 10298 20240 30035 40073 59009 70026 86460==
41891,2023,05,23,12,00,AAXX 23124 41891 01435 81303 10280 20250 30017 40055 70592 8532/ 333 10307 59015 71710 84615 88459 81930==
41891,2023,05,23,15,00,AAXX 23154 41891 01430 82708 10250 20200 30054 40093 70522 8532/ 333 58003 70026 81710 84615 88459 81930==
41891,2023,05,23,18,00,AAXX 23184 41891 01430 60903 10235 20210 30036 40075 70522 333 59017 70026 83340 83615 85365 81930==
41891,2023,05,23,21,00,AAXX 23214 41891 01430 81203 10233 20200 30027 40066 70522 8532/ 333 59027 70026 81710 84615 88459 81930==
41891,2023,05,24,00,00,AAXX 24004 41891 01430 83203 10230 20210 30040 40079 70522 8532/ 333 59015 70026 81710 84615 88459 81930==
41891,2023,05,24,03,00,AAXX 24034 41891 01435 82703 10244 20220 30058 40097 70522 8532/ 333 20230 59020 70020 81710 84615 88459 81930==
41891,2023,05,24,06,00,AAXX 24064 41891 01440 70502 10290 20210 30049 40087 70522 84370 333 59016 70000 84615 86460 81930==
41891,2023,05,24,09,00,AAXX 24094 41891 01445 60000 10310 20210 30019 40057 70522 83340 333 59016 70000 83615 85365 81930==
41891,2023,05,24,12,00,AAXX 24124 41891 01440 60502 10280 20210 30014 40052 70522 83340 333 10315 59003 70000 83615 85365 81930==
41891,2023,05,24,15,00,AAXX 24154 41891 01435 61802 10260 20230 30036 40075 70522 83340 333 59018 70000 83615 85365 81930==
41891,2023,05,24,18,00,AAXX 24184 41891 01430 32705 10245 20220 30041 40080 70521 81830 333 58005 70000 81616 83365==
41891,2023,05,24,21,00,AAXX 24214 41891 01430 30903 10240 20220 30032 40071 70521 81530 333 58005 70000 81616 83365==
41891,2023,05,25,00,00,AAXX 25004 41891 01400 40103 10230 20220 30038 40077 70521 81530 333 59002 70000 81616 83365==
41891,2023,05,25,03,00,AAXX 25034 41891 01540 11302 10300 20220 30048 40086 70511 81100 333 20228 59010 70000 81825==
41891,2023,05,25,06,00,AAXX 25064 41891 01445 61402 10314 20200 30041 40079 70511 83340 333 59008 70000 83615 85365 81930==
41891,2023,05,25,09,00,AAXX 25094 41891 01450 61804 10330 20210 30020 40057 70522 83340 333 58001 70000 83615 85365 81930==
41891,2023,05,25,12,00,AAXX 25124 41891 01440 13102 10313 20210 30006 40044 70521 81500 333 10342 59008 70000 81615==
41891,2023,05,25,15,00,AAXX 25154 41891 01440 60603 10285 20230 30026 40064 70521 83340 333 59010 70000 83615 85365 81930==
41891,2023,05,25,18,00,AAXX 25184 41891 01320 81803 10240 20230 30019 40058 79592 8632/ 333 59022 70080 86708 88458 81925==
41891,2023,05,25,21,00,AAXX 25214 41891 01320 82703 10235 20230 30042 40081 79599 8632/ 333 58010 70240 86708 88458 81925==
41895,2023,05,19,00,00,AAXX 19004 41895 02450 60000 10246 20240 30035 40058 83520 333 59028 70000 83615 86458==
41895,2023,05,19,03,00,AAXX 19034 41895 02456 60902 10285 20230 30056 40078 83520 333 20242 59027 70000 83615 86458==
41895,2023,05,19,06,00,AAXX 19064 41895 02456 60902 10315 20250 30051 40073 83520 333 59027 70000 83615 86458==
41895,2023,05,19,09,00,AAXX 19094 41895 02456 51302 10349 20270 30026 40048 83520 333 59027 70000 83616 85458==
41895,2023,05,19,12,00,AAXX 19124 41895 02456 50000 10314 20270 30007 40029 83520 333 10352 59027 70000 83616 85458==
41895,2023,05,19,15,00,AAXX 19154 41895 02456 81203 10293 20270 30027 40049 8452/ 333 59021 70000 84616 88458==
41895,2023,05,19,18,00,AAXX 19184 41895 02456 41204 10254 20210 30052 40074 82520 333 59003 70000 82616 84458==
41895,2023,05,19,21,00,AAXX 19214 41895 02450 40000 10241 20220 30023 40045 82510 333 59019 70000 82616 84458==
41895,2023,05,20,00,00,AAXX 20004 41895 02950 20000 10233 20220 30028 40050 80001 333 59007 70000 82074==
41895,2023,05,20,03,00,AAXX 20034 41895 02956 01303 10297 20230 30042 40064 333 20231 59014 70000==
41895,2023,05,20,06,00,AAXX 20064 41895 02957 01502 10347 20250 30038 40060 333 59013 70000==
41895,2023,05,20,09,00,AAXX 20094 41895 02957 01304 10370 20260 30019 40041 333 59007 70000==
41895,2023,05,20,12,00,AAXX 20124 41895 02956 01302 10345 20270 30012 40034 333 10371 58005 70000==
41895,2023,05,20,15,00,AAXX 20154 41895 02950 01301 10310 20260 30031 40053 333 58004 70000==
41895,2023,05,20,18,00,AAXX 20184 41895 02950 01302 10290 20250 30033 40055 333 59019 70000==
41895,2023,05,20,21,00,AAXX 20214 41895 02450 21302 10285 20270 30029 40051 82500 333 58006 70000 82617==
41895,2023,05,21,00,00,AAXX 21004 41895 02/50 61304 10275 20270 30022 40044 86030 333 59006 70000 86362==
41895,2023,05,21,03,00,AAXX 21034 41895 02456 61303 10312 20270 30051 40073 83510 333 20268 58009 70000 83616 86458==
41895,2023,05,21,06,00,AAXX 21064 41895 02456 61305 10356 20270 30043 40065 83510 333 58005 70000 83616 86458==
41895,2023,05,21,09,00,AAXX 21094 41895 02456 62303 10376 20270 30024 40048 83510 333 58005 70000 83616 86458==
41895,2023,05,21,12,00,AAXX 21124 41895 01450 62302 10340 20280 30007 40028 70292 83520 333 10377 59005 70000 83615 86458==
41895,2023,05,21,15,00,AAXX 21154 41895 02450 80507 10305 20260 30040 40062 8452/ 333 58009 70000 84615 88458==
41895,2023,05,21,18,00,AAXX 21184 41895 NIL=
41895,2023,05,21,21,00,AAXX 21214 41895 02950 00902 10218 20210 30043 40065 333 58014 70227==
41895,2023,05,22,00,00,AAXX 22004 41895 02950 00000 10211 20211 30053 40075 333 58031 70227==
41895,2023,05,22,03,00,AAXX 22034 41895 02957 00903 10280 20230 30070 40093 333 20200 58019 70227==
41895,2023,05,22,06,00,AAXX 22064 41895 02457 21304 10340 20260 30056 40078 82500 333 58013 70227 82616==
41895,2023,05,22,09,00,AAXX 22094 41895 02457 50403 10347 20280 30036 40058 83510 333 58012 70227 83616 85458==
41895,2023,05,22,12,00,AAXX 22124 41895 02956 20703 10319 20270 30030 40012 80001 333 10358 58023 70227 82074==
41895,2023,05,22,15,00,AAXX 22154 41895 02456 60704 10291 20250 30051 40073 83520 333 58011 70227 83616 85458==
41895,2023,05,22,18,00,AAXX 22184 41895 02956 00305 10275 20260 30049 40072 333 59012 70000==
41895,2023,05,22,21,00,AAXX 22214 41895 02450 40603 10267 20250 30047 40070 82520 333 58004 70000 82616 84458==
41895,2023,05,23,00,00,AAXX 23004 41895 02450 60903 10270 20250 30053 40076 84520 333 58000 70000 84616 85458==
41895,2023,05,23,03,00,AAXX 23034 41895 02456 61303 10314 20270 30067 40089 83510 333 20257 59003 70000 83616 86458==
41895,2023,05,23,06,00,AAXX 23064 41895 02456 60903 10350 20270 30053 40075 84410 333 59003 70000 83616 86458==
41895,2023,05,23,09,00,AAXX 23094 41895 01450 83109 10220 20220 30041 40064 71722 8532/ 333 58005 70000 84615 88458 81928==
41895,2023,05,23,12,00,AAXX 23124 41895 21450 83604 10230 20210 30037 40059 71796 8532/ 333 10365 58007 60075 70073 84615 88458 81928==
41895,2023,05,23,15,00,AAXX 23154 41895 01450 80904 10223 20210 30051 40074 79596 8532/ 333 58000 70133 84615 88458 81928==
41895,2023,05,23,18,00,AAXX 23184 41895 21450 80903 10220 20220 30059 40082 70296 8452/ 333 58010 60065 70133 84615 88458==
41895,2023,05,23,21,00,AAXX 23214 41895 02950 00902 10220 20210 30052 40075 333 58005 70133==
41895,2023,05,24,00,00,AAXX 24004 41895 02950 00902 10220 20210 30052 40075 333 59001 70133==
41895,2023,05,24,03,00,AAXX 24034 41895 02/57 20902 10260 20230 30065 40087 82030 333 20215 59002 70133 82362==
41895,2023,05,24,06,00,AAXX 24064 41895 02/57 43103 10310 20220 30057 40079 83031 333 58004 70133 83362==
41895,2023,05,24,09,00,AAXX 24094 41895 02957 00502 10334 20220 30024 40046 333 59017 70133==
41895,2023,05,24,12,00,AAXX 24124 41895 02956 00902 10325 20240 30011 40032 333 10340 59026 70060==
41895,2023,05,24,15,00,AAXX 24154 41895 42450 20904 10280 20240 30035 40058 82500 333 59016 82617==
41895,2023,05,24,18,00,AAXX 24184 41895 02950 00902 10260 20240 30042 40064 333 59017 70000==
41895,2023,05,24,21,00,AAXX 24214 41895 02950 00902 10255 20250 30040 40062 333 59012 70000==
41895,2023,05,25,00,00,AAXX 25004 41895 02450 30902 10245 20240 30036 40059 83500 333 59016 70000 83616==
41895,2023,05,25,03,00,AAXX 25034 41895 02457 21302 10292 20250 30049 40072 82500 333 20240 59016 70000 82616==
41895,2023,05,25,06,00,AAXX 25064 41895 02457 31304 10336 20250 30044 40066 83400 333 59013 70000 82616==
41895,2023,05,25,09,00,AAXX 25094 41895 02457 40903 10349 20260 30018 40040 82510 333 59006 70000 82616 84458==
41895,2023,05,25,12,00,AAXX 25124 41895 02957 30000 10316 20270 30005 40027 80001 333 10352 70000 83074==
41895,2023,05,25,15,00,AAXX 25154 41895 01450 81810 10231 20210 30038 40060 79511 8532/ 333 58003 70008 84614 88458 82928==
41895,2023,05,25,18,00,AAXX 25184 41895 21450 80902 10229 20229 30025 40047 71396 8432/ 333 59017 60027 70024 83616 88458 81928==
41895,2023,05,25,21,00,AAXX 25214 41895 02950 01202 10229 20220 30040 40062 333 58000 70024==
41897,2023,05,19,00,00,AAXX 19004 41897 31440 50000 10240 20230 30056 40070 70522 81530 333 56990 59010 70000 81618=
41897,2023,05,19,06,00,AAXX 19064 41897 31450 60901 10289 20230 30067 40080 70522 82510 333 56990 59024 59024 70000 82618 86458=
41897,2023,05,19,12,00,AAXX 19124 41897 32456 50901 10302 20250 30028 40041 82510 333 10303 56990 59029 70000 82618 85458=
41897,2023,05,19,18,00,AAXX 19184 41897 32450 50901 10262 20240 30058 40072 82530 333 56990 59007 70000 82618 85361=
41897,2023,05,20,00,00,AAXX 20004 41897 32950 00901 10234 20210 30043 40057 333 59013 70000=
41897,2023,05,20,06,00,AAXX 20064 41897 32456 41801 10315 20240 30052 40065 81530 333 56990 59015 70000 81618 84361=
41897,2023,05,20,12,00,AAXX 20124 41897 32956 21802 10328 20240 30030 40043 82030 333 10350 56090 58002 70000 82361=
41897,2023,05,20,18,00,AAXX 20184 41897 32950 01801 10278 20240 30052 40065 333 59006 70000=
41897,2023,05,21,00,00,AAXX 21004 41897 31450 51302 10270 20260 30042 40055 70520 82510 333 56990 59001 70000 82618 86458=
41897,2023,05,21,06,00,AAXX 21064 41897 32456 51302 10326 20270 30057 40070 81510 333 56990 58005 70000 81618 85458=
41897,2023,05,21,12,00,AAXX 21124 41897 32456 51302 10330 20260 30021 40034 81510 333 10352 56990 59009 70000 81618 85458=
41897,2023,05,21,18,00,AAXX 21184 41897 11350 81803 10218 20200 30063 40076 60733 71796 8532/ 333 56999 58020 70730 84616 81929 88458=
41897,2023,05,22,00,00,AAXX 22004 41897 31950 00901 10224 20200 30068 40081 70520 333 58022 70730=
41897,2023,05,22,06,00,AAXX 22064 41897 31450 50902 10307 20250 30077 40090 70520 82530 333 56390 58020 70730 82618 85360=
41897,2023,05,22,12,00,AAXX 22124 41897 31450 60803 10305 20260 30046 40059 71792 83930 333 10330 56990 58025 70730 83616 81925 86360=
41897,2023,05,22,18,00,AAXX 22184 41897 32945 30903 10275 20260 30068 40071 83030 333 56090 58005 70010 83362=
41897,2023,05,23,00,00,AAXX 23004 41897 31930 01501 10270 20260 30066 40079 70500 333 59002 70000=
41897,2023,05,23,06,00,AAXX 23064 41897 31950 30901 10335 20270 30066 40078 70511 83030 333 56090 59011 70000 83362=
41897,2023,05,23,12,00,AAXX 23124 41897 11330 80508 10225 20210 30039 40053 60274 72996 8592/ 333 10340 56999 59007 70270 82709 84615 81925 88458=
41897,2023,05,23,18,00,AAXX 23184 41897 11430 61702 10228 20210 30044 40057 60023 70166 83520 333 56990 59024 70286 83615 86458=
41897,2023,05,24,00,00,AAXX 24004 41897 31930 61801 10225 20210 30064 40077 70522 83530 333 56990 59002 70286 83616 86360=
41897,2023,05,24,06,00,AAXX 24064 41897 32956 00000 10300 20210 30066 40079 333 58000 70286=
41897,2023,05,24,12,00,AAXX 24124 41897 32956 00000 10302 20220 30024 40037 333 10322 59015 70000=
41897,2023,05,24,18,00,AAXX 24184 41897 31945 01801 10255 20240 30056 40069 70500 333 58012 70000=
41897,2023,05,25,00,00,AAXX 25004 41897 31930 01001 10245 20230 30052 40065 70500 333 59012 70000=
41897,2023,05,25,06,00,AAXX 25064 41897 NIL=
41897,2023,05,25,12,00,AAXX 25124 41897 32950 01801 10300 20250 30027 40040 333 10325 58003 70000=
41897,2023,05,25,18,00,AAXX 25184 41897 NIL=
41902,2023,05,19,00,00,AAXX 19004 41902 32440 81202 10232 20220 30067 40076 8542/ 333 56499 59036 70038 84616 88458=
41902,2023,05,19,06,00,AAXX 19064 41902 32450 81802 10300 20230 30079 40088 8562/ 333 56499 59019 70000 83712 84615 88458=
41902,2023,05,19,18,00,AAXX 19184 41902 32430 70503 10257 20240 30057 40066 84320 333 56490 59034 70000 83616 81930 86458=
41902,2023,05,20,00,00,AAXX 20004 41902 32420 40000 10218 20210 30057 40066 83420 333 56490 59010 70000 82616 84458=
41902,2023,05,20,06,00,AAXX 20064 41902 32450 42802 10325 20260 30072 40080 83420 333 56490 59007 70000 82616 84458=
41902,2023,05,20,12,00,AAXX 20124 41902 32450 41805 10315 20250 30042 40050 83420 333 10340 56490 58003 70000 82616 84458=
41902,2023,05,20,18,00,AAXX 20184 41902 32430 82303 10268 20250 30057 40066 83430 333 56490 58000 70000 82616 84458=
41902,2023,05,21,00,00,AAXX 21004 41902 32430 41804 10220 20200 30063 40072 83430 333 56490 58006 70000 82616 84458=
41902,2023,05,21,06,00,AAXX 21064 41902 32450 82202 10330 20250 30079 40087 8532/ 333 56599 58007 70000 83710 84615 81930 88458=
41902,2023,05,21,12,00,AAXX 21124 41902 NIL=
41902,2023,05,21,18,00,AAXX 21184 41902 11420 81805 10227 20210 30090 40099 60266 71796 8532/ 333 56599 58033 70260 83710 84615 81930 88458=
41902,2023,05,22,00,00,AAXX 22004 41902 32430 41605 10222 20200 30081 40089 333 83420 333 56990 58018 70260 82616 84458=
41902,2023,05,22,06,00,AAXX 22064 41902 32456 43601 10317 20240 30086 40094 83420 333 56990 58007 70260 82616 84458=
41902,2023,05,22,12,00,AAXX 22124 41902 32450 80401 10307 20260 30055 40063 8532/ 333 10332 56599 59006 70260 83710 84615 81930 88458=
41902,2023,05,22,18,00,AAXX 22184 41902 31430 80000 10265 20250 30077 40086 71799 8532/ 333 56599 59013 70000 82710 84615 81930 88458=
41902,2023,05,23,00,00,AAXX 23004 41902 31420 41001 10270 20260 30079 40088 70544 83420 333 56420 59002 70000 82616 84458=
41902,2023,05,23,06,00,AAXX 23064 41902 11450 82705 10258 20240 30087 40096 60034 71796 8532/ 333 56599 58001 70028 83710 84615 81925 88458=
41902,2023,05,23,12,00,AAXX 23124 41902 31450 80000 10258 20220 30072 40081 71792 8492/ 333 10335 56999 58017 70028 82614 81929 88459=
41902,2023,05,23,18,00,AAXX 23184 41902 11430 80000 10221 20210 30070 40079 60038 70296 8342/ 333 56999 59007 70058 82614 88459=
41902,2023,05,24,00,00,AAXX 24004 41902 32430 80000 10224 20210 30060 40069 8442/ 333 56999 59019 70058 83614 88459=
41902,2023,05,24,06,00,AAXX 24064 41902 32450 30901 10293 20210 30067 40076 82430 333 56990 59020 70030 82614=
41902,2023,05,24,12,00,AAXX 24124 41902 32450 10901 10288 20220 30036 40044 81500 333 10316 56900 59036 70030 81614=
41902,2023,05,24,18,00,AAXX 24184 41902 NIL=
41902,2023,05,25,00,00,AAXX 25004 41902 32430 31301 10227 20227 30058 40067 81530 333 56990 59019 70000 81614 83362=
41902,2023,05,25,06,00,AAXX 25064 41902 32950 11801 10318 20230 30058 40066 81030 333 56090 59009 70000 81363=
41902,2023,05,25,12,00,AAXX 25124 41902 32450 41301 10310 20250 30029 40037 82430 333 10326 56990 59007 70000 82614 83362=
41902,2023,05,25,18,00,AAXX 25184 41902 NIL=
41907,2023,05,19,00,00,AAXX 19004 41907 02340 80000 10245 20240 30044 40057 8662/ 333 59042 70000 82709 85615 88458==
41907,2023,05,19,03,00,AAXX 19034 41907 02350 81302 10285 20230 30060 40075 8662/ 333 20235 59026 70000 82709 84615 88458==
41907,2023,05,19,06,00,AAXX 19064 41907 02350 81302 10315 20250 30056 40070 8661/ 333 59026 70000 83709 84615 88458==
41907,2023,05,19,09,00,AAXX 19094 41907 02450 60902 10342 20250 30029 40044 86500 333 59024 70000 86615==
41907,2023,05,19,12,00,AAXX 19124 41907 02450 71302 10315 20270 30006 40021 85510 333 10353 59037 70000 85615 87458==
41907,2023,05,19,15,00,AAXX 19154 41907 01340 80000 10295 20280 30026 40041 71722 8692/ 333 59017 70000 85709 88458 81930==
41907,2023,05,19,18,00,AAXX 19184 41907 01340 82702 10270 20210 30039 40054 70292 8662/ 333 59017 70000 83709 84615 88458==
41907,2023,05,19,21,00,AAXX 19214 41907 02/40 30000 10250 20220 30030 40044 83030 333 59018 70000 83362==
41907,2023,05,20,00,00,AAXX 20004 41907 02/50 30000 10232 20210 30022 40037 83030 333 59020 70000 83362==
41907,2023,05,20,03,00,AAXX 20034 41907 02950 01802 10298 20220 30046 40060 333 20230 59014 70000==
41907,2023,05,20,06,00,AAXX 20064 41907 02956 01802 10345 20240 30040 40055 333 59016 70000==
41907,2023,05,20,09,00,AAXX 20094 41907 02456 31802 10365 20250 30023 40037 83500 333 59006 70000 83615==
41907,2023,05,20,12,00,AAXX 20124 41907 02950 01802 10345 20160 30011 40025 333 10367 58005 70000==
41907,2023,05,20,15,00,AAXX 20154 41907 02940 01803 10305 20260 30031 40046 333 58005 70000==
41907,2023,05,20,18,00,AAXX 20184 41907 02940 01803 10285 20260 30037 40052 333 59002 70000==
41907,2023,05,20,21,00,AAXX 20214 41907 02440 61303 10278 20260 30028 40043 83510 333 59002 70000 83615 85458==
41907,2023,05,21,00,00,AAXX 21004 41907 02450 81302 10275 20270 30029 40044 8552/ 333 58007 70000 85615 88458==
41907,2023,05,21,03,00,AAXX 21034 41907 02350 81302 10310 20270 30051 40066 8662/ 333 20270 58005 70000 82709 85615 88458==
41907,2023,05,21,06,00,AAXX 21064 41907 02450 72302 10348 20270 30046 40060 85510 333 58006 70000 85615 87458==
41907,2023,05,21,09,00,AAXX 21094 41907 02450 51302 10370 20270 30025 40039 85500 333 58002 70000 85615==
41907,2023,05,21,12,00,AAXX 21124 41907 02450 31302 10337 20270 30011 40025 83800 333 10372 58000 70000 82615==
41907,2023,05,21,15,00,AAXX 21154 41907 02340 81304 10260 20230 30039 40054 8662/ 333 58008 70000 82709 85615 88458==
41907,2023,05,21,18,00,AAXX 21184 41907 01340 81304 10230 20210 30055 40070 79596 8692/ 333 58018 70120 85709 88458 81930==
41907,2023,05,21,21,00,AAXX 21214 41907 01340 80000 10195 20190 30049 40064 70296 8662/ 333 58021 70130 82709 85615 88458==
41907,2023,05,22,00,00,AAXX 22004 41907 11940 00000 10205 20200 30049 40064 60016 70596 333 58020 70130==
41907,2023,05,22,03,00,AAXX 22034 41907 02950 00000 10285 20230 30071 40085 333 20195 58020 70130==
41907,2023,05,22,06,00,AAXX 22064 41907 02450 31302 10336 20260 30061 40076 83500 333 58015 70130 83615==
41907,2023,05,22,09,00,AAXX 22094 41907 02450 62302 10362 20260 30036 40050 84810 333 59011 70130 82615 83825 85458==
41907,2023,05,22,12,00,AAXX 22124 41907 02450 72302 10330 20270 30028 40042 85810 333 10365 58017 70130 82615 83825 86458==
41907,2023,05,22,15,00,AAXX 22154 41907 02340 81802 10290 20240 30054 40069 8662/ 333 58015 70130 85709 88458==
41907,2023,05,22,18,00,AAXX 22184 41907 02340 81802 10286 20260 30055 40069 8662/ 333 58000 70010 85709 88458==
41907,2023,05,22,21,00,AAXX 22214 41907 02340 81802 10272 20240 30043 40058 8662/ 333 59006 70000 85709 88458==
41907,2023,05,23,00,00,AAXX 23004 41907 01340 81802 10265 20260 30053 40068 70522 8662/ 333 59011 70000 85709 88458==
41907,2023,05,23,03,00,AAXX 23034 41907 02450 81303 10316 20280 30068 40083 8552/ 333 20263 59003 70000 85615 88458==
41907,2023,05,23,06,00,AAXX 23064 41907 02450 71302 10340 20260 30055 40069 85810 333 59006 70000 84615 86458==
41907,2023,05,23,09,00,AAXX 23094 41907 02450 71302 10345 20270 30018 40032 85510 333 59018 70000 85615 87458==
41907,2023,05,23,12,00,AAXX 23124 41907 21340 81304 10220 20210 30049 40064 71796 8692/ 333 10364 58021 60287 70280 85709 88458 81930==
41907,2023,05,23,15,00,AAXX 23154 41907 01330 81802 10220 20210 30056 40071 79596 8692/ 333 58002 70312 85709 88458 81930==
41907,2023,05,23,18,00,AAXX 23184 41907 21340 83602 10220 20210 30043 40058 70296 8672/ 333 59012 60048 70320 85709 88458==
41907,2023,05,23,21,00,AAXX 23214 41907 02440 40902 10220 20210 30037 40052 82530 333 59006 70320 82615 83362==
41907,2023,05,24,00,00,AAXX 24004 41907 02/50 20000 10220 20210 30050 40065 82030 333 59003 70320 82362==
41907,2023,05,24,03,00,AAXX 24034 41907 02450 21302 10265 20220 30064 40079 82500 333 20218 59004 70320 82615==
41907,2023,05,24,06,00,AAXX 24064 41907 02956 00901 10310 20230 30053 40067 333 59002 70320==
41907,2023,05,24,09,00,AAXX 24094 41907 02956 01302 10327 20210 30022 40037 333 58004 70000==
41907,2023,05,24,12,00,AAXX 24124 41907 02950 01302 10306 20230 30013 40028 333 10332 59036 70040==
41907,2023,05,24,15,00,AAXX 24154 41907 02/40 21802 10268 20240 30038 40053 82030 333 59018 70008 82362==
41907,2023,05,24,18,00,AAXX 24184 41907 02940 01302 10250 20230 30044 40059 333 58001 70000==
41907,2023,05,24,21,00,AAXX 24214 41907 02940 00000 10244 20230 30037 40052 333 58000 70000==
41907,2023,05,25,00,00,AAXX 25004 41907 02950 00902 10238 20230 30032 40047 333 59018 70000==
41907,2023,05,25,03,00,AAXX 25034 41907 02450 31802 10290 20240 30054 40068 83500 333 20236 59010 70000 83615==
41907,2023,05,25,06,00,AAXX 25064 41907 02450 51302 10325 20250 30044 40059 85800 333 59009 70000 83615==
41907,2023,05,25,09,00,AAXX 25094 41907 02450 71802 10330 20260 30024 40039 84510 333 58002 70000 84615 85458==
41907,2023,05,25,12,00,AAXX 25124 41907 02950 01302 10315 20270 30006 40021 333 10332 59007 70000==
41907,2023,05,25,15,00,AAXX 25154 41907 01320 82308 10235 20230 30048 40063 79500 8692/ 333 58010 70042 85709 88458 81930==
41907,2023,05,25,18,00,AAXX 25184 41907 21340 83103 10228 20220 30036 40051 70296 8662/ 333 59008 60107 70096 83709 85615 88458==
41907,2023,05,25,21,00,AAXX 25214 41907 02440 80000 10225 20220 30037 40052 8552/ 333 58000 70096 85615 88458==
41909,2023,05,19,00,00,AAXX 19004 41909 02450 81301 10243 20230 30060 40072 8352/ 333 59038 70000 83615 88460==
41909,2023,05,19,03,00,AAXX 19034 41909 02450 61301 10285 20230 30078 40089 82510 333 20220 59021 70000 82615 86460==
41909,2023,05,19,06,00,AAXX 19064 41909 02450 81301 10300 20240 30073 40084 8552/ 333 59025 70000 85615 88458==
41909,2023,05,19,09,00,AAXX 19094 41909 02456 80000 10318 20250 30049 40060 8552/ 333 59011 70000 85615 88458==
41909,2023,05,19,12,00,AAXX 19124 41909 02450 60000 10309 20270 30026 40037 82510 333 10322 59033 70000 82615 86458==
41909,2023,05,19,15,00,AAXX 19154 41909 02440 60000 10280 20250 30041 40052 82510 333 59019 70000 82615 86460==
41909,2023,05,19,18,00,AAXX 19184 41909 02440 60000 10270 20250 30043 40054 82510 333 59023 70000 82615 86460==
41909,2023,05,19,21,00,AAXX 19214 41909 02440 60000 10249 20230 30044 40055 82510 333 59015 70000 82615 86460==
41909,2023,05,20,00,00,AAXX 20004 41909 02450 60000 10234 20210 30044 40056 82510 333 59016 70000 82615 86458==
41909,2023,05,20,03,00,AAXX 20034 41909 02456 60000 10294 20210 30062 40073 82510 333 20224 59016 70000 82615 86458==
41909,2023,05,20,06,00,AAXX 20064 41909 02456 60000 10335 20250 30056 40067 82510 333 59017 70000 82615 86458==
41909,2023,05,20,09,00,AAXX 20094 41909 02456 31802 10350 20240 30037 40049 83800 333 59012 70000 82615==
41909,2023,05,20,12,00,AAXX 20124 41909 02956 00000 10326 20240 30028 40039 333 10358 58002 70000==
41909,2023,05,20,15,00,AAXX 20154 41909 02940 00000 10299 20250 30051 40062 333 58010 70000==
41909,2023,05,20,18,00,AAXX 20184 41909 02940 02304 10284 20230 30048 40059 333 58005 70000==
41909,2023,05,20,21,00,AAXX 20214 41909 02440 61302 10279 20250 30046 40057 82530 333 58002 70000 82615 85360==
41909,2023,05,21,00,00,AAXX 21004 41909 02456 61302 10374 20250 30051 40062 83530 333 58007 70000 83615 84360==
41909,2023,05,21,03,00,AAXX 21034 41909 02456 81802 10302 20250 30076 40087 8352/ 333 20262 58014 70000 83615 88458==
41909,2023,05,21,06,00,AAXX 21064 41909 02456 61402 10337 20260 30066 40077 82610 333 58010 70000 82615 86458==
41909,2023,05,21,09,00,AAXX 21094 41909 02456 71804 10351 20250 30045 40056 84370 333 58008 70000 84614 86460 81930==
41909,2023,05,21,12,00,AAXX 21124 41909 02456 11301 10340 20260 30026 40037 81500 333 10357 59002 70000 81615==
41909,2023,05,21,15,00,AAXX 21154 41909 01320 82201 10230 20210 30072 40084 79596 8692/ 333 58021 70250 83708 83614 88458 81925==
41909,2023,05,21,18,00,AAXX 21184 41909 21315 81806 10220 20210 30081 40093 79596 8692/ 333 58033 60499 70492 86708 88458 81925==
41909,2023,05,21,21,00,AAXX 21214 41909 01430 81302 10220 20210 30069 40081 70296 8532/ 333 58023 70502 85614 88460 81930==
41909,2023,05,22,00,00,AAXX 22004 41909 11/56 20000 10220 20200 30067 40079 60016 70196 82030 333 58016 70502 82365==
41909,2023,05,22,03,00,AAXX 22034 41909 02956 01402 10274 20220 30090 40101 333 20212 58014 70502==
41909,2023,05,22,06,00,AAXX 22064 41909 02456 81401 10314 20240 30081 40092 8352/ 333 58015 70502 83615 88458==
41909,2023,05,22,09,00,AAXX 22094 41909 02456 50000 10340 20260 30054 40065 82510 333 58009 70502 82615 85460==
41909,2023,05,22,12,00,AAXX 22124 41909 02450 50000 10320 20250 30046 40057 82530 333 10345 58020 70502 82615 85360==
41909,2023,05,22,15,00,AAXX 22154 41909 01430 70000 10294 20240 30064 40075 71322 84970 333 59008 70252 84614 86460 81930==
41909,2023,05,22,18,00,AAXX 22184 41909 02430 81301 10274 20240 30072 40083 8532/ 333 59009 70010 85614 88458 81930==
41909,2023,05,22,21,00,AAXX 22214 41909 02430 80000 10275 20250 30069 40081 8352/ 333 58000 70000 83615 88460==
41909,2023,05,23,00,00,AAXX 23004 41909 02450 80000 10276 20260 30067 40078 8352/ 333 58000 70000 83615 88460==
41909,2023,05,23,03,00,AAXX 23034 41909 02456 61402 10304 20260 30080 40091 82510 333 20256 59010 70000 82615 86458==
41909,2023,05,23,06,00,AAXX 23064 41909 02456 61402 10344 20250 30071 40082 82510 333 59010 70000 82615 86458==
41909,2023,05,23,09,00,AAXX 23094 41909 01456 80000 10299 20250 30045 40056 70262 8352/ 333 59009 70080 83615 88458==
41909,2023,05,23,12,00,AAXX 23124 41909 01440 81402 10224 20210 32226 40037 79596 8592/ 333 10348 59020 70300 83708 83614 88458 81930==
41909,2023,05,23,15,00,AAXX 23154 41909 01440 80000 10220 20210 30079 40091 79596 8592/ 333 58015 70370 83708 83615 88458 81930==
41909,2023,05,23,18,00,AAXX 23184 41909 21440 80000 10218 20210 30044 40056 79596 8592/ 333 59028 60097 70390 83708 83614 88458 81930==
41909,2023,05,23,21,00,AAXX 23214 41909 02440 80000 10217 20210 30063 40078 8352/ 333 59006 70390 83615 88458==
41909,2023,05,24,00,00,AAXX 24004 41909 02450 80000 10217 20210 30064 40076 8352/ 333 59003 70390 83615 88458==
41909,2023,05,24,03,00,AAXX 24034 41909 02456 51401 10271 20220 30078 40089 82530 333 20212 59002 70390 82615 85360==
41909,2023,05,24,06,00,AAXX 24064 41909 02956 00000 10304 20190 30066 40077 333 59005 70390==
41909,2023,05,24,09,00,AAXX 24094 41909 02456 30000 10338 20190 30035 40046 83500 333 59010 70310 83615==
41909,2023,05,24,12,00,AAXX 24124 41909 02456 40000 10310 20230 30027 40038 82530 333 10345 59001 70090 82614 83365==
41909,2023,05,24,15,00,AAXX 24154 41909 02950 00000 10260 20230 30052 40063 333 59027 70020==
41909,2023,05,24,18,00,AAXX 24184 41909 02940 00000 10256 20230 30060 40071 333 59016 70000==
41909,2023,05,24,21,00,AAXX 24214 41909 01940 00000 10247 20230 30056 40067 70500 333 59007 70000==
41909,2023,05,25,03,00,AAXX 25034 41909 02956 01402 10290 20220 30068 40079 333 20228 59010 70000==
41909,2023,05,25,06,00,AAXX 25064 41909 02456 61402 10316 20230 30059 40070 82510 333 59007 70000 82615 86458==
41909,2023,05,25,09,00,AAXX 25094 41909 02450 81401 10325 20230 30043 40054 8352/ 333 58008 70000 83615 88460==
41909,2023,05,25,12,00,AAXX 25124 41909 02950 01401 10320 20240 30021 40032 333 10335 59006 70000==
41909,2023,05,25,15,00,AAXX 25154 41909 02430 51401 10297 20250 30041 40052 82530 333 59011 70000 82615 85360==
41909,2023,05,25,18,00,AAXX 25184 41909 21330 81801 10230 20210 30038 40050 79596 8692/ 333 59022 60107 70100 86708 88458 81925==
41909,2023,05,25,21,00,AAXX 25214 41909 01430 51401 10230 20210 30054 40066 70196 82530 333 59002 70110 82615 85360==
41915,2023,05,19,00,00,AAXX 19004 41915 02456 80000 10236 20220 30065 40091 86420 333 59023 70038 85616 88458==
41915,2023,05,19,03,00,AAXX 19034 41915 02456 71002 10277 20210 30076 40101 85510 333 20224 59014 70004 85616 86458==
41915,2023,05,19,06,00,AAXX 19064 41915 01456 60000 10258 20240 30072 40097 70162 84410 333 59015 70050 83616 84458==
41915,2023,05,19,09,00,AAXX 19094 41915 01456 61401 10290 20230 30049 40074 70262 333 59020 70054 83616 88458==
41915,2023,05,19,12,00,AAXX 19124 41915 02456 70503 10269 20230 30031 40056 85620 333 10300 59030 70054 82712 84615 85458==
41915,2023,05,19,15,00,AAXX 19154 41915 02450 70000 10250 20230 30046 40071 85620 333 59029 70054 82712 84615 85458==
41915,2023,05,19,18,00,AAXX 19184 41915 02450 40000 10244 20220 30051 40077 83610 333 59017 70054 82715 84458==
41915,2023,05,19,21,00,AAXX 19214 41915 01440 80503 10253 20230 30025 40050 71796 8692/ 333 59034 70060 83710 84615 88458 81925==
41915,2023,05,20,00,00,AAXX 20004 41915 01450 80503 10216 20210 30056 40082 72996 8672/ 333 59009 70180 84710 85615 88458==
41915,2023,05,20,03,00,AAXX 20034 41915 02456 71002 10278 20230 30065 40090 86610 333 20214 59011 70180 83710 85616 87458==
41915,2023,05,20,06,00,AAXX 20064 41915 02456 73602 10315 20240 30050 40075 85410 333 59022 70126 84616 86458==
41915,2023,05,20,09,00,AAXX 20094 41915 02456 53401 10333 20250 30028 40053 84410 333 59021 70126 83616 85458==
41915,2023,05,20,12,00,AAXX 20124 41915 02456 30000 10305 20260 30031 40056 83401 333 10342 58000 70126 82616==
41915,2023,05,20,15,00,AAXX 20154 41915 02950 00000 10273 20240 30052 40077 333 58006 70126==
41915,2023,05,20,18,00,AAXX 20184 41915 02950 00000 10250 20230 30051 40076 333 58000 70126==
41915,2023,05,20,21,00,AAXX 20214 41915 02950 00000 10245 20220 30037 40063 333 58012 70126==
41915,2023,05,21,00,00,AAXX 21004 41915 02456 60601 10250 20220 30061 40087 85410 333 58005 70006 84616 86458==
41915,2023,05,21,03,00,AAXX 21034 41915 02956 01303 10298 20230 30079 40104 333 20240 58014 70000==
41915,2023,05,21,06,00,AAXX 21064 41915 02456 63602 10310 20240 30076 40100 85310 333 58026 70000 84616 85458 81928==
41915,2023,05,21,09,00,AAXX 21094 41915 02456 53601 10354 20220 30043 40067 84210 333 58015 70000 84825 85458==
41915,2023,05,21,12,00,AAXX 21124 41915 02456 43605 10276 20210 30049 40074 83320 333 10360 58018 70000 82616 83458 81930==
41915,2023,05,21,15,00,AAXX 21154 41915 01450 80000 10256 20210 30047 40072 70396 8642/ 333 59005 70010 83710 83616 88458==
41915,2023,05,21,18,00,AAXX 21184 41915 21440 83403 10227 20220 30087 40113 79596 8632/ 333 58036 60127 70122 82710 85616 88458 81928==
41915,2023,05,21,21,00,AAXX 21214 41915 01440 63603 10230 20210 30073 40099 70192 85320 333 58036 70128 84615 85458 81928==
41915,2023,05,22,00,00,AAXX 22004 41915 11456 10000 10228 20200 30074 40100 69966 70192 81530 333 58013 70128 81616==
41915,2023,05,22,03,00,AAXX 22034 41915 02456 73601 10295 20210 30085 40110 83570 333 20220 58006 70128 83616 85458==
41915,2023,05,22,06,00,AAXX 22064 41915 02456 40000 10324 20210 30077 40102 83530 333 58001 70128 83616==
41915,2023,05,22,09,00,AAXX 22094 41915 02456 43401 10332 20230 30054 40079 83530 333 58011 70128 83616==
41915,2023,05,22,12,00,AAXX 22124 41915 02456 30000 10308 20240 30045 40069 82510 333 10350 58001 70128 82616 83458==
41915,2023,05,22,15,00,AAXX 22154 41915 02450 80000 10286 20240 30071 40096 8642/ 333 58024 70118 83710 83616 88458==
41915,2023,05,22,18,00,AAXX 22184 41915 02450 80000 10271 20240 30068 40093 8542/ 333 59019 70006 83710 84616 88458==
41915,2023,05,22,21,00,AAXX 22214 41915 02450 80000 10263 20240 30057 40082 8542/ 333 59016 70000 83710 84016 88458==
41915,2023,05,23,00,00,AAXX 23004 41915 02456 20000 10270 20250 30073 40098 82530 333 59001 70000 82616==
41915,2023,05,23,03,00,AAXX 23034 41915 02456 41001 10310 20250 30080 40105 84400 333 20261 59005 70000 83616==
41915,2023,05,23,06,00,AAXX 23064 41915 01450 81802 10275 20200 30068 40093 71792 8632/ 333 59009 70000 85616 88458 81928==
41915,2023,05,23,09,00,AAXX 23094 41915 01450 83603 10242 20220 30054 40079 79596 8692/ 333 58000 70020 83712 84615 88458 81925==
41915,2023,05,23,12,00,AAXX 23124 41915 21450 83103 10255 20240 30039 40065 70292 8532/ 333 10340 59006 60028 70020 82712 84615 88458 81928==
41915,2023,05,23,15,00,AAXX 23154 41915 02440 83103 10240 20190 30084 40110 8532/ 333 58013 70020 82712 84615 88458==
41915,2023,05,23,18,00,AAXX 23184 41915 01440 81303 10230 20210 30065 40091 76122 8632/ 333 59003 70000 83710 84615 88458 81928==
41915,2023,05,23,21,00,AAXX 23214 41915 02440 81804 10228 20200 30041 40077 8662/ 333 59016 70020 83710 85615 88458==
41915,2023,05,24,00,00,AAXX 24004 41915 02450 82301 10225 20220 30055 40081 8562/ 333 59018 70020 82712 84615 88458==
41915,2023,05,24,03,00,AAXX 24034 41915 02456 80000 10235 20220 30078 40103 8652/ 333 20223 59002 70020 86616 88458==
41915,2023,05,24,06,00,AAXX 24064 41915 02456 80000 10274 20210 30060 40086 8552/ 333 59009 70020 85616 88458==
41915,2023,05,24,09,00,AAXX 24094 41915 01456 61301 10275 20250 30037 40062 72162 85420 333 59017 70010 84615 85458==
41915,2023,05,24,12,00,AAXX 24124 41915 21450 61302 10277 20230 30032 40057 70262 85320 333 10295 59013 60015 70010 84615 85458 81928==
41915,2023,05,24,15,00,AAXX 24154 41915 02450 30000 10240 20210 30047 40073 82510 333 59037 70010 82616==
41915,2023,05,24,18,00,AAXX 24184 41915 02950 00000 10222 20210 30055 40080 333 59010 70010==
41915,2023,05,24,21,00,AAXX 24214 41915 01950 00000 10215 20215 30047 40072 70500 333 58006 70010==
41915,2023,05,25,00,00,AAXX 25004 41915 01950 21301 10216 20216 30050 40075 70510 80002 333 59005 70010 82080==
41915,2023,05,25,03,00,AAXX 25034 41915 02956 01802 10288 20220 30061 40086 333 20206 59017 70010==
41915,2023,05,25,06,00,AAXX 25064 41915 02456 41802 10321 20220 30052 40076 84400 333 59008 70010 83616==
41915,2023,05,25,09,00,AAXX 25094 41915 02456 42302 10340 20220 30030 40055 84430 333 59007 70000 83616==
41915,2023,05,25,12,00,AAXX 25124 41915 02956 10000 10310 20230 30018 40043 80001 333 10345 59014 70000 81080==
41915,2023,05,25,15,00,AAXX 25154 41915 02450 51802 10288 20250 30040 40065 82510 333 59007 70000 82615 85460==
41915,2023,05,25,18,00,AAXX 25184 41915 02450 81601 10280 20250 30033 40058 8652/ 333 58003 70000 86616 88458==
41915,2023,05,25,21,00,AAXX 25214 41915 01440 81408 10255 20240 30033 40058 76596 8632/ 333 59014 70300 82710 85616 88458 81928==
41923,2023,05,19,00,00,AAXX 19004 41923 01340 70000 10252 20230 30072 40081 70522 85670 333 59043 70038 83709 84615 85458==
41923,2023,05,19,03,00,AAXX 19034 41923 02350 62403 10304 20240 30083 40093 83630 333 20220 59026 70000 81709 83615 85362==
41923,2023,05,19,06,00,AAXX 19064 41923 02350 81502 10302 20240 30077 40087 8532/ 333 59021 70000 83709 84615 88458 81930==
41923,2023,05,19,09,00,AAXX 19094 41923 02456 51803 10332 20240 30047 40057 85430 333 59029 70000 83615 83824==
41923,2023,05,19,12,00,AAXX 19124 41923 02456 51804 10320 20260 30035 40045 84430 333 10344 59035 70000 83615==
41923,2023,05,19,15,00,AAXX 19154 41923 02350 50000 10298 20260 30053 40063 84630 333 59017 70000 82709 83615==
41923,2023,05,19,18,00,AAXX 19184 41923 02450 71802 10292 20260 30043 40053 85670 333 59029 70000 82709 84615 85458==
41923,2023,05,19,21,00,AAXX 19214 41923 02450 50000 10270 20240 30039 40049 82530 333 59024 70000 82616 84360==
41923,2023,05,20,00,00,AAXX 20004 41923 02450 50000 10256 20220 30054 40064 81531 333 59018 70000 81616 84080==
41923,2023,05,20,03,00,AAXX 20034 41923 02956 01802 10310 20200 30066 40076 333 20254 59017 70000==
41923,2023,05,20,06,00,AAXX 20064 41923 02456 31903 10336 20240 30063 40073 83400 333 59014 70000 82616==
41923,2023,05,20,09,00,AAXX 20094 41923 02456 52403 10347 20230 30048 40058 82530 333 58001 70000 82615 85365==
41923,2023,05,20,12,00,AAXX 20124 41923 01950 03302 10326 20230 30039 40049 70520 333 10351 58004 70000==
41923,2023,05,20,15,00,AAXX 20154 41923 01940 01902 10301 20220 30060 40070 70500 333 58007 70000==
41923,2023,05,20,18,00,AAXX 20184 41923 01940 01202 10283 20240 30062 40072 70500 333 58019 70000==
41923,2023,05,20,21,00,AAXX 20214 41923 01440 81202 10280 20250 30059 40069 70522 8532/ 333 58020 70000 85614 88460 81930==
41923,2023,05,21,00,00,AAXX 21004 41923 01440 82702 10282 20250 30066 40076 70522 8532/ 333 58012 70000 85614 88460 81930==
41923,2023,05,21,03,00,AAXX 21034 41923 01445 83302 10307 20260 30080 40090 70522 8532/ 333 20272 58014 70000 85614 88460 81930==
41923,2023,05,21,06,00,AAXX 21064 41923 02456 52006 10345 20250 30076 40086 82530 333 58013 70000 82615 85365==
41923,2023,05,21,09,00,AAXX 21094 41923 02456 41303 10343 20250 30052 40062 84430 333 58004 70000 83615==
41923,2023,05,21,12,00,AAXX 21124 41923 02350 62004 10326 20260 30044 40054 85670 333 10354 58005 70000 82708 84615==
41923,2023,05,21,15,00,AAXX 21154 41923 41340 80208 10270 20200 30099 40108 76122 8732/ 333 58039 84708 85614 88458 81928==
41923,2023,05,21,18,00,AAXX 21184 41923 21345 72602 10225 20220 30094 40104 72996 86370 333 58032 60267 70262 83708 84614 86459 81928==
41923,2023,05,21,21,00,AAXX 21214 41923 01340 70000 10230 20220 30085 40095 70596 85370 333 58026 70268 82708 84614 85459 81930==
41923,2023,05,22,00,00,AAXX 22004 41923 11/40 10000 10240 20220 30073 40082 69966 70596 81030 333 58007 70268 81362==
41923,2023,05,22,03,00,AAXX 22034 41923 02950 00000 10292 20220 30095 40105 333 20222 58015 70268==
41923,2023,05,22,06,00,AAXX 22064 41923 02456 42205 10338 20240 30082 40092 84430 333 58006 70268 83615==
41923,2023,05,22,09,00,AAXX 22094 41923 02450 52403 10354 20230 30057 40067 82530 333 58005 70268 82615 85360==
41923,2023,05,22,12,00,AAXX 22124 41923 02450 50000 10330 20250 30049 40059 82530 333 10356 58005 70268 82615 85360==
41923,2023,05,22,15,00,AAXX 22154 41923 01345 70000 10314 20250 30071 40081 72992 85370 333 59028 70268 82709 84615 86458 81930==
41923,2023,05,22,18,00,AAXX 22184 41923 21345 70000 10302 20260 30080 40090 70296 85670 333 59014 60005 70006 83709 84615 85458==
41923,2023,05,22,21,00,AAXX 22214 41923 41340 70000 10288 20270 30067 40077 70522 85670 333 59018 83709 84615 85458==
41923,2023,05,23,00,00,AAXX 23004 41923 41340 70000 10284 20260 30076 40086 70522 85670 333 58003 83709 84615 85458==
41923,2023,05,23,03,00,AAXX 23034 41923 41340 81502 10308 20260 30086 40096 70522 8532/ 333 20282 59009 82709 84615 88458 81930==
41923,2023,05,23,06,00,AAXX 23064 41923 42350 71803 10338 20250 30075 40085 85670 333 59007 83709 84615 85458==
41923,2023,05,23,09,00,AAXX 23094 41923 01450 50000 10308 20210 30045 40055 70196 82530 333 59012 70002 82615 85360==
41923,2023,05,23,12,00,AAXX 23124 41923 01330 83408 10225 20220 30090 40100 79596 8692/ 333 10348 58041 70062 84708 85614 88458 81928==
41923,2023,05,23,15,00,AAXX 23154 41923 01335 80000 10223 20210 30094 40104 79596 8692/ 333 58023 70250 84708 85614 88458 81930==
41923,2023,05,23,18,00,AAXX 23184 41923 21340 80000 10227 20230 30041 40050 70296 8532/ 333 59039 60229 70284 83709 84615 88458 81930==
41923,2023,05,23,21,00,AAXX 23214 41923 01340 80000 10226 20230 30039 40049 70262 8532/ 333 59028 70288 83709 84615 88458 81930==
41923,2023,05,24,00,00,AAXX 24004 41923 11340 70000 10231 20210 30066 40075 69946 70162 85370 333 59010 70288 82709 84615 86458 81930==
41923,2023,05,24,03,00,AAXX 24034 41923 02445 50000 10231 20200 30081 40091 82530 333 20220 59005 70288 82616 83360==
41923,2023,05,24,06,00,AAXX 24064 41923 02350 70603 10322 20210 30070 40080 85370 333 59005 70288 82709 83615 86458 81930==
41923,2023,05,24,09,00,AAXX 24094 41923 01445 81802 10307 20230 30043 40053 70522 8532/ 333 59002 70286 85614 88460 81930==
41923,2023,05,24,12,00,AAXX 24124 41923 01440 82702 10278 20230 30040 40050 70522 8532/ 333 10322 59050 70226 85614 88460 81930==
41923,2023,05,24,15,00,AAXX 24154 41923 01440 83302 10256 20200 30054 40064 70522 8532/ 333 59040 70038 85614 88460 81930==
41923,2023,05,24,18,00,AAXX 24184 41923 01440 50302 10245 20230 30064 40073 70522 82530 333 58023 70004 82615 85365==
41923,2023,05,24,21,00,AAXX 24214 41923 01940 00000 10240 20220 30055 40064 70500 333 58016 70000==
41923,2023,05,25,00,00,AAXX 25004 41923 01440 50000 10237 20230 30063 40073 70500 82530 333 59003 70000 82615 85365==
41923,2023,05,25,03,00,AAXX 25034 41923 02456 40602 10294 20220 30075 40085 81530 333 20232 59006 70000 81615 84365==
41923,2023,05,25,06,00,AAXX 25064 41923 02450 83002 10314 20230 30065 40075 8532/ 333 59005 70000 85614 88460 81930==
41923,2023,05,25,09,00,AAXX 25094 41923 02450 61303 10334 20230 30046 40056 85330 333 58003 70000 84615 81930==
41923,2023,05,25,12,00,AAXX 25124 41923 02456 50000 10320 20240 30028 40038 83430 333 10336 59012 70000 82616 83360==
41923,2023,05,25,15,00,AAXX 25154 41923 01350 70000 10298 20270 30051 40061 71322 85330 333 59003 70000 82709 84615 81930==
41923,2023,05,25,18,00,AAXX 25184 41923 01345 61804 10262 20210 30058 40068 71322 85330 333 59006 70000 82709 83615 81930==
41923,2023,05,25,21,00,AAXX 25214 41923 02440 71803 10260 20220 30052 40061 84430 333 59003 70000 83615 85360==
41926,2023,05,19,00,00,AAXX 19004 41926 42450 70000 10228 20228 30049 40062 84510 333 59033 84616 87459==
41926,2023,05,19,03,00,AAXX 19034 41926 42450 61802 10275 20240 30064 40078 83510 333 20228 59026 83616 86459==
41926,2023,05,19,06,00,AAXX 19064 41926 42450 51802 10325 20270 30058 40071 83510 333 59027 83616 85459==
41926,2023,05,19,09,00,AAXX 19094 41926 42450 31802 10350 20270 30030 40043 83500 333 59032 83616==
41926,2023,05,19,12,00,AAXX 19124 41926 42/50 40000 10333 20270 30016 40029 82031 333 10360 59037 82362 83080==
41926,2023,05,19,15,00,AAXX 19154 41926 41450 82705 10280 20210 30038 40051 71796 8492/ 333 59008 84615 88459 82928==
41926,2023,05,19,18,00,AAXX 19184 41926 11450 82702 10255 20200 30029 40042 60006 71796 8492/ 333 59027 84615 88459 82928==
41926,2023,05,19,21,00,AAXX 19214 41926 01450 43103 10242 20210 30026 40039 70196 84500 333 59017 70010 84616==
41926,2023,05,20,00,00,AAXX 20004 41926 11450 42702 10230 20220 30030 40044 60016 70296 84500 333 59019 70010 84616==
41926,2023,05,20,03,00,AAXX 20034 41926 02956 01802 10295 20250 30051 40064 333 20230 59013 70010==
41926,2023,05,20,06,00,AAXX 20064 41926 02957 01803 10335 20260 30049 40062 333 59009 70010==
41926,2023,05,20,09,00,AAXX 20094 41926 02957 01803 10358 20270 30028 40041 333 59002 70000==
41926,2023,05,20,12,00,AAXX 20124 41926 02956 01802 10332 20290 30018 40031 333 10365 58002 70000==
41926,2023,05,20,15,00,AAXX 20154 41926 02950 00000 10300 20270 30035 40049 333 59003 70000==
41926,2023,05,20,18,00,AAXX 20184 41926 02950 00000 10280 20270 30040 40053 333 58011 70000==
41926,2023,05,20,21,00,AAXX 20214 41926 02450 30000 10278 20270 30034 40047 83500 333 58007 70000 83618==
41926,2023,05,21,00,00,AAXX 21004 41926 02440 61802 10277 20270 30030 40043 84410 333 58000 70000 82709 83616 85459==
41926,2023,05,21,03,00,AAXX 21034 41926 02450 51803 10318 20280 30055 40068 83510 333 20274 58004 70000 83618 83459==
41926,2023,05,21,06,00,AAXX 21064 41926 02456 31803 10348 20280 30051 40064 83500 333 58002 70000 83618==
41926,2023,05,21,09,00,AAXX 21094 41926 02457 51804 10358 20270 30031 40044 85400 333 58003 70000 83618==
41926,2023,05,21,12,00,AAXX 21124 41926 02956 01803 10340 20260 30013 40026 333 10366 59005 70000==
41926,2023,05,21,15,00,AAXX 21154 41926 02450 21802 10310 20270 30036 40049 82500 333 58001 70000 82618==
41926,2023,05,21,18,00,AAXX 21184 41926 01440 80000 10218 20210 30077 40091 72120 8332/ 333 58037 70020 82618 88458 81930==
41926,2023,05,21,21,00,AAXX 21214 41926 02940 00000 10222 20200 30063 40077 333 58029 70024==
41926,2023,05,22,00,00,AAXX 22004 41926 02956 01802 10228 20210 30052 40066 333 58022 70024==
41926,2023,05,22,03,00,AAXX 22034 41926 02956 01805 10276 20250 30077 40090 333 20218 58022 70024==
41926,2023,05,22,06,00,AAXX 22064 41926 02457 41804 10340 20260 30064 40077 84500 333 58012 70024 84618==
41926,2023,05,22,09,00,AAXX 22094 41926 02456 41803 10350 20285 30041 40054 84400 333 58010 70024 82618 83820==
41926,2023,05,22,12,00,AAXX 22124 41926 02950 01801 10337 20240 30032 40045 333 10362 58019 70024==
41926,2023,05,22,15,00,AAXX 22154 41926 02950 00000 10307 20260 30053 40067 333 58017 70024==
41926,2023,05,22,18,00,AAXX 22184 41926 02950 00000 10288 20260 30057 40071 333 59020 70000==
41926,2023,05,22,21,00,AAXX 22214 41926 02950 00000 10280 20260 30054 40068 333 59009 70000==
41926,2023,05,23,00,00,AAXX 23004 41926 02450 20000 10276 20260 30052 40066 82500 333 58000 70000 82618==
41926,2023,05,23,03,00,AAXX 23034 41926 02/56 21801 10310 20270 30072 40086 82030 333 20273 59005 70000 82362==
41926,2023,05,23,06,00,AAXX 23064 41926 02456 41802 10350 20260 30058 40071 85400 333 59006 70000 82618 83820==
41926,2023,05,23,09,00,AAXX 23094 41926 02456 51803 10353 20230 30018 40031 85410 333 59023 70000 82618 83825 85459==
41926,2023,05,23,12,00,AAXX 23124 41926 01450 81804 10232 20210 30057 40071 79596 8532/ 333 10366 58025 70090 84616 88458 81930==
41926,2023,05,23,15,00,AAXX 23154 41926 01450 81004 10224 20210 30057 40071 76196 8532/ 333 58004 70150 84616 88458 81930==
41926,2023,05,23,18,00,AAXX 23184 41926 21450 61802 10227 20220 30054 40068 70196 82510 333 59003 60065 70150 82618 86459==
41926,2023,05,23,21,00,AAXX 23214 41926 01450 60000 10227 20220 30056 40070 70522 82510 333 58002 70150 82618 86459==
41926,2023,05,24,00,00,AAXX 24004 41926 01450 60000 10227 20220 30059 40073 70522 82510 333 58007 70150 82618 86459==
41926,2023,05,24,03,00,AAXX 24034 41926 02450 80000 10252 20220 30074 40088 8352/ 333 20222 58002 70150 83618 88458==
41926,2023,05,24,06,00,AAXX 24064 41926 02456 81801 10300 20230 30057 40071 8452/ 333 59001 70150 84618 88458==
41926,2023,05,24,09,00,AAXX 24094 41926 02456 51801 10316 20240 30032 40045 85400 333 58014 70150 82618 83825==
41926,2023,05,24,12,00,AAXX 24124 41926 02456 41802 10300 20250 30021 40035 84400 333 10325 58036 70060 82618 83825==
41926,2023,05,24,15,00,AAXX 24154 41926 42/50 41802 10255 20240 30047 40061 84030 333 59010 84362==
41926,2023,05,24,18,00,AAXX 24184 41926 02/50 21802 10247 20230 30044 40058 82030 333 59010 70000 82362==
41926,2023,05,24,21,00,AAXX 24214 41926 01/50 20000 10245 20230 30046 40060 70500 82030 333 59010 70000 82362==
41926,2023,05,25,00,00,AAXX 25004 41926 01450 60000 10243 20230 30043 40062 70520 82510 333 59011 70000 82618 86459==
41926,2023,05,25,03,00,AAXX 25034 41926 02456 60902 10270 20240 30061 40075 83510 333 20240 59013 70000 83618 86459==
41926,2023,05,25,06,00,AAXX 25064 41926 02456 50902 10317 20260 30051 40064 83510 333 59006 70000 83618 85459==
41926,2023,05,25,09,00,AAXX 25094 41926 02456 51802 10348 20260 30026 40039 83410 333 59006 70000 82618 85459==
41926,2023,05,25,12,00,AAXX 25124 41926 02450 40000 10330 20260 30012 40025 82530 333 10350 59009 70000 82618 83362==
41926,2023,05,25,15,00,AAXX 25154 41926 01450 82702 10230 20220 30061 40075 79796 8692/ 333 58014 70130 84615 88458 82928==
41926,2023,05,25,18,00,AAXX 25184 41926 21450 82703 10230 20220 30038 40052 71796 8692/ 333 59006 60219 70210 84615 88458 82928==
41926,2023,05,25,21,00,AAXX 25214 41926 01450 80000 10228 20220 30051 40064 70292 8532/ 333 58005 70210 84615 88458 81930==
41927,2023,05,19,00,00,AAXX 19004 41927 32450 60000 10232 20230 30054 40068 83510 333 56490 59034 70000 83618 86459=
41927,2023,05,19,06,00,AAXX 19064 41927 32458 52001 10312 20240 30058 40073 84410 333 56490 59026 70000 82618 85459=
41927,2023,05,19,12,00,AAXX 19124 41927 32957 31501 10320 20260 30016 40030 83010 333 10346 56090 59041 70000 83459=
41927,2023,05,19,18,00,AAXX 19184 41927 31456 51901 10280 20250 30032 40047 70192 83510 333 56490 59029 70000 83618 85459=
41927,2023,05,20,00,00,AAXX 20004 41927 32956 31801 10235 20220 30031 40045 83010 333 56090 59023 70000 83459=
41927,2023,05,20,06,00,AAXX 20064 41927 32958 01803 10332 20230 30043 40057 333 59015 70000=
41927,2023,05,20,12,00,AAXX 20124 41927 32958 01802 10335 20240 30023 40037 333 10357 58007 70000=
41927,2023,05,20,18,00,AAXX 20184 41927 NIL=
41927,2023,05,21,00,00,AAXX 21004 41927 32450 81802 10270 20260 30033 40048 8452/ 333 56499 58002 70000 84617 88458=
41927,2023,05,21,06,00,AAXX 21064 41927 32457 51901 10335 20260 30056 40070 85400 333 56400 58013 70000 82618 83828=
41927,2023,05,21,12,00,AAXX 21124 41927 32457 51702 10335 20260 30018 40032 82510 333 10360 56490 59005 70000 82618 85459=
41927,2023,05,21,18,00,AAXX 21184 41927 11450 63605 10250 20230 30066 40080 60034 72996 84310 333 56890 58026 70026 83617 81929 86459=
41927,2023,05,22,00,00,AAXX 22004 41927 32950 30000 10220 20210 30058 40072 83010 333 56090 58025 70026 83459=
41927,2023,05,22,06,00,AAXX 22064 41927 32458 51902 10335 20260 30064 40078 85410 333 56490 58008 70026 82618 83828=
41927,2023,05,22,12,00,AAXX 22124 41927 32458 50000 10340 20270 30030 40044 85400 333 10360 56400 58012 70026 82618 83828=
41927,2023,05,22,18,00,AAXX 22184 41927 32956 00000 10280 20250 30062 40076 333 59004 70000=
41927,2023,05,23,00,00,AAXX 23004 41927 32450 81801 10270 20260 30060 40075 8452/ 333 56499 58002 70000 84617 88458=
41927,2023,05,23,06,00,AAXX 23064 41927 32457 11803 10335 20270 30058 40072 81500 333 56400 59006 70000 81618=
41927,2023,05,23,12,00,AAXX 23124 41927 11456 81304 10225 20220 30050 40065 60424 71796 8432/ 333 10353 56399 58020 70420 83617 81930 88458=
41927,2023,05,23,18,00,AAXX 23184 41927 11450 81402 10215 20210 30062 40076 60098 70296 8352/ 333 56399 58000 70510 83617 88459=
41927,2023,05,24,00,00,AAXX 24004 41927 32456 60000 10220 20210 30061 40075 83570 333 56490 58001 70510 83617 84459=
41927,2023,05,24,06,00,AAXX 24064 41927 32958 00000 10300 20220 30063 40078 333 59001 70510=
41927,2023,05,24,12,00,AAXX 24124 41927 32457 41602 10290 20230 30022 40036 82510 333 10330 56490 59028 70000 82618 84459=
41927,2023,05,24,18,00,AAXX 24184 41927 32956 01801 10248 20230 30052 40067 333 59016 70000=
41927,2023,05,25,00,00,AAXX 25004 41927 32956 00000 10232 20220 30052 40066 333 59009 70000=
41927,2023,05,25,06,00,AAXX 25064 41927 32457 61802 10306 20250 30053 40068 83510 333 56490 59010 70000 83617 85459=
41927,2023,05,25,12,00,AAXX 25124 41927 32457 31602 10310 20260 30012 40026 83500 333 10330 56400 59010 70000 83618=
41927,2023,05,25,18,00,AAXX 25184 41927 11430 81805 10220 20220 30063 40078 60437 79596 8432/ 333 56499 58021 70430 83616 81929 88458=
41929,2023,05,19,00,00,AAXX 19004 41929 02/56 30000 10234 20220 30055 40064 83030 333 59051 70053 83365==
41929,2023,05,19,03,00,AAXX 19034 41929 02/56 51402 10295 20250 30074 40083 85040 333 20215 59017 70000 85365==
41929,2023,05,19,06,00,AAXX 19064 41929 02456 81402 10316 20260 30071 40080 8352/ 333 59024 70000 83618 88462==
41929,2023,05,19,09,00,AAXX 19094 41929 02456 61802 10335 20260 30045 40054 84440 333 59028 70000 82618 83365==
41929,2023,05,19,12,00,AAXX 19124 41929 02/57 30000 10334 20260 30024 40033 83030 333 10338 59036 70000 83365==
41929,2023,05,19,15,00,AAXX 19154 41929 02/56 50000 10300 20280 30037 40046 85030 333 59016 70000 85365==
41929,2023,05,19,18,00,AAXX 19184 41929 01/56 43104 10283 20200 30032 40041 70196 84030 333 59036 70005 84365==
41929,2023,05,19,21,00,AAXX 19214 41929 02/56 40000 10258 20210 30033 40042 84030 333 59029 70005 84365==
41929,2023,05,20,00,00,AAXX 20004 41929 02456 70000 10232 20210 30034 40043 83570 333 59021 70005 83618 85462==
41929,2023,05,20,03,00,AAXX 20034 41929 02956 00903 10304 20230 30061 40070 333 20225 59013 70005==
41929,2023,05,20,06,00,AAXX 20064 41929 02457 21802 10335 20260 30061 40070 82500 333 59010 70005 82618==
41929,2023,05,20,09,00,AAXX 20094 41929 02457 22305 10352 20230 30042 40051 82500 333 59003 70005 82618==
41929,2023,05,20,12,00,AAXX 20124 41929 02957 02303 10330 20230 30031 40040 333 10354 58007 70005==
41929,2023,05,20,15,00,AAXX 20154 41929 02957 01302 10284 20230 30052 40061 333 58015 70005==
41929,2023,05,20,18,00,AAXX 20184 41929 02957 00000 10270 20250 30061 40070 333 58029 70000==
41929,2023,05,20,21,00,AAXX 20214 41929 02957 01702 10268 20260 30050 40059 333 58017 70000==
41929,2023,05,21,00,00,AAXX 21004 41929 42456 81802 10260 20250 30043 40053 58010 88462==
41929,2023,05,21,03,00,AAXX 21034 41929 02456 61802 10308 20280 30069 40078 83530 333 20255 58008 70000 83618 85365==
41929,2023,05,21,06,00,AAXX 21064 41929 02457 61805 10336 20270 30068 40077 83540 333 58007 70000 83618 85365==
41929,2023,05,21,09,00,AAXX 21094 41929 02456 21804 10350 20270 30049 40058 82500 333 58007 70000 82618==
41929,2023,05,21,12,00,AAXX 21124 41929 02957 02305 10335 20260 30031 40040 333 10352 58000 70000==
41929,2023,05,21,15,00,AAXX 21154 41929 02456 50903 10303 20270 30053 40062 83530 333 58001 70000 83618 83365==
41929,2023,05,21,18,00,AAXX 21184 41929 01456 70906 10243 20200 30101 40110 71322 84370 333 58040 70000 83618 85462 81930==
41929,2023,05,21,21,00,AAXX 21214 41929 01/56 30000 10235 20220 30082 40091 70162 83030 333 58032 70030 83365==
41929,2023,05,22,00,00,AAXX 22004 41929 11/56 30000 10227 20220 30063 40072 60036 70262 83030 333 58020 70030 83365==
41929,2023,05,22,03,00,AAXX 22034 41929 02956 02305 10310 20260 30086 40095 333 20222 58017 70030==
41929,2023,05,22,06,00,AAXX 22064 41929 02457 31804 10334 20260 30078 40087 83500 333 58010 70030 83618==
41929,2023,05,22,09,00,AAXX 22094 41929 02457 31803 10353 20260 30054 40063 83500 333 58015 70030 83618==
41929,2023,05,22,12,00,AAXX 22124 41929 02457 70000 10337 20270 30041 40050 83570 333 10356 58010 70030 83618 85462==
41929,2023,05,22,15,00,AAXX 22154 41929 01456 61302 10307 20270 30061 40070 71322 83330 333 58008 70030 82618 83365 81930==
41929,2023,05,22,18,00,AAXX 22184 41929 02/56 31302 10290 20270 30070 40079 83030 333 59031 70030 83365==
41929,2023,05,22,21,00,AAXX 22214 41929 02/56 40000 10285 20280 30066 40075 84030 333 59016 70000 84365==
41929,2023,05,23,00,00,AAXX 23004 41929 02456 80000 10280 20270 30061 40070 8451/ 333 59002 70000 84618 88462==
41929,2023,05,23,03,00,AAXX 23034 41929 02456 71802 10312 20270 30081 40090 83510 333 20271 59005 70000 83618 87462==
41929,2023,05,23,06,00,AAXX 23064 41929 02457 51802 10336 20270 30075 40084 85500 333 59003 70000 85618==
41929,2023,05,23,09,00,AAXX 23094 41929 02458 71804 10345 20270 30039 40048 83570 333 59015 70000 83618 85462==
41929,2023,05,23,12,00,AAXX 23124 41929 11450 83105 10227 20220 30070 40079 60202 79596 8592/ 333 10352 58029 70200 84616 88460 81930==
41929,2023,05,23,15,00,AAXX 23154 41929 01450 81305 10222 20210 30093 40102 79596 8592/ 333 58032 70340 84616 88460 81930==
41929,2023,05,23,18,00,AAXX 23184 41929 21456 81304 10225 20220 30040 40049 70296 8451/ 333 59030 60168 70358 84618 88462==
41929,2023,05,23,21,00,AAXX 23214 41929 02456 83102 10226 20220 30048 40057 8451/ 333 59018 70358 84618 88462==
41929,2023,05,24,00,00,AAXX 24004 41929 02456 83101 10227 20220 30056 40065 8451/ 333 59005 70358 84618 88462==
41929,2023,05,24,03,00,AAXX 24034 41929 02/56 40000 10263 20220 30077 40086 84030 333 20217 59004 70358 84365==
41929,2023,05,24,06,00,AAXX 24064 41929 02457 60000 10295 20240 30066 40075 83530 333 59009 70358 83618 83365==
41929,2023,05,24,09,00,AAXX 24094 41929 02/58 31304 10292 20240 30043 40052 83030 333 58004 70358 83365==
41929,2023,05,24,12,00,AAXX 24124 41929 02/56 31804 10277 20240 30031 40040 83030 333 10307 59039 70158 83365==
41929,2023,05,24,15,00,AAXX 24154 41929 02/57 31602 10250 20230 30049 40058 83030 333 59044 70018 83365==
41929,2023,05,24,18,00,AAXX 24184 41929 02957 01702 10240 20230 30056 40066 333 58016 70000==
41929,2023,05,24,21,00,AAXX 24214 41929 02957 01002 10240 20230 30052 40062 333 58004 70000==
41929,2023,05,25,00,00,AAXX 25004 41929 02/57 41002 10240 20230 30047 40056 83030 333 59009 70000 84365==
41929,2023,05,25,03,00,AAXX 25034 41929 02457 21402 10290 20240 30070 40079 82500 333 20233 58007 70000 82618==
41929,2023,05,25,06,00,AAXX 25064 41929 02457 51404 10315 20250 30059 40068 85500 333 59007 70000 85618==
41929,2023,05,25,09,00,AAXX 25094 41929 02457 61303 10328 20260 30039 40049 83530 333 59004 70000 83618 83365==
41929,2023,05,25,12,00,AAXX 25124 41929 42457 60903 10320 20270 30018 40028 83530 333 10330 59013 83618 83365==
41929,2023,05,25,15,00,AAXX 25154 41929 02456 71002 10280 20220 30044 40054 84510 333 59005 70000 84618 87462==
41929,2023,05,25,18,00,AAXX 25184 41929 02456 60000 10250 20220 30050 40059 84510 333 59006 70000 84618 86462==
41929,2023,05,25,21,00,AAXX 25214 41929 02456 61102 10250 20240 30051 40060 83510 333 59001 70000 83518 83462==
41933,2023,05,19,00,00,AAXX 19004 41933 02450 81801 10223 20200 30070 40079 8451/ 333 59026 70266 84616 88458==
41933,2023,05,19,03,00,AAXX 19034 41933 02456 21802 10283 20240 30086 40095 82500 333 20215 59055 70024 82618==
41933,2023,05,19,06,00,AAXX 19064 41933 02456 81803 10320 20240 30074 40082 8452/ 333 59019 70000 84616 88458==
41933,2023,05,19,09,00,AAXX 19094 41933 02456 72005 10320 20250 30048 40057 83520 333 59040 70000 83616 87458==
41933,2023,05,19,12,00,AAXX 19124 41933 02456 31902 10305 20260 30038 40047 83500 333 10328 59032 70000 83618==
41933,2023,05,19,15,00,AAXX 19154 41933 02456 31802 10280 20260 30053 40062 83500 333 59029 70000 83618==
41933,2023,05,19,18,00,AAXX 19184 41933 02456 61902 10280 20260 30061 40070 83520 333 59007 70000 83616 86458==
41933,2023,05,19,21,00,AAXX 19214 41933 02456 60000 10275 20270 30058 40067 82520 333 58001 70000 83616 86458==
41933,2023,05,20,00,00,AAXX 20004 41933 02450 60000 10275 20270 30053 40062 83520 333 59017 70000 83616 86458==
41933,2023,05,20,03,00,AAXX 20034 41933 02456 41802 10300 20250 30070 40079 82520 333 20270 59016 70000 82618 84458==
41933,2023,05,20,06,00,AAXX 20064 41933 02456 21904 10335 20220 30064 40073 82500 333 59010 70000 82618==
41933,2023,05,20,09,00,AAXX 20094 41933 02957 42103 10330 20240 30049 40057 82400 333 58001 70000 82618 83828==
41933,2023,05,20,12,00,AAXX 20124 41933 02956 02202 10314 20240 30046 40054 333 10345 58008 70000==
41933,2023,05,20,15,00,AAXX 20154 41933 02956 00000 10274 20240 30060 40068 333 58007 70000==
41933,2023,05,20,18,00,AAXX 20184 41933 02956 00000 10259 20250 30067 40075 333 58006 70000==
41933,2023,05,20,21,00,AAXX 20214 41933 02450 51502 10259 20250 30056 40064 82530 333 59002 70000 82618 85362==
41933,2023,05,21,00,00,AAXX 21004 41933 02450 61502 10258 20250 30066 40075 83530 333 58013 70000 83618 85362==
41933,2023,05,21,03,00,AAXX 21034 41933 02456 31804 10305 20250 30085 40093 83500 333 20255 58015 70000 83618==
41933,2023,05,21,06,00,AAXX 21064 41933 02456 41803 10329 20250 30083 40091 84400 333 58019 70000 82618 83826==
41933,2023,05,21,09,00,AAXX 21094 41933 02456 41804 10340 20250 30063 40071 84400 333 58014 70000 82618 83826==
41933,2023,05,21,12,00,AAXX 21124 41933 02456 41804 10315 20260 30046 40054 83530 333 10344 58000 70000 83618 84362==
41933,2023,05,21,15,00,AAXX 21154 41933 02450 50000 10296 20260 30075 40084 83530 333 58015 70000 83618 85362==
41933,2023,05,21,18,00,AAXX 21184 41933 21340 83602 10225 20220 30093 40102 79596 8592/ 333 58026 60267 70256 82709 84615 88457 81925==
41933,2023,05,21,21,00,AAXX 21214 41933 01440 61802 10225 20220 30063 40072 76196 83530 333 58007 70310 84618 85362==
41933,2023,05,22,00,00,AAXX 22004 41933 21450 61802 10225 20220 30076 40085 70296 84530 333 58010 60058 70310 84618 86362==
41933,2023,05,22,03,00,AAXX 22034 41933 02956 00000 10285 20230 30093 40102 333 20220 58008 70310==
41933,2023,05,22,06,00,AAXX 22064 41933 02456 61803 10330 20240 30093 40101 84530 333 58010 70310 84618 86362==
41933,2023,05,22,09,00,AAXX 22094 41933 02456 42003 10336 20260 30062 40070 84400 333 59001 70310 82618==
41933,2023,05,22,12,00,AAXX 22124 41933 02456 22002 10316 20270 30052 40060 82501 333 10343 58006 70310 82618==
41933,2023,05,22,15,00,AAXX 22154 41933 02950 00000 10294 20270 30071 40079 333 59004 70310==
41933,2023,05,22,18,00,AAXX 22184 41933 02450 30000 10282 20270 30076 40085 83500 333 59017 70054 83616==
41933,2023,05,22,21,00,AAXX 22214 41933 02440 41802 10277 20270 30066 40075 84500 333 58003 70000 84616==
41933,2023,05,23,00,00,AAXX 23004 41933 01440 31801 10273 20260 30067 40076 70521 83500 333 59009 70000 83616==
41933,2023,05,23,03,00,AAXX 23034 41933 02456 31802 10305 20270 30088 40096 83500 333 20271 59005 70000 83616==
41933,2023,05,23,06,00,AAXX 23064 41933 02456 31803 10320 20250 30082 40090 83500 333 59011 70000 83616==
41933,2023,05,23,09,00,AAXX 23094 41933 01350 80000 10230 20210 30076 40084 79596 8692/ 333 58014 70098 83708 84615 88456 81925==
41933,2023,05,23,12,00,AAXX 23124 41933 21450 82005 10235 20210 30039 40047 70296 8452/ 333 10340 59013 60218 70210 84616 88458==
41933,2023,05,23,15,00,AAXX 23154 41933 01350 81903 10230 20210 30105 40114 79596 8692/ 333 58034 70118 83708 84615 88458 81925==
41933,2023,05,23,18,00,AAXX 23184 41933 21450 82003 10220 20210 30045 40053 70296 8452/ 333 59031 60048 70148 84616 88458==
41933,2023,05,23,21,00,AAXX 23214 41933 01450 81802 10220 20210 30057 40065 70262 8452/ 333 59009 70158 84616 88458==
41933,2023,05,24,00,00,AAXX 24004 41933 11450 80000 10225 20220 30067 40075 60016 70262 8452/ 333 58000 70158 84616 88458==
41933,2023,05,24,03,00,AAXX 24034 41933 02450 60000 10240 20220 30085 40097 83520 333 20215 59003 70158 83618 86458==
41933,2023,05,24,06,00,AAXX 24064 41933 02450 61602 10265 20240 30071 40080 83520 333 59011 70158 83618 86458==
41933,2023,05,24,09,00,AAXX 24094 41933 02450 71502 10270 20230 30048 40056 84510 333 59028 70060 84618 87458==
41933,2023,05,24,12,00,AAXX 24124 41933 02450 51202 10249 20220 30044 40053 82510 333 20279 58005 70048 82618 85459==
41933,2023,05,24,15,00,AAXX 24154 41933 02450 60000 10231 20220 30052 40061 83510 333 59053 70040 83616 86458==
41933,2023,05,24,18,00,AAXX 24184 41933 02/50 40000 10220 20210 30060 40069 84030 333 58015 70010 84362==
41933,2023,05,24,21,00,AAXX 24214 41933 02450 50000 10219 20210 30054 40063 82530 333 59003 70000 82616 85362==
41933,2023,05,25,00,00,AAXX 25004 41933 02450 50000 10220 20210 30058 40067 82530 333 59009 70000 82616 85362==
41933,2023,05,25,03,00,AAXX 25034 41933 02956 01502 10290 20220 30067 40076 333 20215 59018 70000==
41933,2023,05,25,06,00,AAXX 25064 41933 02456 61702 10310 20240 30064 40072 83510 333 59007 70000 83618 86459==
41933,2023,05,25,09,00,AAXX 25094 41933 02456 61804 10326 20250 30049 40058 83510 333 58001 70000 83618 86458==
41933,2023,05,25,12,00,AAXX 25124 41933 02456 61803 10310 20250 30040 40048 83510 333 10330 59004 70000 83618 86458==
41933,2023,05,25,15,00,AAXX 25154 41933 02450 41802 10285 20260 30056 40065 83510 333 58004 70000 83618 84458==
41933,2023,05,25,18,00,AAXX 25184 41933 01440 81802 10175 20170 30060 40069 70362 8452/ 333 58000 70010 84616 88457==
41933,2023,05,25,21,00,AAXX 25214 41933 02440 81802 10202 20160 30060 40069 8452/ 333 58006 70010 84616 88458==
41936,2023,05,19,00,00,AAXX 19004 41936 01/20 10903 20210 30056 40063 70522 81030 333 59048 70250 81262==
41936,2023,05,19,03,00,AAXX 19034 41936 01440 61308 10290 20230 30074 40082 70511 83530 333 20214 59023 70250 82615 83362==
41936,2023,05,19,06,00,AAXX 19064 41936 01440 52509 10338 20270 30067 40074 70521 83530 333 59031 70050 83615 84362==
41936,2023,05,19,09,00,AAXX 19094 41936 01440 52006 10358 20270 30036 40042 70521 83530 333 59033 70050 83615 84362==
41936,2023,05,19,12,00,AAXX 19124 41936 01/40 11803 10350 20270 30015 40022 70511 81030 333 10360 59048 70050 81362==
41936,2023,05,19,15,00,AAXX 19154 41936 01440 72022 10308 20280 30047 40054 71792 87730 333 58009 70050 84708 83615 87362 81930==
41936,2023,05,19,18,00,AAXX 19184 41936 01420 52403 10230 20210 30047 40054 70591 83530 333 59025 70170 83515 85362==
41936,2023,05,19,21,00,AAXX 19214 41936 01420 32403 10236 20210 30035 40042 70511 82530 333 59016 70170 82515 82362==
41936,2023,05,20,00,00,AAXX 20004 41936 01/20 21603 10234 20210 30035 40042 70511 82030 333 59021 70170 82362==
41936,2023,05,20,03,00,AAXX 20034 41936 01/30 31605 10292 20250 30058 40065 70511 83030 333 20218 59017 70170 83362==
41936,2023,05,20,06,00,AAXX 20064 41936 01950 02406 10340 20240 30060 40067 70511 333 59007 70170==
41936,2023,05,20,09,00,AAXX 20094 41936 01950 02301 10362 20230 30040 40046 70510 333 58003 70170==
41936,2023,05,20,12,00,AAXX 20121 41936 01950 01901 10340 20250 30030 40037 70500 333 10364 58015 70170==
41936,2023,05,20,15,00,AAXX 20154 41936 01950 02003 10300 20250 30050 40057 70500 333 58003 70170==
41936,2023,05,20,18,00,AAXX 20184 41936 01950 02003 10280 20260 30053 40060 70500 333 58013 70170==
41936,2023,05,20,21,00,AAXX 20214 41936 01950 02203 10274 20260 30042 40049 70500 333 58007 70000==
41936,2023,05,21,00,00,AAXX 21004 41936 01410 41803 10278 20270 30044 40051 70510 82530 333 58009 70000 82615 82362==
41936,2023,05,21,03,00,AAXX 21034 41936 01420 52207 10320 20270 30071 40078 70510 82530 333 20270 58013 70000 82615 84362==
41936,2023,05,21,06,00,AAXX 21064 41936 01440 62312 10350 20270 30066 40072 70521 83530 333 58005 70000 83615 85362==
41936,2023,05,21,09,00,AAXX 21094 41936 01435 42202 10362 20270 30044 40050 70522 83530 333 58004 70000 83615==
41936,2023,05,21,12,00,AAXX 21124 41936 01950 02108 10340 20250 30029 40036 70522 333 10364 58005 70000==
41936,2023,05,21,15,00,AAXX 21154 41936 01340 42211 10306 20270 30047 40053 70510 83630 333 59004 70000 82710==
41936,2023,05,21,18,00,AAXX 21184 41936 01320 80817 10254 20210 30102 40109 70521 85730 333 58049 70005 85706 83615 87360==
41936,2023,05,21,21,00,AAXX 21214 41936 01/20 31303 10240 20210 30063 40071 70522 83030 333 58022 70000 83362==
41936,2023,05,22,00,00,AAXX 22004 41936 41/30 21605 10246 20210 30069 40076 70511 82030 333 58025 82362==
41936,2023,05,22,03,00,AAXX 22034 41936 01/40 21809 10304 20250 30082 40089 70511 82030 333 20226 58016 70000 82362==
41936,2023,05,22,06,00,AAXX 22064 41936 01/20 22412 10350 20260 30074 40081 70511 82030 333 58009 70000 82362==
41936,2023,05,22,09,00,AAXX 22094 41936 01/50 22008 10368 20260 30045 40052 70511 82030 333 58002 70000 82362==
41936,2023,05,22,12,00,AAXX 22124 41936 01450 42208 10348 20260 30041 40047 70511 82530 333 10368 58011 70000 82615 82362==
41936,2023,05,22,15,00,AAXX 22154 41936 01/40 21803 10310 20260 30051 40058 70511 82030 333 58005 70000 82362==
41936,2023,05,22,18,00,AAXX 22184 41936 01/40 12208 10290 20280 30057 40064 70511 81030 333 59039 70000 81362==
41936,2023,05,22,21,00,AAXX 22214 41936 01/30 21606 10282 20260 30054 40061 70511 82030 333 59010 70000 82362==
41936,2023,05,23,00,00,AAXX 23004 41936 01920 11803 10280 20270 30015 40058 70511 333 59018 70000 81362==
41936,2023,05,23,03,00,AAXX 23034 41936 01420 61803 10310 20280 30076 40083 70521 83830 333 20274 59008 70000 83615 84362==
41936,2023,05,23,06,00,AAXX 23064 41936 01435 52207 10352 20260 30067 40074 70522 83830 333 59008 70000 83615 83362==
41936,2023,05,23,09,00,AAXX 23094 41936 01440 61805 10364 20250 30039 40036 70522 83530 333 59006 70000 83615 84362==
41936,2023,05,23,12,00,AAXX 23124 41936 21203 80720 10210 30056 40063 79596 86930 333 10366 59001 60205 70200 86704 84612 82612 88359==
41936,2023,05,23,15,00,AAXX 23154 41936 01012 81012 10230 20210 30065 40072 79596 83930 333 59012 70240 86704 83708 87360 81930==
41936,2023,05,23,18,00,AAXX 23184 41936 01425 71305 10230 20210 30062 40069 71792 87730 333 58012 70240 84708 83615 87362 81930==
41936,2023,05,23,21,00,AAXX 23214 41936 01425 62103 10230 20210 30058 40065 70596 86630 333 58004 70240 82610 83415 84362==
41936,2023,05,24,00,00,AAXX 24004 41936 01420 50403 10234 20210 30064 40071 70596 84630 333 58003 70440 86315 83262==
41936,2023,05,24,03,00,AAXX 24034 41936 01325 50704 10248 20230 30077 40084 70596 83630 333 20228 58001 70240 83708 82362==
41936,2023,05,24,06,00,AAXX 24064 41936 01340 51405 10306 20240 30062 40069 70522 81730 333 59004 70522 83615 84362==
41936,2023,05,24,09,00,AAXX 24094 41936 01330 61103 10310 20250 30038 40045 70522 83630 333 59001 70220 81710 83615 84362==
41936,2023,05,24,12,00,AAXX 24124 41936 41340 61409 10280 20260 30020 40027 70522 333 10324 59036 82710 83615 84362==
41936,2023,05,24,15,00,AAXX 24154 41936 01/40 21507 10244 20230 30037 40044 70522 82030 333 59028 70020 82362==
41936,2023,05,24,18,00,AAXX 24184 41936 01/30 30000 10256 20240 30056 40063 70511 83030 333 59003 70020 83362==
41936,2023,05,24,21,00,AAXX 24214 41936 01/30 30000 10248 20230 30041 40048 70511 83030 333 59017 70020 83362==
41936,2023,05,25,00,00,AAXX 25004 41936 01316 71405 10246 20230 30038 40045 70511 85630 333 59026 70000 83710 83615==
41936,2023,05,25,03,00,AAXX 25034 41936 01425 41405 10278 20230 30064 40071 70522 82530 333 20246 59016 70000 82615 83362==
41936,2023,05,25,06,00,AAXX 25064 41936 01440 21405 10338 20270 30055 40062 70522 82530 333 59007 70000 82615==
41936,2023,05,25,09,00,AAXX 25094 41936 01440 31606 10354 20250 30036 40042 70522 82530 333 59003 70000 82615 82362==
41936,2023,05,25,12,00,AAXX 25124 41936 01440 31203 10344 20260 30013 40020 70522 82830 333 10354 59007 70000 82615 83362==
41936,2023,05,25,15,00,AAXX 25154 41936 01320 82410 10270 20230 30074 40080 79596 85720 333 58037 70110 85706 83615 82760==
41936,2023,05,25,18,00,AAXX 25184 41936 21320 83208 10242 20220 30065 40073 79596 85720 333 58010 60135 70130 85706 83615 83760==
41936,2023,05,25,21,00,AAXX 25214 41936 01320 72305 10240 20210 30032 40039 70596 82630 333 59009 70150 82708 83615==
41938,2023,05,19,00,00,AAXX 19004 41938 31415 11302 10232 20220 30065 40069 71000 81500 333 56900 59040 70398 81618=
41938,2023,05,19,06,00,AAXX 19064 41938 32457 52105 10328 20250 30070 40074 85500 333 56500 59031 70002 84617=
41938,2023,05,19,12,00,AAXX 19124 41938 32456 11803 10320 20270 30036 40040 81500 333 10346 56400 59040 70002 81617=
41938,2023,05,19,18,00,AAXX 19184 41938 11456 21804 10255 20190 30049 40053 69904 70162 81510 333 56490 59022 79999 81617=
41938,2023,05,20,00,00,AAXX 20004 41938 31430 80000 10242 20220 30049 40053 70521 8152/ 333 56999 59016 79999 81618 88460=
41938,2023,05,20,06,00,AAXX 20064 41938 32457 12503 10330 20230 30067 40071 81500 333 56500 59003 79999 81618=
41938,2023,05,20,12,00,AAXX 20124 41938 32956 21802 10316 20240 30046 40050 80001 333 10346 56009 58010 79999 82080=
41938,2023,05,20,18,00,AAXX 20184 41938 32450 52201 10275 20260 30059 40063 83511 333 56599 58010 70000 83618=
41938,2023,05,21,00,00,AAXX 21004 41938 31312 71801 10275 20270 30061 40065 71021 84670 333 56490 58012 70000 81709 84617 85460=
41938,2023,05,21,06,00,AAXX 21064 41938 32456 72204 10338 20260 30072 40076 82470 333 56590 58005 70000 82618 86460=
41938,2023,05,21,12,00,AAXX 21124 41938 32956 00000 10327 20250 30042 40046 333 10350 59004 70000=
41938,2023,05,21,18,00,AAXX 21184 41938 32450 31802 10255 20220 30093 40097 83500 333 56900 58034 70000 83618=
41938,2023,05,22,00,00,AAXX 22004 41938 31420 30000 10242 20220 30078 40082 83500 333 56900 58017 70000 83618=
41938,2023,05,22,06,00,AAXX 22064 41938 32456 41802 10345 20250 30076 40080 84400 333 56400 58004 70000 83618=
41938,2023,05,22,12,00,AAXX 22124 41938 32456 30000 10325 20250 30056 40060 83400 333 10355 56400 58014 70000 82618=
41938,2023,05,22,18,00,AAXX 22184 41938 32450 30000 10288 20270 30077 40081 83500 333 56900 59016 70000 83618=
41938,2023,05,23,00,00,AAXX 23004 41938 31420 30000 10275 20270 30061 40065 70511 83500 333 56900 58006 70000 83618=
41938,2023,05,23,06,00,AAXX 23064 41938 32456 41802 10343 20270 30075 40079 84400 333 56400 59001 70000 83618=
41938,2023,05,23,12,00,AAXX 23124 41938 11330 83608 10222 20220 30052 40056 60224 79522 8692/ 333 10355 56899 59004 70220 82707 85615 81930 88459=
41938,2023,05,23,18,00,AAXX 23184 41938 11450 12003 10224 20210 30058 40062 60468 70196 81500 333 56400 59019 70464 81617=
41938,2023,05,24,00,00,AAXX 24004 41938 31335 70501 10227 20220 30066 40070 70521 84372 333 56199 59003 70464 81709 83617 81930 85078=
41938,2023,05,24,06,00,AAXX 24064 41938 32456 80901 10286 20240 30068 40072 8441/ 333 56299 59007 70464 83617 88460=
41938,2023,05,24,12,00,AAXX 24124 41938 32456 81205 10255 20230 30048 40052 8452/ 333 10285 56399 59004 70244 84616 88460=
41938,2023,05,24,18,00,AAXX 24184 41938 32456 42301 10240 20230 30055 40059 84500 333 56500 59003 70000 84616=
41938,2023,05,25,00,00,AAXX 25004 41938 31415 61202 10244 20230 30052 40056 71021 84510 333 56390 59014 70000 85616 85460=
41938,2023,05,25,06,00,AAXX 25064 41938 32456 31503 10325 20270 30062 40066 83400 333 56300 59006 70000 83617=
41938,2023,05,25,12,00,AAXX 25124 41938 32450 71805 10320 20260 30029 40033 86310 333 10350 56490 59019 70000 84616 83825 81928 86460=
41938,2023,05,25,18,00,AAXX 25184 41938 11456 83305 10255 20220 30063 40067 69906 71396 8532/ 333 56799 58008 79999 85616 81928 88460=
41939,2023,05,19,00,00,AAXX 19004 41939 02956 00000 10245 20240 30079 40087 333 59032 70184==
41939,2023,05,19,03,00,AAXX 19034 41939 02457 30000 10300 20260 30088 40096 82530 333 20208 59040 70014 82618==
41939,2023,05,19,06,00,AAXX 19064 41939 02458 60000 10325 20260 30095 40103 83510 333 59030 70014 83618 85459==
41939,2023,05,19,09,00,AAXX 19094 41939 02458 60000 10344 20260 30043 40051 83510 333 59033 70000 83618 85459==
41939,2023,05,19,12,00,AAXX 19124 41939 02457 40000 10317 20280 30040 40048 82530 333 10346 59030 70000 82617 83364==
41939,2023,05,19,15,00,AAXX 19154 41939 02456 40000 10285 20270 30052 40060 82530 333 59033 70000 82618 83364==
41939,2023,05,19,18,00,AAXX 19184 41939 02456 50000 10275 20260 30065 40073 83530 333 59031 70000 83617 83364==
41939,2023,05,19,21,00,AAXX 19214 41939 02450 50000 10260 20240 30054 40062 82510 333 59031 70000 82618 85459==
41939,2023,05,20,00,00,AAXX 20004 41939 02457 60000 10245 20230 30048 40056 83510 333 59025 70000 83618 85459==
41939,2023,05,20,03,00,AAXX 20034 41939 02458 60000 10292 20260 30057 40065 83510 333 20233 59031 70000 83618 85459==
41939,2023,05,20,06,00,AAXX 20064 41939 02960 00000 10338 20240 30074 40082 333 58012 70000==
41939,2023,05,20,12,00,AAXX 20124 41939 02957 00000 10325 20230 30040 40048 333 10350 58000 70000==
41939,2023,05,20,15,00,AAXX 20154 41939 02956 00000 10280 20240 30080 40088 333 59004 70000==
41939,2023,05,20,18,00,AAXX 20184 41939 02456 40000 10276 20260 30090 40098 82530 333 58006 70000 82618 83364==
41939,2023,05,20,21,00,AAXX 20214 41939 02956 00000 10274 20260 30072 40080 333 58018 70000==
41939,2023,05,21,00,00,AAXX 21004 41939 02956 00000 10270 20260 30066 40074 333 58018 70000==
41939,2023,05,21,03,00,AAXX 21034 41939 02458 50000 10310 20250 30093 40101 83530 333 20235 58036 70000 83617 83364==
41939,2023,05,21,06,00,AAXX 21064 41939 02458 40502 10344 20260 30083 40091 83430 333 58009 70000 82617 83360==
41939,2023,05,21,09,00,AAXX 21093 41939 02457 30000 10350 20250 30056 40064 82430 333 59001 70000 81618==
41939,2023,05,21,12,00,AAXX 21124 41939 02957 00000 10333 20260 30036 40044 333 10360 59004 70000==
41939,2023,05,21,15,00,AAXX 21154 41939 02950 00000 10298 20250 30050 40058 333 59012 70000==
41939,2023,05,21,18,00,AAXX 21184 41939 01440 80000 10252 20240 30075 40083 79592 8532/ 333 59025 70230 84616 88458 81928==
41939,2023,05,21,21,00,AAXX 21214 41939 01450 60000 10246 20240 30066 40074 70162 83510 333 59006 70313 83618 85459==
41939,2023,05,22,00,00,AAXX 22004 41939 11957 00000 10243 20220 30069 40077 60096 70161 333 58003 70313==
41939,2023,05,22,03,00,AAXX 22034 41939 02958 00000 10283 20250 30085 40093 333 20221 59008 70313==
41939,2023,05,22,06,00,AAXX 22064 41939 02458 40000 10347 20270 30083 40091 83430 333 59006 70313 82618==
41939,2023,05,22,09,00,AAXX 22094 41939 02459 20000 10352 20260 30058 40066 82430 333 58002 70313 81618==
41939,2023,05,22,12,00,AAXX 22124 41939 02957 00000 10340 20260 30045 40053 333 10360 58009 70313==
41939,2023,05,22,15,00,AAXX 22154 41939 02950 00000 10300 20250 30058 40066 333 58008 70313==
41939,2023,05,22,18,00,AAXX 22184 41939 02450 30000 10280 20250 30068 40076 83500 333 58008 70086 83618==
41939,2023,05,22,21,00,AAXX 22214 41939 02956 00000 10283 20270 30088 40096 333 58022 70000==
41939,2023,05,23,00,00,AAXX 23004 41939 02956 00000 10280 20270 30078 40086 333 58009 70000==
41939,2023,05,23,03,00,AAXX 23034 41939 02458 50000 10322 20270 30093 40101 83530 333 20265 58008 70000 83617 83364==
41939,2023,05,23,06,00,AAXX 23064 41939 02458 30000 10347 20270 30074 40082 83430 333 59009 70000 82618==
41939,2023,05,23,09,00,AAXX 23094 41939 02456 60000 10305 20240 30048 40056 83510 333 59010 70000 83616 86459==
41939,2023,05,23,12,00,AAXX 23124 41939 21440 80000 10250 20220 30066 40074 70262 8352/ 333 10360 58021 69965 79996 83616 88458==
41939,2023,05,23,15,00,AAXX 23154 41939 01440 80000 10227 20220 30102 40110 76196 8352/ 333 58044 70412 83616 88458==
41939,2023,05,23,18,00,AAXX 23184 41939 21440 80000 10250 20210 30102 40110 70296 8352/ 333 58042 60439 70426 83616 88459==
41939,2023,05,23,21,00,AAXX 23214 41939 02450 80000 10227 20220 30085 40093 8352/ 333 59003 70426 83617 88459==
41939,2023,05,24,00,00,AAXX 24004 41939 21456 70000 10230 20220 30075 40083 70162 83510 333 59003 60025 70450 83617 85459==
41939,2023,05,24,03,00,AAXX 24034 41939 02457 80000 10253 20230 30092 40100 8352/ 333 20220 59001 70450 83617 88459==
41939,2023,05,24,06,00,AAXX 24064 41939 02456 80000 10265 20230 30072 40080 8352/ 333 59002 70450 83616 88459==
41939,2023,05,24,09,00,AAXX 24094 41939 02450 80000 10280 20240 30055 40063 8352/ 333 58007 70450 83616 88459==
41939,2023,05,24,12,00,AAXX 24124 41939 02456 80000 10260 20230 30038 40046 8352/ 333 10285 59028 70444 83617 88459==
41939,2023,05,24,15,00,AAXX 24154 41939 02450 60000 10250 20230 30050 40058 83510 333 59052 70038 83618 85459==
41939,2023,05,24,18,00,AAXX 24184 41939 02450 60000 10240 20230 30068 40076 83510 333 59042 70024 83618 85459==
41939,2023,05,24,21,00,AAXX 24214 41939 02450 60000 10240 20230 30076 40084 83510 333 59009 70024 83618 85459==
41939,2023,05,25,00,00,AAXX 25004 41939 02456 20000 10238 20230 30063 40071 81530 333 59012 70000 81618==
41939,2023,05,25,03,00,AAXX 25034 41939 02457 80000 10280 20240 30077 40085 8352/ 333 20232 59015 70000 83617 88459==
41939,2023,05,25,06,00,AAXX 25064 41939 02457 50000 10327 20260 30062 40070 82510 333 59010 70000 82617 85459==
41939,2023,05,25,09,00,AAXX 25094 41939 02458 10000 10338 20260 30041 40049 81530 333 59014 70000 81618==
41939,2023,05,25,12,00,AAXX 25124 41939 02957 00000 10315 20270 30025 40033 333 10340 59013 70000==
41939,2023,05,25,15,00,AAXX 25154 41939 02450 80000 10298 20270 30039 40047 8352/ 333 59011 70000 83618 88459==
41939,2023,05,25,18,00,AAXX 25184 41939 NIL=
41939,2023,05,25,21,00,AAXX 25214 41939 02450 50000 10260 20230 30053 40061 83530 333 59023 70000 83618 83365==
41941,2023,05,19,00,00,AAXX 19004 41941 01440 60903 10240 20240 30065 40071 70522 85420 333 59033 70220 84616 86458==
41941,2023,05,19,03,00,AAXX 19034 41941 02456 70904 10300 20250 30092 40098 85420 333 20216 59043 70020 84616 87458==
41941,2023,05,19,06,00,AAXX 19064 41941 02450 80903 10325 20260 30085 40091 8632/ 333 59014 70000 85616 88458 81930==
41941,2023,05,19,09,00,AAXX 19094 41941 02456 60903 10343 20260 30060 40065 85420 333 59027 70000 84616 86458==
41941,2023,05,19,12,00,AAXX 19124 41941 02450 60803 10307 20270 30042 40048 85420 333 10348 59034 70000 84616 86458==
41941,2023,05,19,15,00,AAXX 19154 41941 02440 60802 10289 20280 30061 40067 85420 333 59022 70000 84616 86458==
41941,2023,05,19,18,00,AAXX 19184 41941 NIL=
41941,2023,05,19,21,00,AAXX 19214 41941 02440 60000 10280 20270 30058 40064 85420 333 59012 70000 84616 86458==
41941,2023,05,20,00,00,AAXX 20004 41941 02450 60000 10274 20250 30053 40059 85420 333 59012 70000 84616 86458==
41941,2023,05,20,03,00,AAXX 20034 41941 02456 60803 10315 20260 30070 40076 85420 333 20241 59022 70000 84616 86458==
41941,2023,05,20,06,00,AAXX 20064 41941 02958 01405 10342 20240 30077 40082 333 59008 70000==
41941,2023,05,20,09,00,AAXX 20094 41941 02958 01803 10345 20250 30055 40060 333 59005 70000==
41941,2023,05,20,12,00,AAXX 20124 41941 02958 00000 10320 20240 30050 40055 333 10347 59008 70000==
41941,2023,05,20,15,00,AAXX 20154 41941 02950 01804 10290 20250 30056 40061 333 59005 70000==
41941,2023,05,20,18,00,AAXX 20184 41941 NIL=
41941,2023,05,20,21,00,AAXX 20214 41941 02440 60000 10274 20260 30052 40057 85420 333 59006 70000 84616 86458==
41941,2023,05,21,00,00,AAXX 21004 41941 02450 71403 10270 20270 30070 40076 85420 333 58017 70000 84616 87458==
41941,2023,05,21,03,00,AAXX 21034 41941 02456 61804 10325 20280 30088 40094 85420 333 20268 58018 70000 84616 86458==
41941,2023,05,21,06,00,AAXX 21064 41941 02457 61803 10340 20270 30089 40095 85420 333 58012 70000 84616 86458==
41941,2023,05,21,09,00,AAXX 21094 41941 02457 61804 10350 20270 30063 40068 85420 333 58008 70000 84616 86458==
41941,2023,05,21,12,00,AAXX 21124 41941 02456 71805 10320 20270 30050 40056 85420 333 10355 58000 70000 84616 87458==
41941,2023,05,21,15,00,AAXX 21154 41941 02450 61404 10300 20270 30075 40081 85420 333 58019 70000 84616 86458==
41941,2023,05,21,18,00,AAXX 21184 41941 21440 80000 10280 20260 30079 40085 72996 8792/ 333 58020 60087 70080 85612 88456==
41941,2023,05,21,21,00,AAXX 21214 41941 01440 81405 10235 20235 30076 40081 72996 8792/ 333 58024 70150 85612 88456 82925==
41941,2023,05,22,00,00,AAXX 22004 41941 21450 70903 10240 20240 30067 40072 70196 85420 333 59003 60079 70150 84616 87458==
41941,2023,05,22,03,00,AAXX 22034 41941 02456 60904 10315 20240 30092 40097 85420 333 20235 58004 70150 84616 86458==
41941,2023,05,22,06,00,AAXX 22064 41941 02957 61805 10342 20270 30093 40098 85420 333 58004 70150 84616 86458==
41941,2023,05,22,09,00,AAXX 22094 41941 02457 61804 10352 20250 30067 40072 85420 333 58004 70150 84616 86458==
41941,2023,05,22,12,00,AAXX 22124 41941 02450 61803 10327 20270 30055 40060 85420 333 10357 58005 70150 84616 86458==
41941,2023,05,22,15,00,AAXX 22154 41941 02440 60802 10300 20280 30078 40084 85420 333 58003 70150 84616 86458==
41941,2023,05,22,18,00,AAXX 22184 41941 02440 60000 10297 20290 30084 40089 85420 333 58005 70070 84616 86458==
41941,2023,05,22,21,00,AAXX 22214 41941 02440 60803 10290 20280 30079 40084 85420 333 58003 70000 84616 86458==
41941,2023,05,23,00,00,AAXX 23004 41941 02450 60803 10280 20270 30076 40081 85420 333 58009 70000 84616 86458==
41941,2023,05,23,03,00,AAXX 23034 41941 02456 61803 10313 20270 30090 40096 85420 333 20241 59002 70000 84616 86458==
41941,2023,05,23,06,00,AAXX 23064 41941 02456 61803 10345 20270 30088 40094 85420 333 59005 70000 84616 86458==
41941,2023,05,23,09,00,AAXX 23094 41941 02450 80803 10270 20220 30062 40067 8632/ 333 59005 70000 85616 88458 81930==
41941,2023,05,23,12,00,AAXX 23124 41941 21450 81503 10233 20230 30043 40049 70296 8692/ 333 10350 59012 60135 70130 85614 88456 81925==
41941,2023,05,23,15,00,AAXX 23154 41941 01440 83604 10230 20230 30121 40127 79596 8692/ 333 58043 70220 85614 88456 81925==
41941,2023,05,23,18,00,AAXX 23184 41941 21440 83602 10228 20228 30052 40057 79502 8632/ 333 59032 60065 70280 85616 88458 81930==
41941,2023,05,23,21,00,AAXX 23214 41941 02440 80000 10226 20226 30047 40052 8632/ 333 59032 70280 85616 88458 81930==
41941,2023,05,24,00,00,AAXX 24004 41941 01450 80000 10235 20235 30072 40077 70262 8632/ 333 59004 70020 85616 88458 81930==
41941,2023,05,24,03,00,AAXX 24034 41941 01450 80000 10250 20240 30087 40093 76162 8632/ 333 20228 59003 70310 85616 88458 81930==
41941,2023,05,24,06,00,AAXX 24064 41941 21450 80403 10240 20240 30079 40084 76566 8632/ 333 59009 60619 70910 85614 88456 81925==
41941,2023,05,24,09,00,AAXX 24094 41941 01450 80203 10246 20246 30057 40062 70266 8632/ 333 59005 71040 85614 88456 81925==
41941,2023,05,24,12,00,AAXX 24124 41941 11450 60202 10246 20240 30047 40053 60136 70166 85420 333 10260 58004 70910 84616 86458==
41941,2023,05,24,15,00,AAXX 24154 41941 02440 60000 10237 20237 30058 40063 85420 333 59063 70820 84616 86458==
41941,2023,05,24,18,00,AAXX 24184 41941 02440 80000 10235 20235 30070 40075 8632/ 333 58018 70760 85614 88458 81925==
41941,2023,05,24,21,00,AAXX 24214 41941 02440 80000 10232 20230 30066 40071 8632/ 333 58019 70760 85614 88456 81925==
41941,2023,05,25,00,00,AAXX 25004 41941 02450 80000 10230 20230 30063 40069 8632/ 333 59009 70740 85616 88458 81930==
41941,2023,05,25,03,00,AAXX 25034 41941 02456 60903 10285 20250 30079 40084 85420 333 20225 59008 70730 84616 86458==
41941,2023,05,25,06,00,AAXX 25064 41941 02456 70903 10315 20270 30073 40078 85420 333 59006 70130 84616 87458==
41941,2023,05,25,09,00,AAXX 25094 41941 02458 60904 10326 20260 30058 40064 85420 333 58001 70000 84616 86458==
41941,2023,05,25,12,00,AAXX 25124 41941 02456 70000 10315 20280 30036 40042 85420 333 10338 59011 70000 84616 87458==
41941,2023,05,25,15,00,AAXX 25154 41941 02440 70903 10290 20270 30052 40058 85420 333 59006 70000 84616 87458==
41941,2023,05,25,18,00,AAXX 25184 41941 02440 70000 10280 20260 30065 40071 85420 333 59005 70000 84616 87458==
41941,2023,05,25,21,00,AAXX 25214 41941 01440 80903 10265 20260 30058 40064 76166 8632/ 333 59008 70010 85612 88458 81925==
41943,2023,05,19,00,00,AAXX 19004 41943 02930 00000 10215 20210 30070 40078 333 59027 70120==
41943,2023,05,19,03,00,AAXX 19034 41943 02940 01803 10300 20240 30093 40100 333 20205 59022 70010==
41943,2023,05,19,06,00,AAXX 19064 41943 02440 51805 10327 20250 30088 40095 83520 333 59012 70000 83616 84458==
41943,2023,05,19,09,00,AAXX 19094 41943 02440 52304 10326 20250 30061 40068 83420 333 59032 70000 82616 84458==
41943,2023,05,19,12,00,AAXX 19124 41943 02440 41805 10300 20240 30048 40055 82520 333 10338 59028 70000 82616 84458==
41943,2023,05,19,15,00,AAXX 19154 41943 02430 51804 10280 20260 30061 40068 83520 333 59032 70000 83616 84458==
41943,2023,05,19,18,00,AAXX 19184 41943 02430 81804 10274 20250 30069 40076 8662/ 333 59009 70000 83710 84615 88458==
41943,2023,05,19,21,00,AAXX 19214 41943 02430 80000 10272 20250 30058 40065 8662/ 333 59004 70000 83710 84615 88458==
41943,2023,05,20,00,00,AAXX 20004 41943 02430 81804 10270 20250 30057 40064 8662/ 333 59013 70000 83710 84615 88458==
41943,2023,05,20,03,00,AAXX 20034 41943 02/40 41803 10305 20260 30076 40083 84030 333 20268 59017 70000 84362==
41943,2023,05,20,06,00,AAXX 20064 41943 02/40 41804 10335 20220 30074 40081 84030 333 59026 70000 84362==
41943,2023,05,20,09,00,AAXX 20094 41943 02440 61802 10330 20220 30060 40067 83530 333 59001 70000 83616 84362==
41943,2023,05,20,12,00,AAXX 20124 41943 02940 00000 10306 20230 30056 40063 333 10346 58008 70000==
41943,2023,05,20,15,00,AAXX 20154 41943 02930 00000 10276 20240 30069 40076 333 58010 70000==
41943,2023,05,20,18,00,AAXX 20184 41943 02930 00000 10272 20240 30074 40081 333 58005 70000==
41943,2023,05,20,21,00,AAXX 20214 41943 02430 60000 10264 20250 30074 40081 84520 333 58016 70000 84616 84458==
41943,2023,05,21,00,00,AAXX 21004 41943 02330 80000 10252 20240 30074 40081 8662/ 333 58017 70000 83710 84614 88458==
41943,2023,05,21,03,00,AAXX 21034 41943 02440 61802 10300 20240 30095 40102 83520 333 20250 58019 70000 83616 85458==
41943,2023,05,21,06,00,AAXX 21064 41943 02440 61804 10338 20220 30091 40098 83520 333 58017 70000 83616 84458==
41943,2023,05,21,09,00,AAXX 21094 41943 02440 51802 10346 20240 30071 40078 83530 333 58011 70000 83616 84362==
41943,2023,05,21,12,00,AAXX 21124 41943 02440 51802 10306 20250 30057 40064 83530 333 10354 58001 70000 83616 84362==
41943,2023,05,21,15,00,AAXX 21154 41943 02430 30000 10284 20250 30073 40080 83500 333 58004 70000 83618==
41943,2023,05,21,18,00,AAXX 21184 41943 02430 60000 10278 20250 30094 40101 84520 333 58020 70000 83616 85458==
41943,2023,05,21,21,00,AAXX 21214 41943 01330 80000 10254 20230 30082 40089 70262 8662/ 333 58008 70030 83710 84614 88458==
41943,2023,05,22,00,00,AAXX 22004 41943 11435 70000 10230 20210 30077 40084 60036 70162 84520 333 58003 70030 84616 86458==
41943,2023,05,22,03,00,AAXX 22034 41943 02440 61804 10296 20230 30090 40097 83520 333 20228 58016 70000 83616 84458==
41943,2023,05,22,06,00,AAXX 22064 41943 02440 61804 10340 20240 30093 40100 83520 333 58002 70030 83616 84458==
41943,2023,05,22,09,00,AAXX 22094 41943 02440 61803 10344 20240 30072 40079 84520 333 58001 70000 84616 84458==
41943,2023,05,22,12,00,AAXX 22124 41943 02440 61802 10302 20260 30062 40069 84520 333 10348 58005 70030 84616 84458==
41943,2023,05,22,15,00,AAXX 22154 41943 02430 51802 10288 20270 30079 40086 83520 333 58006 70030 83616 84458==
41943,2023,05,22,18,00,AAXX 22184 41943 02430 60000 10278 20260 30087 40094 84520 333 59007 70030 84616 84458==
41943,2023,05,22,21,00,AAXX 22214 41943 02430 60000 10274 20250 30082 40089 84520 333 58000 70000 84616 84458==
41943,2023,05,23,00,00,AAXX 23004 41943 02435 60000 10270 20260 30071 40084 83520 333 58010 70000 83616 85458==
41943,2023,05,23,03,00,AAXX 23034 41943 02440 61802 10315 20260 30098 40105 83520 333 20270 58008 70000 83616 85458==
41943,2023,05,23,06,00,AAXX 23064 41943 02440 61802 10335 20260 30090 40097 83520 333 59003 70000 83616 85458==
41943,2023,05,23,09,00,AAXX 23094 41943 02440 81804 10265 20200 30069 40076 8662/ 333 59003 70000 83710 84615 88458==
41943,2023,05,23,12,00,AAXX 23124 41943 21330 81802 10225 20210 30045 40052 70262 8662/ 333 10320 59017 60357 70350 83710 84614 88458==
41943,2023,05,23,15,00,AAXX 23154 41943 02330 81802 10234 20210 30104 40111 8662/ 333 58025 70350 83710 84614 88458==
41943,2023,05,23,18,00,AAXX 23184 41943 02330 81802 10236 20220 30118 40125 8662/ 333 58031 70350 83710 84614 88458==
41943,2023,05,23,21,00,AAXX 23214 41943 01330 80000 10230 20210 30082 40089 70262 8662/ 333 58000 70380 83710 84614 88458==
41943,2023,05,24,00,00,AAXX 24004 41943 02330 80000 10222 20210 30062 40069 8662/ 333 59015 70380 83710 84614 88458==
41943,2023,05,24,03,00,AAXX 24034 41943 02430 80000 10236 20210 30091 40098 8662/ 333 20220 59007 70380 83710 84614 88458==
41943,2023,05,24,06,00,AAXX 24064 41943 02430 80000 10254 20210 30080 40087 8662/ 333 59010 70380 83710 84614 88458==
41943,2023,05,24,09,00,AAXX 24094 41943 01330 81802 10234 20210 30061 40068 76162 8672/ 333 59008 70420 83710 84614 88458==
41943,2023,05,24,12,00,AAXX 24124 41943 21330 81802 10230 20210 30052 40059 70262 8662/ 333 10256 58007 60058 70080 83710 84614 88458==
41943,2023,05,24,15,00,AAXX 24154 41943 02330 81802 10226 20210 30060 40067 8662/ 333 58044 70080 83710 88458==
41943,2023,05,24,18,00,AAXX 24184 41943 02330 80000 10222 20210 30067 40074 8662/ 333 59051 70080 83710 84614 88458==
41943,2023,05,24,21,00,AAXX 24214 41943 02330 80000 10220 20210 30062 40069 8662/ 333 58020 70050 83710 84614 88458==
41943,2023,05,25,00,00,AAXX 25004 41943 02435 60000 10218 20210 30061 40068 83520 333 59001 70050 83616 85458==
41943,2023,05,25,03,00,AAXX 25034 41943 02440 51802 10276 20210 30075 40082 83520 333 20217 59016 70050 83616 84458==
41943,2023,05,25,06,00,AAXX 25064 41943 02440 51802 10315 20230 30075 40082 83520 333 59005 70050 83616 84458==
41943,2023,05,25,09,00,AAXX 25094 41943 02430 61304 10325 20240 30055 40062 83520 333 59006 70010 83617 85458==
41943,2023,05,25,12,00,AAXX 25124 41943 02430 81802 10295 20260 30035 40042 8662/ 333 10330 59017 70000 83710 84615 88458==
41943,2023,05,25,15,00,AAXX 25154 41943 02430 81802 10282 20260 30059 40066 8662/ 333 59001 70000 83710 84615 88458==
41943,2023,05,25,18,00,AAXX 25184 41943 02430 80000 10271 20260 30058 40065 8662/ 333 59009 70000 83710 84615 88458==
41943,2023,05,25,21,00,AAXX 25214 41943 02430 80000 10265 20260 30056 40063 8662/ 333 59006 70000 83710 84615 88458==
41944,2023,05,19,00,00,AAXX 19004 41944 NIL=
41944,2023,05,19,06,00,AAXX 19064 41944 NIL=
41944,2023,05,19,18,00,AAXX 19184 41944 NIL=
41944,2023,05,20,06,00,AAXX 20064 41944 NIL=
41944,2023,05,20,12,00,AAXX 20124 41944 NIL=
41944,2023,05,20,18,00,AAXX 20184 41944 NIL=
41944,2023,05,21,06,00,AAXX 21064 41944 NIL=
41944,2023,05,21,12,00,AAXX 21124 41944 NIL=
41944,2023,05,21,18,00,AAXX 21184 41944 NIL=
41944,2023,05,22,06,00,AAXX 22064 41944 NIL=
41944,2023,05,22,12,00,AAXX 22124 41944 NIL=
41944,2023,05,22,18,00,AAXX 22184 41944 NIL=
41944,2023,05,23,00,00,AAXX 23004 41944 NIL=
41944,2023,05,23,06,00,AAXX 23064 41944 NIL=
41944,2023,05,23,12,00,AAXX 23124 41944 NIL=
41944,2023,05,23,18,00,AAXX 23184 41944 NIL=
41944,2023,05,24,00,00,AAXX 24004 41944 NIL=
41944,2023,05,24,06,00,AAXX 24064 41944 NIL=
41944,2023,05,24,12,00,AAXX 24124 41944 NIL=
41944,2023,05,24,18,00,AAXX 24184 41944 NIL=
41944,2023,05,25,06,00,AAXX 25064 41944 NIL=
41944,2023,05,25,12,00,AAXX 25124 41944 NIL=
41944,2023,05,25,18,00,AAXX 25184 41944 NIL=
41946,2023,05,19,00,00,AAXX 19004 41946 02456 20000 10238 20230 30068 40072 82500 333 59012 70480 82618==
41946,2023,05,19,03,00,AAXX 19034 41946 02456 20000 10298 20260 30085 40089 82500 333 20210 59029 70030 82618==
41946,2023,05,19,06,00,AAXX 19064 41946 02456 30000 10332 20270 30069 40073 83500 333 59025 70030 83618==
41946,2023,05,19,09,00,AAXX 19094 41946 02557 20000 10360 20250 30042 40047 82500 333 59027 70030 82620==
41946,2023,05,19,12,00,AAXX 19124 41946 02456 10000 10340 20270 30033 40038 81500 333 10363 59049 70030 81618==
41946,2023,05,19,15,00,AAXX 19154 41946 42456 61802 10286 20210 30068 40073 83530 333 82618 84362==
41946,2023,05,19,18,00,AAXX 19184 41946 02456 20000 10260 20210 30058 40063 82500 333 59010 70000 82620==
41946,2023,05,19,21,00,AAXX 19214 41946 02456 20000 10255 20240 30044 40049 82500 333 59022 70000 82628==
41946,2023,05,20,00,00,AAXX 20004 41946 02456 30000 10264 20240 30041 40046 83500 333 59027 70000 83618==
41946,2023,05,20,03,00,AAXX 20034 41946 02956 31801 10305 20230 30067 40072 80001 333 20240 59018 70000 83080==
41946,2023,05,20,06,00,AAXX 20064 41946 02557 21801 10345 20250 30063 40067 82500 333 59006 70000 82620==
41946,2023,05,20,09,00,AAXX 20094 41946 02957 01803 10353 20230 30051 40056 333 59009 70000==
41946,2023,05,20,12,00,AAXX 20124 41946 02956 01802 10330 20240 30038 40043 333 10354 58005 70000==
41946,2023,05,20,15,00,AAXX 20154 41946 02956 00000 10300 20250 30060 40064 333 59008 70000==
41946,2023,05,20,18,00,AAXX 20184 41946 02956 00000 10293 20270 30064 40068 333 58008 70000==
41946,2023,05,20,21,00,AAXX 20214 41946 02956 00000 10290 20280 30060 40065 333 58016 70000==
41946,2023,05,21,00,00,AAXX 21004 41946 02456 30000 10288 20280 30055 40060 83500 333 58014 70000 83618==
41946,2023,05,21,03,00,AAXX 21034 41946 02456 51802 10315 20270 30074 40078 85400 333 20282 58007 70000 84618==
41946,2023,05,21,06,00,AAXX 21064 41946 02456 61803 10345 20270 30069 40074 82570 333 58006 70000 82618 84460==
41946,2023,05,21,09,00,AAXX 21093 41946 02557 21702 10357 20250 30050 40054 82500 333 59001 70000 82620==
41946,2023,05,21,12,00,AAXX 21124 41946 02956 00000 10334 20250 30037 40042 333 10360 59001 70000==
41946,2023,05,21,15,00,AAXX 21154 41946 02456 20000 10308 20270 30057 40061 82500 333 59003 70000 82618==
41946,2023,05,21,18,00,AAXX 21184 41946 02456 61804 10305 20270 30094 40099 82570 333 58030 70000 82618 84460==
41946,2023,05,21,21,00,AAXX 21214 41946 02456 60000 10268 20230 30078 40083 82570 333 58018 70000 82618 84460==
41946,2023,05,22,00,00,AAXX 22004 41946 02456 60000 10260 20230 30075 40080 82520 333 58025 70000 82618 85460==
41946,2023,05,22,03,00,AAXX 22034 41946 02956 41802 10320 20260 30082 40087 80001 333 20250 58008 70000 84080==
41946,2023,05,22,06,00,AAXX 22064 41946 02556 41803 10355 20260 30067 40072 84400 333 59002 70000 83620==
41946,2023,05,22,09,00,AAXX 22094 41946 02557 21803 10356 20250 30053 40057 82500 333 58003 70000 82620==
41946,2023,05,22,12,00,AAXX 22124 41946 02456 10000 10336 20250 30049 40054 81500 333 10361 58012 70000 81618==
41946,2023,05,22,15,00,AAXX 22154 41946 02556 40000 10306 20270 30070 40074 84500 333 58013 70000 84620==
41946,2023,05,22,18,00,AAXX 22184 41946 02556 40703 10302 20270 30074 40078 84500 333 59020 70000 84618==
41946,2023,05,22,21,00,AAXX 22214 41946 02556 50000 10297 20270 30068 40072 82530 333 59010 70000 82620 84360==
41946,2023,05,23,00,00,AAXX 23004 41946 02556 51602 10294 20270 30068 40072 85400 333 59007 70000 83620 83822==
41946,2023,05,23,03,00,AAXX 23034 41946 02456 70000 10320 20280 30076 40080 84510 333 20290 59006 70000 84620 87460==
41946,2023,05,23,06,00,AAXX 23064 41946 02556 51605 10350 20270 30073 40078 85400 333 58006 70000 84620==
41946,2023,05,23,09,00,AAXX 23094 41946 02557 30000 10362 20250 30039 40043 83400 333 59014 70000 82620==
41946,2023,05,23,12,00,AAXX 23124 41946 02456 81504 10330 20260 30066 40070 8532/ 333 10363 58017 70000 83618 88459 81928==
41946,2023,05,23,15,00,AAXX 23154 41946 01456 82701 10239 20220 30083 40088 71396 8532/ 333 58013 70222 83618 88459 81927==
41946,2023,05,23,18,00,AAXX 23184 41946 01456 61401 10242 20220 30063 40068 72196 84320 333 59011 70224 82617 86459 81927==
41946,2023,05,23,21,00,AAXX 23214 41946 02456 60000 10244 20220 30058 40063 83520 333 59010 70224 83618 86460==
41946,2023,05,24,00,00,AAXX 24004 41946 02456 60000 10246 20230 30069 40073 83320 333 58001 70224 82618 85460 81928==
41946,2023,05,24,03,00,AAXX 24034 41946 02456 80000 10255 20240 30084 40088 8451/ 333 20225 58008 70224 84618 88460==
41946,2023,05,24,06,00,AAXX 24064 41946 02456 70201 10310 20250 30064 40069 83510 333 59009 70224 83618 87460==
41946,2023,05,24,09,00,AAXX 24094 41946 02456 60403 10307 20260 30043 40047 84470 333 58004 70224 83618 84459==
41946,2023,05,24,12,00,AAXX 24124 41946 02456 70504 10280 20240 30040 40045 84520 333 10314 59026 70224 84618 86459==
41946,2023,05,24,15,00,AAXX 24154 41946 02456 30000 10264 20230 30055 40060 83500 333 59028 70002 83618==
41946,2023,05,24,18,00,AAXX 24184 41946 02456 60000 10262 20240 30054 40059 83520 333 59009 70000 83618 85460==
41946,2023,05,24,21,00,AAXX 24214 41946 02456 60000 10262 20240 30054 40059 83520 333 59009 70000 83618 85460==
41946,2023,05,25,00,00,AAXX 25004 41946 02456 80000 10255 20250 30058 40063 8352/ 333 59011 70000 83618 88459==
41946,2023,05,25,03,00,AAXX 25034 41946 02956 41502 10310 20250 30069 40072 80001 333 20250 59015 70000 84080==
41946,2023,05,25,06,00,AAXX 25064 41946 02456 61804 10335 20250 30060 40065 83510 333 59004 70000 83618 84460==
41946,2023,05,25,09,00,AAXX 25094 41946 02557 20000 10358 20250 30035 40040 82500 333 59008 70000 82620==
41946,2023,05,25,12,00,AAXX 25124 41946 02456 31803 10346 20220 30025 40030 82530 333 10365 59015 70000 82618==
41946,2023,05,25,15,00,AAXX 25154 41946 02456 83212 10300 20230 30080 40085 8532/ 333 58025 70000 83618 88459 81929==
41946,2023,05,25,18,00,AAXX 25184 41946 01350 83104 10246 20230 30075 40079 79596 8592/ 333 58021 70010 82710 83616 88458 81929==
41946,2023,05,25,21,00,AAXX 25214 41946 01456 60303 10244 20220 30042 40047 70196 84320 333 59019 70090 83618 85459 81929==
41947,2023,05,19,00,00,AAXX 19004 41947 02450 30000 10238 20230 30065 40067 83500 333 59029 70350 83618==
41947,2023,05,19,03,00,AAXX 19034 41947 02457 40000 10295 20250 30074 40077 84500 333 20205 59044 70350 84618==
41947,2023,05,19,06,00,AAXX 19064 41947 02457 61802 10335 20260 30063 40066 86400 333 58042 70000 83618 83820==
41947,2023,05,19,09,00,AAXX 19094 41947 02457 32105 10360 20260 30041 40043 83400 333 59038 70000 82618==
41947,2023,05,19,12,00,AAXX 19124 41947 02456 21306 10330 20280 30032 40034 82400 333 10362 59051 70000 81618==
41947,2023,05,19,15,00,AAXX 19154 41947 02456 61806 10305 20280 30053 40056 83520 333 58002 70000 83618 85459==
41947,2023,05,19,18,00,AAXX 19184 41947 02456 21803 10264 20190 30051 40053 82500 333 59025 70000 82618==
41947,2023,05,19,21,00,AAXX 19214 41947 02456 30000 10256 20220 30042 40044 83500 333 59027 70000 83618==
41947,2023,05,20,00,00,AAXX 20004 41947 02456 60000 10260 20240 30038 40040 83520 333 59027 70000 83618 85459==
41947,2023,05,20,03,00,AAXX 20034 41947 02957 00000 10300 20240 30059 40062 333 20248 59015 70000==
41947,2023,05,20,06,00,AAXX 20064 41947 02957 01803 10245 20220 30061 40064 333 59002 70000==
41947,2023,05,20,09,00,AAXX 20094 41947 02958 02104 10357 20220 30055 40057 333 58014 70000==
41947,2023,05,20,12,00,AAXX 20124 41947 02957 01803 10344 20230 30036 40038 333 10358 58004 70000==
41947,2023,05,20,15,00,AAXX 20154 41947 02950 01803 10294 20260 30050 40052 333 59004 70000==
41947,2023,05,20,18,00,AAXX 20184 41947 02950 01802 10294 20260 30056 40058 333 58005 70000==
41947,2023,05,20,21,00,AAXX 20214 41947 02950 00000 10290 20270 30051 40053 333 58009 70000==
41947,2023,05,21,00,00,AAXX 21004 41947 02450 50000 10284 20270 30041 40043 82530 333 58003 70000 82618 84362==
41947,2023,05,21,03,00,AAXX 21034 41947 02456 72203 10320 20270 30073 40076 83570 333 20275 58014 70000 83618 85459==
41947,2023,05,21,06,00,AAXX 21064 41947 02456 72203 10350 20260 30077 40079 83570 333 58015 70000 83618 85459==
41947,2023,05,21,09,00,AAXX 21094 41947 02456 61804 10360 20250 30054 40056 83570 333 59001 70000 83618 85459==
41947,2023,05,21,12,00,AAXX 21124 41947 02956 01805 10325 20270 30035 40037 333 10362 59001 70000==
41947,2023,05,21,15,00,AAXX 21154 41947 02450 31806 10305 20270 30063 40065 333 58013 70000==
41947,2023,05,21,18,00,AAXX 21184 41947 02450 31805 10300 20280 30092 40094 83500 333 58036 70000 83618==
41947,2023,05,21,21,00,AAXX 21214 41947 02450 31804 10280 20260 30086 40088 83500 333 58035 70000 83618==
41947,2023,05,22,00,00,AAXX 22004 41947 02450 31803 10258 20250 30075 40077 83500 333 58030 70000 83618==
41947,2023,05,22,03,00,AAXX 22034 41947 02456 41802 10312 20260 30085 40087 84500 333 20250 58011 70000 84618==
41947,2023,05,22,06,00,AAXX 22064 41947 02456 62206 10352 20250 30078 40081 86400 333 58002 70000 83618 83820==
41947,2023,05,22,09,00,AAXX 22094 41947 02457 32105 10360 20250 30052 40054 83500 333 59002 70000 83618==
41947,2023,05,22,12,00,AAXX 22124 41947 02457 32105 10340 20260 30047 40049 83500 333 10365 58012 70000 83618==
41947,2023,05,22,15,00,AAXX 22154 41947 02956 01803 10308 20270 30067 40069 333 58004 70000==
41947,2023,05,22,18,00,AAXX 22184 41947 02456 32102 10300 20280 30076 40079 83500 333 59015 70000 83618==
41947,2023,05,22,21,00,AAXX 22214 41947 02456 31802 10296 20270 30067 40070 83500 333 59018 70000 83618==
41947,2023,05,23,00,00,AAXX 23004 41947 02456 31803 10288 20280 30063 40066 83500 333 59011 70000 83618==
41947,2023,05,23,03,00,AAXX 23034 41947 02356 71503 10320 20270 30085 40087 85670 333 20285 58000 70000 81710 83618==
41947,2023,05,23,06,00,AAXX 23064 41947 02456 61803 10355 20270 30075 40077 85400 333 59003 70000 82618 83820==
41947,2023,05,23,09,00,AAXX 23094 41947 02456 51803 10365 20270 30035 40037 82530 333 59017 70000 82618 83362==
41947,2023,05,23,12,00,AAXX 23124 41947 02456 61803 10340 20260 30028 40032 82530 333 10366 59019 70000 82618 84362==
41947,2023,05,23,15,00,AAXX 23154 41947 01450 81803 10238 20230 30073 40075 70396 8452/ 333 58006 70370 84616 88458==
41947,2023,05,23,18,00,AAXX 23184 41947 11450 60000 10237 20230 30061 40063 60376 70196 82530 333 59016 70370 82618 84362==
41947,2023,05,23,21,00,AAXX 23214 41947 02450 80000 10239 20230 30063 40065 8452/ 333 59005 70370 84616 88458==
41947,2023,05,24,00,00,AAXX 24004 41947 21450 80000 10240 20220 30066 40068 70262 8452/ 333 58002 60025 70394 84616 88458==
41947,2023,05,24,03,00,AAXX 24034 41947 02450 80000 10250 20200 30077 40080 8452/ 333 20225 59007 70394 84618 88458==
41947,2023,05,24,06,00,AAXX 24064 41947 02457 70000 10305 20250 30063 40066 83570 333 59011 70394 83618 83820==
41947,2023,05,24,09,00,AAXX 24094 41947 02456 81403 10302 20250 30046 40048 8352/ 333 58011 70394 83618 88458==
41947,2023,05,24,12,00,AAXX 24124 41947 02456 81806 10268 20230 30044 40046 8352/ 333 10305 58016 70394 83618 88458==
41947,2023,05,24,15,00,AAXX 24154 41947 02450 21805 10230 20230 30049 40051 82500 333 59024 70024 82618==
41947,2023,05,24,18,00,AAXX 24184 41947 02450 30000 10255 20240 30054 40056 83500 333 59007 70024 83618==
41947,2023,05,24,21,00,AAXX 24214 41947 02450 31402 10254 20230 30052 40054 83500 333 59011 70024 83618==
41947,2023,05,25,00,00,AAXX 25004 41947 02956 01403 10252 20240 30050 40052 333 59016 70000==
41947,2023,05,25,03,00,AAXX 25034 41947 02/56 31502 10303 20250 30066 40068 83010 333 20248 59011 70000 83459==
41947,2023,05,25,06,00,AAXX 25064 41947 02456 71802 10338 20260 30059 40062 85410 333 59004 70000 83618 83459==
41947,2023,05,25,09,00,AAXX 25094 41947 02457 22103 10363 20240 30035 40037 82400 333 59011 70000 81618==
41947,2023,05,25,12,00,AAXX 25124 41947 01456 61512 10303 20210 30029 40032 71721 86900 333 10366 59014 70000 83617 83820 81928==
41947,2023,05,25,15,00,AAXX 25154 41947 01456 80000 10285 20260 30060 40063 70396 8352/ 333 58012 70010 83618 88459==
41947,2023,05,25,18,00,AAXX 25184 41947 11456 83202 10260 20240 30069 40071 60016 70296 8432/ 333 58015 70010 83618 88459 81930==
41947,2023,05,25,21,00,AAXX 25214 41947 01456 60000 10252 20220 30052 40054 70162 83570 333 58000 70030 83618 85459==
41950,2023,05,19,00,00,AAXX 19004 41950 01945 00000 10238 20238 30069 40071 70510 333 59023 70334==
41950,2023,05,19,03,00,AAXX 19034 41950 02450 31602 10310 20250 30091 40093 82510 333 20198 59053 70070 82617==
41950,2023,05,19,06,00,AAXX 19064 41950 02450 71802 10337 20260 30087 40089 83511 333 59015 70070 82616 85459==
41950,2023,05,19,09,00,AAXX 19094 41950 02450 61204 10340 20260 30054 40056 84411 333 59033 70000 83617 85459==
41950,2023,05,19,12,00,AAXX 19124 41950 02450 71608 10310 20270 30041 40043 83510 333 10345 59041 70000 83617 87459==
41950,2023,05,19,15,00,AAXX 19154 41950 02350 71903 10294 20270 30067 40069 84610 333 59029 70000 81708 84616 86459==
41950,2023,05,19,18,00,AAXX 19184 41950 01350 80000 10260 20230 30070 40072 72122 8562/ 333 59003 70010 82708 84616 88458==
41950,2023,05,19,21,00,AAXX 19214 41950 02450 50000 10255 20250 30056 40058 83510 333 59011 70010 83617 85459==
41950,2023,05,20,00,00,AAXX 20004 41950 02350 80000 10250 20250 30060 40063 8562/ 333 59009 70010 82708 84616 88458==
41950,2023,05,20,03,00,AAXX 20034 41950 02456 21202 10310 20240 30076 40078 81501 333 20244 59015 70010 81617==
41950,2023,05,20,06,00,AAXX 20064 41950 02456 22102 10335 20250 30076 40078 82500 333 59011 70010 82617==
41950,2023,05,20,09,00,AAXX 20094 41950 02456 31607 10340 20230 30058 40060 82401 333 58004 70010 82617==
41950,2023,05,20,12,00,AAXX 20124 41950 02950 01906 10314 20210 30054 40057 333 10343 58013 70010==
41950,2023,05,20,15,00,AAXX 20154 41950 02950 00000 10284 20240 30064 40066 333 59003 70000==
41950,2023,05,20,18,00,AAXX 20184 41950 02450 50000 10276 20260 30074 40076 83530 333 58004 70000 83616==
41950,2023,05,20,21,00,AAXX 20214 41950 02450 60000 10266 20266 30066 40068 83510 333 58010 70000 83616 84459==
41950,2023,05,21,00,00,AAXX 21004 41950 02350 80000 10272 20270 30066 40068 8562/ 333 58006 70000 82708 83616 88458==
41950,2023,05,21,03,00,AAXX 21034 41950 02350 80000 10306 20270 30093 40096 8562/ 333 20266 58017 70000 82708 84616 88458==
41950,2023,05,21,06,00,AAXX 21064 41950 02350 61802 10340 20260 30091 40094 85410 333 58015 70000 83616 84458==
41950,2023,05,21,09,00,AAXX 21094 41950 02450 31803 10350 20240 30063 40066 83500 333 58003 70000 83617==
41950,2023,05,21,12,00,AAXX 21124 41950 02450 30000 10317 20250 30051 40054 83500 333 10358 59003 70000 83617==
41950,2023,05,21,15,00,AAXX 21154 41950 02450 61810 10299 20270 30065 40068 83510 333 58001 70000 83617 86459==
41950,2023,05,21,18,00,AAXX 21184 41950 02350 83504 10295 20270 30095 40098 8562/ 333 58021 70000 82708 84616 88458==
41950,2023,05,21,21,00,AAXX 21214 41950 01450 61802 10262 20250 30091 40094 70196 83510 333 58025 70006 83617 86459==
41950,2023,05,22,00,00,AAXX 22004 41950 11450 10000 10252 20230 30086 40088 69966 70196 81501 333 58020 70006 81617==
41950,2023,05,22,03,00,AAXX 22034 41950 02950 01803 10315 20260 30091 40094 333 20236 59002 70006==
41950,2023,05,22,06,00,AAXX 22064 41950 02450 51804 10338 20250 30088 40090 85400 333 59003 70006 82617 83825==
41950,2023,05,22,09,00,AAXX 22094 41950 41450 61803 10350 20260 30068 40071 58003 70006 83362==
41950,2023,05,22,12,00,AAXX 22124 41950 02450 21802 10322 20240 30060 40063 82500 333 10354 58009 70006 82617==
41950,2023,05,22,15,00,AAXX 22154 41950 02450 20902 10297 20270 30083 40086 82500 333 58018 70006 82617==
41950,2023,05,22,18,00,AAXX 22184 41950 02450 60000 10287 20280 30086 40089 83510 333 59009 70006 83616 85459==
41950,2023,05,22,21,00,AAXX 22214 41950 02450 50000 10285 20280 30076 40078 83510 333 59015 70000 83616 84459==
41950,2023,05,23,00,00,AAXX 23004 41950 02350 80000 10282 20270 30079 40081 8562/ 333 59007 70000 82708 84616 88458==
41950,2023,05,23,03,00,AAXX 23034 41950 02450 40000 10316 20270 30093 40096 85400 333 20277 58002 70000 83616==
41950,2023,05,23,06,00,AAXX 23064 41950 02450 61803 10342 20260 30085 40087 83510 333 59003 70000 83616 85459==
41950,2023,05,23,09,00,AAXX 23094 41950 02450 61408 10340 20270 30050 40053 85401 333 59018 70000 83617==
41950,2023,05,23,12,00,AAXX 23124 41950 01335 81210 10241 20230 30049 40051 79592 8692/ 333 10354 59011 70150 82708 84616 88458 81928==
41950,2023,05,23,15,00,AAXX 23154 41950 01330 80902 10205 20200 30107 40110 79596 8692/ 333 58024 70346 82708 84616 88458 81928==
41950,2023,05,23,18,00,AAXX 23184 41950 11350 80000 10228 20228 30058 40060 60216 70296 8562/ 333 59028 70356 82708 84616 88458==
41950,2023,05,23,21,00,AAXX 23214 41950 02450 60000 10230 20230 30072 40074 83510 333 59004 70356 83617 86459==
41950,2023,05,24,00,00,AAXX 24004 41950 01340 80000 10227 20227 30070 40073 79522 8692/ 333 59009 70010 82707 84616 88458 81928==
41950,2023,05,24,03,00,AAXX 24034 41950 01450 60000 10260 20240 30087 40089 70192 83510 333 20222 59006 70368 83616 85459==
41950,2023,05,24,06,00,AAXX 24064 41950 01340 80000 10240 20240 30079 40082 71796 8692/ 333 59006 70310 82708 84615 88458 81928==
41950,2023,05,24,09,00,AAXX 24094 41950 02350 80000 10248 20230 30060 40063 8562/ 333 58010 70678 82708 84616 88458==
41950,2023,05,24,12,00,AAXX 24124 41950 21350 80000 10238 20238 30053 40055 72996 8562/ 333 10275 58004 60037 70560 82708 84616 88458==
41950,2023,05,24,15,00,AAXX 24154 41950 02450 50000 10237 20237 30059 40061 83510 333 59048 70360 83617 84459==
41950,2023,05,24,18,00,AAXX 24184 41950 01440 50000 10234 20230 30063 40065 70522 83510 333 58005 70350 83617 84459==
41950,2023,05,24,21,00,AAXX 24214 41950 01340 80000 10243 20240 30059 40061 70522 8562/ 333 59013 70350 82708 84616 88458==
41950,2023,05,25,00,00,AAXX 25004 41950 01340 80000 10244 20240 30059 40061 70522 8562/ 333 59011 70338 82708 84616 88458==
41950,2023,05,25,03,00,AAXX 25034 41950 02450 61802 10300 20240 30075 40078 83510 333 20230 59012 70338 83617 85459==
41950,2023,05,25,06,00,AAXX 25064 41950 02350 81802 10326 20250 30069 40071 8562/ 333 59010 70028 82708 84616 88458==
41950,2023,05,25,09,00,AAXX 25094 41950 01350 70902 10323 20260 30046 40048 71722 85970 333 59014 70028 82708 84616 86459 81928==
41950,2023,05,25,12,00,AAXX 25124 41950 21350 70000 10255 20250 30039 40042 70296 85370 333 10343 59014 60247 70240 82708 84616 86459 81928==
41950,2023,05,25,15,00,AAXX 25154 41950 02450 50000 10272 20270 30057 40059 83510 333 59002 70240 83617 85459==
41950,2023,05,25,18,00,AAXX 25184 41950 02450 20000 10268 20268 30064 40067 82500 333 58001 70240 82617==
41950,2023,05,25,21,00,AAXX 25214 41950 02350 80000 10247 20240 30057 40060 8562/ 333 59002 70240 82708 84616 88458==
41951,2023,05,19,00,00,AAXX 19004 41951 02450 30000 10248 20248 30066 40071 83500 333 59025 70146 83618==
41951,2023,05,19,03,00,AAXX 19034 41951 02456 51303 10316 20270 30084 40089 82510 333 20213 59054 70068 82618 84459==
41951,2023,05,19,06,00,AAXX 19064 41951 02456 61303 10340 20270 30080 40085 83510 333 59018 70000 83618 85459==
41951,2023,05,19,09,00,AAXX 19094 41951 02456 61503 10343 20270 30053 40058 83510 333 59032 70000 83618 85459==
41951,2023,05,19,12,00,AAXX 19124 41951 02340 81302 10307 20280 30047 40052 8562/ 333 10347 59029 70000 81709 84618 88458==
41951,2023,05,19,15,00,AAXX 19154 41951 02450 61302 10292 20280 30063 40067 83510 333 59028 70000 83618 85459==
41951,2023,05,19,18,00,AAXX 19184 41951 01340 80000 10288 20280 30071 40075 71322 8632/ 333 58003 70000 81709 84618 88458 81929==
41951,2023,05,19,21,00,AAXX 19214 41951 02440 80000 10282 20260 30061 40065 8452/ 333 59006 70000 84618 88458==
41951,2023,05,20,00,00,AAXX 20004 41951 02440 81302 10266 20250 30054 40059 8452/ 333 59012 70000 84618 88458==
41951,2023,05,20,03,00,AAXX 20034 41951 02456 31303 10314 20240 30069 40073 83500 333 20260 59015 70000 83618==
41951,2023,05,20,06,00,AAXX 20064 41951 02456 31303 10337 20240 30075 40080 83500 333 59005 70000 83618==
41951,2023,05,20,09,00,AAXX 20094 41951 02456 31504 10336 20240 30062 40067 83500 333 58009 70000 83618==
41951,2023,05,20,12,00,AAXX 20124 41951 02956 01502 10308 20240 30051 40056 333 10343 58004 70000==
41951,2023,05,20,15,00,AAXX 20154 41951 02450 31302 10283 20250 30063 40068 83500 333 58000 70000 83618==
41951,2023,05,20,18,00,AAXX 20184 41951 02440 80000 10270 20260 30071 40075 8452/ 333 58000 70000 84618 88458==
41951,2023,05,20,21,00,AAXX 20214 41951 02440 60000 10268 20260 30069 40073 83510 333 58008 70000 83618 85459==
41951,2023,05,21,00,00,AAXX 21004 41951 02440 81302 10273 20270 30068 40072 8452/ 333 58014 70000 84618 88458==
41951,2023,05,21,03,00,AAXX 21034 41951 02450 71303 10313 20270 30086 40091 83510 333 20260 58017 70000 83618 85459==
41951,2023,05,21,06,00,AAXX 21064 41951 02456 61506 10348 20260 30085 40089 83510 333 58010 70000 83618 85459==
41951,2023,05,21,09,00,AAXX 21094 41951 02456 51308 10348 20270 30067 40072 82510 333 58005 70000 82618 84459==
41951,2023,05,21,12,00,AAXX 21124 41951 02456 61304 10313 20270 30057 40062 83510 333 10350 58006 70000 83618 85459==
41951,2023,05,21,15,00,AAXX 21154 41951 02450 61304 10298 20280 30070 40075 83510 333 58007 70000 83618 85459==
41951,2023,05,21,18,00,AAXX 21184 41951 02340 82906 10292 20280 30094 40099 8562/ 333 58023 70000 81709 84618 88458==
41951,2023,05,21,21,00,AAXX 21214 41951 41440 61502 10242 20240 30086 40091 70196 83510 333 58017 83618 85459==
41951,2023,05,22,00,00,AAXX 22004 41951 11950 01502 10247 20247 30082 40087 60106 70196 333 58014 70098==
41951,2023,05,22,03,00,AAXX 22034 41951 02956 01305 10314 20220 30087 40092 333 20238 58001 70098==
41951,2023,05,22,06,00,AAXX 22064 41951 02456 61303 10348 20260 30088 40093 83510 333 58003 70098 83618 85459==
41951,2023,05,22,09,00,AAXX 22094 41951 02456 61306 10352 20240 30063 40068 83510 333 59004 70098 83618 85459==
41951,2023,05,22,12,00,AAXX 22124 41951 02956 01304 10320 20270 30054 40059 333 10357 59003 70098==
41951,2023,05,22,15,00,AAXX 22154 41951 02450 21503 10296 20280 30080 40085 82500 333 58010 70098 82618==
41951,2023,05,22,18,00,AAXX 22184 41951 02440 80000 10286 20280 30084 40089 8452/ 333 59010 70098 84618 88458==
41951,2023,05,22,21,00,AAXX 22214 41951 02440 30000 10282 20270 30078 40083 83500 333 59008 70000 83618==
41951,2023,05,23,00,00,AAXX 23004 41951 02450 61302 10284 20270 30074 40079 83510 333 59008 70000 83618 85459==
41951,2023,05,23,03,00,AAXX 23034 41951 02456 61502 10322 20270 30088 40093 83510 333 20275 58001 70000 83618 85459==
41951,2023,05,23,06,00,AAXX 23064 41951 02456 61507 10352 20270 30082 40086 83510 333 59006 70000 83618 85459==
41951,2023,05,23,09,00,AAXX 23094 41951 02456 61305 10343 20270 30055 40060 83510 333 59008 70000 83618 85459==
41951,2023,05,23,12,00,AAXX 23124 41951 01330 81304 10248 20240 30046 40051 72196 8562/ 333 10354 59008 70070 81708 84616 88458==
41951,2023,05,23,15,00,AAXX 23154 41951 01330 83002 10230 20230 30115 40120 79596 8692/ 333 58035 70329 82706 84616 88458 82925==
41951,2023,05,23,18,00,AAXX 23184 41951 01450 61302 10237 20230 30059 40064 70196 83510 333 59025 70355 83618 85459==
41951,2023,05,23,21,00,AAXX 23214 41951 02440 80000 10238 20230 30062 40067 8452/ 333 59016 70355 84618 88458==
41951,2023,05,24,00,00,AAXX 24004 41951 01340 80000 10240 20240 30067 40072 70292 8562/ 333 59007 70355 81708 84616 88458==
41951,2023,05,24,03,00,AAXX 24034 41951 02340 80000 10250 20240 30081 40086 8562/ 333 20225 59007 70355 81708 84616 88458==
41951,2023,05,24,06,00,AAXX 24064 41951 11340 81302 10240 20230 30076 40081 60096 71796 8692/ 333 59005 70443 81708 84618 81825 88458==
41951,2023,05,24,09,00,AAXX 24094 41951 01330 81002 10232 20230 30057 40062 79596 8692/ 333 58002 70673 82706 84616 88458 82925==
41951,2023,05,24,12,00,AAXX 24124 41951 21330 80000 10238 20238 30042 40047 70296 8662/ 333 10257 59004 60328 70690 82706 84616 88458==
41951,2023,05,24,15,00,AAXX 24154 41951 02450 30000 10236 20236 30056 40061 83500 333 59059 70434 83618==
41951,2023,05,24,18,00,AAXX 24184 41951 02450 30000 10234 20230 30064 40069 83500 333 58005 70408 83618==
41951,2023,05,24,21,00,AAXX 24214 41951 01940 00000 10243 20240 30057 40062 70500 333 59005 70408==
41951,2023,05,25,00,00,AAXX 25004 41951 01940 00000 10248 20248 30053 40058 70500 333 59014 70408==
41951,2023,05,25,03,00,AAXX 25034 41951 02456 60803 10292 20260 30071 40076 83510 333 20225 59010 70408 83618 85459==
41951,2023,05,25,06,00,AAXX 25064 41951 02456 61303 10333 20250 30065 40070 83510 333 59011 70320 83618 85459==
41951,2023,05,25,09,00,AAXX 25094 41951 01350 71003 10328 20280 30050 40055 71722 85910 333 59007 70090 81709 83618 86459 81925==
41951,2023,05,25,12,00,AAXX 25124 41951 21450 60000 10300 20280 30032 40037 70196 83510 333 10337 59010 69987 70008 83618 85459==
41951,2023,05,25,15,00,AAXX 25154 41951 02450 31302 10282 20260 30057 40062 83500 333 58001 70008 83618==
41951,2023,05,25,18,00,AAXX 25184 41951 02450 51302 10276 20270 30060 40065 82510 333 59004 70008 82618 84459==
41951,2023,05,25,21,00,AAXX 25214 41951 02450 80000 10270 20250 30058 40063 8452/ 333 58001 70008 84618 88458==
41953,2023,05,19,00,00,AAXX 19004 41953 02440 60000 10240 20230 30073 40078 82520 333 59023 70070 82616 86458==
41953,2023,05,19,03,00,AAXX 19034 41953 02450 61803 10310 20250 30095 40100 83520 333 20220 59050 70030 83616 86458==
41953,2023,05,19,06,00,AAXX 19064 41953 02450 61804 10338 20270 30087 40092 83520 333 59011 70000 83616 86458==
41953,2023,05,19,09,00,AAXX 19094 41953 02450 61804 10324 20270 30066 40071 83520 333 59031 70000 83616 86458==
41953,2023,05,19,12,00,AAXX 19124 41953 02450 61803 10300 20260 30051 40056 83520 333 10340 59033 70000 83616 86458==
41953,2023,05,19,15,00,AAXX 19154 41953 02440 60000 10280 20260 30062 40067 83520 333 59036 70000 83616 86458==
41953,2023,05,19,18,00,AAXX 19184 41953 02440 60000 10280 20260 30073 40078 83520 333 59001 70000 83616 86458==
41953,2023,05,19,21,00,AAXX 19214 41953 02440 60000 10275 20270 30065 40070 83520 333 58000 70000 83616 86458==
41953,2023,05,20,00,00,AAXX 20004 41953 02440 40000 10280 20260 30061 40066 82520 333 59012 70000 82616 84458==
41953,2023,05,20,03,00,AAXX 20034 41953 02450 40000 10322 20240 30080 40085 82530 333 20274 59015 70000 82616 84362==
41953,2023,05,20,06,00,AAXX 20064 41953 02450 21803 10340 20230 30079 40084 82500 333 59008 70000 82618 82618==
41953,2023,05,20,09,00,AAXX 20094 41953 02450 41306 10336 20270 30065 40070 84400 333 59001 70000 83618==
41953,2023,05,20,12,00,AAXX 20124 41953 02950 02304 10300 20240 30061 40066 333 10344 58010 70000==
41953,2023,05,20,15,00,AAXX 20154 41953 02940 01804 10270 20250 30070 40075 333 58008 70000==
41953,2023,05,20,18,00,AAXX 20184 41953 02940 01804 10268 20260 30078 40083 333 58005 70000==
41953,2023,05,20,21,00,AAXX 20214 41953 02440 31304 10268 20260 30079 40084 83500 333 58014 70000 83618==
41953,2023,05,21,00,00,AAXX 21004 41953 02440 81303 10270 20260 30081 40086 8352/ 333 58020 70000 84616 88458==
41953,2023,05,21,03,00,AAXX 21034 41953 02450 81805 10310 20260 30097 40102 8352/ 333 20260 58017 70000 83616 88458==
41953,2023,05,21,06,00,AAXX 21064 41953 02450 51308 10336 20260 30091 40096 85400 333 58012 70000 83618 83825==
41953,2023,05,21,09,00,AAXX 21094 41953 02450 51306 10334 20270 30071 40076 85400 333 58006 70000 83618 83825==
41953,2023,05,21,12,00,AAXX 21124 41953 02440 41306 10300 20270 30062 40067 82510 333 10340 58001 70000 82618 84458==
41953,2023,05,21,15,00,AAXX 21154 41953 02430 81305 10288 20270 30076 40081 8452/ 333 58006 70000 84616 88458==
41953,2023,05,21,18,00,AAXX 21184 41953 NIL=
41953,2023,05,21,21,00,AAXX 21214 41953 01420 81305 10236 20236 30079 40084 70296 8692/ 333 58000 70140 84615 88458 81930==
41953,2023,05,22,00,00,AAXX 22004 41953 11440 21301 10240 20230 30083 40088 60146 70196 82500 333 58002 70140 82618==
41953,2023,05,22,03,00,AAXX 22034 41953 02950 01302 10330 20250 30099 40104 333 20225 58002 70140==
41953,2023,05,22,06,00,AAXX 22064 41953 02450 60504 10342 20250 30098 40103 83520 333 58007 70140 83616 85458==
41953,2023,05,22,09,00,AAXX 22094 41953 02450 41803 10340 20260 30073 40078 84400 333 58002 70140 83618==
41953,2023,05,22,12,00,AAXX 22124 41953 02450 31305 10312 20260 30067 40072 83500 333 10344 58005 70140 83616==
41953,2023,05,22,15,00,AAXX 22154 41953 02940 01803 10290 20260 30078 40083 333 58002 70140==
41953,2023,05,22,18,00,AAXX 22184 41953 02940 01804 10284 20260 30085 40090 333 58005 70140==
41953,2023,05,22,21,00,AAXX 22214 41953 02940 01304 10283 20270 30087 40092 333 58008 70000==
41953,2023,05,23,00,00,AAXX 23004 41953 02950 01306 10280 20270 30085 40090 333 58002 70000==
41953,2023,05,23,03,00,AAXX 23034 41953 02450 42305 10320 20260 30098 40103 84400 333 20275 59001 70000 83618==
41953,2023,05,23,06,00,AAXX 23064 41953 02450 61803 10336 20270 30091 40096 85410 333 59007 70000 83618 84458==
41953,2023,05,23,09,00,AAXX 23094 41953 02450 81306 10334 20270 30071 40076 8452/ 333 59002 70000 84616 88458==
41953,2023,05,23,12,00,AAXX 23124 41953 21440 81301 10230 20220 30053 40058 70296 8452/ 333 10348 59014 60195 70190 84616 88458==
41953,2023,05,23,15,00,AAXX 23154 41953 01420 83109 10234 20220 30118 40123 70262 8452/ 333 58040 70210 84616 88458==
41953,2023,05,23,18,00,AAXX 23184 41953 NIL=
41953,2023,05,23,21,00,AAXX 23214 41953 02420 80000 10224 20220 30101 40106 8452/ 333 58014 70260 84616 88458==
41953,2023,05,24,00,00,AAXX 24004 41953 02440 80000 10230 20230 30076 40081 8452/ 333 59009 70260 84616 88458==
41953,2023,05,24,03,00,AAXX 24034 41953 01440 81302 10240 20240 30094 40099 76122 8452/ 333 20220 59004 70270 84615 88457==
41953,2023,05,24,06,00,AAXX 24064 41953 21440 80504 10230 20230 30082 40087 76362 8452/ 333 59009 60255 70250 84614 88458==
41953,2023,05,24,09,00,AAXX 24094 41953 01440 80504 10230 20230 30064 40069 70266 8452/ 333 59007 70530 84615 88458==
41953,2023,05,24,12,00,AAXX 24124 41953 21440 81303 10244 20230 30053 40058 70262 8452/ 333 10251 58000 60028 70530 84616 88458==
41953,2023,05,24,15,00,AAXX 24154 41953 02430 81306 10230 20220 30063 40068 8452/ 333 59055 70320 84616 88458==
41953,2023,05,24,18,00,AAXX 24184 41953 02430 81305 10232 20230 30071 40076 8452/ 333 59050 70270 84616 88458==
41953,2023,05,24,21,00,AAXX 24214 41953 02430 81303 10225 20225 30068 40071 8452/ 333 59033 70270 84616 88458==
41953,2023,05,25,00,00,AAXX 25004 41953 02440 41303 10225 20225 30066 40071 84500 333 59010 70270 84618==
41953,2023,05,25,03,00,AAXX 25034 41953 02450 31304 10304 20250 30077 40082 83500 333 20220 59017 70260 83618==
41953,2023,05,25,06,00,AAXX 25064 41953 02450 61304 10326 20270 30074 40079 84410 333 59008 70020 83616 85458==
41953,2023,05,25,09,00,AAXX 25094 41953 02450 61302 10326 20260 30057 40062 84410 333 59007 70000 83618 84458==
41953,2023,05,25,12,00,AAXX 25124 41953 02440 81302 10300 20270 30051 40056 8352/ 333 10330 59002 70000 83618 88458==
41953,2023,05,25,15,00,AAXX 25154 41953 02440 21801 10276 20270 30066 40071 82500 333 58003 70000 82618==
41953,2023,05,25,18,00,AAXX 25184 41953 02430 31802 10268 20260 30069 40074 83500 333 59002 70000 83618==
41953,2023,05,25,21,00,AAXX 25214 41953 02430 82302 10262 20250 30067 40072 8452/ 333 59001 70000 84616 88458==
41955,2023,05,19,00,00,AAXX 19004 41955 NIL=
41955,2023,05,19,06,00,AAXX 19064 41955 NIL=
41955,2023,05,19,18,00,AAXX 19184 41955 NIL=
41955,2023,05,20,06,00,AAXX 20064 41955 NIL=
41955,2023,05,20,12,00,AAXX 20124 41955 NIL=
41955,2023,05,20,18,00,AAXX 20184 41955 NIL=
41955,2023,05,21,06,00,AAXX 21064 41955 NIL=
41955,2023,05,21,12,00,AAXX 21124 41955 NIL=
41955,2023,05,21,18,00,AAXX 21184 41955 NIL=
41955,2023,05,22,06,00,AAXX 22064 41955 NIL=
41955,2023,05,22,12,00,AAXX 22124 41955 NIL=
41955,2023,05,22,18,00,AAXX 22184 41955 NIL=
41955,2023,05,23,00,00,AAXX 23004 41955 NIL=
41955,2023,05,23,06,00,AAXX 23064 41955 NIL=
41955,2023,05,23,12,00,AAXX 23124 41955 NIL=
41955,2023,05,23,18,00,AAXX 23184 41955 NIL=
41955,2023,05,24,00,00,AAXX 24004 41955 NIL=
41955,2023,05,24,06,00,AAXX 24064 41955 NIL=
41955,2023,05,24,12,00,AAXX 24124 41955 NIL=
41955,2023,05,24,18,00,AAXX 24184 41955 NIL=
41955,2023,05,25,06,00,AAXX 25064 41955 NIL=
41955,2023,05,25,12,00,AAXX 25124 41955 NIL=
41955,2023,05,25,18,00,AAXX 25184 41955 NIL=
41958,2023,05,19,00,00,AAXX 19004 41958 32950 00301 10237 20237 30060 40062 333 59017 70564=
41958,2023,05,19,03,00,AAXX 19034 41958 32957 00000 10312 20260 30077 40079 333 20206 59042 70094=
41958,2023,05,19,06,00,AAXX 19064 41958 32958 03201 10345 20280 30067 40069 333 59035 70072=
41958,2023,05,19,09,00,AAXX 19094 41958 32458 50000 10362 20290 30046 40048 85400 333 56600 59030 70072 84617=
41958,2023,05,19,12,00,AAXX 19124 41958 32456 41803 10328 20290 30026 40028 84400 333 10369 56600 59047 70072 83617=
41958,2023,05,19,15,00,AAXX 19154 41958 32450 81802 10300 20280 30055 40057 8542/ 333 56499 59023 70002 84616 88459=
41958,2023,05,19,18,00,AAXX 19184 41958 32440 82702 10280 20260 30072 40074 8542/ 333 56699 58015 70000 84616 88459=
41958,2023,05,19,21,00,AAXX 19214 41958 32440 62701 10270 20230 30036 40038 85410 333 56690 59021 70000 84616 86459=
41958,2023,05,20,00,00,AAXX 20004 41958 32450 80000 10263 20240 30039 40041 8542/ 333 56999 59021 70000 84616 88459=
41958,2023,05,20,03,00,AAXX 20034 41958 32958 00000 10310 20250 30065 40067 333 20247 59012 70000=
41958,2023,05,20,06,00,AAXX 20064 41958 32958 00000 10343 20250 30064 40066 333 59003 70000=
41958,2023,05,20,09,00,AAXX 20094 41958 32958 01802 10341 20240 30050 40052 333 58004 70000=
41958,2023,05,20,12,00,AAXX 20124 41958 32956 01801 10325 20270 30041 40043 333 10348 58015 70000=
41958,2023,05,20,15,00,AAXX 20154 41958 32950 01802 10286 20260 30056 40058 333 58001 70000=
41958,2023,05,20,18,00,AAXX 20184 41958 32940 01601 10274 20250 30079 40081 333 58007 70000=
41958,2023,05,20,21,00,AAXX 20214 41958 32940 01801 10277 20270 30052 40054 333 58016 70000=
41958,2023,05,21,00,00,AAXX 21004 41958 32450 51601 10281 20280 30055 40057 85400 333 56900 58016 70000 84616=
41958,2023,05,21,03,00,AAXX 21034 41958 32457 51601 10318 20280 30069 40071 85400 333 20274 56400 58004 70000 84617=
41958,2023,05,21,06,00,AAXX 21064 41958 32458 51801 10350 20270 30074 40076 85400 333 56400 58010 70000 84617=
41958,2023,05,21,09,00,AAXX 21093 41958 32458 41601 10345 20280 30056 40058 84400 333 56400 58006 70000 83617=
41958,2023,05,21,12,00,AAXX 21124 41958 32456 41602 10318 20280 30042 40044 84400 333 10356 56400 58001 70000 83617=
41958,2023,05,21,15,00,AAXX 21154 41958 32450 51802 10299 20270 30055 40057 85400 333 56400 59001 70000 84617=
41958,2023,05,21,18,00,AAXX 21184 41958 32440 51802 10282 20260 30071 40073 85400 333 56400 59008 70000 84617=
41958,2023,05,21,21,00,AAXX 21214 41958 32940 01802 10270 20250 30071 40073 333 58019 70000=
41958,2023,05,22,00,00,AAXX 22004 41958 32950 01802 10258 20230 30073 40075 333 58018 70000=
41958,2023,05,22,03,00,AAXX 22034 41958 32958 01802 10323 20270 30077 40079 333 20250 58008 70000=
41958,2023,05,22,06,00,AAXX 22064 41958 32458 31802 10353 20270 30075 40077 83500 333 56400 58001 70000 83617=
41958,2023,05,22,09,00,AAXX 22094 41958 32458 31801 10362 20280 30056 40058 83500 333 56400 58000 70000 83617=
41958,2023,05,22,12,00,AAXX 22124 41958 32456 21803 10328 20280 30046 40048 82500 333 10363 56900 58004 70000 82617=
41958,2023,05,22,15,00,AAXX 22154 41958 32950 01801 10294 20280 30067 40069 333 58012 70000=
41958,2023,05,22,18,00,AAXX 22184 41958 32940 00000 10280 20260 30077 40079 333 58006 70000=
41958,2023,05,22,21,00,AAXX 22214 41958 32940 00000 10283 20270 30062 40064 333 59009 70000=
41958,2023,05,23,00,00,AAXX 23004 41958 32450 50000 10285 20280 30064 40066 85400 333 56500 59009 70000 84617=
41958,2023,05,23,03,00,AAXX 23034 41958 32458 51801 10330 20280 30075 40077 85400 333 20280 56400 59002 70000 84617=
41958,2023,05,23,06,00,AAXX 23064 41958 32458 61801 10354 20280 30074 40076 85410 333 56490 59001 70000 84616 86459=
41958,2023,05,23,09,00,AAXX 23094 41958 32458 51801 10355 20290 30040 40042 85400 333 56400 59016 70000 84617=
41958,2023,05,23,12,00,AAXX 23124 41958 32456 51801 10330 20280 30032 40034 84400 333 10360 56400 59014 70000 83617=
41958,2023,05,23,15,00,AAXX 23154 41958 21440 80303 10235 20235 30083 40085 79596 8592/ 333 56499 58016 6035/ 70350 84616 81930 88459=
41958,2023,05,23,18,00,AAXX 23184 41958 21440 81803 10240 20230 30066 40068 6035/ 70296 8532/ 333 56999 59011 70350 84616 81930 88459=
41958,2023,05,23,21,00,AAXX 23214 41958 32440 70603 10246 20240 30059 40061 85410 333 56490 59003 70350 84616 87459=
41958,2023,05,24,00,00,AAXX 24004 41958 32450 83601 10249 20240 30061 40063 8542/ 333 56499 59003 70350 84616 88459=
41958,2023,05,24,03,00,AAXX 24034 41958 32457 80602 10258 20230 30077 40079 8542/ 333 20218 56499 58002 70350 84616 88459=
41958,2023,05,24,06,00,AAXX 24064 41958 32458 80901 10302 20240 30062 40064 8542/ 333 56499 59012 70350 84616 88459=
41958,2023,05,24,09,00,AAXX 24094 41958 32456 81403 10296 20260 30038 40040 8592/ 333 56399 59002 70350 84616 81930 88458=
41958,2023,05,24,12,00,AAXX 24124 41958 NIL=
41958,2023,05,24,15,00,AAXX 24154 41958 32450 81303 10264 20240 30035 40037 8592/ 333 10306 56399 58003 70350 84616 81930 88458=
41958,2023,05,24,18,00,AAXX 24184 41958 32440 61302 10255 20240 30045 40047 83510 333 56990 59021 70000 83616 85459=
41958,2023,05,24,21,00,AAXX 24214 41958 32440 31301 10255 20240 30045 40047 83500 333 56900 59017 70000 83616=
41958,2023,05,25,00,00,AAXX 25004 41958 32450 30000 10255 20250 30045 40047 83500 333 56900 59016 70000 83616=
41958,2023,05,25,03,00,AAXX 25034 41958 32956 01301 10316 20270 30066 40068 333 20250 59011 70000=
41958,2023,05,25,06,00,AAXX 25064 41958 32456 51301 10350 20280 30050 40052 83510 333 56990 59012 70000 83616 84459=
41958,2023,05,25,09,00,AAXX 25094 41958 32456 51301 10362 20280 30033 40035 83510 333 56990 59005 70000 83616 84459=
41958,2023,05,25,12,00,AAXX 25124 41958 31450 71302 10326 20290 30028 40030 71792 84910 333 10362 56390 59007 70000 83616 81929 95459=
41958,2023,05,25,15,00,AAXX 25154 41958 32450 60000 10285 20270 30054 40056 83410 333 56990 58012 70000 83616 85459=
41958,2023,05,25,18,00,AAXX 25184 41958 32440 82602 10280 20260 30068 40070 8542/ 333 56999 58023 70000 84616 88458=
41958,2023,05,25,21,00,AAXX 25214 41958 31430 82601 10242 20240 30045 40047 72192 8592/ 333 56699 58003 6016/ 70160 84616 81930 88458=
41960,2023,05,19,00,00,AAXX 19004 41960 02440 70000 10251 20250 30070 40072 84470 333 59022 70124 83618 85459==
41960,2023,05,19,03,00,AAXX 19034 41960 02458 51803 10316 20270 30092 40094 85400 333 20210 59055 70084 84618==
41960,2023,05,19,06,00,AAXX 19064 41960 02458 62104 10345 20280 30085 40057 84410 333 59030 70004 83618 86459==
41960,2023,05,19,09,00,AAXX 19094 41960 02457 71806 10332 20280 30062 40064 85470 333 59028 70000 83618 85459==
41960,2023,05,19,12,00,AAXX 19124 41960 02456 51501 10308 20280 30047 40049 84410 333 10347 59036 70000 83618 85459==
41960,2023,05,19,15,00,AAXX 19154 41960 02440 41803 10290 20280 30066 40068 84400 333 59041 70000 83618==
41960,2023,05,19,18,00,AAXX 19184 41960 02430 60000 10288 20280 30079 40081 84410 333 58007 70000 83618 86459==
41960,2023,05,19,21,00,AAXX 19214 41960 02430 61804 10274 20250 30064 40065 84410 333 59007 70000 83618 86459==
41960,2023,05,20,00,00,AAXX 20004 41960 02440 81502 10260 20240 30058 40059 8542/ 333 59012 70000 84617 88459==
41960,2023,05,20,03,00,AAXX 20034 41960 02458 61601 10308 20270 30081 40082 84410 333 20252 59011 70000 83618 86459==
41960,2023,05,20,06,00,AAXX 20064 41960 02458 61803 10330 20250 30083 40085 84410 333 59002 70000 83618 86459==
41960,2023,05,20,09,00,AAXX 20094 41960 02958 01504 10337 20240 30065 40067 333 58003 70000==
41960,2023,05,20,12,00,AAXX 20124 41960 02956 01602 10317 20260 30059 40061 333 10342 58012 70000==
41960,2023,05,20,15,00,AAXX 20154 41960 02940 00000 10276 20260 30072 40074 333 58006 70000==
41960,2023,05,20,18,00,AAXX 20184 41960 02430 30000 10275 20270 30074 40076 83618 333 59005 70000 82618==
41960,2023,05,20,21,00,AAXX 20214 41960 02430 30000 10275 20270 30074 40076 83400 333 59005 70000 82618==
41960,2023,05,21,00,00,AAXX 21004 41960 02/40 21502 10276 20276 30070 40072 82010 333 58012 70000 82459==
41960,2023,05,21,03,00,AAXX 21034 41960 02458 61804 10320 20270 30093 40095 84410 333 20266 58012 70000 83618 86459==
41960,2023,05,21,06,00,AAXX 21064 41960 02458 61804 10340 20270 30093 40094 84410 333 58010 70000 83618 86459==
41960,2023,05,21,09,00,AAXX 21094 41960 02458 41804 10351 20270 30074 40075 84400 333 58009 70000 83618==
41960,2023,05,21,12,00,AAXX 21124 41960 02456 41602 10310 20280 30058 40060 84310 333 10357 59001 70000 83618 81930==
41960,2023,05,21,15,00,AAXX 21154 41960 02440 41604 10293 20270 30070 40072 84400 333 59002 70000 83618==
41960,2023,05,21,18,00,AAXX 21184 41960 02430 60000 10292 20280 30087 40089 84410 333 58013 70000 83618 86459==
41960,2023,05,21,21,00,AAXX 21214 41960 02930 01804 10270 20260 30088 40090 333 58016 70000==
41960,2023,05,22,00,00,AAXX 22004 41960 02940 03602 10246 20240 30088 40090 333 58018 70000==
41960,2023,05,22,03,00,AAXX 22034 41960 02458 31804 10316 20290 30095 40097 83400 333 20244 58002 70000 83618==
41960,2023,05,22,06,00,AAXX 22064 41960 42458 42305 10350 20270 30093 40095 84400 333 58000 83618==
41960,2023,05,22,09,00,AAXX 22094 41960 02458 21806 10355 20280 30073 40074 82400 333 59001 70000 81618==
41960,2023,05,22,12,00,AAXX 22124 41960 02/56 21502 10319 20270 30062 40063 82010 333 10357 58004 70000 82459==
41960,2023,05,22,15,00,AAXX 22154 41960 02440 40000 10291 20280 30085 40086 84400 333 58015 70000 83618==
41960,2023,05,22,18,00,AAXX 22184 41960 02430 40000 10286 20280 30089 40090 84400 333 58002 70000 83618==
41960,2023,05,22,21,00,AAXX 22214 41960 02940 00000 10283 20280 30082 40083 333 59006 70000==
41960,2023,05,23,00,00,AAXX 23004 41960 02950 01802 10280 20280 30076 40078 333 59012 70000==
41960,2023,05,23,03,00,AAXX 23034 41960 02458 61803 10330 20270 30099 40100 84410 333 20275 58004 70000 83618 86459==
41960,2023,05,23,06,00,AAXX 23064 41960 02458 62303 10348 20280 30091 40093 84410 333 59002 70000 83618 86459==
41960,2023,05,23,09,00,AAXX 23094 41960 02458 71806 10328 20280 30058 40059 84470 333 59015 70000 83618 85459==
41960,2023,05,23,12,00,AAXX 23124 41960 02456 80510 10265 20230 30062 40064 8542/ 333 10352 58000 70000 84617 88459==
41960,2023,05,23,15,00,AAXX 23154 41960 01320 83602 10230 20230 30122 40124 79596 8692/ 333 58037 70290 84614 88458 82930==
41960,2023,05,23,18,00,AAXX 23184 41960 21430 61601 10230 20220 30068 40069 70196 84410 333 59021 60308 70300 83616 86459==
41960,2023,05,23,21,00,AAXX 23214 41960 02430 61502 10233 20230 30069 40070 84410 333 59013 70300 83617 86459==
41960,2023,05,24,00,00,AAXX 24004 41960 01430 80904 10234 20230 30073 40074 79522 8692/ 333 59003 70130 84616 88458 81928==
41960,2023,05,24,03,00,AAXX 24034 41960 01440 80000 10240 20230 30092 40093 70296 8532/ 333 20220 59007 70718 84616 88459 81930==
41960,2023,05,24,06,00,AAXX 24064 41960 11456 80000 10265 20240 30084 40086 60296 71796 8592/ 333 59007 70718 84616 88459 81930==
41960,2023,05,24,09,00,AAXX 24094 41960 02456 81502 10269 20240 30055 40057 8632/ 333 59003 70718 84617 83822 88459 81929==
41960,2023,05,24,12,00,AAXX 24124 41960 01350 81502 10250 20230 30052 40054 71792 8692/ 333 10275 59010 70718 81708 84617 88459 81929==
41960,2023,05,24,15,00,AAXX 24154 41960 02440 40000 10243 20230 30058 40060 84500 333 59064 70428 84618==
41960,2023,05,24,18,00,AAXX 24184 41960 02430 40000 10245 20245 30060 40062 84500 333 59008 70418 84618==
41960,2023,05,24,21,00,AAXX 24214 41960 02430 50000 10247 20247 30060 40062 84410 333 59009 70418 83618 85459==
41960,2023,05,25,00,00,AAXX 25004 41960 02440 51501 10249 20249 30061 40063 84411 333 59012 70290 83618 85459==
41960,2023,05,25,03,00,AAXX 25034 41960 02456 61801 10300 20250 30078 40080 84410 333 20235 59014 70000 83618 86459==
41960,2023,05,25,06,00,AAXX 25064 41960 02458 61803 10340 20270 30071 40073 84410 333 59013 70000 83618 86459==
41960,2023,05,25,09,00,AAXX 25094 41960 02458 51806 10340 20280 30054 40056 82410 333 59001 70000 81618 85459==
41960,2023,05,25,12,00,AAXX 25124 41960 02456 51602 10305 20270 30042 40044 84401 333 10343 59010 70000 83618 83080==
41960,2023,05,25,15,00,AAXX 25154 41960 02440 40000 10284 20270 30066 40068 84400 333 58008 70000 83618==
41960,2023,05,25,18,00,AAXX 25184 41960 02930 00000 10274 20260 30068 40070 333 58008 70000==
41960,2023,05,25,21,00,AAXX 25214 41960 01430 71808 10256 20256 30065 40066 71792 85970 333 58005 70000 83618 85459 81929==
41963,2023,05,19,00,00,AAXX 19004 41963 02556 10000 10257 20250 30076 40079 81100 333 59021 70110 81825==
41963,2023,05,19,06,00,AAXX 19064 41963 NIL=
41963,2023,05,19,12,00,AAXX 19124 41963 02456 31304 10293 20270 30057 40060 83400 333 10322 59030 70000 82618==
41963,2023,05,19,15,00,AAXX 19154 41963 02450 21502 10285 20270 30071 40074 82500 333 59029 70000 82618==
41963,2023,05,19,18,00,AAXX 19184 41963 NIL=
41963,2023,05,19,21,00,AAXX 19214 41963 02450 20000 10274 20260 30077 40080 82500 333 59015 70000 82618==
41963,2023,05,20,00,00,AAXX 20004 41963 02/56 30000 10270 20250 30069 40072 83060 333 59007 70000 83363==
41963,2023,05,20,03,00,AAXX 20034 41963 02/56 31603 10308 20250 30077 40080 83060 333 20265 59017 70000 83363==
41963,2023,05,20,06,00,AAXX 20064 41963 02/56 31305 10313 20250 30085 40087 83060 333 59004 70000 83363==
41963,2023,05,20,09,00,AAXX 20094 41963 02/56 21604 10322 20230 30067 40069 82030 333 59004 70000 82364==
41963,2023,05,20,12,00,AAXX 20124 41963 02956 01801 10293 20240 30068 40070 333 10328 58011 70000==
41963,2023,05,20,15,00,AAXX 20154 41963 02950 00000 10262 20250 30082 40084 333 58011 70000==
41963,2023,05,20,18,00,AAXX 20184 41963 02940 01602 10252 20240 30078 40081 333 58004 70000==
41963,2023,05,20,21,00,AAXX 20214 41963 02940 00000 10254 20240 30079 40082 333 58002 70000==
41963,2023,05,21,00,00,AAXX 21004 41963 02456 20000 10274 20260 30077 40080 82500 333 58008 70000 82618==
41963,2023,05,21,03,00,AAXX 21034 41963 02456 31405 10300 20270 30100 40103 83400 333 20252 58023 70000 81618==
41963,2023,05,21,06,00,AAXX 21064 41963 02456 41306 10315 20270 30095 40098 84400 333 58010 70000 82618==
41963,2023,05,21,09,00,AAXX 21094 41963 02456 21404 10314 20270 30079 40082 82500 333 58012 70000 82618==
41963,2023,05,21,12,00,AAXX 21124 41963 02456 21603 10300 20280 30064 40067 82500 333 10320 59004 70000 82620==
41963,2023,05,21,15,00,AAXX 21154 41963 02450 21602 10285 20270 30077 40080 82500 333 59005 70000 82618==
41963,2023,05,21,18,00,AAXX 21184 41963 NIL=
41963,2023,05,21,21,00,AAXX 21214 41963 01450 71803 10270 20260 30079 40081 72192 83570 333 58000 70010 83618 84459==
41963,2023,05,22,00,00,AAXX 22004 41963 11956 00000 10240 20240 30087 40090 60016 70196 333 58010 70010==
41963,2023,05,22,03,00,AAXX 22034 41963 02956 01404 10315 20250 30098 40101 333 20234 59002 70010==
41963,2023,05,22,06,00,AAXX 22064 41963 02456 31805 10330 20270 30098 40101 83400 333 58003 70010 82618==
41963,2023,05,22,09,00,AAXX 22094 41963 02456 31805 10338 20280 30080 40083 83400 333 58001 70010 81618 83825==
41963,2023,05,22,12,00,AAXX 22124 41963 02956 01301 10304 20270 30068 40071 333 10342 58004 70010==
41963,2023,05,22,15,00,AAXX 22154 41963 02950 01802 10285 20270 30085 40088 333 58008 70010==
41963,2023,05,22,18,00,AAXX 22184 41963 NIL=
41963,2023,05,22,21,00,AAXX 22214 41963 02950 00000 10282 20280 30083 40086 333 58004 70000==
41963,2023,05,23,00,00,AAXX 23004 41963 02956 00000 10275 20270 30082 40084 333 59005 70000==
41963,2023,05,23,03,00,AAXX 23034 41963 02556 20000 10314 20270 30101 40104 82200 333 20270 58003 70000 82825==
41963,2023,05,23,06,00,AAXX 23064 41963 02456 31806 10330 20270 30091 40094 83400 333 59007 70000 81618 83825==
41963,2023,05,23,09,00,AAXX 23094 41963 02456 21606 10320 20270 30063 40066 82400 333 59017 70000 81618==
41963,2023,05,23,12,00,AAXX 23124 41963 01456 60000 10240 20220 30062 40065 71796 84330 333 10338 59006 70190 82617 84362 81928==
41963,2023,05,23,18,00,AAXX 23184 41963 21340 81603 10240 20220 30076 40079 70296 8472/ 333 59014 60165 70350 82710 83615 88458==
41963,2023,05,23,21,00,AAXX 23214 41963 01340 80000 10237 20237 30070 40073 72122 8472/ 333 59013 70380 82710 83615 88458==
41963,2023,05,24,00,00,AAXX 24004 41963 21456 70000 10250 20250 30071 40074 71796 84370 333 59011 60035 70380 83617 84458 81928==
41963,2023,05,24,03,00,AAXX 24034 41963 01456 70000 10240 20240 30090 40092 71796 84370 333 20228 59011 70400 83617 85458 81928==
41963,2023,05,24,06,00,AAXX 24064 41963 11356 81601 10270 20240 30079 40082 60026 70396 8471/ 333 59012 70400 82712 83616 88459==
41963,2023,05,24,09,00,AAXX 24094 41963 01356 80000 10230 20230 30063 40065 71796 8532/ 333 58000 71040 82710 83616 88458==
41963,2023,05,24,12,00,AAXX 24124 41963 21350 80000 10225 20225 30053 40055 72996 8432/ 333 10277 59009 60825 71030 83708 83614 88457 81928==
41963,2023,05,24,15,00,AAXX 24154 41963 02340 80000 10232 20232 30062 40065 8472/ 333 59062 70920 82710 83615 88458==
41963,2023,05,24,18,00,AAXX 24184 41963 02440 50000 10230 20230 30068 40070 83570 333 59008 70920 82617 83458==
41963,2023,05,24,21,00,AAXX 24214 41963 02/40 40000 10233 20233 30066 40068 84040 333 59004 70840 84363==
41963,2023,05,25,00,00,AAXX 25004 41963 02456 30000 10240 20240 30062 40065 81540 333 59009 70840 81618 83363==
41963,2023,05,25,03,00,AAXX 25034 41963 02456 31804 10300 20260 30078 40081 82540 333 20215 59012 70820 82618 83363==
41963,2023,05,25,06,00,AAXX 25064 41963 02456 51604 10310 20270 30075 40078 83440 333 59004 70820 82617 84363==
41963,2023,05,25,09,00,AAXX 25094 41963 02456 31805 10315 20270 30056 40059 83400 333 59007 70180 82618==
41963,2023,05,25,12,00,AAXX 25124 41963 02456 11603 10298 20270 30047 40050 81500 333 10320 59006 70000 81620==
41963,2023,05,25,15,00,AAXX 25154 41963 02/40 20000 10277 20270 30065 40068 82060 333 58003 70000 82363==
41963,2023,05,25,18,00,AAXX 25184 41963 NIL=
41964,2023,05,19,00,00,AAXX 19004 41964 02457 30000 10234 20234 30070 40072 82530 333 59021 70156 82618==
41964,2023,05,19,03,00,AAXX 19034 41964 02457 41806 10308 20260 30091 40094 84500 333 20203 59048 70108 84617==
41964,2023,05,19,06,00,AAXX 19064 41964 02558 62107 10312 20260 30088 40090 86430 333 59037 70010 83620 83825==
41964,2023,05,19,09,00,AAXX 19094 41964 02458 32003 10322 20260 30076 40078 83500 333 59016 70000 83620==
41964,2023,05,19,12,00,AAXX 19124 41964 02458 61503 10296 20270 30051 40054 83530 333 10326 59025 70000 83618 85362==
41964,2023,05,19,15,00,AAXX 19154 41964 02457 11603 10285 20280 30062 40064 81500 333 59029 70000 81618==
41964,2023,05,19,18,00,AAXX 19184 41964 02457 72103 10289 20280 30069 40071 85510 333 59009 70000 85617 85460==
41964,2023,05,19,21,00,AAXX 19214 41964 02457 62103 10293 20270 30064 40066 84531 333 59010 70000 84618 85362==
41964,2023,05,20,00,00,AAXX 20004 41964 02457 62103 10298 20270 30057 40060 83532 333 59013 70000 83618 85080==
41964,2023,05,20,03,00,AAXX 20034 41964 02457 61603 10314 20240 30073 40076 83511 333 20279 59018 70000 83618 83460==
41964,2023,05,20,06,00,AAXX 20064 41964 02458 61504 10326 20260 30075 40078 82502 333 59013 70000 82618 85080==
41964,2023,05,20,12,00,AAXX 20124 41964 02958 21804 10298 20250 30057 40060 80002 333 10331 58006 70000 82080==
41964,2023,05,20,15,00,AAXX 20154 41964 02457 10000 10270 20250 30070 40073 81500 333 58008 70000 81618==
41964,2023,05,20,18,00,AAXX 20184 41964 02957 10000 10262 20250 30070 40072 80001 333 58001 70000 81080==
41964,2023,05,20,21,00,AAXX 20214 41964 02457 60000 10271 20260 30068 40070 84510 333 58004 70000 84618 84460==
41964,2023,05,21,00,00,AAXX 21004 41964 02457 70000 10274 20260 30073 40075 86410 333 58016 70000 85618 84460==
41964,2023,05,21,03,00,AAXX 21034 41964 02457 41705 10312 20260 30095 40097 84500 333 20253 58022 70000 84618==
41964,2023,05,21,06,00,AAXX 21064 41964 02558 51505 10325 20260 30089 40091 85430 333 59014 70000 83620 83825==
41964,2023,05,21,09,00,AAXX 21094 41964 02558 51604 10330 20270 30075 40078 85430 333 58002 70000 83618 82825==
41964,2023,05,21,12,00,AAXX 21124 41964 02458 42103 10301 20270 30060 40062 82501 333 10336 58003 70000 83618==
41964,2023,05,21,15,00,AAXX 21154 41964 02457 52103 10288 20280 30069 40071 85500 333 59001 70000 85617==
41964,2023,05,21,18,00,AAXX 21184 41964 02457 50000 10290 20280 30092 40094 85500 333 58022 70000 85617==
41964,2023,05,21,21,00,AAXX 21214 41964 02457 21804 10244 20230 30087 40089 82500 333 58019 70000 82618==
41964,2023,05,22,00,00,AAXX 22004 41964 01558 30000 10248 20240 30077 40079 70392 81130 333 58004 70000 81825 83362==
41964,2023,05,22,03,00,AAXX 22034 41964 02458 11705 10319 20230 30090 40092 81500 333 20233 59005 70000 81618==
41964,2023,05,22,06,00,AAXX 22064 41964 02558 42108 10330 20270 30094 40096 84400 333 58005 70000 83620==
41964,2023,05,22,12,00,AAXX 22124 41964 02458 40000 10305 20280 30063 40065 83501 333 10337 58003 70000 83618==
41964,2023,05,22,15,00,AAXX 22154 41964 02457 20000 10289 20280 30082 40084 82500 333 58013 70000 82618==
41964,2023,05,22,18,00,AAXX 22184 41964 02457 40000 10282 20270 30082 40084 84500 333 59010 70000 84618==
41964,2023,05,22,21,00,AAXX 22214 41964 02457 60000 10278 20270 30080 40083 85410 333 59007 70000 84618 83460==
41964,2023,05,23,00,00,AAXX 23004 41964 02457 31502 10281 20270 30078 40081 83500 333 58001 70000 83618==
41964,2023,05,23,03,00,AAXX 23034 41964 02457 51804 10318 20280 30096 40099 85410 333 20274 58006 70000 83618 83825==
41964,2023,05,23,06,00,AAXX 23064 41964 02558 51606 10330 20270 30090 40093 85400 333 59004 70000 83620 83825==
41964,2023,05,23,09,00,AAXX 23094 41964 02558 51504 10328 20280 30072 40074 85400 333 59003 70000 83620 83825==
41964,2023,05,23,12,00,AAXX 23124 41964 01340 81801 10231 20220 30052 40055 79196 8672/ 333 10336 59011 70180 85709 85616 88458==
41964,2023,05,23,15,00,AAXX 23154 41964 01350 82703 10241 20220 30109 40111 79562 8632/ 333 58027 70202 85708 84616 88458 81928==
41964,2023,05,23,18,00,AAXX 23184 41964 01357 81502 10238 20230 30065 40067 70296 8662/ 333 59017 70242 82709 85617 88458==
41964,2023,05,23,21,00,AAXX 23214 41964 02357 80000 10239 20239 30064 40066 8662/ 333 59016 70242 82709 84618 88460==
41964,2023,05,24,00,00,AAXX 24004 41964 21357 80000 10240 20240 30065 40067 71762 8632/ 333 59013 60017 70252 82709 84617 88460==
41964,2023,05,24,03,00,AAXX 24034 41964 01356 80000 10244 20230 30085 40087 79596 8632/ 333 20224 59011 70272 83708 84617 88458 81928==
41964,2023,05,24,06,00,AAXX 24064 41964 21340 81403 10230 20230 30079 40082 79596 8632/ 333 59011 60399 70644 85708 84616 88458 81928==
41964,2023,05,24,09,00,AAXX 24094 41964 01340 81503 10250 20230 30070 40073 79596 8632/ 333 59009 70438 85708 84618 88456 81928==
41964,2023,05,24,12,00,AAXX 24124 41964 21357 80000 10237 20230 30042 40045 70296 8632/ 333 10252 59010 60178 70635 82709 85617 88460 81930==
41964,2023,05,24,15,00,AAXX 24154 41964 02457 80000 10240 20240 30055 40058 8452/ 333 59054 70613 84618 88460==
41964,2023,05,24,18,00,AAXX 24184 41964 02457 50000 10238 20238 30056 40059 83510 333 59009 70573 83618 83460==
41964,2023,05,24,21,00,AAXX 24214 41964 02457 60000 10236 20236 30057 40060 84510 333 59007 70573 84618 85460==
41964,2023,05,25,00,00,AAXX 25004 41964 02457 60000 10241 20241 30056 40059 82512 333 59009 70563 82618 85460==
41964,2023,05,25,03,00,AAXX 25034 41964 02558 51504 10297 20250 30073 40076 85400 333 20219 59012 70543 83620 83825==
41964,2023,05,25,06,00,AAXX 25064 41964 02558 61503 10312 20260 30074 40076 86400 333 59005 70171 83620 83825==
41964,2023,05,25,09,00,AAXX 25094 41964 02558 61403 10310 20270 30066 40068 86400 333 59004 70005 83620 83825==
41964,2023,05,25,12,00,AAXX 25124 41964 02458 51504 10295 20270 30044 40046 83502 333 10321 58002 70000 83618 83080==
41964,2023,05,25,15,00,AAXX 25154 41964 02458 30000 10286 20270 30061 40063 83500 333 58006 70000 83618==
41964,2023,05,25,18,00,AAXX 25184 41964 02458 31803 10285 20270 30058 40060 83500 333 58002 70000 83618==
41964,2023,05,25,21,00,AAXX 25214 41964 02457 61702 10279 20270 30056 40058 84510 333 59001 70000 84618 84460==
41965,2023,05,19,00,00,AAXX 19004 41965 02450 50000 10220 20200 30105 40113 84410 333 58009 70250 82618 84460==
41965,2023,05,19,03,00,AAXX 19034 41965 02450 50000 10280 20170 30096 40104 84410 333 20215 59023 70250 82618 84460==
41965,2023,05,19,06,00,AAXX 19064 41965 NIL=
41965,2023,05,19,12,00,AAXX 19124 41965 02450 50000 10300 20220 30080 40088 84410 333 10335 59020 70000 82618 84460==
41965,2023,05,19,18,00,AAXX 19184 41965 NIL=
41965,2023,05,19,21,00,AAXX 19214 41965 02450 50000 10260 20230 30070 40078 84410 333 59018 70000 82618 84460==
41965,2023,05,20,00,00,AAXX 20004 41965 02450 50000 10260 20230 30070 40078 84410 333 59018 70000 82618 84460==
41965,2023,05,20,03,00,AAXX 20034 41965 02450 82202 10300 20200 30075 40083 83310 333 20250 59018 70000 83618 88460 81928==
41965,2023,05,20,06,00,AAXX 20064 41965 02450 52202 10320 20170 30060 40068 84410 333 59015 70000 82618 84460==
41965,2023,05,20,09,00,AAXX 20094 41965 02456 50000 10325 20180 30055 40063 84410 333 59010 70000 82618 84460==
41965,2023,05,20,12,00,AAXX 20124 41965 02450 50000 10300 20220 30057 40065 84410 333 10335 59010 70000 82618 84460==
41965,2023,05,20,18,00,AAXX 20184 41965 NIL=
41965,2023,05,21,00,00,AAXX 21004 41965 02450 50000 10260 20240 30093 40101 84410 333 58020 70000 82618 84460==
41965,2023,05,21,03,00,AAXX 21034 41965 02450 70000 10300 20200 30104 40112 84610 333 20250 58023 70000 82618 86460==
41965,2023,05,21,06,00,AAXX 21064 41965 02456 51302 10320 20220 30095 40103 84410 333 58019 70000 82618 84460==
41965,2023,05,21,09,00,AAXX 21094 41965 02456 51402 10325 20210 30087 40095 84410 333 58024 70000 82618 84460==
41965,2023,05,21,12,00,AAXX 21124 41965 02950 00000 10300 20220 30090 40098 333 10330 58015 70000==
41965,2023,05,21,18,00,AAXX 21184 41965 NIL=
41965,2023,05,22,00,00,AAXX 22004 41965 02450 50000 10250 20230 30086 40094 84410 333 59008 70000 82618 84460==
41965,2023,05,22,03,00,AAXX 22034 41965 02450 50000 10300 20200 30094 40102 84410 333 20245 59010 70000 82618 84460==
41965,2023,05,22,06,00,AAXX 22064 41965 NIL=
41965,2023,05,22,09,00,AAXX 22094 41965 02450 50000 10325 20190 30075 40083 84410 333 59008 70000 82618 84460==
41965,2023,05,22,12,00,AAXX 22124 41965 02450 50000 10300 20220 30075 40083 84410 333 10335 59009 70000 82618 84460==
41965,2023,05,22,18,00,AAXX 22184 41965 NIL=
41965,2023,05,23,00,00,AAXX 23004 41965 NIL=
41965,2023,05,23,03,00,AAXX 23034 41965 02450 50000 10310 20210 30099 40107 84410 333 20265 58003 70000 82618 84460==
41965,2023,05,23,06,00,AAXX 23064 41965 02456 51402 10330 20220 30086 40094 84410 333 58004 70000 82618 84460==
41965,2023,05,23,09,00,AAXX 23094 41965 02456 51302 10345 20240 30080 40088 84410 333 58009 70000 82618 84460==
41965,2023,05,23,12,00,AAXX 23124 41965 01440 80000 10280 20220 30080 40088 76566 8462/ 333 10346 58007 70120 81710 83618 88460==
41965,2023,05,23,18,00,AAXX 23184 41965 NIL=
41965,2023,05,24,00,00,AAXX 24004 41965 02450 80000 10230 20210 30090 40098 8432/ 333 58000 70120 81710 83618 88460 81928==
41965,2023,05,24,03,00,AAXX 24034 41965 01440 80000 10240 20210 30097 40105 79796 8432/ 333 20225 59004 70200 81710 83618 88460 81928==
41965,2023,05,24,06,00,AAXX 24064 41965 21430 80000 10240 20220 30090 40098 79796 8432/ 333 59005 60239 70350 81710 83618 88458 81928==
41965,2023,05,24,09,00,AAXX 24094 41965 01430 80000 10245 20220 30080 40088 79796 8432/ 333 59007 70570 81710 83618 88460 81928==
41965,2023,05,24,12,00,AAXX 24124 41965 21440 80000 10240 20220 30080 40088 70296 8432/ 333 10255 59007 60228 70450 83618 88460 81928==
41965,2023,05,24,18,00,AAXX 24184 41965 NIL=
41965,2023,05,25,03,00,AAXX 25034 41965 02450 50000 10280 20200 30080 40088 84430 333 20223 59015 70370 82618 83360==
41965,2023,05,25,06,00,AAXX 25064 41965 02456 51302 10305 20230 30079 40087 84430 333 59009 70220 82618 83360==
41965,2023,05,25,09,00,AAXX 25094 41965 02456 51402 10315 20230 30062 40070 84430 333 59008 70000 82618 83360==
41965,2023,05,25,12,00,AAXX 25124 41965 02450 50000 10300 20240 30047 40055 84430 333 10320 59023 70000 82618 83360==
41965,2023,05,25,18,00,AAXX 25184 41965 NIL=
41966,2023,05,19,00,00,AAXX 19004 41966 02440 40000 10220 20210 30011 40091 82510 333 59016 70108 82616 83460==
41966,2023,05,19,03,00,AAXX 19034 41966 02/50 31301 10295 20190 30026 40104 83010 333 20205 59063 70068 83460==
41966,2023,05,19,06,00,AAXX 19064 41966 02450 52201 10325 20200 30022 40099 82510 333 59063 70012 82616 84460==
41966,2023,05,19,09,00,AAXX 19094 41966 02450 40000 10335 20190 30000 40077 82510 333 59038 70000 82616 83460==
41966,2023,05,19,12,00,AAXX 19124 41966 02440 40000 10310 20220 39982 40060 82510 333 10340 59047 70000 82616 83460==
41966,2023,05,19,15,00,AAXX 19154 41966 02430 40000 10278 20240 39988 40067 82510 333 59046 70000 82616 83460==
41966,2023,05,19,18,00,AAXX 19184 41966 02420 40000 10275 20260 30015 40093 82510 333 59033 70000 82616 83460==
41966,2023,05,19,21,00,AAXX 19214 41966 02420 30000 10273 20260 30014 40093 81510 333 59020 70000 81616 83460==
41966,2023,05,20,00,00,AAXX 20004 41966 02/40 30000 10270 20250 30007 40085 83010 333 59006 70000 83460==
41966,2023,05,20,06,00,AAXX 20064 41966 02450 42001 10340 20210 30008 40085 82510 333 59014 70000 82616 83460==
41966,2023,05,20,09,00,AAXX 20094 41966 02450 42001 10348 20150 39998 40075 82510 333 59002 70000 82616 83460==
41966,2023,05,20,12,00,AAXX 20124 41966 02/40 30000 10305 20220 39990 40067 83010 333 10355 58007 70000 83460==
41966,2023,05,20,15,00,AAXX 20154 41966 02430 40000 10285 20230 39996 40075 82510 333 58998 70000 82616 83460==
41966,2023,05,20,18,00,AAXX 20184 41966 NIL=
41966,2023,05,20,21,00,AAXX 20214 41966 02420 40000 10270 20260 30027 40106 82510 333 58013 70000 82616 83460==
41966,2023,05,21,00,00,AAXX 21004 41966 02440 40000 10250 20240 30029 40109 82510 333 58024 70000 82616 83460==
41966,2023,05,21,03,00,AAXX 21034 41966 02550 21301 10310 20210 30030 40108 82100 333 20235 58014 70000 82827==
41966,2023,05,21,06,00,AAXX 21064 41966 02550 21301 10330 20180 30028 40106 82130 333 58021 70000 82827 81362==
41966,2023,05,21,09,00,AAXX 21094 41966 02550 20000 10345 20190 30009 40085 82130 333 58010 70000 82827 81362==
41966,2023,05,21,12,00,AAXX 21124 41966 02440 40000 10310 20220 30006 40083 82510 333 10350 58016 70000 82616 83460==
41966,2023,05,21,15,00,AAXX 21154 41966 02430 40000 10290 20240 30018 40096 82510 333 58021 70000 82616 83460==
41966,2023,05,21,18,00,AAXX 21184 41966 NIL=
41966,2023,05,21,21,00,AAXX 21214 41966 01420 80000 10260 20260 30029 40108 72922 8352/ 333 58002 70086 83615 88460==
41966,2023,05,22,00,00,AAXX 22004 41966 21440 60000 10240 20230 30025 40105 72922 83510 333 59004 60095 70086 83616 85460==
41966,2023,05,22,03,00,AAXX 22034 41966 02950 01301 10312 20240 30038 40116 333 20230 58008 70086==
41966,2023,05,22,06,00,AAXX 22064 41966 02450 40201 10345 20190 30027 40104 82510 333 59002 70086 82616 83460==
41966,2023,05,22,09,00,AAXX 22094 41966 02450 41801 10341 20190 30025 40102 82510 333 59017 70086 82616 83460==
41966,2023,05,22,12,00,AAXX 22124 41966 02440 40000 10315 20230 30000 40077 82510 333 10348 59006 70000 82616 83460==
41966,2023,05,22,15,00,AAXX 22154 41966 02430 40000 10295 20250 30013 40091 82510 333 59005 70000 82616 83460==
41966,2023,05,22,18,00,AAXX 22184 41966 NIL=
41966,2023,05,22,21,00,AAXX 22214 41966 02420 40000 10280 20270 30015 40093 82510 333 59015 70000 82616 83460==
41966,2023,05,23,00,00,AAXX 23004 41966 02440 60000 10272 20260 30018 40097 83510 333 59008 70000 83616 85460==
41966,2023,05,23,06,00,AAXX 23064 41966 02450 62001 10340 20200 30027 40104 83510 333 58000 70000 83616 85460==
41966,2023,05,23,09,00,AAXX 23094 41966 02450 42201 10345 20180 30014 40091 82510 333 59011 70000 82616 83460==
41966,2023,05,23,12,00,AAXX 23124 41966 02440 42101 10320 20210 39996 40073 82510 333 10350 59004 70000 82616 83460==
41966,2023,05,23,15,00,AAXX 23154 41966 01420 70000 10270 20240 30014 40093 72162 83510 333 58002 70003 83616 86460==
41966,2023,05,23,18,00,AAXX 23184 41966 NIL=
41966,2023,05,23,21,00,AAXX 23214 41966 02420 50000 10250 20230 30004 40083 82510 333 59010 70003 82616 84460==
41966,2023,05,24,00,00,AAXX 24004 41966 02440 70000 10245 20230 39997 40077 83510 333 59020 70003 83616 86460==
41966,2023,05,24,03,00,AAXX 24034 41966 01340 80000 10260 20230 30025 40104 76122 8472/ 333 20240 59012 70015 82709 83616 88460==
41966,2023,05,24,06,00,AAXX 24064 41966 21340 80000 10255 20250 30015 40094 76162 8472/ 333 59010 60027 70025 82709 83616 88460==
41966,2023,05,24,09,00,AAXX 24094 41966 01340 80000 10240 20230 39998 40078 79566 8472/ 333 59013 70061 82709 83616 88460 81926==
41966,2023,05,24,12,00,AAXX 24124 41966 21430 80000 10235 20230 39995 40075 72996 8352/ 333 10265 58003 60049 70067 83616 88460==
41966,2023,05,24,15,00,AAXX 24154 41966 02420 60000 10230 20220 39995 40075 82510 333 59018 70064 82616 85460==
41966,2023,05,24,18,00,AAXX 24184 41966 02420 60000 10230 20220 30007 40087 82510 333 59003 70064 82616 85460==
41966,2023,05,24,21,00,AAXX 24214 41966 02420 60000 10230 20220 30007 40088 82510 333 58005 70064 82616 85460==
41966,2023,05,25,00,00,AAXX 25004 41966 02440 60000 10230 20220 39996 40076 82510 333 59001 70064 82616 85460==
41966,2023,05,25,03,00,AAXX 25034 41966 02/50 30901 10295 20200 30007 40085 83030 333 20220 59019 70052 83362==
41966,2023,05,25,06,00,AAXX 25064 41966 02950 42701 10325 20200 30002 40079 82510 333 59015 70042 82616 83460==
41966,2023,05,25,09,00,AAXX 25094 41966 02450 40000 10330 20210 39998 40075 82510 333 59003 70000 82616 83460==
41966,2023,05,25,12,00,AAXX 25124 41966 02440 60000 10300 20240 39973 40051 83510 333 10335 59024 70000 83616 85460==
41966,2023,05,25,15,00,AAXX 25154 41966 02430 60000 10278 20240 39986 40065 83510 333 59010 70000 83616 85460==
41966,2023,05,25,18,00,AAXX 25184 41966 NIL=
41966,2023,05,25,21,00,AAXX 25214 41966 02420 60000 10272 20250 30006 40085 83510 333 59003 70000 83616 85460==
41977,2023,05,19,00,00,AAXX 19004 41977 01950 00000 10223 20210 30060 40099 70500 333 59024 70129==
41977,2023,05,19,03,00,AAXX 19034 41977 01450 41607 10305 20260 30085 40123 70521 83520 333 20210 59043 70125 83618 84460==
41977,2023,05,19,06,00,AAXX 19064 41977 02456 71806 10318 20260 30075 40113 333 59049 70080 84520 84618 86460==
41977,2023,05,19,09,00,AAXX 19094 41977 02456 21805 10325 20250 30068 40105 82500 333 59023 70000 82618==
41977,2023,05,19,15,00,AAXX 19154 41977 02450 72005 10285 20280 30052 40090 84520 333 59032 70000 84618 86460==
41977,2023,05,19,18,00,AAXX 19184 41977 02356 71808 10293 20280 30062 40100 56490 85610 333 59018 70000 82710 85616 87459==
41977,2023,05,19,21,00,AAXX 19214 41977 02450 71802 10284 20270 30055 40093 84570 333 59013 70000 84618 85460==
41977,2023,05,20,00,00,AAXX 20004 41977 02450 70000 10274 20260 30049 40087 84570 333 59011 70000 84618 85460==
41977,2023,05,20,03,00,AAXX 20034 41977 02450 71803 10320 20260 30067 40105 84570 333 20270 59007 70000 84618 85460==
41977,2023,05,20,06,00,AAXX 20064 41977 02456 71803 10330 20240 30060 40097 333 59015 70000 84570 84618 85460==
41977,2023,05,20,09,00,AAXX 20094 41977 02457 72306 10322 20250 30048 40086 82530 333 59020 70000 82618 87365==
41977,2023,05,20,12,00,AAXX 20124 41977 02457 22302 10300 20250 30048 40085 82500 333 10337 59016 70000 82618==
41977,2023,05,20,15,00,AAXX 20154 41977 02956 00000 10286 20270 30065 40103 333 58013 70000==
41977,2023,05,20,18,00,AAXX 20184 41977 02956 00000 10275 20270 30060 40098 333 59002 70000==
41977,2023,05,20,21,00,AAXX 20214 41977 02450 61302 10265 20240 30070 40108 83520 333 58015 70000 83618 86460==
41977,2023,05,21,00,00,AAXX 21004 41977 02450 70000 10263 20230 30067 40105 84520 333 58018 70000 84618 87460==
41977,2023,05,21,03,00,AAXX 21034 41977 02456 60903 10300 20240 30092 40130 84520 333 20255 58025 70000 84618 86460==
41977,2023,05,21,06,00,AAXX 21064 41977 02456 61804 10330 20240 30086 40124 84520 333 58026 70000 84618 86460==
41977,2023,05,21,09,00,AAXX 21094 41977 02957 02004 10330 20250 30079 40117 333 58031 70000==
41977,2023,05,21,12,00,AAXX 21124 41977 42956 00000 10340 20270 30071 40108 58023==
41977,2023,05,21,15,00,AAXX 21154 41977 02450 21804 10290 20270 30070 40108 82500 333 58005 70000 82618==
41977,2023,05,21,18,00,AAXX 21184 41977 02356 71302 10290 20270 30079 40117 85610 333 58019 70000 82710 85616 86460==
41977,2023,05,21,21,00,AAXX 21214 41977 01350 83103 10262 20240 30076 40114 79522 8692/ 333 58006 70037 82710 84615 88460 81928==
41977,2023,05,22,00,00,AAXX 22004 41977 21350 70000 10245 20230 30068 40106 70196 86720 333 58001 60175 70168 82712 84615 86460==
41977,2023,05,22,03,00,AAXX 22034 41977 02956 01802 10310 20260 30084 40121 333 20228 58008 70168==
41977,2023,05,22,06,00,AAXX 22064 41977 02456 61805 10325 20270 30093 40131 333 58007 70168 83520 83618 86460==
41977,2023,05,22,09,00,AAXX 22094 41977 02456 22705 10330 20270 30079 40117 82500 333 58000 70168 82618==
41977,2023,05,22,12,00,AAXX 22124 41977 02956 02004 10306 20280 30064 40102 333 10332 59007 70168==
41977,2023,05,22,15,00,AAXX 22154 41977 02956 02002 10293 20270 30066 40104 333 59004 70168==
41977,2023,05,22,18,00,AAXX 22184 41977 02956 00000 10285 20280 30064 40102 333 59019 70168==
41977,2023,05,22,21,00,AAXX 22214 41977 02950 01302 10283 20270 30068 40105 333 59008 70131==
41977,2023,05,23,00,00,AAXX 23004 41977 02350 60000 10282 20270 30069 40106 86670 333 59001 70000 82710 84615 85460==
41977,2023,05,23,03,00,AAXX 23034 41977 02356 71804 10315 20270 30087 40124 86670 333 20275 58003 70000 82710 84615 86460==
41977,2023,05,23,06,00,AAXX 23064 41977 02456 42206 10336 20260 30086 40123 83520 333 59009 70000 83618 84460==
41977,2023,05,23,09,00,AAXX 23094 41977 02456 42705 10331 20250 30079 40117 83520 333 58000 70000 83618 84460==
41977,2023,05,23,12,00,AAXX 23124 41977 01450 70000 10245 20240 30057 40095 70362 86670 333 10340 59007 70030 82710 84616 86460==
41977,2023,05,23,15,00,AAXX 23154 41977 01450 70000 10260 20230 30066 40104 70262 86670 333 58000 70040 82710 84616 86460==
41977,2023,05,23,18,00,AAXX 23184 41977 21350 82702 10248 20210 30046 40084 76122 8632/ 333 59018 60017 70046 82710 84615 88460 81928==
41977,2023,05,23,21,00,AAXX 23214 41977 01350 81302 10245 20230 30048 40087 70262 8632/ 333 59020 70048 82710 84615 88460 81928==
41977,2023,05,24,00,00,AAXX 24004 41977 11350 80000 10240 20230 30052 40090 69926 70262 8632/ 333 59017 70048 82710 84615 88460 81930==
41977,2023,05,24,03,00,AAXX 24034 41977 01350 81302 10248 20230 30079 40118 76196 8732/ 333 20235 59008 70098 82710 84615 88460 81928==
41977,2023,05,24,06,00,AAXX 24064 41977 21350 81803 10236 20240 30087 40125 79562 8732/ 333 58001 60159 70198 82710 84614 88458 81928==
41977,2023,05,24,09,00,AAXX 24094 41977 01350 81603 10230 20220 30064 40103 79562 8732/ 333 59015 70358 82710 84614 88458 81928==
41977,2023,05,24,12,00,AAXX 24124 41977 21350 80902 10225 20230 30053 40092 79566 8732/ 333 10247 59004 60019 70338 82710 84615 88460 81930==
41977,2023,05,24,15,00,AAXX 24154 41977 01350 70000 10230 20220 30047 40085 70162 85610 333 59019 70328 82710 84616 87459==
41977,2023,05,24,18,00,AAXX 24184 41977 02350 70000 10226 20230 30045 40083 85610 333 59001 70322 82710 84616 87459==
41977,2023,05,24,21,00,AAXX 24214 41977 02350 80000 10230 20220 30046 40084 86620 333 59002 70320 82710 84616 88460==
41977,2023,05,25,00,00,AAXX 25004 41977 02350 80000 10230 20220 30044 40082 8662/ 333 59008 70320 82710 84616 88460==
41977,2023,05,25,03,00,AAXX 25034 41977 02456 21302 10290 20230 30061 40099 82500 333 20222 59018 70270 82618==
41977,2023,05,25,06,00,AAXX 25064 41977 02456 71806 10315 20250 30082 40120 333 59005 70170 84570 84618 86460==
41977,2023,05,25,09,00,AAXX 25094 41977 02456 71807 10321 20260 30059 40097 84570 333 59005 70010 84618 86460==
41977,2023,05,25,12,00,AAXX 25124 41977 02456 71803 10300 20260 30039 40077 84570 333 10325 59014 70000 84618 86460==
41977,2023,05,25,15,00,AAXX 25154 41977 02456 41403 10295 20270 30051 40089 83520 333 58004 70000 83618 84460==
41977,2023,05,25,18,00,AAXX 25184 41977 02956 31202 10285 20280 30063 40101 82530 333 58018 70000 82618 83363==
41978,2023,05,19,00,00,AAXX 19004 41978 02456 11606 10233 20210 30078 40084 81500 333 59011 70258 81617==
41978,2023,05,19,03,00,AAXX 19034 41978 02456 11809 10300 20240 30101 40107 81500 333 20211 59030 70258 81618==
41978,2023,05,19,06,00,AAXX 19064 41978 02456 42111 10315 20260 30090 40096 84400 333 59058 70086 83618==
41978,2023,05,19,09,00,AAXX 19094 41978 02456 32110 10320 20260 30069 40075 83500 333 59031 70000 83618==
41978,2023,05,19,12,00,AAXX 19124 41978 02450 31907 10300 20270 30053 40059 83500 333 10327 59024 70000 83618==
41978,2023,05,19,15,00,AAXX 19154 41978 02450 31812 10292 20270 30064 40071 83530 333 59028 70000 83618==
41978,2023,05,19,18,00,AAXX 19184 41978 02450 61810 10278 20260 30078 40085 83530 333 59018 70000 83618 86360==
41978,2023,05,19,21,00,AAXX 19214 41978 02450 60000 10277 20260 30060 40067 83530 333 59024 70000 83618 86360==
41978,2023,05,20,00,00,AAXX 20004 41978 01440 60000 10276 20270 30065 40072 70522 83530 333 59013 70000 83618 86360==
41978,2023,05,20,03,00,AAXX 20034 41978 02450 31713 10311 20250 30081 40088 83500 333 20273 59020 70000 83618==
41978,2023,05,20,06,00,AAXX 20064 41978 02450 61511 10316 20250 30079 40085 83530 333 59011 70000 83618 86360==
41978,2023,05,20,09,00,AAXX 20094 41978 02450 42411 10320 20260 30065 40071 82520 333 59004 70000 82618 84460==
41978,2023,05,20,12,00,AAXX 20124 41978 02450 22410 10301 20250 30065 40071 82500 333 10332 58012 70000 82618==
41978,2023,05,20,15,00,AAXX 20154 41978 333 58017 70000 82618==
41978,2023,05,20,18,00,AAXX 20184 41978 02450 21804 10280 20260 30077 40084 82500 333 59001 70000 82618==
41978,2023,05,20,21,00,AAXX 20214 41978 02450 60000 10270 20250 30078 40085 83530 333 58018 70000 83616 86360==
41978,2023,05,21,00,00,AAXX 21004 41978 02350 70000 10262 20230 30081 40087 83370 333 58016 70000 83709 86360 81930==
41978,2023,05,21,03,00,AAXX 21034 41978 02456 31210 10303 20240 30110 40117 83500 333 20255 58029 70000 83618==
41978,2023,05,21,06,00,AAXX 21064 41978 02456 32110 10323 20240 30096 40102 83500 333 58018 70000 83618==
41978,2023,05,21,09,00,AAXX 21094 41978 02456 32110 10326 20250 30082 40088 83500 333 58017 70000 83618==
41978,2023,05,21,12,00,AAXX 21124 41978 42456 22406 10335 20260 30066 40072 58001 82618==
41978,2023,05,21,15,00,AAXX 21154 41978 02450 21809 10291 20270 30082 40089 82500 333 58001 70000 82618==
41978,2023,05,21,18,00,AAXX 21184 41978 02450 21505 10276 20270 30093 40099 82500 333 58016 70000 82618==
41978,2023,05,21,21,00,AAXX 21214 41978 02450 50000 10257 20250 30091 40098 84320 333 58013 70000 83618 85460 81928==
41978,2023,05,22,00,00,AAXX 22004 41978 21445 52109 10246 20240 30087 40093 70262 83320 333 58006 60065 70064 82618 84460 81930==
41978,2023,05,22,03,00,AAXX 22034 41978 02456 31707 10308 20260 30100 40107 83500 333 20236 59010 70064 83618==
41978,2023,05,22,06,00,AAXX 22064 41978 02456 32408 10324 20250 30102 40108 83500 333 58006 70064 83618==
41978,2023,05,22,09,00,AAXX 22094 41978 02456 22108 10330 20270 30082 40088 82500 333 58000 70064 82618==
41978,2023,05,22,12,00,AAXX 22124 41978 01945 02007 10307 20280 30070 40076 70511 333 10333 58004 70064==
41978,2023,05,22,15,00,AAXX 22154 41978 01445 21603 10292 20270 30084 40090 70511 82500 333 58002 70064 82618==
41978,2023,05,22,18,00,AAXX 22184 41978 02445 21504 10283 20270 30086 40092 82500 333 59007 70064 82618==
41978,2023,05,22,21,00,AAXX 22214 41978 02445 42108 10270 20260 30080 40086 82530 333 59011 70064 82618 83360==
41978,2023,05,23,00,00,AAXX 23004 41978 01435 41205 10281 20270 30088 40094 70521 82530 333 58001 70000 82618 83360==
41978,2023,05,23,03,00,AAXX 23034 41978 01445 42109 10310 20260 30106 40112 70522 84500 333 20275 58006 70000 84618==
41978,2023,05,23,06,00,AAXX 23064 41978 01450 22011 10326 20270 30097 40103 70521 82500 333 59005 70000 82618==
41978,2023,05,23,09,00,AAXX 23094 41978 01450 22106 10330 20270 30068 40074 70511 82500 333 59014 70000 82618==
41978,2023,05,23,12,00,AAXX 23124 41978 01445 63309 10270 20200 30057 40063 70521 84320 333 10334 59013 70000 83617 85460 81929==
41978,2023,05,23,15,00,AAXX 23154 41978 01440 60000 10277 20240 30084 40091 70521 84320 333 58000 70000 83617 85460 81930==
41978,2023,05,23,18,00,AAXX 23184 41978 21440 81212 10252 20220 30074 40081 70262 8432/ 333 59012 60015 70010 83614 88459 81929==
41978,2023,05,23,21,00,AAXX 23214 41978 02440 60000 10248 20230 30061 40067 84320 333 59019 70010 83614 85460 81930==
41978,2023,05,24,00,00,AAXX 24004 41978 11440 80000 10246 20230 30067 40073 60016 76162 8432/ 333 59011 70020 83614 88460 81928==
41978,2023,05,24,03,00,AAXX 24034 41978 01435 81910 10253 20230 30096 40102 76162 8432/ 333 20235 59010 70068 83615 88460 81928==
41978,2023,05,24,06,00,AAXX 24064 41978 21435 80000 10258 20250 30083 40090 76196 8432/ 333 59014 60089 70100 83615 88417 81927==
41978,2023,05,24,09,00,AAXX 24094 41978 01417 82206 10230 20220 30068 40074 79596 8432/ 333 58000 70346 83614 88458 82927==
41978,2023,05,24,12,00,AAXX 24124 41978 21430 81403 10225 20220 30059 40065 79596 8432/ 333 58002 60299 70388 83616 88459 81928==
41978,2023,05,24,15,00,AAXX 24154 41978 01440 80000 10227 20220 30062 40068 70292 84321 333 59022 70400 83617 88460 81929==
41978,2023,05,24,18,00,AAXX 24184 41978 11445 61105 10236 20220 30064 40070 69926 70162 83520 333 59010 70390 83617 86460==
41978,2023,05,24,21,00,AAXX 24214 41978 02440 61105 10238 20220 30059 40065 83520 333 59002 70380 83618 86460==
41978,2023,05,25,00,00,AAXX 25004 41978 01445 61103 10235 20200 30064 40070 70522 82520 333 59003 70370 82618 84260==
41978,2023,05,25,03,00,AAXX 25034 41978 02456 51607 10296 20260 30075 40082 82520 333 20220 59021 70322 82618 84460==
41978,2023,05,25,06,00,AAXX 25064 41978 02456 52111 10313 20250 30079 40085 82520 333 59004 70290 82618 84460==
41978,2023,05,25,09,00,AAXX 25094 41978 02450 82111 10319 20260 30057 40064 8352/ 333 59011 70044 83618 88460==
41978,2023,05,25,12,00,AAXX 25124 41978 01450 52410 10300 20260 30047 40053 70522 82520 333 10326 59012 70002 82618 85460==
41978,2023,05,25,15,00,AAXX 25154 41978 01450 52108 10290 20230 30070 40077 70522 82520 333 58008 70000 82618 84460==
41978,2023,05,25,18,00,AAXX 25184 41978 01440 50000 10280 20260 30062 40069 70522 82520 333 59002 70000 82618 84462==
41978,2023,05,25,21,00,AAXX 25214 41978 01440 50000 10264 20264 30060 40067 70522 82520 333 58001 70000 82618 84460==
41980,2023,05,19,00,00,AAXX 19004 41980 32950 00000 10220 20190 39977 40091 333 59021 70140=
41980,2023,05,19,06,00,AAXX 19064 41980 NIL=
41980,2023,05,19,12,00,AAXX 19124 41980 32956 01802 10301 20240 39955 40065 333 10336 59024 70000=
41980,2023,05,19,18,00,AAXX 19184 41980 NIL=
41980,2023,05,20,00,00,AAXX 20004 41980 32950 40000 10271 20240 39971 40083 84020 333 56090 59006 70000 84459=
41980,2023,05,20,06,00,AAXX 20064 41980 NIL=
41980,2023,05,20,12,00,AAXX 20124 41980 NIL=
41980,2023,05,20,18,00,AAXX 20184 41980 NIL=
41980,2023,05,21,00,00,AAXX 21004 41980 32450 60000 10249 20200 39977 40090 83520 333 56990 58006 70000 83616 86459=
41980,2023,05,21,06,00,AAXX 21064 41980 NIL=
41980,2023,05,21,12,00,AAXX 21124 41980 32956 00000 10308 20230 39964 40074 333 10355 58004 70000=
41980,2023,05,21,18,00,AAXX 21184 41980 NIL=
41980,2023,05,22,00,00,AAXX 22004 41980 32450 60000 10254 20240 39990 40103 83520 333 56990 58013 70000 83616 86459=
41980,2023,05,22,06,00,AAXX 22064 41980 NIL=
41980,2023,05,22,12,00,AAXX 22124 41980 32956 01802 10307 20250 39972 40082 333 10352 58008 70000=
41980,2023,05,22,18,00,AAXX 22184 41980 NIL=
41980,2023,05,23,00,00,AAXX 23004 41980 32950 00000 10267 20240 39990 40101 333 58000 70000=
41980,2023,05,23,06,00,AAXX 23064 41980 NIL=
41980,2023,05,23,12,00,AAXX 23124 41980 32450 33102 10282 20200 39955 40066 83500 333 10345 56900 59017 70000 83616=
41980,2023,05,23,18,00,AAXX 23184 41980 NIL=
41980,2023,05,24,00,00,AAXX 24004 41980 11450 61802 10230 20210 39959 40072 60046 70396 83520 333 56990 70040 83616 86459=
41980,2023,05,24,06,00,AAXX 24064 41980 NIL=
41980,2023,05,24,12,00,AAXX 24124 41980 11340 81802 10217 20210 39953 40066 60137 70296 8662/ 333 10257 56999 59002 70190 83710 84616 88458=
41980,2023,05,24,18,00,AAXX 24184 41980 NIL=
41980,2023,05,25,00,00,AAXX 25004 41980 32450 30000 10234 20220 39966 40079 83500 333 56900 58007 70150 83618=
41980,2023,05,25,06,00,AAXX 25064 41980 NIL=
41980,2023,05,25,12,00,AAXX 25124 41980 32456 31802 10300 20260 39948 40058 83500 333 10330 56900 59005 70000 83616=
41980,2023,05,25,18,00,AAXX 25184 41980 NIL=
41984,2023,05,19,00,00,AAXX 19004 41984 02456 80000 10256 20256 30052 40054 8352/ 333 59032 70340 83618 88458==
41984,2023,05,19,03,00,AAXX 19034 41984 02457 50000 10324 20260 30075 40077 83510 333 20208 59041 70340 83618 85458==
41984,2023,05,19,06,00,AAXX 19064 41984 02457 52202 10331 20270 30072 40074 83510 333 59025 70020 83618 85458==
41984,2023,05,19,09,00,AAXX 19094 41984 02457 52303 10320 20270 30051 40053 82530 333 59026 70010 82618 83362==
41984,2023,05,19,12,00,AAXX 19124 41984 02457 82303 10300 20280 30036 40038 8352/ 333 10340 59033 70010 83618 88458==
41984,2023,05,19,15,00,AAXX 19154 41984 02440 52202 10294 20280 30061 40063 83510 333 59031 70010 83618 85458==
41984,2023,05,19,18,00,AAXX 19184 41984 02440 83503 10272 20250 30064 40066 8352/ 333 58006 70000 83618 88458==
41984,2023,05,19,21,00,AAXX 19214 41984 02440 80000 10266 20250 30054 40056 8352/ 333 59001 70000 83618 88458==
41984,2023,05,20,00,00,AAXX 20004 41984 02456 80000 10262 20240 30044 40046 8352/ 333 59008 70000 83618 88458==
41984,2023,05,20,03,00,AAXX 20034 41984 02457 60000 10302 20250 30067 40069 83510 333 20250 59008 70000 83618 86458==
41984,2023,05,20,06,00,AAXX 20064 41984 01457 81802 10326 20250 30075 40077 70392 8352/ 333 58003 70000 83618 88458==
41984,2023,05,20,09,00,AAXX 20094 41984 02457 61802 10320 20260 30060 40062 83530 333 58009 70000 83618 83362==
41984,2023,05,20,12,00,AAXX 20124 41984 02457 61801 10307 20250 30051 40053 83530 333 10335 58015 70000 83618 83362==
41984,2023,05,20,15,00,AAXX 20154 41984 02440 50000 10275 20260 30061 40063 82530 333 58000 70000 82618 83362==
41984,2023,05,20,18,00,AAXX 20184 41984 02440 51803 10280 20270 30058 40060 82530 333 59006 70000 82618 83362==
41984,2023,05,20,21,00,AAXX 20214 41984 02440 81802 10277 20270 30058 40060 8352/ 333 58004 70000 83618 88458==
41984,2023,05,21,00,00,AAXX 21004 41984 01456 80000 10280 20280 30057 40059 70522 8352/ 333 58013 70000 83618 88458==
41984,2023,05,21,03,00,AAXX 21034 41984 02457 82302 10323 20270 30079 40081 8352/ 333 20271 58012 70000 83618 88458==
41984,2023,05,21,06,00,AAXX 21064 41984 02457 82302 10337 20280 30083 40085 8352/ 333 58008 70000 83618 88458==
41984,2023,05,21,09,00,AAXX 21094 41984 02457 82303 10335 20280 30065 40067 8352/ 333 58005 70000 83618 88458==
41984,2023,05,21,12,00,AAXX 21124 41984 02456 52303 10309 20280 30050 40052 83510 333 10345 59001 70000 83618 85458==
41984,2023,05,21,15,00,AAXX 21154 41984 02440 51802 10298 20280 30062 40064 83510 333 58001 70000 83618 85458==
41984,2023,05,21,18,00,AAXX 21184 41984 02440 51802 10297 20280 30066 40068 83510 333 58008 70000 83618 85458==
41984,2023,05,21,21,00,AAXX 21214 41984 02440 50000 10280 20260 30072 40074 83510 333 58014 70000 83618 85458==
41984,2023,05,22,00,00,AAXX 22004 41984 02456 50000 10266 20250 30077 40079 83510 333 58020 70000 83618 85458==
41984,2023,05,22,03,00,AAXX 22034 41984 02457 81802 10322 20280 30084 40086 8352/ 333 20254 58005 70000 83618 88458==
41984,2023,05,22,06,00,AAXX 22064 41984 02457 52604 10342 20260 30081 40083 83510 333 59002 70000 83618 85458==
41984,2023,05,22,09,00,AAXX 22094 41984 02457 52303 10337 20280 30064 40066 82530 333 59001 70000 82618 83362==
41984,2023,05,22,12,00,AAXX 22124 41984 02457 50000 10312 20280 30052 40054 82530 333 10351 58002 70000 82618 83362==
41984,2023,05,22,15,00,AAXX 22154 41984 02440 50000 10296 20280 30066 40068 83510 333 58004 70000 83618 85458==
41984,2023,05,22,18,00,AAXX 22184 41984 02440 50000 10292 20280 30074 40076 83510 333 58008 70000 83618 85458==
41984,2023,05,22,21,00,AAXX 22214 41984 02440 50000 10291 20280 30070 40072 83510 333 59002 70000 83618 85458==
41984,2023,05,23,00,00,AAXX 23004 41984 02456 50000 10290 20280 30065 40067 83510 333 59012 70000 83618 85458==
41984,2023,05,23,03,00,AAXX 23034 41984 02457 50000 10321 20270 30081 40083 333 20281 59003 70000 82618 83362==
41984,2023,05,23,06,00,AAXX 23064 41984 02457 82304 10336 20280 30078 40080 8352/ 333 59003 70000 83618 88458==
41984,2023,05,23,09,00,AAXX 23094 41984 02457 82302 10334 20280 30046 40048 8352/ 333 59018 70000 83618 88458==
41984,2023,05,23,12,00,AAXX 23124 41984 02456 81803 10308 20290 30039 40041 8352/ 333 10340 59013 70000 83618 88458==
41984,2023,05,23,15,00,AAXX 23154 41984 01340 80000 10225 20225 30100 40102 79596 8692/ 333 58034 70130 83707 84615 88456==
41984,2023,05,23,18,00,AAXX 23184 41984 21440 80000 10232 20220 30061 40063 70296 8352/ 333 59013 60138 70130 83618 88458==
41984,2023,05,23,21,00,AAXX 23214 41984 02440 80000 10246 20240 30059 40061 8352/ 333 59011 70130 83618 88458==
41984,2023,05,24,00,00,AAXX 24004 41984 02456 80000 10257 20250 30057 40059 8352/ 333 59008 70130 83618 88458==
41984,2023,05,24,03,00,AAXX 24034 41984 01456 80000 10270 20250 30071 40073 70262 8352/ 333 20216 59010 70170 83618 88458==
41984,2023,05,24,06,00,AAXX 24064 41984 01356 80000 10266 20250 30065 40067 79596 8692/ 333 59013 70200 83707 84615 88456==
41984,2023,05,24,09,00,AAXX 24094 41984 02456 80000 10272 20230 30042 40044 8352/ 333 59004 70200 83618 88458==
41984,2023,05,24,12,00,AAXX 24124 41984 01450 80904 10261 20250 30041 40043 70292 8352/ 333 10292 58002 70200 83618 88458==
41984,2023,05,24,15,00,AAXX 24154 41984 01440 80000 10263 20240 30039 40041 70292 8352/ 333 58061 70070 83618 88458==
41984,2023,05,24,18,00,AAXX 24184 41984 01440 80000 10249 20240 30043 40045 70292 8352/ 333 58018 70070 83618 88458==
41984,2023,05,24,21,00,AAXX 24214 41984 02440 80000 10248 20240 30043 40045 8352/ 333 59016 70070 83618 88458==
41984,2023,05,25,00,00,AAXX 25004 41984 02456 50000 10249 20249 30044 40046 82530 333 59013 70070 82618 83362==
41984,2023,05,25,03,00,AAXX 25034 41984 02457 80000 10318 20280 30063 40065 8352/ 333 20245 59008 70030 83618 88458==
41984,2023,05,25,06,00,AAXX 25064 41984 02457 80000 10306 20270 30060 40062 8352/ 333 59005 70000 83618 88458==
41984,2023,05,25,09,00,AAXX 25094 41984 02457 62303 10329 20270 30044 40046 83510 333 58002 70000 83618 86458==
41984,2023,05,25,12,00,AAXX 25124 41984 02457 50000 10307 20280 30033 40035 82530 333 10339 59008 70000 82618 83362==
41984,2023,05,25,15,00,AAXX 25154 41984 02440 50000 10283 20260 30053 40055 83510 333 58014 70000 83618 85458==
41984,2023,05,25,18,00,AAXX 25184 41984 02440 50000 10275 20270 30056 40058 83510 333 58013 70000 83618 85458==
41984,2023,05,25,21,00,AAXX 25214 41984 02440 80000 10260 20260 30054 40056 8352/ 333 58011 70000 83618 88458==
41989,2023,05,19,00,00,AAXX 19004 41989 02450 31402 10208 20190 30096 40099 83500 333 59003 70130 83618==
41989,2023,05,19,06,00,AAXX 19064 41989 NIL=
41989,2023,05,19,09,00,AAXX 19094 41989 02456 21305 10328 20260 30077 40083 82500 333 59026 70000 82618==
41989,2023,05,19,18,00,AAXX 19184 41989 NIL=
41989,2023,05,19,21,00,AAXX 19214 41989 02450 21302 10272 20250 30073 40076 82500 333 59027 70000 82618==
41989,2023,05,20,00,00,AAXX 20004 41989 02450 31802 10268 20240 30068 40071 83530 333 59028 70000 83618==
41989,2023,05,20,03,00,AAXX 20034 41989 01450 51302 10302 20250 30094 40097 70362 83570 333 20250 59012 70090 83618 83362==
41989,2023,05,20,06,00,AAXX 20064 41989 11450 41802 10305 20250 30100 40103 60096 70162 83530 333 59005 70090 83618 83362==
41989,2023,05,20,12,00,AAXX 20124 41989 02456 31403 10298 20260 30060 40063 82530 333 10330 59012 70090 82618==
41989,2023,05,20,15,00,AAXX 20154 41989 02450 31402 10265 20240 30084 40088 83500 333 58014 70090 83618==
41989,2023,05,20,18,00,AAXX 20184 41989 02450 21403 10260 20230 30100 40104 83500 333 58022 70090 82618==
41989,2023,05,20,21,00,AAXX 20214 41989 02450 31403 10250 20220 30095 40098 82500 333 58022 70090 82618==
41989,2023,05,21,00,00,AAXX 21004 41989 02456 31402 10250 20230 30077 40080 82500 333 58009 70090 82618==
41989,2023,05,21,03,00,AAXX 21034 41989 02450 31402 10200 20240 30100 40103 83500 333 20247 59006 70090 83618==
41989,2023,05,21,06,00,AAXX 21064 41989 02456 21305 10325 20260 30095 40098 82500 333 59005 70000 82618==
41989,2023,05,21,12,00,AAXX 21124 41989 02450 21803 10305 20270 30079 40082 82500 333 10335 58019 70000 82618==
41989,2023,05,21,15,00,AAXX 21154 41989 02450 31302 10285 20260 30080 40083 83500 333 59004 70000 83618==
41989,2023,05,21,18,00,AAXX 21184 41989 02450 20000 10280 20260 30087 40090 82500 333 59013 70000 82618==
41989,2023,05,22,03,00,AAXX 22034 41989 02456 21303 10321 20260 30106 40109 82500 333 20252 58006 70000 82618==
41989,2023,05,22,06,00,AAXX 22064 41989 NIL=
41989,2023,05,22,09,00,AAXX 22094 41989 02456 21804 10330 20250 30081 40084 82500 333 59001 70000 82618==
41989,2023,05,22,12,00,AAXX 22124 41989 02456 11303 10307 20260 30069 40072 81500 333 10333 59010 70000 81618==
41989,2023,05,22,15,00,AAXX 22154 41989 02450 33202 10285 20260 30084 40088 83500 333 58004 70000 83618==
41989,2023,05,22,18,00,AAXX 22184 41989 02450 33102 10280 20260 30101 40104 83500 333 58014 70000 82618==
41989,2023,05,22,21,00,AAXX 22214 41989 02450 31403 10270 20250 30088 40091 83500 333 58004 70000 83618==
41989,2023,05,23,00,00,AAXX 23004 41989 02450 31202 10264 20240 30081 40084 83500 333 58005 70000 83618==
41989,2023,05,23,03,00,AAXX 23034 41989 02950 01402 10310 20250 30110 40113 83500 333 20255 58004 70000 82618==
41989,2023,05,23,06,00,AAXX 23064 41989 02456 21305 10328 20260 30097 40100 82500 333 59005 70000 82618==
41989,2023,05,23,09,00,AAXX 23094 41989 02450 41802 10330 20270 30089 40092 82530 333 58008 70000 82618 83362==
41989,2023,05,23,12,00,AAXX 23124 41989 NIL=
41989,2023,05,23,15,00,AAXX 23154 41989 01440 71303 10265 20250 30076 40080 70396 83570 333 59008 70020 83618 84460==
41989,2023,05,23,18,00,AAXX 23184 41989 01440 61307 10260 20240 30084 40088 70196 82570 333 59017 70040 82618 84460==
41989,2023,05,23,21,00,AAXX 23214 41989 01440 51405 10255 20230 30080 40083 70296 83570 333 59008 70070 83618 83362==
41989,2023,05,24,00,00,AAXX 24004 41989 11440 71302 10205 20220 30076 40079 60036 70396 83570 333 59005 70070 83618 85460==
41989,2023,05,24,06,00,AAXX 24064 41989 NIL=
41989,2023,05,24,09,00,AAXX 24094 41989 01330 81703 10223 20210 30077 40080 76162 8572/ 333 59012 70390 82710 83624 88456==
41989,2023,05,24,12,00,AAXX 24124 41989 21440 71305 10232 20220 30061 40064 70162 83570 333 10273 59023 60298 70420 83618 86460==
41989,2023,05,24,15,00,AAXX 24154 41989 01440 61404 10235 20220 30064 40067 70162 84430 333 59012 70430 83618 85362==
41989,2023,05,24,18,00,AAXX 24184 41989 11440 31402 10230 20210 30075 40078 60036 70162 83500 333 59009 70410 83618==
41989,2023,05,24,21,00,AAXX 24214 41989 02440 31402 10225 20210 30065 40068 83500 333 59017 70380 83618==
41989,2023,05,25,00,00,AAXX 25004 41989 02440 31402 10220 20200 30059 40062 83500 333 59017 70380 83618==
41989,2023,05,25,03,00,AAXX 25034 41989 02450 51803 10260 20210 30090 40093 83530 333 20213 59009 70340 83618 83362==
41989,2023,05,25,06,00,AAXX 25064 41989 02456 51304 10322 20250 30074 40077 83570 333 59016 70320 83618 83362==
41989,2023,05,25,12,00,AAXX 25124 41989 02450 31803 10300 20250 30053 40056 83500 333 10340 59008 70030 83618==
41989,2023,05,25,15,00,AAXX 25154 41989 02450 21302 10285 20260 30058 40061 82500 333 59006 70000 82618==
41989,2023,05,25,18,00,AAXX 25184 41989 02450 21402 10275 20250 30067 40071 82500 333 59008 70000 82618==
41989,2023,05,25,21,00,AAXX 25214 41989 02440 51802 10260 20240 30062 40065 83570 333 59003 70000 82618 83362==
41992,2023,05,19,00,00,AAXX 19004 41992 01425 60000 10222 20200 30084 40086 70522 84520 333 59019 70190 84615 86460==
41992,2023,05,19,03,00,AAXX 19034 41992 01930 00000 10295 20250 30106 40108 70511 333 20220 59023 70190==
41992,2023,05,19,06,00,AAXX 19064 41992 01935 00000 10310 20260 30102 40104 70510 333 59044 70090==
41992,2023,05,19,09,00,AAXX 19094 41992 41930 02106 10328 20230 30079 40081 70500 333 59039==
41992,2023,05,19,12,00,AAXX 19124 41992 01930 02105 10295 20270 30067 40069 70500 333 10330 59016 70000==
41992,2023,05,19,15,00,AAXX 19154 41992 NIL=
41992,2023,05,19,18,00,AAXX 19184 41992 01425 72103 10284 20260 30087 40089 70521 84530 333 59013 70000 84616 87362==
41992,2023,05,19,21,00,AAXX 19214 41992 01425 62102 10282 20260 30070 40072 70522 84530 333 59006 70000 84616 86362==
41992,2023,05,20,00,00,AAXX 20004 41992 01420 72103 10275 20270 30080 40082 70522 84520 333 59004 70000 84615 87460==
41992,2023,05,20,03,00,AAXX 20034 41992 01425 61503 10297 20250 30093 40095 70522 83530 333 20273 59013 70000 83616 86362==
41992,2023,05,20,06,00,AAXX 20064 41992 01430 71804 10320 20240 30088 40090 70522 84530 333 59014 70000 84616 87362==
41992,2023,05,20,09,00,AAXX 20094 41992 01430 62105 10305 20250 30075 40077 70522 84530 333 59004 70000 84616 86362==
41992,2023,05,20,12,00,AAXX 20124 41992 01430 62104 10295 20250 30069 40071 70522 84530 333 10331 58002 70000 84616 86362==
41992,2023,05,20,15,00,AAXX 20154 41992 01425 60000 10265 20250 30091 40093 70522 83520 333 58013 70000 83616 86460==
41992,2023,05,20,18,00,AAXX 20184 41992 01425 60000 10260 20240 30089 40091 70522 84520 333 58002 70000==
41992,2023,05,20,21,00,AAXX 20214 41992 01425 60000 10255 20240 30083 40085 70522 83520 333 58012 70000 83616 86460==
41992,2023,05,21,00,00,AAXX 21004 41992 01925 00000 10250 20220 30091 40093 70520 333 58013 70000==
41992,2023,05,21,03,00,AAXX 21034 41992 01/30 21804 10310 20240 30111 40113 70500 82030 333 20245 58018 70000 82362==
41992,2023,05,21,06,00,AAXX 21064 41992 01935 01504 10318 20250 30101 40103 70510 333 58013 70000==
41992,2023,05,21,09,00,AAXX 21094 41992 01935 01505 10320 20250 30090 40092 70500 333 58015 70000==
41992,2023,05,21,12,00,AAXX 21124 41992 01930 00000 10300 20250 30072 40074 70500 333 10325 58003 70000==
41992,2023,05,21,15,00,AAXX 21154 41992 01925 02102 10285 20260 30092 40094 70500 333 58001 70000==
41992,2023,05,21,18,00,AAXX 21184 41992 01925 00000 10280 20260 30097 40099 70500 333 58008 70000==
41992,2023,05,21,21,00,AAXX 21214 41992 01925 00000 10275 20260 30088 40090 70500 333 58005 70000==
41992,2023,05,22,00,00,AAXX 22004 41992 01420 60000 10268 20260 30110 40112 70522 84530 333 58009 70000 84616 86362==
41992,2023,05,22,03,00,AAXX 22034 41992 01935 00000 10300 20260 30111 40113 70511 333 20266 58000 70000==
41992,2023,05,22,06,00,AAXX 22064 41992 01935 01705 10320 20270 30101 40103 70500 333 58000 70000==
41992,2023,05,22,09,00,AAXX 22094 41992 01930 01505 10330 20250 30093 40095 70500 333 58003 70000==
41992,2023,05,22,12,00,AAXX 22124 41992 01930 01502 10305 20270 30078 40080 70500 333 10332 58006 70000==
41992,2023,05,22,15,00,AAXX 22154 41992 01925 00000 10290 20270 30089 40091 70500 333 59003 70000==
41992,2023,05,22,18,00,AAXX 22184 41992 01925 00000 10282 20260 30100 40102 70500 333 58003 70000==
41992,2023,05,22,21,00,AAXX 22214 41992 01925 00000 10275 20260 30096 40098 70500 333 58008 70000==
41992,2023,05,23,00,00,AAXX 23004 41992 01420 62104 10285 20270 30104 40106 70520 333 59006 70000 84615 86460==
41992,2023,05,23,03,00,AAXX 23034 41992 01430 21804 10322 20270 30113 40115 70521 82500 333 20272 58002 70000 82616==
41992,2023,05,23,06,00,AAXX 23064 41992 01/35 22106 10328 20270 30106 40108 70521 82030 333 58005 70000 82362==
41992,2023,05,23,09,00,AAXX 23094 41992 01930 02105 10325 20270 30077 40079 70500 333 59016 70000==
41992,2023,05,23,12,00,AAXX 23124 41992 01930 02103 10305 20270 30060 40062 70500 333 10333 59018 70000==
41992,2023,05,23,15,00,AAXX 23154 41992 01420 60000 10280 20240 30096 40098 71700 84920 333 58007 70000 83616 88460 81925==
41992,2023,05,23,18,00,AAXX 23184 41992 01415 80210 10240 20220 30112 40114 79592 8492/ 333 58012 70030 83614 88458 81925==
41992,2023,05,23,21,00,AAXX 23214 41992 01415 80205 10240 20220 30076 40078 76199 8592/ 333 59020 70050 84614 88482 81925==
41992,2023,05,24,00,00,AAXX 24004 41992 21420 80000 10252 20230 30081 40083 70596 8432/ 333 59026 60028 70050 83616 88460 81925==
41992,2023,05,24,03,00,AAXX 24034 41992 01320 80000 10264 20240 30106 40108 76122 8432/ 333 20234 59007 70070 82707 84613 88458 81925==
41992,2023,05,24,06,00,AAXX 24064 41992 21320 80000 10258 20240 30082 40084 76196 8592/ 333 59024 60047 70090 83707 85613 88458 81925==
41992,2023,05,24,09,00,AAXX 24094 41992 01315 83615 10230 20220 30096 40098 79522 8692/ 333 59019 70130 83707 85612 88458 81925==
41992,2023,05,24,12,00,AAXX 24124 41992 21420 80000 10230 20210 30071 40073 76196 8592/ 333 10300 58011 60217 70300 84614 88458 81925==
41992,2023,05,24,15,00,AAXX 24154 41992 01315 83010 10232 20230 30061 40063 75166 8692/ 333 59035 70320 82708 84613 88458 81925==
41992,2023,05,24,18,00,AAXX 24184 41992 01425 70000 10236 20220 30070 40072 70596 84530 333 59042 70290 84616 87362==
41992,2023,05,24,21,00,AAXX 24214 41992 01420 72402 10238 20220 30064 40066 70522 84520 333 59012 70270 84616 87460==
41992,2023,05,25,00,00,AAXX 25004 41992 01420 62102 10232 20210 30072 40074 70522 84520 333 59009 70270 84615 86460==
41992,2023,05,25,03,00,AAXX 25034 41992 01930 00000 10300 20240 30087 40089 70521 333 20230 59019 70250==
41992,2023,05,25,06,00,AAXX 25064 41992 01430 61507 10310 20250 30087 40089 70522 84520 333 58005 70190 84615 86460==
41992,2023,05,25,09,00,AAXX 25094 41992 01/30 21506 10314 20250 30065 40067 70522 82030 333 59031 70190 82362==
41992,2023,05,25,12,00,AAXX 25124 41992 01/30 21806 10300 20250 30056 40058 70521 82030 333 10316 59015 70020 82362==
41992,2023,05,25,15,00,AAXX 25154 41992 01925 01502 10285 20270 30073 40075 70500 333 58010 70000==
41992,2023,05,25,18,00,AAXX 25184 41992 01425 60000 10277 20260 30071 40073 70521 84530 333 58001 70000 84616 86362==
41992,2023,05,25,21,00,AAXX 25214 41992 01420 62102 10270 20250 30080 40082 70522 84530 333 58016 70000 84616 86362==
41998,2023,05,19,00,00,AAXX 19004 41998 NIL=
41998,2023,05,19,03,00,AAXX 19034 41998 02956 00000 10294 20250 30081 40087 333 20257 58019 70060==
41998,2023,05,19,06,00,AAXX 19064 41998 NIL=
41998,2023,05,19,09,00,AAXX 19094 41998 02956 00000 10297 20260 30090 40096 333 59004 70000==
41998,2023,05,19,12,00,AAXX 19124 41998 02456 30000 10297 20240 30064 40070 83400 333 10330 59040 70000 83618==
41998,2023,05,19,18,00,AAXX 19184 41998 NIL=
41998,2023,05,20,03,00,AAXX 20034 41998 02956 00000 10294 20250 30080 40086 333 20252 59001 70000==
41998,2023,05,20,06,00,AAXX 20064 41998 NIL=
41998,2023,05,20,09,00,AAXX 20094 41998 02456 70000 10295 20250 30068 40074 83470 333 59002 70000 82618 83458==
41998,2023,05,20,12,00,AAXX 20124 41998 02456 70000 10301 20260 30057 40063 83470 333 10328 59007 70000 82618 84458==
41998,2023,05,20,18,00,AAXX 20184 41998 NIL=
41998,2023,05,21,03,00,AAXX 21034 41998 02956 00000 10300 20260 30090 40096 333 20260 58010 70000==
41998,2023,05,21,06,00,AAXX 21064 41998 NIL=
41998,2023,05,21,09,00,AAXX 21094 41998 02956 00000 10322 20250 30067 40073 333 59001 70000==
41998,2023,05,21,12,00,AAXX 21124 41998 02956 00000 10298 20250 30068 40074 333 10340 58011 70000==
41998,2023,05,21,18,00,AAXX 21184 41998 NIL=
41998,2023,05,22,03,00,AAXX 22034 41998 02956 00000 10270 20260 30096 40102 333 20262 58006 70000==
41998,2023,05,22,06,00,AAXX 22064 41998 NIL=
41998,2023,05,22,09,00,AAXX 22094 41998 02956 00000 10308 20280 30071 40077 333 58004 70000==
41998,2023,05,22,12,00,AAXX 22124 41998 02956 00000 10298 20250 30080 40086 333 10346 58012 70000==
41998,2023,05,22,18,00,AAXX 22184 41998 NIL=
41998,2023,05,23,00,00,AAXX 23004 41998 NIL=
41998,2023,05,23,03,00,AAXX 23034 41998 02456 50000 10308 20260 30105 40111 83470 333 20270 58014 70000 82618 83458==
41998,2023,05,23,06,00,AAXX 23064 41998 NIL=
41998,2023,05,23,09,00,AAXX 23094 41998 02456 42303 10332 20260 30084 40090 83470 333 58013 70000 82618 83458==
41998,2023,05,23,12,00,AAXX 23124 41998 02456 40000 10303 20250 30092 40098 83470 333 10348 58008 70000 82618 83458==
41998,2023,05,23,18,00,AAXX 23184 41998 NIL=
41998,2023,05,24,00,00,AAXX 24004 41998 NIL=
41998,2023,05,24,03,00,AAXX 24034 41998 02456 80000 10313 20280 30080 40086 8442/ 333 20277 59015 70000 83618 88458==
41998,2023,05,24,06,00,AAXX 24064 41998 NIL=
41998,2023,05,24,12,00,AAXX 24124 41998 01456 60000 10282 20250 30074 40080 70162 83470 333 10331 59018 70060 83618 84456==
41998,2023,05,24,18,00,AAXX 24184 41998 NIL=
41998,2023,05,25,03,00,AAXX 25034 41998 02956 00000 10308 20260 30096 40102 333 20271 58016 70000==
41998,2023,05,25,06,00,AAXX 25064 41998 NIL=
41998,2023,05,25,12,00,AAXX 25124 41998 02456 40000 10298 20250 30071 40077 83470 333 10337 59003 70000 82618 83458==
41998,2023,05,25,18,00,AAXX 25184 41998 NIL=
