ESTACION,ANO,MES,DIA,HORA,MINUTO,PARTE
41850,2023,06,30,00,00,AAXX 30004 41850 11330 80000 10245 20240 39935 40034 60457 76166 8372/ 333 56999 59003 70500 83708 88458=
41850,2023,06,30,06,00,AAXX 30064 41850 11340 80000 10252 20250 39940 40038 60539 76366 8572/ 333 56999 59016 70980 83707 84616 88458=
41850,2023,06,30,12,00,AAXX 30124 41850 11450 80000 10270 20250 39912 40009 60026 70562 8452/ 333 10299 56999 59011 71000 84618 88458=
41850,2023,06,30,18,00,AAXX 30184 41850 31430 80000 10257 20250 39929 40028 70522 8452/ 333 56999 59014 71000 84618 88458=
41850,2023,07,01,00,00,AAXX 01004 41850 31440 80000 10252 20250 39927 40026 70522 8452/ 333 56999 59008 70550 84618 88458=
41850,2023,07,01,06,00,AAXX 01064 41850 32456 80000 10295 20260 39939 40036 8452/ 333 56999 59001 70020 84618 88458=
41850,2023,07,01,12,00,AAXX 01124 41850 31450 41806 10303 20250 39911 40007 70522 82510 333 10323 56990 59001 70000 82618 86458=
41850,2023,07,01,18,00,AAXX 01184 41850 31430 80906 10270 20260 39928 40027 70522 8352/ 333 56999 59001 70000 83618 88458=
41850,2023,07,02,00,00,AAXX 02004 41850 31440 80000 10260 20250 39919 40017 70522 8452/ 333 56999 59008 70000 84618 88458=
41850,2023,07,02,03,00,AAXX 02034 41850 31450 81808 10273 20250 39935 40033 70522 8452/ 333 20259 56999 58004 70000 84618 88458=
41850,2023,07,02,06,00,AAXX 02064 41850 32456 40000 10302 20260 39924 40021 84500 333 56900 59015 70000 84618=
41850,2023,07,02,12,00,AAXX 02124 41850 12340 80000 10268 20260 39907 40004 60227 79596 8532/ 333 10331 56999 59004 70220 83707 84616 81928 88458=
41850,2023,07,02,18,00,AAXX 02184 41850 11330 81806 10266 20260 39926 40025 60182 79596 8532/ 333 56999 59002 70400 83707 84616 81928 88458=
41850,2023,07,03,00,00,AAXX 03004 41850 11340 80000 10259 20250 39921 40019 60179 76166 8532/ 333 56999 58002 70570 83708 84616 88458=
41850,2023,07,03,06,00,AAXX 03064 41850 11450 80000 10285 20270 39918 40015 60025 70562 8452/ 333 56999 59006 70590 84618 88458=
41850,2023,07,03,12,00,AAXX 03124 41850 31450 82302 10290 20260 39910 40007 70522 8452/ 333 10302 56999 58003 70370 84618 88458=
41850,2023,07,03,18,00,AAXX 03184 41850 31430 81803 10270 20250 39926 40025 70522 8452/ 333 56999 58000 70190 84618 88458=
41850,2023,07,04,00,00,AAXX 04004 41850 11440 80000 10261 20260 39930 40029 60046 72122 8572/ 333 56999 58009 70060 83708 84616 88458=
41850,2023,07,04,06,00,AAXX 04064 41850 11350 80000 10261 20250 39936 40035 60097 76166 8572/ 333 56999 58016 70130 83708 84616 88458=
41850,2023,07,04,12,00,AAXX 04124 41850 11450 40000 10278 20260 39909 40006 60188 70162 82510 333 10285 56990 59001 70306 82616 84460=
41850,2023,07,05,00,00,AAXX 05004 41850 31450 70000 10260 20250 39917 40015 70522 83520 333 56990 59013 70266 83618 87458=
41850,2023,07,05,06,00,AAXX 05064 41850 11450 80000 10290 20270 39927 40025 69954 70562 8352/ 333 56999 59009 70181 83617 88458=
41850,2023,07,05,12,00,AAXX 05124 41850 11456 50000 10311 20260 39895 49991 69945 70362 82510 333 10332 56990 59014 70009 82617 85458=
41850,2023,07,05,18,00,AAXX 05184 41850 31440 60000 10274 20260 39930 40029 70522 83520 333 56990 58004 70009 83617 86458=
41850,2023,07,06,00,00,AAXX 06004 41850 31350 80203 10265 20250 39929 40027 70522 8562/ 333 56299 58012 70009 82708 84616 88458=
41850,2023,07,06,06,00,AAXX 06064 41850 32456 50000 10328 20260 39932 40028 83510 333 56990 58005 70004 83617 85458=
41850,2023,07,06,09,00,AAXX 06094 41850 32456 60000 10320 20260 39919 40015 83520 333 56990 58013 70000 83617 86458=
41850,2023,07,06,12,00,AAXX 06124 41850 11340 81008 10266 20260 39922 40019 60124 76362 8572/ 333 10335 56299 58027 70120 82708 84616 88458=
41850,2023,07,06,18,00,AAXX 06184 41850 11340 80604 10270 20260 39951 40049 60036 70562 8562/ 333 56299 58021 70150 82708 84616 88458=
41851,2023,06,30,00,00,AAXX 30004 41851 11350 82302 10265 20260 39971 40033 60044 72162 8472/ 333 56399 59013 70106 81708 84616 88456=
41851,2023,06,30,06,00,AAXX 30064 41851 11350 82302 10260 20250 39983 40046 60137 76362 8472/ 333 56399 59013 70240 81708 84616 88456=
41851,2023,06,30,12,00,AAXX 30124 41851 11350 80000 10278 20260 39949 40011 60018 70262 8462/ 333 10280 56999 59017 70240 81710 83618 88458=
41851,2023,06,30,18,00,AAXX 30184 41851 11340 81301 10265 20260 39973 40035 60034 76122 8472/ 333 56399 59015 70195 81708 83616 88456=
41851,2023,07,01,00,00,AAXX 01004 41851 32350 80000 10260 20250 39966 40029 8462/ 333 56399 59005 70173 81710 83618 88458=
41851,2023,07,01,06,00,AAXX 01064 41851 32450 80000 10302 20260 39981 40043 8352/ 333 56999 59002 70039 83618 88458=
41851,2023,07,01,12,00,AAXX 01124 41851 32450 60000 10305 20260 39953 40014 83430 333 10318 56990 58004 70025 82618 84362=
41851,2023,07,01,18,00,AAXX 01184 41851 32350 80000 10278 20260 39975 40037 8462/ 333 56999 58002 70000 81710 83617 88457=
41851,2023,07,02,00,00,AAXX 02004 41851 11340 80901 10266 20260 39961 40023 60014 79596 8492/ 333 56399 59005 70010 81708 83616 81930 88456=
41851,2023,07,02,03,00,AAXX 02034 41851 21340 80000 10275 20270 39977 40039 70596 8462/ 333 20266 56399 59004 70174 81710 83617 88457=
41851,2023,07,02,06,00,AAXX 02064 41851 11450 80000 10310 20260 39967 40028 60166 70296 8352/ 333 56999 59014 70174 83618 88458=
41851,2023,07,02,12,00,AAXX 02124 41851 32450 80000 10301 20270 39946 40008 8352/ 333 10330 56999 59007 70174 83618 88458=
41851,2023,07,02,18,00,AAXX 02184 41851 11350 80000 10275 20270 39967 40029 69974 76122 8462/ 333 56399 59008 70181 81708 83617 88457=
41851,2023,07,03,00,00,AAXX 03004 41851 11350 80000 10255 20250 39964 40027 60629 76166 8462/ 333 56999 58003 70791 81708 84616 88456=
41851,2023,07,03,06,00,AAXX 03064 41851 11450 80000 10281 20260 39979 40041 60016 70262 8462/ 333 56999 58012 70638 81709 84617 88457=
41851,2023,07,03,12,00,AAXX 03124 41851 11450 80901 10298 20270 39951 40013 60036 70262 8352/ 333 10298 56999 58005 70669 83618 88458=
41851,2023,07,03,18,00,AAXX 03184 41851 32450 80000 10270 20260 39976 40039 8352/ 333 56999 58009 70662 83618 88458=
41851,2023,07,04,00,00,AAXX 04004 41851 32350 80000 10266 20260 39963 40025 8462/ 333 56999 59001 70042 81709 84617 88458=
41851,2023,07,04,06,00,AAXX 04064 41851 11340 80000 10257 20257 39985 40048 60769 76362 8462/ 333 56399 58006 70791 81708 84616 88456=
41851,2023,07,04,12,00,AAXX 04124 41851 11450 40901 10288 20260 39942 40004 60076 70162 81510 333 10289 56990 59009 70830 81618 84458=
41851,2023,07,04,18,00,AAXX 04184 41851 32950 00000 10265 20260 39965 40027 333 59011 70830=
41851,2023,07,05,00,00,AAXX 05004 41851 32450 40000 10260 20260 39955 40018 81510 333 56990 59008 70830 81618 84458=
41851,2023,07,05,06,00,AAXX 05064 41851 11450 60000 10307 20260 39962 40023 60107 70296 82510 333 56990 59023 70174 82618 85458=
41851,2023,07,05,12,00,AAXX 05124 41851 11350 71802 10288 20270 39931 49993 69964 72162 83620 333 10344 56990 59011 70110 81709 83617 86457=
41851,2023,07,05,18,00,AAXX 05184 41851 32450 81801 10282 20260 39974 40036 8352/ 333 56999 59009 70110 83617 88457=
41851,2023,07,06,00,00,AAXX 06004 41851 32450 80000 10277 20270 39967 40029 8352/ 333 56999 58012 70110 83617 88457=
41851,2023,07,06,06,00,AAXX 06064 41851 32450 41804 10335 20270 39972 40033 82430 333 56990 58010 70006 81618 83362=
41851,2023,07,06,09,00,AAXX 06094 41851 32450 71505 10335 20270 39958 40019 83420 333 56990 58017 70006 82618 86458=
41851,2023,07,06,12,00,AAXX 06124 41851 32350 81803 10323 20250 39956 40017 8462/ 333 10344 56499 58025 70000 81709 83617 88457=
41851,2023,07,06,18,00,AAXX 06184 41851 32350 81802 10280 20260 39994 40056 8462/ 333 56999 58020 70000 81709 83617 88457=
41856,2023,06,30,00,00,AAXX 30004 41856 32440 80000 10260 20250 30001 40036 8452/ 333 56999 59008 70000 83618 88458=
41856,2023,06,30,06,00,AAXX 30064 41856 11450 81402 10255 20250 30011 40046 60439 76366 8452/ 333 56999 59014 70430 83618 88458=
41856,2023,06,30,12,00,AAXX 30124 41856 11450 81402 10278 20260 39978 40013 60016 70262 8452/ 333 10280 56999 59018 70440 83618 88458=
41856,2023,06,30,18,00,AAXX 30184 41856 32430 80000 10260 20250 30003 40038 8452/ 333 56999 59011 70440 83618 88458=
41856,2023,07,01,00,00,AAXX 01004 41856 32440 81402 10255 20250 39995 40030 8452/ 333 56999 59006 70440 83618 88458=
41856,2023,07,01,06,00,AAXX 01064 41856 32450 81401 10290 20250 30011 40046 8452/ 333 56999 58000 70010 83618 88458=
41856,2023,07,01,12,00,AAXX 01124 41856 32450 80000 10280 20250 39984 40019 8442/ 333 10295 56999 58006 70000 82618 88458=
41856,2023,07,01,18,00,AAXX 01184 41856 32440 71601 10268 20240 30010 40045 83520 333 56690 58007 70000 82618 86458=
41856,2023,07,02,00,00,AAXX 02004 41856 32440 81802 10264 20250 39987 40022 8662/ 333 56999 59008 70000 83618 88458=
41856,2023,07,02,03,00,AAXX 02034 41856 32450 80000 10280 20250 30004 40039 8452/ 333 20263 56999 59005 70000 82618 88458=
41856,2023,07,02,06,00,AAXX 02064 41856 32450 81601 10294 20260 39997 40032 8452/ 333 56999 59014 70000 82710 83618 88458=
41856,2023,07,02,12,00,AAXX 02124 41856 32450 71601 10274 20250 39977 40012 84520 333 10305 56990 59007 70000 82618 86458=
41856,2023,07,02,18,00,AAXX 02184 41856 32440 81402 10264 20250 30005 40040 8662/ 333 56999 59005 70000 82710 84618 88458=
41856,2023,07,03,00,00,AAXX 03004 41856 11440 80000 10254 20240 39991 40027 60167 72166 8662/ 333 56999 58004 70162 82710 84618 88458=
41856,2023,07,03,06,00,AAXX 03064 41856 32450 82301 10290 20260 30005 40040 8662/ 333 56999 58008 70162 84618 88458=
41856,2023,07,03,12,00,AAXX 03124 41856 11450 80901 10274 20260 39979 40014 60016 70262 8452/ 333 10304 56999 58002 70172 83618 88458=
41856,2023,07,03,18,00,AAXX 03184 41856 32440 80000 10265 20270 30001 40036 8452/ 333 56999 59004 70172 83618 88458=
41856,2023,07,04,00,00,AAXX 04004 41856 11440 80901 10263 20260 39990 40025 60047 72166 8662/ 333 56999 59001 70048 82710 83618 88458=
41856,2023,07,04,06,00,AAXX 04064 41856 11450 80902 10265 20260 30008 40043 60025 70262 8662/ 333 56999 58003 70068 82710 83618 88458=
41856,2023,07,04,12,00,AAXX 04124 41856 32450 30901 10292 20260 39966 40001 82430 333 10300 56990 59013 70058 81618 83362=
41856,2023,07,04,18,00,AAXX 04184 41856 32930 20000 10265 20260 39991 40026 82030 333 56090 59010 70058 82362=
41856,2023,07,05,00,00,AAXX 05004 41856 32440 60000 10256 20256 39976 40011 83520 333 56990 59014 70020 83618 86458=
41856,2023,07,05,06,00,AAXX 05064 41856 32450 62301 10330 20270 39984 40019 85420 333 56990 59024 70000 82618 84825 86458=
41856,2023,07,05,12,00,AAXX 05124 41856 11450 40000 10290 20270 39958 49993 60274 70162 82530 333 10340 56990 59008 70268 82618 84362=
41856,2023,07,05,18,00,AAXX 05184 41856 32430 60000 10272 20270 39999 40034 83520 333 56990 59008 70268 83618 86458=
41856,2023,07,06,00,00,AAXX 06004 41856 32440 51302 10270 20260 39992 40027 82520 333 56990 58016 70268 82618 85458=
41856,2023,07,06,06,00,AAXX 06064 41856 32450 60903 10315 20260 30001 40036 85420 333 56490 58017 70268 83618 85825 86458=
41856,2023,07,06,09,00,AAXX 06094 41856 32450 60902 10325 20260 39987 40023 85420 333 56490 59020 70000 83618 85825 86458=
41856,2023,07,06,12,00,AAXX 06124 41856 11450 60902 10284 20250 39983 40018 60114 70262 85420 333 10330 56490 58025 70110 83618 85825 86458=
41856,2023,07,06,18,00,AAXX 06184 41856 32430 30000 10265 20250 30021 40056 82430 333 56990 58022 70110 81618 83362=
41858,2023,06,30,00,00,AAXX 30004 41858 21415 80908 10270 20260 39991 40036 71062 8452/ 333 59012 60057 70050 84615 88458==
41858,2023,06,30,01,00,AAXX 30014 41858 01415 80908 10270 20260 39991 40036 71062 8452/ 333 59012 70050 84615 88458==
41858,2023,06,30,03,00,AAXX 30034 41858 01330 81812 10280 20260 30003 40048 76122 8572/ 333 20260 59012 70080 83708 85614 88458==
41858,2023,06,30,06,00,AAXX 30064 41858 21335 82105 10264 20250 30002 40048 79196 8572/ 333 59010 60197 70240 83708 85615 88458==
41858,2023,06,30,09,00,AAXX 30094 41858 01440 81204 10292 20260 39973 40018 70562 8452/ 333 59010 70250 84615 88458==
41858,2023,06,30,12,00,AAXX 30124 41858 01440 80000 10276 20260 39967 40012 70562 8452/ 333 10292 59022 70250 84616 88458==
41858,2023,06,30,15,00,AAXX 30154 41858 01440 81205 10280 20260 39983 40028 70522 8452/ 333 59022 70250 84615 88458==
41858,2023,06,30,18,00,AAXX 30184 41858 01440 81305 10274 20250 39995 40040 70522 8452/ 333 59021 70250 84615 88459==
41858,2023,06,30,21,00,AAXX 30214 41858 01440 80000 10262 20240 39978 40024 70522 8452/ 333 59034 70250 84615 88458==
41858,2023,07,01,00,00,AAXX 01004 41858 01430 80000 10266 20250 39983 40028 75122 8452/ 333 59008 70002 84615 88458==
41858,2023,07,01,03,00,AAXX 01034 41858 01430 80904 10270 20260 30003 40048 76196 8452/ 333 20250 58000 70272 84615 88458==
41858,2023,07,01,06,00,AAXX 01064 41858 21440 80000 10288 20250 30001 40046 70596 8452/ 333 59001 60105 70112 84615 88458==
41858,2023,07,01,09,00,AAXX 01094 41858 01440 80905 10300 20260 39979 40023 70522 8452/ 333 58006 70102 84616 88458==
41858,2023,07,01,12,00,AAXX 01124 41858 01440 60904 10304 20260 39971 40015 70522 84520 333 10306 58004 70102 84618 86458==
41858,2023,07,01,15,00,AAXX 01154 41858 01440 40000 10290 20270 39994 40039 70522 83520 333 58011 70102 83625 84458==
41858,2023,07,01,18,00,AAXX 01184 41858 41440 80904 10278 20260 30001 40046 70522 8452/ 333 58006 84618 88458==
41858,2023,07,02,00,00,AAXX 02004 41858 01425 81805 10280 20260 39978 40023 71022 8452/ 333 59005 70100 84616 88458==
41858,2023,07,02,03,00,AAXX 02034 41858 01440 81805 10290 20260 39994 40039 70522 8452/ 333 20268 59009 70000 84615 88458==
41858,2023,07,02,06,00,AAXX 02064 41858 01450 82105 10316 20270 39988 40032 70522 8452/ 333 59013 70000 84615 88458==
41858,2023,07,02,09,00,AAXX 02094 41858 01450 81506 10322 20260 39966 40010 70522 8452/ 333 59013 70000 84616 88458==
41858,2023,07,02,12,00,AAXX 02124 41858 01430 81505 10302 20270 39964 40008 70522 8452/ 333 10326 59007 70000 84616 88458==
41858,2023,07,02,15,00,AAXX 02154 41858 01430 61205 10290 20270 39987 40032 70522 84520 333 59007 70000 84616 86458==
41858,2023,07,02,18,00,AAXX 02184 41858 01430 60905 10280 20260 39992 40037 70522 84520 333 59009 70000 83616 86458==
41858,2023,07,02,21,00,AAXX 02214 41858 01415 81204 10274 20250 39987 40032 76562 8452/ 333 58005 70106 84615 88458==
41858,2023,07,03,00,00,AAXX 03004 41858 21415 80904 10270 20260 39984 40029 76366 8452/ 333 58006 60259 70250 84615 88458==
41858,2023,07,03,03,00,AAXX 03034 41858 01425 81805 10274 20260 39998 40043 79596 8532/ 333 20260 58004 70300 84615 88458 82930==
41858,2023,07,03,06,00,AAXX 03064 41858 01440 81805 10288 20270 39998 40043 76196 8452/ 333 58010 70316 84615 88458==
41858,2023,07,03,09,00,AAXX 03094 41858 01450 81205 10302 20270 39981 40025 70561 8452/ 333 58015 70316 84616 88458==
41858,2023,07,03,12,00,AAXX 03124 41858 01440 81505 10300 20270 39973 40017 70522 8452/ 333 10305 58009 70316 84618 88458==
41858,2023,07,03,15,00,AAXX 03154 41858 01540 41506 10285 20270 39989 40034 70522 82140 333 58002 70315 82825 83362==
41858,2023,07,03,18,00,AAXX 03184 41858 01540 41505 10275 20260 39989 40040 70522 82140 333 58003 70316 82825 83362==
41858,2023,07,04,03,00,AAXX 04034 41858 01320 80904 10280 20260 39991 40036 71022 8572/ 333 20260 59007 70058 83708 85614 88458==
41858,2023,07,04,06,00,AAXX 04064 41858 01425 80606 10290 20270 39999 40044 71062 8452/ 333 58001 70010 84614 88458==
41858,2023,07,04,09,00,AAXX 04094 41858 01450 80905 10290 20270 39974 40019 70562 8452/ 333 59007 70268 84615 88458==
41858,2023,07,04,12,00,AAXX 04124 41858 01450 50305 10296 20270 39959 40004 70562 82530 333 10298 59014 70220 82615 84362==
41858,2023,07,04,15,00,AAXX 04154 41858 01/40 40000 10278 20260 39982 40027 70522 84030 333 59007 70268 84362==
41858,2023,07,04,18,00,AAXX 04184 41858 01/40 40000 10270 20250 39990 40035 70522 84030 333 59005 70268 84362==
41858,2023,07,04,21,00,AAXX 04214 41858 01430 80000 10272 20260 39970 40015 70522 8452/ 333 59016 70248 84615 88458==
41858,2023,07,05,00,00,AAXX 05004 41858 01420 80000 10276 20270 39973 40018 71022 8452/ 333 59007 70226 84615 88458==
41858,2023,07,05,03,00,AAXX 05034 41858 01450 51805 10310 20270 39982 40028 70522 83520 333 20260 59009 70226 83615 85459==
41858,2023,07,05,06,00,AAXX 05064 41858 NIL=
41858,2023,07,05,09,00,AAXX 05094 41858 01450 83605 10266 20260 39969 40014 79562 8532/ 333 59005 70650 84615 88458 82930==
41858,2023,07,05,12,00,AAXX 05124 41858 21440 70000 10276 20270 39950 49995 70596 84520 333 10340 59009 60668 70656 84615 86458==
41858,2023,07,05,15,00,AAXX 05154 41858 01430 60000 10274 20260 39976 40021 70562 84520 333 59006 70656 84616 86458==
41858,2023,07,05,18,00,AAXX 05184 41858 01/30 40000 10270 20260 39993 40038 70522 84030 333 58003 70656 84362==
41858,2023,07,05,21,00,AAXX 05214 41858 01430 60000 10270 20260 39987 40031 70522 84520 333 58017 70656 84616 86458==
41858,2023,07,06,00,00,AAXX 06004 41858 01430 80000 10275 20270 39982 40027 70522 8452/ 333 58009 70656 84616 88458==
41858,2023,07,06,03,00,AAXX 06034 41858 01450 71308 10302 20260 39996 40041 70522 84420 333 20260 58014 70656 83615 85458==
41858,2023,07,06,06,00,AAXX 06064 41858 01450 51208 10336 20260 39989 40033 70522 85400 333 58012 70656 83618 83825==
41858,2023,07,06,09,00,AAXX 06094 41858 01450 61515 10340 20260 39975 40019 70522 84520 333 58006 70006 84618 83825==
41858,2023,07,06,12,00,AAXX 06124 41858 01/50 51506 10324 20250 39971 40015 70522 83020 333 10345 58021 70000 85458==
41858,2023,07,06,15,00,AAXX 06154 41858 01440 81508 10290 20250 30004 40049 70522 8452/ 333 58028 70000 84615 88458==
41858,2023,07,06,18,00,AAXX 06184 41858 01440 81506 10280 30013 40058 70522 8452/ 333 58020 70000 84615 88458==
41858,2023,07,06,21,00,AAXX 06214 41858 01440 80906 10280 20260 30007 40049 70522 8452/ 333 58020 70000 84615 88458==
41859,2023,06,30,00,00,AAXX 30004 41859 21440 80902 10266 20260 39997 40034 70262 8562/ 333 59013 60037 70050 82710 84618 88458==
41859,2023,06,30,03,00,AAXX 30034 41859 02450 81302 10293 20270 30009 40046 8562/ 333 20262 59015 70044 82710 84618 88458==
41859,2023,06,30,06,00,AAXX 30064 41859 21340 80000 10258 20258 30009 40046 76596 8672/ 333 59011 60447 70470 83708 85616 88456==
41859,2023,06,30,09,00,AAXX 30094 41859 01450 80000 10295 20260 39983 40020 70266 8462/ 333 59013 70476 81710 84618 88458==
41859,2023,06,30,12,00,AAXX 30124 41859 11450 80000 10292 20260 39975 40012 60016 70262 8462/ 333 10300 59021 70476 82710 84618 88458==
41859,2023,06,30,15,00,AAXX 30154 41859 02430 81302 10280 20260 39994 40031 8562/ 333 59020 70476 82710 84618 88458==
41859,2023,06,30,18,00,AAXX 30184 41859 02430 71302 10274 20250 30001 40038 84620 333 59014 70476 82710 83618 87458==
41859,2023,06,30,21,00,AAXX 30214 41859 02430 81302 10268 20260 39997 40034 8562/ 333 59008 70476 83710 85618 88458==
41859,2023,07,01,00,00,AAXX 01004 41859 02440 80000 10262 20250 39991 40028 8562/ 333 59006 70446 83710 85618 88458==
41859,2023,07,01,03,00,AAXX 01034 41859 01350 80000 10261 20260 30008 40045 76196 8572/ 333 20258 59001 70578 83708 85616 88457==
41859,2023,07,01,06,00,AAXX 01064 41859 21350 80000 10273 20260 30009 40047 76196 8572/ 333 58000 60159 70155 83708 85616 88457==
41859,2023,07,01,09,00,AAXX 01094 41859 01450 80000 10302 20260 39988 40025 72166 8462/ 333 58005 70155 81710 84618 88458==
41859,2023,07,01,12,00,AAXX 01124 41859 21450 80000 10295 20270 39983 40020 70262 8462/ 333 10305 58008 60018 70155 82710 84618 88458==
41859,2023,07,01,15,00,AAXX 01154 41859 01430 80902 10280 20270 30004 40041 70262 8562/ 333 58010 70157 82710 84618 88458==
41859,2023,07,01,18,00,AAXX 01184 41859 11430 80000 10272 20260 30005 40042 69926 70262 8562/ 333 58004 70157 82710 84618 88458==
41859,2023,07,01,21,00,AAXX 01214 41859 02430 80000 10268 20260 39998 40035 8562/ 333 58001 70157 82710 84618 88458==
41859,2023,07,02,00,00,AAXX 02004 41859 02440 80000 10270 20260 39988 40025 8562/ 333 59003 70157 82710 84618 88458==
41859,2023,07,02,03,00,AAXX 02034 41859 02450 80000 10289 20260 30002 40039 8562/ 333 20264 59006 70025 82710 84618 88458==
41859,2023,07,02,06,00,AAXX 02064 41859 02450 80000 10306 20270 39998 40034 8562/ 333 59011 70012 82710 84618 88458==
41859,2023,07,02,09,00,AAXX 02094 41859 02450 80000 10289 20270 39978 40015 8562/ 333 59010 70002 82710 84618 88458==
41859,2023,07,02,12,00,AAXX 02124 41859 02450 81302 10287 20270 39974 40011 8562/ 333 10307 59009 70002 82710 84618 88458==
41859,2023,07,02,15,00,AAXX 02154 41859 02430 80000 10275 20260 30000 40037 8562/ 333 59004 70000 82710 84618 88458==
41859,2023,07,02,18,00,AAXX 02184 41859 02430 80000 10275 20260 39994 40031 8562/ 333 59011 70000 82710 84618 88458==
41859,2023,07,02,21,00,AAXX 02214 41859 01330 80000 10261 20250 39989 40026 79592 8592/ 333 59009 70140 83708 84616 88458 81930==
41859,2023,07,03,00,00,AAXX 03004 41859 21330 80000 10255 20250 39991 40028 79596 8592/ 333 58003 60237 70230 83709 84617 88458 81930==
41859,2023,07,03,03,00,AAXX 03034 41859 01350 80000 10269 20260 30006 40043 76196 8572/ 333 20253 58004 70273 83708 84616 88456==
41859,2023,07,03,06,00,AAXX 03064 41859 21350 80000 10280 20270 30007 40044 76196 8572/ 333 58009 60069 70286 83708 84616 88456==
41859,2023,07,03,09,00,AAXX 03094 41859 01450 61302 10290 20280 39988 40025 70162 84430 333 58010 70320 82618 83828 86362==
41859,2023,07,03,12,00,AAXX 03124 41859 11450 80000 10295 20270 39976 40012 60036 70362 8561/ 333 10305 58002 70320 82710 84618 88458==
41859,2023,07,03,15,00,AAXX 03154 41859 02430 80000 10277 20260 39999 40036 8562/ 333 59001 70320 82710 84618 88458==
41859,2023,07,03,18,00,AAXX 03184 41859 02430 80000 10271 20260 30000 40037 8562/ 333 58006 70320 82710 84618 88458==
41859,2023,07,03,21,00,AAXX 03214 41859 02430 80000 10271 20260 39993 40030 8562/ 333 58004 70180 82710 84618 88458==
41859,2023,07,04,00,00,AAXX 04004 41859 02440 80000 10271 20250 39987 40024 8562/ 333 59004 70090 82710 84618 88458==
41859,2023,07,04,03,00,AAXX 04034 41859 02440 80000 10280 20260 39999 40036 8562/ 333 20255 59007 70047 83710 84618 88458==
41859,2023,07,04,06,00,AAXX 04064 41859 01340 80502 10285 20270 30008 40045 76122 8672/ 333 58001 70020 84708 85616 88456==
41859,2023,07,04,09,00,AAXX 04094 41859 01450 80501 10288 20270 39982 40019 70262 8562/ 333 59006 70070 83710 84618 88458==
41859,2023,07,04,12,00,AAXX 04124 41859 11450 70502 10300 20270 39965 40001 60056 70162 84620 333 10302 59011 70070 82710 83618 87458==
41859,2023,07,04,15,00,AAXX 04154 41859 02430 70000 10283 20270 39989 40026 84620 333 59010 70070 82710 83618 87458==
41859,2023,07,04,18,00,AAXX 04184 41859 02430 80000 10275 20275 39990 40027 8561/ 333 59010 70070 82710 83618 88458==
41859,2023,07,04,21,00,AAXX 04214 41859 02430 80000 10271 20270 39983 40020 8561/ 333 59010 70070 82710 84618 88458==
41859,2023,07,05,00,00,AAXX 05004 41859 02440 80000 10267 20267 39977 40014 8562/ 333 59010 70070 82710 84618 88458==
41859,2023,07,05,03,00,AAXX 05034 41859 02450 70000 10301 20270 39991 40028 84620 333 20265 59008 70070 82710 83618 87458==
41859,2023,07,05,06,00,AAXX 05064 41859 02450 70000 10331 20270 39982 40018 84620 333 59026 70050 82710 83618 87458==
41859,2023,07,05,09,00,AAXX 05094 41859 01440 80000 10300 20260 39972 40008 71792 8632/ 333 59010 70000 83710 84618 88458 81930==
41859,2023,07,05,12,00,AAXX 05124 41859 01440 80000 10294 20260 39958 49995 70292 8562/ 333 10338 59007 70000 83710 84618 88458==
41859,2023,07,05,15,00,AAXX 05154 41859 02430 53602 10288 20280 39985 40022 82530 333 59004 70000 82618 85362==
41859,2023,07,05,18,00,AAXX 05184 41859 02430 60000 10285 20280 39997 40034 84630 333 58007 70000 82710 83618 86362==
41859,2023,07,05,21,00,AAXX 05214 41859 02430 61302 10284 20270 39997 40034 84630 333 58014 70000 82710 83618 86362==
41859,2023,07,06,00,00,AAXX 06004 41859 02440 61301 10280 20270 39991 40028 84630 333 58014 70000 82710 84618 86362==
41859,2023,07,06,03,00,AAXX 06034 41859 02450 61302 10306 20260 30005 40041 84630 333 20275 58014 70000 82710 83618 86362==
41859,2023,07,06,06,00,AAXX 06064 41859 02450 60902 10325 20270 39999 40035 84630 333 58008 70008 82710 83618 86362==
41859,2023,07,06,09,00,AAXX 06094 41859 02450 61302 10322 20260 39985 40021 84630 333 58013 70000 82710 83618 86362==
41859,2023,07,06,12,00,AAXX 06124 41859 02450 81302 10314 20250 39984 40020 8562/ 333 10336 58026 70000 83710 84618 88458==
41859,2023,07,06,15,00,AAXX 06154 41859 02430 51302 10285 20260 30014 40051 82530 333 58029 70000 82618 84362==
41859,2023,07,06,18,00,AAXX 06184 41859 02430 81302 10279 20260 30020 40057 8562/ 333 58023 70000 83710 84618 88458==
41859,2023,07,06,21,00,AAXX 06214 41859 32435 81302 10277 20260 30009 40046 8562/ 333 56299 58018 70000 83710 84618 88458=
41863,2023,06,30,00,00,AAXX 30004 41863 11440 81803 10270 20260 39992 40035 60036 70262 8552/ 333 59010 70468 85617 88458==
41863,2023,06,30,03,00,AAXX 30034 41863 01340 80901 10262 20250 30001 40044 79596 8592/ 333 20255 59011 70928 83708 84614 88457 81930==
41863,2023,06,30,06,00,AAXX 30064 41863 21340 82703 10262 20260 30002 40045 76196 8572/ 333 59005 60579 71012 83708 84614 88457==
41863,2023,06,30,09,00,AAXX 30094 41863 01456 73602 10288 20260 39974 40016 71262 84510 333 59008 71023 84618 87458==
41863,2023,06,30,12,00,AAXX 30124 41863 11456 80000 10292 20270 39968 40010 60016 70362 8552/ 333 10292 59024 70669 85618 88458==
41863,2023,06,30,15,00,AAXX 30154 41863 02450 81301 10275 20260 39987 40029 8562/ 333 59017 70619 85618 88458==
41863,2023,06,30,18,00,AAXX 30184 41863 02450 81301 10263 20240 39995 40038 8552/ 333 59009 70619 85618 88458==
41863,2023,06,30,21,00,AAXX 30214 41863 02450 81301 10262 20240 39972 40014 8552/ 333 59023 70585 85618 88458==
41863,2023,07,01,00,00,AAXX 01004 41863 01340 81301 10261 20250 39982 40025 72196 8562/ 333 59010 70030 82708 84614 88458==
41863,2023,07,01,03,00,AAXX 01034 41863 01350 81301 10265 20260 30001 40044 72196 8562/ 333 20253 58000 70173 82707 84614 88456==
41863,2023,07,01,06,00,AAXX 01064 41863 01356 81301 10283 20260 30030 40045 70296 8552/ 333 58001 70085 82708 84614 88458==
41863,2023,07,01,09,00,AAXX 01094 41863 02456 61303 10310 20260 39980 40022 83520 333 58006 70074 83618 86458==
41863,2023,07,01,12,00,AAXX 01124 41863 02456 60903 10311 20270 39971 40013 83520 333 10319 58003 70074 83618 86458==
41863,2023,07,01,15,00,AAXX 01154 41863 02450 80000 10290 20270 39993 40035 8552/ 333 58006 70074 85618 88458==
41863,2023,07,01,18,00,AAXX 01184 41863 02450 80000 10288 20280 39999 40041 8452/ 333 58004 70074 84618 88458==
41863,2023,07,01,21,00,AAXX 01214 41863 02450 80903 10286 20280 39999 40041 8352/ 333 58027 70046 83618 88458==
41863,2023,07,02,00,00,AAXX 02004 41863 02450 81302 10275 20270 39979 40021 8452/ 333 59003 70046 84618 88458==
41863,2023,07,02,03,00,AAXX 02034 41863 NIL=
41863,2023,07,02,06,00,AAXX 02064 41863 02457 80902 10302 20270 39989 40031 8552/ 333 59014 70000 85618 88458==
41863,2023,07,02,09,00,AAXX 02094 41863 02457 81301 10330 20260 39964 40005 8552/ 333 59016 70000 85618 88458==
41863,2023,07,02,12,00,AAXX 02124 41863 02456 81302 10305 20280 39964 40006 8552/ 333 10330 59007 70000 85618 88458==
41863,2023,07,02,15,00,AAXX 02154 41863 02450 80901 10292 20280 39988 40030 8552/ 333 59005 70000 85618 88458==
41863,2023,07,02,18,00,AAXX 02184 41863 02450 81302 10281 20270 39988 40030 8552/ 333 59011 70000 85618 88458==
41863,2023,07,02,21,00,AAXX 02214 41863 01340 81301 10264 20250 39988 40031 79596 8692/ 333 59007 70306 83708 85615 88456 82925==
41863,2023,07,03,00,00,AAXX 03004 41863 21450 81301 10266 20260 39983 40026 70296 8552/ 333 58004 60509 70502 85618 88458==
41863,2023,07,03,03,00,AAXX 03034 41863 01456 80901 10270 20260 39998 40041 70296 8552/ 333 20255 58006 70574 85618 88458==
41863,2023,07,03,06,00,AAXX 03064 41863 01457 82302 10280 20260 39998 40040 70296 8662/ 333 58009 70612 84710 85616 88457==
41863,2023,07,03,09,00,AAXX 03094 41863 02456 80901 10291 20260 39981 40023 8552/ 333 70612 85616 88458==
41863,2023,07,03,12,00,AAXX 03124 41863 02456 81801 10291 20270 39973 40015 8552/ 333 10294 58009 70612 85617 88458==
41863,2023,07,03,15,00,AAXX 03154 41863 02/50 41802 10280 20260 39991 40033 84030 333 58003 70612 84362==
41863,2023,07,03,18,00,AAXX 03184 41863 02450 81701 10275 20270 39993 40035 8452/ 333 58005 70612 84618 88458==
41863,2023,07,03,21,00,AAXX 03214 41863 02450 80901 10272 20260 39983 40026 8452/ 333 59005 70306 84618 88458==
41863,2023,07,04,00,00,AAXX 04004 41863 21440 80902 10275 20270 39980 40022 70262 8552/ 333 59003 60015 70120 85617 88458==
41863,2023,07,04,03,00,AAXX 04034 41863 02450 81302 10293 20270 39991 40033 8452/ 333 20261 59007 70048 84618 88458==
41863,2023,07,04,06,00,AAXX 04064 41863 02457 83602 10303 20270 39999 40041 8452/ 333 58001 70010 84618 88458==
41863,2023,07,04,09,00,AAXX 04094 41863 02457 71304 10318 20260 39972 40014 84510 333 59009 70010 84618 87458==
41863,2023,07,04,12,00,AAXX 04124 41863 02457 50502 10295 20270 39960 40002 83520 333 10320 59013 70010 83618 85458==
41863,2023,07,04,15,00,AAXX 04154 41863 02450 50000 10282 20270 39984 40026 83520 333 59007 70010 83618 85458==
41863,2023,07,04,18,00,AAXX 04184 41863 02450 50902 10279 20270 39982 40024 83520 333 59011 70010 83618 85458==
41863,2023,07,04,21,00,AAXX 04214 41863 02450 50902 10277 20270 39979 40021 83520 333 59004 70010 83618 85458==
41863,2023,07,05,00,00,AAXX 05004 41863 02450 50901 10275 20270 39972 40014 83520 333 59008 70000 83618 85458==
41863,2023,07,05,03,00,AAXX 05034 41863 02456 51303 10300 20270 39983 40025 83520 333 20270 59008 70000 83618 85458==
41863,2023,07,05,06,00,AAXX 05064 41863 02457 50903 10340 20270 39977 40018 85400 333 59022 70000 83618 85828==
41863,2023,07,05,09,00,AAXX 05094 41863 01356 81101 10287 20270 39966 40008 72122 8562/ 333 59006 70098 82708 84614 88456==
41863,2023,07,05,12,00,AAXX 05124 41863 21456 81301 10289 20280 39951 49993 70262 8552/ 333 10349 59009 60105 70098 85618 88458==
41863,2023,07,05,15,00,AAXX 05154 41863 02450 81301 10283 20270 39974 40016 8552/ 333 59010 70098 85618 88458==
41863,2023,07,05,18,00,AAXX 05184 41863 02450 50901 10280 20270 39988 40030 83520 333 58006 70098 83618 85458==
41863,2023,07,05,21,00,AAXX 05214 41863 02450 50901 10279 20270 39985 40027 83520 333 58006 70098 83618 85458==
41863,2023,07,06,00,00,AAXX 06004 41863 02456 50701 10279 20270 39983 40025 83520 333 58011 70098 83618 85458==
41863,2023,07,06,03,00,AAXX 06034 41863 02456 50904 10298 20260 39995 40037 83520 333 20273 58012 70098 83618 85458==
41863,2023,07,06,06,00,AAXX 06064 41863 02456 51303 10320 20270 39989 40031 85400 333 58012 70098 83618 85828==
41863,2023,07,06,09,00,AAXX 06094 41863 01456 61302 10300 20280 39978 40020 72162 84520 333 58012 70018 84618 88458==
41863,2023,07,06,12,00,AAXX 06124 41863 21456 51804 10291 20250 39971 40013 70162 83520 333 10340 58020 60028 70018 83618 84458==
41863,2023,07,06,15,00,AAXX 06154 41863 02450 30902 10290 20260 30004 40046 83500 333 58030 70180 83618==
41863,2023,07,06,18,00,AAXX 06184 41863 02450 30902 10287 20270 30010 40052 83600 333 58022 70018 83710==
41863,2023,07,06,21,00,AAXX 06214 41863 02550 30903 10285 20270 30005 40047 83400 333 58020 70018 83620==
41881,2023,06,30,00,00,AAXX 30004 41881 32450 80000 10265 20260 30003 40023 8552/ 333 56499 59022 70010 85615 88458=
41881,2023,06,30,06,00,AAXX 30064 41881 11456 71301 10294 20260 30024 40043 60026 70162 84520 333 56390 59008 70220 84617 87459=
41881,2023,06,30,12,00,AAXX 30124 41881 11440 80000 10250 20240 39992 40012 6002/ 76162 8592/ 333 10300 56199 59020 70275 84615 82928 88458=
41881,2023,06,30,18,00,AAXX 30184 41881 32440 80000 10250 20250 30004 40024 8552/ 333 56499 59010 70275 85615 88458=
41881,2023,07,01,00,00,AAXX 01004 41881 11440 80000 10252 20250 30009 40029 60269 79596 8592/ 333 56199 58006 70815 84615 82928 88458=
41881,2023,07,01,06,00,AAXX 01064 41881 11450 80000 10290 20270 30023 40043 60158 70262 8552/ 333 56499 59001 70755 85615 88458=
41881,2023,07,01,12,00,AAXX 01124 41881 32456 71303 10298 20270 39994 40014 85420 333 10330 56390 58002 70690 84617 87459=
41881,2023,07,01,18,00,AAXX 01184 41881 32450 61401 10270 20260 30020 40040 83520 333 56290 58016 70690 83618 86459=
41881,2023,07,02,00,00,AAXX 02004 41881 32450 60000 10269 20260 30003 40023 83520 333 56290 59006 70150 83618 86459=
41881,2023,07,02,03,00,AAXX 02034 41881 32450 80000 10280 20260 30019 40039 8552/ 333 20265 56499 59007 70000 85615 88458=
41881,2023,07,02,06,00,AAXX 02064 41881 32450 82201 10300 20280 30011 40031 8552/ 333 56499 59012 70000 85615 88458=
41881,2023,07,02,12,00,AAXX 02124 41881 32456 81401 10288 20250 39985 40005 84520 333 10320 56390 59009 70000 84617 87459=
41881,2023,07,02,18,00,AAXX 02184 41881 32440 81301 10272 20260 30009 40029 8552/ 333 56499 59011 70000 85615 88458=
41881,2023,07,03,00,00,AAXX 03004 41881 11440 80000 10273 20270 30005 40025 60027 70262 8552/ 333 56499 58002 70017 85615 88458=
41881,2023,07,03,06,00,AAXX 03064 41881 11450 80502 10260 20250 30024 40044 60239 79596 8592/ 333 56299 58013 70247 84708 85614 82928 88458=
41881,2023,07,03,12,00,AAXX 03124 41881 11456 80901 10274 20250 30996 40016 60066 70222 8552/ 333 10280 56499 58011 70302 85615 88458=
41881,2023,07,03,18,00,AAXX 03184 41881 32450 60901 10262 20260 30016 40036 83520 333 56290 58007 70302 83618 86459=
41881,2023,07,04,00,00,AAXX 04004 41881 32456 61601 10265 20265 30001 40021 83520 333 56990 59004 70285 83615 86458=
41881,2023,07,04,06,00,AAXX 04064 41881 32457 80902 10324 20270 30015 40035 8552/ 333 56999 59009 70055 85616 88459=
41881,2023,07,04,12,00,AAXX 04124 41881 32457 60901 10307 20280 39976 49996 83520 333 10332 56990 59020 70000 83616 86459=
41881,2023,07,04,18,00,AAXX 04184 41881 32450 30000 10280 20270 30001 40021 83520 333 56900 59015 70000 83620=
41881,2023,07,05,00,00,AAXX 05004 41881 32456 50901 10275 20270 39992 40012 83520 333 56990 59009 70000 83616 85459=
41881,2023,07,05,06,00,AAXX 05064 41881 11457 61402 10290 20270 39997 40017 60024 72162 83520 333 56990 59018 70016 83615 86458=
41881,2023,07,05,12,00,AAXX 05124 41881 32457 51401 10306 20290 39968 49988 83520 333 10335 56990 59008 70016 83620 85460=
41881,2023,07,05,18,00,AAXX 05184 41881 32450 60901 10286 20280 30004 40024 83520 333 56990 58003 70016 83616 86459=
41881,2023,07,06,00,00,AAXX 06004 41881 32456 80502 10276 20260 30000 40020 8552/ 333 56999 58008 70016 85616 88459=
41881,2023,07,06,06,00,AAXX 06064 41881 11458 71205 10315 20270 30007 40027 60014 70162 84520 333 56390 58010 70010 84615 87458=
41881,2023,07,06,09,00,AAXX 06094 41881 32458 61206 10295 20270 39994 40014 83520 333 56390 58016 70010 83615 86458=
41881,2023,07,06,12,00,AAXX 06124 41881 11456 81701 10270 20260 39995 40015 60284 72996 8552/ 333 10338 56399 58027 70291 85615 88458=
41883,2023,06,30,00,00,AAXX 30004 41883 02350 81302 10272 20260 30010 40030 8562/ 333 59015 70030 85709 88458==
41883,2023,06,30,03,00,AAXX 30034 41883 02450 80902 10292 20260 30028 40048 8452/ 333 20255 59011 70030 84618 88458==
41883,2023,06,30,06,00,AAXX 30064 41883 01350 80000 10276 20260 30025 40045 76162 8572/ 333 59010 70050 83708 84615 88456==
41883,2023,06,30,09,00,AAXX 30094 41883 01350 80902 10274 20260 30005 40025 79596 8532/ 333 59017 70132 85709 88458 81930==
41883,2023,06,30,12,00,AAXX 30124 41883 21350 80902 10262 20250 39994 40014 76196 8572/ 333 10298 59021 60119 70162 85709 88458==
41883,2023,06,30,15,00,AAXX 30154 41883 01330 81302 10260 20250 30012 40032 72166 8562/ 333 59013 70180 85709 88458==
41883,2023,06,30,18,00,AAXX 30184 41883 11430 81304 10258 20250 30017 40037 60026 70262 8552/ 333 59014 70180 85616 88459==
41883,2023,06,30,21,00,AAXX 30214 41883 02330 81804 10260 20250 30001 40022 8562/ 333 59009 70180 85709 88458==
41883,2023,07,01,00,00,AAXX 01004 41883 02350 80000 10262 20250 30011 40031 8562/ 333 58001 70180 85709 88458==
41883,2023,07,01,03,00,AAXX 01034 41883 02450 80902 10280 20260 30026 40046 8562/ 333 20254 59002 70180 83710 84618 88458==
41883,2023,07,01,06,00,AAXX 01064 41883 21350 80000 10280 20270 30025 40045 76196 8572/ 333 58000 60117 70238 83709 84615 88456==
41883,2023,07,01,09,00,AAXX 01094 41883 01456 71802 10315 20270 30005 40025 70162 84430 333 58008 70168 82616 83828 87362==
41883,2023,07,01,12,00,AAXX 01124 41883 11456 61802 10305 20270 30000 40020 69926 70162 82530 333 10320 58006 70130 82616 86362==
41883,2023,07,01,15,00,AAXX 01154 41883 02430 80000 10278 20260 30020 40040 8452/ 333 58008 70112 84618 88458==
41883,2023,07,01,18,00,AAXX 01184 41883 02430 80902 10272 20260 30022 40042 8562/ 333 58005 70112 82710 84618 88458==
41883,2023,07,01,21,00,AAXX 01214 41883 02430 80000 10270 20260 30007 40027 8562/ 333 58005 70112 82710 84618 88458==
41883,2023,07,02,00,00,AAXX 02004 41883 02450 80000 10272 20260 30007 40027 8562/ 333 59004 70112 83710 84616 88456==
41883,2023,07,02,03,00,AAXX 02034 41883 02356 81804 10285 20270 30020 40040 8562/ 333 20265 59006 70112 85710 88458==
41883,2023,07,02,06,00,AAXX 02064 41883 02356 80000 10316 20280 30011 40031 8562/ 333 59014 70002 85710 88458==
41883,2023,07,02,09,00,AAXX 02094 41883 01350 80902 10304 20280 39989 40009 79596 8532/ 333 59016 70014 85709 88458 81930==
41883,2023,07,02,12,00,AAXX 02124 41883 01350 80000 10278 20260 39999 40019 70296 8562/ 333 10318 59001 70020 85709 88458==
41883,2023,07,02,15,00,AAXX 02154 41883 02430 80902 10274 20260 30011 40031 8552/ 333 59009 70020 85616 88459==
41883,2023,07,02,18,00,AAXX 02184 41883 01330 81304 10272 20260 30020 40040 79562 8592/ 333 59002 70140 85709 88458 82930==
41883,2023,07,02,21,00,AAXX 02214 41883 01330 81302 10270 20260 30003 40023 76196 8572/ 333 59004 70456 85709 88458==
41883,2023,07,03,00,00,AAXX 03004 41883 21350 81302 10270 20270 30010 40030 70296 8562/ 333 58003 60309 70458 85709 88459==
41883,2023,07,03,03,00,AAXX 03034 41883 02356 81802 10298 20290 30023 40043 8562/ 333 20256 58003 70458 85709 88458==
41883,2023,07,03,06,00,AAXX 03064 41883 02356 82703 10288 20270 30020 40040 8562/ 333 58009 70458 85709 88458==
41883,2023,07,03,09,00,AAXX 03094 41883 01356 80000 10273 20260 30000 40020 76196 8572/ 333 58011 70538 85709 88458==
41883,2023,07,03,12,00,AAXX 03124 41883 21350 80000 10275 20260 39996 40016 70296 8562/ 333 10322 59003 60098 70532 85709 88458==
41883,2023,07,03,15,00,AAXX 03154 41883 02430 80000 10270 20260 30013 40033 8552/ 333 58002 70532 85616 88459==
41883,2023,07,03,18,00,AAXX 03184 41883 02430 80000 10268 20260 30016 40036 8552/ 333 59004 70392 85616 88459==
41883,2023,07,03,21,00,AAXX 03214 41883 01330 80000 10268 20260 39998 40018 76162 8572/ 333 59005 70284 85709 88458==
41883,2023,07,04,00,00,AAXX 04004 41883 21350 80000 10270 20270 30003 40023 70262 8562/ 333 59007 60228 70312 85709 88458==
41883,2023,07,04,03,00,AAXX 04034 41883 02350 80000 10290 20280 30014 40034 8562/ 333 20263 59009 70314 85709 88458==
41883,2023,07,04,06,00,AAXX 04064 41883 02456 70000 10316 20270 30018 40038 85820 333 59002 70314 84615 87548==
41883,2023,07,04,09,00,AAXX 04094 41883 02450 80000 10334 20260 39993 40013 8452/ 333 59007 70222 84618 88458==
41883,2023,07,04,12,00,AAXX 04124 41883 02450 60000 10314 20270 39980 40000 82510 333 10338 59016 70220 82618 86458==
41883,2023,07,04,15,00,AAXX 04154 41883 02/30 40000 10292 20270 30003 40023 84030 333 70220 84362==
41883,2023,07,04,18,00,AAXX 04184 41883 02/30 20000 10286 20270 30005 40025 82030 333 59011 70220 82362==
41883,2023,07,04,21,00,AAXX 04214 41883 02930 00000 10280 20260 39999 40019 333 58001 70030==
41883,2023,07,05,00,00,AAXX 05004 41883 02340 80000 10275 20260 39997 40017 8562/ 333 59006 70000 85710 88458==
41883,2023,07,05,03,00,AAXX 05034 41883 02456 81302 10308 20270 30004 40024 8552/ 333 20272 59010 70000 85616 88459==
41883,2023,07,05,06,00,AAXX 05064 41883 02456 71304 10332 20260 30002 40022 83430 333 59016 70000 81616 83828 87362==
41883,2023,07,05,09,00,AAXX 05094 41883 02556 61302 10334 20260 39980 40000 82130 333 59013 70000 82828 86362==
41883,2023,07,05,12,00,AAXX 05124 41883 02450 60000 10320 20270 39973 49993 83510 333 10338 59007 70000 83616 86459==
41883,2023,07,05,15,00,AAXX 05154 41883 02430 60000 10310 20270 39999 40019 83520 333 59004 70000 83618 86458==
41883,2023,07,05,18,00,AAXX 05184 41883 02430 60902 10296 20270 30010 40030 82520 333 58005 70000 82618 86458==
41883,2023,07,05,21,00,AAXX 05214 41883 02430 60000 10284 20260 30003 40023 83520 333 58004 70000 83618 86458==
41883,2023,07,06,00,00,AAXX 06004 41883 02440 80902 10286 20270 30003 40023 8562/ 333 58006 70000 83710 84616 88458==
41883,2023,07,06,03,00,AAXX 06034 41883 02356 70902 10294 20270 30017 40037 8562/ 333 20278 58013 70000 83709 84616 87458==
41883,2023,07,06,06,00,AAXX 06064 41883 02456 80902 10316 20270 30013 40033 8552/ 333 58011 70000 85616 88459==
41883,2023,07,06,09,00,AAXX 06094 41883 02456 60503 10322 20250 39998 40018 83430 333 58018 70000 82616 86362==
41883,2023,07,06,12,00,AAXX 06124 41883 01456 81304 10288 20260 30001 40021 70262 8552/ 333 10335 58028 70010 85616 88459==
41883,2023,07,06,15,00,AAXX 06154 41883 02330 71302 10284 20260 30028 40048 85620 333 58029 70014 85709 87459==
41883,2023,07,06,18,00,AAXX 06184 41883 02330 81304 10282 20260 30031 40051 8562/ 333 58021 70014 85709 88459==
41883,2023,07,06,21,00,AAXX 06214 41883 32350 80903 10282 20260 30025 40045 8562/ 333 56299 58022 70014 85709 88459=
41886,2023,06,30,00,00,AAXX 30004 41886 01450 80000 10266 20260 30023 40043 70262 8352/ 333 59010 70140 83618 88460==
41886,2023,06,30,03,00,AAXX 30034 41886 01450 80000 10272 20260 30036 40056 70262 8352/ 333 20263 59014 70160 83618 88460==
41886,2023,06,30,06,00,AAXX 30064 41886 01456 60000 10304 20270 30031 40051 70162 83570 333 59013 70050 83618 85460==
41886,2023,06,30,09,00,AAXX 30094 41886 01350 80000 10260 20260 30019 40039 79696 8632/ 333 59011 70730 82710 83616 88458 81930==
41886,2023,06,30,12,00,AAXX 30124 41886 21350 80000 10257 20250 30007 40027 76169 8632/ 333 10310 59015 60679 70770 82710 83616 88458 81930==
41886,2023,06,30,18,00,AAXX 30184 41886 NIL=
41886,2023,06,30,21,00,AAXX 30214 41886 02440 80000 10252 20240 30019 40039 8352/ 333 59019 70790 83616 88458==
41886,2023,07,01,00,00,AAXX 01004 41886 02456 80000 10259 20250 30017 40037 8352/ 333 59006 70740 83618 88460==
41886,2023,07,01,03,00,AAXX 01034 41886 01456 80000 10277 20270 30036 40056 70262 8352/ 333 20250 58000 70710 83618 88460==
41886,2023,07,01,06,00,AAXX 01064 41886 01450 80000 10280 20260 30037 40057 76162 8452/ 333 58006 70717 84616 88458==
41886,2023,07,01,09,00,AAXX 01094 41886 01456 80000 10295 20270 30019 40039 70262 8532/ 333 58000 70087 83616 83825 88458 81930==
41886,2023,07,01,12,00,AAXX 01124 41886 01450 80000 10262 20250 30015 40035 76196 8552/ 333 10318 58008 70125 85616 88458==
41886,2023,07,01,15,00,AAXX 01154 41886 01450 80000 10265 20260 30034 40054 70262 8552/ 333 58016 70125 85616 88458==
41886,2023,07,01,18,00,AAXX 01184 41886 11450 80000 10265 20260 30032 40052 60026 70262 8452/ 333 58010 70125 84616 88458==
41886,2023,07,01,21,00,AAXX 01214 41886 01315 81310 10260 20260 30009 40029 79696 8692/ 333 59010 70525 84708 85614 88456 82928==
41886,2023,07,02,00,00,AAXX 02004 41886 21330 80000 10262 20260 30011 40031 76196 8632/ 333 59006 61109 71225 84709 85616 88458 81930==
41886,2023,07,02,03,00,AAXX 02034 41886 01320 80000 10271 20270 30028 40048 76166 8672/ 333 20260 59008 71243 84709 85616 88457==
41886,2023,07,02,06,00,AAXX 02064 41886 21350 80000 10283 20280 30023 40043 72196 8672/ 333 59014 60209 71396 84710 85616 88458==
41886,2023,07,02,09,00,AAXX 02094 41886 02456 80000 10299 20290 30006 40026 8531/ 333 59013 70198 84617 88459 81930==
41886,2023,07,02,12,00,AAXX 02124 41886 01450 80000 10260 20250 30000 40020 79596 8592/ 333 10303 59015 70320 83616 88458 81930==
41886,2023,07,02,15,00,AAXX 02154 41886 01440 80000 10264 20250 30025 40046 70296 8532/ 333 59009 71652 83616 88459 81930==
41886,2023,07,02,18,00,AAXX 02184 41886 11440 80000 10266 20260 30023 40043 60016 70296 8532/ 333 59009 71312 83616 88459 81930==
41886,2023,07,02,21,00,AAXX 02214 41886 01440 80000 10264 20250 30014 40034 79596 8592/ 333 58005 71252 83616 88458 81930==
41886,2023,07,03,00,00,AAXX 03004 41886 21450 80000 10260 20260 30022 40042 76396 8532/ 333 58011 60059 70582 83616 88458 81930==
41886,2023,07,03,03,00,AAXX 03034 41886 01450 80000 10280 20270 30032 40052 70262 8532/ 333 20258 58004 70564 83616 88458 81930==
41886,2023,07,03,06,00,AAXX 03064 41886 11457 61702 10319 20290 30027 40047 60026 70162 85470 333 58004 70384 83618 85458==
41886,2023,07,03,09,00,AAXX 03094 41886 02456 60000 10300 20270 30010 40030 84470 333 58004 70400 83618 85460==
41886,2023,07,03,12,00,AAXX 03124 41886 01456 80000 10280 20260 30006 40026 70262 8352/ 333 10330 58006 70020 83618 88460==
41886,2023,07,03,15,00,AAXX 03154 41886 02450 60000 10270 20260 30021 40041 84470 333 59003 70090 83618 85460==
41886,2023,07,03,18,00,AAXX 03184 41886 02450 60000 10267 20260 30023 40043 84470 333 58000 70090 83618 85460==
41886,2023,07,03,21,00,AAXX 03214 41886 02440 80000 10270 20260 30020 40040 8352/ 333 58006 70070 83616 88458==
41886,2023,07,04,00,00,AAXX 04004 41886 02450 80000 10272 20260 30014 40034 8352/ 333 59008 70040 83618 88460==
41886,2023,07,04,03,00,AAXX 04034 41886 02456 60000 10300 20270 30023 40043 84470 333 20267 59009 70020 83618 85460==
41886,2023,07,04,06,00,AAXX 04064 41886 02456 60000 10325 20280 30025 40045 84470 333 59002 70020 83618 85460==
41886,2023,07,04,09,00,AAXX 04094 41886 01456 60000 10302 20270 30002 40022 70262 84430 333 59008 70045 83618 85365==
41886,2023,07,04,12,00,AAXX 04124 41886 11456 40000 10314 20270 39984 40004 60036 70161 81530 333 10326 59022 70025 81618 84365==
41886,2023,07,04,15,00,AAXX 04154 41886 02450 60000 10290 20280 30011 40031 81570 333 59010 70025 81618 85365==
41886,2023,07,04,18,00,AAXX 04184 41886 02450 81304 10290 20260 30015 40035 8442/ 333 59008 70025 83618 88460==
41886,2023,07,04,21,00,AAXX 04214 41886 01450 80000 10280 20260 30010 40030 70262 8532/ 333 59010 70035 83617 88460 81930==
41886,2023,07,05,00,00,AAXX 05004 41886 01456 80000 10276 20270 30003 40023 76162 8532/ 333 59011 70037 83617 88460 81930==
41886,2023,07,05,03,00,AAXX 05034 41886 02456 70000 10280 20260 30012 40032 83470 333 20268 59011 70037 82618 85460==
41886,2023,07,05,06,00,AAXX 05064 41886 21456 61301 10310 20260 30012 40032 70162 84470 333 59013 69925 70039 82618 84460==
41886,2023,07,05,09,00,AAXX 05094 41886 02457 40000 10338 20240 39986 40006 83440 333 59016 70014 82618==
41886,2023,07,05,12,00,AAXX 05124 41886 02457 40000 10328 20260 39980 40000 81540 333 10340 59004 70014 81618 83365==
41886,2023,07,05,15,00,AAXX 05154 41886 02450 50000 10298 20270 30008 40028 82540 333 59003 70014 82618 84365==
41886,2023,07,05,18,00,AAXX 05184 41886 02450 71304 10290 20260 30020 40040 83570 333 58005 70014 83618 86460==
41886,2023,07,05,21,00,AAXX 05214 41886 02450 71302 10286 20260 30018 40038 83570 333 58008 70004 83617 85362==
41886,2023,07,06,00,00,AAXX 06004 41886 02456 71304 10280 20250 30018 40038 83570 333 58015 70002 83617 85362==
41886,2023,07,06,03,00,AAXX 06034 41886 02456 71306 10297 20260 30032 40052 84550 333 20275 58020 70002 84616 85362==
41886,2023,07,06,06,00,AAXX 06064 41886 02457 71204 10312 20260 30025 40045 84410 333 58013 70000 82618 83825 87460==
41886,2023,07,06,09,00,AAXX 06094 41886 02458 50906 10325 20260 30011 40031 83430 333 58025 70000 82618 85363==
41886,2023,07,06,12,00,AAXX 06124 41886 21456 80000 10280 20260 30012 40032 70362 8452/ 333 10328 58032 60025 70020 84616 88458==
41886,2023,07,06,15,00,AAXX 06154 41886 02450 80000 10278 20260 30037 40057 8452/ 333 58029 70020 84616 88458==
41886,2023,07,06,18,00,AAXX 06184 41886 02450 60000 10282 20250 30044 40064 82530 333 58024 70020 82618 86363==
41886,2023,07,06,21,00,AAXX 06214 41886 02450 61602 10276 20260 30038 40058 82530 333 58020 70020 82618 86363==
41888,2023,06,30,00,00,AAXX 30004 41888 11440 80901 10260 20260 30032 40042 60185 70262 8452/ 333 56299 59010 70390 84617 88459=
41888,2023,06,30,06,00,AAXX 30064 41888 11440 80901 10270 20270 30043 40053 60203 72162 8532/ 333 56999 59010 70430 84616 81930 88459=
41888,2023,06,30,12,00,AAXX 30124 41888 11440 81301 10257 20260 30018 40028 60679 76596 8532/ 333 10275 56699 59012 71050 83710 83616 88460=
41888,2023,06,30,18,00,AAXX 30184 41888 NIL=
41888,2023,07,01,00,00,AAXX 01004 41888 31940 81301 10257 20255 30028 40038 70222 8352/ 333 56990 59014 70900 83618 88460=
41888,2023,07,01,06,00,AAXX 01064 41888 31940 80901 10280 20250 30044 40054 70222 8432/ 333 56999 58001 70700 84616 81930 88460=
41888,2023,07,01,12,00,AAXX 01124 41888 11640 80901 10273 20260 30022 40032 60047 76166 8532/ 333 10285 56699 58004 70070 83710 83616 81930 88460=
41888,2023,07,01,18,00,AAXX 01184 41888 NIL=
41888,2023,07,02,00,00,AAXX 02004 41888 11440 80901 10255 20255 30023 40033 61207 8532/ 333 56699 59005 71240 83710 83616 81930 88460=
41888,2023,07,02,03,00,AAXX 02034 41888 21440 80901 10264 20260 30037 40047 76596 8532/ 333 20255 56699 59006 6550/ 71790 83710 83616 81930 88460=
41888,2023,07,02,06,00,AAXX 02064 41888 11440 80501 10270 20270 30031 40041 66609 76596 8532/ 333 56699 59013 71900 83710 83616 81930 88460=
41888,2023,07,02,12,00,AAXX 02124 41888 11440 80501 10260 20250 30008 40018 60034 76122 8532/ 333 56999 59014 71885 83710 83616 81930 88460=
41888,2023,07,03,00,00,AAXX 03004 41888 11440 80901 10255 20255 30027 40037 60307 76166 8532/ 333 56299 58004 71060 83710 83616 81930 88460=
41888,2023,07,03,06,00,AAXX 03064 41888 32440 80502 10275 20270 30038 40048 8432/ 333 56999 58007 70400 84616 81930 88460=
41888,2023,07,03,12,00,AAXX 03124 41888 32450 81302 10274 20270 30015 40025 8532/ 333 10290 56399 58007 70375 82710 83616 81930 88460=
41888,2023,07,03,18,00,AAXX 03184 41888 NIL=
41888,2023,07,04,00,00,AAXX 04004 41888 32440 80901 10271 20270 30022 40032 8352/ 333 56999 59005 70000 83618 88460=
41888,2023,07,04,06,00,AAXX 04064 41888 32450 80901 10282 20280 30036 40046 8452/ 333 56999 59002 70000 84618 88460=
41888,2023,07,04,12,00,AAXX 04124 41888 32456 50901 10312 20310 39990 41000 83570 333 20317 56999 59025 70000 83618 85460=
41888,2023,07,05,00,00,AAXX 05004 41888 32440 80901 10270 20270 30016 40026 8352/ 333 56999 59006 70000 83616 88460=
41888,2023,07,05,06,00,AAXX 05064 41888 32456 50902 10317 20317 30020 40030 85370 333 56999 59016 70000 82616 85365=
41888,2023,07,05,12,00,AAXX 05124 41888 32456 30501 10317 20317 39989 49999 82530 333 20330 56990 59001 70000 83618 83365=
41888,2023,07,05,18,00,AAXX 05184 41888 NIL=
41888,2023,07,06,00,00,AAXX 06004 41888 32450 80903 10280 20280 30023 40033 8432/ 333 56299 58007 70000 84616 81930 88460=
41888,2023,07,06,06,00,AAXX 06064 41888 32456 60903 10300 20250 30036 40046 8352/ 333 56999 58016 70000 83618 88460=
41888,2023,07,06,09,00,AAXX 06094 41888 32456 61303 10310 20270 30021 40031 85670 333 56390 58027 70000 85710 86362=
41888,2023,07,06,12,00,AAXX 06124 41888 11450 80502 10265 20260 30026 40036 60184 70362 8352/ 333 10312 56999 58037 70180 83618 88460=
41891,2023,06,30,00,00,AAXX 30004 41891 01430 80703 10258 20250 30014 40052 76122 8532/ 333 59008 70351 81710 83616 88459 81930==
41891,2023,06,30,03,00,AAXX 30034 41891 41320 80904 10258 20253 30029 40068 59007 70533 88458==
41891,2023,06,30,06,00,AAXX 30064 41891 21320 81303 10268 20260 30028 40066 76366 8632/ 333 58001 60389 70507 86708 88458 81925==
41891,2023,06,30,09,00,AAXX 30094 41891 01445 80906 10285 20270 39998 40036 70522 8532/ 333 59016 70419 81710 83616 88459 81930==
41891,2023,06,30,12,00,AAXX 30124 41891 01320 83602 10258 20250 39993 40031 79596 8632/ 333 10293 59009 70738 86707 88458 81925==
41891,2023,06,30,15,00,AAXX 30154 41891 01320 80902 10256 20250 30009 40047 79596 8632/ 333 59011 70756 86707 88458 81925==
41891,2023,06,30,18,00,AAXX 30184 41891 21430 80000 10254 20240 30014 40052 70596 8532/ 333 59008 60029 70761 81710 83616 88459 81930==
41891,2023,06,30,21,00,AAXX 30214 41891 01430 80000 10251 20240 30008 40046 70522 8532/ 333 59004 70761 81710 83616 88459 81930==
41891,2023,07,01,00,00,AAXX 01004 41891 21320 80902 10247 20250 30006 40044 76162 8632/ 333 59008 60247 71001 86707 88458 81925==
41891,2023,07,01,03,00,AAXX 01034 41891 01320 80903 10254 20240 30024 40062 79596 8632/ 333 20247 59005 70829 86707 88458 81925==
41891,2023,07,01,06,00,AAXX 01064 41891 21320 80507 10250 20250 30022 40060 79596 8632/ 333 59006 60629 71237 86707 88458 81925==
41891,2023,07,01,09,00,AAXX 01094 41891 01330 82404 10255 20250 30006 40044 79599 8632/ 333 58008 71717 86707 88456 81925==
41891,2023,07,01,12,00,AAXX 01124 41891 21430 82004 10260 20250 30001 40039 70596 8532/ 333 10265 58008 60497 71366 84710 88459 81930==
41891,2023,07,01,15,00,AAXX 01154 41891 01430 80503 10255 20250 30018 40056 72166 8532/ 333 58009 71355 82710 84615 88459 81930==
41891,2023,07,01,18,00,AAXX 01184 41891 11430 80803 10255 20250 30014 40052 60001 70562 8532/ 333 58000 71350 82710 84615 88459 81930==
41891,2023,07,01,21,00,AAXX 01214 41891 01430 80903 10255 20250 30007 40045 70522 8532/ 333 59001 71350 82710 84615 88459 81930==
41891,2023,07,02,00,00,AAXX 02004 41891 01430 81003 10255 20250 30003 40041 70522 8532/ 333 59003 71110 82710 84615 88459 81930==
41891,2023,07,02,03,00,AAXX 02034 41891 01320 81304 10260 20260 30020 40058 76366 8632/ 333 20250 59004 71080 86707 88458 81925==
41891,2023,07,02,06,00,AAXX 02064 41891 21320 80904 10250 20250 30008 40046 76366 8632/ 333 59014 60229 70710 86707 88458 81925==
41891,2023,07,02,09,00,AAXX 02094 41891 01320 81304 10250 20250 39997 40035 79596 8632/ 333 59009 71530 86707 88458 81925==
41891,2023,07,02,12,00,AAXX 02124 41891 21430 80902 10258 20250 39991 40029 72996 8532/ 333 10262 59010 61309 71524 83710 84615 88459 81930==
41891,2023,07,02,15,00,AAXX 02154 41891 01430 81504 10257 20260 30004 40042 70522 8532/ 333 59014 71524 84710 88459 81930==
41891,2023,07,02,18,00,AAXX 02184 41891 01330 80408 10260 20250 30006 40044 79596 8632/ 333 59008 70450 85708 88458 81928==
41891,2023,07,02,21,00,AAXX 02214 41891 01330 80804 10255 20255 30009 40047 79599 8632/ 333 20248 58002 72524 85708 88456 81926==
41891,2023,07,03,00,00,AAXX 03004 41891 21330 83503 10250 20246 30006 40044 79599 8632/ 333 58003 61109 73074 85708 88456 81926==
41891,2023,07,03,03,00,AAXX 03034 41891 01320 80502 10248 20240 30023 40061 79596 8632/ 333 20245 58003 73644 86707 88458 81925==
41891,2023,07,03,06,00,AAXX 03064 41891 21320 80902 10250 20250 30021 40059 79599 8632/ 333 58013 60779 73622 86707 88458 81925==
41891,2023,07,03,09,00,AAXX 03094 41891 01320 83503 10255 20250 39996 40034 79599 8632/ 333 59001 72412 86707 88458 81925==
41891,2023,07,03,12,00,AAXX 03124 41891 21435 80502 10278 20260 39990 40028 72996 8532/ 333 10280 59001 60099 72411 82710 84615 88459 81930==
41891,2023,07,03,15,00,AAXX 03154 41891 01430 80803 10260 20250 30007 40045 70522 8532/ 333 58003 72411 81710 84615 88459 81930==
41891,2023,07,03,18,00,AAXX 03184 41891 01430 80803 10255 20250 30004 40042 70522 8532/ 333 59002 71961 81710 84615 88459 81930==
41891,2023,07,03,21,00,AAXX 03214 41891 01430 81203 10260 20250 30001 40039 70522 8532/ 333 59008 71411 81710 84615 88459 81930==
41891,2023,07,04,00,00,AAXX 04004 41891 01430 81504 10264 20250 30000 40038 70522 8532/ 333 59006 70861 81710 84615 88459 81930==
41891,2023,07,04,03,00,AAXX 04034 41891 01430 82304 10290 20260 30011 40049 72166 8532/ 333 20245 59012 70257 82710 84615 88459 81930==
41891,2023,07,04,06,00,AAXX 04064 41891 11440 70502 10307 20270 30009 40047 69961 70562 84370 333 59012 70099 84615 86460 81930==
41891,2023,07,04,09,00,AAXX 04094 41891 01445 62704 10316 20230 39983 40020 70522 83370 333 59013 70009 83615 86460 81930==
41891,2023,07,04,12,00,AAXX 04124 41891 01440 62702 10330 20240 39963 40000 70522 83340 333 10341 59027 70006 83615 85365 81930==
41891,2023,07,04,15,00,AAXX 04154 41891 01430 62504 10285 20260 39984 40023 70522 83370 333 59023 70006 83616 85365 81930==
41891,2023,07,04,18,00,AAXX 04184 41891 01430 22504 10270 20260 39986 40024 70521 81570 333 59015 70006 81616 82365==
41891,2023,07,04,21,00,AAXX 04214 41891 01430 82504 10270 20260 39981 40019 70521 8432/ 333 59020 70006 81710 83616 88459 81930==
41891,2023,07,05,00,00,AAXX 05004 41891 01430 82604 10270 20260 39993 40031 76121 8632/ 333 59007 70000 85708 88458==
41891,2023,07,05,03,00,AAXX 05034 41891 01320 82304 10268 20260 39993 40031 76366 8632/ 333 20265 59018 70098 86707 88458 81925==
41891,2023,07,05,06,00,AAXX 05064 41891 21435 71802 10296 20260 39996 40035 72166 84370 333 59013 60107 70102 84615 86460 81930==
41891,2023,07,05,09,00,AAXX 05094 41891 01445 60504 10317 20250 39969 40006 70522 83340 333 59014 70102 83615 85465 81930==
41891,2023,07,05,12,00,AAXX 05124 41891 01440 60902 10324 20240 39963 40000 70522 83340 333 10337 58000 70102 83615 85365 81930==
41891,2023,07,05,15,00,AAXX 05154 41891 01430 82103 10275 20260 39999 40037 72122 8532/ 333 58015 70104 82710 84615 88459 81930==
41891,2023,07,05,18,00,AAXX 05184 41891 01320 81803 10260 20250 30010 40048 76162 8632/ 333 58024 70192 86708 88458 81925==
41891,2023,07,05,21,00,AAXX 05214 41891 01430 81803 10260 20250 30011 40049 72166 8532/ 333 58030 70232 82710 84615 88459 81930==
41891,2023,07,06,00,00,AAXX 06004 41891 01430 81204 10260 20250 30012 40050 72162 8532/ 333 58019 70242 82710 84615 88459 81930==
41891,2023,07,06,03,00,AAXX 06034 41891 01325 80904 10272 20250 30025 40063 76022 8632/ 333 20258 58032 70146 86708 88458 81925==
41891,2023,07,06,06,00,AAXX 06064 41891 11440 80502 10304 20250 30016 40054 69921 72166 8532/ 333 58019 70142 81710 84615 88459 81930==
41891,2023,07,06,09,00,AAXX 06094 41891 01445 60504 10312 20260 30000 40038 70522 83340 333 58031 70142 83615 85365 81930==
41891,2023,07,06,12,00,AAXX 06124 41891 01320 82304 10268 20260 30005 40043 79522 8632/ 333 10327 58042 70150 86707 88458 81925==
41891,2023,07,06,15,00,AAXX 06154 41891 01330 80505 10257 20250 30029 40067 79599 8632/ 333 58030 70620 85708 88458 81928==
41891,2023,07,06,18,00,AAXX 06184 41891 21430 80604 10255 20250 30031 40069 70596 8532/ 333 58021 60338 70538 84708 88458 81928==
41891,2023,07,06,21,00,AAXX 06214 41891 11430 81604 10265 20250 30028 40066 60016 70562 8532/ 333 56999 58016 70484 84710 81930 88459=
41895,2023,06,30,00,00,AAXX 30004 41895 02450 81802 10276 20276 30005 40028 8452/ 333 59008 70004 84615 88458==
41895,2023,06,30,03,00,AAXX 30034 41895 02456 81502 10294 20270 30018 40040 8452/ 333 20270 59010 70004 84616 88458==
41895,2023,06,30,06,00,AAXX 30064 41895 02456 61803 10324 20280 30016 40038 83520 333 59012 70002 83616 86458==
41895,2023,06,30,09,00,AAXX 30094 41895 01450 80502 10260 20260 39997 40020 79522 8532/ 333 58003 70260 84613 88458 81930==
41895,2023,06,30,12,00,AAXX 30124 41895 21450 80901 10260 20260 39988 40011 76196 8452/ 333 10340 59016 60307 70302 84614 88458==
41895,2023,06,30,15,00,AAXX 30154 41895 02450 81304 10263 20263 30006 40028 8452/ 333 59010 70302 84615 88458==
41895,2023,06,30,18,00,AAXX 30184 41895 02450 31302 10255 20255 30012 40035 83500 333 59006 70302 83616==
41895,2023,06,30,21,00,AAXX 30214 41895 02450 51301 10260 20260 39996 40018 83520 333 59015 70302 83616 85458==
41895,2023,07,01,00,00,AAXX 01004 41895 02450 80000 10260 20260 39997 40020 8352/ 333 58008 70302 83616 88458==
41895,2023,07,01,03,00,AAXX 01034 41895 02450 80000 10275 20270 30020 40042 8452/ 333 20250 58002 70302 84615 88458==
41895,2023,07,01,06,00,AAXX 01064 41895 02456 81802 10295 20290 30017 40039 8352/ 333 58001 70302 83616 88458==
41895,2023,07,01,09,00,AAXX 01094 41895 02450 80902 10305 20280 39997 40019 8532/ 333 58000 70042 84615 88458 81928==
41895,2023,07,01,12,00,AAXX 01124 41895 21450 80901 10276 20280 39992 40014 70262 8452/ 333 10320 58004 60065 70064 84615 88458==
41895,2023,07,01,15,00,AAXX 01154 41895 02450 80901 10270 20260 30003 40026 8452/ 333 59003 70064 84615 88458==
41895,2023,07,01,18,00,AAXX 01184 41895 02450 80902 10264 20260 30007 40030 8452/ 333 59005 70064 84615 88458==
41895,2023,07,01,21,00,AAXX 01214 41895 02450 80901 10264 20260 39996 40019 8452/ 333 58000 70064 84615 88458==
41895,2023,07,02,00,00,AAXX 02004 41895 02450 80901 10264 20260 39996 40019 8452/ 333 59001 70064 84615 88458==
41895,2023,07,02,03,00,AAXX 02034 41895 02450 81802 10294 20280 30011 40033 8452/ 333 20260 59009 70064 84615 88458==
41895,2023,07,02,06,00,AAXX 02064 41895 02450 81802 10318 20290 30005 40027 8452/ 333 59012 70064 84615 88458==
41895,2023,07,02,09,00,AAXX 02094 41895 01456 81304 10325 20270 39985 40007 71762 8452/ 333 59012 70068 84615 88458 81930==
41895,2023,07,02,12,00,AAXX 02124 41895 01450 82301 10280 20270 39983 40005 79596 8532/ 333 10345 59009 70048 84615 88458 81930==
41895,2023,07,02,15,00,AAXX 02154 41895 01450 80902 10275 20275 30005 40027 70262 8452/ 333 58002 70051 84615 88458==
41895,2023,07,02,18,00,AAXX 02184 41895 11450 50901 10275 20275 30007 40029 69936 70162 83520 333 58000 70051 83616 85458==
41895,2023,07,02,21,00,AAXX 02214 41895 02450 50901 10277 20277 30001 40023 83520 333 58005 70051 83616 85458==
41895,2023,07,03,00,00,AAXX 03004 41895 02450 81302 10280 20280 30000 40022 8452/ 333 58004 70051 84615 88458==
41895,2023,07,03,03,00,AAXX 03034 41895 02450 81802 10300 20280 30015 40037 8452/ 333 20271 58004 70051 84615 88458==
41895,2023,07,03,06,00,AAXX 03064 41895 01450 83104 10256 20256 30021 40043 79596 8532/ 333 58016 70430 84615 88458 81928==
41895,2023,07,03,09,00,AAXX 03094 41895 01450 80901 10268 20268 39994 40017 70296 8452/ 333 58009 70489 84615 88458==
41895,2023,07,03,12,00,AAXX 03124 41895 11450 80000 10280 20270 39986 40009 60016 70296 8452/ 333 10300 58003 70445 84615 88458==
41895,2023,07,03,15,00,AAXX 03154 41895 02450 80902 10273 20260 30001 40024 8452/ 333 59004 70442 84615 88458==
41895,2023,07,03,18,00,AAXX 03184 41895 NIL=
41895,2023,07,03,21,00,AAXX 03214 41895 02450 80000 10268 20268 39999 40022 8452/ 333 59002 70442 84615 88458==
41895,2023,07,04,00,00,AAXX 04004 41895 02450 80000 10268 20268 39996 40019 8452/ 333 59004 70442 84615 88458==
41895,2023,07,04,03,00,AAXX 04034 41895 02456 51802 10307 20290 30008 40030 83410 333 20253 59007 70442 82616 85458==
41895,2023,07,04,06,00,AAXX 04064 41895 02456 51303 10336 20280 30008 40030 84801 333 59013 70008 82616 83825==
41895,2023,07,04,09,00,AAXX 04094 41895 02457 41302 10360 20260 39985 40006 84400 333 59009 70000 82617 83825==
41895,2023,07,04,12,00,AAXX 04124 41895 02457 50502 10325 20290 39971 49993 83401 333 10368 59015 70000 82617 83074==
41895,2023,07,04,15,00,AAXX 04154 41895 02450 30000 10305 20300 39995 40017 83500 333 59006 70000 83616==
41895,2023,07,04,21,00,AAXX 04214 41895 02450 60901 10290 20280 39982 40004 83520 333 59017 70000 83616 86458==
41895,2023,07,05,00,00,AAXX 05004 41895 02450 70902 10280 20270 39992 40014 83520 333 59004 70000 83616 87458==
41895,2023,07,05,03,00,AAXX 05034 41895 02456 51303 10320 20270 39998 40020 84401 333 20276 59010 70000 82616 83820==
41895,2023,07,05,06,00,AAXX 05064 41895 21456 51303 10340 20270 39994 40015 70262 84401 333 59014 69925 70002 82616 83820==
41895,2023,07,05,09,00,AAXX 05094 41895 02456 51303 10345 20270 39973 49994 84401 333 59012 70002 82616 83820==
41895,2023,07,05,12,00,AAXX 05124 41895 02956 00901 10336 20280 39962 49983 333 10359 59009 70002==
41895,2023,07,05,15,00,AAXX 05154 41895 02450 50502 10302 20270 39992 40014 83510 333 59003 70002 83616 85458==
41895,2023,07,05,18,00,AAXX 05184 41895 02450 50902 10294 20270 39996 40018 83520 333 59003 70002 83616 85458==
41895,2023,07,05,21,00,AAXX 05214 41895 02450 50902 10282 20270 39994 40016 83520 333 58012 70002 83616 85458==
41895,2023,07,06,00,00,AAXX 06004 41895 02450 50902 10279 20270 39991 40013 83520 333 59001 70002 83616 85458==
41895,2023,07,06,03,00,AAXX 06034 41895 02456 51304 10314 20260 30005 40027 84401 333 20275 58007 70002 82616 83820==
41895,2023,07,06,06,00,AAXX 06064 41895 02457 51304 10350 20270 30002 40023 84401 333 58008 70000 82616 83820==
41895,2023,07,06,09,00,AAXX 06094 41895 01457 61304 10330 20290 39991 40013 70362 83520 333 58018 70002 83616 86458==
41895,2023,07,06,12,00,AAXX 06124 41895 01456 80902 10285 20285 39991 40013 70396 8532/ 333 10360 58029 70072 84615 88458 81930==
41895,2023,07,06,15,00,AAXX 06154 41895 02450 50904 10280 20270 30015 40037 83520 333 58023 70072 83616 85458==
41895,2023,07,06,18,00,AAXX 06184 41895 02450 31304 10275 20275 30022 40044 83500 333 58026 70072 83616==
41895,2023,07,06,21,00,AAXX 06214 41895 02450 50902 10275 20275 30014 40037 83520 333 58020 70072 83616 85458==
41897,2023,06,30,00,00,AAXX 30004 41897 32435 81703 10270 20260 30025 40038 8352/ 333 56499 59006 70380 83615 88458=
41897,2023,06,30,06,00,AAXX 30064 41897 32445 61902 10335 20270 30023 40036 83530 333 56990 59013 70000 83616 86360=
41897,2023,06,30,12,00,AAXX 30124 41897 11330 80902 10255 20255 30003 40016 60347 79596 85321 333 10345 56399 59019 70336 83707 85612 81925 88458=
41897,2023,06,30,18,00,AAXX 30184 41897 11440 61802 10260 20240 30021 40034 69915 70162 83510 333 56990 59014 70340 83618 86458=
41897,2023,07,01,00,00,AAXX 01004 41897 32440 81301 10265 20265 30022 40035 8352/ 333 56999 59003 70340 83617 88458=
41897,2023,07,01,06,00,AAXX 01064 41897 11340 81802 10275 20270 30029 40042 60319 79596 8592/ 333 56499 58006 70650 83707 84617 81925 88458=
41897,2023,07,01,12,00,AAXX 01124 41897 11440 71802 10265 20260 30010 40023 60147 70196 82510 333 10300 56990 58007 70475 82618 87458=
41897,2023,07,01,18,00,AAXX 01184 41897 32440 30904 10263 20250 30034 40047 81510 333 56990 58013 70470 81618 83458=
41897,2023,07,02,00,00,AAXX 02004 41897 31440 81802 10268 20268 30015 40028 70522 8352/ 333 56999 59007 70450 83617 88458=
41897,2023,07,02,03,00,AAXX 02034 41897 31440 61802 10290 20280 30027 40040 70522 82510 333 20265 56490 59007 70160 82618 86458=
41897,2023,07,02,06,00,AAXX 02064 41897 11450 71802 10315 20290 30016 40029 72122 83510 333 56490 59013 70142 83617 87458=
41897,2023,07,02,12,00,AAXX 02124 41897 11440 80902 10262 20260 39997 40010 60739 79596 8492/ 333 10320 56999 59013 70732 82707 83615 81928 88458=
41897,2023,07,02,18,00,AAXX 02184 41897 11440 81801 10260 20260 30010 40023 60359 79596 8372/ 333 56999 59024 71080 83707 83616 81928 88458=
41897,2023,07,03,00,00,AAXX 03004 41897 11440 71802 10272 20270 30015 40028 60059 70596 83510 333 56990 58000 71113 83617 87458=
41897,2023,07,03,06,00,AAXX 03064 41897 32456 51802 10330 20280 30020 40033 84430 333 56490 58004 71128 82618 84825 85362=
41897,2023,07,03,12,00,AAXX 03124 41897 11456 50000 10280 20260 30002 40015 60366 70196 82510 333 10334 56990 58005 70758 82618 85458=
41897,2023,07,03,18,00,AAXX 03184 41897 32450 50901 10273 20260 30022 40035 82530 333 56990 58012 70410 82618 85361=
41897,2023,07,04,00,00,AAXX 04004 41897 32450 50000 10270 20260 30007 40020 82530 333 56990 59008 70360 82618 85361=
41897,2023,07,04,06,00,AAXX 04064 41897 32456 31801 10336 20260 30022 40035 82430 333 56490 58002 70376 82618=
41897,2023,07,04,12,00,AAXX 04124 41897 32557 20902 10325 20270 39986 49999 82131 333 10348 56999 59016 70016 82825=
41897,2023,07,04,18,00,AAXX 04184 41897 32950 00901 10294 20270 30010 40023 84030 333 56090 59012 70016 84361=
41897,2023,07,05,00,00,AAXX 05004 41897 32450 60000 10280 20270 30000 40013 82530 333 56990 59007 70000 82618 86361=
41897,2023,07,05,06,00,AAXX 05064 41897 32456 71301 10290 20250 30011 40024 84470 333 56490 59011 70000 83618 84825 87459=
41897,2023,07,05,12,00,AAXX 05124 41897 32956 20901 10325 20260 39977 49989 82030 333 10340 56090 59009 70000 82362=
41897,2023,07,05,18,00,AAXX 05184 41897 32945 21302 10288 20260 30017 40030 82030 333 56090 58007 70000 82362=
41897,2023,07,06,00,00,AAXX 06004 41897 32435 61002 10280 20260 30021 40034 83530 333 56990 58021 70000 83616 86360=
41897,2023,07,06,06,00,AAXX 06064 41897 32456 41502 10310 20270 30018 40031 82530 333 56990 58007 70000 82616 84362=
41897,2023,07,06,09,00,AAXX 06094 41897 32450 71503 10298 20250 30012 40025 83520 333 56990 58030 70000 83616 86458=
41897,2023,07,06,12,00,AAXX 06124 41897 32450 81503 10290 20260 30004 40017 8352/ 333 10325 56999 58027 70000 83616 88458=
41897,2023,07,06,18,00,AAXX 06184 41897 32445 51501 10280 20260 30037 40050 82530 333 56990 58020 70000 82616 85360=
41902,2023,06,30,00,00,AAXX 30004 41902 11330 81701 10262 20250 30029 40038 60087 70262 8462/ 333 56499 58001 71088 82709 83613 88459=
41902,2023,06,30,06,00,AAXX 30064 41902 11440 61701 10306 20290 30034 40042 60068 70162 83530 333 56490 59015 70230 82614 85362=
41902,2023,06,30,12,00,AAXX 30124 41902 11420 80000 10245 20245 30014 40023 60869 76166 8672/ 333 10308 56499 59014 71030 84710 85614 88458=
41902,2023,06,30,18,00,AAXX 30184 41902 11430 81803 10257 20257 30026 40035 60016 70262 8442/ 333 56999 59009 71038 83616 88458=
41902,2023,07,01,00,00,AAXX 01004 41902 32440 81802 10260 20250 30023 40032 8342/ 333 56499 59006 70958 82616 88458=
41902,2023,07,01,06,00,AAXX 01064 41902 11450 81803 10261 20250 30040 40049 60144 72122 8562/ 333 56499 58006 71011 83710 84615 88458=
41902,2023,07,01,12,00,AAXX 01124 41902 11440 81802 10261 20250 30023 40032 60034 76162 8562/ 333 10294 56499 58009 70181 82710 84616 88458=
41902,2023,07,01,18,00,AAXX 01184 41902 11430 81602 10260 20260 30034 40043 60048 70262 8562/ 333 56499 58008 70213 82712 84616 88458=
41902,2023,07,02,00,00,AAXX 02004 41902 32440 81806 10273 20260 30021 40030 8562/ 333 56499 59002 70213 83710 84616 88458=
41902,2023,07,02,03,00,AAXX 02034 41902 21440 81803 10275 20275 30032 40041 79596 8592/ 333 20240 56499 59005 6022/ 70433 83710 84614 81925 88458=
41902,2023,07,02,06,00,AAXX 02064 41902 11450 81804 10293 20280 30028 40037 60238 70296 8562/ 333 56499 59012 70296 81712 84616 88458=
41902,2023,07,02,12,00,AAXX 02124 41902 31440 80503 10278 20260 30020 40029 70292 8562/ 333 10310 56499 59003 70266 81912 84616 88458=
41902,2023,07,02,18,00,AAXX 02184 41902 31430 80000 10255 20250 30029 40038 70292 8592/ 333 56499 59005 70226 83710 84614 81925 88458=
41902,2023,07,03,00,00,AAXX 03004 41902 31430 81802 10273 20270 30027 40036 70296 8562/ 333 56499 58006 70376 83710 84616 88458=
41902,2023,07,03,06,00,AAXX 03064 41902 32450 81006 10300 20280 30031 40040 8562/ 333 56499 58003 70150 83710 84616 88458=
41902,2023,07,03,12,00,AAXX 03124 41902 11450 33602 10282 20260 30015 40024 60576 70162 82430 333 10315 56290 59005 70720 82614=
41902,2023,07,03,18,00,AAXX 03184 41902 32440 33301 10275 20270 30026 40035 82430 333 56290 59003 70720 82614=
41902,2023,07,04,00,00,AAXX 04004 41902 32950 03301 10278 20270 30022 40031 333 59005 70420=
41902,2023,07,04,06,00,AAXX 04064 41902 NIL=
41902,2023,07,04,12,00,AAXX 04124 41902 32456 33505 10305 20260 39996 40004 82430 10350 56290 59019 70000 8214=
41902,2023,07,04,18,00,AAXX 04184 41902 31430 80000 10272 20260 30007 40015 70392 8562/ 333 56499 59019 70000 83710 84614 81925 88458=
41902,2023,07,05,00,00,AAXX 05004 41902 11440 83402 10270 20260 30019 40028 60107 79596 8562/ 333 56499 59003 70100 83710 84614 81925 88458=
41902,2023,07,05,06,00,AAXX 05064 41902 11456 33202 10320 20270 30017 40026 60046 70196 82530 333 56990 59006 70140 82616=
41902,2023,07,05,12,00,AAXX 05124 41902 32456 33602 10300 20270 30000 40008 82530 333 10340 56990 58004 70140 82616=
41902,2023,07,05,18,00,AAXX 05184 41902 32440 81203 10290 20270 30020 40028 8562/ 333 56499 58013 70140 81712 84616 88458=
41902,2023,07,06,00,00,AAXX 06004 41902 32450 81604 10275 20260 30026 40035 8562/ 333 56499 58007 70040 83710 84616 88458=
41902,2023,07,06,06,00,AAXX 06064 41902 NIL=
41902,2023,07,06,09,00,AAXX 06094 41902 32456 81703 10320 20270 30019 40027 8562/ 333 56499 58015 70000 83709 83613 88459=
41902,2023,07,06,12,00,AAXX 06124 41902 11440 61701 10276 20260 30020 40028 60145 70162 83430 333 10338 56490 58020 70140 82614 85362=
41907,2023,06,30,00,00,AAXX 30004 41907 02340 81802 10275 20270 30010 40025 8662/ 333 59006 70225 85709 88458==
41907,2023,06,30,03,00,AAXX 30034 41907 02450 81802 10292 20270 30022 40037 8552/ 333 20253 59009 70575 85615 88458==
41907,2023,06,30,06,00,AAXX 30064 41907 02450 72203 10330 20280 30015 40029 85510 333 59019 70350 85615 85458==
41907,2023,06,30,09,00,AAXX 30094 41907 01330 80902 10270 20260 39998 40012 79596 8692/ 333 59010 70205 85709 88458 81930==
41907,2023,06,30,12,00,AAXX 30124 41907 21340 80902 10265 20260 39994 40009 76196 8672/ 333 10340 59011 60409 70400 85709 88458==
41907,2023,06,30,15,00,AAXX 30154 41907 01340 80902 10263 20260 30004 40019 70262 8662/ 333 59016 70420 85709 88458==
41907,2023,06,30,18,00,AAXX 30184 41907 11340 80000 10255 20255 30012 40027 60026 70262 8662/ 333 59011 70420 85709 88458==
41907,2023,06,30,21,00,AAXX 30214 41907 02340 80000 10248 20248 30005 40020 8662/ 333 59009 70420 85709 88458==
41907,2023,07,01,00,00,AAXX 01004 41907 01400 80000 10253 20250 30007 40022 76122 8672/ 333 59009 70080 85709 88458==
41907,2023,07,01,03,00,AAXX 01034 41907 01340 80000 10265 20260 30019 40036 76596 8672/ 333 20246 59003 71290 85709 88458==
41907,2023,07,01,06,00,AAXX 01064 41907 21340 80000 10285 20280 30025 40040 70296 8662/ 333 58010 60019 71300 85709 88458==
41907,2023,07,01,09,00,AAXX 01094 41907 01340 80902 10270 20260 30006 40020 70262 8662/ 333 58008 71135 85709 88458==
41907,2023,07,01,12,00,AAXX 01124 41907 01340 81802 10267 20260 39998 40013 76162 8672/ 333 10310 58004 70943 85709 88458==
41907,2023,07,01,15,00,AAXX 01154 41907 02340 80902 10265 20260 30006 40021 8672/ 333 58002 70923 85709 88458==
41907,2023,07,01,18,00,AAXX 01184 41907 02340 81302 10265 20260 30016 40031 8672/ 333 58004 70923 85709 88458==
41907,2023,07,01,21,00,AAXX 01214 41907 02340 80000 10270 20260 30008 40023 8672/ 333 58003 70923 85709 88458==
41907,2023,07,02,00,00,AAXX 02004 41907 02340 80000 10275 20270 39998 40013 8672/ 333 59009 70843 85709 88458==
41907,2023,07,02,03,00,AAXX 02034 41907 02345 81802 10300 20290 30014 40029 8661/ 333 20262 59005 70053 85709 88458==
41907,2023,07,02,06,00,AAXX 02064 41907 02450 61802 10330 20290 30007 40021 85510 333 59018 70043 85615 85458==
41907,2023,07,02,09,00,AAXX 02094 41907 02350 83103 10330 20290 39986 40001 8562/ 333 59020 70003 84709 88458==
41907,2023,07,02,12,00,AAXX 02124 41907 01350 80000 10278 20260 39983 49998 71792 8692/ 333 10345 59015 70000 84709 88458 81930==
41907,2023,07,02,15,00,AAXX 02154 41907 02340 80000 10275 20270 39997 40012 8662/ 333 59009 70000 85709 88458==
41907,2023,07,02,18,00,AAXX 02184 41907 02340 80000 10270 20260 30007 40021 8662/ 333 59009 70000 85709 88458==
41907,2023,07,02,21,00,AAXX 02214 41907 02340 80000 10265 20260 39999 40013 8662/ 333 59009 70000 85709 88458==
41907,2023,07,03,00,00,AAXX 03004 41907 02340 80000 10270 20270 30005 40020 8662/ 333 58007 70000 85709 88458==
41907,2023,07,03,03,00,AAXX 03034 41907 02340 81802 10305 20290 30018 40032 8661/ 333 20264 58004 70000 85709 88458==
41907,2023,07,03,06,00,AAXX 03064 41907 01350 83102 10305 20280 30032 40046 76162 8662/ 333 58025 70040 85709 88458==
41907,2023,07,03,09,00,AAXX 03094 41907 01350 81802 10270 20260 39999 40013 70296 8662/ 333 58013 70130 82709 84615 88458==
41907,2023,07,03,12,00,AAXX 03124 41907 11450 80000 10283 20270 39992 40007 60096 70262 8551/ 333 10340 58012 70130 85615 88458==
41907,2023,07,03,15,00,AAXX 03154 41907 02440 70000 10274 20260 30007 40021 84510 333 58010 70130 84615 85458==
41907,2023,07,03,18,00,AAXX 03184 41907 02340 80000 10270 20260 30012 40027 8662/ 333 58005 70130 83709 85615 88458==
41907,2023,07,03,21,00,AAXX 03214 41907 02440 70000 10270 20260 30006 40020 84510 333 58007 70130 84615 85458==
41907,2023,07,04,00,00,AAXX 04004 41907 02440 70000 10270 20260 39998 40012 85510 333 59007 70130 85615 85458==
41907,2023,07,04,03,00,AAXX 04034 41907 02350 72202 10315 20260 30011 40025 85610 333 20263 59007 70130 82709 84615 85458==
41907,2023,07,04,06,00,AAXX 04064 41907 02450 82202 10340 20280 30020 40035 8651/ 333 59012 70090 86515 88458==
41907,2023,07,04,09,00,AAXX 04094 41907 02450 82302 10360 20270 30004 40018 85510 333 58005 70000 85615 87458==
41907,2023,07,04,12,00,AAXX 04124 41907 01350 71302 10315 20300 39990 40004 70262 85610 333 10368 59003 70010 82709 85615 87458==
41907,2023,07,04,15,00,AAXX 04154 41907 02440 51802 10300 20270 39999 40014 85800 333 59008 70000 82615 83825==
41907,2023,07,04,18,00,AAXX 04184 41907 02340 80000 10290 20270 30006 40021 8662/ 333 59006 70010 85709 88458==
41907,2023,07,04,21,00,AAXX 04214 41907 02340 80000 10288 20270 30003 40018 8662/ 333 59003 70010 85709 88458==
41907,2023,07,05,00,00,AAXX 05004 41907 02340 80000 10280 20260 39995 40009 8662/ 333 59003 70010 85709 88458==
41907,2023,07,05,03,00,AAXX 05034 41907 02450 51302 10320 20270 30016 40031 85800 333 20275 58005 70010 82615 83825==
41907,2023,07,05,06,00,AAXX 05064 41907 01350 80000 10295 20270 39996 40011 72162 8662/ 333 59024 70010 83709 85615 88458==
41907,2023,07,05,09,00,AAXX 05094 41907 02456 41302 10345 20260 39975 49989 84400 333 59029 70020 82615 83825==
41907,2023,07,05,12,00,AAXX 05124 41907 02456 31302 10332 20260 39968 49982 82530 333 10352 59022 70010 82615==
41907,2023,07,05,15,00,AAXX 05154 41907 02440 31302 10297 20270 39982 49996 82530 333 59017 70010 82615==
41907,2023,07,05,18,00,AAXX 05184 41907 02440 31302 10285 20280 39997 40012 82530 333 59009 70010 82615==
41907,2023,07,05,21,00,AAXX 05214 41907 02340 81302 10280 20260 39997 40012 8662/ 333 59006 70010 82709 85615 88458==
41907,2023,07,06,00,00,AAXX 06004 41907 02440 80000 10277 20270 39989 40004 8552/ 333 59010 70010 85615 88458==
41907,2023,07,06,03,00,AAXX 06034 41907 02350 81802 10310 20270 30009 40023 8662/ 333 20275 59009 70010 85709 88458==
41907,2023,07,06,06,00,AAXX 06064 41907 02450 71802 10310 20270 30004 40019 85810 333 58008 70000 82615 83825 85458==
41907,2023,07,06,09,00,AAXX 06094 41907 01350 81803 10300 20260 39993 40008 72162 8662/ 333 58018 70076 82709 85615 88458==
41907,2023,07,06,12,00,AAXX 06124 41907 11450 71302 10315 20270 39987 40001 60081 70162 85570 333 10335 58019 70076 85615 85458==
41907,2023,07,06,15,00,AAXX 06154 41907 02440 71302 10285 20270 30005 40020 84510 333 58023 70076 84615 86458==
41907,2023,07,06,18,00,AAXX 06184 41907 02440 71302 10280 20260 30022 40037 85510 333 58025 70076 85615 86458==
41907,2023,07,06,21,00,AAXX 06214 41907 32340 81802 10280 20260 30006 40021 8662/ 333 56499 58017 70076 83709 85615 88458=
41909,2023,06,30,00,00,AAXX 30004 41909 02350 80000 10265 20250 30021 40032 8562/ 333 59005 70180 83708 83614 88460==
41909,2023,06,30,03,00,AAXX 30034 41909 02356 80000 10294 20260 30037 40048 8562/ 333 20248 59013 70032 83708 83614 88458==
41909,2023,06,30,06,00,AAXX 30064 41909 01356 80000 10325 20270 30032 40043 70262 8562/ 333 59016 70036 83708 83614 88458==
41909,2023,06,30,09,00,AAXX 30094 41909 01350 80000 10307 20270 30017 40028 70262 8562/ 333 59012 70210 84708 85614 88458==
41909,2023,06,30,12,00,AAXX 30124 41909 01350 80000 10251 20240 30009 40020 76162 8672/ 333 10325 59012 70290 86708 88458==
41909,2023,06,30,15,00,AAXX 30154 41909 01330 80000 10252 20240 30019 40030 70262 8562/ 333 59018 70310 85708 88458==
41909,2023,06,30,18,00,AAXX 30184 41909 11330 81301 10256 20250 30026 40037 60026 70262 8562/ 333 59013 70310 83708 85614 88458==
41909,2023,06,30,21,00,AAXX 30214 41909 02330 81301 10256 20250 30022 40033 8562/ 333 59004 70310 83708 85614 88458==
41909,2023,07,01,00,00,AAXX 01004 41909 02350 81301 10257 20250 30017 40028 8562/ 333 59004 70310 83708 85614 88458==
41909,2023,07,01,03,00,AAXX 01034 41909 01350 80000 10250 20240 30040 40051 79596 8692/ 333 20235 58003 70760 86708 88458 81930==
41909,2023,07,01,06,00,AAXX 01064 41909 21456 80000 10274 20260 30038 40049 70296 8552/ 333 58006 60515 70810 85615 88460==
41909,2023,07,01,09,00,AAXX 01094 41909 01350 80000 10263 20260 30021 40032 79596 8692/ 333 58004 70730 86708 88458 81930==
41909,2023,07,01,12,00,AAXX 01124 41909 21350 80000 10259 20250 30014 40025 70296 8692/ 333 10322 58005 60198 70720 86708 88458 81930==
41909,2023,07,01,15,00,AAXX 01154 41909 01440 80000 10258 20250 30030 40041 70262 8552/ 333 58011 70730 85615 88458==
41909,2023,07,01,18,00,AAXX 01184 41909 21440 80000 10257 20250 30035 40046 70262 8552/ 333 58015 60038 70730 85614 88458==
41909,2023,07,01,21,00,AAXX 01214 41909 01440 80000 10255 20250 30031 40042 76162 8552/ 333 58009 70740 85615 88458==
41909,2023,07,02,00,00,AAXX 02004 41909 21440 80000 10268 20260 30015 40026 70262 8552/ 333 59002 60019 70740 85615 88458==
41909,2023,07,02,03,00,AAXX 02034 41909 01456 80000 10285 20260 30031 40042 76162 8552/ 333 20235 59009 70300 85615 88458==
41909,2023,07,02,06,00,AAXX 02064 41909 21440 80000 10318 20280 30021 40032 70262 8552/ 333 59017 60019 70240 85615 88458==
41909,2023,07,02,09,00,AAXX 02094 41909 01340 80000 10294 20280 30006 40017 79522 8692/ 333 59015 70140 85708 88458 81930==
41909,2023,07,02,12,00,AAXX 02124 41909 21350 80000 10280 20260 30001 40012 70296 8632/ 333 10332 59013 60235 70284 85708 88458 81930==
41909,2023,07,02,15,00,AAXX 02154 41909 01340 80000 10264 20250 30021 40031 72996 8572/ 333 59010 70340 84708 88458==
41909,2023,07,02,18,00,AAXX 02184 41909 21340 80000 10268 20250 30023 40034 70296 8562/ 333 59012 60098 70340 84708 88458 81930==
41909,2023,07,02,21,00,AAXX 02214 41909 02340 80000 10274 20260 30018 40029 8562/ 333 59013 70330 84708 88458==
41909,2023,07,03,00,00,AAXX 03004 41909 02350 80000 10276 20270 30021 40032 8562/ 333 59006 70330 84708 88458==
41909,2023,07,03,03,00,AAXX 03034 41909 02356 81302 10300 20270 30033 40044 8562/ 333 20260 58002 70320 83708 83615 88458==
41909,2023,07,03,06,00,AAXX 03064 41909 02456 61302 10334 20260 30024 40035 84830 333 58003 70320 83615 85360==
41909,2023,07,03,09,00,AAXX 03094 41909 02456 71802 10310 20250 30006 40017 84370 333 58000 70220 83615 85458 81930==
41909,2023,07,03,12,00,AAXX 03124 41909 01456 80000 10288 20270 30003 40014 76196 8532/ 333 10345 58002 70006 84615 88458 81930==
41909,2023,07,03,15,00,AAXX 03154 41909 01440 50000 10274 20260 30019 40030 70162 82530 333 59001 70006 82615 84360==
41909,2023,07,03,18,00,AAXX 03184 41909 11440 61802 10276 20260 30024 40035 60006 70362 83530 333 58001 70006 83615 85360==
41909,2023,07,03,21,00,AAXX 03214 41909 02440 40000 10274 20250 30014 40025 82530 333 59004 70006 82615 83360==
41909,2023,07,04,00,00,AAXX 04004 41909 02350 60000 10275 20270 30015 40026 84630 333 59006 70006 83708 85360==
41909,2023,07,04,03,00,AAXX 04034 41909 02456 41802 10320 20260 30024 40035 83430 333 20260 59009 70006 82615 83360==
41909,2023,07,04,06,00,AAXX 04064 41909 02456 41802 10329 20250 30020 40031 83830 333 59004 70006 82615==
41909,2023,07,04,09,00,AAXX 04094 41909 02456 50000 10340 20260 30000 40011 82310 333 59004 70006 82615 85360 81930==
41909,2023,07,04,12,00,AAXX 04124 41909 02456 40000 10337 20270 39982 49994 83830 333 10348 59021 70000 82615==
41909,2023,07,04,15,00,AAXX 04154 41909 02430 80000 10308 20280 30006 40017 8552/ 333 59013 70000 85615 88458==
41909,2023,07,04,18,00,AAXX 04184 41909 02440 40000 10299 20270 30016 40027 83530 333 59008 70000 82615 83360==
41909,2023,07,04,21,00,AAXX 04214 41909 02440 40000 10290 20270 30006 40017 83830 333 59008 70000 82615==
41909,2023,07,05,00,00,AAXX 05004 41909 02450 40000 10284 20260 30000 40011 83430 333 59015 70000 82615 83360==
41909,2023,07,05,03,00,AAXX 05034 41909 02456 50000 10306 20270 30010 40021 82530 333 20267 59005 70000 82615 85460==
41909,2023,07,05,06,00,AAXX 05064 41909 02456 41301 10337 20250 30009 40020 83830 333 59011 70000 82615==
41909,2023,07,05,09,00,AAXX 05094 41909 02457 51002 10350 20250 39986 49998 82330 333 59014 70000 82615 83365 81930==
41909,2023,07,05,12,00,AAXX 05124 41909 02456 71301 10335 20260 39977 49989 84370 333 10355 59005 70000 84614 86460 81930==
41909,2023,07,05,15,00,AAXX 05154 41909 02950 01302 10300 20250 30010 40021 333 58004 70000==
41909,2023,07,05,18,00,AAXX 05184 41909 02440 60000 10283 20240 30015 40026 83530 333 59001 70000 83615 84365==
41909,2023,07,05,21,00,AAXX 05214 41909 02440 81301 10281 20250 30012 40023 8552/ 333 58006 70000 85615 88460==
41909,2023,07,06,00,00,AAXX 06004 41909 02350 80000 10280 20260 30010 40021 8662/ 333 58010 70000 83708 84614 88458==
41909,2023,07,06,03,00,AAXX 06034 41909 01456 60902 10300 20270 30028 40039 70162 83570 333 20265 58018 70018 83614 84460==
41909,2023,07,06,06,00,AAXX 06064 41909 11456 71303 10338 20260 30020 40031 60026 70362 84570 333 58011 70018 84614 86460==
41909,2023,07,06,09,00,AAXX 06094 41909 01356 80000 10279 20260 30114 40125 79596 8692/ 333 58028 70118 85708 88458 81930==
41909,2023,07,06,12,00,AAXX 06124 41909 01350 81302 10296 20250 30005 40016 70296 8632/ 333 10340 58028 70138 85708 88458 81930==
41909,2023,07,06,15,00,AAXX 06154 41909 02440 80000 10285 20270 30034 40045 8552/ 333 58024 70138 85615 88458==
41909,2023,07,06,21,00,AAXX 06214 41909 02440 60000 10280 20260 30032 40043 333 58020 70138 83614 84460==
41915,2023,06,30,00,00,AAXX 30004 41915 21456 80000 10257 20250 30031 40057 70262 8662/ 333 59009 60367 70445 83712 85616 88458==
41915,2023,06,30,03,00,AAXX 30034 41915 02456 81302 10276 20260 30042 40047 8662/ 333 20250 59003 70513 82710 85615 88457==
41915,2023,06,30,06,00,AAXX 30064 41915 21456 81302 10304 20260 30039 40064 70262 8662/ 333 58004 69965 70519 82710 85615 88457==
41915,2023,06,30,09,00,AAXX 30094 41915 02456 71602 10310 20250 30016 40041 86370 333 59012 70519 85616 86458 81928==
41915,2023,06,30,12,00,AAXX 30124 41915 01450 80000 10274 20240 30001 40026 76322 8672/ 333 10326 59014 70070 83710 85616 88458==
41915,2023,06,30,15,00,AAXX 30154 41915 01440 80000 10250 20240 30026 40051 70262 8662/ 333 59008 70497 82710 85616 88458==
41915,2023,06,30,18,00,AAXX 30184 41915 11440 81302 10248 20240 30019 40044 60066 70262 8662/ 333 59018 70497 82710 85616 88458==
41915,2023,06,30,21,00,AAXX 30214 41915 02440 80000 10251 20240 30015 40041 8662/ 333 59017 70246 82710 85616 88458==
41915,2023,07,01,00,00,AAXX 01004 41915 01450 81301 10255 20250 30020 40045 71722 8732/ 333 59011 70134 83710 85616 88458 81928==
41915,2023,07,01,03,00,AAXX 01034 41915 01450 80000 10270 20260 30030 40056 71799 8632/ 333 20248 59012 70229 85616 88458 81928==
41915,2023,07,01,06,00,AAXX 01064 41915 01450 80000 10280 20260 30035 40060 79599 8732/ 333 59004 70226 83710 85616 88458 81928==
41915,2023,07,01,09,00,AAXX 01094 41915 01450 80000 10262 20260 30019 40044 79599 8732/ 333 58003 70496 83710 85616 88458 81928==
41915,2023,07,01,12,00,AAXX 01124 41915 21456 70000 10270 20250 30012 40037 70196 86320 333 10286 58003 60279 70431 85616 87458 81928==
41915,2023,07,01,15,00,AAXX 01154 41915 02450 81301 10255 20250 30030 40056 8662/ 333 58004 70373 81712 86616 88458==
41915,2023,07,01,18,00,AAXX 01184 41915 02450 80000 10252 20240 30029 40055 8562/ 333 58010 70373 82712 85616 88458==
41915,2023,07,01,21,00,AAXX 01214 41915 02450 80000 10255 20250 30023 40048 8662/ 333 58008 70373 82712 85616 88458==
41915,2023,07,02,00,00,AAXX 02004 41915 02456 81301 10264 20250 30018 40043 8652/ 333 59002 70373 86616 88458==
41915,2023,07,02,03,00,AAXX 02034 41915 02456 80000 10287 20250 30029 40054 8652/ 333 20250 59001 70278 86616 88458==
41915,2023,07,02,06,00,AAXX 02064 41915 02456 81402 10310 20260 30021 40045 8552/ 333 59014 70275 85616 88458==
41915,2023,07,02,09,00,AAXX 02094 41915 02456 80000 10317 20270 39999 40024 8652/ 333 59020 70005 86616 88458==
41915,2023,07,02,12,00,AAXX 02124 41915 02456 80000 10317 20270 39999 40024 8662/ 333 10322 59016 70000 83710 85616 88458==
41915,2023,07,02,15,00,AAXX 02154 41915 02450 80000 10270 20260 30019 40045 8662/ 333 59011 70000 83710 85616 88458==
41915,2023,07,02,18,00,AAXX 02184 41915 02450 60000 10268 20250 30017 40042 84620 333 59012 70000 82710 83616 86458==
41915,2023,07,02,21,00,AAXX 02214 41915 02450 80000 10267 20250 30014 40039 8662/ 333 59009 70000 82710 85616 88458==
41915,2023,07,03,00,00,AAXX 03004 41915 02456 80000 10271 20260 30023 40048 8652/ 333 58005 70000 86616 88458==
41915,2023,07,03,03,00,AAXX 03034 41915 02456 80000 10290 20260 30034 40059 8552/ 333 20265 58005 70000 85616 88458==
41915,2023,07,03,06,00,AAXX 03064 41915 02456 81402 10295 20260 30024 40048 8652/ 333 58003 70000 86616 88458==
41915,2023,07,03,09,00,AAXX 03094 41915 02456 51602 10315 20280 30003 40028 83510 333 58004 70000 82616 85458==
41915,2023,07,03,12,00,AAXX 03124 41915 02456 50000 10300 20260 30002 40027 83510 333 10327 58001 70000 83616 85458==
41915,2023,07,03,15,00,AAXX 03154 41915 02450 40000 10276 20270 30019 40044 82410 333 58000 70000 82616 84458==
41915,2023,07,03,18,00,AAXX 03184 41915 02450 60000 10268 20260 30018 40043 84410 333 58001 70000 83616 84458==
41915,2023,07,03,21,00,AAXX 03214 41915 02450 40000 10267 20250 30015 40040 84410 333 58001 70000 83616 86458==
41915,2023,07,04,00,00,AAXX 04004 41915 02456 40000 10269 20260 30011 40036 83510 333 59012 70000 82616 84458==
41915,2023,07,04,03,00,AAXX 04034 41915 02456 70000 10304 20250 30024 40049 85470 333 20264 59010 70000 84616 85458==
41915,2023,07,04,06,00,AAXX 04064 41915 02456 61302 10333 20260 30016 40041 85470 333 59008 70000 84616 84458==
41915,2023,07,04,09,00,AAXX 04094 41915 02456 71402 10319 20270 39992 40017 85610 333 59011 70060 82710 84616 88458==
41915,2023,07,04,12,00,AAXX 04124 41915 21456 40000 10318 20260 39980 40005 70162 83504 333 10344 59022 60068 70060 82616==
41915,2023,07,04,15,00,AAXX 04154 41915 02456 40000 10290 20290 39996 40021 82510 333 59023 70060 82616 84458==
41915,2023,07,04,18,00,AAXX 04184 41915 02450 60000 10287 20270 39997 40022 83510 333 59021 70060 83616 86458==
41915,2023,07,04,21,00,AAXX 04214 41915 02450 80000 10262 20250 39996 40021 8662/ 333 59019 70060 83712 84616 88458==
41915,2023,07,05,00,00,AAXX 05004 41915 21450 80000 10256 20250 30002 40027 76366 8672/ 333 59009 60547 70600 83710 85616 88458==
41915,2023,07,05,03,00,AAXX 05034 41915 01456 51402 10291 20250 30009 40035 70162 83470 333 20255 59015 70621 83616 84458==
41915,2023,07,05,06,00,AAXX 05064 41915 11456 71301 10327 20240 30004 40029 60026 70362 84440 333 59012 70621 83616 84362==
41915,2023,07,05,09,00,AAXX 05094 41915 02456 60602 10330 20250 39978 40003 84440 333 59014 70561 83616 84362==
41915,2023,07,05,12,00,AAXX 05124 41915 21456 70000 10306 20280 39973 49998 71796 85330 333 10344 59007 69935 70564 84616 81928==
41915,2023,07,05,15,00,AAXX 05154 41915 01440 81002 10264 20250 30020 40045 71796 8632/ 333 58020 70860 82710 85616 88458 81928==
41915,2023,07,05,18,00,AAXX 05184 41915 01440 80000 10260 20250 30021 40046 76096 8662/ 333 58024 70920 83710 85616 88458==
41915,2023,07,05,21,00,AAXX 05214 41915 02440 80902 10260 20250 30016 40041 8662/ 333 58020 70920 83710 85616 88458==
41915,2023,07,06,00,00,AAXX 06004 41915 21450 81002 10260 20250 30028 40053 70262 8662/ 333 58026 69947 70384 82710 85616 88458==
41915,2023,07,06,03,00,AAXX 06034 41915 02456 80000 10280 20250 30038 40063 8662/ 333 20257 58029 70363 81712 86616 88458==
41915,2023,07,06,06,00,AAXX 06064 41915 02456 71302 10326 20250 30025 40050 85470 333 58021 70363 84616 84458==
41915,2023,07,06,09,00,AAXX 06094 41915 02456 71001 10340 20260 30009 40034 85470 333 58031 70363 84616 84458==
41915,2023,07,06,12,00,AAXX 06124 41915 21456 71301 10300 20260 30007 40032 71796 85370 333 20341 58032 60015 70373 84616 85458 81928==
41915,2023,07,06,15,00,AAXX 06154 41915 02440 80000 10278 20260 30046 40071 8662/ 333 58026 70077 81710 85616 88458==
41915,2023,07,06,18,00,AAXX 06184 41915 02440 81302 10276 20260 30046 40071 8552/ 333 58024 70017 85616 88458==
41915,2023,07,06,21,00,AAXX 06214 41915 02440 80000 10272 20250 30038 40063 8652/ 333 58022 70017 86616 88458==
41923,2023,06,30,00,00,AAXX 30004 41923 02345 70000 10270 20260 30032 40042 86670 333 59001 70356 83708 84614 86459==
41923,2023,06,30,03,00,AAXX 30034 41923 01350 80000 10292 20270 30048 40058 70362 8662/ 333 20257 59007 70142 83708 84614 88458==
41923,2023,06,30,06,00,AAXX 30064 41923 11356 71902 10328 20270 30039 40049 69926 70162 86670 333 59017 70062 83708 84614==
41923,2023,06,30,09,00,AAXX 30094 41923 01330 82202 10273 20250 30022 40032 79522 8692/ 333 59018 70056 83708 84614 88459 81928==
41923,2023,06,30,12,00,AAXX 30124 41923 21330 80602 10252 20250 30023 40033 79596 8692/ 333 10333 59008 60877 70868 86707 88458 81925==
41923,2023,06,30,15,00,AAXX 30154 41923 01330 80000 10259 20250 30032 40042 72196 8532/ 333 59015 70906 81710 84614 88460 81930==
41923,2023,06,30,18,00,AAXX 30184 41923 11330 80000 10252 20240 30031 40041 60046 70296 8532/ 333 59012 70906 81710 84614 88960==
41923,2023,06,30,21,00,AAXX 30214 41923 02430 80000 10255 20255 30025 40035 8532/ 333 59008 70906 85614 88460 81930==
41923,2023,07,01,00,00,AAXX 01004 41923 02430 80000 10255 20255 30029 40039 8532/ 333 59003 70906 85614 88460 81930==
41923,2023,07,01,03,00,AAXX 01034 41923 01330 82002 10294 20270 30046 40056 76022 8632/ 333 20249 59002 70902 83708 84614 88459 81929==
41923,2023,07,01,06,00,AAXX 01064 41923 21440 81802 10302 20270 30042 40052 70262 8532/ 333 58003 60045 70940 85614 88460 81930==
41923,2023,07,01,09,00,AAXX 01094 41923 01325 80000 10270 20250 30026 40036 79596 8692/ 333 58004 70910 83708 84614 88458 81930==
41923,2023,07,01,12,00,AAXX 01124 41923 22320 80000 10253 20250 30024 40034 8632/ 333 10318 58001 60749 70818 83708 84614 88458 81930==
41923,2023,07,01,15,00,AAXX 01154 41923 01330 80000 10260 20250 30035 40045 72166 8561/ 333 58003 70798 82709 84615 88458==
41923,2023,07,01,18,00,AAXX 01184 41923 21340 70000 10256 20250 30040 40050 70162 84630 333 58009 60028 70798 81709 84615 85360==
41923,2023,07,01,21,00,AAXX 01214 41923 02340 70000 10264 20250 30027 40037 84630 333 58002 70798 82709 83615 85360==
41923,2023,07,02,00,00,AAXX 02004 41923 02340 80000 10278 20270 30027 40037 8562/ 333 59002 70798 82709 84615 88458==
41923,2023,07,02,03,00,AAXX 02034 41923 02350 80000 10292 20270 30039 40049 8562/ 333 20248 59007 70798 83709 83615 88458==
41923,2023,07,02,06,00,AAXX 02064 41923 02356 71803 10317 20280 30028 40038 84670 333 59014 70762 82709 83615 86458==
41923,2023,07,02,09,00,AAXX 02094 41923 01345 71902 10327 20280 30009 40019 76122 85770 333 59017 70738 82708 84614 85459==
41923,2023,07,02,12,00,AAXX 02124 41923 21335 80000 10272 20260 30007 40017 79596 8692/ 333 10333 59017 60097 70108 83708 85614 88458 81928==
41923,2023,07,02,15,00,AAXX 02154 41923 01345 50000 10284 20270 30028 40038 70196 83630 333 59007 70098 81709 83615==
41923,2023,07,02,18,00,AAXX 02184 41923 11345 60000 10280 20270 30028 40038 69986 70396 84630 333 59012 70098 82709 83615 85362==
41923,2023,07,02,21,00,AAXX 02214 41923 02345 70000 10285 20280 30019 40029 85670 333 59008 70098 83708 84614 86459==
41923,2023,07,03,00,00,AAXX 03004 41923 01340 80000 10282 20270 30029 40039 72162 8662/ 333 58002 70000 83708 85614 88458==
41923,2023,07,03,03,00,AAXX 03034 41923 02350 71303 10300 20270 30042 40052 85370 333 20271 58003 70098 83708 84614 86459 81930==
41923,2023,07,03,06,00,AAXX 03064 41923 02350 71403 10326 20270 30034 40044 86370 333 58006 70098 83708 85614 86459 81930==
41923,2023,07,03,09,00,AAXX 03094 41923 01350 70000 10312 20270 30013 40023 76122 85670 333 58004 70116 83708 84614 86458==
41923,2023,07,03,12,00,AAXX 03124 41923 21350 50000 10312 20260 30007 40017 70162 83630 333 10335 58000 60028 70026 82709 83615==
41923,2023,07,03,15,00,AAXX 03154 41923 02350 50000 10298 20270 30024 40034 83630 333 59004 70018 82709 83615==
41923,2023,07,03,18,00,AAXX 03184 41923 02345 30000 10292 20270 30030 40040 83630 333 58002 70018 81709 83615==
41923,2023,07,03,21,00,AAXX 03214 41923 02345 50000 10286 20270 30022 40032 83630 333 58003 70018 82709 83615==
41923,2023,07,04,00,00,AAXX 04004 41923 02340 70000 10282 20260 30021 40031 85670 333 59008 70018 83708 84614 86458==
41923,2023,07,04,03,00,AAXX 04034 41923 02350 60000 10314 20250 30031 40041 84630 333 20278 59011 70018 82709 83615 85360==
41923,2023,07,04,06,00,AAXX 04064 41923 02356 61802 10342 20240 30028 40038 84630 333 59006 70018 82709 83615 85360==
41923,2023,07,04,09,00,AAXX 04094 41923 02456 51802 10351 20240 39997 40007 85300 333 59016 70000 82615 83824 81930==
41923,2023,07,04,12,00,AAXX 04124 41923 02456 20000 10338 20230 39988 49998 82500 333 10360 59019 70000 82616==
41923,2023,07,04,15,00,AAXX 04154 41923 02450 50000 10310 20260 30014 40024 81530 333 59010 70000 81616 85360==
41923,2023,07,04,18,00,AAXX 04184 41923 01450 50000 10300 20270 30019 40029 71322 83330 333 59011 70000 82616 81930==
41923,2023,07,04,21,00,AAXX 04214 41923 02340 70000 10290 20270 30015 40025 85670 333 59007 70000 82709 84614 85458==
41923,2023,07,05,00,00,AAXX 05004 41923 21340 81803 10280 20270 30008 40018 70362 8632/ 333 59013 60017 70014 83708 84614 88458 81930==
41923,2023,07,05,03,00,AAXX 05034 41923 02456 60902 10300 20250 30017 40027 83430 333 20275 59014 70014 82615 85360==
41923,2023,07,05,06,00,AAXX 05064 41923 02456 50903 10334 20250 30012 40022 84330 333 59016 70014 82615 83824 81930==
41923,2023,07,05,09,00,AAXX 05094 41923 01456 50602 10338 20240 39991 40001 72122 82530 333 59006 70014 82615 85360==
41923,2023,07,05,12,00,AAXX 05124 41923 01456 50000 10318 20250 39992 40002 72162 84330 333 10342 58004 70014 82615 83824 81930==
41923,2023,07,05,15,00,AAXX 05154 41923 01350 50000 10296 20260 30016 40026 70262 84630 333 58002 70044 82708 83614==
41923,2023,07,05,18,00,AAXX 05184 41923 11350 60000 10294 20250 30022 40032 60026 70362 85630 333 58003 70044 83708 83614==
41923,2023,07,05,21,00,AAXX 05214 41923 02345 60000 10288 20260 30017 40027 85630 333 58002 70044 83708 83614==
41923,2023,07,06,00,00,AAXX 06004 41923 21340 80000 10282 20250 30022 40032 72122 8632/ 333 58014 60007 70032 83708 84614 88458 81930==
41923,2023,07,06,03,00,AAXX 06034 41923 01350 70000 10294 20250 30036 40046 70162 85670 333 20281 58019 70038 82708 84614 85458==
41923,2023,07,06,06,00,AAXX 06064 41923 11350 70903 10320 20250 30026 40036 69966 70262 86370 333 58014 70038 83708 85614 86459 81930==
41923,2023,07,06,09,00,AAXX 06094 41923 01340 81502 10288 20260 30026 40036 76162 8632/ 333 58035 70042 83708 84614 88458 81930==
41923,2023,07,06,12,00,AAXX 06124 41923 21345 70000 10290 20260 30015 40025 70162 86370 333 10330 58023 60018 70048 83708 84614 86458 81930==
41923,2023,07,06,15,00,AAXX 06154 41923 02345 40000 10290 20250 30044 40054 83630 333 58028 70018 81709 84615==
41923,2023,07,06,18,00,AAXX 06184 41923 02345 70000 10286 20260 30048 40058 86370 333 58026 70018 83708 84614 86458 81930==
41923,2023,07,06,21,00,AAXX 06214 41923 21340 70000 10282 20260 30035 40045 70262 86370 333 56490 58018 6010/ 70116 83708 84614 81930 86458=
41926,2023,06,30,00,00,AAXX 30004 41926 21450 80000 10263 20260 30021 40035 76162 8452/ 333 59003 60227 70222 84617 88458==
41926,2023,06,30,03,00,AAXX 30034 41926 01450 71801 10290 20280 30029 40043 70162 83510 333 20255 59008 70232 83617 87459==
41926,2023,06,30,06,00,AAXX 30064 41926 21456 51801 10328 20280 30023 40036 70162 85400 333 59013 60015 70232 82618 83459==
41926,2023,06,30,09,00,AAXX 30094 41926 41450 80000 10272 20260 30001 40015 76196 8432/ 333 59009 83617 88458 81928==
41926,2023,06,30,12,00,AAXX 30124 41926 01340 81801 10269 20260 30004 40018 76166 8572/ 333 10345 59008 70356 82709 83616 88458==
41926,2023,06,30,15,00,AAXX 30154 41926 01340 80000 10247 20240 30013 40027 76166 8572/ 333 59013 70376 82709 83616 88458==
41926,2023,06,30,18,00,AAXX 30184 41926 11440 70000 10253 20240 30018 40032 60021 70162 83510 333 59009 70376 83618 86459==
41926,2023,06,30,21,00,AAXX 30214 41926 02340 80000 10260 20250 30002 40016 8472/ 333 59022 70374 82709 83617 88458==
41926,2023,07,01,00,00,AAXX 01004 41926 02340 80000 10273 20270 30005 40019 8472/ 333 59016 70154 82709 83617 88458==
41926,2023,07,01,03,00,AAXX 01034 41926 02450 61802 10310 20280 30029 40043 83510 333 20246 58000 70144 83618 85459==
41926,2023,07,01,06,00,AAXX 01064 41926 02450 61801 10332 20280 30016 40029 83310 333 59007 70026 82618 85459 81930==
41926,2023,07,01,09,00,AAXX 01094 41926 41450 70000 10269 20260 30012 40026 72196 83310 333 58011 82618 86459 81930==
41926,2023,07,01,12,00,AAXX 01124 41926 11450 80000 10270 20260 30002 40016 60081 70396 8332/ 333 10342 59002 70098 82618 88458 81930==
41926,2023,07,01,15,00,AAXX 01154 41926 02450 70000 10274 20260 30015 40029 82510 333 58002 70078 82618 86459==
41926,2023,07,01,18,00,AAXX 01184 41926 02450 60000 10262 20250 30024 40038 82510 333 58006 70078 82618 85459==
41926,2023,07,01,21,00,AAXX 01214 41926 02450 60000 10268 20260 30015 40029 82510 333 58013 70078 82618 85459==
41926,2023,07,02,00,00,AAXX 02004 41926 02450 60000 10273 20260 30004 40018 82510 333 59001 70078 82618 85459==
41926,2023,07,02,03,00,AAXX 02034 41926 02356 71802 10313 20280 30021 40034 8462/ 333 20260 59008 70078 82708 83615 87459==
41926,2023,07,02,06,00,AAXX 02064 41926 02350 61802 10340 20280 30013 40026 8462/ 333 59003 70078 82708 83615 86459==
41926,2023,07,02,09,00,AAXX 02094 41926 02456 61802 10360 20280 39990 40003 85410 333 59022 70000 84616 85459==
41926,2023,07,02,12,00,AAXX 02124 41926 02450 80000 10330 20290 39987 40000 8532/ 333 10362 59015 70000 84615 88459 81930==
41926,2023,07,02,15,00,AAXX 02154 41926 02450 80000 10295 20280 30011 40025 8452/ 333 59004 70000 84616 88459==
41926,2023,07,02,18,00,AAXX 02184 41926 02450 60000 10290 20270 30014 40028 84510 333 59010 70000 84616 85459==
41926,2023,07,02,21,00,AAXX 02214 41926 02450 60000 10286 20280 30001 40015 84510 333 59014 70000 84616 85459==
41926,2023,07,03,00,00,AAXX 03004 41926 02450 60000 10282 20270 30008 40022 84510 333 58004 70000 84616 86459==
41926,2023,07,03,03,00,AAXX 03034 41926 02356 71802 10310 20270 30026 40040 84610 333 20280 58005 70000 82708 83615 87459==
41926,2023,07,03,06,00,AAXX 03064 41926 02456 61802 10344 20270 30015 40028 84510 333 58002 70000 83615 84459==
41926,2023,07,03,09,00,AAXX 03094 41926 01350 81801 10270 20270 30001 40015 79796 8592/ 333 58011 70366 82708 83615 88458 81930==
41926,2023,07,03,12,00,AAXX 03124 41926 21350 81801 10280 20260 39994 40008 70296 8462/ 333 10350 58007 60378 70366 82708 83615 88458==
41926,2023,07,03,15,00,AAXX 03154 41926 02450 60000 10278 20270 30016 40030 84510 333 58005 70366 84616 86459==
41926,2023,07,03,18,00,AAXX 03184 41926 02450 60000 10278 20270 30021 40035 84510 333 58007 70366 84616 86459==
41926,2023,07,03,21,00,AAXX 03214 41926 02450 60000 10275 20270 30001 40015 84510 333 58000 70366 84616 86459==
41926,2023,07,04,00,00,AAXX 04004 41926 02450 60000 10272 20270 30005 40019 84510 333 59003 70366 84616 86459==
41926,2023,07,04,03,00,AAXX 04034 41926 02456 41801 10318 20270 30015 40028 84400 333 20264 59011 70366 82618 83820==
41926,2023,07,04,06,00,AAXX 04064 41926 02457 41801 10335 20260 30017 40030 84401 333 58002 70366 82618 83820==
41926,2023,07,04,09,00,AAXX 04094 41926 02457 51803 10348 20250 39982 49995 85400 333 59019 70000 82618 83825==
41926,2023,07,04,12,00,AAXX 04124 41926 02456 51801 10326 20260 39977 49990 85401 333 10360 59017 70000 82618 83820==
41926,2023,07,04,15,00,AAXX 04154 41926 02450 50000 10295 20260 30001 40015 81530 333 59015 70000 81618 84362==
41926,2023,07,04,18,00,AAXX 04184 41926 02950 20000 10285 20280 30006 40020 80001 333 59015 70000 82080==
41926,2023,07,04,21,00,AAXX 04214 41926 02/50 50000 10280 20270 39993 40007 85030 333 59008 70000 85362==
41926,2023,07,05,00,00,AAXX 05004 41926 02450 60000 10273 20260 39995 40009 83510 333 59010 70000 83618 86459==
41926,2023,07,05,03,00,AAXX 05034 41926 02456 51802 10320 20270 30005 40018 84401 333 20273 59010 70000 82618 83820==
41926,2023,07,05,06,00,AAXX 05064 41926 01456 50000 10332 20270 39999 40012 70262 84401 333 59018 70000 83618 83820==
41926,2023,07,05,09,00,AAXX 05094 41926 41457 51802 10350 20270 39979 49992 70262 85400 333 59003 82618 83820==
41926,2023,07,05,12,00,AAXX 05124 41926 11456 61802 10320 20260 39971 49984 60006 70362 83510 333 10355 59006 83617 86459==
41926,2023,07,05,15,00,AAXX 05154 41926 01450 51802 10286 20270 39998 40012 70162 82510 333 59003 70110 82618 85459==
41926,2023,07,05,18,00,AAXX 05184 41926 11450 61802 10280 20260 30003 40017 60116 70362 83510 333 59003 70110 83617 86459==
41926,2023,07,05,21,00,AAXX 05214 41926 02450 60000 10278 20260 30002 40016 82510 333 59004 70110 82618 86459==
41926,2023,07,06,00,00,AAXX 06004 41926 02450 61802 10270 20260 30001 40015 82510 333 59006 70110 82617 86459==
41926,2023,07,06,03,00,AAXX 06034 41926 01450 51801 10292 20260 30011 40025 70162 81531 333 20270 58006 70114 81615 83362==
41926,2023,07,06,06,00,AAXX 06064 41926 11456 51801 10332 20260 30005 40018 69946 70262 84401 333 58006 70114 82618 83820==
41926,2023,07,06,09,00,AAXX 06094 41926 02450 81502 10310 20280 30000 40013 8542/ 333 58021 70114 84615 88459==
41926,2023,07,06,12,00,AAXX 06124 41926 01450 60000 10275 20260 39994 40008 72162 84510 333 10342 58023 70030 84616 86459==
41926,2023,07,06,15,00,AAXX 06154 41926 02450 60000 10280 20270 30023 40037 83510 333 58025 70038 83616 86459==
41926,2023,07,06,18,00,AAXX 06184 41926 02450 60000 10280 20270 30027 40041 83510 333 58024 70038 83616 86459==
41926,2023,07,06,21,00,AAXX 06214 41926 02450 60000 10278 20270 30016 40030 83510 333 58015 70038 83616 86459==
41927,2023,06,30,00,00,AAXX 30004 41927 32450 61802 10272 20260 30019 40033 83510 333 56490 59011 70008 83617 85459=
41927,2023,06,30,06,00,AAXX 30064 41927 11457 50000 10323 20270 30019 40033 60036 70162 85410 333 56490 59008 70038 82618 83828=
41927,2023,06,30,12,00,AAXX 30124 41927 11356 81901 10255 20250 30006 40021 60087 76162 8572/ 333 10335 56699 59001 70108 82708 83616 88458=
41927,2023,06,30,18,00,AAXX 30184 41927 11456 60000 10260 20250 30014 40028 60058 70162 83510 333 56490 59022 70156 83618 86459=
41927,2023,07,01,00,00,AAXX 01004 41927 11456 81801 10260 20260 30005 40019 60014 72122 8452/ 333 56499 59014 70164 84616 88458=
41927,2023,07,01,06,00,AAXX 01064 41927 32457 51901 10330 20270 30020 40034 85400 333 56600 58001 70134 82618 83828=
41927,2023,07,01,12,00,AAXX 01124 41927 11356 81802 10260 20260 30007 40021 60689 76196 8672/ 333 10340 56499 58001 70740 82708 84616 88458=
41927,2023,07,01,18,00,AAXX 01184 41927 32456 71801 10260 20260 30012 40027 83510 333 56499 59002 70692 83618 87459=
41927,2023,07,02,00,00,AAXX 02004 41927 32456 80000 10275 20275 30006 40021 8452/ 333 56599 58001 70684 84617 88458=
41927,2023,07,02,03,00,AAXX 02034 41927 32457 61801 10295 20290 30015 40029 83510 333 20258 56690 59009 70684 83618 86459=
41927,2023,07,02,06,00,AAXX 02064 41927 32457 60000 10330 20280 30007 40021 84410 333 56690 59013 70684 83617 75459=
41927,2023,07,02,12,00,AAXX 02124 41927 11456 81901 10265 20260 30001 40016 60314 79596 8692/ 333 10345 56499 59006 70312 84616 82929 88458=
41927,2023,07,02,18,00,AAXX 02184 41927 11456 61801 10268 20268 30002 40017 60078 70196 83510 333 56490 59010 70386 83618 86459=
41927,2023,07,03,00,00,AAXX 03004 41927 32456 81801 10280 20270 30003 40018 8452/ 333 56499 59003 70386 84617 88458=
41927,2023,07,03,06,00,AAXX 03064 41927 32457 61901 10332 20270 30017 40031 84410 333 56590 58010 70386 82618 85459=
41927,2023,07,03,12,00,AAXX 03124 41927 11457 50000 10282 20260 39997 40011 60045 70196 82510 333 10342 56990 59004 70112 82618 85459=
41927,2023,07,03,18,00,AAXX 03184 41927 11456 71802 10265 20260 30026 40040 60064 70362 83510 333 56490 58024 70096 83617 87459=
41927,2023,07,04,00,00,AAXX 04004 41927 32456 51601 10270 20270 30014 40028 82510 333 56990 58011 70096 82618 85459=
41927,2023,07,04,06,00,AAXX 04064 41927 32458 62101 10340 20260 30012 40026 86400 333 56500 59005 70096 83618 83828=
41927,2023,07,04,12,00,AAXX 04124 41927 32457 31801 10335 20270 39981 49995 83800 333 10353 56900 59016 70058 82828=
41927,2023,07,05,00,00,AAXX 05004 41927 32456 60000 10275 20270 30012 40027 83510 333 56990 59002 70000 83618 86459=
41927,2023,07,05,06,00,AAXX 05064 41927 32458 51802 10325 20260 39999 40013 85400 333 56400 59013 70000 82618 83828=
41927,2023,07,05,12,00,AAXX 05124 41927 32457 51802 10325 20260 39970 49984 85400 333 10347 56400 59011 70000 82618 83825=
41927,2023,07,05,18,00,AAXX 05184 41927 32456 61802 10280 20260 39996 40010 83570 333 56490 59025 70000 83617 84459=
41927,2023,07,06,00,00,AAXX 06004 41927 32456 21601 10270 20260 39992 40006 82500 333 56400 59020 70000 82618=
41927,2023,07,06,06,00,AAXX 06064 41927 32457 51802 10330 20250 39998 40012 85400 333 56400 59001 70000 82618 83825=
41927,2023,07,06,09,00,AAXX 06094 41927 32456 71602 10300 20250 39992 40006 84310 333 56490 58007 70000 83617 81930 87459=
41927,2023,07,06,12,00,AAXX 06124 41927 32457 21802 10300 20260 39990 40004 82500 333 56400 58020 70000 82618=
41929,2023,06,30,00,00,AAXX 30004 41929 02456 80000 10270 20260 30028 40038 8451/ 333 59009 70168 84618 88462==
41929,2023,06,30,03,00,AAXX 30034 41929 02456 70000 10302 20280 30045 40054 84510 333 20260 59009 70070 84618 87462==
41929,2023,06,30,06,00,AAXX 30064 41929 02457 70000 10322 20280 30039 40048 84510 333 59013 70010 84618 87462==
41929,2023,06,30,09,00,AAXX 30094 41929 01450 81912 10270 20250 30012 40022 79596 8672/ 333 59021 70060 85618 88462 82930==
41929,2023,06,30,12,00,AAXX 30124 41929 21450 81002 10254 20240 30017 40027 76196 8552/ 333 10325 59010 60257 70250 85618 88462==
41929,2023,06,30,15,00,AAXX 30154 41929 01450 80000 10254 20240 30028 40038 76166 8452/ 333 59015 70280 84618 88462==
41929,2023,06,30,18,00,AAXX 30184 41929 21450 80000 10252 20250 30031 40041 70262 8451/ 333 59012 60035 70282 84618 88462==
41929,2023,06,30,21,00,AAXX 30214 41929 02450 81002 10260 20250 30013 40023 8451/ 333 59016 70282 84618 88462==
41929,2023,07,01,03,00,AAXX 01034 41929 02456 61804 10290 20280 30041 40050 84510 333 20250 59004 70282 84618 86462==
41929,2023,07,01,06,00,AAXX 01064 41929 02457 81802 10330 20280 30039 40048 8531/ 333 58000 70284 84618 88462 81932==
41929,2023,07,01,09,00,AAXX 01094 41929 01456 82409 10280 20260 30035 40045 79596 8672/ 333 58023 70244 85618 88462 82930==
41929,2023,07,01,12,00,AAXX 01124 41929 21456 80000 10260 20250 30018 40028 76196 8552/ 333 10340 58001 60267 70484 85618 88462==
41929,2023,07,01,15,00,AAXX 01154 41929 02456 80000 10260 20250 30031 40041 8441/ 333 58003 70484 84618 88462==
41929,2023,07,01,18,00,AAXX 01184 41929 02456 60903 10260 20250 30037 40047 84410 333 58006 70452 84718 86462==
41929,2023,07,01,21,00,AAXX 01214 41929 02456 60000 10260 20250 30020 40030 84410 333 58007 70452 84618 86462==
41929,2023,07,02,00,00,AAXX 02004 41929 02456 80000 10280 20270 30022 40032 8441/ 333 59001 70260 84618 88462==
41929,2023,07,02,03,00,AAXX 02034 41929 02456 81803 10300 20290 30038 40047 8451/ 333 20253 59003 70260 84618 88462==
41929,2023,07,02,06,00,AAXX 02064 41929 02456 81803 10325 20290 30038 40047 8592/ 333 59001 70260 84618 88462 81932==
41929,2023,07,02,09,00,AAXX 02094 41929 02456 81802 10335 20290 30005 40015 8441/ 333 59030 70240 84618 88462==
41929,2023,07,02,12,00,AAXX 02124 41929 02456 81802 10300 20270 30006 40016 8441/ 333 10340 59012 70000 84618 88462==
41929,2023,07,02,15,00,AAXX 02154 41929 02456 81802 10290 20280 30024 40034 8441/ 333 59007 70000 84618 88462==
41929,2023,07,02,18,00,AAXX 02184 41929 02456 60000 10280 20270 30023 40033 84410 333 70000 84418 86462==
41929,2023,07,02,21,00,AAXX 02214 41929 02456 70000 10280 20270 30023 40033 84410 333 58003 70000 84618 87462==
41929,2023,07,03,00,00,AAXX 03004 41929 02456 80000 10285 20280 30024 40034 8441/ 333 58002 70000 84618 88462==
41929,2023,07,03,03,00,AAXX 03034 41929 02456 71802 10315 20280 30038 40047 84510 333 20273 58000 70000 84618 87462==
41929,2023,07,03,06,00,AAXX 03064 41929 02457 51802 10343 20270 30032 40041 83440 333 59006 70000 82618 83365==
41929,2023,07,03,09,00,AAXX 03094 41929 02457 60000 10350 20270 30009 40018 83430 333 58004 70000 83618 83365==
41929,2023,07,03,12,00,AAXX 03124 41929 02457 60000 10300 20270 30005 40015 83410 333 10355 59001 70000 83618 83462==
41929,2023,07,03,15,00,AAXX 03154 41929 02456 51802 10280 20260 30020 40030 82430 333 59004 70000 82618 83365==
41929,2023,07,03,18,00,AAXX 03184 41929 02456 40000 10280 20270 30028 40038 82430 333 58005 70000 82618 83365==
41929,2023,07,03,21,00,AAXX 03214 41929 02/56 20000 10280 20270 30016 40026 82030 333 59007 70000 82365==
41929,2023,07,04,00,00,AAXX 04004 41929 02/56 30000 10275 20270 30019 40029 83030 333 59005 70000 83365==
41929,2023,07,04,03,00,AAXX 04034 41929 02456 41802 10315 20270 30028 40037 84400 333 20268 59010 70000 83618==
41929,2023,07,04,06,00,AAXX 04064 41929 02557 51802 10336 20260 30027 40036 85400 333 59005 70000 82620 83825==
41929,2023,07,04,09,00,AAXX 04094 41929 02557 51803 10360 20240 39992 40001 85400 333 59008 70000 82620 83825==
41929,2023,07,04,12,00,AAXX 04124 41929 02557 51803 10324 20270 39988 49997 85400 333 10360 59008 70000 82620 83825==
41929,2023,07,04,15,00,AAXX 04154 41929 02456 50000 10295 20270 30010 40020 82530 333 59010 70000 82618 83365==
41929,2023,07,04,18,00,AAXX 04184 41929 02/56 30000 10284 20260 30017 40027 83030 333 59001 70000 83365==
41929,2023,07,04,21,00,AAXX 04214 41929 02456 30000 10280 20260 30002 40012 81530 333 59014 70000 81618 83365==
41929,2023,07,05,00,00,AAXX 05004 41929 02456 71602 10285 20280 30005 40015 83510 333 59014 70000 83618 84462==
41929,2023,07,05,03,00,AAXX 05034 41929 02456 31402 10314 20250 30015 40024 82540 333 20271 59013 70000 82618==
41929,2023,07,05,06,00,AAXX 05064 41929 02457 31403 10330 20270 30009 40018 82540 333 59018 70000 82618==
41929,2023,07,05,09,00,AAXX 05094 41929 02458 51303 10325 20260 39991 40000 83430 333 59001 70000 82618 83365==
41929,2023,07,05,12,00,AAXX 05124 41929 NIL=
41929,2023,07,05,15,00,AAXX 05154 41929 02456 50000 10285 20270 30012 40021 82530 333 58002 70000 82618 83365==
41929,2023,07,05,18,00,AAXX 05184 41929 02/56 51303 10283 20260 30017 40026 85030 333 58000 70000==
41929,2023,07,05,21,00,AAXX 05214 41929 02/56 51303 10281 20260 30014 40023 85030 333 58012 70000 85365==
41929,2023,07,06,00,00,AAXX 06004 41929 02/56 51303 10278 20270 30010 40019 85030 333 58005 70000 85365==
41929,2023,07,06,03,00,AAXX 06034 41929 01456 81802 10276 20260 30031 40040 76122 8451/ 333 20270 58016 70062 84618 88462==
41929,2023,07,06,06,00,AAXX 06064 41929 21457 61402 10322 20270 30022 40031 70162 82540 333 58013 60065 70062 82618 84365==
41929,2023,07,06,09,00,AAXX 06094 41929 01457 61305 10303 20260 30017 40026 70296 83430 333 58026 70282 82618 84365==
41929,2023,07,06,12,00,AAXX 06124 41929 11456 71804 10290 20270 30010 40019 60226 70396 83570 333 10327 58024 70282 83618 85462==
41929,2023,07,06,15,00,AAXX 06154 41929 01/56 51304 10280 20270 30035 40044 70162 85030 333 58023 70352 85365==
41929,2023,07,06,18,00,AAXX 06184 41929 11/56 51303 10275 20270 30045 40054 60076 70262 85030 333 58028 70352 85365==
41929,2023,07,06,21,00,AAXX 06214 41929 01/56 51303 10275 20270 30038 40047 70262 85030 333 58024 70397 85365==
41933,2023,06,30,00,00,AAXX 30004 41933 11456 70000 10265 20260 30035 40044 69926 70262 83520 333 59009 70103 83618 87458==
41933,2023,06,30,03,00,AAXX 30034 41933 02456 70000 10285 20280 30049 40058 83520 333 20250 59006 70103 83618 87458==
41933,2023,06,30,06,00,AAXX 30064 41933 02456 62002 10305 20270 30052 40061 82520 333 59013 70020 82618 86458==
41933,2023,06,30,09,00,AAXX 30094 41933 01456 61802 10300 20280 30026 40035 70262 84520 333 59015 70060 84618 86458==
41933,2023,06,30,12,00,AAXX 30124 41933 21350 81804 10270 20260 30018 40027 79596 8592/ 333 10325 59014 60379 70372 82708 84615 88456 81925==
41933,2023,06,30,15,00,AAXX 30154 41933 01340 81802 10252 20250 30040 40049 79596 8592/ 333 59005 70756 82708 84615 88456 81925==
41933,2023,06,30,18,00,AAXX 30184 41933 21340 81802 10252 20250 30042 40051 70296 8592/ 333 59006 60398 70766 82708 84615 88456 81925==
41933,2023,06,30,21,00,AAXX 30214 41933 02440 81802 10255 20250 30041 40050 8452/ 333 58001 70764 84615 88458==
41933,2023,07,01,00,00,AAXX 01004 41933 02450 81802 10262 20260 30030 40039 8452/ 333 59005 70764 84616 88458==
41933,2023,07,01,03,00,AAXX 01034 41933 02450 81803 10290 20270 30056 40065 8452/ 333 20250 58007 70764 84616 88458==
41933,2023,07,01,06,00,AAXX 01064 41933 02450 81803 10315 20260 30050 40059 8452/ 333 59002 70764 84616 88458==
41933,2023,07,01,09,00,AAXX 01094 41933 02456 61802 10320 20270 30016 40025 85401 333 59010 70712 82616 83824==
41933,2023,07,01,12,00,AAXX 01124 41933 01340 80000 10266 20260 30028 40037 79562 8492/ 333 10324 58010 70030 81708 83615 88457 81928==
41933,2023,07,01,15,00,AAXX 01154 41933 01440 80000 10269 20260 30038 40047 70296 8352/ 333 59002 70038 83615 88457==
41933,2023,07,01,18,00,AAXX 01184 41933 11450 30000 10270 20260 30038 40047 60006 70196 81530 333 59004 70028 81616 83362==
41933,2023,07,01,21,00,AAXX 01214 41933 01440 61802 10274 20260 30026 40035 70362 83510 333 59015 70030 83615 86458==
41933,2023,07,02,00,00,AAXX 02004 41933 01450 81803 10280 20270 30023 40032 70362 8352/ 333 59007 70002 83615 88457==
41933,2023,07,02,03,00,AAXX 02034 41933 02450 82004 10300 20270 30041 40050 8351/ 333 20264 59015 70030 83615 88457==
41933,2023,07,02,06,00,AAXX 02064 41933 02456 62003 10324 20270 30030 40039 84410 333 59020 70030 82616 83824 85458==
41933,2023,07,02,09,00,AAXX 02094 41933 01456 61802 10299 20270 30013 40022 72996 83530 333 59003 70160 83618 85362==
41933,2023,07,02,12,00,AAXX 02124 41933 21456 60000 10305 20280 30010 40019 70296 82550 333 10327 59018 60138 70132 82618 86362==
41933,2023,07,02,15,00,AAXX 02154 41933 02456 51802 10295 20270 30024 40033 82550 333 59014 70132 82618 85362==
41933,2023,07,02,18,00,AAXX 02184 41933 02/50 20000 10285 20270 30032 40041 82040 333 59006 70132 82362==
41933,2023,07,02,21,00,AAXX 02214 41933 02450 51702 10280 20270 30027 40036 82530 333 58001 70130 82618 85362==
41933,2023,07,03,00,00,AAXX 03004 41933 02450 61802 10280 20270 30027 40036 83530 333 58004 70130 83618 85362==
41933,2023,07,03,03,00,AAXX 03034 41933 02456 61702 10300 20270 30041 40050 84450 333 20279 58000 70130 82618 83828 85362==
41933,2023,07,03,06,00,AAXX 03064 41933 02456 61802 10325 20270 30032 40041 84450 333 58002 70130 82618 83828 85362==
41933,2023,07,03,09,00,AAXX 03094 41933 01456 52003 10305 20270 30009 40018 72992 85400 333 59004 70000 82618 83828==
41933,2023,07,03,12,00,AAXX 03124 41933 01456 52103 10310 20260 30008 40016 70292 82530 333 10330 59002 70000 82618 85362==
41933,2023,07,03,15,00,AAXX 03154 41933 02456 30000 10295 20290 30026 40034 83500 333 59002 70000 83618==
41933,2023,07,03,18,00,AAXX 03184 41933 02456 23105 10290 20280 30026 40034 82500 333 59006 70000 82618==
41933,2023,07,03,21,00,AAXX 03214 41933 02456 30000 10285 20280 30023 40032 83500 333 59004 70000 83618==
41933,2023,07,04,00,00,AAXX 04004 41933 02456 50000 10280 20270 30021 40030 82530 333 59006 70000 82618 85362==
41933,2023,07,04,03,00,AAXX 04034 41933 02456 42803 10310 20270 30029 40038 84400 333 20280 59012 70000 82618 83828==
41933,2023,07,04,06,00,AAXX 04064 41933 02456 52503 10320 20260 30022 40030 85400 333 59010 70000 82618 83828==
41933,2023,07,04,09,00,AAXX 04094 41933 41456 52203 10345 20270 30003 40011 70262 85400 333 59060 82618 83828==
41933,2023,07,04,12,00,AAXX 04124 41933 41456 62202 10305 20270 30002 40010 70262 85400 333 10346 59006 82618 83828==
41933,2023,07,04,15,00,AAXX 04154 41933 42450 52202 10302 20270 30022 40030 85400 333 59004 82618 83828==
41933,2023,07,04,18,00,AAXX 04184 41933 42440 40000 10295 20280 30023 40031 84500 333 59003 84618==
41933,2023,07,04,21,00,AAXX 04214 41933 42440 50000 10280 20250 30016 40025 84520 333 59007 84616 85458==
41933,2023,07,05,00,00,AAXX 05004 41933 21450 61802 10270 20250 30013 40022 70362 84520 333 59008 60117 70110 84616 86458==
41933,2023,07,05,03,00,AAXX 05034 41933 02456 61802 10306 20270 30016 40025 84520 333 20252 59013 70110 84618 86458==
41933,2023,07,05,06,00,AAXX 05064 41933 02456 61802 10315 20250 30015 40024 84520 333 59007 70110 86458==
41933,2023,07,05,09,00,AAXX 05094 41933 02456 41802 10320 20270 39992 40000 84400 333 59011 70110 82618 83824==
41933,2023,07,05,12,00,AAXX 05124 41933 02450 62203 10311 20270 39994 40002 83520 333 10331 59008 70110 83616 85458==
41933,2023,07,05,15,00,AAXX 05154 41933 02450 42003 10294 20250 30014 40023 82501 333 59008 70110 82616 83074==
41933,2023,07,05,18,00,AAXX 05184 41933 02450 62002 10280 20250 30022 40031 83501 333 59001 70110 83616 85074==
41933,2023,07,05,21,00,AAXX 05214 41933 02450 61802 10264 20240 30021 40030 83501 333 58005 70110 83616 85074==
41933,2023,07,06,00,00,AAXX 06004 41933 01450 81802 10267 20260 30023 40032 76122 8351/ 333 58010 70020 83616 88458==
41933,2023,07,06,03,00,AAXX 06034 41933 01456 81803 10296 20260 30039 40048 70262 8352/ 333 20263 58023 70022 83616 88458==
41933,2023,07,06,06,00,AAXX 06064 41933 11456 61802 10316 20270 30030 40039 69926 70162 84409 333 58015 70022 82616 85180==
41933,2023,07,06,09,00,AAXX 06094 41933 01456 62004 10300 20250 30024 40033 72162 84450 333 58032 70022 82618 83828 85362==
41933,2023,07,06,12,00,AAXX 06124 41933 21456 62109 10295 20250 30017 40026 70262 84442 333 10329 58023 60008 70022 83618 85362==
41933,2023,07,06,15,00,AAXX 06154 41933 01450 71810 10283 20260 30044 40053 76122 84510 333 58030 70022 84618 87458==
41933,2023,07,06,18,00,AAXX 06184 41933 21450 51806 10274 20240 30051 40060 70162 82530 333 58029 60015 70032 82618 85362==
41933,2023,07,06,21,00,AAXX 06214 41933 02450 61805 10265 20250 30043 40052 83510 333 58022 70032 83618 86459==
41936,2023,06,30,00,00,AAXX 30004 41936 01318 71803 10250 20230 30022 40029 70522 84630 333 59006 70000 83710 83615 86362==
41936,2023,06,30,03,00,AAXX 30034 41936 01325 72208 10304 20270 30035 40042 70522 84630 333 20248 59005 70000 83710 83615 85362==
41936,2023,06,30,06,00,AAXX 30064 41936 01340 72212 10334 20280 30033 40040 70522 84630 333 59009 70000 83710 83615 85362==
41936,2023,06,30,09,00,AAXX 30094 41936 01330 72806 10324 20270 30001 40008 71792 84930 333 59025 70000 83708 83615 85362 81930==
41936,2023,06,30,12,00,AAXX 30124 41936 01207 82716 10260 20250 30015 40022 79796 86920 333 10354 59007 70380 86704 84612 88258 81930==
41936,2023,06,30,15,00,AAXX 30154 41936 01320 81703 10254 20240 30013 40020 76196 86730 333 59025 70400 84708 83615 86362==
41936,2023,06,30,18,00,AAXX 30184 41936 01320 71803 10258 20250 30028 40035 70562 84630 333 59020 70410 83710 83615 86362==
41936,2023,06,30,21,00,AAXX 30214 41936 01320 71903 10272 20260 30014 40021 70562 84630 333 59024 70410 83710 83615 85362==
41936,2023,07,01,00,00,AAXX 01004 41936 01320 71803 10280 20270 30014 40021 70522 84630 333 59008 70410 83710 83615 85362==
41936,2023,07,01,03,00,AAXX 01034 41936 01330 72209 10326 20280 30023 40030 70522 84630 333 20234 59002 70410 82710 83615 85362==
41936,2023,07,01,06,00,AAXX 01064 41936 01340 72206 10332 20290 30026 40033 70533 84630 333 59007 70410 82710 83615 85362==
41936,2023,07,01,09,00,AAXX 01094 41936 01340 72107 10324 20280 30010 40017 70522 84730 333 59010 70410 82710 83615 85362==
41936,2023,07,01,12,00,AAXX 01124 41936 01320 71605 10290 20280 30012 40019 70596 84630 333 10354 59003 70070 83710 83615 86362==
41936,2023,07,01,15,00,AAXX 01154 41936 01330 61503 10288 20280 30020 40027 70522 84630 333 59007 70080 82710 83615 85362==
41936,2023,07,01,18,00,AAXX 01184 41936 01330 51803 10280 20260 30028 40035 70522 82630 333 58000 70070 82710 83362==
41936,2023,07,01,21,00,AAXX 01214 41936 01330 51803 10276 20260 30024 40031 70522 82630 333 58010 70070 82710 83362==
41936,2023,07,02,00,00,AAXX 02004 41936 01420 52006 10268 20260 30012 40019 70521 82630 333 59002 70070 82615 83462==
41936,2023,07,02,03,00,AAXX 02034 41936 01330 62508 10320 20280 30030 40037 70522 84630 333 20260 58007 70070 82710 83615==
41936,2023,07,02,06,00,AAXX 02064 41936 01340 62409 10348 20280 30019 40026 70522 81630 333 59007 70070 81710 83615 84362==
41936,2023,07,02,09,00,AAXX 02094 41936 01440 62409 10350 20270 39997 40004 70522 81630 333 59013 70070 81710 83615 84362==
41936,2023,07,02,12,00,AAXX 02124 41936 01440 62206 10334 20280 30002 40009 70522 82630 333 10356 59010 70070 82710 83615 84362==
41936,2023,07,02,15,00,AAXX 02154 41936 01335 52305 10300 20270 30014 40021 70522 83630 333 59006 70000 81710==
41936,2023,07,02,18,00,AAXX 02184 41936 01330 41803 10294 20280 30018 40025 70522 82630 333 59010 70000 81710==
41936,2023,07,02,21,00,AAXX 02214 41936 01430 41804 10290 20280 30013 40020 70522 82530 333 59011 70000 82615 83362==
41936,2023,07,03,00,00,AAXX 03004 41936 01/20 32003 10278 20270 30014 40021 70521 83030 333 58002 70000 83362==
41936,2023,07,03,03,00,AAXX 03034 41936 01325 52408 10310 20280 30028 40035 70522 81630 333 20266 59002 70000 81710 82615==
41936,2023,07,03,06,00,AAXX 03064 41936 01340 52409 10350 20270 30026 40032 70522 81630 333 58006 70000 81710 83615==
41936,2023,07,03,09,00,AAXX 03094 41936 01440 62006 10346 20270 30000 40006 70522 81630 333 58002 70000 81710 83615==
41936,2023,07,03,12,00,AAXX 03124 41936 01440 60703 10304 20270 30000 40007 71796 82930 333 10360 59002 70010 82710 83615==
41936,2023,07,03,15,00,AAXX 03154 41936 01440 62203 10288 20260 30014 40021 70592 82630 333 58000 70010 82710 82615==
41936,2023,07,03,18,00,AAXX 03184 41936 01430 51803 10280 20260 30024 40031 70522 81630 333 58006 70130 81710 82615==
41936,2023,07,03,21,00,AAXX 03214 41936 01430 42205 10278 20270 30011 40018 70522 81630 333 59002 70130 81710 82615==
41936,2023,07,04,00,00,AAXX 04004 41936 01/20 32703 10278 20270 30009 40016 70521 83030 333 59005 70130 83362==
41936,2023,07,04,03,00,AAXX 04034 41936 01440 22103 10320 20270 30020 40027 70511 333 20264 59008 70130 82800 82615==
41936,2023,07,04,06,00,AAXX 04064 41936 01450 31803 10352 20270 30017 40023 70511 83800 333 59009 70130 83615==
41936,2023,07,04,09,00,AAXX 04094 41936 01450 31703 10360 20250 39994 40001 70511 82830 333 59005 70130 81615==
41936,2023,07,04,12,00,AAXX 04124 41936 01450 42105 10350 20260 39985 49992 70521 82830 333 10368 59015 70120 81615==
41936,2023,07,04,15,00,AAXX 04154 41936 01440 12103 10308 20270 30007 40014 70521 333 59007 70120 81500 81615==
41936,2023,07,04,18,00,AAXX 04184 41936 01/40 21903 10288 20270 30013 40020 70511 82030 333 59011 70000 82632==
41936,2023,07,04,21,00,AAXX 04214 41936 01/30 31503 10284 20260 39996 40003 70511 83030 333 59015 70000 83362==
41936,2023,07,05,00,00,AAXX 05004 41936 41/30 31203 10278 20270 39999 40006 70511 83030 333 59010 83362==
41936,2023,07,05,03,00,AAXX 05034 41936 41340 41604 10318 20270 30010 40017 70561 82630 333 10266 59010 82710==
41936,2023,07,05,06,00,AAXX 05064 41936 41350 41706 10344 20260 39998 40004 70562 82630 333 59019 82710==
41936,2023,07,05,09,00,AAXX 05094 41936 41450 51208 10340 20260 39980 49987 70522 83615 333 59014 82710 83615==
41936,2023,07,05,12,00,AAXX 05124 41936 01340 61206 10298 20290 39978 49982 70562 84630 333 10352 59010 70040 82710 83615==
41936,2023,07,05,15,00,AAXX 05154 41936 01440 51404 10290 20270 30004 40012 70592 82630 333 59002 70006 82615==
41936,2023,07,05,18,00,AAXX 05184 41936 01440 41606 10284 20260 30005 40012 70511 82530 333 59008 70006 82615==
41936,2023,07,05,21,00,AAXX 05214 41936 01430 41706 10284 20270 39994 40001 70511 82530 333 59002 70006 82615==
41936,2023,07,06,00,00,AAXX 06004 41936 01320 60000 10268 20260 30002 40009 70562 84630 333 58003 70120 83708 83615==
41936,2023,07,06,03,00,AAXX 06034 41936 01440 51405 10314 20260 30015 40022 70596 83830 333 20258 58005 70120 83615 84362==
41936,2023,07,06,06,00,AAXX 06064 41936 01340 71408 10328 20290 30011 40018 70566 84630 333 58014 70000 82710 83615 85362==
41936,2023,07,06,09,00,AAXX 06094 41936 01440 51406 10304 20260 30008 40015 70562 82830 333 58028 70120 82615 85362==
41936,2023,07,06,12,00,AAXX 06124 41936 01440 71704 10294 20270 30002 40009 70522 84630 333 10326 58024 70060 82710 83615 85362==
41936,2023,07,06,15,00,AAXX 06154 41936 NIL=
41936,2023,07,06,21,00,AAXX 06214 41936 31430 52005 10294 20280 30010 40017 70522 83830 333 56990 58012 70140 83710 83615 85362=
41938,2023,06,30,00,00,AAXX 30004 41938 11450 40000 10273 20270 30042 40046 60014 70262 84500 333 56990 59010 70136 84618=
41938,2023,06,30,06,00,AAXX 30064 41938 32456 40000 10324 20270 30036 40040 84410 333 56490 59014 70040 83618=
41938,2023,06,30,12,00,AAXX 30124 41938 11450 60000 10295 20280 30018 40022 60026 70362 84410 333 10325 56490 59008 70028 83618 84459=
41938,2023,06,30,18,00,AAXX 30184 41938 11450 70000 10250 20240 30022 40026 60106 79596 84910 333 56990 59010 70126 83618 81928 85459=
41938,2023,07,01,00,00,AAXX 01004 41938 32450 50000 10268 20250 30018 40022 84500 333 56990 59018 70116 84618=
41938,2023,07,01,06,00,AAXX 01064 41938 32456 41803 10328 20280 30032 40036 84400 333 56400 59004 70116 83618=
41938,2023,07,01,12,00,AAXX 01124 41938 11450 80000 10278 20278 30025 40029 60153 76196 8252/ 333 10328 56999 58007 70244 82618 88459=
41938,2023,07,01,18,00,AAXX 01184 41938 32456 31801 10281 20270 30034 40038 81570 333 56590 58012 70146 81618 83362=
41938,2023,07,02,00,00,AAXX 02004 41938 31345 81801 10280 20270 30027 40031 70521 8562/ 333 56499 58009 70146 81709 84618 88459=
41938,2023,07,02,03,00,AAXX 02034 41938 32456 71602 10304 20280 30034 40038 85410 333 20261 56490 59002 70146 83618 83825 85460=
41938,2023,07,02,06,00,AAXX 02064 41938 32456 72002 10333 20280 30028 40032 84411 333 56599 59004 70146 82617 83825 85460=
41938,2023,07,02,12,00,AAXX 02124 41938 11456 81804 10300 20270 30016 40020 60051 70396 8442/ 333 10340 56499 59009 70048 83617 88459=
41938,2023,07,02,18,00,AAXX 02184 41938 32956 31801 10277 20260 30025 40029 81031 333 56099 59009 70048 81362 83080=
41938,2023,07,03,00,00,AAXX 03004 41938 31545 40000 10280 20270 30024 40028 70511 81171 333 56999 59003 70048 81825 83362=
41938,2023,07,03,06,00,AAXX 03064 41938 32456 72002 10330 20270 30031 40035 84311 333 56599 58003 70048 81618 83825 81930=
41938,2023,07,03,12,00,AAXX 03124 41938 11456 62001 10320 20270 30010 40014 69906 70296 84472 333 10340 56599 59006 79999 83616 83080=
41938,2023,07,03,18,00,AAXX 03184 41938 32456 52101 10289 20270 30031 40035 82502 333 56509 58006 79999 82616 84080=
41938,2023,07,04,00,00,AAXX 04004 41938 31435 12101 10270 20260 30023 40027 70521 81401 333 56509 59001 79999 81618=
41938,2023,07,04,06,00,AAXX 04064 41938 32458 51802 10340 20260 30025 40029 85400 333 56400 59006 79999 83618 83825=
41938,2023,07,04,12,00,AAXX 04124 41938 32558 51802 10320 20270 39996 40000 82132 333 10355 56599 59014 70000 82824 83080=
41938,2023,07,04,18,00,AAXX 04184 41938 32956 41802 10285 20280 30018 40022 80002 333 56009 59013 70000 84080=
41938,2023,07,05,00,00,AAXX 05004 41938 32356 71202 10283 20260 30006 40010 84672 333 56399 59017 70000 81709 84616 85460 85080=
41938,2023,07,05,06,00,AAXX 05064 41938 32458 71204 10327 20270 30006 40010 86402 333 56309 59019 70000 84616 83825=
41938,2023,07,05,12,00,AAXX 05124 41938 11450 70000 10288 20288 39996 40000 60029 76162 84410 333 10332 56490 58000 70022 83618 84459=
41938,2023,07,05,18,00,AAXX 05184 41938 32450 40000 10273 20270 30005 40009 84500 333 56900 59013 70027 84618=
41938,2023,07,06,00,00,AAXX 06004 41938 32450 40000 10270 20260 30005 40009 84500 333 56900 59006 70027 84618=
41938,2023,07,06,06,00,AAXX 06064 41938 11450 60000 10277 20260 30021 40025 60143 76162 84410 333 56490 58015 70170 83618 84459=
41938,2023,07,06,09,00,AAXX 06094 41938 21450 70000 10265 20260 30015 40019 76166 84510 333 56990 58019 6006/ 70231 84618 85459=
41938,2023,07,06,12,00,AAXX 06124 41938 11450 40000 10283 20270 30008 40012 60078 70162 84410 333 10305 56490 58012 70213 83618=
41938,2023,07,06,18,00,AAXX 06184 41938 11450 40000 10273 20260 30022 40026 60016 70262 84510 333 56990 58017 70216 83618=
41939,2023,06,30,00,00,AAXX 30004 41939 02456 80000 10270 20260 30028 40036 8352/ 333 59022 70310 83618 88459==
41939,2023,06,30,03,00,AAXX 30034 41939 02458 80000 10292 20260 30040 40048 8352/ 333 20253 59006 70240 83618 88459==
41939,2023,06,30,06,00,AAXX 30064 41939 02458 60000 10335 20280 30046 40054 83510 333 59016 70090 83617 86459==
41939,2023,06,30,09,00,AAXX 30094 41939 01457 70000 10295 20270 30017 40025 70262 83510 333 59028 70020 83617 87459==
41939,2023,06,30,12,00,AAXX 30124 41939 11456 70000 10280 20260 30018 40026 60026 70262 82510 333 10345 59021 70029 82617 86459==
41939,2023,06,30,15,00,AAXX 30154 41939 01456 80000 10252 20230 30040 40048 70362 8352/ 333 59011 70042 83616 88459==
41939,2023,06,30,18,00,AAXX 30184 41939 21456 80000 10250 20240 30048 40056 70262 8352/ 333 59014 60028 70042 82617 88459==
41939,2023,06,30,21,00,AAXX 30214 41939 02450 80000 10263 20250 30034 40042 8352/ 333 59011 70042 83618 88459==
41939,2023,07,01,00,00,AAXX 01004 41939 02456 80000 10265 20260 30026 40034 8352/ 333 59002 70042 83618 88459==
41939,2023,07,01,03,00,AAXX 01034 41939 02458 80000 10290 20260 30036 40044 8352/ 333 20248 59004 70042 83618 88459==
41939,2023,07,01,06,00,AAXX 01064 41939 02457 60000 10340 20270 30039 40047 82510 333 59007 70042 82617 86460==
41939,2023,07,01,09,00,AAXX 01094 41939 02450 80000 10282 20270 30027 40035 8352/ 333 58010 70050 83616 88458==
41939,2023,07,01,12,00,AAXX 01124 41939 21450 80000 10275 20270 30030 40038 70262 8352/ 333 10345 58012 60035 70054 83617 88459==
41939,2023,07,01,15,00,AAXX 01154 41939 02450 60000 10268 20250 30040 40048 82510 333 58000 70032 82617 85459==
41939,2023,07,01,18,00,AAXX 01184 41939 02450 60000 10267 30050 40058 82510 333 58002 70032 82617 85459==
41939,2023,07,01,21,00,AAXX 01214 41939 02450 60000 10273 20260 30030 40038 83510 333 59004 70032 83618 85459==
41939,2023,07,02,00,00,AAXX 02004 41939 02457 60000 10280 20270 30024 40032 83510 333 59002 70032 83618 85459==
41939,2023,07,02,03,00,AAXX 02034 41939 02458 80000 10300 20270 30033 40041 8352/ 333 20248 59003 70032 83618 88459==
41939,2023,07,02,06,00,AAXX 02064 41939 02458 60000 10340 20260 30031 40038 82510 333 59008 70032 82617 86459==
41939,2023,07,02,09,00,AAXX 02094 41939 01456 70000 10290 20270 30017 40024 70396 83510 333 59010 70024 83616 87459==
41939,2023,07,02,12,00,AAXX 02124 41939 11456 50000 10300 20270 30017 40025 60026 70192 83530 333 10343 59013 70020 83618 83365==
41939,2023,07,02,15,00,AAXX 02154 41939 02450 60000 10287 20280 30030 40038 82510 333 59010 70020 82617 86459==
41939,2023,07,02,18,00,AAXX 02184 41939 02450 60000 10280 20270 30042 40050 82510 333 59008 70020 82617 86459==
41939,2023,07,02,21,00,AAXX 02214 41939 02450 60000 10275 20260 30033 40041 83510 333 58003 70020 83618 85459==
41939,2023,07,03,00,00,AAXX 03004 41939 02457 80000 10270 20260 30023 40031 8352/ 333 59001 70020 83618 88459==
41939,2023,07,03,03,00,AAXX 03034 41939 02458 60000 10303 20270 30040 40048 83510 333 20268 58007 70020 83618 85459==
41939,2023,07,03,06,00,AAXX 03064 41939 02457 70000 10332 20270 30042 40050 83510 333 58011 70020 83616 87459==
41939,2023,07,03,09,00,AAXX 03094 41939 01457 40000 10328 20270 30014 40022 70161 82530 333 59003 70108 82617 83360==
41939,2023,07,03,12,00,AAXX 03124 41939 11457 30000 10315 20280 30010 40018 60116 70162 82530 333 10340 59007 70108 82618==
41939,2023,07,03,15,00,AAXX 03154 41939 02450 50000 10293 20270 30031 40039 82510 333 58001 70108 82618 85459==
41939,2023,07,03,18,00,AAXX 03184 41939 02450 50000 10285 20280 30040 40048 82510 333 58002 70108 82617 85459==
41939,2023,07,03,21,00,AAXX 03214 41939 02450 30000 10283 20270 30030 40038 83500 333 59003 70108 83618==
41939,2023,07,04,00,00,AAXX 04004 41939 02457 20000 10280 20270 30018 40026 82500 333 59005 70108 82618==
41939,2023,07,04,03,00,AAXX 04034 41939 02458 20000 10307 20270 30033 40041 82500 333 20270 59007 70108 82618==
41939,2023,07,04,06,00,AAXX 04064 41939 02458 30000 10345 20270 30029 40037 82430 333 59013 70108 82618==
41939,2023,07,04,09,00,AAXX 04094 41939 02458 10000 10340 20260 30008 40016 81530 333 59006 70000 81618==
41939,2023,07,04,12,00,AAXX 04124 41939 02457 10000 10325 20280 39999 40007 81530 333 10352 59007 70000 81618==
41939,2023,07,04,15,00,AAXX 04154 41939 02450 60000 10294 20270 30021 40029 82510 333 59010 70000 82618 85459==
41939,2023,07,04,18,00,AAXX 04184 41939 02450 60000 10288 20280 30032 40040 82510 333 59008 70000 82617 85459==
41939,2023,07,04,21,00,AAXX 04214 41939 02456 40000 10280 20270 30015 40023 82530 333 59015 70000 82618 83364==
41939,2023,07,05,00,00,AAXX 05004 41939 02456 50000 10275 20270 30009 40018 83530 333 59009 70000 83617 83365==
41939,2023,07,05,03,00,AAXX 05034 41939 02458 40000 10300 20260 30018 40026 82530 333 20270 59015 70000 82618 83364==
41939,2023,07,05,06,00,AAXX 05064 41939 02458 20000 10330 20250 30009 40017 82430 333 59020 70000 81618==
41939,2023,07,05,09,00,AAXX 05094 41939 42458 30000 10327 20260 39995 40003 82430 333 59014 81618==
41939,2023,07,05,12,00,AAXX 05124 41939 01456 70000 10340 20270 30000 40008 58001 70056 87459 333 70060==
41939,2023,07,05,15,00,AAXX 05154 41939 02450 80000 10280 20260 30018 40026 8352/ 333 59003 70056 83617 88459==
41939,2023,07,05,18,00,AAXX 05184 41939 02450 80000 10276 20270 30027 40035 8352/ 333 59005 70056 83617 88459==
41939,2023,07,05,21,00,AAXX 05214 41939 02450 80000 10277 20270 30020 40028 8352/ 333 58005 70056 83617 88459==
41939,2023,07,06,00,00,AAXX 06004 41939 01456 80000 10277 20270 30014 40022 70262 8352/ 333 58005 70040 83617 88459==
41939,2023,07,06,03,00,AAXX 06034 41939 02458 60000 10310 20270 30026 40034 83510 333 20263 58008 70094 83618 85459==
41939,2023,07,06,06,00,AAXX 06064 41939 01450 80000 10260 20250 30035 40043 76122 8352/ 333 58026 70130 83616 88459==
41939,2023,07,06,09,00,AAXX 06094 41939 01456 70000 10298 20270 30025 40033 70162 82510 333 58030 70148 82617 87459==
41939,2023,07,06,12,00,AAXX 06124 41939 21456 70000 10290 20270 30024 40032 70262 83510 333 10335 58024 60039 70192 83617 85459==
41939,2023,07,06,15,00,AAXX 06154 41939 02456 50000 10282 20260 30042 40050 83530 333 58024 70192 83617 83364==
41939,2023,07,06,21,00,AAXX 06214 41939 02456 50000 10276 20270 30056 40064 83530 333 58036 70192 83617 83364==
41941,2023,06,30,00,00,AAXX 30004 41941 21450 80000 10268 20268 30038 40044 70262 8632/ 333 59010 60015 70260 85615 88457 81928==
41941,2023,06,30,03,00,AAXX 30034 41941 02450 80000 10300 20280 30051 40057 8632/ 333 20248 59006 70260 85616 88458 81930==
41941,2023,06,30,06,00,AAXX 30064 41941 02450 81406 10328 20290 30053 40058 8632/ 333 59016 70030 85616 88458 81930==
41941,2023,06,30,09,00,AAXX 30094 41941 01450 81403 10315 20280 30029 40034 79596 8692/ 333 59020 70020 84612 88456 82924==
41941,2023,06,30,12,00,AAXX 30124 41941 21450 83106 10255 20255 30034 40040 79596 8692/ 333 10340 59005 60229 70230 84612 88456 82924==
41941,2023,06,30,15,00,AAXX 30154 41941 01440 81304 10260 20250 30038 40044 71396 8692/ 333 59003 70250 85616 88457 81928==
41941,2023,06,30,18,00,AAXX 30184 41941 NIL=
41941,2023,06,30,21,00,AAXX 30214 41941 01440 80000 10265 20260 30023 40029 76166 8692/ 333 59014 70300 85612 88456 81924==
41941,2023,07,01,00,00,AAXX 01004 41941 21450 81406 10270 20270 30027 40033 72166 8692/ 333 59011 60039 70300 85615 88457 81928==
41941,2023,07,01,06,00,AAXX 01064 41941 02456 71804 10325 20280 30056 40061 85420 333 58003 70300 84616 87458==
41941,2023,07,01,09,00,AAXX 01094 41941 02450 83106 10325 20280 30032 40037 8632/ 333 58003 70270 85615 88458 81928==
41941,2023,07,01,12,00,AAXX 01124 41941 21450 80000 10262 20260 30035 40041 72996 8692/ 333 10337 58001 60147 70240 85612 84456 81924==
41941,2023,07,01,15,00,AAXX 01154 41941 01440 81804 10265 20260 30039 40045 71322 8632/ 333 58001 70220 85616 88458 81930==
41941,2023,07,01,18,00,AAXX 01184 41941 NIL=
41941,2023,07,01,21,00,AAXX 01214 41941 01440 80000 10260 20250 30033 40039 71322 8632/ 333 58010 70140 85615 88458 81930==
41941,2023,07,02,00,00,AAXX 02004 41941 02450 81804 10280 20280 30034 40040 8632/ 333 58007 70140 85616 88458 81930==
41941,2023,07,02,03,00,AAXX 02034 41941 02450 81404 10302 20290 30046 40051 8632/ 333 20260 58004 70140 85616 88458 81930==
41941,2023,07,02,06,00,AAXX 02064 41941 02456 82003 10335 20280 30036 40041 8632/ 333 59020 70140 85614 88456 81925==
41941,2023,07,02,09,00,AAXX 02094 41941 02457 81404 10345 20290 30020 40026 85420 333 59012 70140 84616 86458==
41941,2023,07,02,12,00,AAXX 02124 41941 02450 61803 10317 20280 30018 40023 85420 333 10347 59017 70000 84616 86458==
41941,2023,07,02,15,00,AAXX 02154 41941 02440 71802 10299 20280 30027 40032 85420 333 59012 70000 84616 87458==
41941,2023,07,02,18,00,AAXX 02184 41941 02440 70000 10296 20270 30035 40040 85420 333 59007 70000 84616 87458==
41941,2023,07,02,21,00,AAXX 02214 41941 02440 61803 10292 20280 30033 40038 85420 333 58000 70000 84616 86458==
41941,2023,07,03,00,00,AAXX 03004 41941 02450 61803 10288 20280 30031 40036 85420 333 59003 70000 84616 86458==
41941,2023,07,03,03,00,AAXX 03034 41941 02450 61802 10318 20280 30045 40050 85420 333 20280 59001 70000 84616 86458==
41941,2023,07,03,06,00,AAXX 03064 41941 01450 81803 10275 20270 30042 40047 76122 8632/ 333 58006 70020 85616 88458 81930==
41941,2023,07,03,09,00,AAXX 03094 41941 02457 61803 10320 20270 30025 40030 85420 333 58005 70020 84616 86458==
41941,2023,07,03,12,00,AAXX 03124 41941 02456 61802 10322 20270 30019 40024 85420 333 10332 58001 70020 84616 86458==
41941,2023,07,03,15,00,AAXX 03154 41941 02440 60000 10295 20280 30032 40037 85420 333 58005 70020 84616 86458==
41941,2023,07,03,18,00,AAXX 03184 41941 02440 61803 10290 20280 30036 40041 85420 333 58001 70020 84616 86458==
41941,2023,07,03,21,00,AAXX 03214 41941 02440 60000 10285 20280 30031 40036 85420 333 59002 70020 84616 86458==
41941,2023,07,04,00,00,AAXX 04004 41941 02450 61803 10280 20280 30027 40032 85420 333 59004 70020 84616 86458==
41941,2023,07,04,03,00,AAXX 04034 41941 02456 61803 10326 20270 30036 40041 85420 333 20278 59009 70020 84616 86458==
41941,2023,07,04,06,00,AAXX 04064 41941 02450 70000 10327 20270 30031 40036 85420 333 59011 70000 84616 87458==
41941,2023,07,04,09,00,AAXX 04094 41941 02456 71803 10348 20260 30021 40026 85420 333 59004 70000 84616 87458==
41941,2023,07,04,12,00,AAXX 04124 41941 11450 61803 10315 20270 30001 40007 60026 70162 85420 333 10350 59018 70040 84616 86458==
41941,2023,07,04,15,00,AAXX 04154 41941 02440 60000 10295 20280 30015 40020 85420 333 59017 70040 84616 86458==
41941,2023,07,04,18,00,AAXX 04184 41941 02440 60000 10290 20280 30025 40030 85420 333 59011 70040 84616 86458==
41941,2023,07,04,21,00,AAXX 04214 41941 02440 60000 10280 20270 30021 40026 85420 333 59010 70040 84616 86458==
41941,2023,07,05,00,00,AAXX 05004 41941 01450 81803 10270 20270 30014 40020 72162 8632/ 333 59013 70010 85616 88458 81930==
41941,2023,07,05,03,00,AAXX 05034 41941 02456 81404 10305 20270 30019 40024 8632/ 333 20270 59017 70050 85616 88458 81930==
41941,2023,07,05,06,00,AAXX 05064 41941 02450 80000 10325 20270 30016 40021 8632/ 333 59015 70050 85616 88458 81930==
41941,2023,07,05,09,00,AAXX 05094 41941 02450 80803 10327 20260 39998 40004 8632/ 333 58006 70050 85616 88458 81930==
41941,2023,07,05,12,00,AAXX 05124 41941 02450 60000 10308 20270 39999 40005 85420 333 10336 59002 70010 84616 86458==
41941,2023,07,05,15,00,AAXX 05154 41941 02440 61806 10293 20260 30022 40027 85420 333 58007 70010 84616 86458==
41941,2023,07,05,18,00,AAXX 05184 41941 02440 81404 10282 20260 30029 40034 8632/ 333 58004 70010 85616 88458 81930==
41941,2023,07,05,21,00,AAXX 05214 41941 02440 80000 10280 20260 30027 40032 8632/ 333 58006 70010 85616 88458 81930==
41941,2023,07,06,00,00,AAXX 06004 41941 21450 81803 10270 20270 30034 40040 76162 8632/ 333 58020 60015 70010 85616 88458 81930==
41941,2023,07,06,03,00,AAXX 06034 41941 01450 81804 10295 20280 30044 40049 70262 8632/ 333 20268 58025 70020 85616 88458 81930==
41941,2023,07,06,06,00,AAXX 06064 41941 21450 81404 10302 20280 30039 40044 76162 8632/ 333 58023 60077 70070 85612 88456 81924==
41941,2023,07,06,09,00,AAXX 06094 41941 01456 81403 10272 20270 30030 40036 72166 8632/ 333 58032 70380 85615 88457 81928==
41941,2023,07,06,12,00,AAXX 06124 41941 21456 61404 10300 20270 30022 40027 70166 85420 333 10310 58023 60317 70380 84616 86458==
41941,2023,07,06,15,00,AAXX 06154 41941 02440 81404 10280 20270 30043 40048 8632/ 333 58021 70380 85616 88458 81930==
41941,2023,07,06,21,00,AAXX 06214 41941 01440 81403 10275 20275 30047 40053 72162 8632/ 333 58020 70680 85616 88458 81930==
41943,2023,06,30,00,00,AAXX 30004 41943 02330 81802 10260 20250 30042 40049 8662/ 333 59008 70080 83710 84615 88458==
41943,2023,06,30,03,00,AAXX 30034 41943 02340 80000 10295 20280 30059 40066 8662/ 333 20258 59005 70080 83710 84615 88458==
41943,2023,06,30,06,00,AAXX 30064 41943 01340 81803 10303 20280 30058 40065 72122 8662/ 333 59007 70010 83709 84615 88458==
41943,2023,06,30,09,00,AAXX 30094 41943 01330 81804 10300 20270 30021 40028 70262 8662/ 333 59029 70080 83710 84615 88458==
41943,2023,06,30,12,00,AAXX 30124 41943 11430 81802 10297 20270 30023 40030 60036 70162 83520 333 10310 59012 70040 83616 85458==
41943,2023,06,30,15,00,AAXX 30154 41943 01330 81802 10244 20230 30050 40057 76166 8772/ 333 58004 70140 84709 84613 88456==
41943,2023,06,30,18,00,AAXX 30184 41943 21330 80000 10254 20240 30037 40044 76166 8772/ 333 59016 60479 70510 84709 84613 88456==
41943,2023,06,30,21,00,AAXX 30214 41943 01330 80000 10256 20250 30035 40042 70266 8662/ 333 59010 70530 83710 84615 88458==
41943,2023,07,01,00,00,AAXX 01004 41943 11330 80000 10260 20250 30034 40041 60026 70262 8662/ 333 59008 70530 83710 84615 88458==
41943,2023,07,01,03,00,AAXX 01034 41943 01330 81802 10274 20260 30056 40063 76066 8772/ 333 20244 59003 70650 84709 84614 88456==
41943,2023,07,01,06,00,AAXX 01064 41943 21430 81805 10304 20270 30056 40063 70262 8662/ 333 59002 60125 70640 83710 84615 88458==
41943,2023,07,01,09,00,AAXX 01094 41943 02430 71802 10315 20290 30037 40044 84520 333 58016 70610 84616 85458==
41943,2023,07,01,12,00,AAXX 01124 41943 02430 71802 10302 20260 30029 40036 84520 333 10325 58006 70610 84616 85458==
41943,2023,07,01,15,00,AAXX 01154 41943 02430 61802 10284 20260 30044 40051 83520 333 59006 70510 83616 85458==
41943,2023,07,01,18,00,AAXX 01184 41943 02430 80000 10273 20250 30042 40049 8662/ 333 58005 70140 83710 84615 88458==
41943,2023,07,01,21,00,AAXX 01214 41943 02430 80000 10270 20250 30038 40045 8662/ 333 58003 70140 83710 84615 88458==
41943,2023,07,02,00,00,AAXX 02004 41943 02430 80000 10276 20270 30032 40039 8662/ 333 59002 70120 83710 84615 88458==
41943,2023,07,02,03,00,AAXX 02034 41943 02435 80000 10301 20270 30050 40057 8662/ 333 59004 70120 83710 84615 88458==
41943,2023,07,02,06,00,AAXX 02064 41943 02330 81802 10280 20260 30037 40044 8762/ 333 59019 70000 84709 84615 88456==
41943,2023,07,02,09,00,AAXX 02094 41943 02430 81803 10315 20270 30018 40025 8662/ 333 59019 70000 83710 84615 88458==
41943,2023,07,02,12,00,AAXX 02124 41943 02435 61802 10310 20260 30022 40029 84420 333 10340 59007 70000 83616 85458==
41943,2023,07,02,15,00,AAXX 02154 41943 02430 51803 10290 20270 30033 40040 83520 333 59011 70000 83616 84458==
41943,2023,07,02,18,00,AAXX 02184 41943 02430 41802 10285 20270 30039 40036 82530 333 59003 70000 82618 83362==
41943,2023,07,02,21,00,AAXX 02214 41943 02430 50000 10280 20260 30036 40043 83520 333 59002 70000 83616 84458==
41943,2023,07,03,00,00,AAXX 03004 41943 02430 80000 10265 20260 30038 40045 8662/ 333 58006 70000 83710 84615 88458==
41943,2023,07,03,03,00,AAXX 03034 41943 02435 71803 10320 20260 30048 40055 84420 333 20260 59002 70000 83616 85458==
41943,2023,07,03,06,00,AAXX 03064 41943 02435 71803 10335 20260 30043 40050 84420 333 58006 70000 83616 85458==
41943,2023,07,03,09,00,AAXX 03094 41943 02435 61802 10260 30016 40023 84420 333 59002 70000 83616 84458==
41943,2023,07,03,12,00,AAXX 03124 41943 02435 51802 10320 20250 30016 40023 83430 333 10340 59006 70000 82618 84362==
41943,2023,07,03,15,00,AAXX 03154 41943 02430 51802 10296 20270 30033 40040 83530 333 58000 70000 83616 84362==
41943,2023,07,03,18,00,AAXX 03184 41943 02430 50000 10290 20270 30041 40048 83530 333 58002 70000 83616 84458==
41943,2023,07,03,21,00,AAXX 03214 41943 02430 50000 10280 20270 30037 40044 83520 333 58001 70000 83616 84458==
41943,2023,07,04,00,00,AAXX 04004 41943 02430 80000 10275 20270 30025 40032 8662/ 333 59013 70000 83710 84615 88458==
41943,2023,07,04,03,00,AAXX 04034 41943 02435 71802 10317 20270 30039 40046 84420 333 20275 59009 70000 83616 86458==
41943,2023,07,04,06,00,AAXX 04064 41943 02435 71802 10343 20270 30033 40040 84420 333 59010 70000 83616 85458==
41943,2023,07,04,09,00,AAXX 04094 41943 02435 71801 10325 20250 30004 40011 84420 333 59012 70000 83616 85458==
41943,2023,07,04,12,00,AAXX 04124 41943 02435 62103 10325 20270 39996 40003 84420 333 10350 59020 70000 83616 85458==
41943,2023,07,04,15,00,AAXX 04154 41943 02430 61802 10292 20260 30020 40027 83520 333 59013 70000 83616 85458==
41943,2023,07,04,18,00,AAXX 04184 41943 02430 81802 10290 20260 30022 40029 8662/ 333 59010 70000 83710 84615 88458==
41943,2023,07,04,21,00,AAXX 04214 41943 02430 81802 10284 20260 30019 40026 8662/ 333 59018 70000 83710 84615 88458==
41943,2023,07,05,00,00,AAXX 05004 41943 01430 80000 10260 20250 30009 40016 70266 8662/ 333 59016 70170 83710 84615 88458==
41943,2023,07,05,03,00,AAXX 05034 41943 02435 41605 10315 20240 30016 40023 84400 333 20260 59023 70170 83618==
41943,2023,07,05,06,00,AAXX 05064 41943 02435 71806 10337 20270 30010 40017 84420 333 59023 70170 83616 86458==
41943,2023,07,05,09,00,AAXX 05094 41943 02435 71805 10317 20240 30001 40008 84420 333 59003 70170 83616 86458==
41943,2023,07,05,12,00,AAXX 05124 41943 02435 81803 10300 20250 39997 40004 8662/ 333 10350 58001 70170 83710 84615 88458==
41943,2023,07,05,15,00,AAXX 05154 41943 02430 81603 10287 20260 30025 40032 8662/ 333 58005 70170 83710 84615 88458==
41943,2023,07,05,18,00,AAXX 05184 41943 02430 81802 10282 20250 30035 40042 8662/ 333 58013 70170 83710 84615 88458==
41943,2023,07,05,21,00,AAXX 05214 41943 02430 81802 10280 20260 30032 40039 8662/ 333 58013 70170 83710 84615 88458==
41943,2023,07,06,00,00,AAXX 06004 41943 01430 80000 10260 20250 30032 40039 70262 8662/ 333 58023 70040 83710 84615 88458==
41943,2023,07,06,03,00,AAXX 06034 41943 01335 81802 10295 20250 30045 40052 70262 8662/ 333 20260 59029 70050 83710 84615 88458==
41943,2023,07,06,06,00,AAXX 06064 41943 11330 81803 10325 20250 30040 40047 60016 70262 8662/ 333 58030 70050 83710 84615 88458==
41943,2023,07,06,09,00,AAXX 06094 41943 02440 61804 10300 20250 30030 40040 84520 333 58032 70050 84615 86458==
41943,2023,07,06,12,00,AAXX 06124 41943 02330 81803 10290 20250 30027 40034 8662/ 333 10328 58030 70050 83710 84615 88458==
41943,2023,07,06,15,00,AAXX 06154 41943 01330 81802 10272 20250 30053 40060 70262 8662/ 333 58028 70070 83710 84615 88458==
41943,2023,07,06,18,00,AAXX 06184 41943 11330 80000 10268 20250 30060 40067 60026 70262 8662/ 333 58025 70070 83710 84614 88458==
41943,2023,07,06,21,00,AAXX 06214 41943 21330 80000 10260 20240 30052 40059 70262 8662/ 333 56499 58020 6001/ 70080 83710 84615 88458=
41944,2023,06,30,00,00,AAXX 30004 41944 NIL=
41944,2023,06,30,06,00,AAXX 30064 41944 NIL=
41944,2023,06,30,12,00,AAXX 30124 41944 NIL=
41944,2023,06,30,18,00,AAXX 30184 41944 NIL=
41944,2023,07,01,06,00,AAXX 01064 41944 NIL=
41944,2023,07,01,12,00,AAXX 01124 41944 NIL=
41944,2023,07,01,18,00,AAXX 01184 41944 NIL=
41944,2023,07,02,00,00,AAXX 02004 41944 NIL=
41944,2023,07,02,03,00,AAXX 02034 41944 NIL=
41944,2023,07,02,06,00,AAXX 02064 41944 NIL=
41944,2023,07,02,12,00,AAXX 02124 41944 NIL=
41944,2023,07,03,00,00,AAXX 03004 41944 NIL=
41944,2023,07,03,06,00,AAXX 03064 41944 NIL=
41944,2023,07,03,12,00,AAXX 03124 41944 NIL=
41944,2023,07,03,18,00,AAXX 03184 41944 NIL=
41944,2023,07,04,06,00,AAXX 04064 41944 NIL=
41944,2023,07,04,12,00,AAXX 04124 41944 NIL=
41944,2023,07,05,06,00,AAXX 05064 41944 NIL=
41944,2023,07,05,12,00,AAXX 05124 41944 NIL=
41944,2023,07,05,18,00,AAXX 05184 41944 NIL=
41944,2023,07,06,06,00,AAXX 06064 41944 NIL=
41944,2023,07,06,09,00,AAXX 06094 41944 NIL=
41944,2023,07,06,12,00,AAXX 06124 41944 NIL=
41946,2023,06,30,00,00,AAXX 30004 41946 02456 80000 10280 20270 30041 40046 8352/ 333 59002 70114 83617 88419==
41946,2023,06,30,03,00,AAXX 30034 41946 02456 80000 10308 20280 30051 40056 8353/ 333 20254 59005 70054 83617 88459==
41946,2023,06,30,06,00,AAXX 30064 41946 02456 60000 10330 20280 30039 40044 83420 333 59019 70004 82618 85459==
41946,2023,06,30,09,00,AAXX 30094 41946 02/56 61702 10322 20270 30008 40012 86070 333 59022 70000 84459 84360==
41946,2023,06,30,12,00,AAXX 30124 41946 01350 80000 10262 20240 30022 40027 79522 8692/ 333 10344 59006 70030 82709 84616 88457 81928==
41946,2023,06,30,15,00,AAXX 30154 41946 01/50 80000 10266 20260 30033 40038 70296 8802/ 333 59012 70140 88459==
41946,2023,06,30,18,00,AAXX 30184 41946 01556 80000 10280 20270 30035 40040 70296 8352/ 333 59009 70110 83620 88459==
41946,2023,06,30,21,00,AAXX 30214 41946 02/56 60000 10284 20270 30015 40020 86020 333 59021 70140 86459==
41946,2023,07,01,00,00,AAXX 01004 41946 02356 50000 10287 20270 30019 40024 84630 333 59022 70140 82710 83620==
41946,2023,07,01,03,00,AAXX 01034 41946 02456 80000 10312 20280 30049 40054 8352/ 333 20254 59002 70140 83617 88459==
41946,2023,07,01,06,00,AAXX 01064 41946 02456 60000 10325 20290 30041 40046 83420 333 58002 70140 83618 85459==
41946,2023,07,01,09,00,AAXX 01094 41946 02456 80000 10326 20280 30023 40028 8352/ 333 58022 70140 83618 88459==
41946,2023,07,01,12,00,AAXX 01124 41946 02456 80000 10305 20290 30026 40031 8532/ 333 10333 58004 70110 83618 88459 81929==
41946,2023,07,01,15,00,AAXX 01154 41946 02556 50000 10299 20290 30030 40034 85400 333 59003 70000 83620 83822==
41946,2023,07,01,18,00,AAXX 01184 41946 02/56 40000 10296 20280 30037 40042 82031 333 58002 70000 82362 83080==
41946,2023,07,01,21,00,AAXX 01214 41946 02556 40000 10293 20280 30020 40024 84500 333 58005 70000 84620==
41946,2023,07,02,00,00,AAXX 02004 41946 02/56 70000 10290 20280 30024 40029 87070 333 58005 70000 84459 85360==
41946,2023,07,02,03,00,AAXX 02034 41946 02456 60000 10324 20270 30040 40045 83510 333 20285 59009 70000 83618 84460==
41946,2023,07,02,06,00,AAXX 02064 41946 02456 50000 10340 20270 30032 40037 85400 333 59009 70000 83618==
41946,2023,07,02,09,00,AAXX 02094 41946 02456 60000 10344 20260 30003 40008 83470 333 59020 70000 82618 84459==
41946,2023,07,02,12,00,AAXX 02124 41946 02/56 60000 10303 20260 30013 40017 86020 333 10350 59013 70000 86459==
41946,2023,07,02,15,00,AAXX 02154 41946 02/56 60000 10306 20290 30028 40033 86020 333 59002 70000 86459==
41946,2023,07,02,18,00,AAXX 02184 41946 02556 50000 10300 20280 30031 40036 85500 333 59006 70000 85620==
41946,2023,07,02,21,00,AAXX 02214 41946 02/56 60000 10294 20270 30024 40028 86020 333 58004 70000 86459==
41946,2023,07,03,00,00,AAXX 03004 41946 02/56 60000 10292 20280 30027 40032 86020 333 58003 70000 86459==
41946,2023,07,03,03,00,AAXX 03034 41946 02456 60000 10320 20270 30043 40048 83470 333 20286 58003 70000 82618 83460==
41946,2023,07,03,06,00,AAXX 03064 41946 02456 60000 10345 20270 30033 40038 83401 333 58001 70000 82618 84080==
41946,2023,07,03,09,00,AAXX 03094 41946 02557 51802 10352 20250 30009 40014 83501 333 58006 70000 83620==
41946,2023,07,03,12,00,AAXX 03124 41946 01456 72204 10331 20260 30015 40020 71722 84920 333 10358 58002 70000 83618 87460 81929==
41946,2023,07,03,15,00,AAXX 03154 41946 02456 50000 10316 20270 30024 40028 85400 333 59004 70000 83618 83820==
41946,2023,07,03,18,00,AAXX 03184 41946 02556 40000 10300 20270 30029 40033 83401 333 59002 70000 82620 83080==
41946,2023,07,03,21,00,AAXX 03214 41946 02/56 30000 10294 20270 30014 40018 83030 333 59010 70000 83362==
41946,2023,07,04,00,00,AAXX 04004 41946 02556 30000 10288 20280 30016 40021 82201 333 59011 70000 82825==
41946,2023,07,04,03,00,AAXX 04034 41946 02556 40000 10330 20250 30030 40035 84400 333 20284 59013 70000 83618==
41946,2023,07,04,06,00,AAXX 04064 41946 02556 30000 10354 20240 30027 40032 83400 333 59006 70000 82618==
41946,2023,07,04,09,00,AAXX 04094 41946 02456 50000 10335 20260 30002 40007 83470 333 59007 70000 82618 84459==
41946,2023,07,04,12,00,AAXX 04124 41946 02456 50000 10330 20250 39994 49999 83470 333 10356 59021 70000 82618 84459==
41946,2023,07,04,15,00,AAXX 04154 41946 02956 20000 10300 20260 30017 40022 80001 333 59007 70000 82080==
41946,2023,07,04,18,00,AAXX 04184 41946 02456 40000 10296 20280 30021 40026 82530 333 59008 70000 82618==
41946,2023,07,04,21,00,AAXX 04214 41946 02456 50000 10293 20270 30002 40007 82530 333 59012 70000 82618 83362==
41946,2023,07,05,00,00,AAXX 05004 41946 02456 60000 10290 20270 30004 40009 82530 333 59012 70000 82618 84362==
41946,2023,07,05,03,00,AAXX 05034 41946 02456 60000 10325 20260 30012 40017 84401 333 20283 70000 83618 83080==
41946,2023,07,05,06,00,AAXX 05064 41946 02457 51802 10345 20270 30005 40010 85310 333 70000 84618 81928==
41946,2023,07,05,09,00,AAXX 05094 41946 01456 70000 10314 20270 39990 49995 76062 84320 333 59012 70010 83618 86459 81928==
41946,2023,07,05,12,00,AAXX 05124 41946 01/56 60000 10274 20260 39980 49985 72196 86070 333 10349 59014 70250 84459 84360==
41946,2023,07,05,15,00,AAXX 05154 41946 02456 60000 10290 20270 30009 40014 82530 333 59008 70250 82618 84362==
41946,2023,07,05,18,00,AAXX 05184 41946 02456 60000 10290 20270 30019 40024 82530 333 59002 70250 82618 84362==
41946,2023,07,05,21,00,AAXX 05214 41946 01456 70000 10280 20260 30002 40007 72922 84320 333 58000 70270 83618 86459 81928==
41946,2023,07,06,00,00,AAXX 06004 41946 21456 70000 10278 20270 30016 40021 70296 84320 333 58012 60025 70270 83618 86459 81928==
41946,2023,07,06,03,00,AAXX 06034 41946 02456 60000 10310 20270 30025 40030 84410 333 20270 58013 70270 83618 84460==
41946,2023,07,06,06,00,AAXX 06064 41946 01456 70000 10295 20270 30016 40021 70362 85310 333 58011 70010 84618 86460 81929==
41946,2023,07,06,09,00,AAXX 06094 41946 01456 80000 10300 20270 30014 40019 72122 8432/ 333 58024 70272 83617 88459 81929==
41946,2023,07,06,12,00,AAXX 06124 41946 01456 50000 10286 20270 30011 40016 72162 83501 333 10343 58031 70042 83618==
41946,2023,07,06,15,00,AAXX 06154 41946 02556 60000 10290 20270 30033 40038 83520 333 58024 70042 83620 85459==
41946,2023,07,06,18,00,AAXX 06184 41946 02456 70000 10290 20280 30036 40041 84420 333 58017 70042 83618 86459==
41946,2023,07,06,21,00,AAXX 06214 41946 02456 70000 10284 20270 30025 40030 84420 333 58023 70022 83618 86458==
41947,2023,06,30,00,00,AAXX 30004 41947 02450 60000 10278 20270 30038 40040 83570 333 59006 70204 83618 85458==
41947,2023,06,30,03,00,AAXX 30034 41947 02456 82202 10300 20280 30042 40044 8352/ 333 20252 59020 70060 83618 88459==
41947,2023,06,30,06,00,AAXX 30064 41947 02456 72203 10338 20270 30038 40040 83570 333 59030 70040 83618 85459==
41947,2023,06,30,09,00,AAXX 30094 41947 02456 61806 10313 20270 30009 40012 84470 333 59046 70000 83618 84459==
41947,2023,06,30,12,00,AAXX 30124 41947 02456 80000 10316 20290 30013 40016 8532/ 333 10345 59034 70000 84618 88458 81930==
41947,2023,06,30,15,00,AAXX 30154 41947 01350 81503 10264 20250 30034 40037 76196 8572/ 333 59009 70040 82709 84616 88458==
41947,2023,06,30,18,00,AAXX 30184 41947 11456 80000 10270 20260 30034 40036 60046 70296 8351/ 333 59005 70042 83618 88459==
41947,2023,06,30,21,00,AAXX 30214 41947 02456 60000 10286 20280 30024 40026 82530 333 59015 70042 82618 84362==
41947,2023,07,01,00,00,AAXX 01004 41947 02456 61802 10284 20270 30023 40025 82531 333 59015 70042 82618 84362==
41947,2023,07,01,03,00,AAXX 01034 41947 02456 81802 10310 20280 30041 40044 8352/ 333 20255 58000 70042 83618 88459==
41947,2023,07,01,06,00,AAXX 01064 41947 02456 72203 10342 20280 30038 40041 83570 333 58001 70042 83618 85459==
41947,2023,07,01,09,00,AAXX 01094 41947 01350 80000 10270 20260 30022 40024 76122 8672/ 333 58012 70052 82708 84615 88458==
41947,2023,07,01,12,00,AAXX 01124 41947 21450 80000 10295 20280 30010 40012 70262 8452/ 333 10342 59002 60025 70057 84616 88458==
41947,2023,07,01,15,00,AAXX 01154 41947 02450 80000 10295 20280 30014 40016 8452/ 333 59019 70017 84616 88458==
41947,2023,07,01,18,00,AAXX 01184 41947 02450 80000 10293 20290 30018 40020 8452/ 333 59016 70015 84616 88458==
41947,2023,07,01,21,00,AAXX 01214 41947 02450 80000 10288 20280 30016 40018 8452/ 333 59008 70015 84616 88458==
41947,2023,07,02,00,00,AAXX 02004 41947 02450 80000 10286 20280 30012 40014 8452/ 333 59011 70015 84616 88458==
41947,2023,07,02,03,00,AAXX 02034 41947 02450 80000 10305 20270 30033 40036 8352/ 333 20280 59008 70015 83618 88458==
41947,2023,07,02,06,00,AAXX 02064 41947 02450 82302 10345 20290 30019 40022 8352/ 333 59019 70015 83618 88458==
41947,2023,07,02,09,00,AAXX 02094 41947 02450 81803 10318 20270 30008 40010 8352/ 333 59014 70005 83618 88458==
41947,2023,07,02,12,00,AAXX 02124 41947 02450 81806 10295 20260 30020 40022 8352/ 333 10360 58008 70000 83618 88458==
41947,2023,07,02,15,00,AAXX 02154 41947 02450 31802 10295 20280 30030 40032 83500 333 58016 70000 83618==
41947,2023,07,02,18,00,AAXX 02184 41947 02950 20000 10293 20270 30028 40030 82500 333 58010 70000 82618==
41947,2023,07,02,21,00,AAXX 02214 41947 02450 30000 10290 20280 30031 40033 83500 333 58015 70000 83618==
41947,2023,07,03,00,00,AAXX 03004 41947 02450 30000 10288 20280 30032 40034 83500 333 58020 70000 83718==
41947,2023,07,03,03,00,AAXX 03034 41947 02456 62302 10325 20270 30030 40033 86400 333 20280 58000 70000 83618 83820==
41947,2023,07,03,06,00,AAXX 03064 41947 02456 72303 10345 20270 30025 40028 83570 333 58006 70000 83618 86458==
41947,2023,07,03,09,00,AAXX 03094 41947 02456 61303 10342 20270 30010 40012 83470 333 58002 70000 82618 84459==
41947,2023,07,03,12,00,AAXX 03124 41947 02456 51302 10332 20270 30005 40008 83401 333 10346 59014 70000 82618==
41947,2023,07,03,15,00,AAXX 03154 41947 02456 62103 10310 20270 30023 40026 83510 333 59006 70000 83618 84459==
41947,2023,07,03,18,00,AAXX 03184 41947 02456 41502 10295 20280 30035 40038 84400 333 58006 70000 83616==
41947,2023,07,03,21,00,AAXX 03214 41947 02/56 30000 10288 20280 30022 40024 83030 333 59009 70000 83362==
41947,2023,07,04,00,00,AAXX 04004 41947 02556 30000 10286 20280 30019 40021 82230 333 59013 70000 82820==
41947,2023,07,04,03,00,AAXX 04034 41947 02456 51802 10330 20250 30021 40024 85400 333 20280 59009 70000 82618 83820==
41947,2023,07,04,06,00,AAXX 04064 41947 02457 60000 10350 20260 30021 40023 86400 333 59005 70000 83618 83820==
41947,2023,07,04,09,00,AAXX 04094 41947 02456 51802 10345 20270 39997 49999 85400 333 59013 70000 82618 83820==
41947,2023,07,04,12,00,AAXX 04124 41947 02456 51802 10340 20260 39987 49989 84500 333 10355 59019 70000 82618 83820==
41947,2023,07,04,15,00,AAXX 04154 41947 02450 50000 10310 20280 39999 40001 82530 333 59025 70000 82618 83362==
41947,2023,07,04,18,00,AAXX 04184 41947 02450 50000 10300 20280 30007 40009 82530 333 59029 70000 82618 83362==
41947,2023,07,04,21,00,AAXX 04214 41947 02450 60000 10294 20270 30000 40002 82530 333 59022 70000 82618 84362==
41947,2023,07,05,00,00,AAXX 05004 41947 02450 80000 10290 20280 39996 49998 8452/ 333 59023 70000 84616 88458==
41947,2023,07,05,03,00,AAXX 05034 41947 02456 61303 10316 20260 30002 40005 85430 333 20282 59019 70000 82618 83820==
41947,2023,07,05,06,00,AAXX 05064 41947 02457 61302 10342 20260 39998 40000 85430 333 59023 70000 82618 83820==
41947,2023,07,05,09,00,AAXX 05094 41947 02456 61403 10325 20270 39988 49990 83570 333 59009 70000 83618 85458==
41947,2023,07,05,12,00,AAXX 05124 41947 01456 51802 10292 20270 39986 49988 70162 83570 333 10342 59001 70020 83618 84458==
41947,2023,07,05,15,00,AAXX 05154 41947 02450 51402 10290 20270 30010 40012 83570 333 59011 70020 83618 84458==
41947,2023,07,05,18,00,AAXX 05184 41947 02450 50000 10285 20280 30018 40020 83570 333 58011 70020 83619 84458==
41947,2023,07,05,21,00,AAXX 05214 41947 02450 60000 10284 20270 30013 40015 83570 333 58013 70020 83618 85458==
41947,2023,07,06,00,00,AAXX 06004 41947 21450 80000 10280 20270 30013 40015 70362 8352/ 333 58017 60067 70080 83618 88458==
41947,2023,07,06,03,00,AAXX 06034 41947 01350 80000 10290 20280 30016 40019 76122 8472/ 333 20270 58014 70092 81708 83616 88458==
41947,2023,07,06,06,00,AAXX 06064 41947 01350 81802 10280 20270 30015 40018 76162 8472/ 333 58018 70130 81708 84616 88458==
41947,2023,07,06,09,00,AAXX 06094 41947 01456 81302 10285 20280 30017 40019 70262 8352/ 333 58029 70140 83618 88458==
41947,2023,07,06,12,00,AAXX 06124 41947 01456 61808 10296 20270 30011 40013 70162 84470 333 10310 58025 70126 83618 84459==
41947,2023,07,06,15,00,AAXX 06154 41947 02456 81804 10288 20280 30035 40037 8452/ 333 58025 70126 84617 88458==
41947,2023,07,06,18,00,AAXX 06184 41947 02456 80000 10288 20280 30042 40044 8452/ 333 58024 70126 84617 88458==
41947,2023,07,06,21,00,AAXX 06214 41947 02456 80000 10286 20280 30032 40034 8352/ 333 58019 70126 83618 88458==
41950,2023,06,30,00,00,AAXX 30004 41950 02350 80000 10275 20275 30043 40046 8562/ 333 59004 70138 82708 84616 88458==
41950,2023,06,30,03,00,AAXX 30034 41950 02350 71803 10302 20270 30056 40058 84670 333 20250 59003 70138 81708 84616 86459==
41950,2023,06,30,06,00,AAXX 30064 41950 02456 61804 10330 20280 30051 40053 85431 333 59013 70022 84616 83362==
41950,2023,06,30,09,00,AAXX 30094 41950 02450 61804 10328 20280 30022 40024 85470 333 59027 70014 84616 85459==
41950,2023,06,30,12,00,AAXX 30124 41950 01330 80000 10283 20270 30027 40029 79596 8692/ 333 10338 59011 70140 82708 84616 88458 81928==
41950,2023,06,30,15,00,AAXX 30154 41950 01330 80000 10260 20260 30057 40060 79596 8692/ 333 58007 70240 82708 84616 88458 81928==
41950,2023,06,30,18,00,AAXX 30184 41950 01350 80000 10256 20256 30047 40050 70296 8562/ 333 59002 70242 82708 83616 88458==
41950,2023,06,30,21,00,AAXX 30214 41950 02450 70000 10264 20260 30027 40030 83510 333 59016 70242 83616 88458==
41950,2023,07,01,00,00,AAXX 01004 41950 02450 60000 10270 20270 30031 40034 83531 333 59012 70242 83617 83362==
41950,2023,07,01,03,00,AAXX 01034 41950 02350 60000 10305 20290 30058 40060 85670 333 20244 58002 70242 81708 84616 85459==
41950,2023,07,01,06,00,AAXX 01064 41950 02450 61802 10332 20270 30053 40055 84470 333 58002 70242 83616 85459==
41950,2023,07,01,09,00,AAXX 01094 41950 02350 71802 10312 20270 30028 40030 84670 333 58006 70242 81708 84616 86459==
41950,2023,07,01,12,00,AAXX 01124 41950 21350 80000 10287 20280 30026 40028 70396 8562/ 333 10340 59001 60127 70228 82708 84616 88458==
41950,2023,07,01,15,00,AAXX 01154 41950 02450 60000 10287 20280 30040 40042 83510 333 59017 70124 83616 84459==
41950,2023,07,01,18,00,AAXX 01184 41950 02450 40000 10284 20280 30048 40050 83530 333 58001 70122 83616==
41950,2023,07,01,21,00,AAXX 01214 41950 02450 30000 10283 20280 30040 40042 83530 333 58013 70122 83616==
41950,2023,07,02,00,00,AAXX 02004 41950 02450 60000 10283 20280 30034 40036 83570 333 58003 70122 83616 85459==
41950,2023,07,02,03,00,AAXX 02034 41950 02350 70000 10307 20290 30047 40049 84670 333 20273 59011 70122 81708 84616 86459==
41950,2023,07,02,06,00,AAXX 02064 41950 02450 60000 10335 20270 30034 40036 84410 333 59019 70122 83617 85459==
41950,2023,07,02,09,00,AAXX 02094 41950 02450 60000 10316 20270 30017 40019 83510 333 70122 83616 86459==
41950,2023,07,02,12,00,AAXX 02124 41950 02350 81802 10307 20270 30024 40026 8562/ 333 10342 59002 70000 82708 84616 88458==
41950,2023,07,02,15,00,AAXX 02154 41950 02450 61502 10290 20280 30033 40035 83510 333 59007 70000 83617 85459==
41950,2023,07,02,18,00,AAXX 02184 41950 02350 80000 10289 20280 30037 40039 8562/ 333 59011 70000 82708 84616 88458==
41950,2023,07,02,21,00,AAXX 02214 41950 01350 70000 10270 20270 30031 40033 70162 85670 333 59009 70025 82708 84616 85459==
41950,2023,07,03,00,00,AAXX 03004 41950 11450 50000 10279 20279 30036 40038 60036 70162 83430 333 58002 70025 83617 84362==
41950,2023,07,03,03,00,AAXX 03034 41950 01340 80000 10284 20270 30046 40048 76122 8562/ 333 20265 59001 70055 82708 84616 88458==
41950,2023,07,03,06,00,AAXX 03064 41950 21350 81903 10324 20270 30046 40048 70262 8562/ 333 58012 60035 70059 82708 84616 88458==
41950,2023,07,03,09,00,AAXX 03094 41950 01456 60000 10335 20270 30017 40019 70162 83431 333 58000 70131 82617 83080==
41950,2023,07,03,12,00,AAXX 03124 41950 11456 50000 10322 20260 30016 40019 60076 70162 83431 333 10345 59008 70131 82617==
41950,2023,07,03,15,00,AAXX 03154 41950 02450 50000 10295 20280 30032 40034 85270 333 59001 70131 82617 85459==
41950,2023,07,03,18,00,AAXX 03184 41950 02450 20000 10285 20280 30036 40038 82530 333 59001 70131 82167==
41950,2023,07,03,21,00,AAXX 03214 41950 02450 20000 10275 20275 30024 40026 82530 333 59007 70106 82617==
41950,2023,07,04,00,00,AAXX 04004 41950 02450 30000 10270 20270 30027 40029 82530 333 59009 70106 82617==
41950,2023,07,04,03,00,AAXX 04034 41950 02456 40000 10326 20270 30034 40036 84400 333 20265 59012 70076 83616 83825==
41950,2023,07,04,06,00,AAXX 04064 41950 02450 50000 10345 20270 30031 40033 85300 333 59015 70072 84616 83825 81928==
41950,2023,07,04,09,00,AAXX 04094 41950 01456 51502 10306 20270 30010 40012 72196 84331 333 59006 70270 83617 81928==
41950,2023,07,04,12,00,AAXX 04124 41950 21456 50000 10317 20280 30000 40003 70296 82431 333 10345 59016 60278 70270 82617 84080==
41950,2023,07,04,15,00,AAXX 04154 41950 02450 50000 10290 20270 30018 40020 85310 333 59014 70270 83617 85459==
41950,2023,07,04,18,00,AAXX 04184 41950 02450 20000 10276 20270 30024 40026 82530 333 59012 70270 82617==
41950,2023,07,04,21,00,AAXX 04214 41950 02450 30000 10276 20270 30006 40008 83530 333 59018 70270 83617==
41950,2023,07,05,00,00,AAXX 05004 41950 01340 80000 10276 20276 30009 40011 76121 8572/ 333 59018 70004 82708 84616 88458==
41950,2023,07,05,03,00,AAXX 05034 41950 01350 71205 10307 20270 30016 40018 70162 86630 333 20264 59018 70282 82708 84616==
41950,2023,07,05,06,00,AAXX 05064 41950 11350 70905 10315 20270 30011 40013 69986 70262 86370 333 59020 70282 82708 84616 85459 81928==
41950,2023,07,05,09,00,AAXX 05094 41950 01450 61502 10306 20270 39999 40002 70162 85431 333 59011 70016 84616==
41950,2023,07,05,12,00,AAXX 05124 41950 01450 40000 10285 20270 39995 49997 72162 83531 333 10325 59005 70018 83616==
41950,2023,07,05,15,00,AAXX 05154 41950 01350 81502 10279 20270 30019 40021 72122 8562/ 333 58001 70024 82708 84616 88458==
41950,2023,07,05,18,00,AAXX 05184 41950 21350 81202 10279 20270 30023 40025 70262 8562/ 333 59001 69965 70024 82708 84616 88458==
41950,2023,07,05,21,00,AAXX 05214 41950 02350 81503 10282 20260 30016 40018 8562/ 333 58010 70024 82708 84616 88458==
41950,2023,07,06,00,00,AAXX 06004 41950 01350 80000 10275 20275 30025 40027 70262 8532/ 333 58016 70030 82708 84616 88458 81928==
41950,2023,07,06,03,00,AAXX 06034 41950 02450 60000 10307 20280 30036 40038 85470 333 20273 58020 70042 83616 85459==
41950,2023,07,06,06,00,AAXX 06064 41950 02350 80000 10318 20270 30036 40038 8562/ 333 58025 70042 82708 84616 88458==
41950,2023,07,06,09,00,AAXX 06094 41950 01350 61402 10312 20260 30026 40028 70162 84670 333 58027 70068 81708 84616 86459==
41950,2023,07,06,12,00,AAXX 06124 41950 11350 61202 10300 20260 30022 40024 60036 70262 84631 333 10327 58027 70066 81708 84616==
41950,2023,07,06,15,00,AAXX 06154 41950 02350 40000 10290 20270 30043 40045 84600 333 58024 70060 81708 84616==
41950,2023,07,06,18,00,AAXX 06184 41950 02450 60000 10288 20280 30046 40048 83510 333 58023 70060 83617 86459==
41950,2023,07,06,21,00,AAXX 06214 41950 11350 60000 10277 20277 30040 40042 60025 70162 83631 333 56999 58015 70050 81708 83616=
41951,2023,06,30,00,00,AAXX 30004 41951 02340 81303 10278 20278 30037 40042 8562/ 333 59003 70622 81708 84618 88458==
41951,2023,06,30,03,00,AAXX 30034 41951 02440 71302 10298 20290 30051 40056 83510 333 20249 59011 70622 83618 86459==
41951,2023,06,30,06,00,AAXX 30064 41951 02456 61306 10332 20270 30051 40056 83510 333 59012 70340 83618 85459==
41951,2023,06,30,09,00,AAXX 30094 41951 01456 61504 10320 20280 30017 40022 72162 83510 333 59031 70029 83618 85459==
41951,2023,06,30,12,00,AAXX 30124 41951 01330 81302 10290 20280 30018 40022 76392 8662/ 333 10340 59024 70052 82706 84616 88458==
41951,2023,06,30,15,00,AAXX 30154 41951 01330 80000 10258 20258 30054 40059 71396 8632/ 333 58006 70526 82706 84616 88458 81925==
41951,2023,06,30,18,00,AAXX 30184 41951 21340 80000 10262 20260 30037 40042 70296 8562/ 333 59012 60628 70672 81708 84618 88458==
41951,2023,06,30,21,00,AAXX 30214 41951 02340 80000 10278 20278 30032 40037 8562/ 333 59014 70672 81708 84618 88458==
41951,2023,07,01,00,00,AAXX 01004 41951 02340 80000 10280 20280 30031 40036 8562/ 333 59006 70672 81708 84618 88458==
41951,2023,07,01,03,00,AAXX 01034 41951 02340 81803 10303 20280 30047 40052 8562/ 333 20245 59004 70672 81708 84618 88458==
41951,2023,07,01,06,00,AAXX 01064 41951 02456 61307 10332 20270 30049 40054 83510 333 59002 70672 83618 85459==
41951,2023,07,01,09,00,AAXX 01094 41951 02456 61302 10336 20290 30029 40034 83510 333 58012 70664 83618 85458==
41951,2023,07,01,12,00,AAXX 01124 41951 01330 80000 10292 20280 30022 40026 72162 8562/ 333 10338 58004 70671 81708 84618 88458==
41951,2023,07,01,15,00,AAXX 01154 41951 02440 70000 10292 20280 30041 40045 83510 333 59013 70197 83618 86459==
41951,2023,07,01,18,00,AAXX 01184 41951 02440 70000 10286 20286 30045 40049 83510 333 58008 70051 83618 86459==
41951,2023,07,01,21,00,AAXX 01214 41951 02440 80000 10284 20270 30042 40046 8452/ 333 58010 70051 84618 88458==
41951,2023,07,02,00,00,AAXX 02004 41951 02340 80000 10286 20280 30032 40036 8562/ 333 58001 70051 81708 84618 88458==
41951,2023,07,02,03,00,AAXX 02034 41951 02440 71303 10314 20280 30045 40049 83510 333 20280 59002 70051 83618 86459==
41951,2023,07,02,06,00,AAXX 02064 41951 02456 61305 10348 20270 30035 40040 83510 333 59014 70051 83618 85459==
41951,2023,07,02,09,00,AAXX 02094 41951 02456 61504 10338 20270 30015 40020 83510 333 59014 70047 83618 85459==
41951,2023,07,02,12,00,AAXX 02124 41951 02456 61503 10317 20280 30019 40024 83510 333 10354 59003 70000 83618 85459==
41951,2023,07,02,15,00,AAXX 02154 41951 02450 70000 10300 20280 30031 40036 83510 333 59010 70000 83618 85459==
41951,2023,07,02,18,00,AAXX 02184 41951 02340 81302 10292 20280 30037 40042 8562/ 333 59008 70000 81708 84618 88458==
41951,2023,07,02,21,00,AAXX 02214 41951 02340 80000 10286 20286 30034 40039 8562/ 333 59008 70000 81708 84618 88458==
41951,2023,07,03,00,00,AAXX 03004 41951 02450 60000 10290 20290 30033 40037 83510 333 58001 70000 83618 85459==
41951,2023,07,03,03,00,AAXX 03034 41951 02456 61303 10332 20280 30047 40052 83510 333 20282 58002 70000 83618 85459==
41951,2023,07,03,06,00,AAXX 03064 41951 02456 51504 10342 20260 30041 40046 82510 333 58006 70000 82618 84459==
41951,2023,07,03,09,00,AAXX 03094 41951 01456 61503 10328 20270 30017 40022 70362 83510 333 58002 70002 83618 85459==
41951,2023,07,03,12,00,AAXX 03124 41951 11456 50000 10318 20280 30015 40020 69926 70162 82510 333 10346 59004 70002 82618 84459==
41951,2023,07,03,15,00,AAXX 03154 41951 02440 70902 10298 20290 30033 40038 83510 333 58002 70002 83618 86459==
41951,2023,07,03,18,00,AAXX 03184 41951 02450 30000 10288 20280 30033 40038 83500 333 59004 70002 83618==
41951,2023,07,03,21,00,AAXX 03214 41951 02450 30000 10280 20280 30029 40034 83500 333 59005 70002 83618==
41951,2023,07,04,00,00,AAXX 04004 41951 02450 31302 10282 20280 30025 40029 83500 333 59008 70002 83618==
41951,2023,07,04,03,00,AAXX 04034 41951 02450 61302 10324 20270 30033 40038 83510 333 20274 59014 70002 83618 85459==
41951,2023,07,04,06,00,AAXX 04064 41951 02456 51005 10342 20260 30029 40034 82510 333 59012 70002 82618 84459==
41951,2023,07,04,09,00,AAXX 04094 41951 02456 62404 10338 20280 30010 40015 84410 333 59007 70000 83618 85459==
41951,2023,07,04,12,00,AAXX 04124 41951 02456 61503 10324 20270 30003 40008 83510 333 10347 59012 70000 83618 85459==
41951,2023,07,04,15,00,AAXX 04154 41951 02450 60000 10298 20280 30025 40030 83510 333 59008 70000 83618 85459==
41951,2023,07,04,21,00,AAXX 04214 41951 02450 61302 10278 20278 30017 40022 83510 333 59012 70000 83618 85459==
41951,2023,07,05,00,00,AAXX 05004 41951 21440 81502 10280 20280 30017 40021 70362 8452/ 333 59008 69935 70003 84618 88458==
41951,2023,07,05,03,00,AAXX 05034 41951 02450 61304 10304 20270 30019 40024 83510 333 10272 59014 70003 83618 85459==
41951,2023,07,05,06,00,AAXX 05064 41951 02456 61505 10317 20280 30012 40017 83510 333 59017 70003 83618 85459==
41951,2023,07,05,09,00,AAXX 05094 41951 02456 61404 10322 20270 39999 40004 83510 333 59011 70003 83618 85459==
41951,2023,07,05,12,00,AAXX 05124 41951 21450 71505 10298 20270 39999 40004 70362 83510 333 10326 59004 60017 70016 83618 86459==
41951,2023,07,05,18,00,AAXX 05184 41951 01430 81302 10283 20270 30021 40026 76122 8672/ 333 59002 70004 82706 84616 88458==
41951,2023,07,05,21,00,AAXX 05214 41951 01330 81302 10280 20280 30017 40022 76162 8672/ 333 58000 70036 82706 84616 88458==
41951,2023,07,06,00,00,AAXX 06004 41951 01340 81302 10278 20270 30021 40025 72162 8562/ 333 58004 70043 81708 84618 88458==
41951,2023,07,06,03,00,AAXX 06034 41951 01340 80000 10308 20280 30039 40044 70362 8562/ 333 20273 58020 70047 81708 84618 88458==
41951,2023,07,06,06,00,AAXX 06064 41951 01450 61510 10308 20290 30034 40039 72162 83510 333 58022 70083 83618 85459==
41951,2023,07,06,09,00,AAXX 06094 41951 02456 61508 10308 20270 30029 40034 83510 333 58030 70083 83618 85459==
41951,2023,07,06,12,00,AAXX 06124 41951 01330 81303 10280 20270 30025 40029 76122 8572/ 333 10315 58026 70005 81708 84618 88458==
41951,2023,07,06,15,00,AAXX 06154 41951 01450 31304 10284 20270 30043 40047 72162 83500 333 58026 70099 83618==
41951,2023,07,06,18,00,AAXX 06184 41951 01330 81502 10282 20280 30051 40055 76062 8672/ 333 58031 70167 82706 84616 88458==
41951,2023,07,06,21,00,AAXX 06214 41951 01340 81302 10284 20280 30046 40050 70262 8562/ 333 58029 70155 81708 84618 88458==
41953,2023,06,30,00,00,AAXX 30004 41953 02440 80000 10270 20260 30043 40048 8352/ 333 59011 70290 83616 88458==
41953,2023,06,30,03,00,AAXX 30034 41953 02440 82305 10300 20280 30062 40067 8452/ 333 20260 59003 70290 84616 88458==
41953,2023,06,30,06,00,AAXX 30064 41953 01440 80000 10295 20280 30059 40064 70262 8452/ 333 59011 70050 84615 88458==
41953,2023,06,30,09,00,AAXX 30094 41953 02450 61806 10326 20280 30031 40036 83570 333 59034 70180 83616 84458==
41953,2023,06,30,12,00,AAXX 30124 41953 02440 82303 10300 20270 30026 40031 8452/ 333 10327 59015 70050 84616 88458==
41953,2023,06,30,15,00,AAXX 30154 41953 01420 83104 10265 20265 30053 40058 76162 8632/ 333 58003 70180 84614 88582 81925==
41953,2023,06,30,18,00,AAXX 30184 41953 01420 83103 10262 20260 30051 40056 76166 8632/ 333 59015 70210 84614 88458 81925==
41953,2023,06,30,21,00,AAXX 30214 41953 02420 82303 10264 20250 30052 40057 8452/ 333 58004 70260 84615 88458==
41953,2023,07,01,00,00,AAXX 01004 41953 02440 80000 10262 20260 30037 40042 8452/ 333 59006 70260 84615 88458==
41953,2023,07,01,03,00,AAXX 01034 41953 02450 80000 10296 20280 30057 40062 8452/ 333 20260 59005 70260 84616 88458==
41953,2023,07,01,06,00,AAXX 01064 41953 02450 81804 10315 20270 30056 40061 8452/ 333 59003 70210 84616 88458==
41953,2023,07,01,09,00,AAXX 01094 41953 02450 41305 10335 20270 30031 40036 84400 333 58000 70210 83618==
41953,2023,07,01,12,00,AAXX 01124 41953 02450 62304 10305 20280 30032 40037 83520 333 10338 58006 70210 83616 85458==
41953,2023,07,01,15,00,AAXX 01154 41953 02440 30000 10290 20280 30044 40049 83500 333 59009 70080 83618==
41953,2023,07,01,18,00,AAXX 01184 41953 02440 50000 10286 20280 30047 40052 83570 333 59004 70000 83616 83458==
41953,2023,07,01,21,00,AAXX 01214 41953 02440 31804 10285 20280 30043 40048 83500 333 59009 70000 83618==
41953,2023,07,02,00,00,AAXX 02004 41953 02450 32303 10280 20270 30036 40041 83500 333 59001 70000 83618==
41953,2023,07,02,03,00,AAXX 02034 41953 02450 61308 10320 20280 30054 40059 83570 333 20278 59003 70000 83616 84458==
41953,2023,07,02,06,00,AAXX 02064 41953 02450 61305 10330 20280 30040 40045 83570 333 59016 70000 83616 84458==
41953,2023,07,02,09,00,AAXX 02094 41953 01450 82304 10320 20270 30024 40029 70362 8452/ 333 59007 70040 84615 88458==
41953,2023,07,02,12,00,AAXX 02124 41953 11450 50000 10310 20260 30021 40026 60046 70162 85400 333 10333 59011 70040 83618==
41953,2023,07,02,15,00,AAXX 02154 41953 02440 32304 10290 20280 30037 40042 83500 333 59007 70040 83618==
41953,2023,07,02,18,00,AAXX 02184 41953 02440 32303 10285 20280 30041 40046 83500 333 59006 70040 83618==
41953,2023,07,02,21,00,AAXX 02214 41953 02440 30000 10285 20280 30038 40043 83500 333 59005 70040 83618==
41953,2023,07,03,00,00,AAXX 03004 41953 02450 40000 10280 20270 30034 40039 82530 333 59002 70040 82618 84361==
41953,2023,07,03,03,00,AAXX 03034 41953 02450 41805 10330 20270 30048 40053 84400 333 20278 59006 70040 83618==
41953,2023,07,03,06,00,AAXX 03064 41953 02450 81306 10335 20270 30045 40050 8352/ 333 58005 70040 83616 88458==
41953,2023,07,03,09,00,AAXX 03094 41953 02450 51304 10325 20270 30022 40027 85400 333 59002 70000 83618==
41953,2023,07,03,12,00,AAXX 03124 41953 02450 40000 10325 20280 30019 40024 84400 333 10337 59002 70000 83618==
41953,2023,07,03,15,00,AAXX 03154 41953 02440 32205 10295 20280 30036 40041 83500 333 59001 70000 83618==
41953,2023,07,03,18,00,AAXX 03184 41953 02440 32204 10290 20280 30041 40046 83500 333 58000 70000 83618==
41953,2023,07,03,21,00,AAXX 03214 41953 02440 30000 10286 20280 30037 40042 83500 333 59001 70000 83618==
41953,2023,07,04,00,00,AAXX 04004 41953 02450 20000 10280 20270 30029 40034 82500 333 59005 70000 82618==
41953,2023,07,04,03,00,AAXX 04034 41953 02450 41805 10316 20270 30039 40044 84400 333 20279 59009 70000 83618==
41953,2023,07,04,06,00,AAXX 04064 41953 02450 41803 10346 20260 30035 40040 84400 333 59010 70000 83618==
41953,2023,07,04,09,00,AAXX 04094 41953 02450 41803 10340 20260 30011 40016 84400 333 59011 70000 83616==
41953,2023,07,04,12,00,AAXX 04124 41953 02450 40000 10330 20260 39999 40004 84400 333 10350 59020 70000 83616==
41953,2023,07,04,15,00,AAXX 04154 41953 02440 60000 10300 20270 30020 40025 82520 333 59016 70000 82616 86458==
41953,2023,07,04,18,00,AAXX 04184 41953 02440 60000 10290 20270 30026 40031 83520 333 59015 70000 83616 86458==
41953,2023,07,04,21,00,AAXX 04214 41953 02440 60000 10286 20280 30020 40025 83520 333 59017 70000 83616 86458==
41953,2023,07,05,00,00,AAXX 05004 41953 01440 61303 10270 20260 30010 40015 72122 83520 333 59019 70030 83616 86458==
41953,2023,07,05,03,00,AAXX 05034 41953 02450 61304 10305 20260 30019 40024 83520 333 20266 59020 70030 83616 86458==
41953,2023,07,05,06,00,AAXX 05064 41953 02450 61805 10325 20260 30016 40021 84420 333 59019 70030 83616 85458==
41953,2023,07,05,09,00,AAXX 05094 41953 02450 51805 10310 20260 30003 40008 85400 333 59008 70030 82616 83825==
41953,2023,07,05,12,00,AAXX 05124 41953 02450 51805 10306 20260 30001 40006 85400 333 10330 58002 70030 82616 83825==
41953,2023,07,05,15,00,AAXX 05154 41953 02440 81805 10290 20260 30020 40025 8352/ 333 58000 70030 83616 88458==
41953,2023,07,05,18,00,AAXX 05184 41953 02440 81805 10280 20260 30033 40038 8352/ 333 58007 70030 83616 88458==
41953,2023,07,05,21,00,AAXX 05214 41953 02440 81805 10276 20270 30025 40030 8352/ 333 58005 70030 83616 88458==
41953,2023,07,06,00,00,AAXX 06004 41953 01440 81305 10270 20260 30029 40034 72162 8352/ 333 58019 70160 83616 88458==
41953,2023,07,06,03,00,AAXX 06034 41953 02450 81305 10290 20270 30045 40050 8352/ 333 20260 58026 70160 83616 88458==
41953,2023,07,06,06,00,AAXX 06064 41953 02450 81305 10306 20270 30040 40045 8352/ 333 58024 70160 83616 88458==
41953,2023,07,06,09,00,AAXX 06094 41953 02450 61305 10305 20260 30036 40041 83520 333 58033 70160 83616 86458==
41953,2023,07,06,12,00,AAXX 06124 41953 02450 61304 10290 20260 30029 40034 83520 333 10310 58028 70160 83616 86458==
41953,2023,07,06,15,00,AAXX 06154 41953 02440 81305 10280 20260 30049 40054 8352/ 333 58029 70160 83616 88458==
41953,2023,07,06,18,00,AAXX 06184 41953 02440 81305 10275 20260 30058 40063 8352/ 333 58025 70160 83616 88458==
41953,2023,07,06,21,00,AAXX 06214 41953 02440 81305 10270 20260 30053 40058 8352/ 333 58028 70160 83616 88458==
41955,2023,06,30,00,00,AAXX 30004 41955 NIL=
41955,2023,06,30,06,00,AAXX 30064 41955 NIL=
41955,2023,06,30,12,00,AAXX 30124 41955 NIL=
41955,2023,06,30,18,00,AAXX 30184 41955 NIL=
41955,2023,07,01,06,00,AAXX 01064 41955 NIL=
41955,2023,07,01,12,00,AAXX 01124 41955 NIL=
41955,2023,07,01,18,00,AAXX 01184 41955 NIL=
41955,2023,07,02,00,00,AAXX 02004 41955 NIL=
41955,2023,07,02,03,00,AAXX 02034 41955 NIL=
41955,2023,07,02,06,00,AAXX 02064 41955 NIL=
41955,2023,07,02,12,00,AAXX 02124 41955 NIL=
41955,2023,07,03,00,00,AAXX 03004 41955 NIL=
41955,2023,07,03,06,00,AAXX 03064 41955 NIL=
41955,2023,07,03,12,00,AAXX 03124 41955 NIL=
41955,2023,07,03,18,00,AAXX 03184 41955 NIL=
41955,2023,07,04,06,00,AAXX 04064 41955 NIL=
41955,2023,07,04,12,00,AAXX 04124 41955 NIL=
41955,2023,07,05,06,00,AAXX 05064 41955 NIL=
41955,2023,07,05,12,00,AAXX 05124 41955 NIL=
41955,2023,07,05,18,00,AAXX 05184 41955 NIL=
41955,2023,07,06,06,00,AAXX 06064 41955 NIL=
41955,2023,07,06,09,00,AAXX 06094 41955 NIL=
41955,2023,07,06,12,00,AAXX 06124 41955 NIL=
41958,2023,06,30,00,00,AAXX 30004 41958 32450 81801 10277 20277 30031 40033 8542/ 333 56499 59001 70938 84616 88459=
41958,2023,06,30,03,00,AAXX 30034 41958 32456 61801 10310 20290 30041 40043 85410 333 20252 56490 59022 70318 84616 86459=
41958,2023,06,30,06,00,AAXX 30064 41958 32456 61801 10350 20290 30030 40032 85410 333 56490 59027 70258 84616 86459=
41958,2023,06,30,09,00,AAXX 30094 41958 21456 81801 10280 20280 30011 40013 79596 8592/ 333 56999 59027 6041/ 70482 84614 81928 88459=
41958,2023,06,30,12,00,AAXX 30124 41958 11450 60000 10289 20280 30007 40009 60479 70196 85910 333 10351 56990 59021 70474 84615 81930 86459=
41958,2023,06,30,15,00,AAXX 30154 41958 21435 80000 10280 20270 30027 40029 76122 8532/ 333 56999 59012 6001/ 70484 84615 81930 88459=
41958,2023,06,30,18,00,AAXX 30184 41958 11430 80000 10274 20270 30039 40041 60017 70262 8532/ 333 56999 59012 70488 84615 81930 88459=
41958,2023,06,30,21,00,AAXX 30214 41958 21430 60000 10276 20276 30013 40015 70166 85410 333 56990 59015 6002/ 70503 84616 86459=
41958,2023,07,01,00,00,AAXX 01004 41958 11450 50000 10280 20280 30016 40018 60026 70162 85400 333 56900 59015 70503 84617=
41958,2023,07,01,03,00,AAXX 01034 41958 32456 60000 10330 20290 30035 40037 83410 333 20261 56990 59006 70503 83616 85459=
41958,2023,07,01,06,00,AAXX 01064 41958 11430 80000 10320 20300 30038 40040 69964 76192 8592/ 333 56999 58008 70509 84616 81930 88458=
41958,2023,07,01,09,00,AAXX 01094 41958 31430 80000 10284 20280 30017 40019 79596 8492/ 333 56999 58006 6028/ 70376 84616 81929 88458=
41958,2023,07,01,12,00,AAXX 01124 41958 31450 80000 10305 20300 30011 40013 60318 70296 8542/ 333 10344 56999 58004 70344 84616 88458=
41958,2023,07,01,15,00,AAXX 01154 41958 32450 31702 10290 20280 30022 40024 83400 333 56900 59005 70335 83616=
41958,2023,07,01,18,00,AAXX 01184 41958 32940 01701 10286 20280 30036 40038 333 58009 70331=
41958,2023,07,01,21,00,AAXX 01214 41958 32440 31701 10285 20280 30018 40020 83400 333 56400 58005 70313 83616=
41958,2023,07,02,00,00,AAXX 02004 41958 32450 61701 10284 20270 30017 40019 83410 333 56490 58017 70313 83616 85459=
41958,2023,07,02,03,00,AAXX 02034 41958 32456 51701 10335 20290 30033 40035 83410 333 20274 56490 59002 70313 83616 84459=
41958,2023,07,02,06,00,AAXX 02064 41958 32456 81703 10348 20310 30023 40025 8542/ 333 56499 59013 70307 84616 88458=
41958,2023,07,02,09,00,AAXX 02094 41958 31430 80000 10285 20280 30013 40015 79596 8592/ 333 56999 59004 6048/ 70510 84616 81929 88458=
41958,2023,07,02,12,00,AAXX 02124 41958 31420 80000 10265 20265 30010 40012 61149 79596 8592/ 333 10356 56999 59002 71140 84616 81929 88458=
41958,2023,07,02,15,00,AAXX 02154 41958 32440 61702 10283 20280 30017 40019 83410 333 56490 59005 71140 83616 85459=
41958,2023,07,02,18,00,AAXX 02184 41958 32440 61701 10278 20278 30030 40032 83410 333 56490 59006 71140 83616 85459=
41958,2023,07,02,21,00,AAXX 02214 41958 32440 50000 10278 20278 30018 40020 83410 333 56990 58000 71140 83616 84459=
41958,2023,07,03,00,00,AAXX 03004 41958 32450 50000 10280 20280 30016 40018 83510 333 56990 59001 71140 83616 84459=
41958,2023,07,03,03,00,AAXX 03034 41958 32456 50000 10320 20290 30039 40041 83410 333 20260 56990 58006 71140 83616 84459=
41958,2023,07,03,06,00,AAXX 03064 41958 32456 80000 10338 20300 30030 40032 8442/ 333 56999 58007 71140 84616 88458=
41958,2023,07,03,09,00,AAXX 03094 41958 32457 51703 10350 20290 30001 40003 83410 333 56490 59012 70660 83616 84459=
41958,2023,07,03,12,00,AAXX 03124 41958 32456 31701 10317 20270 39997 49999 83500 333 10357 56400 59011 70000 83616=
41958,2023,07,03,15,00,AAXX 03154 41958 32450 31701 10294 20270 30022 40024 83400 333 56400 58005 70000 83616=
41958,2023,07,03,18,00,AAXX 03184 41958 32440 30000 10290 20280 30028 40030 83500 333 56900 59002 70000 83616=
41958,2023,07,03,21,00,AAXX 03214 41958 32440 30000 10282 20280 30025 40027 83400 333 56900 58007 70000 83616=
41958,2023,07,04,00,00,AAXX 04004 41958 32450 30000 10277 20277 30022 40024 83500 333 56900 58006 70000 83616=
41958,2023,07,04,03,00,AAXX 04034 41958 32456 30000 10344 20270 30027 40029 83400 333 20274 56900 59012 70000 83616=
41958,2023,07,04,06,00,AAXX 04064 41958 11420 81703 10287 20280 30035 40037 60074 76300 8542/ 333 56499 58005 70070 84616 88458=
41958,2023,07,04,09,00,AAXX 04094 41958 32457 30000 10344 20280 30007 40009 83400 333 56900 58006 70070 83616=
41958,2023,07,04,12,00,AAXX 04124 41958 32456 30000 10315 20280 39990 49992 83400 333 10354 56900 59007 70070 83616=
41958,2023,07,04,15,00,AAXX 04154 41958 32450 50000 10294 20280 30005 40007 83410 333 56990 59019 70070 83616 84459=
41958,2023,07,04,18,00,AAXX 04184 41958 32940 00000 10290 20280 30018 40020 333 59012 70070=
41958,2023,07,04,21,00,AAXX 04214 41958 32440 30000 10288 20280 30003 40005 83400 333 56200 59021 70070 83616=
41958,2023,07,05,00,00,AAXX 05004 41958 32450 60108 10287 20280 30001 40003 83410 333 56290 59021 70070 83616 85459=
41958,2023,07,05,03,00,AAXX 05034 41958 32456 60802 10320 20270 30001 40003 83410 333 20276 56290 59026 70070 83616 85459=
41958,2023,07,05,06,00,AAXX 05064 41958 11430 80000 10295 20290 39998 40000 60034 76322 8542/ 333 56999 59037 70030 84616 88458=
41958,2023,07,05,09,00,AAXX 05094 41958 32457 51702 10340 20270 39986 49988 83410 333 56490 59021 70030 83616 84459=
41958,2023,07,05,12,00,AAXX 05124 41958 11450 60000 10290 20280 39980 49982 60054 70162 83410 333 10344 56490 59010 70084 83616 85459=
41958,2023,07,05,15,00,AAXX 05154 41958 21440 81702 10285 20280 39998 40000 70362 8442/ 333 56499 59005 6994/ 70088 84616 88458=
41958,2023,07,05,18,00,AAXX 05184 41958 11440 60000 10286 20280 30006 40008 69945 70162 83410 333 56990 59010 70088 83616 85459=
41958,2023,07,05,21,00,AAXX 05214 41958 21440 61702 10280 20280 30008 40010 70262 83410 333 56490 58004 6009/ 70178 83616 85458=
41958,2023,07,06,00,00,AAXX 06004 41958 11440 60000 10270 20270 30005 40007 60096 70262 83410 333 56990 58005 70178 83616 85458=
41958,2023,07,06,03,00,AAXX 06034 41958 21456 61701 10322 20280 30022 40024 70262 83410 333 20265 56490 58021 6994/ 70182 83616 85459=
41958,2023,07,06,06,00,AAXX 06064 41958 11456 61701 10300 20290 30015 40017 60094 70262 83410 333 56490 58017 70242 83616 85459=
41958,2023,07,06,09,00,AAXX 06094 41958 21430 81701 10280 20270 30008 40010 76362 8542/ 333 56499 58022 6010/ 84616 88458=
41958,2023,07,06,12,00,AAXX 06124 41958 11456 61701 10284 20270 30008 40010 60129 70262 83410 333 10320 56490 58018 70308 83616 85459=
41958,2023,07,06,15,00,AAXX 06154 41958 32440 81703 10282 20270 30028 40030 8542/ 333 56399 58030 70304 84616 88458=
41958,2023,07,06,18,00,AAXX 06184 41958 32440 81301 10284 20270 30031 40033 8542/ 333 56399 58025 70304 84616 88458=
41958,2023,07,06,21,00,AAXX 06214 41958 32440 80000 10280 20280 30030 40032 8542/ 333 56999 58022 70214 84616 88458=
41960,2023,06,30,00,00,AAXX 30004 41960 02450 80000 10280 20280 30038 40039 8542/ 333 59011 70320 84617 88459==
41960,2023,06,30,03,00,AAXX 30034 41960 02458 62304 10308 20290 30061 40062 84410 333 20255 59005 70320 83618 86459==
41960,2023,06,30,06,00,AAXX 30064 41960 02458 71806 10338 20280 30059 40061 85410 333 59009 70220 82618 83823 87459==
41960,2023,06,30,09,00,AAXX 30094 41960 02458 61805 10330 20270 30027 40029 85410 333 59027 70060 82618 83823 86459==
41960,2023,06,30,12,00,AAXX 30124 41960 02456 71802 10305 20290 30024 40026 85310 333 10340 59019 70010 84616 87459 81930==
41960,2023,06,30,15,00,AAXX 30154 41960 02440 61602 10295 20290 30044 40046 84310 333 59009 70000 83616 86459 81930==
41960,2023,06,30,18,00,AAXX 30184 41960 02430 40000 10290 20280 30042 40044 84410 333 59011 70000 83618 86459==
41960,2023,06,30,21,00,AAXX 30214 41960 02430 60000 10288 20280 30039 40041 84410 333 59007 70000 83617 86459==
41960,2023,07,01,00,00,AAXX 01004 41960 02450 70000 10286 20286 30036 40038 85410 333 59002 70000 84616 87459==
41960,2023,07,01,03,00,AAXX 01034 41960 02457 71603 10310 20280 30058 40060 85410 333 20285 59003 70000 84617 87459==
41960,2023,07,01,06,00,AAXX 01064 41960 02456 81604 10325 20280 30056 40058 8532/ 333 59003 70000 84616 88459 81930==
41960,2023,07,01,09,00,AAXX 01094 41960 01457 71802 10313 20280 30035 40037 70162 86410 333 58008 70150 83616 83823 87459==
41960,2023,07,01,12,00,AAXX 01124 41960 01450 71801 10302 20280 30031 40033 70266 85410 333 10335 58007 70250 84616 87459==
41960,2023,07,01,15,00,AAXX 01154 41960 02440 40000 10290 20280 30041 40043 84400 333 59003 70250 83618==
41960,2023,07,01,18,00,AAXX 01184 41960 02430 60000 10286 20286 30051 40053 85310 333 59009 70250 83617 86459 81930==
41960,2023,07,01,21,00,AAXX 01214 41960 02430 60000 10285 20285 30045 40047 84410 333 58006 70250 83618 86459==
41960,2023,07,02,00,00,AAXX 02004 41960 02450 60000 10286 20286 30036 40038 84410 333 58000 70250 83618 86459==
41960,2023,07,02,03,00,AAXX 02034 41960 02458 61802 10324 20280 30051 40053 84410 333 20270 59007 70250 83618 86459==
41960,2023,07,02,06,00,AAXX 02064 41960 02458 51801 10340 20280 30037 40039 85400 333 59019 70250 82618 83825==
41960,2023,07,02,09,00,AAXX 02094 41960 01456 71801 10308 20290 30021 40023 70396 85310 333 59014 70190 84616 87459 81930==
41960,2023,07,02,12,00,AAXX 02124 41960 11450 71801 10300 20280 30028 40030 60096 70296 85310 333 10345 59003 70090 84616 87459 81930==
41960,2023,07,02,15,00,AAXX 02154 41960 02440 41802 10295 20290 30037 40039 84400 333 59004 70090 83617==
41960,2023,07,02,18,00,AAXX 02184 41960 02430 30000 10292 20280 30041 40043 83400 333 59010 70090 82618==
41960,2023,07,02,21,00,AAXX 02214 41960 02430 40000 10288 20280 30038 40040 84400 333 59007 70090 83618==
41960,2023,07,03,00,00,AAXX 03004 41960 02456 50000 10284 20270 30035 40037 83410 333 59001 70090 82618 85459==
41960,2023,07,03,03,00,AAXX 03034 41960 02457 72302 10302 20270 30049 40051 86410 333 20280 59002 70090 83617 83823 87459==
41960,2023,07,03,06,00,AAXX 03064 41960 21450 81801 10273 20260 30051 40052 76162 8542/ 333 58015 60217 70300 84616 88459==
41960,2023,07,03,09,00,AAXX 03094 41960 01457 71802 10327 20280 30020 40022 70162 85410 333 59001 70230 84617 87459==
41960,2023,07,03,12,00,AAXX 03124 41960 11456 31801 10320 20270 30022 40024 60026 70162 83400 333 10336 59006 70230 82618==
41960,2023,07,03,15,00,AAXX 03154 41960 02440 30000 10295 20290 30036 40038 83400 333 59001 70230 82618==
41960,2023,07,03,18,00,AAXX 03184 41960 02430 30000 10288 20280 30041 40043 83400 333 58000 70230 82618==
41960,2023,07,03,21,00,AAXX 03214 41960 02430 30000 10282 20270 30029 40031 83500 333 59009 70230 83618==
41960,2023,07,04,00,00,AAXX 04004 41960 02456 20000 10277 20277 30025 40027 82500 333 59010 70230 82618==
41960,2023,07,04,03,00,AAXX 04034 41960 02458 50000 10330 20270 30036 40038 85400 333 20272 59013 70230 82618 83823==
41960,2023,07,04,06,00,AAXX 04064 41960 01456 70000 10300 20270 30039 40041 76122 85410 333 59013 70004 84616 87459==
41960,2023,07,04,09,00,AAXX 04094 41960 02458 70000 10342 20270 30012 40014 85410 333 59008 70024 84616 87459==
41960,2023,07,04,12,00,AAXX 04124 41960 02456 60000 10318 20270 30004 40005 84410 333 10346 59018 70004 83617 86459==
41960,2023,07,04,15,00,AAXX 04154 41960 02440 60000 10295 20280 30023 40025 84400 333 59013 70004 83617 86459==
41960,2023,07,04,18,00,AAXX 04184 41960 02430 40000 10288 20280 30026 40028 84500 333 59015 70004 84618==
41960,2023,07,04,21,00,AAXX 04214 41960 02430 60000 10284 20270 30016 40018 84410 333 59013 70004 83617 86459==
41960,2023,07,05,00,00,AAXX 05004 41960 01456 60000 10272 20270 30005 40007 70162 84410 333 59020 70006 83617 86459==
41960,2023,07,05,03,00,AAXX 05034 41960 02457 71005 10295 20280 30016 40018 85410 333 20270 59020 70010 84616 87459==
41960,2023,07,05,06,00,AAXX 05064 41960 21458 70904 10318 20270 30008 40010 70262 86410 333 59031 69945 70010 83616 83823 87459==
41960,2023,07,05,09,00,AAXX 05094 41960 01458 61601 10306 20280 30008 40010 70166 84410 333 59004 70020 83616 86459==
41960,2023,07,05,12,00,AAXX 05124 41960 01456 71304 10295 20280 39994 49996 70366 85410 333 10330 59010 70026 84616 87459==
41960,2023,07,05,15,00,AAXX 05154 41960 01430 70000 10280 20270 30021 40023 70266 85410 333 59002 70046 84616 87459==
41960,2023,07,05,18,00,AAXX 05184 41960 11430 80902 10280 20270 30024 40026 60026 70362 8542/ 333 59002 70046 84616 88459==
41960,2023,07,05,21,00,AAXX 05214 41960 02430 81601 10280 20270 30019 40021 8542/ 333 58003 70046 84616 88459==
41960,2023,07,06,00,00,AAXX 06004 41960 21440 81602 10280 20270 30022 40024 76162 8542/ 333 58017 60027 70060 84616 88459==
41960,2023,07,06,03,00,AAXX 06034 41960 02458 71602 10322 20280 30034 40036 85410 333 20275 58018 70060 84617 87459==
41960,2023,07,06,06,00,AAXX 06064 41960 01440 80801 10278 20270 30039 40041 76122 8542/ 333 58031 70140 84616 88459==
41960,2023,07,06,09,00,AAXX 06094 41960 02458 61603 10310 20270 30029 40031 85410 333 58021 70186 84618 86459==
41960,2023,07,06,12,00,AAXX 06124 41960 01456 61804 10293 20270 30024 40026 70262 85410 333 10323 58030 70004 84618 86459==
41960,2023,07,06,15,00,AAXX 06154 41960 02440 51801 10290 20280 30047 40049 83510 333 58026 70164 83618 85459==
41960,2023,07,06,18,00,AAXX 06184 41960 02430 60000 10290 20280 30049 40051 83510 333 58025 70164 83618 86459==
41960,2023,07,06,21,00,AAXX 06214 41960 01420 80000 10280 20280 30046 40048 76166 8542/ 333 58027 70264 84616 88459==
41963,2023,06,30,00,00,AAXX 30004 41963 21356 80000 10280 20280 30049 40052 70262 8572/ 333 59006 60055 70200 82710 83615 88458==
41963,2023,06,30,03,00,AAXX 30034 41963 02456 51603 10300 20290 30062 40065 84430 333 20250 59011 70200 82617 84363==
41963,2023,06,30,06,00,AAXX 30064 41963 NIL=
41963,2023,06,30,09,00,AAXX 30094 41963 02456 31803 10324 20270 30034 40036 83400 333 59014 70200 82618==
41963,2023,06,30,12,00,AAXX 30124 41963 02456 30000 10305 20270 30030 40033 83400 333 10327 59019 70110 81618 83825==
41963,2023,06,30,15,00,AAXX 30154 41963 02450 10000 10288 20280 30053 40055 81500 333 59004 70070 81620==
41963,2023,06,30,18,00,AAXX 30184 41963 NIL=
41963,2023,07,01,00,00,AAXX 01004 41963 02/56 30000 10280 20280 30039 40042 83030 333 59010 70000 83364==
41963,2023,07,01,03,00,AAXX 01034 41963 02456 42002 10317 20290 30055 40057 84400 333 20275 59006 70000 82618 83825==
41963,2023,07,01,06,00,AAXX 01064 41963 02456 42003 10324 20270 30062 40064 83450 333 58001 70000 82618 83363==
41963,2023,07,01,09,00,AAXX 01094 41963 02456 31604 10320 20270 30039 40041 83500 333 58005 70000 82618==
41963,2023,07,01,12,00,AAXX 01124 41963 02/56 30000 10310 20270 30033 40036 83060 333 10332 58003 70000 83363==
41963,2023,07,01,15,00,AAXX 01154 41963 02/50 30000 10290 20270 30048 40050 83030 333 59005 70000 83363==
41963,2023,07,01,18,00,AAXX 01184 41963 02450 30000 10284 20260 30048 40050 81501 333 59002 70000 81618 83080==
41963,2023,07,01,21,00,AAXX 01214 41963 02/50 30000 10282 20270 30044 40046 83040 333 58005 70000 83364==
41963,2023,07,02,00,00,AAXX 02004 41963 02/56 30000 10290 20280 30038 40040 83030 333 59001 70000 83363==
41963,2023,07,02,03,00,AAXX 02034 41963 01456 40000 10300 20280 30054 40056 72121 81540 333 20280 59001 70006 81620 84363==
41963,2023,07,02,06,00,AAXX 02064 41963 01456 30000 10302 20290 30045 40058 72162 83500 333 59017 70040 83617==
41963,2023,07,02,09,00,AAXX 02094 41963 02456 42104 10330 20260 30028 40031 83430 333 59011 70040 82618 83363==
41963,2023,07,02,12,00,AAXX 02124 41963 02/56 30000 10308 20270 30030 40033 83030 333 10333 59005 70040 83364==
41963,2023,07,02,15,00,AAXX 02154 41963 02/50 30000 10290 20280 30039 40042 83030 333 59009 70040 83364==
41963,2023,07,02,18,00,AAXX 02184 41963 02/50 20000 10284 20270 30040 40042 82030 333 59008 70040 82364==
41963,2023,07,02,21,00,AAXX 02214 41963 02/50 30000 10282 20270 30036 40038 83030 333 59008 70040 83364==
41963,2023,07,03,00,00,AAXX 03004 41963 02/56 40000 10285 20280 30039 40041 84050 333 58001 70040 84363==
41963,2023,07,03,03,00,AAXX 03034 41963 02556 40000 10317 20280 30052 40054 82230 333 20276 59001 70034 82825 83364==
41963,2023,07,03,06,00,AAXX 03064 41963 02456 51802 10314 20280 30048 40051 84430 333 58003 70000 82617 83363==
41963,2023,07,03,09,00,AAXX 03094 41963 02556 11802 10325 20280 30026 40029 82100 333 59002 70000 81825==
41963,2023,07,03,12,00,AAXX 03124 41963 02556 30000 10315 20260 30024 40027 82160 333 10337 59006 70000 82825 83363==
41963,2023,07,03,18,00,AAXX 03184 41963 02/50 30000 10295 20270 30037 40040 83060 333 59002 70000 83363==
41963,2023,07,03,21,00,AAXX 03214 41963 02/50 20000 10285 20270 30031 40033 82030 333 59005 70000 82363==
41963,2023,07,04,00,00,AAXX 04004 41963 02456 40000 10284 20270 30034 40036 83540 333 59005 70000 83617 85362==
41963,2023,07,04,03,00,AAXX 04034 41963 02556 31202 10315 20260 30037 40040 81160 333 20277 59015 70000 82825 83362==
41963,2023,07,04,06,00,AAXX 04064 41963 02456 21402 10320 20270 30035 40038 82500 333 59013 70000 82620==
41963,2023,07,04,09,00,AAXX 04094 41963 02456 30000 10320 20270 30015 40018 81560 333 59011 70000 81620 83364==
41963,2023,07,04,12,00,AAXX 04124 41963 02/56 30000 10310 20260 30010 40013 83040 333 10330 59014 70000 83363==
41963,2023,07,04,21,00,AAXX 04214 41963 02450 50000 10282 20260 30019 40021 83570 333 59012 70020 83617 83458==
41963,2023,07,05,00,00,AAXX 05004 41963 02456 42104 10286 20260 30015 40018 83530 333 59019 70020 83617 83364==
41963,2023,07,05,03,00,AAXX 05034 41963 02456 21408 10310 20250 30018 40020 82500 333 20273 59019 70020 82620==
41963,2023,07,05,06,00,AAXX 05064 41963 02456 21409 10310 20270 30017 40019 82500 333 59018 70020 82620==
41963,2023,07,05,09,00,AAXX 05094 41963 02456 41408 10310 20270 30009 40011 83460 333 59009 70020 81620 83363==
41963,2023,07,05,12,00,AAXX 05124 41963 02456 31607 10297 20250 30006 40009 82560 333 10315 59006 70020 82620==
41963,2023,07,05,15,00,AAXX 05154 41963 02/50 31803 10290 20260 30027 40030 83040 333 59001 70020 83363==
41963,2023,07,05,18,00,AAXX 05184 41963 NIL=
41963,2023,07,06,03,00,AAXX 06034 41963 01456 51602 10300 20270 30044 40047 72122 83530 333 20263 58026 70400 83617 83362==
41963,2023,07,06,06,00,AAXX 06064 41963 22356 81602 10280 20270 30028 40031 8472/ 333 58013 60328 70390 82712 83615 88458==
41963,2023,07,06,09,00,AAXX 06094 41963 02456 51406 10300 20270 30037 40040 83460 333 58028 70430 82618 84362==
41963,2023,07,06,12,00,AAXX 06124 41963 02456 51803 10290 20260 30034 40037 83540 333 10306 58028 70430 83617 84362==
41963,2023,07,06,15,00,AAXX 06154 41963 02450 41605 10290 20270 30057 40060 84500 333 58030 70430 84617==
41963,2023,07,06,18,00,AAXX 06184 41963 11450 51806 10283 20270 30057 40060 60012 72162 82530 333 58031 70370 82618 85363==
41963,2023,07,06,21,00,AAXX 06214 41963 02450 51404 10282 20270 30053 40055 83530 333 58029 70170 83617 83363==
41964,2023,06,30,00,00,AAXX 30004 41964 21357 81802 10277 20277 30043 40046 70262 8662/ 333 59008 60028 70034 82709 85617 88460==
41964,2023,06,30,03,00,AAXX 30034 41964 02357 81703 10301 20280 30055 40058 8672/ 333 20253 59011 70034 82709 85617 88458==
41964,2023,06,30,06,00,AAXX 30064 41964 02357 81804 10307 20280 30055 40058 8662/ 333 59009 70034 82709 85617 88460==
41964,2023,06,30,09,00,AAXX 30094 41964 02558 51904 10322 20280 30031 40034 84430 333 59012 70034 83620 83362==
41964,2023,06,30,12,00,AAXX 30124 41964 02558 52103 10302 20270 30022 40024 83402 333 10325 59016 70020 82620 83080==
41964,2023,06,30,18,00,AAXX 30184 41964 01458 40000 10270 20260 30034 40037 70196 81530 333 59016 70006 81618 83362==
41964,2023,06,30,21,00,AAXX 30214 41964 02557 60000 10280 20270 30036 40039 83430 333 59010 70006 82622 83362==
41964,2023,07,01,00,00,AAXX 01004 41964 02558 60000 10283 20283 30032 40035 84402 333 59011 70006 83622 83080==
41964,2023,07,01,03,00,AAXX 01034 41964 02558 61802 10309 20280 30048 40051 85430 333 20261 59007 70006 84622 84362==
41964,2023,07,01,06,00,AAXX 01064 41964 02558 71504 10314 20280 30058 40060 85430 333 58003 70006 83622 83825 86362==
41964,2023,07,01,09,00,AAXX 01094 41964 02558 51405 10324 20280 30034 40036 85401 333 58003 70006 83622 83825==
41964,2023,07,01,12,00,AAXX 01124 41964 02558 51802 10304 20270 30026 40028 83402 333 10326 58004 70006 82620 83080==
41964,2023,07,01,15,00,AAXX 01154 41964 02558 40000 10289 20280 30039 40041 81102 333 59005 70006 81825 84080==
41964,2023,07,01,18,00,AAXX 01184 41964 02/57 40000 10283 20270 30041 40043 81032 333 58007 70000 81362 84080==
41964,2023,07,01,21,00,AAXX 01214 41964 02457 50000 10283 20270 30037 40039 82530 333 58001 70000 82618 84362==
41964,2023,07,02,00,00,AAXX 02004 41964 02557 70000 10286 20280 30033 40035 81171 333 58001 70000 81825 84460 85362==
41964,2023,07,02,03,00,AAXX 02034 41964 02458 71802 10307 20280 30044 40046 83570 333 20278 59004 70000 83618 83460 85362==
41964,2023,07,02,06,00,AAXX 02064 41964 02558 62105 10323 20280 30041 40043 85431 333 59017 70000 84622 83362==
41964,2023,07,02,09,00,AAXX 02094 41964 02558 52105 10331 20280 30021 40023 83401 333 59013 70000 82622 83080==
41964,2023,07,02,12,00,AAXX 02124 41964 02558 51803 10309 20280 30020 40022 83402 333 10334 59006 70000 82622 83080==
41964,2023,07,02,15,00,AAXX 02154 41964 02558 40000 10295 20280 30030 40032 81101 333 59009 70000 81825 83080==
41964,2023,07,02,18,00,AAXX 02184 41964 02558 50000 10291 20280 30035 40037 85401 333 59006 70000 83622 83825==
41964,2023,07,02,21,00,AAXX 02214 41964 02557 60000 10288 20280 30033 40035 85430 333 59004 70000 84622 83362==
41964,2023,07,03,00,00,AAXX 03004 41964 02458 70000 10282 20270 30032 40034 84832 333 59001 70000 82618 83825 85362==
41964,2023,07,03,03,00,AAXX 03034 41964 02458 61503 10316 20270 30044 40046 84830 333 20276 58000 70000 82618 83825 85362==
41964,2023,07,03,06,00,AAXX 03064 41964 02458 61603 10330 20270 30040 40042 84802 333 59001 70000 82618 83825 85080==
41964,2023,07,03,09,00,AAXX 03094 41964 02558 51804 10328 20270 30017 40019 84430 333 59004 70000 83620 83360==
41964,2023,07,03,12,00,AAXX 03124 41964 02558 61702 10318 20270 30016 40018 82132 333 10334 59004 70000 82825 86080==
41964,2023,07,03,15,00,AAXX 03154 41964 02558 50000 10296 20280 30031 40033 81102 333 58001 70000 81825 84080==
41964,2023,07,03,18,00,AAXX 03184 41964 02558 41802 10288 20280 30030 40032 82202 333 59005 70000 82825 83080==
41964,2023,07,03,21,00,AAXX 03214 41964 02557 60000 10284 20270 30026 40028 84410 333 59007 70000 83620 85460==
41964,2023,07,04,00,00,AAXX 04004 41964 02557 71802 10283 20270 30024 40026 85470 333 59008 70000 83620 83825 85460==
41964,2023,07,04,03,00,AAXX 04034 41964 02558 51503 10320 20260 30031 40033 85430 333 20277 59013 70000 83620 83825==
41964,2023,07,04,06,00,AAXX 04064 41964 02558 51603 10327 20270 30029 40031 83401 333 59011 70000 82620 83080==
41964,2023,07,04,09,00,AAXX 04094 41964 02558 42304 10329 20250 30008 40010 82201 333 59009 70000 82826 83080==
41964,2023,07,04,12,00,AAXX 04124 41964 02458 72102 10316 20270 39997 40000 82532 333 10334 59019 70000 82618 83362 85080==
41964,2023,07,04,15,00,AAXX 04154 41964 41357 81802 10297 20280 30017 40019 70362 8662/ 333 59014 82709 85617 88460==
41964,2023,07,04,18,00,AAXX 04184 41964 01345 81802 10276 20276 30022 40024 76162 8672/ 333 59008 70030 85708 85616 88458==
41964,2023,07,04,21,00,AAXX 04214 41964 01358 80000 10273 20273 30017 40019 70262 8662/ 333 59009 70060 82709 85618 88460==
41964,2023,07,05,00,00,AAXX 05004 41964 11558 51302 10271 20271 30005 40007 60036 70162 82102 333 59019 70060 82825 85080==
41964,2023,07,05,03,00,AAXX 05034 41964 02558 51304 10310 20250 30010 40012 82102 333 20266 59021 70060 82825 83080==
41964,2023,07,05,06,00,AAXX 05064 41964 02558 51306 10323 20270 30009 40011 83402 333 59020 70060 82620 83080==
41964,2023,07,05,09,00,AAXX 05094 41964 02558 61605 10320 20270 30000 40003 83472 333 59008 70060 82620 84460==
41964,2023,07,05,12,00,AAXX 05124 41964 02558 71506 10298 20260 39997 40000 83472 333 10328 58000 70060 82620 84460 85080==
41964,2023,07,05,15,00,AAXX 05154 41964 01358 71807 10286 20270 30024 40026 70262 86610 333 58007 70060 82709 85618 86460==
41964,2023,07,05,18,00,AAXX 05184 41964 01357 81807 10271 20271 30028 40030 71362 8632/ 333 58006 70086 83709 85617 88460 81930==
41964,2023,07,05,21,00,AAXX 05214 41964 02557 71607 10276 20270 30025 40027 85410 333 58008 70056 84620 87460==
41964,2023,07,06,00,00,AAXX 06004 41964 01356 81603 10271 20260 30028 40030 76122 8672/ 333 58023 70020 85708 85616 88458==
41964,2023,07,06,03,00,AAXX 06034 41964 01358 81506 10291 20260 30042 40044 70262 8662/ 333 20263 58032 70076 82709 85617 88460==
41964,2023,07,06,06,00,AAXX 06064 41964 11558 61408 10318 20280 30039 40041 69946 70162 85402 333 58030 70076 84620 83080==
41964,2023,07,06,09,00,AAXX 06094 41964 01558 71508 10300 20270 30032 40034 70362 83470 333 58032 70082 82620 85460==
41964,2023,07,06,12,00,AAXX 06124 41964 11358 81609 10296 20260 30028 40030 69966 70362 8662/ 333 10321 58031 70082 82709 85617 88460==
41964,2023,07,06,15,00,AAXX 06154 41964 02458 61507 10286 20260 30051 40053 85510 333 58027 70082 85618 83460==
41964,2023,07,06,18,00,AAXX 06184 41964 01350 81604 10270 20270 30053 40056 76122 8672/ 333 58025 70030 85708 85616 88458==
41964,2023,07,06,21,00,AAXX 06214 41964 01357 81403 10273 20260 30047 40050 70266 8662/ 333 58022 70116 82709 85616 88459==
41965,2023,06,30,00,00,AAXX 30004 41965 02450 50000 10270 20240 30032 40040 84410 333 58002 70000 82618 84460==
41965,2023,06,30,03,00,AAXX 30034 41965 02450 50000 10300 20220 30040 40048 84410 333 20260 58000 70000 82618 84460==
41965,2023,06,30,06,00,AAXX 30064 41965 NIL=
41965,2023,06,30,09,00,AAXX 30094 41965 02456 50000 10320 20210 30015 40023 84410 333 59005 70000 82618 84460==
41965,2023,06,30,12,00,AAXX 30124 41965 02450 50000 10300 20220 30015 40023 84410 333 10325 59003 70000 82618 84460==
41965,2023,06,30,18,00,AAXX 30184 41965 NIL=
41965,2023,07,01,00,00,AAXX 01004 41965 02450 70000 10270 20240 30030 40038 84610 333 59005 70120 83618 86460==
41965,2023,07,01,03,00,AAXX 01034 41965 02450 70000 10300 20220 30038 40046 84610 333 10258 59005 70120 83618 86460==
41965,2023,07,01,06,00,AAXX 01064 41965 02456 51402 10310 20250 30052 40060 84410 333 58028 70120 82618 84460==
41965,2023,07,01,09,00,AAXX 01094 41965 02450 51302 10315 20250 30026 40034 84410 333 58010 70120 82618 84460==
41965,2023,07,01,12,00,AAXX 01124 41965 02440 50000 10315 20200 30028 40036 84410 333 58009 70120 82618 84460==
41965,2023,07,01,18,00,AAXX 01184 41965 NIL=
41965,2023,07,02,00,00,AAXX 02004 41965 02440 50000 10285 20260 30045 40054 84410 333 58015 70000 82618 84460==
41965,2023,07,02,03,00,AAXX 02034 41965 02450 51402 10310 20266 30052 40060 84410 333 58014 70000 82618 84460==
41965,2023,07,02,06,00,AAXX 02064 41965 02456 51302 10325 20240 30046 40054 84410 333 59006 70000 82618 84460==
41965,2023,07,02,09,00,AAXX 02094 41965 02456 51302 10327 20240 30036 40044 84410 333 58010 70000 82618 84460==
41965,2023,07,02,12,00,AAXX 02124 41965 02450 60000 10330 20250 30030 40038 84610 333 58002 70000 83618 85460==
41965,2023,07,03,00,00,AAXX 03004 41965 NIL=
41965,2023,07,03,03,00,AAXX 03034 41965 02456 51402 10320 20276 30046 40054 84410 333 59006 70000 82618 84460==
41965,2023,07,03,06,00,AAXX 03064 41965 02456 51302 10330 20240 30042 40050 84410 333 59004 70000 82618 84460==
41965,2023,07,03,12,00,AAXX 03124 41965 02950 00000 10300 20220 30010 40018 333 10340 59009 70000==
41965,2023,07,03,18,00,AAXX 03184 41965 NIL=
41965,2023,07,04,03,00,AAXX 04034 41965 02950 00000 10310 20230 30045 40053 333 20275 59008 70000==
41965,2023,07,04,06,00,AAXX 04064 41965 02456 50000 10320 20220 30026 40034 84610 333 59014 70000 82618 84460==
41965,2023,07,04,09,00,AAXX 04094 41965 02456 60000 10330 20230 30018 40026 84610 333 59005 70000 83618 84460==
41965,2023,07,04,12,00,AAXX 04124 41965 02450 50000 10310 20230 30018 40026 84610 333 10338 59004 70000 82618 84460==
41965,2023,07,05,00,00,AAXX 05004 41965 02450 50000 10280 20240 30015 40023 84410 333 59005 70050 82618 84460==
41965,2023,07,05,03,00,AAXX 05034 41965 02450 50000 10300 20220 30030 40038 84410 333 20270 59005 70050 82618 84460==
41965,2023,07,05,06,00,AAXX 05064 41965 02456 71402 10330 20230 30014 40022 84610 333 59016 70050 83618 86460==
41965,2023,07,05,12,00,AAXX 05124 41965 01440 80000 10300 20230 30010 40018 79796 8432/ 333 10340 59015 70080 81710 83618 88460 81928==
41965,2023,07,05,18,00,AAXX 05184 41965 NIL=
41965,2023,07,06,00,00,AAXX 06004 41965 02450 52202 10280 20250 30033 40041 84610 333 58008 70080 83618 84460==
41965,2023,07,06,03,00,AAXX 06034 41965 02450 52202 10300 20240 30040 40048 84610 333 20268 58010 70080 83618 84460==
41965,2023,07,06,06,00,AAXX 06064 41965 02456 51302 10330 20230 30036 40044 333 58012 70080 84610 82618 84460==
41965,2023,07,06,09,00,AAXX 06094 41965 02456 51302 10330 20230 30025 40033 333 58012 70080 84610 82618 84460==
41965,2023,07,06,12,00,AAXX 06124 41965 02450 50000 10300 20220 30025 40033 84610 333 10340 58012 70000 83618 84460==
41966,2023,06,30,00,00,AAXX 30004 41966 NIL=
41966,2023,06,30,03,00,AAXX 30034 41966 01340 80000 10260 20240 39995 40074 76366 8472/ 333 20250 59003 70450 82709 83615 88460==
41966,2023,06,30,06,00,AAXX 30064 41966 21340 80901 10270 20250 39994 40073 76366 8472/ 333 58000 60349 70610 82709 83615 88460==
41966,2023,06,30,09,00,AAXX 30094 41966 01450 50000 10310 20240 39965 40043 70162 82510 333 59019 70628 82616 84460==
41966,2023,06,30,12,00,AAXX 30124 41966 11440 50801 10300 20190 39956 40033 60026 70262 82510 333 10316 59020 70628 82616 84460==
41966,2023,06,30,15,00,AAXX 30154 41966 02430 50000 10292 20230 39959 40037 82510 333 59023 70628 82616 84460==
41966,2023,06,30,18,00,AAXX 30184 41966 NIL=
41966,2023,06,30,21,00,AAXX 30214 41966 02420 50000 10272 20240 39957 40035 82510 333 59013 70503 82616 84460==
41966,2023,07,01,00,00,AAXX 01004 41966 02440 60000 10270 20250 39962 40040 82510 333 59029 70358 82616 85460==
41966,2023,07,01,03,00,AAXX 01034 41966 02450 61301 10320 20180 39990 40068 82510 333 20255 59006 70178 82616 85460==
41966,2023,07,01,06,00,AAXX 01064 41966 02450 61801 10325 20210 39989 40066 82510 333 59007 70018 82616 85460==
41966,2023,07,01,09,00,AAXX 01094 41966 02450 42201 10330 20220 39977 40053 82510 333 58010 70000 82616 85460==
41966,2023,07,01,12,00,AAXX 01124 41966 02440 40000 10300 20210 39965 40043 82510 333 10333 58010 70000 82616 83460==
41966,2023,07,01,15,00,AAXX 01154 41966 02430 40000 10290 20230 39968 40046 82510 333 58009 70000 82616 83460==
41966,2023,07,01,18,00,AAXX 01184 41966 02420 40000 10285 20270 39962 40040 82510 333 58001 70000 82616 83460==
41966,2023,07,01,21,00,AAXX 01214 41966 02420 40000 10275 20260 39957 40035 82510 333 58000 70000 82616 83460==
41966,2023,07,02,00,00,AAXX 02004 41966 02440 40000 10270 20250 39962 40041 82510 333 58001 70000 82616 83460==
41966,2023,07,02,03,00,AAXX 02034 41966 NIL=
41966,2023,07,02,06,00,AAXX 02064 41966 02450 41801 10330 20210 39976 40053 82510 333 59013 70000 82616 83460==
41966,2023,07,02,09,00,AAXX 02094 41966 02450 41801 10348 20190 39967 40043 82510 333 59010 70000 82616 83460==
41966,2023,07,02,12,00,AAXX 02124 41966 02550 42001 10315 20190 39959 40036 82130 333 10355 59007 70000 82826 83362==
41966,2023,07,02,15,00,AAXX 02154 41966 02430 40000 10296 20230 39961 40039 82510 333 59007 70000 82826 83362==
41966,2023,07,02,21,00,AAXX 02214 41966 02/20 30000 10272 20240 39960 40039 83030 333 58004 70000 83362==
41966,2023,07,03,00,00,AAXX 03004 41966 02440 40000 10270 20200 39971 40049 82510 333 58008 70000 82616 83460==
41966,2023,07,03,06,00,AAXX 03064 41966 02450 40401 10338 20210 39976 40053 82510 333 58000 70000 82616 83460==
41966,2023,07,03,09,00,AAXX 03094 41966 02450 42201 10335 20210 39957 40034 82510 333 59009 70000 82616 83460==
41966,2023,07,03,12,00,AAXX 03124 41966 02440 50000 10305 20240 39955 40032 82510 333 10345 59004 70000 82616 84460==
41966,2023,07,03,15,00,AAXX 03154 41966 02430 50000 10286 20240 39958 40036 82510 333 59003 70000 82616 84460==
41966,2023,07,03,18,00,AAXX 03184 41966 NIL=
41966,2023,07,03,21,00,AAXX 03214 41966 02420 40000 10277 20260 39956 40034 82510 333 59005 70000 82616 84460==
41966,2023,07,04,00,00,AAXX 04004 41966 02440 40000 10275 20260 39964 40039 82510 333 59010 70000 82616 83460==
41966,2023,07,04,06,00,AAXX 04064 41966 02450 40000 10330 20210 39967 40044 82510 333 59009 70000 82616 83460==
41966,2023,07,04,09,00,AAXX 04094 41966 02450 40000 10350 20190 39937 40013 82510 333 59021 70000 82616 83460==
41966,2023,07,04,12,00,AAXX 04124 41966 02440 60000 10310 20250 39918 49995 83510 333 10355 59037 70000 83616 85460==
41966,2023,07,04,15,00,AAXX 04154 41966 01420 60000 10286 20270 39947 40025 70262 83510 333 59011 70006 83616 85460==
41966,2023,07,04,21,00,AAXX 04214 41966 02420 40000 10273 20250 39952 40031 82510 333 59003 70036 82616 83460==
41966,2023,07,05,00,00,AAXX 05004 41966 02440 40000 10268 20250 39943 40021 82510 333 59018 70036 82616 83460==
41966,2023,07,05,03,00,AAXX 05034 41966 02450 40000 10298 20240 39950 40027 82510 333 20260 59027 70036 82616 83460==
41966,2023,07,05,06,00,AAXX 05064 41966 02550 40901 10340 20200 39939 40016 82130 333 59028 70036 82826 83362==
41966,2023,07,05,09,00,AAXX 05094 41966 02550 41801 10340 20160 39928 40004 82130 333 59009 70036 82826 83362==
41966,2023,07,05,12,00,AAXX 05124 41966 01440 70000 10285 20250 39929 40006 72122 83510 333 10346 58011 70003 83616 86460==
41966,2023,07,05,15,00,AAXX 05154 41966 01430 70000 10275 20240 39956 40034 70262 83510 333 58009 70043 83616 86460==
41966,2023,07,05,18,00,AAXX 05184 41966 NIL=
41966,2023,07,05,21,00,AAXX 05214 41966 02420 60000 10270 20240 39957 40036 82510 333 58005 70013 82616 85460==
41966,2023,07,06,00,00,AAXX 06004 41966 21440 60000 10260 20240 39963 40042 70262 82510 333 58021 69955 70018 82616 85460==
41966,2023,07,06,03,00,AAXX 06034 41966 02450 40000 10310 20240 39981 40059 82510 333 20250 58032 70018 82616 83362==
41966,2023,07,06,06,00,AAXX 06064 41966 02450 60901 10330 20210 39976 40053 83510 333 58037 70018 83616 85460==
41966,2023,07,06,09,00,AAXX 06094 41966 01450 61801 10330 20260 39971 40047 70262 82510 333 58043 70039 82616 85460==
41966,2023,07,06,12,00,AAXX 06124 41966 11440 71802 10285 20240 39968 40046 60036 70362 83510 333 10335 58040 70041 83616 86460==
41966,2023,07,06,15,00,AAXX 06154 41966 02430 50000 10278 20240 39972 40050 82510 333 58016 70031 82616 84460==
41966,2023,07,06,21,00,AAXX 06214 41966 02420 40000 10260 20240 39969 40048 82510 333 58012 70031 82616 83460==
41977,2023,06,30,00,00,AAXX 30004 41977 NIL=
41977,2023,06,30,03,00,AAXX 30034 41977 01356 81303 10278 20270 30049 40086 70296 8562/ 333 20260 59017 70426 82709 85616 88458==
41977,2023,06,30,06,00,AAXX 30064 41977 21350 81802 10298 20290 30061 40099 76162 8662/ 333 59008 60067 70488 82710 85616 88458==
41977,2023,06,30,09,00,AAXX 30094 41977 02456 41805 10328 20270 30042 40079 83520 333 59003 70488 82618 84460==
41977,2023,06,30,12,00,AAXX 30124 41977 02456 31804 10300 20270 30031 40069 82520 333 10328 58007 70488 82618 83462==
41977,2023,06,30,15,00,AAXX 30154 41977 02456 32203 10290 20280 30035 40073 82520 333 59009 70488 82618 83460==
41977,2023,06,30,18,00,AAXX 30184 41977 02456 31502 10285 20280 30025 40063 82530 333 59027 70378 81618 83362==
41977,2023,06,30,21,00,AAXX 30214 41977 02450 51302 10280 20270 30028 40065 82530 333 59016 70218 82618 85362==
41977,2023,07,01,00,00,AAXX 01004 41977 02450 51302 10278 20280 30030 40067 82530 333 59004 70068 82618 85362==
41977,2023,07,01,03,00,AAXX 01034 41977 02456 61802 10310 20270 30042 40079 83570 333 20275 59007 70062 83618 84362==
41977,2023,07,01,06,00,AAXX 01064 41977 02356 81804 10312 20270 30047 40084 8562/ 333 59014 70000 82710 85617 88458==
41977,2023,07,01,09,00,AAXX 01094 41977 02456 72303 10318 20270 30022 40059 83570 333 59019 70000 83617 87361==
41977,2023,07,01,12,00,AAXX 01124 41977 02456 52302 10312 20270 30020 40057 83530 333 20270 59011 70000 83618 84362==
41977,2023,07,01,15,00,AAXX 01154 41977 02456 50000 10296 20280 30038 40076 83590 333 59003 70000 83615 84362==
41977,2023,07,01,18,00,AAXX 01184 41977 02356 71802 10290 20280 30032 40070 84630 333 58007 70000 81710 84616 87363==
41977,2023,07,01,21,00,AAXX 01214 41977 02450 71302 10285 20280 30030 40067 83571 333 58002 70000 83618 83362 85080==
41977,2023,07,02,00,00,AAXX 02004 41977 02450 71302 10280 20270 30024 40061 82531 333 59006 70000 82618 83362 85080==
41977,2023,07,02,03,00,AAXX 02034 41977 02456 71802 10315 20270 30038 40075 84570 333 20275 59004 70000 84618 85460==
41977,2023,07,02,06,00,AAXX 02064 41977 02456 52004 10335 20260 30036 40074 83520 333 59010 70000 82618 85460==
41977,2023,07,02,09,00,AAXX 02094 41977 02456 42703 10340 20260 30014 40051 83520 333 59008 70000 82618 83462==
41977,2023,07,02,12,00,AAXX 02124 41977 02456 51804 10310 20270 30016 40054 83520 333 10340 59004 70000 83618 84462==
41977,2023,07,02,15,00,AAXX 02154 41977 02456 52204 10304 20270 30024 40062 83520 333 59011 70000 83618 84460==
41977,2023,07,02,18,00,AAXX 02184 41977 02456 72302 10290 20280 30021 40059 84620 333 59011 70000 81710 84616 87361==
41977,2023,07,02,21,00,AAXX 02214 41977 02450 72302 10285 20280 30023 40060 84570 333 59007 70000 84618 85460==
41977,2023,07,03,00,00,AAXX 03004 41977 02450 71302 10280 20260 30026 40063 84570 333 58002 70000 84616 85460==
41977,2023,07,03,03,00,AAXX 03034 41977 02456 71302 10310 20260 30035 40072 84570 333 20278 59003 70000 84616 85460==
41977,2023,07,03,06,00,AAXX 03064 41977 02456 62404 10333 20260 30036 40074 84570 333 58000 70000 84616 86460==
41977,2023,07,03,09,00,AAXX 03094 41977 02456 61604 10335 20260 30031 40068 83520 333 58017 70000 83616 84460==
41977,2023,07,03,12,00,AAXX 03124 41977 02456 72005 10311 20260 30029 40067 86620 333 10341 58013 70000 82714 84616 87460==
41977,2023,07,03,15,00,AAXX 03154 41977 02456 70000 10300 20270 30020 40057 86620 333 59002 70000 82714 84616 86460==
41977,2023,07,03,18,00,AAXX 03184 41977 02456 70000 10290 20280 30016 40053 86620 333 59005 70000 82714 84616 86460==
41977,2023,07,03,21,00,AAXX 03214 41977 02450 70000 10285 20270 30015 40052 84570 333 59008 70000 84616 85460==
41977,2023,07,04,00,00,AAXX 04004 41977 02450 70000 10280 20260 30014 40052 84570 333 59012 70000 84616 85460==
41977,2023,07,04,03,00,AAXX 04034 41977 02456 51302 10315 20270 30029 40066 82531 333 20275 59006 70000 82618 83362==
41977,2023,07,04,06,00,AAXX 04064 41977 02456 71603 10320 20270 30029 40065 84570 333 59007 70000 84618 85460==
41977,2023,07,04,09,00,AAXX 04094 41977 02456 42503 10328 20270 30012 40049 82520 333 59019 70000 82618 83462==
41977,2023,07,04,12,00,AAXX 04124 41977 02356 72404 10310 20260 39995 40033 85620 333 10334 59034 70000 82714 84616 86460==
41977,2023,07,04,21,00,AAXX 04214 41977 01450 70000 10267 20267 30000 40038 70162 83570 333 59015 70100 83618 85460==
41977,2023,07,05,00,00,AAXX 05004 41977 21450 70000 10268 20260 39994 40032 70262 82531 333 59020 60028 70100 82618 85362==
41977,2023,07,05,03,00,AAXX 05034 41977 02456 50000 10320 20260 30004 40041 82531 333 20265 59025 70100 82618 83362==
41977,2023,07,05,06,00,AAXX 05064 41977 02456 61405 10325 20260 30018 40056 84530 333 59011 70100 84618 85360==
41977,2023,07,05,09,00,AAXX 05094 41977 02456 81806 10341 20260 39984 40021 8662/ 333 59029 70100 82710 85614 88458==
41977,2023,07,05,12,00,AAXX 05124 41977 11350 81806 10281 20260 30005 40043 60041 72162 8632/ 333 10341 58010 70140 82709 84614 88458==
41977,2023,07,05,18,00,AAXX 05184 41977 21356 80000 10265 20260 30018 40055 76162 8632/ 333 58006 60027 70080 82709 84614 88458 81930==
41977,2023,07,05,21,00,AAXX 05214 41977 02350 80000 10267 20260 30017 40054 56026 8632/ 333 58017 70060 82710 84615 88460 81930==
41977,2023,07,06,00,00,AAXX 06004 41977 02350 80000 10270 20250 30016 40053 8632/ 333 58002 70060 82710 84615 88460 81930==
41977,2023,07,06,03,00,AAXX 06034 41977 02456 71302 10300 20260 30036 40073 84520 333 20260 58032 70060 84616 86460==
41977,2023,07,06,06,00,AAXX 06064 41977 02456 71406 10320 20270 30032 40070 84520 333 58014 70060 84616 86460==
41977,2023,07,06,09,00,AAXX 06094 41977 01456 71606 10288 20260 30038 40076 70262 84570 333 58055 70090 83616 85460==
41977,2023,07,06,12,00,AAXX 06124 41977 11456 71805 10286 20260 30026 40063 60036 70262 85610 333 10340 58020 70050 82710 84615 87460==
41977,2023,07,06,18,00,AAXX 06184 41977 02456 70000 10275 20260 30044 40081 84570 333 58026 70030 84616 86460==
41977,2023,07,06,21,00,AAXX 06214 41977 02450 71302 10273 20240 30039 40077 84520 333 58022 70030 84616 86460==
41978,2023,06,30,00,00,AAXX 30004 41978 21335 81911 10273 20270 30051 40057 79566 8432/ 333 59009 61319 71318 84708 88458 81928==
41978,2023,06,30,03,00,AAXX 30034 41978 01450 81613 10284 20270 30064 40070 70299 8432/ 333 20260 59007 71389 83615 88459 81929==
41978,2023,06,30,06,00,AAXX 30064 41978 11450 81910 10302 20280 30064 40070 60016 72996 8432/ 333 59005 71389 83616 88459 81929==
41978,2023,06,30,09,00,AAXX 30094 41978 02456 42010 10324 20290 30034 40041 82530 333 59013 71389 82618 83360==
41978,2023,06,30,12,00,AAXX 30124 41978 02456 42008 10310 20290 30029 40035 82530 333 10328 59014 71389 82618 84360==
41978,2023,06,30,15,00,AAXX 30154 41978 01456 42005 10292 20280 30049 40056 71321 82330 333 59005 71389 82618 83360 81930==
41978,2023,06,30,18,00,AAXX 30184 41978 02456 41806 10282 20270 30035 40042 82530 333 59023 71321 82618 84360==
41978,2023,06,30,21,00,AAXX 30214 41978 02456 61406 10280 20270 30032 40039 83530 333 59022 70524 83618 85360==
41978,2023,07,01,00,00,AAXX 01004 41978 02456 61004 10278 20270 30039 40045 83530 333 59012 70011 83618 85360==
41978,2023,07,01,03,00,AAXX 01034 41978 02456 61807 10308 20280 30059 40065 83530 333 20274 59005 70000 83618 85362==
41978,2023,07,01,06,00,AAXX 01064 41978 02456 72009 10316 20300 30066 40072 84320 333 58002 70000 83617 87460 81930==
41978,2023,07,01,09,00,AAXX 01094 41978 02456 62010 10322 20290 30037 40043 83530 333 58003 70000 83618 86360==
41978,2023,07,01,12,00,AAXX 01124 41978 02456 62008 10310 20290 30034 40040 83530 333 10332 58005 70000 83618 85360==
41978,2023,07,01,15,00,AAXX 01154 41978 02450 61706 10298 20280 30050 40056 83530 333 59006 70000 83618 85360==
41978,2023,07,01,18,00,AAXX 01184 41978 02450 71708 10286 20270 30049 40056 84320 333 58015 70000 83618 87460 81930==
41978,2023,07,01,21,00,AAXX 01214 41978 02450 60000 10280 20270 30034 40041 83530 333 58002 70000 83618 86360==
41978,2023,07,02,00,00,AAXX 02004 41978 02450 61504 10274 20270 30040 40047 83530 333 58001 70000 83618 86360==
41978,2023,07,02,03,00,AAXX 02034 41978 02456 61805 10318 20280 30054 40060 83530 333 20274 59005 70000 83618 86360==
41978,2023,07,02,06,00,AAXX 02064 41978 02456 61909 10330 20280 30044 40050 83530 333 59022 70000 83618 86360==
41978,2023,07,02,09,00,AAXX 02094 41978 02/56 42314 10328 20290 30024 40030 82021 333 59013 70000 82460 84080==
41978,2023,07,02,12,00,AAXX 02124 41978 02556 52312 10317 20300 30028 40034 82101 333 10340 59006 70000 82827 84080==
41978,2023,07,02,15,00,AAXX 02154 41978 02456 42008 10300 20290 30042 40048 81501 333 59008 70000 81618 83080==
41978,2023,07,02,18,00,AAXX 02184 41978 02456 41304 10292 20280 30038 40044 82501 333 59005 70000 82618 83080==
41978,2023,07,02,21,00,AAXX 02214 41978 02456 41604 10284 20270 30039 40045 82501 333 58005 70000 82618 83080==
41978,2023,07,03,00,00,AAXX 03004 41978 02456 61909 10280 20270 30044 40050 83530 333 58004 70000 83617 85362==
41978,2023,07,03,03,00,AAXX 03034 41978 02556 61808 10320 20290 30054 40060 83430 333 20275 58000 70000 83820 86360==
41978,2023,07,03,06,00,AAXX 03064 41978 02556 62209 10334 20280 30045 40051 83430 333 58001 70000 83820 86360==
41978,2023,07,03,09,00,AAXX 03094 41978 02456 52107 10337 20300 30020 40026 83410 333 59004 70000 83618 85460==
41978,2023,07,03,12,00,AAXX 03124 41978 02456 62005 10315 20290 30023 40029 83410 333 10340 59005 70000 83618 86460==
41978,2023,07,03,15,00,AAXX 03154 41978 02450 61706 10300 20280 30040 40046 83410 333 59002 70000 83618 86460==
41978,2023,07,03,18,00,AAXX 03184 41978 02450 60000 10293 20270 30038 40045 83530 333 58000 70000 83618 86360==
41978,2023,07,03,21,00,AAXX 03214 41978 02450 60000 10280 20270 30029 40036 83530 333 59010 70000 83618 86360==
41978,2023,07,04,00,00,AAXX 04004 41978 02450 60000 10277 20270 30033 40040 83530 333 59011 70000 83618 86360==
41978,2023,07,04,03,00,AAXX 04034 41978 02456 62106 10313 20270 30037 40044 83530 333 20273 59017 70000 83618 86360==
41978,2023,07,04,06,00,AAXX 04064 41978 02456 62410 10318 20280 30034 40040 83530 333 59011 70000 83618 86360==
41978,2023,07,04,09,00,AAXX 04094 41978 02456 52513 10328 20290 30007 40013 83410 333 59013 70000 82618 85460==
41978,2023,07,04,12,00,AAXX 04124 41978 02450 62410 10316 20290 30002 40009 84310 333 10337 59021 70000 83618 86460 81930==
41978,2023,07,04,15,00,AAXX 04154 41978 01340 82206 10290 20280 30025 40031 76122 8432/ 333 59015 70020 83708 88458 81928==
41978,2023,07,04,18,00,AAXX 04184 41978 21340 81604 10268 20268 30027 40034 76196 8432/ 333 59011 60117 70110 83708 88458 81928==
41978,2023,07,04,21,00,AAXX 04214 41978 01450 61205 10270 20270 30016 40023 70162 83530 333 59013 70160 83616 86360==
41978,2023,07,05,00,00,AAXX 05004 41978 11456 61005 10270 20270 30010 40017 60056 70262 83530 333 59023 70160 83618 86360==
41978,2023,07,05,03,00,AAXX 05034 41978 02456 61008 10309 20270 30020 40026 83530 333 20264 59017 70160 83618 86360==
41978,2023,07,05,06,00,AAXX 05064 41978 02456 61012 10327 20280 30013 40019 83530 333 59021 70160 83618 86360==
41978,2023,07,05,09,00,AAXX 05094 41978 02456 61010 10334 20280 39999 40005 83530 333 59008 70160 83618 86360==
41978,2023,07,05,12,00,AAXX 05124 41978 02450 71012 10305 20280 30001 40007 84310 333 10342 59001 70160 83616 86460 81930==
41978,2023,07,05,15,00,AAXX 05154 41978 02450 61011 10281 20270 30033 40039 84310 333 58008 70140 83618 86460 81930==
41978,2023,07,05,18,00,AAXX 05184 41978 11445 81008 10264 20260 30036 40042 60022 72162 8432/ 333 58009 70066 83616 88460 81928==
41978,2023,07,05,21,00,AAXX 05214 41978 02445 81009 10268 20260 30032 40039 8432/ 333 58016 70016 83618 88460 81930==
41978,2023,07,06,00,00,AAXX 06004 41978 02440 81005 10274 20260 30038 40044 8432/ 333 58028 70016 83618 88460 81930==
41978,2023,07,06,03,00,AAXX 06034 41978 02450 71008 10302 20270 30050 40056 84320 333 20262 58030 70016 83618 86360 81930==
41978,2023,07,06,06,00,AAXX 06064 41978 02456 71012 10323 20270 30047 40053 84320 333 58034 70016 83618 86460 81930==
41978,2023,07,06,09,00,AAXX 06094 41978 01456 62311 10287 20260 30035 40041 72162 84330 333 58036 70078 83617 85362 81930==
41978,2023,07,06,12,00,AAXX 06124 41978 21456 61912 10291 20250 30036 40042 70262 84330 333 10334 58035 60068 70078 83617 85362 81930==
41978,2023,07,06,15,00,AAXX 06154 41978 02450 61711 10277 20250 30060 40066 83530 333 58027 70078 83617 85362==
41978,2023,07,06,18,00,AAXX 06184 41978 02450 71908 10270 20250 30061 40067 84330 333 58025 70062 83617 86360 81930==
41978,2023,07,06,21,00,AAXX 06214 41978 32450 52703 10262 20240 30050 40056 83520 333 56990 58010 70000 82617 84460=
41980,2023,06,30,00,00,AAXX 30004 41980 32440 80000 10277 20240 39951 40063 8562/ 333 56999 59009 70000 82710 84615 88458=
41980,2023,06,30,06,00,AAXX 30064 41980 NIL=
41980,2023,06,30,12,00,AAXX 30124 41980 32956 02202 10312 20230 39925 40034 333 10340 59017 70006=
41980,2023,06,30,18,00,AAXX 30184 41980 NIL=
41980,2023,07,01,00,00,AAXX 01004 41980 32450 60000 10278 20260 39954 40065 86030 333 56090 58003 70006 86362=
41980,2023,07,01,06,00,AAXX 01064 41980 NIL=
41980,2023,07,01,12,00,AAXX 01124 41980 32950 40000 10308 20250 39932 40042 84030 333 10332 56090 58007 70000 84362=
41980,2023,07,01,18,00,AAXX 01184 41980 NIL=
41980,2023,07,02,00,00,AAXX 02004 41980 32450 61802 10274 20250 39945 40056 83530 333 56990 59014 70000 83618 86362=
41980,2023,07,02,03,00,AAXX 02034 41980 32950 31802 10309 20260 39955 40065 83030 333 20260 58004 70000 83362=
41980,2023,07,02,06,00,AAXX 02064 41980 NIL=
41980,2023,07,02,12,00,AAXX 02124 41980 32456 71802 10302 20240 39931 40041 84520 333 10345 56990 59001 70000 84616 87459=
41980,2023,07,03,00,00,AAXX 03004 41980 32450 51302 10266 20260 39944 40055 83530 333 56990 59001 70000 83616 85352=
41980,2023,07,03,06,00,AAXX 03064 41980 NIL=
41980,2023,07,03,12,00,AAXX 03124 41980 11450 70000 10281 20260 39924 40034 60418 70196 83520 333 10345 56990 59007 70410 83616 87459=
41980,2023,07,03,18,00,AAXX 03184 41980 NIL=
41980,2023,07,04,00,00,AAXX 04004 41980 32450 50000 10262 20250 39934 40046 83520 333 56990 59010 70410 83616 85459=
41980,2023,07,04,06,00,AAXX 04064 41980 NIL=
41980,2023,07,04,12,00,AAXX 04124 41980 11450 81802 10280 20270 39899 40009 60134 72996 8452/ 333 10340 56999 59025 70130 84616 88459=
41980,2023,07,05,00,00,AAXX 05004 41980 11950 21302 10268 20250 39913 40024 60786 70196 82500 333 56900 59021 70910 82618=
41980,2023,07,05,06,00,AAXX 05064 41980 NIL=
41980,2023,07,05,12,00,AAXX 05124 41980 11450 71802 10295 20250 39902 40012 60015 70362 84520 333 10330 56990 58002 70790 84616 87459=
41980,2023,07,05,18,00,AAXX 05184 41980 NIL=
41980,2023,07,06,00,00,AAXX 06004 41980 32450 60000 10264 20250 39942 40054 83520 333 56990 58029 70020 83616 86459=
41980,2023,07,06,06,00,AAXX 06064 41980 NIL=
41980,2023,07,06,09,00,AAXX 06094 41980 21450 61802 10278 20250 39944 40055 72162 83520 333 56990 59046 6002/ 70030 83616 86459=
41980,2023,07,06,12,00,AAXX 06124 41980 11450 61702 10278 20240 39940 40051 60028 70262 83520 333 10320 56490 58038 70030 83616 86459=
41984,2023,06,30,00,00,AAXX 30004 41984 02456 80000 10281 20280 30031 40033 8452/ 333 59007 70505 84618 88457==
41984,2023,06,30,06,00,AAXX 30064 41984 02457 82304 10327 20280 30043 40045 8352/ 333 59006 70505 83618 88458==
41984,2023,06,30,09,00,AAXX 30094 41984 02457 82303 10322 20280 30026 40028 8352/ 333 59021 70285 83618 88458==
41984,2023,06,30,12,00,AAXX 30124 41984 02457 62302 10307 20280 30007 40009 83570 333 10337 59025 70005 83618 85458==
41984,2023,06,30,15,00,AAXX 30154 41984 02440 50000 10295 20290 30026 40028 83510 333 59010 70000 83618 85458==
41984,2023,06,30,18,00,AAXX 30184 41984 02440 50000 10295 20290 30031 40033 82510 333 59008 70000 82618 85458==
41984,2023,06,30,21,00,AAXX 30214 41984 02440 80000 10288 20280 30026 40028 8352/ 333 59010 70000 85318 88458==
41984,2023,07,01,00,00,AAXX 01004 41984 02456 80000 10282 20280 30021 40023 8352/ 333 59010 70000 83618 88458==
41984,2023,07,01,03,00,AAXX 01034 41984 02457 80000 10320 20270 30043 40045 8352/ 333 20281 59003 70000 83618 88458==
41984,2023,07,01,06,00,AAXX 01064 41984 01457 82302 10320 20290 30042 40044 70262 8352/ 333 59001 70070 83618 88458==
41984,2023,07,01,09,00,AAXX 01094 41984 02457 52302 10332 20280 30023 40025 83510 333 59003 70070 83618 85458==
41984,2023,07,01,12,00,AAXX 01124 41984 02457 50000 10308 20280 30016 40018 83510 333 10340 58009 70070 83618 85458==
41984,2023,07,01,15,00,AAXX 01154 41984 02440 50000 10295 20290 30026 40028 83510 333 58000 70070 83618 85458==
41984,2023,07,01,18,00,AAXX 01184 41984 02440 50000 10294 20280 30034 40036 83510 333 58003 70070 83618 85458==
41984,2023,07,01,21,00,AAXX 01214 41984 02440 80000 10292 20280 30029 40031 8352/ 333 58003 70070 83618 88458==
41984,2023,07,02,00,00,AAXX 02004 41984 02456 80000 10290 20280 30024 40026 8352/ 333 58003 70070 83618 88458==
41984,2023,07,02,03,00,AAXX 02034 41984 02457 80000 10329 20280 30034 40036 8352/ 333 20282 59009 70070 83618 88458==
41984,2023,07,02,06,00,AAXX 02064 41984 02457 62303 10335 20280 30030 40032 83570 333 59012 70000 83618 85458==
41984,2023,07,02,09,00,AAXX 02094 41984 02457 81802 10318 20280 30012 40014 8352/ 333 59011 70000 83618 88458==
41984,2023,07,02,12,00,AAXX 02124 41984 02457 52302 10308 20280 30013 40015 83510 333 10344 59003 70000 83618 85458==
41984,2023,07,02,15,00,AAXX 02154 41984 02440 20000 10297 20290 30023 40025 82500 333 59003 70000 82618==
41984,2023,07,02,18,00,AAXX 02184 41984 02440 20000 10296 20290 30024 40026 82500 333 59010 70000 82618==
41984,2023,07,02,21,00,AAXX 02214 41984 02440 20000 10293 20280 30024 40026 82500 333 59005 70000 82618==
41984,2023,07,03,00,00,AAXX 03004 41984 02456 20000 10290 20280 30023 40025 82500 333 59001 70000 82618==
41984,2023,07,03,03,00,AAXX 03034 41984 02457 52302 10330 20280 30033 40035 83510 333 20284 59001 70000 83618 85458==
41984,2023,07,03,06,00,AAXX 03064 41984 02457 50000 10340 20280 30033 40035 83510 333 58003 70000 83618 85458==
41984,2023,07,03,09,00,AAXX 03094 41984 02457 52302 10322 20280 30007 40009 83510 333 59005 70000 83618 85458==
41984,2023,07,03,12,00,AAXX 03124 41984 02457 50000 10313 20270 30008 40010 83510 333 10348 59005 70000 83618 85458==
41984,2023,07,03,15,00,AAXX 03154 41984 02440 50000 10296 20280 30015 40017 83530 333 59008 70000 83618 83362==
41984,2023,07,03,18,00,AAXX 03184 41984 02440 50000 10290 20280 30024 40026 82530 333 58000 70000 82618 83362==
41984,2023,07,03,21,00,AAXX 03214 41984 02440 50000 10287 20280 30021 40023 82530 333 59003 70000 83362==
41984,2023,07,04,00,00,AAXX 04004 41984 02456 50000 10285 20270 30011 40013 82530 333 59012 70000 82618 83362==
41984,2023,07,04,03,00,AAXX 04034 41984 02457 50000 10331 20270 30016 40018 82530 333 20271 59016 70000 82618 83362==
41984,2023,07,04,06,00,AAXX 04064 41984 02457 50000 10330 20270 30021 40023 83510 333 59012 70000 83618 85458==
41984,2023,07,04,09,00,AAXX 04094 41984 02457 21302 10332 20280 39997 49999 82500 333 59010 70000 82618==
41984,2023,07,04,12,00,AAXX 04124 41984 02457 20000 10308 20270 39993 49995 82500 333 10341 59015 70000 82618==
41984,2023,07,04,15,00,AAXX 04154 41984 02440 20000 10292 20270 30006 40008 82500 333 59009 70000 82618==
41984,2023,07,04,18,00,AAXX 04184 41984 02440 20000 10290 20280 30011 40013 82500 333 59013 70000 82618==
41984,2023,07,04,21,00,AAXX 04214 41984 02440 20000 10280 20280 30006 40008 82500 333 59015 70000 82618==
41984,2023,07,05,00,00,AAXX 05004 41984 02456 80000 10275 20270 39991 49993 8352/ 333 59020 70000 83618 88458==
41984,2023,07,05,03,00,AAXX 05034 41984 01457 50000 10304 20280 39995 49998 72122 83510 333 20273 59021 70080 83618 85458==
41984,2023,07,05,06,00,AAXX 05064 41984 21457 51402 10324 20270 39994 49996 70262 83510 333 59027 60085 70080 83618 85458==
41984,2023,07,05,09,00,AAXX 05094 41984 01457 51302 10290 20270 39984 49986 72162 83510 333 59013 70100 83618 85458==
41984,2023,07,05,12,00,AAXX 05124 41984 01456 81303 10287 20280 39980 49983 72162 8352/ 333 10331 59013 70110 83618 88458==
41984,2023,07,05,15,00,AAXX 05154 41984 02440 51802 10292 20270 39996 49998 83510 333 59010 70110 83618 85458==
41984,2023,07,05,18,00,AAXX 05184 41984 02440 52302 10290 20280 30003 40005 83510 333 59008 70110 83618 85458==
41984,2023,07,05,21,00,AAXX 05214 41984 02440 80000 10290 20280 30008 40010 8352/ 333 58002 70110 83618 88458==
41984,2023,07,06,00,00,AAXX 06004 41984 21456 80000 10289 20270 30011 40013 70262 8352/ 333 58020 60037 70140 83618 88458==
41984,2023,07,06,03,00,AAXX 06034 41984 01456 82303 10300 20280 30020 40022 70262 8352/ 333 20275 58025 70100 83618 88458==
41984,2023,07,06,06,00,AAXX 06064 41984 01457 81304 10302 20280 30017 40019 70262 8352/ 333 58023 70210 83618 88458==
41984,2023,07,06,09,00,AAXX 06094 41984 01457 81303 10294 20270 30014 40016 70262 8352/ 333 58030 70340 83618 88458==
41984,2023,07,06,12,00,AAXX 06124 41984 11456 81802 10293 20270 30011 40013 60156 70262 8352/ 333 10321 58031 70330 83618 88458==
41984,2023,07,06,15,00,AAXX 06154 41984 02440 82302 10295 20280 30031 40033 8352/ 333 58035 70330 83618 88458==
41984,2023,07,06,18,00,AAXX 06184 41984 02440 52303 10294 20270 30030 40032 83510 333 58037 70330 83618 85458==
41984,2023,07,06,21,00,AAXX 06214 41984 02440 50000 10290 20270 30032 40034 83510 333 58024 70330 83618 85458==
41989,2023,06,30,00,00,AAXX 30004 41989 NIL=
41989,2023,06,30,03,00,AAXX 30034 41989 02456 51803 10318 20280 30063 40066 83570 333 20260 59009 70000 83618 83362==
41989,2023,06,30,06,00,AAXX 30064 41989 02456 61404 10318 20270 30059 40062 83570 333 59004 70000 83618 84362==
41989,2023,06,30,09,00,AAXX 30094 41989 02456 31305 10333 20260 30041 40044 82530 333 58000 70000 82618 83362==
41989,2023,06,30,12,00,AAXX 30124 41989 02456 21805 10313 20260 30030 40033 82500 333 10335 59002 70000 82618==
41989,2023,06,30,15,00,AAXX 30154 41989 02450 11803 10296 20260 30062 40065 81500 333 58001 70000 81618==
41989,2023,06,30,18,00,AAXX 30184 41989 02450 41302 10288 20270 30049 40052 82530 333 59018 70000 82618 84362==
41989,2023,07,01,03,00,AAXX 01034 41989 02456 41704 10313 30064 40067 82530 333 20265 59016 70000 82618 84362==
41989,2023,07,01,06,00,AAXX 01064 41989 02456 51305 10323 20260 30052 40055 82570 333 59007 70000 82618 83362==
41989,2023,07,01,09,00,AAXX 01094 41989 02456 21405 10327 20270 30038 40041 82500 333 59003 70000 82618==
41989,2023,07,01,12,00,AAXX 01124 41989 02456 31804 10312 20260 30030 40033 82530 333 10330 58000 70000 82618 83362==
41989,2023,07,01,15,00,AAXX 01154 41989 02450 41302 10294 20260 30042 40045 82530 333 59005 70000 82618 84362==
41989,2023,07,01,18,00,AAXX 01184 41989 NIL=
41989,2023,07,01,21,00,AAXX 01214 41989 02450 51402 10285 20270 30047 40050 83570 333 58002 70000 82618 83362==
41989,2023,07,02,00,00,AAXX 02004 41989 21450 51802 10277 20260 30043 40047 70262 83530 333 59002 60015 70010 83618 84362==
41989,2023,07,02,03,00,AAXX 02034 41989 NIL=
41989,2023,07,02,06,00,AAXX 02064 41989 NIL=
41989,2023,07,02,12,00,AAXX 02124 41989 02450 21303 10314 20260 30009 40012 82500 333 10340 59021 70010 82618==
41989,2023,07,02,15,00,AAXX 02154 41989 02450 31303 10296 20280 30041 40044 82530 333 58006 70010 82618 83362==
41989,2023,07,02,18,00,AAXX 02184 41989 02450 41803 10288 20260 30054 40057 82570 333 58009 70010 82618 83362==
41989,2023,07,02,21,00,AAXX 02214 41989 02450 41302 10285 20270 30049 40052 83530 333 58002 70010 83618==
41989,2023,07,03,00,00,AAXX 03004 41989 02440 61302 10283 20260 30041 40045 83570 333 59002 70000 83618 83460==
41989,2023,07,03,06,00,AAXX 03064 41989 NIL=
41989,2023,07,03,12,00,AAXX 03124 41989 02456 61302 10305 20270 30010 40013 83570 333 10335 58001 70000 83618 84460==
41989,2023,07,03,15,00,AAXX 03154 41989 02450 51802 10294 20260 30035 40038 82570 333 59006 70000 82618 83362==
41989,2023,07,03,18,00,AAXX 03184 41989 02450 31402 10290 20270 30047 40050 82530 333 59007 70000 82618 83362==
41989,2023,07,03,21,00,AAXX 03214 41989 02450 31302 10284 20260 30043 40046 83500 333 59006 70000 83618==
41989,2023,07,04,00,00,AAXX 04004 41989 02450 21802 10277 20260 30036 40040 82500 333 59005 70000 82671==
41989,2023,07,04,06,00,AAXX 04064 41989 NIL=
41989,2023,07,04,12,00,AAXX 04124 41989 NIL=
41989,2023,07,04,21,00,AAXX 04214 41989 02450 41402 10275 20260 30030 40034 82530 333 59013 70090 82618 84362==
41989,2023,07,05,00,00,AAXX 05004 41989 02440 51802 10269 20260 30025 40028 82570 333 59011 70090 82618 83460==
41989,2023,07,05,03,00,AAXX 05034 41989 02450 41303 10306 20260 30031 40054 82530 333 20255 59012 70090 82618 84362==
41989,2023,07,05,06,00,AAXX 05064 41989 02450 41804 10320 20260 30027 40030 82530 333 59007 70090 82618 83362==
41989,2023,07,05,09,00,AAXX 05094 41989 01456 51305 10312 20270 39993 49996 72121 83570 333 59016 70080 82618 83362==
41989,2023,07,05,12,00,AAXX 05124 41989 21456 61806 10305 20270 39986 49989 70362 83570 333 10335 59014 60025 70080 83618 84460==
41989,2023,07,05,18,00,AAXX 05184 41989 NIL=
41989,2023,07,06,03,00,AAXX 06034 41989 02450 51802 10280 20270 30040 40043 83530 333 20247 58009 70210 83618 83362==
41989,2023,07,06,06,00,AAXX 06064 41989 02456 51306 10325 20270 30045 40049 82570 333 58018 70210 82618 83362==
41989,2023,07,06,09,00,AAXX 06094 41989 02450 51404 10290 20270 30044 40047 82570 333 58015 70230 82618 83362==
41989,2023,07,06,12,00,AAXX 06124 41989 11440 31305 10280 20250 30040 40044 60046 70362 83570 333 10328 58054 70230 83616 84362==
41989,2023,07,06,15,00,AAXX 06154 41989 02450 51405 10276 20260 30055 40058 82570 333 59021 70130 82618 83362==
41989,2023,07,06,18,00,AAXX 06184 41989 02450 51807 10275 20260 30065 40068 83570 333 58018 70090 83618 83362==
41992,2023,06,30,00,00,AAXX 30004 41992 01425 40000 10280 20260 30063 40065 70511 84500 333 59013 70000 84616==
41992,2023,06,30,03,00,AAXX 30034 41992 01/30 21506 10310 20270 30075 40077 70510 82030 333 20275 59007 70000 82362==
41992,2023,06,30,06,00,AAXX 30064 41992 01430 61507 10325 20270 30074 40076 70521 84530 333 59005 70000 84616 86362==
41992,2023,06,30,09,00,AAXX 30094 41992 01435 31509 10317 20270 30041 40043 70522 82530 333 59012 70000 82616 83362==
41992,2023,06,30,12,00,AAXX 30124 41992 01530 20000 10300 20270 30030 40032 70521 82100 333 10332 59018 70000 82825==
41992,2023,06,30,15,00,AAXX 30154 41992 01925 01502 10290 20270 30056 40058 70510 333 59007 70000==
41992,2023,06,30,18,00,AAXX 30184 41992 01925 01502 10288 20270 30063 40065 70500 333 59002 70000==
41992,2023,06,30,21,00,AAXX 30214 41992 01925 01502 10282 20260 30056 40058 70500 333 59004 70000==
41992,2023,07,01,00,00,AAXX 01004 41992 01925 00000 10275 20270 30048 40050 70500 333 59015 70000==
41992,2023,07,01,03,00,AAXX 01034 41992 01935 00000 10310 20260 30068 40070 70500 333 20273 59007 70000==
41992,2023,07,01,06,00,AAXX 01064 41992 01435 61805 10330 20270 30068 40070 70520 82530 333 59006 70000 82616 86362==
41992,2023,07,01,09,00,AAXX 01094 41992 01440 41506 10332 20270 30046 40048 70510 82501 333 58005 70000 82616 84080==
41992,2023,07,01,12,00,AAXX 01124 41992 01430 41505 10310 20260 30032 40034 70521 82501 333 10336 58002 70000 82616 84080==
41992,2023,07,01,15,00,AAXX 01154 41992 01420 61502 10295 20270 30056 40058 70522 84530 333 58000 70000 84616 86362==
41992,2023,07,01,18,00,AAXX 01184 41992 01420 61502 10290 20260 30060 40062 70522 84530 333 59003 70000 84616 86362==
41992,2023,07,01,21,00,AAXX 01214 41992 01420 71502 10285 20270 30056 40058 70522 84530 333 58000 70000 84615 86360==
41992,2023,07,02,00,00,AAXX 02004 41992 21420 81502 10262 20260 30046 40048 75162 8452/ 333 59002 60119 70110 84615 88458==
41992,2023,07,02,03,00,AAXX 02034 41992 01/30 30000 10310 20250 30060 40062 70552 83030 333 20260 59008 70110 83362==
41992,2023,07,02,06,00,AAXX 02064 41992 11435 30000 10330 20270 30051 40053 60006 70552 81530 333 59017 70110 81616 83362==
41992,2023,07,02,09,00,AAXX 02094 41992 01440 42108 10333 20260 30030 40032 70521 82501 333 59016 70110 82618 84080==
41992,2023,07,02,12,00,AAXX 02124 41992 01430 62106 10310 20270 30033 40035 70522 84530 333 10338 58001 70110 84615 86360==
41992,2023,07,02,15,00,AAXX 02154 41992 01425 62103 10295 20270 30052 40054 70522 84530 333 59004 70110 84616 86362==
41992,2023,07,02,18,00,AAXX 02184 41992 01420 62102 10290 20260 30054 40056 70522 84530 333 59006 70110 84615 86360==
41992,2023,07,02,21,00,AAXX 02214 41992 01420 62102 10283 20260 30046 40048 76122 84530 333 59010 70180 84615 86360==
41992,2023,07,03,00,00,AAXX 03004 41992 21420 71502 10265 20260 30048 40050 75166 84520 333 58002 60099 70090 84615 87458==
41992,2023,07,03,03,00,AAXX 03034 41992 01/30 60000 10304 20260 30059 40061 70552 86030 333 20262 59001 70090 86362==
41992,2023,07,03,06,00,AAXX 03064 41992 11/35 50000 10317 20270 30051 40056 60006 70552 85030 333 59003 70090 85362==
41992,2023,07,03,09,00,AAXX 03094 41992 01430 61502 10320 20260 30030 40032 70522 84530 333 58000 70090 84616 86460==
41992,2023,07,03,12,00,AAXX 03124 41992 01430 70000 10300 20260 30026 40028 70522 84530 333 10326 59007 70090 84616 87362==
41992,2023,07,03,15,00,AAXX 03154 41992 01420 61502 10295 20270 30050 40052 70522 84530 333 59002 70090 84616 86362==
41992,2023,07,03,18,00,AAXX 03184 41992 01420 61502 10290 20270 30043 40045 70522 84530 333 59011 70090 84616 86460==
41992,2023,07,03,21,00,AAXX 03214 41992 01420 71502 10284 20260 30038 40040 70522 84520 333 59008 70020 84615 87460==
41992,2023,07,04,00,00,AAXX 04004 41992 41420 61502 10275 20250 30042 40044 70522 84520 333 59006 84615 86460==
41992,2023,07,04,03,00,AAXX 04034 41992 01435 30000 10313 20250 30043 40045 70521 82530 333 20272 59016 70000 82616 83362==
41992,2023,07,04,06,00,AAXX 04064 41992 01430 62004 10318 20270 30038 40040 70521 84530 333 59016 70000 84616 86362==
41992,2023,07,04,09,00,AAXX 04094 41992 01430 62105 10335 20270 30014 40016 70522 84530 333 59016 70000 84616 86362==
41992,2023,07,04,12,00,AAXX 04124 41992 01430 62108 10310 20260 30010 40012 70522 84530 333 10332 59016 70000 84616 86362==
41992,2023,07,04,15,00,AAXX 04154 41992 01420 61503 10290 20260 30030 40032 70522 84530 333 59020 70000 84616 86362==
41992,2023,07,04,18,00,AAXX 04184 41992 01420 71502 10277 20270 30040 40042 70562 84520 333 59003 70020 84615 87458==
41992,2023,07,04,21,00,AAXX 04214 41992 01420 72102 10280 20260 30036 40038 70522 84520 333 59002 70020 84615 87458==
41992,2023,07,05,00,00,AAXX 05004 41992 01420 60302 10265 20260 30016 40018 70522 84520 333 59026 70020 84615 86460==
41992,2023,07,05,03,00,AAXX 05034 41992 01430 61803 10280 20260 30030 40032 70522 84520 333 20263 59013 70020 84615 86460==
41992,2023,07,05,06,00,AAXX 05064 41992 21435 50000 10312 20250 30020 40022 70562 83530 333 59018 60035 70050 83616 85362==
41992,2023,07,05,09,00,AAXX 05094 41992 01430 61503 10310 20250 30009 40011 70522 84530 333 59005 70050 84615 86362==
41992,2023,07,05,12,00,AAXX 05124 41992 21430 71606 10290 20250 30010 40012 70552 84530 333 10330 58000 60005 70050 84616 87362==
41992,2023,07,05,15,00,AAXX 05154 41992 01320 81505 10262 20250 30038 40040 76166 8452/ 333 58008 70130 84615 88458 81925==
41992,2023,07,05,18,00,AAXX 05184 41992 21320 80000 10257 20250 30044 40046 75165 8432/ 333 58004 60119 70140 82708 84614 88458 81925==
41992,2023,07,05,21,00,AAXX 05214 41992 01320 81206 10260 20250 30034 40036 76165 8532/ 333 59002 70400 82708 84614 88458 81925==
41992,2023,07,06,00,00,AAXX 06004 41992 21320 81205 10258 20250 30044 40046 75166 8532/ 333 58028 60329 70460 82708 84614 88458 81925==
41992,2023,07,06,03,00,AAXX 06034 41992 02420 81503 10280 20260 30058 40060 8432/ 333 20255 59023 70470 88458 81925==
41992,2023,07,06,06,00,AAXX 06064 41992 21425 71505 10308 20260 30059 40061 70565 8432/ 333 58039 60018 70440 83616 87460 81925==
41992,2023,07,06,09,00,AAXX 06094 41992 01320 81806 10283 20260 30050 40052 76166 8432/ 333 58041 70480 82707 84613 88458 81925==
41992,2023,07,06,12,00,AAXX 06124 41992 21425 61506 10278 20260 30047 40049 70562 84530 333 10310 58037 60048 70480 84616 86362==
41992,2023,07,06,15,00,AAXX 06154 41992 01320 81508 10265 20250 30068 40070 76166 8532/ 333 58030 70430 82708 84614 88458 81925==
41992,2023,07,06,18,00,AAXX 06184 41992 21320 81503 10267 20250 30068 40070 75165 8432/ 333 58024 60039 70400 82708 84614 88458 81925==
41992,2023,07,06,21,00,AAXX 06214 41992 31320 81506 10262 20250 30068 40070 70522 8532/ 333 56999 59004 70080 82708 84614 81925 88458=
41998,2023,06,30,00,00,AAXX 30004 41998 NIL=
41998,2023,06,30,03,00,AAXX 30034 41998 02456 60000 10304 20260 30055 40061 83470 333 20267 58003 70000 82618 84458==
41998,2023,06,30,06,00,AAXX 30064 41998 NIL=
41998,2023,06,30,12,00,AAXX 30124 41998 02456 60000 10298 20250 30061 40067 83470 333 10325 58009 70000 82618 84558==
41998,2023,06,30,18,00,AAXX 30184 41998 NIL=
41998,2023,07,01,00,00,AAXX 01004 41998 02456 60000 10275 20260 30053 40059 82470 333 58006 70000 81618 83458==
41998,2023,07,01,06,00,AAXX 01064 41998 NIL=
41998,2023,07,01,09,00,AAXX 01094 41998 02456 61602 10312 20260 30039 40045 82470 333 58003 70000 82618 83458==
41998,2023,07,01,12,00,AAXX 01124 41998 02456 60000 10296 20260 30042 40048 82470 333 10324 59019 70000 82618 83458==
41998,2023,07,01,18,00,AAXX 01184 41998 NIL=
41998,2023,07,02,00,00,AAXX 02004 41998 02456 60000 10277 20260 30056 40062 82470 333 58002 70000 81618 83420==
41998,2023,07,02,03,00,AAXX 02034 41998 NIL=
41998,2023,07,02,06,00,AAXX 02064 41998 NIL=
41998,2023,07,02,12,00,AAXX 02124 41998 02456 60000 10291 20260 30046 40052 82470 333 10315 59015 70000 82618 83458==
41998,2023,07,03,00,00,AAXX 03004 41998 02456 60000 10275 20268 30056 40062 82456 333 58001 70000==
41998,2023,07,03,06,00,AAXX 03064 41998 NIL=
41998,2023,07,03,09,00,AAXX 03094 41998 02456 41902 10322 20250 30024 40030 82470 333 59017 70000 82618 83458==
41998,2023,07,03,12,00,AAXX 03124 41998 02456 40000 10297 20250 30030 40036 82470 333 10328 70000 82618 83458==
41998,2023,07,03,18,00,AAXX 03184 41998 NIL=
41998,2023,07,04,03,00,AAXX 04034 41998 02456 40000 10306 20250 30038 40044 82470 333 20263 59014 70020 82618 83458==
41998,2023,07,04,06,00,AAXX 04064 41998 NIL=
41998,2023,07,04,09,00,AAXX 04094 41998 02456 41002 10303 20260 30002 40008 82470 333 59022 70020 82618 83458==
41998,2023,07,04,12,00,AAXX 04124 41998 02456 40000 10290 20240 30003 40009 82470 333 10330 59027 70020 82618 83458==
41998,2023,07,05,00,00,AAXX 05004 41998 02456 80000 10270 20260 30052 40058 8342/ 333 59005 70050 82618 88458==
41998,2023,07,05,03,00,AAXX 05034 41998 01456 80000 10266 20250 30045 40051 76166 8442/ 333 10263 58007 70090 83618 88458==
41998,2023,07,05,06,00,AAXX 05064 41998 NIL=
41998,2023,07,05,09,00,AAXX 05094 41998 02456 42103 10314 20260 39994 40000 82470 333 59008 70090 82618 83458==
41998,2023,07,05,12,00,AAXX 05124 41998 21456 81908 10258 20250 39991 49997 76162 8442/ 333 10327 59012 60058 70140 83616 88456==
41998,2023,07,05,18,00,AAXX 05184 41998 NIL=
41998,2023,07,06,00,00,AAXX 06004 41998 21456 80000 10254 20240 30033 40039 76166 8442/ 333 59009 60159 70760 83456 88456==
41998,2023,07,06,03,00,AAXX 06034 41998 01456 80000 10260 20250 30046 40052 76166 8442/ 333 20240 58001 70890 83616 88456==
41998,2023,07,06,06,00,AAXX 06064 41998 NIL=
41998,2023,07,06,09,00,AAXX 06094 41998 NIL=
41998,2023,07,06,12,00,AAXX 06124 41998 02456 80000 10278 20260 30004 40010 8442/ 333 10304 58013 70860 83618 88458==
