ESTACION,ANO,MES,DIA,HORA,MINUTO,PARTE
41850,2022,11,18,00,00,AAXX 18004 41850 31930 00901 10150 20150 30025 40129 70500 333 59014 70000=
41850,2022,11,18,12,00,AAXX 18124 41850 31950 00000 10238 20200 30024 40124 70500 333 10287 58021 70000=
41850,2022,11,18,18,00,AAXX 18184 41850 31930 00000 10171 20170 30042 40145 70500 333 58017 70000=
41850,2022,11,19,00,00,AAXX 19004 41850 31910 00902 10135 20130 30040 40144 71000 333 58015 70000=
41850,2022,11,19,03,00,AAXX 19034 41850 32956 00901 10270 20140 30047 40146 333 58000 70000=
41850,2022,11,19,12,00,AAXX 19124 41850 31950 00000 10240 20170 30018 40118 70500 333 10300 59006 70000=
41850,2022,11,19,18,00,AAXX 19184 41850 31930 00000 10167 20160 30034 40136 70500 333 59008 70000=
41850,2022,11,20,00,00,AAXX 20004 41850 31930 00902 10170 20160 30016 40118 70500 333 59003 70000=
41850,2022,11,20,06,00,AAXX 20064 41850 32957 00000 10272 20130 30037 40137 333 59010 70000=
41850,2022,11,20,12,00,AAXX 20124 41850 31950 00000 10210 20170 30004 40105 70500 333 10300 59014 70000=
41850,2022,11,20,18,00,AAXX 20184 41850 31940 00000 10150 20140 30022 40124 70500 333 59012 70000=
41850,2022,11,21,00,00,AAXX 21004 41850 31905 00000 10128 20125 30007 40110 74640 333 59019 70000=
41850,2022,11,21,06,00,AAXX 21064 41850 32958 00000 10272 20140 30023 40122 333 59014 70000=
41850,2022,11,21,12,00,AAXX 21124 41850 31950 00000 10211 20170 30004 40105 70500 333 10288 58000 70000=
41850,2022,11,21,18,00,AAXX 21184 41850 NIL=
41850,2022,11,22,00,00,AAXX 22004 41850 31903 00000 10129 20125 30014 40117 74640 333 58007 70000=
41850,2022,11,22,06,00,AAXX 22064 41850 32957 00000 10276 20150 30029 40127 333 58006 70000=
41850,2022,11,22,12,00,AAXX 22124 41850 31950 00000 10214 20170 39999 40100 70500 333 10294 59005 70000=
41850,2022,11,22,18,00,AAXX 22184 41850 31940 00000 10157 20150 30015 40118 70500 333 59006 70000=
41850,2022,11,23,00,00,AAXX 23004 41850 31903 00000 10128 20125 30020 40123 74640 333 58006 70000=
41850,2022,11,23,06,00,AAXX 23064 41850 32958 00000 10270 20140 30032 40132 333 58003 70000=
41850,2022,11,23,12,00,AAXX 23124 41850 31950 20000 10214 20170 30001 40102 70510 333 10295 58002 70000=
41850,2022,11,23,18,00,AAXX 23184 41850 31950 00000 10153 20150 30018 40121 70500 333 58007 70000=
41850,2022,11,24,00,00,AAXX 24004 41850 31905 00000 10135 20135 30014 40117 74640 333 59006 70000=
41850,2022,11,24,06,00,AAXX 24064 41850 32958 00000 10281 20140 30022 40120 333 59010 70000=
41850,2022,11,24,12,00,AAXX 24124 41850 31950 00000 10212 20170 30015 40116 70500 333 10300 58013 70000=
41850,2022,11,24,18,00,AAXX 24184 41850 31940 00000 10156 20140 30031 40133 70500 333 58020 70000=
41850,2022,11,24,21,00,AAXX 24214 41850 31903 00000 10134 20130 30029 40133 74640 333 58015 70000=
41851,2022,11,18,00,00,AAXX 18004 41851 31930 00000 10167 20160 30071 40136 70500 333 58018 70000=
41851,2022,11,18,12,00,AAXX 18124 41851 31940 00000 10222 20180 30063 40127 70500 333 10288 58018 70000=
41851,2022,11,18,18,00,AAXX 18184 41851 31930 00000 10170 20160 30085 40151 70500 333 58015 70000=
41851,2022,11,19,00,00,AAXX 19004 41851 31930 00000 10150 20150 30081 40147 70500 333 58010 70000=
41851,2022,11,19,03,00,AAXX 19034 41851 32950 00902 10276 20130 30078 40141 333 59004 70000=
41851,2022,11,19,12,00,AAXX 19124 41851 31440 20000 10216 20170 30051 40115 70500 82500 333 10290 56900 59012 70000 82618=
41851,2022,11,19,18,00,AAXX 19184 41851 31940 00000 10163 20150 30066 40132 70500 333 59019 70000=
41851,2022,11,20,00,00,AAXX 20004 41851 31940 00000 10145 20145 30063 40128 70500 333 59018 70000=
41851,2022,11,20,06,00,AAXX 20064 41851 32450 30902 10305 20200 30061 40123 82530 333 56990 59030 70000 82618=
41851,2022,11,20,12,00,AAXX 20124 41851 31940 00000 10215 20180 30039 40103 70511 333 10290 59012 70000=
41851,2022,11,20,18,00,AAXX 20184 41851 31940 00902 10157 20150 30053 40119 70500 333 59013 70000=
41851,2022,11,21,00,00,AAXX 21004 41851 31930 00000 10137 20130 30042 40108 70500 333 59019 70000=
41851,2022,11,21,06,00,AAXX 21064 41851 32950 30901 10278 20140 30056 40119 80001 333 56009 59010 70000 83080=
41851,2022,11,21,12,00,AAXX 21124 41851 31945 00000 10210 20170 30039 40103 70500 333 10292 58000 70000=
41851,2022,11,21,18,00,AAXX 21184 41851 31940 00000 10177 20150 30052 40117 70500 333 59001 70000=
41851,2022,11,22,00,00,AAXX 22004 41851 31920 00000 10145 20145 30053 40119 71000 333 58011 70000=
41851,2022,11,22,12,00,AAXX 22124 41851 31945 00000 10215 20180 30032 40096 70500 333 10292 59007 70000=
41851,2022,11,22,18,00,AAXX 22184 41851 31935 00000 10165 20160 30054 40119 70500 333 58002 70000=
41851,2022,11,23,00,00,AAXX 23004 41851 31912 00000 10142 20140 30057 40123 71000 333 58004 70000=
41851,2022,11,23,06,00,AAXX 23064 41851 31945 00901 10270 20140 30066 40129 70500 333 59002 70000=
41851,2022,11,23,12,00,AAXX 23124 41851 31940 00000 10228 20180 30035 40099 70500 333 10292 58003 70000=
41851,2022,11,23,18,00,AAXX 23184 41851 31940 00000 10178 20170 30054 40119 70500 333 58000 70000=
41851,2022,11,24,00,00,AAXX 24004 41851 31930 00000 10150 20140 30050 40116 70500 333 59007 70000=
41851,2022,11,24,06,00,AAXX 24064 41851 32950 00901 10270 20140 30065 40128 333 59001 70000=
41851,2022,11,24,12,00,AAXX 24124 41851 31440 20000 10224 20170 30051 40115 70500 82500 333 10292 56900 58016 70000 82618=
41851,2022,11,24,18,00,AAXX 24184 41851 31940 00000 10165 20160 30076 40142 70510 333 58022 70000=
41851,2022,11,24,21,00,AAXX 24214 41851 NIL=
41856,2022,11,18,00,00,AAXX 18004 41856 31920 00501 10164 20160 30098 40135 71000 333 58016 70000=
41856,2022,11,18,12,00,AAXX 18124 41856 31940 00000 10217 20190 30088 40124 70500 333 10280 58018 70000=
41856,2022,11,18,18,00,AAXX 18184 41856 31925 00501 10168 20168 30109 40146 71000 333 58013 70000=
41856,2022,11,19,00,00,AAXX 19004 41856 31925 00501 10154 20140 30106 40143 71000 333 58008 70000=
41856,2022,11,19,03,00,AAXX 19034 41856 32956 00802 10269 20160 30104 40140 333 58000 70000=
41856,2022,11,19,12,00,AAXX 19124 41856 31940 00501 10204 20180 30079 40116 70500 333 10284 59009 70000=
41856,2022,11,19,18,00,AAXX 19184 41856 31925 00501 10154 20150 30090 40127 71000 333 59019 70000=
41856,2022,11,20,00,00,AAXX 20004 41856 31930 00000 10200 20190 30084 40121 70500 333 59002 70000=
41856,2022,11,20,06,00,AAXX 20064 41856 32956 00702 10263 20160 30092 40128 333 59012 70000=
41856,2022,11,20,12,00,AAXX 20124 41856 31940 00000 10252 20220 30088 40124 70500 333 10300 59010 70000=
41856,2022,11,20,18,00,AAXX 20184 41856 31920 00000 10157 20150 30087 40124 71000 333 59003 70000=
41856,2022,11,21,00,00,AAXX 21004 41856 31920 00501 10132 20130 30072 40107 71000 333 59017 70000=
41856,2022,11,21,06,00,AAXX 21064 41856 32950 20502 10263 20140 30080 40116 82030 333 56090 59012 70000 82362=
41856,2022,11,21,12,00,AAXX 21124 41856 31940 00000 10210 20200 30064 40100 70500 333 10284 59004 70000=
41856,2022,11,21,18,00,AAXX 21184 41856 31920 00000 10165 20160 30084 40121 71000 333 59003 70000=
41856,2022,11,22,00,00,AAXX 22004 41856 31920 00000 10135 20134 30081 40118 71000 333 58011 70000=
41856,2022,11,22,06,00,AAXX 22064 41856 32956 00000 10268 20160 30088 40124 333 58008 70000=
41856,2022,11,22,12,00,AAXX 22124 41856 31940 00000 10211 20180 30059 40095 70500 333 10285 59005 70000=
41856,2022,11,22,18,00,AAXX 22184 41856 31920 00000 10163 20150 30078 40115 70500 333 59006 70000=
41856,2022,11,23,00,00,AAXX 23004 41856 31912 00000 10140 20140 30082 40119 71000 333 58001 70000=
41856,2022,11,23,06,00,AAXX 23064 41856 32950 00702 10264 20150 30089 40125 333 59001 70000=
41856,2022,11,23,12,00,AAXX 23124 41856 31940 00000 10214 20190 30062 40098 70500 333 10290 58003 70000=
41856,2022,11,23,18,00,AAXX 23184 41856 NIL=
41856,2022,11,24,00,00,AAXX 24004 41856 31912 00000 10143 20143 30077 40114 71000 333 59005 70000=
41856,2022,11,24,06,00,AAXX 24064 41856 32950 00000 10270 20150 30094 40130 333 59005 70000=
41856,2022,11,24,12,00,AAXX 24124 41856 31940 00000 10217 20190 30078 40114 70500 333 10282 58016 70000=
41856,2022,11,24,18,00,AAXX 24184 41856 31920 00000 10166 20166 30103 40139 71000 333 58020 70000=
41856,2022,11,24,21,00,AAXX 24214 41856 NIL=
41858,2022,11,18,00,00,AAXX 18004 41858 01908 00305 10184 20170 30091 40138 74200 333 58016 70000==
41858,2022,11,18,03,00,AAXX 18034 41858 01930 00306 10224 20170 30113 40159 70540 333 20168 58019 70000==
41858,2022,11,18,09,00,AAXX 18094 41858 01550 33605 10290 20160 30074 40119 70520 83100 333 58016 70000 83825==
41858,2022,11,18,12,00,AAXX 18124 41858 01950 00000 10235 20210 30081 40127 70520 333 10295 58016 70000==
41858,2022,11,18,15,00,AAXX 18154 41858 01940 00000 10202 20180 30102 40149 70500 333 58017 70000==
41858,2022,11,18,18,00,AAXX 18184 41858 01935 00000 10180 20160 30116 40163 70500 333 58020 70000==
41858,2022,11,18,21,00,AAXX 18214 41858 01915 00000 10176 20170 30106 40153 71000 333 58022 70000==
41858,2022,11,19,00,00,AAXX 19004 41858 01/06 43005 10170 20160 30101 40148 74240 83031 333 58010 70000 83362 84074==
41858,2022,11,19,03,00,AAXX 19034 41858 01/28 30306 10222 20170 30116 40162 71042 83030 333 20162 58003 70000 83362==
41858,2022,11,19,06,00,AAXX 19064 41858 01940 30508 10294 20160 30096 40142 73030 333 59003 70000 83362==
41858,2022,11,19,12,00,AAXX 19124 41858 01/45 33605 10235 20200 30070 40116 70500 83030 333 10305 59011 70000 83362==
41858,2022,11,19,15,00,AAXX 19154 41858 01940 00000 10190 20170 30085 40132 70500 333 59017 70000==
41858,2022,11,19,18,00,AAXX 19184 41858 01930 00000 10175 20170 30093 40140 70500 333 59023 70000==
41858,2022,11,19,21,00,AAXX 19214 41858 01920 00000 10170 20160 30089 40136 71000 333 59017 70000==
41858,2022,11,20,00,00,AAXX 20004 41858 01940 03605 10210 20200 30080 40126 70500 333 58001 70000==
41858,2022,11,20,03,00,AAXX 20034 41858 01930 00307 10220 20160 30099 40145 70500 333 10152 59017 70000==
41858,2022,11,20,06,00,AAXX 20064 41858 01/50 30309 10330 20200 30078 40128 70522 83030 333 59028 70000 83362==
41858,2022,11,20,09,00,AAXX 20094 41858 01908 02305 10166 20160 30096 40143 74240 333 58003 70000==
41858,2022,11,20,12,00,AAXX 20124 41858 01/50 20000 10222 20180 30059 40105 70510 82030 333 10300 59011 70000 82362==
41858,2022,11,20,15,00,AAXX 20154 41858 01935 00000 10194 20170 30076 40123 70500 333 59009 70000==
41858,2022,11,20,18,00,AAXX 20184 41858 01935 00000 10182 20160 30078 40125 70500 333 59015 70000==
41858,2022,11,20,21,00,AAXX 20214 41858 01925 00000 10162 20150 30062 40109 71000 333 59027 70000==
41858,2022,11,21,00,00,AAXX 21004 41858 01/08 20000 10150 20140 30065 40112 74200 82030 333 59021 70000 82362==
41858,2022,11,21,03,00,AAXX 21034 41858 01/30 23506 10210 20150 30089 40135 70540 82030 333 20140 59010 70000 82362==
41858,2022,11,21,06,00,AAXX 21064 41858 01550 32805 10285 20170 30078 40124 70540 83100 333 59005 70000 83825==
41858,2022,11,21,09,00,AAXX 21094 41858 01950 02408 10290 20140 30057 40102 70510 333 58002 70000==
41858,2022,11,21,12,00,AAXX 21124 41858 01/50 22705 10220 20180 30060 40106 70510 82040 333 10295 58001 70000 82362==
41858,2022,11,21,15,00,AAXX 21154 41858 01940 02707 10195 20170 30075 40122 70500 333 59001 70000==
41858,2022,11,21,18,00,AAXX 21184 41858 01930 02205 10172 20150 30086 40133 70500 333 58008 70000==
41858,2022,11,21,21,00,AAXX 21214 41858 01920 00000 10160 20150 30071 40118 71000 333 58007 70000==
41858,2022,11,22,00,00,AAXX 22004 41858 01908 00000 10155 20150 30078 40125 74200 333 58013 70000==
41858,2022,11,22,03,00,AAXX 22034 41858 01913 02806 10210 20160 30102 40148 71040 333 20146 58013 70000==
41858,2022,11,22,09,00,AAXX 22094 41858 01950 03605 10292 20150 30054 40099 70500 333 59003 70000==
41858,2022,11,22,12,00,AAXX 22124 41858 01940 00000 10235 20180 30052 40098 70500 333 10295 59008 70000==
41858,2022,11,22,15,00,AAXX 22154 41858 01940 00000 10196 20180 30067 40113 70500 333 59008 70000==
41858,2022,11,22,18,00,AAXX 22184 41858 01935 00000 10184 20160 30073 40120 70500 333 59013 70000==
41858,2022,11,22,21,00,AAXX 22214 41858 01908 00000 10170 20160 30076 40123 74200 333 58005 70000==
41858,2022,11,23,00,00,AAXX 23004 41858 01905 00000 10155 20150 30082 40129 74440 333 58004 70000==
41858,2022,11,23,03,00,AAXX 23034 41858 01912 02704 10205 20170 30102 40148 71040 333 20148 58000 70000==
41858,2022,11,23,06,00,AAXX 23064 41858 31935 03506 10284 20170 30085 40131 70540 333 59004 70000=
41858,2022,11,23,09,00,AAXX 23094 41858 01540 23605 10292 20140 30052 40097 70500 82100 333 59002 70000 82825==
41858,2022,11,23,12,00,AAXX 23124 41858 01940 00000 10236 20180 30057 40103 70500 333 10295 58005 70000==
41858,2022,11,23,15,00,AAXX 23154 41858 01940 02704 10206 20180 30076 40122 70500 333 58009 70000==
41858,2022,11,23,18,00,AAXX 23184 41858 01935 02705 10186 20170 30079 40126 70500 333 58006 70000==
41858,2022,11,23,21,00,AAXX 23214 41858 01920 00000 10170 20160 30071 40118 71000 333 59005 70000==
41858,2022,11,24,00,00,AAXX 24004 41858 01906 00000 10160 20150 30074 40121 74240 333 59008 70000==
41858,2022,11,24,03,00,AAXX 24034 41858 01915 03604 10205 20160 30094 40140 71040 333 20150 59008 70000==
41858,2022,11,24,06,00,AAXX 24064 41858 01940 03605 10282 20150 30086 40132 70540 333 58001 70000==
41858,2022,11,24,09,00,AAXX 24094 41858 01/50 33607 10300 20150 30060 40105 70500 83040 333 58008 70000 83362==
41858,2022,11,24,12,00,AAXX 24124 41858 01940 03605 10240 20170 30070 40116 70500 333 10305 58013 70000==
41858,2022,11,24,15,00,AAXX 24154 41858 01935 03605 10185 20160 30092 40139 70500 333 58016 70000==
41858,2022,11,24,18,00,AAXX 24184 41858 01930 03604 10173 20150 30100 40147 70500 333 58021 70000==
41858,2022,11,24,21,00,AAXX 24214 41858 01920 00000 10164 20150 30087 40134 71000 333 58016 70000==
41859,2022,11,18,00,00,AAXX 18004 41859 01930 00000 10190 20180 30094 40132 70500 333 58014 70000==
41859,2022,11,18,03,00,AAXX 18034 41859 01950 00000 10234 20180 30119 40157 70500 333 20185 58018 70000==
41859,2022,11,18,06,00,AAXX 18064 41859 01950 00000 10271 20170 30111 40148 70500 333 58020 70000==
41859,2022,11,18,09,00,AAXX 18094 41859 01450 20502 10290 20170 30080 40117 70500 82500 333 58015 70000 82618==
41859,2022,11,18,12,00,AAXX 18124 41859 01930 00000 10243 20190 30088 40126 70510 333 10294 58016 70000==
41859,2022,11,18,15,00,AAXX 18154 41859 01930 00000 10206 20200 30108 40146 70500 333 58015 70000==
41859,2022,11,18,18,00,AAXX 18184 41859 01930 00000 10190 20180 30110 40148 70500 333 58011 70000==
41859,2022,11,18,21,00,AAXX 18214 41859 01930 00000 10184 20170 30104 40143 70500 333 58008 70000==
41859,2022,11,19,00,00,AAXX 19004 41859 01930 00502 10182 20160 30105 40144 70500 333 58011 70000==
41859,2022,11,19,03,00,AAXX 19034 41859 01950 00502 10231 20150 30123 40161 70500 333 20175 58012 70000==
41859,2022,11,19,06,00,AAXX 19064 41859 01950 00502 10288 20140 30104 40141 70500 333 59007 70000==
41859,2022,11,19,09,00,AAXX 19094 41859 02950 00502 10296 20140 30075 40112 333 59005 70000==
41859,2022,11,19,12,00,AAXX 19124 41859 01/30 20000 10238 20180 30078 40116 70510 82030 333 10300 59010 70000 82362==
41859,2022,11,19,15,00,AAXX 19154 41859 01930 00000 10195 20180 30091 40129 70510 333 59017 70000==
41859,2022,11,19,18,00,AAXX 19184 41859 01930 00000 10180 20170 30089 40128 70500 333 59021 70000==
41859,2022,11,19,21,00,AAXX 19214 41859 01930 00520 10179 20160 30085 40124 70500 333 59019 70000==
41859,2022,11,20,00,00,AAXX 20004 41859 31930 00502 10175 20160 30087 40126 70500 333 59018 70000=
41859,2022,11,20,03,00,AAXX 20034 41859 NIL=
41859,2022,11,20,06,00,AAXX 20064 41859 01950 00902 10276 20160 30089 40126 70500 333 59004 70000==
41859,2022,11,20,09,00,AAXX 20094 41859 01450 40502 10286 20150 30063 40100 70500 82530 333 59012 70000 82618 84362==
41859,2022,11,20,12,00,AAXX 20124 41859 01430 40000 10236 20200 30065 40103 70520 81350 333 10288 59013 70000 81618 83362==
41859,2022,11,20,15,00,AAXX 20154 41859 01930 00000 10195 20190 30083 40121 70520 333 59008 70000==
41859,2022,11,20,18,00,AAXX 20184 41859 01930 00502 10185 20180 30080 40118 70520 333 59009 70000==
41859,2022,11,20,21,00,AAXX 20214 41859 01930 00502 10165 20160 30074 40113 70500 333 59011 70000==
41859,2022,11,21,00,00,AAXX 21004 41859 01/30 23602 10162 20150 30068 40107 70510 82030 333 59019 70000 82362==
41859,2022,11,21,03,00,AAXX 21034 41859 01950 00000 10213 20140 30097 40135 70510 333 20155 59008 70000==
41859,2022,11,21,06,00,AAXX 21064 41859 01950 03602 10275 20160 30084 40121 70500 333 59005 70000==
41859,2022,11,21,09,00,AAXX 21094 41859 01956 00000 10291 20120 30060 40097 70500 333 59003 70000==
41859,2022,11,21,12,00,AAXX 21124 41859 01930 00000 10233 20180 30064 40102 70500 333 10296 59001 70000==
41859,2022,11,21,15,00,AAXX 21154 41859 01930 00000 10200 20170 30082 40120 70500 333 59001 70000==
41859,2022,11,21,18,00,AAXX 21184 41859 01930 03102 10190 20160 30083 40121 70500 333 58003 70000==
41859,2022,11,21,21,00,AAXX 21214 41859 01930 00000 10182 20160 30078 40117 70500 333 58004 70000==
41859,2022,11,22,00,00,AAXX 22004 41859 01930 00000 10157 20150 30082 40121 70500 333 58014 70000==
41859,2022,11,22,03,00,AAXX 22034 41859 01950 00000 10209 20160 30108 40145 70500 333 20152 58011 70000==
41859,2022,11,22,06,00,AAXX 22064 41859 01950 00000 10273 20130 30094 40134 70500 333 58013 70000==
41859,2022,11,22,09,00,AAXX 22094 41859 01950 00502 10290 20140 30060 40097 70500 333 58000 70000==
41859,2022,11,22,12,00,AAXX 22124 41859 01930 00000 10237 20180 30061 40099 70500 333 10298 59003 70000==
41859,2022,11,22,15,00,AAXX 22154 41859 01930 00000 10196 20180 30074 40112 70500 333 59008 70000==
41859,2022,11,22,18,00,AAXX 22184 41859 01930 00000 10182 20170 30082 40121 70500 333 59001 70000==
41859,2022,11,22,21,00,AAXX 22214 41859 01930 00000 10165 20160 30082 40121 70500 333 58004 70000==
41859,2022,11,23,00,00,AAXX 23004 41859 01930 00000 10162 20160 30082 40121 70500 333 58000 70000==
41859,2022,11,23,03,00,AAXX 23034 41859 01950 00000 10201 20160 30107 40145 70500 333 20152 59001 70000==
41859,2022,11,23,06,00,AAXX 23064 41859 01950 00000 10277 20160 30093 40130 70500 333 59004 70000==
41859,2022,11,23,09,00,AAXX 23094 41859 02950 00000 10290 20160 30062 40099 333 58002 70000==
41859,2022,11,23,12,00,AAXX 23124 41859 01930 00000 10243 20190 30063 40101 70500 333 10296 58002 70000==
41859,2022,11,23,15,00,AAXX 23154 41859 01930 00000 10202 20180 30081 40119 70500 333 58007 70000==
41859,2022,11,23,18,00,AAXX 23184 41859 01930 00000 10190 20170 30082 40120 70500 333 58000 70000==
41859,2022,11,23,21,00,AAXX 23214 41859 01930 00000 10175 20170 30077 40116 70500 333 59004 70000==
41859,2022,11,24,00,00,AAXX 24004 41859 01930 00000 10167 20160 30077 40116 70500 333 59005 70000==
41859,2022,11,24,03,00,AAXX 24034 41859 01950 00000 10221 20190 30102 40140 70500 333 20165 59005 70000==
41859,2022,11,24,06,00,AAXX 24064 41859 01950 00000 10279 20150 30093 40130 70500 333 58000 70000==
41859,2022,11,24,09,00,AAXX 24094 41859 02450 40502 10290 20130 30066 40103 81530 333 58004 70000 81618 83362==
41859,2022,11,24,12,00,AAXX 24124 41859 01930 00000 10244 20180 30076 40114 70520 333 10297 58013 70000==
41859,2022,11,24,15,00,AAXX 24154 41859 01930 00000 10200 20180 30099 40137 70500 333 58018 70000==
41859,2022,11,24,18,00,AAXX 24184 41859 01930 00000 10186 20180 30103 40141 70500 333 58021 70000==
41859,2022,11,24,21,00,AAXX 24214 41859 01930 00502 10185 20180 30099 40137 70500 333 58022 70000==
41863,2022,11,18,00,00,AAXX 18004 41863 01950 02701 10170 20160 30095 40140 70500 333 58019 70000==
41863,2022,11,18,03,00,AAXX 18034 41863 02956 00901 10230 20190 30118 40162 333 20162 58023 70000==
41863,2022,11,18,09,00,AAXX 18094 41863 02957 03602 10293 20160 30076 40119 333 58017 70000==
41863,2022,11,18,12,00,AAXX 18124 41863 02950 00000 10238 20200 30081 40124 333 10296 58017 70000==
41863,2022,11,18,15,00,AAXX 18154 41863 01950 00000 10198 20190 30104 40148 70500 333 58019 70000==
41863,2022,11,18,18,00,AAXX 18184 41863 01950 00000 10187 20180 30108 40152 70500 333 58017 70000==
41863,2022,11,18,21,00,AAXX 18214 41863 01950 00000 10176 20170 30103 40147 70500 333 58017 70000==
41863,2022,11,19,00,00,AAXX 19004 41863 01940 00902 10156 20150 30103 40148 70500 333 58008 70000==
41863,2022,11,19,03,00,AAXX 19034 41863 02956 03603 10223 20160 30118 40162 333 20151 58000 70000==
41863,2022,11,19,06,00,AAXX 19064 41863 02957 00502 10284 20170 30102 40145 333 59004 70000==
41863,2022,11,19,12,00,AAXX 19124 41863 02950 00000 10230 20180 30071 40114 333 10302 59010 70000==
41863,2022,11,19,15,00,AAXX 19154 41863 01950 00000 10186 20170 30086 40130 70500 333 59018 70000==
41863,2022,11,19,18,00,AAXX 19184 41863 01950 00000 10186 20160 30086 40131 70500 333 59022 70000==
41863,2022,11,19,21,00,AAXX 19214 41863 01950 00000 10176 20170 30097 40141 70500 333 59006 70000==
41863,2022,11,20,00,00,AAXX 20004 41863 02450 50000 10272 20260 39980 40023 83530 333 59019 70000 83618 85362==
41863,2022,11,20,03,00,AAXX 20034 41863 02957 00902 10225 20190 30102 40146 333 20141 59016 70000==
41863,2022,11,20,06,00,AAXX 20064 41863 02557 20504 10324 20170 30081 40123 82500 333 59026 70000 82620==
41863,2022,11,20,09,00,AAXX 20094 41863 02/57 41301 10310 20260 39982 40024 84020 333 58010 70000 84458==
41863,2022,11,20,12,00,AAXX 20124 41863 02/50 20000 10230 20190 30059 40102 82030 333 10295 59012 70000 82362==
41863,2022,11,20,15,00,AAXX 20154 41863 01940 00000 10189 20170 30103 40147 70500 333 58003 70000==
41863,2022,11,20,18,00,AAXX 20184 41863 01950 00000 10170 20160 30076 40120 70500 333 59010 70000==
41863,2022,11,20,21,00,AAXX 20214 41863 01940 00000 10167 20160 30073 40117 70500 333 59011 70000==
41863,2022,11,21,00,00,AAXX 21004 41863 01940 00000 10150 20140 30064 40109 70500 333 59020 70000==
41863,2022,11,21,03,00,AAXX 21034 41863 01950 00000 10196 20170 30093 40137 70500 333 20138 59009 70000==
41863,2022,11,21,06,00,AAXX 21064 41863 02957 00503 10280 20150 30082 40125 333 59003 70000==
41863,2022,11,21,09,00,AAXX 21094 41863 02957 02702 10293 20140 30060 40102 333 58002 70000==
41863,2022,11,21,12,00,AAXX 21124 41863 02950 00000 10233 20170 30061 40104 333 10294 58002 70000==
41863,2022,11,21,15,00,AAXX 21154 41863 01950 02702 10182 20160 30077 40121 70500 333 59001 70000==
41863,2022,11,21,18,00,AAXX 21184 41863 01950 00000 10167 20160 30080 40125 70500 333 58004 70000==
41863,2022,11,21,21,00,AAXX 21214 41863 01950 00000 10156 20150 30078 40123 70500 333 58005 70000==
41863,2022,11,22,00,00,AAXX 22004 41863 01950 02302 10153 20140 30078 40123 70500 333 58014 70000==
41863,2022,11,22,03,00,AAXX 22034 41863 02956 02701 10195 20150 30105 40149 333 20146 58012 70000==
41863,2022,11,22,06,00,AAXX 22064 41863 32957 00502 10278 20160 30089 40132 333 58007 70000=
41863,2022,11,22,09,00,AAXX 22094 41863 02957 02701 10293 20160 30057 40099 333 59003 70000==
41863,2022,11,22,12,00,AAXX 22124 41863 01950 00000 10230 20190 30054 40097 70500 333 10295 59007 70000==
41863,2022,11,22,15,00,AAXX 22154 41863 01950 00000 10191 20170 30071 40115 70500 333 59006 70000==
41863,2022,11,22,18,00,AAXX 22184 41863 01950 02701 10180 20160 30078 40122 70500 333 59002 70000==
41863,2022,11,22,21,00,AAXX 22214 41863 01950 02701 10168 20150 30075 40120 70500 333 59003 70000==
41863,2022,11,23,00,00,AAXX 23004 41863 01940 02702 10165 20150 30082 40127 70500 333 58004 70000==
41863,2022,11,23,03,00,AAXX 23034 41863 02956 02702 10197 20160 30104 40148 333 20155 59001 70000==
41863,2022,11,23,06,00,AAXX 23064 41863 32957 02701 10276 20160 30089 40130 333 58000 70000=
41863,2022,11,23,09,00,AAXX 23094 41863 02557 22702 10290 20130 30058 40100 82400 333 58001 70000 82620==
41863,2022,11,23,12,00,AAXX 23124 41863 01950 00000 10236 20190 30056 40099 70500 333 10295 58002 70000==
41863,2022,11,23,15,00,AAXX 23154 41863 01950 02701 10195 20170 30077 40121 70500 333 58006 70000==
41863,2022,11,23,18,00,AAXX 23184 41863 01950 02701 10180 20160 30080 40124 70500 333 58002 70000==
41863,2022,11,23,21,00,AAXX 23214 41863 01940 03101 10167 20160 30076 40120 70500 333 58001 70000==
41863,2022,11,24,00,00,AAXX 24004 41863 01950 02701 10150 20190 30075 40120 70500 333 59007 70000==
41863,2022,11,24,03,00,AAXX 24034 41863 02956 00501 10228 20160 30101 40145 333 20146 59003 70000==
41863,2022,11,24,06,00,AAXX 24064 41863 02957 00901 10276 20160 30089 40132 333 58002 70000==
41863,2022,11,24,09,00,AAXX 24094 41863 02957 00000 10295 20170 30063 40105 333 58005 70000==
41863,2022,11,24,12,00,AAXX 24124 41863 02950 00000 10242 20190 30069 40112 333 10300 58013 70000==
41863,2022,11,24,15,00,AAXX 24154 41863 01950 00000 10192 20180 30094 40138 70500 333 58017 70000==
41863,2022,11,24,18,00,AAXX 24184 41863 01950 00000 10180 20170 30100 40144 70500 333 58020 70000==
41863,2022,11,24,21,00,AAXX 24214 41863 01950 00000 10167 20160 30093 40138 70500 333 58017 70000==
41881,2022,11,18,00,00,AAXX 18004 41881 31940 00000 10156 20156 30113 40133 70500 333 58017 70000=
41881,2022,11,18,12,00,AAXX 18124 41881 32956 03601 10235 20220 30100 40120 333 10290 58011 70000=
41881,2022,11,18,18,00,AAXX 18184 41881 32950 03101 10173 20160 30127 40148 333 58014 70000=
41881,2022,11,19,00,00,AAXX 19004 41881 31940 00000 10158 20158 30124 40145 70500 333 58011 70000=
41881,2022,11,19,03,00,AAXX 19034 41881 32457 43602 10272 20160 30119 40139 81501 333 56909 59004 70000 81618 83082=
41881,2022,11,19,12,00,AAXX 19124 41881 32950 40000 10220 20180 30089 40110 333 10310 56009 59011 70000 84080=
41881,2022,11,19,18,00,AAXX 19184 41881 32950 00000 10162 20160 30103 40124 333 59024 70000=
41881,2022,11,20,00,00,AAXX 20004 41881 31950 20000 10137 20137 30103 40124 70510 81031 333 56099 59021 70000 81362=
41881,2022,11,20,06,00,AAXX 20064 41881 32457 60502 10302 20230 30098 40118 83531 333 56999 59025 70000 83618 83362=
41881,2022,11,20,12,00,AAXX 20124 41881 32956 00000 10224 20180 30082 40102 333 10303 59007 70000=
41881,2022,11,20,18,00,AAXX 20184 41881 32950 00000 10162 20160 30098 40118 333 59006 70000=
41881,2022,11,21,00,00,AAXX 21004 41881 31940 03401 10143 20140 30085 40106 70500 333 59018 70000=
41881,2022,11,21,06,00,AAXX 21064 41881 32957 33503 10265 20180 30100 40120 83001 333 56009 59009 70000 83082=
41881,2022,11,21,12,00,AAXX 21124 41881 32956 33501 10205 20160 30086 40107 80001 333 10281 56009 58004 70000 83082=
41881,2022,11,21,18,00,AAXX 21184 41881 32950 03401 10152 20150 30100 40121 333 58003 70000=
41881,2022,11,22,00,00,AAXX 22004 41881 31940 00000 10135 20135 30100 40121 70500 333 58015 70000=
41881,2022,11,22,12,00,AAXX 22124 41881 32950 00000 10117 20190 30078 40098 333 10285 59008 70000=
41881,2022,11,22,18,00,AAXX 22184 41881 32950 03101 10168 20160 30102 40123 333 58002 70000=
41881,2022,11,23,00,00,AAXX 23004 41881 31950 03101 10146 20146 30101 40122 70500 333 58001 70000=
41881,2022,11,23,06,00,AAXX 23064 41881 32956 03601 10270 20150 30110 40130 333 59002 70000=
41881,2022,11,23,12,00,AAXX 23124 41881 32956 02701 10215 20180 30083 40103 333 10288 58005 70000=
41881,2022,11,23,18,00,AAXX 23184 41881 32950 03101 10166 20150 30102 40123 333 58000 70000=
41881,2022,11,24,00,00,AAXX 24004 41881 31940 00000 10150 20150 30098 40119 70500 333 59003 70000=
41881,2022,11,24,06,00,AAXX 24064 41881 32950 03501 10271 20160 30108 40128 333 59002 70000=
41881,2022,11,24,12,00,AAXX 24124 41881 32950 00000 10220 20190 30093 40114 333 10290 58010 70000=
41881,2022,11,24,18,00,AAXX 24184 41881 32950 03101 10166 20150 30102 40123 333 58000 70000=
41881,2022,11,24,21,00,AAXX 24214 41881 32940 00000 10162 20150 30105 40125 333 58005 70000=
41883,2022,11,18,00,00,AAXX 18004 41883 02430 30000 10192 20180 30109 40130 83500 333 58013 70000 83616==
41883,2022,11,18,03,00,AAXX 18034 41883 02956 00000 10220 20180 30130 40151 333 20184 58013 70000==
41883,2022,11,18,06,00,AAXX 18064 41883 02456 33102 10288 20170 30123 40143 83500 333 58012 70000 83620==
41883,2022,11,18,09,00,AAXX 18094 41883 02456 43102 10292 20160 30095 40115 82510 333 58012 70000 82620 84458==
41883,2022,11,18,12,00,AAXX 18124 41883 02930 00000 10260 20190 30096 40116 333 10305 58006 70000==
41883,2022,11,18,15,00,AAXX 18154 41883 02930 00000 10225 20190 30119 40140 333 58010 70000==
41883,2022,11,18,18,00,AAXX 18184 41883 02930 00000 10203 20180 30123 40144 333 70000 85013==
41883,2022,11,18,21,00,AAXX 18214 41883 02930 00000 10190 20170 30117 40138 333 58011 70000==
41883,2022,11,19,00,00,AAXX 19004 41883 02/30 20000 10180 20160 30114 40135 82030 333 58005 70000 82362==
41883,2022,11,19,03,00,AAXX 19034 41883 02930 33102 10225 20180 30133 40154 80003 333 20174 58003 70000 83080==
41883,2022,11,19,06,00,AAXX 19064 41883 02956 50000 10290 20180 30113 40133 80001 333 59010 70000 85080==
41883,2022,11,19,09,00,AAXX 19094 41883 02956 50000 10308 20160 30088 40108 80001 333 59007 70000 85080==
41883,2022,11,19,12,00,AAXX 19124 41883 02930 50000 10256 20210 30090 40110 80001 333 10313 59006 70000 85080==
41883,2022,11,19,15,00,AAXX 19154 41883 02930 00000 10226 20190 30104 40125 333 59015 70000==
41883,2022,11,19,18,00,AAXX 19184 41883 02930 00000 10204 20180 30104 40125 333 59019 70000==
41883,2022,11,19,21,00,AAXX 19214 41883 02930 00000 10180 20160 30101 40122 333 59016 70000==
41883,2022,11,20,00,00,AAXX 20004 41883 32930 00000 10170 20160 30098 40119 333 59016 70000=
41883,2022,11,20,06,00,AAXX 20064 41883 02956 50000 10280 20170 30110 40130 80001 333 59003 70000 85080==
41883,2022,11,20,09,00,AAXX 20094 41883 02956 00000 10312 20100 30077 40097 333 59011 70000==
41883,2022,11,20,12,00,AAXX 20124 41883 02930 00000 10260 20160 30077 40097 333 10312 59013 70000==
41883,2022,11,20,15,00,AAXX 20154 41883 02930 00000 10210 20160 30099 40120 333 59005 70000==
41883,2022,11,20,18,00,AAXX 20184 41883 02930 00000 10260 20230 30104 40124 333 58013 70000==
41883,2022,11,20,21,00,AAXX 20214 41883 02930 00000 10174 20150 30076 40097 333 59025 70000==
41883,2022,11,21,00,00,AAXX 21004 41883 02930 40000 10168 20150 30082 40103 80001 333 59016 70000 88480==
41883,2022,11,21,03,00,AAXX 21034 41883 02956 00000 10214 20150 30108 40129 333 20156 59011 70000==
41883,2022,11,21,06,00,AAXX 21064 41883 02956 03102 10280 20160 30103 40123 333 59007 70000==
41883,2022,11,21,09,00,AAXX 21094 41883 02956 62704 10300 20120 30077 40097 80001 333 58000 70000 86080==
41883,2022,11,21,12,00,AAXX 21124 41883 02930 40000 10237 20160 30082 40103 80001 333 10300 58005 70000 84080==
41883,2022,11,21,15,00,AAXX 21154 41883 02930 00000 10202 20160 30099 40120 333 58000 70000==
41883,2022,11,21,18,00,AAXX 21184 41883 02930 00000 10196 20160 30099 40120 333 58003 70000==
41883,2022,11,21,21,00,AAXX 21214 41883 02930 00000 10184 20150 30092 40113 333 58016 70000==
41883,2022,11,22,00,00,AAXX 22004 41883 01930 00000 10166 20150 30099 40120 70500 333 58017 70000==
41883,2022,11,22,03,00,AAXX 22034 41883 02950 02702 10210 20150 30125 40146 333 20148 58017 70000==
41883,2022,11,22,06,00,AAXX 22064 41883 02950 02702 10274 20160 30112 40132 333 58009 70000==
41883,2022,11,22,09,00,AAXX 22094 41883 02950 00000 10292 20140 30078 40098 333 58001 70000==
41883,2022,11,22,12,00,AAXX 22124 41883 02930 00000 10244 20160 30074 40094 333 10298 59008 70000==
41883,2022,11,22,15,00,AAXX 22154 41883 02930 00000 10210 20170 30094 40115 333 59005 70000==
41883,2022,11,22,18,00,AAXX 22184 41883 02930 00000 10194 20170 30100 40121 333 58001 70000==
41883,2022,11,22,21,00,AAXX 22214 41883 02930 02702 10180 20150 30097 40118 333 58005 70000==
41883,2022,11,23,00,00,AAXX 23004 41883 02930 03103 10178 20160 30099 40120 333 58000 70000==
41883,2022,11,23,03,00,AAXX 23034 41883 02956 03602 10218 20170 30125 40146 333 20170 58000 70000==
41883,2022,11,23,06,00,AAXX 23064 41883 02956 03102 10286 20170 30112 40132 333 58000 70000==
41883,2022,11,23,09,00,AAXX 23094 41883 02956 00502 10300 20160 30080 40100 333 58002 70000==
41883,2022,11,23,12,00,AAXX 23124 41883 02930 00000 10242 20180 30075 40095 333 10304 58001 70000==
41883,2022,11,23,15,00,AAXX 23154 41883 02930 00000 10212 20160 30097 40118 333 58003 70000==
41883,2022,11,23,18,00,AAXX 23184 41883 02930 00000 10204 20160 30101 40122 333 58001 70000==
41883,2022,11,23,21,00,AAXX 23214 41883 02930 00000 10190 20170 30095 40116 333 59002 70000==
41883,2022,11,24,00,00,AAXX 24004 41883 02930 00000 10174 20180 30092 40113 333 59009 70000==
41883,2022,11,24,03,00,AAXX 24034 41883 02956 02704 10215 20160 30119 40140 333 20166 59006 70000==
41883,2022,11,24,06,00,AAXX 24064 41883 02956 03104 10285 20170 30104 40124 333 59008 70000==
41883,2022,11,24,09,00,AAXX 24094 41883 02/56 50000 10298 20160 30080 40100 85030 333 58000 70000==
41883,2022,11,24,12,00,AAXX 24124 41883 02/30 50000 10250 20190 30090 40110 85031 333 10305 58015 70000 85362==
41883,2022,11,24,15,00,AAXX 24154 41883 02930 00000 10224 20170 30113 40134 333 58016 70000==
41883,2022,11,24,18,00,AAXX 24184 41883 02930 00000 10200 20180 30117 40138 333 58016 70000==
41883,2022,11,24,21,00,AAXX 24214 41883 02930 00000 10184 20160 30107 40128 333 58012 70000==
41886,2022,11,18,00,00,AAXX 18004 41886 01906 00000 10170 20170 30109 40130 74244 333 58003 70000==
41886,2022,11,18,03,00,AAXX 18034 41886 01950 00000 10235 20190 30132 40153 70544 333 20168 58011 70000==
41886,2022,11,18,09,00,AAXX 18094 41886 02457 30000 10280 20180 30096 40117 83400 333 58011 70000 82618==
41886,2022,11,18,12,00,AAXX 18124 41886 01956 00000 10224 20190 30100 40121 70511 333 10290 58008 70000==
41886,2022,11,18,15,00,AAXX 18154 41886 01925 00000 10190 20190 30119 40140 71040 333 58006 70000==
41886,2022,11,18,18,00,AAXX 18184 41886 01925 00000 10180 20180 30119 40140 71044 333 58006 70000==
41886,2022,11,18,21,00,AAXX 18214 41886 01/04 30000 10174 20160 30115 40136 74241 83030 333 58005 70000 83365==
41886,2022,11,19,00,00,AAXX 19004 41886 01/04 50000 10164 20150 30114 40135 74442 85030 333 58005 70000 85365==
41886,2022,11,19,03,00,AAXX 19034 41886 01/40 50000 10220 20180 30133 40154 70542 85030 333 20154 58001 70000 85365==
41886,2022,11,19,06,00,AAXX 19064 41886 01/57 50000 10278 20160 30116 40137 70242 85030 333 59004 70000 85365==
41886,2022,11,19,12,00,AAXX 19124 41886 01/50 70000 10226 20190 30090 40110 70522 83031 333 10295 59010 70000 83365 86080==
41886,2022,11,19,15,00,AAXX 19154 41886 01/20 70000 10190 20180 30105 40126 71042 83031 333 59014 70000 83365 86080==
41886,2022,11,19,18,00,AAXX 19184 41886 01/20 50000 10178 20170 30103 40124 71042 85030 333 59016 70000 85365==
41886,2022,11,19,21,00,AAXX 19214 41886 01908 00000 10190 20190 30122 40142 74044 333 58001 70000==
41886,2022,11,20,00,00,AAXX 20004 41886 01/08 50000 10160 20160 30099 40120 74242 85030 333 59015 70000 85365==
41886,2022,11,20,03,00,AAXX 20034 41886 01/50 20000 10230 20180 30122 40143 70542 82030 333 20156 59011 70000 82365==
41886,2022,11,20,06,00,AAXX 20064 41886 02456 80000 10285 20240 30098 40118 8352/ 333 59021 70000 83618 88460==
41886,2022,11,20,09,00,AAXX 20094 41886 02456 70000 10290 20240 30004 40024 83470 333 58010 70086 82618 85460==
41886,2022,11,20,12,00,AAXX 20124 41886 42950 40000 10312 20200 30082 40102 59008==
41886,2022,11,20,15,00,AAXX 20154 41886 01940 00000 10210 20180 30123 40143 70500 333 58001 70000==
41886,2022,11,20,18,00,AAXX 20184 41886 01/40 30000 10200 20180 30094 40115 70511 83030 333 59009 70000 83365==
41886,2022,11,20,21,00,AAXX 20214 41886 01/30 30000 10180 20160 30087 40108 71041 83030 333 59013 70000 83365==
41886,2022,11,21,00,00,AAXX 21004 41886 01/20 30000 10170 20150 30083 40104 71041 83030 333 59016 70000 83365==
41886,2022,11,21,03,00,AAXX 21034 41886 01/50 20000 10230 20180 30106 40127 70541 83030 333 20167 59016 70000 82365==
41886,2022,11,21,06,00,AAXX 21064 41886 01/57 30000 10280 20170 30097 40118 70341 83030 333 59007 70000 83365==
41886,2022,11,21,09,00,AAXX 21094 41886 02/57 60000 10282 20240 30077 40098 85041 333 58000 70000 85365 83080==
41886,2022,11,21,12,00,AAXX 21124 41886 01/50 50000 10224 20180 30084 40105 70521 84041 333 10296 58002 70000 84365==
41886,2022,11,21,15,00,AAXX 21154 41886 01950 00000 10188 20180 30100 40120 70521 333 58000 70000==
41886,2022,11,21,18,00,AAXX 21184 41886 01940 00000 10183 20170 30097 40118 70500 333 58003 70000==
41886,2022,11,21,21,00,AAXX 21214 41886 01930 00000 10178 20170 30096 40117 71044 333 58008 70000==
41886,2022,11,22,00,00,AAXX 22004 41886 01920 00000 10172 20160 30096 40117 71044 333 58013 70000==
41886,2022,11,22,03,00,AAXX 22034 41886 01950 00000 10226 20180 30122 40143 70540 333 20166 58016 70000==
41886,2022,11,22,09,00,AAXX 22094 41886 02958 00000 10290 20130 30076 40096 333 59001 70000==
41886,2022,11,22,12,00,AAXX 22124 41886 01950 00000 10220 20190 30078 40098 70500 333 10294 59006 70000==
41886,2022,11,22,15,00,AAXX 22154 41886 01940 00000 10190 20180 30095 40115 70500 333 59005 70000==
41886,2022,11,22,18,00,AAXX 22184 41886 NIL=
41886,2022,11,22,21,00,AAXX 22214 41886 01925 00000 10172 20160 30094 40115 71044 333 59002 70000==
41886,2022,11,23,00,00,AAXX 23004 41886 01920 00000 10167 20160 30103 40124 71044 333 58007 70000==
41886,2022,11,23,03,00,AAXX 23034 41886 01950 00000 10230 20180 30124 40144 70544 333 20165 58002 70000==
41886,2022,11,23,06,00,AAXX 23064 41886 31957 00000 10276 20180 30105 40125 70040 333 59002 70000=
41886,2022,11,23,09,00,AAXX 23094 41886 02457 30000 10285 20170 30080 40100 83400 333 58004 70000 82618==
41886,2022,11,23,12,00,AAXX 23124 41886 01950 00000 10232 20200 30082 40102 70510 333 10294 58004 70000==
41886,2022,11,23,15,00,AAXX 23154 41886 01940 00000 10200 20180 30100 40120 70500 333 58005 70000==
41886,2022,11,23,18,00,AAXX 23184 41886 01935 00000 10190 20180 30099 40119 70500 333 58003 70000==
41886,2022,11,23,21,00,AAXX 23214 41886 01925 00000 10175 20160 30097 40118 71044 333 58003 70000==
41886,2022,11,24,00,00,AAXX 24004 41886 01920 00000 10166 20160 30095 40116 71044 333 59007 70000==
41886,2022,11,24,03,00,AAXX 24034 41886 01940 00000 10223 20180 30120 40140 70544 333 20164 59004 70000==
41886,2022,11,24,06,00,AAXX 24064 41886 01956 00000 10270 20180 30104 40124 70040 333 59001 70000==
41886,2022,11,24,09,00,AAXX 24094 41886 02957 00000 10287 20150 30081 40101 333 58001 70000==
41886,2022,11,24,12,00,AAXX 24124 41886 01/50 30000 10230 20190 30092 40113 70510 83030 333 10293 58010 70000 83365==
41886,2022,11,24,15,00,AAXX 24154 41886 01940 00000 10195 20190 30116 40137 70500 333 58016 70000==
41886,2022,11,24,18,00,AAXX 24184 41886 01920 00000 10185 20180 30115 40136 71040 333 58016 70000==
41886,2022,11,24,21,00,AAXX 24214 41886 31904 00000 10162 20160 30108 40129 74444 333 58013 70000=
41888,2022,11,18,00,00,AAXX 18004 41888 31904 00901 10171 20171 30113 40123 74444 58007 70000=
41888,2022,11,18,12,00,AAXX 18124 41888 31950 00000 10225 20180 30104 40114 70500 333 10305 58006 70000=
41888,2022,11,18,18,00,AAXX 18184 41888 31902 00000 10170 20170 30125 40135 74244 333 58007 70000=
41888,2022,11,19,00,00,AAXX 19004 41888 31902 00000 10154 20154 30121 40131 74444 333 58008 70000=
41888,2022,11,19,03,00,AAXX 19034 41888 31956 60902 10275 20150 30118 40127 70341 80009 333 56009 59009 70000 86080=
41888,2022,11,19,12,00,AAXX 19124 41888 31940 60000 10225 20190 30092 40102 70522 83031 333 56099 59012 70000 83365 86080=
41888,2022,11,19,18,00,AAXX 19184 41888 31902 00000 10170 20170 30111 40121 74241 333 59014 70000=
41888,2022,11,20,00,00,AAXX 20004 41888 31908 00000 10218 20218 30100 40110 74044 333 58000 70000=
41888,2022,11,20,06,00,AAXX 20064 41888 31956 32101 10290 20140 30112 40122 70240 83030 56090 59006 70000 83365=
41888,2022,11,20,12,00,AAXX 20124 41888 31950 00000 10230 20190 30107 40117 70500 333 10297 59003 70000=
41888,2022,11,20,18,00,AAXX 20184 41888 31920 03601 10192 20180 30100 40110 71041 333 59011 70000=
41888,2022,11,21,00,00,AAXX 21004 41888 31906 30000 10168 20168 30089 40099 74241 83030 333 56090 59012 70000 83365=
41888,2022,11,21,06,00,AAXX 21064 41888 31956 42702 10290 20180 30098 40107 70342 80001 333 56009 59014 70000 84080=
41888,2022,11,21,12,00,AAXX 21124 41888 31950 43103 10214 20180 30092 40102 70522 81031 333 10315 56099 58004 70000 81365 84080=
41888,2022,11,21,18,00,AAXX 21184 41888 31920 03103 10175 20170 30105 40115 71041 333 58005 70000=
41888,2022,11,22,00,00,AAXX 22004 41888 31902 00000 10155 20155 30097 40107 74444 333 59004 70000=
41888,2022,11,22,12,00,AAXX 22124 41888 31945 00000 10219 20190 30082 40092 70500 333 10297 59010 70000=
41888,2022,11,22,18,00,AAXX 22184 41888 31910 00000 10180 20180 30099 40109 71040 333 59006 70000=
41888,2022,11,23,00,00,AAXX 23004 41888 31903 00000 10162 20160 30106 40116 74444 333 58009 70000=
41888,2022,11,23,06,00,AAXX 23064 41888 32556 10901 10273 20160 30112 40122 81400 333 56900 59007 70000 82620=
41888,2022,11,23,12,00,AAXX 23124 41888 31945 00000 10222 20180 30090 40100 70510 333 10296 58008 70000=
41888,2022,11,23,18,00,AAXX 23184 41888 31907 00000 10180 20180 30106 40116 74240 333 58007 70000=
41888,2022,11,24,00,00,AAXX 24004 41888 31/02 90000 10162 20160 30104 40114 74544 89/// 333 56999 59002 70000=
41888,2022,11,24,06,00,AAXX 24064 41888 31456 11201 10264 20180 30115 40125 70341 333 58003 70000 81618=
41888,2022,11,24,12,00,AAXX 24124 41888 31945 20000 10228 20190 30098 40108 70511 80001 333 10288 56009 58008 70000 82080=
41888,2022,11,24,18,00,AAXX 24184 41888 31903 00000 10180 20180 30122 40132 74441 333 58016 70000=
41888,2022,11,24,21,00,AAXX 24214 41888 NIL=
41891,2022,11,18,00,00,AAXX 18004 41891 01930 00904 10185 20180 30055 40125 70500 333 58000 70000==
41891,2022,11,18,03,00,AAXX 18034 41891 01950 01404 10244 20150 30100 40139 70500 333 20182 58007 70000==
41891,2022,11,18,06,00,AAXX 18064 41891 02956 01603 10281 20150 30085 40124 333 58009 70000==
41891,2022,11,18,09,00,AAXX 18094 41891 02956 02504 10298 20200 30076 40114 333 58004 70000==
41891,2022,11,18,12,00,AAXX 18124 41891 01940 00000 10241 20200 30070 40109 70500 333 10304 58011 70000==
41891,2022,11,18,15,00,AAXX 18154 41891 01940 00000 10212 20180 30088 40127 70500 333 58005 70000==
41891,2022,11,18,18,00,AAXX 18184 41891 01935 00000 10194 20170 30100 40140 70500 333 58019 70000==
41891,2022,11,18,21,00,AAXX 18214 41891 01935 00000 10186 20170 30087 40127 70500 333 58012 70000==
41891,2022,11,19,00,00,AAXX 19004 41891 01945 00000 10180 20150 30090 40130 70500 333 58005 70000==
41891,2022,11,19,03,00,AAXX 19034 41891 01445 20904 10240 20150 30105 40144 70511 82500 333 20175 58005 70000==
41891,2022,11,19,06,00,AAXX 19064 41891 01450 41505 10280 20170 30084 40122 70511 82530 333 59001 70000 82615 84365==
41891,2022,11,19,09,00,AAXX 19094 41891 01950 01104 10295 20130 30052 40090 70521 83530 333 59024 70000 83616 84365==
41891,2022,11,19,12,00,AAXX 19124 41891 01430 61603 10240 20200 30059 40098 70521 83570 333 10304 59011 70000 83616 84365==
41891,2022,11,19,15,00,AAXX 19154 41891 01930 00000 10220 20180 30076 40115 70522 333 59012 70000==
41891,2022,11,19,18,00,AAXX 19184 41891 01930 00000 10203 20170 30090 40129 70520 333 59010 70000==
41891,2022,11,19,21,00,AAXX 19214 41891 01930 00000 10188 20170 30082 40122 70500 333 59005 70000==
41891,2022,11,20,00,00,AAXX 20004 41891 31930 00904 10182 20170 30088 40128 70500 333 59002 70000=
41891,2022,11,20,06,00,AAXX 20064 41891 01/30 30804 10290 20140 30073 40111 70510 83030 333 59011 70000 83365==
41891,2022,11,20,09,00,AAXX 20094 41891 01450 40000 10312 20140 30047 40085 70511 81530 333 59005 70000 81618 84365==
41891,2022,11,20,12,00,AAXX 20124 41891 01440 63404 10260 20190 30052 40090 70521 83530 333 10323 59007 70000 83616 85365==
41891,2022,11,20,15,00,AAXX 20154 41891 01/30 33503 10226 20200 30067 40105 70521 83010 333 59009 70000 83460==
41891,2022,11,20,18,00,AAXX 20184 41891 01930 00604 10265 20250 30070 40108 70510 333 58013 70000==
41891,2022,11,20,21,00,AAXX 20214 41891 01930 03404 10198 20170 30055 40095 70511 333 59027 70000==
41891,2022,11,21,00,00,AAXX 21004 41891 01/30 30804 10190 20170 30052 40092 70511 83030 333 59036 70000 83365==
41891,2022,11,21,03,00,AAXX 21034 41891 01950 00904 10250 20160 30076 40114 70500 333 20187 59013 70000==
41891,2022,11,21,06,00,AAXX 21064 41891 01950 02002 10304 20170 30060 40098 70500 333 59013 70000==
41891,2022,11,21,09,00,AAXX 21094 41891 01450 20904 10305 20150 30046 40084 70511 82500 333 59001 70000 82615==
41891,2022,11,21,12,00,AAXX 21124 41891 01435 20000 10250 20190 30047 40086 70511 82500 333 10315 59005 70000 82615==
41891,2022,11,21,15,00,AAXX 21154 41891 01935 00000 10217 20190 30069 40108 70500 333 58002 70000==
41891,2022,11,21,18,00,AAXX 21184 41891 01930 00000 10197 20190 30070 40109 70500 333 58006 70000==
41891,2022,11,21,21,00,AAXX 21214 41891 01930 00000 10186 20180 30063 40102 70500 333 58008 70000==
41891,2022,11,22,00,00,AAXX 22004 41891 01935 00000 10180 20170 30069 40109 70500 333 58017 70000==
41891,2022,11,22,03,00,AAXX 22034 41891 01945 01502 10245 20200 30096 40135 70500 333 20175 58020 70000==
41891,2022,11,22,06,00,AAXX 22064 41891 01950 01804 10280 20200 30075 40113 70500 333 58015 70000==
41891,2022,11,22,09,00,AAXX 22094 41891 01/50 31104 10292 20190 30040 40078 70510 83010 333 59006 70000 83458==
41891,2022,11,22,12,00,AAXX 22124 41891 01430 12705 10250 20200 30047 40086 70510 81500 333 10302 58000 70000 81618==
41891,2022,11,22,15,00,AAXX 22154 41891 01930 03504 10222 20190 30064 40103 70500 333 59005 70000==
41891,2022,11,22,18,00,AAXX 22184 41891 01930 00000 10206 20200 30068 40107 70500 333 59002 70000==
41891,2022,11,22,21,00,AAXX 22214 41891 01930 00000 10188 20180 30067 40107 70500 333 58004 70000==
41891,2022,11,23,00,00,AAXX 23004 41891 01420 40603 10180 20180 30074 40114 70511 81540 333 58005 70000 81616 84365==
41891,2022,11,23,03,00,AAXX 23034 41891 01420 40804 10218 20190 30095 40134 71021 81510 333 20177 59001 70000 81618 84458==
41891,2022,11,23,06,00,AAXX 23064 41891 31440 32404 10274 20180 30071 40109 70521 81530 333 56990 59004 70000 81618 83365=
41891,2022,11,23,09,00,AAXX 23094 41891 01450 20502 10290 20180 30051 40089 70511 82500 333 58011 70000 82615==
41891,2022,11,23,12,00,AAXX 23124 41891 01435 20902 10255 20190 30055 40093 70511 82500 333 10303 58008 70000 82615==
41891,2022,11,23,15,00,AAXX 23154 41891 01930 03003 10225 20200 30067 40106 70510 333 58003 70000==
41891,2022,11,23,18,00,AAXX 23184 41891 01/30 13003 10210 20190 30068 40107 70510 81010 333 58000 70000 81458==
41891,2022,11,23,21,00,AAXX 23214 41891 01920 03604 10200 20200 30064 40104 71000 333 59003 70000==
41891,2022,11,24,00,00,AAXX 24004 41891 01905 01204 10188 20188 30067 40107 74040 333 59007 70000==
41891,2022,11,24,03,00,AAXX 24034 41891 01945 01102 10230 20180 30092 40131 70540 333 20185 59007 70000==
41891,2022,11,24,06,00,AAXX 24064 41891 01950 00904 10272 20170 30075 40113 70540 333 58004 70000==
41891,2022,11,24,09,00,AAXX 24094 41891 01550 21204 10290 20130 30049 40087 70510 82130 333 59002 70000 81618 81365==
41891,2022,11,24,12,00,AAXX 24124 41891 01530 23603 10240 20180 30064 40103 70510 81130 333 10297 58009 70000 81828 82365==
41891,2022,11,24,15,00,AAXX 24154 41891 41430 20000 10215 20190 30085 40124 70511 82500==
41891,2022,11,24,18,00,AAXX 24184 41891 01430 20000 10198 20190 30093 40132 70511 82500 333 58025 70000 82615==
41891,2022,11,24,21,00,AAXX 24214 41891 01430 30000 10192 20180 30088 40128 70511 82530 333 58024 70000 82615 83365==
41895,2022,11,18,00,00,AAXX 18004 41895 01950 03601 10180 20160 30102 40125 70500 333 58000 70000==
41895,2022,11,18,03,00,AAXX 18034 41895 01956 03602 10203 20180 30132 40155 70500 333 20167 58022 70000==
41895,2022,11,18,09,00,AAXX 18094 41895 01956 00503 10285 20180 30092 40115 70500 333 58017 70000==
41895,2022,11,18,12,00,AAXX 18124 41895 01950 02701 10240 20190 30098 40121 70500 333 10288 58019 70000==
41895,2022,11,18,15,00,AAXX 18154 41895 01950 03101 10220 20180 30118 40141 70500 333 58016 70000==
41895,2022,11,18,18,00,AAXX 18184 41895 01950 03101 10195 20160 30123 40146 70500 333 58013 70000==
41895,2022,11,18,21,00,AAXX 18214 41895 01950 03102 10185 20150 30116 40139 70500 333 58012 70000==
41895,2022,11,19,00,00,AAXX 19004 41895 01950 23102 10170 20130 30114 40137 70510 80001 333 58012 70000 82074==
41895,2022,11,19,03,00,AAXX 19034 41895 01956 23104 10204 20110 30132 40155 70511 80001 333 20164 58000 70000 82074==
41895,2022,11,19,06,00,AAXX 19064 41895 01957 33603 10270 20150 30112 40135 70511 80001 333 59010 70000 83074==
41895,2022,11,19,12,00,AAXX 19124 41895 02950 30000 10230 20180 30089 40112 80001 333 10304 59009 70000 83074==
41895,2022,11,19,15,00,AAXX 19154 41895 01950 00000 10210 20170 30098 40121 70510 333 59020 70000==
41895,2022,11,19,18,00,AAXX 19184 41895 01950 00000 10190 20170 30113 40136 70500 333 59010 70000==
41895,2022,11,19,21,00,AAXX 19214 41895 01950 00000 10180 20170 30110 40133 70500 333 59006 70000==
41895,2022,11,20,00,00,AAXX 20004 41895 02950 00000 10216 20210 30093 40116 333 58006 70000==
41895,2022,11,20,03,00,AAXX 20034 41895 01956 03603 10202 20150 30120 40143 70500 333 20164 59012 70000==
41895,2022,11,20,06,00,AAXX 20064 41895 01956 33603 10270 20150 30110 40133 70510 80001 333 59002 70000 83074==
41895,2022,11,20,09,00,AAXX 20094 41895 01956 03601 10292 20110 30092 40114 70500 333 59002 70000==
41895,2022,11,20,12,00,AAXX 20124 41895 02/56 40000 10286 20260 30064 40086 84030 333 10346 59016 70000 84362==
41895,2022,11,20,15,00,AAXX 20154 41895 01950 00000 10183 20160 30115 40138 70500 333 59002 70000==
41895,2022,11,20,18,00,AAXX 20184 41895 01950 03302 10190 20160 30094 40117 70500 333 59019 70000==
41895,2022,11,20,21,00,AAXX 20214 41895 01950 03102 10177 20150 30089 40112 70500 333 59021 70000==
41895,2022,11,21,00,00,AAXX 21004 41895 01950 03101 10169 20150 30086 40109 70500 333 59012 70000==
41895,2022,11,21,03,00,AAXX 21034 41895 01956 03603 10206 20150 30109 40132 70500 333 20164 59011 70000==
41895,2022,11,21,06,00,AAXX 21064 41895 01956 23104 10270 20140 30102 40125 70510 80001 333 59008 70000 82080==
41895,2022,11,21,09,00,AAXX 21094 41895 01956 23102 10288 20140 30078 40100 70511 333 58000 70000 80001 82080==
41895,2022,11,21,12,00,AAXX 21124 41895 01950 00000 10245 20170 30073 40095 70510 333 10292 59009 70000==
41895,2022,11,21,15,00,AAXX 21154 41895 01950 03101 10184 20150 30093 40116 70500 333 59005 70000==
41895,2022,11,21,18,00,AAXX 21184 41895 NIL=
41895,2022,11,21,21,00,AAXX 21214 41895 01950 00000 10151 20130 30098 40122 70500 333 58009 70000==
41895,2022,11,22,00,00,AAXX 22004 41895 01950 00000 10140 20130 30096 40120 70500 333 58010 70000==
41895,2022,11,22,03,00,AAXX 22034 41895 01956 03101 10185 20160 30122 40145 70500 333 20133 58013 70000==
41895,2022,11,22,09,00,AAXX 22094 41895 02957 03101 10284 20130 30081 40104 333 58003 70000==
41895,2022,11,22,12,00,AAXX 22124 41895 02950 00000 10234 20160 30080 40103 333 10294 58007 70000==
41895,2022,11,22,15,00,AAXX 22154 41895 02950 00000 10190 20170 30089 40112 333 59004 70000==
41895,2022,11,22,18,00,AAXX 22184 41895 01950 00000 10174 20150 30099 40123 70500 333 58000 70000==
41895,2022,11,22,21,00,AAXX 22214 41895 01950 00000 10160 20150 30096 40120 70500 333 59002 70000==
41895,2022,11,23,00,00,AAXX 23004 41895 01950 00000 10146 20140 30100 40124 70500 333 58004 70000==
41895,2022,11,23,03,00,AAXX 23034 41895 01956 00000 10200 20150 30123 40146 70500 333 20142 58001 70000==
41895,2022,11,23,06,00,AAXX 23064 41895 31956 03103 10270 20130 30107 40130 70500 333 59004 70000=
41895,2022,11,23,09,00,AAXX 23094 41895 01956 02902 10284 20110 30079 40101 70500 333 59002 70000==
41895,2022,11,23,12,00,AAXX 23124 41895 01956 02703 10212 20160 30083 40105 70500 333 10291 58003 70000==
41895,2022,11,23,15,00,AAXX 23154 41895 01950 02902 10174 20150 30099 40122 70500 333 58010 70000==
41895,2022,11,23,18,00,AAXX 23184 41895 01950 00000 10159 20150 30102 40125 70500 333 58003 70000==
41895,2022,11,23,21,00,AAXX 23214 41895 01950 02902 10150 20130 30101 40124 70500 333 58005 70000==
41895,2022,11,24,00,00,AAXX 24004 41895 01950 00000 10139 20130 30095 40118 70500 333 59005 70000==
41895,2022,11,24,03,00,AAXX 24034 41895 01956 03602 10195 20130 30119 40142 70500 333 20136 59004 70000==
41895,2022,11,24,06,00,AAXX 24064 41895 01956 03102 10265 20120 30107 40130 70500 333 58000 70000==
41895,2022,11,24,09,00,AAXX 24094 41895 01956 03103 10286 20150 30083 40105 70500 333 58004 70000==
41895,2022,11,24,12,00,AAXX 24124 41895 01950 00000 10235 20190 30085 40107 70500 333 10293 58002 70000==
41895,2022,11,24,15,00,AAXX 24154 41895 01950 03101 10201 20160 30105 40128 70500 333 58006 70000==
41895,2022,11,24,18,00,AAXX 24184 41895 01950 03101 10184 20150 30111 40134 70500 333 58009 70000==
41895,2022,11,24,21,00,AAXX 24214 41895 01950 03602 10173 20150 30106 40129 70500 333 58005 70000==
41897,2022,11,18,00,00,AAXX 18004 41897 31940 03601 10170 20160 30115 40129 70500 333 58014 70000=
41897,2022,11,18,06,00,AAXX 18064 41897 31450 13602 10270 20170 30122 40136 70500 81500 333 56900 58013 70000 81618=
41897,2022,11,18,12,00,AAXX 18124 41897 31950 01801 10225 20210 30109 40123 70500 333 10310 58012 70000=
41897,2022,11,18,18,00,AAXX 18184 41897 31940 00000 10186 20186 30122 40135 70500 333 58003 70000=
41897,2022,11,19,00,00,AAXX 19004 41897 31940 03602 10170 20160 30118 40132 70500 333 58003 70000=
41897,2022,11,19,03,00,AAXX 19034 41897 NIL=
41897,2022,11,19,06,00,AAXX 19064 41897 31956 00902 10270 20180 30115 40128 70500 333 59007 70000=
41897,2022,11,19,12,00,AAXX 19124 41897 31950 00000 10220 20160 30101 40114 70500 333 10302 58002 70000=
41897,2022,11,19,18,00,AAXX 19184 41897 31940 03601 10175 20175 30105 40118 70500 333 59017 70000=
41897,2022,11,20,00,00,AAXX 20004 41897 31925 00901 10220 20210 30129 40142 70500 333 58011 70000=
41897,2022,11,20,06,00,AAXX 20064 41897 31956 13602 10270 20170 30113 40126 70500 81300 333 56090 59013 70000 81362=
41897,2022,11,20,12,00,AAXX 20124 41897 31950 10000 10232 20170 30089 40102 70500 81030 333 10302 56090 59012 70000 81362=
41897,2022,11,20,18,00,AAXX 20184 41897 31950 00000 10200 20160 30095 40109 70500 333 59010 70000=
41897,2022,11,21,00,00,AAXX 21004 41897 31940 00000 10166 20150 30088 40101 70500 333 59018 70000=
41897,2022,11,21,06,00,AAXX 21064 41897 31950 23601 10265 20250 30101 40115 70500 82030 333 56090 59012 70000 82361=
41897,2022,11,21,12,00,AAXX 21124 41897 31950 00000 10230 20170 30086 40099 70500 333 10284 59003 70000=
41897,2022,11,21,18,00,AAXX 21184 41897 31950 00000 10186 20170 30096 40110 70500 333 58001 70000=
41897,2022,11,22,00,00,AAXX 22004 41897 31940 00000 10153 20140 30100 40114 70500 333 58012 70000=
41897,2022,11,22,12,00,AAXX 22124 41897 31950 00000 10209 20190 30083 40096 70500 333 10280 59003 70000=
41897,2022,11,22,18,00,AAXX 22184 41897 31950 00000 10180 20170 30097 40110 70500 333 58001 70000=
41897,2022,11,23,00,00,AAXX 23004 41897 31950 00000 10176 20170 30098 40111 70500 333 59000 70000=
41897,2022,11,23,06,00,AAXX 23064 41897 31950 03601 10271 20150 30109 40123 70500 333 58010 70000=
41897,2022,11,23,12,00,AAXX 23124 41897 31950 01701 10235 20170 30089 40102 70500 333 10285 58006 70000=
41897,2022,11,23,18,00,AAXX 23184 41897 31940 02701 10180 20160 30100 40113 70500 333 58003 70000=
41897,2022,11,24,00,00,AAXX 24004 41897 31930 03601 10155 20150 30098 40111 70500 333 59001 70000=
41897,2022,11,24,06,00,AAXX 24064 41897 31950 03602 10282 20150 30106 40119 70500 333 59003 70000=
41897,2022,11,24,12,00,AAXX 24124 41897 31950 03601 10240 20190 30094 40108 70500 333 10295 58005 70000=
41897,2022,11,24,18,00,AAXX 24184 41897 31940 03301 10188 20170 30117 40130 70500 333 58017 70000=
41897,2022,11,24,21,00,AAXX 24214 41897 NIL=
41902,2022,11,18,00,00,AAXX 18004 41902 31930 00000 10189 20180 30106 40115 70544 333 58007 70000=
41902,2022,11,18,06,00,AAXX 18064 41902 31450 32701 10275 20200 30116 40124 70340 82401 333 56909 58008 70000 81614 83080=
41902,2022,11,18,12,00,AAXX 18124 41902 NIL=
41902,2022,11,18,18,00,AAXX 18184 41902 NIL=
41902,2022,11,19,00,00,AAXX 19004 41902 31430 43601 10176 20170 30117 40126 70544 82430 333 56990 58011 70000 82614 83362=
41902,2022,11,19,03,00,AAXX 19034 41902 31450 50504 10265 20180 30111 40119 70540 81531 333 56999 59005 70000 81614 83362=
41902,2022,11,19,12,00,AAXX 19124 41902 31440 30000 10232 20190 30094 40102 70500 81501 333 10281 56909 70000 81614 83362=
41902,2022,11,19,18,00,AAXX 19184 41902 NIL=
41902,2022,11,20,00,00,AAXX 20004 41902 31430 43301 10183 20170 30100 40109 70544 82530 333 56990 59017 70000 82614 83362=
41902,2022,11,20,06,00,AAXX 20064 41902 31450 30501 10282 20170 30106 40114 70140 82530 333 56990 59005 70000 81614=
41902,2022,11,20,12,00,AAXX 20124 41902 31450 43601 10248 20210 30084 40093 70522 82530 333 10300 56990 59010 70000 82616 84362=
41902,2022,11,20,18,00,AAXX 20184 41902 31940 22701 10215 20200 30093 40102 70540 82030 333 56090 59015 70000 82362=
41902,2022,11,21,00,00,AAXX 21004 41902 31420 42701 10185 20180 30085 40093 71044 82530 333 56990 59015 70000 82615 83362=
41902,2022,11,21,06,00,AAXX 21064 41902 31450 52701 10290 20160 30095 40103 70342 82530 333 56990 59011 70000 82616 85362=
41902,2022,11,21,12,00,AAXX 21124 41902 31440 12702 10235 20190 30084 40093 70511 81500 333 10310 56900 58000 70000 81616=
41902,2022,11,21,18,00,AAXX 21184 41902 31430 12701 10187 20180 30097 40106 70544 81500 333 56900 58004 70000 81616=
41902,2022,11,22,00,00,AAXX 22004 41902 31415 32701 10170 20160 30100 40106 71044 81530 333 56990 58015 70000 81616 83362=
41902,2022,11,22,12,00,AAXX 22124 41902 31940 02701 10195 20170 30080 40089 333 70500 10280 59004 70000=
41902,2022,11,22,18,00,AAXX 22184 41902 31930 02701 10187 20180 30096 40105 70544 333 59001 70000=
41902,2022,11,23,00,00,AAXX 23004 41902 31415 23101 10178 20170 30097 40106 71044 82500 333 56900 59003 70000 82616=
41902,2022,11,23,06,00,AAXX 23064 41902 31450 20202 10272 20160 30104 40113 70344 82500 333 56900 59004 70000 82616=
41902,2022,11,23,12,00,AAXX 23124 41902 31440 20000 10218 20170 30084 40093 70500 82500 333 10285 56900 58004 70000 82616=
41902,2022,11,23,18,00,AAXX 23184 41902 31930 02701 10192 20170 30101 40110 70544 333 58005 70000=
41902,2022,11,24,00,00,AAXX 24004 41902 31408 12701 10167 20167 30097 40106 74244 81500 333 56900 58000 70000 81616=
41902,2022,11,24,06,00,AAXX 24064 41902 31450 20502 10268 20170 30108 40117 70344 82500 333 56900 58004 70000 82616=
41902,2022,11,24,12,00,AAXX 24124 41902 31930 03501 10232 20160 30097 40106 70500 333 10285 58017 70000=
41902,2022,11,24,18,00,AAXX 24184 41902 NIL=
41902,2022,11,24,21,00,AAXX 24214 41902 NIL=
41907,2022,11,18,00,00,AAXX 18004 41907 01940 00000 10162 20160 30107 40122 70500 333 58010 70000==
41907,2022,11,18,03,00,AAXX 18034 41907 01940 03102 10205 20170 30126 40141 70500 333 20160 58011 70000==
41907,2022,11,18,06,00,AAXX 18064 41907 01950 03602 10272 20160 30117 40132 70500 333 58011 70000==
41907,2022,11,18,09,00,AAXX 18094 41907 01450 23102 10285 20160 30091 40105 70500 82500 333 58010 70000 82616==
41907,2022,11,18,12,00,AAXX 18124 41907 01440 30000 10227 20190 30095 40110 70500 83500 333 10290 58009 70000 83615==
41907,2022,11,18,15,00,AAXX 18154 41907 01940 03602 10212 20180 30115 40130 70500 333 58003 70000==
41907,2022,11,18,18,00,AAXX 18184 41907 01940 00000 10190 20170 30122 40138 70500 333 58002 70000==
41907,2022,11,18,21,00,AAXX 18214 41907 01940 03103 10180 20150 30115 40131 70500 333 58003 70000==
41907,2022,11,19,00,00,AAXX 19004 41907 01940 03103 10170 20120 30110 40126 70500 333 58003 70000==
41907,2022,11,19,03,00,AAXX 19034 41907 01945 63103 10202 20110 30127 40142 70500 333 20158 58011 70000 86080==
41907,2022,11,19,06,00,AAXX 19064 41907 01950 63103 10280 20160 30109 40134 70520 333 58008 70000 86080==
41907,2022,11,19,09,00,AAXX 19094 41907 01950 63102 10290 20140 30081 40096 70522 333 59010 70000 86080==
41907,2022,11,19,12,00,AAXX 19124 41907 01940 00000 10225 20190 30089 40104 70522 333 10298 59006 70000 86080==
41907,2022,11,19,15,00,AAXX 19154 41907 01940 00000 10185 20180 30101 40116 70522 333 59014 70000==
41907,2022,11,19,18,00,AAXX 19184 41907 01940 00000 10175 20170 30099 40114 70520 333 59023 70000==
41907,2022,11,19,21,00,AAXX 19214 41907 01940 00000 10160 20150 30094 40110 70500 333 59021 70000==
41907,2022,11,20,00,00,AAXX 20004 41907 31940 00000 10160 20150 30094 40110 70500 333 59016 70000=
41907,2022,11,20,03,00,AAXX 20034 41907 01945 02702 10210 20170 30134 40149 70500 333 10155 59001 70000==
41907,2022,11,20,06,00,AAXX 20064 41907 01950 03602 10285 20150 30102 40116 70500 333 59007 70000==
41907,2022,11,20,09,00,AAXX 20094 41907 01950 02701 10303 20120 30076 40091 70500 333 59005 70000==
41907,2022,11,20,12,00,AAXX 20124 41907 01940 00000 10223 20180 30083 40098 70500 333 10305 59006 70000==
41907,2022,11,20,15,00,AAXX 20154 41907 01940 00000 10200 20180 30095 40110 70500 333 59006 70000==
41907,2022,11,20,18,00,AAXX 20184 41907 01940 00000 10190 20170 30099 40114 70500 333 58000 70000==
41907,2022,11,20,21,00,AAXX 20214 41907 01940 00000 10175 20170 30089 40104 70500 333 59005 70000==
41907,2022,11,21,00,00,AAXX 21004 41907 01940 00000 10155 20150 30079 40095 70500 333 59015 70000==
41907,2022,11,21,03,00,AAXX 21034 41907 01945 53602 10202 20160 30107 40122 70500 80001 333 20152 59009 70000 85080==
41907,2022,11,21,06,00,AAXX 21064 41907 01950 43103 10280 20130 30099 40114 70520 80001 333 59003 70000 84080==
41907,2022,11,21,09,00,AAXX 21094 41907 01950 33104 10286 20120 30075 40090 70511 80001 333 59001 70000 83080==
41907,2022,11,21,12,00,AAXX 21124 41907 01940 20000 10214 20160 30080 40095 70510 80001 333 10292 59003 70000 82080==
41907,2022,11,21,15,00,AAXX 21154 41907 01940 00000 10175 20160 30095 40110 70500 333 58000 70000==
41907,2022,11,21,18,00,AAXX 21184 41907 01940 00000 10173 20150 30097 40113 70500 333 59002 70000==
41907,2022,11,21,21,00,AAXX 21214 41907 01940 00000 10160 20140 30097 40113 70500 333 59008 70000==
41907,2022,11,22,00,00,AAXX 22004 41907 01940 00000 10145 20140 30097 40113 70500 333 59009 70000==
41907,2022,11,22,03,00,AAXX 22034 41907 01945 03602 10195 20160 30122 40137 70500 333 20142 58015 70000==
41907,2022,11,22,06,00,AAXX 22064 41907 01950 03102 10270 20130 30106 40121 70500 333 58007 70000==
41907,2022,11,22,09,00,AAXX 22094 41907 01950 03102 10280 20130 30078 40093 70500 333 58003 70000==
41907,2022,11,22,12,00,AAXX 22124 41907 01940 00000 10223 20230 30078 40093 70500 333 10288 59002 70000==
41907,2022,11,22,15,00,AAXX 22154 41907 01940 03102 10185 20170 30089 40104 70500 333 59006 70000==
41907,2022,11,22,18,00,AAXX 22184 41907 01940 03102 10182 20150 30096 40112 70500 333 59001 70000==
41907,2022,11,22,21,00,AAXX 22214 41907 01940 00000 10168 20150 30090 40106 70500 333 59007 70000==
41907,2022,11,23,00,00,AAXX 23004 41907 01940 00000 10155 20150 30096 40112 70500 333 59001 70000==
41907,2022,11,23,03,00,AAXX 23034 41907 01945 03102 10205 20150 30121 40136 70500 333 20152 59001 70000==
41907,2022,11,23,06,00,AAXX 23064 41907 01950 03605 10275 20120 30105 40120 70500 333 59001 70000==
41907,2022,11,23,09,00,AAXX 23094 41907 01950 03102 10281 20120 30081 40096 70500 333 58003 70000==
41907,2022,11,23,12,00,AAXX 23124 41907 01940 00000 10207 20170 30083 40099 70500 333 10288 58005 70000==
41907,2022,11,23,15,00,AAXX 23154 41907 01940 00000 10185 20170 30102 40118 70500 333 58013 70000==
41907,2022,11,23,18,00,AAXX 23184 41907 01940 00000 10175 20170 30114 40129 70500 333 58018 70000==
41907,2022,11,23,21,00,AAXX 23214 41907 01940 00000 10165 20160 30110 40125 70500 333 58020 70000==
41907,2022,11,24,00,00,AAXX 24004 41907 01940 00000 10143 20130 30100 40116 70500 333 58004 70000==
41907,2022,11,24,03,00,AAXX 24034 41907 01945 03602 10190 20130 30116 40131 70500 333 20141 59005 70000==
41907,2022,11,24,06,00,AAXX 24064 41907 01950 03102 10270 20130 30102 40117 70500 333 59003 70000==
41907,2022,11,24,09,00,AAXX 24094 41907 01950 03602 10288 20130 30080 40095 70500 333 59001 70000==
41907,2022,11,24,12,00,AAXX 24124 41907 01940 00000 10220 20180 30088 40103 70500 333 10289 58005 70000==
41907,2022,11,24,15,00,AAXX 24154 41907 01940 00000 10202 20160 30108 40123 70500 333 58006 70000==
41907,2022,11,24,18,00,AAXX 24184 41907 01940 00000 10186 20160 30119 40135 70500 333 58005 70000==
41907,2022,11,24,21,00,AAXX 24214 41907 01940 00000 10174 20160 30111 40126 70500 333 58001 70000==
41909,2022,11,18,00,00,AAXX 18004 41909 01930 00000 10186 20180 30109 40121 70500 333 58008 70000==
41909,2022,11,18,03,00,AAXX 18034 41909 01950 00000 10230 20180 30133 40145 70500 333 20182 58011 70000==
41909,2022,11,18,09,00,AAXX 18094 41909 02956 50000 10283 20170 30097 40108 82530 333 58008 70000 82615 85360==
41909,2022,11,18,12,00,AAXX 18124 41909 02940 00000 10232 20190 30102 40114 333 10295 58005 70000==
41909,2022,11,18,15,00,AAXX 18154 41909 02940 00000 10210 20180 30123 40135 333 58011 70000==
41909,2022,11,18,18,00,AAXX 18184 41909 01940 00000 10191 20180 30123 40135 70500 333 58012 70000==
41909,2022,11,18,21,00,AAXX 18214 41909 01940 00000 10187 20180 30120 40132 70500 333 58010 70000==
41909,2022,11,19,00,00,AAXX 19004 41909 01950 00000 10183 20170 30118 40130 70500 333 58009 70000==
41909,2022,11,19,03,00,AAXX 19034 41909 01450 50000 10204 20180 30124 40146 70500 82530 333 20175 58001 70000 82615 85360==
41909,2022,11,19,06,00,AAXX 19064 41909 02456 40000 10270 20170 30120 40131 81530 333 59006 70000 81618 84360==
41909,2022,11,19,12,00,AAXX 19124 41909 02440 50000 10240 20190 30093 40105 82530 333 10300 59009 70000 82615 85360==
41909,2022,11,19,15,00,AAXX 19154 41909 02940 00000 10205 20190 30110 40122 333 59013 70000==
41909,2022,11,19,18,00,AAXX 19184 41909 02940 00000 10195 20190 30104 40116 333 59019 70000==
41909,2022,11,19,21,00,AAXX 19214 41909 02940 00000 10200 20190 30122 40134 333 59004 70000==
41909,2022,11,20,00,00,AAXX 20004 41909 01930 00000 10210 20200 30095 40107 70500 333 59005 70000==
41909,2022,11,20,03,00,AAXX 20034 41909 01950 00000 10220 20190 30124 40136 70500 333 20176 59010 70000==
41909,2022,11,20,06,00,AAXX 20064 41909 02456 62301 10303 20210 30104 40115 82510 333 59016 70000 82616 86458==
41909,2022,11,20,09,00,AAXX 20094 41909 02956 00000 10290 20140 30103 40114 333 59001 70000==
41909,2022,11,20,12,00,AAXX 20124 41909 02940 00000 10238 20190 30086 40098 333 10308 59007 70000==
41909,2022,11,20,15,00,AAXX 20154 41909 01940 00000 10200 20180 30128 40140 70500 333 58003 70000==
41909,2022,11,20,18,00,AAXX 20184 41909 02440 60000 10260 20240 30080 40091 82510 333 59024 70000 82615 86458==
41909,2022,11,20,21,00,AAXX 20214 41909 02940 00000 10189 20170 30091 40103 333 59012 70000==
41909,2022,11,21,00,00,AAXX 21004 41909 02950 00000 10182 20170 30085 40097 333 59016 70000==
41909,2022,11,21,03,00,AAXX 21034 41909 02956 03401 10220 20170 30111 40123 333 20175 59013 70000==
41909,2022,11,21,06,00,AAXX 21064 41909 02956 03202 10272 20140 30106 40117 333 59006 70000==
41909,2022,11,21,09,00,AAXX 21094 41909 02456 40000 10290 20120 30084 40095 81530 333 58000 70000 81618 84360==
41909,2022,11,21,12,00,AAXX 21124 41909 02940 00000 10248 20180 30084 40095 333 10295 59002 70000==
41909,2022,11,21,15,00,AAXX 21154 41909 02940 00000 10202 20180 30104 40116 333 58000 70000==
41909,2022,11,21,18,00,AAXX 21184 41909 02940 00000 10190 20170 30105 40117 333 58005 70000==
41909,2022,11,21,21,00,AAXX 21214 41909 02940 00000 10185 20180 30102 40114 333 58011 70000==
41909,2022,11,22,00,00,AAXX 22004 41909 01930 00000 10170 20160 30101 40113 70500 333 58016 70000==
41909,2022,11,22,03,00,AAXX 22034 41909 02956 03201 10204 20140 30126 40138 333 20160 58015 70000==
41909,2022,11,22,09,00,AAXX 22094 41909 02956 03201 10280 20150 30080 40091 333 59004 70000==
41909,2022,11,22,12,00,AAXX 22124 41909 02940 00000 10221 20180 30081 40093 333 10285 59003 70000==
41909,2022,11,22,15,00,AAXX 22154 41909 02940 00000 10200 20180 30099 40111 333 59005 70000==
41909,2022,11,22,18,00,AAXX 22184 41909 02940 03201 10197 20170 30104 40116 333 58001 70000==
41909,2022,11,22,21,00,AAXX 22214 41909 02940 00000 10177 20160 30104 40116 333 58002 70000==
41909,2022,11,23,00,00,AAXX 23004 41909 02950 00000 10170 20160 30104 40116 333 58003 70000==
41909,2022,11,23,03,00,AAXX 23034 41909 02956 03601 10210 20160 30128 40140 333 20164 58002 70000==
41909,2022,11,23,06,00,AAXX 23064 41909 32956 03601 10277 20170 30111 40122 333 59004 70000=
41909,2022,11,23,12,00,AAXX 23124 41909 02940 00000 10230 20180 30085 40097 333 10290 58004 70000==
41909,2022,11,23,15,00,AAXX 23154 41909 02940 00000 10199 20180 30103 40115 333 58004 70000==
41909,2022,11,23,18,00,AAXX 23184 41909 02940 00000 10190 20170 30105 40117 333 58001 70000==
41909,2022,11,23,21,00,AAXX 23214 41909 02940 00000 10180 20170 30104 40116 333 58000 70000==
41909,2022,11,24,00,00,AAXX 24004 41909 01930 00000 10167 20160 30097 40109 70500 333 59007 70000==
41909,2022,11,24,03,00,AAXX 24034 41909 02956 03201 10204 20150 30122 40134 333 20160 59006 70000==
41909,2022,11,24,06,00,AAXX 24064 41909 02956 00000 10277 20170 30110 40121 333 59001 70000==
41909,2022,11,24,09,00,AAXX 24094 41909 02956 00000 10288 20170 30085 40096 333 59003 70000==
41909,2022,11,24,12,00,AAXX 24124 41909 02940 00000 10220 20180 30097 40109 333 10296 58012 70000==
41909,2022,11,24,15,00,AAXX 24154 41909 02940 00000 10194 20170 30118 40130 333 58015 70000==
41909,2022,11,24,18,00,AAXX 24184 41909 02940 00000 10182 20160 30120 40132 333 58015 70000==
41909,2022,11,24,21,00,AAXX 24214 41909 02940 00000 10178 20170 30112 40124 333 58008 70000==
41915,2022,11,18,00,00,AAXX 18004 41915 01940 00000 10146 20146 30107 40133 70500 333 58007 70000==
41915,2022,11,18,03,00,AAXX 18034 41915 01956 00000 10220 20190 30120 40146 72844 333 20142 58004 70000==
41915,2022,11,18,09,00,AAXX 18094 41915 02956 10501 10299 20160 30085 40110 333 58006 70000==
41915,2022,11,18,12,00,AAXX 18124 41915 02956 00000 10231 20200 30088 40113 333 10312 58003 70000==
41915,2022,11,18,15,00,AAXX 18154 41915 02940 00000 10174 20160 30111 40138 333 58005 70000==
41915,2022,11,18,18,00,AAXX 18184 41915 02940 00000 10162 20150 30114 40140 333 58008 70000==
41915,2022,11,18,21,00,AAXX 18214 41915 01940 00000 10155 20150 30105 40131 70500 333 58002 70000==
41915,2022,11,19,00,00,AAXX 19004 41915 01950 00000 10142 20130 30107 40133 70500 333 58000 70000==
41915,2022,11,19,03,00,AAXX 19034 41915 02956 00000 10232 20180 30121 40148 333 20140 58001 70000==
41915,2022,11,19,06,00,AAXX 19064 41915 02456 53602 10292 20170 30096 40121 81513 333 59009 70000 81616 83459==
41915,2022,11,19,09,00,AAXX 19094 41915 32456 50902 10300 20170 30075 40100 81512 333 56999 59010 70000 81616 83459=
41915,2022,11,19,12,00,AAXX 19124 41915 02450 40000 10230 20210 30079 40104 81502 333 10315 59009 70000 81616 84080==
41915,2022,11,19,15,00,AAXX 19154 41915 01950 00000 10188 20180 30101 40127 70520 333 59010 70000==
41915,2022,11,19,18,00,AAXX 19184 41915 01950 00000 10178 20170 30097 40123 70520 333 59017 70000==
41915,2022,11,19,21,00,AAXX 19214 41915 01950 00000 10170 20160 30090 40116 70500 333 59015 70000==
41915,2022,11,20,00,00,AAXX 20004 41915 01940 00000 10220 20220 30126 40152 70500 333 58008 70000==
41915,2022,11,20,03,00,AAXX 20034 41915 02456 40000 10238 20200 30109 40134 82431 333 20155 59012 70000 81616 83362==
41915,2022,11,20,06,00,AAXX 20064 41915 02456 70000 10298 20250 30090 40115 85470 333 59012 70000 84616 86458==
41915,2022,11,20,09,00,AAXX 20094 41915 02456 62802 10317 20110 30068 40092 83430 333 59007 70000 82616 86362==
41915,2022,11,20,12,00,AAXX 20124 41915 02450 50000 10242 20220 30073 40098 83430 333 10320 59006 70000 82616 83362==
41915,2022,11,20,15,00,AAXX 20154 41915 02950 00000 10255 20250 30105 40130 333 58037 71044==
41915,2022,11,20,18,00,AAXX 20184 41915 01440 10000 10190 20190 30085 40111 70521 81500 333 59012 70000 81616==
41915,2022,11,20,21,00,AAXX 20214 41915 01440 30000 10181 20180 30078 40104 70522 82501 333 59012 70000 82616==
41915,2022,11,21,00,00,AAXX 21004 41915 01440 40000 10166 20166 30075 40101 70522 83501 333 59017 70000 83616==
41915,2022,11,21,03,00,AAXX 21034 41915 02456 23602 10250 20200 30093 40118 80002 333 20163 59016 70000 82080==
41915,2022,11,21,06,00,AAXX 21064 41915 02456 52702 10295 20190 30087 40112 83432 333 59003 70000 82616 83362==
41915,2022,11,21,09,00,AAXX 21094 41915 02456 32703 10306 20190 30067 40092 81432 333 59001 70000 81616==
41915,2022,11,21,12,00,AAXX 21124 41915 02450 50000 10238 20210 30075 40100 83432 333 10315 58002 70000 82616 83362==
41915,2022,11,21,15,00,AAXX 21154 41915 01950 00000 10200 20190 30092 40118 70520 333 58002 70000==
41915,2022,11,21,18,00,AAXX 21184 41915 01940 00000 10178 20170 30090 40116 70520 333 58002 70000==
41915,2022,11,21,21,00,AAXX 21214 41915 01940 00000 10160 20160 30089 40115 70500 333 58011 70000==
41915,2022,11,22,00,00,AAXX 22004 41915 01940 10000 10145 20145 30093 40120 70510 80002 333 59018 70000 81080==
41915,2022,11,22,03,00,AAXX 22034 41915 02956 00000 10220 20180 30114 40140 333 20144 58021 70000==
41915,2022,11,22,09,00,AAXX 22094 41915 02956 00000 10290 20180 30064 40089 333 59003 70000==
41915,2022,11,22,12,00,AAXX 22124 41915 01950 00000 10216 20200 30070 40095 70500 333 10300 59005 70000==
41915,2022,11,22,15,00,AAXX 22154 41915 01940 00000 10170 20160 30088 40114 70500 333 59004 70000==
41915,2022,11,22,18,00,AAXX 22184 41915 01940 00000 10150 20150 30091 40117 70500 333 58001 70000==
41915,2022,11,22,21,00,AAXX 22214 41915 01940 00000 10141 20140 30094 40121 70500 333 58005 70000==
41915,2022,11,23,00,00,AAXX 23004 41915 01412 20000 10135 20135 30099 40125 71041 81501 333 58006 70000 81616==
41915,2022,11,23,03,00,AAXX 23034 41915 01950 00000 10213 20180 30115 40141 70140 333 20133 58001 70000==
41915,2022,11,23,06,00,AAXX 23064 41915 31456 10302 10282 20170 30094 40119 70340 81400 333 56900 59001 70000 81616=
41915,2022,11,23,09,00,AAXX 23094 41915 02956 00000 10293 20160 30071 40096 333 58007 70000==
41915,2022,11,23,12,00,AAXX 23124 41915 01950 30000 10220 20200 30073 40099 70510 80002 333 10302 58003 70000 83080==
41915,2022,11,23,15,00,AAXX 23154 41915 01940 00000 10182 20170 30090 40116 70510 333 58002 70000==
41915,2022,11,23,18,00,AAXX 23184 41915 01940 00000 10170 20160 30091 40117 70510 333 58000 70000==
41915,2022,11,24,00,00,AAXX 24004 41915 01940 00000 10144 20140 30090 40116 70500 333 59009 70000==
41915,2022,11,24,03,00,AAXX 24034 41915 02956 00000 10215 20190 30108 40134 333 20142 59007 70000==
41915,2022,11,24,06,00,AAXX 24064 41915 02456 40000 10270 20190 30092 40117 83400 333 59002 70000 82616==
41915,2022,11,24,09,00,AAXX 24094 41915 02956 23401 10293 20170 30072 40097 80002 333 58001 70000 82080==
41915,2022,11,24,12,00,AAXX 24124 41915 02950 20000 10220 20200 30082 40108 80002 333 10299 58009 70000 82080==
41915,2022,11,24,15,00,AAXX 24154 41915 01940 00000 10179 20170 30105 40131 70510 333 58015 70000==
41915,2022,11,24,18,00,AAXX 24184 41915 01940 00000 10165 20160 30107 40134 70510 333 58016 70000==
41915,2022,11,24,21,00,AAXX 24214 41915 01940 00000 10150 20150 30100 40126 70500 333 58014 70000==
41923,2022,11,18,00,00,AAXX 18004 41923 01935 00000 10201 20170 30118 40128 70500 333 58010 70000==
41923,2022,11,18,03,00,AAXX 18034 41923 01945 03502 10261 20150 30137 40147 70500 333 20200 58008 70000==
41923,2022,11,18,06,00,AAXX 18064 41923 01450 30000 10290 20120 30124 40134 70500 82430 333 58012 70000 81616==
41923,2022,11,18,09,00,AAXX 18094 41923 01950 02702 10295 20130 30100 40110 70510 333 58011 70000==
41923,2022,11,18,12,00,AAXX 18124 41923 01940 00000 10237 20160 30106 40115 70510 333 10296 58006 70000==
41923,2022,11,18,15,00,AAXX 18154 41923 01940 00000 10215 20170 30127 40137 70500 333 58007 70000==
41923,2022,11,18,18,00,AAXX 18184 41923 01940 00000 10198 20170 30127 40137 70500 333 58007 70000==
41923,2022,11,18,21,00,AAXX 18214 41923 01/40 30000 10201 20180 30125 40135 70511 83030 333 58013 70000 83365==
41923,2022,11,19,00,00,AAXX 19004 41923 01/40 33302 10203 20180 30123 40133 70511 83030 333 58005 70000 83365==
41923,2022,11,19,03,00,AAXX 19034 41923 01/50 30000 10244 20160 30137 40147 70511 83030 333 20183 58000 70000 83365==
41923,2022,11,19,06,00,AAXX 19064 41923 02/56 33302 10289 20150 30116 40126 83030 333 59008 70000 83365==
41923,2022,11,19,09,00,AAXX 19094 41923 02/56 30602 10300 20160 30092 40102 82031 333 59008 70000 82360==
41923,2022,11,19,12,00,AAXX 19124 41923 01/40 20000 10256 20180 30098 40107 70500 82030 333 10305 59008 70000 82362==
41923,2022,11,19,15,00,AAXX 19154 41923 01940 00000 10219 20180 30114 40124 70500 333 59013 70000==
41923,2022,11,19,18,00,AAXX 19184 41923 01940 00000 10204 20180 30110 40120 70500 333 59017 70000==
41923,2022,11,19,21,00,AAXX 19214 41923 01/40 20000 10201 20180 30107 40117 70500 82030 333 59018 70000 82362==
41923,2022,11,20,00,00,AAXX 20004 41923 31940 20000 10197 20180 30106 40116 70500 82030 333 56090 59017 70000 82362=
41923,2022,11,20,03,00,AAXX 20034 41923 NIL=
41923,2022,11,20,06,00,AAXX 20064 41923 02456 40000 10301 20150 30114 40124 82430 333 59002 70000 81616 83362==
41923,2022,11,20,09,00,AAXX 20094 41923 02/50 30000 10314 20130 30085 40095 82030 333 59007 70000 83360==
41923,2022,11,20,12,00,AAXX 20124 41923 02445 50000 10264 20160 30094 40103 83430 333 10322 59004 70000 82615 83362==
41923,2022,11,20,15,00,AAXX 20154 41923 01440 60000 10250 20170 30107 40116 70522 83430 333 59007 70000 82615 84362==
41923,2022,11,20,18,00,AAXX 20184 41923 01440 50000 10246 20160 30104 40113 70522 83430 333 59006 70000 82615 83362==
41923,2022,11,20,21,00,AAXX 20214 41923 01/40 30000 10228 20160 30099 40109 70520 83030 333 59008 70000 83360==
41923,2022,11,21,00,00,AAXX 21004 41923 01/40 20000 10218 20160 30099 40100 70500 82030 333 59016 70000 82360==
41923,2022,11,21,03,00,AAXX 21034 41923 01945 43302 10248 20160 30118 40127 70510 82430 333 20211 59009 70000 81616 83362==
41923,2022,11,21,06,00,AAXX 21064 41923 02450 40000 10282 20140 30106 40116 82430 333 59008 70000 81616 83360==
41923,2022,11,21,09,00,AAXX 21094 41923 02/50 20000 10298 20130 30085 40095 82030 333 58000 70000 82360==
41923,2022,11,21,12,00,AAXX 21124 41923 01/45 30000 10258 20140 30093 40102 70500 83030 333 10305 59001 70000 83360==
41923,2022,11,21,15,00,AAXX 21154 41923 01940 00000 10232 20160 30110 40120 70500 333 58003 70000==
41923,2022,11,21,18,00,AAXX 21184 41923 01940 00000 10210 20160 30108 40118 70500 333 58004 70000==
41923,2022,11,21,21,00,AAXX 21214 41923 01940 00000 10210 20160 30102 40112 70500 333 58003 70000==
41923,2022,11,22,00,00,AAXX 22004 41923 01/35 22902 10206 20150 30107 40117 70500 82030 333 58007 70000 82360==
41923,2022,11,22,03,00,AAXX 22034 41923 01/45 20000 10240 20160 30134 40144 70500 82030 333 20202 58016 70000 82360==
41923,2022,11,22,06,00,AAXX 22064 41923 02/50 20000 10274 20130 30114 40123 82030 333 58008 70000 82360==
41923,2022,11,22,09,00,AAXX 22094 41923 01945 03203 10282 20130 30083 40093 70500 333 59002 70000==
41923,2022,11,22,12,00,AAXX 22124 41923 01945 00000 10238 20170 30089 40098 70500 333 10289 59004 70000==
41923,2022,11,22,15,00,AAXX 22154 41923 01940 00000 10228 20170 30104 40114 70500 333 59006 70000==
41923,2022,11,22,18,00,AAXX 22184 41923 01935 02803 10219 20170 30109 40119 70500 333 58001 70000==
41923,2022,11,22,21,00,AAXX 22214 41923 01935 03003 10212 20160 30106 40116 70500 333 58004 70000==
41923,2022,11,23,00,00,AAXX 23004 41923 01930 02903 10204 20150 30111 40121 70500 333 58004 70000==
41923,2022,11,23,03,00,AAXX 23034 41923 01940 00000 10245 20150 30135 40144 70500 333 20201 58001 70000==
41923,2022,11,23,06,00,AAXX 23064 41923 02950 00405 10282 20120 30112 40122 333 59002 70000==
41923,2022,11,23,09,00,AAXX 23094 41923 02950 00603 10292 20120 30088 40098 333 58004 70000==
41923,2022,11,23,12,00,AAXX 23124 41923 01445 50000 10248 20160 30093 40102 70520 82530 333 10295 58004 70000 82615 83360==
41923,2022,11,23,15,00,AAXX 23154 41923 01440 50000 10226 20170 30109 40119 70522 82530 333 58005 70000 82615 83360==
41923,2022,11,23,18,00,AAXX 23184 41923 01/40 30000 10224 20150 30109 40119 70510 83030 333 58000 70000 83360==
41923,2022,11,23,21,00,AAXX 23214 41923 01/35 30000 10214 20150 30104 40114 70500 83030 333 59002 70000 83360==
41923,2022,11,24,00,00,AAXX 24004 41923 01/30 30000 10202 20150 30106 40116 70500 83030 333 59005 70000 83360==
41923,2022,11,24,03,00,AAXX 24034 41923 01940 00000 10236 20150 30129 40139 70500 333 20200 59006 70000==
41923,2022,11,24,06,00,AAXX 24064 41923 02950 02402 10286 20140 30111 40121 333 59001 70000==
41923,2022,11,24,09,00,AAXX 24094 41923 02950 00000 10292 20120 30086 40096 333 59001 70000==
41923,2022,11,24,12,00,AAXX 24124 41923 01/50 20000 10240 20170 30099 40109 70500 82030 333 10302 58006 70000 82360==
41923,2022,11,24,15,00,AAXX 24154 41923 01940 00000 10224 20170 30121 40131 70500 333 58012 70000==
41923,2022,11,24,18,00,AAXX 24184 41923 01940 00000 10216 20190 30121 40131 70500 333 58012 70000==
41923,2022,11,24,21,00,AAXX 24214 41923 01935 00000 10202 20180 30112 40122 70500 333 58008 70000==
41926,2022,11,18,00,00,AAXX 18004 41926 01940 00000 10158 20150 30116 40130 70500 333 58016 70000==
41926,2022,11,18,03,00,AAXX 18034 41926 01950 03602 10210 20170 30135 40148 70500 333 20158 58013 70000==
41926,2022,11,18,09,00,AAXX 18094 41926 01450 43602 10275 20150 30098 40111 70500 84500 333 58009 70000 84616==
41926,2022,11,18,12,00,AAXX 18124 41926 01950 00000 10210 20190 30105 40119 70500 333 10284 58009 70000==
41926,2022,11,18,15,00,AAXX 18154 41926 01950 03603 10205 20190 30122 40136 70500 333 58006 70000==
41926,2022,11,18,18,00,AAXX 18184 41926 01950 00000 10195 20180 30126 40140 70500 333 58009 70000==
41926,2022,11,18,21,00,AAXX 18214 41926 01950 00000 10180 20170 30117 40131 70500 333 58005 70000==
41926,2022,11,19,00,00,AAXX 19004 41926 01940 00000 10150 20140 30122 40136 70500 333 58006 70000==
41926,2022,11,19,03,00,AAXX 19034 41926 31956 53602 10260 20140 30120 40133 70522 80002 333 56009 59004 70000 85080=
41926,2022,11,19,06,00,AAXX 19064 41926 01956 53602 10260 20140 30120 40133 70522 80002 333 59004 70000 85080==
41926,2022,11,19,12,00,AAXX 19124 41926 01950 00000 10222 20180 30092 40106 70510 80002 333 10286 59013 70000 82080==
41926,2022,11,19,15,00,AAXX 19154 41926 01950 00000 10180 20170 30104 40118 70500 333 59018 70000==
41926,2022,11,19,18,00,AAXX 19184 41926 01950 00000 10167 20160 30100 40114 70500 333 59026 70000==
41926,2022,11,19,21,00,AAXX 19214 41926 01950 00000 10175 20170 30121 40135 70500 333 58000 70000==
41926,2022,11,20,00,00,AAXX 20004 41926 01950 00000 10185 20180 30095 40109 70500 333 59005 70000==
41926,2022,11,20,03,00,AAXX 20034 41926 01950 23602 10212 20160 30120 40134 70500 80002 333 20155 59019 70000 82080==
41926,2022,11,20,06,00,AAXX 20064 41926 02456 60000 10314 20230 30095 40108 83510 333 59023 70000 83618 83459==
41926,2022,11,20,09,00,AAXX 20094 41926 02956 03602 10286 20110 30105 40118 333 58004 70000==
41926,2022,11,20,12,00,AAXX 20124 41926 01450 10000 10238 20190 30083 40097 70500 81500 333 10298 59009 70000 81618==
41926,2022,11,20,15,00,AAXX 20154 41926 01950 00000 10174 20150 30126 40140 70500 333 58006 70000==
41926,2022,11,20,18,00,AAXX 20184 41926 02450 80000 10257 20250 30074 40088 8252/ 333 59027 70000 82618 88458==
41926,2022,11,20,21,00,AAXX 20214 41926 01950 00000 10176 20170 30091 40105 70500 333 59011 70000==
41926,2022,11,21,00,00,AAXX 21004 41926 01950 00000 10160 20150 30090 40104 70500 333 59014 70000==
41926,2022,11,21,03,00,AAXX 21034 41926 01950 33301 10210 20150 30117 40130 70500 80001 333 20158 59003 70000 83080==
41926,2022,11,21,06,00,AAXX 21064 41926 01956 23601 10270 20140 30110 40123 70500 80001 333 58001 70000 82080==
41926,2022,11,21,09,00,AAXX 21094 41926 01956 03101 10280 20130 30087 40101 70500 333 58001 70000==
41926,2022,11,21,12,00,AAXX 21124 41926 01950 20000 10223 20180 30084 40098 70500 80001 333 10287 58001 70000 82080==
41926,2022,11,21,15,00,AAXX 21154 41926 01950 00000 10180 20170 30100 40114 70500 333 58000 70000==
41926,2022,11,21,18,00,AAXX 21184 41926 01950 00000 10167 20160 30100 40113 70500 333 58006 70000==
41926,2022,11,21,21,00,AAXX 21214 41926 01950 00000 10154 20140 30102 40116 70500 333 58011 70000==
41926,2022,11,22,00,00,AAXX 22004 41926 01950 00000 10143 20140 30104 40118 70500 333 58014 70000==
41926,2022,11,22,03,00,AAXX 22034 41926 01950 00000 10195 20160 30130 40143 70500 333 20139 58013 70000==
41926,2022,11,22,09,00,AAXX 22094 41926 02956 03202 10270 20140 30090 40104 333 58003 70000==
41926,2022,11,22,12,00,AAXX 22124 41926 01950 00000 10210 20180 30083 40096 70500 333 10282 59001 70000==
41926,2022,11,22,15,00,AAXX 22154 41926 01950 00000 10172 20150 30101 40115 70500 333 58001 70000==
41926,2022,11,22,18,00,AAXX 22184 41926 01950 00000 10162 20150 30103 40117 70500 333 58003 70000==
41926,2022,11,22,21,00,AAXX 22214 41926 01950 00000 10150 20140 30102 40116 70500 333 58000 70000==
41926,2022,11,23,00,00,AAXX 23004 41926 01950 00000 10140 20130 30102 40116 70500 333 59002 70000==
41926,2022,11,23,03,00,AAXX 23034 41926 01950 00000 10190 20160 30132 40146 70500 333 20138 58002 70000==
41926,2022,11,23,06,00,AAXX 23064 41926 31956 03102 10263 20120 30117 40130 70500 333 58000 70000=
41926,2022,11,23,09,00,AAXX 23094 41926 02956 03202 10273 20130 30099 40112 333 58009 70000==
41926,2022,11,23,12,00,AAXX 23124 41926 01950 00000 10196 20180 30087 40100 70500 333 10283 58004 70000==
41926,2022,11,23,15,00,AAXX 23154 41926 01950 00000 10165 20160 30101 40115 70500 333 58000 70000==
41926,2022,11,23,18,00,AAXX 23184 41926 01950 00000 10155 20150 30100 40114 70500 333 59003 70000==
41926,2022,11,23,21,00,AAXX 23214 41926 01950 00000 10140 20130 30099 40113 70500 333 59003 70000==
41926,2022,11,24,00,00,AAXX 24004 41926 01940 00000 10130 20120 30098 40112 70500 333 59004 70000==
41926,2022,11,24,03,00,AAXX 24034 41926 01950 00000 10188 20140 30122 40136 70500 333 20130 59010 70000==
41926,2022,11,24,06,00,AAXX 24064 41926 01956 03602 10260 20110 30113 40127 70500 333 59004 70000==
41926,2022,11,24,09,00,AAXX 24094 41926 01956 00000 10275 20130 30087 40100 70500 333 59012 70000==
41926,2022,11,24,12,00,AAXX 24124 41926 01950 00000 10213 20180 30095 40109 70500 333 10283 58008 70000==
41926,2022,11,24,15,00,AAXX 24154 41926 01950 00000 10175 20170 30115 40129 70500 333 58014 70000==
41926,2022,11,24,18,00,AAXX 24184 41926 01950 00000 10165 20160 30121 40135 70500 333 58021 70000==
41926,2022,11,24,21,00,AAXX 24214 41926 01950 00000 10155 20150 30110 40124 70500 333 58011 70000==
41927,2022,11,18,00,00,AAXX 18004 41927 31950 00000 10176 20170 30096 40110 70500 333 58007 70000=
41927,2022,11,18,12,00,AAXX 18124 41927 32956 03601 10240 20190 30092 40106 333 10285 58010 70000=
41927,2022,11,18,18,00,AAXX 18184 41927 NIL=
41927,2022,11,19,00,00,AAXX 19004 41927 31950 33401 10177 20170 30109 40123 70500 83010 333 56090 58013 70000 83459=
41927,2022,11,19,03,00,AAXX 19034 41927 32957 43501 10260 20150 30112 40127 80001 333 56009 59004 70000 84080=
41927,2022,11,19,12,00,AAXX 19124 41927 32956 20000 10235 20200 30078 40092 82010 333 10287 56090 59014 70000 82459=
41927,2022,11,19,18,00,AAXX 19184 41927 31950 00000 10180 20170 30095 40110 70500 333 59008 70000=
41927,2022,11,20,00,00,AAXX 20004 41927 31940 00000 10218 20210 30087 40112 70500 333 58004 70000=
41927,2022,11,20,06,00,AAXX 20064 41927 32457 52901 10275 20140 30108 40122 82510 333 56690 59004 70000 82618 85459=
41927,2022,11,20,12,00,AAXX 20124 41927 32956 22801 10240 20180 30077 40091 82030 333 10297 56090 59001 70000 82362=
41927,2022,11,20,18,00,AAXX 20184 41927 31950 00000 10195 20180 30084 40099 70500 333 59011 70000=
41927,2022,11,21,00,00,AAXX 21004 41927 31950 03201 10180 20170 30070 40085 70500 333 59020 70000=
41927,2022,11,21,06,00,AAXX 21064 41927 32958 23401 10275 20140 30100 40115 80001 333 56009 59008 70000 82080=
41927,2022,11,21,12,00,AAXX 21124 41927 32956 20000 10225 20180 30083 40097 80001 333 10285 56009 70000 82080=
41927,2022,11,21,18,00,AAXX 21184 41927 31950 00000 10175 20170 30092 40107 70500 333 58008 70000=
41927,2022,11,22,00,00,AAXX 22004 41927 31950 03501 10155 20150 30097 40112 70500 333 58027 70000=
41927,2022,11,22,12,00,AAXX 22124 41927 32956 02803 10220 20180 30081 40096 333 10278 59002 70000=
41927,2022,11,22,18,00,AAXX 22184 41927 31950 02701 10178 20170 30096 40110 70500 333 58004 70000=
41927,2022,11,23,00,00,AAXX 23004 41927 31950 00000 10155 20150 30095 40110 70500 333 59002 70000=
41927,2022,11,23,06,00,AAXX 23064 41927 32958 03603 10270 20120 30117 40131 333 58001 70000=
41927,2022,11,23,12,00,AAXX 23124 41927 32956 00000 10210 20180 30081 40096 333 10285 58000 70000=
41927,2022,11,23,18,00,AAXX 23184 41927 NIL=
41927,2022,11,24,00,00,AAXX 24004 41927 31950 00000 10160 20150 30105 40119 70500 333 58009 70000=
41927,2022,11,24,06,00,AAXX 24064 41927 32958 03603 10268 20130 30106 40120 333 59011 70000=
41927,2022,11,24,12,00,AAXX 24124 41927 32956 00000 10214 20170 30084 40099 333 10283 58003 70000=
41927,2022,11,24,18,00,AAXX 24184 41927 31940 00000 10166 20160 30106 40120 70500 333 58001 70000=
41927,2022,11,24,21,00,AAXX 24214 41927 31940 00000 10152 20140 30100 40115 70500 333 58006 70000=
41929,2022,11,18,00,00,AAXX 18004 41929 01950 00000 10177 20170 30116 40125 70500 333 58012 70000==
41929,2022,11,18,03,00,AAXX 18034 41929 01950 03202 10234 20180 30139 40148 70500 333 20174 58010 70000==
41929,2022,11,18,09,00,AAXX 18094 41929 02956 03602 10285 20170 30101 40110 333 58008 70000==
41929,2022,11,18,12,00,AAXX 18124 41929 02956 00000 10240 20200 30104 40113 333 10290 58006 70000==
41929,2022,11,18,15,00,AAXX 18154 41929 02956 00000 10210 20190 30125 40134 333 58005 70000==
41929,2022,11,18,18,00,AAXX 18184 41929 01950 00000 10200 20190 30130 40139 70500 333 58007 70000==
41929,2022,11,18,21,00,AAXX 18214 41929 01950 03102 10193 20180 30125 40134 70500 333 58005 70000==
41929,2022,11,19,00,00,AAXX 19004 41929 01950 03103 10185 20180 30120 40129 70500 333 58004 70000==
41929,2022,11,19,03,00,AAXX 19034 41929 01/50 53602 10220 20180 30141 40151 70520 85040 333 20180 58002 70000 85365==
41929,2022,11,19,06,00,AAXX 19064 41929 02956 53602 10278 20180 30119 40128 85400 333 59011 70000 85365==
41929,2022,11,19,12,00,AAXX 19124 41929 02/56 50000 10240 20190 30098 40107 85030 333 10294 59006 70000 85365==
41929,2022,11,19,15,00,AAXX 19154 41929 02/56 20000 10200 20190 30116 40125 82030 333 59009 70000 82365==
41929,2022,11,19,18,00,AAXX 19184 41929 01950 00000 10190 20180 30108 40117 70521 333 59022 70000==
41929,2022,11,19,21,00,AAXX 19214 41929 01950 00000 10200 20190 30131 40140 70500 333 58000 70000==
41929,2022,11,20,00,00,AAXX 20004 41929 01950 00000 10203 20190 30103 40112 70500 333 59002 70000==
41929,2022,11,20,03,00,AAXX 20034 41929 02/56 53602 10238 20190 30127 40136 85030 333 20174 59014 70000 85365==
41929,2022,11,20,06,00,AAXX 20064 41929 02456 80000 10288 20250 30107 40116 8452/ 333 59015 70000 84618 88462==
41929,2022,11,20,09,00,AAXX 20094 41929 02956 03202 10290 20140 30107 40116 333 59002 70000==
41929,2022,11,20,12,00,AAXX 20124 41929 02/56 40000 10260 20180 30090 40099 84030 333 10310 59008 70000 84365==
41929,2022,11,20,15,00,AAXX 20154 41929 02956 03103 10212 20150 30131 40140 333 59001 70000==
41929,2022,11,20,18,00,AAXX 20184 41929 02/56 53102 10230 20170 30104 40113 85030 333 59004 70000 85365==
41929,2022,11,20,21,00,AAXX 20214 41929 01/50 33102 10210 20170 30096 40105 70521 83030 333 59011 70000 83365==
41929,2022,11,21,00,00,AAXX 21004 41929 01/50 33102 10190 20180 30088 40097 70521 83030 333 59018 70000 83365==
41929,2022,11,21,03,00,AAXX 21034 41929 02/56 33202 10240 20160 30119 40128 83040 333 20285 59008 70000 83365==
41929,2022,11,21,06,00,AAXX 21064 41929 02/56 33202 10275 20150 30114 40123 83040 333 58000 70000 83365==
41929,2022,11,21,09,00,AAXX 21094 41929 02/56 12701 10292 20140 30088 40097 81040 333 58002 70000 81365==
41929,2022,11,21,12,00,AAXX 21124 41929 02/56 20000 10230 20180 30095 40104 82030 333 10298 58005 70000 82365==
41929,2022,11,21,15,00,AAXX 21154 41929 02956 00000 10200 20160 30111 40120 333 58004 70000==
41929,2022,11,21,18,00,AAXX 21184 41929 02956 00000 10180 20160 30111 40120 333 58007 70000==
41929,2022,11,21,21,00,AAXX 21214 41929 02956 00000 10175 20160 30111 40120 333 58015 70000==
41929,2022,11,22,00,00,AAXX 22004 41929 01/56 20000 10165 20150 30112 40121 70500 82030 333 58014 70000 82365==
41929,2022,11,22,03,00,AAXX 22034 41929 02956 03202 10224 20160 30134 40143 333 20162 58015 70000==
41929,2022,11,22,09,00,AAXX 22094 41929 02956 03202 10283 20140 30086 40095 333 59002 70000==
41929,2022,11,22,12,00,AAXX 22124 41929 02956 00000 10230 20180 30090 40099 333 10290 59005 70000==
41929,2022,11,22,15,00,AAXX 22154 41929 02956 00000 10190 20180 30106 40115 333 59005 70000==
41929,2022,11,22,18,00,AAXX 22184 41929 02956 00000 10170 20150 30111 40120 333 58000 70000==
41929,2022,11,22,21,00,AAXX 22214 41929 02956 00000 10168 20160 30110 40119 333 59001 70000==
41929,2022,11,23,00,00,AAXX 23004 41929 01950 00000 10170 20160 30110 40119 70500 333 59002 70000==
41929,2022,11,23,03,00,AAXX 23034 41929 01950 03203 10220 20170 30136 40146 70500 333 20165 58002 70000==
41929,2022,11,23,06,00,AAXX 23064 41929 32956 03204 10274 20150 30119 40128 333 59001 70000=
41929,2022,11,23,09,00,AAXX 23094 41929 02957 03603 10287 20150 30091 40101 333 58005 70000==
41929,2022,11,23,12,00,AAXX 23124 41929 02956 00000 10235 20190 30092 40101 333 10290 58002 70000==
41929,2022,11,23,15,00,AAXX 23154 41929 02956 00000 10187 20170 30111 40120 333 58005 70000==
41929,2022,11,23,18,00,AAXX 23184 41929 01950 00000 10185 20160 30112 40121 70500 333 58001 70000==
41929,2022,11,23,21,00,AAXX 23214 41929 01950 03102 10178 20160 30108 40117 70500 333 59002 70000==
41929,2022,11,24,00,00,AAXX 24004 41929 01950 00000 10170 20150 30103 40112 70500 333 59007 70000==
41929,2022,11,24,03,00,AAXX 24034 41929 01950 03202 10210 20150 30129 40138 70500 333 20165 59007 70000==
41929,2022,11,24,06,00,AAXX 24064 41929 02956 03204 10274 20140 30117 40126 333 59002 70000==
41929,2022,11,24,09,00,AAXX 24094 41929 02956 03602 10284 20150 30091 40100 333 58000 70000==
41929,2022,11,24,12,00,AAXX 24124 41929 02/56 40000 10235 20200 30097 40106 84030 333 10290 58005 70000 84365==
41929,2022,11,24,15,00,AAXX 24154 41929 01950 00000 10197 20180 30123 40132 70510 333 58012 70000==
41929,2022,11,24,18,00,AAXX 24184 41929 01950 00000 10193 20170 30125 40134 70510 333 58013 70000==
41929,2022,11,24,21,00,AAXX 24214 41929 01950 00000 10184 20170 30120 40129 70500 333 58012 70000==
41933,2022,11,18,00,00,AAXX 18004 41933 01940 00000 10186 20186 30114 40122 70500 333 58012 70000==
41933,2022,11,18,03,00,AAXX 18034 41933 01950 00000 10240 20190 30124 40133 70500 333 20160 58004 70000==
41933,2022,11,18,09,00,AAXX 18094 41933 01/56 23502 10300 20150 30094 40102 70500 82030 333 58010 70000 82362==
41933,2022,11,18,12,00,AAXX 18124 41933 01950 20000 10245 20160 30097 40106 70500 80001 333 10305 58006 70000 82080==
41933,2022,11,18,15,00,AAXX 18154 41933 01940 00000 10194 20170 30120 40128 70500 333 58010 70000==
41933,2022,11,18,18,00,AAXX 18184 41933 01940 00000 10177 20170 30119 40128 70500 333 58008 70000==
41933,2022,11,18,21,00,AAXX 18214 41933 01940 00000 10168 20168 30111 40120 70500 333 59001 70000==
41933,2022,11,19,00,00,AAXX 19004 41933 01920 40000 10160 20160 30115 40124 71000 80001 333 58001 70000 84074==
41933,2022,11,19,03,00,AAXX 19034 41933 01/40 60000 10227 20220 30130 40139 70522 86030 333 20150 58006 70000 86362==
41933,2022,11,19,06,00,AAXX 19064 41933 01/50 40000 10298 20180 30107 40116 70522 84030 333 59009 70000 84362==
41933,2022,11,19,12,00,AAXX 19124 41933 01/50 40000 10262 20170 30087 40096 70522 84030 333 10316 59010 70000 84362==
41933,2022,11,19,15,00,AAXX 19154 41933 01950 00000 10215 20200 30109 40117 70520 333 59011 70000==
41933,2022,11,19,18,00,AAXX 19184 41933 01/40 20000 10215 20200 30104 40112 70520 82030 333 59015 70000 82362==
41933,2022,11,19,21,00,AAXX 19214 41933 01440 50000 10214 20190 30099 40108 70520 82530 333 59012 70000 82618 85362==
41933,2022,11,20,00,00,AAXX 20004 41933 01930 00000 10219 20219 30098 40107 71000 333 59006 70000==
41933,2022,11,20,03,00,AAXX 20034 41933 01450 60000 10256 20190 30120 40129 70522 83530 333 20194 59010 70000 83618 86362==
41933,2022,11,20,06,00,AAXX 20064 41933 11340 80000 10284 20260 30102 40110 60002 76162 8572/ 333 59003 82709 84615 88458==
41933,2022,11,20,09,00,AAXX 20094 41933 01950 00304 10290 20170 30097 40106 70500 333 59006 70000==
41933,2022,11,20,12,00,AAXX 20124 41933 02950 00000 10295 20250 30077 40086 333 10338 59007 70000==
41933,2022,11,20,15,00,AAXX 20154 41933 01940 00000 10206 20200 30124 40133 70500 333 58012 70000==
41933,2022,11,20,18,00,AAXX 20184 41933 01940 00000 10226 20210 30095 40103 70510 333 59009 70000==
41933,2022,11,20,21,00,AAXX 20214 41933 01940 00000 10220 20190 30092 40100 70500 333 59007 70000==
41933,2022,11,21,00,00,AAXX 21004 41933 01940 00000 10216 20190 30077 40086 70500 333 59023 70000==
41933,2022,11,21,03,00,AAXX 21034 41933 01950 33301 10260 20190 30103 40112 70500 80001 333 20200 59017 70000 83074==
41933,2022,11,21,06,00,AAXX 21064 41933 01950 33002 10300 20160 30098 40106 70500 80001 333 59005 70000 83074==
41933,2022,11,21,09,00,AAXX 21094 41933 01950 03102 10300 20130 30079 40087 70500 333 58002 70000==
41933,2022,11,21,12,00,AAXX 21124 41933 01950 20000 10254 20190 30085 40094 70510 82001 333 10314 58003 70000 82074==
41933,2022,11,21,15,00,AAXX 21154 41933 01950 00000 10210 20180 30102 40111 70500 333 58010 70000==
41933,2022,11,21,18,00,AAXX 21184 41933 01950 00000 10202 20190 30101 40109 70500 333 58006 70000==
41933,2022,11,21,21,00,AAXX 21214 41933 01940 00000 10180 20170 30101 40109 70500 333 58009 70000==
41933,2022,11,22,00,00,AAXX 22004 41933 01920 00000 10170 20170 30101 40110 71000 333 58024 70000==
41933,2022,11,22,03,00,AAXX 22034 41933 01950 00000 10228 20180 30123 40132 70500 333 20160 58020 70000==
41933,2022,11,22,09,00,AAXX 22094 41933 01950 00000 10290 20160 30079 40088 70500 333 58000 70000==
41933,2022,11,22,12,00,AAXX 22124 41933 01940 00000 10238 20190 30081 40090 70500 333 10295 59004 70000==
41933,2022,11,22,15,00,AAXX 22154 41933 01940 00000 10188 20180 30099 40108 70500 333 59003 70000==
41933,2022,11,22,18,00,AAXX 22184 41933 01920 00000 10172 20170 30102 40111 71000 333 58001 70000==
41933,2022,11,22,21,00,AAXX 22214 41933 01920 00000 10154 20150 30104 40113 71000 333 58003 70000==
41933,2022,11,23,00,00,AAXX 23004 41933 01920 30000 10150 20150 30107 40116 71000 83001 333 58006 70000 83074==
41933,2022,11,23,03,00,AAXX 23034 41933 01940 30000 10212 20180 30128 40137 70500 83001 333 20145 58005 70000 83074==
41933,2022,11,23,06,00,AAXX 23064 41933 31450 33603 10276 20170 30106 40115 70500 83400 333 56900 59004 70000 82618=
41933,2022,11,23,09,00,AAXX 23094 41933 01950 03402 10289 20160 30078 40087 70500 333 59001 70000==
41933,2022,11,23,12,00,AAXX 23124 41933 01950 00000 10243 20170 30088 40097 70500 333 10301 58007 70000==
41933,2022,11,23,15,00,AAXX 23154 41933 01940 00000 10190 20180 30098 40107 70500 333 59001 70000==
41933,2022,11,23,18,00,AAXX 23184 41933 01920 00000 10180 20180 30102 40111 71000 333 58000 70000==
41933,2022,11,23,21,00,AAXX 23214 41933 01915 00000 10164 20164 30096 40105 71000 333 59008 70000==
41933,2022,11,24,00,00,AAXX 24004 41933 01906 00000 10152 20152 30096 40105 74640 333 59011 70000==
41933,2022,11,24,03,00,AAXX 24034 41933 01940 00000 10222 20180 30117 40126 70500 333 20145 59011 70000==
41933,2022,11,24,06,00,AAXX 24064 41933 01950 00000 10280 20170 30103 40112 70500 333 59003 70000==
41933,2022,11,24,09,00,AAXX 24094 41933 01950 03602 10292 20160 30096 40105 70500 333 58018 70000==
41933,2022,11,24,12,00,AAXX 24124 41933 01950 30000 10252 20170 30094 40103 70500 83400 333 10300 58006 70000 82618==
41933,2022,11,24,15,00,AAXX 24154 41933 01940 00000 10226 20180 30103 40112 70500 333 58005 70000==
41933,2022,11,24,18,00,AAXX 24184 41933 01940 00000 10202 20160 30101 40110 70500 333 59001 70000==
41933,2022,11,24,21,00,AAXX 24214 41933 01940 00000 10172 20150 30101 40110 70500 333 58005 70000==
41936,2022,11,18,00,00,AAXX 18004 41936 01910 00000 10162 20150 30114 40121 71000 333 58007 70000==
41936,2022,11,18,03,00,AAXX 18034 41936 41912 00000 10204 20180 30138 40145 72840 333 20156 58013==
41936,2022,11,18,06,00,AAXX 18064 41936 01920 03003 10284 20170 30128 40135 70540 333 58014 70000==
41936,2022,11,18,09,00,AAXX 18094 41936 42930 34006 10280 20150 30101 40108 58006==
41936,2022,11,18,12,00,AAXX 18124 41936 01930 00000 10226 20190 30106 40113 70510 333 10298 58008 70000==
41936,2022,11,18,15,00,AAXX 18154 41936 01920 00000 10198 20190 30124 40131 70500 333 58009 70000==
41936,2022,11,18,18,00,AAXX 18184 41936 01920 00000 10204 20180 30129 40136 70511 333 58005 70000==
41936,2022,11,18,21,00,AAXX 18214 41936 01920 00000 10198 20180 30124 40131 70511 333 58006 70000==
41936,2022,11,19,00,00,AAXX 19004 41936 01/12 23403 10174 20160 30124 40131 70511 82030 333 58010 70000 82362==
41936,2022,11,19,03,00,AAXX 19034 41936 01/16 40204 10200 20140 30139 40146 70521 84030 333 20172 58001 70000 84362==
41936,2022,11,19,06,00,AAXX 19064 41936 01/30 30203 10272 20170 30120 40127 70521 83030 333 58008 70000 83362==
41936,2022,11,19,09,00,AAXX 19094 41936 01/40 30503 10288 20150 30101 40108 70521 83030 333 58000 70000 83362==
41936,2022,11,19,12,00,AAXX 19124 41936 01/30 20000 10216 20180 30099 40106 70511 82030 333 10294 59007 70000 82362==
41936,2022,11,19,15,00,AAXX 19154 41936 42920 00000 10182 20170 30111 40118 59013==
41936,2022,11,19,18,00,AAXX 19184 41936 01918 00000 10182 20170 30124 40131 70500 333 59003 70000==
41936,2022,11,19,21,00,AAXX 19214 41936 01918 00000 10176 20170 30120 40127 70500 333 59004 70000==
41936,2022,11,20,00,00,AAXX 20004 41936 01910 00000 10172 20160 30104 40112 70500 333 59019 70000==
41936,2022,11,20,06,00,AAXX 20064 41936 01/50 23603 10296 20180 30112 40119 70540 82030 333 59008 70000 82362==
41936,2022,11,20,09,00,AAXX 20094 41936 01/50 63503 10296 20160 30086 40093 70522 86020 333 59015 70000 86260==
41936,2022,11,20,12,00,AAXX 20124 41936 01/30 30000 10238 20200 30092 40100 70511 83030 333 10312 59006 70000 83362==
41936,2022,11,20,15,00,AAXX 20154 41936 01/20 30102 10224 20180 30104 40111 70511 83030 333 59007 70000 83362==
41936,2022,11,20,18,00,AAXX 20184 41936 01918 00000 10206 20190 30104 40111 70510 333 59020 70000==
41936,2022,11,20,21,00,AAXX 20214 41936 01916 00000 10190 20180 30093 40100 70500 333 59027 70000==
41936,2022,11,21,00,00,AAXX 21004 41936 01/10 20000 10170 20160 30094 40101 71000 82030 333 59008 70000 82362==
41936,2022,11,21,03,00,AAXX 21034 41936 01/14 23404 10224 20160 30118 40125 70511 81031 333 20164 59008 70000 81362==
41936,2022,11,21,06,00,AAXX 21064 41936 01/30 10103 10284 20150 30109 40116 70511 81031 333 59003 70000 81362==
41936,2022,11,21,09,00,AAXX 21094 41936 01940 13403 10294 20140 30088 40095 70500 333 58002 70000==
41936,2022,11,21,12,00,AAXX 21124 41936 01/30 20000 10262 20170 30019 40098 70511 82030 333 10324 58001 70000 82362==
41936,2022,11,21,15,00,AAXX 21154 41936 02/30 10000 10192 20180 30108 40115 56090 81030 333 58004 70000 81362==
41936,2022,11,21,18,00,AAXX 21184 41936 01/30 10000 10174 20150 30104 40111 70510 81030 333 58000 70000 81362==
41936,2022,11,21,21,00,AAXX 21214 41936 01/20 10000 10170 20150 30099 40106 70510 81030 333 58006 70000 81362==
41936,2022,11,22,00,00,AAXX 22004 41936 01/10 10000 10152 20150 30108 40116 71011 81030 333 58012 70000 81362==
41936,2022,11,22,03,00,AAXX 22034 41936 01/14 13503 10198 20170 30126 40134 72840 81030 333 20148 58009 70000 81362==
41936,2022,11,22,06,00,AAXX 22064 41936 01920 00504 10274 20150 30119 40126 70500 333 58010 70000==
41936,2022,11,22,09,00,AAXX 22094 41936 01920 03503 10288 20130 30088 40095 70500 333 58000 70000==
41936,2022,11,22,12,00,AAXX 22124 41936 01925 00000 10228 20170 30087 40094 70500 333 10290 59004 70000==
41936,2022,11,22,15,00,AAXX 22154 41936 01920 00000 10190 20170 30101 40108 70500 333 59007 70000==
41936,2022,11,22,18,00,AAXX 22184 41936 01920 00000 10184 20170 30103 40110 70500 333 59001 70000==
41936,2022,11,22,21,00,AAXX 22214 41936 01920 00000 10176 20170 30906 40103 70500 333 59003 70000==
41936,2022,11,23,00,00,AAXX 23004 41936 01907 00000 10146 20140 30109 40117 74100 333 58001 70000==
41936,2022,11,23,03,00,AAXX 23034 41936 01909 00000 10188 20170 30170 40145 74244 333 20140 58011 70000==
41936,2022,11,23,06,00,AAXX 23064 41936 01920 00104 10272 20160 30115 40122 70542 333 59004 70000==
41936,2022,11,23,09,00,AAXX 23094 41936 01925 00503 10286 20150 30090 40097 70500 333 58002 70000==
41936,2022,11,23,12,00,AAXX 23124 41936 01920 00000 10216 20160 30094 40101 70500 333 10290 58007 70000==
41936,2022,11,23,15,00,AAXX 23154 41936 01920 00000 10180 20170 30110 40117 70500 333 58009 70000==
41936,2022,11,23,18,00,AAXX 23184 41936 01916 00000 10164 20150 30105 40113 70500 333 58003 70000==
41936,2022,11,23,21,00,AAXX 23214 41936 01912 00000 10148 20140 30098 40103 70500 333 58003 70000==
41936,2022,11,24,00,00,AAXX 24004 41936 01909 00000 10138 20140 30105 40113 74000 333 59009 70000==
41936,2022,11,24,03,00,AAXX 24034 41936 01914 00000 10190 20140 30124 40131 70540 333 20134 59014 70000==
41936,2022,11,24,06,00,AAXX 24064 41936 01920 00406 10270 20140 30118 40125 70500 333 58003 70000==
41936,2022,11,24,09,00,AAXX 24094 41936 01925 03503 10288 20150 30087 40094 70500 333 59003 70000==
41936,2022,11,24,12,00,AAXX 24124 41936 01920 00000 10216 20170 30097 40104 70500 333 10292 58003 70000==
41936,2022,11,24,15,00,AAXX 24154 41936 01920 00000 10176 20160 30118 40125 70500 333 58008 70000==
41936,2022,11,24,18,00,AAXX 24184 41936 01920 00000 10160 20150 30113 40121 70500 333 58008 70000==
41936,2022,11,24,21,00,AAXX 24214 41936 01920 00000 10150 20140 30102 40109 70500 333 58003 70000==
41938,2022,11,18,00,00,AAXX 18004 41938 31915 03001 10172 20160 30113 40117 71000 333 58007 70000=
41938,2022,11,18,12,00,AAXX 18124 41938 31950 00000 10222 20170 30105 40109 70500 333 10287 58004 70000=
41938,2022,11,18,18,00,AAXX 18184 41938 31950 00000 10183 20170 30119 40123 70500 333 58006 70000=
41938,2022,11,19,00,00,AAXX 19004 41938 31950 00000 10175 20170 30117 40121 70500 333 58004 70000=
41938,2022,11,19,03,00,AAXX 19034 41938 32456 33502 10262 20180 30117 40121 82501 333 56909 59008 70000 82618=
41938,2022,11,19,12,00,AAXX 19124 41938 31950 10000 10221 20190 30101 40105 70521 80001 333 10280 56009 59004 70000 81080=
41938,2022,11,19,18,00,AAXX 19184 41938 31950 00000 10187 20180 30107 40111 70500 333 59012 70000=
41938,2022,11,20,00,00,AAXX 20004 41938 31935 73001 10185 20170 30107 40111 70521 82571 333 56699 59010 70000 82619 85460=
41938,2022,11,20,06,00,AAXX 20064 41938 31950 70303 10270 20150 30113 40117 70522 87070 333 56090 59004 70000 83460 86360=
41938,2022,11,20,12,00,AAXX 20124 41938 32956 70000 10249 20210 30092 40096 87030 333 10296 56090 59009 70000 87362=
41938,2022,11,20,18,00,AAXX 20184 41938 32956 03001 10205 20190 30101 40105 333 59006 70000=
41938,2022,11,21,00,00,AAXX 21004 41938 31925 30000 10184 20170 30093 40097 71000 81032 333 56099 59014 70000 81362=
41938,2022,11,21,06,00,AAXX 21064 41938 32956 13603 10280 20140 30108 40112 80001 333 56009 59005 70000 81080=
41938,2022,11,21,12,00,AAXX 21124 41938 32950 22701 10228 20210 30097 40100 82011 333 10293 56099 58005 70000 82460=
41938,2022,11,21,18,00,AAXX 21184 41938 32950 03001 10182 20170 30105 40109 333 58004 70000=
41938,2022,11,22,00,00,AAXX 22004 41938 31920 23001 10160 20150 30108 40112 71000 80001 333 56009 58015 70000 82080=
41938,2022,11,22,12,00,AAXX 22124 41938 31950 00000 10217 20180 30087 40091 70500 333 10280 59010 70000=
41938,2022,11,22,18,00,AAXX 22184 41938 31950 00000 10170 20160 30100 40104 70500 333 59005 70000=
41938,2022,11,23,00,00,AAXX 23004 41938 31920 00000 10160 20150 30101 40105 71000 333 59005 70000=
41938,2022,11,23,06,00,AAXX 23064 41938 31950 03503 10265 20160 30118 40122 70500 333 58003 70000=
41938,2022,11,23,12,00,AAXX 23124 41938 31950 00000 10205 20170 30097 40101 70500 333 10277 58010 70000=
41938,2022,11,23,18,00,AAXX 23184 41938 31930 00000 10165 20160 30107 40111 70500 333 58007 70000=
41938,2022,11,24,00,00,AAXX 24004 41938 31915 00000 10144 20130 30108 40112 71000 333 58007 70000=
41938,2022,11,24,06,00,AAXX 24064 41938 31950 03403 10265 20150 30115 40119 70500 333 59003 70000=
41938,2022,11,24,12,00,AAXX 24124 41938 32956 10000 10214 20170 30100 40104 80001 333 10279 56009 58003 70000 81080=
41938,2022,11,24,18,00,AAXX 24184 41938 31950 03001 10176 20170 30118 40122 70500 333 58011 70000=
41938,2022,11,24,21,00,AAXX 24214 41938 NIL=
41939,2022,11,18,00,00,AAXX 18004 41939 01940 00000 10178 20170 30125 40133 70500 333 58020 70000==
41939,2022,11,18,03,00,AAXX 18034 41939 01956 00000 10235 20200 30143 40151 70500 333 20172 58009 70000==
41939,2022,11,18,09,00,AAXX 18094 41939 02958 00000 10290 20170 30125 40133 333 58000 70000==
41939,2022,11,18,12,00,AAXX 18124 41939 02956 00000 10237 20190 30108 40116 333 10292 58006 70000==
41939,2022,11,18,15,00,AAXX 18154 41939 02950 00000 10217 20190 30124 40132 333 58007 70000==
41939,2022,11,18,18,00,AAXX 18184 41939 02950 00000 10190 20180 30137 40145 333 58009 70000==
41939,2022,11,18,21,00,AAXX 18214 41939 02950 00000 10188 20180 30131 40139 333 58006 70000==
41939,2022,11,19,00,00,AAXX 19004 41939 01956 00000 10185 20180 30128 40136 70500 333 58003 70000==
41939,2022,11,19,03,00,AAXX 19034 41939 01957 00000 10235 20210 30145 40153 70500 333 20173 58002 70000==
41939,2022,11,19,12,00,AAXX 19124 41939 02956 10000 10222 20200 30105 40113 81500 333 10285 59003 70000 81618==
41939,2022,11,19,15,00,AAXX 19154 41939 01950 00000 20190 30119 40128 70500 333 59005 70000==
41939,2022,11,19,18,00,AAXX 19184 41939 01950 00000 10131 20190 30131 40139 70500 333 59006 70000==
41939,2022,11,19,21,00,AAXX 19214 41939 01950 00000 10210 20200 30141 40149 70500 333 59003 70000==
41939,2022,11,20,00,00,AAXX 20004 41939 01940 00000 10206 20200 30115 40123 70500 333 59002 70000==
41939,2022,11,20,03,00,AAXX 20034 41939 02458 60000 10283 20250 30130 40138 83510 333 20250 59011 70000 83618 85459==
41939,2022,11,20,06,00,AAXX 20064 41939 02457 40000 10283 20210 30109 40117 81530 333 59025 70000 81616 83360==
41939,2022,11,20,09,00,AAXX 20094 41939 01957 00000 10282 20140 30107 40115 70500 333 59009 70000==
41939,2022,11,20,12,00,AAXX 20124 41939 01956 00000 10233 20210 30099 40107 70500 333 10290 59006 70000==
41939,2022,11,20,15,00,AAXX 20154 41939 01950 00000 10202 20170 30137 40145 70500 333 58004 70000==
41939,2022,11,20,18,00,AAXX 20184 41939 01950 00000 10203 20180 30132 40140 70500 333 58001 70000==
41939,2022,11,20,21,00,AAXX 20214 41939 02950 00000 10190 20180 30124 40132 333 59018 70000==
41939,2022,11,21,00,00,AAXX 21004 41939 02456 20000 10292 20280 30097 40105 81530 333 59021 70000 81618==
41939,2022,11,21,03,00,AAXX 21034 41939 01957 10000 10220 20190 30126 40134 70500 81500 333 20188 59011 70000 81618==
41939,2022,11,21,06,00,AAXX 21064 41939 01/57 10000 10291 20180 30109 40117 70500 81030 333 58000 70000 81362==
41939,2022,11,21,09,00,AAXX 21094 41939 01/56 10000 10289 20190 30092 40100 70500 81030 333 58001 70000 81362==
41939,2022,11,21,12,00,AAXX 21124 41939 01950 00000 10230 20190 30104 40112 70500 333 10293 58005 70000==
41939,2022,11,21,15,00,AAXX 21154 41939 01950 00000 10205 20190 30123 40131 70500 333 58006 70000==
41939,2022,11,21,18,00,AAXX 21184 41939 01940 00000 10192 20180 30139 40147 70500 333 58007 70000==
41939,2022,11,21,21,00,AAXX 21214 41939 01940 00000 10180 20170 30129 40137 70500 333 58005 70000==
41939,2022,11,22,00,00,AAXX 22004 41939 01956 00000 10170 20160 30119 40127 70500 333 58022 70000==
41939,2022,11,22,03,00,AAXX 22034 41939 01958 00000 10220 20190 30139 40147 70500 333 20165 58013 70000==
41939,2022,11,22,09,00,AAXX 22094 41939 01956 00000 10272 20130 30090 40098 70500 333 59002 70000==
41939,2022,11,22,12,00,AAXX 22124 41939 01950 00000 10208 20180 30095 40103 70500 333 10280 70000==
41939,2022,11,22,18,00,AAXX 22184 41939 01950 00000 10185 20180 30122 40130 70500 333 59017 70000==
41939,2022,11,22,21,00,AAXX 22214 41939 01950 00000 10170 20160 30132 40140 70500 333 59010 70000==
41939,2022,11,23,00,00,AAXX 23004 41939 01950 00000 10165 20160 30128 40136 70500 333 59011 70000==
41939,2022,11,23,03,00,AAXX 23034 41939 01958 00000 10217 20170 30144 40152 70500 333 20163 58005 70000==
41939,2022,11,23,06,00,AAXX 23064 41939 31957 00000 10280 20150 30113 40121 70500 333 58001 70000=
41939,2022,11,23,09,00,AAXX 23094 41939 01956 00000 10278 20180 30093 40101 70500 333 58003 70000==
41939,2022,11,23,12,00,AAXX 23124 41939 01956 00000 10215 20200 30099 40107 70500 333 10280 58004 70000==
41939,2022,11,23,15,00,AAXX 23154 41939 01950 00000 10198 20190 30112 40120 70500 333 58004 70000==
41939,2022,11,23,18,00,AAXX 23184 41939 01950 00000 10180 20170 30125 40133 70500 333 58003 70000==
41939,2022,11,23,21,00,AAXX 23214 41939 01940 00000 10165 20160 30125 40133 70500 333 59007 70000==
41939,2022,11,24,00,00,AAXX 24004 41939 01940 00000 10160 20150 30113 40122 70500 333 59015 70000==
41939,2022,11,24,03,00,AAXX 24034 41939 01957 70000 10205 20160 30130 40138 70500 333 20153 59014 70000==
41939,2022,11,24,06,00,AAXX 24064 41939 01957 00000 10277 20200 30112 40120 70500 333 59001 70000==
41939,2022,11,24,09,00,AAXX 24094 41939 01956 00000 10275 20140 30095 40103 70500 333 58002 70000==
41939,2022,11,24,12,00,AAXX 24124 41939 01950 00000 10197 20180 30108 40116 70500 333 10280 58009 70000==
41939,2022,11,24,15,00,AAXX 24154 41939 01950 00000 10190 20170 30119 40127 70500 333 58007 70000==
41939,2022,11,24,18,00,AAXX 24184 41939 31950 00000 10178 20170 30129 40137 70500 333 58004 70000=
41939,2022,11,24,21,00,AAXX 24214 41939 01950 00000 10175 20170 30125 40133 70500 333 58000 70000==
41941,2022,11,18,00,00,AAXX 18004 41941 02950 03603 10205 20190 30133 40139 333 58024 70000==
41941,2022,11,18,03,00,AAXX 18034 41941 02956 00000 10245 20200 30138 40144 333 20200 58016 70000==
41941,2022,11,18,09,00,AAXX 18094 41941 02956 03603 10300 20180 30099 40105 333 58007 70000==
41941,2022,11,18,12,00,AAXX 18124 41941 02450 50000 10250 20180 30101 40107 85500 333 10313 58011 70000 85615==
41941,2022,11,18,15,00,AAXX 18154 41941 02450 50000 10220 20200 30123 40128 85500 333 58006 70000 85615==
41941,2022,11,18,18,00,AAXX 18184 41941 NIL=
41941,2022,11,18,21,00,AAXX 18214 41941 02440 53603 10205 20200 30120 40126 85500 333 58004 70000 85615==
41941,2022,11,19,00,00,AAXX 19004 41941 02450 60000 10180 20170 30129 40135 85420 333 59004 70000 84616 86458==
41941,2022,11,19,03,00,AAXX 19034 41941 02456 63603 10240 20190 30140 40146 85420 333 20178 59003 70000 84616 86458==
41941,2022,11,19,06,00,AAXX 19064 41941 02456 50000 10280 20160 30124 40130 85500 333 59006 70000 85615==
41941,2022,11,19,12,00,AAXX 19124 41941 02450 63603 10250 20190 30093 40098 85420 333 10305 59008 70000 84615 86457==
41941,2022,11,19,15,00,AAXX 19154 41941 02950 00000 10230 20210 30118 40123 333 59005 70000==
41941,2022,11,19,18,00,AAXX 19184 41941 02940 00000 10220 20220 30120 40126 333 59008 70000==
41941,2022,11,19,21,00,AAXX 19214 41941 02440 60000 10220 20200 30141 40146 85420 333 58002 70000 84614 86457==
41941,2022,11,20,00,00,AAXX 20004 41941 02450 63604 10218 20200 30113 40119 85420 333 59016 70000 84616 86458==
41941,2022,11,20,03,00,AAXX 20034 41941 02456 63603 10260 20180 30127 40133 85420 333 20214 59013 70000 84615 86457==
41941,2022,11,20,06,00,AAXX 20064 41941 02450 83104 10310 20260 30104 40110 8632/ 333 59024 70000 85614 88456 81925==
41941,2022,11,20,09,00,AAXX 20094 41941 02450 63602 10296 20200 30088 40093 85420 333 59003 70000 84615 86457==
41941,2022,11,20,12,00,AAXX 20124 41941 02450 43103 10260 20190 30109 40115 83530 333 10312 59003 70000 83618 84362==
41941,2022,11,20,15,00,AAXX 20154 41941 02440 60000 10290 20260 30125 40131 85420 333 58019 70000 84616 86458==
41941,2022,11,20,18,00,AAXX 20184 41941 02440 60000 10245 20210 30111 40116 85420 333 59009 70000 84616 86458==
41941,2022,11,20,21,00,AAXX 20214 41941 02440 60000 10240 20200 30105 40110 85420 333 59006 70000 84616 86458==
41941,2022,11,21,00,00,AAXX 21004 41941 02450 63604 10213 20200 30095 40101 85420 333 59018 70000 84616 86458==
41941,2022,11,21,03,00,AAXX 21034 41941 02456 43103 10250 20200 30122 40127 83530 333 20211 59005 70000 83618 84362==
41941,2022,11,21,06,00,AAXX 21064 41941 02456 43603 10290 20190 30114 40119 83530 333 58003 70000 83618 84362==
41941,2022,11,21,09,00,AAXX 21094 41941 02456 33602 10291 20130 30089 40095 83500 333 58001 70000 83618==
41941,2022,11,21,12,00,AAXX 21124 41941 02450 33602 10251 20170 30092 40097 83500 333 10307 58001 70000 83618==
41941,2022,11,21,15,00,AAXX 21154 41941 02440 33102 10236 20200 30110 40115 83500 333 58001 70000 83618==
41941,2022,11,21,18,00,AAXX 21184 41941 02440 30000 10218 20190 30114 40119 83500 333 58003 70000 83618==
41941,2022,11,21,21,00,AAXX 21214 41941 02440 30000 10210 20180 30108 40113 83500 333 58003 70000 83618==
41941,2022,11,22,00,00,AAXX 22004 41941 02450 30000 10205 20180 30119 40125 83500 333 58024 70000 83618==
41941,2022,11,22,03,00,AAXX 22034 41941 02956 03103 10250 20170 30132 40138 333 20203 58010 70000==
41941,2022,11,22,09,00,AAXX 22094 41941 02956 03104 10280 20150 30093 40098 333 58004 70000==
41941,2022,11,22,12,00,AAXX 22124 41941 02950 03102 10235 20180 30089 40094 333 10292 59003 70000==
41941,2022,11,22,15,00,AAXX 22154 41941 02440 43102 10224 20190 30105 40110 83530 333 59005 70000 83618 84362==
41941,2022,11,22,18,00,AAXX 22184 41941 02440 43102 10219 20190 30110 40115 83530 333 59004 70000 83618 84362==
41941,2022,11,22,21,00,AAXX 22214 41941 02440 43103 10210 20180 30108 40114 83530 333 58000 70000 83618 84362==
41941,2022,11,23,00,00,AAXX 23004 41941 02450 43103 10205 20190 30107 40113 83530 333 59012 70000 83628 84362==
41941,2022,11,23,03,00,AAXX 23034 41941 02456 43104 10242 20190 30132 40138 83530 333 20199 58000 70000 83618 84362==
41941,2022,11,23,06,00,AAXX 23064 41941 32456 63104 10280 20180 30118 40123 85420 333 56990 58004 70000 84615 86457=
41941,2022,11,23,09,00,AAXX 23094 41941 02456 63103 10290 20160 30094 40099 85420 333 58001 70000 84615 86457==
41941,2022,11,23,12,00,AAXX 23124 41941 02450 60000 10232 20190 30098 40103 85420 333 10298 58009 70000 84615 86458==
41941,2022,11,23,15,00,AAXX 23154 41941 02450 60000 10215 20190 30106 40111 85420 333 58001 70000 84615 86457==
41941,2022,11,23,18,00,AAXX 23184 41941 02440 60000 10210 20190 30114 40119 85420 333 58004 70000 84616 86458==
41941,2022,11,23,21,00,AAXX 23214 41941 02440 60000 10208 20200 30110 40116 85420 333 58002 70000 84616 86458==
41941,2022,11,24,00,00,AAXX 24004 41941 01430 63603 10190 20180 30103 40109 70522 85420 333 59004 70000 84612 86456==
41941,2022,11,24,03,00,AAXX 24034 41941 02450 63103 10235 20190 30113 40119 85420 333 20188 59019 70000 84613 86456==
41941,2022,11,24,06,00,AAXX 24064 41941 02456 63603 10280 20170 30116 40122 85420 333 59002 70000 84616 86458==
41941,2022,11,24,09,00,AAXX 24094 41941 02456 63103 10290 20170 30091 40096 85420 333 59003 70000 84616 86458==
41941,2022,11,24,12,00,AAXX 24124 41941 NIL=
41941,2022,11,24,15,00,AAXX 24154 41941 02440 63102 10225 20220 30120 40126 85420 333 58014 70000 84616 86458==
41941,2022,11,24,18,00,AAXX 24184 41941 02440 60000 10218 20200 30112 40118 85420 333 59002 70000 84616 86458==
41941,2022,11,24,21,00,AAXX 24214 41941 01440 63102 10208 20190 30114 40120 70522 85420 333 58004 70000 84616 86458==
41943,2022,11,18,00,00,AAXX 18004 41943 01930 00000 10170 20160 30113 40121 70500 333 58008 70000==
41943,2022,11,18,03,00,AAXX 18034 41943 01940 00000 10245 20170 30132 40140 70500 333 58009 70000==
41943,2022,11,18,06,00,AAXX 18064 41943 01940 03604 10292 20160 30121 40129 70500 333 58013 70000==
41943,2022,11,18,09,00,AAXX 18094 41943 01940 03103 10300 20130 30095 40103 70500 333 58010 70000==
41943,2022,11,18,12,00,AAXX 18124 41943 01930 00000 10237 20190 30101 40109 70500 333 10308 58008 70000==
41943,2022,11,18,15,00,AAXX 18154 41943 01930 00000 10195 20180 30122 40130 70500 333 58009 70000==
41943,2022,11,18,18,00,AAXX 18184 41943 01930 00000 10180 20170 30122 40130 70500 333 58006 70000==
41943,2022,11,18,21,00,AAXX 18214 41943 01930 00000 10165 20160 30119 40127 70500 333 58015 70000==
41943,2022,11,19,00,00,AAXX 19004 41943 01930 30000 10158 20150 30117 40125 70511 83001 333 58004 70000 83080==
41943,2022,11,19,03,00,AAXX 19034 41943 01935 03602 10240 20160 30134 40142 70500 333 20158 58002 70000==
41943,2022,11,19,06,00,AAXX 19064 41943 01930 33602 10292 20150 30106 40114 70511 83001 333 59015 70000 83080==
41943,2022,11,19,09,00,AAXX 19094 41943 01/40 43102 10316 20140 30085 40093 70521 84030 333 59010 70000 84362==
41943,2022,11,19,12,00,AAXX 19124 41943 01/30 40000 10255 20190 30093 40101 70522 84030 333 59008 70000 84362==
41943,2022,11,19,15,00,AAXX 19154 41943 01930 00000 10220 20200 30111 40119 70500 333 59011 70000==
41943,2022,11,19,18,00,AAXX 19184 41943 01930 00000 10195 20180 30106 40114 70500 333 59016 70000==
41943,2022,11,19,21,00,AAXX 19214 41943 01430 50000 10195 20190 30101 40109 70522 82530 333 59018 70000 82618 84362==
41943,2022,11,20,00,00,AAXX 20004 41943 31430 50000 10195 20190 30099 40107 82530 333 56990 59018 70000 82618 84362=
41943,2022,11,20,03,00,AAXX 20034 41943 01935 03602 10230 20190 30143 40151 70500 333 20178 59003 70000==
41943,2022,11,20,06,00,AAXX 20064 41943 02440 60502 10332 20220 30110 40118 84430 333 58008 70000 83616 83362==
41943,2022,11,20,09,00,AAXX 20094 41943 01440 33602 10312 20130 30080 40088 70520 83500 333 59005 70000 83618==
41943,2022,11,20,12,00,AAXX 20124 41943 01930 00000 10256 20210 30088 40096 70500 333 10316 59005 70000==
41943,2022,11,20,15,00,AAXX 20154 41943 01930 00000 10220 20200 30101 40109 70500 333 59010 70000==
41943,2022,11,20,18,00,AAXX 20184 41943 01430 40000 10256 20240 30104 40112 70522 82530 333 58013 70000 82618==
41943,2022,11,20,21,00,AAXX 20214 41943 01930 50000 10204 20190 30095 40103 70520 82530 333 59006 70000 82618 83362==
41943,2022,11,21,00,00,AAXX 21004 41943 01430 60000 10198 20190 30083 40091 70522 83530 333 59016 70000 83616 84362==
41943,2022,11,21,03,00,AAXX 21034 41943 01435 53602 10244 20190 30107 40115 70522 83530 333 20198 59013 70000 83616 83362==
41943,2022,11,21,06,00,AAXX 21064 41943 01435 53103 10308 20170 30098 40106 70522 83530 333 59009 70000 83616 83362==
41943,2022,11,21,09,00,AAXX 21094 41943 01940 03102 10310 20150 30079 40086 70520 333 59001 70000==
41943,2022,11,21,12,00,AAXX 21124 41943 01930 03602 10260 20200 30087 40095 70500 333 10325 59001 70000==
41943,2022,11,21,15,00,AAXX 21154 41943 01930 00000 10220 20180 30107 40115 70500 333 58006 70000==
41943,2022,11,21,18,00,AAXX 21184 41943 01930 00000 10210 20190 30105 40113 70500 333 58007 70000==
41943,2022,11,21,21,00,AAXX 21214 41943 01930 00000 10196 20190 30106 40114 70500 333 58011 70000==
41943,2022,11,22,00,00,AAXX 22004 41943 01930 00000 10174 20160 30106 40114 70522 333 58023 70000==
41943,2022,11,22,03,00,AAXX 22034 41943 01930 00000 10234 20170 30126 40134 70500 333 20172 58019 70000==
41943,2022,11,22,06,00,AAXX 22064 41943 01935 03103 10282 20120 30112 40120 70500 333 58014 70000==
41943,2022,11,22,09,00,AAXX 22094 41943 01940 03102 10285 20130 30082 40090 70500 333 58003 70000==
41943,2022,11,22,12,00,AAXX 22124 41943 01935 03102 10232 20180 30083 40091 70500 333 10308 59004 70000==
41943,2022,11,22,15,00,AAXX 22154 41943 01930 00000 10192 20170 30100 40108 70500 333 59007 70000==
41943,2022,11,22,18,00,AAXX 22184 41943 01930 00000 10184 20160 30107 40115 70500 333 58002 70000==
41943,2022,11,22,21,00,AAXX 22214 41943 01930 00000 10163 20152 30106 40114 70500 333 58000 70000==
41943,2022,11,23,00,00,AAXX 23004 41943 01930 00000 10157 20150 30106 40114 70500 333 58000 70000==
41943,2022,11,23,03,00,AAXX 23034 41943 01930 03102 10208 20190 30127 40135 70500 333 20155 58001 70000==
41943,2022,11,23,06,00,AAXX 23064 41943 01935 03103 10278 20150 30111 40119 70500 333 59001 70000==
41943,2022,11,23,09,00,AAXX 23094 41943 01940 03102 10295 20150 30084 40099 70500 333 58002 70000==
41943,2022,11,23,12,00,AAXX 23124 41943 01930 03602 10240 20180 30089 40097 70500 333 10300 58006 70000==
41943,2022,11,23,15,00,AAXX 23154 41943 01930 00000 10194 20170 30102 40110 70500 333 58002 70000==
41943,2022,11,23,18,00,AAXX 23184 41943 01930 00000 10184 20160 30109 40117 70500 333 58002 70000==
41943,2022,11,23,21,00,AAXX 23214 41943 01930 00000 10166 20160 30105 40113 70500 333 59001 70000==
41943,2022,11,24,00,00,AAXX 24004 41943 01930 00000 10154 20140 30101 40109 70500 333 59005 70000==
41943,2022,11,24,03,00,AAXX 24034 41943 01935 03102 10212 20170 30120 40127 70500 333 20152 59007 70000==
41943,2022,11,24,06,00,AAXX 24064 41943 01940 03103 10284 20150 30108 40116 70500 333 59003 70000==
41943,2022,11,24,09,00,AAXX 24094 41943 01940 03102 10290 20150 30083 40091 70500 333 59001 70000==
41943,2022,11,24,12,00,AAXX 24124 41943 01930 03602 10230 20180 30092 40100 70500 333 10296 58003 70000==
41943,2022,11,24,15,00,AAXX 24154 41943 01930 00000 10192 20170 30115 40123 70500 333 58013 70000==
41943,2022,11,24,18,00,AAXX 24184 41943 01930 00000 10184 20170 30118 40126 70500 333 58009 70000==
41943,2022,11,24,21,00,AAXX 24214 41943 01930 00000 10184 20170 30115 40123 70500 333 58010 70000==
41944,2022,11,18,12,00,AAXX 18124 41944 NIL=
41944,2022,11,18,18,00,AAXX 18184 41944 NIL=
41944,2022,11,19,03,00,AAXX 19034 41944 NIL=
41944,2022,11,19,12,00,AAXX 19124 41944 NIL=
41944,2022,11,19,18,00,AAXX 19184 41944 NIL=
41944,2022,11,20,00,00,AAXX 20004 41944 NIL=
41944,2022,11,20,06,00,AAXX 20064 41944 NIL=
41944,2022,11,20,12,00,AAXX 20124 41944 NIL=
41944,2022,11,20,18,00,AAXX 20184 41944 NIL=
41944,2022,11,21,00,00,AAXX 21004 41944 NIL=
41944,2022,11,21,12,00,AAXX 21124 41944 NIL=
41944,2022,11,21,18,00,AAXX 21184 41944 NIL=
41944,2022,11,22,00,00,AAXX 22004 41944 NIL=
41944,2022,11,22,18,00,AAXX 22184 41944 NIL=
41944,2022,11,23,12,00,AAXX 23124 41944 NIL=
41944,2022,11,23,18,00,AAXX 23184 41944 NIL=
41944,2022,11,24,06,00,AAXX 24064 41944 NIL=
41944,2022,11,24,12,00,AAXX 24124 41944 NIL=
41944,2022,11,24,18,00,AAXX 24184 41944 NIL=
41944,2022,11,24,21,00,AAXX 24214 41944 NIL=
41946,2022,11,18,00,00,AAXX 18004 41946 01940 00000 10180 20170 30120 40125 70500 333 58010 70000==
41946,2022,11,18,03,00,AAXX 18034 41946 02956 00000 10226 20170 30144 40149 333 20170 58014 70000==
41946,2022,11,18,09,00,AAXX 18094 41946 02956 23602 10288 20090 30109 40113 80001 333 58011 70000 82080==
41946,2022,11,18,12,00,AAXX 18124 41946 02956 10000 10221 20180 30112 40117 80001 333 10291 58004 70000 81080==
41946,2022,11,18,15,00,AAXX 18154 41946 01950 00000 10200 20180 30133 40138 70500 333 58013 70000==
41946,2022,11,18,18,00,AAXX 18184 41946 01950 00000 10196 20180 30134 40139 70500 333 58015 70000==
41946,2022,11,18,21,00,AAXX 18214 41946 02950 10000 10193 20160 30132 40137 80001 333 58015 70000 81080==
41946,2022,11,19,00,00,AAXX 19004 41946 02956 30000 10190 20130 30130 40135 80001 333 58010 70000 83080==
41946,2022,11,19,03,00,AAXX 19034 41946 02/56 50000 10230 20120 30143 40147 83031 333 20185 59001 70000 83362==
41946,2022,11,19,06,00,AAXX 19064 41946 02956 50000 10250 20140 30128 40133 80001 333 59005 70000 85080==
41946,2022,11,19,12,00,AAXX 19124 41946 02956 30000 10238 20160 30103 40107 80001 333 10288 59009 70000 83080==
41946,2022,11,19,15,00,AAXX 19154 41946 02956 00000 10196 20180 30117 40122 333 59016 70000==
41946,2022,11,19,18,00,AAXX 19184 41946 02956 00000 10188 20170 30116 40121 333 59018 70000==
41946,2022,11,19,21,00,AAXX 19214 41946 01940 00000 10197 20190 30126 40131 70500 333 59013 70000==
41946,2022,11,20,00,00,AAXX 20004 41946 02956 00000 10202 20190 30110 40114 333 59003 70000==
41946,2022,11,20,03,00,AAXX 20034 41946 02456 60000 10230 20170 30129 40134 82530 333 20180 59014 70000 82618==
41946,2022,11,20,06,00,AAXX 20064 41946 02456 80000 10290 20240 30107 40111 8351/ 333 59011 70000 83618 88460==
41946,2022,11,20,09,00,AAXX 20094 41946 02456 80000 10288 20250 30088 40092 8542/ 333 59006 70000 83618 83820 88459==
41946,2022,11,20,12,00,AAXX 20124 41946 02/56 60000 10259 20200 30095 40099 86030 333 10296 59008 70000 86362==
41946,2022,11,20,15,00,AAXX 20154 41946 02956 00000 10196 20180 30136 40141 333 58001 70000==
41946,2022,11,20,18,00,AAXX 20184 41946 02956 00000 10214 20180 30105 40110 333 59011 70000==
41946,2022,11,20,21,00,AAXX 20214 41946 02/56 20000 10203 20170 30100 40105 82030 333 59016 70000 82362==
41946,2022,11,21,00,00,AAXX 21004 41946 02956 30000 10192 20170 30097 40102 80004 333 59017 70000 83080==
41946,2022,11,21,03,00,AAXX 21034 41946 02/56 60000 10230 20160 30126 40131 83031 333 20185 59003 70000 83362 83080==
41946,2022,11,21,06,00,AAXX 21064 41946 02956 20000 10285 20160 30112 40116 80001 333 59003 70000 82080==
41946,2022,11,21,09,00,AAXX 21094 41946 02956 00000 10293 20140 30089 40093 333 59006 70000==
41946,2022,11,21,12,00,AAXX 21124 41946 02956 00000 10238 20190 30095 40099 333 10294 58000 70000==
41946,2022,11,21,15,00,AAXX 21154 41946 02956 00000 10212 20190 30115 40120 333 58003 70000==
41946,2022,11,21,18,00,AAXX 21184 41946 01950 00000 10196 20190 30114 40119 70500 333 58009 70000==
41946,2022,11,21,21,00,AAXX 21214 41946 01950 00000 10184 20170 30109 40114 70500 333 58009 70000==
41946,2022,11,22,00,00,AAXX 22004 41946 01940 30000 10168 20160 30115 40119 70500 80001 333 58018 70000 83080==
41946,2022,11,22,03,00,AAXX 22034 41946 02956 30000 10225 20140 30131 40136 80001 333 20162 58005 70000 83080==
41946,2022,11,22,09,00,AAXX 22094 41946 02956 00000 10283 20120 30094 40098 333 58005 70000==
41946,2022,11,22,12,00,AAXX 22124 41946 02956 00000 10222 20170 30094 40098 333 10286 59001 70000==
41946,2022,11,22,15,00,AAXX 22154 41946 02956 00000 10194 20170 30112 40117 333 59003 70000==
41946,2022,11,22,18,00,AAXX 22184 41946 02956 00000 10176 20160 30111 40116 333 59003 70000==
41946,2022,11,23,00,00,AAXX 23004 41946 01940 20000 10165 20160 30112 40116 70500 80001 333 59003 70000 82080==
41946,2022,11,23,03,00,AAXX 23034 41946 02956 20000 10220 20160 30136 40141 80001 333 20158 58005 70000 82080==
41946,2022,11,23,06,00,AAXX 23064 41946 32956 00000 10270 20140 30113 40117 333 58001 70000=
41946,2022,11,23,09,00,AAXX 23094 41946 02956 00000 10284 20140 30098 40102 333 58009 70000==
41946,2022,11,23,12,00,AAXX 23124 41946 02956 10000 10218 20180 30102 40107 80001 333 10286 58008 70000 81080==
41946,2022,11,23,15,00,AAXX 23154 41946 01950 00000 10190 20170 30114 40119 70500 333 58002 70000==
41946,2022,11,23,18,00,AAXX 23184 41946 01940 00000 10170 20160 30117 40122 70500 333 58006 70000==
41946,2022,11,23,21,00,AAXX 23214 41946 01940 00000 10163 20150 30113 40118 70500 333 58002 70000==
41946,2022,11,24,00,00,AAXX 24004 41946 01940 00000 10150 20140 30110 40114 70500 333 59002 70000==
41946,2022,11,24,03,00,AAXX 24034 41946 02956 00000 10215 20160 30128 40133 333 20142 59008 70000==
41946,2022,11,24,06,00,AAXX 24064 41946 02956 00000 10275 20130 30114 40118 333 58001 70000==
41946,2022,11,24,09,00,AAXX 24094 41946 02956 00000 10283 20120 30094 40098 333 58004 70000==
41946,2022,11,24,12,00,AAXX 24124 41946 02956 00000 10214 20170 30101 40106 333 10284 59001 70000==
41946,2022,11,24,15,00,AAXX 24154 41946 01950 00000 10184 20150 30129 40134 70500 333 58015 70000==
41946,2022,11,24,18,00,AAXX 24184 41946 01950 00000 10172 20150 30130 40135 70500 333 58013 70000==
41946,2022,11,24,21,00,AAXX 24214 41946 01950 00000 10166 20150 30126 40131 70500 333 58013 70000==
41947,2022,11,18,00,00,AAXX 18004 41947 01940 00000 10180 20180 30114 40116 70500 333 58019 70000==
41947,2022,11,18,03,00,AAXX 18034 41947 01950 00000 10230 20180 30137 40140 70500 333 20176 58013 70000==
41947,2022,11,18,06,00,AAXX 18064 41947 32956 00000 10290 20140 30123 40125 333 58005 70000=
41947,2022,11,18,09,00,AAXX 18094 41947 02956 00000 10202 20130 30106 40108 333 58010 70000==
41947,2022,11,18,12,00,AAXX 18124 41947 02950 00000 10232 20170 30109 40111 333 10298 58006 70000==
41947,2022,11,18,15,00,AAXX 18154 41947 01940 00000 10206 20200 30131 40133 70500 333 58010 70000==
41947,2022,11,18,18,00,AAXX 18184 41947 NIL=
41947,2022,11,18,21,00,AAXX 18214 41947 01940 00000 10190 20180 30132 40134 70500 333 58014 70000==
41947,2022,11,19,00,00,AAXX 19004 41947 01950 00000 10180 20170 30133 40136 70500 333 58020 70000==
41947,2022,11,19,03,00,AAXX 19034 41947 01450 40000 10233 20150 30134 40137 70520 84400 333 20176 59003 70000 81618 83820==
41947,2022,11,19,06,00,AAXX 19064 41947 02456 50000 10270 20170 30114 40117 85400 333 59008 70000 82618 83820==
41947,2022,11,19,12,00,AAXX 19124 41947 02450 50000 10240 20190 30099 40101 82530 333 10290 59010 70000 82618 83362==
41947,2022,11,19,15,00,AAXX 19154 41947 02950 00000 10208 20190 30111 40113 333 59020 70000==
41947,2022,11,19,18,00,AAXX 19184 41947 02950 00000 10198 20190 30114 40116 333 59018 70000==
41947,2022,11,19,21,00,AAXX 19214 41947 02950 00000 10197 20190 30107 40109 333 59025 70000==
41947,2022,11,20,00,00,AAXX 20004 41947 01450 50000 10196 20190 30103 40105 70521 82530 333 59031 70000 82618 83362==
41947,2022,11,20,03,00,AAXX 20034 41947 01950 00000 10273 20210 30122 40124 70500 333 20205 58000 70000==
41947,2022,11,20,06,00,AAXX 20064 41947 01450 70000 10275 20160 30118 40120 70522 83570 333 58003 70000 83618 86459==
41947,2022,11,20,09,00,AAXX 20094 41947 02956 00000 10300 20150 30105 40107 333 59012 70000==
41947,2022,11,20,12,00,AAXX 20124 41947 02450 80000 10270 20210 30088 40090 8352/ 333 10310 59011 70000 83618 88459==
41947,2022,11,20,15,00,AAXX 20154 41947 01950 00000 10203 20180 30134 40136 70500 333 58006 70000==
41947,2022,11,20,18,00,AAXX 20184 41947 01950 00000 10198 20190 30115 40117 70500 333 59001 70000==
41947,2022,11,20,21,00,AAXX 20214 41947 01940 00000 10196 20180 30100 40102 70500 333 59008 70000==
41947,2022,11,21,00,00,AAXX 21004 41947 01950 00000 10190 20180 30094 40097 70500 333 59008 70000==
41947,2022,11,21,03,00,AAXX 21034 41947 01450 60000 10236 20180 30118 40120 70520 83570 333 20186 59006 70000 83618 84459==
41947,2022,11,21,06,00,AAXX 21064 41947 02/56 20000 10290 20140 30109 40111 82030 333 59009 70000 82362==
41947,2022,11,21,09,00,AAXX 21094 41947 02956 00000 10300 20150 30096 40098 333 58006 70000==
41947,2022,11,21,12,00,AAXX 21124 41947 02950 00000 10255 20190 30092 40094 333 10305 58004 70000==
41947,2022,11,21,15,00,AAXX 21154 41947 01940 00000 10215 20190 30103 40105 70500 333 58000 70000==
41947,2022,11,21,18,00,AAXX 21184 41947 01940 00000 10205 20190 30115 40117 70500 333 58000 70000==
41947,2022,11,21,21,00,AAXX 21214 41947 01940 00000 10187 20180 30110 40112 70500 333 59010 70000==
41947,2022,11,22,00,00,AAXX 22004 41947 01950 00000 10175 20160 30108 40110 70500 333 59014 70000==
41947,2022,11,22,03,00,AAXX 22034 41947 01950 00000 10240 20170 30130 40133 70500 333 20172 58013 70000==
41947,2022,11,22,09,00,AAXX 22094 41947 02956 00000 10290 20130 30088 40090 333 59008 70000==
41947,2022,11,22,12,00,AAXX 22124 41947 02950 00000 10254 20180 30084 40086 333 10292 59008 70000==
41947,2022,11,22,15,00,AAXX 22154 41947 02950 00000 10198 20190 30106 40108 333 58003 70000==
41947,2022,11,22,18,00,AAXX 22184 41947 02950 00000 10195 20190 30109 40111 333 59006 70000==
41947,2022,11,22,21,00,AAXX 22214 41947 02950 00000 10180 20170 30107 40109 333 59003 70000==
41947,2022,11,23,00,00,AAXX 23004 41947 01950 00000 10170 20170 30104 40106 70500 333 59004 70000==
41947,2022,11,23,03,00,AAXX 23034 41947 01950 00000 10225 20170 30133 40136 70500 333 20165 58003 70000==
41947,2022,11,23,06,00,AAXX 23064 41947 32956 00000 10278 20160 30116 40119 333 58002 70000=
41947,2022,11,23,12,00,AAXX 23124 41947 02950 00000 10228 20180 30099 40101 333 10295 58015 70000==
41947,2022,11,23,15,00,AAXX 23154 41947 01940 00000 10200 20190 30108 40110 70500 333 58002 70000==
41947,2022,11,23,18,00,AAXX 23184 41947 01940 00000 10184 20170 30114 40116 70500 333 58005 70000==
41947,2022,11,23,21,00,AAXX 23214 41947 01940 00000 10170 20160 30114 40116 70500 333 58007 70000==
41947,2022,11,24,00,00,AAXX 24004 41947 01940 00000 10157 20150 30113 40115 70500 333 58009 70000==
41947,2022,11,24,03,00,AAXX 24034 41947 01950 00000 10225 20150 30126 40129 70500 333 20150 59007 70000==
41947,2022,11,24,06,00,AAXX 24064 41947 01950 00000 10278 20140 30120 40122 70500 333 58003 70000==
41947,2022,11,24,09,00,AAXX 24094 41947 02956 03102 10290 20140 30094 40097 333 59007 70000==
41947,2022,11,24,12,00,AAXX 24124 41947 01950 00000 10228 20180 30102 40104 70500 333 10294 58003 70000==
41947,2022,11,24,15,00,AAXX 24154 41947 01950 00000 10195 20190 30124 40126 70500 333 58016 70000==
41947,2022,11,24,18,00,AAXX 24184 41947 01950 00000 10185 20180 30126 40128 70500 333 58012 70000==
41947,2022,11,24,21,00,AAXX 24214 41947 01950 00000 10180 20160 30121 40124 70500 333 58008 70000==
41950,2022,11,18,00,00,AAXX 18004 41950 01940 00000 10170 20170 30117 40120 70500 333 58004 70000==
41950,2022,11,18,03,00,AAXX 18034 41950 02950 00000 10240 20190 30145 40148 333 20165 58014 70000==
41950,2022,11,18,06,00,AAXX 18064 41950 02950 03202 10286 20160 30129 40131 333 58010 70000==
41950,2022,11,18,09,00,AAXX 18094 41950 02950 00000 10292 20160 30101 40104 333 58006 70000==
41950,2022,11,18,12,00,AAXX 18124 41950 02950 10000 10217 20210 30110 40112 80001 333 10298 58007 71080==
41950,2022,11,18,15,00,AAXX 18154 41950 02950 00000 10190 30132 40134 333 58011 70000==
41950,2022,11,18,18,00,AAXX 18184 41950 02950 00000 10180 20180 30132 40134 333 58012 70000==
41950,2022,11,18,21,00,AAXX 18214 41950 01945 00000 10172 20172 30126 40129 70500 333 58013 70000==
41950,2022,11,19,00,00,AAXX 19004 41950 01440 30000 10164 20164 30130 40133 70510 82501 333 58013 70000 82616==
41950,2022,11,19,03,00,AAXX 19034 41950 42/50 30000 10238 20160 30142 40145 59003 83080==
41950,2022,11,19,06,00,AAXX 19064 41950 02950 20000 10288 20140 30123 40125 80001 333 59006 70000 82080==
41950,2022,11,19,09,00,AAXX 19094 41950 02950 30000 10306 20180 30094 40096 80001 333 59007 70000 83080==
41950,2022,11,19,12,00,AAXX 19124 41950 02/50 20000 10227 20210 30102 40104 82031 333 10310 59008 70000 82362==
41950,2022,11,19,15,00,AAXX 19154 41950 02450 10000 10204 20190 30117 40119 81500 333 59015 70000 81617==
41950,2022,11,19,18,00,AAXX 19184 41950 02/50 30000 10199 20199 30111 40113 83030 333 59021 70000 83362==
41950,2022,11,19,21,00,AAXX 19214 41950 02950 20000 10196 20196 30107 40110 80001 333 59019 70000 82080==
41950,2022,11,20,00,00,AAXX 20004 41950 31945 30000 10190 20190 30109 40112 70511 80001 333 56009 59021 70000 83080=
41950,2022,11,20,06,00,AAXX 20064 41950 02/50 53602 10302 20180 30117 40119 85030 333 59006 70000 85362==
41950,2022,11,20,09,00,AAXX 20094 41950 02950 00000 10307 20180 30090 40093 333 59004 70000==
41950,2022,11,20,12,00,AAXX 20124 41950 02/50 50000 10245 20220 30095 40098 85030 333 10316 59007 70000 85362==
41950,2022,11,20,15,00,AAXX 20154 41950 02450 60000 10268 20260 30046 40048 84430 333 58016 70126 83616 83362==
41950,2022,11,20,18,00,AAXX 20184 41950 02950 00000 10208 20208 30108 40111 333 59003 70000==
41950,2022,11,20,21,00,AAXX 20214 41950 02950 00000 10184 20180 30095 40098 333 59012 70000==
41950,2022,11,21,00,00,AAXX 21004 41950 02950 20000 10184 20180 30095 40098 80001 333 59014 70000==
41950,2022,11,21,03,00,AAXX 21034 41950 02950 30000 10250 20180 30119 40121 80001 333 20182 59010 70000 83080==
41950,2022,11,21,06,00,AAXX 21064 41950 02950 10000 10300 20170 30107 40110 80001 333 59010 70000 81080==
41950,2022,11,21,09,00,AAXX 21094 41950 02950 10000 10306 20160 30094 40097 80001 333 58004 70000 81080==
41950,2022,11,21,12,00,AAXX 21124 41950 02950 20000 10227 20200 30100 40102 80001 333 10313 58005 70000 82080==
41950,2022,11,21,15,00,AAXX 21154 41950 02950 00000 10201 20190 30113 40116 333 58001 70000==
41950,2022,11,21,18,00,AAXX 21184 41950 02950 00000 10194 20180 30108 40110 333 58000 70000==
41950,2022,11,21,21,00,AAXX 21214 41950 02950 00000 10180 20170 30109 40112 333 58014 70000==
41950,2022,11,22,00,00,AAXX 22004 41950 01950 20000 10167 20167 30113 40116 70510 80001 333 58018 70000 82080==
41950,2022,11,22,03,00,AAXX 22034 41950 02950 00000 10245 20170 30136 40139 333 20162 58017 70000==
41950,2022,11,22,06,00,AAXX 22064 41950 02950 00000 10286 20150 30122 40124 333 58015 70000==
41950,2022,11,22,09,00,AAXX 22094 41950 02950 00000 10295 20140 30094 40096 333 58000 70000==
41950,2022,11,22,12,00,AAXX 22124 41950 02950 00000 10205 20190 30094 40096 333 10300 59006 70000==
41950,2022,11,22,15,00,AAXX 22154 41950 02950 00000 10181 20180 30106 40109 333 59007 70000==
41950,2022,11,22,18,00,AAXX 22184 41950 02950 00000 10173 20170 30111 40114 333 58003 70000==
41950,2022,11,22,21,00,AAXX 22214 41950 01950 00000 10164 20160 30109 40112 70500 333 58000 70000==
41950,2022,11,23,00,00,AAXX 23004 41950 01940 00000 10159 20159 30113 40115 70500 333 58000 70000==
41950,2022,11,23,03,00,AAXX 23034 41950 02950 00000 10220 20180 30137 40140 333 20154 58001 70000==
41950,2022,11,23,06,00,AAXX 23064 41950 02950 00000 10278 20170 30124 40126 333 58002 70000==
41950,2022,11,23,09,00,AAXX 23094 41950 02950 00000 10287 20160 30094 40096 333 58000 70000==
41950,2022,11,23,12,00,AAXX 23124 41950 02950 00000 10212 20190 30099 40101 333 10292 58005 70000==
41950,2022,11,23,15,00,AAXX 23154 41950 02950 00000 10187 20187 30115 40118 333 58009 70000==
41950,2022,11,23,18,00,AAXX 23184 41950 01950 00000 10174 20174 30117 40120 70500 333 58006 70000==
41950,2022,11,23,21,00,AAXX 23214 41950 01945 00000 10165 20165 30111 40114 70500 333 59002 70000==
41950,2022,11,24,00,00,AAXX 24004 41950 01940 00000 10156 20156 30112 40114 70500 333 59001 70000==
41950,2022,11,24,03,00,AAXX 24034 41950 01945 00000 10218 20170 30132 40135 70500 333 20150 59005 70000==
41950,2022,11,24,06,00,AAXX 24064 41950 02950 03602 10277 20160 30117 40119 333 59007 70000==
41950,2022,11,24,09,00,AAXX 24094 41950 02950 03202 10289 20160 30093 40095 333 59001 70000==
41950,2022,11,24,12,00,AAXX 24124 41950 02950 00000 10209 20200 30104 40106 333 10292 58005 70000==
41950,2022,11,24,15,00,AAXX 24154 41950 02950 00000 10184 20180 30125 40128 333 58010 70000==
41950,2022,11,24,18,00,AAXX 24184 41950 01945 00000 10174 20170 30125 40128 70500 333 58008 70000==
41950,2022,11,24,21,00,AAXX 24214 41950 01945 00000 10161 20160 30120 40123 70500 333 58003 70000==
41951,2022,11,18,00,00,AAXX 18004 41951 01420 30000 10186 20186 30119 40124 71000 83500 333 58011 70000 83618==
41951,2022,11,18,03,00,AAXX 18034 41951 01950 00000 10248 20200 30133 40138 70500 333 20175 58006 70000==
41951,2022,11,18,09,00,AAXX 18094 41951 02956 02702 10302 20170 30097 40102 333 58002 70000==
41951,2022,11,18,12,00,AAXX 18124 41951 01950 00000 10215 20210 30098 40103 70500 333 10307 58005 70000==
41951,2022,11,18,15,00,AAXX 18154 41951 01940 00000 10196 20196 30130 40135 70500 333 58013 70000==
41951,2022,11,18,18,00,AAXX 18184 41951 01935 00000 10184 20180 30123 40128 70500 333 58009 70000==
41951,2022,11,18,21,00,AAXX 18214 41951 01430 20000 10180 20180 30120 40125 70500 82500 333 58005 70000 82618==
41951,2022,11,19,00,00,AAXX 19004 41951 01420 30000 10176 20176 30119 40124 71000 83500 333 58000 70000 83618==
41951,2022,11,19,03,00,AAXX 19034 41951 01450 20000 10246 20200 30135 40140 70500 82500 333 20168 58002 70000 82618==
41951,2022,11,19,06,00,AAXX 19064 41951 02456 42702 10295 20170 30113 40118 82508 333 58008 70000 82618 83278==
41951,2022,11,19,12,00,AAXX 19124 41951 01450 30000 10230 20210 30092 40097 70500 83500 333 10316 59006 70000 83618==
41951,2022,11,19,15,00,AAXX 19154 41951 01940 00000 10214 20210 30112 40117 70500 333 59018 70000==
41951,2022,11,19,18,00,AAXX 19184 41951 01940 00000 10208 20208 30111 40116 70500 333 59012 70000==
41951,2022,11,19,21,00,AAXX 19214 41951 01430 50000 10204 20200 30107 40112 70520 82510 333 59013 70000 82618 84459==
41951,2022,11,20,00,00,AAXX 20004 41951 02340 80000 10282 20270 30022 40027 8562/ 333 59013 70036 81708 84618 88458==
41951,2022,11,20,03,00,AAXX 20034 41951 01450 62702 10252 20210 30120 40125 70522 83510 333 20190 59015 70000 83618 85459==
41951,2022,11,20,06,00,AAXX 20064 41951 02456 33502 10308 20190 30107 40112 83500 333 59006 70000 83618==
41951,2022,11,20,09,00,AAXX 20094 41951 02456 61302 10302 20260 30008 40013 83510 333 58003 70039 83618 85459==
41951,2022,11,20,12,00,AAXX 20124 41951 01450 30000 10245 20230 30086 40091 70500 83500 333 10318 59006 70000 83618==
41951,2022,11,20,15,00,AAXX 20154 41951 01940 00000 10194 20190 30131 40136 70500 333 58002 70000==
41951,2022,11,20,18,00,AAXX 20184 41951 01330 82703 10248 20248 30085 40090 76062 8672/ 333 59018 70051 82706 84616 88458==
41951,2022,11,20,21,00,AAXX 20214 41951 01435 40000 10198 20198 30095 40100 70520 82510 333 59012 70000 82618 84459==
41951,2022,11,21,00,00,AAXX 21004 41951 31435 40000 10192 20190 30091 40096 70522 82510 333 56990 59016 70000 82618 84459=
41951,2022,11,21,03,00,AAXX 21034 41951 01450 33102 10252 20190 30111 40116 70510 83500 333 20190 59009 70000 83618==
41951,2022,11,21,06,00,AAXX 21064 41951 02956 22903 10302 20170 30102 40107 80008 333 59005 70000 82278==
41951,2022,11,21,12,00,AAXX 21124 41951 01450 20000 10238 20200 30088 40093 70500 82500 333 10314 58002 70000 82618==
41951,2022,11,21,15,00,AAXX 21154 41951 01940 00000 10212 20210 30109 40114 70500 333 58003 70000==
41951,2022,11,21,18,00,AAXX 21184 41951 01935 00000 10198 20198 30104 40109 70500 333 58003 70000==
41951,2022,11,21,21,00,AAXX 21214 41951 01935 00000 10182 20180 30102 40107 70500 333 58007 70000==
41951,2022,11,22,00,00,AAXX 22004 41951 01435 30000 10177 20177 30108 40113 70500 83500 333 58017 70000 83618==
41951,2022,11,22,03,00,AAXX 22034 41951 01950 02802 10246 20200 30123 40128 70500 333 20172 58012 70000==
41951,2022,11,22,09,00,AAXX 22094 41951 02956 02902 10288 20170 30088 40093 333 58003 70000==
41951,2022,11,22,12,00,AAXX 22124 41951 01950 00000 10216 20210 30087 40092 70500 333 10293 59001 70000==
41951,2022,11,22,15,00,AAXX 22154 41951 01940 00000 10190 20190 30104 40109 70500 333 59005 70000==
41951,2022,11,22,18,00,AAXX 22184 41951 01935 00000 10178 20178 30111 40116 70500 333 58007 70000==
41951,2022,11,22,21,00,AAXX 22214 41951 01935 00000 10170 20170 30108 40113 70500 333 58006 70000==
41951,2022,11,23,00,00,AAXX 23004 41951 01920 00000 10167 20167 30110 40115 71000 333 58002 70000==
41951,2022,11,23,03,00,AAXX 23034 41951 01950 02703 10227 20190 30126 40131 70500 333 20160 58003 70000==
41951,2022,11,23,06,00,AAXX 23064 41951 32456 32504 10288 20170 30115 40120 83500 333 56600 58002 70000 83618=
41951,2022,11,23,09,00,AAXX 23094 41951 02956 22702 10287 20170 30087 40092 80008 333 59001 70000 82278==
41951,2022,11,23,12,00,AAXX 23124 41951 01950 00000 10216 20210 30090 40095 70500 333 10293 58003 70000==
41951,2022,11,23,15,00,AAXX 23154 41951 01935 00000 10192 20190 30108 40113 70500 333 58004 70000==
41951,2022,11,23,18,00,AAXX 23184 41951 01930 00000 10177 20177 30110 40115 70500 333 59001 70000==
41951,2022,11,23,21,00,AAXX 23214 41951 01930 00000 10170 20170 30107 40112 70500 333 59001 70000==
41951,2022,11,24,00,00,AAXX 24004 41951 01920 00000 10158 20158 30105 40110 71000 333 59005 70000==
41951,2022,11,24,03,00,AAXX 24034 41951 01950 02702 10216 20190 30119 40124 70500 333 20155 59007 70000==
41951,2022,11,24,06,00,AAXX 24064 41951 02956 03303 10287 20190 30109 40114 333 59006 70000==
41951,2022,11,24,09,00,AAXX 24094 41951 02956 03002 10292 20170 30087 40092 333 58000 70000==
41951,2022,11,24,12,00,AAXX 24124 41951 01950 00000 10215 20210 30095 40100 70500 333 10294 58005 70000==
41951,2022,11,24,15,00,AAXX 24154 41951 01935 00000 10188 20188 30121 40126 70500 333 58013 70000==
41951,2022,11,24,18,00,AAXX 24184 41951 01930 00000 10177 20177 30116 40121 70500 333 58006 70000==
41951,2022,11,24,21,00,AAXX 24214 41951 01930 00000 10168 20168 30113 40118 70500 333 58006 70000==
41953,2022,11,18,00,00,AAXX 18004 41953 01940 00000 10192 20192 30123 40128 70500 333 58012 70000==
41953,2022,11,18,03,00,AAXX 18034 41953 01950 00502 10252 20200 30138 40143 70500 333 20191 59001 70000==
41953,2022,11,18,09,00,AAXX 18094 41953 01950 03106 10294 20160 30100 40105 70500 333 58007 70000==
41953,2022,11,18,12,00,AAXX 18124 41953 01940 00000 10248 20200 30107 40112 70500 333 10297 58007 70000==
41953,2022,11,18,15,00,AAXX 18154 41953 01940 00000 10210 20190 30128 40133 70500 333 58010 70000==
41953,2022,11,18,18,00,AAXX 18184 41953 01940 00000 10202 20190 30131 40136 70500 333 59010 70000==
41953,2022,11,18,21,00,AAXX 18214 41953 01930 00000 10195 20190 30123 40128 70500 333 58005 70000==
41953,2022,11,19,00,00,AAXX 19004 41953 01940 00000 10188 20188 30122 40127 70500 333 59001 70000==
41953,2022,11,19,03,00,AAXX 19034 41953 01450 23105 10254 20190 30141 40146 70510 82500 333 20186 58003 70000 82618==
41953,2022,11,19,06,00,AAXX 19064 41953 01950 20503 10290 20200 30100 40105 70511 80001 333 59022 70000 82080==
41953,2022,11,19,09,00,AAXX 19094 41953 31950 40502 10304 20180 30091 40096 70521 83010 333 56099 59009 70000 83362=
41953,2022,11,19,12,00,AAXX 19124 41953 01440 20000 10248 20230 30099 40104 70521 82500 333 10306 59008 70000 82618==
41953,2022,11,19,15,00,AAXX 19154 41953 01430 33101 10236 20210 30115 40120 70511 83400 333 59013 70000 82618==
41953,2022,11,19,18,00,AAXX 19184 41953 01430 33101 10226 20210 30118 40123 70511 83400 333 59013 70000 82618==
41953,2022,11,19,21,00,AAXX 19214 41953 01430 20000 10220 20210 30109 40114 70511 82500 333 59014 70000 82618==
41953,2022,11,20,00,00,AAXX 20004 41953 01930 00000 10234 20220 30101 40106 70500 333 58000 70000==
41953,2022,11,20,03,00,AAXX 20034 41953 01950 33101 10266 20200 30125 40130 70511 80001 333 20212 59016 70000 83080==
41953,2022,11,20,06,00,AAXX 20064 41953 02450 50000 10315 20270 30125 40130 83430 333 58016 70000 82616 85362==
41953,2022,11,20,09,00,AAXX 20094 41953 01950 03003 10292 20180 30102 40107 70500 333 59009 70000==
41953,2022,11,20,12,00,AAXX 20124 41953 01940 00000 10262 20230 30092 40097 70510 333 10312 59007 70000==
41953,2022,11,20,15,00,AAXX 20154 41953 01940 00000 10225 20210 30130 40135 70500 333 58000 70000==
41953,2022,11,20,18,00,AAXX 20184 41953 01940 00000 10238 20200 30101 40106 70500 333 59017 70000==
41953,2022,11,20,21,00,AAXX 20214 41953 01940 00000 10230 20210 30093 40098 70500 333 59016 70000==
41953,2022,11,21,00,00,AAXX 21004 41953 01940 00000 10220 20190 30087 40092 70500 333 59022 70000==
41953,2022,11,21,03,00,AAXX 21034 41953 01/50 30000 10255 20190 30113 40118 70510 83030 333 20218 59012 70000 83362==
41953,2022,11,21,06,00,AAXX 21064 41953 01/50 33105 10294 20210 30106 40111 70511 83030 333 59006 70000 83362==
41953,2022,11,21,09,00,AAXX 21094 41953 01950 02703 10306 20200 30087 40092 70500 333 58002 70000==
41953,2022,11,21,12,00,AAXX 21124 41953 01940 00000 10255 20190 30093 40098 70500 333 10310 58001 70000==
41953,2022,11,21,15,00,AAXX 21154 41953 01940 00000 10235 20190 30112 40117 70500 333 58006 70000==
41953,2022,11,21,18,00,AAXX 21184 41953 01940 00000 10224 20190 30107 40112 70500 333 58006 70000==
41953,2022,11,21,21,00,AAXX 21214 41953 01940 00000 10220 20200 30100 40105 70500 333 58007 70000==
41953,2022,11,22,00,00,AAXX 22004 41953 01940 00000 10200 20190 30108 40113 70500 333 58021 70000==
41953,2022,11,22,03,00,AAXX 22034 41953 01950 03603 10245 20180 30132 40137 70500 333 20197 58019 70000==
41953,2022,11,22,09,00,AAXX 22094 41953 01950 03004 10278 20180 30087 40092 70500 333 58000 70000==
41953,2022,11,22,12,00,AAXX 22124 41953 01940 00000 10236 20210 30088 40093 70500 333 10283 59005 70000==
41953,2022,11,22,15,00,AAXX 22154 41953 01940 00000 10210 20200 30105 40110 70500 333 59007 70000==
41953,2022,11,22,18,00,AAXX 22184 41953 01940 00000 10206 20200 30112 40117 70500 333 58005 70000==
41953,2022,11,22,21,00,AAXX 22214 41953 01940 00000 10200 20190 30103 40108 70500 333 58003 70000==
41953,2022,11,23,00,00,AAXX 23004 41953 01940 00000 10190 20190 30110 40115 70500 333 58002 70000==
41953,2022,11,23,03,00,AAXX 23034 41953 01950 00000 10240 20190 30133 40138 70500 333 20187 58001 70000==
41953,2022,11,23,06,00,AAXX 23064 41953 31950 03104 10275 20180 30114 40119 70500 333 59001 70000=
41953,2022,11,23,09,00,AAXX 23094 41953 01950 03103 10280 20180 30089 40094 70500 333 58002 70000==
41953,2022,11,23,12,00,AAXX 23124 41953 01940 00000 10224 20210 30097 40102 70500 333 10283 58009 70000==
41953,2022,11,23,15,00,AAXX 23154 41953 01940 00000 10214 20190 30111 40116 70500 333 58005 70000==
41953,2022,11,23,18,00,AAXX 23184 41953 01930 00000 10205 20200 30113 40118 70500 333 58001 70000==
41953,2022,11,23,21,00,AAXX 23214 41953 01930 00000 10200 20190 30107 40112 70500 333 58004 70000==
41953,2022,11,24,00,00,AAXX 24004 41953 01940 00000 10184 20180 30109 40114 70500 333 59001 70000==
41953,2022,11,24,03,00,AAXX 24034 41953 01950 03604 10236 20200 30128 40133 70500 333 20182 59005 70000==
41953,2022,11,24,06,00,AAXX 24064 41953 01950 03103 10272 20190 30113 40118 70500 333 59001 70000==
41953,2022,11,24,09,00,AAXX 24094 41953 01950 03102 10284 20200 30090 40095 70500 333 58001 70000==
41953,2022,11,24,12,00,AAXX 24124 41953 01940 00000 10234 20200 30102 40107 70500 333 10285 58005 70000==
41953,2022,11,24,15,00,AAXX 24154 41953 01930 00000 10210 20200 30123 40128 70500 333 58012 70000==
41953,2022,11,24,18,00,AAXX 24184 41953 NIL=
41953,2022,11,24,21,00,AAXX 24214 41953 31930 00000 10195 20190 30111 40116 70500 333 58004 70000=
41955,2022,11,18,12,00,AAXX 18124 41955 NIL=
41955,2022,11,18,18,00,AAXX 18184 41955 NIL=
41955,2022,11,19,03,00,AAXX 19034 41955 NIL=
41955,2022,11,19,12,00,AAXX 19124 41955 NIL=
41955,2022,11,19,18,00,AAXX 19184 41955 NIL=
41955,2022,11,20,00,00,AAXX 20004 41955 NIL=
41955,2022,11,20,06,00,AAXX 20064 41955 NIL=
41955,2022,11,20,12,00,AAXX 20124 41955 NIL=
41955,2022,11,20,18,00,AAXX 20184 41955 NIL=
41955,2022,11,21,00,00,AAXX 21004 41955 NIL=
41955,2022,11,21,12,00,AAXX 21124 41955 NIL=
41955,2022,11,21,18,00,AAXX 21184 41955 NIL=
41955,2022,11,22,00,00,AAXX 22004 41955 NIL=
41955,2022,11,22,18,00,AAXX 22184 41955 NIL=
41955,2022,11,23,12,00,AAXX 23124 41955 NIL=
41955,2022,11,23,18,00,AAXX 23184 41955 NIL=
41955,2022,11,24,06,00,AAXX 24064 41955 NIL=
41955,2022,11,24,12,00,AAXX 24124 41955 NIL=
41955,2022,11,24,18,00,AAXX 24184 41955 NIL=
41955,2022,11,24,21,00,AAXX 24214 41955 NIL=
41958,2022,11,18,00,00,AAXX 18004 41958 31940 00000 10198 20190 30108 40110 70500 333 58009 70000=
41958,2022,11,18,03,00,AAXX 18034 41958 31950 03501 10240 20200 30131 40133 70500 333 20190 58014 70000=
41958,2022,11,18,09,00,AAXX 18094 41958 31956 03501 10288 20160 30100 40102 70500 333 58010 70000=
41958,2022,11,18,12,00,AAXX 18124 41958 31950 20000 10226 20180 30103 40105 70500 80001 333 10290 56009 58008 70000 82080=
41958,2022,11,18,15,00,AAXX 18154 41958 31940 00000 10204 20180 30121 40123 70500 333 58005 70000=
41958,2022,11,18,18,00,AAXX 18184 41958 31940 00000 10192 20170 30129 40131 70500 333 58016 70000=
41958,2022,11,18,21,00,AAXX 18214 41958 31940 20000 10190 20180 30119 40121 70500 80001 333 56009 58021 70000 82080=
41958,2022,11,19,00,00,AAXX 19004 41958 31940 40000 10190 20180 30121 40123 70510 80001 333 56009 58013 70000 84080=
41958,2022,11,19,03,00,AAXX 19034 41958 31950 43601 10234 20150 30133 40135 70511 80001 333 20185 56009 58002 70000 84080=
41958,2022,11,19,12,00,AAXX 19124 41958 32950 30000 10230 20200 30097 40099 83030 333 10288 56090 59006 70000 83362=
41958,2022,11,19,15,00,AAXX 19154 41958 32940 30000 10214 20190 30111 40113 83030 333 56090 59010 70000 83362=
41958,2022,11,19,18,00,AAXX 19184 41958 31940 20000 10200 20180 30107 40109 70510 82030 333 56090 59022 70000 82362=
41958,2022,11,19,21,00,AAXX 19214 41958 31940 30000 10202 20190 30100 40102 70510 83030 333 56090 59019 70000 83362=
41958,2022,11,20,00,00,AAXX 20004 41958 31940 00000 10216 20216 30098 40100 70500 333 59005 70000=
41958,2022,11,20,03,00,AAXX 20034 41958 31450 70000 10230 20180 30119 40121 70522 83570 333 20198 56990 59014 70000 83617 86459=
41958,2022,11,20,06,00,AAXX 20064 41958 11450 81801 10286 20270 30107 40109 69943 76266 8532/ 333 56499 59004 70004 84616 81930 88459=
41958,2022,11,20,09,00,AAXX 20094 41958 32956 00000 10304 20180 30097 40099 333 59014 70000=
41958,2022,11,20,12,00,AAXX 20124 41958 31950 00000 10232 20190 30103 40105 70500 333 10304 59005 70000=
41958,2022,11,20,15,00,AAXX 20154 41958 31940 00000 10207 20180 30126 40128 70500 333 58000 70000=
41958,2022,11,20,18,00,AAXX 20184 41958 32940 20000 10236 20230 30101 40103 82030 333 56090 59006 70000 82362=
41958,2022,11,20,21,00,AAXX 20214 41958 32940 30000 10212 20170 30084 40086 83030 333 56090 59016 70000 83362=
41958,2022,11,21,00,00,AAXX 21004 41958 32950 40000 10210 20170 30088 40090 84030 333 56090 59015 70000 84362=
41958,2022,11,21,03,00,AAXX 21034 41958 32956 50101 10250 20180 30116 40118 85030 333 20204 56090 59003 70000 85362=
41958,2022,11,21,06,00,AAXX 21064 41958 32956 03402 10290 20180 30105 40107 333 59005 70000=
41958,2022,11,21,09,00,AAXX 21094 41958 32956 12702 10300 20190 30086 40088 80001 333 56009 58000 70000 81080=
41958,2022,11,21,12,00,AAXX 21124 41958 32950 23001 10244 20180 30089 40091 80001 333 10305 56009 59001 70000 82080=
41958,2022,11,21,15,00,AAXX 21154 41958 32940 00000 10226 20180 30105 40107 333 58003 70000=
41958,2022,11,21,18,00,AAXX 21184 41958 32940 00000 10216 20190 30109 40111 333 58008 70000=
41958,2022,11,21,21,00,AAXX 21214 41958 31940 10000 10196 20170 30101 40103 70500 80001 333 56009 58017 70000 81080=
41958,2022,11,22,00,00,AAXX 22004 41958 31940 20000 10194 20170 30105 40107 70500 80001 333 56009 58017 70000 82080=
41958,2022,11,22,03,00,AAXX 22034 41958 31950 10301 10244 20160 30130 40132 70500 80001 333 20190 58014 70000 81080=
41958,2022,11,22,09,00,AAXX 22094 41958 31950 03303 10286 20180 30083 40085 70500 333 59003 70000=
41958,2022,11,22,12,00,AAXX 22124 41958 31940 20000 10226 20180 30087 40089 70500 80001 333 10288 56009 59002 70000 82080=
41958,2022,11,22,15,00,AAXX 22154 41958 31940 00000 10194 20170 30100 40102 70500 333 59005 70000=
41958,2022,11,22,18,00,AAXX 22184 41958 31940 00000 10186 20180 30107 40109 70500 333 59002 70000=
41958,2022,11,22,21,00,AAXX 22214 41958 31930 00000 10176 20170 30102 40104 71000 333 58001 70000=
41958,2022,11,23,00,00,AAXX 23004 41958 31912 10000 10174 20160 30107 40109 71000 80001 333 56009 58002 70000 81080=
41958,2022,11,23,03,00,AAXX 23034 41958 31940 03301 10226 20180 30131 40133 70500 333 20170 58001 70000=
41958,2022,11,23,06,00,AAXX 23064 41958 31956 03301 10270 20140 30113 40115 70500 333 59002 70000=
41958,2022,11,23,09,00,AAXX 23094 41958 31956 03201 10287 20160 30094 40096 70500 333 58011 70000=
41958,2022,11,23,12,00,AAXX 23124 41958 31950 00000 10233 20190 30088 40090 70500 333 10290 58001 70000=
41958,2022,11,23,15,00,AAXX 23154 41958 31940 03201 10197 20180 30101 40103 70500 333 58001 70000=
41958,2022,11,23,18,00,AAXX 23184 41958 31940 00000 10188 20180 30111 40113 70500 333 58004 70000=
41958,2022,11,23,21,00,AAXX 23214 41958 31940 00000 10174 20160 30104 40106 70500 333 58002 70000=
41958,2022,11,24,00,00,AAXX 24004 41958 31950 00000 10168 20160 30108 40110 70500 333 58001 70000=
41958,2022,11,24,03,00,AAXX 24034 41958 31956 00000 10228 20160 30125 40127 70500 333 20160 59006 70000=
41958,2022,11,24,06,00,AAXX 24064 41958 31956 00000 10277 20160 30115 40117 70500 333 58002 70000=
41958,2022,11,24,09,00,AAXX 24094 41958 31956 00000 10288 20160 30091 40093 70500 333 59003 70000=
41958,2022,11,24,12,00,AAXX 24124 41958 31450 20000 10226 20180 30098 40100 70500 82500 333 10290 56900 58010 70000 82617=
41958,2022,11,24,15,00,AAXX 24154 41958 31940 00000 10192 20170 30109 40111 70500 333 58008 70000=
41958,2022,11,24,18,00,AAXX 24184 41958 31940 00000 10180 20170 30117 40119 70500 333 58006 70000=
41958,2022,11,24,21,00,AAXX 24214 41958 31940 00000 10177 20170 30113 40115 70500 333 58009 70000=
41960,2022,11,18,00,00,AAXX 18004 41960 01940 00000 10180 20180 30121 40123 70500 333 58008 70000==
41960,2022,11,18,03,00,AAXX 18034 41960 01940 03202 10227 20200 30142 40144 70500 333 20176 58012 70000==
41960,2022,11,18,09,00,AAXX 18094 41960 02958 03003 10288 20150 30101 40103 333 58005 70000==
41960,2022,11,18,12,00,AAXX 18124 41960 02950 00000 10244 20180 30109 40111 333 10295 58007 70000==
41960,2022,11,18,15,00,AAXX 18154 41960 01930 00000 10204 20190 30132 40134 70500 333 58008 70000==
41960,2022,11,18,18,00,AAXX 18184 41960 01930 00000 10190 20190 30132 40134 70500 333 58008 70000==
41960,2022,11,18,21,00,AAXX 18214 41960 01/30 20000 10188 20188 30130 40132 71000 82040 333 58007 70000 82365==
41960,2022,11,19,00,00,AAXX 19004 41960 01/30 20000 10187 20187 30127 40129 71000 82041 333 58006 70000 82365==
41960,2022,11,19,03,00,AAXX 19034 41960 01/40 33104 10225 20210 30142 40144 70500 83041 333 20180 58000 70000 83365==
41960,2022,11,19,06,00,AAXX 19064 41960 01956 03301 10280 20170 30119 40121 70500 333 59011 70000==
41960,2022,11,19,12,00,AAXX 19124 41960 02450 40000 10253 20200 30103 40105 83401 333 10300 59006 70000 82618 82080==
41960,2022,11,19,15,00,AAXX 19154 41960 02930 00000 10220 20190 30119 40121 333 59013 70000==
41960,2022,11,19,18,00,AAXX 19184 41960 01930 00000 10205 20200 30112 40114 70500 333 59020 70000==
41960,2022,11,19,21,00,AAXX 19214 41960 01440 50000 10208 20200 30111 40113 70521 85470 333 59019 70000 83618 83460==
41960,2022,11,20,00,00,AAXX 20004 41960 01930 00000 10210 20210 30112 40114 71000 333 58000 70000==
41960,2022,11,20,03,00,AAXX 20034 41960 01440 70000 10240 20190 30129 40131 70522 85470 333 20203 59013 70000 83618 85460==
41960,2022,11,20,06,00,AAXX 20064 41960 21440 82701 10280 20260 30111 40113 76166 8542/ 333 59009 60029 70022 83618 88459==
41960,2022,11,20,09,00,AAXX 20094 41960 01440 70000 10295 20290 30014 40016 76122 85410 333 58002 70015 84616 87459==
41960,2022,11,20,12,00,AAXX 20124 41960 02450 20000 10259 20200 30096 40098 82500 333 10325 59007 70000 82618==
41960,2022,11,20,15,00,AAXX 20154 41960 01930 00000 10207 20207 30137 40139 70500 333 58000 70000==
41960,2022,11,20,18,00,AAXX 20184 41960 01930 00000 10220 20200 30107 40109 70500 333 59005 70000==
41960,2022,11,20,21,00,AAXX 20214 41960 01940 00000 10216 20210 30100 40102 70500 333 59011 70000==
41960,2022,11,21,00,00,AAXX 21004 41960 01/40 20000 10212 20200 30097 40099 70500 82040 333 59013 70000 82365==
41960,2022,11,21,03,00,AAXX 21034 41960 01/40 33404 10248 20190 30121 40122 70500 82041 333 20206 59008 70000 82365 83080==
41960,2022,11,21,06,00,AAXX 21064 41960 02958 23304 10290 20170 30112 40114 80001 333 59003 70000 82080==
41960,2022,11,21,09,00,AAXX 21094 41960 02958 03004 10303 20130 30092 40093 333 59002 70000==
41960,2022,11,21,12,00,AAXX 21124 41960 02950 20000 10255 20200 30098 40100 80001 333 10308 58002 70000 82080==
41960,2022,11,21,15,00,AAXX 21154 41960 02930 00000 10220 20210 30112 40114 333 58000 70000==
41960,2022,11,21,18,00,AAXX 21184 41960 02930 00000 10213 20190 30112 40114 333 58005 70000==
41960,2022,11,21,21,00,AAXX 21214 41960 01940 00000 10202 20180 30113 40115 70500 333 58013 70000==
41960,2022,11,22,00,00,AAXX 22004 41960 01940 23001 10193 20170 30116 40118 70500 80001 333 58019 70000 82080==
41960,2022,11,22,03,00,AAXX 22034 41960 01940 03403 10230 20160 30136 40138 70500 333 20190 58015 70000==
41960,2022,11,22,09,00,AAXX 22094 41960 02959 03308 10287 20130 30091 40093 333 59001 70000==
41960,2022,11,22,12,00,AAXX 22124 41960 02450 20000 10220 20180 30095 40097 82500 333 10291 59003 70000 82618==
41960,2022,11,22,15,00,AAXX 22154 41960 01930 00000 10190 20180 30112 40114 70500 333 58000 70000==
41960,2022,11,22,18,00,AAXX 22184 41960 01930 00000 10180 20180 30117 40119 70500 333 58005 70000==
41960,2022,11,22,21,00,AAXX 22214 41960 01940 00000 10176 20176 30118 40120 70500 333 58005 70000==
41960,2022,11,23,00,00,AAXX 23004 41960 01940 00000 10174 20174 30116 40118 70500 333 58000 70000==
41960,2022,11,23,03,00,AAXX 23034 41960 01940 03604 10218 20180 30138 40140 70500 333 20170 58002 70000==
41960,2022,11,23,06,00,AAXX 23064 41960 31950 03602 10270 20160 30123 40124 70500 333 58003 70000=
41960,2022,11,23,09,00,AAXX 23094 41960 02958 03402 10283 20150 30095 40097 333 58004 70000==
41960,2022,11,23,12,00,AAXX 23124 41960 02950 00000 10227 20200 30099 40101 333 10285 58004 70000==
41960,2022,11,23,15,00,AAXX 23154 41960 01930 00000 10195 20190 30117 40119 70500 333 58005 70000==
41960,2022,11,23,18,00,AAXX 23184 41960 01930 00000 10181 20180 30119 40121 70500 333 58002 70000==
41960,2022,11,23,21,00,AAXX 23214 41960 01940 00000 10178 20170 30116 40118 70500 333 59002 70000==
41960,2022,11,24,00,00,AAXX 24004 41960 01940 00000 10173 20160 30112 40113 70500 333 59004 70000==
41960,2022,11,24,03,00,AAXX 24034 41960 01940 03602 10215 20160 30132 40134 70500 333 20164 59006 70000==
41960,2022,11,24,06,00,AAXX 24064 41960 01950 03408 10275 20170 30119 40120 70500 333 59004 70000==
41960,2022,11,24,09,00,AAXX 24094 41960 02958 03401 10282 20160 30097 40099 333 58002 70000==
41960,2022,11,24,12,00,AAXX 24124 41960 02950 00000 10230 20190 30103 40105 333 10286 58004 70000==
41960,2022,11,24,15,00,AAXX 24154 41960 01930 00000 10195 20190 30127 40129 70500 333 58010 70000==
41960,2022,11,24,18,00,AAXX 24184 41960 01930 00000 10182 20180 30129 40131 70500 333 58010 70000==
41960,2022,11,24,21,00,AAXX 24214 41960 01920 00000 10177 20177 30126 40127 71000 333 58010 70000==
41963,2022,11,18,00,00,AAXX 18004 41963 02950 00000 10204 20190 30115 40118 333 58004 70000==
41963,2022,11,18,03,00,AAXX 18034 41963 02950 03602 10250 20200 30131 40133 333 20196 58008 70000==
41963,2022,11,18,09,00,AAXX 18094 41963 02956 03302 10286 20150 30098 40101 333 58004 70000==
41963,2022,11,18,12,00,AAXX 18124 41963 01930 20000 10217 20200 30109 40112 70510 333 10295 58009 70000 82080==
41963,2022,11,18,15,00,AAXX 18154 41963 01920 00000 10190 20190 30115 40118 71000 333 58003 70000==
41963,2022,11,18,18,00,AAXX 18184 41963 NIL=
41963,2022,11,18,21,00,AAXX 18214 41963 01920 00000 10185 20185 30119 40122 70500 333 59002 70000==
41963,2022,11,19,00,00,AAXX 19004 41963 01930 30000 10190 20190 30121 40124 70510 80002 333 58006 70000 83078==
41963,2022,11,19,03,00,AAXX 19034 41963 01940 03601 10250 20210 30132 40135 70520 80001 333 20180 70000 85080==
41963,2022,11,19,06,00,AAXX 19064 41963 02950 03601 10280 20170 30114 40117 333 58005 70000 85080==
41963,2022,11,19,12,00,AAXX 19124 41963 01910 30000 10244 20230 30100 40103 70522 80002 333 10296 59009 70000 83078==
41963,2022,11,19,15,00,AAXX 19154 41963 01920 00000 10220 20200 30104 40107 70510 333 59011 70000==
41963,2022,11,19,18,00,AAXX 19184 41963 NIL=
41963,2022,11,19,21,00,AAXX 19214 41963 01910 00000 10213 20200 30111 40113 70500 333 59008 70000==
41963,2022,11,20,00,00,AAXX 20004 41963 01/20 30000 10214 20214 30106 40109 70510 83050 333 59015 70000 83362==
41963,2022,11,20,03,00,AAXX 20034 41963 01940 23601 10250 20220 30123 40125 70510 80001 333 20210 59009 70000 82080==
41963,2022,11,20,06,00,AAXX 20064 41963 02956 03601 10300 20180 30106 40109 333 59008 70000==
41963,2022,11,20,09,00,AAXX 20094 41963 02458 51604 10318 20260 30017 40019 83510 333 58014 70110 83618 84460==
41963,2022,11,20,12,00,AAXX 20124 41963 02930 00000 10248 20210 30096 40099 333 10317 59004 70000==
41963,2022,11,20,15,00,AAXX 20154 41963 01920 00000 10210 20210 30122 40125 71000 333 59001 70000==
41963,2022,11,20,18,00,AAXX 20184 41963 01330 83603 10250 20250 30081 40084 76162 8372/ 333 59030 70030 82708 83616 88458==
41963,2022,11,20,21,00,AAXX 20214 41963 01930 00000 10217 20210 30099 40102 70500 333 59011 70000==
41963,2022,11,21,00,00,AAXX 21004 41963 01930 00000 10220 20200 30096 40099 70500 333 59010 70000==
41963,2022,11,21,03,00,AAXX 21034 41963 01940 40000 10262 20190 30111 40113 70500 80001 333 20204 59012 70000 84080==
41963,2022,11,21,06,00,AAXX 21064 41963 02956 23601 10300 20200 30096 40098 80001 333 59010 70000 82080==
41963,2022,11,21,09,00,AAXX 21094 41963 02956 03601 10300 20180 30086 40088 333 59004 70000==
41963,2022,11,21,12,00,AAXX 21124 41963 02930 00000 10240 20200 30100 40103 333 10310 58004 70000==
41963,2022,11,21,15,00,AAXX 21154 41963 01920 00000 10220 20210 30112 40114 70500 333 58014 70000==
41963,2022,11,21,18,00,AAXX 21184 41963 NIL=
41963,2022,11,21,21,00,AAXX 21214 41963 01920 00000 10200 20180 30103 40106 70500 333 58004 70000==
41963,2022,11,22,00,00,AAXX 22004 41963 01920 00000 10196 20190 30106 40109 70500 333 58010 70000==
41963,2022,11,22,03,00,AAXX 22034 41963 01940 03601 10250 20160 30123 40125 70500 333 20190 58012 70000==
41963,2022,11,22,09,00,AAXX 22094 41963 02956 03401 10280 20170 30090 40093 333 58004 70000==
41963,2022,11,22,12,00,AAXX 22124 41963 01920 00000 10218 20200 30093 40096 70500 333 10284 59007 70000==
41963,2022,11,22,15,00,AAXX 22154 41963 01915 00000 10190 20190 30098 40101 70500 333 59014 70000==
41963,2022,11,22,18,00,AAXX 22184 41963 NIL=
41963,2022,11,22,21,00,AAXX 22214 41963 01910 00000 10183 20183 30106 40109 70500 333 58003 70000==
41963,2022,11,23,00,00,AAXX 23004 41963 01915 00000 10188 20188 30100 40103 70500 333 59009 70000==
41963,2022,11,23,03,00,AAXX 23034 41963 01930 03601 10240 20190 30130 40132 70540 333 20170 58007 70000==
41963,2022,11,23,06,00,AAXX 23064 41963 31950 03601 10270 20180 30109 40112 70540 333 59003 70000=
41963,2022,11,23,09,00,AAXX 23094 41963 02956 00000 10280 20170 30093 40096 333 58003 70000==
41963,2022,11,23,12,00,AAXX 23124 41963 01920 00000 10215 20210 30097 40100 70500 333 10283 58004 70000==
41963,2022,11,23,15,00,AAXX 23154 41963 01915 00000 10210 20190 30102 40105 70500 333 58004 70000==
41963,2022,11,23,18,00,AAXX 23184 41963 NIL=
41963,2022,11,23,21,00,AAXX 23214 41963 01910 00000 10187 20187 30103 40106 70500 333 59003 70000==
41963,2022,11,24,00,00,AAXX 24004 41963 01915 00000 10200 20200 30105 40108 70500 333 58005 70000==
41963,2022,11,24,03,00,AAXX 24034 41963 01940 03601 10240 20190 30123 40126 70540 333 20165 59007 70000==
41963,2022,11,24,06,00,AAXX 24064 41963 01950 03603 10270 20180 30106 40109 70540 333 59003 70000==
41963,2022,11,24,09,00,AAXX 24094 41963 02956 00000 10280 20170 30093 40096 333 58000 70000==
41963,2022,11,24,12,00,AAXX 24124 41963 01920 00000 10217 20210 30104 40107 70500 333 10285 58007 70000==
41963,2022,11,24,15,00,AAXX 24154 41963 01915 00000 10200 20200 30112 40115 70500 333 58014 70000==
41963,2022,11,24,18,00,AAXX 24184 41963 NIL=
41963,2022,11,24,21,00,AAXX 24214 41963 01908 00000 10183 20183 30106 40109 74040 333 58003 70000==
41964,2022,11,18,00,00,AAXX 18004 41964 01940 00000 10190 20189 30106 40109 70500 333 58006 70000==
41964,2022,11,18,03,00,AAXX 18034 41964 02956 00302 10260 20190 30126 40129 333 20180 58011 70000==
41964,2022,11,18,06,00,AAXX 18064 41964 32957 13602 10307 20180 30109 40111 80001 333 56009 58009 70000 81080=
41964,2022,11,18,09,00,AAXX 18094 41964 02957 10000 10305 20180 30090 40093 80001 333 58008 70000 81080==
41964,2022,11,18,12,00,AAXX 18124 41964 02956 30000 10223 20190 30098 40100 80002 333 10310 58009 70000 83080==
41964,2022,11,18,15,00,AAXX 18154 41964 01945 00000 10195 20190 30116 40119 70510 333 58009 70000==
41964,2022,11,18,18,00,AAXX 18184 41964 01940 00000 10190 20188 30119 40122 70510 333 58009 70000==
41964,2022,11,18,21,00,AAXX 18214 41964 01945 20000 10185 20184 30117 40120 70500 80002 333 58009 70000 82080==
41964,2022,11,19,00,00,AAXX 19004 41964 01950 30000 10180 20180 30116 40118 70510 80002 333 58010 70000 82080==
41964,2022,11,19,03,00,AAXX 19034 41964 02956 40102 10257 20190 30126 40129 80002 333 20170 58000 70000 84080==
41964,2022,11,19,06,00,AAXX 19064 41964 02957 50000 10300 20190 30104 40106 80002 333 59005 70000 85080==
41964,2022,11,19,12,00,AAXX 19124 41964 02956 40000 10247 20230 30091 40093 80002 333 10314 59007 70000 84080==
41964,2022,11,19,15,00,AAXX 19154 41964 01950 00000 10224 20210 30106 40109 70511 333 59010 70000==
41964,2022,11,19,18,00,AAXX 19184 41964 01945 00000 10215 20213 30110 40113 70511 333 59009 70000==
41964,2022,11,19,21,00,AAXX 19214 41964 01/50 30000 10215 20210 30105 40108 70510 83080 333 59012 70000 83362==
41964,2022,11,20,00,00,AAXX 20004 41964 01445 40000 10220 20220 30099 40101 70511 82530 333 58003 70000 82618 83362==
41964,2022,11,20,03,00,AAXX 20034 41964 02456 10000 10290 20230 30114 40116 81500 333 20214 59002 70000 81618==
41964,2022,11,20,06,00,AAXX 20064 41964 02957 13601 10320 20200 30099 40101 80001 333 59005 70000 81080==
41964,2022,11,20,09,00,AAXX 20094 41964 02958 00000 10320 20200 30078 40080 333 59008 70000==
41964,2022,11,20,12,00,AAXX 20124 41964 02/56 20000 10260 20230 30083 40086 82010 333 10335 59008 70000 82460==
41964,2022,11,20,15,00,AAXX 20154 41964 01945 00000 10216 20210 30123 40125 70500 333 58001 70000==
41964,2022,11,20,18,00,AAXX 20184 41964 01945 00000 10220 20210 30096 40098 70510 333 59014 70000==
41964,2022,11,20,21,00,AAXX 20214 41964 01945 00000 10214 20212 30087 40090 70500 333 59018 70000==
41964,2022,11,21,00,00,AAXX 21004 41964 31950 40000 10207 20205 30082 40084 70500 80002 333 56009 59015 70000 84080=
41964,2022,11,21,03,00,AAXX 21034 41964 02956 33201 10280 20200 30103 40105 80002 333 20200 59012 70000 83080==
41964,2022,11,21,06,00,AAXX 21064 41964 02957 22401 10314 20180 30093 40095 80001 333 59006 70000 82080==
41964,2022,11,21,09,00,AAXX 21094 41964 02957 00000 10325 20270 30082 40085 333 58004 70000==
41964,2022,11,21,12,00,AAXX 21124 41964 02956 00000 10250 20220 30084 40087 333 10331 58001 70000==
41964,2022,11,21,18,00,AAXX 21184 41964 NIL=
41964,2022,11,21,21,00,AAXX 21214 41964 01950 00000 10206 20200 30100 40103 70500 333 58013 70000==
41964,2022,11,22,00,00,AAXX 22004 41964 01950 00000 10190 20188 30099 40102 70500 333 58017 70000==
41964,2022,11,22,03,00,AAXX 22034 41964 02956 03602 10259 20180 30122 40125 333 20183 58019 70000==
41964,2022,11,22,12,00,AAXX 22124 41964 02956 00000 10220 20190 30093 40095 333 10301 58009 70000==
41964,2022,11,22,15,00,AAXX 22154 41964 01950 00000 10190 20180 30101 40103 70500 333 58007 70000==
41964,2022,11,22,18,00,AAXX 22184 41964 NIL=
41964,2022,11,23,09,00,AAXX 23094 41964 02957 00000 10295 20200 30092 40094 333 58010 70000==
41964,2022,11,23,12,00,AAXX 23124 41964 NIL=
41964,2022,11,23,18,00,AAXX 23184 41964 01945 00000 10185 20180 30065 40067 70500 333 59043 70000==
41964,2022,11,24,03,00,AAXX 24034 41964 02950 03601 10250 20200 30125 40127 333 20155 59013 70000==
41964,2022,11,24,06,00,AAXX 24064 41964 02956 03101 10290 20250 30112 40115 333 58003 70000==
41964,2022,11,24,12,00,AAXX 24124 41964 02956 00000 10225 20210 30099 40102 333 10301 58010 70000==
41964,2022,11,24,15,00,AAXX 24154 41964 01950 00000 10200 20190 30108 40111 70500 333 58022 70000==
41964,2022,11,24,18,00,AAXX 24184 41964 NIL=
41964,2022,11,24,21,00,AAXX 24214 41964 31945 00000 10179 20170 30106 40108 70500 333 58001 70000=
41965,2022,11,18,00,00,AAXX 18004 41965 01930 00000 10180 20170 30120 40128 70540 333 58017 70000==
41965,2022,11,18,03,00,AAXX 18034 41965 01940 00000 10270 20160 30128 40136 70540 333 20173 58020 70000==
41965,2022,11,18,09,00,AAXX 18094 41965 01950 00000 10305 20160 30091 40099 70540 333 59001 70000==
41965,2022,11,18,12,00,AAXX 18124 41965 01940 00000 10250 20180 30090 40098 70540 333 10312 59003 70000==
41965,2022,11,18,18,00,AAXX 18184 41965 NIL=
41965,2022,11,19,03,00,AAXX 19034 41965 01940 00000 10270 20140 30130 40138 70540 333 20170 58002 70000==
41965,2022,11,19,06,00,AAXX 19064 41965 01950 50000 10305 20160 30111 40119 70542 80002 333 58003 70000 85080==
41965,2022,11,19,12,00,AAXX 19124 41965 NIL=
41965,2022,11,19,18,00,AAXX 19184 41965 NIL=
41965,2022,11,20,00,00,AAXX 20004 41965 NIL=
41965,2022,11,20,03,00,AAXX 20034 41965 01940 50000 10270 20160 30109 40117 70542 80002 333 20188 59021 70000 85080==
41965,2022,11,20,06,00,AAXX 20064 41965 01440 80000 10286 20220 30099 40107 70542 84310 333 59011 70000 81710 83618 88460 81928==
41965,2022,11,20,09,00,AAXX 20094 41965 01950 00000 10315 20160 30100 40108 70540 333 59023 70000==
41965,2022,11,20,12,00,AAXX 20124 41965 21440 80000 10280 20230 30086 40094 70296 8432/ 333 10295 59015 60035 70030 81710 83618 88460 81928==
41965,2022,11,20,18,00,AAXX 20184 41965 NIL=
41965,2022,11,20,21,00,AAXX 20214 41965 01940 50000 10200 20170 30085 40093 70540 80002 333 59017 70000 85080==
41965,2022,11,21,00,00,AAXX 21004 41965 01930 50000 10195 20190 30089 40097 70540 80002 333 59016 70000 85080==
41965,2022,11,21,03,00,AAXX 21034 41965 01940 50000 10270 20160 30091 40099 70540 80002 333 20187 59018 70000 85080==
41965,2022,11,21,12,00,AAXX 21124 41965 01950 00000 10320 20120 30075 40083 70540 333 59005 70000==
41965,2022,11,21,18,00,AAXX 21184 41965 NIL=
41965,2022,11,21,21,00,AAXX 21214 41965 01940 00000 10250 20180 30075 40083 70540 333 10325 59005 70000==
41965,2022,11,22,00,00,AAXX 22004 41965 01930 00000 10200 20180 30103 40111 70540 333 58014 70000==
41965,2022,11,22,03,00,AAXX 22034 41965 01940 00000 10270 20160 30111 40119 70540 333 20190 58020 70000==
41965,2022,11,22,09,00,AAXX 22094 41965 01950 00000 10320 20110 30079 40087 70540 333 58000 70000==
41965,2022,11,22,12,00,AAXX 22124 41965 01940 00000 10260 20170 30079 40087 70540 333 10323 58000 70000==
41965,2022,11,22,18,00,AAXX 22184 41965 NIL=
41965,2022,11,23,03,00,AAXX 23034 41965 01940 00000 10260 20150 30118 40126 70540 333 20153 58011 70000==
41965,2022,11,23,06,00,AAXX 23064 41965 31950 00000 10290 20110 30111 40120 70540 333 58020 70000=
41965,2022,11,23,09,00,AAXX 23094 41965 42950 00000 10300 20110 30088 40096 58008==
41965,2022,11,23,12,00,AAXX 23124 41965 01940 00000 10240 20170 30090 40098 70540 333 10305 58007 70000==
41965,2022,11,23,18,00,AAXX 23184 41965 NIL=
41965,2022,11,24,00,00,AAXX 24004 41965 31930 00000 10160 20150 30106 40114 70540 333 59002 70000=
41965,2022,11,24,03,00,AAXX 24034 41965 01940 00000 10260 20150 30112 40120 70540 333 20148 59006 70000==
41965,2022,11,24,06,00,AAXX 24064 41965 NIL=
41965,2022,11,24,09,00,AAXX 24094 41965 01950 00000 10300 20110 30083 40091 70540 333 59008 70000==
41965,2022,11,24,12,00,AAXX 24124 41965 01940 00000 10230 20180 30085 40093 70540 333 10305 59007 70000==
41965,2022,11,24,18,00,AAXX 24184 41965 NIL=
41965,2022,11,24,21,00,AAXX 24214 41965 NIL=
41966,2022,11,18,00,00,AAXX 18004 41966 01930 00501 10178 20160 30030 40112 70500 333 58002 70000==
41966,2022,11,18,03,00,AAXX 18034 41966 333 20170 58008 70000 82827==
41966,2022,11,18,09,00,AAXX 18094 41966 02950 03601 10298 20100 30025 40103 333 58004 70000==
41966,2022,11,18,12,00,AAXX 18124 41966 32930 00000 10235 20210 30029 40109 333 10305 58011 70000=
41966,2022,11,18,15,00,AAXX 18154 41966 01920 00000 10215 20200 30041 40121 70500 333 58006 70000==
41966,2022,11,18,18,00,AAXX 18184 41966 NIL=
41966,2022,11,18,21,00,AAXX 18214 41966 01920 00000 10200 20180 30047 40128 70500 333 58007 70000==
41966,2022,11,19,00,00,AAXX 19004 41966 01930 00000 10180 20170 30044 40125 70500 333 58013 70000==
41966,2022,11,19,03,00,AAXX 19034 41966 02450 33601 10246 20190 30060 40139 81530 333 20170 58001 70000 81617 81362==
41966,2022,11,19,06,00,AAXX 19064 41966 02450 43101 10285 20170 30047 40126 82510 333 58002 70000 82616 83460==
41966,2022,11,19,12,00,AAXX 19124 41966 02/30 30501 10240 20190 30023 40102 83010 333 10310 59007 70000 83460==
41966,2022,11,19,15,00,AAXX 19154 41966 01920 00000 10210 20180 30033 40114 70500 333 59007 70000==
41966,2022,11,19,18,00,AAXX 19184 41966 NIL=
41966,2022,11,19,21,00,AAXX 19214 41966 01920 40000 10202 20180 30036 40118 70522 82510 333 59003 70000 82616 83460==
41966,2022,11,20,00,00,AAXX 20004 41966 02/20 30000 10250 20220 30029 40108 83010 333 58000 70000 83460==
41966,2022,11,20,03,00,AAXX 20034 41966 02450 43601 10273 20210 30047 40125 82510 333 20196 59014 70000 82616 83460==
41966,2022,11,20,06,00,AAXX 20064 41966 02450 30401 10300 20170 30040 40118 81530 333 59008 70000 81617 81362==
41966,2022,11,20,09,00,AAXX 20094 41966 02450 41301 10340 20190 30007 40084 82510 333 58010 70000 82616 83460==
41966,2022,11,20,12,00,AAXX 20124 41966 01930 00000 10230 20200 30032 40112 70500 333 10305 59010 70000==
41966,2022,11,20,15,00,AAXX 20154 41966 01920 00000 10210 20190 30040 40121 70500 333 70000==
41966,2022,11,20,18,00,AAXX 20184 41966 NIL=
41966,2022,11,20,21,00,AAXX 20214 41966 01920 00000 10210 20190 30029 40109 70500 333 59009 70000==
41966,2022,11,21,00,00,AAXX 21004 41966 01/40 40000 10200 20180 30019 40100 70522 84010 333 59012 70000 84460==
41966,2022,11,21,03,00,AAXX 21034 41966 02450 53101 10280 20190 30045 40124 82510 333 20195 59001 70000 82616 84460==
41966,2022,11,21,06,00,AAXX 21064 41966 02550 20201 10305 20180 30030 40108 82130 333 59010 70000 82827 81362==
41966,2022,11,21,09,00,AAXX 21094 41966 02/50 20000 10330 20090 30019 40096 81030 333 58007 70000 81362==
41966,2022,11,21,12,00,AAXX 21124 41966 02/30 20000 10240 20200 30025 40104 82010 333 10336 58009 70000 82460==
41966,2022,11,21,15,00,AAXX 21154 41966 02930 00901 10218 20190 30031 40112 333 58000 70000==
41966,2022,11,21,18,00,AAXX 21184 41966 01930 00000 10210 20190 30030 40111 70500 333 59004 70000==
41966,2022,11,21,21,00,AAXX 21214 41966 01920 00000 10205 20190 30032 40113 70500 333 58004 70000==
41966,2022,11,22,00,00,AAXX 22004 41966 01940 00000 10200 20170 30023 40104 70500 333 58004 70000==
41966,2022,11,22,03,00,AAXX 22034 41966 02950 03601 10260 20120 30057 40136 333 20190 58012 70000==
41966,2022,11,22,09,00,AAXX 22094 41966 02950 03601 10295 20110 30023 40101 333 58005 70000==
41966,2022,11,22,12,00,AAXX 22124 41966 02930 00000 10223 20190 30016 40096 333 10305 59008 70000==
41966,2022,11,22,15,00,AAXX 22154 41966 01920 00000 10215 20200 30023 40103 70500 333 59009 70000==
41966,2022,11,22,18,00,AAXX 22184 41966 NIL=
41966,2022,11,22,21,00,AAXX 22214 41966 01920 00000 10170 20160 30025 40107 70500 333 59006 70000==
41966,2022,11,23,00,00,AAXX 23004 41966 01930 00000 10160 20150 30043 40125 70500 333 59021 70000==
41966,2022,11,23,03,00,AAXX 23034 41966 01940 00502 10235 20170 30054 40134 70500 333 20152 59002 70000==
41966,2022,11,23,06,00,AAXX 23064 41966 32950 03101 10270 20120 30039 40118 333 59003 70000=
41966,2022,11,23,09,00,AAXX 23094 41966 02950 00000 10290 20040 30017 40095 333 59006 70000==
41966,2022,11,23,12,00,AAXX 23124 41966 01930 00501 10206 20190 30019 40100 70500 333 10295 58004 70000==
41966,2022,11,23,15,00,AAXX 23154 41966 01920 00000 10202 20180 30030 40111 70500 333 58008 70000==
41966,2022,11,23,18,00,AAXX 23184 41966 NIL=
41966,2022,11,23,21,00,AAXX 23214 41966 01920 00000 10160 20150 30027 40109 70500 333 58002 70000==
41966,2022,11,24,00,00,AAXX 24004 41966 01930 00401 10150 20140 30034 40117 70500 333 59008 70000==
41966,2022,11,24,03,00,AAXX 24034 41966 01950 00000 10230 20180 30043 40123 70500 333 20145 59011 70000==
41966,2022,11,24,06,00,AAXX 24064 41966 01950 00501 10270 20170 30043 40123 70500 333 59005 70000==
41966,2022,11,24,09,00,AAXX 24094 41966 02950 00401 10282 20130 30016 40095 333 58000 70000==
41966,2022,11,24,12,00,AAXX 24124 41966 01930 00000 10202 20170 30023 40104 70500 333 10287 58004 70000==
41966,2022,11,24,15,00,AAXX 24154 41966 01920 00000 10200 20180 30043 40124 70500 333 58013 70000==
41966,2022,11,24,18,00,AAXX 24184 41966 NIL=
41966,2022,11,24,21,00,AAXX 24214 41966 NIL=
41977,2022,11,18,12,00,AAXX 18124 41977 NIL=
41977,2022,11,18,18,00,AAXX 18184 41977 NIL=
41977,2022,11,19,03,00,AAXX 19034 41977 NIL=
41977,2022,11,19,12,00,AAXX 19124 41977 NIL=
41977,2022,11,19,18,00,AAXX 19184 41977 NIL=
41977,2022,11,20,00,00,AAXX 20004 41977 01950 00000 10240 20230 30116 40155 70500 333 58010 70000==
41977,2022,11,20,03,00,AAXX 20034 41977 02956 00000 10290 20220 30099 40137 333 20230 59003 70000==
41977,2022,11,20,06,00,AAXX 20064 41977 02957 00000 10320 20210 30088 40125 333 59002 70000==
41977,2022,11,20,09,00,AAXX 20094 41977 02957 22702 10327 20190 30062 40100 80001 333 59003 70000 82080==
41977,2022,11,20,12,00,AAXX 20124 41977 02456 40000 10268 20200 30068 40106 83501 333 10335 59007 70000 83618 83080==
41977,2022,11,20,15,00,AAXX 20154 41977 02956 00000 10245 20200 30082 40120 333 59011 70000==
41977,2022,11,20,18,00,AAXX 20184 41977 01950 00000 10235 20200 30071 40110 70500 333 59017 70000==
41977,2022,11,21,00,00,AAXX 21004 41977 02956 20000 10220 20200 30062 40101 80001 333 59020 70000 82080==
41977,2022,11,21,03,00,AAXX 21034 41977 02956 20000 10260 20190 30088 40127 80001 333 20215 59014 70000 82080==
41977,2022,11,21,06,00,AAXX 21064 41977 02956 22702 10314 20190 30081 40119 80001 333 59007 70000 82080==
41977,2022,11,21,09,00,AAXX 21094 41977 02956 02702 10325 20140 30064 40102 333 58002 70000==
41977,2022,11,21,12,00,AAXX 21124 41977 02956 00000 10265 20180 30068 40106 333 10328 58000 70000==
41977,2022,11,21,18,00,AAXX 21184 41977 NIL=
41977,2022,11,22,00,00,AAXX 22004 41977 NIL=
41977,2022,11,22,03,00,AAXX 22034 41977 01957 03602 10260 20170 30117 40156 70500 333 20205 58029 70000==
41977,2022,11,22,06,00,AAXX 22064 41977 31957 02302 10300 20160 30090 40127 70500 333 58009 70000=
41977,2022,11,22,09,00,AAXX 22094 41977 01956 02202 10302 20170 30060 40097 70500 333 59004 70000==
41977,2022,11,22,12,00,AAXX 22124 41977 01950 00000 10250 20190 30061 40099 70500 333 10305 59007 70000==
41977,2022,11,22,18,00,AAXX 22184 41977 NIL=
41977,2022,11,23,03,00,AAXX 23034 41977 01956 00000 10248 20170 30112 40151 70500 333 20185 59005 70000==
41977,2022,11,23,06,00,AAXX 23064 41977 31950 03102 10290 20170 30096 40134 70500 333 58006 70000=
41977,2022,11,23,12,00,AAXX 23124 41977 01950 00000 10235 20190 30061 40099 70500 333 10306 58000 70000==
41977,2022,11,23,18,00,AAXX 23184 41977 NIL=
41977,2022,11,24,03,00,AAXX 24034 41977 01950 00902 10245 20190 30102 40140 70500 333 20175 59010 70000==
41977,2022,11,24,06,00,AAXX 24064 41977 02956 03102 10280 20170 30090 40128 333 59006 70000==
41977,2022,11,24,09,00,AAXX 24094 41977 02956 03602 10310 20160 30073 40111 333 58012 70000==
41977,2022,11,24,12,00,AAXX 24124 41977 02956 00000 10238 20180 30073 40111 333 10310 58012 70000==
41977,2022,11,24,18,00,AAXX 24184 41977 NIL=
41977,2022,11,24,21,00,AAXX 24214 41977 NIL=
41978,2022,11,18,00,00,AAXX 18004 41978 01940 00306 10206 20200 30110 40116 70500 333 58005 70000==
41978,2022,11,18,03,00,AAXX 18034 41978 01950 00306 10248 20190 30130 40136 70500 333 20200 58011 70000==
41978,2022,11,18,06,00,AAXX 18064 41978 01/50 23607 10292 20140 30112 40119 70510 82030 333 58011 70000 82360==
41978,2022,11,18,09,00,AAXX 18094 41978 01/50 23510 10312 20120 30091 40098 70511 82020 333 58010 70000 82460==
41978,2022,11,18,12,00,AAXX 18124 41978 01/45 33506 10276 20160 30100 40106 70511 83020 333 10317 58010 70000 83460==
41978,2022,11,18,15,00,AAXX 18154 41978 01950 03307 10250 20160 30117 40123 70510 333 58007 70000==
41978,2022,11,18,18,00,AAXX 18184 41978 01950 03605 10242 20190 30120 40127 70510 333 58011 70000==
41978,2022,11,18,21,00,AAXX 18214 41978 01945 00000 10222 20200 30121 40127 70500 333 58020 70000==
41978,2022,11,19,00,00,AAXX 19004 41978 01/45 30305 10206 20180 30114 40121 70511 83020 333 58004 70000 83460==
41978,2022,11,19,03,00,AAXX 19034 41978 01950 40208 10260 20170 30130 40136 70511 80001 333 20200 58000 70000 84080==
41978,2022,11,19,06,00,AAXX 19064 41978 01950 62603 10290 20180 30108 40114 70521 80001 333 59005 70000 86080==
41978,2022,11,19,09,00,AAXX 19094 41978 01950 63007 10308 20210 30084 40090 70522 80001 333 59007 70000 86080==
41978,2022,11,19,12,00,AAXX 19124 41978 01/50 53404 10280 20210 30093 40100 70522 85030 333 10312 59007 70000 85360==
41978,2022,11,19,15,00,AAXX 19154 41978 01/40 53305 10267 20220 30110 40117 70522 85030 333 59007 70000 85360==
41978,2022,11,19,18,00,AAXX 19184 41978 01/40 53307 10252 20220 30105 40111 70522 85030 333 59015 70000 85360==
41978,2022,11,19,21,00,AAXX 19214 41978 01/40 53303 10235 20210 30095 40101 70522 85030 333 59026 70000 85360==
41978,2022,11,20,00,00,AAXX 20004 41978 01/40 50504 10232 20210 30101 40107 70522 85030 333 59013 70000 85360==
41978,2022,11,20,03,00,AAXX 20034 41978 01440 60307 10264 20210 30118 40124 70522 83530 333 20229 59012 70000 83618 85362==
41978,2022,11,20,06,00,AAXX 20064 41978 01450 23307 10310 20230 30100 40107 70521 82500 333 59008 70000 82618==
41978,2022,11,20,09,00,AAXX 20094 41978 01950 33010 10322 20150 30079 40085 70511 82001 333 59005 70000 82080==
41978,2022,11,20,12,00,AAXX 20124 41978 01445 63005 10285 20230 30087 40094 70521 82520 333 10324 59006 70000 82618 85460==
41978,2022,11,20,15,00,AAXX 20154 41978 01945 03506 10284 20170 30102 40108 70511 333 59008 70000==
41978,2022,11,20,18,00,AAXX 20184 41978 01945 00000 10250 20190 30095 40101 70510 333 59010 70000==
41978,2022,11,20,21,00,AAXX 20214 41978 01945 00000 10240 20200 30093 40099 70500 333 59002 70000==
41978,2022,11,21,00,00,AAXX 21004 41978 01945 00000 10228 20210 30081 40087 70500 333 59020 70000==
41978,2022,11,21,03,00,AAXX 21034 41978 01/50 30307 10280 20200 30105 40111 70510 83030 333 20225 59013 70000 83362==
41978,2022,11,21,06,00,AAXX 21064 41978 01/50 33310 10303 20200 30096 40102 70511 83030 333 59004 70000 83362==
41978,2022,11,21,09,00,AAXX 21094 41978 01450 23615 10325 20050 30079 40085 70511 82500 333 58000 70000 82618==
41978,2022,11,21,12,00,AAXX 21124 41978 01445 23509 10298 20170 30087 40094 70511 82500 333 10330 58000 70000 82618==
41978,2022,11,21,15,00,AAXX 21154 41978 01945 02713 10273 20190 30103 40110 70510 333 58001 70000==
41978,2022,11,21,18,00,AAXX 21184 41978 01945 03609 10255 20190 30097 40103 70510 333 58002 70000==
41978,2022,11,21,21,00,AAXX 21214 41978 01945 03511 10238 20180 30095 40095 70500 333 59004 70000==
41978,2022,11,22,00,00,AAXX 22004 41978 01940 03610 10233 20150 30104 40110 70500 333 58023 70000==
41978,2022,11,22,03,00,AAXX 22034 41978 01450 23312 10253 20150 30125 40131 70510 82500 333 20228 58020 70000 82618==
41978,2022,11,22,06,00,AAXX 22064 41978 01950 03310 10290 20170 30109 40116 70500 333 58013 70000==
41978,2022,11,22,09,00,AAXX 22094 41978 01950 03312 10296 20140 30076 40083 70500 333 59003 70000==
41978,2022,11,22,12,00,AAXX 22124 41978 01440 33310 10269 20170 30082 40089 70500 83500 333 10300 59005 70000 83618==
41978,2022,11,22,15,00,AAXX 22154 41978 01940 03009 10250 20170 30100 40106 70500 333 59003 70000==
41978,2022,11,22,18,00,AAXX 22184 41978 01940 03607 10243 20180 30106 40112 70500 333 58009 70000==
41978,2022,11,22,21,00,AAXX 22214 41978 01940 00305 10221 20190 30104 40110 70500 333 58015 70000==
41978,2022,11,23,00,00,AAXX 23004 41978 01935 00107 10155 20180 30106 40112 70500 333 58002 70000==
41978,2022,11,23,03,00,AAXX 23034 41978 01932 00305 10245 20170 30125 40132 70500 333 20190 58000 70000==
41978,2022,11,23,06,00,AAXX 23064 41978 01940 00305 10283 20150 30108 40114 70500 333 59001 70000==
41978,2022,11,23,09,00,AAXX 23094 41978 01940 03312 10287 20170 30082 40089 70500 333 58006 70000==
41978,2022,11,23,12,00,AAXX 23124 41978 01440 33308 10267 20180 30086 40093 70500 83500 333 10288 58004 70000 83618==
41978,2022,11,23,15,00,AAXX 23154 41978 01940 03508 10250 20160 30102 40108 70510 333 58002 70000==
41978,2022,11,23,18,00,AAXX 23184 41978 01940 03508 10234 20170 30106 40112 70500 333 58000 70000==
41978,2022,11,23,21,00,AAXX 23214 41978 01940 03505 10223 20170 30107 40113 70500 333 58003 70000==
41978,2022,11,24,00,00,AAXX 24004 41978 01940 00105 10193 20170 30098 40105 70500 333 59014 70000==
41978,2022,11,24,03,00,AAXX 24034 41978 01935 03608 10238 20170 30119 40125 70500 333 20186 59006 70000==
41978,2022,11,24,06,00,AAXX 24064 41978 01945 00107 10282 20130 30104 40111 70500 333 59004 70000==
41978,2022,11,24,09,00,AAXX 24094 41978 01945 13314 10290 20150 30081 40087 70500 80001 333 59001 70000 81080==
41978,2022,11,24,12,00,AAXX 24124 41978 01940 13505 10264 20180 30092 40098 70510 80001 333 10295 58006 70000 81080==
41978,2022,11,24,15,00,AAXX 24154 41978 01940 03308 10244 20160 30115 40121 70510 333 58013 70000==
41978,2022,11,24,18,00,AAXX 24184 41978 01940 03306 10230 20170 30116 40122 70500 333 58010 70000==
41978,2022,11,24,21,00,AAXX 24214 41978 01940 03306 10204 20180 30107 40113 70500 333 58000 70000==
41980,2022,11,18,12,00,AAXX 18124 41980 32930 00000 10220 20170 39995 40109 333 10286 59004 70000=
41980,2022,11,18,18,00,AAXX 18184 41980 NIL=
41980,2022,11,19,00,00,AAXX 19004 41980 32940 00000 10192 20180 30005 40121 333 59006 70000=
41980,2022,11,19,03,00,AAXX 19034 41980 NIL=
41980,2022,11,19,12,00,AAXX 19124 41980 32930 50000 10250 20220 39990 40103 85030 333 10300 56090 59005 70000 85362=
41980,2022,11,19,18,00,AAXX 19184 41980 NIL=
41980,2022,11,20,00,00,AAXX 20004 41980 NIL=
41980,2022,11,20,06,00,AAXX 20064 41980 NIL=
41980,2022,11,20,12,00,AAXX 20124 41980 32930 00000 10255 20220 39982 40095 333 10327 59008 70000=
41980,2022,11,20,18,00,AAXX 20184 41980 NIL=
41980,2022,11,21,00,00,AAXX 21004 41980 NIL=
41980,2022,11,21,12,00,AAXX 21124 41980 32940 00000 10245 20190 39979 40093 333 10326 59003 70000=
41980,2022,11,21,18,00,AAXX 21184 41980 NIL=
41980,2022,11,22,00,00,AAXX 22004 41980 NIL=
41980,2022,11,22,12,00,AAXX 22124 41980 32940 00000 10230 20200 39979 40093 333 10303 58000 70000=
41980,2022,11,22,18,00,AAXX 22184 41980 NIL=
41980,2022,11,23,12,00,AAXX 23124 41980 32940 00000 10215 20200 39978 40093 333 10287 59001 70000=
41980,2022,11,23,18,00,AAXX 23184 41980 NIL=
41980,2022,11,24,06,00,AAXX 24064 41980 NIL=
41980,2022,11,24,12,00,AAXX 24124 41980 32940 00000 10233 20210 39982 40096 333 10280 58003 70000=
41980,2022,11,24,18,00,AAXX 24184 41980 NIL=
41980,2022,11,24,21,00,AAXX 24214 41980 NIL=
41984,2022,11,18,00,00,AAXX 18004 41984 01956 00000 10185 20180 30105 40107 70500 333 58006 70000==
41984,2022,11,18,03,00,AAXX 18034 41984 01956 00000 10238 20190 30128 40130 70500 333 20177 58011 70000==
41984,2022,11,18,09,00,AAXX 18094 41984 02957 03502 10283 20150 30091 40093 333 58010 70000==
41984,2022,11,18,12,00,AAXX 18124 41984 01940 00000 10218 20190 30098 40100 70500 333 10295 58009 70000==
41984,2022,11,18,15,00,AAXX 18154 41984 01940 00000 10195 20190 30116 40119 70500 333 58010 70000==
41984,2022,11,18,18,00,AAXX 18184 41984 01940 00000 10188 20180 30119 40121 70500 333 58011 70000==
41984,2022,11,18,21,00,AAXX 18214 41984 01940 00000 10180 20170 30117 40119 70500 333 58011 70000==
41984,2022,11,19,00,00,AAXX 19004 41984 01956 00000 10186 20180 30114 40116 70500 333 58009 70000==
41984,2022,11,19,03,00,AAXX 19034 41984 01956 00000 10226 20200 30126 40128 70500 333 20175 59002 70000==
41984,2022,11,19,06,00,AAXX 19064 41984 02457 20000 10274 20170 30105 40107 82501 333 59011 70000 82618==
41984,2022,11,19,12,00,AAXX 19124 41984 02940 00000 10240 20210 30091 40093 333 10291 59007 70000==
41984,2022,11,19,15,00,AAXX 19154 41984 02440 20000 10214 20200 30106 40108 82500 333 59010 70000 82618==
41984,2022,11,19,18,00,AAXX 19184 41984 02440 20000 10218 20210 30102 40104 82500 333 59017 70000 82618==
41984,2022,11,19,21,00,AAXX 19214 41984 01440 20000 10214 20190 30100 40102 70500 82500 333 59017 70000 82618==
41984,2022,11,20,00,00,AAXX 20004 41984 02956 00000 10209 20200 30095 40097 333 58000 70000==
41984,2022,11,20,03,00,AAXX 20034 41984 01456 50000 10252 20200 30113 40115 70522 82530 333 20206 59013 70000 82618 83362==
41984,2022,11,20,06,00,AAXX 20064 41984 02457 50000 10301 20200 30099 40101 82530 333 59006 70000 82618 83362==
41984,2022,11,20,09,00,AAXX 20094 41984 02958 02901 10290 20160 30096 40098 333 59006 70000==
41984,2022,11,20,12,00,AAXX 20124 41984 02440 20000 10257 20220 30086 40088 82500 333 10316 59005 70000 82618==
41984,2022,11,20,15,00,AAXX 20154 41984 01940 00000 10200 20190 30123 40125 70500 333 58003 70000==
41984,2022,11,20,18,00,AAXX 20184 41984 02940 00000 10220 20200 30093 40095 333 59009 70000==
41984,2022,11,20,21,00,AAXX 20214 41984 02440 20000 10210 20200 30087 40089 82500 333 59013 70000 82618==
41984,2022,11,21,00,00,AAXX 21004 41984 02456 20000 10204 20190 30085 40087 82500 333 59011 70000 82618==
41984,2022,11,21,03,00,AAXX 21034 41984 02457 50000 10255 20190 30106 40108 83510 333 20195 59007 70000 83618 85458==
41984,2022,11,21,06,00,AAXX 21064 41984 02457 20000 10290 20170 30097 40099 82500 333 59002 70000 82618==
41984,2022,11,21,09,00,AAXX 21094 41984 02958 10000 10298 20180 30082 40084 80001 333 58003 70000 81080==
41984,2022,11,21,12,00,AAXX 21124 41984 02940 10000 10248 20200 30085 40087 80001 333 10307 59001 70000 81080==
41984,2022,11,21,15,00,AAXX 21154 41984 02940 00000 10220 20200 30100 40102 333 58003 70000==
41984,2022,11,21,18,00,AAXX 21184 41984 02940 00000 10215 20210 30097 40099 333 59004 70000==
41984,2022,11,21,21,00,AAXX 21214 41984 02940 00000 10203 20190 30097 40099 333 58010 70000==
41984,2022,11,22,00,00,AAXX 22004 41984 02956 00000 10198 20180 30096 40099 333 58011 70000==
41984,2022,11,22,03,00,AAXX 22034 41984 02957 00000 10247 20170 30120 40122 333 20190 58014 70000==
41984,2022,11,22,09,00,AAXX 22094 41984 02957 00000 10278 20160 30079 40081 333 59003 70000==
41984,2022,11,22,12,00,AAXX 22124 41984 02940 00000 10216 20190 30084 40086 333 10290 59001 70000==
41984,2022,11,22,15,00,AAXX 22154 41984 02940 00000 10182 20170 30098 40100 333 59002 70000==
41984,2022,11,22,18,00,AAXX 22184 41984 01940 00000 10179 20170 30103 40105 70500 333 58006 70000==
41984,2022,11,22,21,00,AAXX 22214 41984 01940 00000 10170 20170 30103 40105 70500 333 58006 70000==
41984,2022,11,23,00,00,AAXX 23004 41984 01950 00000 10166 20166 30102 40104 70500 333 58006 70000==
41984,2022,11,23,03,00,AAXX 23034 41984 01956 00000 10235 20170 30122 40124 70500 333 20163 58002 70000==
41984,2022,11,23,06,00,AAXX 23064 41984 32457 00000 10274 20170 30110 40112 333 58005 70000=
41984,2022,11,23,09,00,AAXX 23094 41984 02957 00000 10278 20170 30085 40087 333 58006 70000==
41984,2022,11,23,12,00,AAXX 23124 41984 02940 00000 10214 20190 30087 40089 333 10284 58003 70000==
41984,2022,11,23,15,00,AAXX 23154 41984 02940 00000 10190 20180 30100 40102 333 58002 70000==
41984,2022,11,23,18,00,AAXX 23184 41984 01940 00000 10180 20180 30103 40105 70500 333 58000 70000==
41984,2022,11,23,21,00,AAXX 23214 41984 01940 00000 10170 20170 30103 40105 70500 333 58000 70000==
41984,2022,11,24,00,00,AAXX 24004 41984 01956 00000 10157 20157 30101 40103 70500 333 59001 70000==
41984,2022,11,24,03,00,AAXX 24034 41984 01956 00000 10220 20160 30116 40118 70500 333 20154 59006 70000==
41984,2022,11,24,06,00,AAXX 24064 41984 02957 03601 10270 20160 30108 40110 333 59002 70000==
41984,2022,11,24,09,00,AAXX 24094 41984 02957 00000 10277 20170 30083 40085 333 59002 70000==
41984,2022,11,24,12,00,AAXX 24124 41984 01940 00000 10216 20190 30091 40093 70500 333 10284 58004 70000==
41984,2022,11,24,15,00,AAXX 24154 41984 01940 00000 10186 20180 30111 40113 70500 333 58011 70000==
41984,2022,11,24,18,00,AAXX 24184 41984 01940 00000 10176 20176 30113 40115 70500 333 58010 70000==
41984,2022,11,24,21,00,AAXX 24214 41984 01940 00000 10170 20170 30112 40114 70500 333 58009 70000==
41989,2022,11,18,09,00,AAXX 18094 41989 02450 13103 10302 20190 30083 40086 81500 333 59009 70000 81618==
41989,2022,11,18,12,00,AAXX 18124 41989 01450 33202 10272 20200 30078 40082 70510 83500 333 10312 59008 70000 83618==
41989,2022,11,18,15,00,AAXX 18154 41989 01440 23102 10235 20210 30119 40122 70510 82500 333 58024 70000 82618==
41989,2022,11,18,18,00,AAXX 18184 41989 NIL=
41989,2022,11,19,03,00,AAXX 19034 41989 02450 23103 10284 20200 30129 40132 82500 333 20190 58009 70000 82618==
41989,2022,11,19,06,00,AAXX 19064 41989 02450 33105 10304 20190 30115 40118 82530 333 59014 70000 82618 83362==
41989,2022,11,19,12,00,AAXX 19124 41989 02440 41302 10285 20240 30096 40099 82530 333 10308 58018 70000 82618 83362==
41989,2022,11,19,15,00,AAXX 19154 41989 01440 33102 10258 20220 30103 40106 70511 82530 333 59016 70000 82618 83362==
41989,2022,11,19,18,00,AAXX 19184 41989 01440 23202 10245 20220 30112 40115 70511 82500 333 59001 70000 82618==
41989,2022,11,19,21,00,AAXX 19214 41989 02930 33202 10248 20220 30106 40109 83500 333 59003 70000 83618==
41989,2022,11,20,00,00,AAXX 20004 41989 02430 61802 10250 20230 30038 40041 84470 333 58000 70380 83618 84460==
41989,2022,11,20,03,00,AAXX 20034 41989 01450 60103 10283 20280 30123 40126 70362 84470 333 20265 58004 70010 83618 84460==
41989,2022,11,20,06,00,AAXX 20064 41989 NIL=
41989,2022,11,20,09,00,AAXX 20094 41989 02456 33103 10320 20220 30077 40080 83510 333 59032 70000 83618==
41989,2022,11,20,12,00,AAXX 20124 41989 02450 23202 10284 20230 30073 40077 82500 333 10325 59026 70000 82618==
41989,2022,11,20,15,00,AAXX 20154 41989 02450 23202 10260 20230 30098 40102 82500 333 59005 70000 82618==
41989,2022,11,20,18,00,AAXX 20184 41989 02450 31402 10265 20250 30105 40108 83500 333 59008 70000 83618==
41989,2022,11,20,21,00,AAXX 20214 41989 02430 23102 10240 20220 30107 40110 82500 333 58007 70000 82618==
41989,2022,11,21,00,00,AAXX 21004 41989 32430 23102 10230 20210 30107 40110 82500 333 56900 59011 70000 82618=
41989,2022,11,21,03,00,AAXX 21034 41989 02450 23104 10284 20210 30100 40103 82500 333 20220 59018 70000 82618==
41989,2022,11,21,06,00,AAXX 21064 41989 02450 23204 10305 20230 30091 40094 82500 333 59013 70000 82618==
41989,2022,11,21,12,00,AAXX 21124 41989 NIL=
41989,2022,11,21,15,00,AAXX 21154 41989 01440 33102 10262 20220 30091 40094 70511 83500 333 59007 70000 83618==
41989,2022,11,21,18,00,AAXX 21184 41989 NIL=
41989,2022,11,21,21,00,AAXX 21214 41989 01430 23202 10250 20230 30100 40103 70511 82500 333 59007 70000 82618==
41989,2022,11,22,00,00,AAXX 22004 41989 01430 23202 10230 20210 30092 40096 70511 82500 333 58015 70000 82618==
41989,2022,11,22,03,00,AAXX 22034 41989 02440 23102 10285 20210 30104 40107 82500 333 20215 58004 70000 82618==
41989,2022,11,22,06,00,AAXX 22064 41989 32450 13102 10305 20230 30108 40111 81500 333 56900 58017 70000 81618=
41989,2022,11,22,09,00,AAXX 22094 41989 02450 13204 10297 20190 30080 40083 81500 333 59011 70000 81618==
41989,2022,11,22,18,00,AAXX 22184 41989 NIL=
41989,2022,11,23,03,00,AAXX 23034 41989 02450 13105 10286 20220 30110 40114 81500 333 20180 58006 70000 81618==
41989,2022,11,23,06,00,AAXX 23064 41989 32450 03204 10284 20180 30106 40109 333 59002 70000=
41989,2022,11,23,09,00,AAXX 23094 41989 02950 03102 10295 20220 30102 40105 333 58022 70000==
41989,2022,11,23,12,00,AAXX 23124 41989 02940 03102 10275 20240 30088 40091 333 10305 58015 70000==
41989,2022,11,23,18,00,AAXX 23184 41989 NIL=
41989,2022,11,24,03,00,AAXX 24034 41989 02950 03105 10274 20190 30110 40114 333 20180 58000 70000==
41989,2022,11,24,06,00,AAXX 24064 41989 02440 13102 10290 20210 30114 40117 81500 333 58008 70000 81618==
41989,2022,11,24,09,00,AAXX 24094 41989 02450 23204 10295 20190 30077 40080 82500 333 59025 70000 82618==
41989,2022,11,24,12,00,AAXX 24124 41989 01240 23104 10262 20190 30077 40080 70511 82500 333 10300 59011 70000 82618==
41989,2022,11,24,15,00,AAXX 24154 41989 01440 33102 10255 20210 30098 40099 70511 83530 333 58002 70000 83618==
41989,2022,11,24,18,00,AAXX 24184 41989 01440 33102 10240 20210 30116 40119 70511 82500 333 58002 70000 83618==
41989,2022,11,24,21,00,AAXX 24214 41989 01430 23102 10220 20200 30114 40117 70511 82500 333 58024 70000 82618==
41992,2022,11,18,00,00,AAXX 18004 41992 01925 03603 10215 20190 30097 40100 70500 333 58008 70000==
41992,2022,11,18,03,00,AAXX 18034 41992 01930 03305 10260 20200 30107 40110 70500 333 20208 58002 70000==
41992,2022,11,18,06,00,AAXX 18064 41992 01930 03306 10306 20170 30110 40113 70500 333 58012 70000==
41992,2022,11,18,09,00,AAXX 18094 41992 01935 03305 10300 20190 30085 40088 70500 333 58003 70000==
41992,2022,11,18,12,00,AAXX 18124 41992 01925 03304 10260 20200 30090 40093 70500 333 10320 58003 70000==
41992,2022,11,18,15,00,AAXX 18154 41992 01925 03603 10250 20190 30107 40110 70500 333 59002 70000==
41992,2022,11,18,18,00,AAXX 18184 41992 01925 03604 10242 20160 30109 40111 70500 333 58010 70000==
41992,2022,11,18,21,00,AAXX 18214 41992 01925 03306 10234 20170 30105 40107 70500 333 58011 70000==
41992,2022,11,19,00,00,AAXX 19004 41992 01/25 23306 10227 20190 30102 40104 70510 82030 333 58005 70000 82030==
41992,2022,11,19,03,00,AAXX 19034 41992 01/30 63605 10242 20190 30120 40122 70522 86030 333 20212 58006 70000 86362==
41992,2022,11,19,06,00,AAXX 19064 41992 01/30 63605 10305 20210 30104 40106 70522 86030 333 59007 70000 86362==
41992,2022,11,19,09,00,AAXX 19094 41992 01930 62406 10315 20220 30085 40088 70522 86001 333 58000 70000 86080==
41992,2022,11,19,12,00,AAXX 19124 41992 01425 63303 10275 20220 30085 40088 70522 84530 333 10322 59005 70000 84616 86362==
41992,2022,11,19,15,00,AAXX 19154 41992 01425 40303 10265 20220 30110 40113 70510 82530 333 58003 70000 82616 84362==
41992,2022,11,19,18,00,AAXX 19184 41992 01425 63302 10240 20220 30102 40105 70522 84530 333 59002 70000 84616 86362==
41992,2022,11,19,21,00,AAXX 19214 41992 01425 63302 10240 20220 30102 40105 70522 84530 333 59002 70000 84616 86362==
41992,2022,11,20,00,00,AAXX 20004 41992 31425 60302 10242 20220 30092 40095 70500 84530 333 56990 59009 70000 84616 86362=
41992,2022,11,20,03,00,AAXX 20034 41992 01935 00000 10300 20210 30112 40114 70521 333 20235 59008 70000==
41992,2022,11,20,06,00,AAXX 20064 41992 01935 00000 10342 20220 30102 40105 70521 333 59002 70000==
41992,2022,11,20,09,00,AAXX 20094 41992 01930 03306 10328 20210 30080 40083 70510 333 59005 70000==
41992,2022,11,20,12,00,AAXX 20124 41992 01925 03305 10280 20210 30085 40088 70500 333 10345 58000 70000==
41992,2022,11,20,15,00,AAXX 20154 41992 01925 03302 10260 20210 30105 40108 70500 333 59005 70000==
41992,2022,11,20,18,00,AAXX 20184 41992 01925 00000 10252 20220 30093 40096 70500 333 59013 70000==
41992,2022,11,20,21,00,AAXX 20214 41992 01925 00000 10240 20220 30087 40090 70500 333 59015 70000==
41992,2022,11,21,00,00,AAXX 21004 41992 01925 00000 10238 20210 30075 40080 70500 333 59015 70000==
41992,2022,11,21,03,00,AAXX 21034 41992 01935 03006 10294 20200 30098 40100 70500 333 20235 59014 70000==
41992,2022,11,21,06,00,AAXX 21064 41992 01935 03606 10320 20220 30095 40098 70500 333 59007 70000==
41992,2022,11,21,09,00,AAXX 21094 41992 01935 03608 10320 20150 30081 40084 70500 333 58001 70000==
41992,2022,11,21,12,00,AAXX 21124 41992 01930 03605 10280 20200 30086 40089 70500 333 10335 58001 70000==
41992,2022,11,21,15,00,AAXX 21154 41992 01925 03602 10260 20210 30104 40107 70500 333 59001 70000==
41992,2022,11,21,18,00,AAXX 21184 41992 01925 03605 10250 20220 30094 40097 70500 333 58001 70000==
41992,2022,11,21,21,00,AAXX 21214 41992 01925 03604 10240 20210 30088 40091 70500 333 58001 70000==
41992,2022,11,22,00,00,AAXX 22004 41992 01925 03608 10230 20180 30091 40094 70500 333 58014 70000==
41992,2022,11,22,03,00,AAXX 22034 41992 01930 03608 10267 20160 30111 40113 70500 333 20215 58013 70000==
41992,2022,11,22,06,00,AAXX 22064 41992 01935 03008 10302 20160 30099 40102 70500 333 58004 70000==
41992,2022,11,22,09,00,AAXX 22094 41992 01930 03608 10300 20160 30080 40083 70500 333 59001 70000==
41992,2022,11,22,12,00,AAXX 22124 41992 01925 03310 10265 20180 30084 40087 70500 333 10315 59002 70000==
41992,2022,11,22,15,00,AAXX 22154 41992 01925 03303 10240 20190 30103 40106 70500 333 59001 70000==
41992,2022,11,22,18,00,AAXX 22184 41992 01925 03605 10235 20200 30099 40102 70500 333 58005 70000==
41992,2022,11,22,21,00,AAXX 22214 41992 01925 03605 10230 20200 30094 40096 70500 333 58005 70000==
41992,2022,11,23,00,00,AAXX 23004 41992 01925 00305 10215 20160 30095 40097 70500 333 58003 70000==
41992,2022,11,23,03,00,AAXX 23034 41992 01930 03605 10252 20160 30116 40118 70500 333 20215 58005 70000==
41992,2022,11,23,06,00,AAXX 23064 41992 31935 03306 10293 20160 30100 40102 70500 333 58001 70000=
41992,2022,11,23,09,00,AAXX 23094 41992 01935 03608 10292 20170 30081 40083 70500 333 58001 70000==
41992,2022,11,23,12,00,AAXX 23124 41992 01925 03602 10255 20190 30085 40087 70500 333 10302 58001 70000==
41992,2022,11,23,15,00,AAXX 23154 41992 01925 03303 10230 20180 30097 40100 70500 333 59006 70000==
41992,2022,11,23,18,00,AAXX 23184 41992 01925 03602 10228 20180 30093 40095 70500 333 59006 70000==
41992,2022,11,23,21,00,AAXX 23214 41992 01925 03603 10215 20180 30095 40098 70500 333 58002 70000==
41992,2022,11,24,00,00,AAXX 24004 41992 01925 03603 10200 20160 30100 40103 70500 333 58006 70000==
41992,2022,11,24,03,00,AAXX 24034 41992 01930 03608 10252 20160 30105 40107 70500 333 20192 59011 70000==
41992,2022,11,24,06,00,AAXX 24064 41992 01935 03605 10285 20190 30102 40104 70500 333 58002 70000==
41992,2022,11,24,09,00,AAXX 24094 41992 01935 03608 10288 20180 30081 40084 70500 333 58000 70000==
41992,2022,11,24,12,00,AAXX 24124 41992 01925 03602 10255 20210 30083 40086 70500 333 10300 59002 70000==
41992,2022,11,24,15,00,AAXX 24154 41992 01925 03302 10242 20190 30102 40104 70500 333 58005 70000==
41992,2022,11,24,18,00,AAXX 24184 41992 01925 00000 10233 20170 30108 40110 70500 333 58015 70000==
41992,2022,11,24,21,00,AAXX 24214 41992 01925 00302 10220 20180 30103 40106 70500 333 58008 70000==
41998,2022,11,18,00,00,AAXX 18004 41998 01950 00000 10212 20190 30092 40098 70500 333 59002 70000==
41998,2022,11,18,03,00,AAXX 18034 41998 32956 00000 10276 20170 30111 40117 333 20206 58019 70000=
41998,2022,11,18,12,00,AAXX 18124 41998 02956 00000 10247 20210 30092 40098 333 10316 58007 70000==
41998,2022,11,18,18,00,AAXX 18184 41998 NIL=
41998,2022,11,19,03,00,AAXX 19034 41998 02950 00000 10270 20190 30107 40113 333 20205 59004 70000==
41998,2022,11,19,12,00,AAXX 19124 41998 02956 00000 10244 20210 30087 40093 333 10314 59005 70000==
41998,2022,11,19,18,00,AAXX 19184 41998 NIL=
41998,2022,11,20,00,00,AAXX 20004 41998 NIL=
41998,2022,11,20,03,00,AAXX 20034 41998 02956 00000 10280 20240 30095 40101 333 20212 58001 70000==
41998,2022,11,20,06,00,AAXX 20064 41998 NIL=
41998,2022,11,20,12,00,AAXX 20124 41998 02956 00000 10291 20250 30090 40096 333 10326 58002 70000==
41998,2022,11,20,18,00,AAXX 20184 41998 NIL=
41998,2022,11,21,00,00,AAXX 21004 41998 NIL=
41998,2022,11,21,03,00,AAXX 21034 41998 02956 00000 10276 20170 30012 40018 333 20203 58002 70000==
41998,2022,11,21,12,00,AAXX 21124 41998 02956 00000 10241 20200 30084 40090 333 10310 58008 70000==
41998,2022,11,21,18,00,AAXX 21184 41998 NIL=
41998,2022,11,22,00,00,AAXX 22004 41998 01940 00000 10206 20190 30089 40095 70500 333 59012 70000==
41998,2022,11,22,03,00,AAXX 22034 41998 02956 00000 10268 20180 30104 40110 333 20200 59013 70000==
41998,2022,11,22,12,00,AAXX 22124 41998 02956 00000 10248 20220 30075 40081 333 10318 59001 70000==
41998,2022,11,22,18,00,AAXX 22184 41998 NIL=
41998,2022,11,23,03,00,AAXX 23034 41998 02956 00000 10271 20190 30110 40116 333 20205 59006 70000==
41998,2022,11,23,06,00,AAXX 23064 41998 31940 00000 10205 20190 30088 40094 70500 333 59001 70000=
41998,2022,11,23,12,00,AAXX 23124 41998 02956 00000 10244 20200 30084 40090 333 10308 58009 70000==
41998,2022,11,23,18,00,AAXX 23184 41998 NIL=
41998,2022,11,24,00,00,AAXX 24004 41998 31940 00000 10205 20190 30086 40092 70500 333 58002 70000=
41998,2022,11,24,06,00,AAXX 24064 41998 NIL=
41998,2022,11,24,12,00,AAXX 24124 41998 02956 00000 10251 20220 30086 40092 333 10308 58002 70000==
41998,2022,11,24,18,00,AAXX 24184 41998 NIL=
41998,2022,11,24,21,00,AAXX 24214 41998 NIL=
