ESTACION,ANO,MES,DIA,HORA,MINUTO,PARTE
41850,2024,05,03,00,00,AAXX 03004 41850 31940 00000 10170 20150 39945 40046 70500 333 58053 70000=
41850,2024,05,03,06,00,AAXX 03064 41850 32957 00000 10308 20160 39963 40059 333 58062 70000=
41850,2024,05,03,12,00,AAXX 03124 41850 32956 00000 10299 20200 39944 40041 333 10338 58055 70000=
41850,2024,05,04,00,00,AAXX 04004 41850 31940 00000 10218 20180 39974 40073 70500 333 58029 70000=
41850,2024,05,04,06,00,AAXX 04064 41850 32957 01804 10316 20170 39993 40090 333 58030 70000=
41850,2024,05,04,12,00,AAXX 04124 41850 32956 00000 10307 20190 39933 40029 333 10338 58011 70000=
41850,2024,05,05,00,00,AAXX 05004 41850 31940 60000 10225 20210 39942 40041 70500 82510 333 56990 59032 70000 82618 86458=
41850,2024,05,05,06,00,AAXX 05064 41850 32456 50503 10310 20190 39940 40036 82510 333 56990 59053 70000 82618 85458=
41850,2024,05,05,12,00,AAXX 05124 41850 32450 60903 10276 20210 39926 40023 82510 333 10321 56990 59007 70000 82618 86458=
41850,2024,05,05,18,00,AAXX 05184 41850 31435 82707 10224 20170 39961 40060 70522 8352/ 333 56999 58014 70000 83618 88458=
41850,2024,05,06,00,00,AAXX 06004 41850 31440 81802 10221 20160 39975 40075 70522 8352/ 333 56999 58033 70000 83618 88458=
41850,2024,05,06,06,00,AAXX 06064 41850 32460 82307 10280 20140 39987 40085 8352/ 333 56999 58047 70000 83618 88458=
41850,2024,05,06,12,00,AAXX 06124 41850 32450 60000 10260 20160 39966 40064 82510 333 10292 56990 58040 70000 82618 86458=
41850,2024,05,07,00,00,AAXX 07004 41850 31950 00000 10227 20190 30018 40118 70520 333 58043 70000=
41850,2024,05,07,06,00,AAXX 07064 41850 32457 21306 10287 20180 30023 40121 82500 333 56900 58036 70000 82618=
41850,2024,05,07,12,00,AAXX 07124 41850 11330 82305 10220 20200 30008 40108 60016 76196 8572/ 333 10300 56999 58042 70010 82707 84617 88458=
41850,2024,05,07,18,00,AAXX 07184 41850 11445 80000 10210 20200 30021 40121 60064 70562 8352/ 333 56999 58025 70070 83618 88458=
41850,2024,05,08,00,00,AAXX 08004 41850 31440 80000 10216 20200 30006 40106 70522 8352/ 333 56999 59012 70070 83618 88458=
41850,2024,05,08,06,00,AAXX 08064 41850 32456 80000 10267 20180 30020 40118 8352/ 333 56999 59003 70070 83618 88458=
41850,2024,05,08,12,00,AAXX 08124 41850 32456 60000 10283 20210 39989 40087 82510 333 10298 56990 59019 70060 82618 86458=
41850,2024,05,08,18,00,AAXX 08184 41850 31445 50000 10232 20220 30006 40106 70522 82510 333 56990 59015 70000 82618 85458=
41850,2024,05,09,00,00,AAXX 09004 41850 31450 80000 10215 20210 39993 40093 70522 8352/ 333 56999 59013 70000 84618 88458=
41850,2024,05,09,06,00,AAXX 09064 41850 32457 21804 10311 20180 30000 40097 82500 333 56900 59020 70000 82618=
41850,2024,05,09,12,00,AAXX 09124 41850 11350 80000 10228 20220 39976 40076 60247 76196 8532/ 333 10322 56999 59013 70240 84616 81926 88457=
41850,2024,05,09,18,00,AAXX 09184 41850 31430 81803 10228 20220 30012 40112 70522 8352/ 333 56999 58006 70240 83618 88458=
41851,2024,05,03,00,00,AAXX 03004 41851 32950 01301 10196 20190 39976 40040 333 58045 70000=
41851,2024,05,03,06,00,AAXX 03064 41851 32950 01701 10333 20160 39995 40057 333 58053 70000=
41851,2024,05,03,12,00,AAXX 03124 41851 32950 00000 10318 20200 39978 40039 333 10362 58054 70000=
41851,2024,05,03,18,00,AAXX 03184 41851 32950 00000 10229 20190 30006 40069 333 58049 70000=
41851,2024,05,04,00,00,AAXX 04004 41851 32450 60000 10216 20180 30005 40069 82530 333 56990 58029 70000 82618 85362=
41851,2024,05,04,06,00,AAXX 04064 41851 32450 80902 10314 20190 30013 40075 8352/ 333 56999 58018 70000 83618 88458=
41851,2024,05,04,12,00,AAXX 04124 41851 32450 60901 10307 20250 39969 40030 82520 333 10356 56990 59009 70000 82618 86458=
41851,2024,05,04,18,00,AAXX 04184 41851 32450 80000 10253 20230 39968 40031 8352/ 333 56999 59038 70000 83618 88458=
41851,2024,05,05,00,00,AAXX 05004 41851 32450 81301 10231 20220 39973 40036 8352/ 333 56499 59032 70000 83618 88457=
41851,2024,05,05,06,00,AAXX 05064 41851 32450 81101 10292 20210 39983 40045 8352/ 333 56999 59030 70000 83617 88457=
41851,2024,05,05,12,00,AAXX 05124 41851 32450 80704 10256 20210 39963 40026 8352/ 333 10300 56999 59006 70000 83618 88458=
41851,2024,05,05,18,00,AAXX 05184 41851 32450 80705 10225 20190 30005 40068 8352/ 333 56999 58037 70000 83618 88458=
41851,2024,05,06,00,00,AAXX 06004 41851 32350 80904 10224 20170 30016 40080 8462/ 333 56399 58043 70000 81709 83617 88457=
41851,2024,05,06,06,00,AAXX 06064 41851 32350 80904 10260 20190 30028 40091 8462/ 333 56399 58045 70000 81709 83617 88457=
41851,2024,05,06,12,00,AAXX 06124 41851 32350 80903 10248 20200 39998 40061 8362/ 333 10275 56299 58035 70000 81709 83617 88457=
41851,2024,05,06,18,00,AAXX 06184 41851 32450 50907 10230 20180 30028 40092 82510 333 56990 58023 70000 82618 85458=
41851,2024,05,07,00,00,AAXX 07004 41851 32450 80902 10216 20200 30052 40116 8352/ 333 56999 58036 70000 83618 88458=
41851,2024,05,07,06,00,AAXX 07064 41851 31350 80705 10266 20200 30067 40130 70292 8462/ 333 56299 58039 70000 81709 83617 88457=
41851,2024,05,07,12,00,AAXX 07124 41851 11450 50000 10248 20220 30040 40103 60064 70296 83510 333 10280 56990 58042 70062 83618 84459=
41851,2024,05,07,18,00,AAXX 07184 41851 32450 31803 10222 20190 30055 40119 83500 333 56900 58027 70062 83618=
41851,2024,05,08,00,00,AAXX 08004 41851 31440 80000 10210 20210 30042 40106 70520 8352/ 333 56999 59010 70062 83618 88458=
41851,2024,05,08,06,00,AAXX 08064 41851 32450 80902 10265 20210 30057 40120 8352/ 333 56999 59010 70062 83618 88458=
41851,2024,05,08,12,00,AAXX 08124 41851 32450 80000 10275 20220 30026 40089 8352/ 333 10325 56999 59014 70000 83618 88458=
41851,2024,05,08,18,00,AAXX 08184 41851 31940 00000 10225 20220 30038 40102 70520 333 59017 70000=
41851,2024,05,09,00,00,AAXX 09004 41851 31440 80000 10217 20210 30031 40095 70520 8352/ 333 56999 59011 70000 83618 88458=
41851,2024,05,09,06,00,AAXX 09064 41851 32450 51802 10317 20210 30040 40102 83510 333 56990 59017 70000 83618 84459=
41851,2024,05,09,12,00,AAXX 09124 41851 11440 80000 10240 20210 30011 40074 69924 76192 8352/ 333 10330 56999 59015 70002 83618 88458=
41851,2024,05,09,18,00,AAXX 09184 41851 32450 80000 10230 20210 30047 40111 8352/ 333 56999 58009 70002 83618 88458=
41856,2024,05,03,00,00,AAXX 03004 41856 32950 01201 10226 20220 30008 40044 333 58058 70000=
41856,2024,05,03,06,00,AAXX 03064 41856 32957 01802 10335 20160 30026 40061 333 58051 70000=
41856,2024,05,03,12,00,AAXX 03124 41856 32950 00000 10322 20180 30004 40039 333 10365 58052 70000=
41856,2024,05,03,18,00,AAXX 03184 41856 32940 00000 10234 20190 30032 40068 333 58044 70000=
41856,2024,05,04,00,00,AAXX 04004 41856 32940 31001 10216 20200 30028 40064 80001 333 56009 58020 70000 83080=
41856,2024,05,04,06,00,AAXX 04064 41856 32850 40502 10315 20130 30039 40074 84010 333 56090 58013 70000 84458=
41856,2024,05,04,12,00,AAXX 04124 41856 32950 40501 10316 20240 39994 40029 82030 333 10340 56090 59010 70000 84362=
41856,2024,05,04,18,00,AAXX 04184 41856 32930 40902 10244 20220 39997 40033 84030 333 56090 59035 70000 84362=
41856,2024,05,05,00,00,AAXX 05004 41856 32430 81301 10234 20210 39994 40030 8562/ 333 56499 59034 70000 83710 85618 88458=
41856,2024,05,05,06,00,AAXX 05064 41856 32450 70901 10296 20220 30009 40044 83520 333 56990 59030 70000 83618 87458=
41856,2024,05,05,12,00,AAXX 05124 41856 32450 50504 10246 20210 39992 40028 82520 333 10300 56990 59002 70000 82618 85458=
41856,2024,05,05,18,00,AAXX 05184 41856 32430 80905 10220 20180 30036 40072 8352/ 333 56999 58039 70000 83618 88458=
41856,2024,05,06,00,00,AAXX 06004 41856 11430 80502 10212 20190 30035 40071 60014 72162 8562/ 333 56499 58041 70006 83709 85615 88456=
41856,2024,05,06,06,00,AAXX 06064 41856 32450 80503 10236 20210 30056 40092 8562/ 333 56299 58047 70006 83709 85615 88456=
41856,2024,05,06,12,00,AAXX 06124 41856 32440 80903 10238 20200 30024 40060 83510 333 10247 56990 58032 70006 83618 87458=
41856,2024,05,06,18,00,AAXX 06184 41856 32430 70502 10225 20200 30060 40096 83510 333 56990 58024 70006 83618 87458=
41856,2024,05,07,00,00,AAXX 07004 41856 32430 70502 10220 20190 30082 40118 83510 333 56990 58047 70000 83618 87458=
41856,2024,05,07,06,00,AAXX 07064 41856 32950 80903 10246 20200 30092 40128 8452/ 333 56999 58036 70000 84618 88457=
41856,2024,05,07,12,00,AAXX 07124 41856 11450 50000 10250 20220 30066 40104 60015 70196 84430 333 10260 56990 58010 70013 83618 83458=
41856,2024,05,07,18,00,AAXX 07184 41856 32450 50702 10233 20200 30078 40114 84430 333 56990 58018 70013 83618 83458=
41856,2024,05,08,00,00,AAXX 08004 41856 32450 70000 10210 20190 30067 40103 85430 333 56990 59015 70013 84618 84458=
41856,2024,05,08,06,00,AAXX 08064 41856 11450 80701 10244 20220 30080 40116 60015 70262 8562/ 333 56999 59012 70027 84618 88458=
41856,2024,05,08,12,00,AAXX 08124 41856 32450 50000 10273 20220 30053 40088 84430 333 10295 56990 59013 70014 83618 83458=
41856,2024,05,08,18,00,AAXX 08184 41856 32440 50000 10222 20210 30071 40107 84430 333 56990 59007 70014 83618 83458=
41856,2024,05,09,00,00,AAXX 09004 41856 32940 30000 10201 20190 30056 40092 83030 333 56090 59011 70014 83362=
41856,2024,05,09,06,00,AAXX 09064 41856 32956 30501 10314 20190 30065 40100 83030 333 56090 59015 70000=
41856,2024,05,09,12,00,AAXX 09124 41856 32450 70902 10272 20190 30042 40077 83510 333 10342 56990 59011 70000 83618 87458=
41856,2024,05,09,18,00,AAXX 09184 41856 32430 70000 10232 20200 30070 40106 83510 333 56990 59001 70000 83618 87458=
41858,2024,05,03,00,00,AAXX 03004 41858 01415 61808 10235 20220 30004 40050 71022 84520 333 58060 70000 84616 86458==
41858,2024,05,03,03,00,AAXX 03034 41858 01940 01805 10238 20210 30021 40066 70520 333 20210 58049 70000==
41858,2024,05,03,06,00,AAXX 03064 41858 01950 01806 10345 20160 30018 40062 70520 333 58052 70000==
41858,2024,05,03,09,00,AAXX 03094 41858 01950 01806 10366 20120 39996 40040 70500 333 58054 70000==
41858,2024,05,03,12,00,AAXX 03124 41858 01950 01805 10340 20150 39993 40037 70500 333 10385 58047 70000==
41858,2024,05,03,15,00,AAXX 03154 41858 01950 00000 10304 20180 30017 40062 70500 333 58047 70000==
41858,2024,05,03,18,00,AAXX 03184 41858 01940 00000 10284 20170 30025 40070 70500 333 58044 70000==
41858,2024,05,03,21,00,AAXX 03214 41858 01940 00000 10250 20180 30013 40059 70500 333 58019 70000==
41858,2024,05,04,00,00,AAXX 04004 41858 01/30 50905 10230 20190 30018 40064 70520 85030 333 58014 70000 85362==
41858,2024,05,04,03,00,AAXX 04034 41858 01/40 40905 10285 20220 30042 40087 70522 84020 333 20216 58021 70000 84458==
41858,2024,05,04,06,00,AAXX 04064 41858 01440 50906 10320 20220 30029 40074 70522 82520 333 58011 70000 82616 85458==
41858,2024,05,04,09,00,AAXX 04094 41858 01540 60905 10335 20240 30001 40045 70522 82520 333 58005 70000 82624 86460==
41858,2024,05,04,12,00,AAXX 04124 41858 01540 60904 10318 20240 39986 40030 70522 82520 333 10335 59007 70000 82624 86460==
41858,2024,05,04,15,00,AAXX 04154 41858 01/35 60904 10290 20240 39994 40039 70522 86010 333 59023 70000 86460==
41858,2024,05,04,18,00,AAXX 04184 41858 01/35 50805 10265 20240 30003 40048 70522 85010 333 59022 70000 85460==
41858,2024,05,04,21,00,AAXX 04214 41858 01430 60904 10250 20220 39983 40029 70522 83520 333 59030 70000 83615 85458==
41858,2024,05,05,00,00,AAXX 05004 41858 01/30 40000 10244 20220 39986 40032 70522 84030 333 59032 70000 84362==
41858,2024,05,05,03,00,AAXX 05034 41858 01440 60905 10262 20220 30007 40053 70522 83420 333 20230 59035 70000 82618 86460==
41858,2024,05,05,06,00,AAXX 05064 41858 01450 60905 10290 20210 39999 40044 70500 83410 333 59030 70000 82618 86460==
41858,2024,05,05,09,00,AAXX 05094 41858 31450 60905 10305 20230 39979 40023 70522 84520 333 56990 59022 70000 84616 86458=
41858,2024,05,05,12,00,AAXX 05124 41858 01450 50906 10275 20210 39976 40021 70522 83520 333 10305 59010 70000 83616 85458==
41858,2024,05,05,15,00,AAXX 05154 41858 01440 50508 10262 20220 39997 40043 70522 83520 333 58003 70000 83616 85458==
41858,2024,05,05,18,00,AAXX 05184 41858 01440 50506 10258 20210 30010 40056 70522 83520 333 58007 70000 83616 85458==
41858,2024,05,05,21,00,AAXX 05214 41858 01440 80905 10226 20180 30013 40059 70522 8452/ 333 58030 70000 84615 88458==
41858,2024,05,06,00,00,AAXX 06004 41858 01440 80505 10230 20190 30025 40071 70522 8452/ 333 58039 70000 84615 88458==
41858,2024,05,06,03,00,AAXX 06034 41858 01440 80605 10250 20190 30045 40091 70522 8452/ 333 20210 70000 84615 88458==
41858,2024,05,06,06,00,AAXX 06064 41858 01450 80605 10264 20190 30044 40090 70522 8452/ 333 58045 70000 84615 88458==
41858,2024,05,06,09,00,AAXX 06094 41858 01450 80808 10265 20200 30001 40064 70522 8342/ 333 58040 70000 83616 88460==
41858,2024,05,06,12,00,AAXX 06124 41858 01440 80906 10250 20200 30016 40062 70522 8442/ 333 10265 58030 70000 83616 88460==
41858,2024,05,06,15,00,AAXX 06154 41858 01440 80908 10235 20200 30037 40083 70522 8442/ 333 58040 70000 83616 88460==
41858,2024,05,06,18,00,AAXX 06184 41858 01435 80908 10225 20200 30049 40095 70522 8562/ 333 58039 70000 82710 83616 88460==
41858,2024,05,07,00,00,AAXX 07004 41858 01420 80905 10230 20200 30069 40115 70522 8452/ 333 58044 70000 84616 88458==
41858,2024,05,07,03,00,AAXX 07034 41858 01440 70908 10244 20200 30086 40133 70596 84520 333 20210 58041 70006 84615 86458==
41858,2024,05,07,06,00,AAXX 07064 41858 11450 60608 10290 20190 30083 40129 69966 70596 83520 333 58039 70006 83618 85460==
41858,2024,05,07,09,00,AAXX 07094 41858 01450 60905 10295 20200 30061 40106 70522 83520 333 58042 70006 83618 85458==
41858,2024,05,07,12,00,AAXX 07124 41858 01450 60904 10264 20200 30056 40102 70522 83520 333 10308 58040 70006 83618 84458==
41858,2024,05,07,15,00,AAXX 07154 41858 01440 60000 10250 20200 30072 40118 70522 83520 333 58035 70006 83615 86458==
41858,2024,05,07,18,00,AAXX 07184 41858 01940 00000 10235 20210 30078 40124 70520 333 58029 70006==
41858,2024,05,07,21,00,AAXX 07214 41858 01425 80000 10232 20200 30067 40113 71022 8452/ 333 58020 70006 84615 88458==
41858,2024,05,08,00,00,AAXX 08004 41858 01420 80000 10230 20210 30059 40105 71022 8452/ 333 59010 70006 84615 88458==
41858,2024,05,08,03,00,AAXX 08034 41858 01425 80000 10230 20210 30081 40127 71062 8452/ 333 20218 59005 70008 84615 88458==
41858,2024,05,08,06,00,AAXX 08064 41858 11440 80505 10270 20220 30071 40117 69981 70562 8452/ 333 59012 70008 84615 88458==
41858,2024,05,08,09,00,AAXX 08094 41858 01/50 40905 10315 20190 30047 40092 70522 84030 333 59014 70008 84362==
41858,2024,05,08,12,00,AAXX 08124 41858 01/50 40000 10296 20200 30043 40088 70522 84030 333 10316 59013 70008 84362==
41858,2024,05,08,15,00,AAXX 08154 41858 01/40 40000 10263 20210 30059 40105 70522 84030 333 59013 70008 84662==
41858,2024,05,08,18,00,AAXX 08184 41858 01/40 40000 10248 20230 30067 40113 70522 84030 333 59011 70008 84362==
41858,2024,05,08,21,00,AAXX 08214 41858 01/30 20000 10238 20210 30061 40107 70500 82030 333 59006 70008 82362==
41858,2024,05,09,00,00,AAXX 09004 41858 01/08 20000 10228 20220 30050 40096 74040 82030 333 59009 70008 82362==
41858,2024,05,09,03,00,AAXX 09034 41858 01/35 30000 10284 20210 30061 40107 70541 83030 333 20210 59020 70000 83362==
41858,2024,05,09,06,00,AAXX 09064 41858 01440 61502 10320 20200 30060 40105 70522 83520 333 59011 70000 83618 86458==
41858,2024,05,09,09,00,AAXX 09094 41858 01550 32405 10332 20200 30031 40075 70522 83200 333 59016 70000 83825==
41858,2024,05,09,12,00,AAXX 09124 41858 01450 50605 10268 20190 30029 40075 70522 83520 333 10345 59014 70000 83615 85483==
41858,2024,05,09,15,00,AAXX 09154 41858 01450 51205 10255 20200 30053 40099 70522 83520 333 59006 70000 83615 85458==
41858,2024,05,09,18,00,AAXX 09184 41858 NIL=
41858,2024,05,09,21,00,AAXX 09214 41858 01430 80905 10240 20210 30054 40100 70522 8452/ 333 59007 70000 84616 88458==
41859,2024,05,03,00,00,AAXX 03004 41859 11430 41802 10238 20220 30006 40043 60001 70162 82520 333 58054 82618 84458==
41859,2024,05,03,03,00,AAXX 03034 41859 42950 00000 10285 20220 30033 40070 333 20233 58052==
41859,2024,05,03,06,00,AAXX 03064 41859 42950 00000 10342 20160 30026 40063 333 58050==
41859,2024,05,03,09,00,AAXX 03094 41859 42950 02302 10360 20110 30004 40041 333 58054==
41859,2024,05,03,12,00,AAXX 03124 41859 42950 01802 10340 20140 30002 40039 333 10360 58050==
41859,2024,05,03,15,00,AAXX 03154 41859 42930 00502 10280 20190 30029 40066 333 58050==
41859,2024,05,03,18,00,AAXX 03184 41859 42930 00502 10264 20180 30030 40067 333 58041==
41859,2024,05,03,21,00,AAXX 03214 41859 02930 00502 10244 20190 30018 40055 333 58021 70000==
41859,2024,05,04,00,00,AAXX 04004 41859 02435 60502 10231 20190 30027 40064 83510 333 58021 70000 83618 86458==
41859,2024,05,04,03,00,AAXX 04034 41859 02440 80000 10269 20210 30052 40089 8462/ 333 20225 59019 70000 82710 83618 88458==
41859,2024,05,04,06,00,AAXX 04064 41859 02450 80902 10319 20230 30037 40074 8462/ 333 58011 70000 82710 83618 88458==
41859,2024,05,04,09,00,AAXX 04094 41859 02450 80000 10330 20230 30009 40045 8561/ 333 58005 70000 82710 84618 88458==
41859,2024,05,04,12,00,AAXX 04124 41859 02450 70000 10322 20240 39993 40029 83510 333 10332 59009 70000 83618 87458==
41859,2024,05,04,15,00,AAXX 04154 41859 02430 80902 10300 20250 30005 40041 8352/ 333 59024 70000 83618 88458==
41859,2024,05,04,18,00,AAXX 04184 41859 02430 81402 10260 20230 39998 40035 8562/ 333 59032 70000 82710 84618 88458==
41859,2024,05,04,21,00,AAXX 04214 41859 02430 81802 10245 20230 39993 40030 8562/ 333 59025 70000 82710 84618 88458==
41859,2024,05,05,00,00,AAXX 05004 41859 02440 81802 10242 20220 39992 40029 8562/ 333 59035 70000 82710 84618 88458==
41859,2024,05,05,03,00,AAXX 05034 41859 02450 81802 10264 20220 30017 40054 8562/ 333 20235 59035 70000 82710 84619 88458==
41859,2024,05,05,06,00,AAXX 05064 41859 02450 81802 10281 20220 30009 40047 8562/ 333 59028 70000 82710 84618 88458==
41859,2024,05,05,09,00,AAXX 05094 41859 32450 80502 10301 20230 39989 40025 8562/ 333 56299 59020 70000 82710 84618 88458=
41859,2024,05,05,12,00,AAXX 05124 41859 02450 70504 10265 20210 39986 40023 84620 333 10302 59007 70000 82710 83618 87458==
41859,2024,05,05,15,00,AAXX 05154 41859 02430 80507 10241 20200 30009 40046 8562/ 333 58004 70000 83710 84618 88458==
41859,2024,05,05,18,00,AAXX 05184 41859 02430 80503 10230 20200 30032 40070 8562/ 333 58034 70000 83710 84618 88458==
41859,2024,05,05,21,00,AAXX 05214 41859 02430 80503 10221 20190 30026 40064 8562/ 333 58033 70000 83710 84618 88458==
41859,2024,05,06,00,00,AAXX 06004 41859 21430 80502 10225 20210 30034 40072 70262 8562/ 333 58042 60005 83710 84618 88458==
41859,2024,05,06,03,00,AAXX 06034 41859 41440 80502 10241 20200 30055 40092 76122 8562/ 333 20216 58038 83710 84618 88458==
41859,2024,05,06,06,00,AAXX 06064 41859 21450 80904 10251 20200 30054 40091 70262 8562/ 333 58045 60005 83710 84618 88458==
41859,2024,05,06,09,00,AAXX 06094 41859 42450 80502 10260 20210 30033 40070 8562/ 333 58044 83710 84618 88458==
41859,2024,05,06,12,00,AAXX 06124 41859 42440 80502 10244 20200 30025 40062 8562/ 333 10260 58039 83710 84618 88458==
41859,2024,05,06,15,00,AAXX 06154 41859 42430 80504 10237 20210 30053 40090 8562/ 333 58044 83710 84618 88458==
41859,2024,05,06,18,00,AAXX 06184 41859 42430 80504 10231 20220 30062 40100 8562/ 333 58030 83710 84618 88458==
41859,2024,05,06,21,00,AAXX 06214 41859 42430 80000 10226 20200 30068 40106 8562/ 333 58042 83710 84618 88458==
41859,2024,05,07,00,00,AAXX 07004 41859 42435 80502 10228 20200 30075 40113 8562/ 333 58041 83710 84618 88458==
41859,2024,05,07,03,00,AAXX 07034 41859 01440 80502 10240 20210 30097 40135 72996 8562/ 333 20220 58042 70008 83710 84618 88458==
41859,2024,05,07,06,00,AAXX 07064 41859 21450 80504 10275 20210 30093 40130 70296 8562/ 333 58039 60018 70008 83710 84618 88458==
41859,2024,05,07,09,00,AAXX 07094 41859 02450 80703 10270 20220 30070 40107 8562/ 333 58037 70008 82710 84618 88458==
41859,2024,05,07,12,00,AAXX 07124 41859 02450 70503 10260 20210 30067 40104 85620 333 10283 58042 70008 82710 84618 87458==
41859,2024,05,07,15,00,AAXX 07154 41859 02430 80504 10247 20200 30075 40112 8562/ 333 58022 70008 83710 84618 88458==
41859,2024,05,07,18,00,AAXX 07184 41859 02430 70504 10234 20200 30080 40118 85610 333 58018 70008 82710 84618 87458==
41859,2024,05,07,21,00,AAXX 07214 41859 02430 80000 10227 20210 30070 40108 8562/ 333 58002 70008 82710 84618 88458==
41859,2024,05,08,00,00,AAXX 08004 41859 02435 80000 10222 20210 30069 40107 8562/ 333 59006 70008 83710 84618 88458==
41859,2024,05,08,03,00,AAXX 08034 41859 01340 80000 10233 20210 30083 40121 76122 8672/ 333 20216 59014 70001 84708 85616 88456==
41859,2024,05,08,06,00,AAXX 08064 41859 21450 80000 10257 20220 30082 40119 70262 8562/ 333 59011 69915 70001 83710 85618 88458==
41859,2024,05,08,09,00,AAXX 08094 41859 02450 80000 10300 20220 30053 40070 8562/ 333 59017 70001 83710 84618 88458==
41859,2024,05,08,12,00,AAXX 08124 41859 02450 60000 10295 20220 30051 40088 83570 333 10305 59016 70001 83618 86458==
41859,2024,05,08,15,00,AAXX 08154 41859 02430 40000 10252 20220 30067 40104 82530 333 59008 70001 82618 84362==
41859,2024,05,08,18,00,AAXX 08184 41859 02430 40000 10245 20230 30064 40101 82530 333 59016 70001 82618 84362==
41859,2024,05,08,21,00,AAXX 08214 41859 02430 30000 10235 20230 30060 40097 82530 333 59010 70001 82618 83362==
41859,2024,05,09,00,00,AAXX 09004 41859 01/40 20000 10223 20210 30067 40105 70511 82030 333 59016 70001 82362==
41859,2024,05,09,03,00,AAXX 09034 41859 42/50 20000 10280 20220 30071 40108 82030 333 20216 59012 82362==
41859,2024,05,09,06,00,AAXX 09064 41859 02450 50000 10322 20200 30067 40103 83520 333 59015 70000 83618 85458==
41859,2024,05,09,09,00,AAXX 09094 41859 02450 62301 10325 20210 30036 40072 83520 333 59017 70000 83618 86458==
41859,2024,05,09,12,00,AAXX 09124 41859 02440 80502 10289 20210 30039 40076 8562/ 333 10332 59012 70000 83710 84618 88458==
41859,2024,05,09,15,00,AAXX 09154 41859 02430 80000 10255 20210 30058 40095 8562/ 333 59009 70000 82710 84618 88458==
41859,2024,05,09,18,00,AAXX 09184 41859 02430 80000 10248 20220 30065 40102 8562/ 333 58001 70000 82710 84618 88458==
41859,2024,05,09,21,00,AAXX 09214 41859 02430 80502 10242 20210 30057 40094 8562/ 333 59003 70000 82710 84618 88458==
41863,2024,05,03,00,00,AAXX 03004 41863 02956 01801 10213 20190 39999 40042 333 58052 70000==
41863,2024,05,03,03,00,AAXX 03034 41863 02957 01302 10280 20220 30022 40064 333 20204 58050 70000==
41863,2024,05,03,06,00,AAXX 03064 41863 02957 01303 10345 20130 30021 40062 333 58062 70000==
41863,2024,05,03,09,00,AAXX 03094 41863 02957 02702 10372 20050 39994 40035 333 58047 70000==
41863,2024,05,03,12,00,AAXX 03124 41863 02957 00000 10356 20130 39992 40033 333 10375 58043 70000==
41863,2024,05,03,15,00,AAXX 03154 41863 02956 00000 10255 20200 30021 40064 333 58046 70000==
41863,2024,05,03,18,00,AAXX 03184 41863 02950 00000 10230 20180 30022 40065 333 58041 70000==
41863,2024,05,03,21,00,AAXX 03214 41863 02950 00000 10225 20190 30019 40062 333 58036 70000==
41863,2024,05,04,00,00,AAXX 04004 41863 02450 43601 10220 20190 30017 40060 82520 333 58018 70000 82618 84458==
41863,2024,05,04,03,00,AAXX 04034 41863 02456 33602 10280 20210 30041 40084 83500 333 20210 58019 70000 83618==
41863,2024,05,04,06,00,AAXX 04064 41863 02556 43602 10310 20230 30032 40074 84400 333 58011 70000 84620==
41863,2024,05,04,09,00,AAXX 04094 41863 02456 70503 10335 20250 39999 40040 85520 333 58005 70000 85618 87458==
41863,2024,05,04,12,00,AAXX 04124 41863 02456 60000 10315 20250 39987 40029 84520 333 10335 59005 70000 84618 86458==
41863,2024,05,04,15,00,AAXX 04154 41863 02456 80000 10293 20250 39993 40035 8552/ 333 59028 70000 85618 88458==
41863,2024,05,04,18,00,AAXX 04184 41863 02456 51301 10270 20250 39998 40031 83520 333 59034 70000 83618 85458==
41863,2024,05,04,21,00,AAXX 04214 41863 02456 50902 10255 20240 39989 40032 83520 333 59030 70000 83618 85458==
41863,2024,05,05,00,00,AAXX 05004 41863 02456 71302 10239 20220 39987 40030 85520 333 59030 70000 85618 87458==
41863,2024,05,05,03,00,AAXX 05034 41863 02456 70504 10270 20220 30004 40047 84520 333 20232 59037 70000 84618 87458==
41863,2024,05,05,06,00,AAXX 05064 41863 02457 70903 10295 20240 30000 40042 85520 333 59032 70000 85618 87458==
41863,2024,05,05,09,00,AAXX 05094 41863 32457 70902 10298 20230 39979 40021 84520 333 56990 59020 70000 84618 87458=
41863,2024,05,05,12,00,AAXX 05124 41863 02457 60902 10275 20230 39973 40015 84520 333 10305 59014 70000 84618 86458==
41863,2024,05,05,15,00,AAXX 05154 41863 02456 80905 10244 20200 39999 40042 8452/ 333 58006 70000 84618 88458==
41863,2024,05,05,18,00,AAXX 05184 41863 02456 80902 10232 20190 30020 40063 8452/ 333 58032 70000 84618 88458==
41863,2024,05,05,21,00,AAXX 05214 41863 02456 80902 10224 20190 30015 40058 8452/ 333 58026 70000 84618 88458==
41863,2024,05,06,00,00,AAXX 06004 41863 02456 80902 10222 20200 30023 40066 8452/ 333 58036 70000 84616 88458==
41863,2024,05,06,03,00,AAXX 06034 41863 02456 80904 10242 20200 30043 40086 8552/ 333 20218 58039 70000 85618 88458==
41863,2024,05,06,06,00,AAXX 06064 41863 02456 80504 10266 20210 30043 40086 8552/ 333 58043 70000 85618 88458==
41863,2024,05,06,09,00,AAXX 06094 41863 02456 80905 10266 20210 30020 40063 8552/ 333 58041 70000 85618 88458==
41863,2024,05,06,12,00,AAXX 06124 41863 02450 80904 10255 20210 30014 40057 8552/ 333 10266 58041 70000 85618 88458==
41863,2024,05,06,15,00,AAXX 06154 41863 02450 80905 10240 20200 30035 40078 8552/ 333 58036 70000 85618 88458==
41863,2024,05,06,18,00,AAXX 06184 41863 02450 80903 10230 20200 30048 40091 8552/ 333 58028 70000 85618 88458==
41863,2024,05,06,21,00,AAXX 06214 41863 02450 80904 10228 20200 30047 40090 8552/ 333 58032 70000 85618 88458==
41863,2024,05,07,00,00,AAXX 07004 41863 02450 80904 10226 20210 30068 40111 8552/ 333 58045 70000 85618 88458==
41863,2024,05,07,03,00,AAXX 07034 41863 02456 80904 10248 20190 30081 40124 8552/ 333 20220 58038 70000 85618 88458==
41863,2024,05,07,06,00,AAXX 07064 41863 02457 50903 10286 20210 30084 40127 83520 333 58041 70000 83618 85458==
41863,2024,05,07,09,00,AAXX 07094 41863 02457 60503 10291 20200 30059 40101 83520 333 58039 70000 83618 86458==
41863,2024,05,07,12,00,AAXX 07124 41863 02/57 30502 10270 20200 30055 40098 83030 333 10300 58041 70000 83362==
41863,2024,05,07,15,00,AAXX 07154 41863 02/56 30501 10240 20210 30068 40111 83030 333 58033 70000 83362==
41863,2024,05,07,18,00,AAXX 07184 41863 02450 60502 10235 20200 30073 40116 83520 333 58025 70000 83618 86458==
41863,2024,05,07,21,00,AAXX 07214 41863 02450 80501 10231 20200 30077 40121 8552/ 333 58030 70000 85618 88458==
41863,2024,05,08,00,00,AAXX 08004 41863 21450 80501 10221 20210 30056 40100 76122 8572/ 333 59012 60047 70042 85618 88456==
41863,2024,05,08,03,00,AAXX 08034 41863 01450 83103 10232 20210 30081 40125 70262 8552/ 333 20218 58000 70054 85618 88457==
41863,2024,05,08,06,00,AAXX 08064 41863 11457 52303 10290 20210 30070 40112 60016 70162 82530 333 59014 70054 82618 85362==
41863,2024,05,08,09,00,AAXX 08094 41863 02457 41803 10315 20190 30050 40092 82530 333 59009 70054 82618 84362==
41863,2024,05,08,12,00,AAXX 08124 41863 02957 01302 10302 20190 30044 40086 333 10318 59011 70054==
41863,2024,05,08,15,00,AAXX 08154 41863 02/56 21301 10255 20220 30055 40098 82030 333 59013 70054 82362==
41863,2024,05,08,18,00,AAXX 08184 41863 02956 00000 10248 20220 30053 40096 333 59020 70054==
41863,2024,05,08,21,00,AAXX 08214 41863 02956 00000 10232 20210 30051 40094 333 59026 70054==
41863,2024,05,09,00,00,AAXX 09004 41863 02456 50000 10230 20220 30049 40092 83530 333 59007 70012 83618 85362==
41863,2024,05,09,03,00,AAXX 09034 41863 02456 51303 10276 20230 30060 40103 83530 333 20215 59021 70000 83618 85362==
41863,2024,05,09,06,00,AAXX 09064 41863 02457 51303 10313 20210 30063 40105 83520 333 59007 70000 83618 85458==
41863,2024,05,09,09,00,AAXX 09094 41863 02457 61802 10325 20210 30034 40076 82520 333 59016 70000 82618 86458==
41863,2024,05,09,12,00,AAXX 09124 41863 02456 60903 10290 20200 30026 40068 83520 333 10327 59018 70000 83618 86458==
41863,2024,05,09,15,00,AAXX 09154 41863 01450 80901 10235 20220 30053 40096 72122 8552/ 333 59002 70150 85618 88458==
41863,2024,05,09,18,00,AAXX 09184 41863 21450 80000 10230 20220 30065 40108 70262 8552/ 333 58012 60155 70150 85618 88458==
41863,2024,05,09,21,00,AAXX 09214 41863 02440 80901 10228 20220 30061 40104 8552/ 333 58010 70150 85618 88458==
41881,2024,05,03,00,00,AAXX 03004 41881 32456 51002 10234 20230 30025 40045 83520 333 56990 58038 70000 83618 85459=
41881,2024,05,03,06,00,AAXX 03064 41881 32958 02501 10340 20110 30046 40066 333 58053 70000=
41881,2024,05,03,12,00,AAXX 03124 41881 32957 01801 10335 20170 30017 40036 333 10376 58046 70000=
41881,2024,05,03,18,00,AAXX 03184 41881 32950 00901 10220 20200 30052 40072 333 58043 70000=
41881,2024,05,04,00,00,AAXX 04004 41881 32956 01001 10230 20220 30047 40067 333 58022 70000=
41881,2024,05,04,06,00,AAXX 04064 41881 32457 41507 10343 20240 30042 40062 84500 333 56900 59004 70000 84620=
41881,2024,05,04,12,00,AAXX 04124 41881 32457 20803 10280 20210 39999 40019 82500 333 10360 56900 59018 70000 82620=
41881,2024,05,04,18,00,AAXX 04184 41881 32450 20202 10250 20230 30012 40032 333 56900 59040 70000 82620=
41881,2024,05,05,00,00,AAXX 05004 41881 32456 51003 10242 20210 30005 40025 83520 333 56990 59042 70000 83620 85460=
41881,2024,05,05,06,00,AAXX 05064 41881 32458 60803 10315 20260 30012 40032 83520 333 56290 59030 70000 83620 86460=
41881,2024,05,05,12,00,AAXX 05124 41881 32457 70504 10295 20250 39988 40008 84520 333 10335 56190 59011 70000 84620 87460=
41881,2024,05,05,18,00,AAXX 05184 41881 32456 40202 10222 20200 30023 40043 84500 333 56900 58011 70000 84620=
41881,2024,05,06,00,00,AAXX 06004 41881 32457 80803 10228 20210 30044 40064 8552/ 333 56199 58039 70000 85618 88460=
41881,2024,05,06,06,00,AAXX 06064 41881 32358 80905 10253 20200 30063 40083 8562/ 333 56299 58051 70000 84710 85615 88458=
41881,2024,05,06,12,00,AAXX 06124 41881 32458 80905 10250 20210 30032 40052 8552/ 333 10275 56299 58044 70000 85616 88459=
41881,2024,05,06,18,00,AAXX 06184 41881 32456 80903 10220 20190 30061 40081 8552/ 333 56299 58038 70000 85616 88459=
41881,2024,05,07,00,00,AAXX 07004 41881 32457 80903 10210 20200 30088 40108 8552/ 333 56299 58044 70000 85616 88459=
41881,2024,05,07,06,00,AAXX 07064 41881 32458 70902 10285 20200 30105 40125 84520 333 56290 58042 70000 84618 87460=
41881,2024,05,07,12,00,AAXX 07124 41881 32957 00801 10285 20220 30073 40093 333 10315 58041 70000=
41881,2024,05,07,18,00,AAXX 07184 41881 32450 40902 10230 20210 30097 40118 84500 333 56900 58036 70000 84620=
41881,2024,05,08,00,00,AAXX 08004 41881 11456 80902 10216 20210 30105 40126 60273 76162 8562/ 333 56299 58017 70270 84710 85710 85615 88458=
41881,2024,05,08,06,00,AAXX 08064 41881 32457 50801 10285 20220 30098 40118 83520 333 56990 59007 70270 83620 85460=
41881,2024,05,08,12,00,AAXX 08124 41881 32956 00901 10280 20210 30067 40087 333 10306 59006 70270=
41881,2024,05,08,18,00,AAXX 08184 41881 32950 00901 10235 20220 30084 40104 333 59013 70270=
41881,2024,05,09,00,00,AAXX 09004 41881 32950 00901 10215 20210 30071 40091 333 59034 70000=
41881,2024,05,09,06,00,AAXX 09064 41881 32456 82502 10287 20240 30088 40108 8552/ 333 56999 59010 70000 85616 88459=
41881,2024,05,09,12,00,AAXX 09124 41881 32456 81401 10280 20230 30056 40076 8552/ 333 10295 56999 59011 70000 85618 88459=
41881,2024,05,09,18,00,AAXX 09184 41881 32450 60000 10238 20230 30079 40100 83520 333 56990 59005 70000 83618 86459=
41883,2024,05,03,00,00,AAXX 03004 41883 02350 81304 10242 20230 30024 40044 8562/ 333 58047 70000 85710 88459==
41883,2024,05,03,03,00,AAXX 03034 41883 02/56 41802 10288 20240 30051 40071 84010 333 20240 58049 70000 84459==
41883,2024,05,03,06,00,AAXX 03064 41883 02956 00902 10342 20180 30045 40065 333 58050 70000==
41883,2024,05,03,09,00,AAXX 03094 41883 02956 00000 10372 20110 30021 40041 333 58049 70000==
41883,2024,05,03,12,00,AAXX 03124 41883 02950 00000 10350 20170 30018 40038 333 10375 58048 70000==
41883,2024,05,03,15,00,AAXX 03154 41883 02930 00000 10292 20200 30040 40060 333 58040 70000==
41883,2024,05,03,18,00,AAXX 03184 41883 02930 00502 10280 20210 30041 40061 333 58028 70000==
41883,2024,05,03,21,00,AAXX 03214 41883 02930 00000 10274 20220 30032 40052 333 58013 70000==
41883,2024,05,04,00,00,AAXX 04004 41883 02456 60000 10262 20230 30042 40062 82530 333 58018 70000 82616 86362==
41883,2024,05,04,03,00,AAXX 04034 41883 02956 21306 10310 20260 30059 40079 80001 333 20255 58008 70000 82080==
41883,2024,05,04,06,00,AAXX 04064 41883 02456 61302 10348 20250 30045 40065 83510 333 58000 70000 83616 86459==
41883,2024,05,04,09,00,AAXX 04094 41883 02456 60902 10357 20250 30019 40038 83510 333 59002 70000 83616 86459==
41883,2024,05,04,12,00,AAXX 04124 41883 01350 80902 10320 20260 30005 40025 79596 8532/ 333 10360 59013 70010 85710 88458 81930==
41883,2024,05,04,15,00,AAXX 04154 41883 01430 80000 10268 20240 30017 40037 70296 8552/ 333 59023 70080 85615 88458==
41883,2024,05,04,18,00,AAXX 04184 41883 01330 80000 10258 20240 30017 40037 72196 8562/ 333 59024 70100 85709 88458==
41883,2024,05,04,21,00,AAXX 04214 41883 02330 80000 10248 20230 30010 40030 8562/ 333 59022 70100 85709 88458==
41883,2024,05,05,00,00,AAXX 05004 41883 02340 81304 10242 20220 30010 40030 8562/ 333 59032 70100 85709 88458==
41883,2024,05,05,03,00,AAXX 05034 41883 02456 60904 10270 20230 30028 40048 84520 333 20235 59031 70100 84616 86459==
41883,2024,05,05,06,00,AAXX 05064 41883 02456 60503 10310 20250 30018 40038 82520 333 59027 70100 83616 86459==
41883,2024,05,05,09,00,AAXX 05094 41883 32956 01302 10328 20260 39991 40011 333 59028 70100=
41883,2024,05,05,12,00,AAXX 05124 41883 02956 01302 10305 20260 39987 40007 333 10336 59018 70090==
41883,2024,05,05,15,00,AAXX 05154 41883 02430 62303 10265 20230 30012 40032 83510 333 59005 70020 83616 86459==
41883,2024,05,05,18,00,AAXX 05184 41883 02430 81204 10250 20200 30034 40054 8552/ 333 58017 70000 85616 88459==
41883,2024,05,05,21,00,AAXX 05214 41883 02430 81204 10240 20220 30035 40055 8552/ 333 58025 70000 85616 88459==
41883,2024,05,06,00,00,AAXX 06004 41883 02440 81302 10240 20200 30038 40058 8552/ 333 58028 70000 85616 88459==
41883,2024,05,06,03,00,AAXX 06034 41883 02450 80904 10254 20210 30063 40083 8562/ 333 20230 58035 70000 82710 84618 88458==
41883,2024,05,06,06,00,AAXX 06064 41883 02450 80904 10270 20210 30061 40081 8562/ 333 58043 70000 82710 84618 88458==
41883,2024,05,06,09,00,AAXX 06094 41883 02456 80904 10280 20210 30037 40057 8552/ 333 58046 70000 85616 88459==
41883,2024,05,06,12,00,AAXX 06124 41883 02456 60904 10255 20200 30036 40056 82530 333 10286 58049 70000 82616 86362==
41883,2024,05,06,15,00,AAXX 06154 41883 41330 81304 10235 20210 30059 40079 76022 8572/ 333 58047 85710 88459==
41883,2024,05,06,18,00,AAXX 06184 41883 21330 81305 10230 20200 30069 40090 70262 8562/ 333 58035 60005 85710 88459==
41883,2024,05,06,21,00,AAXX 06214 41883 42330 80902 10225 20190 30075 40096 8562/ 333 58040 85710 88459==
41883,2024,05,07,00,00,AAXX 07004 41883 42350 80902 10225 20220 30089 40110 8562/ 333 58051 85710 88459==
41883,2024,05,07,03,00,AAXX 07034 41883 42/56 50903 10264 20210 30101 40122 85010 333 20220 58038 85459==
41883,2024,05,07,06,00,AAXX 07064 41883 42456 21303 10310 20200 30099 40119 82500 333 58038 82616==
41883,2024,05,07,09,00,AAXX 07094 41883 42456 31302 10320 20190 30075 40095 83500 333 58038 83618==
41883,2024,05,07,12,00,AAXX 07124 41883 42950 00000 10310 20200 30068 40088 333 10326 58032==
41883,2024,05,07,15,00,AAXX 07154 41883 02930 00504 10262 20220 30080 40100 333 58021 70000==
41883,2024,05,07,18,00,AAXX 07184 41883 02930 00503 10250 20220 30085 40105 333 58016 70000==
41883,2024,05,07,21,00,AAXX 07214 41883 01330 82306 10235 20230 30087 40108 79522 8532/ 333 58012 70066 85709 88458 82930==
41883,2024,05,08,00,00,AAXX 08004 41883 21330 80903 10228 20220 30085 40106 76196 8572/ 333 59004 60237 70230 85709 88458==
41883,2024,05,08,03,00,AAXX 08034 41883 01350 80000 10235 20230 30101 40122 76166 8572/ 333 20218 58000 70260 85709 88458==
41883,2024,05,08,06,00,AAXX 08064 41883 11456 80902 10258 20220 30097 40117 60036 70263 8552/ 333 59003 70260 85616 88458==
41883,2024,05,08,09,00,AAXX 08094 41883 02/56 51303 10294 20220 30070 40090 85030 333 59005 70260 85362==
41883,2024,05,08,12,00,AAXX 08124 41883 02950 00000 10282 20220 30068 40088 333 10305 58000 70260==
41883,2024,05,08,15,00,AAXX 08154 41883 02930 00000 10256 20220 30080 40100 333 58000 70260==
41883,2024,05,08,18,00,AAXX 08184 41883 02930 00000 10250 20220 30081 40101 333 59004 70260==
41883,2024,05,08,21,00,AAXX 08214 41883 02930 00000 10242 20220 30069 40089 333 59018 70194==
41883,2024,05,09,00,00,AAXX 09004 41883 02950 00000 10236 20230 30070 40090 333 59015 70030==
41883,2024,05,09,03,00,AAXX 09034 41883 02950 00000 10285 20230 30086 40106 333 20230 59015 70000==
41883,2024,05,09,06,00,AAXX 09064 41883 02450 80000 10315 20220 30084 40104 8552/ 333 59013 70000 85616 88459==
41883,2024,05,09,09,00,AAXX 09094 41883 02456 80000 10305 20220 30054 40075 8552/ 333 59016 70000 85616 88459==
41883,2024,05,09,12,00,AAXX 09124 41883 02440 80000 10292 20230 30056 40076 8552/ 333 10315 59012 70000 85616 88459==
41883,2024,05,09,15,00,AAXX 09154 41883 42430 80000 10268 20240 30074 40094 59006 88459==
41883,2024,05,09,18,00,AAXX 09184 41883 02430 80000 10257 20230 30081 40101 8552/ 333 58000 70000 85616 88459==
41883,2024,05,09,21,00,AAXX 09214 41883 02430 80000 10245 20230 30075 40095 8552/ 333 58006 70000 85616 88459==
41886,2024,05,03,00,00,AAXX 03004 41886 02450 30902 10230 20220 30034 40055 83500 333 58052 70000 83618==
41886,2024,05,03,03,00,AAXX 03034 41886 02957 00703 10286 20210 30062 40082 333 20230 58054 70000==
41886,2024,05,03,06,00,AAXX 03064 41886 02958 01806 10325 20240 30052 40072 333 58050 70000==
41886,2024,05,03,09,00,AAXX 03094 41886 02958 00000 10360 20150 30027 40047 333 58049 70000==
41886,2024,05,03,12,00,AAXX 03124 41886 02957 00000 10342 20230 30023 40043 333 10372 58048 70000==
41886,2024,05,03,15,00,AAXX 03154 41886 02950 00402 10290 20240 30048 40068 333 58038 70000==
41886,2024,05,03,18,00,AAXX 03184 41886 02450 20000 10275 20240 30051 40072 82500 333 58026 70000 82618==
41886,2024,05,03,21,00,AAXX 03214 41886 02450 20000 10265 20240 30053 40074 82500 333 58031 70000 82618==
41886,2024,05,04,00,00,AAXX 04004 41886 02456 30000 10255 20240 30055 40076 83500 333 58021 70000 83618==
41886,2024,05,04,03,00,AAXX 04034 41886 02456 70704 10285 20230 30076 40093 83510 333 20255 58011 70000 83618 87460==
41886,2024,05,04,06,00,AAXX 04064 41886 02450 30000 10330 20250 30061 40081 86400 333 58009 70000 82618==
41886,2024,05,04,09,00,AAXX 04094 41886 02957 01802 10344 20260 30025 40045 333 59002 70000==
41886,2024,05,04,12,00,AAXX 04124 41886 02456 71405 10312 20210 30015 40035 84570 333 10345 59008 70000 84618 86460==
41886,2024,05,04,15,00,AAXX 04154 41886 01350 80000 10245 20240 30042 40063 79592 8632/ 333 59006 70362 83708 85616 88458 81928==
41886,2024,05,04,18,00,AAXX 04184 41886 01350 81306 10238 20230 30031 40052 71796 8632/ 333 59020 70454 83710 85616 88458 81930==
41886,2024,05,04,21,00,AAXX 04214 41886 01350 81205 10230 20220 30026 40047 70296 8672/ 333 59027 70830 82710 85616 88458==
41886,2024,05,05,00,00,AAXX 05004 41886 11450 80906 10227 20220 30025 40046 60386 70296 8357/ 333 59030 70830 83618 88460==
41886,2024,05,05,03,00,AAXX 05034 41886 02450 80905 10250 20230 30040 40060 8352/ 333 20220 59033 70830 83618 88460==
41886,2024,05,05,06,00,AAXX 05064 41886 02456 60905 10286 20240 30031 40051 83570 333 59030 70830 83618 85460==
41886,2024,05,05,09,00,AAXX 05094 41886 32458 20904 10303 20250 39999 40019 82500 333 56300 59026 70830 82618=
41886,2024,05,05,12,00,AAXX 05124 41886 02456 70403 10293 20250 39991 40011 82570 333 10315 59024 70830 82618 86460==
41886,2024,05,05,15,00,AAXX 05154 41886 01450 60910 10240 20200 30026 40047 71322 82370 333 59016 70468 82618 85460 81930==
41886,2024,05,05,18,00,AAXX 05184 41886 01450 60904 10230 20210 30049 40070 71322 82370 333 58018 70376 82618 85460 81930==
41886,2024,05,05,21,00,AAXX 05214 41886 01340 81306 10222 20210 30052 40073 71796 8632/ 333 58026 70198 83710 85616 88458 81930==
41886,2024,05,06,00,00,AAXX 06004 41886 11456 81104 10220 20210 30054 40075 60206 70296 8452/ 333 58029 70198 84616 88458==
41886,2024,05,06,03,00,AAXX 06034 41886 01456 60904 10241 20210 30075 40096 72122 84620 333 20210 58035 70208 84616 85460==
41886,2024,05,06,06,00,AAXX 06064 41886 21450 80904 10248 20200 30080 40101 70362 8562/ 333 58049 60015 70208 82710 84615 88458==
41886,2024,05,06,09,00,AAXX 06094 41886 02456 80904 10250 20190 30053 40073 8352/ 333 58054 70208 83618 88460==
41886,2024,05,06,12,00,AAXX 06124 41886 02450 50905 10235 20200 30049 40069 83570 333 10280 58060 70208 83618 84460==
41886,2024,05,06,15,00,AAXX 06154 41886 02450 80904 10230 20200 30064 40084 8352/ 333 58038 70208 83618 88460==
41886,2024,05,06,18,00,AAXX 06184 41886 02450 80902 10227 20200 30079 40099 8352/ 333 58030 70208 83618 88460==
41886,2024,05,06,21,00,AAXX 06214 41886 02450 50902 10220 20200 30077 40097 83570 333 58025 70000 83618 85460==
41886,2024,05,07,00,00,AAXX 07004 41886 01950 00000 10217 20210 30088 40108 70520 333 58034 70000==
41886,2024,05,07,03,00,AAXX 07034 41886 02/57 30902 10255 20210 30110 40131 83030 333 20215 58035 70000 83365==
41886,2024,05,07,06,00,AAXX 07064 41886 02457 70502 10298 20210 30101 40121 82570 333 58021 70000 82618 86460==
41886,2024,05,07,09,00,AAXX 07094 41886 02457 30502 10319 20200 30079 40099 83500 333 58026 70000 83617==
41886,2024,05,07,12,00,AAXX 07124 41886 02/50 40000 10302 20190 30075 40096 84010 333 10326 58026 70000 84462==
41886,2024,05,07,15,00,AAXX 07154 41886 02940 00000 10261 20210 30085 40106 333 58021 70000==
41886,2024,05,07,18,00,AAXX 07184 41886 02940 00000 10245 20230 30095 40116 333 58016 70000==
41886,2024,05,07,21,00,AAXX 07214 41886 02440 82704 10245 20230 30082 40103 8452/ 333 58005 70000 84617 88458==
41886,2024,05,08,00,00,AAXX 08004 41886 02440 82704 10245 20220 30095 40116 85628 333 58007 70000 83710 84615 88458==
41886,2024,05,08,03,00,AAXX 08034 41886 02456 80904 10250 20220 30102 40123 8351/ 333 20228 59008 70000 83618 88460==
41886,2024,05,08,06,00,AAXX 08064 41886 02456 82302 10270 20220 30101 40122 8352/ 333 58000 70000 83618 88460==
41886,2024,05,08,09,00,AAXX 08094 41886 02456 81002 10280 20220 30075 40096 8452/ 333 59004 70000 84618 88460==
41886,2024,05,08,12,00,AAXX 08124 41886 02457 71303 10276 20210 30074 40095 85570 333 10285 59001 70000 85618 85362==
41886,2024,05,08,15,00,AAXX 08154 41886 02450 70000 10250 20230 30087 40108 83570 333 58002 70000 83618 86460==
41886,2024,05,08,18,00,AAXX 08184 41886 02450 80000 10235 20230 30084 40105 8351/ 333 59011 70000 83618 88460==
41886,2024,05,08,21,00,AAXX 08214 41886 01950 00000 10234 20220 30078 40099 70521 333 59004 70000==
41886,2024,05,09,00,00,AAXX 09004 41886 01950 00000 10230 20220 30080 40101 70521 333 59015 70000==
41886,2024,05,09,03,00,AAXX 09034 41886 02956 00000 10294 20200 30089 40110 333 20215 59012 70000==
41886,2024,05,09,06,00,AAXX 09064 41886 02457 60000 10319 20190 30085 40105 84430 333 59016 70000 82618 83825 85365==
41886,2024,05,09,09,00,AAXX 09094 41886 02457 60000 10328 20210 30054 40074 84430 333 59021 70000 82618 85365==
41886,2024,05,09,12,00,AAXX 09124 41886 02456 62301 10308 20230 30055 40075 83310 333 10330 59019 70000 82618 86460 81930==
41886,2024,05,09,15,00,AAXX 09154 41886 02450 81306 10284 20240 30072 40093 8432/ 333 59015 70000 82618 88460 81930==
41886,2024,05,09,18,00,AAXX 09184 41886 21450 81306 10234 20220 30094 40115 70262 8532/ 333 58010 60035 70030 83618 88460 81930==
41886,2024,05,09,21,00,AAXX 09214 41886 02450 70000 10234 20220 30084 40105 84470 333 58006 70030 83618 86460==
41888,2024,05,03,00,00,AAXX 03004 41888 32950 00903 10225 20210 30045 40055 333 58053 70002=
41888,2024,05,03,06,00,AAXX 03064 41888 32957 00903 10325 20130 30057 40067 333 58051 70000=
41888,2024,05,03,12,00,AAXX 03124 41888 32956 00503 10380 20240 30032 40042 333 10380 58042 70000=
41888,2024,05,04,00,00,AAXX 04004 41888 32450 60902 10240 20220 30054 40064 82510 333 56990 58009 70000 82618 86460=
41888,2024,05,04,06,00,AAXX 04064 41888 32457 60501 10327 20240 30072 40082 82510 333 56990 58019 70000 82618 86460=
41888,2024,05,04,12,00,AAXX 04124 41888 32456 70903 10280 20200 30025 40035 83510 333 10345 56990 58007 70000 83618 87460=
41888,2024,05,05,00,00,AAXX 05004 41888 11440 81302 10220 20210 30032 40042 60046 70296 8352/ 333 56999 59022 70670 83618 88460=
41888,2024,05,05,06,00,AAXX 05064 41888 32456 80902 10280 20220 30040 40050 8351/ 333 56999 59030 70670 83618 88460=
41888,2024,05,05,12,00,AAXX 05124 41888 32450 80804 10265 20220 39999 40009 8532/ 333 10302 56299 59026 70670 84617 81930 88460=
41888,2024,05,05,18,00,AAXX 05184 41888 11430 60904 10220 20210 30055 40065 60031 70162 82510 333 56990 58017 70070 82618 86460=
41888,2024,05,06,00,00,AAXX 06004 41888 11440 80902 10216 20210 30061 40071 69976 70296 8331/ 333 56999 58029 70037 82618 81930 88460=
41888,2024,05,06,06,00,AAXX 06064 41888 11450 80906 10225 20210 30092 40102 60073 72196 8451/ 333 56999 58052 70108 84618 88460=
41888,2024,05,06,12,00,AAXX 06124 41888 11450 70904 10225 20210 30056 40066 69904 70162 83510 333 10255 56990 58057 70108 83618 87460=
41888,2024,05,06,18,00,AAXX 06184 41888 11430 80904 10215 20200 30090 40100 69915 70296 8252/ 333 56999 58035 70078 82618 88460=
41888,2024,05,07,06,00,AAXX 07064 41888 32456 60502 10300 20190 30105 40115 84470 333 56990 58013 70001 83618 85460=
41888,2024,05,07,12,00,AAXX 07124 41888 32950 50501 10295 20210 30091 40101 80008 333 10320 56009 58035 70001 85275=
41888,2024,05,07,18,00,AAXX 07184 41888 32940 30000 10240 20220 30101 40111 83030 333 56090 58011 70000 83365=
41888,2024,05,08,00,00,AAXX 08004 41888 32450 82701 10234 20210 30100 40110 8352/ 333 56999 58000 70000 83618 88460=
41888,2024,05,08,06,00,AAXX 08064 41888 32456 80501 10284 20210 30103 40123 8151/ 333 56999 59002 70000 81618 88460=
41888,2024,05,08,12,00,AAXX 08124 41888 11450 81301 10265 20220 30092 40102 70262 8442/ 333 10295 56999 58001 79999 83618 88460=
41888,2024,05,08,18,00,AAXX 08184 41888 32940 01801 10230 20220 30088 40098 333 59013 79999=
41888,2024,05,09,06,00,AAXX 09064 41888 31557 22801 10315 20180 30090 40100 70340 82100 333 56900 59013 79999 82825=
41888,2024,05,09,12,00,AAXX 09124 41888 32457 62701 10310 20230 30056 40066 82510 333 10335 56909 59036 70000 82618 86080=
41888,2024,05,09,18,00,AAXX 09184 41888 11430 82702 10230 20220 30096 40106 69905 70296 8352/ 333 56999 59008 79999 83618 88460=
41891,2024,05,03,00,00,AAXX 03004 41891 01435 30902 10230 20210 30022 40061 70521 83500 333 58051 70010 83616==
41891,2024,05,03,03,00,AAXX 03034 41891 01945 00904 10270 20210 30042 40080 70500 333 20230 58038 70000==
41891,2024,05,03,06,00,AAXX 03064 41891 01950 00904 10310 20200 30036 40074 70500 333 58040 70000==
41891,2024,05,03,09,00,AAXX 03094 41891 01960 02403 10333 20250 30012 40049 70500 333 58040 70000==
41891,2024,05,03,12,00,AAXX 03124 41891 01450 33403 10303 20220 30011 40049 70511 83500 333 10340 58034 70000 83616==
41891,2024,05,03,15,00,AAXX 03154 41891 01/30 10903 10287 20220 30026 40064 70511 81030 333 58020 70000 81365==
41891,2024,05,03,18,00,AAXX 03184 41891 01430 31203 10275 20230 30043 40081 70511 81530 333 58029 70000 81616 83365==
41891,2024,05,03,21,00,AAXX 03214 41891 01430 81203 10250 20230 30036 40074 70562 8532/ 333 58020 70000 81710 83616 88365 81930==
41891,2024,05,04,00,00,AAXX 04004 41891 11435 81004 10243 20220 30042 40080 60046 70562 83530 333 58022 70040 83616 86365==
41891,2024,05,04,03,00,AAXX 04034 41891 01440 31503 10290 20220 30056 40094 70511 81530 333 20240 58014 70040 81615 83365==
41891,2024,05,04,06,00,AAXX 04064 41891 01450 31203 10313 20220 30045 40083 70511 81530 333 58009 70040 81615 83365==
41891,2024,05,04,09,00,AAXX 04094 41891 01450 50903 10315 20200 30028 40066 70521 83330 333 58016 70040 82616 85365 81930==
41891,2024,05,04,12,00,AAXX 04124 41891 01450 50903 10315 20210 39998 40035 70522 85230 333 10328 59013 70040 82616 85365==
41891,2024,05,04,15,00,AAXX 04154 41891 01450 60902 10286 20050 39996 40034 70522 82530 333 59020 70040 82616 86365==
41891,2024,05,04,18,00,AAXX 04184 41891 21430 80805 10224 20210 30045 40084 79596 8632/ 333 58002 60347 70380 82710 85616 88458 81928==
41891,2024,05,04,21,00,AAXX 04214 41891 01440 80903 10225 20220 30036 40075 70522 8542/ 333 58000 70034 84616 88458 81928==
41891,2024,05,05,00,00,AAXX 05004 41891 01440 81204 10226 20220 30016 40055 70522 8552/ 333 59026 70034 85617 88458 81928==
41891,2024,05,05,03,00,AAXX 05034 41891 01445 81205 10245 20220 30033 40072 70522 8532/ 333 20225 59023 70340 82709 83615 88458 81930==
41891,2024,05,05,06,00,AAXX 05064 41891 01440 71204 10265 20210 30020 40058 70522 84750 333 59025 70340 82710 84616 81930==
41891,2024,05,05,09,00,AAXX 05094 41891 01440 70608 10267 20220 39992 40030 70522 84370 333 59036 70340 84615 86460 81930==
41891,2024,05,05,12,00,AAXX 05124 41891 01430 83610 10244 20200 30031 40070 70522 8532/ 333 10290 58033 70340 82710 84615 88458 81930==
41891,2024,05,05,15,00,AAXX 05154 41891 01330 83608 10220 20200 30044 40083 76062 8632/ 333 58048 70318 82708 84614 88457 81930==
41891,2024,05,05,18,00,AAXX 05184 41891 11325 83604 10220 20210 30047 40086 60021 70596 8632/ 333 58002 70022 82708 84614 88457 81928==
41891,2024,05,05,21,00,AAXX 05214 41891 01430 83604 10220 20200 30051 40090 56026 70522 8632/ 333 58015 70022 86708 88458 81930==
41891,2024,05,06,00,00,AAXX 06004 41891 01330 83605 10220 20200 30056 40095 76022 8632/ 333 58040 70022 86708 88458 81928==
41891,2024,05,06,03,00,AAXX 06034 41891 01330 82004 10198 20198 30075 40014 79596 8692/ 333 20197 58042 70302 86708 88456 81926==
41891,2024,05,06,06,00,AAXX 06064 41891 21330 80903 10201 20190 30074 40013 79596 8692/ 333 58042 60529 70342 86708 88456 81926==
41891,2024,05,06,09,00,AAXX 06094 41891 01330 80909 10215 20200 30035 40074 79599 8332/ 333 58043 70614 85708 88458 81926==
41891,2024,05,06,12,00,AAXX 06124 41891 21325 80906 10205 20190 30039 40078 79599 8692/ 333 10226 58008 60119 70654 86708 88456 81926==
41891,2024,05,06,15,00,AAXX 06154 41891 01430 80602 10210 20190 30056 40095 70522 8532/ 333 58012 70632 82710 84615 88459 81930==
41891,2024,05,06,18,00,AAXX 06184 41891 01430 81803 10213 20190 30074 40113 70522 8532/ 333 58027 70632 82710 84615 88459 81930==
41891,2024,05,06,21,00,AAXX 06214 41891 01430 81503 10213 20190 30073 40112 70522 8532/ 333 58022 70632 81710 84615 88459 81930==
41891,2024,05,07,00,00,AAXX 07004 41891 01440 70903 10216 20200 30076 40115 70522 84370 333 58020 70632 84615 86460 81930==
41891,2024,05,07,03,00,AAXX 07034 41891 01450 31004 10268 20200 30089 40128 70511 82410 333 20200 58014 70352 82616==
41891,2024,05,07,06,00,AAXX 07064 41891 02956 00803 10310 20160 30088 40118 333 58014 70112==
41891,2024,05,07,09,00,AAXX 07094 41891 01450 11103 10317 20170 30055 40093 70510 81500 333 58020 70040 81616==
41891,2024,05,07,12,00,AAXX 07124 41891 01440 32703 10306 20190 30051 40089 70510 81530 333 10320 58012 70000 81616 83365==
41891,2024,05,07,15,00,AAXX 07154 41891 01930 00000 10263 20220 30068 40107 70510 333 58012 70000==
41891,2024,05,07,18,00,AAXX 07184 41891 01930 00000 10250 20200 30072 40111 70500 333 58002 70000==
41891,2024,05,07,21,00,AAXX 07214 41891 01430 30000 10241 20200 30057 40096 70510 83500 333 59016 70000 83616==
41891,2024,05,08,00,00,AAXX 08004 41891 01440 60902 10232 20210 30053 40092 70521 83330 333 59023 70000 83616 85365 81930==
41891,2024,05,08,03,00,AAXX 08034 41891 01445 60502 10273 20220 30086 40125 70522 83330 333 20231 59003 70000 83616 85365 81930==
41891,2024,05,08,06,00,AAXX 08064 41891 01450 60506 10295 20230 30074 40112 70522 84330 333 59014 70000 84616 86365 81930==
41891,2024,05,08,09,00,AAXX 08094 41891 01450 72403 10288 20230 30053 40091 70522 85330 333 59002 70000 85616 87365 81930==
41891,2024,05,08,12,00,AAXX 08124 41891 21440 83302 10257 20240 30052 40091 70596 8532/ 333 10305 58001 60025 70022 85710 88458 81930==
41891,2024,05,08,15,00,AAXX 08154 41891 01430 82703 10256 20250 30069 40107 70522 8532/ 333 58001 70022 81710 83616 88458 81930==
41891,2024,05,08,18,00,AAXX 08184 41891 01430 72503 10252 20240 30060 40099 70522 85310 333 59021 70022 81710 87458 81930==
41891,2024,05,08,21,00,AAXX 08214 41891 01430 72503 10245 20240 30058 40096 70522 85310 333 58001 70022 81710 87458 81930==
41891,2024,05,09,00,00,AAXX 09004 41891 01430 72503 10240 20240 30058 40096 70522 85310 333 58005 70022 81710 87458 81930==
41891,2024,05,09,03,00,AAXX 09034 41891 01440 72504 10295 20240 30068 40106 70522 85310 333 20240 59018 70022 81710 83616 87458 81930==
41891,2024,05,09,06,00,AAXX 09064 41891 01440 70303 10300 20230 30060 40098 70522 84370 333 59014 70022 84615 86460 81930==
41891,2024,05,09,09,00,AAXX 09094 41891 01450 63603 10330 20200 30039 40077 70522 84370 333 59014 70022 84616 86460 81930==
41891,2024,05,09,12,00,AAXX 09124 41891 01440 20506 10314 20200 30028 40066 70521 81530 333 10335 59024 70000 81616==
41891,2024,05,09,15,00,AAXX 09154 41891 01440 22602 10270 20230 30053 40091 70511 81530 333 59016 70000 81616==
41891,2024,05,09,18,00,AAXX 09184 41891 01430 20202 10265 20220 30060 40098 70511 81530 333 58000 70000 81616==
41891,2024,05,09,21,00,AAXX 09214 41891 01430 80402 10252 20230 30064 40103 70521 8532/ 333 58006 70000 82710 84615 88459 81930==
41895,2024,05,03,00,00,AAXX 03004 41895 02956 00000 10210 20200 30024 40046 333 58045 70000==
41895,2024,05,03,03,00,AAXX 03034 41895 02957 00902 10322 20210 30043 40065 333 20204 58039 70000==
41895,2024,05,03,06,00,AAXX 03064 41895 02958 03302 10375 20040 30040 40061 333 58044 70000==
41895,2024,05,03,09,00,AAXX 03094 41895 02958 00000 10395 20070 30017 40038 333 58045 70000==
41895,2024,05,03,12,00,AAXX 03124 41895 02956 00000 10342 20140 30013 40035 333 10398 58039 70000==
41895,2024,05,03,15,00,AAXX 03154 41895 02950 00000 10266 20180 30034 40057 333 58031 70000==
41895,2024,05,03,18,00,AAXX 03184 41895 02950 00000 10250 20190 30038 40061 333 58027 70000==
41895,2024,05,03,21,00,AAXX 03214 41895 02950 00903 10232 20190 30030 40053 333 58012 70000==
41895,2024,05,04,00,00,AAXX 04004 41895 01956 01802 10240 20210 30041 40064 70500 333 58065 70000==
41895,2024,05,04,03,00,AAXX 04034 41895 01956 51802 10319 20240 30058 40080 70520 80002 333 20225 58015 70000 85074==
41895,2024,05,04,06,00,AAXX 04064 41895 02458 60000 10365 20210 30041 40062 83510 333 58001 70000 83615 85458==
41895,2024,05,04,09,00,AAXX 04094 41895 02958 01802 10390 20190 30009 40030 333 59008 70000==
41895,2024,05,04,12,00,AAXX 04124 41895 02956 21802 10355 20220 39992 40014 80001 333 10397 59021 70000 82074==
41895,2024,05,04,15,00,AAXX 04154 41895 02950 00000 10313 20230 30004 40026 333 59030 70000==
41895,2024,05,04,18,00,AAXX 04184 41895 02950 03601 10288 20250 30010 40032 333 59028 70000==
41895,2024,05,04,21,00,AAXX 04214 41895 02950 00902 10280 20250 30001 40023 333 59025 70000==
41895,2024,05,05,00,00,AAXX 05004 41895 02950 00901 10270 20250 30001 40023 333 59040 70000==
41895,2024,05,05,03,00,AAXX 05034 41895 02457 61803 10316 20270 30014 40036 83510 333 20268 59044 70000 83616 86458==
41895,2024,05,05,06,00,AAXX 05064 41895 02457 51803 10360 20250 30008 40030 83510 333 59033 70000 83616 85458==
41895,2024,05,05,09,00,AAXX 05094 41895 32458 22303 10393 20210 39980 40002 82500 333 56500 59029 70000 82618=
41895,2024,05,05,12,00,AAXX 05124 41895 02956 00502 10350 20250 39976 49997 333 10398 59016 70000==
41895,2024,05,05,15,00,AAXX 05154 41895 02950 00903 10296 20260 30008 40030 333 58004 70000==
41895,2024,05,05,18,00,AAXX 05184 41895 02450 50902 10274 20220 30025 40047 83510 333 58015 70000 83616 85458==
41895,2024,05,05,21,00,AAXX 05214 41895 02450 50902 10268 20220 30030 40052 83510 333 58025 70000 83616 85458==
41895,2024,05,06,00,00,AAXX 06004 41895 02450 80904 10262 20210 30035 40057 8552/ 333 58034 70000 85616 88459==
41895,2024,05,06,03,00,AAXX 06034 41895 02456 80905 10282 20220 30050 40072 84528 333 20256 58036 70000 84615 88458==
41895,2024,05,06,06,00,AAXX 06064 41895 02456 80908 10300 20230 30041 40063 8452/ 333 58033 70000 84615 88458==
41895,2024,05,06,09,00,AAXX 06094 41895 02456 80508 10308 20230 30020 40041 8452/ 333 58040 70000 84616 88458==
41895,2024,05,06,12,00,AAXX 06124 41895 02456 80508 10270 20190 30027 40050 8452/ 333 10313 58051 70000 84616 88458==
41895,2024,05,06,15,00,AAXX 06154 41895 02450 80507 10254 20190 30043 40065 8452/ 333 58035 70000 84616 88458==
41895,2024,05,06,18,00,AAXX 06184 41895 02450 80902 10243 20200 30060 40082 8452/ 333 58035 70000 84615 88458==
41895,2024,05,06,21,00,AAXX 06214 41895 02450 81802 10236 20220 30061 40083 8452/ 333 58031 70000 84615 88458==
41895,2024,05,07,00,00,AAXX 07004 41895 02450 80503 10228 20210 30078 40100 8452/ 333 58041 70000 84615 88458==
41895,2024,05,07,03,00,AAXX 07034 41895 02457 40905 10270 20210 30098 40120 83401 333 20225 58048 70000 82616 83074==
41895,2024,05,07,06,00,AAXX 07064 41895 02458 41302 10312 20200 30098 40120 84800 333 58057 70000 82616 83820==
41895,2024,05,07,09,00,AAXX 07094 41895 02958 30903 10335 20210 30066 40087 80001 333 58046 70000 83074==
41895,2024,05,07,12,00,AAXX 07124 41895 02450 50901 10316 20200 30063 40085 83520 333 10345 58036 70000 83616 85458==
41895,2024,05,07,15,00,AAXX 07154 41895 02450 50503 10286 20210 30080 40102 83520 333 58037 70000 83616 85458==
41895,2024,05,07,18,00,AAXX 07184 41895 02450 80505 10270 20220 30087 40109 8452/ 333 58027 70000 84615 88458==
41895,2024,05,07,21,00,AAXX 07214 41895 01450 80505 10217 20210 30070 40093 79596 8592/ 333 58009 70502 84615 88458 81928==
41895,2024,05,08,00,00,AAXX 08004 41895 21450 80503 10214 20200 30070 40093 79596 8452/ 333 59008 60517 70510 84615 88458==
41895,2024,05,08,03,00,AAXX 08034 41895 02458 70000 10240 20220 30104 40126 84330 333 20210 58007 70510 83615 85362 81925==
41895,2024,05,08,06,00,AAXX 08064 41895 02458 41304 10305 20230 30091 40113 84801 333 59007 70510 81615 83820==
41895,2024,05,08,09,00,AAXX 08094 41895 02458 41302 10315 20220 30066 40088 84801 333 58000 70510 81615 83820==
41895,2024,05,08,12,00,AAXX 08124 41895 02456 40901 10292 20230 30062 40084 84801 333 10320 59001 70510 81616 83820==
41895,2024,05,08,15,00,AAXX 08154 41895 02950 00000 10258 20240 30078 40100 333 59002 70510==
41895,2024,05,08,18,00,AAXX 08184 41895 02950 00501 10246 20240 30078 40100 333 59009 70510==
41895,2024,05,08,21,00,AAXX 08214 41895 02950 00902 10245 20240 30073 40096 333 58003 70008==
41895,2024,05,09,00,00,AAXX 09004 41895 02450 50902 10243 20230 30069 40091 83520 333 59001 70000 83616 85458==
41895,2024,05,09,03,00,AAXX 09034 41895 01456 81302 10286 20240 30085 40107 70522 8452/ 333 20236 59019 70000 84615 88458==
41895,2024,05,09,06,00,AAXX 09064 41895 01456 80902 10266 20250 30078 40101 70296 8532/ 333 59013 70020 84616 88458 81930==
41895,2024,05,09,09,00,AAXX 09094 41895 02457 53602 10308 20240 30056 40078 83510 333 59010 70020 83616 85458==
41895,2024,05,09,12,00,AAXX 09124 41895 02456 80000 10282 20240 30057 40080 8452/ 333 10308 59005 70020 84615 88458==
41895,2024,05,09,15,00,AAXX 09154 41895 02450 83103 10244 20210 30069 40091 8452/ 333 59009 70020 84615 88458==
41895,2024,05,09,18,00,AAXX 09184 41895 02450 83602 10234 20220 30085 40107 8452/ 333 58007 70020 84615 88458==
41895,2024,05,09,21,00,AAXX 09214 41895 02450 83101 10230 20220 30076 40099 8452/ 333 58003 70020 84615 88458==
41897,2024,05,03,00,00,AAXX 03004 41897 31925 00901 10235 20235 30028 40042 70500 333 58038 70000=
41897,2024,05,03,06,00,AAXX 03064 41897 31950 00902 10350 20150 30054 40067 70500 333 58057 70000=
41897,2024,05,03,12,00,AAXX 03124 41897 32956 00000 10330 20200 30023 40036 333 10376 58047 70000=
41897,2024,05,03,18,00,AAXX 03184 41897 31945 01001 10253 20190 30047 40060 70500 333 58028 70000=
41897,2024,05,04,00,00,AAXX 04004 41897 31930 01801 10270 20250 30049 40062 70500 333 58021 70000=
41897,2024,05,04,06,00,AAXX 04064 41897 31450 31803 10340 20260 30054 40067 70500 83500 333 56900 58000 70000 83617=
41897,2024,05,04,12,00,AAXX 04124 41897 32556 31703 10332 20240 30012 40025 82230 333 10360 56990 59011 70000 82825 83362=
41897,2024,05,04,18,00,AAXX 04184 41897 32950 00602 10262 20230 30019 40032 333 59028 70000=
41897,2024,05,05,00,00,AAXX 05004 41897 32440 31002 10245 20220 30016 40029 82530 333 56990 59033 70000 82617 83362=
41897,2024,05,05,06,00,AAXX 05064 41897 32456 31803 10347 20250 30019 40032 83400 333 56900 59035 70000 82617 83828=
41897,2024,05,05,12,00,AAXX 05124 41897 32956 30302 10320 20250 39986 49999 83030 333 10365 56090 59026 70000 83362=
41897,2024,05,05,18,00,AAXX 05184 41897 32950 01705 10250 20200 30039 40053 333 58020 70000=
41897,2024,05,06,00,00,AAXX 06004 41897 32435 61604 10238 20210 30046 40059 83530 333 56990 58030 70000 83616 86360=
41897,2024,05,06,06,00,AAXX 06064 41897 32450 71007 10275 20210 30062 40075 83530 333 56990 58043 70000 83617 87360=
41897,2024,05,06,12,00,AAXX 06124 41897 32450 71407 10255 20200 30038 40051 82510 333 10305 56990 58052 70000 82618 87458=
41897,2024,05,06,18,00,AAXX 06184 41897 32440 71406 10230 20200 30070 40083 82510 333 56990 58031 70000 82618 97458=
41897,2024,05,07,00,00,AAXX 07004 41897 32450 50904 10220 20210 30093 40107 82510 333 56990 58047 70000 82618 85458=
41897,2024,05,07,06,00,AAXX 07064 41897 32956 03602 10300 20200 30104 40117 333 58042 70000=
41897,2024,05,07,12,00,AAXX 07124 41897 32950 00901 10300 20220 30075 40088 333 10330 58037 70000=
41897,2024,05,07,18,00,AAXX 07184 41897 31440 40602 10245 20230 30102 40116 71720 83310 333 56990 58032 70000 82618 81929 84458=
41897,2024,05,08,00,00,AAXX 08004 41897 11440 80606 10205 20205 30128 40141 60187 79596 8532/ 333 56999 58035 70180 85618 81928 88458=
41897,2024,05,08,06,00,AAXX 08064 41897 11450 51802 10280 20230 30101 40114 60019 79601 82530 333 56990 59003 70190 82618 83362=
41897,2024,05,08,12,00,AAXX 08124 41897 32450 11401 10280 20240 30072 40085 81500 333 10306 56900 59003 70190 81618=
41897,2024,05,08,18,00,AAXX 08184 41897 32940 00901 10235 20235 30090 40103 333 59016 70000=
41897,2024,05,09,00,00,AAXX 09004 41897 31930 00901 10230 20220 30076 40089 70500 333 59052 70010=
41897,2024,05,09,06,00,AAXX 09064 41897 31450 81403 10315 20230 30089 40102 70522 8252/ 333 56999 59012 70000 82618 88458=
41897,2024,05,09,12,00,AAXX 09124 41897 NIL=
41897,2024,05,09,18,00,AAXX 09184 41897 31440 61802 10236 20230 30094 40108 70522 82510 333 56990 59004 70000 82618 86458=
41902,2024,05,03,00,00,AAXX 03004 41902 31420 20501 10228 20220 30041 40050 70544 82500 333 56900 58040 70000 82616=
41902,2024,05,03,06,00,AAXX 03064 41902 NIL=
41902,2024,05,03,12,00,AAXX 03124 41902 NIL=
41902,2024,05,04,00,00,AAXX 04004 41902 31430 51802 10240 20220 30051 40059 70592 83530 333 56990 58010 70000 83614 84362=
41902,2024,05,04,06,00,AAXX 04064 41902 31450 31902 10345 20240 30056 40064 70140 82530 333 56990 58002 70000 82614=
41902,2024,05,04,12,00,AAXX 04124 41902 32440 51801 10317 20270 30021 40029 81530 333 10350 56990 59005 70000 81614 85362=
41902,2024,05,04,18,00,AAXX 04184 41902 11420 83602 10227 20220 30044 40052 60264 79596 8492/ 333 56999 58001 70260 83613 82926 88459=
41902,2024,05,05,00,00,AAXX 05004 41902 11430 10503 10227 20227 30031 40039 60036 70196 81500 333 56900 59020 70290 81614=
41902,2024,05,05,06,00,AAXX 05064 41902 32440 50902 10305 20260 30030 40038 83530 333 56990 59026 70290 83614 84362=
41902,2024,05,05,12,00,AAXX 05124 41902 32440 83606 10271 20210 39994 40003 8392/ 333 10341 56899 59027 70290 83614 81930 88459=
41902,2024,05,05,18,00,AAXX 05184 41902 11430 60502 10217 20200 30039 40047 60328 70596 83530 333 56990 59005 70350 83614 85362=
41902,2024,05,06,00,00,AAXX 06004 41902 31430 80501 10222 20190 30050 40059 70544 8342/ 333 56999 58019 70320 83614 88459=
41902,2024,05,06,06,00,AAXX 06064 41902 11440 60505 10245 20210 30076 40085 60015 70162 83510 333 56990 58036 70330 83614 86459=
41902,2024,05,06,12,00,AAXX 06124 41902 32440 60504 10243 20200 30047 40056 83430 333 10267 56990 58053 70330 82614 85362=
41902,2024,05,07,00,00,AAXX 07004 41902 31430 40502 10211 20200 30090 40098 70544 82530 333 56990 58040 70010 82614 83362=
41902,2024,05,07,06,00,AAXX 07064 41902 31450 40902 10315 20220 30099 40108 70340 82530 333 56990 58023 70000 82614 83362=
41902,2024,05,07,12,00,AAXX 07124 41902 32457 60000 10290 20220 30078 40087 82570 333 10325 56990 58031 70000 82615 86460=
41902,2024,05,07,18,00,AAXX 07184 41902 32940 03602 10245 20230 30093 40101 333 58028 70000=
41902,2024,05,08,00,00,AAXX 08004 41902 31430 82703 10235 20235 30088 40097 70544 8352/ 333 56999 59002 70000 83614 88458=
41902,2024,05,08,06,00,AAXX 08064 41902 31440 82204 10277 20240 30095 40104 70544 8352/ 333 56999 59004 70000 83615 88458=
41902,2024,05,08,12,00,AAXX 08124 41902 11440 80502 10256 20250 30075 40088 60024 76144 8352/ 333 10288 56999 58001 70020 82613 88458=
41902,2024,05,08,18,00,AAXX 08184 41902 32440 20000 10222 20210 30085 40093 82500 333 56900 59008 70020 82616=
41902,2024,05,09,00,00,AAXX 09004 41902 31930 03101 10215 20210 30077 40085 70544 333 59011 70000=
41902,2024,05,09,06,00,AAXX 09064 41902 31457 60901 10312 20210 30084 40093 70344 82430 333 56990 59011 70020 82616 86362=
41902,2024,05,09,12,00,AAXX 09124 41902 NIL=
41902,2024,05,09,18,00,AAXX 09184 41902 11440 80000 10235 20220 30090 40099 69917 70296 8352/ 333 56999 58005 70001 83615 88458=
41907,2024,05,03,00,00,AAXX 03004 41907 01940 00000 10225 20220 30024 40039 70500 333 58037 70000==
41907,2024,05,03,03,00,AAXX 03034 41907 01950 00000 10315 20250 30047 40062 70500 333 20217 58038 70000==
41907,2024,05,03,06,00,AAXX 03064 41907 02957 03102 10375 20050 30044 40058 333 58043 70000==
41907,2024,05,03,09,00,AAXX 03094 41907 02957 01802 10395 20060 30019 40034 333 58043 70000==
41907,2024,05,03,12,00,AAXX 03124 41907 02956 00000 10342 20140 30019 40033 333 10400 58044 70000==
41907,2024,05,03,15,00,AAXX 03154 41907 02940 00000 10270 20180 30038 40053 333 58039 70000==
41907,2024,05,03,18,00,AAXX 03184 41907 02940 00000 10255 20180 30044 40059 333 58029 70000==
41907,2024,05,03,21,00,AAXX 03214 41907 02940 00000 10240 20190 30035 40050 333 58017 70000==
41907,2024,05,04,00,00,AAXX 04004 41907 02340 80000 10248 20230 30044 40059 8562/ 333 58020 70000 82709 85615 88458==
41907,2024,05,04,03,00,AAXX 04034 41907 02450 63102 10320 20260 30061 40076 83510 333 20240 58014 70000 83615 85458==
41907,2024,05,04,06,00,AAXX 04064 41907 02450 51802 10365 20240 30049 40063 83510 333 58005 70000 83615 84458==
41907,2024,05,04,09,00,AAXX 04094 41907 02456 32204 10388 20220 30015 40029 83500 333 59004 70000 83615==
41907,2024,05,04,12,00,AAXX 04124 41907 02/56 31802 10355 20220 30000 40014 83030 333 10390 59019 70000 83362==
41907,2024,05,04,15,00,AAXX 04154 41907 02940 02304 10325 20230 30007 40022 333 59031 70000==
41907,2024,05,04,18,00,AAXX 04184 41907 02440 83103 10305 20260 30015 40030 8552/ 333 59029 70000 85615 88458==
41907,2024,05,04,21,00,AAXX 04214 41907 02440 82703 10290 20250 30009 40023 8552/ 333 59026 70000 85615 88458==
41907,2024,05,05,00,00,AAXX 05004 41907 02440 71302 10268 20250 30010 40025 82510 333 59034 70000 82615 86458==
41907,2024,05,05,03,00,AAXX 05034 41907 02450 71804 10320 20260 30014 40029 83510 333 20268 59047 70000 83615 86458==
41907,2024,05,05,06,00,AAXX 05064 41907 02450 61806 10370 20240 30012 40026 83510 333 59037 70000 83615 85458==
41907,2024,05,05,09,00,AAXX 05094 41907 32450 61803 10380 20210 39985 49999 83570 333 56490 59030 70000 83615 84458=
41907,2024,05,05,12,00,AAXX 05124 41907 02945 02301 10372 20220 39976 49990 333 10398 59024 70000==
41907,2024,05,05,15,00,AAXX 05154 41907 02440 53103 10305 20270 30010 40024 83510 333 58003 70000 83615 85458==
41907,2024,05,05,18,00,AAXX 05184 41907 02340 81302 10290 20260 30042 40047 8562/ 333 58017 70000 82709 85615 88458==
41907,2024,05,05,21,00,AAXX 05214 41907 02340 81302 10275 20260 30024 40039 8562/ 333 58015 70000 82709 85615 88458==
41907,2024,05,06,00,00,AAXX 06004 41907 02340 81302 10250 20230 30036 40051 8562/ 333 58026 70000 82709 85615 88458==
41907,2024,05,06,03,00,AAXX 06034 41907 02450 81302 10275 20220 30054 40069 8552/ 333 20245 58044 70000 85615 88458==
41907,2024,05,06,06,00,AAXX 06064 41907 02350 81304 10310 20240 30050 40065 8562/ 333 58038 70000 82709 84615 88458==
41907,2024,05,06,09,00,AAXX 06094 41907 02450 70908 10312 20220 30030 40044 84510 333 58045 70000 84615 87458==
41907,2024,05,06,12,00,AAXX 06124 41907 02350 80908 10265 20190 30029 40044 8562/ 333 10322 58053 70000 82709 85615 88458==
41907,2024,05,06,15,00,AAXX 06154 41907 01340 81308 10255 20200 30044 40059 71722 8692/ 333 58034 70000 83709 85615 88458 81930==
41907,2024,05,06,18,00,AAXX 06184 41907 01340 81302 10246 20210 30061 40076 70292 8662/ 333 58029 70000 83709 85615 84458==
41907,2024,05,06,21,00,AAXX 06214 41907 02340 81302 10235 20210 30071 40086 8662/ 333 58047 70000 82709 84615 88458==
41907,2024,05,07,00,00,AAXX 07004 41907 02440 81302 10225 20210 30079 40094 8552/ 333 58043 70000 85615 88458==
41907,2024,05,07,03,00,AAXX 07034 41907 02450 41803 10262 20200 30092 40107 84500 333 20225 58038 70000 84615==
41907,2024,05,07,06,00,AAXX 07064 41907 02456 21302 10306 20200 30100 40114 82500 333 58050 70000 82615==
41907,2024,05,07,09,00,AAXX 07094 41907 02456 61302 10335 20200 30070 40085 83510 333 58040 70000 83615 85458==
41907,2024,05,07,12,00,AAXX 07124 41907 02450 71302 10313 20190 30067 40082 84510 333 10340 58038 70000 84615 85458==
41907,2024,05,07,15,00,AAXX 07154 41907 02940 00000 10275 20210 30081 40096 333 58037 70000==
41907,2024,05,07,18,00,AAXX 07184 41907 02440 80000 10268 20220 30091 40106 8552/ 333 58030 70000 85615 88458==
41907,2024,05,07,21,00,AAXX 07214 41907 01330 80906 10240 20210 30090 40105 70592 8692/ 333 58019 70050 83709 85615 88458 82930==
41907,2024,05,08,00,00,AAXX 08004 41907 01340 80902 10216 20210 30074 40089 70296 8662/ 333 59005 70110 82709 85615 88458==
41907,2024,05,08,03,00,AAXX 08034 41907 02450 81803 10250 20220 30107 40122 8452/ 333 20210 58015 70105 84615 88458==
41907,2024,05,08,06,00,AAXX 08064 41907 02456 31304 10291 20220 30096 40110 83500 333 59004 70105 83615==
41907,2024,05,08,09,00,AAXX 08094 41907 02456 31302 10310 20210 30070 40084 83800 333 58000 70105 83615==
41907,2024,05,08,12,00,AAXX 08124 41907 02450 70000 10302 20220 30065 40080 85810 333 10320 59002 70105 85615 88458==
41907,2024,05,08,15,00,AAXX 08154 41907 02440 70000 10265 20240 30082 40097 83510 333 58001 70105 83615 86458==
41907,2024,05,08,18,00,AAXX 08184 41907 02440 70000 10260 20240 30082 40097 83510 333 59009 70105 83615 86458==
41907,2024,05,08,21,00,AAXX 08214 41907 02440 70000 10245 20230 30076 40091 83510 333 59014 70055 83615 86458==
41907,2024,05,09,00,00,AAXX 09004 41907 01440 70000 10240 20220 30073 40088 70500 83510 333 59001 70000 83615 86458==
41907,2024,05,09,03,00,AAXX 09034 41907 01440 61302 10297 20230 30087 40102 70522 83510 333 20235 59020 70000 83615 85458==
41907,2024,05,09,06,00,AAXX 09064 41907 01340 82302 10295 20250 30082 40097 72162 8562/ 333 59014 70010 82709 83615 88458==
41907,2024,05,09,09,00,AAXX 09094 41907 01440 81802 10248 20200 30057 40072 71722 8591/ 333 59013 70015 84615 88458 81930==
41907,2024,05,09,12,00,AAXX 09124 41907 21440 81302 10290 20230 30060 40075 70296 8552/ 333 10320 59005 69955 70015 85615 88458==
41907,2024,05,09,15,00,AAXX 09154 41907 02340 81802 10242 20210 30069 40084 8662/ 333 59013 70015 83709 84615 88458==
41907,2024,05,09,18,00,AAXX 09184 41907 02340 82702 10230 20210 30078 40093 8662/ 333 59004 70015 83709 84615 88458==
41907,2024,05,09,21,00,AAXX 09214 41907 02440 80000 10228 20220 30072 40087 8452/ 333 59004 70015 84615 88458==
41909,2024,05,03,00,00,AAXX 03004 41909 02950 00000 10247 20230 30029 40040 333 58041 70000==
41909,2024,05,03,03,00,AAXX 03034 41909 02956 01802 10284 20240 30063 40074 333 20242 58051 70000==
41909,2024,05,03,06,00,AAXX 03064 41909 02956 01802 10351 20230 30052 40063 333 58047 70000==
41909,2024,05,03,09,00,AAXX 03094 41909 02956 00000 10384 20120 30021 40033 333 58040 70000==
41909,2024,05,03,12,00,AAXX 03124 41909 02956 00000 10356 20170 30023 40035 333 10386 58046 70000==
41909,2024,05,03,15,00,AAXX 03154 41909 02950 00000 10289 20200 30047 40058 333 58044 70000==
41909,2024,05,03,18,00,AAXX 03184 41909 02950 00000 10269 20210 30054 40065 333 58032 70000==
41909,2024,05,03,21,00,AAXX 03214 41909 02940 00000 10268 20210 30046 40057 333 58028 70000==
41909,2024,05,04,00,00,AAXX 04004 41909 02450 80000 10268 20220 30046 40057 8552/ 333 58017 70000 85614 88458==
41909,2024,05,04,03,00,AAXX 04034 41909 02450 60801 10314 20260 30068 40079 83510 333 20265 58005 70000 83615 86458==
41909,2024,05,04,06,00,AAXX 04064 41909 02456 51801 10347 20250 30060 40071 82530 333 58008 70000 82615 85360==
41909,2024,05,04,09,00,AAXX 04094 41909 02456 62604 10365 20240 30025 40037 83530 333 58004 70000 83615 84365==
41909,2024,05,04,12,00,AAXX 04124 41909 02/56 41802 10355 20250 30011 40023 84030 333 10370 59012 70000 84365==
41909,2024,05,04,15,00,AAXX 04154 41909 01450 31302 10320 20250 30018 40029 71311 83300 333 59029 70000 82615 81930==
41909,2024,05,04,18,00,AAXX 04184 41909 01330 81304 10286 20230 30019 40030 71310 8632/ 333 59035 70000 83708 83614 88458 81930==
41909,2024,05,04,21,00,AAXX 04214 41909 02430 81802 10263 20210 30017 40028 8552/ 333 59029 70000 85614 88460==
41909,2024,05,05,00,00,AAXX 05004 41909 02356 81304 10245 20220 30023 40034 8562/ 333 59023 70000 83708 83614 88458==
41909,2024,05,05,03,00,AAXX 05034 41909 02456 61802 10294 20230 30032 40043 82510 333 20244 59036 70000 82615 86458==
41909,2024,05,05,06,00,AAXX 05064 41909 02456 51804 10340 20260 30023 40034 82530 333 59037 70000 82615 85360==
41909,2024,05,05,09,00,AAXX 05094 41909 32456 51804 10374 20240 39993 40005 83830 333 56490 59032 70000 82615 83360=
41909,2024,05,05,12,00,AAXX 05124 41909 02956 01802 10350 20240 39982 49994 333 10378 59029 70000==
41909,2024,05,05,15,00,AAXX 05154 41909 01440 80904 10252 20220 30031 40042 71796 8592/ 333 58013 70090 84615 88458 81930==
41909,2024,05,05,18,00,AAXX 05184 41909 11440 21302 10244 20220 30044 40056 60096 70196 82500 333 58025 70090 82615==
41909,2024,05,05,21,00,AAXX 05214 41909 02440 41802 10234 20210 30046 40058 82530 333 58029 70090 82615 83360==
41909,2024,05,06,00,00,AAXX 06004 41909 02356 81802 10229 20210 30050 40062 8462/ 333 58027 70090 83708 88458==
41909,2024,05,06,03,00,AAXX 06034 41909 02356 81802 10257 20230 30070 40081 8462/ 333 20228 58038 70090 83708 88458==
41909,2024,05,06,06,00,AAXX 06064 41909 02356 81804 10281 20220 30068 40079 8462/ 333 58045 70090 83708 88458==
41909,2024,05,06,09,00,AAXX 06094 41909 02350 81804 10268 20200 30048 40059 8562/ 333 58055 70090 84708 88458==
41909,2024,05,06,12,00,AAXX 06124 41909 02350 81302 10260 20200 30033 40044 8462/ 333 10290 58051 70090 83708 85614 88458==
41909,2024,05,06,15,00,AAXX 06154 41909 01330 80902 10244 20200 30060 40072 71392 8492/ 333 58029 70000 83708 88458 81930==
41909,2024,05,06,18,00,AAXX 06184 41909 01330 80901 10236 20210 30071 40083 70292 8562/ 333 58027 70000 84708 88458==
41909,2024,05,06,21,00,AAXX 06214 41909 02330 80000 10230 20210 30078 40090 8462/ 333 58032 70000 83708 88458==
41909,2024,05,07,00,00,AAXX 07004 41909 02350 80902 10226 20210 30090 40102 8462/ 333 58040 70000 83708 88458==
41909,2024,05,07,03,00,AAXX 07034 41909 02450 20000 10258 20200 30103 40114 82500 333 20224 58033 70000 82615==
41909,2024,05,07,06,00,AAXX 07064 41909 02956 00000 10317 20200 30103 40114 333 58046 70000==
41909,2024,05,07,09,00,AAXX 07094 41909 02456 20000 10330 20200 30080 40091 82500 333 58032 70000 82615==
41909,2024,05,07,12,00,AAXX 07124 41909 02450 50000 10315 20210 30071 40082 82530 333 10335 58038 70000 82615 85360==
41909,2024,05,07,15,00,AAXX 07154 41909 02940 00000 10278 20220 30085 40096 333 58025 70000==
41909,2024,05,07,18,00,AAXX 07184 41909 02940 00000 10268 20220 30097 40108 333 58026 70000==
41909,2024,05,07,21,00,AAXX 07214 41909 02940 00000 10237 20220 30094 40105 333 58016 70000==
41909,2024,05,08,00,00,AAXX 08004 41909 01450 80000 10215 20210 30094 40106 79596 8592/ 333 58004 70150 84615 88458 81930==
41909,2024,05,08,03,00,AAXX 08034 41909 01450 80000 10226 20210 30106 40118 70296 8592/ 333 20212 58003 70180 84615 88458 81930==
41909,2024,05,08,06,00,AAXX 08064 41909 22450 80000 10270 20260 30106 40118 8552/ 333 58003 60037 70180 85614 88458==
41909,2024,05,08,09,00,AAXX 08094 41909 02456 41304 10310 20210 30073 40084 82530 333 59007 70180 82615 83365==
41909,2024,05,08,12,00,AAXX 08124 41909 02/56 20000 10297 20220 30072 40083 82030 333 10320 58001 70180 82365==
41909,2024,05,08,15,00,AAXX 08154 41909 02440 80000 10265 20220 30088 40099 8552/ 333 58003 70180 85615 88460==
41909,2024,05,08,18,00,AAXX 08184 41909 02940 00000 10250 20220 30085 40097 333 59012 70180==
41909,2024,05,08,21,00,AAXX 08214 41909 01930 00000 10242 20230 30078 40090 70500 333 59016 70180==
41909,2024,05,09,00,00,AAXX 09004 41909 01440 40000 10235 20230 30074 40086 70500 82530 333 59020 70030 82614 83365==
41909,2024,05,09,03,00,AAXX 09034 41909 02956 00000 10291 20220 30090 40101 333 20225 59016 70000==
41909,2024,05,09,06,00,AAXX 09064 41909 02950 00000 10324 20256 30089 40100 333 59017 70000==
41909,2024,05,09,09,00,AAXX 09094 41909 02456 60000 10318 20220 30058 40069 83570 333 59015 70000 83615 84458==
41909,2024,05,09,12,00,AAXX 09124 41909 02456 40000 10302 20240 30059 40070 82530 333 10328 59013 70000 82615 83360==
41909,2024,05,09,15,00,AAXX 09154 41909 02440 82302 10244 20200 30076 40088 8252/ 333 59012 70000 82615 88458==
41909,2024,05,09,18,00,AAXX 09184 41909 02440 80000 10240 20210 30092 40104 8252/ 333 58007 70000 82615 88458==
41909,2024,05,09,21,00,AAXX 09214 41909 02440 60000 10234 20210 30086 40098 82530 333 58008 70000 82615 85360==
41915,2024,05,03,00,00,AAXX 03004 41915 02956 00000 10228 20200 30031 40057 333 58044 70000==
41915,2024,05,03,03,00,AAXX 03034 41915 02956 00000 10293 20220 30051 40076 333 20220 58047 70000==
41915,2024,05,03,06,00,AAXX 03064 41915 02456 40000 10333 20230 30040 40065 84400 333 58046 70000 83616==
41915,2024,05,03,09,00,AAXX 03094 41915 02456 40000 10362 20220 30019 40043 84400 333 58037 70000 83616==
41915,2024,05,03,12,00,AAXX 03124 41915 02956 01803 10324 20230 30021 40045 333 10366 58035 70000==
41915,2024,05,04,00,00,AAXX 04004 41915 NIL=
41915,2024,05,04,03,00,AAXX 04034 41915 02956 01503 10303 20230 30071 40096 333 20226 58020 70120==
41915,2024,05,04,06,00,AAXX 04064 41915 02456 40000 10344 20240 30052 40077 84400 333 58012 70120 83616==
41915,2024,05,04,09,00,AAXX 04094 41915 02456 60000 10344 20240 30027 40052 84430 333 58009 70120 83616 85363==
41915,2024,05,04,12,00,AAXX 04124 41915 02456 60000 10322 20250 30018 40042 84330 333 10356 59003 70120 83616 85362 81930==
41915,2024,05,04,15,00,AAXX 04154 41915 01450 60000 10280 20260 30032 40057 71322 84330 333 59012 70120 83615 85362 81928==
41915,2024,05,04,21,00,AAXX 04214 41915 01440 80903 10227 20220 30021 40047 79596 8692/ 333 59035 70018 83712 84615 88458 81925==
41915,2024,05,05,00,00,AAXX 05004 41915 01450 70502 10225 20220 30035 40060 70196 85620 333 59023 70112 82712 84615 85458==
41915,2024,05,05,03,00,AAXX 05034 41915 02456 71603 10294 20230 30036 40061 84430 333 20222 59035 70112 83615 85362==
41915,2024,05,05,06,00,AAXX 05064 41915 02456 71303 10310 20230 30129 40154 85410 333 59023 70112 84615 87459==
41915,2024,05,05,09,00,AAXX 05094 41915 01350 83012 10314 20240 39994 40019 71722 8592/ 333 59034 70112 84709 88458 81925==
41915,2024,05,05,12,00,AAXX 05124 41915 21320 80906 10219 20210 30014 40039 79596 8792/ 333 10334 59004 60547 70652 84708 84614 88458 81925==
41915,2024,05,05,15,00,AAXX 05154 41915 01340 80906 10213 20200 30043 40069 71796 8792/ 333 58011 71350 84708 84614 88458 81925==
41915,2024,05,05,18,00,AAXX 05184 41915 NIL=
41915,2024,05,05,21,00,AAXX 05214 41915 02450 61205 10210 20200 30042 40067 83610 333 58021 71332 83709 85460==
41915,2024,05,06,00,00,AAXX 06004 41915 02450 60000 10218 20200 30056 40082 83510 333 58021 71238 83614 85460==
41915,2024,05,06,03,00,AAXX 06034 41915 02450 80512 10240 20190 30084 40109 8792/ 333 20204 58048 71238 83709 85614 88458==
41915,2024,05,06,06,00,AAXX 06064 41915 21456 51308 10240 20200 30085 40110 70196 84470 333 58056 60207 71436 83616 83459==
41915,2024,05,06,09,00,AAXX 06094 41915 01356 81505 10244 20190 30057 40082 71722 8531/ 333 58063 71436 84709 88460 81926==
41915,2024,05,06,12,00,AAXX 06124 41915 01450 80503 10235 20210 30047 40072 70292 8261/ 333 10250 58033 70896 82714 88459==
41915,2024,05,06,15,00,AAXX 06154 41915 01350 81408 10236 20210 30058 40084 71792 8592/ 333 58015 70198 84709 88457 81925==
41915,2024,05,06,18,00,AAXX 06184 41915 01350 81604 10230 20200 30078 40104 70299 8432/ 333 58045 70198 83709 88460 81930==
41915,2024,05,06,21,00,AAXX 06214 41915 02450 60000 10222 20190 30068 40094 84430 333 58026 70198 83615 85362==
41915,2024,05,07,00,00,AAXX 07004 41915 02450 60000 10218 20200 30082 40108 82530 333 58026 70198 82615 85362==
41915,2024,05,07,03,00,AAXX 07034 41915 02956 20904 10275 20220 30099 40124 80002 333 20195 58015 70198 82080==
41915,2024,05,07,06,00,AAXX 07064 41915 02456 10504 10303 20190 30091 40116 81502 333 58006 70000 81616==
41915,2024,05,07,09,00,AAXX 07094 41915 02/56 31204 10324 20160 30066 40091 83030 333 58009 70000==
41915,2024,05,07,12,00,AAXX 07124 41915 02456 60000 10296 20220 30067 40092 83570 333 10330 58020 70000 83616 84459==
41915,2024,05,07,15,00,AAXX 07154 41915 02956 00000 10254 20220 30078 40103 333 58020 70000==
41915,2024,05,07,18,00,AAXX 07184 41915 NIL=
41915,2024,05,07,21,00,AAXX 07214 41915 02956 00000 10227 20210 30069 40095 333 58001 70000==
41915,2024,05,08,00,00,AAXX 08004 41915 02956 00000 10224 20210 30069 40095 333 59013 70000==
41915,2024,05,08,03,00,AAXX 08034 41915 02456 72703 10276 20230 30102 40127 83510 333 20217 58003 70000 83616 87459==
41915,2024,05,08,06,00,AAXX 08064 41915 02456 80502 10286 20240 30082 40107 8351/ 333 59009 70000 83616 88459==
41915,2024,05,08,09,00,AAXX 08094 41915 02356 80000 10274 20230 30066 40091 8561/ 333 58000 70000 82709 83615 88460==
41915,2024,05,08,12,00,AAXX 08124 41915 02450 80000 10260 20220 30066 40092 8542/ 333 10303 59001 70000 84615 88458==
41915,2024,05,08,15,00,AAXX 08154 41915 02450 80000 10248 20220 30081 40107 8441/ 333 58003 70000 83615 88460==
41915,2024,05,08,18,00,AAXX 08184 41915 02450 60000 10234 20210 30073 40099 82510 333 58001 70000 82616 85360==
41915,2024,05,09,00,00,AAXX 09004 41915 02450 60000 10220 20210 30063 40088 82510 333 59006 70000 82615 85460==
41915,2024,05,09,03,00,AAXX 09034 41915 02456 23101 10286 20240 30081 40106 82100 333 20214 59021 70000 82822==
41915,2024,05,09,06,00,AAXX 09064 41915 02456 31302 10315 20200 30079 40104 83400 333 59003 70000 82616==
41915,2024,05,09,09,00,AAXX 09094 41915 02456 30000 10330 20210 30054 40079 83500 333 59012 70000 83616==
41915,2024,05,09,12,00,AAXX 09124 41915 02/50 30000 10305 20250 30047 40072 81032 333 10337 59019 70000 81362 83080==
41915,2024,05,09,15,00,AAXX 09154 41915 01350 80000 10253 20220 30070 40095 79592 8492/ 333 59011 70004 83709 88458 81926==
41915,2024,05,09,18,00,AAXX 09184 41915 21450 80000 10240 20220 30074 40099 70292 8351/ 333 58001 69945 70004 83615 88460==
41915,2024,05,09,21,00,AAXX 09214 41915 02450 80000 10240 20220 30069 40094 8251/ 333 58000 70004 82616 88460==
41923,2024,05,03,00,00,AAXX 03004 41923 11440 40602 10253 20230 30040 40049 60106 70596 81530 333 58039 70096 81616 83362==
41923,2024,05,03,03,00,AAXX 03034 41923 02950 00000 10308 20230 30063 40073 333 20250 58041 70096==
41923,2024,05,03,06,00,AAXX 03064 41923 02456 30000 10354 20210 30055 40065 83400 333 58043 70096 82616==
41923,2024,05,03,09,00,AAXX 03094 41923 02456 30904 10362 20230 30029 40038 83400 333 58041 70096 82616==
41923,2024,05,03,12,00,AAXX 03124 41923 02956 00000 10356 20190 30027 40037 333 10381 58042 70096==
41923,2024,05,03,15,00,AAXX 03154 41923 02/50 21803 10322 20220 30055 40065 82030 333 58046 70096 82360==
41923,2024,05,03,18,00,AAXX 03184 41923 02/50 11804 10300 20240 30052 40062 81030 333 58033 70096 81360==
41923,2024,05,03,21,00,AAXX 03214 41923 02450 20000 10296 20250 30051 40061 81530 333 58026 70000 81616==
41923,2024,05,04,00,00,AAXX 04004 41923 02450 20000 10290 20260 30061 40071 81530 333 58021 70000 81616==
41923,2024,05,04,03,00,AAXX 04034 41923 02456 61903 10330 20250 30077 40087 85330 333 20287 58014 70000 83615 83824 81930==
41923,2024,05,04,06,00,AAXX 04064 41923 02456 31802 10350 20210 30062 40072 82430 333 58007 70000 81616==
41923,2024,05,04,09,00,AAXX 04094 41923 02456 51803 10366 20210 30031 40041 82530 333 58002 70000 82615 85365==
41923,2024,05,04,12,00,AAXX 04124 41923 01450 50902 10345 20210 30021 40031 70521 82530 333 10369 59006 70000 82615 85365==
41923,2024,05,04,15,00,AAXX 04154 41923 01440 62708 10318 20250 30028 40038 70522 83530 333 59027 70000 83615 86365==
41923,2024,05,04,18,00,AAXX 04184 41923 01440 51806 10298 20260 30027 40037 71322 82330 333 59025 70000 83615 85365 81930==
41923,2024,05,04,21,00,AAXX 04214 41923 01440 81802 10288 20250 30024 40034 71322 8532/ 333 59027 70000 85615 88460 81930==
41923,2024,05,05,00,00,AAXX 05004 41923 01440 80902 10266 20210 30028 40038 70562 8552/ 333 59033 70000 85615 88460==
41923,2024,05,05,03,00,AAXX 05034 41923 41450 51802 10316 20260 30040 40050 70522 82530 333 20253 59037 82615 85365==
41923,2024,05,05,06,00,AAXX 05064 41923 42456 52706 10351 20240 30029 40039 82530 333 59033 82615 85365==
41923,2024,05,05,09,00,AAXX 05094 41923 32356 42505 10358 20230 30003 40012 84630 333 56590 59028 79999 81709 83615=
41923,2024,05,05,12,00,AAXX 05124 41923 42/50 12204 10342 20240 39992 40002 81030 333 10367 59029 81362==
41923,2024,05,05,15,00,AAXX 05154 41923 42350 70609 10317 20250 30033 40043 86370 333 58005 83708 84614 86459 81928==
41923,2024,05,05,18,00,AAXX 05184 41923 21345 70703 10214 20200 30054 40064 71796 85970 333 58027 60367 70360 82709 84615 85459 81929==
41923,2024,05,05,21,00,AAXX 05214 41923 01345 40502 10230 20210 30049 40058 70192 83630 333 58025 70360 81709 83615==
41923,2024,05,06,00,00,AAXX 06004 41923 01345 30502 10236 20210 30052 40061 70191 83630 333 58024 70360 81709 83615==
41923,2024,05,06,03,00,AAXX 06034 41923 02350 60605 10282 20220 30072 40082 84670 333 20213 58032 70360 82709 83615 85459==
41923,2024,05,06,06,00,AAXX 06064 41923 02356 60706 10298 20220 30069 40079 83630 333 58040 70360 81709 83615 85362==
41923,2024,05,06,09,00,AAXX 06094 41923 02350 60805 10284 20210 30056 40066 85630 333 58053 70360 83708 83614 85360==
41923,2024,05,06,12,00,AAXX 06124 41923 01235 80604 10258 20210 30041 40051 71722 8692/ 333 10298 58049 70360 83709 84615 88458 81930==
41923,2024,05,06,15,00,AAXX 06154 41923 01235 80603 10250 20210 30068 40077 79596 8692/ 333 58035 70360 83709 84615 88458 81930==
41923,2024,05,06,18,00,AAXX 06184 41923 21335 70902 10230 20210 30079 40088 71796 85970 333 58025 60029 70018 82709 84615 85458 81930==
41923,2024,05,06,21,00,AAXX 06214 41923 02330 60000 10228 20210 30088 40098 85630 333 58039 70018 83709 83614 85360==
41923,2024,05,07,00,00,AAXX 07004 41923 02330 60000 10224 20200 30099 40109 85630 333 58047 70018 82708 83614 85360==
41923,2024,05,07,03,00,AAXX 07034 41923 02340 60303 10256 20210 30111 40120 85630 333 20222 58039 70018 82708 83614 85360==
41923,2024,05,07,06,00,AAXX 07064 41923 02350 60603 10304 20170 30106 40116 85630 333 58037 70018 82709 83614 85360==
41923,2024,05,07,09,00,AAXX 07094 41923 02456 40000 10320 20180 30082 40092 83430 333 58026 70018 82615 83360==
41923,2024,05,07,12,00,AAXX 07124 41923 02456 70000 10306 20210 30081 40091 84330 333 10326 58040 70018 83615 85360 81930==
41923,2024,05,07,15,00,AAXX 07154 41923 02450 60000 10284 20210 30091 40101 84330 333 58023 70018 83615 85360 81930==
41923,2024,05,07,18,00,AAXX 07184 41923 02450 30000 10262 20210 30101 40111 81530 333 58022 70000 81616 83360==
41923,2024,05,07,21,00,AAXX 07214 41923 02445 60000 10240 20210 30100 40109 84330 333 58012 70000 83615 85360 81930==
41923,2024,05,08,00,00,AAXX 08004 41923 01330 82703 10226 20220 30117 40127 79596 8692/ 333 58018 70020 83708 84614 88458 81930==
41923,2024,05,08,03,00,AAXX 08034 41923 01350 70000 10236 20220 30110 40120 70196 85670 333 20220 59001 70122 82709 84615 86458==
41923,2024,05,08,06,00,AAXX 08064 41923 11456 60904 10276 20210 30105 40115 60106 70196 83430 333 59001 70122 82615 85360==
41923,2024,05,08,09,00,AAXX 08094 41923 02356 70000 10290 20200 30083 40093 85370 333 58001 70122 82709 83615 86458 81930==
41923,2024,05,08,12,00,AAXX 08124 41923 02456 70000 10295 20200 30078 40088 84430 333 10304 59003 70122 83616 86362==
41923,2024,05,08,15,00,AAXX 08154 41923 02350 70602 10266 20220 30096 40105 84330 333 58005 70122 81709 83615 85360 81930==
41923,2024,05,08,18,00,AAXX 08184 41923 02450 40602 10255 20220 30090 40099 81530 333 59011 70122 81616 83365==
41923,2024,05,08,21,00,AAXX 08214 41923 02445 40000 10253 20220 30079 40088 81530 333 59021 70122 81616 83365==
41923,2024,05,09,00,00,AAXX 09004 41923 01440 50000 10251 20220 30080 40089 70521 82530 333 59037 70100 82616 83362==
41923,2024,05,09,03,00,AAXX 09034 41923 02/50 20000 10297 20210 30095 40105 82030 333 20234 59015 70000 82365==
41923,2024,05,09,06,00,AAXX 09064 41923 02450 60000 10325 20220 30092 40102 84430 333 59013 70000 82615 83824 85360==
41923,2024,05,09,09,00,AAXX 09094 41923 02456 51802 10337 20200 30064 40074 82530 333 59019 70000 82615 85365==
41923,2024,05,09,12,00,AAXX 09124 41923 01340 82203 10296 20230 30065 40075 76122 8632/ 333 10342 59013 70004 83708 84614 88460 81930==
41923,2024,05,09,15,00,AAXX 09154 41923 01440 51802 10260 20180 30088 40097 71362 82530 333 59008 70004 82615 85365 81930==
41923,2024,05,09,18,00,AAXX 09184 41923 11440 82402 10262 20180 30099 40108 60006 70562 8532/ 333 58009 70004 85615 88460 81930==
41923,2024,05,09,21,00,AAXX 09214 41923 01440 80000 10257 20190 30093 40102 70522 8552/ 333 58014 70004 85615 88460==
41926,2024,05,03,00,00,AAXX 03004 41926 01950 00000 10212 20170 30026 40040 70500 333 58037 70000==
41926,2024,05,03,03,00,AAXX 03034 41926 02956 02103 10335 20200 30048 40062 333 20210 58036 70000==
41926,2024,05,03,06,00,AAXX 03064 41926 02957 00000 10395 20050 30044 40057 333 58039 70000==
41926,2024,05,03,09,00,AAXX 03094 41926 02957 02502 10405 20050 30021 40034 333 58041 70000==
41926,2024,05,03,12,00,AAXX 03124 41926 02956 00000 10365 20120 30020 40033 333 10412 58040 70000==
41926,2024,05,03,15,00,AAXX 03154 41926 02950 00000 10275 20180 30039 40053 333 58039 70000==
41926,2024,05,03,18,00,AAXX 03184 41926 02950 00000 10270 20190 30039 40053 333 58023 70000==
41926,2024,05,03,21,00,AAXX 03214 41926 02950 00000 10262 20210 30042 40056 333 58023 70000==
41926,2024,05,04,00,00,AAXX 04004 41926 02450 60000 10265 20240 30047 40061 84510 333 58021 70000 84618 86459==
41926,2024,05,04,03,00,AAXX 04034 41926 02456 41801 10320 20250 30063 40076 81510 333 20260 58015 70000==
41926,2024,05,04,06,00,AAXX 04064 41926 02456 41802 10364 20220 30050 40063 81510 333 58006 70000 81618 84459==
41926,2024,05,04,09,00,AAXX 04094 41926 02456 50000 10382 20200 30018 40031 82510 333 59003 70000 82618 84459==
41926,2024,05,04,12,00,AAXX 04124 41926 02/50 30000 10350 20210 30005 40018 83010 333 10385 59015 70000 83459==
41926,2024,05,04,15,00,AAXX 04154 41926 02950 01805 10325 20250 30013 40026 333 59026 70000==
41926,2024,05,04,18,00,AAXX 04184 41926 02950 01801 10298 20260 30013 40026 333 59026 70000==
41926,2024,05,04,21,00,AAXX 04214 41926 02950 00000 10294 20260 30011 40024 333 59031 70000==
41926,2024,05,05,00,00,AAXX 05004 41926 02450 50000 10290 20270 30011 40024 83510 333 59036 70000 83618 83459==
41926,2024,05,05,03,00,AAXX 05034 41926 02456 31802 10320 20270 30022 40035 83500 333 20290 59041 70000 83618==
41926,2024,05,05,06,00,AAXX 05064 41926 02456 30000 10364 20230 30015 40028 83500 333 59035 70000 83618==
41926,2024,05,05,09,00,AAXX 05094 41926 32457 22102 10402 20200 39987 40000 82500 333 56400 59031 70000 82618=
41926,2024,05,05,12,00,AAXX 05124 41926 02950 01805 10360 20230 39981 49994 333 10403 59024 70000==
41926,2024,05,05,15,00,AAXX 05154 41926 02950 01803 10318 20260 30003 40016 333 59010 70000==
41926,2024,05,05,18,00,AAXX 05184 41926 02950 00000 10307 20260 30030 40043 333 59017 70000==
41926,2024,05,05,21,00,AAXX 05214 41926 02950 00000 10290 20260 30018 40031 333 59007 70000==
41926,2024,05,06,00,00,AAXX 06004 41926 02950 10000 10272 20240 30031 40045 80001 333 58020 70000 81080==
41926,2024,05,06,03,00,AAXX 06034 41926 02456 51801 10300 20230 30050 40063 83510 333 20270 58028 70000 83618 85459==
41926,2024,05,06,06,00,AAXX 06064 41926 02456 70000 10345 20260 30042 40055 84510 333 58027 70000 83618 87459==
41926,2024,05,06,09,00,AAXX 06094 41926 02456 61303 10365 20250 30018 40031 84410 333 58031 70000 83618 86459==
41926,2024,05,06,12,00,AAXX 06124 41926 21350 80000 10226 20220 30021 40035 71796 8592/ 333 10372 58040 60247 70240 82708 84615 88458 81930==
41926,2024,05,06,15,00,AAXX 06154 41926 01450 80000 10223 20210 30043 40057 71796 8532/ 333 58040 70264 84616 88458 81930==
41926,2024,05,06,18,00,AAXX 06184 41926 11450 81803 10235 20190 30061 40075 60026 70296 8432/ 333 58031 70264 83617 88458 81930==
41926,2024,05,06,21,00,AAXX 06214 41926 02450 80000 10230 20200 30067 40081 8452/ 333 58049 70264 84617 88458==
41926,2024,05,07,00,00,AAXX 07004 41926 01450 81803 10223 20200 30079 40093 70522 8352/ 333 58048 70264 83617 88458==
41926,2024,05,07,03,00,AAXX 07034 41926 02456 30000 10250 20220 30097 40111 81501 333 20223 58047 70264 81618 83080==
41926,2024,05,07,06,00,AAXX 07064 41926 02956 10000 10308 20210 30099 40112 80001 333 58057 70264 81080==
41926,2024,05,07,09,00,AAXX 07094 41926 02456 71801 10320 20200 30074 40087 83510 333 58056 70264 83618 87459==
41926,2024,05,07,12,00,AAXX 07124 41926 02456 51801 10307 20230 30065 40078 81510 333 10337 58044 70024 81618 85459==
41926,2024,05,07,15,00,AAXX 07154 41926 02450 71802 10280 20230 30080 40094 82510 333 58037 70000 82618 87459==
41926,2024,05,07,18,00,AAXX 07184 41926 02450 80000 10272 20230 30084 40098 8352/ 333 58023 70000 83618 88459==
41926,2024,05,07,21,00,AAXX 07214 41926 01450 81802 10230 20210 30087 40101 70296 8432/ 333 58020 70154 83616 88458 81930==
41926,2024,05,08,00,00,AAXX 08004 41926 21450 81801 10220 20210 30092 40106 70196 81510 333 58013 60158 70154 81618 85459==
41926,2024,05,08,03,00,AAXX 08034 41926 02956 41801 10240 20220 30106 40120 80001 333 20212 58009 70154 84080==
41926,2024,05,08,06,00,AAXX 08064 41926 02456 61801 10290 20210 30094 40108 82530 333 59005 70154 82618 86459==
41926,2024,05,08,09,00,AAXX 08094 41926 02457 51802 10310 20210 30071 40084 85400 333 59003 70154 82618 83825==
41926,2024,05,08,12,00,AAXX 08124 41926 01456 70000 10290 20230 30067 40081 70362 84310 333 10320 58002 70002 83617 87459 81930==
41926,2024,05,08,15,00,AAXX 08154 41926 01450 70000 10266 20250 30080 40094 70262 83510 333 58000 70158 83617 87459==
41926,2024,05,08,18,00,AAXX 08184 41926 11450 80000 10257 20250 30081 40095 69926 70362 8352/ 333 59003 70160 83617 88459==
41926,2024,05,08,21,00,AAXX 08214 41926 02450 50000 10250 20240 30079 40092 82510 333 59009 70004 82618 85459==
41926,2024,05,09,00,00,AAXX 09004 41926 01950 20000 10242 20230 30074 40088 70520 80001 333 59018 70004 82080==
41926,2024,05,09,03,00,AAXX 09034 41926 02956 30000 10283 20230 30088 40102 80001 333 20230 58018 70004 83080==
41926,2024,05,09,06,00,AAXX 09064 41926 02456 61801 10318 20230 30080 40093 83510 333 59026 70004 83617 88459==
41926,2024,05,09,09,00,AAXX 09094 41926 02456 50000 10330 20230 30052 40065 83510 333 59019 70004 83616 84459==
41926,2024,05,09,12,00,AAXX 09124 41926 11450 80000 10240 20220 30080 40094 60012 79596 8692/ 333 10335 59013 70012 84615 88458 82928==
41926,2024,05,09,15,00,AAXX 09154 41926 01450 80000 10233 20220 30066 40080 70296 8532/ 333 59014 70040 84615 88458 81930==
41926,2024,05,09,18,00,AAXX 09184 41926 11450 80000 10233 20220 30084 40098 60036 70296 8532/ 333 58003 70040 84615 88458 81930==
41926,2024,05,09,21,00,AAXX 09214 41926 02450 80000 10228 20220 30080 40094 8532/ 333 58001 70040 84615 88458 81930==
41927,2024,05,03,00,00,AAXX 03004 41927 31950 02202 10240 20230 30025 40039 70500 333 58045 70000=
41927,2024,05,03,06,00,AAXX 03064 41927 32958 02001 10380 20100 30042 40056 333 58040 70000=
41927,2024,05,03,12,00,AAXX 03124 41927 32957 00000 10346 20210 30018 40032 333 10390 58046 70000=
41927,2024,05,04,00,00,AAXX 04004 41927 32956 00000 10256 20250 30038 40052 333 58013 70000=
41927,2024,05,04,06,00,AAXX 04064 41927 32457 61803 10354 20230 30052 40066 83510 333 56490 58010 70000 83617 85459=
41927,2024,05,04,12,00,AAXX 04124 41927 32957 01802 10348 20210 30004 40018 333 10374 59014 70000=
41927,2024,05,05,00,00,AAXX 05004 41927 32450 62201 10278 20270 30014 40029 83510 333 56590 59024 70000 83617 85459=
41927,2024,05,05,06,00,AAXX 05064 41927 32457 51803 10350 20240 30017 40031 85400 333 56400 59035 70000 82618 83825=
41927,2024,05,05,12,00,AAXX 05124 41927 32957 01803 10356 20220 39980 49994 333 10356 59024 70000=
41927,2024,05,05,18,00,AAXX 05184 41927 32956 01801 10302 20250 30032 40047 333 58014 70000=
41927,2024,05,06,00,00,AAXX 06004 41927 32456 51801 10252 20210 30036 40051 82510 333 56490 58022 70000 82618 85459=
41927,2024,05,06,06,00,AAXX 06064 41927 32457 71601 10315 20250 30050 40065 83510 333 56490 58033 70000 83617 87459=
41927,2024,05,06,12,00,AAXX 06124 41927 31457 81802 10267 20210 30038 40053 71792 8432/ 333 10320 56499 58058 70000 83617 81929 88458=
41927,2024,05,07,00,00,AAXX 07004 41927 32456 62101 10220 20210 30082 40097 83510 333 56690 58046 70010 83618 86459=
41927,2024,05,07,06,00,AAXX 07064 41927 32458 30501 10300 20200 30101 40116 83500 333 56200 58051 70010=
41927,2024,05,07,12,00,AAXX 07124 41927 32457 51501 10305 20220 30068 40083 82510 333 10330 56390 58030 70010 82618 85459=
41927,2024,05,07,18,00,AAXX 07184 41927 32956 31601 10250 20220 30088 40103 83010 333 56090 58036 70000 83459=
41927,2024,05,08,00,00,AAXX 08004 41927 11450 81504 10212 20210 30098 40113 60287 70396 8452/ 333 56499 58016 70282 84617 88458=
41927,2024,05,08,06,00,AAXX 08064 41927 32457 51801 10284 20210 30096 40110 82510 333 56490 59005 70282 82618 84459=
41927,2024,05,08,12,00,AAXX 08124 41927 32456 70000 10294 20210 30066 40080 83510 333 10334 56490 59002 70282 83617 86459=
41927,2024,05,08,18,00,AAXX 08184 41927 32450 61801 10250 20230 30092 40106 83510 333 56490 58004 70282 83617 85459=
41927,2024,05,09,00,00,AAXX 09004 41927 32450 21801 10235 20230 30078 40092 82500 333 56400 59020 70000 82617=
41927,2024,05,09,06,00,AAXX 09064 41927 32456 81801 10310 20210 30082 40096 8452/ 333 56499 59014 70000 84616 88458=
41927,2024,05,09,12,00,AAXX 09124 41927 31456 83202 10240 20210 30070 40084 71792 8592/ 333 10335 56799 58004 70000 83616 82928 88458=
41927,2024,05,09,18,00,AAXX 09184 41927 NIL=
41929,2024,05,03,00,00,AAXX 03004 41929 01950 00000 10266 20240 30032 40041 70500 333 58037 70000==
41929,2024,05,03,03,00,AAXX 03034 41929 02957 00000 10324 20240 30059 40068 333 20262 58038 70000==
41929,2024,05,03,06,00,AAXX 03064 41929 02958 01802 10368 20140 30053 40062 333 58041 70000==
41929,2024,05,03,09,00,AAXX 03094 41929 02958 01304 10387 20200 30028 40037 333 58040 70000==
41929,2024,05,03,12,00,AAXX 03124 41929 02957 00000 10349 20210 30026 40035 333 10391 58041 70000==
41929,2024,05,03,15,00,AAXX 03154 41929 02957 00000 10313 20240 30051 40060 333 58046 70000==
41929,2024,05,03,18,00,AAXX 03184 41929 02957 00000 10296 20270 30047 40056 333 58026 70000==
41929,2024,05,03,21,00,AAXX 03214 41929 02956 60000 10296 20270 30050 40059 83510 333 58024 70000 83618 85462==
41929,2024,05,04,00,00,AAXX 04004 41929 02456 40000 10285 20280 30054 40063 83530 333 58022 70000 83618==
41929,2024,05,04,03,00,AAXX 04034 41929 02457 50000 10324 20250 30076 40085 85500 333 20279 58017 70000 85618==
41929,2024,05,04,06,00,AAXX 04064 41929 02458 21802 10353 20230 30061 40070 82500 333 58008 70000 82618==
41929,2024,05,04,09,00,AAXX 04094 41929 02458 61305 10367 20220 30028 40037 84430 333 58000 70000 82618==
41929,2024,05,04,12,00,AAXX 04124 41929 02458 51304 10347 20230 30017 40026 83530 333 10372 59009 70000 83618 83365==
41929,2024,05,04,15,00,AAXX 04154 41929 02957 01504 10315 20260 30025 40034 333 59001 70000==
41929,2024,05,04,18,00,AAXX 04184 41929 02957 02103 10297 20270 30020 40029 333 59027 70000==
41929,2024,05,04,21,00,AAXX 04214 41929 02956 51105 10297 20270 30024 40033 83510 333 59026 70000 83618 84462==
41929,2024,05,05,00,00,AAXX 05004 41929 02456 50000 10290 20270 30023 40032 83510 333 59031 70000 83618 84462==
41929,2024,05,05,03,00,AAXX 05034 41929 02457 51804 10330 20230 30036 40045 83510 333 20284 59040 70000 83618 84462==
41929,2024,05,05,06,00,AAXX 05064 41929 02458 51805 10354 20240 30026 40035 83510 333 59035 70000 83618 84462==
41929,2024,05,05,09,00,AAXX 05094 41929 32458 41804 10372 20210 30001 40010 84410 333 56990 59027 70000 82618=
41929,2024,05,05,12,00,AAXX 05124 41929 02958 02104 10355 20240 39994 40003 333 10373 59023 70000==
41929,2024,05,05,15,00,AAXX 05154 41929 02457 21804 10315 20260 30012 40024 82500 333 59013 70000==
41929,2024,05,05,18,00,AAXX 05184 41929 02457 60915 10271 20200 30055 40064 84510 333 58035 70000 84618 83462==
41929,2024,05,05,21,00,AAXX 05214 41929 02456 51306 10271 20200 30050 40059 83510 333 58026 70000 83618 83462==
41929,2024,05,06,00,00,AAXX 06004 41929 02456 41304 10258 20200 30045 40054 83510 333 58022 70000 83618==
41929,2024,05,06,03,00,AAXX 06034 41929 02457 61802 10315 20270 30062 40071 83510 333 20248 58026 70000 83618 85462==
41929,2024,05,06,06,00,AAXX 06064 41929 02456 71802 10330 20260 30057 40066 83510 333 58031 70000 83618 87462==
41929,2024,05,06,09,00,AAXX 06094 41929 01456 80912 10270 20230 30041 40050 71796 333 58040 70012 84616 88460 81930==
41929,2024,05,06,12,00,AAXX 06124 41929 01456 81305 10248 20230 30031 40040 79596 8592/ 333 10344 58037 70016 84616 88460 81930==
41929,2024,05,06,15,00,AAXX 06154 41929 01456 72904 10226 20210 30079 40088 71792 84310 333 58067 70016 83616 86460 81930==
41929,2024,05,06,18,00,AAXX 06184 41929 21456 61804 10230 20210 30096 40105 71796 8592/ 333 58041 60035 70050 84616 88460 81930==
41929,2024,05,06,21,00,AAXX 06214 41929 01456 81806 10230 20210 30094 40103 70296 8431/ 333 58044 70055 83618 88462 81930==
41929,2024,05,07,00,00,AAXX 07004 41929 11456 80000 10225 20220 30094 40103 69956 70296 8431/ 333 58049 70055 83618 88462 81930==
41929,2024,05,07,03,00,AAXX 07034 41929 02/57 51802 10274 20200 30108 40117 85040 333 20215 58046 70055 85365==
41929,2024,05,07,06,00,AAXX 07064 41929 02457 40902 10314 20200 30104 40113 84500 333 58047 70055 84618==
41929,2024,05,07,09,00,AAXX 07094 41929 02457 51903 10330 20220 30082 40091 84470 333 58041 70043 82618==
41929,2024,05,07,12,00,AAXX 07124 41929 02457 51802 10304 20220 30078 40087 84510 333 10332 58047 70039 84618==
41929,2024,05,07,15,00,AAXX 07154 41929 02457 21802 10270 20230 30089 40098 82500 333 58010 70039 82618==
41929,2024,05,07,18,00,AAXX 07184 41929 02457 50000 10265 20240 30094 40103 83570 333 59002 70005 83618==
41929,2024,05,07,21,00,AAXX 07214 41929 01456 80206 10265 20240 30095 40104 71722 8431/ 333 58001 70000 83618 88462 81930==
41929,2024,05,08,00,00,AAXX 08004 41929 21456 80105 10221 20210 30096 40105 79596 8592/ 333 58002 60287 70283 84616 88459 81930==
41929,2024,05,08,03,00,AAXX 08034 41929 02456 81804 10232 20200 30109 40118 8451/ 333 20210 58001 70283 84618 88462==
41929,2024,05,08,06,00,AAXX 08064 41929 02457 51802 10295 20220 30102 40111 82580 333 59002 70283 82618 84365==
41929,2024,05,08,09,00,AAXX 08094 41929 02457 70904 10297 20220 30085 40094 84410 333 58003 70283 83618 86462==
41929,2024,05,08,12,00,AAXX 08124 41929 02457 50902 10292 20230 30075 40084 84430 333 10302 59003 70283 82618 84365==
41929,2024,05,08,15,00,AAXX 08154 41929 02956 00000 10261 20240 30090 40099 333 59001 70283==
41929,2024,05,08,18,00,AAXX 08184 41929 02456 50000 10253 20230 30088 40097 83580 333 59006 70283 83618 84365==
41929,2024,05,08,21,00,AAXX 08214 41929 02456 50000 10253 20230 30083 40092 83580 333 59012 70283 83618 84365==
41929,2024,05,09,00,00,AAXX 09004 41929 02/56 50000 10240 20230 30080 40089 85010 333 59016 70000 85462==
41929,2024,05,09,03,00,AAXX 09034 41929 02456 20000 10304 20200 30096 40105 82400 333 20227 59008 70000 81618==
41929,2024,05,09,06,00,AAXX 09064 41929 02457 70000 10316 20220 30094 40103 83510 333 59008 70000 83618 86462==
41929,2024,05,09,09,00,AAXX 09094 41929 02457 61304 10330 20220 30064 40073 84410 333 59021 70000 82618 85462==
41929,2024,05,09,12,00,AAXX 09124 41929 01456 81307 10225 20210 30078 40087 79596 8592/ 333 10334 58003 70140 84616 88458 81930==
41929,2024,05,09,15,00,AAXX 09154 41929 01456 52804 10231 20210 30078 40087 70196 333 59012 70172 83510 83618 84462==
41929,2024,05,09,18,00,AAXX 09184 41929 11/56 41304 10231 20220 30096 40105 60036 70196 84010 333 58008 70172 84462==
41929,2024,05,09,21,00,AAXX 09214 41929 02/56 41305 10231 20220 30093 40102 84010 333 59010 70172 84462==
41933,2024,05,03,00,00,AAXX 03004 41933 21/40 20000 10228 20220 30043 40052 70162 82010 333 58047 60018 70238 82456==
41933,2024,05,03,03,00,AAXX 03034 41933 02950 00000 10284 20220 30064 40073 333 20224 58036 70238==
41933,2024,05,03,06,00,AAXX 03064 41933 02456 61802 10325 20270 30055 40064 83510 333 58045 70038 83618 86459==
41933,2024,05,03,09,00,AAXX 03094 41933 02456 51805 10345 20270 30031 40040 83510 333 58041 70238 83618 85458==
41933,2024,05,03,12,00,AAXX 03124 41933 01350 82005 10290 20190 30038 40046 79596 8592/ 333 10346 58046 70000 82708 83615 88456 81928==
41933,2024,05,03,15,00,AAXX 03154 41933 01956 01903 10266 20240 30056 40065 70196 333 58025 70387==
41933,2024,05,03,18,00,AAXX 03184 41933 11456 30000 10250 20240 30059 40068 60376 71396 83300 333 58035 70375 81618 83827 81928==
41933,2024,05,03,21,00,AAXX 03214 41933 02456 60604 10260 20230 30053 40062 85420 333 58023 70365 84618 85458==
41933,2024,05,04,00,00,AAXX 04004 41933 01450 30000 10254 20230 30068 40077 70521 82540 333 58025 70365 82618 83362==
41933,2024,05,04,03,00,AAXX 04034 41933 02956 31502 10295 20250 30085 40093 83410 333 20240 58021 70365 83362==
41933,2024,05,04,06,00,AAXX 04064 41933 02456 41703 10325 20260 30069 40078 84800 333 58014 70365 81618 83827==
41933,2024,05,04,09,00,AAXX 04094 41933 02456 51702 10344 20240 30037 40045 82530 333 58006 70365 82618 85362==
41933,2024,05,04,12,00,AAXX 04124 41933 02456 61802 10318 20250 30032 40040 82542 333 10350 59006 70365 82618 85362==
41933,2024,05,04,15,00,AAXX 04154 41933 02456 51802 10290 20270 30036 40044 82530 333 59020 70000 82618 85362==
41933,2024,05,04,18,00,AAXX 04184 41933 02456 51802 10280 20260 30031 40039 82530 333 59028 70000 82618 85362==
41933,2024,05,04,21,00,AAXX 04214 41933 02456 61902 10270 20250 30048 40056 83520 333 59005 70000 83618 86458==
41933,2024,05,05,00,00,AAXX 05004 41933 21450 60000 10220 20210 30033 40042 70296 82520 333 59035 60317 70310 82618 86458==
41933,2024,05,05,03,00,AAXX 05034 41933 02456 61602 10276 20240 30055 40064 86800 333 20219 59030 70310 83618 83827==
41933,2024,05,05,06,00,AAXX 05064 41933 02456 61605 10320 20250 30039 40048 86800 333 59030 70310 83618 83827==
41933,2024,05,05,09,00,AAXX 05094 41933 32456 61908 10326 20250 30014 40022 86800 333 56500 59023 70310 83618 83827=
41933,2024,05,05,12,00,AAXX 05124 41933 02456 32206 10310 20250 30008 40016 83800 333 10333 59024 70310 81618 83827==
41933,2024,05,05,18,00,AAXX 05184 41933 21450 20000 10220 20200 30063 40072 70196 82500 333 58032 60045 70346 82616==
41933,2024,05,05,21,00,AAXX 05214 41933 01450 30000 10220 20210 30049 40058 70390 82540 333 58001 70346 81616 83362==
41933,2024,05,06,00,00,AAXX 06004 41933 01450 30000 10220 20210 30053 40062 70390 82540 333 58020 70036 81618 83362==
41933,2024,05,06,03,00,AAXX 06034 41933 02456 40000 10280 20220 30073 40081 84400 333 20210 58018 70036 83618==
41933,2024,05,06,06,00,AAXX 06064 41933 01350 80000 10240 20220 30075 40084 79596 8592/ 333 58036 70110 82708 83615 88456 81928==
41933,2024,05,06,09,00,AAXX 06094 41933 01350 80000 10225 20210 30062 40071 79596 8592/ 333 58048 70186 82708 83615 80128 88456==
41933,2024,05,06,12,00,AAXX 06124 41933 21350 80000 10215 20200 30039 40048 79522 8592/ 333 10290 58031 60045 70186 82708 83615 88458 81928==
41933,2024,05,06,15,00,AAXX 06154 41933 01350 80605 10215 20210 30071 40080 79596 8632/ 333 58008 70226 83707 83827 88456 81928==
41933,2024,05,06,18,00,AAXX 06184 41933 01350 81908 10213 20200 30105 40113 79596 8692/ 333 58042 70218 82707 83827 88456 81928==
41933,2024,05,06,21,00,AAXX 06214 41933 01356 81805 10215 20205 30053 40062 72996 85621 333 58004 70226 82708 83616 88458==
41933,2024,05,07,00,00,AAXX 07004 41933 21450 70000 10218 20210 30096 40104 70596 82570 333 58043 69988 70226 82618 85458==
41933,2024,05,07,03,00,AAXX 07034 41933 02456 50000 10265 20210 30109 40117 82530 333 20214 58036 70226 82618 85362==
41933,2024,05,07,06,00,AAXX 07064 41933 02956 00000 10304 20190 30102 40110 333 58027 70116==
41933,2024,05,07,09,00,AAXX 07094 41933 02456 30000 10315 20210 30080 40088 81540 333 58018 70076 81618 83362==
41933,2024,05,07,12,00,AAXX 07124 41933 02456 61802 10290 20230 30079 40088 82542 333 10320 58040 70076 82618 84362==
41933,2024,05,07,15,00,AAXX 07154 41933 02456 20000 10265 20260 30090 40099 82500 333 58019 70036 82618==
41933,2024,05,07,18,00,AAXX 07184 41933 01450 20000 10255 20250 30095 40104 70500 82500 333 59010 70008 82618==
41933,2024,05,07,21,00,AAXX 07214 41933 01450 60000 10250 20240 30096 40105 70520 83520 333 58043 70000 83618 86458==
41933,2024,05,08,00,00,AAXX 08004 41933 01435 62705 10240 20230 30100 40109 70522 83520 333 58005 70000 83618 86458==
41933,2024,05,08,03,00,AAXX 08034 41933 41460 80000 10245 20220 30111 40120 70362 8452/ 333 20230 58002 84617 88458==
41933,2024,05,08,06,00,AAXX 08064 41933 11460 72702 10280 20190 30103 40112 60006 70162 84530 333 58001 84618 85362==
41933,2024,05,08,09,00,AAXX 08094 41933 42456 80000 10282 20210 30084 40092 83457 333 58004 83618 84458 85362==
41933,2024,05,08,12,00,AAXX 08124 41933 42456 60000 10272 20210 30082 40090 82541 333 10289 58003 82618 84362==
41933,2024,05,08,15,00,AAXX 08154 41933 42956 00000 10250 20230 30091 40100 83040 333 58001 83362==
41933,2024,05,08,18,00,AAXX 08184 41933 42950 00000 10240 20230 30086 40095 333 59009==
41933,2024,05,08,21,00,AAXX 08214 41933 41440 20000 10234 20220 30077 40085 70500 82500 333 59019 82616==
41933,2024,05,09,00,00,AAXX 09004 41933 41435 20000 10230 20220 30075 40083 70500 82500 333 59025 82616==
41933,2024,05,09,03,00,AAXX 09034 41933 01440 20000 10285 20230 30094 40102 70500 82500 333 20229 59017 70000 82618==
41933,2024,05,09,06,00,AAXX 09064 41933 01450 52002 10315 20220 30089 40098 70520 82530 333 59014 70000 82618 85362==
41933,2024,05,09,09,00,AAXX 09094 41933 01450 41802 10325 20230 30063 40072 70520 84400 333 59021 70000 83618==
41933,2024,05,09,12,00,AAXX 09124 41933 01450 40000 10305 20240 30054 40063 70522 84400 333 10326 59028 70000 83618==
41933,2024,05,09,15,00,AAXX 09154 41933 01350 82804 10284 20230 30080 40089 70522 8662/ 333 59011 70000 83708 83616 88457==
41933,2024,05,09,18,00,AAXX 09184 41933 02456 40000 10260 20230 30094 40103 82530 333 58008 70000 82618 83362==
41933,2024,05,09,21,00,AAXX 09214 41933 02456 20000 10256 20230 30075 40084 82500 333 59002 70000 82618==
41936,2024,05,03,00,00,AAXX 03004 41936 01910 02703 10276 20260 30027 40034 70500 333 58034 70000==
41936,2024,05,03,03,00,AAXX 03034 41936 01930 02104 10332 20260 30055 40065 70500 333 20274 58037 70000==
41936,2024,05,03,06,00,AAXX 03064 41936 01950 03003 10398 20140 30047 40054 70500 333 58036 70000==
41936,2024,05,03,09,00,AAXX 03094 41936 01950 02703 10418 20110 30026 40033 70500 333 58039 70000==
41936,2024,05,03,12,00,AAXX 03124 41936 01950 03003 10378 20200 30022 40028 70500 333 10418 58037 70000==
41936,2024,05,03,15,00,AAXX 03154 41936 01950 00000 10300 20200 30041 40048 70500 333 58036 70000==
41936,2024,05,03,18,00,AAXX 03184 41936 01950 02306 10304 20260 30046 40053 70500 333 58032 70000==
41936,2024,05,03,21,00,AAXX 03214 41936 01940 10000 10294 20270 30041 40048 70500 333 58041 70000==
41936,2024,05,04,00,00,AAXX 04004 41936 01416 40000 10284 20260 30050 40057 70511 82530 333 58023 70000 82615 83362==
41936,2024,05,04,03,00,AAXX 04034 41936 01430 41803 10324 20260 30076 40083 70511 83530 333 20276 58021 70000 83615 82362==
41936,2024,05,04,06,00,AAXX 04064 41936 01450 32308 10370 20230 30053 40060 70511 81530 333 58006 70000 81615 82362==
41936,2024,05,04,09,00,AAXX 04094 41936 01450 42211 10376 20210 30025 40032 70511 82530 333 59001 70000 82615 83362==
41936,2024,05,04,12,00,AAXX 04124 41936 333 10388 59008 70000 81615==
41936,2024,05,04,15,00,AAXX 04154 41936 01450 22606 10322 20250 30023 40030 70511 81530 333 59018 70000 81615==
41936,2024,05,04,18,00,AAXX 04184 41936 01450 22607 10300 20280 30023 40030 70511 81530 333 59023 70000 81615==
41936,2024,05,04,21,00,AAXX 04214 41936 01450 22605 10290 20260 30012 40019 70511 81530 333 59029 70000 81615==
41936,2024,05,05,00,00,AAXX 05004 41936 01420 22003 10284 20260 30016 40024 70511 81530 333 59033 70000 81615==
41936,2024,05,05,03,00,AAXX 05034 41936 41930 52112 10326 20282 30029 40035 70511 82530 333 59048 82615 83362==
41936,2024,05,05,06,00,AAXX 05064 41936 01950 42213 10380 20250 30023 40030 70511 82530 333 59030 70000 82615 83362==
41936,2024,05,05,09,00,AAXX 05094 41936 01/50 22112 10390 20230 39999 40006 70511 82030 333 59026 70000 82362==
41936,2024,05,05,12,00,AAXX 05124 41936 01950 02112 10350 20250 39993 40000 70511 333 10394 59020 70000==
41936,2024,05,05,15,00,AAXX 05154 41936 02/50 22112 10310 20250 30013 40020 82030 333 59010 70000 82362==
41936,2024,05,05,18,00,AAXX 05184 41936 01/50 22311 10300 20250 30034 40041 70510 82030 333 58011 70000 82362==
41936,2024,05,05,21,00,AAXX 05214 41936 01450 42011 10292 20270 30023 40030 70510 82530 333 58011 70000 82615 83362==
41936,2024,05,06,00,00,AAXX 06004 41936 01/20 22003 10288 20268 30027 40034 70510 82030 333 58010 70000 82362==
41936,2024,05,06,03,00,AAXX 06034 41936 01925 70912 10324 20270 30050 40057 70522 85530 333 20286 59003 70000 84710 84362==
41936,2024,05,06,06,00,AAXX 06064 41936 01940 51710 10354 20250 30046 40053 70522 84530 333 70000 82610 83615==
41936,2024,05,06,09,00,AAXX 06094 41936 01440 62712 10368 20250 30023 40030 70522 84630 333 58024 70000 82610 83615==
41936,2024,05,06,12,00,AAXX 06124 41936 01316 83312 10230 20200 30040 40047 79592 8792/ 333 10376 58027 70000 86706 83312 88360 81930==
41936,2024,05,06,15,00,AAXX 06154 41936 01314 83308 10214 20200 30059 40066 79592 8792/ 333 58046 70240 86706 83312 88260 81930==
41936,2024,05,06,18,00,AAXX 06184 41936 01325 82116 10226 20210 30077 40084 79596 87921 333 58043 70250 85706 83312 88260 81930==
41936,2024,05,06,21,00,AAXX 06214 41936 01330 70706 10236 20210 30066 40073 70596 85620 333 58043 70250 83708 83615 82660==
41936,2024,05,07,00,00,AAXX 07004 41936 01320 80703 10228 20220 30087 40094 70596 85620 333 58060 70000 84707 83615 87260==
41936,2024,05,07,03,00,AAXX 07034 41936 01440 43606 10268 20210 30101 40108 70522 82530 333 20212 58058 70250 82615 83362==
41936,2024,05,07,06,00,AAXX 07064 41936 01/50 10406 10312 20220 30097 40104 70521 81030 333 58051 70250 81362==
41936,2024,05,07,09,00,AAXX 07094 41936 01450 41604 10336 20230 30076 40083 70521 82530 333 58053 70250 82615 83362==
41936,2024,05,07,12,00,AAXX 07124 41936 01450 41005 10308 20240 30068 40075 70521 82530 333 10346 58028 70250 82615 83362==
41936,2024,05,07,15,00,AAXX 07154 41936 42450 60905 10290 20240 30080 40087 58021 85362==
41936,2024,05,07,18,00,AAXX 07184 41936 01440 71306 10280 20240 30091 40098 70522 83630 333 58015 70000 81710 83615 85362==
41936,2024,05,07,21,00,AAXX 07214 41936 01310 83606 10218 20210 30073 40080 79599 8562/ 333 58007 70300 85706 83612 88360 81930==
41936,2024,05,08,00,00,AAXX 08004 41936 01416 61303 10214 20200 30094 40002 70592 84630 333 58007 70340 82710 83615 85362==
41936,2024,05,08,03,00,AAXX 08034 41936 01440 61804 10254 20210 30106 40113 70522 83530 333 20210 58005 70340 83615 84362==
41936,2024,05,08,06,00,AAXX 08064 41936 01450 31907 10302 20250 30098 40105 70522 82530 333 58001 70340 82615 82362==
41936,2024,05,08,09,00,AAXX 08094 41936 01450 71806 10316 20230 30077 40084 70522 84630 333 58001 70340 83710 83615 85362==
41936,2024,05,08,12,00,AAXX 08124 41936 01450 62306 10306 20230 30070 40077 70522 83530 333 10318 58002 70340 83615 83362==
41936,2024,05,08,15,00,AAXX 08154 41936 01450 32203 10264 20230 30085 40092 70521 82530 333 58005 70340 82615 82362==
41936,2024,05,08,18,00,AAXX 08184 41936 01450 31303 10260 20230 30097 40104 70511 82530 333 58006 70340 82615 82362==
41936,2024,05,08,21,00,AAXX 08214 41936 01450 30000 10256 20240 30085 40092 70511 82530 333 58012 70040 82615 82362==
41936,2024,05,09,00,00,AAXX 09004 41936 01416 30000 10242 20230 30077 40084 70511 82530 333 59017 70000 82615 82362==
41936,2024,05,09,03,00,AAXX 09034 41936 01430 41405 10282 20240 30088 40095 70511 82530 333 20240 59018 70000 82615 83362==
41936,2024,05,09,06,00,AAXX 09064 41936 01440 61405 10328 20230 30088 40095 70511 82830 333 59010 70000 82615 85362==
41936,2024,05,09,09,00,AAXX 09094 41936 01440 61706 10344 20210 30058 40065 70522 83530 333 59020 70000 83615 83362==
41936,2024,05,09,12,00,AAXX 09124 41936 21330 83609 10348 20210 30070 40077 79592 8792/ 333 58000 60017 70010 85700 83612 88360 81930==
41936,2024,05,09,15,00,AAXX 09154 41936 01330 81906 10230 20210 30081 40088 79661 8552/ 333 59004 70010 83707 83615 87260==
41936,2024,05,09,18,00,AAXX 09184 41936 01330 82106 10226 20220 30082 40089 70596 8562/ 333 59015 70000 83607 83615 86260==
41936,2024,05,09,21,00,AAXX 09214 41936 01420 60000 10226 20210 30073 40080 70522 83830 333 59012 70010 83615 85362==
41938,2024,05,03,00,00,AAXX 03004 41938 31940 00000 10270 20250 30031 40035 70510 333 58029 70000=
41938,2024,05,03,06,00,AAXX 03064 41938 32457 22701 10370 20190 30049 40053 82400 333 56500 58036 70000 81618=
41938,2024,05,03,12,00,AAXX 03124 41938 32957 32002 10344 20250 30028 40032 83400 333 10388 56500 58033 70000 82617=
41938,2024,05,03,18,00,AAXX 03184 41938 32956 02002 10296 20280 30049 40052 333 58030 70000=
41938,2024,05,04,00,00,AAXX 04004 41938 32450 60000 10281 20270 30054 40058 82510 333 56490 58023 70000 82617 86460=
41938,2024,05,04,06,00,AAXX 04064 41938 32457 21803 10354 20220 30063 40067 81510 333 56490 58014 70000 81618=
41938,2024,05,04,12,00,AAXX 04124 41938 32456 71501 10346 20250 30024 40028 82411 333 10377 56599 59004 70000 81618 85460=
41938,2024,05,04,18,00,AAXX 04184 41938 32456 22004 10296 20260 30028 40032 82501 333 56409 59021 70000 82618=
41938,2024,05,05,00,00,AAXX 05004 41938 31445 71801 10283 20260 30029 40033 70521 82411 333 56599 59025 70000 81618 85460=
41938,2024,05,05,06,00,AAXX 05064 41938 32456 61805 10356 20240 30030 40034 83410 333 56490 59033 70000 81618 83825 85460=
41938,2024,05,05,12,00,AAXX 05124 41938 32456 31804 10330 20250 30013 40017 83400 333 10370 56400 59011 70000 82618=
41938,2024,05,05,18,00,AAXX 05184 41938 32456 20000 10300 20260 30039 40043 82500 333 56900 58011 70000 82618=
41938,2024,05,06,00,00,AAXX 06004 41938 32450 20000 10260 20240 30043 40047 82501 333 56909 58014 70000 82618=
41938,2024,05,06,06,00,AAXX 06064 41938 32456 61806 10355 20250 30045 40049 84410 333 56490 58015 70000 83618=
41938,2024,05,06,12,00,AAXX 06124 41938 11330 81306 10226 20225 30051 40055 60084 79521 8592/ 333 10360 56299 58038 70082 82708 84612 81926 88458=
41938,2024,05,06,18,00,AAXX 06184 41938 11330 81809 10210 20210 30099 40103 60529 79596 8592/ 333 56499 58060 70602 81708 84614 81926 88458=
41938,2024,05,07,00,00,AAXX 07004 41938 11450 70000 10218 20210 30089 40093 60036 70196 83310 333 56890 58046 70632 82616 81927 86460=
41938,2024,05,07,06,00,AAXX 07064 41938 32456 51502 10298 20230 30099 40103 83510 333 56490 58054 70632 83618 83460=
41938,2024,05,07,12,00,AAXX 07124 41938 32956 60000 10295 20240 30075 40079 86010 333 10315 56090 58024 70550 86460=
41938,2024,05,07,18,00,AAXX 07184 41938 32950 40000 10260 20240 30094 40098 84010 333 56090 59005 70030 84460=
41938,2024,05,08,00,00,AAXX 08004 41938 11430 81602 10210 20210 30095 40099 60187 79596 8492/ 333 56699 58006 70180 84615 81926 88458=
41938,2024,05,08,06,00,AAXX 08064 41938 11456 61802 10296 20210 30100 40103 69966 70296 82510 333 56490 58001 70186 82617 86460=
41938,2024,05,08,12,00,AAXX 08124 41938 32456 70000 10290 20240 30078 40082 81471 333 10310 56499 58003 70186 81618 85460=
41938,2024,05,08,18,00,AAXX 08184 41938 31940 00000 10247 20230 30087 40091 70520 333 59007 70186=
41938,2024,05,09,00,00,AAXX 09004 41938 31920 70000 10243 20230 30084 40088 71021 87070 333 56090 59011 70006 86460 84362=
41938,2024,05,09,06,00,AAXX 09064 41938 32456 60000 10323 20210 30090 40094 81410 333 56590 59010 70000 81618 86460=
41938,2024,05,09,12,00,AAXX 09124 41938 11450 70000 10250 20230 30061 40065 60014 79596 85910 333 10330 56990 59017 70012 84618 84459=
41938,2024,05,09,18,00,AAXX 09184 41938 32450 40000 10240 20220 30091 40095 84510 333 56990 58004 70012 84618=
41939,2024,05,03,00,00,AAXX 03004 41939 02957 00000 10252 20210 30043 40051 333 58045 70000==
41939,2024,05,03,03,00,AAXX 03034 41939 02960 00000 10318 20260 30066 40074 333 20248 58051 70000==
41939,2024,05,03,06,00,AAXX 03064 41939 02460 30000 10353 20250 30058 40066 82530 333 58048 70000 82618==
41939,2024,05,03,09,00,AAXX 03094 41939 02960 00000 10366 20260 30038 40046 333 58043 70000==
41939,2024,05,03,12,00,AAXX 03124 41939 02956 00000 10333 20240 30045 40053 333 10373 58045 70000==
41939,2024,05,03,15,00,AAXX 03154 41939 02940 00000 10310 20270 30055 40063 333 58050 70000==
41939,2024,05,03,18,00,AAXX 03184 41939 02940 00000 10294 20260 30068 40076 333 58057 70000==
41939,2024,05,03,21,00,AAXX 03214 41939 02956 00000 10272 20250 30074 40082 333 58054 70000==
41939,2024,05,04,00,00,AAXX 04004 41939 02957 40000 10285 20280 30072 40080 82530 333 58074 70000 82618 83365==
41939,2024,05,04,03,00,AAXX 04034 41939 02460 40000 10322 20260 30090 40098 82530 333 20272 58024 70000 82618==
41939,2024,05,04,06,00,AAXX 04064 41939 02458 20000 10345 20260 30088 40096 82500 333 58030 70000 82618==
41939,2024,05,04,09,00,AAXX 04094 41939 02458 30000 10362 20220 30072 40080 83500 333 58034 70000 83618==
41939,2024,05,04,12,00,AAXX 04124 41939 02456 40000 10330 20270 30030 40038 83530 333 10375 59015 70000 83617==
41939,2024,05,04,15,00,AAXX 04154 41939 02450 30000 10302 20260 30042 40050 82530 333 59013 70000 82618==
41939,2024,05,04,21,00,AAXX 04214 41939 02940 00000 10275 20260 30065 40073 333 59009 70000==
41939,2024,05,05,00,00,AAXX 05004 41939 02956 00000 10270 20260 30068 40076 333 59004 70000==
41939,2024,05,05,03,00,AAXX 05034 41939 02458 31802 10323 20260 30048 40056 83500 333 20266 59042 70000 83618==
41939,2024,05,05,06,00,AAXX 05064 41939 42460 21304 10360 20240 30033 40041 59055 82618==
41939,2024,05,05,09,00,AAXX 05094 41939 02460 31303 10358 20250 30013 40020 83530 333 59045 70000 82618==
41939,2024,05,05,12,00,AAXX 05124 41939 02460 40000 10325 20260 30012 40020 82530 333 20368 59018 70000 82618 83365==
41939,2024,05,05,15,00,AAXX 05154 41939 02457 41302 10300 20260 30030 40038 82530 333 59012 70000 82618 83365==
41939,2024,05,05,18,00,AAXX 05184 41939 02456 41303 10254 20200 30070 40078 82530 333 58014 70000 82618 83365==
41939,2024,05,06,00,00,AAXX 06004 41939 02456 40000 10257 20240 30059 40067 83530 333 58007 70000 83617==
41939,2024,05,06,03,00,AAXX 06034 41939 02457 50000 10310 20260 30069 40077 83530 333 20235 58021 70000 83617 83362==
41939,2024,05,06,06,00,AAXX 06064 41939 02457 50000 10336 20260 30068 40075 84530 333 58035 70000 84617 83360==
41939,2024,05,06,09,00,AAXX 06094 41939 01440 70000 10232 20210 30041 40049 79596 84910 333 58028 70044 83616 87459==
41939,2024,05,06,12,00,AAXX 06124 41939 21330 80000 10220 20220 30033 40041 79596 8692/ 333 10346 58021 60699 70686 84615 88457 81928==
41939,2024,05,06,15,00,AAXX 06154 41939 01330 80000 10218 20210 30071 40079 79596 8692/ 333 58041 70778 84615 88457 81928==
41939,2024,05,06,18,00,AAXX 06184 41939 21330 80000 10215 20215 30088 40096 79596 8692/ 333 58046 60249 70922 84616 88457 81928==
41939,2024,05,06,21,00,AAXX 06214 41939 01456 70000 10222 20210 30110 40118 72162 83510 333 70968 83617 86459==
41939,2024,05,07,00,00,AAXX 07004 41939 21456 80000 10220 20210 30096 40104 70362 8352/ 333 58037 60058 70968 83617 88458==
41939,2024,05,07,06,00,AAXX 07064 41939 02458 30000 10302 20230 30103 40110 83530 333 58035 70968 83618==
41939,2024,05,07,09,00,AAXX 07094 41939 02458 60000 10310 20220 30086 40094 82510 333 58045 70924 82617 86460==
41939,2024,05,07,12,00,AAXX 07124 41939 02456 50000 10290 20240 30085 40093 83510 333 10315 58052 70282 82617 85460==
41939,2024,05,07,15,00,AAXX 07154 41939 02956 00000 10264 20240 30097 40106 333 58026 70190==
41939,2024,05,07,18,00,AAXX 07184 41939 02956 00000 10260 20240 30109 40117 333 58021 70046==
41939,2024,05,07,21,00,AAXX 07214 41939 02440 60000 10234 20220 30010 40018 83510 333 58020 70000 83618 85459==
41939,2024,05,08,00,00,AAXX 08004 41939 01450 80000 10220 20220 30000 40008 76162 8352/ 333 58032 70180 83616 88458==
41939,2024,05,08,03,00,AAXX 08034 41939 01456 80000 10228 20220 30122 40130 70262 8352/ 333 20215 58011 70203 83617 88459==
41939,2024,05,08,06,00,AAXX 08064 41939 11457 50000 10302 20220 30101 40109 60036 70162 82530 333 59002 70203 82617 84360==
41939,2024,05,08,09,00,AAXX 08094 41939 01458 40000 10290 20220 30085 40093 70161 82530 333 59001 70215 82618 83360==
41939,2024,05,08,12,00,AAXX 08124 41939 02458 50000 10277 20240 30082 40090 83530 333 10305 59003 70215 83617 83364==
41939,2024,05,08,15,00,AAXX 08154 41939 02456 50000 10260 20240 30093 40101 83530 333 59004 70215 83617 83365==
41939,2024,05,08,18,00,AAXX 08184 41939 02456 40000 10250 20230 30110 40118 82530 333 59004 70215 82618 83365==
41939,2024,05,08,21,00,AAXX 08214 41939 02450 60000 10240 20230 30100 40108 83510 333 59010 70215 83617 86460==
41939,2024,05,09,00,00,AAXX 09004 41939 02450 60000 10235 20230 30087 40095 83510 333 59013 70037 83617 86460==
41939,2024,05,09,03,00,AAXX 09034 41939 02958 00000 10295 20230 30107 40115 333 20218 59015 70012==
41939,2024,05,09,06,00,AAXX 09064 41939 02458 30000 10320 20230 30085 40093 83500 333 59016 70012 83618==
41939,2024,05,09,09,00,AAXX 09094 41939 02458 10000 10330 20240 30068 40076 81500 333 59017 70000 81618==
41939,2024,05,09,12,00,AAXX 09124 41939 02450 80000 10308 20260 30072 40080 8352/ 333 10335 59015 70000 83617 88459==
41939,2024,05,09,15,00,AAXX 09154 41939 02440 80000 10250 20220 30085 40093 8352/ 333 59008 70000 83618 88459==
41939,2024,05,09,18,00,AAXX 09184 41939 02440 60000 10245 20230 30096 40104 83510 333 59014 70000 83618 85459==
41939,2024,05,09,21,00,AAXX 09214 41939 02456 40000 10237 20230 30089 40097 82530 333 59011 70000 82618 83365==
41941,2024,05,03,00,00,AAXX 03004 41941 02450 61802 10250 20220 30038 40044 85420 333 58039 70000 84616 86458==
41941,2024,05,03,03,00,AAXX 03034 41941 02457 31804 10313 20250 30066 40071 83500 333 20248 58036 70000 83618==
41941,2024,05,03,06,00,AAXX 03064 41941 02457 60000 10335 20270 30058 40064 84520 333 58040 70000 84616 86458==
41941,2024,05,03,09,00,AAXX 03094 41941 02458 41801 10360 20260 30036 40042 84800 333 58041 70000 82618 83828==
41941,2024,05,03,12,00,AAXX 03124 41941 02457 41802 10338 20280 30033 40038 82530 333 10365 58038 70000 82616 83362==
41941,2024,05,03,15,00,AAXX 03154 41941 02956 01801 10291 20220 30060 40066 333 58038 70000==
41941,2024,05,03,18,00,AAXX 03184 41941 02/56 20000 10285 20260 30061 40067 82030 333 58032 70000 82362==
41941,2024,05,03,21,00,AAXX 03214 41941 02456 41801 10288 20270 30049 40055 84800 333 58025 70000 82618 83828==
41941,2024,05,04,00,00,AAXX 04004 41941 02456 41801 10290 20280 30068 40074 84800 333 58030 70000 82616 83828==
41941,2024,05,04,03,00,AAXX 04034 41941 02457 41802 10327 20270 30078 40084 83510 333 20278 58012 70000 83616 84458==
41941,2024,05,04,06,00,AAXX 04064 41941 02957 01802 10350 20260 30069 40075 333 58011 70000==
41941,2024,05,04,09,00,AAXX 04094 41941 02957 01803 10352 20250 30036 40041 333 58000 70000==
41941,2024,05,04,12,00,AAXX 04124 41941 02956 01802 10329 20260 30031 40037 83530 333 10365 59002 70000 83618 84362==
41941,2024,05,04,15,00,AAXX 04154 41941 02940 01804 10305 20270 30039 40044 333 59021 70000==
41941,2024,05,04,18,00,AAXX 04184 41941 02440 61802 10300 20270 30030 40036 85420 333 59031 70000 84616 86458==
41941,2024,05,04,21,00,AAXX 04214 41941 02440 61802 10280 20260 30024 40030 85420 333 59025 70000 84616 86458==
41941,2024,05,05,00,00,AAXX 05004 41941 02450 61802 10260 20230 30036 40041 85420 333 59032 70000 84616 86458==
41941,2024,05,05,03,00,AAXX 05034 41941 02456 61803 10318 20260 30049 40054 85420 333 20260 59029 70000 84616 86458==
41941,2024,05,05,06,00,AAXX 05064 41941 02456 61804 10346 20270 30039 40044 85420 333 59030 70000 84616 86458==
41941,2024,05,05,09,00,AAXX 05094 41941 32957 01804 10252 20250 30025 40030 333 59011 70000=
41941,2024,05,05,12,00,AAXX 05124 41941 02956 01804 10324 20250 30006 40011 333 10358 59025 70000==
41941,2024,05,05,15,00,AAXX 05154 41941 02450 61803 10304 20270 30043 40049 85420 333 58004 70000 84616 86458==
41941,2024,05,05,18,00,AAXX 05184 41941 02440 73603 10234 20200 30027 40083 85420 333 58047 70000 84616 87458==
41941,2024,05,05,21,00,AAXX 05214 41941 02440 73604 10232 20200 30063 40069 85420 333 58039 70000 84616 87458==
41941,2024,05,06,00,00,AAXX 06004 41941 02450 71403 10250 20230 30056 40062 85420 333 58020 70000 84616 86458==
41941,2024,05,06,03,00,AAXX 06034 41941 02456 62304 10310 20250 30069 40071 85420 333 20230 58020 70000 84616 86458==
41941,2024,05,06,06,00,AAXX 06064 41941 02450 80000 10322 20260 30061 40067 8632/ 333 58022 70000 85616 88458 81930==
41941,2024,05,06,09,00,AAXX 06094 41941 01440 80000 10232 20230 30056 40062 79596 8692/ 333 58031 70480 85614 88456 81925==
41941,2024,05,06,12,00,AAXX 06124 41941 21340 81806 10224 20220 30065 40070 76596 8672/ 333 10326 58059 60619 70610 82708 84612 88456 81924==
41941,2024,05,06,15,00,AAXX 06154 41941 01440 81504 10223 20210 30079 40084 79596 8692/ 333 58036 70630 85614 88458 81925==
41941,2024,05,06,18,00,AAXX 06184 41941 21430 81806 10218 20210 30097 40103 79796 8692/ 333 58020 60229 70830 85614 88456 81925==
41941,2024,05,06,21,00,AAXX 06214 41941 01430 81802 10216 20216 30091 40097 79596 8692/ 333 58028 70870 85614 88458 81925==
41941,2024,05,07,00,00,AAXX 07004 41941 21450 80000 10218 20210 30094 40100 72996 8632/ 333 58038 60067 70890 85616 88458 81930==
41941,2024,05,07,03,00,AAXX 07034 41941 02456 60000 10258 20230 30113 40119 85420 333 20215 58044 70890 84616 86458==
41941,2024,05,07,06,00,AAXX 07064 41941 02457 21802 10305 20220 30104 40110 81530 333 58043 70890 81618==
41941,2024,05,07,09,00,AAXX 07094 41941 02457 61802 10312 20220 30084 40089 83530 333 58028 70410 83614 85362==
41941,2024,05,07,12,00,AAXX 07124 41941 02456 40000 10293 20220 30082 40088 82520 333 10324 58017 70280 82616 84458==
41941,2024,05,07,15,00,AAXX 07154 41941 02456 40000 10265 20250 30091 40097 82530 333 58012 70260 82616==
41941,2024,05,07,18,00,AAXX 07184 41941 02456 40000 10253 20240 30098 40104 82530 333 58001 70060 82616 84362==
41941,2024,05,07,21,00,AAXX 07214 41941 02456 60000 10248 20240 30085 40091 84520 333 59006 70020 84614 86458==
41941,2024,05,08,00,00,AAXX 08004 41941 01350 83102 10225 20225 30117 40123 79596 8692/ 333 58023 70050 82707 84612 88456 81928==
41941,2024,05,08,03,00,AAXX 08034 41941 01350 82603 10236 20230 30105 40111 70296 8662/ 333 20225 59008 70100 82708 85613 88458==
41941,2024,05,08,06,00,AAXX 08064 41941 11456 60404 10280 20230 30103 40109 60056 70196 85420 333 59001 70100 84616 86458==
41941,2024,05,08,09,00,AAXX 08094 41941 02456 73604 10288 20230 30082 40088 85420 333 59002 70100 84616 87458==
41941,2024,05,08,12,00,AAXX 08124 41941 02450 63302 10280 20230 30081 40087 85420 333 10295 59001 70100 84616 86458==
41941,2024,05,08,15,00,AAXX 08154 41941 02440 60000 10260 20240 30086 40092 85420 333 59005 70100 84616 86458==
41941,2024,05,08,18,00,AAXX 08184 41941 02440 60000 10250 20230 30094 40101 85420 333 59003 70100 84616 86458==
41941,2024,05,08,21,00,AAXX 08214 41941 02440 60000 10245 20240 30087 40093 85420 333 58002 70100 84616 86458==
41941,2024,05,09,00,00,AAXX 09004 41941 02450 40000 10239 20239 30080 40085 84400 333 59037 70050 82616==
41941,2024,05,09,03,00,AAXX 09034 41941 02456 43303 10300 20230 30096 40102 84400 333 20236 59009 70000 82616==
41941,2024,05,09,06,00,AAXX 09064 41941 02456 71804 10316 20210 30091 40097 85420 333 59012 70000 84616 87458==
41941,2024,05,09,09,00,AAXX 09094 41941 02957 01803 10336 20220 30056 40061 333 59026 70000==
41941,2024,05,09,12,00,AAXX 09124 41941 02450 80000 10304 20230 30070 40076 8632/ 333 10337 59011 70000 85616 88458 81928==
41941,2024,05,09,15,00,AAXX 09154 41941 41440 70000 10260 20220 30077 40083 72162 85420 333 59009==
41941,2024,05,09,18,00,AAXX 09184 41941 21440 70000 10250 20210 30087 40093 70262 85420 333 59008 60008 84616 87458==
41941,2024,05,09,21,00,AAXX 09214 41941 42440 70000 10252 20230 30077 40082 85420 333 59010 84616 87458==
41943,2024,05,03,00,00,AAXX 03004 41943 21445 11801 10222 20210 30048 40055 70196 81500 333 58043 60245 70314 81616==
41943,2024,05,03,03,00,AAXX 03034 41943 02950 01802 10285 20230 30067 40074 333 20220 58038 70294==
41943,2024,05,03,06,00,AAXX 03064 41943 02450 41902 10336 20250 30062 40069 83510 333 58038 70242 83616==
41943,2024,05,03,09,00,AAXX 03094 41943 02450 41804 10335 20260 30040 40047 82510 333 58041 70242 82618 84458==
41943,2024,05,03,12,00,AAXX 03124 41943 01440 71803 10320 20270 30042 40049 71792 85320 333 10348 58049 70242 84616 86457 81928==
41943,2024,05,03,15,00,AAXX 03154 41943 01440 41902 10275 20250 30062 40069 70196 83510 333 58019 70438 83616==
41943,2024,05,03,18,00,AAXX 03184 41943 21430 81802 10253 20230 30063 40070 70362 8662/ 333 58017 60205 70438 83710 84615 88458==
41943,2024,05,03,21,00,AAXX 03214 41943 02440 61801 10252 20230 30067 40074 84520 333 58018 70196 84616 85458==
41943,2024,05,04,00,00,AAXX 04004 41943 02435 71801 10250 20230 30070 40077 85620 333 58022 70196 82710 84615 87458==
41943,2024,05,04,03,00,AAXX 04034 41943 02440 81803 10300 20230 30085 40092 82530 333 20236 58018 70196 82618 84362==
41943,2024,05,04,06,00,AAXX 04064 41943 02445 61802 10335 20250 30072 40079 85410 333 58010 70196 83616 83828==
41943,2024,05,04,09,00,AAXX 04094 41943 02/50 41802 10348 20230 30043 40050 84030 333 58003 70196 84362==
41943,2024,05,04,12,00,AAXX 04124 41943 02440 61901 10315 20250 30035 40042 82521 333 10354 59007 70196 82616 84458==
41943,2024,05,04,15,00,AAXX 04154 41943 02440 11802 10290 20270 30044 40051 81500 333 59018 70000 81616==
41943,2024,05,04,18,00,AAXX 04184 41943 02435 31701 10283 20260 30041 40048 82510 333 59022 70000 82616==
41943,2024,05,04,21,00,AAXX 04214 41943 02435 61802 10250 20230 30042 40049 83520 333 59025 70000 83616 85458==
41943,2024,05,05,00,00,AAXX 05004 41943 02435 81701 10230 20210 30044 40051 8662/ 333 59026 70000 83710 84616 87458==
41943,2024,05,05,03,00,AAXX 05034 41943 02445 31502 10284 20210 30059 40066 82530 333 20230 59026 70000 82616==
41943,2024,05,05,06,00,AAXX 05064 41943 02450 51903 10330 20230 30044 40052 84530 333 59028 70000 84616==
41943,2024,05,05,09,00,AAXX 05094 41943 41943 32445 52304 10334 20230 30022 40029 83530 333 56990 59021 70000 83616 83362=
41943,2024,05,05,12,00,AAXX 05124 41943 02440 52304 10316 20250 30014 40021 83530 333 10340 59021 70000 83616 83362==
41943,2024,05,05,15,00,AAXX 05154 41943 02430 61802 10294 20250 30049 40056 83530 333 58005 70000 83616 84362==
41943,2024,05,05,18,00,AAXX 05184 41943 21330 81804 10210 20200 30053 40061 70362 8662/ 333 58012 60287 70280 83710 84614 88458==
41943,2024,05,05,21,00,AAXX 05214 41943 02430 81802 10220 20200 30060 40068 8662/ 333 58018 70280 83710 84614 88458==
41943,2024,05,06,00,00,AAXX 06004 41943 02435 60000 10224 20200 30064 40072 84520 333 58020 70280 83616 84458==
41943,2024,05,06,03,00,AAXX 06034 41943 02440 51802 10284 20220 30079 40086 83520 333 20202 58020 70280 83616 84458==
41943,2024,05,06,06,00,AAXX 06064 41943 42440 61804 10314 20230 30071 40078 84520 333 58027 84616 85458==
41943,2024,05,06,09,00,AAXX 06094 41943 01330 81806 10194 20280 30046 40054 76162 8772/ 333 58024 71350 84709 84614 88458==
41943,2024,05,06,12,00,AAXX 06124 41943 21330 81804 10208 20200 30035 40043 70262 8662/ 333 10316 58021 61109 71380 83710 84614 88458==
41943,2024,05,06,15,00,AAXX 06154 41943 01325 81803 10210 20200 30111 40119 76262 8772/ 333 58062 71450 83710 84614 88458==
41943,2024,05,06,18,00,AAXX 06184 41943 21320 82304 10210 20200 30125 40133 76162 8772/ 333 58072 60159 83710 84614 88458==
41943,2024,05,06,21,00,AAXX 06214 41943 01325 82302 10212 20190 30118 40126 70262 8662/ 333 58058 71300 83710 84614 88458==
41943,2024,05,07,00,00,AAXX 07004 41943 11325 80000 10214 20170 30090 40098 60056 70262 8662/ 333 58026 71300 83710 84614 88458==
41943,2024,05,07,03,00,AAXX 07034 41943 02440 80000 10250 20220 30110 40117 8662/ 333 20192 58031 71300 83710 84614 88458==
41943,2024,05,07,06,00,AAXX 07064 41943 02445 51802 10300 20200 30104 40111 83530 333 58033 71300 82618 83362==
41943,2024,05,07,09,00,AAXX 07094 41943 02450 50000 10320 20180 30084 40091 82530 333 58038 70230 82618 83362==
41943,2024,05,07,12,00,AAXX 07124 41943 02440 61302 10298 20200 30081 40088 83530 333 10325 58096 70200 83616 83362==
41943,2024,05,07,15,00,AAXX 07154 41943 02430 61802 10260 20230 30095 40102 83530 333 59016 70130 83616 83362==
41943,2024,05,07,18,00,AAXX 07184 41943 02430 50000 10250 20230 30105 40112 83530 333 59020 70050 83616 83362==
41943,2024,05,07,21,00,AAXX 07214 41943 02430 60000 10244 20230 30096 40103 83520 333 59022 70000 83616 84458==
41943,2024,05,08,00,00,AAXX 08004 41943 02435 70000 10235 20230 30091 40098 83520 333 58001 70000 83616 86458==
41943,2024,05,08,03,00,AAXX 08034 41943 02440 71802 10236 20200 30117 40124 83520 333 20234 58007 70000 83616 86458==
41943,2024,05,08,06,00,AAXX 08064 41943 02440 62302 10285 20210 30106 40113 83520 333 58002 70000 83616 85458==
41943,2024,05,08,09,00,AAXX 08094 41943 02440 60000 10290 20210 30084 40091 83520 333 58000 70000 83616 85458==
41943,2024,05,08,12,00,AAXX 08124 41943 02440 71802 10276 20220 30081 40088 84520 333 10305 58000 70000 84615 88458==
41943,2024,05,08,15,00,AAXX 08154 41943 02430 61802 10250 20220 30093 40100 83520 333 59002 70000 83616 85458==
41943,2024,05,08,18,00,AAXX 08184 41943 02430 60000 10244 20220 30096 40103 83520 333 59009 70000 83616 85458==
41943,2024,05,08,21,00,AAXX 08214 41943 02430 50000 10240 20230 30085 40093 82530 333 59011 70000 82618 83362==
41943,2024,05,09,00,00,AAXX 09004 41943 02935 00000 10226 20220 30076 40084 333 59015 70000==
41943,2024,05,09,03,00,AAXX 09034 41943 02940 00000 10300 20200 30096 40103 333 20224 59021 70000==
41943,2024,05,09,06,00,AAXX 09064 41943 02940 00000 10330 20210 30094 40101 333 59012 70000==
41943,2024,05,09,09,00,AAXX 09094 41943 02450 50000 10335 20230 30066 40073 82530 333 59018 70000 82618 83362==
41943,2024,05,09,12,00,AAXX 09124 41943 02445 50000 10306 20230 30058 40065 82530 333 10345 59023 70000 82618 83362==
41943,2024,05,09,15,00,AAXX 09154 41943 02940 00000 10270 20240 30083 40090 333 59010 70000==
41943,2024,05,09,18,00,AAXX 09184 41943 02340 40802 10265 20250 30095 40102 82530 333 59001 70000 82618 83362==
41943,2024,05,09,21,00,AAXX 09214 41943 02430 80000 10262 20240 30091 40098 8662/ 333 58006 70000 82710 84615 88458==
41944,2024,05,03,00,00,AAXX 03004 41944 NIL=
41944,2024,05,03,06,00,AAXX 03064 41944 NIL=
41944,2024,05,03,12,00,AAXX 03124 41944 NIL=
41944,2024,05,04,00,00,AAXX 04004 41944 NIL=
41944,2024,05,04,06,00,AAXX 04064 41944 NIL=
41944,2024,05,04,12,00,AAXX 04124 41944 NIL=
41944,2024,05,05,12,00,AAXX 05124 41944 NIL=
41944,2024,05,05,18,00,AAXX 05184 41944 NIL=
41944,2024,05,06,00,00,AAXX 06004 41944 NIL=
41944,2024,05,06,06,00,AAXX 06064 41944 NIL=
41944,2024,05,06,12,00,AAXX 06124 41944 NIL=
41944,2024,05,07,06,00,AAXX 07064 41944 NIL=
41944,2024,05,07,18,00,AAXX 07184 41944 NIL=
41944,2024,05,08,00,00,AAXX 08004 41944 NIL=
41944,2024,05,08,06,00,AAXX 08064 41944 NIL=
41944,2024,05,08,18,00,AAXX 08184 41944 NIL=
41944,2024,05,09,06,00,AAXX 09064 41944 NIL=
41944,2024,05,09,12,00,AAXX 09124 41944 NIL=
41944,2024,05,09,18,00,AAXX 09184 41944 NIL=
41946,2024,05,03,00,00,AAXX 03004 41946 02956 00000 10288 20280 30042 40047 333 58047 70000==
41946,2024,05,03,03,00,AAXX 03034 41946 02956 01401 10332 20260 30065 40069 333 20285 58036 70000==
41946,2024,05,03,06,00,AAXX 03064 41946 02957 00502 10371 20180 30057 40061 333 58037 70000==
41946,2024,05,03,09,00,AAXX 03094 41946 02557 21202 10388 20180 30035 40039 82100 333 58039 70000 82825==
41946,2024,05,03,12,00,AAXX 03124 41946 02957 01501 10370 20210 30030 40034 333 10392 58030 70000==
41946,2024,05,03,15,00,AAXX 03154 41946 02956 01702 10322 20260 30059 40063 333 58038 70000==
41946,2024,05,03,18,00,AAXX 03184 41946 02456 31704 10308 20270 30058 40063 83400 333 58030 70000 82618==
41946,2024,05,03,21,00,AAXX 03214 41946 02956 01802 10304 20270 30049 40054 333 58021 70000==
41946,2024,05,04,00,00,AAXX 04004 41946 02456 21903 10297 20270 30060 40064 82500 333 58018 70000 82618==
41946,2024,05,04,03,00,AAXX 04034 41946 02456 41803 10325 20270 30081 40085 84400 333 20291 58016 70000 83618==
41946,2024,05,04,06,00,AAXX 04064 41946 02957 41804 10360 20240 30064 40068 333 58007 70000==
41946,2024,05,04,09,00,AAXX 04094 41946 02456 61802 10364 20220 30035 40039 83520 333 58000 70000 83618 85460==
41946,2024,05,04,12,00,AAXX 04124 41946 02956 31803 10340 20280 30030 40034 80001 333 10373 58000 70000 83080==
41946,2024,05,04,15,00,AAXX 04154 41946 02456 21903 10315 20300 30041 40046 82500 333 59018 70000==
41946,2024,05,04,18,00,AAXX 04184 41946 02456 61802 10305 20290 30030 40035 83520 333 59028 70000 83618 85460==
41946,2024,05,04,21,00,AAXX 04214 41946 02456 21802 10302 20270 30021 40026 82500 333 59024 70000 82618==
41946,2024,05,05,00,00,AAXX 05004 41946 02456 21803 10298 20270 30027 40032 82500 333 59033 70000 82618==
41946,2024,05,05,03,00,AAXX 05034 41946 02456 41805 10327 20270 30046 40050 84400 333 20295 59035 70000 83618==
41946,2024,05,05,06,00,AAXX 05064 41946 02957 31808 10360 20250 30034 40038 80001 333 59030 70000 83080==
41946,2024,05,05,09,00,AAXX 05094 41946 32557 12207 10370 20240 30012 40016 81500 333 56500 59023 70000 81620=
41946,2024,05,05,12,00,AAXX 05124 41946 02456 11905 10338 20250 30012 40016 81500 333 10372 59018 70000 81618==
41946,2024,05,05,15,00,AAXX 05154 41946 02456 21806 10311 20260 30028 40032 82500 333 59013 70000 82618==
41946,2024,05,05,18,00,AAXX 05184 41946 02456 81804 10309 20270 30042 40047 8542/ 333 58012 70000 84618 88459==
41946,2024,05,05,21,00,AAXX 05214 41946 02456 71803 10304 20260 30041 40046 83520 333 58020 70000 83618 86460==
41946,2024,05,06,00,00,AAXX 06004 41946 02/56 51802 10300 20260 30046 40051 83031 333 58019 70000 83362==
41946,2024,05,06,03,00,AAXX 06034 41946 02456 51803 10330 20270 30063 40067 84510 333 20295 58017 70000 84618 83460==
41946,2024,05,06,06,00,AAXX 06064 41946 02456 61805 10350 20260 30058 40062 85410 333 58024 70000 84618 83460==
41946,2024,05,06,09,00,AAXX 06094 41946 02456 81807 10348 20260 30035 40039 8542/ 333 58023 70000 84618 88459==
41946,2024,05,06,12,00,AAXX 06124 41946 02456 81802 10327 20270 30039 40043 8542/ 333 10356 58027 70000 84618 88459==
41946,2024,05,06,15,00,AAXX 06154 41946 01350 80915 10215 20210 30083 40088 79796 8592/ 333 58055 70600 82708 84616 88458 81928==
41946,2024,05,06,18,00,AAXX 06184 41946 02340 81013 10224 20210 30077 40082 8592/ 333 58035 70650 81710 83617 88459 81928==
41946,2024,05,06,21,00,AAXX 06214 41946 01450 80903 10228 20220 30076 40081 71796 8532/ 333 58035 70660 84618 88459 81928==
41946,2024,05,07,00,00,AAXX 07004 41946 41450 80902 10230 20210 30093 40098 58047 70668 88459==
41946,2024,05,07,03,00,AAXX 07034 41946 02456 43602 10280 20210 30106 40111 82501 333 20210 58043 70668 82618 83080==
41946,2024,05,07,06,00,AAXX 07064 41946 02457 30000 10310 20230 30104 40109 81501 333 58046 70668 81618 83080==
41946,2024,05,07,09,00,AAXX 07094 41946 02457 50402 10330 20240 30082 40086 85400 333 58047 70668 84618==
41946,2024,05,07,12,00,AAXX 07124 41946 02456 70000 10320 20240 30074 40079 84420 333 10335 58035 70668 83618 86459==
41946,2024,05,07,15,00,AAXX 07154 41946 02556 60902 10296 20250 30092 40097 83520 333 58009 70068 83620 85459==
41946,2024,05,07,18,00,AAXX 07184 41946 02/56 50000 10284 20240 30098 40103 85070 333 58021 70018 83459 83360==
41946,2024,05,07,21,00,AAXX 07214 41946 01350 83004 10230 20220 30084 40089 79596 8692/ 333 58008 70348 83709 84615 88456 81928==
41946,2024,05,08,00,00,AAXX 08004 41946 21450 83602 10230 20220 30102 40107 70296 8442/ 333 58009 60368 70360 82618 83820 88458==
41946,2024,05,08,03,00,AAXX 08034 41946 02456 61803 10270 20220 30121 40126 84401 333 20220 58015 70360 83618 83080==
41946,2024,05,08,06,00,AAXX 08064 41946 02456 71803 10280 20220 30110 40115 84420 333 58006 70360 83618 87460==
41946,2024,05,08,09,00,AAXX 08094 41946 02456 62204 10302 20220 30087 40092 81530 333 58005 70360 81618 85362==
41946,2024,05,08,12,00,AAXX 08124 41946 02456 61901 10298 20210 30081 40086 82530 333 10307 58007 70360 82618 85362==
41946,2024,05,08,15,00,AAXX 08154 41946 02/56 20000 10262 20240 30096 40101 82030 333 58004 70360 82362==
41946,2024,05,08,18,00,AAXX 08184 41946 02956 00000 10257 20240 30092 40097 333 59006 70360==
41946,2024,05,08,21,00,AAXX 08214 41946 01450 20000 10254 20240 30081 40086 70500 82500 333 59003 70020 82618==
41946,2024,05,09,00,00,AAXX 09004 41946 01430 60000 10251 20240 30085 40090 70510 82570 333 59017 70000 82618 84460==
41946,2024,05,09,03,00,AAXX 09034 41946 02456 70000 10290 20240 30102 40107 84520 333 20243 59019 70000 84618 86460==
41946,2024,05,09,06,00,AAXX 09064 41946 02456 61502 10320 20240 30098 40103 84410 333 59012 70000 83618 83460==
41946,2024,05,09,09,00,AAXX 09094 41946 01350 81804 10256 20230 30074 40079 79522 8592/ 333 59013 70010 82710 84616 88458 81928==
41946,2024,05,09,12,00,AAXX 09124 41946 01450 81802 10250 20230 30077 40081 70296 8352/ 333 10325 59004 70013 82618 88458==
41946,2024,05,09,15,00,AAXX 09154 41946 01350 81802 10240 20220 30107 40112 71796 8592/ 333 58011 70015 81710 84618 88458 81928==
41946,2024,05,09,18,00,AAXX 09184 41946 01450 81203 10240 20220 30089 40094 70296 8352/ 333 59007 70037 83618 88458==
41946,2024,05,09,21,00,AAXX 09214 41946 01450 60000 10230 20220 30084 40088 70522 82520 333 58003 70037 82618 85459==
41947,2024,05,03,00,00,AAXX 03004 41947 02456 31802 10290 20280 30043 40045 83570 333 58040 70000 83618==
41947,2024,05,03,03,00,AAXX 03034 41947 02456 20000 10335 20270 30065 40067 82500 333 20285 58035 70000 82618==
41947,2024,05,03,06,00,AAXX 03064 41947 02457 20000 10375 20220 30058 40060 82500 333 58035 70000 82618==
41947,2024,05,03,09,00,AAXX 03094 41947 02457 31802 10380 20230 30035 40037 83400 333 58038 70000 82618==
41947,2024,05,03,12,00,AAXX 03124 41947 02457 22105 10358 20250 30033 40035 82400 333 10388 58032 70000 81618==
41947,2024,05,03,15,00,AAXX 03154 41947 02956 01806 10320 20270 30063 40065 333 58033 70000==
41947,2024,05,03,18,00,AAXX 03184 41947 02956 02102 10303 20280 30059 40061 333 58030 70000==
41947,2024,05,03,21,00,AAXX 03214 41947 02956 00000 10298 20280 30048 40050 333 58015 70000==
41947,2024,05,04,00,00,AAXX 04004 41947 02456 30000 10294 20270 30064 40066 83500 333 58021 70000 83618==
41947,2024,05,04,03,00,AAXX 04034 41947 02456 60000 10330 20260 30082 40084 83570 333 20286 58017 70000 83618 83459==
41947,2024,05,04,06,00,AAXX 04064 41947 02457 42302 10360 20250 30068 40070 84500 333 58010 70000 84618==
41947,2024,05,04,09,00,AAXX 04094 41947 02456 51802 10365 20240 30035 40037 83570 333 58000 70000 83618 84458==
41947,2024,05,04,12,00,AAXX 04124 41947 02456 31802 10350 20240 30028 40030 83500 333 10372 59005 70000 83618==
41947,2024,05,04,15,00,AAXX 04154 41947 02950 02303 10310 20260 30044 40046 333 59019 70000==
41947,2024,05,04,18,00,AAXX 04184 41947 02950 01803 10300 20270 30033 40035 333 59026 70000==
41947,2024,05,04,21,00,AAXX 04214 41947 02450 31802 10295 20280 30033 40035 83500 333 59015 70000 83618==
41947,2024,05,05,00,00,AAXX 05004 41947 02450 51802 10292 20270 30033 40035 83570 333 59031 70000 83618 84458==
41947,2024,05,05,03,00,AAXX 05034 41947 02456 71803 10321 20260 30046 40049 83570 333 20290 59035 70000 83618 86458==
41947,2024,05,05,06,00,AAXX 05064 41947 02456 61803 10356 20260 30036 40039 86400 333 59031 70000 83618 83820==
41947,2024,05,05,09,00,AAXX 05094 41947 32456 31804 10370 20240 30013 40015 83500 333 56900 59022 70000 83618=
41947,2024,05,05,12,00,AAXX 05124 41947 02456 21803 10335 20260 30013 40015 82500 333 10370 59015 70000 82618==
41947,2024,05,05,15,00,AAXX 05154 41947 02450 31805 10305 20270 30028 40030 83500 333 59016 70000 83618==
41947,2024,05,05,18,00,AAXX 05184 41947 02450 51803 10305 20280 30048 40050 83570 333 58015 70000 83618 84458==
41947,2024,05,05,21,00,AAXX 05214 41947 02450 31802 10305 20270 30047 40049 83500 333 58014 70000 83618==
41947,2024,05,06,00,00,AAXX 06004 41947 02450 31802 10298 20270 30050 40052 83500 333 58017 70000 83618==
41947,2024,05,06,03,00,AAXX 06034 41947 02456 71803 10324 20270 30065 40068 83570 333 20292 58019 70000 83618 86458==
41947,2024,05,06,06,00,AAXX 06064 41947 02457 61804 10355 20260 30059 40062 86400 333 58023 70000 83618 83820==
41947,2024,05,06,09,00,AAXX 06094 41947 02456 71805 10350 20260 30037 40039 85470 333 58024 70000 83618 85458==
41947,2024,05,06,12,00,AAXX 06124 41947 02450 81805 10325 20270 30035 40037 8452/ 333 10355 58022 70000 84616 88458==
41947,2024,05,06,15,00,AAXX 06154 41947 01450 81802 10215 20210 30087 40089 79596 8532/ 333 58049 70550 82708 84615 88458 81928==
41947,2024,05,06,18,00,AAXX 06184 41947 21450 81802 10214 20200 30120 40122 79596 8532/ 333 58028 60709 70700 82708 84615 88458 81928==
41947,2024,05,06,21,00,AAXX 06214 41947 01500 80000 10214 20200 30120 40122 76166 8452/ 333 58036 70750 84618 88458==
41947,2024,05,07,00,00,AAXX 07004 41947 21450 80000 10230 20220 30104 40106 70296 8452/ 333 58044 60058 70750 84618 88458==
41947,2024,05,07,03,00,AAXX 07034 41947 02456 51802 10260 20230 30108 40110 82530 333 20205 58042 70750 82618 83362==
41947,2024,05,07,06,00,AAXX 07064 41947 02/57 21302 10305 20240 30108 40110 82030 333 58048 70750 82362==
41947,2024,05,07,09,00,AAXX 07094 41947 02456 60000 10325 20240 30088 40090 83570 333 58051 70750 83618 85459==
41947,2024,05,07,12,00,AAXX 07124 41947 02456 60902 10310 20250 30076 40078 82570 333 10330 58041 70750 82618 85459==
41947,2024,05,07,15,00,AAXX 07154 41947 02450 21302 10288 20250 30096 40098 82500 333 58009 70200 82618==
41947,2024,05,07,18,00,AAXX 07184 41947 02450 21302 10280 20250 30009 40111 82500 333 59011 70050 82618==
41947,2024,05,07,21,00,AAXX 07214 41947 02450 80000 10270 20250 30107 40109 8532/ 333 59005 70000 84618 88459 81930==
41947,2024,05,08,00,00,AAXX 08004 41947 21340 80902 10225 20220 30103 40105 76196 8692/ 333 59001 60167 70160 83708 84615 88458 82928==
41947,2024,05,08,03,00,AAXX 08034 41947 02456 71302 10250 20220 30119 40121 83570 333 20220 58011 70160 83618 85459==
41947,2024,05,08,06,00,AAXX 08064 41947 02456 71803 10292 20210 30111 40113 83570 333 58003 70160 83618 85459==
41947,2024,05,08,09,00,AAXX 08094 41947 02456 71802 10305 20230 30085 40087 83570 333 59003 70160 83618 85459==
41947,2024,05,08,12,00,AAXX 08124 41947 02456 70000 10300 20220 30081 40083 83570 333 10315 58005 70160 83618 85459==
41947,2024,05,08,15,00,AAXX 08154 41947 02456 70000 10270 20240 30095 40097 83570 333 59001 70160 83618 85459==
41947,2024,05,08,18,00,AAXX 08184 41947 02456 70000 10264 20240 30094 40096 83570 333 59015 70160 83618 85459==
41947,2024,05,08,21,00,AAXX 08214 41947 02/56 30000 10258 20250 30088 40090 83030 333 59019 70160 83362==
41947,2024,05,09,00,00,AAXX 09004 41947 02/56 20000 10253 20240 30086 40088 82030 333 59017 70000 82362==
41947,2024,05,09,03,00,AAXX 09034 41947 02456 70000 10290 20230 30102 40105 83570 333 20245 59016 70000 83618 86458==
41947,2024,05,09,06,00,AAXX 09064 41947 02456 60000 10325 20230 30097 40100 86400 333 59013 70000 83618 83820==
41947,2024,05,09,09,00,AAXX 09094 41947 02450 81802 10290 20190 30078 40080 8352/ 333 59007 70000 83618 88458==
41947,2024,05,09,12,00,AAXX 09124 41947 21450 80000 10255 20240 30072 40074 70262 8352/ 333 10332 59009 60017 70010 83618 88458==
41947,2024,05,09,15,00,AAXX 09154 41947 02450 60000 10245 20230 30092 40094 83570 333 59003 70010 83618 85458==
41947,2024,05,09,18,00,AAXX 09184 41947 02450 60000 10250 20230 30096 40098 83570 333 58002 70010 83618 85458==
41947,2024,05,09,21,00,AAXX 09214 41947 02450 30000 10245 20230 30098 40100 83500 333 58010 70010 83618==
41950,2024,05,03,00,00,AAXX 03004 41950 02950 00000 10267 20240 30042 40045 333 58040 70000==
41950,2024,05,03,03,00,AAXX 03034 41950 02450 20000 10326 20270 30060 40063 82400 333 20266 58028 70000 82617==
41950,2024,05,03,06,00,AAXX 03064 41950 02450 42702 10355 20260 30054 40056 84400 333 58035 70000 84617==
41950,2024,05,03,09,00,AAXX 03094 41950 02450 51902 10368 20260 30035 40037 85400 333 58036 70000 83617 83825==
41950,2024,05,03,12,00,AAXX 03124 41950 01450 61802 10333 20260 30040 40042 71722 85910 333 10372 58041 70000 83617 85459 81928==
41950,2024,05,03,15,00,AAXX 03154 41950 02450 20000 10298 20250 30063 40066 82500 333 58036 70000 82617==
41950,2024,05,03,18,00,AAXX 03184 41950 02950 00000 10295 20280 30055 40058 333 58021 70000==
41950,2024,05,03,21,00,AAXX 03214 41950 02950 00000 10287 20280 30053 40056 333 58017 70000==
41950,2024,05,04,00,00,AAXX 04004 41950 02450 20000 10282 20270 30065 40068 82530 333 58023 70000 82617==
41950,2024,05,04,03,00,AAXX 04034 41950 02450 60000 10320 20270 30085 40087 83570 333 20278 58031 70000 83617 84459==
41950,2024,05,04,06,00,AAXX 04064 41950 02450 41802 10350 20240 30074 40076 82530 333 58020 70000 82617 83362==
41950,2024,05,04,09,00,AAXX 04094 41950 02450 41802 10360 20210 30038 40040 84400 333 58003 70000 83617==
41950,2024,05,04,12,00,AAXX 04124 41950 02450 50000 10334 20230 30030 40032 83301 333 10368 59010 70000 82617 83080 81928==
41950,2024,05,04,15,00,AAXX 04154 41950 02950 01802 10303 20260 30040 40043 333 59023 70000==
41950,2024,05,04,18,00,AAXX 04184 41950 02450 30000 10293 20260 30045 40048 82530 333 59020 70000 82617==
41950,2024,05,04,21,00,AAXX 04214 41950 02450 40000 10282 20260 30037 40039 83530 333 59016 70000 83617==
41950,2024,05,05,00,00,AAXX 05004 41950 02450 40000 10282 20260 30037 40039 83530 333 59028 70000 83617==
41950,2024,05,05,03,00,AAXX 05034 41950 02450 41804 10326 20260 30050 40053 84400 333 20280 59035 70000 83617==
41950,2024,05,05,06,00,AAXX 05064 41950 02450 41903 10355 20240 30041 40043 84400 333 59033 70000 83617==
41950,2024,05,05,09,00,AAXX 05094 41950 32450 41804 10356 20240 30019 40021 84400 333 56400 59019 70000 83617=
41950,2024,05,05,12,00,AAXX 05124 41950 02450 12003 10324 20240 30015 40017 81500 333 10362 59015 70000 81617==
41950,2024,05,05,15,00,AAXX 05154 41950 02450 31802 10302 20260 30037 40040 83500 333 59003 70000 83617==
41950,2024,05,05,18,00,AAXX 05184 41950 02450 51702 10300 20270 30060 40063 83510 333 58015 70000 83517 85459==
41950,2024,05,05,21,00,AAXX 05214 41950 02450 60000 10288 20270 30054 40056 83510 333 58017 70000 83617 86459==
41950,2024,05,06,00,00,AAXX 06004 41950 02350 80000 10270 20260 30057 40059 8532/ 333 58020 70000 82708 84616 88458 81928==
41950,2024,05,06,03,00,AAXX 06034 41950 02450 21805 10315 20270 30068 40071 82500 333 20250 58018 70000 82617==
41950,2024,05,06,06,00,AAXX 06064 41950 02450 61806 10352 20250 30065 40068 84430 333 58024 70000 83617 83362==
41950,2024,05,06,09,00,AAXX 06094 41950 02450 71904 10340 20250 30041 40043 84410 333 58022 70000 83617 87459==
41950,2024,05,06,12,00,AAXX 06124 41950 01340 80903 10227 20227 30058 40060 71796 8692/ 333 10352 58043 70170 82708 84616 88458 81928==
41950,2024,05,06,15,00,AAXX 06154 41950 01330 81202 10224 20210 30097 40099 79596 8692/ 333 58060 70482 82708 84616 88482 81928==
41950,2024,05,06,18,00,AAXX 06184 41950 21330 80902 10221 20210 30129 40131 79596 8692/ 333 58069 60509 70668 82708 84616 88458 81928==
41950,2024,05,06,21,00,AAXX 06214 41950 01330 81802 10218 20210 30126 40128 79596 8692/ 333 58069 70748 82708 84616 88458 81928==
41950,2024,05,07,00,00,AAXX 07004 41950 21350 80000 10230 20210 30092 40095 70296 8632/ 333 58035 60088 70748 82708 84616 88458 81928==
41950,2024,05,07,03,00,AAXX 07034 41950 02350 70000 10250 20230 30102 40105 84670 333 20214 58034 70748 81708 83616 84459==
41950,2024,05,07,06,00,AAXX 07064 41950 02450 40000 10300 20220 30109 40111 82530 333 58044 70748 82617 83362==
41950,2024,05,07,09,00,AAXX 07094 41950 02450 60000 10310 20240 30089 40092 83510 333 58048 70748 83617 86459==
41950,2024,05,07,12,00,AAXX 07124 41950 02450 70000 10296 20240 30082 40084 83510 333 10317 58024 70578 83617 87459==
41950,2024,05,07,15,00,AAXX 07154 41950 02450 40000 10266 20250 30100 40102 82530 333 58003 70266 82617 83362==
41950,2024,05,07,18,00,AAXX 07184 41950 02450 40000 10266 20240 30103 40105 82530 333 59026 70080 82617 83362==
41950,2024,05,07,21,00,AAXX 07214 41950 02350 80000 10257 20250 30110 40112 8562/ 333 59006 70000 82708 84616 88458==
41950,2024,05,08,00,00,AAXX 08004 41950 01335 80000 10212 20210 30115 40117 79596 8592/ 333 59023 70250 82708 84616 88458 81928==
41950,2024,05,08,03,00,AAXX 08034 41950 01350 70000 10235 20220 30118 40121 70196 85670 333 20206 58016 70332 82708 84616 86459==
41950,2024,05,08,06,00,AAXX 08064 41950 11450 51802 10300 20200 30104 40106 60086 70196 82530 333 59005 70332 82617 84362==
41950,2024,05,08,09,00,AAXX 08094 41950 02456 70000 10303 20210 30084 40086 84510 333 59005 70332 84617 87459==
41950,2024,05,08,12,00,AAXX 08124 41950 02450 60000 10285 20230 30079 40081 83301 333 10313 59003 70332 83617 85080 81928==
41950,2024,05,08,15,00,AAXX 08154 41950 02450 30000 10250 20240 30099 40101 82531 333 59001 70332 82617==
41950,2024,05,08,18,00,AAXX 08184 41950 02/50 20000 10245 20240 30099 40101 82030 333 59004 70332 82362==
41950,2024,05,08,21,00,AAXX 08214 41950 02/50 20000 10240 20240 30081 40084 82030 333 59034 70332 82362==
41950,2024,05,09,00,00,AAXX 09004 41950 41940 20000 10234 20230 30085 40087 70511 80001 333 59030 82080==
41950,2024,05,09,03,00,AAXX 09034 41950 02950 30000 10299 20230 30099 40101 80001 333 20230 59019 70000 83080==
41950,2024,05,09,06,00,AAXX 09064 41950 02450 71802 10325 20220 30098 40100 85410 333 59006 70000 84617 86459==
41950,2024,05,09,09,00,AAXX 09094 41950 02450 70000 10324 20210 30074 40076 83510 333 59010 70000 83617 87459==
41950,2024,05,09,12,00,AAXX 09124 41950 02450 70000 10302 20240 30066 40068 84510 333 10341 59013 70000 84617 87459==
41950,2024,05,09,15,00,AAXX 09154 41950 02450 30000 10261 20230 30088 40090 82530 333 59011 70000 82617==
41950,2024,05,09,18,00,AAXX 09184 41950 02350 80000 10258 20240 30100 40102 8562/ 333 58001 70000 82708 84616 88458==
41950,2024,05,09,21,00,AAXX 09214 41950 02450 60000 10250 20240 30097 40099 83510 333 58016 70000 83617 86459==
41951,2024,05,03,00,00,AAXX 03004 41951 02956 00000 10280 20270 30035 40040 333 58033 70000==
41951,2024,05,03,03,00,AAXX 03034 41951 02456 31803 10328 20280 30056 40061 83500 333 20260 58031 70000 83618==
41951,2024,05,03,06,00,AAXX 03064 41951 02456 61202 10350 20270 30056 40066 83510 333 58032 70000 83618 85459==
41951,2024,05,03,09,00,AAXX 03094 41951 02456 61304 10356 20270 30040 40045 83510 333 58016 70000 83618 85459==
41951,2024,05,03,12,00,AAXX 03124 41951 01340 81304 10330 20270 30035 40040 71792 8592/ 333 10364 58034 70000 81708 84618 88458 81925==
41951,2024,05,03,15,00,AAXX 03154 41951 01450 21502 10272 20240 30065 40070 70196 82500 333 58037 70316 82618==
41951,2024,05,03,18,00,AAXX 03184 41951 11950 01302 10283 20270 30059 40064 60326 70196 333 58030 70316==
41951,2024,05,03,21,00,AAXX 03214 41951 02450 51302 10282 20270 30058 40063 82510 333 58027 70316 82618 84459==
41951,2024,05,04,00,00,AAXX 04004 41951 02450 60000 10280 20270 30059 40064 83510 333 58024 70316 83618 85459==
41951,2024,05,04,03,00,AAXX 04034 41951 02456 32202 10323 20270 30077 40082 83500 333 20240 58021 70316 83618==
41951,2024,05,04,06,00,AAXX 04064 41951 02456 31503 10344 20270 30068 40073 83500 333 58012 70316 83618==
41951,2024,05,04,09,00,AAXX 04094 41951 02456 20504 10342 20270 30038 40042 82500 333 59002 70316 82618==
41951,2024,05,04,12,00,AAXX 04124 41951 02466 51802 10324 20250 30026 40031 82510 333 10348 59009 70316 82618 84459==
41951,2024,05,04,15,00,AAXX 04154 41951 333 59020 70000 82618==
41951,2024,05,04,18,00,AAXX 04184 41951 02450 62203 10293 20280 30032 40037 83510 333 59027 70000 83618 85459==
41951,2024,05,04,21,00,AAXX 04214 41951 02450 52202 10286 20270 30028 40033 82510 333 59030 70000 82618 84459==
41951,2024,05,05,00,00,AAXX 05004 41951 02950 00000 10276 20260 30033 40038 333 59026 70000==
41951,2024,05,05,03,00,AAXX 05034 41951 02456 61304 10320 20270 30049 40054 83510 333 20272 59028 70000 83618 85459==
41951,2024,05,05,06,00,AAXX 05064 41951 02456 51510 10352 20270 30044 40048 82510 333 59024 70000 82618 84459==
41951,2024,05,05,09,00,AAXX 05094 41951 32456 52108 10348 20260 30024 40028 82510 333 56590 59014 70000 82618 84459=
41951,2024,05,05,12,00,AAXX 05124 41951 02956 02207 10322 20250 30009 40014 333 10353 59017 70000==
41951,2024,05,05,15,00,AAXX 05154 41951 02450 31303 10306 20280 30041 40046 83510 333 59003 70000 83618 85459==
41951,2024,05,05,18,00,AAXX 05184 41951 01340 80604 10262 20230 30069 40074 76122 8672/ 333 58037 70002 82706 84617 88458==
41951,2024,05,05,21,00,AAXX 05214 41951 02340 81303 10268 20250 30060 40065 8562/ 333 58032 70002 81708 84618 88458==
41951,2024,05,06,00,00,AAXX 06004 41951 02340 81303 10276 20240 30055 40060 8562/ 333 59022 70002 81708 84618 88458==
41951,2024,05,06,03,00,AAXX 06034 41951 02456 61304 10320 20260 30064 40069 83510 333 20246 58015 70002 83618 85459==
41951,2024,05,06,06,00,AAXX 06064 41951 02456 61606 10348 20270 30058 40062 83510 333 58014 70002 83618 85459==
41951,2024,05,06,09,00,AAXX 06094 41951 01330 80508 10228 20220 30066 40071 76192 8692/ 333 58042 70024 82706 84616 88458 82925==
41951,2024,05,06,12,00,AAXX 06124 41951 21330 80000 10234 20220 30053 40058 72196 8562/ 333 10350 58044 60277 70269 81708 84616 88458==
41951,2024,05,06,15,00,AAXX 06154 41951 01330 81302 10230 20220 30093 40098 79596 8692/ 333 58052 70489 82706 84616 88458 82925==
41951,2024,05,06,18,00,AAXX 06184 41951 01330 81204 10230 20220 30133 40138 79596 8692/ 333 58064 70629 82706 84616 88458 82925==
41951,2024,05,06,21,00,AAXX 06214 41951 01330 81304 10234 20220 30090 40095 72196 8692/ 333 58030 70694 81706 84616 88458==
41951,2024,05,07,00,00,AAXX 07004 41951 01340 80000 10238 20230 30078 40083 70296 8562/ 333 59023 70694 81708 84616 88458==
41951,2024,05,07,03,00,AAXX 07034 41951 02340 80503 10264 20210 30102 40107 8562/ 333 20215 58038 70694 81708 84616 88458==
41951,2024,05,07,06,00,AAXX 07064 41951 02456 61003 10303 20220 30104 40109 83510 333 58046 70694 83618 85459==
41951,2024,05,07,09,00,AAXX 07094 41951 02450 71302 10307 20230 30085 40090 83510 333 58019 70672 83618 85459==
41951,2024,05,07,12,00,AAXX 07124 41951 02450 70000 10293 20250 30075 40079 83510 333 10316 58022 70427 83618 86459==
41951,2024,05,07,15,00,AAXX 07154 41951 02340 80502 10262 20240 30100 40105 8562/ 333 58007 70207 81708 84618 88458==
41951,2024,05,07,18,00,AAXX 07184 41951 02450 30000 10258 20250 30102 40107 83500 333 59031 70065 83618==
41951,2024,05,07,21,00,AAXX 07214 41951 02340 80000 10256 20250 30097 40102 8562/ 333 58007 70000 81706 84616 88458==
41951,2024,05,08,00,00,AAXX 08004 41951 01330 80000 10212 20210 30119 40124 79596 8692/ 333 58041 70290 82706 84616 88458 82925==
41951,2024,05,08,03,00,AAXX 08034 41951 01340 80000 10225 20220 30111 40116 70296 8562/ 333 20206 58009 70382 81708 84618 88458==
41951,2024,05,08,06,00,AAXX 08064 41951 11456 61303 10305 20210 30102 40107 60096 70196 83510 333 59002 70382 83618 85459==
41951,2024,05,08,09,00,AAXX 08094 41951 02450 71302 10302 20220 30081 40086 83510 333 59004 70382 83618 86459==
41951,2024,05,08,12,00,AAXX 08124 41951 02456 52202 10290 20230 30073 40078 82510 333 10316 59002 70382 82618 84459==
41951,2024,05,08,15,00,AAXX 08154 41951 02340 80000 10253 20240 30091 40096 8562/ 333 59009 70382 81708 84618 88458==
41951,2024,05,08,18,00,AAXX 08184 41951 02450 20000 10248 20248 30093 40098 82500 333 59009 70382 82618==
41951,2024,05,08,21,00,AAXX 08214 41951 02950 00000 10243 20240 30086 40091 333 59011 70382==
41951,2024,05,09,00,00,AAXX 09004 41951 02956 00000 10238 20238 30077 40082 333 58042 70092==
41951,2024,05,09,03,00,AAXX 09034 41951 02456 50000 10303 20260 30090 40095 82510 333 20220 59021 70000 82618 84459==
41951,2024,05,09,06,00,AAXX 09064 41951 02456 61302 10332 20220 30098 40103 83510 333 59004 70000 83618 85459==
41951,2024,05,09,09,00,AAXX 09094 41951 02456 70000 10328 20230 30072 40077 83510 333 59009 70000 83618 86459==
41951,2024,05,09,12,00,AAXX 09124 41951 02450 70000 10302 20240 30055 40060 83510 333 10340 59018 70000 83618 85459==
41951,2024,05,09,15,00,AAXX 09154 41951 02450 20000 10270 20240 30088 40093 82500 333 59003 70000 82618==
41951,2024,05,09,18,00,AAXX 09184 41951 02340 80000 10262 20240 30094 40099 8562/ 333 58003 70000 81708 84618 88458==
41951,2024,05,09,21,00,AAXX 09214 41951 02340 80000 10258 20250 30090 40095 8562/ 333 58004 70000 81709 84618 88458==
41953,2024,05,03,00,00,AAXX 03004 41953 02440 31804 10246 20230 30049 40054 83500 333 58040 70040 83618==
41953,2024,05,03,03,00,AAXX 03034 41953 02445 51802 10322 20250 30068 40073 85400 333 20245 58035 70000 83616 83825==
41953,2024,05,03,06,00,AAXX 03064 41953 02450 61802 10336 20260 30063 40068 84410 333 58041 70000 83616 84458==
41953,2024,05,03,09,00,AAXX 03094 41953 02450 41304 10350 20270 30042 40047 84400 333 58037 70000 82618 83825==
41953,2024,05,03,12,00,AAXX 03124 41953 02445 41301 10320 20270 30042 40047 84400 333 10352 58047 70000 82618 83825==
41953,2024,05,03,15,00,AAXX 03154 41953 02435 41701 10300 20280 30067 40072 84400 333 58029 70000 82618 83825==
41953,2024,05,03,21,00,AAXX 03214 41953 02435 41301 10282 20260 30072 40077 84400 333 58029 70000 83618==
41953,2024,05,04,00,00,AAXX 04004 41953 02440 60901 10270 20240 30074 40079 83510 333 58025 70000 83616 85458==
41953,2024,05,04,03,00,AAXX 04034 41953 02445 70502 10330 20260 30086 40091 83510 333 20268 58018 70000 83616 86458==
41953,2024,05,04,06,00,AAXX 04064 41953 02450 51803 10335 20260 30075 40080 83510 333 58012 70000 83616 85458==
41953,2024,05,04,09,00,AAXX 04094 41953 02450 51303 10352 20250 30045 40050 83510 333 58003 70000 83616 85458==
41953,2024,05,04,12,00,AAXX 04124 41953 02450 51303 10324 20260 30038 40043 83510 333 10356 59004 70000 83616 85458==
41953,2024,05,04,15,00,AAXX 04154 41953 02440 50000 10300 20260 30045 40050 83510 333 59022 70000 83616 85458==
41953,2024,05,04,18,00,AAXX 04184 41953 02440 50000 10285 20270 30040 40045 83510 333 59031 70000 83616 85458==
41953,2024,05,04,21,00,AAXX 04214 41953 02440 50000 10282 20270 30035 40040 83510 333 59037 70000 83616 85458==
41953,2024,05,05,00,00,AAXX 05004 41953 02440 60503 10270 20250 30045 40050 83510 333 59029 70000 83616 86458==
41953,2024,05,05,03,00,AAXX 05034 41953 02450 21803 10320 20240 30060 40065 82500 333 20268 59026 70000 82618==
41953,2024,05,05,06,00,AAXX 05064 41953 02450 41804 10342 20250 30050 40055 84400 333 59025 70000 83616==
41953,2024,05,05,09,00,AAXX 05094 41953 32450 41804 10345 20270 30025 40030 84400 333 56900 59020 70000 83616=
41953,2024,05,05,12,00,AAXX 05124 41953 02450 41803 10320 20260 30018 40023 84400 333 10350 59020 70000 83616==
41953,2024,05,05,15,00,AAXX 05154 41953 02440 61803 10300 20270 30051 40056 83510 333 58006 70000 83616 86458==
41953,2024,05,05,18,00,AAXX 05184 41953 02440 61304 10230 20200 30079 40084 83510 333 58039 70000 83616 86458==
41953,2024,05,05,21,00,AAXX 05214 41953 02440 61303 10230 20210 30073 40078 83510 333 58038 70000 83616 86458==
41953,2024,05,06,00,00,AAXX 06004 41953 02440 61303 10250 20230 30068 40073 83510 333 58023 70000 83616 86458==
41953,2024,05,06,03,00,AAXX 06034 41953 02450 51304 10310 20240 30077 40082 83510 333 20225 58017 70000 83616 85458==
41953,2024,05,06,06,00,AAXX 06064 41953 02450 71304 10335 20260 30074 40079 84410 333 58024 70000 83616 86458==
41953,2024,05,06,09,00,AAXX 06094 41953 01430 81207 10215 20200 30125 40130 79596 8692/ 333 58100 70070 83615 88458 81925==
41953,2024,05,06,12,00,AAXX 06124 41953 21430 81204 10210 20210 30055 40060 79596 8692/ 333 10340 58037 60419 70410 83615 88458 81925==
41953,2024,05,06,15,00,AAXX 06154 41953 01430 81203 10215 20215 30101 40106 79596 8692/ 333 58050 70700 83615 88458 81925==
41953,2024,05,06,18,00,AAXX 06184 41953 21430 80000 10220 20220 30142 40147 79596 8692/ 333 58063 60419 70820 83615 88458 81925==
41953,2024,05,06,21,00,AAXX 06214 41953 01430 80000 10215 20215 30133 40138 72996 8632/ 333 58060 70900 83615 88458 81925==
41953,2024,05,07,00,00,AAXX 07004 41953 21440 83603 10220 20210 30087 40092 70296 8352/ 333 58019 60088 70900 83616 88458==
41953,2024,05,07,03,00,AAXX 07034 41953 02440 83603 10245 20220 30117 40122 8352/ 333 20196 58040 70900 83616 88458==
41953,2024,05,07,06,00,AAXX 07064 41953 02950 00504 10300 20220 30107 40112 333 58033 70900==
41953,2024,05,07,09,00,AAXX 07094 41953 02450 60000 10312 20220 30088 40093 83410 333 59037 70830 82618 85458==
41953,2024,05,07,12,00,AAXX 07124 41953 02450 60000 10295 20240 30086 40091 82510 333 10315 58031 70490 82618 85458==
41953,2024,05,07,15,00,AAXX 07154 41953 02430 60000 10270 20250 30102 40107 82510 333 58001 70200 82616 85458==
41953,2024,05,07,18,00,AAXX 07184 41953 02430 60000 10265 20260 30106 40111 83510 333 59036 70080 83616 85458==
41953,2024,05,07,21,00,AAXX 07214 41953 02430 71803 10246 20230 30113 40118 83510 333 59020 70000 83616 86458==
41953,2024,05,08,00,00,AAXX 08004 41953 02440 82305 10240 20210 30128 40133 8532/ 333 58041 70000 83616 88458 81930==
41953,2024,05,08,03,00,AAXX 08034 41953 01440 81304 10222 20220 30123 40128 70296 8532/ 333 20220 58006 70150 84615 88457 81930==
41953,2024,05,08,06,00,AAXX 08064 41953 11445 80902 10274 20210 30110 40115 60156 70296 8352/ 333 58003 70150 83616 88458==
41953,2024,05,08,09,00,AAXX 08094 41953 02445 81302 10292 20220 30084 40089 8352/ 333 59004 70150 83616 88458==
41953,2024,05,08,12,00,AAXX 08124 41953 02440 80000 10272 20230 30082 40087 8352/ 333 10294 59004 70150 83616 88458==
41953,2024,05,08,15,00,AAXX 08154 41953 02435 30000 10252 20240 30095 40100 83500 333 59007 70150 83628==
41953,2024,05,08,18,00,AAXX 08184 41953 02430 30000 10248 20240 30099 40104 83500 333 59007 70150 83618==
41953,2024,05,08,21,00,AAXX 08214 41953 02430 30000 10246 20240 30093 40098 83500 333 59020 70150 83618==
41953,2024,05,09,00,00,AAXX 09004 41953 02440 30000 10240 20230 30087 40092 83500 333 59041 70150 83618==
41953,2024,05,09,03,00,AAXX 09034 41953 02445 10000 10300 20220 30100 40105 81500 333 20215 59023 70000 81618==
41953,2024,05,09,06,00,AAXX 09064 41953 02450 63402 10330 20230 30096 40101 84410 333 59014 70000 83618 85458==
41953,2024,05,09,09,00,AAXX 09094 41953 02450 41803 10335 20240 30072 40077 84400 333 59012 70000 83618==
41953,2024,05,09,12,00,AAXX 09124 41953 02450 60000 10305 20240 30064 40069 83510 333 10337 59018 70000 83616 85458==
41953,2024,05,09,15,00,AAXX 09154 41953 02440 40000 10280 20250 30088 40093 84400 333 59007 70000 83618==
41953,2024,05,09,18,00,AAXX 09184 41953 02440 30000 10270 20250 30091 40096 83500 333 59008 70000 83618==
41953,2024,05,09,21,00,AAXX 09214 41953 02435 60000 10258 20250 30090 40095 83510 333 59003 70000 83616 85458==
41955,2024,05,03,00,00,AAXX 03004 41955 NIL=
41955,2024,05,03,06,00,AAXX 03064 41955 NIL=
41955,2024,05,03,12,00,AAXX 03124 41955 NIL=
41955,2024,05,04,00,00,AAXX 04004 41955 NIL=
41955,2024,05,04,06,00,AAXX 04064 41955 NIL=
41955,2024,05,04,12,00,AAXX 04124 41955 NIL=
41955,2024,05,05,12,00,AAXX 05124 41955 NIL=
41955,2024,05,05,18,00,AAXX 05184 41955 NIL=
41955,2024,05,06,00,00,AAXX 06004 41955 NIL=
41955,2024,05,06,06,00,AAXX 06064 41955 NIL=
41955,2024,05,06,12,00,AAXX 06124 41955 NIL=
41955,2024,05,07,06,00,AAXX 07064 41955 NIL=
41955,2024,05,07,18,00,AAXX 07184 41955 NIL=
41955,2024,05,08,00,00,AAXX 08004 41955 NIL=
41955,2024,05,08,06,00,AAXX 08064 41955 NIL=
41955,2024,05,08,18,00,AAXX 08184 41955 NIL=
41955,2024,05,09,06,00,AAXX 09064 41955 NIL=
41955,2024,05,09,12,00,AAXX 09124 41955 NIL=
41955,2024,05,09,18,00,AAXX 09184 41955 NIL=
41958,2024,05,03,00,00,AAXX 03004 41958 32958 00000 10286 20280 30036 40038 333 58039 70000=
41958,2024,05,03,03,00,AAXX 03034 41958 32558 12701 10350 20270 30062 40064 81100 333 20282 56500 58037 70000 81825=
41958,2024,05,03,06,00,AAXX 03064 41958 32458 12702 10380 20260 30056 40058 81500 333 56500 58037 70000 81617=
41958,2024,05,03,09,00,AAXX 03094 41958 32558 22602 10400 20260 30032 40034 82100 333 56500 58033 70000 82825=
41958,2024,05,03,12,00,AAXX 03124 41958 11456 42304 10330 20270 30036 40038 69964 70396 84400 333 10400 56500 58035 70006 83616=
41958,2024,05,03,15,00,AAXX 03154 41958 32950 01502 10308 20280 30060 40062 333 58039 70006=
41958,2024,05,03,18,00,AAXX 03184 41958 32940 01502 10294 20280 30058 40060 333 58031 70006=
41958,2024,05,03,21,00,AAXX 03214 41958 32940 00000 10288 20280 30059 40061 333 58026 70006=
41958,2024,05,04,00,00,AAXX 04004 41958 32450 31801 10286 20280 30063 40065 81501 333 56909 58027 70006 81617 83080=
41958,2024,05,04,03,00,AAXX 04034 41958 32457 33002 10334 20270 30079 40081 83400 333 20280 56500 58017 70006 82617=
41958,2024,05,04,06,00,AAXX 04064 41958 32458 30000 10378 20250 30065 40067 83400 333 56500 58009 70006 82617=
41958,2024,05,04,09,00,AAXX 04094 41958 32458 30000 10372 20250 30035 40037 83400 333 56500 58003 70006 82617=
41958,2024,05,04,12,00,AAXX 04124 41958 32956 42502 10340 20260 30028 40030 80001 333 10382 56009 59008 70000 84080=
41958,2024,05,04,15,00,AAXX 04154 41958 32450 21502 10304 20270 30041 40043 82500 333 56300 59019 70000 82617=
41958,2024,05,04,18,00,AAXX 04184 41958 32940 01702 10296 20280 30035 40037 333 59023 70000=
41958,2024,05,04,21,00,AAXX 04214 41958 32940 01702 10290 20270 30029 40031 333 59030 70000=
41958,2024,05,05,00,00,AAXX 05004 41958 32450 41702 10288 20280 30031 40033 84400 333 56500 59032 70000 83616=
41958,2024,05,05,03,00,AAXX 05034 41958 32457 22502 10332 20270 30044 40046 82500 333 20285 56500 59035 70000 82617=
41958,2024,05,05,06,00,AAXX 05064 41958 32458 52202 10372 20250 30036 40038 85400 333 56500 59029 70000 84617=
41958,2024,05,05,09,00,AAXX 05094 41958 32458 31801 10367 20270 30015 40017 83500 333 56500 59020 70000 83617=
41958,2024,05,05,12,00,AAXX 05124 41958 32456 31802 10320 20270 30016 40018 83500 333 10376 56500 59012 70000 83617=
41958,2024,05,05,15,00,AAXX 05154 41958 32450 41801 10305 20280 30030 40032 84400 333 56400 59011 70000 83617=
41958,2024,05,05,18,00,AAXX 05184 41958 32450 41801 10304 20270 30047 40049 84400 333 56400 58012 70000 83617=
41958,2024,05,05,21,00,AAXX 05214 41958 32450 41801 10300 20270 30044 40046 84400 333 56400 58015 70000 83617=
41958,2024,05,06,00,00,AAXX 06004 41958 32450 30000 10296 20280 30046 40048 83500 333 56900 58015 70000 83617=
41958,2024,05,06,03,00,AAXX 06034 41958 32458 31802 10335 20270 30066 40068 83500 333 20290 56900 58022 70000 83617=
41958,2024,05,06,06,00,AAXX 06064 41958 32458 51802 10352 20250 30061 40063 85400 333 56400 58025 70000 84617=
41958,2024,05,06,09,00,AAXX 06094 41958 32458 51802 10348 20270 30036 40038 85400 333 56400 58021 70000 84617=
41958,2024,05,06,12,00,AAXX 06124 41958 32456 81804 10320 20270 30042 40044 8542/ 333 10355 56499 58026 70000 84616 88459=
41958,2024,05,06,15,00,AAXX 06154 41958 21440 81602 10225 20225 30087 40089 79596 8592/ 333 56499 58057 6011/ 70110 84615 82928 88459=
41958,2024,05,06,18,00,AAXX 06184 41958 11430 81602 10220 20220 30117 40119 60279 79596 8592/ 333 56499 59030 70270 84615 82928 88459=
41958,2024,05,06,21,00,AAXX 06214 41958 21430 81601 10224 20210 30096 40098 79596 8592/ 333 56499 58052 6002/ 70290 84615 82928 88459=
41958,2024,05,07,00,00,AAXX 07004 41958 11450 80000 10232 20220 30097 40099 60028 70296 8532/ 333 56499 58051 70290 84616 81930 88459=
41958,2024,05,07,03,00,AAXX 07034 41958 32456 61801 10282 20230 30096 40098 83510 333 20214 56490 58030 70290 84616 81930 86459=
41958,2024,05,07,06,00,AAXX 07064 41958 32456 31301 10310 20230 30101 40103 83400 333 56200 58040 70290 83616=
41958,2024,05,07,09,00,AAXX 07094 41958 32456 60000 10330 20250 30082 40084 83410 333 56990 58046 70290 83616 85458=
41958,2024,05,07,12,00,AAXX 07124 41958 32450 60000 10318 20250 30072 40074 83410 333 10332 56990 58030 70290 83616 85459=
41958,2024,05,07,15,00,AAXX 07154 41958 32450 61301 10292 20240 30092 40094 83410 333 56290 58005 70180 83616 85459=
41958,2024,05,07,18,00,AAXX 07184 41958 32940 00000 10277 20250 30096 40098 333 59021 70020=
41958,2024,05,08,00,00,AAXX 08004 41958 11440 81305 10230 20230 30093 40095 60217 79396 8592/ 333 56299 59004 70210 84616 82928 88458=
41958,2024,05,08,03,00,AAXX 08034 41958 32456 61701 10270 20220 30115 40117 83410 333 20224 56490 58019 70210 83616 85459=
41958,2024,05,08,06,00,AAXX 08064 41958 32450 81701 10298 20220 30106 40108 8542/ 333 56499 58005 70210 84616 88458=
41958,2024,05,08,09,00,AAXX 08094 41958 32456 81701 10303 20210 30085 40087 8542/ 333 56499 58003 70210 84616 88458=
41958,2024,05,08,12,00,AAXX 08124 41958 32456 30000 10292 20230 30076 40078 83400 333 10310 56900 58004 70210 83616=
41958,2024,05,08,15,00,AAXX 08154 41958 32450 30000 10266 20250 30092 40094 83400 333 56900 58000 70210 83616=
41958,2024,05,08,18,00,AAXX 08184 41958 32940 00000 10258 20240 30091 40093 333 59005 70210=
41958,2024,05,08,21,00,AAXX 08214 41958 32940 00000 10252 20240 30084 40086 333 59010 70210=
41958,2024,05,09,00,00,AAXX 09004 41958 32950 00000 10248 20240 30082 40084 333 59011 70000=
41958,2024,05,09,03,00,AAXX 09034 41958 32450 80000 10298 20230 30100 40102 8542/ 333 20244 56999 59015 70000 84616 88458=
41958,2024,05,09,06,00,AAXX 09064 41958 32456 61301 10325 20240 30095 40097 83410 333 56290 59011 70000 83616 85459=
41958,2024,05,09,09,00,AAXX 09094 41958 31450 80000 10298 20250 30081 40083 71722 8592/ 333 56999 59004 70000 84616 81929 88458=
41958,2024,05,09,12,00,AAXX 09124 41958 11450 80000 10260 20250 30068 40070 60055 70296 8542/ 333 10330 56999 59008 70050 84616 88458=
41958,2024,05,09,15,00,AAXX 09154 41958 32450 80000 10256 20230 30093 40095 8542/ 333 56999 58001 70050 84616 88458=
41958,2024,05,09,18,00,AAXX 09184 41958 NIL=
41958,2024,05,09,21,00,AAXX 09214 41958 32440 80000 10240 20230 30094 40096 8542/ 333 56999 58010 70070 84616 88458=
41960,2024,05,03,00,00,AAXX 03004 41960 02950 00000 10285 20280 30048 40049 333 58043 70000==
41960,2024,05,03,03,00,AAXX 03034 41960 02456 30000 10338 20280 30061 40062 83400 333 20282 58029 70000 82618==
41960,2024,05,03,06,00,AAXX 03064 41960 02457 61804 10364 20260 30056 40058 85410 333 58029 70000 83618 85459==
41960,2024,05,03,09,00,AAXX 03094 41960 02457 51806 10353 20270 30042 40044 85400 333 58034 70000 83618 83822==
41960,2024,05,03,12,00,AAXX 03124 41960 02456 61804 10329 20270 30039 40041 83510 333 10370 58030 70000 83618 85458==
41960,2024,05,03,15,00,AAXX 03154 41960 01550 21803 10305 20290 30068 40070 71321 82300 333 58039 70000 81825 81930==
41960,2024,05,03,18,00,AAXX 03184 41960 02550 11802 10295 20290 30062 40064 81100 333 58027 70000 81825==
41960,2024,05,03,21,00,AAXX 03214 41960 02550 10000 10286 20280 30064 40066 81100 333 58024 70000 81825==
41960,2024,05,04,00,00,AAXX 04004 41960 02450 20000 10280 20280 30069 40070 81510 333 58021 70000 81618==
41960,2024,05,04,03,00,AAXX 04034 41960 02456 51802 10330 20270 30084 40086 83410 333 20275 58023 70000 82618 85459==
41960,2024,05,04,06,00,AAXX 04064 41960 02457 51803 10362 20240 30068 40070 85400 333 58012 70000 83618==
41960,2024,05,04,09,00,AAXX 04094 41960 02458 31805 10382 20230 30044 40045 83410 333 58002 70000 82618 83460==
41960,2024,05,04,12,00,AAXX 04124 41960 02456 31803 10330 20250 30035 40037 83410 333 10385 59004 70000 82618 83460==
41960,2024,05,04,15,00,AAXX 04154 41960 02950 01802 10300 20270 30049 40051 333 59019 70000==
41960,2024,05,04,18,00,AAXX 04184 41960 02950 01802 10290 20280 30040 40041 333 59022 70000==
41960,2024,05,04,21,00,AAXX 04214 41960 02950 01802 10284 20270 30040 40041 333 59024 70000==
41960,2024,05,05,00,00,AAXX 05004 41960 02450 20000 10277 20270 30039 40041 82411 333 59030 70000 81618==
41960,2024,05,05,03,00,AAXX 05034 41960 02456 31804 10335 20270 30054 40055 83410 333 20274 59030 70000 82618 83459==
41960,2024,05,05,06,00,AAXX 05064 41960 02457 41807 10356 20270 30045 40048 83510 333 59022 70000 82618 84459==
41960,2024,05,05,09,00,AAXX 05094 41960 32457 41812 10357 20280 30027 40029 84400 333 56400 59017 70000 82618 83822=
41960,2024,05,05,12,00,AAXX 05124 41960 02456 51810 10320 20260 30023 40025 83510 333 10360 59012 70000 83618 85458==
41960,2024,05,05,15,00,AAXX 05154 41960 02450 41803 10302 20270 30043 40044 84400 333 59006 70000 82618==
41960,2024,05,05,18,00,AAXX 05184 41960 02450 81502 10297 20280 30062 40063 8542/ 333 58022 70000 83617 83822 88459==
41960,2024,05,05,21,00,AAXX 05214 41960 02450 51802 10290 20280 30065 40067 85410 333 58025 70000 83617 85459==
41960,2024,05,06,00,00,AAXX 06004 41960 02450 21802 10282 20270 30061 40063 82401 333 58022 70000 81618==
41960,2024,05,06,03,00,AAXX 06034 41960 02456 51805 10328 20270 30070 40071 83410 333 20264 58016 70000 82618 85459==
41960,2024,05,06,06,00,AAXX 06064 41960 02456 61809 10354 20260 30066 40068 83510 333 58020 70000 83618 86459==
41960,2024,05,06,09,00,AAXX 06094 41960 02457 51815 10342 20260 30048 40050 85400 333 58021 70000 83618 83822==
41960,2024,05,06,12,00,AAXX 06124 41960 01356 83603 10232 20230 30058 40060 79596 8692/ 333 10356 58023 70040 83707 84615 88456 81926==
41960,2024,05,06,15,00,AAXX 06154 41960 01430 80904 10218 20218 30087 40089 79596 8692/ 333 58044 70218 84615 88458 82928==
41960,2024,05,06,18,00,AAXX 06184 41960 21430 81502 10222 20222 30133 40135 79596 8692/ 333 58017 60349 70384 82708 84614 88458 82928==
41960,2024,05,06,21,00,AAXX 06214 41960 01450 81902 10225 20225 30117 40119 70296 8542/ 333 58052 70450 84617 88459==
41960,2024,05,07,00,00,AAXX 07004 41960 11450 70000 10233 20220 30087 40089 60076 70196 85410 333 58026 70450 83618 87459==
41960,2024,05,07,03,00,AAXX 07034 41960 02456 81802 10260 20230 30098 40100 8352/ 333 20215 58028 70450 83618 88459==
41960,2024,05,07,06,00,AAXX 07064 41960 02456 61802 10306 20230 30100 40102 85410 333 58034 70450 83618 86459==
41960,2024,05,07,09,00,AAXX 07094 41960 02456 70000 10318 20250 30087 40089 85410 333 58039 70450 83618 87459==
41960,2024,05,07,12,00,AAXX 07124 41960 02456 80000 10297 20250 30084 40086 8352/ 333 10320 58026 70410 83618 88458==
41960,2024,05,07,15,00,AAXX 07154 41960 02/50 31802 10275 20250 30097 40099 83010 333 58010 70232 83460==
41960,2024,05,07,18,00,AAXX 07184 41960 02950 00000 10264 20250 30105 40107 333 59028 70066==
41960,2024,05,07,21,00,AAXX 07214 41960 02450 80000 10250 20240 30110 40112 8542/ 333 59007 70000 83617 83822 88458==
41960,2024,05,08,00,00,AAXX 08004 41960 01430 83402 10220 20210 30120 40121 79596 8592/ 333 58033 70070 83616 88458 82928==
41960,2024,05,08,03,00,AAXX 08034 41960 01450 80000 10236 20230 30115 40117 70296 8452/ 333 20215 58017 70164 84618 88459==
41960,2024,05,08,06,00,AAXX 08064 41960 11456 83402 10284 20220 30105 40107 60096 70296 8352/ 333 58005 70164 83618 88459==
41960,2024,05,08,09,00,AAXX 08094 41960 02450 81802 10290 20220 30092 40093 8452/ 333 58005 70164 84617 83822 88459==
41960,2024,05,08,12,00,AAXX 08124 41960 02456 50000 10280 20230 30085 40086 82530 333 10300 58001 70164 82618 83362==
41960,2024,05,08,15,00,AAXX 08154 41960 02450 61801 10250 20240 30097 40099 85410 333 58000 70164 83618 86459==
41960,2024,05,08,18,00,AAXX 08184 41960 02950 00000 10245 20245 30038 40100 333 59007 70164==
41960,2024,05,08,21,00,AAXX 08214 41960 02950 00000 10242 20240 30093 40094 333 59017 70164==
41960,2024,05,09,00,00,AAXX 09004 41960 01/40 30000 10238 20238 30086 40088 70500 82041 333 59034 70090 82363 83078==
41960,2024,05,09,03,00,AAXX 09034 41960 02456 30000 10306 20230 30096 40098 82501 333 20232 59019 70000 82618 82078==
41960,2024,05,09,06,00,AAXX 09064 41960 02457 51802 10330 20220 30092 40094 83510 333 59013 70000 83618 85459==
41960,2024,05,09,09,00,AAXX 09094 41960 02456 80000 10331 20220 30080 40082 8542/ 333 59012 70000 83617 83822 88459==
41960,2024,05,09,12,00,AAXX 09124 41960 02450 80000 10307 20250 30069 40071 8542/ 333 10344 59016 70000 83617 83822 88459==
41960,2024,05,09,15,00,AAXX 09154 41960 02450 31802 10281 20260 30086 40088 83401 333 59011 70000 82618==
41960,2024,05,09,18,00,AAXX 09184 41960 02450 82704 10274 20260 30102 40104 8542/ 333 58004 70000 83617 83822 88459==
41960,2024,05,09,21,00,AAXX 09214 41960 02450 80000 10262 20260 30101 40102 8342/ 333 58008 70000 82618 88459==
41963,2024,05,03,00,00,AAXX 03004 41963 02957 01802 10275 20260 30049 40052 333 58035 70000==
41963,2024,05,03,03,00,AAXX 03034 41963 02457 41203 10305 20280 30064 40067 83400 333 20265 58027 70000 82618==
41963,2024,05,03,06,00,AAXX 03064 41963 02457 41806 10345 20270 30062 40065 84400 333 58045 70000 82618 83825==
41963,2024,05,03,09,00,AAXX 03094 41963 02457 31605 10337 20290 30048 40051 83400 333 58031 70000 82618==
41963,2024,05,03,12,00,AAXX 03124 41963 02457 41804 10315 20280 30044 40047 82560 333 10354 58029 70000 82618 84362==
41963,2024,05,03,15,00,AAXX 03154 41963 01450 32102 10296 20290 30070 40073 71396 83900 333 58030 70000 82618 81928==
41963,2024,05,03,21,00,AAXX 03214 41963 02950 00000 10285 20270 30067 40070 333 58022 70000==
41963,2024,05,04,00,00,AAXX 04004 41963 02457 30000 10274 20230 30066 40068 83400 333 58017 70000 81618 83825==
41963,2024,05,04,03,00,AAXX 04034 41963 02457 41803 10325 20260 30089 40092 84400 333 20260 58025 70000 81618 83825==
41963,2024,05,04,06,00,AAXX 04064 41963 02557 21606 10334 20250 30074 40077 82100 333 58012 70000 82825==
41963,2024,05,04,09,00,AAXX 04094 41963 02457 21305 10330 20270 30048 40051 82500 333 58000 70000 82618==
41963,2024,05,04,12,00,AAXX 04124 41963 02/57 42002 10314 20260 30032 40035 84060 333 10343 59012 70000 84363==
41963,2024,05,04,21,00,AAXX 04214 41963 02950 00000 10277 20270 30046 40049 333 59021 70000==
41963,2024,05,05,00,00,AAXX 05004 41963 02/57 31602 10283 20260 30042 40045 83060 333 59024 70000 83362==
41963,2024,05,05,03,00,AAXX 05034 41963 02457 31606 10340 20260 30061 40064 83400 333 20270 59028 70000 81618 83825==
41963,2024,05,05,06,00,AAXX 05064 41963 02557 12110 10340 20260 30058 40061 81100 333 59016 70000 81825==
41963,2024,05,05,09,00,AAXX 05094 41963 32457 32007 10343 20260 30033 40036 83400 333 56400 59015 70000 81618 83825=
41963,2024,05,05,12,00,AAXX 05124 41963 02457 11806 10315 20260 30028 40031 81500 333 10343 59004 70000 81618==
41963,2024,05,05,15,00,AAXX 05154 41963 02450 21802 10305 20250 30052 40055 82500 333 58000 70000 82618==
41963,2024,05,05,18,00,AAXX 05184 41963 NIL=
41963,2024,05,05,21,00,AAXX 05214 41963 01450 40000 10268 20260 30061 40064 70396 82530 333 58015 70160 82618 83362==
41963,2024,05,06,00,00,AAXX 06004 41963 11/57 30000 10274 20260 30062 40065 60166 70162 83030 333 58020 70160 83363==
41963,2024,05,06,03,00,AAXX 06034 41963 02458 21802 10310 20250 30084 40087 82500 333 20260 58025 70160 82618==
41963,2024,05,06,06,00,AAXX 06064 41963 NIL=
41963,2024,05,06,12,00,AAXX 06124 41963 NIL=
41963,2024,05,06,15,00,AAXX 06154 41963 01320 83203 10230 20230 30101 40103 71796 8392/ 333 58049 70400 82708 83616 88456 82926==
41963,2024,05,07,00,00,AAXX 07004 41963 02440 53602 10265 20250 30083 40086 82510 333 58021 70380 82618 85458==
41963,2024,05,07,03,00,AAXX 07034 41963 02450 53602 10280 20210 30102 40105 82510 333 20210 58018 70380 82618 85458==
41963,2024,05,07,06,00,AAXX 07064 41963 NIL=
41963,2024,05,07,12,00,AAXX 07124 41963 02450 51802 10285 20250 30080 40082 82510 333 10310 58019 70240 82618 85458==
41963,2024,05,07,15,00,AAXX 07154 41963 02440 20000 10270 20250 30101 40102 82500 333 59001 70140 82618==
41963,2024,05,07,18,00,AAXX 07184 41963 NIL=
41963,2024,05,08,00,00,AAXX 08004 41963 02320 80236 10210 20210 30113 40116 8392/ 333 58030 70070 82708 83616 81826 88458==
41963,2024,05,08,03,00,AAXX 08034 41963 01440 60000 10220 20220 30115 40118 72196 83510 333 20200 58013 70110 82618 85458==
41963,2024,05,08,06,00,AAXX 08064 41963 11456 61802 10295 20210 30103 40105 60046 70296 82510 333 58001 70110 82618 86458==
41963,2024,05,08,09,00,AAXX 08094 41963 02456 61802 10300 20220 30082 40085 82510 333 58000 70110 82618 86458==
41963,2024,05,08,12,00,AAXX 08124 41963 02440 60000 10270 20250 30077 40080 82510 333 10310 58003 70110 82618 86458==
41963,2024,05,08,15,00,AAXX 08154 41963 01930 00000 10250 20250 30092 40095 70500 333 59008 70110==
41963,2024,05,08,18,00,AAXX 08184 41963 NIL=
41963,2024,05,09,00,00,AAXX 09004 41963 01920 30000 10240 20240 30080 40083 70510 80001 333 59033 70040 83080==
41963,2024,05,09,03,00,AAXX 09034 41963 02950 31801 10300 20230 30096 40099 80001 333 20230 59019 70000 83080==
41963,2024,05,09,06,00,AAXX 09064 41963 02457 21801 10330 20230 30089 40092 82500 333 59014 70000 82618==
41963,2024,05,09,09,00,AAXX 09094 41963 02457 21801 10330 20230 30068 40070 82500 333 59014 70000 82618==
41963,2024,05,09,12,00,AAXX 09124 41963 02450 21801 10300 20250 30064 40066 82510 333 10340 59013 70000 82618==
41963,2024,05,09,15,00,AAXX 09154 41963 01930 00000 10262 20260 30087 40089 70500 333 59005 70000==
41963,2024,05,09,18,00,AAXX 09184 41963 NIL=
41964,2024,05,03,00,00,AAXX 03004 41964 01558 21402 10247 20240 30045 40058 70196 82200 333 58043 70080 82826==
41964,2024,05,03,03,00,AAXX 03034 41964 02/58 11405 10307 20250 30063 40066 81010 333 20236 58033 70080 81460==
41964,2024,05,03,06,00,AAXX 03064 41964 02558 51805 10334 20280 30057 40059 85400 333 58029 70080 82620 83825==
41964,2024,05,03,09,00,AAXX 03094 41964 02558 51907 10338 20280 30044 40047 85400 333 58023 70000 82620 83825==
41964,2024,05,03,12,00,AAXX 03124 41964 02558 61906 10311 20280 30036 40038 85312 333 10341 58032 70080 84620 85460 81930==
41964,2024,05,03,15,00,AAXX 03154 41964 02457 61905 10309 20280 30063 40065 86400 333 58029 70080 85618==
41964,2024,05,03,18,00,AAXX 03184 41964 01457 42306 10306 20290 30059 40061 71322 84300 333 58022 70080 83618 81928==
41964,2024,05,03,21,00,AAXX 03214 41964 01357 72103 10260 20250 30059 40061 72122 86610 333 58022 70082 82709 85616 87460==
41964,2024,05,04,00,00,AAXX 04004 41964 21557 31502 10262 20240 30059 40062 70162 81230 333 58014 69925 70002 81825 83362==
41964,2024,05,04,03,00,AAXX 04034 41964 02/58 51404 10310 20250 30084 40086 83012 333 20250 58021 70002 83460 83080==
41964,2024,05,04,06,00,AAXX 04064 41964 02458 31803 10336 20270 30080 40082 83500 333 58023 70002 83618==
41964,2024,05,04,09,00,AAXX 04094 41964 02558 32103 10339 20270 30045 40047 81102 333 58001 70002 81825 83080==
41964,2024,05,04,12,00,AAXX 04124 41964 02458 61903 10310 20270 30035 40037 82502 333 10347 59001 70002 82618 85078==
41964,2024,05,04,15,00,AAXX 04154 41964 02457 42203 10301 20270 30043 40045 84500 333 59020 70002 84618==
41964,2024,05,04,18,00,AAXX 04184 41964 02457 22303 10299 20270 30040 40042 82500 333 59019 70002 82618==
41964,2024,05,04,21,00,AAXX 04214 41964 02457 42302 10294 20270 30037 40039 84500 333 59022 70000 84618==
41964,2024,05,05,00,00,AAXX 05004 41964 02557 72502 10291 20270 30034 40036 85412 333 59025 70000 84620 85460==
41964,2024,05,05,03,00,AAXX 05034 41964 02458 51406 10296 20240 30063 40066 84410 333 20285 59021 70000 83618 83460==
41964,2024,05,05,06,00,AAXX 05064 41964 02958 01806 10327 20260 30057 40059 333 59023 70000==
41964,2024,05,05,09,00,AAXX 05094 41964 32558 42106 10330 20270 30028 40030 84400 333 56500 59017 70000 81620 83825=
41964,2024,05,05,12,00,AAXX 05124 41964 02558 42105 10311 20270 30021 40023 84400 333 10334 59014 70000 81620 83825==
41964,2024,05,05,15,00,AAXX 05154 41964 02357 71903 10305 20270 30051 40053 86610 333 58008 70000 82709 85616 85460==
41964,2024,05,05,18,00,AAXX 05184 41964 01357 80512 10263 20220 30065 40067 71722 8632/ 333 58025 70000 83709 85615 88458 81928==
41964,2024,05,05,21,00,AAXX 05214 41964 01457 61404 10245 20240 30061 40063 70196 85410 333 58024 70070 84618 86460==
41964,2024,05,06,00,00,AAXX 06004 41964 11557 51303 10243 20230 30057 40059 60076 70196 81182 333 58023 70070 81825 83362==
41964,2024,05,06,03,00,AAXX 06034 41964 02958 21906 10308 20240 30073 40076 80002 333 20233 58010 70070 82080==
41964,2024,05,06,06,00,AAXX 06064 41964 02958 01806 10330 20270 30071 40073 333 58014 70070==
41964,2024,05,06,09,00,AAXX 06094 41964 01318 83208 10226 20226 30068 40071 79796 8692/ 333 58040 70302 85707 85614 88457 82928==
41964,2024,05,06,12,00,AAXX 06124 41964 21358 81308 10242 20200 30063 40065 70296 8632/ 333 10335 58042 60539 70596 82709 85616 88460 81930==
41964,2024,05,06,15,00,AAXX 06154 41964 01340 81602 10228 20220 30103 40106 79596 8692/ 333 58052 70630 84707 85614 88457 81928==
41964,2024,05,06,18,00,AAXX 06184 41964 21340 80000 10225 20225 30126 40129 79596 8692/ 333 58061 60119 70702 84707 85614 88457 81928==
41964,2024,05,06,21,00,AAXX 06214 41964 01357 81604 10233 20210 30094 40096 70296 8662/ 333 58033 70700 82709 85615 88458==
41964,2024,05,07,00,00,AAXX 07004 41964 11457 71303 10240 20210 30070 40072 60076 70196 83570 333 58013 70700 83617 84460 85362==
41964,2024,05,07,03,00,AAXX 07034 41964 02457 71402 10270 20220 30102 40104 82510 333 20206 58029 70700 82618 86460==
41964,2024,05,07,06,00,AAXX 07064 41964 02957 31801 10310 20210 30096 40099 80001 333 58025 70700 83080==
41964,2024,05,07,09,00,AAXX 07094 41964 02458 62102 10314 20220 30086 40088 82512 333 58018 70468 82618 85460==
41964,2024,05,07,12,00,AAXX 07124 41964 02558 60000 10286 20250 30079 40081 81112 333 10323 58016 70174 81825 83460 85078==
41964,2024,05,07,15,00,AAXX 07154 41964 02457 20000 10256 20250 30092 40095 82500 333 59011 70140 82617==
41964,2024,05,07,18,00,AAXX 07184 41964 02/57 10000 10247 20240 30095 40098 81030 333 59031 70068 81362==
41964,2024,05,07,21,00,AAXX 07214 41964 02/56 40000 10239 20230 30094 40096 83032 333 58000 70000 83362==
41964,2024,05,08,00,00,AAXX 08004 41964 02456 70000 10243 20243 30096 40098 82510 333 58026 70000 82618 87460==
41964,2024,05,08,03,00,AAXX 08034 41964 01350 80000 10224 20210 30121 40123 79596 8632/ 333 20208 58019 70050 84709 83617 88458 81928==
41964,2024,05,08,06,00,AAXX 08064 41964 11450 61805 10290 20240 30105 40107 60066 70196 83510 333 58009 70058 83618 85460==
41964,2024,05,08,09,00,AAXX 08094 41964 02457 72302 10305 20230 30079 40081 8351/ 333 59007 70058 83617 87460==
41964,2024,05,08,12,00,AAXX 08124 41964 02457 60000 10270 20240 30074 40076 82532 333 10311 59005 70058 82618 83362 85078==
41964,2024,05,08,15,00,AAXX 08154 41964 02/57 30000 10250 20240 30091 40093 82032 333 59001 70058 82362==
41964,2024,05,08,18,00,AAXX 08184 41964 02956 10000 10236 20236 30090 40093 80002 333 59005 70058 81078==
41964,2024,05,08,21,00,AAXX 08214 41964 01950 20000 10228 20228 30083 40086 70511 80002 333 59011 70058 82080==
41964,2024,05,09,00,00,AAXX 09004 41964 01550 40000 10229 20229 30075 40078 70511 81101 333 59021 70058 81825 84080==
41964,2024,05,09,03,00,AAXX 09034 41964 02/57 31401 10300 20220 30090 40093 82012 333 20217 59031 70008 82460==
41964,2024,05,09,06,00,AAXX 09064 41964 02958 01802 10333 20220 30080 40082 333 59025 70000==
41964,2024,05,09,09,00,AAXX 09094 41964 02/58 32302 10330 20220 30068 40070 81032 333 59011 70000 81362 83078==
41964,2024,05,09,12,00,AAXX 09124 41964 02/58 42302 10307 20250 30059 40061 82032 333 10341 59015 70000 82362 83078==
41964,2024,05,09,15,00,AAXX 09154 41964 02956 10000 10266 20260 30079 40081 80002 333 59012 70000 81078==
41964,2024,05,09,18,00,AAXX 09184 41964 02956 20000 10253 20240 30089 40092 80002 333 59001 70000 82078==
41964,2024,05,09,21,00,AAXX 09214 41964 02456 50000 10248 20240 30087 40090 82510 333 58004 70000 82618 85460==
41965,2024,05,03,00,00,AAXX 03004 41965 01430 81402 10255 20220 30053 40062 70296 8461/ 333 58030 70130 81710 83618 88460==
41965,2024,05,03,03,00,AAXX 03034 41965 02450 51302 10314 20220 30068 40077 84610 333 20220 58034 70009 83618 86460==
41965,2024,05,03,06,00,AAXX 03064 41965 02456 31401 10336 20260 30061 40070 83600 333 58034 70005 83618==
41965,2024,05,03,09,00,AAXX 03094 41965 02456 30000 10330 20250 30044 40053 83600 333 58032 70050 83618==
41965,2024,05,03,12,00,AAXX 03124 41965 02440 50000 10300 20260 30048 40057 84610 333 10340 58033 70050 83618 84460==
41965,2024,05,03,15,00,AAXX 03154 41965 01430 81402 10290 20270 30064 40073 70362 8461/ 333 58023 70070 81710 83618 88460==
41965,2024,05,04,00,00,AAXX 04004 41965 NIL=
41965,2024,05,04,03,00,AAXX 04034 41965 02450 30000 10290 20220 30083 40092 83600 333 20230 58015 70090 83618==
41965,2024,05,04,06,00,AAXX 04064 41965 02456 31402 10320 20240 30069 40078 83600 333 58008 70090 83618==
41965,2024,05,04,12,00,AAXX 04124 41965 02440 31402 10300 20250 30039 40048 83600 333 10350 59009 70090 83618==
41965,2024,05,04,15,00,AAXX 04154 41965 02440 31301 10293 20260 30047 40056 83600 333 59017 70070 83618==
41965,2024,05,05,00,00,AAXX 05004 41965 21430 81402 10250 20220 30052 40061 70296 8461/ 333 59033 60065 70060 81710 83618 88460==
41965,2024,05,05,03,00,AAXX 05034 41965 02450 31303 10270 20200 30068 40077 83600 333 20240 59015 70060 83618==
41965,2024,05,05,06,00,AAXX 05064 41965 02456 30000 10320 20240 30055 40064 83600 333 59014 70060 83618==
41965,2024,05,05,09,00,AAXX 05094 41965 32456 31403 10338 20240 30028 40037 83600 333 56900 59032 70060 83618=
41965,2024,05,05,12,00,AAXX 05124 41965 02440 61302 10306 20250 30024 40033 84610 333 10350 59024 70060 83618 86460==
41965,2024,05,05,15,00,AAXX 05154 41965 02440 61402 10297 20250 30053 40062 84610 333 58006 70060 83618 86460==
41965,2024,05,05,18,00,AAXX 05184 41965 NIL=
41965,2024,05,06,00,00,AAXX 06004 41965 NIL=
41965,2024,05,06,03,00,AAXX 06034 41965 02450 30000 10290 20220 30079 40088 83600 333 20215 58011 70070 83618==
41965,2024,05,06,06,00,AAXX 06064 41965 NIL=
41965,2024,05,06,09,00,AAXX 06094 41965 01440 81405 10200 20160 30048 40057 79722 8461/ 333 58020 70520 81710 83618 88460==
41965,2024,05,06,12,00,AAXX 06124 41965 21430 81304 10215 20180 30043 40051 79196 8461/ 333 10335 58019 60517 70580 81710 83618 88460==
41965,2024,05,06,15,00,AAXX 06154 41965 01430 80000 10202 20160 30046 40055 76196 8461/ 333 59007 70630 81710 83618 88456==
41965,2024,05,07,03,00,AAXX 07034 41965 02450 60000 10260 20180 30099 40108 84610 333 20190 58020 70640 83618 84460==
41965,2024,05,07,06,00,AAXX 07064 41965 02456 31402 10295 20200 30096 40105 83600 333 58033 70640 83618==
41965,2024,05,07,09,00,AAXX 07094 41965 02456 50000 10315 20200 30082 40091 84610 333 58034 70190 83618 86460==
41965,2024,05,07,12,00,AAXX 07124 41965 02440 50000 10275 20230 30081 40090 84610 333 10340 58038 70130 83618 84460==
41965,2024,05,07,15,00,AAXX 07154 41965 02430 50000 10235 20200 30094 40103 84610 333 58048 70080 83618 84460==
41965,2024,05,07,18,00,AAXX 07184 41965 NIL=
41965,2024,05,07,21,00,AAXX 07214 41965 02430 60000 10230 20200 30100 40109 84610 333 58041 70000 83618 86460==
41965,2024,05,08,00,00,AAXX 08004 41965 02430 80000 10230 20210 30107 40116 8461/ 333 58036 70000 81710 83618 88460==
41965,2024,05,08,03,00,AAXX 08034 41965 01440 80000 10235 20210 30097 40106 70261 8461/ 333 20210 59002 70030 81710 83618 88460==
41965,2024,05,08,06,00,AAXX 08064 41965 11440 81402 10260 20200 30093 40102 60036 70261 8461/ 333 55316 59003 70030 81710 83618 88460==
41965,2024,05,08,09,00,AAXX 08094 41965 02440 60000 10305 20200 30077 40086 84610 333 59005 70030 83618 86460==
41965,2024,05,08,15,00,AAXX 08154 41965 02430 30000 10240 20210 30093 40102 83600 333 59001 70030 83618==
41965,2024,05,08,18,00,AAXX 08184 41965 02440 30000 10235 20210 30095 40104 83600 333 59002 70030 83618==
41965,2024,05,08,21,00,AAXX 08214 41965 02430 30000 10235 20220 30097 40106 83600 333 59003 70030 83618==
41965,2024,05,09,00,00,AAXX 09004 41965 02440 50000 10233 20220 30082 40091 84610 333 59025 70030 83618 86460==
41965,2024,05,09,03,00,AAXX 09034 41965 02450 30000 10295 20200 30093 40102 83600 333 20200 59004 70000 83618==
41965,2024,05,09,06,00,AAXX 09064 41965 02456 31402 10320 20200 30089 40098 83600 333 59004 70000 83618==
41965,2024,05,09,09,00,AAXX 09094 41965 02456 30801 10330 20200 30066 40075 83600 333 59011 70000 83618==
41965,2024,05,09,12,00,AAXX 09124 41965 02440 30000 10295 20240 30060 40067 83600 333 10345 59016 70000 83618==
41965,2024,05,09,15,00,AAXX 09154 41965 02430 30000 10260 20230 30083 40092 83600 333 59010 70000 83618==
41965,2024,05,09,18,00,AAXX 09184 41965 NIL=
41966,2024,05,03,00,00,AAXX 03004 41966 21430 71802 10230 20220 39994 40074 72996 83510 333 58045 60029 70655 83616 86460==
41966,2024,05,03,03,00,AAXX 03034 41966 02450 42101 10295 20180 30007 40085 82510 333 10215 58050 70610 82616 83460==
41966,2024,05,03,06,00,AAXX 03064 41966 02450 41501 10336 20180 39998 40078 82510 333 58045 70608 82616 83460==
41966,2024,05,03,09,00,AAXX 03094 41966 02550 21501 10342 20180 39978 40055 82100 333 58016 70450 82827==
41966,2024,05,03,12,00,AAXX 03124 41966 02440 41602 10310 20220 39976 40054 82510 333 10350 58025 70440 82616 83460==
41966,2024,05,03,15,00,AAXX 03154 41966 02435 41502 10298 20250 39995 40073 82510 333 58010 70440 82616 83460==
41966,2024,05,03,21,00,AAXX 03214 41966 01330 82101 10240 20220 39994 40073 79596 8592/ 333 58002 70040 82709 84615 88460 81930==
41966,2024,05,04,00,00,AAXX 04004 41966 21440 61802 10240 20220 30003 40083 70196 83510 333 59009 60059 70050 83616 85460==
41966,2024,05,04,03,00,AAXX 04034 41966 02450 41801 10305 20220 30020 40098 82510 333 20230 58013 70050 82616 83460==
41966,2024,05,04,06,00,AAXX 04064 41966 02450 42102 10330 20190 30008 40085 82510 333 58010 70050 82616 83460==
41966,2024,05,04,09,00,AAXX 04094 41966 02/50 31602 10350 20110 39980 40057 83030 333 58002 70050 83362==
41966,2024,05,04,12,00,AAXX 04124 41966 02/40 31201 10310 20190 39981 40058 83030 333 10355 58004 70050 83362==
41966,2024,05,04,15,00,AAXX 04154 41966 02430 41201 10290 20250 30001 40079 82510 333 58006 70050 82616 83460==
41966,2024,05,04,21,00,AAXX 04214 41966 02430 41401 10265 20230 39988 40067 82510 333 59006 70020 82616 83460==
41966,2024,05,05,00,00,AAXX 05004 41966 01335 81501 10260 20230 39980 40059 71722 8432/ 333 59024 70000 82709 83615 88460 81930==
41966,2024,05,05,03,00,AAXX 05034 41966 01440 61802 10250 20200 30003 40083 70196 83510 333 20240 59015 70350 83616 85460==
41966,2024,05,05,06,00,AAXX 05064 41966 11450 41702 10330 20210 30000 40077 60356 70196 82510 333 59008 70350 82616 83460==
41966,2024,05,05,09,00,AAXX 05094 41966 02450 41803 10330 20170 39973 40050 82510 333 59007 70350 82616 83460==
41966,2024,05,05,12,00,AAXX 05124 41966 02440 42101 10310 20220 39967 40044 82510 333 10340 59014 70350 82616 83460==
41966,2024,05,05,15,00,AAXX 05154 41966 02430 61803 10295 20260 39984 40062 83510 333 59017 70350 83616 85460==
41966,2024,05,05,18,00,AAXX 05184 41966 21320 82104 10240 20220 30023 40103 79596 8492/ 333 58030 60207 70550 82709 83615 88460 81930==
41966,2024,05,05,21,00,AAXX 05214 41966 01320 82102 10225 20210 30009 40088 72996 8472/ 333 58021 70600 82709 83615 88460==
41966,2024,05,06,00,00,AAXX 06004 41966 21440 80901 10220 20190 39993 40073 70296 8352/ 333 58014 60058 70600 83616 88460==
41966,2024,05,06,03,00,AAXX 06034 41966 02450 41301 10290 20170 30021 40100 82510 333 20210 58017 70250 82616 83460==
41966,2024,05,06,06,00,AAXX 06064 41966 02450 61501 10320 20160 30020 40097 83510 333 58020 70250 83616 85460==
41966,2024,05,06,09,00,AAXX 06094 41966 02350 83601 10285 20210 39998 40076 8472/ 333 58026 70250 82709 83615 88460==
41966,2024,05,06,12,00,AAXX 06124 41966 21330 83603 10218 20200 30003 40083 79596 8472/ 333 10325 58039 60157 70400 82709 83615 88460 81930==
41966,2024,05,06,15,00,AAXX 06154 41966 01330 80902 10216 20180 30002 40083 72996 8472/ 333 58021 70410 82709 83615 88460==
41966,2024,05,06,21,00,AAXX 06214 41966 01330 81402 10215 20200 30034 40115 72996 8472/ 333 58027 70200 82709 83615 88460==
41966,2024,05,07,00,00,AAXX 07004 41966 21440 71202 10230 20190 30030 40111 70196 83510 333 58038 69958 70200 83616 86460==
41966,2024,05,07,03,00,AAXX 07034 41966 02450 60401 10265 20240 30045 40124 83510 333 20210 58024 70200 83616 85460==
41966,2024,05,07,06,00,AAXX 07064 41966 02450 41301 10303 20220 30032 40110 82510 333 58013 70200 82616 83460==
41966,2024,05,07,09,00,AAXX 07094 41966 02450 41801 10328 20210 30013 40090 82510 333 58014 70200 82616 83460==
41966,2024,05,07,12,00,AAXX 07124 41966 02440 41801 10290 20230 30014 40092 82510 333 10335 58009 70050 82616 83460==
41966,2024,05,07,15,00,AAXX 07154 41966 02430 51201 10260 20240 30023 40102 83510 333 58019 70040 83616 84460==
41966,2024,05,07,18,00,AAXX 07184 41966 NIL=
41966,2024,05,07,21,00,AAXX 07214 41966 02430 61601 10235 20230 30033 40113 83510 333 59002 70000 83616 85460==
41966,2024,05,08,00,00,AAXX 08004 41966 02440 60901 10225 20220 30028 40109 83510 333 59002 70000 83616 85460==
41966,2024,05,08,03,00,AAXX 08034 41966 01450 61302 10230 20210 30048 40129 72992 82510 333 20220 58005 70100 82616 85460==
41966,2024,05,08,06,00,AAXX 08064 41966 21450 61802 10265 20190 30045 40124 70296 83510 333 58014 60105 70100 83616 85460==
41966,2024,05,08,09,00,AAXX 08094 41966 02450 61501 10305 20130 30008 40086 83510 333 59004 70100 83616 85460==
41966,2024,05,08,12,00,AAXX 08124 41966 02440 51801 10270 20220 30018 40097 82510 333 10315 58005 70100 82616 84460==
41966,2024,05,08,18,00,AAXX 08184 41966 02430 51301 10240 20220 30040 40120 82510 333 59010 70100 82616 84460==
41966,2024,05,08,21,00,AAXX 08214 41966 02430 51201 10235 20220 30030 40110 82510 333 59003 70100 82616 84460==
41966,2024,05,09,00,00,AAXX 09004 41966 02440 50901 10220 20200 30015 40095 82510 333 59014 70100 82616 84460==
41966,2024,05,09,03,00,AAXX 09034 41966 02/50 33602 10305 20150 30020 40098 83030 333 20210 59031 70000 83362==
41966,2024,05,09,06,00,AAXX 09064 41966 NIL=
41966,2024,05,09,09,00,AAXX 09094 41966 02/50 31802 10335 20100 30001 40078 83030 333 59008 70000 83362==
41966,2024,05,09,12,00,AAXX 09124 41966 02440 42702 10306 20160 39995 40073 82510 333 10340 59024 70000 82616 83460==
41966,2024,05,09,18,00,AAXX 09184 41966 NIL=
41966,2024,05,09,21,00,AAXX 09214 41966 02430 41301 10260 20240 30024 40103 82510 333 59007 70000 82616 83460==
41977,2024,05,03,00,00,AAXX 03004 41977 21450 72104 10230 20220 30030 40067 72196 84610 333 58037 60397 70470 81710 84615 87459==
41977,2024,05,03,03,00,AAXX 03034 41977 02950 00000 10311 20230 30057 40094 333 20220 58018 70470==
41977,2024,05,03,06,00,AAXX 03064 41977 02450 61604 10338 20270 30050 40087 85470 333 58002 70390 84616 86460==
41977,2024,05,03,09,00,AAXX 03094 41977 02456 52006 10328 20260 30033 40070 83510 333 58030 70390 83616 85460==
41977,2024,05,03,12,00,AAXX 03124 41977 02356 61806 10313 20270 30032 40070 84610 333 10340 58038 70390 81710 84615 86460==
41977,2024,05,03,15,00,AAXX 03154 41977 02356 61806 10305 20280 30052 40089 84610 333 58030 70390 81710 84615 86460==
41977,2024,05,03,18,00,AAXX 03184 41977 21350 70000 10290 20280 30045 40083 72196 84610 333 58013 60047 70430 81710 84615 87459==
41977,2024,05,03,21,00,AAXX 03214 41977 01350 70000 10245 20230 30044 40082 72196 84610 333 58012 70790 81710 84615 87459==
41977,2024,05,04,00,00,AAXX 04004 41977 41450 50000 10240 20230 30050 40089 58020 70400 85460==
41977,2024,05,04,03,00,AAXX 04034 41977 41450 40000 10308 20235 30075 40113 58018 70400 84460==
41977,2024,05,04,06,00,AAXX 04064 41977 41450 40000 10337 20230 30056 40093 58006 70522 84560==
41977,2024,05,04,09,00,AAXX 04094 41977 01450 40000 10338 20240 30032 40069 70522 82510 333 59001 70400 82618 84460==
41977,2024,05,04,12,00,AAXX 04124 41977 01450 72103 10313 20250 30024 40061 70522 82510 333 10345 59010 70400 82617 87459==
41977,2024,05,04,15,00,AAXX 04154 41977 01440 61303 10304 20260 30034 40071 70522 83530 333 59018 70400 83617 86362==
41977,2024,05,04,18,00,AAXX 04184 41977 01440 71805 10302 20260 30032 40069 70522 83570 333 59013 70360 83616 85460==
41977,2024,05,04,21,00,AAXX 04214 41977 01440 50000 10288 20260 30016 40053 70522 83530 333 59028 70000 83616 85362==
41977,2024,05,05,00,00,AAXX 05004 41977 01440 80000 10278 20260 30029 40067 70522 8532/ 333 59021 70000 84615 88460 81928==
41977,2024,05,05,03,00,AAXX 05034 41977 01440 81603 10251 20210 30065 40103 70261 8532/ 333 20236 59010 70010 84615 88460 81928==
41977,2024,05,05,06,00,AAXX 05064 41977 11450 41804 10322 20220 30045 40083 60016 70261 84530 333 59011 70010 84618 84362==
41977,2024,05,05,09,00,AAXX 05094 41977 32450 31903 10331 20260 30017 40054 83400 333 56900 59015 70010 82618=
41977,2024,05,05,12,00,AAXX 05124 41977 02450 72103 10309 20260 30013 40050 84310 333 10340 59011 70010 82618 87460 81930==
41977,2024,05,05,15,00,AAXX 05154 41977 01450 70000 10299 20270 30043 40080 72192 84310 333 58009 70010 82709 87460 81928==
41977,2024,05,05,18,00,AAXX 05184 41977 01445 72905 10263 20220 30065 40103 70296 84310 333 58033 70022 82709 87460 81930==
41977,2024,05,05,21,00,AAXX 05214 41977 01450 80000 10240 20220 30048 40086 72196 8432/ 333 58032 70232 82708 88460 81928==
41977,2024,05,06,00,00,AAXX 06004 41977 21450 71702 10234 20210 30048 40087 79605 83530 333 58019 60218 70232 83616 86362==
41977,2024,05,06,03,00,AAXX 06034 41977 01450 42005 10300 20220 30058 40096 70522 84530 333 20225 59007 70021 84618 84362==
41977,2024,05,06,06,00,AAXX 06064 41977 01450 52106 10327 20240 30066 40103 70522 82530 333 58021 70033 82617 85363==
41977,2024,05,06,09,00,AAXX 06094 41977 01330 81810 10253 20210 30041 40079 79662 8692/ 333 58024 70083 84709 88458 82928==
41977,2024,05,06,12,00,AAXX 06124 41977 21330 81806 10222 20200 30068 40107 79692 8692/ 333 10340 58055 60587 70613 83707 88458 81928==
41977,2024,05,06,15,00,AAXX 06154 41977 01330 81805 10220 20200 30096 40135 79596 8692/ 333 58053 70649 83708 84614 88458 81928==
41977,2024,05,06,18,00,AAXX 06184 41977 21330 81804 10217 20210 30100 40139 76396 8632/ 333 59035 60109 70705 83708 85615 88458 81928==
41977,2024,05,06,21,00,AAXX 06214 41977 01330 81306 10222 20210 30082 40121 76166 8632/ 333 58034 70726 83708 85615 88458 81928==
41977,2024,05,07,00,00,AAXX 07004 41977 21440 81503 10224 20190 30053 40092 70562 8452/ 333 58005 60048 70728 84616 88460==
41977,2024,05,07,03,00,AAXX 07034 41977 01450 70000 10265 20200 30098 40136 70522 84570 333 20214 58040 70728 84618 85460==
41977,2024,05,07,06,00,AAXX 07064 41977 01450 60903 10308 20200 30079 40117 70522 84570 333 58013 70728 84618 85462==
41977,2024,05,07,09,00,AAXX 07094 41977 01450 60000 10313 20190 30063 40101 70522 83570 333 58022 70678 83618 85460==
41977,2024,05,07,12,00,AAXX 07124 41977 01450 50000 10286 20210 30066 40104 70522 82501 333 10326 59002 70148 82618 85074==
41977,2024,05,07,15,00,AAXX 07154 41977 01450 50000 10253 20240 30086 40125 70522 82530 333 59010 70112 82617 85359==
41977,2024,05,07,18,00,AAXX 07184 41977 01/40 30000 10248 20230 30085 40123 70521 83030 333 59015 70044 83362==
41977,2024,05,07,21,00,AAXX 07214 41977 01440 40000 10244 20230 30067 40105 70521 82530 333 59015 70002 82618 83362==
41977,2024,05,08,00,00,AAXX 08004 41977 01440 70000 10242 20230 30078 40117 70521 84570 333 59025 70000 84616 85460==
41977,2024,05,08,03,00,AAXX 08034 41977 01340 80000 10231 20210 30115 40153 76161 8472/ 333 20228 58017 70020 82710 84612 88458==
41977,2024,05,08,06,00,AAXX 08064 41977 21445 71204 10265 20210 30101 40139 70161 84570 333 58022 60038 70030 84616 86460==
41977,2024,05,08,09,00,AAXX 08094 41977 01445 70000 10309 20190 30074 40111 70520 84570 333 58011 70030 84616 86460==
41977,2024,05,08,12,00,AAXX 08124 41977 01440 80000 10270 20230 30063 40101 70522 8452/ 333 10310 59003 70030 84616 88460==
41977,2024,05,08,15,00,AAXX 08154 41977 01440 80000 10249 20230 30076 40114 70522 8452/ 333 59010 70030 84616 88460==
41977,2024,05,08,18,00,AAXX 08184 41977 01440 70000 10244 20230 30072 40110 70522 83510 333 59013 70030 83618 87460==
41977,2024,05,08,21,00,AAXX 08214 41977 01440 60000 10236 20230 30058 40096 70522 83510 333 59009 70030 83618 86460==
41977,2024,05,09,00,00,AAXX 09004 41977 01945 50000 10233 20230 30062 40101 70522 80009 333 59016 70030 82180==
41977,2024,05,09,03,00,AAXX 09034 41977 01450 40000 10300 20210 30081 40119 70522 84530 333 20225 59034 70010 84618 82362==
41977,2024,05,09,06,00,AAXX 09064 41977 01950 40000 10320 20190 30078 40116 70522 80001 333 59023 70000 84074==
41977,2024,05,09,09,00,AAXX 09094 41977 02950 40000 10320 20210 30054 40522 80001 333 59020 70000 84074==
41977,2024,05,09,12,00,AAXX 09124 41977 01450 40000 10302 20230 30047 40084 70522 84530 333 10325 59016 70000 86418 82362==
41977,2024,05,09,15,00,AAXX 09154 41977 01450 40000 10270 20250 30067 40105 70522 84530 333 59009 70000 86418 82362==
41977,2024,05,09,18,00,AAXX 09184 41977 01450 40000 10260 20250 30077 40117 70522 84530 333 58005 70000 86418 82362==
41977,2024,05,09,21,00,AAXX 09214 41977 01450 40000 10258 20250 30072 40110 70522 84530 333 58014 70000 86418 82362==
41978,2024,05,03,00,00,AAXX 03004 41978 01450 81204 10228 20220 30054 40061 72996 8432/ 333 58042 70030 83616 88460 81928==
41978,2024,05,03,03,00,AAXX 03034 41978 02959 01605 10317 20250 30070 40076 333 20224 58028 70092==
41978,2024,05,03,06,00,AAXX 03064 41978 02459 21910 10340 20290 30066 40072 82800 333 58033 70033 82620==
41978,2024,05,03,09,00,AAXX 03094 41978 02458 22013 10337 20300 30051 40058 82800 333 58028 70032 82620==
41978,2024,05,03,12,00,AAXX 03124 41978 02456 62011 10313 20290 30048 40055 82520 333 10347 58037 70032 83616 85460==
41978,2024,05,03,15,00,AAXX 03154 41978 01450 71909 10304 20290 30066 40073 72162 84320 333 58026 70034 83616 87460 81930==
41978,2024,05,03,18,00,AAXX 03184 41978 22450 71908 10302 20290 30064 40070 84320 333 58018 69925 70034 83616 87460 81930==
41978,2024,05,03,21,00,AAXX 03214 41978 01440 81207 10247 20240 30056 40062 79596 8432/ 333 58016 70284 83616 88459 81928==
41978,2024,05,04,00,00,AAXX 04004 41978 21440 71004 10240 20230 30067 40073 71796 84320 333 58015 60278 70272 83616 87460 81930==
41978,2024,05,04,03,00,AAXX 04034 41978 01457 20803 10300 20250 30090 40097 70191 82800 333 20236 58020 70272 82620==
41978,2024,05,04,06,00,AAXX 04064 41978 333 58011 70272 82620==
41978,2024,05,04,09,00,AAXX 04094 41978 01/56 22108 10337 20270 30053 40059 70511 82020 333 58002 70272 82460==
41978,2024,05,04,12,00,AAXX 04124 41978 02/56 52105 10314 20270 30042 40048 50521 83021 333 10341 59006 70272 83460 85080==
41978,2024,05,04,15,00,AAXX 04154 41978 01456 52009 10303 20270 30154 40060 70522 82520 333 59012 70270 82618 84460==
41978,2024,05,04,18,00,AAXX 04184 41978 01450 52009 10293 20270 30052 40058 70522 83320 333 59012 70270 83617 85460 81930==
41978,2024,05,04,21,00,AAXX 04214 41978 01450 52006 10285 20280 30030 40036 70522 83520 333 59026 70020 83617 85460==
41978,2024,05,05,00,00,AAXX 05004 41978 01440 51306 10277 20270 30044 40050 70522 83520 333 59023 70000 83617 85460==
41978,2024,05,05,03,00,AAXX 05034 41978 01450 71208 10256 20240 30071 40078 70562 84320 333 20250 59017 70050 83614 87460 81928==
41978,2024,05,05,06,00,AAXX 05064 41978 11458 11812 10320 20250 30063 40069 60056 70161 81500 333 59014 70050 81620==
41978,2024,05,05,09,00,AAXX 05094 41978 32557 21814 10333 20280 30036 40043 82100 333 56900 59017 70050 82826=
41978,2024,05,05,12,00,AAXX 05124 41978 02456 61814 10313 20280 30030 40036 83320 333 10336 59012 70050 82618 85460 81930==
41978,2024,05,05,15,00,AAXX 05154 41978 02456 61706 10304 20280 30059 40065 83320 333 58005 70050 82618 85460 81930==
41978,2024,05,05,18,00,AAXX 05184 41978 22456 60609 10286 20280 30069 40076 84320 333 58017 60055 70100 82618 85460 81930==
41978,2024,05,05,21,00,AAXX 05214 41978 01440 61006 10240 20230 30058 40065 79596 84320 333 58028 70350 82616 86460 81930==
41978,2024,05,06,00,00,AAXX 06004 41978 21450 51503 10232 20220 30068 40074 70596 82520 333 58024 60278 70370 82616 84460==
41978,2024,05,06,03,00,AAXX 06034 41978 02/57 21506 10296 20230 30085 40092 82020 333 20225 58014 70320 82460==
41978,2024,05,06,06,00,AAXX 06064 41978 02457 11710 10327 20260 30085 40091 81500 333 58022 70320 81620==
41978,2024,05,06,09,00,AAXX 06094 41978 01450 82008 10317 20280 30050 40056 71721 8432/ 333 58014 70320 83616 88460 81928==
41978,2024,05,06,12,00,AAXX 06124 41978 21424 81205 10214 20214 30088 40094 79596 8432/ 333 10334 58058 60977 71290 83612 88460 81928==
41978,2024,05,06,15,00,AAXX 06154 41978 01440 81206 10218 20218 30119 40125 76196 8432/ 333 58060 71394 83614 88459 81928==
41978,2024,05,06,18,00,AAXX 06184 41978 21340 83105 10222 20210 30122 40129 79296 8432/ 333 58053 60189 71420 83709 88459 81928==
41978,2024,05,06,21,00,AAXX 06214 41978 01450 80306 10230 20200 30113 40119 70296 8432/ 333 58055 71204 83616 88460 81928==
41978,2024,05,07,00,00,AAXX 07004 41978 11456 71506 10234 20180 30064 40071 60036 70196 84320 333 59004 71184 83618 87460 81930==
41978,2024,05,07,03,00,AAXX 07034 41978 02457 73506 10262 20210 30116 40123 84390 333 20198 58031 71184 83616 87460 81930==
41978,2024,05,07,06,00,AAXX 07064 41978 02458 40404 10314 20210 30098 40104 82530 333 58013 71184 82618 83360==
41978,2024,05,07,09,00,AAXX 07094 41978 02/56 42308 10316 20230 30082 40088 82031 333 58032 71184 82262 83080==
41978,2024,05,07,12,00,AAXX 07124 41978 02456 42906 10301 20220 30083 40090 81501 333 10327 59005 70214 81818 84080==
41978,2024,05,07,15,00,AAXX 07154 41978 02450 41503 10264 20240 30097 40103 82501 333 59022 70214 82618 84080==
41978,2024,05,07,18,00,AAXX 07184 41978 02450 40000 10258 20240 30101 40108 82530 333 59021 70034 82618 83365==
41978,2024,05,07,21,00,AAXX 07214 41978 01440 40000 10254 20240 30086 40092 70511 82530 333 59027 70000 82618 84362==
41978,2024,05,08,00,00,AAXX 08004 41978 01432 70503 10251 20240 30088 40095 70521 83520 333 58023 70000 83618 87460==
41978,2024,05,08,03,00,AAXX 08034 41978 01456 83310 10240 20210 30132 40139 76196 8432/ 333 20227 58016 70040 83615 88459 81928==
41978,2024,05,08,06,00,AAXX 08064 41978 21458 61108 10256 20230 30112 40119 72196 83370 333 58014 60069 70060 82620 85460 81930==
41978,2024,05,08,09,00,AAXX 08094 41978 02458 70000 10302 20210 30080 40087 84320 333 59002 70060 83615 87460 81930==
41978,2024,05,08,12,00,AAXX 08124 41978 02457 72603 10280 20230 30078 40085 84320 333 10306 59005 70060 83615 87460 81930==
41978,2024,05,08,15,00,AAXX 08154 41978 01450 50206 10274 20230 30091 40098 70522 82520 333 59006 70060 82618 85460==
41978,2024,05,08,18,00,AAXX 08184 41978 01440 40503 10256 20230 30094 40100 70522 82530 333 59007 70060 82618 83360==
41978,2024,05,08,21,00,AAXX 08214 41978 01435 40404 10249 20230 30086 40093 70522 82530 333 58000 70060 82618 83360==
41978,2024,05,09,00,00,AAXX 09004 41978 01916 30503 10242 20230 30081 40087 71011 80001 333 59006 70060 83080==
41978,2024,05,09,03,00,AAXX 09034 41978 01956 30000 10300 20230 30096 40103 70511 80001 333 20236 59036 70020 83080==
41978,2024,05,09,06,00,AAXX 09064 41978 01458 42810 10316 20210 30093 40099 70511 81501 333 59029 70000 81625 84080==
41978,2024,05,09,09,00,AAXX 09094 41978 01957 43008 10322 20220 30074 40080 70522 80001 333 59006 70000 84080==
41978,2024,05,09,12,00,AAXX 09124 41978 01957 42503 10303 20250 30066 40072 70522 80001 333 10324 59012 70000 84080==
41978,2024,05,09,15,00,AAXX 09154 41978 01450 42202 10282 20250 30085 40091 70511 82520 333 59006 70000 82618 83460==
41978,2024,05,09,18,00,AAXX 09184 41978 01445 42403 10274 20240 30094 40100 70522 82520 333 58000 70000 82618 83460==
41978,2024,05,09,21,00,AAXX 09214 41978 01445 50000 10266 20250 30080 40087 70522 82520 333 59006 70000 82618 84460==
41980,2024,05,03,00,00,AAXX 03004 41980 11350 81804 10227 20220 39945 40058 60072 79596 8692/ 333 56999 58037 70070 83709 84615 81930 88458=
41980,2024,05,03,06,00,AAXX 03064 41980 NIL=
41980,2024,05,03,12,00,AAXX 03124 41980 32450 20000 10312 20240 39949 40059 81510 333 10346 56990 58029 70070 81617=
41980,2024,05,04,00,00,AAXX 04004 41980 11440 60000 10245 20230 39967 40080 60064 83510 333 56990 58022 70060 83616 85458=
41980,2024,05,04,06,00,AAXX 04064 41980 NIL=
41980,2024,05,04,12,00,AAXX 04124 41980 32450 20000 10310 20240 39942 40052 81510 333 10347 56990 59007 70060 81618=
41980,2024,05,05,00,00,AAXX 05004 41980 32450 60000 10275 20250 39945 40056 82510 333 56990 59022 70000 82617 84458=
41980,2024,05,05,12,00,AAXX 05124 41980 32950 00000 10302 20190 39935 40046 333 10343 59007 70300=
41980,2024,05,05,18,00,AAXX 05184 41980 NIL=
41980,2024,05,06,00,00,AAXX 06004 41980 11450 30000 10237 20200 39967 40080 60225 79602 82510 333 56990 58022 70220 82617=
41980,2024,05,06,06,00,AAXX 06064 41980 NIL=
41980,2024,05,06,12,00,AAXX 06124 41980 11340 83108 10213 20180 39984 40099 60247 72196 8437/ 333 10339 56999 58049 70460 83709 82616 81928 88458=
41980,2024,05,07,00,00,AAXX 07004 41980 11450 51807 10225 20180 39972 40085 60096 79601 82510 333 56990 58005 70330 82617 83458=
41980,2024,05,07,06,00,AAXX 07064 41980 NIL=
41980,2024,05,07,12,00,AAXX 07124 41980 32450 30000 10290 20210 39982 40094 82510 333 10327 56990 58008 70090 82618=
41980,2024,05,07,18,00,AAXX 07184 41980 NIL=
41980,2024,05,08,00,00,AAXX 08004 41980 32450 60000 10254 20200 39980 40093 83510 333 56990 58018 70000 83617 84458=
41980,2024,05,08,06,00,AAXX 08064 41980 NIL=
41980,2024,05,08,12,00,AAXX 08124 41980 32450 60000 10276 20220 39979 40090 83510 333 10313 56990 59003 70000 83617 84458=
41980,2024,05,08,18,00,AAXX 08184 41980 NIL=
41980,2024,05,09,00,00,AAXX 09004 41980 32450 22202 10237 20210 39978 40092 81510 333 56990 59002 70000 81617=
41980,2024,05,09,06,00,AAXX 09064 41980 NIL=
41980,2024,05,09,12,00,AAXX 09124 41980 32450 20000 10293 20220 39963 40074 81510 333 10335 56990 59016 70000 81617=
41980,2024,05,09,18,00,AAXX 09184 41980 NIL=
41984,2024,05,03,00,00,AAXX 03004 41984 02450 50000 10295 20290 30035 40037 85400 333 58044 70000 84618==
41984,2024,05,03,03,00,AAXX 03034 41984 02458 62303 10340 20280 30056 40058 84410 333 20290 58035 70000 83618 86459==
41984,2024,05,03,06,00,AAXX 03064 41984 02458 62108 10365 20290 30052 40054 86400 333 58029 70000 83618 83823==
41984,2024,05,03,09,00,AAXX 03094 41984 02458 62108 10360 20290 30036 40038 86400 333 58028 70000 83618 83823==
41984,2024,05,03,12,00,AAXX 03124 41984 02456 62307 10324 20280 30036 40038 84410 333 10375 58029 70000 83618 86459==
41984,2024,05,03,15,00,AAXX 03154 41984 02440 42106 10310 20280 30059 40061 84400 333 58040 70000 83618==
41984,2024,05,03,18,00,AAXX 03184 41984 02440 42106 10300 20290 30055 40057 84400 333 58028 70000 83618==
41984,2024,05,03,21,00,AAXX 03214 41984 02440 42302 10295 20290 30061 40063 84400 333 58029 70000 83618==
41984,2024,05,04,00,00,AAXX 04004 41984 02450 62302 10290 20280 30059 40061 84410 333 58005 70000 83618 86459==
41984,2024,05,04,03,00,AAXX 04034 41984 02458 42306 10343 20260 30076 40078 84400 333 20288 58020 70000 83618==
41984,2024,05,04,06,00,AAXX 04064 41984 02458 32306 10368 20260 30065 40067 83400 333 58013 70000 82618==
41984,2024,05,04,09,00,AAXX 04094 41984 02458 32307 10363 20260 30038 40040 83400 333 58002 70000 82618==
41984,2024,05,04,12,00,AAXX 04124 41984 02456 61808 10320 20270 30032 40034 84400 333 10375 59004 70000 83618 86459==
41984,2024,05,04,15,00,AAXX 04154 41984 02440 61803 10305 20290 30040 40042 84410 333 59019 70000 83618 86459==
41984,2024,05,04,18,00,AAXX 04184 41984 02440 41803 10300 20280 30033 40035 84400 333 59022 70000 83618==
41984,2024,05,04,21,00,AAXX 04214 41984 02440 41803 10298 20280 30032 40034 84400 333 59029 70000 83618==
41984,2024,05,05,00,00,AAXX 05004 41984 02450 31803 10295 20280 30031 40033 83500 333 59028 70000 83618==
41984,2024,05,05,03,00,AAXX 05034 41984 02458 51808 10340 20260 30046 40048 85400 333 20290 59030 70000 82618 83823==
41984,2024,05,05,06,00,AAXX 05064 41984 02458 62010 10357 20270 30051 40053 86400 333 59014 70000 83618 83823==
41984,2024,05,05,09,00,AAXX 05094 41984 32458 61812 10340 20270 30026 40028 86400 333 56400 59012 70000 83618 83823=
41984,2024,05,05,12,00,AAXX 05124 41984 02456 41808 10315 20280 30016 40018 84500 333 10361 59016 70000 84618==
41984,2024,05,05,15,00,AAXX 05154 41984 02440 31910 10308 20280 30035 40037 83400 333 59005 70000 82618==
41984,2024,05,05,18,00,AAXX 05184 41984 02440 42303 10302 20280 30050 40052 84400 333 58017 70000 83618==
41984,2024,05,05,21,00,AAXX 05214 41984 02440 41903 10300 20280 30046 40048 84400 333 58014 70000 83618==
41984,2024,05,06,00,00,AAXX 06004 41984 02450 61906 10298 20280 30052 40054 84410 333 58021 70000 83616 86459==
41984,2024,05,06,03,00,AAXX 06034 41984 02458 71910 10333 20260 30068 40070 85410 333 20290 58022 70000 84617 87459==
41984,2024,05,06,06,00,AAXX 06064 41984 02458 71813 10350 20270 30066 40068 86410 333 58015 70000 83616 83823 87459==
41984,2024,05,06,09,00,AAXX 06094 41984 02458 72012 10340 20260 30041 40043 86410 333 58015 70000 83616 83823 87459==
41984,2024,05,06,12,00,AAXX 06124 41984 01330 80410 10230 20220 30052 40054 79622 8592/ 333 10353 58036 70050 84616 88459 81930==
41984,2024,05,06,15,00,AAXX 06154 41984 01320 80616 10215 20215 30084 40086 79596 8692/ 333 58049 70510 84614 88458 82928==
41984,2024,05,06,18,00,AAXX 06184 41984 22320 80802 10220 20220 30129 40131 8692/ 333 58079 60679 70720 84614 88458 82928==
41984,2024,05,06,21,00,AAXX 06214 41984 01320 80000 10230 20230 30084 40086 79596 8692/ 333 58038 70780 84614 88458 82930==
41984,2024,05,07,00,00,AAXX 07004 41984 21430 80000 10235 20235 30074 40076 76196 8532/ 333 58022 60089 70800 84616 88459 81930==
41984,2024,05,07,03,00,AAXX 07034 41984 02456 81802 10285 20260 30086 40088 8542/ 333 20210 58018 70800 84616 88459==
41984,2024,05,07,06,00,AAXX 07064 41984 02458 41803 10328 20260 30084 40086 84400 333 58018 70800 83618==
41984,2024,05,07,09,00,AAXX 07094 41984 02458 51803 10340 20260 30075 40077 85400 333 58034 70800 82618 83823==
41984,2024,05,07,12,00,AAXX 07124 41984 02456 61801 10310 20250 30072 40074 84410 333 10350 58020 70750 83618 86459==
41984,2024,05,07,15,00,AAXX 07154 41984 02440 80000 10280 20260 30088 40090 8542/ 333 58004 70000 84618 88459==
41984,2024,05,07,18,00,AAXX 07184 41984 02430 50000 10274 20260 30093 40095 85400 333 59036 70080 84618==
41984,2024,05,08,00,00,AAXX 08004 41984 01420 80000 10225 20225 30109 40111 79592 8692/ 333 58035 70290 84614 88458 82928==
41984,2024,05,08,03,00,AAXX 08034 41984 01430 80000 10233 20230 30108 40110 79596 8592/ 333 20220 58022 70360 84616 88458 81930==
41984,2024,05,08,06,00,AAXX 08064 41984 21450 80000 10268 20230 30097 40099 70296 8542/ 333 58013 60099 70380 84618 88459==
41984,2024,05,08,09,00,AAXX 08094 41984 02450 80000 10273 20230 30074 40076 8542/ 333 59001 70380 84616 88459==
41984,2024,05,08,12,00,AAXX 08124 41984 02450 60000 10275 20250 30071 40073 84410 333 10300 59001 70380 83618 86459==
41984,2024,05,08,15,00,AAXX 08154 41984 02440 60000 10245 20240 30087 40089 84410 333 59001 70380 83618 86459==
41984,2024,05,08,18,00,AAXX 08184 41984 02430 60000 10238 20238 30087 40089 84410 333 59006 70380 83618 86459==
41984,2024,05,08,21,00,AAXX 08214 41984 02430 60000 10236 20236 30082 40084 84410 333 59021 70380 83618 86459==
41984,2024,05,09,00,00,AAXX 09004 41984 02450 60000 10236 20236 30076 40078 84410 333 59033 70090 83618 86459==
41984,2024,05,09,03,00,AAXX 09034 41984 02458 30000 10310 20230 30093 40095 83500 333 20226 59018 70020 83618==
41984,2024,05,09,06,00,AAXX 09064 41984 02458 40000 10335 20240 30092 40094 84400 333 59005 70000 83618==
41984,2024,05,09,09,00,AAXX 09094 41984 02458 61802 10328 20240 30071 40073 84410 333 59003 70000 83618 86459==
41984,2024,05,09,12,00,AAXX 09124 41984 02456 31803 10300 20250 30059 40061 83500 333 10340 59012 70000 83618==
41984,2024,05,09,15,00,AAXX 09154 41984 02430 80000 10273 20250 30082 40084 8542/ 333 59005 70000 84618 88459==
41984,2024,05,09,18,00,AAXX 09184 41984 02430 82308 10280 20260 30084 40086 8542/ 333 59003 70000 84618 88459==
41984,2024,05,09,21,00,AAXX 09214 41984 02430 80000 10260 20240 30087 40089 8542/ 333 58005 70000 84616 88459==
41989,2024,05,03,00,00,AAXX 03004 41989 21450 71804 10286 20270 30043 40046 70362 83570 333 58006 60005 83618 85460==
41989,2024,05,03,03,00,AAXX 03034 41989 01456 31406 10314 20260 30063 40066 70162 82530 333 20270 58006 70010 82618==
41989,2024,05,03,06,00,AAXX 03064 41989 11456 31306 10334 20260 30066 40069 60016 70262 83500 333 58029 70010 83618==
41989,2024,05,03,09,00,AAXX 03094 41989 02456 21407 10338 20260 30048 40051 82500 333 58016 70010 82618==
41989,2024,05,03,12,00,AAXX 03124 41989 02456 41705 10316 20269 30039 40042 82530 333 10342 58017 70010 82628 84362==
41989,2024,05,03,15,00,AAXX 03154 41989 02450 41305 10304 20260 30071 40074 83530 333 58039 70010 83618==
41989,2024,05,03,21,00,AAXX 03214 41989 02450 71706 10278 20250 30077 40080 83570 333 58042 70010 83618 85460==
41989,2024,05,04,00,00,AAXX 04004 41989 21440 41303 10243 20230 30060 40063 70196 82530 333 58017 60265 70270 82618 84362==
41989,2024,05,04,03,00,AAXX 04034 41989 02456 51406 10302 20260 30081 40084 82570 333 20232 58016 70260 82618 83460==
41989,2024,05,04,06,00,AAXX 04064 41989 02456 31704 10324 20240 30082 40085 82530 333 58016 70260 83618==
41989,2024,05,04,09,00,AAXX 04094 41989 02456 21804 10340 20240 30053 40056 82500 333 58005 70260 82618==
41989,2024,05,04,12,00,AAXX 04124 41989 02456 31304 10314 20260 30045 40048 83500 333 10343 58006 70260 83618==
41989,2024,05,04,15,00,AAXX 04154 41989 02450 31702 10298 20270 30051 40054 81530 333 59020 70260 81618 83362==
41989,2024,05,04,21,00,AAXX 04214 41989 02450 21302 10286 20270 30056 40059 82618 333 59021 70260 82618==
41989,2024,05,05,00,00,AAXX 05004 41989 02450 31402 10278 20260 30045 40048 83500 333 59015 70000 83618==
41989,2024,05,05,03,00,AAXX 05034 41989 02456 61306 10304 30066 40069 82570 333 20274 59015 70000 82618 84460==
41989,2024,05,05,09,00,AAXX 05094 41989 32456 21406 10326 20240 30040 40043 82500 333 56900 59013 70000 82618=
41989,2024,05,05,12,00,AAXX 05124 41989 02456 31805 10317 20250 30033 40036 83618 333 10337 59012 70000 83618==
41989,2024,05,05,15,00,AAXX 05154 41989 02450 51804 10300 20250 30061 40064 83530 333 58013 70000 83618 83362==
41989,2024,05,05,18,00,AAXX 05184 41989 NIL=
41989,2024,05,05,21,00,AAXX 05214 41989 02440 41803 10285 20270 30078 40081 84500 333 58022 70000 84618==
41989,2024,05,06,00,00,AAXX 06004 41989 21440 51804 10255 20240 30057 40061 70362 83530 333 58012 60105 70100 83618 83362==
41989,2024,05,06,06,00,AAXX 06064 41989 02450 21803 10320 20250 30083 40086 82500 333 20250 58017 70100 82618==
41989,2024,05,06,12,00,AAXX 06124 41989 21330 81712 10215 20200 30078 40082 79596 8352/ 333 10345 58005 60557 70650 82708 83614 88456 81928==
41989,2024,05,06,15,00,AAXX 06154 41989 01430 71808 10232 20180 30103 40106 70196 82570 333 58045 70670 82628 84460==
41989,2024,05,06,21,00,AAXX 06214 41989 01440 71307 10217 20200 30104 40107 70162 83570 333 58026 70870 83618 84460==
41989,2024,05,07,00,00,AAXX 07004 41989 21440 71508 10227 20190 30071 40074 70262 83570 333 58014 60145 70770 83618 84460==
41989,2024,05,07,03,00,AAXX 07034 41989 02450 52405 10302 20230 30085 40088 82570 333 20206 58002 70770 82618 83362==
41989,2024,05,07,06,00,AAXX 07064 41989 02450 51806 10310 20210 30094 40098 83530 333 58016 70770 83618 83362==
41989,2024,05,07,09,00,AAXX 07094 41989 02456 31304 10316 20210 30072 40075 83500 333 58010 70770 83618==
41989,2024,05,07,12,00,AAXX 07124 41989 02456 41403 10306 20220 30063 40066 82530 333 10326 59015 70770 82618 84362==
41989,2024,05,07,15,00,AAXX 07154 41989 02450 51703 10263 20240 30092 40095 82570 333 59011 70200 82618 83362==
41989,2024,05,07,18,00,AAXX 07184 41989 NIL=
41989,2024,05,07,21,00,AAXX 07214 41989 02450 41302 10256 20240 30093 40096 82530 333 59011 70000 82618 84362==
41989,2024,05,08,00,00,AAXX 08004 41989 02450 61302 10252 20230 30086 40089 82570 333 58016 70000 82618 84460==
41989,2024,05,08,03,00,AAXX 08034 41989 01340 81807 10247 20200 30129 40132 76162 8572/ 333 20230 58044 70020 82710 83614 88456==
41989,2024,05,08,06,00,AAXX 08064 41989 01450 71704 10252 20220 30115 40119 72162 83570 333 58021 70040 83618 84460==
41989,2024,05,08,09,00,AAXX 08094 41989 02450 51803 10263 20230 30082 40086 82570 333 58010 70040 82618 83460==
41989,2024,05,08,12,00,AAXX 08124 41989 02450 61803 10267 20230 30077 40080 83570 333 10272 58014 70040 83618 84460==
41989,2024,05,08,15,00,AAXX 08154 41989 02450 41702 10258 20230 30090 40093 83530 333 59002 70040 83618==
41989,2024,05,08,18,00,AAXX 08184 41989 NIL=
41989,2024,05,08,21,00,AAXX 08214 41989 02450 21402 10243 20220 30091 40095 82500 333 59003 70040 82618==
41989,2024,05,09,00,00,AAXX 09004 41989 02450 21802 10235 20220 30081 40084 82500 333 59006 70040 82618==
41989,2024,05,09,03,00,AAXX 09034 41989 02456 41804 10306 20220 30099 40102 82530 333 20226 59030 70020 82618 83362==
41989,2024,05,09,06,00,AAXX 09064 41989 02450 31803 10320 20220 30097 40101 83500 333 59018 70000 83616==
41989,2024,05,09,09,00,AAXX 09094 41989 02456 21302 10318 20240 30072 40075 82500 333 59010 70000 82618==
41989,2024,05,09,12,00,AAXX 09124 41989 02456 41302 10302 20240 30063 40066 82530 333 70000 82618 84362==
41989,2024,05,09,15,00,AAXX 09154 41989 02450 31803 10280 20240 30091 40094 83500 333 58000 70000 83618==
41989,2024,05,09,18,00,AAXX 09184 41989 NIL=
41989,2024,05,09,21,00,AAXX 09214 41989 02430 43102 10255 20240 30086 40089 84500 333 59005 70000 84618==
41992,2024,05,03,00,00,AAXX 03004 41992 01425 31605 10300 20270 30058 40060 70521 83500 333 58036 70110 83616==
41992,2024,05,03,03,00,AAXX 03034 41992 01935 01605 10320 20250 30077 40079 70510 333 20295 58020 70110==
41992,2024,05,03,06,00,AAXX 03064 41992 41940 01805 10337 20270 30079 40081 70510 333 58044==
41992,2024,05,03,09,00,AAXX 03094 41992 01430 31808 10345 20260 30062 40064 70511 83500 333 59023 70000 83616==
41992,2024,05,03,12,00,AAXX 03124 41992 01430 41808 10315 20270 30064 40066 70521 83530 333 10350 58032 70000 83616 84362==
41992,2024,05,03,15,00,AAXX 03154 41992 01/25 21804 10304 20260 30079 40081 70511 82030 333 58031 70000 82362==
41992,2024,05,03,18,00,AAXX 03184 41992 01425 71803 10294 20270 30072 40074 70521 84530 333 58016 70000 84616 87360==
41992,2024,05,03,21,00,AAXX 03214 41992 01425 41502 10295 20270 30058 40060 70521 83530 333 58016 70000 83616 84362==
41992,2024,05,04,00,00,AAXX 04004 41992 01420 70308 10288 20270 30071 40073 71722 85920 333 58013 70000 84615 87460 81925==
41992,2024,05,04,03,00,AAXX 04034 41992 01425 70000 10283 20230 30102 40104 70596 84320 333 58025 70080 83616 87460 81925==
41992,2024,05,04,06,00,AAXX 04064 41992 11435 10000 10333 20240 30085 40087 60086 70596 81500 333 58006 70080 81616==
41992,2024,05,04,09,00,AAXX 04094 41992 01935 02103 10332 20250 30061 40063 70500 333 59001 70080==
41992,2024,05,04,12,00,AAXX 04124 41992 01430 21505 10315 20270 30061 40063 70511 82500 333 10342 59003 70080 82616==
41992,2024,05,04,15,00,AAXX 04154 41992 01425 31804 10300 20270 30064 40066 70521 83500 333 59016 70080 83616==
41992,2024,05,04,18,00,AAXX 04184 41992 01425 31803 10300 20270 30068 40070 70521 83500 333 59004 70080 83616==
41992,2024,05,04,21,00,AAXX 04214 41992 01425 41502 10290 20260 30041 40043 70521 84500 333 59017 70080 84616==
41992,2024,05,05,00,00,AAXX 05004 41992 01425 31503 10280 20260 30052 40054 70521 83500 333 59019 70080 83616==
41992,2024,05,05,03,00,AAXX 05034 41992 01435 30000 10305 20260 30085 40087 70562 83500 333 20268 59017 70040 83616==
41992,2024,05,05,06,00,AAXX 05064 41992 11435 21706 10324 20250 30073 40075 60046 70562 82500 333 59012 70040 82616==
41992,2024,05,05,09,00,AAXX 05094 41992 31430 21810 10335 20260 30048 40050 70521 82500 333 56900 59013 70040 82616=
41992,2024,05,05,12,00,AAXX 05124 41992 01930 01808 10310 20260 30043 40045 70500 333 10341 59018 70040==
41992,2024,05,05,15,00,AAXX 05154 41992 01425 31805 10305 20260 30066 40068 70510 83500 333 58002 70040 83616==
41992,2024,05,05,18,00,AAXX 05184 41992 01425 31802 10295 20270 30071 40073 70511 83500 333 58003 70040 83616==
41992,2024,05,05,21,00,AAXX 05214 41992 01320 71510 10235 20220 30073 40075 79596 85920 333 58032 70170 84615 87460 81925==
41992,2024,05,06,00,00,AAXX 06004 41992 01325 61805 10245 20200 30081 40083 71796 85920 333 58029 70170 84615 86460 81925==
41992,2024,05,06,03,00,AAXX 06034 41992 01935 01806 10310 20250 30089 40091 70510 333 20228 58004 70130==
41992,2024,05,06,06,00,AAXX 06064 41992 01935 01604 10325 20230 30090 40092 70510 333 58017 70130==
41992,2024,05,06,09,00,AAXX 06094 41992 01430 51510 10330 20260 30071 40073 70521 83520 333 58023 70130 83616 85460==
41992,2024,05,06,12,00,AAXX 06124 41992 01320 83315 10290 20260 30091 40093 79522 8692/ 333 10332 58048 70010 82710 84615 88458 81925==
41992,2024,05,06,15,00,AAXX 06154 41992 01320 80307 10223 20200 30100 40102 76396 8592/ 333 58034 70270 83707 85613 88458 81925==
41992,2024,05,06,18,00,AAXX 06184 41992 21320 83606 10222 20200 30118 40120 76196 8592/ 333 58047 60159 70290 83707 85613 88458 81925==
41992,2024,05,06,21,00,AAXX 06214 41992 01320 80306 10220 20200 30100 40102 79596 8692/ 333 58027 70260 82708 84615 88458 81925==
41992,2024,05,07,00,00,AAXX 07004 41992 21320 81806 10210 20190 30086 40088 75196 8692/ 333 58005 60149 70300 82010 84615 88460 81925==
41992,2024,05,07,03,00,AAXX 07034 41992 01425 70000 10280 20190 30105 40107 70522 83330 333 20206 58016 70300 82616 87360 81925==
41992,2024,05,07,06,00,AAXX 07064 41992 01430 70000 10310 20200 30099 40101 70522 83530 333 58009 70300 83616 87360==
41992,2024,05,07,09,00,AAXX 07094 41992 01/40 30000 10330 20210 30081 40083 70511 83030 333 58010 70300 83362==
41992,2024,05,07,12,00,AAXX 07124 41992 01/30 30000 10300 20220 30089 40091 70511 83030 333 10340 59002 70290 83362==
41992,2024,05,07,15,00,AAXX 07154 41992 01925 03302 10270 20240 30104 40106 70500 333 58004 70160==
41992,2024,05,07,18,00,AAXX 07184 41992 01925 00000 10262 20230 30107 40109 70500 333 59011 70140==
41992,2024,05,07,21,00,AAXX 07214 41992 01925 00902 10255 20240 30086 40088 70500 333 59014 70040==
41992,2024,05,08,00,00,AAXX 08004 41992 01925 00902 10250 20230 30098 40100 70500 333 58012 70000==
41992,2024,05,08,03,00,AAXX 08034 41992 01320 83011 10245 20220 30141 40143 79522 8592/ 333 20242 58036 70010 83708 85614 88458 81925==
41992,2024,05,08,06,00,AAXX 08064 41992 21320 80604 10240 20220 30121 40123 76196 8592/ 333 58022 60067 70060 83708 85614 88458 81925==
41992,2024,05,08,09,00,AAXX 08094 41992 01325 80304 10260 20230 30084 40086 70552 8592/ 333 58003 70060 84615 88460 81925==
41992,2024,05,08,12,00,AAXX 08124 41992 11425 70000 10257 20220 30082 40084 60006 70552 84330 333 10265 59007 70060 84616 87360 81925==
41992,2024,05,08,15,00,AAXX 08154 41992 01425 70000 10250 20230 30097 40099 70522 84320 333 59017 70060 83616 87460 81925==
41992,2024,05,08,18,00,AAXX 08184 41992 01425 70000 10245 20230 30102 40104 70522 84320 333 59005 70060 83616 87460 81925==
41992,2024,05,08,21,00,AAXX 08214 41992 01925 00000 10240 20220 30076 40078 70510 333 59010 70060==
41992,2024,05,09,00,00,AAXX 09004 41992 01425 40302 10235 20230 30094 40096 70521 83530 333 59004 70060 83616 84360==
41992,2024,05,09,03,00,AAXX 09034 41992 01935 00000 10300 20190 30103 40105 70510 333 20233 59038 70050==
41992,2024,05,09,06,00,AAXX 09064 41992 41935 30000 10320 20230 30099 40101 70510 83001 333 59022 83080==
41992,2024,05,09,09,00,AAXX 09094 41992 01930 32410 10325 20230 30080 40082 70510 83001 333 59004 70000 83080==
41992,2024,05,09,12,00,AAXX 09124 41992 01930 02103 10302 20220 30072 40074 70511 333 10330 59010 70000==
41992,2024,05,09,15,00,AAXX 09154 41992 01925 00000 10278 20240 30092 40094 70500 333 59005 70000==
41992,2024,05,09,18,00,AAXX 09184 41992 01925 00000 10268 20250 30101 40103 70500 333 59001 70000==
41992,2024,05,09,21,00,AAXX 09214 41992 01925 00000 10265 20250 30088 40090 70500 333 58012 70000==
41998,2024,05,03,00,00,AAXX 03004 41998 02456 80000 10282 20260 30058 40064 8342/ 333 58001 70000 82618 88458==
41998,2024,05,03,03,00,AAXX 03034 41998 02456 80000 10310 20270 30073 40079 8342/ 333 20268 58012 70070 82618 88458==
41998,2024,05,03,06,00,AAXX 03064 41998 NIL=
41998,2024,05,03,12,00,AAXX 03124 41998 02456 60000 10304 20260 30026 40032 83470 333 10348 59005 70070 82618 84458==
41998,2024,05,04,00,00,AAXX 04004 41998 NIL=
41998,2024,05,04,03,00,AAXX 04034 41998 01456 80000 10290 20250 30058 40064 76166 8442/ 333 20267 59006 70260 83616 88456==
41998,2024,05,04,06,00,AAXX 04064 41998 NIL=
41998,2024,05,04,09,00,AAXX 04094 41998 02456 61503 10324 20270 30025 40031 83470 333 59004 70280 83618 86458==
41998,2024,05,04,12,00,AAXX 04124 41998 02456 60000 10302 20260 30024 40030 83470 333 10336 59002 70280 83618 84458==
41998,2024,05,05,00,00,AAXX 05004 41998 02456 80000 10280 20260 30072 40078 8342/ 333 70080 82618 88458==
41998,2024,05,05,03,00,AAXX 05034 41998 01456 80000 10299 20250 30079 40085 76162 8442/ 333 20266 58015 70050 83618 88458==
41998,2024,05,05,06,00,AAXX 05064 41998 21456 60000 10318 20260 30062 40068 70262 83470 333 58005 60015 70040 82618 83458==
41998,2024,05,05,09,00,AAXX 05094 41998 02456 61803 10336 20280 30022 40028 83470 333 59003 70040 83618 84458==
41998,2024,05,05,12,00,AAXX 05124 41998 02456 60000 10301 20260 30021 40028 83470 333 10345 59003 70040 83618 84458==
41998,2024,05,05,18,00,AAXX 05184 41998 NIL=
41998,2024,05,06,00,00,AAXX 06004 41998 NIL=
41998,2024,05,06,03,00,AAXX 06034 41998 02456 60000 10317 20260 30079 40095 83470 333 20270 58000 70160 82618 83458==
41998,2024,05,06,06,00,AAXX 06064 41998 02456 60000 10330 20280 30071 40077 83470 333 58010 70150 82618 83458==
41998,2024,05,06,09,00,AAXX 06094 41998 02456 62402 10328 20270 30021 40027 83470 333 59001 70150 82618 84458==
41998,2024,05,06,12,00,AAXX 06124 41998 02456 60000 10294 20260 30025 40031 83470 333 10338 58004 70150 83618 84458==
41998,2024,05,07,03,00,AAXX 07034 41998 02456 80000 10296 20260 30088 40094 8442/ 333 20260 58009 70000 82618 88458==
41998,2024,05,07,06,00,AAXX 07064 41998 02456 80000 10310 20260 30084 40090 8342/ 333 58013 70000 82618 88456==
41998,2024,05,07,09,00,AAXX 07094 41998 02456 62702 10322 20250 30045 40051 83470 333 58024 70110 82618 84458==
41998,2024,05,07,12,00,AAXX 07124 41998 02456 60000 10293 20250 30047 40053 83470 333 10334 58022 70110 82618 83458==
41998,2024,05,07,18,00,AAXX 07184 41998 NIL=
41998,2024,05,08,00,00,AAXX 08004 41998 02456 80000 10285 20270 30091 40098 8342/ 333 59007 70000 82618 88458==
41998,2024,05,08,03,00,AAXX 08034 41998 02456 80000 10295 20260 30099 40105 8342/ 333 20262 58004 70000 83618 88458==
41998,2024,05,08,06,00,AAXX 08064 41998 21456 81904 10290 20240 30095 40101 76196 8442/ 333 58011 60219 70210 83616 88456==
41998,2024,05,08,09,00,AAXX 08094 41998 02456 81902 10283 20250 30061 40067 8442/ 333 58016 70210 84618 88458==
41998,2024,05,08,12,00,AAXX 08124 41998 02456 80000 10271 20250 30065 40071 8442/ 333 10298 58018 70210 83618 88458==
41998,2024,05,08,18,00,AAXX 08184 41998 NIL=
41998,2024,05,09,03,00,AAXX 09034 41998 02956 00000 10289 20260 30081 40087 333 20258 59018 70210==
41998,2024,05,09,06,00,AAXX 09064 41998 NIL=
41998,2024,05,09,09,00,AAXX 09094 41998 02456 61702 10318 20260 30058 40064 83470 333 59003 70000 82618 84458==
41998,2024,05,09,12,00,AAXX 09124 41998 02456 60000 10289 20260 30061 40067 83470 333 10337 59004 70000 82618 84458==
41998,2024,05,09,18,00,AAXX 09184 41998 NIL=
