ESTACION,ANO,MES,DIA,HORA,MINUTO,PARTE
41850,2023,09,15,00,00,AAXX 15004 41850 31940 20000 10270 20260 39962 40060 70511 82090 333 56090 58019 70000 82362=
41850,2023,09,15,06,00,AAXX 15064 41850 32456 41103 10324 20260 39984 40081 82530 333 56390 58029 70000 82618 84362=
41850,2023,09,15,12,00,AAXX 15124 41850 32456 20000 10316 20260 39939 40035 82500 333 10348 56900 58017 70000 82618=
41850,2023,09,15,18,00,AAXX 15184 41850 31440 20000 10276 20250 39947 40046 70511 82500 333 56900 59001 70000 82616=
41850,2023,09,16,00,00,AAXX 16004 41850 31935 00000 10264 20250 39965 40063 71011 333 58003 70000=
41850,2023,09,16,06,00,AAXX 16064 41850 32456 40000 10336 20260 39970 40066 82510 333 56490 59014 70000 82616 84458=
41850,2023,09,16,12,00,AAXX 16124 41850 32456 10000 10317 20260 39930 40028 81500 333 10362 56900 59009 70000 81618=
41850,2023,09,16,18,00,AAXX 16184 41850 31940 00000 10283 20260 39954 40051 70510 333 58007 70000=
41850,2023,09,17,00,00,AAXX 17004 41850 31940 00000 10263 20260 39946 40044 70500 333 59019 70000=
41850,2023,09,17,06,00,AAXX 17064 41850 32957 21803 10352 20250 39940 40035 82500 333 56900 59030 70000 82618=
41850,2023,09,17,12,00,AAXX 17124 41850 32456 10000 10326 20270 39909 40004 81500 333 10364 56900 59021 70000 81618=
41850,2023,09,17,18,00,AAXX 17184 41850 31940 00000 10288 20280 39942 40039 70510 333 59012 70000=
41850,2023,09,18,00,00,AAXX 18004 41850 31940 00000 10261 20250 39927 40025 70500 333 59019 70000=
41850,2023,09,18,06,00,AAXX 18064 41850 32457 31503 10353 20250 39940 40035 82510 333 56990 58000 70000 82618 83460=
41850,2023,09,18,12,00,AAXX 18124 41850 32956 50000 10298 20250 39931 40028 85030 333 10364 56090 58022 70000 85362=
41850,2023,09,18,18,00,AAXX 18184 41850 31440 40000 10270 20250 39964 40062 70522 82510 333 56990 58022 70000 82618 84458=
41850,2023,09,19,00,00,AAXX 19004 41850 31450 40000 10248 20240 39958 40056 70522 82530 333 56990 58031 70000 82618 84362=
41850,2023,09,19,06,00,AAXX 19064 41850 32457 50803 10312 20230 39974 40070 83510 333 56990 58034 70000 83618 85458=
41850,2023,09,19,12,00,AAXX 19124 41850 32456 40000 10300 20240 39956 40053 82530 333 10328 56990 58025 70000 82618 84362=
41850,2023,09,19,18,00,AAXX 19184 41850 31440 40000 10268 20250 39983 40081 70522 83520 333 56990 58019 70000 83618 84458=
41850,2023,09,20,00,00,AAXX 20004 41850 11450 60405 10248 20240 39977 40076 60206 70562 83520 333 56990 58019 70200 83617 86458=
41850,2023,09,20,06,00,AAXX 20064 41850 32457 50803 10305 20250 39981 40078 83510 333 56990 58007 70200 83618 85458=
41850,2023,09,20,12,00,AAXX 20124 41850 32456 30000 10290 20250 39947 40044 82510 333 10330 56990 59009 70200 82618 83460=
41850,2023,09,20,18,00,AAXX 20184 41850 31340 70405 10262 20240 39980 40079 70522 8562/ 333 56299 59003 70200 82708 84617 87458=
41850,2023,09,21,00,00,AAXX 21004 41850 11340 80904 10243 20230 39981 40080 60227 76162 8572/ 333 56299 58004 70220 82708 84615 88458=
41850,2023,09,21,06,00,AAXX 21064 41850 11350 81204 10257 20240 39990 40089 60078 70562 8562/ 333 56299 58009 70292 82708 84616 88458=
41850,2023,09,21,12,00,AAXX 21124 41850 11440 60503 10246 20240 39966 40064 60113 70562 83520 333 10265 56990 58019 70402 83617 86458=
41850,2023,09,21,18,00,AAXX 21184 41850 31435 81004 10252 20240 39982 40081 70522 8452/ 333 56999 58002 70402 84617 88458=
41851,2023,09,15,00,00,AAXX 15004 41851 32450 71301 10270 20260 39998 40061 83520 333 56990 58021 70015 83618 87458=
41851,2023,09,15,06,00,AAXX 15064 41851 32450 70901 10330 20250 30019 40080 83520 333 56990 58027 70000 83618 87458=
41851,2023,09,15,12,00,AAXX 15124 41851 32950 00000 10320 20270 39975 40036 333 10345 58018 70000=
41851,2023,09,15,18,00,AAXX 15184 41851 32950 00000 10281 20270 30009 40071 333 58010 70000=
41851,2023,09,16,00,00,AAXX 16004 41851 31940 00000 10270 20260 39999 40062 70500 333 58001 70000=
41851,2023,09,16,06,00,AAXX 16064 41851 32450 40000 10345 20260 30006 40067 82530 333 56990 59013 70000 82618 83362=
41851,2023,09,16,12,00,AAXX 16124 41851 32450 10000 10320 20270 39969 40030 81500 333 10355 56900 59006 70000 81618=
41851,2023,09,16,18,00,AAXX 16184 41851 32950 00000 10285 20280 39990 40052 333 59019 70000=
41851,2023,09,17,00,00,AAXX 17004 41851 32950 00000 10275 20270 39982 40044 333 59017 70000=
41851,2023,09,17,06,00,AAXX 17064 41851 32450 40000 10347 20250 39981 40042 82530 333 56990 59025 70000 82618 83362=
41851,2023,09,17,12,00,AAXX 17124 41851 32450 10000 10335 20280 39942 40003 81500 333 10360 56900 59027 70000 81618=
41851,2023,09,17,18,00,AAXX 17184 41851 32950 00000 10290 20280 39977 40039 333 59013 70000=
41851,2023,09,18,00,00,AAXX 18004 41851 31940 00000 10275 20270 39961 40023 70500 333 59021 70000=
41851,2023,09,18,06,00,AAXX 18064 41851 32450 50000 10340 20270 39979 40040 82530 333 56990 59002 70000 82618 84362=
41851,2023,09,18,12,00,AAXX 18124 41851 11450 80000 10275 20260 39967 40029 60056 70296 8352/ 333 10350 56999 58025 70050 83618 88458=
41851,2023,09,18,18,00,AAXX 18184 41851 32450 70000 10260 20240 30000 40063 82520 333 56990 58023 70050 82618 87458=
41851,2023,09,19,00,00,AAXX 19004 41851 32450 60000 10251 20240 39994 40057 82520 333 56990 58033 70050 82618 86458=
41851,2023,09,19,06,00,AAXX 19064 41851 32450 80000 10290 20240 30015 40015 8352/ 333 56999 58036 70050 83618 88458=
41851,2023,09,19,12,00,AAXX 19124 41851 32450 40000 10304 20250 39990 40052 82530 333 10324 56990 58023 70000 82618 83362=
41851,2023,09,19,18,00,AAXX 19184 41851 31350 82103 10274 20240 30025 40088 71322 8432/ 333 56999 58025 70000 81708 83617 81929 88456=
41851,2023,09,20,00,00,AAXX 20004 41851 11350 80902 10250 20240 30010 40073 60059 76166 8472/ 333 56299 58016 70045 81708 84616 88456=
41851,2023,09,20,06,00,AAXX 20064 41851 11450 60905 10315 20260 30017 40078 69946 70162 83420 333 56390 58002 70049 82617 86457=
41851,2023,09,20,12,00,AAXX 20124 41851 11350 81202 10265 20260 39985 40048 60054 76162 8472/ 333 10323 56299 59005 70102 81708 84616 88456=
41851,2023,09,20,18,00,AAXX 20184 41851 11350 81204 10258 20250 30012 40075 60049 76166 8472/ 333 56299 59013 70137 81708 84616 88456=
41851,2023,09,21,00,00,AAXX 21004 41851 11350 80903 10252 20240 30013 40076 60289 70266 8462/ 333 56299 58003 70372 81709 83617 88457=
41851,2023,09,21,06,00,AAXX 21064 41851 11340 80704 10238 20238 30029 40093 60429 79562 8592/ 333 56299 58012 70786 82707 84615 81929 88456=
41851,2023,09,21,12,00,AAXX 21124 41851 11340 81302 10250 20240 30000 40063 60233 76162 8472/ 333 10262 56299 58015 70966 82708 83616 88456=
41851,2023,09,21,18,00,AAXX 21184 41851 11350 80903 10247 20247 30023 40086 69946 70262 8462/ 333 56299 58011 70935 81709 83617 88457=
41856,2023,09,15,00,00,AAXX 15004 41856 32940 21301 10268 20250 30022 40057 82030 333 56090 58016 70000 82362=
41856,2023,09,15,06,00,AAXX 15064 41856 32456 51303 10330 20250 30044 40079 83430 333 56990 58025 70000 81618 83825 85362=
41856,2023,09,15,12,00,AAXX 15124 41856 32950 00000 10320 20270 30003 40038 333 10346 58015 70000=
41856,2023,09,15,18,00,AAXX 15184 41856 31930 00000 10277 20270 30036 40071 70500 333 58009 70000=
41856,2023,09,16,00,00,AAXX 16004 41856 31940 01101 10265 20262 30025 40060 70500 333 58003 70000=
41856,2023,09,16,06,00,AAXX 16064 41856 32456 30000 10343 20250 30032 40067 83200 333 56900 59012 70000 83830=
41856,2023,09,16,12,00,AAXX 16124 41856 32950 00000 10330 20270 39993 40028 333 10361 59010 70000=
41856,2023,09,16,18,00,AAXX 16184 41856 31930 00000 10283 20260 30019 40054 70500 333 59017 70000=
41856,2023,09,17,00,00,AAXX 17004 41856 31920 00000 10270 20260 30009 40044 70500 333 59016 70000=
41856,2023,09,17,06,00,AAXX 17064 41856 32956 50000 10352 20250 30006 40040 85030 333 56090 59026 70000 85362=
41856,2023,09,17,12,00,AAXX 17124 41856 32950 30000 10330 20250 39967 40001 83030 333 10370 56090 59026 70000 83362=
41856,2023,09,17,18,00,AAXX 17184 41856 32940 30000 10290 20270 30009 40044 83030 333 56090 59010 70000 83362=
41856,2023,09,18,00,00,AAXX 18004 41856 31930 00000 10280 20270 39984 40019 70500 333 59025 70000=
41856,2023,09,18,06,00,AAXX 18064 41856 32456 61601 10340 20260 30010 40044 83430 333 56990 58004 70000 82618 84458=
41856,2023,09,18,12,00,AAXX 18124 41856 11450 60000 10300 20280 39989 40024 60196 70262 82570 333 10350 56990 58022 70190 82618 85362=
41856,2023,09,18,18,00,AAXX 18184 41856 32425 21402 10262 20250 30025 40061 82500 333 56900 58016 70190 82618=
41856,2023,09,19,00,00,AAXX 19004 41856 11320 81806 10248 20240 30030 40066 60034 79522 8632/ 333 56299 58046 70220 83708 84616 88456 81925=
41856,2023,09,19,06,00,AAXX 19064 41856 11450 42303 10317 20250 30038 40073 60116 70192 81530 333 56390 58028 70330 81618 84362=
41856,2023,09,19,12,00,AAXX 19124 41856 32450 50000 10286 20260 30018 40053 83430 333 10324 56990 58029 70140 82618 85362=
41856,2023,09,19,18,00,AAXX 19184 41856 32430 80000 10270 20260 30052 40087 8352/ 333 56999 58027 70140 83615 88458=
41856,2023,09,20,00,00,AAXX 20004 41856 11430 80000 10254 20240 30039 40075 60034 70262 8562/ 333 56299 58009 70142 83709 85615 88457=
41856,2023,09,20,06,00,AAXX 20064 41856 32456 50903 10310 20250 30044 40079 83430 333 56990 58006 70032 82615 85362=
41856,2023,09,20,12,00,AAXX 20124 41856 11340 80905 10260 20250 30021 40056 60112 76162 8672/ 333 10320 56299 58003 70145 84708 85614 88456=
41856,2023,09,20,18,00,AAXX 20184 41856 11330 80901 10260 20260 30044 40080 60093 76166 8672/ 333 56299 59008 70235 85708 86614 88456=
41856,2023,09,21,00,00,AAXX 21004 41856 11330 80901 10258 20258 30039 40075 60039 70266 8672/ 333 56299 58000 70229 85708 86614 88456=
41856,2023,09,21,06,00,AAXX 21064 41856 11340 80503 10252 20240 30055 40091 60193 76166 8672/ 333 56199 58011 70415 85708 86614 88456=
41856,2023,09,21,12,00,AAXX 21124 41856 11340 80902 10250 20240 30031 40067 60099 72166 8672/ 333 10266 56299 58010 70388 85708 86614 88456=
41856,2023,09,21,18,00,AAXX 21184 41856 11330 80000 10247 20244 30049 40085 60089 72166 8672/ 333 56299 58005 70373 85708 86614 88456=
41858,2023,09,15,00,00,AAXX 15004 41858 01/50 40905 10275 20260 30014 40059 70510 84030 333 58017 70000 84362==
41858,2023,09,15,03,00,AAXX 15034 41858 01450 61208 10300 20250 30036 40081 70522 84520 333 20268 58020 70000 84615 85458==
41858,2023,09,15,06,00,AAXX 15064 41858 01450 41206 10340 20260 30036 40080 70522 84400 333 58028 70000 82615 83825==
41858,2023,09,15,09,00,AAXX 15094 41858 01550 31205 10350 20250 30005 40049 70511 83100 333 58018 70000 83825==
41858,2023,09,15,12,00,AAXX 15124 41858 01550 20000 10320 20260 39992 40036 70510 82100 333 10352 58018 70000 82825==
41858,2023,09,15,15,00,AAXX 15154 41858 01940 00000 10298 20270 30016 40061 70500 333 58006 70000==
41858,2023,09,15,18,00,AAXX 15184 41858 01935 00000 10286 20270 30026 40069 70500 333 58008 70000==
41858,2023,09,15,21,00,AAXX 15214 41858 01930 00000 10282 20260 30020 40065 70500 333 58009 70000==
41858,2023,09,16,00,00,AAXX 16004 41858 01925 00000 10277 20260 30018 40063 71000 333 58004 70000==
41858,2023,09,16,03,00,AAXX 16034 41858 01440 41804 10326 20260 30033 40077 70520 84500 333 20273 59003 70000 84618==
41858,2023,09,16,06,00,AAXX 16064 41858 01450 40000 10350 20250 30022 40066 70522 84500 333 59014 70000 84618==
41858,2023,09,16,09,00,AAXX 16094 41858 01550 31806 10370 20230 39998 40041 70522 83200 333 59007 70000 83825==
41858,2023,09,16,12,00,AAXX 16124 41858 01950 01804 10330 20270 39988 40032 70510 333 10375 59004 70000==
41858,2023,09,16,15,00,AAXX 16154 41858 01950 00000 10300 20280 30006 40051 70500 333 59010 70000==
41858,2023,09,16,18,00,AAXX 16184 41858 01940 00000 10290 20270 30010 40055 70500 333 59016 70000==
41858,2023,09,16,21,00,AAXX 16214 41858 01930 00000 10284 20260 30006 40051 70500 333 59014 70000==
41858,2023,09,17,00,00,AAXX 17004 41858 01908 00000 10280 20260 30002 40047 74100 333 59016 70000==
41858,2023,09,17,03,00,AAXX 17034 41858 01550 22405 10340 20260 30012 40056 70542 82100 333 20270 59021 70000 82825==
41858,2023,09,17,06,00,AAXX 17064 41858 01550 30305 10360 20240 30010 40044 70542 82100 333 59022 70000 82825==
41858,2023,09,17,09,00,AAXX 17094 41858 02556 30904 10366 20250 39968 40011 83100 333 59030 70000 83825==
41858,2023,09,17,12,00,AAXX 17124 41858 01/50 20000 10328 20270 39960 40004 70510 82030 333 10372 59028 70000 82362==
41858,2023,09,17,15,00,AAXX 17154 41858 01940 00000 10310 20270 39997 40042 70500 333 59009 70000==
41858,2023,09,17,18,00,AAXX 17184 41858 01940 00000 10300 20270 39997 40042 70500 333 59013 70000==
41858,2023,09,17,21,00,AAXX 17214 41858 01930 00000 10290 20270 39968 40013 70500 333 59038 70000==
41858,2023,09,18,00,00,AAXX 18004 41858 01/15 40000 10282 20270 39978 40023 71020 84030 333 59027 70000 84362==
41858,2023,09,18,03,00,AAXX 18034 41858 01435 40000 10315 20288 30008 40052 70520 82520 333 20276 59004 70000 82618 83458==
41858,2023,09,18,06,00,AAXX 18064 41858 01440 60904 10346 20270 39997 40042 70522 83520 333 59003 70000 83618 86458==
41858,2023,09,18,09,00,AAXX 18094 41858 01440 83007 10266 20250 39986 40031 79596 8492/ 333 58018 70200 84615 88458 82930==
41858,2023,09,18,12,00,AAXX 18124 41858 21450 80905 10272 20250 39983 40028 70596 8452/ 333 10361 58023 60217 70206 84615 88458==
41858,2023,09,18,15,00,AAXX 18154 41858 01440 63604 10265 20250 30011 40056 70522 83520 333 58014 70206 83615 86458==
41858,2023,09,18,18,00,AAXX 18184 41858 01440 60304 10264 20250 30014 40060 70522 83520 333 58017 70206 83615 86458==
41858,2023,09,18,21,00,AAXX 18214 41858 01440 60905 10262 20250 30007 40053 70522 84520 333 58039 70206 84615 85458==
41858,2023,09,19,00,00,AAXX 19004 41858 01450 80905 10264 20240 30010 40056 70522 8452/ 333 58032 70206 84615 88458==
41858,2023,09,19,03,00,AAXX 19034 41858 01440 80000 10256 20240 30038 40084 72052 8452/ 333 20248 58030 70206 84615 88458==
41858,2023,09,19,06,00,AAXX 19064 41858 21450 81304 10300 20240 30029 40074 70552 8452/ 333 58032 60008 70206 84616 88458==
41858,2023,09,19,09,00,AAXX 19094 41858 02450 51208 10322 20250 30007 40051 83520 333 58021 70006 83616 85458==
41858,2023,09,19,12,00,AAXX 19124 41858 41450 61204 10304 20250 30007 40052 70522 83520 333 10332 58024 83618 86458==
41858,2023,09,19,15,00,AAXX 19154 41858 41/40 30904 10286 20260 30034 40079 70520 83040 333 58023 83362==
41858,2023,09,19,18,00,AAXX 19184 41858 21430 80805 10270 20260 30048 40093 76196 8452/ 333 58023 60159 70150 84615 88458==
41858,2023,09,20,00,00,AAXX 20004 41858 01430 80905 10265 20260 30036 40081 70596 8452/ 333 58029 70270 84615 88458==
41858,2023,09,20,03,00,AAXX 20034 41858 02456 60905 10290 20260 30040 40085 83520 333 20248 58002 70270 83615 86458==
41858,2023,09,20,06,00,AAXX 20064 41858 02456 40908 10320 20260 30033 40078 84400 333 58004 70270 82615 84825==
41858,2023,09,20,09,00,AAXX 20094 41858 01450 80908 10326 20260 30000 40044 76122 8452/ 333 59007 70290 84615 88458==
41858,2023,09,20,12,00,AAXX 20124 41858 21450 80905 10292 20260 39999 40044 70562 8452/ 333 10335 59008 60027 70290 83616 88458==
41858,2023,09,20,15,00,AAXX 20154 41858 01440 80906 10282 20260 30030 40075 70522 8452/ 333 59004 70290 84616 88458==
41858,2023,09,20,18,00,AAXX 20184 41858 21440 80905 10276 20260 30042 40087 76122 8452/ 333 59006 60058 70190 84615 88458==
41858,2023,09,20,21,00,AAXX 20214 41858 01430 80905 10272 20260 30032 40078 70562 8452/ 333 59004 70106 84616 88458==
41858,2023,09,21,00,00,AAXX 21004 41858 11430 80905 10270 20260 30028 40074 60096 70562 8452/ 333 59001 70106 84616 88458==
41858,2023,09,21,03,00,AAXX 21034 41858 01335 80606 10266 20260 30042 40088 76162 8672/ 333 20252 58002 70126 83708 85615 88458==
41858,2023,09,21,06,00,AAXX 21064 41858 21340 80610 10250 20240 30045 40091 76162 8572/ 333 58012 60437 70536 84708 85615 88458==
41858,2023,09,21,09,00,AAXX 21094 41858 01340 80408 10260 20240 30020 40066 76162 8572/ 333 58020 70534 83708 85615 88458==
41858,2023,09,21,12,00,AAXX 21124 41858 21340 80908 10260 20240 30016 40062 76362 8572/ 333 10300 58017 60179 70684 83708 84614 88458==
41858,2023,09,21,15,00,AAXX 21154 41858 01335 80905 10258 20250 30043 40089 76266 8562/ 333 58013 70718 83708 85614 88458==
41858,2023,09,21,18,00,AAXX 21184 41858 21335 80905 10252 20240 30049 40095 70566 8562/ 333 58007 60048 70728 83708 85614 88458==
41858,2023,09,21,21,00,AAXX 21214 41858 01430 80905 10254 20240 30040 40086 72162 8452/ 333 58008 70694 84615 88458==
41859,2023,09,15,00,00,AAXX 15004 41859 02450 41301 10276 20260 30021 40058 82520 333 58017 70000 82618 84458==
41859,2023,09,15,03,00,AAXX 15034 41859 02450 40903 10315 20260 30046 40083 84400 333 20272 58021 70000 82618 83828==
41859,2023,09,15,06,00,AAXX 15064 41859 02450 51303 10341 20250 30043 40079 85400 333 58023 72618 84828==
41859,2023,09,15,09,00,AAXX 15094 41859 02450 52302 10346 20250 30012 40048 85400 333 58021 70000 82618 84828==
41859,2023,09,15,12,00,AAXX 15124 41859 02450 41301 10322 20260 30002 40038 82530 333 10350 58017 70000 82618 83362==
41859,2023,09,15,15,00,AAXX 15154 41859 02430 41301 10310 20270 30060 40097 82530 333 58040 70000 82618 83362==
41859,2023,09,15,18,00,AAXX 15184 41859 02/30 31302 10294 20270 30035 40072 83030 333 58010 70000 83362==
41859,2023,09,15,21,00,AAXX 15214 41859 02930 00000 10287 20270 30025 40062 333 58002 70000==
41859,2023,09,16,00,00,AAXX 16004 41859 02430 30000 10280 20270 30023 40060 83500 333 58002 70000 83618==
41859,2023,09,16,03,00,AAXX 16034 41859 02450 30000 10329 20250 30040 40046 83500 333 20276 58006 70000 83618==
41859,2023,09,16,06,00,AAXX 16064 41859 02450 30000 10356 20260 30030 40066 83500 333 59013 70000 83618==
41859,2023,09,16,09,00,AAXX 16094 41859 02450 32202 10356 20250 30002 40038 83400 333 59010 70000 81618 83828==
41859,2023,09,16,12,00,AAXX 16124 41859 02/50 12201 10337 20270 39994 40030 81030 333 10360 59008 70000 81362==
41859,2023,09,16,15,00,AAXX 16154 41859 02930 00000 10309 20270 30017 40053 333 59043 70000==
41859,2023,09,16,18,00,AAXX 16184 41859 02930 00000 10296 20280 30017 40054 333 59018 70000==
41859,2023,09,16,21,00,AAXX 16214 41859 02930 00000 10282 20260 30008 40045 333 59017 70000==
41859,2023,09,17,00,00,AAXX 17004 41859 02930 00000 10278 20260 30008 40045 333 59015 70000==
41859,2023,09,17,03,00,AAXX 17034 41859 02950 00000 10333 20250 30019 40055 333 20276 59011 70000==
41859,2023,09,17,06,00,AAXX 17064 41859 02450 60000 10355 20250 30005 40041 83510 333 59025 70000 83618 86458==
41859,2023,09,17,09,00,AAXX 17094 41859 02450 60000 10365 20260 39975 40011 83510 333 59027 70000 83618 86458==
41859,2023,09,17,12,00,AAXX 17124 41859 02450 60000 10347 20270 39967 40003 82530 333 10368 59027 70000 82618 86362==
41859,2023,09,17,15,00,AAXX 17154 41859 02430 40000 10320 20280 30005 40041 82530 333 59012 70000 82618 84362==
41859,2023,09,17,18,00,AAXX 17184 41859 02430 40000 10310 20280 30004 40040 82530 333 59013 70000 82618 84362==
41859,2023,09,17,21,00,AAXX 17214 41859 02/30 20000 10295 20290 39997 40034 82030 333 59011 70000 82362==
41859,2023,09,18,00,00,AAXX 18004 41859 02/30 20000 10295 20290 39984 40021 82030 333 59024 70000 82362==
41859,2023,09,18,03,00,AAXX 18034 41859 02/50 20000 10329 20270 30015 40051 82030 333 20289 59004 70000 82362==
41859,2023,09,18,06,00,AAXX 18064 41859 02950 60000 10345 20280 30008 40044 82510 333 58003 70000 82618 86458==
41859,2023,09,18,09,00,AAXX 18094 41859 02450 60000 10312 20250 39986 40022 83520 333 58011 70000 83618 86458==
41859,2023,09,18,12,00,AAXX 18124 41859 02450 70000 10303 20260 39990 40027 83520 333 10360 58023 70000 83618 87458==
41859,2023,09,18,15,00,AAXX 18154 41859 02430 80502 10295 20280 30020 40057 8562/ 333 58015 70000 82710 84618 88458==
41859,2023,09,18,18,00,AAXX 18184 41859 02430 80502 10274 20240 30024 40061 8562/ 333 58020 70000 82710 84618 88458==
41859,2023,09,18,21,00,AAXX 18214 41859 01430 80501 10270 20250 30020 40057 71322 8562/ 333 58023 70000 82710 84618 88458 81930==
41859,2023,09,19,00,00,AAXX 19004 41859 02430 80502 10267 20250 30022 40059 8562/ 333 58038 70000 83710 84618 88458==
41859,2023,09,19,03,00,AAXX 19034 41859 01340 80000 10259 20250 30045 40082 76362 8572/ 333 20246 58030 70260 83708 84616 88456==
41859,2023,09,19,05,00,AAXX 19054 41859 21430 80000 10288 20270 30045 40082 76522 8572/ 333 56999 58025 6008/ 70350 83710 84616 88456=
41859,2023,09,19,06,00,AAXX 19064 41859 21450 80000 10301 20250 30037 40074 70262 8562/ 333 58029 60278 70270 83710 84618 88458==
41859,2023,09,19,09,00,AAXX 19094 41859 02450 62302 10323 20240 30014 40050 83520 333 58028 70270 83618 86458==
41859,2023,09,19,12,00,AAXX 19124 41859 02440 60901 10303 20250 30016 40053 83520 333 10331 58026 70270 83618 86458==
41859,2023,09,19,15,00,AAXX 19154 41859 01430 80000 10288 20270 30045 40082 76522 8572/ 333 58025 70350 83710 84616 88456==
41859,2023,09,19,18,00,AAXX 19184 41859 21430 80000 10270 20250 30051 40088 72162 8562/ 333 58027 60097 70358 83710 84618 88458==
41859,2023,09,19,21,00,AAXX 19214 41859 02430 80000 10268 20260 30046 40083 8562/ 333 58026 70358 83710 84618 88458==
41859,2023,09,20,00,00,AAXX 20004 41859 01335 80000 10258 20250 30039 40076 76122 8572/ 333 58017 70010 83709 84617 88456==
41859,2023,09,20,03,00,AAXX 20034 41859 01450 80504 10289 20250 30048 40085 70262 8562/ 333 20252 58003 70125 83710 84618 88458==
41859,2023,09,20,06,00,AAXX 20064 41859 11450 60503 10330 20250 30042 40079 60016 70162 84620 333 58005 70115 82710 83618 86458==
41859,2023,09,20,09,00,AAXX 20094 41859 01350 81802 10296 20270 30011 40048 76162 8472/ 333 59003 70131 82709 84616 88456==
41859,2023,09,20,12,00,AAXX 20124 41859 01330 81303 10276 20260 30015 40052 76162 8572/ 333 10335 59001 70133 83708 84614 88456==
41859,2023,09,20,15,00,AAXX 20154 41859 02430 80502 10271 20250 30039 40076 8562/ 333 59006 70053 83710 84618 88458==
41859,2023,09,20,18,00,AAXX 20184 41859 01330 80902 10264 20260 30039 40076 76562 8672/ 333 59012 70105 84708 85616 88458==
41859,2023,09,20,21,00,AAXX 20214 41859 01330 80502 10264 20260 30033 40070 76566 8672/ 333 59013 70239 84708 85616 88456==
41859,2023,09,21,00,00,AAXX 21004 41859 21430 80502 10266 20260 30036 40073 70266 8562/ 333 59003 60138 70225 83710 85618 88458==
41859,2023,09,21,03,00,AAXX 21034 41859 01340 80502 10271 20260 30054 40091 76122 8572/ 333 20253 58006 70212 83709 85616 88457==
41859,2023,09,21,06,00,AAXX 21064 41859 21350 80502 10261 20250 30054 40091 76162 8572/ 333 58012 60037 70245 83708 85614 88456==
41859,2023,09,21,09,00,AAXX 21094 41859 01440 80502 10270 20250 30026 40063 70262 8562/ 333 58015 70243 83710 84618 88458==
41859,2023,09,21,12,00,AAXX 21124 41859 21440 80502 10256 20250 30026 40063 72196 8562/ 333 10276 58011 60067 70296 83710 84618 88458==
41859,2023,09,21,15,00,AAXX 21154 41859 01320 81302 10256 20250 30053 40090 76166 8572/ 333 58014 70316 83708 85614 88456==
41859,2023,09,21,18,00,AAXX 21184 41859 21430 80502 10256 20250 30046 40083 70262 8562/ 333 58007 60037 70266 83710 85618 88458==
41859,2023,09,21,21,00,AAXX 21214 41859 01320 80502 10256 20250 30029 40066 76122 8572/ 333 59004 70284 83708 85614 88456==
41863,2023,09,15,00,00,AAXX 15004 41863 02550 31303 10272 20260 30013 40056 83400 333 58017 70000 83620==
41863,2023,09,15,03,00,AAXX 15034 41863 02456 50504 10300 20260 30036 40078 83520 333 20269 58020 70000 83618 85458==
41863,2023,09,15,06,00,AAXX 15064 41863 02457 60904 10328 20260 30038 40080 83520 333 58027 70000 83618 86458==
41863,2023,09,15,09,00,AAXX 15094 41863 02557 30903 10340 20260 30005 40047 83400 333 58018 70000 83620==
41863,2023,09,15,12,00,AAXX 15124 41863 02457 20000 10340 20280 39994 40035 82400 333 10340 58020 70000 82617==
41863,2023,09,15,15,00,AAXX 15154 41863 02950 01701 10301 20270 30016 40058 333 58004 70000==
41863,2023,09,15,18,00,AAXX 15184 41863 02950 00000 10286 20280 30028 40070 333 58012 70000==
41863,2023,09,15,21,00,AAXX 15214 41863 02950 00000 10280 20260 30019 40061 333 58006 70000==
41863,2023,09,16,00,00,AAXX 16004 41863 02950 00000 10278 20270 30017 40059 333 58004 70000==
41863,2023,09,16,03,00,AAXX 16034 41863 02457 30903 10321 20270 30035 40077 82400 333 20272 59001 70000 83618==
41863,2023,09,16,06,00,AAXX 16064 41863 02557 31303 10341 20260 30031 40073 83400 333 59007 70000 83620==
41863,2023,09,16,09,00,AAXX 16094 41863 02457 31302 10356 20250 39997 40038 83400 333 59008 70000 83825==
41863,2023,09,16,12,00,AAXX 16124 41863 02957 01302 10330 20270 39989 40031 333 10356 59005 70000==
41863,2023,09,16,15,00,AAXX 16154 41863 02956 00000 10295 20290 30009 40051 333 59007 70000==
41863,2023,09,16,18,00,AAXX 16184 41863 02950 00000 10286 20280 30012 40054 333 59016 70000==
41863,2023,09,16,21,00,AAXX 16214 41863 02950 00000 10280 20270 30008 40050 333 59011 70000==
41863,2023,09,17,00,00,AAXX 17001 41863 02950 00000 10275 20270 30004 40046 333 59013 70000==
41863,2023,09,17,03,00,AAXX 17034 41863 02457 31301 10340 20260 30014 40055 83400 333 10268 59021 70000 83825==
41863,2023,09,17,06,00,AAXX 17064 41863 02457 40501 10345 20240 30002 40043 84400 333 59029 70000 84825==
41863,2023,09,17,09,00,AAXX 17094 41863 02957 00501 10365 20250 39970 40011 333 59027 70000==
41863,2023,09,17,12,00,AAXX 17124 41863 02956 00000 10340 20280 39962 40003 333 10365 59027 70000==
41863,2023,09,17,15,00,AAXX 17154 41863 02950 00000 10300 20280 30000 40042 333 59009 70000==
41863,2023,09,17,18,00,AAXX 17184 41863 02950 00000 10290 20280 39999 40041 333 59013 70000==
41863,2023,09,17,21,00,AAXX 17214 41863 02950 00000 10284 20260 39978 40020 333 59030 70000==
41863,2023,09,18,00,00,AAXX 18004 41863 01950 00000 10280 20270 39977 40019 70500 333 59027 70000==
41863,2023,09,18,03,00,AAXX 18034 41863 02556 30901 10330 20280 30006 40048 83400 333 20275 59008 70000 83620==
41863,2023,09,18,06,00,AAXX 18064 41863 01456 60503 10345 20280 39975 40016 72122 83520 333 59027 70010 83618 86458==
41863,2023,09,18,09,00,AAXX 18094 41863 02450 80905 10318 20260 39989 40031 8562/ 333 59019 70008 82710 85617 88458==
41863,2023,09,18,12,00,AAXX 18124 41863 21456 82302 10262 20250 39981 40024 70262 8552/ 333 10355 58019 60235 70240 83618 88458==
41863,2023,09,18,15,00,AAXX 18154 41863 02450 70902 10260 20250 30012 40055 84520 333 58012 70240 84618 87458==
41863,2023,09,18,18,00,AAXX 18184 41863 02450 50000 10265 20260 30016 40059 83520 333 58017 70240 83618 85458==
41863,2023,09,18,21,00,AAXX 18214 41863 02450 80000 10263 20250 30017 40060 8552/ 333 58039 70240 85618 88458==
41863,2023,09,19,00,00,AAXX 19004 41863 02450 80502 10262 20250 30015 40058 8552/ 333 58038 70240 85618 88458==
41863,2023,09,19,03,00,AAXX 19034 41863 01350 81302 10260 20250 30038 40081 79596 8592/ 333 20236 58032 70448 83708 85616 88456 81925==
41863,2023,09,19,06,00,AAXX 19064 41863 21456 60901 10306 20270 30030 40072 70196 84520 333 58055 60228 70450 84618 85458==
41863,2023,09,19,09,00,AAXX 19094 41863 02457 31802 10320 20260 30006 40048 83400 333 58017 70450 83617==
41863,2023,09,19,12,00,AAXX 19124 41863 02/57 31801 10305 20270 30005 40047 83030 333 10322 58024 70218 83365==
41863,2023,09,19,15,00,AAXX 19154 41863 02550 30904 10290 20260 30042 40084 83400 333 58030 70218 83620==
41863,2023,09,19,18,00,AAXX 19184 41863 01340 80903 10260 20250 30047 40090 76362 8572/ 333 58031 70150 83708 84614 88456==
41863,2023,09,19,21,00,AAXX 19214 41863 01450 80904 10259 20250 30031 40074 72166 8552/ 333 58014 70408 85617 88458==
41863,2023,09,20,00,00,AAXX 20004 41863 21450 80904 10263 20260 30030 40073 70262 8552/ 333 58015 60048 70408 85617 88458==
41863,2023,09,20,03,00,AAXX 20034 41863 02557 30903 10295 20260 30041 40083 83400 333 20250 58003 70200 83620==
41863,2023,09,20,06,00,AAXX 20064 41863 02457 61304 10316 20270 30034 40076 83520 333 58004 70190 83618 86458==
41863,2023,09,20,09,00,AAXX 20094 41863 02457 60904 10328 20250 39997 40039 83520 333 59009 70190 83618 86458==
41863,2023,09,20,12,00,AAXX 20124 41863 21456 50903 10282 20260 39995 40037 70162 83520 333 10332 59010 60047 70230 83618 85458==
41863,2023,09,20,15,00,AAXX 20154 41863 02450 60904 10273 20250 30027 40070 84520 333 59015 70232 84618 86458==
41863,2023,09,20,18,00,AAXX 20184 41863 02450 80903 10270 20260 30029 40072 8552/ 333 59018 70082 85618 88458==
41863,2023,09,20,21,00,AAXX 20214 41863 01450 80904 10267 20260 30025 40068 76162 8552/ 333 59006 70122 85617 88457==
41863,2023,09,21,00,00,AAXX 21004 41863 21450 80503 10266 20260 30027 40070 70266 8552/ 333 59003 60108 70144 85618 88458==
41863,2023,09,21,03,00,AAXX 21034 41863 02450 80904 10276 20270 30039 40082 8452/ 333 20257 59002 70144 84618 88458==
41863,2023,09,21,06,00,AAXX 21064 41863 01456 83204 10275 20270 30043 40086 70262 8452/ 333 58009 70050 84618 88458==
41863,2023,09,21,09,00,AAXX 21094 41863 01356 80903 10255 20250 30014 40057 76166 8572/ 333 58017 70280 83708 85614 88456==
41863,2023,09,21,12,00,AAXX 21124 41863 21356 80904 10255 20250 30015 40058 76166 8572/ 333 10280 58020 60139 70282 83708 85614 88456==
41863,2023,09,21,18,00,AAXX 21184 41863 01350 80902 10258 20250 30042 40085 76166 8572/ 333 58015 70305 83708 85614 88456==
41863,2023,09,21,21,00,AAXX 21214 41863 02450 80902 10256 20250 30033 40076 8552/ 333 58008 70225 85618 88458==
41881,2023,09,15,00,00,AAXX 15004 41881 32456 51802 10270 20250 30034 40054 83520 333 56990 58020 70000 83618 85459=
41881,2023,09,15,06,00,AAXX 15064 41881 32458 50501 10315 20270 30050 40070 83410 333 56990 58019 70000 82618 83825 85460=
41881,2023,09,15,12,00,AAXX 15124 41881 32457 20902 10305 20270 30015 40035 82500 333 10336 56900 58017 70000 82618=
41881,2023,09,15,18,00,AAXX 15184 41881 32456 00901 10270 20270 30050 40069 333 58010 70000=
41881,2023,09,16,00,00,AAXX 16004 41881 32956 30000 10270 20260 30040 40060 82031 333 56099 58006 70000 82362 83082=
41881,2023,09,16,06,00,AAXX 16064 41881 32458 40903 10330 20260 30045 40065 84400 333 56200 59005 70000 82618 83825=
41881,2023,09,16,12,00,AAXX 16124 41881 32957 00000 10315 20280 30009 40029 333 10340 59006 70000=
41881,2023,09,16,18,00,AAXX 16184 41881 32956 00901 10285 20280 30032 40052 40072 333 59018 70000=
41881,2023,09,17,00,00,AAXX 17004 41881 31920 00000 10275 20275 30024 40044 71000 333 59016 70000=
41881,2023,09,17,06,00,AAXX 17064 41881 32458 43202 10345 20260 30022 40042 84400 333 56700 59023 70000 82618 83825=
41881,2023,09,17,12,00,AAXX 17124 41881 32957 00000 10330 20280 39980 40000 333 10361 59029 70000=
41881,2023,09,17,18,00,AAXX 17184 41881 32950 00000 10295 20290 30017 40037 333 59015 70000=
41881,2023,09,18,00,00,AAXX 18004 41881 31940 50000 10280 20270 30002 40022 70520 83031 333 56099 59022 70000 83362 84082=
41881,2023,09,18,06,00,AAXX 18064 41881 32457 50709 10330 20280 30022 40042 83520 333 56990 58000 70000 83618 85460=
41881,2023,09,18,12,00,AAXX 18124 41881 32456 80000 10296 20280 30005 40024 8552/ 333 10334 56999 58025 70000 85618 88459=
41881,2023,09,18,18,00,AAXX 18184 41881 32450 80000 10276 20270 30038 40058 8552/ 333 56999 58021 70000 85618 88459=
41881,2023,09,19,00,00,AAXX 19004 41881 11450 80901 10254 41440 30035 40055 60065 70262 8552/ 333 56299 58033 70064 85615 88458=
41881,2023,09,19,06,00,AAXX 19064 41881 11456 81301 10285 20260 30048 40068 60026 70262 8552/ 333 56299 58026 70079 85615 88458=
41881,2023,09,19,12,00,AAXX 19124 41881 32456 70000 10275 20260 30024 40044 84520 333 10310 56990 58019 70079 84618 87459=
41881,2023,09,19,18,00,AAXX 19184 41881 11450 80000 10260 20250 30060 40080 60051 70262 8552/ 333 56299 58024 70124 85615 88458=
41881,2023,09,20,00,00,AAXX 20004 41881 32450 80000 10257 20250 30044 40064 8552/ 333 56999 58009 70000 85618 88459=
41881,2023,09,20,06,00,AAXX 20064 41881 32456 81302 10295 20260 30046 40066 8552/ 333 56999 59002 70045 85618 88459=
41881,2023,09,20,12,00,AAXX 20124 41881 32456 71302 10285 20260 30014 40034 84520 333 10305 56990 59010 70045 85618 88459=
41881,2023,09,21,00,00,AAXX 21004 41881 11450 80901 10265 20260 30042 40062 60187 70262 8552/ 333 56999 59002 70200 85618 88459=
41881,2023,09,21,06,00,AAXX 21064 41881 32456 81303 10305 20260 30051 40071 8552/ 333 56299 58005 70200 85615 88458=
41881,2023,09,21,12,00,AAXX 21124 41881 11450 81301 10262 20260 30035 40055 60286 70262 8552/ 333 10310 56299 58021 70510 85615 88458=
41881,2023,09,21,18,00,AAXX 21184 41881 32450 80901 10260 20250 30052 40072 8552/ 333 56299 58001 70490 85615 88458=
41883,2023,09,15,00,00,AAXX 15004 41883 02440 80902 10280 20260 30037 40057 8552/ 333 58020 70000 85615 88458==
41883,2023,09,15,03,00,AAXX 15034 41883 02456 60902 10304 20250 30054 40074 83510 333 20272 58021 70000 83615 86458==
41883,2023,09,15,06,00,AAXX 15064 41883 02456 60902 10324 20250 30053 40073 83510 333 58022 70000 83615 86458==
41883,2023,09,15,09,00,AAXX 15094 41883 01450 40902 10310 20260 30029 40049 72122 82510 333 58027 70030 82618 84458==
41883,2023,09,15,12,00,AAXX 15124 41883 21450 21302 10320 20270 30017 40037 70162 82500 333 10340 58015 60035 70030 82618==
41883,2023,09,15,15,00,AAXX 15154 41883 02930 01302 10302 20270 30042 40062 333 58012 70000==
41883,2023,09,15,18,00,AAXX 15184 41883 02930 00000 10290 20270 30050 40070 333 58013 70030==
41883,2023,09,15,21,00,AAXX 15214 41883 02930 01302 10280 20260 30039 40059 333 58005 70030==
41883,2023,09,16,00,00,AAXX 16004 41883 02/50 30000 10280 20260 30040 40060 83030 333 58003 70030 83362==
41883,2023,09,16,03,00,AAXX 16034 41883 02456 60000 10305 20270 30057 40077 84410 333 20272 58003 70030 83616 86459==
41883,2023,09,16,06,00,AAXX 16064 41883 02456 70000 10334 20250 30046 40066 84510 333 59007 70030 84616 87459==
41883,2023,09,16,09,00,AAXX 16094 41883 02556 20000 10348 20240 30020 40040 82100 333 59009 70000 82826==
41883,2023,09,16,12,00,AAXX 16124 41883 02900 00000 10330 20260 30011 40031 333 10351 59006 70000==
41883,2023,09,16,15,00,AAXX 16154 41883 02930 00000 10310 20270 30028 40048 333 59014 70000==
41883,2023,09,16,18,00,AAXX 16184 41883 02930 00000 10300 20280 30033 40053 333 59017 70000==
41883,2023,09,16,21,00,AAXX 16214 41883 02930 00000 10292 20270 30023 40043 333 59016 70000==
41883,2023,09,17,00,00,AAXX 17004 41883 02940 00000 10286 20280 30024 40044 333 59016 70000==
41883,2023,09,17,03,00,AAXX 17034 41883 02956 00000 10324 20260 30034 40054 333 20282 59023 70000==
41883,2023,09,17,06,00,AAXX 17064 41883 02456 60902 10352 20250 30021 40041 83510 333 59025 70000 83615 86458==
41883,2023,09,17,09,00,AAXX 17094 41883 02456 40000 10350 20260 39990 40010 84400 333 59030 70000 83616==
41883,2023,09,17,12,00,AAXX 17124 41883 02/50 20000 10330 20270 39979 49999 82030 333 10360 59032 70000 82362==
41883,2023,09,17,15,00,AAXX 17154 41883 02930 00000 10312 20280 30015 40035 333 59013 70000==
41883,2023,09,17,18,00,AAXX 17184 41883 02930 00000 10304 20270 30023 40043 333 59010 70000==
41883,2023,09,17,21,00,AAXX 17214 41883 02930 00000 10296 20280 30017 40037 333 59006 70000==
41883,2023,09,18,00,00,AAXX 18004 41883 02930 20000 10294 20270 30003 40023 80001 333 59021 70000 82080==
41883,2023,09,18,03,00,AAXX 18034 41883 02456 30502 10312 20250 30032 40052 81530 333 20288 59002 70000 81616 83362==
41883,2023,09,18,06,00,AAXX 18064 41883 02456 61304 10320 20260 30030 40050 82520 333 58009 70000 82616 86459==
41883,2023,09,18,09,00,AAXX 18094 41883 02456 60902 10324 20250 30005 40025 83510 333 58015 70000 83615 86458==
41883,2023,09,18,12,00,AAXX 18124 41883 02456 81302 10310 20260 30004 40024 8552/ 333 10335 58025 70000 85615 88458==
41883,2023,09,18,15,00,AAXX 18154 41883 02430 80000 10300 20260 30027 40047 8552/ 333 58012 70000 85616 88459==
41883,2023,09,18,18,00,AAXX 18184 41883 21330 80000 10290 20260 30037 40057 72102 8562/ 333 58014 60005 85709 88458==
41883,2023,09,18,21,00,AAXX 18214 41883 42330 80000 10283 20250 30031 40051 8562/ 333 58014 85709 88458==
41883,2023,09,19,00,00,AAXX 19004 41883 01330 80000 10268 20260 30035 40055 79596 8532/ 333 58032 70010 85709 88458 81930==
41883,2023,09,19,03,00,AAXX 19034 41883 01450 80502 10278 20250 30056 40076 70296 8562/ 333 20265 58024 70015 83710 84618 88458==
41883,2023,09,19,05,00,AAXX 19054 41883 21330 81302 10264 20250 30061 40081 76162 8572/ 333 56399 58034 6012/ 70245 85709 88458=
41883,2023,09,19,06,00,AAXX 19064 41883 11450 80504 10304 20250 30049 40069 69956 70296 8562/ 333 58019 70015 83710 84618 88458==
41883,2023,09,19,09,00,AAXX 19094 41883 02456 70904 10324 20240 30024 40044 85830 333 58019 70015 82166 83828 87362==
41883,2023,09,19,12,00,AAXX 19124 41883 01330 80904 10274 20250 30031 40051 76122 8572/ 333 10325 58027 70110 85709 88458==
41883,2023,09,19,15,00,AAXX 19154 41883 01330 81302 10264 20250 30061 40081 76162 8572/ 333 58034 70245 85709 88458==
41883,2023,09,19,18,00,AAXX 19184 41883 21330 80902 10264 20250 30061 40081 76162 8572/ 333 58024 60149 70265 85709 88458==
41883,2023,09,19,21,00,AAXX 19214 41883 02330 80902 10264 20250 30053 40073 8562/ 333 58022 70275 85709 88458==
41883,2023,09,20,00,00,AAXX 20004 41883 02340 80902 10264 20250 30046 40066 8562/ 333 58011 70275 85709 88458==
41883,2023,09,20,03,00,AAXX 20034 41883 02350 80000 10285 20260 30057 40077 8562/ 333 20255 58001 70260 85709 88458==
41883,2023,09,20,06,00,AAXX 20064 41883 02356 80908 10305 20260 30049 40069 8562/ 333 58000 70260 85709 88458==
41883,2023,09,20,09,00,AAXX 20094 41883 02450 80904 10310 20250 30017 40037 8442/ 333 59007 70260 82618 83828 88458==
41883,2023,09,20,12,00,AAXX 20124 41883 02440 80902 10286 20260 30020 40040 8562/ 333 10316 59011 70150 82710 84618 88458==
41883,2023,09,20,15,00,AAXX 20154 41883 01430 80904 10278 20260 30049 40069 72162 8552/ 333 59012 70032 85616 88459==
41883,2023,09,20,18,00,AAXX 20184 41883 21330 80904 10276 20260 30053 40073 70262 8562/ 333 59008 69928 70012 85709 88458==
41883,2023,09,20,21,00,AAXX 20214 41883 02430 80904 10275 20260 30038 40058 8552/ 333 59015 70002 85616 88459==
41883,2023,09,21,00,00,AAXX 21004 41883 02440 80904 10278 20260 30046 40066 8552/ 333 58000 70002 85616 88459==
41883,2023,09,21,03,00,AAXX 21034 41883 01456 81302 10286 20270 30061 40081 72162 8552/ 333 20270 58004 70080 85615 88458==
41883,2023,09,21,06,00,AAXX 21064 41883 21356 81302 10322 20250 30055 40075 70262 8562/ 333 58006 60088 70080 85709 88458==
41883,2023,09,21,09,00,AAXX 21094 41883 01356 81302 10295 20270 30023 40043 70262 8562/ 333 58006 70158 85709 88458==
41883,2023,09,21,12,00,AAXX 21124 41883 21340 80000 10262 20250 30040 40060 76196 8572/ 333 10320 58020 60239 70388 85709 88458==
41883,2023,09,21,15,00,AAXX 21154 41883 01330 80902 10262 20250 30065 40085 76166 8572/ 333 58016 70402 83709 84615 88456==
41883,2023,09,21,18,00,AAXX 21184 41883 21430 80902 10266 20260 30057 40077 70263 8562/ 333 58004 60028 70402 82710 84618 88458==
41883,2023,09,21,21,00,AAXX 21214 41883 02430 80000 10270 20260 30047 40067 8562/ 333 58009 70402 82710 84618 88458==
41886,2023,09,15,00,00,AAXX 15004 41886 02450 60000 10275 20270 30047 40067 84470 333 58020 70000 83618 85460==
41886,2023,09,15,03,00,AAXX 15034 41886 02457 61302 10303 20250 30068 40088 84430 333 20272 58022 70000 83618 85365==
41886,2023,09,15,06,00,AAXX 15064 41886 02457 60000 10324 20260 30062 40082 84470 333 58022 70000 83618 85460==
41886,2023,09,15,09,00,AAXX 15094 41886 02457 61302 10327 20270 30036 40056 84470 333 58027 70000 83618 85460==
41886,2023,09,15,12,00,AAXX 15124 41886 02456 10000 10310 20270 30025 40045 81400 333 10333 58014 70000 81618==
41886,2023,09,15,15,00,AAXX 15154 41886 02450 70000 10294 20270 30045 40065 81570 333 58003 70000 81618 85365==
41886,2023,09,15,18,00,AAXX 15184 41886 02450 70000 10290 20270 30059 40079 81570 333 58014 70000 81618 85365==
41886,2023,09,15,21,00,AAXX 15214 41886 01450 40000 10280 20270 30055 40075 70522 81540 333 58014 70000 81618 83365==
41886,2023,09,16,00,00,AAXX 16004 41886 01/50 10000 10276 20270 30052 40072 70521 81040 333 58005 70000 81365==
41886,2023,09,16,03,00,AAXX 16034 41886 02/56 10000 10310 20260 30065 40085 81040 333 20270 59003 70000 81365==
41886,2023,09,16,06,00,AAXX 16064 41886 02457 40000 10334 20260 30052 40072 84400 333 59010 70000 83618==
41886,2023,09,16,09,00,AAXX 16094 41886 02458 31503 10344 20260 30023 40043 83500 333 59013 70000 83618==
41886,2023,09,16,12,00,AAXX 16124 41886 02/57 20000 10322 20270 30011 40031 82030 333 10345 59014 70000 82365==
41886,2023,09,16,15,00,AAXX 16154 41886 02/40 20000 10302 20280 30033 40053 82030 333 59012 70000 82365==
41886,2023,09,16,18,00,AAXX 16184 41886 02/40 20000 10290 20280 30036 40056 82030 333 59015 70000 82365==
41886,2023,09,16,21,00,AAXX 16214 41886 01/40 20000 10286 20280 30035 40055 70511 82030 333 59020 70000 82365==
41886,2023,09,17,00,00,AAXX 17004 41886 01/40 20000 10284 20270 30025 40045 70511 82030 333 59027 70000 82365==
41886,2023,09,17,03,00,AAXX 17034 41886 02457 10000 10330 20270 30037 40057 81500 333 20278 59028 70000 81618==
41886,2023,09,17,06,00,AAXX 17064 41886 02457 40000 10350 20270 30021 40041 84400 333 59031 70000 82618==
41886,2023,09,17,09,00,AAXX 17094 41886 02457 40000 10352 20250 39993 40013 84400 333 59030 70000 83618==
41886,2023,09,17,12,00,AAXX 17124 41886 02/56 20000 10330 20270 39983 40003 82040 333 10360 59028 70000 82365==
41886,2023,09,17,15,00,AAXX 17154 41886 01450 50000 10310 20270 30012 40032 71321 83340 333 59021 70000 82618 83362 81930==
41886,2023,09,17,18,00,AAXX 17184 41886 02450 60000 10300 20270 30021 40041 84570 333 59015 70000 84618 86460==
41886,2023,09,17,21,00,AAXX 17214 41886 02450 60000 10280 20250 30018 40038 83570 333 59017 70000 83618 85362==
41886,2023,09,18,00,00,AAXX 18004 41886 02/56 70000 10274 20250 30011 40031 87070 333 59014 70000 86362==
41886,2023,09,18,03,00,AAXX 18034 41886 02456 70000 10290 20250 30037 40057 81570 333 20272 58000 70000 81618 86362==
41886,2023,09,18,06,00,AAXX 18064 41886 02457 61503 10320 20250 30036 40056 82430 333 58015 70000 81618 86363==
41886,2023,09,18,09,00,AAXX 18094 41886 02458 40000 10328 20260 30012 40032 82430 333 58019 70000 81618 84365==
41886,2023,09,18,12,00,AAXX 18124 41886 02456 70000 10310 20260 30009 40029 82570 333 10330 58026 70000 82618 86460==
41886,2023,09,18,15,00,AAXX 18154 41886 02450 70000 10293 20270 30033 40053 82570 333 58021 70000 82618 86460==
41886,2023,09,18,18,00,AAXX 18184 41886 01450 81304 10288 20250 30046 40066 71322 8432/ 333 58025 70000 84616 88458 81930==
41886,2023,09,18,21,00,AAXX 18214 41886 01450 81304 10271 20250 30044 40064 71322 8432/ 333 58026 70000 84616 88458 81930==
41886,2023,09,19,00,00,AAXX 19004 41886 02456 80000 10255 20250 30042 40063 8432/ 333 58031 70000 84616 88458 81930==
41886,2023,09,19,03,00,AAXX 19034 41886 01456 80904 10280 20260 30063 40083 70262 8441/ 333 20252 58026 70001 83618 88460==
41886,2023,09,19,06,00,AAXX 19064 41886 01457 60904 10305 20250 30059 40079 70262 84430 333 58023 70001 82618 83825 86363==
41886,2023,09,19,09,00,AAXX 19094 41886 02558 51302 10315 20260 30033 40053 82230 333 58021 70001 82825 85365==
41886,2023,09,19,12,00,AAXX 19124 41886 02456 60000 10300 20250 30036 40056 82530 333 10322 58027 70001 82618 86363==
41886,2023,09,19,15,00,AAXX 19154 41886 01340 80000 10260 20250 30070 40091 76162 8672/ 333 58037 70073 84709 85615 88457==
41886,2023,09,19,18,00,AAXX 19184 41886 21450 80000 10265 20260 30071 40091 70262 8672/ 333 58025 60109 70101 84710 85616 88458==
41886,2023,09,19,21,00,AAXX 19214 41886 01450 80000 10268 20260 30062 40082 70262 8452/ 333 58018 70113 84616 88458==
41886,2023,09,20,00,00,AAXX 20004 41886 11456 80000 10270 20260 30053 40073 60016 70262 8351/ 333 58011 70113 83618 88460==
41886,2023,09,20,03,00,AAXX 20034 41886 02457 70903 10290 20260 30064 40084 82570 333 20260 58001 70112 82618 86460==
41886,2023,09,20,06,00,AAXX 20064 41886 02457 81304 10295 20260 30063 40083 8351/ 333 58004 70112 83618 88460==
41886,2023,09,20,09,00,AAXX 20094 41886 01456 81301 10266 20260 30033 40053 76166 8532/ 333 58000 70132 83616 88458 81930==
41886,2023,09,20,12,00,AAXX 20124 41886 21450 80000 10270 20260 30040 40060 79596 8532/ 333 10310 58004 60057 70158 83616 88458 81930==
41886,2023,09,20,15,00,AAXX 20154 41886 01450 80904 10273 20260 30064 40084 70296 8432/ 333 59004 70086 83616 88458 81930==
41886,2023,09,20,18,00,AAXX 20184 41886 01450 80000 10270 20260 30067 40087 76196 8432/ 333 59004 70058 83616 88458 81930==
41886,2023,09,20,21,00,AAXX 20214 41886 01450 80000 10270 20260 30062 40082 70262 8331/ 333 58000 70050 83616 88458 81930==
41886,2023,09,21,00,00,AAXX 21004 41886 02450 80000 10270 20260 30060 40080 8532/ 333 58007 70050 83616 88458 81930==
41886,2023,09,21,03,00,AAXX 21034 41886 01456 80000 10272 20260 30080 40100 76122 8532/ 333 20265 58016 70060 83616 88458 81930==
41886,2023,09,21,06,00,AAXX 21064 41886 21456 81802 10300 20260 30071 40091 70262 8352/ 333 58008 60015 70060 83618 88460==
41886,2023,09,21,09,00,AAXX 21094 41886 02457 70903 10310 20260 30037 40057 83470 333 58004 70048 82618 86460==
41886,2023,09,21,12,00,AAXX 21124 41886 01450 80000 10256 20250 30055 40076 79592 8592/ 333 10310 58015 70070 83616 88458 81930==
41886,2023,09,21,15,00,AAXX 21154 41886 01440 80000 10261 20260 30075 40096 76196 8532/ 333 58011 70108 83616 88458 81930==
41886,2023,09,21,18,00,AAXX 21184 41886 21440 80000 10261 20260 30068 40089 79596 8592/ 333 58001 60079 70148 83616 88458 81930==
41886,2023,09,21,21,00,AAXX 21214 41886 01440 80000 10261 20260 30062 40083 79596 8592/ 333 58000 70286 83616 88458 81930==
41888,2023,09,15,00,00,AAXX 15004 41888 32456 40902 10275 20250 30060 40070 82530 333 56990 58020 70030 82618 84362=
41888,2023,09,15,06,00,AAXX 15064 41888 32457 51202 10314 20250 30071 40081 83430 333 56390 58027 70000 82618 84362=
41888,2023,09,15,12,00,AAXX 15124 41888 32957 00902 10314 20250 30031 40041 333 10330 58011 70000=
41888,2023,09,15,18,00,AAXX 15184 41888 32956 00901 10288 20280 30065 40075 333 58013 70000=
41888,2023,09,16,00,00,AAXX 16004 41888 32556 30902 10275 20270 30055 40065 81465 333 56990 59005 70000 81620 83365=
41888,2023,09,16,06,00,AAXX 16064 41888 32557 41001 10333 20260 30054 40064 82430 333 56990 59017 70000 81620 84365=
41888,2023,09,16,12,00,AAXX 16124 41888 32956 22301 10325 20280 30015 40025 82030 333 10344 56090 59016 70000 82365=
41888,2023,09,16,18,00,AAXX 16184 41888 32950 02301 10293 20290 30041 40051 333 59026 70000=
41888,2023,09,17,00,00,AAXX 17004 41888 31940 00000 10280 20280 30030 40040 70500 333 59025 70000=
41888,2023,09,17,06,00,AAXX 17064 41888 32557 30901 10343 20270 30027 40037 83400 333 56900 59027 70000 82822=
41888,2023,09,17,12,00,AAXX 17124 41888 32956 23601 10334 20290 39985 49995 82030 333 10365 56090 59030 70000 82365=
41888,2023,09,17,18,00,AAXX 17184 41888 32450 50000 10297 20280 30025 40035 71321 83310 333 56990 59014 70000 82618 81930 85460=
41888,2023,09,18,00,00,AAXX 18004 41888 11456 70902 10262 20240 30017 40027 60016 70196 82510 333 56990 59013 70010 82618 87460=
41888,2023,09,18,06,00,AAXX 18064 41888 32457 51802 10317 20240 30039 40049 82411 333 56999 58012 70010 82618 83460 85080=
41888,2023,09,18,12,00,AAXX 18124 41888 32457 71401 10307 20260 30014 40024 82530 333 10330 56990 58029 70010 82618 87364=
41888,2023,09,18,18,00,AAXX 18184 41888 31440 82304 10290 20270 30051 40061 71722 8332/ 333 56999 58026 70010 82618 81930 88460=
41888,2023,09,19,00,00,AAXX 19004 41888 11340 80903 10253 20250 30055 40065 60119 76196 8372/ 333 56999 58038 70110 82708 83616 88458=
41888,2023,09,19,06,00,AAXX 19064 41888 11457 60906 10305 20260 30064 40074 60016 70162 84430 333 56990 58025 70120 82618 84822 86364=
41888,2023,09,19,12,00,AAXX 19124 41888 32456 70902 10296 20250 30045 40055 83310 333 10315 56990 58031 70120 82616 81930 87460=
41888,2023,09,19,18,00,AAXX 19184 41888 11330 80601 10264 20250 30078 40088 60069 76162 8372/ 333 56999 58027 70180 82708 83616 88458=
41888,2023,09,20,00,00,AAXX 20004 41888 11450 70902 10269 20260 30060 40070 60023 72162 83510 333 56990 58005 70090 83616 87460=
41888,2023,09,20,06,00,AAXX 20064 41888 32456 71204 10305 20250 30071 40081 82510 333 56990 58007 70080 82618 87460=
41888,2023,09,20,12,00,AAXX 20124 41888 11340 80902 10263 20250 30048 40058 60189 79596 8392/ 333 10318 56999 58003 70262 82708 83616 81930 88458=
41888,2023,09,20,18,00,AAXX 20184 41888 11325 80905 10270 20260 30075 40085 60053 76096 8432/ 333 56999 59003 70249 83708 84615 81930 88457=
41888,2023,09,21,00,00,AAXX 21004 41888 11350 80903 10270 20250 30071 40081 60041 70262 8462/ 333 56999 58011 70265 83710 84616 88458=
41888,2023,09,21,06,00,AAXX 21064 41888 11340 80904 10281 20250 30081 40091 60013 76062 8472/ 333 56999 58010 70277 83708 84616 88457=
41888,2023,09,21,12,00,AAXX 21124 41888 11320 81802 10258 20250 30064 40074 60753 79596 8492/ 333 10300 56999 58016 70845 83706 84615 81928 88456=
41888,2023,09,21,18,00,AAXX 21184 41888 11315 80903 10264 20260 30076 40086 60299 79596 8492/ 333 56999 58001 71110 83706 84614 81928 88456=
41891,2023,09,15,00,00,AAXX 15004 41891 01435 80303 10272 20250 30038 40076 70522 8532/ 333 58027 70000 81710 84615 88459 81930==
41891,2023,09,15,03,00,AAXX 15034 41891 01445 70902 10314 20250 30055 40093 70522 84370 333 20272 58025 70000 84615 86460 81930==
41891,2023,09,15,06,00,AAXX 15064 41891 01450 61302 10333 20230 30041 40079 70522 83340 333 58021 70000 83615 85465 81930==
41891,2023,09,15,09,00,AAXX 15094 41891 01450 30000 10348 20250 30011 40048 70521 83500 333 58015 70000 83615==
41891,2023,09,15,12,00,AAXX 15124 41891 01440 32702 10320 20240 30002 40039 70510 83500 333 10353 59001 70000 83615==
41891,2023,09,15,15,00,AAXX 15154 41891 01430 33404 10297 20270 30029 40067 70511 81530 333 59003 70000 81618 83365==
41891,2023,09,15,18,00,AAXX 15184 41891 01430 80803 10285 20270 30037 40075 70521 8537/ 333 59004 70000 84618 86365 81930==
41891,2023,09,15,21,00,AAXX 15214 41891 01430 80903 10280 20260 30030 40068 70522 8532/ 333 59006 70000 84618 86460 81930==
41891,2023,09,16,00,00,AAXX 16004 41891 01430 80903 10277 20270 30030 40068 70522 8532/ 333 59008 70000 84618 86460 81930==
41891,2023,09,16,03,00,AAXX 16034 41891 01440 71302 10300 20270 30046 40084 70522 84370 333 20275 59009 70000 84615 86460 81930==
41891,2023,09,16,06,00,AAXX 16064 41891 01440 61804 10330 20270 30028 40066 70522 83370 333 59013 70000 83615 85460 81930==
41891,2023,09,16,09,00,AAXX 16094 41891 01445 63604 10340 20260 39992 40029 70522 83340 333 59019 70000 83615 85365 81930==
41891,2023,09,16,12,00,AAXX 16124 41891 01440 62903 10320 20270 39984 40021 70522 83340 333 10352 59018 70000 83615 85365 81930==
41891,2023,09,16,15,00,AAXX 16154 41891 01930 03002 10305 20270 30010 40048 70520 333 59019 70000==
41891,2023,09,16,18,00,AAXX 16184 41891 01930 00000 10290 20280 30013 40051 70510 333 59024 70000==
41891,2023,09,16,21,00,AAXX 16214 41891 01430 60902 10285 20280 30006 40044 70521 83340 333 59024 70000 83615 85365 81930==
41891,2023,09,17,00,00,AAXX 17004 41891 01435 80502 10280 20270 30004 40042 70522 8532/ 333 59026 70000 81710 84615 86459 81930==
41891,2023,09,17,03,00,AAXX 17034 41891 01440 60902 10330 20280 30014 40051 70522 83340 333 20280 59032 70000 83615 85365 81930==
41891,2023,09,17,06,00,AAXX 17064 41891 01445 41802 10354 20260 39996 40033 70522 82340 333 59032 70000 81615 84365 81930==
41891,2023,09,17,09,00,AAXX 17094 41891 01450 63603 10357 20260 39963 40000 70522 83310 333 59029 70000 82616 86460 81930==
41891,2023,09,17,12,00,AAXX 17124 41891 01450 73203 10340 20270 39956 49993 70522 84310 333 10368 59028 70000 83616 87459 81930==
41891,2023,09,17,15,00,AAXX 17154 41891 01320 80903 10275 20260 30006 40044 79522 8632/ 333 59004 70070 86708 88458 81925==
41891,2023,09,17,18,00,AAXX 17184 41891 21430 82103 10265 20260 30002 40040 70596 8532/ 333 59011 60145 70140 81710 84615 88459 81930==
41891,2023,09,17,21,00,AAXX 17214 41891 01430 82104 10260 20250 39996 40034 72996 8532/ 333 59010 70262 82710 84615 88459 81930==
41891,2023,09,18,00,00,AAXX 18004 41891 11430 80903 10258 20250 39992 40030 60126 70596 8532/ 333 59012 70262 81710 84615 88459 81930==
41891,2023,09,18,03,00,AAXX 18034 41891 01440 71802 10294 20250 30016 40054 70522 84370 333 20250 58002 70262 84615 86460 81930==
41891,2023,09,18,06,00,AAXX 18064 41891 01450 61602 10330 20250 30013 40050 70522 83340 333 58017 70262 83615 85365 81930==
41891,2023,09,18,09,00,AAXX 18094 41891 01450 60902 10325 20260 39989 40026 70522 83340 333 58026 70262 83615 85365 81930==
41891,2023,09,18,12,00,AAXX 18124 41891 01445 60000 10315 20270 39981 40018 70522 83340 333 10335 58025 70262 83615 85365 81930==
41891,2023,09,18,15,00,AAXX 18154 41891 01450 82703 10300 20270 30015 40053 70522 8532/ 333 58009 70192 81710 83616 88459 81930==
41891,2023,09,18,18,00,AAXX 18184 41891 01330 83003 10280 20250 30017 40055 70595 8632/ 333 58015 70000 85708 88458 81930==
41891,2023,09,18,21,00,AAXX 18214 41891 01330 80503 10260 20260 30020 40058 70595 8632/ 333 58026 70800 85708 88458 81928==
41891,2023,09,19,00,00,AAXX 19004 41891 01330 80503 10250 20250 30033 40071 79595 8632/ 333 58041 70800 85708 88458 81928==
41891,2023,09,19,03,00,AAXX 19034 41891 01440 80902 10270 20250 30048 40086 72166 8532/ 333 20247 58032 70828 82710 84615 88459 81930==
41891,2023,09,19,05,00,AAXX 19054 41891 31430 82002 10290 20270 30050 40088 70522 8532/ 333 56999 58035 70828 81710 84615 81930 88459=
41891,2023,09,19,06,00,AAXX 19064 41891 11445 61302 10300 20240 30039 40077 69986 70562 83370 333 58026 70828 83615 85460 81930==
41891,2023,09,19,09,00,AAXX 19094 41891 01450 61802 10318 20230 30011 40048 70522 83370 333 58022 70828 83615 85460 81930==
41891,2023,09,19,12,00,AAXX 19124 41891 01435 81802 10300 20250 30020 40058 70522 8532/ 333 10323 58039 70828 81710 84615 88459 81930==
41891,2023,09,19,15,00,AAXX 19154 41891 01430 82002 10290 20270 30050 40088 70522 8532/ 333 58035 70828 81710 84615 88459 81930==
41891,2023,09,19,18,00,AAXX 19184 41891 21320 80503 10263 20260 30057 40096 79595 8632/ 333 58040 60107 70928 86708 88458 81925==
41891,2023,09,19,21,00,AAXX 19214 41891 01320 80903 10260 20260 30051 40090 79595 8632/ 333 58031 70520 86707 88458 81925==
41891,2023,09,20,00,00,AAXX 20004 41891 21430 80902 10255 20250 30041 40080 70596 8532/ 333 58008 60019 70120 82710 84615 88459 81930==
41891,2023,09,20,03,00,AAXX 20034 41891 01440 81302 10280 20250 30051 40089 70522 8532/ 333 20255 58003 70112 81710 84615 88459 81930==
41891,2023,09,20,06,00,AAXX 20064 41891 01440 71802 10310 20260 30047 40085 70522 84370 333 58008 70112 84615 86460 81930==
41891,2023,09,20,09,00,AAXX 20094 41891 01445 60502 10313 20260 30014 40052 70522 83340 333 58003 70112 83615 85365 81930==
41891,2023,09,20,12,00,AAXX 20124 41891 01435 80902 10294 20260 30023 40061 70522 8532/ 333 10316 58003 70112 82710 84615 88459 81930==
41891,2023,09,20,15,00,AAXX 20154 41891 01330 81104 10255 20240 30062 40100 76362 8632/ 333 58012 70342 85708 88458 81930==
41891,2023,09,20,18,00,AAXX 20184 41891 21330 80804 10250 20240 30062 40100 79596 8632/ 333 58004 60339 70340 85708 88458 81930==
41891,2023,09,20,21,00,AAXX 20214 41891 01330 80904 10252 20240 30055 40094 79596 8632/ 333 58006 70340 85708 88458 81930==
41891,2023,09,21,00,00,AAXX 21004 41891 21330 80904 10255 20240 30048 40089 70596 8632/ 333 58007 60029 70350 85708 88458 81930==
41891,2023,09,21,03,00,AAXX 21034 41891 01320 81302 10270 20250 30073 40111 76166 8632/ 333 20250 58022 70352 86708 88458 81925==
41891,2023,09,21,06,00,AAXX 21064 41891 01435 80504 10284 20250 30059 40097 72166 8532/ 333 58012 70354 82710 84615 88459 81930==
41891,2023,09,21,09,00,AAXX 21094 41891 01445 63604 10310 20250 30025 40063 70522 83370 333 58011 70354 83615 85460 81930==
41891,2023,09,21,12,00,AAXX 21124 41891 21320 82604 10258 20250 30045 40084 79596 8632/ 333 10318 58022 60167 70512 86708 88458 81925==
41891,2023,09,21,15,00,AAXX 21154 41891 01320 80604 10251 20240 30066 40105 79596 8632/ 333 58004 70374 86708 88458 81925==
41891,2023,09,21,18,00,AAXX 21184 41891 21430 81003 10255 20250 30056 40095 72996 8532/ 333 59005 60118 70290 82710 84615 88459 81930==
41891,2023,09,21,21,00,AAXX 21214 41891 01430 81003 10255 20250 30048 40087 70522 8532/ 333 59007 70280 82710 84615 88459 81930==
41895,2023,09,15,00,00,AAXX 15004 41895 02450 80904 10280 20260 30032 40054 8452/ 333 58028 70000 84615 88458==
41895,2023,09,15,03,00,AAXX 15034 41895 02456 81306 10300 20260 30050 40072 8452/ 333 20270 58026 70000 84615 88458==
41895,2023,09,15,06,00,AAXX 15064 41895 02457 51305 10325 20270 30050 40071 85400 333 58026 70000 83616 83825==
41895,2023,09,15,09,00,AAXX 15094 41895 02456 50903 10348 20270 30020 40041 85400 333 58027 70000 83616 83825==
41895,2023,09,15,12,00,AAXX 15124 41895 02456 51302 10300 20260 30015 40037 85400 333 10350 58017 70000 83616 83825==
41895,2023,09,15,15,00,AAXX 15154 41895 02950 00000 10280 20270 30034 40056 333 58011 70000==
41895,2023,09,15,18,00,AAXX 15184 41895 02450 50000 10279 20270 30044 40066 83510 333 58014 70000 83616 85458==
41895,2023,09,15,21,00,AAXX 15214 41895 02450 50000 10274 20260 30042 40064 83520 333 58016 70000 83616 85458==
41895,2023,09,16,00,00,AAXX 16004 41895 02450 50000 10272 20270 30037 40059 83520 333 58005 70000 83616 85458==
41895,2023,09,16,03,00,AAXX 16034 41895 02456 50902 10300 20270 30053 40075 83520 333 20270 58003 70000 83616 85458==
41895,2023,09,16,06,00,AAXX 16064 41895 02457 51302 10340 20270 30040 40062 83470 333 59010 70000 83616 85458==
41895,2023,09,16,09,00,AAXX 16094 41895 02457 50902 10360 20270 30016 40037 83520 333 59004 70000 83616 85458==
41895,2023,09,16,12,00,AAXX 16124 41895 02956 01302 10326 20290 30009 40031 333 10364 59006 70000==
41895,2023,09,16,15,00,AAXX 16154 41895 02450 30000 10300 20290 30025 40047 83500 333 59009 70000 83616==
41895,2023,09,16,18,00,AAXX 16184 41895 02450 30000 10294 20280 30033 40055 83500 333 59011 70000 83616==
41895,2023,09,16,21,00,AAXX 16214 41895 02450 30000 10284 20270 30031 40053 83500 333 59011 70000 83616==
41895,2023,09,17,00,00,AAXX 17004 41895 02450 30000 10276 20276 30024 40046 83500 333 59013 70000 83616==
41895,2023,09,17,03,00,AAXX 17034 41895 02457 32302 10320 20270 30034 40056 83400 333 20274 59019 70000 82616==
41895,2023,09,17,06,00,AAXX 17064 41895 02457 40000 10337 20270 30021 40043 84800 333 59019 70000 82616 83825==
41895,2023,09,17,09,00,AAXX 17094 41895 42457 40000 10364 20260 39990 40012 84800 333 58026 82616 83825==
41895,2023,09,17,12,00,AAXX 17124 41895 02956 00000 10326 20290 39982 40004 333 10366 59027 70000==
41895,2023,09,17,15,00,AAXX 17154 41895 02950 00000 10300 20290 30014 40036 333 59011 70000==
41895,2023,09,17,18,00,AAXX 17184 41895 02950 00000 10294 20270 30021 40043 333 59012 70000==
41895,2023,09,17,21,00,AAXX 17214 41895 02450 30901 10286 20280 30015 40037 83500 333 59016 70000 83616==
41895,2023,09,18,00,00,AAXX 18004 41895 02450 30000 10284 20270 30002 40025 83500 333 59022 70000 83616==
41895,2023,09,18,03,00,AAXX 18034 41895 02457 50902 10326 20280 30026 40048 83510 333 20280 59008 70000 83616 85458==
41895,2023,09,18,06,00,AAXX 18064 41895 01450 81302 10284 20270 30018 40040 70362 8452/ 333 59003 70210 84615 88458==
41895,2023,09,18,09,00,AAXX 18094 41895 02450 82301 10300 20280 39999 40021 8452/ 333 58009 70210 84615 88458==
41895,2023,09,18,12,00,AAXX 18124 41895 02450 80000 10300 20280 30004 40026 8352/ 333 10335 58022 70210 83616 88458==
41895,2023,09,18,15,00,AAXX 18154 41895 02450 70000 10280 20270 30028 40051 83520 333 58014 70210 83616 87458==
41895,2023,09,18,18,00,AAXX 18184 41895 02450 60000 10275 20270 30036 40059 83520 333 58015 70210 83616 86458==
41895,2023,09,18,21,00,AAXX 18214 41895 02450 81302 10265 20265 30027 40049 8452/ 333 58012 70210 84615 88458==
41895,2023,09,19,00,00,AAXX 19004 41895 01440 81304 10250 20250 30030 40053 79592 8532/ 333 58028 70220 84614 88458 81930==
41895,2023,09,19,03,00,AAXX 19034 41895 01450 80902 10262 20260 30051 40073 72162 8532/ 333 20245 58025 70524 84615 88458 81930==
41895,2023,09,19,06,00,AAXX 19064 41895 01450 80503 10288 20270 30042 40064 70262 8542/ 333 58024 70380 84616 88458==
41895,2023,09,19,09,00,AAXX 19094 41895 01450 80502 10300 20270 30021 40043 76166 8542/ 333 58022 70386 84616 88458==
41895,2023,09,19,12,00,AAXX 19124 41895 22450 60901 10286 20270 30022 40045 83520 333 10320 58018 69965 70386 83616 86458==
41895,2023,09,19,15,00,AAXX 19154 41895 02450 60901 10280 20260 30050 40072 83520 333 58022 70386 83616 86458==
41895,2023,09,19,18,00,AAXX 19184 41895 02450 60901 10276 20270 30055 40077 83520 333 58019 70386 83616 86458==
41895,2023,09,19,21,00,AAXX 19214 41895 02450 60901 10272 20260 30044 40066 83520 333 58017 70386 83616 86458==
41895,2023,09,20,00,00,AAXX 20004 41895 02450 81301 10270 20270 30039 40061 8452/ 333 58009 70170 84615 88458==
41895,2023,09,20,03,00,AAXX 20034 41895 02450 80904 10284 20250 30050 40072 8452/ 333 20255 59001 70072 84615 88458==
41895,2023,09,20,06,00,AAXX 20064 41895 11450 80907 10277 20270 30040 40063 60011 76162 8452/ 333 59002 70014 84615 88458==
41895,2023,09,20,09,00,AAXX 20094 41895 02456 60905 10303 20260 30006 40028 84470 333 59015 70008 84615 86458==
41895,2023,09,20,12,00,AAXX 20124 41895 02450 80904 10280 20260 30011 40033 8452/ 333 10310 59011 70008 84615 88458==
41895,2023,09,20,15,00,AAXX 20154 41895 02450 81803 10272 20250 30036 40058 8452/ 333 59014 70008 84615 88458==
41895,2023,09,20,18,00,AAXX 20184 41895 01450 81303 10268 20260 30041 40063 76162 8452/ 333 59014 70030 84615 88458==
41895,2023,09,20,21,00,AAXX 20214 41895 02450 81303 10266 20266 30036 40058 8452/ 333 59008 70038 84615 88458==
41895,2023,09,21,00,00,AAXX 21004 41895 02450 80902 10268 20268 30035 40057 8452/ 333 59004 70038 84615 88458==
41895,2023,09,21,03,00,AAXX 21034 41895 02450 81304 10290 20270 30053 40075 8452/ 333 20262 58003 70038 84615 88458==
41895,2023,09,21,06,00,AAXX 21064 41895 01450 81306 10270 20250 30048 40071 76122 8452/ 333 58008 70040 84615 88458==
41895,2023,09,21,09,00,AAXX 21094 41895 01456 81304 10280 20270 30020 40042 76166 8452/ 333 58014 70078 84615 88458==
41895,2023,09,21,12,00,AAXX 21124 41895 21450 80902 10278 20260 30031 40053 70262 8452/ 333 10300 58020 60015 70078 84615 88458==
41895,2023,09,21,15,00,AAXX 21154 41895 02450 80902 10272 20260 30051 40074 8452/ 333 58015 70078 84615 88458==
41895,2023,09,21,18,00,AAXX 21184 41895 02450 80902 10268 20260 30048 40070 8452/ 333 58007 70048 84615 88458==
41895,2023,09,21,21,00,AAXX 21214 41895 02450 80901 10268 20260 30048 40070 8452/ 333 58006 70048 84615 88458==
41897,2023,09,15,00,00,AAXX 15004 41897 31450 61302 10276 20260 30034 40047 70522 82530 333 56990 58008 70000 82618 86362=
41897,2023,09,15,06,00,AAXX 15064 41897 32456 51301 10325 20260 30051 40064 81510 333 56990 58013 70000 81618 85458=
41897,2023,09,15,12,00,AAXX 15124 41897 32456 31301 10310 20260 30022 40035 81530 333 10350 56990 58020 70000 81618 83361=
41897,2023,09,15,18,00,AAXX 15184 41897 32950 01801 10285 20280 30056 40069 333 58014 70000=
41897,2023,09,16,00,00,AAXX 16004 41897 31950 20000 10275 20270 30047 40060 82030 333 56090 58013 70000 82362=
41897,2023,09,16,06,00,AAXX 16064 41897 32456 51801 10340 20260 30048 40061 81510 333 56990 59003 70000 81618 85458=
41897,2023,09,16,12,00,AAXX 16124 41897 32456 20000 10327 20270 30016 40029 82500 333 10352 56400 59006 70000 82618=
41897,2023,09,16,18,00,AAXX 16184 41897 32956 00000 10288 20280 30040 40053 333 59016 70000=
41897,2023,09,17,00,00,AAXX 17004 41897 32956 00000 10280 20270 30029 40042 333 59018 70000=
41897,2023,09,17,06,00,AAXX 17064 41897 32456 30702 10360 20250 30027 40040 83400 333 56200 59021 70000 83618=
41897,2023,09,17,12,00,AAXX 17124 41897 32956 03601 10327 20280 39985 49998 333 10366 59031 70000=
41897,2023,09,17,18,00,AAXX 17184 41897 31456 31302 10304 20280 30024 40037 71300 83300 333 56900 59016 70000 83618 81930=
41897,2023,09,18,00,00,AAXX 18004 41897 32950 11301 10277 20260 30006 40019 81010 333 56090 59023 70000 81459=
41897,2023,09,18,06,00,AAXX 18064 41897 32456 61502 10317 20250 30037 40050 84410 333 56390 58010 70000 84618 83828 86458=
41897,2023,09,18,12,00,AAXX 18124 41897 32456 81501 10291 20240 30014 40027 8452/ 333 10335 56399 58029 70000 84618 88458=
41897,2023,09,18,18,00,AAXX 18184 41897 31456 40000 10280 20260 30041 40054 70192 83530 333 56990 58017 70000 83618 84362=
41897,2023,09,19,00,00,AAXX 19004 41897 11450 80902 10275 20260 30037 40050 69914 72122 8432/ 333 56299 58031 70001 84618 81930 88458=
41897,2023,09,19,06,00,AAXX 19064 41897 11456 50902 10285 20270 30051 40064 60033 72162 83570 333 56290 58014 70028 83618 85362=
41897,2023,09,19,12,00,AAXX 19124 41897 11450 70902 10280 20260 30044 40057 60019 70366 83510 333 10320 56290 58030 70038 83617 87458=
41897,2023,09,19,18,00,AAXX 19184 41897 32440 50902 10265 20260 30065 40078 82570 333 56290 58024 70038 82618 85458=
41897,2023,09,20,00,00,AAXX 20004 41897 11440 80902 10265 20260 30049 40062 60019 76162 8472/ 333 56990 58012 70037 83707 88458=
41897,2023,09,20,06,00,AAXX 20064 41897 32450 70902 10290 20250 30049 40062 83510 333 56990 59002 70020 83617 87458=
41897,2023,09,20,12,00,AAXX 20124 41897 11450 70903 10275 20260 30028 40041 60012 70262 83510 333 10300 56990 59020 70020 83617 87458=
41897,2023,09,20,18,00,AAXX 20184 41897 32440 50902 10275 20265 30060 40073 82510 333 56990 59005 70020 82617 85458=
41897,2023,09,21,00,00,AAXX 21004 41897 11450 81501 10275 20260 30050 40063 60014 72122 8452/ 333 56499 58001 70020 84618 88458=
41897,2023,09,21,06,00,AAXX 21064 41897 11456 71502 10310 20260 30060 40073 69934 72162 84470 333 56290 58011 70023 84618 87458=
41897,2023,09,21,12,00,AAXX 21124 41897 11450 81301 10267 20250 30044 40057 60055 70396 8352/ 333 10315 56499 58016 70059 83618 88458=
41897,2023,09,21,18,00,AAXX 21184 41897 11440 50902 10270 20260 30060 40073 60018 70162 82510 333 56290 58000 70068 82618 86458=
41902,2023,09,15,00,00,AAXX 15004 41902 32440 71004 10275 20260 30054 40062 82510 333 56990 58021 70080 82615 87459=
41902,2023,09,15,12,00,AAXX 15124 41902 32456 40501 10316 20270 30032 40040 82530 333 10355 56990 58008 70000 82615 87462=
41902,2023,09,15,18,00,AAXX 15184 41902 32440 72801 10290 20270 30054 40062 82510 333 56990 58000 70000 82615 87459=
41902,2023,09,16,00,00,AAXX 16004 41902 32440 53201 10280 20270 30060 40068 82530 333 56990 58006 70000 82616 85362=
41902,2023,09,16,06,00,AAXX 16064 41902 32457 23601 10342 20250 30053 40062 82500 333 56900 59001 70000 82614=
41902,2023,09,16,12,00,AAXX 16124 41902 32956 03201 10318 20270 30023 40032 333 10355 59009 70000=
41902,2023,09,16,18,00,AAXX 16184 41902 32930 03201 10290 20280 30034 40043 333 59020 70000=
41902,2023,09,17,00,00,AAXX 17001 41902 32940 00000 10284 20260 30036 40044 333 59024 70000=
41902,2023,09,17,06,00,AAXX 17064 41902 32457 23101 10347 20280 30033 40041 82500 333 56900 59020 70000 82614=
41902,2023,09,17,12,00,AAXX 17124 41902 32440 23301 10325 20270 39995 40003 82500 333 10360 56900 59028 70000 82614=
41902,2023,09,17,18,00,AAXX 17184 41902 31430 72801 10278 20250 30024 40033 71322 83520 333 56490 59010 70000 83615 87459=
41902,2023,09,18,00,00,AAXX 18004 41902 11440 80502 10267 20250 30020 40028 60025 70362 8452/ 333 56999 59016 70020 84614 88458=
41902,2023,09,18,06,00,AAXX 18064 41902 32956 01505 10330 20260 30037 40046 333 58004 70020=
41902,2023,09,18,12,00,AAXX 18124 41902 32450 50501 10306 20260 30015 40023 83430 333 10360 56190 58020 70020 82614 84362=
41902,2023,09,18,18,00,AAXX 18184 41902 32440 61803 10280 20250 30038 40047 83430 333 56490 58014 70020 82614 85362=
41902,2023,09,19,00,00,AAXX 19004 41902 11330 80904 10263 20250 30045 40053 69945 70362 8462/ 333 56299 58025 70004 82710 83614 88459=
41902,2023,09,19,06,00,AAXX 19064 41902 32450 40902 10316 20270 30054 40062 82530 333 56290 58017 70004 82614 83362=
41902,2023,09,19,12,00,AAXX 19124 41902 32440 60902 10296 20270 30038 40047 84310 333 10335 56290 58023 70004 82614 81929 86459=
41902,2023,09,19,18,00,AAXX 19184 41902 NIL=
41902,2023,09,20,00,00,AAXX 20004 41902 32430 60903 10272 20250 30056 40064 83410 333 56290 58011 70089 82614 86459=
41902,2023,09,20,06,00,AAXX 20064 41902 32450 80903 10316 20270 30059 40067 8442/ 333 56299 58005 70085 83614 88459=
41902,2023,09,20,12,00,AAXX 20124 41902 11440 81802 10282 20260 30041 40049 60062 70262 8442/ 333 10322 56499 58003 70140 83614 88459=
41902,2023,09,20,18,00,AAXX 20184 41902 11340 80902 10271 20260 30063 40071 60023 70262 8462/ 333 56299 58010 70075 82710 83614 88459=
41902,2023,09,21,00,00,AAXX 21004 41902 32440 80902 10270 20250 30062 40070 8462/ 333 56299 58006 70075 83614 88459=
41902,2023,09,21,06,00,AAXX 21064 41902 11450 41702 10318 20270 30069 40077 60025 70162 82430 333 56490 58010 70095 82614 84362=
41902,2023,09,21,12,00,AAXX 21124 41902 11450 61702 10275 20250 30055 40063 60106 70362 83410 333 10327 56490 58014 70140 82614 86459=
41902,2023,09,21,18,00,AAXX 21184 41902 32440 61701 10269 20260 30067 40075 83410 333 56490 58004 70120 82614 86459=
41907,2023,09,15,00,00,AAXX 15004 41907 02340 81302 10278 20260 30036 40051 8662/ 333 58028 70000 83709 85615 88458==
41907,2023,09,15,03,00,AAXX 15034 41907 02350 81306 10300 20260 30055 40070 8562/ 333 20272 58026 70000 82709 84615 88458==
41907,2023,09,15,06,00,AAXX 15064 41907 02450 71304 10320 20270 30050 40064 85570 333 58023 70000 85615 86458==
41907,2023,09,15,09,00,AAXX 15094 41907 02450 71302 10333 20260 30031 40045 85570 333 58001 70000 85615 86458==
41907,2023,09,15,12,00,AAXX 15124 41907 02450 71302 10300 20270 30018 40032 85570 333 10345 58016 70000 85615 86458==
41907,2023,09,15,15,00,AAXX 15154 41907 02940 00000 10280 20270 30042 40056 333 58012 70000==
41907,2023,09,15,18,00,AAXX 15184 41907 02940 01302 10275 20270 30052 40066 333 58016 70000==
41907,2023,09,15,21,00,AAXX 15214 41907 02940 00000 10270 20260 30046 40061 333 58017 70000==
41907,2023,09,16,00,00,AAXX 16004 41907 01440 30000 10270 20260 30042 40056 70500 83500 333 58006 70000 83615==
41907,2023,09,16,03,00,AAXX 16034 41907 02450 31302 10310 20270 30058 40072 83500 333 20267 58003 70000 83615==
41907,2023,09,16,06,00,AAXX 16064 41907 02450 51302 10335 20270 30045 40059 85800 333 59005 70000 83615 83825==
41907,2023,09,16,09,00,AAXX 16094 41907 02450 50901 10335 20260 30018 40033 85800 333 59013 70000 82615 83825==
41907,2023,09,16,12,00,AAXX 16124 41907 02450 30000 10315 20280 30011 40025 83800 333 10347 59007 70000 82615==
41907,2023,09,16,15,00,AAXX 16154 41907 02940 00000 10285 20270 30030 40045 333 59012 70000==
41907,2023,09,16,18,00,AAXX 16184 41907 02940 00000 10280 20270 30036 40051 333 59016 70000==
41907,2023,09,16,21,00,AAXX 16214 41907 02940 00000 10275 20270 30029 40042 333 59019 70000==
41907,2023,09,17,00,00,AAXX 17004 41907 02440 70000 10272 20270 30029 40044 85570 333 59013 70000 85615 87458==
41907,2023,09,17,03,00,AAXX 17034 41907 02950 00000 10325 20270 30038 40052 333 20266 59020 70000==
41907,2023,09,17,06,00,AAXX 17064 41907 02456 31302 10355 20270 30021 40036 83800 333 59024 70000 81616 83825==
41907,2023,09,17,09,00,AAXX 17094 41907 02456 40000 10365 20260 39992 40006 84800 333 59026 70000 82615 83825==
41907,2023,09,17,12,00,AAXX 17124 41907 02950 00000 10335 20290 39984 49998 333 10367 59027 70000==
41907,2023,09,17,15,00,AAXX 17154 41907 02940 00000 10300 20290 30019 40034 333 59011 70000==
41907,2023,09,17,18,00,AAXX 17184 41907 02440 70000 10295 20290 30027 40041 85520 333 59009 70000 85615 87458==
41907,2023,09,17,21,00,AAXX 17214 41907 02440 70000 10286 20250 30020 40034 85520 333 59007 70000 85615 87458==
41907,2023,09,18,00,00,AAXX 18004 41907 02940 00000 10276 20276 30003 40018 333 59026 70000==
41907,2023,09,18,03,00,AAXX 18034 41907 02450 41802 10312 20260 30034 40048 84800 333 20270 59004 70000 83615==
41907,2023,09,18,06,00,AAXX 18064 41907 02450 41304 10330 20270 30028 40042 84500 333 58007 70000 84615==
41907,2023,09,18,09,00,AAXX 18094 41907 02450 71302 10325 20270 30004 40019 83870 333 58012 70000 82615 85458==
41907,2023,09,18,12,00,AAXX 18124 41907 02340 81302 10300 20260 30009 40023 8662/ 333 10340 58025 70000 82709 85615 88458==
41907,2023,09,18,15,00,AAXX 18154 41907 02340 80000 10275 20260 30030 40044 8662/ 333 58011 70000 82709 85615 88458==
41907,2023,09,18,18,00,AAXX 18184 41907 02340 70000 10270 20250 30037 40052 86610 333 58010 70000 82709 85615 87458==
41907,2023,09,18,21,00,AAXX 18214 41907 02340 80000 10265 20260 30026 40041 8662/ 333 58006 70000 82709 85615 88458==
41907,2023,09,19,00,00,AAXX 19004 41907 21340 80000 10255 20250 30032 40047 72996 8672/ 333 58029 60187 70184 85709 88458==
41907,2023,09,19,03,00,AAXX 19034 41907 01350 82302 10280 20260 30052 40066 72122 8661/ 333 20252 58018 70194 85709 88458==
41907,2023,09,19,05,00,AAXX 19054 41907 32440 70903 10278 20260 30054 40069 54570 333 56290 58024 70206 84615 86458=
41907,2023,09,19,06,00,AAXX 19064 41907 21450 60903 10308 20270 30045 40060 75810 333 58017 60029 70206 82615 83825 85458==
41907,2023,09,19,09,00,AAXX 19094 41907 02450 80503 10295 20270 30027 40042 8451/ 333 58023 70206 84615 88458==
41907,2023,09,19,12,00,AAXX 19124 41907 02450 71302 10283 20250 30028 40043 83531 333 10310 58019 70206 83615 85362==
41907,2023,09,19,15,00,AAXX 19154 41907 02440 70903 10278 20260 30054 40069 54454 333 58024 70206 84615 86458==
41907,2023,09,19,18,00,AAXX 19184 41907 02340 80902 10270 20260 30059 40074 8662/ 333 58022 70206 82709 85615 88458==
41907,2023,09,19,21,00,AAXX 19214 41907 02340 80902 10269 20260 30050 40064 8662/ 333 58024 70206 82709 85615 88458==
41907,2023,09,20,00,00,AAXX 20004 41907 02340 80903 10268 20260 30040 40054 8662/ 333 58007 70022 82709 85615 88458==
41907,2023,09,20,03,00,AAXX 20034 41907 01340 81302 10290 20260 30051 40065 76162 8662/ 333 20263 59001 70022 85709 88458==
41907,2023,09,20,06,00,AAXX 20064 41907 21340 81302 10290 20270 30048 40063 72162 8662/ 333 58003 60029 70030 82709 85615 88458==
41907,2023,09,20,09,00,AAXX 20094 41907 02345 80902 10300 20260 30013 40027 8662/ 333 59014 70030 87000 85615 88458==
41907,2023,09,20,12,00,AAXX 20124 41907 02340 81303 10280 20260 30016 40031 8662/ 333 10310 59007 70030 83709 85615 88458==
41907,2023,09,20,15,00,AAXX 20154 41907 01330 80000 10265 20260 30050 40064 76562 8672/ 333 59004 70450 85709 88458==
41907,2023,09,20,18,00,AAXX 20184 41907 21340 81302 10267 20267 30051 40065 70262 8662/ 333 59008 60489 70505 83709 85615 88458==
41907,2023,09,20,21,00,AAXX 20214 41907 02340 81302 10265 20265 30044 40059 8662/ 333 59006 70505 83709 85615 88458==
41907,2023,09,21,00,00,AAXX 21004 41907 21340 81302 10270 20260 30041 40055 72162 8662/ 333 58002 60037 70533 83709 85615 88458==
41907,2023,09,21,03,00,AAXX 21034 41907 02350 81304 10300 20270 30058 40073 8662/ 333 20260 58007 70523 82709 85615 88458==
41907,2023,09,21,06,00,AAXX 21064 41907 01340 81302 10294 20270 30050 40065 76122 8672/ 333 58002 70010 85709 88458==
41907,2023,09,21,09,00,AAXX 21094 41907 01330 81802 10275 20260 30025 40040 76166 8672/ 333 58012 70567 85709 88458==
41907,2023,09,21,12,00,AAXX 21124 41907 21330 81302 10270 20260 30028 40043 70262 8662/ 333 10310 58012 60038 70597 85709 88458==
41907,2023,09,21,15,00,AAXX 21154 41907 02340 80000 10270 20260 30063 40078 8662/ 333 58013 70177 85709 88458==
41907,2023,09,21,18,00,AAXX 21184 41907 02340 80000 10266 20266 30057 40072 8662/ 333 58006 70122 85709 88458==
41907,2023,09,21,21,00,AAXX 21214 41907 02340 80000 10260 20260 30049 40064 8662/ 333 58005 70122 85709 88458==
41909,2023,09,15,00,00,AAXX 15004 41909 02456 61802 10272 20250 30047 40058 83530 333 58023 70000 83615 85360==
41909,2023,09,15,03,00,AAXX 15034 41909 02456 71304 10304 20250 30066 40077 82530 333 20262 58029 70000 82615 86360==
41909,2023,09,15,06,00,AAXX 15064 41909 02456 71302 10312 20250 30060 40071 84370 333 58021 70000 83615 86458 81930==
41909,2023,09,15,09,00,AAXX 15094 41909 02456 21302 10346 20240 30035 40046 82500 333 58023 70000 82618==
41909,2023,09,15,12,00,AAXX 15124 41909 02450 71302 10322 20240 30027 40038 84370 333 10350 58016 70000 84614 86458 81930==
41909,2023,09,15,15,00,AAXX 15154 41909 02940 01301 10297 20260 30047 40058 333 58004 70000==
41909,2023,09,15,18,00,AAXX 15184 41909 02940 01301 10292 20260 30060 40071 333 58019 70000==
41909,2023,09,15,21,00,AAXX 15214 41909 02940 00000 10284 20260 30051 40062 333 58015 70000==
41909,2023,09,16,00,00,AAXX 16004 41909 02950 00000 10280 20260 30047 40058 333 58000 70000==
41909,2023,09,16,03,00,AAXX 16034 41909 02456 50000 10308 20260 30063 40074 82530 333 20256 59003 70000 82615 85362==
41909,2023,09,16,06,00,AAXX 16064 41909 02456 51801 10340 20250 30050 40061 83530 333 59010 70000 83615 85360==
41909,2023,09,16,09,00,AAXX 16094 41909 02456 31301 10350 20240 30021 40033 83300 333 59014 70000 82615 81930==
41909,2023,09,16,12,00,AAXX 16124 41909 02956 00000 10330 20260 30013 40024 333 10360 59014 70000==
41909,2023,09,16,15,00,AAXX 16154 41909 02950 00000 10300 20280 30034 40045 333 59013 70000==
41909,2023,09,16,18,00,AAXX 16184 41909 02940 00000 10290 20280 30030 40059 333 59020 70000==
41909,2023,09,16,21,00,AAXX 16214 41909 02940 00000 10288 20280 30034 40045 333 59017 70000==
41909,2023,09,17,00,00,AAXX 17004 41909 01/50 20000 10285 20280 30028 40039 70500 82030 333 59019 70000 82365==
41909,2023,09,17,03,00,AAXX 17034 41909 02456 60000 10328 20270 30041 40052 83330 333 20265 59022 70000 83615 83362 81930==
41909,2023,09,17,06,00,AAXX 17064 41909 02456 51302 10358 20240 30023 40035 82330 333 59027 70000 82615 83362 81930==
41909,2023,09,17,09,00,AAXX 17094 41909 02456 50000 10363 20260 39997 40007 82330 333 59024 70000 82615 83362 81930==
41909,2023,09,17,12,00,AAXX 17124 41909 02950 00000 10345 20270 39981 49993 333 10368 59032 70000==
41909,2023,09,17,15,00,AAXX 17154 41909 02940 00000 10310 20280 30014 40025 333 59020 70000==
41909,2023,09,17,18,00,AAXX 17184 41909 01430 80000 10293 20280 30031 40042 71396 8592/ 333 59008 70000 84708 88458 81930==
41909,2023,09,17,21,00,AAXX 17214 41909 02940 00000 10288 20280 30029 40040 333 59005 70000==
41909,2023,09,18,00,00,AAXX 18004 41909 02440 80000 10272 20260 30013 40024 8452/ 333 59015 70000 83615 88458==
41909,2023,09,18,03,00,AAXX 18034 41909 02456 80000 10289 20250 30038 40049 8352/ 333 20242 59003 70000 83615 88458==
41909,2023,09,18,06,00,AAXX 18064 41909 02456 80000 10313 20240 30038 40049 8352/ 333 59012 70000 83615 88458==
41909,2023,09,18,09,00,AAXX 18094 41909 02456 50000 10334 20240 30010 40021 83330 333 58013 70000 82615 85362 81930==
41909,2023,09,18,12,00,AAXX 18124 41909 02350 80000 10307 20260 30013 40024 8462/ 333 10340 58032 70000 83708 88458==
41909,2023,09,18,15,00,AAXX 18154 41909 02430 60000 10290 20250 30038 40049 83530 333 58024 70000 83615 86360==
41909,2023,09,18,18,00,AAXX 18184 41909 02330 80000 10284 20250 30040 40051 8452/ 333 58009 70000 84614 88458==
41909,2023,09,18,21,00,AAXX 18214 41909 02330 80000 10280 20250 30039 40050 8552/ 333 58010 70000 85614 88458==
41909,2023,09,19,00,00,AAXX 19004 41909 02350 81002 10274 20250 30039 40050 8562/ 333 58026 70000 85708 88458==
41909,2023,09,19,03,00,AAXX 19034 41909 01350 81002 10278 20260 30058 40069 72162 8562/ 333 20245 58020 70030 84708 88458==
41909,2023,09,19,06,00,AAXX 19064 41909 01456 81001 10310 20250 30052 40063 70262 8552/ 333 58014 70070 85614 88458==
41909,2023,09,19,09,00,AAXX 19094 41909 02356 81302 10325 20250 30034 40045 8632/ 333 58024 70070 83708 83614 88460 81930==
41909,2023,09,19,12,00,AAXX 19124 41909 21450 80000 10273 20250 30035 40046 72996 8552/ 333 10330 58022 60037 70102 85614 88460==
41909,2023,09,19,15,00,AAXX 19154 41909 02440 80602 10270 20250 30066 40077 8552/ 333 58028 70102 85614 88460==
41909,2023,09,19,18,00,AAXX 19184 41909 02340 80000 10270 30067 40078 8562/ 333 58027 70102 83708 83614 88458==
41909,2023,09,19,21,00,AAXX 19214 41909 02340 80000 10271 20250 30059 40070 8662/ 333 58020 70102 83708 84614 88458==
41909,2023,09,20,00,00,AAXX 20004 41909 02350 80000 10272 20250 30048 40059 8562/ 333 58009 70102 83708 83614 88458==
41909,2023,09,20,03,00,AAXX 20034 41909 02456 80904 10295 20250 30061 40072 8552/ 333 20245 58003 70072 85614 88460==
41909,2023,09,20,06,00,AAXX 20064 41909 02456 60904 10306 20250 30054 40065 83510 333 58002 70032 83615 84460==
41909,2023,09,20,09,00,AAXX 20094 41909 02350 80902 10294 20270 30026 40037 83510 333 59008 73032 83708 83614 88458==
41909,2023,09,20,12,00,AAXX 20124 41909 21350 80000 10297 20250 30033 40044 72162 8562/ 333 10310 59002 69927 70002 83708 83614 88458==
41909,2023,09,20,15,00,AAXX 20154 41909 02440 32302 10278 20260 30057 40068 83500 333 59009 70002 83615==
41909,2023,09,20,18,00,AAXX 20184 41909 02440 31802 10274 20250 30066 40077 83500 333 59001 70002 83615==
41909,2023,09,20,21,00,AAXX 20214 41909 02340 80000 10274 20250 30056 40067 8562/ 333 58003 70002 84708 88458==
41909,2023,09,21,00,00,AAXX 21004 41909 01350 82302 10272 20260 30054 40065 72120 8562/ 333 58006 70004 83708 83615 88458==
41909,2023,09,21,03,00,AAXX 21034 41909 01456 61802 10301 20260 30073 40084 70662 82510 333 20252 58012 70026 82615 86458==
41909,2023,09,21,06,00,AAXX 21064 41909 01456 61802 10297 20280 30064 40075 72162 83510 333 58010 70046 82615 86458==
41909,2023,09,21,09,00,AAXX 21094 41909 01330 81804 10266 20240 30040 40051 79522 8592/ 333 58014 70096 84708 88458 81930==
41909,2023,09,21,12,00,AAXX 21124 41909 21350 80000 10266 20260 30045 40056 76196 8562/ 333 10300 58012 60079 70114 83708 83615 88458==
41909,2023,09,21,15,00,AAXX 21154 41909 01340 80000 10265 20260 30070 40081 70296 8562/ 333 58013 70124 83708 83615 88458==
41909,2023,09,21,18,00,AAXX 21184 41909 22340 60000 10262 20250 30064 40075 83510 333 59002 60019 70124 82615 86458==
41909,2023,09,21,21,00,AAXX 21214 41909 02340 60000 10262 20250 30058 40069 83510 333 58002 70124 82615 86458==
41915,2023,09,15,00,00,AAXX 15004 41915 02/56 30000 10260 20250 30052 40077 82034 333 58025 70050 82362==
41915,2023,09,15,03,00,AAXX 15034 41915 02456 21302 10320 20240 30068 40093 81431 333 20259 58024 70050 81616==
41915,2023,09,15,06,00,AAXX 15064 41915 02456 41301 10332 20240 30056 40081 84430 333 58022 70050 83616==
41915,2023,09,15,09,00,AAXX 15094 41915 02456 30601 10323 20260 30026 40051 83440 333 58011 70050 82616==
41915,2023,09,15,12,00,AAXX 15124 41915 02456 30000 10310 20270 30018 40043 83440 333 10354 58007 70000 82616==
41915,2023,09,15,15,00,AAXX 15154 41915 02450 20000 10289 20280 30039 40065 82410 333 58009 70000 81616==
41915,2023,09,15,18,00,AAXX 15184 41915 02450 50000 10280 20260 30052 40077 84430 333 58001 70000 84616==
41915,2023,09,15,21,00,AAXX 15214 41915 02450 60000 10272 20250 30037 40062 84430 333 59002 70000 83616 85362==
41915,2023,09,16,00,00,AAXX 16004 41915 02456 70000 10268 20260 30046 40071 86470 333 59006 70000 85616 85458==
41915,2023,09,16,03,00,AAXX 16034 41915 02456 50000 10324 20250 30058 40083 83440 333 20266 59010 70000 83616 83462==
41915,2023,09,16,06,00,AAXX 16064 41915 02456 40601 10345 20240 30043 40067 82440 333 59013 70000 83616 83362==
41915,2023,09,16,09,00,AAXX 16094 41915 02456 30000 10350 20250 30009 40033 83400 333 59014 70000 82616==
41915,2023,09,16,12,00,AAXX 16124 41915 02456 30000 10336 20270 39999 40024 82401 333 10364 59019 70000 81616==
41915,2023,09,16,15,00,AAXX 16154 41915 02450 30000 10290 20280 30029 40054 82400 333 59010 70000 82616==
41915,2023,09,16,18,00,AAXX 16184 41915 02450 20000 10284 20270 30028 40054 82410 333 59024 70000 82616==
41915,2023,09,16,21,00,AAXX 16214 41915 02450 30000 10270 20260 30025 40050 83410 333 59012 70000 82616==
41915,2023,09,17,00,00,AAXX 17001 41915 02956 10000 10271 20260 30022 40047 80001 333 59024 70000 81080==
41915,2023,09,17,03,00,AAXX 17034 41915 02456 50000 10310 20270 30029 40054 82530 333 20270 59019 70000 82616 84360==
41915,2023,09,17,06,00,AAXX 17064 41915 02456 60202 10348 20270 30005 40029 86400 333 59038 70000 85616==
41915,2023,09,17,09,00,AAXX 17094 41915 02456 30402 10356 20270 39977 40001 82400 333 59032 70000 82616==
41915,2023,09,17,12,00,AAXX 17124 41915 02456 40000 10332 20280 39988 40004 83430 333 10374 59011 70000 83616 82362==
41915,2023,09,17,15,00,AAXX 17154 41915 02450 70000 10265 20230 30009 40034 86470 333 59020 70000 85616 85458==
41915,2023,09,17,18,00,AAXX 17184 41915 21450 80000 10255 20250 30019 40044 79596 8632/ 333 59009 60017 70013 82710 85616 88458 81928==
41915,2023,09,17,21,00,AAXX 17214 41915 01450 80000 10255 20250 30017 40042 76366 8672/ 333 70053 83710 84616 88458==
41915,2023,09,18,00,00,AAXX 18004 41915 21456 60202 10248 20240 30007 40032 70162 84430 333 59015 60059 70062 83616 85362==
41915,2023,09,18,03,00,AAXX 18034 41915 02456 60402 10305 20250 30033 40058 84430 333 20245 58004 70062 83616 85362==
41915,2023,09,18,06,00,AAXX 18064 41915 02456 71801 10316 20260 30026 40051 85470 333 58021 70062 84615 84459==
41915,2023,09,18,09,00,AAXX 18094 41915 02456 60502 10325 20240 30004 40029 84470 333 58027 70062 83616 83459==
41915,2023,09,18,12,00,AAXX 18124 41915 02450 20000 10300 20270 30002 40027 81530 333 10335 58014 70062 81616==
41915,2023,09,18,15,00,AAXX 18154 41915 02440 60000 10284 20270 30036 40061 84330 333 58027 70062 83616 81928==
41915,2023,09,18,18,00,AAXX 18184 41915 01440 81302 10244 20230 30049 40074 79596 8632/ 333 58030 70220 83710 85616 88458 81928==
41915,2023,09,18,21,00,AAXX 18214 41915 01440 80602 10250 20240 30041 40067 76396 8672/ 333 58024 70344 83710 85616 88458==
41915,2023,09,19,00,00,AAXX 19004 41915 21456 80602 10250 20250 30046 40071 76196 8672/ 333 58039 60219 70427 82710 85616 88458==
41915,2023,09,19,03,00,AAXX 19034 41915 01456 70902 10269 20260 30058 40083 70166 85610 333 20243 58025 70439 82710 84615 87458==
41915,2023,09,19,06,00,AAXX 19064 41915 11456 70903 10298 20240 30053 40078 60016 70162 85410 333 58027 70439 84015 87458==
41915,2023,09,19,09,00,AAXX 19094 41915 02456 70000 10315 20260 30026 40050 85470 333 58022 70439 84616 84458==
41915,2023,09,19,12,00,AAXX 19124 41915 21450 80000 10252 20240 30034 40059 70362 8662/ 333 10336 58032 60197 70626 82710 85616 88458==
41915,2023,09,19,15,00,AAXX 19154 41915 01440 80000 10256 20256 30067 40092 76166 8672/ 333 58031 70748 83710 85615 88458==
41915,2023,09,19,18,00,AAXX 19184 41915 21440 80902 10260 20250 30066 40091 70262 8662/ 333 58017 60128 70530 83710 84615 88458==
41915,2023,09,19,21,00,AAXX 19214 41915 01440 80902 10260 20250 30057 40083 72162 8562/ 333 58016 70417 83710 84615 88458==
41915,2023,09,20,00,00,AAXX 20004 41915 21450 80902 10256 20250 30053 40079 70262 8562/ 333 58007 69927 70325 82710 84615 88458==
41915,2023,09,20,03,00,AAXX 20034 41915 02456 70602 10290 20250 30063 40088 86470 333 20252 58005 70313 85616 84458==
41915,2023,09,20,06,00,AAXX 20064 41915 02456 80602 10300 20250 30060 40085 8662/ 333 58007 70313 82712 85616 88458==
41915,2023,09,20,09,00,AAXX 20094 41915 02456 81202 10318 20260 30026 40050 8662/ 333 58000 70313 82712 85616 88458==
41915,2023,09,20,12,00,AAXX 20124 41915 01450 81301 10280 20260 30041 40066 76122 8772/ 333 10326 58007 70006 83708 85615 88458==
41915,2023,09,20,15,00,AAXX 20154 41915 01440 80502 10256 20250 30065 40090 76166 8772/ 333 59002 70104 83708 85615 88458==
41915,2023,09,20,18,00,AAXX 20184 41915 21440 80000 10256 20256 30070 40095 76166 8772/ 333 59003 60129 70128 83710 85615 88458==
41915,2023,09,20,21,00,AAXX 20214 41915 01440 80000 10256 20250 30062 40087 70266 8562/ 333 58005 70134 82710 84615 88458==
41915,2023,09,21,00,00,AAXX 21004 41915 11450 70901 10255 20250 30064 40089 69986 70162 83570 333 58011 70134 83616 85458==
41915,2023,09,21,03,00,AAXX 21034 41915 02456 70902 10275 20260 30081 40107 85470 333 20254 58018 70134 84615 86458==
41915,2023,09,21,06,00,AAXX 21064 41915 02456 71302 10320 20260 30065 40090 86430 333 58005 70134 85615 83362==
41915,2023,09,21,09,00,AAXX 21094 41915 01457 51802 10315 20270 30036 40061 70162 84430 333 58010 70146 83616==
41915,2023,09,21,12,00,AAXX 21124 41915 01440 81302 10256 20250 30054 40080 76296 8662/ 333 10335 58013 70230 83710 84615 88458==
41915,2023,09,21,15,00,AAXX 21154 41915 01440 70000 10260 20250 30078 40103 71362 85320 333 58013 70155 84616 85458 81928==
41915,2023,09,21,18,00,AAXX 21184 41915 NIL=
41915,2023,09,21,21,00,AAXX 21214 41915 02440 81001 10255 20250 30066 40092 8662/ 333 58005 70121 82712 85616 88458==
41923,2023,09,15,00,00,AAXX 15004 41923 02340 70000 10276 20260 30054 40064 85670 333 58019 70002 83708 84615 86458==
41923,2023,09,15,03,00,AAXX 15034 41923 02350 70000 10304 20250 30071 40081 85370 333 20274 58024 70000 82709 84615 86458 81930==
41923,2023,09,15,06,00,AAXX 15064 41923 02356 61802 10334 20230 30061 40071 84630 333 58019 70002 82709 83615 85360==
41923,2023,09,15,09,00,AAXX 15094 41923 02456 61802 10345 20250 30041 40051 85430 333 58023 70002 82616 83824 85360==
41923,2023,09,15,12,00,AAXX 15124 41923 02450 41802 10312 20250 30031 40041 83430 333 10350 58009 70000 82616==
41923,2023,09,15,15,00,AAXX 15154 41923 02445 20000 10299 20260 30056 40066 82500 333 58007 70000 82616==
41923,2023,09,15,18,00,AAXX 15184 41923 02340 60000 10293 20260 30067 40077 84630 333 58014 70000 81709 83615 85360==
41923,2023,09,15,21,00,AAXX 15214 41923 02340 60000 10287 20270 30057 40067 84630 333 58015 70000 81709 83615 85360==
41923,2023,09,16,00,00,AAXX 16004 41923 02340 70000 10280 20260 30054 40064 84670 333 58000 70000 82709 83615 86458==
41923,2023,09,16,03,00,AAXX 16034 41923 02450 40602 10325 20260 30068 40078 82530 333 20277 59003 70000 82616==
41923,2023,09,16,06,00,AAXX 16064 41923 02450 60602 10345 20250 30057 40067 84430 333 59004 70000 82615 83824==
41923,2023,09,16,09,00,AAXX 16094 41923 02456 30000 10350 20250 30028 40038 83400 333 59013 70000 82616==
41923,2023,09,16,12,00,AAXX 16124 41923 02450 40000 10330 20250 30027 40037 84300 333 10360 59004 70000 83615 81930==
41923,2023,09,16,15,00,AAXX 16154 41923 02/50 20000 10310 20260 30043 40053 82030 333 59013 70000 82360==
41923,2023,09,16,18,00,AAXX 16184 41923 02445 20000 10302 20270 30045 40055 82500 333 59022 70000 82616==
41923,2023,09,16,21,00,AAXX 16214 41923 02440 40000 10294 20270 30031 40041 82530 333 59026 70000 82616 83360==
41923,2023,09,17,00,00,AAXX 17004 41923 02440 40000 10291 20270 30032 40042 82530 333 59022 70000 82616 83360==
41923,2023,09,17,03,00,AAXX 17034 41923 02956 00000 10328 20260 30044 40054 333 20290 59024 70000==
41923,2023,09,17,06,00,AAXX 17064 41923 02456 31803 10360 20230 30025 40035 83400 333 59032 70000 81616 83824==
41923,2023,09,17,09,00,AAXX 17094 41923 02450 32204 10352 20250 39996 40006 83430 333 59032 70000 83615==
41923,2023,09,17,12,00,AAXX 17124 41923 02350 40000 10338 20270 39990 40000 83630 333 10369 59037 70000 81709 83615==
41923,2023,09,17,15,00,AAXX 17154 41923 01325 80000 10263 20260 30037 40047 79521 8692/ 333 59006 70176 83708 85614 88458 81929==
41923,2023,09,17,18,00,AAXX 17184 41923 21345 72203 10253 20250 30025 40035 71396 85370 333 59020 60225 70224 82709 84615 85459 81930==
41923,2023,09,17,21,00,AAXX 17214 41923 02345 70000 10259 20250 30010 40020 85370 333 59021 70224 82709 84615 85459 81930==
41923,2023,09,18,00,00,AAXX 18004 41923 02345 72103 10271 20250 30015 40025 85670 333 59017 70224 82709 84615 85459==
41923,2023,09,18,03,00,AAXX 18034 41923 02350 82202 10284 20240 30048 40058 8632/ 333 20255 58004 70224 83708 84614 88458 81929==
41923,2023,09,18,06,00,AAXX 18064 41923 02356 61802 10309 20250 30037 40047 85630 333 58012 70224 82709 84615==
41923,2023,09,18,09,00,AAXX 18094 41923 02350 61803 10322 20250 30015 40025 84630 333 58019 70224 82709 83615 85360==
41923,2023,09,18,12,00,AAXX 18124 41923 01345 80000 10296 20260 30020 40030 76122 8632/ 333 10325 58030 70000 83709 84615 88458 81930==
41923,2023,09,18,15,00,AAXX 18154 41923 01340 80000 10290 20260 30043 40053 72162 8632/ 333 58006 70050 83709 84615 88458 81930==
41923,2023,09,18,18,00,AAXX 18184 41923 21340 70000 10284 20260 30046 40056 76162 84670 333 58021 60009 70002 82709 83615 86458==
41923,2023,09,18,21,00,AAXX 18214 41923 01340 80000 10272 20260 30039 40049 76162 8632/ 333 58029 70034 83709 84615 88458 81930==
41923,2023,09,19,00,00,AAXX 19004 41923 21340 80000 10260 20260 30045 40055 76166 8632/ 333 58030 60219 70210 83709 84615 88458 81930==
41923,2023,09,19,03,00,AAXX 19034 41923 01340 80000 10268 20260 30066 40076 76166 8632/ 333 20252 58018 70222 83709 84615 88458 81930==
41923,2023,09,19,05,00,AAXX 19054 41923 21340 80000 10264 20250 30070 40080 76166 8532/ 333 56499 58027 6005/ 70328 83709 84615 81930 88458=
41923,2023,09,19,06,00,AAXX 19064 41923 21345 71503 10310 20250 30055 40065 72162 84670 333 58018 60029 70226 82709 83615 86458==
41923,2023,09,19,09,00,AAXX 19094 41923 01340 80000 10275 20270 30037 40047 76122 8532/ 333 58022 70256 83709 84615 88458 81930==
41923,2023,09,19,12,00,AAXX 19124 41923 21340 80302 10275 20270 30041 40051 76162 8532/ 333 10324 58021 60067 70282 83709 84615 88458 81930==
41923,2023,09,19,15,00,AAXX 19154 41923 01340 80000 10264 20250 30070 40080 76166 8532/ 333 58027 70328 83709 84615 88458 81930==
41923,2023,09,19,18,00,AAXX 19184 41923 01340 80000 10264 20250 30070 40080 76166 8532/ 333 58027 70328 83709 84615 88458 81930==
41923,2023,09,19,21,00,AAXX 19214 41923 01340 80000 10268 20260 30054 40064 70262 8532/ 333 58015 70298 82709 84615 88458 81930==
41923,2023,09,20,00,00,AAXX 20004 41923 11340 80000 10269 20250 30053 40063 69926 70262 8532/ 333 58008 70122 82709 84615 88458 81930==
41923,2023,09,20,03,00,AAXX 20034 41923 01340 80302 10288 20240 30067 40077 70262 8532/ 333 20262 58001 70110 82709 84615 88458 81930==
41923,2023,09,20,06,00,AAXX 20064 41923 01340 80302 10308 20260 30059 40069 76162 8532/ 333 58004 70110 83709 84615 88458 81930==
41923,2023,09,20,09,00,AAXX 20094 41923 01330 80000 10262 20250 30034 40044 79596 8592/ 333 59003 70300 83708 84614 88458 81930==
41923,2023,09,20,12,00,AAXX 20124 41923 01340 80000 10280 20260 30041 40051 72196 8462/ 333 10314 58000 70276 82709 84614 88458==
41923,2023,09,20,15,00,AAXX 20154 41923 01340 80000 10272 20250 30069 40079 76162 8472/ 333 59001 70230 82709 83614 88458==
41923,2023,09,20,18,00,AAXX 20184 41923 21340 80503 10276 20260 30071 40081 70262 8462/ 333 58002 69928 70230 82709 83614 88458==
41923,2023,09,20,21,00,AAXX 20214 41923 01335 80000 10274 20250 30058 40068 76162 8572/ 333 58004 70228 83709 83614 88458==
41923,2023,09,21,00,00,AAXX 21004 41923 21335 80504 10272 20260 30062 40072 76162 8632/ 333 58009 60019 70238 83708 84614 88458 81930==
41923,2023,09,21,03,00,AAXX 21034 41923 01350 71804 10297 20260 30081 40091 70162 85630 333 20258 58014 70238 82709 84614==
41923,2023,09,21,06,00,AAXX 21064 41923 11350 72403 10317 20250 30072 40082 60006 70262 85370 333 58013 70234 83709 83614 81300 85458==
41923,2023,09,21,09,00,AAXX 21094 41923 01340 81702 10268 20240 30045 40055 76062 8672/ 333 58011 70090 83709 85614 88458==
41923,2023,09,21,12,00,AAXX 21124 41923 01345 82202 10283 20250 30056 40066 70262 8632/ 333 10328 58015 70088 83708 85614 88458 81930==
41923,2023,09,21,15,00,AAXX 21154 41923 01315 80402 10254 20240 30088 40097 79796 8792/ 333 58019 70316 84708 85614 88458 81928==
41923,2023,09,21,18,00,AAXX 21184 41923 21330 80502 10256 20256 30069 40079 79596 8692/ 333 59002 61139 71216 83708 85614 88458 81928==
41923,2023,09,21,21,00,AAXX 21214 41923 01345 80402 10258 20250 30061 40071 70296 8632/ 333 58003 71232 83708 84614 88458 81929==
41926,2023,09,15,00,00,AAXX 15004 41926 02450 70000 10275 20270 30035 40048 84510 333 58027 70000 84615 86459==
41926,2023,09,15,03,00,AAXX 15034 41926 02450 71503 10290 20260 30052 40065 84510 333 20272 58027 70000 84615 86459==
41926,2023,09,15,06,00,AAXX 15064 41926 02450 61803 10335 20260 30050 40063 84410 333 58029 70000 83616 86459==
41926,2023,09,15,09,00,AAXX 15094 41926 41450 51803 10325 20270 30025 40038 70162 84430 333 58027 83616 83362==
41926,2023,09,15,12,00,AAXX 15124 41926 11450 51802 10295 20260 30017 40030 60006 70262 83431 333 10336 58011 82616 83080==
41926,2023,09,15,15,00,AAXX 15154 41926 42450 20000 10280 20260 30044 40057 82500 333 58014 82618==
41926,2023,09,15,18,00,AAXX 15184 41926 42450 20000 10275 20270 30049 40062 82500 333 58017 82618==
41926,2023,09,15,21,00,AAXX 15214 41926 42450 20000 10275 20270 30037 40050 82500 333 58005 82618==
41926,2023,09,16,00,00,AAXX 16004 41926 42450 60000 10272 20260 30042 40055 84510 333 58007 84616 85459==
41926,2023,09,16,03,00,AAXX 16034 41926 42456 40000 10298 20260 30058 40071 84400 333 20272 58006 82618 83820==
41926,2023,09,16,06,00,AAXX 16064 41926 42456 41301 10335 20260 30044 40057 84400 333 59006 82618 83820==
41926,2023,09,16,09,00,AAXX 16094 41926 02456 30000 10358 20250 30018 40031 83400 333 59007 70000 82618==
41926,2023,09,16,12,00,AAXX 16124 41926 02450 10000 10318 20270 30012 40025 81500 333 10318 59005 70000 81618==
41926,2023,09,16,15,00,AAXX 16154 41926 02950 00000 10296 20280 30032 40045 333 59012 70000==
41926,2023,09,16,18,00,AAXX 16184 41926 02950 00000 10286 20280 30037 40050 333 59012 70000==
41926,2023,09,16,21,00,AAXX 16214 41926 01950 00000 10278 20270 30032 40045 70500 333 59005 70000==
41926,2023,09,17,00,00,AAXX 17004 41926 01950 00000 10270 20260 30029 40043 70500 333 59013 70000==
41926,2023,09,17,03,00,AAXX 17034 41926 01950 00000 10317 20270 30040 40053 70500 333 10270 59018 70000==
41926,2023,09,17,06,00,AAXX 17064 41926 02456 50000 10347 20260 30023 40036 85400 333 59021 70000 82618 83828==
41926,2023,09,17,09,00,AAXX 17094 41926 02456 20000 10362 20250 39994 40007 82500 333 59024 70000 82618==
41926,2023,09,17,12,00,AAXX 17124 41926 02450 10000 10325 20280 39988 40001 81100 333 10368 59024 70000 81830==
41926,2023,09,17,15,00,AAXX 17154 41926 02950 00000 10298 20250 30023 40036 333 59009 70000==
41926,2023,09,17,18,00,AAXX 17184 41926 02950 00000 10276 20250 30020 40033 333 59012 70000==
41926,2023,09,17,21,00,AAXX 17214 41926 02950 00000 10273 20250 30013 40026 333 59019 70000==
41926,2023,09,18,00,00,AAXX 18004 41926 02950 00000 10270 20260 30007 40020 333 59022 70000==
41926,2023,09,18,03,00,AAXX 18034 41926 02456 71501 10285 20250 30035 40048 84510 333 20268 59005 70000 84615 87458==
41926,2023,09,18,06,00,AAXX 18064 41926 02456 80000 10303 20260 30030 40043 8452/ 333 58007 70000 84615 88458==
41926,2023,09,18,09,00,AAXX 18094 41926 02456 50901 10325 20230 30007 40020 84401 333 58013 70000 82618 83820==
41926,2023,09,18,12,00,AAXX 18124 41926 02456 80901 10300 20250 30011 40024 8452/ 333 10335 58023 70000 84615 88458==
41926,2023,09,18,15,00,AAXX 18154 41926 02450 60902 10273 20240 30039 40052 83510 333 58016 70000 83617 86459==
41926,2023,09,18,18,00,AAXX 18184 41926 02450 70000 10266 20250 30038 40051 83510 333 58018 70000 83617 87459==
41926,2023,09,18,21,00,AAXX 18214 41926 02450 70000 10264 20250 30032 40045 83510 333 58019 70000 83617 87459==
41926,2023,09,19,00,00,AAXX 19004 41926 01450 70000 10260 20250 30031 40044 76162 83510 333 58024 70000 83616 87459==
41926,2023,09,19,03,00,AAXX 19034 41926 41350 70901 10285 20260 30047 40060 76162 84710 333 20260 58012 82708 83615 87458==
41926,2023,09,19,06,00,AAXX 19064 41926 21456 50901 10330 20250 30041 40054 70162 84430 333 58011 60008 82618 83820==
41926,2023,09,19,09,00,AAXX 19094 41926 01456 60000 10280 20260 30023 40036 76162 85410 333 58016 70103 82617 83820 86459==
41926,2023,09,19,12,00,AAXX 19124 41926 21450 50000 10282 20260 30025 40038 70162 83510 333 10337 58014 60107 70103 83617 85459==
41926,2023,09,19,15,00,AAXX 19154 41926 02450 60000 10270 20250 30052 40065 82510 333 58013 70103 82618 86459==
41926,2023,09,19,18,00,AAXX 19184 41926 02450 60000 10270 20260 30050 40063 82510 333 58012 70103 82617 86459==
41926,2023,09,19,21,00,AAXX 19214 41926 02450 50000 10270 20260 30045 40058 82510 333 58013 70103 82618 85459==
41926,2023,09,20,00,00,AAXX 20004 41926 02450 60000 10265 20260 30033 40046 83510 333 58002 70103 83617 86459==
41926,2023,09,20,03,00,AAXX 20034 41926 02350 80903 10275 20260 30045 40058 8462/ 333 20264 59002 70103 83708 83615 88458==
41926,2023,09,20,06,00,AAXX 20064 41926 02456 70901 10297 20260 30034 40047 84510 333 59007 70103 84615 87458==
41926,2023,09,20,09,00,AAXX 20094 41926 01456 60000 10276 20270 30006 40019 72196 83510 333 59017 70200 83616 86458==
41926,2023,09,20,12,00,AAXX 20124 41926 21450 81103 10258 20250 30014 40027 76196 8532/ 333 10310 59011 60329 70317 84615 88458 81930==
41926,2023,09,20,15,00,AAXX 20154 41926 01450 80000 10258 20250 30047 40060 76166 8352/ 333 59005 70354 83616 88458==
41926,2023,09,20,18,00,AAXX 20184 41926 21450 80902 10262 20250 30047 40060 70262 8352/ 333 59003 60048 70354 83617 88459==
41926,2023,09,20,21,00,AAXX 20214 41926 02450 70000 10262 20250 30042 40055 82510 333 59003 70354 82618 87459==
41926,2023,09,21,00,00,AAXX 21004 41926 02450 50901 10267 20260 30039 40052 82510 333 58006 70354 82618 85459==
41926,2023,09,21,03,00,AAXX 21034 41926 01350 81801 10288 20270 30056 40069 76162 8472/ 333 20257 58011 70374 82708 83615 88458==
41926,2023,09,21,06,00,AAXX 21064 41926 21350 80000 10265 20265 30055 40069 79796 8532/ 333 58021 60359 70704 83708 83615 88458==
41926,2023,09,21,09,00,AAXX 21094 41926 01350 80000 10268 20268 30026 40039 76196 8572/ 333 58020 70534 83708 84615 88458==
41926,2023,09,21,12,00,AAXX 21124 41926 21350 80000 10275 20270 30036 40049 70296 8572/ 333 10283 58022 60038 70417 84615 88458==
41926,2023,09,21,15,00,AAXX 21154 41926 02450 80000 10268 20260 30061 40074 8452/ 333 58014 70380 84615 88459==
41926,2023,09,21,18,00,AAXX 21184 41926 02450 80000 10265 20260 30046 40059 8452/ 333 59001 70380 84615 88458==
41926,2023,09,21,21,00,AAXX 21214 41926 02450 80000 10265 20260 30042 40055 8452/ 333 58000 70380 84615 88458==
41927,2023,09,15,00,00,AAXX 15004 41927 32956 01801 10270 20260 30024 40038 333 58021 70000=
41927,2023,09,15,06,00,AAXX 15064 41927 32458 21804 10314 20260 30030 40044 82500 333 56400 58020 70000 82618=
41927,2023,09,15,12,00,AAXX 15124 41927 32957 01302 10302 20270 30003 40017 333 10332 58000 70000=
41927,2023,09,15,18,00,AAXX 15184 41927 32956 01502 10280 20260 30038 40052 333 58010 70000=
41927,2023,09,16,00,00,AAXX 16004 41927 32956 01801 10268 20260 30032 40046 333 58008 70000=
41927,2023,09,16,06,00,AAXX 16064 41927 32958 01602 10336 20260 30034 40048 333 58004 70000=
41927,2023,09,16,12,00,AAXX 16124 41927 32957 00000 10318 20270 39998 40012 333 10342 59005 70000=
41927,2023,09,17,00,00,AAXX 17004 41927 32956 00000 10294 20270 30021 40035 333 59017 70000=
41927,2023,09,17,06,00,AAXX 17064 41927 32958 01601 10346 20260 30008 40022 333 59026 70000=
41927,2023,09,17,12,00,AAXX 17124 41927 32957 00000 10330 20270 39978 49992 333 10362 59027 70000=
41927,2023,09,17,18,00,AAXX 17184 41927 32956 00000 10306 20280 30017 40031 333 59021 70000=
41927,2023,09,18,00,00,AAXX 18004 41927 32450 81601 10274 20260 30013 40027 8452/ 333 56499 59001 70000 84616 88458=
41927,2023,09,18,06,00,AAXX 18064 41927 32456 81602 10304 20270 30024 40038 8452/ 333 56499 58016 70000 84616 88458=
41927,2023,09,18,12,00,AAXX 18124 41927 32457 40000 10302 20270 30001 40015 82510 333 10326 56490 58023 70000 82618 84459=
41927,2023,09,18,18,00,AAXX 18184 41927 32450 51601 10265 20260 30036 40050 83510 333 56490 58019 70000 83617 84459=
41927,2023,09,19,00,00,AAXX 19004 41927 32450 81801 10263 20250 30027 40042 8452/ 333 56499 58014 70000 84616 88458=
41927,2023,09,19,06,00,AAXX 19064 41927 11456 80501 10275 20260 30040 40055 60023 70362 8452/ 333 56299 58016 70023 84616 88458=
41927,2023,09,19,12,00,AAXX 19124 41927 11456 61801 10275 20240 30017 40031 60073 70162 84510 333 10300 56490 58016 70095 84617 86458=
41927,2023,09,19,18,00,AAXX 19184 41927 NIL=
41927,2023,09,20,00,00,AAXX 20004 41927 32456 70601 10268 20260 30037 40051 83510 333 56290 58010 70095 83617 87459=
41927,2023,09,20,06,00,AAXX 20064 41927 11457 61402 10290 20260 30039 40054 60024 70162 83510 333 56390 59001 70088 83617 86459=
41927,2023,09,20,12,00,AAXX 20124 41927 11356 81603 10257 20250 30013 40027 60074 76196 8672/ 333 10302 56399 59004 70088 82708 84615 88458=
41927,2023,09,20,18,00,AAXX 20184 41927 11450 71602 10263 20260 30042 40056 60118 70162 83510 333 56390 59007 70194 83617 87459=
41927,2023,09,21,00,00,AAXX 21004 41927 32450 51602 10270 20260 30038 40052 82510 333 56490 58001 70194 82618 85459=
41927,2023,09,21,06,00,AAXX 21064 41927 11357 71705 10302 20250 30048 40063 60014 70262 85710 333 56490 58009 70192 82709 83617 87459=
41927,2023,09,21,12,00,AAXX 21124 41927 11456 71502 10267 20260 30020 40034 60168 70196 83510 333 10305 56490 58007 70282 83617 87459=
41927,2023,09,21,18,00,AAXX 21184 41927 32456 61701 10263 20260 30048 40062 83510 333 56390 58006 70176 83617 86459=
41929,2023,09,15,00,00,AAXX 15004 41929 02457 60903 10280 20260 30048 40058 84570 333 58027 70014 84618 84365==
41929,2023,09,15,03,00,AAXX 15034 41929 02457 61403 10310 20250 30066 40075 83530 333 20273 58026 70014 83618 85365==
41929,2023,09,15,06,00,AAXX 15064 41929 02457 61402 10325 20250 30063 40072 83540 333 58020 70000 83618 85365==
41929,2023,09,15,09,00,AAXX 15094 41929 02457 61303 10320 20260 30039 40049 83470 333 58024 70000 83618 83365==
41929,2023,09,15,12,00,AAXX 15124 41929 02457 41002 10300 20280 30027 40037 82530 333 10340 58011 70000 82618 83365==
41929,2023,09,15,15,00,AAXX 15154 41929 02457 20000 10282 20260 30052 40062 82500 333 58020 70000 82618==
41929,2023,09,15,18,00,AAXX 15184 41929 02457 20000 10280 20260 30061 40071 82500 333 58012 70000 82618==
41929,2023,09,15,21,00,AAXX 15214 41929 02457 20000 10275 20270 30050 40060 82500 333 58013 70000 82618==
41929,2023,09,16,00,00,AAXX 16004 41929 02457 20000 10275 20270 30050 40060 82500 333 58002 70000 82618==
41929,2023,09,16,03,00,AAXX 16034 41929 02456 51402 10310 20260 30068 40077 83540 333 20268 58002 70000 83618 84365==
41929,2023,09,16,06,00,AAXX 16064 41929 02457 51402 10340 20270 30053 40062 85440 333 59010 70000 82618 83825==
41929,2023,09,16,09,00,AAXX 16094 41929 02457 51302 10340 20260 30028 40038 85400 333 59011 70000 83618==
41929,2023,09,16,12,00,AAXX 16124 41929 02457 10000 10314 20270 30015 40025 81500 333 10345 59012 70000 81618==
41929,2023,09,16,15,00,AAXX 16154 41929 02957 00000 10294 20280 30039 40049 333 59013 70000==
41929,2023,09,16,18,00,AAXX 16184 41929 02957 00000 10290 20280 30043 40053 333 59018 70000==
41929,2023,09,16,21,00,AAXX 16214 41929 02957 00000 10280 20270 30040 40050 333 59010 70000==
41929,2023,09,17,00,00,AAXX 17004 41929 02957 00000 10280 20270 30035 40045 333 59005 70000==
41929,2023,09,17,03,00,AAXX 17034 41929 02457 20000 10320 20270 30044 40053 82500 333 20273 59024 70000 82618==
41929,2023,09,17,06,00,AAXX 17064 41929 02458 31402 10350 20270 30031 40040 83400 333 59022 70000 82618==
41929,2023,09,17,09,00,AAXX 17094 41929 02457 20000 10360 20260 39998 40007 82400 333 59030 70000 81618==
41929,2023,09,17,12,00,AAXX 17124 41929 02/57 33402 10330 20270 39990 40000 83030 333 10365 59025 70000 83365==
41929,2023,09,17,15,00,AAXX 17154 41929 01457 53302 10310 20280 30016 40026 71311 83330 333 59023 70000 82618 83365 84930==
41929,2023,09,17,18,00,AAXX 17184 41929 01456 80000 10260 20240 30024 40033 79592 8592/ 333 59019 70003 84616 88460 81930==
41929,2023,09,17,21,00,AAXX 17214 41929 01450 80000 10260 20240 30022 40031 72996 8551/ 333 59018 70007 85618 88462==
41929,2023,09,18,00,00,AAXX 18004 41929 11450 80000 10266 20260 30016 40026 69946 70296 8551/ 333 59019 70007 85618 88462==
41929,2023,09,18,03,00,AAXX 18034 41929 02456 81802 10270 20250 30043 40052 8551/ 333 20253 59001 70007 85618 88462==
41929,2023,09,18,06,00,AAXX 18064 41929 02456 71402 10305 20260 30040 40049 84510 333 58009 70007 84618 87462==
41929,2023,09,18,09,00,AAXX 18094 41929 02457 61302 10320 20250 30015 40025 84430 333 58017 70007 82618 83365==
41929,2023,09,18,12,00,AAXX 18124 41929 01450 81703 10265 20250 30023 40033 76162 8552/ 333 10323 58033 70020 85616 88460==
41929,2023,09,18,15,00,AAXX 18154 41929 02450 70000 10270 20260 30042 40052 83570 333 58026 70031 83618 84462==
41929,2023,09,18,18,00,AAXX 18184 41929 02450 70000 10270 20260 30049 40059 83570 333 58025 70028 83618 84462==
41929,2023,09,18,21,00,AAXX 18214 41929 02450 71002 10270 20260 30037 40047 83570 333 58025 70024 83618 84462==
41929,2023,09,19,00,00,AAXX 19004 41929 01450 81003 10270 20260 30040 40050 76166 8452/ 333 58024 70008 84616 88460==
41929,2023,09,19,03,00,AAXX 19034 41929 01456 80902 10274 20260 30058 40067 76166 8452/ 333 20256 58015 70262 84618 88462==
41929,2023,09,19,06,00,AAXX 19064 41929 01456 70902 10290 20270 30055 40064 70166 84510 333 58015 70292 84618 87462==
41929,2023,09,19,09,00,AAXX 19094 41929 01356 81304 10280 20260 30036 40045 76162 8672/ 333 58021 70338 82709 84616 88460==
41929,2023,09,19,12,00,AAXX 19124 41929 21456 80000 10275 20260 30034 40043 70262 8451/ 333 10295 58011 60058 70314 84618 88462==
41929,2023,09,19,15,00,AAXX 19154 41929 02456 61803 10275 20260 30063 40072 83530 333 58021 70314 83618 83365==
41929,2023,09,19,18,00,AAXX 19184 41929 21456 71302 10268 20260 30064 40073 70362 83570 333 58015 60027 70332 83618 85462==
41929,2023,09,19,21,00,AAXX 19214 41929 02456 70903 10268 20260 30055 40064 83570 333 58018 70332 83618 85462==
41929,2023,09,20,00,00,AAXX 20004 41929 21456 80903 10267 20260 30045 40054 70362 8451/ 333 58005 69985 70332 84618 88462==
41929,2023,09,20,03,00,AAXX 20034 41929 01456 81303 10270 20260 30059 40068 76162 8452/ 333 20260 58001 70122 84616 88460==
41929,2023,09,20,06,00,AAXX 20064 41929 21457 71305 10285 20280 30052 40061 72162 83570 333 59003 60089 70147 83618 85462==
41929,2023,09,20,09,00,AAXX 20094 41929 02457 81307 10290 20260 30027 40036 8451/ 333 59009 70101 84618 88462==
41929,2023,09,20,12,00,AAXX 20124 41929 02456 81303 10280 20260 30032 40041 8451/ 333 10300 59002 70101 84618 88462==
41929,2023,09,20,15,00,AAXX 20154 41929 02456 61303 10273 20250 30058 40067 83530 333 59005 70101 83618 83365==
41929,2023,09,20,18,00,AAXX 20184 41929 02456 71303 10273 20260 30063 40072 83570 333 59001 70083 83618 85462==
41929,2023,09,20,21,00,AAXX 20214 41929 02456 71303 10273 20260 30057 40066 83570 333 58002 70083 83618 85462==
41929,2023,09,21,00,00,AAXX 21004 41929 01456 71303 10273 20260 30050 40059 70262 83570 333 58005 70005 83618 85462==
41929,2023,09,21,03,00,AAXX 21034 41929 02456 71403 10296 20260 30075 40084 83570 333 20265 58016 70060 83618 85462==
41929,2023,09,21,06,00,AAXX 21064 41929 02457 71806 10322 20260 30070 40079 83570 333 58018 70005 83618 85462==
41929,2023,09,21,09,00,AAXX 21094 41929 01456 81804 10265 20260 30042 40051 72996 8451/ 333 58015 70107 84618 88460==
41929,2023,09,21,12,00,AAXX 21124 41929 21456 81802 10278 20260 30049 40058 70296 8451/ 333 10325 58017 60108 70107 84618 88462==
41929,2023,09,21,15,00,AAXX 21154 41929 01456 81303 10274 20260 30072 40081 71322 8531/ 333 58014 70107 84618 88462 81930==
41929,2023,09,21,18,00,AAXX 21184 41929 01456 80903 10272 20260 30068 40077 71322 8531/ 333 58005 70107 84618 88462 81930==
41929,2023,09,21,21,00,AAXX 21214 41929 02456 80903 10271 20260 30064 40073 8451/ 333 58007 70107 84618 88462==
41933,2023,09,15,00,00,AAXX 15004 41933 42450 81601 10269 20250 30049 40058 8352/ 333 58022 83616 88458==
41933,2023,09,15,03,00,AAXX 15034 41933 42456 31803 10305 20260 30071 40080 83551 333 20265 58032 83614==
41933,2023,09,15,06,00,AAXX 15064 41933 42456 31804 10328 20260 30057 40066 83500 333 58014 83616==
41933,2023,09,15,09,00,AAXX 15094 41933 02456 51803 10331 20250 30037 40045 84440 333 58013 70000 83618 83826==
41933,2023,09,15,12,00,AAXX 15124 41933 02556 31802 10305 20260 30030 40038 82140 333 10340 58007 70000 82828==
41933,2023,09,15,15,00,AAXX 15154 41933 02450 30000 10286 20270 30052 40060 82140 333 58006 70000 82828==
41933,2023,09,15,18,00,AAXX 15184 41933 02940 00000 10282 20260 30054 40062 333 58005 70000==
41933,2023,09,15,21,00,AAXX 15214 41933 02440 60402 10275 20270 30052 40060 84530 333 58005 70000 84616 86362==
41933,2023,09,16,00,00,AAXX 16004 41933 02450 60402 10270 20260 30046 40054 84530 333 59003 70000 84616 86362==
41933,2023,09,16,03,00,AAXX 16034 41933 02456 40000 10300 20270 30066 40075 83430 333 20265 59005 70000 82616==
41933,2023,09,16,06,00,AAXX 16064 41933 02456 30000 10340 20260 30051 40059 83400 333 59006 70000 82616==
41933,2023,09,16,09,00,AAXX 16094 41933 02457 31802 10346 20270 30022 40030 83510 333 59015 70000 83616==
41933,2023,09,16,12,00,AAXX 16124 41933 02456 20000 10321 20270 30009 40017 82500 333 10355 59021 70000 82616==
41933,2023,09,16,15,00,AAXX 16154 41933 02950 00000 10298 20280 30040 40048 333 59012 70000==
41933,2023,09,16,18,00,AAXX 16184 41933 02/50 20000 10290 20270 30036 40044 82030 333 59018 70000 82362==
41933,2023,09,16,21,00,AAXX 16214 41933 02/50 30000 10287 20280 30032 40040 83030 333 59020 70000 83362==
41933,2023,09,17,00,00,AAXX 17004 41933 02/50 30000 10285 20280 30030 40030 83030 333 59016 70000 83362==
41933,2023,09,17,03,00,AAXX 17034 41933 02450 53202 10320 20270 30038 40046 82530 333 20285 59028 70000 82618 85362==
41933,2023,09,17,06,00,AAXX 17064 41933 02450 50502 10340 20270 30018 40026 82530 333 59033 70000 82618 85362==
41933,2023,09,17,09,00,AAXX 17094 41933 02456 30002 10355 20260 39988 49996 83400 333 59034 70000 82618==
41933,2023,09,17,12,00,AAXX 17124 41933 02450 50000 10336 20280 39981 49989 83803 333 10361 59028 70000 81618 83826 83074==
41933,2023,09,17,15,00,AAXX 17154 41933 01450 71802 10256 20250 30017 40026 71362 85320 333 59023 70065 84616 87458 81930==
41933,2023,09,17,18,00,AAXX 17184 41933 11450 70602 10258 20250 30022 40031 60076 71362 85320 333 59014 70065 85614 87458 81930==
41933,2023,09,17,21,00,AAXX 17214 41933 02456 70000 10257 20250 30018 40027 85520 333 59014 70065 85614 87458==
41933,2023,09,18,00,00,AAXX 18004 41933 02456 71502 10255 20250 30017 40026 85520 333 59013 70065 85614 87458==
41933,2023,09,18,03,00,AAXX 18034 41933 01356 81502 10266 20260 30044 40053 70362 8662/ 333 20248 58006 70075 83708 84616 88457==
41933,2023,09,18,06,00,AAXX 18064 41933 01356 81902 10290 20260 30037 40046 76062 8671/ 333 58019 70077 82707 83615 88456==
41933,2023,09,18,09,00,AAXX 18094 41933 01456 50000 10320 20260 30009 40017 70162 83430 333 58021 70077 81618 83828==
41933,2023,09,18,12,00,AAXX 18124 41933 01340 83203 10250 20240 30023 40032 79596 8692/ 333 10326 58042 70340 83709 84615 88456 81928==
41933,2023,09,18,15,00,AAXX 18154 41933 01440 60000 10264 20250 30041 40050 70196 83510 333 58024 70384 83616 85458==
41933,2023,09,18,18,00,AAXX 18184 41933 01440 80502 10264 20250 30045 40054 70396 8351/ 333 58023 70392 83616 88458==
41933,2023,09,18,21,00,AAXX 18214 41933 01440 80000 10262 20250 30040 40049 70262 8352/ 333 58022 70396 83616 88458==
41933,2023,09,19,00,00,AAXX 19004 41933 01440 80000 10260 20250 30044 40053 76162 8352/ 333 58027 70408 83615 88457==
41933,2023,09,19,03,00,AAXX 19034 41933 01450 61203 10284 20250 30061 40070 70162 83510 333 20250 58017 70403 83618 86458==
41933,2023,09,19,06,00,AAXX 19064 41933 11456 61702 10319 20250 30052 40061 69956 70262 84430 333 58015 70401 82618 83826 85362==
41933,2023,09,19,09,00,AAXX 19094 41933 01456 61803 10320 20250 30037 40046 70262 84430 333 58028 70401 82618 83826 86362==
41933,2023,09,19,12,00,AAXX 19124 41933 01350 81803 10266 20260 30045 40054 76196 8662/ 333 10344 58022 70193 82708 83615 88457==
41933,2023,09,19,15,00,AAXX 19154 41933 01450 60000 10270 20260 30063 40072 70162 83520 333 58022 70161 83618 86458==
41933,2023,09,19,18,00,AAXX 19184 41933 01450 60000 10270 20260 30065 40074 70262 83520 333 58020 70010 83618 86458==
41933,2023,09,19,21,00,AAXX 19214 41933 02450 60000 10265 20260 30055 40064 82520 333 58015 70159 82618 86458==
41933,2023,09,20,00,00,AAXX 20004 41933 02450 62002 10260 20240 30051 40060 83520 333 58007 70147 83618 86458==
41933,2023,09,20,03,00,AAXX 20034 41933 02356 51804 10302 20250 30065 40073 84630 333 20258 58004 70142 82708 83614 85362==
41933,2023,09,20,06,00,AAXX 20064 41933 01350 71804 10286 20270 30063 40072 70362 85620 333 58011 70000 82708 84614 87458==
41933,2023,09,20,09,00,AAXX 20094 41933 01450 61804 10291 20260 30031 40040 72162 84410 333 59006 70154 83618 83826 85459==
41933,2023,09,20,12,00,AAXX 20124 41933 11450 71702 10282 20250 30040 40049 60011 70362 84520 333 10312 59005 70022 84618 87458==
41933,2023,09,20,15,00,AAXX 20154 41933 01450 71802 10282 20240 30065 40074 70262 84520 333 58002 70104 84618 87458==
41933,2023,09,20,18,00,AAXX 20184 41933 11440 60000 10280 20250 30067 40076 60086 70162 84520 333 58002 70094 84618 86458==
41933,2023,09,20,21,00,AAXX 20214 41933 01440 61802 10272 20250 30058 40067 70262 84520 333 58003 70106 84618 86458==
41933,2023,09,21,00,00,AAXX 21004 41933 11450 61802 10262 20250 30050 40059 60016 70262 84520 333 59001 70106 84616 86458==
41933,2023,09,21,03,00,AAXX 21034 41933 01350 80000 10276 20260 30085 40094 76166 8472/ 333 20258 58020 70122 81708 83615 88458==
41933,2023,09,21,06,00,AAXX 21064 41933 21456 51310 10313 20250 30072 40081 70162 85400 333 58009 60028 70124 82616 83824==
41933,2023,09,21,09,00,AAXX 21094 41933 01320 82308 10257 20250 30060 40069 79522 8692/ 333 58029 70196 82707 84612 88457==
41933,2023,09,21,12,00,AAXX 21124 41933 21350 81503 10266 20260 30057 40065 76196 8672/ 333 10317 58017 60117 70226 82708 84614 88457==
41933,2023,09,21,15,00,AAXX 21154 41933 01450 31702 10266 20250 30083 40092 71362 83300 333 58018 70145 82618 81926==
41933,2023,09,21,18,00,AAXX 21184 41933 01350 71703 10265 20260 30075 40084 76162 8472/ 333 58008 70149 82709 84616 87458==
41933,2023,09,21,21,00,AAXX 21214 41933 01450 71702 10262 20250 30067 40076 70262 84520 333 58009 70142 84616 87458==
41936,2023,09,15,00,00,AAXX 15004 41936 01420 41405 10272 20260 30037 40044 70522 82830 333 58032 70040 83615 84362==
41936,2023,09,15,03,00,AAXX 15034 41936 01320 71109 10292 20270 30053 40060 70522 83730 333 20272 58028 70040 87210 83615 86362==
41936,2023,09,15,06,00,AAXX 15064 41936 01318 70706 10304 20270 30053 40060 79596 89630 333 58028 70040 87308 83315 87362 81930==
41936,2023,09,15,09,00,AAXX 15094 41936 01320 71606 10290 20270 30039 40046 79596 89630 333 58033 70050 87308 83615 86362 81930==
41936,2023,09,15,12,00,AAXX 15124 41936 01335 41604 10290 20270 30020 40028 70596 82530 333 10318 58016 70020 82615 84362==
41936,2023,09,15,15,00,AAXX 15154 41936 01450 31405 10288 20270 30042 40049 70562 82530 333 58013 70020 82615==
41936,2023,09,15,18,00,AAXX 15184 41936 01450 31404 10284 20260 30043 40050 70522 82530 333 58010 70020 82615==
41936,2023,09,15,21,00,AAXX 15214 41936 01440 31405 10278 20270 30038 40045 70522 82530 333 58014 70020 82615==
41936,2023,09,16,00,00,AAXX 16004 41936 01420 71404 10274 20260 30042 40049 70511 84630 333 58005 70020 82710 83615 85362==
41936,2023,09,16,03,00,AAXX 16034 41936 01440 41706 10310 20270 30060 40067 70511 82830 333 20272 58007 70020 83615 84362==
41936,2023,09,16,06,00,AAXX 16064 41936 01450 41405 10336 20280 30049 40056 70511 82830 333 59004 70020 83615 84362==
41936,2023,09,16,09,00,AAXX 16094 41936 01450 41605 10358 20270 30028 40035 70511 82830 333 59011 70000 82615 83362==
41936,2023,09,16,12,00,AAXX 16124 41936 01450 41804 10344 20260 30023 40030 70511 82830 333 10362 58002 70000 82615 83362==
41936,2023,09,16,15,00,AAXX 16154 41936 01450 41903 10300 20280 30036 40043 70511 82830 333 59006 70000 82615 83362==
41936,2023,09,16,18,00,AAXX 16184 41936 01450 41903 10290 20280 30038 40045 70511 82830 333 59005 70000 82615 83362==
41936,2023,09,16,21,00,AAXX 16214 41936 01440 40000 10284 20270 30030 40037 70511 82830 333 59008 70000 82615 83362==
41936,2023,09,17,00,00,AAXX 17004 41936 01420 40000 10268 20250 30034 40041 70511 82830 333 59008 70000 82615 83362==
41936,2023,09,17,03,00,AAXX 17034 41936 01430 42705 10314 20270 30047 40054 70511 82530 333 20268 59013 70000 82615 83362==
41936,2023,09,17,06,00,AAXX 17064 41936 01440 41206 10352 20270 30026 40032 70511 82530 333 59024 70000 82615 83362==
41936,2023,09,17,09,00,AAXX 17094 41936 01440 41803 10364 20300 30004 40011 70511 82530 333 59024 70000 82615 83362==
41936,2023,09,17,12,00,AAXX 17124 41936 01440 51303 10330 20270 39986 49992 70522 83830 333 10368 59038 70000 83615 84362==
41936,2023,09,17,15,00,AAXX 17154 41936 01440 32205 10298 20270 30020 40027 70521 82830 333 59016 70000 82615 83362==
41936,2023,09,17,18,00,AAXX 17184 41936 01440 33104 10288 20270 30024 40031 70511 82830 333 59014 70000 82615 83362==
41936,2023,09,17,21,00,AAXX 17214 41936 01430 60000 10280 20270 30005 40012 70521 83630 333 59025 70000 81710 83615==
41936,2023,09,18,00,00,AAXX 18004 41936 01420 60904 10274 20260 30005 40012 70522 83630 333 59029 70000 82710 83615==
41936,2023,09,18,03,00,AAXX 18034 41936 01420 71904 10286 20260 30037 40044 70522 84630 333 20272 59010 70000 83610 83615 85362==
41936,2023,09,18,06,00,AAXX 18064 41936 01430 61506 10320 20260 30032 40039 70522 83630 333 58007 70000 81710 83615 85362==
41936,2023,09,18,09,00,AAXX 18094 41936 01440 61605 10314 20250 30014 40021 70522 83630 333 58015 70000 82710 83615==
41936,2023,09,18,12,00,AAXX 18124 41936 01320 71708 10278 20260 30018 40025 76062 83630 333 10338 58033 70010 83708 83615 86362==
41936,2023,09,18,15,00,AAXX 18154 41936 01420 70000 10274 20250 30034 40041 70562 85730 333 58014 70020 82708 83615 86362==
41936,2023,09,18,18,00,AAXX 18184 41936 01520 70403 10264 20250 30037 40044 76061 85730 333 58013 70010 84708 83615 86362==
41936,2023,09,18,21,00,AAXX 18214 41936 01420 70000 10260 20250 30025 40032 70561 85730 333 58020 70020 82708 83615 86362==
41936,2023,09,19,00,00,AAXX 19004 41936 01420 60403 10260 20250 30033 40040 70522 85730 333 58028 70020 82708 83615 86362==
41936,2023,09,19,03,00,AAXX 19034 41936 01330 51004 10290 20250 30045 40052 70522 84630 333 20256 58008 70020 82708 83615 85362==
41936,2023,09,19,05,00,AAXX 19054 41936 21440 61105 10276 20270 30035 40042 70522 83630 333 56990 58007 79999 82710 83615 85362=
41936,2023,09,19,06,00,AAXX 19064 41936 01340 61108 10322 20260 30044 40051 70522 84630 333 58012 70020 82708 83615==
41936,2023,09,19,09,00,AAXX 19094 41936 01440 61409 10298 20270 30025 40032 71792 84930 333 58011 70020 83710 83615 85362==
41936,2023,09,19,12,00,AAXX 19124 41936 01440 61405 10286 20270 30018 40025 70599 83630 333 10326 58000 70010 82710 83615 85362==
41936,2023,09,19,15,00,AAXX 19154 41936 41440 61105 10276 20270 30035 40042 70522 83630 333 58007 82710 83615 85362==
41936,2023,09,19,18,00,AAXX 19184 41936 01325 71204 10264 20258 30053 40060 79522 89630 333 58016 70030 83708 83615 82615 81930==
41936,2023,09,19,21,00,AAXX 19214 41936 01430 60903 10264 20250 30023 40030 72196 333 59002 70060 83630 82710 83615 85362==
41936,2023,09,20,00,00,AAXX 20004 41936 01330 60904 10264 20250 30031 40038 76162 84630 333 59002 70030 82708 83615 85662==
41936,2023,09,20,03,00,AAXX 20034 41936 01320 70908 10272 20262 30041 40048 76150 85730 333 59004 70060 82708 83615 85362==
41936,2023,09,20,06,00,AAXX 20064 41936 01430 71412 10312 20260 30036 40043 70522 86730 333 59005 70060 84708 83615 85362==
41936,2023,09,20,09,00,AAXX 20094 41936 41316 81310 10312 20260 30012 40019 79522 85930 333 59013 84707 83615 87362 81930==
41936,2023,09,20,12,00,AAXX 20124 41936 01320 81403 10270 20260 30023 40030 70522 85630 333 10324 59005 70300 83708 83615 86362==
41936,2023,09,20,15,00,AAXX 20154 41936 01420 70000 10270 20260 30043 40050 70596 84630 333 59008 70360 83710 83615 85362==
41936,2023,09,20,18,00,AAXX 20184 41936 02420 61403 10270 20260 30043 40050 83630 333 59010 70000 82710 83615 85362==
41936,2023,09,20,21,00,AAXX 20214 41936 01420 61203 10270 20260 30036 40043 70522 83630 333 58013 70300 82710 83615 85362==
41936,2023,09,21,00,00,AAXX 21004 41936 01420 51406 10270 20260 30036 40043 70522 82830 333 58005 70300 83615 85362==
41936,2023,09,21,03,00,AAXX 21034 41936 01425 71207 10300 20268 30059 40066 71722 85730 333 59017 70300 84710 83615 87362 81930==
41936,2023,09,21,06,00,AAXX 21064 41936 01316 81710 10274 20260 30060 40067 79792 85720 333 58024 70130 84707 83615 88360 81930==
41936,2023,09,21,09,00,AAXX 21094 41936 01320 81805 10272 20260 30035 40042 72166 83830 333 58023 70400 84708 83615 88360==
41936,2023,09,21,12,00,AAXX 21124 41936 01420 62006 10276 20260 30035 40042 70526 83630 333 10304 58012 70000 82710 83615 85362==
41936,2023,09,21,15,00,AAXX 21154 41936 01420 61403 10273 20266 30065 40071 70522 83630 333 58021 70130 83710 83615 85362==
41936,2023,09,21,18,00,AAXX 21184 41936 01420 61403 10273 20267 30066 40072 70522 83830 333 58022 70130 82710 83615 86362==
41936,2023,09,21,21,00,AAXX 21214 41936 01420 61403 10272 20266 30061 40068 70522 83830 333 58025 70130 82710 83615 86362==
41938,2023,09,15,00,00,AAXX 15004 41938 32456 61802 10270 20250 30038 40042 83510 333 56390 58019 70040 83617 85460=
41938,2023,09,15,06,00,AAXX 15064 41938 32456 61804 10316 20270 30061 40064 84410 333 56490 58029 70002 83617 85460=
41938,2023,09,15,12,00,AAXX 15124 41938 32456 41801 10295 20270 30030 40034 69965 70162 82510 333 10320 56490 58014 70006 82617 83460=
41938,2023,09,15,18,00,AAXX 15184 41938 32450 41801 10272 20260 30054 40058 82510 333 56490 58016 70006 82617 83460=
41938,2023,09,16,00,00,AAXX 16004 41938 32956 20000 10265 20260 30046 40050 82010 333 56090 58008 70006 82460=
41938,2023,09,16,06,00,AAXX 16064 41938 32456 31801 10330 20260 30053 40056 83400 333 56300 59008 70006 82618=
41938,2023,09,16,12,00,AAXX 16124 41938 32956 10000 10303 20270 30023 40027 80001 333 10346 56009 59007 70000 81080=
41938,2023,09,16,18,00,AAXX 16184 41938 31940 00000 10274 20260 30042 40046 70500 333 59012 70000=
41938,2023,09,17,00,00,AAXX 17004 41938 31430 70000 10266 20260 30037 40041 70521 83411 333 56299 59009 70000 82618 85460=
41938,2023,09,17,06,00,AAXX 17064 41938 32456 51301 10335 20270 30033 40037 83411 333 56299 59020 70000 82618 83460=
41938,2023,09,17,12,00,AAXX 17124 41938 32456 40000 10320 20280 30001 40005 83401 333 10353 56409 59022 70000 82618=
41938,2023,09,17,18,00,AAXX 17184 41938 31450 40000 10280 20260 30013 40017 71711 84910 333 56490 59029 70000 83618 81928=
41938,2023,09,18,00,00,AAXX 18004 41938 11450 60000 10365 20260 30016 40020 60066 83510 333 56990 59030 70058 83618 83459=
41938,2023,09,18,06,00,AAXX 18064 41938 11456 60000 10295 20270 30034 40038 60038 70166 84410 333 56490 58001 70090 83618=
41938,2023,09,18,12,00,AAXX 18124 41938 11450 70000 10255 20250 30028 40032 60189 76162 84410 333 10317 56490 58027 70272 83618 85459=
41938,2023,09,18,18,00,AAXX 18184 41938 11450 70000 10255 20250 30038 40042 60048 76162 84510 333 56990 58025 70310 84618 84459=
41938,2023,09,19,00,00,AAXX 19004 41938 11450 70000 10260 20260 30032 40036 60019 76162 84510 333 56990 58010 70266 84618 85459=
41938,2023,09,19,06,00,AAXX 19064 41938 11450 60000 10277 20270 30042 40046 60107 70262 84410 333 56490 58020 70338 83618 83459=
41938,2023,09,19,12,00,AAXX 19124 41938 11450 80000 10266 20260 30031 40035 60158 70596 8342/ 333 10285 56399 58007 70304 82617 88459=
41938,2023,09,19,18,00,AAXX 19184 41938 11450 70000 10254 20250 30055 40059 60033 76162 82512 333 56399 58017 70298 82617 83460=
41938,2023,09,20,00,00,AAXX 20004 41938 11350 80903 10258 20258 30040 40044 60083 76162 8672/ 333 56299 58008 70360 81708 85616 88459=
41938,2023,09,20,06,00,AAXX 20064 41938 11456 71605 10297 20270 30045 40049 60053 70162 85410 333 56490 58003 70302 83617 83824 85460=
41938,2023,09,20,12,00,AAXX 20124 41938 11450 81802 10275 20260 30027 40030 60036 70262 8252/ 333 10304 56499 59004 70182 82617 88459=
41938,2023,09,20,18,00,AAXX 20184 41938 32450 51802 10271 20260 30051 40055 82510 333 56490 59004 70150 82617 84460=
41938,2023,09,21,00,00,AAXX 21004 41938 32450 61802 10268 20260 30049 40053 82510 333 56490 58009 70074 82616 85460=
41938,2023,09,21,06,00,AAXX 21064 41938 32456 51806 10315 20260 30060 40064 83410 333 56490 58015 70026 82617 84460=
41938,2023,09,21,12,00,AAXX 21124 41938 11456 81802 10277 20260 30042 40046 60016 70296 8332/ 333 10316 56499 58015 70012 82617 81928 88460=
41938,2023,09,21,18,00,AAXX 21184 41938 11450 81802 10272 20260 30060 40063 69946 70296 8252/ 333 56499 58009 70016 82617 88459=
41939,2023,09,15,00,00,AAXX 15004 41939 02457 80000 10273 20260 30045 40053 8352/ 333 58025 70102 83617 88459==
41939,2023,09,15,03,00,AAXX 15034 41939 02458 80000 10287 20270 30066 40074 8352/ 333 20268 58026 70102 83618 88459==
41939,2023,09,15,06,00,AAXX 15064 41939 02459 50000 10326 20270 30067 40075 83530 333 58027 70000 83618 83364==
41939,2023,09,15,09,00,AAXX 15094 41939 01458 80000 10300 20270 30053 40062 76162 8352/ 333 58030 70012 83616 88459==
41939,2023,09,15,12,00,AAXX 15124 41939 11457 40000 10285 20270 30028 40036 60016 70162 82530 333 10330 58001 70012 82618==
41939,2023,09,15,18,00,AAXX 15184 41939 02950 00000 10275 20270 30057 40065 333 59005 70012==
41939,2023,09,15,21,00,AAXX 15214 41939 02456 50000 10273 20260 30065 40073 83530 333 58012 70012 83617 83364==
41939,2023,09,16,00,00,AAXX 16004 41939 02456 60000 10270 20260 30057 40065 83530 333 58012 70012 83617 84364==
41939,2023,09,16,03,00,AAXX 16034 41939 02458 50000 10303 20270 30075 40083 83530 333 20265 58009 70012 83618 83364==
41939,2023,09,16,06,00,AAXX 16064 41939 02460 40000 10335 20270 30056 40063 82530 333 59011 70012 82618 83365==
41939,2023,09,16,09,00,AAXX 16094 41939 02460 20000 10335 20270 30035 40043 82530 333 59018 70000 81618==
41939,2023,09,16,12,00,AAXX 16124 41939 02950 00000 10320 20280 30015 40023 333 10343 59013 70000==
41939,2023,09,16,15,00,AAXX 16154 41939 02950 00000 10300 20270 30032 40040 333 59013 70000==
41939,2023,09,16,18,00,AAXX 16184 41939 02950 00000 10287 20270 30045 40053 333 59012 70000==
41939,2023,09,16,21,00,AAXX 16214 41939 02950 00000 10280 20270 30055 40063 333 59010 70000==
41939,2023,09,17,00,00,AAXX 17004 41939 02456 10000 10275 20270 30040 40048 81500 333 59017 70000 81618==
41939,2023,09,17,03,00,AAXX 17034 41939 02458 10000 10315 30050 40057 50270 81500 333 20272 59025 70000 81618==
41939,2023,09,17,06,00,AAXX 17064 41939 02459 20000 10345 20270 30032 40039 82500 333 59024 70000 82618==
41939,2023,09,17,09,00,AAXX 17094 41939 02459 30000 10346 20270 30001 40008 83400 333 59034 70000 82618==
41939,2023,09,17,12,00,AAXX 17124 41939 02457 40000 10302 20270 30000 40008 82530 333 10350 59015 70000 82618 83365==
41939,2023,09,17,15,00,AAXX 17154 41939 02456 70000 10292 20270 30027 40035 83510 333 59005 70000 83617 86459==
41939,2023,09,17,18,00,AAXX 17184 41939 NIL=
41939,2023,09,17,21,00,AAXX 17214 41939 02450 80000 10270 20260 30022 40030 8352/ 333 59033 70000 83617 88459==
41939,2023,09,18,00,00,AAXX 18004 41939 01456 80000 10260 20260 30014 40022 76162 8352/ 333 59026 70040 83616 88459==
41939,2023,09,18,03,00,AAXX 18034 41939 01356 80000 10258 20258 30040 40048 76162 8472/ 333 20254 59010 70171 81710 83616 88458==
41939,2023,09,18,06,00,AAXX 18064 41939 21458 60000 10295 20260 30037 40045 72162 83510 333 58005 60189 70221 83618 86460==
41939,2023,09,18,09,00,AAXX 18094 41939 02456 70000 10300 20250 30021 40029 83510 333 58020 70221 83616 87459==
41939,2023,09,18,12,00,AAXX 18124 41939 21456 50000 10272 20260 30025 40033 70162 83530 333 10312 58025 60175 70393 83617 83365==
41939,2023,09,18,15,00,AAXX 18154 41939 01450 80000 10262 20250 30059 40067 76122 8352/ 333 58032 70433 83616 88458==
41939,2023,09,18,18,00,AAXX 18184 41939 21450 80000 10290 20250 30065 40073 70262 8352/ 333 58030 60045 70433 83617 88459==
41939,2023,09,18,21,00,AAXX 18214 41939 02456 80000 10265 20260 30050 40058 8352/ 333 58030 70453 83617 88459==
41939,2023,09,19,00,00,AAXX 19004 41939 02456 80000 10263 20250 30048 40056 8352/ 333 58034 70410 83617 88459==
41939,2023,09,19,03,00,AAXX 19034 41939 02457 80000 10270 20260 30064 40072 8352/ 333 20255 58024 70282 83616 88459==
41939,2023,09,19,06,00,AAXX 19064 41939 21456 60000 10282 20250 30059 40067 72162 83510 333 58022 60097 70324 83616 86459==
41939,2023,09,19,09,00,AAXX 19094 41939 01457 80000 10288 20260 30042 40050 70362 8352/ 333 58021 70382 83616 88459==
41939,2023,09,19,12,00,AAXX 19124 41939 21450 80000 10272 20260 30041 40049 70262 8352/ 333 10290 58016 60179 70324 83617 88459==
41939,2023,09,19,15,00,AAXX 19154 41939 01450 80000 10265 20260 30070 40078 76122 8352/ 333 58011 70320 83617 88459==
41939,2023,09,19,18,00,AAXX 19184 41939 21450 80000 10265 20260 30078 40086 70262 8352/ 333 58013 60045 70300 83617 88459==
41939,2023,09,19,21,00,AAXX 19214 41939 01340 80000 10260 20250 30045 40053 76162 8472/ 333 59005 70368 81710 83616 88458==
41939,2023,09,20,00,00,AAXX 20004 41939 21356 80000 10255 20250 30039 40047 76162 8472/ 333 59009 60139 70430 81710 83616 88458==
41939,2023,09,20,03,00,AAXX 20034 41939 01456 80000 10260 20250 30052 40060 76162 8352/ 333 20248 59012 70453 83616 88459==
41939,2023,09,20,06,00,AAXX 20064 41939 22456 80000 10275 20260 30055 40063 8352/ 333 59004 60179 70506 83616 88457==
41939,2023,09,20,09,00,AAXX 20094 41939 02456 80000 10270 20250 30037 40045 8352/ 333 59005 70448 83616 88458==
41939,2023,09,20,12,00,AAXX 20124 41939 02456 80000 10270 20250 30042 40050 8352/ 333 59005 70334 83617 88459==
41939,2023,09,20,15,00,AAXX 20154 41939 02456 80000 10268 20260 30063 40071 8362/ 333 59007 70298 83617 88459==
41939,2023,09,20,18,00,AAXX 20184 41939 02456 80000 10263 20250 30075 40083 8352/ 333 59003 70298 83617 88459==
41939,2023,09,20,21,00,AAXX 20214 41939 01450 80000 10265 20260 30045 40053 70262 8352/ 333 58000 70262 83617 88459==
41939,2023,09,21,00,00,AAXX 21004 41939 11456 60000 10267 20260 30035 40043 60036 70162 83510 333 59004 70200 83618 85459==
41939,2023,09,21,03,00,AAXX 21034 41939 02458 60000 10282 20260 30050 40058 83510 333 20263 59002 70177 83618 85459==
41939,2023,09,21,06,00,AAXX 21064 41939 01459 40000 10328 20270 30065 40073 70162 82530 333 58010 70006 82618 83360==
41939,2023,09,21,09,00,AAXX 21094 41939 01457 60000 10295 20260 30054 40062 70396 83510 333 58017 70048 83618 86459==
41939,2023,09,21,12,00,AAXX 21124 41939 11450 80000 10280 20260 30055 40063 60016 70396 8352/ 333 10330 58013 70048 83617 88459==
41939,2023,09,21,15,00,AAXX 21154 41939 02450 80000 10280 20270 30082 40090 8352/ 333 58019 70048 83617 88459==
41939,2023,09,21,18,00,AAXX 21184 41939 21450 80000 10276 20270 30093 40101 70262 8352/ 333 58018 60037 70078 83617 88459==
41939,2023,09,21,21,00,AAXX 21214 41939 02456 70000 10274 20260 30090 40098 83510 333 58045 70016 83617 86459==
41941,2023,09,15,00,00,AAXX 15004 41941 11440 81803 10272 20270 30049 40055 60016 72162 8632/ 333 58013 70090 85612 88456 81924==
41941,2023,09,15,03,00,AAXX 15034 41941 02456 71804 10302 20250 30074 40079 85420 333 20268 58027 70090 84616 87458==
41941,2023,09,15,06,00,AAXX 15064 41941 02456 71804 10330 20250 30060 40065 85420 333 58017 70090 84616 87458==
41941,2023,09,15,09,00,AAXX 15094 41941 02456 71804 10336 20260 30039 40044 85420 333 58020 70040 84616 87458==
41941,2023,09,15,12,00,AAXX 15124 41941 02456 71805 10304 20250 30031 40036 85420 333 10345 58007 70010 84616 87458==
41941,2023,09,15,15,00,AAXX 15154 41941 02450 71804 10290 20260 30054 40059 85420 333 58007 70010 84616 87458==
41941,2023,09,15,18,00,AAXX 15184 41941 02440 61803 10280 20260 30066 40071 85420 333 58014 70010 84616 86458==
41941,2023,09,15,21,00,AAXX 15214 41941 02440 60000 10276 20270 30056 40061 85420 333 58014 70010 84616 86458==
41941,2023,09,16,00,00,AAXX 16004 41941 02450 80000 10275 20270 30054 40059 8632/ 333 58005 70000 85616 88458 81930==
41941,2023,09,16,03,00,AAXX 16034 41941 02450 70000 10316 20280 30069 40074 85420 333 20273 59005 70000 84616 87458==
41941,2023,09,16,06,00,AAXX 16064 41941 02450 71804 10333 20260 30054 40059 85420 333 59006 70000 84616 87458==
41941,2023,09,16,09,00,AAXX 16094 41941 02450 61803 10340 20270 30032 40038 85420 333 59007 70000 84616 86458==
41941,2023,09,16,12,00,AAXX 16124 41941 02456 60000 10314 20250 30019 40024 85420 333 10345 59012 70000 84616 86458==
41941,2023,09,16,15,00,AAXX 16154 41941 02440 70000 10294 20280 30042 40047 85420 333 59012 70000 84616 87458==
41941,2023,09,16,18,00,AAXX 16184 41941 02440 70000 10290 20280 30046 40051 85420 333 59020 70000 84616 87458==
41941,2023,09,16,21,00,AAXX 16214 41941 02440 70000 10285 20280 30039 40044 85420 333 59017 70000 84616 87458==
41941,2023,09,17,00,00,AAXX 17004 41941 02450 70000 10280 20280 30036 40041 85420 333 59018 70000 84616 87458==
41941,2023,09,17,03,00,AAXX 17034 41941 02450 80000 10310 20270 30046 40051 8632/ 333 20278 59023 70000 85616 88458 81930==
41941,2023,09,17,06,00,AAXX 17064 41941 02456 61804 10340 20270 30029 40034 85420 333 59025 70000 84616 86458==
41941,2023,09,17,09,00,AAXX 17094 41941 02457 60000 10350 20280 30013 40018 85420 333 59006 70000 84616 86458==
41941,2023,09,17,12,00,AAXX 17124 41941 02450 60000 10325 20290 39999 40005 85420 333 10335 59043 70000 84616 86458==
41941,2023,09,17,15,00,AAXX 17154 41941 01440 80000 10275 20260 30017 40023 79596 8692/ 333 59025 70010 85614 88456 81925==
41941,2023,09,17,18,00,AAXX 17184 41941 01440 80000 10270 20260 30034 40040 79266 8632/ 333 59012 70010 85616 88458 81930==
41941,2023,09,17,21,00,AAXX 17214 41941 02440 80000 10266 20260 30027 40033 8632/ 333 59012 70010 85616 88458 81930==
41941,2023,09,18,00,00,AAXX 18004 41941 21450 80903 10260 20260 30020 40026 76162 8632/ 333 59016 60065 70070 85614 88456 81925==
41941,2023,09,18,03,00,AAXX 18034 41941 01450 80000 10270 20270 30044 40050 70262 8632/ 333 20258 59002 70110 85614 88456 81925==
41941,2023,09,18,06,00,AAXX 18064 41941 21450 81803 10285 20270 30037 40043 70266 8632/ 333 58008 60068 70130 85614 88456 81925==
41941,2023,09,18,09,00,AAXX 18094 41941 02456 80802 10321 20280 30023 40028 8632/ 333 58010 70130 85614 88456 81925==
41941,2023,09,18,12,00,AAXX 18124 41941 02450 80000 10285 20280 30028 40033 8632/ 333 10345 58029 70130 85614 88456 81925==
41941,2023,09,18,15,00,AAXX 18154 41941 02440 80000 10283 20260 30040 40045 8632/ 333 58023 70120 85614 88456 81925==
41941,2023,09,18,18,00,AAXX 18184 41941 11440 80000 10270 20270 30047 40052 60036 72162 8632/ 333 58013 70150 85614 88456 81925==
41941,2023,09,18,21,00,AAXX 18214 41941 01440 80000 10265 20265 30040 40045 76162 8632/ 333 58013 70170 85614 88456 81925==
41941,2023,09,19,00,00,AAXX 19004 41941 21450 80903 10262 20260 30045 40051 70266 8632/ 333 58025 60078 70160 85614 88456 81925==
41941,2023,09,19,03,00,AAXX 19034 41941 02450 80903 10275 20270 30065 40071 8632/ 333 20260 58021 70120 85614 88456 81925==
41941,2023,09,19,06,00,AAXX 19064 41941 01450 80000 10308 20270 30054 40060 70262 8632/ 333 58017 70020 85614 88456 81925==
41941,2023,09,19,09,00,AAXX 19094 41941 02450 81804 10312 20260 30037 40042 8632/ 333 58014 70120 85614 88456 81925==
41941,2023,09,19,12,00,AAXX 19124 41941 02450 81803 10280 20260 30040 40046 8632/ 333 10325 58012 70120 85616 88458 81930==
41941,2023,09,19,15,00,AAXX 19154 41941 02440 81803 10276 20260 30071 40077 8632/ 333 58031 70120 85614 88456 81925==
41941,2023,09,19,18,00,AAXX 19184 41941 NIL=
41941,2023,09,19,21,00,AAXX 19214 41941 02440 80803 10270 20250 30054 40060 8632/ 333 58014 70070 85614 88456 81925==
41941,2023,09,20,00,00,AAXX 20004 41941 21450 80903 10266 20260 30048 40054 76162 8632/ 333 58003 60017 70030 85614 88456 81925==
41941,2023,09,20,03,00,AAXX 20034 41941 01456 80906 10290 20260 30067 40073 70262 8632/ 333 20265 58002 70040 85614 88456 81925==
41941,2023,09,20,06,00,AAXX 20064 41941 11450 80906 10300 20270 30060 40066 60016 70262 8632/ 333 58006 70020 85614 88456 81925==
41941,2023,09,20,09,00,AAXX 20094 41941 01450 81804 10280 20270 30034 40040 72996 8692/ 333 59003 70110 85614 88456 81925==
41941,2023,09,20,12,00,AAXX 20124 41941 21450 81803 10273 20270 30036 40042 70262 8632/ 333 10310 59004 60097 70110 85614 88456 81925==
41941,2023,09,20,15,00,AAXX 20154 41941 01440 80000 10265 20265 30072 40078 79596 8692/ 333 58001 70290 85614 88456 81925==
41941,2023,09,20,18,00,AAXX 20184 41941 21440 80000 10262 20262 30069 40075 70296 8632/ 333 58006 60208 70290 85614 88456 81925==
41941,2023,09,20,21,00,AAXX 20214 41941 02440 80803 10268 20268 30067 40073 8632/ 333 58013 70290 85614 88456 81925==
41941,2023,09,21,00,00,AAXX 21004 41941 01450 80803 10270 20270 30065 40071 72162 8632/ 333 58017 70030 85616 88458 81930==
41941,2023,09,21,03,00,AAXX 21034 41941 01450 80803 10280 20270 30085 40090 72162 8632/ 333 20265 58018 70190 85616 88458 81930==
41941,2023,09,21,06,00,AAXX 21064 41941 01456 80000 10302 20270 30075 40081 70262 8632/ 333 58015 70010 85616 88458 81930==
41941,2023,09,21,09,00,AAXX 21094 41941 01450 81804 10288 20270 30054 40060 70262 8632/ 333 58020 70250 85613 88456 81924==
41941,2023,09,21,12,00,AAXX 21124 41941 01350 81804 10275 20270 30050 40056 72996 8792/ 333 10320 58014 70270 82708 83612 88456 82924==
41941,2023,09,21,15,00,AAXX 21154 41941 41440 81805 10272 20270 30072 40078 71322 8692/ 333 58000 85616 88458 81928==
41941,2023,09,21,18,00,AAXX 21184 41941 21440 80000 10270 20270 30087 40093 72996 8692/ 333 58018 60067 70130 85616 88458 81928==
41941,2023,09,21,21,00,AAXX 21214 41941 01440 81802 10266 20266 30073 40079 71322 8692/ 333 58006 70130 85616 88458 81928==
41943,2023,09,15,00,00,AAXX 15004 41943 02430 81302 10257 20250 30059 40066 8662/ 333 58027 70030 83710 84615 88458==
41943,2023,09,15,03,00,AAXX 15034 41943 02435 61802 10320 20250 30077 40084 84520 333 20257 58022 70030 83616 85458==
41943,2023,09,15,06,00,AAXX 15064 41943 02435 71802 10337 20260 30066 40073 84420 333 58017 70030 83616 85458==
41943,2023,09,15,09,00,AAXX 15094 41943 02440 41803 10340 20250 30046 40053 83430 333 58016 70020 82618 83362==
41943,2023,09,15,12,00,AAXX 15124 41943 02430 41802 10300 20250 30037 40044 82530 333 10345 58004 70000 82618 83362==
41943,2023,09,15,15,00,AAXX 15154 41943 02930 01802 10285 20260 30065 40072 333 58011 70000==
41943,2023,09,15,18,00,AAXX 15184 41943 02930 00000 10270 20260 30069 40076 333 58012 70000==
41943,2023,09,15,21,00,AAXX 15214 41943 02430 40000 10268 20260 30055 40062 82530 333 58004 70000 82618 83362==
41943,2023,09,16,00,00,AAXX 16004 41943 02430 80000 10268 20260 30056 40063 8662/ 333 59003 70000 83710 84615 88458==
41943,2023,09,16,03,00,AAXX 16034 41943 02435 61802 10315 20270 30072 40079 84520 333 20265 59005 70000 83616 85458==
41943,2023,09,16,06,00,AAXX 16064 41943 02435 71804 10340 20250 30056 40063 84420 333 59010 70000 83616 85458==
41943,2023,09,16,09,00,AAXX 16094 41943 02440 41802 10350 20250 30029 40036 83430 333 59017 70000 82618 83362==
41943,2023,09,16,12,00,AAXX 16124 41943 02430 50000 10320 20260 30018 40025 84430 333 10355 59019 70000 83616 84362==
41943,2023,09,16,15,00,AAXX 16154 41943 02930 00000 10290 20260 30048 40055 333 59017 70000==
41943,2023,09,16,18,00,AAXX 16184 41943 02430 40000 10276 20260 30042 40049 82530 333 59027 70000 82618 83362==
41943,2023,09,16,21,00,AAXX 16214 41943 02430 70000 10273 20250 30035 40042 84520 333 59020 70000 84616 86458==
41943,2023,09,17,00,00,AAXX 17004 41943 01430 80000 10270 20260 30036 40043 70362 8662/ 333 59020 70010 83710 84615 88458==
41943,2023,09,17,03,00,AAXX 17034 41943 02435 60000 10320 20270 30043 40045 84520 333 20270 59029 70010 83616 85458==
41943,2023,09,17,06,00,AAXX 17064 41943 02450 50701 10346 20270 30021 40028 84430 333 59035 70010 82616 83828==
41943,2023,09,17,09,00,AAXX 17094 41943 02450 43201 10350 20270 39992 49999 83430 333 59037 70010 81616 83828==
41943,2023,09,17,12,00,AAXX 17124 41943 02330 81803 10290 20230 39996 40003 8762/ 333 10370 59022 70010 83709 84614 88457==
41943,2023,09,17,15,00,AAXX 17154 41943 01330 81701 10258 20250 30034 40041 76196 8773/ 333 58014 70032 83708 86614 88457==
41943,2023,09,17,18,00,AAXX 17184 41943 21330 81801 10257 20250 30032 40039 76196 8772/ 333 59010 60078 70082 83708 86614 88457==
41943,2023,09,17,21,00,AAXX 17214 41943 01330 80000 10255 20250 30030 40037 76166 8762/ 333 59005 70122 83708 86614 88457==
41943,2023,09,18,00,00,AAXX 18004 41943 21330 80000 10255 20250 30027 40034 76166 8762/ 333 59009 60119 70178 83708 86614 88457==
41943,2023,09,18,03,00,AAXX 18034 41943 01330 81801 10261 20250 30050 40057 76166 8762/ 333 20254 58007 70228 83708 86614 88457==
41943,2023,09,18,06,00,AAXX 18064 41943 21445 61102 10300 20260 30040 40047 70162 82570 333 58019 60079 70245 82616 85458==
41943,2023,09,18,09,00,AAXX 18094 41943 02445 51802 10326 20250 30013 40020 83530 333 58021 70245 83616 84362==
41943,2023,09,18,12,00,AAXX 18124 41943 01435 60000 10265 20250 30021 40028 72162 83570 333 10330 58025 70020 83615 85457==
41943,2023,09,18,15,00,AAXX 18154 41943 01330 81101 10270 20260 30051 40058 76122 8662/ 333 58017 70255 83708 85614 87457==
41943,2023,09,18,18,00,AAXX 18184 41943 21330 80000 10260 20250 30052 40059 76166 8672/ 333 58020 60047 70245 83708 84613 88456==
41943,2023,09,18,21,00,AAXX 18214 41943 01330 80000 10258 20250 30050 40057 76166 8672/ 333 58020 70207 83708 85614 88456==
41943,2023,09,19,00,00,AAXX 19004 41943 21330 81201 10255 20250 30048 40055 72166 8672/ 333 58021 60039 70155 83708 85614 88456==
41943,2023,09,19,03,00,AAXX 19034 41943 02430 81802 10282 20250 30064 40071 8662/ 333 20254 58014 70155 83709 84615 88458==
41943,2023,09,19,05,00,AAXX 19054 41943 32435 51501 10270 20250 30071 40078 82530 333 56490 58020 70186 82615 83362=
41943,2023,09,19,06,00,AAXX 19064 41943 01335 80000 10297 20260 30059 40066 72162 8672/ 333 58019 70010 83709 84614 88456==
41943,2023,09,19,09,00,AAXX 19094 41943 01430 81802 10278 20260 30036 40043 70262 8662/ 333 58023 70196 83709 84615 88458==
41943,2023,09,19,12,00,AAXX 19124 41943 11435 71601 10280 20250 30042 40049 60126 70162 82571 333 10315 58021 70196 82615 84457==
41943,2023,09,19,15,00,AAXX 19154 41943 02435 51501 10270 20250 30071 40078 82530 333 58020 70186 82615 83362==
41943,2023,09,19,18,00,AAXX 19184 41943 02430 80000 10265 20250 30069 40076 8662/ 333 58017 70156 83710 84615 88458==
41943,2023,09,19,21,00,AAXX 19214 41943 02430 80000 10260 20250 30060 40067 8552/ 333 58010 70144 85615 86457==
41943,2023,09,20,00,00,AAXX 20004 41943 02335 80000 10255 20250 30056 40063 8672/ 333 58008 70130 83709 84614 87457==
41943,2023,09,20,03,00,AAXX 20034 41943 02435 71802 10295 20250 30073 40080 84520 333 20254 58009 70130 84615 87457==
41943,2023,09,20,06,00,AAXX 20064 41943 01340 81803 10270 20250 30071 40078 76122 8772/ 333 58012 70040 84708 84613 88456==
41943,2023,09,20,09,00,AAXX 20094 41943 01340 71803 10278 20260 30041 40048 72122 85620 333 58005 70054 83709 83615 86458==
41943,2023,09,20,12,00,AAXX 20124 41943 21335 81802 10286 20260 30045 40052 70362 8662/ 333 10300 58003 60015 70054 83710 84615 88458==
41943,2023,09,20,15,00,AAXX 20154 41943 01330 81802 10258 20250 30077 40084 76162 8772/ 333 58006 70094 83709 84614 88458==
41943,2023,09,20,18,00,AAXX 20184 41943 21330 81802 10260 20250 30081 40088 72166 8772/ 333 58012 60089 70134 84708 84613 88456==
41943,2023,09,20,21,00,AAXX 20214 41943 02330 80000 10256 20250 30072 40079 8662/ 333 58012 70134 83710 84615 88458==
41943,2023,09,21,00,00,AAXX 21004 41943 02330 80000 10254 20240 30066 40073 8662/ 333 58010 70134 83710 84615 88458==
41943,2023,09,21,03,00,AAXX 21034 41943 01330 80000 10270 20250 30092 40099 70266 8762/ 333 20252 58019 70174 83709 84615 88458==
41943,2023,09,21,06,00,AAXX 21064 41943 11440 71803 10316 20250 30082 40089 60046 70162 84520 333 58011 70134 84616 84616 86458==
41943,2023,09,21,09,00,AAXX 21094 41943 01330 81802 10265 20250 30064 40071 76122 8772/ 333 58023 70166 84708 84613 88456==
41943,2023,09,21,12,00,AAXX 21124 41943 21330 81802 10274 20240 30060 40067 70262 8662/ 333 10322 58015 60065 70180 83710 84614 88458==
41943,2023,09,21,15,00,AAXX 21154 41943 02430 61802 10270 20250 30088 40095 83520 333 58011 70140 83616 85458==
41943,2023,09,21,18,00,AAXX 21184 41943 02430 80000 10265 20250 30085 40092 8662/ 333 58004 70100 83710 84615 88458==
41943,2023,09,21,21,00,AAXX 21214 41943 01330 80000 10260 20250 30079 40086 76162 8772/ 333 58007 70230 83709 84614 88456==
41944,2023,09,15,00,00,AAXX 15004 41944 NIL=
41944,2023,09,15,12,00,AAXX 15124 41944 NIL=
41944,2023,09,15,18,00,AAXX 15184 41944 NIL=
41944,2023,09,16,00,00,AAXX 16004 41944 NIL=
41944,2023,09,16,06,00,AAXX 16064 41944 NIL=
41944,2023,09,16,12,00,AAXX 16124 41944 NIL=
41944,2023,09,17,06,00,AAXX 17064 41944 NIL=
41944,2023,09,17,12,00,AAXX 17124 41944 NIL=
41944,2023,09,17,18,00,AAXX 17184 41944 NIL=
41944,2023,09,18,06,00,AAXX 18064 41944 NIL=
41944,2023,09,18,12,00,AAXX 18124 41944 NIL=
41944,2023,09,18,18,00,AAXX 18184 41944 NIL=
41944,2023,09,19,06,00,AAXX 19064 41944 NIL=
41944,2023,09,19,12,00,AAXX 19124 41944 NIL=
41944,2023,09,19,18,00,AAXX 19184 41944 NIL=
41944,2023,09,20,06,00,AAXX 20064 41944 NIL=
41944,2023,09,21,00,00,AAXX 21004 41944 NIL=
41944,2023,09,21,06,00,AAXX 21064 41944 NIL=
41944,2023,09,21,18,00,AAXX 21184 41944 NIL=
41946,2023,09,15,00,00,AAXX 15004 41946 01456 80000 10270 20260 30046 40051 72162 8432/ 333 58041 70060 83618 88459 81929==
41946,2023,09,15,03,00,AAXX 15034 41946 01456 71302 10294 20260 30065 40070 70162 83320 333 20265 58035 70066 82618 86459 81929==
41946,2023,09,15,06,00,AAXX 15064 41946 11456 71303 10322 20260 30061 40066 69966 70262 84420 333 58035 70066 83618 86459==
41946,2023,09,15,09,00,AAXX 15094 41946 02456 70902 10304 20260 30037 40041 85420 333 58027 70066 83618 83820 85458==
41946,2023,09,15,12,00,AAXX 15124 41946 02556 70802 10294 20270 30027 40031 84570 333 10326 58015 70066 84620 85459==
41946,2023,09,15,15,00,AAXX 15154 41946 02456 40000 10290 20270 30062 40067 84500 333 58023 70066 84618==
41946,2023,09,15,18,00,AAXX 15184 41946 02456 40000 10288 20280 30059 40064 84500 333 58016 70066 84618==
41946,2023,09,15,21,00,AAXX 15214 41946 02456 20000 10284 20260 30051 40056 82500 333 58017 70066 82618==
41946,2023,09,16,00,00,AAXX 16004 41946 02456 30000 10280 20270 30055 40060 83500 333 58009 70006 83618==
41946,2023,09,16,03,00,AAXX 16034 41946 02456 61302 10312 20260 30067 40072 84420 333 20274 58002 70000 83618 84460==
41946,2023,09,16,06,00,AAXX 16064 41946 02456 61303 10338 20270 30055 40059 84420 333 59006 70000 83618 84460==
41946,2023,09,16,09,00,AAXX 16094 41946 02557 20902 10338 20270 30032 40036 81501 333 59005 70000 81620==
41946,2023,09,16,12,00,AAXX 16124 41946 02456 30000 10322 20260 30027 40031 82501 333 10340 58000 70000 82618==
41946,2023,09,16,15,00,AAXX 16154 41946 02/56 30000 10304 20270 30045 40050 83030 333 59017 70000 83362==
41946,2023,09,16,18,00,AAXX 16184 41946 02556 20000 10291 20270 30051 40055 82100 333 59008 70000 82825==
41946,2023,09,16,21,00,AAXX 16214 41946 02/56 20000 10284 20270 30035 40040 82030 333 59016 70000 82362==
41946,2023,09,17,00,00,AAXX 17004 41946 02956 30000 10277 20270 30041 40045 80001 333 59014 70000 83080==
41946,2023,09,17,03,00,AAXX 17034 41946 02956 30000 10320 20250 30050 40055 80001 333 20273 59017 70000 83080==
41946,2023,09,17,06,00,AAXX 17064 41946 02456 40503 10344 20250 30038 40042 84400 333 59017 70000 83618==
41946,2023,09,17,09,00,AAXX 17094 41946 02457 40000 10355 20260 30007 40011 84400 333 59025 70000 83618==
41946,2023,09,17,12,00,AAXX 17124 41946 02456 40000 10326 20260 30009 40013 84400 333 10358 59018 70000 83618==
41946,2023,09,17,15,00,AAXX 17154 41946 02456 10000 10308 20290 30033 40038 81500 333 59012 70000 81618==
41946,2023,09,17,18,00,AAXX 17184 41946 02456 62702 10304 20270 30031 40036 84320 333 59020 70000 83618 86459 81929==
41946,2023,09,17,21,00,AAXX 17214 41946 02456 70000 10297 20280 30016 40021 83520 333 59019 70000 83618 87459==
41946,2023,09,18,00,00,AAXX 18004 41946 01456 80000 10291 20280 30019 40024 71722 8492/ 333 59022 70000 83618 88459 81929==
41946,2023,09,18,03,00,AAXX 18034 41946 01456 80000 10278 20260 30047 40052 72996 8432/ 333 20266 59003 70020 83618 88459 81929==
41946,2023,09,18,06,00,AAXX 18064 41946 21456 81302 10308 20260 30039 40044 70296 8442/ 333 58001 60028 70020 83618 88460==
41946,2023,09,18,09,00,AAXX 18094 41946 02456 60903 10322 20250 30015 40020 85440 333 58008 70020 83618 83820==
41946,2023,09,18,12,00,AAXX 18124 41946 01456 70000 10290 20270 30022 40027 76122 85320 333 10322 58013 70004 84618 86459 81929==
41946,2023,09,18,15,00,AAXX 18154 41946 01456 80000 10276 20260 30046 40051 70362 8252/ 333 58013 70026 82618 88460==
41946,2023,09,18,18,00,AAXX 18184 41946 01456 80000 10274 20260 30043 40048 72166 8352/ 333 58012 70036 83618 88460==
41946,2023,09,18,21,00,AAXX 18214 41946 01350 80000 10268 20260 30034 40039 76166 8473/ 333 58018 70066 81710 84617 88459==
41946,2023,09,19,00,00,AAXX 19004 41946 21456 80903 10270 20260 30042 40047 70262 8352/ 333 58023 60048 70076 83618 88460==
41946,2023,09,19,03,00,AAXX 19034 41946 02456 61803 10295 20270 30057 40062 84410 333 20260 58010 70056 83618 85460==
41946,2023,09,19,06,00,AAXX 19064 41946 02456 61802 10320 20260 30048 40053 84401 333 58009 70056 83618 85080==
41946,2023,09,19,09,00,AAXX 19094 41946 02456 80902 10304 20250 30032 40037 8432/ 333 58017 70056 83618 88459 81929==
41946,2023,09,19,12,00,AAXX 19124 41946 01450 80503 10288 20260 30034 40039 72122 8532/ 333 10330 58012 70000 84618 88459 81929==
41946,2023,09,19,15,00,AAXX 19154 41946 02556 50501 10284 20260 30057 40061 85400 333 58011 70050 83620 83822==
41946,2023,09,19,18,00,AAXX 19184 41946 21456 50803 10273 20260 30055 40060 70262 85400 333 58012 69925 70042 83618 83820==
41946,2023,09,19,21,00,AAXX 19214 41946 02556 60902 10274 20260 30032 40036 83520 333 59002 70012 83620 85458==
41946,2023,09,20,00,00,AAXX 20004 41946 02350 80404 10277 20260 30029 40033 8672/ 333 59013 70002 82710 84616 88458==
41946,2023,09,20,03,00,AAXX 20034 41946 01456 61503 10285 20280 30050 40055 70162 84410 333 20268 59007 70082 83618 85460==
41946,2023,09,20,06,00,AAXX 20064 41946 11456 61503 10310 20270 30047 40052 60082 70262 84310 333 59001 70082 83618 85460 81928==
41946,2023,09,20,09,00,AAXX 20094 41946 01350 81803 10285 20270 30020 40025 79596 8592/ 333 59012 70130 82710 84616 88458 81928==
41946,2023,09,20,12,00,AAXX 20124 41946 21456 80000 10285 20270 30029 40034 70296 8532/ 333 10314 59005 60058 70134 84618 88459 81929==
41946,2023,09,20,15,00,AAXX 20154 41946 02456 81803 10288 20270 30058 40063 8352/ 333 58001 70134 83618 88459==
41946,2023,09,20,18,00,AAXX 20184 41946 02456 61401 10282 20270 30058 40063 82520 333 58003 70132 82618 85459==
41946,2023,09,20,21,00,AAXX 20214 41946 01456 80000 10281 20270 30047 40052 70362 8352/ 333 58015 70134 83618 88459==
41946,2023,09,21,00,00,AAXX 21004 41946 11456 81406 10280 20260 30050 40055 69926 70262 8352/ 333 58021 70134 83618 88459==
41946,2023,09,21,03,00,AAXX 21034 41946 01456 61805 10310 20270 30070 40075 70192 84310 333 20265 58020 70054 83618 86459 81928==
41946,2023,09,21,06,00,AAXX 21064 41946 21350 80000 10270 20260 30067 40072 79596 8592/ 333 58020 60077 70124 81710 83617 88458 81928==
41946,2023,09,21,09,00,AAXX 21094 41946 01556 71703 10288 20270 30044 40048 70162 84520 333 58024 70080 84620 86458==
41946,2023,09,21,12,00,AAXX 21124 41946 11/56 61402 10284 20260 30047 40052 69946 70162 86020 333 10314 58018 70076 86459==
41946,2023,09,21,15,00,AAXX 21154 41946 02/56 60000 10282 20260 30075 40080 86020 333 58017 70076 86459==
41946,2023,09,21,18,00,AAXX 21184 41946 02456 70000 10280 20270 30065 40070 83520 333 58007 70076 83618 86458==
41946,2023,09,21,21,00,AAXX 21214 41946 02456 50000 10280 20260 30059 40064 82520 333 58012 70074 82618 84460==
41947,2023,09,15,00,00,AAXX 15004 41947 21456 81302 10276 20270 30039 40041 70262 8352/ 333 58026 60015 70018 83618 88458==
41947,2023,09,15,03,00,AAXX 15034 41947 02450 81302 10295 20270 30053 40056 8352/ 333 20270 58030 70018 83618 88458==
41947,2023,09,15,06,00,AAXX 15064 41947 01350 80000 10285 20280 30046 40049 76122 8472/ 333 58015 70030 81708 83616 88458==
41947,2023,09,15,09,00,AAXX 15094 41947 01450 80000 10292 20270 30039 40040 70266 8352/ 333 59027 70072 83618 88459==
41947,2023,09,15,12,00,AAXX 15124 41947 11456 50000 10292 20270 30026 40028 60036 70162 82510 333 10310 58014 70072 82618 85459==
41947,2023,09,15,15,00,AAXX 15154 41947 02450 20000 10282 20270 30052 40054 82500 333 58015 70072 82618==
41947,2023,09,15,18,00,AAXX 15184 41947 02950 00000 10280 20270 30056 40058 333 58014 70072==
41947,2023,09,15,21,00,AAXX 15214 41947 02950 00000 10275 20270 30050 40052 333 58015 70060==
41947,2023,09,16,00,00,AAXX 16004 41947 02950 00000 10273 20270 30042 40044 333 58029 70060==
41947,2023,09,16,03,00,AAXX 16034 41947 02456 61302 10315 20270 30061 40063 83570 333 20268 58007 70060 83618 83459==
41947,2023,09,16,06,00,AAXX 16064 41947 02456 70000 10337 20270 30053 40056 83570 333 58007 70030 83618 85459==
41947,2023,09,16,09,00,AAXX 16094 41947 02456 50000 10348 20260 30028 40031 82510 333 59009 70000 82618 85459==
41947,2023,09,16,12,00,AAXX 16124 41947 02456 50000 10315 20270 30020 40023 82510 333 10350 59005 70000 82618 85459==
41947,2023,09,16,15,00,AAXX 16154 41947 02950 00000 10300 20270 30039 40042 333 59012 70000==
41947,2023,09,16,18,00,AAXX 16184 41947 02950 00000 10286 20280 30045 40048 333 59010 70000==
41947,2023,09,16,21,00,AAXX 16214 41947 02950 00000 10280 20270 30041 40043 333 59009 70000==
41947,2023,09,17,00,00,AAXX 17004 41947 02450 20000 10275 20280 30040 40042 82500 333 59002 70000 82618==
41947,2023,09,17,03,00,AAXX 17034 41947 02456 40000 10320 20260 30042 40044 84500 333 20270 59019 70000 84618==
41947,2023,09,17,06,00,AAXX 17064 41947 02456 60000 10344 20260 30032 40035 83570 333 59021 70000 83618 84459==
41947,2023,09,17,09,00,AAXX 17094 41947 02456 40000 10346 20270 39998 40001 84500 333 59030 70000 82618 83825==
41947,2023,09,17,12,00,AAXX 17124 41947 02456 40000 10330 20290 39993 49996 84300 333 10355 59027 70000 82618 83618 81930==
41947,2023,09,17,15,00,AAXX 17154 41947 02450 30000 10305 20300 30018 40021 83500 333 59021 70000 82618==
41947,2023,09,17,18,00,AAXX 17184 41947 02950 60000 10282 20260 30028 40031 83510 333 59017 70000 82618 86459==
41947,2023,09,17,21,00,AAXX 17214 41947 02450 80000 10280 20260 30012 40014 8352/ 333 59029 70000 83618 86459==
41947,2023,09,18,00,00,AAXX 18004 41947 01340 80000 10265 20260 30018 40020 76192 8352/ 333 59022 70040 83618 88459==
41947,2023,09,18,03,00,AAXX 18034 41947 01350 80000 10263 20260 30035 40038 76166 8472/ 333 20260 59006 70092 81708 83616 88458==
41947,2023,09,18,06,00,AAXX 18064 41947 21450 80000 10300 20250 30028 40031 70262 8352/ 333 59004 60058 70098 83618 88458==
41947,2023,09,18,09,00,AAXX 18094 41947 02456 71302 10312 20260 30012 40015 84470 333 58014 70094 83618 85459==
41947,2023,09,18,12,00,AAXX 18124 41947 01350 80000 10268 20260 30020 40022 76162 8572/ 333 10315 58026 70020 82709 84616 88458==
41947,2023,09,18,15,00,AAXX 18154 41947 01350 80000 10270 20260 30036 40039 76162 8572/ 333 58018 70120 82709 84616 88458==
41947,2023,09,18,18,00,AAXX 18184 41947 21450 80000 10265 20265 30038 40040 72166 8452/ 333 58009 60069 70176 84617 88458==
41947,2023,09,18,21,00,AAXX 18214 41947 02456 60000 10264 20260 30032 40034 83570 333 58020 70176 83618 84458==
41947,2023,09,19,00,00,AAXX 19004 41947 02356 80902 10264 20260 30034 40036 8562/ 333 58016 70136 81710 84616 88458==
41947,2023,09,19,03,00,AAXX 19034 41947 02456 71302 10293 20250 30043 40046 83570 333 20258 58008 70064 83618 86458==
41947,2023,09,19,06,00,AAXX 19064 41947 01456 61302 10315 20270 30037 40040 72122 86400 333 58009 70002 83618 83820==
41947,2023,09,19,09,00,AAXX 19094 41947 01456 81402 10290 20260 30032 40034 70362 8352/ 333 58019 70164 83618 88458==
41947,2023,09,19,12,00,AAXX 19124 41947 11456 60000 10278 20260 30033 40035 60112 70162 83570 333 10330 58013 70174 83618 85458==
41947,2023,09,19,15,00,AAXX 19154 41947 02450 80000 10278 20260 30057 40059 8352/ 333 58020 70168 83618 88458==
41947,2023,09,19,18,00,AAXX 19184 41947 21450 60000 10265 20260 30054 40056 70162 83570 333 58016 60227 70332 83618 85458==
41947,2023,09,19,21,00,AAXX 19214 41947 02450 80000 10265 20260 30044 40046 8352/ 333 58012 70332 83618 88458==
41947,2023,09,20,00,00,AAXX 20004 41947 02450 80000 10270 20260 30032 40034 8352/ 333 59002 70332 83618 88458==
41947,2023,09,20,03,00,AAXX 20034 41947 01450 81302 10280 20270 30042 40045 72162 8352/ 333 20258 59001 70358 83618 88458==
41947,2023,09,20,06,00,AAXX 20064 41947 01350 81303 10295 20280 30045 40047 72162 8672/ 333 58007 70358 82709 84617 88458==
41947,2023,09,20,09,00,AAXX 20094 41947 02450 81803 10287 20280 30023 40025 8452/ 333 59009 70338 84616 88458==
41947,2023,09,20,12,00,AAXX 20124 41947 11450 81803 10286 20280 30023 40025 60066 70262 8452/ 333 10305 59010 70308 84616 88458==
41947,2023,09,20,15,00,AAXX 20154 41947 02450 81802 10282 20260 30046 40048 8452/ 333 59011 70308 84616 88458==
41947,2023,09,20,18,00,AAXX 20184 41947 02450 80000 10280 20260 30051 40053 8452/ 333 59007 70088 84616 88458==
41947,2023,09,20,21,00,AAXX 20214 41947 01450 80000 10278 20270 30046 40048 70262 8452/ 333 58002 70098 84616 88458==
41947,2023,09,21,00,00,AAXX 21004 41947 11450 80000 10276 20270 30044 40046 60016 70262 8452/ 333 58012 70098 84616 88458==
41947,2023,09,21,03,00,AAXX 21034 41947 02456 81304 10298 20260 30066 40068 8352/ 333 20270 58023 70072 83618 88458==
41947,2023,09,21,06,00,AAXX 21064 41947 01350 81804 10272 20250 30071 40073 79522 8692/ 333 59026 70010 82708 83615 88458 81930==
41947,2023,09,21,09,00,AAXX 21094 41947 02450 81803 10285 20270 30041 40043 8352/ 333 58018 70020 83618 88458==
41947,2023,09,21,12,00,AAXX 21124 41947 01450 81802 10278 20260 30047 40049 70296 8352/ 333 10320 58024 70020 83618 88458==
41947,2023,09,21,15,00,AAXX 21154 41947 02450 51802 10280 20270 30073 40075 83570 333 58027 70020 83618 84458==
41947,2023,09,21,18,00,AAXX 21184 41947 02450 51802 10280 20270 30065 40067 83570 333 58014 70020 83618 84458==
41947,2023,09,21,21,00,AAXX 21214 41947 02450 51802 10280 20270 30063 40065 83570 333 58017 70010 83618 84458==
41950,2023,09,15,00,00,AAXX 15004 41950 21350 80000 10262 20260 30048 40050 76162 8572/ 333 58022 60099 70187 82707 84615 88458==
41950,2023,09,15,03,00,AAXX 15034 41950 01340 80000 10288 20280 30065 40067 76166 8572/ 333 20257 58027 70178 82707 84615 88458==
41950,2023,09,15,06,00,AAXX 15064 41950 21450 60000 10315 20280 30064 40066 70162 83510 333 58020 60038 70126 83617 85459==
41950,2023,09,15,09,00,AAXX 15094 41950 02450 61502 10315 20270 30045 40047 85331 333 58024 70124 83617 81928==
41950,2023,09,15,12,00,AAXX 15124 41950 02450 50000 10293 20280 30035 40037 82531 333 10335 58011 70124 82617 84080==
41950,2023,09,15,15,00,AAXX 15154 41950 02450 30000 10280 20270 30062 40064 82501 333 58016 70124 82617==
41950,2023,09,15,18,00,AAXX 15184 41950 02950 20000 10274 20270 30064 40066 80001 333 58010 70122 82080==
41950,2023,09,15,21,00,AAXX 15214 41950 02950 00000 10266 20266 30050 40052 333 58004 70042==
41950,2023,09,16,00,00,AAXX 16004 41950 01940 00000 10262 20262 30054 40056 70500 333 58006 70028==
41950,2023,09,16,03,00,AAXX 16034 41950 02450 50000 10311 20270 30073 40075 85431 333 20260 58008 70012 84617==
41950,2023,09,16,06,00,AAXX 16064 41950 02450 60000 10327 20310 30058 40060 85331 333 59006 70000 84616 81928==
41950,2023,09,16,09,00,AAXX 16094 41950 02450 20000 10342 20250 30031 40033 82401 333 59016 70000 82617==
41950,2023,09,16,12,00,AAXX 16124 41950 02450 20000 10308 20270 30025 40028 82500 333 10344 59010 70000 82617==
41950,2023,09,16,15,00,AAXX 16154 41950 02950 00000 10292 20270 30054 40056 333 59008 70000==
41950,2023,09,16,18,00,AAXX 16184 41950 02950 00000 10280 20270 30052 40054 333 59012 70000==
41950,2023,09,16,21,00,AAXX 16214 41950 02450 60000 10272 20270 30040 40043 83510 333 59010 70000 83617 86459==
41950,2023,09,17,00,00,AAXX 17004 41950 02450 50000 10272 20270 30040 40043 83530 333 59011 70000 83617 83362==
41950,2023,09,17,03,00,AAXX 17034 41950 02450 30000 10317 20270 30045 40047 82401 333 20268 59028 70000 82617==
41950,2023,09,17,06,00,AAXX 17064 41950 02450 30000 10349 20260 30037 40039 83400 333 59021 70000 82617==
41950,2023,09,17,09,00,AAXX 17094 41950 02450 30000 10358 20260 30003 40006 83400 333 59028 70000 82617==
41950,2023,09,17,12,00,AAXX 17124 41950 02350 60000 10326 20290 30001 40004 85370 333 10363 59024 70000 81708 84616 86458 81928==
41950,2023,09,17,15,00,AAXX 17154 41950 01340 81210 10275 20250 30036 40038 79522 8692/ 333 59018 70002 82708 84616 88458 81928==
41950,2023,09,17,18,00,AAXX 17184 41950 21340 80000 10266 20266 30032 40034 79596 8592/ 333 59020 60057 70052 82708 84616 88458 81928==
41950,2023,09,17,21,00,AAXX 17214 41950 01350 80000 10260 20260 30023 40025 72196 8532/ 333 59017 70302 82708 84616 88458 81928==
41950,2023,09,18,00,00,AAXX 18004 41950 01330 80000 10255 20255 30031 40033 79596 8692/ 333 59010 70392 82707 84615 88458 81928==
41950,2023,09,18,03,00,AAXX 18034 41950 01340 80000 10260 20260 30049 40051 76196 8672/ 333 20252 58004 70592 82707 84616 88458==
41950,2023,09,18,06,00,AAXX 18064 41950 21350 60000 10300 20260 30036 40038 70196 85670 333 59001 60219 70604 82708 84616 88458==
41950,2023,09,18,09,00,AAXX 18094 41950 01450 61503 10298 20260 30014 40016 70262 83530 333 58011 70627 83617 83362==
41950,2023,09,18,12,00,AAXX 18124 41950 21350 70000 10278 20260 30026 40028 70362 85610 333 10318 58025 60028 70627 82708 84616 87459==
41950,2023,09,18,15,00,AAXX 18154 41950 01350 80000 10263 20260 30041 40043 72166 8562/ 333 58005 70655 82708 84616 88458==
41950,2023,09,18,18,00,AAXX 18184 41950 21330 80000 10257 20257 30046 40048 76166 8562/ 333 58014 60099 70667 82708 84616 88458==
41950,2023,09,18,21,00,AAXX 18214 41950 01330 80000 10259 20259 30040 40042 76166 8572/ 333 58017 70447 82708 84616 88458==
41950,2023,09,19,00,00,AAXX 19004 41950 21330 80000 10259 20259 30041 40043 76166 8572/ 333 58010 60049 70365 82708 84616 88458==
41950,2023,09,19,03,00,AAXX 19034 41950 01350 80000 10280 20270 30060 40062 70266 8562/ 333 20254 58011 70179 82708 84616 88458==
41950,2023,09,19,05,00,AAXX 19054 41950 32350 60000 10270 20260 30064 40066 85670 333 56990 58023 70234 82708 84616 86459=
41950,2023,09,19,06,00,AAXX 19064 41950 01340 80000 10275 20270 30056 40058 76162 8572/ 333 58020 70207 82707 84616 88458==
41950,2023,09,19,09,00,AAXX 19094 41950 01350 80000 10284 20270 30036 40038 72122 8562/ 333 58022 70229 82708 84616 88458==
41950,2023,09,19,12,00,AAXX 19124 41950 01450 60000 10270 20260 30038 40040 72162 84471 333 10320 58012 70264 83616 84459==
41950,2023,09,19,15,00,AAXX 19154 41950 02350 60000 10270 20260 30064 40066 85670 333 58023 70234 82708 84616 86459==
41950,2023,09,19,18,00,AAXX 19184 41950 21340 80000 10260 20260 30063 40065 76162 8572/ 333 58017 60197 70364 82707 84615 88458==
41950,2023,09,19,21,00,AAXX 19214 41950 01350 80000 10260 20260 30042 40045 70262 8562/ 333 58002 70404 82708 84616 88458==
41950,2023,09,20,00,00,AAXX 20004 41950 01335 80902 10258 20258 30045 40048 76162 8672/ 333 58004 70476 83707 84616 88458==
41950,2023,09,20,03,00,AAXX 20034 41950 01350 61202 10282 20270 30058 40060 70166 85631 333 20250 59002 70506 81708 83616==
41950,2023,09,20,06,00,AAXX 20064 41950 01340 80000 10262 20260 30058 40061 79562 8592/ 333 58002 70558 82708 84616 88458 81928==
41950,2023,09,20,09,00,AAXX 20094 41950 01350 80000 10274 20260 30037 40039 70262 8562/ 333 58001 70517 82708 84616 88458==
41950,2023,09,20,12,00,AAXX 20124 41950 01340 80000 10263 20260 30040 40043 76162 8572/ 333 10296 58002 70532 82708 84616 88458==
41950,2023,09,20,15,00,AAXX 20154 41950 01350 80000 10267 20267 30069 40072 70262 8562/ 333 58005 70536 82708 84616 88458==
41950,2023,09,20,18,00,AAXX 20184 41950 11350 80000 10272 20270 30069 40072 69946 70262 8562/ 333 58006 70344 82708 84616 88458==
41950,2023,09,20,21,00,AAXX 20214 41950 01350 80000 10267 20267 30059 40062 70262 8562/ 333 58017 70274 82708 84616 88458==
41950,2023,09,21,00,00,AAXX 21004 41950 11350 80000 10267 20267 30059 40062 60026 70262 8562/ 333 58014 70214 82708 84616 88458==
41950,2023,09,21,03,00,AAXX 21034 41950 02350 71202 10284 20260 30082 40085 84670 333 20259 58024 70170 81708 84616 86459==
41950,2023,09,21,06,00,AAXX 21064 41950 02450 71803 10320 20270 30074 40076 85431 333 58016 70078 84617==
41950,2023,09,21,09,00,AAXX 21094 41950 01335 80000 10280 20270 30052 40054 76122 8672/ 333 58015 70084 82708 85616 88458==
41950,2023,09,21,12,00,AAXX 21124 41950 21350 80000 10282 20270 30056 40058 70262 8562/ 333 10320 58016 60047 70064 87208 84616 88458==
41950,2023,09,21,15,00,AAXX 21154 41950 01350 80000 10280 20270 30080 40082 71762 8592/ 333 58011 70065 82708 84616 88458 81928==
41950,2023,09,21,18,00,AAXX 21184 41950 01350 80000 10270 20260 30073 40075 72196 8562/ 333 58004 70073 82708 84616 88458==
41950,2023,09,21,21,00,AAXX 21214 41950 02350 80000 10270 20260 30067 40069 8562/ 333 58008 70053 82708 84616 88458==
41951,2023,09,15,00,00,AAXX 15004 41951 21330 81302 10265 20265 30048 40053 76166 8672/ 333 58025 60027 70097 82706 84616 88458==
41951,2023,09,15,03,00,AAXX 15034 41951 02456 61303 10295 20280 30065 40070 83510 333 20255 58028 70061 83618 85459==
41951,2023,09,15,06,00,AAXX 15064 41951 01456 60000 10302 20280 30064 40069 72162 83510 333 58021 70006 83618 85459==
41951,2023,09,15,09,00,AAXX 15094 41951 01456 61302 10323 20270 30043 40048 70262 83510 333 58020 70044 83618 85459==
41951,2023,09,15,12,00,AAXX 15124 41951 21456 50000 10300 20270 30030 40035 70162 82510 333 10327 58009 69945 70028 82618 84459==
41951,2023,09,15,15,00,AAXX 15154 41951 02450 30000 10283 20270 30059 40063 83500 333 58008 70028 83618==
41951,2023,09,15,18,00,AAXX 15184 41951 02950 00000 10278 20278 30065 40069 333 58012 70028==
41951,2023,09,15,21,00,AAXX 15214 41951 01450 30000 10274 20270 30059 40063 70500 83500 333 58009 70028 83618==
41951,2023,09,16,00,00,AAXX 16004 41951 01450 60000 10269 20269 30052 40056 70520 83510 333 58004 70010 83618 85459==
41951,2023,09,16,03,00,AAXX 16034 41951 01340 81302 10294 20280 30067 40071 70362 8562/ 333 20264 58002 70020 81708 84618 88458==
41951,2023,09,16,06,00,AAXX 16064 41951 21456 61302 10327 20270 30056 40061 70162 83510 333 59008 60018 70014 83618 85459==
41951,2023,09,16,09,00,AAXX 16094 41951 02456 61303 10342 20260 30029 40034 83510 333 59014 70010 83618 85459==
41951,2023,09,16,12,00,AAXX 16124 41951 02956 00000 10316 20270 30018 40023 333 10344 59012 70010==
41951,2023,09,16,15,00,AAXX 16154 41951 02950 00000 10290 20280 30049 40054 333 59010 70010==
41951,2023,09,16,18,00,AAXX 16184 41951 02950 00000 10282 20270 30047 40052 333 59018 70010==
41951,2023,09,16,21,00,AAXX 16214 41951 01950 00000 10278 20278 30043 40048 70500 333 59016 70010==
41951,2023,09,17,00,00,AAXX 17004 41951 01450 60000 10278 20278 30033 40037 70520 83510 333 59019 70010 83618 85459==
41951,2023,09,17,03,00,AAXX 17034 41951 02456 61302 10325 20280 30041 40046 83510 333 20270 59026 70000 83618 85459==
41951,2023,09,17,06,00,AAXX 17064 41951 02456 61303 10352 20270 30029 40034 83500 333 59027 70000 83618==
41951,2023,09,17,09,00,AAXX 17094 41951 02456 32403 10358 20280 30002 40006 83500 333 59027 70000 83618==
41951,2023,09,17,12,00,AAXX 17124 41951 02456 60000 10326 20290 30994 49998 83510 333 10360 59024 70000 83618 85459==
41951,2023,09,17,15,00,AAXX 17154 41951 01330 80202 10262 20250 30031 40036 79592 8692/ 333 59018 70254 82706 84616 88458 82925==
41951,2023,09,17,18,00,AAXX 17184 41951 21330 80000 10260 20250 30033 40038 76196 8672/ 333 59014 60287 70276 82706 84616 88458==
41951,2023,09,17,21,00,AAXX 17214 41951 01330 80000 10259 20259 30032 40037 76162 8672/ 333 59011 70282 82706 84616 88458==
41951,2023,09,18,00,00,AAXX 18004 41951 01330 80000 10258 20258 30031 40035 76462 8672/ 333 59002 70441 82706 84616 88458==
41951,2023,09,18,03,00,AAXX 18034 41951 01330 80000 10265 20265 30043 40047 76366 8672/ 333 20255 58002 70578 82706 84616 88458==
41951,2023,09,18,06,00,AAXX 18064 41951 21340 81302 10300 20280 30034 40039 70266 8562/ 333 58005 60159 70594 81708 84618 88458==
41951,2023,09,18,09,00,AAXX 18094 41951 02456 61303 10318 20270 30011 40016 83510 333 58009 70594 83618 85459==
41951,2023,09,18,12,00,AAXX 18124 41951 02440 70000 10283 20260 30014 40019 83510 333 10320 58020 70594 83618 86459==
41951,2023,09,18,15,00,AAXX 18154 41951 01330 81502 10268 20260 30046 40051 76062 8672/ 333 58015 70436 82706 84616 88458==
41951,2023,09,18,18,00,AAXX 18184 41951 01330 80000 10266 20260 30044 40048 76062 8672/ 333 58011 70506 82706 84616 88458==
41951,2023,09,18,21,00,AAXX 18214 41951 01340 80000 10265 20260 30039 40043 70262 8662/ 333 58007 70507 82706 84616 88458==
41951,2023,09,19,00,00,AAXX 19004 41951 01340 80000 10268 20268 30035 40039 70262 8662/ 333 58004 70395 82706 84616 88458==
41951,2023,09,19,03,00,AAXX 19034 41951 02440 71303 10295 20270 30051 40056 84610 333 20260 58008 70258 81708 83616 86458==
41951,2023,09,19,06,00,AAXX 19064 41951 01456 61304 10310 20270 30051 40056 72162 83510 333 58017 70010 83618 85459==
41951,2023,09,19,09,00,AAXX 19094 41951 01330 81202 10290 20270 30033 40037 76122 8672/ 333 58022 70257 82706 84616 88458==
41951,2023,09,19,12,00,AAXX 19124 41951 21340 71303 10292 20260 30032 40036 70162 84610 333 10317 58018 69935 70257 81708 83618 86458==
41951,2023,09,19,15,00,AAXX 19154 41951 01340 81504 10278 20270 30065 40069 70366 8562/ 333 58019 70220 81708 84618 88458==
41951,2023,09,19,18,00,AAXX 19184 41951 01340 81307 10282 20260 30061 40065 72162 8562/ 333 58017 70172 81708 84618 88458==
41951,2023,09,19,21,00,AAXX 19214 41951 01330 81305 10280 20270 30043 40047 76122 8672/ 333 58004 70190 82706 84616 88458==
41951,2023,09,20,00,00,AAXX 20004 41951 21340 81306 10275 20270 30038 40043 72166 8662/ 333 58003 60167 70273 82706 84616 88458==
41951,2023,09,20,03,00,AAXX 20034 41951 01340 71306 10298 20280 30054 40059 70162 84610 333 20265 58003 70285 81708 83616 86458==
41951,2023,09,20,06,00,AAXX 20064 41951 01340 81203 10273 20260 30062 40067 72162 8562/ 333 58011 70285 81708 84618 88458==
41951,2023,09,20,09,00,AAXX 20094 41951 01340 81202 10274 20260 30036 40041 72166 8562/ 333 58015 70305 81708 84618 88458==
41951,2023,09,20,12,00,AAXX 20124 41951 21340 80000 10280 20260 30034 40039 70262 8562/ 333 10305 58002 60028 70305 81708 84618 88458==
41951,2023,09,20,15,00,AAXX 20154 41951 01340 81202 10278 20278 30068 40073 70262 8562/ 333 58003 70280 81708 84618 88458==
41951,2023,09,20,18,00,AAXX 20184 41951 11340 81502 10280 20270 30068 40073 60046 70262 8562/ 333 58007 70240 81708 84618 88458==
41951,2023,09,20,21,00,AAXX 20214 41951 02340 80000 10275 20270 30060 40065 8562/ 333 58017 70207 81708 84618 88458==
41951,2023,09,21,00,00,AAXX 21004 41951 21340 80000 10270 20270 30057 40062 70262 8562/ 333 58019 60015 70077 81708 84618 88458==
41951,2023,09,21,03,00,AAXX 21034 41951 02340 81302 10294 20270 30079 40084 8562/ 333 20265 58025 70073 81708 84618 88458==
41951,2023,09,21,06,00,AAXX 21064 41951 02456 61508 10316 20280 30078 40083 83510 333 58016 70074 83618 85459==
41951,2023,09,21,09,00,AAXX 21094 41951 01340 81502 10282 20270 30050 40055 70396 8562/ 333 58014 70053 81708 84618 88458==
41951,2023,09,21,12,00,AAXX 21124 41951 21340 81402 10278 20270 30049 40054 70296 8562/ 333 10323 58015 60018 70063 81708 84618 88458==
41951,2023,09,21,15,00,AAXX 21154 41951 01330 80000 10272 20270 30082 40087 76322 8672/ 333 58014 70053 82706 84616 88458==
41951,2023,09,21,18,00,AAXX 21184 41951 21340 81202 10278 20270 30076 40081 70262 8562/ 333 58008 60035 70053 81708 84618 88458==
41951,2023,09,21,21,00,AAXX 21214 41951 02340 81302 10274 20260 30070 40075 8562/ 333 58010 70053 81708 84618 88458==
41953,2023,09,15,00,00,AAXX 15004 41953 02440 81303 10270 20260 30061 40066 8352/ 333 58029 70000 83616 88458==
41953,2023,09,15,03,00,AAXX 15034 41953 02450 61303 10310 20250 30078 40083 83520 333 20270 58025 70000 83616 86458==
41953,2023,09,15,06,00,AAXX 15064 41953 02450 61303 10330 20280 30069 40074 84420 333 58020 70000 83616 86458==
41953,2023,09,15,09,00,AAXX 15094 41953 02450 41303 10330 20250 30050 40055 84400 333 58022 70000 82616 83825==
41953,2023,09,15,12,00,AAXX 15124 41953 02450 50000 10300 20270 30039 40044 84430 333 10335 58006 70000 83616 85362==
41953,2023,09,15,15,00,AAXX 15154 41953 02440 50000 10282 20270 30061 40066 82520 333 58006 70000 82616 85458==
41953,2023,09,15,18,00,AAXX 15184 41953 02440 50000 10280 20270 30071 40076 82520 333 58010 70000 82616 85458==
41953,2023,09,15,21,00,AAXX 15214 41953 02440 50000 10277 20270 30065 40070 82520 333 58010 70000 82616 85458==
41953,2023,09,16,00,00,AAXX 16004 41953 02440 80000 10280 20270 30058 40063 8352/ 333 59003 70000 83616 88458==
41953,2023,09,16,03,00,AAXX 16034 41953 02450 60000 10310 20290 30073 40078 83520 333 20275 59005 70000 83616 86458==
41953,2023,09,16,06,00,AAXX 16064 41953 02450 40000 10338 20270 30060 40065 84400 333 59009 70000 83618==
41953,2023,09,16,09,00,AAXX 16094 41953 02450 31303 10335 20270 30031 40036 83400 333 59019 70000 82618==
41953,2023,09,16,12,00,AAXX 16124 41953 02450 20000 10310 20280 30024 40029 82500 333 10341 59015 70000 83618==
41953,2023,09,16,15,00,AAXX 16154 41953 02440 20000 10300 20280 30048 40053 82500 333 59013 70000 82618==
41953,2023,09,16,18,00,AAXX 16184 41953 02440 20000 10294 20280 30051 40056 82500 333 59020 70000 82618==
41953,2023,09,16,21,00,AAXX 16214 41953 02440 60000 10290 20280 30057 40062 82520 333 59008 70000 82616 85458==
41953,2023,09,17,00,00,AAXX 17004 41953 02450 60000 10286 20280 30039 40044 82520 333 59019 70000 82616 85458==
41953,2023,09,17,03,00,AAXX 17034 41953 02450 62305 10326 20270 30047 40052 83520 333 20285 59026 70000 83616 85458==
41953,2023,09,17,06,00,AAXX 17064 41953 02450 63102 10345 20280 30031 40036 84410 333 59029 70000 83616 84458==
41953,2023,09,17,09,00,AAXX 17094 41953 02450 43501 10356 20280 39996 40001 84400 333 59035 70000 83618==
41953,2023,09,17,12,00,AAXX 17124 41953 01420 81304 10265 20260 30019 40024 76322 8452/ 333 10358 59005 70130 84614 88456==
41953,2023,09,17,15,00,AAXX 17154 41953 01420 80000 10256 20250 30036 40041 79596 8632/ 333 59012 70240 85614 88456 81930==
41953,2023,09,17,18,00,AAXX 17184 41953 21420 80000 10252 20240 30039 40044 76196 8452/ 333 59013 60168 70290 84615 88458==
41953,2023,09,17,21,00,AAXX 17214 41953 01420 80000 10252 20252 30035 40040 76166 8452/ 333 59022 70370 84615 88457==
41953,2023,09,18,00,00,AAXX 18004 41953 21440 81302 10258 20258 30031 40036 76166 8452/ 333 59008 60159 70440 84614 88457==
41953,2023,09,18,03,00,AAXX 18034 41953 01440 80000 10266 20266 30053 40058 76166 8452/ 333 20250 58006 70490 84614 88456==
41953,2023,09,18,06,00,AAXX 18064 41953 21450 80509 10300 20290 30040 40045 70266 8452/ 333 58009 60088 70520 84616 88458==
41953,2023,09,18,09,00,AAXX 18094 41953 02450 61305 10310 20260 30018 40023 83470 333 58022 70520 83616 84458==
41953,2023,09,18,12,00,AAXX 18124 41953 02450 61303 10292 20270 30026 40031 83470 333 10314 58007 70520 82616 84458==
41953,2023,09,18,15,00,AAXX 18154 41953 02430 81308 10286 20280 30050 40055 8352/ 333 58014 70280 83616 88458==
41953,2023,09,18,18,00,AAXX 18184 41953 01420 81308 10264 20260 30054 40059 76166 8452/ 333 58015 70070 84614 88458==
41953,2023,09,18,21,00,AAXX 18214 41953 01420 80504 10262 20260 30056 40061 76166 8452/ 333 58021 70300 84614 88458==
41953,2023,09,19,00,00,AAXX 19004 41953 21440 80505 10260 20260 30048 40053 76166 8452/ 333 58017 60139 70280 84614 88458==
41953,2023,09,19,03,00,AAXX 19034 41953 01450 81304 10286 20270 30066 40071 70262 8352/ 333 20258 58013 70250 83616 88458==
41953,2023,09,19,06,00,AAXX 19064 41953 11450 71805 10312 20260 30062 40067 60026 70162 83510 333 58022 70220 83616 86458==
41953,2023,09,19,09,00,AAXX 19094 41953 01450 81802 10292 20260 30040 40045 76122 8352/ 333 58022 70240 83616 88458==
41953,2023,09,19,12,00,AAXX 19124 41953 21440 70000 10284 20260 30046 40051 70162 83510 333 10315 58020 60025 70240 83616 86458==
41953,2023,09,19,15,00,AAXX 19154 41953 02430 61308 10282 20240 30074 40079 83510 333 58024 70240 83616 84458==
41953,2023,09,19,18,00,AAXX 19184 41953 02430 61304 10280 20260 30075 40080 83510 333 58021 70170 83616 84458==
41953,2023,09,19,21,00,AAXX 19214 41953 02430 81304 10272 20260 30071 40076 8352/ 333 58015 70090 83616 88458==
41953,2023,09,20,00,00,AAXX 20004 41953 01440 81303 10266 20260 30057 40062 76122 8452/ 333 58009 70020 84616 88458==
41953,2023,09,20,03,00,AAXX 20034 41953 01440 80000 10270 20260 30071 40076 76166 8452/ 333 20262 58005 70130 84615 88458==
41953,2023,09,20,06,00,AAXX 20064 41953 21440 81808 10265 20265 30072 40077 76396 8452/ 333 58010 60389 70510 84614 88457==
41953,2023,09,20,09,00,AAXX 20094 41953 01440 81306 10285 20280 30044 40049 70266 8452/ 333 58004 70530 84615 88458==
41953,2023,09,20,12,00,AAXX 20124 41953 21440 80000 10270 20260 30046 40051 70262 8352/ 333 10286 58000 60047 70530 83616 88458==
41953,2023,09,20,15,00,AAXX 20154 41953 02430 81306 10266 20260 30080 40085 8352/ 333 58006 70530 83616 88458==
41953,2023,09,20,18,00,AAXX 20184 41953 01420 81805 10265 20265 30078 40083 76196 8452/ 333 58003 70090 84614 88458==
41953,2023,09,20,21,00,AAXX 20214 41953 01420 81306 10266 20266 30076 40081 70262 8452/ 333 58005 70680 84615 88458==
41953,2023,09,21,00,00,AAXX 21004 41953 11440 81308 10265 20265 30074 40079 60066 70262 8632/ 333 58017 70660 84615 88458 81925==
41953,2023,09,21,03,00,AAXX 21034 41953 01450 81306 10316 20270 30091 40096 70262 8352/ 333 20260 58020 70640 84616 88458==
41953,2023,09,21,06,00,AAXX 21064 41953 12450 81302 10306 20270 30085 40090 60076 8352/ 333 58013 70260 83616 88458==
41953,2023,09,21,09,00,AAXX 21094 41953 01440 81303 10250 20250 30059 40064 79596 8632/ 333 58015 70680 84614 88456 81925==
41953,2023,09,21,12,00,AAXX 21124 41953 21430 80000 10266 20260 30067 40072 70296 8352/ 333 10317 58021 60498 70710 83616 88458==
41953,2023,09,21,15,00,AAXX 21154 41953 01430 81303 10265 20260 30088 40093 71722 8632/ 333 58010 70710 84616 88458 81930==
41953,2023,09,21,18,00,AAXX 21184 41953 21430 81302 10260 20250 30086 40091 70296 8452/ 333 58008 60025 70640 84616 88458==
41953,2023,09,21,21,00,AAXX 21214 41953 02430 60000 10258 20250 30083 40088 83510 333 58007 70580 83616 85458==
41955,2023,09,15,00,00,AAXX 15004 41955 NIL=
41955,2023,09,15,12,00,AAXX 15124 41955 NIL=
41955,2023,09,15,18,00,AAXX 15184 41955 NIL=
41955,2023,09,16,00,00,AAXX 16004 41955 NIL=
41955,2023,09,16,06,00,AAXX 16064 41955 NIL=
41955,2023,09,16,12,00,AAXX 16124 41955 NIL=
41955,2023,09,17,06,00,AAXX 17064 41955 NIL=
41955,2023,09,17,12,00,AAXX 17124 41955 NIL=
41955,2023,09,17,18,00,AAXX 17184 41955 NIL=
41955,2023,09,18,06,00,AAXX 18064 41955 NIL=
41955,2023,09,18,12,00,AAXX 18124 41955 NIL=
41955,2023,09,18,18,00,AAXX 18184 41955 NIL=
41955,2023,09,19,06,00,AAXX 19064 41955 NIL=
41955,2023,09,19,12,00,AAXX 19124 41955 NIL=
41955,2023,09,19,18,00,AAXX 19184 41955 NIL=
41955,2023,09,20,06,00,AAXX 20064 41955 NIL=
41955,2023,09,21,00,00,AAXX 21004 41955 NIL=
41955,2023,09,21,06,00,AAXX 21064 41955 NIL=
41955,2023,09,21,18,00,AAXX 21184 41955 NIL=
41958,2023,09,15,00,00,AAXX 15004 41958 11450 81601 10274 20260 30036 40038 69944 70262 8532/ 333 56499 58039 70222 84616 81930 88459=
41958,2023,09,15,03,00,AAXX 15034 41958 32457 81601 10318 20260 30054 40056 85410 333 20267 56390 58035 70200 84616 86459=
41958,2023,09,15,06,00,AAXX 15064 41958 11457 80000 10315 20280 30054 40056 60057 76162 8532/ 333 56399 58032 70214 84616 81930 88459=
41958,2023,09,15,09,00,AAXX 15094 41958 21456 81601 10285 20280 30036 40038 76166 8532/ 333 56499 58029 6010/ 70232 84616 81930 88459=
41958,2023,09,15,12,00,AAXX 15124 41958 11450 80000 10285 20280 30025 40027 60118 70266 8542/ 333 10319 56499 58018 70160 84616 88459=
41958,2023,09,15,15,00,AAXX 15154 41958 32440 80000 10285 20270 30035 40037 8542/ 333 56499 58010 70160 84616 88459=
41958,2023,09,15,18,00,AAXX 15184 41958 32430 81601 10274 20270 30039 40041 8542/ 333 56499 58010 70160 84616 88459=
41958,2023,09,15,21,00,AAXX 15214 41958 32430 60000 10276 20270 30038 40040 85410 333 56990 58005 70160 84616 86459=
41958,2023,09,16,00,00,AAXX 16004 41958 32450 50000 10275 20275 30041 40043 85400 333 56900 58005 70156 84617=
41958,2023,09,16,03,00,AAXX 16034 41958 32457 50000 10325 20290 30058 40060 85400 333 20270 56900 58004 70156 84617=
41958,2023,09,16,06,00,AAXX 16064 41958 32458 40000 10338 20280 30044 40046 84400 333 56300 59010 70108 83617=
41958,2023,09,16,09,00,AAXX 16094 41958 32458 40000 10350 20270 30028 40030 84400 333 56300 59008 70008 83617=
41958,2023,09,16,12,00,AAXX 16124 41958 32456 20000 10302 20270 30019 40021 82500 333 10351 56900 59006 70000 82617=
41958,2023,09,16,15,00,AAXX 16154 41958 32950 00000 10293 20270 30031 40033 333 59004 70000=
41958,2023,09,16,18,00,AAXX 16184 41958 32440 40000 10286 20270 30038 40040 84400 333 56900 59001 70000 83617=
41958,2023,09,16,21,00,AAXX 16214 41958 32940 00000 10277 20277 30029 40031 333 59009 70000=
41958,2023,09,17,00,00,AAXX 17004 41958 32950 00000 10270 20270 30031 40033 333 59010 70000=
41958,2023,09,17,06,00,AAXX 17064 41958 32457 30000 10340 20260 30030 40032 83500 333 56900 59014 70000 83616=
41958,2023,09,17,09,00,AAXX 17094 41958 32457 30000 10355 20280 39995 49997 83500 333 56900 59033 70000 83616=
41958,2023,09,17,12,00,AAXX 17124 41958 32450 30000 10324 20280 39993 49995 83500 333 10358 56900 59026 70000 83616=
41958,2023,09,17,15,00,AAXX 17154 41958 32450 32201 10294 20270 30020 40022 83500 333 56500 59011 70000 83616=
41958,2023,09,17,18,00,AAXX 17184 41958 32440 30000 10290 20280 30016 40018 83500 333 56900 59022 70000 83616=
41958,2023,09,17,21,00,AAXX 17214 41958 32440 60000 10284 20270 30022 40024 83410 333 56990 59007 70000 83616 85459=
41958,2023,09,18,00,00,AAXX 18004 41958 31430 80000 10250 20250 30020 40022 60564 79396 8592/ 333 56999 59011 70560 84616 81930 88458=
41958,2023,09,18,03,00,AAXX 18034 41958 21430 80000 10260 20260 30038 40040 76166 8542/ 333 20245 56999 59003 6005/ 70610 84616 88458=
41958,2023,09,18,06,00,AAXX 18064 41958 11456 62201 10307 20270 30028 40030 60056 70162 83410 333 56590 59002 70610 83616 85459=
41958,2023,09,18,09,00,AAXX 18094 41958 32456 60000 10318 20270 30007 40009 83410 333 56990 58012 70610 83616 85459=
41958,2023,09,18,12,00,AAXX 18124 41958 11450 80000 10274 20270 30010 40012 60065 70362 8542/ 333 10318 56999 58017 70670 84616 88458=
41958,2023,09,18,15,00,AAXX 18154 41958 21430 80000 10266 20266 30033 40035 76162 8542/ 333 56999 58013 6006/ 70730 84616 88458=
41958,2023,09,18,18,00,AAXX 18184 41958 11440 80000 10262 20260 30033 40035 60103 70262 8542/ 333 56999 58017 70770 84616 88458=
41958,2023,09,18,21,00,AAXX 18214 41958 32440 80801 10264 20260 30032 40034 8542/ 333 56299 58010 70770 84616 88458=
41958,2023,09,19,00,00,AAXX 19004 41958 32440 80801 10266 20266 30029 40031 8452/ 333 56299 58009 70210 84616 88458=
41958,2023,09,19,03,00,AAXX 19034 41958 32456 60802 10302 20260 30047 40049 83510 333 20254 56290 58009 70160 83616 85459=
41958,2023,09,19,06,00,AAXX 19064 41958 32456 60802 10322 20280 30038 40040 83510 333 56290 58010 70160 83616 88458=
41958,2023,09,19,09,00,AAXX 19094 41958 21430 80801 10278 20270 30033 40035 76362 8542/ 333 56299 58026 6008/ 70240 84616 88458=
41958,2023,09,19,12,00,AAXX 19124 41958 11450 60801 10276 20270 30021 40023 60095 70162 83410 333 10322 56290 58011 70190 83616 85459=
41958,2023,09,19,18,00,AAXX 19184 41958 NIL=
41958,2023,09,19,21,00,AAXX 19214 41958 21430 80801 10266 20266 30022 40024 76166 85428 333 56299 59010 6002/ 70140 84616 88458=
41958,2023,09,20,00,00,AAXX 20004 41958 11430 80802 10266 20266 30014 40016 60049 76166 8542/ 333 56299 59015 70160 84616 88458=
41958,2023,09,20,03,00,AAXX 20034 41958 32450 81701 10287 20280 30036 40038 8542/ 333 20260 56499 59011 70160 84616 88458=
41958,2023,09,20,06,00,AAXX 20064 41958 11430 80000 10298 20290 30037 40039 69984 76122 8542/ 333 56999 59001 70168 84616 88458=
41958,2023,09,20,09,00,AAXX 20094 41958 21430 80000 10292 20270 30021 40023 76162 8542/ 333 56999 59012 6009/ 70178 84616 88458=
41958,2023,09,20,12,00,AAXX 20124 41958 11450 81701 10290 20280 30023 40025 60095 70262 8542/ 333 10300 56499 58002 70172 84616 88458=
41958,2023,09,20,15,00,AAXX 20154 41958 32450 81702 10280 20270 30050 40052 8542/ 333 56499 58000 70172 84616 88458=
41958,2023,09,20,18,00,AAXX 20184 41958 32440 81701 10278 20270 30050 40052 8542/ 333 56499 58017 70142 84616 88458=
41958,2023,09,21,00,00,AAXX 21004 41958 32450 61701 10274 20260 30044 40046 83410 333 56490 58030 70102 83616 85459=
41958,2023,09,21,03,00,AAXX 21034 41958 32456 61702 10305 20280 30063 40065 83410 333 20269 56490 58016 70102 83616 85459=
41958,2023,09,21,06,00,AAXX 21064 41958 11430 80000 10272 20270 30064 40066 60086 76362 8542/ 333 56999 58026 70182 84616 88458=
41958,2023,09,21,09,00,AAXX 21094 41958 21430 81701 10282 20270 30044 40046 76166 8542/ 333 56499 58011 70147 84616 88458=
41958,2023,09,21,12,00,AAXX 21124 41958 11440 82201 10282 20280 30040 40042 60065 70262 8542/ 333 10324 56599 58019 70147 84616 88458=
41958,2023,09,21,15,00,AAXX 21154 41958 32440 81301 10278 20278 30064 40066 8542/ 333 56399 58014 70147 84616 88458=
41958,2023,09,21,18,00,AAXX 21184 41958 32440 81301 10276 20276 30060 40062 8542/ 333 56399 58027 70117 84616 88458=
41958,2023,09,21,21,00,AAXX 21214 41958 32440 61701 10274 20270 30057 40059 83410 333 56490 58005 70125 83616 85459=
41960,2023,09,15,00,00,AAXX 15004 41960 21420 80000 10268 20268 30054 40056 76166 8542/ 333 58033 60079 70386 83618 88459==
41960,2023,09,15,03,00,AAXX 15034 41960 01440 80000 10290 20280 30073 40074 72166 8542/ 333 20261 58035 70362 84618 88459==
41960,2023,09,15,06,00,AAXX 15064 41960 21456 70000 10318 20280 30065 40066 70162 85410 333 58023 60018 70260 84617 87459==
41960,2023,09,15,09,00,AAXX 15094 41960 01450 40000 10305 20270 30049 40051 70162 84349 333 58025 70224 82618 81930==
41960,2023,09,15,12,00,AAXX 15124 41960 11450 41801 10298 20270 30037 40039 69946 70262 84401 333 10321 58013 70220 83618==
41960,2023,09,15,15,00,AAXX 15154 41960 02930 00000 10283 20280 30063 40064 333 58012 70100==
41960,2023,09,15,18,00,AAXX 15184 41960 02930 00000 10277 20277 30066 40067 333 58013 70090==
41960,2023,09,15,21,00,AAXX 15214 41960 01440 30000 10277 20277 30062 40063 70500 83400 333 58012 70052 82618==
41960,2023,09,16,00,00,AAXX 16004 41960 01440 30000 10277 20277 30058 40059 70500 82530 333 58004 70016 82618 83364==
41960,2023,09,16,03,00,AAXX 16034 41960 02450 60000 10292 20280 30077 40078 83510 333 20270 58004 70004 83618 86459==
41960,2023,09,16,06,00,AAXX 16064 41960 02456 40000 10324 20270 30061 40063 84401 333 59004 70004 83618==
41960,2023,09,16,09,00,AAXX 16094 41960 02457 30000 10338 20270 30041 40043 83430 333 59008 70000 82618 83364==
41960,2023,09,16,12,00,AAXX 16124 41960 02450 30000 10310 20270 30030 40032 83401 333 10340 59007 70000 82618==
41960,2023,09,16,15,00,AAXX 16154 41960 02930 00000 10286 20280 30054 40056 333 59009 70000==
41960,2023,09,16,18,00,AAXX 16184 41960 02930 00000 10280 20280 30049 40051 333 59017 70000==
41960,2023,09,16,21,00,AAXX 16214 41960 01440 20000 10276 20276 30046 40047 70500 82400 333 59016 70000 81618==
41960,2023,09,17,00,00,AAXX 17004 41960 01440 20000 10270 20270 30043 40044 70500 82401 333 59015 70000 81618==
41960,2023,09,17,03,00,AAXX 17034 41960 02456 30000 10317 20260 30049 40051 83400 333 20268 59028 70000 83618==
41960,2023,09,17,06,00,AAXX 17064 41960 02450 50000 10344 20260 30032 40034 84410 333 59029 70000 83618 85459==
41960,2023,09,17,09,00,AAXX 17094 41960 02457 30000 10338 20270 30008 40010 83400 333 59033 70000 82618==
41960,2023,09,17,12,00,AAXX 17124 41960 02450 60000 10325 20290 30007 40009 84410 333 10355 59023 70000 83616 86459==
41960,2023,09,17,15,00,AAXX 17154 41960 01430 83002 10298 20280 30034 40036 71792 8692/ 333 59020 70000 84616 88459 82930==
41960,2023,09,17,18,00,AAXX 17184 41960 01430 80000 10290 20280 30035 40037 71392 8632/ 333 59014 70000 84617 88459 81930==
41960,2023,09,17,21,00,AAXX 17214 41960 01320 80000 10270 20270 30033 40034 79596 8692/ 333 59013 70021 82708 84615 88458 82928==
41960,2023,09,18,00,00,AAXX 18004 41960 21320 80000 10252 20252 30031 40033 79596 8692/ 333 59012 60099 70086 82708 84614 88458 82928==
41960,2023,09,18,03,00,AAXX 18034 41960 01320 80000 10255 20255 30053 40055 76196 8542/ 333 20255 58004 70226 84614 88458==
41960,2023,09,18,06,00,AAXX 18064 41960 21450 70000 10293 20270 30039 40041 70196 84410 333 58007 60158 70234 83618 87459==
41960,2023,09,18,09,00,AAXX 18094 41960 01440 71401 10300 20270 30015 40017 70262 86310 333 58007 70284 84616 83822 87459 81928==
41960,2023,09,18,12,00,AAXX 18124 41960 01440 80000 10270 20270 30023 40025 72162 8542/ 333 10304 58016 70398 84616 88459==
41960,2023,09,18,15,00,AAXX 18154 41960 01420 80000 10260 20260 30044 40045 76166 8542/ 333 58010 70530 84614 88459==
41960,2023,09,18,18,00,AAXX 18184 41960 21420 80000 10260 20260 30046 40047 76166 8542/ 333 58011 60249 70650 84614 88459==
41960,2023,09,18,21,00,AAXX 18214 41960 01420 80000 10260 20260 30047 40048 76166 8542/ 333 58014 70653 83616 88458==
41960,2023,09,19,00,00,AAXX 19004 41960 21420 80000 10260 20260 30043 40045 76166 8542/ 333 58012 60049 70604 83617 88458==
41960,2023,09,19,03,00,AAXX 19034 41960 01430 80000 10290 20280 30059 40060 76166 8542/ 333 20250 58006 70474 84616 88458==
41960,2023,09,19,06,00,AAXX 19064 41960 21330 81502 10278 20270 30055 40056 76166 8672/ 333 58016 60059 70506 82708 84616 88458==
41960,2023,09,19,09,00,AAXX 19094 41960 01440 61302 10278 20270 30039 40040 76166 85411 333 58024 70626 83617 86459==
41960,2023,09,19,12,00,AAXX 19124 41960 21440 60000 10284 20270 30035 40036 76166 85411 333 10313 58012 60199 70524 83617 86459==
41960,2023,09,19,15,00,AAXX 19154 41960 01420 80000 10261 20261 30068 40070 76122 8672/ 333 58024 70540 83708 83614 88458==
41960,2023,09,19,18,00,AAXX 19184 41960 21420 80000 10271 20270 30063 40065 76162 8542/ 333 58017 60167 70440 84616 88459==
41960,2023,09,19,21,00,AAXX 19214 41960 01320 81602 10270 20270 30055 40057 76166 8672/ 333 58008 70486 82709 84614 88458==
41960,2023,09,20,00,00,AAXX 20004 41960 21320 80000 10270 20270 30041 40043 76166 8672/ 333 59002 60169 70556 82709 84614 88458==
41960,2023,09,20,03,00,AAXX 20034 41960 01330 80000 10290 20280 30063 40064 76166 8672/ 333 20260 58004 70566 82708 84614 88458==
41960,2023,09,20,06,00,AAXX 20064 41960 21330 80000 10272 20260 30059 40061 72166 8542/ 333 58004 60089 70586 84618 88459==
41960,2023,09,20,09,00,AAXX 20094 41960 01320 82003 10270 20260 30043 40045 79596 8692/ 333 58004 70472 82709 84614 88458 82928==
41960,2023,09,20,12,00,AAXX 20124 41960 21440 80000 10270 20270 30040 40042 70096 8542/ 333 10292 58005 60149 70536 84616 88459==
41960,2023,09,20,15,00,AAXX 20154 41960 02430 80000 10266 20266 30068 40070 8542/ 333 58000 70396 84616 88459==
41960,2023,09,20,18,00,AAXX 20184 41960 02430 80000 10270 20260 30069 40071 8542/ 333 58006 70376 84616 88459==
41960,2023,09,20,21,00,AAXX 20214 41960 01320 80000 10270 20270 30068 40070 76122 8672/ 333 58013 70326 82709 84615 88458==
41960,2023,09,21,00,00,AAXX 21004 41960 21440 80000 10272 20272 30065 40067 70562 8442/ 333 58024 60037 70252 83617 88459==
41960,2023,09,21,03,00,AAXX 21034 41960 02456 70000 10298 20280 30084 40086 84410 333 20258 58021 70232 83618 87459==
41960,2023,09,21,06,00,AAXX 21064 41960 01456 71802 10284 20270 30081 40082 72122 84410 333 58022 70010 83617 87459==
41960,2023,09,21,09,00,AAXX 21094 41960 02450 81602 10302 20270 30055 40056 8632/ 333 58012 70128 84617 88459 81929==
41960,2023,09,21,12,00,AAXX 21124 41960 21450 80000 10288 20280 30056 40057 70262 8632/ 333 10318 58016 69987 70052 84617 88459 81929==
41960,2023,09,21,15,00,AAXX 21154 41960 01420 80000 10282 20280 30081 40082 76162 8532/ 333 58013 70062 84616 88459 81930==
41960,2023,09,21,18,00,AAXX 21184 41960 21420 70000 10280 20280 30078 40079 70162 84410 333 58009 60018 70062 83618 87459==
41960,2023,09,21,21,00,AAXX 21214 41960 02340 70000 10278 20278 30075 40076 85610 333 58007 70042 82709 83616 87459==
41963,2023,09,15,00,00,AAXX 15004 41963 01456 60000 10260 20250 30058 40061 72162 82540 333 58022 70020 82617 85362==
41963,2023,09,15,03,00,AAXX 15034 41963 02456 50000 10300 20280 30075 40078 83530 333 20255 58022 70130 83616 83363==
41963,2023,09,15,06,00,AAXX 15064 41963 02456 31303 10314 20270 30070 40073 83400 333 58026 70090 81618 83825==
41963,2023,09,15,09,00,AAXX 15094 41963 02456 31802 10318 20280 30053 40055 83400 333 58021 70080 81618 82825==
41963,2023,09,15,12,00,AAXX 15124 41963 02/56 30000 10295 20270 30042 40045 83060 333 10322 58005 70020 83363==
41963,2023,09,15,15,00,AAXX 15154 41963 02450 30000 10288 20260 30069 40072 83500 333 58012 70020 83617==
41963,2023,09,15,18,00,AAXX 15184 41963 02450 20000 10283 20270 30070 40073 82500 333 58017 70020 82618==
41963,2023,09,15,21,00,AAXX 15214 41963 02450 50000 10277 20270 30067 40070 83530 333 58015 70020 83617 83363==
41963,2023,09,16,00,00,AAXX 16004 41963 02456 61602 10270 20260 30066 40069 83570 333 58008 70000 83616 83459==
41963,2023,09,16,03,00,AAXX 16034 41963 01456 80000 10272 20260 30076 40079 70362 8351/ 333 20248 58001 70270 83616 88459==
41963,2023,09,16,06,00,AAXX 16064 41963 11556 40000 10315 20260 30059 40061 60276 70162 82160 333 59011 70270 82825 83364==
41963,2023,09,16,09,00,AAXX 16094 41963 02456 31602 10316 20270 30037 40039 83400 333 59016 70270 81618==
41963,2023,09,16,12,00,AAXX 16124 41963 02956 00000 10295 20260 30028 40030 333 10330 59014 70270==
41963,2023,09,16,15,00,AAXX 16154 41963 02950 00000 10284 20270 30054 40056 333 59015 70270==
41963,2023,09,16,18,00,AAXX 16184 41963 02950 00000 10277 20270 30049 40052 333 59021 70270==
41963,2023,09,16,21,00,AAXX 16214 41963 02950 00000 10274 20260 30046 40049 333 59021 70270==
41963,2023,09,17,00,00,AAXX 17004 41963 01930 00000 10273 20270 30038 40041 70500 333 59022 70270==
41963,2023,09,17,03,00,AAXX 17034 41963 02456 20000 10320 20270 30043 40045 82500 333 20270 59033 70000 82618==
41963,2023,09,17,06,00,AAXX 17064 41963 02456 20000 10338 20270 30027 40029 82500 333 59032 70000 82618==
41963,2023,09,17,09,00,AAXX 17094 41963 02456 31801 10343 20280 30008 40011 83400 333 59029 70000 82618==
41963,2023,09,17,12,00,AAXX 17124 41963 01456 60000 10300 20280 30010 40013 70362 82560 333 10345 59018 70050 82617 85362==
41963,2023,09,17,15,00,AAXX 17154 41963 02350 81402 10294 20280 30038 40041 8472/ 333 59016 70050 82712 83615 88458==
41963,2023,09,17,18,00,AAXX 17184 41963 NIL=
41963,2023,09,17,21,00,AAXX 17214 41963 01350 80000 10264 20264 30033 40036 72196 8472/ 333 59009 70460 82710 83615 88458==
41963,2023,09,18,00,00,AAXX 18004 41963 21256 80000 10260 20260 30031 40034 76166 8472/ 333 59007 60659 70760 82707 83612 88457==
41963,2023,09,18,03,00,AAXX 18034 41963 01456 70000 10280 20270 30048 40051 72162 83470 333 20252 58005 70830 82616 84459==
41963,2023,09,18,06,00,AAXX 18064 41963 11456 51204 10296 20260 30035 40038 60071 70162 82570 333 58008 70830 82616 83459==
41963,2023,09,18,09,00,AAXX 18094 41963 02456 51305 10284 20260 30021 40024 83440 333 58013 70840 82617 83363==
41963,2023,09,18,12,00,AAXX 18124 41963 21456 51302 10290 20260 30022 40025 70262 82560 333 10308 58012 60015 70790 82616 84362==
41963,2023,09,18,15,00,AAXX 18154 41963 01350 80000 10273 20250 30048 40051 70362 8472/ 333 58010 70830 82712 83614 88458==
41963,2023,09,18,18,00,AAXX 18184 41963 11350 80000 10272 20260 30052 40055 60046 70262 8472/ 333 58018 70770 82712 83614 88458==
41963,2023,09,18,21,00,AAXX 18214 41963 01350 80000 10266 20260 30049 40052 70262 8472/ 333 58016 70510 82712 83614 88458==
41963,2023,09,19,00,00,AAXX 19004 41963 01356 80000 10270 20260 30044 40047 70262 8472/ 333 58013 70240 82712 83615 88458==
41963,2023,09,19,03,00,AAXX 19034 41963 02456 61404 10293 20250 30063 40066 83470 333 20258 58015 70170 82616 83458==
41963,2023,09,19,06,00,AAXX 19064 41963 02456 41306 10308 20260 30056 40058 83430 333 58021 70170 82617 83363==
41963,2023,09,19,09,00,AAXX 19094 41963 02456 31305 10300 20260 30040 40043 83400 333 58019 70160 82618==
41963,2023,09,19,12,00,AAXX 19124 41963 02456 31807 10290 20260 30044 40047 83400 333 10307 58022 70160 81618 83825==
41963,2023,09,19,15,00,AAXX 19154 41963 02450 41807 10288 20260 30067 40070 83530 333 58019 70120 83617 83362==
41963,2023,09,19,18,00,AAXX 19184 41963 NIL=
41963,2023,09,20,06,00,AAXX 20064 41963 01356 81802 10280 20260 30066 40069 70262 8472/ 333 58010 70380 82710 83615 88458==
41963,2023,09,20,09,00,AAXX 20094 41963 01356 81303 10278 20270 30044 40047 76162 8472/ 333 58004 70390 82712 83615 88458==
41963,2023,09,20,12,00,AAXX 20124 41963 01356 81404 10270 20270 30051 40054 76062 8572/ 333 10290 58007 70450 82712 83615 88458==
41963,2023,09,20,15,00,AAXX 20154 41963 01250 81303 10274 20270 30078 40081 76166 8572/ 333 58011 70510 82710 83614 88458==
41963,2023,09,20,21,00,AAXX 20214 41963 01350 80000 10270 20270 30077 40080 70262 8472/ 333 58015 70420 82712 82615 88458==
41963,2023,09,21,00,00,AAXX 21004 41963 01456 50000 10270 20270 30067 40070 72162 83440 333 58010 70510 81618 83362==
41963,2023,09,21,03,00,AAXX 21034 41963 02456 71302 10290 20270 30090 40092 84470 333 20265 58022 70440 82617 85459==
41963,2023,09,21,06,00,AAXX 21064 41963 02456 61403 10300 20250 30082 40085 84470 333 58016 70250 82616 84459==
41963,2023,09,21,09,00,AAXX 21094 41963 01456 72105 10283 20270 30062 40065 70362 85470 333 58018 70250 83617 83459==
41963,2023,09,21,12,00,AAXX 21124 41963 01456 71803 10280 20270 30062 40065 70262 83570 333 10307 58011 70240 83617 85459==
41963,2023,09,21,15,00,AAXX 21154 41963 01350 80000 10280 20270 30088 40091 72122 8472/ 333 58010 70230 82712 83615 88458==
41963,2023,09,21,18,00,AAXX 21184 41963 NIL=
41963,2023,09,21,21,00,AAXX 21214 41963 01350 80000 10273 20270 30083 40086 71792 8432/ 333 58006 70250 82712 83615 88458==
41964,2023,09,15,00,00,AAXX 15004 41964 01340 81503 10265 20260 30054 40057 76122 8672/ 333 58029 70020 85708 85616 88457==
41964,2023,09,15,03,00,AAXX 15034 41964 01557 61406 10302 20270 30070 40073 70162 85402 333 20252 58021 70058 84625 83080==
41964,2023,09,15,06,00,AAXX 15064 41964 11558 61606 10320 20270 30066 40069 60026 70262 85430 333 58019 70054 83622 83825==
41964,2023,09,15,09,00,AAXX 15094 41964 02458 21503 10322 20285 30048 40051 82500 333 58021 70048 82618==
41964,2023,09,15,12,00,AAXX 15124 41964 02558 31502 10298 20270 30037 40039 82201 333 10326 58007 70042 82825==
41964,2023,09,15,15,00,AAXX 15154 41964 02557 21602 10286 20280 30060 40062 82100 333 58008 70042 82825==
41964,2023,09,15,18,00,AAXX 15184 41964 02557 40000 10283 20270 30063 40065 84400 333 58008 70042 83622==
41964,2023,09,15,21,00,AAXX 15214 41964 01357 80000 10280 20270 30058 40061 71322 8632/ 333 58005 70042 82709 84616 88460 81930==
41964,2023,09,16,00,00,AAXX 16004 41964 11335 81402 10276 20276 30055 40058 60032 76162 8772/ 333 58001 70052 85708 85614 88458==
41964,2023,09,16,03,00,AAXX 16034 41964 01457 50501 10324 20270 30063 40066 70162 82512 333 20259 59007 70145 82618 83460 83080==
41964,2023,09,16,06,00,AAXX 16064 41964 11558 61402 10336 20280 30054 40056 60126 70362 84432 333 59012 70145 83622 84080==
41964,2023,09,16,09,00,AAXX 16094 41964 02958 01501 10335 20270 30028 40030 333 59020 70145==
41964,2023,09,16,12,00,AAXX 16124 41964 02558 40000 10307 20280 30019 40021 81102 333 10341 59018 70145 81825 84080==
41964,2023,09,16,15,00,AAXX 16154 41964 02957 20000 10290 20270 30046 40048 80002 333 59014 70145 82080==
41964,2023,09,16,18,00,AAXX 16184 41964 02457 30000 10281 20281 30043 40045 83500 333 59020 70145 83618==
41964,2023,09,16,21,00,AAXX 16214 41964 02456 50000 10280 20280 30037 40039 83530 333 59021 70145 83617 83362==
41964,2023,09,17,00,00,AAXX 17004 41964 02456 50000 10280 20280 30031 40033 83530 333 59024 70115 83618 83362==
41964,2023,09,17,03,00,AAXX 17034 41964 02557 41401 10320 20280 30037 40039 84400 333 20274 59026 70000 83625==
41964,2023,09,17,06,00,AAXX 17064 41964 02558 43102 10336 20290 30020 40022 84430 333 59034 70000 82622 83825==
41964,2023,09,17,09,00,AAXX 17094 41964 02458 50000 10350 20270 30011 40013 83510 333 59017 70000 83618 84460==
41964,2023,09,17,12,00,AAXX 17124 41964 21458 70000 10297 20280 39996 49998 70396 8631/ 333 10356 59023 60105 70100 85617 87460 81928==
41964,2023,09,17,15,00,AAXX 17154 41964 01330 81203 10264 20264 30040 40043 79522 8732/ 333 59006 70220 85708 85614 88457 82928==
41964,2023,09,17,18,00,AAXX 17184 41964 21330 80000 10262 20262 30030 40033 79596 8732/ 333 59013 60267 70362 85708 85614 88457 81928==
41964,2023,09,17,21,00,AAXX 17214 41964 01330 80000 10260 20260 30026 40029 76396 8732/ 333 59011 70432 86708 85614 88457 81928==
41964,2023,09,18,00,00,AAXX 18004 41964 21335 81202 10263 20263 30021 40024 76196 8732/ 333 59010 60129 70482 86708 85614 88457 81928==
41964,2023,09,18,03,00,AAXX 18034 41964 01457 81202 10285 20270 30042 40045 70266 8732/ 333 20254 58005 70546 86615 88460 81930==
41964,2023,09,18,06,00,AAXX 18064 41964 11458 71403 10310 20260 30035 40038 60066 70162 8647/ 333 58015 70546 85618 85460==
41964,2023,09,18,09,00,AAXX 18094 41964 02458 71601 10320 20260 30025 40027 84510 333 58013 70546 84618 87460==
41964,2023,09,18,12,00,AAXX 18124 41964 02558 61602 10293 20260 30015 40017 82131 333 10321 58019 70446 82825 83362==
41964,2023,09,18,15,00,AAXX 18154 41964 02457 80000 10282 20250 30042 40044 8452/ 333 58002 70326 84618 88460==
41964,2023,09,18,18,00,AAXX 18184 41964 01335 81603 10269 20260 30048 40050 76322 8772/ 333 58018 70040 85708 85614 88457==
41964,2023,09,18,21,00,AAXX 18214 41964 01357 81402 10270 20260 30044 40047 70262 8662/ 333 58018 70200 82709 85615 88460==
41964,2023,09,19,00,00,AAXX 19004 41964 11357 81202 10268 20260 30040 40043 60056 70262 8632/ 333 58019 70150 82709 85616 88460 81930==
41964,2023,09,19,03,00,AAXX 19034 41964 02457 61406 10310 20260 30056 40059 84510 333 20257 58014 70086 84618 85460==
41964,2023,09,19,06,00,AAXX 19064 41964 02458 61604 10323 20260 30054 40056 85401 333 58019 70086 84618 83080==
41964,2023,09,19,09,00,AAXX 19094 41964 02458 31503 10312 20260 30034 40036 83500 333 58009 70086 83618==
41964,2023,09,19,12,00,AAXX 19124 41964 02558 61602 10294 20260 30037 40039 83432 333 10328 58022 70086 82622 85080==
41964,2023,09,19,15,00,AAXX 19154 41964 01357 81402 10271 20260 30065 40068 72162 8662/ 333 58023 70098 82709 85616 88460==
41964,2023,09,19,18,00,AAXX 19184 41964 01457 41505 10279 20250 30062 40065 70162 82510 333 58014 70060 82618 83460==
41964,2023,09,19,21,00,AAXX 19214 41964 02357 81203 10276 20260 30057 40060 8662/ 333 58013 70014 82709 85616 88460==
41964,2023,09,20,00,00,AAXX 20004 41964 01350 81204 10267 20260 30053 40056 76122 8772/ 333 58013 70004 85708 85614 88458==
41964,2023,09,20,03,00,AAXX 20034 41964 01345 81408 10274 20260 30067 40069 76166 8772/ 333 20258 58011 70078 85707 85614 88458==
41964,2023,09,20,06,00,AAXX 20064 41964 21345 81406 10275 20260 30075 40077 76166 8772/ 333 58021 60159 70128 85707 85614 88458==
41964,2023,09,20,09,00,AAXX 20094 41964 01350 81601 10275 20260 30040 40043 76166 8442/ 333 58006 70282 85707 85616 88460==
41964,2023,09,20,12,00,AAXX 20124 41964 01350 81404 10283 20260 30043 40046 70262 8662/ 333 10290 58006 70322 84709 84617 88459==
41964,2023,09,20,15,00,AAXX 20154 41964 01350 80000 10278 20260 30085 40087 71762 8662/ 333 58020 70328 84709 84618 88460==
41964,2023,09,20,18,00,AAXX 20184 41964 01350 81401 10275 20250 30085 40087 70296 8662/ 333 58023 70328 84709 84618 88460==
41964,2023,09,20,21,00,AAXX 20214 41964 01350 81404 10277 20270 30071 40073 70262 8662/ 333 58014 70333 84709 84617 88459==
41964,2023,09,21,00,00,AAXX 21004 41964 11356 81406 10280 20260 30061 40063 69956 70262 8662/ 333 58008 70329 84709 83617 88459==
41964,2023,09,21,03,00,AAXX 21034 41964 01340 81405 10279 20270 30094 40096 79522 8632/ 333 20259 58027 70294 85708 84616 88458 81928==
41964,2023,09,21,06,00,AAXX 21064 41964 21456 81403 10308 20270 30084 40086 70296 8452/ 333 58009 60048 70262 84618 88460==
41964,2023,09,21,09,00,AAXX 21094 41964 02457 21606 10301 20260 30056 40059 82500 333 58016 70108 82618==
41964,2023,09,21,12,00,AAXX 21124 41964 02456 71304 10285 20270 30059 40062 85610 333 10317 58016 70068 83710 83618 85460==
41964,2023,09,21,15,00,AAXX 21154 41964 02456 70000 10286 20270 30096 40098 85610 333 58011 70068 83710 83618 85482==
41964,2023,09,21,18,00,AAXX 21184 41964 02456 70000 10284 20270 30083 40085 85610 333 59002 70048 83710 83618 85460==
41964,2023,09,21,21,00,AAXX 21214 41964 02450 61403 10272 20260 30078 40080 83510 333 58007 70043 83618 85460==
41965,2023,09,15,00,00,AAXX 15004 41965 NIL=
41965,2023,09,15,03,00,AAXX 15034 41965 02450 50000 10300 20240 30076 40084 84409 333 20265 58032 70030 82618 83180==
41965,2023,09,15,06,00,AAXX 15064 41965 02450 50000 10330 20220 30069 40077 84409 333 58020 70030 82618 83180==
41965,2023,09,15,09,00,AAXX 15094 41965 02456 50000 10335 20240 30048 40056 84410 333 58014 70000 83618 84460==
41965,2023,09,15,12,00,AAXX 15124 41965 02450 50000 10300 20230 30040 40048 84410 333 10350 58007 70000 83618 84460==
41965,2023,09,15,18,00,AAXX 15184 41965 NIL=
41965,2023,09,16,00,00,AAXX 16004 41965 02450 50000 10270 20240 30060 40068 84410 333 59009 70000 82618 84460==
41965,2023,09,16,03,00,AAXX 16034 41965 02450 50000 10300 20240 30070 40078 84410 333 20265 59009 70000 82618 84460==
41965,2023,09,16,06,00,AAXX 16064 41965 02450 60000 10330 20220 30055 40063 84610 333 59014 70000 83618 86460==
41965,2023,09,16,09,00,AAXX 16094 41965 02456 50000 10335 20220 30029 40037 84410 333 59019 70000 83618 84460==
41965,2023,09,16,12,00,AAXX 16124 41965 02950 00000 10305 20240 30020 40028 333 10360 59020 70000==
41965,2023,09,17,00,00,AAXX 17004 41965 02950 00000 10280 20250 30032 40040 333 59030 70000==
41965,2023,09,17,03,00,AAXX 17034 41965 02950 00000 10280 20250 30032 40040 333 59020 70000==
41965,2023,09,17,06,00,AAXX 17064 41965 02456 50000 10335 20260 30028 40037 84410 333 59027 70000 83618 83360==
41965,2023,09,17,09,00,AAXX 17094 41965 02450 50000 10360 20240 39992 40001 84310 333 59037 70000 83618 88460 81928==
41965,2023,09,17,12,00,AAXX 17124 41965 01450 80000 10285 20230 30002 40010 79796 8431/ 333 10372 59018 70030 81710 83618 81428 88460==
41965,2023,09,17,18,00,AAXX 17184 41965 NIL=
41965,2023,09,18,00,00,AAXX 18004 41965 21430 80000 10260 20240 30032 40040 79796 8431/ 333 58000 60299 70740 81710 83618 84460 81928==
41965,2023,09,18,03,00,AAXX 18034 41965 02450 80000 10270 20220 30047 40055 8431/ 333 20255 58007 70740 83618 88460==
41965,2023,09,18,06,00,AAXX 18064 41965 02450 81401 10315 20230 30037 40046 8431/ 333 58009 70740 83618 88460==
41965,2023,09,18,09,00,AAXX 18094 41965 02456 61301 10325 20230 30012 40021 84310 333 58020 70740 83618 84460 81928==
41965,2023,09,18,12,00,AAXX 18124 41965 02430 61001 10290 20220 30017 40025 84310 333 10340 58015 70710 83618 84460 81928==
41965,2023,09,18,18,00,AAXX 18184 41965 NIL=
41965,2023,09,19,03,00,AAXX 19034 41965 02450 50000 10300 20220 30057 40065 84410 333 20260 58010 70000 82618 84460==
41965,2023,09,19,06,00,AAXX 19064 41965 02456 51402 10325 20230 30048 40057 84410 333 58011 70000 82618 84460==
41965,2023,09,19,09,00,AAXX 19094 41965 01450 81403 10320 20220 30034 40043 72162 8461/ 333 58022 70020 83618 88460==
41965,2023,09,19,12,00,AAXX 19124 41965 21450 80000 10285 20230 30042 40050 70262 8431/ 333 10340 58025 60025 70020 81710 83618 88460==
41965,2023,09,19,18,00,AAXX 19184 41965 NIL=
41965,2023,09,20,00,00,AAXX 20004 41965 02450 81402 10270 20240 30062 40070 84610 333 58018 70020 81710 83618 88460==
41965,2023,09,20,03,00,AAXX 20034 41965 02450 81802 10285 20220 30072 40080 8461/ 333 20263 58015 70020 81710 83618 88460==
41965,2023,09,20,06,00,AAXX 20064 41965 01440 80000 10285 20230 30067 40076 76162 8461/ 333 58019 70020 81710 83618 88456==
41965,2023,09,20,09,00,AAXX 20094 41965 01440 80000 10270 20220 30039 40048 76662 8461/ 333 58005 70100 81710 83618 88456==
41965,2023,09,20,12,00,AAXX 20124 41965 21440 81302 10275 20230 30046 40054 76166 8461/ 333 10300 58004 60159 70170 81710 83618 88456==
41965,2023,09,21,00,00,AAXX 21004 41965 02450 81402 10270 20240 30078 40086 8461/ 333 58016 70170 81710 83618 88460==
41965,2023,09,21,03,00,AAXX 21034 41965 02450 81403 10300 20230 30092 40100 8461/ 333 20260 58020 70170 81710 83618 88460==
41965,2023,09,21,06,00,AAXX 21064 41965 02456 51304 10335 20230 30083 40092 84430 333 58016 70150 82618 83362==
41965,2023,09,21,09,00,AAXX 21094 41965 02456 51304 10305 20220 30060 40069 84430 333 58021 70070 82618 83362==
41965,2023,09,21,12,00,AAXX 21124 41965 02450 51404 10285 20220 30063 40071 84440 333 10335 58017 70000 83618 84460==
41965,2023,09,21,18,00,AAXX 21184 41965 NIL=
41966,2023,09,15,00,00,AAXX 15004 41966 NIL=
41966,2023,09,15,03,00,AAXX 15034 41966 02450 60000 10310 20210 30011 40089 82510 333 20250 58028 70150 82616 85460==
41966,2023,09,15,06,00,AAXX 15064 41966 02450 61301 10330 20200 39999 40076 82510 333 58015 70142 82616 85460==
41966,2023,09,15,09,00,AAXX 15094 41966 02/50 32201 10338 20190 39970 40046 83030 333 59003 70006 83362==
41966,2023,09,15,12,00,AAXX 15124 41966 02440 40000 10290 20230 39973 40051 82510 333 10345 58000 70000 82616 83460==
41966,2023,09,15,15,00,AAXX 15154 41966 02430 40000 10280 20230 39978 40057 82510 333 58003 70000 82616 83460==
41966,2023,09,15,18,00,AAXX 15184 41966 NIL=
41966,2023,09,15,21,00,AAXX 15214 41966 02420 40000 10265 20240 39970 40048 82510 333 58002 70000 82616 83460==
41966,2023,09,16,00,00,AAXX 16004 41966 02440 40000 10265 20230 39981 40060 82510 333 59003 70000 82616 83460==
41966,2023,09,16,03,00,AAXX 16034 41966 02450 50000 10318 20240 30001 40079 82510 333 20260 59010 70000 82616 84460==
41966,2023,09,16,06,00,AAXX 16064 41966 02450 40000 10335 20180 39990 40067 82510 333 59009 70000 82616 83460==
41966,2023,09,16,09,00,AAXX 16094 41966 02450 41301 10350 20210 39960 40036 82510 333 59010 70000 82616 83460==
41966,2023,09,16,12,00,AAXX 16124 41966 02430 50000 10295 20250 39968 40045 82510 333 10355 59006 70000 82616 84460==
41966,2023,09,16,15,00,AAXX 16154 41966 02450 60000 10290 20230 39980 40059 82510 333 58002 70000 82616 85460==
41966,2023,09,16,18,00,AAXX 16184 41966 02420 60000 10280 20250 39980 40059 82510 333 58001 70000 82616 85460==
41966,2023,09,16,21,00,AAXX 16214 41966 02420 60000 10280 20250 39972 40050 82510 333 58002 70000 82616 85460==
41966,2023,09,17,00,00,AAXX 17004 41966 02440 50000 10275 20250 39982 40061 82510 333 58001 70000 82616 84460==
41966,2023,09,17,03,00,AAXX 17034 41966 02450 40000 10318 20240 39988 40065 82510 333 20270 59014 70000 82616 83460==
41966,2023,09,17,06,00,AAXX 17064 41966 02450 40000 10335 20210 39957 40034 82510 333 59033 70000 82616 83460==
41966,2023,09,17,09,00,AAXX 17094 41966 02/50 30901 10355 20230 39923 49999 83030 333 59037 70000 83362==
41966,2023,09,17,12,00,AAXX 17124 41966 02440 50801 10310 20260 39923 40000 82510 333 10357 59045 70000 82616 84460==
41966,2023,09,17,15,00,AAXX 17154 41966 01330 80000 10265 20240 39969 40048 79596 8492/ 333 59011 70136 82709 83615 88460 81930==
41966,2023,09,17,18,00,AAXX 17184 41966 NIL=
41966,2023,09,17,21,00,AAXX 17214 41966 01320 80000 10256 20250 39969 40048 79596 8492/ 333 59002 70256 82709 83615 88460 81930==
41966,2023,09,18,00,00,AAXX 18004 41966 21330 80000 10252 20230 39960 40039 79596 8492/ 333 59022 60179 70396 82709 83615 88460 81930==
41966,2023,09,18,03,00,AAXX 18034 41966 01450 70000 10285 20260 39983 40061 72196 83510 333 20245 59004 70544 83616 86460==
41966,2023,09,18,06,00,AAXX 18064 41966 21450 60000 10305 20210 39971 40049 70196 83510 333 58015 60158 70544 83616 85460==
41966,2023,09,18,09,00,AAXX 18094 41966 02450 60201 10310 20220 39951 40028 83510 333 58029 70544 83616 85460==
41966,2023,09,18,12,00,AAXX 18124 41966 02440 61201 10305 20260 39948 40025 83510 333 10320 58025 70544 83616 85460==
41966,2023,09,18,15,00,AAXX 18154 41966 01320 80000 10270 20250 39978 40057 76166 8472/ 333 59009 70318 82709 83615 88460==
41966,2023,09,18,18,00,AAXX 18184 41966 21420 60000 10266 20240 39984 40063 70166 83510 333 58010 60338 70653 83616 85460==
41966,2023,09,18,21,00,AAXX 18214 41966 02420 60000 10262 20230 39981 40060 83510 333 58012 70618 83616 85460==
41966,2023,09,19,00,00,AAXX 19004 41966 02440 60000 10260 20230 39974 40053 83510 333 58014 70478 83616 85460==
41966,2023,09,19,03,00,AAXX 19034 41966 02450 51501 10305 20210 39989 40066 82510 333 20252 58005 70330 82616 84460==
41966,2023,09,19,06,00,AAXX 19064 41966 02450 51801 10328 20190 39989 40066 82510 333 58017 70330 82616 84460==
41966,2023,09,19,09,00,AAXX 19094 41966 02450 51501 10328 20180 39976 40053 82510 333 58025 70330 82616 84460==
41966,2023,09,19,12,00,AAXX 19124 41966 02440 60000 10295 20210 39975 40053 83510 333 10335 58028 70330 83616 85460==
41966,2023,09,19,15,00,AAXX 19154 41966 02430 60000 10280 20230 39982 40061 83510 333 58004 70020 83616 85460==
41966,2023,09,19,18,00,AAXX 19184 41966 NIL=
41966,2023,09,19,21,00,AAXX 19214 41966 02420 50000 10265 20240 39984 40063 82510 333 58003 70000 82616 84460==
41966,2023,09,20,00,00,AAXX 20004 41966 02440 50901 10260 20230 39993 40072 82510 333 58019 70000 82616 84460==
41966,2023,09,20,03,00,AAXX 20034 41966 02450 51301 10310 20180 30007 40085 82510 333 20255 58016 70000 82616 84460==
41966,2023,09,20,06,00,AAXX 20064 41966 02450 50000 10310 20220 30006 40084 82510 333 58018 70000 82616 84460==
41966,2023,09,20,09,00,AAXX 20094 41966 02450 61201 10315 20230 39980 40058 83510 333 58005 70000 83616 85460==
41966,2023,09,20,12,00,AAXX 20124 41966 01330 80000 10260 20230 39983 40062 72122 8462/ 333 10318 58009 70040 82709 83615 88460==
41966,2023,09,20,15,00,AAXX 20154 41966 02420 70000 10260 20230 39990 40069 83510 333 58008 70040 83616 86460==
41966,2023,09,20,21,00,AAXX 20214 41966 02420 50000 10262 20230 39994 40073 82510 333 58010 70040 82616 84460==
41966,2023,09,21,00,00,AAXX 21004 41966 02440 50000 10260 20230 30008 40087 82510 333 58015 70040 82616 84460==
41966,2023,09,21,03,00,AAXX 21034 41966 02/50 30901 10300 20210 30022 40100 83030 333 20254 58015 70040 83362==
41966,2023,09,21,06,00,AAXX 21064 41966 02/50 31801 10320 20200 30014 40092 83030 333 58008 70040 83362==
41966,2023,09,21,09,00,AAXX 21094 41966 01450 70000 10280 20240 30001 40080 72122 83510 333 58022 70058 83616 86460==
41966,2023,09,21,12,00,AAXX 21124 41966 21440 60000 10275 20240 39998 40076 70162 83510 333 10325 58014 60025 70018 83616 85460==
41966,2023,09,21,15,00,AAXX 21154 41966 02430 60000 10270 20240 30002 40081 83510 333 58012 70018 83616 85460==
41966,2023,09,21,18,00,AAXX 21184 41966 NIL=
41966,2023,09,21,21,00,AAXX 21214 41966 02420 40000 10263 20230 30007 40086 82510 333 58013 70018 82616 83460==
41977,2023,09,15,00,00,AAXX 15004 41977 02450 80000 10272 20250 30048 40086 8662/ 333 58029 70014 82712 84615 88460==
41977,2023,09,15,03,00,AAXX 15034 41977 02456 71602 10315 20270 30068 40105 84570 333 20262 58021 70014 84617 85460==
41977,2023,09,15,06,00,AAXX 15064 41977 02456 61805 10335 20270 30056 40094 83570 333 58020 70014 83618 84460==
41977,2023,09,15,09,00,AAXX 15094 41977 02456 41806 10328 20270 30035 40072 82530 333 58017 70014 82618 83362==
41977,2023,09,15,12,00,AAXX 15124 41977 02456 53104 10302 20270 30027 40065 82531 333 10340 58002 70012 82618 84362==
41977,2023,09,15,15,00,AAXX 15154 41977 02456 51802 10292 20270 30047 40085 82530 333 58013 70000 82618 84362==
41977,2023,09,15,18,00,AAXX 15184 41977 42456 50000 10285 20280 30050 40088 58004 84362==
41977,2023,09,15,21,00,AAXX 15214 41977 02450 50000 10280 20270 30048 40085 82530 333 59001 70000 82618 84362==
41977,2023,09,16,00,00,AAXX 16004 41977 02450 50000 10277 20270 30044 40081 82530 333 59004 70000 82618 84362==
41977,2023,09,16,03,00,AAXX 16034 41977 02456 51803 10316 20270 30058 40096 82531 333 20274 59010 70000 82618 84362==
41977,2023,09,16,06,00,AAXX 16064 41977 02456 61804 10324 20250 30044 40081 83530 333 59012 70000 83618 85362==
41977,2023,09,16,12,00,AAXX 16124 41977 02456 20000 10305 20270 30006 40043 81530 333 10334 59021 70000 81618 82363==
41977,2023,09,16,15,00,AAXX 16154 41977 02456 20000 10295 20280 30033 40071 81530 333 59014 70000 81618 82362==
41977,2023,09,16,18,00,AAXX 16184 41977 02456 20000 10282 20280 30026 40064 81530 333 59024 70000 81618 82361==
41977,2023,09,16,21,00,AAXX 16214 41977 02450 60000 10278 20278 30025 40063 83570 333 59023 70000 83618 84362==
41977,2023,09,17,00,00,AAXX 17004 41977 02350 60000 10278 20278 30023 40060 84610 333 59021 70000 82712 83616 85460==
41977,2023,09,17,03,00,AAXX 17034 41977 02360 60000 10318 20280 30033 40071 84610 333 20273 59025 70000 82712 83616 85460==
41977,2023,09,17,06,00,AAXX 17064 41977 02456 60000 10342 20290 30012 40049 83570 333 59032 70000 83618 84360==
41977,2023,09,17,09,00,AAXX 17094 41977 02456 63105 10334 20280 39988 40025 84430 333 59030 70000 83618 85362==
41977,2023,09,17,12,00,AAXX 17124 41977 02456 72105 10304 20270 39995 40032 84470 333 10350 59011 70000 83618 85460==
41977,2023,09,17,15,00,AAXX 17154 41977 02456 70000 10286 20270 30015 40052 84470 333 59018 70000 83618 85760==
41977,2023,09,17,18,00,AAXX 17184 41977 21356 80000 10273 20270 30016 40054 71362 8532/ 333 59010 60067 70060 82710 85615 88458 82928==
41977,2023,09,17,21,00,AAXX 17214 41977 01340 80000 10255 20255 30014 40052 79596 8692/ 333 59011 70390 83708 84614 88458 81928==
41977,2023,09,18,00,00,AAXX 18004 41977 21340 80000 10252 20250 30009 40047 76166 8632/ 333 59014 60639 70690 82708 84614 88458 81928==
41977,2023,09,18,03,00,AAXX 18034 41977 01350 70000 10278 20260 30045 40083 70162 84610 333 20248 58012 70720 82712 84616 86460==
41977,2023,09,18,06,00,AAXX 18064 41977 01350 80000 10302 20260 30033 40071 76162 8672/ 333 58021 70720 83710 84614 88458==
41977,2023,09,18,09,00,AAXX 18094 41977 01456 41805 10318 20270 39999 40036 70162 82530 333 58011 70720 82618 84362==
41977,2023,09,18,12,00,AAXX 18124 41977 11456 61804 10300 20260 30005 40043 60006 70362 83531 333 10320 58010 70720 83618 85362==
41977,2023,09,18,15,00,AAXX 18154 41977 02450 71403 10286 20260 30027 40065 84530 333 58012 70720 84616 86362==
41977,2023,09,18,18,00,AAXX 18184 41977 02456 81802 10277 20270 30033 40071 8462/ 333 58017 70660 82708 84616 88458==
41977,2023,09,18,21,00,AAXX 18214 41977 01450 80000 10272 20260 30037 40075 70262 8462/ 333 58023 70332 82712 84616 88460==
41977,2023,09,19,00,00,AAXX 19004 41977 11350 80000 10266 20266 30034 40072 69926 70262 8662/ 333 58025 70032 82712 84616 88460==
41977,2023,09,19,03,00,AAXX 19034 41977 02456 61603 10310 20260 30043 40081 83530 333 20260 59002 70002 83618 85360==
41977,2023,09,19,06,00,AAXX 19064 41977 02456 61803 10326 20260 30044 40082 84530 333 58011 70002 84618 85360==
41977,2023,09,19,09,00,AAXX 19094 41977 01456 41304 10320 20260 30019 40056 70162 82530 333 58020 70002 82618 84362==
41977,2023,09,19,12,00,AAXX 19124 41977 11456 51305 10300 20260 30028 40066 60006 70362 82530 333 10330 58023 70002 82618 85362==
41977,2023,09,19,15,00,AAXX 19154 41977 02356 81304 10290 20260 30089 40127 8531/ 333 58062 70002 82710 85615 88459 81928==
41977,2023,09,19,18,00,AAXX 19184 41977 02356 70000 10280 20250 30087 40125 85610 333 58054 70002 81710 85616 87459==
41977,2023,09,19,21,00,AAXX 19214 41977 02350 80000 10276 20260 30049 40086 8662/ 333 58012 70000 82712 84616 88460==
41977,2023,09,20,00,00,AAXX 20004 41977 02350 80000 10274 20250 30044 40082 8662/ 333 58010 70000 82712 84616 88460==
41977,2023,09,20,03,00,AAXX 20034 41977 41360 71606 10292 20250 30057 40095 70162 8562/ 333 20270 58014 82712 84616 86460==
41977,2023,09,20,06,00,AAXX 20064 41977 41360 81805 10305 20270 30053 40091 70262 8662/ 333 58009 82712 84616 88460==
41977,2023,09,20,09,00,AAXX 20094 41977 01450 82103 10288 20270 30032 40072 76162 8732/ 333 58013 70030 83708 84615 88458 81928==
41977,2023,09,20,12,00,AAXX 20124 41977 21350 82104 10284 20270 30038 40075 70262 8732/ 333 10307 58010 60049 70040 84615 88458 81928==
41977,2023,09,20,15,00,AAXX 20154 41977 02356 82102 10275 20260 30062 40099 8732/ 333 58008 70040 83708 84615 88458 81928==
41977,2023,09,20,18,00,AAXX 20184 41977 02356 81804 10273 20250 30066 40104 8732/ 333 58012 70040 83710 84615 88458 81928==
41977,2023,09,20,21,00,AAXX 20214 41977 01450 60000 10272 20250 30059 40097 70162 83520 333 58010 70040 83616 86460==
41977,2023,09,21,00,00,AAXX 21004 41977 11450 40000 10270 20250 30054 40092 60006 70162 82531 333 58010 70040 82618 83362==
41977,2023,09,21,03,00,AAXX 21034 41977 02456 41603 10305 20270 30077 40115 82531 333 20260 58020 70040 82618 83362==
41977,2023,09,21,06,00,AAXX 21064 41977 02456 61204 10327 20260 30064 40102 83530 333 58011 70040 83618 84360==
41977,2023,09,21,09,00,AAXX 21094 41977 02456 52106 10314 20250 30051 40088 83530 333 58019 70010 83618 85362==
41977,2023,09,21,12,00,AAXX 21124 41977 42456 71304 10292 20260 30056 40093 83570 333 10332 58018 83618 85460==
41977,2023,09,21,15,00,AAXX 21154 41977 42456 41802 10280 20270 30078 40116 82530 333 58016 82618 84362==
41977,2023,09,21,18,00,AAXX 21184 41977 42456 41404 10275 20260 30069 40107 82530 333 58003 82618 84362==
41977,2023,09,21,21,00,AAXX 21214 41977 02450 50000 10270 20250 30067 40105 83570 333 58008 70000 83618 83362==
41978,2023,09,15,00,00,AAXX 15004 41978 02450 61305 10269 20260 30061 40067 84320 333 58029 70035 83616 86460 81930==
41978,2023,09,15,03,00,AAXX 15034 41978 02456 61205 10320 20270 30078 40085 82520 333 20262 58019 70035 82618 86460==
41978,2023,09,15,06,00,AAXX 15064 41978 02556 41910 10333 20280 30068 40074 82120 333 58018 70035 82828 83460==
41978,2023,09,15,09,00,AAXX 15094 41978 02556 22112 10325 20290 30050 40056 82200 333 58014 70035 82828==
41978,2023,09,15,12,00,AAXX 15124 41978 02456 31806 10301 20290 30045 40051 83500 333 10333 58005 70034 83618==
41978,2023,09,15,15,00,AAXX 15154 41978 02456 31805 10294 20280 30066 40072 83500 333 58008 70000 83617==
41978,2023,09,15,18,00,AAXX 15184 41978 02450 31203 10282 20270 30069 40075 83500 333 58007 70000 83617==
41978,2023,09,15,21,00,AAXX 15214 41978 02450 31203 10280 20270 30064 40070 83500 333 58005 70000 83617==
41978,2023,09,16,00,00,AAXX 16004 41978 01450 61803 10277 20270 30061 40067 70521 83340 333 58000 70000 83617 85460 81929==
41978,2023,09,16,03,00,AAXX 16034 41978 02456 30000 10303 20260 30074 40080 82510 333 20274 59004 70000 82618 83460==
41978,2023,09,16,06,00,AAXX 16064 41978 01425 80000 10304 20280 30059 40065 70522 8432/ 333 59009 70000 83618 88460 81930==
41978,2023,09,16,09,00,AAXX 16094 41978 01450 42308 10328 20280 30031 40037 70522 82520 333 59019 70000 82618 83460==
41978,2023,09,16,12,00,AAXX 16124 41978 01450 42605 10308 20290 30024 40030 70522 82520 333 10333 59021 70000 82618 83460==
41978,2023,09,16,15,00,AAXX 16154 41978 01450 42105 10293 20280 30053 40060 70522 82520 333 59013 70000 82618 83460==
41978,2023,09,16,18,00,AAXX 16184 41978 01450 40000 10286 20280 30045 40052 70522 82520 333 59024 70000 82618 83460==
41978,2023,09,16,21,00,AAXX 16214 41978 01450 40000 10282 20270 30030 40037 70522 82520 333 59034 70000 82618 83460==
41978,2023,09,17,00,00,AAXX 17004 41978 01440 40000 10280 20220 30034 40041 70522 82520 333 59027 70000 82618 83460==
41978,2023,09,17,03,00,AAXX 17034 41978 01440 40000 10312 20280 30043 40049 70522 82520 333 20278 59031 70000 82618 84460==
41978,2023,09,17,06,00,AAXX 17064 41978 01450 43205 10331 20280 30024 40030 70522 82530 333 59035 70000 82618 84360==
41978,2023,09,17,09,00,AAXX 17094 41978 01450 32410 10333 20310 30001 40007 70522 82530 333 59030 70000 82618 83360==
41978,2023,09,17,12,00,AAXX 17124 41978 01445 62511 10311 20300 30001 40007 70521 83520 333 10340 59023 70000 83618 86460==
41978,2023,09,17,15,00,AAXX 17154 41978 01445 71003 10286 20280 30030 40037 70522 84320 333 59019 70000 83618 87460 81930==
41978,2023,09,17,18,00,AAXX 17184 41978 01440 71003 10281 20270 30034 40041 76166 84320 333 59011 70030 83614 87460 81930==
41978,2023,09,17,21,00,AAXX 17214 41978 01432 81003 10260 20250 30023 40030 76366 8432/ 333 59007 70570 83610 81828 88458==
41978,2023,09,18,00,00,AAXX 18004 41978 21440 81003 10260 20250 30026 40033 76166 8432/ 333 59008 60949 70970 83610 88458 81928==
41978,2023,09,18,03,00,AAXX 18034 41978 01440 80602 10273 20260 30050 40056 70262 8432/ 333 20250 58007 70978 83616 88460 81928==
41978,2023,09,18,06,00,AAXX 18064 41978 11450 71504 10298 20280 30039 40045 60016 70162 84320 333 58015 70978 83616 87460 81928==
41978,2023,09,18,09,00,AAXX 18094 41978 02456 61706 10317 20270 30015 40021 83530 333 58014 70978 83618 85360==
41978,2023,09,18,12,00,AAXX 18124 41978 02450 61609 10303 20260 30017 40023 83520 333 10321 70978 83618 85460==
41978,2023,09,18,15,00,AAXX 18154 41978 02450 61307 10285 20270 30048 40054 83520 333 58018 70978 83618 86460==
41978,2023,09,18,18,00,AAXX 18184 41978 02450 51205 10279 20270 30053 40059 83520 333 58019 70948 83618 85460==
41978,2023,09,18,21,00,AAXX 18214 41978 01440 81006 10262 20260 30055 40061 72162 8432/ 333 58032 70422 83618 88460 81930==
41978,2023,09,19,00,00,AAXX 19004 41978 21440 80905 10264 20250 30048 40055 70262 8432/ 333 58022 60018 70022 83618 88460 81930==
41978,2023,09,19,03,00,AAXX 19034 41978 02456 41207 10306 20260 30060 40066 82130 333 20260 58010 70014 82828 83362==
41978,2023,09,19,05,00,AAXX 19054 41978 32456 61409 10289 20260 30071 40077 83520 333 56990 58023 70014 83618 86460=
41978,2023,09,19,06,00,AAXX 19064 41978 02556 51207 10328 20260 30058 40064 82130 333 58019 70014 82828 84362==
41978,2023,09,19,09,00,AAXX 19094 41978 02456 61513 10322 20270 30036 40042 83420 333 58021 70014 81618 83828 85460==
41978,2023,09,19,12,00,AAXX 19124 41978 02456 61412 10302 20250 30043 40049 82321 333 10332 58026 70014 81618 83460 85080 81928==
41978,2023,09,19,15,00,AAXX 19154 41978 02456 61409 10289 20260 30071 40077 83520 333 58023 70014 83618 86460==
41978,2023,09,19,18,00,AAXX 19184 41978 02456 61206 10278 20260 30069 40075 83520 333 58016 70014 83618 86460==
41978,2023,09,19,21,00,AAXX 19214 41978 02450 61306 10272 20260 30061 40067 83520 333 58006 70000 83618 86460==
41978,2023,09,20,00,00,AAXX 20004 41978 02450 61206 10268 20260 30059 40065 83520 333 58011 70000 83616 86460==
41978,2023,09,20,03,00,AAXX 20034 41978 02456 61310 10300 20260 30072 40078 83530 333 20264 58012 70000 83618 85360==
41978,2023,09,20,06,00,AAXX 20064 41978 01450 71606 10301 20270 30069 40076 72162 84320 333 58012 70004 83618 87460 81930==
41978,2023,09,20,09,00,AAXX 20094 41978 01450 81408 10290 20280 30046 40052 70362 8432/ 333 58010 70026 83615 88460 81928==
41978,2023,09,20,12,00,AAXX 20124 41978 11456 71810 10287 20270 30054 40060 60026 70162 84320 333 10325 58011 70026 83616 87460 81928==
41978,2023,09,20,15,00,AAXX 20154 41978 01450 61305 10278 20260 30081 40087 70522 83520 333 58010 70026 83617 86460==
41978,2023,09,20,18,00,AAXX 20184 41978 01450 61308 10275 20260 30082 40088 70522 83520 333 58013 70026 83617 86460==
41978,2023,09,20,21,00,AAXX 20214 41978 01450 61308 10268 20250 30074 40080 70522 83520 333 58013 70026 83617 85460==
41978,2023,09,21,00,00,AAXX 21004 41978 01450 61007 10270 20250 30072 40078 70522 82521 333 58013 70026 82618 83460 85080==
41978,2023,09,21,03,00,AAXX 21034 41978 02456 41507 10303 20260 30098 40105 82520 333 20265 58026 70026 82618 84460==
41978,2023,09,21,06,00,AAXX 21064 41978 02456 31710 10327 20260 30086 40092 83400 333 58017 70022 82618==
41978,2023,09,21,09,00,AAXX 21094 41978 02450 61511 10302 20260 30066 40073 84320 333 58020 70000 83618 86460 81930==
41978,2023,09,21,12,00,AAXX 21124 41978 02450 61204 10296 20280 30069 40075 84320 333 10331 58015 70000 83618 86460 81930==
41978,2023,09,21,15,00,AAXX 21154 41978 01445 61505 10283 20270 30094 40101 70522 83520 333 58013 70000 83618 85460==
41978,2023,09,21,18,00,AAXX 21184 41978 01445 61505 10278 20270 30090 40097 70522 83520 333 58008 70000 83618 85460==
41978,2023,09,21,21,00,AAXX 21214 41978 01445 61503 10268 20260 30078 40085 70522 83520 333 58004 70000 83618 85460==
41980,2023,09,15,00,00,AAXX 15004 41980 32440 80000 10268 20240 39961 40073 8352/ 333 56999 58023 70006 83616 88458=
41980,2023,09,15,12,00,AAXX 15124 41980 32440 80000 10294 20240 39945 40056 8462/ 333 10337 56999 58003 70000 81710 84615 88460=
41980,2023,09,15,18,00,AAXX 15184 41980 NIL=
41980,2023,09,16,00,00,AAXX 16004 41980 32440 80000 10258 20250 39952 40064 8352/ 333 56999 58002 70000 83616 88460=
41980,2023,09,16,06,00,AAXX 16064 41980 NIL=
41980,2023,09,16,12,00,AAXX 16124 41980 32440 70000 10295 20260 39926 40038 83510 333 10348 56990 59019 70000 83617 86460=
41980,2023,09,17,00,00,AAXX 17004 41980 32440 80000 10265 20270 39935 40047 8351/ 333 56999 59027 70000 83616 87460=
41980,2023,09,17,06,00,AAXX 17064 41980 NIL=
41980,2023,09,17,12,00,AAXX 17124 41980 32440 80000 10270 20240 39909 40021 8462/ 333 10348 56999 59019 70000 82710 84615 88458=
41980,2023,09,17,18,00,AAXX 17184 41980 NIL=
41980,2023,09,18,00,00,AAXX 18004 41980 11440 80000 10244 20230 39929 40042 60088 70266 8562/ 333 56999 59006 70080 82710 84615 88458=
41980,2023,09,18,06,00,AAXX 18064 41980 NIL=
41980,2023,09,18,12,00,AAXX 18124 41980 11440 61802 10269 20260 39918 40030 60055 70162 83520 333 10333 56990 58009 70130 83616 84458=
41980,2023,09,18,18,00,AAXX 18184 41980 NIL=
41980,2023,09,19,00,00,AAXX 19004 41980 32440 80000 10260 20230 39948 40061 8562/ 333 56999 58019 70050 82710 84615 88458=
41980,2023,09,19,06,00,AAXX 19064 41980 NIL=
41980,2023,09,19,12,00,AAXX 19124 41980 32440 00000 10293 20230 39960 40071 333 10337 58042 70000=
41980,2023,09,19,18,00,AAXX 19184 41980 NIL=
41980,2023,09,20,00,00,AAXX 20004 41980 32440 80000 10274 20220 39961 40073 8662/ 333 56999 58013 70000 83710 85615 88458=
41980,2023,09,20,06,00,AAXX 20064 41980 NIL=
41980,2023,09,20,12,00,AAXX 20124 41980 32340 80000 10275 20260 39954 40066 8662/ 333 10320 56999 59006 70000 84708 85614 88458=
41980,2023,09,21,00,00,AAXX 21004 41980 32940 20000 10255 20240 39975 40087 82030 333 56090 58014 70000 82362=
41980,2023,09,21,06,00,AAXX 21064 41980 NIL=
41980,2023,09,21,12,00,AAXX 21124 41980 11950 60000 10264 20240 39973 40085 69945 70196 86030 333 10322 56090 58019 79994 86362=
41980,2023,09,21,18,00,AAXX 21184 41980 NIL=
41984,2023,09,15,00,00,AAXX 15004 41984 02456 80000 10284 20260 30033 40035 8352/ 333 58036 70070 83618 88458==
41984,2023,09,15,03,00,AAXX 15034 41984 01457 81302 10304 20270 30057 40059 70262 8352/ 333 20261 58034 70036 83618 88458==
41984,2023,09,15,06,00,AAXX 15064 41984 11457 81302 10312 20280 30053 40055 60016 70262 8352/ 333 58033 70026 83618 88458==
41984,2023,09,15,09,00,AAXX 15094 41984 02457 81303 10312 20280 30040 40042 8352/ 333 58030 70006 83618 88458==
41984,2023,09,15,12,00,AAXX 15124 41984 02456 80000 10294 20270 30031 40033 8352/ 333 10327 58018 70006 83618 88458==
41984,2023,09,15,15,00,AAXX 15154 41984 02440 80000 10286 20280 30047 40049 8352/ 333 58014 70006 83618 88458==
41984,2023,09,15,18,00,AAXX 15184 41984 02440 80000 10280 20270 30052 40054 8352/ 333 58019 70006 83618 88458==
41984,2023,09,15,21,00,AAXX 15214 41984 02440 80000 10276 20276 30044 40046 8352/ 333 58011 70006 83618 88458==
41984,2023,09,16,00,00,AAXX 16004 41984 01456 80000 10272 20270 30041 40043 70522 8352/ 333 58008 70006 83618 88458==
41984,2023,09,16,03,00,AAXX 16034 41984 01456 80000 10301 20280 30056 40058 70522 8352/ 333 20269 59001 70000 83618 88458==
41984,2023,09,16,06,00,AAXX 16064 41984 02457 80000 10318 20270 30047 40049 8352/ 333 59006 70000 83618 88458==
41984,2023,09,16,09,00,AAXX 16094 41984 02457 80000 10330 20280 30024 40026 8352/ 333 59016 70000 83618 88458==
41984,2023,09,16,12,00,AAXX 16124 41984 02456 50000 10300 20270 30017 40019 82530 333 10339 59014 70000 82618 83362==
41984,2023,09,16,15,00,AAXX 16154 41984 02440 20000 10280 20270 30037 40039 82500 333 59010 70000 82618==
41984,2023,09,16,18,00,AAXX 16184 41984 02440 20000 10276 20270 30036 40038 82500 333 59016 70000 82618==
41984,2023,09,16,21,00,AAXX 16214 41984 01440 20000 10272 20270 30033 40035 70500 82500 333 59011 70000 82618==
41984,2023,09,17,00,00,AAXX 17004 41984 01456 20000 10270 20270 30024 40026 70500 82500 333 59017 70000 82618==
41984,2023,09,17,03,00,AAXX 17034 41984 02457 20000 10327 20270 30034 40036 82500 333 20266 59022 70000 82618==
41984,2023,09,17,06,00,AAXX 17064 41984 02457 20000 10338 20270 30021 40023 82500 333 59026 70000 82618==
41984,2023,09,17,09,00,AAXX 17094 41984 02457 20000 10350 20270 39998 40000 82500 333 59026 70000 82618==
41984,2023,09,17,12,00,AAXX 17124 41984 02456 20000 10310 20270 39996 49998 82500 333 10355 59021 70000 82618==
41984,2023,09,17,15,00,AAXX 17154 41984 01440 30000 10294 20270 30018 40020 71300 83300 333 59019 70000 83618 81926==
41984,2023,09,17,18,00,AAXX 17184 41984 02440 30000 10287 20280 30019 40021 83500 333 59017 70000 83618==
41984,2023,09,17,21,00,AAXX 17214 41984 01340 83608 10260 20260 30019 40021 79521 8692/ 333 59014 70180 83707 84615 88456 81925==
41984,2023,09,18,00,00,AAXX 18004 41984 21356 80000 10250 20250 30015 40017 79596 8692/ 333 59009 60267 70260 83707 84615 88456 81925==
41984,2023,09,18,03,00,AAXX 18034 41984 01356 80000 10250 20250 30036 40038 76396 8672/ 333 20240 58002 70690 83707 84615 88456==
41984,2023,09,18,06,00,AAXX 18064 41984 21457 80000 10286 20280 30027 40029 70296 8352/ 333 58006 60449 70700 83618 88458==
41984,2023,09,18,09,00,AAXX 18094 41984 01356 80000 10270 20270 30004 40006 76362 8672/ 333 58006 70900 83707 84615 88456==
41984,2023,09,18,12,00,AAXX 18124 41984 21356 80000 10260 20260 30003 40005 76366 8672/ 333 10305 58007 60479 71170 83707 84615 88456==
41984,2023,09,18,15,00,AAXX 18154 41984 01340 80000 10260 20260 30031 40033 76366 8672/ 333 58013 71550 83707 84615 88456==
41984,2023,09,18,18,00,AAXX 18184 41984 21340 80000 10262 20260 30030 40032 76366 8672/ 333 58011 60469 71630 83708 84615 88456==
41984,2023,09,18,21,00,AAXX 18214 41984 01340 80000 10260 20260 30027 40029 76162 8672/ 333 58008 71480 83707 84615 88456==
41984,2023,09,19,00,00,AAXX 19004 41984 21356 80000 10260 20260 30023 40025 76166 8672/ 333 58008 60049 71410 83708 84615 88456==
41984,2023,09,19,03,00,AAXX 19034 41984 02456 80000 10276 20276 30039 40041 8452/ 333 20242 58003 70980 84618 88458==
41984,2023,09,19,06,00,AAXX 19064 41984 21457 80000 10280 20270 30042 40044 70262 8352/ 333 58015 60137 71100 83618 88458==
41984,2023,09,19,09,00,AAXX 19094 41984 01457 80000 10274 20270 30022 40024 72162 8352/ 333 58018 71070 83618 88458==
41984,2023,09,19,12,00,AAXX 19124 41984 01356 80000 10270 20260 30018 40020 76062 8562/ 333 10298 58015 70840 83708 84615 88456==
41984,2023,09,19,15,00,AAXX 19154 41984 01440 80000 10270 20260 30039 40041 70262 8352/ 333 58008 70490 83618 88458==
41984,2023,09,19,18,00,AAXX 19184 41984 11440 80000 10280 20260 30042 40044 60036 70262 8352/ 333 58012 70410 83618 88458==
41984,2023,09,19,21,00,AAXX 19214 41984 01340 80000 10272 20270 30035 40037 76362 8672/ 333 58008 70530 83707 84615 88456==
41984,2023,09,20,00,00,AAXX 20004 41984 21356 80000 10270 20270 30020 40022 76366 8672/ 333 59003 60379 70740 83707 84615 88456==
41984,2023,09,20,03,00,AAXX 20034 41984 01356 81804 10270 20270 30041 40043 76166 8632/ 333 20252 58002 70850 83707 84615 88456 81926==
41984,2023,09,20,06,00,AAXX 20064 41984 21356 81803 10285 20270 30044 40046 70262 8562/ 333 58002 60118 70720 82708 84615 88456==
41984,2023,09,20,09,00,AAXX 20094 41984 01356 81803 10262 20260 30024 40026 76362 8672/ 333 58002 70850 82707 84616 88456 81925==
41984,2023,09,20,12,00,AAXX 20124 41984 21456 80000 10270 20270 30025 40027 70262 8532/ 333 10288 58007 60358 70860 84618 88458 81926==
41984,2023,09,20,15,00,AAXX 20154 41984 02440 80000 10284 20270 30050 40052 8352/ 333 58011 70830 83618 88458==
41984,2023,09,20,18,00,AAXX 20184 41984 21440 81802 10288 20280 30052 40054 70262 8352/ 333 58010 60015 70840 83618 88458==
41984,2023,09,20,21,00,AAXX 20214 41984 02440 80000 10275 20270 30050 40052 8352/ 333 58015 70690 83618 88458==
41984,2023,09,21,00,00,AAXX 21004 41984 01356 80000 10265 20260 30048 40050 76162 8672/ 333 58028 70020 83708 84615 88456==
41984,2023,09,21,03,00,AAXX 21034 41984 02457 81805 10312 20280 30069 40071 8352/ 333 20246 58028 70380 83618 88458==
41984,2023,09,21,06,00,AAXX 21064 41984 01457 81805 10300 20270 30069 40071 70262 8352/ 333 58025 70010 83618 88458==
41984,2023,09,21,09,00,AAXX 21094 41984 02457 81806 10312 20280 30040 40042 8352/ 333 58016 70090 83618 88458==
41984,2023,09,21,12,00,AAXX 21124 41984 02456 80000 10297 20280 30045 40047 8352/ 333 10320 58020 70040 83618 88458==
41984,2023,09,21,15,00,AAXX 21154 41984 02440 81503 10290 20280 30069 40071 8352/ 333 58019 70040 83618 88458==
41984,2023,09,21,18,00,AAXX 21184 41984 02440 80000 10286 20280 30067 40069 8352/ 333 58015 70030 83618 88458==
41984,2023,09,21,21,00,AAXX 21214 41984 02440 80000 10278 20270 30063 40065 8352/ 333 58013 70030 83618 88458==
41989,2023,09,15,00,00,AAXX 15004 41989 02440 51302 10257 20250 30058 40061 82570 333 58025 70050 82618 83362==
41989,2023,09,15,03,00,AAXX 15034 41989 02456 41802 10293 20260 30076 40079 82530 333 20248 58031 70050 82618 84362==
41989,2023,09,15,06,00,AAXX 15064 41989 02450 41402 10330 20270 30073 40076 84500 333 58019 70040 84618==
41989,2023,09,15,09,00,AAXX 15094 41989 02456 21303 10322 20260 30046 40049 82618 333 58012 70020 82618==
41989,2023,09,15,12,00,AAXX 15124 41989 02450 31302 10293 20260 30041 40044 83530 333 10331 58009 70020 83618==
41989,2023,09,15,15,00,AAXX 15154 41989 02440 31402 10280 20260 30056 40059 83500 333 59006 70000 83618==
41989,2023,09,15,18,00,AAXX 15184 41989 02440 31802 10270 20250 30046 40049 83500 333 59018 70000 83618==
41989,2023,09,15,21,00,AAXX 15214 41989 02440 31802 10270 20250 30046 40049 83500 333 59018 70000 83618==
41989,2023,09,16,00,00,AAXX 16004 41989 02440 41403 10260 20240 30041 40044 84500 333 59017 70000 84618==
41989,2023,09,16,03,00,AAXX 16034 41989 02450 51403 10298 20250 30060 40064 83530 333 20248 58016 70000 83618 83362==
41989,2023,09,16,06,00,AAXX 16064 41989 02456 61302 10308 20260 30058 40061 83570 333 59003 70000 83618 84460==
41989,2023,09,16,09,00,AAXX 16094 41989 02450 31403 10322 20270 30051 40054 83500 333 58005 70000 83618==
41989,2023,09,16,12,00,AAXX 16124 41989 02450 31802 10295 20250 30045 40049 83500 333 10330 58001 70000 83618==
41989,2023,09,16,15,00,AAXX 16154 41989 02456 21302 10282 20260 30052 40054 82500 333 59005 70000 82618==
41989,2023,09,16,18,00,AAXX 16184 41989 02450 20000 10280 20260 30060 40064 82500 333 59001 70000 82618==
41989,2023,09,16,21,00,AAXX 16214 41989 02440 30000 10275 20270 30053 40057 83500 333 58007 70000 83618==
41989,2023,09,17,00,00,AAXX 17004 41989 02440 20000 10276 20270 30048 40051 82500 333 58007 70000 82618==
41989,2023,09,17,03,00,AAXX 17034 41989 02456 31302 10312 20260 30053 40056 82530 333 20252 59007 70000 82618 83362==
41989,2023,09,17,06,00,AAXX 17064 41989 02450 41402 10330 20280 30041 40044 82530 333 59012 70000 82618 83362==
41989,2023,09,17,09,00,AAXX 17094 41989 02456 51803 10318 20270 30009 40012 82570 333 59042 70000 82618 83362==
41989,2023,09,17,12,00,AAXX 17124 41989 01450 51402 20260 30002 40005 70262 83570 333 10332 59043 70000 83618 83362==
41989,2023,09,17,15,00,AAXX 17154 41989 42440 31803 10280 20250 30032 40035 83500 333 59019 83618==
41989,2023,09,17,18,00,AAXX 17184 41989 42440 31402 10275 20260 30041 40047 83500 333 59016 83618==
41989,2023,09,17,21,00,AAXX 17214 41989 42440 43103 10270 20250 30035 40039 84500 333 59018 84618==
41989,2023,09,18,00,00,AAXX 18004 41989 01440 51402 10268 20250 30035 40038 72172 83530 333 59013 70810 83618 83362==
41989,2023,09,18,03,00,AAXX 18034 41989 02450 51802 10290 20250 30051 40054 83530 333 20248 59002 70810 83618 83362==
41989,2023,09,18,06,00,AAXX 18064 41989 01450 61703 10298 20260 30044 40047 70362 83570 333 58003 70010 83618 84362==
41989,2023,09,18,09,00,AAXX 18094 41989 02450 41402 10315 20270 30018 40022 84500 333 59009 70820 84618==
41989,2023,09,18,12,00,AAXX 18124 41989 02440 51802 10290 20270 30015 40018 83530 333 10327 58013 70820 83618 83362==
41989,2023,09,18,15,00,AAXX 18154 41989 02440 51704 10278 20260 30044 40048 82570 333 58013 70820 82618 83362==
41989,2023,09,18,18,00,AAXX 18184 41989 NIL=
41989,2023,09,18,21,00,AAXX 18214 41989 01440 61703 10260 20250 30049 40052 70262 82570 333 58014 70920 82618 84460==
41989,2023,09,19,00,00,AAXX 19004 41989 11440 61803 10263 20240 30045 40048 60086 70262 82570 333 58010 70110 82618 84362==
41989,2023,09,19,03,00,AAXX 19034 41989 02450 31304 10312 20260 30055 40058 82530 333 20240 58011 70110 82618 83362==
41989,2023,09,19,06,00,AAXX 19064 41989 02450 51802 10315 20270 30034 40037 83530 333 59010 70100 83618 83362==
41989,2023,09,19,09,00,AAXX 19094 41989 02450 51306 10312 20260 30039 40042 82570 333 58021 70100 82618 83362==
41989,2023,09,19,12,00,AAXX 19124 41989 02450 61802 10292 20260 30032 40035 82570 333 10316 58011 70100 83618 84460==
41989,2023,09,19,15,00,AAXX 19154 41989 02440 51402 10288 20260 30040 40043 83530 333 59004 70100 83618 83362==
41989,2023,09,19,18,00,AAXX 19184 41989 02430 51803 10283 20250 30048 40052 333 59007 70080 83618 83362==
41989,2023,09,20,00,00,AAXX 20004 41989 02430 51802 10270 20250 30035 40038 83530 333 59010 70000 83618 83362==
41989,2023,09,20,03,00,AAXX 20034 41989 01450 51802 10290 20240 30050 40054 70262 83530 333 20245 59010 70010 83618 83362==
41989,2023,09,20,06,00,AAXX 20064 41989 11450 51704 10308 20270 30073 40076 60016 70262 82570 333 70010 82618 83362==
41989,2023,09,20,09,00,AAXX 20094 41989 02450 51803 10290 20260 30054 40058 83570 333 58015 70010 83618 83460==
41989,2023,09,20,12,00,AAXX 20124 41989 02450 51802 10280 20260 30055 40058 83530 333 10315 58013 70010 83618 83362==
41989,2023,09,20,15,00,AAXX 20154 41989 02450 41705 10275 20260 30074 40077 82530 333 58034 70010 82618 84362==
41989,2023,09,20,21,00,AAXX 20214 41989 02450 51403 10270 20260 30078 40081 82570 333 58007 70010 82618 83362==
41989,2023,09,21,00,00,AAXX 21004 41989 02450 51803 10268 20250 30072 40075 83530 333 58037 70010 83618 84362==
41989,2023,09,21,03,00,AAXX 21034 41989 02456 31404 10302 20260 30083 40086 83500 333 20240 48030 70000 83618==
41989,2023,09,21,06,00,AAXX 21064 41989 02450 41802 10315 20260 30092 40095 84500 333 58019 70000 84618==
41989,2023,09,21,09,00,AAXX 21094 41989 02450 51405 10298 20250 30061 40064 82570 333 58007 70000 82618 83362==
41989,2023,09,21,12,00,AAXX 21124 41989 02450 41803 10285 20260 30055 40058 82530 333 10332 58000 70000 82618 84362==
41989,2023,09,21,15,00,AAXX 21154 41989 02450 51803 10290 20260 30054 40058 83570 333 58015 70010 83618 83460==
41989,2023,09,21,18,00,AAXX 21184 41989 02440 51403 10278 20250 30067 40070 83530 333 59017 70000 83618 83362==
41989,2023,09,21,21,00,AAXX 21214 41989 02430 41403 10275 20250 30045 40058 82530 333 59013 70000 83618 83362==
41992,2023,09,15,00,00,AAXX 15004 41992 21425 80000 10260 20250 30065 40067 75165 8592/ 333 58024 60009 70290 84614 88458 81925==
41992,2023,09,15,03,00,AAXX 15034 41992 01435 40000 10312 20260 30086 40088 70552 81530 333 20252 58039 70280 81616 84362==
41992,2023,09,15,06,00,AAXX 15064 41992 11445 10000 10315 20250 30076 40078 60006 70552 81500 333 58014 70250 81616==
41992,2023,09,15,09,00,AAXX 15094 41992 01/40 40000 10315 20260 30057 40059 70511 84030 333 58011 70190 84362==
41992,2023,09,15,12,00,AAXX 15124 41992 01/30 30000 10290 20260 30050 40052 70511 83030 333 10325 58004 70130 83362==
41992,2023,09,15,15,00,AAXX 15154 41992 01425 60000 10288 20260 30069 40071 70521 84530 333 58002 70120 84616 86360==
41992,2023,09,15,18,00,AAXX 15184 41992 01425 60000 10282 20270 30077 40079 70522 84530 333 58004 70120 84616 86360==
41992,2023,09,15,21,00,AAXX 15214 41992 01425 80000 10272 20260 30068 40070 76165 8592/ 333 58000 70190 84614 88458 81925==
41992,2023,09,16,00,00,AAXX 16004 41992 01425 60000 10268 20260 30065 40067 70562 84530 333 70190 85002 84616 86360==
41992,2023,09,16,03,00,AAXX 16034 41992 01430 60000 10300 20260 30079 40081 70522 83530 333 20260 59007 70190 83616 86362==
41992,2023,09,16,06,00,AAXX 16064 41992 01435 50000 10322 20260 30064 40066 70522 82530 333 59012 70190 82616 85362==
41992,2023,09,16,09,00,AAXX 16094 41992 01430 60000 10325 20260 30039 40041 70522 83530 333 59018 70190 83616 86362==
41992,2023,09,16,12,00,AAXX 16124 41992 01430 60000 10295 20260 30031 40033 70522 83530 333 10330 59019 70190 83616 86362==
41992,2023,09,16,15,00,AAXX 16154 41992 01425 30000 10280 20260 30061 40063 70521 83500 333 59008 70190 83616==
41992,2023,09,16,18,00,AAXX 16184 41992 01425 40000 10280 20260 30053 40055 70521 84500 333 59024 70190 84616==
41992,2023,09,16,21,00,AAXX 16214 41992 01425 30000 10270 20260 30048 40050 71011 83500 333 59018 70190 83616==
41992,2023,09,17,00,00,AAXX 17004 41992 01425 60000 10270 20260 30039 40041 71021 84520 333 59026 70000 84616 86460==
41992,2023,09,17,03,00,AAXX 17034 41992 01435 20000 10314 20260 30047 40049 70511 82500 333 20268 59032 70000 82616==
41992,2023,09,17,06,00,AAXX 17064 41992 01435 30000 10328 20270 30028 40030 70511 83500 333 59036 70000 83616==
41992,2023,09,17,09,00,AAXX 17094 41992 01430 40000 10330 20270 30007 40009 70511 84500 333 59032 70000 84616==
41992,2023,09,17,12,00,AAXX 17124 41992 01425 80000 10270 20250 30008 40010 76192 8492/ 333 10340 59023 70010 83614 88458 81925==
41992,2023,09,17,15,00,AAXX 17154 41992 01425 60000 10272 20250 30014 40016 70562 84530 333 59047 70020 84616 86360==
41992,2023,09,17,18,00,AAXX 17184 41992 21425 60000 10270 20250 30038 40040 70522 84530 333 59027 60015 70020 84616 86360==
41992,2023,09,17,21,00,AAXX 17214 41992 01420 80000 10270 20250 30027 40029 76152 8592/ 333 59021 70110 83708 85614 88458 81925==
41992,2023,09,18,00,00,AAXX 18004 41992 21420 80000 10258 20250 30031 40033 76166 8592/ 333 59008 60199 70210 83708 85614 88458 81925==
41992,2023,09,18,03,00,AAXX 18034 41992 01325 80000 10272 20250 30057 40059 76122 8592/ 333 20252 58010 70220 83708 85614 88458 81925==
41992,2023,09,18,06,00,AAXX 18064 41992 21430 70000 10300 20250 30044 40046 70565 83530 333 58016 60015 70220 83616 87360==
41992,2023,09,18,09,00,AAXX 18094 41992 01430 71205 10310 20250 30022 40024 70522 83530 333 58015 70220 83616 87360==
41992,2023,09,18,12,00,AAXX 18124 41992 01430 71205 10285 20260 30028 40030 70522 83530 333 10315 58020 70210 83616 87360==
41992,2023,09,18,15,00,AAXX 18154 41992 01425 81205 10255 20250 30061 40063 76122 8492/ 333 58037 70250 83614 88458 81925==
41992,2023,09,18,18,00,AAXX 18184 41992 21320 80000 10255 20250 30061 40063 76366 8692/ 333 58033 60407 70600 83707 85612 88458 81925==
41992,2023,09,18,21,00,AAXX 18214 41992 01420 80000 10255 20250 30056 40058 76166 8592/ 333 58027 70530 84614 88458 81925==
41992,2023,09,19,00,00,AAXX 19004 41992 21420 80000 10252 20250 30051 40053 76166 8592/ 333 58020 60029 70430 84614 88458 81925==
41992,2023,09,19,03,00,AAXX 19034 41992 01430 60000 10300 20250 30067 40069 70552 83530 333 20250 58010 70420 83616 86362==
41992,2023,09,19,05,00,AAXX 19054 41992 31425 80000 10270 20240 30074 40076 70522 8432/ 333 56999 58013 70360 84616 81925 88460=
41992,2023,09,19,06,00,AAXX 19064 41992 01425 70000 10284 20260 30066 40068 75152 84320 333 58022 70420 83615 87460 81925==
41992,2023,09,19,09,00,AAXX 19094 41992 01435 30000 10315 20250 30041 40043 70521 83500 333 58019 70420 83616==
41992,2023,09,19,12,00,AAXX 19124 41992 01425 80000 10290 20260 30050 40052 70522 8432/ 333 10325 58022 70420 83616 88460 81925==
41992,2023,09,19,15,00,AAXX 19154 41992 01425 80000 10270 20240 30074 40076 70522 8432/ 333 58013 70360 84616 88460 81925==
41992,2023,09,19,18,00,AAXX 19184 41992 01425 80000 10274 20240 30072 40074 70522 8432/ 333 58011 70020 84616 88460 81925==
41992,2023,09,19,21,00,AAXX 19214 41992 01420 80000 10266 20240 30067 40069 70522 8432/ 333 58013 70000 84616 88460 81925==
41992,2023,09,20,00,00,AAXX 20004 41992 21420 80000 10262 20250 30064 40066 70552 8432/ 333 58013 60035 70030 84616 88460 81925==
41992,2023,09,20,03,00,AAXX 20034 41992 01425 80000 10280 20260 30083 40085 76122 8532/ 333 20256 58016 70040 84614 88458 81925==
41992,2023,09,20,06,00,AAXX 20064 41992 21430 61807 10312 20260 30076 40078 70562 83330 333 58010 60025 70050 82616 86362 81925==
41992,2023,09,20,09,00,AAXX 20094 41992 01425 80000 10280 20260 30057 40059 76152 8432/ 333 58016 70060 84616 88460 81925==
41992,2023,09,20,12,00,AAXX 20124 41992 01425 81205 10278 20260 30061 40063 70562 8432/ 333 10320 58009 70010 84616 88460 81925==
41992,2023,09,20,15,00,AAXX 20154 41992 01425 30000 10270 20250 30091 40093 70522 83500 333 58017 70060 83616==
41992,2023,09,20,18,00,AAXX 20184 41992 01425 80000 10268 20250 30093 40095 70522 8432/ 333 58021 70060 83616 88460 81925==
41992,2023,09,20,21,00,AAXX 20214 41992 01425 80000 10265 20250 30088 40090 70522 8432/ 333 58021 70060 83616 88460 81925==
41992,2023,09,21,00,00,AAXX 21004 41992 01425 61205 10265 20250 30083 40085 70522 84530 333 58019 70030 84616 86362==
41992,2023,09,21,03,00,AAXX 21034 41992 01/30 30000 10298 20260 30109 40111 70522 83030 333 20265 58026 70020 83362==
41992,2023,09,21,06,00,AAXX 21064 41992 01435 30000 10317 20260 30098 40100 70521 81530 333 58022 70010 81616 83362==
41992,2023,09,21,09,00,AAXX 21094 41992 01430 60000 10290 20260 30072 40074 70562 82530 333 58015 70010 82616 86362==
41992,2023,09,21,12,00,AAXX 21124 41992 11430 60000 10285 20250 30080 40082 60016 70562 83520 333 10320 58019 70010 83616 86460==
41992,2023,09,21,15,00,AAXX 21154 41992 01425 60000 10274 20260 30099 40001 70522 84530 333 58008 70010 84616 86360==
41992,2023,09,21,18,00,AAXX 21184 41992 01425 60000 10270 20240 30098 40000 70522 84530 333 58005 70010 84616 86360==
41992,2023,09,21,21,00,AAXX 21214 41992 01420 60000 10264 20240 30088 40090 70522 84530 333 58000 70010 84614 86360==
41998,2023,09,15,00,00,AAXX 15004 41998 NIL=
41998,2023,09,15,03,00,AAXX 15034 41998 01456 80000 10270 20260 30056 40062 76166 8342/ 333 58003 70260 82616 88456==
41998,2023,09,15,06,00,AAXX 15064 41998 02456 62201 10306 20260 30056 40062 83420 333 58031 70240 83618 84458==
41998,2023,09,15,09,00,AAXX 15094 41998 02456 61802 10307 20250 30051 40057 83420 333 58043 70170 83618 84458==
41998,2023,09,15,12,00,AAXX 15124 41998 02456 60000 10283 20240 30060 40066 83420 333 10314 58042 70070 83618 84458==
41998,2023,09,15,18,00,AAXX 15184 41998 NIL=
41998,2023,09,16,00,00,AAXX 16004 41998 21356 80000 10260 20250 30053 40059 79596 8432/ 333 58010 60127 70280 82617 88457 81929==
41998,2023,09,16,03,00,AAXX 16034 41998 02456 80000 10290 20260 30061 40067 8442/ 333 20255 58015 70280 83618 88458==
41998,2023,09,16,06,00,AAXX 16064 41998 02456 60000 10318 20270 30046 40052 83470 333 59010 70280 82618 83458==
41998,2023,09,16,12,00,AAXX 16124 41998 02456 40000 10283 20260 30062 40068 84420 333 10328 58002 70280 82618 83458==
41998,2023,09,16,13,00,AAXX 16134 41998 02456 40000 10283 20260 30062 40068 84420 333 10328 58002 70280 82618 83458==
41998,2023,09,16,18,00,AAXX 16184 41998 02456 60000 10278 20260 30035 40041 82618 333 59002 70200 82618 83458==
41998,2023,09,17,00,00,AAXX 17004 41998 02456 60000 10271 20260 30045 40051 82470 333 59008 70000 82618 83458==
41998,2023,09,17,03,00,AAXX 17034 41998 02456 60000 10300 20270 30058 40064 82470 333 20258 59003 70000 82618 83458==
41998,2023,09,17,06,00,AAXX 17064 41998 NIL=
41998,2023,09,17,09,00,AAXX 17094 41998 02456 61402 10316 20270 30013 40019 82470 333 59029 70000 82618 83458==
41998,2023,09,17,12,00,AAXX 17124 41998 21456 80000 10267 20260 30017 40023 70296 8442/ 333 10334 59045 60068 70060 83618 88458==
41998,2023,09,17,18,00,AAXX 17184 41998 NIL=
41998,2023,09,18,00,00,AAXX 18004 41998 21456 80000 10253 20250 30034 40040 76166 8342/ 333 59011 60189 70480 83416 88456==
41998,2023,09,18,03,00,AAXX 18034 41998 41456 80000 10276 20250 30027 40033 59031 70540 88456==
41998,2023,09,18,06,00,AAXX 18064 41998 21456 80000 10292 20260 30028 40034 72162 8442/ 333 59009 60085 70560 83618 88458==
41998,2023,09,18,09,00,AAXX 18094 41998 02456 81801 10294 20260 30015 40021 8442/ 333 58002 70440 83618 88458==
41998,2023,09,18,12,00,AAXX 18124 41998 02456 80000 10268 20260 30017 40023 8442/ 333 10301 58000 70380 83618 88458==
41998,2023,09,18,18,00,AAXX 18184 41998 NIL=
41998,2023,09,19,00,00,AAXX 19004 41998 21456 80000 10252 20250 30045 40051 76166 8342/ 333 58011 60089 70320 83616 88456==
41998,2023,09,19,03,00,AAXX 19034 41998 02456 80000 10286 20260 30056 40062 8342/ 333 20251 58029 70260 83618 88458==
41998,2023,09,19,06,00,AAXX 19064 41998 21456 80000 10301 20260 30050 40056 72162 8342/ 333 58022 60045 70280 82618 83458==
41998,2023,09,19,09,00,AAXX 19094 41998 02456 51402 10306 20260 30033 40039 83420 333 58018 70280 82618 83458==
41998,2023,09,19,12,00,AAXX 19124 41998 02456 50000 10283 20240 30032 40038 83420 333 10318 58015 70280 82618 83458==
41998,2023,09,19,18,00,AAXX 19184 41998 NIL=
41998,2023,09,20,00,00,AAXX 20004 41998 21456 80000 10255 20250 30057 40063 76166 8342/ 333 58012 60177 70210 82616 88456==
41998,2023,09,20,03,00,AAXX 20034 41998 01456 80000 10285 20250 30071 40077 76166 8442/ 333 20250 58015 70250 83616 88456==
41998,2023,09,20,06,00,AAXX 20064 41998 NIL=
41998,2023,09,20,09,00,AAXX 20094 41998 02456 51902 10316 20250 30048 40054 83420 333 58015 70230 82618 83458==
41998,2023,09,20,12,00,AAXX 20124 41998 02456 50000 10286 20250 30052 40058 83420 333 10324 58020 70230 82618 83458==
41998,2023,09,20,18,00,AAXX 20184 41998 02456 60000 10260 20250 30069 40075 83470 333 58004 70230 82618 83458==
41998,2023,09,21,00,00,AAXX 21004 41998 02456 60000 10258 20250 30073 40079 333 58016 70060 82618 83458==
41998,2023,09,21,03,00,AAXX 21034 41998 02456 60000 10284 20250 30084 40090 83420 333 20250 58013 70020 82618 83458==
41998,2023,09,21,06,00,AAXX 21064 41998 02456 60000 10298 20260 30077 40083 83420 333 58023 70000 82618 83458==
41998,2023,09,21,18,00,AAXX 21184 41998 NIL=
