ESTACION,ANO,MES,DIA,HORA,MINUTO,PARTE
41850,2024,07,05,00,00,AAXX 05004 41850 11440 80000 10257 20250 39908 40006 60116 70562 8352/ 333 56999 59010 70140 83617 88457=
41850,2024,07,05,06,00,AAXX 05064 41850 11330 80000 10254 20250 39921 40019 60479 76366 8572/ 333 56999 59016 70575 83707 82616 88457=
41850,2024,07,05,12,00,AAXX 05124 41850 11330 80000 10258 20250 39897 49995 60129 76166 8572/ 333 10268 56999 59008 70695 83707 82615 88457=
41850,2024,07,05,18,00,AAXX 05184 41850 11430 81804 10255 20250 39918 40016 60046 70562 8352/ 333 56999 59017 70730 83617 88457=
41850,2024,07,06,00,00,AAXX 06004 41850 11330 80000 10255 20250 39906 40004 60249 76166 8572/ 333 56999 59002 70860 83707 82614 88457=
41850,2024,07,06,06,00,AAXX 06064 41850 11330 80000 10255 20250 39927 40025 60299 76166 8572/ 333 56999 58006 70685 83707 82614 88457=
41850,2024,07,06,12,00,AAXX 06124 41850 11340 80000 10251 20250 39911 40009 60398 70562 8572/ 333 10262 56999 58014 70955 83707 82614 88457=
41850,2024,07,06,18,00,AAXX 06184 41850 31430 80000 10255 20250 39932 40030 70522 8352/ 333 56999 58014 70920 83617 88457=
41850,2024,07,07,00,00,AAXX 07004 41850 11330 80000 10252 20250 39934 40032 60379 76366 8572/ 333 56999 58028 71050 83707 82614 88457=
41850,2024,07,07,06,00,AAXX 07064 41850 11350 80000 10260 20250 39949 40047 60638 8562/ 333 56999 58022 71385 83708 82617 88457=
41850,2024,07,07,12,00,AAXX 07124 41850 32456 60000 10300 20260 39921 40017 83510 333 10309 56990 58010 70995 83618 86458=
41850,2024,07,07,18,00,AAXX 07184 41850 31430 81803 10273 20260 39942 40040 70522 8352/ 333 56999 58010 70995 83618 88458=
41850,2024,07,08,00,00,AAXX 08004 41850 31440 80000 10265 20250 39928 40026 70522 8352/ 333 56999 59006 70625 83618 88458=
41850,2024,07,08,06,00,AAXX 08064 41850 11330 80000 10260 20250 39940 40038 60647 79596 8532/ 333 56999 59009 70640 84707 89128 88457=
41850,2024,07,08,12,00,AAXX 08124 41850 11450 80000 10300 20270 39915 40011 60186 70562 8452/ 333 10315 56999 59006 70815 84617 88457=
41850,2024,07,08,18,00,AAXX 08184 41850 31430 80000 10273 20260 39934 40032 70522 8352/ 333 56999 59008 70815 83618 88457=
41850,2024,07,09,00,00,AAXX 09004 41850 11330 80000 10259 20250 39934 40032 60669 76166 8572/ 333 56999 58006 71475 83707 82615 88457=
41850,2024,07,09,06,00,AAXX 09064 41850 11340 80000 10266 20260 39961 40059 60329 76366 8572/ 333 56999 58021 71155 83707 82614 88457=
41850,2024,07,09,12,00,AAXX 09124 41850 11456 51602 10294 20260 39924 40021 60026 70162 83530 333 56990 58009 71000 83618 85362=
41850,2024,07,09,18,00,AAXX 09184 41850 31440 60000 10270 20260 39942 40040 70522 70522 83520 333 56990 58008 71000 83618 86458=
41850,2024,07,10,00,00,AAXX 10004 41850 11340 80000 10268 20268 39945 40043 60024 70562 8562/ 333 56999 58011 70360 83708 84616 88457=
41850,2024,07,10,06,00,AAXX 10064 41850 11440 80000 10270 20260 39959 40057 60499 72166 8562/ 333 56999 59002 70530 83708 84616 88456=
41850,2024,07,10,12,00,AAXX 10124 41850 31450 60000 10284 20250 39920 40017 70522 83520 333 10293 56990 59004 70510 83618 86458=
41850,2024,07,10,18,00,AAXX 10184 41850 31440 80203 10274 20260 39937 40035 70522 8452/ 333 56999 59005 70510 84618 88458=
41850,2024,07,11,00,00,AAXX 11004 41850 11340 81602 10258 20258 39916 40014 60074 72162 8562/ 333 56999 59029 70560 82708 84616 88456=
41850,2024,07,11,06,00,AAXX 11064 41850 11450 70000 10292 20250 39912 40009 60056 70562 83520 333 56990 59047 70120 83617 87458=
41850,2024,07,11,12,00,AAXX 11124 41850 31450 70802 10285 20270 39879 49976 70522 83520 333 10301 56990 59041 70120 83617 87458=
41850,2024,07,11,18,00,AAXX 11184 41850 11430 80000 10260 20250 39897 49995 60157 79596 8432/ 333 56999 59040 70270 83616 81925 88456=
41851,2024,07,05,00,00,AAXX 05004 41851 11340 80901 10260 20250 39951 40013 60339 79566 8492/ 333 56299 59009 70445 81708 84616 81929 88456=
41851,2024,07,05,06,00,AAXX 05064 41851 11350 80901 10273 20260 39959 40021 60088 70262 8462/ 333 56299 59012 70519 81708 84616 88456=
41851,2024,07,05,12,00,AAXX 05124 41851 11350 80901 10271 20260 39931 49993 60057 70262 8462/ 333 10280 56299 59013 70526 81708 84616 88456=
41851,2024,07,05,18,00,AAXX 05184 41851 11350 80901 10261 20250 39946 40008 60163 76162 8472/ 333 56299 59026 70618 81708 84616 88456=
41851,2024,07,06,00,00,AAXX 06004 41851 11340 80901 10255 20255 39947 40009 60669 76366 8472/ 333 56299 59004 70943 81708 84616 88456=
41851,2024,07,06,06,00,AAXX 06064 41851 11350 80901 10274 20260 39961 40023 60069 72166 8462/ 333 56299 58002 70919 81708 84616 88456=
41851,2024,07,06,12,00,AAXX 06124 41851 32350 80902 10275 20260 39947 40009 8462/ 333 10300 56299 58016 70871 81709 83617 88457=
41851,2024,07,06,18,00,AAXX 06184 41851 11350 80901 10264 20250 39969 40032 60116 70362 8462/ 333 56999 58023 70825 81709 83617 88457=
41851,2024,07,07,00,00,AAXX 07004 41851 11350 80000 10266 20266 39966 40028 60016 70262 8462/ 333 56399 58019 70180 81709 83617 88457=
41851,2024,07,07,06,00,AAXX 07064 41851 11450 81502 10318 20270 39980 40041 69965 70262 8352/ 333 56999 58019 70126 83617 88457=
41851,2024,07,07,12,00,AAXX 07124 41851 32450 70901 10315 20270 39954 40015 83520 333 10352 56990 58007 70126 83618 87458=
41851,2024,07,07,18,00,AAXX 07184 41851 32450 80000 10288 20280 39981 40043 8352/ 333 56999 58012 70016 83617 88457=
41851,2024,07,08,00,00,AAXX 08004 41851 32450 80000 10272 20260 39968 40030 8352/ 333 56999 58002 70006 83617 88457=
41851,2024,07,08,06,00,AAXX 08064 41851 11340 80702 10302 20270 39977 40039 69954 79522 8492/ 333 56999 59003 70005 81708 84616 81929 88456=
41851,2024,07,08,12,00,AAXX 08124 41851 11350 81201 10280 20270 39954 40016 60143 70296 8462/ 333 10325 56499 58000 70141 81709 83617 88457=
41851,2024,07,08,18,00,AAXX 08184 41851 11350 80902 10277 20277 39978 40040 60917 79596 8492/ 333 56999 59003 71047 82708 84615 81929 88456=
41851,2024,07,09,00,00,AAXX 09004 41851 11350 80000 10274 20260 39977 40040 60239 76196 8462/ 333 56999 58009 71277 81708 84616 88456=
41851,2024,07,09,06,00,AAXX 09064 41851 11350 80204 10280 20260 39994 40056 69956 70262 8462/ 333 56199 58017 71277 81709 83617 88457=
41851,2024,07,09,12,00,AAXX 09124 41851 11450 50902 10293 20260 39961 40023 69926 70162 82510 333 10295 56990 58007 71143 82618 84459=
41851,2024,07,09,18,00,AAXX 09184 41851 31350 80000 10272 20250 39981 40044 71792 8532/ 333 56299 58003 70237 81709 83616 81930 88458=
41851,2024,07,10,00,00,AAXX 10004 41851 11340 81802 10260 20250 39982 40045 60143 79596 8592/ 333 56299 58005 70142 82708 83614 82928 88457=
41851,2024,07,10,06,00,AAXX 10064 41851 11450 80902 10292 20260 39997 40059 60699 70296 8352/ 333 56999 58003 70829 83618 88458=
41851,2024,07,10,12,00,AAXX 10124 41851 32450 70902 10295 20260 39952 40014 83510 333 10300 56990 59009 70827 83618 85459=
41851,2024,07,10,18,00,AAXX 10184 41851 32450 80000 10278 20270 39968 40030 8352/ 333 56999 59013 70827 83618 88458=
41851,2024,07,11,00,00,AAXX 11004 41851 11450 80000 10262 20250 39953 40016 60046 70262 8352/ 333 56999 59029 70732 83618 88458=
41851,2024,07,11,06,00,AAXX 11064 41851 32450 80902 10273 20250 39957 40019 8352/ 333 56999 59040 70040 83618 88458=
41851,2024,07,11,12,00,AAXX 11124 41851 32450 80901 10287 20260 39914 49975 8352/ 333 10290 56999 59038 70040 83618 88458=
41851,2024,07,11,18,00,AAXX 11184 41851 11340 80000 10255 20250 39938 40001 60047 79596 8492/ 333 56499 59030 70083 81708 83614 81930 88458=
41856,2024,07,05,00,00,AAXX 05004 41856 11340 80902 10262 20250 39981 40016 60026 70262 8672/ 333 56999 59007 70187 84708 85614 88456=
41856,2024,07,05,06,00,AAXX 05064 41856 11350 80501 10290 20260 39987 40022 60059 70266 8572/ 333 56499 59013 70239 83710 83618 88458=
41856,2024,07,05,12,00,AAXX 05124 41856 11350 80901 10274 20260 39958 49993 60036 70262 8662/ 333 10292 56399 59015 70264 83710 83618 88458=
41856,2024,07,05,18,00,AAXX 05184 41856 31420 81703 10273 20260 39972 40007 71722 8632/ 333 56999 59016 70097 84618 88458 81925=
41856,2024,07,06,00,00,AAXX 06004 41856 11330 81401 10265 20260 39974 40009 60015 70296 8662/ 333 56399 59014 70091 83710 83618 88458=
41856,2024,07,06,06,00,AAXX 06064 41856 32450 61302 10300 20260 39987 40022 82510 333 56990 58000 70039 82618 86458=
41856,2024,07,06,12,00,AAXX 06124 41856 32450 60000 10280 20250 39972 40007 81570 333 10325 56990 58014 70014 81618 84362=
41856,2024,07,06,18,00,AAXX 06184 41856 32930 30901 10270 20260 39996 40031 83030 333 56090 58024 70014 83362=
41856,2024,07,07,00,00,AAXX 07004 41856 32940 60000 10267 20260 39995 40030 86030 333 56090 58021 70000 86362=
41856,2024,07,07,06,00,AAXX 07064 41856 11450 80000 10303 20260 30008 40043 60034 72162 8442/ 333 56999 58021 70028 82618 88458=
41856,2024,07,07,12,00,AAXX 07124 41856 32450 60000 10304 20250 39980 40015 83430 333 10340 56990 58008 70028 82618 84362=
41856,2024,07,07,18,00,AAXX 07184 41856 32440 80000 10280 20270 30000 40035 8542/ 333 56999 58004 70028 84618 88458=
41856,2024,07,08,00,00,AAXX 08004 41856 11440 80000 10274 20260 39993 40028 60206 70262 8542/ 333 56999 59002 70230 84618 88458=
41856,2024,07,08,06,00,AAXX 08064 41856 32450 81602 10320 20260 30002 40037 8542/ 333 56999 59006 70202 84618 88458=
41856,2024,07,08,12,00,AAXX 08124 41856 32450 80000 10310 20270 39979 40014 8542/ 333 10334 56999 59001 70202 84618 88458=
41856,2024,07,08,18,00,AAXX 08184 41856 32440 81101 10281 20270 39998 40033 8542/ 333 56999 59002 70202 84618 88458=
41856,2024,07,09,00,00,AAXX 09004 41856 32440 70702 10278 20270 30002 40037 84430 333 56990 58009 70000 83618 85458=
41856,2024,07,09,06,00,AAXX 09064 41856 32450 61101 10340 20260 30016 40050 84430 333 56990 58014 70000 83618 85458=
41856,2024,07,09,12,00,AAXX 09124 41856 11450 50501 10306 20270 39987 40022 60248 70162 83430 333 10340 56990 58008 70235 82618 85362=
41856,2024,07,09,18,00,AAXX 09184 41856 11430 80000 10280 20260 30007 40042 60038 70362 8562/ 333 56499 58009 70261 83710 85618 88458=
41856,2024,07,10,00,00,AAXX 10004 41856 11435 81801 10270 20260 30002 40037 60249 72996 8562/ 333 56499 58000 70497 83709 85615 88457=
41856,2024,07,10,06,00,AAXX 10064 41856 11450 80000 10306 20270 30019 40054 60058 70262 8542/ 333 56999 58003 70547 83615 88457=
41856,2024,07,10,12,00,AAXX 10124 41856 32450 50000 10305 20280 39978 40013 82530 333 10326 56990 59009 70312 82618 85362=
41856,2024,07,10,18,00,AAXX 10184 41856 11330 80000 10280 20270 39995 40030 60034 79196 8692/ 333 56499 59012 70312 84708 85614 88456 81930=
41856,2024,07,11,00,00,AAXX 11004 41856 11335 80000 10265 20265 39979 40014 60187 79196 8692/ 333 56599 59023 70251 84708 85614 88456 81930=
41856,2024,07,11,06,00,AAXX 11064 41856 11340 80000 10275 20270 39983 40018 60167 76166 8672/ 333 56499 59036 70357 84708 86614 88456=
41856,2024,07,11,12,00,AAXX 11124 41856 11450 80000 10280 20270 39942 49977 60127 70262 8352/ 333 10285 56999 59036 70477 83618 88457=
41856,2024,07,11,18,00,AAXX 11184 41856 11330 80000 10255 20250 39970 40005 60024 76162 8672/ 333 56999 59025 70471 83708 84616 88456=
41858,2024,07,05,00,00,AAXX 05004 41858 01330 81804 10275 20260 39965 40010 72162 8572/ 333 59010 70156 84708 85614 88458==
41858,2024,07,05,03,00,AAXX 05034 41858 01330 81505 10278 20260 39979 40024 70522 8572/ 333 20260 59012 70156 84708 85614 88458==
41858,2024,07,05,06,00,AAXX 05064 41858 01340 80905 10298 20260 39975 40020 70522 8562/ 333 59009 70156 83608 85614 88458==
41858,2024,07,05,09,00,AAXX 05094 41858 01420 80905 10314 20260 39953 49997 76322 8452/ 333 59011 70162 84615 88458==
41858,2024,07,05,12,00,AAXX 05124 41858 21435 80905 10275 20260 39943 49988 70562 8452/ 333 10324 59014 60397 70546 84615 88458==
41858,2024,07,05,15,00,AAXX 05154 41858 01435 80904 10270 20250 39964 40009 76122 8452/ 333 59019 70096 84615 88458==
41858,2024,07,05,18,00,AAXX 05184 41858 01435 80000 10270 20250 39984 40029 76162 8452/ 333 59005 70100 84615 88458==
41858,2024,07,05,21,00,AAXX 05214 41858 01430 80000 10268 20260 39958 40003 76166 8452/ 333 59002 70604 84615 88458==
41858,2024,07,06,00,00,AAXX 06004 41858 01335 80000 10266 20260 39962 40007 70566 8572/ 333 59003 70626 84708 85614 88458==
41858,2024,07,06,03,00,AAXX 06034 41858 01435 80904 10280 20260 39974 40019 70522 8452/ 333 20255 59005 70626 84615 88458==
41858,2024,07,06,06,00,AAXX 06064 41858 01440 81205 10294 20260 39976 40021 70522 8452/ 333 58001 70626 84615 88458==
41858,2024,07,06,09,00,AAXX 06094 41858 01450 80000 10320 20260 39958 40002 70522 8452/ 333 58005 70620 84615 88458==
41858,2024,07,06,12,00,AAXX 06124 41858 01340 80000 10271 20260 39967 40012 79596 8592/ 333 10321 59024 70530 83708 85614 88458 82930==
41858,2024,07,06,15,00,AAXX 06154 41858 01430 80000 10268 20260 39985 40030 76166 8452/ 333 58021 70870 84615 88458==
41858,2024,07,06,18,00,AAXX 06184 41858 21430 80000 10264 20250 39986 40032 76166 8452/ 333 58002 60159 70822 84615 88458==
41858,2024,07,06,21,00,AAXX 06214 41858 01430 80000 10268 20260 39973 40018 70522 8452/ 333 58015 70712 84615 88458==
41858,2024,07,07,00,00,AAXX 07004 41858 01430 80000 10276 20270 39988 40033 70522 8452/ 333 58026 70682 84616 88458==
41858,2024,07,07,03,00,AAXX 07034 41858 01435 81205 10288 20270 30003 40048 70522 8452/ 333 20260 58029 70682 84615 88458==
41858,2024,07,07,06,00,AAXX 07064 41858 11440 61205 10320 20250 39998 40042 69986 70562 83520 333 58022 70690 83615 86458==
41858,2024,07,07,09,00,AAXX 07094 41858 01440 62102 10328 20260 39981 40025 70522 83520 333 58023 70690 83616 86458==
41858,2024,07,07,12,00,AAXX 07124 41858 01440 60000 10320 20260 39974 40018 70522 83520 333 10334 58007 70158 83616 86458==
41858,2024,07,07,18,00,AAXX 07184 41858 01430 80000 10280 20270 39993 40038 76122 8552/ 333 58007 70060 85614 88458==
41858,2024,07,07,21,00,AAXX 07214 41858 01430 80000 10282 20270 39987 40032 72166 8452/ 333 58014 70208 84614 88458==
41858,2024,07,08,00,00,AAXX 08004 41858 21420 40000 10284 20270 39986 40031 71066 83520 333 59002 60147 70208 83615 84459==
41858,2024,07,08,03,00,AAXX 08034 41858 01450 41805 10316 20270 39995 40039 70511 84800 333 20270 59008 70208 82618 83825==
41858,2024,07,08,06,00,AAXX 08064 41858 01450 81808 10340 20260 39993 40037 70522 83520 333 59005 70200 83615 85458==
41858,2024,07,08,09,00,AAXX 08094 41858 01450 62106 10350 20250 39975 40018 70522 83520 333 59006 70200 83618 86458==
41858,2024,07,08,12,00,AAXX 08124 41858 01440 70902 10334 20260 39970 40014 70522 84520 333 10352 59004 70200 84616 86458==
41858,2024,07,08,15,00,AAXX 08154 41858 01440 40904 10310 20260 39983 40024 70522 82520 333 59005 70200 82615 84458==
41858,2024,07,08,18,00,AAXX 08184 41858 01440 60904 10290 20270 39993 40038 70522 83520 333 58000 70140 83615 85458==
41858,2024,07,08,21,00,AAXX 08214 41858 01440 60904 10286 20270 39988 40033 70522 83520 333 58001 70000 83615 85458==
41858,2024,07,09,00,00,AAXX 09004 41858 01440 71805 10288 20270 39990 40035 70522 84520 333 58004 70000 84615 86458==
41858,2024,07,09,03,00,AAXX 09034 41858 01440 51805 10310 20260 30008 40053 70522 83520 333 20280 58013 70000 83616 85458==
41858,2024,07,09,06,00,AAXX 09064 41858 01450 51805 10334 20250 30007 40051 70522 83520 333 58014 70000 83616 85458==
41858,2024,07,09,09,00,AAXX 09094 41858 01450 60505 10320 20270 39987 40031 70522 84820 333 58012 70000 82615 83825 85460==
41858,2024,07,09,12,00,AAXX 09124 41858 01450 50605 10314 20260 39965 40009 70522 84830 333 10360 59005 70000 82618 83825==
41858,2024,07,09,15,00,AAXX 09154 41858 01440 81205 10300 20280 39999 40044 70562 8452/ 333 58016 70002 84616 88458==
41858,2024,07,09,18,00,AAXX 09184 41858 21430 81204 10296 20280 39996 40041 76196 8452/ 333 58003 60237 70230 84616 88458==
41858,2024,07,09,21,00,AAXX 09214 41858 01435 81204 10290 20280 39996 40041 76196 8452/ 333 58008 70480 84616 88458==
41858,2024,07,10,00,00,AAXX 10004 41858 21430 81202 10284 20260 39998 40043 70562 8452/ 333 58008 60049 70520 84616 88458==
41858,2024,07,10,03,00,AAXX 10034 41858 01425 80000 10285 20280 30011 40056 76196 8452/ 333 20262 58003 70522 84615 88458==
41858,2024,07,10,06,00,AAXX 10064 41858 21430 80000 10300 20280 30014 40056 70596 8452/ 333 58007 69969 70526 84615 88458==
41858,2024,07,10,09,00,AAXX 10094 41858 01450 70000 10320 20270 39982 40026 70522 84520 333 59005 70526 84615 86458==
41858,2024,07,10,12,00,AAXX 10124 41858 01450 70000 10306 20270 39972 40016 70522 84520 333 10334 59003 70526 84615 86458==
41858,2024,07,10,15,00,AAXX 10154 41858 01440 60000 10295 20270 39991 40036 70522 83520 333 59008 70514 83615 85458==
41858,2024,07,10,18,00,AAXX 10184 41858 01440 60000 10288 20270 30002 40047 70522 83520 333 58006 70296 83615 85458==
41858,2024,07,10,21,00,AAXX 10214 41858 01435 80000 10278 20260 39973 40018 76162 8452/ 333 59023 70052 84615 88458==
41858,2024,07,11,00,00,AAXX 11004 41858 01430 80000 10280 20270 39971 40016 72162 8452/ 333 59027 70052 84615 88458==
41858,2024,07,11,03,00,AAXX 11034 41858 01435 80000 10290 20270 39978 40023 70522 8452/ 333 20270 59033 70050 84615 88458==
41858,2024,07,11,06,00,AAXX 11064 41858 01440 80000 10300 20280 39974 40018 70522 8452/ 333 59040 70046 84615 88458==
41858,2024,07,11,09,00,AAXX 11094 41858 01320 80905 10306 20280 39943 49984 71022 8562/ 333 59039 70046 83708 85614 88458==
41858,2024,07,11,12,00,AAXX 11124 41858 01430 80905 10300 20270 39931 49975 70522 8452/ 333 10308 59041 70046 84615 88458==
41858,2024,07,11,15,00,AAXX 11154 41858 01425 80000 10280 20270 39963 40008 79596 8592/ 333 59028 70258 84615 88458 82925==
41858,2024,07,11,18,00,AAXX 11184 41858 01425 80000 10270 20260 39978 40023 72996 8592/ 333 59024 70326 84615 88458 81925==
41858,2024,07,11,21,00,AAXX 11214 41858 01430 80000 10272 20260 39958 40003 70562 8452/ 333 59015 70340 84615 88458==
41859,2024,07,05,00,00,AAXX 05004 41859 11430 81302 10270 20260 39977 40014 69966 70262 8562/ 333 59006 70124 83710 84618 88458==
41859,2024,07,05,03,00,AAXX 05034 41859 02440 80000 10271 20260 39992 40029 8562/ 333 20267 59010 70124 83710 84618 88458==
41859,2024,07,05,06,00,AAXX 05064 41859 21450 80000 10301 20270 39984 40020 70262 8562/ 333 59013 69945 70128 83710 84618 88458==
41859,2024,07,05,09,00,AAXX 05094 41859 01450 80000 10280 20270 39965 40001 70262 8562/ 333 59009 70190 83710 84618 88458==
41859,2024,07,05,12,00,AAXX 05124 41859 01340 80000 10275 20275 39956 49992 79596 8692/ 333 10325 59013 70286 83709 84617 88458 81930==
41859,2024,07,05,15,00,AAXX 05154 41859 01430 81302 10278 20278 39977 40013 70296 8562/ 333 59016 70288 83710 85618 88458==
41859,2024,07,05,18,00,AAXX 05184 41859 01320 81802 10270 20270 39969 40006 76596 8672/ 333 59017 71080 84707 85612 88456==
41859,2024,07,05,21,00,AAXX 05214 41859 01430 81802 10268 20268 39967 40004 70262 8562/ 333 59008 71324 83710 84618 88458==
41859,2024,07,06,00,00,AAXX 06004 41859 11440 81802 10269 20260 39974 40011 60086 70262 8562/ 333 59003 71324 83710 84618 88458==
41859,2024,07,06,03,00,AAXX 06034 41859 01440 80000 10271 20270 39985 40021 70262 8562/ 333 20255 58001 71340 83710 84618 88458==
41859,2024,07,06,06,00,AAXX 06064 41859 11450 80000 10303 20260 39987 40023 60026 70262 8562/ 333 58003 70134 83710 84618 88458==
41859,2024,07,06,09,00,AAXX 06094 41859 02450 61302 10333 20260 39966 40003 83510 333 58001 71278 83618 86458==
41859,2024,07,06,12,00,AAXX 06124 41859 21440 82702 10290 20260 39973 40009 70362 8562/ 333 10335 58017 60057 71228 83710 84618 88458==
41859,2024,07,06,15,00,AAXX 06154 41859 01430 80000 10272 20272 39994 40031 72166 8562/ 333 58017 71274 83710 84618 88458==
41859,2024,07,06,18,00,AAXX 06184 41859 21430 80000 10270 20270 39995 40032 70262 8562/ 333 58026 60058 70194 83710 84618 88458==
41859,2024,07,06,21,00,AAXX 06214 41859 02430 80000 10270 20270 39989 40026 8562/ 333 58022 70118 83710 84618 88458==
41859,2024,07,07,00,00,AAXX 07004 41859 01430 80000 10270 20270 39994 40031 72122 8562/ 333 58020 70002 83710 84618 88458==
41859,2024,07,07,03,00,AAXX 07034 41859 02440 80000 10289 20270 30014 40051 8562/ 333 20265 58029 70100 83710 84618 88458==
41859,2024,07,07,06,00,AAXX 07064 41859 01440 80000 10286 20270 30007 40044 72162 8562/ 333 58020 70090 83710 84618 88458==
41859,2024,07,07,09,00,AAXX 07094 41859 01445 61302 10340 20260 39987 40024 70162 83510 333 58021 70196 83618 86458==
41859,2024,07,07,12,00,AAXX 07124 41859 11440 60000 10334 20250 39978 40014 69946 70262 83510 333 10341 58005 70146 83618 86458==
41859,2024,07,07,15,00,AAXX 07154 41859 02430 70000 10297 20280 39997 40033 84520 333 58003 70098 84618 87458==
41859,2024,07,07,18,00,AAXX 07184 41859 02430 80000 10290 20280 30006 40043 8562/ 333 58011 70098 83710 84618 88458==
41859,2024,07,07,21,00,AAXX 07214 41859 02430 80000 10283 20270 30000 40037 8562/ 333 58011 70098 83710 84618 88458==
41859,2024,07,08,00,00,AAXX 08004 41859 02440 81301 10278 20270 39995 40032 8562/ 333 58001 70096 82710 84618 88458==
41859,2024,07,08,03,00,AAXX 08034 41859 02450 60000 10315 20270 30003 40039 84620 333 20273 59011 70096 82710 83618 86458==
41859,2024,07,08,06,00,AAXX 08064 41859 01450 62304 10334 20260 30002 40038 72162 84620 333 59005 70000 82710 83618 86458==
41859,2024,07,08,09,00,AAXX 08094 41859 42450 51802 10350 20260 39984 40021 84430 333 59003 82618 83828 85362==
41859,2024,07,08,12,00,AAXX 08124 41859 42450 51802 10330 20270 39979 40015 82530 333 10350 58001 82618 85362==
41859,2024,07,08,15,00,AAXX 08154 41859 42430 51802 10303 20260 39994 40030 82530 333 59003 82618 85362==
41859,2024,07,08,18,00,AAXX 08184 41859 42430 71302 10290 20270 30005 40042 84610 333 59001 82710 83618 87458==
41859,2024,07,08,21,00,AAXX 08214 41859 42430 81802 10286 20276 39996 40033 8562/ 333 59004 83710 84618 88458==
41859,2024,07,09,00,00,AAXX 09004 41859 42435 81302 10283 20260 30001 40038 8562/ 333 58006 83710 84618 88458==
41859,2024,07,09,03,00,AAXX 09034 41859 42450 61302 10315 20270 30017 40053 84620 333 20278 58014 83710 83618 86458==
41859,2024,07,09,06,00,AAXX 09064 41859 02450 61302 10336 20260 30016 40053 84620 333 58014 70000 82710 83618 86458==
41859,2024,07,09,09,00,AAXX 09094 41859 02450 80000 10300 20270 39997 40033 8562/ 333 58013 70000 82710 84618 88458==
41859,2024,07,09,12,00,AAXX 09124 41859 02450 50000 10317 20280 39984 40020 83470 333 10353 58005 70000 83618 85458==
41859,2024,07,09,15,00,AAXX 09154 41859 01330 81302 10283 20270 30003 40040 76166 8572/ 333 58009 70050 83709 85616 88457==
41859,2024,07,09,18,00,AAXX 09184 41859 01310 83602 10281 20280 30014 40051 79566 8592/ 333 58009 70076 83708 84612 88456 81930==
41859,2024,07,09,21,00,AAXX 09214 41859 01320 83602 10276 20275 30010 40047 76596 8572/ 333 58014 70326 83708 84614 88456==
41859,2024,07,10,00,00,AAXX 10004 41859 21440 82102 10280 20270 30006 40043 71796 8532/ 333 58005 60288 70354 83710 84618 88458 81930==
41859,2024,07,10,03,00,AAXX 10034 41859 01450 80000 10283 20270 30020 40057 76196 8572/ 333 20254 58003 70364 83710 84618 88458==
41859,2024,07,10,06,00,AAXX 10064 41859 01450 80000 10319 20270 30019 40055 70296 8562/ 333 58003 70374 83710 84618 88458==
41859,2024,07,10,09,00,AAXX 10094 41859 02450 80502 10318 20280 39992 40028 8552/ 333 59005 70374 85618 88458==
41859,2024,07,10,12,00,AAXX 10124 41859 02450 80501 10308 20280 39979 40015 8552/ 333 10330 59005 70374 85618 88458==
41859,2024,07,10,15,00,AAXX 10154 41859 02430 80000 10295 20290 30002 40038 8562/ 333 59001 70324 82710 84618 88458==
41859,2024,07,10,18,00,AAXX 10184 41859 01430 80000 10292 20280 39993 40030 72122 8562/ 333 59021 70000 82710 84618 88458==
41859,2024,07,10,21,00,AAXX 10214 41859 01330 80000 10286 20280 39989 40026 76122 8572/ 333 59021 70062 83709 84618 88458==
41859,2024,07,11,00,00,AAXX 11004 41859 21330 80000 10275 20275 39978 40015 76162 8572/ 333 59028 60067 70076 83709 84617 88457==
41859,2024,07,11,03,00,AAXX 11034 41859 01340 80000 10283 20280 39986 40023 76166 8572/ 333 20274 59034 70098 83708 84616 88457==
41859,2024,07,11,06,00,AAXX 11064 41859 21340 80000 10290 20280 39984 40021 76166 8572/ 333 59035 60149 70200 83708 84616 88457==
41859,2024,07,11,09,00,AAXX 11094 41859 01340 80000 10282 20280 39954 49991 76162 8672/ 333 59038 70228 84708 85616 88456==
41859,2024,07,11,12,00,AAXX 11124 41859 01440 80000 10284 20280 39940 49976 70262 8562/ 333 10293 59039 70248 83710 84618 88458==
41859,2024,07,11,15,00,AAXX 11154 41859 01330 80000 10283 20280 39969 40005 76162 8672/ 333 59033 70258 84708 85616 88456==
41859,2024,07,11,18,00,AAXX 11184 41859 21330 81302 10256 20256 39968 40005 76196 8672/ 333 59025 60177 70418 84708 85616 88456==
41859,2024,07,11,21,00,AAXX 11214 41859 01430 81302 10260 20260 39960 49997 70262 8562/ 333 59029 70418 83710 84618 88458==
41863,2024,07,05,00,00,AAXX 05004 41863 21450 80000 10274 20260 39966 40008 70296 8552/ 333 59017 60278 70356 85618 88458==
41863,2024,07,05,03,00,AAXX 05034 41863 02456 81302 10281 20270 39979 40021 8552/ 333 20266 59010 70324 85618 88458==
41863,2024,07,05,06,00,AAXX 05064 41863 02456 81302 10298 20280 39974 40016 8552/ 333 59009 70312 85618 88458==
41863,2024,07,05,09,00,AAXX 05094 41863 02450 83601 10311 20290 39950 49992 8552/ 333 59014 70308 85618 88458==
41863,2024,07,05,12,00,AAXX 05124 41863 21450 80903 10283 20270 39942 49984 70262 8552/ 333 10311 59011 60057 70354 85618 88458==
41863,2024,07,05,15,00,AAXX 05154 41863 01350 80901 10280 20270 39965 40007 76166 8572/ 333 59017 70364 83708 84616 88456==
41863,2024,07,05,18,00,AAXX 05184 41863 21340 81804 10265 20260 39965 40007 76166 8572/ 333 59014 60119 70422 83708 84616 88456==
41863,2024,07,05,21,00,AAXX 05214 41863 01340 81703 10265 20260 39955 49997 76166 8572/ 333 59007 70192 83707 84616 88456==
41863,2024,07,06,00,00,AAXX 06004 41863 21340 81803 10265 20260 39962 40004 76166 8572/ 333 59004 60079 70222 83707 84615 88456==
41863,2024,07,06,03,00,AAXX 06034 41863 01456 81301 10286 20280 39978 40020 70262 8552/ 333 20257 59001 70232 85618 88458==
41863,2024,07,06,06,00,AAXX 06064 41863 21456 81804 10301 20270 39978 40020 70262 8452/ 333 58004 60015 70232 84618 88458==
41863,2024,07,06,09,00,AAXX 06094 41863 02456 80000 10316 20270 39960 40002 8462/ 333 58010 70232 84618 88458==
41863,2024,07,06,12,00,AAXX 06124 41863 01350 80000 10270 20260 39965 40007 70296 8562/ 333 10316 58023 70210 82707 85614 88456==
41863,2024,07,06,15,00,AAXX 06154 41863 01340 80501 10271 20260 39983 40026 76166 8572/ 333 58018 70402 82707 85614 88456==
41863,2024,07,06,18,00,AAXX 06184 41863 21340 81301 10272 20260 39988 40031 70266 8562/ 333 58023 60058 70336 82707 85614 88456==
41863,2024,07,06,21,00,AAXX 06214 41863 02340 81301 10273 20260 39982 40025 8562/ 333 58027 70266 82707 85614 88456==
41863,2024,07,07,00,00,AAXX 07004 41863 02350 81301 10272 20270 39984 40027 8552/ 333 58022 70266 82707 85614 88456==
41863,2024,07,07,03,00,AAXX 07034 41863 02456 80902 10292 20270 30004 40046 8552/ 333 20265 58026 70256 85618 88458==
41863,2024,07,07,06,00,AAXX 07064 41863 02456 51303 10320 20260 30000 40042 83520 333 58022 70256 83618 85458==
41863,2024,07,07,09,00,AAXX 07094 41863 01356 80901 10295 20270 39981 40023 76122 8572/ 333 58021 70266 83708 85614 88456==
41863,2024,07,07,12,00,AAXX 07124 41863 21456 70000 10310 20260 39974 40016 70262 84520 333 10332 58009 60015 70056 84618 87458==
41863,2024,07,07,15,00,AAXX 07154 41863 02450 40000 10290 20280 39990 40032 82520 333 58007 70020 82618 84458==
41863,2024,07,07,18,00,AAXX 07184 41863 02450 40000 10288 20280 30000 40042 82520 333 58012 70010 82618 84458==
41863,2024,07,07,21,00,AAXX 07214 41863 02950 00000 10284 20270 39993 40035 333 58011 70010==
41863,2024,07,08,00,00,AAXX 08004 41863 02956 00000 10280 20260 39987 40029 333 58003 70010==
41863,2024,07,08,03,00,AAXX 08034 41863 02456 52303 10305 20270 39998 40040 83520 333 59006 70010 83618 85458==
41863,2024,07,08,06,00,AAXX 08064 41863 02457 51804 10337 20270 39997 40038 83520 333 59003 70010 83618 85458==
41863,2024,07,08,09,00,AAXX 08094 41863 02458 50902 10347 20260 39974 40015 85400 333 59007 70000 82618 83825==
41863,2024,07,08,12,00,AAXX 08124 41863 02458 41802 10335 20270 39969 40010 82530 333 10352 59005 70000 82618 83362==
41863,2024,07,08,15,00,AAXX 08154 41863 02/57 30000 10308 20270 39985 40027 83030 333 59005 70000 83362==
41863,2024,07,08,18,00,AAXX 08184 41863 02/57 31802 10302 20270 39996 40038 83030 333 59004 70000 83362==
41863,2024,07,08,21,00,AAXX 08214 41863 02/57 31802 10296 20270 39983 40025 83030 333 59010 70000 83362==
41863,2024,07,09,00,00,AAXX 09004 41863 02457 61802 10288 20270 39989 40031 83520 333 58002 70000 83618 86458==
41863,2024,07,09,03,00,AAXX 09034 41863 02457 61804 10305 20270 30008 40050 83520 333 20283 58010 70000 83618 86458==
41863,2024,07,09,06,00,AAXX 09064 41863 02457 51804 10340 20260 30009 40050 83520 333 58012 70000 83618 85458==
41863,2024,07,09,09,00,AAXX 09094 41863 02457 50902 10343 20250 39987 40028 85400 333 58013 70000 83618 85825==
41863,2024,07,09,12,00,AAXX 09124 41863 02457 51802 10336 20270 39973 40014 83530 333 10350 58004 70000 83618 85362==
41863,2024,07,09,15,00,AAXX 09154 41863 02456 80502 10303 20280 39996 40038 8662/ 333 58011 70000 83710 86618 88458==
41863,2024,07,09,18,00,AAXX 09184 41863 01456 80501 10280 20270 30001 40043 71792 8692/ 333 58005 70000 83710 85618 88458 81925==
41863,2024,07,09,21,00,AAXX 09214 41863 02456 80000 10284 20270 39994 40036 8552/ 333 58011 70000 85618 88458==
41863,2024,07,10,00,00,AAXX 10004 41863 02456 81802 10286 20280 39997 40039 8552/ 333 58008 70000 85618 88458==
41863,2024,07,10,03,00,AAXX 10034 41863 02456 80000 10290 20280 30011 40053 8552/ 333 20280 58003 70000 85618 88458==
41863,2024,07,10,06,00,AAXX 10064 41863 02456 60000 10313 20270 30015 40057 83520 333 58006 70000 83618 86458==
41863,2024,07,10,09,00,AAXX 10094 41863 02457 60000 10332 20260 39980 40022 83520 333 59007 70000 83618 86458==
41863,2024,07,10,12,00,AAXX 10124 41863 02457 50000 10320 20270 39971 40013 83530 333 10336 59002 70000 83618 84362==
41863,2024,07,10,15,00,AAXX 10154 41863 02457 60000 10302 20270 39994 40036 83520 333 59002 70000 83618 86458==
41863,2024,07,10,18,00,AAXX 10184 41863 01456 80000 10280 20270 39989 40031 79522 8592/ 333 59012 70100 83616 88458 82928==
41863,2024,07,10,21,00,AAXX 10214 41863 01450 80000 10275 20270 39974 40016 76122 8452/ 333 59020 70110 83616 88458 81928==
41863,2024,07,11,00,00,AAXX 11004 41863 21450 80000 10278 20270 39973 40015 70262 8452/ 333 59024 60035 70130 84616 88458==
41863,2024,07,11,03,00,AAXX 11034 41863 02450 80000 10289 20280 39980 40022 8452/ 333 20272 59031 70130 84618 88458==
41863,2024,07,11,06,00,AAXX 11064 41863 02350 80000 10306 20290 39973 40015 8562/ 333 59042 70130 83709 85618 88457==
41863,2024,07,11,09,00,AAXX 11094 41863 02350 81301 10310 20290 39945 49987 8562/ 333 59035 70130 83709 85618 88457==
41863,2024,07,11,12,00,AAXX 11124 41863 02456 81301 10310 20280 39930 49972 8552/ 333 10315 59041 70130 85618 88458==
41863,2024,07,11,15,00,AAXX 11154 41863 01350 81301 10262 20250 39963 40005 79596 8572/ 333 59031 70920 82707 85614 88456 81925==
41863,2024,07,11,18,00,AAXX 11184 41863 21340 81302 10265 20260 39959 40001 76196 8572/ 333 59030 60869 70887 82707 85614 88456==
41863,2024,07,11,21,00,AAXX 11214 41863 01340 81301 10266 20260 39943 49985 70262 8562/ 333 59031 70888 82707 85614 88456==
41881,2024,07,05,00,00,AAXX 05004 41881 32356 80902 10273 20260 39991 40011 8562/ 333 56299 59004 70145 83710 85615 88458=
41881,2024,07,05,06,00,AAXX 05064 41881 32356 80901 10306 20270 39996 40016 8562/ 333 56299 59007 70145 83710 85616 88458=
41881,2024,07,05,12,00,AAXX 05124 41881 11350 80901 10285 20280 39964 49984 60109 70262 8562/ 333 10310 56299 59008 70245 83710 85616 88458=
41881,2024,07,05,18,00,AAXX 05184 41881 11330 80902 10270 20250 39994 40014 60299 70262 8562/ 333 56299 59004 70393 83710 85615 88458=
41881,2024,07,06,00,00,AAXX 06004 41881 32350 80901 10270 20260 39988 40008 8562/ 333 56399 59003 70393 84710 85615 88458=
41881,2024,07,06,06,00,AAXX 06064 41881 32457 70902 10310 20260 39994 40014 84520 333 56290 59002 70393 84616 87459=
41881,2024,07,06,12,00,AAXX 06124 41881 11456 80902 10280 20260 39982 40002 60014 79596 8592/ 333 10320 56299 58018 70303 85615 82930 88458=
41881,2024,07,06,18,00,AAXX 06184 41881 32456 80902 10278 20270 30008 40028 8552/ 333 56299 58014 70010 85615 88458=
41881,2024,07,07,00,00,AAXX 07004 41881 32456 70902 10270 20260 30008 40028 84520 333 56990 58020 70010 84616 87459=
41881,2024,07,07,06,00,AAXX 07064 41881 32457 71201 10312 20260 30019 40038 84520 333 56990 58025 70010 84617 87459=
41881,2024,07,07,12,00,AAXX 07124 41881 32456 51001 10322 20260 39991 40011 83520 333 10345 56990 58009 70000 83617 85459=
41881,2024,07,07,18,00,AAXX 07184 41881 32950 00901 10290 20270 30022 40042 333 58014 70000=
41881,2024,07,08,00,00,AAXX 08004 41881 32456 71601 10276 20270 30013 40033 84520 333 56990 58005 70000 84617 87459=
41881,2024,07,08,06,00,AAXX 08064 41881 32457 61801 10315 20270 30027 40047 83520 333 56990 58008 70000 83617 86459=
41881,2024,07,08,12,00,AAXX 08124 41881 32456 50902 10325 20270 39996 40015 83520 333 10333 56990 58005 83617 85459=
41881,2024,07,08,18,00,AAXX 08184 41881 32950 01201 10290 20270 30021 40041 333 59001 70000=
41881,2024,07,09,00,00,AAXX 09004 41881 32456 61601 10278 20270 30015 40035 83520 333 56990 58002 70000 83617 86459=
41881,2024,07,09,06,00,AAXX 09064 41881 32458 31702 10330 20260 30027 40047 83400 333 56400 58000 70000 81618 83825=
41881,2024,07,09,12,00,AAXX 09124 41881 32458 41702 10325 20260 39998 40018 84400 333 10345 56400 58002 70000 82618 83825=
41881,2024,07,09,18,00,AAXX 09184 41881 32956 01205 10285 20270 30021 40041 333 58000 70000=
41881,2024,07,10,00,00,AAXX 10004 41881 32957 31702 10280 20260 30022 40042 82031 333 56099 58007 70000 82362 83082=
41881,2024,07,10,06,00,AAXX 10064 41881 32458 61803 10326 20260 30031 40051 83520 333 56990 58004 70000 83618 86459=
41881,2024,07,10,12,00,AAXX 10124 41881 32456 51802 10336 20260 39992 40012 83520 333 10350 56990 59006 70000 83617 85459=
41881,2024,07,10,18,00,AAXX 10184 41881 11440 71302 10286 20280 30009 40029 60025 70262 84520 333 56990 59012 70020 84616 87459=
41881,2024,07,11,00,00,AAXX 11004 41881 32356 81803 10286 20280 39996 40015 8562/ 333 56499 59026 70020 83710 85616 88458=
41881,2024,07,11,06,00,AAXX 11064 41881 32357 82701 10310 20280 39997 40017 8562/ 333 56499 59034 70020 83710 85616 88458=
41881,2024,07,11,12,00,AAXX 11124 41881 32456 73601 10320 20280 39952 49972 84520 333 10330 56990 59040 70020 84616 87459=
41881,2024,07,11,18,00,AAXX 11184 41881 11330 81301 10265 20260 39993 40013 60179 76166 8562/ 333 56499 59016 70170 83710 85615 88458=
41883,2024,07,05,00,00,AAXX 05004 41883 02340 81302 10270 20260 39993 40013 8562/ 333 59006 70078 85709 88458==
41883,2024,07,05,03,00,AAXX 05034 41883 02350 80000 10288 20270 30006 40026 8562/ 333 20267 59008 70078 85709 88458==
41883,2024,07,05,06,00,AAXX 05064 41883 02356 81802 10305 20280 39997 40017 8562/ 333 59023 70070 85709 88458==
41883,2024,07,05,09,00,AAXX 05094 41883 01350 80902 10280 20270 39980 40000 76196 8572/ 333 59008 70104 85709 88458==
41883,2024,07,05,12,00,AAXX 05124 41883 21340 81302 10286 20280 39970 49990 72196 8562/ 333 10310 59011 60059 70108 85709 88458==
41883,2024,07,05,15,00,AAXX 05154 41883 02430 81302 10284 20260 39993 40013 8452/ 333 59010 70098 84616 88456==
41883,2024,07,05,18,00,AAXX 05184 41883 02430 81302 10282 20260 39987 40007 8562/ 333 59018 70050 82710 84618 88458==
41883,2024,07,05,21,00,AAXX 05214 41883 01430 80000 10274 20250 39985 40005 70262 8562/ 333 59014 70070 82710 84618 88458==
41883,2024,07,06,00,00,AAXX 06004 41883 11440 81302 10272 20260 39990 40010 60026 70262 8562/ 333 59003 70070 82710 84618 88458==
41883,2024,07,06,03,00,AAXX 06034 41883 02450 80902 10294 20260 30001 40021 8452/ 333 20266 59005 70070 84618 88458==
41883,2024,07,06,06,00,AAXX 06064 41883 02450 81302 10324 20280 39999 40019 8452/ 333 58002 70070 84518 88458==
41883,2024,07,06,09,00,AAXX 06094 41883 02350 82302 10320 20270 39981 40001 8562/ 333 58001 70050 85709 88458==
41883,2024,07,06,12,00,AAXX 06124 41883 02440 81802 10292 20260 39983 40003 8552/ 333 10332 58013 70020 85615 88458==
41883,2024,07,06,15,00,AAXX 06154 41883 02430 80000 10288 20270 30004 40024 8552/ 333 58011 70020 85615 88458==
41883,2024,07,06,18,00,AAXX 06184 41883 02430 80000 10275 20260 30008 40028 8552/ 333 58021 70020 85615 88458==
41883,2024,07,06,21,00,AAXX 06214 41883 02430 80000 10275 20260 30005 40025 8552/ 333 58020 70000 85615 88458==
41883,2024,07,07,00,00,AAXX 07004 41883 02440 80000 10270 20260 30008 40028 8552/ 333 58018 70000 85615 88458==
41883,2024,07,07,03,00,AAXX 07034 41883 02450 80000 10300 20270 30026 40046 8552/ 333 20265 58025 70000 85615 88458==
41883,2024,07,07,06,00,AAXX 07064 41883 02450 80000 10315 20270 30020 40040 8552/ 333 58021 70000 85615 88458==
41883,2024,07,07,09,00,AAXX 07094 41883 02456 60000 10330 20270 30000 40020 83830 333 58019 70000 83828 86362 81919==
41883,2024,07,07,12,00,AAXX 07124 41883 02456 40000 10314 20260 39992 40012 82530 333 10342 58009 70000 82616 84362==
41883,2024,07,07,15,00,AAXX 07154 41883 02430 40000 10300 20270 30010 40030 82530 333 58006 70000 82616 84362==
41883,2024,07,07,18,00,AAXX 07184 41883 02430 80000 10290 20280 30026 40046 8552/ 333 58018 70000 85616 88459==
41883,2024,07,07,21,00,AAXX 07214 41883 02430 80000 10290 20280 30021 40041 8552/ 333 58016 70000 85616 88459==
41883,2024,07,08,00,00,AAXX 08004 41883 02440 80000 10282 20270 30011 40032 8552/ 333 58003 70000 85616 88459==
41883,2024,07,08,03,00,AAXX 08034 41883 02450 81302 10300 20280 30022 40042 8452/ 333 20275 59004 70000 84618 88458==
41883,2024,07,08,06,00,AAXX 08064 41883 02450 81802 10322 20270 30026 40046 8452/ 333 58006 70000 84618 88458==
41883,2024,07,08,09,00,AAXX 08094 41883 02456 62702 10335 20260 30005 40025 82530 333 58005 70000 82616 84362==
41883,2024,07,08,12,00,AAXX 08124 41883 02/56 40904 10320 20260 39996 40016 84030 333 10340 58004 70000 84362==
41883,2024,07,08,15,00,AAXX 08154 41883 02930 01302 10300 20270 30014 40034 333 58004 70000==
41883,2024,07,08,18,00,AAXX 08184 41883 02930 00904 10290 20270 30025 40045 333 59001 70000==
41883,2024,07,08,21,00,AAXX 08214 41883 02430 60000 10284 20260 30020 40040 83520 333 59001 70000 83616 86459==
41883,2024,07,09,00,00,AAXX 09004 41883 02450 60902 10280 20270 30021 40041 82530 333 58010 70000 82616 86362==
41883,2024,07,09,03,00,AAXX 09034 41883 02456 51302 10306 20270 30033 40053 83830 333 20275 58011 70000 83616 85362==
41883,2024,07,09,06,00,AAXX 09064 41883 02456 51802 10330 20260 30031 40051 83830 333 58005 70000 83616 85362==
41883,2024,07,09,09,00,AAXX 09094 41883 02456 81802 10336 20270 30011 40031 8442/ 333 58006 70000 83618 88458==
41883,2024,07,09,12,00,AAXX 09124 41883 21450 60000 10316 20270 30002 40022 70262 83510 333 10345 58006 69947 70004 83618 86458==
41883,2024,07,09,15,00,AAXX 09154 41883 02930 00902 10300 20270 30020 40040 333 58006 70004==
41883,2024,07,09,18,00,AAXX 09184 41883 02930 00902 10294 20260 30024 40044 333 59001 70004==
41883,2024,07,09,21,00,AAXX 09214 41883 02930 00902 10288 20270 30019 40039 333 59001 70004==
41883,2024,07,10,00,00,AAXX 10004 41883 02450 61302 10285 20270 30026 40046 83510 333 58005 70004 83616 86459==
41883,2024,07,10,03,00,AAXX 10034 41883 02456 71302 10300 20270 30038 40058 84520 333 20280 58005 70004 84616 87459==
41883,2024,07,10,06,00,AAXX 10064 41883 02456 61802 10330 20260 30033 40053 83510 333 70004 83616 86459==
41883,2024,07,10,09,00,AAXX 10094 41883 02456 51802 10348 20260 30010 40030 83830 333 59001 70004 83616 85362==
41883,2024,07,10,12,00,AAXX 10124 41883 02450 51802 10330 20270 39995 40015 83830 333 10352 59007 70000 83616 85362==
41883,2024,07,10,15,00,AAXX 10154 41883 02430 40000 10314 20270 30016 40036 82520 333 59004 70000 82618 84458==
41883,2024,07,10,18,00,AAXX 10184 41883 02430 40000 10300 20280 30015 40035 82520 333 59009 70000 82618 84458==
41883,2024,07,10,21,00,AAXX 10214 41883 02430 21802 10294 20260 39999 40019 82500 333 59020 70000 82618==
41883,2024,07,11,00,00,AAXX 11004 41883 02450 81804 10292 20260 39997 40017 8452/ 333 59029 70000 84618 88458==
41883,2024,07,11,03,00,AAXX 11034 41883 02456 81302 10298 20270 30007 40027 8552/ 333 20285 59031 70000 85616 88459==
41883,2024,07,11,06,00,AAXX 11064 41883 02456 81302 10320 20270 39997 40017 8552/ 333 59036 70000 85615 88458==
41883,2024,07,11,09,00,AAXX 11094 41883 02456 80000 10335 20280 39967 49986 8552/ 333 59043 70000 85616 88459==
41883,2024,07,11,12,00,AAXX 11124 41883 21450 80000 10290 20280 39952 49972 72996 8552/ 333 10344 59043 69928 70002 85616 88458==
41883,2024,07,11,15,00,AAXX 11154 41883 01330 81802 10275 20270 39990 40010 79596 8592/ 333 59026 70312 85709 88458 81930==
41883,2024,07,11,18,00,AAXX 11184 41883 21330 80000 10270 20260 39996 40016 76396 8572/ 333 59019 60639 70636 85709 88458==
41883,2024,07,11,21,00,AAXX 11214 41883 01330 80000 10264 20250 39991 40011 76166 8572/ 333 59008 70716 85709 88458==
41886,2024,07,05,00,00,AAXX 05004 41886 02440 81802 10275 20270 30008 40029 8462/ 333 58000 70020 82710 84615 88460==
41886,2024,07,05,03,00,AAXX 05034 41886 01450 81804 10281 20260 30018 40039 76162 8572/ 333 20273 59010 70038 82710 84615 88458==
41886,2024,07,05,06,00,AAXX 05064 41886 21350 80000 10267 20260 30012 40033 76396 8672/ 333 59010 60289 70288 83709 84614 88456==
41886,2024,07,05,09,00,AAXX 05094 41886 01350 80000 10280 20260 39994 40015 76166 8562/ 333 59006 70324 82710 83616 88458==
41886,2024,07,05,12,00,AAXX 05124 41886 01450 80000 10288 20280 39982 40002 70262 8352/ 333 10290 59013 70050 83618 88460==
41886,2024,07,05,15,00,AAXX 05154 41886 02450 80000 10280 20260 30009 40030 8352/ 333 59009 70324 83616 88458==
41886,2024,07,05,18,00,AAXX 05184 41886 02450 80000 10278 20270 30008 40029 8352/ 333 59010 70324 83616 88458==
41886,2024,07,05,21,00,AAXX 05214 41886 02450 80000 10270 20260 30002 40023 8352/ 333 58000 70324 83616 88458==
41886,2024,07,06,00,00,AAXX 06004 41886 02450 80000 10266 20260 30001 40022 8352/ 333 59007 70324 83618 88460==
41886,2024,07,06,03,00,AAXX 06034 41886 02450 80000 10287 20260 30015 40035 8352/ 333 20264 59003 70296 83618 88460==
41886,2024,07,06,06,00,AAXX 06064 41886 02456 61302 10315 20270 30010 40030 84470 333 59002 70046 83618 85460==
41886,2024,07,06,09,00,AAXX 06094 41886 01450 80000 10288 20280 39994 40014 70262 8432/ 333 58000 70158 83616 88458 81930==
41886,2024,07,06,12,00,AAXX 06124 41886 01340 80000 10277 20270 39990 40010 79566 8632/ 333 10327 58008 70188 83710 83616 88458 81930==
41886,2024,07,06,15,00,AAXX 06154 41886 01450 80000 10275 20270 30022 40042 71796 8532/ 333 58013 70208 83616 88458 81930==
41886,2024,07,06,18,00,AAXX 06184 41886 11450 70000 10270 20270 30016 40036 60026 70196 83510 333 58008 70208 83618 87460==
41886,2024,07,06,21,00,AAXX 06214 41886 02450 80000 10271 20270 30013 40033 8351/ 333 58011 70208 83618 88460==
41886,2024,07,07,00,00,AAXX 07004 41886 02450 80000 10273 20270 30015 40035 8351/ 333 58014 70208 83618 88460==
41886,2024,07,07,03,00,AAXX 07034 41886 02456 70000 10300 20270 30033 40053 83570 333 20270 58018 70208 83618 87460==
41886,2024,07,07,06,00,AAXX 07064 41886 02456 81304 10320 20260 30027 40047 8452/ 333 58017 70208 84616 88458==
41886,2024,07,07,09,00,AAXX 07094 41886 02456 70000 10310 20270 30010 40030 85570 333 58016 70050 85616 84460==
41886,2024,07,07,12,00,AAXX 07124 41886 02456 70000 10298 20270 30002 40022 82570 333 10327 58012 70020 82618 84460 85362==
41886,2024,07,07,15,00,AAXX 07154 41886 02450 70000 10288 20270 30017 40037 84570 333 59005 70000 84617 86460==
41886,2024,07,07,18,00,AAXX 07184 41886 02450 70000 10290 20280 30034 40054 84570 333 58018 70000 84616 86460==
41886,2024,07,07,21,00,AAXX 07214 41886 02450 80000 10284 20270 30030 40050 8552/ 333 58017 70000 85616 88458==
41886,2024,07,08,00,00,AAXX 08004 41886 02450 80000 10280 20270 30023 40043 8552/ 333 58008 70000 85616 88458==
41886,2024,07,08,03,00,AAXX 08034 41886 41450 80000 10285 20280 30034 40054 79596 8532/ 333 20275 58001 85616 88458 81930==
41886,2024,07,08,06,00,AAXX 08064 41886 21456 80000 10300 20280 30035 40055 70296 8452/ 333 58008 60029 70018 84616 88458==
41886,2024,07,08,09,00,AAXX 08094 41886 01450 80000 10280 20270 30019 40039 79522 8592/ 333 58009 70058 84616 88458 81930==
41886,2024,07,08,12,00,AAXX 08124 41886 21456 80000 10290 20280 30007 40027 72996 8531/ 333 10313 58005 60329 70340 83616 88458 81930==
41886,2024,07,08,15,00,AAXX 08154 41886 02450 60000 10270 20250 30028 40048 84470 333 58011 70340 83618 85460==
41886,2024,07,08,18,00,AAXX 08184 41886 02440 60000 10280 20260 30032 40053 84470 333 59002 70340 83618 85460==
41886,2024,07,08,21,00,AAXX 08214 41886 02/40 50000 10276 20270 30030 40051 85070 333 58000 70340 84365==
41886,2024,07,09,00,00,AAXX 09004 41886 02/56 50000 10274 20260 30030 40051 85070 333 58007 70340 84365==
41886,2024,07,09,03,00,AAXX 09034 41886 02456 71802 10300 20270 30040 40060 83570 333 20268 58006 70340 83618 87460==
41886,2024,07,09,06,00,AAXX 09064 41886 01456 81802 10308 20280 30037 40057 76122 8452/ 333 58002 70001 84616 88458==
41886,2024,07,09,09,00,AAXX 09094 41886 01456 80000 10305 20280 30024 40044 70292 8432/ 333 58005 70283 84616 88458 81930==
41886,2024,07,09,12,00,AAXX 09124 41886 01330 81806 10283 20260 30018 40038 79522 8632/ 333 10321 58011 70020 84709 85615 88457 81930==
41886,2024,07,09,15,00,AAXX 09154 41886 01450 80000 10285 20280 30032 40052 70296 8351/ 333 58004 70043 83618 88460==
41886,2024,07,09,18,00,AAXX 09184 41886 11450 80000 10275 20270 30039 40060 60036 70296 8452/ 333 58007 70043 84616 88458==
41886,2024,07,09,21,00,AAXX 09214 41886 02450 80000 10275 20270 30037 40058 8452/ 333 58007 70043 84616 88458==
41886,2024,07,10,00,00,AAXX 10004 41886 02456 70000 10275 20270 30035 40056 83520 333 58005 70043 83618 87460==
41886,2024,07,10,03,00,AAXX 10034 41886 02456 70000 10295 20280 30048 40068 83510 333 20275 58008 70043 83618 87460==
41886,2024,07,10,06,00,AAXX 10064 41886 02457 60000 10330 20270 30040 40060 84430 333 58003 70042 82618 83825 86363==
41886,2024,07,10,09,00,AAXX 10094 41886 02456 80000 10325 20280 30013 40033 8452/ 333 59011 70042 84617 88462==
41886,2024,07,10,12,00,AAXX 10124 41886 01450 80000 10284 20260 30006 40027 79622 8531/ 333 10338 59012 70100 82710 84615 88460 81928==
41886,2024,07,10,15,00,AAXX 10154 41886 02440 40000 10276 20270 30029 40050 82510 333 59003 70102 82617 83462==
41886,2024,07,10,18,00,AAXX 10184 41886 02440 40000 10272 20260 30024 40045 82520 333 59015 70102 82617 83462==
41886,2024,07,10,21,00,AAXX 10214 41886 02440 80000 10277 20260 30014 40035 8452/ 333 59023 70102 84616 88460==
41886,2024,07,11,00,00,AAXX 11004 41886 02440 81802 10283 20260 30009 40030 8662/ 333 59026 70102 83710 84615 88458==
41886,2024,07,11,03,00,AAXX 11034 41886 02450 80000 10293 20270 30016 40036 8452/ 333 20270 59032 70102 84616 88460==
41886,2024,07,11,06,00,AAXX 11064 41886 02450 81802 10310 20270 30005 40025 8452/ 333 59035 70102 84616 88460==
41886,2024,07,11,09,00,AAXX 11094 41886 02456 61802 10334 20270 39977 49997 84470 333 59036 70102 83618 85460==
41886,2024,07,11,12,00,AAXX 11124 41886 02450 80000 10285 20270 39973 49994 8352/ 333 10335 59033 70000 83618 88460==
41886,2024,07,11,15,00,AAXX 11154 41886 01350 80000 10280 20270 39998 40019 76362 8562/ 333 59031 70220 82710 83616 88458==
41886,2024,07,11,18,00,AAXX 11184 41886 21340 80000 10278 20270 30000 40021 76166 8562/ 333 59024 60309 70300 82710 83616 88458==
41886,2024,07,11,21,00,AAXX 11214 41886 01340 80000 10270 20260 39997 40018 76166 8562/ 333 59017 70400 82710 83616 88458==
41888,2024,07,05,00,00,AAXX 05004 41888 32450 81801 10275 20260 30017 40027 8252/ 333 56999 58003 70010 82618 88460=
41888,2024,07,05,06,00,AAXX 05064 41888 32456 81803 10285 20270 30022 40032 8452/ 333 56999 59009 70010 84618 88460=
41888,2024,07,05,12,00,AAXX 05124 41888 32457 81001 10290 20270 39990 40000 8251/ 333 10299 56999 59016 70000 82618 88460=
41888,2024,07,05,18,00,AAXX 05184 41888 11450 81802 10275 20260 30016 40026 69955 70262 8252/ 333 56999 59010 70005 82618 88460=
41888,2024,07,06,00,00,AAXX 06004 41888 11450 81802 10270 20260 30010 40020 69975 70262 8352/ 333 56999 59007 70012 83618 88460=
41888,2024,07,06,06,00,AAXX 06064 41888 32456 80902 10300 20260 30020 40030 8252/ 333 56999 59002 70012 82618 88460=
41888,2024,07,06,12,00,AAXX 06124 41888 11456 81203 10294 20270 39993 40003 60038 70262 8532/ 333 10310 56399 58003 70041 81710 83616 81929 88459=
41888,2024,07,06,18,00,AAXX 06184 41888 11440 80902 10270 20260 30024 40034 60073 70262 8252/ 333 56999 58008 70088 82618 88460=
41888,2024,07,07,00,00,AAXX 07004 41888 11450 60901 10270 20260 30026 40036 60025 70162 82501 333 56909 58016 70120 82618 86080=
41888,2024,07,07,06,00,AAXX 07064 41888 32457 50903 10310 20260 30035 40046 84410 333 56990 58015 70120 83618 85460=
41888,2024,07,07,12,00,AAXX 07124 41888 32958 30501 10315 20250 30007 40017 80001 333 10325 56009 58014 70091 83080=
41888,2024,07,07,18,00,AAXX 07184 41888 32450 82702 10292 20280 30034 40044 8251/ 333 56999 58010 70025 82618 88460=
41888,2024,07,08,00,00,AAXX 08004 41888 32450 80702 10275 20270 30029 40039 8452/ 333 56999 58003 70000 84618 88460=
41888,2024,07,08,06,00,AAXX 08064 41888 11456 80902 10290 20270 30041 40051 60238 70296 8352/ 333 56999 58006 70234 83618 88460=
41888,2024,07,08,12,00,AAXX 08124 41888 32456 60901 10295 20260 30015 40025 82510 333 10310 56990 58008 70034 82618 86460=
41888,2024,07,08,18,00,AAXX 08184 41888 32450 00901 10286 20270 30033 40043 333 58005 70234=
41888,2024,07,09,00,00,AAXX 09004 41888 32956 60901 10280 20260 30037 40047 86030 333 56090 58008 70234 86365=
41888,2024,07,09,06,00,AAXX 09064 41888 11456 80901 10295 20270 30050 40060 69982 76062 8432/ 333 56999 58009 70008 83616 88460=
41888,2024,07,09,12,00,AAXX 09124 41888 11458 81801 10290 20280 30024 40034 60213 70362 8251/ 333 56999 58009 70223 82618 88460=
41888,2024,07,09,18,00,AAXX 09184 41888 32450 81801 10282 20260 30048 40058 8251/ 333 56999 58009 70223 82618 88460=
41888,2024,07,10,00,00,AAXX 10004 41888 32450 80901 10275 20270 30045 40055 8252/ 333 56999 58008 70223 82618 88460=
41888,2024,07,10,06,00,AAXX 10064 41888 32457 72303 10322 20250 30047 40057 83410 333 56990 59003 70215 82618 87460=
41888,2024,07,10,12,00,AAXX 10124 41888 11456 82302 10295 20250 30016 40026 60053 71762 8532/ 333 10336 56999 59008 70045 84618 81930 88460=
41888,2024,07,10,18,00,AAXX 10184 41888 NIL=
41888,2024,07,11,00,00,AAXX 11004 41888 11450 81801 10278 20270 30019 40029 69954 76122 8432/ 333 56999 59026 70055 83616 81930 88460=
41888,2024,07,11,06,00,AAXX 11064 41888 11458 61802 10315 20280 30012 40022 69966 70162 82510 333 56990 59035 70061 82618 86460=
41888,2024,07,11,12,00,AAXX 11124 41888 11420 81401 10270 20270 39989 49999 60544 79462 8532/ 333 10328 56399 59027 70551 82710 84615 81929 88457=
41888,2024,07,11,18,00,AAXX 11184 41888 11456 80000 10270 20260 30007 40017 60169 72196 8532/ 333 56999 59020 70710 81710 84616 81930 88457=
41891,2024,07,05,00,00,AAXX 05004 41891 21330 81804 10262 20250 39999 40037 76162 8632/ 333 59004 60019 70256 85708 88456 81926==
41891,2024,07,05,03,00,AAXX 05034 41891 01325 81504 10270 20250 30009 40047 76166 8632/ 333 20260 59009 70260 86708 88457 81925==
41891,2024,07,05,06,00,AAXX 05064 41891 21325 81503 10287 20260 30004 40042 76166 8632/ 333 59011 60029 70270 86708 88457 81926==
41891,2024,07,05,09,00,AAXX 05094 41891 01330 81804 10296 20260 39982 40020 76166 8632/ 333 59006 70291 86708 88458 81930==
41891,2024,07,05,12,00,AAXX 05124 41891 01335 83603 10285 20260 39971 40009 76166 8532/ 333 10302 58013 70053 85710 88459 81930==
41891,2024,07,05,15,00,AAXX 05154 41891 01430 81804 10270 20260 39994 40032 72166 8532/ 333 59018 70215 82710 84615 88458 81930==
41891,2024,07,05,18,00,AAXX 05184 41891 01430 81504 10265 20260 39998 40036 72162 8532/ 333 59010 70221 82710 84615 88458 81930==
41891,2024,07,05,21,00,AAXX 05214 41891 01430 81504 10264 20250 39989 40027 70522 8532/ 333 59002 70211 82710 84615 88458 81930==
41891,2024,07,06,00,00,AAXX 06004 41891 11430 80904 10264 20250 39994 40032 69942 72122 8532/ 333 59005 70215 82710 84615 88458 81930==
41891,2024,07,06,03,00,AAXX 06034 41891 01430 80804 10282 20260 30004 40042 70562 8532/ 333 20259 59005 70215 84708 88456 81926==
41891,2024,07,06,06,00,AAXX 06064 41891 11440 83606 10305 20270 30001 40039 60016 70562 8532/ 333 59003 70205 84710 88458 81928==
41891,2024,07,06,09,00,AAXX 06094 41891 01445 83002 10302 20270 39979 40017 70522 8532/ 333 59003 70184 82710 84616 88458 81930==
41891,2024,07,06,12,00,AAXX 06124 41891 01440 81802 10300 20270 39974 40012 72161 8532/ 333 10320 58003 70010 82710 84616 88458 81930==
41891,2024,07,06,15,00,AAXX 06154 41891 01430 81602 10277 20260 39989 40028 76162 8532/ 333 59005 70067 84710 88458 81930==
41891,2024,07,06,18,00,AAXX 06184 41891 21430 80903 10278 20260 39999 40038 70562 8552/ 333 58001 60048 70063 85617 88458==
41891,2024,07,06,21,00,AAXX 06214 41891 01430 80902 10275 20270 39999 40037 70522 8552/ 333 58010 70063 85617 88458==
41891,2024,07,07,00,00,AAXX 07004 41891 01440 81005 10265 20260 39999 40037 70522 8552/ 333 58005 70059 85617 88458==
41891,2024,07,07,03,00,AAXX 07034 41891 01440 81204 10290 20260 30018 40056 70522 8532/ 333 20261 58014 70049 82710 84615 88458 81930==
41891,2024,07,07,06,00,AAXX 07064 41891 01450 80904 10320 20260 30012 40049 70522 83340 333 58011 70049 83615 85365 81930==
41891,2024,07,07,09,00,AAXX 07094 41891 01450 61502 10330 20250 39989 40026 70522 83340 333 58010 70049 83615 85365 81930==
41891,2024,07,07,12,00,AAXX 07124 41891 01440 71204 10313 20260 39984 40022 70522 84310 333 10337 58010 70037 83616 87459 81930==
41891,2024,07,07,15,00,AAXX 07154 41891 01430 60902 10290 20280 30000 40038 70522 83340 333 58011 70002 83616 85365 81930==
41891,2024,07,07,18,00,AAXX 07184 41891 01430 60000 10290 20270 30010 40048 70522 83330 333 58011 70000 83615 85365 81930==
41891,2024,07,07,21,00,AAXX 07214 41891 01320 82704 10270 20250 30009 40047 76162 8632/ 333 58010 70100 86707 88457 81925==
41891,2024,07,08,00,00,AAXX 08004 41891 21320 82708 10265 20260 30008 40046 76166 8632/ 333 58009 60179 70165 86708 88457 81925==
41891,2024,07,08,03,00,AAXX 08034 41891 01320 80804 10255 20250 30018 40056 76166 8632/ 333 20252 58000 70395 86708 88457 81925==
41891,2024,07,08,06,00,AAXX 08064 41891 21330 80204 10285 20270 30014 40052 76166 8632/ 333 58003 60259 70415 86708 88457 81925==
41891,2024,07,08,09,00,AAXX 08094 41891 01430 80303 10297 20270 39997 40035 70562 8532/ 333 58008 70417 82710 84615 88458 81930==
41891,2024,07,08,12,00,AAXX 08124 41891 01440 60604 10290 20270 39993 40031 70562 83340 333 10308 58009 70445 83615 85365 81930==
41891,2024,07,08,15,00,AAXX 08154 41891 01430 80000 10280 20270 30006 40044 70522 8532/ 333 58006 70445 81710 84615 88460 81930==
41891,2024,07,08,18,00,AAXX 08184 41891 01430 82704 10280 20270 30018 40056 70522 8532/ 333 58008 70445 82710 83616 88458 81930==
41891,2024,07,08,21,00,AAXX 08214 41891 01430 82704 10275 20270 30015 40053 70522 8532/ 333 58006 70345 82710 83616 88458 81930==
41891,2024,07,09,00,00,AAXX 09004 41891 01430 82704 10270 20260 30015 40053 70522 8532/ 333 58007 70280 82710 83616 88458 81930==
41891,2024,07,09,03,00,AAXX 09034 41891 01440 61905 10310 20260 30024 40062 70522 84340 333 20258 58006 70050 84615 85365 81930==
41891,2024,07,09,06,00,AAXX 09064 41891 01440 72004 10320 20260 30018 40055 70522 85340 333 58004 70030 84615 85365 81930==
41891,2024,07,09,09,00,AAXX 09094 41891 01440 72404 10318 20260 30010 40047 70522 84340 333 58013 70028 84615 85365 81930==
41891,2024,07,09,12,00,AAXX 09124 41891 01320 82702 10275 20270 30002 40040 76162 8632/ 333 10325 58009 70290 86707 88457 81925==
41891,2024,07,09,15,00,AAXX 09154 41891 01320 82104 10270 20270 30020 40058 76166 8632/ 333 58014 70464 86707 88457 81925==
41891,2024,07,09,18,00,AAXX 09184 41891 21320 82404 10270 20260 30024 40062 76162 8632/ 333 58000 60199 70480 86708 88457 81925==
41891,2024,07,09,21,00,AAXX 09214 41891 01430 82104 10270 20260 30026 40064 70562 8532/ 333 58011 70482 82710 84615 88458 81930==
41891,2024,07,10,00,00,AAXX 10004 41891 11430 81804 10272 20250 30027 40065 69921 70562 8532/ 333 58012 70482 82710 84615 88458 81930==
41891,2024,07,10,03,00,AAXX 10034 41891 01440 81802 10278 20260 30033 40071 70522 8532/ 333 20268 58009 70482 82710 84615 88458 81930==
41891,2024,07,10,06,00,AAXX 10064 41891 01445 81802 10299 20270 30025 40063 70562 8532/ 333 58007 70020 82710 84615 88458 81930==
41891,2024,07,10,09,00,AAXX 10094 41891 01330 82702 10290 20280 30023 40061 76162 8632/ 333 58013 70678 86708 88458 81925==
41891,2024,07,10,12,00,AAXX 10124 41891 21320 83604 10260 20260 39997 40035 79596 8632/ 333 10310 59005 60689 70888 85708 88456 81925==
41891,2024,07,10,15,00,AAXX 10154 41891 01320 81004 10260 20250 30017 40055 76196 8632/ 333 59003 71114 86708 88458 81925==
41891,2024,07,10,18,00,AAXX 10184 41891 21320 81904 10260 20250 30006 40044 76166 8632/ 333 59018 60419 71108 86708 88458 81925==
41891,2024,07,10,21,00,AAXX 10214 41891 01320 81802 10259 20250 30004 40042 76166 8632/ 333 59022 71116 86708 88458 81925==
41891,2024,07,11,00,00,AAXX 11004 41891 21320 82004 10258 20258 30001 40039 76166 8632/ 333 59026 60039 71136 86708 88458 81925==
41891,2024,07,11,03,00,AAXX 11034 41891 01330 82504 10275 20260 30008 40046 76166 8632/ 333 20255 59025 71166 86708 88458 81925==
41891,2024,07,11,06,00,AAXX 11064 41891 01320 80904 10305 20280 39994 40032 76162 8632/ 333 59031 71156 86708 88458 81925==
41891,2024,07,11,09,00,AAXX 11094 41891 01440 82705 10317 20270 39986 40023 70562 8532/ 333 59025 71056 82710 84615 88458 81930==
41891,2024,07,11,12,00,AAXX 11124 41891 01440 80905 10292 20270 39963 40001 70522 8532/ 333 10322 59034 70556 82710 84615 88458 81930==
41891,2024,07,11,15,00,AAXX 11154 41891 01430 60902 10285 20280 39980 40018 70522 83330 333 59037 70156 83615 88365 81930==
41891,2024,07,11,18,00,AAXX 11184 41891 01430 80903 10280 20260 39986 40024 70522 8532/ 333 59020 70146 82710 84615 88458 81930==
41891,2024,07,11,21,00,AAXX 11214 41891 01430 80902 10270 20250 39981 40019 70522 8532/ 333 59023 70136 82710 84615 88458 81930==
41895,2024,07,05,00,00,AAXX 05004 41895 02456 81803 10278 20278 39990 40012 8452/ 333 59001 70114 84616 88458==
41895,2024,07,05,03,00,AAXX 05034 41895 02457 81802 10300 20260 30000 40022 8452/ 333 20273 59009 70114 83616 88458==
41895,2024,07,05,06,00,AAXX 05064 41895 02458 61803 10320 20270 39992 40014 84470 333 59013 70032 83616 85458==
41895,2024,07,05,09,00,AAXX 05094 41895 02458 80000 10314 20280 39973 49994 8532/ 333 59009 70000 84615 88458 81930==
41895,2024,07,05,12,00,AAXX 05124 41895 02450 80902 10305 20290 39961 49983 8452/ 333 10328 59019 70000 84615 88458==
41895,2024,07,05,15,00,AAXX 05154 41895 01450 80903 10292 20280 39985 40007 76122 8532/ 333 59017 70002 87615 88458==
41895,2024,07,05,18,00,AAXX 05184 41895 21450 80903 10264 20250 39987 40009 76196 8532/ 333 58021 60659 70646 84615 88458 81930==
41895,2024,07,05,21,00,AAXX 05214 41895 02450 80000 10270 20270 39974 49996 8442/ 333 59020 70646 84615 88458==
41895,2024,07,06,00,00,AAXX 06004 41895 01450 80903 10277 20277 39985 40007 70522 8452/ 333 59005 70646 84616 88458==
41895,2024,07,06,03,00,AAXX 06034 41895 42457 71302 10300 20280 39996 40018 84570 333 20258 59004 84615 84458==
41895,2024,07,06,06,00,AAXX 06064 41895 01458 71803 10330 20290 39992 40013 72162 84570 333 58000 70651 84615 85458==
41895,2024,07,06,09,00,AAXX 06094 41895 02458 80902 10319 20300 39982 40003 8532/ 333 58009 70651 84615 88458 81930==
41895,2024,07,06,12,00,AAXX 06124 41895 02450 81301 10286 20270 39980 40002 8452/ 333 10334 58019 70651 84615 88458==
41895,2024,07,06,15,00,AAXX 06154 41895 02450 81301 10278 20270 39998 40020 8452/ 333 58013 70649 84615 88458==
41895,2024,07,06,18,00,AAXX 06184 41895 02450 61302 10272 20260 30003 40025 83520 333 58016 70005 83616 86458==
41895,2024,07,06,21,00,AAXX 06214 41895 02450 60902 10270 20260 30006 40028 83520 333 58032 70005 83616 86458==
41895,2024,07,07,00,00,AAXX 07004 41895 02450 80501 10272 20260 30005 40027 8452/ 333 58020 70005 84615 88458==
41895,2024,07,07,03,00,AAXX 07034 41895 02456 61303 10300 20270 30023 40045 83510 333 20268 58027 70005 83616 86458==
41895,2024,07,07,06,00,AAXX 07064 41895 02456 41802 10338 20270 30016 40038 84800 333 58024 70000 82616 83825==
41895,2024,07,07,09,00,AAXX 07094 41895 02557 31802 10357 20270 39996 40018 83200 333 58014 70000 83825==
41895,2024,07,07,12,00,AAXX 07124 41895 02556 31802 10333 20270 39992 40013 83200 333 10364 58012 70000 83825==
41895,2024,07,07,15,00,AAXX 07154 41895 02950 01802 10290 20270 30013 40035 333 58015 70000==
41895,2024,07,07,18,00,AAXX 07184 41895 02950 40000 10282 20270 30024 40043 84500 333 58018 70000 84616==
41895,2024,07,07,21,00,AAXX 07214 41895 02450 41802 10281 20270 30019 40041 84500 333 58013 70000 84616==
41895,2024,07,08,00,00,AAXX 08004 41895 02456 61403 10279 20270 30016 40038 84520 333 58011 70000 84616 86458==
41895,2024,07,08,03,00,AAXX 08034 41895 02457 51803 10320 20270 30021 40043 83401 333 20275 59002 70000 82616 83074==
41895,2024,07,08,06,00,AAXX 08064 41895 02457 51302 10344 20260 30021 40043 84401 333 58005 70000 82616 83820==
41895,2024,07,08,09,00,AAXX 08094 41895 02457 51802 10352 20260 30001 40023 83401 333 58005 70000 82616 84074==
41895,2024,07,08,12,00,AAXX 08124 41895 02457 51802 10335 20270 39992 40014 83401 333 10368 58000 70000 82616 83074==
41895,2024,07,08,15,00,AAXX 08154 41895 02450 50902 10297 20280 30009 40031 83401 333 59004 70000 82616 83074==
41895,2024,07,08,18,00,AAXX 08184 41895 02450 50502 10290 20280 30018 40040 83401 333 59003 70000 82616 83074==
41895,2024,07,08,21,00,AAXX 08214 41895 02450 70903 10286 20280 30011 40033 84570 333 59008 70000 84615 85458==
41895,2024,07,09,00,00,AAXX 09004 41895 02450 82702 10277 20270 30014 40037 8452/ 333 59002 70000 84615 88458==
41895,2024,07,09,03,00,AAXX 09034 41895 02457 71803 10320 20270 30030 40052 84430 333 20275 58009 70000 82616 83820 85362==
41895,2024,07,09,06,00,AAXX 09064 41895 01440 82503 10300 20280 30030 40052 76122 8532/ 333 58009 70080 84615 88458 81930==
41895,2024,07,09,09,00,AAXX 09094 41895 01458 60902 10339 20290 30009 40030 70162 84430 333 58008 70136 82615 83820 85362==
41895,2024,07,09,12,00,AAXX 09124 41895 11457 61802 10330 20280 39998 40020 60066 70262 84430 333 10353 58006 70136 82615 83820 85362==
41895,2024,07,09,15,00,AAXX 09154 41895 02450 61801 10298 20280 30020 40042 84520 333 58011 70136 84616 86458==
41895,2024,07,09,18,00,AAXX 09184 41895 02450 61801 10290 20280 30020 40042 84520 333 58002 70136 84616 86458==
41895,2024,07,09,21,00,AAXX 09214 41895 02450 61802 10285 20280 30023 40045 84520 333 58012 70136 84616 86458==
41895,2024,07,10,00,00,AAXX 10004 41895 02456 61801 10280 20270 30026 40048 84520 333 58012 70136 84616 86458==
41895,2024,07,10,03,00,AAXX 10034 41895 02457 60902 10312 20270 30035 40057 85430 333 20276 58005 70136 83616 83820==
41895,2024,07,10,06,00,AAXX 10064 41895 02458 51302 10338 20270 30028 40049 84430 333 59002 70056 82616 83820==
41895,2024,07,10,09,00,AAXX 10094 41895 02458 52702 10350 20270 30001 40022 85430 333 59008 70000 82616 83820==
41895,2024,07,10,12,00,AAXX 10124 41895 02456 50000 10335 20270 39990 40012 83520 333 10360 59009 70000 83616 85458==
41895,2024,07,10,15,00,AAXX 10154 41895 02450 51801 10308 20280 30009 40031 83520 333 59011 70000 83616 85458==
41895,2024,07,10,18,00,AAXX 10184 41895 02450 51802 10297 20280 30014 40036 83520 333 59006 70000 83616 85458==
41895,2024,07,10,21,00,AAXX 10214 41895 02450 81802 10290 20280 30002 40024 8452/ 333 59021 70000 84615 88458==
41895,2024,07,11,00,00,AAXX 11004 41895 02450 81802 10283 20270 39996 40018 8452/ 333 59030 70000 84615 88458==
41895,2024,07,11,03,00,AAXX 11034 41895 02450 82302 10308 20280 30004 40026 8532/ 333 20280 59031 70000 84615 88458 81930==
41895,2024,07,11,06,00,AAXX 11064 41895 02450 82301 10326 20290 39995 40017 8532/ 333 59033 70000 84615 88458 81930==
41895,2024,07,11,09,00,AAXX 11094 41895 02456 82302 10346 20290 39963 49985 8452/ 333 59038 70000 84615 88458==
41895,2024,07,11,12,00,AAXX 11124 41895 02450 81303 10305 20270 39961 49983 8532/ 333 10354 59029 70000 84615 88458 81930==
41895,2024,07,11,15,00,AAXX 11154 41895 01450 80902 10260 20260 39990 40012 79796 8592/ 333 59019 71160 84615 88458 81930==
41895,2024,07,11,18,00,AAXX 11184 41895 21450 82302 10265 20265 39990 40012 76196 8432/ 333 59024 61259 71250 84615 88458 81930==
41895,2024,07,11,21,00,AAXX 11214 41895 01450 80000 10256 20256 39972 49994 76196 8432/ 333 59030 71342 84615 88458 81930==
41897,2024,07,05,00,00,AAXX 05004 41897 32450 80000 10270 20260 30002 40015 8432/ 333 56999 58008 70140 81708 83618 88458=
41897,2024,07,05,06,00,AAXX 05064 41897 32450 80000 10300 20260 30002 40015 84310 333 56990 58000 70090 81708 83618 88458=
41897,2024,07,05,12,00,AAXX 05124 41897 11330 80902 10282 20250 39977 49990 60358 70296 8562/ 333 10310 56299 59013 70350 82709 85614 88458=
41897,2024,07,05,18,00,AAXX 05184 41897 32435 81805 10275 20260 39999 40012 8352/ 333 56499 59006 70350 83615 88458=
41897,2024,07,06,00,00,AAXX 06004 41897 32430 81802 10270 20250 39996 40009 8352/ 333 56499 59006 70350 83615 88458=
41897,2024,07,06,06,00,AAXX 06064 41897 32450 31702 10320 20270 30004 40017 82530 333 56990 58002 70350 82617 83360=
41897,2024,07,06,12,00,AAXX 06124 41897 31450 71803 10290 20260 39988 40001 70391 83530 333 10331 56990 58011 70000 83616 87360=
41897,2024,07,06,18,00,AAXX 06184 41897 32440 60000 10275 20260 30019 40032 82530 333 56990 58020 70000 82616 86360=
41897,2024,07,07,00,00,AAXX 07004 41897 31430 40000 10270 20260 30015 40028 70521 82530 333 56990 58019 70000 82616 84360=
41897,2024,07,07,06,00,AAXX 07064 41897 32556 21501 10324 20250 30026 40039 82200 333 56900 58022 70000 82828=
41897,2024,07,07,12,00,AAXX 07124 41897 32956 21802 10325 20270 30000 40013 82030 333 10340 56090 58012 70000 82363=
41897,2024,07,07,18,00,AAXX 07184 41897 32945 31802 10290 20260 30032 40045 83030 333 56090 58013 70000 83360=
41897,2024,07,08,00,00,AAXX 08004 41897 32435 61802 10285 20270 30020 40033 83530 333 56990 58005 70000 83616 86360=
41897,2024,07,08,06,00,AAXX 08064 41897 32456 41802 10320 20250 30033 40046 82530 333 56990 58007 70000 82617 84362=
41897,2024,07,08,12,00,AAXX 08124 41897 32956 51802 10322 20250 30005 40017 85030 333 10340 56090 58005 70000 85362=
41897,2024,07,08,18,00,AAXX 08184 41897 32950 01603 10295 20260 30028 40041 333 59004 70000=
41897,2024,07,09,00,00,AAXX 09004 41897 32440 61503 10285 20270 30026 40039 83530 333 56990 58006 70000 83617 86362=
41897,2024,07,09,06,00,AAXX 09064 41897 32456 51702 10325 20270 30037 40049 82530 333 56990 58004 70000 82617 85362=
41897,2024,07,09,12,00,AAXX 09124 41897 32450 61803 10310 20260 30013 40026 82530 333 10350 56990 58008 70000 82617 86362=
41897,2024,07,09,18,00,AAXX 09184 41897 32440 51805 10295 20260 30037 40050 81530 333 56990 58009 70000 81618 85362=
41897,2024,07,10,00,00,AAXX 10004 41897 32440 51803 10285 20270 30035 40048 81530 333 56990 58009 70000 81618 85362=
41897,2024,07,10,06,00,AAXX 10064 41897 32450 51802 10340 20285 30036 40049 81530 333 56990 59001 70000 81618 85362=
41897,2024,07,10,12,00,AAXX 10124 41897 32950 21802 10325 20270 30002 40015 82030 333 10365 56090 59011 70000 82362=
41897,2024,07,10,18,00,AAXX 10184 41897 32940 01802 10300 20270 30027 40040 70500 333 59010 70000=
41897,2024,07,11,00,00,AAXX 11004 41897 31940 51803 10285 20280 30022 40035 70520 82510 333 56990 59013 70000 82618 85458=
41897,2024,07,11,06,00,AAXX 11064 41897 31450 81803 10315 20270 30003 40016 70522 8252/ 333 56990 59033 70000 82617 88458=
41897,2024,07,11,12,00,AAXX 11124 41897 31450 81808 10290 20250 39972 49985 70522 8252/ 333 10345 56999 59030 70000 82617 88458=
41897,2024,07,11,18,00,AAXX 11184 41897 11440 81402 10260 20250 30001 40014 60219 76166 8272/ 333 56999 59026 70210 82707 88458=
41902,2024,07,05,00,00,AAXX 05004 41902 11430 71303 10273 20260 30011 40020 60015 70162 83510 333 56990 58004 70060 83614 87459=
41902,2024,07,05,06,00,AAXX 05064 41902 32440 71702 10289 20260 30018 40026 83510 333 56990 59004 70050 83614 87459=
41902,2024,07,05,18,00,AAXX 05184 41902 NIL=
41902,2024,07,06,00,00,AAXX 06004 41902 32430 71704 10273 20250 30009 40017 83510 333 56990 59002 70000 83614 87459=
41902,2024,07,06,06,00,AAXX 06064 41902 32440 41702 10315 20270 30012 40020 83430 333 56990 59006 70000 82614 83362=
41902,2024,07,06,12,00,AAXX 06124 41902 32450 61502 10312 20250 39996 40005 83530 333 10338 56990 59002 70000 83615 86362=
41902,2024,07,06,18,00,AAXX 06184 41902 32440 61802 10290 20260 30016 40024 82510 333 56990 58003 70000 82615 86459=
41902,2024,07,07,00,00,AAXX 07004 41902 32440 71801 10280 20260 30015 40023 83520 333 56990 58006 70000 83615 87459=
41902,2024,07,07,06,00,AAXX 07064 41902 32450 33601 10337 20280 30028 40036 82430 333 56990 58016 70000 82616 83362=
41902,2024,07,07,12,00,AAXX 07124 41902 32450 60502 10325 20280 30007 40016 83470 333 10342 56990 58011 70000 83615 86459=
41902,2024,07,07,18,00,AAXX 07184 41902 11440 70501 10292 20270 30030 40038 69928 70262 83520 333 56990 58014 70002 83615 87459=
41902,2024,07,08,00,00,AAXX 08004 41902 32450 71802 10287 20270 30024 40032 83520 333 56990 58009 70002 83615 87459=
41902,2024,07,08,06,00,AAXX 08064 41902 32450 71801 10322 20260 30031 40040 83520 333 56990 58003 70002 83615 87459=
41902,2024,07,08,12,00,AAXX 08124 41902 32450 61801 10315 20260 30012 40021 83520 333 10332 56990 58005 70002 83615 86459=
41902,2024,07,08,18,00,AAXX 08184 41902 32440 51803 10295 20260 30030 40038 82530 333 56990 58000 70000 82616 85362=
41902,2024,07,09,00,00,AAXX 09004 41902 32450 61802 10287 20270 30032 40040 83530 333 56990 58008 70000 83616 86362=
41902,2024,07,09,06,00,AAXX 09064 41902 32450 61802 10325 20260 30035 40044 83530 333 56990 58004 70000 83615 86362=
41902,2024,07,09,12,00,AAXX 09124 41902 32450 71805 10310 20250 30024 40033 83520 333 10336 56990 58012 70000 83615 87459=
41902,2024,07,09,18,00,AAXX 09184 41902 32440 81806 10288 20260 30039 40047 8352/ 333 56999 58009 70000 83615 88458=
41902,2024,07,10,00,00,AAXX 10004 41902 32450 71802 10286 20270 30039 40047 83520 333 56990 58007 70000 83615 87459=
41902,2024,07,10,06,00,AAXX 10064 41902 NIL=
41902,2024,07,10,12,00,AAXX 10124 41902 32450 71805 10310 20260 30022 40031 83510 333 10340 56990 58002 70000 83615 87459=
41902,2024,07,10,18,00,AAXX 10184 41902 32440 81807 10295 20270 30032 40040 8672/ 333 56399 59007 70000 82708 84612 88458=
41902,2024,07,11,00,00,AAXX 11004 41902 32440 71805 10288 20270 30027 40035 83520 333 56990 59012 70000 83615 87459=
41902,2024,07,11,06,00,AAXX 11064 41902 32456 71602 10327 20270 30017 40026 83520 333 56990 59023 70000 83615 87459=
41902,2024,07,11,12,00,AAXX 11124 41902 32456 71909 10290 20260 39984 49993 83520 333 10340 56990 59038 70000 83615 87459=
41902,2024,07,11,18,00,AAXX 11184 41902 32440 62005 10285 20270 30004 40013 83530 333 56990 59028 70000 83616 86362=
41907,2024,07,05,00,00,AAXX 05004 41907 02340 81802 10275 20270 39995 40010 8672/ 333 59002 70050 85709 88458==
41907,2024,07,05,03,00,AAXX 05034 41907 02450 61802 10310 20270 30006 40020 84510 333 20270 59008 70050 84615 86458==
41907,2024,07,05,06,00,AAXX 05064 41907 02350 81802 10317 20280 39998 40013 8662/ 333 59005 70010 85709 88458==
41907,2024,07,05,09,00,AAXX 05094 41907 02450 81802 10315 20280 39981 49996 8662/ 333 59009 70000 85709 88458==
41907,2024,07,05,12,00,AAXX 05124 41907 01340 80000 10290 20270 39965 49980 72162 8672/ 333 10320 59017 70020 85709 88458==
41907,2024,07,05,15,00,AAXX 05154 41907 02340 81802 10288 20270 39993 40007 8662/ 333 59014 70020 82709 85615 88458==
41907,2024,07,05,18,00,AAXX 05184 41907 02340 81802 10285 20280 30001 40016 8662/ 333 59010 70020 82709 85615 88458==
41907,2024,07,05,21,00,AAXX 05214 41907 01340 80000 10280 20270 39993 40008 72122 8672/ 333 59008 70030 83709 85615 88458==
41907,2024,07,06,00,00,AAXX 06004 41907 11340 81302 10280 20270 39990 40004 60016 72162 8672/ 333 59005 70030 84709 85615 88458==
41907,2024,07,06,03,00,AAXX 06034 41907 02350 81802 10306 20270 30001 40016 8662/ 333 20268 59005 70030 82709 85615 88458==
41907,2024,07,06,06,00,AAXX 06064 41907 02450 72703 10340 20270 39996 40010 85870 333 59002 70030 83615 85458==
41907,2024,07,06,09,00,AAXX 06094 41907 01350 80000 10278 20270 39993 40007 71796 8692/ 333 58012 70200 85709 88458 81930==
41907,2024,07,06,12,00,AAXX 06124 41907 01450 80000 10280 20260 39982 49996 70296 8352/ 333 10342 58017 70246 83615 88458==
41907,2024,07,06,15,00,AAXX 06154 41907 02440 71802 10270 20260 30004 40019 84510 333 58011 70246 84615 87458==
41907,2024,07,06,18,00,AAXX 06184 41907 02340 81802 10268 20260 30011 40026 8662/ 333 58010 70246 83709 85615 88458==
41907,2024,07,06,21,00,AAXX 06214 41907 02340 80000 10265 20260 30002 40017 8662/ 333 58009 70236 83709 85615 88458==
41907,2024,07,07,00,00,AAXX 07004 41907 02340 80000 10265 20260 30010 40024 8662/ 333 58020 70236 83709 85615 88458==
41907,2024,07,07,03,00,AAXX 07034 41907 02450 41302 10305 20270 30027 40042 84500 333 20260 58026 70236 84615==
41907,2024,07,07,06,00,AAXX 07064 41907 02456 70000 10330 20260 30019 40034 86810 333 58023 70236 83615 83825==
41907,2024,07,07,09,00,AAXX 07094 41907 02456 63102 10315 20270 30004 40018 85830 333 58011 70066 83615 85362==
41907,2024,07,07,12,00,AAXX 07124 41907 02/56 30902 10330 20260 39996 40011 83030 333 10346 58014 70000 83362==
41907,2024,07,07,15,00,AAXX 07154 41907 02940 01302 10287 20270 30016 40031 333 58012 70000==
41907,2024,07,07,18,00,AAXX 07184 41907 02440 80000 10280 20260 30025 40040 8552/ 333 58014 70000 85615 88458==
41907,2024,07,07,21,00,AAXX 07214 41907 02340 80000 10279 20270 30013 40027 8662/ 333 58025 70000 82709 85615 88458==
41907,2024,07,08,00,00,AAXX 08004 41907 02345 80000 10277 20270 30015 40030 8662/ 333 58005 70000 83709 85615 88458==
41907,2024,07,08,03,00,AAXX 08034 41907 02450 51802 10310 20270 30028 40042 85800 333 20275 58001 70000 82615 83825==
41907,2024,07,08,06,00,AAXX 08064 41907 02450 71302 10335 20260 30027 40041 85830 333 58008 70000 82615 83825 85362==
41907,2024,07,08,09,00,AAXX 08094 41907 02456 61302 10340 20260 30006 40020 85830 333 58004 70000 82615 83825 85362==
41907,2024,07,08,12,00,AAXX 08124 41907 02456 71302 10335 20270 30000 40015 85830 333 10358 58002 70000 82615 83825 85362==
41907,2024,07,08,15,00,AAXX 08154 41907 02440 21302 10295 20270 30018 40032 82500 333 58002 70000 82615==
41907,2024,07,08,18,00,AAXX 08184 41907 02440 71802 10285 20260 30027 40041 85510 333 58002 70000 85615 85458==
41907,2024,07,08,21,00,AAXX 08214 41907 02440 71802 10280 20260 30017 40032 85510 333 58004 70000 85615 85458==
41907,2024,07,09,00,00,AAXX 09004 41907 02450 72202 10276 20270 30021 40036 85530 333 58006 70000 85615 86362==
41907,2024,07,09,03,00,AAXX 09034 41907 02450 71802 10305 20280 30034 40048 84830 333 20275 70000 83615 86362==
41907,2024,07,09,06,00,AAXX 09064 41907 02450 71802 10337 20270 30031 40046 85830 333 58004 70000 83615 85362==
41907,2024,07,09,09,00,AAXX 09094 41907 01456 72302 10340 20270 30013 40028 70262 84830 333 58007 70025 83615 85362==
41907,2024,07,09,12,00,AAXX 09124 41907 11450 71802 10330 20250 30006 40020 60036 70262 85510 333 10351 58006 70025 85615 87458==
41907,2024,07,09,15,00,AAXX 09154 41907 02440 50000 10300 20270 30024 40039 83510 333 58006 70025 83615 85458==
41907,2024,07,09,18,00,AAXX 09184 41907 02/40 31303 10285 20270 30028 40043 83030 333 58001 70025 83362==
41907,2024,07,09,21,00,AAXX 09214 41907 02/40 31302 10277 20270 30028 40043 83030 333 58011 70025 83362==
41907,2024,07,10,00,00,AAXX 10004 41907 02/45 50000 10275 20270 30033 40047 85030 333 58012 70025 85362==
41907,2024,07,10,03,00,AAXX 10034 41907 02450 52303 10310 20260 30041 40055 85530 333 20275 58007 70025 85615==
41907,2024,07,10,06,00,AAXX 10064 41907 02450 62303 10347 20260 30033 40047 84870 333 58002 70025 83615 85362==
41907,2024,07,10,09,00,AAXX 10094 41907 02456 41802 10356 20280 30007 40021 84830 333 59006 70000 81615 83825==
41907,2024,07,10,12,00,AAXX 10124 41907 02456 31302 10344 20270 39996 40010 82830 333 10362 59010 70000 81615==
41907,2024,07,10,15,00,AAXX 10154 41907 02440 30000 10315 20280 30021 40035 82830 333 59003 70000 81615==
41907,2024,07,10,18,00,AAXX 10184 41907 02340 71302 10305 20280 30022 40036 86610 333 59006 70000 82709 85615 87458==
41907,2024,07,10,21,00,AAXX 10214 41907 02440 60000 10300 20270 30017 40031 85510 333 59011 70000 85615 86458==
41907,2024,07,11,00,00,AAXX 11004 41907 02340 81302 10285 20280 30004 40019 8662/ 333 59029 70000 82709 85615 88458==
41907,2024,07,11,03,00,AAXX 11034 41907 02350 81803 10302 20270 30010 40024 8662/ 333 20283 59031 70000 82709 85615 88458==
41907,2024,07,11,06,00,AAXX 11064 41907 02350 82303 10330 20280 39998 40012 8662/ 333 59035 70000 85615 88458==
41907,2024,07,11,09,00,AAXX 11094 41907 02450 71802 10340 20280 39967 49981 84510 333 59040 70000 84615 87458==
41907,2024,07,11,12,00,AAXX 11124 41907 02450 80000 10285 20260 39963 49977 8452/ 333 10348 59033 70000 84615 88458==
41907,2024,07,11,15,00,AAXX 11154 41907 01330 23104 10275 20260 39996 40011 71322 8632/ 333 59025 70000 83709 85615 88458 81930==
41907,2024,07,11,18,00,AAXX 11184 41907 21330 82702 10265 20260 39993 40008 76195 8672/ 333 59029 60127 70120 85709 88458==
41907,2024,07,11,21,00,AAXX 11214 41907 01330 80902 10263 20250 39985 49999 76166 8672/ 333 59032 70180 85615 88458==
41909,2024,07,05,00,00,AAXX 05004 41909 02450 80000 10272 20260 30002 40013 8562/ 333 59004 70185 84708 88458==
41909,2024,07,05,06,00,AAXX 05064 41909 21350 81802 10279 20260 30014 40025 79596 8592/ 333 59003 60077 70135 84708 88458 81930==
41909,2024,07,05,09,00,AAXX 05094 41909 01350 81802 10292 20270 39992 40003 70296 8562/ 333 59013 70133 82708 84614 88460==
41909,2024,07,05,12,00,AAXX 05124 41909 11350 80000 10287 20270 39979 49990 60046 70296 8562/ 333 10295 59014 70113 83708 83614 88460==
41909,2024,07,05,15,00,AAXX 05154 41909 02440 80000 10280 20260 30009 40020 8552/ 333 59008 70108 85615 88460==
41909,2024,07,05,18,00,AAXX 05184 41909 02340 81304 10272 20250 30004 40015 8562/ 333 59016 70108 82708 84614 88460==
41909,2024,07,05,21,00,AAXX 05214 41909 02340 81802 10271 20250 39998 40009 8562/ 333 59017 70108 83708 83614 88460==
41909,2024,07,06,00,00,AAXX 06004 41909 02350 81304 10270 20250 30000 40011 8662/ 333 59002 70108 83708 84614 88458==
41909,2024,07,06,03,00,AAXX 06034 41909 02456 81302 10297 20270 30010 40021 8352/ 333 20260 59005 70058 83708 88458==
41909,2024,07,06,06,00,AAXX 06064 41909 02456 61802 10324 20260 30006 40017 82510 333 59008 70038 82615 86458==
41909,2024,07,06,09,00,AAXX 06094 41909 01350 81802 10280 20260 30002 40013 76122 8672/ 333 59010 70070 83708 84614 88458==
41909,2024,07,06,12,00,AAXX 06124 41909 21340 80000 10270 20260 39987 49998 76166 8672/ 333 10330 58008 60217 70210 83708 84614 88458==
41909,2024,07,06,15,00,AAXX 06154 41909 01340 80000 10270 20260 30013 40024 76166 8672/ 333 58004 70220 83708 84614 88458==
41909,2024,07,06,18,00,AAXX 06184 41909 21340 80000 10269 20260 30017 40028 70266 8672/ 333 58013 60017 70220 83708 84614 88458==
41909,2024,07,06,21,00,AAXX 06214 41909 01340 80000 10268 20260 30011 40022 76166 8672/ 333 58013 70230 83708 84614 88458==
41909,2024,07,07,00,00,AAXX 07004 41909 21350 80000 10264 20250 30011 40022 70266 8672/ 333 58011 60019 70230 83708 84614 88458==
41909,2024,07,07,03,00,AAXX 07034 41909 02456 61802 10294 20260 30034 40045 85310 333 20255 58024 70230 83615 86458==
41909,2024,07,07,06,00,AAXX 07064 41909 01456 61802 10317 20260 30028 40039 70262 82510 333 58022 70040 82615 86458==
41909,2024,07,07,09,00,AAXX 07094 41909 02456 61301 10344 20250 30009 40020 82510 333 58007 70200 82615 86460==
41909,2024,07,07,12,00,AAXX 07124 41909 02350 81301 10322 20260 30002 40013 8562/ 333 10345 58015 70060 84708 88458==
41909,2024,07,07,15,00,AAXX 07154 41909 02940 00000 10293 20260 30018 40029 333 58005 70050==
41909,2024,07,07,18,00,AAXX 07184 41909 02330 80000 10288 20270 30032 40043 8462/ 333 58015 70050 83708 88458==
41909,2024,07,07,21,00,AAXX 07214 41909 02430 50000 10284 20260 30026 40037 82530 333 58015 70040 82615 85360==
41909,2024,07,08,00,00,AAXX 08004 41909 02450 30000 10280 20260 30018 40029 81530 333 58007 70040 81615 83360==
41909,2024,07,08,03,00,AAXX 08034 41909 02456 51802 10294 20260 30033 40044 82530 333 20268 59001 70040 82615 85360==
41909,2024,07,08,06,00,AAXX 08064 41909 02456 51802 10324 20260 30034 40045 82530 333 58006 70000 82615 85360==
41909,2024,07,08,09,00,AAXX 08094 41909 02456 70000 10347 20250 30011 40023 84570 333 58002 70000 84615 86460==
41909,2024,07,08,12,00,AAXX 08124 41909 02456 51302 10330 20250 30004 40015 82530 333 10350 58002 70000 82615 84365==
41909,2024,07,08,15,00,AAXX 08154 41909 02950 00000 10300 20260 30025 40036 333 58007 70000==
41909,2024,07,08,18,00,AAXX 08184 41909 02940 00000 10290 20260 30031 40042 333 59001 70000==
41909,2024,07,08,21,00,AAXX 08214 41909 02440 60000 10286 20260 30028 40039 83530 333 58002 70000 83615 84365==
41909,2024,07,09,00,00,AAXX 09004 41909 02450 71802 10280 20260 30031 40042 84570 333 58013 70000 84614 86460==
41909,2024,07,09,03,00,AAXX 09034 41909 02456 71801 10304 20250 30040 40051 84570 333 20270 58007 70000 84614 86460==
41909,2024,07,09,06,00,AAXX 09064 41909 02456 61802 10326 20260 30038 40049 83510 333 58004 70000 83615 86458==
41909,2024,07,09,09,00,AAXX 09094 41909 02456 51802 10339 20260 30022 40033 83830 333 58011 70000 82615 85360==
41909,2024,07,09,12,00,AAXX 09124 41909 02456 51802 10314 20250 30016 40027 83430 333 10345 58012 70000 82615 84360==
41909,2024,07,09,15,00,AAXX 09154 41909 02440 41802 10299 20260 30034 40045 82530 333 58009 70000 82615 83360==
41909,2024,07,09,18,00,AAXX 09184 41909 02440 21802 10292 20260 30040 40051 82500 333 58009 70000 82615==
41909,2024,07,09,21,00,AAXX 09214 41909 02440 21802 10284 20260 30034 40045 82500 333 58006 70000 82615==
41909,2024,07,10,00,00,AAXX 10004 41909 02356 51802 10280 20260 30037 40048 83630 333 58006 70000 82708 83360==
41909,2024,07,10,03,00,AAXX 10034 41909 02356 51802 10307 20260 30048 40059 83630 333 20270 58008 70000 82708 83360==
41909,2024,07,10,06,00,AAXX 10064 41909 02456 51802 10340 20260 30042 40053 82530 333 58004 70000 82615 85360==
41909,2024,07,10,09,00,AAXX 10094 41909 01350 81802 10325 20270 30018 40030 76122 333 59004 70010 83708 84614 88458==
41909,2024,07,10,12,00,AAXX 10124 41909 02350 81802 10320 20270 30004 40016 8672/ 333 10345 59012 70010 83708 84614 88458==
41909,2024,07,10,15,00,AAXX 10154 41909 02940 00000 10302 20270 30026 40037 333 59008 70000==
41909,2024,07,10,18,00,AAXX 10184 41909 02940 00000 10292 20270 30032 40043 333 59008 70010==
41909,2024,07,10,21,00,AAXX 10214 41909 02940 00000 10285 20280 30030 40041 333 59004 70010==
41909,2024,07,11,00,00,AAXX 11004 41909 42350 80000 10284 20260 30008 40019 8352/ 333 59029 83708 88458==
41909,2024,07,11,03,00,AAXX 11034 41909 02356 81801 10310 20250 30016 40027 8252/ 333 20274 59022 70010 83708 88458==
41909,2024,07,11,06,00,AAXX 11064 41909 02456 71302 10325 20280 30006 40017 84570 333 59036 70010 84615 86460==
41909,2024,07,11,09,00,AAXX 11094 41909 02456 50000 10336 20270 39975 49987 81510 333 59043 70000 81615 85360==
41909,2024,07,11,12,00,AAXX 11124 41909 11356 81801 10284 20260 39968 49979 60016 72122 8462/ 333 10342 59036 70012 83708 84615 88458==
41909,2024,07,11,15,00,AAXX 11154 41909 02330 81801 10282 20260 39993 40004 8562/ 333 59033 70012 84708 88458==
41909,2024,07,11,18,00,AAXX 11184 41909 21330 81801 10257 20260 30007 40018 79562 8692/ 333 59025 60537 70542 85708 88458 81930==
41909,2024,07,11,21,00,AAXX 11214 41909 01330 80000 10258 20260 30001 40012 79596 8692/ 333 59029 70852 85708 88458 81930==
41915,2024,07,05,00,00,AAXX 05004 41915 02456 81302 10262 20250 30016 40041 8662/ 333 58001 70010 83710 84615 88458==
41915,2024,07,05,03,00,AAXX 05034 41915 01456 71303 10285 20260 30025 40050 70162 84670 333 20260 59002 70020 82712 83615 85459==
41915,2024,07,05,06,00,AAXX 05064 41915 11456 81303 10290 20250 30019 40044 60016 70326 8662/ 333 59004 70020 83710 85615 88458==
41915,2024,07,05,09,00,AAXX 05094 41915 02456 71302 10295 20250 39993 40018 85420 333 59015 70010 84616 87458==
41915,2024,07,05,12,00,AAXX 05124 41915 02450 71302 10284 20250 39988 40013 85370 333 10320 59017 70010 84615 85459 81928==
41915,2024,07,05,15,00,AAXX 05154 41915 02450 80000 10270 20250 30010 40035 8542/ 333 59017 70010 84615 88458==
41915,2024,07,05,18,00,AAXX 05184 41915 02450 60000 10266 20260 30012 40037 85420 333 59017 70010 84615 84458==
41915,2024,07,05,21,00,AAXX 05214 41915 02450 70000 10264 20250 30002 40027 85470 333 59017 70010 84615 85458==
41915,2024,07,06,00,00,AAXX 06004 41915 02450 81302 10265 20250 30007 40032 8542/ 333 59009 70010 84615 88458==
41915,2024,07,06,03,00,AAXX 06034 41915 02456 61302 10302 20250 30013 40038 84630 333 20260 59012 70000 81712 84615 85362==
41915,2024,07,06,06,00,AAXX 06064 41915 02456 71302 10327 20260 30009 40034 85430 333 59010 70000 84616 85362==
41915,2024,07,06,09,00,AAXX 06094 41915 01456 61301 10326 20280 39988 40013 72122 84370 333 59005 70024 83616 84458==
41915,2024,07,06,12,00,AAXX 06124 41915 21450 70000 10296 20280 39987 40012 70362 84420 333 10335 59001 60025 70024 83616 87458==
41915,2024,07,06,15,00,AAXX 06154 41915 02440 60000 10280 20270 30014 40039 84410 333 58004 70024 83616 84458==
41915,2024,07,06,21,00,AAXX 06214 41915 02440 60000 10270 20260 30016 40041 84410 333 58014 70024 83616 84458==
41915,2024,07,07,00,00,AAXX 07004 41915 02456 80000 10266 20260 30018 40043 8552/ 333 58011 70024 85616 88458==
41915,2024,07,07,03,00,AAXX 07034 41915 02456 50000 10310 20250 30031 40056 84430 333 20261 58018 70024 83616==
41915,2024,07,07,06,00,AAXX 07064 41915 02456 63102 10320 20250 30021 40046 85430 333 58012 70024 84615==
41915,2024,07,07,09,00,AAXX 07094 41915 02456 70000 10335 20260 39997 40022 84410 333 58009 70000 83616 87460==
41915,2024,07,07,12,00,AAXX 07124 41915 02456 60000 10318 20270 39998 40023 83472 333 10343 58011 70000 83616 83460==
41915,2024,07,07,15,00,AAXX 07154 41915 01440 81802 10270 20260 30017 40042 79599 8692/ 333 58003 70192 85615 88458 81925==
41915,2024,07,07,18,00,AAXX 07184 41915 21450 80000 10270 20260 30018 40043 70292 8532/ 333 58002 60195 70192 85615 88458 81925==
41915,2024,07,07,21,00,AAXX 07214 41915 02450 80000 10269 20260 30016 40041 8562/ 333 58000 70192 82712 84615 88458==
41915,2024,07,08,00,00,AAXX 08004 41915 02450 81301 10272 20260 30019 40044 8562/ 333 58001 70192 83712 84615 88458==
41915,2024,07,08,03,00,AAXX 08034 41915 02456 81302 10288 20270 30029 40054 8552/ 333 20267 59002 70192 85616 88458==
41915,2024,07,08,06,00,AAXX 08064 41915 02456 81602 10312 20260 30027 40052 8542/ 333 58006 70192 84616 88458==
41915,2024,07,08,09,00,AAXX 08094 41915 02456 70000 10325 20260 30009 40034 85420 333 58012 70192 84616 86458==
41915,2024,07,08,12,00,AAXX 08124 41915 02456 71001 10296 20280 30008 40033 85470 333 10330 58010 70192 84616 85458==
41915,2024,07,08,18,00,AAXX 08184 41915 11440 50000 10275 20275 30032 40057 60036 70362 84430 333 58014 70033 83616 84362==
41915,2024,07,08,21,00,AAXX 08214 41915 02440 60000 10270 20260 30028 40053 84470 333 58012 70033 83616 84458==
41915,2024,07,09,00,00,AAXX 09004 41915 02456 80000 10270 20260 30026 40051 8542/ 333 58010 70033 84616 88458==
41915,2024,07,09,03,00,AAXX 09034 41915 02456 71802 10302 20250 30040 40065 85670 333 20269 58011 70033 82712 84615 85460==
41915,2024,07,09,06,00,AAXX 09064 41915 02456 61802 10330 20260 30033 40058 85430 333 58006 70033 84615 84362==
41915,2024,07,09,09,00,AAXX 09094 41915 02456 62302 10340 20260 30019 40044 84430 333 58010 70033 83616 84362==
41915,2024,07,09,12,00,AAXX 09124 41915 02450 71803 10296 20260 30020 40045 85620 333 10345 58012 70033 82712 84615 87458==
41915,2024,07,09,15,00,AAXX 09154 41915 01440 80000 10276 20260 30034 40059 76162 8572/ 333 58008 70002 83712 84615 88458==
41915,2024,07,09,18,00,AAXX 09184 41915 NIL=
41915,2024,07,09,21,00,AAXX 09214 41915 02440 71302 10269 20250 30032 40057 84520 333 58004 70002 84615 87458==
41915,2024,07,10,00,00,AAXX 10004 41915 02450 71301 10267 20250 30037 40062 83570 333 58011 70002 83616 85458==
41915,2024,07,10,03,00,AAXX 10034 41915 02456 81302 10295 20260 30049 40074 8642/ 333 20266 58009 70002 85616 88458==
41915,2024,07,10,06,00,AAXX 10064 41915 02456 71602 10318 20270 30040 40065 85470 333 58007 70002 84616 84458==
41915,2024,07,10,09,00,AAXX 10094 41915 01456 61303 10310 20260 30016 40041 72122 84470 333 59003 70014 83616 84458==
41915,2024,07,10,12,00,AAXX 10124 41915 01456 61802 10274 20250 30016 40041 70262 84430 333 10321 59004 70074 83616 84362==
41915,2024,07,10,15,00,AAXX 10154 41915 02440 71303 10276 20270 30036 40061 85420 333 58002 70072 84616 86458==
41915,2024,07,10,18,00,AAXX 10184 41915 02440 81302 10270 20250 30025 40050 8552/ 333 59009 70072 85616 88458==
41915,2024,07,10,21,00,AAXX 10214 41915 02440 80000 10270 20250 30024 40049 8552/ 333 59010 70072 85616 88458==
41915,2024,07,11,00,00,AAXX 11004 41915 02456 70000 10270 20250 30023 40048 85570 333 59014 70072 85616 86458==
41915,2024,07,11,03,00,AAXX 11034 41915 02456 51802 10296 20260 30019 40044 83430 333 20263 59030 70072 82616 84362==
41915,2024,07,11,06,00,AAXX 11064 41915 02456 61304 10320 20270 30007 40032 85470 333 59033 70072 84615 84460==
41915,2024,07,11,09,00,AAXX 11094 41915 02456 61303 10330 20260 39983 40008 84430 333 59033 70060 83616 85362==
41915,2024,07,11,12,00,AAXX 11124 41915 02456 31804 10306 20250 39973 49998 81402 333 10335 59043 70000 81616 83080==
41915,2024,07,11,15,00,AAXX 11154 41915 02950 21302 10282 20250 39997 40022 80002 333 59039 70000 82080==
41915,2024,07,11,18,00,AAXX 11184 41915 02440 81304 10278 20250 39996 40021 8562/ 333 59029 70000 82712 84615 88458==
41915,2024,07,11,21,00,AAXX 11214 41915 02440 81303 10272 20240 39993 40018 8562/ 333 59031 70000 82712 84615 88458==
41923,2024,07,05,00,00,AAXX 05004 41923 01440 81202 10278 20260 30014 40024 70562 8532/ 333 59002 70004 81710 84614 88459 81930==
41923,2024,07,05,03,00,AAXX 05034 41923 01440 81203 10284 20260 30026 40036 72166 8532/ 333 20272 59006 70216 81710 84614 88459 81930==
41923,2024,07,05,06,00,AAXX 05064 41923 11440 81802 10311 20260 30023 40033 60086 70262 8532/ 333 59004 70108 81710 84614 88459 81930==
41923,2024,07,05,09,00,AAXX 05094 41923 01340 81802 10296 20270 30003 40013 76162 8532/ 333 59007 70084 83709 84615 88458 81930==
41923,2024,07,05,12,00,AAXX 05124 41923 01340 71802 10293 20250 39989 49999 70162 85670 333 10311 59019 70084 82709 83615 86458==
41923,2024,07,05,15,00,AAXX 05154 41923 02340 70000 10277 20250 30022 40032 85670 333 59007 70084 82709 84615 86458==
41923,2024,07,05,18,00,AAXX 05184 41923 02340 61802 10271 20250 30013 40023 84670 333 59015 70084 81709 83615 85458==
41923,2024,07,05,21,00,AAXX 05214 41923 02340 71802 10271 20250 30003 40013 85670 333 59016 70084 82709 84615 86458==
41923,2024,07,06,00,00,AAXX 06004 41923 01340 70000 10275 20260 30011 40021 70522 85370 333 59003 70080 82709 84615 86458 81930==
41923,2024,07,06,03,00,AAXX 06034 41923 01340 73602 10302 20260 30023 40033 70522 85670 333 20270 59003 70002 82709 84615 86458==
41923,2024,07,06,06,00,AAXX 06064 41923 02340 71703 10326 20260 30015 40025 85670 333 59008 70002 82709 84615 86458==
41923,2024,07,06,09,00,AAXX 06094 41923 42350 71802 10334 20250 30001 40011 85670 333 59002 82709 84615 86458==
41923,2024,07,06,12,00,AAXX 06124 41923 02350 70000 10302 20250 39996 40006 85670 333 10337 58007 70000 82709 84615 86458==
41923,2024,07,06,15,00,AAXX 06154 41923 02440 50000 10296 20260 30021 40031 82530 333 59001 70000 82615 85360==
41923,2024,07,06,18,00,AAXX 06184 41923 02/40 20000 10290 20260 30025 40035 82030 333 58012 70000 82360==
41923,2024,07,06,21,00,AAXX 06214 41923 02440 50000 10286 20260 30010 40020 82530 333 58007 70000 82615 85360==
41923,2024,07,07,00,00,AAXX 07004 41923 02340 70000 10280 20260 30023 40033 85670 333 58012 70000 82709 84615 86458==
41923,2024,07,07,03,00,AAXX 07034 41923 02350 71502 10314 20240 30039 40049 85670 333 20277 58016 70000 82709 84615 86458==
41923,2024,07,07,06,00,AAXX 07064 41923 02350 70000 10338 20260 30030 40040 85670 333 58015 70000 82709 84615 86458==
41923,2024,07,07,09,00,AAXX 07094 41923 02456 60903 10334 20250 30011 40021 84330 333 58010 70000 82615 83824 81930==
41923,2024,07,07,12,00,AAXX 07124 41923 02456 41903 10312 20250 30011 40021 82431 333 10348 58015 70000 81615 83080==
41923,2024,07,07,15,00,AAXX 07154 41923 02450 40000 10298 20270 30028 40038 82530 333 58007 70000 82616 83360==
41923,2024,07,07,18,00,AAXX 07184 41923 02450 40000 10297 20270 30042 40052 82530 333 58017 70000 82615 83360==
41923,2024,07,07,21,00,AAXX 07214 41923 02445 50000 10290 20260 30026 40036 83530 333 58016 70000 83615 83360==
41923,2024,07,08,00,00,AAXX 08004 41923 02345 70000 10287 20260 30030 40040 84670 333 58007 70000 81709 84615 85458==
41923,2024,07,08,03,00,AAXX 08034 41923 02350 71803 10310 20250 30040 40050 85370 333 20285 58001 70000 81709 84615 85458 81930==
41923,2024,07,08,06,00,AAXX 08064 41923 21456 71803 10322 20240 30038 40048 70262 84430 333 58008 60005 83615 85360==
41923,2024,07,08,09,00,AAXX 08094 41923 42456 61802 10338 20250 30020 40030 83530 333 58009 83615 86365==
41923,2024,07,08,12,00,AAXX 08124 41923 42450 72402 10321 20240 30015 40025 84570 333 10350 58004 84615 86460==
41923,2024,07,08,15,00,AAXX 08154 41923 41440 61802 10298 20260 30032 40042 70522 83530 333 58004 83615 86365==
41923,2024,07,08,18,00,AAXX 08184 41923 41440 60000 10290 20260 30040 40050 70522 83570 333 59002 83615 86365==
41923,2024,07,08,21,00,AAXX 08214 41923 41440 80000 10287 20260 30035 40045 70522 8552/ 333 58009 85615 88459==
41923,2024,07,09,00,00,AAXX 09004 41923 41440 81802 10285 20270 30036 40046 70522 8552/ 333 58006 85615 88459==
41923,2024,07,09,03,00,AAXX 09034 41923 41450 80000 10310 20260 30047 40057 70522 8552/ 333 20282 58007 85615 88459==
41923,2024,07,09,06,00,AAXX 09064 41923 11450 72402 10331 20250 30044 40054 60006 70262 84570 333 58006 84615 86460==
41923,2024,07,09,09,00,AAXX 09094 41923 01340 80000 10294 20260 30038 40048 79522 8532/ 333 58018 70006 83709 84615 88458 81930==
41923,2024,07,09,12,00,AAXX 09124 41923 01340 71602 10292 20260 30029 40039 76096 85370 333 10331 58014 70010 82709 84615 86458 81930==
41923,2024,07,09,15,00,AAXX 09154 41923 01440 40000 10285 20260 30041 40051 70162 81530 333 58009 70010 81616 83362==
41923,2024,07,09,18,00,AAXX 09184 41923 11340 60000 10285 20270 30048 40058 60006 70362 84670 333 58008 70010 81709 83615 85458==
41923,2024,07,09,21,00,AAXX 09214 41923 02340 60000 10285 20270 30039 40049 84670 333 58004 70010 81709 83615 85458==
41923,2024,07,10,00,00,AAXX 10004 41923 02340 60000 10284 20260 30048 40058 84670 333 58012 70010 82709 83615 85458==
41923,2024,07,10,03,00,AAXX 10034 41923 02340 81802 10307 20270 30060 40070 8532/ 333 20281 58013 70010 82709 84615 88458 81930==
41923,2024,07,10,06,00,AAXX 10064 41923 02445 72104 10336 20260 30050 40060 85430 333 58006 70010 83615 83824 85360==
41923,2024,07,10,09,00,AAXX 10094 41923 01350 61802 10332 20250 30027 40037 72162 84670 333 59011 70004 82709 83615 85458==
41923,2024,07,10,12,00,AAXX 10124 41923 21350 62102 10320 20270 30016 40026 70262 84670 333 10351 59013 60008 82709 83615 85458==
41923,2024,07,10,15,00,AAXX 10154 41923 42340 60000 10306 20270 30037 40047 84670 333 59004 82709 83615 85458==
41923,2024,07,10,18,00,AAXX 10184 41923 42440 50000 10298 20260 30036 40046 82530 333 59012 82615 85360==
41923,2024,07,10,21,00,AAXX 10214 41923 42440 50000 10290 20260 30025 40035 82530 333 59014 82615 85360==
41923,2024,07,11,00,00,AAXX 11004 41923 42340 80000 10286 20270 30022 40032 8532/ 333 59026 82709 84615 88458 81930==
41923,2024,07,11,03,00,AAXX 11034 41923 42340 80000 10304 20260 30026 40036 8532/ 333 20284 59034 82709 84615 88458 81930==
41923,2024,07,11,06,00,AAXX 11064 41923 42345 82102 10340 20260 30014 40024 8532/ 333 59036 82709 84615 88458 81930==
41923,2024,07,11,09,00,AAXX 11094 41923 41340 81803 10290 20250 39992 40002 79562 8692/ 333 59035 83709 84614 88458 81930==
41923,2024,07,11,12,00,AAXX 11124 41923 21350 71802 10287 20260 39985 49995 70196 84630 333 10344 59031 69958 70005 81709 84615 85360==
41923,2024,07,11,15,00,AAXX 11154 41923 02350 60000 10280 20250 30007 40017 84630 333 59030 70005 82709 83615==
41923,2024,07,11,18,00,AAXX 11184 41923 02345 60000 10286 20270 30007 40017 85630 333 59029 70005 82709 84615==
41923,2024,07,11,21,00,AAXX 11214 41923 02340 70000 10284 20260 39993 40003 85670 333 59032 70005 82709 84615 85458==
41926,2024,07,05,00,00,AAXX 05004 41926 02450 80000 10275 20270 39994 40008 8452/ 333 59007 70038 84615 88459==
41926,2024,07,05,03,00,AAXX 05034 41926 02450 70000 10300 20270 30009 40022 83510 333 20272 59005 70034 83616 86459==
41926,2024,07,05,06,00,AAXX 05064 41926 02450 70000 10315 20270 30000 40013 83510 333 59010 70000 83616 86459==
41926,2024,07,05,09,00,AAXX 05094 41926 02450 60000 10320 20270 39979 49992 83510 333 59008 70000 83616 85459==
41926,2024,07,05,12,00,AAXX 05124 41926 02450 50000 10310 20280 39965 49978 82532 333 10327 59018 70000 82618 83362==
41926,2024,07,05,15,00,AAXX 05154 41926 02450 50000 10290 20270 39996 40010 83510 333 59007 70000 83618 85459==
41926,2024,07,05,18,00,AAXX 05184 41926 02450 50000 10290 20270 39996 40010 83510 333 59007 70000 83618 85459==
41926,2024,07,05,21,00,AAXX 05214 41926 02450 70000 10278 20270 39989 40003 84510 333 58002 70000 84616 86459==
41926,2024,07,06,00,00,AAXX 06004 41926 02450 80000 10276 20270 39996 40010 8452/ 333 58002 70000 84615 88459==
41926,2024,07,06,03,00,AAXX 06034 41926 02350 80000 10298 20270 30003 40016 8462/ 333 20276 59006 70000 82708 84615 88458==
41926,2024,07,06,06,00,AAXX 06064 41926 02456 70000 10338 20270 39999 40012 8352/ 333 59010 70000 83615 87459==
41926,2024,07,06,09,00,AAXX 06094 41926 02350 81805 10300 20270 39994 40007 8462/ 333 58015 70000 81709 83617 88458==
41926,2024,07,06,12,00,AAXX 06124 41926 01450 60000 10268 20260 39982 49995 70162 83510 333 10340 58017 70006 83618 86459==
41926,2024,07,06,15,00,AAXX 06154 41926 02/50 30000 10268 20260 30006 40020 83010 333 58010 79996 83459==
41926,2024,07,06,18,00,AAXX 06184 41926 02450 80000 10268 20260 30013 40027 8352/ 333 58020 79996 83618 88458==
41926,2024,07,06,21,00,AAXX 06214 41926 02450 80000 10270 20260 30010 40024 8352/ 333 58021 79996 83618 88458==
41926,2024,07,07,00,00,AAXX 07004 41926 02450 70000 10270 20260 30007 40021 83510 333 58011 79996 83618 84658==
41926,2024,07,07,03,00,AAXX 07034 41926 02456 50000 10307 20270 30027 40040 82510 333 20268 58024 79996 82618 85459==
41926,2024,07,07,06,00,AAXX 07064 41926 02456 50000 10335 20270 30020 40033 82510 333 58021 79996 82618 85459==
41926,2024,07,07,09,00,AAXX 07094 41926 02456 50000 10340 20260 30002 40015 82510 333 58008 79996 82618 85459==
41926,2024,07,07,12,00,AAXX 07124 41926 11350 80000 10276 20260 30012 40025 60136 79522 8432/ 333 10350 58030 70126 81709 82617 88458==
41926,2024,07,07,15,00,AAXX 07154 41926 01/50 30000 10275 20260 30020 40033 70196 83010 333 58014 70268 83459==
41926,2024,07,07,18,00,AAXX 07184 41926 21/50 20000 10275 20260 30025 40038 70196 82010 333 58012 60145 70268 82459==
41926,2024,07,07,21,00,AAXX 07214 41926 02450 50000 10273 20260 30020 40034 82510 333 58010 70268 82618 85459==
41926,2024,07,08,00,00,AAXX 08004 41926 02450 50000 10272 20260 30016 40030 82510 333 58009 70268 82618 85459==
41926,2024,07,08,03,00,AAXX 08034 41926 02456 50000 10304 20260 30030 40043 83430 333 20270 58003 70268 82618 84362==
41926,2024,07,08,06,00,AAXX 08064 41926 02456 50000 10328 20260 30026 40039 83430 333 58006 70268 82618 84362==
41926,2024,07,08,09,00,AAXX 08094 41926 01450 70000 10300 20270 30009 40022 76062 84510 333 58007 70308 84618 87459==
41926,2024,07,08,12,00,AAXX 08124 41926 11450 50000 10324 20250 30000 40013 60041 70162 84401 333 10346 58012 70182 82618 83820==
41926,2024,07,08,15,00,AAXX 08154 41926 01450 60000 10283 20270 30019 40032 70362 83510 333 59001 70080 83618 86459==
41926,2024,07,08,18,00,AAXX 08184 41926 11450 60000 10280 20270 30026 40040 60046 70262 83510 333 58001 70080 83618 86459==
41926,2024,07,08,21,00,AAXX 08214 41926 02450 70000 10275 20270 30025 40039 83510 333 58005 70080 83618 87459==
41926,2024,07,09,00,00,AAXX 09004 41926 02450 60000 10273 20260 30022 40035 82510 333 58006 70080 82618 86459==
41926,2024,07,09,03,00,AAXX 09034 41926 02450 80000 10300 20270 30034 40047 8452/ 333 20272 58004 70080 84615 88458==
41926,2024,07,09,06,00,AAXX 09064 41926 02456 60000 10320 20270 30034 40047 84470 333 58008 70080 83615 88459==
41926,2024,07,09,09,00,AAXX 09094 41926 02450 61802 10337 20240 30017 40030 84410 333 58008 70000 83616 86459==
41926,2024,07,09,12,00,AAXX 09124 41926 02450 50000 10315 20270 30012 40025 81501 333 10345 58012 70040 81618 85080==
41926,2024,07,09,15,00,AAXX 09154 41926 02450 50000 10295 20270 30028 40041 82501 333 58009 70000 82618 85080==
41926,2024,07,09,18,00,AAXX 09184 41926 02450 61801 10286 20270 30022 40035 82510 333 59004 70000 82618 86459==
41926,2024,07,09,21,00,AAXX 09214 41926 02457 60000 10280 20260 30027 40040 82510 333 58002 70000 82618 86459==
41926,2024,07,10,00,00,AAXX 10004 41926 02450 60000 10274 20260 30033 40047 82510 333 58011 70000 82618 86459==
41926,2024,07,10,03,00,AAXX 10034 41926 02456 41801 10320 20270 30042 40055 83430 333 20274 58008 70000 82618==
41926,2024,07,10,06,00,AAXX 10064 41926 02456 50000 10352 20270 30034 40047 84430 333 58000 70000 82618 83820==
41926,2024,07,10,09,00,AAXX 10094 41926 02456 51801 10356 20270 30007 40020 85400 333 59010 70000 82618 83825==
41926,2024,07,10,12,00,AAXX 10124 41926 02456 31802 10322 20260 30002 40015 81501 333 10366 59010 70000 81618 83080==
41926,2024,07,10,15,00,AAXX 10154 41926 02950 20000 10300 20270 30022 40035 80001 333 59006 70000 82080==
41926,2024,07,10,18,00,AAXX 10184 41926 02450 31802 10290 20270 30024 40038 81501 333 58002 70000 81618 83080==
41926,2024,07,10,21,00,AAXX 10214 41926 02450 50000 10288 20270 30018 40031 81510 333 59009 70000 81618 85459==
41926,2024,07,11,00,00,AAXX 11004 41926 02450 60000 10282 20270 30007 40020 82510 333 59026 70000 82618 86459==
41926,2024,07,11,03,00,AAXX 11034 41926 02450 80000 10304 20270 30013 40026 84510 333 20282 59029 70000 84616 88458==
41926,2024,07,11,06,00,AAXX 11064 41926 02450 80000 10342 20270 30003 40016 84510 333 59031 70000 84616 88458==
41926,2024,07,11,09,00,AAXX 11094 41926 02450 80000 10335 20290 39970 49983 8542/ 333 59037 70000 84615 88458==
41926,2024,07,11,12,00,AAXX 11124 41926 02450 80000 10310 20270 39966 49979 8452/ 333 10350 59036 70000 84615 88458==
41926,2024,07,11,15,00,AAXX 11154 41926 02450 80000 10280 20260 39994 40008 8452/ 333 59028 70000 84615 88458==
41926,2024,07,11,18,00,AAXX 11184 41926 02450 80000 10280 20260 39992 40006 8452/ 333 59032 70000 84615 88458==
41926,2024,07,11,21,00,AAXX 11214 41926 02450 80000 10275 20270 39985 49999 8452/ 333 59033 70000 84615 88458==
41927,2024,07,05,00,00,AAXX 05004 41927 32450 81802 10266 20260 30008 40023 8452/ 333 56499 58007 70064 84616 88458=
41927,2024,07,05,06,00,AAXX 05064 41927 32456 81802 10294 20270 30002 40017 8452/ 333 56499 59006 70028 84616 88458=
41927,2024,07,05,12,00,AAXX 05124 41927 32456 81802 10290 20260 39968 49982 8452/ 333 10266 56499 59020 70000 84616 88458=
41927,2024,07,05,18,00,AAXX 05184 41927 NIL=
41927,2024,07,06,00,00,AAXX 06004 41927 32450 81802 10267 20260 39992 40007 8452/ 333 56499 59006 70000 84616 88458=
41927,2024,07,06,06,00,AAXX 06064 41927 32457 51802 10324 20260 39990 40005 83510 333 56490 59012 70000 83617 84459=
41927,2024,07,06,12,00,AAXX 06124 41927 11456 81802 10280 20250 39982 49997 60036 70262 8452/ 333 10325 56499 58012 70030 84616 88458=
41927,2024,07,07,00,00,AAXX 07004 41927 32456 41801 10258 20250 30010 40025 82510 333 56490 58018 70030 82618 84459=
41927,2024,07,07,06,00,AAXX 07064 41927 32456 71602 10320 20260 30022 40036 84470 333 56490 58032 70030 83617 85459=
41927,2024,07,07,12,00,AAXX 07124 41927 32456 41801 10300 20260 30001 40016 84400 333 10325 56400 58019 70000 83618=
41927,2024,07,07,18,00,AAXX 07184 41927 32956 00000 10272 20250 30020 40035 333 58008 70000=
41927,2024,07,08,00,00,AAXX 08004 41927 31450 51701 10268 20268 30018 40033 70522 82510 333 56490 58008 70000 82618 85459=
41927,2024,07,08,06,00,AAXX 08064 41927 32457 51801 10322 20250 30027 40042 85400 333 56400 58005 70000 82618 83828=
41927,2024,07,08,12,00,AAXX 08124 41927 32957 31801 10325 20260 30002 40016 80001 333 10345 56009 58001 70000 83080=
41927,2024,07,08,18,00,AAXX 08184 41927 NIL=
41927,2024,07,09,00,00,AAXX 09004 41927 32450 61801 10275 20270 30024 40039 83510 333 56490 58006 70000 83618 86459=
41927,2024,07,09,06,00,AAXX 09064 41927 11457 51801 10315 20270 30034 40049 60014 70162 85410 333 56490 58007 70010 82617 83828=
41927,2024,07,09,12,00,AAXX 09124 41927 32457 31802 10325 20260 30002 40016 83400 333 10345 56400 58000 70010 82618=
41927,2024,07,09,18,00,AAXX 09184 41927 32456 00000 10287 20260 30031 40046 333 58015 70010=
41927,2024,07,10,00,00,AAXX 10004 41927 32956 41803 10275 20270 30033 40048 84030 333 56090 58009 70010 84362=
41927,2024,07,10,06,00,AAXX 10064 41927 32457 61802 10330 20260 30036 40050 84410 333 56490 58002 70000 83617 85459=
41927,2024,07,10,12,00,AAXX 10124 41927 11456 71601 10325 20270 39999 40013 69985 70362 84411 333 10340 56499 59003 70008 83617 85459=
41927,2024,07,10,18,00,AAXX 10184 41927 32956 01801 10295 20280 30029 40044 333 59002 70008=
41927,2024,07,11,00,00,AAXX 11004 41927 32956 21802 10276 20270 30007 40022 82030 333 56090 59026 70008 82362=
41927,2024,07,11,06,00,AAXX 11064 41927 32457 61802 10327 20270 30002 40016 83510 333 56490 59034 70008 83617 85459=
41927,2024,07,11,12,00,AAXX 11124 41927 11440 80000 10285 20280 39970 49985 60119 79596 8492/ 333 10335 56499 58029 70110 85361 81930 88459=
41927,2024,07,11,18,00,AAXX 11184 41927 NIL=
41929,2024,07,05,00,00,AAXX 05004 41929 01456 81804 10278 20270 30005 40014 72122 8452/ 333 58000 70006 84616 88460==
41929,2024,07,05,03,00,AAXX 05034 41929 01456 82702 10280 20260 30023 40032 76162 8452/ 333 20264 59005 70071 84616 88460==
41929,2024,07,05,06,00,AAXX 05064 41929 21456 82702 10276 20270 30018 40027 79596 8492/ 333 59006 60237 70236 83616 88460 81930==
41929,2024,07,05,09,00,AAXX 05094 41929 01456 71804 10296 20280 30014 40023 70162 83510 333 58008 70248 83618 87462==
41929,2024,07,05,12,00,AAXX 05124 41929 11456 71802 10290 20270 39984 49993 60016 70262 83510 333 10301 59016 70248 83618 87462==
41929,2024,07,05,15,00,AAXX 05154 41929 02/56 21304 10275 20260 30017 40026 82010 333 59001 70248 82462==
41929,2024,07,05,18,00,AAXX 05184 41929 02/56 21304 10270 20260 30017 40026 82010 333 59008 70248 82462==
41929,2024,07,05,21,00,AAXX 05214 41929 02456 51304 10270 20260 30011 40020 82510 333 59005 70248 82618 85462==
41929,2024,07,06,00,00,AAXX 06004 41929 02456 81304 10270 20260 30005 40014 8351/ 333 58000 70242 83618 88462==
41929,2024,07,06,03,00,AAXX 06034 41929 02456 61802 10302 20270 30019 40028 83510 333 20258 59004 70182 83618 86462==
41929,2024,07,06,06,00,AAXX 06064 41929 02456 61802 10332 20270 30009 40018 83510 333 59009 70012 83618 86462==
41929,2024,07,06,09,00,AAXX 06094 41929 01456 81903 10268 20260 30007 40016 76322 8452/ 333 59007 70153 84615 88459==
41929,2024,07,06,12,00,AAXX 06124 41929 21456 31803 10288 20270 39995 40004 70162 83410 333 10335 58011 60175 70165 82618==
41929,2024,07,06,15,00,AAXX 06154 41929 02/56 30000 10278 20270 30014 40023 83010 333 59003 70165 83462==
41929,2024,07,06,18,00,AAXX 06184 41929 02/56 30000 10272 20270 30021 40030 83010 333 58004 70165 83462==
41929,2024,07,06,21,00,AAXX 06214 41929 02/56 51303 10272 20270 30019 40028 85010 333 58008 70165 85462==
41929,2024,07,07,00,00,AAXX 07004 41929 02456 80000 10272 20270 30016 40025 8351/ 333 58011 70165 83618 88462==
41929,2024,07,07,03,00,AAXX 07034 41929 02456 40902 10300 20270 30037 40046 84400 333 20260 58018 70165 81618 83825==
41929,2024,07,07,06,00,AAXX 07064 41929 02456 50902 10334 20260 30029 40038 85400 333 58020 70165 82618 83825==
41929,2024,07,07,09,00,AAXX 07094 41929 02457 61303 10340 20270 30010 40019 83430 333 58003 70012 82618 84365==
41929,2024,07,07,12,00,AAXX 07124 41929 01457 50000 10287 20280 30013 40022 70162 83430 333 10347 58018 70200 82618 83365==
41929,2024,07,07,15,00,AAXX 07154 41929 02/56 30000 10280 20270 30024 40033 83030 333 58010 70198 83365==
41929,2024,07,07,18,00,AAXX 07184 41929 02/56 20000 10280 20270 30039 40048 82030 333 58018 70198 82365==
41929,2024,07,07,21,00,AAXX 07214 41929 02/56 20000 10278 20270 30031 40040 82030 333 58012 70198 82365==
41929,2024,07,08,00,00,AAXX 08004 41929 02456 80000 10275 20270 30023 40032 8451/ 333 58007 70198 84618 88459==
41929,2024,07,08,03,00,AAXX 08034 41929 02456 70000 10302 20270 30038 40047 83570 333 20270 58001 70198 83618 85462==
41929,2024,07,08,06,00,AAXX 08064 41929 02456 71802 10328 20270 30036 40045 83570 333 58007 70198 83618 85462==
41929,2024,07,08,09,00,AAXX 08094 41929 02458 51801 10343 20240 30017 40026 83430 333 58007 70198 82618 84365==
41929,2024,07,08,12,00,AAXX 08124 41929 02457 81303 10315 20270 30012 40021 8451/ 333 10345 59001 70000 84617 88459==
41929,2024,07,08,15,00,AAXX 08154 41929 01/56 31302 10282 20260 30030 40039 70162 83030 333 58006 70005 83365==
41929,2024,07,08,18,00,AAXX 08184 41929 11/56 31302 10280 20270 30036 40045 69956 70262 83030 333 59003 70005 83365==
41929,2024,07,08,21,00,AAXX 08214 41929 02/56 31302 10280 20270 30035 40044 83030 333 58004 70005 83365==
41929,2024,07,09,00,00,AAXX 09004 41929 02456 80000 10280 20270 30034 40043 8451/ 333 58011 70005 84617 88459==
41929,2024,07,09,03,00,AAXX 09034 41929 02456 70000 10305 20280 30046 40055 83570 333 20275 58008 70005 83618 85462==
41929,2024,07,09,06,00,AAXX 09064 41929 02456 71802 10334 20260 30041 40050 83570 333 58005 70005 83618 85462==
41929,2024,07,09,09,00,AAXX 09094 41929 02456 70000 10324 20260 30031 40041 84420 333 58014 70005 83616 83825 86458==
41929,2024,07,09,12,00,AAXX 09124 41929 02456 61802 10337 20270 30025 40035 83430 333 10337 58013 70005 83616 85362==
41929,2024,07,09,15,00,AAXX 09154 41929 02/56 31802 10293 20270 30038 40048 83030 333 58008 70000 83362==
41929,2024,07,09,18,00,AAXX 09184 41929 02/56 31802 10281 20270 30046 40056 83030 333 58010 70000 83362==
41929,2024,07,09,21,00,AAXX 09214 41929 02456 51802 10280 20270 30045 40055 82530 333 58010 70000 82616 84362==
41929,2024,07,10,00,00,AAXX 10004 41929 02456 70000 10280 20270 30045 40055 82530 333 58011 70000 82616 86362==
41929,2024,07,10,03,00,AAXX 10034 41929 02456 61802 10318 20270 30055 40065 83430 333 20275 58009 70000 82616 85362==
41929,2024,07,10,06,00,AAXX 10064 41929 02457 60000 10345 20270 30045 40054 83430 333 58004 70000 82617 84365==
41929,2024,07,10,09,00,AAXX 10094 41929 02457 61802 10354 20240 30022 40031 83430 333 59009 70000 82616 84362==
41929,2024,07,10,12,00,AAXX 10124 41929 02457 41802 10324 20270 30012 40022 82530 333 10358 59013 70000 82616 83362==
41929,2024,07,10,15,00,AAXX 10154 41929 02/56 41802 10300 20270 30033 40043 83030 333 59005 70000 84362==
41929,2024,07,10,18,00,AAXX 10184 41929 02/56 21802 10293 20270 30034 40044 82030 333 59012 70000 82362==
41929,2024,07,10,21,00,AAXX 10214 41929 02/56 21802 10286 20270 30025 40035 82030 333 59020 70000 82362==
41929,2024,07,11,00,00,AAXX 11004 41929 02/57 21802 10281 20270 30016 40026 82030 333 59029 70000 82362==
41929,2024,07,11,03,00,AAXX 11034 41929 02457 62302 10320 20270 30022 40031 83530 333 20276 59033 70000 83618 85365==
41929,2024,07,11,06,00,AAXX 11064 41929 02457 70000 10342 20270 30011 40020 83510 333 59034 70000 83618 87462==
41929,2024,07,11,09,00,AAXX 11094 41929 01456 81302 10274 20260 39986 49995 79596 8592/ 333 59036 70208 84616 88458 81930==
41929,2024,07,11,12,00,AAXX 11124 41929 01456 71802 10280 20260 39979 49988 70196 83570 333 10345 59033 70224 83618 85459==
41929,2024,07,11,15,00,AAXX 11154 41929 02456 70000 10272 20260 30000 40010 83570 333 59033 70224 83618 85460==
41929,2024,07,11,18,00,AAXX 11184 41929 02456 70000 10270 20260 30003 40013 83570 333 59031 70224 83618 85460==
41929,2024,07,11,21,00,AAXX 11214 41929 02450 80000 10264 20250 39988 49998 8552/ 333 59037 70224 85617 88460==
41933,2024,07,05,00,00,AAXX 05004 41933 21340 81802 10262 20250 30026 40034 76162 8572/ 333 58020 60027 70123 83707 83615 88456==
41933,2024,07,05,03,00,AAXX 05034 41933 01450 81803 10270 20250 30037 40045 70262 8452/ 333 20260 58000 70143 84618 88458==
41933,2024,07,05,06,00,AAXX 05064 41933 11456 71804 10295 20260 30025 40033 60021 70162 84510 333 59010 70043 84618 87459==
41933,2024,07,05,09,00,AAXX 05094 41933 02456 61703 10300 20250 30010 40019 84470 333 59009 70040 83618 85362==
41933,2024,07,05,12,00,AAXX 05124 41933 01456 71803 10284 20250 39999 40008 72122 84510 333 10318 59016 70000 84618 87459==
41933,2024,07,05,15,00,AAXX 05154 41933 02456 70000 10270 20250 30023 40031 83520 333 59016 70040 83618 87458==
41933,2024,07,05,18,00,AAXX 05184 41933 02456 71802 10270 20250 30020 40029 83520 333 59014 70040 83618 87458==
41933,2024,07,05,21,00,AAXX 05214 41933 02456 60000 10270 20250 30017 40026 83520 333 58000 70040 83618 86458==
41933,2024,07,06,00,00,AAXX 06004 41933 02450 60000 10265 20250 30016 40025 83520 333 59010 70020 83618 86458==
41933,2024,07,06,03,00,AAXX 06034 41933 41456 71702 10280 30032 40041 70260 83540 333 20260 59005 83618 86362==
41933,2024,07,06,06,00,AAXX 06064 41933 42456 71702 10310 20260 30024 40033 86830 333 59001 83618 83827==
41933,2024,07,06,09,00,AAXX 06094 41933 42456 62306 10316 20270 30008 40017 85831 333 59002 83618 83827==
41933,2024,07,06,12,00,AAXX 06124 41933 02456 62303 10306 20260 30003 40011 82838 333 10324 58004 70000 81618 83362 85074==
41933,2024,07,06,15,00,AAXX 06154 41933 02950 00000 10285 20260 30019 40028 333 59004 70000==
41933,2024,07,06,18,00,AAXX 06184 41933 02950 00000 10275 20260 30022 40031 333 58002 70000==
41933,2024,07,06,21,00,AAXX 06214 41933 02450 41802 10274 20250 30018 40027 82530 333 58001 70000 82618 84362==
41933,2024,07,07,00,00,AAXX 07004 41933 02456 51702 10270 20260 30020 40029 82530 333 58004 70000 82618 85362==
41933,2024,07,07,03,00,AAXX 07034 41933 02456 51802 10300 20260 30040 40049 82530 333 20262 58008 70000 82618 85362==
41933,2024,07,07,06,00,AAXX 07064 41933 02456 51902 10320 20270 30033 40042 82530 333 58009 70000 82618 85362==
41933,2024,07,07,09,00,AAXX 07094 41933 01456 61802 10320 20270 30015 40023 70362 83520 333 58007 70010 83618 86458==
41933,2024,07,07,12,00,AAXX 07124 41933 11456 71904 10300 20270 30011 40019 60016 70362 83520 333 10335 58008 70010 83618 87458==
41933,2024,07,07,15,00,AAXX 07154 41933 02456 30000 10285 20280 30030 40039 81530 333 58011 70010 81618 83362==
41933,2024,07,07,18,00,AAXX 07184 41933 02/56 50000 10285 20270 30039 40048 85070 333 58017 70010 83458 83362==
41933,2024,07,07,21,00,AAXX 07214 41933 02456 70000 10280 20270 30025 40033 83570 333 58007 70010 83618 85458==
41933,2024,07,08,00,00,AAXX 08004 41933 01350 81903 10280 20270 30034 40043 76122 8572/ 333 58014 70000 82708 83615 88456==
41933,2024,07,08,03,00,AAXX 08034 41933 01456 81802 10290 20270 30042 40051 70262 8452/ 333 20279 58002 70017 84618 88458==
41933,2024,07,08,06,00,AAXX 08064 41933 11456 61802 10309 20260 30040 40049 69976 70162 83570 333 58007 70017 83618 85362==
41933,2024,07,08,09,00,AAXX 08094 41933 02456 61702 10319 20250 30022 40031 84430 333 58007 70007 83618 83826 85362==
41933,2024,07,08,12,00,AAXX 08124 41933 02456 51802 10309 20260 30016 40024 82530 333 10330 58005 70007 82618 85362==
41933,2024,07,08,15,00,AAXX 08154 41933 02456 50000 10285 20260 30033 40041 82530 333 58003 70007 82618 85362==
41933,2024,07,08,18,00,AAXX 08184 41933 02456 50000 10280 20260 30039 40047 82530 333 58000 70007 82618 85362==
41933,2024,07,08,21,00,AAXX 08214 41933 02456 60000 10270 20250 30037 40045 82520 333 58012 70007 82618 86458==
41933,2024,07,09,00,00,AAXX 09004 41933 02456 80000 10270 20250 30039 40048 8452/ 333 58005 70007 84618 88458==
41933,2024,07,09,03,00,AAXX 09034 41933 01356 81902 10289 20260 30055 40063 70262 8567/ 333 20270 58011 70007 82710 83617 86457==
41933,2024,07,09,06,00,AAXX 09064 41933 11456 72003 10315 20270 30050 40059 60006 70162 85830 333 58010 82618 83827 86362==
41933,2024,07,09,09,00,AAXX 09094 41933 42456 71905 10310 20270 30039 40048 85830 333 58017 82617 83827 86362==
41933,2024,07,09,12,00,AAXX 09124 41933 42456 61904 10294 20260 30034 40043 83530 333 10318 58018 83618 85362==
41933,2024,07,09,15,00,AAXX 09154 41933 42/56 21803 10284 20260 30041 40050 82030 333 58008 82362==
41933,2024,07,09,18,00,AAXX 09184 41933 42456 51802 10276 20270 30047 40056 82530 333 58008 82618 85362==
41933,2024,07,09,21,00,AAXX 09214 41933 42456 71802 10276 20270 30044 40053 84520 333 58007 84618 87458==
41933,2024,07,10,00,00,AAXX 10004 41933 01456 71702 10275 20270 30047 40056 70262 84520 333 58010 70000 84618 87458==
41933,2024,07,10,03,00,AAXX 10034 41933 41456 70000 10285 20280 30059 40068 70262 84520 333 20274 58004 84618 87458==
41933,2024,07,10,06,00,AAXX 10064 41933 01456 70000 10300 20280 30057 40066 76162 84520 333 58007 70002 84618 87458==
41933,2024,07,10,09,00,AAXX 10094 41933 01340 81803 10265 20260 30035 40044 79596 8692/ 333 59004 70412 82708 83615 88456 81928==
41933,2024,07,10,12,00,AAXX 10124 41933 21450 51902 10290 20280 30023 40032 70196 82520 333 10325 59011 60428 70422 82618 85458==
41933,2024,07,10,15,00,AAXX 10154 41933 02456 31902 10288 20270 30045 40054 81530 333 58004 70422 81618 83362==
41933,2024,07,10,18,00,AAXX 10184 41933 02456 31904 10285 20280 30043 40052 81530 333 59004 70422 81618 83362==
41933,2024,07,10,21,00,AAXX 10214 41933 02456 51904 10278 20270 30029 40038 83530 333 59015 70422 83617 83362==
41933,2024,07,11,00,00,AAXX 11004 41933 01350 81903 10275 20270 30030 40039 76121 8577/ 333 59017 70002 82708 83615 86457==
41933,2024,07,11,03,00,AAXX 11034 41933 01456 51802 10295 20270 30028 40037 70162 84440 333 20265 59031 70427 82618 83828==
41933,2024,07,11,06,00,AAXX 11064 41933 01456 61803 10320 20270 30023 40032 70262 83570 333 59034 70003 83618 85459==
41933,2024,07,11,09,00,AAXX 11094 41933 02456 51704 10305 20270 30003 40011 84430 333 59032 70015 82618 83828==
41933,2024,07,11,12,00,AAXX 11124 41933 01340 81802 10273 20240 39997 40005 76122 8672/ 333 10325 59026 70050 83709 84615 88457==
41933,2024,07,11,15,00,AAXX 11154 41933 01440 70000 10275 20250 30007 40016 70162 84520 333 59038 70237 84618 88458==
41933,2024,07,11,18,00,AAXX 11184 41933 11450 60000 10270 20260 30015 40024 60186 70162 83520 333 59028 70237 83618 86458==
41933,2024,07,11,21,00,AAXX 11214 41933 02450 60000 10270 20260 30008 40017 83520 333 59021 70237 83618 86458==
41936,2024,07,05,00,00,AAXX 05004 41936 01412 71706 10274 20260 39998 40005 70522 85630 333 59004 70010 82710 83615 85362==
41936,2024,07,05,03,00,AAXX 05034 41936 01425 72504 10304 20270 30016 40023 70522 84630 333 20272 59004 70010 81710 83615 86362==
41936,2024,07,05,06,00,AAXX 05064 41936 01420 72404 10308 20280 30008 40015 72122 85630 333 59010 70000 84708 83615 87360==
41936,2024,07,05,09,00,AAXX 05094 41936 01425 71909 10316 20260 39992 49999 70522 85630 333 59004 70000 82710 83615 85362==
41936,2024,07,05,12,00,AAXX 05124 41936 01425 71906 10300 20270 39974 49981 70522 85630 333 10324 59018 70000 82710 83615 85362==
41936,2024,07,05,15,00,AAXX 05154 41936 41430 51803 10292 20270 30002 40009 70522 83830 333 58002 82615 84362==
41936,2024,07,05,18,00,AAXX 05184 41936 41430 41603 10286 20270 30006 40013 70522 83830 333 59010 82615 84362==
41936,2024,07,05,21,00,AAXX 05214 41936 41420 41603 10280 20270 39990 49997 70522 83830 333 58014 82615 83362==
41936,2024,07,06,00,00,AAXX 06004 41936 41412 81603 10276 20270 39996 40003 70522 83830 333 59002 82615 84362==
41936,2024,07,06,03,00,AAXX 06034 41936 41425 71806 10300 20270 30006 40013 70522 85630 333 20274 59010 82710 83615 85362==
41936,2024,07,06,06,00,AAXX 06064 41936 01314 71803 10282 20272 30010 40017 79596 86920 333 58002 70180 84708 83615 86462 81930==
41936,2024,07,06,09,00,AAXX 06094 41936 01304 82003 10262 20260 30012 40019 79596 88920 333 58020 70120 85704 83615 88460 81930==
41936,2024,07,06,12,00,AAXX 06124 41936 01420 61905 10270 20250 30991 40998 70596 83830 333 10324 58017 70120 82615 84362==
41936,2024,07,06,15,00,AAXX 06154 41936 01430 41703 10274 20250 30008 40015 70596 82530 333 58006 71200 82615 83362==
41936,2024,07,06,18,00,AAXX 06184 41936 01430 41703 10270 20260 30014 40021 70522 82530 333 58008 71200 82615 83362==
41936,2024,07,06,21,00,AAXX 06214 41936 01420 41703 10270 20260 30005 40012 70522 82530 333 58015 71200 82615 83362==
41936,2024,07,07,00,00,AAXX 07004 41936 01412 41703 10270 20260 30012 40019 70522 82530 333 58006 71200 82615 83362==
41936,2024,07,07,03,00,AAXX 07034 41936 01430 51803 10304 20270 30029 40036 70522 83630 333 58023 71200 81610 83362==
41936,2024,07,07,06,00,AAXX 07064 41936 01450 52004 10336 20270 30026 40033 70522 84630 333 58016 71020 82710 83362==
41936,2024,07,07,09,00,AAXX 07094 41936 01450 51804 10352 20260 30002 40009 70522 84630 333 59010 70000 82710 83615==
41936,2024,07,07,12,00,AAXX 07124 41936 01435 61805 10300 20270 30009 40016 70596 84630 333 10354 58018 70000 83710 83615 86362==
41936,2024,07,07,15,00,AAXX 07154 41936 41435 61604 10290 20270 30017 40024 70596 84630 333 58009 83710 83615 86362==
41936,2024,07,07,18,00,AAXX 07184 41936 41420 61503 10286 20270 30004 40011 70522 84630 333 59010 83710 83615 86362==
41936,2024,07,07,21,00,AAXX 07214 41936 41416 61403 10280 20270 30000 40007 70522 84630 333 59005 83710 83615 86362==
41936,2024,07,08,00,00,AAXX 08004 41936 41416 51903 10276 20270 30019 40026 70522 83630 333 58007 81710 83362==
41936,2024,07,08,03,00,AAXX 08034 41936 41440 51706 10312 20280 30030 40037 70522 83830 333 20274 58001 83615 84362==
41936,2024,07,08,06,00,AAXX 08064 41936 41450 51505 10340 20270 30027 40034 70522 83830 333 58001 83615 84362==
41936,2024,07,08,09,00,AAXX 08094 41936 01450 51705 10342 20260 30012 40019 70522 83830 333 58010 70000 83615 84362==
41936,2024,07,08,12,00,AAXX 08124 41936 01440 71607 10326 20270 30005 40012 70522 84630 333 10346 59004 70000 83708 83615 87362==
41936,2024,07,08,15,00,AAXX 08154 41936 01430 42303 10290 20270 30020 40027 70562 82530 333 58003 70020 82615 83362==
41936,2024,07,08,18,00,AAXX 08184 41936 01430 41803 10286 20270 30030 40037 70562 82530 333 58026 70020 82615 83362==
41936,2024,07,08,21,00,AAXX 08214 41936 01430 41703 10282 20260 30020 40027 70511 82530 333 58020 70020 82615 83362==
41936,2024,07,09,00,00,AAXX 09004 41936 01425 61703 10280 20270 30027 40034 70521 83830 333 58008 70020 83615 84362==
41936,2024,07,09,03,00,AAXX 09034 41936 01440 61804 10302 20270 30037 40044 70522 333 20278 58007 70020 83830 83615 85362==
41936,2024,07,09,06,00,AAXX 09064 41936 01450 61605 10352 20270 30035 40041 70522 84830 333 58007 70020 84615 84362==
41936,2024,07,09,09,00,AAXX 09094 41936 01450 51807 10348 20280 30025 40031 70522 84630 333 58006 70020 82710 83362==
41936,2024,07,09,12,00,AAXX 09124 41936 01450 51708 10314 20288 30021 40028 70522 84630 333 10350 58016 70020 83710 83362==
41936,2024,07,09,15,00,AAXX 09154 41936 01450 41603 10302 20270 30031 40038 70522 84830 333 58011 70000 83615 83362==
41936,2024,07,09,18,00,AAXX 09184 41936 01450 31604 10294 20270 30032 40039 70522 82830 333 58002 70000 82615 83362==
41936,2024,07,09,21,00,AAXX 09214 41936 01440 41800 10288 20280 30028 40035 70522 83830 333 58008 70000 83615 83362==
41936,2024,07,10,00,00,AAXX 10004 41936 01416 31804 10282 20270 30039 40046 70521 82830 333 58012 70000 81615 83362==
41936,2024,07,10,03,00,AAXX 10034 41936 01440 52307 10318 20270 30051 40058 70521 84630 333 20278 58014 70000 82710 83615 83362==
41936,2024,07,10,06,00,AAXX 10064 41936 01440 52317 10340 20260 30041 40048 70522 84630 333 58007 70000 82710 83615 83362==
41936,2024,07,10,09,00,AAXX 10094 41936 41440 51805 10320 20280 30019 40026 70562 82830 333 59005 82615 84362==
41936,2024,07,10,12,00,AAXX 10124 41936 01450 42506 10332 20270 30001 40015 70562 82830 333 10342 59013 70010 82615 83362==
41936,2024,07,10,15,00,AAXX 10154 41936 01450 41805 10302 20270 30026 40033 70521 82830 333 59005 70010 82615 83362==
41936,2024,07,10,18,00,AAXX 10184 41936 01450 42005 10294 20270 30033 40040 70521 82830 333 59001 70010 82615 83362==
41936,2024,07,10,21,00,AAXX 10214 41936 01450 42204 10286 20270 30025 40032 70521 82830 333 59003 70010 82615 83362==
41936,2024,07,11,00,00,AAXX 11004 41936 41430 42204 10282 20260 30017 40024 70511 82530 333 59022 82615 83362==
41936,2024,07,11,03,00,AAXX 11034 41936 01440 42407 10316 20280 30017 40024 70511 82830 333 20282 59034 70010 82615 85362==
41936,2024,07,11,06,00,AAXX 11064 41936 01440 52206 10342 20280 30008 40015 70522 84630 333 59033 70010 82710 83615 85362==
41936,2024,07,11,09,00,AAXX 11094 41936 01320 82610 10344 20290 39983 49989 71792 85930 333 59037 70010 84708 83615 87362 81930==
41936,2024,07,11,12,00,AAXX 11124 41936 01320 82004 10274 20260 39976 49983 79596 86920 333 10346 59032 70040 84708 83615 87460 81930==
41936,2024,07,11,15,00,AAXX 11154 41936 01425 81904 10284 20270 39992 49999 70596 85630 333 59034 70050 84710 83610 87362==
41936,2024,07,11,18,00,AAXX 11184 41936 01425 61803 10288 20280 39997 40004 70560 84630 333 59036 70010 83710 83615 85362==
41936,2024,07,11,21,00,AAXX 11214 41936 01420 71803 10282 20270 39984 49991 70522 84630 333 59033 70050 83710 83615 86362==
41938,2024,07,05,00,00,AAXX 05004 41938 32450 40000 10265 20260 30008 40012 83510 333 56990 59004 70096 83618=
41938,2024,07,05,06,00,AAXX 05064 41938 11450 71802 10277 20270 30018 40022 69934 76162 84510 333 56990 59007 70003 84618 85459=
41938,2024,07,05,12,00,AAXX 05124 41938 32450 30000 10290 20250 39996 40000 83500 333 10300 56900 59016 70000 83618=
41938,2024,07,05,18,00,AAXX 05184 41938 32450 30000 10266 20260 30010 40014 83500 333 56900 59010 70003 83618=
41938,2024,07,06,00,00,AAXX 06004 41938 32450 20000 10265 20260 30006 40010 82500 333 56900 59002 70003 82618=
41938,2024,07,06,06,00,AAXX 06064 41938 32456 40000 10327 20270 30006 40010 84400 333 56400 59012 70000 83618=
41938,2024,07,06,12,00,AAXX 06124 41938 11956 42301 10298 20260 30003 40007 60015 70162 83011 333 10335 56099 58007 70010 83460=
41938,2024,07,06,18,00,AAXX 06184 41938 32956 00000 10276 20270 30020 40024 333 58010 70010=
41938,2024,07,07,00,00,AAXX 07004 41938 32456 41801 10275 20270 30021 40025 82510 333 56490 58015 70010 82617 83460=
41938,2024,07,07,06,00,AAXX 07064 41938 11456 60000 10294 20280 30028 40032 60024 72121 83510 333 56490 58022 70030 83616 84460=
41938,2024,07,07,12,00,AAXX 07124 41938 11450 60000 10292 20270 30017 40021 60043 72196 82472 333 10332 56399 58014 70056 81617 81929=
41938,2024,07,07,18,00,AAXX 07184 41938 31945 00000 10273 20260 30034 40038 70520 333 58014 70056=
41938,2024,07,08,00,00,AAXX 08004 41938 31450 70000 10277 20260 30029 40033 70510 81572 333 56399 58008 70056 81617 83460 85079=
41938,2024,07,08,06,00,AAXX 08064 41938 32456 71801 10322 20250 30033 40037 82471 333 56499 58005 70036 81618 85460=
41938,2024,07,08,12,00,AAXX 08124 41938 11450 40000 10300 20270 30017 40021 69924 70162 83410 333 10330 56490 58000 70002 82618=
41938,2024,07,08,18,00,AAXX 08184 41938 32450 40000 10285 20270 30027 40031 83510 333 56990 58006 70002 83618=
41938,2024,07,09,00,00,AAXX 09004 41938 32450 40000 10277 20260 30028 40032 83510 333 56990 58005 70002 83618=
41938,2024,07,09,06,00,AAXX 09064 41938 32456 40000 10320 20260 30037 40041 84410 333 56490 58004 70002 83618=
41938,2024,07,09,12,00,AAXX 09124 41938 32456 51802 10310 20260 30033 40037 82470 333 10336 56490 58016 70000 82617 83460=
41938,2024,07,09,18,00,AAXX 09184 41938 32456 21802 10286 20270 30042 40046 82500 333 56400 58012 70000 82618=
41938,2024,07,10,00,00,AAXX 10004 41938 32456 61801 10284 20270 30044 40048 83510 333 56590 58007 70000 83617 85460=
41938,2024,07,10,06,00,AAXX 10064 41938 32457 41802 10333 20280 30050 40054 83410 333 56590 58013 70000 82618=
41938,2024,07,10,12,00,AAXX 10124 41938 21457 52103 10313 20270 30021 40025 69905 70196 83432 333 10345 56599 59012 79999 81616 83362=
41938,2024,07,10,18,00,AAXX 10184 41938 32456 62103 10290 20260 30036 40040 83530 333 56590 59006 79999 83616 84362=
41938,2024,07,11,00,00,AAXX 11004 41938 31450 62103 10285 20270 30024 40028 70522 83502 333 56509 59020 79999 83616 84080=
41938,2024,07,11,06,00,AAXX 11064 41938 31450 72003 10338 20270 30020 40024 70522 85430 333 56590 59030 79999 83617 83825=
41938,2024,07,11,12,00,AAXX 11124 41938 11440 80000 10251 20250 39991 49995 60717 79596 8492/ 333 10345 56999 59030 70708 83616 81929 88459=
41938,2024,07,11,18,00,AAXX 11184 41938 11450 71801 10280 20280 30002 40006 60026 70396 84411 333 56599 59034 70732 83617 83460=
41939,2024,07,05,00,00,AAXX 05004 41939 21456 80000 10275 20270 30030 40038 70262 8352/ 333 58008 60015 70072 83617 88459==
41939,2024,07,05,03,00,AAXX 05034 41939 02457 80000 10285 20280 30042 40050 8352/ 333 10266 58007 70072 83617 88459==
41939,2024,07,05,06,00,AAXX 05064 41939 01456 80000 10285 20270 30028 40036 76122 8352/ 333 58012 70010 83616 88459==
41939,2024,07,05,09,00,AAXX 05094 41939 02458 50000 10300 20260 30014 40022 83530 333 58002 70018 83618 83363==
41939,2024,07,05,12,00,AAXX 05124 41939 02459 40000 10285 20220 39996 40004 83430 333 10305 59018 70018 82618 83365==
41939,2024,07,05,15,00,AAXX 05154 41939 02456 40000 10275 20260 30026 40034 82530 333 59008 70018 82618 83364==
41939,2024,07,05,18,00,AAXX 05184 41939 02456 40000 10265 20260 30034 40042 82530 333 59006 70018 82617 83364==
41939,2024,07,06,00,00,AAXX 06004 41939 02457 10000 10265 20260 30013 40025 81500 333 59013 70006 81618==
41939,2024,07,06,03,00,AAXX 06034 41939 02458 60000 10295 20280 30027 40035 83510 333 20260 59012 70006 83617 86459==
41939,2024,07,06,06,00,AAXX 06064 41939 02460 70000 10330 20280 30017 40025 83510 333 58011 70000 83617 86459==
41939,2024,07,06,09,00,AAXX 06094 41939 02460 40000 10332 20270 30008 40018 83530 333 59006 70000 82618 83364==
41939,2024,07,06,12,00,AAXX 06124 41939 02458 60000 10312 20260 30000 40008 83510 333 10332 58004 70000 83618 85459==
41939,2024,07,06,15,00,AAXX 06154 41939 02440 60000 10290 20270 30012 40020 83510 333 59014 70000 83618 85459==
41939,2024,07,06,18,00,AAXX 06184 41939 02440 20000 10283 20260 30025 40033 82500 333 59009 70000 82618==
41939,2024,07,06,21,00,AAXX 06214 41939 02456 40000 10282 20260 30026 40034 82530 333 58003 70000 82618 83365==
41939,2024,07,07,00,00,AAXX 07004 41939 02457 40000 10280 20260 30028 40036 82530 333 58011 70000 82618 83365==
41939,2024,07,07,03,00,AAXX 07034 41939 02959 00000 10310 20260 30043 40051 333 20270 58016 70000==
41939,2024,07,07,06,00,AAXX 07064 41939 02460 30000 10330 20270 30034 40042 81530 333 58017 70000 81618 83362==
41939,2024,07,07,09,00,AAXX 07094 41939 02457 51303 10310 20260 30023 40031 83530 333 58015 70000 83617 84360==
41939,2024,07,07,12,00,AAXX 07124 41939 02457 30000 10300 20280 30018 40027 82530 333 10345 58018 70000 82618==
41939,2024,07,07,15,00,AAXX 07154 41939 02450 60000 10290 20280 30034 40042 83510 333 58022 70000 83617 86459==
41939,2024,07,07,18,00,AAXX 07184 41939 02450 60000 10285 20280 30045 40053 83510 333 58020 70000 83617 86459==
41939,2024,07,07,21,00,AAXX 07214 41939 02440 60000 10283 20270 30038 40046 83510 333 58012 70000 83618 85459==
41939,2024,07,08,00,00,AAXX 08004 41939 02456 80000 10280 20270 30030 40038 8352/ 333 58002 70000 83617 88459==
41939,2024,07,08,03,00,AAXX 08034 41939 02458 60000 10300 20280 30045 40053 83510 333 20278 58002 70000 83618 85459==
41939,2024,07,08,06,00,AAXX 08064 41939 02458 70000 10317 20270 30044 40052 83510 333 58010 70000 83617 87459==
41939,2024,07,08,09,00,AAXX 08094 41939 02458 50000 10328 20270 30027 40035 82510 333 58004 70000 82618 85459==
41939,2024,07,08,12,00,AAXX 08124 41939 01457 80000 10290 20280 30025 40033 72162 8352/ 333 10335 58007 70060 83617 88459==
41939,2024,07,08,15,00,AAXX 08154 41939 02456 40000 10280 20260 30037 40045 82530 333 58003 70060 82617 83364==
41939,2024,07,08,18,00,AAXX 08184 41939 02456 40000 10276 20270 30048 40056 82530 333 58003 70060 82617 83364==
41939,2024,07,09,00,00,AAXX 09004 41939 02456 50000 10278 20270 30041 40049 83530 333 58011 70060 83618 83363==
41939,2024,07,09,03,00,AAXX 09034 41939 02458 70000 10305 20280 30054 40061 83510 333 20272 58009 70060 83617 86459==
41939,2024,07,09,09,00,AAXX 09094 41939 02459 20000 10330 20260 30038 40046 81530 333 58011 70070 81618==
41939,2024,07,09,12,00,AAXX 09124 41939 02457 50000 10303 20270 30031 40039 83510 333 10337 58006 70010 83618 85459==
41939,2024,07,09,15,00,AAXX 09154 41939 02440 20000 10290 20270 30043 40051 82500 333 58006 70010 82618==
41939,2024,07,09,18,00,AAXX 09184 41939 02940 00000 10282 20260 30055 40063 333 58007 70010==
41939,2024,07,10,00,00,AAXX 10004 41939 02457 40000 10280 20260 30045 40053 82530 333 58004 70010 82618 83365==
41939,2024,07,10,03,00,AAXX 10034 41939 02460 40000 10310 20290 30064 40072 82530 333 20275 58010 70010 82618 83365==
41939,2024,07,10,06,00,AAXX 10064 41939 01457 50000 10302 20270 30058 40066 72122 82530 333 58008 70020 82617 84360==
41939,2024,07,10,09,00,AAXX 10094 41939 01457 60000 10315 20290 30030 40038 70362 83510 333 59008 70054 83616 86459==
41939,2024,07,10,12,00,AAXX 10124 41939 11457 50000 10291 20270 30026 40034 60036 70162 83530 333 10336 59005 70054 83618 83365==
41939,2024,07,10,15,00,AAXX 10154 41939 02450 40000 10285 20280 30047 40055 82530 333 58004 70054 82618 83365==
41939,2024,07,10,18,00,AAXX 10184 41939 02450 40000 10278 20270 30058 40066 82530 333 58003 70054 82618 83365==
41939,2024,07,10,21,00,AAXX 10214 41939 02940 00000 10282 20270 30038 40046 333 59010 70054==
41939,2024,07,11,00,00,AAXX 11004 41939 02457 60000 10285 20280 30028 40036 83530 333 59017 70054 83618 83365==
41939,2024,07,11,03,00,AAXX 11034 41939 02458 60000 10306 20280 30042 40050 83530 333 20273 59022 70054 83618 83365==
41939,2024,07,11,06,00,AAXX 11064 41939 01458 70000 10320 20290 30022 40030 76122 83510 333 59036 70020 83617 86459==
41939,2024,07,11,09,00,AAXX 11094 41939 01456 70000 10265 20260 39998 40006 76322 83510 333 59032 70078 83616 87459==
41939,2024,07,11,12,00,AAXX 11124 41939 21457 80000 10275 20260 39993 40001 76162 8252/ 333 10320 59033 60129 70128 82616 88458==
41939,2024,07,11,15,00,AAXX 11154 41939 01457 80000 10270 20260 30010 40018 70262 8252/ 333 59037 70145 82617 88459==
41939,2024,07,11,18,00,AAXX 11184 41939 NIL=
41941,2024,07,05,00,00,AAXX 05004 41941 01350 81802 10272 20270 30021 40027 72122 8672/ 333 58002 70020 83708 84614 88457==
41941,2024,07,05,03,00,AAXX 05034 41941 02356 81802 10280 20270 30037 40043 8672/ 333 20266 58004 70520 83708 84614 88457==
41941,2024,07,05,06,00,AAXX 05064 41941 02356 81302 10295 20270 30027 40033 8672/ 333 59009 70520 83708 84614 88458==
41941,2024,07,05,09,00,AAXX 05094 41941 02456 61801 10307 20270 30012 40017 84520 333 59007 70500 84616 86458==
41941,2024,07,05,12,00,AAXX 05124 41941 02456 61802 10288 20260 39995 40000 84611 333 10324 59022 70520 82708 83615 85458==
41941,2024,07,05,15,00,AAXX 05154 41941 02456 60000 10278 20250 30025 40030 84520 333 59013 70020 84614 85458==
41941,2024,07,05,18,00,AAXX 05184 41941 02456 41802 10275 20260 30017 40023 83520 333 59021 70020 83614 84458==
41941,2024,07,05,21,00,AAXX 05214 41941 02356 61801 10274 20260 30003 40009 84610 333 59022 70020 82708 85458==
41941,2024,07,06,00,00,AAXX 06004 41941 02356 61802 10272 20260 30015 40021 84610 333 59006 70000 82708 85458==
41941,2024,07,06,03,00,AAXX 06034 41941 02457 51803 10300 20260 30026 40032 83520 333 20268 59011 70000 83614 85458==
41941,2024,07,06,06,00,AAXX 06064 41941 02456 61803 10320 20270 30021 40026 85420 333 59006 70000 84616 86458==
41941,2024,07,06,09,00,AAXX 06094 41941 02457 51802 10330 20270 30010 40015 85420 333 59002 70000 84616 85458==
41941,2024,07,06,12,00,AAXX 06124 41941 02456 61804 10320 20270 30003 40009 85420 333 10337 58008 70000 84616 86458==
41941,2024,07,06,15,00,AAXX 06154 41941 02440 70000 10292 20270 30015 40020 85420 333 59010 70000 84616 87458==
41941,2024,07,06,18,00,AAXX 06184 41941 02440 70000 10286 20270 30027 40032 85420 333 58010 70000 84616 87458==
41941,2024,07,06,21,00,AAXX 06214 41941 02440 81803 10280 20270 30022 40027 8692/ 333 58019 70000 85616 88458 81928==
41941,2024,07,07,00,00,AAXX 07004 41941 02450 71803 10275 20270 30027 40033 85420 333 58012 70000 84616 87458==
41941,2024,07,07,03,00,AAXX 07034 41941 02456 70000 10302 20270 30037 40042 85420 333 20274 58011 70000 84616 87458==
41941,2024,07,07,06,00,AAXX 07064 41941 21456 70000 10322 20270 30036 40041 70262 85420 333 58015 60025 70023 84616 87458==
41941,2024,07,07,09,00,AAXX 07094 41941 02457 61802 10330 20280 30023 40028 84420 333 58013 70023 83618 86458==
41941,2024,07,07,12,00,AAXX 07124 41941 21356 70000 10292 20280 30029 40034 70362 86620 333 10340 58026 60077 70093 82708 84615 87458==
41941,2024,07,07,15,00,AAXX 07154 41941 02450 60000 10276 20270 30032 40037 85420 333 58017 70093 84615 86458==
41941,2024,07,07,18,00,AAXX 07184 41941 02450 60000 10280 20270 30044 40049 85420 333 58017 70093 84615 86458==
41941,2024,07,07,21,00,AAXX 07214 41941 02450 60000 10277 20270 30030 40035 85420 333 58008 70093 84615 86458==
41941,2024,07,08,00,00,AAXX 08004 41941 02450 60000 10276 20270 30038 40043 85420 333 58011 70093 84615 86458==
41941,2024,07,08,03,00,AAXX 08034 41941 02456 61802 10288 20280 30046 40051 85420 333 20270 58009 70093 84616 86458==
41941,2024,07,08,06,00,AAXX 08064 41941 02456 61802 10315 20270 30039 40044 85420 333 58003 70070 84616 86458==
41941,2024,07,08,09,00,AAXX 08094 41941 02456 71802 10326 20280 30028 40033 85420 333 58005 70070 84616 87458==
41941,2024,07,08,12,00,AAXX 08124 41941 11456 81802 10290 20280 30023 40028 60012 72162 8692/ 333 10330 59006 70010 85614 88456 81924==
41941,2024,07,08,15,00,AAXX 08154 41941 02440 71802 10285 20270 30025 40030 85420 333 59007 70010 84616 87458==
41941,2024,07,08,18,00,AAXX 08184 41941 02440 70000 10284 20260 30035 40040 85420 333 59009 70010 84616 87458==
41941,2024,07,08,21,00,AAXX 08214 41941 02440 71802 10282 20270 30032 40037 85420 333 59009 70010 84616 87458==
41941,2024,07,09,00,00,AAXX 09004 41941 02450 71803 10280 20270 30034 40039 86620 333 59004 70010 82708 84614 87456==
41941,2024,07,09,03,00,AAXX 09034 41941 02456 71803 10310 20270 30049 40054 85420 333 20275 58003 70010 84616 87458==
41941,2024,07,09,06,00,AAXX 09064 41941 02456 71802 10325 20270 30048 40053 85420 333 58009 70010 84614 86458==
41941,2024,07,09,09,00,AAXX 09094 41941 02456 61803 10320 20270 30038 40043 85420 333 58010 70010 84614 86458==
41941,2024,07,09,12,00,AAXX 09124 41941 02456 61803 10304 20250 30033 40038 85420 333 10328 58010 70000 84614 86458==
41941,2024,07,09,15,00,AAXX 09154 41941 02450 61802 10285 20270 30041 40046 85420 333 58016 70000 84616 86458==
41941,2024,07,09,18,00,AAXX 09184 41941 02456 51302 10282 20270 30049 40054 83520 333 58014 70000 83615 84458==
41941,2024,07,10,00,00,AAXX 10004 41941 02456 50000 10280 20280 30054 40059 82520 333 58020 70000 82616 84458==
41941,2024,07,10,03,00,AAXX 10034 41941 02456 51302 10308 20280 30063 40068 83520 333 20278 58014 70000 83616 85458==
41941,2024,07,10,06,00,AAXX 10064 41941 02456 51302 10326 20260 30044 40049 83520 333 58004 70000 83616 85458==
41941,2024,07,10,09,00,AAXX 10094 41941 01456 61802 10312 20250 30046 40051 70362 85420 333 58008 70010 84616 86458==
41941,2024,07,10,12,00,AAXX 10124 41941 11356 70000 10305 20260 30027 40032 60016 70362 86620 333 10340 59006 70010 82708 84615 87457==
41941,2024,07,10,15,00,AAXX 10154 41941 02450 60000 10298 20260 30043 40048 83520 333 58002 70010 83616 86458==
41941,2024,07,10,18,00,AAXX 10184 41941 02450 60000 10292 20260 30051 40056 83520 333 58002 70010 83616 86458==
41941,2024,07,10,21,00,AAXX 10214 41941 02450 60000 10282 20270 30046 40052 83520 333 59004 70010 83616 86458==
41941,2024,07,11,00,00,AAXX 11004 41941 21450 60000 10280 20270 30034 40039 70262 84520 333 59015 60025 70030 84616 86458==
41941,2024,07,11,03,00,AAXX 11034 41941 02456 61802 10310 20270 30037 40042 84520 333 20275 59026 70030 84616 86458==
41941,2024,07,11,06,00,AAXX 11064 41941 02456 72303 10330 20270 30019 40024 85420 333 59025 70030 84616 87458==
41941,2024,07,11,09,00,AAXX 11094 41941 02456 71803 10340 20260 30003 40008 85420 333 59043 70020 84616 87458==
41941,2024,07,11,12,00,AAXX 11124 41941 21450 80000 10270 20270 30000 40005 72996 8692/ 333 10350 59027 60557 70570 85612 88456 81924==
41941,2024,07,11,15,00,AAXX 11154 41941 01440 80000 10274 20260 30016 40021 71322 8692/ 333 59027 70570 85616 88458 81928==
41941,2024,07,11,18,00,AAXX 11184 41941 11440 71802 10280 20270 30021 40026 60012 70162 85420 333 59030 70580 84616 87458==
41941,2024,07,11,21,00,AAXX 11214 41941 02440 71802 10278 20270 30012 40017 85420 333 59034 70580 84616 87458==
41943,2024,07,05,00,00,AAXX 05004 41943 01330 80000 10258 20250 30027 40034 76162 8772/ 333 58001 70020 83709 84614 88458==
41943,2024,07,05,03,00,AAXX 05034 41943 01330 81802 10265 20260 30046 40053 76166 8772/ 333 20257 58003 70140 83709 84615 88458==
41943,2024,07,05,06,00,AAXX 05064 41943 21335 81802 10280 20250 30036 40043 70562 8662/ 333 59008 60035 70120 83710 84614 88458==
41943,2024,07,05,09,00,AAXX 05094 41943 01340 81802 10280 20250 30020 40027 70262 8772/ 333 59009 70110 83709 84615 88458==
41943,2024,07,05,12,00,AAXX 05124 41943 02435 81802 10270 20250 30004 40011 8662/ 333 10290 59019 70060 83710 84615 88457==
41943,2024,07,05,15,00,AAXX 05154 41943 02430 81801 10265 20250 30027 40034 8662/ 333 59010 70060 83710 84615 87457==
41943,2024,07,05,18,00,AAXX 05184 41943 11330 81802 10260 20250 30027 40034 60046 70262 8772/ 333 59018 70100 83709 84614 88458==
41943,2024,07,05,21,00,AAXX 05214 41943 01330 81801 10255 20250 30022 40029 70262 8772/ 333 59017 70110 83709 84614 88458==
41943,2024,07,06,00,00,AAXX 06004 41943 11330 81801 10255 20250 30019 40026 60016 70262 8662/ 333 59008 70090 83710 84615 88457==
41943,2024,07,06,03,00,AAXX 06034 41943 02435 81802 10275 20260 30033 40040 8662/ 333 20253 59013 70070 83710 84615 88458==
41943,2024,07,06,06,00,AAXX 06064 41943 02440 61803 10310 20250 30032 40039 84520 333 59004 70060 84616 86458==
41943,2024,07,06,09,00,AAXX 06094 41943 02440 52303 10316 20250 30012 40019 83520 333 59008 70050 83616 85458==
41943,2024,07,06,12,00,AAXX 06124 41943 02440 52302 10297 20260 30006 40013 83520 333 10320 58002 70050 83616 84458==
41943,2024,07,06,15,00,AAXX 06154 41943 02430 51802 10276 20260 30026 40033 83520 333 59001 70050 83616 84458==
41943,2024,07,06,18,00,AAXX 06184 41943 02430 50000 10270 20250 30036 40043 83520 333 58009 70010 83616 84458==
41943,2024,07,06,21,00,AAXX 06214 41943 02430 50000 10266 20260 30030 40037 83530 333 58008 70000 83616 83362==
41943,2024,07,07,00,00,AAXX 07004 41943 02435 60000 10260 20250 30025 40032 83530 333 58006 70000 83616 84362==
41943,2024,07,07,03,00,AAXX 07034 41943 05440 61802 10296 20250 30045 40052 83530 333 20258 58012 70000 83616 84362==
41943,2024,07,07,06,00,AAXX 07064 41943 02440 51802 10328 20250 30037 40044 83530 333 58005 70000 83616 83362==
41943,2024,07,07,09,00,AAXX 07094 41943 02440 62302 10336 20250 30019 40026 83530 333 58007 70000 83616 84362==
41943,2024,07,07,12,00,AAXX 07124 41943 02440 52302 10314 20250 30017 40024 83530 333 10340 58011 70000 83616 83362==
41943,2024,07,07,15,00,AAXX 07154 41943 02430 51802 10288 20260 30034 40041 83530 333 58008 70000 83616 83362==
41943,2024,07,07,18,00,AAXX 07184 41943 02430 60000 10284 20260 30046 40053 83530 333 58010 70000 83616 84362==
41943,2024,07,07,21,00,AAXX 07214 41943 02430 70000 10278 20270 30040 40047 84520 333 58010 70000 84616 86458==
41943,2024,07,08,00,00,AAXX 08004 41943 01330 80000 10270 20260 30032 40039 76102 8772/ 333 58007 70110 83709 84614 88458==
41943,2024,07,08,03,00,AAXX 08034 41943 01335 81802 10274 20250 30047 40054 70262 8662/ 333 20267 58002 70130 83710 84614 88458==
41943,2024,07,08,06,00,AAXX 08064 41943 11335 81802 10296 20260 30043 40050 60056 70262 8662/ 333 58006 70140 83710 84614 88458==
41943,2024,07,08,09,00,AAXX 08094 41943 02440 50000 10318 20260 30027 40034 82520 333 58008 70140 82616 85458==
41943,2024,07,08,12,00,AAXX 08124 41943 02440 51802 10306 20250 30020 40027 82530 333 10322 58003 70140 82618 85362==
41943,2024,07,08,15,00,AAXX 08154 41943 02430 61802 10284 20250 30035 40042 83520 333 58001 70140 83616 85458==
41943,2024,07,08,18,00,AAXX 08184 41943 02430 80000 10276 20270 30047 40054 8662/ 333 58001 70140 82710 84615 88458==
41943,2024,07,08,21,00,AAXX 08214 41943 02430 80000 10270 20250 30044 40051 8662/ 333 58004 70140 83710 84615 88458==
41943,2024,07,09,00,00,AAXX 09004 41943 01435 80000 10265 20260 30043 40050 70266 8662/ 333 58011 70010 83710 84615 88458==
41943,2024,07,09,03,00,AAXX 09034 41943 02440 61803 10300 20260 30056 40063 83520 333 20265 58009 70010 83616 86458==
41943,2024,07,09,06,00,AAXX 09064 41943 02440 81805 10310 20260 30055 40062 8662/ 333 58012 70010 83710 84615 88458==
41943,2024,07,09,09,00,AAXX 09094 41943 01330 81803 10270 20260 30052 40059 76162 8772/ 333 58025 70200 84708 84613 88456==
41943,2024,07,09,12,00,AAXX 09124 41943 21435 81302 10275 20270 30036 40043 70266 8662/ 333 10325 58016 60638 70640 83710 84615 88458==
41943,2024,07,09,15,00,AAXX 09154 41943 02430 81802 10275 20260 30052 40059 8662/ 333 58017 70640 83710 84615 88458==
41943,2024,07,09,18,00,AAXX 09184 41943 01330 81802 10274 20270 30057 40064 70262 8662/ 333 58010 70010 83709 84615 88458==
41943,2024,07,09,21,00,AAXX 09214 41943 02430 80000 10269 20260 30055 40062 8662/ 333 58011 70650 83710 84615 88458==
41943,2024,07,10,00,00,AAXX 10004 41943 01435 80000 10265 20260 30058 40065 70262 8762/ 333 58015 70010 84710 84615 88458==
41943,2024,07,10,03,00,AAXX 10034 41943 02435 80502 10277 20260 30069 40076 8662/ 333 20262 58013 70650 83710 84615 88458==
41943,2024,07,10,06,00,AAXX 10064 41943 02435 81303 10310 20250 30066 40073 8662/ 333 58011 70650 83710 84615 88458==
41943,2024,07,10,09,00,AAXX 10094 41943 02440 71306 10310 20260 30042 40049 84420 333 59010 70460 83616 85458==
41943,2024,07,10,12,00,AAXX 10124 41943 01440 71803 10295 20270 30030 40037 70262 84420 333 10320 59006 70170 83616 85458==
41943,2024,07,10,15,00,AAXX 10154 41943 02430 81802 10284 20260 30052 40059 8662/ 333 58000 70190 83710 84615 88458==
41943,2024,07,10,18,00,AAXX 10184 41943 02430 80000 10279 20270 30052 40059 8662/ 333 59005 70190 83710 84615 88459==
41943,2024,07,10,21,00,AAXX 10214 41943 02430 80000 10272 20260 30042 40049 8662/ 333 59013 70180 83710 84615 88458==
41943,2024,07,11,00,00,AAXX 11004 41943 02435 80000 10267 20260 30034 40041 8662/ 333 59024 70170 83710 84615 88458==
41943,2024,07,11,03,00,AAXX 11034 41943 02435 80000 10295 20270 30039 40046 8662/ 333 20265 59030 70170 83710 84615 88458==
41943,2024,07,11,06,00,AAXX 11064 41943 01330 81302 10280 20260 30029 40036 76162 8772/ 333 59037 70020 84709 84614 88456==
41943,2024,07,11,09,00,AAXX 11094 41943 01430 51802 10287 20280 30004 40011 70266 83520 333 59038 70420 83616 85458==
41943,2024,07,11,12,00,AAXX 11124 41943 11435 81803 10288 20250 39998 40005 60236 70362 8662/ 333 10310 59032 70250 83710 84615 88458==
41943,2024,07,11,15,00,AAXX 11154 41943 01330 81802 10268 20260 30018 40025 76066 8772/ 333 59034 70290 84709 84614 88456==
41943,2024,07,11,18,00,AAXX 11184 41943 21330 81802 10260 20250 30020 40027 70262 8662/ 333 59032 60045 70290 83709 84615 88458==
41943,2024,07,11,21,00,AAXX 11214 41943 02430 80000 10261 20250 30016 40023 8662/ 333 59026 70290 83710 84615 88458==
41944,2024,07,05,00,00,AAXX 05004 41944 NIL=
41944,2024,07,05,06,00,AAXX 05064 41944 NIL=
41944,2024,07,05,18,00,AAXX 05184 41944 NIL=
41944,2024,07,06,00,00,AAXX 06004 41944 NIL=
41944,2024,07,07,06,00,AAXX 07064 41944 NIL=
41944,2024,07,07,12,00,AAXX 07124 41944 NIL=
41944,2024,07,08,00,00,AAXX 08004 41944 NIL=
41944,2024,07,08,06,00,AAXX 08064 41944 NIL=
41944,2024,07,08,12,00,AAXX 08124 41944 NIL=
41944,2024,07,08,18,00,AAXX 08184 41944 NIL=
41944,2024,07,09,00,00,AAXX 09004 41944 NIL=
41944,2024,07,09,12,00,AAXX 09124 41944 NIL=
41944,2024,07,09,18,00,AAXX 09184 41944 NIL=
41944,2024,07,10,00,00,AAXX 10004 41944 NIL=
41944,2024,07,10,06,00,AAXX 10064 41944 NIL=
41944,2024,07,10,12,00,AAXX 10124 41944 NIL=
41944,2024,07,10,18,00,AAXX 10184 41944 NIL=
41944,2024,07,11,06,00,AAXX 11064 41944 NIL=
41944,2024,07,11,12,00,AAXX 11124 41944 NIL=
41944,2024,07,11,18,00,AAXX 11184 41944 NIL=
41946,2024,07,05,00,00,AAXX 05004 41946 02456 81703 10287 20280 30010 40015 8452/ 333 58002 70071 84618 88459==
41946,2024,07,05,03,00,AAXX 05034 41946 02456 81808 10300 20270 30033 40038 8352/ 333 20273 59002 70071 83618 88459==
41946,2024,07,05,06,00,AAXX 05064 41946 02456 81908 10319 20290 30020 40024 8352/ 333 59007 70070 83618 88459==
41946,2024,07,05,09,00,AAXX 05094 41946 02456 81806 10316 20280 30001 40005 8352/ 333 59011 70000 83618 88459==
41946,2024,07,05,12,00,AAXX 05124 41946 02456 70000 10300 20270 39992 49997 82520 333 10320 59017 70000 83618 87459==
41946,2024,07,05,15,00,AAXX 05154 41946 02456 50000 10298 20260 30020 40025 82520 333 59009 70000 82618 85459==
41946,2024,07,05,18,00,AAXX 05184 41946 02456 50000 10292 20270 30008 40013 82520 333 59022 70000 82618 85459==
41946,2024,07,05,21,00,AAXX 05214 41946 02456 80000 10290 20280 30002 40007 8252/ 333 59007 70000 82618 88459==
41946,2024,07,06,00,00,AAXX 06004 41946 02456 80000 10288 20280 30007 40012 8252/ 333 59003 70000 82618 88459==
41946,2024,07,06,03,00,AAXX 06034 41946 02456 71804 10317 20280 30018 40022 82520 333 20283 59015 70000 82618 88459==
41946,2024,07,06,06,00,AAXX 06064 41946 02456 81808 10330 20270 30013 40017 8442/ 333 59007 70000 83618 88459==
41946,2024,07,06,09,00,AAXX 06094 41946 01456 80000 10290 20270 30008 40013 70262 8432/ 333 58007 70100 83618 88458 81929==
41946,2024,07,06,12,00,AAXX 06124 41946 11556 50000 10286 20280 39997 40002 60106 70162 83530 333 10336 58005 70100 83620 84360==
41946,2024,07,06,15,00,AAXX 06154 41946 02/56 60000 10284 20270 30022 40027 86070 333 58002 70100 85459==
41946,2024,07,06,18,00,AAXX 06184 41946 02556 50000 10282 20270 30029 40034 82530 333 58017 70100 82618 84360==
41946,2024,07,06,21,00,AAXX 06214 41946 02/56 40000 10277 20270 30025 40030 84030 333 58023 70100 84362==
41946,2024,07,07,00,00,AAXX 07004 41946 02/56 60000 10274 20260 30021 40026 83042 333 58014 70100 83362 84080==
41946,2024,07,07,03,00,AAXX 07034 41946 02456 70000 10316 20270 30039 40044 84320 333 20270 58027 70100 83618 87458 81929==
41946,2024,07,07,06,00,AAXX 07064 41946 02456 60000 10336 20270 30034 40038 83320 333 58021 70000 82618 86458 81929==
41946,2024,07,07,09,00,AAXX 07094 41946 01350 82201 10276 20270 30025 40030 76122 8672/ 333 58017 70022 82710 84617 88458==
41946,2024,07,07,12,00,AAXX 07124 41946 21456 70000 10298 20290 30018 40023 70162 83570 333 10342 58021 60035 70032 83618 86459==
41946,2024,07,07,15,00,AAXX 07154 41946 01456 21802 10286 20280 30033 40038 70162 82500 333 58011 70032 82618==
41946,2024,07,07,18,00,AAXX 07184 41946 11456 20000 10283 20270 30043 40048 60006 70262 82500 333 58014 70032 82618==
41946,2024,07,07,21,00,AAXX 07214 41946 02456 30000 10282 20270 30028 40033 82530 333 58003 70032 82618==
41946,2024,07,08,00,00,AAXX 08004 41946 02456 60000 10280 20270 30031 40036 81570 333 58010 70032 81618 84460==
41946,2024,07,08,03,00,AAXX 08034 41946 02456 70000 10290 20270 30041 40046 84420 333 20274 58002 70032 83618 87459==
41946,2024,07,08,06,00,AAXX 08064 41946 02456 70000 10324 20250 30040 40045 84420 333 58006 70032 83618 87459==
41946,2024,07,08,09,00,AAXX 08094 41946 02456 70000 10320 20270 30022 40026 84420 333 59003 70010 83618 87459==
41946,2024,07,08,12,00,AAXX 08124 41946 21450 70000 10310 20270 30017 40021 70262 84420 333 10330 59001 60005 83618 87459==
41946,2024,07,08,15,00,AAXX 08154 41946 42456 50000 10305 20260 30031 40036 83520 333 59002 83618 84458==
41946,2024,07,08,18,00,AAXX 08184 41946 NIL=
41946,2024,07,08,21,00,AAXX 08214 41946 42456 70000 10290 20280 30034 40039 82520 333 58006 82618 87458==
41946,2024,07,09,00,00,AAXX 09004 41946 42456 70000 10288 20280 30038 40043 82520 333 58007 82618 87458==
41946,2024,07,09,03,00,AAXX 09034 41946 42456 71803 10310 20270 30049 40054 82520 333 20284 58008 82618 87458==
41946,2024,07,09,06,00,AAXX 09064 41946 42456 71805 10332 20270 30051 40055 84420 333 58011 83618 87458==
41946,2024,07,09,09,00,AAXX 09094 41946 02456 61903 10324 20270 30036 40041 86300 333 58014 70000 83618 83822 81929==
41946,2024,07,09,12,00,AAXX 09124 41946 02556 50000 10320 20270 30026 40030 83430 333 10345 58009 70000 82620 84362==
41946,2024,07,09,15,00,AAXX 09154 41946 02556 31701 10302 20270 30041 40045 83500 333 58010 70000 83620==
41946,2024,07,09,18,00,AAXX 09184 41946 NIL=
41946,2024,07,09,21,00,AAXX 09214 41946 02456 40000 10296 20280 30048 40053 84400 333 58014 70000 83618==
41946,2024,07,10,00,00,AAXX 10004 41946 02/56 60000 10290 20289 30046 40050 86070 333 58008 70000 85459==
41946,2024,07,10,03,00,AAXX 10034 41946 02456 71802 10315 20270 30063 40068 84420 333 20286 58014 70000 83618 87459==
41946,2024,07,10,06,00,AAXX 10064 41946 02456 61808 10340 20260 30052 40056 84420 333 58001 70000 83618 86459==
41946,2024,07,10,09,00,AAXX 10094 41946 02456 51912 10350 20270 30029 40033 84401 333 59007 70000 83618==
41946,2024,07,10,12,00,AAXX 10124 41946 02456 31909 10332 20260 30022 40026 81501 333 10352 59004 70000 81618==
41946,2024,07,10,15,00,AAXX 10154 41946 02456 11809 10309 20260 30043 40048 81500 333 58002 70000 81618==
41946,2024,07,10,18,00,AAXX 10184 41946 02456 42110 10300 20270 30044 40049 83530 333 59006 70000 83618==
41946,2024,07,10,21,00,AAXX 10214 41946 02456 41906 10297 20280 30030 40035 82530 333 59018 70000 82618==
41946,2024,07,11,00,00,AAXX 11004 41946 02456 61806 10294 20270 30025 40030 82501 333 59021 70000 82618 84080==
41946,2024,07,11,03,00,AAXX 11034 41946 02456 61803 10322 20270 30030 40035 82501 333 20291 59033 70000 82618 84080==
41946,2024,07,11,06,00,AAXX 11064 41946 02456 61808 10338 20280 30020 40025 82501 333 59032 70000 82618 84080==
41946,2024,07,11,09,00,AAXX 11094 41946 01456 71810 10348 20280 39992 49996 71722 84320 333 59037 70000 83618 87458 81928==
41946,2024,07,11,12,00,AAXX 11124 41946 01456 81806 10318 20280 39986 49990 70392 8432/ 333 10353 59036 70000 83618 88458 81928==
41946,2024,07,11,15,00,AAXX 11154 41946 41456 51804 10310 20280 30005 40009 70162 82520 333 59038 82618 85458==
41946,2024,07,11,18,00,AAXX 11184 41946 11456 51803 10305 20290 30007 40011 60006 70262 82520 333 59037 82618 85458==
41946,2024,07,11,21,00,AAXX 11214 41946 42456 80000 10280 20260 39994 49999 8432/ 333 59036 83618 88458 81928==
41947,2024,07,05,00,00,AAXX 05004 41947 02456 81803 10283 20280 30013 40015 8352/ 333 58000 70497 83618 88459==
41947,2024,07,05,03,00,AAXX 05034 41947 02450 80000 10300 20290 30033 40036 8352/ 333 20265 59003 70165 83618 88458==
41947,2024,07,05,06,00,AAXX 05064 41947 02456 70000 10310 20280 30021 40024 83570 333 58000 70155 83618 86458==
41947,2024,07,05,09,00,AAXX 05094 41947 02456 81803 10300 20280 30008 40010 8451/ 333 59008 70015 84617 88459==
41947,2024,07,05,12,00,AAXX 05124 41947 02456 41803 10294 20270 39996 49998 82530 333 10315 59016 70000 82618 83362==
41947,2024,07,05,15,00,AAXX 05154 41947 02456 71804 10288 20280 30021 40023 84570 333 59009 70000 84617 86459==
41947,2024,07,05,18,00,AAXX 05184 41947 02456 81803 10280 20270 30014 40016 8452/ 333 59018 70000 84617 88459==
41947,2024,07,05,21,00,AAXX 05214 41947 02456 61802 10278 20270 30004 40006 83570 333 59014 70000 83618 85459==
41947,2024,07,06,00,00,AAXX 06004 41947 02356 81802 10284 20270 30012 40014 8562/ 333 59001 70000 81710 84616 88458==
41947,2024,07,06,03,00,AAXX 06034 41947 02456 71802 10310 20280 30022 40024 83570 333 20273 59012 70000 83618 85459==
41947,2024,07,06,06,00,AAXX 06064 41947 01356 80000 10300 20290 30017 40019 76122 8672/ 333 59005 70040 82708 84615 88458==
41947,2024,07,06,09,00,AAXX 06094 41947 01356 81801 10225 20250 30014 40016 76166 8672/ 333 58006 70228 82709 84617 88458==
41947,2024,07,06,12,00,AAXX 06124 41947 11456 30000 10290 20270 30001 40003 60196 70162 83500 333 10330 58005 70228 83618==
41947,2024,07,06,15,00,AAXX 06154 41947 02450 20000 10282 20270 30027 40029 82500 333 58006 70228 82618==
41947,2024,07,06,21,00,AAXX 06214 41947 02450 30000 10280 20270 30028 40030 83500 333 58024 70228 83618==
41947,2024,07,07,00,00,AAXX 07004 41947 02456 30000 10278 20278 30026 40028 83500 333 58014 70228 83618==
41947,2024,07,07,03,00,AAXX 07034 41947 02456 70000 10303 20270 30040 40042 83570 333 20264 58018 70228 83618 85459==
41947,2024,07,07,06,00,AAXX 07064 41947 02457 61302 10330 20270 30034 40036 86400 333 58017 70190 83618 83820==
41947,2024,07,07,09,00,AAXX 07094 41947 02456 62103 10330 20250 30017 40019 86400 333 58003 70000 83618 83820==
41947,2024,07,07,12,00,AAXX 07124 41947 02456 60000 10315 20270 30018 40020 83570 333 10345 58017 70000 83618 85458==
41947,2024,07,07,15,00,AAXX 07154 41947 02950 00000 10298 20280 30030 40032 333 58003 70000==
41947,2024,07,07,18,00,AAXX 07184 41947 02950 00000 10290 20280 30044 40046 333 58013 70000==
41947,2024,07,07,21,00,AAXX 07214 41947 02950 00000 10288 20280 30038 40040 333 58010 70000==
41947,2024,07,08,00,00,AAXX 08004 41947 02456 20000 10285 20280 30033 40035 82500 333 58007 70000 82618==
41947,2024,07,08,03,00,AAXX 08034 41947 02456 70000 10300 20280 30041 40044 83570 333 20280 58002 70000 83618 86458==
41947,2024,07,08,06,00,AAXX 08064 41947 21456 70000 10330 20270 30034 40037 70262 83570 333 58001 69925 70002 83618 86458==
41947,2024,07,08,09,00,AAXX 08094 41947 02456 71805 10343 20260 30023 40025 83570 333 58006 70002 83618 86458==
41947,2024,07,08,12,00,AAXX 08124 41947 02456 71805 10322 20260 30016 40018 83570 333 10345 59002 70002 83618 86458==
41947,2024,07,08,15,00,AAXX 08154 41947 02450 21806 10300 20280 30037 40039 82500 333 59007 70002 82618==
41947,2024,07,08,18,00,AAXX 08184 41947 02450 21802 10295 20290 30044 40046 82500 333 58000 70002 82618==
41947,2024,07,08,21,00,AAXX 08214 41947 02450 81802 10293 20280 30038 40040 82570 333 58000 70002 83618 88458==
41947,2024,07,09,00,00,AAXX 09004 41947 02456 81802 10290 20280 30033 40035 8352/ 333 58000 70002 83618 88458==
41947,2024,07,09,03,00,AAXX 09034 41947 02450 80000 10315 20280 30050 40053 8352/ 333 20285 58009 70002 83618 88458==
41947,2024,07,09,06,00,AAXX 09064 41947 02450 80000 10325 20280 30051 40054 8352/ 333 58017 70000 83618 88458==
41947,2024,07,09,09,00,AAXX 09094 41947 01350 72103 10293 20270 30040 40042 76122 84770 333 58017 70004 81710 83616 86458==
41947,2024,07,09,12,00,AAXX 09124 41947 21456 61803 10315 20270 30030 40032 70162 83430 333 10338 58014 69965 70006 82618 85362==
41947,2024,07,09,15,00,AAXX 09154 41947 02456 21803 10300 20270 30044 40046 82500 333 58007 70006 82618==
41947,2024,07,09,18,00,AAXX 09184 41947 02456 21802 10292 20280 30053 40055 82500 333 58009 70006 82618==
41947,2024,07,09,21,00,AAXX 09214 41947 02456 21802 10288 20280 30048 40050 82500 333 58010 70006 82618==
41947,2024,07,10,00,00,AAXX 10004 41947 02456 51802 10287 20280 30053 40055 82530 333 58020 70006 82618 84362==
41947,2024,07,10,03,00,AAXX 10034 41947 02456 62302 10325 20280 30063 40065 85430 333 20280 58012 70006 82618 83820==
41947,2024,07,10,06,00,AAXX 10064 41947 02456 62202 10345 20270 30054 40056 83570 333 58002 70006 83618 85458==
41947,2024,07,10,09,00,AAXX 10094 41947 02456 52304 10340 20280 30032 40034 83570 333 59008 70002 83618 84458==
41947,2024,07,10,12,00,AAXX 10124 41947 02456 22302 10335 20270 30022 40024 82500 333 10348 59008 70000 82618==
41947,2024,07,10,15,00,AAXX 10154 41947 02950 01802 10305 20270 30045 40047 333 58001 70000==
41947,2024,07,10,18,00,AAXX 10184 41947 02950 01802 10295 20280 30044 40046 333 59009 70000==
41947,2024,07,10,21,00,AAXX 10214 41947 02950 01802 10292 20270 30033 40035 333 59015 70000==
41947,2024,07,11,00,00,AAXX 11004 41947 02456 21802 10290 20280 30029 40031 82500 333 59024 70000 82618==
41947,2024,07,11,03,00,AAXX 11034 41947 02456 71802 10320 20270 30033 40035 83570 333 20284 59030 70000 83618 85459==
41947,2024,07,11,06,00,AAXX 11064 41947 02457 60000 10345 20280 30022 40024 83570 333 59032 70000 83618 84459==
41947,2024,07,11,09,00,AAXX 11094 41947 02456 81804 10335 20300 30003 40005 8352/ 333 59029 70000 83618 88458==
41947,2024,07,11,12,00,AAXX 11124 41947 01350 80000 10280 20270 39992 49994 79596 8592/ 333 10362 59030 70340 82707 83616 88456 81925==
41947,2024,07,11,15,00,AAXX 11154 41947 02450 50000 10295 20290 30011 40013 83570 333 59034 70340 83618 84458==
41947,2024,07,11,18,00,AAXX 11184 41947 02450 30000 10295 20290 30003 40005 83500 333 59029 70240 83618==
41947,2024,07,11,21,00,AAXX 11214 41947 02450 51802 10295 20290 30003 40005 83570 333 59030 70340 83618 84458==
41950,2024,07,05,00,00,AAXX 05004 41950 02350 80000 10268 20268 30024 40027 8562/ 333 58008 70110 82708 84616 88458==
41950,2024,07,05,03,00,AAXX 05034 41950 01340 80000 10265 20260 30037 40040 76162 8572/ 333 20263 59004 70144 82708 84616 88458==
41950,2024,07,05,06,00,AAXX 05064 41950 21340 80000 10270 20260 30032 40035 76162 8572/ 333 59004 60059 70162 82708 84616 88458==
41950,2024,07,05,09,00,AAXX 05094 41950 01330 80000 10272 20270 30017 40020 76022 8572/ 333 59004 70114 82708 84616 88458==
41950,2024,07,05,12,00,AAXX 05124 41950 21450 60000 10270 20260 39995 49998 70162 83510 333 10280 59021 60017 70080 83617 86459==
41950,2024,07,05,15,00,AAXX 05154 41950 02450 30000 10265 20260 30022 40025 83500 333 59014 70064 83617==
41950,2024,07,05,18,00,AAXX 05184 41950 02450 30000 10266 20260 30022 40025 83500 333 59012 70064 83617==
41950,2024,07,05,21,00,AAXX 05214 41950 02450 60000 10266 20260 30020 40023 83510 333 59001 70064 83617 86459==
41950,2024,07,06,00,00,AAXX 06004 41950 02350 80000 10266 20266 30017 40020 8562/ 333 59007 70064 82708 84616 88458==
41950,2024,07,06,03,00,AAXX 06034 41950 02350 80000 10298 20280 30034 40036 8562/ 333 20256 59003 70030 82708 84646 88458==
41950,2024,07,06,06,00,AAXX 06064 41950 01450 60000 10292 20280 30026 40028 72162 83510 333 59006 70150 83617 84459==
41950,2024,07,06,09,00,AAXX 06094 41950 02450 40000 10316 20270 30008 40010 84400 333 59009 70156 83617==
41950,2024,07,06,12,00,AAXX 06124 41950 01340 80000 10278 20270 30006 40008 76162 8672/ 333 10325 58011 70050 82708 84616 88458==
41950,2024,07,06,15,00,AAXX 06154 41950 02450 30000 10274 20270 30026 40028 83500 333 58004 70193 83617==
41950,2024,07,06,18,00,AAXX 06184 41950 02450 20000 10272 20270 30030 40032 82500 333 58008 70193 82617==
41950,2024,07,06,21,00,AAXX 06214 41950 02450 40000 10272 20270 30020 40022 83530 333 58000 70193 83617==
41950,2024,07,07,00,00,AAXX 07004 41950 02450 50000 10274 20270 30020 40022 82531 333 58003 70193 82617 83362==
41950,2024,07,07,03,00,AAXX 07034 41950 02450 50000 10307 20270 30041 40043 84431 333 20267 58007 70193 83617==
41950,2024,07,07,06,00,AAXX 07064 41950 02350 60000 10325 20270 30034 40036 84811 333 58008 70047 81708 84616 86459==
41950,2024,07,07,09,00,AAXX 07094 41950 01450 70000 10293 20270 30022 40024 72162 84510 333 58014 70057 84617 87459==
41950,2024,07,07,12,00,AAXX 07124 41950 01450 60000 10305 20280 30017 40019 72162 84330 333 10334 58011 70016 83617 84362 81928==
41950,2024,07,07,15,00,AAXX 07154 41950 02450 40000 10287 20270 30037 40039 83530 333 58011 70016 83617==
41950,2024,07,07,18,00,AAXX 07184 41950 02450 30000 10280 20260 30047 40049 82530 333 58017 70016 82617==
41950,2024,07,07,21,00,AAXX 07214 41950 02350 60000 10278 20270 30032 40034 84610 333 58012 70016 81708 84616 86459==
41950,2024,07,08,00,00,AAXX 08004 41950 02350 80000 10277 20277 30035 40037 8562/ 333 58015 70016 82708 84616 88458==
41950,2024,07,08,03,00,AAXX 08034 41950 02450 70000 10301 20270 30041 40043 83570 333 20274 58000 70016 83617 86459==
41950,2024,07,08,06,00,AAXX 08064 41950 02450 71902 10320 20250 30037 40039 85470 333 58003 70016 84617 85459==
41950,2024,07,08,09,00,AAXX 08094 41950 01450 70000 10310 20290 30024 40026 72122 85410 333 58002 70016 84617 87459==
41950,2024,07,08,12,00,AAXX 08124 41950 21450 60000 10307 20260 30023 40025 70162 84431 333 10336 58006 60015 70010 83617 84362==
41950,2024,07,08,15,00,AAXX 08154 41950 02450 20000 10288 20270 30034 40036 82530 333 59003 70010 82617==
41950,2024,07,08,18,00,AAXX 08184 41950 02450 10000 10284 20270 30043 40045 81500 333 59004 70010 81617==
41950,2024,07,08,21,00,AAXX 08214 41950 02450 60000 10280 20270 30041 40043 83510 333 58009 70010 83617 86459==
41950,2024,07,09,00,00,AAXX 09004 41950 02350 80000 10278 20278 30039 40041 8562/ 333 58004 70010 82708 84616 88458==
41950,2024,07,09,03,00,AAXX 09034 41950 02350 70000 10308 20270 30054 40056 84610 333 20275 58013 70010 81708 83617 86458==
41950,2024,07,09,06,00,AAXX 09064 41950 02450 70000 10327 20270 30056 40058 83510 333 58019 70000 83617 86459==
41950,2024,07,09,09,00,AAXX 09094 41950 02450 71602 10322 20260 30042 40045 85410 333 58018 70000 84617 86459==
41950,2024,07,09,12,00,AAXX 09124 41950 02450 70000 10295 20270 30034 40036 84470 333 10327 58011 70000 83617 85459==
41950,2024,07,09,15,00,AAXX 09154 41950 02450 40000 10285 20280 30044 40046 83530 333 58010 70000 83617==
41950,2024,07,09,18,00,AAXX 09184 41950 02450 30000 10285 20280 30056 40058 83500 333 58013 70000 83617==
41950,2024,07,09,21,00,AAXX 09214 41950 02350 60000 10283 20270 30054 40056 84610 333 58013 70000 81708 83617 85459==
41950,2024,07,10,00,00,AAXX 10004 41950 02350 80000 10282 20270 30056 40058 8562/ 333 58017 70000 82708 84616 88458==
41950,2024,07,10,03,00,AAXX 10034 41950 02450 41802 10314 20260 30066 40068 84400 333 20276 58012 70000 83617==
41950,2024,07,10,06,00,AAXX 10064 41950 01450 50000 10304 20270 30056 40058 72162 84330 333 58000 70100 83617 81928==
41950,2024,07,10,09,00,AAXX 10094 41950 02450 61802 10320 20270 30034 40047 83410 333 59008 70100 82617 85459==
41950,2024,07,10,12,00,AAXX 10124 41950 02450 50000 10320 20260 30027 40030 84431 333 10330 59007 70100 83617==
41950,2024,07,10,15,00,AAXX 10154 41950 02/50 20000 10294 20260 30048 40050 82030 333 58004 70100 82362==
41950,2024,07,10,18,00,AAXX 10184 41950 02450 20000 10288 20270 30054 40056 82500 333 59002 70100 82617==
41950,2024,07,10,21,00,AAXX 10214 41950 02450 40000 10280 20270 30030 40032 83530 333 59024 70010 83617==
41950,2024,07,11,00,00,AAXX 11004 41950 02350 80000 10276 20270 30032 40034 8562/ 333 59024 70100 82708 84616 88458==
41950,2024,07,11,03,00,AAXX 11034 41950 02450 71902 10310 20270 30034 40036 84470 333 20272 59032 70100 83617 86459==
41950,2024,07,11,06,00,AAXX 11064 41950 02450 52602 10333 20260 30022 40024 84430 333 59034 70000 83617==
41950,2024,07,11,09,00,AAXX 11094 41950 01340 80000 10300 20270 30003 40005 79522 8592/ 333 59031 70002 82708 84616 88458 81928==
41950,2024,07,11,12,00,AAXX 11124 41950 21450 70000 10304 20250 39998 40001 70196 83370 333 10348 59029 69925 70002 83617 85459 81928==
41950,2024,07,11,15,00,AAXX 11154 41950 02350 70000 10294 20270 30008 40010 85610 333 59040 70002 81708 83616 86459==
41950,2024,07,11,18,00,AAXX 11184 41950 02350 80000 10293 20280 30014 40016 8562/ 333 59040 70002 82708 84616 88458==
41950,2024,07,11,21,00,AAXX 11214 41950 02350 80000 10290 20280 30008 40010 8562/ 333 59022 70002 82708 84616 88458==
41951,2024,07,05,00,00,AAXX 05004 41951 01330 81302 10272 20270 30024 40029 76262 8672/ 333 58007 70339 82706 84616 88458==
41951,2024,07,05,03,00,AAXX 05034 41951 01330 80000 10272 20270 30044 40049 76162 8672/ 333 20260 58009 70529 82706 84616 88458==
41951,2024,07,05,06,00,AAXX 05064 41951 01330 82102 10270 20270 30034 40039 76262 8672/ 333 59001 70556 82706 84616 88458==
41951,2024,07,05,09,00,AAXX 05094 41951 01330 81302 10272 20260 30016 40021 76262 8672/ 333 59003 70565 82706 84616 88458==
41951,2024,07,05,12,00,AAXX 05124 41951 01450 60000 10268 20260 30002 40007 72162 83510 333 10285 59010 70522 83618 85459==
41951,2024,07,05,15,00,AAXX 05154 41951 02350 80000 10268 20268 30034 40039 8562/ 333 59003 70294 81708 84618 88458==
41951,2024,07,05,18,00,AAXX 05184 41951 02340 80000 10270 20260 30018 40023 8562/ 333 59018 70279 81708 84618 88458==
41951,2024,07,05,21,00,AAXX 05214 41951 02340 80000 10275 20270 30016 40021 8562/ 333 59014 70261 81708 84618 88458==
41951,2024,07,06,00,00,AAXX 06004 41951 02340 80000 10277 20270 30014 40019 8562/ 333 59010 70258 81709 84618 88458==
41951,2024,07,06,03,00,AAXX 06034 41951 02450 61303 10300 20280 30028 40033 83510 333 20260 59016 70063 83618 85459==
41951,2024,07,06,06,00,AAXX 06064 41951 02456 61504 10312 20270 30022 40027 83510 333 59012 70034 83618 85459==
41951,2024,07,06,09,00,AAXX 06094 41951 02456 61502 10323 20270 30012 40017 83510 333 59004 70025 83618 85459==
41951,2024,07,06,12,00,AAXX 06124 41951 02450 71502 10302 20270 30004 40009 83510 333 10332 58002 70000 83618 86459==
41951,2024,07,06,15,00,AAXX 06154 41951 02450 30000 10282 20270 30028 40032 83500 333 59006 70000 83618==
41951,2024,07,06,18,00,AAXX 06184 41951 02340 80000 10282 20270 30028 40032 8562/ 333 58018 70000 81708 84618 88458==
41951,2024,07,06,21,00,AAXX 06214 41951 02340 80000 10276 20276 30021 40025 8562/ 333 58005 70000 81708 84618 88458==
41951,2024,07,07,00,00,AAXX 07004 41951 02450 60000 10278 20278 30025 40030 83510 333 58011 70000 83618 85459==
41951,2024,07,07,03,00,AAXX 07034 41951 02450 60000 10308 20270 30040 40045 83510 333 20273 58012 70000 83618 85459==
41951,2024,07,07,06,00,AAXX 07064 41951 02450 70000 10322 20270 30032 40037 83510 333 58010 70000 83618 86459==
41951,2024,07,07,09,00,AAXX 07094 41951 01330 80000 10297 20290 30019 40024 76262 8672/ 333 58007 70173 82706 84616 88458==
41951,2024,07,07,12,00,AAXX 07124 41951 01450 61302 10306 20280 30015 40020 70162 83510 333 10330 58011 70197 83618 85459==
41951,2024,07,07,15,00,AAXX 07154 41951 02450 60000 10288 20270 30030 40035 83510 333 58002 70197 83618 85459==
41951,2024,07,07,18,00,AAXX 07184 41951 02450 60000 10282 20260 30041 40045 83510 333 58013 70197 83618 85459==
41951,2024,07,07,21,00,AAXX 07214 41951 02450 60000 10280 20270 30033 40037 83510 333 58012 70197 83618 85459==
41951,2024,07,08,00,00,AAXX 08004 41951 02350 60000 10277 20277 30030 40034 8462/ 333 58016 70197 81708 83618 88459==
41951,2024,07,08,03,00,AAXX 08034 41951 02450 70000 10302 20280 30040 40045 83510 333 20272 58000 70197 83618 86459==
41951,2024,07,08,06,00,AAXX 08064 41951 02450 71302 10323 20280 30038 40043 83510 333 58006 70197 83618 86459==
41951,2024,07,08,09,00,AAXX 08094 41951 01456 60000 10318 20270 30027 40032 70162 83510 333 58008 70027 83618 85459==
41951,2024,07,08,12,00,AAXX 08124 41951 11450 71302 10308 20260 30023 40028 69931 70362 83510 333 10327 58008 70003 83618 86459==
41951,2024,07,08,15,00,AAXX 08154 41951 02450 60000 10284 20260 30031 40035 83510 333 58001 70003 83618 85459==
41951,2024,07,08,18,00,AAXX 08184 41951 02340 80000 10278 20270 30041 40045 8562/ 333 58000 70003 81708 84618 88458==
41951,2024,07,08,21,00,AAXX 08214 41951 02450 80000 10278 20278 30040 40045 8352/ 333 58007 70003 83618 88459==
41951,2024,07,09,00,00,AAXX 09004 41951 02450 80000 10278 20278 30036 40041 8252/ 333 58006 70003 82618 88459==
41951,2024,07,09,03,00,AAXX 09034 41951 02456 61302 10308 20280 30050 40055 83510 333 20272 58010 70003 83618 85459==
41951,2024,07,09,06,00,AAXX 09064 41951 02456 61302 10333 20270 30052 40057 83510 333 58014 70003 83618 85459==
41951,2024,07,09,09,00,AAXX 09094 41951 01330 81302 10280 20260 30050 40055 76162 8672/ 333 58023 70056 81706 84616 88458==
41951,2024,07,09,12,00,AAXX 09124 41951 21350 81502 10294 20270 30033 40037 70262 8562/ 333 10340 58010 60068 70061 81708 84618 88458==
41951,2024,07,09,15,00,AAXX 09154 41951 02350 80000 10279 20270 30046 40051 8462/ 333 58015 70061 81708 83618 88458==
41951,2024,07,09,18,00,AAXX 09184 41951 02340 80000 10279 20270 30054 40059 8562/ 333 58013 70061 81708 84618 88458==
41951,2024,07,09,21,00,AAXX 09214 41951 02450 60000 10280 20270 30053 40058 83510 333 58013 70061 83618 85459==
41951,2024,07,10,00,00,AAXX 10004 41951 02450 60000 10280 20270 30052 40057 83510 333 58016 70061 83618 85459==
41951,2024,07,10,03,00,AAXX 10034 41951 02450 61302 10310 20280 30062 40067 83510 333 20272 58012 70061 83618 85459==
41951,2024,07,10,06,00,AAXX 10064 41951 02450 61303 10323 20270 30051 40056 83510 333 59001 70061 83618 85459==
41951,2024,07,10,09,00,AAXX 10094 41951 02456 61502 10333 20280 30035 40040 83510 333 59015 70005 83618 85459==
41951,2024,07,10,12,00,AAXX 10124 41951 02456 50000 10318 20270 30029 40034 82510 333 10336 59004 70000 82618 84459==
41951,2024,07,10,15,00,AAXX 10154 41951 02950 00000 10296 20280 30049 40054 333 58009 70000==
41951,2024,07,10,18,00,AAXX 10184 41951 02340 81302 10288 20280 30047 40052 8562/ 333 59007 70000 81708 84618 88458==
41951,2024,07,10,21,00,AAXX 10214 41951 02340 80000 10284 20270 30039 40044 8562/ 333 59014 70000 81708 84618 88458==
41951,2024,07,11,00,00,AAXX 11004 41951 01340 80000 10276 20276 30031 40036 72162 8562/ 333 59021 70090 81708 84618 88458==
41951,2024,07,11,03,00,AAXX 11034 41951 02450 60000 10318 20280 30037 40042 83510 333 20270 59025 70092 83618 85459==
41951,2024,07,11,06,00,AAXX 11064 41951 02456 62202 10348 20280 30019 40024 83510 333 59032 70092 83618 85459==
41951,2024,07,11,09,00,AAXX 11094 41951 01330 80000 10302 20280 30001 40006 76262 8562/ 333 59034 70136 81708 84618 88458==
41951,2024,07,11,12,00,AAXX 11124 41951 11350 82102 10302 20260 39997 40002 60041 70262 8562/ 333 10350 59032 70136 81708 84618 88458==
41951,2024,07,11,15,00,AAXX 11154 41951 02340 80000 10292 20280 30009 40014 8562/ 333 59040 70136 81708 84618 88458==
41951,2024,07,11,18,00,AAXX 11184 41951 02340 81302 10292 20280 30012 40017 8662/ 333 59035 70136 82708 84618 88458==
41951,2024,07,11,21,00,AAXX 11214 41951 02340 80000 10288 20288 30007 40012 8662/ 333 59032 70138 82708 84618 88458==
41953,2024,07,05,00,00,AAXX 05004 41953 21430 80000 10265 20265 30038 40043 70266 8352/ 333 58009 60105 70450 83616 88458==
41953,2024,07,05,03,00,AAXX 05034 41953 02435 81802 10275 20270 30049 40054 8452/ 333 20264 58006 70450 84616 88458==
41953,2024,07,05,06,00,AAXX 05064 41953 02440 81301 10286 20260 30038 40043 8352/ 333 59008 70150 83616 88458==
41953,2024,07,05,09,00,AAXX 05094 41953 02440 81803 10286 20270 30020 40025 8352/ 333 59007 70150 83616 88458==
41953,2024,07,05,12,00,AAXX 05124 41953 01435 80000 10266 20250 30005 40010 72122 8352/ 333 10290 59019 70020 83616 88458==
41953,2024,07,05,15,00,AAXX 05154 41953 01425 80000 10266 20260 30033 40038 70262 8352/ 333 59010 70190 83616 88458==
41953,2024,07,05,18,00,AAXX 05184 41953 NIL=
41953,2024,07,05,21,00,AAXX 05214 41953 02420 80000 10262 20250 30029 40034 8352/ 333 59014 70130 83616 88458==
41953,2024,07,06,00,00,AAXX 06004 41953 02430 80000 10260 20250 30021 40026 8352/ 333 59017 70090 83616 88458==
41953,2024,07,06,03,00,AAXX 06034 41953 02440 80000 10284 20260 30033 40038 8352/ 333 20259 59010 70090 83616 88458==
41953,2024,07,06,06,00,AAXX 06064 41953 02450 51304 10315 20270 30030 40035 85400 333 59008 70040 82616 83825==
41953,2024,07,06,09,00,AAXX 06094 41953 02450 51303 10310 20260 30015 40020 83510 333 59005 70040 83616 85458==
41953,2024,07,06,12,00,AAXX 06124 41953 02450 50000 10295 20270 30009 40014 83510 333 10320 58004 70020 83616 85458==
41953,2024,07,06,15,00,AAXX 06154 41953 02440 50000 10280 20260 30026 40031 83510 333 59007 70000 83616 85458==
41953,2024,07,06,18,00,AAXX 06184 41953 02440 80000 10280 20270 30036 40041 8352/ 333 59001 70000 83616 88458==
41953,2024,07,06,21,00,AAXX 06214 41953 02440 80000 10276 20270 30030 40035 8352/ 333 58001 70000 83616 88458==
41953,2024,07,07,00,00,AAXX 07004 41953 02440 80000 10273 20270 30030 40035 8352/ 333 58009 70000 83616 88458==
41953,2024,07,07,03,00,AAXX 07034 41953 02450 60000 10302 20270 30045 40050 83510 333 20270 58012 70000 83616 86458==
41953,2024,07,07,06,00,AAXX 07064 41953 02450 61303 10320 20270 30040 40045 83510 333 58010 70000 83616 86458==
41953,2024,07,07,09,00,AAXX 07094 41953 02450 61303 10325 20270 30023 40028 83510 333 58008 70000 83616 86458==
41953,2024,07,07,12,00,AAXX 07124 41953 02450 50000 10316 20270 30020 40025 83510 333 10340 58011 70000 83616 85458==
41953,2024,07,07,15,00,AAXX 07154 41953 02440 60000 10290 20270 30033 40038 83510 333 58007 70000 83616 86458==
41953,2024,07,07,18,00,AAXX 07184 41953 02440 80000 10285 20280 30040 40045 8352/ 333 58004 70000 83616 88458==
41953,2024,07,07,21,00,AAXX 07214 41953 02440 80000 10280 20270 30030 40035 8352/ 333 58000 70000 83616 88458==
41953,2024,07,08,00,00,AAXX 08004 41953 02440 80000 10275 20270 30036 40041 8352/ 333 58006 70000 83616 88458==
41953,2024,07,08,03,00,AAXX 08034 41953 02440 80000 10285 20280 30042 40047 8352/ 333 20272 59003 70000 83616 88458==
41953,2024,07,08,06,00,AAXX 08064 41953 02450 80000 10300 20260 30045 40050 8352/ 333 58005 70000 83616 88458==
41953,2024,07,08,09,00,AAXX 08094 41953 02450 60000 10330 20250 30030 40035 84410 333 58007 70000 83616 86458==
41953,2024,07,08,12,00,AAXX 08124 41953 02450 60000 10305 20260 30018 40023 83510 333 10340 59002 70000 83616 86458==
41953,2024,07,08,15,00,AAXX 08154 41953 02440 60000 10285 20280 30037 40042 83510 333 58004 70000 83616 86458==
41953,2024,07,08,18,00,AAXX 08184 41953 02440 80000 10285 20280 30050 40055 8352/ 333 58010 70000 83616 88458==
41953,2024,07,08,21,00,AAXX 08214 41953 02440 80000 10280 20270 30045 40050 8352/ 333 58015 70000 83616 88458==
41953,2024,07,09,00,00,AAXX 09004 41953 02440 80000 10275 20270 30045 40050 8352/ 333 58009 70000 83616 88458==
41953,2024,07,09,03,00,AAXX 09034 41953 02450 81303 10290 20270 30058 40063 8352/ 333 20273 58016 70000 83616 88458==
41953,2024,07,09,06,00,AAXX 09064 41953 02450 81303 10316 20270 30057 40062 8352/ 333 58012 70000 83616 88458==
41953,2024,07,09,09,00,AAXX 09094 41953 01445 81301 10276 20276 30049 40054 76166 8452/ 333 58019 70120 84615 88457==
41953,2024,07,09,12,00,AAXX 09124 41953 21445 60000 10296 20270 30038 40043 70166 83510 333 10318 58020 60148 70140 83616 85458==
41953,2024,07,09,15,00,AAXX 09154 41953 02435 71301 10284 20260 30055 40060 84410 333 58018 70140 83616 85458==
41953,2024,07,09,18,00,AAXX 09184 41953 NIL=
41953,2024,07,09,21,00,AAXX 09214 41953 02430 80000 10280 20270 30055 40060 8352/ 333 58010 70140 83616 88458==
41953,2024,07,10,00,00,AAXX 10004 41953 02440 80000 10280 20270 30051 40056 8352/ 333 58006 70140 83616 88458==
41953,2024,07,10,03,00,AAXX 10034 41953 02445 71802 10308 20280 30063 40068 84410 333 20274 58005 70140 83616 85458==
41953,2024,07,10,06,00,AAXX 10064 41953 02445 81803 10322 20270 30061 40066 8352/ 333 58004 70140 83616 88458==
41953,2024,07,10,09,00,AAXX 10094 41953 02450 61802 10316 20270 30043 40048 84410 333 59006 70020 83616 84458==
41953,2024,07,10,12,00,AAXX 10124 41953 02450 61801 10310 20260 30033 40038 84410 333 10325 59005 70000 83616 84458==
41953,2024,07,10,15,00,AAXX 10154 41953 02435 40000 10290 20270 30054 40059 82510 333 59001 70000 82618 84458==
41953,2024,07,10,18,00,AAXX 10184 41953 02430 40000 10285 20270 30059 40064 82510 333 59002 70000 82618 84458==
41953,2024,07,10,21,00,AAXX 10214 41953 02430 80000 10285 20270 30053 40058 8352/ 333 59002 70000 83616 88458==
41953,2024,07,11,00,00,AAXX 11004 41953 02440 80000 10285 20280 30051 40056 8352/ 333 58000 70000 83616 88458==
41953,2024,07,11,03,00,AAXX 11034 41953 02450 80000 10310 20260 30052 40057 8352/ 333 20282 59011 70000 83616 88458==
41953,2024,07,11,06,00,AAXX 11064 41953 42445 81802 10323 20280 30026 40031 8352/ 333 59035 83616 88458==
41953,2024,07,11,09,00,AAXX 11094 41953 02440 80000 10305 20280 30019 40024 8352/ 333 59024 70000 83616 88458==
41953,2024,07,11,12,00,AAXX 11124 41953 21440 81803 10280 20260 30002 40007 70262 8352/ 333 10326 59031 60065 70060 83616 88458==
41953,2024,07,11,15,00,AAXX 11154 41953 01430 81805 10280 20280 30021 40026 70262 8352/ 333 59033 70150 83615 88458==
41953,2024,07,11,18,00,AAXX 11184 41953 11430 80000 10278 20278 30024 40029 60096 70262 8352/ 333 59035 70150 83616 88458==
41953,2024,07,11,21,00,AAXX 11214 41953 02430 81303 10277 20270 30022 40027 8352/ 333 59031 70150 83616 88458==
41955,2024,07,05,00,00,AAXX 05004 41955 NIL=
41955,2024,07,05,06,00,AAXX 05064 41955 NIL=
41955,2024,07,05,18,00,AAXX 05184 41955 NIL=
41955,2024,07,06,00,00,AAXX 06004 41955 NIL=
41955,2024,07,07,06,00,AAXX 07064 41955 NIL=
41955,2024,07,07,12,00,AAXX 07124 41955 NIL=
41955,2024,07,08,00,00,AAXX 08004 41955 NIL=
41955,2024,07,08,06,00,AAXX 08064 41955 NIL=
41955,2024,07,08,12,00,AAXX 08124 41955 NIL=
41955,2024,07,08,18,00,AAXX 08184 41955 NIL=
41955,2024,07,09,00,00,AAXX 09004 41955 NIL=
41955,2024,07,09,12,00,AAXX 09124 41955 NIL=
41955,2024,07,09,18,00,AAXX 09184 41955 NIL=
41955,2024,07,10,00,00,AAXX 10004 41955 NIL=
41955,2024,07,10,06,00,AAXX 10064 41955 NIL=
41955,2024,07,10,12,00,AAXX 10124 41955 NIL=
41955,2024,07,10,18,00,AAXX 10184 41955 NIL=
41955,2024,07,11,06,00,AAXX 11064 41955 NIL=
41955,2024,07,11,12,00,AAXX 11124 41955 NIL=
41955,2024,07,11,18,00,AAXX 11184 41955 NIL=
41958,2024,07,05,00,00,AAXX 05004 41958 11350 81502 10280 20280 30013 40015 69926 70262 8572/ 333 56599 59001 70184 82708 84616 88459=
41958,2024,07,05,03,00,AAXX 05034 41958 32350 81702 10290 20290 30033 40035 8532/ 333 20261 56599 59002 70166 82708 84615 81930 88458=
41958,2024,07,05,06,00,AAXX 05064 41958 11456 80000 10288 20280 30025 40028 60027 76162 8542/ 333 56499 59004 70174 81708 84616 88459=
41958,2024,07,05,09,00,AAXX 05094 41958 21456 80000 10274 20260 30009 40011 76166 8532/ 333 56499 59011 6001/ 70150 81708 84615 81930 88459=
41958,2024,07,05,12,00,AAXX 05124 41958 11456 40000 10288 20280 39996 49998 60018 70162 84500 333 10290 56900 59017 70040 84617=
41958,2024,07,05,15,00,AAXX 05154 41958 32450 31601 10274 20260 30016 40018 83500 333 56900 59011 70028 83617=
41958,2024,07,05,18,00,AAXX 05184 41958 32440 30000 10270 20260 30012 40014 83500 333 56900 59020 70028 83617=
41958,2024,07,05,21,00,AAXX 05214 41958 32440 30000 10273 20270 30004 40006 83500 333 56900 59006 70028 83617=
41958,2024,07,06,00,00,AAXX 06004 41958 32450 30000 10275 20275 30006 40008 83500 333 56900 59007 70026 83617=
41958,2024,07,06,03,00,AAXX 06034 41958 32457 40000 10320 20290 30021 40023 84500 333 20270 56900 59012 70026 84617=
41958,2024,07,06,06,00,AAXX 06064 41958 11457 60000 10295 20280 30016 40019 60044 76162 85400 333 56900 59009 70050 84616 88459=
41958,2024,07,06,09,00,AAXX 06094 41958 21456 70000 10275 20270 30007 40009 76162 85410 333 56990 59002 6008/ 70122 81708 84616 87459=
41958,2024,07,06,12,00,AAXX 06124 41958 11456 60000 10300 20270 39999 40001 60088 70166 85410 333 10338 56990 58003 70121 84616 86459=
41958,2024,07,06,15,00,AAXX 06154 41958 32950 00000 10282 20270 30022 40024 333 58006 70121=
41958,2024,07,06,18,00,AAXX 06184 41958 32940 00000 10280 20270 30027 40029 333 58015 70121=
41958,2024,07,06,21,00,AAXX 06214 41958 32940 00000 10281 20270 30020 40022 333 58016 70121=
41958,2024,07,07,00,00,AAXX 07004 41958 32450 70000 10280 20280 30022 40024 85410 333 56490 58016 70121 84616 87459=
41958,2024,07,07,03,00,AAXX 07034 41958 32457 51801 10310 20280 30035 40037 85400 333 20267 56400 58014 70121 84617=
41958,2024,07,07,06,00,AAXX 07064 41958 32458 50000 10336 20290 30030 40032 85400 333 56400 58014 70081 84617=
41958,2024,07,07,09,00,AAXX 07094 41958 21458 70000 10305 20290 30017 40019 70362 85410 333 56490 58010 6992/ 70003 84616 87459=
41958,2024,07,07,12,00,AAXX 07124 41958 11456 50000 10292 20280 30015 40017 60013 70162 85400 333 10336 56900 58016 70010 84617=
41958,2024,07,07,15,00,AAXX 07154 41958 32950 00000 10288 20280 30030 40032 333 58008 70010=
41958,2024,07,07,18,00,AAXX 07184 41958 32940 00000 10284 20270 30040 40042 333 58013 70010=
41958,2024,07,07,21,00,AAXX 07214 41958 32940 00000 10280 20270 30027 40029 333 58007 70010=
41958,2024,07,08,00,00,AAXX 08004 41958 32450 40000 10277 20277 30029 40031 84400 333 56900 58007 70010 83617=
41958,2024,07,08,03,00,AAXX 08034 41958 32457 40000 10312 20280 30038 40040 84400 333 20273 56400 58003 70010 83617=
41958,2024,07,08,06,00,AAXX 08064 41958 32458 61601 10333 20260 30036 40038 85410 333 56490 58006 70010 84616 86459=
41958,2024,07,08,09,00,AAXX 08094 41958 32458 61801 10327 20270 30021 40023 85410 333 56490 58004 70008 84616 86459=
41958,2024,07,08,12,00,AAXX 08124 41958 32456 50000 10315 20250 30010 40012 85410 333 10350 56990 59005 70000 84616 85459=
41958,2024,07,08,15,00,AAXX 08154 41958 32950 00000 10290 20270 30033 40035 333 58003 70000=
41958,2024,07,08,18,00,AAXX 08184 41958 32940 00000 10286 20280 30042 40044 333 58002 70000=
41958,2024,07,08,21,00,AAXX 08214 41958 32440 50000 10285 20270 30034 40036 85400 333 56900 58007 70000 84616=
41958,2024,07,09,00,00,AAXX 09004 41958 32450 81601 10284 20270 30035 40037 8542/ 333 56999 58006 70000 84616 81930 88459=
41958,2024,07,09,03,00,AAXX 09034 41958 32457 60000 10320 20270 30046 40048 85410 333 20280 56990 58008 70000 84616 86459=
41958,2024,07,09,06,00,AAXX 09064 41958 32458 71801 10330 20280 30049 40051 85410 333 56490 58013 70000 84616 87459=
41958,2024,07,09,09,00,AAXX 09094 41958 32458 81801 10318 20260 30037 40040 8542/ 333 56499 58016 70000 84616 88459=
41958,2024,07,09,12,00,AAXX 09124 41958 32456 81801 10300 20270 30030 40032 8532/ 333 10338 56499 58020 70000 84616 81930 88459=
41958,2024,07,09,15,00,AAXX 09154 41958 32450 30000 10293 20270 30040 40042 83500 333 56900 58007 70000 83617=
41958,2024,07,09,18,00,AAXX 09184 41958 32940 00000 10288 20280 30050 40053 333 58008 70000=
41958,2024,07,09,21,00,AAXX 09214 41958 32440 50000 10284 20280 30049 40051 85400 333 56900 58015 70000 84617=
41958,2024,07,10,00,00,AAXX 10004 41958 11450 30000 10281 20280 30049 40051 69925 70162 83500 333 56900 58014 70002 83617=
41958,2024,07,10,03,00,AAXX 10034 41958 32457 30000 10328 20280 30061 40063 83500 333 20280 56900 58015 70002 83617=
41958,2024,07,10,06,00,AAXX 10064 41958 32456 80000 10320 20270 30052 40054 8452/ 333 56999 58003 70002 84616 88458=
41958,2024,07,10,09,00,AAXX 10094 41958 32456 80000 10338 20280 30032 40034 8542/ 333 56999 59005 70002 84616 88458=
41958,2024,07,10,12,00,AAXX 10124 41958 32456 62201 10327 20290 30020 40022 83410 333 10348 56590 59010 70002 83616 85459=
41958,2024,07,10,15,00,AAXX 10154 41958 32950 00000 10297 20270 30043 40045 333 58003 70002=
41958,2024,07,10,18,00,AAXX 10184 41958 32440 31701 10287 20280 30043 40045 83400 333 59005 70002 83616=
41958,2024,07,10,21,00,AAXX 10214 41958 32440 31701 10285 20280 30031 40033 83400 333 56400 59018 70002 83616=
41958,2024,07,11,00,00,AAXX 11004 41958 32450 30000 10284 20270 30024 40026 83400 333 56900 59025 70000 83616=
41958,2024,07,11,03,00,AAXX 11034 41958 32456 31701 10333 20270 30030 40032 83400 333 20280 56400 59031 70000 83616=
41958,2024,07,11,06,00,AAXX 11064 41958 32456 60000 10354 20270 30016 40018 83410 333 56990 59036 70000 83616 85459=
41958,2024,07,11,09,00,AAXX 11094 41958 21440 81702 10298 20290 39997 49999 76192 8542/ 333 56499 59036 6998/ 70008 84616 88458=
41958,2024,07,11,12,00,AAXX 11124 41958 11450 80000 10306 20290 39994 49996 69985 70296 8542/ 333 10354 56999 59026 70008 84616 88458=
41958,2024,07,11,15,00,AAXX 11154 41958 32450 82201 10297 20290 30006 40008 8542/ 333 56599 59037 70008 84616 88458=
41958,2024,07,11,18,00,AAXX 11184 41958 32440 80000 10292 20280 30011 40013 8542/ 333 56999 59032 70008 84616 88458=
41958,2024,07,11,21,00,AAXX 11214 41958 32440 80000 10292 20280 39997 49999 83410 333 56990 59034 70008 83616 85459=
41960,2024,07,05,00,00,AAXX 05004 41960 01210 81801 10275 20275 30026 40027 76562 8672/ 333 58002 70020 83707 85614 88458==
41960,2024,07,05,03,00,AAXX 05034 41960 01310 80000 10260 20260 30047 40048 76596 8672/ 333 20255 58008 70554 83707 84615 88456==
41960,2024,07,05,06,00,AAXX 05064 41960 21320 80000 10260 20260 30035 40037 79596 8692/ 333 58001 60449 70644 83707 84615 88456 81925==
41960,2024,07,05,09,00,AAXX 05094 41960 01420 80000 10270 20270 30024 40026 79596 8672/ 333 59001 70670 84615 88458 81928==
41960,2024,07,05,12,00,AAXX 05124 41960 21430 80000 10260 20260 30003 40004 70296 8352/ 333 10273 59020 60178 70674 83618 88458==
41960,2024,07,05,15,00,AAXX 05154 41960 02450 70000 10263 20260 30028 40030 85410 333 59011 70628 83618 87459==
41960,2024,07,05,18,00,AAXX 05184 41960 01440 80000 10260 20260 30024 40026 72162 8542/ 333 59016 70020 88459==
41960,2024,07,05,21,00,AAXX 05214 41960 02440 80000 10260 20260 30021 40023 8542/ 333 59014 70646 84616 88458==
41960,2024,07,06,00,00,AAXX 06004 41960 21440 70000 10268 20268 30016 40018 70562 83470 333 59010 69945 70632 82618 86460==
41960,2024,07,06,03,00,AAXX 06034 41960 02450 80000 10302 20280 30028 40029 8542/ 333 20255 59019 70312 83618 88459==
41960,2024,07,06,06,00,AAXX 06064 41960 02456 51604 10310 20270 30027 40028 85400 333 59008 70192 83618==
41960,2024,07,06,09,00,AAXX 06094 41960 02456 51802 10328 20270 30015 40017 85400 333 59009 70058 83618==
41960,2024,07,06,12,00,AAXX 06124 41960 01450 70000 10275 20275 30007 40009 72162 85410 333 10330 58004 70330 83618 87459==
41960,2024,07,06,15,00,AAXX 06154 41960 02450 70000 10276 20276 30029 40030 84410 333 58001 70350 84618 87459==
41960,2024,07,06,18,00,AAXX 06184 41960 02450 60000 10279 20279 30032 40033 85410 333 58008 70332 83618 86459==
41960,2024,07,06,21,00,AAXX 06214 41960 02450 50000 10278 20278 30029 40030 83410 333 58008 70332 82618 85460==
41960,2024,07,07,00,00,AAXX 07004 41960 02/50 20000 10277 20277 30026 40027 82041 333 58010 70328 82364==
41960,2024,07,07,03,00,AAXX 07034 41960 02450 40000 10308 20280 30040 40041 333 20270 58012 70308 83618==
41960,2024,07,07,06,00,AAXX 07064 41960 02450 80000 10310 20280 30035 40037 8352/ 333 58008 70020 83618 88458==
41960,2024,07,07,09,00,AAXX 07094 41960 02456 41804 10331 20270 30024 40026 84401 333 58009 70346 82618==
41960,2024,07,07,12,00,AAXX 07124 41960 02456 51802 10317 20270 30021 40023 83530 333 10335 58014 70018 83618 83362==
41960,2024,07,07,15,00,AAXX 07154 41960 02450 30000 10293 20270 30032 40034 83500 333 58003 70018 83618==
41960,2024,07,07,18,00,AAXX 07184 41960 02450 60000 10286 20280 30049 40051 84410 333 58017 70018 83618 86459==
41960,2024,07,07,21,00,AAXX 07214 41960 02450 60000 10282 20280 30043 40045 83410 333 58014 70018 82618 86459==
41960,2024,07,08,00,00,AAXX 08004 41960 02450 50000 10280 20280 30033 40035 81570 333 58007 70018 81618 83460==
41960,2024,07,08,03,00,AAXX 08034 41960 02456 60000 10296 20280 30045 40047 83470 333 20278 58005 70018 82618 84459==
41960,2024,07,08,06,00,AAXX 08064 41960 02456 81802 10320 20270 30042 40044 8352/ 333 58007 70000 83618 88459==
41960,2024,07,08,09,00,AAXX 08094 41960 02456 51802 10318 20270 30030 40032 85440 333 58006 70000 83618 83364==
41960,2024,07,08,12,00,AAXX 08124 41960 01350 80000 10300 20280 30022 40024 76122 8462/ 333 10325 58001 70002 82708 84615 88456==
41960,2024,07,08,15,00,AAXX 08154 41960 02450 80000 10286 20280 30039 40041 8542/ 333 58007 70002 84617 88459==
41960,2024,07,08,18,00,AAXX 08184 41960 21450 50000 10282 20280 30045 40047 70162 84410 333 59004 69925 70004 83618 85459==
41960,2024,07,08,21,00,AAXX 08214 41960 02450 80000 10282 20280 30044 40045 8542/ 333 58001 70004 84617 83822 88459==
41960,2024,07,09,00,00,AAXX 09004 41960 01440 80000 10283 20280 30042 40044 76122 8642/ 333 58009 70000 84616 83822 88459==
41960,2024,07,09,03,00,AAXX 09034 41960 01456 70000 10304 20280 30053 40055 70162 84430 333 20277 58008 70008 83618 87363==
41960,2024,07,09,06,00,AAXX 09064 41960 11456 80000 10318 20280 30056 40058 69946 70362 8542/ 333 58014 70008 83618 88459==
41960,2024,07,09,09,00,AAXX 09094 41960 02456 61902 10305 20270 30052 40054 85410 333 58022 70008 83617 83822 86459==
41960,2024,07,09,12,00,AAXX 09124 41960 02450 80000 10300 20280 30037 40039 8542/ 333 10325 58015 70006 84618 88459==
41960,2024,07,09,15,00,AAXX 09154 41960 02450 70000 10289 20280 30053 40055 84410 333 58014 70006 83618 87459==
41960,2024,07,09,18,00,AAXX 09184 41960 01450 80000 10287 20280 30060 40062 70362 8542/ 333 58015 70006 84618 88458==
41960,2024,07,09,21,00,AAXX 09214 41960 02440 80000 10285 20280 30062 40064 8642/ 333 58018 70010 84618 83822 88459==
41960,2024,07,10,00,00,AAXX 10004 41960 02440 70000 10284 20280 30060 40062 86410 333 58018 70010 84618 83822 87459==
41960,2024,07,10,03,00,AAXX 10034 41960 02456 60000 10298 20280 30064 40066 85470 333 20280 58011 70000 83618 85459==
41960,2024,07,10,06,00,AAXX 10064 41960 02456 61802 10324 20270 30059 40061 85410 333 58003 70006 83618 85459==
41960,2024,07,10,09,00,AAXX 10094 41960 01456 31802 10327 20280 30043 40045 70162 83430 333 59009 70007 82618==
41960,2024,07,10,12,00,AAXX 10124 41960 11456 41802 10320 20270 30031 40033 69916 70362 83531 333 10330 59006 70001 83618==
41960,2024,07,10,15,00,AAXX 10154 41960 02950 00000 10296 20280 30049 40051 333 59004 70007==
41960,2024,07,10,18,00,AAXX 10184 41960 02450 60000 10293 20270 30003 40005 84410 333 59007 70001 83618 86459==
41960,2024,07,10,21,00,AAXX 10214 41960 02450 60000 10290 20280 30038 40040 84410 333 59024 70001 83618 86459==
41960,2024,07,11,00,00,AAXX 11004 41960 02450 30000 10284 20270 30034 40036 83430 333 59026 70001 82618 83363==
41960,2024,07,11,03,00,AAXX 11034 41960 02450 70000 10308 20280 30039 40041 85470 333 20281 59025 70001 83618 85363==
41960,2024,07,11,06,00,AAXX 11064 41960 02450 51802 10340 20290 30027 40029 85410 333 59032 70001 83618 83822 85459==
41960,2024,07,11,09,00,AAXX 11094 41960 01430 61801 10292 20280 30008 40010 76162 85410 333 59035 70040 84616 83822 86459==
41960,2024,07,11,12,00,AAXX 11124 41960 21430 80000 10300 20270 39994 49997 70362 8352/ 333 10345 59037 60048 70040 83618 88458==
41960,2024,07,11,15,00,AAXX 11154 41960 02450 80000 10289 20280 30015 40017 8542/ 333 59034 70040 84618 88459==
41960,2024,07,11,18,00,AAXX 11184 41960 01330 80000 10289 20280 30019 40021 76122 8672/ 333 59034 70002 81708 84617 88458==
41960,2024,07,11,21,00,AAXX 11214 41960 02440 60000 10287 20280 30012 40014 85410 333 59026 70042 83618 86459==
41963,2024,07,05,00,00,AAXX 05004 41963 21356 81802 10264 20264 30045 40048 76166 8562/ 333 58008 60199 70330 82707 83616 88457==
41963,2024,07,05,03,00,AAXX 05034 41963 01357 81803 10280 20270 30058 40061 70262 8361/ 333 20257 58011 70340 82707 83616 88459==
41963,2024,07,05,06,00,AAXX 05064 41963 01356 80000 10270 20270 30048 40051 76062 8472/ 333 59004 70380 82708 83616 88458==
41963,2024,07,05,09,00,AAXX 05094 41963 01356 80000 10262 20262 30034 40037 76166 8472/ 333 58002 70410 82708 83616 88458==
41963,2024,07,05,12,00,AAXX 05124 41963 21357 80000 10270 20270 30022 40025 70262 8472/ 333 10293 58012 60118 70430 82709 83616 88458==
41963,2024,07,05,18,00,AAXX 05184 41963 NIL=
41963,2024,07,05,21,00,AAXX 05214 41963 01350 80000 10260 20260 30032 40035 76366 8472/ 333 59010 70560 82708 83616 88458==
41963,2024,07,06,00,00,AAXX 06004 41963 21357 80000 10270 20270 30030 40033 70266 8572/ 333 59015 60589 70820 82708 83615 88458==
41963,2024,07,06,03,00,AAXX 06034 41963 02457 42002 10293 20260 30047 40050 82530 333 20255 59011 70810 82618 83363==
41963,2024,07,06,06,00,AAXX 06064 41963 02457 21804 10300 20270 30042 40045 82500 333 59006 70690 82618==
41963,2024,07,06,09,00,AAXX 06094 41963 02457 42004 10305 20270 30024 40027 83400 333 59010 70600 82618 84362==
41963,2024,07,06,12,00,AAXX 06124 41963 02457 42101 10294 20270 30019 40022 82560 333 10320 59003 70580 82618 83363==
41963,2024,07,06,15,00,AAXX 06154 41963 02950 00000 10284 20270 30041 40044 333 59002 70580==
41963,2024,07,06,21,00,AAXX 06214 41963 02450 20000 10280 20270 30035 40038 82500 333 58003 70380 82618==
41963,2024,07,07,00,00,AAXX 07004 41963 02457 50000 10280 20270 30038 40041 83440 333 58008 70000 82618 84362==
41963,2024,07,07,03,00,AAXX 07034 41963 02457 51203 10302 20270 30049 40052 84430 333 20273 58002 70000 82618==
41963,2024,07,07,06,00,AAXX 07064 41963 02457 51404 10313 20280 30049 40051 84430 333 58007 70000 83618 83363==
41963,2024,07,07,09,00,AAXX 07094 41963 02457 31604 10323 20280 30028 40030 83400 333 58004 70000 82618==
41963,2024,07,07,12,00,AAXX 07124 41963 02457 32102 10308 20270 30030 40032 82560 333 10329 58011 70000 82618 83363==
41963,2024,07,07,15,00,AAXX 07154 41963 02450 70000 10290 20280 30046 40048 82570 333 58005 70000 82618 85458==
41963,2024,07,07,18,00,AAXX 07184 41963 01350 80000 10288 20280 30044 40046 72122 8472/ 333 58005 70010 82710 83616 88458==
41963,2024,07,07,21,00,AAXX 07214 41963 02350 80000 10283 20270 30039 40042 8472/ 333 58004 70010 82710 83616 88458==
41963,2024,07,08,00,00,AAXX 08004 41963 02357 80000 10280 20270 30045 40048 8472/ 333 58007 70010 82710 83616 88458==
41963,2024,07,08,03,00,AAXX 08034 41963 02457 61303 10300 20280 30051 40054 83550 333 58002 70010 83617 84363==
41963,2024,07,08,06,00,AAXX 08064 41963 02457 61803 10308 20260 30054 40056 83470 333 58005 70010 82618 84458==
41963,2024,07,08,09,00,AAXX 08094 41963 02457 51802 10310 20270 30035 40038 83400 333 58007 70010 82618 83363==
41963,2024,07,08,12,00,AAXX 08124 41963 02457 62102 10300 20270 30034 40036 82540 333 10317 58004 70010 82618 85362==
41963,2024,07,08,18,00,AAXX 08184 41963 NIL=
41963,2024,07,08,21,00,AAXX 08214 41963 02350 80000 10287 20280 30044 40047 8472/ 333 58005 70000 82710 83617 88458==
41963,2024,07,09,00,00,AAXX 09004 41963 01357 80000 10280 20280 30050 40053 76162 8472/ 333 58005 70030 82709 83616 88458==
41963,2024,07,09,03,00,AAXX 09034 41963 01457 71402 10290 20280 30057 40059 70162 82570 333 20272 58006 70040 82617 85458==
41963,2024,07,09,06,00,AAXX 09064 41963 11457 50000 10305 20270 30065 40067 60016 70162 83430 333 58011 70040 82618 84363==
41963,2024,07,09,09,00,AAXX 09094 41963 01456 61802 10300 20290 30052 40054 70362 82510 333 58017 70050 82618 86458==
41963,2024,07,09,12,00,AAXX 09124 41963 21440 61801 10295 20290 30038 40040 70262 82510 333 10315 58004 60015 70050 82618 86458==
41963,2024,07,09,15,00,AAXX 09154 41963 02440 21801 10285 20280 30050 40052 82500 333 58006 70050 82618==
41963,2024,07,09,18,00,AAXX 09184 41963 NIL=
41963,2024,07,09,21,00,AAXX 09214 41963 02450 70000 10283 20270 30054 40057 83570 333 58010 70050 83617 85458==
41963,2024,07,10,00,00,AAXX 10004 41963 01357 80000 10280 20280 30065 40068 70262 8472/ 333 58015 70010 82710 83616 88458==
41963,2024,07,10,03,00,AAXX 10034 41963 01457 61801 10290 20280 30076 40078 70162 82510 333 20274 58019 70030 82618 86458==
41963,2024,07,10,06,00,AAXX 10064 41963 01457 41801 10305 20300 30062 40064 70162 82510 333 58003 70110 82618 84458==
41963,2024,07,10,09,00,AAXX 10094 41963 02457 41801 10312 20280 30040 40042 82510 333 59012 70100 82618 84458==
41963,2024,07,10,12,00,AAXX 10124 41963 02460 21802 10302 20270 30044 40046 82500 333 10320 58006 70100 82618==
41963,2024,07,10,15,00,AAXX 10154 41963 02940 01801 10290 20260 30050 40052 333 58000 70100==
41963,2024,07,10,18,00,AAXX 10184 41963 02940 01801 10288 20280 30056 40058 333 58008 70100==
41963,2024,07,10,21,00,AAXX 10214 41963 02940 01801 10285 20270 30054 40056 333 58000 70100==
41963,2024,07,11,00,00,AAXX 11004 41963 02440 21801 10285 20270 30062 40065 82500 333 59003 70090 82618==
41963,2024,07,11,03,00,AAXX 11034 41963 02456 61801 10320 20270 30064 40066 82510 333 20270 59012 70080 82618 86458==
41963,2024,07,11,06,00,AAXX 11064 41963 01340 81801 10285 20285 30037 40040 76162 8372/ 333 59025 70160 82708 83616 88458==
41963,2024,07,11,09,00,AAXX 11094 41963 01450 61801 10302 20280 30009 40011 70162 82510 333 59031 70180 82618 86458==
41963,2024,07,11,12,00,AAXX 11124 41963 01340 81801 10282 20280 30012 40014 76162 8372/ 333 10322 59032 70010 82708 83615 88456==
41963,2024,07,11,15,00,AAXX 11154 41963 01330 81801 10275 20270 30014 40017 76166 8372/ 333 59036 70290 82708 83616 88456==
41963,2024,07,11,18,00,AAXX 11184 41963 21330 80000 10272 20270 30021 40024 70262 8372/ 333 59035 60118 70300 82708 83616 88456==
41963,2024,07,11,21,00,AAXX 11214 41963 02330 80000 10273 20270 30019 40022 8372/ 333 59035 70300 82708 83615 88456==
41964,2024,07,05,00,00,AAXX 05004 41964 21325 81502 10258 20258 30032 40034 76362 8772/ 333 58009 60237 70262 85707 85614 88457==
41964,2024,07,05,03,00,AAXX 05034 41964 01356 81402 10270 20260 30045 40047 70262 8662/ 333 20251 58000 70292 84709 84617 88459==
41964,2024,07,05,06,00,AAXX 05064 41964 11356 81702 10282 20260 30042 40044 60036 70262 8432/ 333 59001 70288 83617 88458 81928==
41964,2024,07,05,09,00,AAXX 05094 41964 01330 80000 10269 20260 30022 40024 76166 8772/ 333 59003 70334 85708 85614 88457==
41964,2024,07,05,12,00,AAXX 05124 41964 21456 80000 10272 20272 30006 40009 70262 8552/ 333 10291 59018 60088 70336 85617 88460==
41964,2024,07,05,15,00,AAXX 05154 41964 01456 80000 10272 20272 30027 40029 72122 8552/ 333 59013 70337 85616 88460==
41964,2024,07,05,18,00,AAXX 05184 41964 01330 80000 10263 20263 30023 40025 76162 8672/ 333 59018 70362 85708 84615 88457==
41964,2024,07,05,21,00,AAXX 05214 41964 01356 81502 10265 20260 30021 40023 70262 8662/ 333 59014 70338 82709 85616 88460==
41964,2024,07,06,00,00,AAXX 06004 41964 11456 71403 10269 20260 30020 40022 69926 70162 85570 333 59012 70138 85616 85460==
41964,2024,07,06,03,00,AAXX 06034 41964 02457 71404 10289 20260 30035 40037 83510 333 59010 70108 83618 86460==
41964,2024,07,06,06,00,AAXX 06064 41964 02457 51804 10303 20260 30022 40024 83510 333 59020 70108 83618 84460==
41964,2024,07,06,09,00,AAXX 06094 41964 02457 52305 10317 20270 30016 40019 82532 333 59006 70032 82618 83078==
41964,2024,07,06,12,00,AAXX 06124 41964 02557 52104 10297 20260 30010 40013 81132 333 10320 58004 70028 81825 84078==
41964,2024,07,06,15,00,AAXX 06154 41964 02457 41802 10280 20270 30029 40032 81502 333 58002 70027 81618 83078==
41964,2024,07,06,18,00,AAXX 06184 41964 02456 40000 10278 20270 30027 40029 82510 333 58004 70002 82618 83460==
41964,2024,07,06,21,00,AAXX 06214 41964 02456 51502 10273 20260 30025 40027 82510 333 58004 70000 82617 84460==
41964,2024,07,07,00,00,AAXX 07004 41964 02557 51502 10275 20270 30024 40026 81131 333 58004 70000 81825 83080==
41964,2024,07,07,03,00,AAXX 07034 41964 02557 51402 10310 20270 30039 40042 85400 333 20268 58004 70000 84825==
41964,2024,07,07,06,00,AAXX 07064 41964 02457 51804 10320 20270 30039 40042 83510 333 58017 70000 83618 84460==
41964,2024,07,07,09,00,AAXX 07094 41964 02457 52105 10320 20270 30021 40024 82402 333 58005 70000 81618 84078==
41964,2024,07,07,12,00,AAXX 07124 41964 02457 62102 10302 20270 30020 40022 83402 333 10328 58010 70000 82618 85078==
41964,2024,07,07,15,00,AAXX 07154 41964 02457 21802 10290 20270 30029 40031 81502 333 58000 70000 81618==
41964,2024,07,07,18,00,AAXX 07184 41964 02456 30000 10288 20280 30039 40041 83500 333 58012 70000 83618==
41964,2024,07,07,21,00,AAXX 07214 41964 02456 70000 10283 20270 30035 40038 85510 333 58010 70000 85617 85460==
41964,2024,07,08,00,00,AAXX 08004 41964 01340 80000 10272 20260 30033 40036 76162 8672/ 333 58009 70004 84708 84614 88459==
41964,2024,07,08,03,00,AAXX 08034 41964 01456 71202 10298 20270 30041 40044 70162 83570 333 20266 58002 70009 83618 84460==
41964,2024,07,08,06,00,AAXX 08064 41964 11457 61802 10320 20270 30039 40042 60016 70162 83510 333 58000 70009 83618 85460==
41964,2024,07,08,12,00,AAXX 08124 41964 02457 61804 10308 20280 30021 40023 83430 333 10325 58001 70009 82618 85360==
41964,2024,07,08,15,00,AAXX 08154 41964 02456 40000 10288 20280 30034 40036 81530 333 58005 70009 81618 83362==
41964,2024,07,08,18,00,AAXX 08184 41964 02456 30000 10289 20280 30042 40044 82530 333 58003 70009 82617==
41964,2024,07,08,21,00,AAXX 08214 41964 02456 60000 10286 20280 30039 40042 85510 333 58004 70009 85617 85460==
41964,2024,07,09,00,00,AAXX 09004 41964 21356 81302 10272 20272 30040 40043 72162 8672/ 333 58007 60047 70040 83708 85616 88460==
41964,2024,07,09,03,00,AAXX 09034 41964 01456 71402 10290 20270 30051 40054 70162 82510 333 20263 58010 70041 82618 86460==
41964,2024,07,09,06,00,AAXX 09064 41964 11457 71803 10308 20270 30059 40062 69966 70262 83520 333 58020 70041 83618 86460==
41964,2024,07,09,09,00,AAXX 09094 41964 02457 71803 10321 20290 30048 40050 83510 333 58012 70041 83618 86460==
41964,2024,07,09,12,00,AAXX 09124 41964 02457 71603 10296 20270 30037 40039 83410 333 10324 58016 70041 82618 86460==
41964,2024,07,09,15,00,AAXX 09154 41964 01356 82103 10274 20260 30052 40055 72162 8672/ 333 58018 70059 82708 85615 88460==
41964,2024,07,09,18,00,AAXX 09184 41964 11356 81803 10280 20270 30052 40055 60021 70262 8662/ 333 58010 70059 82708 85616 88460==
41964,2024,07,09,21,00,AAXX 09214 41964 01335 81803 10274 20260 30053 40056 76166 8672/ 333 58014 70089 85708 85615 88458==
41964,2024,07,10,00,00,AAXX 10004 41964 21335 81802 10272 20272 30054 40057 76166 8672/ 333 58014 60079 70094 84708 85615 88458==
41964,2024,07,10,03,00,AAXX 10034 41964 01330 81402 10274 20273 30066 40069 76196 8772/ 333 20254 58015 70198 84707 85615 88458==
41964,2024,07,10,06,00,AAXX 10064 41964 21456 71801 10299 20270 30067 40070 71796 84320 333 58008 60189 70268 83618 86460 81928==
41964,2024,07,10,09,00,AAXX 10094 41964 02456 71902 10312 20280 30052 40055 84520 333 58004 70268 83618 86460==
41964,2024,07,10,12,00,AAXX 10124 41964 02456 61802 10300 20260 30037 40039 84431 333 10321 58000 70268 83618 83362==
41964,2024,07,10,15,00,AAXX 10154 41964 02456 51802 10289 20280 30048 40051 83430 333 59004 70250 82618 83362==
41964,2024,07,10,18,00,AAXX 10184 41964 02456 71503 10284 20270 30050 40053 84510 333 59002 70250 84617 87460==
41964,2024,07,10,21,00,AAXX 10214 41964 02356 81602 10279 20260 30047 40050 8562/ 333 59006 70220 82709 84616 88460==
41964,2024,07,11,00,00,AAXX 11004 41964 21335 80000 10278 20278 30034 40037 76162 8672/ 333 59020 60037 70208 84707 85615 88458==
41964,2024,07,11,03,00,AAXX 11034 41964 01350 81402 10279 20270 30040 40043 70266 8662/ 333 20265 59026 70118 84709 84616 88459==
41964,2024,07,11,06,00,AAXX 11064 41964 01356 81801 10280 20270 30033 40036 76162 8432/ 333 59034 70118 83617 88458 81928==
41964,2024,07,11,09,00,AAXX 11094 41964 01356 81902 10279 20270 30021 40024 76166 8432/ 333 59031 70438 83617 88458==
41964,2024,07,11,12,00,AAXX 11124 41964 21456 71604 10273 20260 30003 40005 70162 84470 333 10295 59034 60348 70458 83618 85460==
41964,2024,07,11,15,00,AAXX 11154 41964 01325 80000 10258 20258 30017 40019 76362 8672/ 333 59031 70532 85707 85614 88457==
41964,2024,07,11,18,00,AAXX 11184 41964 21320 81502 10268 20268 30017 40019 76566 8772/ 333 59033 60559 71012 85707 85613 88457==
41964,2024,07,11,21,00,AAXX 11214 41964 01320 81403 10255 20255 30015 40017 76566 8772/ 333 59032 71722 85707 85613 88457==
41965,2024,07,05,00,00,AAXX 05004 41965 21430 80000 10256 20240 30039 40048 76366 8461/ 333 58011 60309 70300 81710 83618 88456==
41965,2024,07,05,03,00,AAXX 05034 41965 02440 62202 10270 20240 30047 40056 84610 333 20253 58002 70300 83618 84460==
41965,2024,07,05,06,00,AAXX 05064 41965 NIL=
41965,2024,07,05,09,00,AAXX 05094 41965 01440 81301 10280 20250 30020 40029 76122 8461/ 333 59010 70330 81710 83618 88456==
41965,2024,07,05,12,00,AAXX 05124 41965 21430 80000 10272 20260 30006 40015 70262 8461/ 333 10303 59021 60035 70330 83618 88460==
41965,2024,07,05,15,00,AAXX 05154 41965 02430 60000 10270 20250 30026 40035 84610 333 59017 70330 83618 84460==
41965,2024,07,05,18,00,AAXX 05184 41965 NIL=
41965,2024,07,05,21,00,AAXX 05214 41965 02430 60000 10258 20250 30029 40038 84610 333 59019 70410 83618 84460==
41965,2024,07,06,00,00,AAXX 06004 41965 02440 61401 10256 20240 30022 40031 84610 333 59017 70280 83618 84460==
41965,2024,07,06,03,00,AAXX 06034 41965 02450 60000 10290 20240 30033 40043 84610 333 20251 59014 70280 83618 84460==
41965,2024,07,06,06,00,AAXX 06064 41965 02456 31402 10310 20250 30027 40036 83600 333 59010 70280 83618==
41965,2024,07,06,09,00,AAXX 06094 41965 02456 51302 10318 20250 30012 40021 84610 333 59008 70250 83618 84460==
41965,2024,07,06,12,00,AAXX 06124 41965 02440 50000 10290 20240 30008 40017 84610 333 10320 58002 70250 83618 84460==
41965,2024,07,06,15,00,AAXX 06154 41965 02430 50000 10270 20250 30034 40043 84610 333 70250 83618 84460==
41965,2024,07,06,21,00,AAXX 06214 41965 02430 30000 10268 20250 30037 40046 83600 333 58008 70000 83618==
41965,2024,07,07,00,00,AAXX 07004 41965 02440 31801 10265 20250 30027 40036 83600 333 58005 70000 83618==
41965,2024,07,07,03,00,AAXX 07034 41965 02450 41401 10318 20250 30041 40050 83600 333 20260 58008 70000 83618==
41965,2024,07,07,06,00,AAXX 07064 41965 02456 53202 10315 20250 30032 40041 84610 333 58005 70000 83618 84460==
41965,2024,07,07,09,00,AAXX 07094 41965 02456 52202 10325 20260 30019 40028 84610 333 58007 70000 83618 84460==
41965,2024,07,07,12,00,AAXX 07124 41965 02440 51401 10300 20250 30022 40031 84610 333 10330 58014 70000 83618 84460==
41965,2024,07,07,15,00,AAXX 07154 41965 02430 30000 10283 20260 30033 40042 83600 333 59001 70000 83618==
41965,2024,07,07,18,00,AAXX 07184 41965 02430 50000 10275 20260 30034 40043 84610 333 59001 70000 83618 84460==
41965,2024,07,07,21,00,AAXX 07214 41965 02430 60000 10270 20250 30036 40045 84610 333 59001 70000 83618 84460==
41965,2024,07,08,00,00,AAXX 08004 41965 02430 81401 10266 20250 30037 40046 8461/ 333 58010 70000 81710 83618 88460==
41965,2024,07,08,03,00,AAXX 08034 41965 01450 61302 10290 20240 30044 40053 70262 84610 333 20263 58003 70030 83618 84460==
41965,2024,07,08,06,00,AAXX 08064 41965 11456 62601 10320 20250 30038 40047 60036 70262 84610 333 58006 70030 83618 84460==
41965,2024,07,08,09,00,AAXX 08094 41965 02456 51401 10327 20250 30027 40036 84610 333 58008 70030 83618 84460==
41965,2024,07,08,12,00,AAXX 08124 41965 02440 52201 10300 20250 30021 40030 84610 333 10330 59001 70030 83618 84460==
41965,2024,07,08,18,00,AAXX 08184 41965 NIL=
41965,2024,07,09,00,00,AAXX 09004 41965 02430 81401 10265 20250 30046 40055 8461/ 333 58009 70030 81710 83618 88460==
41965,2024,07,09,03,00,AAXX 09034 41965 02440 80000 10295 20250 30049 40058 8461/ 333 20260 58005 70030 83618 88460==
41965,2024,07,09,06,00,AAXX 09064 41965 02450 61402 10315 20250 30058 40067 84610 333 58020 70000 83618 84460==
41965,2024,07,09,09,00,AAXX 09094 41965 02456 52404 10320 20250 30046 40055 84610 333 58019 70000 83618 84460==
41965,2024,07,09,12,00,AAXX 09124 41965 02440 81302 10290 20250 30042 40051 8461/ 333 10325 58021 70000 83618 88460==
41965,2024,07,09,15,00,AAXX 09154 41965 02430 30000 10280 20250 30053 40062 83600 333 58011 70000 83618==
41965,2024,07,09,18,00,AAXX 09184 41965 NIL=
41965,2024,07,09,21,00,AAXX 09214 41965 02430 30000 10275 20260 30059 40068 83600 333 58015 70000 83618==
41965,2024,07,10,00,00,AAXX 10004 41965 02430 80000 10265 20250 30063 40072 8461/ 333 58017 70000 83618 88460==
41965,2024,07,10,03,00,AAXX 10034 41965 01430 82202 10265 20250 30071 40080 76162 8461/ 333 20260 58022 70150 81710 83618 88456==
41965,2024,07,10,06,00,AAXX 10064 41965 21430 80000 10300 20250 30067 40076 70262 8461/ 333 58009 60188 70180 81710 83618 88460==
41965,2024,07,10,09,00,AAXX 10094 41965 02430 61402 10300 20250 30042 40051 84610 333 59004 70180 83618 84460==
41965,2024,07,10,12,00,AAXX 10124 41965 02440 60000 10295 20260 30036 40045 84610 333 10310 59006 70180 83618 84460==
41965,2024,07,10,15,00,AAXX 10154 41965 02440 30000 10270 20240 30056 40065 83600 333 58003 70180 83618==
41965,2024,07,10,18,00,AAXX 10184 41965 NIL=
41965,2024,07,10,21,00,AAXX 10214 41965 01430 81301 10264 20250 30059 40068 76366 8461/ 333 59025 70420 81710 83618 88456==
41965,2024,07,11,00,00,AAXX 11004 41965 21430 81401 10261 20250 30038 40047 76366 8461/ 333 59025 60469 70640 81710 83618 88456==
41965,2024,07,11,03,00,AAXX 11034 41965 02450 30000 10290 20250 30043 40052 83600 333 20256 59028 70490 83618==
41965,2024,07,11,06,00,AAXX 11064 41965 02456 31403 10295 20250 30031 40040 83600 333 59036 70460 83618==
41965,2024,07,11,09,00,AAXX 11094 41965 01450 61302 10290 20250 30007 40016 70262 84610 333 59035 70560 83618 88356==
41965,2024,07,11,12,00,AAXX 11124 41965 11440 81402 10280 20240 30006 40015 60106 70262 8461/ 333 10307 59030 70560 83618 88460==
41965,2024,07,11,15,00,AAXX 11154 41965 01430 80000 10260 20240 30025 40034 76162 8461/ 333 59031 70610 81710 83618 88456==
41965,2024,07,11,18,00,AAXX 11184 41965 NIL=
41965,2024,07,11,21,00,AAXX 11214 41965 01430 81301 10256 20240 30029 40038 76366 8461/ 333 59030 71140 81710 83618 88456==
41966,2024,07,05,00,00,AAXX 05004 41966 21330 81201 10250 20240 39978 40058 76162 8472/ 333 58016 60147 70206 82709 83615 88460==
41966,2024,07,05,03,00,AAXX 05034 41966 01340 81801 10260 20250 39992 40071 72162 8472/ 333 20240 58002 70222 82709 83615 88460==
41966,2024,07,05,06,00,AAXX 05064 41966 01350 81301 10270 20260 39981 40061 76162 8472/ 333 59007 70030 82709 83615 88460==
41966,2024,07,05,09,00,AAXX 05094 41966 01450 61301 10300 20240 39954 40032 70162 83510 333 59013 70202 83616 85460==
41966,2024,07,05,12,00,AAXX 05124 41966 11440 61401 10290 20240 39948 40026 69926 70262 82510 333 10305 59019 70186 82616 85460==
41966,2024,07,05,15,00,AAXX 05154 41966 02430 61501 10276 20250 39954 40032 82510 333 59011 70071 82616 85460==
41966,2024,07,05,18,00,AAXX 05184 41966 NIL=
41966,2024,07,05,21,00,AAXX 05214 41966 01420 81701 10260 20250 39955 40033 70262 8352/ 333 59016 70181 83616 88460==
41966,2024,07,06,00,00,AAXX 06004 41966 11440 61201 10270 20260 39958 40037 60016 70162 83510 333 59021 70046 83616 85460==
41966,2024,07,06,06,00,AAXX 06064 41966 02450 61801 10300 20220 39971 40048 82510 333 20250 59023 70030 82616 85460==
41966,2024,07,06,09,00,AAXX 06094 41966 02450 61801 10320 20240 39950 40027 83510 333 59005 70010 83616 85460==
41966,2024,07,06,12,00,AAXX 06124 41966 01440 71602 10293 20260 39951 40028 70362 83510 333 10325 58002 70020 83616 86460==
41966,2024,07,06,15,00,AAXX 06154 41966 01430 71601 10270 20250 39963 40042 70262 83510 333 58010 70035 83616 86460==
41966,2024,07,06,21,00,AAXX 06214 41966 02420 51801 10265 20250 39963 40042 82510 333 58009 70025 82616 84460==
41966,2024,07,07,00,00,AAXX 07004 41966 02440 50901 10260 20240 39971 40049 82510 333 58012 70025 82616 84460==
41966,2024,07,07,03,00,AAXX 07034 41966 02550 41201 10305 20230 39980 40058 82130 333 20250 58010 70025 82826 83362==
41966,2024,07,07,06,00,AAXX 07064 41966 02550 41501 10325 20240 39971 40047 82130 333 58005 70025 82826 83362==
41966,2024,07,07,09,00,AAXX 07094 41966 02450 61201 10330 20210 39953 40030 82510 333 58003 70025 82616 85460==
41966,2024,07,07,12,00,AAXX 07124 41966 01440 71501 10300 20280 39959 40037 72122 83510 333 10335 58009 70010 83616 86460==
41966,2024,07,07,15,00,AAXX 07154 41966 02420 61201 10290 20270 39970 40048 82510 333 58006 70010 82616 85460==
41966,2024,07,07,18,00,AAXX 07184 41966 02420 61501 10280 20260 39976 40055 82510 333 58006 70010 82616 85460==
41966,2024,07,07,21,00,AAXX 07214 41966 01320 81801 10265 20260 39975 40053 76122 8472/ 333 58011 70020 82709 83615 88460==
41966,2024,07,08,00,00,AAXX 08004 41966 21340 81201 10260 20250 39983 40062 72162 8472/ 333 58013 60037 70050 82709 83615 88460==
41966,2024,07,08,03,00,AAXX 08034 41966 02350 80000 10280 20250 39983 40062 8472/ 333 20252 58004 70050 82709 83615 88460==
41966,2024,07,08,06,00,AAXX 08064 41966 02450 71301 10311 20230 39974 40051 83510 333 58004 70050 83616 86460==
41966,2024,07,08,09,00,AAXX 08094 41966 02450 62201 10330 20210 39961 40037 83510 333 58007 70050 83616 85460==
41966,2024,07,08,12,00,AAXX 08124 41966 02440 72101 10305 20240 39959 40036 83510 333 10335 59001 70040 83616 85460==
41966,2024,07,08,18,00,AAXX 08184 41966 NIL=
41966,2024,07,09,00,00,AAXX 09004 41966 21440 70901 10255 20250 39986 40065 72162 83510 333 58003 60169 70160 83616 86460==
41966,2024,07,09,06,00,AAXX 09064 41966 02450 61501 10320 20230 39993 40070 83510 333 58019 70160 83616 85460==
41966,2024,07,09,09,00,AAXX 09094 41966 02450 61801 10315 20260 39980 40058 83510 333 58021 70160 83616 85460==
41966,2024,07,09,12,00,AAXX 09124 41966 21440 71802 10272 20250 39984 40063 72162 83510 333 10325 58027 60097 70250 83616 86460==
41966,2024,07,09,15,00,AAXX 09154 41966 02430 71601 10275 20260 39985 40063 83510 333 58018 70250 83616 86460==
41966,2024,07,09,18,00,AAXX 09184 41966 NIL=
41966,2024,07,10,00,00,AAXX 10004 41966 21330 81202 10250 20240 30000 40080 76162 8472/ 333 58015 60127 70210 82709 83615 88460==
41966,2024,07,10,03,00,AAXX 10034 41966 01340 81301 10265 20260 30013 40091 76166 8472/ 333 20240 58023 70312 82709 83615 88460==
41966,2024,07,10,06,00,AAXX 10064 41966 21450 71301 10290 20250 30002 40080 70162 83510 333 58010 60119 70322 83616 86460==
41966,2024,07,10,09,00,AAXX 10094 41966 01350 81301 10268 20250 39983 40062 76162 8472/ 333 58004 70350 82709 83615 88460==
41966,2024,07,10,12,00,AAXX 10124 41966 21430 61201 10270 20250 39978 40057 70166 83510 333 10295 58006 60059 70278 83616 85460==
41966,2024,07,10,15,00,AAXX 10154 41966 02420 61501 10270 20250 39988 40067 83510 333 58004 70278 83616 85460==
41966,2024,07,10,18,00,AAXX 10184 41966 NIL=
41966,2024,07,10,21,00,AAXX 10214 41966 02420 61701 10260 20230 39980 40059 83510 333 59012 70258 83616 85460==
41966,2024,07,11,00,00,AAXX 11004 41966 02440 70901 10260 20230 39974 40052 83510 333 59028 70158 83616 86460==
41966,2024,07,11,03,00,AAXX 11034 41966 02450 71301 10276 20250 39985 40063 83510 333 20251 59028 70056 83616 86460==
41966,2024,07,11,06,00,AAXX 11064 41966 02450 61301 10295 20250 39973 40051 83510 333 59029 70046 83616 85460==
41966,2024,07,11,09,00,AAXX 11094 41966 02450 51801 10305 20250 39950 40027 82510 333 59035 70018 82616 84460==
41966,2024,07,11,12,00,AAXX 11124 41966 02440 51501 10290 20250 39951 40029 83510 333 10310 59028 70000 83616 84460==
41966,2024,07,11,18,00,AAXX 11184 41966 NIL=
41966,2024,07,11,21,00,AAXX 11214 41966 02420 51201 10270 20240 39958 40037 82510 333 59022 70000 82616 84460==
41977,2024,07,05,00,00,AAXX 05004 41977 21445 80000 10257 20257 30023 40060 76162 8572/ 333 58004 60305 70358 84710 88460==
41977,2024,07,05,03,00,AAXX 05034 41977 01445 81702 10261 20260 30038 40076 76166 8572/ 333 20254 58000 70356 84709 88458==
41977,2024,07,05,06,00,AAXX 05064 41977 21450 81403 10281 20270 30024 40062 70262 8432/ 333 59011 60058 70354 83618 88460 81930==
41977,2024,07,05,09,00,AAXX 05094 41977 01450 81804 10300 20260 30003 40041 70262 8432/ 333 59010 70359 83618 88460 81930==
41977,2024,07,05,12,00,AAXX 05124 41977 01450 81804 10288 20270 30999 40025 70262 8432/ 333 10305 59024 70355 83618 88460==
41977,2024,07,05,15,00,AAXX 05154 41977 02456 71803 10276 20260 30015 40053 83570 333 59015 70355 83617 86459==
41977,2024,07,05,18,00,AAXX 05184 41977 01330 81802 10269 20269 30015 40053 76362 8672/ 333 59008 70120 84707 88458==
41977,2024,07,05,21,00,AAXX 05214 41977 01356 81802 10261 20260 30013 40051 70262 8562/ 333 58002 70401 82710 85616 88458==
41977,2024,07,06,00,00,AAXX 06004 41977 11356 80000 10262 20260 30009 40047 60036 70262 8562/ 333 59014 70201 82710 85616 88458==
41977,2024,07,06,03,00,AAXX 06034 41977 02456 80000 10287 20260 30021 40059 8452/ 333 20250 59017 70173 84618 88460==
41977,2024,07,06,06,00,AAXX 06064 41977 02456 30000 10319 20260 30011 40049 83400 333 59013 70155 82618==
41977,2024,07,06,09,00,AAXX 06094 41977 02456 31802 10320 20260 39999 40037 83400 333 59004 70150 82618==
41977,2024,07,06,12,00,AAXX 06124 41977 42450 52003 10295 20260 30012 40049 83500 333 10333 40150 58024 83618 84360==
41977,2024,07,06,15,00,AAXX 06154 41977 02456 60000 10280 20260 30015 40052 83570 333 58000 70150 83617 85460==
41977,2024,07,06,18,00,AAXX 06184 41977 02450 71304 10278 20260 30020 40057 83570 333 58005 70030 83618 85460==
41977,2024,07,06,21,00,AAXX 06214 41977 02450 71803 10272 20260 30011 40049 84570 333 59002 70000 81617 85460==
41977,2024,07,07,00,00,AAXX 07004 41977 01450 71804 10273 20260 30016 40054 74530 333 58007 70000 84617 86362==
41977,2024,07,07,03,00,AAXX 07034 41977 02456 61302 10320 20260 30025 40063 83530 333 20265 58004 70000 83617 85363==
41977,2024,07,07,06,00,AAXX 07064 41977 02456 61802 10323 20270 30021 40059 83511 333 58010 70000 83617 85460 85080==
41977,2024,07,07,09,00,AAXX 07094 41977 02456 51802 10326 20270 30012 40050 83500 333 58013 70000 83618 84360==
41977,2024,07,07,12,00,AAXX 07124 41977 02456 51802 10300 20270 30005 40042 83530 333 10332 59007 70000 83618 85360==
41977,2024,07,07,15,00,AAXX 07154 41977 02450 72002 10295 20280 30021 40059 84530 333 58006 70000 84618 86360==
41977,2024,07,07,18,00,AAXX 07184 41977 01440 71302 10280 20280 30030 40068 72162 84570 333 58010 70050 84615 85459==
41977,2024,07,07,21,00,AAXX 07214 41977 01340 81702 10275 20260 30019 40057 76162 8672/ 333 58009 70080 83708 84615 88458==
41977,2024,07,08,00,00,AAXX 08004 41977 21340 81303 10270 20270 30024 40062 76162 8672/ 333 58008 60067 70108 83708 84615 88458==
41977,2024,07,08,03,00,AAXX 08034 41977 01450 81304 10294 20260 30032 40069 70262 8452/ 333 20260 58007 70118 84617 88460==
41977,2024,07,08,06,00,AAXX 08064 41977 01450 71303 10300 20250 30025 40062 70162 83570 333 58004 70118 83618 85460==
41977,2024,07,08,09,00,AAXX 08094 41977 02450 71702 10310 20260 30022 40059 83570 333 58010 70118 83618 85460==
41977,2024,07,08,12,00,AAXX 08124 41977 01450 80000 10286 20270 30012 40049 76122 8452/ 333 10320 58007 70010 84617 88460==
41977,2024,07,08,15,00,AAXX 08154 41977 02450 80000 10286 20280 30024 40061 8452/ 333 58003 70128 84617 88460==
41977,2024,07,08,18,00,AAXX 08184 41977 02450 80000 10284 20270 30029 40066 8452/ 333 59001 70078 84618 88460==
41977,2024,07,08,21,00,AAXX 08214 41977 01450 80000 10280 20270 30032 40069 76162 8452/ 333 58013 70173 84617 88460==
41977,2024,07,09,00,00,AAXX 09004 41977 21440 80000 10270 20260 30033 40071 76162 8452/ 333 59009 60138 70145 84617 88460==
41977,2024,07,09,03,00,AAXX 09034 41977 02450 70000 10287 20270 30037 40074 84510 333 58005 70135 84618 87460==
41977,2024,07,09,06,00,AAXX 09064 41977 02456 61703 10313 20250 30043 40081 83510 333 58018 70135 83618 86460==
41977,2024,07,09,09,00,AAXX 09094 41977 02456 61803 10318 20270 30039 40077 83510 333 58017 70135 83618 86460==
41977,2024,07,09,12,00,AAXX 09124 41977 02356 82103 10295 20270 30027 40064 8562/ 333 10323 58015 70125 81710 85616 88458==
41977,2024,07,09,15,00,AAXX 09154 41977 02450 72105 10286 20270 30045 40082 84570 333 59021 70125 84617 85460==
41977,2024,07,09,18,00,AAXX 09184 41977 11340 81304 10272 20260 30049 40087 60012 76162 8672/ 333 58020 70135 82708 84615 88458==
41977,2024,07,09,21,00,AAXX 09214 41977 01330 81305 10270 20270 30046 40084 76366 8772/ 333 58014 70204 83708 84615 88458==
41977,2024,07,10,00,00,AAXX 10004 41977 21340 81304 10267 20267 30052 40090 76166 8772/ 333 58019 60299 70304 83708 84615 88458==
41977,2024,07,10,06,00,AAXX 10064 41977 11456 61702 10325 20270 30048 40086 60076 70162 83570 333 58005 70374 83617 85460==
41977,2024,07,10,09,00,AAXX 10094 41977 02456 71804 10307 20260 30031 40069 84510 333 59008 70374 84617 87459==
41977,2024,07,10,12,00,AAXX 10124 41977 02456 71802 10292 20260 30027 40064 82530 333 10327 58000 70374 82618 87361==
41977,2024,07,10,15,00,AAXX 10154 41977 02456 70000 10279 20270 30041 40078 84510 333 59004 70374 84618 86460==
41977,2024,07,10,18,00,AAXX 10184 41977 02456 70000 10274 20250 30038 40076 84510 333 59011 70364 84618 86460==
41977,2024,07,10,21,00,AAXX 10214 41977 02456 80000 10267 20260 30026 40064 8452/ 333 59020 70170 84618 88460==
41977,2024,07,11,00,00,AAXX 11004 41977 01450 80000 10263 20260 30028 40067 76122 8472/ 333 59024 70050 83710 88460==
41977,2024,07,11,03,00,AAXX 11034 41977 01340 81803 10270 20250 30037 40075 76162 8672/ 333 20261 59019 70078 82708 84615 88458==
41977,2024,07,11,06,00,AAXX 11064 41977 01340 81805 10272 20270 30025 40063 76162 8772/ 333 59023 70108 83708 84615 88458==
41977,2024,07,11,09,00,AAXX 11094 41977 01456 71303 10290 20270 39998 40036 72166 84510 333 59033 70172 84616 87459==
41977,2024,07,11,12,00,AAXX 11124 41977 21456 71303 10286 20270 39994 40032 70262 83570 333 10300 59033 60068 70172 83618 85460==
41977,2024,07,11,18,00,AAXX 11184 41977 11456 71304 10267 20260 30009 40047 69946 70262 84510 333 59029 70176 84617 87459==
41977,2024,07,11,21,00,AAXX 11214 41977 02356 81303 10265 20260 30003 40041 8562/ 333 59023 70176 82710 85616 88458==
41978,2024,07,05,00,00,AAXX 05004 41978 01450 81604 10254 20254 30043 40050 76162 8432/ 333 58010 70440 83615 88459 81925==
41978,2024,07,05,03,00,AAXX 05034 41978 01431 81205 10260 20260 30056 40063 76162 8432/ 333 20252 58002 70536 83612 88459 81928==
41978,2024,07,05,06,00,AAXX 05064 41978 01440 81605 10278 20270 30042 40049 76062 8432/ 333 59008 70538 83612 88459 81928==
41978,2024,07,05,09,00,AAXX 05094 41978 01457 81807 10300 20260 30025 40031 70262 8432/ 333 59006 70534 83614 88459 81926==
41978,2024,07,05,12,00,AAXX 05124 41978 11457 81706 10290 20260 30010 40016 69926 70262 8432/ 333 10304 59024 70534 83614 88459 81926==
41978,2024,07,05,15,00,AAXX 05154 41978 02456 71203 10273 20250 30034 40040 84320 333 59015 70534 83616 87460 81928==
41978,2024,07,05,18,00,AAXX 05184 41978 02450 82803 10266 20260 30033 40039 8432/ 333 59005 70534 83616 88460 81928==
41978,2024,07,05,21,00,AAXX 05214 41978 01450 82505 10260 20250 30016 40023 70362 8432/ 333 59023 70556 83616 88460 81928==
41978,2024,07,06,00,00,AAXX 06004 41978 11456 71102 10263 20240 30027 40033 60026 70162 84320 333 59016 70114 83616 87460 81928==
41978,2024,07,06,03,00,AAXX 06034 41978 02457 81608 10290 20260 30040 40047 8432/ 333 20254 59016 70084 83616 88460 81928==
41978,2024,07,06,06,00,AAXX 06064 41978 02458 61610 10316 20270 30033 40039 83520 333 59009 70024 83618 85460==
41978,2024,07,06,09,00,AAXX 06094 41978 02458 62112 10313 20260 30016 40022 83520 333 59010 70022 83618 85460==
41978,2024,07,06,12,00,AAXX 06124 41978 02458 72308 10298 20260 30014 40020 83520 333 10326 59004 70022 83617 87460==
41978,2024,07,06,15,00,AAXX 06154 41978 02458 42004 10280 20260 30036 40042 82520 333 58002 70022 82618 83460==
41978,2024,07,06,18,00,AAXX 06184 41978 02458 71203 10277 20270 30035 40041 83520 333 58002 70022 83617 86460==
41978,2024,07,06,21,00,AAXX 06214 41978 02458 71203 10275 20270 30024 40030 83520 333 58008 70000 83617 86460==
41978,2024,07,07,00,00,AAXX 07004 41978 02458 71103 10270 20250 30034 40040 83520 333 58007 70000 83617 86460==
41978,2024,07,07,03,00,AAXX 07034 41978 02459 41508 10312 20260 30046 40052 83801 333 20265 58006 70000 83620 81080==
41978,2024,07,07,06,00,AAXX 07064 41978 02559 52010 10328 20280 30038 40044 82301 333 58005 70000 82825 83080==
41978,2024,07,07,09,00,AAXX 07094 41978 02458 52010 10324 20270 30024 40031 82530 333 58008 70000 82618 83362==
41978,2024,07,07,12,00,AAXX 07124 41978 02458 72111 10307 20270 30022 40028 83530 333 10333 58008 70000 83618 86360==
41978,2024,07,07,15,00,AAXX 07154 41978 02457 62205 10294 20270 30035 40042 83520 333 59001 70000 83618 85460==
41978,2024,07,07,18,00,AAXX 07184 41978 21457 71603 10280 20270 30047 40054 70262 84320 333 58012 60015 70010 83616 87460 81929==
41978,2024,07,07,21,00,AAXX 07214 41978 02470 70000 10224 20260 30033 40040 84320 333 58009 70010 83616 87460 81928==
41978,2024,07,08,00,00,AAXX 08004 41978 21440 81104 10270 20270 30040 40047 76162 8432/ 333 59006 60057 70060 83614 88458 81928==
41978,2024,07,08,03,00,AAXX 08034 41978 01456 71104 10299 20270 30046 40052 70162 84320 333 20265 58000 70066 83616 87460 81928==
41978,2024,07,08,06,00,AAXX 08064 41978 11456 72106 10312 20260 30040 40046 69966 70262 84320 333 58002 70066 83616 87460 81928==
41978,2024,07,08,09,00,AAXX 08094 41978 02457 62607 10310 20260 30029 40035 83520 333 58005 70066 83616 86460==
41978,2024,07,08,12,00,AAXX 08124 41978 01457 70000 10292 20270 30022 40029 72162 84320 333 10322 58000 70030 83616 87460 81928==
41978,2024,07,08,15,00,AAXX 08154 41978 02457 62105 10293 20270 30038 40044 83520 333 58003 70092 86316 86460==
41978,2024,07,08,18,00,AAXX 08184 41978 02457 61003 10288 20280 30048 40055 83520 333 58001 70082 83616 86460==
41978,2024,07,08,21,00,AAXX 08214 41978 02456 61303 10286 20280 30041 40048 83520 333 58008 70082 83616 86460==
41978,2024,07,09,00,00,AAXX 09004 41978 21440 81205 10266 20260 30046 40052 72162 8432/ 333 58006 60147 70172 83612 88459 81925==
41978,2024,07,09,03,00,AAXX 09034 41978 02456 71705 10290 20270 30056 40062 84320 333 20262 58010 70166 83616 87460 81928==
41978,2024,07,09,06,00,AAXX 09064 41978 02456 72008 10307 20260 30062 40068 84320 333 58022 70166 83616 87460 81928==
41978,2024,07,09,09,00,AAXX 09094 41978 02456 62115 10318 20260 30050 40056 84320 333 58021 70166 83618 85460 81929==
41978,2024,07,09,12,00,AAXX 09124 41978 02456 62007 10295 20260 30044 40050 83520 333 10320 58022 70140 83617 85460==
41978,2024,07,09,15,00,AAXX 09154 41978 01450 82212 10284 20260 30062 40069 76122 8432/ 333 58024 70150 83615 88460 81928==
41978,2024,07,09,18,00,AAXX 09184 41978 21456 71305 10269 20260 30064 40071 70262 83520 333 58016 60085 70222 83616 87460 81928==
41978,2024,07,09,21,00,AAXX 09214 41978 01456 81404 10266 20260 30059 40065 72162 8432/ 333 58018 70622 83615 88458 81928==
41978,2024,07,10,00,00,AAXX 10004 41978 01456 81204 10263 20263 30067 40074 76162 8432/ 333 58021 70544 83709 88458 81925==
41978,2024,07,10,03,00,AAXX 10034 41978 01457 71503 10278 20270 30076 40083 72162 84320 333 20257 58020 70574 83616 87460 81928==
41978,2024,07,10,06,00,AAXX 10064 41978 01457 62112 10318 20280 30070 40076 72162 84310 333 58008 70576 83618 85460 81930==
41978,2024,07,10,09,00,AAXX 10094 41978 02457 71809 10323 20260 30050 40056 83510 333 58000 70576 83617 85460==
41978,2024,07,10,12,00,AAXX 10124 41978 02457 61608 10293 20260 30046 40052 83510 333 10337 58002 70576 83617 85460==
41978,2024,07,10,15,00,AAXX 10154 41978 02457 71504 10280 20260 30059 40065 83520 333 59003 70566 83617 87460==
41978,2024,07,10,18,00,AAXX 10184 41978 02457 71303 10277 20270 30057 40063 83520 333 59007 70494 83617 86460==
41978,2024,07,10,21,00,AAXX 10214 41978 02457 61303 10275 20270 30034 40040 83520 333 59025 70094 83617 86460==
41978,2024,07,11,00,00,AAXX 11004 41978 11440 81304 10263 20260 30045 40051 60072 76162 8432/ 333 59022 70098 84614 88459 81929==
41978,2024,07,11,03,00,AAXX 11034 41978 41435 81508 10270 20260 30052 40058 76122 8432/ 333 20259 59024 83612 88459 81925==
41978,2024,07,11,06,00,AAXX 11064 41978 01418 81709 10270 20270 30042 40049 76162 8432/ 333 59028 70266 83612 88459 81925==
41978,2024,07,11,09,00,AAXX 11094 41978 01457 81610 10298 20270 30020 40026 70262 8432/ 333 59030 70346 84612 88459 81925==
41978,2024,07,11,12,00,AAXX 11124 41978 11457 71615 10297 20260 30014 40020 60086 70262 84320 333 10306 59032 70348 83616 87460 81930==
41978,2024,07,11,15,00,AAXX 11154 41978 02456 71705 10273 20260 30026 40033 84320 333 59033 70346 83616 87460 81928==
41978,2024,07,11,18,00,AAXX 11184 41978 02456 71403 10270 20260 30024 40030 84320 333 59033 70346 83616 87460 81928==
41978,2024,07,11,21,00,AAXX 11214 41978 01450 81706 10265 20260 30014 40019 72122 8432/ 333 59020 70356 83615 88460 81928==
41980,2024,07,05,00,00,AAXX 05004 41980 11340 80000 10249 20240 39943 40056 60074 76162 8372/ 333 56999 58008 70280 82708 83617 88458=
41980,2024,07,05,06,00,AAXX 05064 41980 NIL=
41980,2024,07,05,12,00,AAXX 05124 41980 32450 60000 10280 20250 39914 40025 83510 333 10297 56999 59021 70300 83617 84458=
41980,2024,07,05,18,00,AAXX 05184 41980 NIL=
41980,2024,07,06,00,00,AAXX 06004 41980 32450 80000 10256 20240 39919 40031 8362/ 333 56999 59024 70130 83617 88450=
41980,2024,07,06,12,00,AAXX 06124 41980 32450 60000 10276 20270 39912 40053 83510 333 56999 59002 70000 83617 84458=
41980,2024,07,07,00,00,AAXX 07004 41980 11450 50000 10257 20250 39932 40044 60036 70162 82510 333 56990 58013 70030 82617 83458=
41980,2024,07,07,06,00,AAXX 07064 41980 NIL=
41980,2024,07,07,12,00,AAXX 07124 41980 32350 80000 10292 20260 39920 40031 8462/ 333 10336 56999 58008 70030 81710 83617 88458=
41980,2024,07,08,00,00,AAXX 08004 41980 11340 80000 10262 20250 39939 40051 60086 8362/ 333 56999 58007 70080 81710 83617 88458=
41980,2024,07,08,06,00,AAXX 08064 41980 NIL=
41980,2024,07,08,12,00,AAXX 08124 41980 32440 80000 10275 20260 39928 40039 8352/ 333 10323 56999 58008 70080 83618 88458=
41980,2024,07,08,18,00,AAXX 08184 41980 NIL=
41980,2024,07,09,00,00,AAXX 09004 41980 11440 80000 10261 20250 39947 40059 60114 76202 8352/ 333 56999 58008 70110 83617 88458=
41980,2024,07,09,12,00,AAXX 09124 41980 11450 60000 10270 20260 39948 40060 60054 70262 83510 333 10324 56990 58020 70160 83617 83458=
41980,2024,07,09,18,00,AAXX 09184 41980 NIL=
41980,2024,07,10,00,00,AAXX 10004 41980 11340 80000 10253 20250 39966 40079 60074 76362 8472/ 333 56999 58019 70120 82710 83617 88457=
41980,2024,07,10,06,00,AAXX 10064 41980 NIL=
41980,2024,07,10,12,00,AAXX 10124 41980 32450 60000 10272 20260 39947 40059 60226 70122 83510 333 10305 56990 59001 70420 83617 83457=
41980,2024,07,10,18,00,AAXX 10184 41980 NIL=
41980,2024,07,11,00,00,AAXX 11004 41980 32450 60000 10260 20240 39941 40053 83510 333 56990 59025 70350 83617 83458=
41980,2024,07,11,06,00,AAXX 11064 41980 NIL=
41980,2024,07,11,12,00,AAXX 11124 41980 32340 80000 10276 20250 39916 40027 8462/ 333 10295 56990 59012 70130 81710 83617 88457=
41980,2024,07,11,18,00,AAXX 11184 41980 NIL=
41984,2024,07,05,00,00,AAXX 05004 41984 21350 80000 10275 20275 30010 40012 76166 8672/ 333 58000 60069 70340 83707 84615 88456==
41984,2024,07,05,03,00,AAXX 05034 41984 01330 80000 10260 20250 30041 40043 79596 8692/ 333 20216 58011 71070 82707 83615 88458 81938==
41984,2024,07,05,06,00,AAXX 05064 41984 21340 80000 10255 20255 30028 40030 79596 8692/ 333 58001 62349 72580 83707 84615 88456 81925==
41984,2024,07,05,09,00,AAXX 05094 41984 01340 80000 10255 20255 30006 40008 76566 8672/ 333 59005 72860 83707 84615 88456==
41984,2024,07,05,12,00,AAXX 05124 41984 21450 80000 10264 20260 39992 49994 70266 8352/ 333 10280 59018 60299 72790 83618 88458==
41984,2024,07,05,15,00,AAXX 05154 41984 01340 80000 10264 20260 30016 40018 76362 8672/ 333 59014 72910 83707 84615 88456==
41984,2024,07,05,18,00,AAXX 05184 41984 21440 80000 10262 20260 30003 40005 70262 8352/ 333 59014 60298 72980 83618 88458==
41984,2024,07,05,21,00,AAXX 05214 41984 02440 80000 10270 20270 30003 40005 8352/ 333 59012 72960 83618 88458==
41984,2024,07,06,00,00,AAXX 06004 41984 02450 80000 10279 20279 30001 40003 8352/ 333 59009 72920 83618 88458==
41984,2024,07,06,03,00,AAXX 06034 41984 02456 82202 10307 20290 30016 40018 8352/ 333 20246 59025 72090 83618 88458==
41984,2024,07,06,06,00,AAXX 06064 41984 02456 81802 10306 20280 30015 40017 8352/ 333 59013 70580 83618 88458==
41984,2024,07,06,09,00,AAXX 06094 41984 02356 80000 10299 20270 30002 40004 8562/ 333 59004 70300 82709 84616 88457==
41984,2024,07,06,12,00,AAXX 06124 41984 21456 80000 10272 20260 39996 49998 70262 8352/ 333 10326 58004 60267 70550 83618 88458==
41984,2024,07,06,15,00,AAXX 06154 41984 02440 20000 10273 20260 30011 40013 82500 333 59005 70330 82618==
41984,2024,07,06,18,00,AAXX 06184 41984 02440 20000 10282 20280 30020 40022 82500 333 58007 70260 82618==
41984,2024,07,06,21,00,AAXX 06214 41984 02440 50000 10283 20280 30016 40018 83510 333 58010 70260 83618 85458==
41984,2024,07,07,00,00,AAXX 07004 41984 02450 50000 10284 20270 30013 40015 83510 333 58012 70260 83618 85458==
41984,2024,07,07,03,00,AAXX 07034 41984 02456 80000 10316 20290 30026 40028 8352/ 333 20264 58010 70260 83618 88458==
41984,2024,07,07,06,00,AAXX 07064 41984 02456 51302 10320 20270 30027 40029 84410 333 58012 70260 82618 84458==
41984,2024,07,07,09,00,AAXX 07094 41984 02456 42102 10320 20270 30013 40015 84400 333 58011 70260 82616==
41984,2024,07,07,12,00,AAXX 07124 41984 02456 30000 10311 20270 30009 40011 83400 333 10330 58013 70000 82618==
41984,2024,07,07,15,00,AAXX 07154 41984 02450 40000 10290 20270 30020 40022 84430 333 58009 70000 82618==
41984,2024,07,07,18,00,AAXX 07184 41984 02440 30000 10283 20270 30034 40036 82530 333 58014 70000 82618==
41984,2024,07,07,21,00,AAXX 07214 41984 02440 40000 10282 20270 30053 40055 83530 333 58037 70000 82618 83362==
41984,2024,07,08,00,00,AAXX 08004 41984 02445 40000 10282 20270 30022 40024 82530 333 58009 70260 82618 83362==
41984,2024,07,08,03,00,AAXX 08034 41984 02450 60000 10317 20270 30028 40030 85410 333 20255 58002 70000 82618 84458==
41984,2024,07,08,06,00,AAXX 08064 41984 02456 62201 10319 20270 30029 40031 85410 333 58003 70000 83618 85458==
41984,2024,07,08,09,00,AAXX 08094 41984 02457 41302 10325 20270 30014 40016 84400 333 58001 70000 82618==
41984,2024,07,08,12,00,AAXX 08124 41984 02456 71802 10305 20270 30011 40013 84520 333 10333 58002 70000 84618 86458==
41984,2024,07,08,15,00,AAXX 08154 41984 02440 50000 10287 20270 30024 40026 83510 333 58004 70000 83618 85458==
41984,2024,07,08,18,00,AAXX 08184 41984 02440 20000 10285 20280 30032 40034 82500 333 59004 70000 82618==
41984,2024,07,08,21,00,AAXX 08214 41984 02440 50000 10284 20270 30029 40031 83510 333 59004 70000 83618 85458==
41984,2024,07,09,00,00,AAXX 09004 41984 02450 80000 10284 20270 30026 40028 8352/ 333 58004 70000 83618 88458==
41984,2024,07,09,03,00,AAXX 09034 41984 02456 80000 10308 20280 30038 40040 8352/ 333 20273 58010 70000 83618 88458==
41984,2024,07,09,06,00,AAXX 09064 41984 02456 80000 10312 20270 30043 40045 8352/ 333 58014 70000 83618 88458==
41984,2024,07,09,09,00,AAXX 09094 41984 02456 81802 10306 20280 30034 40036 8352/ 333 58020 70000 83618 88458==
41984,2024,07,09,12,00,AAXX 09124 41984 02456 61802 10301 20270 30025 40027 85410 333 10324 58014 70000 83618 85458==
41984,2024,07,09,15,00,AAXX 09154 41984 02440 50000 10288 20280 30035 40037 83510 333 58011 70000 83618 85458==
41984,2024,07,09,18,00,AAXX 09184 41984 02440 81802 10288 20270 30046 40048 8352/ 333 58014 70000 83618 88458==
41984,2024,07,09,21,00,AAXX 09214 41984 02440 80000 10287 20280 30045 40047 8352/ 333 58016 70000 83618 88458==
41984,2024,07,10,00,00,AAXX 10004 41984 02450 80000 10286 20280 30043 40045 8352/ 333 58017 70000 83618 88458==
41984,2024,07,10,03,00,AAXX 10034 41984 02457 62201 10326 20290 30055 40057 83510 333 20281 58017 70000 83618 85458==
41984,2024,07,10,06,00,AAXX 10064 41984 02457 62202 10335 20280 30050 40052 83410 333 58007 70000 82618 84458==
41984,2024,07,10,09,00,AAXX 10094 41984 02457 61802 10340 20270 30033 40035 84410 333 59001 70000 82618 84458==
41984,2024,07,10,12,00,AAXX 10124 41984 02456 52201 10316 20270 30023 40025 84430 333 10345 59002 70000 82618==
41984,2024,07,10,15,00,AAXX 10154 41984 02440 50000 10298 20280 30042 40044 83510 333 58007 70000 83618 85458==
41984,2024,07,10,18,00,AAXX 10184 41984 02340 81801 10292 20270 30040 40042 8562/ 333 58000 70000 81707 84617 88458==
41984,2024,07,10,21,00,AAXX 10214 41984 02340 80000 10290 20280 30033 40035 8562/ 333 59012 70000 81707 84617 88458==
41984,2024,07,11,00,00,AAXX 11004 41984 02450 71301 10290 20270 30020 40022 83570 333 59023 70000 83618 84458==
41984,2024,07,11,03,00,AAXX 11034 41984 02350 70000 10308 20290 30026 40028 85670 333 20285 59017 70018 81707 84617 84458==
41984,2024,07,11,06,00,AAXX 11064 41984 42356 70000 10310 20280 30015 40017 85620 333 59035 81707 84617 86458==
41984,2024,07,11,09,00,AAXX 11094 41984 01350 80000 10308 20290 39998 40000 72122 8562/ 333 59035 70028 81707 84617 88458==
41984,2024,07,11,12,00,AAXX 11124 41984 21345 80000 10280 20270 39990 49992 76396 8672/ 333 10326 59033 60287 70300 82707 84616 88458==
41984,2024,07,11,15,00,AAXX 11154 41984 02440 80000 10288 20270 30005 40007 8352/ 333 59037 70300 83618 88458==
41984,2024,07,11,18,00,AAXX 11184 41984 02440 80000 10286 20280 30006 40008 8352/ 333 59034 70300 83618 88458==
41984,2024,07,11,21,00,AAXX 11214 41984 02440 80000 10285 20280 30004 40006 8452/ 333 59029 70300 84618 88458==
41989,2024,07,05,00,00,AAXX 05004 41989 41330 81403 10255 20250 30054 40057 58025 70460 88456==
41989,2024,07,05,03,00,AAXX 05034 41989 01330 81302 10254 20240 30057 40060 76266 8572/ 333 20249 58003 70720 82709 83614 88456==
41989,2024,07,05,06,00,AAXX 05064 41989 21450 71803 10272 20250 30055 40058 70162 83570 333 58004 60369 70710 83618 84460==
41989,2024,07,05,09,00,AAXX 05094 41989 02450 61804 10288 20260 30034 40037 83530 333 59001 70680 83618 84362==
41989,2024,07,05,12,00,AAXX 05124 41989 01440 81403 10263 20240 30025 40028 76162 8572/ 333 10293 59003 70050 82708 83614 88456==
41989,2024,07,05,15,00,AAXX 05154 41989 02440 71702 10269 20260 30031 40034 83570 333 59011 70730 83618 84460==
41989,2024,07,05,18,00,AAXX 05184 41989 02450 71702 10273 20250 30038 40041 82570 333 59011 70730 82618 85460==
41989,2024,07,05,21,00,AAXX 05214 41989 02440 61403 10268 20250 30036 40039 82570 333 59020 70590 82618 84460==
41989,2024,07,06,00,00,AAXX 06004 41989 02440 71302 10258 20250 30025 40028 83570 333 59029 70410 83618 84460==
41989,2024,07,06,03,00,AAXX 06034 41989 02450 61405 10282 20250 30037 40040 82570 333 20252 59020 70110 82618 84460==
41989,2024,07,06,06,00,AAXX 06064 41989 02450 51803 10310 20260 30048 40052 83530 333 59007 70050 83618 84362==
41989,2024,07,06,09,00,AAXX 06094 41989 02456 41704 10307 20260 30027 40030 82530 333 59007 70050 82618 84362==
41989,2024,07,06,12,00,AAXX 06124 41989 02450 41803 10293 20260 30019 40022 83530 333 10320 59006 70000 83618==
41989,2024,07,06,15,00,AAXX 06154 41989 02450 41402 10280 20260 30034 40038 82530 333 58003 70000 82618 83362==
41989,2024,07,06,21,00,AAXX 06214 41989 02440 31404 10278 20250 30046 40049 83500 333 58010 70000 83618==
41989,2024,07,07,00,00,AAXX 07004 41989 02440 41403 10280 20250 30042 40045 83500 333 58005 70000 83618 83080==
41989,2024,07,07,03,00,AAXX 07034 41989 02450 51402 10295 20250 30051 40055 83530 333 20263 58026 70000 83618 83362==
41989,2024,07,07,06,00,AAXX 07064 41989 02456 41304 10337 20270 30044 40047 82530 333 59004 70000 82618 84362==
41989,2024,07,07,09,00,AAXX 07094 41989 02456 41403 10328 20270 30030 40033 83500 333 58003 70000 83618 83362==
41989,2024,07,07,12,00,AAXX 07124 41989 42450 51804 10342 20270 30019 40022 58000 84362==
41989,2024,07,07,15,00,AAXX 07154 41989 02450 31303 10292 20270 30033 40036 82530 333 59001 70000 82618==
41989,2024,07,07,21,00,AAXX 07214 41989 02450 51302 10280 20260 30037 40040 82570 333 59009 70000 82618 83362==
41989,2024,07,08,00,00,AAXX 08004 41989 01440 61802 10273 20260 30033 40036 70362 83570 333 59009 70010 83618 84460==
41989,2024,07,08,03,00,AAXX 08034 41989 02456 51403 10302 20260 30044 40047 83530 333 20268 59007 70010 83618 84362==
41989,2024,07,08,06,00,AAXX 08064 41989 02450 51803 10320 20260 30046 40049 83530 333 58002 70010 83618 83362==
41989,2024,07,08,09,00,AAXX 08094 41989 02456 51704 10312 20260 30030 40033 82570 333 58000 70010 82618 83362==
41989,2024,07,08,12,00,AAXX 08124 41989 02450 61803 10296 20260 30020 40023 83570 333 10330 58001 70010 83618 84460==
41989,2024,07,08,18,00,AAXX 08184 41989 NIL=
41989,2024,07,08,21,00,AAXX 08214 41989 02440 41704 10280 20260 30056 40060 82530 333 58019 70010 82618 83362==
41989,2024,07,09,00,00,AAXX 09004 41989 21440 51403 10275 20260 30055 40058 72162 84470 333 58022 60107 70100 83618 83362==
41989,2024,07,09,03,00,AAXX 09034 41989 02450 51804 10288 20250 30061 40065 83530 333 20265 58012 70100 83618 83362==
41989,2024,07,09,06,00,AAXX 09064 41989 02456 71304 10301 20260 30062 40066 83570 333 58016 70100 83618 85460==
41989,2024,07,09,09,00,AAXX 09094 41989 02450 61404 10310 20260 30055 40058 83530 333 58025 70100 83618 84362==
41989,2024,07,09,12,00,AAXX 09124 41989 02440 61803 10298 20250 30049 40052 83530 333 10328 70100 83618 83362==
41989,2024,07,09,15,00,AAXX 09154 41989 01340 81304 10277 20260 30053 40057 76222 8572/ 333 58009 70110 82710 83614 88456==
41989,2024,07,09,18,00,AAXX 09184 41989 NIL=
41989,2024,07,09,21,00,AAXX 09214 41989 01340 81703 10276 20270 30064 40067 76262 8572/ 333 58008 70610 82709 83614 88456==
41989,2024,07,10,00,00,AAXX 10004 41989 21440 61403 10265 20260 30058 40061 70162 83570 333 58003 60819 70820 83618 84460==
41989,2024,07,10,03,00,AAXX 10034 41989 01450 71305 10282 20260 30074 40077 70262 82570 333 20262 58013 70830 82618 85460==
41989,2024,07,10,06,00,AAXX 10064 41989 01450 51406 10300 20270 30078 40082 70162 83570 333 58016 70860 83618 84362==
41989,2024,07,10,09,00,AAXX 10094 41989 01450 61805 10279 20270 30054 40057 72122 83570 333 59001 70880 83618 84460==
41989,2024,07,10,12,00,AAXX 10124 41989 21450 51703 10287 20270 30042 40045 70162 82570 333 10316 59007 60025 70880 82618 83362==
41989,2024,07,10,15,00,AAXX 10154 41989 02440 51803 10275 20260 30066 40070 83530 333 58013 70870 83618 84362==
41989,2024,07,10,18,00,AAXX 10184 41989 NIL=
41989,2024,07,10,21,00,AAXX 10214 41989 01340 81404 10265 20260 30064 40064 76322 8572/ 333 58000 70520 82708 83614 88456==
41989,2024,07,11,00,00,AAXX 11004 41989 21420 81804 10260 20260 30058 40061 76362 8572/ 333 58000 60387 70440 82708 83614 88456==
41989,2024,07,11,03,00,AAXX 11034 41989 01430 81402 10255 20240 30062 40065 76366 8572/ 333 20251 59012 70840 82708 83614 88456==
41989,2024,07,11,06,00,AAXX 11064 41989 21330 81304 10266 20260 30046 40049 76162 8572/ 333 59032 60789 71180 82710 83614 88456==
41989,2024,07,11,09,00,AAXX 11094 41989 01430 61403 10285 20270 30034 40037 70162 83530 333 59020 71190 83618 83362==
41989,2024,07,11,12,00,AAXX 11124 41989 01330 81303 10265 20250 30018 40021 76162 8472/ 333 10290 59024 71230 83708 83614 88456==
41989,2024,07,11,15,00,AAXX 11154 41989 01440 71704 10262 20250 30027 40030 70162 83570 333 59039 71230 83618 84460==
41989,2024,07,11,18,00,AAXX 11184 41989 NIL=
41989,2024,07,11,21,00,AAXX 11214 41989 01440 61703 10263 20240 30029 40032 70162 82570 333 59035 71100 82618 84460==
41992,2024,07,05,00,00,AAXX 05004 41992 21320 80302 10250 20240 30052 40054 75166 8692/ 333 58008 60229 70290 82708 84614 88458 81925==
41992,2024,07,05,03,00,AAXX 05034 41992 01325 83205 10240 20230 30068 40070 76366 8692/ 333 20240 58005 70540 82708 84613 88458 81925==
41992,2024,07,05,06,00,AAXX 05064 41992 21325 80502 10250 20240 30056 40058 76366 8692/ 333 59001 60859 71090 82708 84613 88458 81925==
41992,2024,07,05,09,00,AAXX 05094 41992 01325 81802 10278 20270 30026 40028 75166 8432/ 333 59018 71190 82708 84614 88458 81925==
41992,2024,07,05,12,00,AAXX 05124 41992 21320 81802 10257 20250 30020 40022 76165 8592/ 333 10278 59024 60149 71210 83707 85613 88458 81925==
41992,2024,07,05,15,00,AAXX 05154 41992 01420 80000 10265 20260 30041 40043 76155 8592/ 333 58018 71230 88458 81925==
41992,2024,07,05,18,00,AAXX 05184 41992 21420 80000 10260 20250 30036 40038 76165 8592/ 333 58023 60049 71250 84614 88458 81925==
41992,2024,07,05,21,00,AAXX 05214 41992 01320 80902 10252 20250 30021 40023 75166 8692/ 333 59018 71200 82708 84614 88458 81925==
41992,2024,07,06,00,00,AAXX 06004 41992 21420 80902 10250 20250 30033 40035 75165 8592/ 333 59019 60179 70120 84615 88458 81925==
41992,2024,07,06,03,00,AAXX 06034 41992 01425 80000 10276 20260 30053 40057 70555 8432/ 333 20242 59015 70910 84615 88458 81925==
41992,2024,07,06,06,00,AAXX 06064 41992 11435 41703 10297 20260 30039 40041 60006 70552 82530 333 59017 70350 82616 84362==
41992,2024,07,06,09,00,AAXX 06094 41992 01430 51804 10302 20250 30023 40025 70522 84501 333 59003 70250 84616 85080==
41992,2024,07,06,12,00,AAXX 06124 41992 01430 61803 10290 20250 30022 40024 70522 84530 333 10305 58002 70210 84616 86460==
41992,2024,07,06,15,00,AAXX 06154 41992 01425 30000 10278 20260 30041 40043 70522 82530 333 58000 70190 82616 83362==
41992,2024,07,06,18,00,AAXX 06184 41992 01425 70000 10268 20250 30041 40043 70521 84530 333 58005 70170 84616 87360==
41992,2024,07,06,21,00,AAXX 06214 41992 01420 71502 10265 20250 30031 40033 70522 84530 333 58010 70010 84616 87460==
41992,2024,07,07,00,00,AAXX 07004 41992 41425 70902 10265 20250 30038 40040 70522 84530 333 58005 84616 87460==
41992,2024,07,07,03,00,AAXX 07034 41992 01435 50000 10305 20270 30051 40053 70521 82530 333 20262 58012 70000 82616 85362==
41992,2024,07,07,06,00,AAXX 07064 41992 01445 31509 10318 20270 30045 40047 70521 81530 333 58006 70000 81616 83362==
41992,2024,07,07,09,00,AAXX 07094 41992 01440 62105 10315 20270 30028 40030 70522 83530 333 58005 70000 83616 86362==
41992,2024,07,07,12,00,AAXX 07124 41992 01430 80000 10295 20270 30031 40033 70522 8352/ 333 10320 58009 70000 83616 88460==
41992,2024,07,07,15,00,AAXX 07154 41992 01425 31802 10287 20270 30043 40045 70522 82530 333 58020 70000 82616 83362==
41992,2024,07,07,18,00,AAXX 07184 41992 01425 70000 10277 20260 30050 40052 70521 84530 333 58009 70000 84616 87360==
41992,2024,07,07,21,00,AAXX 07214 41992 01420 80902 10272 20260 30036 40038 70522 8452/ 333 58005 70000 84615 88460==
41992,2024,07,08,00,00,AAXX 08004 41992 21425 70902 10270 20260 30044 40046 70562 84520 333 58006 60015 70010 84615 87460==
41992,2024,07,08,03,00,AAXX 08034 41992 01/35 60000 10303 20240 30049 40051 70522 86030 333 20268 59002 70010 86362==
41992,2024,07,08,06,00,AAXX 08064 41992 01435 50000 10317 20260 30043 40045 70522 82530 333 59002 70010 82616 85362==
41992,2024,07,08,09,00,AAXX 08094 41992 01430 52105 10315 20260 30030 40032 70522 84530 333 58002 70010 84616 85362==
41992,2024,07,08,12,00,AAXX 08124 41992 01430 51806 10300 20250 30032 40034 70522 83530 333 10322 58001 70010 82616 83616==
41992,2024,07,08,15,00,AAXX 08154 41992 01425 80000 10285 20270 30049 40051 70522 83520 333 58006 70010 83616 86460==
41992,2024,07,08,18,00,AAXX 08184 41992 01425 80000 10280 20260 30056 40058 70522 8432/ 333 58006 70010 83616 88460 81925==
41992,2024,07,08,21,00,AAXX 08214 41992 01420 80302 10268 20260 30046 40048 72162 8452/ 333 58010 70130 84615 88460==
41992,2024,07,09,00,00,AAXX 09004 41992 21425 70902 10265 20260 30056 40058 70562 84520 333 58012 60125 70120 84615 87460==
41992,2024,07,09,03,00,AAXX 09034 41992 01325 80000 10267 20260 30065 40067 76165 8692/ 333 20255 58016 70150 82708 84614 88458 81925==
41992,2024,07,09,06,00,AAXX 09064 41992 21/35 61507 10310 20260 30071 40073 70565 86030 333 58028 60038 70150 86362==
41992,2024,07,09,09,00,AAXX 09094 41992 01430 61507 10298 20250 30060 40062 75162 84520 333 58030 70160 84615 86460==
41992,2024,07,09,12,00,AAXX 09124 41992 11430 61806 10290 20250 30052 40054 60016 70565 84520 333 10313 58020 70160 84615 86460==
41992,2024,07,09,15,00,AAXX 09154 41992 01425 62102 10273 20250 30068 40070 70522 83530 333 58019 70160 83615 86360==
41992,2024,07,09,18,00,AAXX 09184 41992 01425 70000 10264 20240 30075 40077 70522 84530 333 58019 70160 84615 87360==
41992,2024,07,09,21,00,AAXX 09214 41992 01420 70602 10265 20250 30066 40068 70522 84530 333 58020 70040 84615 87460==
41992,2024,07,10,00,00,AAXX 10004 41992 01425 71505 10265 20250 30072 40074 70522 84520 333 58016 70040 84615 87460==
41992,2024,07,10,03,00,AAXX 10034 41992 01435 61806 10305 20270 30085 40087 70522 83530 333 20263 58020 70010 83616 86362==
41992,2024,07,10,06,00,AAXX 10064 41992 01425 80000 10288 20270 30077 40079 72122 8432/ 333 58012 70010 83615 88460 81925==
41992,2024,07,10,09,00,AAXX 10094 41992 01425 80000 10292 20250 30061 40063 70522 8432/ 333 58001 70010 83616 88460 81925==
41992,2024,07,10,12,00,AAXX 10124 41992 01430 70000 10288 20250 30053 40055 70522 83520 333 10312 58001 70010 83616 87460==
41992,2024,07,10,15,00,AAXX 10154 41992 01320 80000 10267 20260 30072 40074 76122 8532/ 333 58004 70030 83707 85613 88458 81925==
41992,2024,07,10,18,00,AAXX 10184 41992 21320 80000 10263 20250 30072 40074 76162 8532/ 333 59003 60047 70050 83707 85613 88458 81925==
41992,2024,07,10,21,00,AAXX 10214 41992 01420 80902 10260 20250 30046 40048 76166 8592/ 333 59020 70070 84615 88458 81925==
41992,2024,07,11,00,00,AAXX 11004 41992 21315 81505 10260 20260 30048 40050 79566 8692/ 333 59024 60879 70920 82708 84613 88456 81925==
41992,2024,07,11,03,00,AAXX 11034 41992 01315 81803 10267 20260 30065 40067 76366 8692/ 333 20252 59020 71860 83707 84613 88458 81925==
41992,2024,07,11,06,00,AAXX 11064 41992 21320 81703 10270 20260 30053 40055 76166 8692/ 333 59024 61159 72060 83708 84614 88458 81925==
41992,2024,07,11,09,00,AAXX 11094 41992 01315 81503 10265 20260 30024 40026 76366 8692/ 333 59037 72490 82708 84613 88456 81925==
41992,2024,07,11,12,00,AAXX 11124 41992 21315 80303 10250 20250 30026 40028 76566 8692/ 333 10274 59027 61289 70334 82708 84613 88456 81925==
41992,2024,07,11,15,00,AAXX 11154 41992 01310 80000 10250 20250 30043 40045 76566 8692/ 333 59029 73620 83707 85612 88458 81925==
41992,2024,07,11,18,00,AAXX 11184 41992 21310 80000 10252 20250 30036 40038 76366 8692/ 333 59036 60549 73840 83707 85612 88458 81925==
41992,2024,07,11,21,00,AAXX 11214 41992 01310 81502 10255 20250 30026 40028 76166 8692/ 333 59020 73840 82708 84613 88456 81925==
41998,2024,07,05,00,00,AAXX 05004 41998 21456 80000 10242 20240 30066 40072 76166 8442/ 333 58021 60229 70340 83616 88456==
41998,2024,07,05,03,00,AAXX 05034 41998 01456 80000 10273 20240 30053 40059 76166 8442/ 333 20237 58005 73616 88456==
41998,2024,07,05,06,00,AAXX 05064 41998 NIL=
41998,2024,07,05,09,00,AAXX 05094 41998 02456 81601 10284 20250 30023 40029 8442/ 333 59015 70500 83618 88458==
41998,2024,07,05,12,00,AAXX 05124 41998 02456 80000 10282 20260 30019 40025 8442/ 333 10294 59022 70470 83618 88458==
41998,2024,07,05,18,00,AAXX 05184 41998 NIL=
41998,2024,07,06,00,00,AAXX 06004 41998 NIL=
41998,2024,07,06,03,00,AAXX 06034 41998 02456 80000 10278 20250 30042 40048 8442/ 333 20253 59008 70200 83618 88458==
41998,2024,07,06,06,00,AAXX 06064 41998 21456 80000 10280 20260 30036 40042 76162 8442/ 333 58006 60039 70210 83618 88458==
41998,2024,07,06,09,00,AAXX 06094 41998 02456 62002 10312 20260 30017 40023 83470 333 59006 70210 82618 84458==
41998,2024,07,07,00,00,AAXX 07004 41998 02456 80000 10265 20260 30039 40045 8442/ 333 59003 70030 83618 88458==
41998,2024,07,07,03,00,AAXX 07034 41998 02456 80000 10280 20260 30041 40047 8442/ 333 20258 59006 70030 82618 88458==
41998,2024,07,07,06,00,AAXX 07064 41998 NIL=
41998,2024,07,07,09,00,AAXX 07094 41998 02456 61702 10322 20260 30020 40026 83470 333 58003 70000 82618 84458==
41998,2024,07,07,12,00,AAXX 07124 41998 02456 60000 10284 20250 30025 40031 83470 333 10334 58002 70000 82618 83458==
41998,2024,07,07,18,00,AAXX 07184 41998 02456 80000 10275 20260 30043 40049 8442/ 333 58008 70000 83618 88458==
41998,2024,07,08,00,00,AAXX 08004 41998 02456 60000 10268 20260 30052 40058 83470 333 58013 70000 82618 83458==
41998,2024,07,08,03,00,AAXX 08034 41998 02456 80000 10290 20260 30041 40047 83470 333 20260 58000 70000 82618 83458==
41998,2024,07,08,06,00,AAXX 08064 41998 NIL=
41998,2024,07,08,09,00,AAXX 08094 41998 02456 61902 10306 20260 30015 40021 83470 333 59005 70000 82618 83458==
41998,2024,07,08,12,00,AAXX 08124 41998 02456 60000 10283 20260 30021 40027 83470 333 10312 59004 70000 82618 84458==
41998,2024,07,08,18,00,AAXX 08184 41998 NIL=
41998,2024,07,09,00,00,AAXX 09004 41998 NIL=
41998,2024,07,09,03,00,AAXX 09034 41998 01456 80000 10270 20250 30055 40061 76162 8442/ 333 20258 58014 70050 83616 88456==
41998,2024,07,09,09,00,AAXX 09094 41998 02456 82201 10290 20260 30051 40057 8442/ 333 58036 70070 83618 88458==
41998,2024,07,09,12,00,AAXX 09124 41998 32456 80000 10272 20250 30053 40059 8442/ 333 56999 58032 70070 83618 88458=
41998,2024,07,09,15,00,AAXX 09154 41998 02456 80000 10272 20250 30053 40059 8442/ 333 58032 70070 83618 88458==
41998,2024,07,09,18,00,AAXX 09184 41998 NIL=
41998,2024,07,10,00,00,AAXX 10004 41998 21456 80000 10260 20250 30080 40086 72166 8442/ 333 58017 60077 70140 83617 88457==
41998,2024,07,10,03,00,AAXX 10034 41998 02456 60000 10292 20260 30066 40072 83470 333 20253 58007 70090 82618 83458==
41998,2024,07,10,06,00,AAXX 10064 41998 21456 80000 10308 20260 30066 40072 72162 8442/ 333 58022 60035 70100 83618 88458==
41998,2024,07,10,09,00,AAXX 10094 41998 02456 81702 10302 20260 30045 40051 8442/ 333 59006 70100 83618 88458==
41998,2024,07,10,12,00,AAXX 10124 41998 02456 80000 10287 20260 30048 40054 8442/ 333 10308 59005 70100 83618 88458==
41998,2024,07,10,18,00,AAXX 10184 41998 NIL=
41998,2024,07,11,03,00,AAXX 11034 41998 01456 80000 10278 20250 30066 40072 76166 8442/ 333 20255 59024 70270 83616 88456==
41998,2024,07,11,06,00,AAXX 11064 41998 21456 80000 10273 20250 30037 40043 76166 8442/ 333 59040 60169 70360 83616 88456==
41998,2024,07,11,09,00,AAXX 11094 41998 01456 81602 10277 20260 30031 40037 70262 8442/ 333 59014 70420 83618 88458==
41998,2024,07,11,12,00,AAXX 11124 41998 11456 80000 10274 20250 30033 40039 60066 70262 8442/ 333 10286 59015 70420 83618 88458==
41998,2024,07,11,18,00,AAXX 11184 41998 NIL=
