ESTACION,ANO,MES,DIA,HORA,MINUTO,PARTE
41850,2024,11,15,00,00,AAXX 15004 41850 31930 00000 10165 20160 30027 40129 70500 333 59004 70000=
41850,2024,11,15,03,00,AAXX 15034 41850 31940 00000 10216 20200 30049 40149 70500 333 20162 59009 70000=
41850,2024,11,15,06,00,AAXX 15064 41850 31950 00000 10275 20190 30035 40133 70500 333 59005 70000=
41850,2024,11,15,09,00,AAXX 15094 41850 32956 00000 10293 20260 30005 40103 333 59007 70000=
41850,2024,11,15,12,00,AAXX 15124 41850 31930 00000 10232 20210 30007 40107 70500 333 10295 59007 70000=
41850,2024,11,15,15,00,AAXX 15154 41850 31930 00000 10215 20210 30021 40121 70500 333 59009 70000=
41850,2024,11,15,21,00,AAXX 15214 41850 31930 00000 10192 20180 30018 40119 70500 333 59012 70000=
41850,2024,11,16,00,00,AAXX 16004 41850 31915 00000 10174 20170 30022 40124 71000 333 59005 70000=
41850,2024,11,16,03,00,AAXX 16034 41850 31930 00000 10207 20200 30041 40142 70500 333 20170 59008 70000=
41850,2024,11,16,06,00,AAXX 16064 41850 32950 00000 10260 20190 30029 40128 333 59006 70000=
41850,2024,11,16,09,00,AAXX 16094 41850 32950 02302 10278 20200 30000 40099 333 59005 70000=
41850,2024,11,16,12,00,AAXX 16124 41850 31930 00000 10227 20210 30002 40102 70500 333 10282 59005 70000=
41850,2024,11,16,15,00,AAXX 16154 41850 31920 00000 10198 20190 30017 40118 71000 333 59004 70000=
41850,2024,11,16,18,00,AAXX 16184 41850 NIL=
41850,2024,11,17,00,00,AAXX 17004 41850 31/08 90000 10161 20160 30019 40122 74544 89/// 333 56999 59003 70000=
41850,2024,11,17,03,00,AAXX 17034 41850 31930 00000 10208 20190 30040 40141 70544 333 20156 59001 70000=
41850,2024,11,17,06,00,AAXX 17064 41850 32450 20000 10276 20190 30034 40132 82500 333 56900 58005 70000 82618=
41850,2024,11,17,09,00,AAXX 17094 41850 32456 22003 10286 20170 30003 40101 82500 333 56200 58003 70000 82618=
41850,2024,11,17,12,00,AAXX 17124 41850 31430 20000 10220 20200 30008 40108 70511 82500 333 10288 56900 58006 70000 82618=
41850,2024,11,17,15,00,AAXX 17154 41850 31920 00000 10198 20190 30025 40126 71000 333 58008 70000=
41850,2024,11,17,18,00,AAXX 17184 41850 NIL=
41850,2024,11,17,21,00,AAXX 17214 41850 31920 00000 10174 20160 30029 40131 71000 333 58012 70000=
41850,2024,11,18,00,00,AAXX 18004 41850 31920 00000 10165 20165 30035 40137 71000 333 58016 70000=
41850,2024,11,18,03,00,AAXX 18034 41850 31925 03202 10205 20200 30040 40141 71000 333 20160 58000 70000=
41850,2024,11,18,06,00,AAXX 18064 41850 32950 00000 10280 20180 30049 40148 333 58015 70000=
41850,2024,11,18,09,00,AAXX 18094 41850 32456 20000 10292 20150 30018 40116 82500 333 56900 58015 70000 82618=
41850,2024,11,18,12,00,AAXX 18124 41850 31930 00000 10228 20200 30018 40118 70500 333 10298 58010 70000=
41850,2024,11,18,15,00,AAXX 18154 41850 31920 00000 10198 20190 30033 40134 71000 333 58008 70000=
41850,2024,11,18,21,00,AAXX 18214 41850 31915 00000 10168 20160 30040 40142 71000 333 58011 70000=
41850,2024,11,19,00,00,AAXX 19004 41850 31915 00000 10156 20156 30043 40146 71000 333 58008 70000=
41850,2024,11,19,03,00,AAXX 19034 41850 31935 00000 10232 20170 30070 40170 70500 333 20155 58030 70000=
41850,2024,11,19,06,00,AAXX 19064 41850 32956 00000 10283 20170 30068 40166 333 58019 70000=
41850,2024,11,19,09,00,AAXX 19094 41850 32456 00000 10294 20130 30024 40122 333 58009 70000=
41850,2024,11,19,12,00,AAXX 19124 41850 31950 00000 10212 20190 30025 40126 70510 333 10304 58007 70000=
41850,2024,11,19,18,00,AAXX 19184 41850 31940 00000 10181 20170 30045 40147 70500 333 58009 70000=
41850,2024,11,19,21,00,AAXX 19214 41850 31935 00000 10167 20167 30043 40145 70500 333 58003 70000=
41850,2024,11,20,00,00,AAXX 20004 41850 31940 00000 10154 20150 30041 40144 70500 333 59002 70000=
41850,2024,11,20,03,00,AAXX 20034 41850 31950 00000 10245 20170 30063 40162 70500 333 20150 59007 70000=
41850,2024,11,20,06,00,AAXX 20064 41850 32957 00000 10289 20130 30038 40136 333 59030 70000=
41850,2024,11,20,09,00,AAXX 20094 41850 32957 00000 10298 20130 30012 40109 333 59012 70000=
41850,2024,11,20,12,00,AAXX 20124 41850 31950 00000 10215 20180 30016 40116 70500 333 10299 59009 70000=
41850,2024,11,20,15,00,AAXX 20154 41850 31945 00000 10172 20160 30033 40135 70500 333 59006 70000=
41850,2024,11,20,18,00,AAXX 20184 41850 NIL=
41850,2024,11,20,21,00,AAXX 20214 41850 31935 00000 10154 20140 30031 40134 70500 333 59012 70000=
41850,2024,11,21,00,00,AAXX 21004 41850 31940 00000 10142 20140 30029 40132 70500 333 59012 70000=
41850,2024,11,21,03,00,AAXX 21034 41850 31950 00000 10234 20150 30051 40151 70500 333 20140 59012 70000=
41850,2024,11,21,06,00,AAXX 21064 41850 32957 00000 10296 20130 30028 40126 333 59010 70000=
41850,2024,11,21,09,00,AAXX 21094 41850 32957 00000 10295 20130 30008 40105 333 59004 70000=
41850,2024,11,21,12,00,AAXX 21124 41850 31950 00000 10211 20190 30015 40115 70500 333 10303 59001 70000=
41850,2024,11,21,15,00,AAXX 21154 41850 31945 00000 10180 20170 30033 40135 70500 333 58000 70000=
41850,2024,11,21,18,00,AAXX 21184 41850 NIL=
41851,2024,11,15,00,00,AAXX 15004 41851 31910 00000 10180 20180 30064 40129 71000 333 59008 70000=
41851,2024,11,15,03,00,AAXX 15034 41851 31930 00000 10217 20210 30085 40149 70500 333 20180 59007 70000=
41851,2024,11,15,06,00,AAXX 15064 41851 31440 30000 10285 20190 30064 40126 70510 83500 333 56900 59013 70000 83618=
41851,2024,11,15,09,00,AAXX 15094 41851 31440 30000 10305 20180 30042 40104 70511 83500 333 56900 59007 70000 83618=
41851,2024,11,15,12,00,AAXX 15124 41851 31940 00000 10250 20210 30044 40107 70511 333 10306 59007 70000=
41851,2024,11,15,15,00,AAXX 15154 41851 31940 00000 10220 20200 30058 40122 70500 333 59011 70000=
41851,2024,11,15,18,00,AAXX 15184 41851 31940 00000 10205 20200 30056 40120 70500 333 59011 70000=
41851,2024,11,15,21,00,AAXX 15214 41851 31/05 90000 10200 20190 30056 40120 74540 89/// 333 56999 59009 70000=
41851,2024,11,16,00,00,AAXX 16004 41851 31/03 90000 10192 20190 30057 40122 74544 89/// 333 56999 59007 70000=
41851,2024,11,16,03,00,AAXX 16034 41851 31/05 90000 10200 20190 30080 40145 74344 89/// 333 20190 56999 59005 70000=
41851,2024,11,16,06,00,AAXX 16064 41851 31930 00000 10245 20210 30068 40131 70540 333 58004 70000=
41851,2024,11,16,09,00,AAXX 16094 41851 31940 00000 10277 20210 30037 40100 70500 333 59005 70000=
41851,2024,11,16,12,00,AAXX 16124 41851 31940 00000 10240 20210 30038 40102 70500 333 10280 59006 70000=
41851,2024,11,16,15,00,AAXX 16154 41851 31940 00000 10202 20190 30057 40121 70500 333 59001 70000=
41851,2024,11,16,18,00,AAXX 16184 41851 31940 00000 10185 20180 30056 40121 70500 333 58000 70000=
41851,2024,11,17,00,00,AAXX 17004 41851 31910 00000 10165 20160 30055 40120 71000 333 59002 70000=
41851,2024,11,17,03,00,AAXX 17034 41851 31930 50000 10210 20190 30080 40145 70500 83510 333 20165 56990 58000 70000 83618 84459=
41851,2024,11,17,06,00,AAXX 17064 41851 31220 20000 10280 20190 30065 40127 70522 82400 333 56900 59003 70000 81618=
41851,2024,11,17,09,00,AAXX 17094 41851 31445 20000 10295 20170 30040 40102 70511 82400 333 56900 58003 70000 81618=
41851,2024,11,17,12,00,AAXX 17124 41851 31940 00000 10240 20210 30042 40106 70510 333 10295 58004 70000=
41851,2024,11,17,15,00,AAXX 17154 41851 31940 00000 10205 20200 30063 40127 70500 333 58006 70000=
41851,2024,11,17,18,00,AAXX 17184 41851 31930 00000 10195 20190 30064 40128 70500 333 58008 70000=
41851,2024,11,17,21,00,AAXX 17214 41851 31930 00000 10184 20170 30066 40131 70500 333 58010 70000=
41851,2024,11,18,00,00,AAXX 18004 41851 31910 00000 10172 20170 30069 40134 71000 333 58014 70000=
41851,2024,11,18,03,00,AAXX 18034 41851 31940 00901 10220 20190 30094 40158 70500 333 10172 58014 70000=
41851,2024,11,18,06,00,AAXX 18064 41851 31945 00902 10282 20170 30080 40143 70500 333 58015 70000=
41851,2024,11,18,09,00,AAXX 18094 41851 32450 30000 10292 20160 30054 40117 81530 333 56990 58014 70000 81618=
41851,2024,11,18,12,00,AAXX 18124 41851 31940 00000 10247 20210 30053 40116 70510 333 10298 58011 70000=
41851,2024,11,18,15,00,AAXX 18154 41851 31940 00000 10207 20190 30073 40137 70500 333 58010 70000=
41851,2024,11,18,18,00,AAXX 18184 41851 31940 00000 10196 20190 30073 40140 70500 333 58011 70000=
41851,2024,11,18,21,00,AAXX 18214 41851 31920 00000 10190 20180 30075 40140 71000 333 58009 70000=
41851,2024,11,19,00,00,AAXX 19004 41851 31904 00000 10179 20170 30079 40144 74240 333 58010 70000=
41851,2024,11,19,03,00,AAXX 19034 41851 31930 00901 10234 20180 30107 40171 70540 333 20176 58013 70000=
41851,2024,11,19,06,00,AAXX 19064 41851 31940 20902 10288 20170 30090 40153 70540 82030 333 56090 58010 70000 82362=
41851,2024,11,19,09,00,AAXX 19094 41851 31450 41202 10295 20160 30062 40124 82430 333 56990 58008 70000 81618 83362=
41851,2024,11,19,12,00,AAXX 19124 41851 31930 00000 10238 20190 30057 40121 70510 333 10305 58004 70000=
41851,2024,11,19,15,00,AAXX 19154 41851 31930 00000 10202 20180 30075 40140 70500 333 58002 70000=
41851,2024,11,19,18,00,AAXX 19184 41851 31930 00000 10195 20190 30078 40143 70500 333 59003 70000=
41851,2024,11,19,21,00,AAXX 19214 41851 31930 00000 10180 20170 30068 40133 70500 333 59007 70000=
41851,2024,11,20,00,00,AAXX 20004 41851 31930 00000 10173 20160 30073 40138 70500 333 59006 70000=
41851,2024,11,20,03,00,AAXX 20034 41851 31935 00702 10239 20160 30097 40161 70500 333 20173 59010 70000=
41851,2024,11,20,06,00,AAXX 20064 41851 32950 00902 10282 20130 30079 40142 333 59011 70000=
41851,2024,11,20,09,00,AAXX 20094 41851 32450 30901 10295 20150 30048 40110 83400 333 56900 59014 70000 82618=
41851,2024,11,20,12,00,AAXX 20124 41851 31940 00000 10240 20190 30047 40111 70510 333 10300 59010 70000=
41851,2024,11,20,15,00,AAXX 20154 41851 31940 00000 10200 20180 30068 40132 70500 333 59007 70000=
41851,2024,11,20,18,00,AAXX 20184 41851 31930 00000 10190 20180 30070 40133 70500 333 59008 70000=
41851,2024,11,20,21,00,AAXX 20214 41851 31930 00000 10175 20170 30065 40129 70500 333 59003 70000=
41851,2024,11,21,00,00,AAXX 21004 41851 31930 00000 10168 20160 30063 40128 70500 333 59007 70000=
41851,2024,11,21,03,00,AAXX 21034 41851 31950 00902 10238 20170 30088 40152 70500 333 20168 59009 70000=
41851,2024,11,21,06,00,AAXX 21064 41851 31950 00901 10287 20130 30070 40133 333 59009 70000=
41851,2024,11,21,09,00,AAXX 21094 41851 31950 00902 10292 20130 30043 40106 333 59005 70000=
41851,2024,11,21,12,00,AAXX 21124 41851 31950 00000 10230 20170 30049 40113 70500 333 10307 58002 70000=
41851,2024,11,21,15,00,AAXX 21154 41851 31930 00000 10200 20180 30069 40133 70500 333 58001 70000=
41851,2024,11,21,18,00,AAXX 21184 41851 31930 00000 10185 20180 30068 40133 70500 333 59002 70000=
41856,2024,11,15,00,00,AAXX 15004 41856 31920 00000 10184 20170 30090 40127 71000 333 59007 70000=
41856,2024,11,15,03,00,AAXX 15034 41856 31940 00000 10237 20220 30110 40146 70500 333 20184 59008 70000=
41856,2024,11,15,06,00,AAXX 15064 41856 32956 30000 10290 20220 30092 40127 83030 333 56090 59008 70000 83362=
41856,2024,11,15,09,00,AAXX 15094 41856 32956 30902 10295 20200 30067 40102 83030 333 56090 59006 70000 83362=
41856,2024,11,15,12,00,AAXX 15124 41856 32930 20000 10240 20220 30070 40106 82030 333 10305 56090 59006 70000 82362=
41856,2024,11,15,15,00,AAXX 15154 41856 31930 00000 10214 20200 30085 40121 70500 333 59010 70000=
41856,2024,11,15,18,00,AAXX 15184 41856 31920 00000 10200 20190 30081 40118 71000 333 59018 70000=
41856,2024,11,15,21,00,AAXX 15214 41856 31920 00000 10194 20180 30081 40118 71000 333 59012 70000=
41856,2024,11,16,00,00,AAXX 16004 41856 31915 00501 10192 20190 30080 40117 71000 333 59010 70000=
41856,2024,11,16,03,00,AAXX 16034 41856 31920 00000 10205 20205 30105 40141 71000 333 20184 59005 70000=
41856,2024,11,16,06,00,AAXX 16064 41856 31940 00000 10256 20210 30092 40128 70500 333 58000 70000=
41856,2024,11,16,09,00,AAXX 16094 41856 32950 10000 10292 20190 30062 40097 81030 333 56090 59005 70000 81362=
41856,2024,11,16,12,00,AAXX 16124 41856 31930 00000 10230 20220 30065 40101 70500 333 10296 59005 70000=
41856,2024,11,16,15,00,AAXX 16154 41856 31930 00000 10210 20200 30083 40119 70500 333 59002 70000=
41856,2024,11,16,18,00,AAXX 16184 41856 31930 00000 10188 20188 30081 40118 70500 333 58000 70000=
41856,2024,11,17,00,00,AAXX 17004 41856 31915 00000 10170 20170 30081 40118 71000 333 58001 70000=
41856,2024,11,17,03,00,AAXX 17034 41856 31940 00501 10224 20200 30105 40141 70500 333 20168 58000 70000=
41856,2024,11,17,06,00,AAXX 17064 41856 32950 10502 10282 20180 30091 40127 81030 333 56090 59001 70000 81362=
41856,2024,11,17,09,00,AAXX 17094 41856 32450 31301 10288 20190 30066 40101 83430 333 56990 58004 70000 82618 82362=
41856,2024,11,17,12,00,AAXX 17124 41856 31940 00000 10235 20220 30069 40105 70500 333 10290 58004 70000=
41856,2024,11,17,15,00,AAXX 17154 41856 31930 00000 10206 20200 30089 40125 70500 333 58006 70000=
41856,2024,11,17,18,00,AAXX 17184 41856 31920 00901 10190 20180 30092 40129 71000 333 58011 70000=
41856,2024,11,17,21,00,AAXX 17214 41856 31910 00000 10184 20170 30095 40132 71000 333 58014 70000=
41856,2024,11,18,00,00,AAXX 18004 41856 31920 00000 10178 20178 30093 40130 71000 333 58012 70000=
41856,2024,11,18,03,00,AAXX 18034 41856 31930 00000 10223 20200 30119 40155 70500 333 20175 58014 70000=
41856,2024,11,18,06,00,AAXX 18064 41856 32450 10402 10283 20190 30103 40139 81100 333 56900 58012 70000=
41856,2024,11,18,09,00,AAXX 18094 41856 32450 10000 10287 20180 30078 40113 81500 333 56900 58012 70000 81618=
41856,2024,11,18,12,00,AAXX 18124 41856 31940 00000 10235 20220 30081 40117 70500 333 10297 58012 70000=
41856,2024,11,18,15,00,AAXX 18154 41856 31930 00000 10205 20200 30100 40136 70500 333 58011 70000=
41856,2024,11,18,18,00,AAXX 18184 41856 32920 00000 10195 20190 30107 40144 70500 333 58015 70000=
41856,2024,11,18,21,00,AAXX 18214 41856 31920 00000 10186 20180 30106 40143 70500 333 58011 70000=
41856,2024,11,19,00,00,AAXX 19004 41856 31925 00000 10177 20177 30105 40142 70500 333 58012 70000=
41856,2024,11,19,03,00,AAXX 19034 41856 32950 00602 10238 20190 30129 40165 333 20175 58010 70000=
41856,2024,11,19,06,00,AAXX 19064 41856 32956 00502 10277 20170 30113 40149 333 58010 70000=
41856,2024,11,19,09,00,AAXX 19094 41856 32950 00902 10287 20140 30085 40120 333 58007 70000=
41856,2024,11,19,12,00,AAXX 19124 41856 31930 20000 10227 20200 30083 40119 70511 82030 333 10295 56090 58002 70000 82362=
41856,2024,11,19,15,00,AAXX 19154 41856 31930 20000 10193 20180 30099 40136 70511 82030 333 56090 59001 70000 82362=
41856,2024,11,19,18,00,AAXX 19184 41856 31930 20000 10187 20180 30103 40140 70511 82030 333 56090 59004 70000 82362=
41856,2024,11,19,21,00,AAXX 19214 41856 31930 20000 10180 20170 30100 40137 70511 82030 333 56090 59006 70000 82362=
41856,2024,11,20,00,00,AAXX 20004 41856 31930 20901 10176 20170 30097 40134 70511 82030 333 56090 58008 70000 82362=
41856,2024,11,20,03,00,AAXX 20034 41856 32950 00902 10230 20170 30123 40159 333 20176 59006 70000=
41856,2024,11,20,06,00,AAXX 20064 41856 32950 00902 10270 20170 30104 40140 333 59009 70000=
41856,2024,11,20,09,00,AAXX 20094 41856 32950 20000 10285 20170 30075 40110 82030 333 56090 59010 70000 82362=
41856,2024,11,20,12,00,AAXX 20124 41856 31930 20000 10224 20210 30077 40113 70511 82030 333 10295 56090 59006 70000 82362=
41856,2024,11,20,15,00,AAXX 20154 41856 31930 20000 10197 20190 30089 40126 70511 82030 333 56090 59010 70000 82362=
41856,2024,11,20,18,00,AAXX 20184 41856 31930 20000 10188 20180 30093 40130 70511 82030 333 56090 59010 70000 82362=
41856,2024,11,20,21,00,AAXX 20214 41856 31930 20901 10183 20170 30091 40128 70511 82030 333 56090 59009 70000 82362=
41856,2024,11,21,00,00,AAXX 21004 41856 31930 20901 10166 20160 30088 40125 70511 82030 333 56090 59009 70000 82362=
41856,2024,11,21,03,00,AAXX 21034 41856 32950 20902 10234 20150 30111 40147 82030 333 20166 56090 59012 70000 82362=
41856,2024,11,21,06,00,AAXX 21064 41856 32950 00902 10270 20170 30098 40134 333 59006 70000=
41856,2024,11,21,09,00,AAXX 21094 41856 32950 00901 10290 20160 30070 40105 333 59005 70000=
41856,2024,11,21,12,00,AAXX 21124 41856 32930 00000 10228 20210 30075 40111 333 10295 59002 70000=
41856,2024,11,21,15,00,AAXX 21154 41856 31930 00000 10198 20190 30094 40131 70500 333 58005 70000=
41856,2024,11,21,18,00,AAXX 21184 41856 31930 20000 10188 20180 30094 40131 70510 82030 333 56090 58001 70000 82362=
41858,2024,11,15,00,00,AAXX 15004 41858 01900 00000 10198 20190 30088 40134 74540 89/// 333 59003 70000==
41858,2024,11,15,03,00,AAXX 15034 41858 01903 00000 10230 20210 30104 40150 74444 333 20185 59007 70000==
41858,2024,11,15,06,00,AAXX 15064 41858 01920 00000 10290 20200 30086 40132 71040 333 59008 70000==
41858,2024,11,15,09,00,AAXX 15094 41858 01935 00000 10305 20200 30061 40106 70500 333 59006 70000==
41858,2024,11,15,12,00,AAXX 15124 41858 01420 42702 10260 20220 30064 40110 71000 83520 333 10310 59005 70000 83618 84458==
41858,2024,11,15,15,00,AAXX 15154 41858 01418 40000 10245 20230 30078 40124 71022 83520 333 59009 70000 83615 84458==
41858,2024,11,15,18,00,AAXX 15184 41858 01415 40000 10232 20220 30082 40128 71022 83520 333 59013 70000 83615 84458==
41858,2024,11,15,21,00,AAXX 15214 41858 01910 00000 10210 20190 30071 40117 71020 333 59010 70000==
41858,2024,11,16,00,00,AAXX 16004 41858 01900 00000 10198 20190 30075 40121 74540 89/// 333 59013 70000==
41858,2024,11,16,03,00,AAXX 16034 41858 01404 60000 10204 20190 30096 40143 74444 83520 333 20178 59008 70000 83615 86458==
41858,2024,11,16,06,00,AAXX 16064 41858 01922 02704 10280 20180 30088 40134 71040 333 58002 70000==
41858,2024,11,16,09,00,AAXX 16094 41858 01935 02405 10292 20200 30057 40103 70500 333 59004 70000==
41858,2024,11,16,12,00,AAXX 16124 41858 01/25 22405 10235 20200 30056 40102 71000 82040 333 10294 59008 70000 82362==
41858,2024,11,16,15,00,AAXX 16154 41858 01920 00000 10204 20180 30077 40123 71000 333 59001 70000==
41858,2024,11,16,18,00,AAXX 16184 41858 NIL=
41858,2024,11,17,00,00,AAXX 17004 41858 01902 00000 10164 20150 30074 40121 74440 333 59001 70000==
41858,2024,11,17,03,00,AAXX 17034 41858 01912 00000 10214 20190 30097 40143 72844 333 20155 58001 70000==
41858,2024,11,17,06,00,AAXX 17064 41858 01425 40000 10284 20160 30081 40127 71040 84500 333 59007 70000 84618==
41858,2024,11,17,09,00,AAXX 17094 41858 01935 00000 10302 20170 30057 40102 70500 333 58000 70000==
41858,2024,11,17,12,00,AAXX 17124 41858 01935 00000 10255 20210 30060 40106 70500 333 10304 58004 70000==
41858,2024,11,17,15,00,AAXX 17154 41858 01930 00000 10242 20200 30081 40128 70500 333 58004 70000==
41858,2024,11,17,18,00,AAXX 17184 41858 01925 00000 10224 20200 30092 40138 71000 333 58011 70000==
41858,2024,11,17,21,00,AAXX 17214 41858 01915 00000 10194 20180 30086 40133 71000 333 58017 70000==
41858,2024,11,18,00,00,AAXX 18004 41858 01906 00000 10180 20170 30089 40136 74440 333 58015 70000==
41858,2024,11,18,03,00,AAXX 18034 41858 01918 00000 10224 20190 30109 40155 71040 333 20170 59012 70000==
41858,2024,11,18,06,00,AAXX 18064 41858 01440 40000 10294 20200 30099 40145 70540 84500 333 58018 70000 84618==
41858,2024,11,18,09,00,AAXX 18094 41858 01550 30000 10290 20190 30072 40117 70510 333 58015 70000 83825==
41858,2024,11,18,12,00,AAXX 18124 41858 01940 00000 10242 20200 30074 40120 70510 333 10296 58014 70000==
41858,2024,11,18,15,00,AAXX 18154 41858 01930 00000 10220 20210 30091 40137 70500 333 58008 70000==
41858,2024,11,18,18,00,AAXX 18184 41858 01930 00000 10210 20200 30098 40144 70500 333 58006 70000==
41858,2024,11,18,21,00,AAXX 18214 41858 01920 00000 10202 20190 30097 40144 71000 333 58011 70000==
41858,2024,11,19,00,00,AAXX 19004 41858 01/12 30000 10195 20190 30099 40146 71010 83030 333 58010 70000 83362==
41858,2024,11,19,03,00,AAXX 19034 41858 01940 00000 10235 20180 30122 40168 70500 333 20185 58013 70000==
41858,2024,11,19,06,00,AAXX 19064 41858 01450 40505 10304 20190 30107 40152 70520 84500 333 58008 70000 84618==
41858,2024,11,19,09,00,AAXX 19094 41858 01950 40000 10295 20230 30078 40123 70522 83520 333 58006 70000 83616 84458==
41858,2024,11,19,12,00,AAXX 19124 41858 01940 00000 10244 20200 30077 40123 70520 333 10305 58003 70000==
41858,2024,11,19,15,00,AAXX 19154 41858 01940 00000 10224 20200 30093 40139 70500 333 58002 70000==
41858,2024,11,19,18,00,AAXX 19184 41858 01930 00000 10214 20190 30100 40146 70500 333 58002 70000==
41858,2024,11,19,21,00,AAXX 19214 41858 01930 00000 10198 20180 30089 40135 70500 333 59008 70000==
41858,2024,11,20,00,00,AAXX 20004 41858 01/20 20505 10190 20170 30093 40140 71000 82030 333 59006 70000 82362==
41858,2024,11,20,03,00,AAXX 20034 41858 01950 00605 10250 20160 30113 40159 70500 333 20180 59009 70000==
41858,2024,11,20,06,00,AAXX 20064 41858 01950 00906 10286 20170 30097 40143 70500 333 59010 70000==
41858,2024,11,20,09,00,AAXX 20094 41858 01550 30904 10300 20160 30067 40112 70511 83200 333 59011 70000 83525==
41858,2024,11,20,12,00,AAXX 20124 41858 01/40 20000 10244 20180 30069 40115 70511 82030 333 10304 59008 70000 82362==
41858,2024,11,20,15,00,AAXX 20154 41858 01940 00000 10225 20200 30082 40128 70500 333 59011 70000==
41858,2024,11,20,18,00,AAXX 20184 41858 01935 00000 10215 20190 30090 40136 70500 333 59010 70000==
41858,2024,11,20,21,00,AAXX 20214 41858 31425 40000 10192 20170 30081 40128 71020 83520 333 59008 70000 83616 84458=
41858,2024,11,21,00,00,AAXX 21004 41858 01420 60000 10186 20170 30084 40131 71022 83520 333 59009 70000 83616 86458==
41858,2024,11,21,03,00,AAXX 21034 41858 01540 40000 10230 20160 30106 40152 70522 82140 333 20174 59007 70000 82825 84362==
41858,2024,11,21,06,00,AAXX 21064 41858 01550 20908 10285 20150 30090 40136 70520 82100 333 59007 70000 82825==
41858,2024,11,21,09,00,AAXX 21094 41858 01550 20304 10300 20160 30063 40108 70500 82100 333 59004 70000 82825==
41858,2024,11,21,12,00,AAXX 21124 41858 01950 00000 10248 20190 30066 40112 70500 333 10305 59003 70000==
41858,2024,11,21,15,00,AAXX 21154 41858 01940 00000 10215 20190 30086 40132 70500 333 58004 70000==
41858,2024,11,21,18,00,AAXX 21184 41858 01935 00000 10205 20180 30097 40143 70500 333 58007 70000==
41858,2024,11,21,21,00,AAXX 21214 41858 01425 40000 10192 20170 30081 40128 71020 83520 333 59008 70000 83616 84458==
41859,2024,11,15,00,00,AAXX 15004 41859 01920 00000 10205 20190 30091 40129 70500 333 59005 70000==
41859,2024,11,15,03,00,AAXX 15034 41859 02950 00000 10240 20210 30110 40148 333 20198 59008 70000==
41859,2024,11,15,06,00,AAXX 15064 41859 02450 40000 10299 20190 30090 40127 82520 333 59013 70000 82618 84458==
41859,2024,11,15,09,00,AAXX 15094 41859 02445 60000 10310 20180 30067 40103 82520 333 59007 70000 82618 85458==
41859,2024,11,15,12,00,AAXX 15124 41859 01430 63101 10260 20210 30071 40108 70522 82520 333 10311 59007 70000 82618 85458==
41859,2024,11,15,15,00,AAXX 15154 41859 01430 60000 10228 20210 30086 40124 70522 82520 333 59009 70000 82618 85458==
41859,2024,11,15,18,00,AAXX 15184 41859 01/30 30000 10214 20200 30083 40121 70521 83030 333 59012 70000 83362==
41859,2024,11,15,21,00,AAXX 15214 41859 01/30 30000 10202 20190 30077 40115 70521 83030 333 59016 70000 83362==
41859,2024,11,16,00,00,AAXX 16004 41859 01430 83102 10194 20180 30080 40118 70522 8352/ 333 59011 70000 83618 88458==
41859,2024,11,16,03,00,AAXX 16034 41859 01450 80000 10210 20200 30107 40145 70542 8562/ 333 20188 59003 70000 82710 83618 88458==
41859,2024,11,16,06,00,AAXX 16064 41859 01450 50000 10270 20210 30092 40129 70542 83510 333 58002 70000 83618 85458==
41859,2024,11,16,09,00,AAXX 16094 41859 01450 42702 10296 20200 30063 40100 70522 83430 333 59004 70000 81618 82828 84362==
41859,2024,11,16,12,00,AAXX 16124 41859 01430 42702 10253 20200 30065 40102 70522 82530 333 10296 59006 70000 82618 84362==
41859,2024,11,16,15,00,AAXX 16154 41859 01930 02701 10216 20210 30085 40123 70520 333 59001 70000==
41859,2024,11,16,18,00,AAXX 16184 41859 01930 00000 10200 20190 30082 40120 70520 333 59001 70000==
41859,2024,11,16,21,00,AAXX 16214 41859 01930 00000 10190 20180 30078 40116 70500 333 58001 70000==
41859,2024,11,17,00,00,AAXX 17004 41859 01930 00000 10182 20180 30083 40121 70500 333 58003 70000==
41859,2024,11,17,03,00,AAXX 17034 41859 01950 00000 10221 20170 30100 40104 70500 333 20170 58007 70000==
41859,2024,11,17,06,00,AAXX 17064 41859 01950 00000 10281 20190 30095 40132 70500 333 58003 70000==
41859,2024,11,17,09,00,AAXX 17093 41859 02450 50501 10296 20190 30065 40102 82510 333 58002 70000 82618 85458==
41859,2024,11,17,12,00,AAXX 17124 41859 01430 40000 10243 20210 30070 40107 70522 82520 333 10300 58005 70000 82618 84458==
41859,2024,11,17,15,00,AAXX 17154 41859 01430 40000 10215 20210 30090 40128 70522 82520 333 58005 70000 82618 84458==
41859,2024,11,17,18,00,AAXX 17184 41859 01930 00000 10203 20190 30092 40130 70520 333 58010 70000==
41859,2024,11,17,21,00,AAXX 17214 41859 01930 00000 10196 20190 30088 40126 70500 333 58010 70000==
41859,2024,11,18,00,00,AAXX 18004 41859 01930 00000 10190 20190 30094 40132 70500 333 58011 70000==
41859,2024,11,18,03,00,AAXX 18034 41859 01950 00000 10243 20200 30115 40153 70500 333 20185 58012 70000==
41859,2024,11,18,06,00,AAXX 18064 41859 01950 00000 10289 20200 30103 40140 70500 333 58008 70000==
41859,2024,11,18,09,00,AAXX 18094 41859 02440 40502 10301 20190 30080 40117 82530 333 58015 70000 82618 83362==
41859,2024,11,18,12,00,AAXX 18124 41859 02430 70000 10254 20210 30080 40117 83520 333 10302 58010 70000 83618 86458==
41859,2024,11,18,15,00,AAXX 18154 41859 01930 00000 10222 20210 30098 40136 70520 333 58008 70000==
41859,2024,11,18,18,00,AAXX 18184 41859 01930 00000 10210 20200 30107 40145 70500 333 58015 70000==
41859,2024,11,18,21,00,AAXX 18214 41859 01930 00502 10204 20190 30104 40142 70500 333 58016 70000==
41859,2024,11,19,00,00,AAXX 19004 41859 31930 00502 10200 20190 30104 40142 70500 333 58010 70000=
41859,2024,11,19,03,00,AAXX 19034 41859 01950 00502 10251 20190 30128 40166 70500 333 20192 58013 70000==
41859,2024,11,19,06,00,AAXX 19064 41859 02950 00000 10300 20180 30111 40148 333 58008 70000==
41859,2024,11,19,09,00,AAXX 19094 41859 02956 00000 10304 20150 30087 40124 333 58007 70000==
41859,2024,11,19,12,00,AAXX 19124 41859 02940 00000 10246 20200 30083 40120 333 10310 58003 70000==
41859,2024,11,19,15,00,AAXX 19154 41859 02940 00000 10211 20190 30101 40138 333 58003 70000==
41859,2024,11,19,18,00,AAXX 19184 41859 01940 00000 10200 20190 30102 40140 70500 333 59005 70000==
41859,2024,11,19,21,00,AAXX 19214 41859 01930 00000 10196 20190 30100 40138 70500 333 59004 70000==
41859,2024,11,20,00,00,AAXX 20004 41859 01430 20502 10193 20180 30098 40136 70510 333 59006 70000==
41859,2024,11,20,03,00,AAXX 20034 41859 01950 00502 10249 20170 30121 40158 70500 333 20190 59007 70000==
41859,2024,11,20,09,00,AAXX 20094 41859 02950 01302 10300 20160 30075 40112 333 59012 70000==
41859,2024,11,20,12,00,AAXX 20124 41859 01930 00000 10250 20190 30076 40113 70500 333 10301 59007 70000==
41859,2024,11,20,15,00,AAXX 20154 41859 01930 00000 10213 20190 30091 40129 70500 333 59010 70000==
41859,2024,11,20,18,00,AAXX 20184 41859 01930 01302 10205 20190 30093 40131 70500 333 59009 70000==
41859,2024,11,20,21,00,AAXX 20214 41859 01430 30502 10200 20180 30088 40126 70510 82530 333 59012 70000 82618 83362==
41859,2024,11,21,00,00,AAXX 21004 41859 01430 30502 10200 20160 30090 40128 70511 82530 333 59008 70000 82618 83362==
41859,2024,11,21,03,00,AAXX 21034 41859 01450 30502 10231 20170 30112 40150 70511 83500 333 20187 59009 70000 83618==
41859,2024,11,21,06,00,AAXX 21064 41859 01450 30502 10281 20160 30100 40137 70511 83500 333 59004 70000 83618==
41859,2024,11,21,09,00,AAXX 21094 41859 02450 40502 10302 20170 30070 40107 82520 333 59005 70000 82618 84458==
41859,2024,11,21,12,00,AAXX 21124 41859 01430 20000 10247 20200 30075 40112 70521 82500 333 10307 59001 70000 82618==
41859,2024,11,21,15,00,AAXX 21154 41859 01930 00501 10222 20200 30094 40132 70510 333 58003 70000==
41859,2024,11,21,18,00,AAXX 21184 41859 01930 00000 10210 20200 30096 40134 70510 333 58003 70000==
41859,2024,11,21,21,00,AAXX 21214 41859 01430 50000 10205 20200 30091 40129 70520 82520 333 58003 70000 82618 85458==
41863,2024,11,15,00,00,AAXX 15004 41863 01915 00000 10192 20180 30088 40132 71000 333 59002 70000==
41863,2024,11,15,03,00,AAXX 15034 41863 01920 00000 10215 20210 30107 40151 71000 333 20188 59006 70000==
41863,2024,11,15,06,00,AAXX 15064 41863 02/50 31802 10282 20210 30087 40130 83030 333 59014 70000 83362==
41863,2024,11,15,09,00,AAXX 15094 41863 02957 02701 10288 20200 30064 40106 333 59006 70000==
41863,2024,11,15,12,00,AAXX 15124 41863 01950 00000 10294 20220 30066 40109 70500 333 10294 59006 70000==
41863,2024,11,15,15,00,AAXX 15154 41863 01950 00000 10200 20190 30079 40123 70500 333 59010 70000==
41863,2024,11,15,18,00,AAXX 15184 41863 01940 00000 10185 20180 30079 40123 70500 333 59012 70000==
41863,2024,11,15,21,00,AAXX 15214 41863 01940 00000 10183 20170 30077 40121 70500 333 59011 70000==
41863,2024,11,16,00,00,AAXX 16004 41863 01950 00000 10180 20170 30079 40123 70500 333 59009 70000==
41863,2024,11,16,03,00,AAXX 16034 41863 01/50 42701 10190 20180 30103 40147 70500 84030 333 20168 59004 70000 84362==
41863,2024,11,16,06,00,AAXX 16064 41863 02956 02701 10236 20200 30090 40133 333 58003 70000==
41863,2024,11,16,09,00,AAXX 16094 41863 02956 02703 10273 20180 30062 40105 333 59002 70000==
41863,2024,11,16,12,00,AAXX 16124 41863 01950 00000 10220 20190 30059 40103 70500 333 10275 59007 70000==
41863,2024,11,16,15,00,AAXX 16154 41863 01940 00000 10180 20170 30080 40124 70500 333 58001 70000==
41863,2024,11,16,18,00,AAXX 16184 41863 01920 00000 10167 20160 30078 40123 71000 333 59001 70000==
41863,2024,11,17,00,00,AAXX 17004 41863 01920 00000 10145 20140 30079 40124 71000 333 58000 70000==
41863,2024,11,17,03,00,AAXX 17034 41863 01940 02701 10210 20190 30100 40144 70500 333 20141 59003 70000==
41863,2024,11,17,06,00,AAXX 17064 41863 02956 00000 10279 20170 30090 40133 333 58000 70000==
41863,2024,11,17,09,00,AAXX 17094 41863 02957 00000 10301 20190 30062 40104 333 58000 70000==
41863,2024,11,17,12,00,AAXX 17124 41863 01950 00000 10244 20200 30062 40105 70500 333 10301 58003 70000==
41863,2024,11,17,15,00,AAXX 17154 41863 01940 00000 10196 20180 30083 40127 70500 333 58003 70000==
41863,2024,11,17,18,00,AAXX 17184 41863 01940 00000 10181 20170 30083 40131 70500 333 58009 70000==
41863,2024,11,17,21,00,AAXX 17214 41863 01940 00000 10170 20160 30083 40128 70500 333 58007 70000==
41863,2024,11,18,00,00,AAXX 18004 41863 01940 00000 10165 20160 30092 40137 70500 333 58013 70000==
41863,2024,11,18,03,00,AAXX 18034 41863 01950 00000 10213 20190 30110 40154 70500 333 20156 58010 70000==
41863,2024,11,18,06,00,AAXX 18064 41863 02456 50503 10282 20200 30100 40143 85400 333 58010 70000 83618 85830==
41863,2024,11,18,09,00,AAXX 18094 41863 02956 20000 10295 20200 30073 40115 82100 333 58011 70000 82828==
41863,2024,11,18,12,00,AAXX 18124 41863 01950 00000 10242 20210 30075 40118 70510 333 10298 58013 70000==
41863,2024,11,18,15,00,AAXX 18154 41863 01950 00000 10210 20190 30093 40137 70500 333 58010 70000==
41863,2024,11,18,18,00,AAXX 18184 41863 01950 00000 10195 20190 30100 40144 70500 333 58013 70000==
41863,2024,11,18,21,00,AAXX 18214 41863 01940 00000 10178 20170 30094 40138 70500 333 58011 70000==
41863,2024,11,19,00,00,AAXX 19004 41863 01930 00000 10175 20170 30099 40144 70500 333 58007 70000==
41863,2024,11,19,03,00,AAXX 19034 41863 01950 00501 10240 20210 30125 40168 70500 333 20168 58015 70000==
41863,2024,11,19,06,00,AAXX 19064 41863 02457 30503 10291 20180 30111 40154 83500 333 58011 70000 83618==
41863,2024,11,19,09,00,AAXX 19094 41863 02457 30901 10305 20150 30081 40123 83500 333 58008 70000 83618==
41863,2024,11,19,12,00,AAXX 19124 41863 02956 00000 10250 20200 30076 40119 333 10307 58001 70000==
41863,2024,11,19,15,00,AAXX 19154 41863 01950 00000 10210 20190 30094 40138 70500 333 58001 70000==
41863,2024,11,19,18,00,AAXX 19184 41863 01950 00000 10195 20190 30097 40141 70500 333 59003 70000==
41863,2024,11,19,21,00,AAXX 19214 41863 01940 00000 10187 20180 30094 40138 70500 333 58000 70000==
41863,2024,11,20,00,00,AAXX 20004 41863 01950 00000 10165 20160 30095 40140 70500 333 59004 70000==
41863,2024,11,20,03,00,AAXX 20034 41863 01950 00501 10238 20210 30116 40159 70500 333 20158 59009 70000==
41863,2024,11,20,06,00,AAXX 20064 41863 02957 00504 10290 20170 30097 40140 333 59014 70000==
41863,2024,11,20,09,00,AAXX 20094 41863 02457 30000 10295 20160 30069 40111 83400 333 59012 70000 83825==
41863,2024,11,20,12,00,AAXX 20124 41863 02956 00000 10235 20190 30070 40113 333 10300 59006 70000==
41863,2024,11,20,15,00,AAXX 20154 41863 01950 00000 10187 20180 30085 40129 70500 333 59009 70000==
41863,2024,11,20,18,00,AAXX 20184 41863 01940 00000 10177 20170 30090 40134 70500 333 59007 70000==
41863,2024,11,20,21,00,AAXX 20214 41863 31940 00000 10175 20170 30084 40128 70500 333 59010 70000=
41863,2024,11,21,00,00,AAXX 21004 41863 01940 00000 10270 20160 30083 40128 70500 333 59012 70000==
41863,2024,11,21,03,00,AAXX 21034 41863 01950 00501 10236 20210 30108 40151 70500 333 20163 59008 70000==
41863,2024,11,21,06,00,AAXX 21064 41863 02457 50503 10290 20160 30094 40137 83520 333 59003 70000 83618 85458==
41863,2024,11,21,09,00,AAXX 21094 41863 02557 20502 10300 20160 30067 40109 82400 333 59002 70000 82620==
41863,2024,11,21,12,00,AAXX 21124 41863 01950 00000 10234 20190 30068 40111 70520 333 10302 59008 70000==
41863,2024,11,21,15,00,AAXX 21154 41863 01940 00000 10203 20180 30086 40130 70500 333 58001 70000==
41863,2024,11,21,18,00,AAXX 21184 41863 01940 00000 10192 20180 30088 40132 70500 333 59002 70000==
41863,2024,11,21,21,00,AAXX 21214 41863 01940 00000 10175 20170 30084 40128 70500 333 59010 70000==
41881,2024,11,15,00,00,AAXX 15004 41881 31905 00000 10182 20180 30111 40131 74240 333 59001 70000=
41881,2024,11,15,03,00,AAXX 15034 41881 31920 00000 10225 20220 30127 40148 71044 333 20180 59010 70000=
41881,2024,11,15,06,00,AAXX 15064 41881 31950 03501 10275 20200 30109 40129 70040 333 59010 70000=
41881,2024,11,15,09,00,AAXX 15094 41881 32950 03403 10280 20200 30085 40105 333 59009 70000=
41881,2024,11,15,12,00,AAXX 15124 41881 32950 00000 10230 20210 30090 40110 333 10290 59006 70000=
41881,2024,11,15,15,00,AAXX 15154 41881 31930 00000 10200 20200 30104 40124 70500 333 59010 70000=
41881,2024,11,15,21,00,AAXX 15214 41881 31915 00000 10162 20160 30104 40124 71000 333 59010 70000=
41881,2024,11,16,00,00,AAXX 16004 41881 31904 00000 10155 20155 30102 40122 74240 333 59009 70000=
41881,2024,11,16,03,00,AAXX 16034 41881 31940 03501 10210 20180 30125 40145 70544 333 20154 59002 70000=
41881,2024,11,16,06,00,AAXX 16064 41881 31956 03401 10265 20190 30110 40130 70044 333 58001 70000=
41881,2024,11,16,09,00,AAXX 16094 41881 32956 00000 10285 20180 30081 40100 333 59004 70000=
41881,2024,11,16,12,00,AAXX 16124 41881 32950 00000 10215 20200 30086 40106 333 10295 59004 70000=
41881,2024,11,16,15,00,AAXX 16154 41881 32950 00000 10180 20170 30103 40123 333 59001 70000=
41881,2024,11,16,18,00,AAXX 16184 41881 NIL=
41881,2024,11,17,00,00,AAXX 17004 41881 31903 00000 10140 20140 30100 40121 74440 333 59002 70000=
41881,2024,11,17,03,00,AAXX 17034 41881 31940 02701 10195 20190 30124 40144 70544 333 20138 59001 70000=
41881,2024,11,17,06,00,AAXX 17064 41881 31956 03401 10262 20170 30110 40130 70044 333 58000 70000=
41881,2024,11,17,09,00,AAXX 17094 41881 32956 01201 10278 20140 30083 40103 333 58002 70000=
41881,2024,11,17,12,00,AAXX 17124 41881 32950 01801 10225 20200 30085 40106 333 10290 59001 70000=
41881,2024,11,17,15,00,AAXX 17154 41881 32950 00000 10185 20180 30107 40127 333 58004 70000=
41881,2024,11,17,18,00,AAXX 17184 41881 31940 00000 10167 20160 30110 40130 70500 333 58005 70000=
41881,2024,11,17,21,00,AAXX 17214 41881 31935 00000 10161 20160 30109 40129 70500 333 58007 70000=
41881,2024,11,18,00,00,AAXX 18004 41881 31912 00000 10154 20150 30110 40130 333 58010 70000=
41881,2024,11,18,03,00,AAXX 18034 41881 32950 00201 10211 20180 30134 40155 333 20152 58010 70000=
41881,2024,11,18,06,00,AAXX 18064 41881 32956 00901 10276 20170 30123 40143 333 59001 70000=
41881,2024,11,18,09,00,AAXX 18094 41881 32956 03601 10290 20180 30101 40121 333 59009 70000=
41881,2024,11,18,12,00,AAXX 18124 41881 32950 00201 10240 20200 30098 40118 333 10297 58013 70000=
41881,2024,11,18,15,00,AAXX 18154 41881 32950 01801 10195 20190 30118 40138 333 58011 70000=
41881,2024,11,18,18,00,AAXX 18184 41881 31940 00000 10176 20170 30122 40143 70500 333 58012 70000=
41881,2024,11,18,21,00,AAXX 18214 41881 31930 00000 10170 20170 30121 40142 70500 333 58012 70000=
41881,2024,11,19,00,00,AAXX 19004 41881 31930 00000 10162 20160 30123 40144 70500 333 58013 70000=
41881,2024,11,19,03,00,AAXX 19034 41881 32950 03601 10234 20200 30145 40165 333 20160 58011 70000=
41881,2024,11,19,06,00,AAXX 19064 41881 32956 03601 10281 20170 30129 40150 333 58006 70000=
41881,2024,11,19,09,00,AAXX 19094 41881 32957 03601 10296 20170 30105 40125 333 58004 70000=
41881,2024,11,19,12,00,AAXX 19124 41881 32950 00000 10240 20210 30098 40119 333 10302 58000 70000=
41881,2024,11,19,15,00,AAXX 19154 41881 32950 03601 10204 20180 30118 40138 333 58000 70000=
41881,2024,11,19,18,00,AAXX 19184 41881 31940 00000 10188 20180 30124 40145 70500 333 58002 70000=
41881,2024,11,19,21,00,AAXX 19214 41881 31930 00000 10180 20170 30122 40143 70500 333 58001 70000=
41881,2024,11,20,00,00,AAXX 20004 41881 31915 00000 10173 20170 30125 40146 71000 333 58002 70000=
41881,2024,11,20,03,00,AAXX 20034 41881 32950 03601 10230 20200 30137 40158 333 20170 59008 70000=
41881,2024,11,20,06,00,AAXX 20064 41881 32456 33502 10277 20180 30117 40137 83500 333 56900 59012 70000 83618=
41881,2024,11,20,09,00,AAXX 20094 41881 32456 30201 10282 20160 30088 40108 83500 333 56900 59017 70000 83618=
41881,2024,11,20,12,00,AAXX 20124 41881 32450 20901 10240 20190 30089 40110 82500 333 10295 56900 59009 70000 82620=
41881,2024,11,20,15,00,AAXX 20154 41881 32950 03401 10186 20180 30107 40128 333 59011 70000=
41881,2024,11,20,18,00,AAXX 20184 41881 32950 00000 10173 20160 30112 40132 333 59012 70000=
41881,2024,11,20,21,00,AAXX 20214 41881 32950 03401 10165 20160 30110 40130 333 59012 70000=
41881,2024,11,21,00,00,AAXX 21004 41881 31440 20000 10157 20157 30108 40129 70510 333 56900 59017 70000 82620=
41881,2024,11,21,03,00,AAXX 21034 41881 32456 20000 10230 20190 30128 40148 82500 333 20155 56900 59009 70000 82620=
41881,2024,11,21,06,00,AAXX 21064 41881 32457 23601 10275 20160 30112 40132 82500 333 56900 59005 70000 82618=
41881,2024,11,21,09,00,AAXX 21094 41881 32458 32702 10286 20170 30086 40105 83500 333 56900 59002 70000 83620=
41881,2024,11,21,12,00,AAXX 21124 41881 32456 42701 10225 20210 30092 40112 84500 333 10300 56900 58003 70000 84620=
41881,2024,11,21,15,00,AAXX 21154 41881 32956 00000 10195 20190 30112 40132 333 58005 70000=
41881,2024,11,21,18,00,AAXX 21184 41881 32956 00000 10184 20170 30115 40135 333 58003 70000=
41883,2024,11,15,00,00,AAXX 15004 41883 02930 00000 10208 20200 30106 40127 333 59007 70000==
41883,2024,11,15,03,00,AAXX 15034 41883 01950 03102 10243 20210 30126 40147 70500 333 20201 59006 70000==
41883,2024,11,15,06,00,AAXX 15064 41883 02/56 43102 10294 20200 30108 40128 84010 333 59008 70000 84459==
41883,2024,11,15,09,00,AAXX 15094 41883 02956 01302 10302 20190 30083 40103 333 59007 70000==
41883,2024,11,15,12,00,AAXX 15124 41883 02930 00000 10260 20220 30088 40108 333 10312 59004 70000==
41883,2024,11,15,15,00,AAXX 15154 41883 02930 00000 10230 20210 30104 40125 333 59009 70000==
41883,2024,11,15,18,00,AAXX 15184 41883 02930 00000 10214 20190 30100 40121 333 59013 70000==
41883,2024,11,15,21,00,AAXX 15214 41883 02930 00000 10200 20190 30098 40119 333 59005 70000==
41883,2024,11,16,00,00,AAXX 16004 41883 02930 00000 10194 20180 30099 40120 333 59007 70000==
41883,2024,11,16,03,00,AAXX 16034 41883 02950 03102 10226 20180 30123 40144 333 20185 59003 70000==
41883,2024,11,16,06,00,AAXX 16064 41883 02956 03102 10283 20150 30107 40127 333 59001 70000==
41883,2024,11,16,09,00,AAXX 16094 41883 02950 00000 10298 20140 30080 40100 333 59003 70000==
41883,2024,11,16,12,00,AAXX 16124 41883 02930 00000 10240 20170 30082 40103 333 10302 59006 70000==
41883,2024,11,16,15,00,AAXX 16154 41883 02930 00000 10214 20180 30102 40123 333 59002 70000==
41883,2024,11,16,18,00,AAXX 16184 41883 02930 00000 10202 20180 30103 40124 333 58003 70000==
41883,2024,11,16,21,00,AAXX 16214 41883 02930 00000 10188 20180 30098 40119 333 58000 70000==
41883,2024,11,17,00,00,AAXX 17004 41883 01930 00000 10170 20160 30100 40121 70500 333 58001 70000==
41883,2024,11,17,03,00,AAXX 17034 41883 02956 00000 10316 20180 30123 40144 333 20164 58000 70000==
41883,2024,11,17,06,00,AAXX 17064 41883 02956 03602 10280 20160 30107 40127 333 58000 70000==
41883,2024,11,17,09,00,AAXX 17093 41883 02956 03601 10290 20120 30083 40103 333 58003 70000==
41883,2024,11,17,12,00,AAXX 17124 41883 02930 00000 10233 20160 30086 40107 333 10290 58004 70000==
41883,2024,11,17,15,00,AAXX 17154 41883 02930 00000 10204 20160 30106 40127 333 58004 70000==
41883,2024,11,17,18,00,AAXX 17184 41883 02930 00000 10194 20170 30107 40128 333 58004 70000==
41883,2024,11,17,21,00,AAXX 17214 41883 02930 00000 10182 20170 30105 40126 333 58007 70000==
41883,2024,11,18,00,00,AAXX 18004 41883 02930 00000 10176 20170 30109 40130 333 58009 70000==
41883,2024,11,18,03,00,AAXX 18034 41883 02/50 50000 10224 20180 30133 40154 85030 333 20172 58010 70000 85362==
41883,2024,11,18,06,00,AAXX 18064 41883 02956 00000 10290 20150 30119 40139 333 58002 70000==
41883,2024,11,18,09,00,AAXX 18094 41883 02956 00000 10300 20160 30096 40116 333 58013 70000==
41883,2024,11,18,12,00,AAXX 18124 41883 02930 00000 10240 20190 30097 40118 333 10300 58011 70000==
41883,2024,11,18,15,00,AAXX 18154 41883 02930 00000 10215 20190 30115 40136 333 58009 70000==
41883,2024,11,18,18,00,AAXX 18184 41883 02930 00000 10205 20190 30121 40142 333 58014 70000==
41883,2024,11,18,21,00,AAXX 18214 41883 02930 00000 10200 20180 30117 40138 333 58012 70000==
41883,2024,11,19,00,00,AAXX 19004 41883 32430 30000 10195 20190 30119 40140 83500 333 56100 58010 70000=
41883,2024,11,19,03,00,AAXX 19034 41883 02950 00000 10250 20190 30140 40161 333 20185 58007 70000==
41883,2024,11,19,06,00,AAXX 19064 41883 02450 60502 10298 20200 30125 40145 82520 333 58006 70000 82618 86458==
41883,2024,11,19,09,00,AAXX 19094 41883 02950 03601 10300 20150 30101 40121 333 58005 70000==
41883,2024,11,19,12,00,AAXX 19124 41883 02930 00000 10245 20190 30098 40118 333 10308 58001 70000==
41883,2024,11,19,15,00,AAXX 19154 41883 02930 00000 10216 20180 30117 40138 333 58002 70000==
41883,2024,11,19,18,00,AAXX 19184 41883 02930 00000 10202 20180 30120 40141 333 59001 70000==
41883,2024,11,19,21,00,AAXX 19214 41883 02930 00000 10192 20180 30115 40136 333 59002 70000==
41883,2024,11,20,00,00,AAXX 20004 41883 02/30 40000 10186 20180 30113 40134 84010 333 59006 70000 84459==
41883,2024,11,20,03,00,AAXX 20034 41883 02956 02702 10244 20190 30133 40144 333 20180 59007 70000==
41883,2024,11,20,09,00,AAXX 20094 41883 02950 01301 10292 20120 30089 40109 333 59012 70000==
41883,2024,11,20,12,00,AAXX 20124 41883 02930 00000 10237 20160 30090 40111 333 10304 59008 70000==
41883,2024,11,20,15,00,AAXX 20154 41883 02930 00000 10216 20180 30107 40128 333 59010 70000==
41883,2024,11,20,18,00,AAXX 20184 41883 02930 00000 10204 20170 30109 40130 333 59011 70000==
41883,2024,11,20,21,00,AAXX 20214 41883 02930 00000 10196 20170 30103 40124 333 59012 70000==
41883,2024,11,21,00,00,AAXX 21004 41883 02930 00000 10188 20170 30101 40122 333 59012 70000==
41883,2024,11,21,03,00,AAXX 21034 41883 02956 00000 10235 20200 30123 40144 333 20176 59010 70000==
41883,2024,11,21,06,00,AAXX 21064 41883 02456 30000 10298 20170 30111 40131 83400 333 59004 70000 83616==
41883,2024,11,21,09,00,AAXX 21094 41883 02450 40000 10300 20160 30085 40105 81520 333 59004 70000==
41883,2024,11,21,12,00,AAXX 21124 41883 02930 00000 10240 20180 30091 40112 333 10306 58001 70000==
41883,2024,11,21,15,00,AAXX 21154 41883 02930 00000 10214 20180 30110 40131 333 58003 70000==
41883,2024,11,21,18,00,AAXX 21184 41883 02930 00000 10204 20180 30111 40132 333 58002 70000==
41883,2024,11,21,21,00,AAXX 21214 41883 02930 00000 10192 20180 30106 40127 333 58003 70000==
41886,2024,11,15,00,00,AAXX 15004 41886 01915 00000 10190 20180 30104 40125 71044 333 59008 70000==
41886,2024,11,15,03,00,AAXX 15034 41886 01956 03104 10252 20210 30124 40145 70040 333 20187 59006 70000==
41886,2024,11,15,06,00,AAXX 15064 41886 01457 11803 10286 20210 30109 40130 70341 81500 333 59005 70000 81618==
41886,2024,11,15,09,00,AAXX 15094 41886 02957 00000 10308 20190 30084 40105 333 59007 70000==
41886,2024,11,15,12,00,AAXX 15124 41886 02940 00000 10257 20220 30087 40108 333 10312 59006 70000==
41886,2024,11,15,15,00,AAXX 15154 41886 02930 00000 10238 20230 30106 40127 333 59007 70000==
41886,2024,11,15,21,00,AAXX 15214 41886 01915 00000 10214 20200 30099 40122 71000 333 59009 70000==
41886,2024,11,16,00,00,AAXX 16004 41886 01908 00000 10196 20196 30101 40122 74440 333 59003 70000==
41886,2024,11,16,03,00,AAXX 16034 41886 01915 00000 10236 20220 30124 40145 71044 333 20195 58000 70000==
41886,2024,11,16,06,00,AAXX 16064 41886 01920 00000 10282 20210 30109 40130 71040 333 58000 70000==
41886,2024,11,16,09,00,AAXX 16094 41886 01950 00000 10299 20220 30083 40104 70500 333 59001 70000==
41886,2024,11,16,12,00,AAXX 16124 41886 01950 00000 10250 20220 30083 40104 70500 333 10302 59004 70000==
41886,2024,11,16,15,00,AAXX 16154 41886 01930 00000 10217 20210 30103 40124 70500 333 59003 70000==
41886,2024,11,16,18,00,AAXX 16184 41886 NIL=
41886,2024,11,17,00,00,AAXX 17004 41886 01905 00000 10186 20180 30098 40119 74444 333 59003 70000==
41886,2024,11,17,03,00,AAXX 17034 41886 01920 00000 10220 20200 30124 40145 71044 333 20180 58000 70000==
41886,2024,11,17,06,00,AAXX 17064 41886 01935 00000 10277 20200 30111 40132 70540 333 58002 70000==
41886,2024,11,17,09,00,AAXX 17094 41886 01450 20000 10282 20190 30087 40108 70500 333 58004 70000 82618==
41886,2024,11,17,12,00,AAXX 17124 41886 01950 00000 10230 20210 30089 40110 70510 333 10288 58006 70000==
41886,2024,11,17,15,00,AAXX 17154 41886 01950 03302 10200 20190 30110 40131 70500 333 58007 70000==
41886,2024,11,17,18,00,AAXX 17184 41886 01950 00000 10190 20180 30112 40133 70500 333 58006 70000==
41886,2024,11,17,21,00,AAXX 17214 41886 01940 00000 10185 20180 30112 40133 70544 333 58009 70000==
41886,2024,11,18,00,00,AAXX 18004 41886 01915 00000 10170 20170 30115 40136 71044 333 58017 70000==
41886,2024,11,18,03,00,AAXX 18034 41886 01950 00000 10242 20210 30138 40159 70544 333 20168 58014 70000==
41886,2024,11,18,06,00,AAXX 18064 41886 01456 41402 10280 20190 30121 40142 70342 84500 333 58010 70000 84618==
41886,2024,11,18,09,00,AAXX 18094 41886 02956 00000 10290 20170 30099 40120 82030 333 58012 70000 82365==
41886,2024,11,18,12,00,AAXX 18124 41886 01950 00000 10240 20200 30098 40119 70510 333 10296 58009 70000==
41886,2024,11,18,15,00,AAXX 18154 41886 01950 00000 10200 20190 30119 40140 70500 333 58009 70000==
41886,2024,11,18,18,00,AAXX 18184 41886 01920 00000 10192 20190 30124 40145 71040 333 58012 70000==
41886,2024,11,18,21,00,AAXX 18214 41886 01915 00000 10186 20186 30120 40141 71044 333 58008 70000==
41886,2024,11,19,00,00,AAXX 19004 41886 01906 00000 10180 20180 30122 40143 74244 333 58007 70000==
41886,2024,11,19,03,00,AAXX 19034 41886 01950 01503 10250 20200 30145 40166 70544 333 20170 58007 70000==
41886,2024,11,19,06,00,AAXX 19064 41886 01456 31502 10282 20170 30131 40152 70341 83400 333 58010 70000 81618==
41886,2024,11,19,09,00,AAXX 19094 41886 02456 10502 10294 20140 30104 40125 81500 333 58005 70000 81618==
41886,2024,11,19,12,00,AAXX 19124 41886 01950 00000 10235 20200 30100 40121 70510 333 10302 58002 70000==
41886,2024,11,19,15,00,AAXX 19154 41886 01950 00000 10200 20180 30117 40138 70500 333 59002 70000==
41886,2024,11,19,18,00,AAXX 19184 41886 01920 00000 10182 20180 30120 40141 71040 333 59004 70000==
41886,2024,11,19,21,00,AAXX 19214 41886 01920 00000 10176 20170 30114 40135 71044 333 59006 70000==
41886,2024,11,20,00,00,AAXX 20004 41886 01915 00000 10170 20160 30108 40129 71044 333 59014 70000==
41886,2024,11,20,03,00,AAXX 20034 41886 01950 00000 10235 20200 30135 40156 70540 333 20164 59010 70000==
41886,2024,11,20,06,00,AAXX 20064 41886 01/56 20000 10285 20180 30120 40141 70341 82040 333 59011 70000 82365==
41886,2024,11,20,09,00,AAXX 20094 41886 02/56 20000 10290 20180 30091 40112 82040 333 59013 70000 82365==
41886,2024,11,20,12,00,AAXX 20124 41886 02940 00000 10238 20200 30090 40111 333 10298 59010 70000==
41886,2024,11,20,15,00,AAXX 20154 41886 02930 00000 10207 20180 30109 40130 333 59008 70000==
41886,2024,11,20,18,00,AAXX 20184 41886 NIL=
41886,2024,11,20,21,00,AAXX 20214 41886 31920 00000 10192 20180 30106 40127 71000 333 59008 70000=
41886,2024,11,21,00,00,AAXX 21004 41886 01/20 20000 10177 20177 30107 40128 71010 82030 333 59001 70000 82362==
41886,2024,11,21,03,00,AAXX 21034 41886 01950 00000 10235 20200 30132 40153 70510 333 20177 59003 70000==
41886,2024,11,21,06,00,AAXX 21064 41886 01/50 40000 10266 20160 30112 40133 70521 84040 333 59008 70000 84362==
41886,2024,11,21,09,00,AAXX 21094 41886 02956 00000 10292 20140 30090 40111 333 59001 70000==
41886,2024,11,21,12,00,AAXX 21124 41886 01950 00000 10230 20200 30094 40115 70500 333 10297 58004 70000==
41886,2024,11,21,15,00,AAXX 21154 41886 01950 00000 10204 20180 30113 40134 70500 333 58004 70000==
41886,2024,11,21,18,00,AAXX 21184 41886 01930 00000 10190 20180 30114 40135 70500 333 58009 70000==
41886,2024,11,21,21,00,AAXX 21214 41886 01920 00000 10192 20180 30106 40127 71000 333 59008 70000==
41888,2024,11,15,00,00,AAXX 15004 41888 31904 00000 10195 20195 30115 40125 74444 333 59005 70000=
41888,2024,11,15,03,00,AAXX 15034 41888 31940 00000 10255 20220 30131 40141 70544 333 20195 59009 70000=
41888,2024,11,15,06,00,AAXX 15064 41888 31456 10901 10285 20210 30119 40129 70340 81100 333 56900 58002 70000 81825=
41888,2024,11,15,09,00,AAXX 15094 41888 32557 11801 10300 20180 30089 40099 81100 333 56900 59008 70000 81825=
41888,2024,11,15,12,00,AAXX 15124 41888 32956 00000 10264 20220 30090 40100 333 10310 59009 70000=
41888,2024,11,15,15,00,AAXX 15154 41888 31930 00000 10225 20220 30110 40120 333 59007 70000=
41888,2024,11,15,18,00,AAXX 15184 41888 31920 00000 10210 20200 30105 40115 71040 333 59011 70000=
41888,2024,11,15,21,00,AAXX 15214 41888 31906 00000 10193 20180 30106 40116 74244 333 59010 70000=
41888,2024,11,16,00,00,AAXX 16004 41888 31904 00000 10178 20170 30108 40118 74444 333 59007 70000=
41888,2024,11,16,03,00,AAXX 16034 41888 31930 00000 10233 20200 30128 40138 71044 333 20178 59003 70000=
41888,2024,11,16,06,00,AAXX 16064 41888 31456 30000 10290 20200 30112 40122 70340 83400 333 56900 59007 70000 82618=
41888,2024,11,16,09,00,AAXX 16094 41888 32456 33401 10295 20240 30087 40097 83400 333 56900 59002 70000 82618=
41888,2024,11,16,12,00,AAXX 16124 41888 31940 03001 10245 20210 30089 40099 70510 333 10310 59001 70000=
41888,2024,11,16,15,00,AAXX 16154 41888 31930 03001 10215 20210 30108 40118 71000 333 59002 70000=
41888,2024,11,16,18,00,AAXX 16184 41888 31907 00000 10207 20207 30106 40116 74240 333 58001 70000=
41888,2024,11,17,00,00,AAXX 17004 41888 31/01 90000 10198 20198 30110 40120 74544 89/// 333 56999 58002 70000=
41888,2024,11,17,03,00,AAXX 17034 41888 31425 30000 10226 20220 30130 40140 71044 83500 333 20197 56900 58002 70000 83618=
41888,2024,11,17,06,00,AAXX 17064 41888 31456 43001 10290 20200 30114 40124 70341 84400 333 56900 58002 70000 81618 83822=
41888,2024,11,17,09,00,AAXX 17094 41888 32456 31501 10290 20190 30092 40102 83400 333 56900 58005 70000 82618=
41888,2024,11,17,12,00,AAXX 17124 41888 31940 01501 10244 20210 30093 40103 70510 333 10298 58004 70000=
41888,2024,11,17,15,00,AAXX 17154 41888 31915 01501 10216 20216 30114 40124 71000 333 58006 70000=
41888,2024,11,17,18,00,AAXX 17184 41888 31905 00000 10206 20206 30115 40125 74240 333 58009 70000=
41888,2024,11,17,21,00,AAXX 17214 41888 31902 00000 10193 20190 30118 40128 74444 333 58010 70000=
41888,2024,11,18,00,00,AAXX 18004 41888 31903 00000 10183 20180 30121 40131 74444 333 58011 70000=
41888,2024,11,18,03,00,AAXX 18034 41888 31950 00903 10245 20210 30142 40152 70544 333 20181 58012 70000=
41888,2024,11,18,06,00,AAXX 18064 41888 31957 20501 10284 20180 30125 40135 70341 82400 333 56900 58011 70000 81618=
41888,2024,11,18,09,00,AAXX 18094 41888 32957 00000 10290 20190 30103 40113 333 58011 70000=
41888,2024,11,18,12,00,AAXX 18124 41888 32950 00000 10240 20200 30105 40115 333 10300 58012 70000=
41888,2024,11,18,15,00,AAXX 18154 41888 31940 00000 10206 20200 30124 40134 70500 333 58010 70000=
41888,2024,11,18,18,00,AAXX 18184 41888 31907 20000 10197 20197 30130 40140 74240 82030 333 56090 58015 70000 82365=
41888,2024,11,18,21,00,AAXX 18214 41888 31905 00000 10190 20190 30128 40138 74244 333 58010 70000=
41888,2024,11,19,00,00,AAXX 19004 41888 31930 01201 10186 20186 30131 40141 71044 333 58010 70000=
41888,2024,11,19,03,00,AAXX 19034 41888 32956 00903 10247 20200 30153 40163 70040 333 20184 58011 70000=
41888,2024,11,19,06,00,AAXX 19064 41888 32557 10903 10275 20190 30134 40144 70340 81200 333 56900 58009 70000 81822=
41888,2024,11,19,09,00,AAXX 19094 41888 32957 00601 10287 20170 30110 40120 333 58007 70000=
41888,2024,11,19,12,00,AAXX 19124 41888 32956 00901 10235 20190 30107 40117 333 10295 58002 70000=
41888,2024,11,19,15,00,AAXX 19154 41888 31940 00901 10198 20190 30124 40134 70500 333 58000 70000=
41888,2024,11,19,18,00,AAXX 19184 41888 31915 00901 10187 20187 30128 40138 71040 333 59002 70000=
41888,2024,11,19,21,00,AAXX 19214 41888 31908 00901 10180 20180 30114 40124 74044 333 59014 70000=
41888,2024,11,20,00,00,AAXX 20004 41888 31940 00000 10174 20160 30118 40128 70544 333 59013 70000=
41888,2024,11,20,03,00,AAXX 20034 41888 32956 01201 10250 20190 30141 40151 333 20172 59012 70000=
41888,2024,11,20,06,00,AAXX 20064 41888 32457 40901 10284 20170 30122 40132 84400 333 56900 59012 70000 81618 83822=
41888,2024,11,20,09,00,AAXX 20094 41888 32557 20901 10290 20170 30095 40105 82200 333 56900 59015 70000 82822=
41888,2024,11,20,12,00,AAXX 20124 41888 32950 00000 10238 20210 30096 40106 333 10294 59011 70000=
41888,2024,11,20,15,00,AAXX 20154 41888 31940 00000 10207 20200 30114 40124 70500 333 59010 70000=
41888,2024,11,20,18,00,AAXX 20184 41888 31935 00000 10203 20190 30115 40125 70500 333 59013 70000=
41888,2024,11,20,21,00,AAXX 20214 41888 31906 00000 10183 20180 30109 40119 74240 333 59005 70000=
41888,2024,11,21,00,00,AAXX 21004 41888 31901 00901 10175 20175 30113 40123 74444 333 59005 70000=
41888,2024,11,21,03,00,AAXX 21034 41888 31940 20901 10235 20210 30137 40147 70544 82030 333 20175 56090 59004 70000 82364=
41888,2024,11,21,06,00,AAXX 21064 41888 31457 51501 10274 20160 30118 40128 70342 85400 333 56900 59004 70000 82618 83822=
41888,2024,11,21,09,00,AAXX 21094 41888 32457 11501 10278 20200 30096 40106 81500 333 56900 58001 70000 81618=
41888,2024,11,21,12,00,AAXX 21124 41888 32950 00901 10230 20180 30100 40110 333 10284 58004 70000=
41888,2024,11,21,15,00,AAXX 21154 41888 31935 00000 10200 20190 30120 40130 70500 333 58006 70000=
41888,2024,11,21,18,00,AAXX 21184 41888 31920 00000 10188 20180 30121 40131 71040 333 58006 70000=
41891,2024,11,15,00,00,AAXX 15004 41891 01930 00902 10208 20190 30086 40125 70500 333 59003 70000==
41891,2024,11,15,03,00,AAXX 15034 41891 01945 00902 10225 20200 30103 40142 70500 333 20201 59008 70000==
41891,2024,11,15,06,00,AAXX 15064 41891 01450 21802 10295 20200 30084 40122 70510 82500 333 59002 70000 82616==
41891,2024,11,15,09,00,AAXX 15094 41891 333 59004 70000 81618==
41891,2024,11,15,12,00,AAXX 15124 41891 01940 00000 10262 20220 30063 40102 70510 333 10319 59006 70000==
41891,2024,11,15,15,00,AAXX 15154 41891 01930 00000 10235 20220 30080 40119 70500 333 59007 70000==
41891,2024,11,15,18,00,AAXX 15184 41891 01930 00000 10220 20200 30077 40116 70500 333 59009 70000==
41891,2024,11,15,21,00,AAXX 15214 41891 01930 00000 10213 20190 30076 40115 70500 333 59007 70000==
41891,2024,11,16,00,00,AAXX 16004 41891 01930 00000 10208 20200 30076 40115 70500 333 59010 70000==
41891,2024,11,16,03,00,AAXX 16034 41891 01950 00502 10250 20200 30100 40139 70500 333 20208 59003 70000==
41891,2024,11,16,06,00,AAXX 16064 41891 01950 00902 10288 20200 30080 40118 70500 333 59004 70000==
41891,2024,11,16,09,00,AAXX 16094 41891 01450 33602 10295 20200 30058 40096 70511 81530 333 59001 70000 81615 83365==
41891,2024,11,16,12,00,AAXX 16124 41891 01940 03602 10260 20220 30059 40098 70510 333 10313 59004 70000==
41891,2024,11,16,15,00,AAXX 16154 41891 01930 00000 10235 20220 30075 40114 70500 333 59005 70000==
41891,2024,11,16,18,00,AAXX 16184 41891 01930 00000 10217 20210 30077 40116 70500 333 58000 70000==
41891,2024,11,16,21,00,AAXX 16214 41891 01930 00000 10210 20200 30076 40115 70500 333 58000 70000==
41891,2024,11,17,00,00,AAXX 17004 41891 01430 20000 10208 20200 30075 40114 70510 81530 333 59001 70000 81618==
41891,2024,11,17,03,00,AAXX 17034 41891 01450 10505 10245 20200 30102 40141 70511 81500 333 20208 58002 70000 81618==
41891,2024,11,17,06,00,AAXX 17064 41891 01450 30504 10283 20200 30088 40126 70511 83500 333 58008 70000 83618==
41891,2024,11,17,09,00,AAXX 17093 41891 02556 10000 10292 20180 30063 40101 81100 333 58005 70000 81822==
41891,2024,11,17,12,00,AAXX 17124 41891 02940 00000 10248 20200 30065 40103 333 10297 58006 70000==
41891,2024,11,17,15,00,AAXX 17154 41891 01940 00000 10221 20180 30083 40122 70500 333 58008 70000==
41891,2024,11,17,18,00,AAXX 17184 41891 42940 02702 10208 20190 30088 40127 58011==
41891,2024,11,17,21,00,AAXX 17214 41891 01940 00602 10198 20180 30089 40129 70500 333 58013 70000==
41891,2024,11,18,00,00,AAXX 18004 41891 01940 00902 10193 20180 30092 40132 70500 333 58017 70000==
41891,2024,11,18,03,00,AAXX 18034 41891 01945 00903 10242 20190 30113 40152 70500 333 20192 58011 70000==
41891,2024,11,18,06,00,AAXX 18064 41891 01950 00904 10280 20200 30101 40139 70500 333 58013 70000==
41891,2024,11,18,09,00,AAXX 18094 41891 02556 10000 10291 20160 30071 40109 81100 333 58008 70000 81822==
41891,2024,11,18,12,00,AAXX 18124 41891 01940 00000 10245 20200 30076 40114 70500 333 10302 58011 70000==
41891,2024,11,18,15,00,AAXX 18154 41891 01930 00000 10215 20190 30094 40133 70500 333 58011 70000==
41891,2024,11,18,18,00,AAXX 18184 41891 01930 00000 10208 20190 30096 40135 70500 333 58007 70000==
41891,2024,11,18,21,00,AAXX 18214 41891 01930 00000 10200 20180 30098 40138 70500 333 58009 70000==
41891,2024,11,19,00,00,AAXX 19004 41891 31930 00902 10195 20170 30102 40142 70500 333 58010 70000=
41891,2024,11,19,03,00,AAXX 19034 41891 01945 01502 10236 20200 30120 40159 70500 333 20193 58007 70000==
41891,2024,11,19,06,00,AAXX 19064 41891 01550 10903 10280 20150 30108 40146 70500 81100 333 58007 70000 81825==
41891,2024,11,19,09,00,AAXX 19094 41891 02556 10802 10290 20140 30078 40116 81100 333 58007 70000 81825==
41891,2024,11,19,12,00,AAXX 19124 41891 01540 10000 10241 20190 30077 40115 70500 81100 333 10294 58001 70000 81825==
41891,2024,11,19,15,00,AAXX 19154 41891 01930 03102 10220 20170 30092 40131 70500 333 59002 70000==
41891,2024,11,19,18,00,AAXX 19184 41891 01930 03102 10207 20190 30096 40135 70500 333 58000 70000==
41891,2024,11,19,21,00,AAXX 19214 41891 01430 20502 10203 20180 30091 40131 70500 333 59007 70000 82500 82616==
41891,2024,11,20,00,00,AAXX 20004 41891 01430 20502 10200 20170 30089 40129 70511 82500 333 59013 70000 82616==
41891,2024,11,20,03,00,AAXX 20034 41891 01445 20904 10246 20200 30118 40157 70511 82500 333 20195 59002 70000 82615==
41891,2024,11,20,09,00,AAXX 20094 41891 02456 20802 10300 20170 30066 40104 82800 333 59012 70000 81616==
41891,2024,11,20,12,00,AAXX 20124 41891 01540 10000 10255 20210 30067 40105 70500 81100 333 10302 59010 70000 81825==
41891,2024,11,20,15,00,AAXX 20154 41891 01430 30000 10220 20210 30083 40122 70511 83500 333 59009 70000 83618==
41891,2024,11,20,18,00,AAXX 20184 41891 01430 10000 10218 20210 30084 40123 70511 81500 333 59012 70000 81618==
41891,2024,11,20,21,00,AAXX 20214 41891 01930 00000 10210 20190 30080 40119 70511 82500 333 59011 70000 82618==
41891,2024,11,21,00,00,AAXX 21004 41891 01430 30000 10205 20190 30086 40125 70511 82530 333 59003 70000 82618==
41891,2024,11,21,03,00,AAXX 21034 41891 01445 30902 10245 20200 30110 40149 70511 82530 333 20204 59008 70000 82618==
41891,2024,11,21,06,00,AAXX 21064 41891 01450 30902 10273 20220 30091 40130 70511 83500 333 59004 70000 83616==
41891,2024,11,21,09,00,AAXX 21094 41891 01450 51801 10288 20210 30065 40103 70511 82530 333 59001 70000 82615 85365==
41891,2024,11,21,12,00,AAXX 21124 41891 01930 00000 10243 20190 30073 40111 70510 333 10295 58006 70000==
41891,2024,11,21,15,00,AAXX 21154 41891 01930 00000 10220 20190 30093 40132 70500 333 58010 70000==
41891,2024,11,21,18,00,AAXX 21184 41891 01930 00000 10203 20190 30092 40132 70500 333 58008 70000==
41891,2024,11,21,21,00,AAXX 21214 41891 01930 00000 10200 20190 30088 40128 70500 333 58008 70000==
41895,2024,11,15,00,00,AAXX 15004 41895 01950 00000 10190 20180 30107 40129 70500 333 59006 70000==
41895,2024,11,15,03,00,AAXX 15034 41895 01950 00000 10230 20210 30127 40149 70500 333 20185 59008 70000==
41895,2024,11,15,06,00,AAXX 15064 41895 01950 00000 10285 20210 30112 40134 70500 333 59008 70000==
41895,2024,11,15,09,00,AAXX 15094 41895 01950 03102 10295 20200 30086 40108 70500 333 59007 70000==
41895,2024,11,15,12,00,AAXX 15124 41895 01950 02703 10235 20190 30093 40115 70500 333 10302 59002 70000==
41895,2024,11,15,15,00,AAXX 15154 41895 01950 00000 10202 20190 30107 40130 70500 333 59008 70000==
41895,2024,11,15,18,00,AAXX 15184 41895 02950 02702 10190 20170 30102 40125 333 59015 70000==
41895,2024,11,15,21,00,AAXX 15214 41895 01950 02702 10176 20170 30104 40127 70500 333 59010 70000==
41895,2024,11,16,00,00,AAXX 16004 41895 01950 02702 10162 20150 30105 40128 70500 333 59002 70000==
41895,2024,11,16,03,00,AAXX 16034 41895 01950 03204 10225 20190 30126 40149 70500 333 20158 59001 70000==
41895,2024,11,16,06,00,AAXX 16064 41895 01950 03104 10280 20170 30109 40131 70500 333 59003 70000==
41895,2024,11,16,09,00,AAXX 16094 41895 01956 02702 10286 20160 30083 40106 70500 333 59003 70000==
41895,2024,11,16,12,00,AAXX 16124 41895 01950 02701 10215 20180 30087 40110 70500 333 10295 59006 70000==
41895,2024,11,16,15,00,AAXX 16154 41895 01950 00000 10132 20120 30105 40128 70500 333 59002 70000==
41895,2024,11,16,18,00,AAXX 16184 41895 01950 00000 10163 20150 30101 40124 70500 333 59001 70000==
41895,2024,11,17,00,00,AAXX 17004 41895 01950 00000 10146 20146 30106 40130 70500 333 58001 70000==
41895,2024,11,17,03,00,AAXX 17034 41895 01950 03102 10212 20180 30124 40147 70500 333 20144 59002 70000==
41895,2024,11,17,06,00,AAXX 17064 41895 01/56 42702 10266 20150 30110 40133 70510 84010 333 58001 70000 84458==
41895,2024,11,17,09,00,AAXX 17094 41895 01956 00000 10272 20140 30086 40109 70500 333 58003 70000==
41895,2024,11,17,12,00,AAXX 17124 41895 01950 00000 10205 20180 30088 40111 70500 333 10282 58001 70000==
41895,2024,11,17,15,00,AAXX 17154 41895 01950 00000 10180 20170 30106 40129 70500 333 58001 70000==
41895,2024,11,17,18,00,AAXX 17184 41895 01940 00000 10173 20260 30108 40132 70500 333 58007 70000==
41895,2024,11,17,21,00,AAXX 17214 41895 02940 00000 10163 20160 30105 40128 333 58003 70000==
41895,2024,11,18,00,00,AAXX 18004 41895 01940 00000 10156 20156 30108 40131 70500 333 58002 70000==
41895,2024,11,18,03,00,AAXX 18034 41895 01950 03602 10210 20190 30134 40157 70500 333 20150 58010 70000==
41895,2024,11,18,06,00,AAXX 18064 41895 01956 00520 10267 20170 30122 40145 70500 333 58012 70000==
41895,2024,11,18,09,00,AAXX 18094 41895 01956 03602 10280 20160 30097 40119 70500 333 58011 70000==
41895,2024,11,18,12,00,AAXX 18124 41895 01950 00000 10220 20190 30098 40120 70500 333 10284 58010 70000==
41895,2024,11,18,15,00,AAXX 18154 41895 01950 00000 10202 20190 30115 40138 70500 333 58009 70000==
41895,2024,11,18,21,00,AAXX 18214 41895 01950 00000 10181 20180 30116 40139 70500 333 58011 70000==
41895,2024,11,19,00,00,AAXX 19004 41895 01950 00000 10166 20166 30119 40142 70500 333 58011 70000==
41895,2024,11,19,03,00,AAXX 19034 41895 01/50 20000 10230 20210 30144 40167 70510 82030 333 20165 58010 70000 82362==
41895,2024,11,19,06,00,AAXX 19064 41895 01556 22302 10284 20170 30129 40151 70511 82100 333 58007 70000 82825==
41895,2024,11,19,09,00,AAXX 19094 41895 01556 23102 10295 20180 30103 40125 70511 82100 333 58006 70000 82825==
41895,2024,11,19,12,00,AAXX 19124 41895 01950 00000 10230 20210 30099 40122 70510 333 10298 58001 70000==
41895,2024,11,19,15,00,AAXX 19154 41895 01450 30000 10208 20200 30117 40140 70511 83500 333 58002 70000 83616==
41895,2024,11,19,18,00,AAXX 19184 41895 01950 00000 10195 20190 30115 40138 70510 333 59002 70000==
41895,2024,11,19,21,00,AAXX 19214 41895 01950 00000 10190 20180 30112 40135 70500 333 59004 70000==
41895,2024,11,20,00,00,AAXX 20004 41895 01450 50000 10185 20180 30108 40131 70522 83520 333 59011 70000 83616 85458==
41895,2024,11,20,03,00,AAXX 20034 41895 01956 00501 10246 20190 30135 40158 70520 333 20183 59009 70000==
41895,2024,11,20,06,00,AAXX 20064 41895 02458 43102 10280 20170 30118 40141 84800 333 58011 70000 82616 83825==
41895,2024,11,20,09,00,AAXX 20094 41895 02457 32702 10296 20160 30089 40111 83500 333 59014 70000 83616==
41895,2024,11,20,12,00,AAXX 20124 41895 01450 42701 10233 20190 30090 40113 70511 84800 333 10300 59009 70000 82616 83825==
41895,2024,11,20,15,00,AAXX 20154 41895 01950 02702 10207 20190 30107 40130 70510 333 59010 70000==
41895,2024,11,20,18,00,AAXX 20184 41895 NIL=
41895,2024,11,20,21,00,AAXX 20214 41895 31950 00000 10192 20170 30097 40120 70500 333 59015 70000=
41895,2024,11,21,00,00,AAXX 21004 41895 01950 00000 10173 20160 30106 40129 70500 333 59002 70000==
41895,2024,11,21,03,00,AAXX 21034 41895 01956 03603 10225 20190 30129 40152 70500 333 20168 59006 70000==
41895,2024,11,21,06,00,AAXX 21064 41895 02957 03602 10285 20140 30115 40137 333 59003 70000==
41895,2024,11,21,09,00,AAXX 21094 41895 02957 00000 10283 20150 30089 40111 333 58000 70000==
41895,2024,11,21,12,00,AAXX 21124 41895 01450 30000 10223 20200 30092 40114 70510 83100 333 10298 58002 70000 83825==
41895,2024,11,21,15,00,AAXX 21154 41895 01950 03101 10210 20190 30111 40134 70500 333 58004 70000==
41895,2024,11,21,18,00,AAXX 21184 41895 01950 03101 10196 20190 30109 40132 70500 333 58005 70000==
41895,2024,11,21,21,00,AAXX 21214 41895 01950 00000 10192 20170 30097 40120 70500 333 59015 70000==
41897,2024,11,15,00,00,AAXX 15004 41897 31930 00000 10200 20190 30113 40126 70500 333 58000 70000=
41897,2024,11,15,03,00,AAXX 15034 41897 31930 00000 10240 20220 30134 40147 70500 333 20195 58006 70000=
41897,2024,11,15,06,00,AAXX 15064 41897 31950 00000 10280 20220 30124 40137 70500 333 58006 70000=
41897,2024,11,15,09,00,AAXX 15094 41897 31950 00000 10285 20200 30090 40103 70500 333 59010 70000=
41897,2024,11,15,12,00,AAXX 15124 41897 31945 00000 10240 20210 30097 40111 70500 333 10295 59005 70000=
41897,2024,11,15,15,00,AAXX 15154 41897 31940 00000 10218 20200 30111 40125 70500 333 59001 70000=
41897,2024,11,15,18,00,AAXX 15184 41897 31940 03301 10215 20210 30107 40121 70500 333 59013 70000=
41897,2024,11,15,21,00,AAXX 15214 41897 31930 03501 10203 20190 30103 40116 70500 333 59015 70000=
41897,2024,11,16,00,00,AAXX 16004 41897 31920 00000 10177 20180 30109 40123 71000 333 59008 70000=
41897,2024,11,16,03,00,AAXX 16034 41897 31930 03602 10225 20180 30131 40144 70500 333 20170 59003 70000=
41897,2024,11,16,06,00,AAXX 16064 41897 31940 03601 10275 20140 30109 40123 70500 333 59011 70000=
41897,2024,11,16,09,00,AAXX 16094 41897 31950 03602 10280 20140 30089 40102 70500 333 59001 70000=
41897,2024,11,16,12,00,AAXX 16124 41897 31945 03601 10222 20190 30090 40103 70500 333 10290 59007 70000=
41897,2024,11,16,15,00,AAXX 16154 41897 31940 00000 10195 20190 30111 40124 70500 333 58000 70000=
41897,2024,11,16,18,00,AAXX 16184 41897 NIL=
41897,2024,11,17,00,00,AAXX 17004 41897 31925 00000 10152 20150 30108 40122 70500 333 59001 70000=
41897,2024,11,17,03,00,AAXX 17034 41897 31930 03502 10210 20180 30131 40144 70500 333 20148 58000 70000=
41897,2024,11,17,06,00,AAXX 17064 41897 31945 02001 10265 20130 30116 40129 70500 333 58007 70000=
41897,2024,11,17,09,00,AAXX 17094 41897 31950 01501 10275 20100 30092 40105 70500 333 58003 70000=
41897,2024,11,17,12,00,AAXX 17124 41897 31945 00000 10210 20180 30094 40107 70500 333 10280 58004 70000=
41897,2024,11,17,15,00,AAXX 17154 41897 31940 00000 10180 20170 30113 40126 70500 333 58002 70000=
41897,2024,11,17,18,00,AAXX 17184 41897 31935 00000 10173 20160 30114 40127 70500 333 58008 70000=
41897,2024,11,17,21,00,AAXX 17214 41897 31930 00000 10160 20150 30105 40118 70500 333 58006 70000=
41897,2024,11,18,00,00,AAXX 18004 41897 31925 00000 10155 20155 30118 40131 70500 333 58010 70000=
41897,2024,11,18,03,00,AAXX 18034 41897 31930 00901 10220 20180 30140 40154 70500 333 20152 58009 70000=
41897,2024,11,18,06,00,AAXX 18064 41897 31940 00601 10280 20150 30124 40137 70500 333 59008 70000=
41897,2024,11,18,09,00,AAXX 18094 41897 31940 01401 10282 20140 30103 40116 70500 333 58011 70000=
41897,2024,11,18,12,00,AAXX 18124 41897 31940 00000 10215 20190 30105 40118 70500 333 10290 58009 70000=
41897,2024,11,18,15,00,AAXX 18154 41897 31930 00601 10195 20185 30122 40135 70500 333 58009 70000=
41897,2024,11,18,18,00,AAXX 18184 41897 31930 00901 10180 20180 30128 40142 70500 333 58014 70000=
41897,2024,11,18,21,00,AAXX 18214 41897 31930 00901 10170 20170 30126 40139 70500 333 58021 70000=
41897,2024,11,19,00,00,AAXX 19004 41897 31902 00901 10165 20165 30127 40140 74640 333 58009 70000=
41897,2024,11,19,03,00,AAXX 19034 41897 31930 00901 10235 20210 30150 40163 70540 333 20165 58010 70000=
41897,2024,11,19,06,00,AAXX 19064 41897 31940 20901 10290 20160 30133 40146 70500 82500 333 56900 58009 70000 82618=
41897,2024,11,19,09,00,AAXX 19094 41897 31940 00601 10290 20160 30107 40120 70500 333 58004 70000=
41897,2024,11,19,12,00,AAXX 19124 41897 31930 00000 10215 20190 30105 40119 70500 333 10300 58000 70000=
41897,2024,11,19,15,00,AAXX 19154 41897 31930 00601 10195 20190 30125 40138 70500 333 58003 70000=
41897,2024,11,19,18,00,AAXX 19184 41897 31930 00601 10175 20175 30128 40141 70500 333 58000 70000=
41897,2024,11,19,21,00,AAXX 19214 41897 31930 00901 10172 20170 30123 40136 70500 333 58003 70000=
41897,2024,11,20,00,00,AAXX 20004 41897 31930 00601 10175 20175 30128 40141 70500 333 58000 70000=
41897,2024,11,20,03,00,AAXX 20034 41897 31940 00601 10240 20180 30141 40155 70500 333 20170 59009 70000=
41897,2024,11,20,06,00,AAXX 20064 41897 31940 00601 10290 20130 30120 40133 70500 333 59013 70000=
41897,2024,11,20,09,00,AAXX 20094 41897 31940 00601 10280 20150 30094 40107 70500 333 59013 70000=
41897,2024,11,20,12,00,AAXX 20124 41897 31930 00901 10210 20180 30096 40110 70500 333 10300 59009 70000=
41897,2024,11,20,15,00,AAXX 20154 41897 31930 01401 10190 20170 30114 40127 70500 333 59011 70000=
41897,2024,11,20,18,00,AAXX 20184 41897 NIL=
41897,2024,11,20,21,00,AAXX 20214 41897 31930 00000 10170 20150 30123 40136 70500 333 58000 70000=
41897,2024,11,21,00,00,AAXX 21004 41897 31930 00000 10162 20160 30112 40125 70500 333 59005 70000=
41897,2024,11,21,03,00,AAXX 21034 41897 31940 00901 10245 20180 30136 40150 70500 333 20216 59005 70000=
41897,2024,11,21,06,00,AAXX 21064 41897 31940 00901 10285 20140 30114 40127 70500 333 59006 70000=
41897,2024,11,21,09,00,AAXX 21094 41897 31940 00000 10286 20140 30094 40107 70500 333 58000 70000=
41897,2024,11,21,12,00,AAXX 21124 41897 31930 10000 10216 20190 30099 40113 70500 81300 333 56900 58003 70000 81362=
41897,2024,11,21,15,00,AAXX 21154 41897 31930 00000 10195 20190 30118 40131 70500 333 58004 70000=
41897,2024,11,21,18,00,AAXX 21184 41897 31930 00000 10180 20170 30128 40141 70500 333 58002 70000=
41902,2024,11,15,00,00,AAXX 15004 41902 31930 00000 10206 20206 30114 40123 70544 333 59004 70000=
41902,2024,11,15,03,00,AAXX 15034 41902 31940 02701 10260 20210 30131 40139 70544 333 20206 59007 70000=
41902,2024,11,15,06,00,AAXX 15064 41902 31450 13301 10290 20210 30116 40124 70544 81500 333 56900 59002 70000 81614=
41902,2024,11,15,09,00,AAXX 15094 41902 32456 12701 10305 20200 30088 40097 81500 333 56900 59007 70000 81616=
41902,2024,11,15,12,00,AAXX 15124 41902 31950 02701 10257 20210 30095 40104 70500 333 10314 59003 70000=
41902,2024,11,16,00,00,AAXX 16004 41902 31930 02701 10208 20200 30108 40117 70544 333 59006 70000=
41902,2024,11,16,03,00,AAXX 16034 41902 31940 02701 10242 20210 30128 40137 70544 333 20207 59003 70000=
41902,2024,11,16,06,00,AAXX 16064 41902 31450 12701 10285 20210 30108 40116 70544 81500 333 56900 59008 70000 81616=
41902,2024,11,16,09,00,AAXX 16094 41902 32456 23101 10300 20200 30086 40095 82500 333 56900 59002 70000 82616=
41902,2024,11,16,12,00,AAXX 16124 41902 31950 03101 10247 20210 30088 40097 70500 333 10305 59007 70000=
41902,2024,11,16,15,00,AAXX 16154 41902 NIL=
41902,2024,11,16,18,00,AAXX 16184 41902 NIL=
41902,2024,11,17,00,00,AAXX 17004 41902 31420 12701 10192 20180 30107 40116 71044 81500 333 56900 59001 70000 81615=
41902,2024,11,17,03,00,AAXX 17034 41902 31930 02701 10235 20200 30133 40142 70544 333 20192 58005 70000=
41902,2024,11,17,06,00,AAXX 17064 41902 31440 12201 10282 20180 30116 40125 70544 81500 333 56900 58008 70000 81616=
41902,2024,11,17,09,00,AAXX 17094 41902 31450 22201 10287 20180 30093 40102 70544 82500 333 56900 58007 70000 82615=
41902,2024,11,17,12,00,AAXX 17124 41902 31940 02701 10232 20200 30094 40103 70544 333 10300 58006 70000=
41902,2024,11,17,15,00,AAXX 17154 41902 31940 02701 10225 20200 30114 40123 70544 333 58007 70000=
41902,2024,11,17,18,00,AAXX 17184 41902 31930 02701 10210 20180 30117 40126 70544 333 58015 70000=
41902,2024,11,17,21,00,AAXX 17214 41902 31430 22701 10195 20180 30118 40127 70544 82500 333 56900 58012 70000 82615=
41902,2024,11,18,00,00,AAXX 18004 41902 31420 63101 10192 20170 30122 40131 71044 82530 333 56990 58015 70000 82615 86362=
41902,2024,11,18,03,00,AAXX 18034 41902 31930 23601 10247 20210 30140 40149 70544 82030 333 20190 56090 58007 70000 82362=
41902,2024,11,18,06,00,AAXX 18064 41902 31450 53602 10297 20200 30120 40129 70544 81530 333 56990 58004 70000 81616 85362=
41902,2024,11,18,09,00,AAXX 18094 41902 32456 03601 10292 20160 30103 40111 333 58010 70000=
41902,2024,11,18,12,00,AAXX 18124 41902 31950 02701 10225 20190 30105 40114 70500 333 10305 58011 70000=
41902,2024,11,18,15,00,AAXX 18154 41902 31940 02701 10208 20190 30125 40133 70544 333 58011 70000=
41902,2024,11,18,18,00,AAXX 18184 41902 31940 02701 10195 20180 30129 40138 70544 333 58012 70000=
41902,2024,11,18,21,00,AAXX 18214 41902 31940 02701 10195 20180 30129 40138 70544 333 58012 70000=
41902,2024,11,19,00,00,AAXX 19004 41902 31940 03101 10182 20170 30130 40139 70544 333 58008 70000=
41902,2024,11,19,03,00,AAXX 19034 41902 31450 13601 10252 20220 30150 40159 70544 81500 333 20182 56900 58010 70000 81616=
41902,2024,11,19,06,00,AAXX 19064 41902 31456 20501 10285 20190 30132 40140 70344 82500 333 56900 58012 70000 82616=
41902,2024,11,19,09,00,AAXX 19094 41902 32456 23601 10290 20210 30108 40117 82500 333 56900 58005 70000 82616=
41902,2024,11,19,12,00,AAXX 19124 41902 31440 13201 10240 20210 30105 40114 70544 82500 333 10302 56900 58000 70000 81616=
41902,2024,11,19,15,00,AAXX 19154 41902 31430 13101 10220 20190 30121 40130 70544 81500 333 56900 59004 70000 81616=
41902,2024,11,19,18,00,AAXX 19184 41902 31430 13301 10205 20190 30120 40129 70544 81500 333 56900 59009 70000 81616=
41902,2024,11,20,00,00,AAXX 20004 41902 31440 12801 10190 20180 30129 40138 70544 81500 333 56900 59001 70000 81616=
41902,2024,11,20,06,00,AAXX 20064 41902 31456 12301 10294 20200 30122 40131 70544 81500 333 56900 59010 70000 81616=
41902,2024,11,20,09,00,AAXX 20094 41902 32456 11801 10298 20180 30100 40109 333 81500 333 56900 59008 70000 81616=
41902,2024,11,20,12,00,AAXX 20124 41902 31940 00000 10234 20200 30097 40106 70544 333 10307 59008 70000=
41902,2024,11,20,18,00,AAXX 20184 41902 NIL=
41902,2024,11,20,21,00,AAXX 20214 41902 31930 02401 10180 20170 30106 40115 70544 333 59019 70000=
41902,2024,11,21,00,00,AAXX 21004 41902 31940 03201 10170 20160 30114 40123 71044 333 59014 70000=
41902,2024,11,21,03,00,AAXX 21034 41902 31950 03201 10248 20150 30137 40146 70544 333 20168 59003 70000=
41902,2024,11,21,06,00,AAXX 21064 41902 32956 03201 10278 20200 30117 40126 333 59005 70000=
41902,2024,11,21,09,00,AAXX 21094 41902 32956 02301 10285 20170 30095 40104 333 59005 70000=
41902,2024,11,21,12,00,AAXX 21124 41902 31940 02601 10220 20200 30100 40109 70544 333 10290 58003 70000=
41902,2024,11,21,15,00,AAXX 21154 41902 NIL=
41902,2024,11,21,18,00,AAXX 21184 41902 31940 03201 10187 20180 30114 40123 70544 333 58003 70000=
41907,2024,11,15,00,00,AAXX 15004 41907 01930 00000 10193 20190 30114 40129 70500 333 59002 70000==
41907,2024,11,15,03,00,AAXX 15034 41907 01930 00000 10222 20200 30129 40144 70500 333 20190 59008 70000==
41907,2024,11,15,06,00,AAXX 15064 41907 01940 03603 10290 20190 30112 40126 70500 333 59007 70000==
41907,2024,11,15,09,00,AAXX 15094 41907 01950 00000 10295 20180 30089 40104 70500 333 59006 70000==
41907,2024,11,15,12,00,AAXX 15124 41907 01940 00000 10240 20220 30093 40108 70500 333 10300 59005 70000==
41907,2024,11,15,15,00,AAXX 15154 41907 01940 00000 10218 20210 30109 40124 70500 333 59009 70000==
41907,2024,11,15,18,00,AAXX 15184 41907 01935 00000 10210 20200 30108 40123 70500 333 59013 70000==
41907,2024,11,15,21,00,AAXX 15214 41907 01935 00000 10200 20190 30098 40113 70500 333 59012 70000==
41907,2024,11,16,00,00,AAXX 16004 41907 01935 00000 10174 20160 30107 40123 70500 333 59007 70000==
41907,2024,11,16,03,00,AAXX 16034 41907 01940 03102 10220 20170 30127 40143 70500 333 20170 59002 70000==
41907,2024,11,16,06,00,AAXX 16064 41907 01940 00000 10280 20150 30111 40126 70500 333 59001 70000==
41907,2024,11,16,09,00,AAXX 16094 41907 01940 03602 10290 20140 30087 40102 70500 333 59002 70000==
41907,2024,11,16,12,00,AAXX 16124 41907 01940 00000 10220 20180 30086 40101 70500 333 10295 59007 70000==
41907,2024,11,16,15,00,AAXX 16154 41907 01940 00000 10188 20160 30107 40122 70500 333 59002 70000==
41907,2024,11,16,18,00,AAXX 16184 41907 01940 00000 10178 20150 30111 40126 70500 333 58003 70000==
41907,2024,11,16,21,00,AAXX 16214 41907 01935 00000 10170 20160 30105 40120 70500 333 58007 70000==
41907,2024,11,17,00,00,AAXX 17004 41907 01935 00000 10153 20140 30101 40117 70500 333 59006 70000==
41907,2024,11,17,03,00,AAXX 17034 41907 01940 00000 10205 20180 30127 40142 70500 333 20150 58000 70000==
41907,2024,11,17,06,00,AAXX 17064 41907 01940 03601 10262 20130 30112 40127 70500 333 58001 70000==
41907,2024,11,17,09,00,AAXX 17093 41907 01940 02701 10280 20130 30089 40104 70500 333 58002 70000==
41907,2024,11,17,12,00,AAXX 17124 41907 01940 00000 10207 20190 30090 40106 70500 333 10280 58004 70000==
41907,2024,11,17,15,00,AAXX 17154 41907 01930 00000 10180 20170 30109 40124 70500 333 58002 70000==
41907,2024,11,17,18,00,AAXX 17184 41907 01930 00000 10162 20150 30110 40126 70500 333 59001 70000==
41907,2024,11,17,21,00,AAXX 17214 41907 01930 00000 10156 20150 30112 40127 70500 333 58007 70000==
41907,2024,11,18,00,00,AAXX 18004 41907 01930 00000 10152 20150 30114 40129 70500 333 58013 70000==
41907,2024,11,18,03,00,AAXX 18034 41907 01940 00000 10195 20190 30138 40154 70500 333 20148 58011 70000==
41907,2024,11,18,06,00,AAXX 18064 41907 01950 00000 10270 20150 30122 40137 70500 333 58010 70000==
41907,2024,11,18,09,00,AAXX 18094 41907 01950 00000 10285 20160 30099 40114 70500 333 58010 70000==
41907,2024,11,18,12,00,AAXX 18124 41907 01940 00000 10220 20200 30100 40115 70500 333 10292 58010 70000==
41907,2024,11,18,15,00,AAXX 18154 41907 01940 00000 10185 20180 30119 40134 70500 333 58010 70000==
41907,2024,11,18,18,00,AAXX 18184 41907 01935 00000 10180 20170 30126 40141 70500 333 58016 70000==
41907,2024,11,18,21,00,AAXX 18214 41907 01935 00000 10170 20160 30119 40134 70500 333 58007 70000==
41907,2024,11,19,00,00,AAXX 19004 41907 31935 00000 10164 20160 30122 40137 70500 333 58008 70000=
41907,2024,11,19,03,00,AAXX 19034 41907 01940 00000 10210 20200 30146 40161 70500 333 20160 58008 70000==
41907,2024,11,19,06,00,AAXX 19064 41907 02440 30000 10280 20160 30130 40145 83800 333 58008 70000==
41907,2024,11,19,09,00,AAXX 19094 41907 01950 03602 10292 20140 30105 40120 70500 333 58006 70000==
41907,2024,11,19,12,00,AAXX 19124 41907 01940 00000 10228 20190 30100 40115 70500 333 10298 58000 70000==
41907,2024,11,19,15,00,AAXX 19154 41907 01940 00000 10205 20195 30118 40133 70500 333 59001 70000==
41907,2024,11,19,18,00,AAXX 19184 41907 01435 20000 10196 20190 30123 40138 70500 82500 333 59003 70000 82615==
41907,2024,11,19,21,00,AAXX 19214 41907 01435 20000 10188 20170 30114 40129 70500 82500 333 59005 70000 82615==
41907,2024,11,20,00,00,AAXX 20004 41907 01930 00000 10174 20170 30115 40130 70500 333 59007 70000==
41907,2024,11,20,03,00,AAXX 20034 41907 01940 03602 10220 20180 30138 40153 70500 333 20170 59008 70000==
41907,2024,11,20,09,00,AAXX 20094 41907 01450 33602 10290 20140 30093 40108 70500 83800 333 59012 70000 82615==
41907,2024,11,20,12,00,AAXX 20124 41907 01940 00000 10225 20200 30091 40106 70500 333 10295 59009 70000==
41907,2024,11,20,15,00,AAXX 20154 41907 01440 20000 10204 20190 30109 40124 70500 82500 333 59009 70000 82615==
41907,2024,11,20,18,00,AAXX 20184 41907 01935 00000 10190 20180 30114 40130 70500 333 59009 70000==
41907,2024,11,20,21,00,AAXX 20214 41907 01930 00000 10183 20170 30108 40124 70500 333 59006 70000==
41907,2024,11,21,00,00,AAXX 21004 41907 01930 00000 10176 20170 30106 40121 70500 333 59009 70000==
41907,2024,11,21,03,00,AAXX 21034 41907 01940 00000 10215 20200 30132 40147 70500 333 20167 59006 70000==
41907,2024,11,21,06,00,AAXX 21064 41907 01440 40000 10280 20120 30116 40130 70500 84800 333 59005 70000 82615==
41907,2024,11,21,09,00,AAXX 21094 41907 01440 40000 10290 20140 30091 40106 70511 84800 333 59002 70000 82615==
41907,2024,11,21,12,00,AAXX 21124 41907 01940 00000 10215 20180 30095 40111 70511 333 10300 58004 70000==
41907,2024,11,21,15,00,AAXX 21154 41907 01930 00000 10195 20180 30114 40129 70500 333 58005 70000==
41907,2024,11,21,18,00,AAXX 21184 41907 01930 00000 10185 20180 30116 40131 70500 333 58002 70000==
41907,2024,11,21,21,00,AAXX 21214 41907 01930 00000 10182 20170 30113 40128 70500 333 58005 70000==
41909,2024,11,15,00,00,AAXX 15004 41909 01950 00000 10203 20190 30111 40123 70500 333 59006 70000==
41909,2024,11,15,03,00,AAXX 15034 41909 01950 00000 10240 20210 30140 40140 70500 333 20190 59008 70000==
41909,2024,11,15,06,00,AAXX 15064 41909 02956 00000 10294 20200 30116 40127 333 58000 70000==
41909,2024,11,15,09,00,AAXX 15094 41909 02956 00000 10308 20170 30089 40100 333 59003 70000==
41909,2024,11,15,12,00,AAXX 15124 41909 02940 00000 10255 20210 30087 40098 333 10312 59011 70000==
41909,2024,11,15,15,00,AAXX 15154 41909 02940 00000 10230 20210 30109 40121 333 59010 70000==
41909,2024,11,15,21,00,AAXX 15214 41909 01940 00000 10215 20210 30112 40125 70500 333 59001 70000==
41909,2024,11,16,00,00,AAXX 16004 41909 01940 00000 10200 20190 30100 40112 70500 333 59011 70000==
41909,2024,11,16,03,00,AAXX 16034 41909 01950 00000 10230 20190 30127 40139 70500 333 20186 59001 70000==
41909,2024,11,16,06,00,AAXX 16064 41909 02956 02702 10282 20170 30112 40123 333 59004 70000==
41909,2024,11,16,09,00,AAXX 16094 41909 02956 00000 10295 20170 30088 40099 333 59001 70000==
41909,2024,11,16,12,00,AAXX 16124 41909 02950 00000 10235 20190 30087 40099 333 10300 58000 70000==
41909,2024,11,16,15,00,AAXX 16154 41909 01940 00000 10201 20170 30107 40119 70500 333 59002 70000==
41909,2024,11,16,18,00,AAXX 16184 41909 01930 00000 10193 20170 30104 40116 70500 333 59012 70000==
41909,2024,11,17,00,00,AAXX 17004 41909 01940 00000 10170 20160 30102 40114 70500 333 59002 70000==
41909,2024,11,17,03,00,AAXX 17034 41909 01950 00000 10217 20170 30126 40138 70500 333 20156 59001 70000==
41909,2024,11,17,06,00,AAXX 17064 41909 02956 00000 10277 20120 30118 40129 333 58006 70000==
41909,2024,11,17,09,00,AAXX 17094 41909 02956 02302 10294 20110 30092 40103 333 58004 70000==
41909,2024,11,17,12,00,AAXX 17124 41909 02940 00000 10214 20150 30092 40104 333 10300 58005 70000==
41909,2024,11,17,15,00,AAXX 17154 41909 02940 00000 10189 20170 30113 40125 333 58006 70000==
41909,2024,11,17,18,00,AAXX 17184 41909 02940 00000 10182 20160 30115 40125 333 58011 70000==
41909,2024,11,17,21,00,AAXX 17214 41909 02940 00000 10174 20160 30111 40123 333 58012 70000==
41909,2024,11,18,00,00,AAXX 18004 41909 01940 00000 10169 20260 30115 40127 70500 333 58013 70000==
41909,2024,11,18,03,00,AAXX 18034 41909 01950 00000 10220 20170 30136 40148 70500 333 20158 58010 70000==
41909,2024,11,18,06,00,AAXX 18064 41909 02956 01802 10284 20150 30126 40137 333 58008 70000==
41909,2024,11,18,09,00,AAXX 18094 41909 02456 50000 10294 20140 30102 40113 82530 333 58010 70000 82615 85360==
41909,2024,11,18,12,00,AAXX 18124 41909 02940 00000 10232 20190 30101 40113 333 10300 58009 70000==
41909,2024,11,18,15,00,AAXX 18154 41909 02940 00000 10212 20190 30120 40132 333 58007 70000==
41909,2024,11,18,18,00,AAXX 18184 41909 01940 00000 10200 20180 30127 40139 70500 333 58012 70000==
41909,2024,11,18,21,00,AAXX 18214 41909 01940 00000 10180 20170 30120 40132 70500 333 58009 70000==
41909,2024,11,19,00,00,AAXX 19004 41909 01950 00000 10174 20160 30125 40137 70500 333 58010 70000==
41909,2024,11,19,03,00,AAXX 19034 41909 01950 00000 10231 20180 30146 40158 70500 333 20160 58010 70000==
41909,2024,11,19,06,00,AAXX 19064 41909 02956 00000 10285 20160 30134 40145 333 58008 70000==
41909,2024,11,19,09,00,AAXX 19094 41909 02956 00000 10300 20160 30107 40118 333 58005 70000==
41909,2024,11,19,12,00,AAXX 19124 41909 02950 00000 10235 20180 30103 40115 333 10307 58002 70000==
41909,2024,11,19,15,00,AAXX 19154 41909 01930 00000 10205 20180 30119 40131 70500 333 59001 70000==
41909,2024,11,19,18,00,AAXX 19184 41909 01930 00000 10198 20180 30124 40136 70500 333 59003 70000==
41909,2024,11,19,21,00,AAXX 19214 41909 01930 00000 10185 20170 30110 40122 70500 333 59010 70000==
41909,2024,11,20,00,00,AAXX 20004 41909 01940 00000 10175 20170 30114 40126 70500 333 59011 70000==
41909,2024,11,20,03,00,AAXX 20034 41909 01950 00000 10230 20170 30140 40152 70500 333 20158 59007 70000==
41909,2024,11,20,06,00,AAXX 20064 41909 02956 00000 10290 20160 30129 40140 333 59005 70000==
41909,2024,11,20,09,00,AAXX 20094 41909 02956 00000 10299 20140 30094 40105 333 59013 70000==
41909,2024,11,20,12,00,AAXX 20124 41909 02940 00000 10224 20170 30095 40107 333 10305 59008 70000==
41909,2024,11,20,15,00,AAXX 20154 41909 02940 00000 10194 20170 30112 40124 333 59007 70000==
41909,2024,11,20,18,00,AAXX 20184 41909 02940 00000 10182 20160 30116 40128 333 59008 70000==
41909,2024,11,20,21,00,AAXX 20214 41909 32440 20000 10174 20160 30106 40118 82500 333 56200 59004 70000 82618=
41909,2024,11,21,00,00,AAXX 21004 41909 01440 20000 10172 20160 30110 40122 70500 82500 333 59004 70000 82615==
41909,2024,11,21,03,00,AAXX 21034 41909 01950 00000 10227 20170 30134 40146 70500 333 20164 58006 70000==
41909,2024,11,21,06,00,AAXX 21064 41909 02956 00000 10282 20120 30119 40130 333 59010 70000==
41909,2024,11,21,09,00,AAXX 21094 41909 02456 20000 10288 20140 30094 40105 82500 333 58000 70000 82618==
41909,2024,11,21,12,00,AAXX 21124 41909 02940 00000 10225 20170 30097 40109 333 10298 58002 70000==
41909,2024,11,21,15,00,AAXX 21154 41909 02940 00000 10205 20170 30116 40128 333 58004 70000==
41909,2024,11,21,18,00,AAXX 21184 41909 02940 00000 10194 20170 30118 40130 333 58002 70000==
41909,2024,11,21,21,00,AAXX 21214 41909 02440 20000 10174 20160 30106 40118 82500 333 59004 70000 82618==
41915,2024,11,15,00,00,AAXX 15004 41915 01/25 20000 10178 20178 30098 40124 71041 82030 333 59002 70000 82364==
41915,2024,11,15,03,00,AAXX 15034 41915 01940 03201 10260 20210 30114 40139 70541 333 20187 59008 70000==
41915,2024,11,15,06,00,AAXX 15064 41915 01450 33201 10296 20200 30096 40121 70541 81430 333 59001 70000 81828 83364==
41915,2024,11,15,09,00,AAXX 15094 41915 02556 10000 10307 20180 30072 40097 81100 333 59006 70000 81822==
41915,2024,11,15,12,00,AAXX 15124 41915 02550 10000 10236 20210 30080 40106 81100 333 10316 59005 70000 81822==
41915,2024,11,15,15,00,AAXX 15154 41915 01940 01301 10205 20200 30097 40123 70510 333 59002 70000==
41915,2024,11,15,18,00,AAXX 15184 41915 01940 00000 10195 20190 30093 40119 70510 333 59007 70000==
41915,2024,11,15,21,00,AAXX 15214 41915 01940 00000 10188 20180 30093 40119 70500 333 59005 70000==
41915,2024,11,16,00,00,AAXX 16004 41915 01940 00000 10182 20180 30093 40119 70500 333 59005 70000==
41915,2024,11,16,03,00,AAXX 16034 41915 01950 00000 10248 20210 30112 40137 70500 333 20182 59002 70000==
41915,2024,11,16,06,00,AAXX 16064 41915 01450 31301 10300 20180 30091 40116 70510 81510 333 58005 70000 81618 83460==
41915,2024,11,16,09,00,AAXX 16094 41915 01450 20000 10300 20190 30073 40098 70510 81510 333 58001 70000 81618 82460==
41915,2024,11,16,12,00,AAXX 16124 41915 01950 00000 10243 20210 30071 40097 70510 333 10317 59009 70000==
41915,2024,11,16,15,00,AAXX 16154 41915 01940 00000 10210 20200 30093 40119 70500 333 59009 70000==
41915,2024,11,16,18,00,AAXX 16184 41915 01930 00000 10195 20190 30090 40116 70500 333 59003 70000==
41915,2024,11,17,00,00,AAXX 17004 41915 01425 50000 10180 20180 30093 40119 71042 82530 333 58000 70000 82618 85365==
41915,2024,11,17,03,00,AAXX 17034 41915 01950 50000 10243 20210 30116 40142 70542 333 20178 58004 70000==
41915,2024,11,17,06,00,AAXX 17064 41915 01450 50000 10287 20210 30100 40125 70542 82510 333 58009 70000 82618 85460==
41915,2024,11,17,09,00,AAXX 17094 41915 02456 20000 10295 20200 30077 40102 82400 333 58004 70000 81617==
41915,2024,11,17,12,00,AAXX 17124 41915 01450 20000 10240 20210 30078 40104 70521 82400 333 10310 58007 70000 81618==
41915,2024,11,17,15,00,AAXX 17154 41915 01950 00000 10196 20196 30100 40125 70521 333 58007 70000==
41915,2024,11,17,18,00,AAXX 17184 41915 01950 00000 10184 20180 30102 40128 70520 333 58012 70000==
41915,2024,11,17,21,00,AAXX 17214 41915 01940 00000 10171 20170 30098 40124 70500 333 58016 70000==
41915,2024,11,18,00,00,AAXX 18004 41915 01908 00000 10160 20160 30108 40134 74640 333 58015 70000==
41915,2024,11,18,03,00,AAXX 18034 41915 01956 03402 10240 20210 30127 40152 70240 333 20156 58011 70000==
41915,2024,11,18,06,00,AAXX 18064 41915 01456 13402 10290 20170 30106 40131 70341 81400 333 58006 70000 81617==
41915,2024,11,18,09,00,AAXX 18094 41915 02956 00000 10300 20160 30085 40110 333 58008 70000==
41915,2024,11,18,12,00,AAXX 18124 41915 02950 00000 10240 20210 30087 40112 333 10310 58009 70000==
41915,2024,11,18,18,00,AAXX 18184 41915 02950 00000 10170 20170 30118 40144 333 58015 70000==
41915,2024,11,18,21,00,AAXX 18214 41915 01940 00000 10160 20160 30013 40139 70500 333 58015 70000==
41915,2024,11,19,00,00,AAXX 19004 41915 01940 00000 10150 20150 30116 40142 70500 333 58008 70000==
41915,2024,11,19,03,00,AAXX 19034 41915 NIL=
41915,2024,11,19,06,00,AAXX 19064 41915 02956 03601 10295 20190 30114 40139 333 58008 70000==
41915,2024,11,19,09,00,AAXX 19094 41915 02456 10000 10302 20180 30089 40114 81500 333 58004 70000 81617==
41915,2024,11,19,12,00,AAXX 19124 41915 02950 00000 10241 20210 30091 40116 333 10310 58003 70000==
41915,2024,11,19,15,00,AAXX 19154 41915 01950 00000 10205 20200 30109 40135 70500 333 59003 70000==
41915,2024,11,19,21,00,AAXX 19214 41915 01940 00000 10180 20170 30103 40129 70500 333 59010 70000==
41915,2024,11,20,00,00,AAXX 20004 41915 01540 10000 10176 20176 30108 40134 70510 81100 333 59008 70000 81822==
41915,2024,11,20,03,00,AAXX 20034 41915 02556 10501 10250 20210 30127 40152 81100 333 20175 59002 70000 81822==
41915,2024,11,20,06,00,AAXX 20064 41915 02456 50502 10295 20200 30110 40135 84430 333 59004 70000 83616==
41915,2024,11,20,09,00,AAXX 20094 41915 02456 40000 10310 20190 30080 40105 84400 333 59009 70000 82616==
41915,2024,11,20,12,00,AAXX 20124 41915 01450 20000 10245 20220 30083 40108 70521 82400 333 10320 59008 70000 81616==
41915,2024,11,20,15,00,AAXX 20154 41915 01450 50000 10205 20200 30101 40127 70522 85430 333 59008 70000 84615==
41915,2024,11,20,18,00,AAXX 20184 41915 NIL=
41915,2024,11,20,21,00,AAXX 20214 41915 31440 30000 10185 20185 30095 40121 70521 82530 333 56990 59008 70000 82616=
41915,2024,11,21,00,00,AAXX 21004 41915 01435 20000 10170 20170 30105 40131 70521 81530 333 59003 70000 81616==
41915,2024,11,21,03,00,AAXX 21034 41915 02956 00000 10250 20200 30126 40151 333 20169 59001 70000==
41915,2024,11,21,06,00,AAXX 21064 41915 02956 01801 10295 20160 30103 40128 333 59007 70000==
41915,2024,11,21,09,00,AAXX 21094 41915 02956 01801 10296 20170 30083 40108 333 58003 70000==
41915,2024,11,21,12,00,AAXX 21124 41915 01950 00000 10220 20200 30088 40113 70500 333 10306 58005 70000==
41915,2024,11,21,15,00,AAXX 21154 41915 NIL=
41915,2024,11,21,18,00,AAXX 21184 41915 01950 00000 10172 20170 30104 40134 70500 333 58004 70000==
41915,2024,11,21,21,00,AAXX 21214 41915 01440 30000 10185 20185 30095 40121 70521 82530 333 59008 70000 82616==
41923,2024,11,15,00,00,AAXX 15004 41923 01940 00000 10222 20200 30115 40125 70500 333 59006 70000==
41923,2024,11,15,03,00,AAXX 15034 41923 01950 02802 10262 20200 30133 40142 70500 333 20221 59007 70000==
41923,2024,11,15,06,00,AAXX 15064 41923 01450 12802 10298 20180 30115 40125 70500 81500 333 59006 70000 81616==
41923,2024,11,15,09,00,AAXX 15094 41923 02450 12802 10306 20160 30092 40102 81500 333 59002 70000 81616==
41923,2024,11,15,12,00,AAXX 15124 41923 01940 00000 10267 20180 30098 40107 70500 333 10312 59005 70000==
41923,2024,11,15,15,00,AAXX 15154 41923 01940 00000 10256 20190 30114 40123 70500 333 59008 70000==
41923,2024,11,15,18,00,AAXX 15184 41923 01940 00000 10248 20200 30110 40120 70500 333 59010 70000==
41923,2024,11,15,21,00,AAXX 15214 41923 01940 00000 10236 20200 30106 40115 70500 333 59008 70000==
41923,2024,11,16,00,00,AAXX 16004 41923 01935 00000 10222 20180 30111 40121 70500 333 59004 70000==
41923,2024,11,16,03,00,AAXX 16034 41923 01940 02702 10263 20170 30131 40140 70500 333 20219 59002 70000==
41923,2024,11,16,06,00,AAXX 16064 41923 01950 02802 10293 20150 30112 40122 70500 333 59003 70000==
41923,2024,11,16,09,00,AAXX 16094 41923 01950 02702 10304 20130 30089 40099 70500 333 59003 70000==
41923,2024,11,16,12,00,AAXX 16124 41923 01940 00000 10268 20170 30091 40100 70500 333 10305 59007 70000==
41923,2024,11,16,15,00,AAXX 16154 41923 01940 00000 10254 20140 30112 40121 70500 333 59002 70000==
41923,2024,11,16,18,00,AAXX 16184 41923 01940 00000 10242 20150 30108 40117 70500 333 59002 70000==
41923,2024,11,16,21,00,AAXX 16214 41923 01940 00000 10228 20150 30106 40116 70500 333 58000 70000==
41923,2024,11,17,00,00,AAXX 17004 41923 01/35 20000 10220 20150 30107 40117 70500 82030 333 59004 70000 82360==
41923,2024,11,17,03,00,AAXX 17034 41923 01/40 20000 10254 20140 30136 40145 70500 82030 333 20200 58005 70000 82360==
41923,2024,11,17,06,00,AAXX 17064 41923 01/50 22702 10286 20120 30117 40127 70500 82030 333 58005 70000 82360==
41923,2024,11,17,09,00,AAXX 17093 41923 01950 00000 10302 20090 30094 40104 70500 333 58005 70000==
41923,2024,11,17,12,00,AAXX 17124 41923 01940 00000 10240 20120 30097 40106 70500 333 10304 58006 70000==
41923,2024,11,17,15,00,AAXX 17154 41923 01940 00000 10223 20130 30116 40126 70500 333 58004 70000==
41923,2024,11,17,18,00,AAXX 17184 41923 01940 00000 10208 20150 30122 40132 70500 333 58014 70000==
41923,2024,11,17,21,00,AAXX 17214 41923 01940 00000 10194 20150 30117 40127 70500 333 58011 70000==
41923,2024,11,18,00,00,AAXX 18004 41923 01940 00000 10184 20140 30122 40132 70500 333 58015 70000==
41923,2024,11,18,03,00,AAXX 18034 41923 01950 00000 10255 20130 30144 40153 70500 333 20180 58008 70000==
41923,2024,11,18,06,00,AAXX 18064 41923 02956 00000 10295 20140 30127 40137 333 58010 70000==
41923,2024,11,18,09,00,AAXX 18094 41923 02/50 20000 10298 20120 30105 40115 82030 333 58011 70000 82365==
41923,2024,11,18,12,00,AAXX 18124 41923 01440 20000 10250 20160 30108 40117 70500 81530 333 10302 58011 70000 81616==
41923,2024,11,18,15,00,AAXX 18154 41923 01940 00000 10221 20170 30123 40133 70500 333 58007 70000==
41923,2024,11,18,18,00,AAXX 18184 41923 01940 00000 10207 20170 30133 40143 70500 333 58011 70000==
41923,2024,11,18,21,00,AAXX 18214 41923 01940 00000 10195 20180 30128 40138 70500 333 58011 70000==
41923,2024,11,19,00,00,AAXX 19004 41923 31940 00000 10187 20180 30130 40140 70500 333 58008 70000=
41923,2024,11,19,03,00,AAXX 19034 41923 01945 00000 10274 20150 30152 40161 70500 333 20185 58008 70000==
41923,2024,11,19,06,00,AAXX 19064 41923 02950 00000 10290 20130 30137 40147 333 58010 70000==
41923,2024,11,19,09,00,AAXX 19094 41923 02956 00000 10300 20120 30107 40117 333 58002 70000==
41923,2024,11,19,12,00,AAXX 19124 41923 02950 00000 10254 20150 30108 40118 333 10304 58000 70000==
41923,2024,11,19,15,00,AAXX 19154 41923 01945 00000 10222 20170 30125 40135 70500 333 58002 70000==
41923,2024,11,19,18,00,AAXX 19184 41923 01935 00000 10210 20170 30126 40136 70500 333 59007 70000==
41923,2024,11,19,21,00,AAXX 19214 41923 01940 00000 10200 20180 30118 40128 70500 333 59010 70000==
41923,2024,11,20,00,00,AAXX 20004 41923 01940 00000 10192 20180 30120 40130 70500 333 59010 70000==
41923,2024,11,20,03,00,AAXX 20034 41923 01450 20000 10262 20170 30144 40153 70500 81430 333 20190 59008 70000 81616==
41923,2024,11,20,06,00,AAXX 20064 41923 NIL=
41923,2024,11,20,09,00,AAXX 20094 41923 02950 00000 10304 20100 30090 40109 333 59008 70000==
41923,2024,11,20,12,00,AAXX 20124 41923 02950 00000 10252 20140 30100 40109 333 10307 59008 70000==
41923,2024,11,20,15,00,AAXX 20154 41923 01945 00000 10214 20160 30119 40129 70500 333 59006 70000==
41923,2024,11,20,18,00,AAXX 20184 41923 01940 00000 10204 20160 30120 40130 70500 333 59006 70000==
41923,2024,11,20,21,00,AAXX 20214 41923 01940 00000 10192 20170 30110 40120 70500 333 59008 70000==
41923,2024,11,21,00,00,AAXX 21004 41923 01940 00000 10186 20170 30115 40125 70500 333 59005 70000==
41923,2024,11,21,03,00,AAXX 21034 41923 01940 00000 10258 20160 30140 40149 70500 333 20183 59004 70000==
41923,2024,11,21,06,00,AAXX 21064 41923 02950 00000 10302 20100 30121 40131 333 59004 70000==
41923,2024,11,21,09,00,AAXX 21094 41923 02950 00000 10298 20100 30098 40108 333 59001 70000==
41923,2024,11,21,12,00,AAXX 21124 41923 01/40 20000 10245 20160 30103 40112 70500 82030 333 10305 58003 70000 82360==
41923,2024,11,21,15,00,AAXX 21154 41923 01/40 20000 10221 20170 30120 40130 70500 82030 333 58001 70000 82360==
41923,2024,11,21,18,00,AAXX 21184 41923 01940 00000 10207 20180 30125 40135 70500 333 58005 70000==
41923,2024,11,21,21,00,AAXX 21214 41923 01940 00000 10200 20170 30118 40128 70500 333 58008 70000==
41926,2024,11,15,00,00,AAXX 15004 41926 01940 00000 10175 20170 30116 40130 70500 333 59009 70000==
41926,2024,11,15,03,00,AAXX 15034 41926 01950 00000 10222 20190 30133 40147 70500 333 20175 59005 70000==
41926,2024,11,15,06,00,AAXX 15064 41926 01956 00000 10290 20180 30117 40131 70500 333 59008 70000==
41926,2024,11,15,09,00,AAXX 15094 41926 01956 00000 10298 20170 30092 40106 70500 333 59006 70000==
41926,2024,11,15,12,00,AAXX 15124 41926 01950 00000 10240 20220 30096 40110 70500 333 10305 59004 70000==
41926,2024,11,15,15,00,AAXX 15154 41926 01950 00000 10210 20200 30112 40126 70500 333 59010 70000==
41926,2024,11,15,18,00,AAXX 15184 41926 01950 00000 10200 20190 30107 40121 70500 333 59012 70000==
41926,2024,11,15,21,00,AAXX 15214 41926 01950 00000 10180 20170 30107 40121 70500 333 59005 70000==
41926,2024,11,16,00,00,AAXX 16004 41926 01940 00000 10165 20160 30111 40125 70500 333 59005 70000==
41926,2024,11,16,03,00,AAXX 16034 41926 01940 00000 10210 20200 30130 40144 70500 333 20163 59003 70000==
41926,2024,11,16,06,00,AAXX 16064 41926 01950 03101 10276 20150 30116 40130 70500 333 59001 70000==
41926,2024,11,16,09,00,AAXX 16094 41926 02956 00000 10283 20130 30089 40103 333 59003 70000==
41926,2024,11,16,12,00,AAXX 16124 41926 01950 00000 10220 20200 30088 40102 70500 333 10298 59008 70000==
41926,2024,11,16,15,00,AAXX 16154 41926 01940 00000 10186 20180 30109 40123 70500 333 59003 70000==
41926,2024,11,16,18,00,AAXX 16184 41926 01940 00000 10170 20160 30105 40119 70500 333 59002 70000==
41926,2024,11,17,00,00,AAXX 17004 41926 01940 00000 10158 20150 30106 40120 70500 333 59005 70000==
41926,2024,11,17,03,00,AAXX 17034 41926 01950 00000 10200 20150 30131 40145 70500 333 20158 58001 70000==
41926,2024,11,17,06,00,AAXX 17064 41926 01950 00000 10262 20160 30118 40132 70500 333 58002 70000==
41926,2024,11,17,09,00,AAXX 17094 41926 02950 00000 10277 20150 30091 40105 333 58002 70000==
41926,2024,11,17,12,00,AAXX 17124 41926 01940 00000 10220 20190 30092 40106 70500 333 10284 58004 70000==
41926,2024,11,17,15,00,AAXX 17154 41926 01940 00000 10184 20170 30110 40124 70500 333 58001 70000==
41926,2024,11,17,18,00,AAXX 17184 41926 01940 00000 10168 20160 30112 40126 70500 333 58007 70000==
41926,2024,11,17,21,00,AAXX 17214 41926 01940 00000 10155 20150 30112 40126 70500 333 58009 70000==
41926,2024,11,18,00,00,AAXX 18004 41926 01930 00000 10145 20140 30115 40129 70500 333 58004 70000==
41926,2024,11,18,03,00,AAXX 18034 41926 01940 00000 10188 20180 30136 40150 70500 333 20142 59005 70000==
41926,2024,11,18,06,00,AAXX 18064 41926 01956 00000 10270 20130 30124 40138 70500 333 58006 70000==
41926,2024,11,18,09,00,AAXX 18094 41926 02956 00000 10278 20120 30103 40117 333 58012 70000==
41926,2024,11,18,12,00,AAXX 18124 41926 01950 00000 10216 20190 30101 40115 70500 333 10290 58009 70000==
41926,2024,11,18,15,00,AAXX 18154 41926 01940 00000 10183 20170 30122 40136 70500 333 58013 70000==
41926,2024,11,18,18,00,AAXX 18184 41926 01930 00000 10168 20160 30127 40141 70500 333 58015 70000==
41926,2024,11,18,21,00,AAXX 18214 41926 01930 00000 10162 20150 30124 40138 70500 333 58012 70000==
41926,2024,11,19,00,00,AAXX 19004 41926 01930 00000 10158 20150 30124 40138 70500 333 58009 70000==
41926,2024,11,19,03,00,AAXX 19034 41926 01940 00000 10213 20180 30148 40162 70500 333 20156 58012 70000==
41926,2024,11,19,06,00,AAXX 19064 41926 01450 10000 10278 20140 30134 40148 70500 81500 333 58010 70000 81618==
41926,2024,11,19,09,00,AAXX 19094 41926 02956 00000 10283 20190 30106 40120 333 58003 70000==
41926,2024,11,19,12,00,AAXX 19124 41926 01950 00000 10215 20200 30104 40118 70500 333 10297 58003 70000==
41926,2024,11,19,15,00,AAXX 19154 41926 01950 00000 10195 20195 30123 40137 70500 333 58001 70000==
41926,2024,11,19,18,00,AAXX 19184 41926 01/50 20000 10186 20180 30121 40135 70500 82030 333 59006 70000 82362==
41926,2024,11,19,21,00,AAXX 19214 41926 01950 00000 10180 20170 30122 40136 70500 333 59002 70000==
41926,2024,11,20,00,00,AAXX 20004 41926 01940 00000 10167 20160 30120 40134 70500 333 59004 70000==
41926,2024,11,20,03,00,AAXX 20034 41926 01950 00000 10216 20200 30139 40153 70500 333 20167 59009 70000==
41926,2024,11,20,06,00,AAXX 20064 41926 01456 20000 10285 20140 30125 40139 70500 82500 333 59009 70000 82618==
41926,2024,11,20,09,00,AAXX 20094 41926 02/56 20000 10288 20120 30094 40108 82030 333 59012 70000 82362==
41926,2024,11,20,12,00,AAXX 20124 41926 01950 00000 10233 20180 30096 40110 70500 333 10305 59008 70000==
41926,2024,11,20,15,00,AAXX 20154 41926 01950 00000 10220 20190 30113 40127 70500 333 59010 70000==
41926,2024,11,20,18,00,AAXX 20184 41926 01950 00000 10208 20200 30116 40130 70500 333 59005 70000==
41926,2024,11,20,21,00,AAXX 20214 41926 31950 00000 10190 20180 30115 40129 70500 333 59007 70000=
41926,2024,11,21,00,00,AAXX 21004 41926 01/50 20000 10177 20170 30117 40131 70500 82030 333 59003 70000 82362==
41926,2024,11,21,03,00,AAXX 21034 41926 01/50 40000 10213 20180 30134 40148 70510 84030 333 20175 59005 70000 84362==
41926,2024,11,21,06,00,AAXX 21064 41926 01456 10000 10282 20180 30120 40134 70510 81500 333 59005 70000 81618==
41926,2024,11,21,09,00,AAXX 21094 41926 01456 20000 10290 20140 30094 40108 70500 82500 333 58000 70000 82618==
41926,2024,11,21,12,00,AAXX 21124 41926 01950 00000 10230 20210 30096 40110 70500 333 10300 58000 70000==
41926,2024,11,21,15,00,AAXX 21154 41926 01950 00000 10190 20180 30117 40131 70500 333 58004 70000==
41926,2024,11,21,18,00,AAXX 21184 41926 01950 00000 10180 20170 30118 40132 70500 333 58002 70000==
41926,2024,11,21,21,00,AAXX 21214 41926 01950 00000 10190 20180 30115 40129 70500 333 59007 70000==
41927,2024,11,15,00,00,AAXX 15004 41927 31940 02701 10196 20196 30116 40130 70500 333 58013 70000=
41927,2024,11,15,03,00,AAXX 15034 41927 32956 02701 10240 20220 30131 40135 333 20196 59003 70000=
41927,2024,11,15,06,00,AAXX 15064 41927 32958 02701 10290 20190 30112 40127 333 59006 70000=
41927,2024,11,15,09,00,AAXX 15094 41927 32958 00000 10292 20190 30088 40103 333 59005 70000=
41927,2024,11,15,12,00,AAXX 15124 41927 31950 00000 10236 20220 30096 40110 70500 333 10296 59005 70000=
41927,2024,11,15,15,00,AAXX 15154 41927 31950 00000 10214 20200 30113 40127 70500 333 59003 70000=
41927,2024,11,15,21,00,AAXX 15214 41927 31940 00000 10200 20190 30113 40127 70500 333 58000 70000=
41927,2024,11,16,00,00,AAXX 16004 41927 31940 02701 10195 20195 30114 40128 70500 333 59002 70000=
41927,2024,11,16,03,00,AAXX 16034 41927 32956 00000 10226 20200 30133 40147 333 20192 58002 70000=
41927,2024,11,16,09,00,AAXX 16094 41927 32958 00000 10288 20140 30086 40101 333 59002 70000=
41927,2024,11,16,15,00,AAXX 16154 41927 31950 00000 10194 20180 30108 40122 70500 333 59005 70000=
41927,2024,11,16,18,00,AAXX 16184 41927 NIL=
41927,2024,11,17,00,00,AAXX 17004 41927 31940 02701 10170 20170 30113 40127 70500 333 59001 70000=
41927,2024,11,17,03,00,AAXX 17034 41927 31950 02701 10210 20180 30126 40141 70500 333 20170 59007 70000=
41927,2024,11,17,06,00,AAXX 17064 41927 32957 03601 10260 20150 30112 40126 333 58003 70000=
41927,2024,11,17,09,00,AAXX 17094 41927 32957 00000 10275 20160 30091 40105 333 58005 70000=
41927,2024,11,17,12,00,AAXX 17124 41927 32956 00000 10225 20200 30091 40105 333 10280 58004 70000=
41927,2024,11,17,15,00,AAXX 17154 41927 31950 02801 10198 20190 30110 40124 70500 333 58002 70000=
41927,2024,11,17,18,00,AAXX 17184 41927 NIL=
41927,2024,11,17,21,00,AAXX 17214 41927 31950 02602 10180 20170 30107 40121 70500 333 59002 70000=
41927,2024,11,18,00,00,AAXX 18004 41927 31940 02801 10170 20160 30111 40125 70500 333 59002 70000=
41927,2024,11,18,03,00,AAXX 18034 41927 31950 02701 10212 20180 30140 40154 70500 333 20170 58014 70000=
41927,2024,11,18,06,00,AAXX 18064 41927 32957 00000 10275 20130 30116 40130 333 58004 70000=
41927,2024,11,18,09,00,AAXX 18094 41927 32957 02801 10275 20150 30099 40114 333 58013 70000=
41927,2024,11,18,12,00,AAXX 18124 41927 32956 00000 10225 20200 30092 40106 333 10290 58001 70000=
41927,2024,11,18,15,00,AAXX 18154 41927 31950 00000 10190 20180 30120 40134 70500 333 58010 70000=
41927,2024,11,18,21,00,AAXX 18214 41927 31940 02801 10173 20160 30115 40129 70500 333 58008 70000=
41927,2024,11,19,00,00,AAXX 19004 41927 31940 00000 10170 20170 30121 40135 70500 333 58010 70000=
41927,2024,11,19,03,00,AAXX 19034 41927 31950 00000 10220 20180 30144 40159 70500 333 20170 58004 70000=
41927,2024,11,19,06,00,AAXX 19064 41927 32957 00000 10280 20140 30128 40142 333 58012 70000=
41927,2024,11,19,09,00,AAXX 19094 41927 32957 00000 10285 20140 30106 40121 333 58007 70000=
41927,2024,11,19,12,00,AAXX 19124 41927 32956 00000 10230 20210 30103 40117 333 10295 58010 70000=
41927,2024,11,19,15,00,AAXX 19154 41927 31950 00000 10200 20190 30119 40133 70500 333 59001 70000=
41927,2024,11,19,18,00,AAXX 19184 41927 31950 00000 10193 20180 30121 40135 70500 333 59002 70000=
41927,2024,11,19,21,00,AAXX 19214 41927 31940 00000 10184 20170 30116 40130 70500 333 58001 70000=
41927,2024,11,20,00,00,AAXX 20004 41927 31940 00000 10180 20170 30113 40127 70500 333 59008 70000=
41927,2024,11,20,03,00,AAXX 20034 41927 31950 00000 10232 20180 30139 40153 70500 333 20180 58011 70000=
41927,2024,11,20,06,00,AAXX 20064 41927 31950 00000 10232 20180 30139 40153 70500 333 20180 59005 70000=
41927,2024,11,20,09,00,AAXX 20094 41927 32558 22801 10296 20140 30093 40108 82100 333 56600 59013 70000 82825=
41927,2024,11,20,12,00,AAXX 20124 41927 31950 02701 10234 20210 30094 40108 70500 333 10300 59009 70000=
41927,2024,11,20,15,00,AAXX 20154 41927 31950 00000 10200 20180 30109 40124 70500 333 59010 70000=
41927,2024,11,20,18,00,AAXX 20184 41927 31950 00000 10200 20190 30116 40131 70500 333 59005 70000=
41927,2024,11,20,21,00,AAXX 20214 41927 31940 00000 10190 20180 30111 40125 70500 333 59006 70000=
41927,2024,11,21,00,00,AAXX 21004 41927 31940 00000 10175 20170 30106 40121 70500 333 59007 70000=
41927,2024,11,21,03,00,AAXX 21034 41927 31950 00000 10220 20180 30132 40146 70500 333 20175 59007 70000=
41927,2024,11,21,06,00,AAXX 21064 41927 32957 02801 10285 20140 30114 40129 333 59008 70000=
41927,2024,11,21,09,00,AAXX 21094 41927 32457 33201 10285 20140 30093 40108 333 58000 70000=
41927,2024,11,21,12,00,AAXX 21124 41927 NIL=
41927,2024,11,21,15,00,AAXX 21154 41927 31950 00000 10192 20180 30115 40129 70500 333 58006 70000=
41927,2024,11,21,18,00,AAXX 21184 41927 31950 00000 10183 20170 30119 40133 70500 333 58003 70000=
41929,2024,11,15,00,00,AAXX 15004 41929 01950 00000 10210 20200 30114 40124 70500 333 59008 70000==
41929,2024,11,15,03,00,AAXX 15034 41929 01950 03202 10252 20210 30136 40145 70500 333 20205 59005 70000==
41929,2024,11,15,06,00,AAXX 15064 41929 02956 03602 10295 20190 30122 40131 333 59004 70000==
41929,2024,11,15,09,00,AAXX 15094 41929 02956 00000 10307 20140 30094 40103 333 59006 70000==
41929,2024,11,15,12,00,AAXX 15124 41929 02956 00000 10262 20210 30097 40106 333 10312 59005 70000==
41929,2024,11,15,15,00,AAXX 15154 41929 01950 00000 10228 20210 30115 40124 70500 333 59009 70000==
41929,2024,11,15,18,00,AAXX 15184 41929 01950 00000 10217 20200 30112 40122 70500 333 59011 70000==
41929,2024,11,15,21,00,AAXX 15214 41929 01950 00000 10211 20190 30110 40120 70500 333 59009 70000==
41929,2024,11,16,00,00,AAXX 16004 41929 01950 00000 10205 20200 30107 40117 70500 333 59007 70000==
41929,2024,11,16,03,00,AAXX 16034 41929 01950 00000 10255 20190 30134 40143 70500 333 20198 59002 70000==
41929,2024,11,16,06,00,AAXX 16064 41929 02956 03202 10292 20150 30114 40123 333 59008 70000==
41929,2024,11,16,09,00,AAXX 16094 41929 02956 03202 10300 20140 30091 40100 333 59003 70000==
41929,2024,11,16,12,00,AAXX 16124 41929 02956 00000 10230 20190 30091 40100 333 10305 59006 70000==
41929,2024,11,16,15,00,AAXX 16154 41929 02956 00000 10208 20190 30112 40121 333 59003 70000==
41929,2024,11,16,18,00,AAXX 16184 41929 02956 00000 10199 20180 30110 40120 333 59002 70000==
41929,2024,11,17,00,00,AAXX 17004 41929 02956 00000 10175 20170 30105 40115 333 59002 70000==
41929,2024,11,17,03,00,AAXX 17034 41929 02956 00000 10230 20150 30136 40145 333 20164 58002 70000==
41929,2024,11,17,06,00,AAXX 17064 41929 02956 03202 10292 20100 30119 40128 333 58005 70000==
41929,2024,11,17,09,00,AAXX 17094 41929 02956 00000 10298 20120 30096 40105 333 59018 70000==
41929,2024,11,17,12,00,AAXX 17124 41929 02956 00000 10246 20180 30096 40105 333 10299 58005 70000==
41929,2024,11,17,15,00,AAXX 17154 41929 02956 00000 10202 20180 30115 40125 333 58003 70000==
41929,2024,11,17,18,00,AAXX 17184 41929 02956 00000 10190 20180 30120 40130 333 58010 70000==
41929,2024,11,17,21,00,AAXX 17214 41929 02956 00000 10190 20180 30118 40128 333 58010 70000==
41929,2024,11,18,00,00,AAXX 18004 41929 01940 00000 10172 20260 30118 40128 70500 333 58013 70000==
41929,2024,11,18,03,00,AAXX 18034 41929 02956 03603 10236 20180 30145 40155 333 20166 58009 70000==
41929,2024,11,18,06,00,AAXX 18064 41929 02956 00000 10285 20140 30128 40137 333 58009 70000==
41929,2024,11,18,09,00,AAXX 18094 41929 02956 00904 10295 20140 30107 40116 333 58011 70000==
41929,2024,11,18,12,00,AAXX 18124 41929 01950 00000 10246 20200 30105 40114 70500 333 10296 58009 70000==
41929,2024,11,18,15,00,AAXX 18154 41929 02956 00000 10202 20190 30127 40137 333 58012 70000==
41929,2024,11,18,18,00,AAXX 18184 41929 02956 00000 10190 20180 30133 40143 333 58013 70000==
41929,2024,11,18,21,00,AAXX 18214 41929 02956 00000 10190 20180 30127 40137 333 58009 70000==
41929,2024,11,19,00,00,AAXX 19004 41929 02956 00000 10170 20160 30129 40139 333 58011 70000==
41929,2024,11,19,03,00,AAXX 19034 41929 02956 03603 10252 20180 30154 40163 333 20165 58009 70000==
41929,2024,11,19,06,00,AAXX 19064 41929 02956 00000 10286 20140 30139 40148 333 58011 70000==
41929,2024,11,19,09,00,AAXX 19094 41929 02956 03202 10300 20120 30113 40122 333 58006 70000==
41929,2024,11,19,12,00,AAXX 19124 41929 01950 00000 10245 20190 30109 40118 70500 333 10305 58004 70000==
41929,2024,11,19,15,00,AAXX 19154 41929 02956 00000 10205 20190 30123 40133 333 59004 70000==
41929,2024,11,19,18,00,AAXX 19184 41929 02956 00000 10185 20180 30127 40137 333 59006 70000==
41929,2024,11,19,21,00,AAXX 19214 41929 02956 00000 10185 20180 30122 40132 333 59005 70000==
41929,2024,11,20,00,00,AAXX 20004 41929 02956 00000 10168 20160 30117 40127 333 59012 70000==
41929,2024,11,20,03,00,AAXX 20034 41929 02956 00000 10256 20190 30146 40156 333 20162 59008 70000==
41929,2024,11,20,06,00,AAXX 20064 41929 02956 00000 10294 20120 30125 40134 333 59014 70000==
41929,2024,11,20,09,00,AAXX 20094 41929 02956 00000 10303 20150 30099 40108 333 59014 70000==
41929,2024,11,20,12,00,AAXX 20124 41929 02956 00000 10250 20170 30099 40108 333 10305 59010 70000==
41929,2024,11,20,15,00,AAXX 20154 41929 01950 00000 10202 20180 30119 40129 70500 333 59004 70000==
41929,2024,11,20,18,00,AAXX 20184 41929 01950 00000 10190 20180 30120 40130 70500 333 59007 70000==
41929,2024,11,20,21,00,AAXX 20214 41929 31950 00000 10183 20170 30117 40127 70500 333 59005 70000=
41929,2024,11,21,00,00,AAXX 21004 41929 01/50 30000 10176 20170 30113 40123 70510 83030 333 59004 70000 83365==
41929,2024,11,21,03,00,AAXX 21034 41929 01950 00000 10244 20170 30139 40148 70510 333 20172 59007 70000==
41929,2024,11,21,06,00,AAXX 21064 41929 02456 10402 10290 20130 30122 40131 81500 333 59003 70000 81618==
41929,2024,11,21,09,00,AAXX 21094 41929 02456 10000 10290 20120 30099 40108 81500 333 58000 70000 81618==
41929,2024,11,21,12,00,AAXX 21124 41929 02/56 30000 10244 20180 30102 40111 83030 333 10303 58003 70000 83365==
41929,2024,11,21,15,00,AAXX 21154 41929 02456 50000 10217 20200 30122 40132 82530 333 58003 70000 82618 83365==
41929,2024,11,21,18,00,AAXX 21184 41929 01950 00000 10193 20180 30124 40134 70521 333 58004 70000==
41929,2024,11,21,21,00,AAXX 21214 41929 01950 00000 10183 20170 30117 40127 70500 333 59005 70000==
41933,2024,11,15,00,00,AAXX 15004 41933 01920 00000 10200 20180 30114 40123 71000 333 58009 70000==
41933,2024,11,15,03,00,AAXX 15034 41933 01940 00000 10265 20210 30128 40136 70500 333 20200 58002 70000==
41933,2024,11,15,06,00,AAXX 15064 41933 01450 20102 10304 20190 30107 40115 70500 82500 333 59018 70000==
41933,2024,11,15,09,00,AAXX 15094 41933 01450 20302 10306 20180 30084 40092 70500 82500 333 59011 70000 82618==
41933,2024,11,15,12,00,AAXX 15124 41933 01940 00000 10270 20200 30083 40097 70500 333 10313 59004 70000==
41933,2024,11,15,15,00,AAXX 15154 41933 01940 00000 10230 20220 30108 40117 70500 333 59008 70000==
41933,2024,11,15,18,00,AAXX 15184 41933 01920 00000 10218 20210 30102 40111 71000 333 59016 70000==
41933,2024,11,15,21,00,AAXX 15214 41933 01908 00000 10209 20200 30099 40107 74640 333 59017 70000==
41933,2024,11,16,00,00,AAXX 16004 41933 01902 00000 10200 20200 30100 40108 74644 333 59014 70000==
41933,2024,11,16,03,00,AAXX 16034 41933 01935 00000 10264 20200 30115 40123 70540 333 20198 59013 70000==
41933,2024,11,16,06,00,AAXX 16064 41933 01940 20000 10300 20200 30095 40103 70540 82500 333 59012 70000 82618==
41933,2024,11,16,09,00,AAXX 16094 41933 01440 20302 10305 20200 30081 40090 70500 82500 333 59003 70000 82618==
41933,2024,11,16,12,00,AAXX 16124 41933 01933 00000 10264 20200 30085 40094 70500 333 10308 59003 70000==
41933,2024,11,16,15,00,AAXX 16154 41933 01930 00000 10228 20220 30101 40109 71000 333 59007 70000==
41933,2024,11,16,18,00,AAXX 16184 41933 01920 00000 10215 20210 30099 40107 71000 333 59003 70000==
41933,2024,11,17,00,00,AAXX 17004 41933 01/15 20000 10200 20190 30100 40109 71000 82040 333 58000 70000 82362==
41933,2024,11,17,03,00,AAXX 17034 41933 01440 50000 10240 20190 30134 40143 70522 82530 333 20195 58019 70000 82618 85362==
41933,2024,11,17,06,00,AAXX 17064 41933 01440 52902 10285 20220 30117 40126 70522 82530 333 58022 70000 82618 85362==
41933,2024,11,17,09,00,AAXX 17094 41933 01440 52802 10292 20190 30093 40101 70522 82530 333 58012 70000 82618 85362==
41933,2024,11,17,12,00,AAXX 17124 41933 01440 50000 10250 20190 30090 40098 70522 82530 333 10300 58005 70000 82618 85362==
41933,2024,11,17,15,00,AAXX 17154 41933 01940 00000 10220 20200 30112 40120 70521 333 58011 70000==
41933,2024,11,17,18,00,AAXX 17184 41933 01440 50000 10210 20180 30117 40125 70522 82530 333 58018 70000 82618 85362==
41933,2024,11,17,21,00,AAXX 17214 41933 01435 50000 10200 20180 30118 40126 70522 82530 333 58020 70000 82618 85362==
41933,2024,11,18,00,00,AAXX 18004 41933 01420 50000 10180 20170 30120 40128 71022 82530 333 58020 70000 82618 85362==
41933,2024,11,18,03,00,AAXX 18034 41933 01945 03502 10255 20180 30137 40146 70540 333 20175 58003 70000==
41933,2024,11,18,06,00,AAXX 18064 41933 01945 00802 10290 20170 30119 40128 70540 333 58002 70000==
41933,2024,11,18,09,00,AAXX 18094 41933 01945 00000 10305 20180 30097 40105 70500 333 58004 70000==
41933,2024,11,18,12,00,AAXX 18124 41933 01940 00000 10257 20190 30098 40106 70500 333 10310 58008 70000==
41933,2024,11,18,15,00,AAXX 18154 41933 01935 00000 10207 20190 30119 40127 70500 333 58007 70000==
41933,2024,11,18,18,00,AAXX 18184 41933 01930 00000 10203 20190 30126 40134 70500 333 58009 70000==
41933,2024,11,18,21,00,AAXX 18214 41933 01930 00000 10180 20170 30127 40136 70500 333 58009 70000==
41933,2024,11,19,00,00,AAXX 19004 41933 01920 00000 10173 20160 30123 40132 71000 333 58003 70000==
41933,2024,11,19,03,00,AAXX 19034 41933 01940 00000 10255 20190 30143 40152 70500 333 20166 58006 70000==
41933,2024,11,19,06,00,AAXX 19064 41933 01950 00702 10292 20170 30125 40134 70500 333 58006 70000==
41933,2024,11,19,09,00,AAXX 19094 41933 01950 00000 10304 20150 30106 40114 70500 333 58009 70000==
41933,2024,11,19,12,00,AAXX 19124 41933 01940 00000 10239 20190 30100 40108 70500 333 10310 58002 70000==
41933,2024,11,19,15,00,AAXX 19154 41933 01935 00000 10206 20200 30120 40128 70500 333 58001 70000==
41933,2024,11,19,18,00,AAXX 19184 41933 01925 00000 10189 20180 30119 40128 71000 333 59007 70000==
41933,2024,11,19,21,00,AAXX 19214 41933 01915 00000 10185 20180 30110 40119 71000 333 59017 70000==
41933,2024,11,20,00,00,AAXX 20004 41933 01908 00000 10183 20180 30113 40122 74600 333 59010 70000==
41933,2024,11,20,03,00,AAXX 20034 41933 01935 00000 10245 20210 30140 40149 70544 333 20180 59003 70000==
41933,2024,11,20,06,00,AAXX 20064 41933 01940 00000 10295 20200 30123 40132 70544 333 59002 70000==
41933,2024,11,20,09,00,AAXX 20094 41933 01940 00000 10295 20200 30096 40104 70500 333 59010 70000==
41933,2024,11,20,12,00,AAXX 20124 41933 01940 00000 10260 20190 30096 40104 70500 333 10305 59004 70000==
41933,2024,11,20,15,00,AAXX 20154 41933 01940 00000 10210 20190 30109 40117 70500 333 59011 70000==
41933,2024,11,20,18,00,AAXX 20184 41933 01935 00000 10195 20190 30116 40125 70500 333 59003 70000==
41933,2024,11,20,21,00,AAXX 20214 41933 31935 00000 10185 20180 30114 40123 70500 333 58004 70000=
41933,2024,11,21,00,00,AAXX 21004 41933 01920 00000 10175 20170 30116 40125 71000 333 58003 70000==
41933,2024,11,21,03,00,AAXX 21034 41933 01940 00000 10235 20180 30137 40146 70540 333 20170 59003 70000==
41933,2024,11,21,06,00,AAXX 21064 41933 01945 02502 10285 20170 30115 40124 70540 333 59008 70000==
41933,2024,11,21,09,00,AAXX 21094 41933 01945 02402 10293 20140 30096 40105 70500 333 58000 70000==
41933,2024,11,21,12,00,AAXX 21124 41933 01940 00000 10243 20180 30097 40106 70500 333 10303 58001 70000==
41933,2024,11,21,15,00,AAXX 21154 41933 01935 00000 10205 20200 30114 40122 70500 333 58005 70000==
41933,2024,11,21,18,00,AAXX 21184 41933 01935 00000 10200 20190 30119 40127 70500 333 58002 70000==
41933,2024,11,21,21,00,AAXX 21214 41933 01935 00000 10185 20180 30114 40123 70500 333 58004 70000==
41936,2024,11,15,00,00,AAXX 15004 41936 01904 00000 10196 20190 30124 40131 74644 333 58007 70000==
41936,2024,11,15,03,00,AAXX 15034 41936 01907 00000 10224 20200 30132 40139 74444 333 20194 59008 70000==
41936,2024,11,15,06,00,AAXX 15064 41936 01912 00000 10298 20190 30120 40127 70540 333 59003 70000==
41936,2024,11,15,09,00,AAXX 15094 41936 01914 00203 10314 20200 30090 40097 70500 333 59006 70000==
41936,2024,11,15,12,00,AAXX 15124 41936 01912 00000 10250 20200 30098 40105 70500 333 10316 59005 70000==
41936,2024,11,15,15,00,AAXX 15154 41936 01910 00000 10224 20210 30112 40119 70500 333 59013 70000==
41936,2024,11,15,18,00,AAXX 15184 41936 01910 00000 10212 20200 30106 40113 70500 333 59013 70000==
41936,2024,11,15,21,00,AAXX 15214 41936 01909 00000 10192 20180 30102 40109 74100 333 59013 70000==
41936,2024,11,16,00,00,AAXX 16004 41936 01905 00000 10174 20160 30111 40119 74640 333 59013 70000==
41936,2024,11,16,03,00,AAXX 16034 41936 01906 00000 10210 20190 30131 40138 74244 333 20172 59001 70000==
41936,2024,11,16,06,00,AAXX 16064 41936 01912 00303 10286 20160 30116 40123 70540 333 59004 70000==
41936,2024,11,16,09,00,AAXX 16094 41936 01918 00000 10296 20150 30093 40100 70500 333 58003 70000==
41936,2024,11,16,12,00,AAXX 16124 41936 01916 00000 10250 20200 30090 40097 70500 333 10302 59008 70000==
41936,2024,11,16,15,00,AAXX 16154 41936 01916 00000 10224 20210 30110 40117 70500 333 59002 70000==
41936,2024,11,16,18,00,AAXX 16184 41936 01912 00000 10212 20200 30107 40114 70500 333 58001 70000==
41936,2024,11,16,21,00,AAXX 16214 41936 01910 00000 10192 20180 30098 40105 70500 333 59004 70000==
41936,2024,11,17,00,00,AAXX 17004 41936 01906 00000 10184 20170 30108 40115 74640 333 20178 59004 70000==
41936,2024,11,17,03,00,AAXX 17034 41936 01909 00000 10202 20190 30133 40140 74244 333 20172 58002 70000==
41936,2024,11,17,06,00,AAXX 17064 41936 01912 00000 10280 20170 30118 40125 70541 333 58002 70000==
41936,2024,11,17,09,00,AAXX 17093 41936 01912 00000 10290 20150 30094 40101 70500 333 58001 70000==
41936,2024,11,17,12,00,AAXX 17124 41936 01909 00000 10220 20180 30095 40102 74140 333 10292 58005 70000==
41936,2024,11,17,15,00,AAXX 17154 41936 01930 00708 10306 20200 30114 40121 70500 333 59005 70000==
41936,2024,11,17,18,00,AAXX 17184 41936 01909 00000 10186 20180 30107 40115 74140 333 59001 70000==
41936,2024,11,17,21,00,AAXX 17214 41936 01909 00000 10178 20170 30102 40109 74140 333 58004 70000==
41936,2024,11,18,00,00,AAXX 18004 41936 01904 00000 10164 20160 30116 40123 74640 333 58008 70000==
41936,2024,11,18,03,00,AAXX 18034 41936 01906 00000 10190 20170 30138 40145 74244 333 20164 58005 70000==
41936,2024,11,18,06,00,AAXX 18064 41936 01910 00903 10278 20160 30125 40132 70540 333 58006 70000==
41936,2024,11,18,09,00,AAXX 18094 41936 01914 00000 10284 20150 30104 40111 70500 333 58010 70000==
41936,2024,11,18,12,00,AAXX 18124 41936 01914 00000 10218 20180 30104 40111 70500 333 10286 58009 70000==
41936,2024,11,18,15,00,AAXX 18154 41936 01912 00000 10190 20170 30123 40131 70500 333 58014 70000==
41936,2024,11,18,18,00,AAXX 18184 41936 01910 00000 10174 20160 30129 40136 70500 333 58023 70000==
41936,2024,11,18,21,00,AAXX 18214 41936 01909 00000 10162 20150 30123 40131 74100 333 58022 70000==
41936,2024,11,19,00,00,AAXX 19004 41936 31905 00000 10154 20150 30125 40132 74640 333 58009 70000=
41936,2024,11,19,03,00,AAXX 19034 41936 01907 00000 10196 20190 30147 40155 74244 333 20152 58010 70000==
41936,2024,11,19,06,00,AAXX 19064 41936 01912 03003 10278 20160 30129 40136 70500 333 58004 70000==
41936,2024,11,19,09,00,AAXX 19094 41936 01920 00703 10292 20170 30108 40115 70500 333 58004 70000==
41936,2024,11,19,12,00,AAXX 19124 41936 01916 00000 10228 20200 30109 40116 70500 333 10298 58005 70000==
41936,2024,11,19,15,00,AAXX 19154 41936 01914 00000 10190 20170 30121 40128 70500 333 59003 70000==
41936,2024,11,19,18,00,AAXX 19184 41936 01912 00000 10172 20160 30122 40129 70500 333 59007 70000==
41936,2024,11,19,21,00,AAXX 19214 41936 01909 00000 10162 20150 30119 40127 74100 333 59004 70000==
41936,2024,11,20,00,00,AAXX 20004 41936 01906 00000 10162 20150 30124 40132 74640 333 58000 70000==
41936,2024,11,20,03,00,AAXX 20034 41936 01906 00000 10202 20190 30140 40147 74244 333 20160 59007 70000==
41936,2024,11,20,06,00,AAXX 20064 41936 01916 00000 10288 20170 30126 40133 70542 333 59003 70000==
41936,2024,11,20,09,00,AAXX 20094 41936 01940 00000 10298 20170 30096 40103 70541 333 59012 70000==
41936,2024,11,20,12,00,AAXX 20124 41936 01920 00000 10250 20220 30101 40108 70500 333 10302 59008 70000==
41936,2024,11,20,15,00,AAXX 20154 41936 01914 00000 10190 20170 30116 40123 70500 333 59005 70000==
41936,2024,11,20,18,00,AAXX 20184 41936 01912 00000 10176 20170 30117 40125 70500 333 59004 70000==
41936,2024,11,20,21,00,AAXX 20214 41936 01909 00000 10162 20150 30108 40116 74100 333 59011 70000==
41936,2024,11,21,00,00,AAXX 21004 41936 01906 00000 10156 20150 30114 40122 74440 333 59010 70000==
41936,2024,11,21,03,00,AAXX 21034 41936 41909 00000 10214 20200 30141 40148 74444 333 20154 58001==
41936,2024,11,21,06,00,AAXX 21064 41936 01912 00000 10282 20190 30124 40131 70500 333 59009 70000==
41936,2024,11,21,09,00,AAXX 21094 41936 01/25 32604 10290 20220 30099 40106 70510 83030 333 58003 70000 83362==
41936,2024,11,21,12,00,AAXX 21124 41936 01/20 30000 10230 20200 30097 40104 70510 83030 333 10300 59004 70000 83362==
41936,2024,11,21,15,00,AAXX 21154 41936 01916 00000 10212 20200 30112 40119 70500 333 59004 70000==
41936,2024,11,21,18,00,AAXX 21184 41936 01910 00000 10192 20180 30106 40113 70500 333 59012 70000==
41936,2024,11,21,21,00,AAXX 21214 41936 01909 00000 10162 20150 30102 40109 74400 333 59009 70000==
41938,2024,11,15,00,00,AAXX 15004 41938 31905 00000 10192 20180 30116 40120 74640 333 58001 70000=
41938,2024,11,15,03,00,AAXX 15034 41938 31930 03601 10243 20210 30131 40135 70540 333 20192 59003 70000=
41938,2024,11,15,06,00,AAXX 15064 41938 31940 03402 10292 20190 30119 40123 70540 333 59007 70000=
41938,2024,11,15,09,00,AAXX 15094 41938 31940 03201 10295 20190 30097 40101 70510 333 59006 70000=
41938,2024,11,15,12,00,AAXX 15124 41938 31930 00000 10238 20210 30099 40103 70510 333 10300 59002 70000=
41938,2024,11,15,15,00,AAXX 15154 41938 31930 00000 10217 20200 30109 40113 70500 333 59012 70000=
41938,2024,11,15,18,00,AAXX 15184 41938 31920 00000 10205 20200 30107 40111 71000 333 59012 70000=
41938,2024,11,15,21,00,AAXX 15214 41938 31908 00000 10197 20190 30105 40109 74640 333 59014 70000=
41938,2024,11,16,00,00,AAXX 16004 41938 31905 00000 10188 20180 30108 40112 74640 333 59008 70000=
41938,2024,11,16,03,00,AAXX 16034 41938 31930 03401 10235 20190 30129 40133 70540 333 20188 59002 70000=
41938,2024,11,16,09,00,AAXX 16094 41938 31950 03003 10288 20140 30116 40120 70500 333 59003 70000=
41938,2024,11,16,15,00,AAXX 16154 41938 31950 00000 10197 20180 30109 40113 70500 333 58000 70000=
41938,2024,11,16,18,00,AAXX 16184 41938 31950 03001 10186 20180 30110 40114 70500 333 58003 70000=
41938,2024,11,17,00,00,AAXX 17004 41938 31907 20000 10164 20150 30108 40112 74000 81031 333 56099 58000 70000 81362=
41938,2024,11,17,03,00,AAXX 17034 41938 31925 13001 10232 20160 30129 40133 71040 80001 333 20162 56009 58000 70000 81080=
41938,2024,11,17,06,00,AAXX 17064 41938 31945 03505 10286 20110 30119 40123 70540 333 58003 70000=
41938,2024,11,17,09,00,AAXX 17094 41938 31945 03204 10290 20120 30100 40104 70500 333 58002 70000=
41938,2024,11,17,12,00,AAXX 17124 41938 31950 00000 10215 20180 30099 40103 70500 333 10290 58005 70000=
41938,2024,11,17,15,00,AAXX 17154 41938 31950 00000 10190 20170 30112 40116 70500 333 58003 70000=
41938,2024,11,17,18,00,AAXX 17184 41938 31950 00000 10180 20170 30117 40121 70500 333 58007 70000=
41938,2024,11,17,21,00,AAXX 17214 41938 31950 00000 10172 20160 30111 40115 70500 333 58005 70000=
41938,2024,11,18,00,00,AAXX 18004 41938 31901 00000 10166 20166 30114 40118 74640 333 58006 70000=
41938,2024,11,18,03,00,AAXX 18034 41938 31925 00000 10230 20190 30137 40141 71040 333 20165 58008 70000=
41938,2024,11,18,06,00,AAXX 18064 41938 31945 00000 10282 20120 30127 40131 70540 333 58008 70000=
41938,2024,11,18,09,00,AAXX 18094 41938 31950 03001 10276 20140 30109 40113 70500 333 58009 70000=
41938,2024,11,18,12,00,AAXX 18124 41938 31950 00000 10211 20170 30109 40113 70500 333 10286 58010 70000=
41938,2024,11,18,15,00,AAXX 18154 41938 31940 00000 10185 20170 30120 40124 70500 333 58008 70000=
41938,2024,11,18,18,00,AAXX 18184 41938 31940 00000 10175 20170 30124 40128 70500 333 58007 70000=
41938,2024,11,18,21,00,AAXX 18214 41938 31935 00000 10160 20150 30126 40130 70500 333 58015 70000=
41938,2024,11,19,00,00,AAXX 19004 41938 31920 00000 10157 20150 30125 40129 71000 333 58011 70000=
41938,2024,11,19,03,00,AAXX 19034 41938 31950 03201 10233 20180 30142 40146 70500 333 20157 58005 70000=
41938,2024,11,19,06,00,AAXX 19064 41938 32956 02501 10281 20140 30134 40138 333 58007 70000=
41938,2024,11,19,09,00,AAXX 19094 41938 32956 03001 10292 20130 30114 40118 333 58005 70000=
41938,2024,11,19,12,00,AAXX 19124 41938 32950 00000 10219 20180 30111 40114 333 10295 58002 70000=
41938,2024,11,19,15,00,AAXX 19154 41938 31950 00000 10192 20170 30122 40126 70500 333 58002 70000=
41938,2024,11,19,18,00,AAXX 19184 41938 31930 00000 10177 20170 30122 40126 70500 333 59002 70000=
41938,2024,11,19,21,00,AAXX 19214 41938 31930 00000 10170 20160 30122 40126 70500 333 59004 70000=
41938,2024,11,20,00,00,AAXX 20004 41938 31920 00000 10163 20150 30122 40126 71000 333 59003 70000=
41938,2024,11,20,03,00,AAXX 20034 41938 31940 00000 10236 20190 30140 40144 70500 333 20163 59002 70000=
41938,2024,11,20,06,00,AAXX 20064 41938 31950 03201 10292 20120 30127 40131 70500 333 59007 70000=
41938,2024,11,20,09,00,AAXX 20094 41938 32956 00000 10298 20130 30105 40109 333 59009 70000=
41938,2024,11,20,12,00,AAXX 20124 41938 31950 00000 10220 20180 30100 40104 70500 333 10300 59011 70000=
41938,2024,11,20,15,00,AAXX 20154 41938 31950 00000 10194 20170 30114 40118 70500 333 59008 70000=
41938,2024,11,20,18,00,AAXX 20184 41938 31950 00000 10181 20170 30115 40119 70500 333 59007 70000=
41938,2024,11,20,21,00,AAXX 20214 41938 31950 00000 10178 20170 30111 40114 70500 333 59011 70000=
41938,2024,11,21,00,00,AAXX 21004 41938 31906 00000 10174 20160 30113 40117 74000 333 59009 70000=
41938,2024,11,21,03,00,AAXX 21034 41938 31945 12702 10239 20190 30134 40138 70540 81030 333 20174 56090 59006 70000 81362=
41938,2024,11,21,06,00,AAXX 21064 41938 31450 12703 10290 20130 30120 40124 70540 81500 333 56600 59007 70000 81618=
41938,2024,11,21,09,00,AAXX 21094 41938 32956 13002 10298 20150 30104 40108 81030 333 56090 59001 70000 81362=
41938,2024,11,21,12,00,AAXX 21124 41938 31950 00000 10225 20190 30104 40108 70500 333 10299 58004 70000=
41938,2024,11,21,15,00,AAXX 21154 41938 31950 00000 10204 20180 30116 40120 70500 333 58002 70000=
41938,2024,11,21,18,00,AAXX 21184 41938 31950 10000 10200 20190 30122 40126 70500 81030 333 56090 58007 70000 81362=
41939,2024,11,15,00,00,AAXX 15004 41939 01940 00000 10208 20200 30132 40140 70500 333 58003 70000==
41939,2024,11,15,03,00,AAXX 15034 41939 02958 00000 10246 20220 30142 40150 333 20203 59001 70000==
41939,2024,11,15,06,00,AAXX 15064 41939 02959 00000 10300 20190 30119 40127 333 59006 70000==
41939,2024,11,15,09,00,AAXX 15094 41939 02958 00000 10295 20190 30102 40110 333 58000 70000==
41939,2024,11,15,12,00,AAXX 15124 41939 02956 00000 10265 20240 30115 40123 333 10302 58005 70000==
41939,2024,11,15,15,00,AAXX 15154 41939 01950 00000 10220 20210 30118 40126 70500 333 59010 70000==
41939,2024,11,15,18,00,AAXX 15184 41939 01950 00000 10212 20200 30125 40133 70500 333 59015 70000==
41939,2024,11,15,21,00,AAXX 15214 41939 01950 00000 10210 20200 30118 40126 70500 333 59010 70000==
41939,2024,11,16,00,00,AAXX 16004 41939 01950 00000 10208 20200 30110 40118 70500 333 59022 70000==
41939,2024,11,16,03,00,AAXX 16034 41939 02957 00000 10250 20220 30125 40133 333 20202 59017 70000==
41939,2024,11,16,06,00,AAXX 16064 41939 02958 00000 10295 20220 30120 40128 333 59005 70000==
41939,2024,11,16,09,00,AAXX 16094 41939 02958 00000 10290 20190 30101 40109 333 59001 70000==
41939,2024,11,16,12,00,AAXX 16124 41939 02956 00000 10225 20210 30095 40103 333 10296 59020 70000==
41939,2024,11,16,15,00,AAXX 16154 41939 01950 00000 10215 20210 30120 40128 70500 333 58002 70000==
41939,2024,11,16,18,00,AAXX 16184 41939 NIL=
41939,2024,11,17,00,00,AAXX 17004 41939 01450 10000 10225 20220 30118 40126 70500 81500 333 58008 70000 81618==
41939,2024,11,17,03,00,AAXX 17034 41939 01957 00000 10257 20210 30139 40147 70500 333 20170 58014 70000==
41939,2024,11,17,06,00,AAXX 17064 41939 02958 00000 10290 20170 30119 40127 333 59001 70000==
41939,2024,11,17,09,00,AAXX 17094 41939 02958 00000 10275 20170 30092 40100 333 59009 70000==
41939,2024,11,17,12,00,AAXX 17124 41939 01956 00000 10205 20180 30105 40113 70500 333 10291 58010 70000==
41939,2024,11,17,15,00,AAXX 17154 41939 01950 00000 10200 20190 30118 40126 70500 333 59002 70000==
41939,2024,11,17,18,00,AAXX 17184 41939 01950 00000 10185 20180 30126 40134 70500 333 59004 70000==
41939,2024,11,17,21,00,AAXX 17214 41939 01940 00000 10168 20160 30130 40138 70500 333 58010 70000==
41939,2024,11,18,00,00,AAXX 18004 41939 01940 00000 10165 20160 30135 40143 70500 333 58017 70000==
41939,2024,11,18,03,00,AAXX 18034 41939 01956 00000 10220 20200 30145 40153 70500 333 10160 58006 70000==
41939,2024,11,18,06,00,AAXX 18064 41939 02958 00000 10293 20170 30125 40133 333 58006 70000==
41939,2024,11,18,09,00,AAXX 18094 41939 02958 00000 10278 20200 30109 40117 333 58017 70000==
41939,2024,11,18,12,00,AAXX 18124 41939 02956 00000 10215 20190 30113 40122 333 10295 58008 70000==
41939,2024,11,18,15,00,AAXX 18154 41939 01950 00000 10195 20190 30129 40138 70500 333 58011 70000==
41939,2024,11,18,21,00,AAXX 18214 41939 01950 00000 10180 20170 30133 40141 70500 333 58003 70000==
41939,2024,11,19,00,00,AAXX 19004 41939 01950 00000 10170 20170 30131 40139 70500 333 59004 70000==
41939,2024,11,19,03,00,AAXX 19034 41939 NIL=
41939,2024,11,19,06,00,AAXX 19064 41939 02958 00000 10290 20190 30133 40141 333 58008 70000==
41939,2024,11,19,09,00,AAXX 19094 41939 02958 00000 10280 20200 30114 40122 333 58005 70000==
41939,2024,11,19,12,00,AAXX 19124 41939 02957 00000 10220 20200 30112 40120 333 10292 59001 70000==
41939,2024,11,19,15,00,AAXX 19154 41939 01956 00000 10196 20180 30125 40133 70500 333 59004 70000==
41939,2024,11,19,18,00,AAXX 19184 41939 01940 00000 10185 20180 30135 40143 70500 333 59001 70000==
41939,2024,11,19,21,00,AAXX 19214 41939 01950 00000 10180 20170 30133 40141 70500 333 58000 70000==
41939,2024,11,20,00,00,AAXX 20004 41939 01950 00000 10170 20160 30132 40140 70500 333 58001 70000==
41939,2024,11,20,03,00,AAXX 20034 41939 02958 00000 10225 20210 30150 40158 333 20163 58007 70000==
41939,2024,11,20,06,00,AAXX 20064 41939 02958 00000 10285 20190 30125 40133 333 59008 70000==
41939,2024,11,20,09,00,AAXX 20094 41939 02958 00000 10280 20190 30105 40113 333 59009 70000==
41939,2024,11,20,12,00,AAXX 20124 41939 01956 00000 10205 20200 30110 40118 70500 333 10292 59002 70000==
41939,2024,11,20,15,00,AAXX 20154 41939 01950 00000 10185 20180 30121 40129 70500 333 59004 70000==
41939,2024,11,20,18,00,AAXX 20184 41939 NIL=
41939,2024,11,20,21,00,AAXX 20214 41939 31950 00000 10177 20170 30133 40141 70500 333 59001 70000=
41939,2024,11,21,00,00,AAXX 21004 41939 01940 00000 10175 20170 30130 40138 70500 333 59002 70000==
41939,2024,11,21,03,00,AAXX 21034 41939 02958 00000 10235 20210 30145 40153 333 10167 59005 70000==
41939,2024,11,21,06,00,AAXX 21064 41939 02458 10000 10295 20170 30118 40126 81500 333 59007 70000 81616==
41939,2024,11,21,09,00,AAXX 21094 41939 02958 00000 10278 20200 30102 40110 333 59003 70000==
41939,2024,11,21,12,00,AAXX 21124 41939 02956 00000 10218 20200 30109 40117 333 10295 59001 70000==
41939,2024,11,21,15,00,AAXX 21154 41939 01950 00000 10200 20190 30123 40131 70500 333 58002 70000==
41939,2024,11,21,18,00,AAXX 21184 41939 NIL=
41939,2024,11,21,21,00,AAXX 21214 41939 01950 00000 10177 20170 30133 40141 70500 333 59001 70000==
41941,2024,11,15,00,00,AAXX 15004 41941 01930 03602 10225 20220 30116 40122 70500 333 59006 70000==
41941,2024,11,15,03,00,AAXX 15034 41941 02956 03603 10270 20220 30130 40136 333 20219 59009 70000==
41941,2024,11,15,06,00,AAXX 15064 41941 02956 03602 10295 20220 30122 40128 333 58005 70000==
41941,2024,11,15,09,00,AAXX 15094 41941 02956 03603 10300 20200 30091 40096 333 59003 70000==
41941,2024,11,15,12,00,AAXX 15124 41941 02940 00000 10255 20220 30095 40100 333 10310 59007 70000==
41941,2024,11,15,15,00,AAXX 15154 41941 02940 00000 10240 20220 30104 40109 333 59016 70000==
41941,2024,11,15,18,00,AAXX 15184 41941 02940 03602 10234 20210 30110 40115 333 59021 70000==
41941,2024,11,15,21,00,AAXX 15214 41941 02930 00000 10230 20220 30104 40110 333 59022 70000==
41941,2024,11,16,00,00,AAXX 16004 41941 01920 03602 10230 20230 30105 40111 71000 333 59010 70000==
41941,2024,11,16,03,00,AAXX 16034 41941 02956 03603 10248 20220 30126 40132 333 20222 59004 70000==
41941,2024,11,16,06,00,AAXX 16064 41941 02956 03602 10260 20210 30122 40128 333 58000 70000==
41941,2024,11,16,09,00,AAXX 16094 41941 02956 03602 10296 20200 30109 40115 333 58018 70000==
41941,2024,11,16,12,00,AAXX 16124 41941 02950 03603 10250 20220 30089 40095 333 10302 59006 70000==
41941,2024,11,16,15,00,AAXX 16154 41941 02940 00000 10242 20210 30109 40115 333 58005 70000==
41941,2024,11,16,18,00,AAXX 16184 41941 NIL=
41941,2024,11,17,00,00,AAXX 17004 41941 02440 53602 10212 20200 30107 40113 82520 333 58001 70000 82616 83458==
41941,2024,11,17,03,00,AAXX 17034 41941 02456 53602 10250 20170 30140 40145 82520 333 20210 58014 70000 82616 84458==
41941,2024,11,17,06,00,AAXX 17064 41941 02956 03604 10285 20130 30122 40128 333 58000 70000==
41941,2024,11,17,09,00,AAXX 17094 41941 02956 03603 10290 20140 30102 40107 333 59007 70000==
41941,2024,11,17,12,00,AAXX 17124 41941 02940 03602 10226 20180 30095 40101 333 10300 58006 70000==
41941,2024,11,17,15,00,AAXX 17154 41941 02940 00000 10215 20200 30122 40128 333 58013 70000==
41941,2024,11,17,18,00,AAXX 17184 41941 02940 00000 10210 20190 30128 40134 333 58018 70000==
41941,2024,11,17,21,00,AAXX 17214 41941 02930 00000 10204 20190 30119 40125 333 58008 70000==
41941,2024,11,18,00,00,AAXX 18004 41941 02940 03602 10185 20180 30122 40127 333 58015 70000==
41941,2024,11,18,03,00,AAXX 18034 41941 02956 03602 10240 20180 30145 40151 333 58005 70000==
41941,2024,11,18,06,00,AAXX 18064 41941 02956 03602 10266 20180 30128 40133 333 58006 70000==
41941,2024,11,18,09,00,AAXX 18094 41941 02956 03602 10286 20170 30111 40116 333 58009 70000==
41941,2024,11,18,12,00,AAXX 18124 41941 02950 03602 10225 20190 30110 40115 333 10294 58015 70000==
41941,2024,11,18,15,00,AAXX 18154 41941 02940 03602 10215 20190 30116 40121 333 59006 70000==
41941,2024,11,18,21,00,AAXX 18214 41941 02940 00000 10192 20180 30126 40132 333 58007 70000==
41941,2024,11,19,00,00,AAXX 19004 41941 02940 00000 10182 20180 30133 40139 333 58011 70000==
41941,2024,11,19,03,00,AAXX 19034 41941 02956 00000 10262 20190 30149 40155 333 20181 58004 70000==
41941,2024,11,19,06,00,AAXX 19064 41941 02957 00000 10285 20160 30139 40144 333 58011 70000==
41941,2024,11,19,09,00,AAXX 19094 41941 02956 03602 10290 20170 30111 40116 333 58000 70000==
41941,2024,11,19,15,00,AAXX 19154 41941 01940 00000 10212 20200 30129 40135 70500 333 58013 70000==
41941,2024,11,19,18,00,AAXX 19184 41941 01940 00000 10204 20180 30133 40139 70500 333 58011 70000==
41941,2024,11,19,21,00,AAXX 19214 41941 01930 00000 10196 20190 30127 40133 70500 333 58001 70000==
41941,2024,11,20,00,00,AAXX 20004 41941 01950 00000 10190 20180 30122 40128 70500 333 59011 70000==
41941,2024,11,20,03,00,AAXX 20034 41941 02956 00000 10261 20190 30146 40152 333 20189 59003 70000==
41941,2024,11,20,06,00,AAXX 20064 41941 02957 03103 10288 20160 30127 40132 333 59012 70000==
41941,2024,11,20,09,00,AAXX 20094 41941 02957 03602 10284 20160 30100 40105 333 59011 70000==
41941,2024,11,20,12,00,AAXX 20124 41941 02956 00000 10237 20180 30100 40105 333 10300 59012 70000==
41941,2024,11,20,15,00,AAXX 20154 41941 02956 00000 10198 20180 30120 40125 333 59009 70000==
41941,2024,11,20,18,00,AAXX 20184 41941 01950 00000 10192 20170 30118 40124 70500 333 59015 70000==
41941,2024,11,20,21,00,AAXX 20214 41941 31950 00000 10185 20180 30115 40121 70500 333 59012 70000=
41941,2024,11,21,00,00,AAXX 21004 41941 01950 00000 10180 20170 30117 40123 70500 333 59005 70000==
41941,2024,11,21,03,00,AAXX 21034 41941 02956 02702 10248 20190 30141 40147 333 20178 59005 70000==
41941,2024,11,21,06,00,AAXX 21064 41941 02956 03602 10282 20170 30132 40138 333 58005 70000==
41941,2024,11,21,09,00,AAXX 21094 41941 02956 03602 10290 20170 30103 40108 333 58003 70000==
41941,2024,11,21,12,00,AAXX 21124 41941 02950 00000 10235 20180 30112 40117 333 10302 58012 70000==
41941,2024,11,21,15,00,AAXX 21154 41941 02940 00000 10212 20190 30118 40124 333 59002 70000==
41941,2024,11,21,18,00,AAXX 21184 41941 02940 00000 10202 20190 30124 40130 333 58006 70000==
41941,2024,11,21,21,00,AAXX 21214 41941 01950 00000 10185 20180 30115 40121 70500 333 59012 70000==
41943,2024,11,15,00,00,AAXX 15004 41943 01450 10000 10190 20180 30113 40120 70500 81500 333 59002 70000 81618==
41943,2024,11,15,03,00,AAXX 15034 41943 01950 00000 10260 20210 30129 40136 70500 333 20188 59007 70000==
41943,2024,11,15,06,00,AAXX 15064 41943 01550 43403 10311 20180 30115 40122 70521 84400 333 58002 70000 82620 83825==
41943,2024,11,15,09,00,AAXX 15094 41943 01450 43602 10305 20180 30088 40095 70522 84400 333 59007 70000 82620 83825==
41943,2024,11,15,12,00,AAXX 15124 41943 01550 43402 10248 20210 30095 40102 70521 84400 333 10325 59005 70000 83620==
41943,2024,11,15,15,00,AAXX 15154 41943 01450 20000 10225 20220 30113 40120 70511 82500 333 59008 70000 82618==
41943,2024,11,15,18,00,AAXX 15184 41943 01950 00000 10210 20200 30107 40114 70510 333 59011 70000==
41943,2024,11,15,21,00,AAXX 15214 41943 01940 00000 10198 20190 30105 40112 70500 333 59010 70000==
41943,2024,11,16,00,00,AAXX 16004 41943 01440 20000 10195 20190 30106 40113 70510 82500 333 59007 70000==
41943,2024,11,16,03,00,AAXX 16034 41943 01945 03602 10260 20220 30117 40124 70500 333 20195 59012 70000==
41943,2024,11,16,06,00,AAXX 16064 41943 01550 43404 10314 20180 30106 40113 70511 84400 333 59009 70000 82620 83825==
41943,2024,11,16,09,00,AAXX 16094 41943 01550 43602 10305 20190 30086 40039 70522 84400 333 59002 70000 82610 83825==
41943,2024,11,16,12,00,AAXX 16124 41943 01450 33202 10247 20220 30088 40095 70522 83500 333 10320 59007 70000 83618==
41943,2024,11,16,15,00,AAXX 16154 41943 01940 00000 10215 20210 30108 40115 70500 333 59005 70000==
41943,2024,11,16,18,00,AAXX 16184 41943 01930 00000 10210 20200 30107 40114 70500 333 58000 70000==
41943,2024,11,16,21,00,AAXX 16214 41943 01430 20000 10201 20190 30106 40113 70511 82500 333 58001 70000 82618==
41943,2024,11,17,00,00,AAXX 17004 41943 01430 30000 10198 20190 30105 40112 70511 83500 333 59001 70000 83618==
41943,2024,11,17,03,00,AAXX 17034 41943 01430 33602 10255 20230 30131 40138 70511 82502 333 20198 58014 70000 82618==
41943,2024,11,17,06,00,AAXX 17064 41943 01440 53603 10304 20180 30115 40122 70521 85400 333 58009 70000 83618 83825==
41943,2024,11,17,09,00,AAXX 17093 41943 01550 43202 10297 20180 30094 40101 70522 84400 333 58008 70000 82620 83825==
41943,2024,11,17,12,00,AAXX 17124 41943 01440 10000 10235 20210 30095 40102 70521 81500 333 10310 58007 70000 81618==
41943,2024,11,17,15,00,AAXX 17154 41943 01940 00000 10206 20200 30113 40120 70500 333 58005 70000==
41943,2024,11,17,18,00,AAXX 17184 41943 01940 00000 10188 20180 30119 40127 70500 333 58012 70000==
41943,2024,11,17,21,00,AAXX 17214 41943 01930 00000 10172 20160 30121 40128 70500 333 58015 70000==
41943,2024,11,18,00,00,AAXX 18004 41943 01930 00000 10170 20160 30119 40127 70500 333 58014 70000==
41943,2024,11,18,03,00,AAXX 18034 41943 01935 00000 10230 20210 30138 40145 70500 333 20169 70000==
41943,2024,11,18,06,00,AAXX 18064 41943 01940 00000 10295 20120 30127 40134 70500 333 58012 70000==
41943,2024,11,18,09,00,AAXX 18094 41943 01940 00000 10305 20160 30120 40190 70500 333 58026 70000==
41943,2024,11,18,12,00,AAXX 18124 41943 01930 00000 10230 20200 30105 40112 70500 333 10310 58010 70000==
41943,2024,11,18,15,00,AAXX 18154 41943 01930 00000 10205 20190 30124 40131 70500 333 58011 70000==
41943,2024,11,18,18,00,AAXX 18184 41943 01930 00000 10188 20180 30131 40138 70500 333 58012 70000==
41943,2024,11,18,21,00,AAXX 18214 41943 01930 00000 10180 20170 30129 40136 70500 333 58008 70000==
41943,2024,11,19,00,00,AAXX 19004 41943 31930 00000 10158 20150 30128 40135 70500 333 58009 70000=
41943,2024,11,19,03,00,AAXX 19034 41943 01935 00000 10245 20180 30148 40155 70500 333 20158 58010 70000==
41943,2024,11,19,06,00,AAXX 19064 41943 01940 03103 10310 20150 30130 40137 70500 333 58003 70000==
41943,2024,11,19,09,00,AAXX 19094 41943 01945 00000 10310 20150 30105 40112 70500 333 59015 70000==
41943,2024,11,19,12,00,AAXX 19124 41943 01930 00000 10230 20190 30106 40113 70500 333 10320 58001 70000==
41943,2024,11,19,15,00,AAXX 19154 41943 01930 00000 10200 20190 30123 40130 70500 333 59001 70000==
41943,2024,11,19,18,00,AAXX 19184 41943 01930 00000 10178 20170 30126 40133 70500 333 59007 70000==
41943,2024,11,19,21,00,AAXX 19214 41943 01930 00000 10177 20170 30122 40129 70500 333 59007 70000==
41943,2024,11,20,00,00,AAXX 20004 41943 01930 00000 10175 20170 30120 40127 70500 333 59008 70000==
41943,2024,11,20,03,00,AAXX 20034 41943 01940 03602 10252 20170 30143 40150 70500 333 20175 59005 70000==
41943,2024,11,20,09,00,AAXX 20094 41943 01940 02305 10315 20150 30098 40105 70500 333 59007 70000==
41943,2024,11,20,12,00,AAXX 20124 41943 01930 00000 10230 20210 30099 40107 70500 333 10317 59007 70000==
41943,2024,11,20,15,00,AAXX 20154 41943 01930 00000 10202 20190 30117 40124 70500 333 59006 70000==
41943,2024,11,20,18,00,AAXX 20184 41943 01930 00000 10185 20180 30118 40125 70500 333 59008 70000==
41943,2024,11,20,21,00,AAXX 20214 41943 01930 00000 10177 20170 30118 40125 70500 333 59004 70000==
41943,2024,11,21,00,00,AAXX 21004 41943 01930 00000 10170 20160 30119 40127 70500 333 59001 70000==
41943,2024,11,21,03,00,AAXX 21034 41943 01940 00000 10250 20150 30142 40150 70500 333 20170 59001 70000==
41943,2024,11,21,06,00,AAXX 21064 41943 01940 03603 10300 20120 30121 40128 70500 333 59002 70000==
41943,2024,11,21,09,00,AAXX 21094 41943 01940 02706 10305 20150 30099 40106 70500 333 58001 70000==
41943,2024,11,21,12,00,AAXX 21124 41943 01930 00000 10225 20200 30102 40109 70500 333 10307 58003 70000==
41943,2024,11,21,15,00,AAXX 21154 41943 01930 00000 10195 20190 30121 40128 70500 333 58004 70000==
41943,2024,11,21,18,00,AAXX 21184 41943 01930 00000 10185 20180 30125 40133 70500 333 58007 70000==
41943,2024,11,21,21,00,AAXX 21214 41943 01930 00000 10178 20170 30124 40132 70500 333 58006 70000==
41944,2024,11,15,00,00,AAXX 15004 41944 NIL=
41944,2024,11,15,03,00,AAXX 15034 41944 NIL=
41944,2024,11,15,09,00,AAXX 15094 41944 NIL=
41944,2024,11,15,12,00,AAXX 15124 41944 NIL=
41944,2024,11,16,09,00,AAXX 16094 41944 NIL=
41944,2024,11,16,15,00,AAXX 16154 41944 NIL=
41944,2024,11,16,18,00,AAXX 16184 41944 NIL=
41944,2024,11,17,09,00,AAXX 17094 41944 NIL=
41944,2024,11,17,15,00,AAXX 17154 41944 NIL=
41944,2024,11,17,18,00,AAXX 17184 41944 NIL=
41944,2024,11,18,00,00,AAXX 18004 41944 NIL=
41944,2024,11,18,03,00,AAXX 18034 41944 NIL=
41944,2024,11,18,06,00,AAXX 18064 41944 NIL=
41944,2024,11,18,12,00,AAXX 18124 41944 NIL=
41944,2024,11,19,03,00,AAXX 19034 41944 NIL=
41944,2024,11,19,06,00,AAXX 19064 41944 NIL=
41944,2024,11,19,09,00,AAXX 19094 41944 NIL=
41944,2024,11,20,00,00,AAXX 20004 41944 NIL=
41944,2024,11,20,06,00,AAXX 20064 41944 NIL=
41944,2024,11,20,12,00,AAXX 20124 41944 NIL=
41944,2024,11,20,18,00,AAXX 20184 41944 NIL=
41944,2024,11,21,09,00,AAXX 21094 41944 NIL=
41944,2024,11,21,12,00,AAXX 21124 41944 NIL=
41944,2024,11,21,15,00,AAXX 21154 41944 NIL=
41944,2024,11,21,18,00,AAXX 21184 41944 NIL=
41946,2024,11,15,00,00,AAXX 15004 41946 01940 00000 10198 20190 30127 40132 70500 333 59007 70000==
41946,2024,11,15,03,00,AAXX 15034 41946 01950 00000 10242 20200 30146 40151 70500 333 20195 59005 70000==
41946,2024,11,15,06,00,AAXX 15064 41946 02956 00000 10295 20190 30131 40136 333 59007 70000==
41946,2024,11,15,09,00,AAXX 15094 41946 02957 03604 10304 20150 30104 40109 333 59006 70000==
41946,2024,11,15,12,00,AAXX 15124 41946 01950 00000 10244 20200 30109 40114 70500 333 10306 59006 70000==
41946,2024,11,15,15,00,AAXX 15154 41946 01950 00000 10220 20200 30125 40130 70500 333 59010 70000==
41946,2024,11,15,18,00,AAXX 15184 41946 01950 00000 10208 20200 30121 40126 70500 333 59011 70000==
41946,2024,11,15,21,00,AAXX 15214 41946 01950 00000 10204 20190 30115 40120 70500 333 59007 70000==
41946,2024,11,16,00,00,AAXX 16004 41946 01940 00000 10197 20190 30127 40132 70500 333 58000 70000==
41946,2024,11,16,03,00,AAXX 16034 41946 02956 00000 10250 20180 30144 40149 333 20194 59004 70000==
41946,2024,11,16,06,00,AAXX 16064 41946 02956 03108 10290 20130 30126 40131 333 59005 70000==
41946,2024,11,16,09,00,AAXX 16094 41946 02957 00000 10298 20140 30101 40106 333 59003 70000==
41946,2024,11,16,12,00,AAXX 16124 41946 02956 00000 10232 20180 30103 40108 333 10300 59006 70000==
41946,2024,11,16,15,00,AAXX 16154 41946 01950 00000 10200 20180 30121 40126 70500 333 59004 70000==
41946,2024,11,16,18,00,AAXX 16184 41946 01950 00000 10188 20180 30120 40125 70500 333 59001 70000==
41946,2024,11,17,00,00,AAXX 17004 41946 01950 10000 10180 20170 30117 40122 70500 80001 333 59010 70000 81080==
41946,2024,11,17,03,00,AAXX 17034 41946 02956 20000 10250 20170 30146 40151 80001 333 20175 58002 70000 82080==
41946,2024,11,17,06,00,AAXX 17064 41946 02956 20000 10290 20120 30127 40132 80001 333 58001 70000 82080==
41946,2024,11,17,09,00,AAXX 17094 41946 02957 00000 10290 20130 30104 40109 333 58003 70000==
41946,2024,11,17,12,00,AAXX 17124 41946 02956 00000 10230 20200 30107 40112 333 10295 58004 70000==
41946,2024,11,17,15,00,AAXX 17154 41946 01950 00000 10208 20190 30125 40130 70500 333 58004 70000==
41946,2024,11,17,18,00,AAXX 17184 41946 01950 00000 10198 20190 30127 40132 70500 333 58007 70000==
41946,2024,11,17,21,00,AAXX 17214 41946 01950 00000 10190 20180 30119 40124 70500 333 58008 70000==
41946,2024,11,18,00,00,AAXX 18004 41946 01940 00000 10186 20180 30129 40134 70500 333 58012 70000==
41946,2024,11,18,03,00,AAXX 18034 41946 01950 00000 10230 20200 30149 40154 70500 333 20178 58003 70000==
41946,2024,11,18,06,00,AAXX 18064 41946 02956 00306 10270 20160 30137 40142 333 58010 70000==
41946,2024,11,18,09,00,AAXX 18094 41946 02956 00000 10286 20160 30115 40120 333 58011 70000==
41946,2024,11,18,12,00,AAXX 18124 41946 02956 00000 10228 20200 30116 40121 333 10288 58009 70000==
41946,2024,11,18,15,00,AAXX 18154 41946 01950 00000 10205 20200 30134 40139 70500 333 58009 70000==
41946,2024,11,18,18,00,AAXX 18184 41946 01950 00000 10196 20190 30140 40145 70500 333 58013 70000==
41946,2024,11,18,21,00,AAXX 18214 41946 01950 00000 10194 20180 30134 40139 70500 333 58015 70000==
41946,2024,11,19,00,00,AAXX 19004 41946 01940 00000 10192 20190 30137 40142 70500 333 58008 70000==
41946,2024,11,19,03,00,AAXX 19034 41946 02956 00000 10240 20190 30163 40168 333 20186 58014 70000==
41946,2024,11,19,06,00,AAXX 19064 41946 02956 03604 10280 20130 30149 40154 333 58012 70000==
41946,2024,11,19,09,00,AAXX 19094 41946 02956 00000 10288 20150 30120 40125 333 58005 70000==
41946,2024,11,19,12,00,AAXX 19124 41946 02956 00000 10230 20200 30119 40124 333 10290 58003 70000==
41946,2024,11,19,15,00,AAXX 19154 41946 01950 00000 10205 20190 30137 40142 70500 333 58003 70000==
41946,2024,11,19,18,00,AAXX 19184 41946 01950 00000 10197 20190 30134 40139 70500 333 59006 70000==
41946,2024,11,19,21,00,AAXX 19214 41946 01950 00000 10190 20180 30129 40134 70500 333 59009 70000==
41946,2024,11,20,00,00,AAXX 20004 41946 01940 00000 10183 20170 30134 40139 70500 333 59003 70000==
41946,2024,11,20,03,00,AAXX 20034 41946 02956 00000 10240 20200 30155 40160 333 20175 59008 70000==
41946,2024,11,20,06,00,AAXX 20064 41946 02956 00000 10290 20160 30136 40141 333 59013 70000==
41946,2024,11,20,09,00,AAXX 20094 41946 02956 00000 10292 20140 30108 40113 333 59012 70000==
41946,2024,11,20,12,00,AAXX 20124 41946 02956 00000 10240 20210 30110 40115 333 10292 59009 70000==
41946,2024,11,20,15,00,AAXX 20154 41946 01950 00000 10214 20190 30129 40134 70500 333 59008 70000==
41946,2024,11,20,18,00,AAXX 20184 41946 01950 00000 10206 20200 30128 40133 70500 333 59006 70000==
41946,2024,11,20,21,00,AAXX 20214 41946 31950 00000 10200 20190 30120 40125 70500 333 59009 70000=
41946,2024,11,21,00,00,AAXX 21004 41946 01950 00000 10190 20180 30123 40128 70500 333 59011 70000==
41946,2024,11,21,03,00,AAXX 21034 41946 02956 00000 10245 20190 30149 40154 333 20185 59006 70000==
41946,2024,11,21,06,00,AAXX 21064 41946 02556 23606 10290 20120 30134 40139 82500 333 59002 70000 82620==
41946,2024,11,21,09,00,AAXX 21094 41946 02556 23602 10292 20150 30109 40114 82500 333 58001 70000 82620==
41946,2024,11,21,12,00,AAXX 21124 41946 02956 00000 10240 20200 30112 40117 333 10295 58002 70000==
41946,2024,11,21,15,00,AAXX 21154 41946 01950 00000 10215 20200 30130 40135 70500 333 58003 70000==
41946,2024,11,21,18,00,AAXX 21184 41946 01950 00000 10206 20200 30130 40135 70500 333 58002 70000==
41946,2024,11,21,21,00,AAXX 21214 41946 01950 00000 10200 20190 30120 40125 70500 333 59009 70000==
41947,2024,11,15,00,00,AAXX 15004 41947 01950 00000 10202 20200 30127 40129 70500 333 58000 70000==
41947,2024,11,15,03,00,AAXX 15034 41947 02956 00000 10250 20220 30143 40145 333 20200 59005 70000==
41947,2024,11,15,06,00,AAXX 15064 41947 02956 00000 10295 20210 30131 40134 333 59002 70000==
41947,2024,11,15,09,00,AAXX 15094 41947 02956 03602 10302 20180 30101 40103 333 59006 70000==
41947,2024,11,15,12,00,AAXX 15124 41947 01950 00000 10255 20230 30107 40109 70500 333 10305 59004 70000==
41947,2024,11,15,15,00,AAXX 15154 41947 01950 00000 10230 20220 30122 40124 70500 333 59011 70000==
41947,2024,11,15,18,00,AAXX 15184 41947 01950 00000 10218 20210 30118 40120 70500 333 59011 70000==
41947,2024,11,15,21,00,AAXX 15214 41947 01950 00000 10208 20200 30109 40111 70500 333 59018 70000==
41947,2024,11,16,00,00,AAXX 16004 41947 01950 00000 10198 20198 30120 40122 70500 333 59007 70000==
41947,2024,11,16,03,00,AAXX 16034 41947 01950 00000 10250 20180 30141 40143 70500 333 20190 59002 70000==
41947,2024,11,16,06,00,AAXX 16064 41947 02956 03202 10290 20140 30126 40128 333 59006 70000==
41947,2024,11,16,09,00,AAXX 16094 41947 02956 03202 10300 20130 30100 40102 333 59001 70000==
41947,2024,11,16,12,00,AAXX 16124 41947 02950 00000 10238 20190 30101 40103 333 10304 59006 70000==
41947,2024,11,16,15,00,AAXX 16154 41947 02950 00000 10225 20220 30113 40115 333 59009 70000==
41947,2024,11,16,18,00,AAXX 16184 41947 02950 00000 10210 20190 30118 40120 333 58000 70000==
41947,2024,11,17,00,00,AAXX 17004 41947 01950 00000 10175 20170 30121 40123 70500 333 58001 70000==
41947,2024,11,17,03,00,AAXX 17034 41947 01950 00000 10250 20160 30144 40146 70500 333 20170 58003 70000==
41947,2024,11,17,06,00,AAXX 17064 41947 02956 03202 10290 20100 30126 40128 333 58000 70000==
41947,2024,11,17,09,00,AAXX 17094 41947 02950 00000 10290 20120 30102 40104 333 58002 70000==
41947,2024,11,17,12,00,AAXX 17124 41947 02950 00000 10235 20180 30104 40106 333 10300 58003 70000==
41947,2024,11,17,15,00,AAXX 17154 41947 02950 00000 10212 20200 30122 40124 333 58009 70000==
41947,2024,11,17,18,00,AAXX 17184 41947 02950 00000 10210 20200 30127 40129 333 58009 70000==
41947,2024,11,17,21,00,AAXX 17214 41947 02950 00000 10200 20180 30125 40127 333 58006 70000==
41947,2024,11,18,00,00,AAXX 18004 41947 01950 00000 10185 20180 30123 40125 70500 333 58002 70000==
41947,2024,11,18,03,00,AAXX 18034 41947 01950 00000 10250 20180 30148 40150 70500 333 20180 58004 70000==
41947,2024,11,18,06,00,AAXX 18064 41947 02956 00000 10280 20150 30137 40139 333 58011 70000==
41947,2024,11,18,09,00,AAXX 18094 41947 02950 00000 10285 20170 30114 40116 333 58012 70000==
41947,2024,11,18,12,00,AAXX 18124 41947 02950 00000 10232 20180 30113 40115 333 10295 58009 70000==
41947,2024,11,18,15,00,AAXX 18154 41947 01950 00000 10215 20190 30134 40136 70500 333 58012 70000==
41947,2024,11,18,18,00,AAXX 18184 41947 01950 00000 10210 20190 30138 40140 70500 333 58011 70000==
41947,2024,11,18,21,00,AAXX 18214 41947 01950 00000 10195 20190 30138 40140 70500 333 58013 70000==
41947,2024,11,19,00,00,AAXX 19004 41947 01950 00000 10182 20180 30137 40139 70500 333 58014 70000==
41947,2024,11,19,03,00,AAXX 19034 41947 01950 00000 10243 20180 30160 40162 70500 333 20176 58012 70000==
41947,2024,11,19,06,00,AAXX 19064 41947 02956 00000 10290 20160 30143 40145 333 58006 70000==
41947,2024,11,19,09,00,AAXX 19094 41947 02956 00000 10292 20160 30117 40119 333 58003 70000==
41947,2024,11,19,12,00,AAXX 19124 41947 02956 00000 10238 20190 30117 40119 333 10300 58004 70000==
41947,2024,11,19,15,00,AAXX 19154 41947 01950 00000 10208 20200 30134 40136 70500 333 58000 70000==
41947,2024,11,19,18,00,AAXX 19184 41947 01950 00000 10195 20190 30134 40136 70500 333 59004 70000==
41947,2024,11,19,21,00,AAXX 19214 41947 01950 00000 10186 20180 30124 40126 70500 333 59014 70000==
41947,2024,11,20,00,00,AAXX 20004 41947 01950 00000 10182 20180 30129 40131 70500 333 59006 70000==
41947,2024,11,20,03,00,AAXX 20034 41947 01950 00000 10250 20200 30153 40155 70500 333 20178 59007 70000==
41947,2024,11,20,06,00,AAXX 20064 41947 02956 00000 10290 20140 30135 40137 333 58008 70000==
41947,2024,11,20,09,00,AAXX 20094 41947 02956 02802 10300 20150 30108 40110 333 59009 70000==
41947,2024,11,20,12,00,AAXX 20124 41947 02950 00000 10240 20180 30109 40111 333 10305 59008 70000==
41947,2024,11,20,15,00,AAXX 20154 41947 02950 00000 10215 20190 30122 40124 333 59012 70000==
41947,2024,11,20,18,00,AAXX 20184 41947 02950 00000 10205 20190 30127 40129 333 59007 70000==
41947,2024,11,20,21,00,AAXX 20214 41947 32950 00000 10200 20190 30126 40128 333 58002 70000=
41947,2024,11,21,00,00,AAXX 21004 41947 01950 00000 10190 20180 30125 40127 70500 333 59004 70000==
41947,2024,11,21,03,00,AAXX 21034 41947 01950 00000 10250 20190 30147 40149 70500 333 20184 59006 70000==
41947,2024,11,21,06,00,AAXX 21064 41947 02956 00000 10290 20140 30131 40133 333 59004 70000==
41947,2024,11,21,09,00,AAXX 21094 41947 02950 00000 10300 20160 30108 40110 333 58000 70000==
41947,2024,11,21,12,00,AAXX 21124 41947 02950 00000 10240 20190 30109 40111 333 10305 58000 70000==
41947,2024,11,21,15,00,AAXX 21154 41947 02950 00000 10220 20180 30128 40130 333 58006 70000==
41947,2024,11,21,18,00,AAXX 21184 41947 02950 00000 10216 20190 30132 40134 333 58005 70000==
41947,2024,11,21,21,00,AAXX 21214 41947 02950 00000 10200 20190 30126 40128 333 58002 70000==
41950,2024,11,15,00,00,AAXX 15004 41950 01935 00000 10200 20200 30123 40125 70500 333 59002 70000==
41950,2024,11,15,03,00,AAXX 15034 41950 01945 00000 10252 20220 30139 40141 70500 333 20196 59006 70000==
41950,2024,11,15,06,00,AAXX 15064 41950 01450 23602 10298 20190 30123 40125 70500 82500 333 59004 70000 82617==
41950,2024,11,15,09,00,AAXX 15094 41950 02950 00000 10303 20180 30097 40099 333 59006 70000==
41950,2024,11,15,12,00,AAXX 15124 41950 02950 00000 10246 20220 30102 40104 333 10310 59007 70000==
41950,2024,11,15,15,00,AAXX 15154 41950 02950 00000 10218 20210 30120 40122 333 59008 70000==
41950,2024,11,15,18,00,AAXX 15184 41950 01945 00000 10210 20210 30114 40116 70500 333 59016 70000==
41950,2024,11,15,21,00,AAXX 15214 41950 01940 00000 10205 20205 30110 40112 70500 333 59009 70000==
41950,2024,11,16,00,00,AAXX 16004 41950 01940 00000 10200 20200 30117 40119 70500 333 59006 70000==
41950,2024,11,16,03,00,AAXX 16034 41950 01940 00000 10250 20210 30137 40139 70500 333 20193 59002 70000==
41950,2024,11,16,06,00,AAXX 16064 41950 01950 00000 10294 20180 30117 40119 70500 333 59006 70000==
41950,2024,11,16,09,00,AAXX 16094 41950 02950 03002 10300 20170 30096 40098 333 59001 70000==
41950,2024,11,16,12,00,AAXX 16124 41950 02950 00000 10233 20200 30097 40099 333 10304 59005 70000==
41950,2024,11,16,15,00,AAXX 16154 41950 02950 00000 10207 20207 30116 40118 333 59004 70000==
41950,2024,11,16,18,00,AAXX 16184 41950 02950 00000 10197 20197 30113 40115 333 59001 70000==
41950,2024,11,16,21,00,AAXX 16214 41950 02950 00000 10180 20180 30113 40115 333 58003 70000==
41950,2024,11,17,00,00,AAXX 17004 41950 01940 00000 10177 20177 30111 40113 70500 333 59006 70000==
41950,2024,11,17,03,00,AAXX 17034 41950 02950 10000 10235 20170 30141 40143 80001 333 20174 58004 70000 81080==
41950,2024,11,17,06,00,AAXX 17064 41950 02950 03202 10290 20120 30122 40124 333 58005 70000==
41950,2024,11,17,09,00,AAXX 17093 41950 02950 03001 10298 20140 30102 40104 333 58006 70000==
41950,2024,11,17,12,00,AAXX 17124 41950 02950 00000 10220 20180 30103 40105 333 58006 70000==
41950,2024,11,17,15,00,AAXX 17154 41950 02950 00000 10192 20180 30122 40124 333 58006 70000==
41950,2024,11,17,18,00,AAXX 17184 41950 02950 00000 10185 20185 30127 40129 333 58014 70000==
41950,2024,11,17,21,00,AAXX 17214 41950 02950 00000 10176 20176 30122 40124 333 58009 70000==
41950,2024,11,18,00,00,AAXX 18004 41950 01945 00000 10168 20168 30126 40128 70500 333 58015 70000==
41950,2024,11,18,03,00,AAXX 18034 41950 01940 00000 10243 20180 30147 40149 70500 333 20164 58006 70000==
41950,2024,11,18,06,00,AAXX 18064 41950 02950 00000 10285 20150 30133 40135 333 58011 70000==
41950,2024,11,18,09,00,AAXX 18094 41950 02950 00000 10288 20160 30108 40110 333 58006 70000==
41950,2024,11,18,12,00,AAXX 18124 41950 02950 00000 10225 20200 30114 40116 333 10294 58011 70000==
41950,2024,11,18,15,00,AAXX 18154 41950 02950 00000 10197 20190 30131 40133 333 58009 70000==
41950,2024,11,18,18,00,AAXX 18184 41950 02950 00000 10186 20186 30138 40140 333 58011 70000==
41950,2024,11,18,21,00,AAXX 18214 41950 02950 00000 10170 20170 30130 40132 333 58008 70000==
41950,2024,11,19,00,00,AAXX 19004 41950 31940 00000 10165 20165 30134 40136 70500 333 58008 70000=
41950,2024,11,19,03,00,AAXX 19034 41950 01950 00000 10235 20180 30154 40156 70500 333 20164 58007 70000==
41950,2024,11,19,06,00,AAXX 19064 41950 02950 00000 10286 20160 30138 40140 333 58005 70000==
41950,2024,11,19,09,00,AAXX 19094 41950 02950 00000 10298 20160 30113 40115 333 58005 70000==
41950,2024,11,19,12,00,AAXX 19124 41950 02950 00000 10230 20200 30115 40117 333 10300 58001 70000==
41950,2024,11,19,15,00,AAXX 19154 41950 02950 00000 10200 20200 30132 40134 333 58001 70000==
41950,2024,11,19,18,00,AAXX 19184 41950 01945 00000 10187 20187 30133 40135 70500 333 59005 70000==
41950,2024,11,19,21,00,AAXX 19214 41950 01945 00000 10180 20180 30130 40132 70500 333 58000 70000==
41950,2024,11,20,00,00,AAXX 20004 41950 01940 00000 10174 20174 30127 40129 70500 333 59007 70000==
41950,2024,11,20,03,00,AAXX 20034 41950 01940 00000 10240 20170 30150 40152 70500 333 20170 59004 70000==
41950,2024,11,20,09,00,AAXX 20094 41950 02956 03002 10295 20170 30105 40107 333 59008 70000==
41950,2024,11,20,12,00,AAXX 20124 41950 02950 00000 10224 20180 30109 40111 333 10299 59006 70000==
41950,2024,11,20,15,00,AAXX 20154 41950 02950 00000 10195 20190 30126 40128 333 59006 70000==
41950,2024,11,20,18,00,AAXX 20184 41950 NIL=
41950,2024,11,20,21,00,AAXX 20214 41950 02950 00000 10172 20172 30122 40124 333 59008 70000==
41950,2024,11,21,00,00,AAXX 21004 41950 01940 00000 10170 20170 30119 40121 70500 333 59008 70000==
41950,2024,11,21,03,00,AAXX 21034 41950 02950 00000 10248 20190 30146 40148 333 20165 59004 70000==
41950,2024,11,21,06,00,AAXX 21064 41950 02950 00000 10290 20140 30127 40129 333 59007 70000==
41950,2024,11,21,09,00,AAXX 21094 41950 02950 00000 10300 20160 30105 40107 333 58000 70000==
41950,2024,11,21,12,00,AAXX 21124 41950 02950 00000 10230 20200 30109 40111 333 10304 58000 70000==
41950,2024,11,21,15,00,AAXX 21154 41950 02950 00000 10205 20200 30129 40131 333 58003 70000==
41950,2024,11,21,18,00,AAXX 21184 41950 02950 00000 10195 20195 30131 40133 333 58007 70000==
41950,2024,11,21,21,00,AAXX 21214 41950 02950 00000 10187 20187 30127 40129 333 58005 70000==
41951,2024,11,15,00,00,AAXX 15004 41951 01940 00000 10201 20200 30118 40123 70500 333 58002 70000==
41951,2024,11,15,03,00,AAXX 15034 41951 01940 00000 10256 20240 30130 40135 70500 333 59006 70000==
41951,2024,11,15,06,00,AAXX 15064 41951 02450 30902 10302 20210 30116 40121 83500 333 59006 70000 83618==
41951,2024,11,15,09,00,AAXX 15094 41951 02956 03102 10308 20200 30091 40096 333 59007 70000==
41951,2024,11,15,12,00,AAXX 15124 41951 01940 00000 10242 20220 30096 40101 70500 333 10311 59007 70000==
41951,2024,11,15,15,00,AAXX 15154 41951 01940 00000 10224 20210 30115 40120 70500 333 59004 70000==
41951,2024,11,15,18,00,AAXX 15184 41951 01940 00000 10213 20200 30107 40112 70500 333 59011 70000==
41951,2024,11,15,21,00,AAXX 15214 41951 01940 00000 10209 20209 30107 40112 70500 333 59011 70000==
41951,2024,11,16,00,00,AAXX 16004 41951 01940 00000 10205 20205 30109 40114 70500 333 59009 70000==
41951,2024,11,16,03,00,AAXX 16034 41951 01940 00000 10250 20230 30127 40132 70500 333 20199 59003 70000==
41951,2024,11,16,06,00,AAXX 16064 41951 02950 03102 10300 20190 30113 40118 333 59003 70000==
41951,2024,11,16,09,00,AAXX 16094 41951 02956 00000 10303 20190 30086 40091 333 59005 70000==
41951,2024,11,16,12,00,AAXX 16124 41951 01940 00000 10239 20230 30088 40093 70500 333 10308 59008 70000==
41951,2024,11,16,15,00,AAXX 16154 41951 01940 00000 10214 20200 30109 40114 70500 333 59006 70000==
41951,2024,11,16,18,00,AAXX 16184 41951 01940 00000 10199 20190 30106 40111 70500 333 59001 70000==
41951,2024,11,17,00,00,AAXX 17004 41951 01940 00000 10183 20180 30105 40110 70500 333 59004 70000==
41951,2024,11,17,03,00,AAXX 17034 41951 01940 00000 10242 20190 30130 40135 70500 333 20176 58003 70000==
41951,2024,11,17,06,00,AAXX 17064 41951 02956 00502 10292 20150 30116 40121 333 58003 70000==
41951,2024,11,17,09,00,AAXX 17094 41951 02956 00501 10298 20180 30097 40102 333 58011 70000==
41951,2024,11,17,12,00,AAXX 17124 41951 01940 00000 10226 20220 30097 40102 70500 333 10302 58009 70000==
41951,2024,11,17,15,00,AAXX 17154 41951 01940 00000 10200 20190 30115 40120 70500 333 58006 70000==
41951,2024,11,17,18,00,AAXX 17184 41951 01940 00000 10187 20190 30121 40126 70500 333 58015 70000==
41951,2024,11,17,21,00,AAXX 17214 41951 01940 00000 10178 20178 30118 40123 70500 333 58012 70000==
41951,2024,11,18,00,00,AAXX 18004 41951 01940 00000 10172 20170 30116 40121 70500 333 58011 70000==
41951,2024,11,18,03,00,AAXX 18034 41951 01940 00000 10245 20200 30138 40142 70500 333 20165 58008 70000==
41951,2024,11,18,06,00,AAXX 18064 41951 02956 00502 10289 20170 30120 40125 333 58004 70000==
41951,2024,11,18,09,00,AAXX 18094 41951 02956 00000 10295 20170 30105 40110 333 58008 70000==
41951,2024,11,18,12,00,AAXX 18124 41951 01940 00000 10220 20200 30108 40113 70500 333 10296 58011 70000==
41951,2024,11,18,15,00,AAXX 18154 41951 01940 00000 10205 20200 30125 40130 70500 333 58010 70000==
41951,2024,11,18,18,00,AAXX 18184 41951 01940 00000 10184 20180 30129 40134 70500 333 58008 70000==
41951,2024,11,19,00,00,AAXX 19004 41951 01940 00000 10168 20168 30125 40130 70500 333 58009 70000==
41951,2024,11,19,03,00,AAXX 19034 41951 01940 00000 10252 20190 30144 40149 70500 333 20164 58006 70000==
41951,2024,11,19,06,00,AAXX 19064 41951 02956 00502 10292 20150 30135 40140 333 58015 70000==
41951,2024,11,19,09,00,AAXX 19094 41951 02956 00000 10298 20160 30111 40116 333 58006 70000==
41951,2024,11,19,12,00,AAXX 19124 41951 01940 00000 10216 20200 30109 40114 70500 333 10302 58001 70000==
41951,2024,11,19,15,00,AAXX 19154 41951 01940 00000 10190 20180 30126 40131 70500 333 58001 70000==
41951,2024,11,19,18,00,AAXX 19184 41951 01940 00000 10184 20180 30126 40131 70500 333 59003 70000==
41951,2024,11,19,21,00,AAXX 19214 41951 01940 00000 10178 20178 30124 40129 70500 333 59003 70000==
41951,2024,11,20,00,00,AAXX 20004 41951 01940 00000 10173 20170 30119 40124 70500 333 59006 70000==
41951,2024,11,20,03,00,AAXX 20034 41951 01940 00000 10248 20210 30139 40144 70500 333 20165 59005 70000==
41951,2024,11,20,06,00,AAXX 20064 41951 02956 00502 10286 20180 30120 40125 333 59015 70000==
41951,2024,11,20,09,00,AAXX 20094 41951 02956 00501 10288 20180 30100 40105 333 59011 70000==
41951,2024,11,20,12,00,AAXX 20124 41951 01940 00000 10225 20210 30103 40108 70500 333 10294 59006 70000==
41951,2024,11,20,15,00,AAXX 20154 41951 01940 00000 10196 20190 30120 40125 70500 333 59006 70000==
41951,2024,11,20,18,00,AAXX 20184 41951 01940 00000 10180 20180 30119 40124 70500 333 59007 70000==
41951,2024,11,20,21,00,AAXX 20214 41951 31940 00000 10176 20176 30116 40121 70500 333 59008 70000=
41951,2024,11,21,00,00,AAXX 21004 41951 01940 00000 10172 20170 30113 40118 70500 333 59006 70000==
41951,2024,11,21,03,00,AAXX 21034 41951 01940 00000 10243 20180 30133 40138 70500 333 20166 59006 70000==
41951,2024,11,21,09,00,AAXX 21094 41951 02956 00000 10293 20160 30099 40104 333 59001 70000==
41951,2024,11,21,12,00,AAXX 21124 41951 01940 00000 10226 20210 30102 40107 70500 333 10300 59001 70000==
41951,2024,11,21,15,00,AAXX 21154 41951 01940 00000 10201 20190 30124 40129 70500 333 58004 70000==
41951,2024,11,21,18,00,AAXX 21184 41951 01940 00000 10187 20190 30126 40131 70500 333 58007 70000==
41951,2024,11,21,21,00,AAXX 21214 41951 01940 00000 10176 20176 30116 40121 70500 333 59008 70000==
41953,2024,11,15,00,00,AAXX 15004 41953 01940 00000 10225 20220 30117 40122 70500 333 59005 70000==
41953,2024,11,15,03,00,AAXX 15034 41953 01945 00000 10276 20220 30132 40137 70500 333 20223 59009 70000==
41953,2024,11,15,06,00,AAXX 15064 41953 01550 23102 10290 20190 30119 40124 70510 82200 333 59003 70000 82825==
41953,2024,11,15,09,00,AAXX 15094 41953 01550 23101 10300 20190 30092 40097 70511 82200 333 59010 70000 82825==
41953,2024,11,15,12,00,AAXX 15124 41953 01935 00000 10264 20210 30097 40102 70510 333 10302 59004 70000==
41953,2024,11,15,15,00,AAXX 15154 41953 01928 00000 10240 20220 30117 40122 71000 333 59009 70000==
41953,2024,11,15,18,00,AAXX 15184 41953 01925 00000 10232 20220 30115 40120 71000 333 59007 70000==
41953,2024,11,15,21,00,AAXX 15214 41953 01920 00000 10228 20220 30114 40119 71000 333 59001 70000==
41953,2024,11,16,00,00,AAXX 16004 41953 01908 00000 10222 20220 30113 40118 74240 333 59004 70000==
41953,2024,11,16,03,00,AAXX 16034 41953 01940 03102 10260 20210 30133 40138 70540 333 20220 58001 70000==
41953,2024,11,16,06,00,AAXX 16064 41953 01450 23604 10295 20190 30110 40115 70541 82500 333 59009 70000 82618==
41953,2024,11,16,09,00,AAXX 16094 41953 01450 33603 10298 20170 30092 40097 70511 83500 333 58000 70000 83618==
41953,2024,11,16,12,00,AAXX 16124 41953 01940 00000 10260 20180 30089 40094 70510 333 10311 59008 70000==
41953,2024,11,16,15,00,AAXX 16154 41953 01935 00000 10240 20200 30111 40116 70500 333 59006 70000==
41953,2024,11,16,18,00,AAXX 16184 41953 01935 00000 10226 20200 30109 40114 70500 333 59006 70000==
41953,2024,11,17,00,00,AAXX 17004 41953 01940 00000 10216 20200 30112 40117 70500 333 59004 70000==
41953,2024,11,17,03,00,AAXX 17034 41953 01945 00000 10264 20200 30141 40146 70500 333 20214 58008 70000==
41953,2024,11,17,06,00,AAXX 17064 41953 01445 43102 10278 20160 30122 40127 70520 84400 333 58012 70000 82618 83825==
41953,2024,11,17,09,00,AAXX 17094 41953 01945 03101 10286 20170 30097 40102 70500 333 58005 70000==
41953,2024,11,17,12,00,AAXX 17124 41953 01935 00000 10252 20200 30098 40103 70500 333 10287 58009 70000==
41953,2024,11,17,15,00,AAXX 17154 41953 01925 00000 10224 20180 30117 40122 71000 333 58006 70000==
41953,2024,11,17,18,00,AAXX 17184 41953 01925 00000 10218 20190 30115 40120 71000 333 58006 70000==
41953,2024,11,17,21,00,AAXX 17214 41953 01920 00000 10208 20200 30117 40122 71000 333 58007 70000==
41953,2024,11,18,00,00,AAXX 18004 41953 01908 00000 10196 20196 30125 40130 74240 333 58013 70000==
41953,2024,11,18,03,00,AAXX 18034 41953 01940 03101 10254 20150 30145 40150 70540 333 20195 58004 70000==
41953,2024,11,18,06,00,AAXX 18064 41953 01940 00000 10282 20140 30132 40137 70500 333 58010 70000==
41953,2024,11,18,09,00,AAXX 18094 41953 01940 00000 10286 20150 30108 40113 70500 333 58011 70000==
41953,2024,11,18,12,00,AAXX 18124 41953 01940 00000 10240 20190 30111 40116 70500 333 10295 58013 70000==
41953,2024,11,18,15,00,AAXX 18154 41953 01935 00000 10220 20180 30128 40133 70500 333 58011 70000==
41953,2024,11,18,18,00,AAXX 18184 41953 01935 00000 10210 20180 30133 40138 70500 333 58018 70000==
41953,2024,11,18,21,00,AAXX 18214 41953 01935 00000 10200 20180 30125 40130 70500 333 58008 70000==
41953,2024,11,19,00,00,AAXX 19004 41953 01935 00000 10190 20170 30132 40137 70500 333 58007 70000==
41953,2024,11,19,03,00,AAXX 19034 41953 01940 00000 10260 20170 30151 40156 70500 333 20190 58006 70000==
41953,2024,11,19,06,00,AAXX 19064 41953 01940 00000 10290 20160 30136 40141 70500 333 58004 70000==
41953,2024,11,19,09,00,AAXX 19094 41953 01950 00000 10300 20160 30110 40115 70500 333 58002 70000==
41953,2024,11,19,12,00,AAXX 19124 41953 01940 00000 10245 20190 30111 40116 70500 333 10310 58000 70000==
41953,2024,11,19,15,00,AAXX 19154 41953 01935 00000 10220 20210 30126 40131 70500 333 59002 70000==
41953,2024,11,19,18,00,AAXX 19184 41953 01935 00000 10210 20200 30130 40135 70500 333 59003 70000==
41953,2024,11,19,21,00,AAXX 19214 41953 01935 00000 10200 20190 30123 40128 70500 333 59002 70000==
41953,2024,11,20,00,00,AAXX 20004 41953 01935 00000 10200 20190 30122 40127 70500 333 59010 70000==
41953,2024,11,20,03,00,AAXX 20034 41953 01940 00000 10260 20170 30147 40152 70500 333 20196 59004 70000==
41953,2024,11,20,06,00,AAXX 20064 41953 01950 00000 10290 20170 30129 40134 70500 333 59007 70000==
41953,2024,11,20,09,00,AAXX 20094 41953 01950 00000 10305 20170 30103 40108 70500 333 59007 70000==
41953,2024,11,20,12,00,AAXX 20124 41953 01940 00000 10250 20200 30105 40110 70500 333 10306 59006 70000==
41953,2024,11,20,15,00,AAXX 20154 41953 01940 00000 10225 20210 30120 40125 70500 333 59006 70000==
41953,2024,11,20,18,00,AAXX 20184 41953 01940 00000 10212 20190 30122 40127 70500 333 59008 70000==
41953,2024,11,20,21,00,AAXX 20214 41953 31940 00000 10206 20190 30115 40120 70500 333 59008 70000=
41953,2024,11,21,00,00,AAXX 21004 41953 01935 00000 10195 20190 30120 40125 70500 333 59002 70000==
41953,2024,11,21,03,00,AAXX 21034 41953 01940 00000 10250 20160 30143 40148 70500 333 20193 59004 70000==
41953,2024,11,21,09,00,AAXX 21094 41953 01950 00000 10286 20120 30104 40109 70500 333 58001 70000==
41953,2024,11,21,12,00,AAXX 21124 41953 01940 00000 10250 20200 30110 40115 70500 333 10300 58005 70000==
41953,2024,11,21,15,00,AAXX 21154 41953 01935 00000 10216 20200 30125 40130 70500 333 58005 70000==
41953,2024,11,21,18,00,AAXX 21184 41953 01935 00000 10207 20200 30129 40134 70500 333 58007 70000==
41953,2024,11,21,21,00,AAXX 21214 41953 01940 00000 10206 20190 30115 40120 70500 333 59008 70000==
41955,2024,11,15,00,00,AAXX 15004 41955 NIL=
41955,2024,11,15,03,00,AAXX 15034 41955 NIL=
41955,2024,11,15,09,00,AAXX 15094 41955 NIL=
41955,2024,11,15,12,00,AAXX 15124 41955 NIL=
41955,2024,11,16,09,00,AAXX 16094 41955 NIL=
41955,2024,11,16,15,00,AAXX 16154 41955 NIL=
41955,2024,11,16,18,00,AAXX 16184 41955 NIL=
41955,2024,11,17,09,00,AAXX 17094 41955 NIL=
41955,2024,11,17,15,00,AAXX 17154 41955 NIL=
41955,2024,11,17,18,00,AAXX 17184 41955 NIL=
41955,2024,11,18,00,00,AAXX 18004 41955 NIL=
41955,2024,11,18,03,00,AAXX 18034 41955 NIL=
41955,2024,11,18,06,00,AAXX 18064 41955 NIL=
41955,2024,11,18,12,00,AAXX 18124 41955 NIL=
41955,2024,11,19,03,00,AAXX 19034 41955 NIL=
41955,2024,11,19,06,00,AAXX 19064 41955 NIL=
41955,2024,11,19,09,00,AAXX 19094 41955 NIL=
41955,2024,11,20,00,00,AAXX 20004 41955 NIL=
41955,2024,11,20,06,00,AAXX 20064 41955 NIL=
41955,2024,11,20,12,00,AAXX 20124 41955 NIL=
41955,2024,11,20,18,00,AAXX 20184 41955 NIL=
41955,2024,11,21,09,00,AAXX 21094 41955 NIL=
41955,2024,11,21,12,00,AAXX 21124 41955 NIL=
41955,2024,11,21,15,00,AAXX 21154 41955 NIL=
41955,2024,11,21,18,00,AAXX 21184 41955 NIL=
41958,2024,11,15,00,00,AAXX 15004 41958 31940 00000 10215 20215 30122 40124 70500 333 59002 70000=
41958,2024,11,15,03,00,AAXX 15034 41958 31940 00502 10255 20210 30139 40141 70500 333 20207 59004 70000=
41958,2024,11,15,06,00,AAXX 15064 41958 31950 02701 10300 20220 30127 40129 70500 333 59002 70000=
41958,2024,11,15,09,00,AAXX 15094 41958 31950 00000 10298 20250 30096 40098 70500 333 59010 70000=
41958,2024,11,15,12,00,AAXX 15124 41958 31950 00000 10245 20230 30102 40104 70500 333 10310 59007 70000=
41958,2024,11,15,15,00,AAXX 15154 41958 32950 00000 10224 20210 30119 40121 70500 333 59010 70000=
41958,2024,11,15,18,00,AAXX 15184 41958 31940 00000 10220 20220 30115 40117 70500 333 59017 70000=
41958,2024,11,15,21,00,AAXX 15214 41958 31940 00000 10216 20216 30119 40121 70500 333 59002 70000=
41958,2024,11,16,00,00,AAXX 16004 41958 31950 00000 10210 20210 30118 40120 70500 333 59004 70000=
41958,2024,11,16,03,00,AAXX 16034 41958 31950 00000 10256 20190 30136 40138 70500 333 20200 59003 70000=
41958,2024,11,16,06,00,AAXX 16064 41958 31950 03101 10300 20180 30124 40126 70500 333 59003 70000=
41958,2024,11,16,09,00,AAXX 16094 41958 31950 03101 10306 20180 30091 40093 70500 333 59005 70000=
41958,2024,11,16,12,00,AAXX 16124 41958 31950 00000 10224 20200 30097 40099 70500 333 10308 59005 70000=
41958,2024,11,16,15,00,AAXX 16154 41958 31950 00000 10205 20200 30115 40120 70500 333 59005 70000=
41958,2024,11,16,18,00,AAXX 16184 41958 NIL=
41958,2024,11,17,00,00,AAXX 17004 41958 31950 00000 10182 20180 30114 40116 70500 333 59004 70000=
41958,2024,11,17,03,00,AAXX 17034 41958 31950 00000 10252 20160 30139 40141 70500 333 20176 58003 70000=
41958,2024,11,17,06,00,AAXX 17064 41958 31956 03101 10294 20120 30121 40123 70500 333 59003 70000=
41958,2024,11,17,09,00,AAXX 17094 41958 31956 00000 10297 20170 30101 40103 70500 333 58010 70000=
41958,2024,11,17,12,00,AAXX 17124 41958 31950 00000 10220 20180 30101 40103 70500 333 10301 58004 70000=
41958,2024,11,17,15,00,AAXX 17154 41958 31950 00000 10206 20190 30119 40121 70500 333 58004 70000=
41958,2024,11,17,18,00,AAXX 17184 41958 31940 00000 10200 20200 30124 40126 70500 333 58013 70000=
41958,2024,11,17,21,00,AAXX 17214 41958 31940 00000 10197 20197 30122 40124 70500 333 58007 70000=
41958,2024,11,18,00,00,AAXX 18004 41958 31930 00000 10194 20190 30121 40123 71000 333 58007 70000=
41958,2024,11,18,03,00,AAXX 18034 41958 31950 00000 10246 20210 30142 40144 70500 333 20186 58003 70000=
41958,2024,11,18,06,00,AAXX 18064 41958 31956 00000 10290 20190 30132 40134 70500 333 58011 70000=
41958,2024,11,18,09,00,AAXX 18094 41958 31956 00000 10284 20160 30109 40111 70500 333 58008 70000=
41958,2024,11,18,12,00,AAXX 18124 41958 31950 00000 10224 20180 30109 40111 70500 333 10295 58008 70000=
41958,2024,11,18,15,00,AAXX 18154 41958 31940 00000 10207 20200 30130 40132 70500 333 58011 70000=
41958,2024,11,18,18,00,AAXX 18184 41958 31940 00000 10202 20200 30134 40136 70500 333 58010 70000=
41958,2024,11,18,21,00,AAXX 18214 41958 31940 00000 10195 20195 30133 40135 70500 333 58011 70000=
41958,2024,11,19,00,00,AAXX 19004 41958 31940 00000 10190 20190 30131 40133 70500 333 58010 70000=
41958,2024,11,19,03,00,AAXX 19034 41958 31950 00000 10240 20190 30152 40154 70500 333 20182 58010 70000=
41958,2024,11,19,06,00,AAXX 19064 41958 31956 00000 10290 20140 30140 40142 70500 333 58008 70000=
41958,2024,11,19,09,00,AAXX 19094 41958 31956 00000 10290 20170 30114 40116 70500 333 58005 70000=
41958,2024,11,19,12,00,AAXX 19124 41958 31950 00000 10220 20190 30114 40116 70500 333 10300 58005 70000=
41958,2024,11,19,15,00,AAXX 19154 41958 31950 00000 10207 20190 30132 40134 70500 333 58002 70000=
41958,2024,11,19,18,00,AAXX 19184 41958 31940 00000 10203 20190 30131 40133 70500 333 59003 70000=
41958,2024,11,19,21,00,AAXX 19214 41958 31940 00000 10192 20190 30125 40127 70500 333 59008 70000=
41958,2024,11,20,00,00,AAXX 20004 41958 31950 00000 10187 20187 30123 40125 70500 333 59008 70000=
41958,2024,11,20,03,00,AAXX 20034 41958 31950 00000 10238 20190 30144 40146 70500 333 20180 59008 70000=
41958,2024,11,20,06,00,AAXX 20064 41958 32956 00000 10290 20160 30135 40138 333 59005 70000=
41958,2024,11,20,09,00,AAXX 20094 41958 32956 00000 10294 20160 30104 40106 333 59010 70000=
41958,2024,11,20,12,00,AAXX 20124 41958 32950 00000 10230 20180 30105 40107 333 10300 59009 70000=
41958,2024,11,20,15,00,AAXX 20154 41958 32940 00000 10206 20190 30122 40124 333 59010 70000=
41958,2024,11,20,18,00,AAXX 20184 41958 31940 00000 10200 20190 30124 40126 70500 333 59007 70000=
41958,2024,11,20,21,00,AAXX 20214 41958 31940 00000 10196 20190 30120 40122 70500 333 59005 70000=
41958,2024,11,21,00,00,AAXX 21004 41958 31940 00000 10194 20190 30122 40124 70500 333 59001 70000=
41958,2024,11,21,03,00,AAXX 21034 41958 31950 00000 10256 20210 30145 40147 70500 333 20185 58001 70000=
41958,2024,11,21,06,00,AAXX 21064 41958 32956 03301 10300 20140 30128 40130 333 59007 70000=
41958,2024,11,21,09,00,AAXX 21094 41958 32956 00000 10294 20140 30106 40108 333 58002 70000=
41958,2024,11,21,12,00,AAXX 21124 41958 32950 00000 10226 20180 30109 40111 333 10305 58004 70000=
41958,2024,11,21,15,00,AAXX 21154 41958 32940 00000 10206 20180 30127 40129 333 58005 70000=
41958,2024,11,21,18,00,AAXX 21184 41958 31940 00000 10200 20190 30128 40130 70500 333 58004 70000=
41960,2024,11,15,00,00,AAXX 15004 41960 01920 00000 10207 20207 30122 40124 71000 333 59002 70000==
41960,2024,11,15,03,00,AAXX 15034 41960 01930 00000 10248 20230 30139 40141 71000 333 20201 59003 70000==
41960,2024,11,15,06,00,AAXX 15064 41960 01956 03603 10290 20200 30118 40120 70500 333 59010 70000==
41960,2024,11,15,09,00,AAXX 15094 41960 01956 03203 10302 20190 30098 40099 70500 333 59006 70000==
41960,2024,11,15,12,00,AAXX 15124 41960 01940 00000 10250 20220 30102 40104 70500 333 10307 59004 70000==
41960,2024,11,15,15,00,AAXX 15154 41960 01930 00000 10220 20210 30122 40124 71000 333 59006 70000==
41960,2024,11,15,18,00,AAXX 15184 41960 01920 00000 10212 20212 30114 40116 71000 333 59008 70000==
41960,2024,11,15,21,00,AAXX 15214 41960 01920 00000 10206 20206 30116 40118 71000 333 59008 70000==
41960,2024,11,16,00,00,AAXX 16004 41960 01920 00000 10202 20202 30118 40120 71000 333 59004 70000==
41960,2024,11,16,03,00,AAXX 16034 41960 01950 00000 10249 20210 30135 40137 71000 333 20200 59004 70000==
41960,2024,11,16,06,00,AAXX 16064 41960 01940 03403 10298 20190 30117 40119 70500 333 59001 70000==
41960,2024,11,16,09,00,AAXX 16094 41960 01940 00000 10294 20180 30096 40098 70500 333 59002 70000==
41960,2024,11,16,12,00,AAXX 16124 41960 01940 00000 10250 20210 30095 40097 70500 333 10302 59007 70000==
41960,2024,11,16,15,00,AAXX 16154 41960 01940 00000 10212 20210 30113 40115 70500 333 59009 70000==
41960,2024,11,16,18,00,AAXX 16184 41960 01940 00000 10205 20200 30113 40115 70500 333 59001 70000==
41960,2024,11,17,00,00,AAXX 17004 41960 01925 00000 10187 20187 30117 40119 71000 333 59001 70000==
41960,2024,11,17,03,00,AAXX 17034 41960 01940 03402 10230 20180 30137 40139 71000 333 20184 58002 70000==
41960,2024,11,17,06,00,AAXX 17064 41960 01950 03204 10282 20140 30119 40121 70500 333 58002 70000==
41960,2024,11,17,09,00,AAXX 17094 41960 01940 03401 10289 20160 30102 40104 70500 333 58006 70000==
41960,2024,11,17,12,00,AAXX 17124 41960 01960 00000 10237 20190 30100 40102 70500 333 10296 58005 70000==
41960,2024,11,17,15,00,AAXX 17154 41960 01930 00000 10200 20200 30122 40124 71000 333 58009 70000==
41960,2024,11,17,18,00,AAXX 17184 41960 NIL=
41960,2024,11,17,21,00,AAXX 17214 41960 01920 00000 10185 20185 30123 40125 71000 333 58008 70000==
41960,2024,11,18,00,00,AAXX 18004 41960 01920 00000 10180 20180 30125 40127 71000 333 58008 70000==
41960,2024,11,18,03,00,AAXX 18034 41960 01940 00000 10225 20190 30136 40138 71000 333 20176 59001 70000==
41960,2024,11,18,06,00,AAXX 18064 41960 01950 03202 10292 20150 30131 40133 70500 333 59012 70000==
41960,2024,11,18,09,00,AAXX 18094 41960 01940 00000 10298 20180 30109 40111 70500 333 58007 70000==
41960,2024,11,18,12,00,AAXX 18124 41960 01940 00000 10230 20210 30109 40111 70500 333 10300 58009 70000==
41960,2024,11,18,15,00,AAXX 18154 41960 01940 00000 10202 20200 30126 40128 70500 333 58004 70000==
41960,2024,11,18,18,00,AAXX 18184 41960 01930 00000 10196 20196 30137 40139 71000 333 58016 70000==
41960,2024,11,18,21,00,AAXX 18214 41960 01930 00000 10185 20185 30135 40137 71000 333 58012 70000==
41960,2024,11,19,00,00,AAXX 19004 41960 01930 00000 10177 20177 30134 40135 71000 333 58009 70000==
41960,2024,11,19,03,00,AAXX 19034 41960 01940 00000 10225 20180 30153 40155 71000 333 20174 58017 70000==
41960,2024,11,19,06,00,AAXX 19064 41960 01950 03202 10290 20160 30139 40141 70500 333 58007 70000==
41960,2024,11,19,09,00,AAXX 19094 41960 01950 00000 10290 20170 30114 40116 70500 333 58005 70000==
41960,2024,11,19,12,00,AAXX 19124 41960 01940 00000 10237 20220 30112 40114 70500 333 10303 58003 70000==
41960,2024,11,19,15,00,AAXX 19154 41960 01940 00000 10210 20210 30133 40135 70500 333 58007 70000==
41960,2024,11,19,18,00,AAXX 19184 41960 01940 00000 10195 20195 30134 40135 70500 333 58003 70000==
41960,2024,11,19,21,00,AAXX 19214 41960 01940 00000 10188 20188 30130 40132 70500 333 59005 70000==
41960,2024,11,20,00,00,AAXX 20004 41960 01940 00000 10182 20182 30127 40128 70500 333 59007 70000==
41960,2024,11,20,03,00,AAXX 20034 41960 01950 00000 10226 20200 30146 40148 70500 333 20176 59007 70000==
41960,2024,11,20,06,00,AAXX 20064 41960 02956 03202 10282 20160 30131 40133 333 59007 70000==
41960,2024,11,20,09,00,AAXX 20094 41960 02957 00000 10291 20170 30107 40109 333 59007 70000==
41960,2024,11,20,12,00,AAXX 20124 41960 01940 00000 10232 20200 30106 40108 70500 333 10302 59006 70000==
41960,2024,11,20,15,00,AAXX 20154 41960 01940 00000 10206 20206 30125 40127 70500 333 59008 70000==
41960,2024,11,20,18,00,AAXX 20184 41960 01940 00000 10192 20192 30125 40127 70500 333 59009 70000==
41960,2024,11,20,21,00,AAXX 20214 41960 31940 00000 10187 20187 30124 40125 70500 333 59006 70000=
41960,2024,11,21,00,00,AAXX 21004 41960 01930 00000 10180 20180 30122 40124 71000 333 59005 70000==
41960,2024,11,21,03,00,AAXX 21034 41960 01940 00000 10230 20200 30143 40145 70500 333 20176 59003 70000==
41960,2024,11,21,06,00,AAXX 21064 41960 02950 03402 10290 20160 30133 40135 333 58002 70000==
41960,2024,11,21,09,00,AAXX 21094 41960 02956 00000 10290 20160 30107 40109 333 58000 70000==
41960,2024,11,21,12,00,AAXX 21124 41960 01940 00000 10241 20210 30106 40108 70500 333 10308 58000 70000==
41960,2024,11,21,15,00,AAXX 21154 41960 01940 00000 10209 20209 30127 40129 70500 333 58002 70000==
41960,2024,11,21,18,00,AAXX 21184 41960 01940 00000 10194 20194 30133 40135 70500 333 58008 70000==
41960,2024,11,21,21,00,AAXX 21214 41960 01940 00000 10187 20187 30124 40125 70500 333 59006 70000==
41963,2024,11,15,00,00,AAXX 15004 41963 01920 00000 10207 20207 30113 40116 71000 333 58002 70000==
41963,2024,11,15,03,00,AAXX 15034 41963 01950 03601 10270 20220 30128 40131 70500 333 20205 58000 70000==
41963,2024,11,15,06,00,AAXX 15064 41963 02456 33502 10295 20230 30112 40115 83400 333 59007 70000 82618==
41963,2024,11,15,09,00,AAXX 15094 41963 NIL=
41963,2024,11,15,12,00,AAXX 15124 41963 NIL=
41963,2024,11,16,09,00,AAXX 16094 41963 02456 23602 10293 20220 30090 40093 82500 333 58000 70000 82618==
41963,2024,11,16,12,00,AAXX 16124 41963 01950 03601 10240 20220 30089 40091 70500 333 10300 59005 70000==
41963,2024,11,16,15,00,AAXX 16154 41963 NIL=
41963,2024,11,16,18,00,AAXX 16184 41963 NIL=
41963,2024,11,17,03,00,AAXX 17034 41963 01950 03601 10245 20210 30125 40127 70500 333 20195 58003 70000==
41963,2024,11,17,09,00,AAXX 17094 41963 NIL=
41963,2024,11,17,15,00,AAXX 17154 41963 01950 00000 10220 20200 30102 40105 70500 333 59003 70000==
41963,2024,11,17,18,00,AAXX 17184 41963 01940 00000 10208 20208 30110 40113 70500 333 59002 70000==
41963,2024,11,17,21,00,AAXX 17214 41963 01940 00000 10200 20200 30109 40112 70500 333 59003 70000==
41963,2024,11,18,00,00,AAXX 18004 41963 01940 00000 10188 20188 30108 40111 70500 333 58001 70000==
41963,2024,11,18,03,00,AAXX 18034 41963 NIL=
41963,2024,11,18,06,00,AAXX 18064 41963 NIL=
41963,2024,11,18,12,00,AAXX 18124 41963 NIL=
41963,2024,11,18,21,00,AAXX 18214 41963 01940 00000 10198 20190 30116 40118 70500 333 58009 70000==
41963,2024,11,19,00,00,AAXX 19004 41963 01940 00000 10180 20180 30124 40126 70500 333 58016 70000==
41963,2024,11,19,03,00,AAXX 19034 41963 NIL=
41963,2024,11,19,06,00,AAXX 19064 41963 02957 00603 10290 20170 30133 40136 333 58017 70000==
41963,2024,11,19,09,00,AAXX 19094 41963 02958 03603 10295 20190 30105 40108 333 58004 70000==
41963,2024,11,19,12,00,AAXX 19124 41963 01950 03501 10225 20210 30103 40106 70500 333 10302 59002 70000==
41963,2024,11,19,21,00,AAXX 19214 41963 01950 00000 10195 20190 30113 40115 70500 333 59005 70000==
41963,2024,11,20,00,00,AAXX 20004 41963 01940 00000 10185 20185 30117 40119 70500 333 59007 70000==
41963,2024,11,20,03,00,AAXX 20034 41963 01950 03601 10255 20220 30141 40143 70500 333 20180 59001 70000==
41963,2024,11,20,06,00,AAXX 20064 41963 02957 03301 10295 20190 30123 40126 333 59010 70000==
41963,2024,11,20,12,00,AAXX 20124 41963 01950 03401 10230 20210 30100 40103 70500 333 10305 59003 70000==
41963,2024,11,20,18,00,AAXX 20184 41963 NIL=
41963,2024,11,21,00,00,AAXX 21004 41963 01950 00000 10190 20190 30115 40118 70500 333 59002 70000==
41963,2024,11,21,06,00,AAXX 21064 41963 02/56 23601 10285 20180 30120 40123 82030 333 59003 70000 82362==
41963,2024,11,21,09,00,AAXX 21094 41963 02957 03501 10295 20170 30098 40101 333 59005 70000==
41963,2024,11,21,12,00,AAXX 21124 41963 01950 00000 10230 20210 30103 40106 70500 333 10303 58003 70000==
41963,2024,11,21,15,00,AAXX 21154 41963 NIL=
41963,2024,11,21,18,00,AAXX 21184 41963 NIL=
41964,2024,11,15,00,00,AAXX 15004 41964 01940 40000 10210 20210 30117 40119 70500 80001 333 59003 70000 84080==
41964,2024,11,15,03,00,AAXX 15034 41964 02956 00501 10278 20230 30130 40133 333 20198 59006 70000==
41964,2024,11,15,09,00,AAXX 15094 41964 NIL=
41964,2024,11,15,12,00,AAXX 15124 41964 02956 00000 10248 20230 30094 40097 333 10311 59008 70000==
41964,2024,11,15,18,00,AAXX 15184 41964 01950 00000 10217 20210 30113 40116 70500 333 59009 70000==
41964,2024,11,15,21,00,AAXX 15214 41964 01940 00000 10214 20210 30112 40115 70500 333 59008 70000==
41964,2024,11,16,00,00,AAXX 16004 41964 01940 00000 10212 20210 30110 40113 70500 333 59007 70000==
41964,2024,11,16,03,00,AAXX 16034 41964 02956 00000 10270 20230 30123 40125 333 20201 59002 70000==
41964,2024,11,16,06,00,AAXX 16064 41964 02457 51901 10290 20220 30102 40105 83510 333 59013 70000 83618 85460==
41964,2024,11,16,09,00,AAXX 16094 41964 NIL=
41964,2024,11,16,12,00,AAXX 16124 41964 02956 60000 10252 20230 30088 40091 84510 333 10311 59006 70000 84618 83460==
41964,2024,11,16,15,00,AAXX 16154 41964 01445 50000 10233 20220 30102 40105 70522 83510 333 59015 70000 83618 83460==
41964,2024,11,16,18,00,AAXX 16184 41964 NIL=
41964,2024,11,17,03,00,AAXX 17034 41964 01450 10501 10268 20230 30130 40133 70520 333 20195 58002 70000 81500 81618==
41964,2024,11,17,09,00,AAXX 17094 41964 02956 00000 10295 20220 30094 40097 333 58009 70000==
41964,2024,11,17,12,00,AAXX 17124 41964 01950 00000 10241 20230 30095 40098 70500 333 10306 58007 70000==
41964,2024,11,17,15,00,AAXX 17154 41964 NIL=
41964,2024,11,17,18,00,AAXX 17184 41964 01940 00000 10213 20210 30121 40124 70500 333 58019 70000==
41964,2024,11,18,00,00,AAXX 18004 41964 NIL=
41964,2024,11,18,03,00,AAXX 18034 41964 02956 00000 10267 20200 30140 40143 333 20180 58010 70000==
41964,2024,11,18,06,00,AAXX 18064 41964 NIL=
41964,2024,11,18,09,00,AAXX 18094 41964 02957 00000 10295 20180 30101 40104 333 58007 70000==
41964,2024,11,18,12,00,AAXX 18124 41964 01950 00000 10234 20210 30108 40111 70500 333 10306 58013 70000==
41964,2024,11,19,03,00,AAXX 19034 41964 02956 00000 10276 20190 30147 40150 333 20175 58007 70000==
41964,2024,11,19,06,00,AAXX 19064 41964 02956 00000 10305 20190 30127 40129 333 58008 70000==
41964,2024,11,19,09,00,AAXX 19094 41964 NIL=
41964,2024,11,19,12,00,AAXX 19124 41964 01950 00000 10240 20210 30109 40112 70520 333 10320 58001 70000==
41964,2024,11,19,18,00,AAXX 19184 41964 01940 00000 10210 20200 30126 40129 70500 333 58003 70000==
41964,2024,11,20,00,00,AAXX 20004 41964 NIL=
41964,2024,11,20,06,00,AAXX 20064 41964 NIL=
41964,2024,11,20,12,00,AAXX 20124 41964 01950 00000 10238 20220 30103 40106 70500 333 10322 59006 70000==
41964,2024,11,20,15,00,AAXX 20154 41964 01945 00000 10212 20200 30131 40134 70500 333 58007 70000==
41964,2024,11,20,18,00,AAXX 20184 41964 NIL=
41964,2024,11,21,00,00,AAXX 21004 41964 01/20 40000 10198 20198 30125 40127 70500 84030 333 59004 70000 84365==
41964,2024,11,21,03,00,AAXX 21034 41964 01950 00000 10265 20200 30142 40145 70520 333 20185 59001 70000==
41964,2024,11,21,09,00,AAXX 21094 41964 02957 00000 10303 20190 30100 40103 333 59002 70000==
41964,2024,11,21,12,00,AAXX 21124 41964 01/50 20000 10239 20220 30104 40107 70520 82010 333 10315 58001 70000 82460==
41964,2024,11,21,15,00,AAXX 21154 41964 01945 00000 10211 20200 30123 40126 70520 333 59008 70000==
41964,2024,11,21,18,00,AAXX 21184 41964 NIL=
41964,2024,11,21,21,00,AAXX 21214 41964 42940 00000 10200 20200 30126 40128 59001==
41965,2024,11,15,00,00,AAXX 15004 41965 01915 00000 10190 20180 30121 40130 71000 333 58008 70000==
41965,2024,11,15,03,00,AAXX 15034 41965 01950 00000 10285 20190 30126 40135 70500 333 20180 59005 70000==
41965,2024,11,15,06,00,AAXX 15064 41965 01956 00000 10312 20160 30104 40113 70500 333 59011 70000==
41965,2024,11,15,09,00,AAXX 15094 41965 01956 03202 10310 20170 30090 40099 70500 333 59002 70000==
41965,2024,11,15,12,00,AAXX 15124 41965 01930 00000 10215 20180 30092 40101 70500 333 10320 59004 70000==
41965,2024,11,15,15,00,AAXX 15154 41965 01925 00000 10210 20180 30103 40112 71000 333 59016 70000==
41965,2024,11,16,00,00,AAXX 16004 41965 01915 00000 10190 20170 30113 40122 71000 333 59008 70000==
41965,2024,11,16,03,00,AAXX 16034 41965 01940 00000 10285 20220 30124 40133 70500 333 20186 59002 70000==
41965,2024,11,16,06,00,AAXX 16064 41965 02956 03101 10310 20150 30100 40109 333 59004 70000==
41965,2024,11,16,09,00,AAXX 16094 41965 02956 00000 10310 20140 30084 40093 333 59006 70000==
41965,2024,11,16,12,00,AAXX 16124 41965 01930 00000 10225 20210 30088 40097 70500 333 10315 59004 70000==
41965,2024,11,16,15,00,AAXX 16154 41965 01920 00000 10200 20180 30104 40113 71000 333 58081 70000==
41965,2024,11,16,18,00,AAXX 16184 41965 NIL=
41965,2024,11,17,00,00,AAXX 17004 41965 01915 00000 10190 20170 30118 40127 71000 333 58005 70000==
41965,2024,11,17,03,00,AAXX 17034 41965 01950 00000 10280 20200 30125 40134 70500 333 20175 58001 70000==
41965,2024,11,17,06,00,AAXX 17064 41965 02956 33102 10300 20190 30107 40116 80002 333 58007 70000 83080==
41965,2024,11,17,09,00,AAXX 17094 41965 02950 00000 10315 20140 30089 40098 333 58005 70000==
41965,2024,11,17,12,00,AAXX 17124 41965 01930 00000 10220 20170 30095 40104 70500 333 10320 58007 70000==
41965,2024,11,17,15,00,AAXX 17154 41965 01930 00000 10210 20170 30109 40118 70500 333 58005 70000==
41965,2024,11,17,18,00,AAXX 17184 41965 NIL=
41965,2024,11,17,21,00,AAXX 17214 41965 01915 00000 10190 20170 30113 40122 71000 333 58003 70000==
41965,2024,11,18,00,00,AAXX 18004 41965 01915 00000 10170 20120 30118 40127 71000 333 58000 70000==
41965,2024,11,18,03,00,AAXX 18034 41965 01950 00000 10260 20140 30131 40140 70500 333 20160 58006 70000==
41965,2024,11,18,06,00,AAXX 18064 41965 01950 03102 10300 20180 30120 40129 70500 333 58013 70000==
41965,2024,11,18,09,00,AAXX 18094 41965 01956 03203 10300 20170 30100 40109 70500 333 58011 70000==
41965,2024,11,18,12,00,AAXX 18124 41965 01930 00000 10220 20190 30108 40117 70500 333 10320 58013 70000==
41965,2024,11,18,15,00,AAXX 18154 41965 01920 00000 10210 20190 30123 40132 71000 333 58014 70000==
41965,2024,11,19,00,00,AAXX 19004 41965 01908 00000 10170 20130 30133 40142 74444 333 58015 70000==
41965,2024,11,19,03,00,AAXX 19034 41965 01940 00000 10265 20150 30140 40149 70500 333 20160 58009 70000==
41965,2024,11,19,06,00,AAXX 19064 41965 01956 00000 10305 20160 30124 40133 70500 333 58004 70000==
41965,2024,11,19,09,00,AAXX 19094 41965 01956 03102 10320 20180 30104 40113 70500 333 58004 70000==
41965,2024,11,19,12,00,AAXX 19124 41965 01930 00000 10230 20200 30107 40116 70500 333 10325 59001 70000==
41965,2024,11,19,15,00,AAXX 19154 41965 01930 03102 10215 20190 30119 40128 70500 333 59004 70000==
41965,2024,11,20,00,00,AAXX 20004 41965 NIL=
41965,2024,11,20,03,00,AAXX 20034 41965 01940 00000 10270 20170 30139 40148 70500 333 20180 59001 70000==
41965,2024,11,20,06,00,AAXX 20064 41965 01950 03103 10310 20170 30118 40127 70500 333 59006 70000==
41965,2024,11,20,09,00,AAXX 20094 41965 01950 00000 10295 20190 30097 40106 70500 333 59007 70000==
41965,2024,11,20,12,00,AAXX 20124 41965 01930 00000 10235 20200 30100 40109 70500 333 10315 59007 70000==
41965,2024,11,20,15,00,AAXX 20154 41965 01925 00000 10210 20190 30116 40125 71000 333 59003 70000==
41965,2024,11,20,18,00,AAXX 20184 41965 NIL=
41965,2024,11,20,21,00,AAXX 20214 41965 31910 00000 10185 20180 30113 40122 71000 333 59010 70000=
41965,2024,11,21,00,00,AAXX 21004 41965 01910 00000 10176 20170 30115 40124 71000 333 59019 70000==
41965,2024,11,21,03,00,AAXX 21034 41965 01935 00000 10235 20200 30135 40144 70500 333 20170 59004 70000==
41965,2024,11,21,06,00,AAXX 21064 41965 01950 00000 10315 20150 30116 40125 70500 333 59002 70000==
41965,2024,11,21,09,00,AAXX 21094 41965 01450 62702 10305 20180 30097 40106 70521 83530 333 58000 70000 83618 86362==
41965,2024,11,21,12,00,AAXX 21124 41965 01930 00000 10220 20180 30105 40114 70500 333 10318 58005 70000==
41965,2024,11,21,15,00,AAXX 21154 41965 01930 00000 10200 20180 30119 40128 70500 333 58003 70000==
41965,2024,11,21,18,00,AAXX 21184 41965 NIL=
41965,2024,11,21,21,00,AAXX 21214 41965 01910 00000 10185 20180 30113 40122 71000 333 59010 70000==
41966,2024,11,15,00,00,AAXX 15004 41966 01940 00000 10190 20180 30047 40128 70500 333 58002 70000==
41966,2024,11,15,03,00,AAXX 15034 41966 02950 40502 10263 20210 30063 40142 82510 333 10183 59014 70000 82616 83460==
41966,2024,11,15,06,00,AAXX 15064 41966 02/50 30000 10300 20150 30043 40121 83030 333 58010 70000 83362==
41966,2024,11,15,09,00,AAXX 15094 41966 02/50 30401 10305 20110 30022 40099 83030 333 59005 70000 83362==
41966,2024,11,15,12,00,AAXX 15124 41966 02/40 31201 10245 20220 30026 40105 83030 333 10310 59002 70000 83362==
41966,2024,11,15,15,00,AAXX 15154 41966 02430 40000 10220 20200 30038 40118 82510 333 59015 70000 82616 83460==
41966,2024,11,16,03,00,AAXX 16034 41966 02950 00501 10265 20210 30062 40141 333 20185 59001 70000==
41966,2024,11,16,06,00,AAXX 16064 41966 02450 40501 10298 20160 30043 40122 82510 333 58000 70000 82616 83460==
41966,2024,11,16,09,00,AAXX 16094 41966 02/50 30000 10300 20100 30021 40099 83030 333 59001 70000 83362==
41966,2024,11,16,12,00,AAXX 16124 41966 02/40 30901 10245 20220 30020 40099 83030 333 10305 59006 70000==
41966,2024,11,16,15,00,AAXX 16154 41966 02930 00301 20230 30033 40123 333 59005 70000==
41966,2024,11,16,18,00,AAXX 16184 41966 NIL=
41966,2024,11,17,00,00,AAXX 17004 41966 02440 51201 10200 20190 30038 40119 82510 333 59008 70000 82616 84460==
41966,2024,11,17,03,00,AAXX 17034 41966 02550 40000 10256 20230 30053 40133 82130 333 20185 59009 70000 82826 83362==
41966,2024,11,17,06,00,AAXX 17064 41966 02550 22702 10290 20190 30046 40124 82100 333 58002 70000 82826==
41966,2024,11,17,09,00,AAXX 17094 41966 02550 13501 10300 20110 30025 40104 81100 333 58005 70000 81826==
41966,2024,11,17,12,00,AAXX 17124 41966 02440 40000 10250 20220 30030 40110 82510 333 10305 58010 70000 82616 83460==
41966,2024,11,17,15,00,AAXX 17154 41966 02430 43501 10210 20200 30039 40119 82510 333 58006 70000 82616 83460==
41966,2024,11,17,18,00,AAXX 17184 41966 NIL=
41966,2024,11,17,21,00,AAXX 17214 41966 02920 00000 10205 20200 30042 40123 333 58008 70000==
41966,2024,11,18,00,00,AAXX 18004 41966 01930 00502 10200 20190 30052 40133 70500 333 58014 70000==
41966,2024,11,18,03,00,AAXX 18034 41966 02550 40402 10245 20200 30073 40153 82130 333 20178 58020 70000 82826 83362==
41966,2024,11,18,06,00,AAXX 18064 41966 02/50 30000 10285 20130 30056 40134 83030 333 58010 70000 83362==
41966,2024,11,18,09,00,AAXX 18094 41966 02/50 31202 10298 20130 30035 40113 83030 333 58010 70000 83362==
41966,2024,11,18,12,00,AAXX 18124 41966 02940 00000 10235 20210 30040 40120 333 10302 58010 70000==
41966,2024,11,18,21,00,AAXX 18214 41966 02430 40000 10200 20190 30050 40131 82510 333 58002 70000 82616 83460==
41966,2024,11,19,00,00,AAXX 19004 41966 02440 40901 10185 20180 30054 40135 82510 333 58002 70000 82616 83460==
41966,2024,11,19,03,00,AAXX 19034 41966 02550 40501 10260 20200 30073 40153 82130 333 20170 58000 70000 82826 83362==
41966,2024,11,19,06,00,AAXX 19064 41966 02950 00501 10285 20190 30061 40140 333 59006 70000==
41966,2024,11,19,09,00,AAXX 19094 41966 02/50 10901 10300 20180 30036 40114 81010 333 58001 70000 81460==
41966,2024,11,19,12,00,AAXX 19124 41966 02940 00000 10240 20210 30042 40122 333 10302 58002 70000==
41966,2024,11,19,15,00,AAXX 19154 41966 02430 40401 10230 20200 30048 40128 82510 333 58005 70000 82616 83460==
41966,2024,11,19,21,00,AAXX 19214 41966 02430 40000 10225 20220 30053 40133 82510 333 58001 70000 82616 83460==
41966,2024,11,20,00,00,AAXX 20004 41966 02440 60901 10220 20210 30051 40132 82510 333 59003 70000 82616 85460==
41966,2024,11,20,03,00,AAXX 20034 41966 02450 60501 10260 20190 30076 40155 82510 333 20205 58003 70000 82616 85460==
41966,2024,11,20,06,00,AAXX 20064 41966 02450 60401 10290 20220 30057 40135 82510 333 59004 70000 82616 85460==
41966,2024,11,20,09,00,AAXX 20094 41966 02450 60000 10310 20230 30030 40108 82510 333 59006 70000 82616 85460==
41966,2024,11,20,12,00,AAXX 20124 41966 02440 50000 10260 20230 30036 40115 82510 333 10315 59006 70000 82616 84460==
41966,2024,11,20,15,00,AAXX 20154 41966 02430 50501 10245 20230 30048 40128 82510 333 58000 70000 82616 84460==
41966,2024,11,20,18,00,AAXX 20184 41966 NIL=
41966,2024,11,20,21,00,AAXX 20214 41966 32430 50000 10210 20200 30050 40130 82510 333 56990 59001 70000 82616 84460=
41966,2024,11,21,00,00,AAXX 21004 41966 02440 50000 10200 20190 30052 40133 82510 333 58001 70000 82616 84460==
41966,2024,11,21,03,00,AAXX 21034 41966 02450 40501 10260 20210 30073 40152 82510 333 10195 59003 70000 82616 83460==
41966,2024,11,21,06,00,AAXX 21064 41966 02/50 21501 10298 20200 30051 40129 83010 333 59006 70000 83460==
41966,2024,11,21,09,00,AAXX 21094 41966 02/50 30000 10300 20180 30031 40109 83010 333 58001 70000 83460==
41966,2024,11,21,12,00,AAXX 21124 41966 02/40 30501 10250 20220 30036 40116 83010 333 10305 58000 70000 83460==
41966,2024,11,21,15,00,AAXX 21154 41966 02/40 30501 10230 20220 30047 40127 82010 333 59001 70000 83460==
41966,2024,11,21,18,00,AAXX 21184 41966 NIL=
41966,2024,11,21,21,00,AAXX 21214 41966 02430 50000 10210 20200 30050 40130 82510 333 59001 70000 82616 84460==
41977,2024,11,15,00,00,AAXX 15004 41977 01950 30000 10214 20200 30098 40137 70500 80001 333 58007 70000 83080==
41977,2024,11,15,03,00,AAXX 15034 41977 01950 00000 10278 20190 30111 40149 70500 333 20206 58003 70000==
41977,2024,11,15,06,00,AAXX 15064 41977 01950 03103 10318 20160 30094 40131 70500 333 59001 70000==
41977,2024,11,15,09,00,AAXX 15094 41977 01950 03002 10315 20190 30076 40114 70500 333 58001 70000==
41977,2024,11,15,12,00,AAXX 15124 41977 01950 00000 10240 20190 30076 40114 70500 333 10325 59004 70000==
41977,2024,11,15,15,00,AAXX 15154 41977 01950 00000 10227 20200 30093 40132 70500 333 59011 70000==
41977,2024,11,15,18,00,AAXX 15184 41977 01950 00000 10214 20190 30092 40131 70500 333 59009 70000==
41977,2024,11,15,21,00,AAXX 15214 41977 01950 00000 10208 20200 30085 40087 70500 333 59008 70000==
41977,2024,11,16,00,00,AAXX 16004 41977 01950 00000 10200 20190 30092 40131 70500 333 59006 70000==
41977,2024,11,16,03,00,AAXX 16034 41977 01950 00000 10280 20200 30109 40148 70500 333 20198 59002 70000==
41977,2024,11,16,06,00,AAXX 16064 41977 01956 03103 10312 20250 30087 40124 70500 333 59007 70000==
41977,2024,11,16,09,00,AAXX 16094 41977 NIL=
41977,2024,11,16,12,00,AAXX 16124 41977 01950 00000 10237 20180 30070 40109 70500 333 10322 59006 70000==
41977,2024,11,16,15,00,AAXX 16154 41977 01950 00000 10217 20190 30091 40130 70500 333 59001 70000==
41977,2024,11,16,18,00,AAXX 16184 41977 01950 00000 10208 20200 30086 40125 70500 333 59006 70000==
41977,2024,11,17,00,00,AAXX 17004 41977 01950 00000 10200 20190 30090 40129 70500 333 59002 70000==
41977,2024,11,17,03,00,AAXX 17034 41977 01950 00000 10255 20200 30122 40160 70500 333 20197 58019 70000==
41977,2024,11,17,06,00,AAXX 17064 41977 01950 00000 10300 20170 30099 40137 70500 333 58012 70000==
41977,2024,11,17,09,00,AAXX 17094 41977 NIL=
41977,2024,11,17,15,00,AAXX 17154 41977 NIL=
41977,2024,11,17,18,00,AAXX 17184 41977 NIL=
41977,2024,11,17,21,00,AAXX 17214 41977 01950 00000 10205 20190 30093 40132 70500 333 58011 70000==
41977,2024,11,18,00,00,AAXX 18004 41977 01950 00000 10205 20190 30093 40132 70500 333 58011 70000==
41977,2024,11,18,03,00,AAXX 18034 41977 01950 00000 10258 20200 30119 40121 70500 333 20194 59003 70000==
41977,2024,11,18,06,00,AAXX 18064 41977 NIL=
41977,2024,11,18,09,00,AAXX 18094 41977 01950 01802 10295 20180 30089 40127 70500 333 58021 70000==
41977,2024,11,18,12,00,AAXX 18124 41977 01950 00000 10234 20190 30090 40129 70500 333 10315 58015 70000==
41977,2024,11,18,21,00,AAXX 18214 41977 01950 00000 10205 20190 30104 40143 70500 333 58011 70000==
41977,2024,11,19,00,00,AAXX 19004 41977 01950 00000 10196 20180 30108 40147 70500 333 58010 70000==
41977,2024,11,19,03,00,AAXX 19034 41977 01950 00000 10262 20180 30130 40168 70500 333 20182 58010 70000==
41977,2024,11,19,06,00,AAXX 19064 41977 01950 00000 10300 20180 30117 40155 70500 333 58014 70000==
41977,2024,11,19,09,00,AAXX 19094 41977 NIL=
41977,2024,11,19,12,00,AAXX 19124 41977 01950 00000 10253 20200 30090 40129 70500 333 10315 58000 70000==
41977,2024,11,19,15,00,AAXX 19154 41977 01450 30000 10222 20190 30105 40144 70522 82530 333 59001 70000 82618 83362==
41977,2024,11,20,00,00,AAXX 20004 41977 NIL=
41977,2024,11,20,03,00,AAXX 20034 41977 01450 60000 10274 20190 30120 40158 70522 84530 333 20210 59010 70000 84616 84362==
41977,2024,11,20,06,00,AAXX 20064 41977 01450 42602 10300 20170 30117 40155 70522 83530 333 58000 70000 83618 84362==
41977,2024,11,20,12,00,AAXX 20124 41977 01450 50000 10262 20210 30094 40132 70521 82530 333 10308 58004 70000 82618 84080==
41977,2024,11,20,15,00,AAXX 20154 41977 01450 40000 10235 20220 30099 40138 70522 84500 333 59006 70000 84617==
41977,2024,11,20,18,00,AAXX 20184 41977 01450 40000 10228 20210 30101 40140 70522 84500 333 59009 70000 84617==
41977,2024,11,20,21,00,AAXX 20214 41977 31450 40000 10225 20210 30100 40139 70522 84500 333 56900 59006 70000 84617=
41977,2024,11,21,00,00,AAXX 21004 41977 01450 70000 10215 20190 30098 40137 70522 84530 333 58000 70000 84616 85363==
41977,2024,11,21,03,00,AAXX 21034 41977 01450 50000 10275 20160 30120 40159 70522 84530 333 20250 58000 70000 84618 84362==
41977,2024,11,21,06,00,AAXX 21064 41977 01450 50000 10303 20150 30112 40149 70522 84530 333 59005 70000 84618 84362==
41977,2024,11,21,09,00,AAXX 21094 41977 01950 02802 10300 20170 30081 40119 70500 333 59012 70000==
41977,2024,11,21,12,00,AAXX 21124 41977 NIL=
41977,2024,11,21,15,00,AAXX 21154 41977 01450 10000 10222 20200 30107 40146 70511 81500 333 58008 70000 81618==
41977,2024,11,21,18,00,AAXX 21184 41977 01950 00000 10218 20200 30105 40144 70510 333 58004 70000==
41977,2024,11,21,21,00,AAXX 21214 41977 01450 40000 10225 20210 30100 40139 70522 84500 333 59006 70000 84617==
41978,2024,11,15,00,00,AAXX 15004 41978 01435 30304 10220 20200 30114 40120 70500 83500 333 58000 70000 83618==
41978,2024,11,15,03,00,AAXX 15034 41978 01957 00505 10276 20200 30127 40134 70500 333 20216 59006 70000==
41978,2024,11,15,06,00,AAXX 15064 41978 02959 00604 10310 20140 30112 40118 333 58001 70000==
41978,2024,11,15,09,00,AAXX 15094 41978 02958 03405 10300 20170 30087 40093 333 59006 70000==
41978,2024,11,15,12,00,AAXX 15124 41978 01956 00000 10278 20200 30095 40101 70500 333 10315 59003 70000==
41978,2024,11,15,15,00,AAXX 15154 41978 01956 03503 10263 20170 30113 40119 70500 333 59006 70000==
41978,2024,11,15,18,00,AAXX 15184 41978 01950 00403 10241 20190 30106 40112 70500 333 59009 70000==
41978,2024,11,15,21,00,AAXX 15214 41978 01940 00403 10232 20200 30096 40102 70500 333 59009 70000==
41978,2024,11,16,00,00,AAXX 16004 41978 01945 00504 10213 20190 30106 40112 70500 333 59008 70000==
41978,2024,11,16,03,00,AAXX 16034 41978 01956 00405 10256 20200 30126 40132 70500 333 20210 59001 70000==
41978,2024,11,16,06,00,AAXX 16064 41978 02558 20705 10312 20150 30102 40109 82100 333 59010 70000 82825==
41978,2024,11,16,09,00,AAXX 16094 41978 02459 20506 10303 20170 30085 40091 82500 333 59002 70000 82618==
41978,2024,11,16,12,00,AAXX 16124 41978 02957 00103 10279 20160 30088 40095 333 10317 59007 70000==
41978,2024,11,16,15,00,AAXX 16154 41978 02956 00303 10270 20160 30106 40112 333 59007 70000==
41978,2024,11,16,18,00,AAXX 16184 41978 01940 00702 10244 20210 30101 40108 70500 333 59005 70000==
41978,2024,11,16,21,00,AAXX 16214 41978 01935 03502 10224 20190 30096 40103 70500 333 58000 70000==
41978,2024,11,17,00,00,AAXX 17004 41978 01431 33202 10208 20200 30105 40112 70500 83500 333 59001 70000 83616==
41978,2024,11,17,03,00,AAXX 17034 41978 01940 00105 10264 20190 30126 40133 70510 333 20203 58000 70000==
41978,2024,11,17,06,00,AAXX 17064 41978 01956 00508 10298 20160 30111 40118 70500 333 58009 70000==
41978,2024,11,17,09,00,AAXX 17093 41978 02957 03302 10297 20170 30091 40097 333 58006 70000==
41978,2024,11,17,12,00,AAXX 17124 41978 01956 03002 10274 20170 30095 40101 70500 333 10305 58008 70000==
41978,2024,11,17,15,00,AAXX 17154 41978 01956 00502 10266 20170 30110 40117 70500 333 58004 70000==
41978,2024,11,17,18,00,AAXX 17184 41978 01950 00000 10227 20200 30115 40121 70500 333 58014 70000==
41978,2024,11,17,21,00,AAXX 17214 41978 01940 00000 10219 20200 30110 40116 70500 333 58014 70000==
41978,2024,11,18,00,00,AAXX 18004 41978 01932 00404 10210 20190 30118 40125 70500 333 58013 70000==
41978,2024,11,18,03,00,AAXX 18034 41978 01950 00108 10257 20170 30138 40144 70500 333 20202 58012 70000==
41978,2024,11,18,06,00,AAXX 18064 41978 01450 21102 10298 20150 30124 40130 70500 82500 333 58013 70000 82618==
41978,2024,11,18,09,00,AAXX 18094 41978 02558 12805 10294 20160 30101 40108 81100 333 58010 70000 81825==
41978,2024,11,18,12,00,AAXX 18124 41978 02958 03005 10256 20180 30107 40113 333 10302 58012 70000==
41978,2024,11,18,15,00,AAXX 18154 41978 01956 00504 10254 20200 30122 40128 70500 333 58012 70000==
41978,2024,11,18,18,00,AAXX 18184 41978 01940 00504 10238 20210 30125 40131 70500 333 58010 70000==
41978,2024,11,18,21,00,AAXX 18214 41978 01940 00604 10227 20210 30121 40127 70500 333 58011 70000==
41978,2024,11,19,00,00,AAXX 19004 41978 31935 00406 10219 20190 30127 40133 70500 333 58009 70000=
41978,2024,11,19,03,00,AAXX 19034 41978 01957 00505 10256 20180 30144 40150 70500 333 20197 58006 70000==
41978,2024,11,19,06,00,AAXX 19064 41978 02958 03504 10298 20170 30123 40129 333 59001 70000==
41978,2024,11,19,09,00,AAXX 19094 41978 02980 02707 10300 20170 30104 40110 333 58003 70000==
41978,2024,11,19,12,00,AAXX 19124 41978 02980 02804 10271 20190 30109 40115 333 10313 58002 70000==
41978,2024,11,19,15,00,AAXX 19154 41978 01956 02503 10245 20200 30125 40131 70500 333 58003 70000==
41978,2024,11,19,18,00,AAXX 19184 41978 01956 00000 10233 20190 30125 40131 70500 333 58000 70000==
41978,2024,11,19,21,00,AAXX 19214 41978 01956 00000 10225 20200 30118 40124 70500 333 59003 70000==
41978,2024,11,20,00,00,AAXX 20004 41978 01938 00000 10216 20200 30121 40127 70500 333 59006 70000==
41978,2024,11,20,03,00,AAXX 20034 41978 01/38 33403 10272 20200 30140 40147 70500 83030 333 20208 59004 70000 83364==
41978,2024,11,20,06,00,AAXX 20064 41978 01557 42505 10286 20170 30123 40129 70510 82830 333 58000 70000 82620 84363==
41978,2024,11,20,09,00,AAXX 20094 41978 01456 32605 10289 20190 30100 40106 70510 83500 333 59004 70000 83618==
41978,2024,11,20,12,00,AAXX 20124 41978 01456 32702 10270 20200 30105 40111 70511 83400 333 10295 59004 70000 82618==
41978,2024,11,20,15,00,AAXX 20154 41978 01450 33002 10250 20200 30119 40125 70511 83500 333 59006 70000 83618==
41978,2024,11,20,18,00,AAXX 20184 41978 01450 51302 10238 20220 30118 40124 70511 82520 333 59007 70000 82618 84460==
41978,2024,11,20,21,00,AAXX 20214 41978 01435 61002 10230 20220 30111 40118 70522 83520 333 59007 70000 83618 86460==
41978,2024,11,21,00,00,AAXX 21004 41978 01431 60402 10226 20200 30118 40124 70522 83520 333 59003 70000 83618 86460==
41978,2024,11,21,03,00,AAXX 21034 41978 01545 30305 10268 20170 30139 40146 70511 81530 333 20220 59001 70000 81620 83363==
41978,2024,11,21,06,00,AAXX 21064 41978 01556 31104 10290 20150 30120 40126 70511 82530 333 59002 70000 82620 83363==
41978,2024,11,21,09,00,AAXX 21094 41978 01456 52607 10298 20160 30099 40106 70511 83530 333 59001 70000 83618 83362==
41978,2024,11,21,12,00,AAXX 21124 41978 02440 42704 10260 20170 30102 40109 82530 333 10310 59003 70000 82618 83362==
41978,2024,11,21,15,00,AAXX 21154 41978 01450 30000 10239 20200 30124 40130 70511 83500 333 58005 70000 83618==
41978,2024,11,21,18,00,AAXX 21184 41978 01440 20000 10227 20210 30121 40127 70511 82500 333 58003 70000 82618==
41978,2024,11,21,21,00,AAXX 21214 41978 01935 00000 10216 20200 30117 40123 70510 333 58006 70000==
41980,2024,11,15,00,00,AAXX 15004 41980 NIL=
41980,2024,11,15,03,00,AAXX 15034 41980 31940 03302 10274 20240 30012 40124 70500 333 59010 70000=
41980,2024,11,15,09,00,AAXX 15094 41980 32450 30000 10302 20210 39985 40096 83500 333 56900 59009 70000 83618=
41980,2024,11,15,12,00,AAXX 15124 41980 31940 00000 10246 20220 39991 40104 70500 333 10306 59007 70000=
41980,2024,11,16,00,00,AAXX 16004 41980 31940 03102 10206 20200 30009 40123 70500 333 58009 70000=
41980,2024,11,16,03,00,AAXX 16034 41980 31940 00502 10252 20150 30023 40136 70500 333 20198 58011 70000=
41980,2024,11,16,09,00,AAXX 16094 41980 32450 30000 10292 20200 39982 40093 83500 333 56900 59003 70000 83618=
41980,2024,11,16,12,00,AAXX 16124 41980 31940 00000 10244 20210 39990 40103 70500 333 10302 59001 70000=
41980,2024,11,16,15,00,AAXX 16154 41980 NIL=
41980,2024,11,16,18,00,AAXX 16184 41980 NIL=
41980,2024,11,17,00,00,AAXX 17004 41980 31940 00000 10202 20190 30012 40127 333 58003 70000=
41980,2024,11,17,03,00,AAXX 17034 41980 31940 00000 10244 20220 30024 40137 70500 333 20194 58001 70000=
41980,2024,11,17,09,00,AAXX 17094 41980 32450 22702 10306 20180 39990 40100 82500 333 56900 58008 70000 82618=
41980,2024,11,17,12,00,AAXX 17124 41980 31940 00000 10230 20200 39993 40106 70500 333 10310 58003 70000=
41980,2024,11,17,15,00,AAXX 17154 41980 NIL=
41980,2024,11,17,18,00,AAXX 17184 41980 NIL=
41980,2024,11,18,00,00,AAXX 18004 41980 31940 00000 10190 20180 30017 40132 70500 333 58005 70000=
41980,2024,11,18,03,00,AAXX 18034 41980 31940 00000 10238 20210 30031 40145 70500 333 20183 58005 70000=
41980,2024,11,18,06,00,AAXX 18064 41980 NIL=
41980,2024,11,18,09,00,AAXX 18094 41980 32950 03202 10292 20270 39997 40109 70500 333 58007 70000=
41980,2024,11,18,12,00,AAXX 18124 41980 32950 00000 10225 20220 30005 40119 70500 333 10298 58012 70000=
41980,2024,11,19,00,00,AAXX 19004 41980 31940 00000 10196 20190 30021 40136 70500 333 58004 70000=
41980,2024,11,19,03,00,AAXX 19034 41980 31940 03602 10240 20220 30040 40155 70500 333 20190 58009 70000=
41980,2024,11,19,06,00,AAXX 19064 41980 NIL=
41980,2024,11,19,09,00,AAXX 19094 41980 31940 03202 10302 20190 30003 40114 70500 333 58004 70000=
41980,2024,11,19,12,00,AAXX 19124 41980 31940 00000 10245 20220 30008 40121 70500 333 20314 58003 70000=
41980,2024,11,20,00,00,AAXX 20004 41980 31930 00000 10211 20220 30016 40131 70500 333 59005 70000=
41980,2024,11,20,03,00,AAXX 20034 41980 31940 03202 10257 20210 30040 40153 70520 82510 333 20198 58000 70000 82618=
41980,2024,11,20,06,00,AAXX 20064 41980 NIL=
41980,2024,11,20,09,00,AAXX 20094 41980 31940 00000 10298 20210 39996 40107 70500 333 59009 70000=
41980,2024,11,20,12,00,AAXX 20124 41980 31940 30000 10248 20230 30002 40115 70510 82510 333 10306 56990 70000 82618=
41980,2024,11,20,18,00,AAXX 20184 41980 NIL=
41980,2024,11,21,00,00,AAXX 21004 41980 31940 00000 10206 20200 30015 40129 70500 333 59001 70000=
41980,2024,11,21,03,00,AAXX 21034 41980 31940 00502 10252 20190 30037 40150 70500 333 20202 59003 70000=
41980,2024,11,21,09,00,AAXX 21094 41980 31940 00000 10304 20200 39997 40108 70500 333 59006 70000=
41980,2024,11,21,12,00,AAXX 21124 41980 31940 00000 10242 20190 30003 40116 70500 333 10310 58007 70000=
41980,2024,11,21,15,00,AAXX 21154 41980 NIL=
41980,2024,11,21,18,00,AAXX 21184 41980 NIL=
41984,2024,11,15,00,00,AAXX 15004 41984 02930 00000 10195 20195 30108 40110 333 59003 70000==
41984,2024,11,15,03,00,AAXX 15034 41984 02940 00000 10254 20210 30123 40125 333 20181 59005 70000==
41984,2024,11,15,06,00,AAXX 15064 41984 02956 00000 10296 20180 30107 40109 333 59004 70000==
41984,2024,11,15,09,00,AAXX 15094 41984 02956 00000 10297 20170 30084 40086 333 59010 70000==
41984,2024,11,15,12,00,AAXX 15124 41984 02940 00000 10233 20210 30089 40091 333 10314 59006 70000==
41984,2024,11,15,15,00,AAXX 15154 41984 02940 00000 10215 20210 30104 40106 333 59010 70000==
41984,2024,11,15,18,00,AAXX 15184 41984 02940 00000 10210 20210 30100 40102 333 59012 70000==
41984,2024,11,15,21,00,AAXX 15214 41984 01940 00000 10207 20207 30101 40103 70500 333 59009 70000==
41984,2024,11,16,00,00,AAXX 16004 41984 01935 00000 10200 20200 30101 40103 70500 333 59007 70000==
41984,2024,11,16,03,00,AAXX 16034 41984 01950 00000 10248 20210 30117 40119 70500 333 20194 59006 70000==
41984,2024,11,16,06,00,AAXX 16064 41984 01956 00000 10298 20190 30100 40102 70500 333 59007 70000==
41984,2024,11,16,09,00,AAXX 16094 41984 01956 00000 10288 20190 30085 40087 70500 333 58001 70000==
41984,2024,11,16,12,00,AAXX 16124 41984 01940 00000 10220 20200 30087 40089 70500 333 10304 59002 70000==
41984,2024,11,16,15,00,AAXX 16154 41984 01940 00000 10200 20200 30106 40108 70500 333 58002 70000==
41984,2024,11,16,18,00,AAXX 16184 41984 01940 00000 10196 20196 30103 40105 70500 333 58003 70000==
41984,2024,11,17,00,00,AAXX 17004 41984 01945 00000 10178 20178 30107 40109 70500 333 58006 70000==
41984,2024,11,17,03,00,AAXX 17034 41984 01950 00000 10250 20180 30126 40128 70500 333 20174 58009 70000==
41984,2024,11,17,06,00,AAXX 17064 41984 01956 00000 10280 20150 30112 40114 70500 333 58012 70000==
41984,2024,11,17,09,00,AAXX 17094 41984 01956 00000 10280 20130 30089 40091 70500 333 58004 70000==
41984,2024,11,17,12,00,AAXX 17124 41984 01940 00000 10200 20180 30097 40099 70500 333 10298 58010 70000==
41984,2024,11,17,15,00,AAXX 17154 41984 01940 00000 10187 20180 30109 40111 70500 333 58003 70000==
41984,2024,11,17,18,00,AAXX 17184 41984 01940 00000 10180 20180 30114 40116 70500 333 58011 70000==
41984,2024,11,17,21,00,AAXX 17214 41984 01940 00000 10170 20170 30114 40117 70500 333 58009 70000==
41984,2024,11,18,00,00,AAXX 18004 41984 01950 00000 10168 20168 30113 40115 70500 333 58006 70000==
41984,2024,11,18,03,00,AAXX 18034 41984 01956 00000 10254 20160 30134 40137 70500 333 20163 58003 70000==
41984,2024,11,18,06,00,AAXX 18064 41984 01956 00000 10288 20130 30117 40119 70500 333 58005 70000==
41984,2024,11,18,09,00,AAXX 18094 41984 01956 00000 10286 20150 30097 40099 70500 333 58008 70000==
41984,2024,11,18,12,00,AAXX 18124 41984 01940 00000 10223 20180 30099 40101 70500 333 10305 58002 70000==
41984,2024,11,18,15,00,AAXX 18154 41984 01940 00000 10186 20180 30118 40120 70500 333 58009 70000==
41984,2024,11,18,18,00,AAXX 18184 41984 01940 00000 10184 20170 30125 40127 70500 333 58011 70000==
41984,2024,11,18,21,00,AAXX 18214 41984 01940 00000 10170 20160 30117 40119 70500 333 58003 70000==
41984,2024,11,19,00,00,AAXX 19004 41984 01940 00000 10167 20160 30120 40122 70500 333 58007 70000==
41984,2024,11,19,03,00,AAXX 19034 41984 01965 00000 10252 20170 30142 40144 70500 333 20160 58008 70000==
41984,2024,11,19,06,00,AAXX 19064 41984 02957 00000 10290 20160 30133 40135 333 58016 70000==
41984,2024,11,19,09,00,AAXX 19094 41984 02957 00000 10292 20150 30101 40103 333 58004 70000==
41984,2024,11,19,12,00,AAXX 19124 41984 02945 00000 10216 20190 30104 40106 333 10305 58005 70000==
41984,2024,11,19,15,00,AAXX 19154 41984 02940 00000 10200 20190 30120 40122 333 58002 70000==
41984,2024,11,19,18,00,AAXX 19184 41984 02940 00000 10185 20180 30119 40121 333 59006 70000==
41984,2024,11,19,21,00,AAXX 19214 41984 01940 00000 10178 20178 30117 40119 70500 333 58000 70000==
41984,2024,11,20,00,00,AAXX 20004 41984 01940 00000 10170 20170 30115 40118 70500 333 59005 70000==
41984,2024,11,20,03,00,AAXX 20034 41984 01956 00000 10250 20170 30138 40140 70500 333 20165 59004 70000==
41984,2024,11,20,06,00,AAXX 20064 41984 02957 00000 10285 20160 30118 40120 333 59015 70000==
41984,2024,11,20,09,00,AAXX 20094 41984 02957 00000 10290 20140 30095 40097 333 59006 70000==
41984,2024,11,20,12,00,AAXX 20124 41984 02945 00000 10220 20200 30096 40098 333 10305 59008 70000==
41984,2024,11,20,15,00,AAXX 20154 41984 02940 00000 10200 20190 30115 40117 333 59005 70000==
41984,2024,11,20,18,00,AAXX 20184 41984 02940 00000 10185 20185 30111 40113 333 59008 70000==
41984,2024,11,20,21,00,AAXX 20214 41984 31940 00000 10181 20180 30111 40113 333 59006 70000=
41984,2024,11,21,00,00,AAXX 21004 41984 01935 00000 10176 20176 30110 40113 70500 333 59005 70000==
41984,2024,11,21,03,00,AAXX 21034 41984 01950 00000 10248 20200 30131 40133 70500 333 20160 59007 70000==
41984,2024,11,21,06,00,AAXX 21064 41984 02956 00000 10291 20140 30119 40121 333 58001 70000==
41984,2024,11,21,09,00,AAXX 21094 41984 02957 00000 10288 20150 30094 40096 333 59001 70000==
41984,2024,11,21,12,00,AAXX 21124 41984 02945 00000 10230 20200 30099 40101 333 10305 58003 70000==
41984,2024,11,21,15,00,AAXX 21154 41984 02940 00000 10200 20190 30115 40117 333 58000 70000==
41984,2024,11,21,18,00,AAXX 21184 41984 02940 00000 10195 20190 30117 40119 333 58006 70000==
41984,2024,11,21,21,00,AAXX 21214 41984 02940 00000 10181 20180 30111 40113 333 59006 70000==
41989,2024,11,15,00,00,AAXX 15004 41989 01440 10000 10221 20180 30104 40107 70511 81500 333 59014 70000 81618==
41989,2024,11,15,03,00,AAXX 15034 41989 02950 03103 10286 20210 30118 40121 333 20206 59019 70000==
41989,2024,11,15,06,00,AAXX 15064 41989 02450 13202 10300 20210 30117 40120 81500 333 58015 70000 81618==
41989,2024,11,15,09,00,AAXX 15094 41989 02956 03204 10310 20190 30095 40098 333 58005 70000==
41989,2024,11,15,12,00,AAXX 15124 41989 02950 03103 10260 20170 30090 40094 333 10316 58007 70000==
41989,2024,11,15,15,00,AAXX 15154 41989 01440 21803 10250 20200 30106 40110 70521 82500 333 59010 70000 82618==
41989,2024,11,16,00,00,AAXX 16004 41989 01430 23202 10215 20200 30109 40112 70511 82500 333 59009 70000 82618==
41989,2024,11,16,03,00,AAXX 16034 41989 42450 23202 10254 20200 30120 40123 59012 82618==
41989,2024,11,16,06,00,AAXX 16064 41989 02956 03104 10303 20170 30101 40104 333 59016 70000==
41989,2024,11,16,09,00,AAXX 16094 41989 02956 03203 10308 20180 30086 40090 333 59009 70000==
41989,2024,11,16,12,00,AAXX 16124 41989 02950 03202 10280 20200 30081 40084 333 10320 59009 70000==
41989,2024,11,16,15,00,AAXX 16154 41989 01940 00000 10238 20200 30090 40093 70500 333 59016 70000==
41989,2024,11,16,18,00,AAXX 16184 41989 NIL=
41989,2024,11,17,00,00,AAXX 17004 41989 01940 00000 10207 20180 30096 40099 70500 333 59013 70000==
41989,2024,11,17,03,00,AAXX 17034 41989 02950 03204 10280 20210 30116 40119 333 20296 59004 70000==
41989,2024,11,17,06,00,AAXX 17064 41989 02450 13202 10295 20200 30116 40119 81500 333 58015 70000 81618==
41989,2024,11,17,09,00,AAXX 17094 41989 02956 03105 10300 20200 30085 40088 333 59001 70000==
41989,2024,11,17,12,00,AAXX 17124 41989 01940 03102 10258 20210 30081 40084 70510 333 10305 58000 70000==
41989,2024,11,17,15,00,AAXX 17154 41989 01450 21803 10248 20210 30118 40121 70510 82500 333 58028 70000 82618==
41989,2024,11,17,18,00,AAXX 17184 41989 NIL=
41989,2024,11,17,21,00,AAXX 17214 41989 01930 03202 10220 20200 30124 40127 70511 333 58032 70000==
41989,2024,11,18,00,00,AAXX 18004 41989 01930 03202 10205 20190 30122 40125 70511 333 58026 70000==
41989,2024,11,18,03,00,AAXX 18034 41989 01940 03202 10277 20210 30132 40135 70510 333 20200 70000==
41989,2024,11,18,06,00,AAXX 18064 41989 01450 13204 10301 20190 30124 40127 70510 81500 333 58008 70000 81618==
41989,2024,11,18,09,00,AAXX 18094 41989 01950 03103 10308 20220 30107 40110 70510 333 58022 70000==
41989,2024,11,18,12,00,AAXX 18124 41989 01440 13202 10280 20200 30107 40110 70511 81500 333 10315 58026 70000 81618==
41989,2024,11,18,15,00,AAXX 18154 41989 01940 00000 10236 20200 30115 40128 70510 333 59001 70000==
41989,2024,11,18,21,00,AAXX 18214 41989 01940 00000 10220 20180 30120 40124 70510 333 59004 70000==
41989,2024,11,19,00,00,AAXX 19004 41989 01940 00000 10211 20190 30119 40122 70510 333 59003 70000==
41989,2024,11,19,03,00,AAXX 19034 41989 01950 03204 10282 20200 30134 40137 70510 333 20202 58008 70000==
41989,2024,11,19,06,00,AAXX 19064 41989 01450 21803 10295 20190 30129 40132 70510 82500 333 58005 70000 82618==
41989,2024,11,19,09,00,AAXX 19094 41989 01956 03204 10302 20200 30102 40105 70510 333 59004 70000==
41989,2024,11,19,12,00,AAXX 19124 41989 01950 03102 10262 20190 30100 40103 70510 333 10306 59007 70000==
41989,2024,11,19,15,00,AAXX 19154 41989 01440 23202 10230 20200 30138 40141 70511 82500 333 58012 70000 82618==
41989,2024,11,19,21,00,AAXX 19214 41989 01430 23202 10220 20200 30136 40139 70511 82500 333 58016 70000 82618==
41989,2024,11,20,00,00,AAXX 20004 41989 01430 33202 10210 20200 30124 40127 70511 81501 333 58005 70000 81618 83080==
41989,2024,11,20,06,00,AAXX 20064 41989 01450 23104 10293 20200 30127 40130 70511 82500 333 59002 70000 82618==
41989,2024,11,20,09,00,AAXX 20094 41989 01450 21802 10298 20220 30098 40101 70511 82500 333 59004 70000 82618==
41989,2024,11,20,12,00,AAXX 20124 41989 01450 33102 10278 20210 30089 40092 70511 83500 333 59011 70000 83618==
41989,2024,11,20,15,00,AAXX 20154 41989 01440 20000 10235 20220 30108 40112 70511 82500 333 59022 70000 82618==
41989,2024,11,20,18,00,AAXX 20184 41989 NIL=
41989,2024,11,20,21,00,AAXX 20214 41989 31440 10000 10220 20200 30111 40115 70511 81500 333 56900 59025 70000 81618=
41989,2024,11,21,00,00,AAXX 21004 41989 01430 20000 10286 20220 30111 40114 70511 333 59013 70000 82618==
41989,2024,11,21,03,00,AAXX 21034 41989 01450 33204 10286 20210 30132 40135 70511 83500 333 20212 59006 70000 83618==
41989,2024,11,21,06,00,AAXX 21064 41989 01450 31803 10295 20190 30134 40138 70511 83500 333 58007 70000 83618==
41989,2024,11,21,09,00,AAXX 21094 41989 01450 23105 10298 20180 30102 40105 70511 82500 333 58004 70000 82618==
41989,2024,11,21,12,00,AAXX 21124 41989 01450 20000 10260 20180 30097 40100 70512 82500 333 10302 58008 70000 82618==
41989,2024,11,21,15,00,AAXX 21154 41989 01440 33202 10240 20210 30125 40129 70511 83500 333 58017 70000 83618==
41989,2024,11,21,18,00,AAXX 21184 41989 NIL=
41989,2024,11,21,21,00,AAXX 21214 41989 01440 10000 10220 20200 30111 40115 70511 81500 333 59025 70000 81618==
41992,2024,11,15,00,00,AAXX 15004 41992 01925 00303 10240 20220 30114 40116 70500 333 59004 70000==
41992,2024,11,15,03,00,AAXX 15034 41992 01930 03610 10285 20210 30130 40132 70500 333 20236 59006 70000==
41992,2024,11,15,06,00,AAXX 15064 41992 01930 00306 10310 20180 30118 40120 70500 333 58002 70000==
41992,2024,11,15,09,00,AAXX 15094 41992 01930 03305 10308 20180 30092 40094 70500 333 59006 70000==
41992,2024,11,15,12,00,AAXX 15124 41992 01930 00000 10268 20180 30097 40099 70500 333 10325 59007 70000==
41992,2024,11,15,15,00,AAXX 15154 41992 01925 00000 10250 20190 30114 40116 70500 333 59009 70000==
41992,2024,11,15,18,00,AAXX 15184 41992 01925 00000 10242 20200 30110 40112 70500 333 59007 70000==
41992,2024,11,15,21,00,AAXX 15214 41992 01925 00000 10236 20200 30096 40098 70500 333 59007 70000==
41992,2024,11,16,00,00,AAXX 16004 41992 01925 00000 10230 20200 30108 40110 70500 333 59006 70000==
41992,2024,11,16,03,00,AAXX 16034 41992 01935 03607 10278 20190 30128 40130 70500 333 20228 59002 70000==
41992,2024,11,16,06,00,AAXX 16064 41992 01935 03606 10308 20180 30108 40110 70500 333 59010 70000==
41992,2024,11,16,09,00,AAXX 16094 41992 01930 03308 10312 20180 30089 40091 70500 333 59003 70000==
41992,2024,11,16,12,00,AAXX 16124 41992 01925 03308 10270 20180 30092 40094 70500 333 10316 59005 70000==
41992,2024,11,16,15,00,AAXX 16154 41992 01925 00303 10255 20220 30109 40111 70500 333 59005 70000==
41992,2024,11,16,18,00,AAXX 16184 41992 01925 00000 10240 20170 30106 40108 70500 333 59004 70000==
41992,2024,11,16,21,00,AAXX 16214 41992 01925 00000 10235 20210 30094 40096 70500 333 59002 70000==
41992,2024,11,17,00,00,AAXX 17004 41992 01925 00000 10230 20210 30110 40112 70500 333 58002 70000==
41992,2024,11,17,03,00,AAXX 17034 41992 01930 00000 10275 20180 30130 40132 70500 333 20228 58002 70000==
41992,2024,11,17,06,00,AAXX 17064 41992 01935 03305 10300 20180 30114 40116 70500 333 59004 70000==
41992,2024,11,17,09,00,AAXX 17093 41992 01930 03303 10315 20160 30096 40098 70500 333 58007 70000==
41992,2024,11,17,12,00,AAXX 17124 41992 01925 03302 10275 20190 30102 40104 70500 333 10320 58010 70000==
41992,2024,11,17,15,00,AAXX 17154 41992 01925 00000 10252 20200 30115 40117 70500 333 58006 70000==
41992,2024,11,17,18,00,AAXX 17184 41992 01925 00000 10237 20200 30118 40120 70500 333 58012 70000==
41992,2024,11,17,21,00,AAXX 17214 41992 01925 00000 10230 20200 30106 40108 70500 333 58012 70000==
41992,2024,11,18,00,00,AAXX 18004 41992 01925 00000 10220 20190 30118 40120 70500 333 58008 70000==
41992,2024,11,18,03,00,AAXX 18034 41992 01935 00000 10270 20190 30141 40143 70500 333 20213 58011 70000==
41992,2024,11,18,06,00,AAXX 18064 41992 01935 03004 10308 20170 30127 40129 70500 333 58013 70000==
41992,2024,11,18,09,00,AAXX 18094 41992 01935 00000 10310 20160 30104 40106 70500 333 58008 70000==
41992,2024,11,18,12,00,AAXX 18124 41992 01930 00000 10260 20190 30111 40113 70500 333 10315 58009 70000==
41992,2024,11,18,15,00,AAXX 18154 41992 01925 03602 10247 20200 30128 40130 70500 333 58013 70000==
41992,2024,11,18,18,00,AAXX 18184 41992 01925 00000 10232 20190 30127 40129 70500 333 58009 70000==
41992,2024,11,18,21,00,AAXX 18214 41992 01925 00000 10225 20200 30116 40118 70500 333 58010 70000==
41992,2024,11,19,00,00,AAXX 19004 41992 31925 00000 10218 20200 30132 40134 70500 333 58014 70000=
41992,2024,11,19,03,00,AAXX 19034 41992 01935 00303 10267 20200 30147 40149 70500 333 20212 58006 70000==
41992,2024,11,19,06,00,AAXX 19064 41992 01935 00000 10303 20170 30131 40133 70500 333 58004 70000==
41992,2024,11,19,09,00,AAXX 19094 41992 01930 02406 10306 20190 30111 40113 70500 333 58007 70000==
41992,2024,11,19,12,00,AAXX 19124 41992 01925 03302 10270 20180 30117 40119 70500 333 10310 58006 70000==
41992,2024,11,19,15,00,AAXX 19154 41992 01925 00000 10240 20220 30133 40135 70500 333 58005 70000==
41992,2024,11,19,18,00,AAXX 19184 41992 01925 00000 10220 20210 30130 40132 70500 333 58003 70000==
41992,2024,11,19,21,00,AAXX 19214 41992 01925 00000 10232 20200 30114 40116 70500 333 59002 70000==
41992,2024,11,20,00,00,AAXX 20004 41992 01925 00000 10225 20210 30128 40130 70500 333 59004 70000==
41992,2024,11,20,03,00,AAXX 20034 41992 01935 00000 10275 20200 30149 40151 70500 333 20223 58002 70000==
41992,2024,11,20,09,00,AAXX 20094 41992 01930 00306 10310 20210 30104 40106 70500 333 59007 70000==
41992,2024,11,20,12,00,AAXX 20124 41992 01925 03302 10280 20200 30112 40114 70500 333 10315 59005 70000==
41992,2024,11,20,15,00,AAXX 20154 41992 01925 00000 10252 20220 30126 40128 70500 333 59007 70000==
41992,2024,11,20,18,00,AAXX 20184 41992 01925 00000 10242 20220 30123 40125 70500 333 59007 70000==
41992,2024,11,20,21,00,AAXX 20214 41992 01925 00000 10235 20220 30110 40112 70500 333 59004 70000==
41992,2024,11,21,00,00,AAXX 21003 41992 01925 00000 10230 20210 30126 40128 70500 333 59002 70000==
41992,2024,11,21,03,00,AAXX 21034 41992 01935 03604 10270 20210 30145 40147 70500 333 20228 59004 70000==
41992,2024,11,21,06,00,AAXX 21064 41992 01935 00000 10307 20210 30125 40127 70500 333 59002 70000==
41992,2024,11,21,09,00,AAXX 21094 41992 01935 00000 10292 20210 30102 40104 70500 333 59002 70000==
41992,2024,11,21,12,00,AAXX 21124 41992 01930 00000 10265 20200 30107 40107 70500 333 10325 59006 70000==
41992,2024,11,21,15,00,AAXX 21154 41992 01925 00000 10254 20200 30126 40128 70500 333 58000 70000==
41992,2024,11,21,18,00,AAXX 21184 41992 01925 00000 10244 20200 30126 40128 70500 333 59003 70000==
41992,2024,11,21,21,00,AAXX 21214 41992 01925 00000 10240 20210 30114 40116 70500 333 58004 70000==
41998,2024,11,15,00,00,AAXX 15004 41998 01950 00000 10225 20220 30121 40127 70500 333 58001 70000==
41998,2024,11,15,03,00,AAXX 15034 41998 02956 00000 10240 20230 30112 40118 333 20210 59002 70000==
41998,2024,11,15,09,00,AAXX 15094 41998 NIL=
41998,2024,11,15,12,00,AAXX 15124 41998 01950 00000 10277 20220 30116 40122 70500 333 10315 58001 70000==
41998,2024,11,15,15,00,AAXX 15154 41998 01950 00000 10276 20250 30112 40118 70500 333 58005 70000==
41998,2024,11,16,03,00,AAXX 16034 41998 01950 00000 10245 20230 30118 40124 70500 333 20200 58006 70000==
41998,2024,11,16,09,00,AAXX 16094 41998 02956 02702 10302 20220 30087 40093 333 59018 70000==
41998,2024,11,16,12,00,AAXX 16124 41998 01950 00000 10278 20230 30102 40108 70500 333 10321 59014 70000==
41998,2024,11,16,15,00,AAXX 16154 41998 01950 00000 10268 20250 30111 40117 70500 333 59001 70000==
41998,2024,11,16,18,00,AAXX 16184 41998 NIL=
41998,2024,11,17,00,00,AAXX 17004 41998 01950 00000 10225 20220 30123 40129 70500 333 59004 70000==
41998,2024,11,17,03,00,AAXX 17034 41998 01950 00000 10243 20210 30118 40124 70500 333 20203 58000 70000==
41998,2024,11,17,09,00,AAXX 17094 41998 NIL=
41998,2024,11,17,12,00,AAXX 17124 41998 01950 00000 10277 20250 30093 40099 70500 333 10306 59009 70000==
41998,2024,11,17,15,00,AAXX 17154 41998 NIL=
41998,2024,11,17,18,00,AAXX 17184 41998 NIL=
41998,2024,11,18,00,00,AAXX 18004 41998 01950 00000 10180 20170 30123 40129 70500 333 59004 70000==
41998,2024,11,18,03,00,AAXX 18034 41998 01950 00000 10210 20190 30113 49119 70500 333 20173 59005 70000==
41998,2024,11,18,06,00,AAXX 18064 41998 NIL=
41998,2024,11,18,09,00,AAXX 18094 41998 02956 02902 10301 20220 30086 40092 333 58002 70000==
41998,2024,11,18,12,00,AAXX 18124 41998 01950 00000 10276 20230 30096 40102 70500 333 10313 58003 70000==
41998,2024,11,19,03,00,AAXX 19034 41998 01950 00000 10220 20180 30118 40124 70500 333 20190 58005 70000==
41998,2024,11,19,06,00,AAXX 19064 41998 NIL=
41998,2024,11,19,09,00,AAXX 19094 41998 NIL=
41998,2024,11,19,12,00,AAXX 19124 41998 01950 00000 10276 20240 30097 40103 70500 333 10308 58001 70000==
41998,2024,11,20,00,00,AAXX 20004 41998 01950 00000 10215 20170 30131 40137 70500 333 58007 70000==
41998,2024,11,20,06,00,AAXX 20064 41998 02956 02802 10302 20230 30108 40114 333 58001 70000==
41998,2024,11,20,09,00,AAXX 20094 41998 02956 02702 10298 20240 30090 40090 333 59004 70000==
41998,2024,11,20,12,00,AAXX 20124 41998 01950 00000 10274 20230 30095 40101 70500 333 10306 59002 70000==
41998,2024,11,20,18,00,AAXX 20184 41998 NIL=
41998,2024,11,21,03,00,AAXX 21034 41998 01950 00000 10284 20240 30130 40136 70500 333 10192 58009 70000==
41998,2024,11,21,09,00,AAXX 21094 41998 02956 03002 10296 20230 30094 40100 333 58004 70000==
41998,2024,11,21,12,00,AAXX 21124 41998 01950 00000 10273 20230 30100 40106 70500 333 10310 58005 70000==
41998,2024,11,21,15,00,AAXX 21154 41998 NIL=
41998,2024,11,21,18,00,AAXX 21184 41998 NIL=
